##########################################################
# Query made at 02/17/2025 01:13:07 UTC
# Time interval: from 07/01/2010 00:00  to 07/31/2010 23:59  UTC
##########################################################

##########################################################
# KBFI, Seattle, Seattle Boeing Field (United States)
# WMO index: -----. WIGOS ID: Unknown
# Latitude 47-32-45N. Longitude 122-18-49W. Altitude 5 m.
##########################################################

###################################
#  METAR/SPECI from KBFI
###################################
201007312353 METAR KBFI 312353Z VRB04KT 10SM SCT200 21/12 A2999 RMK AO2 SLP153 T02110122 10211 20150 58012=
201007312253 METAR KBFI 312253Z 22007KT 10SM CLR 20/12 A3000 RMK AO2 SLP158 T02000117=
201007312153 METAR KBFI 312153Z 22008KT 10SM SCT021 19/12 A3001 RMK AO2 SLP160 T01890117=
201007312053 METAR KBFI 312053Z VRB05KT 10SM OVC019 18/11 A3002 RMK AO2 SLP165 T01830111 58004=
201007311953 METAR KBFI 311953Z 21008KT 10SM OVC015 17/12 A3002 RMK AO2 SLP166 T01670117=
201007311900 SPECI KBFI 311900Z VRB06KT 10SM OVC015 16/11 A3003 RMK AO2=
201007311900 SPECI KBFI 311900Z VRB06KT 10SM OVC015 16/11 A3003 RMK AO2=
201007311853 METAR KBFI 311853Z 18008KT 10SM OVC011 16/11 A3003 RMK AO2 SLP169 T01560111=
201007311830 SPECI KBFI 311830Z 21008KT 10SM OVC011 15/11 A3003 RMK AO2=
201007311830 SPECI KBFI 311830Z 21008KT 10SM OVC011 15/11 A3003 RMK AO2=
201007311753 METAR KBFI 311753Z 18004KT 7SM OVC009 15/11 A3003 RMK AO2 SLP169 T01500111 10150 20128 50006=
201007311653 METAR KBFI 311653Z VRB05KT 10SM OVC009 14/11 A3003 RMK AO2 SLP170 T01390111=
201007311553 METAR KBFI 311553Z 19007KT 10SM OVC007 13/11 A3003 RMK AO2 SLP167 T01330111=
201007311453 SPECI KBFI 311453Z 21004KT 10SM OVC007 13/11 A3001 RMK AO2 SLP162 T01330111 51011=
201007311353 METAR KBFI 311353Z 22005KT 5SM BR OVC007 13/11 A3000 RMK AO2 SLP159 T01330111=
201007311253 METAR KBFI 311253Z 20006KT 10SM OVC007 13/11 A2999 RMK AO2 SLP155 T01330111=
201007311153 METAR KBFI 311153Z 17005KT 10SM OVC007 13/12 A2998 RMK AO2 SLP151 T01330117 10200 20133 53006=
201007311053 METAR KBFI 311053Z 00000KT 10SM OVC010 14/12 A2997 RMK AO2 SLP147 T01390117=
201007311051 SPECI KBFI 311051Z 00000KT 10SM OVC010 14/12 A2997 RMK AO2=
201007311051 SPECI KBFI 311051Z 00000KT 10SM OVC010 14/12 A2997 RMK AO2=
201007310953 METAR KBFI 310953Z 00000KT 10SM CLR 15/12 A2996 RMK AO2 SLP145 T01500117=
201007310853 METAR KBFI 310853Z 16009KT 10SM CLR 16/12 A2999 RMK AO2 SLP154 T01560122 51012=
201007310753 METAR KBFI 310753Z 00000KT 10SM CLR 18/12 A2998 RMK AO2 SLP150 T01780122 402560122=
201007310653 METAR KBFI 310653Z 00000KT 10SM CLR 18/12 A2996 RMK AO2 SLP146 T01830122=
201007310553 METAR KBFI 310553Z 00000KT 10SM CLR 20/12 A2995 RMK AO2 SLP142 T02000122 10256 20200 50005=
201007310453 METAR KBFI 310453Z 00000KT 10SM CLR 21/12 A2995 RMK AO2 SLP143 T02110122=
201007310353 METAR KBFI 310353Z 00000KT 10SM CLR 23/13 A2994 RMK AO2 SLP138 T02280128=
201007310253 METAR KBFI 310253Z VRB03KT 10SM CLR 24/11 A2994 RMK AO2 SLP137 T02390111 56010=
201007310153 METAR KBFI 310153Z 31004KT 10SM CLR 25/11 A2994 RMK AO2 SLP139 T02500106=
201007310053 METAR KBFI 310053Z 30005KT 10SM CLR 25/11 A2995 RMK AO2 SLP143 T02500111=
201007302353 METAR KBFI 302353Z VRB06KT 10SM CLR 25/11 A2997 RMK AO2 SLP147 T02500106 10250 20150 56021=
201007302253 METAR KBFI 302253Z 35006KT 10SM CLR 24/11 A2998 RMK AO2 SLP153 T02440111=
201007302153 METAR KBFI 302153Z 33005KT 10SM CLR 22/12 A3001 RMK AO2 SLP160 T02220122=
201007302053 METAR KBFI 302053Z 19003KT 10SM CLR 20/13 A3003 RMK AO2 SLP167 T02000128 58011=
201007301953 METAR KBFI 301953Z VRB03KT 10SM SCT016 18/13 A3005 RMK AO2 SLP174 T01830128=
201007301950 SPECI KBFI 301950Z 21005KT 10SM SCT016 18/13 A3005 RMK AO2=
201007301950 SPECI KBFI 301950Z 21005KT 10SM SCT016 18/13 A3005 RMK AO2=
201007301900 SPECI KBFI 301900Z 00000KT 10SM OVC012 16/12 A3006 RMK AO2=
201007301900 SPECI KBFI 301900Z 00000KT 10SM OVC012 16/12 A3006 RMK AO2=
201007301853 METAR KBFI 301853Z 17005KT 10SM OVC008 17/12 A3006 RMK AO2 SLP179 T01670122=
201007301753 METAR KBFI 301753Z 00000KT 3SM HZ OVC008 15/12 A3006 RMK AO2 SLP180 T01500117 10150 20122 50001=
201007301653 SPECI KBFI 301653Z 00000KT 2SM OVC006 14/12 A3007 RMK AO2 SLP182 T01390122=
201007301600 SPECI KBFI 301600Z VRB03KT 2SM OVC004 14/12 A3007 RMK AO2=
201007301600 SPECI KBFI 301600Z VRB03KT 2SM OVC004 14/12 A3007 RMK AO2=
201007301553 METAR KBFI 301553Z 00000KT 1 1/4SM BR OVC004 14/12 A3007 RMK AO2 SLP181 T01390122=
201007301453 METAR KBFI 301453Z 00000KT 1 1/4SM BR OVC004 13/12 A3006 RMK AO2 SLP179 T01330122 53004=
201007301353 METAR KBFI 301353Z 00000KT 1 1/4SM BR OVC004 13/12 A3005 RMK AO2 SLP177 T01330122=
201007301312 SPECI KBFI 301312Z 15003KT 1/2SM FG OVC004 13/12 A3005 RMK AO2 CIG 003V007=
201007301312 SPECI KBFI 301312Z 15003KT 1/2SM FG OVC004 13/12 A3005 RMK AO2 CIG 003V007=
201007301253 METAR KBFI 301253Z 17003KT 1/2SM FG OVC006 13/11 A3005 RMK AO2 SLP176 T01280111=
201007301249 SPECI KBFI 301249Z AUTO 15004KT 1/2SM FG OVC006 13/11 A3005 RMK AO2=
201007301249 SPECI KBFI 301249Z AUTO 15004KT 1/2SM FG OVC006 13/11 A3005 RMK AO2=
201007301153 METAR KBFI 301153Z 00000KT 10SM CLR 14/11 A3005 RMK AO2 SLP175 T01390111 10178 20133 50002=
201007301053 METAR KBFI 301053Z 00000KT 10SM CLR 14/11 A3005 RMK AO2 SLP176 T01440111=
201007300953 METAR KBFI 300953Z 00000KT 10SM CLR 14/11 A3005 RMK AO2 SLP174 T01440111=
201007300853 METAR KBFI 300853Z 00000KT 10SM CLR 15/11 A3004 RMK AO2 SLP173 T01500111 51002=
201007300753 METAR KBFI 300753Z 00000KT 10SM CLR 16/12 A3004 RMK AO2 SLP173 T01560117 402280133=
201007300653 METAR KBFI 300653Z 00000KT 10SM CLR 17/12 A3004 RMK AO2 SLP172 T01670117=
201007300553 METAR KBFI 300553Z 00000KT 10SM CLR 18/12 A3004 RMK AO2 SLP171 T01780117 10228 20178 52008=
201007300453 METAR KBFI 300453Z 00000KT 10SM CLR 18/12 A3003 RMK AO2 SLP169 T01830117=
201007300353 METAR KBFI 300353Z 30004KT 10SM CLR 19/12 A3002 RMK AO2 SLP165 T01940117=
201007300253 METAR KBFI 300253Z 30004KT 10SM CLR 22/10 A3001 RMK AO2 SLP163 T02170100 56012=
201007300153 METAR KBFI 300153Z 30004KT 10SM CLR 22/10 A3002 RMK AO2 SLP165 T02170100=
201007300053 METAR KBFI 300053Z VRB03KT 10SM CLR 23/12 A3003 RMK AO2 SLP169 T02280117=
201007292353 METAR KBFI 292353Z 00000KT 10SM CLR 22/11 A3005 RMK AO2 SLP175 T02170111 10217 20144 58020=
201007292253 METAR KBFI 292253Z 24004KT 10SM CLR 20/12 A3007 RMK AO2 SLP182 T02000117=
201007292153 METAR KBFI 292153Z VRB04KT 10SM SCT012 18/11 A3009 RMK AO2 SLP189 T01830111=
201007292100 SPECI KBFI 292100Z VRB06KT 10SM SCT012 18/11 A3011 RMK AO2=
201007292100 SPECI KBFI 292100Z VRB06KT 10SM SCT012 18/11 A3011 RMK AO2=
201007292053 METAR KBFI 292053Z VRB03KT 10SM SCT012 OVC017 17/11 A3011 RMK AO2 SLP195 T01720111 58005=
201007292000 SPECI KBFI 292000Z VRB03KT 10SM SCT012 OVC017 16/11 A3012 RMK AO2=
201007292000 SPECI KBFI 292000Z VRB03KT 10SM SCT012 OVC017 16/11 A3012 RMK AO2=
201007291953 METAR KBFI 291953Z VRB03KT 10SM SCT009 OVC014 16/11 A3012 RMK AO2 SLP199 T01610111=
201007291853 SPECI KBFI 291853Z 00000KT 10SM SCT009 OVC014 15/11 A3012 RMK AO2 SLP201 T01500111=
201007291753 METAR KBFI 291753Z 27005KT 10SM OVC012 14/11 A3012 RMK AO2 SLP200 T01440106 10144 20133 58000=
201007291653 METAR KBFI 291653Z 22003KT 10SM OVC012 14/11 A3012 RMK AO2 SLP201 T01390106=
201007291553 METAR KBFI 291553Z 22006KT 10SM SCT009 OVC012 14/10 A3013 RMK AO2 SLP201 T01390100=
201007291453 METAR KBFI 291453Z 22005KT 10SM OVC008 13/10 A3012 RMK AO2 SLP200 T01330100 51007=
201007291440 SPECI KBFI 291440Z 22005KT 10SM OVC008 13/10 A3012 RMK AO2=
201007291440 SPECI KBFI 291440Z 22005KT 10SM OVC008 13/10 A3012 RMK AO2=
201007291433 SPECI KBFI 291433Z 21005KT 10SM OVC010 13/10 A3012 RMK AO2=
201007291433 SPECI KBFI 291433Z 21005KT 10SM OVC010 13/10 A3012 RMK AO2=
201007291353 METAR KBFI 291353Z 20004KT 10SM OVC008 13/10 A3012 RMK AO2 SLP198 T01330100=
201007291253 METAR KBFI 291253Z 22006KT 10SM OVC008 13/11 A3011 RMK AO2 SLP196 T01330106=
201007291153 METAR KBFI 291153Z 19005KT 10SM OVC010 13/10 A3010 RMK AO2 SLP193 T01330100 10172 20133 51008=
201007291053 METAR KBFI 291053Z AUTO 20007KT 10SM OVC010 13/10 A3010 RMK AO2 SLP192 T01330100 TSNO=
201007290953 METAR KBFI 290953Z AUTO 19008KT 10SM OVC010 13/11 A3009 RMK AO2 SLP189 T01330106 TSNO=
201007290853 METAR KBFI 290853Z 17006KT 10SM OVC010 13/11 A3008 RMK AO2 SLP185 T01330106 51016=
201007290753 METAR KBFI 290753Z 15006KT 10SM FEW010 13/11 A3007 RMK AO2 SLP181 T01330106 402500128=
201007290653 METAR KBFI 290653Z 16005KT 10SM CLR 15/11 A3005 RMK AO2 SLP176 T01500111=
201007290553 METAR KBFI 290553Z 17005KT 10SM CLR 17/12 A3003 RMK AO2 SLP168 T01720122 10250 20172 53015=
201007290453 METAR KBFI 290453Z 21004KT 10SM CLR 19/13 A3001 RMK AO2 SLP163 T01940133=
201007290353 METAR KBFI 290353Z 22004KT 10SM CLR 21/13 A2999 RMK AO2 SLP154 T02110128=
201007290253 METAR KBFI 290253Z VRB04KT 10SM BKN250 22/13 A2998 RMK AO2 SLP153 T02220128 52005=
201007290153 METAR KBFI 290153Z 00000KT 10SM CLR 24/10 A2997 RMK AO2 SLP150 T02390100=
201007290053 METAR KBFI 290053Z 16003KT 10SM BKN250 24/12 A2998 RMK AO2 SLP151 T02390117=
201007282353 METAR KBFI 282353Z 00000KT 10SM FEW040 BKN250 23/11 A2997 RMK AO2 SLP148 T02280111 10233 20150 58012=
201007282253 METAR KBFI 282253Z 21005KT 10SM FEW030 SCT250 23/12 A2998 RMK AO2 SLP153 T02280117=
201007282153 METAR KBFI 282153Z VRB03KT 10SM CLR 22/12 A2999 RMK AO2 SLP154 T02170117=
201007282053 METAR KBFI 282053Z 00000KT 10SM FEW100 20/12 A3000 RMK AO2 SLP159 T02000117 58005=
201007281953 METAR KBFI 281953Z 22004KT 10SM SCT015 18/11 A3001 RMK AO2 SLP163 T01830111=
201007281853 METAR KBFI 281853Z VRB03KT 10SM OVC013 17/11 A3002 RMK AO2 SLP164 T01670111=
201007281800 SPECI KBFI 281800Z VRB04KT 10SM OVC011 16/12 A3002 RMK AO2=
201007281800 SPECI KBFI 281800Z VRB04KT 10SM OVC011 16/12 A3002 RMK AO2=
201007281753 METAR KBFI 281753Z 24003KT 10SM OVC009 15/11 A3002 RMK AO2 SLP165 T01500111 10150 20128 51004=
201007281653 METAR KBFI 281653Z 22005KT 10SM OVC008 14/11 A3002 RMK AO2 SLP164 T01390111=
201007281553 METAR KBFI 281553Z VRB04KT 10SM OVC008 13/11 A3002 RMK AO2 SLP164 T01330111=
201007281453 METAR KBFI 281453Z 23004KT 10SM OVC006 13/11 A3001 RMK AO2 SLP160 T01330111 53010=
201007281353 METAR KBFI 281353Z 21003KT 10SM OVC006 13/11 A2999 RMK AO2 SLP156 T01330111=
201007281253 METAR KBFI 281253Z 18004KT 10SM OVC006 13/11 A2998 RMK AO2 SLP152 T01330111=
201007281153 METAR KBFI 281153Z VRB04KT 10SM OVC008 13/11 A2998 RMK AO2 SLP150 T01330111 10189 20133 51008=
201007281053 METAR KBFI 281053Z 21005KT 10SM OVC008 14/12 A2997 RMK AO2 SLP148 T01390117=
201007280953 METAR KBFI 280953Z 20004KT 10SM BKN008 14/12 A2996 RMK AO2 SLP146 T01390117=
201007280946 SPECI KBFI 280946Z 18004KT 10SM BKN008 14/12 A2996 RMK AO2=
201007280946 SPECI KBFI 280946Z 18004KT 10SM BKN008 14/12 A2996 RMK AO2=
201007280937 SPECI KBFI 280937Z 17005KT 10SM SCT008 14/12 A2996 RMK AO2=
201007280937 SPECI KBFI 280937Z 17005KT 10SM SCT008 14/12 A2996 RMK AO2=
201007280853 METAR KBFI 280853Z 17006KT 10SM CLR 14/12 A2995 RMK AO2 SLP142 T01440117 51012=
201007280753 METAR KBFI 280753Z 18006KT 10SM CLR 16/12 A2994 RMK AO2 SLP139 T01560117 402670128=
201007280653 METAR KBFI 280653Z 20005KT 10SM CLR 17/12 A2993 RMK AO2 SLP135 T01720122=
201007280553 METAR KBFI 280553Z 00000KT 10SM CLR 19/12 A2992 RMK AO2 SLP130 T01890122 10267 20189 53015=
201007280453 METAR KBFI 280453Z 00000KT 10SM CLR 21/12 A2990 RMK AO2 SLP124 T02110122=
201007280353 METAR KBFI 280353Z 19004KT 10SM CLR 23/12 A2988 RMK AO2 SLP117 T02280117=
201007280253 METAR KBFI 280253Z 22003KT 10SM CLR 24/11 A2987 RMK AO2 SLP115 T02440111 55004=
201007280153 METAR KBFI 280153Z 26004KT 10SM CLR 26/11 A2987 RMK AO2 SLP114 T02560111=
201007280053 METAR KBFI 280053Z VRB04KT 10SM CLR 26/12 A2987 RMK AO2 SLP116 T02610117=
201007272353 METAR KBFI 272353Z 22007KT 10SM CLR 27/11 A2988 RMK AO2 SLP119 T02670111 10267 20189 58007=
201007272253 METAR KBFI 272253Z 24003KT 10SM CLR 26/11 A2989 RMK AO2 SLP121 T02560111=
201007272153 METAR KBFI 272153Z 22007KT 10SM CLR 24/12 A2990 RMK AO2 SLP125 T02440117=
201007272053 METAR KBFI 272053Z VRB03KT 10SM SCT250 23/12 A2990 RMK AO2 SLP126 T02330122 58004=
201007271953 METAR KBFI 271953Z 19005KT 10SM SCT250 22/12 A2991 RMK AO2 SLP128 T02220117=
201007271853 METAR KBFI 271853Z VRB04KT 10SM CLR 21/11 A2992 RMK AO2 SLP130 T02060111=
201007271753 METAR KBFI 271753Z 16007KT 10SM SCT200 19/11 A2991 RMK AO2 SLP129 T01890111 10189 20128 51001=
201007271653 METAR KBFI 271653Z 16006KT 10SM SCT200 17/11 A2991 RMK AO2 SLP129 T01670111=
201007271553 METAR KBFI 271553Z 16007KT 10SM SCT009 16/11 A2992 RMK AO2 SLP130 T01560106=
201007271453 METAR KBFI 271453Z 18006KT 10SM SCT009 14/11 A2991 RMK AO2 SLP128 T01440106 53014=
201007271353 METAR KBFI 271353Z COR 17007KT 10SM FEW013 SCT250 13/10 A2990 RMK AO2 SLP123 T01330100=
201007271253 METAR KBFI 271253Z 18003KT 10SM SCT250 13/10 A2988 RMK AO2 SLP118 T01330100=
201007271153 METAR KBFI 271153Z 17007KT 10SM CLR 14/10 A2987 RMK AO2 SLP114 T01440100 10222 20139 53014=
201007271053 METAR KBFI 271053Z 17005KT 10SM CLR 15/10 A2985 RMK AO2 SLP109 T01500100=
201007270953 METAR KBFI 270953Z 17006KT 10SM CLR 16/11 A2984 RMK AO2 SLP103 T01610111=
201007270853 METAR KBFI 270853Z 00000KT 10SM CLR 18/12 A2983 RMK AO2 SLP100 T01780117 52010=
201007270753 METAR KBFI 270753Z 00000KT 10SM CLR 19/11 A2982 RMK AO2 SLP097 T01890111 403000156=
201007270653 METAR KBFI 270653Z 00000KT 10SM CLR 21/11 A2981 RMK AO2 SLP093 T02060111=
201007270553 METAR KBFI 270553Z 31003KT 10SM CLR 22/11 A2980 RMK AO2 SLP090 T02220111 10300 20222 51012=
201007270453 METAR KBFI 270453Z 00000KT 10SM CLR 24/10 A2979 RMK AO2 SLP087 T02390100=
201007270353 METAR KBFI 270353Z 32003KT 10SM CLR 26/09 A2977 RMK AO2 SLP081 T02560094=
201007270253 METAR KBFI 270253Z 33004KT 10SM CLR 28/09 A2976 RMK AO2 SLP078 T02830094 55002=
201007270153 METAR KBFI 270153Z VRB03KT 10SM CLR 29/10 A2976 RMK AO2 SLP077 T02890100=
201007270053 METAR KBFI 270053Z 29003KT 10SM CLR 29/11 A2976 RMK AO2 SLP077 T02940111=
201007262353 METAR KBFI 262353Z VRB05KT 10SM CLR 29/12 A2977 RMK AO2 SLP080 T02940117 10294 20228 56017=
201007262253 METAR KBFI 262253Z 31005KT 10SM CLR 29/11 A2978 RMK AO2 SLP085 T02890106=
201007262153 METAR KBFI 262153Z VRB04KT 10SM CLR 28/09 A2980 RMK AO2 SLP091 T02830094=
201007262053 METAR KBFI 262053Z VRB05KT 10SM CLR 27/09 A2982 RMK AO2 SLP097 T02670094 58013=
201007261953 METAR KBFI 261953Z VRB05KT 10SM CLR 25/09 A2984 RMK AO2 SLP104 T02500094=
201007261853 METAR KBFI 261853Z 30004KT 10SM CLR 24/11 A2985 RMK AO2 SLP107 T02390106=
201007261753 METAR KBFI 261753Z 30003KT 10SM CLR 23/11 A2986 RMK AO2 SLP109 T02280106 10233 20156 57011=
201007261653 METAR KBFI 261653Z VRB03KT 10SM CLR 22/12 A2986 RMK AO2 SLP112 T02170117=
201007261553 METAR KBFI 261553Z 00000KT 10SM CLR 20/12 A2988 RMK AO2 SLP117 T02000122=
201007261453 METAR KBFI 261453Z 00000KT 10SM CLR 18/12 A2989 RMK AO2 SLP120 T01830122 50005=
201007261353 METAR KBFI 261353Z 00000KT 10SM CLR 17/11 A2989 RMK AO2 SLP122 T01670106 $=
201007261253 METAR KBFI 261253Z 00000KT 10SM CLR 16/11 A2988 RMK AO2 SLP119 T01610111 $=
201007261153 METAR KBFI 261153Z 00000KT 10SM CLR 17/11 A2987 RMK AO2 SLP115 T01670111 10217 20167 53004 $=
201007261053 METAR KBFI 261053Z 00000KT 10SM CLR 17/12 A2987 RMK AO2 SLP113 T01720122 $=
201007260953 METAR KBFI 260953Z VRB03KT 10SM CLR 18/12 A2986 RMK AO2 SLP111 T01780122 $=
201007260853 METAR KBFI 260853Z 00000KT 10SM CLR 19/12 A2986 RMK AO2 SLP111 T01890122 58002 $=
201007260753 METAR KBFI 260753Z 00000KT 10SM CLR 19/12 A2987 RMK AO2 SLP113 T01890117 402940156 $=
201007260653 METAR KBFI 260653Z 32004KT 10SM CLR 21/12 A2987 RMK AO2 SLP115 T02060122 $=
201007260553 METAR KBFI 260553Z 31003KT 10SM CLR 22/12 A2987 RMK AO2 SLP114 T02170117 10294 20217 50005 $=
201007260453 METAR KBFI 260453Z 00000KT 10SM CLR 23/11 A2987 RMK AO2 SLP114 T02330111 $=
201007260353 METAR KBFI 260353Z 30005KT 10SM CLR 24/11 A2986 RMK AO2 SLP110 T02440106 $=
201007260253 METAR KBFI 260253Z AUTO 30005KT 10SM CLR 26/09 A2985 RMK AO2 SLP109 T02560094 56007 TSNO $=
201007260153 METAR KBFI 260153Z 32008KT 10SM CLR 28/07 A2985 RMK AO2 SLP109 T02830072 $=
201007260053 METAR KBFI 260053Z 31007KT 10SM CLR 29/05 A2986 RMK AO2 SLP111 T02890050 $=
201007252353 METAR KBFI 252353Z 32007KT 290V350 10SM CLR 29/07 A2987 RMK AO2 SLP116 T02890067 10289 20222 58016 $=
201007252253 METAR KBFI 252253Z 31009KT 10SM CLR 28/06 A2989 RMK AO2 SLP120 T02830061 $=
201007252153 METAR KBFI 252153Z 33006KT 10SM CLR 28/07 A2991 RMK AO2 SLP128 T02830072 $=
201007252053 METAR KBFI 252053Z 30006KT 10SM CLR 26/09 A2992 RMK AO2 SLP132 T02610089 58013 $=
201007251953 METAR KBFI 251953Z 31007KT 10SM CLR 25/11 A2993 RMK AO2 SLP136 T02500106 $=
201007251853 METAR KBFI 251853Z 31005KT 10SM CLR 24/11 A2995 RMK AO2 SLP141 T02390111 $=
201007251753 METAR KBFI 251753Z VRB04KT 10SM CLR 22/11 A2996 RMK AO2 SLP145 T02220111 10222 20156 56008 $=
201007251653 METAR KBFI 251653Z 00000KT 10SM CLR 21/12 A2996 RMK AO2 SLP146 T02110117 $=
201007251553 METAR KBFI 251553Z 33004KT 10SM CLR 19/12 A2998 RMK AO2 PK WND 09026/1531 SLP151 T01940117 $=
201007251453 METAR KBFI 251453Z 33003KT 10SM CLR 18/11 A2998 RMK AO2 SLP153 T01830111 51006 $=
201007251353 METAR KBFI 251353Z 00000KT 10SM CLR 16/11 A2998 RMK AO2 SLP152 T01610111 $=
201007251253 METAR KBFI 251253Z 00000KT 10SM CLR 16/11 A2997 RMK AO2 SLP150 T01560111 $=
201007251153 METAR KBFI 251153Z 32004KT 10SM CLR 16/11 A2997 RMK AO2 SLP147 6//// 7//// T01610111 10228 20161 53001 $=
201007251053 METAR KBFI 251053Z 32003KT 10SM CLR 17/11 A2996 RMK AO2 SLP146 T01670111 $=
201007250953 METAR KBFI 250953Z 00000KT 10SM CLR 18/12 A2996 RMK AO2 SLP145 T01780117 $=
201007250853 METAR KBFI 250853Z 33004KT 10SM CLR 19/12 A2996 RMK AO2 SLP146 6//// T01890117 $=
201007250800 METAR KBFI NIL=
201007250653 METAR KBFI 250653Z AUTO 00000KT 10SM CLR 21/13 A2996 RMK AO2 SLP146 T02110128 TSNO=
201007250553 METAR KBFI 250553Z 35004KT 10SM CLR 22/12 A2996 RMK AO2 SLP146 T02220117 10283 20222 53003=
201007250453 METAR KBFI 250453Z 32003KT 10SM CLR 23/12 A2996 RMK AO2 SLP145 T02280117=
201007250353 METAR KBFI 250353Z 29004KT 10SM CLR 23/12 A2995 RMK AO2 SLP143 T02330117=
201007250253 METAR KBFI 250253Z 31006KT 10SM CLR 25/12 A2995 RMK AO2 SLP143 T02500117 56012=
201007250153 METAR KBFI 250153Z 29007KT 10SM CLR 26/12 A2996 RMK AO2 SLP146 T02610122=
201007250053 METAR KBFI 250053Z 32009KT 10SM CLR 27/12 A2997 RMK AO2 SLP150 T02720122=
201007242353 METAR KBFI 242353Z 31008KT 10SM CLR 28/11 A2999 RMK AO2 SLP155 T02780111 10283 20217 56015=
201007242253 METAR KBFI 242253Z 30010G15KT 10SM CLR 28/11 A3000 RMK AO2 SLP158 T02780111=
201007242153 METAR KBFI 242153Z 33009G16KT 10SM CLR 27/12 A3002 RMK AO2 SLP164 T02720117=
201007242053 METAR KBFI 242053Z 32007KT 10SM CLR 27/12 A3003 RMK AO2 SLP169 T02670117 56018=
201007241953 METAR KBFI 241953Z VRB04KT 10SM CLR 25/11 A3005 RMK AO2 SLP174 T02500111=
201007241853 METAR KBFI 241853Z 34007KT 10SM CLR 24/12 A3007 RMK AO2 SLP181 T02390117=
201007241753 SPECI KBFI 241753Z VRB04KT 10SM CLR 22/12 A3008 RMK AO2 SLP187 T02220117 10222 20144 58004=
201007241653 METAR KBFI 241653Z 33005KT 10SM CLR 20/11 A3009 RMK AO2 SLP188 T02000111=
201007241553 METAR KBFI 241553Z 32005KT 10SM CLR 18/11 A3010 RMK AO2 SLP191 T01780111=
201007241453 METAR KBFI 241453Z 33003KT 10SM CLR 17/11 A3010 RMK AO2 SLP191 T01720111 50003=
201007241353 METAR KBFI 241353Z 00000KT 10SM CLR 16/11 A3010 RMK AO2 SLP191 T01560111=
201007241253 METAR KBFI 241253Z 00000KT 10SM CLR 15/11 A3009 RMK AO2 SLP189 T01500106=
201007241153 METAR KBFI 241153Z 00000KT 10SM CLR 15/11 A3009 RMK AO2 SLP188 T01500106 10211 20150 52001=
201007241053 METAR KBFI 241053Z 00000KT 10SM CLR 16/11 A3009 RMK AO2 SLP188 T01610106=
201007240953 METAR KBFI 240953Z 00000KT 10SM CLR 17/11 A3009 RMK AO2 SLP188 T01720111=
201007240853 METAR KBFI 240853Z 00000KT 10SM CLR 18/11 A3009 RMK AO2 SLP188 T01780111 58001=
201007240753 METAR KBFI 240753Z VRB03KT 10SM CLR 19/11 A3009 RMK AO2 SLP189 T01890111 402500122=
201007240653 METAR KBFI 240653Z 00000KT 10SM CLR 19/11 A3009 RMK AO2 SLP189 T01940111=
201007240553 METAR KBFI 240553Z 00000KT 10SM CLR 21/10 A3009 RMK AO2 SLP189 T02110100 10250 20211 53006=
201007240453 METAR KBFI 240453Z 00000KT 10SM CLR 21/12 A3009 RMK AO2 SLP188 T02110117=
201007240353 METAR KBFI 240353Z 31006KT 10SM CLR 22/12 A3008 RMK AO2 SLP184 T02170122=
201007240253 METAR KBFI 240253Z 30005KT 10SM CLR 23/12 A3007 RMK AO2 SLP183 T02330117 56010=
201007240153 METAR KBFI 240153Z 31006G17KT 10SM CLR 24/09 A3008 RMK AO2 SLP184 T02440094=
201007240053 METAR KBFI 240053Z 31009G15KT 10SM CLR 25/10 A3009 RMK AO2 SLP188 T02500100=
201007232353 METAR KBFI 232353Z 32007KT 10SM CLR 25/11 A3010 RMK AO2 SLP193 T02500111 10250 20172 56014=
201007232253 METAR KBFI 232253Z 32007KT 10SM CLR 24/11 A3012 RMK AO2 SLP198 T02390111=
201007232153 METAR KBFI 232153Z AUTO 30008KT 10SM CLR 24/11 A3013 RMK AO2 SLP201 T02390111=
201007232053 METAR KBFI 232053Z 30009G15KT 10SM CLR 23/11 A3014 RMK AO2 SLP207 T02280111 58013=
201007231953 METAR KBFI 231953Z 34007KT 10SM CLR 21/12 A3016 RMK AO2 SLP213 T02110117=
201007231853 METAR KBFI 231853Z VRB06KT 10SM CLR 19/12 A3017 RMK AO2 SLP217 T01890117=
201007231800 SPECI KBFI 231800Z VRB03KT 10SM CLR 17/11 A3018 RMK AO2=
201007231800 SPECI KBFI 231800Z VRB03KT 10SM CLR 17/11 A3018 RMK AO2=
201007231753 METAR KBFI 231753Z COR VRB05KT 10SM CLR 17/11 A3018 RMK AO2 SLP220 T01720111 10178 20122 52005=
201007231653 METAR KBFI 231653Z VRB05KT 10SM BKN016 17/11 A3017 RMK AO2 SLP218 T01670111=
201007231601 SPECI KBFI 231601Z 34003KT 10SM BKN016 16/11 A3018 RMK AO2=
201007231601 SPECI KBFI 231601Z 34003KT 10SM BKN016 16/11 A3018 RMK AO2=
201007231553 METAR KBFI 231553Z VRB04KT 10SM FEW016 16/11 A3017 RMK AO2 SLP217 T01610111=
201007231453 METAR KBFI 231453Z 34004KT 10SM CLR 14/11 A3017 RMK AO2 SLP215 T01440106 53006=
201007231353 METAR KBFI 231353Z 00000KT 10SM CLR 14/11 A3016 RMK AO2 SLP211 T01390106=
201007231253 METAR KBFI 231253Z 00000KT 10SM CLR 12/09 A3015 RMK AO2 SLP209 T01220094=
201007231153 METAR KBFI 231153Z 00000KT 10SM CLR 13/10 A3015 RMK AO2 SLP209 T01280100 10167 20122 50007=
201007231053 METAR KBFI 231053Z 00000KT 10SM CLR 13/10 A3015 RMK AO2 SLP209 T01330100=
201007230953 METAR KBFI 230953Z 00000KT 10SM CLR 13/10 A3014 RMK AO2 SLP204 T01330100=
201007230853 METAR KBFI 230853Z 16005KT 10SM CLR 13/11 A3013 RMK AO2 SLP202 T01330106 53016=
201007230753 METAR KBFI 230753Z VRB03KT 10SM CLR 15/11 A3011 RMK AO2 SLP196 T01500106 402000133=
201007230653 METAR KBFI 230653Z 00000KT 10SM SCT034 16/11 A3009 RMK AO2 SLP190 T01610111=
201007230553 METAR KBFI 230553Z 00000KT 10SM OVC034 16/12 A3008 RMK AO2 SLP186 T01610117 10200 20161 53010=
201007230453 METAR KBFI 230453Z 18003KT 10SM CLR 17/11 A3007 RMK AO2 SLP183 T01670111=
201007230353 METAR KBFI 230353Z 20005KT 10SM FEW047 18/11 A3006 RMK AO2 SLP178 T01780111=
201007230253 METAR KBFI 230253Z 17004KT 10SM FEW030 OVC048 19/11 A3005 RMK AO2 SLP176 T01890111 53000=
201007230153 METAR KBFI 230153Z VRB05KT 10SM SCT039 19/11 A3005 RMK AO2 SLP174 T01890111=
201007230053 METAR KBFI 230053Z VRB05KT 10SM SCT032 OVC044 19/11 A3005 RMK AO2 SLP175 T01940111=
201007222353 METAR KBFI 222353Z 17007KT 10SM OVC044 20/12 A3005 RMK AO2 SLP176 T02000117 10200 20156 53002=
201007222253 METAR KBFI 222253Z VRB05KT 10SM OVC031 19/11 A3005 RMK AO2 SLP174 T01890111=
201007222239 SPECI KBFI 222239Z 21005KT 10SM OVC031 19/11 A3005 RMK AO2=
201007222239 SPECI KBFI 222239Z 21005KT 10SM OVC031 19/11 A3005 RMK AO2=
201007222153 METAR KBFI 222153Z 16007KT 10SM OVC029 19/11 A3004 RMK AO2 SLP173 T01940111=
201007222151 SPECI KBFI 222151Z 19007KT 10SM OVC029 19/11 A3004 RMK AO2=
201007222151 SPECI KBFI 222151Z 19007KT 10SM OVC029 19/11 A3004 RMK AO2=
201007222138 SPECI KBFI 222138Z 18007KT 10SM BKN031 19/11 A3004 RMK AO2=
201007222138 SPECI KBFI 222138Z 18007KT 10SM BKN031 19/11 A3004 RMK AO2=
201007222053 METAR KBFI 222053Z 20006KT 10SM OVC029 19/11 A3003 RMK AO2 SLP170 T01890106 51007=
201007221953 METAR KBFI 221953Z 21007KT 10SM OVC025 18/11 A3003 RMK AO2 SLP169 T01830106=
201007221853 METAR KBFI 221853Z VRB06KT 10SM OVC019 16/10 A3002 RMK AO2 SLP166 T01610100=
201007221753 METAR KBFI 221753Z 18007KT 10SM OVC017 16/11 A3001 RMK AO2 SLP162 T01560106 10156 20133 51016=
201007221653 METAR KBFI 221653Z 18006KT 10SM OVC015 14/10 A3001 RMK AO2 SLP161 T01440100=
201007221624 SPECI KBFI 221624Z 20008KT 10SM OVC016 14/10 A3000 RMK AO2=
201007221624 SPECI KBFI 221624Z 20008KT 10SM OVC016 14/10 A3000 RMK AO2=
201007221553 METAR KBFI 221553Z 23006KT 9SM OVC012 14/11 A2998 RMK AO2 SLP153 T01390106=
201007221453 METAR KBFI 221453Z 17010KT 10SM OVC012 14/11 A2997 RMK AO2 SLP147 T01390111 50007=
201007221353 METAR KBFI 221353Z 18005KT 10SM OVC012 13/11 A2997 RMK AO2 SLP148 T01330106=
201007221253 METAR KBFI 221253Z 16009KT 10SM OVC014 14/10 A2996 RMK AO2 SLP144 T01390100=
201007221153 METAR KBFI 221153Z VRB06KT 10SM OVC014 14/10 A2995 RMK AO2 SLP140 T01390100 10222 20139 51009=
201007221053 METAR KBFI 221053Z VRB04KT 10SM OVC014 14/10 A2994 RMK AO2 SLP138 T01390100=
201007221012 SPECI KBFI 221012Z VRB06KT 10SM BKN014 14/11 A2993 RMK AO2=
201007221012 SPECI KBFI 221012Z VRB06KT 10SM BKN014 14/11 A2993 RMK AO2=
201007220953 METAR KBFI 220953Z 20005KT 10SM SCT014 14/11 A2993 RMK AO2 SLP134 T01440106=
201007220853 METAR KBFI 220853Z AUTO VRB06KT 10SM CLR 16/12 A2992 RMK AO2 SLP131 T01610117 53001 TSNO=
201007220753 METAR KBFI 220753Z 17006KT 10SM CLR 17/13 A2991 RMK AO2 SLP129 T01720128 402720122=
201007220653 METAR KBFI 220653Z 19005KT 10SM FEW070 19/14 A2991 RMK AO2 SLP129 T01940139=
201007220553 METAR KBFI 220553Z 21004KT 10SM FEW080 22/14 A2992 RMK AO2 SLP130 T02220144 10272 20222 58001=
201007220453 METAR KBFI 220453Z 24003KT 10SM CLR 23/14 A2991 RMK AO2 SLP130 T02330139=
201007220353 METAR KBFI 220353Z 00000KT 10SM CLR 25/14 A2992 RMK AO2 SLP132 T02500144=
201007220253 METAR KBFI 220253Z 00000KT 10SM CLR 26/13 A2992 RMK AO2 SLP131 T02610128 56005=
201007220153 METAR KBFI 220153Z 00000KT 10SM CLR 27/12 A2992 RMK AO2 SLP133 T02670122=
201007220053 METAR KBFI 220053Z 36005KT 10SM CLR 27/10 A2992 RMK AO2 SLP132 T02720100=
201007212353 METAR KBFI 212353Z 34005KT 10SM CLR 27/12 A2993 RMK AO2 SLP136 T02720122 10272 20172 58016=
201007212253 METAR KBFI 212253Z 29005KT 10SM CLR 26/11 A2996 RMK AO2 SLP144 T02610111=
201007212153 METAR KBFI 212153Z VRB03KT 10SM CLR 24/12 A2997 RMK AO2 SLP148 T02440117=
201007212053 METAR KBFI 212053Z 30006KT 7SM CLR 23/12 A2998 RMK AO2 SLP153 T02330117 58010=
201007211953 METAR KBFI 211953Z VRB03KT 10SM CLR 22/13 A2999 RMK AO2 SLP156 T02170128=
201007211853 METAR KBFI 211853Z VRB03KT 10SM CLR 19/12 A3000 RMK AO2 SLP160 T01940122=
201007211753 METAR KBFI 211753Z VRB03KT 10SM CLR 18/12 A3001 RMK AO2 SLP163 T01780122 10178 20122 58007=
201007211738 SPECI KBFI 211738Z VRB03KT 9SM SCT012 17/12 A3002 RMK AO2=
201007211738 SPECI KBFI 211738Z VRB03KT 9SM SCT012 17/12 A3002 RMK AO2=
201007211714 SPECI KBFI 211714Z 00000KT 7SM OVC010 16/12 A3002 RMK AO2=
201007211714 SPECI KBFI 211714Z 00000KT 7SM OVC010 16/12 A3002 RMK AO2=
201007211653 METAR KBFI 211653Z 19003KT 7SM OVC008 14/12 A3002 RMK AO2 SLP165 T01440117=
201007211553 METAR KBFI 211553Z 20004KT 3SM BR OVC006 13/12 A3004 RMK AO2 SLP170 T01330117=
201007211453 METAR KBFI 211453Z 19003KT 3SM BR OVC003 13/11 A3003 RMK AO2 SLP170 T01280111 53009=
201007211353 METAR KBFI 211353Z AUTO 13005KT 3SM BR OVC003 13/11 A3002 RMK AO2 SLP166 T01280111 TSNO=
201007211348 SPECI KBFI 211348Z AUTO 15005KT 7SM OVC004 13/11 A3002 RMK AO2=
201007211348 SPECI KBFI 211348Z AUTO 15005KT 7SM OVC004 13/11 A3002 RMK AO2=
201007211253 METAR KBFI 211253Z 16003KT 8SM OVC006 12/11 A3001 RMK AO2 SLP161 T01220106=
201007211245 SPECI KBFI 211245Z 16003KT 9SM SCT006 12/11 A3000 RMK AO2=
201007211245 SPECI KBFI 211245Z 16003KT 9SM SCT006 12/11 A3000 RMK AO2=
201007211153 METAR KBFI 211153Z 00000KT 10SM CLR 13/11 A2999 RMK AO2 SLP156 T01280106 10194 20128 51004=
201007211053 METAR KBFI 211053Z 15003KT 10SM CLR 13/11 A2999 RMK AO2 SLP156 T01330111=
201007210953 METAR KBFI 210953Z 00000KT 10SM CLR 16/12 A2998 RMK AO2 SLP153 T01560117=
201007210853 METAR KBFI 210853Z 00000KT 10SM CLR 17/12 A2998 RMK AO2 SLP152 T01670117 50002=
201007210753 METAR KBFI 210753Z 00000KT 10SM CLR 17/12 A2998 RMK AO2 SLP153 T01720117 402440128=
201007210653 METAR KBFI 210653Z 00000KT 10SM CLR 18/12 A2998 RMK AO2 SLP151 T01830122=
201007210553 METAR KBFI 210553Z 00000KT 10SM CLR 19/13 A2997 RMK AO2 SLP150 T01940128 10244 20189 53000=
201007210453 METAR KBFI 210453Z 00000KT 10SM FEW120 21/12 A2997 RMK AO2 SLP149 T02060122=
201007210353 METAR KBFI 210353Z 00000KT 10SM SCT120 22/12 A2997 RMK AO2 SLP149 T02170122=
201007210253 METAR KBFI 210253Z 21004KT 10SM SCT120 22/12 A2997 RMK AO2 SLP149 T02220122 55003=
201007210153 METAR KBFI 210153Z VRB03KT 10SM CLR 23/12 A2997 RMK AO2 SLP148 T02280122=
201007210053 METAR KBFI 210053Z 01003KT 10SM CLR 23/11 A2997 RMK AO2 SLP147 T02330111=
201007202353 METAR KBFI 202353Z 27004KT 10SM CLR 23/11 A2998 RMK AO2 SLP152 T02280106 10233 20144 58018=
201007202253 METAR KBFI 202253Z 23003KT 10SM FEW160 22/12 A3000 RMK AO2 SLP159 T02170117=
201007202153 METAR KBFI 202153Z 00000KT 10SM FEW018 BKN160 20/12 A3002 RMK AO2 SLP165 T02000117=
201007202053 METAR KBFI 202053Z 12004KT 10SM BKN018 18/12 A3003 RMK AO2 SLP170 T01830122 58012=
201007201953 METAR KBFI 201953Z 00000KT 10SM OVC012 16/12 A3005 RMK AO2 SLP175 T01610122=
201007201853 METAR KBFI 201853Z AUTO 00000KT 10SM OVC010 16/12 A3006 RMK AO2 SLP180 T01560117 TSNO=
201007201809 SPECI KBFI 201809Z VRB05KT 10SM OVC010 14/12 A3007 RMK AO2=
201007201809 SPECI KBFI 201809Z VRB05KT 10SM OVC010 14/12 A3007 RMK AO2=
201007201753 METAR KBFI 201753Z COR 22004KT 7SM OVC008 14/12 A3007 RMK AO2 SLP181 T01440117 10150 20128 58002=
201007201728 SPECI KBFI 201728Z 00000KT 9SM OVC008 14/12 A3007 RMK AO2=
201007201728 SPECI KBFI 201728Z 00000KT 9SM OVC008 14/12 A3007 RMK AO2=
201007201721 SPECI KBFI 201721Z 22004KT 10SM OVC010 15/12 A3007 RMK AO2=
201007201721 SPECI KBFI 201721Z 22004KT 10SM OVC010 15/12 A3007 RMK AO2=
201007201653 METAR KBFI 201653Z COR 21003KT 9SM OVC008 14/12 A3007 RMK AO2 SLP182 T01440117=
201007201553 METAR KBFI 201553Z 20005KT 9SM OVC008 14/11 A3008 RMK AO2 SLP185 T01390111=
201007201453 METAR KBFI 201453Z 00000KT 9SM OVC008 13/11 A3007 RMK AO2 SLP183 T01330111 56002=
201007201422 SPECI KBFI 201422Z 00000KT 9SM OVC008 13/11 A3007 RMK AO2=
201007201422 SPECI KBFI 201422Z 00000KT 9SM OVC008 13/11 A3007 RMK AO2=
201007201353 METAR KBFI 201353Z 00000KT 10SM SCT005 OVC010 13/11 A3008 RMK AO2 SLP184 T01330106=
201007201253 METAR KBFI 201253Z VRB03KT 10SM BKN010 13/11 A3007 RMK AO2 CIG 009V013 SLP181 T01280106=
201007201216 SPECI KBFI 201216Z 00000KT 10SM BKN010 13/11 A3007 RMK AO2=
201007201216 SPECI KBFI 201216Z 00000KT 10SM BKN010 13/11 A3007 RMK AO2=
201007201153 METAR KBFI 201153Z 00000KT 10SM CLR 13/11 A3008 RMK AO2 SLP185 T01330106 10178 20133 56002=
201007201053 METAR KBFI 201053Z 00000KT 10SM CLR 13/11 A3008 RMK AO2 SLP185 T01330106=
201007200953 METAR KBFI 200953Z 00000KT 10SM CLR 13/11 A3008 RMK AO2 SLP186 T01330106=
201007200853 METAR KBFI 200853Z 00000KT 10SM CLR 14/11 A3008 RMK AO2 SLP187 T01440111 58004=
201007200753 METAR KBFI 200753Z 25003KT 10SM CLR 16/12 A3010 RMK AO2 SLP191 T01560117 402220122=
201007200653 METAR KBFI 200653Z 00000KT 10SM CLR 17/12 A3009 RMK AO2 SLP190 T01670117=
201007200553 METAR KBFI 200553Z 00000KT 10SM CLR 18/12 A3010 RMK AO2 SLP191 T01780117 10222 20172 53000=
201007200453 METAR KBFI 200453Z AUTO 00000KT 10SM CLR 18/12 A3010 RMK AO2 SLP191 T01830117 TSNO=
201007200353 METAR KBFI 200353Z 24004KT 10SM CLR 19/11 A3009 RMK AO2 SLP188 T01890111=
201007200253 METAR KBFI 200253Z 30003KT 10SM FEW200 21/10 A3009 RMK AO2 SLP190 T02110100 56016=
201007200153 METAR KBFI 200153Z VRB03KT 10SM CLR 21/09 A3010 RMK AO2 SLP194 T02110094=
201007200053 METAR KBFI 200053Z VRB03KT 10SM CLR 22/11 A3012 RMK AO2 SLP200 T02170111=
201007192353 METAR KBFI 192353Z 25005KT 10SM CLR 21/11 A3014 RMK AO2 SLP206 T02060106 10206 20144 57017=
201007192253 SPECI KBFI 192253Z VRB03KT 10SM CLR 19/11 A3016 RMK AO2 SLP211 T01940106=
201007192153 METAR KBFI 192153Z VRB05KT 10SM CLR 19/11 A3018 RMK AO2 SLP218 T01940111=
201007192053 METAR KBFI 192053Z VRB03KT 10SM SCT025 18/11 A3019 RMK AO2 SLP223 T01830106 58008=
201007191953 METAR KBFI 191953Z 00000KT 10SM OVC021 17/10 A3020 RMK AO2 SLP227 T01720100=
201007191853 METAR KBFI 191853Z AUTO 24004KT 10SM OVC019 16/10 A3021 RMK AO2 SLP230 T01560100 TSNO=
201007191753 METAR KBFI 191753Z VRB04KT 10SM OVC017 15/11 A3021 RMK AO2 SLP231 T01500106 10150 20128 56002=
201007191653 METAR KBFI 191653Z VRB04KT 10SM OVC014 14/10 A3022 RMK AO2 SLP232 T01440100=
201007191553 METAR KBFI 191553Z 00000KT 10SM OVC014 14/09 A3022 RMK AO2 SLP232 T01390094=
201007191453 METAR KBFI 191453Z 18004KT 10SM OVC012 13/10 A3022 RMK AO2 SLP233 T01330100 51012=
201007191357 SPECI KBFI 191357Z 16007KT 10SM OVC018 13/09 A3022 RMK AO2=
201007191357 SPECI KBFI 191357Z 16007KT 10SM OVC018 13/09 A3022 RMK AO2=
201007191353 METAR KBFI 191353Z 16004KT 10SM OVC014 13/09 A3022 RMK AO2 SLP232 T01330094=
201007191253 METAR KBFI 191253Z 20004KT 10SM OVC014 13/09 A3021 RMK AO2 SLP228 T01280094=
201007191153 METAR KBFI 191153Z 17003KT 10SM OVC012 13/09 A3018 RMK AO2 SLP221 T01280094 10150 20122 51008=
201007191134 SPECI KBFI 191134Z 21004KT 10SM BKN012 13/09 A3018 RMK AO2=
201007191134 SPECI KBFI 191134Z 21004KT 10SM BKN012 13/09 A3018 RMK AO2=
201007191101 SPECI KBFI 191101Z 19003KT 10SM BKN024 12/09 A3018 RMK AO2=
201007191101 SPECI KBFI 191101Z 19003KT 10SM BKN024 12/09 A3018 RMK AO2=
201007191053 METAR KBFI 191053Z 18005KT 10SM SCT024 12/09 A3018 RMK AO2 SLP218 T01220094=
201007191000 SPECI KBFI 191000Z 19004KT 10SM CLR 12/09 A3017 RMK AO2=
201007191000 SPECI KBFI 191000Z 19004KT 10SM CLR 12/09 A3017 RMK AO2=
201007190953 METAR KBFI 190953Z 17004KT 10SM BKN029 12/09 A3017 RMK AO2 SLP216 T01220094=
201007190853 METAR KBFI 190853Z AUTO 20004KT 10SM BKN029 13/09 A3016 RMK AO2 SLP213 T01280094 51005 TSNO=
201007190753 METAR KBFI 190753Z AUTO 16005KT 10SM CLR 13/09 A3016 RMK AO2 SLP212 T01280094 401940122 TSNO=
201007190653 METAR KBFI 190653Z 18003KT 10SM CLR 13/10 A3015 RMK AO2 SLP210 T01330100=
201007190553 METAR KBFI 190553Z 18005KT 10SM CLR 15/11 A3015 RMK AO2 SLP208 T01500106 10194 20150 53008=
201007190453 METAR KBFI 190453Z 00000KT 10SM CLR 16/11 A3014 RMK AO2 SLP205 T01610111=
201007190353 METAR KBFI 190353Z 21003KT 10SM CLR 17/11 A3012 RMK AO2 SLP198 T01720111=
201007190253 METAR KBFI 190253Z VRB04KT 10SM SCT085 18/11 A3012 RMK AO2 SLP200 T01830111 55004=
201007190153 SPECI KBFI 190153Z 21005KT 10SM SCT085 19/12 A3012 RMK AO2 SLP198 T01890117=
201007190053 SPECI KBFI 190053Z VRB06KT 10SM SCT085 19/11 A3013 RMK AO2 SLP202 T01890111=
201007182353 METAR KBFI 182353Z 22008KT 10SM CLR 19/11 A3013 RMK AO2 SLP204 T01940111 10194 20139 58015=
201007182253 METAR KBFI 182253Z 21007KT 10SM FEW050 18/11 A3015 RMK AO2 SLP210 T01830111=
201007182153 METAR KBFI 182153Z VRB06KT 10SM FEW021 18/11 A3017 RMK AO2 SLP216 T01780111=
201007182145 SPECI KBFI 182145Z 24009G15KT 10SM SCT021 17/11 A3017 RMK AO2=
201007182145 SPECI KBFI 182145Z 24009G15KT 10SM SCT021 17/11 A3017 RMK AO2=
201007182053 METAR KBFI 182053Z 21008KT 10SM BKN015 17/11 A3018 RMK AO2 SLP219 T01670106 50001=
201007181953 METAR KBFI 181953Z 19007KT 10SM OVC017 16/10 A3018 RMK AO2 SLP219 T01560100=
201007181853 METAR KBFI 181853Z 23006KT 10SM OVC015 14/10 A3018 RMK AO2 SLP221 T01440100=
201007181826 SPECI KBFI 181826Z 22004KT 10SM OVC015 14/10 A3018 RMK AO2=
201007181826 SPECI KBFI 181826Z 22004KT 10SM OVC015 14/10 A3018 RMK AO2=
201007181753 METAR KBFI 181753Z 22006KT 10SM OVC013 14/10 A3018 RMK AO2 SLP218 T01390100 10139 20122 53006=
201007181653 METAR KBFI 181653Z 23006KT 10SM OVC013 13/09 A3017 RMK AO2 SLP215 T01330094=
201007181553 METAR KBFI 181553Z 17009KT 10SM OVC011 13/09 A3017 RMK AO2 SLP215 T01330094=
201007181525 SPECI KBFI 181525Z 18007KT 10SM OVC011 13/09 A3016 RMK AO2=
201007181525 SPECI KBFI 181525Z 18007KT 10SM OVC011 13/09 A3016 RMK AO2=
201007181453 METAR KBFI 181453Z 16007KT 10SM OVC008 13/09 A3016 RMK AO2 SLP212 T01280094 53006=
201007181353 METAR KBFI 181353Z 17007KT 10SM OVC008 13/09 A3015 RMK AO2 SLP209 T01280094=
201007181253 METAR KBFI 181253Z 20006KT 10SM OVC008 12/09 A3015 RMK AO2 SLP207 T01220094=
201007181153 METAR KBFI 181153Z 17007KT 10SM OVC008 12/10 A3014 RMK AO2 SLP206 T01220100 10178 20122 53006=
201007181140 SPECI KBFI 181140Z 16007KT 10SM OVC008 12/10 A3014 RMK AO2=
201007181140 SPECI KBFI 181140Z 16007KT 10SM OVC008 12/10 A3014 RMK AO2=
201007181053 METAR KBFI 181053Z 18008KT 10SM OVC010 12/10 A3013 RMK AO2 SLP204 T01220100=
201007180953 METAR KBFI 180953Z 17004KT 10SM BKN010 13/10 A3012 RMK AO2 SLP200 T01280100=
201007180853 METAR KBFI 180853Z 17005KT 10SM CLR 13/10 A3012 RMK AO2 SLP199 T01330100 52009=
201007180753 METAR KBFI 180753Z 17005KT 10SM CLR 14/11 A3012 RMK AO2 SLP198 T01390106 402220111=
201007180653 METAR KBFI 180653Z 17005KT 10SM CLR 16/12 A3010 RMK AO2 SLP191 T01610117=
201007180553 METAR KBFI 180553Z 00000KT 10SM CLR 18/12 A3009 RMK AO2 SLP190 T01830117 10222 20178 53006=
201007180453 METAR KBFI 180453Z VRB03KT 10SM CLR 19/12 A3009 RMK AO2 SLP187 T01890117=
201007180353 METAR KBFI 180353Z AUTO 16004KT 10SM CLR 20/12 A3007 RMK AO2 SLP183 T02000117 TSNO=
201007180253 METAR KBFI 180253Z 23004KT 10SM FEW050 22/12 A3007 RMK AO2 SLP183 T02170122 56012=
201007180153 METAR KBFI 180153Z 00000KT 10SM CLR 22/12 A3008 RMK AO2 SLP186 T02220117=
201007180053 METAR KBFI 180053Z 00000KT 10SM CLR 22/12 A3009 RMK AO2 SLP190 T02220117=
201007172353 METAR KBFI 172353Z 25005KT 10SM CLR 22/12 A3011 RMK AO2 SLP195 T02170117 10222 20144 56015=
201007172253 METAR KBFI 172253Z 16005KT 10SM CLR 21/11 A3012 RMK AO2 SLP201 T02110111=
201007172153 METAR KBFI 172153Z VRB05KT 10SM CLR 19/11 A3014 RMK AO2 SLP204 T01940111=
201007172053 METAR KBFI 172053Z 24005KT 10SM FEW050 18/11 A3015 RMK AO2 SLP210 T01830111 58007=
201007171953 METAR KBFI 171953Z VRB03KT 10SM SCT017 17/11 A3016 RMK AO2 SLP213 T01720106=
201007171853 METAR KBFI 171853Z 25006KT 10SM SCT015 16/11 A3017 RMK AO2 SLP216 T01610106=
201007171833 SPECI KBFI 171833Z 23006KT 10SM SCT015 16/11 A3017 RMK AO2=
201007171833 SPECI KBFI 171833Z 23006KT 10SM SCT015 16/11 A3017 RMK AO2=
201007171803 SPECI KBFI 171803Z AUTO 20006KT 10SM OVC015 16/11 A3017 RMK AO2 TSNO=
201007171803 SPECI KBFI 171803Z AUTO 20006KT 10SM OVC015 16/11 A3017 RMK AO2 TSNO=
201007171753 METAR KBFI 171753Z AUTO VRB04KT 10SM OVC013 14/10 A3017 RMK AO2 SLP217 T01440100 10144 20117 50000 TSNO=
201007171653 METAR KBFI 171653Z VRB05KT 10SM OVC011 13/10 A3018 RMK AO2 SLP218 T01330100=
201007171553 METAR KBFI 171553Z 23004KT 10SM OVC008 12/10 A3018 RMK AO2 SLP218 T01220100=
201007171453 METAR KBFI 171453Z 21004KT 10SM OVC008 12/10 A3017 RMK AO2 SLP217 T01220100 51009=
201007171353 METAR KBFI 171353Z 17005KT 10SM OVC008 12/09 A3017 RMK AO2 SLP215 T01170094=
201007171310 SPECI KBFI 171310Z 20005KT 10SM OVC008 12/09 A3015 RMK AO2=
201007171310 SPECI KBFI 171310Z 20005KT 10SM OVC008 12/09 A3015 RMK AO2=
201007171253 METAR KBFI 171253Z 18006KT 10SM BKN010 BKN035 12/09 A3015 RMK AO2 SLP210 T01170094=
201007171153 METAR KBFI 171153Z 00000KT 10SM FEW012 12/09 A3015 RMK AO2 SLP207 T01170089 10161 20111 51002=
201007171053 METAR KBFI 171053Z 18003KT 10SM CLR 12/09 A3014 RMK AO2 SLP206 T01170089=
201007170953 METAR KBFI 170953Z VRB03KT 10SM CLR 13/09 A3015 RMK AO2 SLP208 T01280094=
201007170853 METAR KBFI 170853Z 17005KT 10SM CLR 13/09 A3014 RMK AO2 SLP206 T01280094 53009=
201007170753 METAR KBFI 170753Z 16005KT 10SM CLR 14/10 A3013 RMK AO2 SLP202 T01390100 402110122=
201007170653 METAR KBFI 170653Z 19004KT 10SM CLR 15/11 A3012 RMK AO2 SLP199 T01500106=
201007170553 METAR KBFI 170553Z 00000KT 10SM CLR 16/11 A3011 RMK AO2 SLP196 T01610106 10211 20161 53006=
201007170453 METAR KBFI 170453Z 20004KT 10SM CLR 17/11 A3011 RMK AO2 SLP195 T01720106=
201007170353 METAR KBFI 170353Z 21004KT 10SM CLR 19/10 A3009 RMK AO2 SLP190 T01890100=
201007170253 METAR KBFI 170253Z 19003KT 10SM CLR 20/11 A3009 RMK AO2 SLP190 T02000106 56010=
201007170153 METAR KBFI 170153Z VRB04KT 10SM CLR 21/11 A3010 RMK AO2 SLP191 T02060111=
201007170053 METAR KBFI 170053Z 19006KT 10SM CLR 21/11 A3011 RMK AO2 SLP195 T02110111=
201007162353 METAR KBFI 162353Z 00000KT 10SM FEW031 19/11 A3012 RMK AO2 SLP201 T01940111 10200 20144 58012=
201007162315 SPECI KBFI 162315Z 00000KT 10SM SCT028 19/11 A3013 RMK AO2=
201007162315 SPECI KBFI 162315Z 00000KT 10SM SCT028 19/11 A3013 RMK AO2=
201007162253 METAR KBFI 162253Z VRB04KT 10SM OVC028 18/11 A3014 RMK AO2 SLP206 T01830106=
201007162153 METAR KBFI 162153Z 23005KT 10SM OVC024 17/10 A3015 RMK AO2 SLP208 T01670100=
201007162053 METAR KBFI 162053Z 18008KT 140V200 10SM OVC024 16/10 A3016 RMK AO2 SLP212 T01610100 50003=
201007161953 METAR KBFI 161953Z 17006KT 10SM OVC020 16/10 A3016 RMK AO2 SLP213 T01560100=
201007161853 METAR KBFI 161853Z 16008KT 10SM OVC018 15/10 A3016 RMK AO2 SLP213 T01500100=
201007161753 METAR KBFI 161753Z 20006KT 10SM OVC018 15/09 A3015 RMK AO2 SLP210 T01500094 10150 20122 53007=
201007161653 METAR KBFI 161653Z 23006KT 10SM OVC020 14/09 A3014 RMK AO2 SLP207 T01390094=
201007161553 METAR KBFI 161553Z 17006KT 10SM OVC016 14/09 A3014 RMK AO2 SLP205 T01390094=
201007161453 METAR KBFI 161453Z 17004KT 10SM OVC013 13/09 A3013 RMK AO2 SLP203 T01330094 51010=
201007161353 METAR KBFI 161353Z 18006KT 10SM OVC011 13/09 A3013 RMK AO2 SLP201 T01280094=
201007161253 METAR KBFI 161253Z 16009KT 10SM OVC011 12/09 A3011 RMK AO2 SLP196 T01220094=
201007161153 METAR KBFI 161153Z 18007KT 10SM BKN011 12/09 A3010 RMK AO2 SLP193 T01220094 10200 20122 52005=
201007161053 METAR KBFI 161053Z 16006KT 10SM CLR 13/09 A3010 RMK AO2 SLP191 T01280094=
201007160953 METAR KBFI 160953Z 18004KT 10SM CLR 13/10 A3009 RMK AO2 SLP190 T01330100=
201007160853 METAR KBFI 160853Z 18005KT 10SM CLR 14/11 A3009 RMK AO2 SLP188 T01440106 53007=
201007160753 METAR KBFI 160753Z 27004KT 10SM CLR 16/10 A3008 RMK AO2 SLP185 T01610100 402670144=
201007160653 METAR KBFI 160653Z 00000KT 10SM CLR 18/11 A3007 RMK AO2 SLP183 T01780111=
201007160553 METAR KBFI 160553Z 04003KT 10SM CLR 20/11 A3007 RMK AO2 SLP181 T02000106 10261 20194 53006=
201007160453 METAR KBFI 160453Z 00000KT 10SM CLR 20/12 A3005 RMK AO2 SLP177 T02000117=
201007160353 METAR KBFI 160353Z 28004KT 10SM CLR 21/11 A3004 RMK AO2 SLP173 T02110111=
201007160253 METAR KBFI 160253Z 30005KT 10SM CLR 23/11 A3005 RMK AO2 SLP175 T02280106 56009=
201007160153 METAR KBFI 160153Z 33007KT 10SM CLR 24/11 A3005 RMK AO2 SLP176 T02440106=
201007160053 METAR KBFI 160053Z 30006KT 10SM CLR 25/12 A3006 RMK AO2 SLP180 T02500117=
201007152353 METAR KBFI 152353Z 29005KT 10SM CLR 26/11 A3007 RMK AO2 SLP184 T02610111 10267 20189 56013=
201007152306 SPECI KBFI 152306Z VRB06KT 10SM CLR 27/11 A3008 RMK AO2=
201007152306 SPECI KBFI 152306Z VRB06KT 10SM CLR 27/11 A3008 RMK AO2=
201007152253 METAR KBFI 152253Z 33004KT 2SM HZ CLR 26/11 A3009 RMK AO2 SLP188 T02610106=
201007152153 METAR KBFI 152153Z 31006KT 10SM CLR 26/09 A3010 RMK AO2 SLP193 T02560094=
201007152053 METAR KBFI 152053Z 30005KT 10SM CLR 24/10 A3011 RMK AO2 SLP197 T02390100 58008=
201007151953 METAR KBFI 151953Z 32007KT 10SM CLR 22/11 A3012 RMK AO2 SLP200 T02220106=
201007151853 METAR KBFI 151853Z VRB06KT 10SM CLR 21/11 A3013 RMK AO2 SLP203 T02110106=
201007151753 METAR KBFI 151753Z 30004KT 10SM CLR 19/12 A3014 RMK AO2 SLP205 T01890117 10189 20144 58002=
201007151653 METAR KBFI 151653Z 33007KT 10SM CLR 16/11 A3014 RMK AO2 SLP206 T01610111=
201007151553 METAR KBFI 151553Z VRB05KT 10SM CLR 17/11 A3014 RMK AO2 SLP207 T01670111=
201007151453 METAR KBFI 151453Z VRB05KT 10SM CLR 16/11 A3014 RMK AO2 SLP207 T01560111 53007=
201007151353 METAR KBFI 151353Z 00000KT 10SM CLR 16/11 A3014 RMK AO2 SLP204 T01560106=
201007151253 METAR KBFI 151253Z 00000KT 10SM CLR 16/09 A3013 RMK AO2 SLP203 T01560089=
201007151153 METAR KBFI 151153Z 00000KT 10SM CLR 16/09 A3013 RMK AO2 SLP201 T01560089 10200 20156 51002=
201007151053 METAR KBFI 151053Z 00000KT 10SM CLR 16/09 A3012 RMK AO2 SLP200 T01560089=
201007150953 METAR KBFI 150953Z 00000KT 10SM CLR 17/09 A3012 RMK AO2 SLP199 T01670089=
201007150853 METAR KBFI 150853Z 32003KT 10SM CLR 17/08 A3012 RMK AO2 SLP198 T01720083 52004=
201007150753 METAR KBFI 150753Z 00000KT 10SM CLR 18/09 A3011 RMK AO2 SLP196 T01780089 402610133=
201007150653 METAR KBFI 150653Z 00000KT 10SM CLR 18/08 A3011 RMK AO2 SLP196 T01830083=
201007150553 METAR KBFI 150553Z 31004KT 10SM CLR 20/08 A3010 RMK AO2 SLP194 T02000078 10261 20200 53004=
201007150453 METAR KBFI 150453Z 00000KT 10SM CLR 22/06 A3010 RMK AO2 SLP192 T02170061=
201007150353 METAR KBFI 150353Z 00000KT 10SM CLR 23/05 A3009 RMK AO2 SLP188 T02280050=
201007150253 METAR KBFI 150253Z 30004KT 10SM CLR 24/06 A3009 RMK AO2 SLP189 T02440056 56010=
201007150153 METAR KBFI 150153Z 30007KT 10SM CLR 26/06 A3010 RMK AO2 SLP191 T02560056=
201007150053 METAR KBFI 150053Z 31008G15KT 10SM CLR 26/05 A3011 RMK AO2 SLP197 T02560050=
201007142353 METAR KBFI 142353Z 31009G14KT 10SM CLR 26/06 A3012 RMK AO2 SLP200 T02560061 10261 20194 56013=
201007142253 METAR KBFI 142253Z 32006KT 10SM CLR 26/07 A3013 RMK AO2 SLP204 T02560072=
201007142153 METAR KBFI 142153Z AUTO 33008KT 10SM CLR 25/07 A3015 RMK AO2 SLP208 T02500072 TSNO=
201007142053 METAR KBFI 142053Z VRB05KT 10SM CLR 24/08 A3016 RMK AO2 SLP212 T02390078 58013=
201007141953 METAR KBFI 141953Z 29006KT 10SM CLR 22/09 A3017 RMK AO2 SLP216 T02220089=
201007141853 METAR KBFI 141853Z VRB05KT 10SM CLR 22/08 A3019 RMK AO2 SLP222 T02170083=
201007141753 METAR KBFI 141753Z 28006KT 10SM CLR 20/08 A3020 RMK AO2 SLP225 T02000083 10200 20133 58005=
201007141653 METAR KBFI 141653Z 32006KT 10SM CLR 19/08 A3021 RMK AO2 SLP228 T01890083=
201007141553 METAR KBFI 141553Z VRB03KT 10SM CLR 18/08 A3021 RMK AO2 SLP229 T01830083=
201007141453 METAR KBFI 141453Z 31004KT 10SM CLR 16/09 A3021 RMK AO2 SLP230 T01610094 53006=
201007141353 METAR KBFI 141353Z 00000KT 10SM CLR 15/09 A3021 RMK AO2 SLP228 T01500089=
201007141253 METAR KBFI 141253Z 00000KT 10SM CLR 14/08 A3020 RMK AO2 SLP225 T01390083=
201007141153 METAR KBFI 141153Z 00000KT 10SM CLR 14/08 A3020 RMK AO2 SLP225 T01390078 10178 20133 53002=
201007141053 METAR KBFI 141053Z 00000KT 10SM CLR 15/07 A3019 RMK AO2 SLP222 T01500072=
201007140953 METAR KBFI 140953Z VRB03KT 10SM CLR 15/07 A3019 RMK AO2 SLP221 T01500072=
201007140853 METAR KBFI 140853Z 00000KT 10SM CLR 15/08 A3019 RMK AO2 SLP222 T01500083 51008=
201007140753 METAR KBFI 140753Z VRB03KT 10SM CLR 16/07 A3019 RMK AO2 SLP222 T01610072 402170111=
201007140653 METAR KBFI 140653Z 00000KT 10SM CLR 17/07 A3018 RMK AO2 SLP218 T01720067=
201007140553 METAR KBFI 140553Z 00000KT 10SM CLR 18/06 A3017 RMK AO2 SLP214 T01780061 10217 20178 53006=
201007140453 METAR KBFI 140453Z 00000KT 10SM CLR 18/06 A3016 RMK AO2 SLP213 T01830061=
201007140353 METAR KBFI 140353Z 32004KT 10SM FEW050 19/06 A3015 RMK AO2 SLP209 T01940056=
201007140253 METAR KBFI 140253Z 33005KT 10SM CLR 20/04 A3015 RMK AO2 SLP208 T02000044 56001=
201007140153 METAR KBFI 140153Z 30005KT 10SM FEW050 21/06 A3015 RMK AO2 SLP208 T02060061=
201007140053 METAR KBFI 140053Z 31005KT 10SM SCT050 21/07 A3014 RMK AO2 SLP207 T02110067=
201007132353 METAR KBFI 132353Z 00000KT 10SM FEW050 21/07 A3015 RMK AO2 SLP209 T02110067 10217 20150 58003=
201007132253 METAR KBFI 132253Z 00000KT 10SM FEW050 20/06 A3015 RMK AO2 SLP210 T02000056=
201007132153 METAR KBFI 132153Z 00000KT 10SM SCT046 SCT060 20/07 A3016 RMK AO2 SLP211 T02000072=
201007132053 METAR KBFI 132053Z 00000KT 10SM BKN055 19/08 A3016 RMK AO2 SLP211 T01940078 58002=
201007131953 METAR KBFI 131953Z 16004KT 10SM SCT036 BKN050 19/08 A3016 RMK AO2 SLP212 T01890083=
201007131900 SPECI KBFI 131900Z 17006KT 10SM FEW027 17/09 A3017 RMK AO2=
201007131900 SPECI KBFI 131900Z 17006KT 10SM FEW027 17/09 A3017 RMK AO2=
201007131853 METAR KBFI 131853Z 07003KT 10SM BKN027 BKN200 17/08 A3017 RMK AO2 SLP216 T01720083=
201007131753 METAR KBFI 131753Z COR 17005KT 10SM BKN027 BKN200 15/08 A3016 RMK AO2 SLP213 T01500083 10161 20111 51010=
201007131653 METAR KBFI 131653Z 15004KT 10SM BKN023 OVC055 14/08 A3015 RMK AO2 SLP210 T01440083=
201007131553 METAR KBFI 131553Z 14004KT 10SM OVC023 13/08 A3015 RMK AO2 SLP210 T01330078=
201007131453 METAR KBFI 131453Z 16005KT 10SM OVC023 13/08 A3013 RMK AO2 SLP204 T01330078 53009=
201007131353 METAR KBFI 131353Z 13005KT 10SM SCT022 BKN028 13/08 A3012 RMK AO2 SLP198 T01280078=
201007131344 SPECI KBFI 131344Z 13004KT 10SM BKN028 12/08 A3012 RMK AO2=
201007131344 SPECI KBFI 131344Z 13004KT 10SM BKN028 12/08 A3012 RMK AO2=
201007131253 METAR KBFI 131253Z 13004KT 10SM CLR 12/07 A3011 RMK AO2 SLP196 T01170072=
201007131153 METAR KBFI 131153Z 17004KT 10SM CLR 12/07 A3011 RMK AO2 SLP194 T01170072 10144 20117 53007=
201007131053 METAR KBFI 131053Z 17005KT 10SM CLR 12/07 A3010 RMK AO2 SLP191 T01220072=
201007130953 METAR KBFI 130953Z 16005KT 10SM OVC030 13/07 A3009 RMK AO2 SLP189 T01280072=
201007130853 METAR KBFI 130853Z 17005KT 10SM OVC030 13/07 A3009 RMK AO2 SLP187 T01330072 53008=
201007130753 METAR KBFI 130753Z 16008KT 10SM CLR 13/07 A3008 RMK AO2 SLP184 T01280072 402060128=
201007130653 METAR KBFI 130653Z 17007KT 10SM CLR 13/07 A3007 RMK AO2 SLP181 T01330072=
201007130553 METAR KBFI 130553Z 17006KT 10SM BKN070 14/07 A3006 RMK AO2 SLP179 T01440072 10206 20144 51015=
201007130453 METAR KBFI 130453Z VRB06KT 10SM BKN060 16/07 A3005 RMK AO2 SLP176 T01560072=
201007130353 METAR KBFI 130353Z 20008G14KT 10SM BKN055 17/07 A3003 RMK AO2 SLP167 T01670072=
201007130253 METAR KBFI 130253Z 21009G18KT 10SM BKN070 18/08 A3002 RMK AO2 SLP164 T01780078 55000=
201007130153 METAR KBFI 130153Z 19007KT 090V230 10SM SCT065 BKN080 18/08 A3001 RMK AO2 SLP161 T01830078=
201007130053 METAR KBFI 130053Z 20008G16KT 120V240 10SM SCT047 BKN075 20/08 A3001 RMK AO2 SLP161 T02000078=
201007122353 METAR KBFI 122353Z 22006KT 10SM BKN060 19/08 A3002 RMK AO2 SLP164 T01940078 10194 20139 50000=
201007122253 METAR KBFI 122253Z VRB05KT 10SM BKN049 19/09 A3003 RMK AO2 SLP167 T01890094=
201007122153 METAR KBFI 122153Z 04005KT 10SM FEW029 OVC043 17/09 A3002 RMK AO2 SLP165 T01720094=
201007122053 METAR KBFI 122053Z VRB04KT 10SM SCT025 BKN050 18/10 A3002 RMK AO2 SLP164 T01780100 51011=
201007121953 METAR KBFI 121953Z 00000KT 10SM SCT018 OVC035 16/10 A3000 RMK AO2 SLP160 T01610100=
201007121900 SPECI KBFI 121900Z 00000KT 10SM OVC035 14/10 A3000 RMK AO2=
201007121900 SPECI KBFI 121900Z 00000KT 10SM OVC035 14/10 A3000 RMK AO2=
201007121853 METAR KBFI 121853Z 00000KT 10SM OVC029 14/10 A3000 RMK AO2 SLP159 T01440100=
201007121753 METAR KBFI 121753Z 24003KT 7SM SCT017 OVC026 14/09 A2998 RMK AO2 RAB15E39 SLP152 P0000 60000 T01390094 10139 20128 53009=
201007121653 METAR KBFI 121653Z VRB03KT 7SM OVC023 13/09 A2998 RMK AO2 SLP150 T01330094=
201007121553 METAR KBFI 121553Z 18006KT 5SM HZ SCT012 OVC026 13/09 A2996 RMK AO2 RAE1458 SLP143 P0000 T01330094=
201007121453 METAR KBFI 121453Z VRB04KT 5SM -RA OVC025 13/09 A2995 RMK AO2 RAB35 SLP143 P0000 60000 T01330089 53006=
201007121353 METAR KBFI 121353Z 17006G15KT 10SM OVC025 14/08 A2995 RMK AO2 SLP140 T01390078=
201007121253 METAR KBFI 121253Z 17007KT 10SM OVC023 14/08 A2994 RMK AO2 SLP137 T01390083=
201007121153 METAR KBFI 121153Z 17006KT 10SM OVC021 14/08 A2994 RMK AO2 SLP136 T01390083 10172 20133 51007=
201007121100 SPECI KBFI 121100Z 18006KT 10SM OVC019 13/09 A2993 RMK AO2=
201007121100 SPECI KBFI 121100Z 18006KT 10SM OVC019 13/09 A2993 RMK AO2=
201007121053 METAR KBFI 121053Z 19003KT 10SM BKN011 OVC015 13/09 A2992 RMK AO2 SLP133 T01330094=
201007120953 METAR KBFI 120953Z VRB04KT 6SM BR BKN011 OVC015 13/11 A2993 RMK AO2 SLP134 T01330111=
201007120946 SPECI KBFI 120946Z VRB04KT 8SM BKN009 OVC015 14/12 A2993 RMK AO2=
201007120946 SPECI KBFI 120946Z VRB04KT 8SM BKN009 OVC015 14/12 A2993 RMK AO2=
201007120939 SPECI KBFI 120939Z VRB03KT 9SM BKN011 OVC015 14/12 A2992 RMK AO2=
201007120939 SPECI KBFI 120939Z VRB03KT 9SM BKN011 OVC015 14/12 A2992 RMK AO2=
201007120853 METAR KBFI 120853Z VRB04KT 9SM BKN008 OVC016 15/13 A2991 RMK AO2 CIG 007V012 SLP129 T01500128 51001=
201007120826 SPECI KBFI 120826Z 17004KT 7SM BKN008 BKN014 OVC020 15/13 A2991 RMK AO2 CIG 007V011=
201007120826 SPECI KBFI 120826Z 17004KT 7SM BKN008 BKN014 OVC020 15/13 A2991 RMK AO2 CIG 007V011=
201007120816 SPECI KBFI 120816Z 21007KT 6SM BR SCT008 BKN014 OVC020 15/13 A2991 RMK AO2=
201007120816 SPECI KBFI 120816Z 21007KT 6SM BR SCT008 BKN014 OVC020 15/13 A2991 RMK AO2=
201007120753 METAR KBFI 120753Z 20003KT 7SM SCT010 OVC017 16/13 A2991 RMK AO2 SLP129 T01560133 402390156=
201007120653 METAR KBFI 120653Z 19009G15KT 10SM BKN015 OVC025 17/13 A2991 RMK AO2 SLP129 T01670133=
201007120553 METAR KBFI 120553Z VRB05KT 10SM BKN020 OVC030 17/13 A2991 RMK AO2 SLP128 T01720133 10217 20172 53006=
201007120453 METAR KBFI 120453Z VRB05KT 10SM OVC029 18/14 A2991 RMK AO2 SLP127 T01780139=
201007120353 METAR KBFI 120353Z 18007KT 10SM OVC027 19/14 A2989 RMK AO2 SLP122 T01890139=
201007120253 METAR KBFI 120253Z 18009KT 10SM BKN021 20/14 A2989 RMK AO2 SLP122 T02000144 58011=
201007120153 METAR KBFI 120153Z VRB05KT 10SM SCT021 19/14 A2991 RMK AO2 SLP128 T01940139=
201007120053 SPECI KBFI 120053Z 19006KT 10SM CLR 22/14 A2992 RMK AO2 SLP130 T02170144=
201007112353 METAR KBFI 112353Z 26008KT 10SM SCT025 21/14 A2993 RMK AO2 SLP133 T02110144 10239 20178 56011=
201007112253 METAR KBFI 112253Z 24007KT 10SM FEW028 23/15 A2993 RMK AO2 SLP135 T02280150=
201007112153 METAR KBFI 112153Z 29008KT 10SM FEW023 23/15 A2994 RMK AO2 SLP137 T02330150=
201007112053 METAR KBFI 112053Z 24009KT 10SM SCT023 22/16 A2996 RMK AO2 SLP144 T02220156 58009=
201007112005 SPECI KBFI 112005Z VRB05KT 10SM SCT018 21/15 A2996 RMK AO2=
201007112005 SPECI KBFI 112005Z VRB05KT 10SM SCT018 21/15 A2996 RMK AO2=
201007111953 METAR KBFI 111953Z 25006KT 10SM BKN016 21/15 A2997 RMK AO2 SLP148 T02110150=
201007111918 SPECI KBFI 111918Z 18006KT 10SM OVC016 20/15 A2999 RMK AO2=
201007111918 SPECI KBFI 111918Z 18006KT 10SM OVC016 20/15 A2999 RMK AO2=
201007111853 METAR KBFI 111853Z 21008KT 10SM OVC014 19/14 A2998 RMK AO2 SLP153 T01890144=
201007111844 SPECI KBFI 111844Z 20006KT 10SM OVC012 19/14 A2998 RMK AO2=
201007111844 SPECI KBFI 111844Z 20006KT 10SM OVC012 19/14 A2998 RMK AO2=
201007111753 METAR KBFI 111753Z 18008KT 10SM OVC008 18/14 A2998 RMK AO2 SLP153 T01780144 10183 20156 58003=
201007111653 METAR KBFI 111653Z 22006KT 6SM HZ OVC008 17/14 A3000 RMK AO2 SLP159 T01670139=
201007111553 METAR KBFI 111553Z COR 17008KT 4SM OVC005 16/14 A3000 RMK AO2 SLP157 T01610139=
201007111528 SPECI KBFI 111528Z 18008KT 10SM OVC005 16/14 A3000 RMK AO2=
201007111528 SPECI KBFI 111528Z 18008KT 10SM OVC005 16/14 A3000 RMK AO2=
201007111453 METAR KBFI 111453Z 17006KT 3SM BR OVC003 16/14 A2999 RMK AO2 SLP156 T01560144 53002=
201007111353 METAR KBFI 111353Z 19004KT 2SM BR OVC003 16/14 A2999 RMK AO2 SFC VIS 5 SLP156 T01610144=
201007111350 SPECI KBFI 111350Z 20003KT 2SM BR OVC003 16/14 A2999 RMK AO2 SFC VIS 5=
201007111350 SPECI KBFI 111350Z 20003KT 2SM BR OVC003 16/14 A2999 RMK AO2 SFC VIS 5=
201007111253 METAR KBFI 111253Z 22005KT 3SM BR OVC005 16/14 A2999 RMK AO2 CIG 003V007 SLP155 T01610144=
201007111204 SPECI KBFI 111204Z 20004KT 10SM BKN010 16/14 A2999 RMK AO2=
201007111204 SPECI KBFI 111204Z 20004KT 10SM BKN010 16/14 A2999 RMK AO2=
201007111153 METAR KBFI 111153Z 20003KT 10SM FEW010 17/14 A2999 RMK AO2 SLP154 T01670139 10222 20167 52004=
201007111053 METAR KBFI 111053Z 25003KT 10SM CLR 17/14 A2998 RMK AO2 SLP153 T01720139=
201007110953 METAR KBFI 110953Z 00000KT 10SM CLR 18/13 A2998 RMK AO2 SLP151 T01780133=
201007110853 METAR KBFI 110853Z 00000KT 10SM CLR 20/13 A2997 RMK AO2 SLP150 T02000133 51001=
201007110753 METAR KBFI 110753Z 00000KT 10SM CLR 20/14 A2997 RMK AO2 SLP150 T02000139 402830178=
201007110653 METAR KBFI 110653Z 00000KT 10SM CLR 22/14 A2998 RMK AO2 SLP151 T02220139=
201007110553 METAR KBFI 110553Z 31003KT 10SM CLR 22/13 A2997 RMK AO2 SLP149 T02220133 10283 20222 51009=
201007110453 METAR KBFI 110453Z 34003KT 10SM CLR 23/13 A2996 RMK AO2 SLP146 T02330133=
201007110353 METAR KBFI 110353Z 31005KT 10SM CLR 24/13 A2995 RMK AO2 SLP142 T02390128=
201007110253 METAR KBFI 110253Z 31005KT 10SM CLR 26/13 A2994 RMK AO2 SLP139 T02610133 55004=
201007110153 METAR KBFI 110153Z VRB03KT 10SM CLR 28/13 A2994 RMK AO2 SLP138 T02780133=
201007110053 METAR KBFI 110053Z VRB03KT 10SM CLR 28/14 A2994 RMK AO2 SLP140 T02780139=
201007102353 METAR KBFI 102353Z 30005KT 10SM CLR 27/12 A2995 RMK AO2 SLP143 T02720122 10278 20222 58011=
201007102253 METAR KBFI 102253Z 00000KT 10SM CLR 28/12 A2997 RMK AO2 SLP149 T02780117=
201007102153 METAR KBFI 102153Z 25005KT 10SM CLR 26/13 A2998 RMK AO2 SLP151 T02610133=
201007102053 METAR KBFI 102053Z VRB03KT 10SM CLR 26/13 A2999 RMK AO2 SLP154 T02560133 58006=
201007101953 METAR KBFI 101953Z VRB04KT 10SM CLR 24/14 A3000 RMK AO2 SLP158 T02440144=
201007101853 METAR KBFI 101853Z VRB04KT 10SM CLR 23/13 A3001 RMK AO2 SLP161 T02280133=
201007101753 METAR KBFI 101753Z 00000KT 10SM CLR 22/13 A3000 RMK AO2 SLP160 T02220133 10228 20178 50001=
201007101653 METAR KBFI 101653Z 13005KT 10SM CLR 21/13 A3001 RMK AO2 SLP161 T02110128=
201007101553 METAR KBFI 101553Z 16003KT 10SM CLR 19/13 A3000 RMK AO2 SLP160 T01940128=
201007101453 METAR KBFI 101453Z 19004KT 10SM CLR 18/12 A3000 RMK AO2 SLP159 T01780122 53009=
201007101353 METAR KBFI 101353Z 18003KT 10SM CLR 18/12 A2999 RMK AO2 SLP155 T01780122=
201007101253 METAR KBFI 101253Z 18004KT 10SM CLR 18/12 A2998 RMK AO2 SLP153 T01830117=
201007101153 METAR KBFI 101153Z VRB04KT 10SM BKN250 19/11 A2997 RMK AO2 SLP150 60000 T01890111 10244 20189 51008=
201007101053 METAR KBFI 101053Z 28003KT 10SM CLR 19/11 A2997 RMK AO2 RAB20E29 SLP148 P0000 T01940111=
201007100953 METAR KBFI 100953Z 00000KT 10SM CLR 19/11 A2996 RMK AO2 SLP145 T01940111=
201007100853 METAR KBFI 100853Z 00000KT 10SM CLR 21/11 A2995 RMK AO2 SLP141 T02110106 50006=
201007100753 METAR KBFI 100753Z 32003KT 10SM CLR 20/10 A2995 RMK AO2 SLP143 T02000100 403280178=
201007100653 METAR KBFI 100653Z 00000KT 10SM FEW090 23/09 A2994 RMK AO2 SLP137 T02330094=
201007100553 METAR KBFI 100553Z VRB04KT 10SM CLR 24/09 A2993 RMK AO2 SLP135 T02440089 10328 20244 53005=
201007100453 METAR KBFI 100453Z 00000KT 10SM CLR 26/12 A2992 RMK AO2 SLP132 T02610122=
201007100353 METAR KBFI 100353Z 03005KT 10SM CLR 27/12 A2992 RMK AO2 SLP131 T02670117=
201007100253 METAR KBFI 100253Z 30009G14KT 10SM CLR 27/13 A2991 RMK AO2 SLP130 T02670128 53001=
201007100153 METAR KBFI 100153Z COR 29005KT 10SM SCT250 30/12 A2990 RMK AO2 SLP125 T03000117=
201007100053 METAR KBFI 100053Z VRB06KT 10SM CLR 32/11 A2991 RMK AO2 SLP127 T03170106=
201007092353 METAR KBFI 092353Z 32008KT 10SM CLR 33/10 A2991 RMK AO2 SLP129 T03280100 10328 20267 58011=
201007092253 METAR KBFI 092253Z VRB06KT 10SM CLR 32/11 A2992 RMK AO2 SLP132 T03170111=
201007092153 METAR KBFI 092153Z VRB04KT 10SM CLR 31/12 A2994 RMK AO2 SLP138 T03110117=
201007092053 METAR KBFI 092053Z 30006KT 10SM CLR 31/12 A2995 RMK AO2 SLP140 T03060122 56007=
201007091953 METAR KBFI 091953Z 30005KT 10SM CLR 29/12 A2995 RMK AO2 SLP142 T02940122=
201007091853 METAR KBFI 091853Z 30006KT 10SM CLR 28/13 A2996 RMK AO2 SLP145 T02830128=
201007091753 METAR KBFI 091753Z VRB03KT 10SM CLR 27/13 A2997 RMK AO2 SLP147 T02720133 10272 20178 58006=
201007091653 METAR KBFI 091653Z 00000KT 10SM CLR 26/14 A2998 RMK AO2 SLP151 T02560144=
201007091553 METAR KBFI 091553Z 00000KT 10SM CLR 23/15 A2998 RMK AO2 SLP151 T02330150=
201007091453 METAR KBFI 091453Z 14003KT 10SM CLR 22/14 A2998 RMK AO2 SLP153 T02170144 51010=
201007091353 METAR KBFI 091353Z 00000KT 10SM CLR 20/14 A2998 RMK AO2 SLP152 T02000139=
201007091253 METAR KBFI 091253Z 00000KT 10SM CLR 18/14 A2997 RMK AO2 SLP147 T01780139=
201007091153 METAR KBFI 091153Z 14004KT 10SM CLR 19/14 A2995 RMK AO2 SLP143 T01890144 10256 20189 53007=
201007091053 METAR KBFI 091053Z 00000KT 10SM CLR 20/13 A2994 RMK AO2 SLP140 T02000128=
201007090953 METAR KBFI 090953Z 00000KT 10SM CLR 21/13 A2994 RMK AO2 SLP138 T02060128=
201007090853 METAR KBFI 090853Z 00000KT 10SM CLR 22/13 A2993 RMK AO2 SLP136 T02220133 51006=
201007090753 METAR KBFI 090753Z 00000KT 10SM CLR 23/13 A2993 RMK AO2 SLP135 T02330133 403440178=
201007090653 METAR KBFI 090653Z 00000KT 10SM CLR 24/12 A2992 RMK AO2 SLP132 T02440122=
201007090553 METAR KBFI 090553Z 00000KT 10SM CLR 26/12 A2992 RMK AO2 SLP130 T02560122 10344 20250 53012=
201007090453 METAR KBFI 090453Z 00000KT 10SM CLR 27/12 A2990 RMK AO2 SLP126 T02720122=
201007090353 METAR KBFI 090353Z 00000KT 10SM CLR 29/12 A2988 RMK AO2 SLP119 T02940117=
201007090253 METAR KBFI 090253Z 33006KT 10SM CLR 31/11 A2988 RMK AO2 SLP118 T03110111 55003=
201007090153 METAR KBFI 090153Z 31008KT 10SM CLR 32/12 A2988 RMK AO2 SLP117 T03220117=
201007090053 METAR KBFI 090053Z 30007KT 10SM CLR 33/11 A2988 RMK AO2 SLP116 T03280111=
201007082353 METAR KBFI 082353Z 29005KT 10SM CLR 34/08 A2989 RMK AO2 SLP121 T03440083 10344 20272 58013=
201007082253 METAR KBFI 082253Z 30006KT 10SM CLR 33/11 A2991 RMK AO2 SLP127 T03330106=
201007082153 METAR KBFI 082153Z 32008KT 10SM CLR 33/09 A2992 RMK AO2 SLP131 T03330089=
201007082053 METAR KBFI 082053Z 29008KT 10SM CLR 32/11 A2993 RMK AO2 SLP133 T03170106 58008=
201007081953 METAR KBFI 081953Z 29007KT 10SM CLR 31/11 A2994 RMK AO2 SLP137 T03060111=
201007081853 METAR KBFI 081853Z 31005KT 10SM CLR 29/12 A2994 RMK AO2 SLP140 T02890117=
201007081753 METAR KBFI 081753Z 31004KT 10SM CLR 27/12 A2995 RMK AO2 SLP142 T02720122 10272 20178 58004=
201007081653 METAR KBFI 081653Z 29004KT 10SM CLR 26/13 A2996 RMK AO2 SLP145 T02560128=
201007081553 METAR KBFI 081553Z 00000KT 10SM CLR 25/12 A2996 RMK AO2 SLP146 T02500122=
201007081453 METAR KBFI 081453Z 00000KT 10SM CLR 22/13 A2996 RMK AO2 SLP146 T02220133 51006=
201007081353 METAR KBFI 081353Z 35003KT 10SM CLR 20/14 A2996 RMK AO2 SLP145 T02000139=
201007081253 METAR KBFI 081253Z 00000KT 10SM CLR 18/12 A2995 RMK AO2 SLP143 T01830122=
201007081153 METAR KBFI 081153Z 00000KT 10SM CLR 19/12 A2995 RMK AO2 SLP140 T01890122 10244 20183 51002=
201007081053 METAR KBFI 081053Z 00000KT 10SM CLR 20/12 A2994 RMK AO2 SLP139 T02000117=
201007080953 METAR KBFI 080953Z 00000KT 10SM CLR 20/12 A2994 RMK AO2 SLP139 T02000117=
201007080853 METAR KBFI 080853Z 00000KT 10SM CLR 21/12 A2994 RMK AO2 SLP138 T02110117 51007=
201007080753 METAR KBFI 080753Z 00000KT 10SM CLR 23/12 A2993 RMK AO2 SLP136 T02280117 403110167=
201007080653 METAR KBFI 080653Z 31003KT 10SM CLR 24/12 A2992 RMK AO2 SLP133 T02390117=
201007080553 METAR KBFI 080553Z 29003KT 10SM CLR 24/13 A2992 RMK AO2 SLP130 T02440128 10311 20244 53010=
201007080453 METAR KBFI 080453Z 00000KT 10SM CLR 26/12 A2990 RMK AO2 SLP126 T02610122=
201007080353 METAR KBFI 080353Z 35003KT 10SM CLR 29/09 A2989 RMK AO2 SLP121 T02940094=
201007080253 METAR KBFI 080253Z VRB03KT 10SM CLR 31/11 A2989 RMK AO2 SLP120 T03060111 55004=
201007080153 METAR KBFI 080153Z 30007KT 10SM CLR 30/11 A2988 RMK AO2 SLP119 T03000111=
201007080053 METAR KBFI 080053Z 31007KT 10SM CLR 31/10 A2989 RMK AO2 SLP121 T03060100=
201007072353 METAR KBFI 072353Z 30007KT 10SM CLR 29/12 A2990 RMK AO2 SLP125 T02940117 10294 20244 58017=
201007072253 METAR KBFI 072253Z 30008G14KT 10SM CLR 29/12 A2992 RMK AO2 SLP131 T02890122=
201007072153 METAR KBFI 072153Z 30009G15KT 10SM CLR 28/12 A2993 RMK AO2 SLP136 T02830122=
201007072053 METAR KBFI 072053Z 31009G15KT 10SM CLR 27/13 A2995 RMK AO2 SLP141 T02720128 58015=
201007071953 METAR KBFI 071953Z 31009G15KT 10SM CLR 27/13 A2997 RMK AO2 SLP148 T02670128=
201007071853 METAR KBFI 071853Z 30008KT 10SM CLR 27/12 A2999 RMK AO2 SLP154 T02670122=
201007071753 METAR KBFI 071753Z 31005KT 10SM CLR 24/12 A2999 RMK AO2 SLP156 T02440117 10244 20167 58009=
201007071653 METAR KBFI 071653Z VRB06KT 10SM CLR 24/12 A3001 RMK AO2 SLP160 T02390117=
201007071553 METAR KBFI 071553Z 04005KT 10SM CLR 22/12 A3002 RMK AO2 SLP164 T02220122=
201007071453 METAR KBFI 071453Z 34005KT 10SM CLR 20/11 A3002 RMK AO2 SLP165 T02000111 50002=
201007071353 METAR KBFI 071353Z 01004KT 10SM CLR 18/12 A3002 RMK AO2 SLP166 T01830117=
201007071253 METAR KBFI 071253Z VRB04KT 10SM CLR 17/12 A3002 RMK AO2 SLP164 T01720117=
201007071153 METAR KBFI 071153Z 32003KT 10SM CLR 18/11 A3002 RMK AO2 SLP163 T01780106 10211 20178 56004=
201007071053 METAR KBFI 071053Z 00000KT 10SM CLR 18/09 A3002 RMK AO2 SLP165 T01780094=
201007070953 METAR KBFI 070953Z 02004KT 10SM CLR 19/09 A3002 RMK AO2 SLP166 T01890094=
201007070853 METAR KBFI 070853Z 03003KT 10SM CLR 19/09 A3003 RMK AO2 SLP168 T01940094 58002=
201007070753 METAR KBFI 070753Z 00000KT 10SM CLR 19/09 A3003 RMK AO2 SLP170 T01940094 402610117=
201007070653 METAR KBFI 070653Z 00000KT 10SM CLR 20/10 A3004 RMK AO2 SLP171 T02000100=
201007070553 METAR KBFI 070553Z 00000KT 10SM CLR 21/11 A3003 RMK AO2 SLP170 T02110106 10261 20211 55000=
201007070453 METAR KBFI 070453Z 00000KT 10SM CLR 22/11 A3003 RMK AO2 SLP170 T02220106=
201007070353 METAR KBFI 070353Z 35004KT 10SM CLR 24/08 A3003 RMK AO2 SLP168 T02390078=
201007070253 METAR KBFI 070253Z 34007KT 10SM CLR 26/08 A3003 RMK AO2 SLP170 T02560078 56015=
201007070153 METAR KBFI 070153Z VRB05KT 10SM CLR 26/07 A3004 RMK AO2 SLP172 T02560072=
201007070053 METAR KBFI 070053Z 30009G14KT 10SM CLR 26/08 A3005 RMK AO2 SLP177 T02560083=
201007062353 METAR KBFI 062353Z 31009G17KT 10SM CLR 25/09 A3008 RMK AO2 SLP185 T02500089 10250 20206 57021=
201007062253 METAR KBFI 062253Z 31009G16KT 10SM CLR 24/11 A3010 RMK AO2 SLP192 T02440106=
201007062153 METAR KBFI 062153Z 31011G17KT 10SM CLR 24/10 A3012 RMK AO2 SLP198 T02390100=
201007062053 METAR KBFI 062053Z 30008G15KT 10SM CLR 23/11 A3014 RMK AO2 SLP206 T02280106 58017=
201007061953 METAR KBFI 061953Z 30010G18KT 10SM CLR 22/09 A3016 RMK AO2 SLP212 T02170094=
201007061853 METAR KBFI 061853Z 31009G15KT 10SM CLR 21/10 A3017 RMK AO2 SLP217 T02110100=
201007061753 METAR KBFI 061753Z 01007KT 10SM CLR 21/11 A3019 RMK AO2 SLP223 T02060111 10206 20117 58011=
201007061653 METAR KBFI 061653Z VRB04KT 10SM CLR 19/10 A3020 RMK AO2 SLP227 T01890100=
201007061553 METAR KBFI 061553Z VRB03KT 10SM CLR 17/10 A3021 RMK AO2 SLP231 T01720100=
201007061453 METAR KBFI 061453Z 00000KT 10SM CLR 15/11 A3022 RMK AO2 SLP233 T01500106 53001=
201007061353 METAR KBFI 061353Z 00000KT 10SM CLR 14/10 A3022 RMK AO2 SLP233 T01390100=
201007061253 METAR KBFI 061253Z 00000KT 10SM CLR 12/09 A3022 RMK AO2 SLP233 T01220089=
201007061153 METAR KBFI 061153Z 00000KT 10SM CLR 12/09 A3022 RMK AO2 SLP232 T01220089 10161 20117 58001=
201007061053 METAR KBFI 061053Z 00000KT 10SM CLR 12/09 A3022 RMK AO2 SLP232 T01220094=
201007060953 METAR KBFI 060953Z 00000KT 10SM CLR 13/09 A3022 RMK AO2 SLP233 T01280089=
201007060853 METAR KBFI 060853Z AUTO 00000KT 10SM CLR 13/09 A3022 RMK AO2 SLP233 T01330089 58003 TSNO=
201007060753 METAR KBFI 060753Z AUTO 00000KT 10SM CLR 14/08 A3022 RMK AO2 SLP233 T01390083 401890122 TSNO=
201007060653 METAR KBFI 060653Z 00000KT 10SM CLR 15/08 A3023 RMK AO2 SLP236 T01500078=
201007060553 METAR KBFI 060553Z 00000KT 10SM CLR 16/08 A3023 RMK AO2 SLP236 T01610078 10189 20161 53008=
201007060453 METAR KBFI 060453Z 32003KT 10SM CLR 17/08 A3022 RMK AO2 SLP233 T01670078=
201007060353 METAR KBFI 060353Z 32005KT 10SM FEW030 17/07 A3021 RMK AO2 SLP229 T01720072=
201007060253 METAR KBFI 060253Z VRB06KT 10SM FEW040 18/08 A3021 RMK AO2 SLP228 T01830078 56006=
201007060153 METAR KBFI 060153Z 30007KT 10SM FEW030 18/08 A3021 RMK AO2 SLP228 T01830083=
201007060053 METAR KBFI 060053Z 30008KT 10SM FEW042 SCT055 18/08 A3021 RMK AO2 SLP231 T01830083=
201007052353 METAR KBFI 052353Z 32006KT 10SM SCT039 18/09 A3022 RMK AO2 SLP234 T01830089 10189 20144 58008=
201007052253 METAR KBFI 052253Z 31005KT 10SM FEW043 BKN200 18/09 A3023 RMK AO2 SLP237 T01780094=
201007052153 METAR KBFI 052153Z 35004KT 10SM OVC039 17/09 A3025 RMK AO2 SLP241 T01670089=
201007052053 METAR KBFI 052053Z 33005KT 10SM BKN030 16/09 A3025 RMK AO2 SLP242 T01560089 50001=
201007051953 METAR KBFI 051953Z 30004KT 10SM OVC022 15/09 A3025 RMK AO2 SLP243 T01500094=
201007051853 METAR KBFI 051853Z 00000KT 10SM OVC028 14/09 A3025 RMK AO2 SLP243 T01440094=
201007051753 METAR KBFI 051753Z 00000KT 10SM OVC026 14/09 A3025 RMK AO2 SLP241 T01440089 10144 20128 52005=
201007051653 METAR KBFI 051653Z 00000KT 10SM FEW019 OVC030 13/08 A3024 RMK AO2 SLP239 T01330083=
201007051553 METAR KBFI 051553Z 00000KT 10SM FEW019 OVC030 13/09 A3024 RMK AO2 SLP238 T01330089=
201007051453 METAR KBFI 051453Z 14006KT 10SM SCT019 OVC030 13/09 A3023 RMK AO2 SLP236 T01330089 50003=
201007051353 METAR KBFI 051353Z 12005KT 10SM OVC033 13/09 A3023 RMK AO2 SLP236 T01280089=
201007051253 METAR KBFI 051253Z 12005KT 10SM BKN031 OVC060 13/09 A3023 RMK AO2 SLP235 T01280089=
201007051235 SPECI KBFI 051235Z 11004KT 10SM BKN031 OVC060 13/09 A3023 RMK AO2=
201007051235 SPECI KBFI 051235Z 11004KT 10SM BKN031 OVC060 13/09 A3023 RMK AO2=
201007051153 METAR KBFI 051153Z 11005KT 10SM OVC025 13/09 A3022 RMK AO2 SLP233 60002 70007 T01280094 10139 20122 50003=
201007051053 METAR KBFI 051053Z 11003KT 10SM OVC021 13/10 A3022 RMK AO2 SLP234 T01280100=
201007050953 METAR KBFI 050953Z 12007KT 8SM OVC017 13/09 A3022 RMK AO2 SLP234 T01280094=
201007050853 METAR KBFI 050853Z 12006KT 10SM OVC017 13/09 A3021 RMK AO2 RAE15 SLP230 P0000 60002 T01330094 51006=
201007050753 METAR KBFI 050753Z 11009KT 7SM -RA OVC017 14/11 A3021 RMK AO2 RAB17 SLP228 P0000 T01390106 401940128=
201007050653 METAR KBFI 050653Z VRB05KT 8SM OVC024 14/10 A3020 RMK AO2 RAE53 SLP225 P0002 T01390100=
201007050553 METAR KBFI 050553Z VRB03KT 6SM -RA OVC022 14/11 A3019 RMK AO2 RAB07E18B44 SLP224 P0000 60001 T01390106 10156 20139 53010=
201007050453 METAR KBFI 050453Z VRB04KT 10SM OVC022 16/12 A3018 RMK AO2 SLP219 T01560122=
201007050353 METAR KBFI 050353Z AUTO 00000KT 10SM OVC022 16/13 A3016 RMK AO2 SLP213 T01560128 TSNO=
201007050253 METAR KBFI 050253Z 00000KT 10SM OVC020 16/13 A3016 RMK AO2 RAE07B30E47 SLP213 P0000 60001 T01560133 55004=
201007050153 METAR KBFI 050153Z 00000KT 10SM -RA SCT015 OVC025 16/13 A3016 RMK AO2 SLP213 P0001 T01560133=
201007050053 METAR KBFI 050053Z 05005KT 3SM -RA BR SCT016 OVC022 16/13 A3017 RMK AO2 SLP214 P0000 T01560133=
201007042353 METAR KBFI 042353Z 06003KT 3SM -RA BR OVC027 16/13 A3017 RMK AO2 SLP217 P0004 60004 T01560133 10194 20144 58002=
201007042253 METAR KBFI 042253Z 19004KT 7SM -RA OVC029 17/11 A3018 RMK AO2 RAB24 SLP218 P0000 T01670111=
201007042153 METAR KBFI 042153Z 21007KT 10SM BKN033 OVC060 18/11 A3018 RMK AO2 SLP219 T01830106=
201007042053 METAR KBFI 042053Z 19007KT 10SM SCT033 BKN050 18/10 A3018 RMK AO2 SLP219 T01830100 58006=
201007041953 METAR KBFI 041953Z 21009KT 10SM BKN050 BKN200 18/09 A3019 RMK AO2 SLP222 T01780094=
201007041900 SPECI KBFI 041900Z 21006KT 10SM SCT026 BKN035 OVC050 16/09 A3020 RMK AO2=
201007041900 SPECI KBFI 041900Z 21006KT 10SM SCT026 BKN035 OVC050 16/09 A3020 RMK AO2=
201007041853 METAR KBFI 041853Z 16006KT 10SM BKN028 OVC031 16/09 A3019 RMK AO2 SLP224 T01560094=
201007041753 METAR KBFI 041753Z 23004KT 10SM BKN028 OVC033 14/09 A3020 RMK AO2 SLP226 T01440094 10144 20128 53001=
201007041653 METAR KBFI 041653Z 20006KT 10SM OVC025 14/09 A3020 RMK AO2 SLP225 T01390089=
201007041553 METAR KBFI 041553Z 18005KT 10SM BKN015 OVC021 14/09 A3019 RMK AO2 SLP224 T01390094=
201007041513 SPECI KBFI 041513Z 17004KT 10SM OVC015 13/10 A3020 RMK AO2=
201007041513 SPECI KBFI 041513Z 17004KT 10SM OVC015 13/10 A3020 RMK AO2=
201007041505 SPECI KBFI 041505Z 20004KT 10SM BKN014 OVC019 13/10 A3020 RMK AO2=
201007041505 SPECI KBFI 041505Z 20004KT 10SM BKN014 OVC019 13/10 A3020 RMK AO2=
201007041453 METAR KBFI 041453Z 00000KT 10SM OVC019 14/09 A3020 RMK AO2 SLP225 T01390094 53005=
201007041353 METAR KBFI 041353Z 00000KT 10SM OVC019 13/09 A3018 RMK AO2 SLP221 T01330094=
201007041308 SPECI KBFI 041308Z 12005KT 10SM BKN024 OVC043 13/09 A3019 RMK AO2=
201007041308 SPECI KBFI 041308Z 12005KT 10SM BKN024 OVC043 13/09 A3019 RMK AO2=
201007041253 METAR KBFI 041253Z 10003KT 10SM SCT026 OVC043 13/09 A3018 RMK AO2 SLP219 T01330089=
201007041153 METAR KBFI 041153Z 00000KT 10SM OVC041 13/09 A3018 RMK AO2 SLP220 T01330089 10161 20128 50002=
201007041053 METAR KBFI 041053Z 00000KT 10SM OVC043 14/09 A3018 RMK AO2 SLP220 T01390089=
201007040953 METAR KBFI 040953Z 00000KT 10SM CLR 13/09 A3018 RMK AO2 SLP219 T01330089=
201007040853 METAR KBFI 040853Z AUTO 00000KT 10SM OVC048 14/08 A3018 RMK AO2 SLP218 T01440083 50002 TSNO=
201007040753 METAR KBFI 040753Z AUTO 00000KT 10SM BKN046 15/08 A3018 RMK AO2 SLP219 T01500083 402060122 TSNO=
201007040653 METAR KBFI 040653Z AUTO 00000KT 10SM SCT080 15/09 A3017 RMK AO2 SLP216 T01500089 TSNO=
201007040553 METAR KBFI 040553Z 00000KT 10SM SCT070 16/08 A3017 RMK AO2 SLP216 T01610078 10206 20161 53005=
201007040453 METAR KBFI 040453Z 00000KT 10SM SCT065 18/06 A3016 RMK AO2 SLP214 T01780061=
201007040353 METAR KBFI 040353Z 29003KT 10SM CLR 17/07 A3016 RMK AO2 SLP211 T01720067=
201007040253 METAR KBFI 040253Z 30003KT 10SM SCT070 18/07 A3015 RMK AO2 SLP211 T01830072 55003=
201007040153 METAR KBFI 040153Z 00000KT 10SM SCT049 20/07 A3015 RMK AO2 SLP209 T02000072=
201007040053 METAR KBFI 040053Z 00000KT 10SM SCT049 20/08 A3016 RMK AO2 SLP211 T02000078=
201007032353 METAR KBFI 032353Z VRB03KT 10SM SCT040 BKN060 19/08 A3016 RMK AO2 SLP214 T01890083 10194 20144 55001=
201007032253 METAR KBFI 032253Z 07004KT 10SM SCT030 BKN049 18/08 A3016 RMK AO2 SLP211 T01830078=
201007032153 METAR KBFI 032153Z 00000KT 10SM SCT041 18/08 A3016 RMK AO2 SLP212 T01780078=
201007032053 METAR KBFI 032053Z AUTO 15005KT 10SM FEW038 OVC046 17/08 A3017 RMK AO2 SLP214 T01720083 53004 TSNO=
201007031953 METAR KBFI 031953Z AUTO VRB03KT 10SM SCT034 OVC044 17/08 A3016 RMK AO2 SLP213 T01670083 TSNO=
201007031853 METAR KBFI 031853Z AUTO 00000KT 10SM BKN041 OVC060 16/08 A3016 RMK AO2 SLP211 T01560078 TSNO=
201007031814 SPECI KBFI 031814Z 00000KT 10SM SCT030 OVC036 14/08 A3016 RMK AO2=
201007031814 SPECI KBFI 031814Z 00000KT 10SM SCT030 OVC036 14/08 A3016 RMK AO2=
201007031801 SPECI KBFI 031801Z 23004KT 10SM BKN028 OVC034 14/08 A3016 RMK AO2=
201007031801 SPECI KBFI 031801Z 23004KT 10SM BKN028 OVC034 14/08 A3016 RMK AO2=
201007031753 METAR KBFI 031753Z 22005KT 10SM SCT028 OVC034 14/08 A3015 RMK AO2 SLP211 T01440083 10144 20122 51013=
201007031738 SPECI KBFI 031738Z 00000KT 10SM FEW024 OVC034 14/08 A3015 RMK AO2=
201007031738 SPECI KBFI 031738Z 00000KT 10SM FEW024 OVC034 14/08 A3015 RMK AO2=
201007031653 METAR KBFI 031653Z 23003KT 10SM OVC023 13/08 A3015 RMK AO2 SLP208 T01330078=
201007031553 METAR KBFI 031553Z 13007KT 10SM BKN023 BKN044 OVC065 13/08 A3013 RMK AO2 SLP202 T01330078=
201007031545 SPECI KBFI 031545Z 14005KT 10SM BKN021 BKN044 OVC065 13/08 A3013 RMK AO2=
201007031545 SPECI KBFI 031545Z 14005KT 10SM BKN021 BKN044 OVC065 13/08 A3013 RMK AO2=
201007031534 SPECI KBFI 031534Z 17006KT 10SM SCT021 BKN044 OVC065 13/08 A3013 RMK AO2=
201007031534 SPECI KBFI 031534Z 17006KT 10SM SCT021 BKN044 OVC065 13/08 A3013 RMK AO2=
201007031526 SPECI KBFI 031526Z 17006KT 10SM BKN021 BKN033 OVC042 13/08 A3013 RMK AO2=
201007031526 SPECI KBFI 031526Z 17006KT 10SM BKN021 BKN033 OVC042 13/08 A3013 RMK AO2=
201007031453 METAR KBFI 031453Z 18005KT 10SM SCT021 OVC031 13/08 A3012 RMK AO2 SLP198 T01280078 53009=
201007031353 METAR KBFI 031353Z 17007KT 10SM OVC019 12/08 A3010 RMK AO2 SLP194 T01220078=
201007031253 METAR KBFI 031253Z 14008KT 10SM OVC019 12/08 A3010 RMK AO2 SLP191 T01220083=
201007031153 METAR KBFI 031153Z 14010KT 10SM OVC017 12/08 A3009 RMK AO2 SLP189 70009 T01220083 10150 20122 51008=
201007031053 METAR KBFI 031053Z 14007KT 10SM OVC017 12/09 A3009 RMK AO2 SLP187 T01220089=
201007030953 METAR KBFI 030953Z 18005KT 10SM OVC017 13/09 A3008 RMK AO2 SLP185 T01280089=
201007030853 METAR KBFI 030853Z 17005KT 10SM OVC019 13/09 A3007 RMK AO2 SLP181 T01280089 53015=
201007030753 METAR KBFI 030753Z 19003KT 10SM FEW016 OVC022 14/09 A3005 RMK AO2 SLP175 T01390094 401940128=
201007030653 METAR KBFI 030653Z 00000KT 10SM OVC016 14/12 A3003 RMK AO2 SLP169 T01440117=
201007030553 METAR KBFI 030553Z 00000KT 10SM SCT026 BKN031 BKN060 15/11 A3002 RMK AO2 SLP166 60001 T01500106 10183 20144 53003=
201007030453 METAR KBFI 030453Z 00000KT 10SM SCT075 16/10 A3002 RMK AO2 SLP164 T01560100=
201007030353 METAR KBFI 030353Z 15004KT 10SM BKN070 16/10 A3001 RMK AO2 RAB0255E06 SLP161 P0000 T01560100=
201007030253 METAR KBFI 030253Z 00000KT 10SM BKN050 OVC065 17/09 A3001 RMK AO2 RAB0154E22 SLP162 P0001 60001 T01670094 51000=
201007030153 METAR KBFI 030153Z VRB03KT 10SM FEW037 SCT049 OVC060 17/09 A3001 RMK AO2 RAE49 SLP162 P0000 T01670089=
201007030053 METAR KBFI 030053Z 31005KT 10SM -RA BKN048 OVC060 17/10 A3002 RMK AO2 RAB22 SLP164 P0000 T01720100=
201007022353 METAR KBFI 022353Z AUTO 31005KT 10SM BKN050 OVC060 18/08 A3001 RMK AO2 SLP162 T01780078 10194 20150 53006 TSNO=
201007022253 METAR KBFI 022253Z 33006KT 10SM SCT060 SCT070 BKN085 19/09 A3000 RMK AO2 SLP160 T01890089=
201007022153 METAR KBFI 022153Z 32006KT 10SM SCT065 BKN080 19/08 A3000 RMK AO2 SLP157 T01890083=
201007022053 METAR KBFI 022053Z 23003KT 10SM SCT036 BKN070 19/09 A2999 RMK AO2 SLP156 T01890089 50004=
201007022029 SPECI KBFI 022029Z 00000KT 10SM OVC032 18/10 A2999 RMK AO2=
201007022029 SPECI KBFI 022029Z 00000KT 10SM OVC032 18/10 A2999 RMK AO2=
201007022000 SPECI KBFI 022000Z 00000KT 10SM OVC027 17/10 A2999 RMK AO2=
201007022000 SPECI KBFI 022000Z 00000KT 10SM OVC027 17/10 A2999 RMK AO2=
201007021953 METAR KBFI 021953Z 00000KT 10SM SCT025 BKN050 17/11 A2999 RMK AO2 SLP156 T01670106=
201007021853 METAR KBFI 021853Z 00000KT 10SM BKN020 OVC048 16/11 A2999 RMK AO2 SLP154 T01610111=
201007021753 METAR KBFI 021753Z 00000KT 10SM FEW020 SCT040 BKN080 15/11 A2998 RMK AO2 SLP152 60008 T01500106 10150 20128 51008=
201007021653 METAR KBFI 021653Z 31004KT 10SM SCT009 BKN012 OVC060 14/11 A2998 RMK AO2 RAB19E44 SLP151 P0000 T01390111=
201007021553 METAR KBFI 021553Z 00000KT 8SM SCT009 BKN012 OVC032 13/12 A2997 RMK AO2 RAE42 SLP147 P0001 T01330117=
201007021453 METAR KBFI 021453Z 29003KT 5SM -RA BR OVC012 13/11 A2996 RMK AO2 SLP143 P0001 60007 T01330111 53012=
201007021425 SPECI KBFI 021425Z 00000KT 3SM -RA BR BKN010 OVC015 13/11 A2995 RMK AO2 CIG 007V012 P0001=
201007021425 SPECI KBFI 021425Z 00000KT 3SM -RA BR BKN010 OVC015 13/11 A2995 RMK AO2 CIG 007V012 P0001=
201007021353 METAR KBFI 021353Z VRB03KT 3SM -RA BR BKN006 OVC012 13/11 A2994 RMK AO2 CIG 005V009 SLP139 P0004 T01280111=
201007021253 METAR KBFI 021253Z 29003KT 3SM -RA BR BKN006 OVC021 13/11 A2993 RMK AO2 SLP135 P0002 T01280111=
201007021153 METAR KBFI 021153Z VRB05KT 4SM -RA BR SCT008 OVC021 13/12 A2992 RMK AO2 SLP131 P0004 60009 70010 T01330117 10144 20133 53004=
201007021053 METAR KBFI 021053Z 00000KT 10SM -RA SCT006 BKN025 OVC030 13/11 A2991 RMK AO2 SLP128 P0000 T01330111=
201007021048 SPECI KBFI 021048Z 00000KT 10SM -RA FEW006 SCT025 OVC030 13/11 A2991 RMK AO2 P0000=
201007021048 SPECI KBFI 021048Z 00000KT 10SM -RA FEW006 SCT025 OVC030 13/11 A2991 RMK AO2 P0000=
201007021040 SPECI KBFI 021040Z 00000KT 10SM -RA SCT025 OVC029 13/11 A2991 RMK AO2 P0000=
201007021040 SPECI KBFI 021040Z 00000KT 10SM -RA SCT025 OVC029 13/11 A2991 RMK AO2 P0000=
201007021025 SPECI KBFI 021025Z 00000KT 10SM -RA OVC031 13/11 A2991 RMK AO2 P0000=
201007021025 SPECI KBFI 021025Z 00000KT 10SM -RA OVC031 13/11 A2991 RMK AO2 P0000=
201007020953 METAR KBFI 020953Z 00000KT 5SM -RA BR BKN027 OVC037 13/11 A2991 RMK AO2 SLP127 P0003 T01330111=
201007020951 SPECI KBFI 020951Z 00000KT 5SM -RA BR BKN027 OVC037 13/11 A2991 RMK AO2 P0003=
201007020951 SPECI KBFI 020951Z 00000KT 5SM -RA BR BKN027 OVC037 13/11 A2991 RMK AO2 P0003=
201007020853 METAR KBFI 020853Z 00000KT 10SM -RA FEW035 OVC046 13/11 A2991 RMK AO2 SLP128 P0001 60002 T01330111 56007=
201007020753 METAR KBFI 020753Z 00000KT 10SM -RA FEW025 OVC035 14/11 A2991 RMK AO2 SLP129 P0000 T01390111 401720122=
201007020653 METAR KBFI 020653Z 00000KT 10SM -RA FEW025 OVC044 14/11 A2992 RMK AO2 SLP131 P0001 T01390111=
201007020553 METAR KBFI 020553Z 00000KT 10SM -RA OVC041 14/11 A2993 RMK AO2 SLP135 P0000 60000 T01440111 10172 20144 50000=
201007020453 METAR KBFI 020453Z 27003KT 10SM -RA OVC046 15/10 A2994 RMK AO2 RAB42 SLP137 P0000 T01500100=
201007020353 METAR KBFI 020353Z 25004KT 10SM BKN049 16/09 A2993 RMK AO2 SLP135 T01560089=
201007020253 METAR KBFI 020253Z 21004KT 10SM OVC047 16/09 A2993 RMK AO2 SLP135 T01610089 56006=
201007020153 METAR KBFI 020153Z 22003KT 10SM FEW042 BKN080 OVC100 17/08 A2993 RMK AO2 SLP136 T01670083=
201007020053 METAR KBFI 020053Z 24004KT 10SM OVC040 17/08 A2994 RMK AO2 SLP138 T01670078=
201007012353 METAR KBFI 012353Z 21005KT 10SM BKN038 BKN080 17/08 A2995 RMK AO2 SLP141 60000 T01670078 10167 20139 58008=
201007012253 METAR KBFI 012253Z 20004KT 10SM CLR 16/07 A2996 RMK AO2 RAE50 SLP145 P0000 T01610067=
201007012153 METAR KBFI 012153Z 17007KT 10SM -RA SCT040 OVC050 16/08 A2997 RMK AO2 RAB48 SLP147 P0000 T01560078=
201007012053 METAR KBFI 012053Z 16008KT 10SM SCT040 OVC070 15/08 A2997 RMK AO2 SLP149 T01500083 58002=
201007011953 METAR KBFI 011953Z 23004KT 10SM OVC060 14/09 A2997 RMK AO2 SLP150 T01440089=
201007011853 METAR KBFI 011853Z 22005KT 10SM FEW030 OVC060 14/08 A2997 RMK AO2 SLP150 T01440083=
201007011753 METAR KBFI 011753Z 18004KT 10SM SCT050 OVC080 14/09 A2998 RMK AO2 SLP150 60001 T01440094 10144 20122 58009=
201007011653 METAR KBFI 011653Z 14004KT 10SM SCT030 OVC060 13/09 A2999 RMK AO2 RAE06 SLP153 P0000 T01330089=
201007011553 METAR KBFI 011553Z 15004KT 10SM -RA FEW027 OVC060 13/08 A3000 RMK AO2 SLP158 P0001 T01280083=
201007011453 METAR KBFI 011453Z 00000KT 10SM -RA BKN034 BKN045 OVC060 12/07 A3000 RMK AO2 RAB01 SLP159 P0000 60000 T01220072 51005=
201007011353 METAR KBFI 011353Z 23005KT 10SM FEW060 SCT075 13/07 A3000 RMK AO2 RAB15E25 SLP159 P0000 T01280072=
201007011253 METAR KBFI 011253Z 00000KT 10SM BKN100 OVC110 13/05 A2999 RMK AO2 SLP156 T01330050=
201007011153 METAR KBFI 011153Z 00000KT 10SM BKN090 BKN100 OVC200 13/06 A2999 RMK AO2 SLP154 T01330056 10150 20128 56004=
201007011053 METAR KBFI 011053Z 00000KT 10SM FEW120 13/06 A2999 RMK AO2 SLP155 T01330056=
201007010953 METAR KBFI 010953Z 00000KT 10SM FEW120 13/04 A2999 RMK AO2 SLP156 T01330039=
201007010853 METAR KBFI 010853Z 33003KT 10SM SCT110 14/04 A3000 RMK AO2 SLP158 T01390039 58010=
201007010753 METAR KBFI 010753Z 34004KT 10SM CLR 14/04 A3001 RMK AO2 SLP162 T01440044 401940106=
201007010653 METAR KBFI 010653Z 00000KT 10SM CLR 14/04 A3002 RMK AO2 SLP165 T01440039=
201007010553 METAR KBFI 010553Z 00000KT 10SM CLR 15/04 A3003 RMK AO2 SLP168 T01500039 10194 20144 58002=
201007010453 METAR KBFI 010453Z 31004KT 10SM CLR 16/04 A3004 RMK AO2 SLP170 T01560044=
201007010353 METAR KBFI 010353Z 00000KT 10SM CLR 17/03 A3003 RMK AO2 SLP169 T01720028=
201007010253 METAR KBFI 010253Z 30006KT 10SM SCT250 18/03 A3004 RMK AO2 SLP171 T01780028 56016=
201007010153 METAR KBFI 010153Z 30007KT 10SM FEW050 BKN200 18/03 A3005 RMK AO2 SLP174 T01830033=
201007010053 SPECI KBFI 010053Z 30006KT 10SM FEW050 BKN250 19/03 A3006 RMK AO2 SLP178 T01890033=

# No short TAF reports from KBFI in databse.

###################################
#  large TAF from KBFI
###################################
201007312325 TAF KBFI 312325Z 0100/0124 22008KT P6SM SCT090 SCT150 FM010900
                       18004KT P6SM OVC010 FM011200 18004KT P6SM
                       OVC007 FM011800 20006KT P6SM OVC012 FM012100
                       23006KT P6SM SCT100 BKN200=
201007312004 KBFI 312004Z 3120/0118 20006KT P6SM OVC015 FM312200 24005KT P6SM
                       SCT090 BKN200 FM010900 18004KT P6SM OVC010
                       FM011200 18004KT P6SM OVC007=
201007311727 TAF KBFI 311727Z 3118/0118 20006KT P6SM OVC010 FM312000 23005KT
                       P6SM SCT012 SCT120 FM312200 24005KT P6SM
                       SCT090 SCT250 FM010900 18004KT P6SM OVC010
                       FM011200 18004KT P6SM OVC007=
201007311128 TAF KBFI 311128Z 3112/0112 16004KT P6SM OVC010 FM312000 23005KT
                       P6SM SCT012 SCT120 FM312200 24005KT P6SM
                       SCT100CB SCT250 FM010900 18004KT P6SM OVC018=
201007311055 KBFI 311055Z 3111/0106 16004KT P6SM OVC010 FM312000 23005KT P6SM
                       SCT012 SCT120 FM312200 24005KT P6SM SCT120
                       SCT250=
201007311003 KBFI 311003Z 3110/0106 19004KT P6SM FEW025 FM311200 16004KT P6SM
                       OVC010 FM312000 23005KT P6SM SCT012 SCT120
                       FM312200 24005KT P6SM SCT120 SCT250=
201007310526 TAF KBFI 310526Z 3106/0106 21004KT P6SM SKC FM311000 19004KT P6SM
                       OVC008 FM312000 23005KT P6SM SCT012 SCT120
                       FM312200 24005KT P6SM SCT120 SCT250=
201007302324 TAF KBFI 302324Z 3100/3124 35006KT P6SM SKC FM310500 21004KT P6SM
                       SKC FM311100 19004KT P6SM OVC008 FM312000
                       23005KT P6SM SCT012 SCT120 FM312200 24005KT
                       P6SM SCT120 SCT250=
201007301722 TAF KBFI 301722Z 3018/3118 00000KT 4SM BR OVC006 FM301900 19003KT
                       P6SM BKN008 FM302000 22004KT P6SM SKC FM310000
                       31005KT P6SM SKC FM310500 21004KT P6SM SKC
                       FM311100 19004KT P6SM OVC008=
201007301322 KBFI 301322Z 3013/3112 15003KT 1/2SM FG OVC004 FM301600 15003KT
                       2SM BR OVC006 FM301800 19005KT P6SM BKN018
                       FM301900 29006KT P6SM SKC FM310400 VRB03KT
                       P6SM SKC FM311100 VRB03KT P6SM OVC010=
201007301129 TAF KBFI 301129Z 3012/3112 VRB03KT P6SM SCT009
                      TEMPO 3012/3016 3SM BR OVC009 FM301800 19005KT
                       P6SM BKN018 FM301900 29006KT P6SM SKC FM310400
                       VRB03KT P6SM SKC FM311100 VRB03KT P6SM OVC010=
201007301104 KBFI 301104Z 3011/3106 VRB03KT P6SM FEW010 FM301200 VRB03KT P6SM
                       OVC010 FM301800 19005KT P6SM BKN016 FM301900
                       29006KT P6SM SKC FM310400 VRB03KT P6SM SKC=
201007300902 TAF AMD KBFI 300902Z 3009/3106 VRB03KT P6SM FEW010
                      TEMPO 3010/3011 BKN010 FM301100 VRB03KT P6SM
                       OVC010 FM301800 19005KT P6SM BKN016 FM301900
                       29006KT P6SM SKC FM310400 VRB03KT P6SM SKC=
201007300520 TAF KBFI 300520Z 3006/3106 29006KT P6SM SKC FM300900 17003KT P6SM
                       OVC010 FM301800 19005KT P6SM BKN016 FM301900
                       29006KT P6SM SKC FM310400 VRB03KT P6SM SKC=
201007300318 KBFI 300318Z 3003/3024 29006KT P6SM SKC FM300800 17003KT P6SM OVC010
                       FM301800 19005KT P6SM BKN016 FM301900 29006KT
                       P6SM SKC=
201007292340 TAF KBFI 292340Z 3000/3024 29006KT P6SM SKC FM300700 20003KT P6SM
                       SKC FM301000 17003KT P6SM OVC010 FM301800
                       19005KT P6SM BKN016 FM301900 29006KT P6SM
                       SKC=
201007292103 KBFI 292103Z 2921/3018 VRB03KT P6SM BKN018
                      TEMPO 2921/2922 SCT018 FM292200 29006KT P6SM
                       SKC FM300700 20003KT P6SM SKC FM301000 17003KT
                       P6SM OVC010=
201007291725 TAF KBFI 291725Z 2918/3018 22003KT P6SM OVC012 FM291900 26003KT
                       P6SM BKN015 FM292000 29006KT P6SM SKC FM300700
                       20003KT P6SM SKC FM301000 17003KT P6SM OVC010=
201007291312 KBFI 291312Z 2913/3012 22006KT P6SM OVC008 FM291800 21005KT P6SM
                       BKN018 FM292000 28006KT P6SM SKC FM300400
                       VRB04KT P6SM SKC FM301000 VRB03KT P6SM OVC010=
201007291120 TAF KBFI 291120Z 2912/3012 17005KT P6SM OVC010 FM291800 21005KT
                       P6SM BKN018 FM292000 28006KT P6SM SKC FM300400
                       VRB04KT P6SM SKC FM301000 VRB03KT P6SM OVC010=
201007290857 KBFI 290857Z 2909/3006 17006KT P6SM VCFG OVC010 FM291100 17005KT
                       P6SM VCFG OVC008 FM291800 21005KT P6SM BKN013
                       FM291900 28006KT P6SM SKC FM300400 VRB04KT
                       P6SM SKC=
201007290520 TAF KBFI 290520Z 2906/3006 VRB03KT P6SM SCT250 FM290900 VRB03KT
                       P6SM VCFG OVC009 FM291200 21005KT P6SM VCFG
                       OVC006 FM291800 25005KT P6SM BKN013 FM291900
                       29006KT P6SM SKC FM300400 VRB04KT P6SM SKC=
201007282337 TAF KBFI 282337Z 2900/2924 24005KT P6SM FEW130 BKN250 FM290600
                       VRB03KT P6SM SCT250 FM290900 VRB03KT P6SM
                       VCFG OVC009 FM291200 21005KT P6SM VCFG OVC006
                       FM291800 25005KT P6SM BKN013 FM291900 29006KT
                       P6SM SKC=
201007281739 TAF KBFI 281739Z 2818/2918 25005KT P6SM OVC008 FM281900 27005KT
                       P6SM BKN014 FM282000 27005KT P6SM SCT130
                       FM291000 VRB03KT P6SM VCFG FEW006 FM291200
                       21005KT P6SM VCFG OVC006=
201007281440 KBFI 281440Z 2815/2912 19004KT P6SM VCFG OVC006 FM281700 19004KT
                       P6SM OVC009 FM281900 22006KT P6SM BKN014
                       FM282000 29006KT P6SM SCT200 FM291000 22004KT
                       P6SM BKN012=
201007281135 TAF KBFI 281135Z 2812/2912 21005KT P6SM OVC008 FM281500 19004KT
                       P6SM OVC012 FM281900 22006KT P6SM BKN020
                       FM282000 29006KT P6SM SCT200 FM291000 22004KT
                       P6SM BKN012=
201007281002 KBFI 281002Z 2810/2906 20005KT P6SM OVC008 FM281400 19004KT P6SM
                       OVC012 FM282000 29006KT P6SM SKC=
201007280526 TAF KBFI 280526Z 2806/2906 VRB03KT P6SM FEW250 FM281200 19004KT
                       P6SM SCT012
                      TEMPO 2812/2814 BKN012 FM281400 19004KT P6SM
                       OVC012 FM282000 29006KT P6SM SKC=
201007272341 TAF KBFI 272341Z 2800/2824 25006KT P6SM SCT250 FM280300 VRB03KT
                       P6SM SCT250 FM281200 19004KT P6SM SCT012
                       TEMPO 2812/2814 BKN012 FM281400 19004KT
                       P6SM OVC012 FM282000 29006KT P6SM SKC=
201007271720 TAF KBFI 271720Z 2718/2818 18006KT P6SM SCT250 FM272000 25006KT
                       P6SM SCT250 FM280300 VRB03KT P6SM SCT250
                       FM281200 19004KT P6SM SCT012
                      TEMPO 2812/2814 BKN012 FM281400 19004KT P6SM
                       OVC012=
201007271614 KBFI 271614Z 2716/2812 18006KT P6SM VCFG SCT009 FM271800 22008KT
                       P6SM SKC FM280000 22005KT P6SM SCT200=
201007271501 KBFI 271501Z 2715/2812 18006KT P6SM VCFG SCT009
                      TEMPO 2715/2716 BKN009 FM271600 18006KT P6SM
                       VCFG BKN009 FM271900 22008KT P6SM SKC FM280000
                       22005KT P6SM SCT200=
201007271138 TAF KBFI 271138Z 2712/2812 16006KT P6SM SCT009
                      TEMPO 2712/2713 BKN009 FM271400 19006KT P6SM
                       OVC009 FM271900 22008KT P6SM SKC FM280000
                       22005KT P6SM SCT200=
201007270539 TAF KBFI 270539Z 2706/2806 00000KT P6SM SCT200 FM270900 16006KT
                       P6SM SKC
                      TEMPO 2712/2716 SCT009 FM271900 22008KT P6SM
                       SKC=
201007262320 TAF KBFI 262320Z 2700/2724 30006KT P6SM SKC FM270700 16006KT P6SM
                       SKC=
201007261720 TAF KBFI 261720Z 2618/2718 VRB04KT P6SM SKC=
201007261124 TAF KBFI 261124Z 2612/2712 VRB03KT P6SM SKC FM261900 33007KT P6SM
                       SKC FM270900 22004KT P6SM SKC=
201007260525 TAF KBFI 260525Z 2606/2706 VRB03KT P6SM SKC FM262100 33007KT P6SM
                       SKC=
201007252320 TAF KBFI 252320Z 2600/2624 33008KT P6SM SKC FM260500 VRB03KT P6SM
                       SKC FM262100 33007KT P6SM SKC=
201007251729 TAF KBFI 251729Z 2518/2618 VRB03KT P6SM SKC FM252100 33008KT P6SM
                       SKC FM260500 VRB03KT P6SM SKC=
201007251120 TAF KBFI 251120Z 2512/2612 33005KT P6SM SKC FM252100 33008KT P6SM
                       SKC FM260300 35004KT P6SM SKC=
201007250522 TAF KBFI 250522Z 2506/2606 33005KT P6SM SKC FM250800 00000KT P6SM
                       SKC FM251700 33005KT P6SM SKC FM252100 33008KT
                       P6SM SKC=
201007242320 TAF KBFI 242320Z 2500/2524 33009KT P6SM SKC FM250500 00000KT P6SM
                       SKC FM251700 33005KT P6SM SKC FM252100 33008KT
                       P6SM SKC=
201007241725 TAF KBFI 241725Z 2418/2518 33005KT P6SM SKC FM242100 33009KT P6SM
                       SKC FM250500 00000KT P6SM SKC FM251700 33005KT
                       P6SM SKC=
201007241120 TAF KBFI 241120Z 2412/2512 00000KT P6SM SKC FM241700 34005KT P6SM
                       SKC FM242100 33009KT P6SM SKC FM250400 35004KT
                       P6SM SKC=
201007240520 TAF KBFI 240520Z 2406/2506 00000KT P6SM SKC FM241700 31005KT P6SM
                       SKC FM242100 31009KT P6SM SKC=
201007232320 TAF KBFI 232320Z 2400/2424 31009KT P6SM SKC FM240600 00000KT P6SM
                       SKC FM241700 31005KT P6SM SKC FM242100 31009KT
                       P6SM SKC=
201007231736 TAF KBFI 231736Z 2318/2418 VRB05KT P6SM SCT016
                      TEMPO 2318/2319 BKN016 FM232200 34010KT P6SM
                       SKC FM240600 00000KT P6SM SKC FM241700 33005KT
                       P6SM SKC=
201007231516 KBFI 231516Z 2315/2412 00000KT P6SM SKC
                      TEMPO 2315/2317 BKN015 FM231800 34006KT P6SM
                       SKC FM232200 34010KT P6SM SKC FM240300 VRB03KT
                       P6SM SKC=
201007231120 TAF KBFI 231120Z 2312/2412 00000KT P6SM SCT035
                      TEMPO 2313/2317 BKN035 FM231800 34006KT P6SM
                       SKC FM232200 34010KT P6SM SKC FM240300 VRB03KT
                       P6SM SKC=
201007231017 TAF AMD KBFI 231017Z 2310/2406 00000KT P6SM SKC FM231200 VRB03KT
                       P6SM SCT025
                      TEMPO 2313/2317 BKN025 FM231800 34006KT P6SM
                       SKC FM232200 34010KT P6SM SKC FM240300 VRB03KT
                       P6SM SKC=
201007230521 TAF KBFI 230521Z 2306/2406 18003KT P6SM SKC FM230700 18003KT P6SM
                       BKN035 FM231000 VRB03KT P6SM BKN023 FM231800
                       34006KT P6SM SKC FM232200 34010KT P6SM SKC
                       FM240300 VRB03KT P6SM SKC=
201007230421 KBFI 230421Z 2304/2324 20005KT P6SM SCT045 SCT250 FM230600 VRB04KT
                       P6SM BKN030 FM231000 VRB03KT P6SM BKN023
                       FM231800 34006KT P6SM SKC FM232200 34010KT
                       P6SM SKC=
201007222320 TAF KBFI 222320Z 2300/2324 VRB04KT P6SM BKN030
                      TEMPO 2302/2306 SCT030 FM230800 VRB04KT P6SM
                       BKN018
                      TEMPO 2312/2316 OVC015 FM231700 34006KT P6SM
                       SKC=
201007221740 TAF KBFI 221740Z 2218/2318 18008KT P6SM OVC015 FM222000 22008KT
                       P6SM OVC022 FM222200 22008KT P6SM BKN035
                       FM230500 16006KT P6SM OVC030 FM230800 VRB03KT
                       P6SM BKN010
                      TEMPO 2312/2316 5SM BR OVC007 FM231700 33006KT
                       P6SM SKC=
201007221120 TAF KBFI 221120Z 2212/2312 VRB04KT P6SM OVC010
                      TEMPO 2215/2218 5SM -DZ BR FM221900 20009KT
                       P6SM OVC025 FM222100 22010KT P6SM BKN035
                       FM230500 18003KT P6SM OVC028 FM230800 VRB03KT
                       P6SM OVC015=
201007221023 KBFI 221023Z 2210/2306 VRB06KT P6SM BKN014 FM221100 19007KT P6SM
                       OVC012
                      TEMPO 2215/2218 5SM -DZ BR FM221900 20009KT
                       P6SM OVC025 FM222100 22010KT P6SM BKN035
                       FM230500 18003KT P6SM OVC028=
201007220520 TAF KBFI 220520Z 2206/2306 24003KT P6SM BKN250 FM221100 19007KT
                       P6SM OVC012
                      TEMPO 2215/2218 5SM -DZ BR FM221900 20009KT
                       P6SM OVC025 FM222100 22010KT P6SM BKN035
                       FM230500 18003KT P6SM OVC028=
201007212320 TAF KBFI 212320Z 2200/2224 30006KT P6SM SKC FM220600 VRB03KT P6SM
                       SKC FM221100 19006KT P6SM BKN015 FM221300
                       20008KT P6SM OVC018
                      TEMPO 2215/2218 5SM -DZ BR FM222100 23007KT
                       P6SM BKN035=
201007211726 TAF KBFI 211726Z 2118/2218 20005KT P6SM SCT008 FM212000 VRB04KT
                       P6SM SKC FM221100 19006KT P6SM BKN015 FM221300
                       20008KT P6SM OVC018
                      TEMPO 2215/2218 5SM -DZ BR=
201007211127 TAF KBFI 211127Z 2112/2212 15003KT P6SM SCT006 FM211300 17004KT
                       5SM BR OVC004 FM211900 23005KT P6SM SCT013
                       FM212100 30006KT P6SM SKC FM220400 18006KT
                       P6SM SKC FM221100 19006KT P6SM OVC013=
201007210520 TAF KBFI 210520Z 2106/2206 00000KT P6SM FEW120 FM211200 15005KT
                       P6SM BKN007
                      TEMPO 2113/2117 5SM BR OVC005 FM211900 23005KT
                       P6SM SCT015 FM212100 30006KT P6SM SKC FM220400
                       18006KT P6SM SKC=
201007202320 TAF KBFI 202320Z 2100/2124 VRB04KT P6SM SCT150 FM211200 15005KT
                       P6SM BKN008
                      TEMPO 2113/2117 5SM BR OVC005 FM211900 23005KT
                       P6SM SCT015 FM212100 30006KT P6SM SKC=
201007201721 TAF KBFI 201721Z 2018/2118 22005KT P6SM BKN008 FM202000 VRB03KT
                       P6SM SCT010 BKN200 FM210000 33006KT P6SM
                       SCT200 FM211200 VRB03KT P6SM BKN008
                      TEMPO 2114/2116 4SM BR OVC005 FM211700 VRB03KT
                       P6SM SCT010=
201007201228 KBFI 201228Z 2012/2112 00000KT P6SM VCFG BKN010 OVC150 FM201300
                       00000KT P6SM VCFG OVC007 FM201700 34006KT
                       P6SM SCT010 SCT250 FM210300 00000KT P6SM
                       SCT250=
201007201120 TAF KBFI 201120Z 2012/2112 00000KT P6SM SKC FM201300 00000KT P6SM
                       BKN007 BKN250 FM201700 34006KT P6SM SCT010
                       SCT250 FM210300 00000KT P6SM SCT250=
201007200948 KBFI 200948Z 2010/2106 00000KT P6SM SCT250 FM201100 VRB02KT P6SM
                       SCT009 SCT250
                      TEMPO 2013/2017 BKN009 BKN250 FM201700 34006KT
                       P6SM SCT250 FM210300 00000KT P6SM SCT250=
201007200520 TAF KBFI 200520Z 2006/2106 00000KT P6SM SCT250 FM201100 VRB02KT
                       P6SM SCT015 SCT250
                      TEMPO 2013/2017 BKN015 BKN250 FM201700 34006KT
                       P6SM SCT250 FM210300 00000KT P6SM SCT250=
201007192320 TAF KBFI 192320Z 2000/2024 VRB04KT P6SM SKC FM201100 17005KT P6SM
                       SCT015 SCT250 FM201300 VRB03KT P6SM BKN015
                       FM201700 32006KT P6SM SCT250=
201007191726 TAF KBFI 191726Z 1918/2018 VRB03KT P6SM OVC015 FM191930 VRB03KT
                       P6SM BKN020 FM192100 32006KT P6SM SKC FM201200
                       VRB03KT P6SM BKN018
                      TEMPO 2014/2018 OVC015=
201007191208 KBFI 191208Z 1912/2012 19003KT P6SM OVC012 FM191900 18006KT P6SM
                       SKC FM192100 31005KT P6SM SKC=
201007191128 TAF KBFI 191128Z 1912/2012 19003KT P6SM BKN024 FM191400 20003KT
                       P6SM OVC016 FM191900 18006KT P6SM SKC FM192100
                       31005KT P6SM SKC=
201007190520 TAF KBFI 190520Z 1906/2006 00000KT P6SM SCT080 FM191000 18006KT
                       P6SM OVC012 FM191900 18006KT P6SM SKC FM192100
                       31005KT P6SM SKC=
201007182338 TAF KBFI 182338Z 1900/1924 21006KT P6SM SKC FM191000 18006KT P6SM
                       OVC012 FM192000 18006KT P6SM SKC=
201007181738 TAF KBFI 181738Z 1818/1918 19006KT P6SM OVC015 FM182100 21006KT
                       P6SM SCT200 FM191000 20006KT P6SM OVC015=
201007181230 KBFI 181230Z 1813/1912 17008KT P6SM OVC008 FM182000 18006KT P6SM
                       BKN026 FM182100 21006KT P6SM SCT200 FM191000
                       20006KT P6SM OVC015=
201007181120 TAF KBFI 181120Z 1812/1912 18008KT P6SM OVC010 FM182000 18006KT
                       P6SM BKN026 FM182100 21006KT P6SM SCT200
                       FM191000 20006KT P6SM OVC015=
201007181006 KBFI 181006Z 1810/1906 17004KT P6SM OVC010 FM182000 18006KT P6SM
                       BKN026 FM182300 21006KT P6SM SCT200=
201007180531 TAF KBFI 180531Z 1806/1906 VRB03KT P6SM SKC FM181200 18006KT P6SM
                       OVC015 FM182000 18006KT P6SM BKN026 FM182300
                       21006KT P6SM SCT200=
201007172340 TAF KBFI 172340Z 1800/1824 VRB03KT P6SM SKC FM180200 31006KT P6SM
                       SKC FM181200 18006KT P6SM OVC015 FM182000
                       18006KT P6SM BKN026 FM182300 21006KT P6SM
                       SCT035=
201007171740 TAF KBFI 171740Z 1718/1818 VRB03KT P6SM OVC012 FM171900 VRB03KT
                       P6SM SKC FM172300 30006KT P6SM SKC FM181200
                       18006KT P6SM OVC015=
201007171324 KBFI 171324Z 1713/1812 20005KT P6SM OVC007 FM171800 25005KT P6SM
                       BKN012 FM171900 31006KT P6SM SKC=
201007171244 KBFI 171244Z 1713/1812 VRB03KT P6SM SCT009
                      TEMPO 1713/1714 BKN009 FM171400 VRB03KT P6SM
                       OVC009 FM171900 20006KT P6SM BKN015 FM172100
                       29006KT P6SM SKC=
201007171126 TAF KBFI 171126Z 1712/1812 18003KT P6SM SKC FM171300 20005KT P6SM
                       OVC012 FM171900 20006KT P6SM BKN015 FM172100
                       29006KT P6SM SKC=
201007170536 TAF KBFI 170536Z 1706/1806 20004KT P6SM SKC FM171100 16006KT P6SM
                       OVC020 FM171900 20006KT P6SM BKN025 FM172100
                       29006KT P6SM SKC=
201007162324 TAF KBFI 162324Z 1700/1724 VRB03KT P6SM FEW030 FM170800 16006KT
                       P6SM BKN025 FM171100 16006KT P6SM OVC020
                       FM171900 22006KT P6SM BKN025 FM172100 22006KT
                       P6SM SCT030=
201007162159 KBFI 162159Z 1622/1718 23006KT P6SM BKN025 FM162300 23006KT P6SM
                       SCT030 FM170700 16006KT P6SM BKN025 FM171000
                       16006KT P6SM OVC020=
201007161720 TAF KBFI 161720Z 1618/1718 25006KT P6SM OVC022 FM161930 25006KT
                       P6SM BKN030 FM162200 VRB04KT P6SM SCT030
                       FM170900 16006KT P6SM BKN020
                      TEMPO 1712/1716 OVC018=
201007161349 KBFI 161349Z 1614/1712 16006KT P6SM OVC011 FM161800 20005KT P6SM
                       BKN014 FM161900 22007KT P6SM SCT035 FM162100
                       30006KT P6SM SCT250=
201007161127 TAF KBFI 161127Z 1612/1712 16006KT P6SM BKN010 OVC050 FM161600
                       20005KT P6SM BKN014 FM161900 22007KT P6SM
                       SCT035 FM162100 30006KT P6SM SCT250=
201007160524 TAF KBFI 160524Z 1606/1706 00000KT P6SM SKC FM161200 20004KT P6SM
                       OVC010 FM161600 20005KT P6SM BKN018 FM161900
                       22007KT P6SM SCT035 FM162100 30006KT P6SM
                       SCT250=
201007152342 TAF KBFI 152342Z 1600/1624 33007KT P6SM SKC FM160800 VRB03KT P6SM
                       SCT012 FM161100 20004KT P6SM OVC010 FM161800
                       20005KT P6SM BKN018 FM162000 22007KT P6SM
                       SCT035=
201007151727 TAF KBFI 151727Z 1518/1618 33007KT P6SM SKC FM160800 VRB03KT P6SM
                       SCT012 FM161000 20004KT P6SM OVC010=
201007151120 TAF KBFI 151120Z 1512/1612 00000KT P6SM SKC FM151800 31005KT P6SM
                       SKC=
201007150520 TAF KBFI 150520Z 1506/1606 00000KT P6SM SKC FM151800 31005KT P6SM
                       SKC=
201007142320 TAF KBFI 142320Z 1500/1524 32006KT P6SM SKC FM150600 VRB03KT P6SM
                       SKC=
201007141723 TAF KBFI 141723Z 1418/1518 32006KT P6SM SKC FM150600 VRB03KT P6SM
                       SKC=
201007141129 TAF KBFI 141129Z 1412/1512 VRB03KT P6SM SKC FM142100 31006KT P6SM
                       SKC FM150600 VRB03KT P6SM SKC=
201007140527 TAF KBFI 140527Z 1406/1506 VRB04KT P6SM SKC FM142100 31007KT P6SM
                       FEW050 SCT250=
201007132320 TAF KBFI 132320Z 1400/1424 VRB04KT P6SM SCT050 SCT200=
201007131720 TAF KBFI 131720Z 1318/1418 VRB04KT P6SM SCT040
                      TEMPO 1322/1402 33007KT=
201007131501 TAF AMD KBFI 131501Z 1315/1412 16005KT P6SM BKN023 FM131800 VRB04KT
                       P6SM BKN035 FM132000 33007KT P6SM SCT040
                       FM140500 VRB03KT P6SM FEW050=
201007131123 TAF KBFI 131123Z 1312/1412 16006KT P6SM BKN035 BKN070
                      TEMPO 1312/1316 SCT045 BKN070 FM131600 20005KT
                       P6SM BKN045 BKN070 FM132000 30006KT P6SM
                       SCT050 FM140400 VRB05KT P6SM FEW050=
201007130900 TAF AMD KBFI 130900Z 1309/1406 17006KT P6SM OVC030 FM131800 VRB05KT
                       P6SM BKN045 BKN070 FM132000 30006KT P6SM
                       SCT050 FM140400 34005KT P6SM SCT045=
201007130520 TAF KBFI 130520Z 1306/1406 20008KT P6SM SCT045 BKN070
                      TEMPO 1307/1311 BKN035 OVC050 FM131100 17007KT
                       P6SM OVC035 FM131800 VRB05KT P6SM BKN045
                       BKN070 FM132000 30006KT P6SM SCT050 FM140400
                       34005KT P6SM SCT045=
201007122320 TAF KBFI 122320Z 1300/1324 VRB04KT P6SM BKN050 FM130500 VRB04KT
                       P6SM OVC035 FM131000 17007KT P6SM OVC025
                       FM131700 23008KT P6SM BKN035 FM132000 30006KT
                       P6SM SCT040=
201007122010 KBFI 122010Z 1220/1318 VRB04KT P6SM OVC035 FM130600 17007KT P6SM
                       OVC025=
201007121722 TAF KBFI 121722Z 1218/1318 VRB05KT P6SM BKN025
                      TEMPO 1218/1220 5SM -SHRA OVC022 FM122200
                       25007KT P6SM BKN040 FM130600 17007KT P6SM
                       OVC022=
201007121132 TAF KBFI 121132Z 1212/1312 19008KT P6SM BKN017 OVC025
                      TEMPO 1212/1216 5SM -DZ BKN012 FM121800 19009KT
                       P6SM BKN018 OVC030 FM122000 22010KT P6SM
                       SCT018 OVC030 FM122300 26011KT P6SM BKN040
                       BKN060 FM130800 17008KT P6SM OVC030=
201007120805 KBFI 120805Z 1208/1306 19006KT P6SM SCT010 OVC018
                      TEMPO 1208/1210 5SM BR OVC010 FM121000 19007KT
                       P6SM OVC010
                      TEMPO 1212/1216 5SM -DZ FM121900 19008KT
                       P6SM BKN017 OVC025 FM122000 21010KT P6SM
                       OVC030 FM122300 23011KT P6SM BKN040=
201007120527 KBFI 120527Z 1206/1306 19009KT P6SM BKN025
                      TEMPO 1206/1210 OVC018 FM121000 19007KT P6SM
                       OVC018
                      TEMPO 1212/1216 5SM -DZ OVC014 FM122000 21010KT
                       P6SM OVC030 FM122300 23011KT P6SM BKN040=
201007120525 TAF KBFI 120525Z 1206/1306 19009KT P6SM BKN030
                      TEMPO 1208/1211 OVC024 FM121100 19007KT P6SM
                       OVC018
                      TEMPO 1212/1216 5SM -DZ OVC014 FM122000 21010KT
                       P6SM OVC030 FM122300 23011KT P6SM BKN040=
201007120258 KBFI 120258Z 1203/1224 20009KT P6SM SCT025
                      TEMPO 1203/1205 BKN022 FM120700 19009KT P6SM
                       BKN025 FM120900 19005KT P6SM OVC020
                      TEMPO 1212/1216 5SM -DZ OVC014 FM122000 21010KT
                       P6SM BKN030=
201007112335 TAF KBFI 112335Z 1200/1224 23009KT P6SM SCT025 FM120600 19009KT
                       P6SM BKN030 FM120900 19005KT P6SM OVC020
                       TEMPO 1212/1216 5SM -DZ OVC014 FM122000
                       21010KT P6SM BKN030=
201007111731 TAF KBFI 111731Z 1118/1218 22006KT P6SM BKN008
                      TEMPO 1118/1120 SCT012 FM112000 22008KT P6SM
                       SKC FM120600 19005KT P6SM BKN030 BKN250
                       FM120900 19005KT P6SM OVC020=
201007111128 TAF KBFI 111128Z 1112/1212 VRB03KT P6SM VCFG OVC007 FM111800 20005KT
                       P6SM BKN012 BKN250 FM111900 25008KT P6SM
                       FEW050 SCT250 FM120300 22008KT P6SM FEW030
                       FEW050 SCT250 FM120600 19005KT P6SM BKN030
                       BKN250 FM120900 19005KT P6SM OVC020=
201007110546 TAF KBFI 110546Z 1106/1206 VRB03KT P6SM SKC FM111200 VRB03KT P6SM
                       VCFG SCT009
                      TEMPO 1112/1114 BKN009 FM111400 VRB03KT P6SM
                       VCFG OVC009 FM111800 20005KT P6SM BKN015
                       BKN250 FM111900 25008KT P6SM FEW050 SCT250
                       FM120300 22008KT P6SM FEW028 FEW050 SCT250=
201007102330 TAF KBFI 102330Z 1100/1124 30006KT P6SM SKC FM110700 18004KT P6SM
                       SKC FM111200 18004KT P6SM BKN009 FM111600
                       20005KT P6SM OVC016 FM111800 20005KT P6SM
                       BKN018 FM111900 20006KT P6SM SCT020 FM112000
                       20008KT P6SM SCT200=
201007101730 TAF KBFI 101730Z 1018/1118 20006KT P6SM SKC FM110000 30006KT P6SM
                       SKC FM110700 18004KT P6SM SKC FM111200 18004KT
                       P6SM OVC009 FM111600 20005KT P6SM OVC016=
201007101126 TAF KBFI 101126Z 1012/1112 28003KT P6SM SCT120 BKN250 FM101800
                       23008KT P6SM SCT250 FM110100 29006KT P6SM
                       SKC FM110700 18004KT P6SM SKC=
201007100530 TAF KBFI 100530Z 1006/1106 00000KT P6SM BKN250 FM100900 18004KT
                       P6SM BKN130 OVC250 FM101800 23008KT P6SM
                       SCT250 FM110100 29006KT P6SM SKC=
201007092328 TAF KBFI 092328Z 1000/1024 32005KT P6SM FEW250 FM100600 35005KT
                       P6SM SCT250 FM100900 21006KT P6SM SCT250
                       FM101800 23008KT P6SM SCT250=
201007091729 TAF KBFI 091729Z 0918/1018 VRB02KT P6SM SKC FM091900 29008KT P6SM
                       SKC FM100600 20004KT P6SM SCT250 FM101200
                       23005KT P6SM SCT250=
201007091131 TAF KBFI 091131Z 0912/1012 VRB02KT P6SM SKC FM091900 29008KT P6SM
                       SKC FM100600 20004KT P6SM SCT250=
201007090540 TAF KBFI 090540Z 0906/1006 VRB02KT P6SM SKC FM091700 29007KT P6SM
                       SKC=
201007082320 TAF KBFI 082320Z 0900/0924 31006KT P6SM SKC FM090600 VRB03KT P6SM
                       SKC FM092000 30005KT P6SM SKC=
201007081729 TAF KBFI 081729Z 0818/0918 00000KT P6SM SKC FM081900 31006KT P6SM
                       SKC FM090600 VRB03KT P6SM SKC=
201007081127 TAF KBFI 081127Z 0812/0912 00000KT P6SM SKC FM081900 31008KT P6SM
                       SKC FM090600 VRB03KT P6SM SKC=
201007080532 TAF KBFI 080532Z 0806/0906 00000KT P6SM SKC FM081900 31008KT P6SM
                       SKC=
201007072320 TAF KBFI 072320Z 0800/0824 30009KT P6SM SKC FM080400 32006KT P6SM
                       SKC FM080600 VRB03KT P6SM SKC FM081800 32007KT
                       P6SM SKC=
201007071724 TAF KBFI 071724Z 0718/0818 34005KT P6SM SKC FM072100 32011KT P6SM
                       SKC FM080200 32006KT P6SM SKC FM080900 VRB04KT
                       P6SM SKC=
201007071136 TAF KBFI 071136Z 0712/0812 00000KT P6SM SKC FM071600 33006KT P6SM
                       SKC FM072100 32012KT P6SM SKC FM080200 32006KT
                       P6SM SKC FM080900 00000KT P6SM SKC=
201007070536 TAF KBFI 070536Z 0706/0806 00000KT P6SM SKC FM071600 33006KT P6SM
                       SKC FM072100 32012KT P6SM SKC FM080200 32006KT
                       P6SM SKC=
201007062320 TAF KBFI 062320Z 0700/0724 32010G16KT P6SM SKC FM070300 32006KT
                       P6SM SKC FM070800 00000KT P6SM SKC FM071900
                       32007KT P6SM SKC=
201007061724 TAF KBFI 061724Z 0618/0718 VRB03KT P6SM SKC FM062000 32008KT P6SM
                       SKC FM070300 32006KT P6SM SKC FM070800 00000KT
                       P6SM SKC=
201007061136 TAF KBFI 061136Z 0612/0712 00000KT P6SM SKC FM062000 32009KT P6SM
                       SKC FM070300 32006KT P6SM SKC FM070800 00000KT
                       P6SM SKC=
201007060535 TAF KBFI 060535Z 0606/0706 32003KT P6SM SKC FM061200 00000KT P6SM
                       SKC FM062000 32009KT P6SM SKC FM070300 32006KT
                       P6SM SKC=
201007052320 TAF KBFI 052320Z 0600/0624 33006KT P6SM SCT045 FM060600 00000KT
                       P6SM SKC FM061900 35007KT P6SM SKC=
201007051724 TAF KBFI 051724Z 0518/0618 VRB03KT P6SM BKN020 OVC028 FM052000
                       33004KT P6SM BKN035 BKN050 FM052300 33008KT
                       P6SM SCT050 FM060600 00000KT P6SM SKC FM061700
                       35005KT P6SM SKC=
201007051120 TAF KBFI 051120Z 0512/0612 VRB03KT P6SM OVC023 FM051600 20006KT
                       P6SM BKN028 OVC040 FM051800 20006KT P6SM
                       SCT030 BKN050 FM052000 33007KT P6SM SCT050
                       FM060500 VRB04KT P6SM SKC=
201007050523 TAF KBFI 050523Z 0506/0606 VRB04KT P6SM -SHRA SCT008 OVC022
                      TEMPO 0506/0510 5SM -SHRA BR BKN008 OVC018
                       FM051000 VRB03KT P6SM BKN016 OVC030 FM051600
                       20006KT P6SM BKN025 OVC040 FM051900 20006KT
                       P6SM SCT030 BKN050 FM052100 33007KT P6SM
                       SCT050=
201007050018 KBFI 050018Z 0500/0524 VRB04KT 6SM -SHRA BR SCT015 OVC028
                      TEMPO 0500/0503 3SM SHRA BR BKN015 OVC028
                       FM050300 35005KT 6SM -SHRA BR FEW009 OVC018
                       TEMPO 0503/0507 3SM SHRA BR BKN009 OVC018
                       FM050900 VRB03KT P6SM BKN016 OVC030 FM051600
                       20006KT P6SM BKN025 OVC040 FM051900 20006KT
                       P6SM SCT030 BKN050 FM052100 33007KT P6SM
                       SCT050=
201007042320 TAF KBFI 042320Z 0500/0524 20006KT P6SM VCSH BKN030 OVC050 FM050100
                       33006KT P6SM VCSH BKN025 OVC045
                      TEMPO 0501/0505 SCT025 BKN045 FM050500 01005KT
                       P6SM VCSH OVC020 FM051000 VRB03KT P6SM BKN016
                       OVC030 FM051600 20006KT P6SM BKN025 OVC040
                       FM051900 20006KT P6SM SCT030 BKN050 FM052100
                       33007KT P6SM SCT050=
201007041737 TAF KBFI 041737Z 0418/0518 20006KT P6SM BKN025 OVC040
                      TEMPO 0418/0422 SCT025 OVC040 FM042300 33006KT
                       P6SM VCSH BKN025 OVC045 FM050500 01005KT
                       P6SM VCSH OVC020 FM051000 16004KT P6SM BKN016
                       OVC030 FM051600 20006KT P6SM BKN025 OVC040=
201007041413 KBFI 041413Z 0414/0512 16003KT P6SM OVC020 FM041700 22010KT P6SM
                       SCT025 BKN050
                      TEMPO 0417/0421 BKN020 OVC050 FM042300 35006KT
                       P6SM BKN030 BKN050
                      PROB30 0423/0505 -SHRA BKN020 OVC030 FM050500
                       08005KT P6SM BKN025 BKN050=
201007041125 TAF KBFI 041125Z 0412/0512 16003KT P6SM OVC045 FM041700 22010KT
                       P6SM FEW025 BKN050 FM042300 35006KT P6SM
                       BKN030 BKN050
                      PROB30 0423/0505 -SHRA BKN020 OVC030 FM050500
                       08005KT P6SM BKN025 BKN050=
201007040529 TAF KBFI 040529Z 0406/0506 00000KT P6SM BKN050 OVC070
                      TEMPO 0406/0408 SCT050 SCT070 FM041200 20005KT
                       P6SM BKN023 OVC040 FM041700 22010KT P6SM
                       SCT025 BKN050
                      TEMPO 0423/0503 -SHRA BKN018 OVC028 FM050300
                       02006KT P6SM -SHRA BKN020 OVC040=
201007040128 KBFI 040128Z 0401/0424 31004KT P6SM SCT050
                      TEMPO 0401/0403 BKN050 FM040500 20004KT P6SM
                       FEW025 SCT070 FM041000 17004KT P6SM BKN025
                       BKN070=
201007040038 TAF KBFI 040038Z 0401/0424 VRB03KT P6SM SCT040 BKN060 FM040500
                       20004KT P6SM FEW025 SCT070 FM041000 17004KT
                       P6SM BKN025 BKN070=
201007031742 TAF KBFI 031742Z 0318/0418 23003KT P6SM BKN025 OVC060
                      TEMPO 0318/0321 SCT030 OVC060 FM032100 23005KT
                       P6SM SCT045 BKN070 FM040100 29005KT P6SM
                       SCT070 FM040500 20004KT P6SM FEW025 SCT070
                       FM041000 17004KT P6SM BKN025 BKN070=
201007031126 TAF KBFI 031126Z 0312/0412 15006KT P6SM OVC017 FM031800 19005KT
                       P6SM BKN030 BKN050 FM032100 23005KT P6SM
                       SCT045 BKN080 FM040000 29005KT P6SM SCT080
                       FM040500 20004KT P6SM FEW025 SCT070 FM041000
                       17004KT P6SM BKN025 BKN070=
201007030601 KBFI 030601Z 0306/0406 00000KT P6SM BKN030 BKN070
                      TEMPO 0306/0310 SCT030 BKN070 FM031200 18004KT
                       P6SM SCT015 OVC025 FM031800 19005KT P6SM
                       SCT040 BKN050 FM032000 23005KT P6SM SCT050
                       SCT080=
201007030530 TAF KBFI 030530Z 0306/0406 00000KT P6SM FEW045 BKN080 FM030800
                       17004KT P6SM BKN040 OVC080 FM031200 18004KT
                       P6SM SCT015 OVC025 FM031800 19005KT P6SM
                       SCT040 BKN050 FM032000 23005KT P6SM SCT050
                       SCT080=
201007030052 KBFI 030052Z 0301/0324 31005KT P6SM BKN050 OVC070
                      TEMPO 0301/0303 -SHRA FM030400 VRB03KT P6SM
                       BKN070 BKN100 FM030800 17004KT P6SM BKN040
                       OVC080 FM031200 18004KT P6SM SCT015 OVC025
                       FM031800 19005KT P6SM SCT040 BKN050 FM032000
                       23005KT P6SM SCT050 SCT080=
201007022335 TAF KBFI 022335Z 0300/0324 19006KT P6SM FEW040 BKN070 BKN100 FM030800
                       17004KT P6SM BKN040 OVC080 FM031200 18004KT
                       P6SM SCT015 OVC025 FM031800 19005KT P6SM
                       SCT040 BKN050 FM032000 23005KT P6SM SCT050
                       SCT080=
201007022131 KBFI 022131Z 0222/0318 21006KT P6SM SCT035 OVC070 FM030000 19006KT
                       P6SM BKN070 FM030800 17004KT P6SM BKN040
                       OVC080 FM031200 18004KT P6SM SCT015 OVC025=
201007021742 TAF KBFI 021742Z 0218/0318 31004KT P6SM SCT008 BKN015 OVC060 FM022000
                       21006KT P6SM BKN030 BKN060 FM030000 19006KT
                       P6SM BKN080 FM030800 17004KT P6SM BKN040
                       OVC080 FM031200 18004KT P6SM SCT015 OVC025=
201007021603 KBFI 021603Z 0216/0312 00000KT P6SM -RA SCT006 BKN021 OVC050
                      TEMPO 0216/0218 3SM -SHRA BR BKN006 OVC012
                       FM021900 21006KT P6SM BKN050 OVC080 FM022300
                       24006KT P6SM BKN090 FM030800 17004KT P6SM
                       BKN040 OVC080=
201007021502 KBFI 021502Z 0215/0312 00000KT P6SM -RA SCT006 BKN021 OVC050
                      TEMPO 0215/0216 3SM -SHRA BR BKN006 OVC012
                       FM021900 21006KT P6SM BKN050 OVC080 FM022300
                       24006KT P6SM BKN090 FM030800 17004KT P6SM
                       BKN040 OVC080=
201007021324 KBFI 021324Z 0213/0312 00000KT P6SM -RA SCT006 BKN021 OVC050
                      TEMPO 0213/0216 3SM -SHRA BR BKN006 OVC021
                       FM021900 21006KT P6SM BKN050 OVC080 FM022300
                       24006KT P6SM BKN090 FM030800 17004KT P6SM
                       BKN040 OVC080=
201007021124 TAF KBFI 021124Z 0212/0312 00000KT P6SM -RA SCT008 BKN025 OVC050
                       TEMPO 0212/0216 5SM -SHRA BR BKN008 OVC025
                       FM021900 21006KT P6SM BKN050 OVC080 FM022300
                       24006KT P6SM BKN090 FM030800 17004KT P6SM
                       BKN040 OVC080=
201007020526 TAF KBFI 020526Z 0206/0306 23005KT P6SM -SHRA BKN050 OVC080
                      TEMPO 0206/0209 -SHRA BKN035 OVC050 FM020900
                       17003KT P6SM -SHRA BKN035 OVC050 FM021900
                       21006KT P6SM BKN050 OVC080 FM022300 24006KT
                       P6SM BKN090=
201007012339 TAF KBFI 012339Z 0200/0224 21006KT P6SM -SHRA SCT025 BKN045 OVC080
                       FM020600 VRB04KT P6SM -SHRA BKN030 OVC040
                       FM021200 VRB04KT P6SM -SHRA BKN022 OVC030
                       FM021900 20008KT P6SM OVC030 FM022300 24005KT
                       P6SM BKN040=
201007011722 TAF KBFI 011722Z 0118/0218 18004KT P6SM VCSH SCT040 BKN060 OVC080
                       TEMPO 0118/0122 -SHRA BKN040 FM012200 22006KT
                       P6SM VCSH BKN040 OVC050 FM020300 VRB04KT
                       P6SM -SHRA BKN030 OVC040 FM021200 19005KT
                       P6SM -SHRA BKN025 OVC030=
201007011505 KBFI 011505Z 0115/0212 19006KT P6SM VCSH SCT035 BKN050
                      TEMPO 0115/0119 -SHRA BKN035 FM011900 20006KT
                       P6SM VCSH BKN035 OVC060 FM020000 20006KT
                       P6SM -SHRA BKN035 OVC060 FM020600 20004KT
                       P6SM BKN020 OVC045
                      PROB30 0206/0212 -SHRA OVC025=
201007011125 TAF KBFI 011125Z 0112/0212 VRB03KT P6SM BKN100 OVC200 FM011800
                       19006KT P6SM SCT060 BKN080 BKN150 FM020000
                       20006KT P6SM -SHRA BKN035 OVC060 FM020600
                       20004KT P6SM BKN020 OVC045
                      PROB30 0206/0212 -SHRA OVC025=
201007010530 TAF KBFI 010530Z 0106/0206 VRB03KT P6SM FEW050 BKN250 FM011100
                       16003KT P6SM BKN100 BKN250 FM011800 19006KT
                       P6SM SCT060 BKN100 BKN150
                      PROB30 0118/0124 -SHRA BKN040 OVC060 FM020000
                       20006KT P6SM -SHRA BKN035 OVC060=