##########################################################
# Query made at 02/17/2025 01:17:59 UTC
# Time interval: from 10/01/2010 00:00  to 10/31/2010 23:59  UTC
##########################################################

##########################################################
# KBFI, Seattle, Seattle Boeing Field (United States)
# WMO index: -----. WIGOS ID: Unknown
# Latitude 47-32-45N. Longitude 122-18-49W. Altitude 5 m.
##########################################################

###################################
#  METAR/SPECI from KBFI
###################################
201010312353 METAR KBFI 312353Z 00000KT 10SM SCT040 OVC200 13/04 A3008 RMK AO2 SLP186 T01330039 10144 20117 51002 $=
201010312253 METAR KBFI 312253Z VRB04KT 10SM SCT040 OVC200 13/04 A3008 RMK AO2 SLP185 T01330039 $=
201010312153 METAR KBFI 312153Z 17008KT 10SM SCT036 BKN250 14/04 A3008 RMK AO2 SLP186 T01390039 $=
201010312053 METAR KBFI 312053Z 21008KT 10SM SCT036 14/04 A3007 RMK AO2 SLP184 T01390039 50004 $=
201010311953 METAR KBFI 311953Z 20008KT 10SM SCT036 13/05 A3008 RMK AO2 SLP187 T01280050 $=
201010311853 METAR KBFI 311853Z 20007KT 10SM FEW028 13/06 A3008 RMK AO2 SLP185 T01280056 $=
201010311753 METAR KBFI 311753Z 16010KT 10SM FEW016 SCT060 12/07 A3006 RMK AO2 SLP179 T01170067 10117 20089 51029 $=
201010311653 METAR KBFI 311653Z 16009KT 10SM SCT016 11/07 A3004 RMK AO2 SLP172 T01060072 $=
201010311642 SPECI KBFI 311642Z 16009G18KT 10SM BKN016 11/07 A3004 RMK AO2 $=
201010311642 SPECI KBFI 311642Z 16009G18KT 10SM BKN016 11/07 A3004 RMK AO2 $=
201010311553 METAR KBFI 311553Z 16012KT 10SM SCT020 09/07 A3001 RMK AO2 SLP160 T00940072=
201010311453 METAR KBFI 311453Z 16009KT 10SM CLR 10/07 A2998 RMK AO2 SLP151 T01000072 51034=
201010311353 METAR KBFI 311353Z 18006KT 10SM CLR 10/07 A2995 RMK AO2 SLP140 T01000072=
201010311253 METAR KBFI 311253Z 18005KT 10SM SCT018 OVC095 11/08 A2992 RMK AO2 SLP130 T01060078=
201010311246 SPECI KBFI 311246Z 19008KT 10SM SCT018 OVC095 11/08 A2991 RMK AO2=
201010311246 SPECI KBFI 311246Z 19008KT 10SM SCT018 OVC095 11/08 A2991 RMK AO2=
201010311238 SPECI KBFI 311238Z 18009G17KT 10SM BKN018 OVC095 11/08 A2991 RMK AO2=
201010311238 SPECI KBFI 311238Z 18009G17KT 10SM BKN018 OVC095 11/08 A2991 RMK AO2=
201010311153 METAR KBFI 311153Z 17009G14KT 10SM BKN070 11/08 A2988 RMK AO2 SLP117 60013 70053 T01060078 10117 20100 53026=
201010311053 METAR KBFI 311053Z 17008KT 10SM BKN040 BKN050 OVC110 11/08 A2985 RMK AO2 SLP108 T01060083=
201010310953 METAR KBFI 310953Z 17007KT 10SM SCT055 SCT075 BKN100 11/08 A2982 RMK AO2 RAE29 SLP098 P0000 T01060083=
201010310853 METAR KBFI 310853Z 16009KT 10SM -RA OVC047 11/08 A2980 RMK AO2 SLP091 P0008 60013 T01060083 53016=
201010310753 METAR KBFI 310753Z 18007KT 4SM RA BR FEW029 BKN048 OVC060 11/09 A2978 RMK AO2 SLP084 P0004 T01060089 401060039=
201010310653 METAR KBFI 310653Z 13005KT 10SM -RA BKN065 OVC075 10/08 A2976 RMK AO2 SLP077 P0001 T01000083=
201010310553 METAR KBFI 310553Z 14006KT 8SM -RA OVC060 10/08 A2975 RMK AO2 SLP075 P0002 60007 T01000083 10100 20089 53001=
201010310453 METAR KBFI 310453Z 14008KT 10SM -RA OVC060 10/08 A2974 RMK AO2 SLP072 P0002 T01000083=
201010310353 METAR KBFI 310353Z 13005KT 10SM -RA FEW049 BKN065 OVC090 10/08 A2974 RMK AO2 RAB25 SLP071 P0001 T01000083=
201010310253 METAR KBFI 310253Z 14004KT 9SM SCT055 BKN070 OVC110 09/08 A2975 RMK AO2 SLP074 60002 T00940078 58010=
201010310153 METAR KBFI 310153Z 15005KT 7SM BKN060 09/08 A2976 RMK AO2 SLP078 T00890078=
201010310053 METAR KBFI 310053Z 13006KT 9SM SCT027 BKN040 OVC055 10/08 A2977 RMK AO2 RAE35 SLP081 P0002 T01000083=
201010310024 SPECI KBFI 310024Z 12005KT 3SM -RA BR FEW005 OVC029 10/08 A2977 RMK AO2 P0002=
201010310024 SPECI KBFI 310024Z 12005KT 3SM -RA BR FEW005 OVC029 10/08 A2977 RMK AO2 P0002=
201010302353 METAR KBFI 302353Z 00000KT 2SM RA BR SCT005 OVC020 09/08 A2978 RMK AO2 SLP084 P0009 60032 T00940083 10100 20083 55004=
201010302253 METAR KBFI 302253Z 00000KT 3SM -RA BR SCT005 BKN030 OVC036 10/08 A2978 RMK AO2 SLP083 P0004 T01000083=
201010302153 METAR KBFI 302153Z 00000KT 3SM -RA BR SCT005 BKN030 OVC036 10/08 A2978 RMK AO2 SLP085 P0006 T01000083=
201010302126 SPECI KBFI 302126Z 16003KT 3SM -RA BR OVC032 09/08 A2979 RMK AO2 P0004=
201010302126 SPECI KBFI 302126Z 16003KT 3SM -RA BR OVC032 09/08 A2979 RMK AO2 P0004=
201010302053 METAR KBFI 302053Z 15003KT 2 1/2SM -RA BR OVC034 09/08 A2979 RMK AO2 SLP089 P0008 60013 T00940078 58005=
201010302042 SPECI KBFI 302042Z 16003KT 2 1/2SM -RA BR OVC036 09/07 A2980 RMK AO2 P0006=
201010302042 SPECI KBFI 302042Z 16003KT 2 1/2SM -RA BR OVC036 09/07 A2980 RMK AO2 P0006=
201010301953 METAR KBFI 301953Z 15006KT 4SM -RA BR FEW026 OVC043 09/07 A2981 RMK AO2 SLP092 P0002 T00890072=
201010301853 METAR KBFI 301853Z 14006KT 6SM -RA BR OVC060 09/07 A2981 RMK AO2 SLP094 P0003 T00940072=
201010301753 METAR KBFI 301753Z 14006KT 10SM -RA OVC050 08/06 A2981 RMK AO2 SLP094 P0001 60001 T00830061 10083 20039 53009=
201010301653 METAR KBFI 301653Z 13004KT 10SM -RA BKN055 OVC080 07/05 A2979 RMK AO2 RAB48 SLP088 P0000 T00670050=
201010301553 METAR KBFI 301553Z 00000KT 10SM SCT060 BKN110 05/03 A2979 RMK AO2 SLP085 T00500033=
201010301453 METAR KBFI 301453Z 00000KT 10SM CLR 04/02 A2978 RMK AO2 SLP085 T00440022 58016=
201010301353 METAR KBFI 301353Z 00000KT 4SM BR CLR 04/02 A2980 RMK AO2 SLP092 T00440022=
201010301253 METAR KBFI 301253Z 00000KT 8SM CLR 05/03 A2982 RMK AO2 SLP097 T00500028=
201010301153 METAR KBFI 301153Z 00000KT 10SM CLR 06/03 A2983 RMK AO2 SLP100 T00560033 10083 20050 58013=
201010301053 METAR KBFI 301053Z 00000KT 10SM CLR 06/03 A2985 RMK AO2 SLP106 T00610033=
201010300953 METAR KBFI 300953Z 00000KT 10SM CLR 06/04 A2986 RMK AO2 SLP110 T00610039=
201010300853 METAR KBFI 300853Z 00000KT 10SM CLR 07/04 A2987 RMK AO2 SLP114 T00670039 56020=
201010300753 METAR KBFI 300753Z 00000KT 9SM CLR 07/04 A2988 RMK AO2 SLP118 T00670044 401610067=
201010300653 METAR KBFI 300653Z 00000KT 10SM CLR 07/04 A2991 RMK AO2 SLP127 T00720044=
201010300553 METAR KBFI 300553Z 17003KT 10SM CLR 07/05 A2993 RMK AO2 SLP134 T00720050 10150 20072 58005=
201010300453 METAR KBFI 300453Z 00000KT 10SM CLR 09/06 A2994 RMK AO2 SLP138 T00890061=
201010300353 METAR KBFI 300353Z 16006KT 10SM CLR 09/06 A2994 RMK AO2 SLP137 T00890061=
201010300253 METAR KBFI 300253Z 00000KT 10SM CLR 11/07 A2994 RMK AO2 SLP139 T01060067 56019=
201010300153 METAR KBFI 300153Z 00000KT 10SM CLR 13/07 A2996 RMK AO2 SLP144 T01280067=
201010300053 METAR KBFI 300053Z 00000KT 10SM CLR 14/06 A2998 RMK AO2 SLP150 T01440056=
201010292353 METAR KBFI 292353Z 21003KT 10SM CLR 15/06 A3000 RMK AO2 SLP158 T01500056 10161 20128 58017=
201010292253 METAR KBFI 292253Z 15005KT 10SM SCT030 16/07 A3002 RMK AO2 SLP165 T01560067=
201010292153 METAR KBFI 292153Z 20003KT 10SM SCT030 16/08 A3003 RMK AO2 SLP169 T01560078=
201010292053 METAR KBFI 292053Z VRB06KT 10SM CLR 15/08 A3005 RMK AO2 SLP175 T01500078 58007=
201010291953 METAR KBFI 291953Z 17004KT 10SM FEW028 SCT042 15/09 A3006 RMK AO2 SLP179 T01500089=
201010291853 METAR KBFI 291853Z 14004KT 10SM SCT025 BKN048 13/08 A3007 RMK AO2 SLP182 T01280083=
201010291753 METAR KBFI 291753Z 17005KT 10SM SCT047 13/08 A3007 RMK AO2 RAE1654 SLP183 60000 T01280083 10128 20100 50007=
201010291653 METAR KBFI 291653Z 14004KT 10SM -RA SCT032 OVC038 11/09 A3008 RMK AO2 SLP184 P0000 T01110089=
201010291553 METAR KBFI 291553Z 12005KT 10SM -RA SCT030 BKN046 10/08 A3006 RMK AO2 SLP180 P0000 T01000078=
201010291453 METAR KBFI 291453Z AUTO 14005KT 10SM -RA SCT020 BKN060 OVC075 10/08 A3005 RMK AO2 RAB1356 SLP175 P0000 60000 T01000078 50002 TSNO=
201010291400 SPECI KBFI 291400Z 14006KT 10SM -RA SCT020 BKN060 OVC075 10/08 A3005 RMK AO2 RAB1356 P0000=
201010291400 SPECI KBFI 291400Z 14006KT 10SM -RA SCT020 BKN060 OVC075 10/08 A3005 RMK AO2 RAB1356 P0000=
201010291353 METAR KBFI 291353Z 14007KT 10SM BKN025 10/08 A3005 RMK AO2 SLP176 T01000083=
201010291253 METAR KBFI 291253Z 14005KT 10SM BKN025 10/08 A3005 RMK AO2 SLP177 T01000083=
201010291153 METAR KBFI 291153Z 00000KT 10SM BKN025 OVC070 10/08 A3004 RMK AO2 SLP173 60004 70012 T01000083 10117 20089 51008=
201010291142 SPECI KBFI 291142Z 14003KT 10SM SCT025 OVC065 10/08 A3004 RMK AO2=
201010291142 SPECI KBFI 291142Z 14003KT 10SM SCT025 OVC065 10/08 A3004 RMK AO2=
201010291128 SPECI KBFI 291128Z 10003KT 10SM BKN025 OVC070 10/08 A3004 RMK AO2=
201010291128 SPECI KBFI 291128Z 10003KT 10SM BKN025 OVC070 10/08 A3004 RMK AO2=
201010291053 METAR KBFI 291053Z 13003KT 10SM FEW027 BKN049 OVC070 09/07 A3004 RMK AO2 SLP173 T00940072=
201010291043 SPECI KBFI 291043Z 14004KT 10SM SCT027 SCT035 BKN047 09/08 A3004 RMK AO2=
201010291043 SPECI KBFI 291043Z 14004KT 10SM SCT027 SCT035 BKN047 09/08 A3004 RMK AO2=
201010291012 SPECI KBFI 291012Z 12004KT 10SM BKN027 09/07 A3003 RMK AO2=
201010291012 SPECI KBFI 291012Z 12004KT 10SM BKN027 09/07 A3003 RMK AO2=
201010290953 METAR KBFI 290953Z 12003KT 10SM FEW009 SCT027 10/08 A3003 RMK AO2 SLP168 T01000078=
201010290945 SPECI KBFI 290945Z 12004KT 10SM FEW009 SCT070 10/08 A3003 RMK AO2=
201010290945 SPECI KBFI 290945Z 12004KT 10SM FEW009 SCT070 10/08 A3003 RMK AO2=
201010290924 SPECI KBFI 290924Z 13005KT 10SM BKN011 OVC070 10/08 A3002 RMK AO2=
201010290924 SPECI KBFI 290924Z 13005KT 10SM BKN011 OVC070 10/08 A3002 RMK AO2=
201010290853 METAR KBFI 290853Z 13006KT 10SM OVC065 11/08 A3002 RMK AO2 RAB0757E46 SLP165 P0001 60004 T01060083 50003=
201010290753 METAR KBFI 290753Z 12004KT 10SM FEW032 BKN050 OVC065 11/09 A3003 RMK AO2 RAE39 SLP168 P0002 T01060089 401560106=
201010290740 SPECI KBFI 290740Z 00000KT 10SM SCT024 BKN048 OVC065 11/09 A3003 RMK AO2 RAE39 P0002=
201010290740 SPECI KBFI 290740Z 00000KT 10SM SCT024 BKN048 OVC065 11/09 A3003 RMK AO2 RAE39 P0002=
201010290700 SPECI KBFI 290700Z 00000KT 7SM -RA BKN022 BKN039 OVC047 11/08 A3003 RMK AO2 P0000=
201010290700 SPECI KBFI 290700Z 00000KT 7SM -RA BKN022 BKN039 OVC047 11/08 A3003 RMK AO2 P0000=
201010290653 METAR KBFI 290653Z 00000KT 6SM -RA FEW022 BKN036 OVC043 11/08 A3003 RMK AO2 RAB38 SLP167 P0001 T01110083=
201010290553 METAR KBFI 290553Z 00000KT 10SM OVC045 12/08 A3001 RMK AO2 SLP162 T01170083 10122 20111 51004=
201010290453 METAR KBFI 290453Z 00000KT 10SM SCT033 OVC048 12/08 A3000 RMK AO2 SLP159 T01170078=
201010290353 METAR KBFI 290353Z 00000KT 10SM BKN050 OVC070 12/09 A3001 RMK AO2 SLP162 T01170089=
201010290253 METAR KBFI 290253Z 00000KT 10SM BKN047 OVC065 12/08 A3000 RMK AO2 SLP158 T01220083 52010=
201010290153 METAR KBFI 290153Z 00000KT 10SM OVC060 12/08 A2999 RMK AO2 SLP154 T01220083=
201010290053 METAR KBFI 290053Z 13004KT 10SM OVC070 12/08 A2998 RMK AO2 SLP153 T01220083=
201010282353 METAR KBFI 282353Z 13004KT 10SM SCT060 OVC080 12/09 A2997 RMK AO2 RAB2257E13 SLP148 P0000 60004 T01220089 10128 20122 58004=
201010282253 METAR KBFI 282253Z 13005KT 10SM BKN030 OVC060 12/09 A2998 RMK AO2 RAE52 SLP150 P0002 T01220089=
201010282153 METAR KBFI 282153Z 13006KT 10SM -RA BKN038 BKN055 OVC075 12/09 A2998 RMK AO2 RAB03 SLP153 P0001 T01220089=
201010282053 METAR KBFI 282053Z AUTO 14006KT 10SM FEW048 SCT055 12/08 A2998 RMK AO2 RAB1957E51 SLP153 P0000 60001 T01220083 50008 TSNO=
201010281953 METAR KBFI 281953Z 17004KT 10SM BKN046 OVC060 12/08 A2999 RMK AO2 RAB1857E49 SLP156 P0001 T01220083=
201010281853 METAR KBFI 281853Z 17004KT 10SM OVC050 13/08 A2998 RMK AO2 SLP150 T01280078=
201010281753 METAR KBFI 281753Z 16004KT 10SM OVC050 12/07 A2996 RMK AO2 RAE1656B12E34 SLP145 P0000 60004 T01220072 10133 20111 51018=
201010281653 METAR KBFI 281653Z 14003KT 10SM -RA OVC050 12/08 A2995 RMK AO2 SLP140 P0001 T01170078=
201010281553 METAR KBFI 281553Z 12005KT 10SM -RA BKN050 OVC060 12/07 A2994 RMK AO2 SLP138 P0001 T01220067=
201010281453 METAR KBFI 281453Z 00000KT 10SM -RA BKN046 BKN065 OVC080 12/08 A2991 RMK AO2 SLP127 P0001 60002 T01170078 53005=
201010281353 METAR KBFI 281353Z 00000KT 10SM -RA OVC060 12/07 A2990 RMK AO2 SLP125 P0000 T01170072=
201010281253 METAR KBFI 281253Z 00000KT 10SM -RA OVC050 13/06 A2990 RMK AO2 RAB1154 SLP124 P0001 T01280061=
201010281153 METAR KBFI 281153Z 00000KT 10SM OVC060 13/06 A2989 RMK AO2 SLP122 60000 T01280056 10156 20122 56000=
201010281053 METAR KBFI 281053Z 12008KT 10SM BKN065 OVC090 14/04 A2990 RMK AO2 RAB36E52 SLP124 P0000 T01390039=
201010280953 METAR KBFI 280953Z AUTO 14006KT 10SM OVC080 15/02 A2989 RMK AO2 SLP121 T01500017 TSNO=
201010280853 METAR KBFI 280853Z 11008G17KT 10SM SCT060 OVC100 16/02 A2990 RMK AO2 RAB34E53 SLP123 P0000 60000 T01560017 56016=
201010280753 METAR KBFI 280753Z 12003KT 10SM BKN100 14/03 A2990 RMK AO2 SLP125 T01440028 401720083=
201010280653 METAR KBFI 280653Z 12003KT 10SM SCT070 BKN090 OVC100 15/02 A2991 RMK AO2 SLP128 T01500022=
201010280553 METAR KBFI 280553Z 14004KT 10SM BKN095 14/02 A2994 RMK AO2 SLP139 T01440022 10161 20139 56006=
201010280453 METAR KBFI 280453Z 13010G16KT 10SM OVC120 14/02 A2995 RMK AO2 SLP141 T01440017=
201010280353 METAR KBFI 280353Z 11004KT 10SM FEW120 14/02 A2995 RMK AO2 SLP141 T01440017=
201010280253 METAR KBFI 280253Z 13007KT 10SM BKN220 14/02 A2996 RMK AO2 SLP145 T01440017 58004=
201010280153 METAR KBFI 280153Z 13010KT 10SM CLR 14/02 A2997 RMK AO2 SLP148 T01440017=
201010280053 METAR KBFI 280053Z 13007KT 10SM CLR 14/02 A2997 RMK AO2 SLP147 T01440022=
201010272353 METAR KBFI 272353Z 12010KT 10SM CLR 16/02 A2997 RMK AO2 SLP149 T01610022 10172 20128 56014=
201010272253 METAR KBFI 272253Z 09006KT 10SM BKN250 17/02 A2997 RMK AO2 SLP149 T01670022=
201010272153 METAR KBFI 272153Z 32005KT 10SM BKN250 14/07 A2999 RMK AO2 SLP154 T01440072=
201010272053 METAR KBFI 272053Z 33005KT 10SM SCT250 15/07 A3001 RMK AO2 SLP162 T01500067 56028=
201010271953 METAR KBFI 271953Z VRB05KT 10SM CLR 14/06 A3004 RMK AO2 SLP170 T01390061=
201010271853 METAR KBFI 271853Z VRB05KT 10SM CLR 13/06 A3006 RMK AO2 SLP177 T01330061=
201010271753 METAR KBFI 271753Z 03003KT 10SM FEW012 13/06 A3010 RMK AO2 SLP191 T01280056 10128 20083 58019=
201010271653 METAR KBFI 271653Z 00000KT 10SM FEW020 11/07 A3013 RMK AO2 SLP201 T01110067=
201010271553 METAR KBFI 271553Z 00000KT 10SM SCT026 10/07 A3015 RMK AO2 SLP208 T01000072=
201010271514 SPECI KBFI 271514Z 00000KT 10SM SCT027 09/06 A3015 RMK AO2=
201010271514 SPECI KBFI 271514Z 00000KT 10SM SCT027 09/06 A3015 RMK AO2=
201010271453 METAR KBFI 271453Z 00000KT 10SM OVC027 09/07 A3015 RMK AO2 SLP210 T00890067 50003=
201010271353 METAR KBFI 271353Z 14004KT 10SM SCT011 BKN016 09/07 A3016 RMK AO2 SLP211 T00940067=
201010271253 METAR KBFI 271253Z 16006KT 10SM BKN011 OVC031 10/07 A3016 RMK AO2 SLP211 T01000072=
201010271153 METAR KBFI 271153Z 16006KT 10SM BKN011 OVC031 10/08 A3014 RMK AO2 SLP207 60000 70017 T01000078 10100 20089 51007=
201010271053 METAR KBFI 271053Z 14007KT 10SM BKN009 OVC012 10/08 A3013 RMK AO2 RAB46E51 SLP204 P0000 T01000083=
201010270953 METAR KBFI 270953Z 14005KT 10SM BKN009 OVC012 10/08 A3013 RMK AO2 SLP203 T01000083=
201010270853 METAR KBFI 270853Z 00000KT 10SM BKN009 OVC013 10/08 A3012 RMK AO2 CIG 006V011 SLP199 T01000078 51014=
201010270753 METAR KBFI 270753Z 00000KT 10SM BKN013 BKN020 OVC031 09/08 A3011 RMK AO2 SLP195 T00940078 400940078=
201010270730 SPECI KBFI 270730Z 00000KT 10SM SCT008 BKN020 OVC031 09/08 A3010 RMK AO2=
201010270730 SPECI KBFI 270730Z 00000KT 10SM SCT008 BKN020 OVC031 09/08 A3010 RMK AO2=
201010270653 METAR KBFI 270653Z 14003KT 10SM OVC008 09/07 A3010 RMK AO2 CIG 007V012 SLP192 T00890072=
201010270622 SPECI KBFI 270622Z 13004KT 10SM OVC008 09/07 A3009 RMK AO2=
201010270622 SPECI KBFI 270622Z 13004KT 10SM OVC008 09/07 A3009 RMK AO2=
201010270553 METAR KBFI 270553Z 13003KT 10SM OVC010 09/07 A3008 RMK AO2 SLP186 60000 T00940072 10094 20083 53016=
201010270453 METAR KBFI 270453Z 14005KT 10SM OVC010 09/07 A3006 RMK AO2 SLP179 T00940072=
201010270353 METAR KBFI 270353Z 13003KT 10SM OVC012 09/07 A3005 RMK AO2 SLP175 T00890067=
201010270253 METAR KBFI 270253Z 13004KT 10SM OVC012 09/07 A3003 RMK AO2 SLP170 60000 T00890067 53017=
201010270153 METAR KBFI 270153Z 11006KT 10SM OVC014 09/06 A3001 RMK AO2 SLP163 T00890061=
201010270053 METAR KBFI 270053Z 10004KT 10SM OVC012 09/06 A3000 RMK AO2 RAB2356E50 SLP157 P0000 T00890061=
201010262353 METAR KBFI 262353Z 13006KT 10SM OVC010 09/06 A2998 RMK AO2 SLP153 60013 T00890056 10089 20078 53016=
201010262253 METAR KBFI 262253Z 13007KT 5SM BR OVC015 08/06 A2996 RMK AO2 RAE50 SLP145 P0002 T00830056=
201010262153 METAR KBFI 262153Z 13009KT 4SM -RA BR OVC016 08/06 A2994 RMK AO2 SLP137 P0001 T00780061=
201010262150 SPECI KBFI 262150Z 14010KT 4SM -RA BR OVC016 08/06 A2994 RMK AO2 P0001=
201010262150 SPECI KBFI 262150Z 14010KT 4SM -RA BR OVC016 08/06 A2994 RMK AO2 P0001=
201010262053 METAR KBFI 262053Z 14011KT 3SM -RA BR OVC012 08/06 A2992 RMK AO2 SLP130 P0000 60010 T00780061 53011=
201010261953 METAR KBFI 261953Z 14014KT 3SM -RA BR SCT009 BKN015 OVC024 08/06 A2990 RMK AO2 SLP123 P0003 T00780056=
201010261922 SPECI KBFI 261922Z 14014KT 3SM -RA SCT009 BKN015 OVC047 08/06 A2989 RMK AO2 P0002=
201010261922 SPECI KBFI 261922Z 14014KT 3SM -RA SCT009 BKN015 OVC047 08/06 A2989 RMK AO2 P0002=
201010261915 SPECI KBFI 261915Z 15012G19KT 2 1/2SM -RA SCT023 BKN032 OVC047 08/06 A2989 RMK AO2 P0002=
201010261915 SPECI KBFI 261915Z 15012G19KT 2 1/2SM -RA SCT023 BKN032 OVC047 08/06 A2989 RMK AO2 P0002=
201010261853 METAR KBFI 261853Z 16013KT 9SM -RA FEW020 BKN027 OVC033 09/06 A2989 RMK AO2 SLP120 P0007 T00890056=
201010261753 METAR KBFI 261753Z 16011KT 7SM -RA SCT029 BKN037 OVC048 08/05 A2988 RMK AO2 SLP119 P0004 60004 T00830050 10089 20083 51013=
201010261653 METAR KBFI 261653Z 17015G23KT 10SM -RA FEW035 SCT055 09/04 A2987 RMK AO2 SLP115 P0000 T00890044=
201010261553 METAR KBFI 261553Z 16016G22KT 10SM -RA SCT027 OVC035 09/04 A2986 RMK AO2 RAB17 SLP110 P0000 T00890044=
201010261453 METAR KBFI 261453Z 17016G23KT 10SM FEW037 SCT049 BKN075 09/04 A2984 RMK AO2 PK WND 17026/1436 RAB39E49 SLP105 P0000 60000 T00890039 51006=
201010261353 METAR KBFI 261353Z 16010KT 10SM SCT024 BKN034 BKN090 08/04 A2984 RMK AO2 SLP105 T00830039=
201010261253 METAR KBFI 261253Z 16013G20KT 10SM FEW022 BKN033 OVC041 08/04 A2984 RMK AO2 RAB20E30 SLP104 P0000 T00830044=
201010261153 METAR KBFI 261153Z 16016G20KT 10SM FEW044 BKN110 08/04 A2983 RMK AO2 PK WND 18026/1141 SLP099 60000 70030 T00830044 10089 20083 51006=
201010261126 SPECI KBFI 261126Z 17013G18KT 10SM SCT027 BKN036 BKN043 08/04 A2983 RMK AO2=
201010261126 SPECI KBFI 261126Z 17013G18KT 10SM SCT027 BKN036 BKN043 08/04 A2983 RMK AO2=
201010261053 METAR KBFI 261053Z 17011G20KT 10SM BKN027 BKN032 OVC120 08/04 A2983 RMK AO2 SLP099 T00830044=
201010261028 SPECI KBFI 261028Z 18012KT 10SM BKN025 OVC031 08/04 A2982 RMK AO2=
201010261028 SPECI KBFI 261028Z 18012KT 10SM BKN025 OVC031 08/04 A2982 RMK AO2=
201010260953 METAR KBFI 260953Z 17012G22KT 10SM FEW021 BKN030 OVC036 08/04 A2982 RMK AO2 RAE40 SLP096 P0000 T00830044=
201010260853 METAR KBFI 260853Z 16013G18KT 10SM -RA SCT029 SCT035 OVC050 08/04 A2981 RMK AO2 RAB33 SLP094 P0000 60000 T00830039 53003=
201010260753 METAR KBFI 260753Z 18015G21KT 10SM BKN070 BKN090 08/04 A2979 RMK AO2 SLP088 T00830039 401170083=
201010260653 METAR KBFI 260653Z 17011G17KT 10SM FEW028 BKN085 OVC110 09/04 A2980 RMK AO2 SLP091 T00890044=
201010260553 METAR KBFI 260553Z 17013G21KT 10SM FEW028 SCT065 OVC110 09/04 A2980 RMK AO2 RAB20E37 SLP091 P0000 60001 T00890044 10100 20083 51012=
201010260453 METAR KBFI 260453Z 16011G18KT 10SM SCT050 09/04 A2979 RMK AO2 RAE07 SLP087 P0000 T00890044=
201010260353 METAR KBFI 260353Z 17008KT 10SM -RA FEW045 BKN050 09/05 A2979 RMK AO2 RAB31 SLP087 P0000 T00890050=
201010260253 METAR KBFI 260253Z 16011G16KT 10SM SCT045 09/05 A2976 RMK AO2 SLP079 60001 T00890050 50002=
201010260153 METAR KBFI 260153Z 18012G19KT 10SM FEW037 BKN065 09/05 A2977 RMK AO2 RAB26E43 SLP081 P0000 T00940050=
201010260053 METAR KBFI 260053Z 15009G18KT 110V180 10SM SCT040 SCT048 OVC070 10/06 A2976 RMK AO2 PK WND 17026/2355 RAE25 SLP076 P0001 T01000056=
201010252353 METAR KBFI 252353Z 18011G19KT 8SM -RA FEW041 BKN060 OVC100 10/07 A2976 RMK AO2 RAB09 SLP077 P0005 60015 T01000067 10117 20094 53010=
201010252253 METAR KBFI 252253Z 20008G19KT 10SM SCT055 OVC110 11/06 A2974 RMK AO2 RAE07 SLP071 P0001 T01110056=
201010252153 METAR KBFI 252153Z 20010G16KT 4SM -RA FEW023 SCT035 BKN046 11/07 A2974 RMK AO2 RAE12B45 SLP070 P0002 T01110072=
201010252053 METAR KBFI 252053Z 21012G22KT 10SM -RA SCT033 BKN044 OVC055 11/07 A2973 RMK AO2 RAB1956 SLP066 P0002 60007 T01060067 51021=
201010251953 METAR KBFI 251953Z 17012G27KT 10SM FEW030 SCT047 BKN055 12/07 A2972 RMK AO2 PK WND 21027/1944 RAE40 SLP063 P0005 T01170072=
201010251917 SPECI KBFI 251917Z 17008KT 6SM RA BR BKN012 OVC025 11/08 A2971 RMK AO2 P0004=
201010251917 SPECI KBFI 251917Z 17008KT 6SM RA BR BKN012 OVC025 11/08 A2971 RMK AO2 P0004=
201010251853 METAR KBFI 251853Z 17014G23KT 10SM -RA SCT012 BKN026 BKN095 11/08 A2970 RMK AO2 PK WND 18030/1835 RAE12B50 SLP058 P0000 T01110078=
201010251753 METAR KBFI 251753Z 17019G29KT 10SM -RA BKN021 BKN031 OVC043 11/08 A2967 RMK AO2 PK WND 18029/1753 SLP045 P0001 60014 T01110083 10111 20094 51031=
201010251653 METAR KBFI 251653Z 18013G25KT 10SM -RA BKN020 BKN025 OVC035 11/08 A2964 RMK AO2 PK WND 19028/1601 SLP036 P0001 T01110083=
201010251553 METAR KBFI 251553Z 17017G25KT 10SM -RA SCT013 OVC021 11/08 A2960 RMK AO2 SLP024 P0000 T01060083=
201010251453 METAR KBFI 251453Z 17012G20KT 10SM -RA SCT023 BKN029 OVC070 10/08 A2957 RMK AO2 PK WND 16026/1434 SLP014 P0002 60012 T01000078 53016=
201010251353 METAR KBFI 251353Z 17019G26KT 7SM -RA SCT021 BKN027 OVC042 10/07 A2956 RMK AO2 PK WND 17030/1310 SLP010 P0003 T01000072=
201010251253 METAR KBFI 251253Z 17014G23KT 10SM -RA BKN049 OVC065 10/07 A2953 RMK AO2 SLP001 P0007 T01000067=
201010251153 METAR KBFI 251153Z AUTO 17015G22KT 8SM -RA FEW033 BKN046 OVC065 10/07 A2953 RMK AO2 SLP998 P0002 60011 70058 T01000067 10100 20089 58001 TSNO=
201010251053 METAR KBFI 251053Z AUTO 16012G21KT 10SM -RA FEW032 SCT043 OVC060 09/07 A2953 RMK AO2 SLP999 P0002 T00940067 TSNO=
201010250953 METAR KBFI 250953Z AUTO 15013G20KT 10SM -RA SCT035 BKN047 OVC065 09/07 A2953 RMK AO2 SLP000 P0001 T00940067 TSNO=
201010250853 METAR KBFI 250853Z AUTO 15011G20KT 10SM -RA SCT050 BKN075 OVC095 09/06 A2953 RMK AO2 SLP999 P0003 60006 T00940061 51018 TSNO=
201010250753 METAR KBFI 250753Z AUTO 16011KT 7SM -RA SCT039 BKN046 OVC070 09/06 A2952 RMK AO2 RAB18 SLP996 P0003 T00940061 401220094 TSNO=
201010250653 METAR KBFI 250653Z AUTO 17014G22KT 10SM FEW037 SCT060 10/06 A2950 RMK AO2 SLP988 T01000061 TSNO=
201010250553 METAR KBFI 250553Z 17014G21KT 10SM BKN040 BKN049 10/06 A2947 RMK AO2 SLP980 60007 T01000061 10106 20094 53017=
201010250453 METAR KBFI 250453Z 17015G22KT 10SM FEW023 SCT055 SCT090 10/07 A2946 RMK AO2 RAE01B30E44 SLP974 P0000 T01000067=
201010250353 METAR KBFI 250353Z 16012KT 10SM -RA SCT049 BKN095 BKN120 09/07 A2944 RMK AO2 RAB06E11B51 SLP968 P0000 T00940067=
201010250253 METAR KBFI 250253Z 16014G23KT 10SM FEW027 BKN040 OVC055 09/07 A2942 RMK AO2 RAE53 SLP963 P0002 60007 T00940067 53011=
201010250217 SPECI KBFI 250217Z 16011KT 10SM -RA SCT025 BKN037 OVC060 09/07 A2941 RMK AO2 P0001=
201010250217 SPECI KBFI 250217Z 16011KT 10SM -RA SCT025 BKN037 OVC060 09/07 A2941 RMK AO2 P0001=
201010250200 SPECI KBFI 250200Z 17013G21KT 10SM -RA SCT023 BKN028 OVC034 10/07 A2942 RMK AO2 P0000=
201010250200 SPECI KBFI 250200Z 17013G21KT 10SM -RA SCT023 BKN028 OVC034 10/07 A2942 RMK AO2 P0000=
201010250153 METAR KBFI 250153Z 17014KT 10SM -RA FEW022 SCT029 OVC055 10/07 A2941 RMK AO2 SLP960 P0002 T01000067=
201010250053 METAR KBFI 250053Z 15012G19KT 7SM -RA SCT039 OVC049 10/07 A2939 RMK AO2 SLP951 P0003 T01000072=
201010242353 METAR KBFI 242353Z 16009KT 4SM RA FEW017 SCT036 BKN047 11/07 A2939 RMK AO2 RAB04 SLP953 P0009 60029 T01060072 10122 20100 53015=
201010242253 METAR KBFI 242253Z 15013G22KT 10SM FEW041 SCT050 11/07 A2938 RMK AO2 SLP948 T01110067=
201010242153 METAR KBFI 242153Z 17013G19KT 10SM FEW060 BKN100 11/07 A2935 RMK AO2 RAB05E34 SLP937 P0003 T01060067=
201010242053 METAR KBFI 242053Z 19014G26KT 10SM FEW020 OVC050 12/06 A2935 RMK AO2 PK WND 17026/2045 RAB26E51 SLP937 P0001 60017 T01170061 53006=
201010241953 METAR KBFI 241953Z 15016G21KT 10SM CLR 12/07 A2933 RMK AO2 RAE1855 SLP933 P0000 T01170072=
201010241853 METAR KBFI 241853Z 17006KT 10SM -RA FEW018 BKN035 OVC047 11/08 A2933 RMK AO2 SLP933 P0016 T01110078=
201010241844 SPECI KBFI 241844Z 18005KT 3SM -RA SCT018 BKN034 OVC045 11/07 A2934 RMK AO2 P0016=
201010241844 SPECI KBFI 241844Z 18005KT 3SM -RA SCT018 BKN034 OVC045 11/07 A2934 RMK AO2 P0016=
201010241836 SPECI KBFI 241836Z 18006KT 3SM -RA SCT020 BKN029 OVC047 11/07 A2934 RMK AO2 P0016=
201010241836 SPECI KBFI 241836Z 18006KT 3SM -RA SCT020 BKN029 OVC047 11/07 A2934 RMK AO2 P0016=
201010241828 SPECI KBFI 241828Z 28006KT 1 3/4SM RA FEW013 BKN027 OVC045 11/08 A2933 RMK AO2 P0009=
201010241828 SPECI KBFI 241828Z 28006KT 1 3/4SM RA FEW013 BKN027 OVC045 11/08 A2933 RMK AO2 P0009=
201010241753 METAR KBFI 241753Z 14008KT 10SM -RA BKN045 OVC055 11/08 A2933 RMK AO2 RAE06B31 SLP931 P0000 60011 T01110078 10122 20094 50010=
201010241653 METAR KBFI 241653Z 14013KT 8SM -RA FEW036 BKN050 OVC070 11/08 A2933 RMK AO2 RAE23B52 SLP932 P0002 T01060078=
201010241553 METAR KBFI 241553Z 17015G21KT 9SM -RA OVC046 11/08 A2933 RMK AO2 RAB23 SLP931 P0004 T01110078=
201010241453 METAR KBFI 241453Z 15012KT 10SM FEW039 OVC110 10/08 A2930 RMK AO2 SLP922 60005 T01000078 50001=
201010241353 METAR KBFI 241353Z 14010KT 10SM FEW041 11/07 A2931 RMK AO2 RAE20 SLP924 P0002 T01060072=
201010241253 METAR KBFI 241253Z 19007G24KT 150V220 7SM RA SCT028 BKN044 OVC060 12/08 A2933 RMK AO2 PK WND 18026/1242 RAB31 SLP930 P0003 T01170078=
201010241153 METAR KBFI 241153Z 14006KT 10SM FEW035 BKN060 OVC070 12/09 A2930 RMK AO2 RAE43 SLP921 P0001 60032 70066 T01170089 10122 20111 56011=
201010241053 METAR KBFI 241053Z 12004KT 4SM RA BR FEW037 SCT043 OVC055 12/09 A2930 RMK AO2 SLP922 P0008 T01170094=
201010240953 METAR KBFI 240953Z 15004KT 8SM -RA BKN055 OVC090 12/09 A2930 RMK AO2 RAB40 SLP921 P0001 T01170094=
201010240853 METAR KBFI 240853Z 13004KT 10SM SCT065 BKN080 12/09 A2933 RMK AO2 RAE19 SLP932 P0001 60022 T01170094 58053=
201010240753 METAR KBFI 240753Z 11005KT 7SM -RA OVC060 12/10 A2938 RMK AO2 SLP947 P0010 T01170100 401560106=
201010240653 METAR KBFI 240653Z 00000KT 5SM RA BR SCT049 OVC060 12/10 A2944 RMK AO2 SLP970 P0011 T01170100=
201010240553 METAR KBFI 240553Z 00000KT 5SM -RA BR FEW044 OVC060 12/10 A2949 RMK AO2 PRESFR SLP985 P0011 60029 T01170100 10144 20117 58031=
201010240453 METAR KBFI 240453Z 12006KT 8SM -RA BKN049 OVC060 12/10 A2952 RMK AO2 SLP997 P0006 T01220100=
201010240353 METAR KBFI 240353Z 14007KT 8SM -RA BKN046 OVC060 12/10 A2955 RMK AO2 SLP007 P0004 T01220100=
201010240253 METAR KBFI 240253Z 13006KT 10SM -RA BKN044 OVC060 13/09 A2958 RMK AO2 SLP016 P0003 60008 T01330094 56015=
201010240153 METAR KBFI 240153Z 14006KT 8SM -RA BKN048 OVC060 13/11 A2959 RMK AO2 SLP019 P0002 T01280106=
201010240053 METAR KBFI 240053Z 13005KT 6SM -RA SCT049 OVC065 14/10 A2960 RMK AO2 RAB2354 SLP023 P0003 T01390100=
201010232353 METAR KBFI 232353Z 14007KT 10SM OVC050 14/10 A2962 RMK AO2 RAE43 SLP030 P0001 60002 T01390100 10156 20122 57018=
201010232253 METAR KBFI 232253Z 13006KT 9SM -RA OVC055 15/10 A2964 RMK AO2 RAB23 SLP037 P0001 T01500100=
201010232153 METAR KBFI 232153Z 16004KT 10SM OVC055 16/09 A2966 RMK AO2 RAB2055E51 SLP042 P0000 T01560094=
201010232053 METAR KBFI 232053Z 17003KT 10SM FEW040 BKN070 OVC085 16/09 A2967 RMK AO2 SLP048 60000 T01560094 58025=
201010231953 METAR KBFI 231953Z 00000KT 10SM SCT090 14/09 A2971 RMK AO2 RAB1855E33 SLP060 P0000 T01390089=
201010231853 METAR KBFI 231853Z 16004KT 9SM OVC050 12/08 A2974 RMK AO2 SLP070 T01220083=
201010231753 METAR KBFI 231753Z 12003KT 10SM BKN050 OVC060 12/09 A2975 RMK AO2 RAE21 SLP073 P0000 60003 T01220089 10122 20106 58008=
201010231653 METAR KBFI 231653Z 13004KT 10SM -RA OVC055 11/09 A2976 RMK AO2 RAE07B46 SLP078 P0000 T01110089=
201010231553 METAR KBFI 231553Z 00000KT 10SM -RA OVC060 11/08 A2977 RMK AO2 RAB1455 SLP081 P0003 T01110083=
201010231453 METAR KBFI 231453Z 14004KT 10SM BKN060 OVC080 11/08 A2977 RMK AO2 SLP081 T01060078 55000=
201010231353 METAR KBFI 231353Z 15003KT 10SM OVC085 11/07 A2977 RMK AO2 SLP081 T01110072=
201010231253 METAR KBFI 231253Z 17003KT 10SM OVC090 11/08 A2977 RMK AO2 SLP081 T01060078=
201010231153 METAR KBFI 231153Z 00000KT 10SM OVC090 11/08 A2977 RMK AO2 SLP081 T01110083 10122 20106 58010=
201010231053 METAR KBFI 231053Z 00000KT 10SM OVC095 11/08 A2978 RMK AO2 SLP085 T01110078=
201010230953 METAR KBFI 230953Z 00000KT 10SM BKN100 11/08 A2980 RMK AO2 SLP091 T01110078=
201010230853 METAR KBFI 230853Z 00000KT 10SM FEW045 BKN060 OVC110 11/08 A2980 RMK AO2 SLP092 T01060078 58013=
201010230753 METAR KBFI 230753Z 00000KT 10SM OVC120 12/08 A2982 RMK AO2 SLP096 T01170078 401560111=
201010230653 METAR KBFI 230653Z 00000KT 10SM CLR 12/08 A2984 RMK AO2 SLP103 T01220083=
201010230553 METAR KBFI 230553Z 00000KT 10SM FEW120 12/08 A2984 RMK AO2 SLP104 T01170078 10150 20111 55007=
201010230453 METAR KBFI 230453Z 00000KT 10SM FEW120 12/08 A2984 RMK AO2 SLP104 T01170083=
201010230353 METAR KBFI 230353Z VRB04KT 10SM BKN120 13/08 A2985 RMK AO2 SLP106 T01280078=
201010230253 METAR KBFI 230253Z 00000KT 10SM CLR 12/08 A2986 RMK AO2 SLP111 T01220078 55002=
201010230153 METAR KBFI 230153Z 00000KT 10SM CLR 14/07 A2986 RMK AO2 SLP111 T01440067=
201010230053 METAR KBFI 230053Z 00000KT 10SM CLR 14/06 A2985 RMK AO2 SLP109 T01440061=
201010222353 METAR KBFI 222353Z VRB05KT 10SM CLR 14/06 A2987 RMK AO2 SLP113 60000 T01440061 10156 20139 56018=
201010222253 METAR KBFI 222253Z 24004KT 10SM FEW070 16/07 A2988 RMK AO2 SLP118 T01560067=
201010222153 METAR KBFI 222153Z VRB03KT 10SM OVC065 14/07 A2990 RMK AO2 RAB29E44 SLP125 P0000 T01440072=
201010222053 METAR KBFI 222053Z 22006KT 10SM BKN060 BKN070 14/08 A2992 RMK AO2 RAB25E51 SLP130 P0000 60000 T01440078 58011=
201010221953 METAR KBFI 221953Z 20011G17KT 10SM SCT020 BKN070 16/08 A2993 RMK AO2 SLP136 T01560083=
201010221853 METAR KBFI 221853Z 21008G18KT 10SM SCT075 BKN095 15/08 A2994 RMK AO2 SLP139 T01500083=
201010221753 METAR KBFI 221753Z 19007KT 10SM FEW030 BKN085 14/08 A2995 RMK AO2 SLP142 T01390083 10144 20111 51009=
201010221653 METAR KBFI 221653Z 16006KT 10SM FEW050 SCT080 BKN140 13/09 A2995 RMK AO2 SLP141 T01280094=
201010221553 METAR KBFI 221553Z 15006KT 10SM SCT080 12/09 A2993 RMK AO2 SLP135 T01220094=
201010221500 SPECI KBFI 221500Z 16007KT 10SM BKN090 12/09 A2992 RMK AO2=
201010221500 SPECI KBFI 221500Z 16007KT 10SM BKN090 12/09 A2992 RMK AO2=
201010221453 METAR KBFI 221453Z 16007KT 10SM BKN020 12/09 A2992 RMK AO2 SLP132 T01220094 51008=
201010221353 METAR KBFI 221353Z 16008KT 10SM BKN020 12/09 A2992 RMK AO2 SLP131 T01170094=
201010221253 METAR KBFI 221253Z 15006KT 10SM CLR 12/10 A2991 RMK AO2 SLP127 T01170100=
201010221153 METAR KBFI 221153Z 14005KT 10SM SCT042 12/10 A2990 RMK AO2 RAE07 SLP124 P0001 60013 70014 T01170100 10133 20111 51008=
201010221053 METAR KBFI 221053Z 16007KT 10SM -RA BKN049 OVC065 13/11 A2989 RMK AO2 SLP122 P0011 T01280106=
201010221014 SPECI KBFI 221014Z 17007KT 3SM RA BR FEW014 OVC038 13/11 A2989 RMK AO2 P0006=
201010221014 SPECI KBFI 221014Z 17007KT 3SM RA BR FEW014 OVC038 13/11 A2989 RMK AO2 P0006=
201010220953 METAR KBFI 220953Z VRB03KT 7SM -RA SCT016 BKN022 OVC028 13/11 A2990 RMK AO2 RAB22 SLP123 P0000 T01280106=
201010220941 SPECI KBFI 220941Z 24004KT 10SM FEW015 BKN026 OVC033 13/11 A2989 RMK AO2 RAB22E34 P0000=
201010220941 SPECI KBFI 220941Z 24004KT 10SM FEW015 BKN026 OVC033 13/11 A2989 RMK AO2 RAB22E34 P0000=
201010220853 METAR KBFI 220853Z 12004KT 10SM OVC039 13/11 A2987 RMK AO2 SLP115 60001 T01280106 55001=
201010220753 METAR KBFI 220753Z 14007KT 10SM SCT042 OVC055 13/11 A2987 RMK AO2 RAE28 SLP114 P0001 T01280106 401610072=
201010220653 METAR KBFI 220653Z 13006KT 8SM -RA OVC050 13/11 A2988 RMK AO2 RAE25B47 SLP117 P0000 T01280106=
201010220553 METAR KBFI 220553Z 12004KT 10SM -RA BKN065 OVC095 13/10 A2988 RMK AO2 RAB28 SLP117 P0000 60001 T01330100 10150 20128 56005=
201010220453 METAR KBFI 220453Z 13003KT 10SM BKN065 OVC120 13/09 A2988 RMK AO2 SLP118 T01330094=
201010220353 METAR KBFI 220353Z 12003KT 10SM OVC065 13/09 A2988 RMK AO2 SLP119 T01330094=
201010220253 METAR KBFI 220253Z 15003KT 10SM FEW060 BKN070 OVC110 13/09 A2989 RMK AO2 SLP122 60001 T01330094 58004=
201010220153 METAR KBFI 220153Z 14006KT 10SM BKN060 OVC110 14/09 A2990 RMK AO2 RAE28 SLP123 P0000 T01390094=
201010220053 METAR KBFI 220053Z 13008KT 8SM -RA FEW031 BKN047 OVC100 14/10 A2990 RMK AO2 RAB13 SLP126 P0001 T01390100=
201010212353 METAR KBFI 212353Z 15008KT 10SM FEW042 OVC049 15/10 A2991 RMK AO2 SLP126 T01500100 10161 20106 53003=
201010212253 METAR KBFI 212253Z 17010KT 10SM FEW029 15/09 A2989 RMK AO2 SLP122 T01500094=
201010212153 METAR KBFI 212153Z 16009KT 10SM SCT050 BKN140 16/09 A2988 RMK AO2 SLP117 T01560094=
201010212053 METAR KBFI 212053Z 16008KT 140V210 10SM BR FEW014 SCT200 15/10 A2990 RMK AO2 SLP123 T01500100 58005=
201010211953 METAR KBFI 211953Z 14009KT 8SM BR FEW014 SCT200 14/10 A2990 RMK AO2 SLP126 T01390100=
201010211932 SPECI KBFI 211932Z 14009KT 7SM BR SCT014 13/10 A2991 RMK AO2=
201010211932 SPECI KBFI 211932Z 14009KT 7SM BR SCT014 13/10 A2991 RMK AO2=
201010211853 METAR KBFI 211853Z 14010KT 5SM BR OVC012 12/09 A2991 RMK AO2 SLP128 T01220094=
201010211850 SPECI KBFI 211850Z 14010KT 5SM BR OVC012 12/09 A2991 RMK AO2=
201010211850 SPECI KBFI 211850Z 14010KT 5SM BR OVC012 12/09 A2991 RMK AO2=
201010211753 METAR KBFI 211753Z 14011KT 5SM BR OVC007 11/09 A2991 RMK AO2 CIG 006V011 SLP126 T01060089 10106 20072 51014=
201010211653 METAR KBFI 211653Z 16006KT 5SM BR OVC004 10/09 A2990 RMK AO2 SLP125 T01000089=
201010211622 SPECI KBFI 211622Z 14006KT 4SM BR OVC004 10/09 A2989 RMK AO2=
201010211622 SPECI KBFI 211622Z 14006KT 4SM BR OVC004 10/09 A2989 RMK AO2=
201010211610 SPECI KBFI 211610Z 14004KT 2SM BR OVC002 09/08 A2989 RMK AO2=
201010211610 SPECI KBFI 211610Z 14004KT 2SM BR OVC002 09/08 A2989 RMK AO2=
201010211600 SPECI KBFI 211600Z 14004KT 1 1/4SM BR OVC002 09/08 A2989 RMK AO2=
201010211600 SPECI KBFI 211600Z 14004KT 1 1/4SM BR OVC002 09/08 A2989 RMK AO2=
201010211553 METAR KBFI 211553Z 14005KT 2SM BR OVC002 09/08 A2989 RMK AO2 SLP120 T00890078=
201010211453 METAR KBFI 211453Z 14004KT 2SM BR BKN002 08/06 A2986 RMK AO2 SLP112 T00780061 50003=
201010211353 METAR KBFI 211353Z 13003KT 10SM CLR 08/06 A2987 RMK AO2 SLP113 T00830061=
201010211253 METAR KBFI 211253Z 14005KT 8SM CLR 08/06 A2986 RMK AO2 SLP111 T00780061=
201010211153 METAR KBFI 211153Z 13005KT 6SM BR CLR 08/06 A2985 RMK AO2 SLP109 70001 T00780061 10111 20072 57005=
201010211053 METAR KBFI 211053Z 00000KT 6SM BR CLR 08/06 A2986 RMK AO2 SLP110 T00780061=
201010210953 METAR KBFI 210953Z 00000KT 7SM CLR 09/07 A2987 RMK AO2 SLP114 T00890067=
201010210853 METAR KBFI 210853Z 00000KT 7SM CLR 09/07 A2987 RMK AO2 SLP114 T00890067 58003=
201010210753 METAR KBFI 210753Z 14003KT 9SM CLR 09/07 A2988 RMK AO2 SLP116 T00940072 401830072=
201010210653 METAR KBFI 210653Z 00000KT 9SM CLR 10/07 A2988 RMK AO2 SLP119 T01000067=
201010210553 METAR KBFI 210553Z 00000KT 10SM CLR 12/08 A2988 RMK AO2 SLP117 T01170083 10183 20111 53004=
201010210453 METAR KBFI 210453Z 00000KT 10SM CLR 12/08 A2987 RMK AO2 SLP114 T01170083=
201010210353 METAR KBFI 210353Z 00000KT 10SM CLR 12/09 A2987 RMK AO2 SLP113 T01220089=
201010210253 METAR KBFI 210253Z 00000KT 10SM CLR 14/09 A2987 RMK AO2 SLP113 T01390089 53002=
201010210153 METAR KBFI 210153Z 00000KT 10SM CLR 16/09 A2986 RMK AO2 SLP110 T01560089=
201010210053 METAR KBFI 210053Z 31004KT 10SM CLR 17/08 A2985 RMK AO2 SLP109 T01720083=
201010202353 METAR KBFI 202353Z VRB03KT 10SM CLR 18/08 A2986 RMK AO2 SLP111 T01830083 10183 20133 56014=
201010202253 METAR KBFI 202253Z 32003KT 10SM CLR 18/09 A2987 RMK AO2 SLP113 T01780089=
201010202153 METAR KBFI 202153Z 30003KT 10SM CLR 17/09 A2988 RMK AO2 SLP118 T01720089=
201010202053 METAR KBFI 202053Z 27004KT 10SM CLR 16/09 A2990 RMK AO2 SLP126 T01610089 58014=
201010201953 METAR KBFI 201953Z 31004KT 10SM FEW250 16/09 A2992 RMK AO2 SLP133 T01560089=
201010201853 SPECI KBFI 201853Z VRB03KT 9SM CLR 14/09 A2993 RMK AO2 SLP136 T01440089=
201010201753 METAR KBFI 201753Z 29003KT 7SM FEW005 13/09 A2994 RMK AO2 SLP139 60001 T01330089 10133 20072 58001=
201010201653 METAR KBFI 201653Z 00000KT 5SM BR SCT001 SCT007 11/09 A2995 RMK AO2 SLP142 T01110089=
201010201600 SPECI KBFI 201600Z 00000KT 5SM BR BKN001 BKN003 08/07 A2995 RMK AO2=
201010201600 SPECI KBFI 201600Z 00000KT 5SM BR BKN001 BKN003 08/07 A2995 RMK AO2=
201010201553 METAR KBFI 201553Z 00000KT 2SM BR BKN001 BKN003 08/07 A2995 RMK AO2 SLP142 T00830072=
201010201531 SPECI KBFI 201531Z 00000KT 2SM BR BKN001 BKN003 08/06 A2995 RMK AO2=
201010201531 SPECI KBFI 201531Z 00000KT 2SM BR BKN001 BKN003 08/06 A2995 RMK AO2=
201010201524 SPECI KBFI 201524Z 00000KT 3SM BR FEW006 08/06 A2995 RMK AO2=
201010201524 SPECI KBFI 201524Z 00000KT 3SM BR FEW006 08/06 A2995 RMK AO2=
201010201516 SPECI KBFI 201516Z 00000KT 1 3/4SM BR BKN003 08/06 A2995 RMK AO2=
201010201516 SPECI KBFI 201516Z 00000KT 1 3/4SM BR BKN003 08/06 A2995 RMK AO2=
201010201504 SPECI KBFI 201504Z 16003KT 3SM BR BKN003 07/06 A2995 RMK AO2=
201010201504 SPECI KBFI 201504Z 16003KT 3SM BR BKN003 07/06 A2995 RMK AO2=
201010201453 METAR KBFI 201453Z 15003KT 5SM BR FEW003 08/06 A2995 RMK AO2 SLP140 P0001 60001 T00780056 58007=
201010201353 METAR KBFI 201353Z 00000KT 8SM FEW005 09/07 A2996 RMK AO2 SLP144 T00940067=
201010201253 METAR KBFI 201253Z 00000KT 10SM CLR 10/07 A2997 RMK AO2 SLP147 T01000072=
201010201153 METAR KBFI 201153Z 00000KT 10SM CLR 11/07 A2998 RMK AO2 SLP151 T01060072 10117 20100 56013=
201010201053 METAR KBFI 201053Z 00000KT 10SM CLR 11/07 A2999 RMK AO2 SLP154 T01060067=
201010200953 METAR KBFI 200953Z 35005KT 10SM CLR 12/07 A3001 RMK AO2 SLP160 T01170072=
201010200853 METAR KBFI 200853Z 00000KT 10SM CLR 11/08 A3002 RMK AO2 SLP164 T01110078 58005=
201010200753 METAR KBFI 200753Z 00000KT 10SM CLR 11/08 A3002 RMK AO2 SLP166 T01060078 401720061=
201010200653 METAR KBFI 200653Z 00000KT 10SM CLR 11/08 A3003 RMK AO2 SLP168 T01110078=
201010200553 METAR KBFI 200553Z 00000KT 10SM CLR 12/08 A3003 RMK AO2 SLP169 T01170078 10167 20117 56008=
201010200453 METAR KBFI 200453Z 00000KT 10SM CLR 12/08 A3004 RMK AO2 SLP170 T01220078=
201010200353 METAR KBFI 200353Z 00000KT 10SM CLR 13/08 A3004 RMK AO2 SLP173 T01280083=
201010200253 METAR KBFI 200253Z 00000KT 10SM CLR 14/08 A3005 RMK AO2 SLP177 T01390083 56011=
201010200153 METAR KBFI 200153Z 32003KT 10SM CLR 15/08 A3006 RMK AO2 SLP178 T01500078=
201010200053 METAR KBFI 200053Z 31004KT 10SM FEW250 16/08 A3007 RMK AO2 SLP181 T01610078=
201010192353 METAR KBFI 192353Z 32006KT 10SM FEW250 17/08 A3009 RMK AO2 SLP188 T01670078 10172 20117 56016=
201010192253 METAR KBFI 192253Z 29005KT 10SM FEW250 17/07 A3010 RMK AO2 SLP192 T01670072=
201010192153 METAR KBFI 192153Z 31004KT 10SM SCT250 17/06 A3011 RMK AO2 SLP197 T01670061=
201010192053 METAR KBFI 192053Z 31005KT 9SM CLR 16/08 A3013 RMK AO2 SLP204 T01560083 58026=
201010191953 METAR KBFI 191953Z 31005KT 10SM FEW250 15/08 A3017 RMK AO2 SLP214 T01500083=
201010191853 METAR KBFI 191853Z 30003KT 8SM FEW005 SCT200 13/08 A3019 RMK AO2 SLP223 T01330083=
201010191753 METAR KBFI 191753Z 00000KT 10SM FEW005 SCT250 12/08 A3021 RMK AO2 SLP229 T01170083 10122 20061 58005=
201010191653 METAR KBFI 191653Z 00000KT 7SM SCT004 10/08 A3022 RMK AO2 SLP234 T01000078=
201010191627 SPECI KBFI 191627Z 00000KT 7SM SCT004 10/08 A3022 RMK AO2=
201010191627 SPECI KBFI 191627Z 00000KT 7SM SCT004 10/08 A3022 RMK AO2=
201010191553 METAR KBFI 191553Z 00000KT 5SM BR BKN004 09/07 A3023 RMK AO2 SLP235 T00890072=
201010191453 METAR KBFI 191453Z 00000KT 4SM BR OVC004 08/06 A3023 RMK AO2 SLP234 T00830061 58003=
201010191353 METAR KBFI 191353Z 00000KT 3SM BR OVC004 08/06 A3024 RMK AO2 SLP238 T00830061=
201010191253 METAR KBFI 191253Z 00000KT 4SM BR OVC004 07/06 A3024 RMK AO2 SLP238 T00720056=
201010191217 SPECI KBFI 191217Z 00000KT 5SM HZ BKN004 07/04 A3024 RMK AO2=
201010191217 SPECI KBFI 191217Z 00000KT 5SM HZ BKN004 07/04 A3024 RMK AO2=
201010191214 SPECI KBFI 191214Z 00000KT 5SM HZ SCT004 07/04 A3024 RMK AO2=
201010191214 SPECI KBFI 191214Z 00000KT 5SM HZ SCT004 07/04 A3024 RMK AO2=
201010191153 METAR KBFI 191153Z 00000KT 8SM CLR 07/04 A3023 RMK AO2 SLP238 T00670044 10094 20061 58004=
201010191053 METAR KBFI 191053Z 00000KT 6SM BR CLR 06/04 A3024 RMK AO2 SLP239 T00610044=
201010190953 METAR KBFI 190953Z 13003KT 8SM CLR 07/05 A3025 RMK AO2 SLP242 T00720050=
201010190853 METAR KBFI 190853Z 15003KT 9SM CLR 07/05 A3025 RMK AO2 SLP242 T00670050 55001=
201010190753 METAR KBFI 190753Z 00000KT 10SM CLR 08/06 A3025 RMK AO2 SLP241 T00830061 401500050=
201010190653 METAR KBFI 190653Z 00000KT 7SM CLR 08/06 A3025 RMK AO2 SLP241 T00780056=
201010190553 METAR KBFI 190553Z 00000KT 10SM CLR 09/06 A3025 RMK AO2 SLP243 T00890056 10150 20089 57003=
201010190453 METAR KBFI 190453Z 00000KT 10SM CLR 09/07 A3025 RMK AO2 SLP244 T00940067=
201010190353 METAR KBFI 190353Z 00000KT 10SM SCT250 11/07 A3026 RMK AO2 SLP245 T01060072=
201010190253 METAR KBFI 190253Z 00000KT 10SM CLR 12/07 A3026 RMK AO2 SLP246 T01220072 53002=
201010190153 METAR KBFI 190153Z 00000KT 10SM CLR 13/06 A3026 RMK AO2 SLP245 T01280056=
201010190053 METAR KBFI 190053Z 31004KT 10SM FEW110 SCT250 14/05 A3025 RMK AO2 SLP244 T01440050=
201010182353 METAR KBFI 182353Z 30003KT 10SM BKN150 15/07 A3026 RMK AO2 SLP245 T01500067 10150 20094 58006=
201010182253 METAR KBFI 182253Z 28004KT 10SM BKN150 OVC250 15/06 A3026 RMK AO2 SLP247 T01500056=
201010182153 METAR KBFI 182153Z 32003KT 10SM BKN110 15/06 A3027 RMK AO2 SLP250 T01500056=
201010182053 METAR KBFI 182053Z VRB04KT 10SM FEW140 BKN250 14/07 A3027 RMK AO2 SLP251 T01440067 58010=
201010181953 METAR KBFI 181953Z 00000KT 10SM CLR 14/06 A3029 RMK AO2 SLP256 T01390056=
201010181853 METAR KBFI 181853Z 00000KT 10SM BKN200 12/06 A3030 RMK AO2 SLP260 T01220061=
201010181753 METAR KBFI 181753Z 00000KT 10SM CLR 09/05 A3031 RMK AO2 SLP262 T00940050 10100 20050 50007=
201010181653 METAR KBFI 181653Z 00000KT 10SM BKN200 08/04 A3031 RMK AO2 SLP262 T00780044=
201010181553 METAR KBFI 181553Z 14004KT 10SM FEW007 BKN180 OVC250 07/04 A3030 RMK AO2 SLP259 T00670044=
201010181515 SPECI KBFI 181515Z 00000KT 10SM FEW008 BKN180 06/04 A3029 RMK AO2=
201010181515 SPECI KBFI 181515Z 00000KT 10SM FEW008 BKN180 06/04 A3029 RMK AO2=
201010181453 METAR KBFI 181453Z 15004KT 10SM CLR 05/03 A3028 RMK AO2 SLP254 T00500028 51001=
201010181353 METAR KBFI 181353Z 16003KT 10SM BKN150 06/04 A3028 RMK AO2 SLP254 T00610039=
201010181253 METAR KBFI 181253Z 15004KT 10SM FEW110 06/04 A3029 RMK AO2 SLP256 T00610039=
201010181153 METAR KBFI 181153Z 14005KT 10SM CLR 06/04 A3028 RMK AO2 SLP254 T00610044 10094 20061 53007=
201010181053 METAR KBFI 181053Z 00000KT 10SM CLR 07/04 A3027 RMK AO2 SLP251 T00720044=
201010180953 METAR KBFI 180953Z 14005KT 10SM CLR 06/04 A3026 RMK AO2 SLP247 T00610039=
201010180853 METAR KBFI 180853Z AUTO 14005KT 10SM CLR 08/06 A3026 RMK AO2 SLP247 T00780056 50005 TSNO=
201010180753 METAR KBFI 180753Z 00000KT 10SM CLR 09/06 A3027 RMK AO2 SLP248 T00890061 401440039=
201010180653 METAR KBFI 180653Z 00000KT 10SM CLR 09/06 A3026 RMK AO2 SLP246 T00890061=
201010180553 METAR KBFI 180553Z 00000KT 10SM CLR 08/06 A3025 RMK AO2 SLP242 T00830056 10133 20083 53009=
201010180453 METAR KBFI 180453Z 00000KT 10SM CLR 09/06 A3024 RMK AO2 SLP238 T00890056=
201010180353 METAR KBFI 180353Z 00000KT 10SM CLR 09/05 A3022 RMK AO2 SLP232 T00940050=
201010180253 METAR KBFI 180253Z 00000KT 10SM CLR 11/06 A3022 RMK AO2 SLP233 T01060056 51006=
201010180153 METAR KBFI 180153Z 00000KT 10SM FEW200 11/06 A3021 RMK AO2 SLP231 T01110056=
201010180053 METAR KBFI 180053Z 31005KT 10SM CLR 12/05 A3021 RMK AO2 SLP230 T01220050=
201010172353 METAR KBFI 172353Z VRB05KT 10SM CLR 13/06 A3020 RMK AO2 SLP227 T01330056 10144 20089 55014=
201010172253 METAR KBFI 172253Z 31005KT 10SM CLR 14/04 A3020 RMK AO2 SLP226 T01390044=
201010172153 METAR KBFI 172153Z 30004KT 10SM CLR 13/06 A3022 RMK AO2 SLP234 T01330056=
201010172053 METAR KBFI 172053Z 32004KT 10SM FEW250 13/06 A3024 RMK AO2 SLP240 T01280056 58009=
201010171953 METAR KBFI 171953Z 27004KT 10SM CLR 12/06 A3026 RMK AO2 SLP246 T01170061=
201010171853 METAR KBFI 171853Z 31004KT 10SM CLR 11/06 A3027 RMK AO2 SLP249 T01060056=
201010171753 METAR KBFI 171753Z 00000KT 10SM SCT008 09/06 A3027 RMK AO2 SLP249 CEILING LOWER SE T00890061 10089 20044 50007=
201010171740 SPECI KBFI 171740Z 00000KT 10SM SCT008 08/06 A3027 RMK AO2 CEILING LOWER SE=
201010171740 SPECI KBFI 171740Z 00000KT 10SM SCT008 08/06 A3027 RMK AO2 CEILING LOWER SE=
201010171653 METAR KBFI 171653Z AUTO 11003KT 4SM BR OVC006 07/06 A3027 RMK AO2 SLP251 T00720056 TSNO=
201010171553 METAR KBFI 171553Z 00000KT 1SM BR OVC003 06/04 A3026 RMK AO2 SLP247 T00610044=
201010171453 METAR KBFI 171453Z 00000KT 1SM BR OVC003 06/04 A3025 RMK AO2 SLP242 T00610044 51005=
201010171355 SPECI KBFI 171355Z 00000KT 1SM BR OVC003 06/04 A3024 RMK AO2=
201010171355 SPECI KBFI 171355Z 00000KT 1SM BR OVC003 06/04 A3024 RMK AO2=
201010171353 METAR KBFI 171353Z 08003KT 1SM BR OVC005 06/04 A3024 RMK AO2 SLP241 T00610044=
201010171253 METAR KBFI 171253Z 00000KT 10SM OVC005 06/03 A3024 RMK AO2 SLP240 T00560033=
201010171153 METAR KBFI 171153Z 00000KT 10SM OVC005 06/04 A3023 RMK AO2 SLP237 T00560039 10089 20039 51004=
201010171112 SPECI KBFI 171112Z 14004KT 9SM BKN007 04/03 A3024 RMK AO2=
201010171112 SPECI KBFI 171112Z 14004KT 9SM BKN007 04/03 A3024 RMK AO2=
201010171103 SPECI KBFI 171103Z 14005KT 10SM SCT009 05/03 A3024 RMK AO2=
201010171103 SPECI KBFI 171103Z 14005KT 10SM SCT009 05/03 A3024 RMK AO2=
201010171053 METAR KBFI 171053Z 12005KT 10SM CLR 04/03 A3023 RMK AO2 SLP237 T00440028=
201010170953 METAR KBFI 170953Z 00000KT 10SM CLR 06/04 A3023 RMK AO2 SLP237 T00560039=
201010170853 METAR KBFI 170853Z 00000KT 9SM CLR 07/04 A3022 RMK AO2 SLP233 T00670044 51004=
201010170753 METAR KBFI 170753Z 00000KT 9SM CLR 07/05 A3022 RMK AO2 SLP232 T00720050 401390067=
201010170653 METAR KBFI 170653Z 00000KT 10SM CLR 08/05 A3022 RMK AO2 SLP233 T00780050=
201010170553 METAR KBFI 170553Z 00000KT 10SM CLR 08/05 A3021 RMK AO2 SLP229 T00830050 10133 20078 53007=
201010170453 METAR KBFI 170453Z 00000KT 10SM CLR 09/06 A3020 RMK AO2 SLP227 T00890056=
201010170353 METAR KBFI 170353Z 00000KT 10SM CLR 10/06 A3019 RMK AO2 SLP223 T01000056=
201010170253 METAR KBFI 170253Z 00000KT 10SM CLR 10/06 A3019 RMK AO2 SLP221 T01000061 53005=
201010170153 METAR KBFI 170153Z 00000KT 10SM CLR 12/06 A3018 RMK AO2 SLP218 T01170061=
201010170053 METAR KBFI 170053Z 30004KT 10SM CLR 12/06 A3017 RMK AO2 SLP217 T01220061=
201010162353 METAR KBFI 162353Z 30006KT 10SM CLR 13/05 A3017 RMK AO2 SLP217 T01330050 10139 20106 56003=
201010162253 METAR KBFI 162253Z 28008KT 10SM CLR 13/06 A3018 RMK AO2 SLP219 T01330056=
201010162153 METAR KBFI 162153Z 30006KT 10SM FEW010 13/06 A3018 RMK AO2 SLP218 T01330061=
201010162053 METAR KBFI 162053Z 31005KT 10SM CLR 13/06 A3018 RMK AO2 SLP220 T01280056 58010=
201010161953 METAR KBFI 161953Z 00000KT 10SM CLR 13/06 A3020 RMK AO2 SLP225 T01280056=
201010161853 METAR KBFI 161853Z VRB03KT 10SM CLR 12/05 A3021 RMK AO2 SLP228 T01170050=
201010161753 METAR KBFI 161753Z VRB03KT 10SM FEW020 11/05 A3021 RMK AO2 SLP230 T01060050 10106 20072 51006=
201010161653 METAR KBFI 161653Z 02003KT 10SM SCT020 09/06 A3021 RMK AO2 SLP230 T00940056=
201010161553 METAR KBFI 161553Z 07003KT 10SM SCT019 08/05 A3021 RMK AO2 SLP229 T00830050=
201010161453 METAR KBFI 161453Z 08004KT 10SM OVC017 08/05 A3020 RMK AO2 SLP225 T00830050 50002=
201010161425 SPECI KBFI 161425Z 07003KT 10SM OVC015 08/05 A3020 RMK AO2=
201010161425 SPECI KBFI 161425Z 07003KT 10SM OVC015 08/05 A3020 RMK AO2=
201010161353 METAR KBFI 161353Z 00000KT 10SM BKN013 09/06 A3020 RMK AO2 SLP225 T00890056=
201010161253 METAR KBFI 161253Z 02003KT 10SM BKN013 08/05 A3019 RMK AO2 SLP223 T00830050=
201010161153 METAR KBFI 161153Z AUTO 00000KT 10SM CLR 07/04 A3019 RMK AO2 SLP223 T00720039 10100 20067 56010 TSNO=
201010161053 METAR KBFI 161053Z AUTO 00000KT 10SM CLR 07/03 A3020 RMK AO2 SLP226 T00670033 TSNO=
201010160953 METAR KBFI 160953Z 00000KT 10SM CLR 08/04 A3021 RMK AO2 SLP230 T00830039=
201010160853 METAR KBFI 160853Z 00000KT 10SM CLR 09/03 A3022 RMK AO2 SLP233 T00890033 55010=
201010160753 METAR KBFI 160753Z VRB03KT 10SM CLR 09/03 A3022 RMK AO2 SLP232 T00890028 401500078=
201010160653 METAR KBFI 160653Z 34005KT 10SM CLR 09/03 A3023 RMK AO2 SLP237 T00940028=
201010160553 METAR KBFI 160553Z VRB04KT 10SM CLR 10/03 A3025 RMK AO2 SLP243 T01000028 10139 20100 56011=
201010160453 METAR KBFI 160453Z 35003KT 10SM CLR 10/03 A3026 RMK AO2 SLP247 T01000028=
201010160353 METAR KBFI 160353Z 02003KT 10SM CLR 11/04 A3027 RMK AO2 SLP249 T01060039=
201010160253 METAR KBFI 160253Z 35003KT 10SM CLR 11/04 A3028 RMK AO2 SLP254 T01110044 56009=
201010160153 METAR KBFI 160153Z VRB04KT 10SM CLR 12/04 A3029 RMK AO2 SLP258 T01220039=
201010160053 METAR KBFI 160053Z AUTO 34004KT 10SM CLR 13/01 A3030 RMK AO2 SLP258 T01330011=
201010152353 METAR KBFI 152353Z 31006KT 10SM FEW050 SCT250 13/02 A3031 RMK AO2 SLP264 T01330022 10150 20122 58018=
201010152253 METAR KBFI 152253Z COR 30007KT 10SM FEW050 SCT250 14/02 A3033 RMK AO2 SLP270 T01390017=
201010152153 METAR KBFI 152153Z 35006KT 10SM CLR 14/01 A3035 RMK AO2 SLP275 T01390011=
201010152053 METAR KBFI 152053Z 36005KT 10SM SCT047 14/02 A3036 RMK AO2 SLP281 T01390022 58003=
201010151953 METAR KBFI 151953Z 00000KT 10SM BKN037 BKN047 13/04 A3038 RMK AO2 SLP287 T01280044=
201010151853 METAR KBFI 151853Z VRB03KT 10SM BKN035 13/05 A3038 RMK AO2 SLP286 T01280050=
201010151753 METAR KBFI 151753Z 06005KT 10SM BKN041 BKN050 12/06 A3037 RMK AO2 SLP284 T01220061 10122 20078 51014=
201010151653 METAR KBFI 151653Z 06005KT 10SM FEW020 SCT035 12/05 A3037 RMK AO2 SLP282 T01170050=
201010151553 METAR KBFI 151553Z 00000KT 10SM CLR 10/08 A3035 RMK AO2 SLP277 T01000078=
201010151453 METAR KBFI 151453Z AUTO 00000KT 10SM FEW030 08/06 A3033 RMK AO2 SLP271 T00830061 53014 TSNO=
201010151353 METAR KBFI 151353Z 00000KT 10SM FEW034 09/06 A3032 RMK AO2 SLP266 T00890061=
201010151253 METAR KBFI 151253Z 00000KT 10SM SCT046 BKN070 10/07 A3030 RMK AO2 SLP261 T01000067=
201010151153 METAR KBFI 151153Z VRB05KT 10SM OVC046 09/07 A3029 RMK AO2 SLP257 60000 70013 T00940067 10117 20094 51014=
201010151053 METAR KBFI 151053Z 12004KT 10SM FEW017 SCT028 OVC034 11/07 A3028 RMK AO2 SLP253 T01060072=
201010150953 METAR KBFI 150953Z 11003KT 10SM OVC019 11/08 A3028 RMK AO2 RAE0858 SLP252 P0000 T01110078=
201010150937 SPECI KBFI 150937Z 11004KT 10SM BKN021 BKN030 OVC050 11/08 A3027 RMK AO2 RAE0858 P0000=
201010150937 SPECI KBFI 150937Z 11004KT 10SM BKN021 BKN030 OVC050 11/08 A3027 RMK AO2 RAE0858 P0000=
201010150853 METAR KBFI 150853Z 13005KT 10SM -RA SCT060 BKN070 OVC090 11/08 A3025 RMK AO2 RAB33 SLP243 P0000 60000 T01060078 51013=
201010150753 METAR KBFI 150753Z 12006KT 10SM FEW015 OVC042 11/08 A3024 RMK AO2 SLP239 T01110083 401610089=
201010150653 METAR KBFI 150653Z 12003KT 10SM FEW015 BKN038 12/09 A3022 RMK AO2 SLP234 T01170089=
201010150553 METAR KBFI 150553Z 12007KT 10SM BKN036 BKN070 11/08 A3021 RMK AO2 SLP230 60005 T01110083 10122 20106 53011=
201010150453 METAR KBFI 150453Z 00000KT 10SM OVC047 11/09 A3020 RMK AO2 SLP227 T01110089=
201010150353 METAR KBFI 150353Z 13004KT 10SM BKN031 OVC047 11/09 A3018 RMK AO2 RAE0258B27E38 SLP220 P0000 T01110089=
201010150253 METAR KBFI 150253Z 14004KT 4SM -RA BR FEW010 SCT024 OVC028 11/09 A3018 RMK AO2 RAB34 SLP219 P0001 60005 T01060089 51010=
201010150153 METAR KBFI 150153Z VRB03KT 5SM BR OVC020 11/09 A3015 RMK AO2 RAE09 SLP210 P0000 T01110089=
201010150053 METAR KBFI 150053Z VRB03KT 3SM -RA BR SCT008 OVC016 11/09 A3015 RMK AO2 SLP208 P0004 T01110089=
201010150025 SPECI KBFI 150025Z 35005KT 3SM -RA BR SCT008 OVC016 11/09 A3014 RMK AO2 P0003=
201010150025 SPECI KBFI 150025Z 35005KT 3SM -RA BR SCT008 OVC016 11/09 A3014 RMK AO2 P0003=
201010142353 METAR KBFI 142353Z VRB03KT 2 1/2SM -RA BR SCT008 OVC016 12/10 A3013 RMK AO2 SLP202 P0004 60008 T01220100 10161 20122 53005=
201010142346 SPECI KBFI 142346Z VRB03KT 2 1/2SM -RA BR SCT008 OVC016 12/10 A3013 RMK AO2 P0003=
201010142346 SPECI KBFI 142346Z VRB03KT 2 1/2SM -RA BR SCT008 OVC016 12/10 A3013 RMK AO2 P0003=
201010142336 SPECI KBFI 142336Z 00000KT 3SM -RA BKN016 OVC023 13/10 A3013 RMK AO2 P0002=
201010142336 SPECI KBFI 142336Z 00000KT 3SM -RA BKN016 OVC023 13/10 A3013 RMK AO2 P0002=
201010142253 METAR KBFI 142253Z 33004KT 5SM -RA SCT023 OVC055 13/10 A3012 RMK AO2 RAB2159 SLP200 P0004 T01330100=
201010142153 METAR KBFI 142153Z 26003KT 10SM BKN023 OVC085 14/07 A3011 RMK AO2 SLP197 T01440072=
201010142053 METAR KBFI 142053Z AUTO 26007KT 10SM BKN090 16/08 A3011 RMK AO2 SLP197 T01560083 56005 TSNO=
201010141953 METAR KBFI 141953Z 26004KT 10SM SCT095 15/09 A3012 RMK AO2 SLP200 T01500094=
201010141853 METAR KBFI 141853Z 00000KT 10SM SCT100 16/09 A3012 RMK AO2 SLP199 T01560089=
201010141753 METAR KBFI 141753Z 00000KT 10SM CLR 15/08 A3013 RMK AO2 SLP202 T01500083 10150 20089 51012=
201010141653 METAR KBFI 141653Z 12004KT 10SM CLR 13/08 A3012 RMK AO2 SLP200 T01330083=
201010141553 METAR KBFI 141553Z 14005KT 10SM CLR 11/07 A3011 RMK AO2 SLP197 T01060072=
201010141453 METAR KBFI 141453Z 13007KT 10SM CLR 09/07 A3009 RMK AO2 SLP190 T00940067 50001=
201010141353 METAR KBFI 141353Z 14006KT 10SM CLR 09/07 A3010 RMK AO2 SLP191 T00890067=
201010141253 METAR KBFI 141253Z 13004KT 10SM CLR 09/07 A3009 RMK AO2 SLP190 T00940072=
201010141153 METAR KBFI 141153Z 13005KT 10SM CLR 10/07 A3009 RMK AO2 SLP189 T01000072 10133 20094 52001=
201010141053 METAR KBFI 141053Z 14006KT 10SM CLR 09/07 A3009 RMK AO2 SLP189 T00940072=
201010140953 METAR KBFI 140953Z 14005KT 10SM CLR 11/08 A3009 RMK AO2 SLP189 T01110078=
201010140853 METAR KBFI 140853Z 14008KT 10SM CLR 12/08 A3009 RMK AO2 SLP188 T01170083 51006=
201010140753 METAR KBFI 140753Z 14007KT 10SM CLR 11/08 A3008 RMK AO2 SLP186 T01110083 402000078=
201010140653 METAR KBFI 140653Z 14005KT 10SM CLR 12/09 A3008 RMK AO2 SLP185 T01220089=
201010140553 METAR KBFI 140553Z 15005KT 10SM CLR 12/08 A3007 RMK AO2 SLP182 T01220083 10194 20117 53004=
201010140453 METAR KBFI 140453Z 14006KT 10SM CLR 13/09 A3007 RMK AO2 SLP181 T01280089=
201010140353 METAR KBFI 140353Z 14006KT 10SM CLR 13/08 A3006 RMK AO2 SLP178 T01330083=
201010140253 METAR KBFI 140253Z 00000KT 10SM CLR 14/08 A3006 RMK AO2 SLP179 T01440083 53005=
201010140153 METAR KBFI 140153Z 12005KT 10SM CLR 16/08 A3005 RMK AO2 SLP175 T01610083=
201010140053 METAR KBFI 140053Z 17005KT 10SM CLR 17/08 A3004 RMK AO2 SLP173 T01720083=
201010132353 METAR KBFI 132353Z 19005KT 10SM CLR 19/08 A3005 RMK AO2 SLP174 T01890078 10200 20133 55006=
201010132253 METAR KBFI 132253Z 00000KT 10SM CLR 20/08 A3004 RMK AO2 SLP172 T02000078=
201010132153 METAR KBFI 132153Z 00000KT 10SM CLR 19/07 A3005 RMK AO2 SLP175 T01890072=
201010132053 METAR KBFI 132053Z 00000KT 10SM CLR 17/08 A3006 RMK AO2 SLP179 T01720078 58023=
201010131953 METAR KBFI 131953Z VRB04KT 10SM CLR 16/08 A3009 RMK AO2 SLP189 T01560083=
201010131853 METAR KBFI 131853Z VRB03KT 10SM FEW200 14/09 A3011 RMK AO2 SLP196 T01440094=
201010131753 METAR KBFI 131753Z 30003KT 10SM CLR 13/09 A3013 RMK AO2 SLP202 T01330089 10133 20078 58008=
201010131653 METAR KBFI 131653Z 00000KT 10SM SCT250 12/09 A3014 RMK AO2 SLP207 FOG BANK SE T01170094=
201010131635 SPECI KBFI 131635Z 29003KT 6SM BR SCT004 11/09 A3015 RMK AO2 FOG BANK SE=
201010131635 SPECI KBFI 131635Z 29003KT 6SM BR SCT004 11/09 A3015 RMK AO2 FOG BANK SE=
201010131553 METAR KBFI 131553Z 30004KT 4SM BR BKN004 BKN200 10/08 A3014 RMK AO2 SLP207 T01000083=
201010131545 SPECI KBFI 131545Z 30003KT 4SM BR BKN006 BKN200 09/08 A3014 RMK AO2 CIG 003V007=
201010131545 SPECI KBFI 131545Z 30003KT 4SM BR BKN006 BKN200 09/08 A3014 RMK AO2 CIG 003V007=
201010131533 SPECI KBFI 131533Z 30003KT 9SM SCT006 BKN200 10/08 A3014 RMK AO2=
201010131533 SPECI KBFI 131533Z 30003KT 9SM SCT006 BKN200 10/08 A3014 RMK AO2=
201010131453 METAR KBFI 131453Z 00000KT 6SM BR BKN008 09/08 A3015 RMK AO2 SLP210 T00940078 57013=
201010131353 METAR KBFI 131353Z 00000KT 2SM BR OVC004 09/08 A3016 RMK AO2 SLP213 T00940078=
201010131253 METAR KBFI 131253Z 00000KT 3SM BR BKN006 08/07 A3018 RMK AO2 SLP220 T00780067 $=
201010131224 SPECI KBFI 131224Z 00000KT 3SM BR BKN006 08/07 A3018 RMK AO2 $=
201010131224 SPECI KBFI 131224Z 00000KT 3SM BR BKN006 08/07 A3018 RMK AO2 $=
201010131153 METAR KBFI 131153Z 00000KT 10SM SCT006 09/07 A3019 RMK AO2 SLP223 60001 7//// T00890067 10117 20078 58014 $=
201010131053 METAR KBFI 131053Z 00000KT 10SM SCT007 09/07 A3020 RMK AO2 SLP227 T00890067 $=
201010130953 METAR KBFI 130953Z 00000KT 10SM SCT007 09/07 A3022 RMK AO2 SLP233 P0001 T00940072 $=
201010130853 METAR KBFI 130853Z 00000KT 10SM CLR 10/07 A3023 RMK AO2 SLP237 T01000072 58013 $=
201010130753 METAR KBFI 130753Z 00000KT 10SM CLR 10/07 A3025 RMK AO2 SLP243 T01000072 401720072 $=
201010130653 METAR KBFI 130653Z 00000KT 10SM CLR 11/08 A3026 RMK AO2 SLP247 T01060083 $=
201010130553 METAR KBFI 130553Z 00000KT 10SM CLR 12/08 A3027 RMK AO2 SLP249 T01170083 10167 20117 56006 $=
201010130453 METAR KBFI 130453Z 00000KT 10SM CLR 12/08 A3027 RMK AO2 SLP251 T01220078 $=
201010130353 METAR KBFI 130353Z 00000KT 10SM CLR 13/08 A3028 RMK AO2 SLP254 T01280078 $=
201010130253 METAR KBFI 130253Z 00000KT 10SM CLR 13/07 A3029 RMK AO2 SLP256 T01330072 55002 $=
201010130153 METAR KBFI 130153Z 00000KT 10SM BKN250 16/07 A3029 RMK AO2 SLP256 T01560067 $=
201010130053 METAR KBFI 130053Z 32004KT 10SM BKN250 16/06 A3029 RMK AO2 SLP256 T01610061 $=
201010122353 METAR KBFI 122353Z 31004KT 10SM SCT250 17/06 A3030 RMK AO2 SLP258 6//// T01670061 10172 20133 $=
201010122253 METAR KBFI 122253Z 31004KT 10SM BKN200 17/07 A3031 RMK AO2 SLP263 T01720067 $=
201010122153 METAR KBFI 122153Z 32004KT 10SM CLR 17/07 A3032 RMK AO2 SLP265 T01720072 $=
201010122053 METAR KBFI 122053Z 30006KT 10SM 17/08 A3034 RMK AO2 SLP275 6//// T01670078 $=
201010121953 METAR KBFI 121953Z 34005KT 10SM BKN250 16/09 A3036 RMK AO2 SLP279 T01610089=
201010121853 METAR KBFI 121853Z VRB03KT 10SM BKN180 14/08 A3037 RMK AO2 SLP284 T01440078=
201010121753 METAR KBFI 121753Z 00000KT 10SM CLR 13/08 A3037 RMK AO2 SLP283 T01330078 10133 20072 53001=
201010121653 METAR KBFI 121653Z 00000KT 10SM BKN200 12/07 A3036 RMK AO2 SLP281 T01170072=
201010121553 METAR KBFI 121553Z 15004KT 10SM BKN200 09/07 A3036 RMK AO2 SLP280 T00940072=
201010121453 METAR KBFI 121453Z 00000KT 10SM BKN200 08/06 A3037 RMK AO2 SLP282 T00780056 58004=
201010121353 METAR KBFI 121353Z 00000KT 10SM CLR 09/06 A3037 RMK AO2 SLP284 T00890061=
201010121253 METAR KBFI 121253Z 00000KT 10SM CLR 09/06 A3037 RMK AO2 SLP285 T00890061=
201010121153 METAR KBFI 121153Z 00000KT 10SM CLR 09/06 A3038 RMK AO2 SLP286 T00890061 10117 20083 58013=
201010121053 METAR KBFI 121053Z 00000KT 10SM CLR 09/06 A3039 RMK AO2 SLP290 T00940061=
201010120953 METAR KBFI 120953Z 00000KT 10SM CLR 10/06 A3041 RMK AO2 SLP296 T01000061=
201010120853 METAR KBFI 120853Z 00000KT 10SM CLR 11/07 A3042 RMK AO2 SLP299 T01060067 58005=
201010120753 METAR KBFI 120753Z 13006KT 10SM CLR 11/07 A3043 RMK AO2 SLP302 T01060067 401610083=
201010120653 METAR KBFI 120653Z 13006KT 10SM CLR 12/07 A3043 RMK AO2 SLP305 T01170067=
201010120553 METAR KBFI 120553Z 14009KT 10SM FEW050 12/07 A3043 RMK AO2 SLP304 T01170072 10161 20111 50002=
201010120453 METAR KBFI 120453Z 14006KT 10SM CLR 12/08 A3044 RMK AO2 SLP306 T01170078=
201010120353 METAR KBFI 120353Z 16004KT 10SM SCT200 12/08 A3043 RMK AO2 SLP303 T01220078=
201010120253 METAR KBFI 120253Z 16006KT 10SM CLR 13/08 A3043 RMK AO2 SLP302 T01280078 53001=
201010120153 METAR KBFI 120153Z 20004KT 10SM SCT050 BKN200 14/07 A3043 RMK AO2 SLP304 T01390072=
201010120053 METAR KBFI 120053Z 19007KT 10SM SCT040 SCT200 16/07 A3042 RMK AO2 SLP299 T01560067=
201010112353 METAR KBFI 112353Z 20006KT 10SM FEW040 16/06 A3042 RMK AO2 SLP302 T01610061 10161 20111 56009=
201010112253 METAR KBFI 112253Z 20007KT 10SM FEW040 16/06 A3043 RMK AO2 SLP304 T01610061=
201010112153 METAR KBFI 112153Z 16008KT 10SM FEW034 SCT110 16/07 A3044 RMK AO2 SLP306 T01610072=
201010112053 METAR KBFI 112053Z 20007KT 10SM SCT024 15/07 A3045 RMK AO2 SLP310 T01500072 56008=
201010111953 METAR KBFI 111953Z VRB04KT 10SM SCT024 14/08 A3046 RMK AO2 SLP314 T01440083=
201010111949 SPECI KBFI 111949Z 20006KT 10SM SCT024 14/08 A3046 RMK AO2=
201010111949 SPECI KBFI 111949Z 20006KT 10SM SCT024 14/08 A3046 RMK AO2=
201010111853 METAR KBFI 111853Z 18006KT 10SM BKN017 13/08 A3047 RMK AO2 SLP318 T01280078=
201010111753 METAR KBFI 111753Z 16008KT 10SM OVC013 11/07 A3047 RMK AO2 SLP316 T01110072 10117 20083 51013=
201010111653 METAR KBFI 111653Z 17006KT 10SM BKN013 12/08 A3046 RMK AO2 SLP315 T01170078=
201010111553 METAR KBFI 111553Z COR 14005KT 10SM CS1/08 A3044 RMK AO2 SLP307 T01060078=
201010111453 METAR KBFI 111453Z COR 14004KT 10SM SCT060 08/07 A3043 RMK AO2 SLP303 T00830067 53014=
201010111353 METAR KBFI 111353Z 13005KT 10SM BKN060 10/07 A3041 RMK AO2 SLP298 T01000072=
201010111253 METAR KBFI 111253Z 13005KT 10SM OVC060 11/08 A3040 RMK AO2 SLP294 T01060078=
201010111153 METAR KBFI 111153Z 13004KT 10SM FEW050 OVC080 11/08 A3039 RMK AO2 SLP289 70054 T01060078 10122 20100 51012=
201010111053 METAR KBFI 111053Z 14004KT 10SM OVC070 11/08 A3038 RMK AO2 SLP287 T01060078=
201010110953 METAR KBFI 110953Z 00000KT 10SM OVC048 11/08 A3037 RMK AO2 SLP282 T01110078=
201010110853 METAR KBFI 110853Z 12003KT 10SM OVC044 11/08 A3035 RMK AO2 SLP278 T01110078 51013=
201010110753 METAR KBFI 110753Z 17004KT 10SM BKN040 BKN050 OVC065 11/08 A3034 RMK AO2 SLP274 T01060078 401780106=
201010110653 METAR KBFI 110653Z 00000KT 10SM FEW019 OVC032 12/08 A3034 RMK AO2 SLP272 T01220083=
201010110553 METAR KBFI 110553Z 06003KT 10SM SCT044 OVC055 12/10 A3031 RMK AO2 RAE16 SLP265 P0000 60008 T01220100 10150 20122 53010=
201010110453 METAR KBFI 110453Z 00000KT 10SM -RA OVC055 13/09 A3031 RMK AO2 SLP262 P0001 T01280089=
201010110353 METAR KBFI 110353Z 06004KT 10SM -RA OVC055 13/09 A3029 RMK AO2 SLP255 P0001 T01280094=
201010110253 METAR KBFI 110253Z 00000KT 10SM -RA OVC060 13/10 A3028 RMK AO2 SLP254 P0006 60006 T01280100 53001=
201010110153 METAR KBFI 110153Z 00000KT 10SM -RA FEW015 BKN050 14/09 A3028 RMK AO2 RAE0058B19 SLP253 P0000 T01390094=
201010110053 METAR KBFI 110053Z 07003KT 10SM -RA FEW026 BKN040 OVC047 14/09 A3028 RMK AO2 RAB48 SLP252 P0000 T01440094=
201010102353 METAR KBFI 102353Z VRB03KT 10SM SCT048 BKN070 15/09 A3028 RMK AO2 SLP253 60002 T01500089 10156 20128 55000=
201010102253 METAR KBFI 102253Z 08007KT 10SM BKN070 15/08 A3028 RMK AO2 SLP252 T01500083=
201010102153 METAR KBFI 102153Z 04007KT 020V080 10SM FEW026 BKN050 15/09 A3028 RMK AO2 SLP253 T01500089=
201010102053 METAR KBFI 102053Z VRB03KT 10SM BKN024 OVC045 15/10 A3028 RMK AO2 SLP253 60002 T01500100 55002=
201010101953 METAR KBFI 101953Z 00000KT 10SM SCT027 OVC043 14/11 A3028 RMK AO2 RAE03 SLP252 P0000 T01440106=
201010101853 METAR KBFI 101853Z 13004KT 4SM -RA OVC037 13/11 A3028 RMK AO2 SLP252 P0002 T01330106=
201010101823 SPECI KBFI 101823Z 12003KT 4SM -RA SCT027 OVC035 13/11 A3029 RMK AO2 P0001=
201010101823 SPECI KBFI 101823Z 12003KT 4SM -RA SCT027 OVC035 13/11 A3029 RMK AO2 P0001=
201010101753 METAR KBFI 101753Z 14006KT 6SM -RA BR OVC025 13/11 A3029 RMK AO2 SLP255 P0006 60044 T01280111 10167 20128 53021=
201010101653 METAR KBFI 101653Z VRB05KT 4SM -RA SCT012 BKN021 OVC050 13/11 A3026 RMK AO2 SLP246 P0007 T01330106=
201010101553 METAR KBFI 101553Z 09005KT 4SM -RA BR SCT010 BKN025 OVC034 14/12 A3025 RMK AO2 SLP241 P0005 T01390117=
201010101453 METAR KBFI 101453Z 12006KT 6SM -RA BR BKN029 OVC075 14/12 A3022 RMK AO2 SLP234 P0007 60026 T01390117 53045=
201010101353 METAR KBFI 101353Z 16004KT 4SM RA BR FEW023 BKN034 OVC065 14/12 A3018 RMK AO2 SLP221 P0017 T01440122=
201010101253 METAR KBFI 101253Z AUTO 22007KT 7SM -RA SCT049 OVC060 16/12 A3013 RMK AO2 RAE19B49 SLP202 P0002 T01610122 TSNO=
201010101153 METAR KBFI 101153Z 20007G17KT 8SM -RA BKN047 BKN055 OVC075 16/14 A3009 RMK AO2 RAB1057 SLP190 P0006 60059 70126 T01560139 10178 20156 51009=
201010101115 SPECI KBFI 101115Z 21009KT 10SM -RA SCT017 BKN050 OVC110 17/16 A3008 RMK AO2 RAB1057 P0001=
201010101115 SPECI KBFI 101115Z 21009KT 10SM -RA SCT017 BKN050 OVC110 17/16 A3008 RMK AO2 RAB1057 P0001=
201010101104 SPECI KBFI 101104Z 19008KT 9SM -RA BKN019 BKN030 OVC090 17/16 A3008 RMK AO2 RAB1057 CIG 012V022 P0000=
201010101104 SPECI KBFI 101104Z 19008KT 9SM -RA BKN019 BKN030 OVC090 17/16 A3008 RMK AO2 RAB1057 CIG 012V022 P0000=
201010101053 METAR KBFI 101053Z 21008G17KT 10SM SCT021 BKN035 OVC110 18/16 A3008 RMK AO2 RAE52 SLP185 P0004 T01780161=
201010101032 SPECI KBFI 101032Z 18007KT 9SM -RA SCT021 BKN033 OVC040 18/17 A3008 RMK AO2 P0004=
201010101032 SPECI KBFI 101032Z 18007KT 9SM -RA SCT021 BKN033 OVC040 18/17 A3008 RMK AO2 P0004=
201010101017 SPECI KBFI 101017Z 19008G17KT 3SM RA BR FEW008 BKN029 OVC038 18/17 A3008 RMK AO2 P0003=
201010101017 SPECI KBFI 101017Z 19008G17KT 3SM RA BR FEW008 BKN029 OVC038 18/17 A3008 RMK AO2 P0003=
201010100953 METAR KBFI 100953Z 18008G14KT 3SM -RA BR BKN028 OVC041 18/17 A3008 RMK AO2 SLP185 P0005 T01780167=
201010100853 METAR KBFI 100853Z 15007KT 4SM RA BR BKN028 BKN035 OVC041 18/17 A3007 RMK AO2 SLP180 P0015 60044 T01780167 55001=
201010100753 METAR KBFI 100753Z 13005KT 6SM -RA BR BKN034 OVC044 17/16 A3006 RMK AO2 SLP178 P0008 T01720161 401720144=
201010100653 METAR KBFI 100653Z 14007KT 5SM RA BR BKN030 OVC040 17/16 A3006 RMK AO2 SLP179 P0021 T01720161=
201010100606 SPECI KBFI 100606Z 14006KT 5SM RA BR BKN030 OVC043 17/16 A3007 RMK AO2 P0003=
201010100606 SPECI KBFI 100606Z 14006KT 5SM RA BR BKN030 OVC043 17/16 A3007 RMK AO2 P0003=
201010100553 METAR KBFI 100553Z 12003KT 4SM RA BR BKN026 OVC044 17/16 A3007 RMK AO2 RAB0459 SLP181 P0016 60042 T01720161 10172 20167 53001=
201010100453 METAR KBFI 100453Z 15004KT 10SM BKN037 BKN048 OVC070 17/16 A3006 RMK AO2 RAE52 SLP179 P0004 T01720156=
201010100353 METAR KBFI 100353Z 15010KT 8SM -RA FEW030 OVC050 17/16 A3006 RMK AO2 SLP178 P0003 T01720156=
201010100253 METAR KBFI 100253Z AUTO 15007KT 6SM -RA BR BKN030 OVC039 17/16 A3007 RMK AO2 SLP181 P0015 60019 T01720156 55000 TSNO=
201010100153 METAR KBFI 100153Z 16003KT 5SM RA BR SCT010 OVC030 17/16 A3006 RMK AO2 RAB0058 SLP178 P0003 T01670156=
201010100053 METAR KBFI 100053Z 14004KT 3SM BR SCT006 BKN012 OVC026 17/16 A3005 RMK AO2 RAE24 SLP176 P0001 T01720156=
201010092353 METAR KBFI 092353Z 14008KT 3SM -RA BR SCT006 BKN012 OVC026 17/16 A3007 RMK AO2 SLP181 P0010 60024 T01670156 10172 20161 56016=
201010092255 SPECI KBFI 092255Z 15004KT 3SM -RA BR SCT008 BKN012 OVC026 17/16 A3008 RMK AO2 P0000=
201010092255 SPECI KBFI 092255Z 15004KT 3SM -RA BR SCT008 BKN012 OVC026 17/16 A3008 RMK AO2 P0000=
201010092253 METAR KBFI 092253Z 15004KT 3SM -RA BR BKN008 BKN012 OVC026 17/16 A3008 RMK AO2 SLP185 P0003 T01720156=
201010092246 SPECI KBFI 092246Z 15004KT 3SM -RA BR BKN008 BKN012 OVC026 17/16 A3008 RMK AO2 P0002=
201010092246 SPECI KBFI 092246Z 15004KT 3SM -RA BR BKN008 BKN012 OVC026 17/16 A3008 RMK AO2 P0002=
201010092153 METAR KBFI 092153Z 00000KT 4SM -RA SCT008 SCT012 OVC026 17/14 A3010 RMK AO2 SLP191 P0002 T01720144=
201010092053 METAR KBFI 092053Z 16004KT 5SM -RA BKN023 OVC039 17/14 A3011 RMK AO2 RAB1958 SLP197 P0004 60009 T01720144 58016=
201010091953 METAR KBFI 091953Z 00000KT 10SM OVC043 17/14 A3013 RMK AO2 RAE29 SLP204 P0001 T01720144=
201010091853 METAR KBFI 091853Z 00000KT 6SM -RA BR FEW035 OVC046 16/14 A3015 RMK AO2 RAB13 SLP211 P0004 T01610139=
201010091753 METAR KBFI 091753Z 00000KT 10SM OVC042 17/13 A3016 RMK AO2 SLP213 60001 T01670133 10167 20144 51015=
201010091653 METAR KBFI 091653Z 00000KT 10SM OVC046 16/13 A3015 RMK AO2 SLP211 T01610133=
201010091553 METAR KBFI 091553Z 00000KT 10SM OVC048 15/13 A3013 RMK AO2 SLP204 T01500133=
201010091453 METAR KBFI 091453Z 14003KT 10SM BKN039 OVC046 14/13 A3012 RMK AO2 SLP199 60001 T01440128 51002=
201010091353 METAR KBFI 091353Z 14004KT 10SM FEW039 BKN046 OVC060 14/13 A3012 RMK AO2 RAE25 SLP198 P0001 T01440128=
201010091253 METAR KBFI 091253Z 15005KT 9SM -RA SCT039 OVC049 14/13 A3012 RMK AO2 RAE19B40 SLP198 P0000 T01440128=
201010091211 SPECI KBFI 091211Z 10003KT 7SM -RA FEW006 OVC041 15/13 A3012 RMK AO2 P0000=
201010091211 SPECI KBFI 091211Z 10003KT 7SM -RA FEW006 OVC041 15/13 A3012 RMK AO2 P0000=
201010091153 METAR KBFI 091153Z 00000KT 6SM -RA BR OVC041 14/13 A3011 RMK AO2 SLP197 P0002 60020 70021 T01440128 10167 20144 53007=
201010091053 METAR KBFI 091053Z 16005KT 5SM -RA BR BKN040 OVC050 14/13 A3011 RMK AO2 SLP195 P0002 T01440128=
201010090953 METAR KBFI 090953Z VRB04KT 7SM -RA BKN042 OVC120 15/13 A3010 RMK AO2 SLP191 P0002 T01500128=
201010090853 METAR KBFI 090853Z 00000KT 7SM -RA OVC060 15/13 A3009 RMK AO2 SLP190 P0002 60014 T01500128 53015=
201010090753 METAR KBFI 090753Z 00000KT 10SM -RA BKN075 OVC090 15/13 A3006 RMK AO2 SLP179 P0005 T01500128 402000133=
201010090653 METAR KBFI 090653Z 00000KT 7SM -RA SCT046 BKN075 OVC090 16/13 A3006 RMK AO2 SLP177 P0007 T01560133=
201010090553 METAR KBFI 090553Z 00000KT 10SM -RA FEW065 BKN075 OVC095 17/11 A3005 RMK AO2 RAB33 SLP175 P0000 60000 T01670111 10189 20161 55001=
201010090453 METAR KBFI 090453Z 00000KT 10SM CLR 17/11 A3003 RMK AO2 SLP169 T01670106=
201010090353 METAR KBFI 090353Z 12005KT 10SM SCT075 BKN095 17/11 A3005 RMK AO2 SLP174 T01670106=
201010090253 METAR KBFI 090253Z 16004KT 10SM CLR 17/11 A3005 RMK AO2 SLP177 T01670106 58002=
201010090153 METAR KBFI 090153Z 16004KT 10SM OVC055 18/11 A3006 RMK AO2 SLP180 T01780106=
201010090053 METAR KBFI 090053Z 20005KT 10SM BKN055 18/10 A3006 RMK AO2 SLP178 T01830100=
201010082353 METAR KBFI 082353Z VRB04KT 10SM CLR 19/11 A3006 RMK AO2 SLP179 60000 T01890106 10200 20161 56015=
201010082253 METAR KBFI 082253Z 25004KT 10SM SCT060 19/11 A3007 RMK AO2 SLP182 T01940106=
201010082153 METAR KBFI 082153Z 00000KT 10SM SCT042 OVC050 19/10 A3007 RMK AO2 SLP183 T01890100=
201010082053 METAR KBFI 082053Z 12004KT 10SM FEW036 BKN200 19/09 A3011 RMK AO2 SLP194 60000 T01940094 58012=
201010081953 METAR KBFI 081953Z 15006KT 10SM BKN046 OVC055 18/10 A3013 RMK AO2 SLP202 T01780100=
201010081853 METAR KBFI 081853Z 16004KT 10SM BKN038 OVC049 17/11 A3014 RMK AO2 RAE00 SLP205 P0000 T01720111=
201010081753 METAR KBFI 081753Z 14004KT 10SM -RA OVC050 16/11 A3014 RMK AO2 RAE03B46 SLP207 P0001 60001 T01610111 10161 20139 51009=
201010081653 METAR KBFI 081653Z 14004KT 10SM -RA FEW049 BKN070 BKN080 15/11 A3014 RMK AO2 RAB15 SLP205 P0000 T01500106=
201010081553 METAR KBFI 081553Z 14006KT 10SM SCT045 OVC060 14/10 A3014 RMK AO2 RAB08E17 SLP204 P0000 T01440100=
201010081453 METAR KBFI 081453Z 14006KT 10SM FEW041 SCT060 OVC080 14/10 A3012 RMK AO2 SLP198 T01440100 53002=
201010081353 METAR KBFI 081353Z 15005KT 10SM OVC050 14/10 A3011 RMK AO2 SLP196 T01440100=
201010081253 METAR KBFI 081253Z 14005KT 10SM OVC043 14/11 A3012 RMK AO2 SLP197 T01390106=
201010081153 METAR KBFI 081153Z 14005KT 10SM SCT046 OVC055 14/10 A3011 RMK AO2 SLP196 T01440100 10150 20133 51002=
201010081053 METAR KBFI 081053Z 15004KT 10SM OVC060 14/10 A3011 RMK AO2 SLP196 T01440100=
201010080953 METAR KBFI 080953Z 14005KT 10SM OVC060 14/11 A3012 RMK AO2 SLP197 T01390106=
201010080853 METAR KBFI 080853Z 14006KT 10SM OVC060 14/11 A3010 RMK AO2 SLP193 T01440106 53000=
201010080753 METAR KBFI 080753Z 14005KT 10SM OVC065 14/11 A3010 RMK AO2 SLP193 T01440106 401890100=
201010080653 METAR KBFI 080653Z 14005KT 10SM OVC060 15/11 A3010 RMK AO2 SLP192 T01500106=
201010080553 METAR KBFI 080553Z 16006KT 10SM OVC060 15/11 A3010 RMK AO2 SLP193 T01500111 10156 20144 51007=
201010080453 METAR KBFI 080453Z 00000KT 10SM SCT030 OVC060 14/11 A3010 RMK AO2 SLP193 T01440111=
201010080353 METAR KBFI 080353Z 16007KT 10SM OVC055 14/11 A3009 RMK AO2 SLP188 T01440111=
201010080253 METAR KBFI 080253Z 20003KT 10SM BKN031 OVC055 15/11 A3008 RMK AO2 SLP186 T01500111 53013=
201010080153 METAR KBFI 080153Z 20005KT 10SM FEW027 OVC040 16/11 A3007 RMK AO2 SLP180 T01560106=
201010080053 METAR KBFI 080053Z 19007KT 10SM OVC042 16/11 A3005 RMK AO2 SLP175 T01560106=
201010072353 METAR KBFI 072353Z 22009KT 10SM OVC038 16/11 A3004 RMK AO2 SLP173 T01610106 10189 20156 51011=
201010072253 METAR KBFI 072253Z 19008G16KT 10SM BKN038 OVC055 17/10 A3003 RMK AO2 SLP169 T01670100=
201010072202 SPECI KBFI 072202Z 20008KT 10SM BKN031 OVC040 17/11 A3002 RMK AO2=
201010072202 SPECI KBFI 072202Z 20008KT 10SM BKN031 OVC040 17/11 A3002 RMK AO2=
201010072153 METAR KBFI 072153Z 20009G16KT 10SM BKN029 BKN038 17/11 A3002 RMK AO2 SLP166 T01720106=
201010072053 METAR KBFI 072053Z AUTO 18007KT 10SM FEW029 SCT100 17/11 A3001 RMK AO2 SLP161 T01720106 51007 TSNO=
201010071953 METAR KBFI 071953Z AUTO 19008KT 10SM FEW026 SCT034 BKN120 18/11 A3000 RMK AO2 SLP159 T01830111 TSNO=
201010071933 SPECI KBFI 071933Z 19006KT 10SM SCT030 17/11 A3000 RMK AO2=
201010071933 SPECI KBFI 071933Z 19006KT 10SM SCT030 17/11 A3000 RMK AO2=
201010071905 SPECI KBFI 071905Z 17008KT 140V200 10SM BKN027 17/11 A3000 RMK AO2=
201010071905 SPECI KBFI 071905Z 17008KT 140V200 10SM BKN027 17/11 A3000 RMK AO2=
201010071853 METAR KBFI 071853Z VRB06KT 10SM FEW027 17/11 A3000 RMK AO2 SLP157 T01670106=
201010071753 METAR KBFI 071753Z 19005KT 10SM FEW010 SCT120 16/11 A2999 RMK AO2 SLP154 T01560111 10156 20106 53014=
201010071653 METAR KBFI 071653Z 14009KT 10SM BKN120 13/10 A2997 RMK AO2 SLP149 T01330100=
201010071553 METAR KBFI 071553Z 14009KT 10SM CLR 14/10 A2996 RMK AO2 SLP144 T01390100=
201010071453 METAR KBFI 071453Z 14008KT 10SM FEW120 11/09 A2995 RMK AO2 SLP141 T01110089 51012=
201010071353 METAR KBFI 071353Z 14007KT 10SM CLR 11/08 A2994 RMK AO2 SLP137 T01110083=
201010071253 METAR KBFI 071253Z 14008KT 10SM CLR 11/09 A2993 RMK AO2 SLP133 T01110089 $=
201010071153 METAR KBFI 071153Z 14007KT 10SM CLR 11/09 A2991 RMK AO2 SLP129 70001 T01110089 10128 20100 53002 $=
201010071053 METAR KBFI 071053Z 15006KT 10SM CLR 11/09 A2990 RMK AO2 SLP125 T01060089 $=
201010070953 METAR KBFI 070953Z 00000KT 10SM CLR 11/09 A2991 RMK AO2 SLP127 T01060089 $=
201010070853 METAR KBFI 070853Z 14005KT 10SM CLR 11/09 A2991 RMK AO2 SLP127 T01060089 50004=
201010070753 METAR KBFI 070753Z 00000KT 10SM CLR 11/08 A2991 RMK AO2 SLP127 T01110083 401940100=
201010070653 METAR KBFI 070653Z 00000KT 10SM CLR 12/09 A2990 RMK AO2 SLP125 T01220094=
201010070553 METAR KBFI 070553Z 00000KT 10SM CLR 13/09 A2989 RMK AO2 SLP122 T01280094 10189 20128 56004=
201010070453 METAR KBFI 070453Z 00000KT 10SM CLR 13/09 A2990 RMK AO2 SLP124 T01330094=
201010070353 METAR KBFI 070353Z 00000KT 10SM CLR 14/09 A2990 RMK AO2 SLP125 T01440094=
201010070253 METAR KBFI 070253Z AUTO VRB03KT 10SM CLR 16/09 A2991 RMK AO2 SLP126 T01560089 55006 TSNO=
201010070153 METAR KBFI 070153Z 32004KT 10SM CLR 16/09 A2990 RMK AO2 SLP125 T01610089=
201010070053 METAR KBFI 070053Z 30004KT 10SM CLR 17/10 A2990 RMK AO2 SLP126 T01720100=
201010062353 METAR KBFI 062353Z 31006KT 10SM CLR 19/09 A2992 RMK AO2 SLP132 T01890089 10194 20128 56030=
201010062253 METAR KBFI 062253Z 31004KT 10SM CLR 19/09 A2995 RMK AO2 SLP142 T01890089=
201010062153 METAR KBFI 062153Z VRB05KT 10SM CLR 18/09 A2998 RMK AO2 SLP151 T01830094=
201010062053 METAR KBFI 062053Z 29005KT 10SM CLR 18/09 A3001 RMK AO2 SLP163 T01830094 58033=
201010061953 METAR KBFI 061953Z 31005KT 10SM CLR 16/09 A3005 RMK AO2 SLP175 T01610094=
201010061853 METAR KBFI 061853Z 32004KT 9SM CLR 14/10 A3009 RMK AO2 SLP188 T01440100=
201010061753 METAR KBFI 061753Z 30006KT 7SM FEW008 13/09 A3011 RMK AO2 SLP196 60001 T01330094 10133 20100 56013=
201010061653 METAR KBFI 061653Z 33004KT 10SM SCT010 13/09 A3014 RMK AO2 SLP204 T01280089=
201010061553 METAR KBFI 061553Z 00000KT 10SM SCT006 11/08 A3015 RMK AO2 SLP209 T01110083=
201010061539 SPECI KBFI 061539Z VRB05KT 10SM SCT006 11/08 A3015 RMK AO2=
201010061539 SPECI KBFI 061539Z VRB05KT 10SM SCT006 11/08 A3015 RMK AO2=
201010061453 METAR KBFI 061453Z COR 36004KT 10SM SCT006 11/08 A3015 RMK AO2 SLP210 60001 T01060083 58014=
201010061424 SPECI KBFI 061424Z 36005KT 9SM BKN006 11/09 A3016 RMK AO2=
201010061424 SPECI KBFI 061424Z 36005KT 9SM BKN006 11/09 A3016 RMK AO2=
201010061400 SPECI KBFI 061400Z 36004KT 10SM SCT008 11/09 A3017 RMK AO2 $=
201010061400 SPECI KBFI 061400Z 36004KT 10SM SCT008 11/09 A3017 RMK AO2 $=
201010061353 METAR KBFI 061353Z 01005KT 10SM SCT006 BKN011 11/09 A3018 RMK AO2 SLP218 T01060089=
201010061348 SPECI KBFI 061348Z 35004KT 10SM SCT006 BKN011 11/08 A3018 RMK AO2=
201010061348 SPECI KBFI 061348Z 35004KT 10SM SCT006 BKN011 11/08 A3018 RMK AO2=
201010061253 METAR KBFI 061253Z VRB03KT 10SM SCT008 11/09 A3019 RMK AO2 SLP224 P0001 T01060089 $=
201010061153 METAR KBFI 061153Z 00000KT 9SM SCT008 11/08 A3021 RMK AO2 SLP229 7//// T01060083 10128 20106 56019 $=
201010061053 METAR KBFI 061053Z 00000KT 10SM FEW008 11/08 A3023 RMK AO2 SLP236 T01110083 $=
201010060953 METAR KBFI 060953Z AUTO 34003KT 10SM CLR 11/08 A3024 RMK AO2 SLP240 T01110083 TSNO $=
201010060853 METAR KBFI 060853Z AUTO 00000KT 10SM CLR 12/08 A3026 RMK AO2 SLP248 T01170078 56017 TSNO $=
201010060753 METAR KBFI 060753Z AUTO 00000KT 10SM CLR 12/07 A3028 RMK AO2 SLP252 T01170072 401720078 TSNO $=
201010060653 METAR KBFI 060653Z 00000KT 10SM CLR 12/07 A3030 RMK AO2 SLP259 T01220072 $=
201010060553 METAR KBFI 060553Z 00000KT 10SM CLR 13/08 A3032 RMK AO2 SLP265 T01280083 10167 20128 56013 $=
201010060453 METAR KBFI 060453Z VRB03KT 10SM CLR 13/08 A3033 RMK AO2 SLP268 T01330083 $=
201010060353 METAR KBFI 060353Z 00000KT 10SM CLR 14/08 A3034 RMK AO2 SLP274 T01390083 $=
201010060253 METAR KBFI 060253Z 34003KT 10SM CLR 14/09 A3035 RMK AO2 SLP278 T01390089 55005 $=
201010060153 METAR KBFI 060153Z VRB03KT 10SM CLR 14/09 A3035 RMK AO2 SLP277 T01440089 $=
201010060053 METAR KBFI 060053Z 31005KT 10SM CLR 16/08 A3036 RMK AO2 SLP281 T01560083 $=
201010052353 METAR KBFI 052353Z 30006KT 10SM CLR 17/08 A3037 RMK AO2 SLP283 6//// T01670078 10172 20133 56016 $=
201010052253 METAR KBFI 052253Z 30007G15KT 10SM CLR 17/07 A3038 RMK AO2 SLP287 T01670067 $=
201010052153 METAR KBFI 052153Z 30008KT 10SM CLR 17/06 A3039 RMK AO2 SLP289 T01670061 $=
201010052053 METAR KBFI 052053Z A3041 RMK AO2 SLP299 6//// 58010 $=
201010051953 METAR KBFI 051953Z VRB03KT 10SM FEW022 15/08 A3044 RMK AO2 SLP306 T01500083=
201010051853 METAR KBFI 051853Z VRB05KT 10SM FEW015 14/08 A3044 RMK AO2 SLP309 T01440083=
201010051753 METAR KBFI 051753Z AUTO 31005KT 10SM FEW016 14/08 A3045 RMK AO2 SLP309 T01390078 10139 20078 51011 TSNO=
201010051653 METAR KBFI 051653Z VRB03KT 10SM SCT013 12/08 A3045 RMK AO2 SLP309 T01220083=
201010051553 METAR KBFI 051553Z 00000KT 10SM SCT011 BKN015 11/08 A3044 RMK AO2 SLP306 T01060078=
201010051453 METAR KBFI 051453Z 14005KT 10SM BKN011 09/08 A3041 RMK AO2 SLP298 T00940078 53016=
201010051435 SPECI KBFI 051435Z 15004KT 10SM OVC012 09/07 A3041 RMK AO2=
201010051435 SPECI KBFI 051435Z 15004KT 10SM OVC012 09/07 A3041 RMK AO2=
201010051353 METAR KBFI 051353Z 00000KT 10SM SCT012 09/07 A3039 RMK AO2 SLP291 T00940067=
201010051253 METAR KBFI 051253Z 00000KT 10SM CLR 08/06 A3038 RMK AO2 SLP286 T00830061=
201010051153 METAR KBFI 051153Z 00000KT 10SM CLR 10/07 A3037 RMK AO2 SLP282 T01000072 10139 20094 53016=
201010051053 METAR KBFI 051053Z 00000KT 10SM CLR 11/07 A3035 RMK AO2 SLP277 T01110072=
201010050953 METAR KBFI 050953Z 00000KT 10SM CLR 12/07 A3034 RMK AO2 SLP272 T01170072=
201010050853 METAR KBFI 050853Z 00000KT 10SM CLR 12/07 A3032 RMK AO2 SLP267 T01170072 53013=
201010050753 METAR KBFI 050753Z AUTO 00000KT 10SM CLR 12/08 A3030 RMK AO2 SLP260 T01220078 401670106 TSNO=
201010050653 METAR KBFI 050653Z 00000KT 10SM SCT080 13/08 A3029 RMK AO2 SLP258 T01330078=
201010050553 METAR KBFI 050553Z 00000KT 10SM OVC055 13/09 A3028 RMK AO2 SLP254 T01330089 10156 20133 53017=
201010050453 METAR KBFI 050453Z 00000KT 10SM FEW055 BKN070 14/08 A3025 RMK AO2 SLP244 T01390083=
201010050353 METAR KBFI 050353Z 31003KT 10SM OVC065 14/08 A3025 RMK AO2 SLP242 T01390083=
201010050253 METAR KBFI 050253Z 31004KT 10SM BKN055 14/08 A3023 RMK AO2 SLP237 T01440083 53016=
201010050153 METAR KBFI 050153Z 31005KT 10SM SCT095 14/08 A3021 RMK AO2 SLP231 T01440078=
201010050053 METAR KBFI 050053Z 33003KT 10SM SCT055 BKN100 16/08 A3020 RMK AO2 SLP225 T01560078=
201010042353 METAR KBFI 042353Z 33003KT 10SM FEW034 BKN065 BKN090 16/08 A3018 RMK AO2 SLP220 T01560078 10167 20128 53009=
201010042253 METAR KBFI 042253Z 00000KT 10SM FEW031 BKN065 BKN075 16/07 A3017 RMK AO2 SLP216 T01560072=
201010042153 METAR KBFI 042153Z 00000KT 10SM SCT025 BKN055 15/08 A3016 RMK AO2 SLP212 T01500078=
201010042053 METAR KBFI 042053Z 00000KT 10SM FEW023 BKN055 14/08 A3016 RMK AO2 SLP212 T01440083 51008=
201010041953 METAR KBFI 041953Z 18004KT 10SM OVC021 14/08 A3015 RMK AO2 SLP211 T01390083=
201010041853 METAR KBFI 041853Z 21008KT 10SM OVC021 13/08 A3015 RMK AO2 SLP209 T01280078=
201010041753 METAR KBFI 041753Z 15009KT 10SM FEW050 14/08 A3013 RMK AO2 SLP204 T01390078 10139 20106 51012=
201010041653 METAR KBFI 041653Z 14010KT 10SM SCT050 SCT250 13/08 A3012 RMK AO2 SLP201 T01280078=
201010041553 METAR KBFI 041553Z 14008KT 10SM BKN039 BKN050 12/08 A3012 RMK AO2 SLP198 T01170078=
201010041453 METAR KBFI 041453Z 13005KT 10SM SCT030 11/07 A3010 RMK AO2 SLP192 T01060072 53012=
201010041353 METAR KBFI 041353Z 13005KT 10SM FEW023 SCT033 11/08 A3009 RMK AO2 SLP187 T01110078=
201010041253 METAR KBFI 041253Z 16007KT 10SM OVC028 12/08 A3007 RMK AO2 SLP183 T01220078=
201010041153 METAR KBFI 041153Z 12005KT 10SM OVC020 12/08 A3007 RMK AO2 SLP181 T01220078 10144 20122 51007=
201010041053 METAR KBFI 041053Z 00000KT 10SM BKN018 OVC070 12/08 A3006 RMK AO2 SLP178 T01220083=
201010041040 SPECI KBFI 041040Z 16003KT 10SM BKN018 BKN023 OVC070 12/08 A3006 RMK AO2=
201010041040 SPECI KBFI 041040Z 16003KT 10SM BKN018 BKN023 OVC070 12/08 A3006 RMK AO2=
201010041032 SPECI KBFI 041032Z 16003KT 10SM SCT023 OVC070 12/08 A3006 RMK AO2=
201010041032 SPECI KBFI 041032Z 16003KT 10SM SCT023 OVC070 12/08 A3006 RMK AO2=
201010040953 METAR KBFI 040953Z 16003KT 10SM BKN018 OVC023 12/09 A3006 RMK AO2 SLP178 T01220089=
201010040942 SPECI KBFI 040942Z 15003KT 10SM BKN018 BKN025 OVC070 13/09 A3006 RMK AO2=
201010040942 SPECI KBFI 040942Z 15003KT 10SM BKN018 BKN025 OVC070 13/09 A3006 RMK AO2=
201010040853 METAR KBFI 040853Z 16003KT 10SM OVC070 12/08 A3004 RMK AO2 SLP173 T01220083 53009=
201010040753 METAR KBFI 040753Z 20004KT 10SM SCT015 OVC065 13/09 A3003 RMK AO2 SLP168 T01280089 401720128=
201010040653 METAR KBFI 040653Z 00000KT 10SM SCT015 OVC065 14/11 A3002 RMK AO2 SLP166 T01390106=
201010040553 METAR KBFI 040553Z 23003KT 10SM OVC065 14/11 A3002 RMK AO2 SLP164 T01440106 10167 20144 52009=
201010040453 METAR KBFI 040453Z 21004KT 10SM OVC070 15/10 A3001 RMK AO2 SLP161 T01500100=
201010040400 SPECI KBFI 040400Z 00000KT 10SM FEW027 OVC070 15/11 A3000 RMK AO2=
201010040400 SPECI KBFI 040400Z 00000KT 10SM FEW027 OVC070 15/11 A3000 RMK AO2=
201010040353 METAR KBFI 040353Z 00000KT 10SM BKN029 OVC070 15/11 A3000 RMK AO2 SLP158 T01500111=
201010040328 SPECI KBFI 040328Z 00000KT 10SM FEW019 BKN036 OVC070 15/11 A2999 RMK AO2=
201010040328 SPECI KBFI 040328Z 00000KT 10SM FEW019 BKN036 OVC070 15/11 A2999 RMK AO2=
201010040316 SPECI KBFI 040316Z 00000KT 10SM FEW022 BKN029 OVC039 15/11 A2999 RMK AO2=
201010040316 SPECI KBFI 040316Z 00000KT 10SM FEW022 BKN029 OVC039 15/11 A2999 RMK AO2=
201010040253 METAR KBFI 040253Z 00000KT 10SM OVC031 16/11 A2999 RMK AO2 SLP155 T01560106 53005=
201010040226 SPECI KBFI 040226Z 31003KT 10SM FEW017 BKN028 OVC036 16/11 A2998 RMK AO2=
201010040226 SPECI KBFI 040226Z 31003KT 10SM FEW017 BKN028 OVC036 16/11 A2998 RMK AO2=
201010040153 METAR KBFI 040153Z 14008KT 10SM FEW038 OVC070 15/11 A2998 RMK AO2 SLP151 T01500111=
201010040053 METAR KBFI 040053Z 14009KT 10SM SCT030 BKN060 17/11 A2998 RMK AO2 SLP150 T01670111=
201010040000 SPECI KBFI 040000Z 17008KT 10SM OVC060 17/10 A2998 RMK AO2=
201010040000 SPECI KBFI 040000Z 17008KT 10SM OVC060 17/10 A2998 RMK AO2=
201010032353 METAR KBFI 032353Z AUTO 17005KT 10SM BKN027 BKN050 17/10 A2997 RMK AO2 SLP149 T01670100 10172 20150 56003 TSNO=
201010032253 METAR KBFI 032253Z 14004KT 10SM BKN027 BKN050 17/11 A2997 RMK AO2 SLP150 T01670106=
201010032153 METAR KBFI 032153Z 15005KT 10SM SCT029 OVC060 17/11 A2998 RMK AO2 SLP151 T01670106=
201010032053 METAR KBFI 032053Z 14006KT 10SM FEW025 SCT033 OVC055 17/11 A2998 RMK AO2 SLP153 T01670111 58002=
201010032038 SPECI KBFI 032038Z 16007KT 10SM SCT023 SCT033 OVC055 17/11 A2998 RMK AO2=
201010032038 SPECI KBFI 032038Z 16007KT 10SM SCT023 SCT033 OVC055 17/11 A2998 RMK AO2=
201010032015 SPECI KBFI 032015Z VRB04KT 10SM BKN023 BKN050 17/11 A2999 RMK AO2=
201010032015 SPECI KBFI 032015Z VRB04KT 10SM BKN023 BKN050 17/11 A2999 RMK AO2=
201010031953 METAR KBFI 031953Z 15004KT 10SM FEW023 SCT028 OVC048 16/11 A2999 RMK AO2 SLP156 T01610111=
201010031945 SPECI KBFI 031945Z 14006KT 10SM FEW017 SCT029 OVC048 16/11 A2999 RMK AO2=
201010031945 SPECI KBFI 031945Z 14006KT 10SM FEW017 SCT029 OVC048 16/11 A2999 RMK AO2=
201010031853 METAR KBFI 031853Z 19004KT 10SM BKN015 OVC039 15/11 A3000 RMK AO2 SLP157 T01500111=
201010031820 SPECI KBFI 031820Z 17005KT 10SM BKN015 OVC037 15/11 A2999 RMK AO2=
201010031820 SPECI KBFI 031820Z 17005KT 10SM BKN015 OVC037 15/11 A2999 RMK AO2=
201010031753 METAR KBFI 031753Z 00000KT 10SM BKN013 OVC035 14/11 A2999 RMK AO2 SLP155 T01440111 10144 20133 53006=
201010031653 METAR KBFI 031653Z 00000KT 10SM BKN013 OVC039 14/11 A2999 RMK AO2 SLP153 T01440106=
201010031553 METAR KBFI 031553Z 00000KT 10SM OVC039 14/10 A2998 RMK AO2 SLP150 T01390100=
201010031453 METAR KBFI 031453Z 00000KT 10SM OVC041 13/10 A2997 RMK AO2 SLP149 T01330100 53006=
201010031353 METAR KBFI 031353Z 00000KT 10SM OVC039 14/10 A2997 RMK AO2 SLP147 T01390100=
201010031253 METAR KBFI 031253Z 00000KT 10SM OVC039 14/10 A2995 RMK AO2 SLP142 T01390100=
201010031153 METAR KBFI 031153Z 00000KT 10SM OVC039 14/10 A2995 RMK AO2 SLP143 T01390100 10144 20133 56003=
201010031053 METAR KBFI 031053Z 00000KT 10SM OVC037 14/10 A2995 RMK AO2 SLP143 T01390100=
201010030953 METAR KBFI 030953Z 00000KT 10SM OVC037 14/09 A2996 RMK AO2 SLP146 T01390094=
201010030853 METAR KBFI 030853Z 00000KT 10SM OVC037 14/09 A2996 RMK AO2 SLP146 T01390094 55001=
201010030753 METAR KBFI 030753Z 00000KT 10SM BKN029 OVC037 14/09 A2996 RMK AO2 SLP145 T01390094 401890139=
201010030653 METAR KBFI 030653Z 00000KT 10SM FEW035 14/09 A2997 RMK AO2 SLP147 T01390089=
201010030553 METAR KBFI 030553Z AUTO 00000KT 10SM SCT030 BKN037 14/09 A2997 RMK AO2 SLP147 T01440089 10189 20144 51002 TSNO=
201010030453 METAR KBFI 030453Z AUTO VRB03KT 10SM OVC035 15/09 A2997 RMK AO2 SLP147 T01500089 TSNO=
201010030353 METAR KBFI 030353Z AUTO 00000KT 10SM BKN033 15/09 A2996 RMK AO2 SLP145 T01500094 TSNO=
201010030253 METAR KBFI 030253Z AUTO 32003KT 10SM BKN033 16/09 A2996 RMK AO2 SLP145 T01610094 55009 TSNO=
201010030153 METAR KBFI 030153Z 30003KT 10SM FEW033 17/10 A2996 RMK AO2 SLP144 T01670100=
201010030053 METAR KBFI 030053Z 30003KT 10SM CLR 18/09 A2997 RMK AO2 SLP148 T01780094=
201010022353 METAR KBFI 022353Z 30005KT 10SM SCT034 19/09 A2999 RMK AO2 SLP154 T01890094 10189 20167 58023=
201010022253 METAR KBFI 022253Z 31005KT 10SM OVC034 18/10 A3001 RMK AO2 SLP163 T01780100=
201010022153 METAR KBFI 022153Z 30005KT 10SM OVC034 18/10 A3004 RMK AO2 SLP171 T01780100=
201010022053 METAR KBFI 022053Z 32005KT 10SM OVC034 18/11 A3005 RMK AO2 SLP177 T01780106 58016=
201010021953 METAR KBFI 021953Z 30005KT 10SM OVC036 17/12 A3008 RMK AO2 SLP184 T01720117=
201010021916 SPECI KBFI 021916Z 30005KT 10SM SCT023 OVC036 18/12 A3008 RMK AO2=
201010021916 SPECI KBFI 021916Z 30005KT 10SM SCT023 OVC036 18/12 A3008 RMK AO2=
201010021853 METAR KBFI 021853Z 30006KT 10SM OVC021 17/12 A3009 RMK AO2 SLP189 T01720117=
201010021753 METAR KBFI 021753Z 32003KT 10SM OVC019 17/12 A3010 RMK AO2 SLP192 T01670122 10167 20150 58004=
201010021709 SPECI KBFI 021709Z 31003KT 10SM BKN019 OVC039 16/12 A3011 RMK AO2=
201010021709 SPECI KBFI 021709Z 31003KT 10SM BKN019 OVC039 16/12 A3011 RMK AO2=
201010021653 METAR KBFI 021653Z 32003KT 10SM SCT021 OVC039 16/12 A3011 RMK AO2 SLP196 T01610122=
201010021553 METAR KBFI 021553Z 30003KT 10SM OVC037 16/12 A3011 RMK AO2 SLP197 T01560122=
201010021453 METAR KBFI 021453Z 00000KT 10SM OVC039 15/12 A3011 RMK AO2 SLP196 T01500122 53001=
201010021353 METAR KBFI 021353Z 00000KT 10SM OVC039 15/12 A3011 RMK AO2 SLP195 T01500122=
201010021318 SPECI KBFI 021318Z 00000KT 10SM FEW028 OVC039 15/12 A3011 RMK AO2=
201010021318 SPECI KBFI 021318Z 00000KT 10SM FEW028 OVC039 15/12 A3011 RMK AO2=
201010021253 METAR KBFI 021253Z 32003KT 10SM BKN026 OVC039 15/12 A3011 RMK AO2 SLP196 T01500122=
201010021153 METAR KBFI 021153Z 00000KT 10SM OVC026 16/11 A3011 RMK AO2 SLP195 T01560111 10172 20156 56002=
201010021053 METAR KBFI 021053Z 00000KT 10SM BKN026 OVC038 16/11 A3011 RMK AO2 SLP196 T01560111=
201010020953 METAR KBFI 020953Z 00000KT 10SM OVC038 16/11 A3011 RMK AO2 SLP197 T01560111=
201010020853 METAR KBFI 020853Z 00000KT 10SM OVC038 16/11 A3012 RMK AO2 SLP198 T01610111 53002=
201010020753 METAR KBFI 020753Z 00000KT 10SM FEW025 OVC038 16/11 A3011 RMK AO2 SLP194 T01610111 401940117=
201010020709 SPECI KBFI 020709Z 00000KT 10SM FEW026 OVC038 17/12 A3011 RMK AO2=
201010020709 SPECI KBFI 020709Z 00000KT 10SM FEW026 OVC038 17/12 A3011 RMK AO2=
201010020653 METAR KBFI 020653Z 00000KT 10SM BKN028 OVC038 17/12 A3011 RMK AO2 SLP197 T01670117=
201010020634 SPECI KBFI 020634Z 26003KT 10SM BKN028 OVC036 17/12 A3011 RMK AO2=
201010020634 SPECI KBFI 020634Z 26003KT 10SM BKN028 OVC036 17/12 A3011 RMK AO2=
201010020553 METAR KBFI 020553Z 22003KT 10SM OVC031 17/12 A3011 RMK AO2 SLP196 T01670122 10189 20167 51003=
201010020511 SPECI KBFI 020511Z 00000KT 10SM OVC031 17/12 A3011 RMK AO2=
201010020511 SPECI KBFI 020511Z 00000KT 10SM OVC031 17/12 A3011 RMK AO2=
201010020453 METAR KBFI 020453Z 23004KT 10SM OVC029 17/13 A3011 RMK AO2 SLP196 T01720128=
201010020353 METAR KBFI 020353Z 00000KT 10SM OVC029 18/13 A3011 RMK AO2 SLP195 T01780128=
201010020253 METAR KBFI 020253Z 21003KT 10SM OVC025 18/12 A3010 RMK AO2 SLP192 T01780122 53010=
201010020153 METAR KBFI 020153Z VRB05KT 10SM OVC025 18/13 A3009 RMK AO2 SLP188 T01830128=
201010020053 METAR KBFI 020053Z 19003KT 10SM OVC025 18/13 A3008 RMK AO2 SLP184 T01830133=
201010012353 METAR KBFI 012353Z 16008KT 10SM OVC025 19/14 A3007 RMK AO2 SLP182 T01890139 10194 20156 50001=
201010012253 METAR KBFI 012253Z 18008G15KT 10SM OVC025 19/13 A3007 RMK AO2 SLP183 T01890133=
201010012153 METAR KBFI 012153Z 16012KT 10SM OVC027 19/14 A3007 RMK AO2 SLP182 T01890139=
201010012053 METAR KBFI 012053Z 16012G16KT 10SM SCT018 BKN027 18/13 A3007 RMK AO2 SLP181 T01830133 51014=
201010012026 SPECI KBFI 012026Z 15013G18KT 10SM SCT018 BKN027 19/14 A3007 RMK AO2=
201010012026 SPECI KBFI 012026Z 15013G18KT 10SM SCT018 BKN027 19/14 A3007 RMK AO2=
201010011956 SPECI KBFI 011956Z 16014G17KT 10SM SCT018 19/14 A3006 RMK AO2=
201010011956 SPECI KBFI 011956Z 16014G17KT 10SM SCT018 19/14 A3006 RMK AO2=
201010011953 METAR KBFI 011953Z AUTO 15010KT 10SM BKN010 19/14 A3006 RMK AO2 SLP178 T01890139=
201010011924 SPECI KBFI 011924Z 16011KT 10SM BKN010 18/14 A3005 RMK AO2=
201010011924 SPECI KBFI 011924Z 16011KT 10SM BKN010 18/14 A3005 RMK AO2=
201010011853 METAR KBFI 011853Z COR 16011KT 10SM BKN010 18/14 A3004 RMK AO2 SLP173 T01780139=
201010011843 SPECI KBFI 011843Z 15010G16KT 10SM OVC010 17/13 A3004 RMK AO2=
201010011843 SPECI KBFI 011843Z 15010G16KT 10SM OVC010 17/13 A3004 RMK AO2=
201010011753 METAR KBFI 011753Z COR 15009KT 10SM OVC010 16/13 A3003 RMK AO2 SLP167 T01560133 10156 20117 51022=
201010011653 METAR KBFI 011653Z 17005KT 5SM BR OVC007 14/12 A3001 RMK AO2 SLP162 T01390122=
201010011623 SPECI KBFI 011623Z 19005KT 5SM BR OVC007 14/12 A3000 RMK AO2=
201010011623 SPECI KBFI 011623Z 19005KT 5SM BR OVC007 14/12 A3000 RMK AO2=
201010011553 METAR KBFI 011553Z 15005KT 10SM CLR 15/12 A2998 RMK AO2 SLP152 T01500117=
201010011453 METAR KBFI 011453Z 14008KT 10SM CLR 12/11 A2996 RMK AO2 SLP145 T01220106 51025=
201010011353 METAR KBFI 011353Z 14007KT 10SM CLR 12/10 A2994 RMK AO2 SLP138 T01170100=
201010011253 METAR KBFI 011253Z 15004KT 10SM CLR 12/11 A2992 RMK AO2 SLP131 T01220106=
201010011153 METAR KBFI 011153Z 13003KT 10SM CLR 13/11 A2989 RMK AO2 SLP120 T01280106 10150 20122 53010=
201010011053 METAR KBFI 011053Z 00000KT 10SM CLR 12/10 A2987 RMK AO2 SLP113 T01220100=
201010010953 METAR KBFI 010953Z 00000KT 10SM CLR 13/11 A2985 RMK AO2 SLP109 T01330106=
201010010853 METAR KBFI 010853Z 00000KT 10SM CLR 13/11 A2985 RMK AO2 SLP109 T01330111 51006=
201010010753 METAR KBFI 010753Z 00000KT 10SM CLR 14/11 A2985 RMK AO2 SLP108 T01440111 402060122=
201010010653 METAR KBFI 010653Z 00000KT 10SM CLR 14/11 A2984 RMK AO2 SLP105 T01440111=
201010010553 METAR KBFI 010553Z 00000KT 10SM CLR 15/12 A2984 RMK AO2 SLP103 T01500117 10200 20150 51004=
201010010453 METAR KBFI 010453Z 00000KT 10SM CLR 16/12 A2983 RMK AO2 SLP102 T01560117=
201010010353 METAR KBFI 010353Z 00000KT 10SM CLR 17/12 A2983 RMK AO2 SLP102 T01670117=
201010010253 METAR KBFI 010253Z 32003KT 10SM CLR 17/11 A2982 RMK AO2 SLP099 T01670111 53005=
201010010153 METAR KBFI 010153Z AUTO 30004KT 10SM CLR 18/12 A2980 RMK AO2 SLP092 T01830117 TSNO=
201010010053 METAR KBFI 010053Z AUTO 31006KT 10SM CLR 19/12 A2980 RMK AO2 SLP091 T01890117 TSNO=

# No short TAF reports from KBFI in databse.

###################################
#  large TAF from KBFI
###################################
201010312327 TAF KBFI 312327Z 0100/0124 16008KT P6SM SCT040 BKN120 OVC200 FM010600
                       13008KT P6SM -RA SCT030 BKN050 OVC100 FM011000
                       13012KT P6SM -RA BKN025 OVC050 WS020/20050KT
                       FM011600 18012G22KT 5SM RA BR OVC025 FM012200
                       22012G20KT P6SM -SHRA BKN030 BKN050=
201010311720 TAF KBFI 311720Z 3118/0118 16012KT P6SM SCT025 SCT120 SCT200 FM312200
                       16008KT P6SM SCT040 BKN120 BKN200 FM010600
                       13008KT P6SM -RA SCT030 BKN050 OVC100 FM011000
                       13012KT P6SM -RA BKN025 OVC050 WS020/20050KT
                       FM011600 18012G22KT 5SM RA BR OVC025=
201010311503 KBFI 311503Z 3115/0112 17007KT P6SM SCT025
                      TEMPO 3115/3118 BKN025 FM312000 17007KT P6SM
                       SCT040 BKN200 FM010000 13006KT P6SM SCT050
                       BKN120 OVC200 FM010800 13006KT P6SM -RA
                       OVC050=
201010311139 TAF KBFI 311139Z 3112/0112 18008KT P6SM SCT028 BKN040 OVC060
                      TEMPO 3112/3116 -SHRA BKN028 OVC045 FM311900
                       15006KT P6SM SCT050 BKN200 FM010000 13006KT
                       P6SM SCT050 BKN120 OVC200 FM010800 13006KT
                       P6SM -RA OVC050=
201010310540 TAF KBFI 310540Z 3106/0106 14006KT P6SM -RA OVC050 FM311000 18008KT
                       P6SM SCT025 BKN045 OVC060
                      TEMPO 3110/3114 -SHRA BKN025 OVC045 FM311800
                       15006KT P6SM SCT050 BKN200 FM010000 13006KT
                       P6SM SCT050 BKN120 OVC200=
201010310304 KBFI 310304Z 3103/3124 14006KT P6SM -RA OVC045 FM310800 16006KT
                       P6SM -RA BKN030 OVC045 FM311000 20010KT
                       P6SM -SHRA BKN025 BKN040 FM311800 22007KT
                       P6SM BKN040
                      TEMPO 3118/3122 SCT040 FM312200 16008KT P6SM
                       BKN050 OVC200=
201010302358 KBFI 302358Z 3100/3124 16006KT 5SM -RA BR SCT005 OVC025
                      TEMPO 3100/3104 2SM -RA BR BKN005 OVC020
                       FM311000 20010KT P6SM -SHRA BKN020 BKN040
                       FM311800 22007KT P6SM BKN040
                      TEMPO 3118/3122 SCT040 FM312200 16008KT P6SM
                       BKN050 OVC200=
201010302320 TAF KBFI 302320Z 3100/3124 16006KT 5SM -RA BR SCT025 OVC040
                      TEMPO 3100/3104 3SM -RA BR BKN025 OVC035
                       FM311000 20010KT P6SM -SHRA BKN020 BKN040
                       FM311800 22007KT P6SM BKN040
                      TEMPO 3118/3122 SCT040 FM312200 16008KT P6SM
                       BKN050 OVC200=
201010302107 TAF AMD KBFI 302107Z 3021/3118 VRB03KT 5SM -RA BR SCT020 OVC040
                       TEMPO 3021/3024 2SM -RA BR BKN020 OVC035
                       FM310300 16007KT P6SM -RA SCT020 OVC040
                       TEMPO 3106/3110 5SM -RA BR BKN020 OVC035
                       FM311000 20010KT P6SM -SHRA SCT020 BKN040
                       FM311700 22007KT P6SM SCT040=
201010301722 TAF KBFI 301722Z 3018/3118 15006KT P6SM -RA OVC050
                      TEMPO 3018/3022 5SM -RA BR FM310300 16010KT
                       P6SM -RA SCT018 OVC040
                      TEMPO 3106/3110 4SM -RA BR BKN018 OVC035
                       FM311000 20012KT P6SM -SHRA SCT020 BKN040
                       FM311700 22007KT P6SM SCT040=
201010301139 TAF KBFI 301139Z 3012/3112 00000KT P6SM SKC FM301600 14006KT P6SM
                       SCT100 BKN200 FM302000 14006KT P6SM OVC070
                       FM302300 14006KT P6SM -RA OVC045 FM310800
                       14006KT P6SM -RA SCT020 OVC030 FM311100
                       18010KT P6SM -SHRA SCT015 BKN025 OVC040=
201010300538 TAF KBFI 300538Z 3006/3106 00000KT P6SM SKC FM301300 00000KT P6SM
                       SCT006 FM301700 14006KT P6SM SCT100 BKN200
                       FM302200 14006KT P6SM OVC070 FM310200 14006KT
                       P6SM -RA OVC045=
201010292320 TAF KBFI 292320Z 3000/3024 VRB03KT P6SM SCT040 FM301200 15005KT
                       P6SM SCT020 SCT050
                      TEMPO 3012/3016 BKN020 BKN050 FM301700 17007KT
                       P6SM BKN040 OVC100=
201010291720 TAF KBFI 291720Z 2918/3018 15005KT P6SM BKN040 FM292200 VRB03KT
                       P6SM SCT050 FM301200 15005KT P6SM SCT020
                       SCT050
                      TEMPO 3012/3016 BKN020 BKN050 FM301700 17007KT
                       P6SM BKN040 OVC100=
201010291157 KBFI 291157Z 2912/3012 14005KT P6SM VCSH SCT025 BKN050
                      TEMPO 2912/2914 BKN025 FM291400 15004KT P6SM
                       BKN040 FM292100 15005KT P6SM SCT060 FM300000
                       06004KT P6SM SCT100=
201010291126 TAF KBFI 291126Z 2912/3012 14005KT P6SM VCSH SCT025 BKN050 FM291400
                       15004KT P6SM BKN040 FM292100 15005KT P6SM
                       SCT060 FM300000 06004KT P6SM SCT100=
201010290526 TAF KBFI 290526Z 2906/3006 11005KT P6SM VCSH SCT035 OVC050
                      TEMPO 2906/2909 -SHRA BKN035 FM290900 07005KT
                       P6SM OVC035 FM291500 16004KT P6SM OVC025
                       FM292000 17005KT P6SM SCT035 FM300000 05004KT
                       P6SM FEW250=
201010282337 TAF KBFI 282337Z 2900/2924 13005KT P6SM VCSH BKN030 OVC060 FM290200
                       07005KT P6SM OVC040 FM291500 15003KT P6SM
                       OVC020 FM292000 16004KT P6SM SCT035 SCT200=
201010281733 TAF KBFI 281733Z 2818/2918 14003KT P6SM VCSH OVC050 FM282000 11006KT
                       P6SM BKN040 BKN060 FM290200 07005KT P6SM
                       OVC040 FM291500 15003KT P6SM OVC020=
201010281128 TAF KBFI 281128Z 2812/2912 12008KT P6SM -RA SCT050 BKN060 OVC100
                       FM281400 11008KT P6SM -RA SCT030 BKN040
                       OVC070 FM282000 11006KT P6SM BKN040 BKN060
                       FM290200 07005KT P6SM OVC040=
201010280536 TAF KBFI 280536Z 2806/2906 13010G18KT P6SM BKN100 OVC200 FM281000
                       10007KT P6SM SCT050 BKN100 OVC150 FM281400
                       10005KT P6SM -RA SCT030 BKN040 OVC070 FM282100
                       09006KT P6SM VCSH BKN040 BKN060 FM290000
                       06005KT P6SM OVC040=
201010272339 TAF KBFI 272339Z 2800/2824 36005KT P6SM OVC250 FM280600 02005KT
                       P6SM SCT070 BKN100 OVC150 FM281000 02005KT
                       P6SM SCT050 BKN100 OVC150
                      PROB30 2810/2814 -RA FM281400 13006KT P6SM
                       -RA SCT035 BKN045 OVC070 FM282100 17006KT
                       P6SM VCSH BKN035 BKN060=
201010271735 TAF KBFI 271735Z 2718/2818 02004KT P6SM SCT250 FM280600 02005KT
                       P6SM SCT070 BKN100 OVC150 FM281100 02005KT
                       P6SM SCT050 BKN100 OVC150
                      PROB30 2811/2815 -RA FM281500 06006KT P6SM
                       -RA SCT035 BKN045 OVC070=
201010271348 KBFI 271348Z 2714/2812 16005KT P6SM BKN015 BKN060
                      TEMPO 2714/2718 SCT018 BKN080 FM271800 VRB04KT
                       P6SM BKN025 OVC050
                      TEMPO 2718/2720 SCT028 BKN070 FM272000 04006KT
                       P6SM SCT025 SCT250 FM272200 05006KT P6SM
                       SCT100 SCT250 FM280600 06007KT P6SM SCT100
                       BKN250=
201010271139 TAF KBFI 271139Z 2712/2812 14005KT P6SM BKN009 OVC012 FM271800
                       VRB04KT P6SM BKN012 OVC020 FM272000 04006KT
                       P6SM SCT025 SCT250 FM272200 05006KT P6SM
                       SCT100 SCT250 FM280600 06007KT P6SM SCT100
                       BKN250=
201010270525 TAF KBFI 270525Z 2706/2806 15005KT P6SM OVC010 FM271800 VRB04KT
                       P6SM BKN015 OVC020 FM272000 04006KT P6SM
                       SCT030 FM272200 05006KT P6SM SCT250=
201010262335 TAF KBFI 262335Z 2700/2724 13007KT 5SM BR VCSH OVC015
                      TEMPO 2700/2702 4SM -SHRA FM270400 15005KT
                       P6SM VCSH BKN012 FM271800 12003KT P6SM SCT025
                       FM272300 02005KT P6SM FEW030=
201010262020 KBFI 262020Z 2620/2718 14012KT P6SM -SHRA SCT010 BKN015 OVC025
                       TEMPO 2620/2622 3SM SHRA BR BKN010 OVC025
                       FM270000 20010KT P6SM VCSH BKN028 BKN050
                       FM270300 19005KT P6SM BKN028=
201010261733 TAF KBFI 261733Z 2618/2718 17014G23KT P6SM -RA FEW030 BKN035 OVC060
                       TEMPO 2618/2620 3SM SHRA BR BKN020 OVC030
                       FM262000 21012KT P6SM -SHRA BKN025 OVC040
                       FM270000 20010KT P6SM VCSH BKN028 BKN050
                       FM270300 19005KT P6SM BKN028=
201010261130 TAF KBFI 261130Z 2612/2712 18012G20KT P6SM -SHRA SCT025 BKN035
                       BKN100
                      TEMPO 2612/2616 BKN020 FM261800 21012G20KT
                       P6SM -SHRA BKN030 BKN050 FM270000 20010KT
                       P6SM VCSH BKN030 BKN050 FM270300 19008KT
                       P6SM BKN035 FM270900 17005KT P6SM BKN030=
201010260525 TAF KBFI 260525Z 2606/2706 18012G20KT P6SM -SHRA SCT035 SCT050
                       BKN100 FM261000 17008KT P6SM -SHRA BKN025
                       OVC045 FM261800 18010KT P6SM -SHRA BKN045
                       BKN060=
201010252340 TAF KBFI 252340Z 2600/2624 20011G20KT P6SM -SHRA BKN045 BKN070
                       FM260300 19010KT P6SM -SHRA BKN050 BKN080
                       FM260800 17008KT P6SM -SHRA BKN025 OVC045
                       FM261800 18010KT P6SM -SHRA BKN045 BKN060=
201010251737 TAF KBFI 251737Z 2518/2618 17018G30KT P6SM -SHRA SCT015 BKN020
                       OVC035 FM260100 18012G22KT P6SM -SHRA BKN028
                       OVC040 FM260700 16008KT P6SM -SHRA BKN012
                       OVC020=
201010251120 TAF KBFI 251120Z 2512/2612 16012G21KT 6SM -SHRA BKN030 OVC045 FM251800
                       17015G28KT 6SM SHRA SCT030 BKN040 BKN050
                       FM260300 18012G22KT P6SM -SHRA SCT030 BKN045
                       BKN060 FM260800 16008KT P6SM -SHRA BKN030
                       OVC045=
201010250520 TAF KBFI 250520Z 2506/2606 17015G22KT P6SM -SHRA FEW023 BKN040
                       OVC060 FM251300 17015G25KT 6SM SHRA SCT018
                       BKN030 BKN050 FM251800 19018G28KT P6SM -SHRA
                       SCT030 BKN045 BKN060 FM260300 18012G22KT
                       P6SM -SHRA SCT030 BKN045 BKN060=
201010242336 TAF KBFI 242336Z 2500/2524 18015G25KT P6SM -SHRA SCT035 BKN050
                       BKN080
                      TEMPO 2500/2504 SHRA BKN030CB OVC050 FM250400
                       18015G25KT P6SM -SHRA SCT035 BKN050 BKN080
                       TEMPO 2504/2507 SHRA BKN030CB OVC050 FM250900
                       16015G25KT P6SM -SHRA BKN030 BKN050 FM251800
                       29015G25KT P6SM -SHRA SCT035 BKN050 BKN080=
201010241735 TAF KBFI 241735Z 2418/2518 17012G22KT P6SM -SHRA SCT035 BKN050
                       OVC080
                      TEMPO 2418/2422 SHRA BKN035CB OVC050 FM242200
                       20012G22KT P6SM -SHRA SCT035 BKN050 OVC080
                       TEMPO 2422/2502 SHRA BKN035CB OVC050 FM250900
                       16015G25KT P6SM -SHRA BKN022 OVC035 FM251700
                       21015G25KT P6SM -SHRA SCT025 BKN040 BKN050=
201010241507 TAF AMD KBFI 241507Z 2415/2512 16010G22KT P6SM -SHRA SCT040 BKN050
                       OVC080
                      TEMPO 2415/2419 SHRA BKN040CB OVC050 FM241900
                       17010G22KT P6SM -SHRA SCT040 BKN050 OVC080
                       TEMPO 2419/2423 SHRA BKN040CB OVC050 FM250800
                       18017G25KT P6SM -SHRA BKN020 OVC035=
201010241120 TAF KBFI 241120Z 2412/2512 12004KT 5SM RA BR SCT035 BKN045 OVC060
                       FM241330 18012KT P6SM -SHRA SCT023 BKN035
                       OVC050 FM250800 18017G25KT P6SM -SHRA BKN020
                       OVC035=
201010240901 KBFI 240901Z 2409/2506 13004KT P6SM -RA OVC050 FM241100 17012KT
                       P6SM -SHRA BKN030 OVC040 FM242000 17012KT
                       P6SM -SHRA SCT025 OVC035=
201010240526 TAF KBFI 240526Z 2406/2506 12006KT P6SM -RA OVC045 FM240900 14010KT
                       4SM RA BR SCT018 OVC030 FM241500 16010KT
                       P6SM -SHRA BKN020 OVC035 FM242000 17012KT
                       P6SM -SHRA SCT020 OVC035=
201010232342 TAF KBFI 232342Z 2400/2424 15008KT P6SM VCSH SCT040 OVC060
                      TEMPO 2401/2405 6SM -RA BR FM240500 14008KT
                       5SM -RA BR SCT035 OVC045 FM240900 15006KT
                       4SM RA BR SCT018 OVC030 FM241500 16012G20KT
                       P6SM -SHRA BKN020 OVC035 FM242000 17012KT
                       5SM -SHRA BR SCT020 OVC030=
201010231744 TAF KBFI 231744Z 2318/2418 14006KT P6SM VCSH BKN060 FM240000 15008KT
                       P6SM VCSH SCT040 OVC060 FM240600 14008KT
                       5SM -RA BR SCT035 OVC045 FM240900 15006KT
                       4SM RA BR SCT020 OVC035 FM241600 16010G18KT
                       P6SM -RA BKN020 OVC035=
201010231528 KBFI 231528Z 2315/2412 15004KT P6SM OVC050
                      TEMPO 2315/2318 6SM -RA BR FM231800 14006KT
                       P6SM BKN060 FM240200 VRB03KT P6SM -RA OVC050
                       FM240800 VRB03KT P6SM -RA OVC035=
201010231120 TAF KBFI 231120Z 2312/2412 00000KT P6SM OVC050
                      TEMPO 2312/2316 -RA FM231800 14006KT P6SM
                       BKN060 FM240200 VRB03KT P6SM -RA OVC050
                       FM240800 VRB03KT P6SM -RA OVC035=
201010230901 TAF AMD KBFI 230901Z 2309/2406 00000KT P6SM FEW045 BKN060 OVC110
                       FM231200 12005KT P6SM -RA SCT030 OVC045
                       FM231800 14006KT P6SM BKN060 FM240200 VRB03KT
                       P6SM -RA OVC050=
201010230521 TAF KBFI 230521Z 2306/2406 00000KT P6SM FEW045 OVC120 FM230800
                       00000KT P6SM -RA BKN060 OVC100 FM231200
                       12005KT P6SM -RA SCT030 OVC045
                      TEMPO 2314/2318 BKN030 OVC045 FM231800 14006KT
                       P6SM BKN060 FM240200 VRB03KT P6SM -RA OVC050=
201010222332 TAF KBFI 222332Z 2300/2324 20004KT P6SM SCT070 BKN200 FM230400
                       VRB03KT P6SM BKN100 OVC150 FM230800 13002KT
                       P6SM -RA BKN060 OVC100 FM231200 12005KT
                       P6SM -RA SCT030 OVC045
                      TEMPO 2314/2318 BKN030 OVC045 FM231800 14006KT
                       P6SM OVC050=
201010221729 TAF KBFI 221729Z 2218/2318 16007KT P6SM VCSH BKN080 BKN200 FM222100
                       20006KT P6SM SCT080 BKN200 FM230300 VRB03KT
                       P6SM BKN100 OVC150 FM230800 13002KT P6SM
                       -RA BKN060 OVC100 FM231200 12005KT P6SM
                       -RA SCT030 OVC045=
201010221120 TAF KBFI 221120Z 2212/2312 16007KT P6SM VCSH SCT015 BKN040 FM221900
                       20008KT P6SM SCT050 BKN150 FM230300 00000KT
                       P6SM BKN120 FM230800 00000KT P6SM -RA OVC040=
201010221001 KBFI 221001Z 2210/2306 VRB03KT P6SM -RA SCT016 BKN022 OVC028 FM221200
                       18005KT P6SM -SHRA SCT025 BKN040 FM221900
                       20008KT P6SM SCT050 BKN150 FM230300 00000KT
                       P6SM BKN120=
201010220530 TAF KBFI 220530Z 2206/2306 13003KT P6SM BKN070 OVC120 FM220700
                       16006KT P6SM -RA SCT020 OVC040 FM221500
                       17006KT P6SM -SHRA SCT025 BKN040 FM221900
                       20008KT P6SM SCT050 BKN150 FM230300 00000KT
                       P6SM BKN120=
201010212323 TAF KBFI 212323Z 2200/2224 17008KT P6SM FEW020 BKN040 BKN120 FM220800
                       16006KT P6SM -RA SCT020 OVC040 FM221500
                       18006KT P6SM SCT025 OVC050
                      PROB30 2215/2219 -SHRA FM221900 20008KT P6SM
                       SCT050 BKN100=
201010211726 TAF KBFI 211726Z 2118/2218 16005KT 5SM BR OVC005 FM211900 19005KT
                       P6SM SCT006 BKN010 FM212000 20005KT P6SM
                       SCT035 FM220400 17005KT P6SM SCT045 BKN100
                       BKN200 FM220800 17006KT P6SM -RA SCT020
                       OVC040=
201010211303 KBFI 211303Z 2113/2212 VRB03KT 6SM BR FEW005
                      TEMPO 2114/2118 2SM BR BKN003 FM211800 20004KT
                       P6SM FEW025 SCT250 FM220400 17005KT P6SM
                       SCT045 BKN100 BKN200 FM220800 17006KT P6SM
                       -RA SCT020 OVC040=
201010211120 TAF KBFI 211120Z 2112/2212 00000KT 6SM BR SKC FM211300 VRB03KT
                       5SM BR BKN005
                      TEMPO 2114/2118 2SM BR BKN003 FM211800 20004KT
                       P6SM FEW025 SCT250 FM220400 17005KT P6SM
                       SCT045 BKN100 BKN200 FM220800 17006KT P6SM
                       -RA SCT020 OVC040=
201010210521 TAF KBFI 210521Z 2106/2206 00000KT P6SM SKC FM211400 VRB03KT 5SM
                       BR BKN005
                      TEMPO 2114/2118 2SM BR BKN003 FM211800 20004KT
                       P6SM SCT250 FM220400 17005KT P6SM SCT045
                       BKN100 BKN200=
201010202322 TAF KBFI 202322Z 2100/2124 32003KT P6SM FEW250 FM210300 00000KT
                       P6SM FEW250 FM211400 VRB03KT 1 1/2SM BR
                       BKN003 FM211800 20004KT P6SM SCT250=
201010201728 TAF KBFI 201728Z 2018/2118 32004KT P6SM SKC FM210300 VRB02KT P6SM
                       FEW250 FM211400 VRB03KT 1 1/2SM BR BKN003=
201010201128 TAF KBFI 201128Z 2012/2112 00000KT P6SM SKC
                      TEMPO 2013/2017 3SM BR BKN004 FM201700 VRB03KT
                       P6SM SKC FM202100 32004KT P6SM SCT250=
201010200520 TAF KBFI 200520Z 2006/2106 00000KT P6SM SKC FM201300 00000KT 3SM
                       BR BKN004 FM201700 VRB03KT P6SM SKC FM202100
                       32004KT P6SM SKC=
201010192322 TAF KBFI 192322Z 2000/2024 29005KT P6SM FEW250 FM200300 00000KT
                       P6SM SKC FM201300 00000KT 3SM BR BKN004
                       FM201700 VRB03KT P6SM SKC FM202100 32004KT
                       P6SM SKC=
201010191722 TAF KBFI 191722Z 1918/2018 00000KT P6SM SKC FM192200 30004KT P6SM
                       SCT250 FM200300 00000KT P6SM SKC FM201300
                       00000KT 3SM BR BKN004=
201010191319 KBFI 191319Z 1913/2012 00000KT 4SM BR OVC004
                      TEMPO 1913/1916 1 1/2SM BR FM191700 VRB03KT
                       6SM BR HZ SCT007 FM191800 VRB03KT P6SM SKC
                       FM192200 30004KT P6SM SCT250 FM200300 00000KT
                       P6SM SKC=
201010191255 KBFI 191255Z 1913/2012 00000KT 5SM BR HZ SCT004
                      TEMPO 1913/1916 BKN004 FM191700 VRB03KT P6SM
                       SKC FM192200 30004KT P6SM SCT250 FM200300
                       00000KT P6SM SKC=
201010191120 TAF KBFI 191120Z 1912/2012 00000KT P6SM SKC
                      TEMPO 1912/1916 5SM BR BKN006 FM192200 30004KT
                       P6SM SCT250 FM200300 00000KT P6SM SKC=
201010190552 TAF KBFI 190552Z 1906/2006 00000KT P6SM SCT250
                      TEMPO 1912/1916 5SM BR SCT006 BKN250 FM192200
                       30004KT P6SM SCT250=
201010182324 TAF KBFI 182324Z 1900/1924 30004KT P6SM BKN250 FM190200 00000KT
                       P6SM BKN250
                      TEMPO 1912/1916 5SM BR SCT006 BKN250 FM192200
                       30004KT P6SM SCT250=
201010181734 TAF KBFI 181734Z 1818/1918 VRB03KT P6SM BKN200 FM182200 32004KT
                       P6SM BKN200 FM190200 00000KT P6SM BKN200
                       TEMPO 1912/1916 5SM BR SCT006 BKN200=
201010181124 TAF KBFI 181124Z 1812/1912 00000KT P6SM BKN200
                      TEMPO 1813/1817 5SM BR SCT005 OVC200 FM181800
                       31003KT P6SM BKN200 FM190200 04003KT P6SM
                       SCT200=
201010180529 TAF KBFI 180529Z 1806/1906 00000KT P6SM SCT200
                      TEMPO 1813/1817 5SM BR SCT005 OVC200 FM181800
                       31003KT P6SM SCT200=
201010172320 TAF KBFI 172320Z 1800/1824 33005KT P6SM SKC FM180600 VRB03KT P6SM
                       BKN200
                      TEMPO 1813/1817 5SM BR SCT005 OVC200=
201010171755 KBFI 171755Z 1718/1818 VRB03KT P6SM SCT008
                      TEMPO 1718/1719 4SM BR BKN005 FM171900 36006KT
                       P6SM SCT250 FM180600 VRB03KT P6SM BKN200
                       TEMPO 1813/1817 5SM BR SCT005 OVC200=
201010171724 TAF KBFI 171724Z 1718/1818 VRB03KT P6SM BKN006
                      TEMPO 1718/1719 4SM BR OVC005 FM171900 36006KT
                       P6SM SCT250 FM180600 VRB03KT P6SM BKN200
                       TEMPO 1813/1817 5SM BR SCT005 OVC200=
201010171501 KBFI 171501Z 1715/1812 00000KT 5SM BR SCT005
                      TEMPO 1715/1717 1SM BR OVC003 FM171800 36006KT
                       P6SM SKC FM181100 VRB03KT 5SM BR SCT005=
201010171322 KBFI 171322Z 1713/1812 00000KT P6SM OVC005
                      TEMPO 1713/1717 3SM BR FM171800 VRB02KT P6SM
                       SCT008 FM171900 34005KT P6SM SKC=
201010171121 KBFI 171121Z 1711/1812 14004KT P6SM SCT008
                      TEMPO 1712/1716 3SM BR BKN007 FM171900 34005KT
                       P6SM SCT010 FM172000 34006KT P6SM SKC=
201010171120 TAF KBFI 171120Z 1712/1812 14005KT P6SM SCT009 FM171300 00000KT
                       P6SM VCFG BKN008
                      TEMPO 1714/1717 3SM BR OVC008 FM171900 34005KT
                       P6SM SCT010 FM172000 34006KT P6SM SKC=
201010170558 TAF KBFI 170558Z 1706/1806 00000KT P6SM SKC FM171300 00000KT P6SM
                       VCFG FEW015
                      TEMPO 1714/1717 BKN015 FM171900 34005KT P6SM
                       FEW015 FM172000 34006KT P6SM SKC=
201010162320 TAF KBFI 162320Z 1700/1724 31005KT P6SM SKC FM171300 00000KT P6SM
                       VCFG FEW015
                      TEMPO 1714/1717 BKN015 FM171900 34005KT P6SM
                       FEW015 FM172000 34006KT P6SM SKC=
201010161720 TAF KBFI 161720Z 1618/1718 VRB03KT P6SM FEW018 FM162000 34005KT
                       P6SM SKC FM171300 00000KT P6SM FEW018
                      TEMPO 1714/1717 BKN018=
201010161322 KBFI 161322Z 1613/1712 02003KT P6SM VCFG BKN013 BKN250 FM161400
                       VRB03KT P6SM VCFG OVC010
                      TEMPO 1614/1617 SCT010 BKN250 FM161700 VRB03KT
                       P6SM SCT250 FM161900 34005KT P6SM SCT250=
201010161124 TAF KBFI 161124Z 1612/1712 35003KT P6SM VCFG BKN250 FM161700 VRB03KT
                       P6SM SCT250 FM161900 34005KT P6SM SCT250=
201010160541 TAF KBFI 160541Z 1606/1706 35003KT P6SM SKC FM161300 VRB03KT P6SM
                       VCFG FEW003 SCT150 FM161700 VRB03KT P6SM
                       SKC FM161900 34005KT P6SM SKC=
201010152320 TAF KBFI 152320Z 1600/1624 35006KT P6SM SCT200 FM160200 VRB03KT
                       P6SM SCT200 FM161300 VRB03KT P6SM VCFG FEW003
                       SCT150 FM161700 VRB03KT P6SM SKC FM161900
                       34005KT P6SM SKC=
201010151720 TAF KBFI 151720Z 1518/1618 33005KT P6SM SCT035 FM160200 VRB03KT
                       P6SM SKC FM161300 VRB03KT P6SM VCFG FEW007=
201010151408 KBFI 151408Z 1514/1612 VRB03KT P6SM SCT025 BKN045
                      TEMPO 1515/1518 BKN025 BKN045 FM151800 32006KT
                       P6SM SCT035 FM160200 VRB03KT P6SM SKC=
201010151133 TAF KBFI 151133Z 1512/1612 VRB03KT P6SM SCT018 BKN035
                      TEMPO 1512/1514 BKN018 BKN035 FM151400 VRB03KT
                       P6SM BKN018 BKN035 FM151800 32006KT P6SM
                       SCT035 FM160200 VRB03KT P6SM SKC=
201010150824 KBFI 150824Z 1508/1606 VRB03KT P6SM VCSH SCT018 OVC050
                      TEMPO 1508/1512 BKN018 OVC050 FM151200 VRB03KT
                       P6SM OVC020 FM152000 32006KT P6SM SCT035
                       FM160200 VRB03KT P6SM SKC=
201010150537 TAF KBFI 150537Z 1506/1606 VRB03KT P6SM SCT028 BKN050
                      TEMPO 1506/1508 BKN028 BKN050 FM151000 VRB03KT
                       P6SM VCFG SCT020
                      TEMPO 1510/1512 BKN020 FM151200 VRB03KT P6SM
                       OVC020 FM152000 32006KT P6SM SCT035 FM160200
                       VRB03KT P6SM SKC=
201010150410 KBFI 150410Z 1504/1524 VRB04KT P6SM FEW022 OVC040 FM150600 VRB04KT
                       P6SM OVC025 FM151200 18006KT P6SM OVC015
                       FM151900 34007KT P6SM SCT025=
201010150311 KBFI 150311Z 1503/1524 VRB04KT 5SM -RA BR FEW010 OVC025 FM150600
                       VRB04KT P6SM OVC025 FM151200 18006KT P6SM
                       OVC015 FM151900 34007KT P6SM SCT025=
201010150157 KBFI 150157Z 1502/1524 VRB03KT 5SM BR OVC020 FM150300 22008KT P6SM
                       BKN025 BKN030 FM151200 18006KT P6SM OVC015
                       FM151900 34007KT P6SM SCT025=
201010150100 KBFI 150100Z 1501/1524 VRB03KT 3SM -RA BR SCT008 OVC016 FM150300
                       22008KT P6SM BKN030 BKN050 FM151200 18006KT
                       P6SM OVC015 FM151900 34007KT P6SM SCT025=
201010142357 KBFI 142357Z 1500/1524 26009KT P6SM -RA BKN025 OVC050
                      TEMPO 1500/1501 3SM -RA BKN015 FM150300 22008KT
                       P6SM BKN030 BKN050 FM151200 18006KT P6SM
                       OVC015 FM151900 34007KT P6SM SCT025=
201010142321 TAF KBFI 142321Z 1500/1524 26009KT P6SM -RA BKN025 OVC050 FM150300
                       22008KT P6SM BKN030 BKN050 FM151200 18006KT
                       P6SM OVC015 FM151900 34007KT P6SM SCT025=
201010141725 TAF KBFI 141725Z 1418/1518 18007KT P6SM SCT120 BKN250 FM142100
                       21011KT P6SM SCT035 BKN060 OVC120 FM150000
                       21011KT P6SM -RA BKN035 OVC050 FM150400
                       19007KT P6SM BKN035 BKN050
                      PROB30 1504/1508 -SHRA FM151200 14005KT P6SM
                       OVC018=
201010141443 KBFI 141443Z 1415/1512 16006KT P6SM VCFG SCT008 SCT120 SCT250 FM141700
                       18008KT P6SM SCT015 BKN120 OVC250 FM142000
                       21011KT P6SM SCT035 BKN060 OVC120 FM150000
                       21011KT P6SM -RA BKN035 OVC050 FM150600
                       19007KT P6SM BKN035 BKN050
                      PROB30 1506/1509 -SHRA=
201010141121 TAF KBFI 141121Z 1412/1512 15006KT P6SM SKC FM141400 18006KT P6SM
                       VCFG SCT008 SCT120 SCT250
                      TEMPO 1414/1417 BKN008 BKN120 BKN250 FM141700
                       18008KT P6SM SCT015 BKN120 OVC250 FM142000
                       21011KT P6SM SCT035 BKN060 OVC120
                      PROB30 1421/1424 -RA BKN035 OVC060 FM150000
                       21011KT P6SM -RA BKN035 OVC050 FM150600
                       19007KT P6SM BKN035 BKN050
                      PROB30 1506/1509 -SHRA=
201010140550 TAF KBFI 140550Z 1406/1506 14006KT P6SM SKC FM141200 16006KT P6SM
                       VCFG FEW004 SCT250 FM141800 19008KT P6SM
                       FEW120 BKN250 FM142100 21011KT P6SM SCT060
                       BKN120 OVC250
                      PROB30 1421/1424 -RA BKN060 OVC120 FM150000
                       21011KT P6SM -RA SCT030 OVC060=
201010132320 TAF KBFI 132320Z 1400/1424 VRB03KT P6SM SKC FM140600 15005KT P6SM
                       BKN250 FM141200 17005KT P6SM BKN150 OVC250
                       FM142100 21007KT P6SM -RA BKN050 BKN120=
201010131731 TAF KBFI 131731Z 1318/1418 VRB03KT P6SM FEW250 FM140600 15005KT
                       P6SM BKN250 FM141200 17005KT P6SM BKN150
                       OVC250=
201010131602 KBFI 131602Z 1316/1412 30005KT 6SM BR SCT008 SCT250
                      TEMPO 1316/1317 3SM BR BKN006 FM131800 VRB03KT
                       P6SM SCT250 FM140600 15005KT P6SM BKN250=
201010131500 TAF AMD KBFI 131500Z 1315/1412 00000KT 6SM BR FEW008 SCT250
                      TEMPO 1315/1316 3SM BR BKN008 FM131800 VRB03KT
                       P6SM SCT250 FM140600 15005KT P6SM BKN250=
201010131121 TAF KBFI 131121Z 1312/1412 00000KT 5SM BR FEW006 SCT250
                      TEMPO 1312/1316 1SM BR VV002 FM131800 VRB03KT
                       P6SM SCT250 FM140600 15005KT P6SM BKN250=
201010130537 TAF KBFI 130537Z 1306/1406 00000KT P6SM SCT250 FM131000 00000KT
                       P6SM BCFG SCT250 FM131200 00000KT 5SM BR
                       SCT250
                      TEMPO 1312/1316 3/4SM BR VV001 FM131700 VRB03KT
                       P6SM SCT250=
201010122320 TAF KBFI 122320Z 1300/1324 32004KT P6SM SKC FM130100 VRB03KT P6SM
                       FEW200 FM131100 00000KT 4SM BR SKC FM131300
                       00000KT 1/2SM FG VV001 FM131900 VRB02KT
                       6SM HZ SCT004 FM132000 32005KT P6SM SKC=
201010121720 TAF KBFI 121720Z 1218/1318 VRB03KT P6SM BKN200 FM122100 32004KT
                       P6SM SCT200 FM130100 VRB03KT P6SM FEW200
                       FM131000 00000KT 4SM BR SKC FM131200 00000KT
                       1/2SM FG VV001=
201010121125 TAF KBFI 121125Z 1212/1312 VRB03KT P6SM BCFG BKN200 FM121700 VRB03KT
                       P6SM SCT200 FM122100 32004KT P6SM SKC FM130100
                       VRB03KT P6SM SKC FM130900 00000KT 6SM BR
                       SKC=
201010120859 KBFI 120859Z 1209/1306 VRB03KT P6SM FEW080 OVC200 FM121200 VRB03KT
                       P6SM VCFG FEW009 BKN200 FM121800 VRB03KT
                       P6SM BKN200 FM122100 32004KT P6SM SCT200
                       FM130100 VRB03KT P6SM SKC=
201010120520 TAF KBFI 120520Z 1206/1306 14005KT P6SM FEW080 BKN200 FM121000
                       VRB03KT P6SM VCFG BKN200 FM121200 VRB03KT
                       P6SM VCFG FEW009 BKN200 FM121800 VRB03KT
                       P6SM BKN200 FM122100 32004KT P6SM SCT200
                       FM130100 VRB03KT P6SM SKC=
201010112331 TAF KBFI 112331Z 1200/1224 20007KT P6SM SCT060
                      TEMPO 1202/1206 BKN060 FM120600 15003KT P6SM
                       BKN080 FM121300 VRB02KT P6SM SCT100 FM121600
                       VRB03KT P6SM FEW012 FM121900 32005KT P6SM
                       SCT250=
201010111747 TAF KBFI 111747Z 1118/1218 17006KT P6SM BKN013
                      TEMPO 1118/1119 SCT015 FM112000 22008KT P6SM
                       SCT040 SCT250 FM120200 16003KT P6SM BKN080
                       FM120700 14003KT P6SM BKN120 FM121300 VRB02KT
                       3SM BR BKN008 FM121700 32004KT P6SM SCT010=
201010111658 KBFI 111658Z 1117/1212 14004KT P6SM SCT015 SCT045
                      TEMPO 1117/1119 BKN015 BKN040 FM112000 22008KT
                       P6SM SCT040 BKN250 FM120200 16003KT P6SM
                       BKN080 FM120700 14003KT P6SM BKN120=
201010111139 TAF KBFI 111139Z 1112/1212 14004KT P6SM VCSH SCT020 BKN045 OVC070
                       TEMPO 1112/1116 BKN020 OVC040 FM111800 17005KT
                       P6SM SCT025 BKN250 FM112000 22008KT P6SM
                       SCT040 BKN250 FM120200 16003KT P6SM BKN080
                       FM120700 14003KT P6SM BKN120=
201010111023 KBFI 111023Z 1110/1206 00000KT P6SM VCSH BKN050 OVC070 FM111300
                       15003KT P6SM BKN022 FM111800 17005KT P6SM
                       SCT025 BKN250 FM112000 22008KT P6SM SCT040
                       BKN250 FM120200 16003KT P6SM BKN080=
201010110520 TAF KBFI 110520Z 1106/1206 00000KT P6SM VCSH OVC060 FM110800 VRB03KT
                       P6SM SCT080 FM111200 VRB03KT P6SM BKN016
                       FM111800 17005KT P6SM BKN025 FM112000 20006KT
                       P6SM SCT040=
201010102327 TAF KBFI 102327Z 1100/1124 06007KT P6SM VCSH SCT030 BKN050 FM110400
                       VRB03KT P6SM SCT050 FM110800 VRB03KT P6SM
                       SCT080 FM111200 VRB03KT P6SM BKN016 FM111800
                       17005KT P6SM BKN025 FM112000 20006KT P6SM
                       SCT040=
201010101939 KBFI 101939Z 1020/1118 16006KT P6SM SCT025 OVC050
                      TEMPO 1020/1024 5SM -SHRA BR BKN025 OVC040
                       FM110000 15005KT P6SM VCSH BKN030 BKN050
                       FM110400 VRB03KT P6SM VCSH SCT035 BKN050
                       FM110800 15004KT P6SM SCT080 FM111200 VRB03KT
                       P6SM BKN020=
201010101727 TAF KBFI 101727Z 1018/1118 14006KT P6SM VCSH SCT025 BKN050
                      TEMPO 1018/1020 BKN025 OVC050 FM102000 16006KT
                       P6SM VCSH SCT030 BKN050 FM102300 31007KT
                       P6SM VCSH SCT030 BKN050 FM110400 VRB03KT
                       P6SM VCSH SCT035 BKN050 FM110800 15004KT
                       P6SM SCT080 FM111200 VRB03KT P6SM BKN020=
201010101507 KBFI 101507Z 1015/1112 18006KT P6SM SCT025 OVC050
                      TEMPO 1015/1016 -RA BKN025 OVC045 FM101600
                       20008KT P6SM VCSH SCT030 BKN050
                      TEMPO 1016/1020 SCT030 SCT050 FM102300 30007KT
                       P6SM VCSH SCT030 BKN060 FM110400 VRB03KT
                       P6SM VCSH SCT040 BKN080 FM110800 15004KT
                       P6SM BKN250=
201010101230 KBFI 101230Z 1013/1112 20008G16KT P6SM -SHRA SCT020 BKN045 OVC080
                       TEMPO 1013/1015 3SM SHRA BR BKN018 OVC040
                       FM101500 20010G18KT P6SM -SHRA SCT020 OVC050
                       FM101800 22012KT P6SM VCSH BKN025 OVC060
                       FM110000 30007KT P6SM VCSH SCT030 BKN060
                       FM110400 VRB03KT P6SM VCSH SCT040 BKN080
                       FM110800 15004KT P6SM BKN250=
201010101130 TAF KBFI 101130Z 1012/1112 21009KT P6SM -SHRA SCT007 BKN017 OVC040
                       TEMPO 1012/1014 3SM SHRA BR BKN007 OVC015
                       FM101400 20010G18KT P6SM -SHRA OVC018 FM101800
                       22012KT P6SM VCSH BKN025 OVC060 FM110000
                       30007KT P6SM VCSH SCT030 BKN060 FM110400
                       VRB03KT P6SM VCSH SCT040 BKN080 FM110800
                       15004KT P6SM BKN250=
201010100530 TAF KBFI 100530Z 1006/1106 15004KT P6SM -RA OVC040 FM100800 16010KT
                       P6SM -RA OVC025
                      TEMPO 1008/1012 3SM -RA BR OVC015 FM101200
                       20010G18KT P6SM -SHRA OVC018 FM101800 22012KT
                       P6SM VCSH BKN025 OVC060 FM110000 30007KT
                       P6SM VCSH SCT030 BKN060 FM110400 VRB03KT
                       P6SM VCSH SCT040 BKN080=
201010100411 KBFI 100411Z 1004/1024 15010KT P6SM -RA SCT015 BKN040 OVC050
                      TEMPO 1004/1006 2SM RA BR OVC015 FM100600
                       16012KT 2SM RA BR OVC015 FM101200 18012KT
                       P6SM -SHRA BKN020 BKN035 FM101800 VRB05KT
                       P6SM VCSH BKN035 BKN060=
201010092320 TAF KBFI 092320Z 1000/1024 12008KT 4SM -RA BR SCT015 OVC030
                      TEMPO 1000/1004 2SM RA BR OVC015 FM100400
                       16012KT 2SM RA BR OVC015 FM101200 18012KT
                       P6SM -SHRA BKN020 BKN035 FM101800 VRB05KT
                       P6SM VCSH BKN035 BKN060=
201010091720 TAF KBFI 091720Z 0918/1018 VRB03KT P6SM SCT030 OVC045
                      TEMPO 0918/0921 -RA BKN030 OVC045 FM092100
                       13005KT 5SM -RA BR OVC030 FM100300 18010KT
                       5SM -RA BR OVC020 FM101300 20010KT P6SM
                       -SHRA BKN020 BKN035 FM101700 23007KT P6SM
                       VCSH BKN035 BKN060=
201010091304 KBFI 091304Z 0913/1012 15005KT P6SM -RA OVC050
                      TEMPO 0913/0915 4SM -RA BR BKN025 OVC040
                       FM091700 12003KT P6SM OVC030
                      TEMPO 0917/0921 -RA FM092100 VRB03KT 5SM
                       -RA BR OVC030 FM100300 20006KT 3SM -RA BR
                       OVC018=
201010091140 TAF KBFI 091140Z 0912/1012 16005KT 5SM -RA BR SCT013 BKN025 OVC040
                       TEMPO 0912/0916 2SM RA BR BKN013 OVC025
                       FM091700 12003KT P6SM OVC030
                      TEMPO 0917/0921 -RA FM092100 VRB03KT 5SM
                       -RA BR OVC030 FM100300 20006KT 3SM -RA BR
                       OVC018=
201010090540 TAF KBFI 090540Z 0906/1006 00000KT P6SM SCT050 OVC150 FM090700
                       18003KT P6SM -RA OVC040 FM091300 15003KT
                       P6SM -RA OVC018
                      TEMPO 0920/0924 4SM -RA BR=
201010082331 TAF KBFI 082331Z 0900/0924 22004KT P6SM SCT030 BKN050 BKN200 FM090600
                       15006KT P6SM BKN030 OVC070 FM090900 14005KT
                       P6SM -RA OVC030 FM091200 16007KT P6SM -RA
                       SCT011 OVC020=
201010081733 TAF KBFI 081733Z 0818/0918 15005KT P6SM SCT040 BKN050 OVC070
                      TEMPO 0818/0820 -RA BKN035 FM082000 21004KT
                       P6SM SCT035 OVC050 FM090000 25005KT P6SM
                       SCT040 OVC080 FM090600 16006KT P6SM -RA
                       OVC035 FM091200 14005KT P6SM -RA SCT012
                       OVC025=
201010081507 KBFI 081507Z 0815/0912 15004KT P6SM SCT035 BKN060 OVC080
                      TEMPO 0815/0819 -RA OVC035 FM081900 18004KT
                       P6SM SCT030 OVC050 FM090000 26004KT P6SM
                       SCT040 OVC080 FM090400 15006KT P6SM -RA
                       OVC040=
201010081120 TAF KBFI 081120Z 0812/0912 15004KT P6SM OVC060 FM081300 16003KT
                       P6SM OVC030 FM081800 18004KT P6SM SCT030
                       OVC050 FM090000 26004KT P6SM SCT040 OVC080
                       FM090400 15006KT P6SM -RA OVC040=
201010080540 TAF KBFI 080540Z 0806/0906 00000KT P6SM SCT035 OVC060 FM081200
                       16003KT P6SM OVC030 FM081800 18004KT P6SM
                       SCT030 OVC050 FM090000 26004KT P6SM SCT040
                       OVC080 FM090400 15006KT P6SM -RA OVC040=
201010072327 TAF KBFI 072327Z 0800/0824 16009KT P6SM BKN030 BKN050 OVC100 FM080300
                       16008KT P6SM BKN045 OVC100 FM080900 14004KT
                       P6SM OVC045 FM081300 14006KT P6SM -RA OVC030
                       FM082200 18006KT P6SM -SHRA OVC045=
201010071726 TAF KBFI 071726Z 0718/0818 14009KT P6SM BKN120 FM072300 16009KT
                       P6SM BKN100 FM080300 16008KT P6SM BKN045
                       OVC100 FM080900 14004KT P6SM OVC045 FM081200
                       14006KT P6SM -RA OVC030=
201010071127 TAF KBFI 071127Z 0712/0812 15006KT P6SM SKC FM071300 VRB02KT P6SM
                       SCT007
                      TEMPO 0713/0716 BKN007 FM071600 16003KT P6SM
                       SCT012 BKN250 FM071800 19005KT P6SM BKN250
                       FM072300 23008KT P6SM BKN040 BKN100 FM080300
                       17008KT P6SM OVC040 FM080900 14004KT P6SM
                       SCT010 OVC030=
201010070900 KBFI 070900Z 0709/0806 VRB02KT P6SM SKC FM071200 VRB02KT P6SM SCT007
                       TEMPO 0712/0716 BKN007 FM071600 16003KT
                       P6SM SCT012 BKN250 FM071800 19005KT P6SM
                       BKN250 FM072300 23008KT P6SM BKN040 BKN100
                       FM080300 17008KT P6SM OVC040=
201010070520 TAF KBFI 070520Z 0706/0806 00000KT P6SM SKC FM071200 16006KT P6SM
                       SCT015 BKN120
                      TEMPO 0712/0716 BKN015 OVC120 FM071600 16010KT
                       P6SM BKN020 BKN120 FM071800 18010KT P6SM
                       BKN035 BKN100 FM072100 23008KT P6SM BKN040
                       BKN100 FM080300 17008KT P6SM OVC040=
201010062320 TAF KBFI 062320Z 0700/0724 31007KT P6SM SKC FM070400 00000KT P6SM
                       SCT250 FM071200 16006KT P6SM SCT015 BKN120
                       TEMPO 0712/0715 BKN015 OVC120 FM071500 16010KT
                       P6SM BKN020 BKN120 FM071800 18010KT P6SM
                       BKN035 BKN100 FM072100 23008KT P6SM BKN040
                       BKN100=
201010061724 TAF KBFI 061724Z 0618/0718 33006KT P6SM SKC
                      TEMPO 0618/0619 4SM BR BKN004 FM070400 VRB03KT
                       P6SM SCT250 FM071200 16008KT P6SM BKN015
                       FM071600 18010KT P6SM OVC025=
201010061128 TAF KBFI 061128Z 0612/0712 00000KT P6SM FEW007
                      TEMPO 0612/0616 4SM BR BKN007 FM061900 31006KT
                       P6SM FEW250 FM070400 VRB03KT P6SM SCT250=
201010060525 TAF KBFI 060525Z 0606/0706 VRB03KT P6SM FEW250
                      TEMPO 0613/0617 4SM BR BKN007 FM061900 31006KT
                       P6SM FEW250 FM070400 VRB03KT P6SM SCT250=
201010052320 TAF KBFI 052320Z 0600/0624 35007KT P6SM SKC FM060300 VRB03KT P6SM
                       SKC FM061300 03003KT P6SM SCT007
                      TEMPO 0614/0618 4SM BR BKN007 FM061900 31006KT
                       P6SM SKC=
201010051729 TAF KBFI 051729Z 0518/0618 VRB03KT P6SM SCT015 FM051900 35007KT
                       P6SM SKC FM060300 VRB03KT P6SM SKC FM061300
                       03003KT P6SM SCT007
                      TEMPO 0614/0618 4SM BR BKN007=
201010051713 KBFI 051713Z 0517/0612 VRB03KT P6SM SCT015
                      TEMPO 0517/0518 BKN015 FM051900 35007KT P6SM
                       SKC FM060300 VRB03KT P6SM SKC=
201010051504 KBFI 051504Z 0515/0612 00000KT P6SM FEW007 BKN012
                      TEMPO 0515/0518 3SM BR BKN007 FM051900 35007KT
                       P6SM FEW070 FM060300 VRB03KT P6SM SKC=
201010051123 TAF KBFI 051123Z 0512/0612 00000KT P6SM FEW060
                      TEMPO 0513/0517 4SM BR BKN004 BKN060 FM051900
                       35007KT P6SM FEW070 FM060300 VRB03KT P6SM
                       SKC=
201010050531 TAF KBFI 050531Z 0506/0606 VRB03KT P6SM SCT070
                      TEMPO 0514/0518 4SM BR BKN004 FM051900 35007KT
                       P6SM FEW070 FM060300 VRB03KT P6SM SKC=
201010042337 TAF KBFI 042337Z 0500/0524 35004KT P6SM BKN045 BKN070 FM050600
                       VRB03KT P6SM SCT060 FM051200 04005KT 4SM
                       BR BKN003
                      TEMPO 0514/0518 1SM BR OVC001 FM051900 33006KT
                       3SM BR SCT012 FM052100 35007KT P6SM SCT070=
201010041738 TAF KBFI 041738Z 0418/0518 14008KT P6SM SCT030 BKN050
                      TEMPO 0418/0422 BKN030 FM042200 30005KT P6SM
                       FEW035 BKN060 FM050000 35004KT P6SM SCT040
                       SCT060 FM050600 VRB03KT P6SM SCT060 FM051200
                       04005KT 4SM BR BKN003
                      TEMPO 0514/0518 1SM BR OVC001=
201010041413 KBFI 041413Z 0414/0512 16003KT P6SM SCT025 BKN035
                      TEMPO 0414/0417 BKN025 FM041700 18004KT P6SM
                       BKN035 OVC060 FM042000 24006KT P6SM BKN035
                       BKN060 FM050000 34006KT P6SM SCT040 BKN070
                       FM050700 VRB03KT P6SM SCT035 BKN060=
201010041122 TAF KBFI 041122Z 0412/0512 16003KT P6SM OVC018 FM041700 18004KT
                       P6SM BKN028 OVC060 FM042000 24006KT P6SM
                       BKN035 BKN060 FM050000 34006KT P6SM SCT040
                       BKN070 FM050700 VRB03KT P6SM SCT035 BKN060=
201010040529 TAF KBFI 040529Z 0406/0506 21004KT P6SM OVC070
                      TEMPO 0406/0410 BKN035 OVC070 FM041000 16003KT
                       P6SM BKN030 OVC050 FM042000 24006KT P6SM
                       BKN035 BKN050 FM050000 34006KT P6SM SCT040
                       BKN070=
201010040121 KBFI 040121Z 0401/0424 14008KT P6SM SCT030 OVC060 FM040700 17003KT
                       P6SM BKN040 OVC090 FM041500 17005KT P6SM
                       VCSH OVC030 FM042000 20006KT P6SM BKN035
                       BKN050=
201010032334 TAF KBFI 032334Z 0400/0424 14004KT P6SM BKN030 OVC050 FM040700
                       17003KT P6SM BKN040 OVC090 FM041500 17005KT
                       P6SM VCSH OVC030 FM042000 20006KT P6SM BKN035
                       BKN050=
201010032035 KBFI 032035Z 0321/0418 VRB04KT P6SM BKN023 BKN050 FM032300 16003KT
                       P6SM SCT025 BKN050 FM040700 17003KT P6SM
                       BKN040 OVC090 FM041500 17005KT P6SM VCSH
                       OVC030=
201010031759 KBFI 031759Z 0318/0418 00000KT P6SM SCT013 OVC040
                      TEMPO 0318/0319 BKN013 OVC035 FM032100 21006KT
                       P6SM BKN045 FM040700 17003KT P6SM BKN040
                       OVC090 FM041500 17005KT P6SM VCSH OVC030=
201010031744 TAF KBFI 031744Z 0318/0418 00000KT P6SM SCT013 OVC040 FM032100
                       21006KT P6SM BKN045 FM040700 17003KT P6SM
                       BKN040 OVC090 FM041500 17005KT P6SM VCSH
                       OVC030=
201010031120 TAF KBFI 031120Z 0312/0412 00000KT P6SM OVC035 FM031800 19005KT
                       P6SM OVC040 FM032100 21006KT P6SM BKN040
                       OVC060 FM040700 17003KT P6SM OVC040=
201010030903 KBFI 030903Z 0309/0406 00000KT P6SM OVC035
                      TEMPO 0312/0316 BKN018 OVC030 FM031800 19005KT
                       P6SM OVC040 FM032100 21006KT P6SM BKN040
                       OVC060 FM040500 17003KT P6SM BKN028 OVC040=
201010030526 TAF KBFI 030526Z 0306/0406 VRB03KT P6SM OVC035 FM030900 19003KT
                       P6SM OVC020
                      TEMPO 0311/0315 BKN010 OVC018 FM031800 19005KT
                       P6SM BKN028 OVC040 FM032100 21006KT P6SM
                       BKN035 OVC045 FM040500 17003KT P6SM BKN023
                       OVC035=
201010022327 TAF KBFI 022327Z 0300/0324 31005KT P6SM SCT040
                      TEMPO 0300/0302 BKN035 FM030900 VRB03KT P6SM
                       OVC020 FM031300 18003KT P6SM OVC018 FM032100
                       20004KT P6SM VCSH BKN025 BKN045=
201010021732 TAF KBFI 021732Z 0218/0318 31003KT P6SM SCT019 OVC040
                      TEMPO 0218/0220 BKN019 OVC040 FM022200 32004KT
                       P6SM BKN040
                      TEMPO 0222/0302 SCT040 FM030900 VRB03KT P6SM
                       OVC030 FM031300 18003KT P6SM OVC018=
201010021504 KBFI 021504Z 0215/0312 00000KT P6SM OVC040 FM022200 32004KT P6SM
                       BKN040
                      TEMPO 0222/0302 SCT040 FM030900 VRB03KT P6SM
                       OVC030=
201010021132 TAF KBFI 021132Z 0212/0312 00000KT P6SM BKN025 OVC040
                      TEMPO 0212/0216 BKN013 OVC023 FM021900 27004KT
                       P6SM OVC029 FM022200 32004KT P6SM BKN040
                       TEMPO 0222/0302 SCT040 FM030900 VRB03KT
                       P6SM OVC030=
201010020901 KBFI 020901Z 0209/0306 00000KT P6SM OVC040
                      TEMPO 0212/0216 OVC020 FM021900 27004KT P6SM
                       OVC045 FM022200 32004KT P6SM SCT045=
201010020528 TAF KBFI 020528Z 0206/0306 23004KT P6SM OVC030 FM020900 VRB03KT
                       P6SM OVC022 FM021100 VRB03KT P6SM OVC012
                       TEMPO 0212/0216 5SM BR OVC008 FM021900 27004KT
                       P6SM OVC025 FM022200 32004KT P6SM SCT030=
201010020110 KBFI 020110Z 0201/0224 18006KT P6SM OVC025 FM021100 VRB03KT P6SM
                       OVC008
                      TEMPO 0212/0216 3SM BR BKN005 OVC008 FM022100
                       32004KT P6SM BKN030=
201010012337 TAF KBFI 012337Z 0200/0224 18008G15KT P6SM OVC025 FM021100 VRB03KT
                       P6SM OVC008
                      TEMPO 0212/0216 3SM BR BKN005 OVC008 FM022100
                       32004KT P6SM BKN030=
201010012100 KBFI 012100Z 0121/0218 16012G16KT P6SM SCT018 BKN027 FM021100 VRB03KT
                       P6SM OVC008=
201010011742 TAF KBFI 011742Z 0118/0218 17005KT 5SM BR OVC007 FM011900 18006KT
                       P6SM SCT010 FM012000 20006KT P6SM SKC FM021100
                       VRB03KT P6SM OVC008=
201010011636 KBFI 011636Z 0117/0212 16006KT P6SM SCT010
                      TEMPO 0117/0118 5SM BR OVC007 FM012100 22008KT
                       P6SM SCT030 FM020200 22008KT P6SM BKN040
                       FM020600 18006KT P6SM OVC030=
201010011125 TAF KBFI 011125Z 0112/0212 00000KT P6SM SKC FM011500 16006KT P6SM
                       SCT010 FM012100 22008KT P6SM SCT030 FM020200
                       22008KT P6SM BKN040 FM020600 18006KT P6SM
                       OVC030=
201010010520 TAF KBFI 010520Z 0106/0206 00000KT P6SM SKC FM011200 15005KT P6SM
                       VCFG FEW006 FM011500 17007KT P6SM SCT015
                       FM012100 21007KT P6SM SCT030 FM020200 24007KT
                       P6SM BKN040=