##########################################################
# Query made at 02/17/2025 01:05:00 UTC
# Time interval: from 02/01/2010 00:00  to 02/28/2010 23:59  UTC
##########################################################

##########################################################
# KBFI, Seattle, Seattle Boeing Field (United States)
# WMO index: -----. WIGOS ID: Unknown
# Latitude 47-32-45N. Longitude 122-18-49W. Altitude 5 m.
##########################################################

###################################
#  METAR/SPECI from KBFI
###################################
201002282353 METAR KBFI 282353Z 00000KT 10SM SCT050 14/05 A3002 RMK AO2 SLP166 T01390050 10144 20094 58006=
201002282253 METAR KBFI 282253Z 00000KT 10SM FEW050 BKN200 13/06 A3003 RMK AO2 SLP168 T01280056=
201002282153 METAR KBFI 282153Z 24003KT 10SM FEW060 BKN200 13/04 A3004 RMK AO2 SLP171 T01330044=
201002282053 METAR KBFI 282053Z 22004KT 10SM CLR 13/05 A3004 RMK AO2 SLP172 T01280050 58002=
201002281953 METAR KBFI 281953Z VRB04KT 10SM CLR 12/06 A3005 RMK AO2 SLP174 T01220061=
201002281853 METAR KBFI 281853Z 15004KT 10SM CLR 11/07 A3005 RMK AO2 SLP176 T01110067=
201002281753 METAR KBFI 281753Z 15005KT 10SM SCT027 BKN100 09/07 A3005 RMK AO2 SLP174 T00940067 10094 20072 53013=
201002281653 METAR KBFI 281653Z 15004KT 10SM OVC027 08/06 A3003 RMK AO2 SLP168 T00830061=
201002281553 METAR KBFI 281553Z 00000KT 10SM OVC027 07/06 A3002 RMK AO2 SLP166 T00720056=
201002281453 METAR KBFI 281453Z AUTO 12003KT 10SM OVC027 08/06 A3001 RMK AO2 SLP161 T00780061 51010 TSNO=
201002281410 SPECI KBFI 281410Z AUTO 00000KT 10SM BKN029 08/06 A3000 RMK AO2 TSNO=
201002281410 SPECI KBFI 281410Z AUTO 00000KT 10SM BKN029 08/06 A3000 RMK AO2 TSNO=
201002281353 METAR KBFI 281353Z AUTO 00000KT 10SM SCT031 08/06 A3000 RMK AO2 SLP158 T00780056 TSNO=
201002281253 METAR KBFI 281253Z 00000KT 10SM OVC031 08/06 A3000 RMK AO2 SLP157 T00780061=
201002281153 METAR KBFI 281153Z 14003KT 10SM BKN033 07/06 A2998 RMK AO2 SLP150 70005 T00720056 10094 20061 51004=
201002281053 METAR KBFI 281053Z 15004KT 10SM OVC031 08/06 A2997 RMK AO2 SLP149 T00830061=
201002280953 METAR KBFI 280953Z 16003KT 10SM SCT039 07/05 A2997 RMK AO2 SLP150 T00670050=
201002280853 METAR KBFI 280853Z 15004KT 10SM BKN045 08/06 A2996 RMK AO2 SLP146 T00830056 51016=
201002280753 METAR KBFI 280753Z VRB04KT 10SM BKN100 09/06 A2994 RMK AO2 SLP139 T00890061 401330083=
201002280653 METAR KBFI 280653Z 17007KT 10SM BKN110 09/07 A2994 RMK AO2 SLP138 T00890067=
201002280553 METAR KBFI 280553Z 19004KT 10SM CLR 09/07 A2992 RMK AO2 SLP130 60000 T00890067 10128 20089 53019=
201002280453 METAR KBFI 280453Z 16009KT 10SM BKN100 09/07 A2989 RMK AO2 SLP122 T00940067=
201002280353 METAR KBFI 280353Z 19006KT 10SM FEW060 OVC100 10/07 A2988 RMK AO2 SLP118 T01000067=
201002280253 METAR KBFI 280253Z 16007KT 10SM SCT042 BKN050 OVC095 11/07 A2986 RMK AO2 RAB00E10 SLP111 P0000 60000 T01060072 53021=
201002280153 METAR KBFI 280153Z 23008KT 10SM FEW026 SCT041 OVC090 11/07 A2984 RMK AO2 RAB34E53 SLP106 P0000 T01060072=
201002280053 METAR KBFI 280053Z VRB05KT 10SM SCT043 BKN055 OVC080 12/07 A2981 RMK AO2 SLP094 T01220072=
201002272353 METAR KBFI 272353Z 15008KT 10SM SCT049 BKN055 OVC080 13/08 A2980 RMK AO2 SLP090 60002 T01280078 10133 20111 53006=
201002272253 METAR KBFI 272253Z 15008KT 10SM OVC048 13/08 A2979 RMK AO2 RAE35 SLP087 P0000 T01280083=
201002272153 METAR KBFI 272153Z 16008KT 10SM -RA BKN039 OVC055 12/08 A2978 RMK AO2 SLP085 P0002 T01170078=
201002272053 METAR KBFI 272053Z 18006KT 10SM -RA BKN042 BKN050 OVC060 12/07 A2978 RMK AO2 RAB1958 SLP084 P0000 60000 T01170072 51013=
201002271953 METAR KBFI 271953Z 21003KT 10SM OVC050 12/06 A2977 RMK AO2 RAB32E48 SLP081 P0000 T01220061=
201002271853 METAR KBFI 271853Z 21005KT 10SM BKN050 BKN060 13/06 A2975 RMK AO2 SLP075 T01330056=
201002271753 METAR KBFI 271753Z 16008KT 10SM BKN050 OVC060 13/06 A2974 RMK AO2 SLP070 60003 T01280061 10128 20083 51020=
201002271653 METAR KBFI 271653Z 10005KT 10SM SCT060 11/07 A2972 RMK AO2 SLP064 P0001 T01110072=
201002271553 METAR KBFI 271553Z 14003KT 10SM SCT048 OVC100 09/07 A2970 RMK AO2 SLP058 T00940072=
201002271453 METAR KBFI 271453Z 00000KT 10SM FEW060 OVC095 08/07 A2968 RMK AO2 RAE34 SLP050 P0000 60002 T00830072 51016=
201002271353 METAR KBFI 271353Z 00000KT 8SM -RA OVC055 09/07 A2967 RMK AO2 SLP046 P0002 T00890072=
201002271253 METAR KBFI 271253Z 00000KT 10SM -RA BKN070 OVC100 09/07 A2965 RMK AO2 RAB00E23B42 SLP040 P0000 T00940072=
201002271153 METAR KBFI 271153Z 13003KT 10SM BKN050 OVC075 09/07 A2963 RMK AO2 RAE06 SLP034 P0000 60008 70032 T00890072 10094 20083 51020=
201002271053 METAR KBFI 271053Z 00000KT 10SM -RA OVC046 09/07 A2961 RMK AO2 SLP026 P0002 T00940072=
201002270953 METAR KBFI 270953Z 13004KT 7SM -RA BKN041 OVC050 09/07 A2961 RMK AO2 SLP025 P0001 T00890072=
201002270853 METAR KBFI 270853Z VRB03KT 10SM -RA OVC055 09/07 A2957 RMK AO2 SLP014 P0001 60005 T00890072 53016=
201002270753 METAR KBFI 270753Z 00000KT 7SM -RA BKN050 OVC070 09/07 A2956 RMK AO2 SLP011 P0001 T00890072 401170083=
201002270653 METAR KBFI 270653Z 00000KT 10SM -RA OVC065 09/07 A2953 RMK AO2 SLP000 P0003 T00890072=
201002270553 METAR KBFI 270553Z 00000KT 6SM -RA BR FEW046 OVC055 09/08 A2953 RMK AO2 SLP998 P0004 60011 T00940078 10117 20094 56007=
201002270453 METAR KBFI 270453Z 00000KT 7SM -RA OVC060 09/08 A2953 RMK AO2 SLP999 P0001 T00940078=
201002270353 METAR KBFI 270353Z 33003KT 10SM -RA OVC060 09/08 A2953 RMK AO2 SLP000 P0002 T00940078=
201002270253 METAR KBFI 270253Z VRB03KT 9SM -RA OVC055 10/08 A2955 RMK AO2 SLP005 P0002 60004 T01000078 56012=
201002270153 METAR KBFI 270153Z 32003KT 10SM -RA OVC055 10/07 A2955 RMK AO2 SLP007 P0000 T01000072=
201002270053 METAR KBFI 270053Z 00000KT 10SM -RA FEW040 OVC055 11/06 A2957 RMK AO2 SLP013 P0002 T01110061=
201002262353 METAR KBFI 262353Z 17003KT 10SM -RA OVC060 12/06 A2958 RMK AO2 SLP017 P0000 60003 T01170061 10117 20111 56022=
201002262253 METAR KBFI 262253Z 10004KT 10SM -RA SCT039 OVC055 12/06 A2960 RMK AO2 SLP023 P0001 T01170061=
201002262153 METAR KBFI 262153Z 13006KT 10SM -RA FEW040 OVC055 11/07 A2962 RMK AO2 SLP031 P0001 T01110072=
201002262053 METAR KBFI 262053Z 13008KT 10SM -RA OVC055 12/06 A2965 RMK AO2 RAB11 SLP039 P0000 60001 T01170061 58011=
201002261953 METAR KBFI 261953Z 13011G16KT 10SM BKN055 BKN080 12/06 A2967 RMK AO2 RAE33 SLP048 P0000 T01170061=
201002261853 METAR KBFI 261853Z 00000KT 10SM -RA OVC050 12/07 A2969 RMK AO2 SLP053 P0001 T01170067=
201002261753 METAR KBFI 261753Z 17003KT 10SM -RA OVC055 11/06 A2968 RMK AO2 RAB33 SLP050 P0000 60010 T01110061 10111 20089 55004=
201002261653 METAR KBFI 261653Z 16006KT 10SM OVC050 11/06 A2968 RMK AO2 RAB00E47 SLP050 P0000 T01060056=
201002261553 METAR KBFI 261553Z 10004KT 10SM BKN060 OVC075 10/06 A2966 RMK AO2 RAE47 SLP044 P0000 T01000056=
201002261453 METAR KBFI 261453Z 13011KT 10SM -RA OVC060 10/06 A2969 RMK AO2 SLP054 P0002 60010 T01000061 58019=
201002261353 METAR KBFI 261353Z 13008KT 10SM -RA BKN050 OVC060 10/06 A2972 RMK AO2 SLP064 P0004 T01000061=
201002261253 METAR KBFI 261253Z 14008KT 10SM -RA BKN049 OVC060 09/07 A2973 RMK AO2 SLP068 P0004 T00940067=
201002261153 METAR KBFI 261153Z 00000KT 10SM -RA OVC055 09/07 A2975 RMK AO2 SLP073 P0004 60021 70023 T00890067 10100 20083 58029=
201002261053 METAR KBFI 261053Z 11006KT 9SM -RA SCT049 OVC055 09/07 A2977 RMK AO2 SLP081 P0010 T00940067=
201002260953 METAR KBFI 260953Z 03003KT 5SM RA BR BKN036 OVC047 09/07 A2983 RMK AO2 SLP102 P0007 T00890067=
201002260853 METAR KBFI 260853Z 03005KT 10SM -RA OVC050 09/06 A2983 RMK AO2 RAB36 SLP102 P0000 60000 T00940056 55017=
201002260753 METAR KBFI 260753Z 00000KT 10SM FEW120 09/05 A2983 RMK AO2 SLP101 T00890050 401330072=
201002260653 METAR KBFI 260653Z 00000KT 10SM CLR 10/04 A2986 RMK AO2 SLP110 T01000044=
201002260553 METAR KBFI 260553Z 00000KT 10SM CLR 10/05 A2989 RMK AO2 SLP120 T01000050 10133 20100 56035=
201002260453 METAR KBFI 260453Z 00000KT 10SM CLR 11/06 A2992 RMK AO2 SLP132 T01060056=
201002260353 METAR KBFI 260353Z 00000KT 10SM CLR 11/06 A2995 RMK AO2 SLP143 T01060056=
201002260253 METAR KBFI 260253Z 00000KT 10SM CLR 12/06 A2999 RMK AO2 SLP155 T01170056 56023=
201002260153 METAR KBFI 260153Z 00000KT 10SM CLR 12/05 A3000 RMK AO2 SLP159 T01220050=
201002260053 METAR KBFI 260053Z 09003KT 10SM CLR 13/04 A3004 RMK AO2 SLP172 T01280044=
201002252353 METAR KBFI 252353Z 00000KT 10SM SCT030 BKN250 13/04 A3006 RMK AO2 SLP178 60000 T01330039 10133 20094 56022=
201002252253 METAR KBFI 252253Z VRB05KT 10SM BKN040 13/05 A3008 RMK AO2 SLP185 T01280050=
201002252153 METAR KBFI 252153Z 15006KT 10SM SCT030 BKN080 13/06 A3008 RMK AO2 SLP187 T01280056=
201002252053 METAR KBFI 252053Z 16007KT 10SM FEW030 SCT055 BKN070 13/05 A3012 RMK AO2 SLP200 60000 T01280050 58011=
201002251953 METAR KBFI 251953Z 18008KT 10SM SCT027 BKN080 12/06 A3015 RMK AO2 SLP208 T01170061=
201002251853 METAR KBFI 251853Z 17006KT 10SM FEW045 BKN070 10/07 A3015 RMK AO2 RAE31 SLP210 P0000 T01000067=
201002251753 METAR KBFI 251753Z COR 16008KT 10SM -RA SCT017 BKN047 09/06 A3016 RMK AO2 RAB44 SLP211 P0000 60002 T00940061 10094 20072 53012=
201002251653 METAR KBFI 251653Z 16007KT 10SM BKN040 BKN100 09/06 A3014 RMK AO2 SLP206 T00890061=
201002251553 METAR KBFI 251553Z 15006KT 10SM BKN038 OVC049 08/06 A3013 RMK AO2 RAE00 SLP204 P0000 T00780061=
201002251453 METAR KBFI 251453Z 15006KT 10SM -RA BKN033 BKN040 OVC048 08/06 A3012 RMK AO2 RAB40 SLP199 P0001 60002 T00780056 51009=
201002251353 METAR KBFI 251353Z 16006KT 10SM FEW060 OVC100 08/06 A3011 RMK AO2 RAE41 SLP196 P0001 T00780056=
201002251253 METAR KBFI 251253Z 19004KT 10SM -RA FEW030 BKN035 OVC120 08/06 A3010 RMK AO2 RAE17B40 SLP194 P0000 T00830056=
201002251206 SPECI KBFI 251206Z 16009KT 120V180 10SM -RA SCT020 BKN031 OVC100 08/06 A3009 RMK AO2 P0000=
201002251206 SPECI KBFI 251206Z 16009KT 120V180 10SM -RA SCT020 BKN031 OVC100 08/06 A3009 RMK AO2 P0000=
201002251153 METAR KBFI 251153Z 19005KT 6SM -RA SCT018 BKN024 OVC036 08/06 A3009 RMK AO2 RAE05B29 SLP190 P0003 60004 70008 T00830056 10083 20061 51008=
201002251150 SPECI KBFI 251150Z 21005KT 6SM -RA SCT018 BKN022 OVC036 08/06 A3009 RMK AO2 RAE05B29 P0002=
201002251150 SPECI KBFI 251150Z 21005KT 6SM -RA SCT018 BKN022 OVC036 08/06 A3009 RMK AO2 RAE05B29 P0002=
201002251053 METAR KBFI 251053Z 16008KT 10SM -RA BKN039 OVC049 08/05 A3008 RMK AO2 RAB21 SLP184 P0001 T00780050=
201002250953 METAR KBFI 250953Z 17006KT 10SM FEW043 08/04 A3007 RMK AO2 SLP182 T00780044=
201002250853 METAR KBFI 250853Z 17007KT 10SM FEW045 08/05 A3005 RMK AO2 SLP174 60000 T00830050 53018=
201002250753 METAR KBFI 250753Z 17008KT 10SM FEW030 BKN041 OVC100 08/06 A3003 RMK AO2 RAB37E50 SLP169 P0000 T00780056 401220061=
201002250653 METAR KBFI 250653Z 14007KT 10SM SCT060 06/05 A3001 RMK AO2 SLP162 T00610050=
201002250553 METAR KBFI 250553Z 14008KT 10SM CLR 07/05 A3000 RMK AO2 SLP157 T00720050 10117 20067 51015=
201002250453 METAR KBFI 250453Z 14007KT 10SM FEW100 08/05 A2998 RMK AO2 SLP152 T00780050=
201002250353 METAR KBFI 250353Z 17007KT 10SM BKN110 09/06 A2997 RMK AO2 SLP148 T00940061=
201002250253 METAR KBFI 250253Z 15008KT 10SM FEW030 SCT100 09/06 A2995 RMK AO2 SLP142 T00940061 53014=
201002250153 METAR KBFI 250153Z 15010KT 10SM SCT031 BKN035 09/07 A2993 RMK AO2 SLP134 T00890067=
201002250053 METAR KBFI 250053Z 16007KT 10SM SCT050 BKN110 10/06 A2992 RMK AO2 SLP130 T01000056=
201002242353 METAR KBFI 242353Z 17010KT 10SM FEW022 SCT038 BKN047 11/07 A2991 RMK AO2 RAB36E48 SLP128 P0000 60002 T01110067 10122 20094 53004=
201002242253 METAR KBFI 242253Z 16007KT 5SM HZ FEW018 SCT029 BKN039 12/08 A2990 RMK AO2 RAB15E46 SLP126 P0002 T01170083=
201002242153 METAR KBFI 242153Z 17007KT 10SM FEW025 BKN035 BKN200 12/07 A2989 RMK AO2 SLP122 T01170067=
201002242053 METAR KBFI 242053Z 17009G16KT 10SM FEW090 11/06 A2990 RMK AO2 RAB26E36 SLP123 P0000 60000 T01060061 51012=
201002241953 METAR KBFI 241953Z 19011KT 10SM FEW030 BKN090 12/07 A2989 RMK AO2 SLP123 T01170072=
201002241853 METAR KBFI 241853Z 19008G17KT 10SM SCT019 BKN200 11/08 A2988 RMK AO2 RAB01E10 SLP118 P0000 T01110078=
201002241753 METAR KBFI 241753Z 18008G15KT 10SM SCT010 BKN018 BKN025 09/07 A2986 RMK AO2 SLP112 60002 T00940072 10094 20061 53020=
201002241700 SPECI KBFI 241700Z 15006KT 10SM FEW009 BKN018 OVC025 08/06 A2984 RMK AO2=
201002241700 SPECI KBFI 241700Z 15006KT 10SM FEW009 BKN018 OVC025 08/06 A2984 RMK AO2=
201002241653 METAR KBFI 241653Z 14008KT 9SM SCT009 OVC013 07/06 A2984 RMK AO2 RAE1554B13E26 SLP103 P0000 T00720061=
201002241553 METAR KBFI 241553Z 13009KT 4SM -RA BR SCT009 OVC013 07/06 A2982 RMK AO2 RAB02 SLP097 P0001 T00670056=
201002241543 SPECI KBFI 241543Z 13008KT 3SM -RA BR FEW009 BKN013 OVC025 07/05 A2982 RMK AO2 RAB02 P0000=
201002241543 SPECI KBFI 241543Z 13008KT 3SM -RA BR FEW009 BKN013 OVC025 07/05 A2982 RMK AO2 RAB02 P0000=
201002241534 SPECI KBFI 241534Z 14007KT 4SM BR BKN017 OVC025 07/05 A2982 RMK AO2 RAB02E21 P0000=
201002241534 SPECI KBFI 241534Z 14007KT 4SM BR BKN017 OVC025 07/05 A2982 RMK AO2 RAB02E21 P0000=
201002241453 METAR KBFI 241453Z 15008KT 10SM BKN015 OVC023 07/05 A2980 RMK AO2 SLP092 60001 T00670050 51010=
201002241353 METAR KBFI 241353Z 12008KT 10SM OVC015 07/05 A2979 RMK AO2 RAE15 SLP088 P0001 T00670050=
201002241253 METAR KBFI 241253Z 14007KT 9SM -RA OVC024 06/04 A2978 RMK AO2 RAB07 SLP085 P0000 T00610044=
201002241153 METAR KBFI 241153Z 12003KT 10SM OVC028 06/04 A2977 RMK AO2 RAE51 SLP081 P0001 60008 70021 T00610044 10078 20061 53002=
201002241053 METAR KBFI 241053Z 14004KT 10SM -RA BKN030 OVC034 06/04 A2977 RMK AO2 SLP079 P0002 T00610044=
201002240953 METAR KBFI 240953Z AUTO 12003KT 10SM -RA FEW021 BKN033 OVC043 07/04 A2977 RMK AO2 SLP080 P0002 T00670044 TSNO=
201002240853 METAR KBFI 240853Z AUTO 00000KT 9SM -RA BKN037 OVC050 07/04 A2977 RMK AO2 SLP080 P0002 60003 T00670044 55007 TSNO=
201002240753 METAR KBFI 240753Z AUTO 14003KT 9SM -RA SCT043 OVC055 07/04 A2976 RMK AO2 SLP078 P0001 T00670044 401000011 TSNO=
201002240653 METAR KBFI 240653Z 11003KT 10SM -RA BKN041 BKN060 OVC080 07/04 A2977 RMK AO2 SLP081 P0000 T00720044=
201002240553 METAR KBFI 240553Z 00000KT 9SM -RA BKN043 OVC050 07/06 A2979 RMK AO2 SLP087 P0001 60011 T00720056 10094 20072 56019=
201002240453 METAR KBFI 240453Z 09003KT 10SM -RA OVC047 08/06 A2981 RMK AO2 SLP093 P0001 T00780061=
201002240353 METAR KBFI 240353Z 00000KT 7SM -RA FEW029 OVC038 08/06 A2982 RMK AO2 SLP099 P0003 T00780056=
201002240253 METAR KBFI 240253Z 15003KT 7SM -RA BKN038 OVC050 08/06 A2985 RMK AO2 SLP106 P0003 60006 T00780056 58013=
201002240153 METAR KBFI 240153Z 00000KT 7SM -RA BKN040 OVC060 08/06 A2986 RMK AO2 SLP111 P0001 T00780056=
201002240053 METAR KBFI 240053Z 32003KT 7SM -RA OVC042 08/06 A2987 RMK AO2 SLP115 P0002 T00830056=
201002232353 METAR KBFI 232353Z 12004KT 10SM -RA OVC044 09/04 A2989 RMK AO2 SLP119 P0000 60002 T00940039 10100 20061 56027=
201002232258 SPECI KBFI 232258Z 17004KT 10SM -RA OVC046 09/04 A2990 RMK AO2 P0000=
201002232258 SPECI KBFI 232258Z 17004KT 10SM -RA OVC046 09/04 A2990 RMK AO2 P0000=
201002232253 METAR KBFI 232253Z 16004KT 10SM -RA BKN026 OVC043 09/04 A2990 RMK AO2 SLP126 P0000 T00890039=
201002232153 METAR KBFI 232153Z 13004KT 8SM -RA BKN026 OVC043 08/05 A2994 RMK AO2 SLP137 P0002 T00830050=
201002232119 SPECI KBFI 232119Z 17005KT 7SM -RA BKN028 BKN038 OVC048 08/04 A2996 RMK AO2 P0000=
201002232119 SPECI KBFI 232119Z 17005KT 7SM -RA BKN028 BKN038 OVC048 08/04 A2996 RMK AO2 P0000=
201002232053 METAR KBFI 232053Z 00000KT 10SM -RA FEW035 BKN055 08/02 A2997 RMK AO2 RAB29 SLP147 P0000 60000 T00830022 58003=
201002231953 METAR KBFI 231953Z 19003KT 10SM OVC070 10/00 A2998 RMK AO2 SLP151 T01000000=
201002231853 METAR KBFI 231853Z VRB03KT 10SM BKN070 08/M01 A2999 RMK AO2 SLP155 T00831006=
201002231753 METAR KBFI 231753Z 17005KT 10SM OVC070 06/00 A2998 RMK AO2 SLP150 T00610000 10061 20011 58014=
201002231653 METAR KBFI 231653Z 15006KT 10SM BKN070 BKN090 04/M01 A3000 RMK AO2 SLP157 T00441006=
201002231553 METAR KBFI 231553Z 15003KT 10SM SCT130 OVC180 03/M01 A3001 RMK AO2 SLP160 T00281011=
201002231453 METAR KBFI 231453Z 00000KT 10SM BKN095 03/M02 A3002 RMK AO2 SLP164 T00331017 58017=
201002231353 METAR KBFI 231353Z 00000KT 10SM BKN120 03/M02 A3005 RMK AO2 SLP173 T00281017=
201002231253 METAR KBFI 231253Z 15004KT 10SM CLR 02/M02 A3006 RMK AO2 SLP179 T00171017=
201002231153 METAR KBFI 231153Z 00000KT 10SM CLR 03/M02 A3007 RMK AO2 SLP181 T00331017 10072 20028 58012=
201002231053 METAR KBFI 231053Z 00000KT 10SM CLR 04/M02 A3009 RMK AO2 SLP189 T00391017=
201002230953 METAR KBFI 230953Z 00000KT 10SM SCT110 06/M02 A3010 RMK AO2 SLP193 T00561017=
201002230853 METAR KBFI 230853Z 00000KT 10SM CLR 05/M02 A3010 RMK AO2 SLP192 T00501017 58006=
201002230753 METAR KBFI 230753Z 00000KT 10SM CLR 06/M02 A3011 RMK AO2 SLP196 T00561017 401331006=
201002230653 METAR KBFI 230653Z 00000KT 10SM CLR 06/M03 A3012 RMK AO2 SLP199 T00611033=
201002230553 METAR KBFI 230553Z 13007KT 10SM CLR 06/M04 A3012 RMK AO2 SLP198 T00611039 10133 20056 57000=
201002230453 METAR KBFI 230453Z 13003KT 10SM CLR 07/M03 A3012 RMK AO2 SLP198 T00671033=
201002230353 METAR KBFI 230353Z 13004KT 10SM CLR 07/M03 A3012 RMK AO2 SLP199 T00721028=
201002230253 METAR KBFI 230253Z 14004KT 10SM SCT200 09/M03 A3012 RMK AO2 SLP199 T00891033 56003=
201002230153 METAR KBFI 230153Z 14009KT 10SM BKN200 11/M04 A3012 RMK AO2 SLP200 T01061039=
201002230053 METAR KBFI 230053Z 17005KT 10SM BKN250 12/M04 A3012 RMK AO2 SLP199 T01221044=
201002222353 METAR KBFI 222353Z VRB03KT 10SM CLR 13/M04 A3013 RMK AO2 SLP202 T01331044 10133 20061 56006=
201002222253 METAR KBFI 222253Z 23005KT 10SM BKN250 13/M04 A3013 RMK AO2 SLP202 T01331039=
201002222153 METAR KBFI 222153Z VRB03KT 10SM CLR 13/01 A3014 RMK AO2 SLP205 T01330006=
201002222053 METAR KBFI 222053Z 00000KT 10SM CLR 12/M03 A3015 RMK AO2 SLP208 T01171028 56014=
201002221953 METAR KBFI 221953Z 00000KT 10SM SCT200 11/M02 A3016 RMK AO2 SLP212 T01061022=
201002221853 METAR KBFI 221853Z 00000KT 10SM CLR 08/M02 A3017 RMK AO2 SLP214 T00831022=
201002221753 METAR KBFI 221753Z 00000KT 10SM CLR 06/M02 A3019 RMK AO2 SLP222 T00611017 10061 21006 58001=
201002221653 METAR KBFI 221653Z 14003KT 10SM CLR 03/M01 A3021 RMK AO2 SLP228 T00281011=
201002221553 METAR KBFI 221553Z 16003KT 10SM CLR 01/M02 A3020 RMK AO2 SLP226 T00061022=
201002221453 METAR KBFI 221453Z 00000KT 10SM CLR 01/M03 A3019 RMK AO2 SLP223 T00061033 51007=
201002221353 METAR KBFI 221353Z 14005KT 10SM CLR 00/M03 A3019 RMK AO2 SLP222 T00001028=
201002221253 METAR KBFI 221253Z AUTO 16004KT 10SM CLR 01/M03 A3019 RMK AO2 SLP222 T00061028 FZRANO TSNO=
201002221153 METAR KBFI 221153Z AUTO 14006KT 10SM CLR 00/M02 A3017 RMK AO2 SLP216 T00001022 10067 20000 52016 FZRANO TSNO=
201002221053 METAR KBFI 221053Z AUTO 11004KT 10SM CLR 02/M02 A3016 RMK AO2 SLP211 T00171017 FZRANO TSNO=
201002220953 METAR KBFI 220953Z AUTO 00000KT 10SM CLR 03/M01 A3014 RMK AO2 SLP205 T00281006 TSNO=
201002220853 METAR KBFI 220853Z AUTO 00000KT 10SM CLR 02/M02 A3012 RMK AO2 SLP200 T00171017 51008 FZRANO TSNO=
201002220753 METAR KBFI 220753Z AUTO 00000KT 10SM CLR 03/00 A3012 RMK AO2 SLP199 T00330000 401440000 TSNO=
201002220653 METAR KBFI 220653Z 13003KT 10SM CLR 03/M01 A3011 RMK AO2 SLP195 T00281011=
201002220553 METAR KBFI 220553Z 00000KT 10SM CLR 07/01 A3010 RMK AO2 SLP192 T00670011 10144 20061 51006=
201002220453 METAR KBFI 220453Z 00000KT 10SM CLR 08/01 A3009 RMK AO2 SLP189 T00780011=
201002220353 METAR KBFI 220353Z 00000KT 10SM CLR 09/M01 A3009 RMK AO2 SLP189 T00891006=
201002220253 METAR KBFI 220253Z 32003KT 10SM CLR 10/M01 A3008 RMK AO2 SLP186 T01001011 51010=
201002220153 METAR KBFI 220153Z 00000KT 10SM CLR 12/M02 A3007 RMK AO2 SLP183 T01171022=
201002220053 METAR KBFI 220053Z 30005KT 10SM CLR 13/M03 A3006 RMK AO2 SLP179 T01331033=
201002212353 METAR KBFI 212353Z 34006KT 10SM CLR 14/M04 A3005 RMK AO2 SLP176 T01441039 10144 20072 55003=
201002212253 METAR KBFI 212253Z 33005KT 10SM CLR 14/M04 A3005 RMK AO2 SLP175 T01391039=
201002212153 METAR KBFI 212153Z 30007KT 10SM CLR 14/M03 A3005 RMK AO2 SLP175 T01391028=
201002212053 METAR KBFI 212053Z AUTO 31005KT 10SM CLR 12/00 A3006 RMK AO2 SLP180 T01220000 58008 TSNO=
201002211953 METAR KBFI 211953Z 31004KT 10SM CLR 12/M01 A3008 RMK AO2 SLP184 T01171011=
201002211853 METAR KBFI 211853Z 00000KT 10SM CLR 10/M01 A3008 RMK AO2 SLP186 T01001006=
201002211753 METAR KBFI 211753Z 00000KT 10SM CLR 07/01 A3009 RMK AO2 SLP188 T00720006 10072 20000 51010=
201002211653 METAR KBFI 211653Z 00000KT 10SM CLR 04/01 A3009 RMK AO2 SLP187 T00440006=
201002211553 METAR KBFI 211553Z 00000KT 10SM CLR 02/M01 A3008 RMK AO2 SLP184 T00221006=
201002211453 METAR KBFI 211453Z 00000KT 10SM CLR 01/M02 A3006 RMK AO2 SLP178 T00061022 51006=
201002211353 METAR KBFI 211353Z 00000KT 10SM CLR 01/M02 A3005 RMK AO2 SLP176 T00111022=
201002211253 METAR KBFI 211253Z 00000KT 10SM CLR 02/M01 A3005 RMK AO2 SLP176 T00221006=
201002211153 METAR KBFI 211153Z 00000KT 10SM CLR 02/M02 A3004 RMK AO2 SLP172 T00171017 10083 20017 58001=
201002211053 METAR KBFI 211053Z 00000KT 10SM CLR 03/M01 A3004 RMK AO2 SLP173 T00331011=
201002210953 METAR KBFI 210953Z AUTO 00000KT 10SM CLR 03/M02 A3004 RMK AO2 SLP172 T00331017 TSNO=
201002210853 METAR KBFI 210853Z AUTO 12003KT 10SM CLR 03/M02 A3004 RMK AO2 SLP173 T00331017 53005 TSNO=
201002210753 METAR KBFI 210753Z AUTO 00000KT 10SM CLR 05/M02 A3004 RMK AO2 SLP170 T00501017 401330006 TSNO=
201002210653 METAR KBFI 210653Z 00000KT 10SM CLR 06/M03 A3003 RMK AO2 SLP168 T00611033=
201002210553 METAR KBFI 210553Z 00000KT 10SM CLR 08/M04 A3003 RMK AO2 SLP167 T00831044 10133 20072 52010=
201002210453 METAR KBFI 210453Z 11006KT 10SM CLR 10/M04 A3002 RMK AO2 SLP164 T01001044=
201002210353 METAR KBFI 210353Z 09004KT 10SM CLR 11/M03 A3001 RMK AO2 SLP161 T01111028=
201002210253 METAR KBFI 210253Z 00000KT 10SM CLR 09/M01 A3000 RMK AO2 SLP157 T00941006 53005=
201002210153 METAR KBFI 210153Z 00000KT 10SM CLR 12/M01 A2999 RMK AO2 SLP154 T01171011=
201002210053 METAR KBFI 210053Z 33005KT 10SM CLR 13/M03 A2999 RMK AO2 SLP154 T01331028=
201002202353 METAR KBFI 202353Z 31008KT 10SM CLR 13/M02 A2998 RMK AO2 SLP152 T01331017 10133 20067 56008=
201002202253 METAR KBFI 202253Z 33007KT 10SM CLR 13/M01 A2998 RMK AO2 SLP152 T01331006=
201002202153 METAR KBFI 202153Z VRB05KT 10SM CLR 13/01 A2999 RMK AO2 SLP156 T01280006=
201002202053 METAR KBFI 202053Z 31006KT 10SM CLR 12/02 A3001 RMK AO2 SLP161 T01170017 58016=
201002201953 METAR KBFI 201953Z 30005KT 10SM CLR 11/02 A3003 RMK AO2 SLP169 T01060017=
201002201853 METAR KBFI 201853Z 00000KT 10SM CLR 09/01 A3004 RMK AO2 SLP173 T00890006=
201002201753 METAR KBFI 201753Z AUTO 00000KT 10SM CLR 07/02 A3005 RMK AO2 SLP177 T00670017 10067 20006 51003 TSNO=
201002201653 METAR KBFI 201653Z 00000KT 10SM CLR 04/02 A3005 RMK AO2 SLP176 T00390022=
201002201553 METAR KBFI 201553Z 00000KT 10SM CLR 02/01 A3005 RMK AO2 SLP175 T00220006=
201002201453 METAR KBFI 201453Z 00000KT 10SM CLR 01/M01 A3004 RMK AO2 SLP173 T00061011 58001=
201002201353 METAR KBFI 201353Z 00000KT 10SM CLR 02/M01 A3004 RMK AO2 SLP173 T00221006=
201002201253 METAR KBFI 201253Z 00000KT 10SM CLR 02/M01 A3005 RMK AO2 SLP175 T00221006=
201002201153 METAR KBFI 201153Z 00000KT 10SM CLR 03/01 A3005 RMK AO2 SLP174 T00280006 10067 20022 50001=
201002201053 METAR KBFI 201053Z 00000KT 10SM CLR 03/01 A3005 RMK AO2 SLP176 T00330006=
201002200953 METAR KBFI 200953Z 00000KT 10SM CLR 04/01 A3006 RMK AO2 SLP177 T00440011=
201002200853 METAR KBFI 200853Z 00000KT 10SM CLR 03/01 A3005 RMK AO2 SLP173 T00330006 53001=
201002200753 METAR KBFI 200753Z 00000KT 10SM CLR 06/02 A3004 RMK AO2 SLP173 T00560017 401500039=
201002200653 METAR KBFI 200653Z 00000KT 10SM CLR 06/02 A3004 RMK AO2 SLP172 T00560017=
201002200553 METAR KBFI 200553Z 00000KT 10SM CLR 06/02 A3004 RMK AO2 SLP172 T00610017 10133 20061 51010=
201002200453 METAR KBFI 200453Z 00000KT 10SM CLR 08/02 A3003 RMK AO2 SLP169 T00780022=
201002200353 METAR KBFI 200353Z 31003KT 10SM CLR 09/02 A3003 RMK AO2 SLP167 T00940022=
201002200253 METAR KBFI 200253Z 00000KT 10SM CLR 10/01 A3001 RMK AO2 SLP162 T01000011 53006=
201002200153 METAR KBFI 200153Z 30004KT 10SM CLR 11/01 A3000 RMK AO2 SLP159 T01110006=
201002200053 METAR KBFI 200053Z 31006KT 10SM CLR 12/01 A2999 RMK AO2 SLP157 T01220011=
201002192353 METAR KBFI 192353Z 32009KT 10SM CLR 13/M02 A2999 RMK AO2 SLP156 T01331017 10150 20094 56011=
201002192253 METAR KBFI 192253Z 32008KT 10SM CLR 14/M01 A3000 RMK AO2 SLP158 T01441011=
201002192153 METAR KBFI 192153Z 33006KT 10SM CLR 15/M05 A3000 RMK AO2 SLP160 T01501050=
201002192053 METAR KBFI 192053Z 31006KT 10SM CLR 13/01 A3002 RMK AO2 SLP166 T01330006 58013=
201002191953 METAR KBFI 191953Z 31004KT 10SM CLR 12/02 A3004 RMK AO2 SLP173 T01170017=
201002191853 METAR KBFI 191853Z VRB04KT 10SM CLR 12/00 A3006 RMK AO2 SLP177 T01170000=
201002191753 METAR KBFI 191753Z VRB04KT 10SM CLR 09/01 A3006 RMK AO2 SLP179 T00940006 10094 20039 51013=
201002191653 METAR KBFI 191653Z 36005KT 10SM CLR 08/01 A3005 RMK AO2 SLP176 T00830006=
201002191553 METAR KBFI 191553Z 00000KT 10SM CLR 06/M01 A3004 RMK AO2 SLP172 T00611006=
201002191453 METAR KBFI 191453Z 35003KT 10SM FEW250 06/00 A3002 RMK AO2 SLP166 T00560000 53000=
201002191353 METAR KBFI 191353Z 00000KT 10SM CLR 05/00 A3001 RMK AO2 SLP162 T00500000=
201002191253 METAR KBFI 191253Z 00000KT 10SM CLR 06/01 A3002 RMK AO2 SLP165 T00610006=
201002191153 METAR KBFI 191153Z 33004KT 10SM CLR 06/01 A3002 RMK AO2 SLP165 T00610006 10083 20056 58003=
201002191053 METAR KBFI 191053Z 00000KT 10SM CLR 07/01 A3003 RMK AO2 SLP167 T00670006=
201002190953 METAR KBFI 190953Z 31003KT 10SM CLR 06/01 A3003 RMK AO2 SLP168 T00610006=
201002190853 METAR KBFI 190853Z 00000KT 10SM CLR 07/01 A3003 RMK AO2 SLP169 T00670006 56007=
201002190753 METAR KBFI 190753Z 00000KT 10SM CLR 07/01 A3003 RMK AO2 SLP170 T00670006 401610044=
201002190653 METAR KBFI 190653Z 00000KT 10SM CLR 07/01 A3005 RMK AO2 SLP174 T00720006=
201002190553 METAR KBFI 190553Z 00000KT 10SM CLR 07/01 A3005 RMK AO2 SLP176 T00720011 10156 20067 58000=
201002190453 METAR KBFI 190453Z 00000KT 10SM CLR 09/01 A3006 RMK AO2 SLP177 T00890011=
201002190353 METAR KBFI 190353Z 33006KT 10SM CLR 09/03 A3006 RMK AO2 SLP180 T00940028=
201002190253 METAR KBFI 190253Z 36004KT 10SM CLR 12/00 A3005 RMK AO2 SLP177 T01170000 55002=
201002190153 METAR KBFI 190153Z 01004KT 10SM CLR 13/00 A3005 RMK AO2 SLP175 T01280000=
201002190053 METAR KBFI 190053Z AUTO 35004KT 10SM CLR 15/00 A3006 RMK AO2 SLP177 T01500000 TSNO=
201002182353 METAR KBFI 182353Z AUTO 36005KT 10SM CLR 16/01 A3006 RMK AO2 SLP179 T01560011 10161 20089 56011 TSNO=
201002182253 METAR KBFI 182253Z VRB05KT 10SM CLR 16/02 A3007 RMK AO2 SLP181 T01610017=
201002182153 METAR KBFI 182153Z VRB06KT 10SM CLR 16/M01 A3008 RMK AO2 SLP184 T01561006=
201002182053 METAR KBFI 182053Z 36008G14KT 10SM CLR 15/M01 A3009 RMK AO2 SLP190 T01501006 58021=
201002181953 METAR KBFI 181953Z 02008KT 7SM CLR 13/02 A3012 RMK AO2 SLP197 T01280017=
201002181853 METAR KBFI 181853Z 03007KT 10SM SCT250 11/02 A3014 RMK AO2 SLP206 T01060017=
201002181753 METAR KBFI 181753Z 02004KT 10SM CLR 09/03 A3016 RMK AO2 SLP211 T00890028 10089 20044 58002=
201002181653 METAR KBFI 181653Z 01005KT 10SM CLR 07/03 A3016 RMK AO2 SLP211 T00720028=
201002181553 METAR KBFI 181553Z 00000KT 10SM CLR 05/03 A3017 RMK AO2 SLP214 T00500028=
201002181453 METAR KBFI 181453Z 00000KT 10SM CLR 06/02 A3016 RMK AO2 SLP213 T00560022 55000=
201002181353 METAR KBFI 181353Z 33004KT 10SM CLR 05/02 A3016 RMK AO2 SLP212 T00500022=
201002181253 METAR KBFI 181253Z 00000KT 10SM FEW008 05/03 A3016 RMK AO2 SLP212 T00500028=
201002181153 METAR KBFI 181153Z 00000KT 10SM FEW008 05/03 A3016 RMK AO2 SLP214 T00500028 10072 20044 58003=
201002181053 METAR KBFI 181053Z 00000KT 10SM CLR 05/03 A3017 RMK AO2 SLP216 T00500028=
201002180953 METAR KBFI 180953Z 00000KT 10SM CLR 06/03 A3017 RMK AO2 SLP216 T00560033=
201002180853 METAR KBFI 180853Z 00000KT 10SM CLR 06/03 A3017 RMK AO2 SLP217 T00560033 58006=
201002180753 METAR KBFI 180753Z 32004KT 10SM CLR 07/04 A3018 RMK AO2 SLP220 T00670039 401170033=
201002180653 METAR KBFI 180653Z 34004KT 10SM CLR 07/03 A3019 RMK AO2 SLP221 T00670033=
201002180553 METAR KBFI 180553Z 35004KT 10SM CLR 07/03 A3019 RMK AO2 SLP223 T00720033 10117 20072 55003=
201002180453 METAR KBFI 180453Z 33004KT 10SM CLR 08/04 A3019 RMK AO2 SLP222 T00780039=
201002180353 METAR KBFI 180353Z 34003KT 10SM CLR 08/04 A3020 RMK AO2 SLP225 T00830039=
201002180253 METAR KBFI 180253Z 00000KT 10SM CLR 09/04 A3020 RMK AO2 SLP226 T00890044 53001=
201002180153 METAR KBFI 180153Z 32007KT 10SM CLR 09/05 A3019 RMK AO2 SLP223 T00940050=
201002180053 METAR KBFI 180053Z VRB04KT 10SM FEW250 11/04 A3019 RMK AO2 SLP222 T01110039=
201002172353 METAR KBFI 172353Z 33005KT 10SM CLR 12/05 A3020 RMK AO2 SLP225 T01170050 10117 20072 56010=
201002172253 METAR KBFI 172253Z 34008KT 10SM FEW030 BKN250 11/05 A3020 RMK AO2 SLP225 T01110050=
201002172153 METAR KBFI 172153Z 35006KT 10SM CLR 11/04 A3021 RMK AO2 SLP229 T01110044=
201002172053 METAR KBFI 172053Z 36008KT 10SM FEW018 11/04 A3023 RMK AO2 SLP235 T01110039 58021=
201002172000 SPECI KBFI 172000Z AUTO 03006KT 10SM FEW018 09/04 A3025 RMK AO2 TSNO=
201002172000 SPECI KBFI 172000Z AUTO 03006KT 10SM FEW018 09/04 A3025 RMK AO2 TSNO=
201002171953 METAR KBFI 171953Z 02007KT 10SM BKN018 09/04 A3025 RMK AO2 SLP244 T00940039=
201002171853 METAR KBFI 171853Z 34009G15KT 10SM OVC016 08/04 A3028 RMK AO2 SLP252 T00780039=
201002171753 METAR KBFI 171753Z 02004KT 10SM OVC016 07/04 A3029 RMK AO2 SLP256 T00720039 10078 20039 58002=
201002171653 METAR KBFI 171653Z VRB04KT 10SM OVC015 07/04 A3030 RMK AO2 SLP261 T00720044=
201002171603 SPECI KBFI 171603Z 02005KT 10SM BKN012 06/04 A3031 RMK AO2=
201002171603 SPECI KBFI 171603Z 02005KT 10SM BKN012 06/04 A3031 RMK AO2=
201002171553 METAR KBFI 171553Z COR 01006KT 9SM BKN012 06/04 A3031 RMK AO2 SLP262 T00610039=
201002171515 SPECI KBFI 171515Z 36005KT 10SM BKN009 06/04 A3030 RMK AO2=
201002171515 SPECI KBFI 171515Z 36005KT 10SM BKN009 06/04 A3030 RMK AO2=
201002171500 SPECI KBFI 171500Z 02004KT 9SM OVC012 06/04 A3029 RMK AO2=
201002171500 SPECI KBFI 171500Z 02004KT 9SM OVC012 06/04 A3029 RMK AO2=
201002171453 METAR KBFI 171453Z 02004KT 9SM BKN005 06/04 A3029 RMK AO2 SLP258 T00560039 53000=
201002171353 METAR KBFI 171353Z 36003KT 9SM BKN006 05/03 A3029 RMK AO2 SLP256 T00500033=
201002171304 SPECI KBFI 171304Z 36003KT 10SM BKN006 05/03 A3029 RMK AO2=
201002171304 SPECI KBFI 171304Z 36003KT 10SM BKN006 05/03 A3029 RMK AO2=
201002171253 METAR KBFI 171253Z 00000KT 10SM FEW008 SCT012 05/03 A3029 RMK AO2 SLP256 T00500028=
201002171153 METAR KBFI 171153Z 00000KT 10SM CLR 04/02 A3029 RMK AO2 SLP257 70004 T00440022 10067 20033 58008=
201002171053 METAR KBFI 171053Z 00000KT 10SM CLR 05/02 A3030 RMK AO2 SLP260 T00500022=
201002170953 METAR KBFI 170953Z 00000KT 10SM CLR 04/02 A3032 RMK AO2 SLP265 T00440017=
201002170853 METAR KBFI 170853Z 00000KT 10SM CLR 05/02 A3032 RMK AO2 SLP266 T00500022 50004=
201002170753 METAR KBFI 170753Z 00000KT 10SM CLR 06/02 A3032 RMK AO2 SLP267 T00610022 401330056=
201002170653 METAR KBFI 170653Z 00000KT 10SM CLR 06/03 A3032 RMK AO2 SLP266 T00610028=
201002170553 METAR KBFI 170553Z 00000KT 10SM FEW050 07/03 A3030 RMK AO2 SLP261 T00670033 10111 20061 53004=
201002170453 METAR KBFI 170453Z 00000KT 10SM SCT040 07/02 A3030 RMK AO2 SLP259 T00670022=
201002170353 METAR KBFI 170353Z 00000KT 10SM CLR 08/03 A3029 RMK AO2 SLP257 T00830033=
201002170253 METAR KBFI 170253Z 03003KT 10SM FEW038 SCT055 09/03 A3029 RMK AO2 SLP257 T00890028 50009=
201002170153 METAR KBFI 170153Z VRB05KT 10SM BKN040 09/03 A3030 RMK AO2 SLP259 T00940033=
201002170053 METAR KBFI 170053Z 35007KT 10SM SCT033 BKN200 10/04 A3029 RMK AO2 SLP256 T01000039=
201002162353 METAR KBFI 162353Z 35007KT 10SM SCT033 BKN200 11/06 A3027 RMK AO2 SLP248 T01110056 10133 20106 53006=
201002162253 METAR KBFI 162253Z 31007KT 10SM SCT043 12/06 A3025 RMK AO2 SLP242 T01220056=
201002162153 METAR KBFI 162153Z AUTO 19007KT 10SM SCT028 13/06 A3024 RMK AO2 SLP240 T01280056 TSNO=
201002162053 METAR KBFI 162053Z 18006KT 10SM SCT028 12/06 A3025 RMK AO2 SLP242 T01220061 51018=
201002161953 METAR KBFI 161953Z 18006KT 10SM SCT026 12/06 A3024 RMK AO2 SLP238 T01170061=
201002161853 METAR KBFI 161853Z 17008KT 10SM SCT025 12/07 A3022 RMK AO2 SLP233 T01170067=
201002161753 METAR KBFI 161753Z 00000KT 10SM SCT025 11/07 A3020 RMK AO2 SLP224 60004 T01110072 10111 20094 53034=
201002161653 METAR KBFI 161653Z 19013G20KT 10SM FEW015 SCT040 11/07 A3015 RMK AO2 SLP209 T01060072=
201002161553 METAR KBFI 161553Z 20008G16KT 10SM BKN050 11/08 A3013 RMK AO2 SLP203 T01060083=
201002161453 METAR KBFI 161453Z 14007KT 10SM BKN025 BKN035 BKN049 09/08 A3010 RMK AO2 RAE18B36E47 SLP190 P0001 60004 T00940078 51023=
201002161353 METAR KBFI 161353Z 15005KT 10SM -RA FEW030 BKN039 OVC049 09/08 A3008 RMK AO2 SLP185 P0001 T00940078=
201002161253 METAR KBFI 161253Z 12004KT 10SM -RA BKN041 BKN048 OVC075 10/08 A3005 RMK AO2 SLP175 P0002 T01000078=
201002161153 METAR KBFI 161153Z 16005KT 10SM -RA FEW047 OVC060 10/07 A3003 RMK AO2 RAB36 SLP168 P0000 60018 70019 T01000072 10100 20089 55009=
201002161053 METAR KBFI 161053Z 14009KT 10SM BKN060 OVC070 10/08 A3002 RMK AO2 RAE39 SLP166 P0002 T01000078=
201002160953 METAR KBFI 160953Z 16005KT 6SM RA BR SCT049 OVC060 09/08 A3005 RMK AO2 SLP176 P0009 T00890078=
201002160853 METAR KBFI 160853Z 14006KT 7SM -RA OVC050 09/07 A3005 RMK AO2 SLP176 P0004 60007 T00890072 56006=
201002160753 METAR KBFI 160753Z 14006KT 9SM -RA OVC060 09/07 A3006 RMK AO2 SLP177 P0002 T00940072 401220033=
201002160653 METAR KBFI 160653Z 13008KT 9SM -RA OVC055 10/07 A3006 RMK AO2 SLP180 P0001 T01000067=
201002160553 METAR KBFI 160553Z 14007KT 10SM -RA OVC050 10/07 A3007 RMK AO2 RAB0455 SLP183 P0001 60001 T01000067 10117 20100 53004=
201002160453 METAR KBFI 160453Z 13007KT 10SM OVC070 11/06 A3006 RMK AO2 RAE19 SLP178 P0000 T01110056=
201002160353 METAR KBFI 160353Z 14005KT 10SM -RA OVC075 12/05 A3005 RMK AO2 SLP177 P0000 T01170050=
201002160253 METAR KBFI 160253Z 14004KT 10SM -RA SCT075 BKN090 OVC110 12/06 A3006 RMK AO2 RAB15E30B47 SLP179 P0000 60000 T01170056 58006=
201002160153 METAR KBFI 160153Z 00000KT 10SM BKN130 OVC250 12/05 A3007 RMK AO2 SLP184 T01170050=
201002160053 METAR KBFI 160053Z 36003KT 10SM SCT150 BKN200 12/06 A3007 RMK AO2 SLP183 T01170056=
201002152353 METAR KBFI 152353Z 00000KT 10SM SCT150 BKN200 12/06 A3008 RMK AO2 SLP185 T01170061 10122 20044 56023=
201002152253 METAR KBFI 152253Z 31004KT 10SM CLR 12/06 A3010 RMK AO2 SLP191 T01170061=
201002152153 METAR KBFI 152153Z 00000KT 10SM BKN150 11/06 A3012 RMK AO2 SLP198 T01110061=
201002152053 METAR KBFI 152053Z 30003KT 7SM BKN200 09/06 A3015 RMK AO2 SLP208 T00940061 58025=
201002151953 METAR KBFI 151953Z 00000KT 7SM FEW005 09/06 A3018 RMK AO2 SLP220 T00890061=
201002151853 METAR KBFI 151853Z 00000KT 3SM BR SCT004 07/06 A3020 RMK AO2 SLP227 T00670061=
201002151849 SPECI KBFI 151849Z 00000KT 3SM BR SCT004 06/06 A3020 RMK AO2=
201002151849 SPECI KBFI 151849Z 00000KT 3SM BR SCT004 06/06 A3020 RMK AO2=
201002151829 SPECI KBFI 151829Z 00000KT 1SM BR OVC003 06/06 A3021 RMK AO2=
201002151829 SPECI KBFI 151829Z 00000KT 1SM BR OVC003 06/06 A3021 RMK AO2=
201002151820 SPECI KBFI 151820Z 00000KT 1SM BR OVC001 05/05 A3021 RMK AO2=
201002151820 SPECI KBFI 151820Z 00000KT 1SM BR OVC001 05/05 A3021 RMK AO2=
201002151815 SPECI KBFI 151815Z 00000KT 1/2SM FG OVC001 05/05 A3022 RMK AO2=
201002151815 SPECI KBFI 151815Z 00000KT 1/2SM FG OVC001 05/05 A3022 RMK AO2=
201002151753 METAR KBFI 151753Z 00000KT 1/4SM FG OVC001 04/04 A3022 RMK AO2 SLP232 T00440039 10050 20033 58001=
201002151653 METAR KBFI 151653Z 00000KT 1/4SM FG VV001 03/03 A3022 RMK AO2 SLP233 T00330028=
201002151553 METAR KBFI 151553Z 00000KT 1/4SM FG VV001 03/03 A3023 RMK AO2 SLP236 T00330028=
201002151453 METAR KBFI 151453Z 00000KT 1/4SM FG VV001 03/03 A3022 RMK AO2 SLP233 T00330028 56005=
201002151432 SPECI KBFI 151432Z 00000KT 1/4SM FG VV001 04/03 A3022 RMK AO2=
201002151432 SPECI KBFI 151432Z 00000KT 1/4SM FG VV001 04/03 A3022 RMK AO2=
201002151422 SPECI KBFI 151422Z 00000KT 1/2SM FG VV002 04/03 A3022 RMK AO2=
201002151422 SPECI KBFI 151422Z 00000KT 1/2SM FG VV002 04/03 A3022 RMK AO2=
201002151353 METAR KBFI 151353Z 15003KT 1/4SM FG OVC002 04/03 A3022 RMK AO2 SLP234 T00390028=
201002151300 SPECI KBFI 151300Z 00000KT 1/4SM FG VV001 04/03 A3024 RMK AO2=
201002151300 SPECI KBFI 151300Z 00000KT 1/4SM FG VV001 04/03 A3024 RMK AO2=
201002151253 METAR KBFI 151253Z AUTO 00000KT 1/2SM FG OVC002 04/03 A3024 RMK AO2 SLP238 T00440033 TSNO=
201002151218 SPECI KBFI 151218Z 14003KT 1/2SM FG OVC002 04/03 A3024 RMK AO2=
201002151218 SPECI KBFI 151218Z 14003KT 1/2SM FG OVC002 04/03 A3024 RMK AO2=
201002151211 SPECI KBFI 151211Z 15003KT 1 3/4SM BR OVC015 04/03 A3024 RMK AO2=
201002151211 SPECI KBFI 151211Z 15003KT 1 3/4SM BR OVC015 04/03 A3024 RMK AO2=
201002151200 SPECI KBFI 151200Z 00000KT 4SM BR SCT002 OVC015 05/04 A3024 RMK AO2=
201002151200 SPECI KBFI 151200Z 00000KT 4SM BR SCT002 OVC015 05/04 A3024 RMK AO2=
201002151153 METAR KBFI 151153Z 13003KT 1/2SM FG BKN005 BKN013 05/04 A3024 RMK AO2 SLP239 70035 T00500039 10083 20039 53002=
201002151104 SPECI KBFI 151104Z 00000KT 1/2SM FG BKN005 BKN013 04/03 A3023 RMK AO2=
201002151104 SPECI KBFI 151104Z 00000KT 1/2SM FG BKN005 BKN013 04/03 A3023 RMK AO2=
201002151053 METAR KBFI 151053Z 00000KT 1/4SM FG BKN018 04/02 A3023 RMK AO2 SLP235 T00440022=
201002150958 SPECI KBFI 150958Z 00000KT 10SM FEW010 05/03 A3023 RMK AO2=
201002150958 SPECI KBFI 150958Z 00000KT 10SM FEW010 05/03 A3023 RMK AO2=
201002150953 METAR KBFI 150953Z 00000KT 1 3/4SM BR FEW001 05/03 A3023 RMK AO2 SLP237 T00500028=
201002150944 SPECI KBFI 150944Z 00000KT 1/2SM FG FEW001 SCT016 05/03 A3023 RMK AO2 VIS 1/4V2 1/2=
201002150944 SPECI KBFI 150944Z 00000KT 1/2SM FG FEW001 SCT016 05/03 A3023 RMK AO2 VIS 1/4V2 1/2=
201002150931 SPECI KBFI 150931Z 00000KT 1/2SM FG VV001 06/03 A3023 RMK AO2=
201002150931 SPECI KBFI 150931Z 00000KT 1/2SM FG VV001 06/03 A3023 RMK AO2=
201002150923 SPECI KBFI 150923Z 00000KT 1 1/4SM BR CLR 05/03 A3023 RMK AO2=
201002150923 SPECI KBFI 150923Z 00000KT 1 1/4SM BR CLR 05/03 A3023 RMK AO2=
201002150853 METAR KBFI 150853Z 00000KT 6SM BR CLR 06/04 A3023 RMK AO2 SLP238 T00610044 50002=
201002150753 METAR KBFI 150753Z 00000KT 9SM CLR 07/04 A3024 RMK AO2 SLP239 T00670044 401330067=
201002150701 SPECI KBFI 150701Z 00000KT 9SM FEW065 07/06 A3024 RMK AO2=
201002150701 SPECI KBFI 150701Z 00000KT 9SM FEW065 07/06 A3024 RMK AO2=
201002150653 METAR KBFI 150653Z 00000KT 2 1/2SM BR FEW065 07/06 A3024 RMK AO2 SLP239 T00720056=
201002150553 METAR KBFI 150553Z 00000KT 10SM FEW048 SCT060 08/07 A3023 RMK AO2 RAE36 SLP236 P0001 60020 T00830067 10122 20083 53006=
201002150453 METAR KBFI 150453Z 14003KT 10SM -RA SCT046 OVC055 08/07 A3022 RMK AO2 SLP234 P0002 T00830067=
201002150353 METAR KBFI 150353Z 14003KT 5SM -RA BR SCT035 OVC050 09/07 A3021 RMK AO2 SLP230 P0008 T00890072=
201002150253 METAR KBFI 150253Z 00000KT 3SM +RA BR FEW021 SCT027 OVC036 09/07 A3021 RMK AO2 RAB32 SLP230 P0009 60009 T00940072 53016=
201002150247 SPECI KBFI 150247Z 00000KT 2 1/2SM +RA SCT025 OVC034 10/07 A3021 RMK AO2 RAB32 P0005=
201002150247 SPECI KBFI 150247Z 00000KT 2 1/2SM +RA SCT025 OVC034 10/07 A3021 RMK AO2 RAB32 P0005=
201002150153 METAR KBFI 150153Z 05007KT 10SM OVC021 11/07 A3019 RMK AO2 SLP224 T01060067=
201002150053 METAR KBFI 150053Z 30005KT 10SM FEW030 SCT085 BKN110 11/07 A3018 RMK AO2 SLP218 T01110072=
201002142353 METAR KBFI 142353Z 20005KT 10SM FEW028 BKN046 BKN100 12/06 A3016 RMK AO2 SLP214 T01220061 10133 20106 53004=
201002142253 METAR KBFI 142253Z VRB04KT 10SM SCT028 BKN100 13/07 A3015 RMK AO2 SLP210 T01330072=
201002142153 METAR KBFI 142153Z VRB04KT 10SM SCT025 BKN030 12/07 A3016 RMK AO2 SLP211 T01220067=
201002142144 SPECI KBFI 142144Z 22005KT 10SM SCT025 SCT032 BKN095 13/07 A3015 RMK AO2=
201002142144 SPECI KBFI 142144Z 22005KT 10SM SCT025 SCT032 BKN095 13/07 A3015 RMK AO2=
201002142053 METAR KBFI 142053Z 23003KT 10SM BKN023 BKN028 12/08 A3015 RMK AO2 SLP210 T01220078 51013=
201002142044 SPECI KBFI 142044Z 17007KT 10SM BKN023 BKN100 12/07 A3015 RMK AO2=
201002142044 SPECI KBFI 142044Z 17007KT 10SM BKN023 BKN100 12/07 A3015 RMK AO2=
201002141953 METAR KBFI 141953Z 20005KT 10SM FEW019 OVC095 12/08 A3015 RMK AO2 SLP208 T01170078=
201002141853 METAR KBFI 141853Z AUTO 18008KT 10SM FEW017 BKN100 12/08 A3013 RMK AO2 SLP203 T01170078 TSNO=
201002141812 SPECI KBFI 141812Z AUTO 13006KT 10SM SCT012 11/09 A3012 RMK AO2 TSNO=
201002141812 SPECI KBFI 141812Z AUTO 13006KT 10SM SCT012 11/09 A3012 RMK AO2 TSNO=
201002141753 METAR KBFI 141753Z AUTO 14006KT 10SM BKN012 BKN019 10/09 A3012 RMK AO2 SLP198 60015 T01000089 10100 20094 51022 TSNO=
201002141729 SPECI KBFI 141729Z AUTO 14007KT 10SM BKN014 OVC020 10/08 A3011 RMK AO2 TSNO=
201002141729 SPECI KBFI 141729Z AUTO 14007KT 10SM BKN014 OVC020 10/08 A3011 RMK AO2 TSNO=
201002141710 SPECI KBFI 141710Z AUTO 14007KT 9SM BKN018 OVC040 10/08 A3011 RMK AO2 TSNO=
201002141710 SPECI KBFI 141710Z AUTO 14007KT 9SM BKN018 OVC040 10/08 A3011 RMK AO2 TSNO=
201002141653 METAR KBFI 141653Z 13007KT 10SM SCT018 OVC038 10/08 A3010 RMK AO2 SLP192 T01000078=
201002141623 SPECI KBFI 141623Z 14008KT 10SM BKN020 OVC046 09/08 A3009 RMK AO2=
201002141623 SPECI KBFI 141623Z 14008KT 10SM BKN020 OVC046 09/08 A3009 RMK AO2=
201002141553 METAR KBFI 141553Z 14007KT 10SM BKN075 OVC090 10/08 A3007 RMK AO2 RAB25E53 SLP183 P0000 T01000078=
201002141453 METAR KBFI 141453Z 14007KT 10SM OVC070 09/08 A3005 RMK AO2 RAE32 SLP176 P0001 60015 T00940078 51019=
201002141353 METAR KBFI 141353Z 14007KT 10SM -RA FEW018 OVC050 10/08 A3004 RMK AO2 SLP173 P0008 T01000083=
201002141253 METAR KBFI 141253Z 15005KT 6SM -RA BR BKN041 OVC050 09/08 A3002 RMK AO2 SLP165 P0006 T00940078=
201002141153 METAR KBFI 141153Z 14007KT 10SM -RA OVC050 09/08 A3000 RMK AO2 SLP157 P0005 60040 70054 T00940083 10111 20089 58001=
201002141053 METAR KBFI 141053Z 15008KT 5SM RA BR BKN048 OVC060 10/08 A3000 RMK AO2 SLP157 P0009 T01000083=
201002140953 METAR KBFI 140953Z 16005KT 7SM -RA FEW046 OVC060 09/08 A3001 RMK AO2 SLP162 P0007 T00890078=
201002140853 METAR KBFI 140853Z 00000KT 6SM -RA BR BKN050 OVC060 09/08 A3000 RMK AO2 SLP158 P0010 60019 T00940078 50007=
201002140753 METAR KBFI 140753Z AUTO 00000KT 5SM RA BR OVC060 09/08 A3001 RMK AO2 SLP161 P0005 T00940078 401170067 TSNO=
201002140653 METAR KBFI 140653Z 19004KT 6SM -RA OVC060 11/07 A3000 RMK AO2 SLP160 P0004 T01060072=
201002140553 METAR KBFI 140553Z 13010KT 8SM -RA OVC060 11/06 A2998 RMK AO2 SLP151 P0002 60003 T01110061 10117 20094 56003=
201002140453 METAR KBFI 140453Z 15007KT 10SM -RA BKN070 OVC085 11/06 A2998 RMK AO2 RAB52 SLP151 P0000 T01110061=
201002140353 METAR KBFI 140353Z 15008KT 10SM SCT075 10/06 A2997 RMK AO2 SLP149 T01000061=
201002140253 METAR KBFI 140253Z 14008KT 10SM FEW080 10/07 A2999 RMK AO2 SLP154 60001 T01000067 58019=
201002140153 METAR KBFI 140153Z 15004KT 10SM BKN070 OVC150 10/07 A3001 RMK AO2 RAE05 SLP161 P0001 T01000072=
201002140053 METAR KBFI 140053Z 13006KT 10SM -RA FEW036 BKN044 OVC070 11/08 A3003 RMK AO2 RAB01 SLP169 P0000 T01060078=
201002132353 METAR KBFI 132353Z 14006KT 10SM OVC044 11/08 A3004 RMK AO2 RAE52 SLP173 P0003 60011 T01060078 10111 20089 56008=
201002132253 METAR KBFI 132253Z 16004KT 9SM -RA OVC044 11/08 A3005 RMK AO2 SLP174 P0002 T01060078=
201002132153 METAR KBFI 132153Z 13003KT 8SM -RA OVC044 11/07 A3005 RMK AO2 SLP174 P0002 T01060067=
201002132053 METAR KBFI 132053Z 11003KT 10SM -RA OVC048 11/07 A3007 RMK AO2 SLP181 P0000 60004 T01060067 58015=
201002131953 METAR KBFI 131953Z 00000KT 10SM -RA FEW032 BKN047 OVC055 10/06 A3010 RMK AO2 SLP192 P0002 T01000061=
201002131853 METAR KBFI 131853Z 00000KT 8SM -RA SCT031 BKN048 OVC060 09/06 A3011 RMK AO2 RAB01 SLP195 P0002 T00940056=
201002131753 METAR KBFI 131753Z 15005KT 10SM BKN060 OVC070 09/05 A3011 RMK AO2 SLP196 60000 T00890050 10094 20067 50003=
201002131653 METAR KBFI 131653Z 16005KT 10SM BKN065 BKN095 09/04 A3012 RMK AO2 SLP197 T00890044=
201002131553 METAR KBFI 131553Z 16004KT 10SM FEW055 OVC080 08/05 A3012 RMK AO2 SLP197 T00780050=
201002131453 METAR KBFI 131453Z 17005KT 10SM OVC055 07/05 A3010 RMK AO2 RAB26E38 SLP193 P0000 60000 T00720050 51005=
201002131353 METAR KBFI 131353Z 00000KT 10SM BKN070 OVC095 07/05 A3010 RMK AO2 SLP193 T00720050=
201002131253 METAR KBFI 131253Z 00000KT 10SM FEW065 BKN100 07/06 A3009 RMK AO2 SLP190 T00720056=
201002131153 METAR KBFI 131153Z 00000KT 10SM OVC100 07/05 A3009 RMK AO2 SLP188 60002 70043 T00720050 10089 20067 50002=
201002131053 METAR KBFI 131053Z 14003KT 10SM CLR 07/05 A3009 RMK AO2 SLP190 T00720050=
201002130953 METAR KBFI 130953Z 15004KT 10SM CLR 07/05 A3009 RMK AO2 SLP189 T00670050=
201002130853 METAR KBFI 130853Z 11003KT 10SM CLR 07/05 A3008 RMK AO2 RAE01 SLP186 P0000 60002 T00720050 51017=
201002130753 METAR KBFI 130753Z 09006KT 10SM -RA SCT036 BKN055 OVC070 08/07 A3007 RMK AO2 RAB05 SLP182 P0002 T00830067 401330067=
201002130653 METAR KBFI 130653Z 16006KT 10SM BKN044 OVC050 09/06 A3006 RMK AO2 RAB18E33 SLP178 P0000 T00890061=
201002130553 METAR KBFI 130553Z 13009KT 10SM SCT037 SCT044 SCT065 09/06 A3003 RMK AO2 RAE33 SLP169 P0003 60008 T00890061 10100 20089 51033=
201002130453 METAR KBFI 130453Z AUTO 17011G16KT 10SM -RA SCT043 SCT065 BKN080 09/06 A3000 RMK AO2 RAB0358E07B53 SLP159 P0000 T00940061 TSNO=
201002130353 METAR KBFI 130353Z 17011G18KT 10SM BKN034 BKN050 OVC060 09/06 A2997 RMK AO2 RAE52 SLP148 P0000 T00940061=
201002130300 METAR KBFI NIL=
201002130253 METAR KBFI 130253Z 17009G17KT 10SM -RA SCT031 BKN041 OVC055 09/06 A2994 RMK AO2 RAE07B37 SLP136 P0001 60005 T00940061 53025=
201002130153 METAR KBFI 130153Z 15009KT 10SM -RA BKN041 BKN050 BKN110 09/06 A2990 RMK AO2 RAE0057B51 SLP125 P0000 T00940061=
201002130053 METAR KBFI 130053Z 16011KT 10SM -RA BKN050 OVC060 09/06 A2988 RMK AO2 PK WND 17026/2359 SLP119 P0004 T00940061=
201002122353 METAR KBFI 122353Z 17013G18KT 10SM -RA SCT047 BKN060 BKN075 11/07 A2986 RMK AO2 PRESRR SLP111 P0017 60025 T01060072 10133 20078 53012=
201002122337 SPECI KBFI 122337Z 17007KT 3SM HZ FEW025 BKN031 BKN044 11/08 A2984 RMK AO2 RAE34 P0017=
201002122337 SPECI KBFI 122337Z 17007KT 3SM HZ FEW025 BKN031 BKN044 11/08 A2984 RMK AO2 RAE34 P0017=
201002122313 SPECI KBFI 122313Z 19011G25KT 170V240 3SM +RA FEW024 BKN029 OVC040 11/07 A2985 RMK AO2 P0016=
201002122313 SPECI KBFI 122313Z 19011G25KT 170V240 3SM +RA FEW024 BKN029 OVC040 11/07 A2985 RMK AO2 P0016=
201002122304 SPECI KBFI 122304Z 20012G20KT 1 3/4SM RA SCT033 OVC044 12/07 A2984 RMK AO2 VIS 1/2V5 PRESRR P0009=
201002122304 SPECI KBFI 122304Z 20012G20KT 1 3/4SM RA SCT033 OVC044 12/07 A2984 RMK AO2 VIS 1/2V5 PRESRR P0009=
201002122253 METAR KBFI 122253Z 17017G21KT 9SM -RA BKN046 12/06 A2982 RMK AO2 PK WND 15027/2228 RAB40 SLP097 P0000 T01220061=
201002122153 METAR KBFI 122153Z 16015KT 10SM FEW075 SCT100 13/07 A2981 RMK AO2 SLP095 T01280067=
201002122053 METAR KBFI 122053Z 14011KT 10SM BKN090 11/07 A2983 RMK AO2 RAE11 SLP099 P0001 60008 T01060072 56006=
201002121953 METAR KBFI 121953Z 18003KT 3SM RA BR SCT031 OVC043 09/07 A2983 RMK AO2 RAB00 SLP101 P0006 T00890067=
201002121853 METAR KBFI 121853Z 13008KT 10SM BKN043 OVC050 09/06 A2982 RMK AO2 RAE21 SLP097 P0001 T00890056=
201002121753 METAR KBFI 121753Z 15005KT 8SM -RA BKN043 OVC050 08/06 A2985 RMK AO2 SLP106 P0003 60008 T00780056 10089 20067 58006=
201002121653 METAR KBFI 121653Z 09007KT 6SM -RA BR SCT034 OVC043 08/06 A2985 RMK AO2 SLP107 P0004 T00780056=
201002121553 METAR KBFI 121553Z 14004KT 10SM -RA OVC046 07/04 A2987 RMK AO2 RAB41 SLP113 P0001 T00670044=
201002121453 METAR KBFI 121453Z 00000KT 10SM BKN080 07/04 A2986 RMK AO2 SLP112 T00670039 58008=
201002121353 METAR KBFI 121353Z 10004KT 10SM FEW080 08/04 A2989 RMK AO2 SLP120 T00830044=
201002121253 METAR KBFI 121253Z 15005KT 10SM FEW075 08/04 A2991 RMK AO2 SLP128 T00780044=
201002121153 METAR KBFI 121153Z 16006KT 10SM SCT075 08/05 A2989 RMK AO2 SLP121 60004 70023 T00830050 10122 20083 51028=
201002121053 METAR KBFI 121053Z 17009KT 10SM OVC080 09/06 A2988 RMK AO2 SLP118 T00890056=
201002120953 METAR KBFI 120953Z 17008KT 10SM BKN085 09/06 A2986 RMK AO2 SLP110 T00940061=
201002120853 METAR KBFI 120853Z 19011G18KT 10SM FEW045 10/06 A2981 RMK AO2 RAE19 SLP092 P0000 60004 T01000061 51033=
201002120753 METAR KBFI 120753Z 17010G15KT 6SM RA FEW037 BKN046 OVC060 11/07 A2978 RMK AO2 RAB02 PRESRR SLP084 P0003 T01060072 401330067=
201002120653 METAR KBFI 120653Z 17013KT 10SM BKN060 OVC075 12/07 A2973 RMK AO2 RAE19B40E52 SLP068 P0001 T01220067=
201002120553 METAR KBFI 120553Z 19007G14KT 10SM -RA OVC050 12/07 A2971 RMK AO2 RAB0457 SLP059 P0000 60006 T01220072 10128 20106 53024=
201002120453 METAR KBFI 120453Z 14006KT 10SM OVC060 11/07 A2967 RMK AO2 RAE11 SLP047 P0001 T01060067=
201002120353 METAR KBFI 120353Z 17008KT 10SM -RA BKN060 OVC070 11/07 A2965 RMK AO2 RAB23 SLP041 P0000 T01110067=
201002120253 METAR KBFI 120253Z 15006KT 10SM OVC085 11/07 A2964 RMK AO2 RAE14 SLP035 P0000 60005 T01110067 56028=
201002120153 METAR KBFI 120153Z 12007KT 9SM -RA BKN060 OVC075 11/07 A2966 RMK AO2 RAB17 SLP044 P0002 T01110072=
201002120053 METAR KBFI 120053Z 14004KT 10SM OVC055 11/08 A2968 RMK AO2 RAE49 SLP050 P0003 T01060083=
201002112353 METAR KBFI 112353Z 13009KT 10SM -RA BKN046 OVC055 11/08 A2972 RMK AO2 SLP063 P0000 60004 T01110083 10133 20094 58019=
201002112253 METAR KBFI 112253Z 11009KT 10SM -RA FEW033 BKN044 OVC055 12/09 A2974 RMK AO2 SLP070 P0001 T01220089=
201002112153 METAR KBFI 112153Z 00000KT 8SM -RA SCT028 OVC055 12/09 A2977 RMK AO2 SLP079 P0003 T01220089=
201002112053 METAR KBFI 112053Z COR 15009KT 10SM -RA SCT044 BKN090 OVC180 13/09 A2978 RMK AO2 RAB51 SLP082 P0000 60000 T01280089 58011=
201002111953 METAR KBFI 111953Z 14008KT 10SM BKN100 13/08 A2978 RMK AO2 SLP084 T01280083=
201002111853 METAR KBFI 111853Z 13005KT 10SM FEW050 OVC060 11/08 A2981 RMK AO2 SLP094 T01060078=
201002111753 METAR KBFI 111753Z 14005KT 10SM OVC040 09/07 A2981 RMK AO2 SLP093 60009 T00940072 10094 20072 56001=
201002111653 METAR KBFI 111653Z 14005KT 10SM OVC038 08/07 A2981 RMK AO2 RAB1559E19 SLP093 P0000 T00830067=
201002111643 SPECI KBFI 111643Z 00000KT 10SM OVC038 08/07 A2981 RMK AO2 RAB1559E19 P0000=
201002111643 SPECI KBFI 111643Z 00000KT 10SM OVC038 08/07 A2981 RMK AO2 RAB1559E19 P0000=
201002111553 METAR KBFI 111553Z 16004KT 10SM BKN028 OVC034 08/06 A2981 RMK AO2 RAE52 SLP093 P0002 T00780061=
201002111533 SPECI KBFI 111533Z 15006KT 4SM -RA BR BKN026 OVC034 07/06 A2981 RMK AO2 P0001=
201002111533 SPECI KBFI 111533Z 15006KT 4SM -RA BR BKN026 OVC034 07/06 A2981 RMK AO2 P0001=
201002111453 METAR KBFI 111453Z 18004KT 6SM -RA BR BKN038 BKN045 OVC055 08/06 A2981 RMK AO2 SLP095 P0005 60007 T00780061 58008=
201002111353 METAR KBFI 111353Z 14003KT 6SM -RA BR SCT031 BKN050 OVC070 07/06 A2982 RMK AO2 RAB21 SLP099 P0001 T00720061=
201002111253 METAR KBFI 111253Z 15003KT 8SM OVC031 07/06 A2983 RMK AO2 RAB1154E50 SLP101 P0001 T00720056=
201002111243 SPECI KBFI 111243Z 00000KT 4SM -RA BR OVC031 07/06 A2983 RMK AO2 RAB1154 P0001=
201002111243 SPECI KBFI 111243Z 00000KT 4SM -RA BR OVC031 07/06 A2983 RMK AO2 RAB1154 P0001=
201002111215 SPECI KBFI 111215Z 00000KT 9SM -RA OVC029 08/06 A2983 RMK AO2 RAB1154 P0000=
201002111215 SPECI KBFI 111215Z 00000KT 9SM -RA OVC029 08/06 A2983 RMK AO2 RAB1154 P0000=
201002111153 METAR KBFI 111153Z 00000KT 9SM OVC033 07/06 A2984 RMK AO2 RAB25E40 SLP103 P0000 60000 70008 T00720056 10072 20067 56007=
201002111128 SPECI KBFI 111128Z 00000KT 8SM -RA OVC031 07/06 A2984 RMK AO2 RAB25 P0000=
201002111128 SPECI KBFI 111128Z 00000KT 8SM -RA OVC031 07/06 A2984 RMK AO2 RAB25 P0000=
201002111106 SPECI KBFI 111106Z 00000KT 10SM OVC029 07/06 A2984 RMK AO2=
201002111106 SPECI KBFI 111106Z 00000KT 10SM OVC029 07/06 A2984 RMK AO2=
201002111053 METAR KBFI 111053Z 00000KT 10SM OVC031 07/05 A2984 RMK AO2 SLP103 T00720050=
201002110953 METAR KBFI 110953Z 13004KT 10SM OVC028 07/05 A2985 RMK AO2 SLP106 T00670050=
201002110920 SPECI KBFI 110920Z 13004KT 10SM OVC028 07/05 A2985 RMK AO2=
201002110920 SPECI KBFI 110920Z 13004KT 10SM OVC028 07/05 A2985 RMK AO2=
201002110853 METAR KBFI 110853Z 14003KT 10SM OVC030 07/05 A2986 RMK AO2 SLP110 T00670050 50000=
201002110753 METAR KBFI 110753Z 12004KT 10SM BKN030 BKN049 07/05 A2986 RMK AO2 SLP112 T00670050 400720006=
201002110741 SPECI KBFI 110741Z 13005KT 10SM BKN030 BKN049 07/05 A2987 RMK AO2=
201002110741 SPECI KBFI 110741Z 13005KT 10SM BKN030 BKN049 07/05 A2987 RMK AO2=
201002110653 METAR KBFI 110653Z 13005KT 10SM FEW009 SCT018 OVC028 07/05 A2986 RMK AO2 SLP113 T00670050=
201002110553 METAR KBFI 110553Z 14004KT 10SM OVC027 07/05 A2986 RMK AO2 SLP110 60004 T00670050 10072 20067 53006=
201002110507 SPECI KBFI 110507Z 00000KT 10SM FEW022 OVC029 07/05 A2985 RMK AO2=
201002110507 SPECI KBFI 110507Z 00000KT 10SM FEW022 OVC029 07/05 A2985 RMK AO2=
201002110453 METAR KBFI 110453Z 13003KT 10SM FEW025 SCT029 OVC041 07/05 A2985 RMK AO2 SLP108 T00670050=
201002110353 METAR KBFI 110353Z 14003KT 10SM FEW025 SCT029 OVC041 07/05 A2983 RMK AO2 RAE26 SLP102 P0000 T00670050=
201002110253 METAR KBFI 110253Z VRB03KT 7SM -RA BKN039 OVC060 07/04 A2984 RMK AO2 SLP104 P0002 60004 T00670044 58008=
201002110153 METAR KBFI 110153Z 00000KT 10SM -RA FEW028 BKN034 OVC044 07/04 A2986 RMK AO2 SLP109 P0000 T00670044=
201002110053 METAR KBFI 110053Z 00000KT 6SM -RA BR BKN033 OVC045 07/05 A2986 RMK AO2 SLP110 P0002 T00720050=
201002102353 METAR KBFI 102353Z 00000KT 9SM -RA OVC035 07/04 A2986 RMK AO2 SLP112 P0000 60004 T00720044 10072 20039 58015=
201002102253 METAR KBFI 102253Z 15006KT 10SM -RA BKN034 OVC043 07/04 A2988 RMK AO2 SLP119 P0000 T00670039=
201002102153 METAR KBFI 102153Z 18003KT 7SM -RA BKN032 OVC042 06/04 A2990 RMK AO2 SLP123 P0001 T00560039=
201002102053 METAR KBFI 102053Z 14007KT 6SM -RA BR BKN030 OVC043 05/03 A2991 RMK AO2 SLP127 P0002 60003 T00500033 58001 $=
201002101953 METAR KBFI 101953Z 14009KT 6SM -RA BR BKN036 OVC044 05/03 A2993 RMK AO2 RAB24 SLP133 P0001 T00500028 $=
201002101853 METAR KBFI 101853Z 15007KT 8SM SCT050 OVC065 04/02 A2992 RMK AO2 SLP132 T00390022=
201002101753 METAR KBFI 101753Z 13007KT 10SM FEW120 04/02 A2991 RMK AO2 SLP128 T00440022 10044 20006 58003=
201002101653 METAR KBFI 101653Z 14006KT 4SM BR FEW050 OVC100 02/01 A2992 RMK AO2 SLP130 T00170006=
201002101553 METAR KBFI 101553Z 14007KT 6SM BR BKN055 02/01 A2992 RMK AO2 SLP131 T00170006=
201002101542 SPECI KBFI 101542Z 15006KT 6SM BR SCT050 BKN070 01/00 A2992 RMK AO2=
201002101542 SPECI KBFI 101542Z 15006KT 6SM BR SCT050 BKN070 01/00 A2992 RMK AO2=
201002101525 SPECI KBFI 101525Z 14005KT 1 1/4SM BR BKN070 01/00 A2993 RMK AO2=
201002101525 SPECI KBFI 101525Z 14005KT 1 1/4SM BR BKN070 01/00 A2993 RMK AO2=
201002101453 METAR KBFI 101453Z 14006KT 6SM BR SCT001 BKN075 01/M01 A2992 RMK AO2 SLP131 T00061006 58007=
201002101425 SPECI KBFI 101425Z 13003KT 3SM BR OVC001 01/00 A2993 RMK AO2=
201002101425 SPECI KBFI 101425Z 13003KT 3SM BR OVC001 01/00 A2993 RMK AO2=
201002101413 SPECI KBFI 101413Z 12003KT 1SM BR VV001 01/00 A2993 RMK AO2=
201002101413 SPECI KBFI 101413Z 12003KT 1SM BR VV001 01/00 A2993 RMK AO2=
201002101353 METAR KBFI 101353Z 14003KT 1/4SM FG VV001 01/M01 A2993 RMK AO2 SLP135 T00061006=
201002101253 METAR KBFI 101253Z 11003KT 1/4SM FG VV001 01/00 A2994 RMK AO2 SLP137 T00110000=
201002101153 METAR KBFI 101153Z 14006KT 1/4SM FG VV001 02/01 A2994 RMK AO2 SLP139 T00170006 10044 20017 58012=
201002101112 SPECI KBFI 101112Z 13004KT 1/4SM FG VV001 03/02 A2995 RMK AO2=
201002101112 SPECI KBFI 101112Z 13004KT 1/4SM FG VV001 03/02 A2995 RMK AO2=
201002101053 METAR KBFI 101053Z 12004KT 1/2SM FG OVC002 03/02 A2996 RMK AO2 SLP146 T00280022=
201002101011 SPECI KBFI 101011Z 13003KT 1 3/4SM BR OVC002 03/02 A2997 RMK AO2=
201002101011 SPECI KBFI 101011Z 13003KT 1 3/4SM BR OVC002 03/02 A2997 RMK AO2=
201002100953 METAR KBFI 100953Z 13004KT 5SM BR BKN004 02/01 A2997 RMK AO2 SLP148 T00220006=
201002100946 SPECI KBFI 100946Z 13004KT 5SM BR BKN004 02/01 A2997 RMK AO2=
201002100946 SPECI KBFI 100946Z 13004KT 5SM BR BKN004 02/01 A2997 RMK AO2=
201002100937 SPECI KBFI 100937Z 13004KT 5SM BR SCT004 02/01 A2997 RMK AO2=
201002100937 SPECI KBFI 100937Z 13004KT 5SM BR SCT004 02/01 A2997 RMK AO2=
201002100853 METAR KBFI 100853Z 00000KT 5SM BR CLR 02/00 A2998 RMK AO2 SLP150 T00220000 56004=
201002100753 METAR KBFI 100753Z 12003KT 7SM CLR 03/02 A2998 RMK AO2 SLP152 T00330017 400940022=
201002100653 METAR KBFI 100653Z 14003KT 7SM CLR 03/02 A2998 RMK AO2 SLP153 T00330017=
201002100553 METAR KBFI 100553Z 00000KT 7SM CLR 04/02 A2999 RMK AO2 SLP154 T00390022 10094 20039 55003=
201002100453 METAR KBFI 100453Z 00000KT 8SM CLR 05/03 A2999 RMK AO2 SLP154 T00500028=
201002100353 METAR KBFI 100353Z 00000KT 9SM CLR 06/03 A2999 RMK AO2 SLP154 T00560028=
201002100253 METAR KBFI 100253Z 00000KT 10SM CLR 07/03 A3000 RMK AO2 SLP157 T00720033 56009=
201002100153 METAR KBFI 100153Z 00000KT 10SM SCT200 07/03 A3001 RMK AO2 SLP161 T00720033=
201002100053 METAR KBFI 100053Z 22003KT 10SM BKN200 08/04 A3001 RMK AO2 SLP161 T00780039=
201002092353 METAR KBFI 092353Z 00000KT 10SM FEW200 09/04 A3003 RMK AO2 SLP167 T00890039 10094 20039 58006=
201002092253 METAR KBFI 092253Z VRB03KT 10SM FEW017 09/04 A3004 RMK AO2 SLP171 T00890044=
201002092153 METAR KBFI 092153Z 26004KT 10SM SCT015 08/04 A3004 RMK AO2 SLP172 T00830044=
201002092053 METAR KBFI 092053Z 00000KT 7SM SCT013 08/04 A3004 RMK AO2 SLP173 T00780039 58017=
201002091953 METAR KBFI 091953Z 00000KT 8SM SCT008 OVC010 06/04 A3006 RMK AO2 SLP180 T00610039=
201002091853 METAR KBFI 091853Z 00000KT 6SM BR SCT008 OVC010 06/03 A3009 RMK AO2 SLP187 T00560033=
201002091832 SPECI KBFI 091832Z 00000KT 6SM BR SCT008 OVC010 04/03 A3009 RMK AO2=
201002091832 SPECI KBFI 091832Z 00000KT 6SM BR SCT008 OVC010 04/03 A3009 RMK AO2=
201002091753 METAR KBFI 091753Z 00000KT 3SM BR OVC008 04/03 A3009 RMK AO2 CIG 004V010 SLP190 T00390028 10044 20033 53009=
201002091746 SPECI KBFI 091746Z 00000KT 3SM BR OVC006 04/03 A3009 RMK AO2 CIG 002V010=
201002091746 SPECI KBFI 091746Z 00000KT 3SM BR OVC006 04/03 A3009 RMK AO2 CIG 002V010=
201002091722 SPECI KBFI 091722Z 10004KT 1SM BR OVC003 03/02 A3008 RMK AO2=
201002091722 SPECI KBFI 091722Z 10004KT 1SM BR OVC003 03/02 A3008 RMK AO2=
201002091703 SPECI KBFI 091703Z 08003KT 1/2SM FG OVC003 03/03 A3008 RMK AO2=
201002091703 SPECI KBFI 091703Z 08003KT 1/2SM FG OVC003 03/03 A3008 RMK AO2=
201002091653 METAR KBFI 091653Z 14004KT 1SM BR OVC003 03/02 A3008 RMK AO2 SLP185 T00330022=
201002091553 METAR KBFI 091553Z 00000KT 1SM BR OVC003 04/03 A3008 RMK AO2 CIG 002V007 SLP184 T00390028=
201002091453 METAR KBFI 091453Z 00000KT 1SM BR OVC003 03/02 A3006 RMK AO2 SLP180 T00330022 51009=
201002091442 SPECI KBFI 091442Z 00000KT 1SM BR OVC003 03/02 A3006 RMK AO2=
201002091442 SPECI KBFI 091442Z 00000KT 1SM BR OVC003 03/02 A3006 RMK AO2=
201002091435 SPECI KBFI 091435Z 00000KT 2SM BR OVC003 03/02 A3006 RMK AO2=
201002091435 SPECI KBFI 091435Z 00000KT 2SM BR OVC003 03/02 A3006 RMK AO2=
201002091353 METAR KBFI 091353Z 07004KT 3SM BR OVC003 04/03 A3005 RMK AO2 SLP175 T00390028=
201002091317 SPECI KBFI 091317Z 00000KT 1SM BR OVC003 04/03 A3005 RMK AO2=
201002091317 SPECI KBFI 091317Z 00000KT 1SM BR OVC003 04/03 A3005 RMK AO2=
201002091253 METAR KBFI 091253Z 35003KT 1/2SM FG OVC003 04/03 A3005 RMK AO2 SLP175 T00440033=
201002091242 SPECI KBFI 091242Z 35004KT 1SM BR OVC003 04/03 A3005 RMK AO2=
201002091242 SPECI KBFI 091242Z 35004KT 1SM BR OVC003 04/03 A3005 RMK AO2=
201002091233 SPECI KBFI 091233Z 32003KT 3/4SM BR OVC003 04/03 A3004 RMK AO2=
201002091233 SPECI KBFI 091233Z 32003KT 3/4SM BR OVC003 04/03 A3004 RMK AO2=
201002091222 SPECI KBFI 091222Z 00000KT 1 3/4SM BR OVC003 04/03 A3004 RMK AO2=
201002091222 SPECI KBFI 091222Z 00000KT 1 3/4SM BR OVC003 04/03 A3004 RMK AO2=
201002091151 METAR KBFI 091151Z 02003KT 3SM BR OVC003 04/03 A3004 RMK AO2 SLP171 T00440033 10067 20044 51004=
201002091150 SPECI KBFI 091150Z 02003KT 3SM BR OVC003 04/03 A3004 RMK AO2=
201002091150 SPECI KBFI 091150Z 02003KT 3SM BR OVC003 04/03 A3004 RMK AO2=
201002091128 SPECI KBFI 091128Z 00000KT 1 1/4SM BR OVC003 05/03 A3004 RMK AO2=
201002091128 SPECI KBFI 091128Z 00000KT 1 1/4SM BR OVC003 05/03 A3004 RMK AO2=
201002091119 SPECI KBFI 091119Z 04003KT 2 1/2SM BR OVC003 05/04 A3004 RMK AO2 VIS 1 1/2V4 CIG 002V005=
201002091119 SPECI KBFI 091119Z 04003KT 2 1/2SM BR OVC003 05/04 A3004 RMK AO2 VIS 1 1/2V4 CIG 002V005=
201002091053 METAR KBFI 091053Z 00000KT 7SM OVC007 05/04 A3004 RMK AO2 CIG 004V008 SLP170 T00500039=
201002090953 METAR KBFI 090953Z 00000KT 4SM BR OVC005 06/04 A3003 RMK AO2 CIG 003V008 SLP168 T00610044=
201002090920 SPECI KBFI 090920Z VRB03KT 4SM BR OVC003 06/05 A3003 RMK AO2 CIG 003V006=
201002090920 SPECI KBFI 090920Z VRB03KT 4SM BR OVC003 06/05 A3003 RMK AO2 CIG 003V006=
201002090853 METAR KBFI 090853Z 00000KT 7SM OVC007 06/04 A3002 RMK AO2 CIG 007V010 SLP166 T00610044 50004=
201002090836 SPECI KBFI 090836Z 00000KT 7SM BKN009 05/03 A3002 RMK AO2=
201002090836 SPECI KBFI 090836Z 00000KT 7SM BKN009 05/03 A3002 RMK AO2=
201002090753 METAR KBFI 090753Z 00000KT 8SM CLR 06/04 A3003 RMK AO2 SLP167 T00610039 401060056=
201002090653 METAR KBFI 090653Z 00000KT 8SM CLR 06/04 A3002 RMK AO2 SLP164 T00610039=
201002090553 METAR KBFI 090553Z 00000KT 10SM CLR 07/04 A3001 RMK AO2 SLP163 T00720044 10094 20067 50002=
201002090453 METAR KBFI 090453Z 00000KT 10SM SCT050 07/05 A3002 RMK AO2 SLP163 T00720050=
201002090353 METAR KBFI 090353Z 00000KT 10SM SCT050 07/04 A3001 RMK AO2 SLP161 T00670044=
201002090253 METAR KBFI 090253Z 31004KT 10SM FEW120 08/06 A3001 RMK AO2 SLP160 T00830056 53003=
201002090153 METAR KBFI 090153Z 00000KT 10SM SCT160 09/06 A3000 RMK AO2 SLP157 T00890056=
201002090053 METAR KBFI 090053Z 30003KT 10SM FEW050 SCT180 09/06 A2999 RMK AO2 SLP156 T00940056=
201002082353 METAR KBFI 082353Z 31005KT 10SM CLR 09/06 A3000 RMK AO2 SLP157 T00940056 10106 20083 56010=
201002082253 METAR KBFI 082253Z 31003KT 10SM CLR 10/06 A3000 RMK AO2 SLP160 T01000061=
201002082233 SPECI KBFI 082233Z VRB04KT 10SM SCT011 09/06 A3001 RMK AO2=
201002082233 SPECI KBFI 082233Z VRB04KT 10SM SCT011 09/06 A3001 RMK AO2=
201002082213 SPECI KBFI 082213Z 27006KT 10SM BKN013 09/06 A3001 RMK AO2=
201002082213 SPECI KBFI 082213Z 27006KT 10SM BKN013 09/06 A3001 RMK AO2=
201002082153 METAR KBFI 082153Z 30005KT 10SM FEW010 SCT015 11/07 A3001 RMK AO2 SLP162 T01060067=
201002082053 METAR KBFI 082053Z 31004KT 9SM SCT018 11/07 A3003 RMK AO2 SLP167 T01060067 58018=
201002082045 SPECI KBFI 082045Z 29003KT 9SM FEW018 11/06 A3003 RMK AO2=
201002082045 SPECI KBFI 082045Z 29003KT 9SM FEW018 11/06 A3003 RMK AO2=
201002082038 SPECI KBFI 082038Z 33003KT 9SM BKN018 10/06 A3003 RMK AO2=
201002082038 SPECI KBFI 082038Z 33003KT 9SM BKN018 10/06 A3003 RMK AO2=
201002081953 METAR KBFI 081953Z 00000KT 8SM BKN012 09/06 A3005 RMK AO2 SLP175 T00940061=
201002081853 METAR KBFI 081853Z 00000KT 8SM SCT008 OVC010 09/06 A3007 RMK AO2 SLP182 T00890061=
201002081753 METAR KBFI 081753Z 00000KT 9SM OVC008 08/06 A3008 RMK AO2 SLP185 T00830061 10083 20072 50001=
201002081653 METAR KBFI 081653Z 25004KT 10SM OVC008 08/06 A3008 RMK AO2 SLP185 T00780061=
201002081553 METAR KBFI 081553Z 00000KT 5SM BR OVC008 08/06 A3008 RMK AO2 SLP184 T00780061=
201002081453 METAR KBFI 081453Z 00000KT 10SM OVC008 08/06 A3007 RMK AO2 SLP184 T00830061 56006=
201002081353 METAR KBFI 081353Z 00000KT 10SM OVC008 08/06 A3008 RMK AO2 SLP186 T00780061=
201002081253 METAR KBFI 081253Z AUTO 00000KT 10SM FEW010 OVC065 07/06 A3008 RMK AO2 SLP186 T00720056 TSNO=
201002081218 SPECI KBFI 081218Z AUTO 13004KT 10SM SCT014 OVC065 08/06 A3009 RMK AO2 TSNO=
201002081218 SPECI KBFI 081218Z AUTO 13004KT 10SM SCT014 OVC065 08/06 A3009 RMK AO2 TSNO=
201002081153 METAR KBFI 081153Z AUTO 13003KT 10SM BKN014 OVC065 08/07 A3009 RMK AO2 RAE01 SLP190 P0000 60000 70002 T00830067 10094 20078 58001 TSNO=
201002081103 SPECI KBFI 081103Z AUTO 00000KT 10SM BKN014 OVC060 08/07 A3010 RMK AO2 RAE01 P0000 TSNO=
201002081103 SPECI KBFI 081103Z AUTO 00000KT 10SM BKN014 OVC060 08/07 A3010 RMK AO2 RAE01 P0000 TSNO=
201002081053 METAR KBFI 081053Z AUTO 13004KT 8SM -RA SCT014 OVC060 08/07 A3010 RMK AO2 RAB48 SLP191 P0000 T00830067 TSNO=
201002080953 METAR KBFI 080953Z AUTO 13003KT 10SM OVC060 08/07 A3010 RMK AO2 SLP192 T00830067 TSNO=
201002080853 METAR KBFI 080853Z AUTO 14005KT 10SM FEW014 OVC060 08/07 A3010 RMK AO2 SLP191 T00830067 53003 TSNO=
201002080753 METAR KBFI 080753Z AUTO 12004KT 10SM OVC060 08/07 A3009 RMK AO2 SLP190 T00830072 401060072 TSNO=
201002080653 METAR KBFI 080653Z 00000KT 10SM FEW024 OVC060 08/07 A3009 RMK AO2 SLP189 T00830072=
201002080553 METAR KBFI 080553Z 13003KT 10SM FEW022 OVC060 09/07 A3009 RMK AO2 SLP189 T00890072 10106 20089 53003=
201002080453 METAR KBFI 080453Z 00000KT 10SM FEW018 BKN024 OVC060 09/07 A3009 RMK AO2 SLP187 T00940072=
201002080353 METAR KBFI 080353Z 15005KT 10SM BKN019 OVC036 10/07 A3008 RMK AO2 SLP186 T01000072=
201002080253 METAR KBFI 080253Z 00000KT 10SM BKN022 OVC060 09/07 A3008 RMK AO2 SLP186 T00940072 58001=
201002080250 SPECI KBFI 080250Z 14003KT 10SM BKN022 OVC060 09/07 A3008 RMK AO2=
201002080250 SPECI KBFI 080250Z 14003KT 10SM BKN022 OVC060 09/07 A3008 RMK AO2=
201002080153 METAR KBFI 080153Z 16003KT 10SM FEW029 OVC060 10/07 A3008 RMK AO2 SLP187 T01000067=
201002080113 SPECI KBFI 080113Z 14003KT 10SM FEW017 BKN044 OVC060 10/07 A3008 RMK AO2=
201002080113 SPECI KBFI 080113Z 14003KT 10SM FEW017 BKN044 OVC060 10/07 A3008 RMK AO2=
201002080101 SPECI KBFI 080101Z 14003KT 10SM BKN029 OVC060 10/07 A3008 RMK AO2=
201002080101 SPECI KBFI 080101Z 14003KT 10SM BKN029 OVC060 10/07 A3008 RMK AO2=
201002080053 METAR KBFI 080053Z 00000KT 10SM FEW018 OVC031 10/07 A3008 RMK AO2 SLP187 T01000067=
201002080037 SPECI KBFI 080037Z 00000KT 10SM SCT018 OVC033 10/07 A3008 RMK AO2=
201002080037 SPECI KBFI 080037Z 00000KT 10SM SCT018 OVC033 10/07 A3008 RMK AO2=
201002080025 SPECI KBFI 080025Z 00000KT 10SM BKN018 OVC035 11/07 A3008 RMK AO2=
201002080025 SPECI KBFI 080025Z 00000KT 10SM BKN018 OVC035 11/07 A3008 RMK AO2=
201002080014 SPECI KBFI 080014Z 00000KT 10SM SCT018 OVC035 11/07 A3008 RMK AO2=
201002080014 SPECI KBFI 080014Z 00000KT 10SM SCT018 OVC035 11/07 A3008 RMK AO2=
201002080005 SPECI KBFI 080005Z 17003KT 10SM BKN018 OVC033 11/07 A3008 RMK AO2=
201002080005 SPECI KBFI 080005Z 17003KT 10SM BKN018 OVC033 11/07 A3008 RMK AO2=
201002072353 METAR KBFI 072353Z 00000KT 10SM SCT018 OVC031 11/07 A3008 RMK AO2 SLP184 T01060067 10106 20083 55001=
201002072253 METAR KBFI 072253Z 24003KT 10SM FEW015 OVC020 10/07 A3007 RMK AO2 SLP183 T01000067=
201002072153 METAR KBFI 072153Z 17003KT 10SM SCT018 BKN025 OVC030 11/07 A3007 RMK AO2 SLP182 T01060067=
201002072053 METAR KBFI 072053Z 13006KT 10SM SCT018 BKN025 OVC030 10/07 A3008 RMK AO2 SLP185 T01000072 58005=
201002071953 METAR KBFI 071953Z 14005KT 10SM BKN025 BKN033 OVC042 09/07 A3009 RMK AO2 SLP189 T00940072=
201002071853 METAR KBFI 071853Z 14003KT 10SM OVC031 09/07 A3009 RMK AO2 SLP190 T00940072=
201002071836 SPECI KBFI 071836Z 14003KT 10SM BKN029 OVC041 09/07 A3009 RMK AO2=
201002071836 SPECI KBFI 071836Z 14003KT 10SM BKN029 OVC041 09/07 A3009 RMK AO2=
201002071828 SPECI KBFI 071828Z 14004KT 10SM SCT027 BKN035 OVC044 09/07 A3009 RMK AO2=
201002071828 SPECI KBFI 071828Z 14004KT 10SM SCT027 BKN035 OVC044 09/07 A3009 RMK AO2=
201002071753 METAR KBFI 071753Z 14004KT 10SM BKN027 OVC040 08/07 A3009 RMK AO2 SLP189 60002 T00830067 10083 20072 51010=
201002071715 SPECI KBFI 071715Z 15004KT 10SM BKN027 OVC041 08/07 A3009 RMK AO2=
201002071715 SPECI KBFI 071715Z 15004KT 10SM BKN027 OVC041 08/07 A3009 RMK AO2=
201002071653 METAR KBFI 071653Z 13003KT 10SM OVC043 08/07 A3008 RMK AO2 SLP186 T00830067=
201002071553 METAR KBFI 071553Z 12004KT 10SM FEW015 SCT042 OVC050 08/06 A3007 RMK AO2 RAE09B40E53 SLP183 P0000 T00780061=
201002071453 METAR KBFI 071453Z 12003KT 10SM -RA FEW026 OVC040 08/06 A3006 RMK AO2 RAE11B31 SLP178 P0000 60002 T00780061 52004=
201002071353 METAR KBFI 071353Z 14003KT 10SM -RA BKN038 OVC055 08/06 A3005 RMK AO2 SLP177 P0001 T00780061=
201002071318 SPECI KBFI 071318Z 11003KT 10SM -RA FEW010 OVC038 08/07 A3005 RMK AO2 P0000=
201002071318 SPECI KBFI 071318Z 11003KT 10SM -RA FEW010 OVC038 08/07 A3005 RMK AO2 P0000=
201002071310 SPECI KBFI 071310Z 11004KT 10SM -RA BKN010 OVC038 08/07 A3005 RMK AO2 P0000=
201002071310 SPECI KBFI 071310Z 11004KT 10SM -RA BKN010 OVC038 08/07 A3005 RMK AO2 P0000=
201002071253 METAR KBFI 071253Z 12003KT 10SM -RA BKN008 OVC040 08/06 A3005 RMK AO2 SLP176 P0001 T00780061=
201002071153 METAR KBFI 071153Z 13003KT 8SM -RA BKN008 OVC055 08/06 A3005 RMK AO2 SLP175 P0001 60016 70031 T00780061 10089 20078 51004=
201002071150 SPECI KBFI 071150Z 14003KT 8SM -RA BKN008 BKN022 OVC055 08/06 A3005 RMK AO2 P0001=
201002071150 SPECI KBFI 071150Z 14003KT 8SM -RA BKN008 BKN022 OVC055 08/06 A3005 RMK AO2 P0001=
201002071141 SPECI KBFI 071141Z 14003KT 10SM -RA SCT008 OVC060 08/06 A3005 RMK AO2 P0001=
201002071141 SPECI KBFI 071141Z 14003KT 10SM -RA SCT008 OVC060 08/06 A3005 RMK AO2 P0001=
201002071053 METAR KBFI 071053Z 14003KT 10SM -RA SCT026 BKN033 OVC060 08/06 A3004 RMK AO2 SLP172 P0003 T00780061=
201002071016 SPECI KBFI 071016Z 00000KT 8SM -RA OVC028 08/07 A3004 RMK AO2 P0002=
201002071016 SPECI KBFI 071016Z 00000KT 8SM -RA OVC028 08/07 A3004 RMK AO2 P0002=
201002070953 METAR KBFI 070953Z 12003KT 7SM -RA BKN030 OVC037 08/07 A3004 RMK AO2 SLP171 P0002 T00830067=
201002070853 METAR KBFI 070853Z 00000KT 10SM -RA OVC035 08/07 A3002 RMK AO2 SLP166 P0001 60010 T00830067 52009=
201002070753 METAR KBFI 070753Z AUTO 00000KT 9SM -RA OVC035 08/06 A3002 RMK AO2 SLP163 P0004 T00830061 401500044 TSNO=
201002070700 SPECI KBFI 070700Z 14003KT 8SM -RA SCT026 BKN034 OVC042 08/07 A3001 RMK AO2 P0000=
201002070700 SPECI KBFI 070700Z 14003KT 8SM -RA SCT026 BKN034 OVC042 08/07 A3001 RMK AO2 P0000=
201002070653 METAR KBFI 070653Z 13003KT 7SM -RA SCT022 BKN029 OVC036 08/07 A3000 RMK AO2 SLP160 P0005 T00830067=
201002070553 METAR KBFI 070553Z 13007KT 5SM -RA SCT022 BKN029 OVC036 09/06 A3000 RMK AO2 SLP157 P0012 60015 T00890061 10139 20089 51020=
201002070453 METAR KBFI 070453Z 13005KT 10SM -RA FEW028 BKN047 OVC060 10/06 A2998 RMK AO2 SLP153 P0002 T01000061=
201002070353 METAR KBFI 070353Z 11004KT 10SM -RA BKN045 OVC055 11/05 A2996 RMK AO2 SLP145 P0001 T01060050=
201002070253 METAR KBFI 070253Z 17003KT 10SM -RA BKN055 OVC075 11/06 A2994 RMK AO2 RAB32 SLP137 P0000 60000 T01110056 53020=
201002070153 METAR KBFI 070153Z 13003KT 10SM OVC075 12/04 A2991 RMK AO2 SLP129 T01220039=
201002070053 METAR KBFI 070053Z 00000KT 10SM OVC080 13/04 A2989 RMK AO2 SLP122 T01280039=
201002062353 METAR KBFI 062353Z 00000KT 10SM SCT060 BKN220 14/03 A2988 RMK AO2 SLP117 T01390028 10150 20089 53005=
201002062253 METAR KBFI 062253Z 24004KT 10SM CLR 13/02 A2987 RMK AO2 SLP113 T01330022=
201002062153 METAR KBFI 062153Z 00000KT 10SM SCT050 BKN100 14/03 A2987 RMK AO2 SLP113 T01390033=
201002062053 METAR KBFI 062053Z 00000KT 10SM SCT080 14/04 A2986 RMK AO2 SLP113 T01390039 51005=
201002061953 METAR KBFI 061953Z 14006KT 10SM CLR 14/03 A2986 RMK AO2 SLP112 T01390028=
201002061853 METAR KBFI 061853Z 14005KT 10SM CLR 12/04 A2986 RMK AO2 SLP111 T01170044=
201002061753 METAR KBFI 061753Z 00000KT 10SM CLR 09/06 A2985 RMK AO2 SLP107 T00890056 10089 20044 51013=
201002061653 METAR KBFI 061653Z 00000KT 10SM SCT160 BKN200 06/04 A2984 RMK AO2 SLP105 T00610039=
201002061553 METAR KBFI 061553Z 00000KT 10SM CLR 04/02 A2983 RMK AO2 SLP101 T00440022=
201002061453 METAR KBFI 061453Z 00000KT 10SM BKN140 05/03 A2981 RMK AO2 SLP094 T00500028 51007=
201002061353 METAR KBFI 061353Z 00000KT 10SM CLR 05/03 A2980 RMK AO2 SLP092 T00500033=
201002061253 METAR KBFI 061253Z 00000KT 10SM CLR 06/04 A2980 RMK AO2 SLP090 T00610039=
201002061153 METAR KBFI 061153Z 00000KT 10SM CLR 06/03 A2979 RMK AO2 SLP087 70006 T00560028 10100 20050 51005=
201002061053 METAR KBFI 061053Z 00000KT 10SM CLR 07/04 A2978 RMK AO2 SLP085 T00720044=
201002060953 METAR KBFI 060953Z 31003KT 10SM OVC200 08/04 A2979 RMK AO2 SLP085 T00780044=
201002060853 METAR KBFI 060853Z 00000KT 10SM OVC200 07/02 A2977 RMK AO2 SLP082 T00670022 50000=
201002060753 METAR KBFI 060753Z 00000KT 10SM CLR 08/02 A2978 RMK AO2 SLP082 T00830017 401560083=
201002060653 METAR KBFI 060653Z 00000KT 10SM SCT200 09/02 A2978 RMK AO2 SLP082 T00890017=
201002060553 METAR KBFI 060553Z 12006KT 10SM CLR 10/02 A2977 RMK AO2 SLP082 T01000017 10156 20083 51001=
201002060453 METAR KBFI 060453Z 11005KT 10SM CLR 10/02 A2977 RMK AO2 SLP081 T01000022=
201002060353 METAR KBFI 060353Z 11003KT 10SM CLR 11/03 A2978 RMK AO2 SLP082 T01060033=
201002060253 METAR KBFI 060253Z 00000KT 10SM CLR 11/04 A2977 RMK AO2 SLP080 T01060044 55000=
201002060153 METAR KBFI 060153Z 05006KT 10SM CLR 13/04 A2977 RMK AO2 SLP080 T01280044=
201002060053 METAR KBFI 060053Z 05004KT 10SM BKN080 14/04 A2977 RMK AO2 SLP080 T01390044=
201002052353 METAR KBFI 052353Z 00000KT 10SM BKN060 OVC080 16/03 A2977 RMK AO2 SLP081 60000 T01560033 10156 20094 55007=
201002052253 METAR KBFI 052253Z 12007KT 10SM SCT070 15/04 A2977 RMK AO2 RAE04 SLP080 P0000 T01500044=
201002052153 METAR KBFI 052153Z 09006KT 10SM -RA FEW038 SCT055 BKN075 14/06 A2978 RMK AO2 RAB48 SLP084 P0000 T01390056=
201002052053 METAR KBFI 052053Z 11005KT 10SM FEW055 OVC070 12/07 A2979 RMK AO2 RAE10 SLP087 P0000 60000 T01220067 50002=
201002051953 METAR KBFI 051953Z 13006KT 10SM -RA BKN048 BKN060 11/07 A2980 RMK AO2 RAB13 SLP092 P0000 T01110072=
201002051853 METAR KBFI 051853Z 00000KT 10SM OVC070 11/07 A2980 RMK AO2 SLP090 T01060067=
201002051753 METAR KBFI 051753Z 16004KT 10SM OVC070 09/07 A2978 RMK AO2 SLP085 60006 T00940067 10100 20083 51015=
201002051653 METAR KBFI 051653Z 16004KT 10SM BKN065 09/07 A2977 RMK AO2 SLP080 T00940067=
201002051553 METAR KBFI 051553Z 12005KT 10SM SCT043 OVC060 09/06 A2976 RMK AO2 RAE02 SLP076 P0000 T00890061=
201002051453 METAR KBFI 051453Z 12006KT 10SM -RA FEW039 BKN048 OVC070 09/07 A2974 RMK AO2 RAE19B52 SLP069 P0001 60006 T00890067 51031=
201002051353 METAR KBFI 051353Z 13007KT 8SM -RA SCT045 OVC055 09/07 A2971 RMK AO2 SLP060 P0003 T00890067=
201002051253 METAR KBFI 051253Z 15004KT 7SM -RA FEW029 SCT036 OVC046 09/07 A2969 RMK AO2 SLP054 P0002 T00890067=
201002051153 METAR KBFI 051153Z 13005KT 10SM -RA OVC048 09/07 A2965 RMK AO2 RAB51 SLP038 P0000 60007 70010 T00890067 10106 20083 53023=
201002051053 METAR KBFI 051053Z 00000KT 10SM OVC050 09/07 A2962 RMK AO2 SLP029 T00890067=
201002050953 METAR KBFI 050953Z 33003KT 10SM OVC055 09/07 A2960 RMK AO2 RAE45 SLP022 P0001 T00890067=
201002050853 METAR KBFI 050853Z 00000KT 10SM -RA OVC060 09/07 A2958 RMK AO2 RAB0758 SLP015 P0001 60006 T00890067 52012=
201002050753 METAR KBFI 050753Z 00000KT 10SM OVC070 09/06 A2956 RMK AO2 RAE39 SLP010 P0001 T00940061 401440044=
201002050653 METAR KBFI 050653Z 00000KT 10SM -RA OVC060 09/06 A2956 RMK AO2 SLP008 P0004 T00940061=
201002050553 METAR KBFI 050553Z 13005KT 9SM -RA SCT046 OVC055 11/04 A2954 RMK AO2 RAE05B22 SLP003 P0003 60003 T01060039 10133 20100 53006=
201002050453 METAR KBFI 050453Z 13012G17KT 10SM -RA FEW050 OVC060 12/02 A2952 RMK AO2 RAB11 SLP995 P0000 T01220022=
201002050353 METAR KBFI 050353Z 14011G18KT 10SM OVC070 12/01 A2951 RMK AO2 SLP994 T01220006=
201002050253 METAR KBFI 050253Z 13011KT 10SM BKN080 13/00 A2952 RMK AO2 SLP997 T01280000 55010=
201002050153 METAR KBFI 050153Z 12011G17KT 10SM FEW100 13/00 A2952 RMK AO2 SLP995 T01280000=
201002050053 METAR KBFI 050053Z 11008G16KT 10SM CLR 13/01 A2953 RMK AO2 SLP000 T01280006=
201002042353 METAR KBFI 042353Z 10009KT 10SM CLR 13/01 A2955 RMK AO2 SLP007 T01330006 10144 20094 56027=
201002042253 METAR KBFI 042253Z 10007KT 10SM CLR 14/01 A2958 RMK AO2 SLP015 T01390006=
201002042153 METAR KBFI 042153Z 12006KT 10SM FEW050 BKN120 14/02 A2960 RMK AO2 SLP025 T01390017=
201002042053 METAR KBFI 042053Z 12009KT 10SM BKN080 OVC160 13/02 A2963 RMK AO2 SLP034 T01330017 58021=
201002041953 METAR KBFI 041953Z 08004KT 10SM FEW080 SCT120 13/03 A2966 RMK AO2 SLP042 T01280033=
201002041853 METAR KBFI 041853Z AUTO 00000KT 10SM SCT120 BKN200 11/04 A2968 RMK AO2 SLP051 T01110039 TSNO=
201002041753 METAR KBFI 041753Z 00000KT 10SM SCT120 09/04 A2970 RMK AO2 SLP055 T00940044 10094 20044 58009=
201002041653 METAR KBFI 041653Z 00000KT 10SM SCT090 BKN140 07/06 A2971 RMK AO2 SLP060 T00720056=
201002041553 METAR KBFI 041553Z 00000KT 10SM FEW075 OVC100 06/04 A2972 RMK AO2 SLP062 T00610039=
201002041453 METAR KBFI 041453Z 00000KT 10SM BKN080 05/04 A2972 RMK AO2 SLP064 T00500039 58010=
201002041353 METAR KBFI 041353Z 00000KT 10SM FEW001 BKN050 05/03 A2973 RMK AO2 SLP068 T00500033=
201002041253 METAR KBFI 041253Z 00000KT 10SM BKN050 06/04 A2974 RMK AO2 SLP071 T00560044=
201002041153 METAR KBFI 041153Z 00000KT 10SM BKN050 BKN095 04/03 A2975 RMK AO2 SLP074 60000 70027 T00440033 10083 20044 52002=
201002041053 METAR KBFI 041053Z 00000KT 10SM BKN055 06/04 A2975 RMK AO2 SLP074 T00610044=
201002040953 METAR KBFI 040953Z 00000KT 10SM FEW041 OVC060 07/05 A2975 RMK AO2 RAE01 SLP073 P0000 T00670050=
201002040853 METAR KBFI 040853Z 00000KT 10SM -RA SCT039 OVC055 07/05 A2975 RMK AO2 RAB49 SLP073 P0000 60000 T00720050 51002=
201002040753 METAR KBFI 040753Z 00000KT 10SM FEW037 SCT047 OVC110 07/04 A2974 RMK AO2 SLP072 T00670044 401000050=
201002040653 METAR KBFI 040653Z 00000KT 10SM FEW041 BKN055 08/06 A2975 RMK AO2 RAE0557 SLP072 P0000 T00780056=
201002040553 METAR KBFI 040553Z 12004KT 10SM -RA BKN043 OVC055 08/07 A2974 RMK AO2 RAB0458 SLP070 P0000 60009 T00830067 10100 20083 55000=
201002040453 METAR KBFI 040453Z 00000KT 10SM OVC043 08/07 A2973 RMK AO2 RAB29E51 SLP067 P0000 T00830067=
201002040353 METAR KBFI 040353Z COR 10003KT 10SM FEW010 BKN020 OVC047 08/07 A2973 RMK AO2 RAE48 SLP067 P0008 T00830067=
201002040319 SPECI KBFI 040319Z 00000KT 4SM RA BR FEW008 BKN031 OVC040 08/07 A2973 RMK AO2 P0005=
201002040319 SPECI KBFI 040319Z 00000KT 4SM RA BR FEW008 BKN031 OVC040 08/07 A2973 RMK AO2 P0005=
201002040306 SPECI KBFI 040306Z 12003KT 6SM -RA BR FEW008 BKN026 OVC050 08/07 A2974 RMK AO2 P0001=
201002040306 SPECI KBFI 040306Z 12003KT 6SM -RA BR FEW008 BKN026 OVC050 08/07 A2974 RMK AO2 P0001=
201002040253 METAR KBFI 040253Z 14005KT 6SM -RA BR SCT021 BKN028 OVC041 08/07 A2974 RMK AO2 RAB0158 SLP070 P0001 60001 T00830067 53015=
201002040153 METAR KBFI 040153Z 28005KT 10SM FEW007 BKN046 OVC055 09/07 A2972 RMK AO2 RAB11E50 SLP064 P0000 T00890067=
201002040053 METAR KBFI 040053Z 06003KT 10SM BKN060 10/06 A2970 RMK AO2 SLP056 T01000061=
201002032353 METAR KBFI 032353Z 00000KT 10SM BKN055 BKN200 10/06 A2970 RMK AO2 RAE2256 SLP055 P0000 60016 T01000061 10100 20072 56015=
201002032253 METAR KBFI 032253Z 04004KT 10SM -RA BKN031 BKN045 09/07 A2970 RMK AO2 SLP058 P0000 T00940067=
201002032153 METAR KBFI 032153Z 00000KT 9SM -RA BKN031 BKN045 BKN090 08/07 A2972 RMK AO2 SLP062 P0002 T00830067=
201002032053 METAR KBFI 032053Z 15004KT 6SM -RA BR FEW008 BKN040 OVC050 08/06 A2974 RMK AO2 SLP070 P0001 60014 T00780061 58006=
201002031953 METAR KBFI 031953Z 00000KT 5SM -RA BR FEW007 BKN028 OVC047 07/06 A2975 RMK AO2 SLP074 P0009 T00720056=
201002031853 METAR KBFI 031853Z 13003KT 8SM -RA BKN043 OVC050 07/06 A2976 RMK AO2 SLP078 P0004 T00720056=
201002031753 METAR KBFI 031753Z 16005KT 9SM -RA BKN043 OVC050 08/06 A2976 RMK AO2 SLP076 P0001 60002 T00780056 10078 20056 53014=
201002031653 METAR KBFI 031653Z 00000KT 10SM -RA BKN060 OVC070 08/06 A2974 RMK AO2 RAB47 SLP070 P0000 T00780056=
201002031553 METAR KBFI 031553Z 00000KT 10SM BKN065 OVC100 07/04 A2972 RMK AO2 SLP063 T00720044=
201002031453 METAR KBFI 031453Z 00000KT 10SM SCT070 SCT080 BKN100 06/04 A2972 RMK AO2 SLP062 60001 T00560039 55005=
201002031353 METAR KBFI 031353Z 00000KT 10SM SCT110 06/04 A2971 RMK AO2 RAE07 SLP061 P0000 T00610039=
201002031253 METAR KBFI 031253Z 34003KT 7SM -RA OVC048 08/06 A2972 RMK AO2 RAB09 SLP062 P0001 T00780056=
201002031153 METAR KBFI 031153Z 00000KT 10SM BKN060 OVC095 06/04 A2973 RMK AO2 SLP067 T00560039 10083 20050 57007=
201002031053 METAR KBFI 031053Z 00000KT 10SM BKN060 OVC090 06/03 A2974 RMK AO2 SLP070 T00560033=
201002030953 METAR KBFI 030953Z AUTO 00000KT 10SM OVC100 06/03 A2974 RMK AO2 SLP072 T00560033 TSNO=
201002030853 METAR KBFI 030853Z 00000KT 10SM BKN090 BKN110 07/03 A2975 RMK AO2 SLP074 T00670033 58004=
201002030753 METAR KBFI 030753Z 00000KT 10SM BKN110 07/03 A2976 RMK AO2 SLP078 T00670028 401330044=
201002030653 METAR KBFI 030653Z 00000KT 10SM CLR 07/03 A2976 RMK AO2 SLP078 T00720028=
201002030553 METAR KBFI 030553Z 00000KT 10SM SCT200 08/03 A2976 RMK AO2 SLP079 T00830033 10122 20078 56003=
201002030453 METAR KBFI 030453Z 00000KT 10SM CLR 08/04 A2977 RMK AO2 SLP079 T00780039=
201002030353 METAR KBFI 030353Z 00000KT 10SM SCT250 09/04 A2977 RMK AO2 SLP079 T00940039=
201002030253 METAR KBFI 030253Z 00000KT 10SM BKN200 10/04 A2977 RMK AO2 SLP082 T01000039 56007=
201002030153 METAR KBFI 030153Z 27004KT 10SM CLR 11/04 A2978 RMK AO2 SLP084 T01060039=
201002030053 METAR KBFI 030053Z 33005KT 10SM BKN200 BKN250 11/04 A2979 RMK AO2 SLP086 T01110039=
201002022353 METAR KBFI 022353Z 32003KT 10SM FEW030 BKN250 12/04 A2980 RMK AO2 SLP090 T01220044 10133 20078 56016=
201002022253 METAR KBFI 022253Z 06004KT 10SM FEW030 BKN250 13/02 A2980 RMK AO2 SLP092 T01280022=
201002022153 METAR KBFI 022153Z 04004KT 10SM FEW030 SCT250 12/04 A2982 RMK AO2 SLP097 T01220044=
201002022053 METAR KBFI 022053Z 00000KT 10SM FEW025 BKN180 11/04 A2984 RMK AO2 SLP106 T01110039 58016=
201002021953 METAR KBFI 021953Z 17003KT 10SM FEW050 BKN250 10/05 A2987 RMK AO2 SLP114 T01000050=
201002021853 METAR KBFI 021853Z 15004KT 10SM FEW020 BKN200 09/06 A2989 RMK AO2 SLP121 T00890056=
201002021753 METAR KBFI 021753Z 00000KT 10SM SCT060 BKN200 08/06 A2989 RMK AO2 SLP122 T00780056 10078 20044 51007=
201002021653 METAR KBFI 021653Z VRB04KT 10SM SCT050 SCT200 07/05 A2989 RMK AO2 SLP121 T00670050=
201002021553 METAR KBFI 021553Z 00000KT 10SM SCT200 04/03 A2988 RMK AO2 SLP118 T00440033=
201002021453 METAR KBFI 021453Z 14004KT 10SM BKN060 06/04 A2987 RMK AO2 SLP114 T00560044 53001=
201002021353 METAR KBFI 021353Z 13005KT 10SM BKN060 06/05 A2987 RMK AO2 SLP113 T00610050=
201002021253 METAR KBFI 021253Z 13005KT 10SM SCT049 BKN090 06/04 A2986 RMK AO2 SLP112 T00560044=
201002021153 METAR KBFI 021153Z 13006KT 10SM BKN034 OVC090 07/06 A2987 RMK AO2 SLP114 60005 70008 T00720056 10078 20067 52001=
201002021053 METAR KBFI 021053Z 15006KT 10SM OVC043 07/06 A2987 RMK AO2 RAE39 SLP113 P0001 T00720056=
201002020953 METAR KBFI 020953Z 12005KT 5SM -RA BR FEW031 BKN041 OVC060 07/06 A2987 RMK AO2 SLP113 P0000 T00720061=
201002020944 SPECI KBFI 020944Z 14004KT 9SM SCT026 OVC037 07/06 A2987 RMK AO2 RAE38 P0000=
201002020944 SPECI KBFI 020944Z 14004KT 9SM SCT026 OVC037 07/06 A2987 RMK AO2 RAE38 P0000=
201002020853 METAR KBFI 020853Z 15004KT 6SM -RA BR FEW005 OVC026 07/06 A2987 RMK AO2 SLP113 P0001 60004 T00720061 51004=
201002020808 SPECI KBFI 020808Z 15005KT 7SM -RA FEW005 BKN041 OVC055 08/06 A2986 RMK AO2 P0000=
201002020808 SPECI KBFI 020808Z 15005KT 7SM -RA FEW005 BKN041 OVC055 08/06 A2986 RMK AO2 P0000=
201002020753 METAR KBFI 020753Z 11004KT 7SM -RA BKN041 OVC060 08/06 A2986 RMK AO2 SLP112 P0002 T00780061 401060033=
201002020653 METAR KBFI 020653Z 15004KT 7SM -RA FEW024 SCT034 OVC046 08/06 A2987 RMK AO2 SLP113 P0001 T00780061=
201002020553 METAR KBFI 020553Z 00000KT 10SM -RA SCT041 OVC050 08/06 A2985 RMK AO2 RAB48 SLP109 P0000 60003 T00780061 10094 20078 53002=
201002020453 METAR KBFI 020453Z 00000KT 10SM FEW010 OVC038 08/06 A2985 RMK AO2 SLP108 T00830061=
201002020353 METAR KBFI 020353Z 00000KT 10SM OVC044 08/06 A2984 RMK AO2 SLP106 T00830061=
201002020253 METAR KBFI 020253Z 18005KT 10SM OVC050 08/06 A2985 RMK AO2 RAE31 SLP107 P0001 60003 T00830061 50002=
201002020153 METAR KBFI 020153Z 00000KT 10SM -RA OVC055 09/06 A2985 RMK AO2 SLP108 P0001 T00890056=
201002020053 METAR KBFI 020053Z 00000KT 10SM -RA FEW042 BKN049 OVC065 09/06 A2984 RMK AO2 SLP106 P0001 T00890056=
201002012353 METAR KBFI 012353Z 00000KT 10SM -RA BKN039 OVC050 09/04 A2984 RMK AO2 RAB41 SLP105 P0000 60000 T00940039 10106 20067 55006=
201002012253 METAR KBFI 012253Z 00000KT 10SM OVC055 10/04 A2984 RMK AO2 SLP103 T01000039=
201002012153 METAR KBFI 012153Z 00000KT 10SM OVC060 09/04 A2984 RMK AO2 SLP104 T00940044=
201002012053 METAR KBFI 012053Z 00000KT 10SM SCT070 09/04 A2986 RMK AO2 SLP110 T00940039 58012=
201002011953 METAR KBFI 011953Z 00000KT 10SM FEW070 OVC110 09/05 A2988 RMK AO2 SLP119 T00890050=
201002011853 METAR KBFI 011853Z 00000KT 10SM FEW090 OVC110 08/05 A2990 RMK AO2 SLP123 T00780050=
201002011753 METAR KBFI 011753Z 00000KT 10SM SCT100 07/05 A2989 RMK AO2 SLP122 T00670050 10067 20033 56005=
201002011653 METAR KBFI 011653Z 00000KT 10SM SCT100 SCT120 06/04 A2989 RMK AO2 SLP122 T00560039=
201002011553 METAR KBFI 011553Z COR 00000KT 10SM BCFG BKN120 04/03 A2990 RMK AO2 SLP123 T00390028=
201002011453 METAR KBFI 011453Z 00000KT 10SM CLR 04/03 A2991 RMK AO2 SLP127 T00440028 55004=
201002011416 SPECI KBFI 011416Z 00000KT 10SM CLR 04/02 A2991 RMK AO2=
201002011416 SPECI KBFI 011416Z 00000KT 10SM CLR 04/02 A2991 RMK AO2=
201002011409 SPECI KBFI 011409Z 00000KT 1 3/4SM BR CLR 04/02 A2991 RMK AO2 VIS 3/4V5=
201002011409 SPECI KBFI 011409Z 00000KT 1 3/4SM BR CLR 04/02 A2991 RMK AO2 VIS 3/4V5=
201002011353 METAR KBFI 011353Z 00000KT 9SM CLR 05/03 A2990 RMK AO2 SLP126 T00500033=
201002011253 METAR KBFI 011253Z AUTO 00000KT 10SM CLR 04/03 A2990 RMK AO2 SLP126 T00440033 TSNO=
201002011153 METAR KBFI 011153Z AUTO 00000KT 3SM BR CLR 06/03 A2992 RMK AO2 SLP131 70002 T00560033 10089 20050 58010 TSNO=
201002011053 METAR KBFI 011053Z AUTO 00000KT 10SM CLR 06/04 A2993 RMK AO2 SLP136 T00610039 TSNO=
201002010953 METAR KBFI 010953Z 00000KT 10SM SCT049 07/05 A2994 RMK AO2 SLP138 T00720050=
201002010853 METAR KBFI 010853Z 00000KT 10SM BKN049 08/06 A2995 RMK AO2 SLP141 T00830061 58006=
201002010753 METAR KBFI 010753Z 15003KT 10SM OVC049 08/06 A2996 RMK AO2 SLP143 T00830061 401110078=
201002010653 METAR KBFI 010653Z 00000KT 10SM SCT038 OVC049 08/06 A2996 RMK AO2 SLP146 T00830061=
201002010553 METAR KBFI 010553Z 00000KT 10SM BKN049 08/06 A2997 RMK AO2 SLP147 T00830061 10106 20078 57002=
201002010453 METAR KBFI 010453Z 00000KT 10SM OVC045 09/06 A2997 RMK AO2 SLP149 T00890061=
201002010353 METAR KBFI 010353Z 00000KT 10SM OVC043 09/06 A2997 RMK AO2 SLP149 T00890061=
201002010253 METAR KBFI 010253Z 00000KT 10SM BKN043 08/06 A2998 RMK AO2 SLP150 T00830061 53002=
201002010153 METAR KBFI 010153Z 00000KT 10SM OVC043 09/06 A2997 RMK AO2 SLP147 T00940056=
201002010053 METAR KBFI 010053Z 00000KT 10SM FEW020 BKN035 10/06 A2997 RMK AO2 SLP148 T01000056=

# No short TAF reports from KBFI in databse.

###################################
#  large TAF from KBFI
###################################
201002282320 TAF KBFI 282320Z 0100/0124 VRB03KT P6SM BKN200 FM010600 00000KT
                       P6SM BKN200 FM011600 VRB03KT P6SM BKN200=
201002281720 TAF KBFI 281720Z 2818/0118 VRB03KT P6SM SCT027 BKN045 BKN200 FM282000
                       VRB03KT P6SM BKN200 FM010000 31003KT P6SM
                       BKN200 FM010600 00000KT P6SM BKN200 FM011600
                       VRB03KT P6SM BKN200=
201002281640 KBFI 281640Z 2817/0112 VRB03KT P6SM BKN027 OVC150 FM281800 VRB03KT
                       P6SM SCT045 BKN150 FM282000 VRB03KT P6SM
                       BKN200 FM010000 31003KT P6SM BKN200 FM010600
                       VRB03KT P6SM BKN200=
201002281135 TAF KBFI 281135Z 2812/0112 15004KT P6SM OVC030 FM281700 VRB03KT
                       P6SM SCT015 BKN200 FM282100 17003KT P6SM
                       BKN200=
201002280526 TAF KBFI 280526Z 2806/0106 16009KT P6SM BKN100 FM281100 16004KT
                       5SM BR BKN015 FM281700 VRB03KT P6SM SCT015
                       BKN200 FM282100 17003KT P6SM BKN200=
201002272320 TAF KBFI 272320Z 2800/2824 16008KT P6SM VCSH BKN045 BKN080 FM281100
                       16004KT 5SM BR BKN015 FM281700 VRB03KT P6SM
                       SCT015 BKN200=
201002271723 TAF KBFI 271723Z 2718/2818 16010KT P6SM -SHRA BKN040 BKN080 FM272200
                       21012KT P6SM VCSH BKN040 BKN080 FM281000
                       16004KT 5SM BR BKN015 FM281700 VRB03KT P6SM
                       SCT015 BKN200=
201002271311 KBFI 271311Z 2713/2812 VRB03KT P6SM -RA BKN050 OVC080 FM271800
                       16005KT P6SM VCSH BKN035 OVC050 FM272300
                       21005KT P6SM BKN040 BKN060=
201002271135 TAF KBFI 271135Z 2712/2812 00000KT P6SM -RA SCT035 OVC045 FM271800
                       16005KT P6SM VCSH BKN035 OVC050 FM272300
                       21005KT P6SM BKN040 BKN060=
201002270532 TAF KBFI 270532Z 2706/2806 00000KT P6SM -RA OVC060 FM271000 12003KT
                       6SM -RA BR OVC030 FM271800 16005KT P6SM
                       VCSH BKN025 OVC045 FM272300 21005KT P6SM
                       BKN040 BKN060=
201002262337 TAF KBFI 262337Z 2700/2724 13004KT P6SM -RA OVC050 FM270300 VRB03KT
                       P6SM -RA OVC045 FM271000 12003KT 6SM -RA
                       BR OVC030 FM271800 16005KT P6SM BKN025 OVC045
                       FM272300 21005KT P6SM BKN040 BKN060=
201002261739 TAF KBFI 261739Z 2618/2718 13007KT P6SM -RA OVC050 FM262200 13005KT
                       P6SM -RA BKN040 OVC050 FM270100 33005KT
                       5SM -RA BR OVC035 FM270800 VRB03KT 5SM -RA
                       BR OVC025 FM271700 16005KT P6SM OVC025=
201002261132 TAF KBFI 261132Z 2612/2712 11006KT P6SM -RA BKN040 OVC060 FM261700
                       12004KT 5SM -RA BR OVC030 FM270200 15003KT
                       P6SM VCSH SCT020 OVC050=
201002260615 TAF KBFI 260615Z 2606/2706 00000KT P6SM SCT110 OVC200 FM260800
                       VRB03KT P6SM -RA BKN060 OVC120 FM261700
                       VRB03KT 5SM -RA BR OVC030=
201002252320 TAF KBFI 252320Z 2600/2624 VRB03KT P6SM SCT050 BKN200 FM260200
                       VRB03KT P6SM FEW060 OVC200 FM260900 VRB03KT
                       P6SM -RA BKN045 OVC080 FM261200 VRB03KT
                       P6SM -RA OVC040 FM261700 VRB03KT 5SM -RA
                       BR OVC030=
201002251744 TAF KBFI 251744Z 2518/2618 16007KT P6SM BKN040 FM252100 16006KT
                       P6SM SCT045 FM260300 VRB03KT P6SM BKN200
                       FM260900 VRB03KT P6SM -RA BKN050 OVC080
                       FM261200 VRB03KT P6SM -RA OVC045 FM261700
                       VRB03KT P6SM -RA OVC035=
201002251137 TAF KBFI 251137Z 2512/2612 16007KT P6SM SCT035 BKN050 BKN080
                      TEMPO 2512/2516 -SHRA BKN030 OVC045 FM251900
                       16006KT P6SM SCT050 BKN200 FM260300 08006KT
                       P6SM BKN070 OVC100 FM260900 12005KT P6SM
                       -RA BKN040 OVC060=
201002250536 TAF KBFI 250536Z 2506/2606 16007KT P6SM VCSH SCT050 BKN100
                      TEMPO 2508/2512 BKN030 OVC060 FM251200 16004KT
                       P6SM BKN035 OVC050 FM252000 16006KT P6SM
                       SCT050 BKN200 FM260300 12004KT P6SM BKN070
                       OVC100=
201002242350 TAF KBFI 242350Z 2500/2524 16007KT P6SM VCSH SCT040 BKN060 BKN200
                       TEMPO 2500/2503 -SHRA BKN040 BKN060 BKN200
                       FM250600 16006KT P6SM SCT035 BKN060 FM251200
                       16004KT P6SM BKN035 OVC050 FM252000 16006KT
                       P6SM SCT050 BKN200=
201002242006 KBFI 242006Z 2420/2518 19011KT P6SM FEW030 BKN090 FM242100 16008KT
                       P6SM -RA BKN018 OVC035 FM250100 18006KT
                       P6SM -SHRA SCT030 BKN060=
201002241803 TAF KBFI 241803Z 2418/2518 15006KT P6SM FEW009 BKN018 OVC025 FM242100
                       16008KT P6SM -SHRA SCT018 BKN035 FM250100
                       18006KT P6SM -SHRA SCT030 BKN060=
201002241131 TAF KBFI 241131Z 2412/2512 12003KT P6SM -RA BKN030 OVC045 FM241500
                       14005KT P6SM -RA SCT015 OVC030
                      TEMPO 2415/2419 -RA BKN015 OVC030 FM241900
                       20008KT P6SM -SHRA BKN030 FM250100 18006KT
                       P6SM -SHRA SCT030 BKN060=
201002240524 TAF KBFI 240524Z 2406/2506 09003KT P6SM -RA OVC045 FM241300 17005KT
                       P6SM -RA SCT015 OVC030
                      TEMPO 2413/2417 -RA BKN015 OVC030 FM241800
                       20008KT P6SM -SHRA BKN030 FM250100 18006KT
                       P6SM -SHRA SCT030 BKN060=
201002232338 TAF KBFI 232338Z 2400/2424 15004KT P6SM -RA SCT028 OVC045 FM240600
                       15005KT P6SM -RA BKN028 OVC045 FM241200
                       17005KT P6SM -RA OVC023 FM241800 20008KT
                       P6SM -SHRA BKN028=
201002231739 TAF KBFI 231739Z 2318/2418 17004KT P6SM BKN060 BKN100
                      TEMPO 2321/2324 -RA BKN045 FM240000 15004KT
                       P6SM SCT030 OVC045 FM240600 15005KT P6SM
                       -RA BKN028 OVC045 FM241200 17005KT P6SM
                       -RA OVC023=
201002231122 TAF KBFI 231122Z 2312/2412 00000KT P6SM BKN150 FM232000 00000KT
                       P6SM BKN060 OVC100
                      PROB30 2321/2401 -RA FM240500 00000KT P6SM
                       -RA BKN030 OVC050=
201002230526 TAF KBFI 230526Z 2306/2406 13003KT P6SM BKN250 FM232000 00000KT
                       P6SM BKN060 OVC100
                      PROB30 2321/2401 -RA FM240500 00000KT P6SM
                       -RA BKN030 OVC050=
201002222333 TAF KBFI 222333Z 2300/2324 22004KT P6SM BKN250 FM230400 00000KT
                       P6SM SCT120 OVC200 FM232000 00000KT P6SM
                       BKN060 OVC100
                      PROB30 2320/2324 -RA=
201002221739 TAF KBFI 221739Z 2218/2318 12004KT P6SM SKC FM222000 22004KT P6SM
                       SKC FM230300 00000KT P6SM BKN200 FM231200
                       00000KT P6SM SCT100 BKN150=
201002221124 TAF KBFI 221124Z 2212/2312 12004KT P6SM SKC FM222000 28005KT P6SM
                       SKC FM230200 00000KT P6SM SCT200=
201002220533 TAF KBFI 220533Z 2206/2306 12003KT P6SM SKC FM222000 28005KT P6SM
                       SKC FM230200 00000KT P6SM SCT250=
201002212320 TAF KBFI 212320Z 2200/2224 32004KT P6SM SKC FM220300 12003KT P6SM
                       SKC=
201002211736 TAF KBFI 211736Z 2118/2218 VRB03KT P6SM SKC FM212000 32004KT P6SM
                       SKC FM220300 12003KT P6SM SKC=
201002211124 TAF KBFI 211124Z 2112/2212 12004KT P6SM SKC FM212000 32005KT P6SM
                       SKC FM220300 12003KT P6SM SKC=
201002210534 TAF KBFI 210534Z 2106/2206 11005KT P6SM SKC FM212000 32005KT P6SM
                       SKC FM220200 00000KT P6SM SKC=
201002202320 TAF KBFI 202320Z 2100/2124 33006KT P6SM SKC FM210300 00000KT P6SM
                       SKC FM212000 32005KT P6SM SKC=
201002201744 TAF KBFI 201744Z 2018/2118 00000KT P6SM SKC FM202000 33006KT P6SM
                       SKC FM210300 00000KT P6SM SKC=
201002201120 TAF KBFI 201120Z 2012/2112 VRB03KT P6SM SCT250 FM201800 32007KT
                       P6SM SKC FM210300 00000KT P6SM SKC=
201002200536 TAF KBFI 200536Z 2006/2106 VRB03KT P6SM SCT250 FM201800 32007KT
                       P6SM SKC FM210300 00000KT P6SM SKC=
201002192328 TAF KBFI 192328Z 2000/2024 33006KT P6SM SKC FM200400 00000KT P6SM
                       SKC FM201800 32006KT P6SM SKC=
201002191729 TAF KBFI 191729Z 1918/2018 00000KT P6SM SKC FM192000 35006KT P6SM
                       SKC FM200600 00000KT P6SM SKC=
201002191120 TAF KBFI 191120Z 1912/2012 00000KT P6SM SKC FM192000 35006KT P6SM
                       SKC FM200600 00000KT P6SM SKC=
201002190528 TAF KBFI 190528Z 1906/2006 00000KT P6SM SKC FM192000 35006KT P6SM
                       SKC=
201002182329 TAF KBFI 182329Z 1900/1924 VRB05KT P6SM SKC FM190200 00000KT P6SM
                       SKC FM192000 35005KT P6SM SKC=
201002181720 TAF KBFI 181720Z 1818/1918 35006KT P6SM SKC FM190200 00000KT P6SM
                       SKC=
201002181125 TAF KBFI 181125Z 1812/1912 36006KT P6SM SKC=
201002180536 TAF KBFI 180536Z 1806/1906 36006KT P6SM SKC=
201002172320 TAF KBFI 172320Z 1800/1824 34008KT P6SM SCT250 FM180200 VRB02KT
                       P6SM SKC FM182000 34006KT P6SM SKC=
201002171722 TAF KBFI 171722Z 1718/1818 VRB04KT P6SM OVC015 FM171900 VRB04KT
                       P6SM SCT015
                      TEMPO 1719/1720 BKN015 FM172200 35004KT P6SM
                       SKC FM180200 VRB02KT P6SM SKC=
201002171518 KBFI 171518Z 1715/1812 02004KT P6SM BKN009 FM171800 35006KT P6SM
                       SCT250=
201002171311 KBFI 171311Z 1713/1812 36003KT P6SM SCT006
                      TEMPO 1713/1716 5SM BR BKN006 FM171700 35006KT
                       P6SM SCT250=
201002171139 TAF KBFI 171139Z 1712/1812 00000KT P6SM SKC FM171700 35006KT P6SM
                       SCT250=
201002170538 TAF KBFI 170538Z 1706/1806 00000KT P6SM SCT045 FM171400 00000KT
                       1SM BR BKN002 FM171700 35006KT P6SM SCT250=
201002162331 TAF KBFI 162331Z 1700/1724 35005KT P6SM VCSH SCT025 BKN040
                      TEMPO 1700/1702 -SHRA BKN025 FM170400 35005KT
                       P6SM SCT045
                      TEMPO 1712/1714 3SM BR SCT004=
201002162207 KBFI 162207Z 1622/1718 19006KT P6SM VCSH SCT025 BKN040 FM162300
                       35005KT P6SM VCSH SCT025 BKN040
                      TEMPO 1623/1701 -SHRA BKN025 FM170300 35005KT
                       P6SM SCT045
                      TEMPO 1712/1714 3SM BR SCT004=
201002161732 TAF KBFI 161732Z 1618/1718 19010KT P6SM VCSH SCT015 SCT040 FM162100
                       34006KT P6SM VCSH BKN040 FM170300 35005KT
                       P6SM SCT045
                      TEMPO 1712/1714 3SM BR SCT004=
201002161140 TAF KBFI 161140Z 1612/1712 15009KT P6SM SHRA BKN060 OVC070 FM161400
                       19010KT P6SM -SHRA BKN040 OVC060 FM162100
                       34006KT P6SM VCSH BKN040 FM170300 35005KT
                       P6SM SCT045 FM171100 VRB03KT 3SM BR SCT004=
201002160535 TAF KBFI 160535Z 1606/1706 13005KT P6SM OVC070 FM161100 16006KT
                       P6SM -SHRA BKN040 OVC060 FM161400 18006KT
                       P6SM VCSH BKN040 FM162100 34005KT P6SM VCSH
                       BKN040 FM170400 35005KT P6SM SCT045=
201002152352 TAF KBFI 152352Z 1600/1624 VRB03KT P6SM BKN120 FM160600 14004KT
                       P6SM -RA BKN045 OVC060 FM161200 16006KT
                       P6SM -SHRA BKN040 OVC060 FM161400 18006KT
                       P6SM VCSH BKN040 FM162100 34005KT P6SM BKN040=
201002151904 KBFI 151904Z 1519/1618 00000KT 3SM BR SCT004 FM152000 VRB03KT P6SM
                       SCT005 BKN180 FM152100 VRB03KT P6SM SCT090
                       BKN180 FM152200 VRB03KT P6SM SCT060 OVC090
                       FM160400 15003KT P6SM -RA OVC050=
201002151744 TAF KBFI 151744Z 1518/1618 00000KT 2SM BR BKN003
                      TEMPO 1518/1519 1/2SM FG VV002 FM152000 VRB03KT
                       P6SM SCT005 BKN180 FM152100 VRB03KT P6SM
                       SCT090 BKN180 FM152200 VRB03KT P6SM SCT060
                       OVC090 FM160400 15003KT P6SM -RA OVC050=
201002151613 KBFI 151613Z 1516/1612 00000KT 2SM BR BKN003
                      TEMPO 1516/1517 1/2SM FG VV002 FM151900 VRB03KT
                       P6SM SCT005 BKN180 FM152000 VRB03KT P6SM
                       SCT090 BKN180 FM152200 VRB03KT P6SM SCT060
                       OVC090 FM160400 15003KT P6SM -RA OVC050=
201002151306 KBFI 151306Z 1513/1612 00000KT 1/4SM FG VV001
                      TEMPO 1513/1516 1SM BR OVC002 FM151600 00000KT
                       2SM BR BKN003 FM151800 VRB03KT P6SM SCT005
                       BKN180 FM152000 VRB03KT P6SM SCT090 BKN180
                       FM152200 VRB03KT P6SM SCT060 OVC090
                      PROB30 1600/1604 -RA FM160400 15003KT P6SM
                       -RA OVC050=
201002151137 TAF KBFI 151137Z 1512/1612 00000KT 1SM BR SCT005 BKN013
                      TEMPO 1512/1516 1/2SM FG OVC004 FM151600
                       00000KT 1SM BR OVC006 FM151800 VRB02KT 2SM
                       BR BKN010 FM152000 VRB03KT P6SM SCT090 BKN180
                       FM152200 VRB03KT P6SM SCT060 OVC090
                      PROB30 1600/1604 -RA FM160400 15003KT P6SM
                       -RA OVC050=
201002150928 KBFI 150928Z 1509/1606 00000KT 2SM BR SCT004
                      TEMPO 1510/1514 1/2SM FG OVC004 FM151400
                       00000KT 1/2SM FG OVC002 FM151800 VRB02KT
                       1SM BR BKN005 FM152000 VRB03KT P6SM SCT090
                       BKN180 FM152200 VRB03KT P6SM SCT060 OVC090
                       PROB30 1600/1604 -RA FM160400 15003KT P6SM
                       -RA OVC050=
201002150540 TAF KBFI 150540Z 1506/1606 14003KT P6SM -RA SCT045 OVC060 FM150800
                       VRB03KT P6SM SCT060 FM151100 00000KT 3SM
                       BR SCT007
                      TEMPO 1513/1517 3/4SM BR BKN007 FM151900
                       VRB03KT P6SM SCT090 BKN180 FM152200 VRB03KT
                       P6SM SCT060 OVC090
                      PROB30 1600/1604 -RA FM160400 15003KT P6SM
                       -RA OVC050=
201002150216 KBFI 150216Z 1502/1524 VRB05KT P6SM VCSH SCT022 BKN090
                      TEMPO 1502/1506 BKN022 OVC090 FM150600 VRB03KT
                       P6SM SCT045 BKN100 FM151700 VRB03KT P6SM
                       SCT090 OVC180 FM152200 VRB03KT P6SM SCT060
                       OVC090=
201002150142 KBFI 150142Z 1502/1524 20005KT P6SM VCSH FEW035 BKN090 FM150300
                       VRB03KT P6SM SCT045 BKN100 FM151700 VRB03KT
                       P6SM SCT090 OVC180 FM152200 VRB03KT P6SM
                       SCT060 OVC090=
201002142323 TAF KBFI 142323Z 1500/1524 20005KT P6SM VCSH BKN045 FM150300 VRB03KT
                       P6SM SCT045 BKN100 FM151700 VRB03KT P6SM
                       SCT090 OVC180 FM152200 VRB03KT P6SM SCT060
                       OVC090=
201002141723 TAF KBFI 141723Z 1418/1518 16006KT P6SM SCT025 BKN040
                      TEMPO 1418/1420 -SHRA BKN025 OVC040 FM142000
                       17003KT P6SM VCSH BKN045 BKN060 FM150300
                       VRB03KT P6SM SCT045 BKN100 FM151700 VRB03KT
                       P6SM SCT090 OVC180=
201002141605 KBFI 141605Z 1416/1512 16006KT P6SM SCT030 BKN050
                      TEMPO 1416/1420 -SHRA BKN030 OVC050 FM142000
                       17003KT P6SM VCSH BKN035 OVC060 FM150300
                       VRB05KT P6SM SCT045 BKN100=
201002141141 TAF KBFI 141141Z 1412/1512 16006KT P6SM -RA BKN050 OVC060
                      TEMPO 1412/1416 5SM RA BR BKN030 OVC050 FM141600
                       16003KT P6SM -SHRA BKN030 OVC045 FM142100
                       17003KT P6SM VCSH BKN035 OVC060 FM150300
                       VRB05KT P6SM SCT045 BKN100=
201002140531 TAF KBFI 140531Z 1406/1506 15008KT P6SM -RA OVC070 FM141200 17005KT
                       P6SM -RA SCT025 OVC050
                      TEMPO 1412/1416 BKN025 OVC050 FM141600 16003KT
                       P6SM -SHRA BKN020 OVC035 FM142000 17003KT
                       P6SM VCSH BKN035 OVC060 FM150300 VRB05KT
                       P6SM SCT045 BKN100=
201002132329 TAF KBFI 132329Z 1400/1424 16005KT P6SM -RA OVC040 FM141200 17005KT
                       P6SM -RA OVC025 FM141500 16003KT P6SM -SHRA
                       BKN015 OVC030 FM141900 17003KT P6SM VCSH
                       BKN035 OVC060=
201002131728 TAF KBFI 131728Z 1318/1418 16005KT P6SM OVC070 FM131900 15006KT
                       P6SM -RA OVC050 FM140200 16007KT P6SM -SHRA
                       OVC050 FM140700 17007KT P6SM -RA OVC040
                       FM141200 17005KT P6SM -RA OVC025 FM141500
                       16003KT P6SM -SHRA BKN015 OVC030=
201002131126 TAF KBFI 131126Z 1312/1412 14003KT P6SM BKN090 OVC150 FM131900
                       14006KT P6SM -RA OVC050 FM140300 16007KT
                       P6SM -SHRA OVC050 FM140700 17007KT P6SM
                       -RA OVC040 FM141100 17008KT P6SM -RA OVC030=
201002130556 TAF KBFI 130556Z 1306/1406 17010KT P6SM SCT045 SCT070 BKN080
                      TEMPO 1306/1309 -SHRA BKN045 FM131900 14006KT
                       P6SM -RA OVC045 FM140300 16007KT P6SM -RA
                       OVC035=
201002130205 KBFI 130205Z 1302/1324 16010KT P6SM -SHRA BKN040 BKN060 FM130400
                       14005KT P6SM OVC060 FM131800 11003KT P6SM
                       -RA OVC045=
201002122323 TAF KBFI 122323Z 1300/1324 19012G21KT 6SM -SHRA SCT035 OVC045
                      TEMPO 1300/1302 3SM SHRA OVC030 FM130400
                       14005KT P6SM OVC060 FM131800 11003KT P6SM
                       -RA OVC045=
201002122105 KBFI 122105Z 1221/1318 14011KT P6SM VCSH SCT035 BKN090 FM122300
                       17011KT P6SM VCSH BKN035 OVC050 FM130600
                       14005KT P6SM OVC080 FM131600 11003KT P6SM
                       -RA OVC050=
201002121737 TAF KBFI 121737Z 1218/1318 09007KT P6SM -RA BKN035 OVC045 FM130000
                       18011KT P6SM VCSH BKN035 OVC050 FM130700
                       14005KT P6SM OVC080 FM131600 11003KT P6SM
                       -RA OVC050=
201002121650 KBFI 121650Z 1217/1312 14006KT P6SM -RA OVC040 FM130000 18011KT
                       P6SM VCSH OVC040 FM130700 14005KT P6SM OVC080=
201002121131 TAF KBFI 121131Z 1212/1312 17008KT P6SM VCSH OVC080 FM121800 16009KT
                       P6SM -RA OVC050 FM130000 18011KT P6SM OVC045
                       PROB30 1300/1306 -SHRA FM130700 14005KT
                       P6SM OVC080=
201002120546 TAF KBFI 120546Z 1206/1306 16011G18KT P6SM -SHRA OVC060 FM121100
                       16010KT P6SM VCSH OVC050 FM121300 16008KT
                       P6SM BKN040 OVC060 FM122000 18010KT P6SM
                       -RA OVC045 FM130200 18008KT P6SM -SHRA BKN035
                       OVC050=
201002112341 TAF KBFI 112341Z 1200/1224 13012KT P6SM -SHRA SCT030 OVC040 FM120700
                       18014G22KT P6SM -SHRA BKN030 OVC040 FM121100
                       18010KT P6SM VCSH OVC030 FM121300 16008KT
                       P6SM BKN030 OVC050 FM122000 18010KT P6SM
                       -RA OVC035=
201002111740 TAF KBFI 111740Z 1118/1218 14006KT P6SM VCSH BKN035 OVC040
                      TEMPO 1118/1122 -SHRA BKN030 FM112200 16012KT
                       P6SM -SHRA OVC030 FM120700 18014G22KT P6SM
                       -SHRA BKN025 OVC040 FM121100 18010KT P6SM
                       VCSH BKN025 OVC030 FM121500 16010KT P6SM
                       BKN045 OVC090=
201002111251 KBFI 111251Z 1113/1212 VRB03KT 6SM -RA SCT017 OVC029
                      TEMPO 1113/1117 3SM -RA BR BKN017 OVC025
                       FM112000 16006KT P6SM -SHRA BKN035 OVC050
                       FM120200 16010KT P6SM -RA OVC035 FM120700
                       17012G18KT P6SM BKN040 OVC060=
201002111248 KBFI 111248Z 1113/1212 VRB03KT 6SM -RA SCT017 OVC029
                      TEMPO 1114/1118 3SM -RA BR BKN017 OVC025
                       FM112000 16006KT P6SM -SHRA BKN035 OVC050
                       FM120200 16010KT P6SM -RA OVC035 FM120700
                       17012G18KT P6SM BKN040 OVC060=
201002111141 TAF KBFI 111141Z 1112/1212 13003KT P6SM OVC029 FM111400 15005KT
                       6SM -RA SCT017 OVC029
                      TEMPO 1114/1118 3SM -RA BR BKN017 OVC025
                       FM112000 16006KT P6SM -SHRA BKN035 OVC050
                       FM120200 16010KT P6SM -RA OVC035 FM120700
                       17012G18KT P6SM BKN040 OVC060=
201002110534 TAF KBFI 110534Z 1106/1206 VRB03KT P6SM FEW018 OVC029
                      TEMPO 1106/1109 -SHRA FM110900 17006KT P6SM
                       OVC035 FM111300 15005KT 6SM -RA SCT015 OVC029
                       TEMPO 1114/1118 3SM -RA BR BKN012 OVC023
                       FM112000 14006KT P6SM -SHRA BKN035 OVC050
                       FM120200 14008KT P6SM -RA OVC035=
201002102342 TAF KBFI 102342Z 1100/1124 14008KT P6SM -RA BKN035 OVC045 FM110400
                       19008KT P6SM -SHRA BKN030 OVC040 FM110700
                       15006KT P6SM VCSH OVC030 FM111400 16007KT
                       5SM -RA OVC025 FM112000 14010KT P6SM -SHRA
                       BKN030 OVC050=
201002101738 TAF KBFI 101738Z 1018/1118 14007KT P6SM SCT050 BKN100 OVC250 FM102000
                       16007KT P6SM -RA BKN050 OVC100 FM110300
                       16008KT P6SM -SHRA BKN045 BKN090 FM110600
                       15008KT P6SM VCSH OVC040 FM111400 15006KT
                       P6SM -RA OVC035=
201002101140 TAF KBFI 101140Z 1012/1112 13004KT 1/4SM FG OVC001
                      TEMPO 1014/1016 2SM BR BKN005 OVC150 FM101600
                       15006KT 6SM BR BKN008 BKN050 OVC120
                      TEMPO 1016/1018 4SM BR SCT008 OVC050 FM101900
                       16007KT P6SM -RA OVC050 FM110300 16008KT
                       P6SM -SHRA BKN045 BKN090 FM111100 15006KT
                       P6SM -RA OVC035=
201002101041 KBFI 101041Z 1011/1106 14004KT 5SM BR BKN200
                      TEMPO 1011/1015 1SM BR BKN002 OVC200 FM101500
                       14003KT 5SM BR SCT009 BKN120 BKN200 FM101700
                       16005KT P6SM BKN050 OVC120 FM101900 16007KT
                       P6SM -RA OVC040 FM110300 17006KT P6SM -SHRA
                       BKN050 BKN100=
201002101002 KBFI 101002Z 1010/1106 14004KT 5SM BR BKN200
                      TEMPO 1010/1014 3SM BR BKN004 OVC200 FM101400
                       14003KT 5SM BR SCT009 BKN120 BKN200 FM101700
                       16005KT P6SM BKN050 OVC120 FM101900 16007KT
                       P6SM -RA OVC040 FM110300 17006KT P6SM -SHRA
                       BKN050 BKN100=
201002100538 TAF KBFI 100538Z 1006/1106 00000KT P6SM BKN200
                      TEMPO 1006/1010 5SM BR FM101000 14003KT 6SM
                       BR SCT015 BKN120 BKN200 FM101600 16005KT
                       P6SM BKN050 OVC120 FM101900 16007KT P6SM
                       -RA OVC040 FM110300 17006KT P6SM -SHRA BKN050
                       BKN100=
201002092329 TAF KBFI 092329Z 1000/1024 VRB03KT P6SM SCT200 FM100900 14005KT
                       P6SM SCT015 BKN070 BKN120 FM101900 16007KT
                       P6SM -RA OVC040=
201002092013 KBFI 092013Z 0920/1018 VRB03KT P6SM SCT010 SCT200
                      TEMPO 0920/0921 BKN010 FM092100 VRB03KT P6SM
                       SCT200 FM101000 16006KT P6SM SCT015 BKN070
                       BKN120=
201002091739 TAF KBFI 091739Z 0918/1018 02005KT 5SM BR OVC007
                      TEMPO 0918/0919 1SM BR OVC003 FM091900 VRB03KT
                       P6SM SCT010 SCT200 FM101000 16006KT P6SM
                       SCT015 BKN070 BKN120=
201002091611 KBFI 091611Z 0916/1012 02005KT 5SM BR OVC007
                      TEMPO 0916/0918 1SM BR OVC003 FM092000 VRB03KT
                       P6SM SCT010 SCT200 FM101000 16006KT P6SM
                       SCT015 BKN070 BKN120=
201002091257 KBFI 091257Z 0913/1012 02005KT 5SM BR OVC007
                      TEMPO 0913/0916 1/2SM FG OVC003 FM092000
                       VRB03KT P6SM SCT010 SCT200 FM101000 16006KT
                       P6SM SCT015 BKN070 BKN120=
201002091120 TAF KBFI 091120Z 0912/1012 02005KT 5SM BR OVC007
                      TEMPO 0912/0916 2SM BR OVC003 FM092000 VRB03KT
                       P6SM SCT010 SCT200 FM101000 16006KT P6SM
                       SCT015 BKN070 BKN120=
201002090859 TAF AMD KBFI 090859Z 0909/1006 00000KT 5SM BR BKN005
                      TEMPO 0912/0916 1SM BR BKN002 FM092000 VRB03KT
                       P6SM SCT020 SCT200=
201002090520 TAF KBFI 090520Z 0906/1006 VRB03KT P6SM VCFG SCT050 SCT120 FM091000
                       VRB03KT 5SM BR BKN005
                      TEMPO 0912/0916 1SM BR BKN002 FM092000 VRB03KT
                       P6SM SCT020 SCT200=
201002082336 TAF KBFI 082336Z 0900/0924 31004KT P6SM SCT200 FM091000 00000KT
                       P6SM VCFG FEW008 SCT050 FM091200 00000KT
                       3SM BR OVC005
                      TEMPO 0914/0918 1SM BR FM092000 05004KT 6SM
                       BR SCT020 FM092200 VRB03KT P6SM SCT030=
201002081735 TAF KBFI 081735Z 0818/0918 25004KT P6SM OVC008 FM082100 VRB04KT
                       P6SM SCT015 BKN040 FM082300 VRB04KT P6SM
                       SCT050 BKN120 FM091000 00000KT P6SM VCFG
                       FEW008 SCT050 FM091200 00000KT 3SM BR OVC005=
201002081521 KBFI 081521Z 0815/0912 00000KT P6SM OVC008 FM081800 00000KT P6SM
                       SCT010 BKN030 OVC070 FM082200 14007KT P6SM
                       SCT050 BKN120=
201002081130 KBFI 081130Z 0812/0912 VRB03KT P6SM BKN050 BKN150
                      TEMPO 0812/0816 5SM BR BKN015 OVC050 FM082200
                       14007KT P6SM SCT050 BKN120=
201002081120 TAF KBFI 081120Z 0812/0912 VRB03KT P6SM BKN050 BKN150
                      TEMPO 0812/0816 5SM BR SCT015 OVC050 FM082200
                       14007KT P6SM SCT050 BKN120=
201002081020 KBFI 081020Z 0810/0906 14004KT P6SM SCT025 OVC050
                      TEMPO 0812/0816 BKN025 OVC050 FM081700 VRB03KT
                       P6SM SCT040 BKN120 FM082200 14007KT P6SM
                       SCT040 BKN100=
201002080540 TAF KBFI 080540Z 0806/0906 00000KT P6SM SCT025 OVC050
                      TEMPO 0806/0810 P6SM BKN025 OVC040 FM081000
                       VRB03KT P6SM OVC025
                      TEMPO 0810/0814 5SM BR OVC020 FM081700 VRB03KT
                       P6SM SCT030 BKN150 FM082200 10006KT P6SM
                       SCT050 BKN100=
201002080342 KBFI 080342Z 0804/0824 00000KT P6SM OVC023
                      TEMPO 0810/0814 4SM BR OVC015 FM081800 09006KT
                       P6SM SCT025 BKN150 FM082100 09006KT P6SM
                       SCT050 OVC090=
201002080115 KBFI 080115Z 0801/0824 VRB03KT P6SM SCT030 BKN045 OVC060
                      TEMPO 0802/0806 SCT045 BKN060 FM081500 VRB03KT
                       P6SM BKN028 BKN110 OVC200 FM081800 VRB03KT
                       P6SM FEW040 SCT110 OVC200 FM082100 VRB03KT
                       P6SM SCT060 BKN110 OVC200=
201002072331 TAF KBFI 072331Z 0800/0824 VRB03KT P6SM BKN020 OVC040 FM081500
                       VRB03KT P6SM BKN028 BKN110 OVC200 FM081800
                       VRB03KT P6SM FEW040 SCT110 OVC200 FM082100
                       VRB03KT P6SM SCT060 BKN110 OVC200=
201002072145 KBFI 072145Z 0722/0818 VRB03KT P6SM SCT020 OVC035
                      TEMPO 0722/0724 BKN020 OVC035 FM080300 VRB03KT
                       P6SM SCT060 BKN200 FM080900 VRB03KT 6SM
                       BR FEW008 SCT110 OVC200 FM081500 09006KT
                       P6SM VCFG BKN110 OVC200=
201002071742 TAF KBFI 071742Z 0718/0818 VRB03KT P6SM SCT025 OVC040
                      TEMPO 0718/0720 BKN025 OVC040 FM072100 VRB03KT
                       P6SM SCT040 BKN060 FM080300 VRB03KT P6SM
                       SCT060 BKN200 FM080900 VRB03KT 6SM BR FEW008
                       SCT110 OVC200 FM081500 09006KT P6SM VCFG
                       BKN110 OVC200=
201002071611 KBFI 071611Z 0716/0812 VRB04KT P6SM FEW015 OVC040
                      TEMPO 0716/0718 -RA FM071800 VRB03KT P6SM
                       BKN020 OVC040 FM080000 VRB03KT P6SM SCT020
                       BKN040 FM080600 00000KT P6SM BKN015 OVC025
                       TEMPO 0810/0812 5SM BR OVC012=
201002071120 TAF KBFI 071120Z 0712/0812 12004KT P6SM -RA SCT010 OVC030
                      TEMPO 0712/0716 3SM -RA BR BKN010 OVC025
                       FM071800 VRB03KT P6SM BKN020 OVC040 FM080000
                       VRB03KT P6SM SCT020 BKN040 FM080600 00000KT
                       P6SM BKN015 OVC025
                      TEMPO 0810/0812 5SM BR OVC012=
201002070520 TAF KBFI 070520Z 0706/0806 15005KT P6SM SCT025 OVC045
                      TEMPO 0706/0710 5SM -RA BR BKN025 OVC040
                       FM071000 VRB03KT P6SM SCT018 OVC035
                      TEMPO 0710/0714 5SM -DZ BR BKN018 OVC035
                       FM071800 VRB03KT P6SM SCT025 BKN045 FM080000
                       VRB03KT P6SM SCT030 BKN050 FM080500 00000KT
                       P6SM BKN030 OVC050=
201002070424 KBFI 070424Z 0704/0724 VRB03KT P6SM -RA OVC045 FM071200 VRB03KT
                       P6SM BKN050 BKN100 FM071800 VRB03KT P6SM
                       SCT060 BKN120 BKN200=
201002070034 KBFI 070034Z 0701/0724 00000KT P6SM OVC060 FM071800 VRB03KT P6SM
                       SCT060 BKN120 BKN200=
201002062340 TAF KBFI 062340Z 0700/0724 VRB03KT P6SM SCT060 SCT120 OVC200 FM070300
                       00000KT P6SM BKN060 BKN120 OVC200 FM070600
                       00000KT P6SM OVC060 FM071800 VRB03KT P6SM
                       SCT060 BKN120 BKN200=
201002061752 TAF KBFI 061752Z 0618/0718 VRB03KT P6SM SCT080 OVC150 FM070000
                       VRB03KT P6SM FEW050 BKN080 OVC150=
201002061120 TAF KBFI 061120Z 0612/0712 00000KT P6SM BKN120 BKN200 FM061800
                       12006KT P6SM BKN090 BKN200 FM070500 VRB03KT
                       P6SM SCT090 BKN200=
201002060520 TAF KBFI 060520Z 0606/0706 10006KT P6SM BKN120 FM061800 12006KT
                       P6SM BKN090 BKN200 FM070500 VRB03KT P6SM
                       SCT090 BKN200=
201002052328 TAF KBFI 052328Z 0600/0624 12006KT P6SM SCT070 SCT200 FM060200
                       VRB03KT P6SM SCT090 BKN200 FM061800 VRB03KT
                       P6SM BKN090 OVC200=
201002051739 TAF KBFI 051739Z 0518/0618 13006KT P6SM BKN060 BKN200 FM060000
                       VRB03KT P6SM SCT090 BKN200=
201002051120 TAF KBFI 051120Z 0512/0612 VRB03KT P6SM VCSH OVC050 FM052000 14006KT
                       P6SM SCT050 BKN120=
201002050529 TAF KBFI 050529Z 0506/0606 14014KT P6SM -RA OVC050
                      TEMPO 0506/0510 5SM RA BR OVC035 FM051500
                       16010KT P6SM VCSH BKN040 BKN080 FM052000
                       14006KT P6SM SCT050 BKN120=
201002050414 KBFI 050414Z 0504/0524 14015KT P6SM -RA SCT035 OVC050
                      TEMPO 0511/0515 6SM -RA BR SCT025 BKN035
                       FM051500 14003KT P6SM VCSH BKN040 FM052000
                       VRB03KT P6SM SCT045 BKN120=
201002042343 TAF KBFI 042343Z 0500/0524 VRB03KT P6SM BKN080 BKN150 FM050400
                       06003KT P6SM VCSH SCT050 OVC070 FM050700
                       VRB03KT P6SM -RA SCT035 OVC050
                      TEMPO 0511/0515 6SM -RA BR SCT025 BKN035
                       FM051500 14003KT P6SM VCSH BKN040 FM052000
                       VRB03KT P6SM SCT045 BKN120=
201002041741 TAF KBFI 041741Z 0418/0518 VRB03KT P6SM BKN080 BKN150 FM050400
                       06003KT P6SM VCSH SCT050 OVC070 FM050700
                       VRB03KT P6SM -RA SCT035 OVC050
                      TEMPO 0510/0514 6SM -RA BR SCT025 BKN035
                       FM051400 14003KT P6SM VCSH BKN040=
201002041138 TAF KBFI 041138Z 0412/0512 12004KT P6SM SCT060 BKN200
                      TEMPO 0412/0416 SCT060 SCT200 FM041800 12008KT
                       P6SM BKN060 OVC120 FM050200 14012KT P6SM
                       -RA OVC050 FM051000 18010KT P6SM -RA OVC040=
201002040522 TAF KBFI 040522Z 0406/0506 00000KT P6SM -SHRA OVC045 FM041000 00000KT
                       P6SM BKN050 BKN200 FM041600 06005KT P6SM
                       BKN060 OVC200 FM042300 10008KT P6SM -RA
                       OVC050=
201002040325 KBFI 040325Z 0403/0424 VRB04KT 5SM -RA BR VCSH SCT005 OVC035 FM040600
                       VRB04KT P6SM VCSH SCT005 BKN040 OVC080 FM041000
                       00000KT P6SM BKN050 BKN200 FM041600 06005KT
                       P6SM BKN060 OVC200 FM042300 10008KT P6SM
                       VCSH BKN050 OVC120=
201002040201 KBFI 040201Z 0402/0424 07003KT P6SM -RA SCT010 BKN045 OVC070
                      TEMPO 0402/0404 2SM RA BKN010 OVC045 FM040400
                       14003KT P6SM VCSH BKN040 OVC080 FM041000
                       00000KT P6SM BKN050 BKN200 FM041600 06005KT
                       P6SM BKN060 OVC200 FM042300 10008KT P6SM
                       VCSH BKN050 OVC120=
201002032338 TAF KBFI 032338Z 0400/0424 04004KT P6SM VCSH SCT035 BKN045 BKN250
                       FM040100 07003KT P6SM -RA BKN035 OVC070
                       FM040400 14003KT P6SM VCSH BKN040 OVC080
                       FM041000 00000KT P6SM BKN050 BKN200 FM041600
                       06005KT P6SM BKN060 OVC200 FM042300 10008KT
                       P6SM VCSH BKN050 OVC120=
201002031742 TAF KBFI 031742Z 0318/0418 00000KT P6SM -RA BKN060 OVC070 FM032100
                       VRB03KT P6SM VCSH BKN040 OVC070 FM040100
                       12003KT P6SM VCSH BKN040 OVC070 FM041000
                       00000KT P6SM BKN050 BKN200=
201002031150 TAF KBFI 031150Z 0312/0412 VRB03KT P6SM SCT060 OVC100
                      TEMPO 0312/0316 -SHRA BKN060 OVC100 FM031600
                       12004KT P6SM -SHRA OVC060 FM032100 14004KT
                       P6SM VCSH BKN050 OVC080 FM040100 VRB03KT
                       P6SM -SHRA BKN050 OVC080 FM040800 VRB03KT
                       P6SM BKN050=
201002030525 TAF KBFI 030525Z 0306/0406 00000KT P6SM SCT100 BKN200 FM031100
                       00000KT P6SM SCT050 OVC100
                      TEMPO 0315/0319 -RA BKN050 OVC100 FM031900
                       VRB03KT P6SM -RA OVC050=
201002022332 TAF KBFI 022332Z 0300/0324 06004KT P6SM FEW030 BKN250 FM030600
                       11004KT P6SM SCT060 BKN120
                      TEMPO 0314/0318 -RA BKN050 OVC100 FM031800
                       VRB03KT P6SM -RA OVC050=
201002021739 TAF KBFI 021739Z 0218/0318 VRB04KT P6SM SCT050 BKN200 FM022300
                       30004KT P6SM SCT045 BKN120 FM030400 11004KT
                       P6SM SCT060 BKN100
                      TEMPO 0314/0318 -RA BKN050 OVC100=
201002021143 TAF KBFI 021143Z 0212/0312 14006KT P6SM VCSH SCT030 BKN045 FM021900
                       15006KT P6SM BKN045 FM022200 30004KT P6SM
                       SCT045 BKN120 FM030300 11004KT P6SM BKN100=
201002020520 TAF KBFI 020520Z 0206/0306 00000KT P6SM FEW010 OVC040
                      TEMPO 0209/0213 -RA SCT010 OVC030 FM021300
                       09004KT P6SM -RA OVC035 FM022100 VRB03KT
                       P6SM BKN050=
201002012341 TAF KBFI 012341Z 0200/0224 09003KT P6SM BKN050 OVC080 FM020200
                       11004KT P6SM -RA OVC050 FM020800 09004KT
                       P6SM -RA OVC035 FM022100 VRB03KT P6SM BKN050=
201002011810 TAF KBFI 011810Z 0118/0218 VRB03KT P6SM SCT100 OVC180 FM012100
                       07004KT P6SM SCT050 BKN080 FM020200 09004KT
                       P6SM -RA OVC050 FM020800 09004KT P6SM -RA
                       OVC035=
201002011148 TAF KBFI 011148Z 0112/0212 VRB03KT P6SM SCT050 BKN120 FM012200
                       VRB03KT P6SM SCT050 OVC080 FM020200 09004KT
                       P6SM -RA OVC050 FM020800 09004KT P6SM -RA
                       OVC035=
201002010524 TAF KBFI 010524Z 0106/0206 00000KT P6SM OVC050 FM010900 12003KT
                       P6SM SCT060 BKN150 FM011800 14003KT P6SM
                       OVC100=