##########################################################
# Query made at 02/17/2025 01:29:24 UTC
# Time interval: from 05/01/2011 00:00  to 05/31/2011 23:59  UTC
##########################################################

##########################################################
# KBFI, Seattle, Seattle Boeing Field (United States)
# WMO index: -----. WIGOS ID: Unknown
# Latitude 47-32-45N. Longitude 122-18-49W. Altitude 5 m.
##########################################################

###################################
#  METAR/SPECI from KBFI
###################################
201105312353 METAR KBFI 312353Z VRB04KT 10SM FEW050 SCT060 BKN075 16/09 A2993 RMK AO2 SLP136 60006 T01610094 10167 20117 53003=
201105312253 METAR KBFI 312253Z 29004KT 10SM SCT022 BKN085 16/10 A2992 RMK AO2 SLP131 T01610100=
201105312153 METAR KBFI 312153Z 17003KT 10SM SCT021 BKN040 BKN200 16/10 A2993 RMK AO2 SLP135 T01560100=
201105312116 SPECI KBFI 312116Z 17003KT 10SM BKN021 OVC040 14/10 A2993 RMK AO2=
201105312116 SPECI KBFI 312116Z 17003KT 10SM BKN021 OVC040 14/10 A2993 RMK AO2=
201105312109 SPECI KBFI 312109Z 12004KT 10SM FEW021 15/11 A2993 RMK AO2=
201105312109 SPECI KBFI 312109Z 12004KT 10SM FEW021 15/11 A2993 RMK AO2=
201105312053 METAR KBFI 312053Z VRB03KT 10SM BKN021 14/10 A2993 RMK AO2 SLP133 60006 T01440100 53001=
201105311953 METAR KBFI 311953Z 00000KT 10SM BKN017 BKN075 14/11 A2992 RMK AO2 RAE09 SLP131 P0000 T01390106=
201105311853 METAR KBFI 311853Z 32006KT 6SM -RA BR SCT012 BKN028 OVC060 12/10 A2991 RMK AO2 SLP127 P0006 T01220100=
201105311842 SPECI KBFI 311842Z 35003KT 8SM -RA SCT015 BKN022 OVC060 12/10 A2992 RMK AO2 P0005=
201105311842 SPECI KBFI 311842Z 35003KT 8SM -RA SCT015 BKN022 OVC060 12/10 A2992 RMK AO2 P0005=
201105311828 SPECI KBFI 311828Z 00000KT 3SM RA BR SCT015 BKN022 OVC060 12/09 A2994 RMK AO2 P0004=
201105311828 SPECI KBFI 311828Z 00000KT 3SM RA BR SCT015 BKN022 OVC060 12/09 A2994 RMK AO2 P0004=
201105311753 METAR KBFI 311753Z 20003KT 10SM -RA SCT020 OVC065 12/09 A2992 RMK AO2 RAE09B25 SLP132 P0000 60000 T01170094 10128 20100 51003=
201105311653 METAR KBFI 311653Z 00000KT 10SM -RA FEW030 OVC070 12/08 A2992 RMK AO2 RAB12 SLP131 P0000 T01220083=
201105311553 METAR KBFI 311553Z 36003KT 10SM BKN070 OVC090 12/08 A2992 RMK AO2 RAE13 SLP132 P0000 T01170078=
201105311453 METAR KBFI 311453Z VRB05KT 10SM -RA BKN070 OVC085 12/07 A2991 RMK AO2 RAB52 SLP129 P0000 60000 T01170072 58006=
201105311353 METAR KBFI 311353Z 00000KT 10SM OVC100 11/07 A2993 RMK AO2 SLP134 T01110067=
201105311253 METAR KBFI 311253Z 11004KT 10SM FEW028 BKN095 OVC150 11/07 A2993 RMK AO2 SLP135 T01060067=
201105311153 METAR KBFI 311153Z 00000KT 10SM SCT070 OVC150 10/06 A2993 RMK AO2 SLP135 T01000061 10133 20100 50002=
201105311053 METAR KBFI 311053Z 00000KT 10SM CLR 11/06 A2994 RMK AO2 SLP137 T01060056=
201105310953 METAR KBFI 310953Z 00000KT 10SM CLR 11/06 A2993 RMK AO2 SLP136 T01110056=
201105310853 METAR KBFI 310853Z 35004KT 10SM FEW042 12/06 A2993 RMK AO2 SLP133 T01170061 58001=
201105310753 METAR KBFI 310753Z 36003KT 10SM CLR 12/06 A2994 RMK AO2 SLP136 T01170056 401670100=
201105310653 METAR KBFI 310653Z 02003KT 10SM CLR 12/07 A2993 RMK AO2 SLP135 T01220067=
201105310553 METAR KBFI 310553Z 30003KT 10SM SCT200 13/07 A2993 RMK AO2 SLP134 T01280072 10161 20128 52008=
201105310453 METAR KBFI 310453Z 31003KT 10SM CLR 13/07 A2992 RMK AO2 SLP132 T01330067=
201105310353 METAR KBFI 310353Z 00000KT 10SM SCT200 15/05 A2991 RMK AO2 SLP128 T01500050=
201105310253 METAR KBFI 310253Z 34003KT 10SM CLR 16/04 A2990 RMK AO2 SLP126 T01560039 56002=
201105310153 METAR KBFI 310153Z 00000KT 10SM SCT050 16/03 A2990 RMK AO2 SLP126 T01560033=
201105310053 METAR KBFI 310053Z 24005KT 10SM SCT050 16/04 A2990 RMK AO2 SLP126 T01560039=
201105302353 METAR KBFI 302353Z 26005KT 10SM FEW050 16/05 A2991 RMK AO2 SLP128 T01610050 10167 20133 58005=
201105302253 METAR KBFI 302253Z VRB03KT 10SM SCT090 BKN200 16/04 A2992 RMK AO2 SLP130 T01610044=
201105302200 METAR KBFI NIL=
201105302053 METAR KBFI 302053Z 19007KT 10SM SCT070 BKN250 16/06 A2993 RMK AO2 SLP133 T01560056 51001=
201105301953 METAR KBFI 301953Z VRB03KT 10SM BKN080 15/06 A2993 RMK AO2 SLP133 T01500056=
201105301853 METAR KBFI 301853Z VRB04KT 10SM SCT025 BKN049 13/05 A2993 RMK AO2 SLP134 T01330050=
201105301753 METAR KBFI 301753Z 23003KT 10SM BKN039 OVC049 13/05 A2992 RMK AO2 SLP132 T01330050 10133 20100 52004=
201105301653 METAR KBFI 301653Z 18006KT 10SM SCT023 OVC047 12/06 A2992 RMK AO2 SLP130 T01220061=
201105301553 METAR KBFI 301553Z 19005KT 10SM FEW025 OVC045 12/07 A2991 RMK AO2 SLP129 T01170067=
201105301453 METAR KBFI 301453Z 21003KT 10SM FEW025 BKN050 12/07 A2991 RMK AO2 SLP128 T01170067 53005=
201105301353 METAR KBFI 301353Z 16006KT 10SM FEW025 SCT100 11/07 A2990 RMK AO2 SLP125 T01060067=
201105301253 METAR KBFI 301253Z 17007KT 10SM OVC100 10/06 A2990 RMK AO2 SLP123 T01000061=
201105301153 METAR KBFI 301153Z 17005KT 10SM OVC095 10/06 A2990 RMK AO2 SLP123 T01000061 10122 20100 58003=
201105301053 METAR KBFI 301053Z 16007KT 10SM SCT043 OVC100 10/07 A2990 RMK AO2 SLP125 T01000067=
201105300953 METAR KBFI 300953Z 17005KT 10SM OVC043 11/07 A2990 RMK AO2 SLP126 T01060072=
201105300900 SPECI KBFI 300900Z 17007KT 10SM FEW027 OVC039 11/07 A2991 RMK AO2=
201105300900 SPECI KBFI 300900Z 17007KT 10SM FEW027 OVC039 11/07 A2991 RMK AO2=
201105300853 METAR KBFI 300853Z 18007KT 10SM BKN027 OVC037 11/08 A2991 RMK AO2 SLP127 T01110078 56006=
201105300753 METAR KBFI 300753Z 19005KT 10SM BKN027 OVC037 12/07 A2992 RMK AO2 SLP130 T01170072 401560111=
201105300740 SPECI KBFI 300740Z 20006KT 10SM BKN029 OVC037 12/07 A2992 RMK AO2=
201105300740 SPECI KBFI 300740Z 20006KT 10SM BKN029 OVC037 12/07 A2992 RMK AO2=
201105300653 METAR KBFI 300653Z 16007KT 10SM BKN039 OVC080 12/07 A2992 RMK AO2 SLP130 T01170072=
201105300553 METAR KBFI 300553Z 16007KT 10SM OVC080 12/07 A2993 RMK AO2 SLP133 T01220072 10156 20117 58000=
201105300453 METAR KBFI 300453Z 18005KT 10SM BKN040 OVC080 12/07 A2994 RMK AO2 SLP137 T01220072=
201105300353 METAR KBFI 300353Z 18004KT 10SM BKN040 13/08 A2993 RMK AO2 SLP134 T01280083=
201105300253 METAR KBFI 300253Z 19005KT 10SM BKN037 OVC150 13/08 A2993 RMK AO2 SLP134 T01330083 55001=
201105300153 METAR KBFI 300153Z 20007KT 160V220 10SM FEW032 BKN041 OVC070 14/08 A2992 RMK AO2 SLP132 T01440083=
201105300053 METAR KBFI 300053Z 19006KT 10SM BKN045 OVC065 15/08 A2993 RMK AO2 SLP133 T01500083=
201105292353 METAR KBFI 292353Z 17010KT 10SM BKN038 OVC049 16/08 A2993 RMK AO2 SLP134 T01560083 10156 20128 58005=
201105292253 METAR KBFI 292253Z 15008KT 10SM BKN048 OVC055 16/08 A2993 RMK AO2 SLP136 T01560083=
201105292153 METAR KBFI 292153Z 15008KT 10SM OVC055 15/08 A2994 RMK AO2 SLP139 T01500078=
201105292053 METAR KBFI 292053Z 17008KT 10SM OVC048 15/08 A2995 RMK AO2 SLP140 T01500078 56007=
201105291953 METAR KBFI 291953Z 16009KT 10SM BKN048 OVC060 14/07 A2995 RMK AO2 SLP141 T01440072=
201105291853 METAR KBFI 291853Z 15007KT 10SM BKN044 OVC055 14/08 A2996 RMK AO2 SLP143 T01390078=
201105291753 METAR KBFI 291753Z 16006KT 10SM SCT036 OVC055 13/08 A2997 RMK AO2 SLP147 T01280078 10128 20111 51002=
201105291653 METAR KBFI 291653Z 20003KT 10SM BKN040 12/07 A2997 RMK AO2 SLP147 T01220067=
201105291553 METAR KBFI 291553Z 19003KT 10SM FEW034 OVC048 12/07 A2997 RMK AO2 SLP148 T01170067=
201105291453 METAR KBFI 291453Z 22004KT 10SM FEW034 OVC048 12/07 A2996 RMK AO2 SLP145 T01170067 51006=
201105291353 METAR KBFI 291353Z 00000KT 10SM BKN038 OVC055 12/06 A2996 RMK AO2 SLP144 T01170061=
201105291253 METAR KBFI 291253Z 00000KT 10SM OVC048 12/06 A2995 RMK AO2 SLP141 T01170061=
201105291153 METAR KBFI 291153Z 00000KT 10SM OVC049 12/06 A2994 RMK AO2 SLP139 T01170061 10128 20117 58002=
201105291053 METAR KBFI 291053Z AUTO 07003KT 10SM OVC050 12/06 A2994 RMK AO2 SLP139 T01170056 TSNO=
201105290953 METAR KBFI 290953Z AUTO 00000KT 10SM OVC060 12/06 A2995 RMK AO2 SLP140 T01170056 TSNO=
201105290853 METAR KBFI 290853Z AUTO 00000KT 10SM OVC055 12/05 A2995 RMK AO2 SLP140 T01220050 56000 TSNO=
201105290753 METAR KBFI 290753Z 00000KT 10SM BKN055 OVC100 12/05 A2995 RMK AO2 SLP140 T01220050 401610078=
201105290653 METAR KBFI 290653Z VRB03KT 10SM OVC047 12/04 A2994 RMK AO2 SLP139 T01220044=
201105290553 METAR KBFI 290553Z 01003KT 10SM OVC110 13/06 A2995 RMK AO2 SLP141 T01280056 10161 20128 50002=
201105290453 METAR KBFI 290453Z VRB03KT 10SM BKN120 13/06 A2995 RMK AO2 SLP142 T01280056=
201105290353 METAR KBFI 290353Z VRB03KT 10SM SCT070 BKN150 13/05 A2994 RMK AO2 SLP139 T01330050=
201105290253 METAR KBFI 290253Z 01006KT 10SM SCT060 BKN090 14/05 A2994 RMK AO2 SLP139 T01390050 52002=
201105290153 METAR KBFI 290153Z 32009G16KT 10SM CLR 15/03 A2994 RMK AO2 SLP138 T01500033=
201105290053 METAR KBFI 290053Z COR 31011G16KT 10SM SCT050 SCT070 16/03 A2994 RMK AO2 SLP137 T01560033=
201105282353 METAR KBFI 282353Z 31009G15KT 10SM SCT050 16/03 A2993 RMK AO2 SLP136 T01560033 10161 20111 56007=
201105282253 METAR KBFI 282253Z 31009KT 10SM SCT050 16/04 A2993 RMK AO2 SLP136 T01610039=
201105282153 METAR KBFI 282153Z 31008KT 10SM SCT050 16/04 A2995 RMK AO2 SLP140 T01560039=
201105282053 METAR KBFI 282053Z VRB05KT 10SM SCT035 SCT060 14/04 A2996 RMK AO2 SLP143 T01440039 58008=
201105281953 METAR KBFI 281953Z 00000KT 10SM SCT043 BKN070 14/04 A2996 RMK AO2 SLP146 T01390044=
201105281900 METAR KBFI NIL=
201105281853 METAR KBFI 281853Z 00000KT 10SM BKN041 13/03 A2998 RMK AO2 SLP150 T01330033=
201105281800 METAR KBFI NIL=
201105281753 METAR KBFI 281753Z 23003KT 10SM SCT049 BKN060 12/04 A2998 RMK AO2 SLP152 T01170039 10117 20078 56002=
201105281653 METAR KBFI 281653Z 00000KT 10SM BKN024 BKN030 OVC041 11/05 A2998 RMK AO2 SLP152 T01060050=
201105281649 SPECI KBFI 281649Z 00000KT 10SM BKN024 BKN030 OVC055 10/05 A2998 RMK AO2=
201105281649 SPECI KBFI 281649Z 00000KT 10SM BKN024 BKN030 OVC055 10/05 A2998 RMK AO2=
201105281553 METAR KBFI 281553Z 19003KT 10SM BKN050 10/06 A2999 RMK AO2 SLP154 T01000056=
201105281453 METAR KBFI 281453Z 00000KT 10SM OVC050 10/06 A2998 RMK AO2 SLP152 T01000061 50001=
201105281353 METAR KBFI 281353Z 00000KT 10SM OVC050 09/06 A2998 RMK AO2 SLP153 T00890061=
201105281253 METAR KBFI 281253Z 20004KT 10SM OVC050 08/06 A2998 RMK AO2 SLP151 T00830056=
201105281153 METAR KBFI 281153Z 17004KT 10SM FEW030 SCT035 OVC050 08/06 A2998 RMK AO2 SLP151 60000 70008 T00830056 10094 20083 58004=
201105281124 SPECI KBFI 281124Z 13004KT 10SM FEW021 BKN034 OVC050 08/06 A2998 RMK AO2=
201105281124 SPECI KBFI 281124Z 13004KT 10SM FEW021 BKN034 OVC050 08/06 A2998 RMK AO2=
201105281111 SPECI KBFI 281111Z 12004KT 10SM SCT021 BKN028 OVC034 08/06 A2998 RMK AO2=
201105281111 SPECI KBFI 281111Z 12004KT 10SM SCT021 BKN028 OVC034 08/06 A2998 RMK AO2=
201105281102 SPECI KBFI 281102Z 12003KT 10SM FEW021 BKN030 OVC034 08/06 A2998 RMK AO2=
201105281102 SPECI KBFI 281102Z 12003KT 10SM FEW021 BKN030 OVC034 08/06 A2998 RMK AO2=
201105281053 METAR KBFI 281053Z 14004KT 10SM FEW021 BKN028 OVC033 08/06 A2998 RMK AO2 SLP153 T00830056=
201105281000 SPECI KBFI 281000Z 14006KT 10SM BKN026 BKN040 OVC055 08/06 A2999 RMK AO2=
201105281000 SPECI KBFI 281000Z 14006KT 10SM BKN026 BKN040 OVC055 08/06 A2999 RMK AO2=
201105280953 METAR KBFI 280953Z 14006KT 10SM SCT026 BKN040 OVC080 09/06 A2999 RMK AO2 RAE10 SLP154 P0000 T00890056=
201105280853 METAR KBFI 280853Z 14005KT 10SM -RA OVC047 09/06 A2999 RMK AO2 RAB36 SLP155 P0000 60000 T00890061 50003=
201105280753 METAR KBFI 280753Z 17007KT 10SM FEW016 BKN047 OVC065 09/06 A2999 RMK AO2 SLP155 T00890061 401560089=
201105280653 METAR KBFI 280653Z 17006KT 10SM BKN049 09/06 A2999 RMK AO2 SLP154 T00940061=
201105280553 METAR KBFI 280553Z VRB05KT 10SM BKN046 OVC055 09/05 A2998 RMK AO2 SLP152 T00940050 10133 20089 53005=
201105280453 METAR KBFI 280453Z 20004KT 10SM FEW060 BKN075 10/06 A2998 RMK AO2 SLP151 T01000056=
201105280353 METAR KBFI 280353Z VRB06KT 10SM BKN070 11/05 A2997 RMK AO2 SLP147 T01110050=
201105280253 METAR KBFI 280253Z VRB05KT 10SM SCT030 BKN040 12/07 A2997 RMK AO2 SLP147 T01170067 55000=
201105280153 METAR KBFI 280153Z 17006G19KT 10SM SCT065 12/05 A2996 RMK AO2 SLP144 T01220050=
201105280053 METAR KBFI 280053Z 18006KT 10SM SCT050 13/06 A2996 RMK AO2 SLP145 T01280056=
201105272353 METAR KBFI 272353Z 17012G20KT 10SM SCT035 BKN050 13/07 A2997 RMK AO2 SLP147 60008 T01330067 10156 20094 53003=
201105272253 METAR KBFI 272253Z 18011G16KT 140V210 10SM FEW040 SCT065 15/06 A2996 RMK AO2 SLP144 T01500061=
201105272153 METAR KBFI 272153Z 20009G14KT 10SM SCT038 SCT200 14/06 A2996 RMK AO2 SLP144 T01440061=
201105272053 METAR KBFI 272053Z 17011G18KT 10SM SCT025 14/07 A2996 RMK AO2 SLP144 P0001 60008 T01390067 51009=
201105271953 METAR KBFI 271953Z 19009G18KT 10SM SCT025 13/07 A2995 RMK AO2 SLP141 T01280072=
201105271853 METAR KBFI 271853Z 19008KT 10SM SCT039 11/07 A2994 RMK AO2 RAB05E52 SLP139 P0007 T01060067=
201105271817 SPECI KBFI 271817Z 22007G15KT 4SM -RA BKN030 OVC038 09/06 A2995 RMK AO2 RAB05 P0006=
201105271817 SPECI KBFI 271817Z 22007G15KT 4SM -RA BKN030 OVC038 09/06 A2995 RMK AO2 RAB05 P0006=
201105271813 SPECI KBFI 271813Z 21010G20KT 2SM RA BKN026 OVC038 09/06 A2995 RMK AO2 RAB05 P0005=
201105271813 SPECI KBFI 271813Z 21010G20KT 2SM RA BKN026 OVC038 09/06 A2995 RMK AO2 RAB05 P0005=
201105271753 METAR KBFI 271753Z 22006G14KT 10SM SCT027 BKN042 11/06 A2993 RMK AO2 SLP135 60000 T01110061 10122 20094 51011=
201105271732 SPECI KBFI 271732Z 16009KT 10SM SCT025 11/06 A2993 RMK AO2=
201105271732 SPECI KBFI 271732Z 16009KT 10SM SCT025 11/06 A2993 RMK AO2=
201105271708 SPECI KBFI 271708Z 16011G19KT 10SM BKN025 BKN033 11/06 A2992 RMK AO2=
201105271708 SPECI KBFI 271708Z 16011G19KT 10SM BKN025 BKN033 11/06 A2992 RMK AO2=
201105271653 METAR KBFI 271653Z 13010KT 10SM FEW025 11/07 A2992 RMK AO2 SLP131 T01060072=
201105271553 METAR KBFI 271553Z 17011KT 10SM FEW021 SCT033 BKN050 11/07 A2992 RMK AO2 RAB32E41 SLP130 P0000 T01060072=
201105271453 METAR KBFI 271453Z 17007KT 10SM FEW030 BKN100 10/07 A2990 RMK AO2 SLP124 T01000067 53014=
201105271353 METAR KBFI 271353Z 17010KT 10SM FEW055 OVC075 10/07 A2989 RMK AO2 SLP120 T01000067=
201105271253 METAR KBFI 271253Z 16008KT 10SM FEW075 OVC100 09/06 A2987 RMK AO2 SLP114 T00940061=
201105271153 METAR KBFI 271153Z 18006KT 10SM FEW060 BKN095 10/06 A2986 RMK AO2 SLP110 60002 70005 T01000061 10117 20100 53007=
201105271112 SPECI KBFI 271112Z VRB05KT 10SM FEW021 BKN042 OVC090 10/07 A2985 RMK AO2=
201105271112 SPECI KBFI 271112Z VRB05KT 10SM FEW021 BKN042 OVC090 10/07 A2985 RMK AO2=
201105271053 METAR KBFI 271053Z 22010G16KT 170V240 10SM SCT021 BKN027 OVC040 11/07 A2984 RMK AO2 RAB0955E44 SLP105 P0000 T01060072=
201105271045 SPECI KBFI 271045Z 19010G14KT 10SM BKN029 BKN033 OVC046 11/07 A2984 RMK AO2 RAB0955E44 P0000=
201105271045 SPECI KBFI 271045Z 19010G14KT 10SM BKN029 BKN033 OVC046 11/07 A2984 RMK AO2 RAB0955E44 P0000=
201105270953 METAR KBFI 270953Z 14008KT 10SM BKN037 OVC050 10/08 A2983 RMK AO2 SLP101 T01000078=
201105270853 METAR KBFI 270853Z 12005KT 10SM OVC046 10/08 A2984 RMK AO2 RAE48 SLP103 P0000 60002 T01000078 58016=
201105270753 METAR KBFI 270753Z 14004KT 10SM -RA BKN048 BKN060 OVC100 10/08 A2986 RMK AO2 SLP110 P0001 T01000078 401560078=
201105270653 METAR KBFI 270653Z 11004KT 10SM -RA BKN048 OVC060 11/08 A2987 RMK AO2 RAB12E20B38 SLP115 P0001 T01110078=
201105270553 METAR KBFI 270553Z 12004KT 10SM BKN043 OVC050 11/07 A2989 RMK AO2 SLP119 60000 T01110072 10139 20111 56008=
201105270453 METAR KBFI 270453Z 14004KT 10SM SCT050 OVC065 11/08 A2989 RMK AO2 SLP122 T01110078=
201105270353 METAR KBFI 270353Z 17006KT 10SM SCT046 BKN055 OVC070 11/08 A2990 RMK AO2 RAB12E36 SLP124 P0000 T01110078=
201105270253 METAR KBFI 270253Z 19005KT 10SM OVC055 12/08 A2991 RMK AO2 SLP128 60000 T01170083 58002=
201105270153 METAR KBFI 270153Z 18006KT 10SM FEW043 OVC090 12/08 A2992 RMK AO2 RAE32 SLP130 P0000 T01220078=
201105270053 METAR KBFI 270053Z 22006KT 10SM -RA SCT042 OVC055 12/07 A2992 RMK AO2 RAB31 SLP130 P0000 T01220072=
201105262353 METAR KBFI 262353Z 24006KT 10SM SCT065 13/09 A2992 RMK AO2 RAB01E33 SLP130 P0003 60003 T01330089 10156 20111 55005=
201105262253 METAR KBFI 262253Z 22004KT 10SM SCT045 OVC065 14/05 A2991 RMK AO2 SLP127 T01440050=
201105262153 METAR KBFI 262153Z 24005KT 10SM FEW036 SCT100 14/06 A2991 RMK AO2 SLP129 T01440056=
201105262053 METAR KBFI 262053Z 19007G16KT 10SM BKN060 14/04 A2993 RMK AO2 SLP135 T01390039 58007=
201105261953 METAR KBFI 261953Z 19007G17KT 10SM FEW055 14/05 A2994 RMK AO2 SLP138 T01390050=
201105261853 METAR KBFI 261853Z 18010G17KT 10SM SCT200 14/06 A2995 RMK AO2 SLP142 T01390061=
201105261753 METAR KBFI 261753Z AUTO 20008KT 10SM FEW049 12/05 A2995 RMK AO2 SLP142 T01170050 10117 20078 58003 TSNO=
201105261653 METAR KBFI 261653Z AUTO 18011G14KT 10SM SCT090 12/06 A2996 RMK AO2 SLP145 T01170056 TSNO=
201105261553 METAR KBFI 261553Z VRB05KT 10SM BKN042 09/06 A2996 RMK AO2 SLP145 T00940056=
201105261453 METAR KBFI 261453Z 21009G17KT 10SM BKN080 BKN090 09/05 A2996 RMK AO2 SLP146 T00890050 51010=
201105261353 METAR KBFI 261353Z 18008KT 120V210 10SM BKN046 OVC120 08/05 A2996 RMK AO2 SLP144 T00830050=
201105261253 METAR KBFI 261253Z 17005KT 10SM CLR 08/05 A2994 RMK AO2 SLP140 T00780050=
201105261153 METAR KBFI 261153Z 19005KT 10SM FEW040 08/05 A2993 RMK AO2 SLP135 70024 T00830050 10100 20083 50011=
201105261053 METAR KBFI 261053Z 20008G15KT 10SM FEW040 09/05 A2993 RMK AO2 SLP136 T00890050=
201105260953 METAR KBFI 260953Z 18007KT 10SM FEW040 09/05 A2991 RMK AO2 SLP129 T00890050=
201105260853 METAR KBFI 260853Z 17008KT 10SM CLR 09/05 A2990 RMK AO2 SLP125 T00890050 50006=
201105260753 METAR KBFI 260753Z 17013G17KT 10SM CLR 09/06 A2990 RMK AO2 SLP126 T00890056 401390089=
201105260653 METAR KBFI 260653Z 19007G15KT 10SM CLR 09/06 A2989 RMK AO2 SLP120 T00940056=
201105260553 METAR KBFI 260553Z 18010G16KT 140V200 10SM SCT080 10/06 A2988 RMK AO2 SLP118 60009 T01000061 10122 20100 51014=
201105260453 METAR KBFI 260453Z 19009KT 10SM FEW055 10/07 A2987 RMK AO2 SLP114 T01000067=
201105260353 METAR KBFI 260353Z 18009G14KT 160V230 10SM FEW021 SCT048 OVC055 11/08 A2986 RMK AO2 SLP112 T01060083=
201105260253 METAR KBFI 260253Z 17007KT 10SM FEW055 SCT080 SCT110 10/08 A2984 RMK AO2 RAE39 SLP105 P0001 60009 T01000083 53016=
201105260153 METAR KBFI 260153Z VRB05KT 5SM -RA BR FEW018 BKN040 OVC050 11/08 A2983 RMK AO2 SLP100 P0006 T01060083=
201105260129 SPECI KBFI 260129Z 21005KT 9SM -RA FEW019 BKN026 OVC055 12/10 A2982 RMK AO2 P0001=
201105260129 SPECI KBFI 260129Z 21005KT 9SM -RA FEW019 BKN026 OVC055 12/10 A2982 RMK AO2 P0001=
201105260053 METAR KBFI 260053Z 15006KT 10SM -RA FEW010 SCT030 OVC050 12/10 A2981 RMK AO2 SLP093 P0002 T01220100=
201105252353 METAR KBFI 252353Z 15006KT 9SM -RA FEW014 OVC055 12/10 A2979 RMK AO2 SLP088 P0002 60015 T01220100 10128 20111 56004=
201105252253 METAR KBFI 252253Z 17004KT 10SM -RA SCT011 BKN016 BKN031 12/11 A2980 RMK AO2 SLP090 P0003 T01220106=
201105252153 METAR KBFI 252153Z 20006KT 8SM -RA SCT008 BKN024 OVC050 12/10 A2980 RMK AO2 SLP091 P0004 T01170100=
201105252053 METAR KBFI 252053Z VRB04KT 6SM -RA BR SCT010 BKN024 OVC044 12/10 A2981 RMK AO2 SLP093 P0003 60006 T01170100 53003=
201105251953 METAR KBFI 251953Z 21003KT 7SM -RA SCT026 BKN037 OVC065 12/09 A2979 RMK AO2 SLP089 P0002 T01170094=
201105251853 METAR KBFI 251853Z 23003KT 9SM -RA SCT026 BKN037 OVC065 12/09 A2980 RMK AO2 RAB02 SLP090 P0001 T01170094=
201105251827 SPECI KBFI 251827Z 23004KT 10SM -RA SCT024 OVC065 12/09 A2980 RMK AO2 RAB02 P0000=
201105251827 SPECI KBFI 251827Z 23004KT 10SM -RA SCT024 OVC065 12/09 A2980 RMK AO2 RAB02 P0000=
201105251753 METAR KBFI 251753Z 23005KT 10SM SCT018 OVC024 12/09 A2980 RMK AO2 SLP089 60000 T01220089 10122 20117 50005=
201105251727 SPECI KBFI 251727Z 26004KT 10SM BKN021 OVC060 12/09 A2980 RMK AO2=
201105251727 SPECI KBFI 251727Z 26004KT 10SM BKN021 OVC060 12/09 A2980 RMK AO2=
201105251653 METAR KBFI 251653Z 31004KT 10SM FEW019 OVC130 12/08 A2980 RMK AO2 RAB27E38 SLP090 P0000 T01220083=
201105251553 METAR KBFI 251553Z VRB03KT 10SM SCT050 BKN070 12/08 A2980 RMK AO2 RAE01 SLP091 P0000 T01170083=
201105251453 METAR KBFI 251453Z 32005KT 10SM -RA SCT060 12/08 A2978 RMK AO2 RAB47 SLP085 P0000 60000 T01220083 56021=
201105251353 METAR KBFI 251353Z VRB04KT 10SM FEW075 BKN090 12/08 A2980 RMK AO2 SLP089 T01220083=
201105251253 METAR KBFI 251253Z VRB03KT 10SM BKN090 12/08 A2981 RMK AO2 SLP095 T01220078=
201105251153 METAR KBFI 251153Z 01004KT 10SM BKN110 12/08 A2984 RMK AO2 SLP105 T01220078 10144 20122 58016=
201105251053 METAR KBFI 251053Z 36003KT 10SM OVC120 12/08 A2986 RMK AO2 SLP112 T01220083=
201105250953 METAR KBFI 250953Z 00000KT 10SM OVC120 13/08 A2988 RMK AO2 SLP118 T01280083=
201105250853 METAR KBFI 250853Z 33004KT 10SM CLR 13/08 A2989 RMK AO2 SLP121 T01280083 56019=
201105250753 METAR KBFI 250753Z 00000KT 10SM BKN120 14/07 A2991 RMK AO2 SLP128 T01390072 401830094=
201105250653 METAR KBFI 250653Z 00000KT 10SM CLR 14/08 A2992 RMK AO2 SLP131 T01390083=
201105250553 METAR KBFI 250553Z 00000KT 10SM CLR 14/07 A2994 RMK AO2 SLP140 T01440067 10183 20144 58008=
201105250453 METAR KBFI 250453Z 00000KT 10SM CLR 16/04 A2996 RMK AO2 SLP144 T01560044=
201105250353 METAR KBFI 250353Z 00000KT 10SM CLR 16/04 A2996 RMK AO2 SLP145 T01610044=
201105250253 METAR KBFI 250253Z 02004KT 10SM BKN250 17/04 A2997 RMK AO2 SLP147 T01720039 56013=
201105250153 METAR KBFI 250153Z 04004KT 10SM FEW200 18/04 A2997 RMK AO2 SLP149 T01780039=
201105250053 METAR KBFI 250053Z VRB03KT 10SM FEW055 18/04 A2999 RMK AO2 PK WND 22026/0015 SLP153 T01780044=
201105242353 METAR KBFI 242353Z 00000KT 10SM SCT060 17/04 A3000 RMK AO2 SLP160 T01720044 10178 20133 58014=
201105242253 METAR KBFI 242253Z 00000KT 10SM OVC060 17/03 A3002 RMK AO2 SLP165 T01670033=
201105242153 METAR KBFI 242153Z 00000KT 10SM BKN060 18/04 A3004 RMK AO2 SLP171 T01780044=
201105242053 METAR KBFI 242053Z VRB03KT 10SM SCT055 16/04 A3005 RMK AO2 SLP174 T01560044 58009=
201105241953 METAR KBFI 241953Z 00000KT 10SM OVC048 14/05 A3006 RMK AO2 SLP178 T01440050=
201105241853 METAR KBFI 241853Z VRB03KT 10SM SCT017 BKN039 14/06 A3007 RMK AO2 SLP181 T01390056=
201105241800 SPECI KBFI 241800Z 13006KT 10SM BKN039 OVC047 14/06 A3007 RMK AO2=
201105241800 SPECI KBFI 241800Z 13006KT 10SM BKN039 OVC047 14/06 A3007 RMK AO2=
201105241753 METAR KBFI 241753Z 14009KT 10SM BKN025 15/07 A3007 RMK AO2 SLP183 T01500072 10150 20094 58004=
201105241653 METAR KBFI 241653Z 18005KT 10SM SCT021 BKN070 12/07 A3008 RMK AO2 SLP184 T01220072=
201105241637 SPECI KBFI 241637Z 18005KT 10SM SCT021 BKN070 13/08 A3008 RMK AO2=
201105241637 SPECI KBFI 241637Z 18005KT 10SM SCT021 BKN070 13/08 A3008 RMK AO2=
201105241634 SPECI KBFI 241634Z 17006KT 10SM BKN021 BKN070 13/08 A3008 RMK AO2=
201105241634 SPECI KBFI 241634Z 17006KT 10SM BKN021 BKN070 13/08 A3008 RMK AO2=
201105241553 METAR KBFI 241553Z 19006KT 10SM SCT017 BKN080 11/07 A3008 RMK AO2 SLP187 T01110072=
201105241453 METAR KBFI 241453Z 19004KT 10SM SCT017 OVC060 11/07 A3008 RMK AO2 SLP187 T01060072 53003=
201105241450 SPECI KBFI 241450Z VRB06KT 10SM SCT017 OVC060 11/07 A3008 RMK AO2=
201105241450 SPECI KBFI 241450Z VRB06KT 10SM SCT017 OVC060 11/07 A3008 RMK AO2=
201105241353 METAR KBFI 241353Z 17004KT 10SM BKN014 BKN050 10/07 A3008 RMK AO2 SLP185 T01000072=
201105241324 SPECI KBFI 241324Z 15007KT 110V180 10SM BKN014 BKN027 09/07 A3008 RMK AO2=
201105241324 SPECI KBFI 241324Z 15007KT 110V180 10SM BKN014 BKN027 09/07 A3008 RMK AO2=
201105241253 METAR KBFI 241253Z 16005KT 10SM BKN018 BKN027 09/07 A3007 RMK AO2 SLP183 T00940072=
201105241153 METAR KBFI 241153Z 19003KT 10SM OVC016 10/08 A3008 RMK AO2 SLP184 T01000078 10122 20094 53000=
201105241137 SPECI KBFI 241137Z 17005KT 10SM BKN016 09/07 A3008 RMK AO2=
201105241137 SPECI KBFI 241137Z 17005KT 10SM BKN016 09/07 A3008 RMK AO2=
201105241053 METAR KBFI 241053Z 16006KT 10SM BKN065 09/07 A3007 RMK AO2 SLP183 T00940072=
201105240953 METAR KBFI 240953Z 18004KT 10SM OVC065 10/08 A3007 RMK AO2 SLP182 T01000078=
201105240853 METAR KBFI 240853Z 00000KT 10SM OVC065 11/07 A3008 RMK AO2 SLP184 T01060067 53002=
201105240753 METAR KBFI 240753Z 00000KT 10SM SCT048 BKN060 12/06 A3007 RMK AO2 SLP181 T01170061 401720083=
201105240653 METAR KBFI 240653Z 00000KT 10SM BKN060 12/06 A3007 RMK AO2 SLP181 T01170061=
201105240553 METAR KBFI 240553Z 00000KT 10SM CLR 12/06 A3007 RMK AO2 SLP182 T01220061 10172 20122 50007=
201105240453 METAR KBFI 240453Z 00000KT 10SM FEW060 SCT080 13/05 A3007 RMK AO2 SLP182 T01280050=
201105240353 METAR KBFI 240353Z 00000KT 10SM SCT065 OVC080 14/05 A3006 RMK AO2 SLP178 T01440050=
201105240253 METAR KBFI 240253Z 30003KT 10SM BKN080 14/04 A3005 RMK AO2 SLP175 T01440039 53002=
201105240153 METAR KBFI 240153Z 30004KT 10SM SCT050 BKN075 15/04 A3004 RMK AO2 SLP174 T01500039=
201105240053 METAR KBFI 240053Z VRB06KT 10SM BKN050 16/03 A3004 RMK AO2 SLP173 T01560033=
201105232353 METAR KBFI 232353Z 07005KT 10SM BKN050 17/04 A3004 RMK AO2 SLP173 T01670039 10172 20117 58011=
201105232253 METAR KBFI 232253Z 31003KT 10SM BKN070 16/04 A3006 RMK AO2 SLP178 T01560039=
201105232153 METAR KBFI 232153Z 07006KT 10SM BKN050 14/03 A3007 RMK AO2 SLP180 T01440033=
201105232053 METAR KBFI 232053Z VRB04KT 10SM SCT044 OVC080 15/06 A3007 RMK AO2 SLP184 T01500056 58006=
201105231953 METAR KBFI 231953Z 17003KT 10SM SCT020 BKN044 13/06 A3009 RMK AO2 SLP187 T01330056=
201105231853 METAR KBFI 231853Z 00000KT 10SM SCT020 BKN035 13/05 A3010 RMK AO2 SLP190 T01280050=
201105231753 METAR KBFI 231753Z 00000KT 10SM OVC038 12/06 A3009 RMK AO2 SLP189 T01170056 10117 20083 50000=
201105231653 METAR KBFI 231653Z 17003KT 10SM FEW034 OVC080 11/06 A3009 RMK AO2 SLP190 T01110056=
201105231553 METAR KBFI 231553Z 14004KT 10SM CLR 11/06 A3009 RMK AO2 SLP190 T01060061=
201105231453 METAR KBFI 231453Z 15003KT 10SM SCT030 BKN080 09/06 A3009 RMK AO2 SLP189 T00940061 53005=
201105231353 METAR KBFI 231353Z 15004KT 10SM SCT029 BKN070 09/06 A3009 RMK AO2 SLP188 T00890056=
201105231253 METAR KBFI 231253Z 00000KT 10SM FEW029 09/06 A3007 RMK AO2 SLP183 T00940056=
201105231215 SPECI KBFI 231215Z 00000KT 10SM BKN031 09/06 A3007 RMK AO2=
201105231215 SPECI KBFI 231215Z 00000KT 10SM BKN031 09/06 A3007 RMK AO2=
201105231153 METAR KBFI 231153Z 00000KT 10SM OVC029 10/06 A3008 RMK AO2 SLP184 T01000056 10111 20094 55001=
201105231053 METAR KBFI 231053Z 00000KT 10SM BKN031 OVC055 09/06 A3007 RMK AO2 SLP183 T00940061=
201105230953 METAR KBFI 230953Z 00000KT 10SM BKN032 OVC050 11/06 A3007 RMK AO2 SLP184 T01060056=
201105230853 METAR KBFI 230853Z 00000KT 10SM OVC032 11/05 A3008 RMK AO2 SLP185 T01110050 53002=
201105230753 METAR KBFI 230753Z 01003KT 10SM FEW030 OVC080 11/06 A3008 RMK AO2 SLP184 T01110056 401560094=
201105230653 METAR KBFI 230653Z 00000KT 10SM SCT055 OVC080 11/06 A3007 RMK AO2 SLP183 T01110061=
201105230553 METAR KBFI 230553Z 32003KT 10SM OVC034 11/06 A3007 RMK AO2 SLP183 T01110061 10144 20111 53009=
201105230453 METAR KBFI 230453Z AUTO 27003KT 10SM BKN050 OVC080 11/07 A3007 RMK AO2 SLP181 T01110067 TSNO=
201105230353 METAR KBFI 230353Z 31003KT 10SM OVC080 12/06 A3005 RMK AO2 SLP176 T01170061=
201105230253 METAR KBFI 230253Z 00000KT 10SM BKN070 13/06 A3005 RMK AO2 SLP174 T01280061 55002=
201105230153 METAR KBFI 230153Z 29003KT 10SM BKN070 OVC100 13/06 A3005 RMK AO2 SLP174 T01330056=
201105230053 METAR KBFI 230053Z VRB05KT 10SM BKN070 14/04 A3004 RMK AO2 SLP173 T01390044=
201105222353 METAR KBFI 222353Z 32003KT 10SM OVC065 14/05 A3005 RMK AO2 SLP176 T01440050 10156 20122 58002=
201105222253 METAR KBFI 222253Z 26006KT 10SM BKN070 BKN150 15/05 A3006 RMK AO2 SLP179 T01500050=
201105222153 METAR KBFI 222153Z 24007KT 10SM SCT065 15/04 A3006 RMK AO2 SLP180 T01500044=
201105222053 METAR KBFI 222053Z 27006KT 10SM FEW045 BKN060 15/04 A3006 RMK AO2 SLP178 T01500044 58001=
201105221953 METAR KBFI 221953Z 16009KT 10SM SCT043 OVC150 14/05 A3006 RMK AO2 SLP179 T01390050=
201105221853 METAR KBFI 221853Z VRB06KT 10SM FEW043 13/04 A3006 RMK AO2 SLP179 T01330044=
201105221753 METAR KBFI 221753Z 16006KT 10SM SCT032 13/06 A3006 RMK AO2 SLP179 T01280061 10133 20094 52001=
201105221653 METAR KBFI 221653Z 19003KT 10SM FEW024 SCT080 12/06 A3006 RMK AO2 SLP178 T01170061=
201105221553 METAR KBFI 221553Z 18003KT 10SM FEW020 OVC080 11/07 A3006 RMK AO2 SLP179 T01060072=
201105221508 SPECI KBFI 221508Z VRB03KT 10SM SCT017 SCT050 OVC080 10/08 A3006 RMK AO2=
201105221508 SPECI KBFI 221508Z VRB03KT 10SM SCT017 SCT050 OVC080 10/08 A3006 RMK AO2=
201105221500 SPECI KBFI 221500Z 00000KT 10SM BKN017 BKN050 OVC080 11/08 A3006 RMK AO2=
201105221500 SPECI KBFI 221500Z 00000KT 10SM BKN017 BKN050 OVC080 11/08 A3006 RMK AO2=
201105221453 METAR KBFI 221453Z 15003KT 10SM BKN012 OVC017 10/07 A3006 RMK AO2 SLP178 T01000072 52005=
201105221353 METAR KBFI 221353Z 00000KT 10SM BKN012 OVC017 09/07 A3005 RMK AO2 SLP176 T00940072=
201105221253 METAR KBFI 221253Z 00000KT 10SM OVC012 09/08 A3005 RMK AO2 SLP174 T00940078=
201105221153 METAR KBFI 221153Z 22003KT 10SM OVC010 09/08 A3004 RMK AO2 RAE1057 SLP173 P0000 60001 70010 T00940078 10111 20094 58002=
201105221053 METAR KBFI 221053Z 20006KT 10SM -RA OVC010 10/08 A3005 RMK AO2 RAB47 SLP174 P0000 T01000083=
201105220953 METAR KBFI 220953Z 20005KT 10SM OVC012 10/08 A3005 RMK AO2 SLP174 T01000083=
201105220853 METAR KBFI 220853Z 20004KT 10SM OVC012 11/09 A3005 RMK AO2 SLP175 60001 T01060089 56004=
201105220753 METAR KBFI 220753Z 15003KT 10SM OVC009 11/10 A3005 RMK AO2 RAE45 CIG 006V013 SLP175 P0000 T01110100 401330100=
201105220705 SPECI KBFI 220705Z 10004KT 9SM OVC009 11/10 A3005 RMK AO2 RAE0657 P0000=
201105220705 SPECI KBFI 220705Z 10004KT 9SM OVC009 11/10 A3005 RMK AO2 RAE0657 P0000=
201105220700 SPECI KBFI 220700Z AUTO 10004KT 8SM FEW009 BKN016 OVC021 11/10 A3005 RMK AO2 RAE0657 P0000 TSNO=
201105220700 SPECI KBFI 220700Z AUTO 10004KT 8SM FEW009 BKN016 OVC021 11/10 A3005 RMK AO2 RAE0657 P0000 TSNO=
201105220653 METAR KBFI 220653Z 10003KT 5SM -RA BR BKN009 BKN016 OVC027 11/10 A3005 RMK AO2 SLP176 P0001 T01110100=
201105220600 SPECI KBFI 220600Z 12003KT 9SM -RA BKN009 BKN015 OVC042 11/09 A3006 RMK AO2 CIG 007V011 P0000=
201105220600 SPECI KBFI 220600Z 12003KT 9SM -RA BKN009 BKN015 OVC042 11/09 A3006 RMK AO2 CIG 007V011 P0000=
201105220553 METAR KBFI 220553Z 14004KT 7SM -RA SCT009 BKN015 OVC042 11/09 A3006 RMK AO2 SLP179 P0002 60006 T01060094 10128 20106 58000=
201105220542 SPECI KBFI 220542Z 12004KT 8SM SCT009 BKN030 OVC060 11/09 A3006 RMK AO2 RAE37 P0002=
201105220542 SPECI KBFI 220542Z 12004KT 8SM SCT009 BKN030 OVC060 11/09 A3006 RMK AO2 RAE37 P0002=
201105220526 SPECI KBFI 220526Z 13003KT 10SM -RA SCT017 BKN030 OVC042 11/10 A3006 RMK AO2 P0002=
201105220526 SPECI KBFI 220526Z 13003KT 10SM -RA SCT017 BKN030 OVC042 11/10 A3006 RMK AO2 P0002=
201105220508 SPECI KBFI 220508Z 14004KT 7SM -RA FEW010 BKN015 OVC042 11/10 A3006 RMK AO2 P0001=
201105220508 SPECI KBFI 220508Z 14004KT 7SM -RA FEW010 BKN015 OVC042 11/10 A3006 RMK AO2 P0001=
201105220453 METAR KBFI 220453Z 12003KT 6SM -RA BR BKN012 BKN027 OVC034 11/10 A3007 RMK AO2 SLP181 P0002 T01110100=
201105220353 METAR KBFI 220353Z 14003KT 7SM -RA SCT015 OVC024 11/10 A3006 RMK AO2 RAB15 SLP180 P0002 T01110100=
201105220253 METAR KBFI 220253Z 12004KT 9SM OVC024 12/09 A3007 RMK AO2 SLP180 60000 T01220089 56006=
201105220153 METAR KBFI 220153Z 11004KT 10SM SCT024 BKN030 OVC050 12/08 A3007 RMK AO2 SLP181 T01220083=
201105220053 METAR KBFI 220053Z 00000KT 10SM OVC034 13/09 A3007 RMK AO2 RAB2355E04 SLP183 P0000 T01280089=
201105212353 METAR KBFI 212353Z 00000KT 10SM BKN030 OVC037 12/09 A3008 RMK AO2 RAE13B40E52 SLP186 P0000 60000 T01220089 10128 20106 58010=
201105212253 METAR KBFI 212253Z 09003KT 10SM -RA SCT022 SCT045 OVC055 12/09 A3010 RMK AO2 RAB43 SLP191 P0000 T01220089=
201105212153 METAR KBFI 212153Z 14003KT 10SM FEW018 BKN025 OVC046 12/08 A3011 RMK AO2 SLP194 T01170083=
201105212053 METAR KBFI 212053Z 14004KT 10SM SCT018 BKN025 OVC046 11/08 A3011 RMK AO2 SLP197 T01110078 53000=
201105211953 METAR KBFI 211953Z 19006KT 10SM OVC022 11/08 A3011 RMK AO2 SLP196 T01110078=
201105211853 METAR KBFI 211853Z 15003KT 10SM SCT017 OVC028 11/08 A3011 RMK AO2 SLP195 T01110078=
201105211753 METAR KBFI 211753Z 19004KT 10SM BKN016 BKN025 OVC048 11/08 A3011 RMK AO2 SLP196 60003 T01060083 10111 20100 50000=
201105211653 METAR KBFI 211653Z 23003KT 10SM BKN016 OVC025 10/08 A3011 RMK AO2 RAE10 SLP197 P0000 T01000078=
201105211559 SPECI KBFI 211559Z 16003KT 10SM -RA SCT016 BKN025 OVC055 10/07 A3012 RMK AO2 P0000=
201105211559 SPECI KBFI 211559Z 16003KT 10SM -RA SCT016 BKN025 OVC055 10/07 A3012 RMK AO2 P0000=
201105211553 METAR KBFI 211553Z 00000KT 10SM -RA SCT016 SCT025 OVC060 10/07 A3012 RMK AO2 SLP197 P0001 T01000072=
201105211453 METAR KBFI 211453Z 00000KT 10SM -RA OVC065 10/07 A3011 RMK AO2 SLP196 P0000 60002 T01000067 52001=
201105211353 METAR KBFI 211353Z 00000KT 10SM -RA OVC070 10/06 A3011 RMK AO2 SLP196 P0002 T01000061=
201105211253 METAR KBFI 211253Z 00000KT 10SM -RA SCT065 BKN080 OVC095 11/07 A3011 RMK AO2 RAB05 SLP195 P0000 T01060067=
201105211153 METAR KBFI 211153Z 00000KT 10SM OVC070 11/06 A3011 RMK AO2 SLP195 60000 T01110056 10133 20111 58002=
201105211053 METAR KBFI 211053Z 00000KT 10SM OVC075 11/04 A3011 RMK AO2 RAB17E52 SLP197 P0000 T01110044=
201105210953 METAR KBFI 210953Z 00000KT 10SM OVC085 12/03 A3012 RMK AO2 SLP200 T01170028=
201105210853 METAR KBFI 210853Z 17003KT 10SM OVC100 12/03 A3012 RMK AO2 SLP198 T01220033 53007=
201105210753 METAR KBFI 210753Z 05004KT 10SM BKN120 13/03 A3011 RMK AO2 SLP195 T01330033 402170072=
201105210653 METAR KBFI 210653Z 00000KT 10SM SCT120 13/03 A3010 RMK AO2 SLP192 T01330033=
201105210553 METAR KBFI 210553Z 34003KT 10SM SCT120 13/04 A3010 RMK AO2 SLP191 T01330039 10206 20128 53019=
201105210453 METAR KBFI 210453Z VRB03KT 10SM CLR 14/03 A3007 RMK AO2 SLP182 T01440028=
201105210353 METAR KBFI 210353Z 02006KT 10SM CLR 16/04 A3005 RMK AO2 SLP176 T01610039=
201105210253 METAR KBFI 210253Z 00000KT 10SM BKN220 18/06 A3004 RMK AO2 SLP172 T01780061 55002=
201105210153 METAR KBFI 210153Z 30005KT 10SM CLR 19/05 A3003 RMK AO2 SLP170 T01890050=
201105210053 METAR KBFI 210053Z 30004KT 10SM CLR 19/04 A3004 RMK AO2 SLP172 T01940044=
201105202353 METAR KBFI 202353Z 27006KT 10SM FEW100 BKN250 20/04 A3005 RMK AO2 SLP174 T02000039 10217 20167 56007=
201105202253 METAR KBFI 202253Z 34004KT 10SM CLR 22/01 A3005 RMK AO2 SLP174 T02170011=
201105202153 METAR KBFI 202153Z VRB04KT 10SM CLR 21/01 A3006 RMK AO2 SLP178 T02110011=
201105202053 METAR KBFI 202053Z VRB04KT 10SM CLR 20/01 A3007 RMK AO2 SLP181 T02000006 58008=
201105201953 METAR KBFI 201953Z VRB05KT 10SM CLR 19/02 A3008 RMK AO2 SLP184 T01890022=
201105201853 METAR KBFI 201853Z VRB03KT 10SM CLR 18/04 A3009 RMK AO2 SLP187 T01780039=
201105201753 METAR KBFI 201753Z VRB03KT 10SM FEW250 17/04 A3009 RMK AO2 SLP189 T01670044 10167 20072 56010=
201105201653 METAR KBFI 201653Z 00000KT 10SM CLR 15/04 A3010 RMK AO2 SLP193 T01500039=
201105201553 METAR KBFI 201553Z 00000KT 10SM CLR 13/06 A3011 RMK AO2 SLP195 T01280056=
201105201453 METAR KBFI 201453Z 12004KT 10SM CLR 11/05 A3012 RMK AO2 SLP199 T01110050 53001=
201105201353 METAR KBFI 201353Z 00000KT 10SM CLR 09/06 A3013 RMK AO2 SLP201 T00940061=
201105201253 METAR KBFI 201253Z 00000KT 10SM CLR 09/05 A3011 RMK AO2 SLP197 T00890050=
201105201153 METAR KBFI 201153Z 14004KT 10SM CLR 08/05 A3012 RMK AO2 SLP199 T00830050 10139 20083 53002=
201105201053 METAR KBFI 201053Z 00000KT 10SM CLR 09/04 A3011 RMK AO2 SLP195 T00890039=
201105200953 METAR KBFI 200953Z 00000KT 10SM CLR 10/04 A3010 RMK AO2 SLP192 T01000039=
201105200853 METAR KBFI 200853Z 00000KT 10SM CLR 11/04 A3011 RMK AO2 SLP196 T01060039 50000=
201105200753 METAR KBFI 200753Z 32003KT 10SM CLR 12/04 A3011 RMK AO2 SLP197 T01170039 402000056=
201105200653 METAR KBFI 200653Z 00000KT 10SM CLR 13/03 A3011 RMK AO2 SLP196 T01280033=
201105200553 METAR KBFI 200553Z 00000KT 10SM CLR 14/02 A3011 RMK AO2 SLP196 T01390022 10194 20139 53008=
201105200453 METAR KBFI 200453Z 00000KT 10SM CLR 15/02 A3010 RMK AO2 SLP193 T01500022=
201105200353 METAR KBFI 200353Z 33004KT 10SM CLR 16/03 A3009 RMK AO2 SLP189 T01610028=
201105200253 METAR KBFI 200253Z 31006KT 10SM CLR 17/03 A3009 RMK AO2 SLP188 T01720028 55002=
201105200153 METAR KBFI 200153Z 32008KT 10SM CLR 19/01 A3008 RMK AO2 SLP186 T01890006=
201105200053 METAR KBFI 200053Z 32007KT 10SM CLR 19/M02 A3008 RMK AO2 SLP186 T01941017=
201105192353 METAR KBFI 192353Z 29009KT 10SM CLR 19/00 A3009 RMK AO2 SLP189 T01940000 10200 20144 56012=
201105192253 METAR KBFI 192253Z VRB06KT 10SM CLR 19/01 A3010 RMK AO2 SLP192 T01890006=
201105192153 METAR KBFI 192153Z 34005KT 10SM CLR 18/04 A3011 RMK AO2 SLP197 T01830044=
201105192053 METAR KBFI 192053Z 30005KT 10SM FEW050 17/04 A3013 RMK AO2 SLP201 T01720044 58008=
201105191953 METAR KBFI 191953Z VRB05KT 10SM CLR 17/06 A3014 RMK AO2 SLP205 T01670056=
201105191853 METAR KBFI 191853Z 34007KT 10SM FEW250 16/03 A3015 RMK AO2 SLP208 T01560033=
201105191753 METAR KBFI 191753Z VRB04KT 10SM SCT250 14/04 A3015 RMK AO2 SLP209 T01440044 10150 20056 57004=
201105191653 METAR KBFI 191653Z 00000KT 10SM SCT250 13/05 A3015 RMK AO2 SLP210 T01280050=
201105191553 METAR KBFI 191553Z 00000KT 10SM SCT250 12/05 A3016 RMK AO2 SLP212 T01170050=
201105191453 METAR KBFI 191453Z 00000KT 10SM FEW250 09/04 A3016 RMK AO2 SLP213 T00940044 53009=
201105191353 METAR KBFI 191353Z 00000KT 10SM SCT200 08/03 A3015 RMK AO2 SLP210 T00780033=
201105191253 METAR KBFI 191253Z 12003KT 10SM CLR 07/03 A3014 RMK AO2 SLP205 T00720028=
201105191153 METAR KBFI 191153Z 00000KT 10SM CLR 06/02 A3013 RMK AO2 SLP204 T00610017 10128 20061 53010=
201105191053 METAR KBFI 191053Z 00000KT 10SM CLR 08/02 A3013 RMK AO2 SLP201 T00830022=
201105190953 METAR KBFI 190953Z 00000KT 10SM CLR 08/02 A3011 RMK AO2 SLP195 T00830017=
201105190853 METAR KBFI 190853Z 00000KT 10SM CLR 09/01 A3010 RMK AO2 SLP194 T00940006 53013=
201105190753 METAR KBFI 190753Z 00000KT 10SM CLR 11/01 A3009 RMK AO2 SLP189 T01060011 401890072=
201105190653 METAR KBFI 190653Z 00000KT 10SM CLR 12/M01 A3007 RMK AO2 SLP184 T01171006=
201105190553 METAR KBFI 190553Z 00000KT 10SM CLR 13/01 A3007 RMK AO2 SLP181 T01280006 10189 20128 53019=
201105190453 METAR KBFI 190453Z 02003KT 10SM CLR 14/M01 A3005 RMK AO2 SLP174 T01441006=
201105190353 METAR KBFI 190353Z 35006KT 10SM CLR 16/01 A3002 RMK AO2 SLP167 T01560006=
201105190253 METAR KBFI 190253Z 34007KT 10SM CLR 17/M01 A3001 RMK AO2 SLP162 T01721011 53008=
201105190153 METAR KBFI 190153Z 31006KT 10SM CLR 18/M03 A3000 RMK AO2 SLP158 T01831028=
201105190053 METAR KBFI 190053Z 31008G14KT 290V350 10SM CLR 19/M04 A2998 RMK AO2 SLP153 T01891039=
201105182353 METAR KBFI 182353Z 32008G17KT 10SM CLR 18/M02 A2998 RMK AO2 SLP153 T01831022 10189 20150 51005=
201105182253 METAR KBFI 182253Z 30012G17KT 10SM CLR 18/00 A2998 RMK AO2 SLP152 T01780000=
201105182153 METAR KBFI 182153Z 31010G16KT 10SM FEW100 SCT250 18/M02 A2998 RMK AO2 SLP151 T01781017=
201105182053 METAR KBFI 182053Z 29010G14KT 10SM SCT250 17/02 A2997 RMK AO2 SLP148 T01720017 51003=
201105181953 METAR KBFI 181953Z 32007KT 10SM FEW070 SCT250 17/04 A2997 RMK AO2 SLP147 T01670044=
201105181853 METAR KBFI 181853Z VRB04KT 10SM FEW070 16/04 A2997 RMK AO2 SLP147 T01560044=
201105181753 METAR KBFI 181753Z VRB03KT 10SM FEW250 15/06 A2996 RMK AO2 SLP145 T01500056 10150 20072 51010=
201105181653 METAR KBFI 181653Z 08007KT 10SM CLR 13/06 A2995 RMK AO2 SLP142 T01330056=
201105181553 METAR KBFI 181553Z 00000KT 10SM CLR 13/06 A2994 RMK AO2 SLP139 T01280056=
201105181453 METAR KBFI 181453Z 04003KT 10SM CLR 11/04 A2993 RMK AO2 SLP135 T01110044 51016=
201105181353 METAR KBFI 181353Z 00000KT 10SM FEW250 09/04 A2992 RMK AO2 SLP130 T00940039=
201105181253 METAR KBFI 181253Z 00000KT 10SM CLR 08/03 A2990 RMK AO2 SLP123 T00780033=
201105181153 METAR KBFI 181153Z 00000KT 10SM CLR 08/03 A2988 RMK AO2 SLP119 T00830028 10122 20083 53016=
201105181053 METAR KBFI 181053Z 00000KT 10SM CLR 09/02 A2987 RMK AO2 SLP113 T00940022=
201105180953 METAR KBFI 180953Z 00000KT 10SM FEW110 10/02 A2985 RMK AO2 SLP107 T01000017=
201105180853 METAR KBFI 180853Z 02004KT 10SM CLR 11/01 A2984 RMK AO2 SLP103 T01110006 53015=
201105180753 METAR KBFI 180753Z 00000KT 10SM BKN150 11/01 A2982 RMK AO2 SLP098 T01060011 401720044=
201105180653 METAR KBFI 180653Z 00000KT 10SM CLR 11/02 A2980 RMK AO2 SLP091 T01110017=
201105180553 METAR KBFI 180553Z 00000KT 10SM CLR 12/M01 A2979 RMK AO2 SLP088 T01221006 10161 20122 53016=
201105180453 METAR KBFI 180453Z 01004KT 10SM CLR 12/01 A2978 RMK AO2 SLP082 T01220006=
201105180353 METAR KBFI 180353Z 35004KT 10SM CLR 13/00 A2976 RMK AO2 SLP075 T01330000=
201105180253 METAR KBFI 180253Z 32008G16KT 10SM CLR 14/02 A2974 RMK AO2 SLP072 T01390022 53007=
201105180153 METAR KBFI 180153Z 33008G17KT 10SM CLR 16/04 A2973 RMK AO2 SLP068 T01560039=
201105180053 METAR KBFI 180053Z 33010G16KT 10SM SCT250 16/04 A2973 RMK AO2 SLP067 T01610039=
201105172353 METAR KBFI 172353Z 31009G17KT 10SM CLR 16/03 A2972 RMK AO2 SLP065 T01560033 10172 20117 56011=
201105172253 METAR KBFI 172253Z 30007KT 10SM FEW030 SCT200 16/05 A2973 RMK AO2 SLP067 T01610050=
201105172153 METAR KBFI 172153Z 32008KT 10SM CLR 16/04 A2975 RMK AO2 SLP072 T01560044=
201105172053 METAR KBFI 172053Z 30005KT 10SM CLR 14/03 A2976 RMK AO2 SLP076 T01440033 56007=
201105171953 METAR KBFI 171953Z VRB06KT 10SM SCT030 SCT200 14/03 A2976 RMK AO2 SLP078 T01390033=
201105171853 METAR KBFI 171853Z 00000KT 10SM FEW025 SCT200 13/04 A2977 RMK AO2 SLP081 T01330044=
201105171753 METAR KBFI 171753Z VRB04KT 10SM SCT025 12/06 A2978 RMK AO2 SLP083 T01170056 10117 20044 56010=
201105171653 METAR KBFI 171653Z 00000KT 10SM SCT012 11/06 A2979 RMK AO2 SLP086 T01110061 $=
201105171553 METAR KBFI 171553Z 00000KT 10SM SCT012 08/06 A2980 RMK AO2 SLP090 T00780056 $=
201105171453 METAR KBFI 171453Z 00000KT 7SM SCT005 06/05 A2981 RMK AO2 SLP093 T00610050 56006 $=
201105171358 SPECI KBFI 171358Z 00000KT 3SM BR SCT003 05/05 A2982 RMK AO2 $=
201105171358 SPECI KBFI 171358Z 00000KT 3SM BR SCT003 05/05 A2982 RMK AO2 $=
201105171353 METAR KBFI 171353Z 00000KT 2SM BR BKN003 05/05 A2981 RMK AO2 SLP096 T00500050 $=
201105171346 SPECI KBFI 171346Z 00000KT 1/2SM FG OVC003 05/05 A2981 RMK AO2 $=
201105171346 SPECI KBFI 171346Z 00000KT 1/2SM FG OVC003 05/05 A2981 RMK AO2 $=
201105171313 SPECI KBFI 171313Z 00000KT 1/4SM FG BKN003 05/05 A2981 RMK AO2 $=
201105171313 SPECI KBFI 171313Z 00000KT 1/4SM FG BKN003 05/05 A2981 RMK AO2 $=
201105171307 SPECI KBFI 171307Z 00000KT 1 1/2SM BR BKN003 05/04 A2981 RMK AO2 $=
201105171307 SPECI KBFI 171307Z 00000KT 1 1/2SM BR BKN003 05/04 A2981 RMK AO2 $=
201105171301 SPECI KBFI 171301Z 00000KT 3SM BR BKN003 04/04 A2981 RMK AO2 $=
201105171301 SPECI KBFI 171301Z 00000KT 3SM BR BKN003 04/04 A2981 RMK AO2 $=
201105171253 METAR KBFI 171253Z 12003KT 7SM SCT003 04/04 A2981 RMK AO2 SLP094 T00440039 $=
201105171153 METAR KBFI 171153Z 00000KT 10SM SCT003 06/05 A2983 RMK AO2 SLP099 VSBY NW-NE 1 T00560050 10094 20050 56007 $=
201105171130 SPECI KBFI 171130Z 00000KT 10SM SCT005 06/04 A2983 RMK AO2=
201105171130 SPECI KBFI 171130Z 00000KT 10SM SCT005 06/04 A2983 RMK AO2=
201105171053 METAR KBFI 171053Z 00000KT 10SM CLR 06/04 A2983 RMK AO2 SLP102 T00560039=
201105170953 METAR KBFI 170953Z 00000KT 10SM CLR 06/04 A2984 RMK AO2 SLP103 T00560039=
201105170853 METAR KBFI 170853Z 00000KT 10SM CLR 06/04 A2985 RMK AO2 SLP107 T00560044 56013=
201105170753 METAR KBFI 170753Z 00000KT 10SM CLR 08/06 A2986 RMK AO2 SLP110 T00780061 401390072=
201105170653 METAR KBFI 170653Z 00000KT 10SM CLR 08/06 A2987 RMK AO2 SLP114 T00830056=
201105170553 METAR KBFI 170553Z 00000KT 10SM CLR 09/06 A2989 RMK AO2 SLP119 T00940061 10133 20089 58001=
201105170453 METAR KBFI 170453Z 04004KT 10SM BKN065 10/07 A2989 RMK AO2 SLP122 T01000067=
201105170353 METAR KBFI 170353Z 04006KT 10SM SCT050 BKN250 10/07 A2989 RMK AO2 SLP120 T01000067=
201105170253 METAR KBFI 170253Z VRB03KT 10SM BKN043 OVC065 12/06 A2989 RMK AO2 SLP121 T01170056 58002=
201105170153 METAR KBFI 170153Z 22008KT 10SM OVC043 12/04 A2989 RMK AO2 SLP122 T01220039=
201105170053 METAR KBFI 170053Z 21009G16KT 10SM FEW030 BKN045 OVC055 13/03 A2990 RMK AO2 SLP123 BINOVC T01280033=
201105162353 METAR KBFI 162353Z 22010G18KT 10SM OVC048 13/04 A2989 RMK AO2 SLP123 T01330039 10139 20106 53000=
201105162253 METAR KBFI 162253Z 19012G19KT 10SM OVC044 13/04 A2989 RMK AO2 SLP122 T01330044=
201105162153 METAR KBFI 162153Z 21012G21KT 10SM FEW039 SCT100 13/05 A2989 RMK AO2 SLP121 T01330050=
201105162053 METAR KBFI 162053Z 19010G19KT 10SM SCT025 SCT045 BKN080 13/05 A2989 RMK AO2 SLP122 T01330050 51004=
201105161953 METAR KBFI 161953Z 18013G23KT 10SM FEW035 BKN100 12/05 A2989 RMK AO2 SLP122 T01220050=
201105161853 METAR KBFI 161853Z 19014G24KT 10SM SCT022 BKN040 OVC060 11/06 A2989 RMK AO2 SLP121 T01110056=
201105161753 METAR KBFI 161753Z 20011G21KT 10SM BKN029 BKN034 OVC120 11/05 A2988 RMK AO2 SLP119 T01060050 10106 20089 51009=
201105161653 METAR KBFI 161653Z 19010G18KT 10SM BKN022 OVC032 10/05 A2988 RMK AO2 SLP118 T01000050=
201105161553 METAR KBFI 161553Z 19007G19KT 10SM BKN022 OVC026 09/06 A2987 RMK AO2 SLP113 T00940056=
201105161453 METAR KBFI 161453Z 18008G17KT 10SM BKN022 OVC026 09/06 A2986 RMK AO2 SLP109 T00940056 53012=
201105161353 METAR KBFI 161353Z 19006G15KT 10SM BKN023 OVC070 09/06 A2984 RMK AO2 SLP105 T00890056=
201105161253 METAR KBFI 161253Z 18006G15KT 10SM SCT023 OVC065 09/06 A2983 RMK AO2 SLP100 T00890056=
201105161218 SPECI KBFI 161218Z 18010G17KT 140V210 10SM SCT021 OVC060 09/06 A2982 RMK AO2=
201105161218 SPECI KBFI 161218Z 18010G17KT 140V210 10SM SCT021 OVC060 09/06 A2982 RMK AO2=
201105161153 METAR KBFI 161153Z 19009KT 10SM BKN023 BKN036 OVC060 09/06 A2982 RMK AO2 SLP098 70046 T00940056 10100 20089 51006=
201105161151 SPECI KBFI 161151Z 17008KT 10SM BKN023 BKN036 OVC060 09/06 A2982 RMK AO2=
201105161151 SPECI KBFI 161151Z 17008KT 10SM BKN023 BKN036 OVC060 09/06 A2982 RMK AO2=
201105161053 METAR KBFI 161053Z 17009KT 10SM OVC048 09/06 A2981 RMK AO2 SLP094 T00940056=
201105160953 METAR KBFI 160953Z 16008KT 10SM SCT050 BKN090 09/05 A2980 RMK AO2 SLP092 T00940050=
201105160853 METAR KBFI 160853Z 17007KT 10SM OVC075 09/05 A2979 RMK AO2 SLP089 T00940050 50002=
201105160753 METAR KBFI 160753Z 19008KT 10SM OVC070 09/05 A2980 RMK AO2 SLP089 T00940050 401170094=
201105160653 METAR KBFI 160653Z 19005KT 10SM OVC060 10/05 A2980 RMK AO2 SLP089 T01000050=
201105160553 METAR KBFI 160553Z 18008KT 140V210 10SM BKN050 OVC090 10/06 A2979 RMK AO2 SLP087 T01000061 10111 20100 53014=
201105160453 METAR KBFI 160453Z 19007KT 10SM FEW025 SCT045 OVC085 10/07 A2978 RMK AO2 SLP085 T01000067=
201105160353 METAR KBFI 160353Z 18008G14KT 10SM BKN026 BKN070 10/06 A2975 RMK AO2 SLP073 T01000061=
201105160253 METAR KBFI 160253Z 17011G17KT 10SM SCT030 BKN060 11/06 A2975 RMK AO2 PRESRR SLP073 T01060061 51010=
201105160153 METAR KBFI 160153Z 17009G15KT 10SM FEW023 BKN041 OVC080 11/07 A2974 RMK AO2 SLP070 T01060072=
201105160151 SPECI KBFI 160151Z 17010G15KT 10SM FEW020 BKN041 OVC080 11/07 A2974 RMK AO2=
201105160151 SPECI KBFI 160151Z 17010G15KT 10SM FEW020 BKN041 OVC080 11/07 A2974 RMK AO2=
201105160053 METAR KBFI 160053Z 17011G18KT 10SM SCT015 BKN022 OVC060 11/07 A2972 RMK AO2 SLP063 T01110072=
201105152353 METAR KBFI 152353Z 17013G22KT 10SM FEW019 BKN026 OVC065 11/07 A2971 RMK AO2 RAE2259 PRESRR SLP061 P0000 60010 T01060072 10117 20100 51016=
201105152350 SPECI KBFI 152350Z 17011G19KT 10SM FEW019 BKN026 OVC065 11/07 A2971 RMK AO2 RAE2259 P0000=
201105152350 SPECI KBFI 152350Z 17011G19KT 10SM FEW019 BKN026 OVC065 11/07 A2971 RMK AO2 RAE2259 P0000=
201105152253 METAR KBFI 152253Z 19010G17KT 8SM -RA FEW018 SCT026 BKN036 11/08 A2968 RMK AO2 RAE14B45 SLP050 P0000 T01060083=
201105152210 SPECI KBFI 152210Z 19012G16KT 10SM -RA FEW023 BKN043 11/08 A2967 RMK AO2 P0000=
201105152210 SPECI KBFI 152210Z 19012G16KT 10SM -RA FEW023 BKN043 11/08 A2967 RMK AO2 P0000=
201105152153 METAR KBFI 152153Z 19011G18KT 10SM -RA SCT014 BKN023 OVC039 11/08 A2966 RMK AO2 SLP045 P0001 T01060083=
201105152053 METAR KBFI 152053Z 19009KT 10SM -RA SCT010 BKN017 OVC050 11/09 A2963 RMK AO2 SLP032 P0002 60009 T01060089 53016=
201105152034 SPECI KBFI 152034Z 20009G16KT 10SM -RA FEW017 OVC055 11/09 A2962 RMK AO2 P0001=
201105152034 SPECI KBFI 152034Z 20009G16KT 10SM -RA FEW017 OVC055 11/09 A2962 RMK AO2 P0001=
201105151953 METAR KBFI 151953Z 19003KT 10SM -RA OVC015 11/09 A2960 RMK AO2 SLP023 P0003 T01060094=
201105151926 SPECI KBFI 151926Z 19009KT 10SM -RA OVC017 11/09 A2959 RMK AO2 P0001=
201105151926 SPECI KBFI 151926Z 19009KT 10SM -RA OVC017 11/09 A2959 RMK AO2 P0001=
201105151853 METAR KBFI 151853Z 18008KT 140V200 9SM -RA OVC011 10/09 A2958 RMK AO2 SLP017 P0004 T01000089=
201105151816 SPECI KBFI 151816Z 18008KT 6SM -RA BR BKN011 OVC016 10/09 A2958 RMK AO2 P0002=
201105151816 SPECI KBFI 151816Z 18008KT 6SM -RA BR BKN011 OVC016 10/09 A2958 RMK AO2 P0002=
201105151759 SPECI KBFI 151759Z 14008KT 5SM -RA BR SCT009 OVC015 10/09 A2958 RMK AO2 P0001=
201105151759 SPECI KBFI 151759Z 14008KT 5SM -RA BR SCT009 OVC015 10/09 A2958 RMK AO2 P0001=
201105151753 METAR KBFI 151753Z 16009KT 6SM -RA BR SCT010 OVC015 10/09 A2958 RMK AO2 SLP016 P0005 60036 T01000089 10111 20100 53003=
201105151653 METAR KBFI 151653Z 17006KT 8SM -RA FEW008 OVC017 10/09 A2957 RMK AO2 SLP011 P0006 T01000089=
201105151553 METAR KBFI 151553Z 18004KT 6SM -RA BR FEW007 BKN016 OVC022 11/09 A2957 RMK AO2 SLP012 P0009 T01060094=
201105151550 SPECI KBFI 151550Z 21004KT 6SM -RA BR SCT007 BKN016 OVC022 11/09 A2957 RMK AO2 P0009=
201105151550 SPECI KBFI 151550Z 21004KT 6SM -RA BR SCT007 BKN016 OVC022 11/09 A2957 RMK AO2 P0009=
201105151453 METAR KBFI 151453Z 19003KT 4SM -RA BR FEW007 OVC012 11/10 A2956 RMK AO2 SLP010 P0005 60016 T01060100 56009=
201105151436 SPECI KBFI 151436Z 19003KT 4SM -RA BR SCT007 OVC012 11/10 A2956 RMK AO2 P0004=
201105151436 SPECI KBFI 151436Z 19003KT 4SM -RA BR SCT007 OVC012 11/10 A2956 RMK AO2 P0004=
201105151410 SPECI KBFI 151410Z 21003KT 3SM -RA BR BKN007 OVC012 11/11 A2956 RMK AO2 CIG 005V008 P0002=
201105151410 SPECI KBFI 151410Z 21003KT 3SM -RA BR BKN007 OVC012 11/11 A2956 RMK AO2 CIG 005V008 P0002=
201105151403 SPECI KBFI 151403Z 00000KT 3SM -RA BR SCT009 OVC014 11/10 A2956 RMK AO2 P0001=
201105151403 SPECI KBFI 151403Z 00000KT 3SM -RA BR SCT009 OVC014 11/10 A2956 RMK AO2 P0001=
201105151353 METAR KBFI 151353Z 00000KT 4SM -RA BR BKN014 OVC019 11/11 A2956 RMK AO2 SLP011 P0004 T01110106=
201105151329 SPECI KBFI 151329Z 00000KT 4SM -RA BR SCT009 BKN015 OVC020 11/10 A2956 RMK AO2 P0003=
201105151329 SPECI KBFI 151329Z 00000KT 4SM -RA BR SCT009 BKN015 OVC020 11/10 A2956 RMK AO2 P0003=
201105151253 METAR KBFI 151253Z 00000KT 5SM -RA BR BKN007 OVC010 11/10 A2957 RMK AO2 CIG 005V009 SLP013 P0007 T01060100=
201105151202 SPECI KBFI 151202Z 00000KT 5SM -RA BR BKN007 OVC014 11/10 A2958 RMK AO2 P0001=
201105151202 SPECI KBFI 151202Z 00000KT 5SM -RA BR BKN007 OVC014 11/10 A2958 RMK AO2 P0001=
201105151153 METAR KBFI 151153Z 00000KT 5SM -RA BR SCT005 OVC016 11/10 A2959 RMK AO2 SLP019 P0006 60044 70096 T01060100 10111 20106 58024=
201105151109 SPECI KBFI 151109Z 00000KT 5SM -RA BR SCT007 OVC014 11/10 A2961 RMK AO2 P0002=
201105151109 SPECI KBFI 151109Z 00000KT 5SM -RA BR SCT007 OVC014 11/10 A2961 RMK AO2 P0002=
201105151053 METAR KBFI 151053Z 00000KT 7SM -RA OVC014 11/10 A2961 RMK AO2 SLP028 P0003 T01110100=
201105150953 METAR KBFI 150953Z 00000KT 8SM -RA FEW006 OVC014 11/10 A2963 RMK AO2 SLP035 P0002 T01110100=
201105150853 METAR KBFI 150853Z 00000KT 9SM -RA SCT006 OVC014 11/10 A2966 RMK AO2 SLP042 P0006 60033 T01110100 56024=
201105150753 METAR KBFI 150753Z 00000KT 5SM RA BR BKN006 BKN021 OVC038 11/10 A2968 RMK AO2 SLP050 P0010 T01060100 401830100 TSNO=
201105150653 METAR KBFI 150653Z 00000KT 3SM -RA BR BKN006 OVC032 11/10 A2970 RMK AO2 SLP058 P0017 T01110100=
201105150612 SPECI KBFI 150612Z 00000KT 3SM RA BR BKN006 OVC032 11/10 A2972 RMK AO2 P0006=
201105150612 SPECI KBFI 150612Z 00000KT 3SM RA BR BKN006 OVC032 11/10 A2972 RMK AO2 P0006=
201105150553 METAR KBFI 150553Z 00000KT 4SM RA BR SCT006 OVC032 11/10 A2973 RMK AO2 SLP067 P0011 60052 T01110100 10172 20111 56001=
201105150516 SPECI KBFI 150516Z 12003KT 5SM RA BR SCT006 OVC032 11/10 A2974 RMK AO2 P0004=
201105150516 SPECI KBFI 150516Z 12003KT 5SM RA BR SCT006 OVC032 11/10 A2974 RMK AO2 P0004=
201105150453 METAR KBFI 150453Z 10003KT 5SM RA BR BKN026 OVC034 11/10 A2973 RMK AO2 SLP069 P0015 T01110100=
201105150353 METAR KBFI 150353Z 00000KT 3SM RA BR BKN037 OVC055 11/09 A2972 RMK AO2 SLP065 P0016 T01110094=
201105150253 METAR KBFI 150253Z 00000KT 3SM RA FEW035 BKN055 OVC075 12/09 A2973 RMK AO2 SLP068 P0010 60010 T01220089 53014=
201105150153 METAR KBFI 150153Z 30005KT 10SM -RA BKN050 OVC075 14/07 A2971 RMK AO2 RAB48 SLP059 P0000 T01390072=
201105150053 METAR KBFI 150053Z 31007KT 10SM BKN075 BKN100 16/06 A2968 RMK AO2 SLP050 T01560061=
201105142353 METAR KBFI 142353Z 29009G15KT 10SM FEW090 17/07 A2969 RMK AO2 SLP054 T01720067 10183 20150 58015=
201105142253 METAR KBFI 142253Z 32008G14KT 10SM CLR 17/06 A2971 RMK AO2 SLP060 T01670061=
201105142153 METAR KBFI 142153Z 30009G16KT 10SM SCT120 BKN200 17/07 A2973 RMK AO2 SLP066 T01720072=
201105142053 METAR KBFI 142053Z 32010G16KT 10SM SCT200 17/07 A2973 RMK AO2 SLP069 T01670072 58019=
201105141953 METAR KBFI 141953Z 31010G17KT 10SM CLR 16/06 A2975 RMK AO2 SLP074 T01610061=
201105141853 METAR KBFI 141853Z 30008KT 10SM CLR 16/06 A2978 RMK AO2 SLP082 T01610061=
201105141753 METAR KBFI 141753Z 31008KT 10SM FEW050 SCT120 BKN200 15/04 A2979 RMK AO2 SLP087 T01500044 10156 20100 58012=
201105141653 METAR KBFI 141653Z 34007KT 10SM SCT065 14/06 A2981 RMK AO2 SLP094 T01440056=
201105141553 METAR KBFI 141553Z VRB03KT 10SM CLR 13/06 A2983 RMK AO2 SLP100 T01280056=
201105141453 METAR KBFI 141453Z 36003KT 10SM BKN080 12/06 A2983 RMK AO2 SLP100 T01220056 57006=
201105141353 METAR KBFI 141353Z 00000KT 10SM FEW075 11/07 A2984 RMK AO2 SLP103 T01060067=
201105141253 METAR KBFI 141253Z 00000KT 10SM FEW075 SCT120 OVC250 11/05 A2984 RMK AO2 SLP103 T01060050=
201105141153 METAR KBFI 141153Z 00000KT 10SM SCT075 BKN120 12/05 A2985 RMK AO2 SLP106 T01170050 10133 20117 58011=
201105141053 METAR KBFI 141053Z 00000KT 10SM BKN075 12/05 A2987 RMK AO2 SLP114 T01170050=
201105140953 METAR KBFI 140953Z 00000KT 10SM FEW110 12/04 A2989 RMK AO2 SLP121 T01220044=
201105140853 METAR KBFI 140853Z 02003KT 10SM BKN110 13/04 A2988 RMK AO2 SLP117 T01280039 56007=
201105140753 METAR KBFI 140753Z 03005KT 10SM FEW100 13/04 A2988 RMK AO2 SLP119 T01280039 401670056=
201105140653 METAR KBFI 140653Z 00000KT 10SM FEW120 13/04 A2989 RMK AO2 SLP121 T01330044=
201105140553 METAR KBFI 140553Z 02004KT 10SM FEW120 13/04 A2990 RMK AO2 SLP123 T01330044 10156 20133 58007=
201105140453 METAR KBFI 140453Z 00000KT 10SM CLR 14/04 A2992 RMK AO2 SLP131 T01390039=
201105140353 METAR KBFI 140353Z 00000KT 10SM OVC250 14/04 A2992 RMK AO2 SLP133 T01440044=
201105140253 METAR KBFI 140253Z 00000KT 10SM CLR 14/04 A2992 RMK AO2 SLP131 T01440044 56008=
201105140153 METAR KBFI 140153Z 35005KT 10SM CLR 15/04 A2993 RMK AO2 SLP134 T01500044=
201105140053 METAR KBFI 140053Z 33008KT 300V360 10SM BKN120 16/04 A2993 RMK AO2 SLP134 T01560044=
201105132353 METAR KBFI 132353Z 32009G14KT 10SM BKN120 15/04 A2994 RMK AO2 SLP139 T01500044 10167 20133 56026=
201105132253 METAR KBFI 132253Z 31009KT 10SM CLR 16/04 A2997 RMK AO2 SLP147 T01560044=
201105132153 METAR KBFI 132153Z 33012G19KT 10SM CLR 16/05 A2999 RMK AO2 SLP154 T01610050=
201105132053 METAR KBFI 132053Z 31010G17KT 10SM CLR 16/06 A3002 RMK AO2 SLP165 T01560056 56039=
201105131953 METAR KBFI 131953Z 30010G16KT 10SM CLR 16/05 A3005 RMK AO2 SLP175 T01560050=
201105131853 METAR KBFI 131853Z 30008KT 10SM CLR 14/06 A3009 RMK AO2 SLP189 T01440056=
201105131753 METAR KBFI 131753Z AUTO 33007KT 290V020 10SM CLR 14/05 A3014 RMK AO2 SLP204 T01390050 10139 20056 58035 TSNO=
201105131653 METAR KBFI 131653Z AUTO VRB05KT 10SM BKN250 12/03 A3018 RMK AO2 SLP219 T01220033 TSNO=
201105131553 METAR KBFI 131553Z 34005KT 10SM CLR 11/04 A3022 RMK AO2 SLP231 T01060044=
201105131453 METAR KBFI 131453Z 02003KT 10SM CLR 09/05 A3024 RMK AO2 SLP239 T00890050 58011=
201105131353 METAR KBFI 131353Z 00000KT 10SM OVC200 07/05 A3025 RMK AO2 SLP244 T00670050=
201105131253 METAR KBFI 131253Z 00000KT 10SM SCT200 06/04 A3026 RMK AO2 SLP246 T00610044=
201105131153 METAR KBFI 131153Z 00000KT 10SM CLR 07/04 A3027 RMK AO2 SLP250 T00670044 10100 20061 58010=
201105131053 METAR KBFI 131053Z 00000KT 10SM CLR 06/03 A3029 RMK AO2 SLP256 T00610033=
201105130953 METAR KBFI 130953Z 14004KT 10SM CLR 07/04 A3029 RMK AO2 SLP258 T00720044=
201105130853 METAR KBFI 130853Z 00000KT 10SM CLR 07/04 A3030 RMK AO2 SLP259 T00720039 56005=
201105130753 METAR KBFI 130753Z 00000KT 10SM CLR 08/04 A3030 RMK AO2 SLP260 T00830044 401560039=
201105130653 METAR KBFI 130653Z 00000KT 10SM CLR 10/04 A3031 RMK AO2 SLP262 T01000039=
201105130553 METAR KBFI 130553Z 00000KT 10SM CLR 09/04 A3031 RMK AO2 SLP265 T00940044 10156 20089 51014=
201105130453 METAR KBFI 130453Z 00000KT 10SM CLR 11/04 A3031 RMK AO2 SLP264 T01060039=
201105130353 METAR KBFI 130353Z 00000KT 10SM CLR 11/03 A3030 RMK AO2 SLP258 T01110033=
201105130253 METAR KBFI 130253Z 28005KT 10SM FEW110 12/03 A3027 RMK AO2 SLP251 T01220033 53018=
201105130153 METAR KBFI 130153Z 27007KT 10SM SCT050 SCT200 14/04 A3025 RMK AO2 SLP243 T01390039=
201105130053 METAR KBFI 130053Z 27007G18KT 10SM CLR 14/04 A3023 RMK AO2 SLP237 T01440044=
201105122353 METAR KBFI 122353Z 19008KT 10SM CLR 15/02 A3022 RMK AO2 SLP233 T01500017 10156 20111 55001=
201105122253 METAR KBFI 122253Z 18005KT 10SM SCT050 15/02 A3022 RMK AO2 SLP231 T01500017=
201105122153 METAR KBFI 122153Z VRB06KT 10SM SCT055 14/03 A3022 RMK AO2 SLP233 T01440028=
201105122053 METAR KBFI 122053Z 21008KT 10SM SCT070 14/03 A3022 RMK AO2 SLP234 T01390033 55000=
201105121953 METAR KBFI 121953Z 20005KT 10SM SCT070 12/01 A3022 RMK AO2 SLP234 T01220011=
201105121853 METAR KBFI 121853Z VRB04KT 10SM SCT042 12/03 A3022 RMK AO2 SLP234 T01220028=
201105121753 METAR KBFI 121753Z 21006KT 10SM FEW025 SCT050 12/04 A3023 RMK AO2 SLP235 60000 T01170044 10117 20044 53008=
201105121653 METAR KBFI 121653Z 21006KT 10SM BKN035 11/03 A3022 RMK AO2 SLP231 T01060033=
201105121553 METAR KBFI 121553Z 14007KT 10SM FEW060 09/04 A3021 RMK AO2 RAB04E16 SLP228 P0000 T00940039=
201105121453 METAR KBFI 121453Z 14008KT 10SM OVC060 07/04 A3020 RMK AO2 SLP226 T00720044 53014=
201105121353 METAR KBFI 121353Z 15004KT 10SM BKN055 06/04 A3019 RMK AO2 SLP222 T00560044=
201105121253 METAR KBFI 121253Z 12003KT 10SM BKN050 05/03 A3017 RMK AO2 SLP217 T00500033=
201105121153 METAR KBFI 121153Z 13007KT 10SM BKN048 05/04 A3016 RMK AO2 SLP213 70048 T00500044 10072 20039 51016=
201105121053 METAR KBFI 121053Z 00000KT 10SM SCT050 06/04 A3015 RMK AO2 SLP210 T00560039=
201105120953 METAR KBFI 120953Z 13005KT 10SM FEW080 05/04 A3013 RMK AO2 SLP203 T00500039=
201105120853 METAR KBFI 120853Z 13007KT 10SM CLR 06/04 A3011 RMK AO2 SLP197 T00560044 53016=
201105120753 METAR KBFI 120753Z 16008KT 10SM CLR 06/05 A3010 RMK AO2 SLP193 T00610050 401170056=
201105120653 METAR KBFI 120653Z 16006KT 10SM FEW020 07/05 A3008 RMK AO2 SLP185 T00670050=
201105120553 METAR KBFI 120553Z 16006KT 10SM FEW024 BKN065 07/05 A3007 RMK AO2 SLP181 60011 T00720050 10094 20072 53022=
201105120453 METAR KBFI 120453Z 16006KT 10SM FEW012 OVC033 08/06 A3004 RMK AO2 SLP173 T00780061=
201105120353 METAR KBFI 120353Z 17007KT 10SM FEW012 OVC033 08/06 A3002 RMK AO2 SLP163 T00830061=
201105120253 METAR KBFI 120253Z 16009KT 10SM FEW012 OVC033 08/07 A3000 RMK AO2 RAE31 SLP159 P0003 60011 T00830072 51024=
201105120153 METAR KBFI 120153Z 16012G23KT 6SM -RA BR SCT016 OVC047 08/07 A2999 RMK AO2 SLP154 P0003 T00830067=
201105120053 METAR KBFI 120053Z 18007KT 10SM -RA FEW033 OVC042 09/07 A2996 RMK AO2 SLP146 P0005 T00890067=
201105112353 METAR KBFI 112353Z 21007KT 6SM -RA BR FEW016 BKN029 OVC050 09/07 A2993 RMK AO2 SLP135 P0011 60034 T00940072 10111 20094 53025=
201105112253 METAR KBFI 112253Z 17007G21KT 4SM RA BR BKN029 OVC050 11/09 A2989 RMK AO2 SLP120 P0015 T01060089=
201105112153 METAR KBFI 112153Z 21007KT 170V230 5SM -RA BR SCT016 BKN029 OVC055 11/08 A2987 RMK AO2 RAB2057 SLP114 P0005 T01060083=
201105112128 SPECI KBFI 112128Z 22009G15KT 5SM -RA BR SCT016 BKN029 OVC055 11/09 A2986 RMK AO2 RAB2057 P0003=
201105112128 SPECI KBFI 112128Z 22009G15KT 5SM -RA BR SCT016 BKN029 OVC055 11/09 A2986 RMK AO2 RAB2057 P0003=
201105112053 METAR KBFI 112053Z 16007KT 10SM FEW014 OVC065 11/08 A2986 RMK AO2 RAB1954E41 SLP110 P0000 60003 T01110083 50005=
201105111953 METAR KBFI 111953Z 17007KT 10SM FEW020 SCT037 OVC070 11/08 A2986 RMK AO2 RAE16B33E51 SLP111 P0001 T01060083=
201105111853 METAR KBFI 111853Z 16008KT 10SM -RA SCT021 OVC060 11/08 A2985 RMK AO2 RAB1756 SLP108 P0002 T01060078=
201105111753 METAR KBFI 111753Z 17006KT 10SM SCT012 OVC021 11/07 A2984 RMK AO2 SLP105 60003 T01110072 10111 20089 56009=
201105111653 METAR KBFI 111653Z 14004KT 10SM SCT012 OVC021 10/08 A2984 RMK AO2 SLP105 T01000078=
201105111553 METAR KBFI 111553Z 00000KT 10SM SCT012 OVC021 09/08 A2986 RMK AO2 RAE36 SLP111 P0000 T00940078=
201105111453 METAR KBFI 111453Z 14006KT 10SM -RA SCT023 BKN029 OVC060 09/07 A2987 RMK AO2 SLP115 P0001 60003 T00890072 53001=
201105111449 SPECI KBFI 111449Z 14004KT 10SM SCT023 BKN029 OVC060 09/07 A2987 RMK AO2 RAE45 P0001=
201105111449 SPECI KBFI 111449Z 14004KT 10SM SCT023 BKN029 OVC060 09/07 A2987 RMK AO2 RAE45 P0001=
201105111439 SPECI KBFI 111439Z 15005KT 10SM -RA FEW023 BKN049 OVC060 09/07 A2987 RMK AO2 P0001=
201105111439 SPECI KBFI 111439Z 15005KT 10SM -RA FEW023 BKN049 OVC060 09/07 A2987 RMK AO2 P0001=
201105111353 METAR KBFI 111353Z 13007KT 9SM -RA SCT022 OVC028 09/07 A2987 RMK AO2 SLP113 P0001 T00890072=
201105111253 METAR KBFI 111253Z 14006KT 10SM -RA OVC028 09/08 A2987 RMK AO2 SLP114 P0001 T00940078=
201105111236 SPECI KBFI 111236Z 13005KT 10SM -RA BKN028 OVC044 09/08 A2987 RMK AO2 P0000=
201105111236 SPECI KBFI 111236Z 13005KT 10SM -RA BKN028 OVC044 09/08 A2987 RMK AO2 P0000=
201105111153 METAR KBFI 111153Z 15004KT 10SM -RA SCT045 BKN060 OVC080 09/07 A2987 RMK AO2 SLP113 P0002 60004 70004 T00940072 10128 20094 56007=
201105111053 METAR KBFI 111053Z 16005KT 10SM -RA FEW046 OVC075 09/07 A2987 RMK AO2 SLP115 P0001 T00940072=
201105110953 METAR KBFI 110953Z 17005KT 10SM -RA OVC080 10/08 A2988 RMK AO2 RAB21 SLP117 P0001 T01000078=
201105110853 METAR KBFI 110853Z 15006KT 10SM BKN085 OVC110 11/07 A2989 RMK AO2 RAB07E26 SLP120 P0000 60000 T01110072 56004=
201105110753 METAR KBFI 110753Z 19004KT 10SM OVC100 12/07 A2989 RMK AO2 SLP121 T01170067 401610083=
201105110653 METAR KBFI 110653Z 16004KT 10SM SCT100 12/07 A2989 RMK AO2 SLP122 T01170067=
201105110553 METAR KBFI 110553Z 21003KT 10SM SCT150 12/07 A2990 RMK AO2 SLP124 T01220067 10161 20122 56005=
201105110453 METAR KBFI 110453Z 16003KT 10SM FEW100 13/06 A2991 RMK AO2 SLP126 T01280061=
201105110353 METAR KBFI 110353Z 10003KT 10SM SCT100 15/06 A2990 RMK AO2 SLP126 T01500061=
201105110253 METAR KBFI 110253Z 16005KT 10SM CLR 14/07 A2991 RMK AO2 SLP129 T01390067 56019=
201105110153 METAR KBFI 110153Z 15005KT 10SM CLR 15/07 A2993 RMK AO2 SLP135 T01500067=
201105110053 METAR KBFI 110053Z 22005KT 10SM FEW250 16/06 A2995 RMK AO2 SLP141 T01560056=
201105102353 METAR KBFI 102353Z 00000KT 10SM CLR 15/06 A2997 RMK AO2 SLP148 T01500061 10150 20100 58029=
201105102253 METAR KBFI 102253Z AUTO 18007KT 10SM CLR 14/07 A3000 RMK AO2 SLP158 T01390067 TSNO=
201105102153 METAR KBFI 102153Z 00000KT 10SM SCT030 13/07 A3003 RMK AO2 SLP168 T01330067=
201105102144 SPECI KBFI 102144Z 20003KT 10SM SCT028 13/07 A3003 RMK AO2=
201105102144 SPECI KBFI 102144Z 20003KT 10SM SCT028 13/07 A3003 RMK AO2=
201105102053 METAR KBFI 102053Z 19006KT 10SM BKN026 12/07 A3005 RMK AO2 SLP177 T01220067 58019=
201105101953 METAR KBFI 101953Z VRB05KT 10SM BKN024 12/07 A3007 RMK AO2 SLP183 T01170067=
201105101853 METAR KBFI 101853Z VRB04KT 10SM OVC020 11/07 A3010 RMK AO2 SLP191 T01110067=
201105101753 METAR KBFI 101753Z 17003KT 10SM OVC018 10/06 A3011 RMK AO2 SLP196 T01000061 10106 20083 58005=
201105101653 METAR KBFI 101653Z 18006KT 10SM OVC018 10/06 A3012 RMK AO2 SLP198 T01000061=
201105101553 METAR KBFI 101553Z 20005KT 10SM OVC017 09/06 A3013 RMK AO2 SLP201 T00940061=
201105101453 METAR KBFI 101453Z 21004KT 10SM OVC015 09/06 A3013 RMK AO2 SLP201 T00890061 58006=
201105101442 SPECI KBFI 101442Z 19004KT 10SM OVC015 09/06 A3013 RMK AO2=
201105101442 SPECI KBFI 101442Z 19004KT 10SM OVC015 09/06 A3013 RMK AO2=
201105101353 METAR KBFI 101353Z 00000KT 10SM OVC013 09/07 A3014 RMK AO2 SLP205 T00890067=
201105101253 METAR KBFI 101253Z 20003KT 10SM OVC013 09/06 A3015 RMK AO2 SLP208 T00890061=
201105101153 METAR KBFI 101153Z 00000KT 10SM OVC013 09/07 A3014 RMK AO2 SLP207 T00890067 10122 20089 55000=
201105101053 METAR KBFI 101053Z 00000KT 10SM OVC017 10/07 A3015 RMK AO2 SLP207 T01000067=
201105100953 METAR KBFI 100953Z 00000KT 10SM OVC019 10/07 A3014 RMK AO2 SLP207 T01000072=
201105100853 METAR KBFI 100853Z 36003KT 10SM BKN025 OVC032 10/07 A3014 RMK AO2 SLP207 T01000067 53003=
201105100753 METAR KBFI 100753Z 00000KT 10SM SCT027 10/07 A3014 RMK AO2 SLP206 T01000072 401440100=
201105100653 METAR KBFI 100653Z 00000KT 10SM BKN035 BKN046 12/08 A3014 RMK AO2 SLP204 T01170078=
201105100553 METAR KBFI 100553Z 00000KT 10SM OVC048 12/08 A3013 RMK AO2 SLP204 T01220078 10144 20122 50001=
201105100453 METAR KBFI 100453Z 00000KT 10SM BKN048 OVC070 13/07 A3014 RMK AO2 SLP205 T01280067=
201105100353 METAR KBFI 100353Z 32004KT 10SM OVC046 13/07 A3013 RMK AO2 SLP203 T01330067=
201105100253 METAR KBFI 100253Z 35003KT 10SM OVC048 14/06 A3013 RMK AO2 SLP203 T01390061 57003=
201105100153 METAR KBFI 100153Z AUTO 00000KT 10SM OVC048 14/06 A3014 RMK AO2 SLP204 T01390061 TSNO=
201105100053 METAR KBFI 100053Z 33004KT 10SM OVC050 14/06 A3014 RMK AO2 SLP205 T01390061=
201105092353 METAR KBFI 092353Z 33003KT 10SM SCT034 OVC050 14/06 A3014 RMK AO2 SLP206 60000 T01440061 10144 20106 50001=
201105092253 METAR KBFI 092253Z 27003KT 10SM BKN032 OVC050 14/07 A3014 RMK AO2 SLP207 T01390067=
201105092153 METAR KBFI 092153Z VRB03KT 10SM BKN032 OVC050 14/07 A3014 RMK AO2 SLP207 T01390072=
201105092053 METAR KBFI 092053Z 00000KT 10SM SCT030 OVC055 13/07 A3014 RMK AO2 SLP205 60000 T01330067 50001=
201105092009 SPECI KBFI 092009Z 00000KT 10SM SCT026 OVC055 13/07 A3014 RMK AO2=
201105092009 SPECI KBFI 092009Z 00000KT 10SM SCT026 OVC055 13/07 A3014 RMK AO2=
201105091953 METAR KBFI 091953Z 21005KT 10SM BKN026 OVC055 12/07 A3014 RMK AO2 SLP206 T01220072=
201105091853 METAR KBFI 091853Z 00000KT 10SM BKN021 OVC031 12/07 A3014 RMK AO2 RAB1759E15 SLP206 P0000 T01170072=
201105091753 METAR KBFI 091753Z 25003KT 10SM BKN017 OVC023 11/08 A3014 RMK AO2 SLP204 T01060078 10111 20100 52005=
201105091653 METAR KBFI 091653Z VRB04KT 10SM SCT013 BKN020 OVC027 11/07 A3013 RMK AO2 SLP202 T01110067=
201105091553 METAR KBFI 091553Z 00000KT 10SM BKN023 OVC031 11/07 A3013 RMK AO2 SLP201 T01060067=
201105091453 METAR KBFI 091453Z 05003KT 10SM BKN021 OVC055 11/06 A3012 RMK AO2 SLP199 T01060061 51014=
201105091353 METAR KBFI 091353Z 00000KT 10SM SCT021 OVC060 10/06 A3011 RMK AO2 SLP194 T01000061=
201105091253 METAR KBFI 091253Z 00000KT 10SM SCT043 OVC060 10/06 A3009 RMK AO2 SLP190 T01000061=
201105091153 METAR KBFI 091153Z 07003KT 10SM OVC041 10/06 A3008 RMK AO2 SLP185 70017 T01000061 10111 20100 51011=
201105091053 METAR KBFI 091053Z 08004KT 10SM OVC043 10/07 A3007 RMK AO2 SLP181 T01000067=
201105090953 METAR KBFI 090953Z 09004KT 10SM BKN043 OVC060 10/06 A3006 RMK AO2 SLP178 T01000061=
201105090853 METAR KBFI 090853Z 07005KT 10SM OVC045 11/06 A3005 RMK AO2 SLP173 T01060061 51010=
201105090753 METAR KBFI 090753Z 08005KT 10SM SCT028 BKN050 OVC060 11/06 A3004 RMK AO2 SLP172 T01060056 401440072=
201105090734 SPECI KBFI 090734Z 00000KT 10SM BKN028 OVC060 11/06 A3004 RMK AO2=
201105090734 SPECI KBFI 090734Z 00000KT 10SM BKN028 OVC060 11/06 A3004 RMK AO2=
201105090653 METAR KBFI 090653Z 00000KT 10SM OVC060 11/06 A3003 RMK AO2 SLP167 T01110061=
201105090553 METAR KBFI 090553Z 04004KT 10SM OVC065 11/06 A3001 RMK AO2 SLP163 60000 T01110061 10139 20111 51012=
201105090453 METAR KBFI 090453Z 00000KT 10SM OVC065 12/05 A3001 RMK AO2 RAB35E47 SLP161 P0000 T01170050=
201105090353 METAR KBFI 090353Z 35004KT 10SM OVC070 12/04 A2999 RMK AO2 SLP157 T01170039=
201105090253 METAR KBFI 090253Z 32005KT 10SM SCT055 BKN070 12/03 A2998 RMK AO2 SLP151 T01170033 53013=
201105090153 METAR KBFI 090153Z 32005KT 10SM BKN065 BKN095 12/04 A2996 RMK AO2 SLP146 T01220039=
201105090053 METAR KBFI 090053Z 33006KT 10SM FEW060 BKN090 OVC200 13/03 A2995 RMK AO2 SLP142 T01330028=
201105082353 METAR KBFI 082353Z 29006KT 10SM SCT050 BKN110 13/03 A2994 RMK AO2 SLP138 T01330033 10144 20089 51005=
201105082253 METAR KBFI 082253Z 31009KT 270V330 10SM SCT060 BKN120 OVC250 14/03 A2994 RMK AO2 SLP137 T01390033=
201105082153 METAR KBFI 082153Z 32007KT 10SM SCT025 BKN120 13/03 A2994 RMK AO2 SLP137 T01330033=
201105082053 METAR KBFI 082053Z VRB03KT 10SM CLR 13/03 A2993 RMK AO2 SLP134 T01280033 50000=
201105081953 METAR KBFI 081953Z VRB03KT 10SM FEW033 12/05 A2993 RMK AO2 SLP133 T01170050=
201105081853 METAR KBFI 081853Z 29003KT 10SM BKN032 11/06 A2993 RMK AO2 SLP135 T01060056=
201105081812 SPECI KBFI 081812Z 30004KT 10SM FEW019 OVC032 09/06 A2993 RMK AO2=
201105081812 SPECI KBFI 081812Z 30004KT 10SM FEW019 OVC032 09/06 A2993 RMK AO2=
201105081753 METAR KBFI 081753Z 30003KT 10SM SCT019 BKN025 OVC029 09/06 A2993 RMK AO2 RAB40E51 SLP134 P0000 60017 T00890056 10100 20072 53006=
201105081653 METAR KBFI 081653Z 00000KT 10SM SCT031 OVC040 09/06 A2992 RMK AO2 RAE37 SLP131 P0000 T00940056=
201105081553 METAR KBFI 081553Z COR 01003KT 10SM -RA SCT012 OVC048 08/06 A2992 RMK AO2 RAE03B38 SLP130 P0000 T00830061=
201105081544 SPECI KBFI 081544Z 00000KT 10SM -RA SCT012 OVC046 08/06 A2991 RMK AO2 RAE03B38 P0000=
201105081544 SPECI KBFI 081544Z 00000KT 10SM -RA SCT012 OVC046 08/06 A2991 RMK AO2 RAE03B38 P0000=
201105081529 SPECI KBFI 081529Z VRB03KT 10SM BKN012 BKN039 OVC050 08/06 A2991 RMK AO2 RAE03 P0000=
201105081529 SPECI KBFI 081529Z VRB03KT 10SM BKN012 BKN039 OVC050 08/06 A2991 RMK AO2 RAE03 P0000=
201105081453 METAR KBFI 081453Z 00000KT 10SM -RA FEW028 OVC037 08/06 A2991 RMK AO2 SLP128 P0012 60017 T00780056 52011=
201105081353 METAR KBFI 081353Z 00000KT 10SM -RA SCT013 BKN023 OVC032 08/07 A2990 RMK AO2 RAB1258 SLP124 P0005 T00780067=
201105081344 SPECI KBFI 081344Z 34003KT 10SM -RA BKN023 BKN029 OVC035 08/06 A2990 RMK AO2 RAB1258 P0004=
201105081344 SPECI KBFI 081344Z 34003KT 10SM -RA BKN023 BKN029 OVC035 08/06 A2990 RMK AO2 RAB1258 P0004=
201105081307 SPECI KBFI 081307Z 00000KT 10SM -RA FEW019 BKN036 OVC045 08/06 A2989 RMK AO2 RAB1258 P0001=
201105081307 SPECI KBFI 081307Z 00000KT 10SM -RA FEW019 BKN036 OVC045 08/06 A2989 RMK AO2 RAB1258 P0001=
201105081253 METAR KBFI 081253Z 00000KT 10SM BKN021 OVC036 08/06 A2989 RMK AO2 SLP120 T00780056=
201105081153 METAR KBFI 081153Z 00000KT 10SM SCT017 BKN027 OVC050 08/06 A2988 RMK AO2 SLP117 70004 T00780056 10089 20078 53001=
201105081053 METAR KBFI 081053Z 10003KT 10SM SCT015 BKN027 OVC043 08/06 A2988 RMK AO2 SLP116 T00830061=
201105080953 METAR KBFI 080953Z 00000KT 10SM OVC043 08/06 A2987 RMK AO2 SLP114 T00830056=
201105080853 METAR KBFI 080853Z 00000KT 10SM BKN032 OVC041 08/05 A2987 RMK AO2 SLP116 T00830050 56001=
201105080753 METAR KBFI 080753Z 00000KT 10SM OVC032 08/04 A2988 RMK AO2 SLP116 T00830044 401390083=
201105080653 METAR KBFI 080653Z 00000KT 10SM OVC028 08/06 A2988 RMK AO2 SLP116 T00830056=
201105080639 SPECI KBFI 080639Z 00000KT 10SM BKN028 OVC037 08/06 A2988 RMK AO2=
201105080639 SPECI KBFI 080639Z 00000KT 10SM BKN028 OVC037 08/06 A2988 RMK AO2=
201105080553 METAR KBFI 080553Z 00000KT 10SM OVC030 09/06 A2988 RMK AO2 SLP117 60001 T00890056 10128 20083 50003=
201105080518 SPECI KBFI 080518Z 00000KT 10SM SCT030 OVC038 09/06 A2988 RMK AO2=
201105080518 SPECI KBFI 080518Z 00000KT 10SM SCT030 OVC038 09/06 A2988 RMK AO2=
201105080453 METAR KBFI 080453Z 36003KT 10SM BKN026 OVC032 09/06 A2988 RMK AO2 RAE03 SLP118 P0000 T00890056=
201105080353 METAR KBFI 080353Z 00000KT 10SM -RA BKN022 OVC034 09/07 A2987 RMK AO2 RAB0259 SLP114 P0000 T00890067=
201105080349 SPECI KBFI 080349Z 00000KT 10SM -RA BKN022 BKN026 OVC034 09/06 A2987 RMK AO2 RAB0259 P0000=
201105080349 SPECI KBFI 080349Z 00000KT 10SM -RA BKN022 BKN026 OVC034 09/06 A2987 RMK AO2 RAB0259 P0000=
201105080253 METAR KBFI 080253Z 00000KT 10SM BKN036 OVC044 09/07 A2986 RMK AO2 RAB0155E48 SLP110 P0001 60001 T00940067 53009=
201105080153 METAR KBFI 080153Z AUTO 31006KT 10SM SCT040 BKN050 BKN090 10/06 A2984 RMK AO2 SLP106 T01000056 TSNO=
201105080053 METAR KBFI 080053Z 29006KT 10SM SCT036 BKN075 OVC095 11/06 A2983 RMK AO2 SLP102 T01060056=
201105072353 METAR KBFI 072353Z 17010KT 10SM SCT026 SCT040 BKN090 12/06 A2983 RMK AO2 SLP101 T01220056 10139 20106 50002=
201105072253 METAR KBFI 072253Z 19008G15KT 10SM SCT020 BKN100 14/05 A2983 RMK AO2 SLP101 T01390050=
201105072153 METAR KBFI 072153Z 18011G17KT 10SM SCT020 SCT030 BKN110 13/06 A2983 RMK AO2 SLP100 T01330056=
201105072053 METAR KBFI 072053Z 19014G20KT 10SM SCT035 BKN110 13/05 A2982 RMK AO2 SLP099 T01330050 51001=
201105071953 METAR KBFI 071953Z 19011KT 10SM SCT028 SCT040 BKN090 12/06 A2982 RMK AO2 SLP099 T01220061=
201105071853 METAR KBFI 071853Z 21011G18KT 10SM SCT026 BKN045 12/06 A2983 RMK AO2 SLP100 T01170056=
201105071753 METAR KBFI 071753Z 19011G19KT 10SM SCT019 BKN045 BKN090 11/06 A2982 RMK AO2 SLP098 60003 T01060061 10111 20083 51007=
201105071653 METAR KBFI 071653Z 18011G18KT 10SM SCT019 BKN045 BKN090 11/07 A2982 RMK AO2 SLP097 T01060067=
201105071553 METAR KBFI 071553Z 18009KT 10SM BKN060 BKN100 10/07 A2981 RMK AO2 RAE09 SLP095 P0001 T01000072=
201105071453 METAR KBFI 071453Z 16010KT 10SM -RA BKN041 BKN060 09/07 A2980 RMK AO2 RAE12B37 SLP091 P0000 60002 T00890072 53003=
201105071353 METAR KBFI 071353Z 14011KT 8SM -RA FEW030 BKN048 OVC060 09/07 A2979 RMK AO2 RAE1257B18 SLP089 P0000 T00890072=
201105071253 METAR KBFI 071253Z 14008KT 10SM -RA FEW032 BKN049 OVC065 08/07 A2979 RMK AO2 RAB1154 SLP086 P0002 T00830072=
201105071153 METAR KBFI 071153Z 14008KT 10SM OVC030 09/07 A2979 RMK AO2 RAB25E40 SLP088 P0000 60000 70012 T00890067 10089 20083 56018=
201105071100 SPECI KBFI 071100Z 14007KT 10SM OVC031 08/07 A2981 RMK AO2=
201105071100 SPECI KBFI 071100Z 14007KT 10SM OVC031 08/07 A2981 RMK AO2=
201105071053 METAR KBFI 071053Z 14007KT 10SM BKN028 OVC036 08/07 A2981 RMK AO2 SLP094 T00830067=
201105070953 METAR KBFI 070953Z 14007KT 10SM BKN028 OVC036 08/07 A2983 RMK AO2 RAE02 SLP099 P0000 T00830072=
201105070853 METAR KBFI 070853Z 15007KT 10SM -RA BKN028 BKN040 OVC055 08/07 A2984 RMK AO2 RAB42 SLP106 P0000 60000 T00830067 56011=
201105070823 SPECI KBFI 070823Z 16006KT 10SM BKN028 OVC040 08/07 A2985 RMK AO2=
201105070823 SPECI KBFI 070823Z 16006KT 10SM BKN028 OVC040 08/07 A2985 RMK AO2=
201105070753 METAR KBFI 070753Z 16007KT 10SM FEW019 BKN035 OVC042 09/07 A2985 RMK AO2 SLP108 T00890067 401280083=
201105070653 METAR KBFI 070653Z 16006KT 10SM OVC041 09/07 A2986 RMK AO2 RAB39E49 SLP110 P0000 T00890072=
201105070553 METAR KBFI 070553Z 16007KT 6SM BR FEW017 BKN045 OVC080 09/07 A2988 RMK AO2 RAB02E42 SLP117 P0003 60010 T00890072 10106 20083 58005=
201105070546 SPECI KBFI 070546Z 17006KT 6SM BR SCT019 BKN035 OVC045 09/07 A2988 RMK AO2 RAB02E42 P0003=
201105070546 SPECI KBFI 070546Z 17006KT 6SM BR SCT019 BKN035 OVC045 09/07 A2988 RMK AO2 RAB02E42 P0003=
201105070453 METAR KBFI 070453Z VRB05KT 10SM SCT013 BKN019 OVC048 09/07 A2989 RMK AO2 RAE50 SLP121 P0001 T00890072=
201105070356 SPECI KBFI 070356Z 16006KT 10SM -RA SCT013 BKN019 OVC048 09/08 A2989 RMK AO2 CIG 015V024 P0000=
201105070356 SPECI KBFI 070356Z 16006KT 10SM -RA SCT013 BKN019 OVC048 09/08 A2989 RMK AO2 CIG 015V024 P0000=
201105070353 METAR KBFI 070353Z 17005KT 10SM -RA BKN050 OVC060 09/08 A2989 RMK AO2 SLP122 P0003 T00890078=
201105070253 METAR KBFI 070253Z 17004KT 9SM -RA BKN050 OVC060 09/08 A2990 RMK AO2 SLP123 P0001 60003 T00890078 56013=
201105070153 METAR KBFI 070153Z VRB04KT 10SM -RA OVC049 10/08 A2990 RMK AO2 SLP125 P0002 T01000078=
201105070110 SPECI KBFI 070110Z 19005KT 9SM -RA FEW020 SCT025 OVC041 10/08 A2991 RMK AO2 P0001=
201105070110 SPECI KBFI 070110Z 19005KT 9SM -RA FEW020 SCT025 OVC041 10/08 A2991 RMK AO2 P0001=
201105070102 SPECI KBFI 070102Z 21003KT 8SM -RA FEW016 BKN022 OVC055 10/08 A2991 RMK AO2 P0000=
201105070102 SPECI KBFI 070102Z 21003KT 8SM -RA FEW016 BKN022 OVC055 10/08 A2991 RMK AO2 P0000=
201105070053 METAR KBFI 070053Z 19008KT 10SM -RA SCT022 BKN044 OVC055 11/08 A2992 RMK AO2 SLP130 P0000 T01060078=
201105062353 METAR KBFI 062353Z 19006KT 10SM -RA OVC047 11/07 A2993 RMK AO2 RAB2255 SLP136 P0001 60001 T01060072 10128 20106 56015=
201105062253 METAR KBFI 062253Z 20007KT 10SM SCT029 BKN035 OVC060 12/07 A2995 RMK AO2 RAB03E52 SLP143 P0000 T01170067=
201105062153 METAR KBFI 062153Z 20006KT 10SM OVC050 12/06 A2995 RMK AO2 SLP143 T01220061=
201105062053 METAR KBFI 062053Z 19005KT 10SM SCT038 BKN047 OVC065 12/06 A2998 RMK AO2 PK WND 21026/2007 SLP150 T01170061 58017=
201105061953 METAR KBFI 061953Z 17009KT 10SM SCT022 BKN030 OVC036 12/07 A3000 RMK AO2 SLP157 T01170067=
201105061853 METAR KBFI 061853Z 18008KT 10SM SCT022 OVC033 12/07 A3001 RMK AO2 SLP162 T01170067=
201105061753 METAR KBFI 061753Z 17007G19KT 10SM BKN018 BKN041 OVC050 11/07 A3002 RMK AO2 SLP167 60001 T01060067 10106 20083 56006=
201105061653 METAR KBFI 061653Z 18007KT 10SM SCT016 BKN023 OVC050 09/07 A3003 RMK AO2 SLP168 T00940067=
201105061553 METAR KBFI 061553Z 17007KT 10SM SCT016 OVC022 09/07 A3004 RMK AO2 SLP170 T00890067=
201105061453 METAR KBFI 061453Z 17008KT 10SM OVC017 09/06 A3004 RMK AO2 RAE1359B31E45 SLP173 P0000 60001 T00890061 55002=
201105061400 SPECI KBFI 061400Z 17007KT 10SM BKN017 OVC055 08/07 A3004 RMK AO2 RAE1359 P0000=
201105061400 SPECI KBFI 061400Z 17007KT 10SM BKN017 OVC055 08/07 A3004 RMK AO2 RAE1359 P0000=
201105061353 METAR KBFI 061353Z 16006KT 10SM -RA SCT017 OVC055 08/06 A3004 RMK AO2 RAE07B32 SLP172 P0000 T00830061=
201105061253 METAR KBFI 061253Z VRB06KT 10SM -RA SCT065 OVC100 08/06 A3004 RMK AO2 RAB13 SLP172 P0001 T00830061=
201105061153 METAR KBFI 061153Z 19008KT 10SM BKN070 OVC110 09/06 A3005 RMK AO2 SLP175 70004 T00890061 10100 20089 58009=
201105061053 METAR KBFI 061053Z 15006KT 10SM BKN035 OVC095 09/05 A3006 RMK AO2 SLP179 T00890050=
201105060953 METAR KBFI 060953Z 15005KT 10SM SCT037 OVC050 09/05 A3007 RMK AO2 SLP182 T00890050=
201105060853 METAR KBFI 060853Z 17006KT 10SM OVC043 09/06 A3008 RMK AO2 SLP184 T00940056 58008=
201105060753 METAR KBFI 060753Z 18004KT 10SM BKN043 BKN055 09/06 A3009 RMK AO2 SLP188 T00940056 401500078=
201105060653 METAR KBFI 060653Z 15005KT 10SM OVC045 10/06 A3010 RMK AO2 SLP191 T01000061=
201105060553 METAR KBFI 060553Z 14005KT 10SM BKN049 OVC060 10/07 A3010 RMK AO2 SLP192 60000 T01000067 10144 20100 50000=
201105060453 METAR KBFI 060453Z VRB05KT 10SM SCT045 OVC055 11/07 A3011 RMK AO2 SLP195 T01110072=
201105060353 METAR KBFI 060353Z 19005KT 10SM OVC045 11/08 A3010 RMK AO2 SLP193 T01110083=
201105060253 METAR KBFI 060253Z 19009KT 10SM FEW038 OVC045 12/08 A3010 RMK AO2 RAB0158E19 SLP192 P0000 60000 T01170083 58009=
201105060153 METAR KBFI 060153Z 22007KT 10SM OVC055 13/07 A3011 RMK AO2 RAB39E49 SLP195 P0000 T01330072=
201105060053 METAR KBFI 060053Z 17006KT 10SM OVC055 13/07 A3012 RMK AO2 SLP198 T01330072=
201105052353 METAR KBFI 052353Z 20006KT 10SM BKN033 OVC065 14/08 A3013 RMK AO2 RAB19E28 SLP201 P0000 60000 T01390078 10150 20094 58012=
201105052253 METAR KBFI 052253Z 17004KT 10SM SCT025 OVC048 14/08 A3014 RMK AO2 SLP205 T01390078=
201105052153 METAR KBFI 052153Z VRB06KT 10SM OVC032 13/07 A3015 RMK AO2 SLP210 T01280072=
201105052053 METAR KBFI 052053Z 17008KT 10SM BKN030 OVC036 12/07 A3016 RMK AO2 SLP213 T01170072 50003=
201105051953 METAR KBFI 051953Z VRB04KT 10SM OVC023 11/07 A3017 RMK AO2 SLP215 T01060067=
201105051853 METAR KBFI 051853Z 21008KT 10SM OVC020 10/06 A3016 RMK AO2 SLP213 T01000061=
201105051753 METAR KBFI 051753Z 17007KT 10SM OVC018 09/06 A3015 RMK AO2 SLP209 60004 T00890061 10094 20078 51003=
201105051653 METAR KBFI 051653Z 17010KT 10SM OVC016 09/07 A3015 RMK AO2 RAE34 SLP209 P0001 T00890067=
201105051553 METAR KBFI 051553Z 16007KT 5SM -RA BR OVC016 08/06 A3015 RMK AO2 RAB11 SLP209 P0001 T00780061=
201105051538 SPECI KBFI 051538Z 16007KT 10SM -RA BKN016 BKN021 OVC040 08/06 A3015 RMK AO2 RAB11 P0001=
201105051538 SPECI KBFI 051538Z 16007KT 10SM -RA BKN016 BKN021 OVC040 08/06 A3015 RMK AO2 RAB11 P0001=
201105051453 METAR KBFI 051453Z 17006KT 10SM OVC048 08/05 A3014 RMK AO2 RAB06E28 SLP206 P0000 60002 T00830050 53005=
201105051353 METAR KBFI 051353Z 18005KT 10SM OVC050 09/07 A3014 RMK AO2 RAE32 SLP204 P0000 T00890067=
201105051253 METAR KBFI 051253Z 15006KT 10SM -RA OVC060 09/06 A3013 RMK AO2 SLP202 P0002 T00890061=
201105051153 METAR KBFI 051153Z 14003KT 10SM -RA BKN050 OVC075 09/06 A3013 RMK AO2 RAB1059 SLP202 P0000 60000 T00890061 10128 20089 51007=
201105051053 METAR KBFI 051053Z 31004KT 10SM SCT070 OVC090 09/06 A3013 RMK AO2 SLP202 T00940056=
201105050953 METAR KBFI 050953Z 29003KT 10SM BKN120 10/05 A3011 RMK AO2 SLP195 T01000050=
201105050853 METAR KBFI 050853Z 31003KT 10SM CLR 11/05 A3011 RMK AO2 SLP195 T01060050 56013=
201105050753 METAR KBFI 050753Z 35003KT 10SM CLR 11/05 A3011 RMK AO2 SLP196 T01110050 401670056=
201105050653 METAR KBFI 050653Z 00000KT 10SM CLR 12/04 A3013 RMK AO2 SLP201 T01170044=
201105050553 METAR KBFI 050553Z 00000KT 10SM CLR 13/04 A3015 RMK AO2 SLP208 T01280039 10167 20128 58009=
201105050453 METAR KBFI 050453Z 00000KT 10SM CLR 13/04 A3016 RMK AO2 SLP214 T01330039=
201105050353 METAR KBFI 050353Z 00000KT 10SM BKN250 14/03 A3016 RMK AO2 SLP214 T01390028=
201105050253 METAR KBFI 050253Z 32003KT 10SM CLR 15/01 A3017 RMK AO2 SLP217 T01500011 56024=
201105050153 METAR KBFI 050153Z 30005KT 10SM CLR 16/M02 A3019 RMK AO2 SLP223 T01561017=
201105050053 METAR KBFI 050053Z VRB06KT 10SM CLR 16/01 A3021 RMK AO2 SLP231 T01610011=
201105042353 METAR KBFI 042353Z 29005KT 10SM CLR 17/02 A3024 RMK AO2 SLP241 T01670017 10167 20111 58030=
201105042253 METAR KBFI 042253Z 33006KT 10SM CLR 17/03 A3028 RMK AO2 SLP252 T01670033=
201105042153 METAR KBFI 042153Z VRB04KT 10SM CLR 16/03 A3031 RMK AO2 SLP262 T01560033=
201105042053 METAR KBFI 042053Z 31005KT 10SM CLR 14/03 A3033 RMK AO2 SLP271 T01440028 56026=
201105041953 METAR KBFI 041953Z 32007KT 10SM SCT250 14/04 A3035 RMK AO2 SLP278 T01390044=
201105041853 METAR KBFI 041853Z VRB06KT 10SM CLR 13/05 A3038 RMK AO2 SLP286 T01280050=
201105041753 METAR KBFI 041753Z 32006KT 10SM CLR 12/04 A3041 RMK AO2 SLP296 T01170044 10128 20056 58017=
201105041653 METAR KBFI 041653Z 03005KT 10SM CLR 11/04 A3043 RMK AO2 SLP304 T01060039=
201105041553 METAR KBFI 041553Z VRB03KT 10SM CLR 09/04 A3045 RMK AO2 SLP311 T00940039=
201105041453 METAR KBFI 041453Z VRB04KT 10SM CLR 08/04 A3046 RMK AO2 SLP314 T00780039 55003=
201105041353 METAR KBFI 041353Z 00000KT 10SM CLR 07/04 A3046 RMK AO2 SLP312 T00670044=
201105041253 METAR KBFI 041253Z 00000KT 10SM CLR 06/03 A3046 RMK AO2 SLP313 T00560033=
201105041153 METAR KBFI 041153Z 00000KT 10SM CLR 06/03 A3047 RMK AO2 SLP317 60000 T00610033 10100 20056 58007=
201105041053 METAR KBFI 041053Z 00000KT 10SM CLR 07/03 A3048 RMK AO2 SLP321 T00670033=
201105040953 METAR KBFI 040953Z 00000KT 10SM CLR 07/03 A3049 RMK AO2 SLP323 T00720033=
201105040853 METAR KBFI 040853Z 00000KT 10SM CLR 08/03 A3049 RMK AO2 SLP324 60000 T00780033 58004=
201105040753 METAR KBFI 040753Z 00000KT 10SM BKN060 08/04 A3051 RMK AO2 SLP330 T00830039 401440072=
201105040653 METAR KBFI 040653Z 04003KT 10SM SCT065 09/04 A3050 RMK AO2 RAB37E47 SLP328 P0000 T00890039=
201105040553 METAR KBFI 040553Z VRB04KT 10SM OVC049 10/03 A3050 RMK AO2 SLP328 60000 T01000033 10133 20100 51011=
201105040453 METAR KBFI 040453Z 01003KT 10SM OVC049 11/04 A3049 RMK AO2 SLP326 T01060039=
201105040353 METAR KBFI 040353Z VRB04KT 10SM BKN049 OVC070 11/04 A3048 RMK AO2 SLP321 T01060039=
201105040253 METAR KBFI 040253Z 01005KT 10SM BKN043 OVC050 11/04 A3047 RMK AO2 SLP317 60000 T01110039 51004=
201105040153 METAR KBFI 040153Z 01005KT 10SM BKN050 OVC075 13/04 A3046 RMK AO2 RAE19 SLP315 P0000 T01280044=
201105040053 METAR KBFI 040053Z 01004KT 10SM -RA FEW040 OVC050 12/06 A3046 RMK AO2 RAB31 SLP315 P0000 T01220056=
201105032353 METAR KBFI 032353Z VRB04KT 10SM OVC050 13/03 A3046 RMK AO2 SLP313 T01330033 10144 20100 58002=
201105032253 METAR KBFI 032253Z 03005KT 10SM OVC060 13/02 A3046 RMK AO2 SLP314 T01330017=
201105032153 METAR KBFI 032153Z VRB03KT 10SM SCT055 BKN075 14/01 A3047 RMK AO2 SLP316 T01440011=
201105032053 METAR KBFI 032053Z 13005KT 10SM SCT025 SCT045 13/03 A3046 RMK AO2 SLP315 T01330028 58009=
201105031953 METAR KBFI 031953Z VRB04KT 10SM SCT035 SCT060 13/05 A3047 RMK AO2 SLP319 T01280050=
201105031853 METAR KBFI 031853Z 15007G14KT 10SM SCT020 SCT025 12/04 A3048 RMK AO2 SLP321 T01170044=
201105031807 SPECI KBFI 031807Z 18006KT 10SM BKN024 BKN075 10/04 A3049 RMK AO2=
201105031807 SPECI KBFI 031807Z 18006KT 10SM BKN024 BKN075 10/04 A3049 RMK AO2=
201105031800 SPECI KBFI 031800Z 16008KT 110V200 10SM SCT026 BKN075 10/04 A3049 RMK AO2=
201105031800 SPECI KBFI 031800Z 16008KT 110V200 10SM SCT026 BKN075 10/04 A3049 RMK AO2=
201105031753 METAR KBFI 031753Z 14007KT 10SM BKN024 BKN075 11/06 A3049 RMK AO2 SLP324 60000 T01060056 10111 20072 53014=
201105031653 METAR KBFI 031653Z 14010KT 10SM SCT018 BKN022 10/06 A3048 RMK AO2 SLP320 T01000056=
201105031553 METAR KBFI 031553Z 16007KT 10SM BKN022 OVC085 08/04 A3046 RMK AO2 SLP313 BINOVC T00830044=
201105031453 METAR KBFI 031453Z 21005KT 10SM BKN020 OVC030 08/04 A3045 RMK AO2 RAB29E39 SLP310 P0000 60000 T00780044 51017=
201105031353 METAR KBFI 031353Z 18003KT 10SM BKN018 OVC024 08/04 A3044 RMK AO2 SLP306 T00780039=
201105031253 METAR KBFI 031253Z VRB04KT 10SM BKN024 OVC090 07/04 A3041 RMK AO2 SLP299 T00720039=
201105031153 METAR KBFI 031153Z 19006KT 10SM BKN024 OVC090 07/04 A3040 RMK AO2 SLP293 70022 T00720039 10078 20072 53011=
201105031053 METAR KBFI 031053Z 20005KT 10SM BKN022 OVC100 08/04 A3039 RMK AO2 SLP289 T00780039=
201105030953 METAR KBFI 030953Z 18007KT 10SM BKN022 08/04 A3037 RMK AO2 SLP285 T00780039=
201105030853 METAR KBFI 030853Z 18007KT 10SM BKN022 OVC028 08/04 A3037 RMK AO2 SLP282 T00780039 51009=
201105030753 METAR KBFI 030753Z 16007KT 10SM BKN023 OVC029 08/04 A3036 RMK AO2 SLP280 T00780044 401170078=
201105030653 METAR KBFI 030653Z VRB06KT 10SM BKN021 08/04 A3035 RMK AO2 SLP275 T00780044=
201105030553 METAR KBFI 030553Z 20005KT 10SM SCT026 08/04 A3034 RMK AO2 SLP273 T00780039 10117 20078 51022=
201105030500 SPECI KBFI 030500Z 19005KT 10SM OVC028 08/04 A3033 RMK AO2=
201105030500 SPECI KBFI 030500Z 19005KT 10SM OVC028 08/04 A3033 RMK AO2=
201105030453 METAR KBFI 030453Z VRB03KT 10SM SCT030 BKN047 09/04 A3033 RMK AO2 SLP269 T00890044=
201105030353 METAR KBFI 030353Z 20007G16KT 10SM SCT047 09/03 A3030 RMK AO2 SLP260 T00890033=
201105030253 METAR KBFI 030253Z 20008G15KT 10SM FEW032 SCT120 10/03 A3027 RMK AO2 SLP250 T01000033 53016=
201105030153 METAR KBFI 030153Z 20012G20KT 10SM FEW032 11/04 A3025 RMK AO2 SLP244 T01110039=
201105030053 METAR KBFI 030053Z 22013G20KT 10SM SCT030 BKN038 12/06 A3024 RMK AO2 SLP241 T01170061=
201105022353 METAR KBFI 022353Z 20006KT 10SM BKN021 BKN027 OVC033 11/08 A3023 RMK AO2 SLP235 60004 T01110078 10111 20083 51010=
201105022253 METAR KBFI 022253Z 16007KT 10SM FEW018 BKN023 OVC030 09/07 A3022 RMK AO2 SLP232 T00940067=
201105022153 METAR KBFI 022153Z 19004G14KT 10SM OVC040 09/06 A3022 RMK AO2 RAE38 SLP231 P0002 T00940056=
201105022053 METAR KBFI 022053Z 20010G17KT 9SM -RA FEW028 OVC039 10/06 A3020 RMK AO2 RAB49 SLP225 P0000 60002 T01000056 51009=
201105022000 SPECI KBFI 022000Z 21008G16KT 10SM SCT017 BKN050 OVC065 10/07 A3019 RMK AO2=
201105022000 SPECI KBFI 022000Z 21008G16KT 10SM SCT017 BKN050 OVC065 10/07 A3019 RMK AO2=
201105021953 METAR KBFI 021953Z VRB04KT 10SM FEW008 BKN014 OVC042 10/07 A3019 RMK AO2 RAE29 SLP223 P0001 T01000072=
201105021858 SPECI KBFI 021858Z VRB05KT 9SM -RA FEW008 BKN014 OVC042 08/07 A3018 RMK AO2 P0000=
201105021858 SPECI KBFI 021858Z VRB05KT 9SM -RA FEW008 BKN014 OVC042 08/07 A3018 RMK AO2 P0000=
201105021856 SPECI KBFI 021856Z 19006KT 9SM -RA FEW012 BKN030 OVC042 08/07 A3017 RMK AO2 P0000=
201105021856 SPECI KBFI 021856Z 19006KT 9SM -RA FEW012 BKN030 OVC042 08/07 A3017 RMK AO2 P0000=
201105021853 METAR KBFI 021853Z 20004KT 9SM -RA FEW008 BKN014 OVC042 08/07 A3018 RMK AO2 SLP218 P0001 T00830067=
201105021845 SPECI KBFI 021845Z VRB04KT 8SM -RA SCT012 BKN025 OVC031 08/07 A3018 RMK AO2 P0001=
201105021845 SPECI KBFI 021845Z VRB04KT 8SM -RA SCT012 BKN025 OVC031 08/07 A3018 RMK AO2 P0001=
201105021822 SPECI KBFI 021822Z VRB06KT 10SM -RA BKN014 BKN024 OVC029 08/07 A3017 RMK AO2 P0001=
201105021822 SPECI KBFI 021822Z VRB06KT 10SM -RA BKN014 BKN024 OVC029 08/07 A3017 RMK AO2 P0001=
201105021753 METAR KBFI 021753Z 22005KT 9SM -RA SCT017 BKN041 OVC049 08/07 A3017 RMK AO2 SLP215 P0006 60018 T00830067 10111 20078 50017=
201105021655 SPECI KBFI 021655Z 21007KT 070V260 6SM -RA BR SCT022 BKN028 OVC046 08/06 A3018 RMK AO2 P0001=
201105021655 SPECI KBFI 021655Z 21007KT 070V260 6SM -RA BR SCT022 BKN028 OVC046 08/06 A3018 RMK AO2 P0001=
201105021653 METAR KBFI 021653Z 23008KT 7SM -RA SCT022 BKN030 OVC044 08/06 A3018 RMK AO2 SLP218 P0008 T00780061=
201105021553 METAR KBFI 021553Z VRB04KT 4SM -RA BKN035 OVC048 09/06 A3016 RMK AO2 SLP213 P0004 T00890061=
201105021453 METAR KBFI 021453Z 15006KT 10SM -RA SCT030 BKN055 OVC085 11/05 A3012 RMK AO2 RAB10E24B47 SLP198 P0000 60000 T01060050 53024=
201105021353 METAR KBFI 021353Z 14009KT 10SM FEW075 BKN095 11/05 A3008 RMK AO2 SLP186 T01060050=
201105021253 METAR KBFI 021253Z 13008KT 10SM OVC110 10/06 A3006 RMK AO2 SLP178 T01000056=
201105021153 METAR KBFI 021153Z 14007KT 10SM BKN090 10/06 A3005 RMK AO2 SLP174 T01000056 10122 20094 56017=
201105021053 METAR KBFI 021053Z 12004KT 10SM BKN110 11/06 A3006 RMK AO2 SLP178 T01060056=
201105020953 METAR KBFI 020953Z 15004KT 10SM FEW120 10/06 A3007 RMK AO2 SLP183 T01000056=
201105020853 METAR KBFI 020853Z 00000KT 10SM CLR 11/04 A3009 RMK AO2 SLP190 T01060039 56016=
201105020753 METAR KBFI 020753Z 00000KT 10SM CLR 11/04 A3011 RMK AO2 SLP194 T01110039 401670033=
201105020653 METAR KBFI 020653Z 00000KT 10SM CLR 12/04 A3012 RMK AO2 SLP199 T01170044=
201105020553 METAR KBFI 020553Z 00000KT 10SM CLR 12/02 A3014 RMK AO2 SLP206 T01220022 10167 20122 58014=
201105020453 METAR KBFI 020453Z 00000KT 10SM BKN200 13/01 A3016 RMK AO2 SLP213 T01280011=
201105020353 METAR KBFI 020353Z 00000KT 10SM SCT200 14/01 A3017 RMK AO2 SLP216 T01390006=
201105020253 METAR KBFI 020253Z 00000KT 10SM BKN250 16/M02 A3018 RMK AO2 SLP220 T01561022 58022=
201105020153 METAR KBFI 020153Z 00000KT 10SM FEW200 16/M01 A3020 RMK AO2 SLP227 T01611006=
201105020053 METAR KBFI 020053Z 00000KT 10SM CLR 17/M01 A3023 RMK AO2 SLP236 T01671011=
201105012353 METAR KBFI 012353Z VRB05KT 10SM CLR 16/01 A3025 RMK AO2 SLP241 T01610011 10167 20117 56027=
201105012253 METAR KBFI 012253Z VRB05KT 10SM CLR 16/01 A3027 RMK AO2 SLP249 T01560011=
201105012153 METAR KBFI 012153Z 33003KT 10SM CLR 15/02 A3030 RMK AO2 SLP260 T01500017=
201105012053 METAR KBFI 012053Z VRB04KT 10SM CLR 14/03 A3033 RMK AO2 SLP268 T01390033 58015=
201105011953 METAR KBFI 011953Z 00000KT 10SM CLR 13/03 A3034 RMK AO2 SLP273 T01330033=
201105011853 METAR KBFI 011853Z 00000KT 10SM CLR 12/03 A3036 RMK AO2 SLP279 T01220033=
201105011753 METAR KBFI 011753Z 05006KT 10SM CLR 12/02 A3037 RMK AO2 SLP283 T01170022 10117 20033 58014=
201105011653 METAR KBFI 011653Z VRB03KT 10SM CLR 10/02 A3038 RMK AO2 SLP288 T01000022=
201105011553 METAR KBFI 011553Z 00000KT 10SM CLR 08/04 A3040 RMK AO2 SLP294 T00830044=
201105011453 METAR KBFI 011453Z 00000KT 10SM CLR 07/03 A3041 RMK AO2 SLP297 T00670033 56002=
201105011353 METAR KBFI 011353Z 13003KT 10SM CLR 04/03 A3041 RMK AO2 SLP298 T00440028=
201105011253 METAR KBFI 011253Z 00000KT 10SM CLR 04/02 A3041 RMK AO2 SLP296 T00440022=
201105011153 METAR KBFI 011153Z 00000KT 10SM CLR 05/03 A3042 RMK AO2 SLP299 70003 T00500028 10094 20050 56006=
201105011053 METAR KBFI 011053Z 00000KT 10SM CLR 06/03 A3042 RMK AO2 SLP301 T00560033=
201105010953 METAR KBFI 010953Z 00000KT 10SM CLR 06/03 A3043 RMK AO2 SLP302 T00610033=
201105010853 METAR KBFI 010853Z 00000KT 10SM CLR 07/03 A3043 RMK AO2 SLP305 T00720033 51004=
201105010753 METAR KBFI 010753Z 00000KT 10SM CLR 08/03 A3043 RMK AO2 SLP305 T00780033 401440067=
201105010653 METAR KBFI 010653Z 00000KT 10SM CLR 09/03 A3043 RMK AO2 SLP303 T00890028=
201105010553 METAR KBFI 010553Z 03003KT 10SM CLR 09/02 A3042 RMK AO2 SLP301 T00940017 10139 20094 53001=
201105010453 METAR KBFI 010453Z 00000KT 10SM SCT070 11/02 A3042 RMK AO2 SLP302 T01060017=
201105010353 METAR KBFI 010353Z COR 00000KT 10SM BKN070 11/02 A3042 RMK AO2 SLP299 T01110017=
201105010253 METAR KBFI 010253Z 33005KT 10SM SCT080 12/03 A3042 RMK AO2 SLP300 T01170028 56008=
201105010153 METAR KBFI 010153Z 31004KT 10SM OVC080 12/02 A3042 RMK AO2 SLP302 T01220022=
201105010053 METAR KBFI 010053Z 29006KT 10SM FEW080 12/02 A3044 RMK AO2 SLP306 T01220017=

# No short TAF reports from KBFI in databse.

###################################
#  large TAF from KBFI
###################################
201105312320 TAF KBFI 312320Z 0100/0124 VRB03KT P6SM VCSH SCT025 BKN060
                      TEMPO 0100/0104 -SHRA BKN025 BKN060 FM010400
                       20005KT P6SM VCSH SCT025 BKN050
                      TEMPO 0104/0108 -SHRA BKN025 OVC050 FM010800
                       18004KT P6SM -SHRA BKN020 OVC040 FM011200
                       16004KT P6SM -SHRA BKN012 OVC020 FM011800
                       20005KT P6SM -SHRA SCT025 BKN045=
201105312115 KBFI 312115Z 3121/0118 VRB03KT P6SM -SHRA SCT020 BKN030 OVC050
                       TEMPO 3121/0101 BKN020 OVC030 FM010100 20003KT
                       P6SM -SHRA BKN020 OVC030 FM011400 18007KT
                       P6SM BKN012 OVC020=
201105311742 TAF KBFI 311742Z 3118/0118 33003KT P6SM -SHRA BKN030 OVC050
                      TEMPO 3118/3121 BKN020 OVC030 FM312100 29003KT
                       P6SM -SHRA BKN025 OVC040 FM010100 20003KT
                       P6SM -SHRA BKN018 OVC030 FM011400 18007KT
                       P6SM BKN012 OVC020=
201105311517 KBFI 311517Z 3115/0112 33004KT P6SM -SHRA SCT045 OVC070 FM312100
                       33004KT P6SM -SHRA BKN045 OVC070 FM010100
                       19005KT P6SM -SHRA SCT025 OVC045
                      TEMPO 0102/0106 -SHRA BKN025 OVC040 FM010600
                       18008KT P6SM VCSH SCT030 OVC050 FM011000
                       17006KT P6SM OVC025=
201105311125 TAF KBFI 311125Z 3112/0112 34003KT P6SM SCT045 BKN080 OVC120 FM311500
                       33004KT P6SM -SHRA SCT035 OVC060
                      TEMPO 3115/3118 BKN035 OVC060 FM311800 33004KT
                       P6SM -SHRA OVC023
                      TEMPO 3118/3122 4SM BR FM312200 19008KT P6SM
                       VCSH SCT025 OVC045
                      TEMPO 3122/0102 -SHRA BKN025 OVC040 FM010600
                       18008KT P6SM VCSH SCT030 OVC050 FM011000
                       17006KT P6SM OVC025=
201105310900 KBFI 310900Z 3109/0106 35004KT P6SM SCT040 BKN200 FM311400 16004KT
                       P6SM VCSH OVC040 FM311700 19005KT P6SM -SHRA
                       OVC023
                      TEMPO 3117/3121 4SM BR FM312200 19008KT P6SM
                       VCSH SCT025 OVC045
                      TEMPO 3122/0102 -SHRA BKN025 OVC040=
201105310535 TAF KBFI 310535Z 3106/0106 31003KT P6SM SCT045 BKN200 FM310800
                       00000KT P6SM BKN090 BKN250 FM311400 16004KT
                       P6SM VCSH OVC040 FM311700 19005KT P6SM -SHRA
                       OVC023
                      TEMPO 3117/3121 4SM BR FM312200 19008KT P6SM
                       VCSH SCT025 OVC045
                      TEMPO 3122/0102 -SHRA BKN025 OVC040=
201105302320 TAF KBFI 302320Z 3100/3124 VRB04KT P6SM SCT070 BKN250 FM310300
                       VRB03KT P6SM BKN070 BKN250 FM310800 00000KT
                       P6SM BKN090 BKN250 FM311400 VRB03KT P6SM
                       VCSH BKN050 OVC070 FM311600 VRB03KT P6SM
                       -SHRA BKN025 OVC045 FM312100 22006KT P6SM
                       -SHRA SCT030 BKN045=
201105302039 KBFI 302039Z 3021/3118 VRB03KT P6SM FEW040 SCT080 BKN250 FM310700
                       00000KT P6SM BKN070 BKN250 FM311300 VRB03KT
                       P6SM BKN035 BKN100=
201105301736 TAF KBFI 301736Z 3018/3118 18005KT P6SM SCT025 BKN045 FM302200
                       VRB04KT P6SM SCT050 BKN250 FM310500 00000KT
                       P6SM BKN070 BKN150 FM311300 VRB03KT P6SM
                       BKN035 BKN100=
201105301535 KBFI 301535Z 3016/3112 16007KT P6SM SCT025 BKN045
                      TEMPO 3016/3018 BKN025 BKN045 FM302000 20006KT
                       P6SM SCT025 BKN045 FM302300 24006KT P6SM
                       SCT050 BKN250 FM310800 VRB03KT P6SM SCT100
                       BKN250=
201105301450 KBFI 301450Z 3015/3112 16007KT P6SM SCT025 SCT100
                      TEMPO 3015/3018 BKN025 BKN045 BKN100 FM302000
                       20006KT P6SM SCT025 BKN045 FM302300 24006KT
                       P6SM SCT050 BKN250 FM310800 VRB03KT P6SM
                       SCT100 BKN250=
201105301120 TAF KBFI 301120Z 3012/3112 16007KT P6SM SCT020 OVC040
                      TEMPO 3013/3017 OVC020 FM302000 23006KT P6SM
                       BKN045 FM302300 24006KT P6SM SCT050 BKN250
                       FM310800 VRB03KT P6SM SCT100 BKN250=
201105300910 KBFI 300910Z 3009/3106 17007KT P6SM SCT022 OVC035
                      TEMPO 3011/3015 OVC022 FM301900 16003KT P6SM
                       BKN025 FM302100 20004KT P6SM SCT035=
201105300520 TAF KBFI 300520Z 3006/3106 18005KT P6SM OVC040 FM300900 16003KT
                       P6SM SCT016 OVC026
                      TEMPO 3011/3015 OVC015 FM301900 16003KT P6SM
                       BKN025 FM302100 20004KT P6SM SCT035=
201105300305 KBFI 300305Z 3003/3024 19005KT P6SM BKN035 OVC150 FM300400 17007KT
                       P6SM OVC035 FM300900 16003KT P6SM OVC015
                       FM301900 16003KT P6SM BKN025 FM302100 20004KT
                       P6SM SCT035=
201105292320 TAF KBFI 292320Z 3000/3024 16009KT P6SM SCT040 BKN050 FM300300
                       18007KT P6SM BKN024 OVC050 FM300800 16003KT
                       P6SM OVC015 FM301900 16003KT P6SM BKN025
                       FM302100 20004KT P6SM SCT035=
201105291720 TAF KBFI 291720Z 2918/3018 20003KT P6SM BKN040 FM292000 20006KT
                       P6SM SCT050 FM300600 18007KT P6SM BKN024
                       FM301000 16003KT P6SM OVC015=
201105291427 KBFI 291427Z 2914/3012 00000KT P6SM BKN040 OVC060 FM291900 20006KT
                       P6SM BKN040 BKN200 FM292200 20007KT P6SM
                       SCT045 BKN200 FM300400 17006KT P6SM BKN100
                       FM301100 15003KT P6SM OVC023=
201105291120 TAF KBFI 291120Z 2912/3012 07003KT P6SM OVC050 FM291900 23006KT
                       P6SM SCT050 BKN120 FM292200 20007KT P6SM
                       SCT080 BKN250 FM300400 17006KT P6SM BKN100
                       FM301100 15003KT P6SM OVC023=
201105290520 TAF KBFI 290520Z 2906/3006 VRB03KT P6SM BKN120 FM291300 16004KT
                       P6SM BKN045 OVC100 FM291900 22006KT P6SM
                       SCT045 BKN120 FM292200 20007KT P6SM SCT080
                       BKN250=
201105282320 TAF KBFI 282320Z 2900/2924 32006KT P6SM SCT050 BKN200 FM290300
                       VRB03KT P6SM SCT040 BKN200 FM292000 21006KT
                       P6SM SCT040 BKN200=
201105281720 TAF KBFI 281720Z 2818/2918 00000KT P6SM SCT024 BKN040 BKN060 FM282200
                       32006KT P6SM SCT040 SCT060 FM290000 34006KT
                       P6SM VCSH SCT040 BKN060 FM290300 VRB03KT
                       P6SM SCT040 BKN060 FM291300 17004KT P6SM
                       SCT030 BKN045=
201105281120 TAF KBFI 281120Z 2812/2912 12003KT P6SM BKN020 OVC035
                      TEMPO 2814/2818 SCT020 BKN035 OVC045 FM281800
                       17005KT P6SM SCT035 BKN050 FM282200 32006KT
                       P6SM SCT040 SCT060 FM290000 34006KT P6SM
                       VCSH SCT040 BKN060 FM290600 14003KT P6SM
                       SCT045 BKN100=
201105280520 TAF KBFI 280520Z 2806/2906 20004KT P6SM VCSH SCT025 BKN080 FM281000
                       16003KT P6SM BKN020 OVC035
                      TEMPO 2813/2817 OVC020 FM281800 17005KT P6SM
                       SCT035 BKN050 FM282200 32006KT P6SM SCT040
                       SCT060 FM290000 34006KT P6SM VCSH SCT040
                       BKN060=
201105272323 TAF KBFI 272323Z 2800/2824 18011G16KT P6SM SCT040 BKN070 BKN200
                       TEMPO 2800/2802 5SM SHRA OVC040 FM280300
                       16006KT P6SM VCSH SCT045 BKN090 FM280600
                       16005KT P6SM BKN040 BKN080 FM281300 16005KT
                       P6SM BKN020 OVC035 FM281800 17005KT P6SM
                       SCT035 BKN050 FM282200 32006KT P6SM SCT040
                       SCT060=
201105271722 TAF KBFI 271722Z 2718/2818 13010KT P6SM -SHRA SCT028 BKN040 BKN090
                       FM271900 18010G16KT P6SM -SHRA BKN040 BKN090
                       FM280300 16006KT P6SM VCSH SCT045 BKN090
                       FM280600 16005KT P6SM BKN040 BKN080 FM281300
                       16005KT P6SM BKN020 OVC035=
201105271504 TAF AMD KBFI 271504Z 2715/2812 17007KT P6SM VCSH SCT030 BKN100
                       FM271800 18010G18KT P6SM -SHRA BKN040 BKN090
                       FM280300 16006KT P6SM SCT050 BKN100 FM280600
                       16005KT P6SM BKN040 BKN080=
201105271126 TAF KBFI 271126Z 2712/2812 20008KT P6SM SCT040 BKN080
                      TEMPO 2712/2716 -SHRA BKN030 OVC040 FM271600
                       18010G18KT P6SM SCT040 BKN070 BKN100
                      PROB30 2721/2803 -SHRA BKN040 BKN090 FM280300
                       16006KT P6SM SCT050 BKN100 FM280600 16005KT
                       P6SM BKN040 BKN080=
201105270524 TAF KBFI 270524Z 2706/2806 15004KT P6SM SCT045 BKN070 BKN120
                      TEMPO 2706/2710 -SHRA BKN045 OVC070 FM271500
                       18012G18KT P6SM SCT040 BKN060 OVC100
                      PROB30 2715/2721 -SHRA BKN040 OVC060 FM280100
                       16008KT P6SM SCT050 BKN100=
201105270302 KBFI 270302Z 2703/2724 19006KT P6SM -SHRA SCT040 BKN070 OVC200
                       TEMPO 2703/2707 -SHRA BKN040 OVC070 FM271500
                       20012KT P6SM VCSH SCT025 BKN040 FM272000
                       22008KT P6SM VCSH SCT030 BKN050=
201105270028 KBFI 270028Z 2700/2724 22008KT P6SM VCSH SCT035 SCT060 OVC200
                      TEMPO 2700/2703 -SHRA SCT035 OVC060 FM270300
                       19008G18KT P6SM -SHRA BKN030 OVC070 FM271500
                       20012KT P6SM VCSH SCT025 BKN040 FM272000
                       22008KT P6SM VCSH SCT030 BKN050=
201105262332 TAF KBFI 262332Z 2700/2724 22008G18KT P6SM VCSH SCT040 BKN050 BKN100
                       TEMPO 2700/2704 -SHRA BKN040 FM270400 19008G18KT
                       P6SM -SHRA BKN030 OVC070 FM271500 20012KT
                       P6SM VCSH SCT025 BKN040 FM272000 22008KT
                       P6SM VCSH SCT030 BKN050=
201105261725 TAF KBFI 261725Z 2618/2718 18010G18KT P6SM VCSH FEW025 BKN035 FM262200
                       22010KT P6SM VCSH BKN035 BKN090 FM270600
                       19010KT P6SM -SHRA BKN025 OVC040 FM271200
                       20012KT P6SM VCSH SCT025 BKN030=
201105261120 TAF KBFI 261120Z 2612/2712 19010KT P6SM FEW040 OVC120 FM262100
                       20008KT P6SM SCT060 BKN120
                      PROB30 2621/2703 -SHRA BKN060 OVC120 FM270600
                       17006KT P6SM -SHRA BKN050 OVC100=
201105260522 TAF KBFI 260522Z 2606/2706 19008KT P6SM FEW020 BKN070 OVC150 FM262100
                       20008KT P6SM SCT060 BKN120=
201105260036 KBFI 260036Z 2601/2624 18006KT P6SM -RA SCT015 OVC050
                      TEMPO 2601/2604 18008KT P6SM -RA BKN020 OVC035
                       FM260400 18010KT P6SM -SHRA BKN030 OVC040
                       FM261500 19008KT P6SM BKN050 FM261800 20008KT
                       P6SM BKN050=
201105252353 TAF KBFI 252353Z 2600/2624 18006KT P6SM -RA BKN015 OVC030 FM260400
                       18008KT P6SM -SHRA BKN020 OVC035 FM260600
                       18010KT P6SM -SHRA BKN030 OVC040 FM261500
                       19008KT P6SM BKN050 FM261800 20008KT P6SM
                       BKN050=
201105251750 TAF KBFI 251750Z 2518/2618 31004KT P6SM -RA BKN020 OVC050 FM252000
                       30008KT P6SM -RA BKN025 OVC045 FM252300
                       19008KT P6SM -RA BKN030 OVC050 FM260600
                       18010KT P6SM -SHRA SCT030 OVC050 FM261500
                       20008KT P6SM BKN050=
201105251120 TAF KBFI 251120Z 2512/2612 36003KT P6SM OVC120 FM251600 04006KT
                       P6SM -RA BKN050 OVC090 FM251800 18006KT
                       P6SM -RA OVC025 FM252300 20012KT P6SM -RA
                       BKN025 OVC045 FM260600 18010KT P6SM -SHRA
                       SCT030 OVC050=
201105250527 TAF KBFI 250527Z 2506/2606 01005KT P6SM FEW070 BKN250 FM251200
                       02008KT P6SM BKN060 OVC120 FM251600 04006KT
                       P6SM -RA BKN040 OVC070 FM251800 18006KT
                       P6SM -RA OVC025 FM252300 20012KT P6SM -RA
                       BKN025 OVC045=
201105242333 TAF KBFI 242333Z 2500/2524 VRB04KT P6SM SCT060 SCT200 FM250200
                       33004KT P6SM SCT060 SCT200 FM250700 34004KT
                       P6SM SCT080 BKN200 FM251200 34004KT P6SM
                       BKN060 OVC120 FM251600 VRB03KT P6SM -RA
                       BKN040 OVC070 FM252100 23009KT P6SM -RA
                       OVC025=
201105241733 TAF KBFI 241733Z 2418/2518 18005KT P6SM SCT021 BKN070 FM242000
                       18005KT P6SM SCT025 SCT050 FM242200 34004KT
                       P6SM SCT050 FM250400 34004KT P6SM SCT080
                       BKN200 FM251200 34004KT P6SM BKN060 BKN120=
201105241130 KBFI 241130Z 2412/2512 16004KT P6SM SCT022 BKN070
                      TEMPO 2412/2416 BKN015 BKN070 FM241800 22005KT
                       P6SM SCT040 SCT200 FM242200 30005KT P6SM
                       SCT200 FM250400 VRB03KT P6SM SCT080 BKN200
                       FM250800 VRB03KT P6SM BKN060 BKN120=
201105241120 TAF KBFI 241120Z 2412/2512 16004KT P6SM SCT023 BKN070
                      TEMPO 2412/2416 BKN023 BKN070 FM241800 22005KT
                       P6SM SCT040 SCT200 FM242200 30005KT P6SM
                       SCT200 FM250400 VRB03KT P6SM SCT080 BKN200
                       FM250800 VRB03KT P6SM BKN060 BKN120=
201105240902 TAF AMD KBFI 240902Z 2409/2506 17003KT P6SM BKN070
                      TEMPO 2412/2416 BKN030 BKN070 FM241800 22005KT
                       P6SM SCT040 SCT200 FM242200 30005KT P6SM
                       SCT200 FM250400 VRB03KT P6SM SCT080 BKN200=
201105240521 TAF KBFI 240521Z 2406/2506 00000KT P6SM BKN070 FM241000 17004KT
                       P6SM BKN030 FM241800 22005KT P6SM SCT040
                       SCT200 FM242200 30005KT P6SM SCT200 FM250400
                       VRB03KT P6SM SCT080 BKN200=
201105232329 TAF KBFI 232329Z 2400/2424 31003KT P6SM SCT050 BKN070 FM240300
                       31004KT P6SM SCT070 FM241000 VRB03KT P6SM
                       BKN030 FM241800 31005KT P6SM SCT040 SCT200=
201105231725 TAF KBFI 231725Z 2318/2418 17003KT P6SM SCT020 BKN050 BKN200 FM232100
                       30006KT P6SM SCT035 BKN060 FM240000 33006KT
                       P6SM SCT060 FM241000 VRB03KT P6SM BKN030=
201105231313 KBFI 231313Z 2313/2412 VRB03KT P6SM SCT030 SCT050
                      TEMPO 2315/2319 BKN030 BKN050 FM232100 30006KT
                       P6SM SCT030 BKN060 FM240000 33006KT P6SM
                       SCT060 FM241000 VRB03KT P6SM BKN030=
201105231120 TAF KBFI 231120Z 2312/2412 VRB03KT P6SM SCT030 BKN050
                      TEMPO 2312/2316 BKN030 OVC050 FM232100 30006KT
                       P6SM SCT030 BKN060 FM240000 33006KT P6SM
                       SCT060 FM241000 VRB03KT P6SM BKN030=
201105230520 TAF KBFI 230520Z 2306/2406 VRB04KT P6SM SCT040 OVC080
                      TEMPO 2306/2310 BKN040 OVC080 FM231000 18005KT
                       P6SM OVC035 FM231800 23005KT P6SM BKN040
                       BKN070 FM240100 31006KT P6SM SCT060=
201105222320 TAF KBFI 222320Z 2300/2324 26006KT P6SM BKN070 BKN150 FM231000
                       16004KT P6SM OVC025 FM232000 21005KT P6SM
                       SCT030 BKN050=
201105221738 TAF KBFI 221738Z 2218/2318 19003KT P6SM SCT020 SCT050 BKN080
                      TEMPO 2220/2224 BKN045 FM230000 20004KT P6SM
                       SCT030 BKN060 FM231400 16004KT P6SM OVC025=
201105221120 TAF KBFI 221120Z 2212/2312 21006KT P6SM SCT015 OVC030
                      TEMPO 2212/2216 5SM -DZ OVC010 FM221700 22006KT
                       P6SM SCT015 BKN035 OVC060 FM222100 VRB04KT
                       P6SM SCT030 BKN060=
201105220703 KBFI 220703Z 2207/2306 VRB03KT 6SM -DZ BR SCT009 BKN015 OVC025
                       TEMPO 2207/2211 4SM -DZ BR BKN008 OVC015
                       FM221700 22006KT P6SM BKN020 OVC045 FM222100
                       31007KT P6SM SCT030 BKN045=
201105220520 TAF KBFI 220520Z 2206/2306 VRB03KT 6SM -RA BR SCT012 OVC020
                      TEMPO 2210/2214 4SM -DZ BR BKN008 OVC015
                       FM221700 22006KT P6SM BKN020 OVC045 FM222100
                       31007KT P6SM SCT030 BKN045=
201105212329 TAF KBFI 212329Z 2200/2224 09003KT P6SM VCSH SCT022 BKN030 OVC060
                       FM220600 17007KT P6SM OVC030 FM221100 17007KT
                       P6SM OVC020 FM221700 20006KT P6SM SCT025
                       OVC050 FM222200 29005KT P6SM SCT035 BKN050=
201105211734 TAF KBFI 211734Z 2118/2218 23003KT P6SM VCSH SCT016 OVC035
                      TEMPO 2118/2122 BKN016 OVC025 FM220600 17007KT
                       P6SM OVC030 FM221100 17007KT P6SM OVC020
                       FM221700 20006KT P6SM SCT025 OVC050=
201105211120 TAF KBFI 211120Z 2112/2212 17004KT P6SM -RA OVC050 FM211800 17007KT
                       P6SM SCT030 OVC045 FM220600 17007KT P6SM
                       OVC030 FM221100 17007KT P6SM OVC020=
201105210527 TAF KBFI 210527Z 2106/2206 VRB03KT P6SM BKN120 OVC200 FM210900
                       17007KT P6SM SCT030 BKN060 OVC100
                      TEMPO 2112/2116 BKN030 OVC050 FM211600 17007KT
                       P6SM BKN030 OVC050 FM212000 21007KT P6SM
                       VCSH SCT025 BKN040 FM220500 VRB04KT P6SM
                       SCT025 OVC045=
201105202336 TAF KBFI 202336Z 2100/2124 34004KT P6SM BKN250 FM210400 18007KT
                       P6SM BKN120 BKN200 FM211100 21009KT P6SM
                       OVC020 FM211900 18005KT P6SM SCT025 BKN040=
201105201734 TAF KBFI 201734Z 2018/2118 00000KT P6SM FEW250 FM210400 18007KT
                       P6SM BKN120 BKN200 FM211100 21009KT P6SM
                       OVC020=
201105201120 TAF KBFI 201120Z 2012/2112 VRB04KT P6SM SCT250 FM202100 29007KT
                       P6SM BKN200 FM210400 22007KT P6SM BKN120
                       BKN200 FM211100 17007KT P6SM BKN050=
201105200520 TAF KBFI 200520Z 2006/2106 VRB03KT P6SM SCT250 FM202100 32007KT
                       P6SM BKN200 FM210400 22006KT P6SM BKN120
                       BKN200=
201105192320 TAF KBFI 192320Z 2000/2024 VRB06KT P6SM SCT250 FM200400 VRB03KT
                       P6SM SCT250 FM202000 29006KT P6SM SCT050=
201105191720 TAF KBFI 191720Z 1918/2018 00000KT P6SM SCT250 FM192100 30009KT
                       P6SM FEW050 SCT200 FM200400 VRB03KT P6SM
                       SCT250=
201105191120 TAF KBFI 191120Z 1912/2012 00000KT P6SM SKC FM192000 30010KT P6SM
                       FEW050 SCT200 FM200400 VRB03KT P6SM SCT250=
201105190520 TAF KBFI 190520Z 1906/2006 VRB04KT P6SM SKC FM192100 30010KT P6SM
                       FEW050 SCT200=
201105182323 TAF KBFI 182323Z 1900/1924 30012G17KT P6SM SCT250 FM190400 VRB04KT
                       P6SM SCT200 FM192100 30010KT P6SM FEW050
                       SCT200=
201105182103 TAF AMD KBFI 182103Z 1821/1918 30010G14KT P6SM FEW050 SCT250 FM190500
                       VRB04KT P6SM SCT200=
201105181720 TAF KBFI 181720Z 1818/1918 08005KT P6SM FEW250 FM182100 32012KT
                       P6SM SCT050 SCT200 FM190500 VRB04KT P6SM
                       SCT200=
201105181120 TAF KBFI 181120Z 1812/1912 VRB03KT P6SM FEW100 SCT200 FM181800
                       VRB04KT P6SM SCT200 FM182000 32009KT P6SM
                       SCT050 SCT200 FM190500 VRB04KT P6SM SCT200=
201105180848 KBFI 180848Z 1809/1906 VRB03KT P6SM FEW100 BKN200 FM181300 VRB04KT
                       P6SM SCT100 SCT200 FM182000 31010KT P6SM
                       FEW040=
201105180530 TAF KBFI 180530Z 1806/1906 01004KT P6SM SCT100 SCT250 FM180800
                       VRB03KT P6SM BKN100 FM181300 VRB04KT P6SM
                       SCT100 FM182000 31010KT P6SM FEW040=
201105172329 TAF KBFI 172329Z 1800/1824 33009KT P6SM FEW040 BKN250 FM180200
                       35009KT P6SM SCT040 BKN100 FM180600 03004KT
                       P6SM BKN100 FM181500 31008KT P6SM SKC FM182000
                       34010KT P6SM FEW040=
201105171720 TAF KBFI 171720Z 1718/1818 33004KT P6SM SCT012 FM171900 34006KT
                       P6SM SCT050 FM180000 35009KT P6SM SCT050
                       BKN100 FM180400 03004KT P6SM BKN100=
201105171411 KBFI 171411Z 1714/1812 00000KT 3SM BR SCT003 FM171600 00000KT 5SM
                       BR SCT004 FM171800 00000KT P6SM SCT200 FM172000
                       31006KT P6SM SCT050 SCT200 FM180500 VRB03KT
                       P6SM FEW050 SCT200=
201105171311 KBFI 171311Z 1713/1812 00000KT 3/4SM BR OVC002 FM171600 00000KT
                       3SM BR BKN003 FM171700 00000KT 5SM BR SCT004
                       FM171800 00000KT P6SM SCT200 FM172000 31006KT
                       P6SM SCT050 SCT200 FM180500 VRB03KT P6SM
                       FEW050 SCT200=
201105171120 TAF KBFI 171120Z 1712/1812 VRB03KT P6SM SCT045 SCT200
                      TEMPO 1714/1716 5SM BR SCT004 FM171900 31006KT
                       P6SM SCT050 SCT200 FM180500 VRB03KT P6SM
                       FEW050 SCT200=
201105170900 KBFI 170900Z 1709/1806 VRB04KT P6SM SCT045 FM171800 31006KT P6SM
                       SCT050=
201105170522 TAF KBFI 170522Z 1706/1806 VRB04KT P6SM SCT050 BKN200
                      TEMPO 1707/1710 BKN045 FM171000 VRB04KT P6SM
                       BKN045 FM171800 31006KT P6SM SCT050=
201105162324 TAF KBFI 162324Z 1700/1724 20012G20KT P6SM VCSH SCT035 BKN045
                      TEMPO 1701/1705 20008KT -SHRA BKN030 FM170500
                       34006KT P6SM -SHRA BKN025 BKN040 FM170700
                       02006KT P6SM BKN025 FM171900 33006KT P6SM
                       SCT030=
201105161722 TAF KBFI 161722Z 1618/1718 19013G20KT P6SM BKN022 OVC030 FM162000
                       20013G20KT P6SM SCT028 BKN035 FM170100 34007KT
                       P6SM VCSH BKN030 BKN060
                      TEMPO 1703/1707 -SHRA BKN030 FM170700 02006KT
                       P6SM BKN025=
201105161120 TAF KBFI 161120Z 1612/1712 16008KT P6SM SCT025 BKN045 BKN060 FM170100
                       35005KT P6SM BKN060
                      TEMPO 1701/1703 -SHRA BKN030 FM170500 VRB03KT
                       P6SM SCT025=
201105160520 TAF KBFI 160520Z 1606/1706 18008KT P6SM SCT025 BKN060
                      TEMPO 1606/1608 BKN025 FM160800 18008KT P6SM
                       BKN025 BKN060 FM161800 29012KT P6SM SCT025
                       SCT060 FM170100 35005KT P6SM SCT060 FM170500
                       VRB03KT P6SM SCT025=
201105152357 KBFI 152357Z 1600/1624 18015KT P6SM -RA FEW018 BKN030 BKN040 FM160300
                       20007KT P6SM -SHRA BKN028 OVC040 FM161000
                       20007KT P6SM VCSH BKN018 OVC025 FM161800
                       20012KT P6SM VCSH BKN035=
201105152339 TAF KBFI 152339Z 1600/1624 19012KT P6SM -RA FEW018 BKN030 BKN040
                       FM160300 20007KT P6SM -SHRA BKN028 OVC040
                       FM161000 20007KT P6SM VCSH BKN018 OVC025
                       FM161800 20012KT P6SM VCSH BKN035=
201105151741 TAF KBFI 151741Z 1518/1618 18007KT 6SM -RA BR SCT008 OVC017
                      TEMPO 1518/1520 OVC008 FM152000 19011KT P6SM
                       -SHRA BKN018 OVC030 FM160200 20009KT P6SM
                       VCSH BKN030 OVC040 FM160800 20006KT P6SM
                       VCSH BKN018 BKN030=
201105151120 TAF KBFI 151120Z 1512/1612 00000KT P6SM -RA SCT006 OVC014
                      TEMPO 1512/1515 5SM -RA BR BKN006 OVC014
                       FM151500 VRB03KT 5SM -RA BR BKN006 OVC014
                       FM151800 18005KT P6SM -RA BKN012 OVC020
                       FM152100 18009KT P6SM -SHRA BKN020 OVC030
                       FM160000 18009KT P6SM -SHRA BKN030 OVC045=
201105150655 KBFI 150655Z 1507/1606 00000KT 5SM -RA BR SCT006 SCT017 OVC025
                       TEMPO 1507/1511 3SM RA BR BKN006 BKN017
                       OVC025 FM151100 17004KT 6SM -RA BR BKN012
                       OVC024 FM151800 19006KT P6SM -RA BKN020
                       OVC030 FM152200 19009KT P6SM -SHRA BKN025
                       OVC045=
201105150628 KBFI 150628Z 1506/1606 00000KT 5SM -RA BR SCT006 SCT017 OVC025
                       TEMPO 1506/1510 3SM RA BR SCT006 BKN017
                       OVC025 FM151000 17004KT 6SM -RA BR BKN012
                       OVC024 FM151800 19006KT P6SM -RA BKN020
                       OVC030 FM152200 19009KT P6SM -SHRA BKN025
                       OVC045=
201105150537 TAF KBFI 150537Z 1506/1606 00000KT 5SM -RA BR SCT006 SCT017 OVC025
                       TEMPO 1508/1512 3SM RA BR SCT006 BKN017
                       OVC025 FM151200 17004KT 6SM -RA BR BKN012
                       OVC024 FM151800 19006KT P6SM -RA BKN020
                       OVC030 FM152200 19009KT P6SM -SHRA BKN025
                       OVC045=
201105150500 KBFI 150500Z 1505/1524 VRB03KT 5SM RA BR BKN022 OVC030 FM151200
                       18008KT P6SM -RA BKN025 OVC040 FM152000
                       20010KT P6SM -SHRA BKN020=
201105142333 TAF KBFI 142333Z 1500/1524 32010KT P6SM VCSH BKN060 BKN120
                      TEMPO 1500/1503 -SHRA BKN050CB OVC100 FM150300
                       22005KT P6SM -RA BKN045 OVC060 FM151200
                       18008KT P6SM -RA BKN025 OVC040 FM152000
                       20010KT P6SM -SHRA BKN020=
201105141738 TAF KBFI 141738Z 1418/1518 34007KT P6SM VCSH FEW050 SCT070 BKN200
                       FM142100 34010KT P6SM VCSH SCT050 BKN080
                       FM150000 31006KT P6SM -RA OVC050 FM150700
                       18004KT P6SM -RA BKN030 OVC045=
201105141121 TAF KBFI 141121Z 1412/1512 00000KT P6SM BKN100 OVC200 FM141400
                       VRB03KT P6SM VCSH BKN070 OVC100 FM141700
                       36003KT P6SM VCSH BKN050 OVC100 FM142300
                       31006KT P6SM -RA OVC050 FM150700 18004KT
                       P6SM -RA BKN030 OVC045=
201105140543 TAF KBFI 140543Z 1406/1506 00000KT P6SM BKN130 OVC200 FM141200
                       VRB04KT P6SM VCSH BKN050 OVC100 FM142100
                       33006KT P6SM OVC050 FM142300 31006KT P6SM
                       -RA OVC045=
201105132333 TAF KBFI 132333Z 1400/1424 31009G16KT P6SM SCT100 BKN200 FM140300
                       33007KT P6SM SCT100 BKN200 FM140800 02003KT
                       P6SM BKN100 BKN150 FM141600 32004KT P6SM
                       BKN050 OVC100
                      PROB30 1418/1424 -RA OVC050=
201105132226 KBFI 132226Z 1322/1418 35012KT P6SM SCT120 BKN200 FM140800 02003KT
                       P6SM BKN100 BKN150 FM141200 31005KT P6SM
                       BKN050 OVC100=
201105131739 TAF KBFI 131739Z 1318/1418 35009KT P6SM SCT120 BKN200 FM140800
                       02003KT P6SM BKN100 BKN150 FM141200 31005KT
                       P6SM BKN050 OVC100=
201105131141 TAF KBFI 131141Z 1312/1412 VRB03KT P6SM BKN200 FM132200 32008KT
                       P6SM BKN100 FM140800 VRB03KT P6SM SCT120
                       BKN200=
201105130534 TAF KBFI 130534Z 1306/1406 VRB03KT P6SM SCT200 FM132200 32008KT
                       P6SM BKN100=
201105130103 KBFI 130103Z 1301/1324 26010KT P6SM SCT050 SCT200 FM130400 VRB04KT
                       P6SM SCT050 FM131200 04006KT P6SM SCT200
                       FM132300 33008KT P6SM BKN120=
201105122320 TAF KBFI 122320Z 1300/1324 20005KT P6SM SCT050 SCT200 FM130400
                       VRB04KT P6SM SCT050 FM131200 04006KT P6SM
                       SCT200 FM132300 33008KT P6SM BKN120=
201105121729 TAF KBFI 121729Z 1218/1318 21006KT P6SM FEW050 FM122100 21007KT
                       P6SM SCT050 FM130600 VRB03KT P6SM SCT060
                       FM131500 VRB03KT P6SM FEW080=
201105121424 KBFI 121424Z 1214/1312 VRB03KT P6SM BKN050 FM121600 VRB03KT P6SM
                       SCT050 FM130600 VRB03KT P6SM SCT060=
201105121138 TAF KBFI 121138Z 1212/1312 VRB03KT P6SM SCT050
                      TEMPO 1212/1216 BKN050 FM121600 VRB03KT P6SM
                       SCT035 BKN050 FM130600 VRB03KT P6SM SCT060=
201105120538 TAF KBFI 120538Z 1206/1306 17006KT P6SM SCT030 BKN050 FM120900
                       17006KT P6SM SCT050 FM121800 19008KT P6SM
                       SCT035 BKN050 BKN080=
201105112326 TAF KBFI 112326Z 1200/1224 18010KT 6SM -RA BR BKN029 OVC050
                      TEMPO 1200/1204 4SM -RA BR OVC029 FM120400
                       18006KT P6SM VCSH SCT030 BKN050 FM120700
                       VRB03KT P6SM SCT030 BKN050 FM121800 20006KT
                       P6SM BKN045 BKN080 BKN200=
201105112011 KBFI 112011Z 1120/1218 18009KT P6SM -RA SCT020 OVC060
                      TEMPO 1120/1124 5SM -RA BR BKN020 OVC060
                       FM120000 21009KT P6SM BKN030 BKN050
                      TEMPO 1200/1203 -SHRA FM120300 18006KT P6SM
                       SCT030 BKN050 FM120900 VRB03KT P6SM SCT030
                       BKN050=
201105111741 TAF KBFI 111741Z 1118/1218 16008KT P6SM FEW012 BKN022 OVC050
                      TEMPO 1118/1120 -RA FM112000 19012KT 6SM
                       -RA BR SCT009 OVC019 FM120000 21009KT P6SM
                       BKN030 BKN050
                      TEMPO 1200/1203 -SHRA FM120300 18006KT P6SM
                       SCT030 BKN050
                      PROB30 1203/1207 -SHRA FM120900 VRB03KT P6SM
                       SCT030 BKN050=
201105111638 KBFI 111638Z 1117/1212 VRB03KT P6SM SCT022 BKN070
                      TEMPO 1117/1119 -RA BKN022 OVC050 FM111900
                       17006KT P6SM -RA OVC030 FM112100 17008KT
                       P6SM -RA SCT011 BKN016 OVC025 FM120200 20012KT
                       P6SM -SHRA SCT018 BKN028 OVC045 FM120800
                       16006KT P6SM SCT030 BKN045=
201105111410 KBFI 111410Z 1114/1212 15006KT P6SM -RA OVC025 FM111900 17006KT
                       P6SM -RA OVC030 FM112100 17008KT P6SM -RA
                       SCT011 BKN016 OVC025 FM120200 20012KT P6SM
                       -SHRA SCT018 BKN028 OVC045 FM120800 16006KT
                       P6SM SCT030 BKN045=
201105111140 TAF KBFI 111140Z 1112/1212 15006KT P6SM -RA SCT035 OVC060 FM111500
                       15006KT P6SM -RA SCT030 OVC045 FM111900
                       17006KT P6SM -RA OVC030 FM112100 17008KT
                       P6SM -RA SCT011 BKN016 OVC025 FM120200 20012KT
                       P6SM -SHRA SCT018 BKN028 OVC045 FM120800
                       16006KT P6SM SCT030 BKN045=
201105110538 TAF KBFI 110538Z 1106/1206 15006KT P6SM FEW050 BKN150 FM110900
                       15006KT P6SM SCT045 OVC080 FM111400 15006KT
                       P6SM SCT030 OVC045 FM111700 17006KT P6SM
                       -RA OVC030 FM112100 17008KT P6SM -RA SCT011
                       BKN016 OVC025 FM120200 20012KT P6SM -SHRA
                       SCT018 BKN028 OVC045=
201105102330 TAF KBFI 102330Z 1100/1124 VRB03KT P6SM FEW035 SCT100 OVC250 FM110300
                       VRB03KT P6SM FEW050 OVC100 FM111200 17005KT
                       P6SM SCT028 OVC050
                      PROB30 1112/1115 -RA FM111500 17005KT P6SM
                       -RA OVC028 FM111900 20009KT P6SM -RA FEW015
                       OVC025=
201105102102 KBFI 102102Z 1021/1118 20006KT P6SM BKN028 BKN250 FM102200 25006KT
                       P6SM SCT040 SCT250 FM110300 20005KT P6SM
                       FEW100 BKN250 FM110900 17005KT P6SM OVC100
                       FM111500 17005KT P6SM SCT028 OVC050
                      PROB30 1115/1118 -RA=
201105101931 KBFI 101931Z 1020/1118 VRB03KT P6SM BKN025 FM102100 25006KT P6SM
                       FEW040 SCT250 FM110300 20005KT P6SM FEW100
                       BKN250 FM110900 17005KT P6SM OVC100 FM111500
                       17005KT P6SM SCT028 OVC050
                      PROB30 1115/1118 -RA=
201105101743 TAF KBFI 101743Z 1018/1118 20006KT P6SM OVC022 FM101900 23006KT
                       P6SM BKN028 FM102000 25006KT P6SM FEW040
                       SCT250 FM110300 20005KT P6SM FEW100 BKN250
                       FM110900 17005KT P6SM OVC100 FM111500 17005KT
                       P6SM SCT028 OVC050
                      PROB30 1115/1118 -RA=
201105101441 KBFI 101441Z 1015/1112 VRB03KT P6SM OVC014 FM101800 VRB03KT P6SM
                       BKN025 FM102000 30005KT P6SM FEW045 SCT250
                       FM110900 18006KT P6SM OVC100=
201105101436 KBFI 101436Z 1015/1112 VRB03KT P6SM OVC014 FM101800 VRB03KT P6SM
                       OVC025 FM102000 30005KT P6SM FEW045 SCT250
                       FM110900 18006KT P6SM OVC100=
201105101138 TAF KBFI 101138Z 1012/1112 VRB03KT P6SM BKN012 OVC020 FM101500
                       VRB03KT P6SM SCT012 BKN022 FM101800 VRB03KT
                       P6SM SCT060 FM110900 18006KT P6SM OVC100=
201105100538 TAF KBFI 100538Z 1006/1106 VRB03KT P6SM OVC045 FM101300 VRB03KT
                       P6SM SCT020 OVC045
                      TEMPO 1013/1016 BKN020 OVC045 FM101900 VRB03KT
                       P6SM SCT040 BKN250=
201105092329 TAF KBFI 092329Z 1000/1024 VRB03KT P6SM BKN035 BKN050 FM100900
                       VRB03KT P6SM OVC028 FM101200 VRB03KT P6SM
                       OVC015 FM101800 VRB03KT P6SM OVC028 FM102000
                       28005KT P6SM FEW045 SCT250=
201105092000 KBFI 092000Z 0920/1018 VRB03KT P6SM BKN028 OVC060 FM092100 VRB03KT
                       P6SM BKN035 OVC060 FM092200 31005KT P6SM
                       SCT045 BKN060 FM100000 31005KT P6SM SCT060
                       FM100300 VRB03KT P6SM FEW060 FM101000 VRB03KT
                       P6SM OVC015=
201105091720 TAF KBFI 091720Z 0918/1018 VRB03KT P6SM BKN020 OVC035 FM092000
                       VRB03KT P6SM BKN035 OVC060 FM092200 31005KT
                       P6SM SCT045 BKN060 FM100000 31005KT P6SM
                       SCT060 FM100300 VRB03KT P6SM FEW060 FM101000
                       VRB03KT P6SM OVC015=
201105091507 KBFI 091507Z 0915/1012 VRB03KT P6SM SCT008 BKN020 OVC050
                      TEMPO 0915/0918 -DZ BKN008 OVC020 FM091800
                       25004KT P6SM BKN035 OVC060 FM092000 33006KT
                       P6SM SCT045 SCT060 FM100300 VRB04KT P6SM
                       SCT070 FM101000 16004KT P6SM BKN018=
201105091120 TAF KBFI 091120Z 0912/1012 VRB03KT P6SM BKN035 BKN050 FM091800
                       25004KT P6SM SCT035 BKN060 FM092000 33006KT
                       P6SM SCT045 SCT060 FM100300 VRB04KT P6SM
                       SCT070 FM101000 16004KT P6SM BKN018=
201105090520 TAF KBFI 090520Z 0906/1006 35004KT P6SM BKN070 BKN100 FM090900
                       VRB03KT P6SM BKN035 BKN050 FM091800 25004KT
                       P6SM SCT035 BKN060 FM092000 33006KT P6SM
                       SCT045 SCT060 FM100300 VRB04KT P6SM SCT070=
201105082322 TAF KBFI 082322Z 0900/0924 31007KT P6SM SCT060 BKN120 FM090400
                       VRB03KT P6SM SCT050 BKN100 FM090800 16003KT
                       P6SM BKN050 FM091200 16003KT P6SM BKN030
                       BKN050 FM091900 25005KT P6SM SCT040 BKN060
                       FM092300 29005KT P6SM SCT050 SCT070=
201105081725 TAF KBFI 081725Z 0818/0918 00000KT P6SM SCT030 BKN045
                      TEMPO 0818/0819 -SHRA FEW012 BKN030 OVC045
                       FM082000 32004KT P6SM BKN045 BKN080 FM090400
                       VRB03KT P6SM BKN050 FM090800 VRB03KT P6SM
                       BKN030 BKN050=
201105081533 KBFI 081533Z 0816/0912 VRB03KT P6SM BKN012 OVC040
                      TEMPO 0816/0818 -SHRA SCT012 SCT040 BKN080
                       FM081800 25004KT P6SM BKN035 BKN060 FM082100
                       29004KT P6SM BKN080 FM090300 VRB03KT P6SM
                       SCT080=
201105081120 TAF KBFI 081120Z 0812/0912 VRB03KT P6SM SCT022 OVC050
                      TEMPO 0812/0815 BKN022 FM081800 25004KT P6SM
                       BKN035 BKN060 FM082100 29004KT P6SM BKN080
                       FM090300 VRB03KT P6SM SCT080=
201105080520 TAF KBFI 080520Z 0806/0906 VRB03KT P6SM SCT025 BKN060
                      TEMPO 0806/0809 -SHRA BKN025 FM080900 VRB03KT
                       P6SM BKN022 OVC050 FM081800 25004KT P6SM
                       BKN035 BKN060 FM082200 29004KT P6SM SCT060
                       FM090300 VRB03KT P6SM SCT060=
201105080109 KBFI 080109Z 0801/0824 29006KT P6SM SCT040 BKN070 BKN090
                      TEMPO 0801/0804 -SHRA SCT020 BKN040 OVC070
                       FM080400 33005KT P6SM BKN040 BKN080 FM080900
                       VRB03KT P6SM BKN030 OVC050 FM081800 25004KT
                       P6SM BKN035 BKN080 FM082200 30004KT P6SM
                       BKN050 BKN090=
201105072328 TAF KBFI 072328Z 0800/0824 19010KT P6SM FEW020 SCT045 BKN090
                      TEMPO 0800/0804 -SHRA SCT020 BKN045 OVC090
                       FM080400 19005KT P6SM BKN040 BKN080 FM080900
                       VRB03KT P6SM BKN030 OVC050 FM081800 25004KT
                       P6SM BKN035 BKN080 FM082200 30004KT P6SM
                       BKN050 BKN090=
201105071728 TAF KBFI 071728Z 0718/0818 18010KT P6SM SCT019 BKN045 BKN090
                      TEMPO 0718/0722 -SHRA BKN019 OVC045 FM080300
                       19005KT P6SM BKN040 BKN080 FM080700 VRB03KT
                       P6SM BKN025 OVC060=
201105071155 TAF KBFI 071155Z 0712/0812 16006KT P6SM -RA BKN025 OVC035 FM071300
                       18008G18KT P6SM -SHRA BKN025 FM071900 19010KT
                       P6SM -SHRA BKN035 OVC060 FM080300 17005KT
                       P6SM VCSH BKN040 BKN060 FM080600 18005KT
                       P6SM SCT030 BKN060
                      TEMPO 0810/0812 OVC030=
201105070730 KBFI 070730Z 0708/0806 16006KT P6SM -SHRA SCT018 OVC035
                      TEMPO 0708/0711 BKN018 FM071100 19012KT P6SM
                       -SHRA BKN025 OVC050 FM071900 19012KT P6SM
                       -SHRA BKN035 OVC060 FM080300 17005KT P6SM
                       VCSH BKN040 BKN060=
201105070520 TAF KBFI 070520Z 0706/0806 16006KT P6SM -RA BKN018 OVC035 FM071200
                       19012KT P6SM -SHRA BKN025 OVC050 FM071900
                       19012KT P6SM -SHRA BKN035 OVC060 FM080300
                       17005KT P6SM VCSH BKN040 BKN060=
201105062321 TAF KBFI 062321Z 0700/0724 20008KT P6SM SCT023 OVC045
                      TEMPO 0700/0703 4SM -RA BR OVC023 FM070300
                       16006KT P6SM -RA BKN020 OVC035 FM071200
                       19012KT P6SM -SHRA BKN025 OVC050 FM071900
                       19012KT P6SM BKN035 OVC060=
201105062059 KBFI 062059Z 0621/0718 19005KT P6SM SCT040 OVC070
                      TEMPO 0621/0623 -RA BKN030 OVC040 FM062300
                       19007KT P6SM -RA BKN028 OVC050 FM070300
                       16006KT P6SM -RA BKN020 OVC035 FM071200
                       19012KT P6SM -SHRA BKN025 OVC050=
201105061728 TAF KBFI 061728Z 0618/0718 18007KT P6SM BKN023 OVC050 FM062200
                       19007KT P6SM -RA BKN028 OVC050 FM070300
                       16006KT P6SM -RA BKN020 OVC035 FM071200
                       19012KT P6SM -SHRA BKN025 OVC050=
201105061407 KBFI 061407Z 0614/0712 17007KT P6SM SCT017 OVC060
                      TEMPO 0614/0618 -RA BKN017 OVC060 FM061800
                       16005KT P6SM BKN035 OVC050 FM070200 17007KT
                       P6SM -RA OVC035=
201105061120 TAF KBFI 061120Z 0612/0712 VRB03KT P6SM SCT035 BKN060 FM061900
                       16005KT P6SM BKN035 OVC050 FM070200 17007KT
                       P6SM -RA OVC035=
201105060520 TAF KBFI 060520Z 0606/0706 19005KT P6SM VCSH BKN040 FM061200 VRB03KT
                       P6SM OVC030 FM061900 16005KT P6SM BKN035
                       OVC050 FM070100 17007KT P6SM -RA OVC035=
201105052320 TAF KBFI 052320Z 0600/0624 VRB04KT P6SM VCSH SCT035 BKN070
                      TEMPO 0600/0604 -SHRA BKN030 OVC050 FM061200
                       16006KT P6SM OVC030 FM061900 18008KT P6SM
                       -RA BKN025 OVC050=
201105051722 TAF KBFI 051722Z 0518/0618 17010KT P6SM SCT018 OVC035
                      TEMPO 0518/0521 BKN018 OVC030 FM052100 20010KT
                       P6SM SCT025 BKN040 FM060700 17007KT P6SM
                       BKN035 FM061200 17007KT P6SM OVC030
                      TEMPO 0615/0618 5SM -RA BR OVC020=
201105051603 KBFI 051603Z 0516/0612 17007KT P6SM SCT015 OVC040
                      TEMPO 0516/0519 5SM -SHRA BR BKN015 OVC030
                       FM051900 19010KT P6SM VCSH SCT020 BKN040
                       FM060600 19008KT P6SM BKN040 FM061000 16006KT
                       P6SM OVC025=
201105051316 KBFI 051316Z 0513/0612 15006KT P6SM -RA SCT035 OVC060 FM051430
                       16006KT P6SM -RA OVC035 FM051800 19010KT
                       P6SM -SHRA BKN035 FM052000 16007KT P6SM
                       VCSH BKN035 FM060400 16005KT P6SM BKN035=
201105051120 TAF KBFI 051120Z 0512/0612 VRB04KT P6SM -RA BKN060 BKN100 FM051300
                       16007KT P6SM -RA OVC035 FM051800 19010KT
                       P6SM -SHRA BKN035 FM052000 16007KT P6SM
                       VCSH BKN035 FM060400 16005KT P6SM BKN035=
201105050525 TAF KBFI 050525Z 0506/0606 33007KT P6SM BKN200 FM050900 VRB03KT
                       P6SM SCT030 BKN100 FM051100 VRB04KT P6SM
                       VCSH BKN040 BKN100 FM051400 16007KT P6SM
                       -RA OVC030 FM051800 19010KT P6SM -SHRA BKN035
                       FM052000 16007KT P6SM VCSH BKN035 FM060400
                       16005KT P6SM BKN035=
201105042320 TAF KBFI 042320Z 0500/0524 33007KT P6SM BKN200 FM050900 VRB03KT
                       P6SM SCT030 BKN100 FM051100 16005KT P6SM
                       VCSH BKN040 BKN100 FM051600 16005KT P6SM
                       VCSH OVC035 FM052000 23008KT P6SM BKN040=
201105041720 TAF KBFI 041720Z 0418/0518 36006KT P6SM SCT250 FM050400 33006KT
                       P6SM BKN200 FM050900 VRB03KT P6SM SCT035
                       BKN100 FM051400 16006KT P6SM VCSH BKN035
                       OVC050=
201105041137 TAF KBFI 041137Z 0412/0512 02004KT P6SM SKC FM041800 33008KT P6SM
                       SCT250 FM050300 36004KT P6SM SCT120 BKN200
                       FM050900 18004KT P6SM SCT070 BKN100=
201105040539 TAF KBFI 040539Z 0406/0506 02004KT P6SM VCSH BKN050 BKN060 FM040800
                       04008KT P6SM BKN050 FM041200 02004KT P6SM
                       FEW015 FM041800 33008KT P6SM SCT250=
201105032327 TAF KBFI 032327Z 0400/0424 02006KT P6SM VCSH SCT040 BKN060 FM040300
                       VRB03KT P6SM SCT060
                      TEMPO 0403/0406 BKN060 FM041200 VRB03KT P6SM
                       FEW013 FM041800 30006KT P6SM SCT250=
201105031857 KBFI 031857Z 0319/0418 17008KT P6SM SCT028 BKN060 FM032100 24006KT
                       P6SM VCSH SCT035 BKN060 FM040000 32006KT
                       P6SM VCSH SCT035 BKN060 FM040300 VRB03KT
                       P6SM SCT060
                      TEMPO 0403/0405 BKN060 FM041200 VRB03KT P6SM
                       FEW013=
201105031720 TAF KBFI 031720Z 0318/0418 16008KT P6SM BKN025 BKN050 FM031900
                       VRB05KT P6SM VCSH BKN030 BKN050 FM032100
                       24006KT P6SM VCSH BKN035 BKN060 FM040000
                       32006KT P6SM VCSH SCT035 BKN060 FM040300
                       VRB03KT P6SM SCT060
                      TEMPO 0403/0405 BKN060 FM041200 VRB03KT P6SM
                       FEW013=
201105031627 KBFI 031627Z 0316/0412 VRB05KT P6SM BKN022 OVC060 FM031800 20006KT
                       P6SM BKN030 BKN060 FM032000 25006KT P6SM
                       BKN035 BKN050 FM040000 35006KT P6SM SCT035
                       BKN060 FM040600 04004KT P6SM BKN040=
201105031412 KBFI 031412Z 0314/0412 VRB03KT P6SM BKN018 OVC028
                      TEMPO 0314/0318 -SHRA FM031800 20006KT P6SM
                       BKN030 FM032000 25006KT P6SM BKN035 BKN050
                       FM040000 35006KT P6SM SCT035 BKN060 FM040600
                       04004KT P6SM BKN040=
201105031135 TAF KBFI 031135Z 0312/0412 20006KT P6SM VCSH BKN022 BKN080 FM031800
                       20006KT P6SM BKN030 FM032000 25006KT P6SM
                       BKN035 BKN050 FM040000 35006KT P6SM SCT035
                       BKN060 FM040600 04004KT P6SM BKN040=
201105030522 TAF KBFI 030522Z 0306/0406 20007KT P6SM VCSH BKN028 BKN060 FM031200
                       20004KT P6SM OVC025
                      TEMPO 0312/0316 OVC020 FM032000 25006KT P6SM
                       BKN035 BKN050 FM040000 35006KT P6SM SCT035
                       BKN060=
201105022320 TAF KBFI 022320Z 0300/0324 18009KT P6SM BKN028 OVC050
                      TEMPO 0300/0302 -SHRA OVC018 FM030200 20012KT
                       P6SM BKN035 BKN050
                      TEMPO 0302/0304 -SHRA FM030600 18007KT P6SM
                       SCT035 BKN050 FM031200 18007KT P6SM OVC028
                       PROB30 0315/0320 -SHRA FM032000 VRB04KT
                       P6SM BKN035 BKN050
                      PROB30 0320/0324 -SHRA=
201105022053 KBFI 022053Z 0221/0318 21013KT P6SM SCT015 SCT030 OVC050
                      TEMPO 0222/0301 5SM SHRA BKN015 OVC030 FM030200
                       19008KT P6SM SCT030 BKN050 FM031200 17008KT
                       P6SM OVC028
                      PROB30 0315/0318 -SHRA=
201105021858 KBFI 021858Z 0219/0318 19011KT P6SM -RA FEW008 SCT015 OVC035
                      TEMPO 0219/0222 5SM -RA BR FEW008 BKN015
                       OVC030 FM022200 21013KT P6SM BKN030 OVC050
                       TEMPO 0222/0302 -SHRA FM030200 19008KT P6SM
                       SCT030 BKN050 FM031200 17008KT P6SM OVC028
                       PROB30 0315/0318 -SHRA=
201105021730 TAF KBFI 021730Z 0218/0318 19008KT 6SM -RA BR OVC035
                      TEMPO 0218/0220 4SM -RA BR OVC028 FM022000
                       19013KT 5SM -RA BR SCT015 OVC028
                      TEMPO 0220/0222 3SM -RA BR BKN015 OVC028
                       FM022200 21013KT P6SM BKN030 OVC050
                      TEMPO 0222/0302 -SHRA FM030200 19008KT P6SM
                       SCT030 BKN050 FM031200 17008KT P6SM OVC028
                       PROB30 0315/0318 -SHRA=
201105021614 KBFI 021614Z 0216/0312 17005KT 6SM -RA BR SCT015 OVC030
                      TEMPO 0216/0219 4SM -RA BR BKN018 OVC030
                       FM021900 17009KT P6SM -RA BKN030 OVC045
                       FM022100 22012G22KT P6SM -SHRA BKN030 OVC045
                       FM030700 19010KT P6SM VCSH OVC030=
201105021132 TAF KBFI 021132Z 0212/0312 14003KT P6SM BKN100 OVC150 FM021300
                       16005KT P6SM BKN050 OVC070 FM021500 17005KT
                       P6SM -RA SCT030 OVC045 FM021700 17009KT
                       P6SM -RA BKN030 OVC045 FM022100 22012G22KT
                       P6SM -SHRA BKN030 OVC045 FM030700 19010KT
                       P6SM VCSH OVC030=
201105020521 TAF KBFI 020521Z 0206/0306 33004KT P6SM BKN200 FM021100 16003KT
                       P6SM BKN100 OVC150 FM021300 16005KT P6SM
                       BKN050 OVC070 FM021500 17005KT P6SM -RA
                       SCT030 OVC045 FM021700 17009KT P6SM -RA
                       BKN025 OVC045 FM022100 22012G22KT P6SM -SHRA
                       BKN030 OVC045=
201105012320 TAF KBFI 012320Z 0200/0224 33004KT P6SM SCT200 FM020400 VRB02KT
                       P6SM BKN200 FM021100 16003KT P6SM BKN100
                       OVC150 FM021300 16005KT P6SM BKN050 OVC070
                       FM021500 17005KT P6SM -RA SCT030 OVC045
                       FM021700 17009KT P6SM -RA BKN025 OVC045
                       FM022100 22012G22KT P6SM -SHRA BKN030 OVC045=
201105011722 TAF KBFI 011722Z 0118/0218 30004KT P6SM SKC FM020400 VRB02KT P6SM
                       BKN200 FM021100 16003KT P6SM BKN100 OVC150
                       FM021300 16005KT P6SM BKN050 OVC070 FM021500
                       17005KT P6SM -RA SCT030 OVC045 FM021700
                       17007KT P6SM -RA BKN030 OVC045=
201105011123 TAF KBFI 011123Z 0112/0212 VRB03KT P6SM SKC FM011800 30005KT P6SM
                       SCT250 FM020000 35005KT P6SM SCT150 BKN250
                       FM020800 18006KT P6SM BKN070 OVC120=
201105010521 TAF KBFI 010521Z 0106/0206 01006KT P6SM SCT070 FM010700 VRB03KT
                       P6SM SKC FM011800 30005KT P6SM SCT250 FM020000
                       35005KT P6SM SCT150 BKN250=