##########################################################
# Query made at 02/17/2025 01:34:18 UTC
# Time interval: from 08/01/2011 00:00  to 08/31/2011 23:59  UTC
##########################################################

##########################################################
# KBFI, Seattle, Seattle Boeing Field (United States)
# WMO index: -----. WIGOS ID: Unknown
# Latitude 47-32-45N. Longitude 122-18-49W. Altitude 5 m.
##########################################################

###################################
#  METAR/SPECI from KBFI
###################################
201108312353 METAR KBFI 312353Z VRB03KT 10SM FEW045 BKN055 19/08 A3002 RMK AO2 SLP165 T01940083 10206 20144 51001=
201108312253 METAR KBFI 312253Z VRB05KT 10SM SCT041 19/09 A3002 RMK AO2 SLP164 T01940089=
201108312153 METAR KBFI 312153Z VRB05KT 10SM FEW038 BKN080 20/09 A3002 RMK AO2 SLP164 T02000094=
201108312053 METAR KBFI 312053Z 23003KT 10SM SCT034 BKN080 18/09 A3002 RMK AO2 SLP164 T01830094 56001=
201108311953 METAR KBFI 311953Z 14004KT 10SM SCT030 SCT070 BKN095 17/09 A3002 RMK AO2 SLP164 T01670089=
201108311853 METAR KBFI 311853Z 00000KT 10SM SCT023 BKN090 16/09 A3002 RMK AO2 SLP164 T01560089=
201108311800 SPECI KBFI 311800Z VRB04KT 10SM FEW022 OVC039 15/09 A3002 RMK AO2=
201108311800 SPECI KBFI 311800Z VRB04KT 10SM FEW022 OVC039 15/09 A3002=
201108311753 METAR KBFI 311753Z 21006KT 10SM BKN022 OVC041 14/09 A3002 RMK AO2 SLP165 T01440089 10144 20122 53008=
201108311740 SPECI KBFI 311740Z VRB04KT 10SM BKN022 OVC041 14/09 A3002 RMK AO2=
201108311740 SPECI KBFI 311740Z VRB04KT 10SM BKN022 OVC041 14/09 A3002 RMK AO2=
201108311653 METAR KBFI 311653Z COR VRB03KT 10SM BKN022 BKN038 OVC060 14/09 A3001 RMK AO2 SLP161 T01440094=
201108311553 METAR KBFI 311553Z 16006KT 10SM OVC020 14/09 A2999 RMK AO2 SLP157 T01390094=
201108311500 SPECI KBFI 311500Z 15004KT 10SM SCT018 OVC048 13/09 A3000 RMK AO2=
201108311500 SPECI KBFI 311500Z 15004KT 10SM SCT018 OVC048 13/09 A3000 RMK AO2=
201108311453 METAR KBFI 311453Z 16005KT 10SM BKN022 OVC046 13/09 A3000 RMK AO2 SLP157 T01280094 53007=
201108311353 METAR KBFI 311353Z 21003KT 10SM OVC020 12/09 A2999 RMK AO2 SLP154 T01220094=
201108311340 SPECI KBFI 311340Z 00000KT 10SM BKN018 OVC050 12/09 A2998 RMK AO2=
201108311340 SPECI KBFI 311340Z 00000KT 10SM BKN018 OVC050 12/09 A2998 RMK AO2=
201108311253 METAR KBFI 311253Z 18007KT 10SM FEW020 OVC045 13/09 A2997 RMK AO2 SLP150 T01280089=
201108311153 METAR KBFI 311153Z 17006KT 10SM FEW020 BKN055 12/09 A2997 RMK AO2 SLP150 T01220089 10150 20122 51003=
201108311053 METAR KBFI 311053Z 16006KT 10SM OVC055 13/09 A2997 RMK AO2 SLP149 T01280089=
201108310953 METAR KBFI 310953Z 17003KT 10SM FEW055 OVC085 13/08 A2997 RMK AO2 SLP148 T01280083=
201108310853 METAR KBFI 310853Z 18003KT 10SM BKN060 OVC080 13/08 A2997 RMK AO2 SLP147 T01330083 53000=
201108310753 METAR KBFI 310753Z 18003KT 10SM FEW027 SCT080 13/08 A2996 RMK AO2 SLP144 T01330083 402170128=
201108310653 METAR KBFI 310653Z 16003KT 10SM SCT027 OVC080 14/08 A2996 RMK AO2 SLP146 T01440078=
201108310553 METAR KBFI 310553Z 00000KT 10SM BKN080 15/08 A2996 RMK AO2 SLP146 T01500083 10206 20144 51014=
201108310453 METAR KBFI 310453Z 25003KT 10SM FEW065 16/12 A2996 RMK AO2 SLP144 T01560117=
201108310353 METAR KBFI 310353Z 00000KT 10SM OVC060 17/11 A2994 RMK AO2 SLP139 T01720111=
201108310253 METAR KBFI 310253Z 32005KT 10SM BKN055 OVC070 18/11 A2992 RMK AO2 SLP133 T01830111 55006=
201108310153 METAR KBFI 310153Z VRB03KT 10SM OVC055 20/08 A2992 RMK AO2 SLP131 T02000083=
201108310053 METAR KBFI 310053Z 00000KT 10SM SCT048 BKN065 19/10 A2992 RMK AO2 SLP132 T01940100=
201108302353 METAR KBFI 302353Z VRB05KT 10SM FEW038 SCT060 21/11 A2994 RMK AO2 SLP139 60000 T02060106 10217 20133 56014=
201108302253 METAR KBFI 302253Z 00000KT 10SM SCT038 20/11 A2995 RMK AO2 SLP142 T02000106=
201108302153 METAR KBFI 302153Z 20007KT 10SM FEW050 20/10 A2997 RMK AO2 SLP150 T02000100=
201108302053 METAR KBFI 302053Z 19004KT 10SM FEW012 SCT020 BKN040 18/10 A2999 RMK AO2 SLP153 60000 T01780100 57010=
201108301953 METAR KBFI 301953Z 00000KT 10SM SCT018 BKN029 OVC049 17/12 A3000 RMK AO2 SLP157 T01670122=
201108301853 METAR KBFI 301853Z 24003KT 10SM SCT010 BKN018 OVC030 15/12 A3000 RMK AO2 RAB00E19 SLP160 P0000 T01500122=
201108301753 METAR KBFI 301753Z 21004KT 8SM BKN013 OVC020 14/13 A3002 RMK AO2 SLP163 60000 T01440128 10161 20144 52006=
201108301653 METAR KBFI 301653Z 00000KT 10SM SCT012 BKN020 OVC034 15/12 A3001 RMK AO2 RAB22E31 SLP161 P0000 T01500122=
201108301553 METAR KBFI 301553Z 00000KT 10SM SCT012 BKN028 OVC034 16/11 A3000 RMK AO2 SLP160 T01560106=
201108301453 METAR KBFI 301453Z 05004KT 10SM SCT010 BKN020 OVC034 16/11 A3000 RMK AO2 RAE1356 SLP158 P0000 60000 T01560106 53007=
201108301431 SPECI KBFI 301431Z 08004KT 10SM SCT010 BKN027 OVC034 16/11 A2999 RMK AO2 RAE1356 P0000=
201108301431 SPECI KBFI 301431Z 08004KT 10SM SCT010 BKN027 OVC034 16/11 A2999 RMK AO2 RAE1356 P0000=
201108301353 METAR KBFI 301353Z 07004KT 10SM -RA SCT016 OVC034 16/11 A2999 RMK AO2 RAB40 SLP154 P0000 T01560111=
201108301253 METAR KBFI 301253Z 00000KT 10SM OVC034 16/11 A2998 RMK AO2 SLP152 T01610106=
201108301153 METAR KBFI 301153Z 07006KT 10SM OVC036 16/11 A2998 RMK AO2 SLP151 T01610106 10189 20161 51003=
201108301053 METAR KBFI 301053Z 00000KT 10SM OVC036 16/11 A2998 RMK AO2 SLP151 T01610111=
201108300953 METAR KBFI 300953Z 06006KT 10SM OVC032 17/11 A2997 RMK AO2 SLP149 T01670111=
201108300909 SPECI KBFI 300909Z 01003KT 10SM OVC030 17/11 A2997 RMK AO2=
201108300909 SPECI KBFI 300909Z 01003KT 10SM OVC030 17/11 A2997 RMK AO2=
201108300853 METAR KBFI 300853Z 00000KT 10SM OVC028 17/12 A2997 RMK AO2 SLP148 T01720117 53002=
201108300815 SPECI KBFI 300815Z VRB03KT 10SM BKN026 OVC048 18/12 A2996 RMK AO2=
201108300815 SPECI KBFI 300815Z VRB03KT 10SM BKN026 OVC048 18/12 A2996 RMK AO2=
201108300753 METAR KBFI 300753Z VRB04KT 10SM BKN033 OVC048 18/13 A2996 RMK AO2 SLP147 T01830128 402280144=
201108300653 METAR KBFI 300653Z 00000KT 10SM BKN038 OVC049 18/13 A2996 RMK AO2 SLP145 T01780128=
201108300553 METAR KBFI 300553Z 00000KT 10SM SCT038 OVC049 19/13 A2996 RMK AO2 SLP146 T01890128 10217 20189 51002=
201108300453 METAR KBFI 300453Z 00000KT 10SM OVC050 19/13 A2996 RMK AO2 SLP146 T01940128=
201108300353 METAR KBFI 300353Z 00000KT 10SM OVC050 19/13 A2996 RMK AO2 SLP146 T01940128=
201108300253 METAR KBFI 300253Z VRB03KT 10SM SCT050 SCT200 19/13 A2996 RMK AO2 SLP143 T01940128 58006=
201108300153 METAR KBFI 300153Z COR VRB05KT 10SM SCT050 SCT200 20/13 A2996 RMK AO2 SLP146 T02000128=
201108300053 METAR KBFI 300053Z 24007KT 10SM SCT040 SCT200 21/12 A2997 RMK AO2 SLP149 T02110117=
201108292353 METAR KBFI 292353Z 16008KT 10SM FEW039 22/12 A2997 RMK AO2 SLP150 T02170117 10228 20172 58009=
201108292253 METAR KBFI 292253Z 21007KT 10SM FEW035 SCT200 22/11 A2998 RMK AO2 SLP153 T02170106=
201108292153 METAR KBFI 292153Z 18011G16KT 10SM BKN039 BKN200 21/11 A3000 RMK AO2 SLP158 T02110111=
201108292053 METAR KBFI 292053Z 21008KT 10SM SCT021 BKN032 19/12 A3000 RMK AO2 SLP159 T01940117 56003=
201108291953 METAR KBFI 291953Z 19007KT 10SM SCT022 BKN030 19/12 A3000 RMK AO2 SLP160 T01940117=
201108291948 SPECI KBFI 291948Z 15006KT 10SM SCT022 BKN030 19/12 A3001 RMK AO2=
201108291948 SPECI KBFI 291948Z 15006KT 10SM SCT022 BKN030 19/12 A3001 RMK AO2=
201108291853 METAR KBFI 291853Z 18007KT 10SM OVC026 18/12 A3001 RMK AO2 SLP162 T01780117=
201108291753 METAR KBFI 291753Z 16008KT 10SM BKN022 OVC028 17/12 A3001 RMK AO2 SLP163 T01720122 10178 20150 53003=
201108291653 METAR KBFI 291653Z 17006KT 10SM SCT017 OVC023 17/12 A3000 RMK AO2 SLP159 T01720117=
201108291553 METAR KBFI 291553Z 18008KT 10SM OVC021 16/12 A2999 RMK AO2 SLP155 T01610122=
201108291453 METAR KBFI 291453Z 21005KT 10SM OVC021 16/12 A3000 RMK AO2 SLP159 T01610117 53010=
201108291353 METAR KBFI 291353Z 18006KT 10SM OVC019 16/12 A2998 RMK AO2 SLP153 T01560117=
201108291253 METAR KBFI 291253Z 19005G15KT 10SM OVC017 16/12 A2998 RMK AO2 SLP152 T01560122=
201108291153 METAR KBFI 291153Z 16011KT 10SM OVC015 16/12 A2997 RMK AO2 SLP149 T01560122 10194 20144 53006=
201108291132 SPECI KBFI 291132Z 17005KT 10SM OVC015 16/12 A2997 RMK AO2=
201108291132 SPECI KBFI 291132Z 17005KT 10SM OVC015 16/12 A2997 RMK AO2=
201108291053 METAR KBFI 291053Z 18008G15KT 10SM OVC013 15/12 A2996 RMK AO2 SLP146 T01500122=
201108290953 METAR KBFI 290953Z VRB04KT 10SM OVC013 15/12 A2996 RMK AO2 SLP145 T01500122=
201108290927 SPECI KBFI 290927Z VRB04KT 10SM BKN013 14/12 A2996 RMK AO2=
201108290927 SPECI KBFI 290927Z VRB04KT 10SM BKN013 14/12 A2996 RMK AO2=
201108290853 METAR KBFI 290853Z VRB03KT 10SM FEW014 14/12 A2996 RMK AO2 SLP144 T01440122 51012=
201108290753 METAR KBFI 290753Z 19005KT 10SM CLR 16/13 A2995 RMK AO2 SLP143 T01560128 402610133=
201108290653 METAR KBFI 290653Z 18005KT 10SM CLR 17/14 A2993 RMK AO2 SLP136 T01720139=
201108290553 METAR KBFI 290553Z 19004KT 10SM CLR 19/14 A2992 RMK AO2 SLP132 T01940139 10261 20194 51007=
201108290453 METAR KBFI 290453Z 23004KT 10SM CLR 21/14 A2991 RMK AO2 SLP129 T02110139=
201108290353 METAR KBFI 290353Z 29003KT 10SM CLR 22/13 A2991 RMK AO2 SLP129 T02220128=
201108290253 METAR KBFI 290253Z 00000KT 10SM CLR 23/13 A2990 RMK AO2 SLP124 T02330133 55005=
201108290153 METAR KBFI 290153Z 28003KT 10SM CLR 25/13 A2990 RMK AO2 SLP124 T02500133=
201108290053 METAR KBFI 290053Z 33004KT 10SM CLR 26/13 A2990 RMK AO2 SLP126 T02560133=
201108282353 METAR KBFI 282353Z VRB03KT 10SM FEW100 26/13 A2991 RMK AO2 SLP129 T02560133 10256 20167 58016=
201108282253 METAR KBFI 282253Z VRB06KT 10SM CLR 24/13 A2993 RMK AO2 SLP134 T02440133=
201108282153 METAR KBFI 282153Z 32005KT 10SM CLR 24/12 A2995 RMK AO2 SLP141 T02440122=
201108282053 METAR KBFI 282053Z 33008KT 10SM CLR 22/11 A2996 RMK AO2 SLP145 T02220111 56016=
201108281953 METAR KBFI 281953Z 30008KT 10SM CLR 21/12 A2997 RMK AO2 SLP150 T02060122=
201108281853 METAR KBFI 281853Z 32006KT 10SM CLR 18/13 A2999 RMK AO2 SLP155 T01830128=
201108281753 METAR KBFI 281753Z 33006KT 10SM CLR 17/13 A3001 RMK AO2 SLP161 T01670128 10167 20133 56008=
201108281653 METAR KBFI 281653Z VRB05KT 10SM CLR 16/13 A3002 RMK AO2 SLP164 T01610128=
201108281553 METAR KBFI 281553Z 30006KT 9SM CLR 15/13 A3002 RMK AO2 SLP166 T01500128=
201108281453 METAR KBFI 281453Z COR 33003KT 10SM FEW008 15/13 A3003 RMK AO2 SLP169 T01500128 51003=
201108281451 SPECI KBFI 281451Z 34004KT 10SM FEW008 14/13 A3003 RMK AO2=
201108281451 SPECI KBFI 281451Z 34004KT 10SM FEW008 14/13 A3003 RMK AO2=
201108281427 SPECI KBFI 281427Z VRB03KT 10SM BKN008 14/13 A3003 RMK AO2=
201108281427 SPECI KBFI 281427Z VRB03KT 10SM BKN008 14/13 A3003 RMK AO2=
201108281418 SPECI KBFI 281418Z 00000KT 10SM SCT008 14/13 A3003 RMK AO2=
201108281418 SPECI KBFI 281418Z 00000KT 10SM SCT008 14/13 A3003 RMK AO2=
201108281353 METAR KBFI 281353Z 00000KT 10SM CLR 14/12 A3003 RMK AO2 SLP169 T01390117=
201108281253 METAR KBFI 281253Z 00000KT 10SM CLR 14/12 A3002 RMK AO2 SLP166 T01390117=
201108281153 METAR KBFI 281153Z 00000KT 10SM CLR 15/12 A3003 RMK AO2 SLP168 T01500122 10189 20150 50001=
201108281053 METAR KBFI 281053Z 00000KT 10SM CLR 16/12 A3003 RMK AO2 SLP168 T01560122=
201108280953 METAR KBFI 280953Z 00000KT 10SM CLR 16/12 A3004 RMK AO2 SLP171 T01560117=
201108280853 METAR KBFI 280853Z 00000KT 10SM CLR 17/12 A3003 RMK AO2 SLP167 T01670117 50000=
201108280753 METAR KBFI 280753Z 00000KT 10SM CLR 17/11 A3004 RMK AO2 SLP171 T01720111 402720150=
201108280653 METAR KBFI 280653Z 00000KT 10SM CLR 17/10 A3004 RMK AO2 SLP171 T01720100=
201108280553 METAR KBFI 280553Z 00000KT 10SM CLR 19/10 A3002 RMK AO2 SLP167 T01890100 10261 20189 50007=
201108280453 METAR KBFI 280453Z 00000KT 10SM CLR 20/09 A3003 RMK AO2 SLP167 T02000089=
201108280353 METAR KBFI 280353Z VRB05KT 10SM CLR 21/08 A3002 RMK AO2 SLP165 T02110078=
201108280253 METAR KBFI 280253Z VRB03KT 10SM CLR 23/04 A3000 RMK AO2 SLP159 T02280044 55002=
201108280153 METAR KBFI 280153Z 31004KT 10SM CLR 24/04 A3000 RMK AO2 SLP157 T02440039=
201108280053 METAR KBFI 280053Z 31005KT 10SM CLR 26/04 A3000 RMK AO2 SLP159 T02560039=
201108272353 METAR KBFI 272353Z 29007KT 10SM CLR 26/05 A3001 RMK AO2 SLP161 T02560050 10272 20222 56014=
201108272253 METAR KBFI 272253Z 30009G16KT 10SM CLR 26/09 A3002 RMK AO2 SLP164 T02610094=
201108272153 METAR KBFI 272153Z 32007KT 10SM CLR 26/09 A3003 RMK AO2 SLP169 T02610089=
201108272053 METAR KBFI 272053Z 33006KT 10SM CLR 26/13 A3005 RMK AO2 SLP175 T02560128 58004=
201108271953 METAR KBFI 271953Z 33003KT 10SM CLR 25/12 A3005 RMK AO2 SLP176 T02500122=
201108271853 METAR KBFI 271853Z VRB04KT 10SM CLR 23/13 A3006 RMK AO2 SLP179 T02330133=
201108271753 METAR KBFI 271753Z 30004KT 10SM CLR 22/14 A3006 RMK AO2 SLP179 T02220139 10222 20150 51005=
201108271653 METAR KBFI 271653Z 34003KT 10SM CLR 21/14 A3006 RMK AO2 SLP178 T02060139=
201108271553 METAR KBFI 271553Z 00000KT 10SM CLR 18/14 A3006 RMK AO2 SLP177 T01830139=
201108271453 METAR KBFI 271453Z 00000KT 10SM CLR 16/13 A3005 RMK AO2 SLP174 T01610128 51010=
201108271353 METAR KBFI 271353Z 00000KT 10SM CLR 16/13 A3004 RMK AO2 SLP172 T01560128=
201108271253 METAR KBFI 271253Z 00000KT 10SM CLR 16/13 A3003 RMK AO2 SLP167 T01560128=
201108271153 METAR KBFI 271153Z 00000KT 10SM CLR 16/13 A3002 RMK AO2 SLP164 T01610133 10217 20161 53002=
201108271053 METAR KBFI 271053Z AUTO 00000KT 10SM CLR 17/13 A3002 RMK AO2 SLP164 T01670133 TSNO=
201108270953 METAR KBFI 270953Z 32003KT 10SM CLR 18/13 A3001 RMK AO2 SLP161 T01780133=
201108270853 METAR KBFI 270853Z 00000KT 10SM CLR 18/13 A3001 RMK AO2 SLP162 T01830133 53007=
201108270753 METAR KBFI 270753Z 00000KT 10SM CLR 19/13 A3000 RMK AO2 SLP159 T01940133 402720167=
201108270653 METAR KBFI 270653Z 00000KT 10SM CLR 21/14 A2999 RMK AO2 SLP156 T02060139=
201108270553 METAR KBFI 270553Z 36003KT 10SM CLR 22/13 A2999 RMK AO2 SLP155 T02170128 10272 20206 51009=
201108270453 METAR KBFI 270453Z 00000KT 10SM CLR 22/13 A2998 RMK AO2 SLP153 T02170133=
201108270353 METAR KBFI 270353Z 35003KT 10SM CLR 23/13 A2997 RMK AO2 SLP150 T02330128=
201108270253 METAR KBFI 270253Z 30005KT 10SM CLR 24/13 A2996 RMK AO2 SLP146 T02390128 55001=
201108270153 METAR KBFI 270153Z 29004KT 10SM CLR 26/12 A2996 RMK AO2 SLP144 T02610117=
201108270053 METAR KBFI 270053Z 31008G14KT 10SM CLR 27/11 A2996 RMK AO2 SLP144 T02670111=
201108262353 METAR KBFI 262353Z 31009G14KT 10SM CLR 27/12 A2997 RMK AO2 SLP147 T02670117 10272 20211 56009=
201108262253 METAR KBFI 262253Z 33008KT 10SM CLR 27/13 A2997 RMK AO2 SLP149 T02720133=
201108262153 METAR KBFI 262153Z 33007KT 10SM CLR 27/13 A2999 RMK AO2 SLP154 T02670133=
201108262053 METAR KBFI 262053Z 31005KT 10SM CLR 25/15 A2999 RMK AO2 SLP157 T02500150 56017=
201108261953 METAR KBFI 261953Z VRB04KT 10SM CLR 24/14 A3001 RMK AO2 SLP162 T02390144=
201108261853 METAR KBFI 261853Z 28005KT 10SM CLR 22/14 A3002 RMK AO2 SLP166 T02220139=
201108261753 METAR KBFI 261753Z VRB03KT 10SM CLR 21/13 A3004 RMK AO2 SLP173 T02110133 10211 20167 53003=
201108261653 METAR KBFI 261653Z 31005KT 10SM CLR 20/13 A3004 RMK AO2 SLP171 T02000133=
201108261553 METAR KBFI 261553Z VRB03KT 10SM CLR 19/14 A3004 RMK AO2 SLP170 T01940139=
201108261453 METAR KBFI 261453Z 00000KT 10SM CLR 18/14 A3003 RMK AO2 SLP170 T01780139 53013=
201108261353 METAR KBFI 261353Z 00000KT 10SM CLR 17/13 A3002 RMK AO2 SLP164 T01670133=
201108261253 METAR KBFI 261253Z 00000KT 10SM CLR 17/13 A3000 RMK AO2 SLP159 T01670133=
201108261153 METAR KBFI 261153Z 00000KT 10SM CLR 17/14 A3000 RMK AO2 SLP158 T01720139 10211 20172 53001=
201108261053 METAR KBFI 261053Z 00000KT 10SM CLR 18/14 A2999 RMK AO2 SLP156 T01780139=
201108260953 METAR KBFI 260953Z 00000KT 10SM CLR 18/14 A2999 RMK AO2 SLP155 T01830139=
201108260853 METAR KBFI 260853Z VRB03KT 10SM CLR 19/13 A3000 RMK AO2 SLP157 T01890133 50002=
201108260753 METAR KBFI 260753Z VRB03KT 10SM CLR 20/14 A3000 RMK AO2 SLP159 T02000139 402780161=
201108260653 METAR KBFI 260653Z 00000KT 10SM CLR 21/14 A2999 RMK AO2 SLP157 T02060139=
201108260553 METAR KBFI 260553Z 00000KT 10SM CLR 21/14 A2999 RMK AO2 SLP155 T02110139 10267 20211 51012=
201108260453 METAR KBFI 260453Z 00000KT 10SM CLR 22/13 A2998 RMK AO2 SLP151 T02170133=
201108260353 METAR KBFI 260353Z 29004KT 10SM CLR 22/13 A2997 RMK AO2 SLP149 T02170133=
201108260253 METAR KBFI 260253Z VRB04KT 10SM CLR 23/13 A2996 RMK AO2 SLP143 T02330128 53003=
201108260153 METAR KBFI 260153Z 31006KT 10SM CLR 25/12 A2995 RMK AO2 SLP140 T02500122=
201108260053 METAR KBFI 260053Z 30007KT 10SM CLR 26/13 A2994 RMK AO2 SLP140 T02610128=
201108252353 METAR KBFI 252353Z 31005KT 10SM CLR 27/13 A2995 RMK AO2 SLP141 T02720133 10278 20222 56010=
201108252253 METAR KBFI 252253Z VRB03KT 10SM CLR 28/13 A2996 RMK AO2 SLP144 T02780128=
201108252153 METAR KBFI 252153Z 26005KT 10SM CLR 27/12 A2997 RMK AO2 SLP147 T02670117=
201108252053 METAR KBFI 252053Z 32005KT 10SM CLR 25/13 A2998 RMK AO2 SLP151 T02500128 58007=
201108251953 METAR KBFI 251953Z 30003KT 10SM CLR 24/13 A2999 RMK AO2 SLP154 T02390133=
201108251853 METAR KBFI 251853Z VRB04KT 10SM CLR 23/14 A2999 RMK AO2 SLP157 T02330139=
201108251753 METAR KBFI 251753Z 00000KT 10SM CLR 23/13 A3000 RMK AO2 SLP158 T02280133 10228 20161 51006=
201108251653 METAR KBFI 251653Z 32004KT 10SM CLR 21/13 A3000 RMK AO2 SLP158 T02110133=
201108251553 METAR KBFI 251553Z 30003KT 10SM FEW120 19/13 A3000 RMK AO2 SLP158 T01940133=
201108251453 METAR KBFI 251453Z 32003KT 10SM CLR 17/13 A2998 RMK AO2 SLP152 T01720128 50009=
201108251353 METAR KBFI 251353Z 00000KT 10SM CLR 17/13 A2998 RMK AO2 SLP153 T01670128=
201108251253 METAR KBFI 251253Z 00000KT 10SM CLR 17/13 A2996 RMK AO2 SLP146 T01670128=
201108251153 METAR KBFI 251153Z 00000KT 10SM CLR 17/13 A2996 RMK AO2 SLP143 T01670128 10206 20167 51009=
201108251053 METAR KBFI 251053Z 00000KT 10SM CLR 17/13 A2995 RMK AO2 SLP140 T01670128=
201108250953 METAR KBFI 250953Z 00000KT 10SM CLR 17/13 A2994 RMK AO2 SLP139 T01720133=
201108250853 METAR KBFI 250853Z 00000KT 10SM CLR 18/13 A2993 RMK AO2 SLP135 T01830133 51009=
201108250753 METAR KBFI 250753Z 00000KT 10SM CLR 19/13 A2992 RMK AO2 SLP131 T01940133 402830150=
201108250653 METAR KBFI 250653Z 00000KT 10SM CLR 20/13 A2991 RMK AO2 SLP129 T02000128=
201108250553 METAR KBFI 250553Z 00000KT 10SM CLR 20/13 A2990 RMK AO2 SLP125 T02000133 10261 20194 58002=
201108250453 METAR KBFI 250453Z 35003KT 10SM CLR 21/13 A2992 RMK AO2 SLP132 T02060133=
201108250353 METAR KBFI 250353Z 33004KT 10SM SCT120 21/13 A2991 RMK AO2 SLP127 T02110133=
201108250253 METAR KBFI 250253Z 28004KT 10SM CLR 22/14 A2991 RMK AO2 SLP128 T02170139 50005=
201108250153 METAR KBFI 250153Z 33005KT 10SM FEW030 BKN150 22/13 A2991 RMK AO2 SLP128 T02220133=
201108250053 METAR KBFI 250053Z 30010G14KT 10SM CLR 23/13 A2991 RMK AO2 SLP127 T02280128=
201108242353 METAR KBFI 242353Z 30008KT 10SM SCT050 27/13 A2989 RMK AO2 SLP122 T02670128 10283 20217 58016=
201108242253 METAR KBFI 242253Z 32006KT 10SM CLR 27/11 A2991 RMK AO2 SLP129 T02720111=
201108242153 METAR KBFI 242153Z 28004KT 10SM SCT050 27/12 A2993 RMK AO2 SLP135 T02720117=
201108242053 METAR KBFI 242053Z VRB05KT 10SM SCT200 26/14 A2994 RMK AO2 SLP138 T02610139 56018=
201108241953 METAR KBFI 241953Z 31004KT 10SM CLR 25/14 A2996 RMK AO2 SLP143 T02500139=
201108241853 METAR KBFI 241853Z 31005KT 10SM CLR 23/14 A2997 RMK AO2 SLP149 T02330139=
201108241753 METAR KBFI 241753Z 33005KT 10SM CLR 22/13 A2999 RMK AO2 SLP156 T02170133 10217 20150 58004=
201108241653 METAR KBFI 241653Z 32004KT 10SM CLR 21/13 A3000 RMK AO2 SLP159 T02060133=
201108241553 METAR KBFI 241553Z 00000KT 10SM CLR 18/13 A3001 RMK AO2 SLP160 T01830128=
201108241453 METAR KBFI 241453Z 00000KT 10SM CLR 17/12 A3001 RMK AO2 SLP160 T01670122 53005=
201108241353 METAR KBFI 241353Z 00000KT 10SM CLR 16/12 A3000 RMK AO2 SLP159 T01560122=
201108241253 METAR KBFI 241253Z 26004KT 10SM CLR 15/12 A2999 RMK AO2 SLP155 T01500117=
201108241153 METAR KBFI 241153Z 00000KT 10SM CLR 15/12 A2999 RMK AO2 SLP155 T01500117 10183 20150 58001=
201108241053 METAR KBFI 241053Z 33003KT 10SM CLR 16/12 A2999 RMK AO2 SLP156 T01560117=
201108240953 METAR KBFI 240953Z 00000KT 10SM CLR 16/12 A2999 RMK AO2 SLP156 T01610117=
201108240853 METAR KBFI 240853Z 00000KT 10SM CLR 17/12 A2999 RMK AO2 SLP156 T01670117 58001=
201108240753 METAR KBFI 240753Z 00000KT 10SM CLR 17/12 A3000 RMK AO2 SLP160 T01720117 402560161=
201108240653 METAR KBFI 240653Z 00000KT 10SM CLR 18/12 A3001 RMK AO2 SLP161 T01780122=
201108240553 METAR KBFI 240553Z 33004KT 10SM CLR 18/12 A3000 RMK AO2 SLP158 T01830122 10256 20183 51008=
201108240453 METAR KBFI 240453Z 30003KT 10SM CLR 20/13 A2999 RMK AO2 SLP156 T02000128=
201108240353 METAR KBFI 240353Z 00000KT 10SM CLR 22/14 A2998 RMK AO2 SLP153 T02220139=
201108240253 METAR KBFI 240253Z 18003KT 10SM CLR 23/13 A2998 RMK AO2 SLP150 T02330128 56007=
201108240153 METAR KBFI 240153Z VRB04KT 10SM CLR 24/13 A2998 RMK AO2 SLP151 T02440128=
201108240053 METAR KBFI 240053Z 14005KT 10SM CLR 25/13 A2999 RMK AO2 SLP154 T02500128=
201108232353 METAR KBFI 232353Z 25005KT 10SM CLR 25/13 A3000 RMK AO2 SLP157 T02500128 10256 20194 56015=
201108232253 METAR KBFI 232253Z VRB04KT 10SM FEW047 24/13 A3001 RMK AO2 SLP162 T02440128=
201108232153 METAR KBFI 232153Z VRB04KT 10SM FEW035 24/13 A3003 RMK AO2 SLP168 T02390128=
201108232053 METAR KBFI 232053Z VRB05KT 10SM FEW038 24/14 A3004 RMK AO2 SLP173 T02390139 58009=
201108231953 METAR KBFI 231953Z VRB05KT 10SM SCT019 BKN044 OVC060 22/14 A3005 RMK AO2 SLP175 T02170139=
201108231853 METAR KBFI 231853Z 23003KT 10SM BKN019 BKN028 OVC040 21/14 A3007 RMK AO2 SLP181 T02060139=
201108231753 METAR KBFI 231753Z 00000KT 10SM BKN019 BKN025 OVC040 19/14 A3007 RMK AO2 SLP182 T01940144 10200 20161 51008=
201108231653 METAR KBFI 231653Z 00000KT 10SM BKN014 BKN150 18/14 A3006 RMK AO2 SLP179 T01780144=
201108231553 METAR KBFI 231553Z 00000KT 10SM BKN011 BKN055 18/15 A3006 RMK AO2 SLP178 T01780150=
201108231511 SPECI KBFI 231511Z 00000KT 10SM BKN011 BKN055 17/15 A3006 RMK AO2=
201108231511 SPECI KBFI 231511Z 00000KT 10SM BKN011 BKN055 17/15 A3006 RMK AO2=
201108231453 METAR KBFI 231453Z 00000KT 10SM SCT010 BKN045 17/15 A3005 RMK AO2 SLP174 T01670150 53014=
201108231353 METAR KBFI 231353Z 00000KT 10SM SCT011 BKN045 17/15 A3003 RMK AO2 SLP170 T01670150=
201108231253 METAR KBFI 231253Z 17004KT 10SM SCT011 SCT041 16/15 A3001 RMK AO2 SLP163 T01610150=
201108231153 METAR KBFI 231153Z 17005KT 10SM SCT011 SCT070 17/15 A3001 RMK AO2 SLP160 60000 70009 T01720150 10178 20172 53005=
201108231053 METAR KBFI 231053Z 19008G18KT 160V230 10SM OVC070 17/16 A3000 RMK AO2 SLP157 T01720156=
201108230953 METAR KBFI 230953Z 20006KT 10SM OVC048 18/16 A2999 RMK AO2 SLP156 T01780161=
201108230853 METAR KBFI 230853Z 18006KT 10SM SCT016 SCT021 OVC055 18/16 A2999 RMK AO2 SLP155 60000 T01780161 53003=
201108230753 METAR KBFI 230753Z 17006KT 10SM FEW012 SCT025 OVC055 18/16 A2999 RMK AO2 SLP155 T01780161 402170167=
201108230741 SPECI KBFI 230741Z 18007KT 140V200 10SM FEW010 BKN027 OVC049 18/16 A2999 RMK AO2=
201108230741 SPECI KBFI 230741Z 18007KT 140V200 10SM FEW010 BKN027 OVC049 18/16 A2999 RMK AO2=
201108230724 SPECI KBFI 230724Z VRB03KT 10SM BKN012 BKN027 OVC060 18/16 A2999 RMK AO2=
201108230724 SPECI KBFI 230724Z VRB03KT 10SM BKN012 BKN027 OVC060 18/16 A2999 RMK AO2=
201108230712 SPECI KBFI 230712Z 17007KT 140V200 10SM SCT012 OVC060 18/16 A2998 RMK AO2=
201108230712 SPECI KBFI 230712Z 17007KT 140V200 10SM SCT012 OVC060 18/16 A2998 RMK AO2=
201108230653 METAR KBFI 230653Z 17006KT 10SM BKN010 OVC070 18/16 A2998 RMK AO2 RAE00 SLP152 P0000 T01780161=
201108230642 SPECI KBFI 230642Z 16005KT 10SM BKN010 OVC070 18/17 A2998 RMK AO2 RAE00 P0000=
201108230642 SPECI KBFI 230642Z 16005KT 10SM BKN010 OVC070 18/17 A2998 RMK AO2 RAE00 P0000=
201108230553 METAR KBFI 230553Z 18007KT 9SM -RA FEW020 SCT043 OVC075 18/17 A2998 RMK AO2 RAB48 SLP152 P0001 60008 T01780167 10189 20172 51004=
201108230453 METAR KBFI 230453Z 19008G14KT 10SM BKN080 OVC090 18/16 A2998 RMK AO2 RAE31 SLP151 P0001 T01780161=
201108230403 SPECI KBFI 230403Z 17007KT 9SM -RA SCT009 BKN041 OVC080 17/16 A2998 RMK AO2 P0001=
201108230403 SPECI KBFI 230403Z 17007KT 9SM -RA SCT009 BKN041 OVC080 17/16 A2998 RMK AO2 P0001=
201108230353 METAR KBFI 230353Z 16007KT 7SM -RA BKN009 OVC037 17/17 A2998 RMK AO2 SLP150 P0005 T01720167=
201108230253 METAR KBFI 230253Z 16008KT 6SM -RA BR OVC011 17/16 A2997 RMK AO2 RAE12B47 SLP148 P0001 60001 T01720161 56000=
201108230227 SPECI KBFI 230227Z 16006KT 10SM OVC011 18/16 A2997 RMK AO2 RAE12 P0001=
201108230227 SPECI KBFI 230227Z 16006KT 10SM OVC011 18/16 A2997 RMK AO2 RAE12 P0001=
201108230153 METAR KBFI 230153Z 17008KT 10SM -RA BKN018 OVC030 18/16 A2997 RMK AO2 RAB52 SLP149 P0000 T01830156=
201108230053 METAR KBFI 230053Z 18007KT 10SM FEW026 BKN035 OVC060 19/16 A2997 RMK AO2 RAE2356B28E49 SLP147 P0000 T01890156=
201108222353 METAR KBFI 222353Z 16009G17KT 10SM -RA FEW027 BKN060 BKN075 19/16 A2997 RMK AO2 RAE21B39 SLP149 P0001 60001 T01890156 10217 20189 51009=
201108222336 SPECI KBFI 222336Z 17006G17KT 10SM SCT029 BKN038 OVC060 19/15 A2997 RMK AO2 RAE21 P0000=
201108222336 SPECI KBFI 222336Z 17006G17KT 10SM SCT029 BKN038 OVC060 19/15 A2997 RMK AO2 RAE21 P0000=
201108222329 SPECI KBFI 222329Z 16010KT 10SM BKN029 BKN038 OVC060 19/15 A2997 RMK AO2 RAE21 P0000=
201108222329 SPECI KBFI 222329Z 16010KT 10SM BKN029 BKN038 OVC060 19/15 A2997 RMK AO2 RAE21 P0000=
201108222253 METAR KBFI 222253Z 17008KT 10SM -RA SCT032 BKN080 BKN100 19/15 A2996 RMK AO2 RAB19 SLP146 P0000 T01940150=
201108222153 METAR KBFI 222153Z VRB06KT 10SM BKN065 OVC150 19/14 A2996 RMK AO2 RAB00E36 SLP145 P0000 T01940144=
201108222053 METAR KBFI 222053Z VRB06KT 10SM SCT023 OVC070 21/14 A2995 RMK AO2 SLP140 T02110139 51005=
201108221953 METAR KBFI 221953Z 22009KT 10SM FEW012 SCT036 BKN120 21/14 A2995 RMK AO2 SLP140 T02110144=
201108221853 METAR KBFI 221853Z 23007KT 200V270 10SM FEW015 SCT036 OVC120 22/15 A2994 RMK AO2 SLP139 T02170150=
201108221753 METAR KBFI 221753Z 20008KT 160V230 10SM SCT015 BKN120 21/15 A2993 RMK AO2 SLP135 T02060150 10211 20172 58003=
201108221653 METAR KBFI 221653Z 17012G22KT 10SM BKN050 BKN200 21/15 A2994 RMK AO2 SLP137 T02060150=
201108221553 METAR KBFI 221553Z 18010KT 10SM SCT015 OVC050 19/15 A2996 RMK AO2 SLP144 T01890150=
201108221453 METAR KBFI 221453Z 18006G15KT 10SM SCT014 BKN120 18/15 A2994 RMK AO2 SLP138 T01780150 53005=
201108221353 METAR KBFI 221353Z 15009KT 10SM SCT015 OVC120 17/14 A2992 RMK AO2 SLP131 T01720144=
201108221346 SPECI KBFI 221346Z 15008KT 10SM SCT015 17/14 A2992 RMK AO2=
201108221346 SPECI KBFI 221346Z 15008KT 10SM SCT015 17/14 A2992 RMK AO2=
201108221253 METAR KBFI 221253Z 15010KT 10SM OVC015 17/14 A2992 RMK AO2 SLP132 T01720144=
201108221153 METAR KBFI 221153Z 14011KT 10SM BKN015 17/14 A2992 RMK AO2 SLP132 T01720144 10194 20167 52002=
201108221117 SPECI KBFI 221117Z 16010KT 10SM OVC015 17/14 A2992 RMK AO2=
201108221117 SPECI KBFI 221117Z 16010KT 10SM OVC015 17/14 A2992 RMK AO2=
201108221053 METAR KBFI 221053Z 16010KT 10SM OVC013 17/14 A2992 RMK AO2 SLP132 T01720144=
201108221013 SPECI KBFI 221013Z 17008G14KT 10SM OVC013 17/14 A2992 RMK AO2=
201108221013 SPECI KBFI 221013Z 17008G14KT 10SM OVC013 17/14 A2992 RMK AO2=
201108221000 SPECI KBFI 221000Z 19008G17KT 10SM BKN015 17/14 A2992 RMK AO2=
201108221000 SPECI KBFI 221000Z 19008G17KT 10SM BKN015 17/14 A2992 RMK AO2=
201108220953 METAR KBFI 220953Z 17006KT 10SM SCT015 17/14 A2992 RMK AO2 SLP131 T01720139=
201108220853 METAR KBFI 220853Z 16006KT 10SM CLR 17/14 A2992 RMK AO2 SLP130 T01720139 51008=
201108220753 METAR KBFI 220753Z 16007KT 10SM CLR 18/13 A2991 RMK AO2 SLP127 T01780133 403060156=
201108220653 METAR KBFI 220653Z 18006KT 10SM CLR 18/14 A2991 RMK AO2 SLP126 T01830139=
201108220553 METAR KBFI 220553Z 16006KT 10SM CLR 19/16 A2989 RMK AO2 SLP122 T01940156 10294 20194 51016=
201108220453 METAR KBFI 220453Z 18004KT 10SM CLR 21/14 A2988 RMK AO2 SLP117 T02060144=
201108220353 METAR KBFI 220353Z AUTO 21004KT 10SM CLR 22/14 A2987 RMK AO2 SLP113 T02220139 TSNO=
201108220253 METAR KBFI 220253Z 31004KT 10SM CLR 23/14 A2984 RMK AO2 SLP106 T02330144 53004=
201108220153 METAR KBFI 220153Z 00000KT 10SM CLR 26/13 A2983 RMK AO2 SLP101 T02610128=
201108220053 METAR KBFI 220053Z 35003KT 10SM CLR 26/13 A2983 RMK AO2 SLP102 T02560133=
201108212353 METAR KBFI 212353Z 25004KT 10SM CLR 29/11 A2983 RMK AO2 SLP102 T02940111 10306 20228 56012=
201108212253 METAR KBFI 212253Z 00000KT 10SM CLR 29/11 A2984 RMK AO2 SLP104 T02940106=
201108212153 METAR KBFI 212153Z VRB04KT 10SM CLR 29/11 A2986 RMK AO2 SLP110 T02890111=
201108212053 METAR KBFI 212053Z 22005KT 10SM CLR 28/10 A2987 RMK AO2 SLP114 T02830100 56013=
201108211953 METAR KBFI 211953Z VRB04KT 10SM BKN150 27/13 A2987 RMK AO2 SLP115 T02720133=
201108211853 METAR KBFI 211853Z 13004KT 10SM SCT150 26/13 A2989 RMK AO2 SLP120 T02610133=
201108211753 METAR KBFI 211753Z VRB03KT 10SM CLR 23/14 A2991 RMK AO2 SLP127 T02330139 10233 20156 50004=
201108211653 METAR KBFI 211653Z 00000KT 10SM CLR 20/13 A2991 RMK AO2 SLP128 T02000133=
201108211553 METAR KBFI 211553Z 27003KT 10SM CLR 18/13 A2990 RMK AO2 SLP126 T01830133=
201108211453 METAR KBFI 211453Z 00000KT 10SM CLR 17/14 A2989 RMK AO2 SLP123 T01720139 53012=
201108211353 METAR KBFI 211353Z 00000KT 10SM CLR 16/13 A2987 RMK AO2 SLP115 T01610128=
201108211253 METAR KBFI 211253Z 00000KT 10SM CLR 16/13 A2986 RMK AO2 SLP112 T01610128=
201108211153 METAR KBFI 211153Z 00000KT 10SM CLR 17/13 A2986 RMK AO2 SLP111 T01720128 10217 20167 56001=
201108211053 METAR KBFI 211053Z 00000KT 10SM CLR 17/12 A2986 RMK AO2 SLP111 T01720122=
201108210953 METAR KBFI 210953Z 00000KT 10SM CLR 18/12 A2985 RMK AO2 SLP109 T01780122=
201108210853 METAR KBFI 210853Z 00000KT 10SM CLR 18/12 A2986 RMK AO2 SLP111 T01830122 53005=
201108210753 METAR KBFI 210753Z 00000KT 10SM CLR 19/12 A2985 RMK AO2 SLP109 T01890122 402780139=
201108210653 METAR KBFI 210653Z 00000KT 10SM CLR 20/12 A2985 RMK AO2 SLP107 T02000117=
201108210553 METAR KBFI 210553Z 00000KT 10SM CLR 22/12 A2984 RMK AO2 SLP106 T02170117 10278 20217 51007=
201108210453 METAR KBFI 210453Z 00000KT 10SM CLR 22/12 A2984 RMK AO2 SLP105 T02220117=
201108210353 METAR KBFI 210353Z 00000KT 10SM CLR 23/12 A2984 RMK AO2 SLP103 T02330117=
201108210253 METAR KBFI 210253Z 32005KT 10SM CLR 25/12 A2982 RMK AO2 SLP099 T02500117 56010=
201108210153 METAR KBFI 210153Z 30004KT 10SM CLR 26/11 A2983 RMK AO2 SLP099 T02610111=
201108210053 METAR KBFI 210053Z 30008KT 10SM CLR 27/12 A2984 RMK AO2 SLP105 T02670117=
201108202353 METAR KBFI 202353Z 32007KT 10SM CLR 28/11 A2985 RMK AO2 SLP109 T02780111 10278 20217 56022=
201108202253 METAR KBFI 202253Z VRB04KT 10SM CLR 27/11 A2987 RMK AO2 SLP116 T02720111=
201108202153 METAR KBFI 202153Z 30007KT 10SM CLR 26/10 A2990 RMK AO2 SLP123 T02610100=
201108202053 METAR KBFI 202053Z 30009G14KT 10SM CLR 25/09 A2992 RMK AO2 SLP131 T02500094 56018=
201108201953 METAR KBFI 201953Z 31010KT 10SM CLR 25/10 A2994 RMK AO2 SLP137 T02500100=
201108201853 METAR KBFI 201853Z 31006KT 10SM CLR 24/12 A2995 RMK AO2 SLP143 T02440122=
201108201753 METAR KBFI 201753Z 31003KT 10SM CLR 22/12 A2997 RMK AO2 SLP149 T02170122 10217 20139 58006=
201108201653 METAR KBFI 201653Z 31005KT 10SM CLR 20/12 A2998 RMK AO2 SLP153 T02000122=
201108201553 METAR KBFI 201553Z 00000KT 10SM CLR 18/13 A2999 RMK AO2 SLP154 T01830128=
201108201453 METAR KBFI 201453Z 00000KT 10SM CLR 16/12 A2999 RMK AO2 SLP155 T01610122 53005=
201108201353 METAR KBFI 201353Z 00000KT 10SM CLR 14/11 A2998 RMK AO2 SLP152 T01440111=
201108201253 METAR KBFI 201253Z 00000KT 10SM CLR 15/11 A2997 RMK AO2 SLP149 T01500111=
201108201153 METAR KBFI 201153Z 00000KT 10SM CLR 14/11 A2997 RMK AO2 SLP150 T01440106 10194 20144 58008=
201108201053 METAR KBFI 201053Z 00000KT 10SM CLR 16/11 A2998 RMK AO2 SLP152 T01610106=
201108200953 METAR KBFI 200953Z 00000KT 10SM CLR 17/11 A2999 RMK AO2 SLP155 T01670106=
201108200853 METAR KBFI 200853Z 00000KT 10SM CLR 17/11 A3000 RMK AO2 SLP158 T01720106 58003=
201108200753 METAR KBFI 200753Z 00000KT 10SM CLR 18/10 A3001 RMK AO2 SLP160 T01780100 402500122=
201108200653 METAR KBFI 200653Z 00000KT 10SM CLR 18/10 A3001 RMK AO2 SLP161 T01830100=
201108200553 METAR KBFI 200553Z 00000KT 10SM CLR 19/11 A3001 RMK AO2 SLP161 T01940111 10250 20189 50002=
201108200453 METAR KBFI 200453Z 00000KT 10SM CLR 21/09 A3001 RMK AO2 SLP162 T02060094=
201108200353 METAR KBFI 200353Z 34003KT 10SM CLR 21/11 A3001 RMK AO2 SLP161 T02060106=
201108200253 METAR KBFI 200253Z 30005KT 10SM CLR 21/11 A3000 RMK AO2 SLP159 T02110106 56008=
201108200153 METAR KBFI 200153Z AUTO VRB05KT 10SM CLR 24/09 A3000 RMK AO2 SLP160 T02390094 TSNO=
201108200053 METAR KBFI 200053Z 33009KT 300V010 10SM CLR 24/08 A3001 RMK AO2 SLP163 T02440078=
201108192353 METAR KBFI 192353Z 30010KT 10SM CLR 24/09 A3003 RMK AO2 SLP167 T02440089 10250 20161 56017=
201108192253 METAR KBFI 192253Z 31007G16KT 10SM CLR 24/09 A3004 RMK AO2 SLP172 T02440089=
201108192153 METAR KBFI 192153Z 33008G15KT 10SM CLR 23/09 A3006 RMK AO2 SLP178 T02330089=
201108192053 METAR KBFI 192053Z 30005KT 10SM CLR 21/11 A3008 RMK AO2 SLP184 T02110111 58013=
201108191953 METAR KBFI 191953Z 28005KT 10SM CLR 20/12 A3009 RMK AO2 SLP189 T02000117=
201108191853 METAR KBFI 191853Z VRB04KT 10SM CLR 18/12 A3011 RMK AO2 SLP196 T01780117=
201108191753 METAR KBFI 191753Z VRB03KT 10SM CLR 17/11 A3011 RMK AO2 SLP197 T01670111 10167 20122 50000=
201108191736 SPECI KBFI 191736Z 28003KT 10SM FEW013 16/12 A3012 RMK AO2=
201108191736 SPECI KBFI 191736Z 28003KT 10SM FEW013 16/12 A3012 RMK AO2=
201108191653 METAR KBFI 191653Z 00000KT 10SM OVC011 14/11 A3011 RMK AO2 SLP197 T01440111=
201108191626 SPECI KBFI 191626Z VRB04KT 10SM OVC011 14/11 A3011 RMK AO2=
201108191626 SPECI KBFI 191626Z VRB04KT 10SM OVC011 14/11 A3011 RMK AO2=
201108191553 METAR KBFI 191553Z 32005KT 10SM OVC009 13/11 A3011 RMK AO2 SLP197 T01330111=
201108191453 METAR KBFI 191453Z 30004KT 7SM OVC009 13/11 A3011 RMK AO2 SLP196 T01280111 53004=
201108191353 METAR KBFI 191353Z 31003KT 10SM OVC009 13/11 A3010 RMK AO2 SLP192 T01280111=
201108191330 SPECI KBFI 191330Z 36004KT 10SM OVC007 13/11 A3010 RMK AO2=
201108191330 SPECI KBFI 191330Z 36004KT 10SM OVC007 13/11 A3010 RMK AO2=
201108191304 SPECI KBFI 191304Z 01003KT 7SM SCT010 BKN020 13/11 A3010 RMK AO2=
201108191304 SPECI KBFI 191304Z 01003KT 7SM SCT010 BKN020 13/11 A3010 RMK AO2=
201108191253 METAR KBFI 191253Z 00000KT 10SM BKN010 13/11 A3010 RMK AO2 SLP192 T01280111=
201108191153 METAR KBFI 191153Z 31003KT 10SM CLR 13/11 A3010 RMK AO2 SLP192 T01280111 10178 20128 58004=
201108191053 METAR KBFI 191053Z 00000KT 10SM CLR 13/12 A3010 RMK AO2 SLP193 T01330117=
201108190953 METAR KBFI 190953Z 00000KT 10SM CLR 14/12 A3011 RMK AO2 SLP194 T01440117=
201108190853 METAR KBFI 190853Z 00000KT 10SM CLR 16/12 A3011 RMK AO2 SLP196 T01560117 50001=
201108190753 METAR KBFI 190753Z VRB03KT 10SM CLR 16/12 A3011 RMK AO2 SLP197 T01610122 402280128=
201108190653 METAR KBFI 190653Z AUTO 00000KT 10SM CLR 17/12 A3011 RMK AO2 SLP196 T01670117 TSNO=
201108190553 METAR KBFI 190553Z 00000KT 10SM CLR 18/11 A3011 RMK AO2 SLP195 T01780111 10222 20178 51004=
201108190453 METAR KBFI 190453Z 31003KT 10SM FEW095 18/11 A3011 RMK AO2 SLP194 T01780111=
201108190353 METAR KBFI 190353Z 30004KT 10SM CLR 18/11 A3010 RMK AO2 SLP193 T01830111=
201108190253 METAR KBFI 190253Z 30005KT 10SM CLR 19/11 A3010 RMK AO2 SLP191 T01940106 56009=
201108190153 METAR KBFI 190153Z 31005KT 10SM CLR 22/09 A3010 RMK AO2 SLP192 T02170094=
201108190053 METAR KBFI 190053Z VRB05KT 10SM SCT100 22/09 A3011 RMK AO2 SLP195 T02220094=
201108182353 METAR KBFI 182353Z 31004KT 10SM SCT110 22/09 A3012 RMK AO2 SLP200 T02220094 10228 20178 58013=
201108182253 METAR KBFI 182253Z VRB04KT 10SM BKN100 22/08 A3014 RMK AO2 SLP207 T02220083=
201108182153 METAR KBFI 182153Z VRB03KT 10SM FEW110 22/09 A3016 RMK AO2 SLP211 T02170089=
201108182053 METAR KBFI 182053Z 32006KT 10SM SCT033 22/11 A3016 RMK AO2 SLP213 T02170106 58012=
201108182000 SPECI KBFI 182000Z VRB04KT 10SM SCT033 20/11 A3018 RMK AO2=
201108182000 SPECI KBFI 182000Z VRB04KT 10SM SCT033 20/11 A3018 RMK AO2=
201108181953 METAR KBFI 181953Z 25004KT 10SM BKN029 20/11 A3018 RMK AO2 SLP219 T02000111=
201108181853 METAR KBFI 181853Z 00000KT 10SM BKN029 19/11 A3019 RMK AO2 SLP223 T01890111=
201108181753 METAR KBFI 181753Z 00000KT 10SM SCT025 18/12 A3020 RMK AO2 SLP226 T01780117 10183 20128 51002=
201108181746 SPECI KBFI 181746Z 22003KT 10SM BKN023 18/11 A3020 RMK AO2=
201108181746 SPECI KBFI 181746Z 22003KT 10SM BKN023 18/11 A3020 RMK AO2=
201108181653 METAR KBFI 181653Z 00000KT 10SM FEW020 SCT180 BKN250 17/11 A3020 RMK AO2 SLP226 T01720111=
201108181553 METAR KBFI 181553Z COR 15003KT 10SM FEW040 SCT250 15/11 A3020 RMK AO2 SLP227 T01500111=
201108181453 METAR KBFI 181453Z 16005KT 10SM CLR 14/11 A3019 RMK AO2 SLP224 T01390111 53011=
201108181353 METAR KBFI 181353Z 12005KT 10SM CLR 14/11 A3019 RMK AO2 SLP221 T01390106=
201108181253 METAR KBFI 181253Z 14005KT 10SM FEW160 13/10 A3017 RMK AO2 SLP215 T01330100=
201108181153 METAR KBFI 181153Z 00000KT 10SM FEW039 14/11 A3016 RMK AO2 SLP213 T01440106 10167 20144 50002=
201108181053 METAR KBFI 181053Z 00000KT 10SM CLR 15/11 A3016 RMK AO2 SLP214 T01500106=
201108180953 METAR KBFI 180953Z 00000KT 10SM CLR 15/11 A3016 RMK AO2 SLP211 T01500106=
201108180853 METAR KBFI 180853Z 00000KT 10SM CLR 16/11 A3015 RMK AO2 SLP211 T01560106 51005=
201108180753 METAR KBFI 180753Z 00000KT 10SM CLR 16/11 A3015 RMK AO2 SLP210 T01560106 402560117=
201108180653 METAR KBFI 180653Z 00000KT 10SM CLR 16/11 A3014 RMK AO2 SLP207 T01610106=
201108180553 METAR KBFI 180553Z VRB03KT 10SM CLR 17/11 A3014 RMK AO2 SLP205 T01670111 10250 20161 51018=
201108180453 METAR KBFI 180453Z VRB03KT 10SM CLR 18/12 A3013 RMK AO2 SLP203 T01780117=
201108180353 METAR KBFI 180353Z 36004KT 10SM CLR 19/11 A3011 RMK AO2 SLP195 T01890106=
201108180253 METAR KBFI 180253Z VRB04KT 10SM CLR 21/09 A3009 RMK AO2 SLP188 T02060089 53002=
201108180153 METAR KBFI 180153Z 33005KT 10SM CLR 22/09 A3008 RMK AO2 SLP186 T02220089=
201108180053 METAR KBFI 180053Z 31006KT 10SM CLR 23/07 A3008 RMK AO2 SLP185 T02330072=
201108172353 METAR KBFI 172353Z VRB03KT 10SM CLR 24/06 A3008 RMK AO2 SLP185 T02440061 10256 20200 58014=
201108172253 METAR KBFI 172253Z VRB03KT 10SM CLR 25/06 A3010 RMK AO2 SLP191 T02500061=
201108172153 METAR KBFI 172153Z VRB04KT 10SM CLR 25/04 A3011 RMK AO2 SLP196 T02500044=
201108172053 METAR KBFI 172053Z 27004KT 10SM CLR 23/08 A3012 RMK AO2 SLP199 T02330083 58003=
201108171953 METAR KBFI 171953Z VRB05KT 10SM CLR 22/09 A3013 RMK AO2 SLP201 T02220089=
201108171853 METAR KBFI 171853Z VRB03KT 10SM CLR 22/08 A3013 RMK AO2 SLP201 T02170083=
201108171753 METAR KBFI 171753Z 09004KT 10SM CLR 20/07 A3013 RMK AO2 SLP202 T02000072 10200 20117 50001=
201108171653 METAR KBFI 171653Z 29004KT 10SM CLR 18/10 A3013 RMK AO2 SLP203 T01830100=
201108171553 METAR KBFI 171553Z 00000KT 10SM CLR 17/10 A3013 RMK AO2 SLP202 T01670100=
201108171453 METAR KBFI 171453Z 00000KT 10SM CLR 14/10 A3013 RMK AO2 SLP201 T01440100 53012=
201108171353 METAR KBFI 171353Z 15004KT 10SM CLR 12/09 A3011 RMK AO2 SLP197 T01170089=
201108171253 METAR KBFI 171253Z 12003KT 10SM CLR 14/08 A3010 RMK AO2 SLP193 T01390083=
201108171153 METAR KBFI 171153Z 00000KT 10SM CLR 13/08 A3009 RMK AO2 SLP190 T01330083 10183 20133 52003=
201108171053 METAR KBFI 171053Z 00000KT 10SM CLR 14/08 A3009 RMK AO2 SLP189 T01440083=
201108170953 METAR KBFI 170953Z 00000KT 10SM CLR 15/08 A3009 RMK AO2 SLP188 T01500083=
201108170853 METAR KBFI 170853Z 00000KT 10SM CLR 16/08 A3008 RMK AO2 SLP187 T01560083 51004=
201108170753 METAR KBFI 170753Z VRB05KT 10SM CLR 16/08 A3008 RMK AO2 SLP187 T01610083 402500111=
201108170653 METAR KBFI 170653Z 00000KT 10SM CLR 17/08 A3008 RMK AO2 SLP185 T01720078=
201108170553 METAR KBFI 170553Z 00000KT 10SM CLR 18/07 A3007 RMK AO2 SLP183 T01780072 10250 20178 51010=
201108170453 METAR KBFI 170453Z 00000KT 10SM CLR 19/07 A3007 RMK AO2 SLP181 T01940067=
201108170353 METAR KBFI 170353Z 00000KT 10SM CLR 20/07 A3005 RMK AO2 SLP177 T02000067=
201108170253 METAR KBFI 170253Z 30005KT 10SM CLR 22/06 A3004 RMK AO2 SLP173 T02170056 56005=
201108170153 METAR KBFI 170153Z 31005KT 10SM CLR 23/06 A3004 RMK AO2 SLP173 T02280061=
201108170053 METAR KBFI 170053Z VRB05KT 10SM CLR 24/06 A3005 RMK AO2 SLP176 T02390056=
201108162353 METAR KBFI 162353Z 31007KT 10SM CLR 24/06 A3006 RMK AO2 SLP178 T02440056 10244 20183 57013=
201108162253 METAR KBFI 162253Z 31007KT 280V340 10SM CLR 24/07 A3007 RMK AO2 SLP182 T02440067=
201108162153 METAR KBFI 162153Z 31006KT 10SM CLR 24/07 A3008 RMK AO2 SLP187 T02390067=
201108162053 METAR KBFI 162053Z 31005KT 10SM CLR 23/07 A3010 RMK AO2 SLP191 T02280072 58007=
201108161953 METAR KBFI 161953Z 30005KT 10SM CLR 22/10 A3011 RMK AO2 SLP194 T02170100=
201108161853 METAR KBFI 161853Z VRB05KT 10SM CLR 20/10 A3011 RMK AO2 SLP196 T02000100=
201108161753 METAR KBFI 161753Z 32004KT 10SM CLR 18/11 A3012 RMK AO2 SLP198 T01830106 10183 20111 58001=
201108161653 METAR KBFI 161653Z 32005KT 10SM CLR 17/11 A3012 RMK AO2 SLP199 T01670106=
201108161553 METAR KBFI 161553Z 00000KT 10SM CLR 16/10 A3012 RMK AO2 SLP200 T01610100=
201108161453 METAR KBFI 161453Z 05004KT 10SM CLR 14/10 A3012 RMK AO2 SLP199 T01440100 53003=
201108161353 METAR KBFI 161353Z 00000KT 10SM CLR 13/09 A3011 RMK AO2 SLP196 T01280094=
201108161253 METAR KBFI 161253Z 00000KT 10SM CLR 11/09 A3011 RMK AO2 SLP197 T01110089=
201108161153 METAR KBFI 161153Z 00000KT 10SM CLR 12/09 A3011 RMK AO2 SLP197 T01220089 10172 20122 58003=
201108161053 METAR KBFI 161053Z 00000KT 10SM CLR 13/09 A3012 RMK AO2 SLP199 T01330089=
201108160953 METAR KBFI 160953Z 00000KT 10SM CLR 14/09 A3012 RMK AO2 SLP200 T01390089=
201108160853 METAR KBFI 160853Z 00000KT 10SM CLR 15/08 A3012 RMK AO2 SLP200 T01500083 51006=
201108160753 METAR KBFI 160753Z VRB03KT 10SM CLR 16/08 A3012 RMK AO2 SLP198 T01560083 402330150=
201108160653 METAR KBFI 160653Z 00000KT 10SM CLR 17/09 A3011 RMK AO2 SLP196 T01670089=
201108160553 METAR KBFI 160553Z 00000KT 10SM CLR 17/09 A3010 RMK AO2 SLP193 T01720094 10233 20172 51009=
201108160453 METAR KBFI 160453Z 31004KT 10SM FEW080 18/09 A3010 RMK AO2 SLP191 T01780094=
201108160353 METAR KBFI 160353Z 00000KT 10SM BKN075 19/09 A3009 RMK AO2 SLP188 T01940094=
201108160253 METAR KBFI 160253Z 35003KT 10SM CLR 21/09 A3008 RMK AO2 SLP184 T02060094 58000=
201108160153 METAR KBFI 160153Z 32006KT 10SM CLR 22/09 A3008 RMK AO2 SLP185 T02170094=
201108160053 METAR KBFI 160053Z 30003KT 10SM FEW040 SCT250 22/08 A3008 RMK AO2 SLP185 T02220078=
201108152353 METAR KBFI 152353Z 33006KT 10SM FEW040 SCT250 23/07 A3008 RMK AO2 SLP184 T02280072 10233 20183 58004=
201108152253 METAR KBFI 152253Z VRB04KT 10SM FEW041 23/09 A3008 RMK AO2 SLP187 T02280089=
201108152153 METAR KBFI 152153Z AUTO 28003KT 10SM SCT037 22/09 A3009 RMK AO2 SLP188 T02170094 TSNO=
201108152053 METAR KBFI 152053Z COR VRB04KT 10SM SCT037 22/11 A3009 RMK AO2 SLP189 T02170106 53001=
201108151953 METAR KBFI 151953Z VRB04KT 10SM SCT037 21/11 A3009 RMK AO2 SLP188 T02060106=
201108151853 METAR KBFI 151853Z 00000KT 10SM CLR 20/11 A3009 RMK AO2 SLP187 T02000111=
201108151753 METAR KBFI 151753Z 28005KT 10SM SCT035 BKN060 18/12 A3009 RMK AO2 SLP188 T01830117 10183 20150 51009=
201108151653 METAR KBFI 151653Z 17003KT 10SM BKN025 OVC049 17/12 A3008 RMK AO2 SLP185 T01720117=
201108151553 METAR KBFI 151553Z 21003KT 10SM SCT024 OVC049 17/12 A3007 RMK AO2 SLP183 T01670122=
201108151453 METAR KBFI 151453Z 21003KT 10SM FEW021 BKN026 OVC060 16/12 A3006 RMK AO2 SLP178 T01560117 53010=
201108151353 METAR KBFI 151353Z 00000KT 10SM SCT024 OVC041 15/12 A3005 RMK AO2 SLP175 T01500117=
201108151253 METAR KBFI 151253Z 15003KT 10SM FEW025 OVC039 15/12 A3003 RMK AO2 SLP170 T01500117=
201108151153 METAR KBFI 151153Z 00000KT 10SM BKN041 OVC050 16/11 A3003 RMK AO2 SLP169 60000 T01610111 10178 20156 51005=
201108151053 METAR KBFI 151053Z 08003KT 10SM FEW038 OVC060 16/11 A3002 RMK AO2 SLP167 T01560111=
201108150953 METAR KBFI 150953Z 08004KT 10SM BKN037 OVC043 16/11 A3002 RMK AO2 RAB0858E06 SLP166 P0000 T01610111=
201108150853 METAR KBFI 150853Z 06005KT 10SM BKN031 OVC039 17/11 A3001 RMK AO2 SLP163 T01720111 53005=
201108150753 METAR KBFI 150753Z 06004KT 10SM FEW041 SCT060 17/11 A3000 RMK AO2 SLP159 T01720111 402220144=
201108150653 METAR KBFI 150653Z 00000KT 10SM FEW033 OVC055 17/11 A3001 RMK AO2 SLP160 T01670111=
201108150553 METAR KBFI 150553Z 00000KT 10SM OVC037 18/12 A3000 RMK AO2 SLP159 T01780122 10206 20172 50001=
201108150453 METAR KBFI 150453Z 00000KT 10SM BKN090 18/12 A3000 RMK AO2 SLP159 T01780117=
201108150353 METAR KBFI 150353Z 00000KT 10SM OVC085 18/11 A3000 RMK AO2 SLP159 T01830111=
201108150253 METAR KBFI 150253Z 24004KT 10SM SCT085 BKN200 18/11 A3000 RMK AO2 SLP157 T01830111 57005=
201108150153 METAR KBFI 150153Z 26005KT 10SM SCT075 BKN120 19/11 A3000 RMK AO2 SLP159 T01890111=
201108150053 METAR KBFI 150053Z 26006KT 10SM SCT045 BKN055 19/12 A3001 RMK AO2 SLP160 T01940117=
201108142353 METAR KBFI 142353Z 28007KT 10SM FEW040 BKN060 21/11 A3001 RMK AO2 SLP162 T02110106 10222 20178 57001=
201108142253 METAR KBFI 142253Z 26006KT 10SM FEW042 BKN060 OVC200 20/11 A3001 RMK AO2 SLP163 T02000106=
201108142153 METAR KBFI 142153Z 28007KT 10SM SCT043 BKN060 21/09 A3001 RMK AO2 SLP162 T02110094=
201108142053 METAR KBFI 142053Z VRB06KT 10SM SCT043 BKN055 21/09 A3002 RMK AO2 SLP164 T02110094 58003=
201108141953 METAR KBFI 141953Z 19005KT 10SM BKN041 20/09 A3002 RMK AO2 SLP165 T02000094=
201108141853 METAR KBFI 141853Z 25006KT 10SM SCT032 BKN045 BKN055 19/10 A3002 RMK AO2 SLP165 T01890100=
201108141753 METAR KBFI 141753Z 19004KT 10SM FEW027 BKN045 OVC055 18/11 A3002 RMK AO2 SLP166 T01830106 10183 20144 58000=
201108141653 METAR KBFI 141653Z 16006KT 10SM FEW023 OVC046 17/11 A3003 RMK AO2 SLP169 T01670111=
201108141553 METAR KBFI 141553Z 16005KT 10SM FEW023 OVC050 16/11 A3003 RMK AO2 SLP168 T01560106=
201108141513 SPECI KBFI 141513Z 18006KT 10SM FEW025 SCT029 OVC050 16/11 A3003 RMK AO2=
201108141513 SPECI KBFI 141513Z 18006KT 10SM FEW025 SCT029 OVC050 16/11 A3003 RMK AO2=
201108141453 METAR KBFI 141453Z 17005KT 10SM BKN027 OVC050 16/10 A3002 RMK AO2 SLP167 T01560100 53004=
201108141423 SPECI KBFI 141423Z 16006KT 10SM BKN027 OVC050 15/10 A3002 RMK AO2=
201108141423 SPECI KBFI 141423Z 16006KT 10SM BKN027 OVC050 15/10 A3002 RMK AO2=
201108141353 METAR KBFI 141353Z 16006KT 10SM BKN050 OVC100 14/10 A3002 RMK AO2 SLP164 T01440100=
201108141253 METAR KBFI 141253Z 16005KT 10SM FEW055 BKN110 14/10 A3002 RMK AO2 SLP164 T01440100=
201108141153 METAR KBFI 141153Z 14005KT 10SM OVC050 15/11 A3001 RMK AO2 SLP163 T01500106 10156 20144 56004=
201108141053 METAR KBFI 141053Z 18004KT 10SM SCT040 OVC050 15/10 A3002 RMK AO2 SLP164 T01500100=
201108140953 METAR KBFI 140953Z 16005KT 10SM OVC050 15/11 A3002 RMK AO2 SLP164 T01500106=
201108140853 METAR KBFI 140853Z 17007KT 10SM OVC042 15/11 A3003 RMK AO2 SLP167 T01500106 51002=
201108140753 METAR KBFI 140753Z 17004KT 10SM OVC044 15/11 A3002 RMK AO2 SLP167 T01500106 402170122=
201108140653 METAR KBFI 140653Z 00000KT 10SM OVC046 16/11 A3002 RMK AO2 SLP167 T01560106=
201108140553 METAR KBFI 140553Z 23004KT 10SM OVC046 16/11 A3002 RMK AO2 SLP165 T01560106 10217 20156 51009=
201108140453 METAR KBFI 140453Z 30003KT 10SM CLR 16/10 A3001 RMK AO2 SLP162 T01560100=
201108140353 METAR KBFI 140353Z 33003KT 10SM BKN050 17/10 A3001 RMK AO2 SLP160 T01670100=
201108140253 METAR KBFI 140253Z 25003KT 10SM SCT045 SCT200 19/09 A2999 RMK AO2 SLP155 T01940094 55005=
201108140153 METAR KBFI 140153Z VRB04KT 10SM FEW045 SCT150 21/09 A2999 RMK AO2 SLP154 T02060094=
201108140053 METAR KBFI 140053Z 17004KT 10SM SCT046 21/09 A3000 RMK AO2 SLP158 T02060094=
201108132353 METAR KBFI 132353Z VRB05KT 10SM SCT039 21/09 A3001 RMK AO2 SLP161 T02060089 10211 20172 58010=
201108132253 METAR KBFI 132253Z COR 16007KT 10SM BKN039 21/10 A3002 RMK AO2 SLP165 T02060100=
201108132153 METAR KBFI 132153Z VRB06KT 10SM OVC037 19/10 A3003 RMK AO2 SLP169 T01940100=
201108132053 METAR KBFI 132053Z 17007KT 10SM OVC035 19/10 A3004 RMK AO2 SLP171 T01890100 56003=
201108131953 METAR KBFI 131953Z VRB04KT 10SM BKN035 19/10 A3004 RMK AO2 SLP171 T01890100=
201108131853 METAR KBFI 131853Z 17006KT 10SM CLR 19/09 A3004 RMK AO2 SLP173 T01890094=
201108131753 METAR KBFI 131753Z 00000KT 10SM CLR 17/10 A3004 RMK AO2 SLP174 T01720100 10172 20122 58002=
201108131711 SPECI KBFI 131711Z 21007KT 10SM SCT020 16/10 A3005 RMK AO2=
201108131711 SPECI KBFI 131711Z 21007KT 10SM SCT020 16/10 A3005 RMK AO2=
201108131653 METAR KBFI 131653Z 19004KT 10SM BKN018 15/10 A3005 RMK AO2 SLP174 T01500100=
201108131553 METAR KBFI 131553Z 16005KT 10SM OVC013 13/11 A3006 RMK AO2 SLP178 T01330106=
201108131453 METAR KBFI 131453Z 15005KT 10SM OVC011 13/11 A3005 RMK AO2 SLP176 T01280106 53010=
201108131353 METAR KBFI 131353Z 20004KT 10SM OVC011 13/11 A3004 RMK AO2 SLP172 T01280111=
201108131253 METAR KBFI 131253Z COR VRB03KT 10SM BKN014 12/11 A3003 RMK AO2 SLP168 T01220106=
201108131224 SPECI KBFI 131224Z 00000KT 10SM OVC016 13/11 A3002 RMK AO2=
201108131224 SPECI KBFI 131224Z 00000KT 10SM OVC016 13/11 A3002 RMK AO2=
201108131153 METAR KBFI 131153Z 23003KT 10SM FEW012 12/11 A3002 RMK AO2 SLP165 T01220106 10183 20122 53004=
201108131053 METAR KBFI 131053Z 19003KT 10SM CLR 13/11 A3001 RMK AO2 SLP163 T01330106=
201108130953 METAR KBFI 130953Z AUTO 21004KT 10SM CLR 14/11 A3001 RMK AO2 SLP162 T01390106 TSNO=
201108130853 METAR KBFI 130853Z 21003KT 10SM CLR 14/11 A3001 RMK AO2 SLP161 T01440106 51008=
201108130753 METAR KBFI 130753Z 00000KT 10SM CLR 16/12 A3000 RMK AO2 SLP160 T01560117 402440128=
201108130653 METAR KBFI 130653Z 00000KT 10SM CLR 17/12 A2999 RMK AO2 SLP154 T01670117=
201108130553 METAR KBFI 130553Z 00000KT 10SM CLR 18/12 A2998 RMK AO2 SLP153 60000 T01830122 10244 20183 51004=
201108130453 METAR KBFI 130453Z 00000KT 10SM CLR 20/12 A2998 RMK AO2 RAE01 SLP152 P0000 T02000117=
201108130353 METAR KBFI 130353Z 00000KT 10SM -RA CLR 22/11 A2998 RMK AO2 RAB52 SLP151 P0000 T02170111=
201108130253 METAR KBFI 130253Z 31004KT 10SM CLR 22/11 A2997 RMK AO2 SLP149 T02220111 56008=
201108130153 METAR KBFI 130153Z 00000KT 10SM CLR 24/11 A2997 RMK AO2 SLP150 T02390106=
201108130053 METAR KBFI 130053Z 13003KT 10SM CLR 24/11 A2998 RMK AO2 SLP153 T02390106=
201108122353 METAR KBFI 122353Z VRB04KT 10SM CLR 24/11 A3000 RMK AO2 SLP157 T02390106 10239 20150 57016=
201108122253 METAR KBFI 122253Z VRB04KT 10SM CLR 23/11 A3001 RMK AO2 SLP162 T02280111=
201108122153 METAR KBFI 122153Z 31005KT 10SM CLR 21/12 A3003 RMK AO2 SLP168 T02110117=
201108122053 METAR KBFI 122053Z 33004KT 10SM CLR 20/12 A3004 RMK AO2 SLP173 T02000117 58011=
201108121953 METAR KBFI 121953Z 32005KT 9SM SCT250 17/12 A3006 RMK AO2 SLP178 T01720122=
201108121853 METAR KBFI 121853Z 30005KT 9SM OVC011 17/12 A3008 RMK AO2 SLP185 T01670122=
201108121757 SPECI KBFI 121757Z 34004KT 7SM OVC011 16/12 A3008 RMK AO2=
201108121757 SPECI KBFI 121757Z 34004KT 7SM OVC011 16/12 A3008 RMK AO2=
201108121753 METAR KBFI 121753Z 34004KT 7SM SCT004 OVC007 15/12 A3008 RMK AO2 SLP184 T01500122 10150 20128 50001=
201108121731 SPECI KBFI 121731Z 32004KT 7SM OVC011 15/12 A3008 RMK AO2=
201108121731 SPECI KBFI 121731Z 32004KT 7SM OVC011 15/12 A3008 RMK AO2=
201108121653 METAR KBFI 121653Z 00000KT 6SM BR OVC009 14/12 A3008 RMK AO2 SLP186 T01440122=
201108121553 METAR KBFI 121553Z 00000KT 7SM OVC009 14/12 A3008 RMK AO2 SLP184 T01390117=
201108121453 METAR KBFI 121453Z 30003KT 7SM OVC007 13/12 A3007 RMK AO2 SLP183 T01330117 51006=
201108121353 METAR KBFI 121353Z 00000KT 9SM OVC007 13/12 A3007 RMK AO2 SLP182 T01280117=
201108121253 METAR KBFI 121253Z 28006KT 10SM OVC007 13/11 A3007 RMK AO2 SLP180 T01280111=
201108121153 METAR KBFI 121153Z 31003KT 10SM OVC009 13/11 A3006 RMK AO2 SLP177 T01330111 10167 20133 58003=
201108121121 SPECI KBFI 121121Z 31003KT 10SM BKN011 13/11 A3006 RMK AO2=
201108121121 SPECI KBFI 121121Z 31003KT 10SM BKN011 13/11 A3006 RMK AO2=
201108121053 METAR KBFI 121053Z VRB03KT 10SM CLR 13/11 A3006 RMK AO2 SLP180 T01330111=
201108120953 METAR KBFI 120953Z 00000KT 10SM CLR 14/11 A3007 RMK AO2 SLP181 T01440111=
201108120853 METAR KBFI 120853Z 33003KT 10SM CLR 15/11 A3006 RMK AO2 SLP180 T01500111 55000=
201108120753 METAR KBFI 120753Z 34003KT 10SM CLR 16/11 A3006 RMK AO2 SLP180 T01560111 402330128=
201108120653 METAR KBFI 120653Z 34003KT 10SM CLR 16/11 A3006 RMK AO2 SLP180 T01610111=
201108120553 METAR KBFI 120553Z 32004KT 10SM CLR 17/11 A3007 RMK AO2 SLP181 T01670111 10233 20167 51008=
201108120453 METAR KBFI 120453Z VRB04KT 10SM CLR 17/11 A3006 RMK AO2 SLP180 T01720111=
201108120353 METAR KBFI 120353Z 31005KT 10SM CLR 18/11 A3006 RMK AO2 SLP177 T01830111=
201108120253 METAR KBFI 120253Z 29006KT 10SM CLR 21/11 A3004 RMK AO2 SLP173 T02110106 56005=
201108120153 METAR KBFI 120153Z 30006KT 10SM CLR 22/11 A3004 RMK AO2 SLP174 T02220111=
201108120053 SPECI KBFI 120053Z VRB05KT 10SM CLR 22/11 A3005 RMK AO2 SLP176 T02220111=
201108112353 METAR KBFI 112353Z VRB04KT 10SM FEW030 23/11 A3006 RMK AO2 SLP178 T02280106 10233 20161 58008=
201108112253 METAR KBFI 112253Z 28005KT 10SM CLR 23/11 A3007 RMK AO2 SLP181 T02280111=
201108112153 METAR KBFI 112153Z VRB04KT 10SM CLR 22/12 A3007 RMK AO2 SLP184 T02220117=
201108112053 METAR KBFI 112053Z VRB03KT 10SM CLR 20/11 A3008 RMK AO2 SLP185 T02000111 58005=
201108111953 METAR KBFI 111953Z 00000KT 10SM SCT026 SCT250 18/11 A3009 RMK AO2 SLP188 T01830106=
201108111853 METAR KBFI 111853Z COR 00000KT 10SM BKN024 18/11 A3010 RMK AO2 SLP192 T01780111=
201108111753 METAR KBFI 111753Z 22004KT 10SM OVC022 17/11 A3009 RMK AO2 SLP190 T01670111 10167 20128 52010=
201108111653 METAR KBFI 111653Z 00000KT 10SM OVC022 16/11 A3009 RMK AO2 SLP187 T01560106=
201108111553 METAR KBFI 111553Z 00000KT 10SM OVC024 15/11 A3007 RMK AO2 SLP182 T01500106=
201108111453 METAR KBFI 111453Z 00000KT 10SM OVC024 14/10 A3006 RMK AO2 SLP180 T01440100 53010=
201108111353 METAR KBFI 111353Z 00000KT 10SM BKN024 13/11 A3005 RMK AO2 SLP176 T01330106=
201108111253 METAR KBFI 111253Z 00000KT 10SM FEW025 13/11 A3004 RMK AO2 SLP172 T01280106=
201108111153 METAR KBFI 111153Z 00000KT 10SM BKN043 13/10 A3003 RMK AO2 SLP170 T01330100 10156 20133 53006=
201108111053 METAR KBFI 111053Z 00000KT 10SM OVC043 14/11 A3003 RMK AO2 SLP167 T01390106=
201108110953 METAR KBFI 110953Z 00000KT 10SM BKN043 14/11 A3002 RMK AO2 SLP165 T01390106=
201108110853 METAR KBFI 110853Z 00000KT 10SM OVC041 14/11 A3002 RMK AO2 SLP164 T01440106 53004=
201108110753 METAR KBFI 110753Z 00000KT 10SM OVC039 14/11 A3001 RMK AO2 SLP163 T01440106 402220133=
201108110653 METAR KBFI 110653Z 28003KT 10SM BKN041 14/11 A3001 RMK AO2 SLP160 T01440111=
201108110553 METAR KBFI 110553Z 28005KT 10SM SCT050 16/11 A3001 RMK AO2 SLP160 T01560111 10222 20156 51012=
201108110453 METAR KBFI 110453Z 30003KT 10SM CLR 17/11 A2999 RMK AO2 SLP156 T01720111=
201108110353 METAR KBFI 110353Z 32004KT 10SM OVC049 19/11 A2998 RMK AO2 SLP153 T01940106=
201108110253 METAR KBFI 110253Z 00000KT 10SM BKN050 21/11 A2997 RMK AO2 SLP149 T02110106 55004=
201108110153 METAR KBFI 110153Z VRB04KT 10SM FEW050 21/08 A2997 RMK AO2 SLP147 T02110083=
201108110053 METAR KBFI 110053Z 14004KT 10SM CLR 21/09 A2997 RMK AO2 SLP149 T02110089=
201108102353 METAR KBFI 102353Z VRB03KT 10SM SCT040 21/10 A2998 RMK AO2 SLP152 T02110100 10211 20161 58009=
201108102253 METAR KBFI 102253Z 16005KT 10SM OVC045 20/11 A3000 RMK AO2 SLP157 T02000106=
201108102153 METAR KBFI 102153Z 23006KT 10SM OVC039 20/10 A3000 RMK AO2 SLP160 T02000100=
201108102053 METAR KBFI 102053Z VRB05KT 10SM SCT036 BKN044 20/11 A3001 RMK AO2 SLP161 T02000106 58005=
201108101953 METAR KBFI 101953Z COR 13005KT 10SM BKN043 19/11 A3002 RMK AO2 SLP164 T01890111=
201108101853 METAR KBFI 101853Z VRB03KT 10SM OVC043 17/11 A3002 RMK AO2 SLP166 T01720106=
201108101753 METAR KBFI 101753Z VRB04KT 10SM BKN043 BKN080 17/11 A3002 RMK AO2 SLP167 T01670106 10167 20133 51002=
201108101653 METAR KBFI 101653Z 00000KT 10SM BKN041 OVC060 16/11 A3002 RMK AO2 SLP166 T01560111=
201108101553 METAR KBFI 101553Z 20005KT 10SM FEW020 OVC039 14/11 A3002 RMK AO2 SLP166 T01440106=
201108101453 METAR KBFI 101453Z 24003KT 10SM OVC039 14/10 A3002 RMK AO2 SLP165 T01390100 50003=
201108101353 METAR KBFI 101353Z 00000KT 10SM FEW050 BKN070 13/11 A3002 RMK AO2 SLP165 T01330106=
201108101253 METAR KBFI 101253Z 22003KT 10SM BKN050 OVC065 14/11 A3001 RMK AO2 SLP163 T01390106=
201108101227 SPECI KBFI 101227Z 00000KT 10SM SCT050 OVC060 14/11 A3001 RMK AO2=
201108101227 SPECI KBFI 101227Z 00000KT 10SM SCT050 OVC060 14/11 A3001 RMK AO2=
201108101153 METAR KBFI 101153Z 00000KT 10SM OVC060 14/11 A3001 RMK AO2 SLP162 T01390106 10156 20139 58001=
201108101053 METAR KBFI 101053Z 00000KT 10SM SCT039 OVC055 14/11 A3001 RMK AO2 SLP163 T01440106=
201108100953 METAR KBFI 100953Z 00000KT 10SM FEW041 OVC060 14/11 A3002 RMK AO2 SLP163 T01390106=
201108100853 METAR KBFI 100853Z 00000KT 10SM OVC060 14/11 A3001 RMK AO2 SLP163 T01440106 58003=
201108100753 METAR KBFI 100753Z 00000KT 10SM SCT047 SCT055 14/11 A3002 RMK AO2 SLP164 T01390106 402060133=
201108100653 METAR KBFI 100653Z 00000KT 10SM CLR 14/11 A3002 RMK AO2 SLP166 T01440106=
201108100553 METAR KBFI 100553Z 30004KT 10SM SCT048 16/11 A3002 RMK AO2 SLP165 T01560111 10206 20156 51003=
201108100453 METAR KBFI 100453Z 00000KT 10SM OVC048 17/11 A3002 RMK AO2 SLP165 T01720111=
201108100353 METAR KBFI 100353Z 00000KT 10SM OVC046 18/11 A3001 RMK AO2 SLP163 T01830111=
201108100253 METAR KBFI 100253Z VRB04KT 10SM OVC048 19/11 A3001 RMK AO2 SLP162 T01940106 56010=
201108100153 METAR KBFI 100153Z VRB04KT 10SM OVC042 20/11 A3002 RMK AO2 SLP164 T02000106=
201108100053 METAR KBFI 100053Z 19004KT 10SM OVC046 20/11 A3003 RMK AO2 SLP168 T02000106=
201108092353 METAR KBFI 092353Z 00000KT 10SM OVC040 20/11 A3004 RMK AO2 SLP172 T02000106 10206 20167 58011=
201108092253 METAR KBFI 092253Z 00000KT 10SM OVC042 19/11 A3005 RMK AO2 SLP176 T01940106=
201108092153 METAR KBFI 092153Z VRB04KT 10SM BKN038 20/11 A3007 RMK AO2 SLP180 T02000106=
201108092053 METAR KBFI 092053Z 00000KT 10SM BKN034 19/11 A3007 RMK AO2 SLP183 T01890106 58002=
201108091953 METAR KBFI 091953Z VRB05KT 10SM BKN030 OVC060 18/10 A3008 RMK AO2 SLP186 T01830100=
201108091853 METAR KBFI 091853Z 00000KT 10SM BKN030 BKN060 18/11 A3008 RMK AO2 SLP186 T01780106=
201108091753 METAR KBFI 091753Z VRB06KT 10SM BKN025 BKN060 17/11 A3008 RMK AO2 SLP185 T01720106 10172 20133 58001=
201108091653 METAR KBFI 091653Z 21004KT 10SM FEW023 BKN044 OVC060 17/10 A3008 RMK AO2 SLP185 T01670100=
201108091553 METAR KBFI 091553Z 19003KT 10SM FEW023 BKN044 BKN250 16/11 A3008 RMK AO2 SLP187 T01560106=
201108091453 METAR KBFI 091453Z 21005KT 10SM FEW040 BKN050 14/11 A3008 RMK AO2 SLP186 T01440111 53006=
201108091353 METAR KBFI 091353Z 00000KT 10SM BKN050 14/11 A3007 RMK AO2 SLP183 T01390106=
201108091253 METAR KBFI 091253Z VRB06KT 10SM BKN050 14/11 A3006 RMK AO2 SLP180 T01390106=
201108091153 METAR KBFI 091153Z 17005KT 10SM BKN041 OVC050 14/11 A3006 RMK AO2 SLP180 T01440106 10167 20139 50003=
201108091053 METAR KBFI 091053Z 16006KT 10SM OVC041 14/11 A3006 RMK AO2 SLP180 T01440106=
201108090953 METAR KBFI 090953Z 16006KT 10SM OVC049 14/11 A3006 RMK AO2 SLP177 T01440106=
201108090853 METAR KBFI 090853Z 17005KT 10SM OVC049 15/11 A3005 RMK AO2 SLP177 T01500111 53003=
201108090753 METAR KBFI 090753Z 17005KT 10SM OVC049 16/11 A3005 RMK AO2 SLP174 T01560111 402170128=
201108090653 METAR KBFI 090653Z 19004KT 10SM OVC045 17/11 A3004 RMK AO2 SLP173 T01670111=
201108090553 METAR KBFI 090553Z 21004KT 10SM OVC041 17/12 A3005 RMK AO2 SLP174 T01670117 10211 20167 51008=
201108090453 METAR KBFI 090453Z 16004KT 10SM BKN041 18/12 A3004 RMK AO2 SLP173 T01780117=
201108090353 METAR KBFI 090353Z 00000KT 10SM SCT050 18/11 A3003 RMK AO2 SLP168 T01780111=
201108090253 METAR KBFI 090253Z 20005KT 10SM CLR 19/11 A3002 RMK AO2 SLP166 T01940111 56007=
201108090153 METAR KBFI 090153Z VRB06KT 10SM FEW038 20/12 A3003 RMK AO2 SLP168 T02000117=
201108090053 METAR KBFI 090053Z VRB04KT 10SM BKN036 20/12 A3003 RMK AO2 SLP169 T02000117=
201108082353 METAR KBFI 082353Z VRB04KT 10SM BKN036 21/12 A3004 RMK AO2 SLP172 T02110122 10217 20167 56007=
201108082253 METAR KBFI 082253Z VRB04KT 10SM BKN036 BKN200 21/12 A3004 RMK AO2 SLP174 T02060117=
201108082153 METAR KBFI 082153Z 15005KT 10SM BKN034 21/12 A3006 RMK AO2 SLP178 T02060117=
201108082053 METAR KBFI 082053Z 18005KT 10SM OVC032 20/12 A3006 RMK AO2 SLP179 T02000117 58004=
201108081953 METAR KBFI 081953Z 14006KT 10SM OVC028 19/11 A3007 RMK AO2 SLP181 T01890111=
201108081905 SPECI KBFI 081905Z 19003KT 10SM BKN026 OVC041 18/11 A3007 RMK AO2 $=
201108081905 SPECI KBFI 081905Z 19003KT 10SM BKN026 OVC041 18/11 A3007 RMK AO2 $=
201108081853 METAR KBFI 081853Z 00000KT 10SM SCT026 OVC041 18/11 A3007 RMK AO2 SLP183 T01780111 $=
201108081753 METAR KBFI 081753Z VRB03KT SCT024 OVC041 17/11 A3007 RMK AO2 SLP183 T01670111 10172 20128 51002 $=
201108081751 SPECI KBFI 081751Z 22004KT SCT024 OVC041 17/11 A3007 RMK AO2 $=
201108081751 SPECI KBFI 081751Z 22004KT SCT024 OVC041 17/11 A3007 RMK AO2 $=
201108081653 METAR KBFI 081653Z 22005KT 10SM BKN019 OVC025 16/11 A3008 RMK AO2 SLP184 T01560111=
201108081553 METAR KBFI 081553Z 20004KT 10SM BKN021 OVC023 14/11 A3007 RMK AO2 SLP181 T01440111=
201108081533 SPECI KBFI 081533Z 19003KT 10SM SCT014 OVC023 14/11 A3007 RMK AO2=
201108081533 SPECI KBFI 081533Z 19003KT 10SM SCT014 OVC023 14/11 A3007 RMK AO2=
201108081453 METAR KBFI 081453Z 00000KT 10SM BKN014 OVC023 14/11 A3006 RMK AO2 SLP180 T01390111 52007=
201108081355 SPECI KBFI 081355Z 00000KT 10SM OVC012 13/11 A3006 RMK AO2=
201108081355 SPECI KBFI 081355Z 00000KT 10SM OVC012 13/11 A3006 RMK AO2=
201108081353 METAR KBFI 081353Z 00000KT 10SM SCT012 OVC027 13/11 A3006 RMK AO2 SLP179 T01330111=
201108081253 METAR KBFI 081253Z 00000KT 10SM SCT012 OVC027 13/11 A3005 RMK AO2 SLP174 T01280106=
201108081226 SPECI KBFI 081226Z 19005KT 10SM FEW012 BKN029 13/11 A3005 RMK AO2=
201108081226 SPECI KBFI 081226Z 19005KT 10SM FEW012 BKN029 13/11 A3005 RMK AO2=
201108081153 METAR KBFI 081153Z 18004KT 10SM SCT025 13/11 A3004 RMK AO2 SLP173 T01330106 10178 20128 53007=
201108081053 METAR KBFI 081053Z 17003KT 10SM CLR 13/11 A3004 RMK AO2 SLP171 T01330106=
201108080953 METAR KBFI 080953Z 00000KT 10SM CLR 14/11 A3002 RMK AO2 SLP167 T01440111=
201108080853 METAR KBFI 080853Z 15004KT 10SM CLR 14/12 A3002 RMK AO2 SLP165 T01440117 51004=
201108080753 METAR KBFI 080753Z 00000KT 10SM CLR 16/12 A3002 RMK AO2 SLP165 T01610122 402440156=
201108080653 METAR KBFI 080653Z 00000KT 10SM CLR 17/13 A3001 RMK AO2 SLP163 T01720128=
201108080553 METAR KBFI 080553Z 00000KT 10SM CLR 18/13 A3001 RMK AO2 SLP161 60000 T01780128 10244 20178 53007=
201108080453 METAR KBFI 080453Z 30003KT 10SM CLR 19/13 A3000 RMK AO2 RAB10E17 SLP157 P0000 T01940133=
201108080353 METAR KBFI 080353Z 00000KT 10SM BKN250 20/13 A2999 RMK AO2 SLP154 T02000133=
201108080253 METAR KBFI 080253Z 25004KT 10SM CLR 22/13 A2999 RMK AO2 SLP154 T02170128 56004=
201108080153 METAR KBFI 080153Z 23006KT 10SM BKN250 23/13 A2999 RMK AO2 SLP154 T02280133=
201108080053 METAR KBFI 080053Z 22004KT 10SM FEW044 BKN200 23/13 A2999 RMK AO2 SLP156 T02330128=
201108072353 METAR KBFI 072353Z COR 24005KT 10SM SCT046 24/13 A3000 RMK AO2 SLP158 T02390128 10244 20183 58010=
201108072253 METAR KBFI 072253Z 27006KT 10SM SCT044 24/12 A3001 RMK AO2 SLP162 T02390122=
201108072153 METAR KBFI 072153Z VRB03KT 10SM SCT040 23/12 A3002 RMK AO2 SLP166 T02330117=
201108072115 SPECI KBFI 072115Z VRB05KT 10SM BKN040 23/13 A3003 RMK AO2=
201108072115 SPECI KBFI 072115Z VRB05KT 10SM BKN040 23/13 A3003 RMK AO2=
201108072053 METAR KBFI 072053Z COR VRB05KT 10SM SCT036 22/12 A3003 RMK AO2 SLP168 T02170122 58003=
201108071953 METAR KBFI 071953Z VRB03KT 10SM SCT026 22/13 A3004 RMK AO2 SLP171 T02170133=
201108071931 SPECI KBFI 071931Z VRB04KT 10SM SCT026 22/14 A3004 RMK AO2=
201108071931 SPECI KBFI 071931Z VRB04KT 10SM SCT026 22/14 A3004 RMK AO2=
201108071900 SPECI KBFI 071900Z 20005KT 10SM BKN024 BKN035 21/14 A3004 RMK AO2=
201108071900 SPECI KBFI 071900Z 20005KT 10SM BKN024 BKN035 21/14 A3004 RMK AO2=
201108071853 METAR KBFI 071853Z 00000KT 10SM SCT024 20/13 A3004 RMK AO2 SLP172 T02000133=
201108071753 METAR KBFI 071753Z 00000KT 10SM SCT019 OVC040 19/14 A3004 RMK AO2 SLP172 T01890139 10189 20156 50002=
201108071735 SPECI KBFI 071735Z 18003KT 10SM BKN019 OVC040 18/14 A3004 RMK AO2=
201108071735 SPECI KBFI 071735Z 18003KT 10SM BKN019 OVC040 18/14 A3004 RMK AO2=
201108071719 SPECI KBFI 071719Z 00000KT 10SM SCT017 OVC040 18/13 A3004 RMK AO2=
201108071719 SPECI KBFI 071719Z 00000KT 10SM SCT017 OVC040 18/13 A3004 RMK AO2=
201108071653 METAR KBFI 071653Z 23003KT 10SM BKN017 OVC038 17/13 A3004 RMK AO2 SLP173 T01720133=
201108071622 SPECI KBFI 071622Z 00000KT 10SM OVC015 17/13 A3004 RMK AO2=
201108071622 SPECI KBFI 071622Z 00000KT 10SM OVC015 17/13 A3004 RMK AO2=
201108071553 METAR KBFI 071553Z 00000KT 10SM OVC013 17/13 A3004 RMK AO2 SLP171 T01670128=
201108071515 SPECI KBFI 071515Z 00000KT 10SM BKN013 OVC037 16/13 A3004 RMK AO2=
201108071515 SPECI KBFI 071515Z 00000KT 10SM BKN013 OVC037 16/13 A3004 RMK AO2=
201108071453 METAR KBFI 071453Z 00000KT 10SM FEW013 BKN037 16/13 A3003 RMK AO2 SLP170 T01560128 53008=
201108071353 METAR KBFI 071353Z 00000KT 10SM BKN037 16/13 A3002 RMK AO2 SLP166 T01560128=
201108071253 METAR KBFI 071253Z 00000KT 10SM OVC037 17/13 A3001 RMK AO2 SLP163 T01670128=
201108071153 METAR KBFI 071153Z 00000KT 10SM OVC031 17/13 A3001 RMK AO2 SLP161 T01670128 10183 20156 53003=
201108071134 SPECI KBFI 071134Z 00000KT 10SM OVC031 17/13 A3001 RMK AO2=
201108071134 SPECI KBFI 071134Z 00000KT 10SM OVC031 17/13 A3001 RMK AO2=
201108071053 METAR KBFI 071053Z AUTO 00000KT 10SM OVC029 17/13 A3000 RMK AO2 SLP159 T01670128 TSNO=
201108071023 SPECI KBFI 071023Z AUTO 00000KT 10SM BKN029 16/13 A3000 RMK AO2 TSNO=
201108071023 SPECI KBFI 071023Z AUTO 00000KT 10SM BKN029 16/13 A3000 RMK AO2 TSNO=
201108070953 METAR KBFI 070953Z AUTO 31003KT 10SM CLR 16/13 A3000 RMK AO2 SLP158 T01560128 TSNO=
201108070853 METAR KBFI 070853Z 00000KT 10SM CLR 16/13 A3000 RMK AO2 SLP159 T01610128 53002=
201108070753 METAR KBFI 070753Z 00000KT 10SM CLR 17/13 A3000 RMK AO2 SLP158 T01670128 402330150=
201108070653 METAR KBFI 070653Z 00000KT 10SM CLR 17/12 A3000 RMK AO2 SLP157 T01720122=
201108070553 METAR KBFI 070553Z 30003KT 10SM CLR 18/13 A2999 RMK AO2 SLP156 T01830133 10233 20183 50001=
201108070453 METAR KBFI 070453Z 00000KT 10SM CLR 20/13 A3000 RMK AO2 SLP157 T02000133=
201108070353 METAR KBFI 070353Z 25003KT 10SM CLR 21/14 A2999 RMK AO2 SLP156 T02060139=
201108070253 METAR KBFI 070253Z 28004KT 10SM CLR 22/13 A2999 RMK AO2 SLP155 T02170133 56008=
201108070153 METAR KBFI 070153Z 26004KT 10SM SCT035 22/13 A2999 RMK AO2 SLP157 T02220128=
201108070100 METAR KBFI NIL=
201108070000 METAR KBFI NIL=
201108062300 METAR KBFI NIL=
201108062153 METAR KBFI 062153Z 31006KT 10SM FEW046 22/13 A3004 RMK AO2 SLP170 T02220133=
201108062053 METAR KBFI 062053Z VRB04KT 10SM SCT025 BKN048 21/13 A3005 RMK AO2 SLP174 T02110128 58003=
201108061953 METAR KBFI 061953Z VRB03KT 10SM SCT025 BKN048 19/13 A3005 RMK AO2 SLP176 T01940133=
201108061853 METAR KBFI 061853Z VRB03KT 10SM FEW021 OVC046 19/13 A3006 RMK AO2 SLP177 T01890133=
201108061753 METAR KBFI 061753Z 32004KT 10SM BKN021 OVC046 18/13 A3005 RMK AO2 SLP177 T01830133 10183 20156 53003=
201108061653 METAR KBFI 061653Z 25003KT 10SM BKN021 OVC046 18/14 A3005 RMK AO2 SLP175 T01780139=
201108061553 METAR KBFI 061553Z 00000KT 10SM OVC017 17/13 A3005 RMK AO2 SLP175 T01670128=
201108061453 METAR KBFI 061453Z 27003KT 10SM OVC017 16/13 A3005 RMK AO2 SLP174 T01610128 53005=
201108061353 METAR KBFI 061353Z 35003KT 10SM OVC019 16/13 A3004 RMK AO2 SLP172 T01610128=
201108061253 METAR KBFI 061253Z 00000KT 10SM OVC019 16/13 A3003 RMK AO2 SLP170 T01560128=
201108061221 SPECI KBFI 061221Z 00000KT 10SM BKN019 OVC065 16/13 A3003 RMK AO2=
201108061221 SPECI KBFI 061221Z 00000KT 10SM BKN019 OVC065 16/13 A3003 RMK AO2=
201108061214 SPECI KBFI 061214Z 00000KT 10SM SCT019 OVC065 16/13 A3003 RMK AO2=
201108061214 SPECI KBFI 061214Z 00000KT 10SM SCT019 OVC065 16/13 A3003 RMK AO2=
201108061153 METAR KBFI 061153Z 00000KT 10SM BKN019 OVC065 16/13 A3003 RMK AO2 SLP168 T01560128 10183 20150 55000=
201108061053 METAR KBFI 061053Z 00000KT 10SM BKN019 BKN046 15/13 A3003 RMK AO2 SLP168 T01500128=
201108060953 METAR KBFI 060953Z 00000KT 10SM FEW021 OVC042 16/13 A3003 RMK AO2 SLP168 T01610128=
201108060853 METAR KBFI 060853Z 30003KT 10SM OVC042 16/13 A3003 RMK AO2 SLP169 T01610128 56003=
201108060753 METAR KBFI 060753Z 33003KT 10SM FEW026 OVC038 17/13 A3003 RMK AO2 SLP170 T01670128 401940150=
201108060653 METAR KBFI 060653Z 00000KT 10SM OVC038 17/13 A3003 RMK AO2 SLP170 T01720128=
201108060553 METAR KBFI 060553Z 29003KT 10SM SCT028 OVC036 18/13 A3004 RMK AO2 SLP171 60000 T01830133 10194 20183 50001=
201108060453 METAR KBFI 060453Z AUTO 05003KT 10SM OVC036 19/14 A3004 RMK AO2 SLP172 T01940139 TSNO=
201108060353 METAR KBFI 060353Z 00000KT 10SM OVC032 19/14 A3004 RMK AO2 RAB43E50 SLP172 P0000 T01890139=
201108060253 METAR KBFI 060253Z 00000KT 10SM FEW023 OVC034 19/13 A3004 RMK AO2 SLP170 T01890133 56007=
201108060153 METAR KBFI 060153Z 24003KT 10SM SCT025 OVC032 19/14 A3004 RMK AO2 SLP173 T01890139=
201108060053 METAR KBFI 060053Z 24005KT 10SM OVC026 19/13 A3006 RMK AO2 SLP177 T01890133=
201108052353 METAR KBFI 052353Z 00000KT 10SM OVC022 18/13 A3006 RMK AO2 SLP180 T01830133 10194 20172 58006=
201108052253 METAR KBFI 052253Z 21007KT 10SM OVC029 19/13 A3008 RMK AO2 SLP184 T01890133=
201108052153 METAR KBFI 052153Z VRB04KT 10SM OVC025 19/13 A3008 RMK AO2 SLP184 T01890128=
201108052053 METAR KBFI 052053Z 17008KT 10SM OVC025 19/13 A3008 RMK AO2 SLP186 T01890128 50000=
201108051953 METAR KBFI 051953Z 19006KT 10SM OVC023 18/12 A3008 RMK AO2 SLP186 T01780122=
201108051853 METAR KBFI 051853Z AUTO VRB05KT 10SM OVC025 18/12 A3009 RMK AO2 SLP187 T01780122 TSNO=
201108051753 METAR KBFI 051753Z 18008KT 10SM OVC023 18/12 A3008 RMK AO2 SLP186 T01780122 10178 20150 51006=
201108051700 SPECI KBFI 051700Z 23006KT 10SM BKN015 OVC023 17/13 A3008 RMK AO2=
201108051700 SPECI KBFI 051700Z 23006KT 10SM BKN015 OVC023 17/13 A3008 RMK AO2=
201108051653 METAR KBFI 051653Z 22004KT 10SM BKN010 OVC021 17/13 A3008 RMK AO2 SLP186 T01670133=
201108051553 METAR KBFI 051553Z 22003KT 10SM BKN010 OVC014 16/13 A3007 RMK AO2 SLP183 T01560133=
201108051513 SPECI KBFI 051513Z 00000KT 10SM BKN010 OVC018 16/13 A3007 RMK AO2=
201108051513 SPECI KBFI 051513Z 00000KT 10SM BKN010 OVC018 16/13 A3007 RMK AO2=
201108051453 METAR KBFI 051453Z 19004KT 10SM FEW012 OVC018 15/13 A3006 RMK AO2 SLP180 T01500133 53006=
201108051353 METAR KBFI 051353Z 20004KT 10SM OVC010 15/13 A3005 RMK AO2 SLP176 T01500133=
201108051253 METAR KBFI 051253Z 19004KT 10SM OVC010 15/13 A3004 RMK AO2 SLP173 T01500133=
201108051153 METAR KBFI 051153Z 21003KT 10SM OVC012 16/13 A3004 RMK AO2 SLP173 T01560133 10200 20156 50007=
201108051053 METAR KBFI 051053Z 17005KT 10SM OVC012 16/13 A3005 RMK AO2 SLP174 T01560133=
201108050953 METAR KBFI 050953Z VRB03KT 10SM OVC012 16/13 A3003 RMK AO2 SLP169 T01560133=
201108050938 SPECI KBFI 050938Z 19006KT 10SM BKN012 OVC019 16/13 A3003 RMK AO2=
201108050938 SPECI KBFI 050938Z 19006KT 10SM BKN012 OVC019 16/13 A3003 RMK AO2=
201108050918 SPECI KBFI 050918Z VRB04KT 10SM BKN019 16/14 A3003 RMK AO2=
201108050918 SPECI KBFI 050918Z VRB04KT 10SM BKN019 16/14 A3003 RMK AO2=
201108050853 METAR KBFI 050853Z 00000KT 10SM CLR 16/13 A3002 RMK AO2 SLP166 T01610133 53008=
201108050753 METAR KBFI 050753Z 00000KT 10SM CLR 18/14 A3001 RMK AO2 SLP162 T01830139 402610150=
201108050653 METAR KBFI 050653Z VRB03KT 10SM OVC080 19/14 A3001 RMK AO2 SLP160 T01940139=
201108050553 METAR KBFI 050553Z 00000KT 10SM CLR 20/14 A3000 RMK AO2 SLP158 T02000139 10261 20189 53016=
201108050453 METAR KBFI 050453Z 00000KT 10SM CLR 21/13 A2999 RMK AO2 SLP154 T02110128=
201108050353 METAR KBFI 050353Z 30004KT 10SM FEW065 22/13 A2996 RMK AO2 SLP146 T02170128=
201108050253 METAR KBFI 050253Z 30005KT 10SM CLR 23/12 A2995 RMK AO2 SLP143 T02280122 55001=
201108050153 METAR KBFI 050153Z 34006KT 10SM CLR 26/09 A2994 RMK AO2 SLP139 T02560094=
201108050053 METAR KBFI 050053Z 31006KT 10SM CLR 26/12 A2995 RMK AO2 SLP141 T02610117=
201108042353 METAR KBFI 042353Z AUTO 31005KT 10SM CLR 26/11 A2995 RMK AO2 SLP143 T02560111 10261 20206 56010 TSNO=
201108042253 METAR KBFI 042253Z 32005KT 10SM CLR 26/12 A2996 RMK AO2 SLP146 T02610117=
201108042153 METAR KBFI 042153Z 30008KT 10SM CLR 25/12 A2997 RMK AO2 SLP149 T02500122=
201108042053 METAR KBFI 042053Z 31005KT 10SM CLR 24/13 A2999 RMK AO2 SLP154 T02440128 58006=
201108041953 METAR KBFI 041953Z VRB05KT 10SM CLR 23/13 A2999 RMK AO2 SLP155 T02280128=
201108041853 METAR KBFI 041853Z VRB03KT 10SM CLR 22/13 A3000 RMK AO2 SLP158 T02170128=
201108041753 METAR KBFI 041753Z VRB04KT 10SM CLR 21/13 A3000 RMK AO2 SLP160 T02060128 10206 20150 51002=
201108041653 METAR KBFI 041653Z VRB03KT 10SM CLR 20/13 A3000 RMK AO2 SLP159 T02000128=
201108041553 METAR KBFI 041553Z 08003KT 10SM CLR 18/13 A3000 RMK AO2 SLP160 T01830133=
201108041453 METAR KBFI 041453Z VRB03KT 10SM CLR 18/13 A3000 RMK AO2 SLP158 T01780128 53010=
201108041353 METAR KBFI 041353Z 00000KT 10SM CLR 16/13 A2999 RMK AO2 SLP154 T01560128=
201108041253 METAR KBFI 041253Z 00000KT 10SM CLR 16/13 A2998 RMK AO2 SLP151 T01560128=
201108041153 METAR KBFI 041153Z 00000KT 10SM CLR 16/12 A2997 RMK AO2 SLP147 T01610122 10194 20161 55000=
201108041053 METAR KBFI 041053Z 00000KT 10SM CLR 16/12 A2996 RMK AO2 SLP145 T01610122=
201108040953 METAR KBFI 040953Z 00000KT 10SM CLR 17/12 A2996 RMK AO2 SLP146 T01670122=
201108040853 METAR KBFI 040853Z 00000KT 10SM CLR 17/12 A2997 RMK AO2 SLP148 T01720122 51008=
201108040753 METAR KBFI 040753Z 00000KT 10SM CLR 18/12 A2997 RMK AO2 SLP147 T01830122 402560156=
201108040653 METAR KBFI 040653Z 00000KT 10SM CLR 19/12 A2995 RMK AO2 SLP143 T01890122=
201108040553 METAR KBFI 040553Z 00000KT 10SM CLR 19/12 A2994 RMK AO2 SLP140 T01940117 10256 20194 51010=
201108040453 METAR KBFI 040453Z 35003KT 10SM CLR 21/12 A2994 RMK AO2 SLP137 T02060117=
201108040353 METAR KBFI 040353Z 30004KT 10SM CLR 20/12 A2993 RMK AO2 SLP134 T02000122=
201108040253 METAR KBFI 040253Z 30005KT 10SM CLR 23/09 A2992 RMK AO2 SLP130 T02280094 55005=
201108040153 METAR KBFI 040153Z 31007KT 10SM CLR 24/11 A2991 RMK AO2 SLP129 T02390106=
201108040053 METAR KBFI 040053Z 32007KT 10SM CLR 25/11 A2992 RMK AO2 SLP130 T02500106=
201108032353 METAR KBFI 032353Z 30007KT 10SM CLR 25/12 A2993 RMK AO2 SLP135 T02500117 10256 20206 56016=
201108032253 METAR KBFI 032253Z 29006KT 10SM CLR 25/11 A2994 RMK AO2 SLP139 T02500111=
201108032153 METAR KBFI 032153Z 34006KT 10SM CLR 24/11 A2996 RMK AO2 SLP144 T02440111=
201108032053 METAR KBFI 032053Z VRB03KT 10SM CLR 24/11 A2998 RMK AO2 SLP151 T02390111 58009=
201108031953 METAR KBFI 031953Z 31005KT 10SM CLR 22/11 A2999 RMK AO2 SLP154 T02220106=
201108031853 METAR KBFI 031853Z 33005KT 10SM CLR 22/11 A3000 RMK AO2 SLP159 T02170106=
201108031753 METAR KBFI 031753Z 31005KT 10SM CLR 21/11 A3001 RMK AO2 SLP160 T02060111 10211 20156 58005=
201108031653 METAR KBFI 031653Z 00000KT 10SM FEW060 BKN080 19/11 A3001 RMK AO2 SLP163 T01890111=
201108031553 METAR KBFI 031553Z 00000KT 10SM FEW060 BKN090 18/12 A3003 RMK AO2 SLP167 T01780122=
201108031453 METAR KBFI 031453Z 00000KT 10SM OVC060 17/12 A3002 RMK AO2 SLP166 T01720122 53006=
201108031353 METAR KBFI 031353Z 00000KT 10SM BKN060 17/12 A3002 RMK AO2 SLP164 T01670117=
201108031253 METAR KBFI 031253Z 00000KT 10SM BKN090 16/12 A3001 RMK AO2 SLP161 T01610117=
201108031153 METAR KBFI 031153Z VRB03KT 10SM BKN095 16/11 A3000 RMK AO2 SLP160 T01560111 10183 20156 53000=
201108031053 METAR KBFI 031053Z 00000KT 10SM OVC095 17/12 A3000 RMK AO2 SLP159 T01670117=
201108030953 METAR KBFI 030953Z 00000KT 10SM BKN100 17/11 A3000 RMK AO2 SLP159 T01670111=
201108030853 METAR KBFI 030853Z 16003KT 10SM BKN100 17/11 A3000 RMK AO2 SLP159 T01670111 50002=
201108030753 METAR KBFI 030753Z 00000KT 10SM BKN100 18/12 A3001 RMK AO2 SLP161 T01780117 402500133=
201108030653 METAR KBFI 030653Z 00000KT 10SM FEW100 18/12 A3000 RMK AO2 SLP160 T01830117=
201108030553 METAR KBFI 030553Z 00000KT 10SM BKN100 18/11 A3000 RMK AO2 SLP157 T01830111 10250 20183 51012=
201108030453 METAR KBFI 030453Z 28003KT 10SM CLR 18/11 A2999 RMK AO2 SLP154 T01830111=
201108030353 METAR KBFI 030353Z 29004KT 10SM SCT120 19/11 A2997 RMK AO2 SLP150 T01940106=
201108030253 METAR KBFI 030253Z 30005KT 10SM CLR 23/12 A2996 RMK AO2 SLP145 T02280117 56005=
201108030153 METAR KBFI 030153Z 00000KT 10SM CLR 24/08 A2996 RMK AO2 SLP146 T02440083=
201108030053 METAR KBFI 030053Z 22004KT 10SM CLR 24/09 A2997 RMK AO2 SLP148 T02440089=
201108022353 METAR KBFI 022353Z VRB03KT 10SM CLR 25/10 A2998 RMK AO2 SLP150 T02500100 10250 20178 56014=
201108022253 METAR KBFI 022253Z VRB06KT 10SM FEW050 25/11 A2998 RMK AO2 SLP153 T02500111=
201108022153 METAR KBFI 022153Z 23003KT 10SM SCT200 23/10 A3000 RMK AO2 SLP159 T02330100=
201108022053 METAR KBFI 022053Z 00000KT 10SM FEW060 BKN130 22/09 A3002 RMK AO2 SLP164 T02220094 58008=
201108021953 METAR KBFI 021953Z VRB05KT 10SM CLR 21/09 A3003 RMK AO2 SLP169 T02110089=
201108021853 METAR KBFI 021853Z 25006KT 10SM BKN120 21/12 A3004 RMK AO2 SLP171 T02110117=
201108021753 METAR KBFI 021753Z 22007KT 10SM BKN140 BKN200 18/11 A3004 RMK AO2 SLP173 T01830111 10183 20133 50001=
201108021653 METAR KBFI 021653Z 21003KT 10SM BKN120 16/12 A3004 RMK AO2 SLP173 T01610117=
201108021553 METAR KBFI 021553Z VRB03KT 10SM CLR 15/11 A3004 RMK AO2 SLP172 T01500111=
201108021453 METAR KBFI 021453Z 18005KT 10SM CLR 15/11 A3004 RMK AO2 SLP172 T01500111 53010=
201108021353 METAR KBFI 021353Z 16006KT 10SM BKN200 14/12 A3002 RMK AO2 SLP166 T01440117=
201108021253 METAR KBFI 021253Z 00000KT 10SM BKN200 14/11 A3002 RMK AO2 SLP165 T01440111=
201108021153 METAR KBFI 021153Z 15004KT 10SM CLR 13/11 A3001 RMK AO2 SLP162 T01330111 10178 20133 50003=
201108021053 METAR KBFI 021053Z 00000KT 10SM CLR 13/11 A3001 RMK AO2 SLP163 T01330111=
201108020953 METAR KBFI 020953Z 00000KT 10SM CLR 15/12 A3001 RMK AO2 SLP162 T01500117=
201108020853 METAR KBFI 020853Z 00000KT 10SM CLR 16/12 A3000 RMK AO2 SLP159 T01560117 51005 TSNO=
201108020753 METAR KBFI 020753Z 00000KT 10SM CLR 17/12 A3000 RMK AO2 SLP157 T01670117 402440122=
201108020653 METAR KBFI 020653Z 00000KT 10SM CLR 17/12 A2999 RMK AO2 SLP156 T01670117=
201108020553 METAR KBFI 020553Z 35003KT 10SM CLR 18/12 A2999 RMK AO2 SLP153 T01780117 10244 20178 51006=
201108020453 METAR KBFI 020453Z 00000KT 10SM CLR 19/12 A2998 RMK AO2 SLP152 T01940117=
201108020353 METAR KBFI 020353Z 00000KT 10SM FEW090 SCT250 21/11 A2998 RMK AO2 SLP150 T02060111=
201108020253 METAR KBFI 020253Z 31005KT 10SM CLR 22/11 A2997 RMK AO2 SLP147 T02170111 56009=
201108020153 METAR KBFI 020153Z 30006KT 10SM CLR 23/09 A2998 RMK AO2 SLP150 T02280089=
201108020053 METAR KBFI 020053Z 31007KT 10SM CLR 24/08 A2998 RMK AO2 SLP152 T02390083=
201108012353 METAR KBFI 012353Z 29007KT 10SM CLR 24/09 A2999 RMK AO2 SLP156 T02390089 10244 20194 58014=
201108012253 METAR KBFI 012253Z 30007KT 10SM CLR 23/11 A3001 RMK AO2 SLP162 T02330106=
201108012153 METAR KBFI 012153Z 29007KT 10SM CLR 23/11 A3002 RMK AO2 SLP166 T02330111=
201108012053 METAR KBFI 012053Z 30010G16KT 10SM CLR 22/11 A3003 RMK AO2 SLP170 T02220111 58010=
201108011953 METAR KBFI 011953Z 30010KT 10SM CLR 21/11 A3004 RMK AO2 SLP173 T02110106=
201108011853 METAR KBFI 011853Z 31007KT 10SM CLR 21/11 A3006 RMK AO2 SLP177 T02060111=
201108011753 METAR KBFI 011753Z 30008KT 10SM CLR 19/11 A3006 RMK AO2 SLP180 T01940106 10194 20122 56007=
201108011653 METAR KBFI 011653Z 31008KT 10SM CLR 18/10 A3007 RMK AO2 SLP182 T01780100=
201108011553 METAR KBFI 011553Z 32003KT 10SM CLR 16/10 A3007 RMK AO2 SLP183 T01610100=
201108011453 METAR KBFI 011453Z 00000KT 10SM CLR 15/09 A3008 RMK AO2 SLP187 T01500094 51004=
201108011353 METAR KBFI 011353Z 35003KT 10SM CLR 14/09 A3008 RMK AO2 SLP186 T01390094=
201108011253 METAR KBFI 011253Z 00000KT 10SM CLR 12/09 A3008 RMK AO2 SLP186 T01220089=
201108011153 METAR KBFI 011153Z 00000KT 10SM CLR 13/08 A3007 RMK AO2 SLP183 T01280083 10161 20128 53001=
201108011053 METAR KBFI 011053Z 00000KT 10SM CLR 13/08 A3007 RMK AO2 SLP183 T01330083=
201108010953 METAR KBFI 010953Z VRB03KT 10SM CLR 14/08 A3007 RMK AO2 SLP181 T01390083=
201108010853 METAR KBFI 010853Z 00000KT 10SM CLR 14/08 A3007 RMK AO2 SLP182 T01440083 50002=
201108010753 METAR KBFI 010753Z 00000KT 10SM CLR 14/08 A3008 RMK AO2 SLP184 T01390083 402170139=
201108010653 METAR KBFI 010653Z 00000KT 10SM CLR 16/09 A3007 RMK AO2 SLP182 T01560089=
201108010553 METAR KBFI 010553Z 00000KT 10SM CLR 16/09 A3006 RMK AO2 SLP180 T01610094 10217 20161 53011=
201108010453 METAR KBFI 010453Z VRB03KT 10SM BKN048 17/09 A3005 RMK AO2 SLP176 T01720094=
201108010353 METAR KBFI 010353Z VRB05KT 10SM FEW050 18/09 A3004 RMK AO2 SLP171 T01830094=
201108010253 METAR KBFI 010253Z VRB04KT 10SM CLR 20/10 A3003 RMK AO2 SLP169 T02000100 56005=
201108010153 METAR KBFI 010153Z VRB05KT 10SM CLR 21/10 A3003 RMK AO2 SLP170 T02110100=
201108010053 METAR KBFI 010053Z 31007KT 10SM CLR 21/10 A3004 RMK AO2 SLP171 T02060100=

# No short TAF reports from KBFI in databse.

###################################
#  large TAF from KBFI
###################################
201108312320 TAF KBFI 312320Z 0100/0124 21005KT P6SM SCT050 FM010400 VRB03KT
                       P6SM SCT250 FM011400 VRB03KT P6SM BKN020
                       FM011800 VRB03KT P6SM SCT025 SCT200 FM012000
                       22006KT P6SM BKN200 FM012300 30006KT P6SM
                       SCT120 BKN200=
201108312010 KBFI 312010Z 3120/0118 19006KT P6SM SCT030 SCT050 FM312300 21005KT
                       P6SM SCT050 FM010400 VRB03KT P6SM SCT250
                       FM011400 VRB03KT P6SM BKN020=
201108311731 TAF KBFI 311731Z 3118/0118 19006KT P6SM BKN025 OVC045
                      TEMPO 3119/3121 SCT025 BKN045 FM312100 20006KT
                       P6SM SCT035 BKN050 FM312300 21005KT P6SM
                       SCT050 FM010400 VRB03KT P6SM SCT250 FM011400
                       VRB03KT P6SM BKN020=
201108311304 KBFI 311304Z 3113/0112 18007KT P6SM SCT020 OVC045
                      TEMPO 3113/3117 BKN020 OVC040 FM311700 19006KT
                       P6SM BKN030 OVC050 FM312100 20006KT P6SM
                       SCT035 BKN050 FM312300 29006KT P6SM SCT050
                       FM010400 21003KT P6SM SCT250=
201108311120 TAF KBFI 311120Z 3112/0112 16006KT P6SM OVC050 FM311400 17006KT
                       P6SM OVC025 FM311800 19006KT P6SM BKN028
                       FM312100 20006KT P6SM SCT035 BKN050 FM312300
                       29006KT P6SM SCT050 FM010400 21003KT P6SM
                       SCT250=
201108310530 TAF KBFI 310530Z 3106/0106 23004KT P6SM SCT070 FM311000 17005KT
                       P6SM OVC023 FM311800 19005KT P6SM BKN026
                       FM312100 20006KT P6SM SCT035 BKN045 FM312300
                       29006KT P6SM SCT045=
201108302321 TAF KBFI 302321Z 3100/3124 20006KT P6SM SCT030 BKN050 FM310900
                       17005KT P6SM OVC024 FM311800 19005KT P6SM
                       OVC035 FM312100 20006KT P6SM BKN040 FM312300
                       22006KT P6SM SCT045=
201108301729 TAF KBFI 301729Z 3018/3118 VRB03KT P6SM SCT020 OVC030
                      TEMPO 3018/3020 BKN020 OVC030 FM302200 22005KT
                       P6SM BKN035 FM310000 VRB03KT P6SM SCT040
                       TEMPO 3100/3104 BKN040 FM310900 17005KT
                       P6SM OVC024 FM311700 19005KT P6SM OVC035=
201108301312 KBFI 301312Z 3013/3112 VRB03KT P6SM SCT020 OVC035
                      TEMPO 3013/3017 BKN020 OVC030 FM302200 22005KT
                       P6SM BKN035 FM310000 VRB04KT P6SM SCT035
                       FM310900 19003KT P6SM OVC023=
201108301124 TAF KBFI 301124Z 3012/3112 VRB03KT P6SM OVC030 FM301300 VRB03KT
                       P6SM OVC022
                      TEMPO 3013/3017 5SM -DZ BR OVC012 FM302200
                       22005KT P6SM BKN030 FM310000 VRB04KT P6SM
                       SCT035 FM310900 19003KT P6SM OVC023=
201108300938 KBFI 300938Z 3010/3106 01003KT P6SM OVC030 FM301200 VRB03KT P6SM
                       OVC018
                      TEMPO 3012/3016 5SM -DZ BR OVC011 FM302200
                       22005KT P6SM BKN030 FM310000 VRB04KT P6SM
                       SCT035=
201108300540 TAF KBFI 300540Z 3006/3106 00000KT P6SM OVC050 FM301000 17004KT
                       P6SM OVC025 FM301200 16003KT P6SM OVC018
                       TEMPO 3012/3016 5SM -DZ BR OVC011 FM302200
                       22005KT P6SM BKN030 FM310000 VRB04KT P6SM
                       SCT035=
201108292323 TAF KBFI 292323Z 3000/3024 20008KT P6SM SCT035 SCT100 SCT200 FM300800
                       18005KT P6SM BKN025 FM301000 18005KT P6SM
                       OVC025 FM301800 20006KT P6SM BKN030 FM302200
                       20006KT P6SM SCT035=
201108292100 KBFI 292100Z 2921/3018 22006KT P6SM BKN030
                      TEMPO 2921/2923 SCT030 FM292300 22006KT P6SM
                       SCT035 SCT200 FM300800 19003KT P6SM OVC020=
201108291739 TAF KBFI 291739Z 2918/3018 20006KT P6SM OVC020 FM292000 21006KT
                       P6SM BKN020
                      TEMPO 2920/2921 SCT024 FM292100 22006KT P6SM
                       SCT025 BKN200 FM300000 22006KT P6SM BKN200
                       FM300800 19003KT P6SM OVC020=
201108291506 KBFI 291506Z 2915/3012 18008KT P6SM SCT014 OVC020
                      TEMPO 2915/2918 BKN014 OVC020 FM291800 20006KT
                       P6SM OVC022 FM292000 21006KT P6SM BKN025
                       BKN200 FM292200 23006KT P6SM BKN200 FM300800
                       19003KT P6SM OVC018=
201108291120 TAF KBFI 291120Z 2912/3012 18008KT P6SM SCT008 OVC013
                      TEMPO 2912/2916 OVC008 FM291800 20006KT P6SM
                       BKN014 BKN200 FM292000 21006KT P6SM SCT025
                       BKN200 FM292200 23006KT P6SM BKN200 FM300800
                       19003KT P6SM OVC018=
201108290934 KBFI 290934Z 2910/3006 20004KT P6SM BKN013 FM291100 20005KT P6SM
                       OVC009 FM291800 20006KT P6SM BKN014 BKN200
                       FM292000 21006KT P6SM SCT025 BKN200 FM292200
                       23006KT P6SM BKN200=
201108290520 TAF KBFI 290520Z 2906/3006 20004KT P6SM SCT250 FM291300 20005KT
                       P6SM OVC009 FM291800 20006KT P6SM BKN014
                       BKN200 FM292000 21006KT P6SM SCT025 BKN200
                       FM292200 23006KT P6SM BKN200=
201108282325 TAF KBFI 282325Z 2900/2924 32006KT P6SM SCT200 FM290300 19004KT
                       P6SM SCT200 FM291300 20005KT P6SM OVC009
                       FM291800 20006KT P6SM BKN014 FM292000 21006KT
                       P6SM SCT025=
201108281755 TAF KBFI 281755Z 2818/2918 31006KT P6SM SKC FM290300 19004KT P6SM
                       SKC FM291300 20005KT P6SM OVC009=
201108281504 KBFI 281504Z 2815/2912 VRB03KT P6SM VCFG SCT007
                      TEMPO 2815/2816 4SM BR BKN008 FM281600 31006KT
                       P6SM SCT200 FM290300 19004KT P6SM SCT200=
201108281257 KBFI 281257Z 2813/2912 00000KT P6SM VCFG SCT002
                      TEMPO 2813/2816 2SM BR BKN002 FM281600 VRB03KT
                       P6SM SKC FM282000 30008KT P6SM SCT200 FM290300
                       19004KT P6SM SCT200=
201108281121 TAF KBFI 281121Z 2812/2912 00000KT P6SM SKC FM282000 30008KT P6SM
                       SCT200 FM290300 19004KT P6SM SCT200=
201108280529 TAF KBFI 280529Z 2806/2906 00000KT P6SM SKC FM282000 30008KT P6SM
                       SCT200 FM290300 19004KT P6SM SCT200=
201108280101 KBFI 280101Z 2801/2824 31006KT P6SM SKC FM280300 00000KT P6SM SKC
                       FM282000 30008KT P6SM SCT200=
201108272320 TAF KBFI 272320Z 2800/2824 30009G16KT P6SM SKC FM280300 00000KT
                       P6SM SKC FM282000 30008KT P6SM SCT200=
201108271725 TAF KBFI 271725Z 2718/2818 34003KT P6SM SCT250 FM272100 31008KT
                       P6SM SCT250 FM280300 00000KT P6SM SCT250=
201108271120 TAF KBFI 271120Z 2712/2812 00000KT P6SM FEW250 FM272100 31008KT
                       P6SM FEW250 FM280500 00000KT P6SM FEW250=
201108270529 TAF KBFI 270529Z 2706/2806 00000KT P6SM SKC FM272100 31008KT P6SM
                       SKC FM280500 00000KT P6SM SKC=
201108262325 TAF KBFI 262325Z 2700/2724 33008KT P6SM SKC FM270300 VRB03KT P6SM
                       SKC FM272100 31008KT P6SM SKC=
201108261730 TAF KBFI 261730Z 2618/2718 31005KT P6SM SKC FM262100 32009KT P6SM
                       SKC FM270300 VRB03KT P6SM SKC=
201108261120 TAF KBFI 261120Z 2612/2712 00000KT P6SM SKC FM262000 31005KT P6SM
                       SKC FM270500 00000KT P6SM SKC=
201108260526 TAF KBFI 260526Z 2606/2706 01003KT P6SM SKC FM262000 31005KT P6SM
                       SKC FM270500 00000KT P6SM SKC=
201108260056 KBFI 260056Z 2601/2624 31008KT P6SM SKC FM260500 VRB03KT P6SM SKC
                       FM261600 32005KT P6SM SKC=
201108252326 TAF KBFI 252326Z 2600/2624 34008KT P6SM SKC FM260500 VRB03KT P6SM
                       SKC FM261600 32005KT P6SM SKC=
201108251720 TAF KBFI 251720Z 2518/2618 32004KT P6SM SKC FM252300 34008KT P6SM
                       SKC FM260500 VRB03KT P6SM SKC=
201108251120 TAF KBFI 251120Z 2512/2612 00000KT P6SM SKC FM251800 30004KT P6SM
                       SKC FM252300 32006KT P6SM SKC FM260400 VRB03KT
                       P6SM SKC=
201108250522 TAF KBFI 250522Z 2506/2606 35003KT P6SM FEW120 SCT200 FM250700
                       VRB03KT P6SM FEW250 FM251800 30004KT P6SM
                       SKC FM252300 32006KT P6SM SKC FM260400 VRB03KT
                       P6SM SKC=
201108242320 TAF KBFI 242320Z 2500/2524 32006KT P6SM SCT050 BKN150 FM250700
                       01004KT P6SM SCT120 FM251800 30005KT P6SM
                       SKC=
201108241733 TAF KBFI 241733Z 2418/2518 32004KT P6SM SCT250 FM242100 35006KT
                       P6SM FEW070 SCT150 FM250600 01004KT P6SM
                       SCT120=
201108241122 TAF KBFI 241122Z 2412/2512 VRB03KT P6SM FEW045
                      TEMPO 2413/2416 BKN035 FM241700 32004KT P6SM
                       FEW050 FM242000 34005KT P6SM FEW060 SCT120
                       FM251100 00000KT P6SM FEW030=
201108240522 TAF KBFI 240522Z 2406/2506 30003KT P6SM SKC FM240900 VRB03KT P6SM
                       SCT030
                      TEMPO 2410/2414 BKN025 FM241800 32004KT P6SM
                       FEW035 FM242100 34005KT P6SM FEW060 SCT120=
201108232321 TAF KBFI 232321Z 2400/2424 25007KT P6SM SCT040 FM240400 VRB03KT
                       P6SM SKC FM240900 VRB03KT P6SM SCT030
                      TEMPO 2410/2414 BKN025 FM241800 33004KT P6SM
                       FEW035 FM242100 34005KT P6SM FEW060 SCT120=
201108231722 TAF KBFI 231722Z 2318/2418 25004KT P6SM SCT014 BKN050 FM232200
                       24007KT P6SM BKN050 FM240000 26006KT P6SM
                       SCT060 FM240400 VRB03KT P6SM SKC FM240900
                       VRB03KT P6SM BKN025 FM241600 33004KT P6SM
                       FEW040=
201108231121 TAF KBFI 231121Z 2312/2412 18006KT P6SM SCT010 SCT018 OVC045
                      TEMPO 2312/2316 5SM -DZ BR BKN010 OVC018
                       FM231600 20006KT P6SM SCT012 BKN020 OVC030
                       TEMPO 2316/2319 5SM BR BKN012 OVC020 FM232000
                       20005KT P6SM SCT020 BKN030 FM232200 23006KT
                       P6SM BKN035 FM240000 22006KT P6SM SCT040
                       SCT060 FM240400 VRB03KT P6SM SKC=
201108230816 KBFI 230816Z 2308/2406 17006KT P6SM SCT010 SCT018 OVC030
                      TEMPO 2308/2312 5SM -DZ BR BKN010 OVC018
                       FM231200 17006KT P6SM SCT010 SCT018 OVC030
                       TEMPO 2312/2316 5SM -DZ BR BKN010 OVC018
                       FM231600 20006KT P6SM BKN020 OVC030 FM232000
                       20005KT P6SM SCT020 BKN030 FM232200 23006KT
                       P6SM BKN035 FM240000 22006KT P6SM SCT040
                       SCT060=
201108230520 TAF KBFI 230520Z 2306/2406 17006KT P6SM -RA SCT007 OVC030
                      TEMPO 2306/2309 3SM -RA BR OVC007 FM230900
                       VRB03KT 5SM BR VCSH OVC008
                      TEMPO 2309/2312 2SM BR OVC005 FM231200 VRB03KT
                       3SM BR OVC008
                      TEMPO 2312/2316 1SM BR OVC004 FM231600 VRB03KT
                       5SM BR OVC011 FM231800 VRB03KT P6SM OVC016
                       FM232000 19005KT P6SM SCT020 BKN030 FM232200
                       23006KT P6SM BKN035 FM240000 22006KT P6SM
                       SCT040 SCT060=
201108230204 KBFI 230204Z 2302/2324 18007KT P6SM -RA SCT018 BKN040 OVC060
                      TEMPO 2302/2306 5SM -RA BR BKN018 OVC030
                       FM230600 20006KT P6SM VCSH FEW015 OVC030
                       FM230800 VRB03KT P6SM BKN012 OVC020
                      TEMPO 2312/2316 4SM BR OVC009 FM231900 22005KT
                       P6SM SCT020 BKN025 FM232100 23006KT P6SM
                       BKN030=
201108222339 TAF KBFI 222339Z 2300/2324 18008KT P6SM -RA SCT035 BKN050 OVC070
                       TEMPO 2300/2304 BKN030 FM230400 20006KT
                       P6SM VCSH FEW015 OVC030 FM230800 19003KT
                       P6SM BKN012 OVC020
                      TEMPO 2312/2316 4SM BR OVC009 FM231900 22005KT
                       P6SM SCT020 BKN025 FM232100 23006KT P6SM
                       BKN030=
201108221733 TAF KBFI 221733Z 2218/2318 18013G20KT P6SM SCT020 BKN045 BKN150
                       TEMPO 2221/2224 -RA BKN025 OVC035 FM230000
                       22010KT P6SM -RA BKN025 OVC035 FM230600
                       20006KT P6SM VCSH OVC025 FM230900 19003KT
                       P6SM SCT013 OVC017
                      TEMPO 2312/2316 4SM BR OVC010=
201108221120 TAF KBFI 221120Z 2212/2312 18010KT P6SM OVC013
                      TEMPO 2212/2215 SCT013 OVC120 FM221500 20009KT
                       P6SM BKN015 BKN070 OVC130 FM221800 19013KT
                       P6SM SCT025 BKN050 OVC090
                      TEMPO 2220/2224 -RA BKN025 OVC050 FM230000
                       19008KT P6SM -RA BKN025 OVC050 FM230600
                       18006KT P6SM VCSH OVC030=
201108220835 KBFI 220835Z 2209/2306 17006KT P6SM BKN120 FM221000 17006KT P6SM
                       SCT012 BKN120
                      TEMPO 2210/2212 BKN012 BKN120 FM221200 20007KT
                       P6SM OVC012
                      TEMPO 2212/2215 SCT012 OVC120 FM221500 20009KT
                       P6SM BKN016 BKN070 OVC130 FM221800 19013KT
                       P6SM SCT030 BKN070 OVC110
                      TEMPO 2220/2224 -RA FM230000 19008KT P6SM
                       -RA BKN030 OVC050=
201108220521 TAF KBFI 220521Z 2206/2306 VRB03KT P6SM SCT120 OVC200 FM220900
                       17006KT P6SM BKN120 FM221200 17006KT P6SM
                       SCT019 OVC120
                      TEMPO 2212/2215 BKN019 OVC130 FM221500 17009KT
                       P6SM BKN025 BKN070 OVC120 FM221800 19013KT
                       P6SM SCT035 BKN070 OVC110
                      TEMPO 2220/2224 -RA FM230000 19008KT P6SM
                       -RA BKN030 OVC050=
201108212333 TAF KBFI 212333Z 2200/2224 VRB03KT P6SM SCT130 OVC200 FM220900
                       17006KT P6SM OVC130 FM221200 17006KT P6SM
                       SCT019 OVC130
                      TEMPO 2212/2215 BKN019 OVC130 FM221500 17009KT
                       P6SM BKN025 BKN070 OVC130 FM221800 19013KT
                       P6SM SCT035 BKN070 OVC110
                      TEMPO 2220/2224 -RA=
201108211740 TAF KBFI 211740Z 2118/2218 VRB03KT P6SM BKN200 FM212000 28005KT
                       P6SM BKN200 FM220300 23005KT P6SM SCT130
                       OVC200 FM220900 17006KT P6SM OVC150 FM221200
                       17006KT P6SM SCT019 OVC150
                      TEMPO 2212/2215 BKN019 OVC150 FM221500 17009KT
                       P6SM BKN025 BKN070 OVC130=
201108211120 TAF KBFI 211120Z 2112/2212 VRB03KT P6SM SCT250 FM211700 24006KT
                       P6SM BKN200 FM220300 24006KT P6SM SCT120
                       BKN200 FM220900 18006KT P6SM SCT070 BKN120=
201108210523 TAF KBFI 210523Z 2106/2206 VRB03KT P6SM SKC FM211100 VRB03KT P6SM
                       FEW250 FM211400 18004KT P6SM VCFG SCT250
                       FM211700 24006KT P6SM SCT200 FM220300 24006KT
                       P6SM SCT120 BKN200=
201108202324 TAF KBFI 202324Z 2100/2124 30006KT P6SM SKC FM210300 VRB03KT P6SM
                       SKC FM211100 VRB03KT P6SM VCFG FEW200 FM211300
                       18004KT P6SM VCFG SCT006 SCT200
                      TEMPO 2113/2116 2SM BR BKN004 FM211800 25006KT
                       P6SM SCT200=
201108201741 TAF KBFI 201741Z 2018/2118 32008KT P6SM SKC FM210300 VRB03KT P6SM
                       SKC FM211100 VRB03KT P6SM VCFG FEW200 FM211300
                       18004KT P6SM VCFG SCT006 SCT200
                      TEMPO 2113/2116 2SM BR BKN004=
201108201120 TAF KBFI 201120Z 2012/2112 VRB03KT P6SM SKC FM201900 32008KT P6SM
                       SKC FM210500 VRB03KT P6SM SKC=
201108200520 TAF KBFI 200520Z 2006/2106 VRB03KT P6SM SKC FM201900 31008KT P6SM
                       SKC FM210500 VRB03KT P6SM SKC=
201108192331 TAF KBFI 192331Z 2000/2024 32009KT P6SM SKC FM200300 VRB03KT P6SM
                       SKC FM201900 31008KT P6SM SKC=
201108191725 TAF KBFI 191725Z 1918/2018 31005KT P6SM SCT011 FM191830 31007KT
                       P6SM SKC FM200300 VRB03KT P6SM SKC=
201108191631 KBFI 191631Z 1917/2012 32005KT P6SM VCFG BKN011 FM191800 31005KT
                       P6SM SCT250 FM200300 VRB03KT P6SM SKC=
201108191330 KBFI 191330Z 1914/2012 00000KT P6SM OVC008 FM191800 31005KT P6SM
                       SCT250 FM200300 VRB03KT P6SM SKC=
201108191130 TAF KBFI 191130Z 1912/2012 00000KT P6SM SCT010
                      TEMPO 1912/1916 OVC006 FM191800 31005KT P6SM
                       SCT250 FM200300 VRB03KT P6SM SKC=
201108190542 TAF KBFI 190542Z 1906/2006 31003KT P6SM FEW120 SCT200
                      TEMPO 1914/1917 SCT025 FM191800 31005KT P6SM
                       SKC FM200300 VRB03KT P6SM SKC=
201108182330 TAF KBFI 182330Z 1900/1924 29004KT P6SM BKN200 FM190300 29005KT
                       P6SM SCT200 FM190600 02003KT P6SM SKC
                      TEMPO 1914/1917 SCT025=
201108181732 TAF KBFI 181732Z 1818/1918 29004KT P6SM BKN250 FM182100 29005KT
                       P6SM SCT250 FM190600 01003KT P6SM SKC=
201108181129 TAF KBFI 181129Z 1812/1912 00000KT P6SM SKC FM181500 VRB03KT P6SM
                       SKC FM181900 31005KT P6SM SKC FM190600 01003KT
                       P6SM SKC=
201108180906 KBFI 180906Z 1809/1906 VRB03KT P6SM SKC FM181400 18003KT P6SM SCT025
                       FM181700 29005KT P6SM FEW030 FM181900 31005KT
                       P6SM SKC=
201108180539 TAF KBFI 180539Z 1806/1906 VRB03KT P6SM SKC FM181500 18003KT P6SM
                       BKN025 FM181700 29005KT P6SM SCT025 FM181900
                       31005KT P6SM SKC=
201108172331 TAF KBFI 172331Z 1800/1824 VRB03KT P6SM FEW250 FM180600 VRB03KT
                       P6SM SKC FM181200 18003KT P6SM OVC020 FM181700
                       29005KT P6SM SCT025 FM181900 29005KT P6SM
                       SKC=
201108171736 TAF KBFI 171736Z 1718/1818 29006KT P6SM SKC FM180600 VRB03KT P6SM
                       SKC FM181200 18003KT P6SM OVC020 FM181700
                       29005KT P6SM SCT025=
201108171124 TAF KBFI 171124Z 1712/1812 00000KT P6SM SKC FM171700 29005KT P6SM
                       SKC FM180600 VRB03KT P6SM FEW050=
201108170549 TAF KBFI 170549Z 1706/1806 00000KT P6SM SKC FM171500 29005KT P6SM
                       SKC=
201108162320 TAF KBFI 162320Z 1700/1724 31007KT P6SM SKC FM170600 VRB03KT P6SM
                       SKC FM171500 29005KT P6SM SKC=
201108161720 TAF KBFI 161720Z 1618/1718 32005KT P6SM SKC FM162000 32007KT P6SM
                       SKC FM170600 VRB03KT P6SM SKC=
201108161131 TAF KBFI 161131Z 1612/1712 00000KT P6SM SKC FM161400 VRB03KT P6SM
                       FEW005 FM162000 32007KT P6SM SKC FM170600
                       VRB03KT P6SM SKC=
201108160534 TAF KBFI 160534Z 1606/1706 VRB03KT P6SM FEW080 SCT250 FM161400
                       VRB03KT P6SM FEW005 FM162000 32007KT P6SM
                       SKC=
201108152336 TAF KBFI 152336Z 1600/1624 VRB04KT P6SM FEW040 SCT250 FM160600
                       VRB03KT P6SM FEW250 FM161400 VRB03KT P6SM
                       FEW005 FM162000 32007KT P6SM SKC=
201108151736 TAF KBFI 151736Z 1518/1618 21003KT P6SM SCT030 BKN050
                      TEMPO 1518/1519 BKN030 BKN050 FM152000 VRB03KT
                       P6SM SCT035 BKN060 FM152300 34006KT P6SM
                       SCT060 FM160600 02004KT P6SM SCT100=
201108151516 KBFI 151516Z 1515/1612 21003KT P6SM BKN035 OVC060 FM151800 VRB03KT
                       P6SM SCT035 BKN060 FM152200 31006KT P6SM
                       BKN060 FM160300 VRB03KT P6SM SCT100=
201108151138 TAF KBFI 151138Z 1512/1612 VRB03KT P6SM SCT035 BKN050 OVC070
                      TEMPO 1512/1515 BKN035 OVC050 FM151700 VRB03KT
                       P6SM SCT035 BKN060 FM152200 30006KT P6SM
                       BKN060 FM160300 VRB03KT P6SM SCT100=
201108150540 TAF KBFI 150540Z 1506/1606 VRB03KT P6SM BKN080 FM151100 17006KT
                       P6SM SCT030 BKN045 OVC070 FM152100 30006KT
                       P6SM SCT035 BKN060 FM160300 VRB03KT P6SM
                       SCT100=
201108142320 TAF KBFI 142320Z 1500/1524 26006KT P6SM BKN050
                      TEMPO 1500/1502 SCT050 FM150200 30006KT P6SM
                       BKN050 OVC120 FM150700 17005KT P6SM VCSH
                       OVC045 FM151100 16005KT P6SM VCSH OVC022
                       FM152100 30007KT P6SM BKN040 OVC080=
201108141722 TAF KBFI 141722Z 1418/1518 16006KT P6SM SCT022 OVC045 FM142200
                       22006KT P6SM BKN050 OVC080
                      TEMPO 1422/1502 SCT050 BKN090 FM150200 30006KT
                       P6SM BKN050 OVC120 FM150700 17005KT P6SM
                       VCSH OVC045 FM151100 16005KT P6SM VCSH OVC022=
201108141133 TAF KBFI 141133Z 1412/1512 18006KT P6SM SCT025 OVC045
                      TEMPO 1414/1418 BKN025 OVC045 FM142000 24006KT
                       P6SM BKN045 OVC090 FM151100 19006KT P6SM
                       OVC025=
201108140538 TAF KBFI 140538Z 1406/1506 VRB03KT P6SM SCT050 FM140800 VRB03KT
                       P6SM BKN050 FM141200 VRB03KT P6SM OVC025
                       FM141900 19006KT P6SM BKN040 OVC090=
201108140303 KBFI 140303Z 1403/1424 VRB03KT P6SM SCT050 FM140900 VRB03KT P6SM
                       OVC012 FM141900 24006KT P6SM BKN040 OVC090=
201108132328 TAF KBFI 132328Z 1400/1424 VRB05KT P6SM SCT040 FM140200 20005KT
                       P6SM BKN040 BKN050 FM140900 VRB03KT P6SM
                       OVC012 FM141900 24006KT P6SM BKN040 OVC090=
201108132111 KBFI 132111Z 1321/1418 20006KT P6SM BKN035 BKN060 FM132300 30005KT
                       P6SM SCT035 BKN060 FM140200 24006KT P6SM
                       BKN030 BKN060 FM140800 20005KT P6SM OVC012=
201108131900 KBFI 131900Z 1319/1418 20006KT P6SM SCT030 BKN060
                      TEMPO 1319/1321 BKN030 BKN060 FM140100 29006KT
                       P6SM SCT050 FM140800 20005KT P6SM OVC015=
201108131735 TAF KBFI 131735Z 1318/1418 20005KT P6SM SCT030 BKN070
                      TEMPO 1318/1319 BKN030 BKN070 FM131900 20007KT
                       P6SM SCT050 FM140100 29006KT P6SM SCT050
                       FM140800 20005KT P6SM OVC015=
201108131224 KBFI 131224Z 1312/1412 00000KT P6SM SCT012
                      TEMPO 1313/1314 BKN012 FM131500 VRB03KT P6SM
                       OVC012 FM131800 VRB03KT P6SM BKN021 FM131900
                       VRB03KT P6SM SCT200 FM140900 VRB03KT P6SM
                       OVC021=
201108131139 TAF KBFI 131139Z 1312/1412 00000KT P6SM SKC FM131400 VRB03KT P6SM
                       SCT012 FM131500 VRB03KT P6SM OVC012 FM131800
                       VRB03KT P6SM BKN021 FM131900 VRB03KT P6SM
                       SCT200 FM140900 VRB03KT P6SM OVC021=
201108130536 TAF KBFI 130536Z 1306/1406 00000KT P6SM SKC FM131300 VRB03KT P6SM
                       OVC016 FM131800 VRB03KT P6SM BKN025 FM131900
                       VRB03KT P6SM SCT200 FM132100 29006KT P6SM
                       SCT200=
201108122321 TAF KBFI 122321Z 1300/1324 VRB04KT P6SM SKC FM131200 VRB03KT P6SM
                       OVC015 FM131800 29005KT P6SM SCT200=
201108121733 TAF KBFI 121733Z 1218/1318 00000KT P6SM OVC009 FM121900 29006KT
                       P6SM SKC FM131200 VRB03KT P6SM OVC015=
201108121130 TAF KBFI 121130Z 1212/1312 VRB03KT P6SM OVC006 FM121800 VRB03KT
                       P6SM SCT200 FM122100 32006KT P6SM SCT200
                       FM130600 VRB03KT P6SM SCT200=
201108120529 TAF KBFI 120529Z 1206/1306 VRB03KT P6SM SKC
                      TEMPO 1213/1216 SCT020 FM122100 32006KT P6SM
                       SCT200=
201108112331 TAF KBFI 112331Z 1200/1224 29005KT P6SM SKC
                      TEMPO 1212/1215 18005KT BKN018 FM122100 32005KT
                       P6SM SCT200=
201108111732 TAF KBFI 111732Z 1118/1218 00000KT P6SM OVC022 FM111900 VRB03KT
                       P6SM BKN040 FM112100 32006KT P6SM SCT045=
201108111133 TAF KBFI 111133Z 1112/1212 VRB03KT P6SM SCT025 OVC040
                      TEMPO 1113/1117 BKN025 OVC040 FM111900 VRB03KT
                       P6SM BKN050 FM112100 32006KT P6SM SCT050=
201108110536 TAF KBFI 110536Z 1106/1206 VRB03KT P6SM SCT050 FM110900 VRB03KT
                       P6SM BKN090 FM111300 VRB03KT P6SM SCT030
                       BKN045
                      TEMPO 1114/1117 BKN030 FM111700 VRB03KT P6SM
                       SCT045 FM112200 32006KT P6SM SKC=
201108102337 TAF KBFI 102337Z 1100/1124 16005KT P6SM OVC045 FM110200 29005KT
                       P6SM SCT050 FM111200 19003KT P6SM BKN025
                       FM111700 28005KT P6SM SCT045=
201108101733 TAF KBFI 101733Z 1018/1118 VRB03KT P6SM BKN030 OVC060 FM101900
                       23004KT P6SM FEW040 BKN060 FM102200 25006KT
                       P6SM SCT040 SCT060 FM110900 VRB03KT P6SM
                       BKN025 FM111700 28005KT P6SM SCT045=
201108101303 KBFI 101303Z 1013/1112 22003KT P6SM BKN050 OVC070 FM102100 26005KT
                       P6SM BKN060 FM102300 30006KT P6SM SCT040
                       SCT060 FM110300 VRB03KT P6SM SCT060 FM111100
                       VRB03KT P6SM OVC025=
201108101120 TAF KBFI 101120Z 1012/1112 VRB03KT P6SM OVC035 FM102100 26005KT
                       P6SM BKN045 FM102300 30006KT P6SM SCT040
                       SCT060 FM110300 VRB03KT P6SM SCT060 FM111100
                       VRB03KT P6SM OVC025=
201108101007 KBFI 101007Z 1010/1106 VRB03KT P6SM OVC035 FM102100 26005KT P6SM
                       BKN045 FM102300 30006KT P6SM SCT040 SCT060=
201108100520 TAF KBFI 100520Z 1006/1106 VRB03KT P6SM FEW025 OVC045 FM101000
                       VRB03KT P6SM OVC025 FM102100 26005KT P6SM
                       BKN045 FM102300 30006KT P6SM SCT040 SCT060=
201108092331 TAF KBFI 092331Z 1000/1024 00000KT P6SM OVC040 FM100600 16005KT
                       P6SM SCT018 OVC040 FM100800 VRB04KT P6SM
                       OVC018 FM102200 20005KT P6SM BKN030=
201108091733 TAF KBFI 091733Z 0918/1018 21004KT P6SM SCT040 BKN060 FM100100
                       27006KT P6SM SCT045 FM100600 16005KT P6SM
                       SCT018 BKN040 FM100800 VRB04KT P6SM OVC018=
201108091120 TAF KBFI 091120Z 0912/1012 VRB04KT P6SM OVC040 FM092100 26006KT
                       P6SM BKN045 FM100100 27006KT P6SM SCT045
                       FM100600 16005KT P6SM SCT018 BKN040 FM100800
                       VRB04KT P6SM OVC018=
201108090912 KBFI 090912Z 0909/1006 16004KT P6SM OVC040 FM092200 27006KT P6SM
                       BKN045 FM100400 VRB04KT P6SM BKN030=
201108090520 TAF KBFI 090520Z 0906/1006 VRB04KT P6SM BKN035
                      TEMPO 0906/0908 BKN030 FM090800 16004KT P6SM
                       OVC025 FM092200 27006KT P6SM BKN035 FM100400
                       VRB04KT P6SM BKN030=
201108082325 TAF KBFI 082325Z 0900/0924 29004KT P6SM SCT035 FM091200 16005KT
                       P6SM OVC025 FM092200 21005KT P6SM BKN030=
201108081903 KBFI 081903Z 0819/0918 00000KT P6SM SCT026 OVC040 FM082000 20007KT
                       P6SM SCT040 FM090100 29003KT P6SM SCT040
                       FM091200 16005KT P6SM OVC025=
201108081720 TAF KBFI 081720Z 0818/0918 22005KT P6SM BKN019 OVC025 FM082000
                       20007KT P6SM SCT040 FM090100 29003KT P6SM
                       SCT040 FM091200 16005KT P6SM OVC025=
201108081501 KBFI 081501Z 0815/0912 00000KT P6SM BKN014 OVC023 FM082000 30007KT
                       P6SM SCT040 FM090300 VRB03KT P6SM SCT040
                       FM091000 16005KT P6SM OVC025=
201108081240 KBFI 081240Z 0813/0912 19005KT P6SM SCT012 BKN029 FM082000 30007KT
                       P6SM SCT040 FM090300 VRB03KT P6SM SCT040
                       FM091000 16005KT P6SM OVC025=
201108081120 TAF KBFI 081120Z 0812/0912 VRB04KT P6SM SCT022 FM081300 16004KT
                       P6SM OVC022 FM081800 18005KT P6SM BKN028
                       FM082000 30007KT P6SM SCT040 FM090300 VRB03KT
                       P6SM SCT040 FM091000 16005KT P6SM OVC025=
201108080811 KBFI 080811Z 0808/0906 VRB04KT P6SM BKN250 FM081300 16004KT P6SM
                       BKN022 FM081800 18005KT P6SM BKN028 FM082000
                       30007KT P6SM SCT040 FM090300 VRB03KT P6SM
                       SCT040=
201108080520 TAF KBFI 080520Z 0806/0906 VRB04KT P6SM BKN250 FM081000 00000KT
                       P6SM SCT015
                      TEMPO 0810/0812 BKN015 FM081200 15005KT P6SM
                       BKN015 FM081700 23005KT P6SM BKN020 FM082000
                       30007KT P6SM SCT040 FM090300 VRB03KT P6SM
                       SCT040=
201108072320 TAF KBFI 072320Z 0800/0824 VRB05KT P6SM SCT030 SCT250 FM081000
                       00000KT P6SM SCT015
                      TEMPO 0810/0812 BKN015 FM081200 15005KT P6SM
                       BKN015 FM081700 23005KT P6SM BKN020 FM082000
                       30007KT P6SM SCT040=
201108071746 KBFI 071746Z 0718/0818 VRB03KT P6SM SCT020 BKN040 FM072000 30007KT
                       P6SM SCT040 FM081000 VRB03KT P6SM BKN015
                       TEMPO 0812/0816 OVC012 FM081700 23005KT
                       P6SM BKN025=
201108071730 TAF KBFI 071730Z 0718/0818 VRB03KT P6SM SCT020 BKN040
                      TEMPO 0718/0720 BKN020 OVC035 FM072100 30007KT
                       P6SM SCT040 FM081000 VRB03KT P6SM BKN015
                       TEMPO 0812/0816 OVC012 FM081700 23005KT
                       P6SM BKN025=
201108071522 KBFI 071522Z 0715/0812 00000KT P6SM BKN012 BKN035
                      TEMPO 0715/0718 SCT020 BKN040 FM071800 VRB04KT
                       P6SM SCT020 SCT040 FM072100 33006KT P6SM
                       SCT050 FM081000 VRB04KT P6SM BKN015=
201108071340 KBFI 071340Z 0714/0812 00000KT P6SM OVC035 FM071800 26005KT P6SM
                       SCT040 FM080000 33006KT P6SM FEW050 FM080400
                       VRB04KT P6SM SCT040 FM081000 VRB03KT P6SM
                       SCT025 BKN040=
201108071120 TAF KBFI 071120Z 0712/0812 VRB03KT P6SM BKN025 FM071800 26005KT
                       P6SM SCT040 FM080000 33006KT P6SM FEW050
                       FM080400 VRB04KT P6SM SCT040 FM081000 VRB03KT
                       P6SM SCT025 BKN040=
201108070520 TAF KBFI 070520Z 0706/0806 VRB04KT P6SM FEW040 FM070900 VRB03KT
                       P6SM FEW025 BKN040 FM071200 VRB03KT P6SM
                       BKN025 FM071800 28005KT P6SM SCT040 FM080000
                       33006KT P6SM FEW050 FM080400 VRB04KT P6SM
                       SCT040=
201108062320 TAF KBFI 062320Z 0700/0724 30006KT P6SM SCT040
                      TEMPO 0704/0708 BKN040 FM070800 VRB03KT P6SM
                       SCT025 BKN040 FM071300 VRB03KT P6SM BKN025
                       FM071800 30006KT P6SM SCT040=
201108061858 KBFI 061858Z 0619/0718 32004KT P6SM SCT025 BKN045
                      TEMPO 0619/0621 BKN025 OVC045 FM071000 15005KT
                       P6SM BKN020
                      TEMPO 0712/0716 OVC015 FM071700 VRB04KT P6SM
                       BKN025 BKN040=
201108061720 TAF KBFI 061720Z 0618/0718 VRB03KT P6SM BKN022 OVC040 FM062000
                       30007KT P6SM SCT030 BKN045
                      TEMPO 0620/0622 BKN028 OVC040 FM071000 15005KT
                       P6SM BKN020
                      TEMPO 0712/0716 OVC015 FM071700 VRB04KT P6SM
                       BKN025 BKN040=
201108061342 KBFI 061342Z 0614/0712 00000KT P6SM OVC019 FM061900 16006KT P6SM
                       BKN022 OVC045 FM062100 19007KT P6SM SCT030
                       SCT050 FM070000 VRB04KT P6SM FEW030 SCT050
                       FM071000 VRB03KT P6SM SCT018 OVC030=
201108061120 TAF KBFI 061120Z 0612/0712 VRB04KT P6SM SCT018 OVC035
                      TEMPO 0612/0616 BKN018 FM061900 16006KT P6SM
                       BKN022 OVC045 FM062100 19007KT P6SM SCT030
                       SCT050 FM070000 VRB04KT P6SM FEW030 SCT050
                       FM071000 VRB03KT P6SM SCT018 OVC030=
201108060903 TAF AMD KBFI 060903Z 0609/0706 VRB04KT P6SM SCT018 OVC035
                      TEMPO 0610/0612 OVC018 FM061200 VRB04KT P6SM
                       OVC018 FM061900 17007KT P6SM BKN025 OVC040
                       FM062200 19007KT P6SM SCT025 BKN040 FM070000
                       VRB04KT P6SM FEW025 SCT045=
201108060537 TAF KBFI 060537Z 0606/0706 21007KT P6SM FEW018 OVC030 FM060900
                       16006KT P6SM OVC018
                      TEMPO 0613/0617 6SM BR OVC012 FM061900 18007KT
                       P6SM BKN025 OVC040 FM062200 19007KT P6SM
                       SCT025 BKN040 FM070000 VRB04KT P6SM FEW025
                       SCT045=
201108052358 KBFI 052358Z 0600/0624 21007KT P6SM BKN025 OVC035
                      TEMPO 0600/0604 VRB04KT SCT025 BKN040 FM060800
                       16006KT P6SM OVC015
                      TEMPO 0613/0617 3SM -DZ BR OVC012 FM061900
                       21007KT P6SM BKN025 OVC040 FM062200 23007KT
                       P6SM SCT025 BKN040=
201108052320 TAF KBFI 052320Z 0600/0624 21007KT P6SM BKN025 OVC035
                      TEMPO 0600/0604 VRB04KT SCT025 BKN040 FM060800
                       16006KT P6SM OVC015
                      TEMPO 0613/0617 3SM -DZ BR OVC012 FM062200
                       23007KT P6SM SCT025 BKN040=
201108052204 KBFI 052204Z 0522/0618 VRB04KT P6SM BKN025 OVC035
                      TEMPO 0600/0604 SCT025 BKN040 FM060800 16006KT
                       P6SM OVC015
                      TEMPO 0613/0617 3SM -DZ BR OVC012=
201108052008 KBFI 052008Z 0520/0618 18006KT P6SM BKN023 OVC040 FM052200 VRB05KT
                       P6SM SCT025 BKN040 FM060800 18006KT P6SM
                       OVC025
                      TEMPO 0613/0617 5SM -DZ BR OVC015=
201108051732 TAF KBFI 051732Z 0518/0618 23006KT P6SM SCT015 OVC022 FM052000
                       23006KT P6SM SCT025 BKN040 FM060000 30006KT
                       P6SM SCT040 FM060400 VRB04KT P6SM SCT025
                       BKN040 FM060900 18006KT P6SM OVC025
                      TEMPO 0613/0617 5SM -DZ BR OVC015=
201108051328 KBFI 051328Z 0513/0612 19007KT P6SM OVC012 FM051700 21007KT P6SM
                       OVC018 FM052200 23008KT P6SM SCT040 FM060400
                       34005KT P6SM BKN070=
201108051120 TAF KBFI 051120Z 0512/0612 19007KT P6SM OVC012 FM051700 21007KT
                       P6SM OVC018 FM051900 23008KT P6SM SCT040
                       FM060400 34005KT P6SM BKN070=
201108050522 TAF KBFI 050522Z 0506/0606 30007KT P6SM SCT060 FM050900 20004KT
                       P6SM SCT015 SCT060
                      TEMPO 0509/0513 BKN012 FM051300 21005KT P6SM
                       OVC012 FM051900 23005KT P6SM SCT040=
201108042324 TAF KBFI 042324Z 0500/0524 32005KT P6SM FEW050 FM050300 VRB03KT
                       P6SM SCT250 FM051300 17004KT P6SM OVC018
                       FM051900 23005KT P6SM SCT250=
201108041720 TAF KBFI 041720Z 0418/0518 29005KT P6SM SKC FM042100 33008KT P6SM
                       FEW060 FM050300 VRB03KT P6SM SCT250 FM051300
                       17004KT P6SM BKN018=
201108041120 TAF KBFI 041120Z 0412/0512 02006KT P6SM SKC
                      TEMPO 0413/0416 SCT010 FM042100 33008KT P6SM
                       FEW060 FM050300 30004KT P6SM SCT060=
201108040525 TAF KBFI 040525Z 0406/0506 36004KT P6SM FEW050 SCT150 FM041100
                       00000KT P6SM FEW050
                      TEMPO 0413/0417 SCT015 FM042100 33006KT P6SM
                       FEW050 FM050300 30004KT P6SM SCT050=
201108032320 TAF KBFI 032320Z 0400/0424 31006KT P6SM FEW040 FM040800 VRB03KT
                       P6SM FEW090 FM041300 00000KT P6SM FEW018
                       SCT090
                      TEMPO 0414/0417 BKN018 BKN090 FM042100 31005KT
                       P6SM FEW050=
201108031724 TAF KBFI 031724Z 0318/0418 00000KT P6SM BKN090 FM032000 25005KT
                       P6SM SCT100 FM032300 33005KT P6SM SCT100
                       FM040800 VRB03KT P6SM FEW090 FM041300 00000KT
                       P6SM FEW018 SCT090
                      TEMPO 0414/0417 BKN018 BKN090=
201108031120 TAF KBFI 031120Z 0312/0412 18004KT P6SM BKN090 FM032000 25006KT
                       P6SM SCT070 SCT100 FM032300 31006KT P6SM
                       SCT100=
201108030533 TAF KBFI 030533Z 0306/0406 20004KT P6SM BKN100 FM031200 18004KT
                       P6SM BKN070 FM032000 25006KT P6SM FEW070
                       SCT120 FM032300 29006KT P6SM SCT120=
201108022324 TAF KBFI 022324Z 0300/0324 25004KT P6SM SCT250 FM030200 28004KT
                       P6SM SCT150 FM030600 20004KT P6SM SCT060
                       SCT120 FM031200 17003KT P6SM SCT015 BKN050
                       TEMPO 0313/0317 OVC015 FM032100 28005KT
                       P6SM FEW050 SCT120=
201108021722 TAF KBFI 021722Z 0218/0318 21004KT P6SM BKN180 FM030200 28004KT
                       P6SM BKN070 OVC150 FM030600 20004KT P6SM
                       BKN050 OVC120 FM031200 17003KT P6SM BKN020
                       OVC050=
201108021120 TAF KBFI 021120Z 0212/0312 VRB03KT P6SM SCT150 BKN250 FM021800
                       29007KT P6SM BKN120 FM030600 33005KT P6SM
                       BKN070=
201108020521 TAF KBFI 020521Z 0206/0306 30006KT P6SM FEW250 FM021000 VRB03KT
                       P6SM SCT120 BKN250 FM021800 28006KT P6SM
                       BKN120 FM030200 33006KT P6SM SCT100=
201108012328 TAF KBFI 012328Z 0200/0224 31007KT P6SM SKC FM020500 VRB03KT P6SM
                       SKC FM022000 29006KT P6SM BKN120=
201108011722 TAF KBFI 011722Z 0118/0218 31007KT P6SM SKC FM020500 VRB03KT P6SM
                       SKC=
201108011133 TAF KBFI 011133Z 0112/0212 VRB03KT P6SM SKC=
201108010536 TAF KBFI 010536Z 0106/0206 36004KT P6SM BKN050 FM010900 00000KT
                       P6SM SCT050 FM012000 31006KT P6SM FEW250=