##########################################################
# Query made at 02/17/2025 01:42:24 UTC
# Time interval: from 01/01/2012 00:00  to 01/31/2012 23:59  UTC
##########################################################

##########################################################
# KBFI, Seattle, Seattle Boeing Field (United States)
# WMO index: -----. WIGOS ID: Unknown
# Latitude 47-32-45N. Longitude 122-18-49W. Altitude 5 m.
##########################################################

###################################
#  METAR/SPECI from KBFI
###################################
201201312353 METAR KBFI 312353Z 18003KT 10SM BKN100 09/03 A2999 RMK AO2 SLP154 T00940028 10100 20089 56021=
201201312253 METAR KBFI 312253Z 16005KT 10SM FEW050 BKN110 09/03 A3000 RMK AO2 SLP159 T00940028=
201201312153 METAR KBFI 312153Z 16009G15KT 10SM SCT047 OVC100 09/03 A3003 RMK AO2 SLP169 T00940028=
201201312053 METAR KBFI 312053Z 19005KT 10SM BKN047 09/03 A3005 RMK AO2 SLP175 T00940033 58005=
201201311953 METAR KBFI 311953Z 18006KT 10SM SCT045 09/03 A3007 RMK AO2 SLP181 T00940028=
201201311853 METAR KBFI 311853Z 18010G19KT 10SM FEW070 10/03 A3007 RMK AO2 SLP182 T01000028=
201201311753 METAR KBFI 311753Z 17010G20KT 10SM SCT035 SCT200 09/03 A3007 RMK AO2 SLP180 T00890028 10089 20067 58001=
201201311653 METAR KBFI 311653Z 16009KT 10SM SCT038 OVC048 08/03 A3007 RMK AO2 SLP183 T00780033=
201201311553 METAR KBFI 311553Z 17011KT 10SM OVC038 07/03 A3007 RMK AO2 SLP183 T00720033=
201201311453 METAR KBFI 311453Z 14009KT 10SM SCT029 OVC038 07/03 A3007 RMK AO2 SLP181 T00670033 51009=
201201311353 METAR KBFI 311353Z 15009KT 10SM OVC025 07/04 A3006 RMK AO2 SLP178 T00720039=
201201311253 METAR KBFI 311253Z 17007KT 10SM BKN037 07/03 A3006 RMK AO2 SLP178 T00720033=
201201311153 METAR KBFI 311153Z 17006KT 10SM BKN095 08/03 A3004 RMK AO2 SLP173 70001 T00780028 10078 20067 50001=
201201311053 METAR KBFI 311053Z 19008KT 10SM FEW034 OVC065 07/03 A3004 RMK AO2 SLP173 T00720033=
201201310953 METAR KBFI 310953Z 19006G16KT 10SM FEW055 OVC100 07/04 A3004 RMK AO2 SLP173 T00720044=
201201310853 METAR KBFI 310853Z 17008KT 10SM FEW037 OVC050 07/04 A3004 RMK AO2 SLP172 T00670044 53005=
201201310753 METAR KBFI 310753Z COR 16004KT 10SM BKN040 OVC110 07/04 A3003 RMK AO2 SLP169 T00720044 401000067=
201201310653 METAR KBFI 310653Z 18005KT 10SM BKN040 07/05 A3003 RMK AO2 SLP168 T00720050=
201201310553 METAR KBFI 310553Z 14007KT 10SM FEW049 SCT110 07/05 A3002 RMK AO2 SLP166 60001 T00670050 10089 20067 58011=
201201310453 METAR KBFI 310453Z 17004KT 10SM BKN050 07/05 A3004 RMK AO2 RAB0359E34 SLP173 P0001 T00720050=
201201310353 METAR KBFI 310353Z 17003KT 10SM FEW020 BKN043 OVC055 07/05 A3005 RMK AO2 SLP175 T00720050=
201201310253 METAR KBFI 310253Z VRB03KT 10SM FEW019 BKN030 08/04 A3006 RMK AO2 SLP177 T00780044 54000=
201201310153 METAR KBFI 310153Z 17007KT 10SM SCT028 SCT036 OVC048 08/04 A3005 RMK AO2 SLP177 T00830044=
201201310053 METAR KBFI 310053Z 18010G16KT 10SM FEW030 BKN050 08/04 A3006 RMK AO2 SLP178 T00830039=
201201302353 METAR KBFI 302353Z VRB05KT 10SM BKN026 OVC040 09/04 A3006 RMK AO2 SLP177 T00890039 10100 20078 55000=
201201302253 METAR KBFI 302253Z 18007G16KT 10SM SCT030 BKN036 10/04 A3005 RMK AO2 SLP176 T01000044=
201201302153 METAR KBFI 302153Z 18009G14KT 10SM SCT025 OVC034 09/04 A3005 RMK AO2 SLP176 T00940039=
201201302106 SPECI KBFI 302106Z 17011G18KT 10SM BKN029 09/04 A3006 RMK AO2=
201201302106 SPECI KBFI 302106Z 17011G18KT 10SM BKN029 09/04 A3006 RMK AO2=
201201302053 METAR KBFI 302053Z 17010G15KT 10SM SCT020 09/04 A3006 RMK AO2 SLP178 T00940044 56006=
201201301953 METAR KBFI 301953Z 19010G16KT 10SM BKN025 08/04 A3007 RMK AO2 SLP181 T00830039=
201201301853 METAR KBFI 301853Z 19009G14KT 10SM BKN021 08/04 A3007 RMK AO2 SLP180 T00830044=
201201301753 METAR KBFI 301753Z 19008KT 10SM OVC019 08/04 A3008 RMK AO2 SLP184 T00780044 10083 20072 51018=
201201301653 METAR KBFI 301653Z 17008KT 10SM OVC019 07/04 A3007 RMK AO2 SLP180 T00720044=
201201301553 METAR KBFI 301553Z 18008G17KT 10SM OVC019 07/04 A3005 RMK AO2 SLP174 T00720044=
201201301453 METAR KBFI 301453Z 17007KT 10SM OVC019 07/04 A3002 RMK AO2 SLP166 T00720044 51030=
201201301353 METAR KBFI 301353Z 18008G18KT 10SM OVC015 07/04 A3000 RMK AO2 SLP159 T00720044=
201201301253 METAR KBFI 301253Z 19012G19KT 10SM OVC015 08/06 A2996 RMK AO2 SLP145 T00780056=
201201301200 SPECI KBFI 301200Z 21007KT 10SM OVC015 08/06 A2994 RMK AO2=
201201301200 SPECI KBFI 301200Z 21007KT 10SM OVC015 08/06 A2994 RMK AO2=
201201301153 METAR KBFI 301153Z 18004KT 10SM BKN008 OVC023 08/06 A2993 RMK AO2 PRESRR SLP136 60020 70061 T00830061 10089 20083 51029=
201201301053 METAR KBFI 301053Z VRB05KT 10SM BKN008 OVC023 08/07 A2991 RMK AO2 SLP128 T00830067=
201201301022 SPECI KBFI 301022Z 18005KT 10SM BKN008 OVC023 08/07 A2989 RMK AO2=
201201301022 SPECI KBFI 301022Z 18005KT 10SM BKN008 OVC023 08/07 A2989 RMK AO2=
201201301012 SPECI KBFI 301012Z 18005KT 10SM SCT011 OVC023 08/07 A2989 RMK AO2=
201201301012 SPECI KBFI 301012Z 18005KT 10SM SCT011 OVC023 08/07 A2989 RMK AO2=
201201301000 SPECI KBFI 301000Z 21003KT 10SM BKN011 OVC023 08/07 A2988 RMK AO2 CIG 008V013=
201201301000 SPECI KBFI 301000Z 21003KT 10SM BKN011 OVC023 08/07 A2988 RMK AO2 CIG 008V013=
201201300953 METAR KBFI 300953Z VRB05KT 10SM BKN009 OVC011 08/07 A2987 RMK AO2 RAE27 SLP116 P0001 T00830072=
201201300853 METAR KBFI 300853Z 00000KT 6SM -RA BR BKN009 OVC011 08/08 A2985 RMK AO2 SLP107 P0009 60019 T00830078 53018=
201201300753 METAR KBFI 300753Z 20004KT 10SM -RA BKN009 OVC011 09/08 A2983 RMK AO2 SLP100 P0001 T00890078 401000033=
201201300653 METAR KBFI 300653Z VRB03KT 8SM -RA BKN009 OVC040 08/08 A2981 RMK AO2 SLP093 P0009 T00830078=
201201300553 METAR KBFI 300553Z 00000KT 8SM -RA OVC011 09/07 A2980 RMK AO2 SLP090 P0004 60011 T00890072 10100 20089 53006=
201201300511 SPECI KBFI 300511Z 17006KT 10SM -RA BKN011 BKN016 OVC022 09/08 A2979 RMK AO2 P0000=
201201300511 SPECI KBFI 300511Z 17006KT 10SM -RA BKN011 BKN016 OVC022 09/08 A2979 RMK AO2 P0000=
201201300453 METAR KBFI 300453Z 16007KT 10SM -RA FEW013 BKN022 OVC055 09/07 A2979 RMK AO2 SLP086 P0002 T00890072=
201201300416 SPECI KBFI 300416Z 17005KT 10SM -RA FEW014 BKN027 OVC060 09/08 A2979 RMK AO2 P0000=
201201300416 SPECI KBFI 300416Z 17005KT 10SM -RA FEW014 BKN027 OVC060 09/08 A2979 RMK AO2 P0000=
201201300353 METAR KBFI 300353Z 18010KT 10SM -RA SCT017 OVC060 09/07 A2979 RMK AO2 RAE01B32 SLP086 P0001 T00890072=
201201300253 METAR KBFI 300253Z 17010G20KT 10SM -RA SCT015 OVC060 09/08 A2978 RMK AO2 SLP083 P0001 60004 T00940078 58017=
201201300153 METAR KBFI 300153Z 19009G15KT 10SM -RA FEW030 OVC070 10/08 A2980 RMK AO2 SLP089 P0000 T01000078=
201201300053 METAR KBFI 300053Z 18009G16KT 10SM -RA SCT008 BKN032 OVC060 10/08 A2981 RMK AO2 SLP095 P0003 T01000083=
201201300008 SPECI KBFI 300008Z 19009KT 7SM -RA SCT008 BKN032 OVC060 10/08 A2982 RMK AO2 P0001=
201201300008 SPECI KBFI 300008Z 19009KT 7SM -RA SCT008 BKN032 OVC060 10/08 A2982 RMK AO2 P0001=
201201292353 METAR KBFI 292353Z 19005KT 9SM -RA FEW014 BKN044 OVC065 10/08 A2983 RMK AO2 SLP100 P0003 60009 T01000083 10100 20089 56025=
201201292253 METAR KBFI 292253Z 16006KT 6SM -RA BR FEW008 SCT011 OVC032 10/08 A2985 RMK AO2 SLP106 P0003 T01000083=
201201292153 METAR KBFI 292153Z 16007KT 10SM -RA BKN026 OVC030 10/08 A2987 RMK AO2 RAB10 SLP115 P0001 T01000083=
201201292053 METAR KBFI 292053Z 17007KT 10SM SCT030 OVC045 10/08 A2990 RMK AO2 RAB1956E27 SLP125 P0000 60002 T01000083 58023=
201201291953 METAR KBFI 291953Z 18008KT 10SM FEW046 BKN065 OVC080 10/08 A2994 RMK AO2 RAB05E48 SLP137 P0002 T01000083=
201201291853 METAR KBFI 291853Z 16010KT 10SM OVC080 09/08 A2996 RMK AO2 RAE40 SLP145 P0000 T00940078=
201201291753 METAR KBFI 291753Z 17012G18KT 7SM -RA SCT050 OVC070 09/08 A2997 RMK AO2 SLP148 P0004 60021 T00890078 10089 20067 58002=
201201291653 METAR KBFI 291653Z 18009G15KT 4SM -RA BR FEW007 OVC043 09/08 A2998 RMK AO2 RAE1558B33 SLP151 P0003 T00890078=
201201291553 METAR KBFI 291553Z 14009KT 4SM -RA BR FEW007 BKN065 OVC075 07/06 A2998 RMK AO2 SLP150 P0010 T00670061=
201201291551 SPECI KBFI 291551Z 14009KT 4SM -RA BR FEW007 SCT055 OVC070 07/06 A2998 RMK AO2 P0010=
201201291551 SPECI KBFI 291551Z 14009KT 4SM -RA BR FEW007 SCT055 OVC070 07/06 A2998 RMK AO2 P0010=
201201291453 METAR KBFI 291453Z 18010G18KT 5SM -RA BR SCT060 BKN075 OVC100 08/06 A2999 RMK AO2 RAB33 SLP156 P0001 60004 T00780061 56013=
201201291353 METAR KBFI 291353Z 18010G20KT 10SM FEW050 08/05 A3000 RMK AO2 RAE1256B26E36 SLP157 P0000 T00780050=
201201291253 METAR KBFI 291253Z 19008KT 10SM -RA FEW038 BKN055 OVC100 07/04 A3001 RMK AO2 SLP163 P0003 T00720044=
201201291153 METAR KBFI 291153Z AUTO 23007KT 5SM -RA OVC060 07/03 A3003 RMK AO2 RAB00 SLP169 P0016 60016 70016 T00720033 10083 20033 58006 TSNO=
201201291053 METAR KBFI 291053Z 00000KT 5SM HZ OVC042 06/01 A3006 RMK AO2 SLP180 T00560011=
201201290953 METAR KBFI 290953Z 00000KT 5SM HZ OVC044 05/01 A3007 RMK AO2 SLP181 T00500006=
201201290853 METAR KBFI 290853Z 12005KT 5SM HZ CLR 04/M01 A3005 RMK AO2 SLP175 T00391006 58040=
201201290753 METAR KBFI 290753Z 13004KT 8SM CLR 06/M02 A3011 RMK AO2 SLP194 T00611017 400720000=
201201290653 METAR KBFI 290653Z 13005KT 7SM BKN050 OVC080 06/00 A3015 RMK AO2 SLP208 T00610000=
201201290553 METAR KBFI 290553Z 14003KT 10SM OVC048 06/00 A3017 RMK AO2 SLP215 T00610000 10072 20050 56027=
201201290453 METAR KBFI 290453Z 14006KT 10SM BKN046 06/M01 A3019 RMK AO2 SLP222 T00561011=
201201290353 METAR KBFI 290353Z 13006KT 10SM SCT070 06/M01 A3022 RMK AO2 SLP234 T00561011=
201201290253 METAR KBFI 290253Z 14007KT 10SM BKN070 BKN120 06/M01 A3025 RMK AO2 SLP243 T00611011 56019=
201201290153 METAR KBFI 290153Z 12005KT 10SM SCT070 OVC100 07/M02 A3027 RMK AO2 SLP248 T00671017=
201201290053 METAR KBFI 290053Z 14007KT 10SM BKN075 OVC095 07/00 A3028 RMK AO2 SLP254 T00670000=
201201282353 METAR KBFI 282353Z 14006KT 10SM BKN049 BKN080 OVC100 07/M01 A3031 RMK AO2 SLP262 60000 T00721006 10072 20028 56016=
201201282253 METAR KBFI 282253Z 13007KT 10SM BKN060 OVC075 07/00 A3032 RMK AO2 SLP267 T00720000=
201201282153 METAR KBFI 282153Z 14008KT 10SM OVC060 06/M01 A3034 RMK AO2 SLP272 T00611006=
201201282053 METAR KBFI 282053Z 12006KT 10SM BKN055 06/M01 A3035 RMK AO2 SLP278 60000 T00561006 58015=
201201281953 METAR KBFI 281953Z 13005KT 10SM BKN060 04/M01 A3037 RMK AO2 SLP283 T00441006=
201201281853 METAR KBFI 281853Z 14005KT 10SM BKN060 OVC075 04/M01 A3040 RMK AO2 UPE1757 SLP292 P0000 T00391011=
201201281753 METAR KBFI 281753Z 13008KT 10SM UP FEW029 SCT080 BKN100 03/M01 A3040 RMK AO2 UPB47 SLP293 P0000 60000 T00281011 10028 20006 58019=
201201281653 METAR KBFI 281653Z 15008KT 10SM OVC055 02/M01 A3043 RMK AO2 SLP302 T00171011 $=
201201281553 METAR KBFI 281553Z 15004KT 10SM BKN065 OVC090 02/M01 A3045 RMK AO2 SLP312 T00171006 $=
201201281453 METAR KBFI 281453Z 00000KT 10SM OVC060 02/M01 A3046 RMK AO2 SLP312 T00171011 55004 $=
201201281353 METAR KBFI 281353Z 00000KT 10SM BKN060 OVC080 01/M01 A3045 RMK AO2 SLP311 T00061011 $=
201201281253 METAR KBFI 281253Z 16004KT 10SM FEW100 01/M01 A3046 RMK AO2 SLP313 T00061011 $=
201201281153 METAR KBFI 281153Z 14004KT 10SM OVC100 01/M01 A3047 RMK AO2 SLP316 T00061011 10017 20000 58014 $=
201201281053 METAR KBFI 281053Z AUTO 00000KT 10SM OVC100 01/M01 A3049 RMK AO2 SLP325 T00111006 TSNO $=
201201280953 METAR KBFI 280953Z 14004KT 10SM FEW120 01/M01 A3048 RMK AO2 SLP321 T00061011 $=
201201280853 METAR KBFI 280853Z 00000KT 10SM CLR 01/M01 A3051 RMK AO2 SLP330 T00111006 58001 $=
201201280753 METAR KBFI 280753Z 13003KT 10SM CLR 00/M02 A3051 RMK AO2 SLP330 T00001017 400721028 $=
201201280653 METAR KBFI 280653Z 00000KT 10SM CLR 01/M02 A3051 RMK AO2 SLP332 T00061017 $=
201201280553 METAR KBFI 280553Z 13004KT 10SM CLR 00/M02 A3051 RMK AO2 SLP331 T00001017 10067 21011 57000 $=
201201280453 METAR KBFI 280453Z 00000KT 10SM CLR 01/M02 A3051 RMK AO2 SLP331 T00111017 $=
201201280353 METAR KBFI 280353Z 00000KT 10SM CLR 02/M02 A3051 RMK AO2 SLP331 T00171017 $=
201201280253 METAR KBFI 280253Z VRB03KT 10SM CLR 04/M01 A3051 RMK AO2 SLP331 T00391011 58015 $=
201201280153 METAR KBFI 280153Z 00000KT 10SM CLR 04/M02 A3054 RMK AO2 SLP342 T00391017 $=
201201280053 METAR KBFI 280053Z 00000KT 10SM CLR 06/M01 A3055 RMK AO2 SLP343 T00561011 $=
201201272353 METAR KBFI 272353Z 32003KT 10SM CLR 06/M02 A3056 RMK AO2 SLP346 T00611017 10072 20011 58008 $=
201201272253 METAR KBFI 272253Z 00000KT 10SM FEW020 07/M02 A3057 RMK AO2 SLP351 T00671022 $=
201201272153 METAR KBFI 272153Z AUTO VRB04KT 10SM CLR 07/M02 A3057 RMK AO2 SLP352 T00671022 TSNO $=
201201272053 METAR KBFI 272053Z AUTO 00000KT 10SM CLR 06/M02 A3058 RMK AO2 SLP354 T00611017 58013 TSNO $=
201201271953 METAR KBFI 271953Z AUTO 14003KT 10SM FEW008 04/M01 A3060 RMK AO2 SLP361 T00441006=
201201271853 METAR KBFI 271853Z 00000KT 10SM CLR 03/00 A3061 RMK AO2 SLP365 T00280000=
201201271753 METAR KBFI 271753Z 14004KT 10SM CLR 01/M01 A3062 RMK AO2 SLP367 T00111011 10011 21028 55004=
201201271653 METAR KBFI 271653Z 15005KT 7SM CLR M01/M02 A3062 RMK AO2 SLP367 T10111017 $=
201201271553 METAR KBFI 271553Z 14005KT 10SM SCT200 M02/M03 A3061 RMK AO2 SLP366 T10221028 $=
201201271453 METAR KBFI 271453Z 14003KT 9SM SCT050 M02/M03 A3063 RMK AO2 SLP372 T10221028 58005 $=
201201271353 METAR KBFI 271353Z 14003KT 9SM OVC050 M01/M02 A3064 RMK AO2 SLP374 T10111017 $=
201201271253 METAR KBFI 271253Z 14004KT 9SM FEW049 M02/M02 A3064 RMK AO2 SLP376 T10171022 $=
201201271153 METAR KBFI 271153Z 00000KT 9SM BKN050 M01/M01 A3065 RMK AO2 SLP376 70026 T10061011 10028 21017 53012=
201201271053 METAR KBFI 271053Z 00000KT 8SM CLR M01/M02 A3062 RMK AO2 SLP369 T10061017 TSNO=
201201270953 METAR KBFI 270953Z 00000KT 10SM BKN031 M01/M01 A3061 RMK AO2 SLP365 T10061011=
201201270853 METAR KBFI 270853Z 00000KT 10SM CLR 00/M01 A3061 RMK AO2 SLP364 T00001011 51006=
201201270753 METAR KBFI 270753Z 16004KT 10SM CLR 00/M01 A3061 RMK AO2 SLP364 T00001006 400940000=
201201270653 METAR KBFI 270653Z 11003KT 10SM CLR 01/M01 A3060 RMK AO2 SLP361 T00061006=
201201270553 METAR KBFI 270553Z 14004KT 10SM CLR 03/01 A3059 RMK AO2 SLP358 T00280006 10078 20028 53028=
201201270453 METAR KBFI 270453Z 09003KT 10SM CLR 04/01 A3056 RMK AO2 SLP348 T00390011=
201201270353 METAR KBFI 270353Z 10004KT 10SM CLR 05/01 A3054 RMK AO2 SLP340 T00500011=
201201270253 METAR KBFI 270253Z 10005KT 10SM BKN035 OVC060 06/01 A3051 RMK AO2 SLP330 T00610011 53029=
201201270153 METAR KBFI 270153Z 08005KT 10SM OVC043 06/02 A3048 RMK AO2 SLP321 T00610017=
201201270053 METAR KBFI 270053Z 00000KT 10SM CLR 07/01 A3045 RMK AO2 SLP309 T00670006=
201201262353 METAR KBFI 262353Z 05004KT 10SM SCT027 08/02 A3042 RMK AO2 SLP302 60000 T00780017 10083 20044 53020=
201201262253 METAR KBFI 262253Z 36004KT 10SM SCT027 08/01 A3040 RMK AO2 SLP294 T00780011=
201201262153 METAR KBFI 262153Z 00000KT 10SM SCT027 08/02 A3038 RMK AO2 SLP287 T00780017=
201201262053 METAR KBFI 262053Z 22004KT 10SM SCT027 07/02 A3036 RMK AO2 SLP281 60000 T00720017 51020=
201201261953 METAR KBFI 261953Z 21007KT 10SM FEW025 07/02 A3035 RMK AO2 SLP277 T00670017=
201201261853 METAR KBFI 261853Z 14008KT 10SM BKN041 BKN048 OVC060 06/03 A3034 RMK AO2 RAE00 SLP273 P0000 T00560033=
201201261753 METAR KBFI 261753Z 13009KT 10SM -RA BKN035 BKN047 04/03 A3031 RMK AO2 SLP262 P0002 60026 T00440033 10072 20033 53041=
201201261653 METAR KBFI 261653Z 14006KT 10SM -RA FEW033 BKN048 OVC055 04/04 A3027 RMK AO2 RAB04 SLP249 P0000 T00390039=
201201261553 METAR KBFI 261553Z 12009KT 10SM BKN046 BKN055 OVC080 04/03 A3021 RMK AO2 RAE27 SLP230 P0002 T00390033=
201201261519 SPECI KBFI 261519Z 13010KT 10SM -RA BKN030 OVC039 04/03 A3020 RMK AO2 P0002=
201201261519 SPECI KBFI 261519Z 13010KT 10SM -RA BKN030 OVC039 04/03 A3020 RMK AO2 P0002=
201201261453 METAR KBFI 261453Z 12009KT 7SM -RA OVC027 04/04 A3019 RMK AO2 SLP221 P0022 60022 T00390039 51066=
201201261353 METAR KBFI 261353Z 01012G18KT 10SM -RA OVC024 05/02 A3013 RMK AO2 RAB53 SLP201 P0000 T00500017=
201201261253 METAR KBFI 261253Z 17007KT 130V220 10SM BKN022 OVC028 07/03 A3006 RMK AO2 SLP178 T00670028=
201201261153 METAR KBFI 261153Z 18015G24KT 10SM BKN022 07/04 A2999 RMK AO2 SLP155 60016 70045 T00720039 10094 20056 53018=
201201261144 SPECI KBFI 261144Z 19012G17KT 10SM BKN022 07/04 A2999 RMK AO2=
201201261144 SPECI KBFI 261144Z 19012G17KT 10SM BKN022 07/04 A2999 RMK AO2=
201201261053 METAR KBFI 261053Z 17011G19KT 10SM FEW007 07/04 A2995 RMK AO2 SLP140 T00720044=
201201261004 SPECI KBFI 261004Z AUTO 18012G24KT 10SM FEW014 SCT019 OVC060 09/07 A2994 RMK AO2 TSNO=
201201261004 SPECI KBFI 261004Z AUTO 18012G24KT 10SM FEW014 SCT019 OVC060 09/07 A2994 RMK AO2 TSNO=
201201260953 METAR KBFI 260953Z AUTO 18014G21KT 8SM BKN014 OVC021 09/07 A2994 RMK AO2 RAE53 SLP138 P0001 T00890072 TSNO=
201201260942 SPECI KBFI 260942Z AUTO 19008G19KT 7SM -RA BKN014 OVC021 09/07 A2994 RMK AO2 P0001 TSNO=
201201260942 SPECI KBFI 260942Z AUTO 19008G19KT 7SM -RA BKN014 OVC021 09/07 A2994 RMK AO2 P0001 TSNO=
201201260853 METAR KBFI 260853Z 17011G18KT 10SM -RA OVC026 09/07 A2994 RMK AO2 SLP138 P0004 60015 T00940067 56041=
201201260828 SPECI KBFI 260828Z 16006KT 7SM -RA OVC028 07/06 A2995 RMK AO2 P0003=
201201260828 SPECI KBFI 260828Z 16006KT 7SM -RA OVC028 07/06 A2995 RMK AO2 P0003=
201201260753 METAR KBFI 260753Z 15006KT 7SM -RA OVC033 07/06 A2998 RMK AO2 SLP151 P0006 T00670056 400940050=
201201260653 METAR KBFI 260653Z 13007KT 8SM -RA OVC041 06/04 A3001 RMK AO2 SLP162 P0005 T00560044=
201201260553 METAR KBFI 260553Z 12004KT 10SM -RA OVC045 06/04 A3006 RMK AO2 SLP179 P0002 60006 T00560039 10083 20056 58041=
201201260453 METAR KBFI 260453Z 08004KT 10SM -RA BKN034 OVC048 06/03 A3010 RMK AO2 SLP193 P0002 T00610033=
201201260353 METAR KBFI 260353Z 09004KT 10SM -RA FEW039 BKN055 OVC070 06/03 A3016 RMK AO2 RAB12 SLP211 P0001 T00610033=
201201260253 METAR KBFI 260253Z 09003KT 10SM SCT038 BKN100 07/03 A3018 RMK AO2 RAE23 SLP220 P0001 60001 T00670028 58029=
201201260153 METAR KBFI 260153Z 17003KT 9SM -RA FEW033 SCT041 OVC055 07/02 A3022 RMK AO2 RAB52 SLP233 P0000 T00670022=
201201260053 METAR KBFI 260053Z 19004KT 10SM OVC100 07/02 A3025 RMK AO2 SLP244 T00720017=
201201252353 METAR KBFI 252353Z 20010G16KT 10SM SCT040 BKN070 OVC110 08/02 A3027 RMK AO2 SLP249 60000 T00830022 10094 20056 51007=
201201252253 METAR KBFI 252253Z 20013G18KT 10SM BKN120 09/02 A3027 RMK AO2 PK WND 21026/2215 SLP248 T00890017=
201201252153 METAR KBFI 252153Z 20012G18KT 10SM SCT025 OVC150 09/02 A3025 RMK AO2 SLP244 T00890022=
201201252126 SPECI KBFI 252126Z 20012G19KT 10SM SCT025 OVC150 09/04 A3025 RMK AO2=
201201252126 SPECI KBFI 252126Z 20012G19KT 10SM SCT025 OVC150 09/04 A3025 RMK AO2=
201201252112 SPECI KBFI 252112Z 20007G17KT 10SM BKN024 BKN029 09/04 A3025 RMK AO2=
201201252112 SPECI KBFI 252112Z 20007G17KT 10SM BKN024 BKN029 09/04 A3025 RMK AO2=
201201252053 METAR KBFI 252053Z 21010G17KT 170V230 10SM FEW030 09/04 A3025 RMK AO2 SLP242 60000 T00890039 51010=
201201251953 METAR KBFI 251953Z 20012G20KT 10SM FEW015 BKN120 08/05 A3024 RMK AO2 SLP241 T00830050=
201201251937 SPECI KBFI 251937Z 20012G22KT 10SM SCT019 08/05 A3025 RMK AO2=
201201251937 SPECI KBFI 251937Z 20012G22KT 10SM SCT019 08/05 A3025 RMK AO2=
201201251853 METAR KBFI 251853Z 17012G18KT 10SM FEW016 BKN021 OVC029 07/05 A3025 RMK AO2 RAE04 SLP243 P0000 T00720050=
201201251753 METAR KBFI 251753Z 18010G16KT 10SM -RA BKN032 OVC048 06/03 A3022 RMK AO2 SLP232 P0011 60023 T00560033 10078 20050 53010=
201201251653 METAR KBFI 251653Z 18007KT 6SM -RA BR OVC039 06/03 A3020 RMK AO2 SLP226 P0006 T00560033=
201201251553 METAR KBFI 251553Z 18008G16KT 7SM -RA OVC037 06/04 A3019 RMK AO2 SLP223 P0004 T00610039=
201201251453 METAR KBFI 251453Z 21005KT 10SM -RA OVC041 06/03 A3019 RMK AO2 RAE1354B14 SLP222 P0001 60002 T00610033 51039=
201201251353 METAR KBFI 251353Z AUTO 18005KT 10SM -RA SCT040 BKN047 OVC100 06/03 A3016 RMK AO2 PK WND 22027/1306 RAB03E20B45 SLP213 P0001 T00610028 TSNO=
201201251253 METAR KBFI 251253Z AUTO 22013G21KT 10SM FEW070 SCT090 07/02 A3014 RMK AO2 PK WND 25029/1158 PRESRR SLP206 T00720017 TSNO=
201201251153 METAR KBFI 251153Z 23010G27KT 10SM SCT036 08/01 A3007 RMK AO2 PK WND 21031/1136 SLP183 70024 T00780011 10111 20078 51039=
201201251053 METAR KBFI 251053Z 21010G20KT 10SM SCT032 08/03 A3004 RMK AO2 SLP171 T00780028=
201201250953 METAR KBFI 250953Z 22010G25KT 10SM SCT030 08/03 A3001 RMK AO2 PK WND 24026/0938 SLP160 T00830028=
201201250853 METAR KBFI 250853Z 21011G25KT 10SM BKN028 08/03 A2996 RMK AO2 PK WND 22035/0754 SLP145 T00830033 51067=
201201250753 METAR KBFI 250753Z 21014G24KT 10SM BKN026 09/03 A2989 RMK AO2 PK WND 22028/0739 SLP120 T00940033 401110022=
201201250653 METAR KBFI 250653Z 23011G22KT 9SM OVC030 10/05 A2984 RMK AO2 PK WND 20033/0606 SLP104 T01000050=
201201250644 SPECI KBFI 250644Z 22015G26KT 9SM BKN028 11/06 A2984 RMK AO2 PK WND 20033/0606=
201201250644 SPECI KBFI 250644Z 22015G26KT 9SM BKN028 11/06 A2984 RMK AO2 PK WND 20033/0606=
201201250600 SPECI KBFI 250600Z 20015G33KT 10SM FEW023 SCT032 11/08 A2978 RMK AO2 PK WND 19033/0557 PRESRR=
201201250600 SPECI KBFI 250600Z 20015G33KT 10SM FEW023 SCT032 11/08 A2978 RMK AO2 PK WND 19033/0557 PRESRR=
201201250553 METAR KBFI 250553Z 20017G27KT 10SM SCT014 BKN023 11/08 A2976 RMK AO2 PK WND 20027/0552 RAB05E18 SLP078 P0000 60005 T01110078 10111 20067 53020=
201201250453 METAR KBFI 250453Z 20015G26KT 10SM SCT018 BKN023 11/08 A2974 RMK AO2 PK WND 20026/0451 RAB0358E15 SLP070 P0001 T01110083=
201201250353 METAR KBFI 250353Z 19013G24KT 160V220 10SM FEW010 SCT018 BKN023 11/09 A2971 RMK AO2 PK WND 19030/0340 SLP061 T01110089=
201201250253 METAR KBFI 250253Z 17013G25KT 10SM BKN012 OVC018 11/09 A2970 RMK AO2 PK WND 18027/0234 SLP057 60004 T01060089 53003=
201201250228 SPECI KBFI 250228Z 19016G23KT 7SM BKN012 OVC018 11/09 A2970 RMK AO2=
201201250228 SPECI KBFI 250228Z 19016G23KT 7SM BKN012 OVC018 11/09 A2970 RMK AO2=
201201250153 METAR KBFI 250153Z 17008KT 10SM SCT014 BKN022 OVC027 09/08 A2968 RMK AO2 RAE51 SLP051 P0002 T00890078=
201201250119 SPECI KBFI 250119Z 14005KT 6SM -RA BR OVC028 07/07 A2968 RMK AO2 P0001=
201201250119 SPECI KBFI 250119Z 14005KT 6SM -RA BR OVC028 07/07 A2968 RMK AO2 P0001=
201201250053 METAR KBFI 250053Z 13009KT 9SM -RA BKN030 OVC035 08/07 A2966 RMK AO2 SLP042 P0002 T00780067=
201201242353 METAR KBFI 242353Z 15004KT 5SM -RA BR SCT010 SCT027 OVC035 07/06 A2969 RMK AO2 SLP054 P0003 60009 T00720061 10072 20039 55035=
201201242253 METAR KBFI 242253Z 13009KT 3SM -RA BR SCT012 BKN027 OVC035 07/06 A2968 RMK AO2 RAB01 PRESFR SLP049 P0005 T00670056=
201201242240 SPECI KBFI 242240Z 12005KT 3SM -RA BR BKN027 OVC037 06/06 A2969 RMK AO2 RAB01 P0004=
201201242240 SPECI KBFI 242240Z 12005KT 3SM -RA BR BKN027 OVC037 06/06 A2969 RMK AO2 RAB01 P0004=
201201242153 METAR KBFI 242153Z VRB04KT 6SM BR SCT017 OVC032 06/05 A2973 RMK AO2 RAB27E38 SLP066 P0001 T00560050=
201201242053 METAR KBFI 242053Z 14004KT 10SM FEW020 OVC030 06/04 A2979 RMK AO2 SLP089 60000 T00560039 58015=
201201241953 METAR KBFI 241953Z 12005KT 10SM FEW020 OVC036 06/04 A2982 RMK AO2 RAE00B24E34 PRESFR SLP097 P0000 T00560039=
201201241853 METAR KBFI 241853Z 00000KT 10SM -RA BKN036 OVC050 04/03 A2988 RMK AO2 RAE01B39 SLP118 P0000 T00440028=
201201241753 METAR KBFI 241753Z 14013KT 10SM -RA OVC036 04/03 A2984 RMK AO2 PRESFR SLP104 P0002 60010 T00390028 10039 20022 58038=
201201241653 METAR KBFI 241653Z 14003KT 8SM -RA OVC034 03/02 A2991 RMK AO2 SLP129 P0002 T00330022=
201201241553 METAR KBFI 241553Z 12003KT 6SM -RA BR OVC034 03/02 A2993 RMK AO2 SLP133 P0002 T00330022=
201201241453 METAR KBFI 241453Z 14003KT 10SM -RA FEW035 BKN042 OVC050 03/02 A2995 RMK AO2 SLP142 P0002 60004 T00330022 58017=
201201241353 METAR KBFI 241353Z 14005KT 6SM -RA BR BKN040 OVC048 03/02 A3000 RMK AO2 RAB26 SLP159 P0002 T00330017=
201201241253 METAR KBFI 241253Z 08003KT 10SM BKN065 OVC080 04/01 A3002 RMK AO2 SLP163 T00390006=
201201241153 METAR KBFI 241153Z 17003KT 10SM OVC090 03/M01 A3000 RMK AO2 SLP158 T00331006 10039 20022 53001=
201201241053 METAR KBFI 241053Z 15004KT 10SM OVC110 03/M01 A3000 RMK AO2 SLP158 T00281006=
201201240953 METAR KBFI 240953Z 00000KT 10SM CLR 03/M01 A2999 RMK AO2 SLP156 T00281006=
201201240853 METAR KBFI 240853Z 13003KT 10SM CLR 02/M01 A3000 RMK AO2 SLP157 T00221006 58010=
201201240753 METAR KBFI 240753Z 14006KT 10SM CLR 03/00 A3001 RMK AO2 SLP162 T00280000 400890000=
201201240653 METAR KBFI 240653Z 14005KT 10SM CLR 03/00 A3004 RMK AO2 SLP170 T00330000=
201201240553 METAR KBFI 240553Z 14005KT 10SM CLR 03/00 A3003 RMK AO2 SLP168 T00330000 10083 20028 50003=
201201240453 METAR KBFI 240453Z 13004KT 10SM CLR 04/01 A3004 RMK AO2 SLP172 T00390006=
201201240353 METAR KBFI 240353Z 12004KT 10SM CLR 05/01 A3003 RMK AO2 SLP168 T00500006=
201201240253 METAR KBFI 240253Z 15004KT 10SM CLR 06/01 A3002 RMK AO2 SLP164 T00560006 51003=
201201240153 METAR KBFI 240153Z 15004KT 10SM SCT250 06/01 A3002 RMK AO2 SLP164 T00560006=
201201240053 METAR KBFI 240053Z 00000KT 10SM BKN200 07/01 A3002 RMK AO2 SLP164 T00720011=
201201232353 METAR KBFI 232353Z 22003KT 10SM FEW090 BKN250 08/01 A3001 RMK AO2 SLP162 T00830006 10089 20044 53001=
201201232253 METAR KBFI 232253Z 18007KT 10SM FEW200 09/02 A3000 RMK AO2 SLP158 T00890017=
201201232153 METAR KBFI 232153Z 16010KT 10SM FEW045 SCT220 09/02 A3000 RMK AO2 SLP158 T00890022=
201201232053 METAR KBFI 232053Z 17010KT 10SM OVC046 08/03 A3001 RMK AO2 SLP161 T00830028 51007=
201201231953 METAR KBFI 231953Z 16008KT 10SM CLR 07/02 A3000 RMK AO2 SLP158 T00720017=
201201231853 METAR KBFI 231853Z 15009KT 10SM SCT055 05/02 A3000 RMK AO2 SLP157 T00500017=
201201231753 METAR KBFI 231753Z 14006KT 10SM CLR 04/01 A2998 RMK AO2 SLP153 T00440011 10044 20000 51026=
201201231653 METAR KBFI 231653Z 14005KT 10SM BKN047 02/00 A2997 RMK AO2 SLP148 T00170000=
201201231553 METAR KBFI 231553Z 13004KT 10SM FEW030 02/M01 A2994 RMK AO2 SLP137 T00171006=
201201231453 METAR KBFI 231453Z 14004KT 10SM FEW025 01/M01 A2991 RMK AO2 SLP127 T00061006 51011=
201201231353 METAR KBFI 231353Z 14005KT 10SM FEW026 01/00 A2990 RMK AO2 SLP123 T00060000=
201201231253 METAR KBFI 231253Z 12005KT 10SM FEW030 03/01 A2989 RMK AO2 SLP121 T00280006=
201201231153 METAR KBFI 231153Z 00000KT 10SM CLR 02/00 A2987 RMK AO2 SLP116 60000 70029 T00220000 10056 20017 53009=
201201231053 METAR KBFI 231053Z 12005KT 10SM CLR 03/01 A2985 RMK AO2 RAB0954E09 SLP108 P0000 T00330011=
201201230953 METAR KBFI 230953Z 17005KT 10SM BKN034 04/02 A2985 RMK AO2 SLP109 T00390017=
201201230853 METAR KBFI 230853Z 14004KT 10SM OVC041 04/02 A2985 RMK AO2 SLP106 T00440017 53026=
201201230753 METAR KBFI 230753Z 18009G15KT 10SM SCT034 SCT120 05/02 A2981 RMK AO2 SLP094 T00500022 400720011=
201201230653 METAR KBFI 230653Z 18009KT 10SM BKN038 06/02 A2978 RMK AO2 SLP084 T00560022=
201201230553 METAR KBFI 230553Z 18008KT 10SM OVC036 06/02 A2977 RMK AO2 SLP080 60009 T00560022 10072 20056 53037=
201201230453 METAR KBFI 230453Z 19007KT 10SM CLR 06/02 A2973 RMK AO2 SLP066 T00610022=
201201230353 METAR KBFI 230353Z 17011G17KT 10SM FEW041 06/03 A2969 RMK AO2 RAB02E26 SLP054 P0000 T00610033=
201201230253 METAR KBFI 230253Z 16013G19KT 10SM FEW020 BKN028 OVC045 07/04 A2966 RMK AO2 RAB08E47 SLP043 P0008 60009 T00670039 53040=
201201230231 SPECI KBFI 230231Z 00000KT 4SM -RA BR SCT021 BKN026 OVC033 06/04 A2965 RMK AO2 RAB08 PRESRR P0007=
201201230231 SPECI KBFI 230231Z 00000KT 4SM -RA BR SCT021 BKN026 OVC033 06/04 A2965 RMK AO2 RAB08 PRESRR P0007=
201201230153 METAR KBFI 230153Z 14011KT 10SM BKN055 06/04 A2961 RMK AO2 SLP026 T00610044=
201201230053 METAR KBFI 230053Z 15012G20KT 10SM FEW015 BKN032 OVC070 07/05 A2958 RMK AO2 RAE2355 SLP017 P0001 T00670050=
201201230031 SPECI KBFI 230031Z 14011KT 10SM SCT016 BKN037 OVC050 06/05 A2957 RMK AO2 RAE2355 P0001=
201201230031 SPECI KBFI 230031Z 14011KT 10SM SCT016 BKN037 OVC050 06/05 A2957 RMK AO2 RAE2355 P0001=
201201230021 SPECI KBFI 230021Z 14011KT 10SM BKN016 OVC039 06/05 A2956 RMK AO2 RAE2355 P0001=
201201230021 SPECI KBFI 230021Z 14011KT 10SM BKN016 OVC039 06/05 A2956 RMK AO2 RAE2355 P0001=
201201230005 SPECI KBFI 230005Z 14011KT 10SM BKN014 BKN020 OVC045 06/05 A2955 RMK AO2 RAE2355 P0001=
201201230005 SPECI KBFI 230005Z 14011KT 10SM BKN014 BKN020 OVC045 06/05 A2955 RMK AO2 RAE2355 P0001=
201201222353 METAR KBFI 222353Z 14012KT 10SM -RA SCT014 BKN033 OVC045 06/05 A2954 RMK AO2 SLP004 P0001 60017 T00610050 10067 20044 53031=
201201222253 METAR KBFI 222253Z 18004KT 9SM -RA OVC029 07/04 A2950 RMK AO2 SLP990 P0006 T00670044=
201201222153 METAR KBFI 222153Z 13008KT 6SM -RA BKN041 OVC047 06/02 A2945 RMK AO2 SLP972 P0004 T00560022=
201201222053 METAR KBFI 222053Z 15011G17KT 6SM -RA BKN035 OVC050 06/01 A2945 RMK AO2 RAB1954 SLP973 P0002 60006 T00610011 56045=
201201221953 METAR KBFI 221953Z VRB04KT 10SM OVC048 06/01 A2947 RMK AO2 RAE02 SLP979 P0000 T00560006=
201201221853 METAR KBFI 221853Z 08006KT 6SM -RA BKN038 BKN045 OVC055 04/02 A2953 RMK AO2 PRESFR SLP999 P0004 T00440017=
201201221753 METAR KBFI 221753Z 11010G16KT 7SM -RA OVC024 05/01 A2958 RMK AO2 RAB24 PRESFR SLP018 P0003 60003 T00500006 10050 20011 58042=
201201221746 SPECI KBFI 221746Z 12010G16KT 7SM -RA OVC026 04/01 A2961 RMK AO2 RAB24 PRESFR P0002=
201201221746 SPECI KBFI 221746Z 12010G16KT 7SM -RA OVC026 04/01 A2961 RMK AO2 RAB24 PRESFR P0002=
201201221653 METAR KBFI 221653Z 08003KT 10SM BKN046 OVC060 04/M01 A2964 RMK AO2 RAB44E53 SLP037 P0000 T00391011=
201201221553 METAR KBFI 221553Z 00000KT 10SM BKN090 03/M01 A2966 RMK AO2 SLP044 T00281011=
201201221453 METAR KBFI 221453Z VRB03KT 10SM BKN050 BKN070 OVC080 03/M01 A2971 RMK AO2 SLP060 T00281006 58040=
201201221353 METAR KBFI 221353Z 00000KT 10SM BKN055 OVC070 02/M01 A2976 RMK AO2 SLP077 T00221006=
201201221253 METAR KBFI 221253Z 00000KT 10SM FEW049 SCT055 BKN075 02/M01 A2978 RMK AO2 SLP083 T00221006=
201201221153 METAR KBFI 221153Z 00000KT 10SM OVC065 02/00 A2983 RMK AO2 SLP099 60000 T00220000 10050 20011 56020=
201201221053 METAR KBFI 221053Z 16003KT 10SM CLR 01/M01 A2984 RMK AO2 SLP105 T00111006=
201201220953 METAR KBFI 220953Z 00000KT 10SM CLR 03/01 A2986 RMK AO2 SLP111 T00330006=
201201220853 METAR KBFI 220853Z 18005KT 10SM CLR 04/01 A2988 RMK AO2 SLP119 60000 T00440006 50002=
201201220753 METAR KBFI 220753Z 18005KT 10SM SCT100 05/01 A2990 RMK AO2 RAE0654 SLP125 T00500006 400890028=
201201220653 METAR KBFI 220653Z 18009G17KT 10SM -RA BKN034 04/01 A2990 RMK AO2 RAB40 SLP126 P0000 T00440011=
201201220553 METAR KBFI 220553Z 17008G18KT 10SM CLR 04/01 A2988 RMK AO2 SLP118 T00440006 10061 20039 51033=
201201220453 METAR KBFI 220453Z 17012KT 10SM FEW020 04/01 A2986 RMK AO2 SLP112 T00390011=
201201220353 METAR KBFI 220353Z 19011G20KT 10SM FEW020 05/01 A2982 RMK AO2 SLP096 T00500011=
201201220253 METAR KBFI 220253Z 20008G19KT 10SM FEW120 05/01 A2978 RMK AO2 SLP085 T00500011 51041=
201201220153 METAR KBFI 220153Z 19008KT 160V230 10SM FEW025 05/01 A2974 RMK AO2 SLP071 T00500006=
201201220053 METAR KBFI 220053Z 20009G17KT 10SM CLR 06/02 A2972 RMK AO2 SLP062 T00560017=
201201212353 METAR KBFI 212353Z 21014G20KT 10SM CLR 06/02 A2966 RMK AO2 PK WND 22028/2330 SLP045 T00610017 10067 20056 53039=
201201212253 METAR KBFI 212253Z 20015G27KT 10SM SCT023 07/02 A2961 RMK AO2 PK WND 18027/2245 SLP026 T00670022=
201201212232 SPECI KBFI 212232Z 20012G19KT 170V240 10SM SCT023 07/03 A2959 RMK AO2=
201201212232 SPECI KBFI 212232Z 20012G19KT 170V240 10SM SCT023 07/03 A2959 RMK AO2=
201201212153 METAR KBFI 212153Z 19009G23KT 10SM BKN023 BKN095 BKN120 07/02 A2957 RMK AO2 SLP014 T00670022=
201201212053 METAR KBFI 212053Z 18011G20KT 10SM BKN023 06/03 A2955 RMK AO2 SLP006 T00610028 51031=
201201211953 METAR KBFI 211953Z 19015G26KT 10SM SCT020 SCT110 06/02 A2952 RMK AO2 PK WND 19033/1909 SLP997 T00610022=
201201211900 SPECI KBFI 211900Z 19017G25KT 10SM SCT020 SCT110 06/02 A2949 RMK AO2=
201201211900 SPECI KBFI 211900Z 19017G25KT 10SM SCT020 SCT110 06/02 A2949 RMK AO2=
201201211853 METAR KBFI 211853Z 19016G24KT 10SM BKN020 BKN025 06/02 A2949 RMK AO2 SLP985 T00610022=
201201211753 METAR KBFI 211753Z 19010G18KT 10SM BKN020 BKN025 06/03 A2946 RMK AO2 SLP975 T00560028 10078 20050 51038=
201201211653 METAR KBFI 211653Z 17014G21KT 10SM BKN020 BKN034 OVC090 06/03 A2943 RMK AO2 SLP966 T00560028=
201201211600 SPECI KBFI 211600Z 17011G20KT 10SM OVC020 06/02 A2940 RMK AO2=
201201211600 SPECI KBFI 211600Z 17011G20KT 10SM OVC020 06/02 A2940 RMK AO2=
201201211553 METAR KBFI 211553Z 18009G19KT 10SM SCT027 BKN035 BKN042 06/03 A2939 RMK AO2 SLP952 T00560028=
201201211453 METAR KBFI 211453Z 17016G22KT 10SM SCT020 BKN033 06/02 A2935 RMK AO2 PK WND 17027/1426 SLP937 T00560022 51065=
201201211353 METAR KBFI 211353Z 18013G24KT 10SM BKN020 OVC100 06/03 A2929 RMK AO2 PK WND 17037/1302 SLP918 T00610028=
201201211253 METAR KBFI 211253Z 19019G38KT 10SM FEW010 BKN025 07/03 A2922 RMK AO2 PK WND 19038/1248 PRESRR SLP896 T00670028=
201201211227 SPECI KBFI 211227Z 19019G32KT 10SM SCT022 BKN110 07/03 A2919 RMK AO2 PK WND 17035/1201=
201201211227 SPECI KBFI 211227Z 19019G32KT 10SM SCT022 BKN110 07/03 A2919 RMK AO2 PK WND 17035/1201=
201201211153 METAR KBFI 211153Z 19021G30KT 10SM OVC022 08/04 A2915 RMK AO2 PK WND 19035/1119 RAE24 PRESRR SLP872 P0001 60013 70054 T00780044 10089 20028 53039=
201201211053 METAR KBFI 211053Z 15009KT 10SM -RA BKN027 OVC035 04/03 A2906 RMK AO2 RAB43 SLP840 P0000 T00390033=
201201210953 METAR KBFI 210953Z 15007KT 10SM OVC036 03/03 A2903 RMK AO2 RAE43 SLP829 P0002 T00330028=
201201210853 METAR KBFI 210853Z 13006KT 8SM -RA FEW035 OVC046 04/03 A2904 RMK AO2 RAB0755 SLP833 P0003 60010 T00440033 56022=
201201210753 METAR KBFI 210753Z 15007KT 10SM SCT044 BKN055 OVC070 03/03 A2905 RMK AO2 RAE38 SLP836 P0002 T00330028 400501011=
201201210653 METAR KBFI 210653Z 15008KT 5SM -RA BR BKN044 OVC060 03/03 A2907 RMK AO2 SLP845 P0005 T00330028=
201201210553 METAR KBFI 210553Z 16008KT 6SM -RA BR SCT042 BKN050 OVC070 03/02 A2910 RMK AO2 RAB39 SLP855 P0003 60011 T00280017 10050 20022 56005=
201201210453 METAR KBFI 210453Z 14004KT 10SM FEW047 OVC055 03/02 A2911 RMK AO2 RAB04E53 SLP858 P0003 T00330022=
201201210353 METAR KBFI 210353Z 00000KT 7SM OVC042 03/02 A2911 RMK AO2 RAB01E49 SLP857 P0002 T00280022=
201201210253 METAR KBFI 210253Z 00000KT 8SM OVC048 03/03 A2912 RMK AO2 RAB15E26 SLP860 P0000 60003 T00330028 58062=
201201210153 METAR KBFI 210153Z 00000KT 10SM OVC050 04/03 A2918 RMK AO2 RAE00B23E40 SLP882 P0000 T00440033=
201201210053 METAR KBFI 210053Z 00000KT 6SM -RA BR OVC060 03/03 A2925 RMK AO2 RAE30B51 SLP903 P0003 T00330028=
201201202353 METAR KBFI 202353Z 00000KT 3SM -RA BR SCT008 BKN044 OVC055 03/03 A2930 RMK AO2 SLP923 P0004 60027 T00330028 10033 20011 58069=
201201202258 SPECI KBFI 202258Z 17006KT 3SM -RA BR SCT008 BKN044 OVC055 02/02 A2936 RMK AO2 PRESFR P0000=
201201202258 SPECI KBFI 202258Z 17006KT 3SM -RA BR SCT008 BKN044 OVC055 02/02 A2936 RMK AO2 PRESFR P0000=
201201202253 METAR KBFI 202253Z 15007KT 2 1/2SM -RA BR BKN008 BKN044 OVC055 03/02 A2937 RMK AO2 PRESFR SLP946 P0009 T00280022=
201201202222 SPECI KBFI 202222Z 15007KT 2 1/2SM -RA BR BKN008 BKN034 OVC044 03/03 A2942 RMK AO2 PRESFR P0004=
201201202222 SPECI KBFI 202222Z 15007KT 2 1/2SM -RA BR BKN008 BKN034 OVC044 03/03 A2942 RMK AO2 PRESFR P0004=
201201202208 SPECI KBFI 202208Z 12004KT 1 1/2SM -RA BR BKN008 BKN034 OVC044 02/02 A2944 RMK AO2 P0002=
201201202208 SPECI KBFI 202208Z 12004KT 1 1/2SM -RA BR BKN008 BKN034 OVC044 02/02 A2944 RMK AO2 P0002=
201201202153 METAR KBFI 202153Z 00000KT 3SM -RA BR SCT005 BKN040 OVC050 03/02 A2946 RMK AO2 SLP974 P0008 T00280022=
201201202053 METAR KBFI 202053Z 00000KT 3SM -RA BR FEW009 BKN035 OVC055 02/02 A2951 RMK AO2 UPE1957RAB1957 SLP991 P0005 60006 T00220017 56033=
201201201953 METAR KBFI 201953Z 00000KT 3SM UP BR SCT041 OVC055 02/01 A2952 RMK AO2 RAB27E49UPB49 SLP997 P0001 T00170006=
201201201853 METAR KBFI 201853Z 00000KT 3SM BR FEW012 SCT050 BKN110 01/00 A2957 RMK AO2 SLP012 T00110000=
201201201753 METAR KBFI 201753Z 00000KT 3SM BR BKN055 OVC070 01/01 A2960 RMK AO2 RAB35E45 SLP024 P0000 60003 T00110006 10011 20000 58029=
201201201653 METAR KBFI 201653Z 00000KT 3SM BR FEW012 SCT045 BKN100 01/01 A2963 RMK AO2 RAE24UPB08E11 SLP033 P0000 T00060006=
201201201644 SPECI KBFI 201644Z 00000KT 3SM BR FEW005 BKN085 OVC100 01/01 A2964 RMK AO2 RAE24UPB08E11 P0000=
201201201644 SPECI KBFI 201644Z 00000KT 3SM BR FEW005 BKN085 OVC100 01/01 A2964 RMK AO2 RAE24UPB08E11 P0000=
201201201553 METAR KBFI 201553Z 00000KT 3SM -RA BR SCT005 BKN025 OVC040 01/00 A2966 RMK AO2 RAE22B48 SLP044 P0001 T00060000=
201201201453 METAR KBFI 201453Z 00000KT 4SM -RA BR FEW005 SCT032 OVC048 01/00 A2969 RMK AO2 RAB02UPB03E12 SLP053 P0002 60002 T00060000 58019=
201201201422 SPECI KBFI 201422Z 00000KT 4SM BR FEW005 BKN033 OVC045 01/00 A2970 RMK AO2 RAB02E19UPB03E12 P0001=
201201201422 SPECI KBFI 201422Z 00000KT 4SM BR FEW005 BKN033 OVC045 01/00 A2970 RMK AO2 RAB02E19UPB03E12 P0001=
201201201414 SPECI KBFI 201414Z 00000KT 3SM -RA BR SCT005 BKN020 OVC047 01/00 A2971 RMK AO2 RAB02UPB03E12 P0001=
201201201414 SPECI KBFI 201414Z 00000KT 3SM -RA BR SCT005 BKN020 OVC047 01/00 A2971 RMK AO2 RAB02UPB03E12 P0001=
201201201353 METAR KBFI 201353Z 24004KT 5SM BR FEW005 BKN034 OVC047 01/M01 A2971 RMK AO2 UPB12E29RAB29E30 SLP061 P0000 T00061006=
201201201334 SPECI KBFI 201334Z 00000KT 6SM BR FEW025 SCT034 OVC048 01/00 A2971 RMK AO2 UPB12E29RAB29E30 P0000=
201201201334 SPECI KBFI 201334Z 00000KT 6SM BR FEW025 SCT034 OVC048 01/00 A2971 RMK AO2 UPB12E29RAB29E30 P0000=
201201201253 METAR KBFI 201253Z 00000KT 3SM BR OVC025 00/00 A2973 RMK AO2 UPB26E36 SLP067 P0000 T00000000=
201201201153 METAR KBFI 201153Z 00000KT 4SM BR SCT005 OVC019 00/00 A2975 RMK AO2 SLP072 60002 70045 T00000000 10000 21017 58002=
201201201053 METAR KBFI 201053Z 00000KT 3SM BR BKN009 OVC013 00/M01 A2977 RMK AO2 FZRAE43 CIG 006V010 SLP079 P0001 T00001006=
201201201045 SPECI KBFI 201045Z 15003KT 2SM BR FEW008 OVC013 M01/M01 A2977 RMK AO2 FZRAE43 P0001=
201201201045 SPECI KBFI 201045Z 15003KT 2SM BR FEW008 OVC013 M01/M01 A2977 RMK AO2 FZRAE43 P0001=
201201201042 SPECI KBFI 201042Z 14004KT 2SM -FZRA BR OVC013 M01/M01 A2977 RMK AO2 P0001=
201201201042 SPECI KBFI 201042Z 14004KT 2SM -FZRA BR OVC013 M01/M01 A2977 RMK AO2 P0001=
201201200953 METAR KBFI 200953Z 00000KT 1 1/2SM -FZRA BR SCT006 OVC013 M01/M01 A2977 RMK AO2 UPB45E46FZRAB46 SLP080 P0001 T10061011=
201201200950 SPECI KBFI 200950Z 00000KT 1 3/4SM -FZRA BR SCT006 OVC013 M01/M01 A2977 RMK AO2 UPB45E46FZRAB46 P0001=
201201200950 SPECI KBFI 200950Z 00000KT 1 3/4SM -FZRA BR SCT006 OVC013 M01/M01 A2977 RMK AO2 UPB45E46FZRAB46 P0001=
201201200946 SPECI KBFI 200946Z 00000KT 2 1/2SM -FZRA BR BKN006 OVC013 M01/M01 A2977 RMK AO2 UPB45E46FZRAB46 P0000=
201201200946 SPECI KBFI 200946Z 00000KT 2 1/2SM -FZRA BR BKN006 OVC013 M01/M01 A2977 RMK AO2 UPB45E46FZRAB46 P0000=
201201200919 SPECI KBFI 200919Z 00000KT 3SM BR BKN006 OVC017 M01/M01 A2976 RMK AO2=
201201200919 SPECI KBFI 200919Z 00000KT 3SM BR BKN006 OVC017 M01/M01 A2976 RMK AO2=
201201200916 SPECI KBFI 200916Z 18003KT 2 1/2SM BR SCT006 OVC017 M01/M01 A2975 RMK AO2=
201201200916 SPECI KBFI 200916Z 18003KT 2 1/2SM BR SCT006 OVC017 M01/M01 A2975 RMK AO2=
201201200853 METAR KBFI 200853Z 14004KT 7SM OVC017 M01/M02 A2975 RMK AO2 SLP074 T10111022 58003=
201201200753 METAR KBFI 200753Z 00000KT 5SM BR OVC015 M01/M03 A2978 RMK AO2 SLP083 T10111028 410111022=
201201200653 METAR KBFI 200653Z 14003KT 10SM OVC017 M01/M03 A2976 RMK AO2 SLP077 T10111033=
201201200553 METAR KBFI 200553Z 00000KT 10SM OVC020 M02/M03 A2976 RMK AO2 SLP077 60003 T10171028 11011 21022 53014=
201201200453 METAR KBFI 200453Z 00000KT 10SM BKN027 OVC043 M02/M03 A2976 RMK AO2 SLP075 T10171028=
201201200353 METAR KBFI 200353Z 00000KT 10SM BKN027 BKN034 OVC043 M02/M03 A2973 RMK AO2 UPB17E22FZRAB22E50SNE17 SLP065 P0000 T10171033=
201201200345 SPECI KBFI 200345Z 00000KT 5SM -FZRA BR SCT027 OVC043 M02/M03 A2973 RMK AO2 UPB17E22FZRAB22SNE17 P0000=
201201200345 SPECI KBFI 200345Z 00000KT 5SM -FZRA BR SCT027 OVC043 M02/M03 A2973 RMK AO2 UPB17E22FZRAB22SNE17 P0000=
201201200328 SPECI KBFI 200328Z 00000KT 2SM -FZRA BR OVC030 M02/M03 A2973 RMK AO2 UPB17E22FZRAB22SNE17 P0000=
201201200328 SPECI KBFI 200328Z 00000KT 2SM -FZRA BR OVC030 M02/M03 A2973 RMK AO2 UPB17E22FZRAB22SNE17 P0000=
201201200253 METAR KBFI 200253Z 00000KT 2SM -SN BR OVC030 M02/M03 A2972 RMK AO2 SLP064 P0001 60003 T10221033 51025=
201201200153 METAR KBFI 200153Z 00000KT 2SM -SN BR BKN008 OVC026 M02/M03 A2970 RMK AO2 SLP057 P0001 T10171033=
201201200053 METAR KBFI 200053Z 00000KT 2SM -SN BR BKN008 OVC026 M02/M04 A2968 RMK AO2 SLP049 P0001 T10171039=
201201192353 METAR KBFI 192353Z VRB05KT 2SM -SN BR BKN008 OVC026 M02/M04 A2965 RMK AO2 SLP038 P0001 60018 T10171039 11017 21017 53019=
201201192253 METAR KBFI 192253Z VRB03KT 2SM -SN BR BKN008 OVC023 M02/M03 A2961 RMK AO2 FZRAE15SNB15 SLP028 P0003 T10171028=
201201192224 SPECI KBFI 192224Z 35004KT 2SM -SN BR BKN008 OVC023 M02/M03 A2960 RMK AO2 FZRAE15SNB15 P0002=
201201192224 SPECI KBFI 192224Z 35004KT 2SM -SN BR BKN008 OVC023 M02/M03 A2960 RMK AO2 FZRAE15SNB15 P0002=
201201192221 SPECI KBFI 192221Z VRB03KT 3SM -SN BR OVC023 M02/M03 A2960 RMK AO2 FZRAE15SNB15 P0002=
201201192221 SPECI KBFI 192221Z VRB03KT 3SM -SN BR OVC023 M02/M03 A2960 RMK AO2 FZRAE15SNB15 P0002=
201201192153 METAR KBFI 192153Z 01005KT 6SM -FZRA BR BKN025 OVC030 M02/M03 A2959 RMK AO2 SLP019 P0003 T10171033=
201201192053 METAR KBFI 192053Z 36005KT 6SM -FZRA BR SCT012 OVC023 M02/M04 A2959 RMK AO2 SLP019 P0003 60011 T10171039 56014=
201201191953 METAR KBFI 191953Z 35007KT 7SM -FZRA BR OVC023 M02/M04 A2959 RMK AO2 SLP021 P0003 T10171039=
201201191853 METAR KBFI 191853Z 36005KT 6SM -FZRA BR OVC023 M02/M03 A2962 RMK AO2 SLP030 P0005 T10171033=
201201191800 SPECI KBFI 191800Z 35006KT 5SM -FZRA BR FEW012 BKN021 OVC029 M02/M04 A2963 RMK AO2 P0001=
201201191800 SPECI KBFI 191800Z 35006KT 5SM -FZRA BR FEW012 BKN021 OVC029 M02/M04 A2963 RMK AO2 P0001=
201201191753 METAR KBFI 191753Z 35008KT 6SM -FZRA BR BKN012 BKN021 OVC031 M02/M03 A2963 RMK AO2 SLP033 P0005 60022 T10171033 11017 21022 56007=
201201191748 SPECI KBFI 191748Z 36005KT 5SM -FZRA BR BKN012 BKN021 OVC031 M02/M03 A2963 RMK AO2 P0005=
201201191748 SPECI KBFI 191748Z 36005KT 5SM -FZRA BR BKN012 BKN021 OVC031 M02/M03 A2963 RMK AO2 P0005=
201201191653 METAR KBFI 191653Z 35006KT 4SM -FZRA BR SCT018 BKN028 OVC036 M02/M03 A2963 RMK AO2 SLP034 P0005 T10171033=
201201191640 SPECI KBFI 191640Z 01007KT 4SM -FZRA BR SCT018 OVC032 M02/M03 A2964 RMK AO2 P0004=
201201191640 SPECI KBFI 191640Z 01007KT 4SM -FZRA BR SCT018 OVC032 M02/M03 A2964 RMK AO2 P0004=
201201191553 METAR KBFI 191553Z 35006KT 5SM -FZRA BR OVC020 M02/M03 A2965 RMK AO2 UPB16E17FZRAE16B17 SLP040 P0005 T10171033=
201201191453 METAR KBFI 191453Z VRB05KT 7SM -FZRA OVC010 M02/M03 A2967 RMK AO2 SLP048 P0004 60007 T10171033 58028=
201201191353 METAR KBFI 191353Z 35005KT 9SM -FZRA SCT006 OVC013 M02/M03 A2971 RMK AO2 UPB18E22FZRAE18B22 SLP060 P0002 T10221033=
201201191307 SPECI KBFI 191307Z 36005KT 7SM -FZRA SCT006 OVC013 M02/M04 A2973 RMK AO2 P0001=
201201191307 SPECI KBFI 191307Z 36005KT 7SM -FZRA SCT006 OVC013 M02/M04 A2973 RMK AO2 P0001=
201201191300 SPECI KBFI 191300Z 36004KT 7SM -FZRA OVC013 M02/M04 A2973 RMK AO2 P0001=
201201191300 SPECI KBFI 191300Z 36004KT 7SM -FZRA OVC013 M02/M04 A2973 RMK AO2 P0001=
201201191253 METAR KBFI 191253Z 36006KT 7SM -FZRA SCT007 OVC017 M02/M04 A2973 RMK AO2 UPB12E17FZRAE12B17 SLP068 P0001 T10221039=
201201191153 METAR KBFI 191153Z 34004KT 9SM -FZRA SCT008 OVC017 M02/M04 A2976 RMK AO2 UPB38E44FZRAB44 SLP076 P0000 60000 70042 T10221044 11017 21022 58011=
201201191146 SPECI KBFI 191146Z 35004KT 10SM -FZRA SCT008 OVC017 M02/M04 A2976 RMK AO2 UPB38E44FZRAB44 P0000=
201201191146 SPECI KBFI 191146Z 35004KT 10SM -FZRA SCT008 OVC017 M02/M04 A2976 RMK AO2 UPB38E44FZRAB44 P0000=
201201191053 METAR KBFI 191053Z 35003KT 8SM OVC017 M02/M04 A2978 RMK AO2 SLP084 T10221039=
201201190953 METAR KBFI 190953Z 35004KT 10SM OVC015 M02/M04 A2978 RMK AO2 SLP084 T10221044=
201201190900 SPECI KBFI 190900Z 00000KT 10SM OVC015 M02/M04 A2979 RMK AO2=
201201190900 SPECI KBFI 190900Z 00000KT 10SM OVC015 M02/M04 A2979 RMK AO2=
201201190853 METAR KBFI 190853Z 01004KT 10SM OVC011 M02/M04 A2979 RMK AO2 SLP087 T10221044 58003=
201201190800 SPECI KBFI 190800Z 00000KT 10SM OVC011 M02/M04 A2981 RMK AO2=
201201190800 SPECI KBFI 190800Z 00000KT 10SM OVC011 M02/M04 A2981 RMK AO2=
201201190753 METAR KBFI 190753Z 03003KT 10SM OVC019 M02/M04 A2980 RMK AO2 SLP092 T10171039 400111022=
201201190735 SPECI KBFI 190735Z 36003KT 10SM SCT009 OVC017 M02/M03 A2981 RMK AO2=
201201190735 SPECI KBFI 190735Z 36003KT 10SM SCT009 OVC017 M02/M03 A2981 RMK AO2=
201201190712 SPECI KBFI 190712Z 36003KT 10SM BKN009 OVC024 M02/M03 A2981 RMK AO2=
201201190712 SPECI KBFI 190712Z 36003KT 10SM BKN009 OVC024 M02/M03 A2981 RMK AO2=
201201190703 SPECI KBFI 190703Z 35004KT 10SM BKN011 OVC022 M02/M03 A2981 RMK AO2=
201201190703 SPECI KBFI 190703Z 35004KT 10SM BKN011 OVC022 M02/M03 A2981 RMK AO2=
201201190653 METAR KBFI 190653Z 01003KT 10SM SCT013 SCT018 OVC022 M02/M03 A2981 RMK AO2 SLP094 T10221033=
201201190626 SPECI KBFI 190626Z 35005KT 10SM OVC016 M02/M04 A2981 RMK AO2=
201201190626 SPECI KBFI 190626Z 35005KT 10SM OVC016 M02/M04 A2981 RMK AO2=
201201190553 METAR KBFI 190553Z 34005KT 6SM BR OVC012 M02/M03 A2980 RMK AO2 SLP090 60004 T10221033 11011 21022 51017 $=
201201190453 METAR KBFI 190453Z 34004KT 5SM BR OVC012 M02/M03 A2979 RMK AO2 FZRAE40 SLP086 P0000 T10171028=
201201190446 SPECI KBFI 190446Z 34007KT 6SM BR OVC012 M02/M03 A2979 RMK AO2 FZRAE40 P0000=
201201190446 SPECI KBFI 190446Z 34007KT 6SM BR OVC012 M02/M03 A2979 RMK AO2 FZRAE40 P0000=
201201190353 METAR KBFI 190353Z 32005KT 3SM -FZRA BR OVC010 M02/M02 A2978 RMK AO2 SLP082 P0001 T10171022=
201201190306 SPECI KBFI 190306Z 34004KT 3SM -FZRA BR BKN010 BKN016 OVC023 M02/M03 A2976 RMK AO2 P0000=
201201190306 SPECI KBFI 190306Z 34004KT 3SM -FZRA BR BKN010 BKN016 OVC023 M02/M03 A2976 RMK AO2 P0000=
201201190253 METAR KBFI 190253Z 34005KT 3SM -FZRA BR SCT010 BKN019 OVC023 M02/M03 A2975 RMK AO2 FZRAB45 SLP074 P0000 60003 T10171028 53016=
201201190245 SPECI KBFI 190245Z 36006KT 3SM -FZRA BR SCT010 BKN017 OVC022 M02/M03 A2974 RMK AO2 FZRAB45 P0000=
201201190245 SPECI KBFI 190245Z 36006KT 3SM -FZRA BR SCT010 BKN017 OVC022 M02/M03 A2974 RMK AO2 FZRAB45 P0000=
201201190240 SPECI KBFI 190240Z 36008KT 4SM BR BKN010 OVC019 M02/M03 A2975 RMK AO2=
201201190240 SPECI KBFI 190240Z 36008KT 4SM BR BKN010 OVC019 M02/M03 A2975 RMK AO2=
201201190200 SPECI KBFI 190200Z AUTO 34005KT 3SM BR FEW010 OVC019 M01/M02 A2974 RMK AO2 TSNO=
201201190200 SPECI KBFI 190200Z AUTO 34005KT 3SM BR FEW010 OVC019 M01/M02 A2974 RMK AO2 TSNO=
201201190153 METAR KBFI 190153Z 34007KT 3SM BR BKN010 OVC019 M01/M02 A2973 RMK AO2 SNE48 SLP068 P0001 T10111022=
201201190053 METAR KBFI 190053Z 34003KT 3SM -SN BR OVC008 M01/M02 A2970 RMK AO2 RAB46E47 CIG 006V012 SLP057 P0002 T10111022 $=
201201190049 SPECI KBFI 190049Z 33005KT 2 1/2SM -SN BR OVC008 M01/M02 A2970 RMK AO2 RAB46E47 CIG 006V012 P0001 $=
201201190049 SPECI KBFI 190049Z 33005KT 2 1/2SM -SN BR OVC008 M01/M02 A2970 RMK AO2 RAB46E47 CIG 006V012 P0001 $=
201201182353 METAR KBFI 182353Z 33005KT 1 3/4SM -SN BR BKN010 OVC016 M01/M02 A2967 RMK AO2 SLP046 P0001 60016 T10111022 11006 21011 51008=
201201182345 SPECI KBFI 182345Z 34006KT 1 3/4SM -SN BR FEW007 BKN010 OVC016 M01/M02 A2968 RMK AO2 P0000=
201201182345 SPECI KBFI 182345Z 34006KT 1 3/4SM -SN BR FEW007 BKN010 OVC016 M01/M02 A2968 RMK AO2 P0000=
201201182314 SPECI KBFI 182314Z 34006KT 2SM -SN BR BKN010 OVC019 M01/M02 A2966 RMK AO2 P0000=
201201182314 SPECI KBFI 182314Z 34006KT 2SM -SN BR BKN010 OVC019 M01/M02 A2966 RMK AO2 P0000=
201201182303 SPECI KBFI 182303Z 33005KT 1 3/4SM -SN BR BKN010 OVC019 M01/M02 A2967 RMK AO2 P0000=
201201182303 SPECI KBFI 182303Z 33005KT 1 3/4SM -SN BR BKN010 OVC019 M01/M02 A2967 RMK AO2 P0000=
201201182253 METAR KBFI 182253Z 34007KT 1SM -SN BR BKN008 OVC017 M01/M02 A2967 RMK AO2 UPB07E12FZRAB12E13SNE07B13 SLP046 P0003 T10061022=
201201182153 METAR KBFI 182153Z 33007KT 1SM -SN BR BKN008 OVC017 M01/M02 A2964 RMK AO2 SLP038 P0001 T10061017=
201201182117 SPECI KBFI 182117Z 33004KT 1SM -SN BR BKN008 OVC011 M01/M02 A2964 RMK AO2 P0000=
201201182117 SPECI KBFI 182117Z 33004KT 1SM -SN BR BKN008 OVC011 M01/M02 A2964 RMK AO2 P0000=
201201182109 SPECI KBFI 182109Z 32005KT 1SM -SN BR OVC011 M01/M02 A2964 RMK AO2 P0000=
201201182109 SPECI KBFI 182109Z 32005KT 1SM -SN BR OVC011 M01/M02 A2964 RMK AO2 P0000=
201201182053 METAR KBFI 182053Z 33007KT 3/4SM -SN BR FEW008 OVC012 M01/M02 A2964 RMK AO2 SLP037 P0003 60011 T10061017 50000 $=
201201182035 SPECI KBFI 182035Z 33006KT 3/4SM -SN BR FEW007 OVC011 M01/M02 A2965 RMK AO2 P0002=
201201182035 SPECI KBFI 182035Z 33006KT 3/4SM -SN BR FEW007 OVC011 M01/M02 A2965 RMK AO2 P0002=
201201181953 METAR KBFI 181953Z 33008KT 1/2SM -SN FZFG BKN007 OVC013 M01/M02 A2964 RMK AO2 SLP037 P0003 T10061017=
201201181931 SPECI KBFI 181931Z 33007KT 1/2SM -SN FZFG FEW007 OVC010 M01/M02 A2964 RMK AO2 P0002=
201201181931 SPECI KBFI 181931Z 33007KT 1/2SM -SN FZFG FEW007 OVC010 M01/M02 A2964 RMK AO2 P0002=
201201181924 SPECI KBFI 181924Z 33006KT 1SM -SN BR FEW007 BKN010 OVC013 M01/M02 A2964 RMK AO2 P0002=
201201181924 SPECI KBFI 181924Z 33006KT 1SM -SN BR FEW007 BKN010 OVC013 M01/M02 A2964 RMK AO2 P0002=
201201181853 METAR KBFI 181853Z 33005KT 1/2SM -SN FZFG VV006 M01/M02 A2965 RMK AO2 SLP040 P0005 T10111017=
201201181753 METAR KBFI 181753Z 34007KT 1/2SM -SN FZFG VV008 M01/M02 A2964 RMK AO2 SLP038 P0005 60022 T10111017 11011 21017 56025=
201201181653 METAR KBFI 181653Z AUTO 34006KT 1/2SM SN FZFG VV007 M01/M02 A2967 RMK AO2 SLP045 P0004 T10111022=
201201181631 SPECI KBFI 181631Z 35005KT 1/2SM SN FZFG VV008 M01/M02 A2966 RMK AO2 P0002=
201201181631 SPECI KBFI 181631Z 35005KT 1/2SM SN FZFG VV008 M01/M02 A2966 RMK AO2 P0002=
201201181621 SPECI KBFI 181621Z 34007KT 1/2SM -SN FZFG VV011 M01/M02 A2967 RMK AO2 P0001=
201201181621 SPECI KBFI 181621Z 34007KT 1/2SM -SN FZFG VV011 M01/M02 A2967 RMK AO2 P0001=
201201181553 METAR KBFI 181553Z 34005KT 1SM -SN BR VV012 M01/M02 A2967 RMK AO2 SLP047 P0006 T10111017=
201201181453 METAR KBFI 181453Z 02004KT 1SM -SN BR VV009 M01/M02 A2972 RMK AO2 SLP063 P0003 60007 T10111022 58070=
201201181428 SPECI KBFI 181428Z 02006KT 1SM -SN BR VV009 M01/M02 A2976 RMK AO2 PRESFR P0002=
201201181428 SPECI KBFI 181428Z 02006KT 1SM -SN BR VV009 M01/M02 A2976 RMK AO2 PRESFR P0002=
201201181353 METAR KBFI 181353Z 04006KT 1 1/4SM -SN BR OVC011 M01/M02 A2981 RMK AO2 SLP093 P0003 T10111022 $=
201201181253 METAR KBFI 181253Z 05006KT 1SM -SN BR VV008 M01/M02 A2987 RMK AO2 PRESFR SLP114 P0001 T10111022=
201201181153 METAR KBFI 181153Z 04007KT 1SM -SN BR VV008 M02/M03 A2992 RMK AO2 SLP133 P0002 60002 70009 T10171028 10011 21017 58017=
201201181103 SPECI KBFI 181103Z VRB03KT 1SM -SN BR VV010 M01/M03 A2996 RMK AO2 P0000=
201201181103 SPECI KBFI 181103Z VRB03KT 1SM -SN BR VV010 M01/M03 A2996 RMK AO2 P0000=
201201181053 METAR KBFI 181053Z 10006KT 2SM -SN VV005 M01/M04 A2996 RMK AO2 SNB40 SLP144 P0000 T10111044=
201201181045 SPECI KBFI 181045Z 10006KT 2SM -SN VV010 M01/M05 A2996 RMK AO2 SNB40 P0000=
201201181045 SPECI KBFI 181045Z 10006KT 2SM -SN VV010 M01/M05 A2996 RMK AO2 SNB40 P0000=
201201180953 METAR KBFI 180953Z 10005KT 10SM OVC050 01/M06 A2997 RMK AO2 SLP147 T00061056=
201201180853 METAR KBFI 180853Z 10003KT 10SM OVC042 01/M04 A2998 RMK AO2 SLP150 T00061044 50001=
201201180753 METAR KBFI 180753Z 00000KT 10SM BKN039 OVC048 01/M04 A2998 RMK AO2 SLP151 T00061044 400440006=
201201180653 METAR KBFI 180653Z 00000KT 10SM SCT037 BKN045 01/M04 A2997 RMK AO2 SLP149 T00111039=
201201180553 METAR KBFI 180553Z 00000KT 10SM OVC041 01/M06 A2997 RMK AO2 SLP148 T00111056 10022 20006 51013=
201201180524 SPECI KBFI 180524Z 00000KT 10SM OVC033 01/M04 A2997 RMK AO2=
201201180524 SPECI KBFI 180524Z 00000KT 10SM OVC033 01/M04 A2997 RMK AO2=
201201180500 SPECI KBFI 180500Z 00000KT 10SM BKN027 BKN032 OVC045 01/M03 A2997 RMK AO2=
201201180500 SPECI KBFI 180500Z 00000KT 10SM BKN027 BKN032 OVC045 01/M03 A2997 RMK AO2=
201201180453 METAR KBFI 180453Z 00000KT 10SM BKN034 01/M03 A2997 RMK AO2 SLP146 T00111033=
201201180353 METAR KBFI 180353Z 25004KT 10SM SCT028 BKN034 01/M03 A2996 RMK AO2 SLP144 T00111028=
201201180253 METAR KBFI 180253Z VRB05KT 10SM SCT030 SCT090 01/M03 A2993 RMK AO2 SLP136 T00111028 53013=
201201180153 METAR KBFI 180153Z VRB06KT 10SM BKN100 02/M03 A2991 RMK AO2 PK WND 04027/0138 SLP128 T00221028=
201201180053 METAR KBFI 180053Z 20004KT 10SM SCT020 SCT120 02/M02 A2990 RMK AO2 SLP126 T00221017=
201201172353 METAR KBFI 172353Z 21008G17KT 10SM FEW110 02/M02 A2989 RMK AO2 SLP122 60001 T00221017 10044 20022 53016=
201201172253 METAR KBFI 172253Z 24007KT 210V270 10SM SCT024 SCT030 03/M02 A2987 RMK AO2 SLP115 T00331017=
201201172153 METAR KBFI 172153Z 25008KT 10SM SCT012 BKN018 OVC110 03/00 A2986 RMK AO2 SLP111 T00330000=
201201172053 METAR KBFI 172053Z 26004KT 10SM BKN015 OVC026 03/01 A2985 RMK AO2 SLP106 60001 T00330006 53009=
201201172007 SPECI KBFI 172007Z 26007KT 10SM FEW010 OVC015 03/01 A2984 RMK AO2=
201201172007 SPECI KBFI 172007Z 26007KT 10SM FEW010 OVC015 03/01 A2984 RMK AO2=
201201171953 METAR KBFI 171953Z 25006KT 10SM BKN011 OVC018 03/01 A2984 RMK AO2 RAE03UPB03E06 SLP102 P0000 T00280011=
201201171857 SPECI KBFI 171857Z 21007KT 10SM -RA BKN013 OVC023 02/01 A2982 RMK AO2 P0000=
201201171857 SPECI KBFI 171857Z 21007KT 10SM -RA BKN013 OVC023 02/01 A2982 RMK AO2 P0000=
201201171853 METAR KBFI 171853Z 21005KT 10SM -RA SCT011 BKN016 OVC023 03/01 A2982 RMK AO2 RAB12E23B39UPB36E39 SLP097 P0001 T00280011=
201201171753 METAR KBFI 171753Z 20007KT 10SM OVC013 03/01 A2982 RMK AO2 SLP097 60006 T00280011 10028 20017 55003=
201201171653 METAR KBFI 171653Z 19010G15KT 160V220 10SM BKN013 03/01 A2981 RMK AO2 SLP094 T00280011=
201201171608 SPECI KBFI 171608Z 18011G18KT 10SM FEW008 BKN015 OVC065 02/01 A2981 RMK AO2=
201201171608 SPECI KBFI 171608Z 18011G18KT 10SM FEW008 BKN015 OVC065 02/01 A2981 RMK AO2=
201201171553 METAR KBFI 171553Z 18009G17KT 10SM SCT015 OVC065 02/01 A2981 RMK AO2 UPB00E02B35E37RAB02E35 SLP094 P0003 T00170006=
201201171453 METAR KBFI 171453Z 19013G18KT 10SM SCT010 OVC012 02/01 A2983 RMK AO2 RAE12UPB12E36 SLP100 P0000 60003 T00220006 56015=
201201171353 METAR KBFI 171353Z 18009G16KT 10SM -RA OVC010 02/01 A2984 RMK AO2 RAE1256B18UPB1256E18 SLP103 P0002 T00170006 $=
201201171253 METAR KBFI 171253Z AUTO 17010KT 5SM -RA BR OVC010 02/01 A2985 RMK AO2 UPB03E42RAB05E16B42 SLP109 P0001 T00170006 TSNO $=
201201171153 METAR KBFI 171153Z 17011KT 10SM BKN012 BKN018 02/01 A2987 RMK AO2 UPE08RAB1055E05 SLP115 P0000 60005 70008 T00170006 10022 20011 58023 $=
201201171053 METAR KBFI 171053Z 17016G21KT 10SM UP BKN012 BKN018 OVC028 02/01 A2990 RMK AO2 UPB17E26B45RAB26E36 SLP124 P0000 T00170006 $=
201201170953 METAR KBFI 170953Z 18008G15KT 10SM BKN012 OVC019 02/01 A2992 RMK AO2 UPE0858B19E34RAB0858E19 SLP133 P0001 T00220006 $=
201201170853 METAR KBFI 170853Z 17009G14KT 10SM UP OVC010 02/01 A2994 RMK AO2 RAE04B48E49UPB04E11B49 CIG 009V013 SLP139 P0001 60004 T00170006 58014 $=
201201170753 METAR KBFI 170753Z 17010KT 10SM -RA OVC015 02/01 A2996 RMK AO2 RAB0654E0655B26E28B53UPB0655E0658B48E53FZRAB0658E48SNE0654 SLP144 P0001 T00170006 400221028 $=
201201170701 SPECI KBFI 170701Z 17010G19KT 10SM -FZRA OVC012 02/01 A2997 RMK AO2 RAB0654E0655UPB0655E0658FZRAB0658SNE0654 P0000 $=
201201170701 SPECI KBFI 170701Z 17010G19KT 10SM -FZRA OVC012 02/01 A2997 RMK AO2 RAB0654E0655UPB0655E0658FZRAB0658SNE0654 P0000 $=
201201170653 METAR KBFI 170653Z 17012G20KT 10SM -SN FEW009 BKN014 OVC020 02/01 A2997 RMK AO2 SLP148 P0002 T00170006 $=
201201170553 METAR KBFI 170553Z 17013G17KT 9SM -SN BKN014 OVC020 02/01 A2998 RMK AO2 SLP153 P0000 60003 T00170006 10022 20011 56017 $=
201201170453 METAR KBFI 170453Z 17009G17KT 9SM -SN BKN014 OVC020 02/01 A2999 RMK AO2 SLP156 P0000 T00170006 $=
201201170353 METAR KBFI 170353Z AUTO 17010KT 9SM -SN OVC012 02/00 A3001 RMK AO2 SLP162 P0003 T00170000 TSNO $=
201201170253 METAR KBFI 170253Z 17008KT 9SM -SN BKN014 OVC020 02/00 A3003 RMK AO2 UPB40E46RAB46E51SNB51 SLP169 P0000 60000 T00170000 56006 $=
201201170153 METAR KBFI 170153Z 18012G17KT 10SM BKN014 OVC085 02/00 A3003 RMK AO2 SLP169 T00170000 $=
201201170053 METAR KBFI 170053Z 19012G18KT 10SM BKN014 BKN020 OVC095 02/00 A3005 RMK AO2 SLP175 T00220000 $=
201201162353 METAR KBFI 162353Z 19012G20KT 10SM SCT018 OVC085 02/M01 A3005 RMK AO2 SLP175 60000 T00221006 10022 21006 55006 $=
201201162253 METAR KBFI 162253Z 19013G21KT 10SM SCT018 OVC100 02/M01 A3005 RMK AO2 SLP175 T00221006 $=
201201162153 METAR KBFI 162153Z 19013G22KT 10SM OVC016 02/M01 A3005 RMK AO2 SLP175 T00171006 $=
201201162106 SPECI KBFI 162106Z 18009G20KT 10SM OVC016 01/M01 A3006 RMK AO2 $=
201201162106 SPECI KBFI 162106Z 18009G20KT 10SM OVC016 01/M01 A3006 RMK AO2 $=
201201162053 METAR KBFI 162053Z 16010KT 9SM BKN013 OVC019 01/M01 A3007 RMK AO2 SNB1954E11 SLP181 P0000 60000 T00111006 58019 $=
201201161953 METAR KBFI 161953Z 18012G17KT 7SM BKN015 OVC035 01/M01 A3010 RMK AO2 SNB29E39 SLP191 P0000 T00111011 $=
201201161853 METAR KBFI 161853Z 17007KT 9SM SCT010 BKN015 OVC040 01/M01 A3012 RMK AO2 SNB36E50 SLP198 P0000 T00061011 $=
201201161753 METAR KBFI 161753Z 12006KT 10SM OVC019 00/M03 A3012 RMK AO2 SLP200 60000 T00001033 10000 21028 55002 $=
201201161653 METAR KBFI 161653Z 14008KT 10SM BKN020 OVC028 M01/M03 A3012 RMK AO2 SLP198 T10111028 $=
201201161553 METAR KBFI 161553Z 14006KT 10SM BKN017 OVC035 M01/M03 A3013 RMK AO2 SLP202 T10111028=
201201161453 METAR KBFI 161453Z 14006KT 10SM OVC015 M01/M03 A3013 RMK AO2 SLP202 60000 T10111028 53000=
201201161353 METAR KBFI 161353Z 12006KT 9SM SCT017 BKN027 BKN032 M02/M02 A3013 RMK AO2 SLP202 T10171022=
201201161253 METAR KBFI 161253Z 14008KT 7SM FEW008 SCT038 BKN055 M02/M03 A3011 RMK AO2 SNE05 SLP196 P0000 T10221028 $=
201201161234 SPECI KBFI 161234Z 14007KT 8SM FEW018 BKN050 OVC060 M02/M02 A3012 RMK AO2 SNE05 P0000=
201201161234 SPECI KBFI 161234Z 14007KT 8SM FEW018 BKN050 OVC060 M02/M02 A3012 RMK AO2 SNE05 P0000=
201201161153 METAR KBFI 161153Z 14008KT 5SM -SN BR BKN018 BKN026 OVC034 M01/M02 A3013 RMK AO2 SNB49 SLP201 P0001 60001 70024 T10111022 11011 21039 58001=
201201161053 METAR KBFI 161053Z 15007KT 7SM BKN020 BKN027 OVC060 M02/M02 A3013 RMK AO2 SLP203 T10171022=
201201160953 METAR KBFI 160953Z 15007KT 6SM BR BKN022 BKN028 OVC065 M02/M02 A3013 RMK AO2 SLP202 T10171022=
201201160853 METAR KBFI 160853Z 14006KT 6SM BR FEW021 SCT049 OVC060 M02/M02 A3012 RMK AO2 SLP199 T10221022 51011=
201201160753 METAR KBFI 160753Z 14004KT 6SM BR BKN030 BKN065 M02/M03 A3012 RMK AO2 SLP198 T10221028 400281039=
201201160704 SPECI KBFI 160704Z 12004KT 4SM BR SCT001 BKN030 OVC065 M02/M03 A3011 RMK AO2=
201201160704 SPECI KBFI 160704Z 12004KT 4SM BR SCT001 BKN030 OVC065 M02/M03 A3011 RMK AO2=
201201160653 METAR KBFI 160653Z 15003KT 1/2SM FZFG BKN001 OVC028 M03/M03 A3011 RMK AO2 SLP196 T10331033=
201201160615 SPECI KBFI 160615Z 13006KT 1/2SM FZFG VV001 M03/M03 A3009 RMK AO2=
201201160615 SPECI KBFI 160615Z 13006KT 1/2SM FZFG VV001 M03/M03 A3009 RMK AO2=
201201160553 METAR KBFI 160553Z 14005KT 1/2SM FZFG VV002 M03/M04 A3009 RMK AO2 SLP188 60000 T10331044 10006 21039 53017=
201201160543 SPECI KBFI 160543Z 13003KT 1SM BR VV002 M04/M04 A3008 RMK AO2=
201201160543 SPECI KBFI 160543Z 13003KT 1SM BR VV002 M04/M04 A3008 RMK AO2=
201201160453 METAR KBFI 160453Z 00000KT 9SM FEW015 M02/M03 A3007 RMK AO2 SLP181 T10221033 $=
201201160353 METAR KBFI 160353Z 00000KT 10SM SCT015 M01/M02 A3005 RMK AO2 SLP176 T10061017=
201201160253 METAR KBFI 160253Z 00000KT 10SM FEW010 00/M01 A3004 RMK AO2 SLP171 60000 T00001011 51011=
201201160200 SPECI KBFI 160200Z 00000KT 10SM FEW018 BKN060 OVC075 00/M01 A3003 RMK AO2=
201201160200 SPECI KBFI 160200Z 00000KT 10SM FEW018 BKN060 OVC075 00/M01 A3003 RMK AO2=
201201160153 METAR KBFI 160153Z 00000KT 10SM FEW018 BKN023 OVC040 00/M01 A3003 RMK AO2 SNE0054 SLP168 T00001006=
201201160053 METAR KBFI 160053Z 00000KT 8SM -SN FEW015 BKN023 OVC040 01/00 A3002 RMK AO2 SNB45 SLP164 P0000 T00060000=
201201160029 SPECI KBFI 160029Z 00000KT 10SM SCT011 BKN023 OVC036 01/00 A3002 RMK AO2=
201201160029 SPECI KBFI 160029Z 00000KT 10SM SCT011 BKN023 OVC036 01/00 A3002 RMK AO2=
201201152353 METAR KBFI 152353Z 00000KT 10SM FEW006 SCT018 BKN032 01/M01 A3001 RMK AO2 SNE09 SLP160 P0000 60020 T00061006 10028 20000 53004=
201201152317 SPECI KBFI 152317Z 00000KT 4SM BR SCT006 BKN030 OVC060 01/M01 A3000 RMK AO2 SNE09 P0000=
201201152317 SPECI KBFI 152317Z 00000KT 4SM BR SCT006 BKN030 OVC060 01/M01 A3000 RMK AO2 SNE09 P0000=
201201152259 SPECI KBFI 152259Z 00000KT 1SM -SN BR BKN016 OVC036 00/M01 A3000 RMK AO2 P0000=
201201152259 SPECI KBFI 152259Z 00000KT 1SM -SN BR BKN016 OVC036 00/M01 A3000 RMK AO2 P0000=
201201152253 METAR KBFI 152253Z 07003KT 3/4SM -SN BR VV009 00/M01 A3000 RMK AO2 SLP158 P0004 T00001006=
201201152234 SPECI KBFI 152234Z 00000KT 1/2SM SN FG VV008 00/M01 A3000 RMK AO2 P0003=
201201152234 SPECI KBFI 152234Z 00000KT 1/2SM SN FG VV008 00/M01 A3000 RMK AO2 P0003=
201201152221 SPECI KBFI 152221Z 00000KT 1/2SM SN FG VV014 00/00 A3000 RMK AO2 P0001=
201201152221 SPECI KBFI 152221Z 00000KT 1/2SM SN FG VV014 00/00 A3000 RMK AO2 P0001=
201201152205 SPECI KBFI 152205Z 00000KT 1SM -SN BR VV015 00/00 A2999 RMK AO2 P0000=
201201152205 SPECI KBFI 152205Z 00000KT 1SM -SN BR VV015 00/00 A2999 RMK AO2 P0000=
201201152202 SPECI KBFI 152202Z 00000KT 1SM -SN BR VV013 00/00 A2999 RMK AO2 P0000=
201201152202 SPECI KBFI 152202Z 00000KT 1SM -SN BR VV013 00/00 A2999 RMK AO2 P0000=
201201152200 SPECI KBFI 152200Z 00000KT 1/2SM -SN FG VV011 00/00 A2999 RMK AO2 P0000=
201201152200 SPECI KBFI 152200Z 00000KT 1/2SM -SN FG VV011 00/00 A2999 RMK AO2 P0000=
201201152153 METAR KBFI 152153Z 34003KT 1/4SM SN FG VV005 00/00 A2999 RMK AO2 SLP155 P0012 T00000000=
201201152108 SPECI KBFI 152108Z 00000KT 3/4SM -SN BR VV007 00/00 A2999 RMK AO2 P0002=
201201152108 SPECI KBFI 152108Z 00000KT 3/4SM -SN BR VV007 00/00 A2999 RMK AO2 P0002=
201201152100 SPECI KBFI 152100Z 00000KT 1 1/4SM -SN BR OVC006 01/00 A2999 RMK AO2 P0001=
201201152100 SPECI KBFI 152100Z 00000KT 1 1/4SM -SN BR OVC006 01/00 A2999 RMK AO2 P0001=
201201152053 METAR KBFI 152053Z 00000KT 3SM -SN BR BKN006 OVC010 01/00 A2999 RMK AO2 SNB40 SLP156 P0002 60004 T00060000 58006=
201201151953 METAR KBFI 151953Z 12006KT 4SM BR BKN008 BKN019 OVC060 02/01 A3000 RMK AO2 SNE27 SLP158 P0000 T00220006=
201201151900 SPECI KBFI 151900Z 14005KT 3SM -SN BR OVC008 01/00 A3001 RMK AO2 P0000=
201201151900 SPECI KBFI 151900Z 14005KT 3SM -SN BR OVC008 01/00 A3001 RMK AO2 P0000=
201201151853 METAR KBFI 151853Z 00000KT 1 3/4SM -SN BR OVC011 01/00 A3001 RMK AO2 SLP163 P0002 T00060000=
201201151756 SPECI KBFI 151756Z 14007KT 1 3/4SM -SN BR OVC011 01/M01 A3001 RMK AO2 P0000=
201201151756 SPECI KBFI 151756Z 14007KT 1 3/4SM -SN BR OVC011 01/M01 A3001 RMK AO2 P0000=
201201151753 METAR KBFI 151753Z 14008KT 3SM -SN BR OVC008 01/M01 A3001 RMK AO2 SLP162 P0000 60003 T00061006 10011 20000 53004=
201201151653 METAR KBFI 151653Z 15003KT 4SM -SN BR OVC010 01/M01 A3000 RMK AO2 SNB13 SLP158 P0003 T00061006=
201201151632 SPECI KBFI 151632Z 14006KT 5SM -SN BR BKN013 OVC020 01/M01 A3000 RMK AO2 SNB13 P0000=
201201151632 SPECI KBFI 151632Z 14006KT 5SM -SN BR BKN013 OVC020 01/M01 A3000 RMK AO2 SNB13 P0000=
201201151553 METAR KBFI 151553Z 14006KT 7SM BKN015 BKN020 OVC045 01/M02 A2999 RMK AO2 SNB04E16 SLP155 P0000 T00061017=
201201151453 METAR KBFI 151453Z 14006KT 10SM BKN015 OVC021 01/M01 A3000 RMK AO2 SNB13E22 SLP157 P0000 60000 T00061011 58006=
201201151353 METAR KBFI 151353Z 15007KT 10SM OVC017 01/M02 A3000 RMK AO2 SLP159 T00061017=
201201151301 SPECI KBFI 151301Z 14006KT 10SM OVC015 01/M02 A3001 RMK AO2=
201201151301 SPECI KBFI 151301Z 14006KT 10SM OVC015 01/M02 A3001 RMK AO2=
201201151253 METAR KBFI 151253Z 15004KT 10SM OVC013 01/M02 A3001 RMK AO2 SLP162 T00061017=
201201151239 SPECI KBFI 151239Z 14004KT 10SM OVC013 01/M01 A3001 RMK AO2=
201201151239 SPECI KBFI 151239Z 14004KT 10SM OVC013 01/M01 A3001 RMK AO2=
201201151153 METAR KBFI 151153Z 15006KT 10SM OVC015 01/M02 A3001 RMK AO2 SLP163 70013 T00111017 10022 20006 53002=
201201151053 METAR KBFI 151053Z 16007KT 10SM SCT018 BKN025 OVC030 01/M01 A3001 RMK AO2 SLP161 T00111011=
201201150953 METAR KBFI 150953Z 18005KT 10SM BKN022 OVC029 01/M02 A3001 RMK AO2 SLP160 T00111017=
201201150853 METAR KBFI 150853Z 16005KT 10SM OVC020 02/M02 A3001 RMK AO2 SLP160 T00171017 53001=
201201150753 METAR KBFI 150753Z 19005KT 10SM BKN022 OVC028 02/M02 A3000 RMK AO2 SLP159 T00171017 400560017=
201201150653 METAR KBFI 150653Z 19006KT 10SM BKN020 02/M02 A2999 RMK AO2 SLP156 T00221017=
201201150553 METAR KBFI 150553Z COR 18010G16KT 10SM OVC019 02/M01 A3000 RMK AO2 SLP160 T00221011 10033 20017 53004=
201201150453 METAR KBFI 150453Z 18009G17KT 10SM BKN028 BKN120 02/M02 A2999 RMK AO2 SLP155 T00221022=
201201150404 SPECI KBFI 150404Z 18007KT 10SM SCT025 OVC100 02/M02 A3000 RMK AO2=
201201150404 SPECI KBFI 150404Z 18007KT 10SM SCT025 OVC100 02/M02 A3000 RMK AO2=
201201150353 METAR KBFI 150353Z 18008KT 10SM FEW022 BKN028 OVC100 02/M02 A3000 RMK AO2 SLP157 T00221022=
201201150253 METAR KBFI 150253Z 18008KT 10SM BKN020 02/M01 A2999 RMK AO2 SLP155 T00221011 51011=
201201150251 SPECI KBFI 150251Z VRB05KT 10SM BKN020 02/M01 A2999 RMK AO2=
201201150251 SPECI KBFI 150251Z VRB05KT 10SM BKN020 02/M01 A2999 RMK AO2=
201201150153 METAR KBFI 150153Z 00000KT 10SM FEW021 02/M01 A2996 RMK AO2 SLP146 T00221011=
201201150053 METAR KBFI 150053Z VRB04G14KT 10SM FEW120 03/M02 A2996 RMK AO2 SLP145 T00281017=
201201142353 METAR KBFI 142353Z 20010G22KT 10SM FEW110 03/M02 A2994 RMK AO2 SLP139 60007 T00331017 10056 20033 53002=
201201142253 METAR KBFI 142253Z 23009G18KT 10SM FEW027 04/M01 A2993 RMK AO2 SLP134 T00441011=
201201142207 SPECI KBFI 142207Z 20008G18KT 10SM SCT024 BKN100 05/01 A2992 RMK AO2=
201201142207 SPECI KBFI 142207Z 20008G18KT 10SM SCT024 BKN100 05/01 A2992 RMK AO2=
201201142153 METAR KBFI 142153Z 20012G18KT 10SM OVC018 06/01 A2993 RMK AO2 SLP134 T00560006=
201201142053 METAR KBFI 142053Z 23005KT 10SM OVC018 04/02 A2994 RMK AO2 SLP137 60007 T00440017 53011=
201201142031 SPECI KBFI 142031Z 19006KT 10SM BKN016 OVC022 04/02 A2993 RMK AO2=
201201142031 SPECI KBFI 142031Z 19006KT 10SM BKN016 OVC022 04/02 A2993 RMK AO2=
201201141953 METAR KBFI 141953Z 21006G16KT 10SM OVC014 04/03 A2991 RMK AO2 RAE25 SLP128 P0001 T00440028=
201201141924 SPECI KBFI 141924Z 20007G18KT 10SM -RA BKN012 OVC015 05/03 A2990 RMK AO2 P0001=
201201141924 SPECI KBFI 141924Z 20007G18KT 10SM -RA BKN012 OVC015 05/03 A2990 RMK AO2 P0001=
201201141853 METAR KBFI 141853Z 20013G19KT 3SM -RA BR BKN008 OVC010 05/03 A2991 RMK AO2 SLP127 P0006 T00500033=
201201141817 SPECI KBFI 141817Z 19007KT 3SM -RA BR BKN008 OVC010 05/04 A2991 RMK AO2 P0003=
201201141817 SPECI KBFI 141817Z 19007KT 3SM -RA BR BKN008 OVC010 05/04 A2991 RMK AO2 P0003=
201201141753 METAR KBFI 141753Z 17008G14KT 3SM -RA BR SCT008 BKN010 OVC022 05/04 A2990 RMK AO2 RAB51 SLP125 P0000 60006 T00500039 10050 20022 56015=
201201141704 SPECI KBFI 141704Z 17012G17KT 8SM SCT008 BKN013 BKN022 04/03 A2990 RMK AO2=
201201141704 SPECI KBFI 141704Z 17012G17KT 8SM SCT008 BKN013 BKN022 04/03 A2990 RMK AO2=
201201141653 METAR KBFI 141653Z COR 17014G22KT 8SM SCT008 BKN013 BKN022 04/03 A2991 RMK AO2 RAE47 SLP127 P0000 T00440028=
201201141648 SPECI KBFI 141648Z 17017G22KT 10SM SCT008 BKN060 OVC085 04/03 A2991 RMK AO2 RAE47 P0000=
201201141648 SPECI KBFI 141648Z 17017G22KT 10SM SCT008 BKN060 OVC085 04/03 A2991 RMK AO2 RAE47 P0000=
201201141553 METAR KBFI 141553Z 16013KT 5SM -RA BR SCT012 BKN016 OVC033 04/03 A2992 RMK AO2 SLP132 P0002 T00390028=
201201141453 METAR KBFI 141453Z 14010KT 8SM -RA OVC018 03/01 A2995 RMK AO2 SLP140 P0000 60004 T00280011 56017=
201201141353 METAR KBFI 141353Z 15006KT 7SM -RA OVC020 03/01 A2997 RMK AO2 SLP147 P0003 T00280011=
201201141316 SPECI KBFI 141316Z 14007KT 9SM -RA SCT018 BKN022 OVC040 03/01 A2997 RMK AO2 P0000=
201201141316 SPECI KBFI 141316Z 14007KT 9SM -RA SCT018 BKN022 OVC040 03/01 A2997 RMK AO2 P0000=
201201141253 METAR KBFI 141253Z 15004KT 10SM -RA OVC040 03/01 A2997 RMK AO2 RAB15UPB36E39 SLP148 P0001 T00330011=
201201141153 METAR KBFI 141153Z 14003KT 10SM FEW020 OVC046 03/M01 A3000 RMK AO2 SLP157 T00281006 10033 20028 56013=
201201141053 METAR KBFI 141053Z 00000KT 10SM OVC044 03/M01 A3000 RMK AO2 SLP159 T00281011=
201201140953 METAR KBFI 140953Z AUTO 00000KT 10SM OVC042 03/M01 A3002 RMK AO2 SLP165 T00331006 TSNO=
201201140853 METAR KBFI 140853Z AUTO 00000KT 10SM OVC044 03/M01 A3003 RMK AO2 SLP170 T00281011 58016 TSNO=
201201140753 METAR KBFI 140753Z AUTO 00000KT 10SM OVC046 03/M01 A3006 RMK AO2 SLP177 T00281006 400501039 TSNO=
201201140653 METAR KBFI 140653Z AUTO 14003KT 10SM OVC050 03/M01 A3007 RMK AO2 SLP181 T00281011 TSNO=
201201140553 METAR KBFI 140553Z 14006KT 10SM OVC050 03/M01 A3008 RMK AO2 SLP186 T00281006 10050 20017 56013=
201201140453 METAR KBFI 140453Z 15005KT 10SM CLR 02/00 A3008 RMK AO2 SLP187 T00170000=
201201140353 METAR KBFI 140353Z 00000KT 10SM CLR 03/00 A3010 RMK AO2 SLP191 T00280000=
201201140253 METAR KBFI 140253Z VRB04KT 10SM CLR 04/01 A3012 RMK AO2 SLP199 T00390006 58014=
201201140153 METAR KBFI 140153Z 00000KT 10SM CLR 04/00 A3013 RMK AO2 SLP202 T00390000=
201201140053 METAR KBFI 140053Z 00000KT 10SM CLR 04/00 A3016 RMK AO2 SLP214 T00390000=
201201132353 METAR KBFI 132353Z 00000KT 10SM CLR 05/00 A3016 RMK AO2 SLP213 T00500000 10050 21006 56026=
201201132253 METAR KBFI 132253Z 00000KT 10SM CLR 04/00 A3020 RMK AO2 SLP224 T00440000=
201201132153 METAR KBFI 132153Z 00000KT 10SM CLR 05/00 A3020 RMK AO2 SLP226 T00500000=
201201132053 METAR KBFI 132053Z 00000KT 10SM CLR 04/M01 A3024 RMK AO2 SLP239 T00441006 58025=
201201131953 METAR KBFI 131953Z 33003KT 10SM BKN180 03/M01 A3027 RMK AO2 SLP248 T00331006=
201201131853 METAR KBFI 131853Z 00000KT 10SM CLR 02/M01 A3030 RMK AO2 SLP260 T00221006=
201201131753 METAR KBFI 131753Z 15004KT 10SM CLR M01/M02 A3031 RMK AO2 SLP263 T10061017 11006 21039 58001=
201201131653 METAR KBFI 131653Z 00000KT 10SM CLR M02/M03 A3032 RMK AO2 SLP266 T10171028=
201201131553 METAR KBFI 131553Z 14003KT 10SM SCT200 M03/M04 A3032 RMK AO2 SLP268 T10281039=
201201131453 METAR KBFI 131453Z 00000KT 10SM CLR M02/M03 A3031 RMK AO2 SLP264 T10171033 58003=
201201131353 METAR KBFI 131353Z VRB04KT 10SM CLR M01/M03 A3032 RMK AO2 SLP268 T10061028=
201201131253 METAR KBFI 131253Z 00000KT 10SM CLR M02/M03 A3033 RMK AO2 SLP268 T10171028=
201201131153 METAR KBFI 131153Z 00000KT 10SM CLR M02/M04 A3032 RMK AO2 SLP267 T10221039 10033 21028 53001=
201201131053 METAR KBFI 131053Z 00000KT 10SM CLR M02/M03 A3031 RMK AO2 SLP264 T10221033=
201201130953 METAR KBFI 130953Z 00000KT 10SM CLR M02/M03 A3031 RMK AO2 SLP264 T10171028=
201201130853 METAR KBFI 130853Z 15004KT 10SM CLR M01/M03 A3032 RMK AO2 SLP266 T10111028 58001=
201201130753 METAR KBFI 130753Z 00000KT 10SM CLR 01/M02 A3033 RMK AO2 SLP271 T00061022 400671033=
201201130653 METAR KBFI 130653Z 00000KT 10SM CLR 02/M02 A3033 RMK AO2 SLP269 T00171022=
201201130553 METAR KBFI 130553Z 00000KT 10SM CLR 03/M01 A3032 RMK AO2 SLP267 T00331011 10061 20022 53001=
201201130453 METAR KBFI 130453Z 00000KT 10SM CLR 04/M01 A3030 RMK AO2 SLP260 T00441011=
201201130353 METAR KBFI 130353Z 00000KT 10SM CLR 04/M01 A3032 RMK AO2 SLP267 T00441011=
201201130253 METAR KBFI 130253Z 34003KT 10SM CLR 06/M02 A3032 RMK AO2 SLP266 T00561022 53002=
201201130153 METAR KBFI 130153Z 00000KT 10SM CLR 05/M04 A3030 RMK AO2 SLP260 T00501039=
201201130053 METAR KBFI 130053Z 00000KT 10SM CLR 06/M03 A3031 RMK AO2 SLP262 T00561028=
201201122353 METAR KBFI 122353Z 00000KT 10SM CLR 06/M03 A3031 RMK AO2 SLP264 T00611028 10067 20017 53003=
201201122253 METAR KBFI 122253Z 00000KT 10SM CLR 07/M03 A3030 RMK AO2 SLP260 T00671028=
201201122153 SPECI KBFI 122153Z AUTO 32003KT 10SM BKN250 07/M05 A3030 RMK AO2 SLP261 T00671050 TSNO=
201201122053 METAR KBFI 122053Z 00000KT 10SM SCT180 BKN250 06/M03 A3030 RMK AO2 SLP260 T00561028 58014=
201201121953 METAR KBFI 121953Z COR 00000KT 10SM SCT160 BKN200 04/M01 A3033 RMK AO2 SLP269 T00441011=
201201121853 METAR KBFI 121853Z 00000KT 10SM BKN200 03/M02 A3034 RMK AO2 SLP273 T00281022 $=
201201121753 METAR KBFI 121753Z 00000KT 10SM CLR 02/M02 A3034 RMK AO2 SLP274 T00171017 10017 21017 58007 $=
201201121653 METAR KBFI 121653Z COR 00000KT 10SM BKN170 OVC200 00/M03 A3035 RMK AO2 SLP278 T00001028 $=
201201121553 METAR KBFI 121553Z 00000KT 10SM SCT180 00/M03 A3036 RMK AO2 SLP280 T00001033 $=
201201121453 METAR KBFI 121453Z 00000KT 10SM CLR M01/M03 A3036 RMK AO2 SLP281 T10061033 50001 $=
201201121353 METAR KBFI 121353Z 00000KT 10SM CLR M01/M04 A3037 RMK AO2 SLP282 T10061039 $=
201201121253 METAR KBFI 121253Z 35003KT 10SM CLR M01/M04 A3037 RMK AO2 SLP282 T10061039 $=
201201121153 METAR KBFI 121153Z 00000KT 10SM CLR M01/M04 A3036 RMK AO2 SLP281 T10111044 10017 21033 58010 $=
201201121053 METAR KBFI 121053Z 22004KT 10SM CLR M01/M04 A3039 RMK AO2 SLP290 T10111044 $=
201201120953 METAR KBFI 120953Z 00000KT 10SM CLR 01/M04 A3041 RMK AO2 SLP295 T00061039 $=
201201120853 METAR KBFI 120853Z 15005KT 10SM CLR M03/M04 A3039 RMK AO2 SLP291 T10281044 55007=
201201120753 METAR KBFI 120753Z 00000KT 10SM CLR M03/M05 A3038 RMK AO2 PRESFR SLP288 T10281050 400721028=
201201120653 METAR KBFI 120653Z 00000KT 10SM CLR 01/M03 A3041 RMK AO2 SLP296 T00061033=
201201120553 METAR KBFI 120553Z 00000KT 10SM CLR 02/M04 A3041 RMK AO2 SLP298 T00171044 10067 20017 53003=
201201120453 METAR KBFI 120453Z 32003KT 10SM CLR 02/M04 A3041 RMK AO2 SLP295 T00221039=
201201120353 METAR KBFI 120353Z 35003KT 10SM CLR 02/M03 A3041 RMK AO2 SLP295 T00221028=
201201120253 METAR KBFI 120253Z 00000KT 10SM CLR 03/M03 A3040 RMK AO2 SLP295 T00331028 58007=
201201120153 METAR KBFI 120153Z 33004KT 10SM CLR 04/M03 A3042 RMK AO2 SLP301 T00391033=
201201120053 METAR KBFI 120053Z 34004KT 10SM CLR 04/M04 A3042 RMK AO2 SLP301 T00441039=
201201112353 METAR KBFI 112353Z 36004KT 10SM FEW200 06/M04 A3042 RMK AO2 SLP302 T00611044 10072 20033 56006=
201201112253 METAR KBFI 112253Z VRB03KT 10SM CLR 07/M04 A3043 RMK AO2 SLP302 T00721039=
201201112153 METAR KBFI 112153Z 03006KT 10SM CLR 07/M04 A3042 RMK AO2 SLP299 T00671039=
201201112053 METAR KBFI 112053Z 34005KT 10SM SCT200 06/M03 A3044 RMK AO2 SLP308 T00611033 58020=
201201111953 METAR KBFI 111953Z 34005KT 10SM BKN200 05/M04 A3046 RMK AO2 SLP314 T00501039=
201201111853 METAR KBFI 111853Z COR 36006KT 10SM 180 04/M04 A3049 RMK AO2 SLP323 T00441039=
201201111753 METAR KBFI 111753Z 36006KT 10SM OVC200 03/M04 A3050 RMK AO2 SLP328 T00331039 10033 21011 58005=
201201111653 METAR KBFI 111653Z 01005KT 10SM CLR 02/M03 A3051 RMK AO2 SLP331 T00221033=
201201111553 METAR KBFI 111553Z 32004KT 10SM BKN200 02/M02 A3051 RMK AO2 SLP332 T00171022=
201201111453 METAR KBFI 111453Z 04005KT 10SM CLR 01/M02 A3052 RMK AO2 SLP333 T00111022 53000=
201201111353 METAR KBFI 111353Z 00000KT 10SM CLR M01/M03 A3052 RMK AO2 SLP333 T10111028=
201201111253 METAR KBFI 111253Z 30004KT 10SM CLR 01/M01 A3051 RMK AO2 SLP330 T00061011=
201201111153 METAR KBFI 111153Z 00000KT 10SM CLR 00/M01 A3051 RMK AO2 SLP332 70005 T00001011 10033 21011 58004=
201201111053 METAR KBFI 111053Z 00000KT 10SM CLR 00/M01 A3053 RMK AO2 SLP336 T00001011=
201201110953 METAR KBFI 110953Z 00000KT 10SM CLR 02/M01 A3053 RMK AO2 SLP336 T00171011=
201201110853 METAR KBFI 110853Z 00000KT 10SM CLR 03/M01 A3053 RMK AO2 SLP337 T00281011 53001=
201201110753 METAR KBFI 110753Z 35006KT 10SM CLR 03/M01 A3053 RMK AO2 SLP337 T00331011 400720017=
201201110653 METAR KBFI 110653Z 34005KT 10SM CLR 02/M01 A3052 RMK AO2 SLP333 T00171006=
201201110553 METAR KBFI 110553Z 00000KT 10SM CLR 02/00 A3053 RMK AO2 SLP336 T00170000 10061 20017 50000=
201201110453 METAR KBFI 110453Z 03003KT 10SM CLR 03/00 A3053 RMK AO2 SLP338 T00330000=
201201110353 METAR KBFI 110353Z 04003KT 10SM CLR 03/00 A3054 RMK AO2 SLP341 T00330000=
201201110253 METAR KBFI 110253Z 01003KT 10SM CLR 04/M01 A3053 RMK AO2 SLP336 T00441006 53003=
201201110153 METAR KBFI 110153Z 36003KT 10SM CLR 05/M01 A3052 RMK AO2 SLP334 T00501011=
201201110053 METAR KBFI 110053Z 35003KT 10SM FEW040 05/M02 A3052 RMK AO2 SLP333 T00501017=
201201102353 METAR KBFI 102353Z 32003KT 10SM SCT040 06/M01 A3052 RMK AO2 SLP333 T00611011 10072 20050 51006=
201201102253 METAR KBFI 102253Z 34004KT 10SM BKN048 07/M01 A3052 RMK AO2 SLP332 T00671011=
201201102153 METAR KBFI 102153Z 32006KT 10SM BKN050 07/M01 A3051 RMK AO2 SLP329 T00671011=
201201102053 METAR KBFI 102053Z 32005KT 10SM OVC050 06/M02 A3050 RMK AO2 SLP327 T00611017 51009=
201201101953 METAR KBFI 101953Z VRB03KT 10SM BKN050 06/M02 A3049 RMK AO2 SLP326 T00611017=
201201101853 METAR KBFI 101853Z 31004KT 10SM OVC047 06/M01 A3049 RMK AO2 SLP325 T00561006=
201201101753 METAR KBFI 101753Z 31004KT 10SM OVC045 05/01 A3047 RMK AO2 SLP318 60005 T00500006 10056 20033 51021=
201201101653 METAR KBFI 101653Z 00000KT 10SM BKN036 OVC045 04/01 A3045 RMK AO2 RAE31 SLP310 P0001 T00390011=
201201101645 SPECI KBFI 101645Z 00000KT 10SM SCT025 OVC034 03/01 A3045 RMK AO2 RAE31 P0001=
201201101645 SPECI KBFI 101645Z 00000KT 10SM SCT025 OVC034 03/01 A3045 RMK AO2 RAE31 P0001=
201201101553 METAR KBFI 101553Z 02006KT 10SM -RA OVC025 04/01 A3043 RMK AO2 SLP305 P0004 T00390006=
201201101453 METAR KBFI 101453Z 00000KT 9SM -RA OVC025 05/01 A3041 RMK AO2 RAB46 SLP297 P0000 60000 T00500011 53016=
201201101353 METAR KBFI 101353Z 00000KT 10SM BKN025 BKN042 06/02 A3039 RMK AO2 SLP289 T00560017=
201201101253 METAR KBFI 101253Z 36003KT 10SM FEW030 BKN042 06/01 A3037 RMK AO2 SLP283 T00560006=
201201101153 METAR KBFI 101153Z 35004KT 10SM FEW038 05/00 A3036 RMK AO2 SLP281 60001 70018 T00500000 10067 20050 51021=
201201101053 METAR KBFI 101053Z 00000KT 10SM OVC038 06/02 A3035 RMK AO2 RAB19E43 SLP276 P0001 T00610017=
201201100953 METAR KBFI 100953Z AUTO 36003KT 10SM OVC048 06/01 A3032 RMK AO2 SLP267 T00610011=
201201100853 METAR KBFI 100853Z 00000KT 10SM BKN060 BKN075 BKN085 06/02 A3030 RMK AO2 SLP260 60000 T00610017 53015=
201201100753 METAR KBFI 100753Z 00000KT 10SM SCT075 BKN090 06/03 A3029 RMK AO2 SLP257 T00610028 401000056=
201201100653 METAR KBFI 100653Z 00000KT 10SM OVC060 06/04 A3027 RMK AO2 RAE01 SLP249 P0000 T00610044=
201201100553 METAR KBFI 100553Z 16003KT 10SM -RA OVC047 06/04 A3026 RMK AO2 SLP245 P0003 60017 T00610044 10089 20056 50008=
201201100453 METAR KBFI 100453Z 00000KT 6SM -RA BR BKN034 OVC045 07/04 A3026 RMK AO2 SLP247 P0009 T00670044=
201201100353 METAR KBFI 100353Z 02004KT 7SM -RA FEW019 OVC034 07/05 A3026 RMK AO2 SLP245 P0005 T00720050=
201201100253 METAR KBFI 100253Z 02005KT 10SM -RA OVC030 08/04 A3024 RMK AO2 RAB49 SLP238 P0000 60000 T00830044 50004=
201201100235 SPECI KBFI 100235Z 00000KT 10SM OVC030 08/04 A3024 RMK AO2=
201201100235 SPECI KBFI 100235Z 00000KT 10SM OVC030 08/04 A3024 RMK AO2=
201201100153 METAR KBFI 100153Z 00000KT 10SM SCT012 OVC024 08/05 A3025 RMK AO2 SLP242 T00830050=
201201100053 METAR KBFI 100053Z VRB03KT 10SM SCT010 OVC020 08/05 A3023 RMK AO2 SLP236 T00830050=
201201092353 METAR KBFI 092353Z 34005KT 10SM SCT010 OVC018 09/06 A3022 RMK AO2 SLP234 T00890061 10100 20089 55010=
201201092253 METAR KBFI 092253Z 23003KT 10SM OVC020 09/06 A3022 RMK AO2 SLP234 T00940061=
201201092153 METAR KBFI 092153Z VRB04KT 10SM BKN020 OVC032 09/06 A3023 RMK AO2 SLP235 T00940061=
201201092053 METAR KBFI 092053Z 25005KT 10SM OVC015 09/07 A3025 RMK AO2 SLP244 T00940067 58006=
201201091953 METAR KBFI 091953Z 17003KT 10SM BKN019 OVC025 10/06 A3026 RMK AO2 SLP247 T01000061=
201201091853 METAR KBFI 091853Z 13005KT 10SM OVC021 10/06 A3028 RMK AO2 SLP252 T01000061=
201201091753 METAR KBFI 091753Z 16009KT 10SM OVC021 09/06 A3027 RMK AO2 SLP250 60000 T00890061 10094 20072 53005=
201201091653 METAR KBFI 091653Z 17014G21KT 10SM BKN025 09/04 A3026 RMK AO2 SLP247 T00940044=
201201091557 SPECI KBFI 091557Z 12005KT 10SM BKN027 OVC060 09/03 A3025 RMK AO2=
201201091557 SPECI KBFI 091557Z 12005KT 10SM BKN027 OVC060 09/03 A3025 RMK AO2=
201201091553 METAR KBFI 091553Z 13007KT 10SM SCT029 OVC060 08/04 A3025 RMK AO2 SLP242 T00830039=
201201091453 METAR KBFI 091453Z 15006KT 10SM BKN037 OVC050 08/04 A3026 RMK AO2 SLP245 60000 T00830039 50003=
201201091353 METAR KBFI 091353Z 14005KT 10SM SCT050 OVC060 08/04 A3026 RMK AO2 SLP246 T00780039=
201201091253 METAR KBFI 091253Z 12008KT 10SM FEW075 OVC100 08/04 A3025 RMK AO2 RAB13E28 SLP242 P0000 T00830039=
201201091153 METAR KBFI 091153Z 17006KT 10SM OVC100 08/04 A3025 RMK AO2 SLP242 T00780039 10078 20056 53003=
201201091053 METAR KBFI 091053Z 12005KT 10SM CLR 07/04 A3025 RMK AO2 SLP242 T00720044=
201201090953 METAR KBFI 090953Z 15007KT 10SM BKN110 07/04 A3024 RMK AO2 SLP239 T00670044=
201201090853 METAR KBFI 090853Z 13006KT 10SM SCT090 BKN110 07/04 A3024 RMK AO2 SLP239 T00720044 51004=
201201090753 METAR KBFI 090753Z 16005KT 10SM OVC110 07/04 A3023 RMK AO2 SLP237 T00670044 400940028=
201201090653 METAR KBFI 090653Z 13004KT 10SM OVC100 06/04 A3024 RMK AO2 SLP238 T00610044=
201201090553 METAR KBFI 090553Z 13007KT 10SM CLR 06/04 A3023 RMK AO2 SLP235 T00610039 10094 20050 58008=
201201090453 METAR KBFI 090453Z 15005KT 10SM BKN100 06/04 A3023 RMK AO2 SLP237 T00610044=
201201090353 METAR KBFI 090353Z 00000KT 10SM SCT100 07/04 A3025 RMK AO2 SLP242 T00670044=
201201090253 METAR KBFI 090253Z 00000KT 10SM FEW100 06/04 A3025 RMK AO2 SLP243 T00560039 57006=
201201090153 METAR KBFI 090153Z 00000KT 10SM BKN100 07/04 A3026 RMK AO2 SLP246 T00720044=
201201090053 METAR KBFI 090053Z 00000KT 10SM SCT050 BKN100 08/04 A3026 RMK AO2 SLP246 T00780044=
201201082353 METAR KBFI 082353Z 14004KT 10SM BKN090 09/05 A3027 RMK AO2 SLP250 T00940050 10094 20056 56015=
201201082253 METAR KBFI 082253Z 14007KT 10SM BKN090 09/04 A3028 RMK AO2 SLP253 T00940044=
201201082153 METAR KBFI 082153Z 13009KT 10SM OVC085 09/03 A3029 RMK AO2 SLP257 T00890033=
201201082053 METAR KBFI 082053Z 14010KT 10SM OVC085 08/04 A3031 RMK AO2 SLP265 T00830044 58011=
201201081953 METAR KBFI 081953Z 15006KT 10SM OVC085 07/04 A3033 RMK AO2 SLP269 T00720044=
201201081853 METAR KBFI 081853Z 14006KT 10SM OVC080 07/04 A3035 RMK AO2 SLP277 T00670039=
201201081753 METAR KBFI 081753Z 13004KT 10SM BKN080 06/04 A3035 RMK AO2 SLP275 T00560039 10061 20028 55002=
201201081653 METAR KBFI 081653Z 13005KT 10SM OVC080 05/04 A3034 RMK AO2 SLP274 T00500039=
201201081553 METAR KBFI 081553Z 13004KT 10SM OVC080 04/03 A3035 RMK AO2 SLP275 T00440028=
201201081453 METAR KBFI 081453Z 11005KT 10SM OVC080 05/03 A3035 RMK AO2 SLP278 T00500033 58006=
201201081353 METAR KBFI 081353Z 12005KT 10SM CLR 04/03 A3036 RMK AO2 SLP280 T00390028=
201201081253 METAR KBFI 081253Z 15005KT 10SM FEW050 BKN100 05/03 A3037 RMK AO2 SLP283 T00500033=
201201081209 SPECI KBFI 081209Z 14008KT 10SM BKN029 OVC110 06/04 A3037 RMK AO2=
201201081209 SPECI KBFI 081209Z 14008KT 10SM BKN029 OVC110 06/04 A3037 RMK AO2=
201201081153 METAR KBFI 081153Z 15008KT 10SM FEW029 OVC110 06/04 A3037 RMK AO2 SLP283 T00610039 10067 20056 58004=
201201081125 SPECI KBFI 081125Z 14011KT 10SM BKN029 OVC110 06/04 A3037 RMK AO2=
201201081125 SPECI KBFI 081125Z 14011KT 10SM BKN029 OVC110 06/04 A3037 RMK AO2=
201201081053 METAR KBFI 081053Z 14009KT 10SM OVC031 06/04 A3039 RMK AO2 SLP289 T00610039=
201201080953 METAR KBFI 080953Z 14010KT 10SM OVC110 07/04 A3038 RMK AO2 SLP287 T00670039=
201201080853 METAR KBFI 080853Z 14007KT 10SM OVC035 06/04 A3039 RMK AO2 SLP289 T00610044 58006=
201201080753 METAR KBFI 080753Z 14005KT 10SM OVC100 06/04 A3039 RMK AO2 SLP291 T00560044 400780028=
201201080653 METAR KBFI 080653Z 15007KT 10SM FEW040 SCT050 SCT100 06/04 A3041 RMK AO2 SLP296 T00560039=
201201080553 METAR KBFI 080553Z 13005KT 10SM CLR 06/04 A3040 RMK AO2 SLP295 60000 T00610039 10072 20061 55008=
201201080453 METAR KBFI 080453Z 14007KT 10SM BKN046 07/04 A3040 RMK AO2 SLP294 T00670039=
201201080353 METAR KBFI 080353Z 16005KT 10SM BKN060 07/04 A3041 RMK AO2 RAE13 SLP296 P0000 T00670044=
201201080253 METAR KBFI 080253Z 16007KT 10SM -RA OVC060 07/04 A3043 RMK AO2 RAB43 SLP303 P0000 60000 T00670044 58000=
201201080153 METAR KBFI 080153Z 14006KT 10SM OVC060 07/04 A3044 RMK AO2 SLP306 T00670044=
201201080053 METAR KBFI 080053Z 16006KT 10SM OVC065 07/04 A3043 RMK AO2 SLP303 T00720039=
201201072353 METAR KBFI 072353Z 17008KT 10SM OVC075 07/04 A3043 RMK AO2 SLP303 T00720039 10078 20044 53004=
201201072253 METAR KBFI 072253Z 18004KT 10SM OVC039 08/03 A3042 RMK AO2 SLP300 T00780033=
201201072153 METAR KBFI 072153Z 16003KT 10SM FEW034 OVC075 07/04 A3040 RMK AO2 SLP294 T00720039=
201201072053 METAR KBFI 072053Z 14006KT 10SM FEW034 OVC080 07/03 A3042 RMK AO2 SLP299 T00670033 58016=
201201071953 METAR KBFI 071953Z 14006KT 10SM OVC034 06/04 A3044 RMK AO2 SLP308 T00610039=
201201071949 SPECI KBFI 071949Z 14006KT 10SM OVC034 06/04 A3045 RMK AO2=
201201071949 SPECI KBFI 071949Z 14006KT 10SM OVC034 06/04 A3045 RMK AO2=
201201071853 METAR KBFI 071853Z 13005KT 10SM FEW023 BKN029 OVC035 05/03 A3046 RMK AO2 SLP315 T00500033=
201201071753 METAR KBFI 071753Z 14005KT 10SM OVC019 04/03 A3045 RMK AO2 SLP311 T00440033 10044 20033 53016=
201201071653 METAR KBFI 071653Z 15005KT 10SM OVC017 04/03 A3044 RMK AO2 SLP305 T00390028=
201201071553 METAR KBFI 071553Z 13004KT 9SM OVC017 04/03 A3042 RMK AO2 SLP299 T00390028=
201201071453 METAR KBFI 071453Z 00000KT 10SM OVC017 04/03 A3041 RMK AO2 SLP295 T00390028 53010=
201201071353 METAR KBFI 071353Z 13003KT 10SM OVC017 03/03 A3039 RMK AO2 SLP291 T00330028=
201201071253 METAR KBFI 071253Z 14003KT 10SM OVC021 03/03 A3038 RMK AO2 SLP287 T00330028=
201201071153 METAR KBFI 071153Z 00000KT 10SM OVC021 03/03 A3038 RMK AO2 SLP285 70004 T00330028 10039 20028 53007=
201201071053 METAR KBFI 071053Z 13003KT 10SM OVC023 03/02 A3037 RMK AO2 SLP283 T00330022=
201201070953 METAR KBFI 070953Z 15003KT 10SM OVC025 03/03 A3036 RMK AO2 SLP280 T00330028=
201201070853 METAR KBFI 070853Z 00000KT 10SM BKN025 OVC034 03/02 A3036 RMK AO2 SLP278 T00330022 51005=
201201070851 SPECI KBFI 070851Z 00000KT 10SM BKN025 OVC034 03/02 A3036 RMK AO2=
201201070851 SPECI KBFI 070851Z 00000KT 10SM BKN025 OVC034 03/02 A3036 RMK AO2=
201201070814 SPECI KBFI 070814Z 00000KT 10SM SCT027 BKN032 OVC050 03/02 A3035 RMK AO2=
201201070814 SPECI KBFI 070814Z 00000KT 10SM SCT027 BKN032 OVC050 03/02 A3035 RMK AO2=
201201070753 METAR KBFI 070753Z 00000KT 10SM OVC025 03/02 A3035 RMK AO2 SLP275 T00280017 400500028=
201201070653 METAR KBFI 070653Z 00000KT 10SM FEW038 BKN050 OVC075 03/02 A3034 RMK AO2 SLP274 T00280017=
201201070553 METAR KBFI 070553Z 13004KT 10SM SCT060 OVC080 03/02 A3033 RMK AO2 SLP270 60003 T00330017 10039 20033 51005=
201201070453 METAR KBFI 070453Z 14006KT 10SM FEW014 OVC070 03/02 A3032 RMK AO2 RAE23 SLP268 P0001 T00330022=
201201070353 METAR KBFI 070353Z 15005KT 9SM -RA BKN015 OVC050 03/02 A3033 RMK AO2 RAB0258 SLP268 P0002 T00330022=
201201070253 METAR KBFI 070253Z 16006KT 10SM BKN015 OVC050 04/02 A3032 RMK AO2 SLP265 60000 T00390022 53005=
201201070228 SPECI KBFI 070228Z 14006KT 10SM FEW015 OVC055 03/02 A3031 RMK AO2=
201201070228 SPECI KBFI 070228Z 14006KT 10SM FEW015 OVC055 03/02 A3031 RMK AO2=
201201070153 METAR KBFI 070153Z 15006KT 10SM OVC015 04/02 A3030 RMK AO2 RAB12E16 SLP260 P0000 T00390022=
201201070053 METAR KBFI 070053Z 15005KT 10SM FEW017 OVC041 04/02 A3030 RMK AO2 RAE28 SLP261 P0000 T00390022=
201201062353 METAR KBFI 062353Z 19005KT 9SM -RA SCT013 OVC030 04/02 A3030 RMK AO2 RAB16 SLP260 P0001 60001 T00390017 10050 20039 53003=
201201062253 METAR KBFI 062253Z 19006KT 10SM BKN047 OVC055 04/02 A3029 RMK AO2 RAB04E46 SLP257 P0000 T00440017=
201201062153 METAR KBFI 062153Z 18005KT 10SM OVC055 05/01 A3029 RMK AO2 SLP256 T00500011=
201201062053 METAR KBFI 062053Z 16005KT 10SM SCT015 OVC110 05/02 A3029 RMK AO2 SLP256 T00500017 58008=
201201061953 METAR KBFI 061953Z VRB04KT 10SM SCT015 OVC025 05/02 A3031 RMK AO2 SLP261 T00500017=
201201061900 SPECI KBFI 061900Z 21003KT 10SM BKN015 05/02 A3032 RMK AO2=
201201061900 SPECI KBFI 061900Z 21003KT 10SM BKN015 05/02 A3032 RMK AO2=
201201061853 METAR KBFI 061853Z 19005KT 10SM SCT012 BKN030 04/02 A3032 RMK AO2 SLP267 T00440017=
201201061843 SPECI KBFI 061843Z 19004KT 10SM SCT012 BKN030 05/02 A3032 RMK AO2=
201201061843 SPECI KBFI 061843Z 19004KT 10SM SCT012 BKN030 05/02 A3032 RMK AO2=
201201061753 METAR KBFI 061753Z 00000KT 10SM BKN014 OVC027 04/02 A3032 RMK AO2 SLP265 60000 T00440022 10044 20033 55001=
201201061653 METAR KBFI 061653Z 14005KT 10SM BKN012 OVC025 04/01 A3031 RMK AO2 SLP264 T00390011=
201201061553 METAR KBFI 061553Z 13006KT 10SM BKN012 OVC022 03/01 A3031 RMK AO2 SLP264 T00330011=
201201061453 METAR KBFI 061453Z 14007KT 10SM BKN012 OVC023 03/02 A3032 RMK AO2 SLP266 60000 T00330017 58014=
201201061353 METAR KBFI 061353Z 15005KT 10SM BKN014 OVC024 03/02 A3034 RMK AO2 RAE30 SLP272 P0000 T00330017=
201201061253 METAR KBFI 061253Z 15004KT 9SM -RA OVC014 04/01 A3035 RMK AO2 RAB53 SLP276 P0000 T00390011=
201201061226 SPECI KBFI 061226Z 14004KT 10SM OVC014 04/01 A3035 RMK AO2=
201201061226 SPECI KBFI 061226Z 14004KT 10SM OVC014 04/01 A3035 RMK AO2=
201201061153 METAR KBFI 061153Z 12004KT 10SM SCT018 OVC024 04/01 A3036 RMK AO2 SLP279 70002 T00390011 10039 20022 57004=
201201061053 METAR KBFI 061053Z 14004KT 10SM BKN018 OVC024 04/01 A3036 RMK AO2 SLP281 T00390011=
201201060953 METAR KBFI 060953Z 14006KT 10SM OVC021 04/01 A3036 RMK AO2 SLP280 T00390011=
201201060853 METAR KBFI 060853Z 14006KT 10SM OVC021 03/01 A3037 RMK AO2 SLP283 T00330011 50002=
201201060753 METAR KBFI 060753Z 13006KT 10SM OVC021 03/02 A3038 RMK AO2 SLP286 T00330017 401000022=
201201060653 METAR KBFI 060653Z 15007KT 10SM OVC021 03/01 A3036 RMK AO2 SLP281 T00330011=
201201060633 SPECI KBFI 060633Z 14007KT 10SM BKN021 03/01 A3036 RMK AO2=
201201060633 SPECI KBFI 060633Z 14007KT 10SM BKN021 03/01 A3036 RMK AO2=
201201060553 METAR KBFI 060553Z 14009KT 10SM FEW022 03/01 A3036 RMK AO2 SLP280 T00280011 10078 20028 53001=
201201060453 METAR KBFI 060453Z 14009KT 10SM CLR 03/01 A3036 RMK AO2 SLP279 T00330011=
201201060353 METAR KBFI 060353Z 14005KT 10SM FEW023 04/02 A3036 RMK AO2 SLP280 T00390017=
201201060253 METAR KBFI 060253Z 15006KT 10SM CLR 06/02 A3036 RMK AO2 SLP280 T00610017 51006=
201201060153 METAR KBFI 060153Z 19006KT 10SM CLR 07/02 A3036 RMK AO2 SLP279 T00670022=
201201060053 METAR KBFI 060053Z VRB03KT 10SM CLR 07/03 A3036 RMK AO2 SLP279 T00670028=
201201052353 METAR KBFI 052353Z 19010G18KT 10SM FEW025 08/03 A3034 RMK AO2 SLP274 T00780033 10089 20072 55005=
201201052253 METAR KBFI 052253Z 18013G19KT 10SM FEW023 08/03 A3032 RMK AO2 SLP268 T00780033=
201201052153 METAR KBFI 052153Z 20012G20KT 10SM FEW100 08/03 A3033 RMK AO2 SLP269 T00830033=
201201052053 METAR KBFI 052053Z 20010G19KT 10SM FEW035 SCT070 08/03 A3036 RMK AO2 PK WND 18026/2017 SLP278 T00780033 55003=
201201051953 METAR KBFI 051953Z 19016G22KT 10SM SCT012 SCT036 08/03 A3035 RMK AO2 SLP276 T00830033=
201201051853 METAR KBFI 051853Z 17013G19KT 10SM SCT012 BKN120 08/03 A3037 RMK AO2 SLP282 T00780033=
201201051753 METAR KBFI 051753Z 17011G18KT 10SM SCT012 BKN120 07/03 A3036 RMK AO2 SLP282 60002 T00720033 10083 20067 51032=
201201051653 METAR KBFI 051653Z COR 19008G16KT 10SM SCT020 SCT060 07/03 A3033 RMK AO2 SLP271 T00720028=
201201051553 METAR KBFI 051553Z 19008KT 10SM FEW020 SCT070 07/03 A3030 RMK AO2 SLP261 T00670028=
201201051536 SPECI KBFI 051536Z 18008G17KT 10SM SCT024 BKN050 07/02 A3029 RMK AO2=
201201051536 SPECI KBFI 051536Z 18008G17KT 10SM SCT024 BKN050 07/02 A3029 RMK AO2=
201201051453 METAR KBFI 051453Z 19012G18KT 10SM SCT024 BKN029 OVC065 07/02 A3027 RMK AO2 SLP249 60002 T00670022 51012=
201201051353 METAR KBFI 051353Z 19005G14KT 10SM SCT024 BKN029 OVC065 08/04 A3026 RMK AO2 SLP247 T00780044=
201201051253 METAR KBFI 051253Z 17011KT 10SM BKN026 BKN033 08/04 A3026 RMK AO2 PK WND 19029/1204 RAB1158E20 SLP244 P0002 T00780044=
201201051208 SPECI KBFI 051208Z 21012G29KT 8SM -RA FEW022 BKN030 OVC039 08/04 A3025 RMK AO2 PK WND 19029/1204 RAB1158 P0002=
201201051208 SPECI KBFI 051208Z 21012G29KT 8SM -RA FEW022 BKN030 OVC039 08/04 A3025 RMK AO2 PK WND 19029/1204 RAB1158 P0002=
201201051153 METAR KBFI 051153Z 17011G18KT 10SM BKN028 OVC034 08/05 A3024 RMK AO2 SLP238 60006 70071 T00830050 10100 20078 50013=
201201051150 SPECI KBFI 051150Z 16013G18KT 10SM BKN028 OVC034 08/06 A3024 RMK AO2=
201201051150 SPECI KBFI 051150Z 16013G18KT 10SM BKN028 OVC034 08/06 A3024 RMK AO2=
201201051053 METAR KBFI 051053Z 17012G18KT 10SM FEW032 08/05 A3022 RMK AO2 SLP232 T00830050=
201201050953 METAR KBFI 050953Z 17010KT 10SM FEW020 BKN050 08/06 A3020 RMK AO2 SLP226 T00830056=
201201050853 METAR KBFI 050853Z 18010G16KT 10SM SCT031 BKN038 OVC110 09/06 A3018 RMK AO2 RAB28E50 SLP220 P0006 60006 T00890061 51010=
201201050753 METAR KBFI 050753Z 16011KT 10SM SCT033 BKN042 OVC060 10/07 A3017 RMK AO2 RAB16E45 SLP217 P0000 T01000067 401220044=
201201050653 METAR KBFI 050653Z 17009KT 10SM FEW023 SCT055 09/07 A3017 RMK AO2 SLP216 T00940072=
201201050553 METAR KBFI 050553Z 18007KT 10SM CLR 11/07 A3015 RMK AO2 SLP210 60007 T01060072 10117 20094 53026=
201201050508 SPECI KBFI 050508Z 21008G17KT 160V240 10SM FEW021 SCT027 11/08 A3013 RMK AO2=
201201050508 SPECI KBFI 050508Z 21008G17KT 160V240 10SM FEW021 SCT027 11/08 A3013 RMK AO2=
201201050453 METAR KBFI 050453Z 18008KT 10SM FEW013 SCT021 BKN027 11/09 A3012 RMK AO2 RAE41 SLP199 P0001 T01060089=
201201050353 METAR KBFI 050353Z 18013G20KT 6SM -RA BR FEW016 BKN028 OVC035 11/09 A3008 RMK AO2 SLP184 P0002 T01110094=
201201050253 METAR KBFI 050253Z 17015G22KT 10SM -RA BKN060 OVC080 12/09 A3004 RMK AO2 RAB0158E07B45 SLP171 P0000 60004 T01170089 55006=
201201050153 METAR KBFI 050153Z 16014G24KT 10SM SCT043 BKN050 OVC110 11/09 A3003 RMK AO2 RAE14B34E50 SLP169 P0001 T01110094=
201201050100 SPECI KBFI 050100Z 14014KT 9SM -RA OVC065 10/09 A3003 RMK AO2 P0000=
201201050100 SPECI KBFI 050100Z 14014KT 9SM -RA OVC065 10/09 A3003 RMK AO2 P0000=
201201050053 METAR KBFI 050053Z 15014KT 10SM -RA SCT012 BKN024 OVC055 10/09 A3003 RMK AO2 SLP170 P0003 T01000094=
201201042353 METAR KBFI 042353Z 14014KT 3SM -RA BR SCT012 BKN024 OVC055 09/09 A3005 RMK AO2 SLP177 P0006 60057 T00940089 10106 20089 56015=
201201042339 SPECI KBFI 042339Z 14011KT 3SM -RA BR SCT012 BKN024 OVC055 09/09 A3005 RMK AO2 P0006=
201201042339 SPECI KBFI 042339Z 14011KT 3SM -RA BR SCT012 BKN024 OVC055 09/09 A3005 RMK AO2 P0006=
201201042302 SPECI KBFI 042302Z 14009KT 2SM -RA BR SCT009 BKN015 OVC055 09/09 A3008 RMK AO2 P0001=
201201042302 SPECI KBFI 042302Z 14009KT 2SM -RA BR SCT009 BKN015 OVC055 09/09 A3008 RMK AO2 P0001=
201201042253 METAR KBFI 042253Z 15010KT 4SM -RA BR SCT010 BKN026 OVC055 09/09 A3007 RMK AO2 SLP183 P0007 T00940089=
201201042153 METAR KBFI 042153Z 14007KT 3SM -RA BR FEW028 BKN032 OVC060 09/09 A3007 RMK AO2 SLP183 P0017 T00940089=
201201042053 METAR KBFI 042053Z 14006KT 4SM RA BR BKN045 OVC050 09/08 A3010 RMK AO2 SLP192 P0011 60027 T00890083 58015=
201201041953 METAR KBFI 041953Z 15007KT 3SM RA BR BKN045 OVC060 09/08 A3012 RMK AO2 SLP197 P0011 T00890078=
201201041853 METAR KBFI 041853Z 17007KT 5SM -RA BR FEW041 BKN050 OVC075 09/07 A3013 RMK AO2 SLP203 P0005 T00940072=
201201041753 METAR KBFI 041753Z 24008KT 10SM -RA SCT048 SCT070 OVC090 11/07 A3014 RMK AO2 SLP206 P0001 60001 T01060067 10122 20056 53025=
201201041653 METAR KBFI 041653Z 22007G17KT 180V250 10SM -RA BKN055 OVC075 12/05 A3011 RMK AO2 RAB17E29B51 SLP197 P0000 T01170050=
201201041553 METAR KBFI 041553Z VRB03KT 10SM BKN065 BKN150 09/04 A3009 RMK AO2 SLP190 T00890044=
201201041453 METAR KBFI 041453Z 15007KT 10SM BKN075 OVC090 08/05 A3007 RMK AO2 SLP181 T00780050 58023=
201201041353 METAR KBFI 041353Z 14009KT 10SM SCT070 07/04 A3010 RMK AO2 SLP190 T00670044=
201201041253 METAR KBFI 041253Z 14008KT 10SM FEW100 06/04 A3012 RMK AO2 SLP198 T00560044=
201201041153 METAR KBFI 041153Z 16006KT 10SM SCT090 06/05 A3014 RMK AO2 SLP204 70003 T00610050 10094 20044 58017=
201201041053 METAR KBFI 041053Z 15003KT 10SM SCT080 06/06 A3016 RMK AO2 SLP213 T00610056=
201201040953 METAR KBFI 040953Z 13004KT 10SM CLR 06/06 A3018 RMK AO2 SLP218 T00610056=
201201040853 METAR KBFI 040853Z 13004KT 10SM CLR 06/06 A3019 RMK AO2 SLP221 T00610056 53001=
201201040845 SPECI KBFI 040845Z 14004KT 1 1/2SM BR FEW002 06/06 A3018 RMK AO2=
201201040845 SPECI KBFI 040845Z 14004KT 1 1/2SM BR FEW002 06/06 A3018 RMK AO2=
201201040753 METAR KBFI 040753Z 00000KT 10SM CLR 07/06 A3017 RMK AO2 SLP217 T00670061 401220061=
201201040653 METAR KBFI 040653Z 00000KT 10SM OVC090 09/07 A3018 RMK AO2 SLP220 T00890072=
201201040553 METAR KBFI 040553Z 00000KT 10SM OVC080 09/08 A3019 RMK AO2 SLP223 60002 T00890078 10111 20083 58015=
201201040453 METAR KBFI 040453Z 13003KT 10SM OVC085 09/08 A3020 RMK AO2 SLP227 T00940083=
201201040353 METAR KBFI 040353Z 13004KT 10SM BKN060 10/08 A3023 RMK AO2 SLP235 T01000083=
201201040253 METAR KBFI 040253Z 00000KT 10SM OVC055 10/09 A3024 RMK AO2 RAE15 SLP238 P0001 60002 T01000089 53007=
201201040153 METAR KBFI 040153Z 15005KT 10SM -RA OVC070 10/08 A3021 RMK AO2 SLP231 P0001 T01000083=
201201040053 METAR KBFI 040053Z 00000KT 10SM -RA SCT060 OVC080 11/08 A3022 RMK AO2 RAB38 SLP232 P0000 T01060083=
201201032353 METAR KBFI 032353Z 00000KT 10SM FEW060 SCT075 OVC100 11/08 A3021 RMK AO2 RAE2255 SLP230 P0000 60001 T01110083 10122 20094 58011=
201201032253 METAR KBFI 032253Z 00000KT 10SM -RA FEW030 OVC060 12/08 A3023 RMK AO2 RAB05 SLP236 P0001 T01170078=
201201032153 METAR KBFI 032153Z 15005KT 10SM OVC055 12/07 A3024 RMK AO2 SLP238 T01170072=
201201032053 METAR KBFI 032053Z 14005KT 10SM BKN090 12/07 A3024 RMK AO2 SLP241 T01220072 58017=
201201031953 METAR KBFI 031953Z 17007KT 10SM OVC090 11/07 A3027 RMK AO2 SLP250 T01110072=
201201031853 METAR KBFI 031853Z 14006KT 10SM SCT025 BKN045 OVC100 10/06 A3029 RMK AO2 SLP257 T01000056=
201201031753 METAR KBFI 031753Z 13006KT 10SM BKN041 09/06 A3030 RMK AO2 SLP258 T00940056 10094 20061 53012=
201201031653 METAR KBFI 031653Z 14006KT 10SM FEW038 OVC048 08/06 A3028 RMK AO2 SLP252 T00830056=
201201031553 METAR KBFI 031553Z 13006KT 10SM BKN040 08/06 A3027 RMK AO2 SLP248 T00780056=
201201031453 METAR KBFI 031453Z 13004KT 10SM BKN045 08/06 A3026 RMK AO2 SLP246 T00780056 55007=
201201031353 METAR KBFI 031353Z 14007KT 10SM BKN050 07/06 A3024 RMK AO2 SLP241 T00720056=
201201031253 METAR KBFI 031253Z 15006KT 10SM SCT049 07/05 A3026 RMK AO2 SLP247 T00670050=
201201031153 METAR KBFI 031153Z 14004KT 10SM BKN049 06/04 A3028 RMK AO2 SLP253 60001 70057 T00610044 10094 20061 51004=
201201031053 METAR KBFI 031053Z 13005KT 10SM SCT035 BKN047 07/05 A3028 RMK AO2 SLP251 T00720050=
201201030953 METAR KBFI 030953Z 18003KT 10SM CLR 08/05 A3028 RMK AO2 SLP252 T00830050=
201201030853 METAR KBFI 030853Z 16008KT 10SM SCT049 09/05 A3027 RMK AO2 SLP249 60001 T00890050 51027=
201201030753 METAR KBFI 030753Z 19005KT 10SM CLR 09/04 A3025 RMK AO2 SLP243 T00890044 401060022=
201201030653 METAR KBFI 030653Z 18006KT 10SM SCT050 09/06 A3021 RMK AO2 RAE15 SLP231 P0001 T00940056=
201201030617 SPECI KBFI 030617Z 18006KT 10SM FEW026 SCT031 BKN055 09/07 A3020 RMK AO2 RAE15 P0001=
201201030617 SPECI KBFI 030617Z 18006KT 10SM FEW026 SCT031 BKN055 09/07 A3020 RMK AO2 RAE15 P0001=
201201030553 METAR KBFI 030553Z 16005KT 7SM -RA FEW019 BKN027 OVC034 09/07 A3019 RMK AO2 RAB21 SLP222 P0003 60046 T00890072 10106 20072 51030=
201201030551 SPECI KBFI 030551Z VRB04KT 6SM -RA BR FEW019 BKN027 OVC034 09/07 A3019 RMK AO2 RAB21 P0003=
201201030551 SPECI KBFI 030551Z VRB04KT 6SM -RA BR FEW019 BKN027 OVC034 09/07 A3019 RMK AO2 RAB21 P0003=
201201030453 METAR KBFI 030453Z 18012G20KT 10SM SCT039 BKN049 10/06 A3015 RMK AO2 PK WND 18027/0426 SLP208 T01000061=
201201030400 SPECI KBFI 030400Z 18017G26KT 10SM SCT027 BKN033 OVC044 10/07 A3011 RMK AO2 PK WND 21026/0400 PRESRR=
201201030400 SPECI KBFI 030400Z 18017G26KT 10SM SCT027 BKN033 OVC044 10/07 A3011 RMK AO2 PK WND 21026/0400 PRESRR=
201201030353 METAR KBFI 030353Z 18013G26KT 10SM SCT014 BKN025 OVC036 10/07 A3010 RMK AO2 PK WND 17026/0344 RAE29 SLP191 P0003 T01000072=
201201030253 METAR KBFI 030253Z 16015G23KT 5SM -RA BR BKN014 BKN025 OVC036 09/08 A3003 RMK AO2 PK WND 16035/0159 SLP169 P0017 60040 T00940078 53037=
201201030208 SPECI KBFI 030208Z 17020G35KT 5SM -RA BR FEW020 BKN025 OVC036 10/08 A2998 RMK AO2 PK WND 16035/0159 P0004=
201201030208 SPECI KBFI 030208Z 17020G35KT 5SM -RA BR FEW020 BKN025 OVC036 10/08 A2998 RMK AO2 PK WND 16035/0159 P0004=
201201030153 METAR KBFI 030153Z 16020G30KT 6SM -RA BR SCT026 OVC035 10/08 A2997 RMK AO2 PK WND 17031/0141 SLP147 P0013 T01000078=
201201030130 SPECI KBFI 030130Z 17019G29KT 7SM -RA BKN028 OVC034 10/08 A2995 RMK AO2 PK WND 17029/0126 P0009=
201201030130 SPECI KBFI 030130Z 17019G29KT 7SM -RA BKN028 OVC034 10/08 A2995 RMK AO2 PK WND 17029/0126 P0009=
201201030053 METAR KBFI 030053Z 14014KT 6SM -RA BR FEW035 OVC044 09/07 A2993 RMK AO2 SLP135 P0010 T00890072=
201201022353 METAR KBFI 022353Z 00000KT 4SM -RA BR OVC044 07/06 A2992 RMK AO2 SLP132 P0009 60010 T00720056 10089 20039 55011=
201201022253 METAR KBFI 022253Z 15005KT 10SM -RA SCT045 OVC060 08/03 A2990 RMK AO2 RAB2159E08B27 SLP123 P0001 T00780033=
201201022153 METAR KBFI 022153Z 00000KT 10SM SCT050 BKN100 08/02 A2992 RMK AO2 SLP132 T00830017=
201201022053 METAR KBFI 022053Z 15007KT 10SM OVC065 07/01 A2996 RMK AO2 SLP143 T00720011 50011=
201201021953 METAR KBFI 021953Z 13007KT 10SM FEW060 OVC140 07/02 A2998 RMK AO2 SLP153 T00720017=
201201021853 METAR KBFI 021853Z 15005KT 10SM OVC140 07/01 A2998 RMK AO2 SLP150 T00670011=
201201021753 METAR KBFI 021753Z COR 31004KT 10SM SCT100 OVC200 04/01 A2997 RMK AO2 PRESFR SLP132 T00390011 10061 20022 58012=
201201021653 METAR KBFI 021653Z 00000KT 10SM OVC200 03/00 A2996 RMK AO2 SLP144 T00330000=
201201021553 METAR KBFI 021553Z 00000KT 10SM CLR 03/M01 A2996 RMK AO2 SLP143 T00281011=
201201021453 METAR KBFI 021453Z 00000KT 10SM CLR 03/M01 A2996 RMK AO2 SLP144 T00331011 56019=
201201021353 METAR KBFI 021353Z 00000KT 10SM CLR 04/M01 A2998 RMK AO2 SLP150 T00441011=
201201021253 METAR KBFI 021253Z 00000KT 10SM CLR 05/M01 A2999 RMK AO2 SLP155 T00501011=
201201021153 METAR KBFI 021153Z 10003KT 10SM CLR 06/M02 A3001 RMK AO2 SLP163 T00561017 10067 20022 58011=
201201021053 METAR KBFI 021053Z 00000KT 10SM CLR 03/M01 A3003 RMK AO2 SLP169 T00281006=
201201020953 METAR KBFI 020953Z 00000KT 10SM CLR 04/M01 A3003 RMK AO2 SLP170 T00391006=
201201020853 METAR KBFI 020853Z 00000KT 10SM CLR 05/M01 A3005 RMK AO2 SLP174 T00501006 58007=
201201020753 METAR KBFI 020753Z 00000KT 10SM CLR 06/M01 A3006 RMK AO2 SLP180 T00561011 401280044=
201201020653 METAR KBFI 020653Z 00000KT 10SM CLR 06/M01 A3006 RMK AO2 SLP180 T00611011=
201201020553 METAR KBFI 020553Z 00000KT 10SM CLR 07/M02 A3007 RMK AO2 SLP181 T00671017 10117 20061 58019=
201201020453 METAR KBFI 020453Z 00000KT 10SM CLR 08/M02 A3008 RMK AO2 SLP187 T00831017=
201201020353 METAR KBFI 020353Z 13011KT 10SM CLR 11/M03 A3011 RMK AO2 SLP196 T01061028=
201201020253 METAR KBFI 020253Z 00000KT 10SM CLR 07/M01 A3012 RMK AO2 SLP200 T00671006 55007=
201201020153 METAR KBFI 020153Z 00000KT 10SM SCT200 09/M01 A3012 RMK AO2 SLP199 T00891011=
201201020053 METAR KBFI 020053Z 00000KT 10SM FEW060 SCT200 09/01 A3013 RMK AO2 SLP202 T00890011=
201201012353 METAR KBFI 012353Z 12006KT 10SM CLR 12/M02 A3014 RMK AO2 SLP206 T01171017 10128 20067 56018=
201201012253 METAR KBFI 012253Z 13010G15KT 10SM SCT160 BKN220 12/M02 A3015 RMK AO2 SLP209 T01221017=
201201012153 METAR KBFI 012153Z 33004KT 10SM CLR 12/00 A3016 RMK AO2 SLP214 T01170000=
201201012053 METAR KBFI 012053Z 00000KT 10SM SCT060 BKN200 11/01 A3019 RMK AO2 SLP224 T01060006 58026=
201201011953 METAR KBFI 011953Z 32003KT 10SM SCT060 09/02 A3022 RMK AO2 SLP233 T00940017=
201201011853 METAR KBFI 011853Z 31003KT 10SM SCT060 08/02 A3025 RMK AO2 SLP242 T00780017=
201201011753 METAR KBFI 011753Z 32003KT 10SM SCT060 BKN170 07/02 A3027 RMK AO2 SLP250 T00670017 10067 20044 50002=
201201011653 METAR KBFI 011653Z 00000KT 10SM SCT060 06/02 A3027 RMK AO2 SLP250 T00610017=
201201011553 METAR KBFI 011553Z 00000KT 10SM OVC060 06/02 A3027 RMK AO2 SLP251 T00560022=
201201011453 METAR KBFI 011453Z 34003KT 10SM OVC070 06/02 A3026 RMK AO2 SLP247 T00610017 55009=
201201011353 METAR KBFI 011353Z 00000KT 10SM OVC080 05/00 A3025 RMK AO2 SLP244 T00500000=
201201011253 METAR KBFI 011253Z 00000KT 10SM BKN070 OVC085 06/M01 A3027 RMK AO2 SLP249 T00561006=
201201011153 METAR KBFI 011153Z AUTO 00000KT 10SM OVC060 06/M01 A3029 RMK AO2 SLP257 T00561006 10067 20039 56001 TSNO=
201201011053 METAR KBFI 011053Z 00000KT 10SM BKN070 OVC080 06/M01 A3029 RMK AO2 SLP257 T00611011=
201201010953 METAR KBFI 010953Z 12004KT 10SM BKN042 OVC060 06/M02 A3029 RMK AO2 SLP255 T00611017=
201201010853 METAR KBFI 010853Z 14007KT 10SM SCT060 SCT090 BKN120 06/M02 A3029 RMK AO2 SLP258 T00561017 51006=
201201010753 METAR KBFI 010753Z 00000KT 10SM BKN060 05/M01 A3029 RMK AO2 SLP257 T00501011 400670000=
201201010653 METAR KBFI 010653Z 04005KT 10SM OVC060 04/M01 A3030 RMK AO2 SLP258 T00441006=
201201010553 METAR KBFI 010553Z 00000KT 10SM BKN080 OVC100 04/M01 A3028 RMK AO2 SLP252 T00391011 10061 20028 55002=
201201010453 METAR KBFI 010453Z 00000KT 10SM CLR 03/M01 A3027 RMK AO2 SLP250 T00331006=
201201010353 METAR KBFI 010353Z 00000KT 10SM CLR 04/M01 A3029 RMK AO2 SLP256 T00391006=
201201010253 METAR KBFI 010253Z 00000KT 10SM CLR 04/M01 A3028 RMK AO2 SLP254 T00441006 58018=
201201010153 METAR KBFI 010153Z 00000KT 10SM CLR 04/M01 A3031 RMK AO2 SLP263 T00441006=
201201010053 METAR KBFI 010053Z 04006KT 10SM FEW200 05/M01 A3032 RMK AO2 SLP267 T00501006=

# No short TAF reports from KBFI in databse.

###################################
#  large TAF from KBFI
###################################
201201312320 TAF KBFI 312320Z 0100/0124 17007KT P6SM BKN050 OVC100 FM010300
                       16010KT P6SM -RA SCT025 OVC040 FM010900
                       16012KT 5SM -RA BR OVC025
                      TEMPO 0112/0114 3SM -RA BR OVC015 FM011500
                       22008KT P6SM -SHRA BKN015 OVC030 FM011900
                       30006KT P6SM VCSH BKN025 BKN050=
201201311721 TAF KBFI 311721Z 3118/0118 16010KT P6SM BKN050 BKN120 BKN200
                      TEMPO 3119/3121 -SHRA BKN040 OVC080 FM010300
                       17012G20KT P6SM -RA SCT023 OVC035
                      TEMPO 0104/0108 5SM -RA BR BKN017 OVC030
                       FM011000 20008KT P6SM -SHRA BKN025 OVC040
                       FM011600 VRB04KT P6SM SCT025 BKN035=
201201311120 TAF KBFI 311120Z 3112/0112 19008KT P6SM SCT030 BKN050 BKN100
                      TEMPO 3113/3117 BKN025 OVC045 FM311700 17012G20KT
                       P6SM SCT030 OVC050 FM010100 17012G20KT P6SM
                       -RA SCT023 OVC035
                      TEMPO 0103/0107 5SM -RA BR BKN017 OVC030
                       FM010700 20008KT P6SM -SHRA BKN025 OVC040=
201201310530 TAF KBFI 310530Z 3106/0106 17006KT P6SM -SHRA SCT035 BKN050
                      TEMPO 3106/3110 SCT020 BKN035 OVC050 FM311000
                       16008KT P6SM VCSH BKN030 OVC040 FM311400
                       16010KT P6SM BKN030 OVC040 FM311800 17012KT
                       P6SM SCT030 BKN040 OVC060 FM010100 16009KT
                       P6SM -RA SCT025 OVC040=
201201310303 KBFI 310303Z 3103/3124 VRB03KT P6SM FEW019 SCT030 BKN050
                      TEMPO 3103/3107 SCT020 BKN030 OVC050 FM310700
                       16012KT P6SM VCSH BKN025 OVC050 FM312100
                       16012KT P6SM -RA OVC025=
201201302320 TAF KBFI 302320Z 3100/3124 18010KT P6SM BKN035 BKN050 FM310800
                       16012KT P6SM VCSH BKN025 OVC050 FM312100
                       16012KT P6SM -RA OVC025=
201201302113 KBFI 302113Z 3021/3118 17014KT P6SM BKN030 BKN050 FM302200 17012KT
                       P6SM BKN035 BKN050 FM310800 16012KT P6SM
                       VCSH BKN025 OVC050 FM311700 16012KT P6SM
                       -RA OVC025=
201201301720 TAF KBFI 301720Z 3018/3118 17010KT P6SM BKN025 BKN050
                      TEMPO 3018/3021 OVC020 FM302100 18008KT P6SM
                       VCSH BKN035 BKN050 FM310800 16012KT P6SM
                       VCSH BKN025 OVC050 FM311700 16012KT P6SM
                       -RA OVC025=
201201301303 KBFI 301303Z 3013/3112 19012KT P6SM OVC019 FM301800 19007KT P6SM
                       VCSH OVC022 FM310000 19005KT P6SM VCSH SCT021
                       BKN030 OVC050 FM310800 VRB03KT P6SM VCSH
                       OVC030=
201201301135 TAF KBFI 301135Z 3012/3112 19007KT P6SM VCSH BKN008 OVC023 FM301800
                       19007KT P6SM VCSH SCT012 OVC018 FM310000
                       19005KT P6SM VCSH SCT021 BKN030 OVC050 FM310800
                       VRB03KT P6SM VCSH OVC030=
201201300905 KBFI 300905Z 3009/3106 00000KT P6SM -SHRA SCT006 BKN011 OVC023
                       TEMPO 3009/3013 5SM -SHRA BR OVC006 FM301400
                       18010KT P6SM VCSH SCT018 OVC030
                      TEMPO 3014/3018 -SHRA BKN018 OVC030 FM301800
                       19010KT P6SM VCSH BKN023 OVC045 FM310000
                       17006KT P6SM VCSH SCT023 BKN050=
201201300535 TAF KBFI 300535Z 3006/3106 17009KT P6SM -SHRA SCT011 OVC022
                      TEMPO 3006/3010 -SHRA BKN011 OVC016 FM301200
                       18010KT P6SM VCSH SCT018 OVC030
                      TEMPO 3012/3016 -SHRA BKN018 OVC030 FM301800
                       19010KT P6SM VCSH BKN023 OVC045 FM310000
                       17006KT P6SM VCSH SCT023 BKN050=
201201300300 KBFI 300300Z 3003/3024 17012G20KT P6SM -RA SCT015 OVC060
                      TEMPO 3003/3006 4SM -RA BR BKN015 OVC030
                       FM300600 20010KT P6SM -SHRA BKN025 BKN040
                       FM301600 18010KT P6SM VCSH SCT025 BKN040=
201201292320 TAF KBFI 292320Z 3000/3024 16008KT P6SM -RA SCT015 OVC030
                      TEMPO 3000/3004 4SM -RA BR BKN015 OVC025
                       FM300400 20010KT P6SM -SHRA BKN025 BKN040
                       FM301600 18010KT P6SM VCSH SCT025 BKN040=
201201292107 KBFI 292107Z 2921/3018 18010KT P6SM SCT020 OVC040
                      TEMPO 2921/2924 5SM -RA BR BKN020 OVC040
                       FM300400 20010G20KT P6SM -SHRA BKN020 BKN040
                       FM301600 18010KT P6SM VCSH SCT020 BKN040=
201201291720 TAF KBFI 291720Z 2918/3018 18010G18KT 5SM -RA BR SCT020 OVC035
                       TEMPO 2918/2922 3SM RA BR OVC020 FM300400
                       20010G20KT P6SM -SHRA BKN020 BKN040 FM301600
                       18010KT P6SM VCSH SCT020 BKN040=
201201291421 KBFI 291421Z 2914/3012 18013KT P6SM VCSH SCT035 SCT050 OVC200
                      TEMPO 2914/2917 -SHRA BKN035 OVC050 FM291700
                       18013KT P6SM -RA OVC040 FM300400 17007KT
                       P6SM -RA OVC018 FM300900 18009KT P6SM VCSH
                       OVC018=
201201291137 TAF KBFI 291137Z 2912/3012 19008KT P6SM -SHRA OVC040 FM300400 17007KT
                       P6SM -RA OVC018 FM300900 18009KT P6SM VCSH
                       OVC018=
201201290529 TAF KBFI 290529Z 2906/3006 14006KT P6SM VCSH BKN045 FM290800 17012KT
                       P6SM -RA SCT020 OVC040 FM291500 17014KT
                       5SM -RA BR OVC025 FM292200 20010G20KT P6SM
                       -SHRA BKN025 BKN040=
201201282320 TAF KBFI 282320Z 2900/2924 16008KT P6SM VCSH BKN050 OVC100 FM290800
                       17012KT P6SM -RA SCT020 OVC040 FM291500
                       17014KT 5SM -RA BR OVC025 FM292200 20010G20KT
                       P6SM -SHRA BKN025 BKN040=
201201281720 TAF KBFI 281720Z 2818/2918 16008KT P6SM VCSH BKN050 OVC100 FM290800
                       17012KT P6SM -RA SCT020 OVC040 FM291500
                       17014KT 5SM -RA BR OVC025=
201201281401 KBFI 281401Z 2814/2912 00000KT P6SM BKN060 OVC100 FM281800 17005KT
                       P6SM BKN060 OVC120 FM290800 15007KT P6SM
                       -RA BKN030 OVC050=
201201281137 TAF KBFI 281137Z 2812/2912 00000KT P6SM BKN120 OVC200 FM281800
                       17005KT P6SM BKN060 OVC120 FM290800 15007KT
                       P6SM -RA BKN030 OVC050=
201201280535 TAF KBFI 280535Z 2806/2906 00000KT P6SM SCT250 FM281200 13003KT
                       P6SM BKN120 OVC200 FM282000 16005KT P6SM
                       OVC100 FM282300 17004KT P6SM OVC050=
201201272344 TAF KBFI 272344Z 2800/2824 VRB03KT P6SM BKN250 FM281000 14004KT
                       P6SM SCT100 BKN200 FM281500 16006KT P6SM
                       BKN050 OVC200=
201201271738 TAF KBFI 271738Z 2718/2818 15005KT P6SM VCFG FEW006 FM271900 VRB03KT
                       P6SM SCT250 FM281000 14004KT P6SM BKN120
                       FM281500 15006KT P6SM BKN050 OVC200=
201201271132 TAF KBFI 271132Z 2712/2812 00000KT P6SM SKC FM271300 00000KT P6SM
                       VCFG FEW010 FM271800 VRB03KT P6SM SCT250
                       FM280900 14003KT P6SM BKN200=
201201270530 TAF KBFI 270530Z 2706/2806 09003KT P6SM SCT080 FM270800 00000KT
                       P6SM SKC FM271300 00000KT P6SM VCFG FEW010
                       TEMPO 2713/2716 BKN010 FM271800 VRB03KT
                       P6SM SCT250=
201201262320 TAF KBFI 262320Z 2700/2724 VRB03KT P6SM SCT028
                      TEMPO 2700/2703 BKN028 FM270400 00000KT P6SM
                       FEW030 FM270800 00000KT P6SM SKC FM271300
                       00000KT P6SM VCFG FEW010
                      TEMPO 2713/2716 BKN010 FM271800 VRB03KT P6SM
                       SCT250=
201201261746 TAF KBFI 261746Z 2618/2718 14006KT P6SM -SHRA SCT018 BKN025 OVC045
                       TEMPO 2618/2621 VRB05KT SCT020 BKN045 BKN060
                       FM262100 33007KT P6SM SCT015 BKN045 BKN060
                       TEMPO 2621/2701 -SHRA BKN030 BKN050 FM270400
                       18006KT P6SM SCT025 BKN050=
201201261339 KBFI 261339Z 2614/2712 30009KT P6SM VCSH SCT022 BKN070
                      TEMPO 2614/2617 -SHRA OVC018 FM261700 20010KT
                       P6SM BKN018 FM262100 20010G16KT P6SM BKN050
                       FM262300 19010G16KT P6SM SCT250 FM270000
                       17004KT P6SM SCT250=
201201261132 TAF KBFI 261132Z 2612/2712 17011G19KT P6SM VCSH SCT022 BKN070
                      TEMPO 2612/2616 -SHRA OVC018 FM261700 19009G16KT
                       P6SM BKN018 FM262100 20010G16KT P6SM BKN050
                       FM262300 19010G16KT P6SM SCT250 FM270000
                       17004KT P6SM SCT250=
201201260520 TAF KBFI 260520Z 2606/2706 12004KT P6SM -RA BKN035 OVC050 FM260800
                       14006KT P6SM -RA BKN020 OVC040 FM261400
                       18007KT P6SM BKN020 OVC040 FM262000 21008KT
                       P6SM BKN050 FM270000 VRB04KT P6SM SCT050
                       SCT250=
201201252344 TAF KBFI 252344Z 2600/2624 20010G18KT P6SM BKN120 OVC200 FM260400
                       16008KT P6SM SCT030 BKN050 OVC070
                      TEMPO 2604/2606 -RA FM260600 15010KT P6SM
                       -RA BKN026 OVC045 FM260900 16010KT 6SM -RA
                       BR OVC018 FM261100 19010G20KT P6SM -RA BKN018
                       OVC025 FM261500 19010G20KT P6SM BKN030 BKN045
                       TEMPO 2615/2618 -SHRA FM261900 21008KT P6SM
                       VCSH SCT025 BKN050=
201201252118 KBFI 252118Z 2521/2618 20008G18KT P6SM SCT025 BKN050
                      TEMPO 2521/2601 -SHRA BKN025 OVC050 FM260100
                       16006KT P6SM VCSH SCT035 BKN050 FM260600
                       16009KT 6SM -RA BR OVC028 FM260900 19013KT
                       5SM -RA BR OVC020=
201201251945 KBFI 251945Z 2520/2618 19012G20KT P6SM SCT025 BKN050
                      TEMPO 2520/2521 -SHRA BKN025 OVC050 FM252100
                       18010G18KT P6SM SCT030 BKN060
                      TEMPO 2521/2601 -SHRA FM260100 16006KT P6SM
                       VCSH SCT035 BKN050 FM260600 16009KT 6SM
                       -RA BR OVC028 FM260900 19013KT 5SM -RA BR
                       OVC020=
201201251734 TAF KBFI 251734Z 2518/2618 18008KT P6SM -SHRA SCT025 BKN040 OVC050
                       TEMPO 2518/2521 6SM -SHRA BR BKN025 OVC040
                       FM252100 18008KT P6SM SCT030 BKN045 BKN060
                       TEMPO 2521/2601 -SHRA FM260100 16006KT P6SM
                       VCSH SCT035 BKN050 FM260600 16009KT 6SM
                       -RA BR OVC028 FM260900 19013KT 5SM -RA BR
                       OVC020=
201201251146 TAF KBFI 251146Z 2512/2612 21010G20KT P6SM SCT030 SCT050
                      TEMPO 2512/2515 BKN030 BKN050 FM251500 21009KT
                       P6SM BKN030 BKN050 FM251800 19009KT P6SM
                       SCT035 BKN050 BKN100
                      PROB30 2521/2524 -SHRA FM260000 16006KT P6SM
                       -RA BKN035 OVC050 FM260600 16009KT 6SM -RA
                       BR OVC028 FM260900 19013KT 5SM -RA BR OVC020=
201201251021 KBFI 251021Z 2510/2606 21009KT P6SM SCT028 SCT050
                      TEMPO 2510/2512 21015G25KT BKN028 BKN050
                       FM251400 17009KT P6SM BKN025 OVC050
                      TEMPO 2514/2518 -SHRA FM251800 19013KT P6SM
                       -SHRA BKN035 BKN050 OVC100 FM260000 16007KT
                       P6SM -RA BKN030 OVC050=
201201250746 KBFI 250746Z 2508/2606 22012KT P6SM BKN030 BKN060
                      TEMPO 2508/2510 22012G20KT -SHRA FM251000
                       19009KT P6SM BKN025 OVC050
                      TEMPO 2510/2514 -SHRA FM251400 17009KT P6SM
                       BKN025 OVC050
                      TEMPO 2514/2518 -SHRA FM251800 19013KT P6SM
                       -SHRA BKN035 BKN050 OVC100 FM260000 16007KT
                       P6SM -RA BKN030 OVC050=
201201250542 TAF KBFI 250542Z 2506/2606 20015G25KT P6SM BKN020 BKN060
                      TEMPO 2506/2510 -SHRA OVC015 FM251000 19013G20KT
                       P6SM BKN025 OVC050
                      TEMPO 2510/2514 -SHRA FM251400 17009KT P6SM
                       BKN025 OVC050
                      TEMPO 2514/2518 -SHRA FM251800 19013KT P6SM
                       -SHRA BKN035 BKN050 OVC100 FM260000 16007KT
                       P6SM -RA BKN030 OVC050=
201201250413 KBFI 250413Z 2504/2524 19013G23KT P6SM BKN025 OVC035
                      TEMPO 2504/2508 -SHRA FM250800 21012G22KT
                       P6SM -SHRA BKN025 BKN040 FM251800 18010G20KT
                       P6SM VCSH BKN035 BKN050=
201201250234 KBFI 250234Z 2503/2524 19016G23KT P6SM BKN012 OVC018 FM250800 21012G22KT
                       P6SM -SHRA BKN025 BKN040 FM251800 18010G20KT
                       P6SM VCSH BKN035 BKN050=
201201242320 TAF KBFI 242320Z 2500/2524 15012G22KT 5SM -RA BR SCT015 OVC030
                       WS020/19045KT
                      TEMPO 2500/2502 3SM RA BR OVC015 FM250200
                       19015G25KT 5SM -SHRA BR BKN025 OVC040 FM250800
                       21012G22KT P6SM -SHRA BKN025 BKN040 FM251800
                       18010G20KT P6SM VCSH BKN035 BKN050=
201201241731 TAF KBFI 241731Z 2418/2518 15006KT 5SM -RA BR OVC030 FM242100 16012G22KT
                       5SM -RA BR OVC025 WS020/19045KT FM250000
                       19018G28KT P6SM -SHRA BKN025 OVC050 FM250600
                       19013G20KT P6SM -SHRA BKN030 OVC050=
201201241147 TAF KBFI 241147Z 2412/2512 13006KT P6SM -RA SCT035 OVC050 WS020/20030KT
                       FM241500 13009KT P6SM -RA SCT022 OVC040
                       WS020/19040KT FM241800 15013KT 5SM -RA BR
                       OVC022 WS020/19040KT FM242100 17013G22KT
                       5SM -RA BR SCT009 OVC020 WS020/19040KT FM250000
                       19018G28KT P6SM -SHRA BKN025 OVC050 FM250600
                       19013G20KT P6SM -SHRA BKN030 OVC050=
201201240908 KBFI 240908Z 2409/2506 13006KT P6SM SCT050 BKN110 OVC200 WS020/20025KT
                       FM241200 13009KT P6SM -RA SCT035 OVC050
                       WS020/20030KT FM241500 13009KT P6SM -RA
                       SCT022 OVC040 WS020/19040KT FM241800 15013KT
                       5SM -RA BR OVC022 WS020/19040KT FM242100
                       17013G22KT 5SM -RA BR SCT009 OVC020 WS020/19040KT
                       FM250000 19018G28KT P6SM -SHRA BKN025 OVC050=
201201240543 TAF KBFI 240543Z 2406/2506 13006KT P6SM SCT110 OVC200 FM240900
                       13006KT P6SM SCT050 OVC110 WS020/20025KT
                       FM241200 13009KT P6SM -RA SCT035 OVC050
                       WS020/20030KT FM241500 13009KT P6SM -RA
                       SCT022 OVC040 WS020/19040KT FM241800 15013KT
                       5SM -RA BR OVC022 WS020/19040KT FM242100
                       17013G22KT 5SM -RA BR SCT009 OVC020 WS020/19040KT
                       FM250000 19018G28KT P6SM -SHRA BKN025 OVC050=
201201240307 TAF AMD KBFI 240307Z 2403/2424 15005KT P6SM SCT110 BKN200 FM241100
                       14005KT P6SM SCT090 OVC120 FM241500 15007KT
                       P6SM RA SCT030 OVC050 FM241700 16010KT 6SM
                       -RA OVC029 FM242200 18014G28KT P6SM -SHRA
                       BKN025 OVC045=
201201232339 TAF KBFI 232339Z 2400/2424 18007KT P6SM BKN200 FM240400 15005KT
                       P6SM FEW060 OVC180 FM241100 14005KT P6SM
                       SCT090 OVC120 FM241500 15007KT P6SM RA SCT030
                       OVC050 FM241700 16010KT 6SM -RA OVC029 FM242200
                       18014G28KT P6SM -SHRA BKN025 OVC045=
201201231741 TAF KBFI 231741Z 2318/2418 15005KT P6SM SCT045 SCT250
                      TEMPO 2318/2320 BKN040 BKN200 FM240400 15005KT
                       P6SM FEW060 BKN200 FM241100 14005KT P6SM
                       SCT090 OVC120 FM241500 15006KT P6SM RA SCT030
                       OVC050 FM241700 12009KT 6SM -RA OVC029=
201201231142 TAF KBFI 231142Z 2312/2412 17005KT P6SM VCFG SCT030 SCT060
                      TEMPO 2314/2318 BKN030 BKN060 FM231800 20005KT
                       P6SM SCT060 SCT200 FM240000 17005KT P6SM
                       FEW060 BKN200 FM240600 14005KT P6SM SCT090
                       OVC150=
201201230544 TAF KBFI 230544Z 2306/2406 19011KT P6SM SCT050 FM230900 17006KT
                       P6SM SCT035 SCT050
                      TEMPO 2309/2312 BKN035 BKN050 FM231200 VRB03KT
                       P6SM BKN030 BKN050 FM231800 18005KT P6SM
                       SCT035 SCT050 SCT200 FM240000 18005KT P6SM
                       SCT070 BKN200=
201201230516 KBFI 230516Z 2305/2324 19013KT P6SM SCT035 SCT050 FM230700 19013G20KT
                       P6SM SCT035 BKN050 FM231200 17008KT P6SM
                       BKN035 BKN050=
201201230234 KBFI 230234Z 2303/2324 16013G20KT P6SM SCT030 OVC050
                      TEMPO 2303/2304 -SHRA BKN030 OVC050 FM230400
                       18020G30KT P6SM -SHRA BKN030 BKN050 FM230600
                       19013G20KT P6SM VCSH BKN028 BKN050 FM231200
                       17008KT P6SM BKN035 BKN050=
201201222325 TAF KBFI 222325Z 2300/2324 17010G20KT 6SM -RA BR OVC030 FM230200
                       18020G30KT P6SM -SHRA BKN030 BKN050 FM230600
                       19013G20KT P6SM VCSH BKN028 BKN050 FM231200
                       17008KT P6SM BKN035 BKN050=
201201221733 TAF KBFI 221733Z 2218/2318 11006KT P6SM -RA SCT028 OVC050 WS020/17035KT
                       FM222000 14013KT P6SM -RA OVC028 WS020/17035KT
                       FM230000 17020G30KT 5SM RA OVC020 FM230300
                       20015G25KT P6SM -SHRA BKN030 OVC050 FM230900
                       17012KT P6SM BKN035 BKN050=
201201221143 TAF KBFI 221143Z 2212/2312 14006KT P6SM SCT050 BKN110 OVC200 WS020/18025KT
                       FM221500 11006KT P6SM -RA SCT028 OVC050
                       WS020/17035KT FM222000 14013KT P6SM -RA
                       OVC028 WS020/17035KT FM230000 17020G30KT
                       5SM RA OVC020 FM230300 20015G25KT P6SM -SHRA
                       BKN030 OVC050 FM230900 17012KT P6SM BKN035
                       BKN050
                      PROB30 2309/2312 -SHRA=
201201220544 TAF KBFI 220544Z 2206/2306 17012KT P6SM FEW030 SCT110 BKN200 FM220900
                       14006KT P6SM SCT050 BKN110 OVC200 FM221200
                       11006KT P6SM SCT050 OVC110 FM221500 11006KT
                       P6SM -RA SCT028 OVC050 FM222000 14013KT
                       P6SM -RA OVC028 FM230000 17020G30KT 5SM
                       RA OVC020 FM230300 20015G25KT P6SM -SHRA
                       BKN030 OVC050=
201201220246 KBFI 220246Z 2203/2224 19009KT P6SM FEW025 SCT050 SCT120 FM220500
                       15006KT P6SM SCT030 BKN120 FM220700 15006KT
                       P6SM BKN050 BKN120 FM221500 15010KT P6SM
                       -RA BKN025 OVC050 FM222000 18012KT P6SM
                       -SHRA BKN030 BKN050=
201201212336 TAF KBFI 212336Z 2200/2224 22015G25KT P6SM VCSH SCT020 BKN030 BKN120
                       TEMPO 2200/2204 BKN020 FM220400 20010KT
                       P6SM SCT030 BKN120 FM220700 17006KT P6SM
                       BKN050 BKN120 FM221500 15010KT P6SM -RA
                       BKN025 OVC050 FM222000 18012KT P6SM -SHRA
                       BKN030 BKN050=
201201211726 TAF KBFI 211726Z 2118/2218 21013G22KT P6SM VCSH BKN035 OVC050
                      TEMPO 2118/2122 -SHRA BKN020 FM212200 21011KT
                       P6SM VCSH BKN035 BKN050 FM220200 18007KT
                       P6SM SCT050 BKN120 FM220600 13006KT P6SM
                       SCT050 BKN120 FM220900 13006KT P6SM SCT050
                       BKN120 FM221500 15010KT P6SM -RA BKN030
                       OVC050=
201201211257 TAF AMD KBFI 211257Z 2113/2212 19018G28KT P6SM -RA BKN025 OVC040
                       TEMPO 2113/2114 5SM RA BR FM211500 19013G22KT
                       P6SM -SHRA BKN030 OVC050 FM211800 21013G22KT
                       P6SM BKN035 OVC050
                      TEMPO 2118/2122 -SHRA FM212200 21011KT P6SM
                       BKN050
                      PROB30 2122/2202 -SHRA FM220200 18007KT P6SM
                       SCT050 BKN120 FM220600 13006KT P6SM SCT050
                       BKN120 FM220900 13006KT P6SM SCT050 BKN120
                       PROB30 2209/2212 -RA OVC050=
201201211147 TAF KBFI 211147Z 2112/2212 19013G23KT P6SM -RA BKN025 OVC040
                      TEMPO 2112/2114 5SM RA BR FM211500 19013G22KT
                       P6SM -SHRA BKN030 OVC050 FM211800 21013G22KT
                       P6SM BKN035 OVC050
                      TEMPO 2118/2122 -SHRA FM212200 21011KT P6SM
                       BKN050
                      PROB30 2122/2202 -SHRA FM220200 18007KT P6SM
                       SCT050 BKN120 FM220600 13006KT P6SM SCT050
                       BKN120 FM220900 13006KT P6SM SCT050 BKN120
                       PROB30 2209/2212 -RA OVC050=
201201210545 TAF KBFI 210545Z 2106/2206 13007KT P6SM SCT035 OVC050
                      TEMPO 2106/2108 -RA FM210800 15013KT P6SM
                       -RA SCT025 OVC040 FM211000 15013G22KT 5SM
                       -RA BR SCT015 OVC025
                      TEMPO 2110/2112 3SM RA BR OVC015 FM211200
                       18016G26KT 5SM -RA BR BKN015 OVC025
                      TEMPO 2112/2114 3SM RA BR FM211500 20013G22KT
                       P6SM -SHRA BKN025 OVC040 FM211800 20013G22KT
                       P6SM BKN035 OVC050
                      TEMPO 2118/2122 -SHRA FM212200 20013KT P6SM
                       BKN050
                      PROB30 2122/2202 -SHRA FM220200 18009KT P6SM
                       SCT050 BKN120=
201201210309 KBFI 210309Z 2103/2124 VRB03KT P6SM OVC045
                      TEMPO 2103/2106 5SM RA BR OVC035 FM210600
                       14012KT 5SM -RA BR OVC025 FM210900 18016G24KT
                       5SM -RA BR OVC025
                      TEMPO 2110/2114 19022G30KT FM211500 20018G30KT
                       P6SM -SHRA BKN025 OVC050 FM212300 22012G18KT
                       P6SM -SHRA BKN030 OVC050=
201201202332 TAF KBFI 202332Z 2100/2124 16010KT 3SM -RA BR SCT008 SCT020 OVC040
                       FM210600 14012KT 5SM -RA BR OVC025 FM210900
                       18016G24KT 5SM -RA BR OVC025
                      TEMPO 2110/2114 19022G30KT FM211500 20018G30KT
                       P6SM -SHRA BKN025 OVC050 FM212300 22012G18KT
                       P6SM -SHRA BKN030 OVC050=
201201202108 KBFI 202108Z 2021/2118 VRB03KT 3SM -RA SCT009 BKN035 BKN050
                      TEMPO 2021/2024 1SM -SHRA FM210000 14006KT
                       3SM -RA SCT020 OVC035 FM210300 13010KT P6SM
                       -RA OVC025 FM211000 17013G20KT P6SM -RA
                       OVC025=
201201201721 TAF KBFI 201721Z 2018/2118 VRB03KT 5SM BR VCSH SCT035 BKN100
                      TEMPO 2018/2022 3SM -SHRA SCT025 BKN030 FM202200
                       14006KT P6SM -RA SCT020 OVC035 FM210300
                       13010KT P6SM -RA OVC025 FM211000 17013G20KT
                       P6SM -RA OVC025=
201201201405 KBFI 201405Z 2014/2112 24004KT 5SM -RA BR SCT023 OVC035
                      TEMPO 2014/2016 2SM -FZDZ BR OVC023 FM201600
                       00000KT P6SM SCT010 OVC023
                      TEMPO 2016/2020 4SM -RA BR OVC010 FM202000
                       13004KT P6SM -RA SCT023 OVC035 FM210300
                       13010KT P6SM -RA OVC025 FM211000 17013G20KT
                       P6SM -RA OVC025=
201201201138 TAF KBFI 201138Z 2012/2112 00000KT 4SM BR SCT009 OVC013
                      TEMPO 2012/2016 2SM -FZDZ BR BKN005 OVC013
                       FM201600 00000KT P6SM -FZDZ SCT010 OVC018
                       TEMPO 2016/2020 4SM -RASN BR OVC010 FM202000
                       13004KT P6SM -RA SCT023 OVC035 FM210300
                       13010KT P6SM -RA OVC025 FM211000 17013G20KT
                       P6SM -RA OVC025=
201201200950 KBFI 200950Z 2010/2106 00000KT 5SM BR SCT006 OVC015
                      TEMPO 2010/2013 2SM -SN BR BKN006 OVC015
                       FM201300 VRB03KT P6SM OVC018
                      TEMPO 2013/2016 4SM -FZDZ FM201600 00000KT
                       P6SM OVC018
                      TEMPO 2016/2020 5SM -RASN BR FM202000 13003KT
                       P6SM -RA SCT023 OVC040 FM210300 13008KT
                       P6SM -RA OVC030=
201201200538 TAF KBFI 200538Z 2006/2106 00000KT P6SM BKN027 OVC045
                      TEMPO 2006/2010 4SM -SN OVC020 FM201000 VRB03KT
                       P6SM OVC018
                      TEMPO 2010/2014 4SM -FZDZ FM201400 00000KT
                       P6SM OVC018
                      TEMPO 2014/2018 5SM -RASN BR FM201800 13003KT
                       P6SM -RA SCT020 OVC035 FM210300 13009KT
                       P6SM -RA OVC025=
201201200300 KBFI 200300Z 2003/2024 00000KT 6SM -SN BR SCT009 OVC030
                      TEMPO 2003/2007 2SM -SN BR BKN009 OVC026
                       FM200700 14003KT 6SM BR SCT016 OVC035
                      TEMPO 2007/2011 -SN FM201100 14003KT 4SM
                       BR OVC009
                      PROB30 2013/2016 4SM -FZRA OVC009 FM201600
                       15004KT 4SM -RA BR OVC010=
201201192349 TAF KBFI 192349Z 2000/2024 VRB03KT 2SM -SN BR BKN008 OVC023 FM200200
                       02002KT 2SM BR OVC009 FM201100 14003KT 4SM
                       BR OVC009
                      PROB30 2013/2016 4SM -FZRA OVC009 FM201600
                       15004KT 4SM -RA BR OVC010=
201201192243 KBFI 192243Z 1923/2018 35004KT 5SM -SN SCT008 OVC022
                      TEMPO 1923/2002 2SM -SN OVC008 FM200200 33004KT
                       5SM -SHRASN OVC020 FM200900 14004KT P6SM
                       -SHRA OVC022 FM201400 14006KT P6SM OVC025
                       FM201700 14006KT P6SM -RA OVC025=
201201192035 KBFI 192035Z 1921/2018 35005KT 5SM -FZRA OVC012 FM192300 35004KT
                       P6SM -SHRA OVC015 FM200000 33004KT P6SM
                       OVC020 FM200300 14004KT P6SM -SHRA OVC022
                       FM201400 14006KT P6SM OVC025 FM201700 14006KT
                       P6SM -RA OVC025=
201201191747 TAF KBFI 191747Z 1918/2018 35006KT 4SM -FZRA OVC012 FM192000 35005KT
                       5SM -FZRA OVC012
                      TEMPO 1921/1922 -RA FM192200 35004KT P6SM
                       -RA OVC015 FM200000 33004KT P6SM OVC020
                       FM200300 14004KT P6SM -SHRA OVC022 FM201400
                       14006KT P6SM OVC025 FM201700 14006KT P6SM
                       -RA OVC025=
201201191200 KBFI 191200Z 1912/2012 35003KT P6SM -FZRA SCT006 OVC017
                      TEMPO 1914/1918 3SM -SN OVC006 FM191800 01003KT
                       5SM BR OVC018
                      TEMPO 1920/1924 2SM -RASN BR OVC010 FM200100
                       12003KT P6SM -RA OVC023=
201201191135 TAF KBFI 191135Z 1912/2012 35003KT P6SM OVC017
                      TEMPO 1914/1918 3SM -SN OVC006 FM191800 01003KT
                       5SM BR OVC018
                      TEMPO 1920/1924 2SM -RASN BR OVC010 FM200100
                       12003KT P6SM -RA OVC023=
201201190530 TAF KBFI 190530Z 1906/2006 34004KT 5SM BR OVC012
                      TEMPO 1908/1912 2SM BR OVC007 FM191500 02003KT
                       2SM BR OVC010
                      TEMPO 1917/1921 -SN FM192100 34003KT 4SM
                       BR OVC010
                      TEMPO 1921/2001 -RASN FM200100 13003KT P6SM
                       -RA OVC018=
201201190336 KBFI 190336Z 1904/1924 34004KT 3SM -FZRA BR BKN010 BKN016 OVC023
                       TEMPO 1904/1906 5SM BR SCT010 BKN016 OVC023
                       FM190600 34002KT 4SM BR OVC020 FM191500
                       02003KT 4SM BR OVC020=
201201182326 TAF KBFI 182326Z 1900/1924 34006KT 2SM -SN BR BKN010 OVC019
                      TEMPO 1900/1904 4SM -RASN OVC009 FM190400
                       34002KT 4SM BR OVC020 FM191500 02003KT 4SM
                       BR OVC020=
201201182200 KBFI 182200Z 1822/1918 33007KT 1SM BR BKN008 OVC017
                      TEMPO 1822/1902 3SM -SHSN BKN010 FM190900
                       VRB04KT 5SM BR BKN015 BKN035=
201201182008 KBFI 182008Z 1820/1918 33008KT 1/2SM SN OVC007 FM182200 34007KT
                       5SM BR OVC018
                      TEMPO 1822/1902 3SM -SHSN BKN010 FM190900
                       VRB04KT 5SM BR BKN015 BKN035=
201201181750 TAF KBFI 181750Z 1818/1918 35008KT 1SM -SN BKN006 OVC015
                      TEMPO 1818/1820 1/2SM SN OVC006 FM182000
                       01008KT P6SM VCSH BKN015 OVC040
                      TEMPO 1820/1823 4SM -SHSN BKN020 OVC030 FM190900
                       VRB04KT 5SM BR BKN015 BKN035=
201201181625 KBFI 181625Z 1816/1912 34007KT 1SM -SN BR VV010
                      TEMPO 1816/1818 1/2SM SN FZFG FM181800 01010KT
                       P6SM SCT005 OVC015
                      TEMPO 1818/1822 2SM -SN BR OVC005 FM182200
                       01008KT P6SM VCSH BKN015 OVC040 FM190900
                       VRB04KT 5SM BR BKN015 BKN035=
201201181135 TAF KBFI 181135Z 1812/1912 VRB03KT 2SM -SN BR VV010
                      TEMPO 1812/1816 1/2SM SN FG VV004 FM181800
                       02010G18KT P6SM SCT005 OVC015
                      TEMPO 1818/1822 2SM -SN BR OVC005 FM182200
                       01008KT P6SM VCSH BKN015 OVC040 FM190900
                       VRB04KT 5SM BR BKN015 BKN035=
201201180835 TAF AMD KBFI 180835Z 1809/1906 00000KT P6SM BKN035 OVC050 FM181000
                       04004KT 5SM -SN BR OVC030 FM181100 02008KT
                       3SM -SN BR BKN005 OVC030
                      TEMPO 1811/1815 1/2SM SN FG OVC003 FM181800
                       02010G18KT P6SM SCT005 OVC015
                      TEMPO 1818/1822 2SM -SN BR OVC005 FM182200
                       01008KT P6SM VCSH BKN015 OVC040=
201201180544 TAF KBFI 180544Z 1806/1906 VRB04KT P6SM SCT030 BKN050 OVC080
                      TEMPO 1806/1809 BKN027 OVC050 FM180900 02005KT
                       P6SM BKN028 BKN050 FM181100 01004KT 3SM
                       -SN OVC018 FM181700 03007KT 2SM -SN OVC008
                       FM190200 03005KT 5SM -SHSN BKN014 BKN030=
201201172344 TAF KBFI 172344Z 1800/1824 24007KT P6SM VCSH SCT025 BKN080 FM180200
                       VRB04KT P6SM VCSH SCT025 BKN080 OVC200 FM180400
                       02005KT P6SM VCSH SCT025 BKN050 OVC080 FM181100
                       01004KT 3SM -SN OVC018 FM181600 04004KT
                       2SM -SN OVC008=
201201172113 KBFI 172113Z 1721/1818 35005KT P6SM BKN015 OVC025
                      TEMPO 1721/1724 6SM -SHSN BR FM180000 35005KT
                       6SM BR SCT007 BKN020 OVC025
                      TEMPO 1800/1804 2SM -SHSN BKN010 OVC020 FM180400
                       35008KT P6SM -SHSN BKN025 OVC040 FM180600
                       03006KT P6SM VCSH BKN025 OVC040 FM181100
                       05011KT 2SM -SN OVC008=
201201171946 KBFI 171946Z 1720/1818 18010G20KT P6SM BKN012 OVC025
                      TEMPO 1720/1724 3SM -SHSN BR FM180000 35005KT
                       5SM -SHSN BKN007 OVC015
                      TEMPO 1800/1804 1/2SM SHSN FG BKN003 OVC010
                       FM180400 35008KT 6SM -SHSN BR BKN010 OVC020
                       FM180600 03006KT P6SM VCSH BKN025 OVC040
                       FM181100 05011KT 2SM -SN OVC008=
201201171740 TAF KBFI 171740Z 1718/1818 18010G20KT P6SM BKN012 OVC025
                      TEMPO 1718/1722 3SM -SHSN BR FM172200 21006KT
                       P6SM -SHSN BKN007 OVC015
                      TEMPO 1722/1801 3SM -SHSN BR FM180100 35008KT
                       5SM -SHSN BKN006 OVC010 FM180400 03006KT
                       P6SM VCSH BKN025 OVC040 FM181200 05011KT
                       2SM -SN OVC008=
201201171135 TAF KBFI 171135Z 1712/1812 17012G20KT P6SM -RASN BKN012 OVC018
                       TEMPO 1712/1716 5SM -SN BR OVC008 FM171600
                       17008KT P6SM VCSH BKN018 OVC040 FM172200
                       33006KT 5SM -SHSN BKN025 OVC045 FM180200
                       VRB03KT P6SM VCSH SCT025 BKN050=
201201170904 TAF AMD KBFI 170904Z 1709/1806 17010G18KT P6SM -RA SCT008 OVC013
                       TEMPO 1709/1713 5SM -SN BR OVC008 FM171600
                       17008KT P6SM VCSH BKN018 OVC040 FM172200
                       33006KT 5SM -SHSN BKN025 OVC045 FM180200
                       VRB03KT P6SM VCSH SCT025 BKN050=
201201170535 TAF KBFI 170535Z 1706/1806 17010G18KT P6SM -SN BKN014 OVC020
                      TEMPO 1706/1710 3SM -SN BR OVC008 FM171600
                       17008KT P6SM VCSH BKN018 OVC040 FM172200
                       33006KT 5SM -SHSN BKN025 OVC045 FM180200
                       VRB03KT P6SM VCSH SCT025 BKN050=
201201162346 TAF KBFI 162346Z 1700/1724 16013G22KT 6SM -SHSN BR BKN018 OVC040
                       FM170700 17010KT 5SM -SHSN BR BKN015 OVC030
                       FM171800 25008KT 2SM -SN OVC004 FM172000
                       35005KT 3SM -SHSN BKN006 OVC015=
201201161754 TAF KBFI 161754Z 1618/1718 14005KT P6SM VCSH FEW014 BKN025 BKN060
                       FM162100 16012KT 5SM -SHSN BR BKN018 OVC040
                       FM170200 18010KT P6SM SCT025 BKN060 FM170700
                       17007KT 5SM -SHSN BR BKN015 OVC030 FM171500
                       20007KT 1/2SM SN OVC004=
201201161120 TAF KBFI 161120Z 1612/1712 15007KT P6SM FEW018 BKN028 BKN060
                      TEMPO 1612/1616 5SM -SHSN BR BKN018 OVC028
                       FM162100 16012KT 5SM -SHSN BR BKN025 OVC040
                       FM170200 18010KT P6SM SCT025 BKN060 FM170700
                       17007KT 5SM -SHSN BR BKN015 OVC030=
201201161005 KBFI 161005Z 1610/1706 15005KT P6SM SCT022 BKN045
                      TEMPO 1610/1612 BKN022 OVC045 FM161400 16006KT
                       P6SM BKN040 BKN120 FM162100 16012KT 5SM
                       -SHSN BKN025 OVC040 FM170200 18010KT P6SM
                       SCT025 BKN060=
201201160817 KBFI 160817Z 1608/1706 14004KT P6SM SCT020 BKN045
                      TEMPO 1608/1610 5SM -SHSN BKN020 OVC045 FM161000
                       15004KT P6SM SCT040
                      TEMPO 1610/1614 1/2SM FZFG BKN001 FM161400
                       16006KT P6SM BKN040 BKN120 FM162100 16012KT
                       5SM -SHSN BKN025 OVC040 FM170200 18010KT
                       P6SM SCT025 BKN060=
201201160548 KBFI 160548Z 1606/1706 00000KT P6SM FEW015
                      TEMPO 1606/1610 1/2SM FZFG BKN001 FM161000
                       15004KT P6SM SCT040
                      TEMPO 1610/1614 1/2SM FZFG BKN001 FM161400
                       16006KT P6SM BKN040 BKN120 FM162100 16012KT
                       5SM -SHSN BKN025 OVC040 FM170200 18010KT
                       P6SM SCT025 BKN060=
201201160532 TAF KBFI 160532Z 1606/1706 00000KT P6SM FEW015 FM161400 16006KT
                       P6SM BKN040 BKN120 FM162100 16012KT 5SM
                       -SHSN BKN025 OVC040 FM170200 18010KT P6SM
                       SCT025 BKN060=
201201160316 KBFI 160316Z 1603/1624 00000KT P6SM FEW010 FM160600 00000KT P6SM
                       SCT040 FM161400 16006KT P6SM BKN040 BKN120
                       FM162100 16012KT 5SM -SHSN BKN025 OVC040=
201201160217 KBFI 160217Z 1602/1624 VRB03KT P6SM VCSH SCT015 BKN060 FM160600
                       00000KT P6SM SCT040 FM161400 16006KT P6SM
                       BKN040 BKN120 FM162100 16012KT 5SM -SHSN
                       BKN025 OVC040=
201201152321 TAF KBFI 152321Z 1600/1624 34006KT P6SM VCSH SCT015 BKN035
                      TEMPO 1600/1604 2SM -SHSN BKN015 OVC030 FM160800
                       VRB03KT P6SM VCSH SCT040 FM161400 16006KT
                       P6SM BKN040 BKN120 FM162100 16012KT 5SM
                       -SHSN BKN025 OVC040=
201201152125 KBFI 152125Z 1521/1618 VRB03KT 2SM -SHSN SCT007 OVC015
                      TEMPO 1521/1524 1/2SM SHSN VV005 FM160000
                       34007KT P6SM BKN020 BKN040 FM160400 VRB04KT
                       P6SM BKN040
                      TEMPO 1604/1608 SCT040 FM160800 16006KT P6SM
                       VCSH BKN030=
201201151806 KBFI 151806Z 1518/1618 16005KT 5SM -SHSN BKN015 OVC030
                      TEMPO 1518/1521 2SM -SHSN OVC010 FM152100
                       VRB04KT 5SM -SHSN SCT015 BKN030 OVC050
                      TEMPO 1521/1524 2SM -SHSN OVC012 FM160000
                       34007KT P6SM SCT020 BKN040 FM160400 VRB04KT
                       P6SM BKN040
                      TEMPO 1604/1608 SCT040 FM160800 16006KT P6SM
                       VCSH BKN030=
201201151725 TAF KBFI 151725Z 1518/1618 16005KT P6SM VCSH SCT015 BKN040
                      TEMPO 1518/1521 3SM -SHSN BKN015 OVC035 FM152100
                       VRB04KT 5SM -SHSN SCT015 BKN030 OVC050
                      TEMPO 1521/1524 2SM -SHSN OVC012 FM160000
                       34007KT P6SM SCT020 BKN040 FM160400 VRB04KT
                       P6SM BKN040
                      TEMPO 1604/1608 SCT040 FM160800 16006KT P6SM
                       VCSH BKN030=
201201151124 TAF KBFI 151124Z 1512/1612 16008KT P6SM SCT018 BKN025 OVC030
                      TEMPO 1515/1518 3SM -SHSN BKN014 OVC025 FM151800
                       21005KT P6SM -SHSN BKN014 OVC040
                      TEMPO 1518/1522 2SM -SHSN BR OVC008 FM152300
                       32005KT P6SM SCT020 BKN035 FM160400 16005KT
                       P6SM SCT030 BKN060=
201201150522 TAF KBFI 150522Z 1506/1606 18008KT P6SM BKN028 BKN120 FM150900
                       16004KT P6SM BKN020 OVC035
                      TEMPO 1513/1517 3SM -SHSN BKN008 OVC015 FM151700
                       21005KT P6SM -SHSN BKN015 OVC040
                      TEMPO 1519/1523 2SM -SHSN BR OVC008 FM160000
                       32005KT P6SM SCT020 BKN035 FM160400 16005KT
                       P6SM SCT030 BKN060=
201201150216 KBFI 150216Z 1502/1524 20006KT P6SM SCT020 SCT110
                      TEMPO 1502/1504 BKN020 BKN110 FM150400 18008KT
                       P6SM VCSH SCT018 OVC030 FM150900 VRB04KT
                       P6SM VCSH BKN015 OVC035
                      TEMPO 1512/1516 1SM -SHSN BKN008 OVC015 FM152100
                       VRB03KT P6SM VCSH SCT030 BKN045=
201201142326 TAF KBFI 142326Z 1500/1524 23009G18KT P6SM FEW027 BKN100 FM150400
                       18008KT P6SM VCSH SCT018 OVC030 FM150900
                       VRB04KT P6SM VCSH BKN015 OVC035
                      TEMPO 1512/1516 1SM -SHSN BKN008 OVC015 FM152100
                       VRB03KT P6SM VCSH SCT030 BKN045=
201201141942 KBFI 141942Z 1420/1518 20007G18KT P6SM -RA VCSH BKN012 OVC015 FM142100
                       18013G23KT P6SM SCT020 BKN035 FM150700 18007KT
                       P6SM VCSH BKN018 OVC030 FM150900 VRB04KT
                       P6SM VCSH BKN018 OVC035
                      TEMPO 1512/1516 1SM -SHSN BKN008 OVC015=
201201141821 KBFI 141821Z 1418/1518 19007KT 3SM -RA BR VCSH BKN008 OVC010 FM142100
                       18013G23KT P6SM SCT020 BKN035 FM150700 18007KT
                       P6SM VCSH BKN018 OVC030 FM150900 VRB04KT
                       P6SM VCSH BKN018 OVC035
                      TEMPO 1512/1516 1SM -SHSN BKN008 OVC015=
201201141742 TAF KBFI 141742Z 1418/1518 17012G17KT P6SM VCSH SCT008 BKN013 BKN022
                       FM142100 18013G23KT P6SM SCT020 BKN035 FM150700
                       18007KT P6SM VCSH BKN018 OVC030 FM150900
                       VRB04KT P6SM VCSH BKN018 OVC035
                      TEMPO 1512/1516 1SM -SHSN BKN008 OVC015=
201201141716 KBFI 141716Z 1417/1512 17012G17KT P6SM SCT008 BKN013 BKN022 FM142000
                       20013G23KT P6SM SCT020 BKN040 FM150100 18009KT
                       P6SM SCT040 BKN120 FM150700 16006KT P6SM
                       BKN050 BKN100=
201201141122 TAF KBFI 141122Z 1412/1512 00000KT P6SM OVC045 FM141300 VRB03KT
                       P6SM -RA OVC040
                      TEMPO 1413/1417 -RASN BKN020 OVC035 FM141700
                       18007KT P6SM BKN018 OVC035 FM142000 20013G23KT
                       P6SM SCT025 BKN040 FM150100 18009KT P6SM
                       SCT040 BKN120 FM150700 16006KT P6SM BKN050
                       BKN100=
201201140901 KBFI 140901Z 1409/1506 15003KT P6SM OVC045 FM141200 17006KT P6SM
                       -RA BKN028 OVC040 FM141700 18007KT P6SM
                       BKN018 OVC035 FM142000 20013G23KT P6SM SCT025
                       BKN040 FM150100 18009KT P6SM SCT040 BKN120=
201201140526 TAF KBFI 140526Z 1406/1506 15004KT P6SM SCT090 OVC200 FM141000
                       17006KT P6SM -RA OVC040 FM141700 18007KT
                       P6SM BKN018 OVC035 FM142000 20013G23KT P6SM
                       SCT025 BKN040 FM150100 18009KT P6SM SCT040
                       BKN120=
201201140307 KBFI 140307Z 1403/1424 00000KT P6SM SCT100 OVC200 FM140600 17005KT
                       P6SM BKN080 OVC200 FM141100 17006KT P6SM
                       -RA OVC040 FM141700 18005KT P6SM VCSH BKN018
                       OVC035 FM142000 18010G15KT P6SM VCSH BKN025
                       BKN035=
201201132328 TAF KBFI 132328Z 1400/1424 00000KT P6SM FEW140 OVC200 FM140300
                       17005KT P6SM OVC050 FM140600 17006KT P6SM
                       -RA OVC040 FM141100 18005KT P6SM VCSH BKN018
                       OVC035 FM142000 18010G15KT P6SM VCSH BKN025
                       BKN035=
201201131737 TAF KBFI 131737Z 1318/1418 VRB03KT P6SM BKN150 FM140300 17005KT
                       P6SM OVC050 FM140600 17006KT P6SM -RA OVC040
                       FM141100 18005KT P6SM VCSH BKN018 OVC035=
201201131120 TAF KBFI 131120Z 1312/1412 00000KT P6SM SCT250 FM132100 VRB03KT
                       P6SM SCT120 BKN200 FM140100 15003KT P6SM
                       BKN100 OVC200 FM140800 16005KT P6SM BKN045
                       OVC080=
201201130526 TAF KBFI 130526Z 1306/1406 00000KT P6SM SCT100 BKN200=
201201122321 TAF KBFI 122321Z 1300/1324 36004KT P6SM BKN200 FM130600 VRB03KT
                       P6SM SCT120 BKN200 FM131500 VRB03KT P6SM
                       SCT200=
201201121722 TAF KBFI 121722Z 1218/1318 VRB03KT P6SM BKN200 FM122100 31004KT
                       P6SM SCT200 FM130100 00000KT P6SM BKN200=
201201121120 TAF KBFI 121120Z 1212/1312 VRB03KT P6SM SCT250 FM122100 31004KT
                       P6SM SCT200 FM130100 00000KT P6SM BKN200=
201201120520 TAF KBFI 120520Z 1206/1306 VRB03KT P6SM SKC FM122100 31004KT P6SM
                       SCT200 FM130100 00000KT P6SM BKN200=
201201112320 TAF KBFI 112320Z 1200/1224 03006KT P6SM SKC FM120500 VRB03KT P6SM
                       SKC=
201201111739 TAF KBFI 111739Z 1118/1218 03006KT P6SM BKN200 FM120300 VRB03KT
                       P6SM FEW250=
201201111400 KBFI 111400Z 1114/1212 00000KT P6SM SCT200 FM111700 03006KT P6SM
                       BKN200=
201201111134 TAF KBFI 111134Z 1112/1212 00000KT P6SM FEW250 FM111800 03006KT
                       P6SM BKN200=
201201110533 TAF KBFI 110533Z 1106/1206 03003KT P6SM SKC FM111800 03006KT P6SM
                       SCT250=
201201102321 TAF KBFI 102321Z 1100/1124 01005KT P6SM SCT050 FM110400 VRB03KT
                       P6SM SKC FM111800 03006KT P6SM SCT250=
201201101732 TAF KBFI 101732Z 1018/1118 36006KT P6SM SCT035 BKN045 FM102300
                       02005KT P6SM SCT050 FM110400 04004KT P6SM
                       SKC=
201201101359 KBFI 101359Z 1014/1112 36006KT P6SM SCT040
                      TEMPO 1014/1018 BKN025 OVC040 FM110400 04005KT
                       P6SM SKC=
201201101213 KBFI 101213Z 1012/1112 36006KT P6SM SCT040
                      TEMPO 1014/1018 BKN040 FM110400 04005KT P6SM
                       SKC=
201201101120 TAF KBFI 101120Z 1012/1112 36006KT P6SM VCSH BKN035 FM101400 36008KT
                       P6SM SCT040
                      TEMPO 1014/1018 BKN040 FM110400 04005KT P6SM
                       SKC=
201201100527 TAF KBFI 100527Z 1006/1106 VRB04KT 5SM -RA BR OVC035 FM100800 02006KT
                       P6SM SCT020 BKN040 FM101800 36007KT P6SM
                       SCT040=
201201092337 TAF KBFI 092337Z 1000/1024 25004KT P6SM VCSH FEW012 BKN020 OVC035
                       FM100100 30004KT 6SM -SHRA BR SCT012 BKN020
                       TEMPO 1001/1005 5SM -SHRA BR OVC012 FM100500
                       VRB03KT P6SM VCSH SCT012 BKN022 FM100900
                       VRB03KT P6SM SCT015 BKN035 FM101800 35006KT
                       P6SM SCT045=
201201091915 KBFI 091915Z 0919/1018 15006KT P6SM VCSH SCT022 BKN045
                      TEMPO 0919/0922 -SHRA BKN022 FM092200 30004KT
                       P6SM -SHRA BKN025 OVC040 FM100300 VRB04KT
                       P6SM SCT020 BKN050 FM101000 05004KT P6SM
                       SCT050=
201201091742 TAF KBFI 091742Z 0918/1018 17012G20KT P6SM SCT025 OVC045
                      TEMPO 0918/0919 -RA BKN025 OVC050 FM091900
                       18012G20KT P6SM VCSH SCT028 BKN045
                      TEMPO 0919/0922 -SHRA BKN028 FM092200 30004KT
                       P6SM -SHRA BKN025 OVC040 FM100300 VRB04KT
                       P6SM SCT020 BKN050 FM101000 05004KT P6SM
                       SCT050=
201201091656 KBFI 091656Z 0917/1012 15007KT P6SM SCT035 OVC060
                      TEMPO 0917/0919 -RA OVC028 FM091900 21010KT
                       P6SM VCSH SCT030 BKN050 FM092200 VRB04KT
                       P6SM -SHRA BKN035 FM100600 36006KT P6SM
                       SCT025 BKN040=
201201091120 TAF KBFI 091120Z 0912/1012 16010KT P6SM -RA SCT035 OVC060
                      TEMPO 0913/0917 -RA BKN035 OVC050 FM091800
                       23010KT P6SM VCSH SCT030 BKN050 FM100000
                       VRB04KT P6SM -SHRA BKN035 FM100600 36006KT
                       P6SM SCT025 BKN040=
201201090520 TAF KBFI 090520Z 0906/1006 15005KT P6SM BKN080 FM091200 16013KT
                       P6SM SCT030 OVC050 FM091500 18013KT P6SM
                       -RA SCT015 OVC030
                      TEMPO 0915/0919 5SM -RA BR BKN015 OVC030
                       FM092000 18008KT P6SM SCT015 OVC030
                      TEMPO 0920/0924 -SHRA=
201201082349 TAF KBFI 082349Z 0900/0924 14008KT P6SM SCT080
                      TEMPO 0900/0902 BKN080 FM090600 14008KT P6SM
                       BKN080 FM091200 16013KT P6SM SCT030 OVC050
                       PROB30 0912/0915 -RA FM091500 18013KT P6SM
                       -RA SCT015 OVC030
                      TEMPO 0915/0919 5SM -RA BR BKN015 OVC030
                       FM092000 18008KT P6SM SCT015 OVC030
                      TEMPO 0920/0924 -SHRA=
201201082212 KBFI 082212Z 0822/0918 13008KT P6SM BKN080 BKN200 FM090600 15007KT
                       P6SM BKN060 OVC120 FM091200 15011KT P6SM
                       SCT030 OVC050
                      PROB30 0912/0915 -RA FM091500 18013KT P6SM
                       -RA SCT015 OVC030
                      TEMPO 0915/0918 5SM -RA BR BKN015 OVC030=
201201081756 TAF KBFI 081756Z 0818/0918 13005KT P6SM BKN080 OVC200 FM082000
                       13005KT P6SM SCT080 BKN200 FM090600 15007KT
                       P6SM BKN060 OVC120 FM091200 15011KT P6SM
                       SCT030 OVC050
                      PROB30 0912/0915 -RA FM091500 18013KT P6SM
                       -RA SCT015 OVC030
                      TEMPO 0915/0918 5SM -RA BR BKN015 OVC030=
201201081120 TAF KBFI 081120Z 0812/0912 16006KT P6SM BKN035 OVC100 FM081600
                       16006KT P6SM BKN040 BKN100 FM081900 16010KT
                       P6SM SCT050 BKN150 FM090800 18012KT P6SM
                       BKN050 OVC100=
201201080521 TAF KBFI 080521Z 0806/0906 14007KT P6SM BKN050 FM081800 VRB03KT
                       P6SM SCT050 SCT100 OVC200=
201201072349 TAF KBFI 072349Z 0800/0824 18005KT P6SM BKN040 OVC070 FM080300
                       13005KT P6SM SCT050 OVC070 FM080600 VRB03KT
                       P6SM SCT050 BKN100 OVC200 FM081800 VRB03KT
                       P6SM SCT050 SCT100 OVC200=
201201072127 KBFI 072127Z 0721/0818 15005KT P6SM FEW035 OVC070 FM080000 18005KT
                       P6SM SCT035 BKN050 OVC100 FM080600 VRB03KT
                       P6SM SCT050 BKN100 OVC200=
201201071747 TAF KBFI 071747Z 0718/0818 15005KT P6SM FEW009 OVC016
                      TEMPO 0718/0720 5SM -DZ BR FM072000 15005KT
                       P6SM OVC028 FM072200 18005KT P6SM BKN035
                       BKN050 OVC100 FM080000 18005KT P6SM SCT035
                       BKN050 OVC100 FM080600 VRB03KT P6SM SCT050
                       BKN100 OVC200=
201201071120 TAF KBFI 071120Z 0712/0812 VRB03KT P6SM OVC023 FM071800 15005KT
                       P6SM BKN025 OVC050 FM072100 15005KT P6SM
                       SCT050 BKN150 FM080600 16007KT P6SM BKN050
                       BKN100=
201201070520 TAF KBFI 070520Z 0706/0806 14007KT P6SM SCT020 OVC050
                      TEMPO 0707/0711 BKN020 OVC040 FM071100 VRB03KT
                       P6SM VCSH BKN020 OVC040 FM071400 VRB03KT
                       P6SM OVC015 FM072000 VRB03KT P6SM BKN025
                       OVC060 FM072200 VRB03KT P6SM SCT030 SCT060
                       BKN150=
201201062345 TAF KBFI 062345Z 0700/0724 17005KT P6SM SCT028 OVC045
                      TEMPO 0700/0703 -RA BKN028 OVC050 FM070300
                       13005KT P6SM VCSH SCT028 OVC050 FM070600
                       VRB03KT P6SM OVC028 FM071200 VRB03KT P6SM
                       OVC015 FM072000 VRB03KT P6SM BKN025 OVC060
                       FM072200 VRB03KT P6SM SCT035 SCT060 BKN110=
201201062059 KBFI 062059Z 0621/0718 16005KT P6SM SCT020 SCT050 OVC110 FM062300
                       16005KT P6SM SCT028 BKN050 OVC110
                      TEMPO 0623/0702 -RA BKN028 OVC050 FM070200
                       13005KT P6SM BKN028 OVC050
                      TEMPO 0702/0706 -RA FM070600 VRB03KT P6SM
                       OVC028 FM071200 VRB03KT P6SM OVC015=
201201061743 TAF KBFI 061743Z 0618/0718 16005KT P6SM SCT012 OVC025
                      TEMPO 0618/0620 -RA BKN012 OVC025 FM062100
                       16005KT P6SM BKN028 BKN050 OVC110 FM062300
                       16005KT P6SM SCT028 BKN050 OVC110
                      TEMPO 0623/0702 -RA BKN028 OVC050 FM070200
                       13005KT P6SM BKN028 OVC050
                      TEMPO 0702/0706 -RA FM070600 VRB03KT P6SM
                       OVC028 FM071200 VRB03KT P6SM OVC015=
201201061137 TAF KBFI 061137Z 0612/0712 14005KT P6SM BKN018 OVC200 FM061800
                       14004KT P6SM SCT020 BKN150 FM062000 17005KT
                       P6SM SCT025 BKN100 OVC150 FM070100 15005KT
                       P6SM -RA BKN030 OVC060=
201201060909 KBFI 060909Z 0609/0706 14005KT P6SM BKN020 BKN200 FM061800 14004KT
                       P6SM SCT024 BKN150 FM062000 17005KT P6SM
                       BKN100 OVC150 FM070100 15005KT P6SM BKN035
                       OVC060=
201201060651 KBFI 060651Z 0607/0706 14008KT P6SM SCT020 BKN200
                      TEMPO 0607/0611 BKN020 BKN200 FM061100 14004KT
                       P6SM SCT020 BKN150
                      TEMPO 0611/0615 BKN020 BKN150 FM062000 17005KT
                       P6SM BKN100 OVC150 FM070100 15005KT P6SM
                       BKN035 OVC060=
201201060532 TAF KBFI 060532Z 0606/0706 14008KT P6SM FEW024 BKN200 FM061200
                       14004KT P6SM SCT024 BKN150
                      TEMPO 0612/0616 BKN024 BKN150 FM062000 17005KT
                       P6SM BKN100 OVC150 FM070100 15005KT P6SM
                       BKN035 OVC060=
201201052329 TAF KBFI 052329Z 0600/0624 18013G19KT P6SM VCSH SCT023 BKN040 FM060300
                       17008KT P6SM BKN050 FM062100 17004KT P6SM
                       BKN090 OVC200=
201201051741 TAF KBFI 051741Z 0518/0618 19008G16KT P6SM VCSH SCT020 BKN025 FM052100
                       18012KT P6SM VCSH BKN025 FM060000 18008KT
                       P6SM BKN050 FM061200 14003KT P6SM BKN090
                       BKN200=
201201051136 TAF KBFI 051136Z 0512/0612 17010G18KT P6SM SCT025 BKN050
                      TEMPO 0512/0516 -SHRA BKN025 BKN050 FM051800
                       18008KT P6SM VCSH SCT025 BKN070
                      TEMPO 0520/0524 -SHRA BKN025 BKN070 FM060100
                       18007KT P6SM SCT025 BKN080=
201201050541 TAF KBFI 050541Z 0506/0606 21008G18KT P6SM SCT027 BKN050
                      TEMPO 0507/0511 BKN027 OVC050 FM051100 18008KT
                       P6SM BKN025 BKN050 FM051800 18010KT P6SM
                       SCT030 BKN070 FM052100 18008KT P6SM SCT030
                       BKN100=
201201050102 KBFI 050102Z 0501/0524 16014G20KT P6SM -RA SCT024 OVC060
                      TEMPO 0501/0503 5SM -RA BR OVC024 FM050700
                       19010KT P6SM VCSH OVC030 FM051400 18008KT
                       P6SM OVC020 FM052100 19008KT P6SM BKN050=
201201042338 TAF KBFI 042338Z 0500/0524 18009G18KT 2SM -RA BR SCT009 BKN015
                       OVC060
                      TEMPO 0500/0502 5SM -RA BR BKN008 OVC015
                       FM050700 19010KT P6SM VCSH OVC030 FM051400
                       18008KT P6SM OVC020 FM052100 19008KT P6SM
                       BKN050=
201201042100 KBFI 042100Z 0421/0518 14006KT 4SM RA BR BKN045 OVC050 FM042300
                       19011G21KT 6SM -RA BR OVC030 FM050700 21011KT
                       P6SM VCSH OVC050 FM051400 20006KT P6SM BKN025=
201201041724 TAF KBFI 041724Z 0418/0518 22007G17KT P6SM -RA BKN040 OVC060 FM042300
                       19011G21KT 6SM -RA BR OVC030 FM050700 21011KT
                       P6SM VCSH OVC050 FM051400 20006KT P6SM BKN025=
201201041138 TAF KBFI 041138Z 0412/0512 13005KT P6SM BKN080 FM041700 16008KT
                       P6SM -RA BKN050 OVC080 FM041900 16008KT
                       6SM -RA BR OVC025 FM042300 18010KT P6SM
                       -RA OVC020 FM050300 19012KT P6SM -SHRA OVC015=
201201040522 TAF KBFI 040522Z 0406/0506 13005KT P6SM SCT050 OVC080 FM041800
                       16009KT P6SM -RA BKN040 OVC060 FM042300
                       20010G20KT 5SM -RA BR OVC020=
201201032330 TAF KBFI 032330Z 0400/0424 00000KT P6SM -RA SCT030 OVC060 FM040600
                       15005KT P6SM BKN045 OVC080 FM041800 16009KT
                       P6SM -RA BKN040 OVC060 FM042300 20010G20KT
                       5SM -RA BR OVC020=
201201031731 TAF KBFI 031731Z 0318/0418 14006KT P6SM FEW040 BKN050 OVC180 FM032100
                       16008KT P6SM -RA BKN040 OVC080 FM040600
                       16005KT P6SM OVC100=
201201031139 TAF KBFI 031139Z 0312/0412 15005KT P6SM BKN045 OVC100 FM032000
                       15005KT P6SM -RA OVC050 FM040400 16006KT
                       P6SM BKN045 OVC120 FM040600 16006KT P6SM
                       SCT045 BKN120=
201201030531 TAF KBFI 030531Z 0306/0406 17010KT P6SM SCT035 OVC050 FM031200
                       15006KT P6SM SCT025 OVC050
                      TEMPO 0314/0318 BKN025 OVC050 FM031800 15006KT
                       P6SM -RA SCT025 OVC050=
201201030220 KBFI 030220Z 0302/0324 17018G32KT P6SM -RA BKN025 OVC035
                      TEMPO 0302/0303 5SM RA BR OVC022 FM030300
                       17016G25KT P6SM -RA OVC025 FM030500 15007KT
                       P6SM -SHRA OVC050 FM031900 16004KT P6SM
                       VCSH OVC050=
201201022335 TAF KBFI 022335Z 0300/0324 15005KT P6SM -RA SCT045 OVC080 FM030300
                       17009G18KT P6SM -RA OVC030 FM030600 15007KT
                       P6SM -SHRA OVC050 FM031900 16004KT P6SM
                       VCSH OVC050=
201201021735 TAF KBFI 021735Z 0218/0318 00000KT P6SM SCT120 OVC200 FM022000
                       14006KT P6SM OVC070 FM022200 14006KT P6SM
                       -RA OVC050 FM030000 18010KT P6SM -RA OVC025
                       FM030400 20008KT P6SM VCSH SCT020 BKN030
                       BKN045=
201201021140 TAF KBFI 021140Z 0212/0312 00000KT P6SM BKN200 FM021600 14006KT
                       P6SM BKN100 OVC200 FM022000 14006KT P6SM
                       OVC070 FM022200 14006KT P6SM -RA OVC050
                       FM030000 18010KT P6SM -RA OVC025 FM030400
                       20008KT P6SM VCSH SCT020 BKN030 BKN045=
201201020541 TAF KBFI 020541Z 0206/0306 12006KT P6SM BKN200 FM021400 14006KT
                       P6SM BKN100 OVC200 FM021900 14006KT P6SM
                       OVC070 FM022200 14006KT P6SM -RA OVC050
                       FM030100 18010KT P6SM -RA OVC025 FM030400
                       20008KT P6SM VCSH SCT020 BKN030 BKN045=
201201012335 TAF KBFI 012335Z 0200/0224 13010G15KT P6SM SCT060 SCT160 BKN210
                       FM021400 08006KT P6SM SCT050 BKN080 OVC130
                       FM021800 13006KT P6SM -RA OVC050 FM022200
                       18010KT P6SM -RA OVC030=
201201011730 TAF KBFI 011730Z 0118/0218 09008KT P6SM SCT060 BKN200
                      TEMPO 0118/0122 VRB03KT BKN060 OVC200 FM012300
                       06006KT P6SM BKN250=
201201011147 TAF KBFI 011147Z 0112/0212 00000KT P6SM BKN050 OVC070 FM011900
                       VRB03KT P6SM SCT050 BKN080 OVC120 FM012300
                       VRB03KT P6SM BKN200=
201201010529 TAF KBFI 010529Z 0106/0206 00000KT P6SM SCT080 OVC200 FM010800
                       VRB03KT P6SM -RA BKN040 OVC070 FM011200
                       VRB03KT P6SM -RA OVC040 FM011800 VRB03KT
                       P6SM SCT040 BKN070 OVC120=