##########################################################
# Query made at 02/17/2025 01:44:02 UTC
# Time interval: from 02/01/2012 00:00  to 02/29/2012 23:59  UTC
##########################################################

##########################################################
# KBFI, Seattle, Seattle Boeing Field (United States)
# WMO index: -----. WIGOS ID: Unknown
# Latitude 47-32-45N. Longitude 122-18-49W. Altitude 5 m.
##########################################################

###################################
#  METAR/SPECI from KBFI
###################################
201202292353 METAR KBFI 292353Z 18011G26KT 10SM BKN019 06/02 A2965 RMK AO2 PK WND 19026/2345 SLP040 60004 T00560017 10056 20033 51016 TSNO=
201202292253 METAR KBFI 292253Z 17016G21KT 10SM BKN019 OVC027 05/02 A2963 RMK AO2 PK WND 16029/2230 SLP034 T00500022=
201202292153 METAR KBFI 292153Z 18013G26KT 10SM SCT019 OVC027 05/02 A2962 RMK AO2 PK WND 16026/2148 RAB04E19 SLP030 P0000 T00500022=
201202292053 METAR KBFI 292053Z 17012G20KT 10SM BKN022 OVC029 05/02 A2960 RMK AO2 PK WND 18033/2033 RAE25 SLP024 P0001 60004 T00500017 51023=
201202291953 METAR KBFI 291953Z 17015G21KT 10SM -RA BKN022 OVC027 04/02 A2958 RMK AO2 PK WND 16028/1938 SLP017 P0002 T00440017=
201202291853 METAR KBFI 291853Z 18013G21KT 7SM -RA BKN021 OVC026 04/02 A2956 RMK AO2 PK WND 17029/1809 SNE1756 SLP009 P0001 T00440017=
201202291753 METAR KBFI 291753Z 17014G23KT 6SM -RASN BKN019 OVC026 03/01 A2954 RMK AO2 PK WND 16026/1740 SNB39 SLP001 P0002 60003 T00330006 10039 20006 55001=
201202291653 METAR KBFI 291653Z 17014G19KT 5SM -RA OVC023 04/M01 A2953 RMK AO2 RAB49 SLP001 P0001 T00391011=
201202291648 SPECI KBFI 291648Z 15013G18KT 10SM OVC027 04/M01 A2953 RMK AO2 P0001=
201202291648 SPECI KBFI 291648Z 15013G18KT 10SM OVC027 04/M01 A2953 RMK AO2 P0001=
201202291553 METAR KBFI 291553Z 13009KT 10SM BKN040 OVC070 03/M02 A2954 RMK AO2 SLP002 T00331017=
201202291453 METAR KBFI 291453Z 13006KT 10SM SCT046 02/M01 A2955 RMK AO2 SLP006 T00171006 58008=
201202291353 METAR KBFI 291353Z 14008G14KT 10SM FEW047 02/00 A2957 RMK AO2 SLP013 T00170000=
201202291253 METAR KBFI 291253Z 10005KT 10SM FEW015 SCT050 BKN095 02/01 A2958 RMK AO2 SLP016 T00220006=
201202291153 METAR KBFI 291153Z 23006KT 10SM FEW018 BKN037 02/00 A2957 RMK AO2 RAB21E42 SLP014 P0000 60007 70019 T00220000 10056 20022 51009=
201202291126 SPECI KBFI 291126Z 19012G21KT 10SM -RA BKN021 OVC028 03/00 A2958 RMK AO2 RAB21 P0000=
201202291126 SPECI KBFI 291126Z 19012G21KT 10SM -RA BKN021 OVC028 03/00 A2958 RMK AO2 RAB21 P0000=
201202291053 METAR KBFI 291053Z 19010G16KT 10SM FEW022 BKN050 04/M01 A2957 RMK AO2 RAB33E42 SLP014 P0000 T00391006=
201202290955 SPECI KBFI 290955Z 17009KT 10SM FEW028 OVC050 04/01 A2956 RMK AO2=
201202290955 SPECI KBFI 290955Z 17009KT 10SM FEW028 OVC050 04/01 A2956 RMK AO2=
201202290953 METAR KBFI 290953Z 17009KT 10SM SCT019 BKN024 OVC050 04/01 A2956 RMK AO2 RAE33 SLP010 P0001 T00390011=
201202290853 METAR KBFI 290853Z 13006KT 10SM -RA SCT019 BKN024 OVC050 03/02 A2955 RMK AO2 RAB03E13B48 SLP004 P0000 60006 T00330017 51009=
201202290849 SPECI KBFI 290849Z 13007KT 10SM -RA BKN022 BKN028 OVC050 03/02 A2955 RMK AO2 RAB03E13B48 P0000=
201202290849 SPECI KBFI 290849Z 13007KT 10SM -RA BKN022 BKN028 OVC050 03/02 A2955 RMK AO2 RAB03E13B48 P0000=
201202290753 METAR KBFI 290753Z 14009KT 10SM FEW024 OVC050 04/02 A2952 RMK AO2 RAE30 SLP995 P0001 T00390017 400721006=
201202290653 METAR KBFI 290653Z 17015G22KT 8SM -RA OVC028 06/02 A2949 RMK AO2 SLP987 P0005 T00560022=
201202290553 METAR KBFI 290553Z 14015G23KT 10SM -RA OVC036 06/M01 A2947 RMK AO2 RAB15 SLP980 P0000 60012 T00561011 10072 20028 55013=
201202290453 METAR KBFI 290453Z 14009G16KT 10SM OVC055 06/M02 A2946 RMK AO2 RAE17 SLP977 P0001 T00561022=
201202290412 SPECI KBFI 290412Z 10012G21KT 10SM -RA OVC035 05/M01 A2947 RMK AO2 P0001=
201202290412 SPECI KBFI 290412Z 10012G21KT 10SM -RA OVC035 05/M01 A2947 RMK AO2 P0001=
201202290353 METAR KBFI 290353Z 12016G22KT 8SM -RA OVC029 05/M01 A2950 RMK AO2 RAE0259B24 SLP989 P0001 T00501011=
201202290253 METAR KBFI 290253Z 11008KT 10SM -RA SCT017 OVC034 04/00 A2951 RMK AO2 SNE49 PRESFR SLP993 P0002 60010 T00390000 58024=
201202290250 SPECI KBFI 290250Z 11009KT 10SM -RA SCT017 OVC034 03/01 A2952 RMK AO2 SNE49 PRESFR P0002=
201202290250 SPECI KBFI 290250Z 11009KT 10SM -RA SCT017 OVC034 03/01 A2952 RMK AO2 SNE49 PRESFR P0002=
201202290153 METAR KBFI 290153Z 13012KT 7SM -RASN BKN012 OVC030 03/01 A2956 RMK AO2 SNB44 SLP010 P0008 T00330006=
201202290150 SPECI KBFI 290150Z 13013KT 7SM -RASN BKN012 OVC030 03/01 A2957 RMK AO2 SNB44 P0007=
201202290150 SPECI KBFI 290150Z 13013KT 7SM -RASN BKN012 OVC030 03/01 A2957 RMK AO2 SNB44 P0007=
201202290053 METAR KBFI 290053Z 11009G16KT 10SM -RA OVC018 06/00 A2958 RMK AO2 RAB18 SLP017 P0000 T00560000=
201202282353 METAR KBFI 282353Z 14009KT 10SM BKN045 BKN055 OVC070 07/M04 A2961 RMK AO2 SLP027 T00671044 10072 20039 56047=
201202282253 METAR KBFI 282253Z 13013G21KT 10SM BKN048 OVC060 07/M04 A2965 RMK AO2 SLP041 T00721039=
201202282153 METAR KBFI 282153Z 12008KT 10SM OVC070 07/M04 A2970 RMK AO2 SLP057 T00671044=
201202282053 METAR KBFI 282053Z 19009KT 10SM SCT050 SCT100 OVC200 07/M04 A2975 RMK AO2 SLP074 T00671044 57026=
201202281953 METAR KBFI 281953Z COR 17009KT 10SM SCT050 SCT100 OVC200 07/M06 A2978 RMK AO2 SLP083 T00721056=
201202281853 METAR KBFI 281853Z 17004KT 10SM SCT050 SCT100 OVC200 06/M04 A2980 RMK AO2 SLP092 T00561039=
201202281753 METAR KBFI 281753Z 15006KT 10SM SCT050 OVC100 04/M04 A2983 RMK AO2 SLP100 T00391039 10039 21006 58012=
201202281653 METAR KBFI 281653Z 13006KT 10SM BKN100 OVC150 02/M04 A2985 RMK AO2 SLP109 T00221039=
201202281553 METAR KBFI 281553Z 14005KT 10SM SCT110 OVC200 01/M04 A2986 RMK AO2 SLP111 T00111044=
201202281453 METAR KBFI 281453Z 13005KT 10SM FEW110 OVC200 00/M04 A2986 RMK AO2 SLP112 T00001044 56021=
201202281353 METAR KBFI 281353Z 13005KT 10SM CLR 01/M04 A2988 RMK AO2 SLP119 T00111044=
201202281253 METAR KBFI 281253Z 12003KT 10SM OVC110 01/M04 A2990 RMK AO2 SLP125 T00111039=
201202281153 METAR KBFI 281153Z 14005KT 10SM CLR 00/M04 A2993 RMK AO2 SLP133 T00001039 10022 20000 58014=
201202281053 METAR KBFI 281053Z 14007KT 10SM SCT050 01/M03 A2994 RMK AO2 SLP138 T00111028=
201202280953 METAR KBFI 280953Z 13004KT 10SM FEW050 01/M03 A2996 RMK AO2 SLP143 T00111028=
201202280853 METAR KBFI 280853Z 14004KT 10SM BKN050 02/M02 A2997 RMK AO2 SLP147 T00171022 58016=
201202280753 METAR KBFI 280753Z 14005KT 10SM CLR 02/M03 A2999 RMK AO2 SLP153 T00171028 400671017=
201202280653 METAR KBFI 280653Z 13004KT 10SM CLR 02/M03 A3000 RMK AO2 SLP158 T00171028=
201202280553 METAR KBFI 280553Z 14005KT 10SM CLR 01/M03 A3002 RMK AO2 SLP163 T00061028 10061 20006 57012=
201202280453 METAR KBFI 280453Z 00000KT 10SM CLR 03/M03 A3003 RMK AO2 SLP169 T00281028=
201202280353 METAR KBFI 280353Z 16003KT 10SM CLR 02/M04 A3004 RMK AO2 SLP171 T00221039=
201202280253 METAR KBFI 280253Z 00000KT 10SM CLR 04/M04 A3005 RMK AO2 SLP176 T00391039 56010=
201202280153 METAR KBFI 280153Z 00000KT 10SM CLR 05/M06 A3006 RMK AO2 SLP178 T00501056=
201202280053 METAR KBFI 280053Z VRB03KT 10SM SCT250 06/M04 A3007 RMK AO2 SLP182 T00561044=
201202272353 METAR KBFI 272353Z 26006KT 10SM CLR 06/M03 A3008 RMK AO2 SLP186 T00561028 10067 20022 56028=
201202272253 METAR KBFI 272253Z VRB04KT 10SM FEW060 BKN200 06/M04 A3010 RMK AO2 SLP191 T00611039=
201202272153 METAR KBFI 272153Z VRB03KT 10SM CLR 06/M04 A3013 RMK AO2 SLP203 T00611039=
201202272053 METAR KBFI 272053Z 32004KT 10SM CLR 06/M04 A3016 RMK AO2 SLP214 T00561044 58016=
201202271953 METAR KBFI 271953Z VRB04KT 10SM FEW070 BKN250 04/M04 A3019 RMK AO2 SLP223 T00441044=
201202271853 METAR KBFI 271853Z 04005KT 10SM CLR 04/M03 A3020 RMK AO2 SLP226 T00391033=
201202271753 METAR KBFI 271753Z 35006KT 10SM CLR 03/M04 A3021 RMK AO2 SLP230 T00281039 10028 21017 50002=
201202271653 METAR KBFI 271653Z VRB03KT 10SM CLR 02/M04 A3022 RMK AO2 SLP232 T00171044=
201202271553 METAR KBFI 271553Z VRB03KT 10SM CLR 00/M04 A3022 RMK AO2 SLP231 T00001044=
201202271453 METAR KBFI 271453Z 00000KT 10SM CLR M01/M04 A3021 RMK AO2 SLP228 T10111044 58003=
201202271353 METAR KBFI 271353Z 00000KT 10SM CLR M01/M04 A3022 RMK AO2 SLP232 T10061044=
201202271253 METAR KBFI 271253Z 00000KT 10SM CLR 00/M04 A3022 RMK AO2 SLP232 T00001044=
201202271153 METAR KBFI 271153Z VRB03KT 10SM CLR 00/M04 A3022 RMK AO2 SLP231 T00001039 10022 21006 51006=
201202271053 METAR KBFI 271053Z 36003KT 10SM CLR 00/M03 A3021 RMK AO2 SLP230 T00001033=
201202270953 METAR KBFI 270953Z 02004KT 10SM CLR 00/M03 A3021 RMK AO2 SLP228 T00001033=
201202270853 METAR KBFI 270853Z 00000KT 10SM CLR 01/M03 A3020 RMK AO2 SLP224 T00061028 53006=
201202270753 METAR KBFI 270753Z 01003KT 10SM CLR 02/M03 A3018 RMK AO2 SLP220 T00171028 400610011=
201202270653 METAR KBFI 270653Z 00000KT 10SM CLR 02/M03 A3018 RMK AO2 SLP219 T00171033=
201202270553 METAR KBFI 270553Z 00000KT 10SM CLR 02/M04 A3018 RMK AO2 SLP218 T00221039 10050 20022 53006=
201202270453 METAR KBFI 270453Z 00000KT 10SM CLR 03/M03 A3017 RMK AO2 SLP216 T00281033=
201202270353 METAR KBFI 270353Z 35006KT 10SM BKN060 03/M03 A3017 RMK AO2 SLP215 T00281028=
201202270253 METAR KBFI 270253Z 00000KT 10SM SCT060 03/M03 A3016 RMK AO2 SLP213 T00331028 53006=
201202270153 METAR KBFI 270153Z 35005KT 10SM SCT060 04/M03 A3015 RMK AO2 SLP208 T00391033=
201202270053 METAR KBFI 270053Z 32007KT 10SM SCT045 BKN060 05/M04 A3014 RMK AO2 SLP204 T00501044=
201202262353 METAR KBFI 262353Z 05003KT 10SM OVC050 05/M02 A3014 RMK AO2 SLP206 T00501022 10061 20028 56007=
201202262253 METAR KBFI 262253Z 00000KT 10SM SCT035 SCT060 05/M02 A3014 RMK AO2 SLP206 T00501022=
201202262153 METAR KBFI 262153Z 18003KT 10SM BKN049 04/M01 A3015 RMK AO2 SLP209 T00391006=
201202262053 METAR KBFI 262053Z 12007KT 10SM BKN038 03/00 A3016 RMK AO2 SLP213 T00330000 58005=
201202261953 METAR KBFI 261953Z 06004KT 10SM BKN027 OVC035 04/M02 A3017 RMK AO2 SLP217 T00391017=
201202261853 METAR KBFI 261853Z 00000KT 10SM BKN017 BKN043 04/M01 A3017 RMK AO2 SLP215 T00441011=
201202261753 METAR KBFI 261753Z 24003KT 10SM BKN017 BKN050 04/01 A3018 RMK AO2 SLP218 T00390006 10039 20028 51003=
201202261653 METAR KBFI 261653Z 00000KT 10SM BKN015 BKN044 OVC050 03/00 A3018 RMK AO2 SLP218 T00330000=
201202261553 METAR KBFI 261553Z 00000KT 10SM BKN018 03/M01 A3017 RMK AO2 SLP216 T00281006=
201202261453 METAR KBFI 261453Z 19004KT 10SM OVC021 03/00 A3017 RMK AO2 SLP215 T00330000 56009=
201202261353 METAR KBFI 261353Z 15004KT 10SM BKN021 OVC026 03/00 A3017 RMK AO2 SLP217 T00330000=
201202261253 METAR KBFI 261253Z VRB06KT 10SM BKN023 03/00 A3018 RMK AO2 SLP219 T00280000=
201202261153 METAR KBFI 261153Z 18005KT 10SM BKN019 OVC026 03/00 A3019 RMK AO2 SLP224 T00330000 10039 20028 58005=
201202261053 METAR KBFI 261053Z 18005KT 10SM BKN022 OVC030 03/00 A3021 RMK AO2 SLP228 T00330000=
201202261000 SPECI KBFI 261000Z 19007KT 10SM BKN026 OVC031 04/00 A3022 RMK AO2=
201202261000 SPECI KBFI 261000Z 19007KT 10SM BKN026 OVC031 04/00 A3022 RMK AO2=
201202260953 METAR KBFI 260953Z 18005KT 10SM SCT026 04/M01 A3022 RMK AO2 SLP231 T00391006=
201202260853 METAR KBFI 260853Z 18005KT 10SM SCT026 BKN030 03/M01 A3021 RMK AO2 SLP229 T00331006 53007=
201202260753 METAR KBFI 260753Z VRB05KT 10SM BKN026 03/M01 A3020 RMK AO2 SLP226 T00331006 400720017=
201202260653 METAR KBFI 260653Z 17006KT 10SM OVC026 03/00 A3020 RMK AO2 SLP225 T00330000=
201202260553 METAR KBFI 260553Z 12005KT 10SM SCT022 03/M01 A3019 RMK AO2 SLP222 60000 T00331006 10072 20017 51016=
201202260453 METAR KBFI 260453Z VRB04KT 10SM FEW026 SCT090 03/M01 A3017 RMK AO2 SLP217 T00331006=
201202260353 METAR KBFI 260353Z 16007KT 10SM SCT085 04/M01 A3016 RMK AO2 SLP212 T00391006=
201202260253 METAR KBFI 260253Z COR 20006G14KT 10SM SCT080 05/M01 A3014 RMK AO2 SLP206 60000 T00501011 53020=
201202260153 METAR KBFI 260153Z 19007KT 10SM SCT050 06/M01 A3011 RMK AO2 SLP197 T00611011=
201202260053 METAR KBFI 260053Z 00000KT 10SM FEW070 BKN080 OVC100 07/00 A3009 RMK AO2 RAB22E33 SLP190 P0000 T00720000=
201202252353 METAR KBFI 252353Z 18005KT 10SM SCT048 BKN055 07/01 A3008 RMK AO2 RAB04E19 SLP187 P0000 60000 T00670006 10072 20050 51014=
201202252253 METAR KBFI 252253Z 19007KT 10SM FEW032 SCT043 OVC090 07/00 A3007 RMK AO2 SLP183 T00720000=
201202252153 METAR KBFI 252153Z VRB03KT 10SM BKN032 OVC045 07/01 A3006 RMK AO2 SLP177 T00670011=
201202252053 METAR KBFI 252053Z VRB04KT 10SM BKN024 OVC033 06/01 A3004 RMK AO2 SLP172 T00610006 51025=
201202251953 METAR KBFI 251953Z 19008KT 10SM SCT028 BKN033 BKN095 06/01 A3003 RMK AO2 SLP168 T00560006=
201202251853 METAR KBFI 251853Z 19008KT 10SM SCT026 OVC075 06/01 A3000 RMK AO2 SLP158 T00560006=
201202251753 METAR KBFI 251753Z 00000KT 10SM SCT029 BKN060 OVC085 05/01 A2997 RMK AO2 SLP148 T00500006 10050 20044 51050=
201202251653 METAR KBFI 251653Z 19005KT 10SM FEW028 OVC055 04/00 A2993 RMK AO2 SLP134 T00440000=
201202251623 SPECI KBFI 251623Z 23007KT 10SM BKN032 OVC060 04/00 A2991 RMK AO2=
201202251623 SPECI KBFI 251623Z 23007KT 10SM BKN032 OVC060 04/00 A2991 RMK AO2=
201202251616 SPECI KBFI 251616Z 21003KT 10SM BKN029 OVC035 04/00 A2991 RMK AO2=
201202251616 SPECI KBFI 251616Z 21003KT 10SM BKN029 OVC035 04/00 A2991 RMK AO2=
201202251600 SPECI KBFI 251600Z 00000KT 10SM BKN031 OVC035 04/M01 A2989 RMK AO2=
201202251600 SPECI KBFI 251600Z 00000KT 10SM BKN031 OVC035 04/M01 A2989 RMK AO2=
201202251553 METAR KBFI 251553Z 14009G14KT 10SM BKN026 BKN031 OVC080 04/00 A2988 RMK AO2 SLP118 T00440000=
201202251453 METAR KBFI 251453Z 20004KT 10SM BKN026 BKN031 OVC080 04/00 A2982 RMK AO2 SLP097 T00440000 53053=
201202251353 METAR KBFI 251353Z VRB04KT 10SM BKN026 OVC085 04/01 A2977 RMK AO2 SLP081 T00440006=
201202251253 METAR KBFI 251253Z 22009G16KT 10SM FEW022 SCT043 OVC065 04/01 A2971 RMK AO2 SLP060 T00440011=
201202251153 METAR KBFI 251153Z 21008G17KT 10SM FEW020 BKN055 OVC075 05/02 A2966 RMK AO2 SLP045 60015 70049 T00500017 10072 20050 53022=
201202251141 SPECI KBFI 251141Z 21007G16KT 10SM FEW020 SCT027 OVC055 05/02 A2965 RMK AO2=
201202251141 SPECI KBFI 251141Z 21007G16KT 10SM FEW020 SCT027 OVC055 05/02 A2965 RMK AO2=
201202251053 METAR KBFI 251053Z 18014G17KT 10SM OVC016 06/03 A2962 RMK AO2 SLP030 T00560033=
201202250953 METAR KBFI 250953Z 19013G22KT 10SM BKN018 OVC023 06/03 A2961 RMK AO2 RAB0856E09 SLP025 P0001 T00610033=
201202250853 METAR KBFI 250853Z 17013G21KT 10SM BKN018 OVC027 06/04 A2960 RMK AO2 SLP022 60014 T00610044 55007=
201202250844 SPECI KBFI 250844Z 18011G18KT 10SM FEW016 BKN027 OVC033 06/04 A2960 RMK AO2=
201202250844 SPECI KBFI 250844Z 18011G18KT 10SM FEW016 BKN027 OVC033 06/04 A2960 RMK AO2=
201202250755 SPECI KBFI 250755Z 17009KT 10SM FEW080 06/04 A2960 RMK AO2=
201202250755 SPECI KBFI 250755Z 17009KT 10SM FEW080 06/04 A2960 RMK AO2=
201202250753 METAR KBFI 250753Z 17009KT 6SM BR SCT013 BKN022 OVC028 06/04 A2960 RMK AO2 RAE29 SLP022 P0004 T00610039 400780044=
201202250703 SPECI KBFI 250703Z 19007KT 5SM -RA BR SCT013 BKN022 OVC028 07/05 A2961 RMK AO2 P0003=
201202250703 SPECI KBFI 250703Z 19007KT 5SM -RA BR SCT013 BKN022 OVC028 07/05 A2961 RMK AO2 P0003=
201202250653 METAR KBFI 250653Z 19006KT 4SM RA BR FEW016 OVC030 07/05 A2961 RMK AO2 RAB14 SLP027 P0010 T00670050=
201202250553 METAR KBFI 250553Z 18007KT 10SM BKN030 OVC042 07/05 A2962 RMK AO2 RAB05E11 SLP029 P0000 60021 T00720050 10078 20061 55013=
201202250453 METAR KBFI 250453Z 17011G17KT 10SM SCT032 BKN041 07/04 A2961 RMK AO2 SLP027 T00720044=
201202250353 METAR KBFI 250353Z 17011G20KT 10SM BKN039 OVC055 08/05 A2963 RMK AO2 RAE04 SLP033 P0000 T00780050=
201202250253 METAR KBFI 250253Z 16012G20KT 10SM -RA BKN050 OVC070 07/05 A2966 RMK AO2 SLP042 P0003 60021 T00670050 58029=
201202250153 METAR KBFI 250153Z 18005KT 10SM -RA FEW033 OVC043 07/05 A2970 RMK AO2 SLP056 P0008 T00670050=
201202250053 METAR KBFI 250053Z 00000KT 3SM -RA BR OVC036 07/06 A2971 RMK AO2 SLP061 P0010 T00670056=
201202242353 METAR KBFI 242353Z 00000KT 4SM -RA BR OVC040 07/05 A2974 RMK AO2 SLP071 P0009 60013 T00670050 10072 20061 56048=
201202242253 METAR KBFI 242253Z 13005KT 10SM -RA OVC050 07/04 A2978 RMK AO2 SLP082 P0003 T00670044=
201202242153 METAR KBFI 242153Z 15004KT 10SM -RA OVC045 07/04 A2983 RMK AO2 RAE15B33 SLP102 P0000 T00720039=
201202242053 METAR KBFI 242053Z 17003KT 10SM -RA OVC047 07/03 A2989 RMK AO2 RAB21 PRESFR SLP120 P0001 60001 T00720033 58035=
201202241953 METAR KBFI 241953Z VRB05KT 10SM OVC047 07/03 A2994 RMK AO2 RAB17E42 SLP137 P0000 T00670033=
201202241853 METAR KBFI 241853Z 00000KT 10SM OVC049 07/02 A2997 RMK AO2 SLP148 T00670017=
201202241753 METAR KBFI 241753Z 14004KT 10SM OVC047 06/03 A2999 RMK AO2 SLP154 T00610033 10061 20044 56049=
201202241653 METAR KBFI 241653Z 14007KT 10SM BKN041 OVC055 06/02 A3004 RMK AO2 SLP172 T00610022=
201202241553 METAR KBFI 241553Z 15007KT 10SM OVC043 06/02 A3008 RMK AO2 SLP185 T00610017=
201202241453 METAR KBFI 241453Z 13006KT 10SM OVC039 06/02 A3013 RMK AO2 SLP203 T00560017 56028=
201202241353 METAR KBFI 241353Z 14009KT 10SM SCT043 OVC060 06/02 A3015 RMK AO2 PRESFR SLP208 T00560017=
201202241253 METAR KBFI 241253Z 13007KT 10SM OVC065 05/02 A3018 RMK AO2 SLP220 T00500022=
201202241153 METAR KBFI 241153Z 13007KT 10SM BKN041 OVC085 05/02 A3021 RMK AO2 SLP231 60001 70001 T00500022 10061 20050 58023=
201202241053 METAR KBFI 241053Z 16009KT 10SM FEW038 OVC065 06/02 A3025 RMK AO2 RAE31 SLP244 P0000 T00560022=
201202241031 SPECI KBFI 241031Z 16009KT 10SM FEW020 BKN047 OVC070 06/02 A3026 RMK AO2 RAE31 P0000=
201202241031 SPECI KBFI 241031Z 16009KT 10SM FEW020 BKN047 OVC070 06/02 A3026 RMK AO2 RAE31 P0000=
201202241021 SPECI KBFI 241021Z 16008KT 10SM -RA SCT020 BKN027 OVC070 06/03 A3026 RMK AO2 P0000=
201202241021 SPECI KBFI 241021Z 16008KT 10SM -RA SCT020 BKN027 OVC070 06/03 A3026 RMK AO2 P0000=
201202240953 METAR KBFI 240953Z 16007KT 10SM -RA FEW027 BKN039 OVC060 06/03 A3027 RMK AO2 RAB27 SLP250 P0001 T00560028=
201202240853 METAR KBFI 240853Z 17006KT 10SM OVC070 06/02 A3028 RMK AO2 SLP254 T00560022 58009=
201202240753 METAR KBFI 240753Z 15005KT 10SM FEW024 SCT030 OVC070 06/02 A3030 RMK AO2 SLP258 T00560022 400890033=
201202240653 METAR KBFI 240653Z 18005KT 10SM BKN070 OVC090 06/02 A3030 RMK AO2 SLP261 T00560017=
201202240553 METAR KBFI 240553Z 15007KT 10SM OVC095 05/01 A3031 RMK AO2 SLP264 T00500011 10089 20050 58007=
201202240453 METAR KBFI 240453Z 19005KT 10SM OVC090 06/01 A3033 RMK AO2 SLP269 T00610011=
201202240353 METAR KBFI 240353Z 21004KT 10SM BKN085 BKN120 06/01 A3033 RMK AO2 SLP270 T00610011=
201202240253 METAR KBFI 240253Z 21006KT 10SM SCT040 BKN095 07/01 A3033 RMK AO2 SLP271 T00670011 56006=
201202240153 METAR KBFI 240153Z VRB03KT 10SM BKN055 OVC100 07/02 A3033 RMK AO2 SLP271 T00720017=
201202240053 METAR KBFI 240053Z AUTO 19005KT 10SM FEW055 OVC100 08/01 A3034 RMK AO2 SLP273 T00780011 TSNO=
201202232353 METAR KBFI 232353Z AUTO 18005KT 10SM BKN039 OVC049 09/01 A3035 RMK AO2 SLP277 T00890011 10089 20056 56014 TSNO=
201202232253 METAR KBFI 232253Z 16005KT 10SM FEW034 BKN055 OVC120 09/02 A3036 RMK AO2 SLP280 T00890017=
201202232153 METAR KBFI 232153Z 23005KT 10SM FEW030 OVC110 08/01 A3038 RMK AO2 SLP285 T00830011=
201202232053 METAR KBFI 232053Z 22007KT 10SM SCT026 BKN028 08/02 A3039 RMK AO2 SLP291 T00780017 58005=
201202231953 METAR KBFI 231953Z 16004KT 10SM OVC028 07/02 A3041 RMK AO2 SLP296 T00670017=
201202231853 METAR KBFI 231853Z 17006KT 10SM OVC024 06/02 A3041 RMK AO2 SLP297 T00610017=
201202231753 METAR KBFI 231753Z 14008KT 10SM OVC022 06/02 A3041 RMK AO2 SLP296 T00560017 10056 20044 53009=
201202231653 METAR KBFI 231653Z 14006KT 10SM OVC022 06/02 A3040 RMK AO2 SLP292 T00560017=
201202231553 METAR KBFI 231553Z 15006KT 10SM OVC020 05/02 A3038 RMK AO2 SLP288 T00500017=
201202231453 METAR KBFI 231453Z 14006KT 10SM OVC020 05/01 A3038 RMK AO2 SLP288 T00500011 50001=
201202231353 METAR KBFI 231353Z 16006KT 10SM OVC020 05/01 A3039 RMK AO2 SLP288 T00500011=
201202231253 METAR KBFI 231253Z 16006KT 10SM OVC020 04/02 A3039 RMK AO2 SLP289 T00440017=
201202231153 METAR KBFI 231153Z 14008KT 10SM OVC020 04/02 A3038 RMK AO2 SLP287 70021 T00440017 10056 20033 51013=
201202231053 METAR KBFI 231053Z 14008KT 10SM OVC020 04/01 A3037 RMK AO2 SLP285 T00390011=
201202231033 SPECI KBFI 231033Z 14009KT 10SM BKN020 BKN070 03/01 A3037 RMK AO2=
201202231033 SPECI KBFI 231033Z 14009KT 10SM BKN020 BKN070 03/01 A3037 RMK AO2=
201202230953 METAR KBFI 230953Z 14008KT 10SM SCT022 BKN070 BKN085 03/01 A3037 RMK AO2 SLP283 T00330011=
201202230944 SPECI KBFI 230944Z 15009KT 10SM SCT022 BKN070 04/01 A3036 RMK AO2=
201202230944 SPECI KBFI 230944Z 15009KT 10SM SCT022 BKN070 04/01 A3036 RMK AO2=
201202230933 SPECI KBFI 230933Z 15009KT 10SM BKN022 OVC075 04/01 A3036 RMK AO2=
201202230933 SPECI KBFI 230933Z 15009KT 10SM BKN022 OVC075 04/01 A3036 RMK AO2=
201202230853 METAR KBFI 230853Z 14009KT 10SM CLR 04/01 A3034 RMK AO2 SLP273 T00390011 52020=
201202230753 METAR KBFI 230753Z 14009KT 10SM CLR 03/01 A3032 RMK AO2 SLP265 T00330011 401170033=
201202230653 METAR KBFI 230653Z 14009KT 10SM FEW070 04/01 A3031 RMK AO2 SLP262 T00390011=
201202230553 METAR KBFI 230553Z 13007KT 10SM CLR 05/02 A3028 RMK AO2 SLP253 T00500017 10100 20044 51023=
201202230453 METAR KBFI 230453Z 16006KT 10SM FEW070 05/02 A3026 RMK AO2 SLP246 T00500022=
201202230353 METAR KBFI 230353Z VRB03KT 10SM SCT041 BKN085 06/02 A3024 RMK AO2 SLP240 T00610022=
201202230253 METAR KBFI 230253Z 00000KT 10SM SCT100 07/02 A3021 RMK AO2 SLP231 T00670017 53019=
201202230153 METAR KBFI 230153Z VRB05KT 10SM SCT095 08/02 A3019 RMK AO2 SLP222 T00780022=
201202230053 METAR KBFI 230053Z 22006KT 10SM CLR 09/02 A3017 RMK AO2 SLP217 T00940017=
201202222353 METAR KBFI 222353Z 21008KT 10SM CLR 09/03 A3016 RMK AO2 SLP211 T00940028 10117 20078 53010=
201202222253 METAR KBFI 222253Z 20006G16KT 10SM FEW050 BKN180 11/02 A3014 RMK AO2 SLP204 T01060022=
201202222153 METAR KBFI 222153Z 25010G18KT 10SM FEW047 BKN060 BKN075 11/01 A3013 RMK AO2 SLP201 T01110006=
201202222053 METAR KBFI 222053Z VRB06KT 10SM SCT045 11/03 A3013 RMK AO2 SLP201 T01110028 53009=
201202221953 METAR KBFI 221953Z 23006KT 10SM FEW025 11/02 A3012 RMK AO2 SLP197 T01060022=
201202221853 METAR KBFI 221853Z 24008KT 10SM SCT015 SCT025 BKN150 10/03 A3010 RMK AO2 SLP194 T01000028=
201202221753 METAR KBFI 221753Z 12010KT 10SM FEW013 SCT025 BKN150 08/06 A3010 RMK AO2 SLP192 60021 T00780056 10100 20067 53028=
201202221700 SPECI KBFI 221700Z 13008KT 10SM SCT025 OVC036 07/06 A3007 RMK AO2=
201202221700 SPECI KBFI 221700Z 13008KT 10SM SCT025 OVC036 07/06 A3007 RMK AO2=
201202221653 METAR KBFI 221653Z 16008KT 10SM BKN025 BKN036 07/06 A3007 RMK AO2 RAE39 SLP180 P0001 T00670056=
201202221553 METAR KBFI 221553Z 30003KT 7SM -RA SCT008 BKN025 OVC150 07/05 A3004 RMK AO2 SLP173 P0008 T00670050=
201202221453 METAR KBFI 221453Z 00000KT 2 1/2SM -RA BR OVC008 07/06 A3002 RMK AO2 SLP163 P0003 60012 T00670056 51019 $=
201202221405 SPECI KBFI 221405Z 36005KT 2 1/2SM -RA BR BKN006 07/06 A3001 RMK AO2 P0001 $=
201202221405 SPECI KBFI 221405Z 36005KT 2 1/2SM -RA BR BKN006 07/06 A3001 RMK AO2 P0001 $=
201202221353 METAR KBFI 221353Z 02003KT 3SM -RA BR OVC010 07/07 A3000 RMK AO2 RAB1257 SLP158 P0009 T00720067=
201202221348 SPECI KBFI 221348Z 31003KT 3SM -RA BR OVC010 07/07 A3000 RMK AO2 RAB1257 P0009=
201202221348 SPECI KBFI 221348Z 31003KT 3SM -RA BR OVC010 07/07 A3000 RMK AO2 RAB1257 P0009=
201202221328 SPECI KBFI 221328Z 32005KT 3SM -RA BR BKN009 OVC015 08/07 A2999 RMK AO2 RAB1257 P0006=
201202221328 SPECI KBFI 221328Z 32005KT 3SM -RA BR BKN009 OVC015 08/07 A2999 RMK AO2 RAB1257 P0006=
201202221317 SPECI KBFI 221317Z 33004KT 3SM -RA BR FEW007 BKN012 OVC017 08/07 A2999 RMK AO2 RAB1257 PRESRR P0005=
201202221317 SPECI KBFI 221317Z 33004KT 3SM -RA BR FEW007 BKN012 OVC017 08/07 A2999 RMK AO2 RAB1257 PRESRR P0005=
201202221307 SPECI KBFI 221307Z 36005KT 3SM -RA BR OVC015 08/08 A2997 RMK AO2 RAB1257 P0003=
201202221307 SPECI KBFI 221307Z 36005KT 3SM -RA BR OVC015 08/08 A2997 RMK AO2 RAB1257 P0003=
201202221303 SPECI KBFI 221303Z 01004KT 2 1/2SM RA BR BKN012 OVC019 09/08 A2997 RMK AO2 RAB1257 P0002=
201202221303 SPECI KBFI 221303Z 01004KT 2 1/2SM RA BR BKN012 OVC019 09/08 A2997 RMK AO2 RAB1257 P0002=
201202221253 METAR KBFI 221253Z 33005G15KT 10SM SCT012 OVC019 09/07 A2996 RMK AO2 SLP144 T00940072=
201202221153 METAR KBFI 221153Z 21012G22KT 10SM OVC017 10/08 A2995 RMK AO2 PK WND 21026/1124 SLP142 60001 7//// T01000078 10100 20094 56022=
201202221053 METAR KBFI 221053Z 19012G20KT 10SM OVC017 10/08 A2997 RMK AO2 SLP147 T01000078=
201202220953 METAR KBFI 220953Z 19009G22KT 10SM OVC017 10/08 A2999 RMK AO2 SLP154 P0001 T01000078=
201202220853 METAR KBFI 220853Z 19009G20KT 6SM BR OVC015 10/08 A3002 RMK AO2 RAB07E15 SLP164 P0000 60000 T01000078 58016=
201202220753 METAR KBFI 220753Z 18012G19KT 6SM BR OVC015 09/08 A3005 RMK AO2 RAB10E19 SLP175 P0000 T00940083 401060017=
201202220653 METAR KBFI 220653Z 19012G20KT 10SM BKN015 OVC075 10/08 A3005 RMK AO2 PK WND 20027/0614 SLP175 T01000078=
201202220633 SPECI KBFI 220633Z 19012G25KT 10SM BKN015 OVC080 10/08 A3005 RMK AO2 PK WND 20027/0614=
201202220633 SPECI KBFI 220633Z 19012G25KT 10SM BKN015 OVC080 10/08 A3005 RMK AO2 PK WND 20027/0614=
201202220617 SPECI KBFI 220617Z 19012G27KT 10SM SCT015 BKN065 OVC080 10/08 A3005 RMK AO2 PK WND 20027/0614=
201202220617 SPECI KBFI 220617Z 19012G27KT 10SM SCT015 BKN065 OVC080 10/08 A3005 RMK AO2 PK WND 20027/0614=
201202220553 METAR KBFI 220553Z 19017G25KT 10SM BKN017 OVC065 10/07 A3006 RMK AO2 PK WND 19029/0524 SLP180 T01000072 10106 20100 56003=
201202220453 METAR KBFI 220453Z 20012G22KT 10SM OVC014 10/07 A3006 RMK AO2 SLP180 T01000072=
201202220353 METAR KBFI 220353Z 21007KT 10SM OVC017 10/07 A3005 RMK AO2 SLP174 T01000072=
201202220253 METAR KBFI 220253Z 21007KT 10SM BKN017 OVC030 11/07 A3008 RMK AO2 SLP184 T01060072 53015=
201202220153 METAR KBFI 220153Z 21008G16KT 170V250 10SM OVC017 11/07 A3006 RMK AO2 SLP180 T01060072=
201202220053 METAR KBFI 220053Z 21007KT 10SM OVC019 11/07 A3004 RMK AO2 SLP172 T01060072=
201202212353 METAR KBFI 212353Z 23008G15KT 190V260 10SM OVC019 11/07 A3003 RMK AO2 SLP169 6//// T01060072 55003=
201202212253 METAR KBFI 212253Z 20016G28KT 180V240 10SM OVC019 11/08 A3001 RMK AO2 PK WND 18032/2212 SLP160 T01060078=
201202212153 METAR KBFI 212153Z 18016G28KT 10SM OVC015 10/08 A3001 RMK AO2 PK WND 19028/2147 SLP160 T01000078=
201202212121 SPECI KBFI 212121Z 18014G26KT 10SM OVC015 10/08 A3001 RMK AO2 PK WND 18027/2059=
201202212121 SPECI KBFI 212121Z 18014G26KT 10SM OVC015 10/08 A3001 RMK AO2 PK WND 18027/2059=
201202212053 METAR KBFI 212053Z COR 18014G21KT 10SM OVC015 10/08 A3004 RMK AO2 SLP172 6//// T01000078 $=
201202212050 METAR KBFI 212050Z 18007G20KT 10SM -RA OVC015 10/07=
201202212000 METAR KBFI NIL=
201202211948 METAR KBFI 211948Z 20010KT 10SM BKN015 OVC030 10/08=
201202211900 METAR KBFI 211900Z 19012KT 10SM OVC014 10/07=
201202211753 METAR KBFI 211753Z AUTO A3007 RMK AO2 SLP184 6//// PWINO FZRANO TSNO $=
201202211655 METAR KBFI 211655Z 21010KT 10SM OVC012 10/10=
201202211553 METAR KBFI 211553Z 22010KT 10SM OVC016 08/07=
201202211453 METAR KBFI 211453Z 20015KT 10SM OVC015 09/07=
201202211353 METAR KBFI 211353Z 20012KT 10SM OVC014 09/07=
201202211253 METAR KBFI 211253Z 19010KT 10SM OVC012 09/07=
201202211153 METAR KBFI 211153Z 18011G20KT 7SM OVC012 09/07=
201202211052 METAR KBFI 211052Z 18008KT 7SM OVC012 09/07=
201202211000 METAR KBFI NIL=
201202210952 METAR KBFI 210952Z 15008KT 7SM OVC008 08/07=
201202210853 METAR KBFI 210853Z 15009KT 4SM -RABR OVC008 08/07=
201202210800 METAR KBFI NIL=
201202210753 METAR KBFI 210753Z 14011KT 3SM -RABR OVC008 08/06=
201202210700 METAR KBFI NIL=
201202210652 METAR KBFI 210652Z 14010KT 4SM -RA BR OVC008 08/07=
201202210600 METAR KBFI NIL=
201202210553 METAR KBFI 210553Z 18010KT 5SM -RA BR BKN008 OVC010 08/07=
201202210500 METAR KBFI NIL=
201202210353 METAR KBFI 210353Z 17008KT 10SM -RA BKN014 OVC016 08/07=
201202210300 METAR KBFI NIL=
201202210245 METAR KBFI 210245Z 16011KT 10SM -RA SCT008 OVC015 08/07=
201202210200 METAR KBFI NIL=
201202210157 METAR KBFI 210157Z 19008KT 7SM -RA SCT008 OVC012 08/07=
201202210100 METAR KBFI NIL=
201202202353 METAR KBFI 202353Z 15005KT 6SM -RA BR BKN006 OVC008=
201202202253 METAR KBFI 202253Z 16003KT 4SM -RA BR OVC005=
201202202200 METAR KBFI NIL=
201202202147 METAR KBFI 202147Z 17005KT 4SM -RA BR BKN005 OVC015=
201202202125 SPECI KBFI 202125Z 17004KT 3SM -RA BR BKN005 OVC011=
201202202125 SPECI KBFI 202125Z 17004KT 3SM -RA BR BKN005 OVC011=
201202202100 METAR KBFI NIL=
201202202053 METAR KBFI 202053Z 15004KT 5SM BR OVC011=
201202202000 METAR KBFI NIL=
201202201900 METAR KBFI NIL=
201202201800 METAR KBFI NIL=
201202201700 METAR KBFI NIL=
201202201553 METAR KBFI 201553Z 00000KT 10SM OVC036 04/00 A2992 RMK AO2 SLP131 T00390000=
201202201453 METAR KBFI 201453Z 00000KT 10SM OVC046 03/00 A2993 RMK AO2 SLP136 T00330000 53016=
201202201353 METAR KBFI 201353Z 00000KT 10SM FEW040 OVC055 04/00 A2990 RMK AO2 SLP126 T00390000=
201202201253 METAR KBFI 201253Z 00000KT 10SM OVC037 03/M01 A2990 RMK AO2 SLP123 T00331006=
201202201153 METAR KBFI 201153Z 00000KT 10SM BKN047 OVC060 03/M01 A2989 RMK AO2 SLP120 T00331011 10039 20017 56017=
201202201053 METAR KBFI 201053Z 15004KT 10SM SCT070 OVC090 03/M01 A2989 RMK AO2 SLP122 T00281006=
201202200953 METAR KBFI 200953Z 16004KT 10SM SCT070 OVC090 03/M01 A2991 RMK AO2 SLP128 T00281006=
201202200853 METAR KBFI 200853Z 11003KT 10SM OVC085 03/M01 A2994 RMK AO2 SLP137 T00331006 55004=
201202200753 METAR KBFI 200753Z 13003KT 10SM CLR 03/M01 A2991 RMK AO2 SLP129 T00281011 400720017=
201202200653 METAR KBFI 200653Z 00000KT 10SM FEW090 04/M01 A2993 RMK AO2 SLP135 T00391011=
201202200553 METAR KBFI 200553Z 15005KT 10SM BKN110 03/M01 A2995 RMK AO2 SLP140 T00331006 10072 20033 58010=
201202200453 METAR KBFI 200453Z 14004KT 10SM FEW120 04/M01 A2997 RMK AO2 SLP148 T00441006=
201202200353 METAR KBFI 200353Z 12004KT 10SM BKN060 06/M01 A2998 RMK AO2 SLP151 T00561006=
201202200253 METAR KBFI 200253Z 15006KT 10SM OVC060 06/M01 A2998 RMK AO2 SLP151 T00611011 56014=
201202200153 METAR KBFI 200153Z 16004KT 10SM OVC055 07/M01 A2998 RMK AO2 SLP152 T00671006=
201202200053 METAR KBFI 200053Z 17005KT 10SM BKN060 OVC100 07/00 A2999 RMK AO2 SLP156 T00670000=
201202192353 METAR KBFI 192353Z 20003KT 10SM BKN060 07/00 A3002 RMK AO2 SLP164 T00720000 10072 20056 56019=
201202192253 METAR KBFI 192253Z 17010KT 10SM SCT034 BKN060 OVC150 07/00 A3003 RMK AO2 SLP169 T00720000=
201202192153 METAR KBFI 192153Z 20010G15KT 10SM SCT037 OVC055 07/00 A3005 RMK AO2 SLP175 T00670000=
201202192053 METAR KBFI 192053Z 18009KT 10SM OVC049 07/01 A3007 RMK AO2 SLP183 T00670006 58009=
201202191953 METAR KBFI 191953Z 19012G17KT 10SM BKN049 06/01 A3008 RMK AO2 SLP186 T00610006=
201202191920 SPECI KBFI 191920Z 21010KT 10SM FEW025 BKN032 OVC047 07/01 A3009 RMK AO2=
201202191920 SPECI KBFI 191920Z 21010KT 10SM FEW025 BKN032 OVC047 07/01 A3009 RMK AO2=
201202191853 METAR KBFI 191853Z 17008G15KT 10SM SCT022 BKN027 06/01 A3010 RMK AO2 SLP191 T00610006=
201202191753 METAR KBFI 191753Z 17009KT 10SM OVC025 06/01 A3010 RMK AO2 SLP192 T00560011 10056 20017 50003=
201202191653 METAR KBFI 191653Z 17004KT 10SM SCT020 BKN026 04/02 A3010 RMK AO2 SLP192 T00440017=
201202191553 METAR KBFI 191553Z 13006KT 10SM SCT020 03/01 A3010 RMK AO2 SLP192 T00280006=
201202191453 METAR KBFI 191453Z 13008KT 10SM SCT020 03/01 A3009 RMK AO2 SLP188 T00280006 58002=
201202191414 SPECI KBFI 191414Z 14008KT 10SM SCT020 03/01 A3009 RMK AO2=
201202191414 SPECI KBFI 191414Z 14008KT 10SM SCT020 03/01 A3009 RMK AO2=
201202191353 METAR KBFI 191353Z 15010KT 10SM BKN020 03/01 A3009 RMK AO2 SLP190 T00330006=
201202191253 METAR KBFI 191253Z 14008KT 10SM BKN022 BKN028 04/01 A3010 RMK AO2 SLP191 T00390011=
201202191153 METAR KBFI 191153Z 20008KT 10SM OVC020 05/01 A3009 RMK AO2 SLP190 70013 T00500011 10061 20050 51006=
201202191053 METAR KBFI 191053Z 22008KT 10SM OVC020 05/02 A3009 RMK AO2 SLP190 T00500017=
201202190953 METAR KBFI 190953Z 19009G16KT 10SM BKN020 OVC075 06/02 A3009 RMK AO2 SLP187 T00560017=
201202190856 SPECI KBFI 190856Z 20010G18KT 10SM OVC022 06/02 A3008 RMK AO2=
201202190856 SPECI KBFI 190856Z 20010G18KT 10SM OVC022 06/02 A3008 RMK AO2=
201202190853 METAR KBFI 190853Z 19008G16KT 10SM BKN045 OVC080 06/02 A3008 RMK AO2 SLP184 T00560017 52007=
201202190757 SPECI KBFI 190757Z 18009G16KT 10SM BKN045 OVC080 06/02 A3007 RMK AO2=
201202190757 SPECI KBFI 190757Z 18009G16KT 10SM BKN045 OVC080 06/02 A3007 RMK AO2=
201202190753 METAR KBFI 190753Z 17009G20KT 130V200 10SM BKN022 OVC075 06/02 A3007 RMK AO2 SLP182 T00560022 400780039=
201202190653 METAR KBFI 190653Z 18006KT 10SM OVC022 06/02 A3006 RMK AO2 SLP179 T00610022=
201202190553 METAR KBFI 190553Z VRB03KT 10SM BKN020 OVC040 06/03 A3006 RMK AO2 SLP177 T00610028 10078 20061 53018=
201202190453 METAR KBFI 190453Z 21003G14KT 10SM OVC022 06/03 A3004 RMK AO2 SLP171 T00610028=
201202190353 METAR KBFI 190353Z 19004KT 10SM OVC020 07/03 A3002 RMK AO2 SLP164 T00670033=
201202190253 METAR KBFI 190253Z 22005KT 10SM OVC017 07/04 A3000 RMK AO2 SLP159 T00670039 53030=
201202190153 METAR KBFI 190153Z 22007G14KT 10SM OVC023 07/04 A2997 RMK AO2 SLP149 T00720039=
201202190053 METAR KBFI 190053Z 19009G16KT 10SM BKN023 08/04 A2994 RMK AO2 SLP138 T00780044=
201202182353 METAR KBFI 182353Z 19012G23KT 10SM BKN020 BKN025 07/04 A2991 RMK AO2 PK WND 19031/2331 SLP129 60006 T00670039 10072 20050 55006=
201202182253 METAR KBFI 182253Z 18011G26KT 10SM BKN018 OVC026 06/04 A2991 RMK AO2 PK WND 18028/2214 SLP128 T00610039=
201202182153 METAR KBFI 182153Z 17021G28KT 10SM OVC018 06/03 A2991 RMK AO2 PK WND 17029/2143 RAE23 SLP129 P0001 T00560033=
201202182053 METAR KBFI 182053Z 17018G28KT 9SM -RA BKN020 OVC026 06/03 A2993 RMK AO2 PK WND 17031/2024 RAB14E23B47 SLP135 P0000 60005 T00560033 56008=
201202181953 METAR KBFI 181953Z 17017G23KT 10SM OVC017 06/03 A2994 RMK AO2 PK WND 18026/1924 RAE37 SLP137 P0002 T00560033=
201202181853 METAR KBFI 181853Z 17019G28KT 9SM -RA BKN017 BKN023 OVC028 05/03 A2995 RMK AO2 PK WND 17028/1852 SLP140 P0003 T00500028=
201202181753 METAR KBFI 181753Z 17016G22KT 10SM -RA OVC021 05/03 A2996 RMK AO2 PK WND 16029/1714 RAB1658 SLP144 P0002 60007 T00500028 10050 20039 58003=
201202181653 METAR KBFI 181653Z 17018G27KT 10SM BKN017 OVC030 05/02 A2997 RMK AO2 PK WND 16030/1631 RAB05E28 SLP147 P0000 T00500022=
201202181553 METAR KBFI 181553Z 16014G23KT 10SM BKN017 OVC030 04/02 A2997 RMK AO2 PK WND 17027/1502 RAE22 SLP147 P0001 T00440022=
201202181453 METAR KBFI 181453Z 18012G26KT 10SM -RA BKN019 BKN027 OVC034 04/02 A2997 RMK AO2 PK WND 18026/1445 RAB1354 SLP147 P0002 60004 T00440022 50004=
201202181353 METAR KBFI 181353Z 17016G21KT 10SM BKN016 OVC023 04/03 A2997 RMK AO2 RAB1258E52 SLP148 P0001 T00440028=
201202181253 METAR KBFI 181253Z AUTO 17016G22KT 10SM OVC020 04/03 A2996 RMK AO2 RAE37 SLP145 P0001 T00440028 TSNO=
201202181153 METAR KBFI 181153Z AUTO 17014G23KT 10SM -RA BKN018 BKN026 OVC033 04/03 A2996 RMK AO2 PK WND 16028/1120 SLP144 P0002 60010 70053 T00440028 10061 20044 57000 TSNO=
201202181150 SPECI KBFI 181150Z AUTO 17018G23KT 10SM -RA SCT018 BKN026 OVC033 04/03 A2996 RMK AO2 PK WND 16028/1120 P0002 TSNO=
201202181150 SPECI KBFI 181150Z AUTO 17018G23KT 10SM -RA SCT018 BKN026 OVC033 04/03 A2996 RMK AO2 PK WND 16028/1120 P0002 TSNO=
201202181138 SPECI KBFI 181138Z AUTO 17017G24KT 10SM -RA SCT018 SCT024 OVC037 05/03 A2995 RMK AO2 PK WND 16028/1120 P0002 TSNO=
201202181138 SPECI KBFI 181138Z AUTO 17017G24KT 10SM -RA SCT018 SCT024 OVC037 05/03 A2995 RMK AO2 PK WND 16028/1120 P0002 TSNO=
201202181053 METAR KBFI 181053Z 16015G22KT 10SM -RA FEW019 OVC029 05/03 A2996 RMK AO2 SLP144 P0003 T00500028=
201202180953 METAR KBFI 180953Z 17012G21KT 10SM -RA BKN018 OVC024 05/03 A2996 RMK AO2 RAB0856 SLP144 P0004 T00500028=
201202180932 SPECI KBFI 180932Z 17012G18KT 6SM -RA BR SCT018 BKN023 OVC029 06/03 A2996 RMK AO2 RAB0856 P0002=
201202180932 SPECI KBFI 180932Z 17012G18KT 6SM -RA BR SCT018 BKN023 OVC029 06/03 A2996 RMK AO2 RAB0856 P0002=
201202180853 METAR KBFI 180853Z 17015G23KT 10SM BKN037 OVC090 06/03 A2994 RMK AO2 RAB06E37 SLP138 P0000 60001 T00560028 55000=
201202180753 METAR KBFI 180753Z 17014G20KT 10SM FEW024 SCT030 OVC037 06/03 A2994 RMK AO2 RAB0654E04B31E41 SLP138 P0000 T00610033 401110056=
201202180751 SPECI KBFI 180751Z 17013KT 10SM FEW019 OVC034 06/03 A2994 RMK AO2 RAB0654E04B31E41 P0000 401110056=
201202180751 SPECI KBFI 180751Z 17013KT 10SM FEW019 OVC034 06/03 A2994 RMK AO2 RAB0654E04B31E41 P0000 401110056=
201202180723 SPECI KBFI 180723Z 17012KT 10SM FEW016 BKN021 OVC038 06/04 A2994 RMK AO2 RAB0654E04 P0000=
201202180723 SPECI KBFI 180723Z 17012KT 10SM FEW016 BKN021 OVC038 06/04 A2994 RMK AO2 RAB0654E04 P0000=
201202180653 METAR KBFI 180653Z 16013G20KT 10SM FEW019 BKN030 OVC042 06/04 A2994 RMK AO2 RAB22E35 SLP138 P0001 T00610039=
201202180553 METAR KBFI 180553Z 18009KT 10SM SCT022 BKN030 BKN035 06/04 A2994 RMK AO2 RAB22E47 SLP137 P0001 60021 T00610039 10094 20061 53002=
201202180539 SPECI KBFI 180539Z 17008KT 9SM -RA SCT021 BKN029 OVC036 06/04 A2994 RMK AO2 RAB22 P0001=
201202180539 SPECI KBFI 180539Z 17008KT 9SM -RA SCT021 BKN029 OVC036 06/04 A2994 RMK AO2 RAB22 P0001=
201202180453 METAR KBFI 180453Z 16011KT 10SM BKN050 BKN075 OVC090 06/04 A2993 RMK AO2 RAE51 SLP134 P0001 T00610044=
201202180353 METAR KBFI 180353Z 15012KT 6SM -RA BR FEW019 BKN030 OVC038 06/05 A2994 RMK AO2 RAB0255 SLP136 P0004 T00610050=
201202180253 METAR KBFI 180253Z 15015G22KT 10SM FEW039 BKN050 OVC070 07/04 A2993 RMK AO2 RAE01B23E49 SLP135 P0001 60015 T00670044 53015=
201202180153 METAR KBFI 180153Z 20013G20KT 10SM -RA OVC044 07/04 A2989 RMK AO2 SLP122 P0008 T00720044=
201202180129 SPECI KBFI 180129Z 20009G17KT 10SM -RA FEW012 SCT029 OVC040 07/05 A2989 RMK AO2 P0007=
201202180129 SPECI KBFI 180129Z 20009G17KT 10SM -RA FEW012 SCT029 OVC040 07/05 A2989 RMK AO2 P0007=
201202180119 SPECI KBFI 180119Z 20008G20KT 3SM +RA BR FEW012 BKN029 OVC041 07/05 A2988 RMK AO2 P0006=
201202180119 SPECI KBFI 180119Z 20008G20KT 3SM +RA BR FEW012 BKN029 OVC041 07/05 A2988 RMK AO2 P0006=
201202180053 METAR KBFI 180053Z 12012KT 10SM -RA FEW015 OVC043 08/07 A2984 RMK AO2 SLP104 P0006 T00830067=
201202172353 METAR KBFI 172353Z 14009KT 4SM RA BR SCT016 BKN040 OVC050 09/08 A2989 RMK AO2 SLP121 P0014 60022 T00890078 10111 20072 56035=
201202172326 SPECI KBFI 172326Z 13007KT 4SM -RA BR FEW024 OVC045 09/08 A2990 RMK AO2 P0009=
201202172326 SPECI KBFI 172326Z 13007KT 4SM -RA BR FEW024 OVC045 09/08 A2990 RMK AO2 P0009=
201202172318 SPECI KBFI 172318Z 12005KT 2 1/2SM RA BR FEW038 OVC045 09/08 A2990 RMK AO2 P0007=
201202172318 SPECI KBFI 172318Z 12005KT 2 1/2SM RA BR FEW038 OVC045 09/08 A2990 RMK AO2 P0007=
201202172253 METAR KBFI 172253Z 13006KT 4SM RA BR FEW025 OVC050 09/07 A2991 RMK AO2 RAB10 SLP127 P0008 T00940072=
201202172153 METAR KBFI 172153Z 20004KT 10SM OVC049 11/06 A2994 RMK AO2 SLP139 T01110056=
201202172053 METAR KBFI 172053Z 00000KT 10SM OVC040 11/07 A2999 RMK AO2 PRESFR SLP156 60000 T01060067 58040=
201202172032 SPECI KBFI 172032Z 00000KT 10SM FEW026 OVC048 09/06 A3002 RMK AO2=
201202172032 SPECI KBFI 172032Z 00000KT 10SM FEW026 OVC048 09/06 A3002 RMK AO2=
201202171953 METAR KBFI 171953Z 16003KT 10SM BKN020 BKN027 OVC035 09/07 A3007 RMK AO2 RAB1858E50 SLP180 P0000 T00890067=
201202171853 METAR KBFI 171853Z VRB03KT 10SM BKN027 OVC032 08/06 A3010 RMK AO2 SLP193 T00830061=
201202171753 METAR KBFI 171753Z 17007KT 10SM OVC042 08/06 A3011 RMK AO2 SLP196 60000 T00780061 10078 20056 58023=
201202171653 METAR KBFI 171653Z 13004KT 8SM BKN037 BKN046 OVC060 07/06 A3015 RMK AO2 RAB05E14 SLP208 P0000 T00720061=
201202171642 SPECI KBFI 171642Z 14005KT 8SM FEW006 BKN039 OVC048 07/06 A3016 RMK AO2 RAB05E14 P0000=
201202171642 SPECI KBFI 171642Z 14005KT 8SM FEW006 BKN039 OVC048 07/06 A3016 RMK AO2 RAB05E14 P0000=
201202171631 SPECI KBFI 171631Z 13004KT 6SM BR BKN039 BKN047 OVC055 07/06 A3015 RMK AO2 RAB05E14 P0000=
201202171631 SPECI KBFI 171631Z 13004KT 6SM BR BKN039 BKN047 OVC055 07/06 A3015 RMK AO2 RAB05E14 P0000=
201202171553 METAR KBFI 171553Z 14006KT 4SM BR OVC004 06/06 A3017 RMK AO2 SLP216 T00610061=
201202171453 METAR KBFI 171453Z 15005KT 4SM BR OVC004 06/06 A3018 RMK AO2 SLP219 T00610056 56009=
201202171436 SPECI KBFI 171436Z 15005KT 5SM BR BKN006 OVC049 06/06 A3018 RMK AO2=
201202171436 SPECI KBFI 171436Z 15005KT 5SM BR BKN006 OVC049 06/06 A3018 RMK AO2=
201202171353 METAR KBFI 171353Z 00000KT 5SM BR SCT008 OVC042 07/06 A3019 RMK AO2 SLP221 T00670061=
201202171300 METAR KBFI NIL=
201202171248 METAR KBFI 171248Z 00000KT 5SM BR FEW005 06/06 A3019=
201202171247 SPECI KBFI 171247Z 00000KT 3SM BR FEW005 06/06 A3019 RMK AO2=
201202171247 SPECI KBFI 171247Z 00000KT 3SM BR FEW005 06/06 A3019 RMK AO2=
201202171241 SPECI KBFI 171241Z 00000KT 1 3/4SM BR CLR 06/06 A3019 RMK AO2=
201202171241 SPECI KBFI 171241Z 00000KT 1 3/4SM BR CLR 06/06 A3019 RMK AO2=
201202171153 METAR KBFI 171153Z 00000KT 4SM BR FEW003 06/06 A3021 RMK AO2 SLP228 70004 T00610061 10072 20061 58019=
201202171143 SPECI KBFI 171143Z 00000KT 6SM BR FEW005 07/06 A3021 RMK AO2=
201202171143 SPECI KBFI 171143Z 00000KT 6SM BR FEW005 07/06 A3021 RMK AO2=
201202171053 METAR KBFI 171053Z 00000KT 9SM BKN007 07/06 A3024 RMK AO2 SLP238 T00720061=
201202171005 SPECI KBFI 171005Z 13003KT 10SM OVC009 07/06 A3025 RMK AO2=
201202171005 SPECI KBFI 171005Z 13003KT 10SM OVC009 07/06 A3025 RMK AO2=
201202170953 METAR KBFI 170953Z 15005KT 10SM OVC011 07/06 A3026 RMK AO2 SLP245 T00720061=
201202170853 METAR KBFI 170853Z 14004KT 10SM OVC011 07/06 A3026 RMK AO2 SLP247 T00670061 50001=
201202170753 METAR KBFI 170753Z 15004KT 10SM BKN011 OVC018 07/06 A3027 RMK AO2 SLP251 T00670061 400780028=
201202170653 METAR KBFI 170653Z 00000KT 3SM BR OVC008 07/06 A3027 RMK AO2 CIG 007V012 SLP250 T00720061=
201202170553 METAR KBFI 170553Z 13004KT 2 1/2SM BR BKN008 OVC012 07/07 A3026 RMK AO2 SLP245 T00670067 10078 20067 55000=
201202170536 SPECI KBFI 170536Z 14004KT 3SM BR OVC008 07/07 A3025 RMK AO2=
201202170536 SPECI KBFI 170536Z 14004KT 3SM BR OVC008 07/07 A3025 RMK AO2=
201202170453 METAR KBFI 170453Z 15003KT 9SM BKN013 BKN021 OVC026 07/06 A3026 RMK AO2 SLP245 T00720061=
201202170353 METAR KBFI 170353Z 13003KT 8SM OVC013 07/06 A3026 RMK AO2 SLP245 T00720061=
201202170253 METAR KBFI 170253Z 00000KT 10SM BKN016 OVC023 08/06 A3026 RMK AO2 SLP245 T00780061 53008=
201202170153 METAR KBFI 170153Z 15005KT 10SM OVC012 08/06 A3025 RMK AO2 SLP244 T00780056=
201202170053 METAR KBFI 170053Z 15005KT 10SM BKN014 OVC022 07/06 A3024 RMK AO2 SLP238 T00720056=
201202162353 METAR KBFI 162353Z 19004KT 10SM BKN013 OVC022 08/06 A3023 RMK AO2 SLP237 60001 T00780056 10078 20044 56002=
201202162253 METAR KBFI 162253Z 15005KT 9SM OVC011 07/06 A3024 RMK AO2 SLP239 T00720056=
201202162153 METAR KBFI 162153Z 18006KT 10SM OVC013 07/05 A3023 RMK AO2 SLP237 T00720050=
201202162053 METAR KBFI 162053Z 16007KT 10SM BKN013 OVC030 06/04 A3024 RMK AO2 SLP240 60001 T00610044 50001=
201202161953 METAR KBFI 161953Z AUTO 16007KT 10SM BKN013 OVC028 06/04 A3026 RMK AO2 SLP245 T00560039 TSNO=
201202161853 METAR KBFI 161853Z 14007KT 10SM SCT008 BKN013 OVC050 05/03 A3025 RMK AO2 RAE35 SLP243 P0001 T00500033=
201202161753 METAR KBFI 161753Z 14009KT 6SM -RA BR OVC039 05/03 A3024 RMK AO2 SLP239 P0003 60003 T00500033 10050 20039 50002=
201202161653 METAR KBFI 161653Z 15006KT 10SM -RA OVC049 05/02 A3024 RMK AO2 RAB42 SLP239 P0000 T00500022=
201202161553 METAR KBFI 161553Z 17006KT 10SM OVC060 04/02 A3023 RMK AO2 SLP237 T00440017=
201202161453 METAR KBFI 161453Z 00000KT 10SM OVC080 04/02 A3023 RMK AO2 SLP237 T00440017 56017=
201202161353 METAR KBFI 161353Z 00000KT 10SM OVC085 05/02 A3023 RMK AO2 SLP238 T00500017=
201202161253 METAR KBFI 161253Z VRB03KT 10SM SCT090 OVC110 04/02 A3024 RMK AO2 SLP239 T00440017=
201202161153 METAR KBFI 161153Z 00000KT 10SM OVC090 04/02 A3028 RMK AO2 SLP254 T00390022 10044 20028 58007=
201202161053 METAR KBFI 161053Z 15003KT 10SM OVC100 04/02 A3030 RMK AO2 SLP261 T00390022 TSNO=
201202160953 METAR KBFI 160953Z AUTO 15004KT 10SM CLR 03/02 A3030 RMK AO2 SLP259 T00330017 TSNO=
201202160853 METAR KBFI 160853Z 14004KT 10SM CLR 03/01 A3030 RMK AO2 SLP261 T00280011 58011=
201202160753 METAR KBFI 160753Z 15005KT 10SM CLR 03/02 A3032 RMK AO2 SLP265 T00280017 400780006=
201202160653 METAR KBFI 160653Z 15004KT 10SM CLR 03/01 A3034 RMK AO2 SLP273 T00280011=
201202160553 METAR KBFI 160553Z 11006KT 10SM CLR 04/02 A3034 RMK AO2 PRESFR SLP272 T00390017 10078 20022 58009=
201202160453 METAR KBFI 160453Z 00000KT 10SM CLR 03/01 A3037 RMK AO2 SLP282 T00330011=
201202160353 METAR KBFI 160353Z 10003KT 10SM FEW033 04/01 A3036 RMK AO2 SLP281 T00440011=
201202160253 METAR KBFI 160253Z 00000KT 10SM CLR 06/02 A3036 RMK AO2 SLP281 T00560017 53007=
201202160153 METAR KBFI 160153Z 00000KT 10SM CLR 06/02 A3034 RMK AO2 SLP273 T00560022=
201202160053 METAR KBFI 160053Z VRB04KT 10SM FEW030 06/02 A3034 RMK AO2 SLP273 T00610022=
201202152353 METAR KBFI 152353Z 32003KT 10SM SCT024 BKN032 08/02 A3034 RMK AO2 SLP274 T00780022 10078 20044 58012=
201202152335 SPECI KBFI 152335Z VRB05KT 10SM SCT026 BKN032 07/03 A3035 RMK AO2=
201202152335 SPECI KBFI 152335Z VRB05KT 10SM SCT026 BKN032 07/03 A3035 RMK AO2=
201202152253 METAR KBFI 152253Z 00000KT 10SM BKN020 07/02 A3036 RMK AO2 SLP280 T00720017=
201202152153 METAR KBFI 152153Z VRB04KT 10SM BKN020 07/02 A3037 RMK AO2 SLP285 T00670022=
201202152100 SPECI KBFI 152100Z 17005KT 10SM BKN020 07/03 A3038 RMK AO2=
201202152100 SPECI KBFI 152100Z 17005KT 10SM BKN020 07/03 A3038 RMK AO2=
201202152053 METAR KBFI 152053Z 18005KT 10SM SCT015 07/02 A3038 RMK AO2 SLP286 T00670022 58008=
201202151953 METAR KBFI 151953Z 19006KT 10SM SCT015 SCT050 06/02 A3039 RMK AO2 SLP292 T00610022=
201202151853 METAR KBFI 151853Z 18006KT 10SM FEW011 OVC050 06/04 A3040 RMK AO2 SLP294 T00610039=
201202151753 METAR KBFI 151753Z 18004KT 6SM BR SCT009 OVC045 04/03 A3040 RMK AO2 SLP294 T00440028 10044 20017 51025=
201202151722 SPECI KBFI 151722Z 15004KT 7SM SCT007 OVC028 04/03 A3040 RMK AO2=
201202151722 SPECI KBFI 151722Z 15004KT 7SM SCT007 OVC028 04/03 A3040 RMK AO2=
201202151653 METAR KBFI 151653Z 12004KT 7SM BKN007 BKN026 04/03 A3038 RMK AO2 SLP287 T00390028=
201202151553 METAR KBFI 151553Z 11003KT 5SM BR BKN007 BKN014 OVC021 04/02 A3035 RMK AO2 SLP278 T00390022=
201202151453 METAR KBFI 151453Z 15003KT 10SM OVC009 03/02 A3033 RMK AO2 SLP269 T00330022 53016=
201202151353 METAR KBFI 151353Z 12005KT 10SM OVC007 03/02 A3031 RMK AO2 SLP263 T00280022=
201202151300 SPECI KBFI 151300Z 14005KT 10SM OVC006 02/02 A3029 RMK AO2=
201202151300 SPECI KBFI 151300Z 14005KT 10SM OVC006 02/02 A3029 RMK AO2=
201202151253 METAR KBFI 151253Z 13005KT 10SM SCT006 BKN010 02/01 A3029 RMK AO2 SLP256 T00220011=
201202151200 SPECI KBFI 151200Z 00000KT 10SM SCT006 BKN010 02/02 A3028 RMK AO2=
201202151200 SPECI KBFI 151200Z 00000KT 10SM SCT006 BKN010 02/02 A3028 RMK AO2=
201202151153 METAR KBFI 151153Z 00000KT 10SM SCT006 BKN041 02/01 A3028 RMK AO2 SLP252 70004 T00220011 10022 20006 51014=
201202151134 SPECI KBFI 151134Z 00000KT 10SM SCT005 BKN041 02/01 A3027 RMK AO2=
201202151134 SPECI KBFI 151134Z 00000KT 10SM SCT005 BKN041 02/01 A3027 RMK AO2=
201202151053 METAR KBFI 151053Z 13004KT 8SM OVC039 02/01 A3027 RMK AO2 SLP249 T00170011=
201202150953 METAR KBFI 150953Z 13005KT 7SM OVC035 02/01 A3025 RMK AO2 SLP242 T00170011=
201202150917 SPECI KBFI 150917Z 00000KT 7SM FEW004 BKN035 02/02 A3026 RMK AO2=
201202150917 SPECI KBFI 150917Z 00000KT 7SM FEW004 BKN035 02/02 A3026 RMK AO2=
201202150853 METAR KBFI 150853Z 00000KT 6SM BR SCT035 02/01 A3024 RMK AO2 SLP238 T00170011 51029=
201202150817 SPECI KBFI 150817Z 12005KT 7SM FEW002 BKN035 02/02 A3021 RMK AO2=
201202150817 SPECI KBFI 150817Z 12005KT 7SM FEW002 BKN035 02/02 A3021 RMK AO2=
201202150753 METAR KBFI 150753Z 11003KT 6SM BR BKN004 02/01 A3021 RMK AO2 SLP230 T00170011 400670006=
201202150653 METAR KBFI 150653Z 00000KT 7SM FEW028 02/01 A3019 RMK AO2 SLP223 T00170011=
201202150553 METAR KBFI 150553Z 00000KT 9SM CLR 02/01 A3015 RMK AO2 SLP209 60001 T00220011 10050 20022 53031=
201202150453 METAR KBFI 150453Z 00000KT 10SM SCT023 BKN037 03/02 A3011 RMK AO2 SLP196 T00280022=
201202150353 METAR KBFI 150353Z 00000KT 10SM BKN041 04/03 A3009 RMK AO2 SLP190 T00390028=
201202150253 METAR KBFI 150253Z 00000KT 10SM FEW040 04/02 A3006 RMK AO2 SLP178 60001 T00440022 52026=
201202150153 METAR KBFI 150153Z 13004KT 10SM SCT047 04/03 A3003 RMK AO2 SLP170 T00440028=
201202150053 METAR KBFI 150053Z 00000KT 10SM SCT012 BKN035 BKN046 05/02 A3001 RMK AO2 RAE39 SLP161 P0001 T00500022=
201202142353 METAR KBFI 142353Z 14008KT 10SM -RA BKN015 BKN026 OVC037 05/03 A2998 RMK AO2 RAB2254E04B49 SLP152 P0000 60002 T00500028 10067 20039 53017=
201202142253 METAR KBFI 142253Z 23008KT 10SM SCT018 BKN024 BKN037 06/02 A2995 RMK AO2 RAB2154E48 SLP141 P0000 T00610017=
201202142215 SPECI KBFI 142215Z VRB06KT 9SM -RA BKN024 BKN035 06/02 A2994 RMK AO2 RAB2154 P0000=
201202142215 SPECI KBFI 142215Z VRB06KT 9SM -RA BKN024 BKN035 06/02 A2994 RMK AO2 RAB2154 P0000=
201202142153 METAR KBFI 142153Z COR 00000KT 10SM -RA FEW022 BKN034 OVC041 06/02 A2994 RMK AO2 RAB00E15 SLP136 P0000 T00610017=
201202142053 METAR KBFI 142053Z 17003KT 10SM BKN018 OVC026 06/02 A2993 RMK AO2 SLP136 60002 T00560022 50000=
201202141953 METAR KBFI 141953Z 20007KT 10SM BKN016 OVC020 05/03 A2994 RMK AO2 RAE26 SLP137 P0002 T00500028=
201202141853 METAR KBFI 141853Z 18007KT 10SM -RA SCT017 BKN040 OVC055 05/03 A2993 RMK AO2 SLP135 P0000 T00500028=
201202141824 SPECI KBFI 141824Z 13009KT 10SM -RA SCT017 BKN026 OVC049 05/02 A2993 RMK AO2 P0000=
201202141824 SPECI KBFI 141824Z 13009KT 10SM -RA SCT017 BKN026 OVC049 05/02 A2993 RMK AO2 P0000=
201202141753 METAR KBFI 141753Z 14012KT 10SM -RA SCT020 BKN046 OVC055 05/03 A2993 RMK AO2 RAB17 SLP135 P0001 60001 T00500028 10061 20044 56005=
201202141653 METAR KBFI 141653Z 19008KT 10SM SCT015 OVC080 06/02 A2993 RMK AO2 SLP135 T00560022=
201202141553 METAR KBFI 141553Z 15007KT 10SM FEW055 OVC100 04/03 A2994 RMK AO2 SLP138 T00440028=
201202141453 METAR KBFI 141453Z 16009KT 10SM OVC050 05/03 A2995 RMK AO2 RAE10 SLP140 P0000 60000 T00500028 58004=
201202141353 METAR KBFI 141353Z 17007KT 130V190 10SM -RA OVC036 06/03 A2996 RMK AO2 RAB35 SLP146 P0000 T00560033=
201202141253 METAR KBFI 141253Z VRB03KT 10SM BKN016 OVC025 06/03 A2996 RMK AO2 SLP144 T00560033=
201202141153 METAR KBFI 141153Z 17008KT 10SM SCT012 OVC055 06/04 A2997 RMK AO2 SLP148 60001 70031 T00560044 10067 20050 56021=
201202141053 METAR KBFI 141053Z 14008KT 10SM SCT010 BKN034 BKN050 06/04 A2998 RMK AO2 SLP152 T00560044=
201202140953 METAR KBFI 140953Z 18005KT 10SM SCT013 BKN018 OVC060 06/04 A3002 RMK AO2 SLP164 T00610044=
201202140901 SPECI KBFI 140901Z 19006KT 10SM BKN013 OVC050 07/04 A3003 RMK AO2=
201202140901 SPECI KBFI 140901Z 19006KT 10SM BKN013 OVC050 07/04 A3003 RMK AO2=
201202140853 METAR KBFI 140853Z 20005KT 10SM FEW008 SCT024 OVC037 06/05 A3003 RMK AO2 SLP169 60001 T00610050 55005=
201202140757 SPECI KBFI 140757Z 13005KT 10SM FEW008 SCT024 OVC037 06/05 A3001 RMK AO2=
201202140757 SPECI KBFI 140757Z 13005KT 10SM FEW008 SCT024 OVC037 06/05 A3001 RMK AO2=
201202140753 METAR KBFI 140753Z 14005KT 10SM SCT008 BKN024 OVC029 06/05 A3001 RMK AO2 RAB17E38 SLP163 P0001 T00610050 400830056=
201202140715 SPECI KBFI 140715Z 00000KT 10SM FEW008 BKN024 OVC029 06/05 A3002 RMK AO2=
201202140715 SPECI KBFI 140715Z 00000KT 10SM FEW008 BKN024 OVC029 06/05 A3002 RMK AO2=
201202140653 METAR KBFI 140653Z 15004KT 9SM SCT015 SCT020 OVC027 06/05 A3002 RMK AO2 SLP166 T00610050=
201202140606 SPECI KBFI 140606Z 16004KT 10SM SCT008 OVC019 06/05 A3004 RMK AO2=
201202140606 SPECI KBFI 140606Z 16004KT 10SM SCT008 OVC019 06/05 A3004 RMK AO2=
201202140553 METAR KBFI 140553Z 15005KT 10SM BKN029 OVC037 06/05 A3005 RMK AO2 RAE04 SLP174 P0000 60001 T00610050 10078 20056 58009=
201202140453 METAR KBFI 140453Z 17005KT 6SM -RA BR SCT023 BKN029 OVC044 06/04 A3007 RMK AO2 RAB43 SLP180 P0000 T00610044=
201202140353 METAR KBFI 140353Z 14004KT 10SM BKN027 BKN034 OVC044 06/05 A3007 RMK AO2 RAB37E46 SLP181 P0001 T00610050=
201202140253 METAR KBFI 140253Z 00000KT 10SM OVC026 06/04 A3007 RMK AO2 RAE14 SLP183 P0000 60000 T00610044 51003=
201202140153 METAR KBFI 140153Z 00000KT 7SM -RA FEW022 OVC026 07/04 A3007 RMK AO2 RAB45 SLP182 P0000 T00670044=
201202140053 METAR KBFI 140053Z 30004KT 10SM SCT021 OVC030 07/04 A3007 RMK AO2 SLP181 T00720039=
201202132353 METAR KBFI 132353Z 30003KT 10SM SCT021 BKN031 OVC050 08/04 A3006 RMK AO2 SLP180 T00780044 10083 20072 53012=
201202132253 METAR KBFI 132253Z COR VRB04KT 10SM SCT021 BKN031 OVC050 08/04 A3005 RMK AO2 SLP175 T00780039=
201202132153 METAR KBFI 132153Z 31004KT 10SM SCT018 OVC027 08/04 A3003 RMK AO2 SLP169 T00780044=
201202132053 METAR KBFI 132053Z 29004KT 10SM SCT018 OVC027 08/04 A3003 RMK AO2 SLP168 T00780044 50000=
201202131953 METAR KBFI 131953Z 32005KT 10SM FEW015 BKN025 OVC034 08/04 A3004 RMK AO2 SLP171 T00780044=
201202131853 METAR KBFI 131853Z 34004KT 8SM BKN021 OVC033 07/04 A3004 RMK AO2 SLP171 T00720044=
201202131753 METAR KBFI 131753Z VRB04KT 7SM SCT008 BKN013 OVC021 07/05 A3003 RMK AO2 RAE13 SLP168 P0001 60029 T00720050 10072 20056 51013=
201202131744 SPECI KBFI 131744Z 34003KT 7SM BKN013 OVC021 07/05 A3003 RMK AO2 RAE13 P0001=
201202131744 SPECI KBFI 131744Z 34003KT 7SM BKN013 OVC021 07/05 A3003 RMK AO2 RAE13 P0001=
201202131653 METAR KBFI 131653Z 34004KT 2SM -RA BR BKN009 BKN013 OVC019 06/06 A3002 RMK AO2 SLP165 P0004 T00610056=
201202131553 METAR KBFI 131553Z 14003KT 2SM -RA BR BKN006 OVC012 06/05 A3001 RMK AO2 SLP160 P0012 T00560050=
201202131542 SPECI KBFI 131542Z 14005KT 2SM -RA BR BKN006 OVC012 06/05 A3000 RMK AO2 P0009=
201202131542 SPECI KBFI 131542Z 14005KT 2SM -RA BR BKN006 OVC012 06/05 A3000 RMK AO2 P0009=
201202131514 SPECI KBFI 131514Z 15005KT 5SM -RA BR FEW003 BKN008 OVC012 06/05 A2999 RMK AO2 P0003=
201202131514 SPECI KBFI 131514Z 15005KT 5SM -RA BR FEW003 BKN008 OVC012 06/05 A2999 RMK AO2 P0003=
201202131453 METAR KBFI 131453Z 15005KT 5SM -RA BR FEW006 BKN012 OVC030 06/05 A2999 RMK AO2 SLP155 P0003 60012 T00560050 51008=
201202131353 METAR KBFI 131353Z 00000KT 5SM -RA BR FEW010 BKN012 OVC030 06/05 A2998 RMK AO2 SLP152 P0005 T00610050=
201202131344 SPECI KBFI 131344Z 00000KT 10SM -RA FEW007 BKN025 OVC030 06/06 A2998 RMK AO2 P0004=
201202131344 SPECI KBFI 131344Z 00000KT 10SM -RA FEW007 BKN025 OVC030 06/06 A2998 RMK AO2 P0004=
201202131341 SPECI KBFI 131341Z 00000KT 9SM -RA BKN010 BKN021 OVC032 06/06 A2998 RMK AO2 P0004=
201202131341 SPECI KBFI 131341Z 00000KT 9SM -RA BKN010 BKN021 OVC032 06/06 A2998 RMK AO2 P0004=
201202131333 SPECI KBFI 131333Z 00000KT 6SM -RA BR SCT007 BKN018 OVC029 06/06 A2998 RMK AO2 P0004=
201202131333 SPECI KBFI 131333Z 00000KT 6SM -RA BR SCT007 BKN018 OVC029 06/06 A2998 RMK AO2 P0004=
201202131321 SPECI KBFI 131321Z 00000KT 4SM -RA BR BKN009 BKN017 OVC024 06/06 A2998 RMK AO2 CIG 006V011 P0003=
201202131321 SPECI KBFI 131321Z 00000KT 4SM -RA BR BKN009 BKN017 OVC024 06/06 A2998 RMK AO2 CIG 006V011 P0003=
201202131300 SPECI KBFI 131300Z 00000KT 6SM -RA BR FEW009 BKN024 OVC030 06/06 A2998 RMK AO2 P0001=
201202131300 SPECI KBFI 131300Z 00000KT 6SM -RA BR FEW009 BKN024 OVC030 06/06 A2998 RMK AO2 P0001=
201202131253 METAR KBFI 131253Z 00000KT 6SM -RA BR BKN007 BKN014 OVC024 06/06 A2998 RMK AO2 SLP151 P0004 T00610056=
201202131213 SPECI KBFI 131213Z 00000KT 4SM -RA BR BKN007 BKN014 OVC024 06/06 A2997 RMK AO2 P0001=
201202131213 SPECI KBFI 131213Z 00000KT 4SM -RA BR BKN007 BKN014 OVC024 06/06 A2997 RMK AO2 P0001=
201202131208 SPECI KBFI 131208Z 00000KT 4SM -RA BR SCT007 BKN018 OVC024 06/06 A2997 RMK AO2 P0001=
201202131208 SPECI KBFI 131208Z 00000KT 4SM -RA BR SCT007 BKN018 OVC024 06/06 A2997 RMK AO2 P0001=
201202131153 METAR KBFI 131153Z 14003KT 5SM -RA BR BKN007 BKN011 OVC026 06/06 A2997 RMK AO2 SLP147 P0003 60015 70017 T00610056 10067 20061 53007=
201202131117 SPECI KBFI 131117Z 00000KT 5SM -RA BR SCT007 OVC014 06/06 A2996 RMK AO2 P0001=
201202131117 SPECI KBFI 131117Z 00000KT 5SM -RA BR SCT007 OVC014 06/06 A2996 RMK AO2 P0001=
201202131104 SPECI KBFI 131104Z 00000KT 4SM -RA BR BKN007 BKN014 OVC028 06/06 A2996 RMK AO2 CIG 004V010 P0000=
201202131104 SPECI KBFI 131104Z 00000KT 4SM -RA BR BKN007 BKN014 OVC028 06/06 A2996 RMK AO2 CIG 004V010 P0000=
201202131053 METAR KBFI 131053Z 00000KT 5SM -RA BR SCT007 BKN016 OVC022 06/06 A2996 RMK AO2 SLP143 P0004 T00610056=
201202130953 METAR KBFI 130953Z 00000KT 6SM -RA BR FEW007 SCT015 OVC023 06/06 A2995 RMK AO2 SLP140 P0003 T00610056=
201202130948 SPECI KBFI 130948Z 00000KT 5SM -RA BR FEW005 SCT015 OVC023 06/06 A2995 RMK AO2 P0003=
201202130948 SPECI KBFI 130948Z 00000KT 5SM -RA BR FEW005 SCT015 OVC023 06/06 A2995 RMK AO2 P0003=
201202130853 METAR KBFI 130853Z 00000KT 7SM -RA FEW010 BKN015 OVC025 06/06 A2994 RMK AO2 SLP137 P0003 60005 T00610056 51006=
201202130753 METAR KBFI 130753Z 00000KT 10SM -RA SCT016 OVC022 07/05 A2993 RMK AO2 SLP136 P0001 T00670050 400890056=
201202130653 METAR KBFI 130653Z 00000KT 10SM -RA BKN022 OVC033 07/05 A2993 RMK AO2 SLP134 P0001 T00670050=
201202130553 METAR KBFI 130553Z 00000KT 10SM -RA FEW040 SCT049 OVC055 07/04 A2992 RMK AO2 RAE06B33 SLP131 P0001 60002 T00670044 10083 20067 53004=
201202130453 METAR KBFI 130453Z 00000KT 10SM -RA SCT039 OVC049 07/04 A2991 RMK AO2 RAB24 SLP128 P0001 T00720044=
201202130353 METAR KBFI 130353Z 00000KT 10SM BKN055 BKN075 OVC095 08/03 A2991 RMK AO2 SLP126 T00780033=
201202130253 METAR KBFI 130253Z 00000KT 10SM BKN055 OVC070 08/03 A2991 RMK AO2 SLP126 T00830028 56003=
201202130153 METAR KBFI 130153Z 00000KT 10SM OVC080 08/02 A2991 RMK AO2 SLP126 T00830022=
201202130053 METAR KBFI 130053Z 00000KT 10SM OVC100 08/02 A2991 RMK AO2 SLP127 T00830022=
201202122353 METAR KBFI 122353Z AUTO 24003KT 10SM BKN110 08/03 A2992 RMK AO2 SLP130 T00830028 10089 20067 56017=
201202122253 METAR KBFI 122253Z 25003KT 10SM OVC070 09/03 A2993 RMK AO2 SLP134 T00890028=
201202122153 METAR KBFI 122153Z VRB03KT 10SM OVC070 09/03 A2994 RMK AO2 SLP139 T00890033=
201202122053 METAR KBFI 122053Z 00000KT 10SM SCT030 OVC070 08/03 A2996 RMK AO2 SLP146 T00830033 58020=
201202121953 METAR KBFI 121953Z 23005KT 10SM SCT030 OVC090 08/03 A2999 RMK AO2 SLP156 T00780033=
201202121853 METAR KBFI 121853Z 16004KT 10SM SCT020 BKN042 OVC070 08/04 A3001 RMK AO2 SLP162 T00780039=
201202121753 METAR KBFI 121753Z 14007KT 10SM OVC075 07/04 A3002 RMK AO2 SLP166 T00670039 10067 20056 58009=
201202121653 METAR KBFI 121653Z 14006KT 10SM OVC032 07/04 A3004 RMK AO2 SLP170 T00670039=
201202121553 METAR KBFI 121553Z 14005KT 10SM OVC036 06/04 A3004 RMK AO2 SLP173 T00560039=
201202121453 METAR KBFI 121453Z 13005KT 10SM OVC042 06/04 A3005 RMK AO2 SLP176 T00560039 57020=
201202121353 METAR KBFI 121353Z 14005KT 10SM BKN036 OVC048 06/04 A3007 RMK AO2 SLP182 T00560039=
201202121253 METAR KBFI 121253Z 14005KT 10SM OVC050 06/04 A3009 RMK AO2 SLP188 T00560044=
201202121153 METAR KBFI 121153Z 13005KT 10SM FEW018 BKN055 OVC075 06/04 A3011 RMK AO2 SLP195 T00610044 10067 20061 58008=
201202121053 METAR KBFI 121053Z 13004KT 10SM SCT018 BKN024 OVC075 06/04 A3012 RMK AO2 SLP200 T00610044=
201202121023 SPECI KBFI 121023Z AUTO 16005KT 10SM SCT014 BKN020 OVC050 07/04 A3013 RMK AO2 TSNO=
201202121023 SPECI KBFI 121023Z AUTO 16005KT 10SM SCT014 BKN020 OVC050 07/04 A3013 RMK AO2 TSNO=
201202120953 METAR KBFI 120953Z 14006KT 10SM FEW018 SCT055 OVC080 07/04 A3013 RMK AO2 SLP202 T00670044=
201202120936 SPECI KBFI 120936Z 15005KT 10SM FEW028 OVC080 06/04 A3013 RMK AO2=
201202120936 SPECI KBFI 120936Z 15005KT 10SM FEW028 OVC080 06/04 A3013 RMK AO2=
201202120853 METAR KBFI 120853Z 15006KT 10SM OVC024 06/04 A3013 RMK AO2 SLP204 T00610044 56005=
201202120821 SPECI KBFI 120821Z 14005KT 10SM BKN018 OVC050 06/04 A3014 RMK AO2=
201202120821 SPECI KBFI 120821Z 14005KT 10SM BKN018 OVC050 06/04 A3014 RMK AO2=
201202120753 METAR KBFI 120753Z 14005KT 10SM FEW036 OVC050 06/04 A3014 RMK AO2 SLP205 T00610044 401000061=
201202120653 METAR KBFI 120653Z 14006KT 10SM BKN036 OVC080 06/04 A3014 RMK AO2 SLP206 T00610044=
201202120553 METAR KBFI 120553Z 14008KT 10SM FEW020 OVC090 06/04 A3015 RMK AO2 RAB03E33 SLP209 P0000 60000 T00610044 10089 20061 58003=
201202120453 METAR KBFI 120453Z 15010KT 10SM SCT014 BKN020 OVC060 07/05 A3016 RMK AO2 SLP213 T00670050=
201202120433 SPECI KBFI 120433Z 14008KT 10SM SCT017 BKN022 OVC055 07/05 A3016 RMK AO2=
201202120433 SPECI KBFI 120433Z 14008KT 10SM SCT017 BKN022 OVC055 07/05 A3016 RMK AO2=
201202120353 METAR KBFI 120353Z 15008KT 10SM FEW014 SCT019 OVC055 07/05 A3016 RMK AO2 SLP212 T00720050=
201202120253 METAR KBFI 120253Z 16008KT 10SM BKN016 OVC019 07/06 A3016 RMK AO2 RAB0159E16B35E45 SLP212 P0000 60000 T00720056 51005=
201202120153 METAR KBFI 120153Z 17009G14KT 10SM BKN016 OVC023 08/05 A3016 RMK AO2 SLP212 T00780050=
201202120053 METAR KBFI 120053Z 17007KT 10SM OVC028 09/04 A3015 RMK AO2 SLP208 T00890044=
201202112353 METAR KBFI 112353Z 18009KT 10SM BKN030 OVC034 09/04 A3015 RMK AO2 SLP208 T00890039 10100 20083 53002=
201202112253 METAR KBFI 112253Z 19008KT 10SM OVC030 09/04 A3014 RMK AO2 SLP205 T00940039=
201202112250 SPECI KBFI 112250Z 16008KT 10SM OVC030 09/04 A3014 RMK AO2=
201202112250 SPECI KBFI 112250Z 16008KT 10SM OVC030 09/04 A3014 RMK AO2=
201202112153 METAR KBFI 112153Z 18008KT 10SM OVC028 09/04 A3014 RMK AO2 SLP205 T00890039=
201202112053 METAR KBFI 112053Z 17009G16KT 10SM BKN028 OVC037 09/04 A3015 RMK AO2 SLP209 T00890039 58005=
201202111953 METAR KBFI 111953Z 17010KT 10SM BKN032 OVC042 08/04 A3017 RMK AO2 SLP214 T00830044=
201202111853 METAR KBFI 111853Z AUTO 18008KT 10SM OVC042 08/04 A3017 RMK AO2 SLP216 T00830044 TSNO=
201202111753 METAR KBFI 111753Z 19007KT 150V210 10SM BKN040 OVC049 08/04 A3016 RMK AO2 SLP213 T00830039 10083 20061 53016=
201202111653 METAR KBFI 111653Z 16007KT 10SM SCT033 BKN048 OVC065 08/04 A3014 RMK AO2 SLP207 T00780044=
201202111553 METAR KBFI 111553Z 14006KT 10SM FEW055 SCT065 BKN095 07/05 A3012 RMK AO2 SLP199 T00670050=
201202111453 METAR KBFI 111453Z 15006KT 10SM BKN050 07/05 A3012 RMK AO2 SLP198 T00670050 51003=
201202111400 SPECI KBFI 111400Z 14006KT 10SM FEW015 BKN044 OVC055 07/06 A3011 RMK AO2=
201202111400 SPECI KBFI 111400Z 14006KT 10SM FEW015 BKN044 OVC055 07/06 A3011 RMK AO2=
201202111353 METAR KBFI 111353Z 15006KT 10SM BKN018 OVC060 07/06 A3011 RMK AO2 SLP197 T00720056=
201202111253 METAR KBFI 111253Z 16005KT 10SM BKN018 OVC060 07/06 A3011 RMK AO2 SLP196 T00720056=
201202111244 SPECI KBFI 111244Z 15006KT 10SM SCT018 BKN060 07/05 A3011 RMK AO2=
201202111244 SPECI KBFI 111244Z 15006KT 10SM SCT018 BKN060 07/05 A3011 RMK AO2=
201202111214 SPECI KBFI 111214Z 16005KT 10SM BKN016 OVC048 07/06 A3011 RMK AO2=
201202111214 SPECI KBFI 111214Z 16005KT 10SM BKN016 OVC048 07/06 A3011 RMK AO2=
201202111153 METAR KBFI 111153Z 16005KT 10SM FEW016 BKN050 07/06 A3011 RMK AO2 SLP195 60002 70010 T00720056 10083 20072 51012=
201202111053 METAR KBFI 111053Z 17005KT 10SM SCT018 OVC041 08/06 A3010 RMK AO2 SLP191 T00780061=
201202110953 METAR KBFI 110953Z 14005KT 10SM OVC045 08/07 A3008 RMK AO2 SLP187 T00780072=
201202110853 METAR KBFI 110853Z 13004KT 10SM FEW039 OVC050 08/07 A3007 RMK AO2 RAE44 SLP183 P0001 60002 T00780072 51007=
201202110757 SPECI KBFI 110757Z 13004KT 10SM -RA SCT024 SCT030 OVC050 08/07 A3007 RMK AO2 P0000=
201202110757 SPECI KBFI 110757Z 13004KT 10SM -RA SCT024 SCT030 OVC050 08/07 A3007 RMK AO2 P0000=
201202110753 METAR KBFI 110753Z 14004KT 10SM -RA BKN024 BKN030 OVC055 08/07 A3007 RMK AO2 RAB18 SLP180 P0001 T00830072 401330067=
201202110751 SPECI KBFI 110751Z 14004KT 10SM -RA BKN024 BKN030 OVC055 08/07 A3006 RMK AO2 RAB18 P0001 401330067=
201202110751 SPECI KBFI 110751Z 14004KT 10SM -RA BKN024 BKN030 OVC055 08/07 A3006 RMK AO2 RAB18 P0001 401330067=
201202110721 SPECI KBFI 110721Z 13005KT 8SM -RA FEW014 BKN034 OVC043 08/07 A3005 RMK AO2 RAB18 P0001=
201202110721 SPECI KBFI 110721Z 13005KT 8SM -RA FEW014 BKN034 OVC043 08/07 A3005 RMK AO2 RAB18 P0001=
201202110653 METAR KBFI 110653Z 16004KT 6SM BR SCT016 BKN022 OVC042 08/07 A3005 RMK AO2 SLP175 T00830072=
201202110553 METAR KBFI 110553Z 14007KT 10SM OVC037 08/07 A3003 RMK AO2 SLP169 60006 T00830067 10128 20083 53025=
201202110453 METAR KBFI 110453Z 15007KT 10SM OVC037 09/07 A3001 RMK AO2 SLP162 T00890072=
201202110353 METAR KBFI 110353Z VRB05KT 10SM FEW019 BKN039 OVC047 09/08 A2998 RMK AO2 RAE51 SLP152 P0003 T00940078=
201202110253 METAR KBFI 110253Z 23007KT 8SM -RA FEW020 BKN042 OVC049 11/09 A2996 RMK AO2 RAE01B26 SLP145 P0002 60003 T01110089 53012=
201202110153 METAR KBFI 110153Z 00000KT 8SM -RA BKN038 OVC047 12/07 A2994 RMK AO2 RAB43 SLP139 P0001 T01170067=
201202110053 METAR KBFI 110053Z 14005KT 10SM SCT050 OVC065 12/07 A2993 RMK AO2 SLP134 T01220067=
201202102353 METAR KBFI 102353Z 13007KT 10SM OVC050 13/07 A2992 RMK AO2 SLP133 60001 T01280067 10133 20089 55006=
201202102253 METAR KBFI 102253Z 12010KT 10SM BKN050 OVC060 13/06 A2992 RMK AO2 RAB17E36 SLP132 P0000 T01330061=
201202102153 METAR KBFI 102153Z 13007KT 10SM OVC055 13/07 A2993 RMK AO2 RAB01E10 SLP134 P0000 T01280072=
201202102053 METAR KBFI 102053Z 11006KT 10SM SCT049 OVC060 13/07 A2994 RMK AO2 RAE21 SLP139 P0000 60001 T01280067 58014 TSNO=
201202101953 METAR KBFI 101953Z 00000KT 10SM -RA OVC070 12/07 A2996 RMK AO2 RAB31 SLP145 P0001 T01170072=
201202101853 METAR KBFI 101853Z 00000KT 10SM OVC055 10/07 A2998 RMK AO2 SLP151 T01000067=
201202101753 METAR KBFI 101753Z 00000KT 10SM SCT050 BKN065 09/06 A2998 RMK AO2 RAB10E20 SLP153 P0000 60001 T00890061 10089 20072 58001=
201202101653 METAR KBFI 101653Z 00000KT 10SM BKN055 OVC075 08/06 A3001 RMK AO2 SLP160 T00830061=
201202101553 METAR KBFI 101553Z 00000KT 10SM FEW050 BKN070 BKN100 08/06 A2999 RMK AO2 SLP156 T00780061=
201202101453 METAR KBFI 101453Z 14004KT 10SM OVC075 08/06 A2999 RMK AO2 SLP155 60001 T00780061 58007=
201202101353 METAR KBFI 101353Z 15003KT 10SM OVC080 08/06 A3002 RMK AO2 SLP164 T00830061=
201202101253 METAR KBFI 101253Z 00000KT 10SM BKN070 OVC090 08/07 A2999 RMK AO2 RAB01E36 SLP156 P0001 T00780067=
201202101153 METAR KBFI 101153Z 00000KT 10SM SCT080 OVC095 08/06 A3001 RMK AO2 SLP162 70011 T00780061 10083 20061 55006=
201202101053 METAR KBFI 101053Z COR 00000KT 10SM OVC110 08/07 A2999 RMK AO2 SLP155 T00780067=
201202100953 METAR KBFI 100953Z 00000KT 10SM FEW120 07/06 A3001 RMK AO2 SLP162 T00720061=
201202100853 METAR KBFI 100853Z 00000KT 10SM BKN110 07/06 A3003 RMK AO2 SLP168 T00720061 58012=
201202100753 METAR KBFI 100753Z 00000KT 10SM SCT075 OVC095 08/07 A3005 RMK AO2 SLP174 T00780067 401060061=
201202100653 METAR KBFI 100653Z 00000KT 10SM CLR 07/06 A3006 RMK AO2 SLP177 T00670056=
201202100553 METAR KBFI 100553Z 00000KT 10SM CLR 08/06 A3006 RMK AO2 SLP179 60001 T00830061 10106 20078 56018=
201202100453 METAR KBFI 100453Z 00000KT 10SM CLR 08/07 A3007 RMK AO2 SLP182 T00830067=
201202100353 METAR KBFI 100353Z 00000KT 10SM FEW120 09/07 A3009 RMK AO2 SLP190 T00890072=
201202100253 METAR KBFI 100253Z 17005KT 10SM CLR 10/07 A3012 RMK AO2 SLP197 60001 T01000067 58018=
201202100153 METAR KBFI 100153Z 00000KT 10SM CLR 10/08 A3015 RMK AO2 SLP210 T01000083=
201202100053 METAR KBFI 100053Z 00000KT 10SM SCT055 OVC110 10/08 A3015 RMK AO2 RAE36 SLP210 P0001 T01000083=
201202092353 METAR KBFI 092353Z 00000KT 10SM -RA OVC065 11/09 A3017 RMK AO2 SLP215 P0001 60003 T01060089 10106 20089 55015=
201202092253 METAR KBFI 092253Z 00000KT 10SM -RA SCT050 BKN060 OVC090 11/09 A3017 RMK AO2 RAE05B42 SLP214 P0000 T01060089=
201202092153 METAR KBFI 092153Z 00000KT 10SM -RA SCT060 OVC075 11/07 A3018 RMK AO2 RAB2059 SLP220 P0000 T01060072=
201202092053 METAR KBFI 092053Z 14006KT 10SM SCT060 OVC080 10/08 A3021 RMK AO2 RAE41 SLP231 P0001 60002 T01000078 58009=
201202091953 METAR KBFI 091953Z 13006KT 10SM -RA FEW055 OVC070 11/08 A3023 RMK AO2 RAB01 SLP236 P0001 T01060083=
201202091853 METAR KBFI 091853Z 14005KT 10SM FEW047 OVC075 09/08 A3024 RMK AO2 RAE06 SLP241 P0000 T00940083=
201202091753 METAR KBFI 091753Z 13004KT 10SM -RA SCT035 BKN075 OVC090 09/08 A3024 RMK AO2 SLP240 P0001 60007 T00890078 10089 20072 51006=
201202091653 METAR KBFI 091653Z 00000KT 10SM -RA FEW035 BKN048 OVC065 09/08 A3024 RMK AO2 SLP239 P0003 T00890078=
201202091553 METAR KBFI 091553Z 00000KT 10SM -RA SCT039 BKN060 OVC080 08/07 A3023 RMK AO2 SLP236 P0001 T00780067=
201202091453 METAR KBFI 091453Z 00000KT 10SM -RA BKN065 OVC080 08/07 A3022 RMK AO2 SLP234 P0001 60002 T00780067 57009=
201202091353 METAR KBFI 091353Z 00000KT 10SM -RA FEW047 OVC065 08/07 A3023 RMK AO2 RAB06 SLP237 P0001 T00830067=
201202091253 METAR KBFI 091253Z 00000KT 10SM OVC047 08/06 A3024 RMK AO2 SLP239 T00830061=
201202091153 METAR KBFI 091153Z 00000KT 10SM BKN045 OVC055 08/06 A3025 RMK AO2 SLP243 70008 T00830061 10089 20072 58009=
201202091053 METAR KBFI 091053Z AUTO 00000KT 10SM BKN045 OVC055 08/06 A3027 RMK AO2 SLP248 T00780061 TSNO=
201202090953 METAR KBFI 090953Z AUTO 00000KT 10SM OVC031 08/06 A3029 RMK AO2 SLP255 T00830061 TSNO=
201202090853 METAR KBFI 090853Z AUTO 00000KT 10SM OVC033 08/06 A3028 RMK AO2 SLP252 T00830061 50003 TSNO=
201202090753 METAR KBFI 090753Z AUTO 00000KT 10SM OVC033 08/06 A3028 RMK AO2 SLP252 T00780056 401060056 TSNO=
201202090653 METAR KBFI 090653Z AUTO 13004KT 10SM OVC037 09/05 A3028 RMK AO2 SLP252 T00890050 TSNO=
201202090553 METAR KBFI 090553Z 11003KT 10SM BKN035 08/06 A3027 RMK AO2 SLP249 T00830056 10100 20078 51011=
201202090453 METAR KBFI 090453Z 12003KT 10SM BKN035 08/06 A3026 RMK AO2 SLP248 T00780061=
201202090353 METAR KBFI 090353Z 00000KT 10SM FEW034 SCT055 09/07 A3025 RMK AO2 SLP244 T00890067=
201202090253 METAR KBFI 090253Z 12004KT 10SM FEW037 BKN050 09/07 A3023 RMK AO2 SLP238 T00940072 51009=
201202090153 METAR KBFI 090153Z 13005KT 10SM BKN041 OVC048 10/07 A3023 RMK AO2 SLP236 T01000072=
201202090053 METAR KBFI 090053Z 10005KT 10SM OVC050 10/08 A3021 RMK AO2 SLP230 T01000078=
201202082353 METAR KBFI 082353Z 16008KT 10SM BKN055 10/08 A3021 RMK AO2 SLP228 60004 T01000083 10106 20078 53012=
201202082253 METAR KBFI 082253Z 15009KT 6SM BR BKN042 OVC049 10/08 A3019 RMK AO2 RAE10B34E44 SLP224 P0000 T01000083=
201202082153 METAR KBFI 082153Z 15003KT 10SM -RA BKN040 OVC050 10/07 A3018 RMK AO2 SLP219 P0002 T01000072=
201202082053 METAR KBFI 082053Z 13005KT 9SM -RA BKN048 OVC065 10/06 A3017 RMK AO2 RAB51 SLP216 P0001 60002 T01000056 51005=
201202081953 METAR KBFI 081953Z 12006KT 10SM FEW036 OVC044 09/06 A3016 RMK AO2 RAE48 SLP213 P0000 T00940061=
201202081853 METAR KBFI 081853Z 15005KT 9SM -RA SCT050 BKN065 OVC085 08/06 A3017 RMK AO2 RAE18B46 SLP215 P0001 T00830056=
201202081753 METAR KBFI 081753Z 00000KT 7SM -RA FEW046 OVC060 08/05 A3015 RMK AO2 RAB25 SLP210 P0002 60004 T00780050 10078 20056 53019=
201202081653 METAR KBFI 081653Z 00000KT 10SM FEW055 BKN100 07/06 A3012 RMK AO2 SLP200 T00720056=
201202081553 METAR KBFI 081553Z 00000KT 10SM FEW035 BKN150 07/05 A3011 RMK AO2 SLP195 T00670050=
201202081453 METAR KBFI 081453Z 00000KT 10SM BKN036 06/04 A3010 RMK AO2 SLP191 60002 T00610044 51005=
201202081353 METAR KBFI 081353Z 00000KT 10SM FEW023 SCT038 BKN060 07/04 A3009 RMK AO2 RAE29 SLP190 P0001 T00670044=
201202081346 SPECI KBFI 081346Z 00000KT 10SM SCT023 OVC060 07/04 A3009 RMK AO2 RAE29 P0001=
201202081346 SPECI KBFI 081346Z 00000KT 10SM SCT023 OVC060 07/04 A3009 RMK AO2 RAE29 P0001=
201202081307 SPECI KBFI 081307Z 00000KT 8SM FEW024 BKN029 OVC034 07/04 A3010 RMK AO2 RAE1254=
201202081307 SPECI KBFI 081307Z 00000KT 8SM FEW024 BKN029 OVC034 07/04 A3010 RMK AO2 RAE1254=
201202081253 METAR KBFI 081253Z 00000KT 10SM -RA OVC031 07/05 A3009 RMK AO2 SLP190 P0001 T00720050=
201202081153 METAR KBFI 081153Z 00000KT 10SM -RA OVC032 07/04 A3008 RMK AO2 RAB04 SLP186 P0000 60002 70002 T00720044 10100 20067 51014=
201202081053 METAR KBFI 081053Z 14008KT 10SM OVC060 07/04 A3007 RMK AO2 RAE49 SLP182 P0001 T00720039=
201202080953 METAR KBFI 080953Z 13009KT 10SM -RA FEW046 OVC065 08/03 A3006 RMK AO2 RAB09 SLP178 P0000 T00780028=
201202080853 METAR KBFI 080853Z 12003KT 10SM OVC050 08/04 A3004 RMK AO2 RAE48 SLP172 P0001 60001 T00780039 51015=
201202080753 METAR KBFI 080753Z 15004KT 10SM -RA OVC050 08/02 A3003 RMK AO2 SLP168 P0000 T00830017 401610033=
201202080653 METAR KBFI 080653Z 15007KT 10SM -RA OVC065 09/M02 A3001 RMK AO2 RAB53 SLP163 P0000 T00941022=
201202080553 METAR KBFI 080553Z 13007KT 10SM OVC080 10/M04 A3000 RMK AO2 SLP157 T01001039 10150 20094 53018=
201202080453 METAR KBFI 080453Z 12006KT 10SM OVC100 11/M04 A2997 RMK AO2 SLP150 T01061039=
201202080353 METAR KBFI 080353Z 14008KT 10SM BKN150 10/M04 A2996 RMK AO2 SLP143 T01001039=
201202080253 METAR KBFI 080253Z 00000KT 10SM CLR 12/M05 A2994 RMK AO2 SLP139 T01171050 53021=
201202080153 METAR KBFI 080153Z 12007KT 10SM CLR 13/M06 A2991 RMK AO2 SLP128 T01281056=
201202080053 METAR KBFI 080053Z 12009KT 10SM BKN150 14/M05 A2989 RMK AO2 SLP122 T01391050=
201202072353 METAR KBFI 072353Z 12011KT 10SM CLR 14/M05 A2988 RMK AO2 SLP118 T01441050 10161 20100 53008=
201202072253 METAR KBFI 072253Z 11011KT 10SM BKN160 16/M06 A2987 RMK AO2 SLP114 T01561056=
201202072153 METAR KBFI 072153Z 11008KT 10SM CLR 16/M05 A2986 RMK AO2 SLP111 T01561050=
201202072053 METAR KBFI 072053Z 12008KT 10SM SCT200 16/M05 A2986 RMK AO2 SLP110 T01611050 58011=
201202071953 METAR KBFI 071953Z COR VRB03KT 10SM SCT200 14/M03 A2987 RMK AO2 SLP114 T01391028=
201202071853 METAR KBFI 071853Z 32005KT 10SM SCT200 12/M01 A2988 RMK AO2 SLP119 T01171006=
201202071753 METAR KBFI 071753Z 31004KT 10SM CLR 10/M01 A2989 RMK AO2 SLP121 T01001011 10100 20033 52005=
201202071653 METAR KBFI 071653Z 34004KT 10SM CLR 08/M01 A2989 RMK AO2 SLP120 T00831011=
201202071553 METAR KBFI 071553Z 33004KT 10SM CLR 06/00 A2988 RMK AO2 SLP117 T00560000=
201202071453 METAR KBFI 071453Z 32005KT 10SM CLR 05/01 A2988 RMK AO2 SLP116 T00500011 58003=
201202071353 METAR KBFI 071353Z 00000KT 10SM CLR 04/M01 A2988 RMK AO2 SLP118 T00441011=
201202071253 METAR KBFI 071253Z 00000KT 10SM CLR 06/M02 A2988 RMK AO2 SLP119 T00561017=
201202071153 METAR KBFI 071153Z 00000KT 10SM CLR 04/M02 A2988 RMK AO2 SLP119 T00441017 10078 20033 58004=
201202071053 METAR KBFI 071053Z 33006KT 10SM CLR 06/00 A2989 RMK AO2 SLP123 T00560000=
201202070953 METAR KBFI 070953Z 00000KT 10SM CLR 04/00 A2989 RMK AO2 SLP122 T00390000=
201202070853 METAR KBFI 070853Z 32005KT 10SM CLR 06/01 A2990 RMK AO2 SLP123 T00560006 58011=
201202070753 METAR KBFI 070753Z 00000KT 10SM CLR 07/01 A2992 RMK AO2 SLP130 T00670006 401611011=
201202070653 METAR KBFI 070653Z 00000KT 10SM CLR 07/M01 A2993 RMK AO2 SLP135 T00721006=
201202070553 METAR KBFI 070553Z 00000KT 10SM CLR 08/M01 A2993 RMK AO2 SLP134 T00781006 10150 20061 55003=
201202070453 METAR KBFI 070453Z 33003KT 10SM CLR 08/00 A2992 RMK AO2 SLP133 T00780000=
201202070353 METAR KBFI 070353Z 12005KT 10SM CLR 11/M07 A2993 RMK AO2 SLP135 T01111067=
201202070253 METAR KBFI 070253Z VRB03KT 10SM CLR 11/M06 A2994 RMK AO2 SLP137 T01061056 55003=
201202070153 METAR KBFI 070153Z 00000KT 10SM CLR 12/M06 A2994 RMK AO2 SLP136 T01221061=
201202070053 METAR KBFI 070053Z 12009KT 10SM CLR 14/M08 A2994 RMK AO2 SLP137 T01441078=
201202062353 METAR KBFI 062353Z 34006KT 10SM CLR 14/M02 A2994 RMK AO2 SLP140 T01391022 10161 20072 56016=
201202062253 METAR KBFI 062253Z 32007KT 10SM CLR 13/M01 A2995 RMK AO2 SLP142 T01331011=
201202062153 METAR KBFI 062153Z VRB03KT 10SM CLR 16/M04 A2997 RMK AO2 SLP147 T01611044=
201202062053 METAR KBFI 062053Z 29005KT 10SM CLR 12/01 A2999 RMK AO2 SLP156 T01220011 58019=
201202061953 METAR KBFI 061953Z 33007KT 10SM CLR 10/02 A3002 RMK AO2 SLP164 T01000017=
201202061853 METAR KBFI 061853Z 32005KT 10SM CLR 09/02 A3003 RMK AO2 SLP170 T00940022=
201202061753 METAR KBFI 061753Z 33006KT 10SM CLR 07/02 A3005 RMK AO2 SLP174 T00720017 10072 21011 58003=
201202061653 METAR KBFI 061653Z 33003KT 10SM FEW200 05/02 A3006 RMK AO2 SLP178 T00500017=
201202061553 METAR KBFI 061553Z 00000KT 10SM FEW200 01/M01 A3006 RMK AO2 SLP178 T00061011=
201202061453 METAR KBFI 061453Z 00000KT 10SM CLR 00/M01 A3006 RMK AO2 SLP178 T00001011 57013=
201202061353 METAR KBFI 061353Z 00000KT 10SM CLR M01/M02 A3007 RMK AO2 SLP182 T10061017=
201202061253 METAR KBFI 061253Z 00000KT 10SM CLR 00/M02 A3008 RMK AO2 SLP186 T00001017=
201202061153 METAR KBFI 061153Z 00000KT 10SM CLR 01/M01 A3010 RMK AO2 SLP190 T00061006 10044 21006 58008=
201202061053 METAR KBFI 061053Z 00000KT 10SM CLR 00/M01 A3011 RMK AO2 SLP194 T00001011=
201202060953 METAR KBFI 060953Z 00000KT 10SM CLR 02/00 A3011 RMK AO2 SLP196 T00170000=
201202060853 METAR KBFI 060853Z 00000KT 10SM CLR 03/01 A3012 RMK AO2 SLP199 T00280006 58009=
201202060753 METAR KBFI 060753Z 00000KT 10SM CLR 02/01 A3014 RMK AO2 SLP206 T00220006 401220000=
201202060653 METAR KBFI 060653Z 00000KT 10SM CLR 04/01 A3015 RMK AO2 SLP208 T00390006=
201202060553 METAR KBFI 060553Z 00000KT 10SM CLR 04/01 A3015 RMK AO2 SLP208 T00390011 10111 20033 58006=
201202060453 METAR KBFI 060453Z 00000KT 10SM BKN180 06/02 A3015 RMK AO2 SLP210 T00560022=
201202060353 METAR KBFI 060353Z 00000KT 10SM BKN180 06/03 A3016 RMK AO2 SLP212 T00610028=
201202060253 METAR KBFI 060253Z 31003KT 10SM CLR 07/03 A3016 RMK AO2 SLP214 T00720028 58003=
201202060153 METAR KBFI 060153Z 00000KT 10SM CLR 08/02 A3017 RMK AO2 SLP216 T00830022=
201202060053 METAR KBFI 060053Z 31005KT 10SM CLR 09/02 A3017 RMK AO2 SLP216 T00940022=
201202052353 METAR KBFI 052353Z COR 31004KT 10SM BKN180 11/M01 A3017 RMK AO2 SLP217 T01111006 10122 20067 56013=
201202052253 METAR KBFI 052253Z 32006KT 10SM CLR 12/M02 A3019 RMK AO2 SLP221 T01221017=
201202052153 METAR KBFI 052153Z 33005KT 10SM CLR 12/M01 A3020 RMK AO2 SLP225 T01171006=
201202052053 METAR KBFI 052053Z 32004KT 10SM CLR 11/02 A3021 RMK AO2 SLP230 T01060017 58010=
201202051953 METAR KBFI 051953Z 33005KT 10SM BKN200 10/02 A3023 RMK AO2 SLP235 T01000022=
201202051853 METAR KBFI 051853Z 00000KT 10SM CLR 09/01 A3024 RMK AO2 SLP239 T00890011=
201202051753 METAR KBFI 051753Z 00000KT 10SM CLR 07/01 A3024 RMK AO2 SLP240 T00670006 10067 20000 53010=
201202051653 METAR KBFI 051653Z 00000KT 10SM BKN200 03/00 A3023 RMK AO2 SLP237 T00330000=
201202051553 METAR KBFI 051553Z 00000KT 10SM CLR 01/M02 A3022 RMK AO2 SLP232 T00111017=
201202051453 METAR KBFI 051453Z 00000KT 10SM CLR 01/M02 A3021 RMK AO2 SLP230 T00061022 56003=
201202051353 METAR KBFI 051353Z 00000KT 10SM CLR 02/M02 A3021 RMK AO2 SLP230 T00221022=
201202051253 METAR KBFI 051253Z 00000KT 10SM CLR 02/M03 A3022 RMK AO2 SLP232 T00221028=
201202051153 METAR KBFI 051153Z AUTO 00000KT 10SM CLR 02/M03 A3022 RMK AO2 SLP233 T00221028 10083 20017 51010 TSNO=
201202051053 METAR KBFI 051053Z AUTO 00000KT 10SM CLR 03/M03 A3021 RMK AO2 SLP231 T00281028 TSNO=
201202050953 METAR KBFI 050953Z 00000KT 10SM CLR 04/M03 A3020 RMK AO2 SLP226 T00391028=
201202050853 METAR KBFI 050853Z 00000KT 10SM CLR 06/M03 A3019 RMK AO2 SLP222 T00611033 51004=
201202050753 METAR KBFI 050753Z 12004KT 10SM CLR 08/M04 A3019 RMK AO2 SLP223 T00781044 401560000=
201202050653 METAR KBFI 050653Z 13004KT 10SM CLR 08/M04 A3019 RMK AO2 SLP221 T00781044=
201202050553 METAR KBFI 050553Z 17003KT 10SM CLR 07/M04 A3018 RMK AO2 SLP218 T00721044 10150 20067 53012=
201202050453 METAR KBFI 050453Z 15006KT 10SM CLR 08/M04 A3016 RMK AO2 SLP214 T00831044=
201202050353 METAR KBFI 050353Z 12009KT 10SM CLR 11/M04 A3015 RMK AO2 SLP210 T01061044=
201202050253 METAR KBFI 050253Z 14008KT 10SM CLR 11/M04 A3014 RMK AO2 SLP206 T01061044 53006=
201202050153 METAR KBFI 050153Z 13006KT 10SM CLR 12/M05 A3013 RMK AO2 SLP202 T01221050=
201202050053 METAR KBFI 050053Z 12008KT 10SM CLR 13/M04 A3013 RMK AO2 SLP201 T01331044=
201202042353 METAR KBFI 042353Z 11008KT 10SM CLR 15/M04 A3013 RMK AO2 SLP201 T01501039 10156 20061 56006=
201202042253 METAR KBFI 042253Z 33004KT 10SM CLR 14/M03 A3013 RMK AO2 SLP201 T01391028=
201202042153 METAR KBFI 042153Z 31005KT 10SM CLR 13/M02 A3013 RMK AO2 SLP201 T01281022=
201202042053 METAR KBFI 042053Z 32007KT 10SM CLR 12/M01 A3014 RMK AO2 SLP206 T01171006 58019=
201202041953 METAR KBFI 041953Z 33005KT 10SM CLR 11/01 A3016 RMK AO2 SLP213 T01060006=
201202041853 METAR KBFI 041853Z 30004KT 10SM CLR 08/02 A3019 RMK AO2 SLP222 T00830022=
201202041753 METAR KBFI 041753Z 00000KT 10SM CLR 06/01 A3020 RMK AO2 SLP225 T00610011 10061 20000 50000=
201202041653 METAR KBFI 041653Z 00000KT 10SM CLR 04/M01 A3020 RMK AO2 SLP227 T00391006=
201202041553 METAR KBFI 041553Z 00000KT 10SM CLR 02/M02 A3020 RMK AO2 SLP225 T00171017=
201202041453 METAR KBFI 041453Z 00000KT 10SM CLR 02/M02 A3020 RMK AO2 SLP225 T00221017 51005=
201202041353 METAR KBFI 041353Z 00000KT 10SM CLR 01/M03 A3020 RMK AO2 SLP225 T00111028=
201202041253 METAR KBFI 041253Z 00000KT 10SM CLR 02/M03 A3019 RMK AO2 SLP222 T00221028=
201202041153 METAR KBFI 041153Z 00000KT 10SM CLR 03/M03 A3018 RMK AO2 SLP220 T00281028 10094 20017 51004=
201202041053 METAR KBFI 041053Z 00000KT 10SM CLR 03/M03 A3018 RMK AO2 SLP218 T00281028=
201202040953 METAR KBFI 040953Z 00000KT 10SM CLR 03/M04 A3018 RMK AO2 SLP219 T00331039=
201202040853 METAR KBFI 040853Z 00000KT 10SM CLR 04/M04 A3017 RMK AO2 SLP216 T00441039 53012=
201202040753 METAR KBFI 040753Z 00000KT 10SM CLR 06/M04 A3016 RMK AO2 SLP211 T00611044 401560000=
201202040653 METAR KBFI 040653Z 15005KT 10SM CLR 07/M05 A3014 RMK AO2 SLP206 T00671050=
201202040553 METAR KBFI 040553Z 13009KT 10SM CLR 09/M06 A3014 RMK AO2 SLP204 T00941061 10144 20094 51006=
201202040453 METAR KBFI 040453Z 12010KT 10SM CLR 10/M07 A3014 RMK AO2 SLP204 T01001067=
201202040353 METAR KBFI 040353Z 12007KT 10SM CLR 10/M06 A3013 RMK AO2 SLP201 T01001056=
201202040253 METAR KBFI 040253Z 13008KT 10SM CLR 11/M05 A3012 RMK AO2 SLP197 T01061050 51008=
201202040153 METAR KBFI 040153Z 12011KT 10SM CLR 12/M06 A3011 RMK AO2 SLP195 T01171056=
201202040053 METAR KBFI 040053Z 12013G19KT 10SM CLR 13/M06 A3010 RMK AO2 SLP192 T01331056=
201202032353 METAR KBFI 032353Z 13013G19KT 10SM CLR 14/M04 A3009 RMK AO2 SLP189 T01441044 10156 20072 53001=
201202032253 METAR KBFI 032253Z 12016G20KT 10SM CLR 15/M05 A3008 RMK AO2 SLP187 T01501050=
201202032153 METAR KBFI 032153Z 13014G19KT 10SM CLR 15/M04 A3008 RMK AO2 SLP185 T01501044=
201202032053 METAR KBFI 032053Z 13015G21KT 10SM CLR 15/M05 A3009 RMK AO2 SLP188 T01501050 58016=
201202031953 METAR KBFI 031953Z AUTO 00000KT 10SM CLR 12/00 A3011 RMK AO2 SLP194 T01170000=
201202031853 METAR KBFI 031853Z 31004KT 10SM CLR 09/02 A3013 RMK AO2 SLP201 T00940017=
201202031753 METAR KBFI 031753Z 32006KT 10SM CLR 07/02 A3013 RMK AO2 SLP203 T00720017 10072 20000 58011=
201202031653 METAR KBFI 031653Z 32003KT 10SM CLR 05/02 A3015 RMK AO2 SLP208 T00500017=
201202031553 METAR KBFI 031553Z 00000KT 10SM CLR 01/M01 A3016 RMK AO2 SLP211 T00111006=
201202031453 METAR KBFI 031453Z 34003KT 10SM CLR 03/01 A3017 RMK AO2 SLP214 T00280011 56014=
201202031353 METAR KBFI 031353Z 00000KT 10SM CLR 00/M01 A3018 RMK AO2 SLP217 T00001011=
201202031253 METAR KBFI 031253Z 00000KT 10SM CLR 02/01 A3019 RMK AO2 SLP221 T00170006=
201202031153 METAR KBFI 031153Z 00000KT 10SM CLR 03/01 A3021 RMK AO2 SLP228 T00280011 10050 20022 58015=
201202031053 METAR KBFI 031053Z 30003KT 10SM CLR 03/01 A3023 RMK AO2 SLP235 T00330011=
201202030953 METAR KBFI 030953Z 00000KT 10SM CLR 04/02 A3024 RMK AO2 SLP239 T00390017=
201202030853 METAR KBFI 030853Z 00000KT 10SM CLR 02/01 A3025 RMK AO2 SLP242 T00220011 58004=
201202030753 METAR KBFI 030753Z 00000KT 10SM CLR 04/01 A3026 RMK AO2 SLP246 T00440011 400890022=
201202030653 METAR KBFI 030653Z 32003KT 10SM CLR 05/02 A3026 RMK AO2 SLP244 T00500017=
201202030553 METAR KBFI 030553Z 00000KT 10SM CLR 05/02 A3026 RMK AO2 SLP247 T00500017 10083 20050 55007=
201202030453 METAR KBFI 030453Z 31003KT 10SM CLR 06/02 A3026 RMK AO2 SLP246 T00560017=
201202030353 METAR KBFI 030353Z 00000KT 10SM CLR 06/02 A3027 RMK AO2 SLP251 T00560017=
201202030253 METAR KBFI 030253Z 34003KT 10SM CLR 07/02 A3028 RMK AO2 SLP254 T00670017 56009=
201202030153 METAR KBFI 030153Z 00000KT 10SM CLR 08/02 A3029 RMK AO2 SLP256 T00780017=
201202030053 METAR KBFI 030053Z 32005KT 10SM SCT130 08/02 A3030 RMK AO2 SLP260 T00780022=
201202022353 METAR KBFI 022353Z 31005KT 10SM CLR 08/02 A3031 RMK AO2 SLP262 T00780022 10089 20050 56029=
201202022253 METAR KBFI 022253Z 33005KT 10SM CLR 09/01 A3033 RMK AO2 SLP271 T00890011=
201202022153 METAR KBFI 022153Z 34003KT 10SM CLR 08/03 A3036 RMK AO2 SLP281 T00830028=
201202022053 METAR KBFI 022053Z 02003KT 10SM CLR 08/02 A3039 RMK AO2 SLP291 T00780022 58022=
201202021953 METAR KBFI 021953Z AUTO 00000KT 10SM BKN080 07/03 A3043 RMK AO2 SLP305 T00720028 TSNO=
201202021853 METAR KBFI 021853Z COR 00000KT 10SM BKN080 06/03 A3046 RMK AO2 SLP313 T00610028=
201202021753 METAR KBFI 021753Z 00000KT 10SM CLR 05/03 A3046 RMK AO2 SLP313 T00500028 10050 20022 58003=
201202021653 METAR KBFI 021653Z 00000KT 10SM FEW065 04/02 A3047 RMK AO2 SLP316 T00440022=
201202021553 METAR KBFI 021553Z 00000KT 10SM CLR 02/02 A3047 RMK AO2 SLP316 T00220017=
201202021453 METAR KBFI 021453Z COR 00000KT 10SM SCT120 SCT180 03/02 A3047 RMK AO2 SLP316 T00280017 55004=
201202021353 METAR KBFI 021353Z 00000KT 10SM CLR 03/02 A3046 RMK AO2 SLP314 T00330017=
201202021253 METAR KBFI 021253Z 00000KT 10SM OVC070 03/02 A3047 RMK AO2 SLP318 T00330022=
201202021153 METAR KBFI 021153Z 00000KT 10SM BKN034 OVC080 04/02 A3048 RMK AO2 SLP320 70038 T00390022 10044 20022 50000=
201202021053 METAR KBFI 021053Z 00000KT 10SM BKN032 OVC080 04/02 A3049 RMK AO2 SLP323 T00390022=
201202020953 METAR KBFI 020953Z 14003KT 10SM BKN080 03/02 A3048 RMK AO2 SLP319 T00280017=
201202020853 METAR KBFI 020853Z 00000KT 10SM FEW028 OVC085 04/02 A3048 RMK AO2 SLP320 T00390017 51014=
201202020753 METAR KBFI 020753Z 13003KT 10SM BKN100 03/02 A3047 RMK AO2 SLP318 T00330017 400940022=
201202020653 METAR KBFI 020653Z 13005KT 10SM FEW024 03/02 A3045 RMK AO2 SLP311 T00330017=
201202020553 METAR KBFI 020553Z 00000KT 10SM CLR 04/02 A3044 RMK AO2 SLP306 T00440022 10083 20039 53024=
201202020453 METAR KBFI 020453Z 13003KT 10SM SCT050 05/02 A3041 RMK AO2 SLP296 T00500022=
201202020353 METAR KBFI 020353Z 13003KT 10SM OVC050 06/04 A3039 RMK AO2 SLP289 T00610039=
201202020253 METAR KBFI 020253Z 07004KT 10SM BKN048 07/04 A3036 RMK AO2 SLP282 T00720044 53028=
201202020153 METAR KBFI 020153Z 07006KT 10SM BKN042 07/04 A3033 RMK AO2 SLP271 T00720044=
201202020053 METAR KBFI 020053Z 07005KT 10SM CLR 08/04 A3031 RMK AO2 SLP261 T00830044=
201202012353 METAR KBFI 012353Z 11004KT 10SM FEW030 BKN038 08/04 A3028 RMK AO2 SLP253 60001 T00830044 10094 20072 53024=
201202012253 METAR KBFI 012253Z 00000KT 10SM BKN031 09/03 A3026 RMK AO2 SLP246 T00890033=
201202012230 SPECI KBFI 012230Z 00000KT 10SM SCT025 OVC031 08/04 A3025 RMK AO2=
201202012230 SPECI KBFI 012230Z 00000KT 10SM SCT025 OVC031 08/04 A3025 RMK AO2=
201202012209 SPECI KBFI 012209Z 17003KT 10SM BKN023 BKN039 08/04 A3024 RMK AO2=
201202012209 SPECI KBFI 012209Z 17003KT 10SM BKN023 BKN039 08/04 A3024 RMK AO2=
201202012153 METAR KBFI 012153Z 16007KT 10SM FEW021 BKN037 08/04 A3023 RMK AO2 SLP236 T00830044=
201202012053 METAR KBFI 012053Z 17007KT 10SM SCT012 BKN032 09/06 A3021 RMK AO2 RAE01 SLP229 P0000 60001 T00890056 51034=
201202011953 METAR KBFI 011953Z VRB04KT 10SM -RA SCT012 BKN017 OVC025 07/05 A3019 RMK AO2 RAB24 SLP223 P0001 T00720050=
201202011853 METAR KBFI 011853Z 00000KT 10SM FEW015 OVC027 08/04 A3015 RMK AO2 SLP211 T00830044=
201202011753 METAR KBFI 011753Z 00000KT 10SM OVC016 07/04 A3011 RMK AO2 PRESRR SLP195 60037 T00720044 10072 20061 53046=
201202011722 SPECI KBFI 011722Z 00000KT 10SM BKN018 BKN045 07/04 A3008 RMK AO2=
201202011722 SPECI KBFI 011722Z 00000KT 10SM BKN018 BKN045 07/04 A3008 RMK AO2=
201202011653 METAR KBFI 011653Z 00000KT 10SM OVC047 06/04 A3006 RMK AO2 RAE09 SLP177 P0000 T00610044=
201202011553 METAR KBFI 011553Z 00000KT 10SM -RA FEW008 OVC050 06/05 A3001 RMK AO2 SLP162 P0002 T00610050=
201202011453 METAR KBFI 011453Z VRB04KT 7SM -RA FEW016 OVC036 06/04 A2997 RMK AO2 SLP149 P0018 60035 T00610044 53029=
201202011416 SPECI KBFI 011416Z 33005KT 3SM RA BR SCT007 OVC010 07/06 A2994 RMK AO2 P0006=
201202011416 SPECI KBFI 011416Z 33005KT 3SM RA BR SCT007 OVC010 07/06 A2994 RMK AO2 P0006=
201202011409 SPECI KBFI 011409Z 00000KT 2 1/2SM -RA BR SCT007 OVC010 07/06 A2994 RMK AO2 P0004=
201202011409 SPECI KBFI 011409Z 00000KT 2 1/2SM -RA BR SCT007 OVC010 07/06 A2994 RMK AO2 P0004=
201202011353 METAR KBFI 011353Z 00000KT 5SM -RA BR BKN012 OVC018 07/06 A2993 RMK AO2 SLP133 P0008 T00720061=
201202011346 SPECI KBFI 011346Z 00000KT 7SM -RA BKN012 OVC018 07/06 A2992 RMK AO2 P0007=
201202011346 SPECI KBFI 011346Z 00000KT 7SM -RA BKN012 OVC018 07/06 A2992 RMK AO2 P0007=
201202011320 SPECI KBFI 011320Z 00000KT 4SM -RA BR SCT015 BKN024 OVC030 07/06 A2992 RMK AO2 P0005=
201202011320 SPECI KBFI 011320Z 00000KT 4SM -RA BR SCT015 BKN024 OVC030 07/06 A2992 RMK AO2 P0005=
201202011253 METAR KBFI 011253Z 00000KT 6SM -RA BR SCT029 OVC037 07/06 A2991 RMK AO2 SLP126 P0009 T00670061=
201202011153 METAR KBFI 011153Z 00000KT 6SM -RA BR OVC038 07/06 A2989 RMK AO2 SLP120 P0007 60015 70018 T00670061 10072 20061 53002=
201202011053 METAR KBFI 011053Z 00000KT 6SM -RA BR OVC044 07/06 A2987 RMK AO2 SLP116 P0004 T00670061=
201202010953 METAR KBFI 010953Z 00000KT 10SM -RA OVC044 07/06 A2987 RMK AO2 SLP116 P0003 T00670056=
201202010853 METAR KBFI 010853Z 00000KT 10SM -RA OVC044 07/06 A2988 RMK AO2 RAB38 SLP118 P0000 60001 T00670056 56024=
201202010753 METAR KBFI 010753Z 14003KT 10SM BKN050 BKN075 06/05 A2989 RMK AO2 RAE03 SLP120 P0000 T00610050 401000061=
201202010653 METAR KBFI 010653Z 12004KT 10SM -RA FEW039 OVC050 07/06 A2992 RMK AO2 SLP133 P0001 T00670056=
201202010553 METAR KBFI 010553Z 15005KT 10SM -RA BKN039 OVC050 07/06 A2995 RMK AO2 RAE0456B46 SLP142 P0000 60003 T00670056 10094 20067 58009=
201202010453 METAR KBFI 010453Z 14005KT 10SM -RA SCT042 BKN050 OVC085 07/06 A2996 RMK AO2 SLP146 P0002 T00670056=
201202010353 METAR KBFI 010353Z 14006KT 10SM -RA BKN036 OVC045 07/05 A2998 RMK AO2 SLP153 P0000 T00720050=
201202010253 METAR KBFI 010253Z VRB04KT 10SM -RA OVC046 08/04 A2998 RMK AO2 RAB26 SLP151 P0001 60001 T00830039 56003=
201202010153 METAR KBFI 010153Z 13004KT 10SM SCT055 OVC075 09/03 A2998 RMK AO2 SLP151 T00890028=
201202010053 METAR KBFI 010053Z 00000KT 10SM SCT043 BKN100 09/03 A2998 RMK AO2 SLP150 T00890028=

# No short TAF reports from KBFI in databse.

###################################
#  large TAF from KBFI
###################################
201202292345 TAF KBFI 292345Z 0100/0124 18013G20KT P6SM VCSH BKN018 OVC030
                      TEMPO 0102/0106 -SHRA FM010800 16005KT P6SM
                       VCSH SCT015 BKN020 FM012000 21006KT P6SM
                       VCSH SCT030 BKN045=
201202292104 TAF AMD KBFI 292104Z 2921/0118 18012G20KT P6SM -SHRA SCT020 BKN030
                       FM010600 16005KT P6SM VCSH SCT018 BKN025=
201202291746 TAF KBFI 291746Z 2918/0118 17014G20KT P6SM -SHRA SCT025 BKN045
                       OVC070
                      TEMPO 2918/2920 5SM -SHRASN BR BKN025 OVC045
                       FM292100 19012G20KT P6SM -SHRA SCT030 BKN045
                       FM010800 16005KT P6SM VCSH SCT018 BKN025=
201202291124 TAF KBFI 291124Z 2912/0112 18008KT P6SM FEW035 BKN050 BKN070
                      TEMPO 2912/2915 -SHRA BKN035 OVC050 FM291900
                       19008KT P6SM BKN035 BKN050
                      TEMPO 2920/2924 -SHRA BKN030 OVC040=
201202291013 KBFI 291013Z 2910/0106 17009KT P6SM SCT030 BKN050 OVC080
                      TEMPO 2910/2914 P6SM -SHRA BKN030 OVC050
                       FM291400 16008KT P6SM BKN035 BKN080 FM291800
                       21010KT P6SM BKN030 BKN050
                      PROB30 2920/0102 -SHRA=
201202290520 TAF KBFI 290520Z 2906/0106 14010G18KT P6SM OVC060
                      TEMPO 2906/2909 -RASN BKN030 OVC050 FM290900
                       18010KT P6SM -SHRA BKN030 OVC050
                      TEMPO 2909/2912 P6SM -SHRASN BKN020 OVC030
                       FM291200 16008KT P6SM BKN035 BKN080 FM291800
                       21010KT P6SM BKN030 BKN050
                      PROB30 2920/0102 -SHRA=
201202290302 KBFI 290302Z 2903/2924 11008KT P6SM -RA SCT025 OVC045
                      TEMPO 2903/2906 5SM -RASN OVC025 FM290600
                       18010KT P6SM -SHRA BKN030 OVC050
                      TEMPO 2908/2912 P6SM -SHRASN BKN020 OVC030
                       FM291200 16008KT P6SM VCSH BKN035 BKN080
                       FM291800 21010KT P6SM BKN030 BKN050
                      TEMPO 2920/2924 -SHRA=
201202290202 KBFI 290202Z 2902/2924 12011KT 6SM -RASN SCT008 OVC012 FM290800
                       18010KT P6SM -SHRA BKN030 OVC050
                      TEMPO 2908/2912 P6SM -SHRASN BKN020 OVC030
                       FM291200 16008KT P6SM VCSH BKN035 BKN080
                       FM291800 21010KT P6SM BKN030 BKN050
                      TEMPO 2920/2924 -SHRA=
201202290134 KBFI 290134Z 2902/2924 12011KT P6SM -RA OVC020 FM290700 18010KT
                       P6SM -SHRA BKN030 OVC050
                      TEMPO 2908/2912 P6SM -SHRASN BKN020 OVC030
                       FM291200 16008KT P6SM VCSH BKN035 BKN080
                       FM291800 21010KT P6SM BKN030 BKN050
                      TEMPO 2920/2924 -SHRA=
201202282331 TAF KBFI 282331Z 2900/2924 14012G20KT P6SM -RA SCT030 BKN045 OVC060
                       FM290700 18010KT P6SM -SHRA BKN030 OVC050
                       TEMPO 2908/2912 P6SM -SHRASN BKN020 OVC030
                       FM291200 16008KT P6SM VCSH BKN035 BKN080
                       FM291800 21010KT P6SM BKN030 BKN050
                      TEMPO 2920/2924 -SHRA=
201202281725 TAF KBFI 281725Z 2818/2918 14008KT P6SM SCT050 BKN100 OVC200 FM282100
                       16010KT P6SM BKN050 OVC100 FM290000 17012G18KT
                       P6SM -RA SCT030 BKN045 OVC060 FM290700 18010KT
                       P6SM -SHRA BKN030 OVC050
                      TEMPO 2907/2910 6SM -SHRASN BKN020 OVC030
                       FM291000 16008KT P6SM BKN035 BKN080=
201202281121 TAF KBFI 281121Z 2812/2912 14005KT P6SM SCT050 BKN120 FM281500
                       16010KT P6SM SCT070 BKN120 FM282100 16010KT
                       P6SM BKN050 OVC100 FM290000 17012G18KT P6SM
                       -RA SCT030 BKN045 OVC060 FM290700 18010KT
                       P6SM -SHRA BKN030 OVC050
                      TEMPO 2907/2910 6SM -SHRASN BKN020 OVC030
                       FM291000 16008KT P6SM BKN035 BKN080=
201202280523 TAF KBFI 280523Z 2806/2906 00000KT P6SM SCT250 FM280900 14004KT
                       P6SM SCT120 BKN200 FM281500 16010KT P6SM
                       SCT070 BKN120 OVC200 FM282100 16010KT P6SM
                       BKN050 OVC100 FM290000 17010KT P6SM -RA
                       SCT030 BKN045 OVC060=
201202272333 TAF KBFI 272333Z 2800/2824 02005KT P6SM BKN200 FM280900 14004KT
                       P6SM SCT120 BKN200 FM281500 16010KT P6SM
                       SCT070 BKN120 OVC200 FM282100 16010KT P6SM
                       BKN050 OVC100=
201202271723 TAF KBFI 271723Z 2718/2818 02006KT P6SM SCT250 FM272200 36005KT
                       P6SM BKN200 FM281100 14008KT P6SM OVC120=
201202271120 TAF KBFI 271120Z 2712/2812 36004KT P6SM FEW070 FM272200 VRB03KT
                       P6SM BKN200 FM281100 12007KT P6SM OVC120=
201202270520 TAF KBFI 270520Z 2706/2806 36006KT P6SM SCT040 FM270900 35008KT
                       P6SM SKC FM272100 31007KT P6SM SCT200=
201202262344 TAF KBFI 262344Z 2700/2724 07004KT P6SM VCSH SCT035 BKN060 FM270300
                       04005KT P6SM SCT070 FM270900 35008KT P6SM
                       SKC FM272100 31007KT P6SM SCT200=
201202261736 TAF KBFI 261736Z 2618/2718 00000KT P6SM BKN015 BKN045 OVC050 FM262100
                       VRB04KT P6SM VCSH BKN040 FM270400 36006KT
                       P6SM SCT040 FM271000 02008KT P6SM SKC=
201202261120 TAF KBFI 261120Z 2612/2712 18008KT P6SM BKN020 BKN040
                      TEMPO 2614/2617 SCT020 BKN040 FM261700 18008KT
                       P6SM SCT020 BKN040 FM262100 VRB04KT P6SM
                       VCSH BKN040 FM270400 36006KT P6SM SCT040
                       FM271000 02008KT P6SM SKC=
201202260520 TAF KBFI 260520Z 2606/2706 16007KT P6SM VCSH SCT020 BKN040
                      TEMPO 2606/2610 VRB04KT BKN020 OVC040 FM261000
                       VRB04KT P6SM VCSH BKN020 BKN040 FM261800
                       VRB04KT P6SM VCSH BKN025 BKN050 FM270300
                       36008KT P6SM SCT050=
201202252328 TAF KBFI 252328Z 2600/2624 19007KT P6SM VCSH SCT035 OVC090 FM260500
                       18008KT P6SM BKN050 FM261500 17006KT P6SM
                       VCSH BKN045 BKN080=
201202251733 TAF KBFI 251733Z 2518/2618 19005KT P6SM VCSH BKN030 OVC060 FM260200
                       18010KT P6SM SCT030 BKN050 FM260800 17009KT
                       P6SM BKN030 OVC045 FM261100 16006KT P6SM
                       OVC020=
201202251400 KBFI 251400Z 2514/2612 21012G25KT P6SM VCSH SCT022 BKN050
                      TEMPO 2514/2518 BKN022 OVC050 FM251800 23012KT
                       P6SM VCSH BKN035
                      TEMPO 2520/2524 SCT040=
201202251120 TAF KBFI 251120Z 2512/2612 20015G25KT P6SM -SHRA BKN020 BKN035
                       TEMPO 2512/2516 OVC015 FM251800 23012KT
                       P6SM VCSH BKN035
                      TEMPO 2520/2524 SCT040=
201202250522 TAF KBFI 250522Z 2506/2606 17012G29KT P6SM VCSH SCT025 OVC040
                      TEMPO 2506/2510 -SHRA BKN025 OVC040 FM251000
                       21015G25KT P6SM -SHRA BKN025 OVC040 FM251800
                       23012KT P6SM VCSH BKN035
                      TEMPO 2520/2524 SCT040=
201202242332 TAF KBFI 242332Z 2500/2524 13005KT P6SM -RA OVC050 FM250200 17008KT
                       P6SM -RA OVC035 FM250800 19013G21KT P6SM
                       -RA OVC025 FM251600 19015G23KT P6SM VCSH
                       BKN025 BKN050=
201202241730 TAF KBFI 241730Z 2418/2518 14007KT P6SM BKN040 OVC060 FM242100
                       18008KT P6SM -RA SCT030 OVC050 FM250000
                       18010KT P6SM -RA OVC030 FM250600 19017G24KT
                       P6SM -RA OVC025 FM251700 19015G23KT P6SM
                       VCSH SCT020 BKN030=
201202241203 KBFI 241203Z 2412/2512 15007KT P6SM SCT025 OVC050
                      TEMPO 2412/2416 BKN025 OVC040 FM241800 16010KT
                       P6SM SCT025 OVC040 FM242200 18010G20KT P6SM
                       -RA BKN025 OVC040 FM251000 18012G22KT P6SM
                       -SHRA BKN030=
201202241120 TAF KBFI 241120Z 2412/2512 18010KT P6SM BKN020 OVC035 FM241800
                       16010KT P6SM SCT025 OVC040 FM242200 18010G20KT
                       P6SM -RA BKN025 OVC040 FM251000 18012G22KT
                       P6SM -SHRA BKN030=
201202240520 TAF KBFI 240520Z 2406/2506 18007KT P6SM SCT040 OVC090 FM240800
                       17010KT P6SM BKN040 OVC070 FM241500 17010KT
                       P6SM BKN030 OVC060 FM242100 20012G20KT P6SM
                       VCSH OVC030=
201202232332 TAF KBFI 232332Z 2400/2424 17007KT P6SM BKN050 BKN120 OVC200 FM240800
                       17010KT P6SM SCT030 BKN040 OVC100 FM241500
                       17010KT P6SM BKN030 OVC060 FM242100 20012G20KT
                       P6SM VCSH OVC030=
201202231739 TAF KBFI 231739Z 2318/2418 15007KT P6SM BKN022 BKN040 BKN200 FM232000
                       20007KT P6SM SCT022 BKN040 OVC200 FM232200
                       17007KT P6SM BKN040 BKN150 FM240800 17010KT
                       P6SM VCSH BKN040 OVC100 FM241500 17010KT
                       P6SM VCSH OVC030=
201202231120 TAF KBFI 231120Z 2312/2412 17007KT P6SM BKN020 BKN040
                      TEMPO 2312/2316 SCT020 BKN040 FM231600 17007KT
                       P6SM SCT020 BKN040 FM232000 17007KT P6SM
                       BKN040 BKN150 FM240800 17010KT P6SM BKN040
                       OVC100=
201202230942 KBFI 230942Z 2310/2406 15010KT P6SM BKN022
                      TEMPO 2310/2314 SCT025 BKN040 FM231500 15008KT
                       P6SM SCT025 BKN040 FM232000 15008KT P6SM
                       BKN040 BKN150 FM240500 17010KT P6SM OVC040=
201202230520 TAF KBFI 230520Z 2306/2406 16006KT P6SM SCT025 BKN050 FM231500
                       14004KT P6SM SCT025 BKN040 FM232000 17007KT
                       P6SM BKN040 BKN150 FM240500 17010KT P6SM
                       OVC040=
201202222323 TAF KBFI 222323Z 2300/2324 20007KT P6SM VCSH SCT040 BKN180
                      TEMPO 2300/2302 -SHRA BKN040 FM230400 VRB04KT
                       P6SM VCSH SCT030 BKN045 FM230700 15005KT
                       P6SM SCT030 BKN045 FM231500 14004KT P6SM
                       SCT025 BKN040 FM232000 14004KT P6SM BKN040
                       BKN150=
201202222118 KBFI 222118Z 2221/2318 VRB06KT P6SM VCSH SCT025 SCT045
                      TEMPO 2221/2224 P6SM -SHRA BKN025 OVC040
                       FM230000 15005KT P6SM VCSH SCT030 BKN050
                       FM230700 15005KT P6SM SCT030 BKN050=
201202221935 KBFI 221935Z 2220/2318 24008KT P6SM VCSH SCT025 BKN040
                      TEMPO 2221/2224 P6SM -SHRA BKN025 OVC040
                       FM230000 15005KT P6SM VCSH SCT030 BKN050
                       FM230700 15005KT P6SM SCT030 BKN050=
201202221737 TAF KBFI 221737Z 2218/2318 13008KT P6SM VCSH SCT025 BKN040 FM222000
                       16008KT P6SM -SHRA BKN022 OVC050 FM230000
                       15005KT P6SM VCSH SCT030 BKN050 FM230700
                       15005KT P6SM SCT030 BKN050=
201202221514 KBFI 221514Z 2215/2312 00000KT 2SM -RA BR OVC008
                      TEMPO 2215/2217 4SM -RA FM221700 19012KT
                       P6SM VCSH BKN020 OVC030 FM222000 21010G20KT
                       P6SM -SHRA BKN025 OVC040 FM230000 21010KT
                       P6SM -SHRA SCT025 OVC040=
201202221400 KBFI 221400Z 2214/2312 33006KT P6SM OVC012
                      TEMPO 2214/2216 3SM -RA FM221700 19012KT
                       P6SM VCSH BKN020 OVC030 FM222000 21010G20KT
                       P6SM -SHRA BKN025 OVC040 FM230000 21010KT
                       P6SM -SHRA SCT025 OVC040=
201202221149 TAF KBFI 221149Z 2212/2312 20012G22KT P6SM OVC016
                      TEMPO 2212/2215 -RA FM221600 19012G22KT P6SM
                       VCSH BKN020 OVC030 FM221900 21010G20KT P6SM
                       -SHRA BKN025 OVC040 FM230000 21010KT P6SM
                       -SHRA SCT025 OVC040=
201202220532 TAF KBFI 220532Z 2206/2306 20012G22KT P6SM SCT010 OVC016
                      TEMPO 2206/2210 -RA BKN010 OVC016 FM221000
                       19012G22KT 5SM -RA BR BKN010 OVC016 FM221600
                       19012G22KT P6SM -SHRA BKN020 OVC030 FM221900
                       21015G25KT P6SM -SHRA BKN025 OVC040=
201202220342 KBFI 220342Z 2204/2224 21008G18KT P6SM BKN012 OVC025
                      TEMPO 2204/2208 -RA BKN008 OVC015 FM220800
                       19010G20KT P6SM -RA SCT010 OVC014
                      TEMPO 2210/2214 -RA BKN009 OVC014 FM221400
                       22015G25KT P6SM VCSH OVC020=
201202212332 TAF KBFI 212332Z 2200/2224 21016G28KT P6SM VCSH SCT012 OVC019
                      TEMPO 2200/2204 -SHRA BKN011 FM220600 22018G30KT
                       P6SM VCSH SCT010 OVC014
                      TEMPO 2210/2214 -SHRA BKN009 FM221400 22015G25KT
                       P6SM VCSH OVC020=
201202211732 TAF KBFI 211732Z 2118/2218 21015G25KT P6SM VCSH OVC012
                      TEMPO 2118/2122 5SM -RA BKN009 FM212200 21018G30KT
                       P6SM VCSH SCT010 OVC020 FM220600 21018G30KT
                       P6SM VCSH OVC015=
201202211131 TAF KBFI 211131Z 2112/2212 18010G22KT P6SM -RA SCT008 OVC014
                      TEMPO 2112/2116 4SM -RA BR BKN008 OVC014
                       FM211600 18010G20KT 6SM -RA BR BKN008 OVC014
                       FM212200 18012G22KT 6SM -RA BR BKN006 OVC010=
201202210732 KBFI 210732Z 2108/2206 16008KT 6SM -RA BR OVC015
                      TEMPO 2108/2112 3SM -RA BR BKN008 OVC014
                       FM211200 16008KT 4SM -RA BR BKN008 OVC014
                       FM212000 18010G20KT P6SM -RA SCT012 OVC018=
201202210531 TAF KBFI 210531Z 2106/2206 16008KT P6SM OVC015
                      TEMPO 2108/2112 5SM -RA BR BKN010 OVC014
                       FM211200 16008KT 5SM -RA BR BKN010 OVC014
                       FM212000 18010G20KT P6SM -RA SCT012 OVC018=
201202210107 KBFI 210107Z 2101/2124 16006KT P6SM SCT010 BKN020 OVC030
                      TEMPO 2101/2104 2SM -RA BR BKN005 OVC010
                       FM210400 18008KT 4SM -RA BR SCT010 OVC020
                       FM210600 18012KT 4SM -RA SCT010 OVC015 FM211200
                       21012G20KT P6SM -SHRA SCT020 OVC025 FM211500
                       20014G25KT P6SM VCSH OVC025=
201202202335 TAF KBFI 202335Z 2100/2124 18008KT 3SM -RA BR SCT010 BKN020 OVC030
                       TEMPO 2100/2104 2SM -RA BR BKN005 OVC010
                       FM210400 18008KT 4SM -RA BR SCT010 OVC020
                       FM210600 18012KT 4SM -RA SCT010 OVC015 FM211200
                       21012G20KT P6SM -SHRA SCT020 OVC025 FM211500
                       20014G25KT P6SM VCSH OVC025=
201202202134 KBFI 202134Z 2022/2118 18007KT 5SM BR SCT005 OVC012
                      TEMPO 2022/2102 2SM -RA BR BKN005 FM210200
                       18008KT 5SM -RA SCT010 BKN020 OVC030 FM210600
                       18012KT 4SM -RA SCT015 OVC020 FM211400 21012G20KT
                       P6SM VCSH SCT020 OVC030=
201202201740 TAF KBFI 201740Z 2018/2118 14004KT P6SM SCT025 OVC050 FM202000
                       18009KT P6SM VCSH SCT020 OVC045 FM210200
                       18008KT P6SM -RA BKN020 OVC030 FM210600
                       18012KT 4SM -RA SCT015 OVC020 FM211400 21012G20KT
                       P6SM VCSH SCT020 OVC030=
201202201120 TAF KBFI 201120Z 2012/2112 15005KT P6SM OVC080 FM201400 15005KT
                       P6SM OVC050 FM201800 15005KT P6SM BKN028
                       OVC050
                      TEMPO 2018/2021 -RA FM202100 17008KT P6SM
                       -RA BKN024 OVC045 FM210200 17008KT P6SM
                       -RA BKN018 OVC030=
201202200524 TAF KBFI 200524Z 2006/2106 14005KT P6SM BKN100 FM200900 14004KT
                       P6SM -RA BKN050 OVC080 FM201500 14004KT
                       P6SM -RA OVC028 FM201900 14004KT P6SM -RA
                       OVC018=
201202192332 TAF KBFI 192332Z 2000/2024 18007KT P6SM SCT030 BKN045 FM200400
                       13006KT P6SM OVC050 FM200800 13006KT P6SM
                       -RA OVC040 FM201600 16008KT P6SM -SHRA OVC028=
201202191735 TAF KBFI 191735Z 1918/2018 14006KT P6SM SCT025 BKN045
                      TEMPO 1918/1920 OVC025 FM192000 18007KT P6SM
                       SCT030 BKN045 FM200400 13006KT P6SM OVC050
                       FM200700 13006KT P6SM -RA OVC035 FM201600
                       16008KT P6SM -SHRA OVC028=
201202191633 KBFI 191633Z 1917/2012 14006KT P6SM SCT025 BKN045
                      TEMPO 1917/1918 BKN025 FM192000 18007KT P6SM
                       SCT030 BKN045 FM200400 13006KT P6SM OVC050
                       FM200700 13006KT P6SM -RA OVC035=
201202191127 TAF KBFI 191127Z 1912/2012 21008KT P6SM BKN020 OVC030 FM191500
                       18007KT P6SM BKN022 OVC030 FM191900 18007KT
                       P6SM BKN028 OVC040 FM192100 18007KT P6SM
                       SCT030 BKN045 FM200400 13006KT P6SM OVC050
                       FM200700 13006KT P6SM -RA OVC035=
201202190534 TAF KBFI 190534Z 1906/2006 VRB05KT P6SM -SHRA BKN020 OVC035
                      TEMPO 1906/1910 BKN012 OVC020 FM191200 16004KT
                       P6SM BKN020 OVC035 FM191800 16005KT P6SM
                       SCT020 OVC040 FM192100 17006KT P6SM SCT030
                       BKN050=
201202182327 TAF KBFI 182327Z 1900/1924 18013G25KT P6SM -SHRA BKN018 OVC035
                       FM190200 18012G20KT P6SM -SHRA BKN020 BKN035
                       FM190600 18010KT P6SM VCSH BKN025 BKN050
                       FM191200 16005KT P6SM BKN030 BKN050 FM191700
                       14005KT P6SM BKN050=
201202181723 TAF KBFI 181723Z 1818/1918 16018G28KT P6SM -SHRA BKN018 OVC030
                       FM182000 18018G28KT P6SM -SHRA SCT012 BKN024
                       OVC035 FM190200 18012G20KT P6SM -SHRA BKN035
                       OVC050 FM190600 18010KT P6SM VCSH SCT035
                       BKN050 FM191200 16006KT P6SM BKN030 BKN050
                       FM191700 14005KT P6SM BKN050=
201202181136 TAF KBFI 181136Z 1812/1912 16015G25KT P6SM -SHRA BKN018 OVC030
                       FM182000 18016G26KT P6SM -SHRA SCT012 BKN024
                       OVC035 FM190200 18012G20KT P6SM -SHRA BKN035
                       OVC050 FM190700 18010KT P6SM VCSH SCT035
                       BKN050=
201202180524 TAF KBFI 180524Z 1806/1906 16010G22KT P6SM -SHRA SCT015 BKN035
                       OVC050 FM181800 18014G24KT P6SM -SHRA SCT020
                       BKN030 OVC045=
201202180133 KBFI 180133Z 1802/1824 20009G17KT P6SM -RA FEW012 SCT029 OVC040
                       FM180300 19011G18KT P6SM -SHRA SCT015 BKN025
                       OVC035 FM182200 20015G23KT 5SM -SHRA BR
                       SCT015 BKN020 OVC030=
201202180132 KBFI 180132Z 1802/1824 20008G20KT 3SM -SHRA BR FEW012 BKN029 OVC040
                       TEMPO 1802/1803 P6SM -SHRA FM180300 19011G18KT
                       P6SM -SHRA SCT015 BKN025 OVC035 FM182200
                       20015G23KT 5SM -SHRA BR SCT015 BKN020 OVC030=
201202172348 TAF KBFI 172348Z 1800/1824 13007KT 4SM -RA BR BKN025 OVC040 FM180300
                       19011G18KT P6SM -SHRA SCT015 BKN025 OVC035
                       FM182200 20015G23KT 5SM -SHRA BR SCT015
                       BKN020 OVC030=
201202171937 KBFI 171937Z 1720/1818 16004KT 6SM -RA BKN025 OVC035 FM172100 17008KT
                       5SM -RA BR BKN015 OVC025 FM180300 18012G19KT
                       P6SM -SHRA SCT012 BKN020 OVC035=
201202171744 TAF KBFI 171744Z 1718/1818 14004KT P6SM VCSH SCT035 OVC050 FM172100
                       14007KT P6SM -RA BKN025 OVC035 FM172300
                       17009KT 5SM -RA BR BKN015 OVC025 FM180300
                       18012G19KT P6SM -SHRA SCT012 BKN020 OVC035=
201202171350 KBFI 171350Z 1714/1812 00000KT 5SM BR FEW005
                      TEMPO 1714/1717 2SM BR BKN004 OVC008 FM171700
                       VRB03KT P6SM SCT008 BKN012 OVC020 FM172100
                       14006KT P6SM -RA BKN018 OVC030 FM180000
                       16010KT 5SM -RA BKN016 OVC025 FM180400 18012KT
                       P6SM -SHRA SCT012 BKN020 OVC035=
201202171147 TAF KBFI 171147Z 1712/1812 VRB03KT P6SM SCT004 BKN008 OVC015
                      TEMPO 1712/1715 4SM BR BKN004 OVC008 FM171700
                       VRB03KT P6SM SCT008 BKN012 OVC020 FM172100
                       14006KT P6SM -RA BKN018 OVC030 FM180000
                       16010KT 5SM -RA BKN016 OVC025 FM180400 18012KT
                       P6SM -SHRA SCT012 BKN020 OVC035=
201202170544 TAF KBFI 170544Z 1706/1806 VRB03KT P6SM BKN012 OVC020
                      TEMPO 1706/1710 5SM -DZ FM171500 VRB03KT
                       P6SM SCT012 BKN020 OVC030 FM172000 14006KT
                       P6SM -RA SCT018 OVC028 FM180000 16010KT
                       5SM -RA BKN016 OVC025=
201202162347 TAF KBFI 162347Z 1700/1724 17007KT P6SM OVC018 FM170600 VRB03KT
                       P6SM OVC030 FM171200 VRB03KT P6SM SCT030
                       BKN060 OVC200 FM171800 12008KT P6SM SCT030
                       BKN060 OVC200 FM172000 15008KT P6SM -RA
                       BKN028 OVC060=
201202161916 KBFI 161916Z 1619/1718 15007KT P6SM SCT009 BKN018 OVC040
                      TEMPO 1619/1621 6SM -RA BR BKN009 OVC015
                       FM162100 17007KT P6SM BKN018 OVC035
                      TEMPO 1621/1624 -RA FM170600 VRB03KT P6SM
                       OVC030 FM171200 VRB03KT P6SM SCT030 BKN060
                       OVC200=
201202161754 TAF KBFI 161754Z 1618/1718 17007KT P6SM SCT030 OVC050
                      TEMPO 1618/1620 -RA BKN030 OVC050 FM162000
                       17007KT P6SM BKN030 OVC045
                      TEMPO 1620/1624 -RA FM170600 VRB03KT P6SM
                       OVC030 FM171200 VRB03KT P6SM SCT030 BKN060
                       OVC200=
201202161140 TAF KBFI 161140Z 1612/1712 15004KT P6SM SCT050 OVC090 FM161600
                       15006KT P6SM -RA SCT030 OVC050 FM161800
                       17008KT P6SM SCT025 BKN040 OVC060
                      TEMPO 1620/1624 -SHRA BKN025 OVC040=
201202160543 TAF KBFI 160543Z 1606/1706 13004KT P6SM BKN200 FM161000 13004KT
                       P6SM SCT090 OVC150 FM161300 13004KT P6SM
                       SCT050 OVC090 FM161600 13006KT P6SM -RA
                       SCT030 OVC050 FM162000 17008KT P6SM -RA
                       SCT015 OVC025 FM170000 19008KT P6SM SCT020
                       BKN030 OVC045=
201202152345 TAF KBFI 152345Z 1600/1624 VRB03KT P6SM SCT035 OVC200
                      TEMPO 1600/1602 BKN035 OVC200 FM160600 VRB03KT
                       P6SM SCT090 OVC150 FM161200 14005KT P6SM
                       SCT050 OVC090
                      PROB30 1612/1615 -RA OVC050 FM161500 14005KT
                       P6SM -RA SCT030 OVC050 FM162000 18008KT
                       P6SM -RA SCT015 OVC030=
201202152110 KBFI 152110Z 1521/1618 18005KT P6SM SCT020 BKN045 BKN200
                      TEMPO 1521/1522 BKN020 BKN045 BKN200 FM152200
                       VRB03KT P6SM SCT050 OVC200 FM160600 VRB03KT
                       P6SM SCT090 OVC150 FM161200 14005KT P6SM
                       SCT050 OVC090
                      PROB30 1612/1615 -RA OVC050 FM161500 14005KT
                       P6SM -RA SCT030 OVC050=
201202151819 KBFI 151819Z 1518/1618 VRB03KT 6SM BR HZ SCT009 OVC040
                      TEMPO 1518/1520 BKN009 OVC030 FM152000 VRB03KT
                       P6SM BKN040 BKN200 FM152200 VRB03KT P6SM
                       SCT040 OVC200 FM160600 VRB03KT P6SM SCT090
                       OVC150 FM161200 14005KT P6SM SCT050 OVC090
                       PROB30 1612/1615 -RA OVC050 FM161500 14005KT
                       P6SM -RA SCT030 OVC050=
201202151742 TAF KBFI 151742Z 1518/1618 VRB03KT P6SM VCFG SCT009 OVC030
                      TEMPO 1518/1520 BKN009 OVC030 FM152000 VRB03KT
                       P6SM BKN040 BKN200 FM152200 VRB03KT P6SM
                       SCT040 OVC200 FM160600 VRB03KT P6SM SCT090
                       OVC150 FM161200 14005KT P6SM SCT050 OVC090
                       PROB30 1612/1615 -RA OVC050 FM161500 14005KT
                       P6SM -RA SCT030 OVC050=
201202151520 KBFI 151520Z 1515/1612 VRB03KT P6SM VCFG OVC009
                      TEMPO 1515/1518 OVC006 FM151800 VRB03KT P6SM
                       OVC012 FM152000 VRB03KT P6SM BKN015 BKN200
                       FM152100 VRB03KT P6SM BKN200 FM161000 VRB03KT
                       P6SM OVC100=
201202151403 KBFI 151403Z 1514/1612 VRB03KT P6SM BKN040
                      TEMPO 1514/1518 BKN007 FM151800 VRB03KT P6SM
                       BKN200 FM161000 VRB03KT P6SM OVC100=
201202151141 TAF KBFI 151141Z 1512/1612 VRB03KT P6SM SCT040
                      TEMPO 1512/1516 BKN040 FM151800 VRB03KT P6SM
                       BKN200 FM161000 VRB03KT P6SM OVC100=
201202150539 TAF KBFI 150539Z 1506/1606 VRB03KT P6SM SCT040
                      TEMPO 1506/1510 BKN040 FM151800 VRB03KT P6SM
                       BKN200=
201202150049 KBFI 150049Z 1501/1524 VRB05KT P6SM SCT020 BKN050 BKN200
                      TEMPO 1501/1503 -SHRA BKN020 OVC050 FM150300
                       VRB03KT P6SM SCT030 SCT050 SCT200
                      TEMPO 1503/1505 SCT030 BKN050 BKN200 FM150600
                       VRB03KT P6SM SCT200 FM150900 VRB03KT P6SM
                       VCFG FEW011 SCT200 FM151800 VRB03KT P6SM
                       BKN200=
201202142343 TAF KBFI 142343Z 1500/1524 23007KT P6SM SCT020 BKN050 BKN200
                      TEMPO 1500/1502 -SHRA BKN020 OVC050 FM150200
                       VRB03KT P6SM SCT028 SCT050 SCT200
                      TEMPO 1502/1504 BKN028 BKN050 BKN200 FM150600
                       VRB03KT P6SM SCT200 FM150900 VRB03KT P6SM
                       VCFG FEW011 SCT200 FM151800 VRB03KT P6SM
                       BKN200=
201202142050 KBFI 142050Z 1421/1518 20007KT P6SM BKN035 OVC050
                      TEMPO 1421/1424 -SHRA BKN015 OVC030 FM150000
                       VRB03KT P6SM SCT050 BKN090 FM150300 VRB03KT
                       P6SM SCT090 BKN200 FM150600 VRB03KT P6SM
                       SCT200 FM150900 VRB03KT P6SM VCFG SCT200=
201202141748 TAF KBFI 141748Z 1418/1518 18009KT P6SM -RA SCT015 OVC040
                      TEMPO 1418/1420 BKN015 OVC040 FM142000 20007KT
                       P6SM SCT035 BKN050
                      TEMPO 1420/1424 -SHRA BKN035 OVC050 FM150000
                       VRB03KT P6SM SCT050 BKN090 FM150300 VRB03KT
                       P6SM SCT090 BKN200 FM150600 VRB03KT P6SM
                       SCT200 FM150900 VRB03KT P6SM VCFG SCT200=
201202141624 KBFI 141624Z 1416/1512 16008KT P6SM FEW030 SCT050 OVC100
                      TEMPO 1416/1419 FEW030 BKN050 OVC100 FM141900
                       VRB03KT P6SM BKN021 OVC030
                      TEMPO 1419/1422 -RA FM150100 VRB03KT P6SM
                       SCT025 BKN045 OVC060 FM150400 VRB03KT P6SM
                       BKN050=
201202141139 TAF KBFI 141139Z 1412/1512 16008KT P6SM SCT025 OVC045
                      TEMPO 1412/1416 BKN025 OVC045 FM141600 16008KT
                       P6SM OVC025 FM141800 VRB03KT P6SM BKN021
                       OVC030
                      TEMPO 1418/1422 -RA FM150100 VRB03KT P6SM
                       SCT025 BKN045 OVC060 FM150400 VRB03KT P6SM
                       BKN050=
201202140544 TAF KBFI 140544Z 1406/1506 17006KT P6SM SCT025 OVC045
                      TEMPO 1406/1410 BKN025 OVC045 FM141000 18008KT
                       P6SM OVC025
                      PROB30 1418/1421 -RA FM142100 18008KT P6SM
                       BKN030 OVC050
                      PROB30 1421/1424 -RA=
201202132348 TAF KBFI 132348Z 1400/1424 VRB03KT P6SM BKN030 OVC050 FM140600
                       14005KT P6SM OVC025
                      PROB30 1412/1418 6SM -RA BR OVC019 FM141800
                       18008KT P6SM OVC029
                      PROB30 1418/1421 -RA FM142100 18008KT P6SM
                       BKN030 OVC050
                      PROB30 1421/1424 -RA=
201202132258 KBFI 132258Z 1323/1418 VRB03KT P6SM BKN035 OVC050 FM140300 00000KT
                       P6SM SCT050 SCT200 FM140900 00000KT P6SM
                       VCFG FEW025 SCT060 BKN200 FM141200 00000KT
                       P6SM VCFG SCT025 BKN060 OVC130=
201202132105 KBFI 132105Z 1321/1418 VRB03KT P6SM SCT017 BKN028 OVC040
                      TEMPO 1321/1322 BKN017 OVC029 FM140000 VRB03KT
                       P6SM BKN035 BKN050 FM140300 00000KT P6SM
                       SCT050 SCT200 FM140900 00000KT P6SM VCFG
                       FEW025 SCT060 BKN200 FM141200 00000KT P6SM
                       VCFG SCT025 BKN060 OVC130=
201202131740 TAF KBFI 131740Z 1318/1418 34005KT 6SM BR SCT008 BKN015 OVC030
                       TEMPO 1318/1319 4SM -DZ BR BKN008 OVC015
                       FM131900 34005KT P6SM BKN022 OVC040 FM132100
                       34005KT P6SM BKN035 BKN050 FM140000 VRB03KT
                       P6SM SCT035 BKN050 FM140300 00000KT P6SM
                       SCT050 SCT200 FM140900 00000KT P6SM VCFG
                       FEW025 SCT060 BKN200 FM141200 00000KT P6SM
                       VCFG SCT025 BKN060 OVC130=
201202131552 KBFI 131552Z 1316/1412 VRB04KT 5SM -RA BR BKN006 OVC012
                      TEMPO 1316/1318 2SM -RA BR FM131800 VRB04KT
                       6SM -DZ BR BKN012 OVC030 FM132000 31005KT
                       P6SM OVC045 FM140600 VRB03KT P6SM FEW008
                       BKN050=
201202131132 TAF KBFI 131132Z 1312/1412 00000KT 6SM -RA BR SCT008 SCT015 OVC025
                       TEMPO 1312/1314 4SM -RA BR OVC008 FM131400
                       00000KT 5SM -DZ BR SCT008 OVC013
                      TEMPO 1314/1316 4SM -DZ BR OVC008 FM131600
                       31005KT P6SM BKN022 OVC040 FM132000 31005KT
                       P6SM OVC045 FM140600 VRB03KT P6SM FEW008
                       BKN050=
201202130833 KBFI 130833Z 1309/1406 00000KT P6SM -RA SCT013 OVC022
                      TEMPO 1310/1313 4SM -RA BR OVC013 FM131300
                       00000KT 5SM -DZ BR OVC013
                      TEMPO 1313/1316 3SM -DZ BR OVC009 FM131600
                       31005KT P6SM BKN022 OVC040 FM132300 VRB03KT
                       P6SM OVC045=
201202130524 TAF KBFI 130524Z 1306/1406 VRB02KT P6SM -RA SCT030 OVC045 FM131000
                       VRB03KT P6SM -SHRA BKN030 OVC050 FM131200
                       00000KT P6SM OVC035 FM131900 31005KT P6SM
                       SCT040 BKN070 FM132300 VRB03KT P6SM SCT040
                       SCT080=
201202122332 TAF KBFI 122332Z 1300/1324 22003KT P6SM OVC070 FM130700 15005KT
                       P6SM -RA BKN040 OVC070 FM131000 VRB03KT
                       P6SM -SHRA BKN035 OVC070 FM131200 00000KT
                       P6SM OVC030 FM131900 29004KT P6SM SCT040
                       BKN070 FM132300 VRB03KT P6SM SCT040 SCT080=
201202121955 KBFI 121955Z 1220/1318 16004KT P6SM SCT040 OVC070
                      TEMPO 1220/1222 OVC040 FM130100 15005KT P6SM
                       -RA BKN040 OVC070 FM130800 VRB03KT P6SM
                       -SHRA BKN035 OVC070 FM131200 00000KT P6SM
                       OVC030=
201202121725 TAF KBFI 121725Z 1218/1318 14005KT P6SM OVC030 FM122000 18005KT
                       P6SM SCT035 BKN070 FM130100 15005KT P6SM
                       -RA BKN040 OVC070 FM130800 VRB03KT P6SM
                       -SHRA BKN035 OVC070 FM131200 00000KT P6SM
                       OVC030=
201202121138 TAF KBFI 121138Z 1212/1312 13004KT P6SM SCT025 BKN035 BKN070
                      TEMPO 1212/1216 BKN025 BKN070 FM122000 VRB03KT
                       P6SM SCT035 BKN070 FM130100 15005KT P6SM
                       -RA BKN040 OVC070 FM130800 VRB03KT P6SM
                       -SHRA BKN040 BKN070=
201202120520 TAF KBFI 120520Z 1206/1306 15008KT P6SM SCT022 BKN035
                      TEMPO 1206/1208 BKN022 FM121000 VRB03KT P6SM
                       BKN022 BKN035 BKN070 FM121600 VRB03KT P6SM
                       SCT035 BKN070 FM130000 15005KT P6SM -RA
                       BKN040 OVC070=
201202112320 TAF KBFI 112320Z 1200/1224 19008KT P6SM BKN030 OVC040 FM120400
                       15004KT P6SM BKN050 FM122000 20005KT P6SM
                       BKN070=
201202111727 TAF KBFI 111727Z 1118/1218 17007KT P6SM BKN035 OVC070 FM112200
                       19007KT P6SM SCT035 BKN070
                      TEMPO 1122/1202 OVC035 FM120400 15004KT P6SM
                       BKN050=
201202111145 TAF KBFI 111145Z 1112/1212 16004KT P6SM VCSH SCT028 BKN040
                      TEMPO 1112/1116 -SHRA BKN028 FM111900 18008KT
                       P6SM BKN050 FM120400 VRB03KT P6SM BKN050=
201202110520 TAF KBFI 110520Z 1106/1206 15004KT P6SM -SHRA SCT018 BKN030 BKN050
                       TEMPO 1106/1110 -RA OVC018 FM111200 16004KT
                       P6SM VCSH BKN035 BKN050 FM111900 18008KT
                       P6SM BKN050 FM120400 VRB03KT P6SM BKN050=
201202102326 TAF KBFI 102326Z 1100/1124 12006KT P6SM OVC050
                      TEMPO 1100/1104 -SHRA BKN030 OVC050 FM110400
                       15006KT P6SM BKN030 BKN050 FM111900 19007KT
                       P6SM BKN050=
201202101723 TAF KBFI 101723Z 1018/1118 00000KT P6SM -RA BKN050 OVC080
                      TEMPO 1020/1024 -RA BKN030 OVC050 FM110000
                       12004KT P6SM -SHRA BKN045 FM110300 14004KT
                       P6SM BKN030 BKN050=
201202101125 TAF KBFI 101125Z 1012/1112 VRB03KT P6SM VCSH BKN100 FM101300 VRB03KT
                       P6SM -RA BKN060 FM101700 VRB04KT P6SM -RA
                       OVC045 FM110000 12004KT P6SM -SHRA BKN045
                       FM110800 14004KT P6SM VCSH BKN045=
201202101012 KBFI 101012Z 1010/1106 VRB03KT P6SM VCSH BKN100 FM101300 VRB03KT
                       P6SM -RA BKN060 FM101800 VRB04KT P6SM -RA
                       OVC045 FM110000 12004KT P6SM VCSH BKN045=
201202100905 KBFI 100905Z 1009/1106 VRB03KT P6SM VCSH SCT045 BKN100 FM101200
                       VRB04KT P6SM -RA OVC045 FM101700 VRB04KT
                       5SM -RA OVC025 FM102100 12004KT P6SM -RA
                       OVC030 FM110000 12004KT P6SM VCSH BKN045=
201202100525 TAF KBFI 100525Z 1006/1106 VRB03KT P6SM VCSH SCT045 BKN100 FM101000
                       VRB04KT P6SM -RA OVC045 FM101700 VRB04KT
                       5SM -RA OVC025 FM102100 12004KT P6SM -RA
                       OVC030 FM110000 12004KT P6SM VCSH BKN045=
201202092339 TAF KBFI 092339Z 1000/1024 00000KT P6SM -RA SCT050 BKN060 OVC090
                       FM100200 14003KT P6SM VCSH OVC050 FM101000
                       10002KT P6SM -RA OVC050 FM101600 02003KT
                       4SM -RA BR OVC018 FM102100 35004KT P6SM
                       -RA OVC018=
201202091726 TAF KBFI 091726Z 0918/1018 00000KT P6SM -RA FEW035 BKN050 OVC070
                       FM092100 12005KT P6SM OVC045 FM100000 12004KT
                       P6SM SCT060 BKN090 FM101000 16005KT P6SM
                       -RA OVC040=
201202091403 KBFI 091403Z 0914/1012 00000KT P6SM -RA OVC050 FM091600 12005KT
                       P6SM -RA OVC030 FM092100 12005KT P6SM OVC045
                       FM100000 12004KT P6SM SCT060 BKN090 FM101000
                       16005KT P6SM -RA OVC040=
201202091248 KBFI 091248Z 0913/1012 00000KT P6SM BKN045 OVC060 FM091430 VRB03KT
                       P6SM -RA OVC035 FM091600 12005KT P6SM -RA
                       OVC030 FM092100 12005KT P6SM OVC045 FM100000
                       12004KT P6SM SCT060 BKN090 FM101000 16005KT
                       P6SM -RA OVC040=
201202091124 TAF KBFI 091124Z 0912/1012 00000KT P6SM -RA BKN030 OVC045 FM092100
                       12005KT P6SM OVC045 FM100000 12004KT P6SM
                       SCT060 BKN090 FM101000 16005KT P6SM -RA
                       OVC040=
201202090520 TAF KBFI 090520Z 0906/1006 11003KT P6SM BKN035 OVC100 FM090700
                       10004KT P6SM BKN028 OVC045 FM091000 14005KT
                       5SM -RA BKN028 OVC045 FM092100 16006KT P6SM
                       OVC045 FM100000 12004KT P6SM SCT060 BKN090=
201202082338 TAF KBFI 082338Z 0900/0924 15009KT P6SM VCSH BKN035 OVC050
                      TEMPO 0900/0903 6SM -SHRA BKN025 OVC040 FM090400
                       11005KT P6SM BKN025 OVC045 FM091000 14002KT
                       6SM -RA BKN030 OVC050 FM092100 15005KT P6SM
                       OVC050=
201202081756 TAF KBFI 081756Z 0818/0918 00000KT P6SM -RA BKN035 OVC060 FM082100
                       20009KT P6SM -SHRA SCT050 BKN080 FM090900
                       15007KT P6SM -RA OVC050=
201202081300 KBFI 081300Z 0813/0912 00000KT P6SM -RA OVC030
                      TEMPO 0813/0816 5SM BR FM081600 16008KT P6SM
                       -RA OVC030 FM082100 20009KT P6SM SCT050
                       BKN080 FM090900 15007KT P6SM -RA OVC050=
201202081130 TAF KBFI 081130Z 0812/0912 14008KT P6SM -RA SCT040 OVC060 FM081300
                       13008KT P6SM BKN040 OVC060
                      TEMPO 0813/0816 5SM BR FM081600 16008KT P6SM
                       -RA OVC040 FM082100 20009KT P6SM SCT050
                       BKN080 FM090900 15007KT P6SM -RA OVC050=
201202080522 TAF KBFI 080522Z 0806/0906 14005KT P6SM -RA SCT070 BKN100 OVC150
                       FM081300 15004KT P6SM BKN070 OVC100 FM081800
                       16007KT P6SM BKN060 OVC100
                      TEMPO 0818/0822 -RA FM082200 19007KT P6SM
                       SCT060 BKN100=
201202072344 TAF KBFI 072344Z 0800/0824 11010KT P6SM BKN100 OVC200 FM080400
                       VRB03KT P6SM BKN100 OVC200 FM080700 14005KT
                       P6SM BKN060 OVC110
                      PROB30 0809/0813 -RA FM081400 15004KT P6SM
                       BKN070 OVC100 FM081900 16007KT P6SM BKN060
                       OVC100
                      TEMPO 0819/0823 -RA FM082300 19007KT P6SM
                       SCT080 BKN120=
201202071736 TAF KBFI 071736Z 0718/0818 34004KT P6SM SKC FM080300 VRB03KT P6SM
                       SCT120 BKN200 FM080900 14005KT P6SM SCT060
                       BKN120 OVC150 FM081400 15004KT P6SM BKN060
                       OVC100
                      PROB30 0814/0818 -RA=
201202071126 TAF KBFI 071126Z 0712/0812 VRB04KT P6SM SKC FM071800 10005KT P6SM
                       SKC FM080300 10005KT P6SM SCT120 BKN200
                       FM080900 14005KT P6SM SCT060 BKN120 OVC150=
201202070520 TAF KBFI 070520Z 0706/0806 12004KT P6SM SKC FM071200 05008KT P6SM
                       SKC FM080300 10005KT P6SM SCT120 BKN200=
201202062327 TAF KBFI 062327Z 0700/0724 32005KT P6SM SCT250 FM070300 VRB03KT
                       P6SM SCT250 FM071900 32005KT P6SM SCT250=
201202061731 TAF KBFI 061731Z 0618/0718 33005KT P6SM FEW250 FM070300 VRB03KT
                       P6SM FEW250=
201202061120 TAF KBFI 061120Z 0612/0712 00000KT P6SM FEW200 FM062100 12008KT
                       P6SM SKC=
201202060520 TAF KBFI 060520Z 0606/0706 12003KT P6SM SCT200 FM060900 00000KT
                       P6SM SCT200 FM062000 12008KT P6SM SCT200=
201202052320 TAF KBFI 052320Z 0600/0624 33005KT P6SM BKN200 FM060400 12003KT
                       P6SM BKN200 FM060900 00000KT P6SM SCT200
                       FM062000 12008KT P6SM SCT200=
201202051720 TAF KBFI 051720Z 0518/0618 VRB03KT P6SM BKN200 FM052100 31005KT
                       P6SM BKN200 FM060300 00000KT P6SM SCT200=
201202051135 TAF KBFI 051135Z 0512/0612 12007KT P6SM SCT250 FM051500 08005KT
                       P6SM SCT250 FM052100 36005KT P6SM FEW250
                       FM060300 03005KT P6SM FEW250=
201202050520 TAF KBFI 050520Z 0506/0606 12008KT P6SM SKC FM051200 08005KT P6SM
                       SKC FM051800 36005KT P6SM SKC=
201202042320 TAF KBFI 042320Z 0500/0524 33005KT P6SM FEW200 FM050400 00000KT
                       P6SM SKC FM051800 34004KT P6SM SCT250=
201202041736 TAF KBFI 041736Z 0418/0518 00000KT P6SM SCT200 FM042100 35004KT
                       P6SM FEW200 FM050400 00000KT P6SM SKC=
201202041120 TAF KBFI 041120Z 0412/0512 11005KT P6SM SKC FM041300 07007KT P6SM
                       SKC FM041800 02008KT P6SM SKC FM050600 10006KT
                       P6SM SKC=
201202040520 TAF KBFI 040520Z 0406/0506 12010KT P6SM SKC FM041300 07007KT P6SM
                       SKC FM041800 02008KT P6SM SKC=
201202032320 TAF KBFI 032320Z 0400/0424 13013G20KT P6SM SKC FM040200 12006KT
                       P6SM SKC FM040700 VRB03KT P6SM SKC=
201202032157 KBFI 032157Z 0322/0418 13012G20KT P6SM SKC FM040200 11004KT P6SM
                       SKC FM040400 00000KT P6SM SKC=
201202031723 TAF KBFI 031723Z 0318/0418 32003KT P6SM SKC FM032000 36004KT P6SM
                       SKC FM040400 00000KT P6SM SKC=
201202031125 TAF KBFI 031125Z 0312/0412 30003KT P6SM SKC FM032000 36005KT P6SM
                       SKC FM040200 VRB03KT P6SM SKC=
201202030520 TAF KBFI 030520Z 0306/0406 31003KT P6SM SKC FM032000 36005KT P6SM
                       SKC FM040200 VRB03KT P6SM SKC=
201202022320 TAF KBFI 022320Z 0300/0324 34003KT P6SM BKN130 FM030300 VRB03KT
                       P6SM SCT130 FM030600 00000KT P6SM SKC FM032000
                       36005KT P6SM SKC=
201202021738 TAF KBFI 021738Z 0218/0318 VRB03KT P6SM SCT060 BKN120 FM022100
                       34004KT P6SM FEW060 SCT120 FM030300 00000KT
                       P6SM SKC=
201202021131 TAF KBFI 021131Z 0212/0312 00000KT P6SM SCT030 OVC080
                      TEMPO 0212/0216 BKN030 BKN080 FM021600 VRB03KT
                       P6SM OVC070 FM022000 34007KT P6SM SCT150
                       FM030200 VRB03KT P6SM SKC=
201202020907 TAF AMD KBFI 020907Z 0209/0306 00000KT P6SM SCT028 OVC090
                      TEMPO 0209/0213 BKN028 OVC090 FM021300 08004KT
                       P6SM BKN120 BKN200 FM021700 01003KT P6SM
                       SCT150 FM030200 06005KT P6SM SKC=
201202020520 TAF KBFI 020520Z 0206/0306 13003KT P6SM SCT050 FM020700 13004KT
                       P6SM SCT120 BKN200 FM021300 08004KT P6SM
                       VCFG BKN120 BKN200 FM021700 01003KT P6SM
                       SCT150 FM030200 06005KT P6SM SKC=
201202020242 KBFI 020242Z 0203/0224 07006KT P6SM BKN040 BKN200 FM020700 13004KT
                       P6SM SCT120 BKN200 FM021300 08004KT P6SM
                       VCFG BKN120 BKN200 FM021700 01003KT P6SM
                       SCT150=
201202012340 TAF KBFI 012340Z 0200/0224 VRB03KT P6SM VCSH BKN035 BKN250 FM020200
                       VRB03KT P6SM SCT040 BKN200 FM020700 13004KT
                       P6SM SCT120 BKN200 FM021300 08004KT P6SM
                       VCFG BKN120 BKN200 FM021700 01003KT P6SM
                       SCT150=
201202011726 TAF KBFI 011726Z 0118/0218 VRB03KT P6SM SCT015 SCT050
                      TEMPO 0118/0121 BKN015 BKN050 FM012100 VRB04KT
                       P6SM SCT030 BKN050 FM020300 16006KT P6SM
                       SCT050 SCT200 FM021200 04006KT P6SM BKN120
                       BKN200=
201202011455 KBFI 011455Z 0115/0212 33009KT 5SM -RA BR SCT011 OVC025
                      TEMPO 0115/0116 3SM -RA BR BKN011 OVC025
                       FM011600 VRB04KT P6SM BKN028 OVC050
                      TEMPO 0116/0118 -SHRA FM011800 21006KT P6SM
                       BKN035 BKN050 FM012100 VRB04KT P6SM SCT035
                       BKN050 FM020200 15004KT P6SM SCT045 SCT100
                       SCT200=
201202011335 KBFI 011335Z 0114/0212 18004KT 5SM -RA BR SCT011 OVC025
                      TEMPO 0114/0116 3SM -RA BR BKN011 OVC025
                       FM011600 21008KT P6SM BKN028 OVC050
                      TEMPO 0116/0118 -SHRA FM011800 21006KT P6SM
                       BKN035 BKN050 FM012100 VRB04KT P6SM SCT035
                       BKN050 FM020200 15004KT P6SM SCT045 SCT100
                       SCT200=
201202011120 TAF KBFI 011120Z 0112/0212 00000KT 6SM -RA BR OVC045 FM011300 20006KT
                       P6SM -SHRA BKN020 OVC035 FM011900 18005KT
                       P6SM SCT035 SCT050
                      TEMPO 0120/0124 BKN035 BKN050 FM020200 15004KT
                       P6SM SCT045 SCT100 SCT200=
201202010726 KBFI 010726Z 0107/0206 14005KT P6SM -RA BKN040 OVC070 FM011400
                       20006KT P6SM -SHRA BKN020 OVC035 FM011900
                       18005KT P6SM VCSH BKN035 OVC050 FM020200
                       15004KT P6SM SCT045=
201202010527 TAF KBFI 010527Z 0106/0206 14005KT P6SM -RA BKN040 OVC070 FM010800
                       15006KT 6SM -RA BR SCT020 OVC030
                      TEMPO 0110/0114 4SM -RA BR OVC020 FM011500
                       20006KT P6SM -SHRA BKN020 OVC035 FM011900
                       18005KT P6SM VCSH BKN035 OVC050 FM020200
                       15004KT P6SM SCT045=
201202010307 KBFI 010307Z 0103/0124 VRB04KT P6SM -RA OVC045 FM010900 16006KT
                       6SM -RA BR OVC030
                      TEMPO 0112/0114 4SM -RA BR OVC020 FM011500
                       20006KT P6SM -SHRA BKN020 OVC035 FM011900
                       30006KT P6SM VCSH BKN025 BKN050=