##########################################################
# Query made at 02/17/2025 01:58:37 UTC
# Time interval: from 11/01/2012 00:00  to 11/30/2012 23:59  UTC
##########################################################

##########################################################
# KBFI, Seattle, Seattle Boeing Field (United States)
# WMO index: -----. WIGOS ID: Unknown
# Latitude 47-32-45N. Longitude 122-18-49W. Altitude 5 m.
##########################################################

###################################
#  METAR/SPECI from KBFI
###################################
201211302353 METAR KBFI 302353Z 15005KT 7SM -RA FEW039 OVC055 12/09 A2945 RMK AO2 SLP971 P0005 60010 T01170089 10150 20106 51014=
201211302253 METAR KBFI 302253Z 17005KT 7SM -RA SCT027 BKN045 OVC065 12/08 A2943 RMK AO2 SLP967 P0004 T01220083=
201211302153 METAR KBFI 302153Z 17011KT 8SM -RA SCT027 BKN049 OVC065 14/07 A2942 RMK AO2 RAB28 SLP963 P0000 T01390072=
201211302053 METAR KBFI 302053Z 17009KT 10SM FEW045 BKN060 BKN070 14/07 A2941 RMK AO2 PK WND 15027/1954 SLP957 60001 T01440067 58004=
201211301953 METAR KBFI 301953Z 17013G23KT 10SM FEW050 SCT080 BKN100 14/07 A2941 RMK AO2 RAE26 SLP959 P0001 T01440072=
201211301853 METAR KBFI 301853Z 15007KT 10SM -RA FEW046 BKN070 OVC110 12/08 A2943 RMK AO2 RAB52 SLP964 P0000 T01220078=
201211301753 METAR KBFI 301753Z 14008KT 10SM FEW060 BKN110 11/08 A2942 RMK AO2 SLP961 60004 T01060078 10106 20078 51016=
201211301653 METAR KBFI 301653Z 14008KT 10SM SCT046 OVC065 09/07 A2942 RMK AO2 RAE35 SLP960 P0001 T00940072=
201211301553 METAR KBFI 301553Z 12008KT 10SM -RA BKN046 BKN055 10/07 A2940 RMK AO2 RAE00B17 SLP956 P0002 T01000067=
201211301453 METAR KBFI 301453Z 14006KT 10SM -RA BKN055 BKN100 09/07 A2937 RMK AO2 RAB12 SLP945 P0000 60001 T00890067 55009=
201211301353 METAR KBFI 301353Z 15003KT 10SM SCT070 08/07 A2937 RMK AO2 SLP944 T00830067=
201211301253 METAR KBFI 301253Z 13005KT 10SM FEW050 BKN060 BKN090 08/06 A2939 RMK AO2 RAE20 SLP953 P0001 T00780061=
201211301153 METAR KBFI 301153Z 15004KT 10SM -RA FEW050 OVC060 08/07 A2940 RMK AO2 SLP954 P0002 60024 70034 T00830067 10100 20078 56019=
201211301053 METAR KBFI 301053Z 17006KT 10SM -RA BKN060 BKN070 OVC090 08/07 A2941 RMK AO2 RAE13B51 SLP958 P0000 T00830067=
201211300953 METAR KBFI 300953Z 13004KT 8SM -RA OVC050 08/07 A2943 RMK AO2 SLP966 P0014 T00830067=
201211300853 METAR KBFI 300853Z 13006KT 5SM RA BR OVC050 08/06 A2945 RMK AO2 SLP973 P0007 60008 T00830061 55015=
201211300753 METAR KBFI 300753Z 00000KT 10SM -RA OVC055 09/05 A2944 RMK AO2 RAB36 SLP969 P0001 T00890050 401330061=
201211300653 METAR KBFI 300653Z 13004KT 10SM SCT060 08/04 A2946 RMK AO2 SLP977 T00830039=
201211300553 METAR KBFI 300553Z 12006KT 10SM BKN048 OVC060 10/04 A2950 RMK AO2 RAB0459E12 SLP988 P0000 60000 T01000044 10128 20089 56010=
201211300453 METAR KBFI 300453Z 12003KT 10SM OVC065 10/04 A2951 RMK AO2 SLP991 T01000044=
201211300353 METAR KBFI 300353Z 12004KT 10SM OVC070 10/05 A2951 RMK AO2 RAE36 SLP991 P0000 T01000050=
201211300253 METAR KBFI 300253Z VRB06KT 10SM -RA OVC055 11/06 A2952 RMK AO2 RAB39 SLP997 P0000 60000 T01060056 58012=
201211300153 METAR KBFI 300153Z 16006KT 10SM BKN050 OVC060 11/06 A2954 RMK AO2 RAB34E47 SLP001 P0000 T01060056=
201211300053 METAR KBFI 300053Z 13003KT 10SM BKN048 OVC060 11/06 A2955 RMK AO2 SLP006 T01110061=
201211292353 METAR KBFI 292353Z 15007KT 10SM BKN055 OVC085 12/06 A2956 RMK AO2 SLP009 60005 T01220061 10133 20100 56012=
201211292253 METAR KBFI 292253Z 18004KT 10SM OVC040 13/06 A2957 RMK AO2 SLP013 T01280061=
201211292153 METAR KBFI 292153Z 08004KT 10SM SCT046 12/07 A2957 RMK AO2 RAE19 SLP012 P0000 T01170072=
201211292053 METAR KBFI 292053Z 16011KT 10SM -RA SCT038 OVC060 12/07 A2960 RMK AO2 RAB03 SLP022 P0001 60005 T01220072 58003=
201211291953 METAR KBFI 291953Z 15009KT 10SM BKN048 BKN065 12/07 A2960 RMK AO2 SLP024 T01220072=
201211291853 METAR KBFI 291853Z 14008KT 10SM OVC048 11/08 A2960 RMK AO2 RAE53 SLP024 P0004 T01060078=
201211291753 METAR KBFI 291753Z 00000KT 7SM -RA OVC060 11/07 A2960 RMK AO2 SLP024 P0003 60005 T01060067 10111 20067 53024=
201211291653 METAR KBFI 291653Z 14004KT 10SM -RA OVC065 10/06 A2956 RMK AO2 RAE12B30 SLP009 P0001 T01000061=
201211291553 METAR KBFI 291553Z 15007KT 10SM -RA OVC065 11/06 A2953 RMK AO2 SLP999 P0000 T01060056=
201211291453 METAR KBFI 291453Z 13010KT 10SM -RA BKN065 OVC080 11/05 A2953 RMK AO2 RAB07 SLP000 P0001 60001 T01110050 56029=
201211291353 METAR KBFI 291353Z 00000KT 10SM FEW060 SCT075 OVC095 07/05 A2956 RMK AO2 RAB39E49 SLP008 P0000 T00720050=
201211291253 METAR KBFI 291253Z 00000KT 10SM FEW065 SCT085 OVC110 08/04 A2959 RMK AO2 RAB16E28 SLP021 P0000 T00780044=
201211291153 METAR KBFI 291153Z 08003KT 10SM FEW075 BKN090 BKN110 07/05 A2962 RMK AO2 SLP030 70012 T00720050 10083 20061 58025=
201211291053 METAR KBFI 291053Z 17004KT 10SM BKN080 OVC100 07/04 A2966 RMK AO2 SLP044 T00720044=
201211290953 METAR KBFI 290953Z 14003KT 10SM BKN085 BKN110 07/04 A2968 RMK AO2 SLP049 T00720044=
201211290853 METAR KBFI 290853Z 13004KT 10SM FEW060 BKN100 07/04 A2969 RMK AO2 SLP055 T00670044 58010=
201211290753 METAR KBFI 290753Z 14004KT 10SM BKN055 OVC075 07/06 A2972 RMK AO2 SLP063 T00720056 400890028=
201211290653 METAR KBFI 290653Z 00000KT 9SM FEW050 BKN090 07/05 A2972 RMK AO2 SLP063 T00670050=
201211290553 METAR KBFI 290553Z 00000KT 10SM BKN070 08/06 A2972 RMK AO2 SLP065 60002 T00780056 10089 20078 51021=
201211290453 METAR KBFI 290453Z 11003KT 10SM OVC048 08/06 A2971 RMK AO2 RAE0355 SLP059 P0000 T00830056=
201211290353 METAR KBFI 290353Z 15006KT 10SM -RA OVC048 08/06 A2969 RMK AO2 RAB33 SLP052 P0001 T00830056=
201211290253 METAR KBFI 290253Z 14004KT 10SM OVC060 09/06 A2966 RMK AO2 RAB01E23 SLP044 P0000 60001 T00890056 53010=
201211290153 METAR KBFI 290153Z 16004KT 10SM FEW055 OVC080 08/06 A2963 RMK AO2 SLP035 T00830056=
201211290053 METAR KBFI 290053Z VRB03KT 10SM OVC065 08/06 A2963 RMK AO2 RAE41 SLP033 P0001 T00830061=
201211282353 METAR KBFI 282353Z 00000KT 6SM -RA OVC065 08/06 A2963 RMK AO2 SLP034 P0003 60010 T00830056 10083 20072 55000=
201211282253 METAR KBFI 282253Z 00000KT 7SM -RA OVC075 08/06 A2961 RMK AO2 SLP028 P0003 T00830056=
201211282153 METAR KBFI 282153Z 00000KT 5SM -RA OVC070 08/06 A2964 RMK AO2 SLP035 P0004 T00830056=
201211282053 METAR KBFI 282053Z 00000KT 9SM -RA BKN080 OVC095 08/04 A2963 RMK AO2 RAB20 SLP034 P0000 60000 T00830044 56021=
201211281953 METAR KBFI 281953Z 00000KT 10SM FEW060 SCT075 OVC095 08/04 A2965 RMK AO2 SLP041 T00830039=
201211281853 METAR KBFI 281853Z AUTO 00000KT 10SM BKN110 07/04 A2967 RMK AO2 SLP047 T00720039 TSNO=
201211281753 METAR KBFI 281753Z AUTO 00000KT 10SM SCT080 OVC100 07/03 A2969 RMK AO2 SLP055 T00670033 10067 20028 58023 TSNO=
201211281653 METAR KBFI 281653Z 33003KT 9SM OVC100 06/03 A2973 RMK AO2 SLP068 T00610033=
201211281553 METAR KBFI 281553Z 00000KT 8SM FEW090 SCT110 03/02 A2974 RMK AO2 SLP069 T00280017=
201211281453 METAR KBFI 281453Z 00000KT 9SM SCT120 03/02 A2976 RMK AO2 SLP078 T00330017 58022=
201211281353 METAR KBFI 281353Z 00000KT 10SM BKN120 04/02 A2979 RMK AO2 SLP088 T00440022=
201211281253 METAR KBFI 281253Z 00000KT 10SM OVC110 04/03 A2981 RMK AO2 SLP093 T00390028=
201211281153 METAR KBFI 281153Z 00000KT 10SM CLR 03/02 A2983 RMK AO2 SLP100 T00330022 10061 20028 58017=
201211281053 METAR KBFI 281053Z 17003KT 9SM CLR 03/02 A2985 RMK AO2 SLP107 T00280017=
201211280953 METAR KBFI 280953Z 00000KT 10SM CLR 04/03 A2987 RMK AO2 SLP115 T00440028=
201211280853 METAR KBFI 280853Z 00000KT 10SM CLR 04/02 A2988 RMK AO2 SLP117 T00440022 56012=
201211280753 METAR KBFI 280753Z 00000KT 10SM CLR 06/03 A2989 RMK AO2 SLP121 T00560033 401000011=
201211280653 METAR KBFI 280653Z 00000KT 10SM CLR 06/03 A2990 RMK AO2 SLP124 T00610028=
201211280553 METAR KBFI 280553Z 00000KT 10SM CLR 06/03 A2991 RMK AO2 SLP129 T00610028 10083 20056 56016=
201211280453 METAR KBFI 280453Z 00000KT 10SM CLR 06/02 A2992 RMK AO2 SLP130 T00610022=
201211280353 METAR KBFI 280353Z 35003KT 10SM BKN240 07/02 A2994 RMK AO2 SLP138 T00670022=
201211280253 METAR KBFI 280253Z 31004KT 10SM BKN060 BKN080 07/03 A2996 RMK AO2 SLP145 T00720033 58006=
201211280153 METAR KBFI 280153Z 00000KT 10SM OVC065 08/03 A2996 RMK AO2 SLP146 T00780033=
201211280053 METAR KBFI 280053Z 31003KT 10SM SCT070 BKN080 08/03 A2998 RMK AO2 SLP151 T00780033=
201211272353 METAR KBFI 272353Z 31003KT 10SM SCT060 BKN120 OVC220 08/02 A2998 RMK AO2 SLP151 T00830022 10100 20044 56013=
201211272253 METAR KBFI 272253Z COR 32006KT 10SM FEW100 SCT140 BKN240 09/03 A2998 RMK AO2 SLP153 T00890028=
201211272153 METAR KBFI 272153Z 30003KT 10SM CLR 09/03 A3000 RMK AO2 SLP158 T00940033=
201211272053 METAR KBFI 272053Z 31004KT 10SM BKN240 08/03 A3002 RMK AO2 SLP164 T00830033 58019=
201211271953 METAR KBFI 271953Z 00000KT 10SM OVC240 08/03 A3004 RMK AO2 SLP170 T00830028=
201211271853 METAR KBFI 271853Z 00000KT 10SM SCT150 OVC200 07/03 A3006 RMK AO2 SLP179 T00720033=
201211271753 METAR KBFI 271753Z 00000KT 9SM CLR 04/02 A3008 RMK AO2 SLP184 T00440017 10044 20011 53002=
201211271653 METAR KBFI 271653Z 00000KT 10SM SCT120 BKN200 03/01 A3008 RMK AO2 SLP184 T00280011=
201211271553 METAR KBFI 271553Z 00000KT 8SM CLR 02/00 A3007 RMK AO2 SLP182 T00170000=
201211271453 METAR KBFI 271453Z 00000KT 10SM BKN150 01/00 A3007 RMK AO2 SLP182 T00110000 57003=
201211271353 METAR KBFI 271353Z 00000KT 10SM CLR 02/00 A3007 RMK AO2 SLP183 T00170000=
201211271253 METAR KBFI 271253Z 00000KT 10SM CLR 01/00 A3008 RMK AO2 SLP184 T00110000=
201211271153 METAR KBFI 271153Z 15003KT 10SM CLR 02/00 A3008 RMK AO2 SLP186 T00170000 10033 20011 58000=
201211271053 METAR KBFI 271053Z 13004KT 10SM CLR 02/00 A3009 RMK AO2 SLP189 T00220000=
201211270953 METAR KBFI 270953Z 14003KT 10SM OVC055 03/01 A3008 RMK AO2 SLP186 T00280011=
201211270853 METAR KBFI 270853Z 00000KT 10SM SCT060 02/00 A3008 RMK AO2 SLP186 T00220000 51005=
201211270753 METAR KBFI 270753Z 00000KT 10SM CLR 02/00 A3008 RMK AO2 SLP185 T00220000 400890017=
201211270653 METAR KBFI 270653Z 00000KT 10SM CLR 03/00 A3007 RMK AO2 SLP183 T00280000=
201211270553 METAR KBFI 270553Z 00000KT 10SM CLR 03/00 A3007 RMK AO2 SLP181 T00280000 10078 20022 53004=
201211270453 METAR KBFI 270453Z 00000KT 10SM CLR 04/01 A3006 RMK AO2 SLP178 T00390006=
201211270353 METAR KBFI 270353Z 00000KT 10SM CLR 04/01 A3005 RMK AO2 SLP177 T00440006=
201211270253 METAR KBFI 270253Z 00000KT 10SM FEW200 05/01 A3006 RMK AO2 SLP177 T00500011 50000=
201211270153 METAR KBFI 270153Z 00000KT 10SM FEW200 06/02 A3006 RMK AO2 SLP179 T00610017=
201211270053 METAR KBFI 270053Z 00000KT 10SM SCT160 07/02 A3006 RMK AO2 SLP177 T00670022=
201211262353 METAR KBFI 262353Z 31003KT 10SM BKN200 08/02 A3006 RMK AO2 SLP177 T00780017 10089 20050 56008=
201211262253 METAR KBFI 262253Z 31006KT 10SM BKN200 09/M01 A3006 RMK AO2 SLP178 T00891011=
201211262153 METAR KBFI 262153Z 29005KT 10SM BKN250 09/00 A3007 RMK AO2 SLP181 T00890000=
201211262053 METAR KBFI 262053Z 31005KT 10SM CLR 09/01 A3008 RMK AO2 SLP185 T00890006 58015=
201211261953 METAR KBFI 261953Z VRB04KT 10SM CLR 08/01 A3010 RMK AO2 SLP192 T00780006=
201211261853 METAR KBFI 261853Z 35003KT 10SM CLR 07/M01 A3013 RMK AO2 SLP201 T00721006=
201211261753 METAR KBFI 261753Z 03004KT 10SM SCT250 05/00 A3012 RMK AO2 SLP200 T00500000 10050 20022 56012=
201211261653 METAR KBFI 261653Z 35003KT 10SM CLR 04/01 A3013 RMK AO2 SLP202 T00390006=
201211261553 METAR KBFI 261553Z 00000KT 10SM SCT200 03/00 A3015 RMK AO2 SLP208 T00330000=
201211261453 METAR KBFI 261453Z VRB03KT 10SM FEW010 03/01 A3016 RMK AO2 SLP212 T00280006 58005=
201211261353 METAR KBFI 261353Z VRB03KT 10SM FEW010 03/00 A3017 RMK AO2 SLP216 T00330000=
201211261253 METAR KBFI 261253Z 34005KT 10SM FEW010 03/01 A3017 RMK AO2 SLP216 T00280006=
201211261153 METAR KBFI 261153Z 32005KT 10SM CLR 03/01 A3017 RMK AO2 SLP217 T00280006 10044 20028 56020=
201211261119 SPECI KBFI 261119Z 00000KT 10SM FEW008 03/01 A3018 RMK AO2=
201211261053 METAR KBFI 261053Z 00000KT 10SM CLR 03/01 A3018 RMK AO2 SLP220 T00280006=
201211260953 METAR KBFI 260953Z 00000KT 10SM CLR 04/02 A3022 RMK AO2 SLP233 T00390017=
201211260853 METAR KBFI 260853Z 00000KT 10SM SCT008 04/01 A3023 RMK AO2 SLP237 T00390011 55006=
201211260753 METAR KBFI 260753Z 34004KT 10SM SCT008 04/02 A3022 RMK AO2 SLP234 T00390022 400890022=
201211260653 METAR KBFI 260653Z 35004KT 10SM SCT008 04/02 A3023 RMK AO2 SLP236 T00440022=
201211260619 SPECI KBFI 260619Z 32003KT 10SM FEW008 04/02 A3024 RMK AO2=
201211260553 METAR KBFI 260553Z 00000KT 10SM CLR 04/03 A3025 RMK AO2 SLP243 T00440028 10078 20044 58008=
201211260453 METAR KBFI 260453Z 35003KT 10SM CLR 05/03 A3026 RMK AO2 SLP245 T00500028=
201211260353 METAR KBFI 260353Z VRB04KT 10SM CLR 05/02 A3027 RMK AO2 SLP249 T00500022=
201211260253 METAR KBFI 260253Z 00000KT 10SM CLR 06/02 A3027 RMK AO2 SLP250 T00560022 58009=
201211260153 METAR KBFI 260153Z 35003KT 10SM CLR 06/02 A3028 RMK AO2 SLP254 T00610017=
201211260053 METAR KBFI 260053Z 36004KT 10SM FEW020 SCT250 07/02 A3030 RMK AO2 SLP259 T00670017=
201211252353 METAR KBFI 252353Z 02004KT 10SM FEW025 08/02 A3030 RMK AO2 SLP260 T00780022 10089 20050 56008=
201211252253 METAR KBFI 252253Z 01003KT 10SM FEW020 08/02 A3030 RMK AO2 SLP260 T00830022=
201211252153 METAR KBFI 252153Z 33007KT 10SM SCT025 08/04 A3031 RMK AO2 SLP262 T00830039=
201211252053 METAR KBFI 252053Z 33007KT 10SM SCT018 08/04 A3032 RMK AO2 SLP268 T00830039 58009=
201211252007 SPECI KBFI 252007Z 33007KT 10SM SCT007 08/04 A3033 RMK AO2=
201211251953 METAR KBFI 251953Z 36004KT 4SM HZ BKN007 07/04 A3034 RMK AO2 SLP273 T00720039=
201211251853 METAR KBFI 251853Z 04004KT 2SM BR OVC005 06/04 A3035 RMK AO2 SLP278 T00560039=
201211251823 SPECI KBFI 251823Z 00000KT 2SM BR OVC005 06/04 A3035 RMK AO2=
201211251753 METAR KBFI 251753Z 00000KT 2SM BR OVC003 05/04 A3035 RMK AO2 SLP277 T00500044 10050 20022 51013=
201211251700 SPECI KBFI 251700Z 32003KT 1SM BR OVC003 04/04 A3034 RMK AO2=
201211251653 METAR KBFI 251653Z 00000KT 1/4SM FG VV001 04/04 A3034 RMK AO2 SLP274 T00440039=
201211251553 METAR KBFI 251553Z 00000KT 1/4SM FG VV001 04/04 A3033 RMK AO2 SLP269 T00440039=
201211251453 METAR KBFI 251453Z 26003KT 1/4SM FG VV001 04/03 A3031 RMK AO2 SLP265 T00440033 53002=
201211251353 METAR KBFI 251353Z 00000KT 1/8SM FG VV002 04/03 A3031 RMK AO2 SLP262 T00390033=
201211251253 METAR KBFI 251253Z 00000KT 1/8SM FG VV001 03/03 A3031 RMK AO2 SLP263 T00330028=
201211251240 SPECI KBFI 251240Z 00000KT 1/8SM FG VV001 03/02 A3031 RMK AO2=
201211251153 METAR KBFI 251153Z COR 13003KT 1/8SM R13R/800 FG VV001 03/03 A3030 RMK AO2 SLP260 T00330028 10061 20028 53004=
201211251123 SPECI KBFI 251123Z 00000KT 1/4SM FG VV001 04/03 A3030 RMK AO2=
201211251115 SPECI KBFI 251115Z 00000KT 1/2SM FG VV001 03/02 A3030 RMK AO2=
201211251100 SPECI KBFI 251100Z 00000KT 1/2SM FG VV001 04/04 A3029 RMK AO2=
201211251053 METAR KBFI 251053Z 00000KT 1/2SM FG VV001 04/04 A3029 RMK AO2 SLP258 T00440039=
201211251043 SPECI KBFI 251043Z 00000KT 1SM BR VV002 04/04 A3029 RMK AO2=
201211251028 SPECI KBFI 251028Z 00000KT 1/2SM FG VV002 04/03 A3029 RMK AO2=
201211251018 SPECI KBFI 251018Z 00000KT 1/2SM FG VV002 04/03 A3029 RMK AO2=
201211250953 METAR KBFI 250953Z 00000KT 1/4SM FG BKN003 BKN060 05/04 A3029 RMK AO2 SLP256 T00500039=
201211250928 SPECI KBFI 250928Z 00000KT 1/4SM FG BKN003 BKN060 05/04 A3028 RMK AO2=
201211250923 SPECI KBFI 250923Z 11003KT 1 1/4SM BR BKN003 BKN060 04/03 A3028 RMK AO2=
201211250900 SPECI KBFI 250900Z 14003KT 5SM BR BKN003 BKN060 03/02 A3028 RMK AO2=
201211250853 METAR KBFI 250853Z 14004KT 6SM BR BKN021 04/03 A3027 RMK AO2 SLP251 T00390028 50005=
201211250840 SPECI KBFI 250840Z 13003KT 6SM BR BKN021 BKN026 OVC060 04/03 A3028 RMK AO2=
201211250808 SPECI KBFI 250808Z 00000KT 6SM BR FEW007 SCT022 OVC060 05/04 A3028 RMK AO2=
201211250753 METAR KBFI 250753Z 00000KT 8SM SCT022 OVC060 05/04 A3028 RMK AO2 SLP252 T00500039 401000039=
201211250653 METAR KBFI 250653Z 00000KT 10SM CLR 04/03 A3026 RMK AO2 SLP247 T00440033=
201211250553 METAR KBFI 250553Z 00000KT 9SM BKN055 BKN070 06/04 A3026 RMK AO2 SLP246 T00560039 10083 20056 53008=
201211250453 METAR KBFI 250453Z 00000KT 9SM OVC065 07/05 A3024 RMK AO2 SLP240 T00670050=
201211250353 METAR KBFI 250353Z 00000KT 10SM BKN060 07/05 A3024 RMK AO2 SLP238 T00670050=
201211250253 METAR KBFI 250253Z 00000KT 10SM OVC060 07/05 A3023 RMK AO2 SLP237 T00670050 58002=
201211250153 METAR KBFI 250153Z 00000KT 10SM FEW033 SCT065 BKN090 07/05 A3023 RMK AO2 SLP238 T00720050=
201211250053 METAR KBFI 250053Z 00000KT 10SM SCT018 BKN028 BKN090 08/05 A3024 RMK AO2 SLP239 T00780050=
201211242353 METAR KBFI 242353Z 22003KT 10SM SCT020 BKN040 08/05 A3024 RMK AO2 SLP239 T00830050 10100 20083 55003=
201211242253 METAR KBFI 242253Z 00000KT 10SM SCT022 BKN180 09/05 A3024 RMK AO2 SLP239 T00940050=
201211242153 METAR KBFI 242153Z 22003KT 10SM SCT017 09/06 A3024 RMK AO2 SLP240 T00940056=
201211242053 METAR KBFI 242053Z 14003KT 10SM FEW015 SCT040 10/05 A3025 RMK AO2 SLP242 T01000050 58004=
201211241953 METAR KBFI 241953Z 00000KT 10SM FEW015 SCT040 BKN200 09/06 A3025 RMK AO2 SLP242 T00940056=
201211241853 METAR KBFI 241853Z 15004KT 10SM SCT013 BKN038 09/06 A3026 RMK AO2 SLP246 T00890056=
201211241753 METAR KBFI 241753Z 14004KT 10SM FEW012 BKN036 09/07 A3026 RMK AO2 SLP245 60000 T00890067 10089 20061 53010=
201211241701 SPECI KBFI 241701Z 00000KT 10SM SCT009 BKN012 08/07 A3025 RMK AO2=
201211241653 METAR KBFI 241653Z COR 12003KT 10SM SCT009 BKN012 08/07 A3025 RMK AO2 SLP243 T00780067=
201211241613 SPECI KBFI 241613Z 00000KT 10SM FEW009 SCT013 BKN029 07/06 A3024 RMK AO2=
201211241553 METAR KBFI 241553Z 00000KT 10SM FEW007 SCT020 07/05 A3023 RMK AO2 SLP237 T00670050=
201211241536 SPECI KBFI 241536Z 00000KT 10SM FEW007 SCT036 07/06 A3023 RMK AO2=
201211241453 METAR KBFI 241453Z 15004KT 10SM FEW022 BKN035 07/06 A3023 RMK AO2 SLP235 60000 T00720061 53008=
201211241353 METAR KBFI 241353Z 17003KT 10SM BKN024 08/07 A3022 RMK AO2 SLP232 T00780067=
201211241253 METAR KBFI 241253Z 13004KT 10SM SCT022 BKN028 08/07 A3021 RMK AO2 RAB17E30 SLP228 P0000 T00830067=
201211241153 METAR KBFI 241153Z 18003KT 10SM OVC020 08/07 A3020 RMK AO2 RAE39 SLP227 P0000 60000 70094 T00830067 10100 20083 51017=
201211241053 METAR KBFI 241053Z 00000KT 10SM -RA OVC020 09/07 A3019 RMK AO2 RAB45 SLP223 P0000 T00890067=
201211240953 METAR KBFI 240953Z 00000KT 10SM OVC018 09/07 A3018 RMK AO2 SLP218 T00890067=
201211240933 SPECI KBFI 240933Z 00000KT 10SM OVC016 09/07 A3017 RMK AO2=
201211240853 METAR KBFI 240853Z 05005KT 10SM BKN012 OVC021 09/07 A3015 RMK AO2 SLP210 T00940067 51021=
201211240753 METAR KBFI 240753Z 00000KT 10SM BKN012 OVC021 10/08 A3014 RMK AO2 SLP204 T01000078 401060067=
201211240653 METAR KBFI 240653Z 00000KT 10SM BKN014 OVC020 10/08 A3012 RMK AO2 SLP197 T01000078=
201211240553 METAR KBFI 240553Z VRB03KT 10SM OVC014 10/08 A3009 RMK AO2 SLP190 P0001 60007 T01000083 10106 20089 51017=
201211240453 METAR KBFI 240453Z 22006KT 4SM BR OVC007 10/08 A3008 RMK AO2 RAE17 SLP185 P0002 T01000083=
201211240353 METAR KBFI 240353Z 25004KT 4SM -RA BR OVC007 10/09 A3007 RMK AO2 RAB41 SLP181 P0002 T01000089=
201211240253 METAR KBFI 240253Z 26003KT 5SM BR OVC008 10/09 A3004 RMK AO2 RAB05E36 SLP173 P0001 60002 T01000089 53000=
201211240218 SPECI KBFI 240218Z 00000KT 2SM -RA BR OVC005 09/08 A3004 RMK AO2 RAB05 P0000=
201211240153 METAR KBFI 240153Z 00000KT 5SM BR SCT003 OVC009 09/09 A3004 RMK AO2 RAB16E27 SLP171 P0001 T00940089=
201211240151 SPECI KBFI 240151Z 00000KT 5SM BR SCT003 OVC009 09/09 A3003 RMK AO2 RAB16E27 P0001=
201211240053 METAR KBFI 240053Z 14004KT 5SM BR BKN011 OVC033 09/08 A3004 RMK AO2 RAE10 SLP172 P0000 T00940083=
201211240007 SPECI KBFI 240007Z 14006KT 3SM -RA BR BKN011 OVC033 09/08 A3005 RMK AO2 P0000=
201211240000 SPECI KBFI 240000Z 14005KT 4SM -RA BR SCT011 BKN035 OVC044 09/08 A3005 RMK AO2 P0000=
201211232353 METAR KBFI 232353Z 14004KT 3SM -RA BR BKN011 OVC033 09/08 A3005 RMK AO2 SLP174 P0004 60054 T00940083 10094 20072 58009=
201211232300 SPECI KBFI 232300Z 13006KT 3SM -RA BR BKN011 OVC033 09/08 A3004 RMK AO2 P0001=
201211232253 METAR KBFI 232253Z 14005KT 4SM -RA BR SCT011 OVC033 09/08 A3006 RMK AO2 SLP177 P0013 T00890078=
201211232153 METAR KBFI 232153Z 13003KT 1 1/2SM RA BR SCT004 BKN009 BKN019 09/08 A3007 RMK AO2 SLP181 P0021 T00890078=
201211232126 SPECI KBFI 232126Z 13004KT 1 1/2SM RA BR SCT004 BKN009 BKN019 09/08 A3007 RMK AO2 P0012=
201211232100 SPECI KBFI 232100Z 00000KT 2SM -RA BR SCT004 BKN009 BKN019 09/08 A3008 RMK AO2 P0001=
201211232053 METAR KBFI 232053Z COR 13003KT 6SM -RA BR SCT004 BKN009 BKN019 09/07 A3007 RMK AO2 SLP183 VIS SW-NW 1 P0003 60016 T00890072 58014=
201211231953 METAR KBFI 231953Z 00000KT 3SM -RA BR FEW005 BKN008 OVC028 08/07 A3010 RMK AO2 SLP192 P0005 T00780072=
201211231853 METAR KBFI 231853Z COR 10003KT 3SM -RA BR FEW005 BKN008 OVC028 08/07 A3010 RMK AO2 SLP193 P0008 T00780067=
201211231753 METAR KBFI 231753Z 00000KT 4SM -RA BR BKN005 BKN016 OVC035 07/07 A3012 RMK AO2 SLP197 P0011 60033 T00720067 10078 20067 50000=
201211231730 SPECI KBFI 231730Z 14003KT 4SM RA BR BKN008 OVC030 07/06 A3012 RMK AO2 P0009=
201211231710 SPECI KBFI 231710Z 00000KT 5SM -RA BR BKN014 OVC030 07/06 A3012 RMK AO2 P0004=
201211231653 METAR KBFI 231653Z 00000KT 2SM +RA BR FEW005 BKN014 OVC030 07/06 A3013 RMK AO2 SLP201 P0013 T00720061=
201211231650 SPECI KBFI 231650Z 00000KT 2SM RA BR FEW005 BKN014 OVC030 07/06 A3013 RMK AO2 P0012=
201211231553 METAR KBFI 231553Z 00000KT 10SM -RA FEW009 SCT023 OVC032 08/06 A3012 RMK AO2 SLP199 P0002 T00780061=
201211231453 METAR KBFI 231453Z 00000KT 7SM -RA OVC038 07/06 A3012 RMK AO2 SLP197 P0003 60007 T00720056 58011=
201211231353 METAR KBFI 231353Z 00000KT 10SM -RA OVC042 07/06 A3011 RMK AO2 SLP197 P0003 T00720061=
201211231253 METAR KBFI 231253Z 00000KT 8SM -RA OVC046 07/06 A3016 RMK AO2 PRESRR SLP212 P0001 T00720056=
201211231153 METAR KBFI 231153Z 00000KT 10SM -RA BKN048 OVC070 07/06 A3015 RMK AO2 SLP208 P0001 60008 70008 T00720056 10083 20067 56021=
201211231053 METAR KBFI 231053Z COR 08003KT 10SM -RA BKN060 OVC080 07/05 A3017 RMK AO2 SLP215 P0001 T00670050 TSNO=
201211230953 METAR KBFI 230953Z 00000KT 9SM -RA FEW047 SCT060 OVC075 07/05 A3018 RMK AO2 SLP218 P0003 T00670050=
201211230853 METAR KBFI 230853Z 14005KT 10SM -RA OVC070 07/05 A3021 RMK AO2 SLP230 P0001 60003 T00720050 58006=
201211230753 METAR KBFI 230753Z 12004KT 10SM -RA OVC060 08/04 A3023 RMK AO2 RAE0658B36 SLP236 P0001 T00780044 400830017=
201211230653 METAR KBFI 230653Z 11004KT 10SM -RA BKN070 OVC085 08/04 A3022 RMK AO2 RAB38 SLP233 P0001 T00780039=
201211230553 METAR KBFI 230553Z 00000KT 10SM BKN110 07/03 A3023 RMK AO2 SLP236 T00720033 10083 20067 55005=
201211230453 METAR KBFI 230453Z 00000KT 10SM OVC110 08/02 A3021 RMK AO2 SLP230 T00780022=
201211230353 METAR KBFI 230353Z 00000KT 10SM BKN110 08/03 A3022 RMK AO2 SLP233 T00780033=
201211230253 METAR KBFI 230253Z 00000KT 10SM FEW085 SCT100 08/03 A3024 RMK AO2 SLP241 T00780033 58016=
201211230153 METAR KBFI 230153Z 12003KT 10SM BKN080 OVC100 07/04 A3025 RMK AO2 SLP244 T00720044=
201211230053 METAR KBFI 230053Z 00000KT 10SM OVC080 08/04 A3028 RMK AO2 SLP254 T00780039=
201211222353 METAR KBFI 222353Z 00000KT 10SM OVC085 08/03 A3029 RMK AO2 SLP257 T00830033 10083 20050 58006=
201211222253 METAR KBFI 222253Z 00000KT 10SM BKN075 BKN120 08/03 A3030 RMK AO2 SLP260 T00830028=
201211222153 METAR KBFI 222153Z 00000KT 10SM BKN080 08/03 A3031 RMK AO2 SLP262 T00780033=
201211222053 METAR KBFI 222053Z 00000KT 10SM OVC080 07/03 A3031 RMK AO2 SLP263 T00720028 58019=
201211221953 METAR KBFI 221953Z 00000KT 10SM OVC080 07/03 A3034 RMK AO2 SLP274 T00670028=
201211221853 METAR KBFI 221853Z 00000KT 10SM OVC100 06/03 A3036 RMK AO2 SLP279 T00610033=
201211221753 METAR KBFI 221753Z 00000KT 10SM SCT090 OVC110 05/03 A3037 RMK AO2 SLP282 T00500028 10050 20017 56001=
201211221653 METAR KBFI 221653Z 00000KT 10SM BKN110 04/02 A3037 RMK AO2 SLP282 T00390022=
201211221553 METAR KBFI 221553Z 00000KT 10SM SCT050 03/02 A3036 RMK AO2 SLP281 T00280017=
201211221453 METAR KBFI 221453Z 15004KT 10SM BKN050 02/01 A3037 RMK AO2 SLP283 T00170006 51007=
201211221353 METAR KBFI 221353Z 14003KT 10SM FEW038 02/01 A3037 RMK AO2 SLP283 T00170011=
201211221253 METAR KBFI 221253Z 00000KT 10SM SCT034 02/01 A3036 RMK AO2 SLP281 T00220011=
201211221153 METAR KBFI 221153Z 00000KT 10SM SCT043 03/02 A3035 RMK AO2 SLP276 70045 T00280017 10067 20028 51014=
201211221053 METAR KBFI 221053Z 00000KT 10SM SCT018 03/01 A3034 RMK AO2 SLP272 T00330011=
201211220953 METAR KBFI 220953Z 00000KT 10SM SCT018 04/02 A3032 RMK AO2 SLP267 T00390017=
201211220853 METAR KBFI 220853Z 00000KT 10SM SCT025 04/02 A3031 RMK AO2 SLP262 T00440022 51017=
201211220753 METAR KBFI 220753Z 15006KT 10SM CLR 04/02 A3030 RMK AO2 SLP260 T00390022 400890039=
201211220739 SPECI KBFI 220739Z 15007KT 10SM SCT021 05/02 A3030 RMK AO2=
201211220653 METAR KBFI 220653Z 12006KT 10SM BKN021 06/03 A3028 RMK AO2 SLP253 T00610028=
201211220612 SPECI KBFI 220612Z 13005KT 10SM SCT024 05/02 A3026 RMK AO2=
201211220553 METAR KBFI 220553Z 16006KT 10SM BKN024 07/03 A3026 RMK AO2 SLP245 T00670033 10078 20061 51040=
201211220453 METAR KBFI 220453Z 15007KT 10SM BKN020 07/04 A3022 RMK AO2 SLP233 T00720039=
201211220353 METAR KBFI 220353Z 18008KT 10SM BKN020 07/03 A3018 RMK AO2 SLP218 T00720033=
201211220253 METAR KBFI 220253Z AUTO 15006KT 10SM BKN020 07/04 A3014 RMK AO2 SLP205 T00720039 53043 TSNO=
201211220205 SPECI KBFI 220205Z VRB05KT 10SM BKN020 08/04 A3011 RMK AO2=
201211220153 METAR KBFI 220153Z VRB03KT 10SM SCT020 07/03 A3010 RMK AO2 SLP191 T00720033=
201211220053 METAR KBFI 220053Z 20006G17KT 10SM FEW021 SCT034 BKN090 07/03 A3005 RMK AO2 SLP175 T00720028=
201211212353 METAR KBFI 212353Z 18010G17KT 10SM SCT021 BKN031 BKN034 08/03 A3001 RMK AO2 SLP163 60027 T00780033 10083 20061 53041=
201211212253 METAR KBFI 212253Z 19010G21KT 10SM SCT019 BKN031 BKN055 08/04 A2996 RMK AO2 RAB05E50 SLP146 P0002 T00780044=
201211212153 METAR KBFI 212153Z 18009KT 10SM SCT019 BKN031 BKN055 07/03 A2993 RMK AO2 RAB2056E50 SLP136 P0011 T00670033=
201211212100 SPECI KBFI 212100Z 19012G19KT 10SM -RA FEW020 SCT041 BKN080 08/04 A2990 RMK AO2 RAB2056 P0000=
201211212053 METAR KBFI 212053Z 18012G19KT 10SM BKN016 BKN036 OVC046 08/04 A2989 RMK AO2 RAE30 SLP122 P0000 60014 T00780039 51020=
201211212002 SPECI KBFI 212002Z 17011G18KT 9SM -RA BKN016 BKN036 OVC046 07/04 A2988 RMK AO2 P0000=
201211211953 METAR KBFI 211953Z COR 19009G21KT 10SM -RA BKN016 BKN036 OVC046 07/04 A2988 RMK AO2 SLP118 P0005 T00670039=
201211211853 METAR KBFI 211853Z 16009KT 7SM -RA SCT016 BKN034 OVC049 07/04 A2986 RMK AO2 SLP112 P0009 T00720044 $=
201211211753 METAR KBFI 211753Z 18009KT 10SM -RA SCT016 BKN027 OVC110 07/04 A2983 RMK AO2 RAB1659 SLP102 P0007 60018 T00670039 10089 20067 51048=
201211211653 METAR KBFI 211653Z 17012G21KT 10SM SCT016 BKN027 08/04 A2980 RMK AO2 SLP091 T00780039=
201211211622 SPECI KBFI 211622Z 17014G21KT 10SM SCT016 BKN027 08/04 A2977 RMK AO2=
201211211553 METAR KBFI 211553Z 18013G21KT 10SM SCT021 BKN043 BKN090 07/04 A2976 RMK AO2 RAE1458 SLP076 P0000 T00720039=
201211211453 METAR KBFI 211453Z 18012G24KT 10SM -RA SCT021 BKN043 OVC090 07/04 A2969 RMK AO2 SLP054 P0001 60011 T00670039 53048=
201211211353 METAR KBFI 211353Z 24015G22KT 7SM -RA FEW020 BKN026 OVC033 08/04 A2963 RMK AO2 PK WND 18028/1331 PRESRR SLP035 P0009 T00780044=
201211211346 SPECI KBFI 211346Z 19013G24KT 9SM -RA BKN023 OVC032 08/04 A2961 RMK AO2 PK WND 18028/1331 P0007=
201211211253 METAR KBFI 211253Z 17009G17KT 10SM -RA OVC038 08/05 A2958 RMK AO2 SLP015 P0001 T00830050=
201211211153 METAR KBFI 211153Z 14005KT 10SM -RA OVC038 07/05 A2955 RMK AO2 RAB51 SLP006 P0001 60007 70027 T00720050 10083 20050 51007=
201211211053 METAR KBFI 211053Z 13004KT 10SM OVC046 07/05 A2954 RMK AO2 RAE41 SLP004 P0004 T00720050=
201211210953 METAR KBFI 210953Z 24004KT 8SM -RA OVC045 07/05 A2955 RMK AO2 PRESRR SLP005 P0002 T00720050=
201211210853 METAR KBFI 210853Z VRB04KT 10SM -RA BKN050 OVC060 07/04 A2953 RMK AO2 RAB38 PRESFR SLP998 P0000 60000 T00720039 58039=
201211210753 METAR KBFI 210753Z 15004KT 10SM OVC100 08/03 A2957 RMK AO2 SLP014 T00780033 401170050=
201211210653 METAR KBFI 210653Z 00000KT 10SM FEW110 06/04 A2961 RMK AO2 SLP025 T00610044=
201211210553 METAR KBFI 210553Z 00000KT 10SM CLR 06/04 A2964 RMK AO2 SLP038 60000 T00610039 10111 20061 58002=
201211210453 METAR KBFI 210453Z 00000KT 10SM SCT055 07/04 A2966 RMK AO2 SLP045 T00720044=
201211210353 METAR KBFI 210353Z 00000KT 10SM BKN046 BKN055 08/04 A2967 RMK AO2 RAB19E34 SLP047 P0000 T00780039=
201211210253 METAR KBFI 210253Z 15011KT 10SM BKN100 09/05 A2965 RMK AO2 SLP040 T00940050 56004=
201211210153 METAR KBFI 210153Z 14010KT 10SM SCT065 BKN090 09/05 A2965 RMK AO2 SLP040 T00940050=
201211210053 METAR KBFI 210053Z 14008KT 10SM FEW040 SCT075 BKN090 10/05 A2965 RMK AO2 SLP041 T01000050=
201211202353 METAR KBFI 202353Z 16008KT 10SM SCT033 BKN048 10/07 A2966 RMK AO2 SLP044 60020 T01000067 10117 20083 51037=
201211202253 METAR KBFI 202253Z 17011G17KT 10SM SCT030 BKN100 11/06 A2963 RMK AO2 WSHFT 2140 RAE22 SLP033 P0001 T01060061=
201211202200 SPECI KBFI 202200Z 19010G34KT 3SM -RA BKN027 BKN037 10/07 A2961 RMK AO2 WSHFT 2140 P0001=
201211202153 METAR KBFI 202153Z 22017G34KT 190V270 3SM +RA SCT030 BKN037 BKN046 11/07 A2961 RMK AO2 PK WND 23034/2151 WSHFT 2136 RAB08E34B50 PRESRR SLP025 P0005 T01060067=
201211202053 METAR KBFI 202053Z 13007KT 10SM BKN038 BKN049 OVC060 09/08 A2955 RMK AO2 RAE16 SLP007 P0001 60014 T00940078 51002=
201211201953 METAR KBFI 201953Z 11007KT 4SM -RA BR FEW032 OVC040 09/07 A2955 RMK AO2 SLP007 P0009 T00890067=
201211201853 METAR KBFI 201853Z 16003KT 5SM RA BR OVC050 08/07 A2957 RMK AO2 RAB13 SLP012 P0004 T00830067=
201211201753 METAR KBFI 201753Z 00000KT 10SM OVC070 09/06 A2955 RMK AO2 SLP005 60000 T00940061 10100 20067 56029=
201211201653 METAR KBFI 201653Z 00000KT 10SM SCT060 BKN120 08/07 A2957 RMK AO2 SLP013 T00830067=
201211201553 METAR KBFI 201553Z 00000KT 10SM SCT050 07/05 A2960 RMK AO2 SLP024 T00670050=
201211201453 METAR KBFI 201453Z 13005KT 10SM SCT065 BKN150 08/06 A2963 RMK AO2 SLP034 60000 T00780061 57014=
201211201353 METAR KBFI 201353Z 13004KT 10SM FEW070 08/06 A2965 RMK AO2 SLP041 T00780061=
201211201253 METAR KBFI 201253Z 12003KT 10SM SCT070 08/06 A2965 RMK AO2 RAE1155 SLP041 P0000 T00830061=
201211201153 METAR KBFI 201153Z 00000KT 10SM -RA FEW065 SCT080 OVC100 09/07 A2967 RMK AO2 RAB39 SLP048 P0000 60007 70251 T00890072 10106 20078 58006=
201211201053 METAR KBFI 201053Z 15005KT 10SM FEW110 08/07 A2968 RMK AO2 SLP051 T00830067=
201211200953 METAR KBFI 200953Z 13006KT 10SM CLR 08/07 A2968 RMK AO2 SLP051 T00830067=
201211200853 METAR KBFI 200853Z 12004KT 10SM FEW041 BKN060 09/08 A2969 RMK AO2 RAE13 SLP054 P0002 60007 T00940078 51014=
201211200753 METAR KBFI 200753Z 00000KT 10SM -RA FEW016 BKN042 OVC060 09/08 A2969 RMK AO2 RAB05 SLP053 P0005 T00940083 401390083=
201211200744 SPECI KBFI 200744Z 12003KT 10SM SCT016 BKN043 OVC060 09/08 A2969 RMK AO2 RAB05E44 P0005=
201211200735 SPECI KBFI 200735Z 00000KT 4SM RA BR SCT016 BKN026 OVC043 09/08 A2969 RMK AO2 RAB05 P0005=
201211200653 METAR KBFI 200653Z 14004KT 10SM FEW036 SCT048 BKN080 09/07 A2967 RMK AO2 SLP046 T00890072=
201211200553 METAR KBFI 200553Z 15007KT 10SM FEW060 10/07 A2965 RMK AO2 SLP040 60046 T01000067 10128 20100 53032=
201211200453 METAR KBFI 200453Z 17007KT 10SM FEW020 11/07 A2962 RMK AO2 SLP029 T01060072=
201211200353 METAR KBFI 200353Z 19008G14KT 10SM FEW020 11/08 A2959 RMK AO2 SLP018 T01110078=
201211200253 METAR KBFI 200253Z 18010G19KT 10SM BKN024 BKN030 OVC055 13/09 A2956 RMK AO2 PK WND 15028/0234 RAE01 SLP008 P0000 60046 T01280089 53035=
201211200153 METAR KBFI 200153Z 18011G17KT 10SM -RA FEW028 BKN036 OVC055 12/10 A2950 RMK AO2 SLP991 P0036 T01220100=
201211200053 METAR KBFI 200053Z 14004KT 5SM RA BR BKN035 OVC047 12/09 A2946 RMK AO2 SLP975 P0010 T01170094=
201211192353 METAR KBFI 192353Z 16011G16KT 6SM RA FEW045 OVC060 13/09 A2945 RMK AO2 SLP973 P0006 60057 T01280089 10139 20100 51030=
201211192253 METAR KBFI 192253Z 18011G24KT 10SM -RA FEW045 BKN060 OVC100 13/08 A2943 RMK AO2 RAE03B35 SLP967 P0000 T01330078=
201211192153 METAR KBFI 192153Z 16014G23KT 6SM -RA BKN055 BKN070 OVC085 13/10 A2942 RMK AO2 PK WND 21035/2119 SLP963 P0016 T01280100=
201211192053 METAR KBFI 192053Z 16016G23KT 8SM -RA BKN024 OVC040 13/11 A2936 RMK AO2 SLP943 P0014 60035 T01330106 56014=
201211191953 METAR KBFI 191953Z 17010G17KT 5SM RA SCT020 OVC037 13/10 A2936 RMK AO2 SLP943 P0012 T01330100=
201211191853 METAR KBFI 191853Z 16014G19KT 6SM RA BKN027 OVC045 13/10 A2937 RMK AO2 SLP946 P0009 T01280100=
201211191810 SPECI KBFI 191810Z 12009KT 7SM -RA FEW003 BKN034 OVC045 11/09 A2939 RMK AO2 P0002=
201211191753 METAR KBFI 191753Z 10009KT 4SM RA BR FEW019 BKN038 OVC047 11/09 A2940 RMK AO2 PRESFR SLP957 P0019 60141 T01060089 10106 20089 58029=
201211191653 METAR KBFI 191653Z 00000KT 2 1/2SM RA BR SCT010 BKN024 OVC029 10/09 A2945 RMK AO2 SLP972 P0031 T01000089=
201211191601 SPECI KBFI 191601Z 30006G15KT 2 1/2SM +RA BR FEW009 SCT025 OVC042 09/08 A2947 RMK AO2 PRESRR P0005=
201211191553 METAR KBFI 191553Z 20008G18KT 160V260 5SM RA BR OVC042 09/07 A2945 RMK AO2 SLP974 P0023 T00940072=
201211191453 METAR KBFI 191453Z 12005KT 4SM +RA BR FEW025 OVC036 09/08 A2949 RMK AO2 SLP986 P0028 60068 T00890078 58020=
201211191353 METAR KBFI 191353Z 12009KT 4SM +RA BR SCT024 OVC034 09/07 A2953 RMK AO2 SLP001 P0023 T00940072=
201211191316 SPECI KBFI 191316Z VRB03KT 5SM RA BR FEW010 BKN027 OVC034 09/08 A2955 RMK AO2 P0006=
201211191253 METAR KBFI 191253Z 14008KT 5SM RA BR FEW027 OVC048 09/08 A2955 RMK AO2 SLP006 P0017 T00940078=
201211191153 METAR KBFI 191153Z 16014G23KT 9SM -RA BKN065 OVC080 11/07 A2955 RMK AO2 PK WND 15026/1055 SLP006 P0000 60003 70051 T01060067 10111 20094 55003=
201211191053 METAR KBFI 191053Z 15015G29KT 10SM -RA FEW055 OVC095 11/06 A2953 RMK AO2 PK WND 14029/1048 RAB0959E09B48 SLP000 P0000 T01110061=
201211190953 METAR KBFI 190953Z 15011KT 10SM BKN041 BKN050 10/06 A2955 RMK AO2 SLP006 T01000056=
201211190853 METAR KBFI 190853Z 14010KT 10SM SCT039 OVC060 09/06 A2956 RMK AO2 RAB13E23 SLP009 P0000 60003 T00940056 58006=
201211190753 METAR KBFI 190753Z 15017G22KT 10SM FEW055 BKN070 OVC110 09/06 A2957 RMK AO2 RAE53 SLP014 P0001 T00940061 401060061=
201211190653 METAR KBFI 190653Z 15015G21KT 10SM -RA BKN070 OVC090 10/06 A2957 RMK AO2 SLP013 P0002 T01000061=
201211190553 METAR KBFI 190553Z 16014G24KT 10SM -RA BKN050 OVC075 10/06 A2958 RMK AO2 SLP015 P0000 60013 T01000056 10106 20083 51016=
201211190453 METAR KBFI 190453Z 16007KT 10SM -RA OVC050 10/06 A2956 RMK AO2 SLP011 P0003 T01000056=
201211190353 METAR KBFI 190353Z 17008KT 10SM -RA OVC050 10/06 A2955 RMK AO2 SLP004 P0001 T01000056=
201211190253 METAR KBFI 190253Z 10003KT 10SM -RA OVC048 09/06 A2953 RMK AO2 SLP999 P0007 60009 T00890056 56035=
201211190153 METAR KBFI 190153Z 14008KT 10SM -RA OVC055 09/05 A2955 RMK AO2 SLP005 P0000 T00890050=
201211190053 METAR KBFI 190053Z 14008KT 10SM -RA OVC055 08/06 A2959 RMK AO2 SLP020 P0002 T00830056=
201211182353 METAR KBFI 182353Z 13008KT 10SM -RA OVC048 08/06 A2963 RMK AO2 SLP034 P0004 60008 T00830056 10100 20072 58022=
201211182253 METAR KBFI 182253Z 13007KT 9SM -RA BKN048 OVC055 09/06 A2966 RMK AO2 SLP042 P0003 T00890056=
201211182153 METAR KBFI 182153Z 14008KT 10SM -RA FEW047 BKN060 OVC075 09/06 A2968 RMK AO2 SLP050 P0000 T00940056=
201211182053 METAR KBFI 182053Z 13006KT 10SM -RA FEW060 SCT075 OVC090 10/06 A2970 RMK AO2 SLP057 P0001 60001 T01000056 58018=
201211181953 METAR KBFI 181953Z 14008KT 10SM -RA BKN060 OVC080 09/07 A2972 RMK AO2 RAE01B28 SLP065 P0000 T00940067=
201211181853 METAR KBFI 181853Z 15010KT 10SM -RA SCT045 OVC060 08/06 A2975 RMK AO2 RAE18B52 SLP073 P0000 T00830061=
201211181753 METAR KBFI 181753Z 12007KT 7SM -RA BKN038 BKN048 OVC055 07/06 A2975 RMK AO2 SLP075 P0006 60027 T00720056 10072 20061 53003=
201211181653 METAR KBFI 181653Z 00000KT 4SM -RA BR OVC036 07/06 A2975 RMK AO2 SLP074 P0006 T00720056=
201211181553 METAR KBFI 181553Z 00000KT 10SM -RA OVC040 07/05 A2974 RMK AO2 SLP072 P0005 T00720050=
201211181453 METAR KBFI 181453Z 12005KT 10SM -RA BKN055 OVC070 07/04 A2974 RMK AO2 RAB12 SLP072 P0000 60010 T00720044 58006=
201211181353 METAR KBFI 181353Z 12006KT 10SM SCT050 BKN070 OVC080 07/04 A2975 RMK AO2 RAE41 SLP073 P0001 T00670044=
201211181253 METAR KBFI 181253Z 16006KT 10SM -RA FEW031 BKN045 OVC110 07/05 A2976 RMK AO2 SLP078 P0009 T00670050=
201211181153 METAR KBFI 181153Z 14004KT 4SM RA BR OVC033 07/05 A2976 RMK AO2 SLP077 P0009 60012 70029 T00720050 10078 20061 53012=
201211181053 METAR KBFI 181053Z 17005KT 5SM RA SCT033 BKN040 OVC070 07/04 A2975 RMK AO2 RAB39 SLP073 P0003 T00720039=
201211180953 METAR KBFI 180953Z 15010KT 10SM FEW048 SCT065 07/03 A2972 RMK AO2 SLP065 T00670033=
201211180853 METAR KBFI 180853Z 17008KT 10SM FEW049 SCT065 BKN110 07/03 A2973 RMK AO2 SLP065 60000 T00720033 51016=
201211180753 METAR KBFI 180753Z 17012G18KT 10SM FEW019 SCT070 07/04 A2971 RMK AO2 RAB36E49 SLP061 P0000 T00720039 401280056=
201211180653 METAR KBFI 180653Z 19009G18KT 10SM BKN042 07/03 A2969 RMK AO2 RAE01 SLP053 P0000 T00720033=
201211180553 METAR KBFI 180553Z 17009KT 10SM -RA FEW030 BKN042 BKN070 08/04 A2968 RMK AO2 RAE10B29 SLP049 P0001 60003 T00780039 10078 20056 53011=
201211180453 METAR KBFI 180453Z 17009KT 10SM -RA BKN042 BKN110 08/04 A2967 RMK AO2 RAB43 SLP046 P0001 T00780039=
201211180353 METAR KBFI 180353Z 15007KT 10SM CLR 06/04 A2964 RMK AO2 SLP038 T00610039=
201211180253 METAR KBFI 180253Z 14008KT 10SM CLR 07/04 A2964 RMK AO2 RAB0154E05 SLP038 P0000 60001 T00670044 50009=
201211180153 METAR KBFI 180153Z 14009KT 10SM BKN037 OVC046 07/05 A2965 RMK AO2 RAE0054 SLP039 T00720050=
201211180053 METAR KBFI 180053Z 15009KT 10SM -RA OVC037 07/05 A2963 RMK AO2 SLP034 P0001 T00720050=
201211172353 METAR KBFI 172353Z 16009KT 8SM -RA FEW023 OVC038 08/05 A2962 RMK AO2 SLP028 P0006 60014 T00780050 10128 20078 53015=
201211172253 METAR KBFI 172253Z 16006KT 6SM -RA BR BKN013 BKN020 OVC038 08/06 A2959 RMK AO2 SLP018 P0005 T00780061=
201211172153 METAR KBFI 172153Z 21010G19KT 10SM -RA SCT032 BKN050 OVC060 08/05 A2957 RMK AO2 SLP014 P0001 T00830050=
201211172053 METAR KBFI 172053Z COR 23011G20KT 10SM -RA SCT032 BKN050 OVC060 09/07 A2953 RMK AO2 SLP000 P0002 60002 T00940067 53013=
201211171953 METAR KBFI 171953Z 22008G16KT 10SM -RA BKN047 OVC055 11/08 A2950 RMK AO2 RAB22 SLP990 P0000 T01110078=
201211171853 METAR KBFI 171853Z 14009KT 10SM BKN070 BKN100 OVC120 12/06 A2948 RMK AO2 SLP982 T01170056=
201211171753 METAR KBFI 171753Z 14010KT 10SM BKN060 11/05 A2950 RMK AO2 SLP987 T01110050 10111 20078 57021=
201211171653 METAR KBFI 171653Z 15006KT 10SM SCT080 BKN100 09/06 A2952 RMK AO2 SLP995 T00940056=
201211171553 METAR KBFI 171553Z 15007KT 10SM BKN055 09/05 A2954 RMK AO2 SLP001 T00940050=
201211171453 METAR KBFI 171453Z 13006KT 10SM BKN055 OVC065 09/05 A2956 RMK AO2 SLP008 T00940050 56013=
201211171353 METAR KBFI 171353Z 16009KT 10SM BKN060 OVC090 08/06 A2956 RMK AO2 SLP009 T00830061=
201211171253 METAR KBFI 171253Z 00000KT 10SM OVC065 08/07 A2957 RMK AO2 SLP014 T00830067=
201211171153 METAR KBFI 171153Z 00000KT 10SM OVC065 08/07 A2959 RMK AO2 RAB29E39 SLP021 P0000 60009 70028 T00830067 10089 20083 56029=
201211171053 METAR KBFI 171053Z 00000KT 10SM OVC065 08/07 A2962 RMK AO2 RAB05E33 SLP029 P0001 T00830067=
201211170953 METAR KBFI 170953Z 00000KT 10SM OVC060 09/07 A2965 RMK AO2 RAE42 SLP039 P0001 T00890072=
201211170853 METAR KBFI 170853Z 00000KT 10SM -RA OVC065 09/07 A2968 RMK AO2 SLP049 P0001 60007 T00890067 58019=
201211170753 METAR KBFI 170753Z 23003KT 10SM -RA OVC065 09/06 A2970 RMK AO2 RAB0656 SLP057 P0005 T00890061 400890022=
201211170653 METAR KBFI 170653Z 16003KT 10SM OVC060 08/07 A2972 RMK AO2 RAE51 SLP063 P0001 T00830072=
201211170553 METAR KBFI 170553Z 14003KT 9SM -RA BKN060 OVC075 08/07 A2973 RMK AO2 SLP068 P0001 60012 T00830072 10083 20078 56011=
201211170453 METAR KBFI 170453Z 00000KT 7SM -RA SCT050 OVC065 08/07 A2974 RMK AO2 RAB35 SLP071 P0000 T00830067=
201211170353 METAR KBFI 170353Z 00000KT 9SM SCT046 OVC065 08/07 A2975 RMK AO2 RAB0254E04 SLP074 P0001 T00830067=
201211170253 METAR KBFI 170253Z 00000KT 10SM SCT048 OVC065 08/07 A2977 RMK AO2 RAE22 SLP079 P0002 60010 T00830067 56020=
201211170153 METAR KBFI 170153Z 00000KT 9SM -RA OVC040 08/07 A2979 RMK AO2 SLP087 P0003 T00830067=
201211170053 METAR KBFI 170053Z 00000KT 10SM -RA OVC042 08/06 A2979 RMK AO2 SLP089 P0005 T00830061=
201211162353 METAR KBFI 162353Z 00000KT 3SM RA BR SCT043 OVC050 08/07 A2983 RMK AO2 SLP099 P0005 60007 T00830067 10083 20050 56020=
201211162253 METAR KBFI 162253Z 00000KT 8SM -RA OVC050 08/06 A2984 RMK AO2 RAB2155 SLP103 P0002 T00830056=
201211162153 METAR KBFI 162153Z 11004KT 10SM OVC080 08/04 A2985 RMK AO2 SLP109 T00830044=
201211162053 METAR KBFI 162053Z 00000KT 10SM OVC055 08/04 A2988 RMK AO2 RAE04B31E41 SLP119 P0000 60000 T00780044 58012=
201211161953 METAR KBFI 161953Z 00000KT 10SM -RA BKN048 OVC055 08/04 A2990 RMK AO2 RAB29 SLP125 P0000 T00780044=
201211161853 METAR KBFI 161853Z 00000KT 10SM BKN055 OVC070 07/04 A2992 RMK AO2 SLP131 T00720039=
201211161753 METAR KBFI 161753Z 12005KT 10SM BKN055 OVC070 05/03 A2992 RMK AO2 SLP131 T00500028 10050 20022 51004=
201211161653 METAR KBFI 161653Z 15009KT 10SM FEW005 BKN070 03/02 A2992 RMK AO2 SLP131 T00280022=
201211161600 SPECI KBFI 161600Z 14007KT 3SM BR SCT002 BKN080 02/02 A2992 RMK AO2=
201211161553 METAR KBFI 161553Z 16007KT 1 1/2SM BR SCT002 BKN080 02/02 A2992 RMK AO2 SLP130 T00220022=
201211161551 SPECI KBFI 161551Z 15007KT 1 1/2SM BR SCT002 BKN080 02/02 A2992 RMK AO2=
201211161517 SPECI KBFI 161517Z 15009KT 3/4SM BR VV002 02/02 A2992 RMK AO2=
201211161453 METAR KBFI 161453Z 15006KT 1/4SM FG VV002 03/03 A2991 RMK AO2 SLP127 T00330028 58004=
201211161353 METAR KBFI 161353Z 14003KT 1/4SM FG VV002 03/03 A2992 RMK AO2 SLP129 T00280028=
201211161253 METAR KBFI 161253Z 12003KT 1/4SM FG VV002 02/02 A2992 RMK AO2 SLP131 T00220022=
201211161233 SPECI KBFI 161233Z 12004KT 1/2SM FG VV002 03/02 A2992 RMK AO2=
201211161206 SPECI KBFI 161206Z 12004KT 1 1/4SM BR OVC002 03/02 A2992 RMK AO2=
201211161153 METAR KBFI 161153Z COR 13004KT 2 1/2SM BR OVC002 03/02 A2992 RMK AO2 SLP131 T00280022 10044 20022 58010=
201211161123 SPECI KBFI 161123Z 12004KT 5SM BR OVC002 03/02 A2992 RMK AO2=
201211161114 SPECI KBFI 161114Z 12005KT 2SM BR OVC002 03/02 A2993 RMK AO2=
201211161100 SPECI KBFI 161100Z 13005KT 3/4SM BR VV002 03/02 A2993 RMK AO2=
201211161053 METAR KBFI 161053Z 14005KT 1SM BR VV002 03/03 A2994 RMK AO2 SLP136 T00280028=
201211160953 METAR KBFI 160953Z 14005KT 1/2SM FG OVC002 04/04 A2995 RMK AO2 SLP140 T00390039=
201211160901 SPECI KBFI 160901Z 13004KT 1 3/4SM FG OVC002 04/04 A2995 RMK AO2=
201211160853 METAR KBFI 160853Z 12004KT 3/4SM FG BKN002 BKN008 04/04 A2995 RMK AO2 SLP141 T00440044 56004=
201211160753 METAR KBFI 160753Z 14003KT 1/4SM FG BKN002 BKN008 04/04 A2995 RMK AO2 SLP142 T00390039 401000028=
201211160710 SPECI KBFI 160710Z 15007KT 1/4SM FG BKN002 BKN008 03/03 A2996 RMK AO2=
201211160653 METAR KBFI 160653Z 14008KT 1/4SM FG SCT003 BKN008 03/02 A2996 RMK AO2 SLP143 T00280022=
201211160646 SPECI KBFI 160646Z 14007KT 1/4SM FG SCT003 BKN008 03/02 A2996 RMK AO2=
201211160553 METAR KBFI 160553Z 14006KT 6SM BR SCT011 03/03 A2996 RMK AO2 SLP145 T00330028 10089 20033 56009=
201211160453 METAR KBFI 160453Z 14003KT 8SM SCT011 05/04 A2997 RMK AO2 SLP147 T00500039=
201211160403 SPECI KBFI 160403Z 14004KT 8SM SCT011 06/04 A2997 RMK AO2=
201211160353 METAR KBFI 160353Z 14004KT 9SM BKN011 06/04 A2998 RMK AO2 SLP150 T00560039=
201211160323 SPECI KBFI 160323Z 14004KT 10SM BKN011 BKN055 06/04 A2998 RMK AO2=
201211160253 METAR KBFI 160253Z AUTO 00000KT 10SM BKN060 07/04 A2999 RMK AO2 SLP154 T00720044 56006 TSNO=
201211160153 METAR KBFI 160153Z 00000KT 10SM FEW060 07/04 A2999 RMK AO2 SLP156 T00720044=
201211160053 METAR KBFI 160053Z 29004KT 10SM CLR 08/04 A3000 RMK AO2 SLP157 T00780044=
201211152353 METAR KBFI 152353Z 31004KT 10SM CLR 09/03 A3000 RMK AO2 SLP160 T00890033 10100 20067 56009=
201211152253 METAR KBFI 152253Z VRB05KT 10SM CLR 09/04 A3001 RMK AO2 SLP160 T00890039=
201211152153 METAR KBFI 152153Z 00000KT 10SM CLR 09/04 A3002 RMK AO2 SLP164 T00940044=
201211152053 METAR KBFI 152053Z 30005KT 10SM CLR 09/04 A3003 RMK AO2 SLP169 T00890044 56027=
201211151953 METAR KBFI 151953Z 32008KT 9SM FEW009 08/04 A3005 RMK AO2 SLP176 T00780044=
201211151853 METAR KBFI 151853Z VRB04KT 10SM SCT006 SCT200 07/04 A3009 RMK AO2 SLP188 T00720039=
201211151753 METAR KBFI 151753Z 33004KT 10SM SCT007 07/03 A3011 RMK AO2 SLP196 T00670033 10067 20039 58015=
201211151729 SPECI KBFI 151729Z 04003KT 10SM SCT003 06/03 A3013 RMK AO2=
201211151653 METAR KBFI 151653Z 00000KT 10SM BKN004 06/03 A3014 RMK AO2 SLP205 T00560028=
201211151648 SPECI KBFI 151648Z 36003KT 10SM BKN004 05/03 A3014 RMK AO2=
201211151628 SPECI KBFI 151628Z 33004KT 10SM BKN006 04/03 A3014 RMK AO2=
201211151553 METAR KBFI 151553Z VRB03KT 7SM SCT005 BKN030 04/03 A3016 RMK AO2 SLP211 T00440028=
201211151453 METAR KBFI 151453Z 00000KT 10SM SCT005 04/03 A3017 RMK AO2 SLP215 T00440028 56011=
201211151353 METAR KBFI 151353Z COR 00000KT 10SM BKN007 04/03 A3018 RMK AO2 SLP219 T00440028=
201211151351 SPECI KBFI 151351Z 00000KT 10SM FG BKN007 04/03 A3018 RMK AO2=
201211151253 METAR KBFI 151253Z 00000KT 10SM FG FEW007 05/03 A3020 RMK AO2 SLP226 T00500033=
201211151246 SPECI KBFI 151246Z 00000KT 10SM FG SCT007 05/03 A3020 RMK AO2=
201211151153 METAR KBFI 151153Z 00000KT 10SM FG OVC005 06/04 A3021 RMK AO2 SLP230 T00560039 10067 20050 56012=
201211151148 SPECI KBFI 151148Z 00000KT 10SM FG OVC005 06/04 A3021 RMK AO2=
201211151053 METAR KBFI 151053Z 00000KT 10SM FG OVC003 05/04 A3023 RMK AO2 SLP237 T00500044=
201211151000 SPECI KBFI 151000Z VRB03KT 6SM FG OVC003 06/05 A3025 RMK AO2=
201211150953 METAR KBFI 150953Z 00000KT 3/4SM FG OVC003 06/05 A3025 RMK AO2 SLP242 T00610050=
201211150926 SPECI KBFI 150926Z 00000KT 1/2SM FG OVC003 06/06 A3025 RMK AO2=
201211150901 SPECI KBFI 150901Z 00000KT 2SM BR OVC003 06/06 A3026 RMK AO2=
201211150853 METAR KBFI 150853Z 00000KT 7SM OVC005 06/06 A3026 RMK AO2 SLP247 T00610056 58014=
201211150811 SPECI KBFI 150811Z 00000KT 7SM BKN005 05/04 A3027 RMK AO2=
201211150801 SPECI KBFI 150801Z 13003KT 8SM SCT005 06/05 A3028 RMK AO2=
201211150753 METAR KBFI 150753Z 00000KT 9SM CLR 06/05 A3028 RMK AO2 SLP253 T00610050 401170050=
201211150653 METAR KBFI 150653Z 00000KT 10SM CLR 07/05 A3029 RMK AO2 SLP257 T00670050=
201211150553 METAR KBFI 150553Z 00000KT 10SM CLR 07/05 A3030 RMK AO2 SLP261 T00670050 10106 20056 58004=
201211150453 METAR KBFI 150453Z 00000KT 10SM CLR 07/04 A3031 RMK AO2 SLP264 T00670044=
201211150353 METAR KBFI 150353Z 00000KT 10SM CLR 08/06 A3032 RMK AO2 SLP265 T00780056=
201211150253 METAR KBFI 150253Z 00000KT 10SM CLR 08/05 A3032 RMK AO2 SLP265 T00830050 55000=
201211150153 METAR KBFI 150153Z 00000KT 10SM CLR 09/05 A3031 RMK AO2 SLP264 T00890050=
201211150053 METAR KBFI 150053Z VRB03KT 10SM SCT030 10/06 A3031 RMK AO2 SLP264 T01000056=
201211150031 SPECI KBFI 150031Z 31004KT 10SM SCT030 10/05 A3032 RMK AO2=
201211142353 METAR KBFI 142353Z 32004KT 10SM BKN029 11/06 A3032 RMK AO2 SLP265 T01060056 10117 20094 53001=
201211142300 SPECI KBFI 142300Z 35004KT 10SM BKN029 11/05 A3031 RMK AO2=
201211142253 METAR KBFI 142253Z 00000KT 10SM SCT029 11/06 A3031 RMK AO2 SLP263 T01110056=
201211142153 METAR KBFI 142153Z 01003KT 10SM SCT020 BKN022 11/06 A3031 RMK AO2 SLP263 T01110056=
201211142053 METAR KBFI 142053Z 06004KT 10SM SCT020 BKN022 11/06 A3031 RMK AO2 SLP264 T01110056 50003=
201211142008 SPECI KBFI 142008Z VRB03KT 10SM FEW009 BKN021 BKN055 11/06 A3031 RMK AO2=
201211142000 SPECI KBFI 142000Z 05004KT 10SM SCT009 BKN012 BKN050 11/06 A3032 RMK AO2=
201211141953 SPECI KBFI 141953Z COR 02003KT 10SM SCT009 BKN021 BKN050 11/07 A3032 RMK AO2 SLP265 T01060067=
201211141953 METAR KBFI 141953Z 02003KT 10SM SCT009 BKN012 BKN050 11/07 A3032 RMK AO2 SLP265 T01060067=
201211141853 METAR KBFI 141853Z 00000KT 10SM SCT009 BKN012 OVC023 10/07 A3031 RMK AO2 SLP265 T01000072=
201211141846 SPECI KBFI 141846Z 00000KT 10SM SCT009 BKN012 OVC023 10/07 A3032 RMK AO2=
201211141753 METAR KBFI 141753Z 00000KT 8SM OVC007 09/08 A3030 RMK AO2 SLP261 T00940078 10094 20083 51018=
201211141700 SPECI KBFI 141700Z 00000KT 10SM BKN005 OVC011 09/07 A3029 RMK AO2=
201211141653 METAR KBFI 141653Z 00000KT 10SM SCT005 BKN041 OVC055 09/07 A3029 RMK AO2 SLP256 T00890072=
201211141620 SPECI KBFI 141620Z 00000KT 10SM SCT010 BKN041 OVC055 09/07 A3028 RMK AO2=
201211141613 SPECI KBFI 141613Z 00000KT 10SM BKN010 BKN041 OVC055 09/07 A3027 RMK AO2=
201211141553 METAR KBFI 141553Z 00000KT 10SM FEW010 SCT038 OVC049 08/07 A3027 RMK AO2 SLP249 T00830072=
201211141526 SPECI KBFI 141526Z 00000KT 10SM FEW010 SCT038 OVC049 08/07 A3025 RMK AO2=
201211141453 METAR KBFI 141453Z 00000KT 10SM OVC010 09/07 A3025 RMK AO2 SLP243 T00890067 53014=
201211141353 METAR KBFI 141353Z VRB03KT 10SM OVC010 09/07 A3023 RMK AO2 SLP237 T00890072=
201211141253 METAR KBFI 141253Z 27003KT 10SM BKN010 OVC020 09/08 A3022 RMK AO2 SLP231 T00940078=
201211141153 METAR KBFI 141153Z 24003KT 10SM BKN010 OVC020 09/08 A3021 RMK AO2 SLP229 60000 70015 T00940078 10100 20094 51009=
201211141053 METAR KBFI 141053Z 22003KT 10SM BKN015 OVC022 10/08 A3020 RMK AO2 SLP227 T01000083=
201211140953 METAR KBFI 140953Z VRB03KT 10SM SCT010 OVC018 10/08 A3020 RMK AO2 SLP224 T01000083=
201211140853 METAR KBFI 140853Z 14005KT 10SM FEW010 SCT032 OVC041 10/08 A3018 RMK AO2 RAE03 SLP220 P0000 60000 T01000083 51006=
201211140850 SPECI KBFI 140850Z 15005KT 10SM SCT010 BKN032 OVC041 10/08 A3018 RMK AO2 RAE03 P0000=
201211140809 SPECI KBFI 140809Z 12005KT 10SM BKN014 OVC035 10/08 A3018 RMK AO2 RAE03 P0000=
201211140753 METAR KBFI 140753Z 13007KT 9SM -RA SCT014 SCT027 OVC035 09/08 A3018 RMK AO2 RAB51 SLP218 P0000 T00940083 401170083=
201211140653 METAR KBFI 140653Z 13003KT 10SM BKN035 OVC045 09/08 A3016 RMK AO2 SLP213 T00940083=
201211140553 METAR KBFI 140553Z 12004KT 10SM BKN037 OVC049 09/08 A3015 RMK AO2 RAB07E46 SLP210 P0000 60005 T00940083 10100 20094 53004=
201211140453 METAR KBFI 140453Z 14006KT 10SM FEW030 BKN038 OVC060 09/08 A3014 RMK AO2 RAE21 SLP207 P0001 T00940083=
201211140353 METAR KBFI 140353Z 14004KT 8SM -RA OVC050 10/08 A3014 RMK AO2 SLP205 P0002 T01000083=
201211140253 METAR KBFI 140253Z 16004KT 10SM -RA FEW019 BKN039 OVC055 10/08 A3014 RMK AO2 RAB41 SLP206 P0000 60002 T01000083 56004=
201211140153 METAR KBFI 140153Z 14005KT 10SM SCT008 BKN025 OVC050 10/09 A3014 RMK AO2 RAE07 SLP206 P0000 T01000089=
201211140053 METAR KBFI 140053Z 12004KT 10SM -RA FEW010 OVC050 10/09 A3014 RMK AO2 RAB07 SLP206 P0002 T01000089=
201211132353 METAR KBFI 132353Z 15004KT 10SM SCT015 BKN039 OVC055 10/09 A3015 RMK AO2 RAE50 SLP209 P0003 60008 T01000089 10117 20100 56005=
201211132253 METAR KBFI 132253Z 16004KT 6SM -RA BR FEW012 SCT042 OVC050 11/09 A3015 RMK AO2 SLP210 P0003 T01060089=
201211132153 METAR KBFI 132153Z 18004KT 6SM -RA BR FEW030 BKN035 OVC055 11/09 A3016 RMK AO2 SLP213 P0001 T01060089=
201211132053 METAR KBFI 132053Z 20005KT 10SM -RA SCT017 BKN034 OVC049 11/08 A3017 RMK AO2 RAE17B48 SLP215 P0000 60001 T01110083 58012=
201211131953 METAR KBFI 131953Z 15003KT 10SM -RA FEW042 OVC050 11/08 A3018 RMK AO2 RAB16E25B42 SLP218 P0001 T01060083=
201211131853 METAR KBFI 131853Z 14003KT 10SM OVC039 11/08 A3020 RMK AO2 SLP227 T01060078=
201211131753 METAR KBFI 131753Z 15006KT 10SM SCT029 OVC041 10/08 A3020 RMK AO2 SLP227 60002 T01000078 10100 20083 50002=
201211131734 SPECI KBFI 131734Z 15006KT 10SM BKN033 OVC042 09/08 A3021 RMK AO2=
201211131653 METAR KBFI 131653Z 13008KT 10SM FEW015 BKN023 OVC035 09/07 A3021 RMK AO2 SLP228 T00890072=
201211131553 METAR KBFI 131553Z 14008KT 10SM BKN023 BKN029 OVC095 08/07 A3020 RMK AO2 SLP227 T00830072=
201211131453 METAR KBFI 131453Z 14009KT 10SM FEW012 SCT039 08/07 A3020 RMK AO2 SLP224 60002 T00830072 58002=
201211131422 SPECI KBFI 131422Z 14008KT 10SM SCT008 OVC012 08/08 A3020 RMK AO2=
201211131414 SPECI KBFI 131414Z 14009KT 10SM OVC012 08/07 A3020 RMK AO2=
201211131353 METAR KBFI 131353Z 15008KT 10SM SCT012 BKN026 OVC040 09/08 A3020 RMK AO2 RAB05E16B39E48 SLP227 P0000 T00890078=
201211131253 METAR KBFI 131253Z 14007KT 10SM SCT030 OVC040 08/07 A3020 RMK AO2 RAB08E46 SLP226 P0002 T00830072=
201211131153 METAR KBFI 131153Z AUTO 13004KT 10SM FEW024 OVC046 09/07 A3020 RMK AO2 RAB00E49 SLP226 P0002 60004 70010 T00890072 10100 20089 57005 TSNO=
201211131053 METAR KBFI 131053Z 15006KT 10SM BKN042 OVC050 09/07 A3020 RMK AO2 RAE43 SLP227 P0001 T00890072=
201211130953 METAR KBFI 130953Z 13006KT 4SM -RA BR BKN034 OVC041 09/08 A3022 RMK AO2 RAB10E19B42 SLP231 P0001 T00890078=
201211130853 METAR KBFI 130853Z 13006KT 10SM BKN044 BKN060 OVC100 09/08 A3022 RMK AO2 SLP231 T00940078 51004=
201211130807 SPECI KBFI 130807Z 14007KT 10SM FEW006 SCT046 BKN090 09/08 A3022 RMK AO2=
201211130753 METAR KBFI 130753Z 14006KT 10SM FEW046 09/08 A3021 RMK AO2 SLP231 T00890078 401220067=
201211130653 METAR KBFI 130653Z 13007KT 10SM SCT010 SCT027 BKN046 10/08 A3021 RMK AO2 SLP231 T01000083=
201211130639 SPECI KBFI 130639Z 13005KT 10SM SCT010 BKN027 OVC044 09/08 A3021 RMK AO2=
201211130630 SPECI KBFI 130630Z 14004KT 10SM BKN012 BKN027 OVC044 09/08 A3021 RMK AO2=
201211130620 SPECI KBFI 130620Z 12005KT 10SM SCT012 BKN025 OVC040 10/08 A3021 RMK AO2=
201211130553 METAR KBFI 130553Z 14007KT 10SM BKN014 OVC023 10/08 A3020 RMK AO2 SLP227 60005 T01000083 10117 20100 51008=
201211130510 SPECI KBFI 130510Z 16007KT 10SM BKN014 BKN028 OVC045 10/08 A3020 RMK AO2=
201211130453 METAR KBFI 130453Z 14006KT 10SM SCT016 BKN029 OVC042 10/08 A3020 RMK AO2 RAE0359B16E37 SLP226 P0002 T01000083=
201211130353 METAR KBFI 130353Z 15003KT 10SM -RA BKN020 BKN030 OVC044 11/08 A3019 RMK AO2 RAB14 SLP223 P0003 T01060083=
201211130253 METAR KBFI 130253Z 13004KT 10SM BKN050 OVC090 11/08 A3018 RMK AO2 SLP219 T01060078 53007=
201211130153 METAR KBFI 130153Z 11005KT 10SM BKN065 BKN090 11/08 A3017 RMK AO2 SLP216 T01060078=
201211130053 METAR KBFI 130053Z 00000KT 10SM SCT025 BKN050 BKN200 11/08 A3017 RMK AO2 SLP215 T01060078=
201211122353 METAR KBFI 122353Z 22003KT 10SM SCT020 BKN050 12/07 A3016 RMK AO2 SLP212 T01170072 10122 20089 51004=
201211122253 METAR KBFI 122253Z 20006KT 10SM FEW025 SCT032 BKN043 12/08 A3015 RMK AO2 SLP210 T01220078=
201211122153 METAR KBFI 122153Z 20005KT 10SM OVC026 12/08 A3015 RMK AO2 SLP210 T01170078=
201211122053 METAR KBFI 122053Z 18005KT 10SM OVC022 12/08 A3015 RMK AO2 SLP208 T01170078 51004=
201211121953 METAR KBFI 121953Z 14009KT 10SM OVC015 11/08 A3015 RMK AO2 SLP208 T01060078=
201211121943 SPECI KBFI 121943Z 13007KT 10SM OVC013 11/08 A3014 RMK AO2=
201211121853 METAR KBFI 121853Z 14010KT 10SM BKN015 OVC022 10/08 A3014 RMK AO2 SLP206 T01000078=
201211121753 METAR KBFI 121753Z 15009KT 10SM OVC015 09/07 A3013 RMK AO2 SLP203 60001 T00890072 10089 20072 52008=
201211121653 METAR KBFI 121653Z 14008KT 10SM OVC027 08/06 A3012 RMK AO2 SLP200 T00780061=
201211121553 METAR KBFI 121553Z 14007KT 10SM BKN024 OVC029 08/06 A3012 RMK AO2 SLP198 P0001 T00780061=
201211121453 METAR KBFI 121453Z 00000KT 10SM OVC022 07/06 A3011 RMK AO2 SLP195 60000 T00720056 53005=
201211121353 METAR KBFI 121353Z 14003KT 10SM OVC029 07/06 A3009 RMK AO2 SLP190 T00720061=
201211121253 METAR KBFI 121253Z 17008KT 10SM BKN023 OVC031 07/06 A3009 RMK AO2 RAB19E34 SLP190 P0000 T00720056=
201211121153 METAR KBFI 121153Z 00000KT 10SM OVC023 07/06 A3009 RMK AO2 RAE26 SLP189 P0000 60019 70062 T00720056 10072 20067 53000=
201211121122 SPECI KBFI 121122Z 00000KT 10SM -RA FEW006 BKN023 OVC030 07/06 A3009 RMK AO2 P0000=
201211121115 SPECI KBFI 121115Z 14003KT 9SM -RA FEW006 SCT023 OVC032 07/06 A3009 RMK AO2 P0000=
201211121053 METAR KBFI 121053Z 15004KT 4SM -RA BR BKN030 OVC037 07/06 A3008 RMK AO2 RAE10B42 SLP187 P0001 T00670056=
201211121000 SPECI KBFI 121000Z 15005KT 4SM -RA BR OVC028 07/06 A3010 RMK AO2 P0000=
201211120953 METAR KBFI 120953Z 15005KT 4SM -RA BR FEW005 OVC030 07/06 A3010 RMK AO2 SLP190 P0002 T00670056=
201211120853 METAR KBFI 120853Z 16003KT 3SM -RA BR FEW005 OVC030 07/06 A3009 RMK AO2 SLP189 P0004 60016 T00670056 56003=
201211120850 SPECI KBFI 120850Z 16003KT 4SM -RA BR FEW005 OVC030 07/06 A3009 RMK AO2 P0003=
201211120753 METAR KBFI 120753Z 12004KT 4SM -RA BR SCT022 OVC026 07/05 A3010 RMK AO2 SLP193 P0003 T00670050 400940000=
201211120653 METAR KBFI 120653Z 14003KT 5SM RA BR FEW035 OVC048 07/05 A3008 RMK AO2 SLP186 P0009 T00670050=
201211120553 METAR KBFI 120553Z 11003KT 5SM -RA BR OVC036 07/05 A3010 RMK AO2 SLP192 P0003 60041 T00670050 10083 20067 56001=
201211120453 METAR KBFI 120453Z 00000KT 7SM -RA OVC034 07/06 A3011 RMK AO2 SLP194 P0003 T00670056=
201211120353 METAR KBFI 120353Z 14003KT 7SM -RA SCT029 OVC036 07/05 A3009 RMK AO2 SLP190 P0008 T00670050=
201211120253 METAR KBFI 120253Z 13006KT 7SM -RA OVC037 07/04 A3010 RMK AO2 SLP193 P0008 60027 T00670044 57017=
201211120153 METAR KBFI 120153Z 13008KT 7SM -RA OVC043 07/05 A3012 RMK AO2 SLP199 P0012 T00720050=
201211120053 METAR KBFI 120053Z 12003KT 5SM -RA BR OVC043 07/05 A3014 RMK AO2 SLP204 P0007 T00720050=
201211120000 SPECI KBFI 120000Z 12005KT 6SM -RA OVC041 08/04 A3015 RMK AO2 P0001=
201211112353 METAR KBFI 112353Z 12004KT 6SM -RA OVC027 08/04 A3015 RMK AO2 RAB01 SLP210 P0002 60002 T00830039 10094 20044 56016=
201211112253 METAR KBFI 112253Z 16005KT 10SM OVC055 09/02 A3016 RMK AO2 RAB03E48 SLP213 P0000 T00890022=
201211112153 METAR KBFI 112153Z 15005KT 10SM OVC048 09/01 A3017 RMK AO2 RAB06E15 SLP217 P0000 T00890011=
201211112053 METAR KBFI 112053Z 15003KT 10SM OVC039 08/01 A3020 RMK AO2 SLP225 T00830006 58010=
201211111953 METAR KBFI 111953Z 00000KT 10SM BKN039 OVC046 07/01 A3021 RMK AO2 SLP229 T00670006=
201211111853 METAR KBFI 111853Z 00000KT 10SM BKN037 OVC048 05/00 A3023 RMK AO2 SLP236 T00500000=
201211111753 METAR KBFI 111753Z 14003KT 10SM SCT037 OVC050 04/M01 A3023 RMK AO2 RAB18E44 SLP236 P0000 60000 T00441011 10044 20006 50002=
201211111653 METAR KBFI 111653Z 00000KT 10SM BKN036 BKN049 OVC055 03/M02 A3023 RMK AO2 SLP237 T00331017=
201211111553 METAR KBFI 111553Z 00000KT 10SM OVC044 03/M02 A3023 RMK AO2 SLP236 T00281017=
201211111453 METAR KBFI 111453Z 13003KT 10SM FEW035 SCT043 OVC055 02/M02 A3022 RMK AO2 SLP234 T00171017 55003=
201211111353 METAR KBFI 111353Z 15003KT 10SM BKN050 02/M02 A3022 RMK AO2 SLP233 T00171022=
201211111253 METAR KBFI 111253Z 14004KT 10SM FEW065 01/M02 A3023 RMK AO2 SLP235 T00061022=
201211111153 METAR KBFI 111153Z 15004KT 10SM BKN037 01/M02 A3023 RMK AO2 SLP237 T00111022 10017 21006 58003=
201211111053 METAR KBFI 111053Z 15005KT 10SM FEW031 00/M02 A3024 RMK AO2 SLP240 T00001022=
201211110953 METAR KBFI 110953Z AUTO 15005KT 10SM CLR 01/M02 A3025 RMK AO2 SLP241 T00061022 TSNO=
201211110853 METAR KBFI 110853Z AUTO 12004KT 10SM CLR 02/M02 A3024 RMK AO2 SLP240 T00171022 53007 TSNO=
201211110753 METAR KBFI 110753Z AUTO 14004KT 10SM CLR 01/M02 A3023 RMK AO2 SLP236 T00111022 400831022 TSNO=
201211110653 METAR KBFI 110653Z AUTO 15006KT 10SM CLR 00/M03 A3022 RMK AO2 SLP234 T00001028 TSNO=
201211110553 METAR KBFI 110553Z AUTO 00000KT 10SM CLR 01/M03 A3022 RMK AO2 SLP232 T00061028 10072 20000 53008 TSNO=
201211110453 METAR KBFI 110453Z AUTO 13003KT 10SM CLR 01/M03 A3020 RMK AO2 SLP227 T00111028 TSNO=
201211110353 METAR KBFI 110353Z 00000KT 10SM CLR 02/M03 A3020 RMK AO2 SLP225 T00171033=
201211110253 METAR KBFI 110253Z 00000KT 10SM CLR 03/M04 A3019 RMK AO2 SLP224 T00331039 51013=
201211110153 METAR KBFI 110153Z 00000KT 10SM CLR 04/M05 A3018 RMK AO2 SLP220 T00441050=
201211110053 METAR KBFI 110053Z 00000KT 10SM CLR 06/M06 A3017 RMK AO2 SLP215 T00611056=
201211102353 METAR KBFI 102353Z 34004KT 10SM CLR 07/M06 A3015 RMK AO2 SLP210 T00721061 10083 20039 53006=
201211102253 METAR KBFI 102253Z 02004KT 10SM FEW030 08/M06 A3014 RMK AO2 SLP206 T00781056=
201211102153 METAR KBFI 102153Z 32005KT 10SM CLR 08/M06 A3014 RMK AO2 SLP207 T00781056=
201211102053 METAR KBFI 102053Z 32007KT 10SM FEW025 08/M04 A3014 RMK AO2 SLP204 T00781044 51014=
201211101953 METAR KBFI 101953Z VRB03KT 10SM CLR 07/M02 A3012 RMK AO2 SLP199 T00671017=
201211101853 METAR KBFI 101853Z 30005KT 10SM FEW020 06/M01 A3012 RMK AO2 SLP198 T00561011=
201211101753 METAR KBFI 101753Z 00000KT 10SM CLR 04/M01 A3010 RMK AO2 SLP190 T00391006 10039 21017 51016=
201211101653 METAR KBFI 101653Z 13003KT 10SM FEW090 01/M01 A3009 RMK AO2 SLP187 T00111011=
201211101553 METAR KBFI 101553Z COR 15003KT 10SM SCT030 BKN040 M01/M03 A3008 RMK AO2 SLP184 T10111028=
201211101453 METAR KBFI 101453Z 14004KT 10SM CLR M01/M03 A3005 RMK AO2 SLP175 T10111028 51015=
201211101353 METAR KBFI 101353Z 15004KT 10SM FEW038 OVC048 00/M02 A3004 RMK AO2 SLP173 T00001022=
201211101253 METAR KBFI 101253Z 00000KT 10SM CLR M01/M02 A3003 RMK AO2 SLP167 T10061022=
201211101153 METAR KBFI 101153Z 14005KT 9SM CLR M01/M02 A3001 RMK AO2 SLP160 T10061022 10028 21022 51013=
201211101053 METAR KBFI 101053Z 13004KT 10SM CLR M01/M02 A3000 RMK AO2 SLP157 T10061022=
201211100953 METAR KBFI 100953Z 16004KT 10SM CLR M01/M02 A2999 RMK AO2 SLP153 T10061022=
201211100853 METAR KBFI 100853Z 16004KT 10SM CLR 00/M02 A2997 RMK AO2 SLP147 T00001017 51008=
201211100753 METAR KBFI 100753Z 16004KT 10SM CLR 00/M02 A2996 RMK AO2 SLP146 T00001017 400890000=
201211100653 METAR KBFI 100653Z 14004KT 10SM CLR 01/M01 A2995 RMK AO2 SLP142 T00111011=
201211100553 METAR KBFI 100553Z 15003KT 10SM SCT040 01/M02 A2995 RMK AO2 SLP140 T00111017 10078 20011 53012=
201211100453 METAR KBFI 100453Z 00000KT 10SM BKN033 04/M01 A2993 RMK AO2 SLP136 T00391006=
201211100353 METAR KBFI 100353Z 00000KT 10SM CLR 05/M01 A2992 RMK AO2 SLP132 T00501011=
201211100253 METAR KBFI 100253Z 00000KT 10SM CLR 06/M02 A2991 RMK AO2 SLP128 T00561017 51008=
201211100153 METAR KBFI 100153Z 00000KT 10SM CLR 07/M02 A2991 RMK AO2 SLP126 T00671022=
201211100053 METAR KBFI 100053Z 35003KT 10SM CLR 07/M03 A2989 RMK AO2 SLP123 T00721028=
201211092353 METAR KBFI 092353Z 34007KT 10SM CLR 08/M03 A2989 RMK AO2 SLP120 T00781033 10089 20056 56003=
201211092253 METAR KBFI 092253Z 33005KT 10SM FEW040 09/M03 A2989 RMK AO2 SLP120 T00891028=
201211092153 METAR KBFI 092153Z VRB05KT 10SM SCT034 09/M02 A2989 RMK AO2 SLP121 T00891022=
201211092053 METAR KBFI 092053Z 32006KT 10SM SCT034 08/M03 A2990 RMK AO2 SLP123 T00831028 58002=
201211091953 METAR KBFI 091953Z COR 34004KT 10SM SCT034 08/M01 A2990 RMK AO2 SLP125 T00831011=
201211091853 METAR KBFI 091853Z 00000KT 10SM SCT037 08/M01 A2991 RMK AO2 SLP128 T00781006=
201211091753 METAR KBFI 091753Z 13003KT 10SM FEW032 06/02 A2990 RMK AO2 SLP126 T00560022 10067 20006 50007=
201211091653 METAR KBFI 091653Z 16004KT 10SM FEW030 SCT040 03/02 A2991 RMK AO2 SLP127 T00330017=
201211091553 METAR KBFI 091553Z 14003KT 10SM FEW038 02/00 A2990 RMK AO2 SLP124 T00170000=
201211091453 METAR KBFI 091453Z 15004KT 10SM CLR 01/M01 A2988 RMK AO2 SLP118 T00061011 51008=
201211091353 METAR KBFI 091353Z 13005KT 10SM CLR 02/00 A2987 RMK AO2 SLP116 T00170000=
201211091253 METAR KBFI 091253Z 13004KT 10SM CLR 02/M01 A2987 RMK AO2 SLP113 T00171006=
201211091153 METAR KBFI 091153Z 00000KT 10SM CLR 06/M01 A2986 RMK AO2 SLP110 T00611006 10061 20022 51002=
201211091053 METAR KBFI 091053Z 00000KT 10SM CLR 04/01 A2986 RMK AO2 SLP110 T00390011=
201211090953 METAR KBFI 090953Z 13003KT 10SM SCT070 03/01 A2986 RMK AO2 SLP110 T00280011=
201211090853 METAR KBFI 090853Z VRB04KT 10SM CLR 03/01 A2985 RMK AO2 SLP108 T00280011 53006=
201211090753 METAR KBFI 090753Z 15004KT 10SM CLR 03/01 A2984 RMK AO2 SLP106 T00280011 401000022=
201211090653 METAR KBFI 090653Z 14005KT 10SM FEW090 03/02 A2984 RMK AO2 SLP104 T00330017=
201211090553 METAR KBFI 090553Z 13004KT 10SM FEW080 04/01 A2983 RMK AO2 SLP102 T00390011 10094 20033 53001=
201211090453 METAR KBFI 090453Z 00000KT 10SM CLR 04/01 A2983 RMK AO2 SLP101 T00390006=
201211090353 METAR KBFI 090353Z 00000KT 10SM CLR 06/01 A2982 RMK AO2 SLP099 T00560011=
201211090253 METAR KBFI 090253Z 00000KT 10SM CLR 08/01 A2983 RMK AO2 SLP100 T00780011 53000=
201211090153 METAR KBFI 090153Z 00000KT 10SM CLR 08/02 A2983 RMK AO2 SLP099 T00830017=
201211090053 METAR KBFI 090053Z VRB05KT 10SM SCT110 09/03 A2983 RMK AO2 SLP099 T00890028=
201211082353 METAR KBFI 082353Z 34008KT 10SM FEW028 SCT100 09/03 A2983 RMK AO2 SLP100 T00940028 10100 20078 55001=
201211082253 METAR KBFI 082253Z 36007G14KT 330V030 10SM FEW035 BKN065 10/02 A2982 RMK AO2 SLP097 T01000022=
201211082153 METAR KBFI 082153Z 36005KT 10SM OVC100 10/01 A2983 RMK AO2 SLP099 T01000011=
201211082053 METAR KBFI 082053Z VRB04KT 10SM OVC070 09/02 A2983 RMK AO2 SLP101 T00940022 58005=
201211081953 METAR KBFI 081953Z 34007KT 10SM BKN055 OVC080 08/02 A2983 RMK AO2 SLP100 T00780017=
201211081853 METAR KBFI 081853Z VRB03KT 10SM SCT019 BKN075 BKN250 08/03 A2985 RMK AO2 SLP109 T00830028=
201211081753 METAR KBFI 081753Z 36006KT 10SM SCT075 BKN100 08/02 A2985 RMK AO2 SLP106 T00780022 10078 20022 58003=
201211081653 METAR KBFI 081653Z 34005KT 10SM FEW020 BKN100 06/01 A2985 RMK AO2 SLP109 T00610011=
201211081553 METAR KBFI 081553Z 34003KT 10SM FEW020 SCT095 04/02 A2986 RMK AO2 SLP111 FG DSNT S T00440022=
201211081453 METAR KBFI 081453Z 00000KT 10SM SCT100 03/01 A2986 RMK AO2 SLP109 FBNK SE-S VIS 3 T00330011 58011=
201211081353 METAR KBFI 081353Z 00000KT 10SM CLR 02/01 A2987 RMK AO2 SLP114 FBNK SE-S VIS 3 T00220011=
201211081253 METAR KBFI 081253Z 00000KT 10SM SCT005 03/01 A2988 RMK AO2 SLP117 T00280011=
201211081153 METAR KBFI 081153Z 00000KT 10SM CLR 03/02 A2989 RMK AO2 SLP120 T00330017 10067 20022 58017=
201211081053 METAR KBFI 081053Z 00000KT 10SM CLR 02/01 A2991 RMK AO2 SLP127 T00220011=
201211080953 METAR KBFI 080953Z 00000KT 10SM CLR 04/02 A2992 RMK AO2 SLP131 T00390022=
201211080853 METAR KBFI 080853Z 00000KT 10SM CLR 05/03 A2994 RMK AO2 SLP137 T00500028 56022=
201211080753 METAR KBFI 080753Z 13004KT 10SM CLR 05/03 A2995 RMK AO2 SLP141 T00500028 401280044=
201211080653 METAR KBFI 080653Z 00000KT 10SM CLR 06/03 A2998 RMK AO2 SLP150 T00560028=
201211080553 METAR KBFI 080553Z 13003KT 10SM CLR 07/03 A3000 RMK AO2 SLP159 T00670028 10111 20050 58014=
201211080453 METAR KBFI 080453Z 13004KT 10SM FEW065 07/03 A3002 RMK AO2 SLP165 T00670028=
201211080353 METAR KBFI 080353Z 00000KT 10SM SCT040 09/03 A3003 RMK AO2 SLP168 T00890033=
201211080253 METAR KBFI 080253Z 15003KT 10SM FEW047 OVC060 09/03 A3004 RMK AO2 SLP173 T00890028 56011=
201211080153 METAR KBFI 080153Z 00000KT 10SM FEW070 10/03 A3005 RMK AO2 SLP175 T01000028=
201211080053 METAR KBFI 080053Z 17005KT 10SM BKN075 10/02 A3006 RMK AO2 SLP179 T01000022=
201211072353 METAR KBFI 072353Z 17005KT 10SM CLR 11/02 A3007 RMK AO2 SLP184 T01110017 10128 20100 56014=
201211072253 METAR KBFI 072253Z 21005KT 10SM CLR 12/02 A3008 RMK AO2 SLP187 T01220017=
201211072153 METAR KBFI 072153Z 17006KT 10SM FEW036 12/03 A3010 RMK AO2 SLP192 T01220033=
201211072053 METAR KBFI 072053Z VRB04KT 10SM BKN031 12/03 A3012 RMK AO2 SLP197 T01170033 58007=
201211071953 METAR KBFI 071953Z VRB03KT 10SM BKN031 12/04 A3012 RMK AO2 SLP200 T01170039=
201211071853 METAR KBFI 071853Z 17007KT 10SM BKN026 11/04 A3014 RMK AO2 SLP204 T01060044=
201211071813 SPECI KBFI 071813Z 20007KT 10SM BKN020 BKN029 10/04 A3014 RMK AO2=
201211071753 METAR KBFI 071753Z COR 18005KT 10SM BKN020 BKN029 10/05 A3014 RMK AO2 SLP204 T01000050 10100 20072 51005=
201211071653 METAR KBFI 071653Z 14007KT 10SM BKN019 OVC026 09/06 A3013 RMK AO2 SLP202 T00940056=
201211071553 METAR KBFI 071553Z 13007KT 10SM BKN023 BKN120 09/06 A3013 RMK AO2 SLP203 T00890056=
201211071453 METAR KBFI 071453Z 13008KT 10SM BKN023 08/05 A3012 RMK AO2 SLP199 T00780050 51012=
201211071405 SPECI KBFI 071405Z 14005KT 10SM BKN023 08/06 A3011 RMK AO2=
201211071353 METAR KBFI 071353Z COR 15005KT 10SM BKN023 08/05 A3011 RMK AO2 SLP196 T00830050=
201211071330 SPECI KBFI 071330Z 14005KT 10SM BKN025 08/05 A3011 RMK AO2=
201211071253 METAR KBFI 071253Z 15003KT 10SM SCT025 09/04 A3010 RMK AO2 SLP192 T00890044=
201211071153 METAR KBFI 071153Z AUTO 00000KT 10SM SCT027 09/05 A3009 RMK AO2 SLP188 70001 T00940050 10117 20089 53020 TSNO=
201211071053 METAR KBFI 071053Z AUTO VRB03KT 10SM CLR 10/05 A3006 RMK AO2 SLP178 T01000050 TSNO=
201211070953 METAR KBFI 070953Z 20008G14KT 10SM CLR 11/06 A3004 RMK AO2 SLP170 T01060056=
201211070853 METAR KBFI 070853Z 18012KT 10SM CLR 10/07 A3003 RMK AO2 SLP167 T01000067 52002=
201211070753 METAR KBFI 070753Z 18011G21KT 10SM CLR 11/07 A3003 RMK AO2 SLP167 T01110072 401390067=
201211070653 METAR KBFI 070653Z 21007KT 10SM FEW022 12/07 A3002 RMK AO2 SLP165 T01170072=
201211070553 METAR KBFI 070553Z COR 20007G17KT 10SM FEW020 12/07 A3002 RMK AO2 SLP165 60001 T01170072 10139 20117 53017=
201211070453 METAR KBFI 070453Z 18013G20KT 10SM CLR 12/08 A2999 RMK AO2 SLP156 T01170078=
201211070353 METAR KBFI 070353Z 19013G20KT 10SM CLR 12/08 A2998 RMK AO2 SLP152 T01220083=
201211070317 SPECI KBFI 070317Z 20011G24KT 10SM SCT024 13/09 A2997 RMK AO2=
201211070308 SPECI KBFI 070308Z 20013G21KT 10SM BKN024 13/09 A2997 RMK AO2=
201211070253 METAR KBFI 070253Z 20009G17KT 10SM SCT026 13/09 A2997 RMK AO2 PK WND 21026/0228 SLP148 60001 T01280089 53002=
201211070153 METAR KBFI 070153Z 19010G19KT 10SM FEW010 SCT050 BKN110 13/09 A2996 RMK AO2 RAB11E37 SLP144 P0000 T01330089=
201211070053 METAR KBFI 070053Z 19012G22KT 10SM BKN018 BKN070 OVC110 13/11 A2996 RMK AO2 RAB25E39 SLP144 P0001 T01330106=
201211062353 METAR KBFI 062353Z 16018G23KT 10SM FEW020 SCT060 BKN080 13/10 A2998 RMK AO2 SLP150 T01330100 10139 20094 53002=
201211062253 METAR KBFI 062253Z 21008G17KT 10SM SCT019 OVC040 14/09 A2997 RMK AO2 SLP147 T01390094=
201211062153 METAR KBFI 062153Z 17009KT 10SM OVC048 14/10 A2997 RMK AO2 SLP147 T01390100=
201211062153 SPECI KBFI 062153Z 17009KT 10SM OVC048 14/10 A2997 RMK AO2 SLP147 T01390100=
201211062053 METAR KBFI 062053Z 18004KT 10SM SCT016 BKN032 BKN100 13/09 A2997 RMK AO2 SLP148 T01280089 55018=
201211061953 METAR KBFI 061953Z COR 14009KT 10SM SCT016 BKN030 BKN100 13/09 A2996 RMK AO2 SLP146 T01280089=
201211061853 METAR KBFI 061853Z VRB05KT 10SM FEW007 SCT035 BKN200 12/09 A3001 RMK AO2 SLP160 T01220089=
201211061813 SPECI KBFI 061813Z 13005KT 7SM SCT007 SCT035 BKN110 10/08 A3001 RMK AO2=
201211061759 SPECI KBFI 061759Z VRB04KT 6SM BR SCT007 BKN011 09/08 A3002 RMK AO2=
201211061753 METAR KBFI 061753Z VRB03KT 6SM BR OVC007 09/08 A3002 RMK AO2 SLP166 T00940078 10094 20067 58011=
201211061653 METAR KBFI 061653Z 15004KT 3SM BR OVC005 08/08 A3004 RMK AO2 SLP171 T00830078=
201211061600 SPECI KBFI 061600Z 14003KT 3SM BR OVC005 08/07 A3005 RMK AO2=
201211061553 METAR KBFI 061553Z 14003KT 2SM BR OVC005 08/07 A3005 RMK AO2 SLP175 T00780072=
201211061550 SPECI KBFI 061550Z 13004KT 2SM BR OVC005 08/07 A3005 RMK AO2=
201211061453 METAR KBFI 061453Z 00000KT 1SM BR BKN002 OVC110 08/07 A3006 RMK AO2 SLP177 T00780072 56015=
201211061353 METAR KBFI 061353Z 13003KT 1SM BR OVC003 08/07 A3006 RMK AO2 SLP180 T00780072=
201211061325 SPECI KBFI 061325Z 13003KT 2SM BR OVC003 07/06 A3008 RMK AO2=
201211061253 METAR KBFI 061253Z 00000KT 10SM FEW003 07/06 A3008 RMK AO2 SLP184 T00670061=
201211061153 METAR KBFI 061153Z 00000KT 10SM CLR 08/07 A3010 RMK AO2 SLP193 T00780067 10094 20072 56018=
201211061053 METAR KBFI 061053Z 00000KT 10SM SCT200 08/07 A3011 RMK AO2 SLP197 T00830067=
201211060953 METAR KBFI 060953Z 00000KT 10SM SCT200 09/07 A3013 RMK AO2 SLP204 T00890072=
201211060853 METAR KBFI 060853Z COR 00000KT 10SM SCT200 08/07 A3016 RMK AO2 SLP211 T00830067 56014=
201211060753 METAR KBFI 060753Z 00000KT 10SM FEW200 09/07 A3017 RMK AO2 SLP215 T00940072 401500089=
201211060653 METAR KBFI 060653Z 00000KT 10SM CLR 09/07 A3018 RMK AO2 SLP219 T00940067=
201211060553 METAR KBFI 060553Z 00000KT 10SM FEW008 SCT120 BKN250 09/07 A3020 RMK AO2 SLP224 T00940067 10128 20094 58024=
201211060505 SPECI KBFI 060505Z 00000KT 10SM FEW008 SCT120 BKN250 11/07 A3023 RMK AO2=
201211060453 METAR KBFI 060453Z 00000KT 10SM CLR 11/07 A3023 RMK AO2 SLP237 T01060067=
201211060353 METAR KBFI 060353Z 00000KT 10SM FEW120 BKN250 11/07 A3025 RMK AO2 SLP243 T01060067=
201211060253 METAR KBFI 060253Z 00000KT 10SM CLR 11/06 A3027 RMK AO2 SLP249 T01110061 58017=
201211060153 METAR KBFI 060153Z 33003KT 10SM SCT090 BKN250 12/06 A3030 RMK AO2 SLP259 T01170056=
201211060053 METAR KBFI 060053Z 32004KT 10SM SCT090 OVC250 12/06 A3030 RMK AO2 SLP259 T01220061=
201211052353 METAR KBFI 052353Z 32006KT 10SM FEW090 OVC250 13/07 A3032 RMK AO2 SLP266 T01280067 10150 20128 56018=
201211052253 METAR KBFI 052253Z 01004KT 10SM FEW045 OVC200 14/06 A3033 RMK AO2 SLP269 T01440056=
201211052153 METAR KBFI 052153Z VRB05KT 10SM CLR 14/06 A3035 RMK AO2 SLP277 T01440056=
201211052053 METAR KBFI 052053Z VRB05KT 10SM SCT055 OVC150 14/05 A3037 RMK AO2 SLP283 T01440050 58006=
201211051953 METAR KBFI 051953Z 07006KT 10SM BKN055 14/07 A3039 RMK AO2 SLP290 T01390072=
201211051853 METAR KBFI 051853Z 05003KT 10SM OVC050 13/07 A3040 RMK AO2 SLP293 T01330072=
201211051753 METAR KBFI 051753Z VRB04KT 10SM OVC042 13/07 A3039 RMK AO2 SLP290 T01280072 10128 20117 50006=
201211051653 METAR KBFI 051653Z 01005KT 10SM OVC047 13/07 A3039 RMK AO2 SLP292 T01280072=
201211051553 METAR KBFI 051553Z 00000KT 10SM BKN047 12/09 A3039 RMK AO2 SLP289 T01220089=
201211051453 METAR KBFI 051453Z 00000KT 10SM OVC041 12/08 A3037 RMK AO2 SLP283 T01170083 50002=
201211051353 METAR KBFI 051353Z 00000KT 10SM SCT034 BKN041 12/08 A3037 RMK AO2 SLP284 T01170083=
201211051253 METAR KBFI 051253Z 00000KT 10SM OVC035 12/09 A3038 RMK AO2 SLP288 T01220089=
201211051217 SPECI KBFI 051217Z VRB03KT 10SM OVC031 12/09 A3037 RMK AO2=
201211051153 METAR KBFI 051153Z 35003KT 10SM OVC029 12/09 A3036 RMK AO2 SLP282 60012 70022 T01220094 10161 20117 51015=
201211051053 METAR KBFI 051053Z 00000KT 8SM OVC023 12/11 A3036 RMK AO2 SLP280 T01220106=
201211051007 SPECI KBFI 051007Z VRB03KT 5SM BR FEW007 OVC021 12/11 A3035 RMK AO2=
201211051000 SPECI KBFI 051000Z 06003KT 4SM BR FEW011 OVC019 12/11 A3035 RMK AO2=
201211050953 METAR KBFI 050953Z 05005KT 3SM BR SCT007 OVC013 12/11 A3034 RMK AO2 RAE04 SLP274 P0000 T01170106=
201211050853 METAR KBFI 050853Z VRB04KT 3SM -RA BR SCT007 OVC013 12/11 A3032 RMK AO2 SLP267 P0005 60012 T01220111 53024=
201211050753 METAR KBFI 050753Z 22005KT 4SM -RA BR OVC020 15/14 A3029 RMK AO2 SLP257 P0004 T01500139 401830128=
201211050653 METAR KBFI 050653Z VRB04KT 4SM -RA BR OVC020 16/14 A3026 RMK AO2 SLP245 P0003 T01560139=
201211050553 METAR KBFI 050553Z 18003KT 5SM -RA BR SCT010 OVC034 16/14 A3025 RMK AO2 SLP243 P0001 60009 T01610144 10183 20156 53007=
201211050453 METAR KBFI 050453Z 19007KT 3SM -RA BR FEW034 BKN046 OVC055 16/15 A3024 RMK AO2 SLP239 P0001 T01610150=
201211050353 METAR KBFI 050353Z 26004KT 6SM -RA BR SCT030 BKN037 OVC049 16/14 A3023 RMK AO2 RAB34 SLP236 P0007 T01610144=
201211050253 METAR KBFI 050253Z 18006KT 10SM BKN034 BKN049 16/14 A3023 RMK AO2 RAB0156E05B36E53 SLP236 P0000 60000 T01610144 50013=
201211050153 METAR KBFI 050153Z 22006KT 10SM SCT050 BKN075 BKN095 17/14 A3024 RMK AO2 RAE41 SLP240 P0000 T01720139=
201211050053 METAR KBFI 050053Z 18007KT 10SM -RA SCT040 BKN110 18/13 A3022 RMK AO2 RAB47 SLP233 P0000 T01780133=
201211042353 METAR KBFI 042353Z COR 14012G19KT 10SM SCT041 SCT090 BKN110 18/14 A3019 RMK AO2 RAB40E53 SLP223 P0000 60000 T01780144 10178 20144 58013=
201211042253 METAR KBFI 042253Z 19009G15KT 10SM BKN012 OVC033 17/14 A3022 RMK AO2 SLP234 T01670144=
201211042248 SPECI KBFI 042248Z 20010G15KT 10SM BKN026 OVC033 17/14 A3023 RMK AO2=
201211042153 METAR KBFI 042153Z 19009G15KT 10SM BKN032 OVC042 18/14 A3023 RMK AO2 SLP236 T01780139=
201211042053 METAR KBFI 042053Z COR 16003KT 10SM FEW014 SCT025 OVC036 17/14 A3023 RMK AO2 SLP237 T01720139 51005=
201211041953 METAR KBFI 041953Z 15008KT 10SM SCT026 OVC036 17/14 A3023 RMK AO2 SLP235 T01670139=
201211041853 METAR KBFI 041853Z 15004KT 10SM BKN030 OVC034 16/14 A3023 RMK AO2 SLP238 T01560139=
201211041753 METAR KBFI 041753Z 14007KT 10SM BKN037 OVC045 14/13 A3022 RMK AO2 SLP232 60001 T01440133 10144 20128 51009=
201211041653 METAR KBFI 041653Z 00000KT 10SM SCT034 OVC043 14/13 A3021 RMK AO2 SLP230 T01390128=
201211041600 SPECI KBFI 041600Z 00000KT 10SM BKN034 OVC043 13/12 A3020 RMK AO2=
201211041553 METAR KBFI 041553Z 00000KT 10SM SCT010 BKN028 OVC055 13/13 A3020 RMK AO2 SLP226 T01330128=
201211041504 SPECI KBFI 041504Z 14006KT 10SM SCT010 BKN028 OVC055 13/12 A3019 RMK AO2=
201211041457 SPECI KBFI 041457Z 14006KT 9SM FEW007 BKN036 OVC055 13/12 A3019 RMK AO2=
201211041453 METAR KBFI 041453Z 15007KT 7SM SCT010 BKN029 OVC038 13/12 A3019 RMK AO2 SLP223 60001 T01280122 50002=
201211041353 METAR KBFI 041353Z 15006KT 7SM SCT029 BKN035 OVC055 13/12 A3020 RMK AO2 RAE19 SLP226 P0001 T01280122=
201211041253 METAR KBFI 041253Z 15005KT 3SM -RA BR FEW007 BKN018 OVC038 13/12 A3020 RMK AO2 RAB34 SLP226 P0000 T01280122=
201211041153 METAR KBFI 041153Z 12005KT 4SM BR BKN018 BKN027 OVC033 13/12 A3018 RMK AO2 RAB00E50 SLP220 P0001 60004 70005 T01280122 10139 20128 51001=
201211041053 METAR KBFI 041053Z 12003KT 5SM BR SCT013 OVC021 13/12 A3018 RMK AO2 RAE0955B20E29 SLP221 P0001 T01330122=
201211041005 SPECI KBFI 041005Z 13003KT 4SM BR FEW006 SCT013 OVC032 13/12 A3019 RMK AO2 RAE0955 P0000=
201211040953 METAR KBFI 040953Z 11003KT 4SM -RA BR SCT008 BKN013 OVC036 13/12 A3019 RMK AO2 RAB01 SLP223 P0002 T01330122=
201211040941 SPECI KBFI 040941Z 00000KT 4SM -RA BR SCT008 OVC013 13/12 A3019 RMK AO2 RAB01 P0002=
201211040920 SPECI KBFI 040920Z 00000KT 4SM -RA BR FEW008 OVC015 13/12 A3019 RMK AO2 RAB01 P0001=
201211040853 METAR KBFI 040853Z 00000KT 10SM BKN022 OVC049 13/12 A3018 RMK AO2 SLP220 60000 T01330122 55000=
201211040849 SPECI KBFI 040849Z 00000KT 10SM BKN022 OVC049 13/12 A3018 RMK AO2=
201211040753 METAR KBFI 040753Z 00000KT 10SM FEW040 OVC049 14/12 A3018 RMK AO2 SLP219 T01390117 401560117=
201211040653 METAR KBFI 040653Z 12003KT 10SM OVC049 13/12 A3018 RMK AO2 RAB0554E11 SLP220 P0000 T01330117=
201211040553 METAR KBFI 040553Z VRB04KT 10SM OVC070 14/11 A3016 RMK AO2 RAB50E52 SLP212 P0000 60000 T01390111 10150 20139 53010=
201211040453 METAR KBFI 040453Z 16005KT 10SM OVC080 14/11 A3015 RMK AO2 RAE25 SLP208 P0000 T01390111=
201211040353 METAR KBFI 040353Z 16010KT 10SM -RA OVC080 14/12 A3013 RMK AO2 RAB0256 SLP203 P0000 T01390117=
201211040253 METAR KBFI 040253Z 16012G18KT 10SM FEW060 OVC095 14/11 A3013 RMK AO2 RAB24E38 SLP202 P0000 60000 T01440111 52012=
201211040153 METAR KBFI 040153Z 18008G17KT 10SM OVC110 15/12 A3012 RMK AO2 SLP197 T01500117=
201211040053 METAR KBFI 040053Z 19010G16KT 10SM FEW012 SCT030 OVC130 15/12 A3011 RMK AO2 SLP194 T01500122=
201211032353 METAR KBFI 032353Z 19010G16KT 10SM FEW012 SCT030 BKN042 14/12 A3009 RMK AO2 RAB2256E15 SLP190 P0001 60001 T01440122 10156 20133 53017=
201211032253 METAR KBFI 032253Z 17006KT 10SM FEW027 BKN039 OVC055 16/12 A3007 RMK AO2 RAB21E33 SLP182 P0000 T01560117=
201211032153 METAR KBFI 032153Z 19006KT 10SM CLR 16/12 A3005 RMK AO2 SLP174 T01560117=
201211032053 METAR KBFI 032053Z 17008KT 10SM BKN030 BKN065 OVC095 16/12 A3004 RMK AO2 SLP173 T01560122 51004=
201211031953 METAR KBFI 031953Z 16005KT 10SM OVC030 14/12 A3004 RMK AO2 SLP173 T01440117=
201211031853 METAR KBFI 031853Z 15005KT 10SM OVC031 14/12 A3004 RMK AO2 SLP172 T01390117=
201211031839 SPECI KBFI 031839Z 15005KT 10SM OVC031 14/12 A3004 RMK AO2=
201211031753 METAR KBFI 031753Z 14004KT 10SM BKN029 OVC043 13/12 A3003 RMK AO2 SLP169 T01330117 10133 20117 51007=
201211031707 SPECI KBFI 031707Z 13005KT 10SM OVC029 13/11 A3003 RMK AO2=
201211031653 METAR KBFI 031653Z 14004KT 10SM OVC031 13/11 A3003 RMK AO2 SLP168 T01280111=
201211031625 SPECI KBFI 031625Z 12004KT 10SM OVC031 13/11 A3003 RMK AO2=
201211031553 METAR KBFI 031553Z 14004KT 10SM OVC029 13/11 A3002 RMK AO2 SLP166 T01280106=
201211031453 METAR KBFI 031453Z 12004KT 10SM BKN025 OVC030 12/11 A3001 RMK AO2 SLP162 T01220106 53005=
201211031353 METAR KBFI 031353Z 15007KT 10SM OVC027 12/11 A2999 RMK AO2 SLP156 T01170111=
201211031300 SPECI KBFI 031300Z 15008KT 10SM FEW013 OVC024 12/11 A3000 RMK AO2=
201211031253 METAR KBFI 031253Z 16010KT 10SM BKN010 OVC024 12/11 A3000 RMK AO2 SLP158 T01170111=
201211031153 METAR KBFI 031153Z 14006KT 10SM BKN028 OVC037 12/11 A3000 RMK AO2 RAB1058E23 SLP157 P0000 60002 70020 T01170111 10122 20117 53007=
201211031146 SPECI KBFI 031146Z 14006KT 9SM BKN026 OVC034 12/11 A3000 RMK AO2 RAB1058E23 P0000=
201211031126 SPECI KBFI 031126Z 13005KT 8SM SCT025 OVC033 12/11 A2999 RMK AO2 RAB1058E23 P0000=
201211031100 SPECI KBFI 031100Z 14006KT 6SM -RA BR SCT006 BKN027 OVC034 12/11 A2999 RMK AO2 RAB1058 P0000=
201211031053 METAR KBFI 031053Z 15004KT 8SM SCT008 OVC030 12/11 A2998 RMK AO2 SLP153 T01170111=
201211030953 METAR KBFI 030953Z 13003KT 10SM SCT008 OVC037 12/11 A2998 RMK AO2 RAE41 SLP150 P0000 T01170111=
201211030853 METAR KBFI 030853Z 00000KT 9SM -RA OVC040 12/11 A2997 RMK AO2 RAB23 SLP149 P0001 60002 T01170111 50002=
201211030753 METAR KBFI 030753Z 00000KT 10SM BKN048 OVC060 12/11 A2997 RMK AO2 RAB00E43 SLP150 P0000 T01170111 401560100=
201211030653 METAR KBFI 030653Z 00000KT 10SM BKN050 BKN080 OVC110 12/11 A2997 RMK AO2 RAE43 SLP148 P0001 T01170111=
201211030553 METAR KBFI 030553Z 00000KT 9SM -RA BKN060 OVC070 12/11 A2997 RMK AO2 SLP147 P0005 60017 T01220111 10139 20122 58004=
201211030453 METAR KBFI 030453Z 00000KT 8SM -RA OVC075 12/11 A2998 RMK AO2 RAB21 SLP151 P0001 T01220111=
201211030353 METAR KBFI 030353Z 00000KT 10SM OVC050 13/11 A2997 RMK AO2 SLP150 T01280111=
201211030253 METAR KBFI 030253Z 00000KT 10SM BKN055 BKN075 OVC090 12/11 A2998 RMK AO2 SLP151 60011 T01220111 58002=
201211030153 METAR KBFI 030153Z 00000KT 10SM BKN046 BKN055 OVC090 13/11 A2999 RMK AO2 RAE36 SLP156 P0004 T01280111=
201211030053 METAR KBFI 030053Z 00000KT 9SM -RA OVC070 13/10 A2998 RMK AO2 SLP153 P0007 T01280100=
201211022353 METAR KBFI 022353Z 00000KT 6SM -RA OVC065 14/11 A2999 RMK AO2 RAB32 SLP153 P0001 60001 T01390106 10156 20128 55000=
201211022253 METAR KBFI 022253Z 00000KT 10SM BKN095 14/09 A2998 RMK AO2 SLP152 T01440094=
201211022153 METAR KBFI 022153Z 00000KT 10SM BKN100 16/09 A2998 RMK AO2 SLP150 T01560089=
201211022053 METAR KBFI 022053Z 00000KT 10SM CLR 16/08 A2999 RMK AO2 SLP154 T01560083 58012=
201211021953 METAR KBFI 021953Z 00000KT 10SM CLR 14/09 A3001 RMK AO2 SLP162 T01440089=
201211021853 METAR KBFI 021853Z COR 14003KT 10SM FEW060 BKN150 OVC220 14/09 A3002 RMK AO2 SLP166 T01390094=
201211021753 METAR KBFI 021753Z 13005KT 10SM FEW060 BKN150 OVC220 13/10 A3002 RMK AO2 SLP166 T01280100 10128 20100 51005=
201211021653 METAR KBFI 021653Z 00000KT 10SM CLR 12/11 A3002 RMK AO2 SLP165 T01170106=
201211021553 METAR KBFI 021553Z 00000KT 10SM SCT036 BKN190 11/10 A3002 RMK AO2 SLP166 T01110100=
201211021453 METAR KBFI 021453Z COR 00000KT 10SM SCT035 BKN190 11/09 A3001 RMK AO2 SLP160 T01060094 58009=
201211021353 METAR KBFI 021353Z COR 19004KT 10SM BKN190 11/10 A3002 RMK AO2 SLP164 T01110100=
201211021253 METAR KBFI 021253Z 10003KT 10SM FEW036 BKN055 BKN075 12/10 A3003 RMK AO2 SLP168 T01170100=
201211021153 METAR KBFI 021153Z 13003KT 10SM BKN036 OVC047 12/11 A3003 RMK AO2 SLP169 70020 T01170106 10122 20111 50001=
201211021053 METAR KBFI 021053Z 13003KT 10SM FEW035 BKN060 OVC075 11/10 A3003 RMK AO2 SLP170 T01110100=
201211020953 METAR KBFI 020953Z 00000KT 10SM BKN035 OVC070 12/11 A3004 RMK AO2 SLP171 T01220106=
201211020935 SPECI KBFI 020935Z 00000KT 10SM FEW015 BKN035 OVC070 12/11 A3004 RMK AO2=
201211020904 SPECI KBFI 020904Z 00000KT 10SM BKN027 OVC036 12/11 A3003 RMK AO2=
201211020853 METAR KBFI 020853Z 00000KT 10SM FEW027 OVC036 12/11 A3003 RMK AO2 SLP168 T01170106 53003=
201211020753 METAR KBFI 020753Z 16005KT 10SM BKN050 OVC070 12/11 A3003 RMK AO2 SLP167 T01220106 401560111=
201211020653 METAR KBFI 020653Z 15006KT 10SM FEW031 OVC070 12/11 A3002 RMK AO2 SLP165 T01220106=
201211020553 METAR KBFI 020553Z 14003KT 10SM BKN030 12/11 A3002 RMK AO2 SLP165 60000 T01170106 10139 20117 53017=
201211020453 METAR KBFI 020453Z 14007KT 10SM BKN030 BKN041 12/11 A3000 RMK AO2 SLP159 T01220111=
201211020353 METAR KBFI 020353Z 15005KT 10SM SCT025 BKN070 13/11 A2998 RMK AO2 RAB08E17 SLP152 P0000 T01280106=
201211020253 METAR KBFI 020253Z 15006KT 10SM FEW039 BKN100 12/11 A2997 RMK AO2 RAE06 SLP148 P0000 60000 T01220111 53021=
201211020153 METAR KBFI 020153Z 14006KT 9SM -RA SCT019 BKN036 OVC070 13/11 A2995 RMK AO2 RAB12 SLP140 P0000 T01330111=
201211020115 SPECI KBFI 020115Z 15006KT 9SM -RA BKN023 OVC035 13/11 A2993 RMK AO2 RAB12 P0000=
201211020053 METAR KBFI 020053Z 15006KT 10SM SCT026 BKN044 OVC070 13/11 A2992 RMK AO2 RAB25E42 SLP131 P0000 T01330106=
201211020000 SPECI KBFI 020000Z 15007KT 10SM SCT024 BKN033 OVC060 14/10 A2991 RMK AO2=
201211012353 METAR KBFI 012353Z 17009KT 10SM FEW020 BKN028 OVC055 14/10 A2991 RMK AO2 SLP127 T01390100 10156 20133 51009=
201211012342 SPECI KBFI 012342Z 17007KT 10SM FEW020 BKN028 OVC055 14/10 A2991 RMK AO2=
201211012253 METAR KBFI 012253Z 17008G14KT 10SM SCT028 BKN050 BKN085 15/10 A2990 RMK AO2 SLP125 T01500100=
201211012153 METAR KBFI 012153Z 20009G15KT 10SM FEW025 BKN043 OVC085 14/09 A2989 RMK AO2 SLP120 BIOVC W-NW T01440094=
201211012053 METAR KBFI 012053Z 19005KT 10SM SCT020 OVC043 14/10 A2988 RMK AO2 SLP118 T01440100 53020=
201211011953 METAR KBFI 011953Z COR 21007KT 10SM FEW018 BKN045 14/09 A2985 RMK AO2 SLP109 T01440094=
201211011853 METAR KBFI 011853Z 00000KT 10SM FEW008 OVC043 13/11 A2984 RMK AO2 SLP105 T01330106=
201211011753 METAR KBFI 011753Z 00000KT 10SM BKN045 OVC055 13/11 A2982 RMK AO2 SLP097 60020 T01330111 10133 20111 51014=
201211011653 METAR KBFI 011653Z 00000KT 10SM FEW008 OVC055 12/11 A2981 RMK AO2 RAE40 SLP093 P0001 T01170106=
201211011553 METAR KBFI 011553Z 00000KT 10SM -RA SCT043 OVC050 11/11 A2980 RMK AO2 SLP090 P0006 T01110106=
201211011453 METAR KBFI 011453Z 13006KT 7SM -RA SCT009 OVC060 11/10 A2978 RMK AO2 SLP084 P0004 60013 T01110100 51014=
201211011353 METAR KBFI 011353Z 14005KT 10SM -RA FEW010 OVC030 11/11 A2977 RMK AO2 SLP080 P0004 T01110106=
201211011253 METAR KBFI 011253Z 16003KT 10SM -RA FEW013 OVC065 12/10 A2976 RMK AO2 SLP078 P0005 T01170100=
201211011244 SPECI KBFI 011244Z 00000KT 9SM -RA SCT013 OVC060 12/10 A2976 RMK AO2 P0004=
201211011209 SPECI KBFI 011209Z 13010KT 10SM -RA SCT020 BKN028 OVC048 12/10 A2974 RMK AO2 P0001=
201211011153 METAR KBFI 011153Z 10007KT 10SM -RA FEW030 BKN047 OVC070 12/11 A2974 RMK AO2 SLP070 P0004 60014 70039 T01170106 10117 20111 51007=
201211011053 METAR KBFI 011053Z 11003KT 6SM -RA BR FEW047 OVC055 12/11 A2974 RMK AO2 SLP070 P0004 T01170106=
201211010953 METAR KBFI 010953Z 00000KT 7SM -RA BKN060 OVC070 12/11 A2974 RMK AO2 RAB05 SLP070 P0002 T01170111=
201211010853 METAR KBFI 010853Z 22004KT 10SM BKN060 OVC075 12/11 A2972 RMK AO2 RAE53 SLP063 P0002 60004 T01170106 56001=
201211010753 METAR KBFI 010753Z 00000KT 10SM -RA OVC065 12/11 A2972 RMK AO2 RAB11 SLP064 P0002 T01170106 401610106=
201211010653 METAR KBFI 010653Z 00000KT 10SM SCT050 OVC065 12/11 A2972 RMK AO2 RAB14E25 SLP062 P0000 T01170106=
201211010553 METAR KBFI 010553Z 00000KT 10SM FEW049 SCT060 OVC075 11/11 A2972 RMK AO2 SLP064 60001 T01110106 10150 20106 53007=
201211010453 METAR KBFI 010453Z 00000KT 9SM SCT065 11/10 A2971 RMK AO2 SLP061 P0001 T01060100=
201211010353 METAR KBFI 010353Z COR 00000KT 10SM SCT065 12/11 A2970 RMK AO2 SLP056 T01220106=
201211010253 METAR KBFI 010253Z 00000KT 10SM BKN070 12/11 A2970 RMK AO2 SLP056 60000 T01220106 51008=
201211010153 METAR KBFI 010153Z VRB04KT 10SM BKN065 BKN080 14/10 A2970 RMK AO2 RAB11E23B41E51 SLP056 P0000 T01390100=
201211010053 METAR KBFI 010053Z 17009G16KT 110V200 10SM FEW065 SCT095 BKN110 14/11 A2969 RMK AO2 RAE21 SLP054 P0000 T01440106=

# No short TAF reports from KBFI in databse.

###################################
#  large TAF from KBFI
###################################
201211302336 TAF KBFI 302336Z 0100/0124 17005KT P6SM -RA SCT027 BKN045 OVC070
                       FM010600 17010KT P6SM -RA BKN030 OVC050
                       FM012100 19010G17KT P6SM -SHRA OVC050=
201211302039 TAF AMD KBFI 302039Z 3021/0118 17013G23KT P6SM VCSH FEW050 SCT080
                       BKN100 FM010200 17009G17KT P6SM -RA OVC050
                       FM010400 15006KT P6SM -RA OVC050 FM011100
                       17008G15KT P6SM -RA BKN050 FM011600 18007KT
                       6SM -RA BKN050=
201211301720 TAF KBFI 301720Z 3018/0118 14008KT P6SM VCSH SCT045 BKN070 OVC200
                       FM011200 17008G15KT 6SM -RA OVC030 FM011600
                       17008KT P6SM -SHRA BKN050=
201211301120 TAF KBFI 301120Z 3012/0112 16006KT P6SM -SHRA BKN050 OVC080 FM301800
                       16010KT P6SM -SHRA OVC040 FM010900 16012KT
                       P6SM -SHRA BKN030 OVC045=
201211300529 TAF KBFI 300529Z 3006/0106 13006KT P6SM -SHRA SCT030 OVC050 FM301500
                       15007KT P6SM -RA SCT030 OVC050 FM302000
                       15007KT P6SM -SHRA SCT030 OVC050 FM010300
                       16010KT P6SM -RA BKN030 OVC050=
201211292320 TAF KBFI 292320Z 3000/3024 17008KT P6SM VCSH SCT030 BKN050 FM300600
                       12006KT P6SM VCSH SCT030 BKN050 FM301800
                       17006KT P6SM -RA SCT030 BKN050=
201211291722 TAF KBFI 291722Z 2918/3018 14008KT P6SM -RA OVC050
                      TEMPO 2918/2920 -RA OVC030 FM292000 17008KT
                       P6SM VCSH SCT030 BKN050 FM300600 12006KT
                       P6SM VCSH SCT030 BKN050=
201211291120 TAF KBFI 291120Z 2912/3012 16008KT P6SM OVC070
                      TEMPO 2912/2915 -RA OVC050 FM291500 14012KT
                       P6SM -RA OVC050
                      TEMPO 2916/2920 -RA OVC030 FM292000 17008KT
                       P6SM VCSH SCT030 BKN050=
201211290520 TAF KBFI 290520Z 2906/3006 12006KT P6SM -RA OVC050 FM291000 16010KT
                       P6SM -RA BKN030 OVC050 FM291800 16008KT
                       P6SM VCSH SCT030 BKN050=
201211282321 TAF KBFI 282321Z 2900/2924 13006KT P6SM -RA BKN040 OVC060 FM290300
                       15007KT P6SM VCSH BKN045 OVC080 FM290800
                       11004KT P6SM -RA BKN035 OVC050 FM291800
                       13005KT P6SM -RA BKN030 OVC050=
201211281739 TAF KBFI 281739Z 2818/2918 VRB03KT P6SM BKN100 OVC200 FM282100
                       07005KT P6SM BKN060 OVC100
                      TEMPO 2821/2824 -RA FM290000 13006KT P6SM
                       -RA BKN040 OVC060 FM290300 15007KT P6SM
                       VCSH BKN045 OVC080 FM290800 11004KT P6SM
                       -RA BKN035 OVC050=
201211281139 TAF KBFI 281139Z 2812/2912 00000KT P6SM BKN100 OVC200 FM282100
                       VRB03KT P6SM BKN060 OVC100
                      TEMPO 2821/2824 -RA FM290000 13006KT P6SM
                       -RA BKN040 OVC060 FM290300 15007KT P6SM
                       VCSH BKN045 OVC080=
201211280539 TAF KBFI 280539Z 2806/2906 VRB03KT P6SM SCT100 BKN200 FM281200
                       VRB03KT P6SM BKN100 OVC200 FM282100 11005KT
                       P6SM BKN050 OVC080
                      TEMPO 2821/2824 -RA FM290000 13006KT P6SM
                       -RA BKN045 OVC060=
201211272342 TAF KBFI 272342Z 2800/2824 VRB03KT P6SM SCT150 BKN200 FM280800
                       VRB03KT P6SM SCT070 BKN100 OVC200 FM282200
                       VRB03KT P6SM SCT040 BKN060 OVC080
                      TEMPO 2822/2824 -RA=
201211271742 TAF KBFI 271742Z 2718/2818 VRB03KT P6SM SCT120 BKN200 FM280800
                       VRB03KT P6SM SCT070 BKN100 OVC200=
201211271120 TAF KBFI 271120Z 2712/2812 VRB03KT P6SM BKN050 BKN200 FM271900
                       VRB03KT P6SM SCT050 BKN200 FM280200 13003KT
                       P6SM BKN060 OVC200=
201211270526 TAF KBFI 270526Z 2706/2806 00000KT P6SM BKN250 FM271300 VRB03KT
                       P6SM SCT011 BKN250 FM271900 VRB03KT P6SM
                       OVC200=
201211262333 TAF KBFI 262333Z 2700/2724 31006KT P6SM BKN250 FM271300 12003KT
                       P6SM BKN011 FM271900 VRB03KT P6SM OVC200=
201211261720 TAF KBFI 261720Z 2618/2718 35003KT P6SM SCT250 FM271500 16002KT
                       P6SM SCT005 SCT250=
201211261120 TAF KBFI 261120Z 2612/2712 00000KT P6SM SCT008 SCT250 FM261700
                       03003KT P6SM SCT250 FM262200 34006KT P6SM
                       SCT250 FM270400 VRB03KT P6SM SCT250=
201211261021 TAF AMD KBFI 261021Z 2610/2706 00000KT P6SM SCT008 SCT250 FM261700
                       03003KT P6SM SCT250 FM262200 34006KT P6SM
                       SCT250=
201211260718 TAF AMD KBFI 260718Z 2607/2706 02004KT P6SM SCT008 SCT250
                      TEMPO 2607/2611 BKN008 BKN250 FM261100 02003KT
                       P6SM BKN008
                      TEMPO 2611/2615 5SM BR OVC005 FM261900 33006KT
                       P6SM SCT250=
201211260520 TAF KBFI 260520Z 2606/2706 02004KT P6SM SCT250 FM262100 33006KT
                       P6SM SCT250=
201211252322 TAF KBFI 252322Z 2600/2624 02007KT P6SM FEW020 SCT250 FM260200
                       04007KT P6SM SCT250
                      TEMPO 2612/2616 SCT008=
201211252104 TAF AMD KBFI 252104Z 2521/2618 33007KT P6SM SCT020 FM260200 01004KT
                       P6SM SCT250=
201211251725 TAF KBFI 251725Z 2518/2618 35003KT 1SM BR OVC003
                      TEMPO 2518/2519 1/2SM FG VV002 FM251900 00000KT
                       P6SM SCT003 OVC008
                      TEMPO 2519/2520 2SM BR FM252100 32002KT P6SM
                       SCT250=
201211251628 TAF AMD KBFI 251628Z 2516/2612 00000KT 1/2SM FG VV001 FM251900
                       00000KT 4SM BR BKN003 OVC008
                      TEMPO 2519/2520 1SM BR OVC002 FM252000 32002KT
                       P6SM SCT250=
201211251121 TAF KBFI 251121Z 2512/2612 00000KT 1/2SM FG OVC001
                      TEMPO 2513/2516 5SM BR SCT001 BKN006 FM251600
                       00000KT 4SM BR BKN003 OVC008
                      TEMPO 2516/2518 1SM BR OVC002 FM251900 VRB03KT
                       5SM BR OVC007 FM252100 32002KT P6SM SCT250=
201211250940 TAF AMD KBFI 250940Z 2510/2606 00000KT 5SM BR BKN010 BKN050
                      TEMPO 2510/2512 1/2SM FG BKN003 OVC010 FM251200
                       00000KT 4SM BR BKN003 OVC008
                      TEMPO 2512/2516 1/2SM FG OVC002 FM251700
                       VRB03KT P6SM OVC012 FM252000 32002KT P6SM
                       SCT250=
201211250905 TAF AMD KBFI 250905Z 2509/2606 00000KT P6SM SCT010 BKN020 BKN050
                       TEMPO 2509/2512 4SM BR BKN003 OVC010 FM251200
                       00000KT 4SM BR BKN003 OVC008 FM251700 VRB03KT
                       P6SM OVC015 FM252000 32002KT P6SM SCT250=
201211250903 TAF AMD KBFI 250903Z 2509/2606 00000KT P6SM BKN020 BKN050 FM251000
                       00000KT P6SM SCT009 BKN018 FM251200 00000KT
                       P6SM BKN008 OVC015 FM251700 VRB03KT P6SM
                       OVC015 FM252000 32002KT P6SM SCT250=
201211250530 TAF KBFI 250530Z 2506/2606 00000KT P6SM BKN060 FM251000 00000KT
                       P6SM SCT009 BKN015 FM251300 00000KT P6SM
                       BKN008 OVC015 FM251700 VRB03KT P6SM OVC015
                       FM252000 32002KT P6SM SCT250=
201211242335 TAF KBFI 242335Z 2500/2524 00000KT P6SM SCT022
                      TEMPO 2500/2503 BKN022 FM250300 00000KT P6SM
                       SCT250 FM250900 00000KT P6SM SCT006 BKN015
                       FM251100 00000KT P6SM BKN006 FM251700 32002KT
                       P6SM SCT250=
201211242104 TAF AMD KBFI 242104Z 2421/2518 14003KT P6SM SCT015 SCT040 BKN250
                       TEMPO 2421/2422 BKN015 BKN040 FM250300 00000KT
                       P6SM SCT250 FM250900 00000KT P6SM SCT006
                       BKN015 FM251700 32002KT P6SM SCT250=
201211241720 TAF KBFI 241720Z 2418/2518 00000KT P6SM SCT009 BKN012
                      TEMPO 2418/2420 SCT012 BKN028 FM242000 VRB05KT
                       P6SM SCT030 BKN050
                      TEMPO 2420/2422 BKN030 BKN050 FM250300 00000KT
                       P6SM SCT250 FM250900 00000KT P6SM SCT006
                       BKN015 FM251700 32002KT P6SM SCT250=
201211241631 TAF AMD KBFI 241631Z 2417/2512 00000KT P6SM SCT013 BKN029
                      TEMPO 2417/2418 SCT013 SCT029 FM241800 VRB05KT
                       P6SM SCT030 BKN050
                      TEMPO 2418/2420 BKN030 BKN050 FM250300 00000KT
                       P6SM SCT250 FM250900 09003KT P6SM SCT006
                       BKN015=
201211241143 TAF KBFI 241143Z 2412/2512 00000KT P6SM SCT012 OVC020 FM241300
                       00000KT P6SM BKN009 OVC014
                      TEMPO 2414/2417 5SM BR OVC006 FM241800 VRB03KT
                       P6SM OVC012 FM242100 30003KT P6SM BKN014
                       OVC020 FM242300 33004KT P6SM SCT024 BKN050=
201211240651 TAF AMD KBFI 240651Z 2407/2506 22004KT P6SM SCT007 OVC014 FM241000
                       16003KT 4SM BR OVC004 FM241700 VRB03KT P6SM
                       OVC007 FM242100 30003KT P6SM OVC012 FM250000
                       33004KT P6SM SCT014 BKN050=
201211240536 TAF KBFI 240536Z 2406/2506 22004KT 4SM BR OVC007 FM240900 16003KT
                       4SM BR OVC004 FM241700 VRB03KT P6SM OVC007
                       FM242100 30003KT P6SM OVC012 FM250000 33004KT
                       P6SM SCT014 BKN050=
201211240105 TAF AMD KBFI 240105Z 2401/2424 14004KT 2SM BR OVC008
                      TEMPO 2401/2405 5SM -SHRA BR SCT008 BKN013
                       OVC030 FM240800 VRB03KT 4SM BR OVC008 FM241900
                       33004KT P6SM SCT025 BKN050=
201211232335 TAF KBFI 232335Z 2400/2424 13006KT 3SM -SHRA BR BKN011 BKN022 OVC030
                       TEMPO 2400/2404 P6SM NSW SCT011 SCT022 OVC030
                       FM240400 17005KT P6SM VCSH SCT013 BKN028
                       OVC040 FM240800 VRB03KT 4SM BR OVC008 FM241900
                       33004KT P6SM SCT025 BKN050=
201211232138 TAF AMD KBFI 232138Z 2322/2418 13004KT 1 1/2SM RA BR SCT004 BKN009
                       BKN019
                      TEMPO 2322/2323 5SM -RA BR SCT008 OVC020
                       FM232300 17005KT P6SM -SHRA SCT016 OVC028
                       TEMPO 2323/2403 4SM -SHRA BR OVC016 FM241000
                       13003KT P6SM VCSH OVC010=
201211231730 TAF KBFI 231730Z 2318/2418 00000KT 2SM RA BR SCT005 BKN023 OVC030
                       TEMPO 2318/2321 5SM -RA BR SCT023 OVC030
                       FM232100 17005KT P6SM -SHRA SCT016 OVC028
                       TEMPO 2321/2401 4SM -SHRA BR OVC016 FM241000
                       13003KT P6SM VCSH OVC010=
201211231130 TAF KBFI 231130Z 2312/2412 14003KT P6SM -RA SCT045 BKN060 OVC090
                       FM231500 16007KT 6SM -RA BR BKN035 OVC045
                       TEMPO 2318/2321 2SM RA BR BKN025 OVC035
                       FM232100 17005KT 6SM -SHRA BR BKN018 OVC030
                       FM240200 16004KT P6SM -SHRA SCT015 BKN030
                       TEMPO 2404/2408 SCT010 OVC015 FM241000 14003KT
                       P6SM VCSH BKN010=
201211230545 TAF KBFI 230545Z 2306/2406 12003KT P6SM BKN070 OVC100
                      TEMPO 2306/2309 -RA FM230900 14003KT P6SM
                       -RA SCT045 BKN060 OVC090 FM231600 16007KT
                       6SM -RA BR BKN030 OVC045
                      TEMPO 2318/2321 2SM RA BR BKN020 OVC030 FM232100
                       17005KT 6SM -SHRA BR BKN015 OVC025 FM240200
                       16004KT P6SM -SHRA SCT015 BKN030
                      TEMPO 2404/2406 SCT008 OVC015=
201211222350 TAF KBFI 222350Z 2300/2324 14003KT P6SM BKN070 OVC120 FM230200
                       11004KT P6SM BKN090 OVC180 FM230800 15004KT
                       P6SM SCT045 BKN060 OVC090
                      PROB30 2310/2312 -RA FM231700 16008KT 6SM
                       -RA BR BKN035 OVC045=
201211221740 TAF KBFI 221740Z 2218/2318 14003KT P6SM BKN110 OVC200 FM230200
                       11004KT P6SM BKN090 OVC180 FM230800 15004KT
                       P6SM SCT045 BKN060 OVC090
                      PROB30 2310/2312 -RA FM231400 16008KT 6SM
                       -RA BR BKN035 OVC045=
201211221120 TAF KBFI 221120Z 2212/2312 14004KT P6SM SCT018 BKN200 FM221300
                       14003KT P6SM VCFG SCT120 BKN200 FM221900
                       13004KT P6SM BKN200 FM230800 15004KT P6SM
                       SCT045 BKN060 OVC090
                      PROB30 2310/2312 -RA=
201211220533 TAF KBFI 220533Z 2206/2306 15006KT P6SM SCT020 SCT200
                      TEMPO 2206/2208 BKN020 BKN200 FM221300 14003KT
                       P6SM VCFG SCT150 BKN200 FM221900 13004KT
                       P6SM BKN200=
201211220225 TAF AMD KBFI 220225Z 2202/2224 19010KT P6SM SCT020 SCT060 BKN200
                       TEMPO 2202/2204 BKN020 BKN060 BKN200 FM220600
                       14005KT P6SM SCT060 SCT200 FM221200 VRB03KT
                       P6SM VCFG BKN200 FM221900 VRB03KT P6SM SCT100
                       OVC200=
201211220121 TAF AMD KBFI 220121Z 2201/2224 19010KT P6SM SCT035 BKN060 BKN200
                       FM220300 17007KT P6SM SCT035 BKN060 BKN200
                       FM220600 14005KT P6SM SCT060 SCT200 FM221200
                       VRB03KT P6SM VCFG BKN200 FM221900 VRB03KT
                       P6SM SCT100 OVC200=
201211212342 TAF KBFI 212342Z 2200/2224 19010KT P6SM VCSH SCT020 BKN035 BKN200
                       TEMPO 2200/2202 19012G22KT -SHRA BKN020
                       OVC035 FM220200 17007KT P6SM VCSH SCT035
                       BKN060 BKN200 FM220600 14005KT P6SM SCT060
                       SCT200 FM221200 VRB03KT P6SM VCFG BKN200
                       FM221900 VRB03KT P6SM SCT100 OVC200=
201211212259 TAF AMD KBFI 212259Z 2123/2218 19011KT P6SM VCSH BKN035 BKN060
                       BKN200
                      TEMPO 2123/2201 -SHRA BKN020 OVC040 FM220100
                       17008KT P6SM VCSH SCT030 BKN050 FM220600
                       15005KT P6SM SCT035 BKN150 FM221600 11003KT
                       P6SM BKN120=
201211211801 TAF KBFI 211801Z 2118/2218 17012G22KT P6SM VCTS BKN025CB OVC045
                       FM212000 18010G20KT P6SM VCSH BKN030 OVC045
                       FM220100 17008KT P6SM VCSH SCT030 BKN050
                       FM220600 15005KT P6SM SCT035 BKN150 FM221600
                       11003KT P6SM BKN120=
201211211625 TAF AMD KBFI 211625Z 2116/2212 18012G20KT P6SM -SHRA SCT020 BKN040
                       FM211700 19012G20KT P6SM VCTS SCT030CB BKN040
                       FM220100 18008KT P6SM VCSH SCT030 BKN050
                       FM220600 14004KT P6SM SCT030 SCT045 BKN150=
201211211412 TAF AMD KBFI 211412Z 2114/2212 22015G22KT 6SM -SHRA BR SCT018 BKN030
                       OVC045 FM211600 19012G20KT P6SM -SHRA SCT030
                       BKN045 FM220100 18008KT P6SM VCSH SCT030
                       BKN050 FM220600 14004KT P6SM SCT030 SCT045
                       BKN150=
201211211135 TAF KBFI 211135Z 2112/2212 15005KT 6SM -SHRA BR SCT030 OVC040 FM211400
                       19011G19KT 6SM -SHRA BR SCT018 BKN030 OVC045
                       FM211800 19012G20KT P6SM -SHRA SCT030 BKN045
                       FM220100 18008KT P6SM VCSH SCT030 BKN050
                       FM220600 14004KT P6SM SCT030 SCT045 BKN150=
201211210550 TAF KBFI 210550Z 2106/2206 15003KT P6SM VCSH SCT045 BKN070 FM210900
                       16004KT P6SM -RA SCT030 OVC040 FM211100
                       16005KT 4SM RA BR OVC018 FM211500 19011G19KT
                       5SM -SHRA BR SCT018 BKN030 OVC045 FM211800
                       19012G20KT P6SM -SHRA SCT030 BKN045 FM220100
                       20011KT P6SM VCSH SCT030 BKN050=
201211210304 TAF AMD KBFI 210304Z 2103/2124 16010KT P6SM VCSH SCT045 BKN080
                       TEMPO 2103/2106 4SM -SHRA BR SCT035 BKN045
                       OVC080 FM211000 14004KT P6SM -RA BKN040
                       OVC060 FM211400 18012G20KT 5SM -SHRA BR
                       SCT020 BKN030 BKN050 FM211700 18010G18KT
                       P6SM -SHRA SCT030 BKN050=
201211202336 TAF KBFI 202336Z 2100/2124 17011G19KT P6SM VCSH SCT035 BKN060 FM210300
                       16006KT P6SM VCSH SCT035 BKN100 FM211000
                       14004KT P6SM -RA BKN040 OVC060 FM211400
                       18012G20KT 5SM -SHRA BR SCT020 BKN030 BKN050
                       FM211700 18010G18KT P6SM -SHRA SCT030 BKN050=
201211202102 TAF AMD KBFI 202102Z 2021/2118 13010KT P6SM BKN050 OVC180 FM202200
                       18014G22KT 5SM -RA BR BKN030 OVC045 FM202300
                       18015G24KT P6SM -SHRA SCT020 BKN035 FM210500
                       16006KT P6SM VCSH SCT035 BKN100 FM211000
                       16004KT P6SM -RA BKN040 OVC060=
201211201746 TAF KBFI 201746Z 2018/2118 13004KT P6SM SCT060 OVC180 FM202100
                       18014G22KT 5SM -RA BR BKN030 OVC045 FM202300
                       18015G24KT P6SM -SHRA SCT020 BKN035 FM210500
                       16006KT P6SM VCSH SCT035 BKN100 FM211000
                       16004KT P6SM -RA BKN040 OVC060=
201211201140 TAF KBFI 201140Z 2012/2112 15005KT P6SM VCSH SCT040 SCT060 OVC200
                       FM201500 15004KT P6SM BKN120 OVC200 FM201900
                       18014G22KT 5SM -RA BR BKN030 OVC045 FM202200
                       18015G24KT P6SM -SHRA SCT020 BKN035 FM210500
                       16006KT P6SM VCSH SCT035 BKN100 FM211000
                       16004KT P6SM -RA BKN040 OVC060=
201211200657 TAF AMD KBFI 200657Z 2007/2106 17007KT P6SM VCSH SCT040 SCT060
                       TEMPO 2007/2008 4SM -TSRAGS BR SCT030 BKN040CB
                       FM201400 15004KT P6SM SCT045 BKN070 FM201900
                       18014G22KT 5SM -RA BR BKN030 OVC045 FM202100
                       18015G24KT P6SM -SHRA SCT020 BKN035 FM210400
                       16006KT P6SM VCSH SCT035 BKN100=
201211200548 TAF KBFI 200548Z 2006/2106 17007KT P6SM VCSH SCT040 SCT060
                      TEMPO 2006/2010 6SM -SHRA SCT030 BKN040 FM201400
                       15004KT P6SM SCT045 BKN070 FM201900 18014G22KT
                       5SM -RA BR BKN030 OVC045 FM202100 18015G24KT
                       P6SM -SHRA SCT020 BKN035 FM210400 16006KT
                       P6SM VCSH SCT035 BKN100=
201211200326 TAF AMD KBFI 200326Z 2003/2024 17011KT P6SM VCSH BKN030 OVC060
                       FM200800 17008KT P6SM VCSH BKN040 OVC050
                       FM201400 15006KT P6SM VCSH OVC045 FM201800
                       19010KT P6SM -RA BKN025 OVC040 FM202100
                       18012G20KT P6SM -RA SCT020 OVC035=
201211200014 TAF KBFI 200014Z 2000/2024 18012G25KT P6SM BKN060 OVC100
                      TEMPO 2000/2002 5SM -SHRA BKN035 OVC050 FM200800
                       17008KT P6SM VCSH BKN040 OVC050 FM201400
                       15006KT P6SM VCSH BKN030 OVC045 FM201800
                       19010KT P6SM -RA BKN025 OVC040 FM202100
                       18012G20KT P6SM -RA SCT020 OVC035=
201211191840 TAF AMD KBFI 191840Z 1919/2018 15010G20KT 5SM -RA BKN035 OVC045
                       TEMPO 1919/1922 2SM +RA SCT015 BKN025 FM192200
                       15008KT 5SM RA OVC025 FM200200 16012G20KT
                       P6SM -SHRA BKN030 BKN045 FM200800 15008KT
                       P6SM -SHRA BKN030 OVC040=
201211191746 TAF KBFI 191746Z 1918/2018 16010G20KT 5SM -RA BKN025 OVC035
                      TEMPO 1918/1922 2SM +RA SCT015 BKN025 FM192200
                       15008KT 5SM RA OVC025 FM200200 16012G20KT
                       P6SM -SHRA BKN030 BKN045 FM200800 15008KT
                       P6SM -SHRA BKN030 OVC040=
201211191724 TAF AMD KBFI 191724Z 1917/2012 16015G25KT P6SM -RA OVC035
                      TEMPO 1917/1919 2SM +RA SCT015 BKN025 FM191900
                       14010G20KT 5SM -RA BR OVC030 FM192200 15008KT
                       5SM RA OVC025 FM200200 16012G20KT P6SM -SHRA
                       BKN030 BKN045 FM200800 15008KT P6SM -SHRA
                       BKN030 BKN045=
201211191127 TAF KBFI 191127Z 1912/2012 16015G25KT P6SM -RA OVC035 FM191600
                       14010G20KT 5SM -RA BR OVC030 FM192200 15008KT
                       5SM RA OVC025 FM200200 16012G20KT P6SM -SHRA
                       BKN030 BKN045 FM200800 15008KT P6SM -SHRA
                       BKN030 BKN045=
201211190534 TAF KBFI 190534Z 1906/2006 16012G22KT P6SM -RA BKN035 OVC050 FM190900
                       16010G20KT P6SM -RA OVC035 FM191600 14010KT
                       5SM -RA BR OVC030 FM192200 15006KT 5SM RA
                       OVC025 FM200200 16009KT P6SM -SHRA BKN030
                       BKN045=
201211182330 TAF KBFI 182330Z 1900/1924 15010KT P6SM -RA BKN035 OVC050 FM190400
                       16010G20KT P6SM -RA OVC030 FM191200 17010KT
                       5SM RA BR OVC025 FM192200 17012KT P6SM -RA
                       OVC030=
201211181735 TAF KBFI 181735Z 1818/1918 16006KT P6SM -SHRA SCT035 OVC050
                      TEMPO 1818/1822 5SM -SHRA OVC035 FM190000
                       16010KT P6SM -RA BKN035 OVC050 FM190400
                       16010G20KT P6SM -RA OVC030 FM191400 17012G25KT
                       5SM RA BR OVC025=
201211181559 TAF AMD KBFI 181559Z 1816/1912 16010KT P6SM -SHRA SCT030 OVC045
                       TEMPO 1816/1820 -SHRA OVC030 FM182200 16010KT
                       P6SM -RA BKN035 OVC050 FM190400 16010G20KT
                       P6SM -RA OVC030=
201211181200 TAF AMD KBFI 181200Z 1812/1912 16010KT P6SM -SHRA BKN030 OVC045
                       TEMPO 1812/1814 4SM RA OVC030 FM182200 16010KT
                       P6SM -RA BKN035 OVC050 FM190400 16010G20KT
                       P6SM -RA OVC030=
201211181120 TAF KBFI 181120Z 1812/1912 16010KT P6SM -SHRA BKN030 OVC045 FM182200
                       16010KT P6SM -RA BKN035 OVC050 FM190400
                       16010G20KT P6SM -RA OVC030=
201211180527 TAF KBFI 180527Z 1806/1906 17009KT P6SM SCT030 BKN050
                      TEMPO 1806/1810 -SHRA BKN030 OVC050 FM181000
                       16007KT P6SM -SHRA BKN030 OVC045 FM182200
                       16010KT P6SM -RA BKN035 OVC050=
201211180314 TAF AMD KBFI 180314Z 1803/1824 15009KT P6SM SCT030 BKN050
                      TEMPO 1803/1805 6SM SHRA BR BKN030 OVC050
                       FM180500 19010KT P6SM SCT030 BKN050
                      TEMPO 1805/1809 -SHRA BKN030 OVC050 FM180900
                       16007KT P6SM VCSH BKN030 OVC045 FM182200
                       16010KT P6SM -RA BKN035 OVC050=
201211172328 TAF KBFI 172328Z 1800/1824 20010KT 5SM -RA BR BKN013 OVC025 FM180100
                       21010KT P6SM SCT030 BKN050
                      TEMPO 1801/1805 -SHRA BKN030 OVC050 FM180500
                       17010KT P6SM SCT030 BKN050
                      TEMPO 1805/1809 -SHRA BKN030 OVC050 FM180900
                       16007KT P6SM VCSH BKN030 OVC045 FM182200
                       16010KT P6SM -RA BKN035 OVC050=
201211172102 TAF AMD KBFI 172102Z 1721/1818 21012G20KT P6SM -SHRA BKN035 OVC050
                       FM180200 15006KT P6SM SCT030 OVC050
                      TEMPO 1802/1806 -SHRA BKN030 OVC050=
201211171737 TAF KBFI 171737Z 1718/1818 15010KT P6SM -RA BKN050 OVC070 FM171900
                       16012KT P6SM -RA BKN035 OVC050 FM172100
                       18012G20KT P6SM -SHRA BKN040 OVC050 FM180200
                       15006KT P6SM SCT030 OVC050
                      TEMPO 1802/1806 -SHRA BKN030 OVC050=
201211171120 TAF KBFI 171120Z 1712/1812 13005KT P6SM -RA BKN050 OVC070 FM171900
                       16008KT P6SM -RA SCT035 OVC050 FM172100
                       18012G20KT P6SM -SHRA BKN035 OVC050 FM180200
                       15006KT P6SM -RA BKN030 OVC050=
201211170549 TAF KBFI 170549Z 1706/1806 VRB03KT 6SM -RA BR SCT035 OVC050 FM171900
                       15008KT P6SM -SHRA SCT028 OVC050 FM172000
                       18010KT P6SM -SHRA BKN028 OVC050 FM180200
                       16008KT P6SM -RA OVC035=
201211170036 TAF AMD KBFI 170036Z 1701/1724 VRB03KT 5SM -RA BR SCT035 OVC050
                       TEMPO 1701/1702 3SM RA BR BKN035 OVC050
                       FM170200 VRB03KT 5SM -RA BR SCT020 OVC035
                       FM170900 12006KT P6SM SCT030 BKN050 OVC090
                       FM171800 15010KT P6SM -RA SCT028 OVC050
                       FM172000 18013KT 5SM -RA BR OVC028=
201211162342 TAF KBFI 162342Z 1700/1724 VRB03KT P6SM -RA SCT035 OVC050
                      TEMPO 1700/1702 5SM -RA BR BKN035 OVC050
                       FM170200 VRB03KT 5SM -RA BR SCT020 OVC035
                       FM170900 12006KT P6SM SCT030 BKN050 OVC090
                       FM171800 15010KT P6SM -RA SCT028 OVC050
                       FM172000 18013KT 5SM -RA BR OVC028=
201211162106 TAF AMD KBFI 162106Z 1621/1718 VRB03KT P6SM BKN060 BKN100 OVC150
                       TEMPO 1621/1624 -RA FM170200 12006KT P6SM
                       BKN050 OVC100
                      TEMPO 1702/1706 -RA FM171200 12006KT P6SM
                       SCT030 OVC050
                      PROB30 1712/1718 -RA=
201211161752 TAF KBFI 161752Z 1618/1718 15008KT P6SM VCFG BKN060 BKN120 BKN200
                       FM162000 15008KT P6SM SCT060 SCT120 BKN200
                       FM162200 15006KT P6SM SCT050 BKN100 OVC150
                       FM170200 12006KT P6SM BKN050 OVC100
                      TEMPO 1702/1706 -RA FM171200 12006KT P6SM
                       SCT030 OVC050
                      PROB30 1712/1718 -RA=
201211161523 TAF AMD KBFI 161523Z 1615/1712 15008KT 3SM BR SCT006 BKN090 OVC130
                       TEMPO 1615/1617 1SM BR VV002 FM161700 14005KT
                       P6SM BKN090 OVC130 FM170000 12005KT P6SM
                       OVC060 FM170300 12005KT P6SM -SHRA BKN030
                       OVC060 FM170900 12005KT P6SM -RA OVC030=
201211161404 TAF AMD KBFI 161404Z 1614/1712 14003KT 1/4SM FG VV002 FM161600
                       13004KT P6SM VCFG SCT012 SCT090 OVC150 FM161800
                       14005KT P6SM BKN090 OVC150 FM170000 12005KT
                       P6SM OVC060 FM170300 12005KT P6SM -SHRA
                       BKN030 OVC060 FM170900 12005KT P6SM -RA
                       OVC030=
201211161142 TAF KBFI 161142Z 1612/1712 12004KT 3SM BR SCT002 OVC012
                      TEMPO 1612/1614 1/2SM FG OVC002 FM161600
                       13004KT P6SM VCFG SCT012 SCT090 OVC150 FM161800
                       14005KT P6SM BKN090 OVC150 FM170000 12005KT
                       P6SM OVC060 FM170300 12005KT P6SM -SHRA
                       BKN030 OVC060 FM170900 12005KT P6SM -RA
                       OVC030=
201211160652 TAF AMD KBFI 160652Z 1607/1706 14004KT 3SM BR SCT002 BKN008 BKN180
                       TEMPO 1607/1609 1/2SM FG VV002 FM160900
                       00000KT 3SM BR SCT002 OVC008
                      TEMPO 1609/1613 1/2SM FG VV002 FM161600 VRB03KT
                       P6SM VCFG SCT008 SCT090 OVC150 FM161800
                       13005KT P6SM BKN090 OVC150 FM170000 14005KT
                       P6SM OVC060 FM170300 14005KT P6SM -SHRA
                       BKN030 OVC060=
201211160539 TAF KBFI 160539Z 1606/1706 00000KT 6SM BR SCT012 BKN180
                      TEMPO 1607/1609 4SM BR SCT007 BKN012 FM160900
                       00000KT 4SM BR SCT007 OVC012
                      TEMPO 1609/1613 1SM BR OVC007 FM161600 VRB03KT
                       P6SM VCFG SCT013 SCT090 OVC150 FM161800
                       13005KT P6SM BKN090 OVC150 FM170000 14005KT
                       P6SM OVC060 FM170300 14005KT P6SM -SHRA
                       BKN030 OVC060=
201211152350 TAF KBFI 152350Z 1600/1624 VRB03KT P6SM FEW015 SCT200 FM160200
                       00000KT P6SM VCFG FEW010 SCT200 FM160600
                       00000KT 6SM BR OVC008
                      TEMPO 1608/1612 2SM BR VV005 FM161500 VRB03KT
                       P6SM VCFG SCT013 SCT090 OVC150 FM161800
                       13005KT P6SM BKN090 OVC150=
201211152105 TAF AMD KBFI 152105Z 1521/1618 30004KT P6SM FEW015 SCT200 FM160200
                       VRB03KT P6SM VCFG FEW009 BKN200 FM160900
                       00000KT P6SM VCFG BKN009 OVC200 FM161500
                       VRB03KT P6SM SCT013 SCT080 OVC150=
201211151751 TAF AMD KBFI 151751Z 1518/1618 VRB03KT P6SM VCFG SCT007
                      TEMPO 1518/1519 BKN004 FM151900 34004KT P6SM
                       VCFG SCT012 FM152000 34004KT P6SM SCT020
                       SCT200 FM160200 VRB03KT P6SM VCFG FEW009
                       BKN200 FM160900 00000KT P6SM VCFG BKN009
                       OVC200 FM161500 VRB03KT P6SM SCT013 SCT080
                       OVC150=
201211151745 TAF KBFI 151745Z 1518/1618 VRB03KT P6SM VCFG BKN008
                      TEMPO 1518/1519 BKN004 FM151900 34004KT P6SM
                       VCFG SCT012 FM152000 34004KT P6SM SCT020
                       SCT200 FM160200 VRB03KT P6SM VCFG FEW009
                       BKN200 FM160900 00000KT P6SM VCFG BKN009
                       OVC200 FM161500 VRB03KT P6SM SCT013 SCT080
                       OVC150=
201211151509 TAF AMD KBFI 151509Z 1515/1612 00000KT P6SM VCFG SCT005
                      TEMPO 1515/1518 2SM BR BKN005 FM151800 VRB03KT
                       P6SM OVC012 FM152200 VRB03KT P6SM BKN025
                       FM152300 02005KT P6SM SCT030 FM160300 00000KT
                       P6SM SCT030 BKN200 FM160900 00000KT P6SM
                       SCT020 BKN120
                      TEMPO 1609/1612 6SM BR BKN018=
201211151248 TAF AMD KBFI 151248Z 1513/1612 00000KT P6SM OVC005 FM151800 VRB03KT
                       P6SM OVC012 FM152200 VRB03KT P6SM BKN025
                       FM152300 02005KT P6SM SCT030 FM160300 00000KT
                       P6SM SCT030 BKN200 FM160900 00000KT P6SM
                       SCT020 BKN120
                      TEMPO 1609/1612 6SM BR BKN018=
201211151130 TAF KBFI 151130Z 1512/1612 00000KT 5SM BR OVC003
                      TEMPO 1512/1516 1SM BR FM151900 VRB03KT P6SM
                       OVC012 FM152200 VRB03KT P6SM BKN025 FM152300
                       02005KT P6SM SCT030 FM160300 00000KT P6SM
                       SCT030 BKN200 FM160900 00000KT P6SM SCT020
                       BKN120
                      TEMPO 1609/1612 6SM BR BKN018=
201211150935 TAF AMD KBFI 150935Z 1510/1606 00000KT 2SM BR OVC003
                      TEMPO 1510/1512 1/2SM FG FM151200 00000KT
                       2SM BR OVC003
                      TEMPO 1512/1516 1/2SM FG FM151900 VRB03KT
                       P6SM OVC012 FM152200 VRB03KT P6SM BKN025
                       FM152300 02005KT P6SM SCT030 FM160300 00000KT
                       P6SM SCT030 BKN200=
201211150824 TAF AMD KBFI 150824Z 1508/1606 00000KT P6SM OVC006 FM151100 00000KT
                       4SM BR OVC004
                      TEMPO 1512/1516 1SM BR FM151900 VRB03KT P6SM
                       OVC015 FM152100 VRB03KT P6SM BKN025 FM152200
                       02005KT P6SM SCT030 FM160300 00000KT P6SM
                       SCT030 BKN200=
201211150520 TAF KBFI 150520Z 1506/1606 00000KT P6SM SCT050 FM150900 00000KT
                       P6SM OVC012 FM151300 00000KT 5SM BR OVC006
                       FM151900 VRB03KT P6SM OVC015 FM152100 VRB03KT
                       P6SM BKN025 FM152200 02005KT P6SM SCT030
                       FM160300 00000KT P6SM SCT030 BKN200=
201211142320 TAF KBFI 142320Z 1500/1524 VRB03KT P6SM SCT020 BKN050 FM150200
                       VRB03KT P6SM SCT050 FM150800 00000KT P6SM
                       OVC012 FM151300 00000KT 5SM BR OVC006 FM151900
                       VRB03KT P6SM OVC015 FM152100 VRB03KT P6SM
                       BKN025=
201211142109 TAF AMD KBFI 142109Z 1421/1518 VRB03KT P6SM SCT020 BKN050
                      TEMPO 1421/1423 BKN020 BKN050 FM150800 00000KT
                       P6SM OVC010 FM151200 00000KT 5SM BR OVC004=
201211141747 TAF KBFI 141747Z 1418/1518 VRB03KT P6SM SCT006 BKN015 BKN040
                      TEMPO 1418/1419 BKN006 BKN015 BKN040 FM142000
                       VRB03KT P6SM SCT020 BKN040 FM150000 VRB03KT
                       P6SM BKN050 FM150800 00000KT P6SM OVC010
                       FM151200 00000KT 5SM BR OVC004=
201211141554 TAF AMD KBFI 141554Z 1416/1512 VRB03KT P6SM SCT010 BKN040 FM142000
                       VRB03KT P6SM BKN045 FM150000 33004KT P6SM
                       SCT030 FM150600 03005KT P6SM SCT012=
201211141448 TAF AMD KBFI 141448Z 1415/1512 VRB03KT P6SM OVC010 FM141700 VRB03KT
                       P6SM OVC015 FM142000 19005KT P6SM OVC025
                       FM150000 33004KT P6SM SCT030 FM150600 03005KT
                       P6SM SCT012=
201211141126 TAF KBFI 141126Z 1412/1512 20004KT P6SM SCT015 OVC022
                      TEMPO 1412/1416 BKN015 FM142000 19005KT P6SM
                       OVC025 FM150000 33004KT P6SM SCT030 FM150600
                       03005KT P6SM SCT012=
201211140521 TAF KBFI 140521Z 1406/1506 14006KT P6SM -SHRA SCT030 BKN035 OVC045
                       FM140900 18004KT P6SM BKN030 OVC040 FM141200
                       18004KT P6SM OVC025 FM150000 33004KT P6SM
                       BKN030=
201211132340 TAF KBFI 132340Z 1400/1424 17006KT 6SM -RA BR FEW011 BKN030 OVC050
                       FM140200 17006KT 6SM -RA BR SCT011 OVC020
                       FM140600 VRB03KT P6SM VCFG OVC015 FM142000
                       VRB03KT P6SM OVC025=
201211131921 TAF AMD KBFI 131921Z 1319/1418 14006KT P6SM VCSH OVC040 FM132000
                       16006KT P6SM -RA SCT020 OVC040
                      TEMPO 1322/1324 BKN020 OVC040 FM140000 18008KT
                       5SM -RA OVC020 FM140600 VRB03KT P6SM VCFG
                       OVC020 FM141200 VRB03KT 5SM BR OVC011=
201211131720 TAF KBFI 131720Z 1318/1418 14008KT P6SM VCSH BKN028 OVC060 FM132000
                       16008KT P6SM -RA OVC020 FM140000 18008KT
                       5SM -RA OVC020 FM140600 VRB03KT P6SM VCFG
                       OVC020 FM141200 VRB03KT 5SM BR OVC011=
201211131515 TAF AMD KBFI 131515Z 1315/1412 14007KT P6SM VCSH SCT012 BKN040
                       BKN150
                      TEMPO 1316/1318 -RA BKN012 OVC030 FM131800
                       17006KT P6SM -SHRA SCT025 OVC030 FM140600
                       18004KT P6SM OVC025=
201211131446 TAF AMD KBFI 131446Z 1315/1412 14007KT P6SM SCT012 OVC025
                      TEMPO 1315/1318 5SM -SHRA BR SCT008 OVC012
                       FM131800 17006KT P6SM -SHRA SCT025 OVC030
                       FM140600 18004KT P6SM OVC025=
201211131321 TAF AMD KBFI 131321Z 1313/1412 14007KT P6SM SCT012 OVC025
                      TEMPO 1313/1317 5SM -SHRA BR OVC012 FM131700
                       17006KT P6SM -SHRA SCT025 OVC030 FM140600
                       18004KT P6SM OVC025=
201211131134 TAF KBFI 131134Z 1312/1412 16006KT P6SM -SHRA SCT025 BKN035 OVC050
                       TEMPO 1312/1316 5SM -SHRA BR OVC025 FM131600
                       17006KT P6SM -SHRA SCT025 OVC030 FM140600
                       18004KT P6SM OVC025=
201211130523 TAF KBFI 130523Z 1306/1406 14006KT P6SM -SHRA SCT015 BKN025 OVC035
                       TEMPO 1306/1310 BKN015 FM131000 17005KT
                       P6SM -SHRA SCT015 OVC020 FM132100 17006KT
                       P6SM -SHRA OVC025=
201211130422 TAF AMD KBFI 130422Z 1304/1324 15006KT P6SM VCSH SCT020 BKN030
                       OVC100
                      TEMPO 1304/1308 -SHRA BKN020 FM131200 VRB03KT
                       6SM -RA BR OVC028 FM131800 17006KT 4SM -RA
                       BR OVC019=
201211122345 TAF KBFI 122345Z 1300/1324 18006KT P6SM FEW025 BKN050 BKN200 FM130600
                       VRB03KT P6SM OVC040
                      PROB30 1309/1312 -RA OVC030 FM131200 VRB03KT
                       6SM -RA BR OVC028 FM131800 17006KT 4SM -RA
                       BR OVC019=
201211122300 TAF AMD KBFI 122300Z 1223/1318 17005KT P6SM SCT030 BKN050 BKN200
                       TEMPO 1223/1301 BKN030 OVC050 FM130100 VRB03KT
                       P6SM BKN035 BKN090 OVC150 FM130600 VRB03KT
                       P6SM OVC030 FM131200 VRB03KT P6SM OVC025
                       PROB30 1312/1318 5SM -DZ BR=
201211122112 TAF AMD KBFI 122112Z 1221/1318 17005KT P6SM OVC025 FM130000 VRB03KT
                       P6SM BKN035 BKN090 OVC150 FM130600 VRB03KT
                       P6SM OVC030 FM131200 VRB03KT P6SM OVC025
                       PROB30 1312/1318 5SM -DZ BR=
201211121736 TAF KBFI 121736Z 1218/1318 15007KT P6SM OVC025 FM122100 15005KT
                       P6SM BKN030 OVC060 FM130000 VRB03KT P6SM
                       BKN040 BKN090 OVC150 FM130600 VRB03KT P6SM
                       OVC030 FM131200 VRB03KT P6SM OVC025
                      PROB30 1312/1318 5SM -DZ BR=
201211121413 TAF AMD KBFI 121413Z 1214/1312 14003KT P6SM VCSH OVC029 FM121700
                       16006KT P6SM OVC030 FM130000 18005KT P6SM
                       VCSH SCT022 OVC030=
201211121129 TAF KBFI 121129Z 1212/1312 15006KT P6SM -SHRA SCT025 OVC030
                      TEMPO 1212/1216 4SM -SHRA BR FEW006 SCT020
                       FM121700 16006KT P6SM OVC030 FM130000 18005KT
                       P6SM VCSH SCT022 OVC030=
201211120523 TAF KBFI 120523Z 1206/1306 14006KT P6SM -RA OVC030 FM120900 17009KT
                       P6SM -RA SCT020 OVC024 FM121600 17006KT
                       P6SM BKN025 OVC030 FM122100 17006KT P6SM
                       BKN030 OVC040=
201211120003 TAF AMD KBFI 120003Z 1200/1224 13006KT 6SM -RA BR SCT030 OVC050
                       TEMPO 1200/1203 BKN030 OVC050 FM120300 15008KT
                       6SM -RA BR SCT025 OVC040
                      TEMPO 1203/1206 BKN025 OVC040 FM120600 15008KT
                       5SM -RA BR SCT018 OVC030 FM120900 16010KT
                       5SM -RA BR OVC020 FM121800 13006KT P6SM
                       BKN022 OVC035
                      PROB30 1218/1224 -RA=
201211112348 TAF KBFI 112348Z 1200/1224 15006KT P6SM -RA OVC050 FM120300 15008KT
                       P6SM -RA OVC040 FM120600 15008KT 5SM -RA
                       BR OVC030 FM120900 16010KT 5SM -RA BR OVC020
                       FM121800 13006KT P6SM BKN022 OVC035
                      PROB30 1218/1224 -RA=
201211112101 TAF AMD KBFI 112101Z 1121/1218 VRB03KT P6SM VCSH BKN035 OVC050
                       TEMPO 1123/1203 -RA FM120300 13008KT 5SM
                       -RA BR OVC030 FM120900 16011KT 5SM -RA BR
                       OVC020 FM121500 14005KT P6SM OVC020
                      PROB30 1215/1218 -RA=
201211111738 TAF KBFI 111738Z 1118/1218 VRB03KT P6SM SCT035 OVC050
                      TEMPO 1118/1120 -RA BKN035 OVC050 FM112000
                       13006KT P6SM -RA OVC040 FM120300 13008KT
                       5SM -RA BR OVC030 FM120900 16011KT 5SM -RA
                       BR OVC020 FM121500 14005KT P6SM OVC020
                      PROB30 1215/1218 -RA=
201211111603 TAF AMD KBFI 111603Z 1116/1212 13006KT P6SM OVC045 FM111800 17006KT
                       P6SM OVC040 FM112200 17007KT P6SM VCSH BKN040
                       OVC070 FM120000 16007KT P6SM -RA BKN030
                       OVC050 FM120600 16010KT P6SM -RA SCT025
                       OVC030=
201211111123 TAF KBFI 111123Z 1112/1212 13006KT P6SM SCT120 BKN200 FM111800
                       17006KT P6SM BKN090 BKN120 OVC200 FM112200
                       17007KT P6SM VCSH BKN040 OVC070 FM120000
                       16007KT P6SM -RA BKN030 OVC050 FM120600
                       16010KT P6SM -RA SCT025 OVC030=
201211110524 TAF KBFI 110524Z 1106/1206 13004KT P6SM BKN200 FM111800 17005KT
                       P6SM BKN090 OVC200 FM120200 16007KT P6SM
                       -RA BKN030 OVC050=
201211102324 TAF KBFI 102324Z 1100/1124 02004KT P6SM FEW030 FM110400 16003KT
                       P6SM SCT200 FM111800 17004KT P6SM BKN090
                       OVC200=
201211101727 TAF KBFI 101727Z 1018/1118 13003KT P6SM SCT090 FM110600 13004KT
                       P6SM SCT060 SCT120 BKN200=
201211101122 TAF KBFI 101122Z 1012/1112 12005KT P6SM SCT070 FM101800 34004KT
                       P6SM SCT070 FM110600 13004KT P6SM SCT060
                       SCT150 BKN200=
201211100520 TAF KBFI 100520Z 1006/1106 01005KT P6SM SCT035
                      TEMPO 1006/1009 BKN035 FM101200 06005KT P6SM
                       SKC FM101800 34004KT P6SM FEW070=
201211092324 TAF KBFI 092324Z 1000/1024 33005KT P6SM FEW040 FM100300 00000KT
                       P6SM SKC=
201211091726 TAF KBFI 091726Z 0918/1018 16004KT P6SM SCT040 FM100300 00000KT
                       P6SM SKC=
201211091120 TAF KBFI 091120Z 0912/1012 00000KT P6SM FEW040 SCT070 FM091800
                       36005KT P6SM SCT040 FM100300 00000KT P6SM
                       SKC=
201211090520 TAF KBFI 090520Z 0906/1006 00000KT P6SM FEW040 FM091800 36005KT
                       P6SM SCT040 FM100300 00000KT P6SM FEW040=
201211090209 TAF AMD KBFI 090209Z 0902/0924 VRB03KT P6SM FEW050 FM091800 36005KT
                       P6SM SCT050=
201211082320 TAF KBFI 082320Z 0900/0924 36012KT P6SM FEW040 SCT080 FM090600
                       04008KT P6SM SCT050=
201211081753 TAF KBFI 081753Z 0818/0918 34008KT P6SM SCT050
                      TEMPO 0821/0901 BKN050 FM090200 33006KT P6SM
                       SCT060=
201211081608 TAF AMD KBFI 081608Z 0816/0912 33005KT P6SM SCT020 FM081700 35008KT
                       P6SM SCT025 SCT050
                      TEMPO 0821/0901 BKN050 FM090200 VRB02KT P6SM
                       SCT060=
201211081305 TAF AMD KBFI 081305Z 0813/0912 00000KT P6SM SCT005
                      TEMPO 0813/0817 5SM BR BKN005 FM081700 35008KT
                       P6SM SCT050
                      TEMPO 0821/0901 BKN050 FM090200 VRB02KT P6SM
                       SCT060=
201211081120 TAF KBFI 081120Z 0812/0912 00000KT P6SM SKC FM082000 35008KT P6SM
                       SCT050
                      TEMPO 0821/0901 BKN050 FM090200 VRB02KT P6SM
                       SCT060=
201211080533 TAF KBFI 080533Z 0806/0906 VRB03KT P6SM SCT040 SCT060 FM082000
                       35008KT P6SM SCT045
                      TEMPO 0821/0901 BKN045 FM090200 VRB02KT P6SM
                       SKC=
201211072320 TAF KBFI 072320Z 0800/0824 18005KT P6SM SCT040 FM080600 00000KT
                       P6SM BKN040 FM081600 35008KT P6SM SCT050=
201211071720 TAF KBFI 071720Z 0718/0818 17007KT P6SM SCT030
                      TEMPO 0718/0720 BKN020 FM080000 15005KT P6SM
                       BKN040 FM081700 VRB03KT P6SM BKN060=
201211071351 TAF AMD KBFI 071351Z 0714/0812 VRB03KT P6SM SCT025
                      TEMPO 0714/0718 BKN025 FM071800 17008KT P6SM
                       VCSH BKN040 FM080400 VRB03KT P6SM SCT040
                       BKN080=
201211071120 TAF KBFI 071120Z 0712/0812 VRB03KT P6SM VCSH SCT020
                      TEMPO 0714/0718 BKN020 FM071800 17008KT P6SM
                       VCSH BKN040 FM080400 VRB03KT P6SM SCT040
                       BKN080=
201211070901 TAF AMD KBFI 070901Z 0709/0806 18012KT P6SM SCT020 FM071200 18008KT
                       P6SM VCSH BKN020 FM071800 17008KT P6SM BKN040
                       FM080400 VRB03KT P6SM SCT040 BKN080=
201211070528 TAF KBFI 070528Z 0706/0806 18012KT P6SM SCT025 FM070900 17010KT
                       P6SM VCSH BKN025 FM071800 17008KT P6SM BKN040
                       FM080400 VRB03KT P6SM SCT040 BKN080=
201211062320 TAF KBFI 062320Z 0700/0724 19010G20KT P6SM SCT025 OVC050
                      TEMPO 0700/0704 5SM -SHRA BKN025 OVC040 FM070400
                       21012G22KT P6SM VCSH BKN035
                      TEMPO 0704/0708 SCT040 FM070800 18010KT P6SM
                       VCSH BKN035 FM071800 17007KT P6SM BKN040=
201211061723 TAF KBFI 061723Z 0618/0718 15008KT P6SM SCT010 BKN080
                      TEMPO 0618/0620 4SM BR BKN010 BKN080 FM062200
                       18012G20KT P6SM SCT025 OVC050
                      TEMPO 0622/0702 5SM -RA BKN025 OVC040 FM070200
                       21012G22KT P6SM -SHRA BKN030 FM070800 21012KT
                       P6SM VCSH BKN030=
201211061610 TAF AMD KBFI 061610Z 0616/0712 VRB03KT 5SM BR SCT005 BKN100
                      TEMPO 0616/0618 2SM BR OVC005 FM061800 16008KT
                       P6SM SCT020 BKN080 FM062200 16010KT P6SM
                       -RA SCT025 OVC050
                      TEMPO 0623/0703 -RA OVC025 FM070300 19012G22KT
                       P6SM -SHRA BKN030 FM070800 19010KT P6SM
                       VCSH SCT030 OVC045=
201211061328 TAF AMD KBFI 061328Z 0613/0712 VRB03KT 5SM BR SCT003 SCT120 OVC200
                       TEMPO 0613/0616 1SM BR VV003 FM061800 16008KT
                       P6SM SCT025 BKN040 OVC080 FM062200 16010KT
                       P6SM -RA BKN025 OVC040 FM070300 19012G22KT
                       P6SM -SHRA BKN030 FM070800 19010KT P6SM
                       VCSH SCT030 OVC045=
201211061135 TAF KBFI 061135Z 0612/0712 00000KT P6SM BKN120
                      TEMPO 0612/0616 4SM BR SCT003 BKN120 FM061800
                       16008KT P6SM SCT025 BKN040 OVC080 FM062200
                       16010KT P6SM -RA BKN025 OVC040 FM070300
                       19012G22KT P6SM -SHRA BKN030 FM070800 19010KT
                       P6SM VCSH SCT030 OVC045=
201211060535 TAF KBFI 060535Z 0606/0706 00000KT P6SM SCT008 SCT120 BKN250 FM060800
                       VRB03KT P6SM SCT005 BKN120
                      TEMPO 0610/0612 5SM BR BKN005 BKN100 FM061200
                       14006KT P6SM SCT010 BKN080 FM061800 16010KT
                       P6SM SCT025 BKN040 OVC080 FM062200 16012KT
                       P6SM -RA BKN025 OVC040=
201211052320 TAF KBFI 052320Z 0600/0624 36005KT P6SM SCT050 BKN200 FM060600
                       VRB03KT P6SM SCT005 BKN120
                      TEMPO 0608/0612 5SM BR BKN005 BKN100 FM061200
                       14006KT P6SM SCT010 BKN080 FM061800 16010KT
                       P6SM SCT025 BKN040 OVC080 FM062200 16012KT
                       P6SM -RA BKN025 OVC040=
201211051720 TAF KBFI 051720Z 0518/0618 01005KT P6SM BKN045 BKN250 FM052100
                       01008KT P6SM SCT050 BKN200 FM060400 04006KT
                       P6SM BKN100
                      TEMPO 0606/0610 5SM BR SCT005 BKN100 FM061000
                       00000KT P6SM BKN100
                      TEMPO 0610/0614 5SM BR SCT005 BKN100 FM061400
                       16006KT P6SM SCT005 BKN050 OVC100=
201211051302 TAF AMD KBFI 051302Z 0513/0612 VRB03KT P6SM OVC035 FM051800 VRB03KT
                       P6SM BKN035 BKN250 FM052000 34004KT P6SM
                       SCT030 BKN250=
201211051130 TAF KBFI 051130Z 0512/0612 VRB03KT P6SM VCSH SCT008 OVC023
                      TEMPO 0512/0516 BKN008 OVC013 FM051800 VRB03KT
                       P6SM BKN022 FM052000 34004KT P6SM SCT030
                       BKN250=
201211050535 TAF KBFI 050535Z 0506/0606 19008KT P6SM -RA SCT009 BKN030 OVC045
                       TEMPO 0506/0510 3SM -RA BR BKN008 OVC016
                       FM051000 VRB04KT P6SM VCSH SCT013 OVC022
                       TEMPO 0512/0516 OVC012 FM051800 30006KT
                       P6SM SCT030 BKN150=
201211050007 TAF AMD KBFI 050007Z 0500/0524 16010G20KT P6SM -RA SCT025 OVC050
                       TEMPO 0502/0506 5SM -RA BR BKN025 OVC040
                       FM050900 VRB04KT P6SM VCSH BKN025 FM051800
                       36006KT P6SM SCT030 BKN150=
201211042320 TAF KBFI 042320Z 0500/0524 20010G20KT P6SM -RA OVC035
                      TEMPO 0500/0504 5SM -RA BR OVC020 FM050900
                       VRB04KT P6SM VCSH BKN025 FM051800 36006KT
                       P6SM SCT030 BKN150=
201211041730 TAF KBFI 041730Z 0418/0518 16006KT P6SM SCT025 OVC040 FM050000
                       18008KT P6SM -RA OVC025 FM051600 VRB03KT
                       P6SM BKN035=
201211041420 TAF AMD KBFI 041420Z 0414/0512 14005KT P6SM VCFG SCT020 OVC035
                       TEMPO 0414/0416 3SM -DZ BR OVC020 FM041600
                       14005KT P6SM VCSH SCT030 OVC050 FM050200
                       17008G18KT P6SM -RA OVC030 FM050700 19008KT
                       P6SM -RA OVC020=
201211041206 TAF AMD KBFI 041206Z 0412/0512 12005KT 5SM BR SCT015 OVC030
                      TEMPO 0412/0416 2SM -DZ BR BKN015 OVC030
                       FM041600 14005KT P6SM VCSH SCT030 OVC050
                       FM050200 17008G18KT P6SM -RA OVC030 FM050700
                       19008KT P6SM -RA OVC020=
201211041121 TAF KBFI 041121Z 0412/0512 12003KT 5SM BR VCSH SCT013 SCT025 OVC050
                       TEMPO 0412/0416 -RA BKN025 OVC050 FM041600
                       14005KT P6SM VCSH SCT030 OVC050 FM050200
                       17008G18KT P6SM -RA OVC030 FM050700 19008KT
                       P6SM -RA OVC020=
201211040902 TAF AMD KBFI 040902Z 0409/0506 16005KT P6SM VCSH OVC080
                      TEMPO 0409/0413 -RA BKN022 OVC050 FM041700
                       18005KT P6SM VCSH SCT030 OVC050 FM050200
                       17005KT P6SM VCSH OVC030=
201211040520 TAF KBFI 040520Z 0406/0506 16005KT P6SM VCSH OVC080 FM041700 18005KT
                       P6SM VCSH SCT030 OVC050 FM050200 17005KT
                       P6SM VCSH OVC030=
201211032359 TAF KBFI 032359Z 0400/0424 17008KT P6SM BKN030 OVC040
                      TEMPO 0400/0403 5SM -RA BR BKN020 OVC035
                       FM040400 16005KT P6SM VCSH OVC025 FM040900
                       13004KT 4SM -RA BR OVC020 FM041700 16006KT
                       P6SM VCSH BKN025 OVC035=
201211032228 TAF AMD KBFI 032228Z 0322/0418 18006KT P6SM VCSH BKN030 OVC070
                       FM032300 18006KT P6SM VCSH BKN035 OVC040
                       FM040600 15005KT P6SM VCSH OVC020 FM040900
                       14005KT P6SM OVC020 FM041700 17006KT P6SM
                       BKN025 OVC040=
201211031756 TAF KBFI 031756Z 0318/0418 14005KT P6SM OVC030 FM032000 17006KT
                       P6SM -RA OVC025 FM040600 15005KT P6SM VCSH
                       OVC020 FM040900 14005KT P6SM OVC020 FM041700
                       17006KT P6SM BKN025 OVC040=
201211031302 TAF AMD KBFI 031302Z 0313/0412 15009KT P6SM SCT010 OVC025
                      TEMPO 0313/0315 BKN010 OVC025 FM031700 16004KT
                       P6SM -RA OVC025 FM040400 16004KT P6SM VCSH
                       OVC020=
201211031120 TAF KBFI 031120Z 0312/0412 15004KT P6SM SCT008 OVC030 FM031700
                       16004KT P6SM -RA OVC025 FM040400 16004KT
                       P6SM VCSH OVC020=
201211030529 TAF KBFI 030529Z 0306/0406 00000KT P6SM -RA SCT050 OVC080 FM031000
                       16004KT P6SM -RA OVC020 FM032100 17005KT
                       P6SM VCSH OVC030=
201211022320 TAF KBFI 022320Z 0300/0324 VRB03KT P6SM -RA BKN050 OVC090 FM030600
                       16007KT P6SM -RA OVC035 FM031200 16007KT
                       5SM -SHRA BR OVC025 FM031800 20006KT P6SM
                       VCSH BKN030 BKN050=
201211021720 TAF KBFI 021720Z 0218/0318 VRB03KT P6SM SCT050 OVC120 FM030000
                       16007KT P6SM -RA OVC050 FM031000 16007KT
                       P6SM -RA OVC035=
201211021120 TAF KBFI 021120Z 0212/0312 13003KT P6SM FEW035 BKN060 OVC080 FM021800
                       15005KT P6SM SCT030 OVC090 FM022300 18005KT
                       P6SM OVC070 FM030200 14005KT P6SM -RA OVC050
                       FM030600 15006KT P6SM -RA BKN030 OVC050=
201211020528 TAF KBFI 020528Z 0206/0306 14007KT P6SM VCSH SCT030 BKN050 FM020900
                       14004KT P6SM OVC030 FM021800 15005KT P6SM
                       SCT030 OVC090 FM030100 18005KT P6SM OVC070
                       FM030200 14005KT P6SM -RA OVC050=
201211012320 TAF KBFI 012320Z 0200/0224 18008KT P6SM BKN040 FM020800 18005KT
                       P6SM BKN025 FM021700 14005KT P6SM SCT025
                       BKN100 FM022200 16007KT P6SM OVC080=
201211011723 TAF KBFI 011723Z 0118/0218 VRB03KT P6SM SCT035 BKN050 FM020900
                       16005KT P6SM BKN018 BKN040 FM021700 VRB03KT
                       P6SM SCT020 SCT050 BKN120=
201211011120 TAF KBFI 011120Z 0112/0212 11003KT P6SM -RA SCT045 OVC060 FM011600
                       15003KT P6SM VCSH OVC035 FM012300 15005KT
                       P6SM BKN030=
201211010535 TAF KBFI 010535Z 0106/0206 15002KT P6SM VCSH OVC100 FM010800 14002KT
                       6SM -SHRA OVC050 FM011300 15003KT 4SM -RA
                       OVC030 FM012300 15005KT P6SM BKN030=