##########################################################
# Query made at 02/17/2025 02:01:53 UTC
# Time interval: from 01/01/2013 00:00  to 01/31/2013 23:59  UTC
##########################################################

##########################################################
# KBFI, Seattle, Seattle Boeing Field (United States)
# WMO index: -----. WIGOS ID: Unknown
# Latitude 47-32-45N. Longitude 122-18-49W. Altitude 5 m.
##########################################################

###################################
#  METAR/SPECI from KBFI
###################################
201301312353 METAR KBFI 312353Z 16008KT 10SM OVC022 11/06 A3030 RMK AO2 SLP261 60003 T01060061 10117 20094 56010=
201301312253 METAR KBFI 312253Z 16010KT 10SM BKN033 11/06 A3031 RMK AO2 SLP263 T01060061=
201301312153 METAR KBFI 312153Z 17010KT 10SM SCT015 BKN033 11/07 A3032 RMK AO2 SLP266 T01110072=
201301312131 SPECI KBFI 312131Z 17008G17KT 10SM SCT015 BKN033 11/07 A3032 RMK AO2=
201301312124 SPECI KBFI 312124Z 17009G20KT 10SM OVC029 10/07 A3032 RMK AO2=
201301312053 METAR KBFI 312053Z 17008KT 10SM FEW015 BKN033 11/07 A3033 RMK AO2 SLP272 60003 T01060067 58012=
201301311953 METAR KBFI 311953Z 16008KT 10SM FEW014 BKN043 BKN090 10/07 A3035 RMK AO2 RAB08E21 SLP278 P0000 T01000067=
201301311853 METAR KBFI 311853Z 16009KT 10SM OVC055 09/06 A3037 RMK AO2 RAB12E53 SLP283 P0003 T00940061=
201301311753 METAR KBFI 311753Z 15008KT 10SM FEW014 SCT021 OVC080 09/06 A3037 RMK AO2 RAB10E20 SLP283 P0000 60001 T00940061 10094 20083 56003=
201301311713 SPECI KBFI 311713Z 15008KT 10SM -RA BKN015 OVC090 09/07 A3037 RMK AO2 RAB10 P0000=
201301311700 SPECI KBFI 311700Z 16007KT 10SM BKN013 OVC090 09/07 A3037 RMK AO2=
201301311653 METAR KBFI 311653Z 16007KT 10SM FEW011 OVC018 09/06 A3037 RMK AO2 SLP284 T00940061=
201301311553 METAR KBFI 311553Z 17006KT 10SM FEW011 OVC018 09/06 A3038 RMK AO2 SLP286 T00940061=
201301311453 METAR KBFI 311453Z 14008KT 10SM FEW011 BKN019 OVC025 09/07 A3038 RMK AO2 SLP285 60001 T00890072 56004=
201301311358 SPECI KBFI 311358Z 15007KT 10SM FEW009 BKN018 OVC070 09/07 A3038 RMK AO2=
201301311353 METAR KBFI 311353Z VRB06KT 10SM BKN011 BKN016 OVC070 09/07 A3038 RMK AO2 CIG 008V014 SLP287 T00890067=
201301311349 SPECI KBFI 311349Z 15005KT 10SM BKN011 BKN016 OVC070 08/07 A3038 RMK AO2=
201301311253 METAR KBFI 311253Z COR 12004KT 10SM OVC009 09/07 A3039 RMK AO2 RAE37 SLP289 P0001 T00890067=
201301311153 METAR KBFI 311153Z 15003KT 10SM -RA OVC008 09/07 A3040 RMK AO2 RAB53 CIG 006V011 SLP293 P0001 60003 70005 T00890072 10094 20089 51005=
201301311053 METAR KBFI 311053Z 15005KT 10SM OVC008 09/07 A3040 RMK AO2 SLP292 T00890072=
201301310953 METAR KBFI 310953Z 00000KT 10SM OVC008 09/07 A3039 RMK AO2 CIG 006V012 SLP291 T00890072=
201301310939 SPECI KBFI 310939Z 16004KT 10SM OVC008 09/07 A3039 RMK AO2 CIG 007V014=
201301310920 SPECI KBFI 310920Z 16005KT 10SM BKN010 BKN019 OVC045 09/07 A3038 RMK AO2=
201301310853 METAR KBFI 310853Z 15005KT 8SM BKN008 OVC047 09/07 A3038 RMK AO2 SLP288 60002 T00890072 53004=
201301310753 METAR KBFI 310753Z 16004KT 10SM OVC006 09/07 A3038 RMK AO2 RAE03B27E44 SLP286 P0000 T00890072 401000078=
201301310653 METAR KBFI 310653Z AUTO 14005KT 5SM -RA BR OVC006 09/07 A3037 RMK AO2 RAB08 SLP284 P0002 T00890072 TSNO=
201301310553 METAR KBFI 310553Z 20004KT 7SM OVC006 09/08 A3037 RMK AO2 SLP284 T00940078 10100 20094 53004=
201301310453 METAR KBFI 310453Z VRB05KT 4SM BR BKN006 OVC010 09/08 A3036 RMK AO2 SLP280 T00940078=
201301310353 METAR KBFI 310353Z 17006KT 10SM SCT008 OVC010 09/08 A3036 RMK AO2 SLP280 T00940078=
201301310253 METAR KBFI 310253Z 16004KT 10SM OVC010 10/08 A3036 RMK AO2 SLP280 T01000078 58001=
201301310153 METAR KBFI 310153Z COR 15005KT 5SM BR OVC010 10/08 A3037 RMK AO2 CIG 007V013 SLP282 T01000078=
201301310151 SPECI KBFI 310151Z 15004KT 10SM OVC010 10/08 A3037 RMK AO2 CIG 007V012=
201301310133 SPECI KBFI 310133Z 14004KT 10SM BKN008 BKN012 OVC020 10/08 A3037 RMK AO2=
201301310053 METAR KBFI 310053Z 15007KT 6SM BR SCT009 OVC016 10/08 A3037 RMK AO2 SLP282 T01000083=
201301310007 SPECI KBFI 310007Z 14005KT 5SM BR SCT006 OVC009 10/08 A3037 RMK AO2=
201301310000 SPECI KBFI 310000Z 14004KT 5SM BR OVC011 10/08 A3037 RMK AO2=
201301302353 METAR KBFI 302353Z 15004KT 4SM BR OVC009 10/08 A3037 RMK AO2 SLP284 60001 T01000083 10100 20089 55004=
201301302253 METAR KBFI 302253Z 16006KT 4SM BR OVC009 10/08 A3037 RMK AO2 CIG 007V013 SLP282 T01000078=
201301302153 METAR KBFI 302153Z 15006KT 2SM BR OVC009 10/08 A3037 RMK AO2 CIG 005V012 SLP285 T01000083=
201301302053 METAR KBFI 302053Z 15005KT 1 3/4SM BR OVC006 09/08 A3038 RMK AO2 CIG 005V011 SLP288 60001 T00940078 51002=
201301301953 METAR KBFI 301953Z 15004KT 1 3/4SM BR OVC008 09/08 A3038 RMK AO2 CIG 005V012 SLP287 T00940078=
201301301928 SPECI KBFI 301928Z 15006KT 1 1/2SM BR OVC008 09/08 A3038 RMK AO2 CIG 005V011=
201301301853 METAR KBFI 301853Z 15005KT 2SM BR OVC008 09/08 A3038 RMK AO2 SLP288 P0001 T00940078=
201301301753 METAR KBFI 301753Z 14007KT 1 1/2SM BR BKN005 OVC008 09/08 A3038 RMK AO2 SLP286 60001 T00890078 10089 20083 53011=
201301301653 METAR KBFI 301653Z 14006KT 1 1/2SM BR OVC008 09/07 A3036 RMK AO2 CIG 004V010 SLP281 T00890072=
201301301553 METAR KBFI 301553Z COR 15006KT 2 1/2SM BR FEW005 OVC008 09/07 A3036 RMK AO2 RAE1455 CIG 004V011 SLP280 P0000 T00890072 TSNO=
201301301453 METAR KBFI 301453Z 14006KT 2 1/2SM -RA BR OVC008 08/07 A3035 RMK AO2 RAB12 CIG 004V011 SLP275 P0001 60001 T00830072 53001=
201301301353 METAR KBFI 301353Z 14009KT 2 1/2SM BR OVC006 08/07 A3035 RMK AO2 CIG 004V010 SLP276 T00830067=
201301301321 SPECI KBFI 301321Z 13007KT 5SM BR OVC008 08/07 A3034 RMK AO2 CIG 006V011=
201301301253 METAR KBFI 301253Z 14009KT 4SM BR OVC010 08/07 A3034 RMK AO2 SLP273 T00830067=
201301301153 METAR KBFI 301153Z 15007KT 3SM BR OVC011 08/07 A3034 RMK AO2 RAE18 SLP275 P0001 60012 70027 T00830067 10089 20078 51006=
201301301053 METAR KBFI 301053Z 16007KT 10SM -RA OVC011 09/06 A3034 RMK AO2 SLP274 P0000 T00890061=
201301300953 METAR KBFI 300953Z 15006KT 10SM -RA OVC013 08/06 A3033 RMK AO2 RAB16 SLP270 P0001 T00830061=
201301300853 METAR KBFI 300853Z 14006KT 10SM OVC010 08/06 A3033 RMK AO2 RAB03E15 SLP268 P0000 60010 T00780061 58004=
201301300801 SPECI KBFI 300801Z 14007KT 4SM BR OVC010 08/06 A3034 RMK AO2=
201301300753 METAR KBFI 300753Z 13007KT 4SM BR BKN009 OVC012 08/06 A3033 RMK AO2 RAE53 SLP271 P0005 T00780061 400940061=
201301300721 SPECI KBFI 300721Z 15009KT 5SM -RA BR OVC013 08/06 A3034 RMK AO2 P0003=
201301300653 METAR KBFI 300653Z 16008KT 10SM -RA BKN017 OVC040 08/06 A3034 RMK AO2 SLP272 P0005 T00830056=
201301300553 METAR KBFI 300553Z 18008G17KT 10SM -RA OVC019 09/05 A3034 RMK AO2 SLP273 P0005 60008 T00890050 10094 20089 51003=
201301300453 METAR KBFI 300453Z 20008G19KT 10SM -RA OVC017 09/06 A3034 RMK AO2 RAB24 SLP273 P0003 T00890056=
201301300353 METAR KBFI 300353Z 19008KT 10SM OVC019 09/06 A3034 RMK AO2 SLP273 T00940056=
201301300253 METAR KBFI 300253Z 20008KT 10SM SCT012 OVC019 09/06 A3033 RMK AO2 SLP270 T00940061 51003=
201301300153 METAR KBFI 300153Z 16010G17KT 10SM SCT010 OVC019 09/06 A3033 RMK AO2 SLP269 T00940061=
201301300104 SPECI KBFI 300104Z 15006KT 9SM SCT010 BKN019 OVC027 09/07 A3033 RMK AO2=
201301300053 METAR KBFI 300053Z 15006KT 9SM SCT010 BKN014 OVC027 09/07 A3033 RMK AO2 SLP269 T00890072=
201301292353 METAR KBFI 292353Z 15008KT 4SM BR SCT005 BKN008 OVC020 09/07 A3032 RMK AO2 RAE25 SLP266 P0001 60004 T00890072 10094 20083 51004=
201301292253 METAR KBFI 292253Z 16003KT 5SM -RA BR SCT005 BKN008 OVC020 09/07 A3031 RMK AO2 RAB07 SLP264 P0001 T00890072=
201301292153 METAR KBFI 292153Z 15005KT 10SM BKN008 OVC020 09/07 A3031 RMK AO2 RAE00B41E51 SLP264 P0000 T00940067=
201301292143 SPECI KBFI 292143Z 14004KT 10SM -RA BKN008 OVC020 09/07 A3031 RMK AO2 RAE00B41 P0000=
201301292053 METAR KBFI 292053Z 15006KT 10SM -RA SCT008 BKN016 OVC040 09/07 A3031 RMK AO2 RAE29B50 SLP261 P0001 60002 T00890067 51010=
201301291953 METAR KBFI 291953Z 14007KT 10SM -RA SCT009 BKN016 OVC040 09/07 A3030 RMK AO2 SLP261 P0001 T00890067=
201301291853 METAR KBFI 291853Z 15009KT 10SM -RA FEW009 BKN016 OVC040 08/07 A3030 RMK AO2 RAB25 SLP259 P0000 T00830067=
201301291753 METAR KBFI 291753Z 14007KT 10SM FEW010 BKN016 OVC040 08/06 A3028 RMK AO2 SLP252 60003 T00830061 10083 20067 51026=
201301291653 METAR KBFI 291653Z 14007KT 10SM FEW010 BKN016 OVC040 07/06 A3025 RMK AO2 SLP243 P0001 T00720056=
201301291553 METAR KBFI 291553Z 14006KT 10SM SCT009 OVC050 07/06 A3023 RMK AO2 RAE1454B10E24 SLP235 P0000 T00720056=
201301291453 METAR KBFI 291453Z 14006KT 10SM -RA FEW008 OVC050 07/05 A3020 RMK AO2 RAB41 SLP226 P0000 60002 T00720050 53015=
201301291353 METAR KBFI 291353Z 15004KT 10SM FEW019 OVC060 07/05 A3018 RMK AO2 RAE01 SLP219 P0001 T00670050=
201301291253 METAR KBFI 291253Z 15006KT 10SM -RA FEW008 BKN055 OVC070 07/05 A3016 RMK AO2 SLP212 P0001 T00670050=
201301291234 SPECI KBFI 291234Z 00000KT 10SM -RA SCT008 OVC060 07/05 A3017 RMK AO2 P0001=
201301291153 METAR KBFI 291153Z 14005KT 10SM -RA BKN050 OVC065 07/05 A3016 RMK AO2 SLP211 P0001 60007 70025 T00670050 10067 20061 52014=
201301291053 METAR KBFI 291053Z 13006KT 10SM -RA BKN018 BKN028 OVC050 07/05 A3014 RMK AO2 RAE03B28 SLP204 P0001 T00670050=
201301290953 METAR KBFI 290953Z 14008KT 10SM -RA OVC060 06/04 A3012 RMK AO2 SLP197 P0001 T00610044=
201301290853 METAR KBFI 290853Z 13007KT 9SM -RA OVC046 06/04 A3011 RMK AO2 SLP195 P0001 60004 T00610044 51015=
201301290753 METAR KBFI 290753Z 13008KT 10SM -RA OVC050 06/04 A3010 RMK AO2 SLP191 P0002 T00610044 400720039=
201301290653 METAR KBFI 290653Z 14006KT 10SM -RA FEW028 OVC050 06/04 A3008 RMK AO2 SLP186 P0001 T00610044=
201301290553 METAR KBFI 290553Z 14005KT 10SM -RA OVC048 07/04 A3006 RMK AO2 SLP180 P0001 60011 T00670039 10072 20067 53006=
201301290453 METAR KBFI 290453Z 16006KT 10SM -RA FEW015 BKN055 OVC070 07/04 A3006 RMK AO2 SLP178 P0002 T00670039=
201301290353 METAR KBFI 290353Z COR 14007KT 10SM -RA SCT037 BKN055 OVC070 07/04 A3005 RMK AO2 SLP174 P0000 T00670039=
201301290253 METAR KBFI 290253Z 15006KT 10SM -RA OVC037 07/04 A3004 RMK AO2 SLP173 P0003 60008 T00670044 53005=
201301290153 METAR KBFI 290153Z 13004KT 10SM -RA FEW018 OVC043 07/04 A3004 RMK AO2 SLP172 P0002 T00670039=
201301290053 METAR KBFI 290053Z VRB03KT 10SM -RA FEW017 SCT025 OVC041 07/04 A3003 RMK AO2 SLP167 P0003 T00720044=
201301282353 METAR KBFI 282353Z 16004KT 8SM -RA SCT015 BKN022 OVC029 07/04 A3003 RMK AO2 SLP168 P0002 60007 T00720044 10072 20056 55010=
201301282253 METAR KBFI 282253Z 19004KT 10SM -RA BKN015 OVC024 07/04 A3002 RMK AO2 SLP166 P0003 T00720039=
201301282153 METAR KBFI 282153Z 14004KT 10SM -RA BKN019 OVC024 07/04 A3004 RMK AO2 SLP173 P0001 T00670039=
201301282137 SPECI KBFI 282137Z 15004KT 10SM -RA SCT014 BKN026 OVC039 07/03 A3005 RMK AO2 P0001=
201301282053 METAR KBFI 282053Z 19003KT 10SM -RA SCT014 BKN039 OVC047 07/03 A3006 RMK AO2 RAB11 SLP179 P0001 60001 T00670028 58004=
201301281953 METAR KBFI 281953Z 21004KT 10SM BKN019 OVC050 06/02 A3007 RMK AO2 SLP183 T00610022=
201301281853 METAR KBFI 281853Z 00000KT 10SM BKN015 OVC021 06/03 A3007 RMK AO2 SLP183 T00610033=
201301281753 METAR KBFI 281753Z 15004KT 10SM BKN015 OVC065 06/03 A3007 RMK AO2 SLP183 T00560028 10056 20039 51004=
201301281653 METAR KBFI 281653Z 14006KT 10SM FEW015 OVC070 06/03 A3006 RMK AO2 SLP180 T00560028=
201301281553 METAR KBFI 281553Z 12004KT 10SM OVC070 05/03 A3007 RMK AO2 SLP182 T00500028=
201301281453 METAR KBFI 281453Z 14006KT 10SM OVC080 04/03 A3006 RMK AO2 SLP179 T00440028 53008=
201301281353 METAR KBFI 281353Z 13005KT 10SM FEW037 04/02 A3005 RMK AO2 SLP175 T00440022=
201301281253 METAR KBFI 281253Z 13007KT 10SM CLR 04/02 A3005 RMK AO2 SLP174 T00440022=
201301281153 METAR KBFI 281153Z 14008KT 10SM FEW018 04/02 A3004 RMK AO2 SLP171 70001 T00440022 10056 20044 51007=
201301281137 SPECI KBFI 281137Z 13007KT 10SM SCT022 05/03 A3004 RMK AO2=
201301281053 METAR KBFI 281053Z 13004KT 10SM SCT009 OVC018 05/03 A3004 RMK AO2 SLP171 T00500028=
201301280953 METAR KBFI 280953Z 12004KT 9SM SCT009 OVC018 05/03 A3003 RMK AO2 SLP169 T00500033=
201301280853 METAR KBFI 280853Z 13005KT 9SM BKN009 OVC018 05/03 A3002 RMK AO2 SLP163 T00500033 53003=
201301280753 METAR KBFI 280753Z 14005KT 7SM OVC009 05/03 A3001 RMK AO2 CIG 007V013 SLP162 T00500033 400670050=
201301280716 SPECI KBFI 280716Z 15005KT 10SM OVC009 05/03 A3000 RMK AO2 CIG 009V012=
201301280653 METAR KBFI 280653Z 16006KT 10SM OVC011 06/03 A3000 RMK AO2 SLP160 T00560028=
201301280553 METAR KBFI 280553Z 15007KT 10SM OVC013 06/03 A3001 RMK AO2 SLP160 60000 T00560028 10061 20050 56002=
201301280453 METAR KBFI 280453Z 15006KT 10SM OVC013 06/02 A3001 RMK AO2 SLP161 T00560022=
201301280449 SPECI KBFI 280449Z 15007KT 10SM OVC013 06/02 A3001 RMK AO2=
201301280353 METAR KBFI 280353Z 17005KT 10SM OVC015 06/02 A3001 RMK AO2 SLP162 T00560022=
201301280253 METAR KBFI 280253Z 17007KT 10SM OVC015 06/02 A3000 RMK AO2 SLP159 60000 T00610022 55000=
201301280153 METAR KBFI 280153Z 18006KT 10SM OVC017 06/02 A3000 RMK AO2 SLP159 T00610022=
201301280053 METAR KBFI 280053Z 15009KT 10SM OVC017 06/03 A3000 RMK AO2 RAB2358E15 SLP157 P0000 T00610028=
201301272353 METAR KBFI 272353Z 16009KT 10SM BKN015 OVC022 06/03 A3000 RMK AO2 SLP159 60001 T00610028 10067 20061 56007=
201301272253 METAR KBFI 272253Z 17010G19KT 10SM BKN017 BKN028 OVC048 06/03 A3001 RMK AO2 SLP161 T00610028=
201301272153 METAR KBFI 272153Z 17010G19KT 10SM OVC017 06/02 A3001 RMK AO2 SLP160 T00610022=
201301272053 METAR KBFI 272053Z 19010G19KT 10SM BKN017 OVC048 07/02 A3002 RMK AO2 SLP166 60001 T00670022 58013=
201301271953 METAR KBFI 271953Z 19008G19KT 10SM OVC017 07/03 A3005 RMK AO2 RAE04 SLP175 P0000 T00670028=
201301271853 METAR KBFI 271853Z 18007KT 10SM -RA OVC015 07/03 A3007 RMK AO2 RAB20 SLP181 P0001 T00670033=
201301271753 METAR KBFI 271753Z 17008KT 10SM OVC016 07/03 A3006 RMK AO2 SLP179 T00670028 10067 20056 53006=
201301271653 METAR KBFI 271653Z 15005KT 10SM BKN018 OVC023 06/02 A3005 RMK AO2 SLP176 T00610022=
201301271553 METAR KBFI 271553Z 16004KT 10SM BKN018 OVC023 06/02 A3005 RMK AO2 SLP174 T00610022=
201301271453 METAR KBFI 271453Z 17006KT 10SM OVC022 06/02 A3004 RMK AO2 SLP172 T00610017 53001=
201301271353 METAR KBFI 271353Z 00000KT 10SM OVC018 06/02 A3004 RMK AO2 SLP171 T00610022=
201301271253 METAR KBFI 271253Z 19003KT 10SM BKN012 OVC020 06/03 A3004 RMK AO2 SLP171 T00610028=
201301271153 METAR KBFI 271153Z 17005KT 10SM FEW015 BKN029 OVC034 06/02 A3004 RMK AO2 SLP171 70016 T00610022 10067 20056 50000=
201301271053 METAR KBFI 271053Z 15006KT 10SM BKN015 OVC023 06/03 A3004 RMK AO2 SLP173 T00610033=
201301271043 SPECI KBFI 271043Z 14005KT 10SM BKN013 OVC023 06/03 A3004 RMK AO2=
201301270953 METAR KBFI 270953Z 00000KT 10SM SCT015 OVC022 06/03 A3004 RMK AO2 SLP172 T00610028=
201301270853 METAR KBFI 270853Z 00000KT 10SM OVC018 06/03 A3004 RMK AO2 SLP171 T00610028 50008=
201301270753 METAR KBFI 270753Z 24004KT 10SM OVC018 06/02 A3004 RMK AO2 SLP172 T00610022 400940044=
201301270653 METAR KBFI 270653Z 21005KT 10SM OVC018 06/02 A3003 RMK AO2 SLP170 T00610022=
201301270553 METAR KBFI 270553Z 23005KT 10SM OVC015 07/03 A3002 RMK AO2 SLP163 60002 T00670028 10083 20067 51012=
201301270453 METAR KBFI 270453Z 16007KT 10SM OVC020 07/03 A3001 RMK AO2 SLP160 T00670028=
201301270353 METAR KBFI 270353Z 17006KT 10SM OVC022 07/03 A3000 RMK AO2 SLP157 T00720028=
201301270253 METAR KBFI 270253Z 18003KT 10SM BKN018 OVC025 07/03 A2998 RMK AO2 RAE17 SLP152 P0000 60002 T00720028 53015=
201301270153 METAR KBFI 270153Z VRB05KT 10SM -RA SCT025 BKN034 OVC045 08/03 A2997 RMK AO2 SLP147 P0001 T00780028=
201301270053 METAR KBFI 270053Z 19006KT 10SM -RA SCT025 BKN034 OVC045 08/03 A2995 RMK AO2 RAB33 SLP141 P0001 T00780028=
201301262353 METAR KBFI 262353Z 17007KT 10SM SCT029 OVC048 08/03 A2994 RMK AO2 RAB30E51 SLP137 P0000 60000 T00830028 10094 20072 53003=
201301262253 METAR KBFI 262253Z 20006KT 10SM FEW023 BKN029 OVC030 09/03 A2993 RMK AO2 SLP135 T00890028=
201301262225 SPECI KBFI 262225Z 20008G14KT 10SM FEW023 BKN029 OVC080 08/03 A2993 RMK AO2=
201301262153 METAR KBFI 262153Z 20010KT 10SM FEW018 SCT026 OVC100 09/03 A2993 RMK AO2 SLP133 T00890033=
201301262053 METAR KBFI 262053Z 20009G19KT 10SM SCT028 BKN036 OVC080 09/02 A2993 RMK AO2 SLP134 T00890022 51001=
201301261953 METAR KBFI 261953Z 19008G18KT 10SM BKN027 OVC080 09/03 A2993 RMK AO2 SLP134 T00940033=
201301261916 SPECI KBFI 261916Z 19010G18KT 10SM SCT022 BKN029 OVC095 08/03 A2994 RMK AO2=
201301261853 METAR KBFI 261853Z 18012G17KT 10SM SCT022 OVC100 08/03 A2994 RMK AO2 SLP137 T00780033=
201301261753 METAR KBFI 261753Z 18005KT 10SM BKN017 OVC024 07/04 A2993 RMK AO2 RAE14 SLP133 P0000 60014 T00720039 10072 20050 51009=
201301261750 SPECI KBFI 261750Z 19007KT 10SM BKN015 OVC024 07/04 A2993 RMK AO2 RAE14 P0000=
201301261656 SPECI KBFI 261656Z 18006KT 6SM -RA BR BKN012 OVC020 06/04 A2991 RMK AO2 P0000=
201301261653 METAR KBFI 261653Z 19006KT 5SM -RA SCT012 OVC020 06/03 A2991 RMK AO2 SLP128 P0004 T00610033=
201301261553 METAR KBFI 261553Z 14005KT 10SM -RA BKN026 OVC031 05/03 A2990 RMK AO2 RAB14 SLP125 P0001 T00500028=
201301261529 SPECI KBFI 261529Z 15006KT 10SM -RA BKN028 OVC033 06/03 A2990 RMK AO2 RAB14 P0001=
201301261453 METAR KBFI 261453Z 14005KT 8SM FEW020 SCT030 OVC039 05/03 A2989 RMK AO2 RAE20 SLP122 P0002 60009 T00500033 58001=
201301261427 SPECI KBFI 261427Z 13005KT 10SM FEW018 SCT027 OVC036 06/03 A2989 RMK AO2 RAE20 P0002=
201301261353 METAR KBFI 261353Z 15005KT 5SM -RA BR OVC028 05/03 A2990 RMK AO2 SLP123 P0003 T00500033=
201301261351 SPECI KBFI 261351Z 18006KT 5SM -RA BR OVC028 05/03 A2990 RMK AO2 P0003=
201301261253 METAR KBFI 261253Z 13006KT 7SM -RA FEW026 OVC032 05/03 A2990 RMK AO2 RAB13 SLP123 P0004 T00500028=
201301261153 METAR KBFI 261153Z 13005KT 10SM SCT020 OVC060 05/03 A2990 RMK AO2 SLP124 T00500028 10067 20039 56007=
201301261053 METAR KBFI 261053Z 14005KT 10SM FEW021 OVC055 05/03 A2990 RMK AO2 SLP126 T00500033=
201301260953 METAR KBFI 260953Z 13008KT 10SM CLR 05/03 A2991 RMK AO2 SLP127 T00500033=
201301260853 METAR KBFI 260853Z 13008KT 10SM OVC035 06/04 A2992 RMK AO2 SLP131 T00560039 58007=
201301260753 METAR KBFI 260753Z 12004KT 10SM SCT027 04/02 A2994 RMK AO2 SLP137 T00390022 401220039=
201301260653 METAR KBFI 260653Z 11004KT 10SM SCT024 07/03 A2994 RMK AO2 SLP137 T00670028=
201301260553 METAR KBFI 260553Z 14005KT 10SM FEW024 06/03 A2994 RMK AO2 SLP138 T00610028 10111 20061 56004=
201301260453 METAR KBFI 260453Z 20004KT 10SM FEW038 SCT045 SCT090 08/03 A2994 RMK AO2 SLP139 T00780033=
201301260353 METAR KBFI 260353Z 14004KT 10SM FEW025 SCT046 07/04 A2995 RMK AO2 SLP141 T00670039=
201301260253 METAR KBFI 260253Z 16007KT 140V200 10SM FEW029 09/04 A2995 RMK AO2 SLP142 T00890044 58003=
201301260153 METAR KBFI 260153Z 16003KT 10SM CLR 06/03 A2996 RMK AO2 SLP145 T00610033=
201301260053 METAR KBFI 260053Z 20003KT 10SM CLR 10/04 A2996 RMK AO2 SLP145 T01000039=
201301252353 METAR KBFI 252353Z 19004KT 10SM SCT029 11/04 A2996 RMK AO2 SLP146 T01110044 10122 20094 56015=
201301252253 METAR KBFI 252253Z 23006KT 10SM SCT026 12/05 A2997 RMK AO2 SLP148 T01170050=
201301252234 SPECI KBFI 252234Z 25004KT 10SM SCT024 12/05 A2997 RMK AO2=
201301252200 SPECI KBFI 252200Z VRB05KT 10SM BKN026 12/06 A2998 RMK AO2=
201301252153 METAR KBFI 252153Z 21003KT 10SM SCT024 OVC031 12/05 A2999 RMK AO2 SLP154 T01170050=
201301252053 METAR KBFI 252053Z 19003KT 10SM SCT024 BKN031 11/06 A3001 RMK AO2 SLP160 T01110056 56016=
201301252051 SPECI KBFI 252051Z 17006KT 10SM SCT024 BKN031 12/06 A3001 RMK AO2=
201301251953 METAR KBFI 251953Z 00000KT 10SM OVC025 10/06 A3003 RMK AO2 SLP169 T01000061=
201301251853 METAR KBFI 251853Z 00000KT 10SM FEW010 SCT015 OVC023 10/06 A3005 RMK AO2 SLP177 T01000061=
201301251753 METAR KBFI 251753Z 13003KT 10SM FEW013 OVC023 09/06 A3006 RMK AO2 SLP178 T00940061 10094 20067 53004=
201301251653 METAR KBFI 251653Z 00000KT 10SM SCT013 BKN023 08/06 A3005 RMK AO2 SLP175 T00830061=
201301251553 METAR KBFI 251553Z VRB06KT 10SM BKN021 09/06 A3004 RMK AO2 SLP173 T00890056=
201301251453 METAR KBFI 251453Z 13007KT 10SM BKN019 OVC027 08/06 A3005 RMK AO2 SLP174 T00780056 55001=
201301251353 METAR KBFI 251353Z 14007KT 10SM OVC020 07/06 A3005 RMK AO2 SLP174 T00720056=
201301251253 METAR KBFI 251253Z 14007KT 9SM OVC022 07/06 A3004 RMK AO2 SLP173 T00720056=
201301251153 METAR KBFI 251153Z 14006KT 8SM OVC024 07/06 A3005 RMK AO2 RAE1056 SLP175 P0000 60011 70025 T00670056 10067 20061 58003=
201301251117 SPECI KBFI 251117Z 14005KT 5SM BR FEW011 OVC024 07/06 A3005 RMK AO2 RAE1056 P0000=
201301251101 SPECI KBFI 251101Z 13005KT 3SM BR BKN011 OVC022 07/05 A3005 RMK AO2 RAE1056 P0000=
201301251053 METAR KBFI 251053Z 13006KT 2 1/2SM -RA BR BKN011 BKN016 OVC022 06/05 A3005 RMK AO2 SLP177 P0002 T00610050=
201301251043 SPECI KBFI 251043Z 15005KT 3SM BR OVC011 06/05 A3006 RMK AO2 RAE43 P0002=
201301251003 SPECI KBFI 251003Z 15004KT 2SM -RA BR OVC009 06/05 A3005 RMK AO2 CIG 005V013 P0001=
201301250953 METAR KBFI 250953Z 15004KT 2 1/2SM -RA BR OVC011 06/05 A3005 RMK AO2 CIG 006V014 SLP176 P0002 T00610050=
201301250918 SPECI KBFI 250918Z 13004KT 2 1/2SM -RA BR BKN011 OVC016 06/04 A3005 RMK AO2 P0001=
201301250907 SPECI KBFI 250907Z 15005KT 3SM -RA BR BKN011 BKN016 OVC025 06/05 A3006 RMK AO2 P0001=
201301250853 METAR KBFI 250853Z 13005KT 3SM -RA BR SCT011 BKN016 OVC027 06/04 A3006 RMK AO2 SLP177 P0005 60007 T00610044 58004=
201301250842 SPECI KBFI 250842Z 12004KT 2SM -RA BR BKN014 BKN019 OVC027 06/04 A3006 RMK AO2 P0005=
201301250753 METAR KBFI 250753Z 15004KT 3SM -RA BR BKN024 OVC031 06/04 A3007 RMK AO2 RAB22 SLP181 P0001 T00610044 400830022=
201301250727 SPECI KBFI 250727Z 14007KT 4SM -RA BR OVC028 06/04 A3007 RMK AO2 RAB22 P0000=
201301250653 METAR KBFI 250653Z 14006KT 10SM OVC032 06/04 A3006 RMK AO2 RAB00E14 SLP179 P0001 T00610039=
201301250553 METAR KBFI 250553Z 14003KT 10SM OVC034 06/04 A3007 RMK AO2 SLP182 60014 T00610044 10078 20061 58007=
201301250453 METAR KBFI 250453Z 00000KT 10SM FEW018 OVC034 06/04 A3008 RMK AO2 RAE41 SLP184 P0001 T00610044=
201301250353 METAR KBFI 250353Z 14004KT 7SM -RA FEW008 SCT034 OVC048 06/04 A3009 RMK AO2 SLP188 P0001 T00610044=
201301250253 METAR KBFI 250253Z 14005KT 6SM -RA BR OVC039 06/04 A3009 RMK AO2 SLP189 P0005 60012 T00610039 50001=
201301250153 METAR KBFI 250153Z 00000KT 9SM -RA OVC036 07/03 A3010 RMK AO2 SLP191 P0006 T00670033=
201301250053 METAR KBFI 250053Z 00000KT 9SM -RA OVC043 07/03 A3010 RMK AO2 RAB18 SLP192 P0001 T00720028=
201301242353 METAR KBFI 242353Z 25006KT 10SM OVC090 08/02 A3009 RMK AO2 SLP188 T00780017 10083 20056 55013=
201301242253 METAR KBFI 242253Z 15003KT 10SM OVC100 08/01 A3009 RMK AO2 SLP187 T00830006=
201301242153 METAR KBFI 242153Z 15005KT 10SM OVC100 08/01 A3010 RMK AO2 SLP194 T00830011=
201301242053 METAR KBFI 242053Z 15005KT 10SM SCT120 08/02 A3012 RMK AO2 SLP200 T00830017 58022=
201301241953 METAR KBFI 241953Z 00000KT 10SM OVC180 08/02 A3015 RMK AO2 SLP210 T00780017=
201301241853 METAR KBFI 241853Z 13003KT 10SM CLR 07/01 A3017 RMK AO2 SLP217 T00670011=
201301241753 METAR KBFI 241753Z 14003KT 10SM SCT250 06/01 A3019 RMK AO2 SLP222 T00560011 10056 20022 58005=
201301241653 METAR KBFI 241653Z 00000KT 10SM FEW010 SCT036 04/01 A3019 RMK AO2 SLP224 T00390011=
201301241553 METAR KBFI 241553Z 14003KT 10SM FEW010 SCT036 BKN250 03/01 A3021 RMK AO2 SLP228 T00280006=
201301241453 METAR KBFI 241453Z 12004KT 10SM SCT010 OVC034 04/02 A3020 RMK AO2 SLP227 T00390017 53001=
201301241353 METAR KBFI 241353Z 00000KT 10SM FEW012 OVC031 04/02 A3021 RMK AO2 SLP229 T00440022=
201301241331 SPECI KBFI 241331Z 00000KT 10SM SCT012 OVC031 06/02 A3020 RMK AO2=
201301241253 METAR KBFI 241253Z 14005KT 10SM OVC027 04/02 A3019 RMK AO2 SLP224 T00440022=
201301241153 METAR KBFI 241153Z 14006KT 10SM OVC021 06/03 A3020 RMK AO2 SLP227 70021 T00560028 10072 20056 51014=
201301241053 METAR KBFI 241053Z 13006KT 10SM OVC021 06/03 A3020 RMK AO2 SLP224 T00560028=
201301241008 SPECI KBFI 241008Z 14007KT 10SM OVC017 06/03 A3019 RMK AO2=
201301240953 METAR KBFI 240953Z 15007KT 10SM OVC014 07/03 A3018 RMK AO2 SLP220 T00670033=
201301240937 SPECI KBFI 240937Z 15005KT 10SM OVC014 07/03 A3018 RMK AO2=
201301240929 SPECI KBFI 240929Z 15005KT 10SM OVC016 06/03 A3017 RMK AO2=
201301240853 METAR KBFI 240853Z 16007KT 10SM OVC014 07/03 A3016 RMK AO2 SLP212 T00670033 51026=
201301240800 SPECI KBFI 240800Z 17004KT 10SM OVC012 07/04 A3014 RMK AO2=
201301240753 METAR KBFI 240753Z 18004KT 10SM BKN015 OVC024 07/04 A3014 RMK AO2 SLP206 T00720039 400720033=
201301240653 METAR KBFI 240653Z 20003KT 10SM BKN015 OVC024 07/04 A3011 RMK AO2 SLP196 T00720039=
201301240600 SPECI KBFI 240600Z 14004KT 10SM OVC024 07/04 A3008 RMK AO2=
201301240553 METAR KBFI 240553Z 18005KT 10SM BKN012 OVC024 07/04 A3008 RMK AO2 SLP186 60004 T00720039 10072 20061 51036=
201301240453 METAR KBFI 240453Z 18005KT 10SM BKN012 OVC024 07/04 A3005 RMK AO2 SLP176 T00670039=
201301240353 METAR KBFI 240353Z 15005KT 10SM OVC012 07/04 A3001 RMK AO2 SLP163 T00670039=
201301240253 METAR KBFI 240253Z 16005KT 10SM OVC012 07/04 A2998 RMK AO2 SLP150 60004 T00670039 53023=
201301240153 METAR KBFI 240153Z 17005KT 10SM OVC012 07/04 A2995 RMK AO2 RAE24 SLP142 P0001 T00670039=
201301240106 SPECI KBFI 240106Z 15006KT 9SM -RA OVC014 06/04 A2993 RMK AO2 P0000=
201301240053 METAR KBFI 240053Z 14007KT 5SM -RA BR BKN016 OVC025 06/04 A2993 RMK AO2 SLP134 P0003 T00610039=
201301232353 METAR KBFI 232353Z 14005KT 4SM -RA BR BKN023 OVC029 06/04 A2991 RMK AO2 SLP128 P0007 60017 T00610039 10072 20056 53019=
201301232253 METAR KBFI 232253Z 00000KT 5SM -RA BKN027 OVC035 07/03 A2988 RMK AO2 SLP118 P0004 T00670033=
201301232153 METAR KBFI 232153Z 00000KT 9SM -RA BKN035 OVC042 06/03 A2985 RMK AO2 SLP108 P0002 T00610028=
201301232053 METAR KBFI 232053Z 15003KT 8SM -RA OVC041 06/02 A2986 RMK AO2 SLP109 P0003 60004 T00560022 58012=
201301231953 METAR KBFI 231953Z 11004KT 7SM -RA OVC050 07/01 A2988 RMK AO2 RAB00 SLP117 P0001 T00720011=
201301231853 METAR KBFI 231853Z 11003KT 10SM FEW044 OVC065 07/00 A2990 RMK AO2 SLP123 T00720000=
201301231753 METAR KBFI 231753Z 00000KT 10SM OVC070 07/M01 A2989 RMK AO2 SLP121 T00721011 10072 20044 55002=
201301231653 METAR KBFI 231653Z 00000KT 10SM OVC090 06/M01 A2988 RMK AO2 SLP118 T00611011=
201301231553 METAR KBFI 231553Z 14004KT 10SM BKN090 OVC110 06/00 A2990 RMK AO2 SLP123 T00560000=
201301231453 METAR KBFI 231453Z 14005KT 10SM OVC095 06/M01 A2990 RMK AO2 SLP123 T00561006 58016=
201301231353 METAR KBFI 231353Z 00000KT 10SM OVC100 06/M01 A2991 RMK AO2 SLP127 T00561006=
201301231253 METAR KBFI 231253Z 13003KT 9SM OVC100 04/01 A2993 RMK AO2 SLP136 T00440006=
201301231153 METAR KBFI 231153Z 00000KT 10SM OVC095 05/01 A2994 RMK AO2 SLP139 T00500006 10056 20033 53002=
201301231053 METAR KBFI 231053Z 33004KT 9SM OVC100 05/00 A2994 RMK AO2 SLP137 T00500000=
201301230953 METAR KBFI 230953Z 00000KT 9SM BKN110 05/00 A2994 RMK AO2 SLP137 T00500000=
201301230853 METAR KBFI 230853Z 15011G14KT 6SM HZ BKN110 03/01 A2994 RMK AO2 SLP138 T00330006 52006=
201301230753 METAR KBFI 230753Z 19006KT 7SM SCT110 04/01 A2994 RMK AO2 SLP138 T00390011 400441006=
201301230653 METAR KBFI 230653Z 00000KT 6SM HZ OVC110 04/01 A2992 RMK AO2 SLP131 T00390006=
201301230553 METAR KBFI 230553Z 15004KT 6SM HZ CLR 03/01 A2992 RMK AO2 SLP131 T00330006 10044 20028 58010=
201301230453 METAR KBFI 230453Z 00000KT 7SM CLR 03/01 A2994 RMK AO2 SLP138 T00330006=
201301230353 METAR KBFI 230353Z 00000KT 8SM CLR 03/01 A2994 RMK AO2 SLP137 T00330006=
201301230253 METAR KBFI 230253Z 11003KT 7SM OVC140 03/00 A2995 RMK AO2 SLP142 T00330000 58012=
201301230153 METAR KBFI 230153Z 00000KT 8SM CLR 04/00 A2997 RMK AO2 SLP147 T00440000=
201301230053 METAR KBFI 230053Z 14006KT 5SM HZ BKN140 04/01 A2997 RMK AO2 SLP149 T00390006=
201301222353 METAR KBFI 222353Z 00000KT 6SM HZ BKN140 04/01 A2999 RMK AO2 SLP153 T00440006 10044 20006 56020=
201301222253 METAR KBFI 222253Z VRB04KT 6SM HZ SCT018 OVC140 04/01 A3001 RMK AO2 SLP160 T00440006=
201301222153 METAR KBFI 222153Z 13003KT 7SM SCT018 BKN150 04/00 A3002 RMK AO2 SLP165 T00390000=
201301222053 METAR KBFI 222053Z 16003KT 6SM HZ SCT018 BKN150 04/01 A3004 RMK AO2 SLP173 T00390006 58015=
201301221953 METAR KBFI 221953Z 00000KT 3SM HZ SCT006 BKN018 OVC140 02/M01 A3007 RMK AO2 SLP181 T00221006=
201301221934 SPECI KBFI 221934Z 16003KT 3SM BR SCT006 OVC140 02/M01 A3007 RMK AO2=
201301221853 METAR KBFI 221853Z 00000KT 2 1/2SM BR OVC004 01/M01 A3008 RMK AO2 SLP186 T00111006=
201301221820 SPECI KBFI 221820Z 00000KT 1 1/4SM BR OVC002 01/M01 A3009 RMK AO2=
201301221753 METAR KBFI 221753Z 00000KT 1/2SM FG VV002 01/M01 A3009 RMK AO2 SLP188 T00061006 10006 20006 55002=
201301221653 METAR KBFI 221653Z 00000KT 1/2SM FG VV002 01/M01 A3009 RMK AO2 SLP188 T00061006=
201301221553 METAR KBFI 221553Z 00000KT 1/4SM FG VV002 01/M01 A3009 RMK AO2 SLP190 T00061006=
201301221512 SPECI KBFI 221512Z 00000KT 1/4SM FG VV002 01/M01 A3009 RMK AO2=
201301221453 METAR KBFI 221453Z 11003KT 1/2SM FG VV002 01/M01 A3010 RMK AO2 SLP191 T00061006 56016=
201301221353 METAR KBFI 221353Z 00000KT 1/4SM FG VV002 01/M01 A3010 RMK AO2 SLP193 T00061006=
201301221253 METAR KBFI 221253Z 00000KT 1/8SM FG VV002 01/M01 A3011 RMK AO2 SLP197 T00061006=
201301221153 METAR KBFI 221153Z 00000KT 1/8SM FG VV002 01/M01 A3014 RMK AO2 SLP207 60000 T00061006 10006 21006 55003=
201301221053 METAR KBFI 221053Z 00000KT 1/8SM FG VV002 00/M01 A3014 RMK AO2 SLP205 T00001011=
201301220953 METAR KBFI 220953Z 00000KT 1/2SM FG VV002 00/M01 A3015 RMK AO2 SNB15E24 SLP207 P0000 T00001011=
201301220853 METAR KBFI 220853Z 00000KT 1/2SM FZFG VV002 M01/M02 A3015 RMK AO2 SLP209 T10061017 56006=
201301220753 METAR KBFI 220753Z 00000KT 3/4SM BR VV002 00/M02 A3016 RMK AO2 SLP211 T00001017 400330000=
201301220653 METAR KBFI 220653Z 00000KT 1 1/2SM BR OVC003 00/M01 A3016 RMK AO2 SLP213 T00001011=
201301220553 METAR KBFI 220553Z 14006KT 1 1/4SM BR OVC003 00/M01 A3017 RMK AO2 SLP215 T00001011 10028 20000 50003=
201301220453 METAR KBFI 220453Z 17005KT 1 1/4SM BR OVC003 01/00 A3017 RMK AO2 SLP215 T00110000=
201301220448 SPECI KBFI 220448Z 15006KT 1 1/4SM BR OVC003 02/00 A3017 RMK AO2=
201301220353 METAR KBFI 220353Z 13004KT 2 1/2SM BR OVC005 02/00 A3016 RMK AO2 SLP213 T00170000=
201301220253 METAR KBFI 220253Z 00000KT 2 1/2SM BR OVC005 02/00 A3016 RMK AO2 SLP212 T00170000 58003=
201301220153 METAR KBFI 220153Z 10004KT 3SM BR OVC005 02/00 A3016 RMK AO2 SLP214 T00220000=
201301220053 METAR KBFI 220053Z 11004KT 4SM BR OVC007 03/00 A3017 RMK AO2 SLP216 T00280000=
201301212353 METAR KBFI 212353Z 00000KT 4SM BR OVC007 03/01 A3017 RMK AO2 SLP215 T00280006 10033 20011 56016=
201301212253 METAR KBFI 212253Z 05003KT 5SM BR OVC007 03/01 A3017 RMK AO2 SLP217 T00280006=
201301212153 METAR KBFI 212153Z 06004KT 5SM BR OVC007 03/01 A3019 RMK AO2 SLP224 T00330006=
201301212143 SPECI KBFI 212143Z 00000KT 6SM BR OVC007 03/01 A3020 RMK AO2=
201301212055 SPECI KBFI 212055Z 00000KT 2SM BR OVC005 02/01 A3022 RMK AO2=
201301212053 METAR KBFI 212053Z 00000KT 1 1/2SM BR OVC005 02/00 A3022 RMK AO2 SLP231 T00220000 58009=
201301212037 SPECI KBFI 212037Z 00000KT 1 1/2SM BR OVC005 02/00 A3022 RMK AO2=
201301211953 METAR KBFI 211953Z 13004KT 1SM BR OVC003 02/00 A3023 RMK AO2 SLP236 T00170000=
201301211853 METAR KBFI 211853Z 00000KT 1SM BR OVC003 02/00 A3025 RMK AO2 SLP242 T00170000=
201301211753 METAR KBFI 211753Z 12003KT 1SM BR OVC003 01/00 A3024 RMK AO2 SLP240 T00110000 10017 20011 53006=
201301211653 METAR KBFI 211653Z 00000KT 1/2SM FG VV002 01/00 A3022 RMK AO2 SLP233 T00110000=
201301211553 METAR KBFI 211553Z 00000KT 1/2SM FG VV002 01/00 A3022 RMK AO2 SLP231 T00110000=
201301211453 METAR KBFI 211453Z 00000KT 1/2SM FG VV002 02/00 A3023 RMK AO2 SLP235 T00170000 58015=
201301211353 METAR KBFI 211353Z 04003KT 1 1/4SM BR OVC002 01/00 A3024 RMK AO2 SLP241 T00110000=
201301211253 METAR KBFI 211253Z 11003KT 1SM BR VV002 01/00 A3026 RMK AO2 SLP245 T00110000=
201301211238 SPECI KBFI 211238Z 11004KT 1SM BR VV002 02/00 A3026 RMK AO2=
201301211156 SPECI KBFI 211156Z 00000KT 1/2SM FG VV002 02/01 A3027 RMK AO2=
201301211153 METAR KBFI 211153Z COR 00000KT 1/2SM FG VV002 02/01 A3027 RMK AO2 SLP249 T00170006 10028 20011 58001=
201301211053 METAR KBFI 211053Z 14003KT 1/4SM FG VV002 02/01 A3028 RMK AO2 SLP253 T00170006=
201301211030 SPECI KBFI 211030Z 14005KT 1/4SM FG VV002 01/00 A3029 RMK AO2=
201301210953 METAR KBFI 210953Z 10004KT 3/4SM BR VV002 02/01 A3027 RMK AO2 SLP250 T00170006=
201301210945 SPECI KBFI 210945Z 13003KT 3/4SM BR VV002 02/01 A3027 RMK AO2=
201301210853 METAR KBFI 210853Z 05004KT 1SM BR OVC002 02/01 A3027 RMK AO2 SLP250 T00220011 56003=
201301210753 METAR KBFI 210753Z 00000KT 1SM BR OVC002 03/02 A3028 RMK AO2 SLP251 T00280017 400501006=
201301210653 METAR KBFI 210653Z 00000KT 1SM BR OVC002 02/01 A3027 RMK AO2 SLP251 T00220011=
201301210553 METAR KBFI 210553Z 00000KT 1/2SM FG VV002 02/01 A3028 RMK AO2 SLP253 T00170006 10039 21006 50001=
201301210453 METAR KBFI 210453Z 00000KT 1/4SM FG VV002 01/00 A3028 RMK AO2 SLP254 T00110000=
201301210353 METAR KBFI 210353Z 00000KT 1/4SM FG VV002 01/M01 A3028 RMK AO2 SLP252 T00061006=
201301210308 SPECI KBFI 210308Z 00000KT 1/4SM FG BKN001 01/M01 A3028 RMK AO2=
201301210305 SPECI KBFI 210305Z 00000KT 1SM BR BKN001 02/M01 A3028 RMK AO2=
201301210253 METAR KBFI 210253Z 00000KT 3SM BR SCT004 01/M01 A3028 RMK AO2 SLP252 T00111011 58010=
201301210153 METAR KBFI 210153Z 00000KT 7SM FEW004 02/00 A3029 RMK AO2 SLP255 T00220000=
201301210053 METAR KBFI 210053Z 12003KT 7SM FEW200 03/01 A3030 RMK AO2 SLP260 T00280006=
201301202353 METAR KBFI 202353Z 14003KT 7SM SCT008 04/01 A3031 RMK AO2 SLP262 T00390011 10050 20022 56012=
201301202337 SPECI KBFI 202337Z 16005KT 7SM SCT008 04/01 A3031 RMK AO2=
201301202253 METAR KBFI 202253Z 00000KT 7SM BKN008 05/02 A3031 RMK AO2 SLP264 T00500017=
201301202153 METAR KBFI 202153Z 06004KT 4SM HZ OVC008 04/01 A3032 RMK AO2 SLP268 VIS NW 7 T00440011=
201301202100 SPECI KBFI 202100Z 05003KT 3SM HZ OVC006 04/01 A3034 RMK AO2 CIG 005V009 VIS NW 7=
201301202053 METAR KBFI 202053Z 00000KT 2SM HZ OVC006 04/01 A3034 RMK AO2 CIG 005V009 SLP274 VIS NW 4 T00390011 58020=
201301201953 METAR KBFI 201953Z 09003KT 2SM BR OVC004 03/01 A3037 RMK AO2 SLP283 T00280006=
201301201853 METAR KBFI 201853Z 00000KT 1 1/2SM BR OVC004 02/01 A3039 RMK AO2 SLP291 T00220006=
201301201753 METAR KBFI 201753Z VRB03KT 1 1/2SM BR OVC002 02/01 A3040 RMK AO2 SLP294 T00170006 10017 20000 53007=
201301201653 METAR KBFI 201653Z 00000KT 1/4SM FG VV002 01/00 A3039 RMK AO2 SLP292 T00060000=
201301201553 METAR KBFI 201553Z 07003KT 1/2SM FG VV002 01/M01 A3039 RMK AO2 SLP289 T00061006=
201301201453 METAR KBFI 201453Z 00000KT 3/4SM BR VV002 01/M01 A3038 RMK AO2 SLP287 T00061011 58004=
201301201353 METAR KBFI 201353Z VRB03KT 1SM BR OVC002 01/M01 A3039 RMK AO2 SLP288 T00061006=
201301201253 METAR KBFI 201253Z 34003KT 1 1/2SM BR OVC002 01/M01 A3039 RMK AO2 SLP291 T00061006=
201301201208 SPECI KBFI 201208Z 00000KT 2 1/2SM BR OVC002 01/00 A3039 RMK AO2=
201301201153 METAR KBFI 201153Z 02003KT 1 1/2SM BR VV002 01/00 A3039 RMK AO2 SLP291 T00110000 10017 20011 50000=
201301201053 METAR KBFI 201053Z 03003KT 1SM BR VV002 02/01 A3040 RMK AO2 SLP292 T00170006=
201301200953 METAR KBFI 200953Z 00000KT 1 1/2SM BR OVC002 02/01 A3039 RMK AO2 SLP290 T00170006=
201301200900 SPECI KBFI 200900Z 00000KT 1 1/4SM BR OVC002 02/00 A3039 RMK AO2=
201301200853 METAR KBFI 200853Z 00000KT 3/4SM BR VV002 02/01 A3039 RMK AO2 SLP291 T00170006 53001=
201301200753 METAR KBFI 200753Z 00000KT 3/4SM BR VV002 02/01 A3039 RMK AO2 SLP288 T00170006 400330006=
201301200722 SPECI KBFI 200722Z 00000KT 3/4SM BR VV002 02/01 A3038 RMK AO2=
201301200653 METAR KBFI 200653Z 00000KT 1SM BR VV002 02/01 A3039 RMK AO2 SLP288 T00170006=
201301200553 METAR KBFI 200553Z 00000KT 1 1/2SM BR OVC004 02/00 A3039 RMK AO2 SLP289 T00170000 10028 20017 51007=
201301200453 METAR KBFI 200453Z 00000KT 2SM BR OVC004 02/00 A3038 RMK AO2 SLP287 T00170000=
201301200435 SPECI KBFI 200435Z 00000KT 7SM OVC004 02/00 A3038 RMK AO2=
201301200353 METAR KBFI 200353Z 00000KT 4SM BR OVC006 02/00 A3038 RMK AO2 SLP287 T00220000=
201301200253 METAR KBFI 200253Z 34003KT 4SM BR OVC006 02/00 A3037 RMK AO2 SLP282 T00170000 53004=
201301200153 METAR KBFI 200153Z 00000KT 9SM OVC008 03/00 A3036 RMK AO2 CIG 005V009 SLP279 T00280000=
201301200053 METAR KBFI 200053Z 05005KT 4SM BR OVC008 02/00 A3036 RMK AO2 SLP280 T00220000=
201301192353 METAR KBFI 192353Z 05004KT 6SM HZ OVC008 03/00 A3035 RMK AO2 SLP278 T00280000 10033 20006 55002=
201301192253 METAR KBFI 192253Z 07003KT 4SM HZ OVC008 03/00 A3035 RMK AO2 SLP276 T00280000=
201301192153 METAR KBFI 192153Z 00000KT 4SM HZ OVC006 03/00 A3035 RMK AO2 SLP277 T00280000=
201301192100 SPECI KBFI 192100Z 05003KT 4SM HZ OVC006 03/00 A3036 RMK AO2=
201301192053 METAR KBFI 192053Z 00000KT 2SM BR OVC006 02/00 A3036 RMK AO2 SLP280 T00220000 58013=
201301192040 SPECI KBFI 192040Z 00000KT 2SM BR OVC006 02/00 A3036 RMK AO2=
201301191953 METAR KBFI 191953Z 00000KT 2SM BR OVC004 02/00 A3038 RMK AO2 SLP286 T00220000=
201301191853 METAR KBFI 191853Z 00000KT 1 1/2SM BR OVC004 02/M01 A3039 RMK AO2 SLP291 T00171006=
201301191753 METAR KBFI 191753Z 06005KT 1 1/2SM BR OVC004 01/M01 A3040 RMK AO2 SLP293 T00061011 10011 20006 53012=
201301191653 METAR KBFI 191653Z 00000KT 1 1/4SM BR OVC002 01/M01 A3038 RMK AO2 SFC VIS 2 SLP288 T00111006=
201301191553 METAR KBFI 191553Z 04005KT 1 1/2SM BR OVC002 01/M01 A3037 RMK AO2 SLP284 T00061006=
201301191507 SPECI KBFI 191507Z 03003KT 1 1/2SM BR OVC002 01/M01 A3036 RMK AO2=
201301191500 SPECI KBFI 191500Z 04004KT 3SM BR OVC002 01/M01 A3036 RMK AO2=
201301191453 METAR KBFI 191453Z VRB03KT 1 1/2SM BR OVC002 01/00 A3036 RMK AO2 SLP280 T00110000 50001=
201301191413 SPECI KBFI 191413Z 00000KT 1SM BR VV002 01/00 A3037 RMK AO2=
201301191353 METAR KBFI 191353Z 00000KT 1/2SM FG VV002 01/00 A3037 RMK AO2 SLP282 T00110000=
201301191253 METAR KBFI 191253Z 00000KT 1/2SM FG VV002 01/00 A3036 RMK AO2 SLP280 T00110000=
201301191153 METAR KBFI 191153Z COR 00000KT 1SM BR OVC003 01/00 A3036 RMK AO2 SLP280 T00110000 10017 20006 50002=
201301191053 METAR KBFI 191053Z 00000KT 1SM BR VV002 01/M01 A3036 RMK AO2 SLP281 T00061006=
201301190953 METAR KBFI 190953Z 00000KT 1SM BR VV002 01/M01 A3035 RMK AO2 SLP278 T00061006=
201301190853 METAR KBFI 190853Z 03003KT 1 1/2SM BR OVC003 01/M01 A3035 RMK AO2 SLP277 T00061006 50000=
201301190753 METAR KBFI 190753Z 00000KT 1 1/2SM BR OVC003 01/M01 A3036 RMK AO2 SLP279 T00111006 400440006=
201301190709 SPECI KBFI 190709Z 02003KT 1 1/2SM BR OVC003 01/00 A3035 RMK AO2=
201301190653 METAR KBFI 190653Z COR 00000KT 4SM BR OVC003 01/00 A3035 RMK AO2 SLP278 T00110000=
201301190640 SPECI KBFI 190640Z 02003KT 3SM BR OVC002 01/00 A3035 RMK AO2=
201301190632 SPECI KBFI 190632Z 34003KT 1 3/4SM BR OVC002 01/00 A3035 RMK AO2=
201301190553 METAR KBFI 190553Z 08003KT 3SM BR OVC004 02/00 A3035 RMK AO2 SLP277 T00170000 10044 20017 53010=
201301190453 METAR KBFI 190453Z 06004KT 3SM BR OVC004 02/01 A3034 RMK AO2 SLP272 T00220006=
201301190411 SPECI KBFI 190411Z 00000KT 3SM BR OVC004 02/01 A3033 RMK AO2=
201301190353 METAR KBFI 190353Z 00000KT 8SM OVC006 03/01 A3032 RMK AO2 SLP267 T00280006=
201301190253 METAR KBFI 190253Z 00000KT 9SM OVC006 03/01 A3032 RMK AO2 SLP267 T00330006 53005=
201301190153 METAR KBFI 190153Z 00000KT 10SM OVC008 03/01 A3032 RMK AO2 SLP265 T00330006=
201301190053 METAR KBFI 190053Z 32005KT 8SM OVC008 03/01 A3031 RMK AO2 SLP264 T00330011=
201301182353 METAR KBFI 182353Z 32003KT 7SM OVC008 04/02 A3031 RMK AO2 SLP262 T00440017 10044 20017 55002=
201301182253 METAR KBFI 182253Z VRB04KT 4SM BR OVC007 04/02 A3030 RMK AO2 SLP259 T00440022=
201301182153 METAR KBFI 182153Z 03003KT 4SM BR OVC008 04/02 A3030 RMK AO2 SLP260 T00440022=
201301182053 METAR KBFI 182053Z VRB03KT 3SM BR OVC006 04/02 A3031 RMK AO2 CIG 004V010 SLP264 T00390017 55001=
201301182000 SPECI KBFI 182000Z 00000KT 2SM BR OVC004 02/01 A3031 RMK AO2=
201301181953 METAR KBFI 181953Z 00000KT 1 1/2SM BR OVC002 03/01 A3031 RMK AO2 SLP261 T00280011=
201301181853 METAR KBFI 181853Z 00000KT 1 1/2SM BR OVC002 02/01 A3032 RMK AO2 SLP267 T00220011=
201301181842 SPECI KBFI 181842Z 00000KT 1SM BR OVC002 02/01 A3032 RMK AO2=
201301181815 SPECI KBFI 181815Z 00000KT 1/2SM BR VV002 02/01 A3032 RMK AO2 SFC VIS 3/4=
201301181753 METAR KBFI 181753Z 00000KT 1/4SM FG VV002 02/01 A3032 RMK AO2 SLP265 T00170011 10017 20006 53013=
201301181653 METAR KBFI 181653Z 15003KT 1/4SM FG VV002 01/00 A3029 RMK AO2 SLP258 T00110000=
201301181553 METAR KBFI 181553Z 15005KT 1/4SM FG VV002 01/00 A3028 RMK AO2 SLP253 T00060000=
201301181453 METAR KBFI 181453Z 15003KT 1/4SM FG VV002 01/00 A3028 RMK AO2 SLP252 T00110000 56004=
201301181353 METAR KBFI 181353Z 00000KT 1/4SM FG VV002 01/00 A3028 RMK AO2 SLP253 T00060000=
201301181253 METAR KBFI 181253Z 00000KT 1/4SM FG VV002 01/M01 A3028 RMK AO2 SLP252 T00061006=
201301181153 METAR KBFI 181153Z 05003KT 1/4SM FG VV002 01/M01 A3029 RMK AO2 SLP256 T00061006 10017 20006 58003=
201301181053 METAR KBFI 181053Z 14003KT 1/4SM FG VV002 01/M01 A3030 RMK AO2 SLP259 T00061006=
201301181019 SPECI KBFI 181019Z 10003KT 1/4SM FG VV002 01/00 A3030 RMK AO2=
201301180953 METAR KBFI 180953Z 09003KT 1/4SM FG VV001 01/00 A3030 RMK AO2 SLP259 T00110000=
201301180853 METAR KBFI 180853Z 12003KT 1/4SM FG VV001 02/01 A3030 RMK AO2 SLP259 T00170006 56009=
201301180753 METAR KBFI 180753Z 12004KT 1/4SM FG VV001 01/01 A3031 RMK AO2 SLP262 T00110006 400391022=
201301180653 METAR KBFI 180653Z 15004KT 1/4SM FG VV001 02/01 A3031 RMK AO2 SLP265 T00170006=
201301180553 METAR KBFI 180553Z 14003KT 1/4SM FG VV001 02/01 A3033 RMK AO2 SLP269 T00170006 10033 20011 58002=
201301180507 SPECI KBFI 180507Z 00000KT 1/4SM FG VV001 02/01 A3033 RMK AO2=
201301180453 METAR KBFI 180453Z 13003KT 1/4SM FG VV002 01/00 A3033 RMK AO2 SLP270 T00110000=
201301180405 SPECI KBFI 180405Z 13003KT 1/2SM FG VV002 01/00 A3034 RMK AO2=
201301180353 METAR KBFI 180353Z 13003KT 1/4SM FG VV001 01/00 A3033 RMK AO2 SLP271 T00110000=
201301180253 METAR KBFI 180253Z 00000KT 1/4SM FG VV002 02/01 A3033 RMK AO2 SLP271 T00170006 58005=
201301180246 SPECI KBFI 180246Z 18003KT 1/2SM FG VV002 02/01 A3033 RMK AO2=
201301180222 SPECI KBFI 180222Z 00000KT 1SM BR OVC003 02/01 A3034 RMK AO2=
201301180206 SPECI KBFI 180206Z 11005KT 1SM BR OVC005 03/01 A3034 RMK AO2=
201301180200 SPECI KBFI 180200Z 00000KT 2SM BR OVC005 03/01 A3034 RMK AO2=
201301180153 METAR KBFI 180153Z 00000KT 1 3/4SM BR OVC005 03/01 A3034 RMK AO2 SLP274 T00280006=
201301180053 METAR KBFI 180053Z 00000KT 1 3/4SM BR OVC007 03/01 A3035 RMK AO2 SLP276 T00280006=
201301172353 METAR KBFI 172353Z 00000KT 2 1/2SM HZ OVC007 03/01 A3035 RMK AO2 SLP275 T00330006 10039 20006 56020=
201301172253 METAR KBFI 172253Z 15003KT 3SM HZ OVC007 03/01 A3036 RMK AO2 SLP279 T00330006=
201301172153 METAR KBFI 172153Z 00000KT 2SM HZ OVC005 03/01 A3038 RMK AO2 SLP288 T00330006=
201301172127 SPECI KBFI 172127Z 00000KT 2SM BR OVC005 02/01 A3039 RMK AO2=
201301172053 METAR KBFI 172053Z 00000KT 1SM BR OVC003 02/01 A3041 RMK AO2 SLP295 T00220006 58024=
201301172014 SPECI KBFI 172014Z 00000KT 1SM BR OVC003 02/01 A3043 RMK AO2=
201301171953 METAR KBFI 171953Z 00000KT 3/4SM BR OVC002 02/00 A3044 RMK AO2 SLP308 T00170000=
201301171900 SPECI KBFI 171900Z 00000KT 1/2SM FG OVC002 01/00 A3046 RMK AO2=
201301171853 METAR KBFI 171853Z 00000KT 1/4SM FG VV002 01/00 A3046 RMK AO2 SLP314 T00110000=
201301171753 METAR KBFI 171753Z COR 00000KT 1/4SM FG VV002 01/M01 A3048 RMK AO2 SLP319 T00061006 10006 21006 53005=
201301171653 METAR KBFI 171653Z COR 00000KT 1/16SM FG VV002 01/M01 A3047 RMK AO2 SLP319 T00061006=
201301171553 METAR KBFI 171553Z 00000KT M1/4SM FG VV002 00/M01 A3046 RMK AO2 SLP314 T00001011=
201301171453 METAR KBFI 171453Z 14004KT 1/4SM FG VV002 00/M01 A3046 RMK AO2 SLP314 T00001011 58007=
201301171353 METAR KBFI 171353Z 00000KT 1/4SM FG VV002 00/M01 A3046 RMK AO2 SLP315 T00001011=
201301171253 METAR KBFI 171253Z 00000KT 1/4SM FG VV002 00/M02 A3048 RMK AO2 SLP320 T00001017=
201301171250 SPECI KBFI 171250Z 00000KT 1/8SM FG VV002 00/M02 A3048 RMK AO2=
201301171211 SPECI KBFI 171211Z 00000KT 1/4SM BR VV001 00/M02 A3049 RMK AO2=
201301171204 SPECI KBFI 171204Z 15003KT 1/4SM BR VV002 M01/M01 A3049 RMK AO2=
201301171155 SPECI KBFI 171155Z 00000KT 3/4SM BR OVC002 M01/M02 A3049 RMK AO2=
201301171153 METAR KBFI 171153Z 13003KT 2SM BR BKN005 M01/M02 A3049 RMK AO2 SLP325 T10061022 10022 21022 58011=
201301171101 SPECI KBFI 171101Z 15005KT 3SM BR BKN005 M02/M03 A3051 RMK AO2=
201301171053 METAR KBFI 171053Z 00000KT 7SM CLR M02/M04 A3052 RMK AO2 SLP333 T10221039=
201301170953 METAR KBFI 170953Z 00000KT 6SM BR CLR 00/M02 A3053 RMK AO2 SLP337 T00001022=
201301170853 METAR KBFI 170853Z 00000KT 5SM BR CLR M01/M02 A3053 RMK AO2 SLP336 T10061022 55003=
201301170753 METAR KBFI 170753Z 00000KT 8SM CLR 01/M02 A3052 RMK AO2 SLP336 T00061017 400721028=
201301170653 METAR KBFI 170653Z 00000KT 10SM CLR 02/M01 A3053 RMK AO2 SLP336 T00221011=
201301170553 METAR KBFI 170553Z 00000KT 10SM CLR 02/M01 A3053 RMK AO2 SLP339 T00171006 10061 20011 56008=
201301170453 METAR KBFI 170453Z 00000KT 10SM CLR 02/M01 A3054 RMK AO2 SLP340 T00171011=
201301170353 METAR KBFI 170353Z 00000KT 10SM CLR 03/M01 A3055 RMK AO2 SLP345 T00331006=
201301170253 METAR KBFI 170253Z 00000KT 10SM CLR 04/M01 A3056 RMK AO2 SLP347 T00441011 56003=
201301170153 METAR KBFI 170153Z 00000KT 10SM CLR 05/M01 A3056 RMK AO2 SLP347 T00501006=
201301170053 METAR KBFI 170053Z 00000KT 10SM CLR 06/00 A3056 RMK AO2 SLP346 T00560000=
201301162353 METAR KBFI 162353Z VRB03KT 10SM CLR 06/M01 A3057 RMK AO2 SLP351 T00611006 10072 20006 56014=
201301162253 METAR KBFI 162253Z 00000KT 10SM CLR 07/M01 A3058 RMK AO2 SLP354 T00671006=
201301162153 METAR KBFI 162153Z 00000KT 10SM CLR 06/01 A3059 RMK AO2 SLP356 T00560006=
201301162053 METAR KBFI 162053Z COR 00000KT 7SM FEW002 05/01 A3061 RMK AO2 SLP364 T00500006 58014=
201301161953 METAR KBFI 161953Z 00000KT 3SM BR SCT002 01/00 A3063 RMK AO2 SLP371 T00110000=
201301161946 SPECI KBFI 161946Z 00000KT 3SM BR SCT002 01/00 A3063 RMK AO2=
201301161920 SPECI KBFI 161920Z 16003KT 1SM BR VV002 01/M01 A3063 RMK AO2=
201301161906 SPECI KBFI 161906Z 14003KT 1/2SM FG VV002 01/M01 A3064 RMK AO2=
201301161853 METAR KBFI 161853Z 14003KT 1/4SM FG VV002 01/M01 A3064 RMK AO2 SLP374 T00061006=
201301161753 METAR KBFI 161753Z 00000KT 1/4SM FG VV002 01/M01 A3065 RMK AO2 SLP378 T00061006 10006 20000 50001=
201301161653 METAR KBFI 161653Z 00000KT 1/4SM FG VV002 00/M01 A3065 RMK AO2 SLP379 T00001011=
201301161553 METAR KBFI 161553Z 00000KT 1/4SM FG VV002 00/M01 A3065 RMK AO2 SLP378 T00001011=
201301161453 METAR KBFI 161453Z 00000KT 1/2SM FG VV002 00/M01 A3065 RMK AO2 SLP377 T00001011 56010=
201301161353 METAR KBFI 161353Z 00000KT 1/2SM FG VV002 01/M01 A3066 RMK AO2 SLP380 T00061011=
201301161302 SPECI KBFI 161302Z 00000KT 3/4SM BR VV002 01/M01 A3067 RMK AO2=
201301161253 METAR KBFI 161253Z 16003KT 1/4SM FG VV002 00/M01 A3067 RMK AO2 SLP384 T00001011=
201301161153 METAR KBFI 161153Z 13003KT 1/4SM FG VV002 00/M01 A3068 RMK AO2 SLP388 T00001011 10022 21028 50000=
201301161139 SPECI KBFI 161139Z 14003KT 1/4SM FG VV002 00/M02 A3068 RMK AO2=
201301161053 METAR KBFI 161053Z 13004KT 1SM BR OVC003 M01/M02 A3068 RMK AO2 SLP389 T10061022=
201301161046 SPECI KBFI 161046Z 13005KT 1SM BR OVC003 M01/M02 A3069 RMK AO2=
201301161006 SPECI KBFI 161006Z 13004KT 8SM SCT005 BKN010 M02/M04 A3068 RMK AO2=
201301160953 METAR KBFI 160953Z 00000KT 7SM SCT010 M02/M04 A3068 RMK AO2 SLP388 T10171039=
201301160853 METAR KBFI 160853Z 14003KT 8SM CLR M01/M03 A3068 RMK AO2 SLP388 T10061028 55001=
201301160753 METAR KBFI 160753Z 00000KT 10SM CLR 01/M01 A3068 RMK AO2 SLP387 T00111011 400720006=
201301160653 METAR KBFI 160653Z 00000KT 10SM CLR 01/M01 A3068 RMK AO2 SLP387 T00111011=
201301160553 METAR KBFI 160553Z 00000KT 10SM CLR 01/M02 A3068 RMK AO2 SLP389 T00111017 10067 20006 58001=
201301160453 METAR KBFI 160453Z 00000KT 10SM CLR 02/M02 A3069 RMK AO2 SLP391 T00171022=
201301160353 METAR KBFI 160353Z 01003KT 10SM CLR 04/M02 A3069 RMK AO2 SLP390 T00391017=
201301160253 METAR KBFI 160253Z 00000KT 10SM CLR 04/M02 A3069 RMK AO2 SLP390 T00441017 55003=
201301160153 METAR KBFI 160153Z 00000KT 10SM CLR 04/M01 A3068 RMK AO2 SLP389 T00441011=
201301160053 METAR KBFI 160053Z 00000KT 10SM CLR 06/M01 A3068 RMK AO2 SLP388 T00561011=
201301152353 METAR KBFI 152353Z 00000KT 10SM SCT020 07/M02 A3070 RMK AO2 SLP393 T00671017 10072 20033 50004=
201301152327 SPECI KBFI 152327Z 35003KT 10SM SCT028 07/M01 A3069 RMK AO2=
201301152253 METAR KBFI 152253Z 31004KT 10SM BKN028 07/M01 A3070 RMK AO2 SLP394 T00721011=
201301152153 METAR KBFI 152153Z 32004KT 10SM BKN026 07/M01 A3069 RMK AO2 SLP391 T00671006=
201301152053 METAR KBFI 152053Z 34004KT 10SM SCT019 07/00 A3068 RMK AO2 SLP390 T00670000 58005=
201301151953 METAR KBFI 151953Z 00000KT 10SM SCT019 06/00 A3069 RMK AO2 SLP392 T00610000=
201301151853 METAR KBFI 151853Z 34005KT 8SM FEW015 06/00 A3070 RMK AO2 SLP397 T00560000=
201301151753 METAR KBFI 151753Z 00000KT 10SM SCT025 03/M01 A3070 RMK AO2 SLP395 T00331006 10033 20006 51016=
201301151653 METAR KBFI 151653Z 14005KT 10SM BKN036 01/M02 A3069 RMK AO2 SLP393 T00111017=
201301151553 METAR KBFI 151553Z 14004KT 10SM BKN038 01/M02 A3067 RMK AO2 SLP386 T00111017=
201301151453 METAR KBFI 151453Z 00000KT 10SM OVC038 02/M01 A3065 RMK AO2 SLP379 T00221011 53009=
201301151353 METAR KBFI 151353Z 00000KT 10SM OVC038 02/M01 A3064 RMK AO2 SLP373 T00171011=
201301151253 METAR KBFI 151253Z 12003KT 10SM SCT013 OVC039 02/M01 A3063 RMK AO2 SLP370 T00171011=
201301151153 METAR KBFI 151153Z 00000KT 10SM SCT013 OVC041 03/M01 A3063 RMK AO2 SLP370 T00281011 10033 20028 51015=
201301151053 METAR KBFI 151053Z 00000KT 10SM SCT011 OVC038 03/M01 A3062 RMK AO2 SLP368 T00331011=
201301151003 SPECI KBFI 151003Z 00000KT 10SM BKN011 OVC037 03/M01 A3061 RMK AO2=
201301150953 METAR KBFI 150953Z 00000KT 10SM SCT011 OVC037 03/M01 A3060 RMK AO2 SLP362 T00331006=
201301150853 METAR KBFI 150853Z 00000KT 10SM OVC037 03/M01 A3058 RMK AO2 SLP355 T00331006 51008=
201301150753 METAR KBFI 150753Z 00000KT 10SM OVC039 03/M01 A3057 RMK AO2 SLP352 T00331011 400441011=
201301150653 METAR KBFI 150653Z 00000KT 10SM OVC041 03/M01 A3057 RMK AO2 SLP350 T00331011=
201301150553 METAR KBFI 150553Z 00000KT 10SM SCT017 OVC041 03/M01 A3056 RMK AO2 SLP347 T00281011 10039 20017 50005=
201301150453 METAR KBFI 150453Z 00000KT 10SM BKN019 03/M02 A3056 RMK AO2 SLP349 T00281017=
201301150353 METAR KBFI 150353Z 00000KT 10SM SCT019 BKN030 03/M02 A3055 RMK AO2 SLP345 T00281017=
201301150253 METAR KBFI 150253Z 00000KT 10SM SCT047 03/M02 A3054 RMK AO2 SLP342 T00331022 53006=
201301150153 METAR KBFI 150153Z 00000KT 10SM BKN047 03/M03 A3053 RMK AO2 SLP337 T00331033=
201301150053 METAR KBFI 150053Z 00000KT 10SM OVC047 04/M03 A3053 RMK AO2 SLP336 T00391033=
201301142353 METAR KBFI 142353Z 00000KT 10SM BKN047 OVC060 04/M03 A3052 RMK AO2 SLP335 T00391033 10044 20006 53001=
201301142253 METAR KBFI 142253Z 14003KT 10SM OVC055 04/M03 A3052 RMK AO2 SLP335 T00391028=
201301142153 METAR KBFI 142153Z 12003KT 10SM OVC055 03/M03 A3051 RMK AO2 SLP332 T00331028=
201301142053 METAR KBFI 142053Z 13003KT 10SM OVC049 02/M02 A3052 RMK AO2 SLP335 T00221022 55002=
201301141953 METAR KBFI 141953Z 14005KT 10SM OVC045 02/M02 A3052 RMK AO2 SLP333 T00171022=
201301141853 METAR KBFI 141853Z 13006KT 10SM OVC045 01/M03 A3053 RMK AO2 SLP338 T00111033=
201301141753 METAR KBFI 141753Z 13008KT 10SM OVC045 01/M04 A3053 RMK AO2 SLP337 T00061039 10006 21006 51012=
201301141653 METAR KBFI 141653Z 14008KT 10SM OVC049 00/M04 A3051 RMK AO2 SLP332 T00001044=
201301141553 METAR KBFI 141553Z 15008KT 10SM OVC049 M01/M04 A3052 RMK AO2 SLP333 T10061044=
201301141453 METAR KBFI 141453Z 15007KT 10SM OVC047 M01/M04 A3049 RMK AO2 SLP325 T10061039 58001=
201301141353 METAR KBFI 141353Z 15006KT 10SM OVC041 M01/M04 A3050 RMK AO2 SLP327 T10061039=
201301141253 METAR KBFI 141253Z 13005KT 10SM OVC045 M01/M04 A3049 RMK AO2 SLP325 T10061039=
201301141153 METAR KBFI 141153Z 14005KT 10SM OVC049 M01/M04 A3050 RMK AO2 SLP326 T10061039 10000 21017 51004=
201301141053 METAR KBFI 141053Z 14004KT 10SM OVC049 M01/M04 A3049 RMK AO2 SLP325 T10061039=
201301140953 METAR KBFI 140953Z 15003KT 10SM OVC041 M01/M04 A3049 RMK AO2 SLP325 T10061039=
201301140853 METAR KBFI 140853Z 15004KT 10SM OVC037 M01/M04 A3049 RMK AO2 SLP322 T10111044 58004=
201301140753 METAR KBFI 140753Z 14004KT 10SM FEW037 OVC046 M01/M04 A3049 RMK AO2 SLP322 T10111044 400331050=
201301140653 METAR KBFI 140653Z 15004KT 10SM OVC048 M01/M05 A3050 RMK AO2 SLP329 T10111050=
201301140553 METAR KBFI 140553Z 14003KT 10SM FEW041 OVC050 M01/M04 A3050 RMK AO2 SLP326 T10061044 10033 21022 51009=
201301140453 METAR KBFI 140453Z COR 00000KT 10SM FEW039 SCT048 M01/M05 A3049 RMK AO2 SLP323 T10111050=
201301140353 METAR KBFI 140353Z 00000KT 10SM BKN039 00/M05 A3049 RMK AO2 SLP323 T00001050=
201301140253 METAR KBFI 140253Z 15004KT 10SM FEW200 M01/M05 A3047 RMK AO2 SLP317 T10111050 50002=
201301140153 METAR KBFI 140153Z 00000KT 10SM FEW200 01/M04 A3048 RMK AO2 SLP321 T00111044=
201301140053 METAR KBFI 140053Z 00000KT 10SM SCT250 02/M05 A3047 RMK AO2 SLP317 T00221050=
201301132353 METAR KBFI 132353Z 00000KT 10SM SCT200 03/M06 A3046 RMK AO2 SLP315 T00281061 10033 21022 55000=
201301132253 METAR KBFI 132253Z 00000KT 10SM FEW030 BKN150 03/M06 A3046 RMK AO2 SLP315 T00331061=
201301132153 METAR KBFI 132153Z 00000KT 10SM FEW030 OVC150 03/M04 A3046 RMK AO2 SLP315 T00331044=
201301132053 METAR KBFI 132053Z AUTO 00000KT 10SM FEW020 BKN180 02/M04 A3046 RMK AO2 SLP315 T00221039 58010 TSNO=
201301131953 METAR KBFI 131953Z 00000KT 10SM FEW010 SCT140 01/M04 A3047 RMK AO2 SLP318 T00111044=
201301131853 METAR KBFI 131853Z 14003KT 10SM FEW010 SCT200 M01/M06 A3050 RMK AO2 SLP328 T10061056=
201301131753 METAR KBFI 131753Z 00000KT 10SM CLR M02/M06 A3050 RMK AO2 SLP325 T10221056 11022 21050 51009=
201301131653 METAR KBFI 131653Z 14003KT 10SM SCT200 M03/M06 A3049 RMK AO2 SLP324 T10331056=
201301131553 METAR KBFI 131553Z 00000KT 7SM FEW005 SCT200 M04/M07 A3049 RMK AO2 SLP323 T10441072=
201301131453 METAR KBFI 131453Z 14004KT 8SM SCT007 M04/M07 A3047 RMK AO2 SLP316 T10441067 53004=
201301131353 METAR KBFI 131353Z 00000KT 9SM CLR M04/M06 A3046 RMK AO2 SLP313 T10391061=
201301131253 METAR KBFI 131253Z 00000KT 9SM FEW035 M03/M06 A3045 RMK AO2 SLP311 T10281056=
201301131153 METAR KBFI 131153Z 12004KT 10SM OVC035 M02/M06 A3046 RMK AO2 SLP312 T10221056 11011 21044 58002=
201301131053 METAR KBFI 131053Z 14004KT 10SM BKN033 M03/M06 A3046 RMK AO2 SLP315 T10331056=
201301130953 METAR KBFI 130953Z 13005KT 10SM OVC031 M03/M06 A3045 RMK AO2 SLP312 T10281056=
201301130853 METAR KBFI 130853Z 14004KT 10SM CLR M04/M06 A3046 RMK AO2 SLP314 T10391061 51014=
201301130753 METAR KBFI 130753Z 00000KT 10SM CLR M02/M05 A3045 RMK AO2 SLP311 T10221050 400441044=
201301130653 METAR KBFI 130653Z 00000KT 10SM CLR M03/M06 A3044 RMK AO2 SLP306 T10281056=
201301130553 METAR KBFI 130553Z 00000KT 10SM CLR M01/M05 A3042 RMK AO2 SLP300 T10111050 10033 21022 50001=
201301130453 METAR KBFI 130453Z 00000KT 10SM BKN033 M01/M04 A3042 RMK AO2 SLP301 T10111044=
201301130353 METAR KBFI 130353Z 00000KT 10SM CLR M01/M05 A3042 RMK AO2 SLP300 T10061050=
201301130253 METAR KBFI 130253Z 00000KT 10SM SCT031 00/M04 A3042 RMK AO2 SLP299 T00001044 53005=
201301130153 METAR KBFI 130153Z AUTO 07003KT 10SM BKN031 01/M06 A3040 RMK AO2 SLP295 T00111056 TSNO=
201301130053 METAR KBFI 130053Z 00000KT 10SM SCT030 02/M06 A3040 RMK AO2 SLP294 T00221061=
201301122353 METAR KBFI 122353Z 36003KT 10SM CLR 03/M06 A3040 RMK AO2 SLP294 T00331061 10044 21006 51007=
201301122253 METAR KBFI 122253Z 34008KT 10SM FEW033 04/M06 A3040 RMK AO2 SLP292 T00391061=
201301122153 SPECI KBFI 122153Z 32004KT 10SM BKN031 04/M05 A3039 RMK AO2 SLP290 T00391050=
201301122153 METAR KBFI 122153Z 32004KT 10SM BKN031 04/M05 A3039 RMK AO2 SLP290 T00391050=
201301122053 METAR KBFI 122053Z COR 35004KT 10SM FEW015 03/M03 A3038 RMK AO2 SLP287 T00331033 58005=
201301121953 METAR KBFI 121953Z 00000KT 10SM FEW015 02/M02 A3039 RMK AO2 SLP290 T00221017=
201301121853 METAR KBFI 121853Z 00000KT 10SM SCT007 01/M02 A3040 RMK AO2 SLP293 T00061022=
201301121753 METAR KBFI 121753Z 00000KT 10SM SCT007 BKN200 M01/M03 A3040 RMK AO2 SLP292 T10061028 11006 21044 51014=
201301121653 METAR KBFI 121653Z 14003KT 10SM BKN006 M02/M04 A3039 RMK AO2 SLP290 VIS W 1 T10171039=
201301121614 SPECI KBFI 121614Z 00000KT 7SM OVC005 M02/M04 A3038 RMK AO2=
201301121553 METAR KBFI 121553Z 00000KT 5SM BR OVC002 M02/M04 A3038 RMK AO2 SLP285 T10221039=
201301121453 METAR KBFI 121453Z 00000KT 1SM BR OVC003 M02/M04 A3035 RMK AO2 SLP278 T10221039 52002=
201301121451 SPECI KBFI 121451Z 00000KT 1SM BR OVC003 M02/M04 A3035 RMK AO2=
201301121409 SPECI KBFI 121409Z 00000KT 9SM OVC005 M03/M06 A3035 RMK AO2=
201301121400 SPECI KBFI 121400Z 00000KT 9SM SCT005 BKN010 OVC015 M03/M05 A3035 RMK AO2=
201301121353 METAR KBFI 121353Z 00000KT 9SM BKN011 M03/M05 A3035 RMK AO2 SLP277 T10281050=
201301121344 SPECI KBFI 121344Z 00000KT 9SM BKN010 M03/M05 A3035 RMK AO2=
201301121317 SPECI KBFI 121317Z 00000KT 6SM BR FEW006 BKN050 M03/M06 A3035 RMK AO2=
201301121253 METAR KBFI 121253Z 00000KT 9SM CLR M03/M06 A3035 RMK AO2 SLP276 T10281056=
201301121153 METAR KBFI 121153Z 00000KT 8SM CLR M03/M05 A3034 RMK AO2 SLP274 T10331050 11006 21039 50003=
201301121053 METAR KBFI 121053Z 00000KT 10SM CLR M03/M05 A3034 RMK AO2 SLP274 T10281050=
201301120953 METAR KBFI 120953Z 00000KT 10SM CLR M02/M05 A3034 RMK AO2 SLP273 T10221050=
201301120853 METAR KBFI 120853Z 00000KT 10SM CLR M02/M04 A3033 RMK AO2 SLP271 T10171039 53000=
201301120753 METAR KBFI 120753Z 00000KT 10SM CLR M02/M04 A3033 RMK AO2 SLP269 T10221044 400391028=
201301120653 METAR KBFI 120653Z 00000KT 10SM CLR M01/M04 A3033 RMK AO2 SLP271 T10111044=
201301120553 METAR KBFI 120553Z 00000KT 10SM CLR M01/M04 A3033 RMK AO2 SLP271 T10111044 10033 21017 53002=
201301120453 METAR KBFI 120453Z 00000KT 10SM CLR M01/M04 A3032 RMK AO2 SLP267 T10061039=
201301120353 METAR KBFI 120353Z 00000KT 10SM CLR 00/M04 A3032 RMK AO2 SLP267 T00001044=
201301120253 METAR KBFI 120253Z 00000KT 10SM CLR M02/M06 A3033 RMK AO2 SLP269 T10171056 50001=
201301120153 METAR KBFI 120153Z 00000KT 10SM CLR 01/M05 A3034 RMK AO2 SLP271 T00111050=
201301120053 METAR KBFI 120053Z AUTO 00000KT 10SM CLR 02/M06 A3033 RMK AO2 SLP268 T00221056 TSNO=
201301112353 METAR KBFI 112353Z 00000KT 10SM CLR 03/M07 A3032 RMK AO2 SLP268 T00331067 10039 20000 53005=
201301112253 METAR KBFI 112253Z VRB04KT 10SM FEW050 03/M04 A3031 RMK AO2 SLP264 T00331044=
201301112153 METAR KBFI 112153Z 04004KT 10SM CLR 03/M04 A3032 RMK AO2 SLP265 T00281039=
201301112053 METAR KBFI 112053Z VRB03KT 10SM CLR 02/M02 A3031 RMK AO2 SLP262 T00171022 51005=
201301111953 METAR KBFI 111953Z 05006KT 10SM FEW015 02/M02 A3030 RMK AO2 SLP260 T00171022=
201301111853 METAR KBFI 111853Z 00000KT 10SM FEW008 02/M03 A3030 RMK AO2 SLP260 T00171028=
201301111753 METAR KBFI 111753Z 00000KT 6SM BR CLR 00/M02 A3029 RMK AO2 SLP257 T00001017 10000 21022 51026=
201301111653 METAR KBFI 111653Z 00000KT 5SM BR SCT004 M01/M03 A3027 RMK AO2 SLP250 T10111028=
201301111616 SPECI KBFI 111616Z 12003KT 5SM BR SCT004 M02/M03 A3026 RMK AO2=
201301111553 METAR KBFI 111553Z 13003KT 4SM BR BKN004 M01/M03 A3025 RMK AO2 SLP244 T10111028=
201301111511 SPECI KBFI 111511Z 12006KT 3SM BR OVC002 M01/M03 A3023 RMK AO2=
201301111453 METAR KBFI 111453Z AUTO 10003KT 1SM BR BKN002 M01/M03 A3022 RMK AO2 SLP232 T10111028 53014 TSNO=
201301111441 SPECI KBFI 111441Z 12003KT 1SM BR VV002 M02/M03 A3021 RMK AO2=
201301111353 METAR KBFI 111353Z 13003KT 1/2SM FZFG VV001 M01/M03 A3019 RMK AO2 SLP222 T10111028=
201301111351 SPECI KBFI 111351Z 14004KT 1/2SM FZFG VV001 M01/M03 A3019 RMK AO2=
201301111307 SPECI KBFI 111307Z 13005KT 1 3/4SM BR BKN002 BKN060 M02/M03 A3018 RMK AO2=
201301111303 SPECI KBFI 111303Z 14004KT 3SM BR SCT002 BKN060 M02/M03 A3018 RMK AO2=
201301111253 METAR KBFI 111253Z AUTO 14004KT 3SM BR SCT060 M01/M03 A3018 RMK AO2 SLP217 T10111028 TSNO=
201301111251 SPECI KBFI 111251Z 14004KT 1 1/2SM BR SCT060 M02/M03 A3017 RMK AO2=
201301111153 METAR KBFI 111153Z 00000KT 4SM BR BKN060 M01/M03 A3016 RMK AO2 SLP212 T10061028 10011 21011 53005=
201301111107 SPECI KBFI 111107Z 00000KT 5SM BR SCT002 00/M02 A3015 RMK AO2=
201301111053 METAR KBFI 111053Z 00000KT 3SM BR BKN002 00/M01 A3015 RMK AO2 SLP210 T00001011=
201301110953 METAR KBFI 110953Z 11003KT 2SM BR OVC002 00/M01 A3015 RMK AO2 SLP207 T00001011=
201301110948 SPECI KBFI 110948Z 10003KT 2SM BR OVC002 00/M01 A3014 RMK AO2=
201301110853 METAR KBFI 110853Z 13005KT 3/4SM BR VV002 00/M01 A3012 RMK AO2 SLP200 T00001011 50006=
201301110753 METAR KBFI 110753Z 12005KT 1SM BR OVC003 01/M01 A3013 RMK AO2 SLP201 T00061006 400441011=
201301110736 SPECI KBFI 110736Z 00000KT 1 1/2SM BR FZFG OVC005 00/M01 A3013 RMK AO2=
201301110720 SPECI KBFI 110720Z 11004KT 1/2SM BR FZFG VV005 00/M01 A3012 RMK AO2=
201301110718 SPECI KBFI 110718Z 11004KT 2SM BR FEW001 BKN080 00/M01 A3012 RMK AO2=
201301110653 METAR KBFI 110653Z 00000KT 5SM MIFG CLR M01/M02 A3012 RMK AO2 SLP197 T10061017=
201301110553 METAR KBFI 110553Z 00000KT 10SM FEW060 01/M01 A3011 RMK AO2 SLP195 T00111011 10044 20006 53006=
201301110453 METAR KBFI 110453Z 00000KT 10SM FEW033 03/00 A3010 RMK AO2 SLP191 T00280000=
201301110353 METAR KBFI 110353Z 00000KT 10SM SCT075 03/00 A3009 RMK AO2 SLP189 T00330000=
201301110306 SPECI KBFI 110306Z 00000KT 10SM FEW019 BKN075 OVC090 04/00 A3009 RMK AO2=
201301110253 METAR KBFI 110253Z 00000KT 10SM SCT017 BKN028 OVC085 04/01 A3009 RMK AO2 SLP189 T00440006 53002=
201301110243 SPECI KBFI 110243Z 00000KT 10SM FEW017 SCT023 OVC030 04/01 A3009 RMK AO2=
201301110153 METAR KBFI 110153Z 00000KT 10SM SCT017 OVC028 04/01 A3008 RMK AO2 SLP187 T00440006=
201301110053 METAR KBFI 110053Z 28004KT 10SM BKN021 OVC028 04/00 A3009 RMK AO2 SLP188 T00440000=
201301102353 METAR KBFI 102353Z VRB05KT 10SM SCT017 BKN026 BKN060 04/01 A3008 RMK AO2 RAB36E46 SLP187 P0000 60000 T00440006 10044 20022 51009=
201301102253 METAR KBFI 102253Z 29005KT 10SM SCT017 BKN055 OVC070 04/01 A3008 RMK AO2 RAE02 SLP185 P0000 T00440006=
201301102250 SPECI KBFI 102250Z 30006KT 10SM SCT017 BKN055 OVC070 04/01 A3008 RMK AO2 RAE02 P0000=
201301102153 METAR KBFI 102153Z 25004KT 7SM -RA OVC012 04/01 A3008 RMK AO2 RAB44 SLP184 P0000 T00390011=
201301102053 METAR KBFI 102053Z 19004KT 10SM BKN012 OVC025 04/01 A3006 RMK AO2 SLP178 60000 T00390006 58009=
201301101953 METAR KBFI 101953Z 00000KT 10SM BKN010 OVC025 04/01 A3007 RMK AO2 SLP183 T00390006=
201301101924 SPECI KBFI 101924Z 00000KT 10SM BKN010 OVC025 04/01 A3008 RMK AO2=
201301101853 METAR KBFI 101853Z 25005KT 10SM BKN009 OVC027 03/01 A3009 RMK AO2 UPB14E17SNB03E14 SLP188 P0000 T00330006=
201301101753 METAR KBFI 101753Z 23003KT 10SM BKN007 OVC050 03/00 A3009 RMK AO2 SLP187 T00280000 10039 20017 51018=
201301101653 METAR KBFI 101653Z VRB03KT 10SM OVC007 02/00 A3008 RMK AO2 SLP186 T00220000=
201301101625 SPECI KBFI 101625Z 22003KT 10SM OVC009 02/00 A3007 RMK AO2=
201301101553 METAR KBFI 101553Z 26003KT 10SM OVC010 03/00 A3006 RMK AO2 SLP179 T00280000=
201301101453 METAR KBFI 101453Z 22003KT 10SM BKN011 OVC014 03/00 A3003 RMK AO2 SLP169 T00280000 53013=
201301101444 SPECI KBFI 101444Z 00000KT 10SM BKN012 OVC017 03/00 A3003 RMK AO2=
201301101353 METAR KBFI 101353Z 00000KT 10SM OVC018 03/00 A3001 RMK AO2 SLP161 T00280000=
201301101253 METAR KBFI 101253Z AUTO 00000KT 10SM OVC018 03/00 A2999 RMK AO2 SLP156 T00330000 TSNO=
201301101153 METAR KBFI 101153Z AUTO 19003KT 10SM OVC015 04/01 A2999 RMK AO2 SLP156 70070 T00390006 10044 20033 51016 TSNO=
201301101053 METAR KBFI 101053Z 00000KT 10SM OVC024 04/00 A2998 RMK AO2 SLP151 T00390000=
201301100953 METAR KBFI 100953Z VRB03KT 10SM BKN020 OVC026 04/00 A2997 RMK AO2 SLP147 T00440000=
201301100853 METAR KBFI 100853Z 19005KT 10SM FEW017 OVC024 04/00 A2995 RMK AO2 SLP141 T00390000 51003=
201301100753 METAR KBFI 100753Z 14005KT 10SM BKN016 BKN021 OVC027 04/01 A2995 RMK AO2 SLP141 T00390006 401110028=
201301100653 METAR KBFI 100653Z 14006KT 10SM OVC023 04/01 A2995 RMK AO2 SLP140 T00390006=
201301100553 METAR KBFI 100553Z 13007KT 10SM SCT025 BKN029 04/01 A2994 RMK AO2 SLP138 T00440006 10072 20039 51016=
201301100453 METAR KBFI 100453Z 15007KT 10SM SCT020 BKN027 04/01 A2993 RMK AO2 SLP134 T00440011=
201301100353 METAR KBFI 100353Z 15008KT 10SM SCT019 BKN027 05/01 A2991 RMK AO2 SLP129 T00500011=
201301100253 METAR KBFI 100253Z 16008KT 10SM SCT019 BKN027 OVC031 06/02 A2989 RMK AO2 SLP122 T00560017 51019=
201301100153 METAR KBFI 100153Z 16008KT 10SM BKN024 OVC031 06/02 A2988 RMK AO2 SLP117 T00560017=
201301100053 METAR KBFI 100053Z 17007KT 10SM BKN022 OVC031 07/02 A2986 RMK AO2 SLP111 T00670022=
201301092353 METAR KBFI 092353Z 15005KT 10SM SCT014 BKN020 OVC120 07/03 A2984 RMK AO2 SLP103 60003 T00670028 10072 20028 53025=
201301092253 METAR KBFI 092253Z 15007KT 10SM SCT014 BKN120 07/03 A2981 RMK AO2 SLP092 T00670033=
201301092153 METAR KBFI 092153Z 18008KT 10SM SCT012 BKN019 OVC024 07/04 A2979 RMK AO2 SLP086 T00720039=
201301092053 METAR KBFI 092053Z 13009KT 10SM OVC018 06/03 A2976 RMK AO2 SLP078 60003 T00610033 58002=
201301091953 METAR KBFI 091953Z 13008KT 10SM OVC011 04/02 A2977 RMK AO2 SLP081 T00440022=
201301091853 METAR KBFI 091853Z 13010KT 10SM FEW007 OVC013 03/02 A2978 RMK AO2 RAE32 SLP085 P0003 T00330017=
201301091831 SPECI KBFI 091831Z 14010KT 10SM -RA FEW009 OVC013 03/01 A2977 RMK AO2 P0003=
201301091753 METAR KBFI 091753Z 13008KT 9SM -RA BKN017 OVC024 03/01 A2977 RMK AO2 SLP080 P0009 60067 T00280011 10078 20028 51019=
201301091653 METAR KBFI 091653Z 13011KT 5SM RA BR FEW008 BKN012 OVC019 04/02 A2976 RMK AO2 SLP077 P0014 T00390022=
201301091553 METAR KBFI 091553Z 17009KT 7SM -RA BKN014 OVC025 06/04 A2973 RMK AO2 SLP068 P0010 T00560039=
201301091453 METAR KBFI 091453Z 18005KT 7SM -RA FEW014 BKN019 OVC025 06/04 A2971 RMK AO2 SLP061 P0012 60034 T00610039 53001=
201301091353 METAR KBFI 091353Z 12007KT 8SM -RA SCT009 OVC029 07/04 A2968 RMK AO2 SLP050 P0011 T00670044=
201301091340 SPECI KBFI 091340Z 12007KT 7SM -RA BKN011 OVC029 07/05 A2968 RMK AO2 P0009=
201301091253 METAR KBFI 091253Z 21005KT 5SM -RA OVC037 07/04 A2969 RMK AO2 SLP053 P0011 T00720044=
201301091153 METAR KBFI 091153Z 24007KT 10SM -RA FEW010 OVC040 08/05 A2971 RMK AO2 SLP060 P0009 60063 70098 T00780050 10117 20078 58014=
201301091053 METAR KBFI 091053Z 24006KT 5SM -RA FEW035 OVC041 08/06 A2974 RMK AO2 PK WND 17027/0957 SLP072 P0021 T00830056=
201301090953 METAR KBFI 090953Z 18013G23KT 6SM -RA FEW014 OVC035 11/08 A2974 RMK AO2 SLP072 P0008 T01060078=
201301090853 METAR KBFI 090853Z 18012G23KT 7SM -RA FEW017 OVC041 11/08 A2975 RMK AO2 SLP074 P0007 60025 T01060083 55002=
201301090753 METAR KBFI 090753Z 21010G20KT 9SM -RA OVC049 11/08 A2975 RMK AO2 SLP072 P0010 T01110083 401280061=
201301090653 METAR KBFI 090653Z 19011G18KT 7SM -RA OVC045 11/09 A2975 RMK AO2 PK WND 19026/0640 SLP074 P0008 T01110089=
201301090553 METAR KBFI 090553Z 19016G22KT 9SM -RA FEW027 OVC035 12/08 A2976 RMK AO2 SLP076 P0004 60004 T01170083 10128 20117 55007=
201301090544 SPECI KBFI 090544Z 19014G23KT 10SM -RA SCT027 OVC035 12/08 A2976 RMK AO2 P0003=
201301090453 METAR KBFI 090453Z 18013G25KT 10SM -RA OVC023 12/08 A2976 RMK AO2 PK WND 16032/0420 RAB15 SLP075 P0000 T01220078=
201301090353 METAR KBFI 090353Z 17017G26KT 10SM OVC021 13/08 A2976 RMK AO2 PK WND 18032/0301 SLP077 T01280078=
201301090253 METAR KBFI 090253Z 17016G31KT 10SM OVC021 13/08 A2978 RMK AO2 PK WND 18031/0251 SLP083 60000 T01280078 58020=
201301090153 METAR KBFI 090153Z 17016G23KT 10SM OVC019 12/08 A2980 RMK AO2 SLP091 T01220083=
201301090053 METAR KBFI 090053Z 17018G27KT 10SM BKN021 OVC026 12/08 A2982 RMK AO2 PK WND 16030/0010 RAB05E52 SLP096 P0000 T01220083=
201301082353 METAR KBFI 082353Z 17014G21KT 6SM HZ OVC017 12/09 A2984 RMK AO2 RAE39 SLP103 P0002 60013 T01170089 10117 20061 56021=
201301082253 METAR KBFI 082253Z 17015G20KT 3SM -RA BR BKN010 OVC014 11/09 A2985 RMK AO2 SLP109 P0004 T01110089=
201301082238 SPECI KBFI 082238Z 17009KT 3SM -RA BR OVC012 11/09 A2985 RMK AO2 P0004=
201301082158 SPECI KBFI 082158Z 14011KT 1 3/4SM -RA BR OVC009 09/08 A2986 RMK AO2 CIG 006V012 P0000=
201301082153 METAR KBFI 082153Z 14013KT 3SM -RA BR OVC009 09/08 A2986 RMK AO2 CIG 006V011 SLP111 P0004 T00890078=
201301082053 METAR KBFI 082053Z 14010KT 1 1/4SM -RA BR BKN006 OVC017 08/07 A2990 RMK AO2 SLP125 P0001 60003 T00780067 56036=
201301081953 METAR KBFI 081953Z 15008KT 2 1/2SM -RA BR BKN006 OVC017 07/06 A2994 RMK AO2 RAB53 SLP136 P0001 T00720056=
201301081853 METAR KBFI 081853Z 15008KT 2 1/2SM BR BKN008 OVC033 07/05 A2997 RMK AO2 RAE1754 SLP147 P0001 T00670050=
201301081825 SPECI KBFI 081825Z 13005KT 2 1/2SM BR BKN010 OVC033 06/04 A2999 RMK AO2 RAE1754 P0001=
201301081753 METAR KBFI 081753Z 14003KT 3SM -RA BR BKN017 OVC033 07/04 A3001 RMK AO2 SLP160 P0003 60018 T00670044 10089 20061 58021=
201301081653 METAR KBFI 081653Z 10003KT 5SM -RA BR BKN017 OVC033 07/04 A3003 RMK AO2 SLP170 P0004 T00670044=
201301081557 SPECI KBFI 081557Z 14003KT 5SM -RA BR BKN017 OVC038 06/04 A3005 RMK AO2 P0000=
201301081553 METAR KBFI 081553Z COR 00000KT 5SM -RA BR BKN017 OVC038 06/04 A3005 RMK AO2 SLP175 P0005 T00610039=
201301081453 METAR KBFI 081453Z 08006KT 5SM -RA SCT010 OVC029 07/04 A3007 RMK AO2 SLP181 P0004 60006 T00670039 58023=
201301081353 METAR KBFI 081353Z 14006KT 8SM -RA SCT010 OVC029 08/05 A3011 RMK AO2 RAE06B35 SLP196 P0002 T00780050=
201301081253 METAR KBFI 081253Z AUTO 19005KT 10SM -RA BKN020 BKN034 OVC060 09/05 A3012 RMK AO2 RAB53 SLP200 P0000 T00890050 TSNO=
201301081153 METAR KBFI 081153Z AUTO 13005KT 10SM BKN020 BKN027 OVC100 08/04 A3014 RMK AO2 SLP204 70001 T00830044 10089 20078 58007 TSNO=
201301081053 METAR KBFI 081053Z AUTO 14007KT 10SM SCT020 SCT025 BKN120 08/04 A3015 RMK AO2 SLP210 T00780044 TSNO=
201301080953 METAR KBFI 080953Z AUTO 14007KT 10SM FEW022 OVC100 08/04 A3016 RMK AO2 SLP212 T00830044 TSNO=
201301080853 METAR KBFI 080853Z AUTO 17010KT 10SM FEW020 BKN047 OVC100 09/04 A3016 RMK AO2 SLP212 T00890044 51008 TSNO=
201301080833 SPECI KBFI 080833Z AUTO 16008KT 10SM SCT022 SCT026 OVC047 09/04 A3016 RMK AO2 TSNO=
201301080815 SPECI KBFI 080815Z AUTO 15006KT 10SM BKN022 OVC045 09/04 A3016 RMK AO2 TSNO=
201301080808 SPECI KBFI 080808Z AUTO 17007G14KT 10SM SCT022 SCT027 OVC045 09/04 A3016 RMK AO2 TSNO=
201301080753 METAR KBFI 080753Z AUTO 17008KT 10SM BKN022 OVC045 09/04 A3015 RMK AO2 SLP210 T00890044 401110050 TSNO=
201301080710 SPECI KBFI 080710Z AUTO 17008KT 10SM BKN024 OVC120 09/04 A3016 RMK AO2 TSNO=
201301080653 METAR KBFI 080653Z AUTO 17008KT 10SM SCT024 OVC120 09/04 A3015 RMK AO2 SLP207 T00890039 TSNO=
201301080553 METAR KBFI 080553Z 17011G17KT 10SM BKN120 09/04 A3013 RMK AO2 SLP204 T00890039 10106 20089 53018=
201301080453 METAR KBFI 080453Z 16012G18KT 10SM FEW120 09/04 A3011 RMK AO2 SLP197 T00890044=
201301080418 SPECI KBFI 080418Z 17010KT 10SM SCT023 OVC120 09/04 A3010 RMK AO2=
201301080353 METAR KBFI 080353Z 17009KT 10SM BKN023 OVC120 09/04 A3009 RMK AO2 SLP189 T00940044=
201301080253 METAR KBFI 080253Z 18006KT 10SM OVC021 10/06 A3008 RMK AO2 SLP186 T01000056 51023=
201301080153 METAR KBFI 080153Z 19006KT 10SM OVC017 10/06 A3005 RMK AO2 SLP177 T01000061=
201301080053 METAR KBFI 080053Z 19006KT 10SM OVC017 10/06 A3004 RMK AO2 SLP173 T01000061=
201301072353 METAR KBFI 072353Z 19009G21KT 10SM OVC019 11/06 A3001 RMK AO2 SLP163 T01060061 10111 20100 53037=
201301072316 SPECI KBFI 072316Z 21013G20KT 10SM BKN019 11/07 A2999 RMK AO2=
201301072300 SPECI KBFI 072300Z 21012G24KT 170V240 10SM SCT019 11/07 A2997 RMK AO2 PRESRR=
201301072253 METAR KBFI 072253Z 19011G19KT 10SM BKN019 11/07 A2996 RMK AO2 PK WND 19028/2215 SLP144 T01060067=
201301072239 SPECI KBFI 072239Z 20013G24KT 10SM SCT019 11/07 A2995 RMK AO2 PK WND 19028/2215=
201301072153 METAR KBFI 072153Z 19015G32KT 10SM OVC019 11/07 A2994 RMK AO2 PK WND 19032/2153 SLP137 T01110072=
201301072053 METAR KBFI 072053Z 19017G32KT 10SM SCT011 BKN017 OVC023 11/07 A2990 RMK AO2 PK WND 19032/2051 SLP126 T01110072 51016=
201301071958 SPECI KBFI 071958Z 18017G28KT 10SM BKN011 OVC017 11/08 A2989 RMK AO2 PK WND 18028/1956=
201301071953 METAR KBFI 071953Z 19016G25KT 10SM OVC017 11/08 A2989 RMK AO2 PK WND 20029/1855 SLP121 T01110078=
201301071900 SPECI KBFI 071900Z 19016G29KT 10SM OVC015 11/08 A2989 RMK AO2 PK WND 20029/1855=
201301071853 METAR KBFI 071853Z 19016G26KT 10SM BKN011 OVC015 11/08 A2989 RMK AO2 PK WND 21026/1847 SLP121 T01110078=
201301071810 SPECI KBFI 071810Z 18014G24KT 10SM BKN011 OVC015 11/08 A2986 RMK AO2=
201301071753 METAR KBFI 071753Z 18015G20KT 10SM SCT011 OVC017 10/08 A2986 RMK AO2 SLP110 60001 T01000078 10100 20061 53007=
201301071653 METAR KBFI 071653Z 17019G26KT 10SM OVC015 10/07 A2984 RMK AO2 PK WND 17027/1629 SLP103 T01000067=
201301071553 METAR KBFI 071553Z 17011KT 10SM OVC015 09/06 A2982 RMK AO2 SLP098 T00940061=
201301071453 METAR KBFI 071453Z 17010KT 10SM BKN017 OVC023 09/06 A2984 RMK AO2 RAE1357B15E47 SLP103 P0001 60001 T00890061 56021=
201301071353 METAR KBFI 071353Z 17010G14KT 10SM -RA OVC023 08/05 A2984 RMK AO2 RAB40 SLP103 P0000 T00780050=
201301071253 METAR KBFI 071253Z 13009KT 10SM OVC021 07/04 A2986 RMK AO2 PRESFR SLP110 T00670044=
201301071153 METAR KBFI 071153Z 13007KT 10SM OVC023 06/04 A2990 RMK AO2 SLP124 60002 70004 T00610044 10067 20050 58023=
201301071053 METAR KBFI 071053Z 14007KT 10SM OVC025 06/04 A2992 RMK AO2 SLP133 T00560039=
201301070953 METAR KBFI 070953Z 12005KT 10SM OVC027 06/04 A2996 RMK AO2 SLP144 T00610039=
201301070853 METAR KBFI 070853Z 14005KT 10SM OVC027 05/04 A2997 RMK AO2 RAE36 SLP147 P0001 60002 T00500039 58022=
201301070753 METAR KBFI 070753Z 00000KT 8SM -RA OVC029 06/04 A3000 RMK AO2 RAB00 SLP158 P0001 T00560039 400830044=
201301070653 METAR KBFI 070653Z 13004KT 7SM FEW025 OVC035 06/03 A3001 RMK AO2 RAE37 SLP162 P0000 T00560033=
201301070643 SPECI KBFI 070643Z 13005KT 8SM FEW018 SCT023 OVC035 06/03 A3002 RMK AO2 RAE37 P0000=
201301070608 SPECI KBFI 070608Z 13009KT 10SM BKN018 BKN029 OVC043 06/03 A3002 RMK AO2 RAE07 P0000=
201301070553 METAR KBFI 070553Z 13006KT 10SM -RA BKN030 OVC045 07/04 A3003 RMK AO2 SLP169 P0000 60001 T00670039 10083 20061 58017=
201301070453 METAR KBFI 070453Z 13007KT 10SM -RA OVC031 07/03 A3006 RMK AO2 RAE07B47 SLP177 P0001 T00670033=
201301070353 METAR KBFI 070353Z 16007KT 10SM -RA SCT037 OVC045 08/03 A3007 RMK AO2 RAB24E34B53 SLP182 P0000 T00780028=
201301070253 METAR KBFI 070253Z 18008KT 10SM OVC055 08/03 A3008 RMK AO2 RAB07E16 SLP186 P0000 60000 T00830028 56008=
201301070153 METAR KBFI 070153Z 14004KT 10SM OVC060 08/04 A3008 RMK AO2 SLP186 T00780039=
201301070053 METAR KBFI 070053Z 16004KT 10SM SCT065 OVC080 08/04 A3009 RMK AO2 SLP190 T00780039=
201301062353 METAR KBFI 062353Z 16005KT 10SM BKN048 OVC065 08/04 A3010 RMK AO2 SLP194 60001 T00780044 10083 20067 58013=
201301062253 METAR KBFI 062253Z 16004KT 10SM BKN039 OVC049 08/04 A3012 RMK AO2 RAE02 SLP200 P0000 T00830044=
201301062153 METAR KBFI 062153Z 15005KT 10SM -RA SCT025 BKN038 OVC090 08/04 A3013 RMK AO2 RAE04B37 SLP201 P0000 T00780044 TSNO=
201301062053 METAR KBFI 062053Z 16006KT 10SM -RA BKN035 OVC044 08/04 A3014 RMK AO2 RAB07 SLP206 P0001 60001 T00780044 58016=
201301061953 METAR KBFI 061953Z 17006KT 10SM FEW060 OVC080 08/04 A3016 RMK AO2 SLP211 T00780039=
201301061853 METAR KBFI 061853Z 14006KT 10SM FEW012 OVC085 07/04 A3019 RMK AO2 SLP221 T00720039=
201301061753 METAR KBFI 061753Z 12008KT 10SM FEW014 OVC090 07/03 A3019 RMK AO2 SLP221 60000 T00670033 10067 20044 53009=
201301061653 METAR KBFI 061653Z 18007KT 10SM OVC100 06/03 A3017 RMK AO2 SLP217 T00610033=
201301061553 METAR KBFI 061553Z 18006KT 10SM FEW033 BKN100 06/03 A3017 RMK AO2 RAE22 SLP214 P0000 T00610028=
201301061453 METAR KBFI 061453Z 19005KT 10SM -RA BKN045 06/03 A3016 RMK AO2 RAB52 SLP212 P0000 60000 T00610028 55001=
201301061353 METAR KBFI 061353Z 17006KT 10SM SCT027 SCT060 06/03 A3015 RMK AO2 SLP210 T00560028=
201301061253 METAR KBFI 061253Z 12006KT 10SM BKN041 05/03 A3015 RMK AO2 SLP208 T00500028=
201301061153 METAR KBFI 061153Z 13007KT 10SM BKN035 05/03 A3016 RMK AO2 SLP213 60005 70010 T00500028 10067 20044 50003=
201301061106 SPECI KBFI 061106Z 15009KT 10SM SCT015 SCT075 05/03 A3017 RMK AO2=
201301061053 METAR KBFI 061053Z 15007KT 9SM BKN015 BKN080 04/03 A3018 RMK AO2 SLP219 T00440028=
201301061026 SPECI KBFI 061026Z 15006KT 10SM OVC015 05/03 A3018 RMK AO2=
201301060953 METAR KBFI 060953Z 11007KT 10SM BKN010 OVC012 06/03 A3017 RMK AO2 SLP215 T00560033=
201301060853 METAR KBFI 060853Z 14006KT 9SM BKN010 OVC012 06/04 A3015 RMK AO2 SLP210 60005 T00560039 51004=
201301060809 SPECI KBFI 060809Z 13007KT 7SM OVC014 06/04 A3016 RMK AO2=
201301060753 METAR KBFI 060753Z 14008KT 5SM BR BKN016 OVC021 06/04 A3015 RMK AO2 SLP210 T00560039 400780050=
201301060653 METAR KBFI 060653Z 14006KT 6SM BR BKN010 OVC028 06/04 A3015 RMK AO2 RAE35 SLP208 P0005 T00560044=
201301060553 METAR KBFI 060553Z 17005KT 5SM -RA BR BKN012 BKN027 OVC038 06/04 A3014 RMK AO2 SLP206 P0004 60005 T00610039 10078 20050 53005=
201301060453 METAR KBFI 060453Z 00000KT 7SM -RA OVC012 06/02 A3013 RMK AO2 RAB12 SLP203 P0001 T00610022=
201301060412 SPECI KBFI 060412Z AUTO 00000KT 10SM -RA BKN010 BKN048 OVC060 07/01 A3013 RMK AO2 RAB12 P0000 TSNO=
201301060353 METAR KBFI 060353Z AUTO 00000KT 10SM SCT046 BKN060 OVC090 07/01 A3013 RMK AO2 SLP201 T00670006 TSNO=
201301060253 METAR KBFI 060253Z AUTO 13004KT 10SM BKN090 BKN120 06/00 A3013 RMK AO2 SLP202 T00560000 55002 TSNO=
201301060153 METAR KBFI 060153Z AUTO 13004KT 10SM BKN095 06/00 A3012 RMK AO2 SLP200 T00560000 TSNO=
201301060053 METAR KBFI 060053Z 16005KT 10SM FEW055 SCT110 07/01 A3012 RMK AO2 SLP199 T00670006=
201301052353 METAR KBFI 052353Z 00000KT 10SM OVC100 07/01 A3014 RMK AO2 SLP204 60000 T00720011 10078 20072 56011=
201301052253 METAR KBFI 052253Z 17003KT 10SM SCT110 08/02 A3015 RMK AO2 SLP208 T00780017=
201301052153 METAR KBFI 052153Z 13008G16KT 10SM OVC090 07/02 A3013 RMK AO2 PRESFR SLP202 T00720017=
201301052053 METAR KBFI 052053Z 14008KT 10SM BKN110 07/02 A3017 RMK AO2 SLP215 60000 T00720017 58012=
201301051953 METAR KBFI 051953Z 14011KT 10SM BKN050 OVC060 07/01 A3019 RMK AO2 SLP221 T00720011=
201301051853 METAR KBFI 051853Z 13007KT 10SM BKN050 OVC060 07/01 A3020 RMK AO2 RAB1754E18 SLP227 P0000 T00720011=
201301051753 METAR KBFI 051753Z 00000KT 10SM BKN055 OVC075 07/01 A3020 RMK AO2 RAB22E34 SLP227 P0000 60000 T00720006 10072 20050 53010=
201301051653 METAR KBFI 051653Z 00000KT 10SM SCT065 OVC090 07/01 A3019 RMK AO2 SLP224 T00670006=
201301051553 METAR KBFI 051553Z 16007KT 10SM SCT070 OVC090 06/01 A3018 RMK AO2 SLP219 T00610006=
201301051453 METAR KBFI 051453Z 00000KT 10SM OVC100 06/02 A3017 RMK AO2 SLP217 T00610017 55001=
201301051353 METAR KBFI 051353Z 13003KT 10SM BKN075 06/01 A3017 RMK AO2 SLP215 T00610011=
201301051253 METAR KBFI 051253Z 17005KT 10SM OVC100 07/02 A3017 RMK AO2 SLP214 T00670017=
201301051153 METAR KBFI 051153Z 00000KT 10SM BKN110 06/03 A3018 RMK AO2 SLP218 70001 T00560028 10072 20050 51005=
201301051053 METAR KBFI 051053Z 23003KT 10SM OVC110 06/03 A3017 RMK AO2 SLP217 T00560028=
201301050953 METAR KBFI 050953Z 00000KT 10SM OVC110 07/03 A3016 RMK AO2 SLP214 T00670028=
201301050853 METAR KBFI 050853Z 00000KT 10SM OVC110 07/02 A3016 RMK AO2 SLP212 T00670022 58007=
201301050753 METAR KBFI 050753Z 00000KT 10SM OVC110 07/03 A3017 RMK AO2 SLP216 T00670028 401220033=
201301050653 METAR KBFI 050653Z AUTO 00000KT 10SM OVC110 07/03 A3018 RMK AO2 SLP220 T00670033 TSNO=
201301050553 METAR KBFI 050553Z AUTO 00000KT 10SM OVC110 06/03 A3018 RMK AO2 SLP220 T00610033 10100 20061 58006 TSNO=
201301050453 METAR KBFI 050453Z AUTO 00000KT 10SM BKN110 07/04 A3019 RMK AO2 SLP224 T00720039 TSNO=
201301050353 METAR KBFI 050353Z AUTO 11003KT 10SM OVC110 08/04 A3020 RMK AO2 SLP227 T00780044 TSNO=
201301050253 METAR KBFI 050253Z AUTO VRB05KT 10SM CLR 08/04 A3020 RMK AO2 SLP226 T00830044 56019 TSNO=
201301050153 METAR KBFI 050153Z AUTO 06003KT 10SM CLR 09/06 A3021 RMK AO2 SLP230 T00890056 TSNO=
201301050053 METAR KBFI 050053Z AUTO 00000KT 10SM CLR 09/06 A3024 RMK AO2 SLP239 T00940056 TSNO=
201301042353 METAR KBFI 042353Z AUTO 11004KT 10SM FEW017 10/06 A3026 RMK AO2 SLP246 T01000056 10122 20072 55008 TSNO=
201301042342 SPECI KBFI 042342Z AUTO 13004KT 10SM SCT025 11/06 A3026 RMK AO2 TSNO=
201301042310 SPECI KBFI 042310Z AUTO 12005KT 10SM BKN027 11/06 A3026 RMK AO2 TSNO=
201301042253 METAR KBFI 042253Z AUTO 11006KT 10SM SCT025 11/06 A3026 RMK AO2 SLP245 T01060056 TSNO=
201301042153 METAR KBFI 042153Z 16004KT 10SM FEW023 SCT036 11/04 A3027 RMK AO2 SLP249 T01110044=
201301042131 SPECI KBFI 042131Z VRB03KT 10SM SCT023 BKN038 BKN046 11/04 A3027 RMK AO2=
201301042053 METAR KBFI 042053Z 16007KT 10SM BKN021 11/06 A3028 RMK AO2 SLP254 T01110056 58008=
201301042040 SPECI KBFI 042040Z 14007KT 10SM BKN019 11/06 A3028 RMK AO2=
201301041953 METAR KBFI 041953Z 15006KT 10SM SCT013 BKN030 12/06 A3029 RMK AO2 SLP258 T01170061 $=
201301041853 METAR KBFI 041853Z 13006KT 10SM BKN011 BKN021 08/06 A3031 RMK AO2 SLP264 T00830061=
201301041753 METAR KBFI 041753Z 12006KT 10SM BKN011 OVC018 07/05 A3031 RMK AO2 CIG 008V013 SLP262 60001 T00720050 10072 20044 53014 $=
201301041653 METAR KBFI 041653Z 13005KT 10SM FEW009 OVC020 07/04 A3030 RMK AO2 SLP259 T00670044=
201301041553 METAR KBFI 041553Z 12008KT 10SM SCT007 OVC020 06/04 A3027 RMK AO2 RAE05 SLP249 P0000 T00560039=
201301041453 METAR KBFI 041453Z 13010KT 4SM -RA BR SCT005 BKN022 OVC030 06/04 A3027 RMK AO2 RAE1358B19 SLP249 P0001 60001 T00560039 53012=
201301041432 SPECI KBFI 041432Z 13006KT 5SM BR SCT008 BKN015 OVC020 06/04 A3027 RMK AO2 RAE1358B19E31 P0000=
201301041353 METAR KBFI 041353Z COR 14006KT 5SM -RA BR SCT008 BKN015 OVC020 06/04 A3025 RMK AO2 RAB49 SLP244 P0000 T00560039=
201301041301 SPECI KBFI 041301Z 12006KT 8SM BKN007 OVC013 04/03 A3024 RMK AO2=
201301041253 METAR KBFI 041253Z COR 14007KT 9SM BKN007 OVC011 04/03 A3024 RMK AO2 SLP239 T00440028=
201301041153 METAR KBFI 041153Z 16008KT 9SM BKN009 OVC018 04/03 A3023 RMK AO2 SLP237 60010 70024 T00440028 10050 20033 51014=
201301041053 METAR KBFI 041053Z 13006KT 9SM OVC007 04/02 A3023 RMK AO2 RAE47 SLP236 P0002 T00390022=
201301040953 METAR KBFI 040953Z 15005KT 4SM -RA BR OVC007 04/02 A3021 RMK AO2 RAB14 CIG 004V010 SLP229 P0002 T00390017=
201301040853 METAR KBFI 040853Z 00000KT 4SM BR OVC009 03/02 A3019 RMK AO2 RAE48 SLP223 P0002 60006 T00330017 52014=
201301040821 SPECI KBFI 040821Z 09003KT 2 1/2SM -RA BR OVC017 03/02 A3018 RMK AO2 P0002=
201301040819 SPECI KBFI 040819Z 00000KT 3SM -RA BR BKN012 OVC017 03/02 A3018 RMK AO2 P0002=
201301040806 SPECI KBFI 040806Z 12003KT 2 1/2SM -RA BR BKN017 OVC023 03/01 A3017 RMK AO2 P0001=
201301040753 METAR KBFI 040753Z 15004KT 3SM -RA BR BKN017 OVC023 03/01 A3017 RMK AO2 SLP217 P0002 T00330011 400831033=
201301040653 METAR KBFI 040653Z 00000KT 5SM -RA BR FEW021 OVC028 03/02 A3017 RMK AO2 SLP214 P0002 T00330017=
201301040619 SPECI KBFI 040619Z 00000KT 7SM -RA BKN028 OVC032 03/01 A3016 RMK AO2 P0000=
201301040553 METAR KBFI 040553Z 00000KT 7SM -RA OVC033 03/01 A3015 RMK AO2 SLP209 P0002 60014 T00330011 10056 20033 53005=
201301040453 METAR KBFI 040453Z 00000KT 9SM -RA OVC033 03/01 A3014 RMK AO2 SLP207 P0004 T00330006=
201301040353 METAR KBFI 040353Z 14008KT 10SM -RA OVC041 03/M01 A3014 RMK AO2 SLP204 P0002 T00331011=
201301040253 METAR KBFI 040253Z 00000KT 6SM -RA OVC037 05/M03 A3014 RMK AO2 RAB00 SLP204 P0006 60006 T00501033 53002=
201301040153 METAR KBFI 040153Z 16005KT 10SM BKN060 OVC100 06/M07 A3011 RMK AO2 SLP194 T00561067=
201301040053 METAR KBFI 040053Z 14010KT 10SM BKN080 06/M06 A3013 RMK AO2 SLP204 T00561061=
201301032353 METAR KBFI 032353Z 13006KT 10SM SCT020 BKN040 OVC070 06/M02 A3013 RMK AO2 SLP202 T00561022 10083 20033 53004=
201301032253 METAR KBFI 032253Z 17006KT 10SM CLR 08/M06 A3012 RMK AO2 SLP199 T00781061=
201301032153 METAR KBFI 032153Z 15008KT 10SM CLR 08/M06 A3010 RMK AO2 SLP192 T00831056=
201301032053 METAR KBFI 032053Z 20005KT 10SM CLR 07/M03 A3012 RMK AO2 SLP199 T00721033 58010=
201301031953 METAR KBFI 031953Z 15007KT 10SM CLR 07/M07 A3013 RMK AO2 SLP203 T00671067=
201301031853 METAR KBFI 031853Z 15004KT 10SM CLR 06/M07 A3015 RMK AO2 SLP209 T00561067=
201301031753 METAR KBFI 031753Z 14003KT 10SM CLR 03/M07 A3015 RMK AO2 SLP208 T00331067 10033 21033 53003=
201301031653 METAR KBFI 031653Z 14005KT 10SM CLR 01/M06 A3014 RMK AO2 SLP206 T00061061=
201301031553 METAR KBFI 031553Z 13005KT 10SM CLR M02/M07 A3014 RMK AO2 SLP204 T10221067=
201301031453 METAR KBFI 031453Z VRB04KT 10SM CLR M03/M07 A3014 RMK AO2 SLP206 T10281067 56016=
201301031353 METAR KBFI 031353Z 00000KT 10SM CLR M03/M07 A3015 RMK AO2 SLP208 T10281067 $=
201301031253 METAR KBFI 031253Z 00000KT 10SM CLR M02/M07 A3016 RMK AO2 SLP213 T10171067 $=
201301031153 METAR KBFI 031153Z 00000KT 10SM CLR M01/M07 A3019 RMK AO2 SLP222 T10111067 10039 21017 50000 $=
201301031053 METAR KBFI 031053Z 00000KT 10SM CLR M01/M07 A3020 RMK AO2 SLP226 T10111072 $=
201301030953 METAR KBFI 030953Z 00000KT 10SM CLR M01/M07 A3021 RMK AO2 SLP228 T10061072 $=
201301030853 METAR KBFI 030853Z 00000KT 10SM CLR 00/M06 A3019 RMK AO2 SLP221 T00001061 58008 $=
201301030753 METAR KBFI 030753Z 13004KT 10SM CLR 00/M07 A3020 RMK AO2 SLP225 T00001072 400831022 $=
201301030653 METAR KBFI 030653Z 12004KT 10SM CLR 03/M07 A3020 RMK AO2 SLP226 T00331072=
201301030553 METAR KBFI 030553Z 14005KT 10SM CLR 01/M08 A3021 RMK AO2 SLP229 T00111078 10067 20006 56007=
201301030453 METAR KBFI 030453Z 00000KT 10SM CLR 01/M07 A3021 RMK AO2 SLP230 T00061072=
201301030353 METAR KBFI 030353Z 13009KT 10SM CLR 04/M08 A3023 RMK AO2 SLP235 T00441078=
201301030253 METAR KBFI 030253Z 13007KT 10SM CLR 04/M07 A3023 RMK AO2 SLP237 T00391072 58005=
201301030153 METAR KBFI 030153Z 15005KT 10SM CLR 03/M07 A3024 RMK AO2 SLP240 T00331067=
201301030053 METAR KBFI 030053Z AUTO 15003KT 10SM CLR 05/M06 A3024 RMK AO2 SLP240 T00501061 TSNO=
201301022353 METAR KBFI 022353Z 16005KT 10SM CLR 07/M06 A3025 RMK AO2 SLP242 T00671056 10083 20011 56007=
201301022253 METAR KBFI 022253Z 17006KT 10SM FEW250 08/M04 A3025 RMK AO2 SLP243 T00831044=
201301022153 METAR KBFI 022153Z 15008KT 10SM CLR 08/M04 A3026 RMK AO2 SLP246 T00831044=
201301022053 METAR KBFI 022053Z 16004KT 10SM CLR 08/M04 A3027 RMK AO2 SLP250 T00831044 58015=
201301021953 METAR KBFI 021953Z 16004KT 10SM CLR 07/M03 A3029 RMK AO2 SLP257 T00671028=
201301021853 METAR KBFI 021853Z 00000KT 10SM CLR 03/M02 A3031 RMK AO2 SLP262 T00331017=
201301021753 METAR KBFI 021753Z 00000KT 10SM FEW250 01/M02 A3032 RMK AO2 SLP265 T00111017 10011 21022 53008=
201301021653 METAR KBFI 021653Z COR 00000KT 10SM BR CLR M01/M03 A3031 RMK AO2 SLP262 T10111028=
201301021553 METAR KBFI 021553Z 00000KT 8SM CLR M02/M04 A3029 RMK AO2 SLP256 T10171039=
201301021453 METAR KBFI 021453Z 00000KT 10SM CLR M01/M03 A3029 RMK AO2 SLP257 T10061028 56008=
201301021353 METAR KBFI 021353Z 00000KT 7SM CLR M01/M03 A3030 RMK AO2 SLP259 T10061033=
201301021253 METAR KBFI 021253Z 00000KT 6SM BR CLR M01/M03 A3030 RMK AO2 SLP261 T10061028=
201301021153 METAR KBFI 021153Z 00000KT 10SM CLR M01/M03 A3032 RMK AO2 SLP265 T10111028 10011 21017 56013=
201301021053 METAR KBFI 021053Z 00000KT 10SM CLR M01/M03 A3033 RMK AO2 SLP270 T10061028=
201301020953 METAR KBFI 020953Z 00000KT 10SM CLR M01/M03 A3033 RMK AO2 SLP271 T10061028=
201301020853 METAR KBFI 020853Z 00000KT 10SM CLR M01/M02 A3035 RMK AO2 SLP278 T10061022 56009=
201301020753 METAR KBFI 020753Z 00000KT 8SM CLR 00/M02 A3036 RMK AO2 SLP279 T00001022 400671033=
201301020653 METAR KBFI 020653Z 00000KT 10SM CLR M01/M02 A3037 RMK AO2 SLP282 T10061022=
201301020553 METAR KBFI 020553Z 00000KT 10SM CLR 01/M01 A3038 RMK AO2 SLP287 T00111011 10061 20006 56003=
201301020453 METAR KBFI 020453Z 00000KT 10SM CLR 01/M02 A3038 RMK AO2 SLP287 T00061017=
201301020353 METAR KBFI 020353Z 00000KT 10SM CLR 03/M02 A3038 RMK AO2 SLP286 T00281017=
201301020253 METAR KBFI 020253Z 00000KT 10SM CLR 04/M01 A3039 RMK AO2 SLP290 T00391011 58013=
201301020153 METAR KBFI 020153Z 33004KT 10SM CLR 04/M01 A3041 RMK AO2 SLP297 T00391011=
201301020053 METAR KBFI 020053Z 36003KT 10SM CLR 04/M01 A3042 RMK AO2 SLP301 T00441011=
201301012353 METAR KBFI 012353Z 34003KT 10SM CLR 06/M01 A3043 RMK AO2 SLP303 T00611011 10067 20017 58006=
201301012253 METAR KBFI 012253Z 02003KT 10SM SCT250 06/M02 A3044 RMK AO2 SLP305 T00611017=
201301012153 METAR KBFI 012153Z 32004KT 10SM BKN250 06/00 A3044 RMK AO2 SLP307 T00560000=
201301012053 METAR KBFI 012053Z 00000KT 10SM CLR 06/M02 A3045 RMK AO2 SLP309 T00611017 58017=
201301011953 METAR KBFI 011953Z VRB03KT 10SM CLR 05/M02 A3047 RMK AO2 SLP316 T00501022=
201301011853 METAR KBFI 011853Z 00000KT 10SM CLR 03/M02 A3049 RMK AO2 SLP325 T00281017=
201301011753 METAR KBFI 011753Z 00000KT 10SM CLR 02/M01 A3050 RMK AO2 SLP326 T00171011 10017 21033 50015=
201301011653 METAR KBFI 011653Z 00000KT 10SM CLR M01/M03 A3051 RMK AO2 SLP330 T10061028=
201301011553 METAR KBFI 011553Z COR 00000KT 10SM CLR M02/M04 A3047 RMK AO2 SLP316 T10171039=
201301011453 METAR KBFI 011453Z 00000KT 7SM CLR M02/M04 A3045 RMK AO2 SLP312 T10171039 55007=
201301011353 METAR KBFI 011353Z 00000KT 7SM CLR M01/M04 A3045 RMK AO2 SLP311 T10111039=
201301011253 METAR KBFI 011253Z 00000KT 10SM CLR M02/M03 A3046 RMK AO2 SLP313 T10171033=
201301011153 METAR KBFI 011153Z 00000KT 7SM FEW010 M01/M02 A3048 RMK AO2 SLP319 T10061022 10022 21011 50001=
201301011053 METAR KBFI 011053Z 00000KT 7SM FEW025 00/M02 A3050 RMK AO2 SLP327 T00001017=
201301010953 METAR KBFI 010953Z 00000KT 5SM BR FEW021 00/M02 A3048 RMK AO2 SLP321 T00001017=
201301010853 METAR KBFI 010853Z 13003KT 9SM BKN019 00/M02 A3047 RMK AO2 SLP318 T00001022 51012=
201301010753 METAR KBFI 010753Z 00000KT 10SM SCT020 00/M02 A3046 RMK AO2 SLP314 T00001017 400501006=
201301010653 METAR KBFI 010653Z 00000KT 10SM SCT020 02/M01 A3046 RMK AO2 SLP313 T00171006=
201301010553 METAR KBFI 010553Z 00000KT 10SM SCT017 02/M01 A3044 RMK AO2 SLP306 T00221006 10050 20017 51018=
201301010453 METAR KBFI 010453Z 08005KT 10SM CLR 03/00 A3043 RMK AO2 SLP303 T00330000=
201301010353 METAR KBFI 010353Z 05006KT 10SM CLR 04/00 A3042 RMK AO2 SLP299 T00390000=
201301010253 METAR KBFI 010253Z VRB04KT 10SM FEW030 03/00 A3038 RMK AO2 SLP288 T00330000 53020=
201301010153 METAR KBFI 010153Z 00000KT 10SM CLR 04/M01 A3036 RMK AO2 SLP280 T00391006=
201301010053 METAR KBFI 010053Z 36004KT 10SM BKN150 04/00 A3034 RMK AO2 SLP273 T00440000=

# No short TAF reports from KBFI in databse.

###################################
#  large TAF from KBFI
###################################
201301312341 TAF KBFI 312341Z 0100/0124 17009KT P6SM SCT025 OVC035 FM010400
                       17004KT P6SM OVC025 FM010900 VRB03KT P6SM
                       VCFG OVC015 FM012000 32004KT P6SM BKN020
                       BKN250 FM012200 32004KT P6SM FEW035 BKN250=
201301312017 TAF AMD KBFI 312017Z 3120/0118 18009KT P6SM SCT018 BKN060 OVC200
                       TEMPO 3120/3124 BKN018 OVC040 FM010000 17005KT
                       P6SM BKN010 OVC020 FM010400 VRB03KT P6SM
                       VCFG OVC010 FM011200 VRB03KT 5SM BR OVC007=
201301311744 TAF KBFI 311744Z 3118/0118 17009KT P6SM FEW010 SCT018 OVC060
                      TEMPO 3118/3120 -RA FEW010 BKN018 OVC060
                       FM312000 19009KT P6SM -RA SCT010 BKN018
                       OVC040 FM010000 17005KT P6SM BKN010 OVC020
                       FM010400 VRB03KT P6SM VCFG OVC010 FM011200
                       VRB03KT 5SM BR OVC007=
201301311342 TAF AMD KBFI 311342Z 3114/0112 12004KT P6SM OVC009
                      TEMPO 3114/3117 SCT009 BKN013 OVC020 FM311700
                       17008KT P6SM -RA SCT004 BKN010 OVC015 FM010000
                       15004KT P6SM OVC010 FM011000 00000KT 1SM
                       BR OVC002=
201301311141 TAF KBFI 311141Z 3112/0112 17004KT P6SM SCT004 OVC008
                      TEMPO 3112/3115 5SM -DZ FM311700 17008KT
                       P6SM -RA SCT004 BKN010 OVC015 FM010000 15004KT
                       P6SM OVC010 FM011000 00000KT 1SM BR OVC002=
201301310540 TAF KBFI 310540Z 3106/0106 17004KT 4SM -DZ SCT003 OVC006 FM311700
                       17008KT P6SM SCT004 BKN008 OVC014 FM312000
                       17008KT P6SM -RA SCT005 BKN010 OVC015=
201301302334 TAF KBFI 302334Z 3100/3124 16006KT 4SM BR OVC009 FM310300 16005KT
                       6SM -DZ BR OVC011 FM311600 18006KT P6SM
                       VCSH BKN010 OVC016 FM312200 19007KT P6SM
                       -RA OVC013=
201301301735 TAF KBFI 301735Z 3018/3118 19007KT 2SM -DZ BR BKN005 OVC008
                      TEMPO 3018/3020 3/4SM -DZ BR FM302200 19005KT
                       4SM -DZ BR BKN006 OVC009 FM311600 19008KT
                       P6SM VCSH BKN010 OVC016=
201301301350 TAF AMD KBFI 301350Z 3014/3112 13007KT 3SM BR OVC008
                      TEMPO 3014/3018 6SM -RA BR SCT008 OVC013
                       FM301800 17008KT 5SM -RA BKN008 OVC012 FM310000
                       16006KT P6SM SCT010 BKN016 OVC025=
201301301142 TAF KBFI 301142Z 3012/3112 17008KT P6SM -RA SCT006 OVC012 FM301800
                       17008KT 5SM -RA BKN008 OVC012 FM310000 16006KT
                       P6SM SCT010 BKN016 OVC025=
201301300539 TAF KBFI 300539Z 3006/3106 18010G15KT P6SM BKN016 OVC025 FM301200
                       17008KT P6SM SCT010 BKN016 OVC025 FM301600
                       17008KT 5SM -RA BKN009 OVC015 FM310000 16006KT
                       P6SM SCT012 BKN022 OVC030=
201301300205 TAF AMD KBFI 300205Z 3002/3024 16010G17KT P6SM SCT010 OVC019 FM300400
                       16010G17KT P6SM -RA BKN016 OVC025 FM300700
                       15007KT 5SM -RA BR OVC014
                      TEMPO 3012/3016 4SM -RA BR OVC009 FM301800
                       17006KT 5SM -RA BR OVC022=
201301292320 TAF KBFI 292320Z 3000/3024 15005KT P6SM SCT009 BKN016 OVC028
                      TEMPO 3000/3004 6SM -RA BR OVC009 FM300400
                       16006KT P6SM -RA BKN016 OVC025 FM300700
                       15005KT 5SM -RA BR OVC014
                      TEMPO 3012/3016 4SM -RA BR OVC009 FM301800
                       17006KT 5SM -RA BR OVC022=
201301291944 TAF AMD KBFI 291944Z 2920/3018 15006KT P6SM -RA BKN016 OVC040 FM292200
                       16006KT P6SM BKN016 OVC050 FM300500 16006KT
                       P6SM -RA BKN016 OVC025=
201301291729 TAF KBFI 291729Z 2918/3018 16006KT P6SM -RA BKN025 OVC040
                      TEMPO 2918/2920 6SM -RA BR BKN016 OVC040
                       FM292200 16006KT P6SM SCT028 OVC050 FM300500
                       16006KT P6SM -RA BKN016 OVC025=
201301291140 TAF KBFI 291140Z 2912/3012 16006KT P6SM -RA BKN020 OVC050 FM292100
                       16006KT P6SM SCT028 OVC050 FM300500 16006KT
                       P6SM -RA BKN016 OVC025=
201301290538 TAF KBFI 290538Z 2906/3006 18008KT P6SM -RA SCT025 OVC050 FM291700
                       16006KT P6SM SCT028 OVC050
                      TEMPO 2917/2921 BKN028 OVC050 FM300500 17006KT
                       P6SM -RA BKN016 OVC025=
201301282337 TAF KBFI 282337Z 2900/2924 19006KT P6SM -RA BKN015 OVC025
                      TEMPO 2900/2904 6SM -RA BR FM290600 19009KT
                       P6SM -RA BKN019 OVC030 FM291200 19006KT
                       P6SM BKN019 OVC030
                      PROB30 2912/2918 -RA FM291800 17006KT P6SM
                       BKN025 OVC040
                      PROB30 2918/2924 -RA=
201301282102 TAF AMD KBFI 282102Z 2821/2918 17006KT P6SM -RA SCT018 OVC040
                      TEMPO 2821/2823 BKN018 OVC040 FM282300 19011KT
                       6SM -RA BR OVC015
                      TEMPO 2823/2902 OVC009 FM290200 19011KT P6SM
                       -RA OVC020 FM290600 17008KT P6SM BKN025
                       OVC040
                      PROB30 2906/2912 -SHRA=
201301281744 TAF KBFI 281744Z 2818/2918 15006KT P6SM VCSH SCT015 OVC050
                      TEMPO 2818/2820 BKN015 OVC030 FM282000 17009KT
                       P6SM -RA BKN015 OVC030 FM282200 19011KT
                       6SM -RA BR OVC015
                      TEMPO 2822/2902 OVC009 FM290200 19011KT P6SM
                       -RA OVC020 FM290600 17008KT P6SM BKN025
                       OVC040
                      PROB30 2906/2912 -SHRA=
201301281519 TAF AMD KBFI 281519Z 2815/2912 15006KT P6SM FEW015 SCT040 OVC090
                       FM281800 19010KT P6SM -RA OVC010 FM282200
                       19014G24KT 5SM -RA OVC018 FM290300 19012KT
                       P6SM -RA OVC018=
201301281404 TAF AMD KBFI 281404Z 2814/2912 13005KT P6SM FEW020 SCT035 BKN120
                       TEMPO 2814/2818 BKN020 OVC035 FM281800 19010KT
                       P6SM -RA OVC010 FM282200 19014G24KT 5SM
                       -RA OVC018 FM290300 19012KT P6SM -RA OVC018=
201301281135 TAF KBFI 281135Z 2812/2912 13004KT P6SM SCT009 OVC018 FM281800
                       19010KT P6SM -RA OVC010 FM282200 19014G24KT
                       5SM -RA OVC018 FM290300 19012KT P6SM -RA
                       OVC018=
201301280905 TAF AMD KBFI 280905Z 2809/2906 13005KT P6SM BKN009 OVC018 FM281200
                       18007KT P6SM SCT015 OVC021 FM281800 19010KT
                       P6SM -RA OVC010 FM282200 19014G24KT 5SM
                       -RA OVC018 FM290300 19012KT P6SM -RA OVC018=
201301280535 TAF KBFI 280535Z 2806/2906 15006KT P6SM OVC013 FM281200 18007KT
                       P6SM SCT015 OVC021 FM281800 19010KT P6SM
                       -RA OVC010 FM282200 19014G24KT 5SM -RA OVC018
                       FM290300 19012KT P6SM -RA OVC018=
201301272328 TAF KBFI 272328Z 2800/2824 18010G18KT P6SM -SHRA OVC016 FM280600
                       19007KT P6SM VCSH BKN018 OVC025 FM281000
                       18007KT P6SM SCT018 OVC025 FM281600 20010KT
                       P6SM VCSH BKN018 OVC025 FM282000 20012G20KT
                       P6SM -SHRA OVC016=
201301271726 TAF KBFI 271726Z 2718/2818 18008KT P6SM VCSH FEW011 BKN018 OVC023
                       TEMPO 2718/2721 -SHRA OVC016 FM272100 18010KT
                       P6SM -SHRA OVC016 FM280600 17006KT P6SM
                       VCSH BKN018 OVC025 FM281000 16005KT P6SM
                       BKN040 OVC060=
201301271135 TAF KBFI 271135Z 2712/2812 15006KT P6SM VCSH BKN015 OVC023
                      TEMPO 2712/2716 SCT011 OVC016 FM271900 18010KT
                       P6SM -RA OVC015 FM280300 17006KT P6SM VCSH
                       BKN018 OVC025 FM281000 16005KT P6SM BKN040
                       OVC060=
201301270535 TAF KBFI 270535Z 2706/2806 16007KT P6SM VCSH OVC020 FM271200 16004KT
                       P6SM OVC013 FM271800 18010KT P6SM -SHRA
                       OVC019=
201301270305 TAF AMD KBFI 270305Z 2703/2724 18003KT P6SM SCT018 OVC025
                      TEMPO 2703/2707 -SHRA BKN018 OVC025 FM271000
                       16003KT P6SM VCSH OVC020 FM271800 18009KT
                       P6SM VCSH OVC020
                      TEMPO 2720/2724 -RA OVC015=
201301262320 TAF KBFI 262320Z 2700/2724 18006KT P6SM VCSH SCT028 BKN045 OVC080
                       FM271000 16003KT P6SM VCSH OVC020 FM271800
                       18009KT P6SM VCSH OVC020
                      TEMPO 2720/2724 -RA OVC015=
201301261720 TAF KBFI 261720Z 2618/2718 13005KT P6SM SCT024 OVC035
                      TEMPO 2618/2619 5SM -SHRA OVC024 FM261900
                       19008KT P6SM -SHRA SCT016 BKN028 OVC045
                       FM270000 18006KT P6SM VCSH SCT028 BKN045
                       OVC080 FM271000 16003KT P6SM VCSH OVC020=
201301261446 TAF AMD KBFI 261446Z 2615/2712 13005KT P6SM SCT024 OVC035
                      TEMPO 2615/2619 5SM -SHRA OVC024 FM261900
                       19008KT P6SM -SHRA SCT016 BKN028 OVC045
                       FM270000 18006KT P6SM VCSH SCT028 BKN045
                       OVC080 FM271000 16003KT P6SM VCSH OVC020=
201301261135 TAF KBFI 261135Z 2612/2712 14005KT P6SM -RA SCT028 OVC060 FM261300
                       14005KT P6SM -RA SCT014 OVC028 FM262000
                       19008KT P6SM -SHRA SCT016 BKN028 OVC045
                       FM270000 18006KT P6SM VCSH SCT028 BKN045
                       OVC080 FM271000 16003KT P6SM VCSH OVC020=
201301260538 TAF KBFI 260538Z 2606/2706 20004KT P6SM SCT027
                      TEMPO 2606/2610 BKN027 FM261000 14005KT P6SM
                       BKN026 OVC040
                      TEMPO 2610/2614 -SHRA FM261400 15005KT P6SM
                       -RA OVC022 FM262000 19006KT P6SM BKN022=
201301260320 TAF AMD KBFI 260320Z 2603/2624 16007KT P6SM SCT027
                      TEMPO 2603/2607 BKN027 FM260700 14005KT P6SM
                       BKN026 OVC040
                      TEMPO 2610/2614 -SHRA FM261400 15005KT P6SM
                       -RA OVC022 FM262000 19006KT P6SM BKN022=
201301252325 TAF KBFI 252325Z 2600/2624 17006KT P6SM SCT019 SCT028 FM260200
                       14004KT P6SM SCT035 OVC060 FM261500 15005KT
                       P6SM -RA OVC022 FM262000 19006KT P6SM BKN022=
201301251720 TAF KBFI 251720Z 2518/2618 14005KT P6SM SCT010 BKN022 FM252000
                       17006KT P6SM VCSH SCT019 BKN028 OVC045 FM260200
                       14004KT P6SM SCT035 OVC060 FM261500 15005KT
                       P6SM -RA OVC022=
201301251135 TAF KBFI 251135Z 2512/2612 14005KT 5SM -RA BR SCT010 BKN016 OVC024
                       TEMPO 2512/2516 2SM -RA BR OVC010 FM252000
                       17006KT P6SM VCSH SCT019 BKN028 OVC045 FM260200
                       14004KT P6SM SCT035 OVC060=
201301250905 TAF AMD KBFI 250905Z 2509/2606 15005KT 3SM -RA BR BKN011 BKN016
                       OVC025 FM251200 16005KT P6SM OVC017
                      TEMPO 2512/2516 4SM -RA BR OVC013 FM252000
                       17006KT P6SM VCSH SCT019 BKN028 OVC045=
201301250535 TAF KBFI 250535Z 2506/2606 00000KT 6SM -RA SCT018 OVC035 FM250800
                       16005KT 5SM -RA BR OVC028 FM251200 16005KT
                       P6SM OVC017
                      TEMPO 2512/2516 4SM -RA BR OVC013 FM252000
                       17006KT P6SM VCSH SCT019 BKN028 OVC045=
201301250305 TAF AMD KBFI 250305Z 2503/2524 14005KT 6SM -RA BR OVC040 FM250600
                       14004KT 6SM -RA BR OVC015 FM251400 17005KT
                       P6SM OVC015
                      TEMPO 2514/2518 5SM -RA BR OVC010=
201301242320 TAF KBFI 242320Z 2500/2524 14003KT P6SM BKN040 OVC070 FM250200
                       14004KT P6SM -RA OVC040 FM250600 14004KT
                       6SM -RA BR OVC015 FM251400 17005KT P6SM
                       OVC015
                      TEMPO 2514/2518 5SM -RA BR OVC010=
201301241720 TAF KBFI 241720Z 2418/2518 12003KT P6SM FEW016 SCT035 SCT250 FM242000
                       14003KT P6SM FEW040 SCT120 SCT250 FM250200
                       14004KT P6SM -RA OVC045 FM250600 14004KT
                       6SM -RA BR OVC018=
201301241130 TAF KBFI 241130Z 2412/2512 13006KT P6SM SCT013 OVC023
                      TEMPO 2412/2414 5SM BR OVC013 FM241800 12003KT
                       P6SM SCT016 BKN028 OVC045 FM242000 14003KT
                       P6SM SCT040 BKN120 OVC250 FM250200 14004KT
                       P6SM -RA OVC045 FM250600 14004KT 6SM -RA
                       BR OVC018=
201301240535 TAF KBFI 240535Z 2406/2506 18005KT P6SM BKN012 OVC024
                      TEMPO 2409/2413 5SM BR OVC010 FM241800 12003KT
                       P6SM SCT016 OVC028 FM242000 14003KT P6SM
                       SCT040 BKN120 OVC250 FM250200 14004KT P6SM
                       -RA OVC045=
201301232359 TAF KBFI 232359Z 2400/2424 16005KT 6SM -RA BR BKN028 OVC035
                      TEMPO 2400/2402 4SM -RA BR BKN011 OVC028
                       FM240200 18007KT P6SM -SHRA BKN025 OVC035
                       FM240400 17006KT P6SM BKN025 BKN050 FM240800
                       VRB04KT P6SM BKN022 BKN050 FM241600 14004KT
                       P6SM BKN025 BKN150 FM241800 14005KT P6SM
                       SCT030 BKN150 FM242300 15006KT P6SM BKN050
                       BKN100=
201301231752 TAF KBFI 231752Z 2318/2418 13004KT P6SM -RA BKN060 OVC090 FM232200
                       14005KT 6SM -RA BR BKN030 OVC045 FM240000
                       18008KT P6SM -SHRA BKN030 OVC045 FM240400
                       15006KT P6SM BKN025 BKN050 FM240700 14004KT
                       P6SM BKN025 BKN050=
201301231126 TAF KBFI 231126Z 2312/2412 VRB02KT P6SM OVC100 FM231600 13004KT
                       P6SM -RA BKN050 OVC090 FM232000 14005KT
                       6SM -RA BR BKN030 OVC045 FM240100 19010KT
                       P6SM -SHRA BKN030 OVC045 FM240400 18008KT
                       P6SM BKN025 BKN050=
201301230521 TAF KBFI 230521Z 2306/2406 00000KT P6SM BKN200
                      TEMPO 2306/2310 5SM BR OVC200 FM231200 12003KT
                       P6SM BKN090 OVC200 FM231700 13004KT P6SM
                       -RA BKN050 OVC090 FM232200 19010KT P6SM
                       -SHRA BKN030 OVC050 FM240400 18008KT P6SM
                       BKN025 BKN050=
201301230212 TAF AMD KBFI 230212Z 2302/2324 VRB03KT P6SM VCFG FEW006 BKN130
                       OVC250
                      TEMPO 2302/2304 4SM BR HZ FM230400 16004KT
                       4SM BR SCT005 BKN120
                      TEMPO 2306/2310 2SM BR BKN005 OVC100 FM231200
                       16006KT 4SM BR BKN015 OVC060 FM231700 16010KT
                       6SM -RA BKN030 OVC050 FM232200 22010KT P6SM
                       -SHRA BKN030 BKN050=
201301222320 TAF KBFI 222320Z 2300/2324 VRB03KT P6SM BKN150
                      TEMPO 2300/2304 4SM HZ SCT005 OVC120 FM230400
                       16004KT 4SM BR SCT005 BKN120
                      TEMPO 2306/2310 2SM BR BKN005 OVC100 FM231200
                       16006KT 4SM BR BKN015 OVC060 FM231700 16010KT
                       6SM -RA BKN030 OVC050 FM232200 22010KT P6SM
                       -SHRA BKN030 BKN050=
201301221942 TAF AMD KBFI 221942Z 2220/2318 00000KT 4SM BR SCT006 BKN120 OVC200
                       TEMPO 2220/2221 2SM BR BKN005 FM222100 10006KT
                       5SM HZ SCT005 OVC120 FM230400 10006KT 1SM
                       BR OVC002 FM231200 14007KT 5SM BR BKN005
                       OVC080 FM231500 17010KT 6SM -RA BKN018 OVC050=
201301221918 TAF AMD KBFI 221918Z 2219/2318 00000KT 4SM BR OVC005
                      TEMPO 2219/2221 2SM BR OVC004 FM222100 10006KT
                       5SM BR SCT005 FM230400 10006KT 1SM BR OVC002
                       FM231200 14007KT 5SM BR BKN005 OVC080 FM231500
                       17010KT 6SM -RA BKN018 OVC050=
201301221726 TAF KBFI 221726Z 2218/2318 12004KT 2SM BR OVC002
                      TEMPO 2218/2221 1/2SM FG VV002 FM222200 10006KT
                       5SM BR SCT005 FM230300 10006KT 1SM BR OVC002
                       FM231200 14007KT 5SM BR BKN005 OVC080 FM231500
                       17010KT 6SM -RA BKN018 OVC050=
201301221122 TAF KBFI 221122Z 2212/2312 00000KT 1/4SM FG VV002 FM221600 12003KT
                       1/2SM FG OVC003 FM221800 12004KT 3SM BR
                       BKN006 BKN250 FM222000 12005KT P6SM SCT010
                       BKN200=
201301220521 TAF KBFI 220521Z 2206/2306 16003KT 1SM BR OVC003
                      TEMPO 2206/2208 1/2SM FG VV002 FM220800 13003KT
                       1/2SM FG VV002 FM221400 12003KT 1/2SM FG
                       OVC003 FM221600 12004KT 6SM BR SCT008 BKN250
                       TEMPO 2217/2219 3SM BR BKN006 BKN250 FM221900
                       12005KT P6SM SCT010 BKN200=
201301220435 TAF AMD KBFI 220435Z 2205/2224 13004KT 2SM BR OVC005
                      TEMPO 2205/2207 1/2SM FG VV002 FM220700 13003KT
                       1/2SM FG VV002 FM221400 12003KT 1/2SM FG
                       OVC003 FM221600 12004KT 6SM BR SCT008 BKN250
                       TEMPO 2217/2219 3SM BR BKN006 BKN250 FM221900
                       12005KT P6SM SCT010 BKN200=
201301220205 TAF AMD KBFI 220205Z 2202/2224 10004KT 3SM BR OVC005 FM220400 00000KT
                       1/2SM FG VV003 FM221400 12003KT 1/2SM FG
                       OVC003 FM221600 12004KT 6SM BR SCT008 BKN250
                       TEMPO 2217/2219 3SM BR BKN006 BKN250 FM221900
                       12005KT P6SM SCT010 BKN200=
201301212357 TAF KBFI 212357Z 2200/2224 04003KT 5SM BR OVC007 FM220400 00000KT
                       1/2SM FG VV003 FM221400 12003KT 1/2SM FG
                       OVC003 FM221600 12004KT 6SM BR SCT008 BKN250
                       TEMPO 2217/2219 3SM BR BKN006 BKN250 FM221900
                       12005KT P6SM SCT010 BKN200=
201301211733 TAF KBFI 211733Z 2118/2218 14003KT 1/2SM FG VV002 FM212000 00000KT
                       2SM BR OVC006 FM212300 VRB03KT 5SM BR BKN009
                       FM220300 00000KT 1/2SM FG VV002 FM220900
                       13003KT 2SM BR OVC005 FM221300 13004KT 5SM
                       BR SCT008 BKN250=
201301211127 TAF KBFI 211127Z 2112/2212 14003KT 1/2SM FG VV002 FM212000 00000KT
                       3SM BR OVC006 FM212300 VRB03KT P6SM SCT008
                       FM220300 00000KT 1/2SM FG VV002 FM220900
                       13003KT 2SM BR OVC005=
201301210816 TAF AMD KBFI 210816Z 2108/2206 00000KT 1SM BR OVC002
                      TEMPO 2109/2113 1/2SM FG VV002 FM212000 00000KT
                       3SM BR OVC006 FM212300 VRB03KT P6SM SCT008
                       FM220400 00000KT 1/2SM FG VV002=
201301210521 TAF KBFI 210521Z 2106/2206 00000KT 1/4SM FG VV002 FM212000 00000KT
                       3SM BR OVC006 FM212300 VRB03KT P6SM SCT008
                       FM220400 00000KT 1/2SM FG VV002=
201301210311 TAF AMD KBFI 210311Z 2103/2124 00000KT 1SM BR BKN001
                      TEMPO 2103/2105 1/2SM FG VV001 FM210500 00000KT
                       1/2SM FG VV002 FM212100 16003KT P6SM SKC=
201301202327 TAF KBFI 202327Z 2100/2124 32003KT P6SM SCT008 FM210300 00000KT
                       4SM BR SKC FM210600 00000KT 1/2SM FG OVC004
                       FM212100 16003KT P6SM SKC=
201301202106 TAF AMD KBFI 202106Z 2021/2118 05003KT 3SM HZ OVC006
                      TEMPO 2022/2102 P6SM NSW SCT008 FM210400
                       00000KT 1SM BR VV002 FM210800 00000KT 1/4SM
                       FG VV002=
201301201722 TAF KBFI 201722Z 2018/2118 00000KT 1/4SM FG VV002 FM202200 VRB02KT
                       4SM BR OVC008 FM210400 00000KT 1SM BR VV002
                       FM210800 00000KT 1/4SM FG VV002=
201301201120 TAF KBFI 201120Z 2012/2112 03003KT 1SM BR VV002 FM201800 03003KT
                       2SM BR OVC004 FM202200 VRB02KT 4SM BR OVC008
                       FM210400 00000KT 1SM BR VV002=
201301200730 TAF AMD KBFI 200730Z 2008/2106 00000KT 3/4SM BR VV002 FM201800
                       00000KT 2SM BR OVC004 FM202200 VRB02KT 4SM
                       BR OVC008=
201301200524 TAF KBFI 200524Z 2006/2106 00000KT 2SM BR OVC003
                      TEMPO 2006/2009 5SM BR FM200900 00000KT 2SM
                       BR OVC002
                      TEMPO 2011/2015 1/2SM FG VV002 FM202200 VRB02KT
                       4SM BR OVC008=
201301200440 TAF AMD KBFI 200440Z 2005/2024 00000KT P6SM OVC004
                      TEMPO 2005/2009 5SM BR OVC003 FM200900 00000KT
                       1/2SM FG OVC002 FM202200 05002KT 4SM BR
                       OVC008=
201301200159 TAF AMD KBFI 200159Z 2002/2024 00000KT P6SM VCFG OVC008
                      TEMPO 2002/2004 4SM BR FM200400 00000KT 2SM
                       BR OVC005 FM200900 00000KT 1/2SM FG OVC004
                       FM202200 05002KT 4SM BR OVC008=
201301192330 TAF KBFI 192330Z 2000/2024 07003KT 4SM BR OVC008 FM200300 00000KT
                       2SM BR OVC007 FM200900 00000KT 1/2SM FG
                       OVC004 FM202200 05002KT 4SM BR OVC008=
201301192109 TAF AMD KBFI 192109Z 1921/2018 00000KT 2SM BR OVC006 FM192300 VRB03KT
                       P6SM OVC008 FM200400 00000KT 3SM BR OVC004
                       FM200900 00000KT 1SM BR VV002=
201301191720 TAF KBFI 191720Z 1918/2018 00000KT 2SM BR OVC002 FM192000 VRB03KT
                       4SM BR OVC005 FM192300 VRB03KT P6SM OVC008
                       FM200400 00000KT 3SM BR OVC004 FM200900
                       00000KT 1SM BR VV002=
201301191422 TAF AMD KBFI 191422Z 1914/2012 00000KT 1SM BR OVC003
                      TEMPO 1914/1918 1/2SM FG VV002 FM192000 VRB03KT
                       4SM BR OVC005 FM192300 VRB03KT P6SM OVC008
                       FM200400 00000KT 3SM BR OVC004 FM200900
                       00000KT 1SM BR VV002=
201301191121 TAF KBFI 191121Z 1912/2012 00000KT 1/2SM FG VV002 FM192000 VRB03KT
                       4SM BR OVC005 FM192300 VRB03KT P6SM OVC008
                       FM200400 00000KT 3SM BR OVC004 FM200900
                       00000KT 1SM BR VV002=
201301190520 TAF KBFI 190520Z 1906/2006 06004KT 3SM BR OVC004
                      TEMPO 1906/1909 1/2SM FG VV002 FM190900 00000KT
                       1/4SM FG VV002 FM192100 17003KT 4SM BR BKN006
                       FM200000 VRB03KT P6SM SCT010=
201301190200 TAF AMD KBFI 190200Z 1902/1924 00000KT P6SM VCFG OVC008
                      TEMPO 1902/1904 4SM BR FM190400 00000KT 2SM
                       BR OVC004 FM190900 00000KT 1/4SM FG VV002
                       FM192100 17003KT 4SM BR SCT006=
201301182333 TAF KBFI 182333Z 1900/1924 VRB03KT 4SM BR OVC007 FM190400 00000KT
                       1/2SM FG OVC004 FM190900 00000KT 1/4SM FG
                       VV002 FM192100 17003KT 4SM BR SCT006=
201301181730 TAF KBFI 181730Z 1818/1918 15003KT 1/4SM FG VV002
                      TEMPO 1820/1824 P6SM NSW SCT003 FM190000
                       VRB03KT 3SM BR BKN003
                      TEMPO 1900/1904 1/2SM FG VV002 FM190400 00000KT
                       1/4SM FG VV001=
201301181130 TAF KBFI 181130Z 1812/1912 00000KT 1/4SM FG VV001 FM181800 VRB03KT
                       3SM BR OVC003
                      TEMPO 1820/1824 P6SM NSW SCT003 FM190000
                       VRB03KT 3SM BR BKN003
                      TEMPO 1900/1904 1/2SM FG VV002 FM190400 00000KT
                       1/4SM FG VV001=
201301180521 TAF KBFI 180521Z 1806/1906 00000KT 1/4SM FG VV001 FM181900 VRB03KT
                       3SM BR BKN003
                      TEMPO 1820/1824 P6SM NSW SCT003 FM190000
                       VRB03KT 3SM BR BKN003
                      TEMPO 1900/1904 1/2SM FG VV002 FM190400 00000KT
                       1/4SM FG VV001=
201301180300 TAF AMD KBFI 180300Z 1803/1824 00000KT 1/2SM FG VV002 FM181800
                       15004KT 2SM BR OVC002=
201301180008 TAF AMD KBFI 180008Z 1800/1824 VRB03KT 4SM BR SCT007
                      TEMPO 1800/1804 2SM BR OVC007 FM181000 VRB03KT
                       1/2SM FG VV002 FM181800 15004KT 2SM BR OVC002=
201301172320 TAF KBFI 172320Z 1800/1824 VRB03KT 4SM BR SCT007
                      TEMPO 1800/1804 3SM BR OVC007 FM181000 VRB03KT
                       1/2SM FG VV002 FM181800 15004KT 2SM BR OVC002=
201301172201 TAF AMD KBFI 172201Z 1722/1818 VRB03KT 2SM BR BKN005 FM180000 VRB03KT
                       4SM BR SCT005 FM181300 VRB03KT 1/2SM FG
                       VV002=
201301171957 TAF AMD KBFI 171957Z 1720/1818 VRB03KT 4SM BR SCT002
                      TEMPO 1720/1722 1/2SM FG OVC002 FM172200
                       VRB03KT P6SM SKC FM180900 VRB03KT 4SM BR
                       SCT001 FM181300 VRB03KT 1/2SM FG VV002=
201301171804 TAF AMD KBFI 171804Z 1718/1818 VRB03KT 1/2SM FG VV001 FM172000
                       VRB03KT 4SM BR SCT002 FM172100 VRB03KT P6SM
                       SKC FM180900 VRB03KT 4SM BR SCT001 FM181300
                       VRB03KT 1/2SM FG VV002=
201301171720 TAF KBFI 171720Z 1718/1818 VRB03KT 1/2SM FG VV001 FM171900 VRB03KT
                       4SM BR SCT002 FM172000 VRB03KT P6SM SKC
                       FM180900 VRB03KT 4SM BR SCT001 FM181300
                       VRB03KT 1/2SM FG VV002=
201301171138 TAF KBFI 171138Z 1712/1812 VRB03KT 1SM BR BKN002 FM171300 VRB03KT
                       1/2SM FG VV001 FM171800 VRB03KT 4SM BR SCT002
                       FM171900 VRB03KT P6SM SKC FM181100 VRB03KT
                       4SM BR SCT001=
201301170530 TAF KBFI 170530Z 1706/1806 00000KT P6SM SKC FM171100 VRB03KT 1/2SM
                       FG VV001 FM172000 VRB03KT 4SM BR SCT002
                       FM172100 VRB03KT P6SM SKC=
201301162320 TAF KBFI 162320Z 1700/1724 VRB03KT P6SM SCT005 FM170600 00000KT
                       4SM BR BKN005 FM171000 VRB03KT 1/2SM FG
                       VV001 FM172000 VRB03KT 4SM BR SCT002=
201301161720 TAF KBFI 161720Z 1618/1718 VRB03KT 1/2SM FG VV002 FM162000 VRB03KT
                       6SM HZ SCT005 FM170600 00000KT 4SM BR BKN005
                       FM171000 VRB03KT 1SM BR OVC002=
201301161403 TAF AMD KBFI 161403Z 1614/1712 VRB03KT 1/2SM FG VV002 FM161800
                       VRB03KT 1SM BR BKN003 FM162000 VRB03KT 6SM
                       HZ SCT005 FM170600 00000KT 4SM BR BKN005
                       FM171000 00000KT 1SM BR OVC002=
201301161122 TAF KBFI 161122Z 1612/1712 VRB03KT 3SM BR BKN003
                      TEMPO 1612/1616 1/2SM FG VV002 FM162000 VRB03KT
                       6SM HZ SCT005 FM170600 00000KT 4SM BR BKN005
                       FM171000 00000KT 1SM BR OVC002=
201301160520 TAF KBFI 160520Z 1606/1706 00000KT P6SM SKC FM161100 02004KT 5SM
                       BR BKN005
                      TEMPO 1612/1616 2SM BR OVC002 FM162100 02004KT
                       6SM HZ SCT003=
201301160405 TAF AMD KBFI 160405Z 1604/1624 02004KT P6SM SKC FM160600 02004KT
                       6SM BR SCT008
                      TEMPO 1607/1610 3SM BR BKN005 FM161000 02004KT
                       3SM BR OVC003
                      TEMPO 1618/1622 5SM HZ BKN008 FM162200 02004KT
                       5SM HZ SCT010=
201301152345 TAF AMD KBFI 152345Z 1600/1624 35003KT P6SM SCT028 FM160400 00000KT
                       5SM BR OVC005 FM161100 00000KT 1SM BR OVC003
                       FM162200 VRB02KT 4SM BR BKN005=
201301152321 TAF KBFI 152321Z 1600/1624 31004KT P6SM BKN028 FM160400 00000KT
                       5SM BR OVC005 FM161100 00000KT 1SM BR OVC003
                       FM162200 VRB02KT 4SM BR BKN005=
201301151724 TAF KBFI 151724Z 1518/1618 14005KT P6SM SCT035 FM152000 VRB03KT
                       P6SM SCT015 SCT040 FM160400 00000KT 5SM
                       BR OVC005 FM161100 02004KT 1SM BR OVC003=
201301151636 TAF AMD KBFI 151636Z 1517/1612 14004KT P6SM BKN040 FM152000 VRB03KT
                       P6SM SCT015 SCT040
                      TEMPO 1521/1601 BKN015 BKN040 FM160400 00000KT
                       5SM BR OVC005 FM161100 02004KT 1SM BR OVC003=
201301151120 TAF KBFI 151120Z 1512/1612 00000KT P6SM SCT011 OVC035
                      TEMPO 1512/1516 BKN011 OVC030 FM151600 00000KT
                       P6SM BKN012 OVC030 FM152000 VRB03KT P6SM
                       OVC015 FM160400 00000KT 5SM BR OVC005 FM161100
                       02004KT 3SM BR OVC003=
201301150804 TAF AMD KBFI 150804Z 1508/1606 00000KT P6SM SCT015 OVC040
                      TEMPO 1508/1512 BKN015 OVC030 FM151200 VRB03KT
                       P6SM OVC015 FM160400 02004KT 5SM BR OVC006=
201301150528 TAF KBFI 150528Z 1506/1606 00000KT P6SM SCT010 OVC018
                      TEMPO 1508/1512 BKN010 OVC015 FM151200 VRB03KT
                       P6SM OVC010 FM160400 02004KT 5SM BR OVC006=
201301142320 TAF KBFI 142320Z 1500/1524 14003KT P6SM OVC050 FM150400 00000KT
                       P6SM SCT025 OVC040 FM150800 00000KT P6SM
                       SCT012 OVC020 FM151200 00000KT P6SM OVC011=
201301142049 TAF AMD KBFI 142049Z 1421/1518 14005KT P6SM OVC045 FM150000 VRB03KT
                       P6SM SCT020 OVC040 FM150700 00000KT P6SM
                       SCT012 OVC020 FM151200 00000KT P6SM OVC011=
201301141727 TAF KBFI 141727Z 1418/1518 14006KT P6SM OVC040 FM150000 VRB03KT
                       P6SM SCT020 OVC040 FM150700 00000KT P6SM
                       SCT012 OVC020 FM151200 00000KT P6SM OVC011=
201301141120 TAF KBFI 141120Z 1412/1512 15004KT P6SM OVC045 FM142000 14003KT
                       P6SM BKN040 OVC050 FM150600 VRB03KT P6SM
                       BKN025 OVC035 FM150900 VRB03KT P6SM BKN012
                       OVC020=
201301140520 TAF KBFI 140520Z 1406/1506 00000KT P6SM BKN035 OVC200 FM140900
                       VRB03KT P6SM OVC035 FM141200 12003KT P6SM
                       OVC030 FM142000 14003KT P6SM BKN035 OVC050
                       FM150300 VRB03KT P6SM BKN025 OVC035=
201301132336 TAF KBFI 132336Z 1400/1424 VRB03KT P6SM FEW035 SCT120 OVC200 FM140900
                       VRB03KT P6SM SCT035 BKN080 OVC200 FM141200
                       15005KT P6SM BKN035 BKN080 OVC200 FM142000
                       20005KT P6SM SCT035 BKN060 BKN200=
201301132103 TAF AMD KBFI 132103Z 1321/1418 VRB03KT P6SM FEW030 SCT120 OVC200
                       FM140900 VRB03KT P6SM VCFG FEW008 SCT090
                       BKN200 FM141200 16005KT P6SM VCFG SCT008
                       BKN090 BKN200=
201301131745 TAF KBFI 131745Z 1318/1418 VRB03KT P6SM FEW035 BKN200 FM140900
                       VRB03KT P6SM VCFG FEW008 SCT090 BKN200 FM141200
                       16005KT P6SM VCFG SCT008 BKN090 BKN200=
201301131120 TAF KBFI 131120Z 1312/1412 13004KT P6SM BKN030 BKN200
                      TEMPO 1314/1318 SCT030 BKN200 FM131800 VRB03KT
                       P6SM SCT030 SCT200=
201301130520 TAF KBFI 130520Z 1306/1406 00000KT P6SM SCT030 SCT200
                      TEMPO 1306/1309 BKN030 BKN200 FM130900 00000KT
                       P6SM VCFG SCT200 FM131800 VRB03KT P6SM SCT200
                       FM140400 00000KT P6SM SCT200=
201301130203 TAF AMD KBFI 130203Z 1302/1324 00000KT P6SM SCT030 SCT200
                      TEMPO 1302/1305 BKN030 BKN200 FM130900 VRB03KT
                       P6SM VCFG BKN200 FM131900 VRB03KT P6SM BKN200=
201301122328 TAF KBFI 122328Z 1300/1324 35006KT P6SM FEW030 SCT200 FM130900
                       VRB03KT P6SM VCFG BKN200 FM131900 VRB03KT
                       P6SM BKN200=
201301122213 TAF AMD KBFI 122213Z 1222/1318 VRB03KT P6SM SCT030
                      TEMPO 1222/1224 BKN030 FM130000 VRB03KT P6SM
                       SCT200 FM130900 VRB03KT P6SM BCFG SCT200=
201301121742 TAF KBFI 121742Z 1218/1318 VRB03KT P6SM VCFG SCT006 SCT040 SCT150
                       TEMPO 1218/1219 BKN006 BKN040 BKN150 FM122000
                       VRB03KT P6SM SCT200 FM130900 VRB03KT P6SM
                       BCFG SCT200=
201301121702 TAF AMD KBFI 121702Z 1217/1312 00000KT P6SM VCFG BKN006 BKN150
                       TEMPO 1217/1218 4SM BR FM121900 VRB03KT
                       P6SM SCT200=
201301121614 TAF AMD KBFI 121614Z 1216/1312 00000KT 5SM BR BKN002 OVC150
                      TEMPO 1216/1218 1SM BR FM121900 VRB03KT P6SM
                       SCT200=
201301121456 TAF AMD KBFI 121456Z 1215/1312 00000KT 1SM BR OVC003 FM121600 00000KT
                       P6SM BKN200 FM121800 VRB03KT P6SM SCT200=
201301121120 TAF KBFI 121120Z 1212/1312 00000KT P6SM BKN200 FM121700 VRB03KT
                       P6SM SCT200=
201301120530 TAF KBFI 120530Z 1206/1306 00000KT P6SM BKN200 FM121800 VRB03KT
                       P6SM SCT200=
201301112333 TAF KBFI 112333Z 1200/1224 VRB03KT P6SM SCT200 FM120900 VRB03KT
                       P6SM VCFG BKN200 FM121800 VRB03KT P6SM SCT200=
201301111728 TAF KBFI 111728Z 1118/1218 VRB03KT 6SM BCFG SCT009 FM112000 VRB03KT
                       P6SM SCT200=
201301111642 TAF AMD KBFI 111642Z 1117/1212 11005KT 5SM BR SCT004
                      TEMPO 1117/1118 BKN004 FM111800 35003KT P6SM
                       SCT250 FM112000 VRB03KT P6SM SCT250=
201301111527 TAF AMD KBFI 111527Z 1115/1212 11005KT 3SM BR BKN002
                      TEMPO 1115/1117 1/2SM FZFG VV001 FM111800
                       35003KT P6SM SCT250 FM112000 VRB03KT P6SM
                       SCT250=
201301111405 TAF AMD KBFI 111405Z 1114/1212 13003KT 1/2SM FZFG VV001
                      TEMPO 1114/1116 3SM BR SCT001 FM111600 35003KT
                       P6SM SCT250 FM112000 VRB03KT P6SM SCT250=
201301111142 TAF KBFI 111142Z 1112/1212 00000KT P6SM SCT002
                      TEMPO 1112/1114 1SM BR BKN002 FM111400 35003KT
                       P6SM SCT250 FM112000 VRB03KT P6SM SCT250=
201301110743 TAF AMD KBFI 110743Z 1108/1206 00000KT 3SM BCFG BKN005
                      TEMPO 1108/1112 1/2SM FZFG VV003 FM111200
                       00000KT 4SM BR SCT005 SCT070 FM111600 VRB02KT
                       P6SM SCT012 SCT250 FM111800 VRB03KT P6SM
                       SCT250=
201301110525 TAF KBFI 110525Z 1106/1206 00000KT P6SM SCT030 SCT070 FM110900
                       00000KT P6SM SCT070 FM111300 VRB02KT P6SM
                       SCT012 SCT250 FM111800 VRB03KT P6SM SCT250=
201301102333 TAF KBFI 102333Z 1100/1124 29005KT P6SM VCSH SCT017 BKN060 OVC070
                       FM110500 31005KT P6SM BKN060 FM110600 01006KT
                       P6SM SCT250=
201301101730 TAF KBFI 101730Z 1018/1118 VRB03KT P6SM OVC007
                      TEMPO 1018/1022 4SM -RA SCT008 OVC016 FM102200
                       01003KT P6SM BKN020 OVC040 FM110600 01004KT
                       P6SM OVC020 FM111200 33007KT P6SM BKN200=
201301101125 TAF KBFI 101125Z 1012/1112 15004KT P6SM BKN020 OVC030 FM101700
                       VRB03KT P6SM BKN025 OVC040 FM102000 30005KT
                       P6SM BKN030 BKN050 FM102200 35005KT P6SM
                       SCT030 BKN050 FM110100 36005KT P6SM SCT060=
201301100543 TAF KBFI 100543Z 1006/1106 15007KT P6SM VCSH SCT018 BKN025
                      TEMPO 1006/1010 BKN018 OVC025 FM101000 15006KT
                       P6SM OVC018 FM101900 VRB03KT P6SM SCT025
                       BKN035 OVC050
                      TEMPO 1019/1021 BKN025 OVC035 FM102100 30005KT
                       P6SM BKN040 BKN050 FM110300 36005KT P6SM
                       SCT050=
201301092339 TAF KBFI 092339Z 1000/1024 15007KT P6SM VCSH BKN018 OVC120
                      TEMPO 1000/1004 SCT020 BKN060 FM100400 17006KT
                       P6SM SCT035 BKN060 FM101800 VRB03KT P6SM
                       SCT020 BKN035 OVC060 FM102300 32006KT P6SM
                       BKN120=
201301091728 TAF KBFI 091728Z 0918/1018 13011KT P6SM -SHRA SCT012 OVC019
                      TEMPO 0918/0922 4SM SHRA BR BKN012 OVC016
                       FM092200 18008KT P6SM VCSH SCT018 BKN028
                       OVC045 FM100400 17006KT P6SM SCT035 BKN060=
201301091138 TAF KBFI 091138Z 0912/1012 22008KT 5SM -RA SCT025 OVC040
                      TEMPO 0912/0916 BKN025 OVC040 FM091600 18008KT
                       P6SM -SHRA SCT010 BKN015 OVC025 FM092100
                       18008KT P6SM SCT018 BKN028 OVC045 FM100400
                       17006KT P6SM SCT035 BKN060=
201301090541 TAF KBFI 090541Z 0906/1006 18014G25KT P6SM -RA SCT015 OVC025 WS020/21045KT
                       FM091400 18010KT P6SM -SHRA SCT010 BKN015
                       OVC025 FM092000 18010KT P6SM SCT018 BKN028
                       OVC045 FM100400 17006KT P6SM SCT035 BKN060=
201301090342 TAF AMD KBFI 090342Z 0904/0924 18014G25KT P6SM -RA OVC022 WS010/21045KT
                       FM090800 18012G20KT P6SM -RA OVC022 FM091500
                       18010KT 6SM -RA OVC014 FM092000 18014G22KT
                       P6SM -RA OVC014=
201301082336 TAF KBFI 082336Z 0900/0924 18014G25KT P6SM -RA OVC014
                      TEMPO 0900/0902 3SM -RA BR FM091500 18010KT
                       6SM -RA OVC014 FM092000 18014G22KT P6SM
                       -RA OVC014=
201301082100 TAF AMD KBFI 082100Z 0821/0918 15008KT 5SM -RA BR OVC014
                      TEMPO 0821/0823 1SM -RA BR BKN006 FM082300
                       18014G25KT P6SM -RA OVC014 FM091500 18010KT
                       6SM -RA OVC014=
201301082007 TAF AMD KBFI 082007Z 0820/0918 15008KT 5SM -RA BR OVC014
                      TEMPO 0820/0822 2SM -RA BR BKN006 FM082300
                       18014G25KT P6SM -RA OVC014 FM091500 18010KT
                       6SM -RA OVC014=
201301081900 TAF AMD KBFI 081900Z 0819/0918 15008KT 4SM -RA BKN016 OVC025
                      TEMPO 0819/0820 2SM -RA BR BKN008 FM082000
                       15008KT 5SM -RA BR OVC014 FM082300 18014G25KT
                       P6SM -RA OVC014 FM091500 18010KT 6SM -RA
                       OVC014=
201301081759 TAF AMD KBFI 081759Z 0818/0918 15008KT 4SM -RA BKN016 OVC025 FM082000
                       15008KT 5SM -RA BR OVC014 FM082300 18014G25KT
                       P6SM -RA OVC014 FM091500 18010KT 6SM -RA
                       OVC014=
201301081731 TAF KBFI 081731Z 0818/0918 15008KT P6SM -RA BKN016 OVC025 FM082000
                       15008KT 5SM -RA BR OVC014 FM082300 18014G25KT
                       P6SM -RA OVC014 FM091500 18010KT 6SM -RA
                       OVC014=
201301081415 TAF AMD KBFI 081415Z 0814/0912 14006KT P6SM -RA SCT013 OVC030
                      TEMPO 0814/0818 3SM RA BR BKN013 BKN023 OVC030
                       FM081800 15008KT P6SM -RA BKN016 OVC025
                       FM082000 15008KT 5SM -RA BR OVC014 FM082300
                       18014G25KT P6SM -RA OVC014=
201301081152 TAF KBFI 081152Z 0812/0912 15008KT P6SM SCT025 OVC050
                      TEMPO 0812/0814 BKN025 OVC050 FM081400 15008KT
                       P6SM -RA SCT025 OVC040 FM081700 15008KT
                       P6SM -RA BKN016 OVC025 FM082000 15008KT
                       5SM -RA BR OVC014 FM082300 18014G25KT P6SM
                       -RA OVC014=
201301080542 TAF KBFI 080542Z 0806/0906 16010KT P6SM SCT040 OVC100 FM081000
                       15006KT P6SM -RA SCT025 OVC040 FM081300
                       15006KT P6SM -RA BKN016 OVC025 FM081600
                       15006KT 5SM -RA BR OVC014 FM082100 18012G25KT
                       5SM -RA BR OVC014=
201301072323 TAF KBFI 072323Z 0800/0824 21012G24KT P6SM BKN019 BKN200 FM080200
                       18010KT P6SM SCT025 BKN040 BKN060 FM080900
                       16006KT P6SM -RA BKN020 OVC030 FM081600
                       15006KT 5SM -RA BR OVC014 FM082100 18012G25KT
                       5SM -RA BR OVC014=
201301072140 TAF AMD KBFI 072140Z 0722/0818 19017G28KT P6SM VCSH SCT011 BKN017
                       OVC023 FM080100 18012KT P6SM SCT025 BKN040
                       BKN060 FM080900 16006KT P6SM -RA BKN020
                       OVC030 FM081600 15006KT 5SM -RA BR OVC014=
201301071723 TAF KBFI 071723Z 0718/0818 17017G26KT P6SM VCSH BKN015 OVC025 FM072100
                       17012G22KT P6SM VCSH SCT020 BKN030 OVC050
                       FM080100 19008KT P6SM SCT025 BKN040 BKN060
                       FM080900 16006KT P6SM -RA BKN020 OVC030
                       FM081600 15006KT 5SM -RA BR OVC014=
201301071140 TAF KBFI 071140Z 0712/0812 14006KT P6SM SCT015 OVC025 FM071700
                       18012G20KT P6SM SCT018 BKN028 BKN045 FM080100
                       19008KT P6SM SCT025 BKN040 BKN060 FM080900
                       16006KT P6SM -RA BKN020 OVC030=
201301070540 TAF KBFI 070540Z 0706/0806 14006KT P6SM -RA SCT020 OVC030 FM070800
                       14006KT P6SM -RA SCT012 BKN020 OVC030 FM071800
                       19013G22KT P6SM SCT020 BKN035 BKN050 FM080100
                       19008KT P6SM BKN035 BKN050=
201301062322 TAF KBFI 062322Z 0700/0724 16004KT P6SM OVC040 FM070300 14006KT
                       P6SM -RA SCT025 OVC040 FM070800 14006KT
                       P6SM -RA SCT012 BKN020 OVC030 FM071800 19013G22KT
                       P6SM SCT020 BKN035 BKN050=
201301061727 TAF KBFI 061727Z 0618/0718 18007KT P6SM SCT028 BKN040 OVC100
                      TEMPO 0618/0620 -SHRA BKN028 OVC040 FM062000
                       16006KT P6SM SCT035 OVC060 FM070300 14006KT
                       P6SM -RA SCT025 OVC040 FM070800 14006KT
                       P6SM -RA SCT012 BKN020 OVC030=
201301061140 TAF KBFI 061140Z 0612/0712 16006KT P6SM BKN035 OVC060 FM061900
                       16006KT P6SM SCT035 OVC060 FM070300 14006KT
                       P6SM -RA SCT025 OVC040 FM070800 14006KT
                       P6SM -RA SCT012 BKN020 OVC030=
201301060538 TAF KBFI 060538Z 0606/0706 18006KT P6SM BKN015 OVC025
                      TEMPO 0606/0608 5SM -RA FM061600 16006KT
                       P6SM BKN035 OVC060 FM061900 16006KT P6SM
                       SCT035 OVC050 FM070300 14006KT P6SM -RA
                       BKN025 OVC035=
201301060314 TAF AMD KBFI 060314Z 0603/0624 15006KT P6SM -RA SCT030 OVC050 FM060900
                       17008KT P6SM BKN015 OVC025 FM061900 16006KT
                       P6SM BKN035 OVC060=
201301052321 TAF KBFI 052321Z 0600/0624 16003KT P6SM FEW050 OVC100 FM060300
                       15006KT P6SM -RA BKN022 OVC045 FM060900
                       17008KT P6SM BKN015 OVC025 FM061900 16006KT
                       P6SM BKN035 OVC060=
201301051720 TAF KBFI 051720Z 0518/0618 13004KT P6SM BKN070 OVC090
                      TEMPO 0518/0521 -RA OVC050 FM052100 12005KT
                       P6SM -RA OVC040 FM060200 15006KT P6SM -RA
                       OVC025 FM061000 17008KT P6SM BKN015 OVC025=
201301051140 TAF KBFI 051140Z 0512/0612 VRB03KT P6SM OVC100 FM051700 VRB03KT
                       P6SM OVC070 FM052100 VRB03KT P6SM -RA OVC040
                       FM060200 15006KT P6SM -RA OVC025 FM061000
                       17008KT P6SM BKN015 OVC025=
201301050536 TAF KBFI 050536Z 0506/0606 VRB03KT P6SM BKN100 OVC200 FM051300
                       VRB03KT P6SM OVC070 FM051800 VRB03KT P6SM
                       -RA OVC040 FM060200 15006KT P6SM -RA OVC025=
201301050306 TAF AMD KBFI 050306Z 0503/0524 VRB03KT P6SM BKN120 OVC200 FM051300
                       00000KT P6SM OVC070 FM051800 00000KT P6SM
                       -RA BKN035 OVC070=
201301042321 TAF KBFI 042321Z 0500/0524 11006KT P6SM SCT025
                      TEMPO 0500/0504 BKN025 FM050600 00000KT P6SM
                       OVC090 FM051600 00000KT P6SM -RA BKN035
                       OVC070=
201301041721 TAF KBFI 041721Z 0418/0518 15004KT P6SM SCT007 OVC020 FM042000
                       17004KT P6SM OVC025 FM050000 VRB02KT P6SM
                       SCT030 BKN100 FM050600 00000KT P6SM OVC090
                       FM051600 00000KT P6SM -RA BKN035 OVC070=
201301041120 TAF KBFI 041120Z 0412/0512 12004KT 5SM BR SCT008 OVC015
                      TEMPO 0412/0414 3SM -RA BR OVC008 FM041400
                       15005KT P6SM VCSH SCT009 OVC015
                      TEMPO 0414/0416 3SM BR OVC009 FM041900 16006KT
                       P6SM BKN025 FM050000 VRB04KT P6SM SCT030
                       OVC100=
201301040939 TAF AMD KBFI 040939Z 0410/0506 12004KT 5SM BR SCT009 OVC015
                      TEMPO 0410/0414 2SM -RA BR OVC009 FM041400
                       15005KT P6SM VCSH OVC018
                      TEMPO 0414/0416 3SM BR FM042000 16006KT P6SM
                       BKN025 FM050000 VRB04KT P6SM SCT030 BKN070=
201301040813 TAF AMD KBFI 040813Z 0408/0506 12004KT P6SM -RA OVC025
                      TEMPO 0408/0412 3SM BR OVC018 FM041200 15005KT
                       P6SM VCSH OVC018
                      TEMPO 0412/0415 2SM -RA BR FM042000 16006KT
                       P6SM BKN025 FM050000 VRB04KT P6SM SCT030
                       BKN070=
201301040544 TAF KBFI 040544Z 0406/0506 14006KT P6SM -RA OVC035 FM041000 16006KT
                       P6SM VCSH OVC028
                      TEMPO 0410/0414 -RA OVC022 FM042000 17006KT
                       P6SM BKN025 FM050000 VRB04KT P6SM SCT030
                       BKN070=
201301032330 TAF KBFI 032330Z 0400/0424 17006KT P6SM BKN080 OVC200 FM040200
                       12006KT P6SM -RA OVC040 FM040600 14006KT
                       P6SM -RA OVC025 FM041600 14006KT P6SM OVC018
                       TEMPO 0416/0420 -RA=
201301031738 TAF KBFI 031738Z 0318/0418 14005KT P6SM SKC FM032300 13006KT P6SM
                       SCT120 OVC250 FM040200 12006KT P6SM -RA
                       OVC040 FM040600 14006KT P6SM -RA OVC025
                       FM041600 14006KT P6SM OVC018
                      TEMPO 0416/0418 -RA=
201301031143 TAF KBFI 031143Z 0312/0412 11005KT P6SM SKC FM031600 11004KT P6SM
                       SCT250 FM032200 14005KT P6SM OVC060 FM040200
                       14006KT P6SM -RA OVC045 FM040400 15006KT
                       P6SM -RA OVC030 FM040900 18008KT P6SM -SHRA
                       BKN030 BKN045=
201301030520 TAF KBFI 030520Z 0306/0406 13007KT P6SM FEW250 FM031000 11005KT
                       P6SM SKC FM031600 11004KT P6SM SCT250 FM032200
                       14005KT P6SM OVC060 FM040200 14006KT P6SM
                       -RA OVC045 FM040400 15006KT P6SM -RA OVC030=
201301022325 TAF KBFI 022325Z 0300/0324 17006KT P6SM FEW250 FM031000 15003KT
                       P6SM SKC
                      TEMPO 0313/0316 4SM BR SCT004 FM031600 VRB03KT
                       P6SM SCT250 FM032200 14004KT P6SM OVC060=
201301021735 TAF KBFI 021735Z 0218/0318 00000KT P6SM SKC FM031000 15003KT P6SM
                       SKC
                      TEMPO 0312/0316 3SM BR SCT002=
201301021120 TAF KBFI 021120Z 0212/0312 00000KT P6SM SCT250 FM021800 VRB04KT
                       P6SM SKC=
201301020531 TAF KBFI 020531Z 0206/0306 VRB03KT P6SM BKN250 FM021200 00000KT
                       P6SM SCT004 SCT250
                      TEMPO 0213/0216 BKN004 FM021800 VRB02KT P6SM
                       SKC=
201301012330 TAF KBFI 012330Z 0200/0224 02003KT P6SM BKN250 FM021200 00000KT
                       P6SM SCT004
                      TEMPO 0213/0216 BKN004 FM021800 VRB02KT P6SM
                       SKC=
201301011735 TAF KBFI 011735Z 0118/0218 00000KT P6SM SKC FM020900 VRB03KT P6SM
                       BCFG SCT010=
201301011126 TAF KBFI 011126Z 0112/0212 VRB03KT P6SM SCT018
                      TEMPO 0113/0117 6SM BR BKN013 FM011800 02003KT
                       P6SM SCT250 FM020900 VRB03KT P6SM BCFG SCT010=
201301010903 TAF AMD KBFI 010903Z 0109/0206 10003KT P6SM BKN018
                      TEMPO 0109/0112 SCT018 FM011800 02003KT P6SM
                       SCT250=
201301010536 TAF KBFI 010536Z 0106/0206 06005KT P6SM FEW015
                      TEMPO 0106/0110 BKN010 FM011000 03003KT P6SM
                       OVC009 FM011800 02003KT P6SM SCT250=