##########################################################
# Query made at 02/17/2025 02:24:24 UTC
# Time interval: from 03/01/2014 00:00  to 03/31/2014 23:59  UTC
##########################################################

##########################################################
# KBFI, Seattle, Seattle Boeing Field (United States)
# WMO index: -----. WIGOS ID: Unknown
# Latitude 47-32-45N. Longitude 122-18-49W. Altitude 5 m.
##########################################################

###################################
#  METAR/SPECI from KBFI
###################################
201403312353 METAR KBFI 312353Z 32011G18KT 10SM SCT075 BKN200 16/03 A2973 RMK AO2 SLP068 T01560033 10156 20100 56019=
201403312253 METAR KBFI 312253Z 32010KT 10SM FEW040 BKN200 16/03 A2974 RMK AO2 SLP071 T01560033=
201403312153 METAR KBFI 312153Z 32008G16KT 10SM FEW040 BKN200 15/04 A2976 RMK AO2 SLP078 T01500039=
201403312053 METAR KBFI 312053Z 30008KT 10SM BKN200 15/04 A2979 RMK AO2 SLP087 T01500039 58026=
201403311953 METAR KBFI 311953Z VRB05KT 10SM BKN200 13/04 A2982 RMK AO2 SLP099 T01280044=
201403311853 METAR KBFI 311853Z 30007KT 10SM CLR 11/03 A2985 RMK AO2 SLP108 T01060033=
201403311753 METAR KBFI 311753Z 31006KT 10SM CLR 11/03 A2987 RMK AO2 SLP113 T01060028 10106 20033 58013=
201403311653 METAR KBFI 311653Z COR 36008KT 10SM BKN240 08/03 A2988 RMK AO2 SLP119 T00830028=
201403311553 METAR KBFI 311553Z 03003KT 10SM FEW003 BKN200 07/02 A2990 RMK AO2 SLP123 T00670022=
201403311453 METAR KBFI 311453Z 00000KT 10SM SCT003 04/02 A2991 RMK AO2 SLP127 T00440022 56012=
201403311353 METAR KBFI 311353Z 15004KT 10SM SCT004 03/02 A2991 RMK AO2 SLP129 T00330017=
201403311332 SPECI KBFI 311332Z 00000KT 10SM SCT004 03/01 A2991 RMK AO2=
201403311253 METAR KBFI 311253Z 00000KT 10SM CLR 04/02 A2992 RMK AO2 SLP131 T00440017=
201403311153 METAR KBFI 311153Z 00000KT 10SM CLR 04/02 A2994 RMK AO2 SLP139 70001 T00390017 10083 20039 57013=
201403311053 METAR KBFI 311053Z 00000KT 10SM CLR 04/02 A2995 RMK AO2 SLP143 T00440022=
201403310953 METAR KBFI 310953Z 00000KT 10SM CLR 05/02 A2997 RMK AO2 SLP148 T00500022=
201403310853 METAR KBFI 310853Z 00000KT 10SM CLR 06/03 A2998 RMK AO2 SLP152 T00560028 56007=
201403310753 METAR KBFI 310753Z 00000KT 10SM CLR 06/03 A2998 RMK AO2 SLP153 T00610028 401330061=
201403310653 METAR KBFI 310653Z 11005KT 10SM CLR 07/03 A3000 RMK AO2 SLP157 T00720033=
201403310553 METAR KBFI 310553Z 00000KT 10SM CLR 08/03 A3000 RMK AO2 SLP159 60001 T00830033 10117 20072 50004=
201403310453 METAR KBFI 310453Z 12004KT 10SM CLR 08/03 A3000 RMK AO2 SLP160 T00830033=
201403310353 METAR KBFI 310353Z 14006KT 10SM FEW100 08/03 A3000 RMK AO2 SLP158 T00830033=
201403310253 METAR KBFI 310253Z 15006KT 10SM SCT080 BKN100 10/03 A2999 RMK AO2 SLP154 60001 T01000033 53006=
201403310153 METAR KBFI 310153Z 20006KT 10SM FEW070 SCT095 BKN120 11/03 A2998 RMK AO2 SLP152 T01060033=
201403310053 METAR KBFI 310053Z COR 18005KT 10SM FEW036 OVC075 11/04 A2997 RMK AO2 RAB18E43 SLP149 P0001 T01060044=
201403302353 METAR KBFI 302353Z 18012KT 10SM SCT037 BKN090 12/02 A2997 RMK AO2 SLP148 T01170022 10133 20100 53000=
201403302253 METAR KBFI 302253Z 17012G18KT 10SM SCT035 BKN095 12/03 A2997 RMK AO2 SLP148 T01170033=
201403302153 METAR KBFI 302153Z 17011G19KT 10SM SCT035 BKN080 13/04 A2997 RMK AO2 SLP148 T01280044=
201403302053 METAR KBFI 302053Z 20011G19KT 170V230 10SM FEW035 BKN070 12/03 A2997 RMK AO2 SLP148 T01170033 51005=
201403301953 METAR KBFI 301953Z 22008G19KT 10SM BKN034 12/03 A2997 RMK AO2 SLP148 T01170033=
201403301853 METAR KBFI 301853Z 19013G17KT 10SM SCT026 BKN050 11/03 A2996 RMK AO2 SLP146 T01060033=
201403301753 METAR KBFI 301753Z COR 19011G19KT 10SM SCT026 BKN090 11/04 A2995 RMK AO2 SLP143 T01110044 10111 20072 51012 TSNO=
201403301653 METAR KBFI 301653Z 17014G20KT 10SM SCT023 BKN080 09/04 A2995 RMK AO2 SLP142 T00940039=
201403301553 METAR KBFI 301553Z 17012G20KT 10SM SCT030 OVC070 08/04 A2993 RMK AO2 SLP136 T00830039=
201403301453 METAR KBFI 301453Z 17012G18KT 10SM FEW015 OVC120 08/04 A2992 RMK AO2 SLP131 T00780039 53014=
201403301353 METAR KBFI 301353Z 16010KT 10SM SCT022 BKN110 07/04 A2990 RMK AO2 SLP126 T00720039=
201403301253 METAR KBFI 301253Z 17008KT 10SM BKN110 08/04 A2989 RMK AO2 SLP122 T00780039=
201403301153 METAR KBFI 301153Z 18011G17KT 10SM FEW020 BKN110 08/04 A2988 RMK AO2 SLP117 60001 70062 T00830044 10094 20083 53012=
201403301053 METAR KBFI 301053Z 19010G19KT 10SM FEW110 09/05 A2986 RMK AO2 SLP110 P0001 T00890050=
201403300953 METAR KBFI 300953Z 17010G16KT 10SM FEW017 BKN110 09/05 A2985 RMK AO2 SLP108 T00890050=
201403300900 SPECI KBFI 300900Z 17010KT 10SM FEW022 09/06 A2985 RMK AO2=
201403300853 METAR KBFI 300853Z 17012KT 10SM BKN027 09/06 A2984 RMK AO2 SLP106 T00890056 51010=
201403300831 SPECI KBFI 300831Z 16010KT 10SM BKN027 09/06 A2984 RMK AO2=
201403300824 SPECI KBFI 300824Z 16011G16KT 10SM SCT027 09/06 A2984 RMK AO2=
201403300753 METAR KBFI 300753Z 17012G18KT 10SM BKN021 OVC027 09/06 A2984 RMK AO2 SLP103 T00890056 401280072=
201403300653 METAR KBFI 300653Z 17010KT 10SM BKN023 09/06 A2983 RMK AO2 SLP100 T00940061=
201403300634 SPECI KBFI 300634Z 16013G19KT 10SM SCT024 09/06 A2982 RMK AO2=
201403300553 METAR KBFI 300553Z 16010G15KT 10SM BKN020 OVC027 09/06 A2981 RMK AO2 RAE30 SLP095 P0000 60022 T00940061 10117 20089 53010=
201403300500 SPECI KBFI 300500Z 17009G18KT 10SM FEW021 SCT027 OVC037 09/06 A2981 RMK AO2 RAE0454=
201403300453 METAR KBFI 300453Z 17012G18KT 10SM -RA FEW021 BKN027 OVC037 09/06 A2980 RMK AO2 SLP091 P0006 T00940061=
201403300353 METAR KBFI 300353Z 16009KT 6SM -RA FEW021 BKN027 OVC037 09/07 A2979 RMK AO2 RAE10B37 SLP089 P0006 T00940067=
201403300253 METAR KBFI 300253Z 18008KT 7SM -RA BKN025 OVC041 09/06 A2978 RMK AO2 SLP085 P0009 60010 T00940061 53005=
201403300153 METAR KBFI 300153Z 18007KT 9SM -RA BKN050 BKN075 11/06 A2977 RMK AO2 RAB47 SLP080 P0000 T01110056=
201403300053 METAR KBFI 300053Z 18008KT 10SM SCT046 BKN060 BKN075 12/06 A2976 RMK AO2 RAE02B24E40 SLP078 P0001 T01170056=
201403292353 METAR KBFI 292353Z 19004KT 10SM -RA FEW036 BKN046 BKN070 11/07 A2977 RMK AO2 RAB19 SLP080 P0002 60013 T01110067 10128 20089 58003=
201403292253 METAR KBFI 292253Z AUTO 17011G19KT 10SM SCT029 BKN036 OVC046 12/05 A2978 RMK AO2 SLP083 T01220050 TSNO=
201403292153 METAR KBFI 292153Z 17010KT 10SM FEW018 SCT028 BKN034 12/07 A2978 RMK AO2 SLP084 T01170072=
201403292053 METAR KBFI 292053Z 17009KT 10SM FEW022 OVC030 11/07 A2978 RMK AO2 RAB00E52 SLP083 P0002 60011 T01060067 51007=
201403291953 METAR KBFI 291953Z 17014G23KT 10SM BKN048 BKN060 10/05 A2978 RMK AO2 RAE35 SLP083 P0001 T01000050=
201403291853 METAR KBFI 291853Z 16012G22KT 4SM -RA SCT020 OVC035 09/06 A2978 RMK AO2 RAB04 SLP082 P0008 T00890056=
201403291753 METAR KBFI 291753Z 16014G19KT 10SM SCT029 BKN110 10/06 A2976 RMK AO2 RAE02 SLP076 P0000 60026 T01000056 10100 20083 51010=
201403291653 METAR KBFI 291653Z 17013G25KT 10SM -RA OVC049 09/06 A2975 RMK AO2 SLP074 P0001 T00890056=
201403291653 SPECI KBFI 291653Z 17013G25KT 10SM -RA OVC049 09/06 A2975 RMK AO2 SLP074 P0001 T00890056=
201403291553 METAR KBFI 291553Z 16007KT 5SM -RA BKN038 OVC045 09/06 A2974 RMK AO2 SLP071 P0018 T00940061=
201403291453 METAR KBFI 291453Z 25003KT 5SM -RA OVC038 09/06 A2973 RMK AO2 RAB16 SLP065 P0007 60007 T00940061 53006=
201403291353 METAR KBFI 291353Z 14008KT 10SM FEW050 SCT075 BKN095 09/05 A2971 RMK AO2 RAB1254E03 SLP059 P0000 T00940050=
201403291253 METAR KBFI 291253Z 16008KT 10SM SCT050 BKN070 OVC080 09/06 A2970 RMK AO2 SLP058 T00890056=
201403291153 METAR KBFI 291153Z 16004KT 10SM SCT050 SCT080 BKN100 09/06 A2971 RMK AO2 RAE45 SLP059 P0002 60002 70052 T00890056 10100 20072 58005=
201403291053 METAR KBFI 291053Z 14008KT 10SM -RA BKN050 OVC065 09/06 A2971 RMK AO2 RAB50 SLP061 P0000 T00890056=
201403290953 METAR KBFI 290953Z 14006KT 10SM BKN070 OVC095 09/06 A2972 RMK AO2 SLP063 T00890056=
201403290853 METAR KBFI 290853Z 15006KT 10SM BKN050 BKN120 08/06 A2972 RMK AO2 SLP064 T00780056 58002=
201403290753 METAR KBFI 290753Z 14004KT 10SM CLR 07/06 A2973 RMK AO2 SLP066 T00720056 401330072=
201403290653 METAR KBFI 290653Z 14006KT 10SM FEW040 09/07 A2973 RMK AO2 SLP066 T00890067=
201403290553 METAR KBFI 290553Z 18006KT 10SM FEW040 10/06 A2973 RMK AO2 SLP066 60002 T01000061 10133 20100 51009=
201403290453 METAR KBFI 290453Z 16009KT 10SM BKN095 11/07 A2972 RMK AO2 SLP064 T01060072=
201403290353 METAR KBFI 290353Z 15006KT 10SM FEW040 SCT060 BKN085 11/07 A2972 RMK AO2 SLP063 T01110072=
201403290253 METAR KBFI 290253Z COR 18004KT 10SM SCT030 BKN042 11/07 A2970 RMK AO2 RAB0158E12 SLP057 P0000 60002 T01110067 50002=
201403290153 METAR KBFI 290153Z 18010G17KT 10SM FEW032 BKN070 OVC085 13/09 A2970 RMK AO2 RAE25 SLP057 P0001 T01280089=
201403290053 METAR KBFI 290053Z 15005KT 10SM -RA SCT028 SCT040 OVC049 12/09 A2970 RMK AO2 RAE05B29 SLP056 P0001 T01220094=
201403282353 METAR KBFI 282353Z 14005KT 10SM -RA BKN024 OVC050 12/09 A2969 RMK AO2 SLP055 P0004 60027 T01170089 10122 20100 55006=
201403282253 METAR KBFI 282253Z 14007KT 10SM -RA BKN027 OVC050 12/09 A2969 RMK AO2 SLP054 P0004 T01170089=
201403282153 METAR KBFI 282153Z 17006KT 10SM -RA BKN027 OVC050 11/08 A2970 RMK AO2 SLP058 P0003 T01110083=
201403282053 METAR KBFI 282053Z COR 14008KT 4SM -RA BKN025 OVC041 11/08 A2971 RMK AO2 SLP061 P0008 60016 T01110083 55013=
201403281953 METAR KBFI 281953Z 14011KT 10SM -RA SCT060 OVC070 12/08 A2971 RMK AO2 RAB38 SLP060 P0001 T01170083=
201403281853 METAR KBFI 281853Z 11007KT 10SM OVC055 11/07 A2972 RMK AO2 RAE46 SLP063 P0007 T01060072=
201403281753 METAR KBFI 281753Z 16004KT 10SM -RA OVC037 11/07 A2975 RMK AO2 RAE1654B47 SLP074 P0000 60021 T01060067 10106 20083 55003=
201403281653 METAR KBFI 281653Z 13006KT 10SM -RA OVC045 10/06 A2972 RMK AO2 RAE19B43 SLP063 P0000 T01000061=
201403281553 METAR KBFI 281553Z 12009KT 10SM -RA OVC037 09/06 A2974 RMK AO2 SLP070 P0004 T00890056=
201403281453 METAR KBFI 281453Z COR 13006KT 5SM -RA OVC035 08/06 A2976 RMK AO2 SLP077 P0009 60017 T00830061 56015=
201403281353 METAR KBFI 281353Z 13006KT 8SM -RA SCT036 OVC044 08/06 A2977 RMK AO2 SLP081 P0007 T00830061=
201403281253 METAR KBFI 281253Z 12005KT 10SM -RA OVC046 09/06 A2979 RMK AO2 RAB1159 SLP087 P0001 T00890056=
201403281153 METAR KBFI 281153Z 12004KT 10SM FEW040 SCT047 OVC060 09/05 A2981 RMK AO2 RAB20E29 SLP092 P0000 60001 70004 T00890050 10100 20089 56026=
201403281053 METAR KBFI 281053Z 13003KT 10SM OVC085 09/04 A2983 RMK AO2 SLP099 T00890044=
201403280953 METAR KBFI 280953Z 00000KT 10SM OVC050 09/06 A2985 RMK AO2 RAE0858 SLP109 P0000 T00940056=
201403280853 METAR KBFI 280853Z 13004KT 10SM -RA SCT040 BKN050 OVC070 09/06 A2988 RMK AO2 RAB09E18B47 SLP118 P0001 60001 T00940056 58003=
201403280753 METAR KBFI 280753Z 13005KT 10SM FEW037 OVC055 09/06 A2989 RMK AO2 SLP122 T00940061 401390072=
201403280653 METAR KBFI 280653Z 16004KT 10SM OVC046 10/06 A2990 RMK AO2 SLP124 T01000061=
201403280553 METAR KBFI 280553Z 15008KT 10SM BKN050 10/06 A2989 RMK AO2 SLP120 T01000056 10128 20100 51016=
201403280453 METAR KBFI 280453Z 17008KT 10SM FEW033 BKN046 11/06 A2988 RMK AO2 SLP117 T01060061=
201403280353 METAR KBFI 280353Z 17008KT 10SM SCT027 10/05 A2986 RMK AO2 SLP111 T01000050=
201403280253 METAR KBFI 280253Z 19007KT 10SM SCT049 11/04 A2984 RMK AO2 SLP104 T01110044 53010=
201403280153 METAR KBFI 280153Z 20008KT 10SM SCT029 12/06 A2983 RMK AO2 SLP100 T01220056=
201403280053 METAR KBFI 280053Z 18009G17KT 160V230 10SM FEW025 SCT050 13/06 A2982 RMK AO2 SLP097 T01280061=
201403272353 METAR KBFI 272353Z 18009G14KT 10SM FEW025 SCT049 BKN060 12/06 A2981 RMK AO2 RAB04E26 SLP095 P0001 60002 T01220061 10139 20094 53013=
201403272253 METAR KBFI 272253Z 19008KT 10SM FEW031 BKN046 OVC055 13/05 A2980 RMK AO2 SLP090 T01280050=
201403272153 METAR KBFI 272153Z 18008KT 10SM SCT045 BKN060 13/06 A2978 RMK AO2 RAB07E26 SLP084 P0001 T01330056=
201403272053 METAR KBFI 272053Z COR VRB04KT 10SM FEW028 SCT033 BKN070 12/06 A2977 RMK AO2 SLP082 T01220056 51013=
201403271953 METAR KBFI 271953Z 24007KT 10SM FEW022 BKN036 OVC075 11/06 A2977 RMK AO2 SLP081 T01110056=
201403271853 METAR KBFI 271853Z 18007KT 10SM FEW025 BKN034 BKN043 11/06 A2976 RMK AO2 SLP077 T01110061=
201403271753 METAR KBFI 271753Z 21006KT 10SM FEW008 BKN020 OVC032 10/05 A2974 RMK AO2 SLP069 60001 T01000050 10106 20083 51017=
201403271653 METAR KBFI 271653Z 15005KT 4SM BR BKN018 OVC027 09/06 A2971 RMK AO2 RAE49 SLP062 P0000 T00890061=
201403271607 SPECI KBFI 271607Z 00000KT 4SM -RA BR SCT010 BKN020 OVC027 09/06 A2969 RMK AO2 P0000=
201403271559 SPECI KBFI 271559Z 00000KT 6SM -RA BR SCT009 BKN014 OVC027 09/06 A2969 RMK AO2 P0000=
201403271553 METAR KBFI 271553Z 14003KT 4SM -RA BR SCT010 BKN020 OVC027 09/06 A2969 RMK AO2 RAB40 SLP052 P0000 T00890061=
201403271501 SPECI KBFI 271501Z 00000KT 10SM OVC029 09/06 A2967 RMK AO2=
201403271453 METAR KBFI 271453Z 00000KT 10SM OVC031 09/06 A2967 RMK AO2 SLP045 60001 T00890061 53016=
201403271353 METAR KBFI 271353Z 19003KT 10SM OVC031 08/06 A2965 RMK AO2 RAB28E38 SLP038 P0000 T00830056=
201403271253 METAR KBFI 271253Z 00000KT 10SM OVC037 08/06 A2963 RMK AO2 RAE1158 SLP032 P0001 T00830056=
201403271153 METAR KBFI 271153Z 14004KT 10SM -RA OVC039 08/06 A2962 RMK AO2 RAB36 SLP029 P0000 60000 70005 T00830056 10089 20072 53009=
201403271053 METAR KBFI 271053Z 14003KT 10SM OVC039 08/06 A2961 RMK AO2 SLP025 T00780056=
201403270953 METAR KBFI 270953Z 00000KT 10SM OVC045 08/05 A2960 RMK AO2 SLP023 T00780050=
201403270853 METAR KBFI 270853Z 12004KT 10SM OVC041 08/06 A2959 RMK AO2 RAE0758 SLP020 P0000 60000 T00830056 51008=
201403270753 METAR KBFI 270753Z 00000KT 10SM -RA BKN047 BKN060 09/05 A2958 RMK AO2 RAB45 SLP017 P0000 T00890050 401220050=
201403270653 METAR KBFI 270653Z 14003KT 10SM BKN042 09/06 A2958 RMK AO2 SLP017 T00890056=
201403270553 METAR KBFI 270553Z 14004KT 10SM FEW065 BKN100 08/05 A2957 RMK AO2 SLP012 60003 T00780050 10117 20078 51013=
201403270453 METAR KBFI 270453Z 16006KT 10SM FEW065 BKN120 09/05 A2956 RMK AO2 SLP009 T00890050=
201403270353 METAR KBFI 270353Z 16006KT 10SM FEW034 BKN075 OVC095 09/06 A2955 RMK AO2 SLP006 T00940061=
201403270253 METAR KBFI 270253Z 16007KT 10SM FEW023 BKN065 OVC090 10/07 A2953 RMK AO2 RAB39E51 SLP999 P0000 60003 T01000067 55002=
201403270153 METAR KBFI 270153Z 12006KT 10SM BKN039 OVC070 11/07 A2953 RMK AO2 SLP998 T01060072=
201403270053 METAR KBFI 270053Z 17004KT 10SM BKN043 OVC055 10/06 A2953 RMK AO2 RAE40 SLP999 P0003 T01000061=
201403262353 METAR KBFI 262353Z AUTO 19008KT 10SM -RA FEW025 BKN030 OVC040 12/06 A2954 RMK AO2 RAB04E23B46 SLP001 P0000 60001 T01170056 10122 20094 55004 TSNO=
201403262253 METAR KBFI 262253Z AUTO 15004KT 10SM FEW048 OVC060 12/06 A2953 RMK AO2 RAB00E10B39E51 SLP001 P0000 T01170061 TSNO=
201403262153 METAR KBFI 262153Z 17007KT 10SM FEW030 BKN047 OVC055 12/05 A2954 RMK AO2 RAB16E33 SLP003 P0000 T01220050=
201403262053 METAR KBFI 262053Z 00000KT 10SM BKN047 OVC055 12/05 A2955 RMK AO2 SLP005 60001 T01220050 58015=
201403261953 METAR KBFI 261953Z 00000KT 10SM BKN045 OVC050 11/05 A2956 RMK AO2 SLP011 T01110050=
201403261853 METAR KBFI 261853Z 00000KT 10SM BKN048 OVC060 10/06 A2958 RMK AO2 RAE52 SLP016 P0001 T01000061=
201403261753 METAR KBFI 261753Z 00000KT 10SM -RA BKN045 OVC055 09/06 A2959 RMK AO2 SLP020 P0001 60001 T00940056 10094 20050 53002=
201403261653 METAR KBFI 261653Z 16005KT 10SM -RA FEW027 BKN034 OVC055 09/05 A2959 RMK AO2 RAB30 SLP020 P0000 T00940050=
201403261553 METAR KBFI 261553Z 00000KT 10SM BKN049 09/04 A2958 RMK AO2 SLP016 T00890044=
201403261453 METAR KBFI 261453Z 00000KT 10SM CLR 07/04 A2959 RMK AO2 SLP018 T00670044 56008=
201403261353 METAR KBFI 261353Z 17003KT 10SM SCT100 OVC200 06/03 A2959 RMK AO2 SLP019 T00560028=
201403261253 METAR KBFI 261253Z 14003KT 10SM FEW050 07/04 A2960 RMK AO2 SLP021 T00670039=
201403261153 METAR KBFI 261153Z 00000KT 10SM SCT045 08/04 A2961 RMK AO2 RAB04E32 SLP026 P0001 60001 70023 T00780044 10100 20078 58008=
201403261053 METAR KBFI 261053Z 16006KT 10SM SCT060 08/04 A2962 RMK AO2 SLP029 T00830039=
201403260953 METAR KBFI 260953Z 20003KT 10SM SCT037 BKN046 09/04 A2963 RMK AO2 SLP034 T00890044=
201403260853 METAR KBFI 260853Z 00000KT 10SM FEW026 BKN046 09/06 A2963 RMK AO2 RAB06E15 SLP034 P0000 60000 T00890056 58004=
201403260753 METAR KBFI 260753Z 15005KT 10SM BKN038 OVC055 08/06 A2963 RMK AO2 SLP034 T00830056 401500083=
201403260653 METAR KBFI 260653Z 13006KT 10SM SCT034 OVC046 08/05 A2965 RMK AO2 RAB03E12 SLP040 P0000 T00830050=
201403260553 METAR KBFI 260553Z 18010G19KT 10SM FEW050 10/04 A2965 RMK AO2 SLP038 60003 T01000039 10144 20100 52020=
201403260453 METAR KBFI 260453Z 17012G19KT 10SM FEW030 SCT036 SCT047 10/05 A2963 RMK AO2 SLP033 T01000050=
201403260353 METAR KBFI 260353Z 19009G28KT 10SM FEW026 SCT034 11/04 A2960 RMK AO2 PK WND 19028/0346 RAB10E34 SLP023 P0000 T01060044=
201403260253 METAR KBFI 260253Z 19016G27KT 10SM FEW030 BKN037 BKN080 11/06 A2959 RMK AO2 PK WND 19035/0243 RAE45 SLP018 P0000 60003 T01110061 53017=
201403260153 METAR KBFI 260153Z 18012G27KT 10SM -RA SCT037 OVC046 12/06 A2956 RMK AO2 PK WND 16029/0100 RAB10 SLP009 P0002 T01220061=
201403260053 METAR KBFI 260053Z 17012KT 10SM BKN040 OVC060 13/07 A2954 RMK AO2 PK WND 17029/0015 RAB29E50 SLP002 P0001 T01330067=
201403252353 METAR KBFI 252353Z 17012G18KT 10SM BKN046 BKN055 OVC070 13/07 A2954 RMK AO2 RAE51 SLP001 P0005 60013 T01330072 10150 20111 56022=
201403252253 METAR KBFI 252253Z 21008KT 9SM -RA SCT035 BKN042 OVC055 13/08 A2955 RMK AO2 RAB31 SLP007 P0001 T01280078=
201403252153 METAR KBFI 252153Z 17012G17KT 130V210 10SM FEW047 14/08 A2957 RMK AO2 RAB14E37 SLP014 P0001 T01440083=
201403252053 METAR KBFI 252053Z 17011KT 10SM FEW041 SCT070 OVC085 13/08 A2960 RMK AO2 RAE51 SLP023 P0003 60006 T01330083 56015=
201403251953 METAR KBFI 251953Z 22006KT 7SM -RA BKN046 OVC065 13/08 A2961 RMK AO2 RAE1855B35 SLP028 P0002 T01280083=
201403251853 METAR KBFI 251853Z 00000KT 10SM -RA OVC050 12/08 A2962 RMK AO2 RAB1758 SLP029 P0001 T01170078=
201403251753 METAR KBFI 251753Z 00000KT 10SM BKN055 BKN070 OVC095 12/07 A2965 RMK AO2 RAE19 SLP038 P0000 60006 T01170072 10139 20100 56033=
201403251653 METAR KBFI 251653Z 00000KT 10SM -RA BKN055 OVC070 11/07 A2966 RMK AO2 RAB1555 SLP043 P0002 T01060067=
201403251553 METAR KBFI 251553Z 15006KT 10SM SCT050 OVC070 10/06 A2970 RMK AO2 RAE36 SLP056 P0001 T01000061=
201403251453 METAR KBFI 251453Z AUTO 12004KT 10SM -RA BKN050 OVC070 11/06 A2974 RMK AO2 SLP071 P0003 60003 T01060056 58000 TSNO=
201403251353 METAR KBFI 251353Z 13004KT 10SM -RA OVC055 12/04 A2976 RMK AO2 RAE19B43 SLP076 P0000 T01170044=
201403251253 METAR KBFI 251253Z 00000KT 10SM -RA OVC065 12/03 A2973 RMK AO2 RAB44 SLP068 P0000 T01220028=
201403251153 METAR KBFI 251153Z 05007KT 10SM SCT070 OVC085 13/01 A2974 RMK AO2 PRESFR SLP071 T01280006 10150 20117 57035=
201403251053 METAR KBFI 251053Z 24005KT 10SM OVC100 13/01 A2978 RMK AO2 SLP083 T01280006=
201403250953 METAR KBFI 250953Z 00000KT 10SM BKN120 12/01 A2981 RMK AO2 SLP094 T01220006=
201403250853 METAR KBFI 250853Z 09004KT 10SM OVC100 14/M01 A2985 RMK AO2 SLP106 T01391011 58022=
201403250753 METAR KBFI 250753Z 14007KT 10SM BKN110 13/00 A2988 RMK AO2 SLP119 T01330000 402000061=
201403250653 METAR KBFI 250653Z 14005KT 10SM BKN110 13/02 A2989 RMK AO2 SLP122 T01330017=
201403250553 METAR KBFI 250553Z 16008KT 10SM BKN110 14/02 A2991 RMK AO2 SLP128 T01440017 10200 20144 51009=
201403250453 METAR KBFI 250453Z 12003KT 10SM BKN200 16/03 A2991 RMK AO2 SLP127 T01610028=
201403250353 METAR KBFI 250353Z 15004KT 10SM CLR 16/01 A2991 RMK AO2 SLP128 T01610011=
201403250253 METAR KBFI 250253Z 10005KT 10SM OVC200 18/01 A2988 RMK AO2 SLP119 T01830011 58015=
201403250153 METAR KBFI 250153Z 00000KT 10SM BKN200 19/01 A2991 RMK AO2 SLP128 T01940006=
201403250053 METAR KBFI 250053Z VRB03KT 10SM BKN200 20/00 A2992 RMK AO2 SLP131 T02000000=
201403242353 METAR KBFI 242353Z 33005KT 10SM CLR 20/02 A2993 RMK AO2 SLP134 T02000017 10200 20111 56032=
201403242253 METAR KBFI 242253Z 33006KT 10SM BKN200 19/02 A2996 RMK AO2 SLP144 T01940017=
201403242153 METAR KBFI 242153Z 33005KT 10SM BKN200 18/02 A2999 RMK AO2 SLP155 T01780017=
201403242053 METAR KBFI 242053Z 32005KT 10SM CLR 17/02 A3002 RMK AO2 SLP166 T01670017 58025=
201403241953 METAR KBFI 241953Z VRB04KT 10SM CLR 14/02 A3005 RMK AO2 SLP175 T01440017=
201403241853 METAR KBFI 241853Z 32005KT 10SM SCT250 13/03 A3008 RMK AO2 SLP184 T01330033=
201403241753 METAR KBFI 241753Z 30006KT 10SM CLR 11/04 A3010 RMK AO2 SLP191 T01110039 10111 20061 56014=
201403241653 METAR KBFI 241653Z 31004KT 10SM CLR 10/03 A3011 RMK AO2 SLP195 T01000033=
201403241553 METAR KBFI 241553Z VRB04KT 10SM CLR 08/02 A3012 RMK AO2 SLP200 T00830022=
201403241453 METAR KBFI 241453Z 00000KT 10SM FEW170 BKN220 07/02 A3014 RMK AO2 SLP205 T00720017 58016=
201403241353 METAR KBFI 241353Z 00000KT 10SM SCT200 07/02 A3016 RMK AO2 SLP212 T00670017=
201403241253 METAR KBFI 241253Z 00000KT 10SM CLR 07/02 A3017 RMK AO2 SLP217 T00670022=
201403241153 METAR KBFI 241153Z 00000KT 10SM CLR 07/02 A3019 RMK AO2 SLP221 T00720022 10089 20067 58017=
201403241053 METAR KBFI 241053Z 00000KT 10SM FEW120 07/02 A3020 RMK AO2 SLP226 T00720022=
201403240953 METAR KBFI 240953Z 01003KT 10SM FEW120 08/02 A3023 RMK AO2 SLP235 T00780022=
201403240853 METAR KBFI 240853Z 00000KT 10SM CLR 08/03 A3023 RMK AO2 SLP237 T00830028 58015=
201403240753 METAR KBFI 240753Z 00000KT 10SM CLR 08/03 A3025 RMK AO2 SLP244 T00830028 401280067=
201403240653 METAR KBFI 240653Z 00000KT 10SM CLR 08/02 A3026 RMK AO2 SLP246 T00830022=
201403240553 METAR KBFI 240553Z 34003KT 10SM CLR 09/02 A3028 RMK AO2 SLP252 T00890022 10128 20089 50003=
201403240453 METAR KBFI 240453Z 00000KT 10SM CLR 09/02 A3028 RMK AO2 SLP253 T00890022=
201403240353 METAR KBFI 240353Z 31003KT 10SM CLR 09/02 A3028 RMK AO2 SLP253 T00940017=
201403240253 METAR KBFI 240253Z 32004KT 10SM CLR 11/01 A3027 RMK AO2 SLP249 T01060011 56007=
201403240153 METAR KBFI 240153Z 31005KT 10SM CLR 11/01 A3028 RMK AO2 SLP252 T01110011=
201403240053 METAR KBFI 240053Z 29006KT 10SM CLR 12/01 A3028 RMK AO2 SLP252 T01220006=
201403232353 METAR KBFI 232353Z 32006KT 10SM FEW050 BKN250 13/01 A3029 RMK AO2 SLP257 T01280011 10128 20094 58012=
201403232253 METAR KBFI 232253Z VRB05KT 10SM CLR 12/01 A3031 RMK AO2 SLP262 T01220011=
201403232153 METAR KBFI 232153Z 31005KT 10SM FEW030 12/01 A3031 RMK AO2 SLP264 T01220011=
201403232053 METAR KBFI 232053Z VRB04KT 10SM FEW030 12/01 A3033 RMK AO2 SLP269 T01170011 58007=
201403231953 METAR KBFI 231953Z COR VRB04KT 10SM FEW030 11/01 A3034 RMK AO2 SLP274 T01110011=
201403231853 METAR KBFI 231853Z 30006KT 10SM FEW040 11/01 A3035 RMK AO2 SLP277 T01060011=
201403231753 METAR KBFI 231753Z COR VRB05KT 10SM SCT040 10/00 A3035 RMK AO2 SLP276 T01000000 10100 20067 51006=
201403231653 METAR KBFI 231653Z 04005KT 10SM SCT040 08/01 A3035 RMK AO2 SLP276 T00830006=
201403231553 METAR KBFI 231553Z VRB03KT 10SM BKN034 07/02 A3034 RMK AO2 SLP273 T00720017=
201403231453 METAR KBFI 231453Z 36003KT 10SM OVC032 07/02 A3033 RMK AO2 SLP270 T00670022 53013=
201403231353 METAR KBFI 231353Z 00000KT 10SM BKN032 07/02 A3032 RMK AO2 SLP265 T00670022=
201403231253 METAR KBFI 231253Z 00000KT 10SM BKN032 OVC060 07/02 A3031 RMK AO2 SLP262 T00670022=
201403231153 METAR KBFI 231153Z AUTO VRB03KT 10SM OVC060 07/02 A3029 RMK AO2 SLP258 T00720022 10083 20072 53003 TSNO=
201403231053 METAR KBFI 231053Z AUTO 02003KT 10SM BKN050 OVC065 08/02 A3029 RMK AO2 SLP255 T00780017 TSNO=
201403230953 METAR KBFI 230953Z AUTO 00000KT 10SM BKN050 OVC065 08/01 A3029 RMK AO2 SLP256 T00830011 TSNO=
201403230853 METAR KBFI 230853Z AUTO 00000KT 10SM BKN049 OVC060 08/03 A3028 RMK AO2 SLP254 T00830028 53010 TSNO=
201403230753 METAR KBFI 230753Z AUTO 33003KT 10SM BKN046 OVC055 08/02 A3027 RMK AO2 SLP251 T00830022 401220006 TSNO=
201403230653 METAR KBFI 230653Z 32004KT 10SM OVC044 08/02 A3026 RMK AO2 SLP246 T00830022=
201403230553 METAR KBFI 230553Z 00000KT 10SM CLR 08/02 A3025 RMK AO2 SLP244 T00830022 10122 20083 52011=
201403230453 METAR KBFI 230453Z VRB05KT 10SM SCT070 09/02 A3024 RMK AO2 SLP240 T00890022=
201403230353 METAR KBFI 230353Z 31005KT 10SM CLR 09/02 A3023 RMK AO2 SLP236 T00940017=
201403230253 METAR KBFI 230253Z 31005KT 10SM CLR 10/M01 A3022 RMK AO2 SLP233 T01001006 55007=
201403230153 METAR KBFI 230153Z 32003KT 10SM BKN080 OVC090 11/M01 A3021 RMK AO2 SLP230 T01111006=
201403230053 METAR KBFI 230053Z VRB03KT 10SM FEW095 12/M03 A3022 RMK AO2 SLP234 T01171028=
201403222353 METAR KBFI 222353Z 05003KT 10SM SCT070 BKN200 12/M03 A3024 RMK AO2 SLP240 T01171028 10122 20078 56016=
201403222253 METAR KBFI 222253Z 00000KT 10SM FEW085 OVC100 12/M03 A3025 RMK AO2 SLP244 T01171033=
201403222153 METAR KBFI 222153Z COR 34004KT 10SM FEW085 OVC100 12/M01 A3027 RMK AO2 SLP250 T01171006=
201403222053 METAR KBFI 222053Z 00000KT 10SM BKN090 12/M02 A3029 RMK AO2 SLP256 T01171022 58015=
201403221953 METAR KBFI 221953Z 00000KT 10SM BKN100 11/M02 A3031 RMK AO2 SLP262 T01111017=
201403221853 METAR KBFI 221853Z 13005KT 10SM OVC100 09/M02 A3032 RMK AO2 SLP267 T00941017=
201403221753 METAR KBFI 221753Z 11003KT 10SM BKN220 08/00 A3033 RMK AO2 SLP270 T00780000 10083 20006 55000=
201403221653 METAR KBFI 221653Z 15004KT 10SM CLR 06/00 A3033 RMK AO2 SLP270 T00560000=
201403221553 METAR KBFI 221553Z 15003KT 10SM BKN200 04/00 A3033 RMK AO2 SLP269 T00390000=
201403221453 METAR KBFI 221453Z COR 14003KT 10SM BKN200 02/M01 A3033 RMK AO2 SLP270 T00171006 51000=
201403221353 METAR KBFI 221353Z 14003KT 10SM CLR 01/M01 A3033 RMK AO2 SLP270 T00111011=
201403221253 METAR KBFI 221253Z 00000KT 10SM CLR 02/M01 A3033 RMK AO2 SLP270 T00171011=
201403221153 METAR KBFI 221153Z 00000KT 10SM CLR 02/M01 A3033 RMK AO2 SLP270 T00221006 10067 20011 53001=
201403221053 METAR KBFI 221053Z 14004KT 10SM CLR 03/00 A3032 RMK AO2 SLP268 T00280000=
201403220953 METAR KBFI 220953Z 00000KT 10SM CLR 03/00 A3033 RMK AO2 SLP270 T00330000=
201403220853 METAR KBFI 220853Z 00000KT 10SM CLR 04/01 A3033 RMK AO2 SLP269 T00440006 55003=
201403220753 METAR KBFI 220753Z 00000KT 10SM CLR 05/01 A3032 RMK AO2 SLP268 T00500006 401110039=
201403220653 METAR KBFI 220653Z 00000KT 10SM CLR 06/01 A3033 RMK AO2 SLP271 T00560006=
201403220553 METAR KBFI 220553Z 00000KT 10SM CLR 07/01 A3034 RMK AO2 SLP272 T00670006 10111 20067 53009=
201403220453 METAR KBFI 220453Z 00000KT 10SM CLR 08/01 A3033 RMK AO2 SLP269 T00780006=
201403220353 METAR KBFI 220353Z 00000KT 10SM CLR 08/00 A3032 RMK AO2 SLP266 T00830000=
201403220253 METAR KBFI 220253Z 33007KT 10SM CLR 09/M02 A3031 RMK AO2 SLP263 T00891017 53002=
201403220153 METAR KBFI 220153Z 32006KT 10SM FEW020 09/M01 A3030 RMK AO2 SLP261 T00941011=
201403220053 METAR KBFI 220053Z 33007KT 10SM CLR 11/M01 A3030 RMK AO2 SLP261 T01061006=
201403212353 METAR KBFI 212353Z 31008KT 10SM FEW035 11/00 A3030 RMK AO2 SLP261 T01110000 10111 20078 56009=
201403212253 METAR KBFI 212253Z 32008G14KT 10SM FEW034 11/00 A3031 RMK AO2 SLP262 T01060000=
201403212153 METAR KBFI 212153Z 31008G14KT 10SM FEW034 11/01 A3031 RMK AO2 SLP264 T01110011=
201403212053 METAR KBFI 212053Z 33008G15KT 290V350 10SM FEW034 10/01 A3033 RMK AO2 SLP270 T01000011 58007=
201403211953 METAR KBFI 211953Z VRB06KT 10SM SCT032 09/02 A3034 RMK AO2 SLP274 T00940017=
201403211853 METAR KBFI 211853Z VRB06KT 10SM FEW020 SCT050 08/01 A3035 RMK AO2 SLP277 T00780011=
201403211753 METAR KBFI 211753Z 36004KT 10SM FEW020 SCT050 08/01 A3035 RMK AO2 SLP278 T00830006 10089 20039 58001=
201403211702 SPECI KBFI 211702Z 04004KT 10SM SCT020 BKN070 08/01 A3036 RMK AO2=
201403211653 METAR KBFI 211653Z VRB03KT 10SM BKN020 BKN180 07/01 A3036 RMK AO2 SLP280 T00720006=
201403211553 METAR KBFI 211553Z AUTO VRB03KT 10SM FEW020 BKN060 05/01 A3036 RMK AO2 SLP279 T00500011 TSNO=
201403211453 METAR KBFI 211453Z 04003KT 10SM SCT030 BKN060 04/01 A3036 RMK AO2 SLP278 T00440011 53001=
201403211353 METAR KBFI 211353Z 04003KT 10SM SCT033 04/01 A3035 RMK AO2 SLP277 T00440006=
201403211253 METAR KBFI 211253Z 01004KT 10SM SCT031 05/02 A3035 RMK AO2 SLP278 T00500017=
201403211153 METAR KBFI 211153Z COR 02003KT 10SM FEW060 06/02 A3035 RMK AO2 SLP278 T00560022 10078 20056 58005=
201403211053 METAR KBFI 211053Z 01003KT 10SM BKN065 06/02 A3036 RMK AO2 SLP279 T00610017=
201403211002 SPECI KBFI 211002Z 00000KT 10SM SCT025 BKN040 07/02 A3037 RMK AO2=
201403210953 METAR KBFI 210953Z 34003KT 10SM BKN025 OVC032 07/02 A3037 RMK AO2 SLP283 T00670017=
201403210950 SPECI KBFI 210950Z 33003KT 10SM BKN025 BKN030 OVC060 07/02 A3037 RMK AO2=
201403210853 METAR KBFI 210853Z 00000KT 10SM SCT050 07/01 A3037 RMK AO2 SLP283 T00670011 58001=
201403210753 METAR KBFI 210753Z 09003KT 10SM BKN070 07/01 A3037 RMK AO2 SLP284 T00670011 401220028=
201403210653 METAR KBFI 210653Z 00000KT 10SM BKN080 07/01 A3038 RMK AO2 SLP286 T00720011=
201403210553 METAR KBFI 210553Z 06005KT 10SM BKN085 08/01 A3037 RMK AO2 SLP283 60000 T00780011 10111 20078 53011=
201403210453 METAR KBFI 210453Z 05006KT 10SM BKN075 OVC090 08/00 A3036 RMK AO2 RAE04 SLP279 P0000 T00830000=
201403210353 METAR KBFI 210353Z 02004KT 10SM -RA OVC070 09/M01 A3035 RMK AO2 RAB42 SLP275 P0000 T00891006=
201403210253 METAR KBFI 210253Z VRB04KT 10SM BKN065 09/M02 A3034 RMK AO2 SLP272 T00941017 53003=
201403210153 METAR KBFI 210153Z VRB03KT 10SM BKN070 11/M02 A3033 RMK AO2 SLP271 T01061017=
201403210053 METAR KBFI 210053Z 01006KT 10SM SCT060 BKN070 11/M02 A3033 RMK AO2 SLP269 T01061017=
201403202353 METAR KBFI 202353Z AUTO 03005KT 10SM BKN047 11/M01 A3033 RMK AO2 SLP269 T01111011 10122 20072 56005 TSNO=
201403202253 METAR KBFI 202253Z 04005KT 10SM FEW047 SCT070 11/M03 A3033 RMK AO2 SLP270 T01111033=
201403202153 METAR KBFI 202153Z COR 35008KT 10SM SCT070 11/M02 A3033 RMK AO2 SLP271 T01061017=
201403202053 METAR KBFI 202053Z COR 00000KT 10SM SCT030 10/00 A3034 RMK AO2 SLP274 T01000000 58002=
201403201953 METAR KBFI 201953Z 00000KT 10SM FEW028 09/01 A3035 RMK AO2 SLP277 T00890006=
201403201926 SPECI KBFI 201926Z 15005KT 10SM BKN028 09/02 A3036 RMK AO2=
201403201911 SPECI KBFI 201911Z 00000KT 10SM SCT026 08/02 A3036 RMK AO2=
201403201853 METAR KBFI 201853Z VRB04KT 10SM BKN024 07/01 A3035 RMK AO2 SLP278 T00720011=
201403201753 METAR KBFI 201753Z 15006KT 10SM OVC022 07/01 A3035 RMK AO2 SLP276 T00720011 10072 20028 51013=
201403201653 METAR KBFI 201653Z 16006KT 10SM OVC020 06/01 A3034 RMK AO2 SLP272 T00610011=
201403201553 METAR KBFI 201553Z 16005KT 10SM BKN020 06/02 A3032 RMK AO2 SLP268 T00560017=
201403201453 METAR KBFI 201453Z 14007KT 10SM BKN020 04/01 A3031 RMK AO2 SLP263 T00440011 53010=
201403201353 METAR KBFI 201353Z 14008KT 10SM OVC018 04/01 A3030 RMK AO2 SLP260 T00440006=
201403201253 METAR KBFI 201253Z 14008KT 10SM OVC018 04/01 A3029 RMK AO2 SLP256 T00390006=
201403201153 METAR KBFI 201153Z 13006KT 10SM BKN020 03/00 A3028 RMK AO2 SLP253 T00330000 10056 20028 51009=
201403201053 METAR KBFI 201053Z 13006KT 10SM SCT020 03/00 A3027 RMK AO2 SLP250 T00330000=
201403200953 METAR KBFI 200953Z 14007KT 10SM FEW020 03/00 A3027 RMK AO2 SLP248 T00330000=
201403200853 METAR KBFI 200853Z 14007KT 10SM FEW030 03/00 A3025 RMK AO2 SLP244 T00330000 53018=
201403200753 METAR KBFI 200753Z 14005KT 10SM FEW040 04/00 A3023 RMK AO2 SLP238 T00390000 401220033=
201403200653 METAR KBFI 200653Z 15006KT 10SM FEW040 04/00 A3022 RMK AO2 SLP232 T00390000=
201403200553 METAR KBFI 200553Z 00000KT 10SM FEW040 06/01 A3020 RMK AO2 SLP226 T00560006 10083 20044 53021=
201403200453 METAR KBFI 200453Z 04004KT 10SM SCT031 BKN110 06/01 A3018 RMK AO2 SLP219 T00560011=
201403200353 METAR KBFI 200353Z 08006G15KT 10SM FEW031 OVC110 06/01 A3016 RMK AO2 SLP211 T00610011=
201403200253 METAR KBFI 200253Z 08007KT 10SM BKN055 07/01 A3014 RMK AO2 SLP205 T00670011 53023=
201403200153 METAR KBFI 200153Z 06009G17KT 10SM FEW036 SCT075 SCT100 07/02 A3011 RMK AO2 SLP195 T00670017=
201403200053 METAR KBFI 200053Z 06007G20KT 10SM SCT036 BKN060 08/02 A3009 RMK AO2 SLP189 T00780022=
201403192353 METAR KBFI 192353Z 06012G16KT 10SM SCT044 BKN055 08/02 A3007 RMK AO2 SLP183 T00830022 10122 20078 53016=
201403192253 METAR KBFI 192253Z 05013G19KT 10SM SCT026 BKN032 08/03 A3004 RMK AO2 SLP173 T00780028=
201403192153 METAR KBFI 192153Z 20008G21KT 10SM SCT017 SCT100 12/04 A3003 RMK AO2 SLP168 T01170044=
201403192053 METAR KBFI 192053Z 21013G20KT 10SM SCT017 SCT100 11/04 A3002 RMK AO2 PK WND 18026/2004 SLP166 T01060044 58006=
201403192007 SPECI KBFI 192007Z 17013G26KT 10SM BKN017 BKN070 OVC090 11/06 A3003 RMK AO2 PK WND 18026/2004=
201403192000 SPECI KBFI 192000Z 18013G20KT 10SM FEW017 BKN070 OVC090 11/06 A3003 RMK AO2=
201403191953 METAR KBFI 191953Z 18014G27KT 140V210 10SM BKN017 BKN070 OVC090 11/06 A3003 RMK AO2 PK WND 19027/1945 SLP170 T01060061=
201403191907 SPECI KBFI 191907Z 19012G20KT 10SM BKN021 OVC095 11/06 A3004 RMK AO2=
201403191900 SPECI KBFI 191900Z 19008G20KT 10SM SCT021 OVC095 11/06 A3004 RMK AO2=
201403191853 METAR KBFI 191853Z 19012G20KT 10SM BKN019 BKN090 10/06 A3004 RMK AO2 SLP172 T01000056=
201403191753 METAR KBFI 191753Z 18011G17KT 10SM OVC018 10/05 A3004 RMK AO2 SLP172 60000 T01000050 10100 20083 56003=
201403191653 METAR KBFI 191653Z 19009G19KT 10SM BKN018 10/05 A3004 RMK AO2 SLP172 T01000050=
201403191553 METAR KBFI 191553Z 16007KT 10SM BKN017 BKN060 BKN090 09/05 A3005 RMK AO2 RAB04E32 SLP174 P0000 T00890050=
201403191453 METAR KBFI 191453Z 18009G17KT 160V220 10SM SCT013 OVC065 08/05 A3005 RMK AO2 RAE11 SLP175 P0000 60000 T00830050 58014=
201403191353 METAR KBFI 191353Z VRB06G14KT 10SM -RA BKN013 BKN027 OVC065 09/06 A3007 RMK AO2 RAE13B47 SLP182 P0000 T00890056=
201403191253 METAR KBFI 191253Z 17008KT 10SM -RA BKN013 BKN027 OVC065 09/06 A3008 RMK AO2 RAB53 SLP184 P0000 T00890056=
201403191153 METAR KBFI 191153Z 16008KT 10SM FEW008 BKN013 BKN027 09/06 A3009 RMK AO2 SLP188 70001 T00890061 10100 20089 56014=
201403191053 METAR KBFI 191053Z 17006KT 10SM OVC013 09/06 A3011 RMK AO2 SLP194 T00940061=
201403191049 SPECI KBFI 191049Z 16006KT 10SM OVC013 09/06 A3011 RMK AO2=
201403191037 SPECI KBFI 191037Z 16005KT 10SM BKN016 OVC031 09/06 A3012 RMK AO2=
201403190953 METAR KBFI 190953Z 15006KT 10SM SCT029 BKN044 OVC070 09/06 A3013 RMK AO2 SLP202 T00890061=
201403190853 METAR KBFI 190853Z 14007KT 10SM BKN032 09/06 A3014 RMK AO2 SLP207 T00940061 58016=
201403190753 METAR KBFI 190753Z 15005KT 10SM SCT024 OVC034 09/06 A3016 RMK AO2 SLP212 T00940061 401110050=
201403190653 METAR KBFI 190653Z AUTO 20003KT 10SM SCT026 OVC035 10/07 A3018 RMK AO2 SLP218 T01000067=
201403190553 METAR KBFI 190553Z 20003KT 10SM OVC026 10/06 A3019 RMK AO2 SLP222 T01000056 10111 20089 56009=
201403190524 SPECI KBFI 190524Z 00000KT 10SM BKN026 BKN034 BKN055 10/06 A3019 RMK AO2=
201403190453 METAR KBFI 190453Z 00000KT 10SM BKN036 10/06 A3020 RMK AO2 SLP224 T01000056=
201403190353 METAR KBFI 190353Z 00000KT 10SM SCT049 BKN085 11/06 A3021 RMK AO2 SLP228 T01060056=
201403190253 METAR KBFI 190253Z 00000KT 10SM BKN043 OVC200 11/06 A3022 RMK AO2 SLP231 T01060056 56014=
201403190153 METAR KBFI 190153Z 00000KT 10SM OVC041 11/05 A3023 RMK AO2 SLP235 T01060050=
201403190053 METAR KBFI 190053Z 08003KT 10SM SCT020 BKN035 BKN060 11/05 A3024 RMK AO2 SLP240 T01060050=
201403182353 METAR KBFI 182353Z 08004KT 10SM BKN020 OVC032 11/05 A3026 RMK AO2 SLP245 T01060050 10106 20083 56019=
201403182253 METAR KBFI 182253Z VRB05KT 10SM SCT013 OVC021 11/05 A3027 RMK AO2 SLP250 T01060050=
201403182153 METAR KBFI 182153Z AUTO 00000KT 10SM SCT013 OVC019 10/05 A3029 RMK AO2 SLP256 T01000050 TSNO=
201403182053 METAR KBFI 182053Z 18006KT 10SM OVC013 09/04 A3031 RMK AO2 SLP265 T00940044 58006=
201403181953 METAR KBFI 181953Z 18005KT 10SM BKN011 OVC017 09/04 A3032 RMK AO2 SLP268 T00890044=
201403181931 SPECI KBFI 181931Z 18005KT 9SM BKN011 OVC022 08/04 A3033 RMK AO2=
201403181853 METAR KBFI 181853Z 14004KT 10SM BKN021 OVC038 08/02 A3034 RMK AO2 SLP273 T00830022=
201403181753 METAR KBFI 181753Z 13004KT 10SM BKN021 OVC038 08/02 A3033 RMK AO2 SLP271 60001 T00830022 10083 20050 50001=
201403181653 METAR KBFI 181653Z 00000KT 10SM OVC025 07/03 A3033 RMK AO2 SLP271 T00670028=
201403181553 METAR KBFI 181553Z 16004KT 10SM BKN027 OVC034 06/03 A3033 RMK AO2 SLP271 T00560028=
201403181537 SPECI KBFI 181537Z 15005KT 10SM BKN027 OVC034 06/03 A3033 RMK AO2=
201403181519 SPECI KBFI 181519Z 15006KT 10SM SCT028 OVC034 06/03 A3033 RMK AO2=
201403181453 METAR KBFI 181453Z 13004KT 7SM BKN015 BKN021 OVC037 06/03 A3033 RMK AO2 RAB24E39 SLP270 P0001 60001 T00560028 55000=
201403181451 SPECI KBFI 181451Z 12004KT 6SM HZ BKN015 BKN021 OVC031 06/03 A3033 RMK AO2 RAB24E39 P0001=
201403181422 SPECI KBFI 181422Z 14006KT 10SM SCT023 OVC032 06/01 A3033 RMK AO2=
201403181405 SPECI KBFI 181405Z 14005KT 10SM BKN023 OVC038 06/01 A3033 RMK AO2=
201403181353 METAR KBFI 181353Z 12004KT 10SM SCT018 SCT023 OVC040 06/01 A3033 RMK AO2 SLP268 T00610011=
201403181253 METAR KBFI 181253Z 14005KT 10SM BKN021 06/01 A3033 RMK AO2 SLP270 T00560011=
201403181153 METAR KBFI 181153Z 13007KT 10SM BKN070 06/01 A3034 RMK AO2 SLP273 60000 T00560011 10067 20050 58004=
201403181053 METAR KBFI 181053Z 14007KT 10SM BKN065 OVC075 06/01 A3035 RMK AO2 RAB21E30 SLP277 P0000 T00560011=
201403180953 METAR KBFI 180953Z 14009KT 10SM OVC065 06/01 A3036 RMK AO2 SLP279 T00560011=
201403180853 METAR KBFI 180853Z 14008KT 10SM FEW055 BKN075 OVC100 06/01 A3035 RMK AO2 SLP277 T00560011 50001=
201403180753 METAR KBFI 180753Z 12005KT 10SM BKN055 OVC100 06/01 A3035 RMK AO2 SLP278 T00610011 401170044=
201403180653 METAR KBFI 180653Z 13005KT 10SM FEW070 05/01 A3035 RMK AO2 SLP278 T00500011=
201403180553 METAR KBFI 180553Z 12003KT 10SM CLR 07/01 A3035 RMK AO2 SLP276 T00720011 10106 20072 50009=
201403180453 METAR KBFI 180453Z COR 12003KT 10SM BKN060 08/00 A3035 RMK AO2 SLP276 T00780000=
201403180353 METAR KBFI 180353Z 12004KT 10SM BKN060 08/01 A3034 RMK AO2 SLP272 T00830006=
201403180253 METAR KBFI 180253Z COR 10005KT 10SM BKN070 09/01 A3032 RMK AO2 SLP267 T00940006 53006=
201403180153 METAR KBFI 180153Z 00000KT 10SM BKN060 10/00 A3031 RMK AO2 SLP264 T01000000=
201403180053 METAR KBFI 180053Z 02005KT 10SM FEW060 BKN080 11/M01 A3031 RMK AO2 SLP262 T01061011=
201403172353 METAR KBFI 172353Z 06006KT 10SM BKN080 11/M01 A3030 RMK AO2 SLP260 60000 T01061006 10117 20083 53007=
201403172253 METAR KBFI 172253Z 02006KT 10SM SCT035 BKN090 12/M01 A3029 RMK AO2 SLP257 T01171006=
201403172153 METAR KBFI 172153Z 03007KT 360V060 10SM SCT030 BKN060 11/00 A3028 RMK AO2 SLP253 T01060000=
201403172053 METAR KBFI 172053Z 08005KT 10SM SCT026 BKN070 11/01 A3028 RMK AO2 RAB16E30 SLP253 P0000 60000 T01060011 50003=
201403171953 METAR KBFI 171953Z 11006KT 10SM SCT025 BKN040 09/01 A3028 RMK AO2 SLP254 T00940006=
201403171853 METAR KBFI 171853Z 14008KT 10SM SCT029 BKN036 10/02 A3028 RMK AO2 SLP252 T01000017=
201403171753 METAR KBFI 171753Z 12007KT 10SM FEW013 SCT040 09/03 A3027 RMK AO2 SLP250 T00890028 10089 20044 51023=
201403171653 METAR KBFI 171653Z 12007KT 10SM FEW034 07/02 A3026 RMK AO2 SLP246 T00670022=
201403171553 METAR KBFI 171553Z 14007KT 10SM CLR 06/02 A3023 RMK AO2 SLP235 T00610022=
201403171453 METAR KBFI 171453Z 12007KT 10SM FEW040 05/02 A3020 RMK AO2 SLP227 T00500022 51038=
201403171353 METAR KBFI 171353Z 14008KT 10SM BKN034 04/02 A3017 RMK AO2 SLP216 T00440022=
201403171253 METAR KBFI 171253Z 12005KT 10SM BKN012 05/03 A3014 RMK AO2 SLP204 T00500028=
201403171153 METAR KBFI 171153Z 13005KT 10SM BKN014 05/03 A3009 RMK AO2 SLP190 60001 70104 T00500028 10067 20050 53020=
201403171102 SPECI KBFI 171102Z 12006KT 10SM FEW012 SCT018 06/03 A3006 RMK AO2=
201403171053 METAR KBFI 171053Z 13007KT 10SM SCT012 BKN018 06/03 A3007 RMK AO2 RAB06E14 SLP180 P0000 T00610033=
201403171000 SPECI KBFI 171000Z 14004KT 10SM BKN012 07/04 A3006 RMK AO2=
201403170953 METAR KBFI 170953Z 10004KT 10SM SCT012 OVC023 07/04 A3006 RMK AO2 SLP177 T00670039=
201403170917 SPECI KBFI 170917Z 12003KT 10SM SCT012 OVC023 07/04 A3004 RMK AO2=
201403170853 METAR KBFI 170853Z 00000KT 10SM OVC012 07/04 A3004 RMK AO2 RAB20E51 SLP170 P0001 60001 T00670039 53010=
201403170753 METAR KBFI 170753Z 15003KT 10SM OVC017 07/03 A3002 RMK AO2 SLP166 T00670033 401220061=
201403170653 METAR KBFI 170653Z 16003KT 10SM BKN023 OVC029 06/03 A3001 RMK AO2 SLP162 T00610033=
201403170553 METAR KBFI 170553Z 15004KT 10SM BKN060 OVC075 07/04 A3000 RMK AO2 RAE17 SLP160 P0001 60058 T00670039 10089 20067 56002=
201403170453 METAR KBFI 170453Z 08006KT 8SM -RA FEW024 OVC030 07/04 A3001 RMK AO2 SLP161 P0011 T00670039=
201403170353 METAR KBFI 170353Z 03003KT 6SM -RA FEW024 OVC030 07/04 A3001 RMK AO2 SLP161 P0011 T00670039=
201403170321 SPECI KBFI 170321Z 03004KT 6SM -RA FEW014 OVC031 07/04 A3001 RMK AO2 P0006=
201403170253 METAR KBFI 170253Z 03004KT 4SM RA FEW008 SCT021 OVC029 07/04 A3001 RMK AO2 SLP162 P0021 60035 T00720044 56004=
201403170153 METAR KBFI 170153Z 20005KT 4SM -RA BKN008 OVC015 08/06 A3000 RMK AO2 SLP160 P0009 T00830056=
201403170137 SPECI KBFI 170137Z 19003KT 4SM -RA BR BKN008 OVC015 08/06 A3001 RMK AO2 P0007=
201403170053 METAR KBFI 170053Z 20003KT 6SM -RA BKN012 OVC017 08/06 A3002 RMK AO2 SLP166 P0005 T00830056=
201403162353 METAR KBFI 162353Z 16005KT 10SM -RA BKN010 OVC017 09/06 A3004 RMK AO2 SLP171 P0003 60016 T00890061 10094 20089 58032=
201403162253 METAR KBFI 162253Z 18005KT 10SM -RA BKN010 OVC017 09/06 A3008 RMK AO2 SLP184 P0003 T00890061=
201403162153 METAR KBFI 162153Z 22004KT 10SM -RA BKN010 OVC014 09/06 A3010 RMK AO2 SLP193 P0002 T00940061=
201403162121 SPECI KBFI 162121Z 18004KT 10SM -RA BKN010 OVC014 09/07 A3011 RMK AO2 P0001=
201403162111 SPECI KBFI 162111Z 17005KT 10SM -RA BKN009 OVC014 09/07 A3012 RMK AO2 P0001=
201403162056 SPECI KBFI 162056Z 18005KT 10SM -RA OVC012 09/07 A3012 RMK AO2 P0000=
201403162053 METAR KBFI 162053Z 19003KT 10SM -RA BKN009 BKN016 OVC042 09/07 A3013 RMK AO2 SLP203 P0003 60008 T00940067 58018=
201403161953 METAR KBFI 161953Z 16006KT 9SM -RA BKN009 BKN016 OVC042 09/07 A3016 RMK AO2 SLP212 P0004 T00940067=
201403161853 METAR KBFI 161853Z 16007KT 10SM -RA SCT009 BKN013 OVC024 09/06 A3017 RMK AO2 SLP217 P0001 T00940061=
201403161753 METAR KBFI 161753Z 16006KT 4SM -RA BR SCT010 BKN034 OVC044 09/07 A3019 RMK AO2 SLP221 P0003 60029 T00890067 10106 20089 56006=
201403161656 SPECI KBFI 161656Z 16007KT 5SM -RA BR SCT008 BKN016 OVC042 09/07 A3019 RMK AO2 P0000=
201403161653 METAR KBFI 161653Z 15007KT 4SM -RA BR BKN008 BKN016 OVC042 09/07 A3019 RMK AO2 SLP222 P0005 T00940072=
201403161557 SPECI KBFI 161557Z 15008KT 4SM -RA BR BKN008 BKN016 OVC042 09/07 A3019 RMK AO2 P0001=
201403161553 METAR KBFI 161553Z 15007KT 4SM -RA BR SCT007 BKN018 OVC042 09/07 A3020 RMK AO2 SLP225 P0004 T00940072=
201403161453 METAR KBFI 161453Z 14007KT 7SM -RA SCT010 BKN018 OVC039 09/07 A3021 RMK AO2 SLP228 P0006 60017 T00940072 50002=
201403161424 SPECI KBFI 161424Z 13005KT 9SM -RA FEW009 OVC014 09/07 A3020 RMK AO2 P0003=
201403161353 METAR KBFI 161353Z 12005KT 8SM -RA BKN015 OVC043 09/07 A3021 RMK AO2 SLP229 P0006 T00940072=
201403161253 METAR KBFI 161253Z 00000KT 9SM -RA OVC060 10/07 A3020 RMK AO2 SLP226 P0005 T01000067=
201403161153 METAR KBFI 161153Z 21007KT 180V240 10SM -RA OVC055 11/07 A3020 RMK AO2 SLP226 P0003 60007 70026 T01060067 10128 20106 56002=
201403161053 METAR KBFI 161053Z 22006G14KT 10SM -RA OVC050 11/08 A3021 RMK AO2 RAB32 SLP229 P0002 T01110078=
201403160953 METAR KBFI 160953Z 19008G16KT 10SM SCT048 BKN055 OVC070 12/07 A3019 RMK AO2 SLP222 T01170072=
201403160853 METAR KBFI 160853Z 19010G16KT 10SM FEW011 OVC043 12/08 A3021 RMK AO2 RAE35 SLP228 P0000 60002 T01170083 58006=
201403160753 METAR KBFI 160753Z 19007G17KT 5SM -RA BKN013 OVC021 12/09 A3021 RMK AO2 RAB00 SLP230 P0001 T01220094 401670067=
201403160750 SPECI KBFI 160750Z 18009G17KT 4SM -RA BKN013 OVC021 12/09 A3021 RMK AO2 RAB00 P0001 401670067=
201403160653 METAR KBFI 160653Z 16009KT 7SM FEW015 OVC030 12/09 A3022 RMK AO2 RAE08 SLP233 P0001 T01220094=
201403160553 METAR KBFI 160553Z 19009KT 10SM -RA OVC041 13/09 A3022 RMK AO2 RAB0456 SLP234 P0002 60019 T01280094 10161 20128 53007=
201403160453 METAR KBFI 160453Z 19006KT 10SM OVC050 13/10 A3021 RMK AO2 RAE27 SLP229 P0002 T01280100=
201403160353 METAR KBFI 160353Z 22004KT 10SM -RA OVC048 13/10 A3021 RMK AO2 SLP230 P0005 T01280100=
201403160253 METAR KBFI 160253Z 20006KT 10SM -RA FEW036 OVC060 14/10 A3020 RMK AO2 SLP227 P0010 60010 T01390100 51003=
201403160153 METAR KBFI 160153Z 00000KT 10SM -RA SCT030 BKN046 OVC060 14/09 A3020 RMK AO2 RAB53 SLP226 P0000 T01440094=
201403160053 METAR KBFI 160053Z 19003KT 10SM BKN037 OVC050 16/09 A3020 RMK AO2 RAB21E30 SLP226 P0000 T01560089=
201403152353 METAR KBFI 152353Z 21004KT 10SM OVC038 16/07 A3019 RMK AO2 SLP224 60000 T01610072 10167 20111 56013=
201403152253 METAR KBFI 152253Z 15007KT 10SM OVC042 16/06 A3019 RMK AO2 SLP224 T01610061=
201403152153 METAR KBFI 152153Z 16011KT 10SM BKN036 16/06 A3021 RMK AO2 SLP230 T01560056=
201403152053 METAR KBFI 152053Z 17006G22KT 10SM OVC040 14/04 A3023 RMK AO2 SLP237 60000 T01390044 58014=
201403151953 METAR KBFI 151953Z 22007KT 10SM OVC050 12/05 A3026 RMK AO2 RAB04E14 SLP246 P0000 T01170050=
201403151853 METAR KBFI 151853Z 16009KT 10SM OVC055 12/04 A3027 RMK AO2 RAB16E32 SLP249 P0000 T01170039=
201403151753 METAR KBFI 151753Z 10007KT 10SM OVC060 11/03 A3027 RMK AO2 SLP250 T01110033 10111 20072 50000=
201403151653 METAR KBFI 151653Z 15006KT 10SM OVC070 09/04 A3029 RMK AO2 SLP256 T00940044=
201403151553 METAR KBFI 151553Z 16004KT 10SM OVC080 08/04 A3028 RMK AO2 SLP252 T00830039=
201403151453 METAR KBFI 151453Z 00000KT 10SM OVC100 09/04 A3027 RMK AO2 SLP250 T00890039 58003=
201403151353 METAR KBFI 151353Z 00000KT 10SM BKN100 08/04 A3029 RMK AO2 SLP256 T00780039=
201403151253 METAR KBFI 151253Z 00000KT 10SM FEW075 08/04 A3028 RMK AO2 SLP252 T00830039=
201403151153 METAR KBFI 151153Z 00000KT 10SM SCT200 08/04 A3028 RMK AO2 SLP254 70004 T00780039 10094 20067 58019=
201403151053 METAR KBFI 151053Z 16004KT 10SM CLR 07/03 A3030 RMK AO2 SLP259 T00720033=
201403150953 METAR KBFI 150953Z 10003KT 10SM CLR 08/03 A3032 RMK AO2 SLP268 T00830033=
201403150853 METAR KBFI 150853Z 11003KT 10SM SCT200 08/04 A3034 RMK AO2 SLP273 T00830039 56003=
201403150753 METAR KBFI 150753Z 13004KT 10SM CLR 09/04 A3034 RMK AO2 SLP274 T00890039 401560078=
201403150653 METAR KBFI 150653Z 14006KT 10SM CLR 08/03 A3034 RMK AO2 SLP274 T00780028=
201403150553 METAR KBFI 150553Z 16005KT 10SM CLR 09/03 A3035 RMK AO2 SLP276 T00890033 10144 20083 51023=
201403150453 METAR KBFI 150453Z 16006KT 10SM CLR 10/04 A3034 RMK AO2 SLP272 T01000039=
201403150353 METAR KBFI 150353Z 18005KT 10SM FEW065 11/03 A3031 RMK AO2 SLP262 T01110033=
201403150253 METAR KBFI 150253Z VRB04KT 10SM SCT065 12/03 A3028 RMK AO2 SLP252 T01170028 51034=
201403150153 METAR KBFI 150153Z 22009G15KT 120V250 10SM SCT065 SCT075 13/03 A3025 RMK AO2 SLP243 T01330033=
201403150053 METAR KBFI 150053Z VRB05KT 10SM SCT060 BKN075 14/03 A3021 RMK AO2 SLP230 T01440033=
201403142353 METAR KBFI 142353Z 24007KT 10SM SCT060 14/03 A3018 RMK AO2 SLP218 T01440033 10156 20133 53024=
201403142253 METAR KBFI 142253Z 25011G20KT 10SM BKN070 14/04 A3015 RMK AO2 SLP209 T01440039=
201403142153 METAR KBFI 142153Z COR 22014G22KT 10SM SCT034 15/05 A3012 RMK AO2 PK WND 19027/2055 SLP198 T01500050=
201403142053 METAR KBFI 142053Z 20011G23KT 10SM SCT100 15/05 A3010 RMK AO2 SLP194 T01500050 51020=
201403141953 METAR KBFI 141953Z 21010G21KT 170V240 10SM SCT100 15/06 A3010 RMK AO2 SLP191 T01500056=
201403141853 METAR KBFI 141853Z 19008G16KT 10SM SCT050 14/07 A3008 RMK AO2 SLP185 T01390067=
201403141753 METAR KBFI 141753Z 19010G15KT 10SM SCT050 13/07 A3004 RMK AO2 SLP173 60004 T01330072 10133 20111 53040=
201403141653 METAR KBFI 141653Z 22009KT 10SM SCT022 SCT090 13/08 A2999 RMK AO2 PRESRR SLP156 T01280078=
201403141553 METAR KBFI 141553Z 19010G21KT 10SM FEW019 BKN090 12/07 A2993 RMK AO2 RAB06E15 SLP134 P0000 T01220072=
201403141529 SPECI KBFI 141529Z 18012G19KT 10SM SCT013 BKN021 12/09 A2992 RMK AO2 RAB06E15 P0000=
201403141453 METAR KBFI 141453Z AUTO 18011G18KT 5SM BR BKN013 OVC019 12/09 A2993 RMK AO2 RAE49 SLP133 P0001 60004 T01170089 53001=
201403141353 METAR KBFI 141353Z 17013G19KT 5SM -RA SCT013 OVC020 12/09 A2992 RMK AO2 SLP130 P0000 T01170089=
201403141327 SPECI KBFI 141327Z 17011KT 6SM -RA BR SCT011 BKN024 OVC036 11/09 A2991 RMK AO2 P0000=
201403141253 METAR KBFI 141253Z 16011KT 10SM -RA SCT017 BKN030 OVC050 11/09 A2992 RMK AO2 SLP130 P0003 T01110089=
201403141153 METAR KBFI 141153Z 17011KT 7SM -RA SCT016 OVC031 11/09 A2992 RMK AO2 SLP132 P0003 60007 70007 T01110089 10117 20100 56018=
201403141129 SPECI KBFI 141129Z 16012KT 7SM -RA BKN016 OVC028 11/08 A2992 RMK AO2 P0001=
201403141053 METAR KBFI 141053Z 14010KT 9SM -RA BKN023 OVC028 11/08 A2993 RMK AO2 SLP135 P0002 T01060083=
201403141000 SPECI KBFI 141000Z 14010KT 5SM -RA BR FEW013 OVC021 11/08 A2995 RMK AO2 P0000=
201403140953 METAR KBFI 140953Z 14010KT 3SM -RA BR BKN009 OVC021 11/08 A2996 RMK AO2 SLP143 P0001 T01060083=
201403140853 METAR KBFI 140853Z 14011KT 10SM -RA BKN009 OVC016 11/08 A2998 RMK AO2 CIG 007V013 SLP150 P0001 60001 T01060083 58016=
201403140827 SPECI KBFI 140827Z 14010KT 10SM -RA SCT009 OVC016 11/08 A2999 RMK AO2 P0001=
201403140814 SPECI KBFI 140814Z 14009KT 10SM -RA SCT010 OVC015 11/08 A3000 RMK AO2 P0001=
201403140801 SPECI KBFI 140801Z 15008KT 10SM -RA BKN010 OVC015 11/08 A3000 RMK AO2 CIG 007V013 P0000=
201403140753 METAR KBFI 140753Z 15007KT 10SM -RA SCT010 BKN015 OVC020 11/08 A3000 RMK AO2 SLP159 P0000 T01060083 401500056=
201403140717 SPECI KBFI 140717Z 16008KT 10SM -RA BKN020 OVC028 10/08 A3001 RMK AO2 P0000=
201403140653 METAR KBFI 140653Z 17008KT 6SM -RA OVC036 11/07 A3002 RMK AO2 RAB49 SLP165 P0000 T01060072=
201403140553 METAR KBFI 140553Z 20006KT 10SM OVC044 12/06 A3002 RMK AO2 SLP166 T01170056 10144 20117 53001=
201403140453 METAR KBFI 140453Z 16006KT 10SM OVC065 12/06 A3002 RMK AO2 SLP165 T01220061=
201403140353 METAR KBFI 140353Z 16005KT 10SM SCT075 OVC100 13/06 A3002 RMK AO2 SLP165 T01280056=
201403140253 METAR KBFI 140253Z 16004KT 10SM SCT250 13/05 A3002 RMK AO2 SLP165 T01280050 58014=
201403140153 METAR KBFI 140153Z 17005KT 10SM FEW050 BKN180 14/04 A3004 RMK AO2 SLP171 T01390044=
201403140053 METAR KBFI 140053Z 15007KT 10SM FEW050 BKN130 OVC250 13/04 A3005 RMK AO2 SLP177 T01330044=
201403132353 METAR KBFI 132353Z VRB05KT 10SM FEW050 SCT100 14/04 A3006 RMK AO2 SLP180 T01440044 10150 20094 56015=
201403132253 METAR KBFI 132253Z 19006KT 10SM FEW050 SCT100 BKN250 14/03 A3008 RMK AO2 SLP186 T01440033=
201403132153 METAR KBFI 132153Z 20005KT 10SM SCT250 14/04 A3008 RMK AO2 SLP186 T01440044=
201403132053 METAR KBFI 132053Z VRB03KT 10SM SCT250 13/04 A3011 RMK AO2 SLP194 T01330044 58023=
201403131953 METAR KBFI 131953Z 00000KT 10SM SCT023 BKN250 12/05 A3013 RMK AO2 SLP203 T01170050=
201403131853 METAR KBFI 131853Z 00000KT 10SM SCT023 BKN250 11/04 A3016 RMK AO2 SLP211 T01060044=
201403131753 METAR KBFI 131753Z 00000KT 10SM SCT013 09/04 A3017 RMK AO2 SLP217 T00940044 10094 20056 50004=
201403131653 METAR KBFI 131653Z 00000KT 10SM SCT011 BKN250 08/04 A3018 RMK AO2 SLP220 T00830044=
201403131600 SPECI KBFI 131600Z 00000KT 10SM SCT011 07/04 A3018 RMK AO2=
201403131553 METAR KBFI 131553Z 00000KT 10SM SCT011 07/04 A3017 RMK AO2 SLP217 T00670039=
201403131546 SPECI KBFI 131546Z 13003KT 10SM SCT011 07/03 A3017 RMK AO2=
201403131539 SPECI KBFI 131539Z 00000KT 10SM BKN011 07/03 A3017 RMK AO2=
201403131453 METAR KBFI 131453Z 09003KT 10SM SCT160 BKN250 07/04 A3016 RMK AO2 SLP213 T00670039 55002=
201403131353 METAR KBFI 131353Z 00000KT 10SM CLR 07/03 A3015 RMK AO2 SLP210 T00670033=
201403131253 METAR KBFI 131253Z 00000KT 10SM CLR 07/03 A3015 RMK AO2 SLP211 T00670033=
201403131153 METAR KBFI 131153Z 00000KT 10SM CLR 07/04 A3017 RMK AO2 SLP215 T00720039 10117 20061 58004=
201403131053 METAR KBFI 131053Z 01003KT 10SM CLR 08/04 A3018 RMK AO2 SLP218 T00830039=
201403130953 METAR KBFI 130953Z 00000KT 10SM CLR 08/03 A3018 RMK AO2 SLP218 T00780028=
201403130853 METAR KBFI 130853Z 00000KT 10SM CLR 08/02 A3018 RMK AO2 SLP219 T00830022 50002=
201403130753 METAR KBFI 130753Z 00000KT 10SM FEW095 09/02 A3018 RMK AO2 SLP220 T00940022 401720022=
201403130653 METAR KBFI 130653Z 00000KT 10SM BKN095 11/02 A3019 RMK AO2 SLP222 T01060017=
201403130553 METAR KBFI 130553Z 00000KT 10SM BKN100 12/01 A3017 RMK AO2 SLP217 T01170011 10167 20111 55000=
201403130453 METAR KBFI 130453Z 00000KT 10SM BKN100 12/01 A3016 RMK AO2 SLP214 T01170011=
201403130353 METAR KBFI 130353Z 00000KT 10SM CLR 12/01 A3017 RMK AO2 SLP214 T01170011=
201403130253 METAR KBFI 130253Z 00000KT 10SM CLR 14/02 A3017 RMK AO2 SLP216 T01390017 56006=
201403130153 METAR KBFI 130153Z 29008KT 260V320 10SM SCT200 14/02 A3017 RMK AO2 SLP217 T01440022=
201403130053 METAR KBFI 130053Z 32003KT 10SM CLR 17/02 A3017 RMK AO2 SLP217 T01670017=
201403122353 METAR KBFI 122353Z 32004KT 10SM CLR 16/03 A3019 RMK AO2 SLP222 T01610033 10172 20089 56028=
201403122253 METAR KBFI 122253Z AUTO 00000KT 10SM CLR 17/03 A3020 RMK AO2 SLP225 T01670033=
201403122153 METAR KBFI 122153Z 00000KT 10SM CLR 14/04 A3022 RMK AO2 SLP234 T01440044=
201403122053 METAR KBFI 122053Z 31006KT 10SM CLR 13/04 A3027 RMK AO2 SLP250 T01330039 58018=
201403121953 METAR KBFI 121953Z 35004KT 10SM CLR 12/04 A3029 RMK AO2 SLP258 T01220044=
201403121853 METAR KBFI 121853Z 00000KT 10SM CLR 12/04 A3031 RMK AO2 SLP262 T01170044=
201403121753 METAR KBFI 121753Z 14003KT 10SM CLR 09/04 A3032 RMK AO2 SLP268 T00890044 10089 20022 58013=
201403121653 METAR KBFI 121653Z 00000KT 10SM BCFG FEW002 06/04 A3035 RMK AO2 SLP277 BCFG NW T00560039=
201403121631 SPECI KBFI 121631Z 00000KT 10SM BCFG SCT002 05/04 A3035 RMK AO2 BCFG NW-E=
201403121607 SPECI KBFI 121607Z 00000KT 1SM BR BKN002 04/03 A3036 RMK AO2=
201403121553 METAR KBFI 121553Z 00000KT 1/2SM FG VV002 04/03 A3035 RMK AO2 SLP278 T00440033=
201403121453 METAR KBFI 121453Z 13004KT 1/2SM FG BKN001 02/01 A3036 RMK AO2 SLP280 T00220006 56008=
201403121449 SPECI KBFI 121449Z 13004KT 10SM BKN002 03/01 A3036 RMK AO2=
201403121353 METAR KBFI 121353Z 00000KT 10SM CLR 05/03 A3037 RMK AO2 SLP284 T00500028=
201403121253 METAR KBFI 121253Z 00000KT 10SM FEW008 03/02 A3038 RMK AO2 SLP288 T00330022=
201403121153 METAR KBFI 121153Z 00000KT 10SM CLR 06/03 A3039 RMK AO2 SLP289 T00560033 10083 20050 58014=
201403121053 METAR KBFI 121053Z 00000KT 10SM CLR 06/03 A3040 RMK AO2 SLP294 T00560028=
201403120953 METAR KBFI 120953Z 00000KT 10SM CLR 06/03 A3042 RMK AO2 SLP299 T00610028=
201403120853 METAR KBFI 120853Z 00000KT 10SM CLR 06/03 A3043 RMK AO2 SLP303 T00610033 56014=
201403120753 METAR KBFI 120753Z 00000KT 10SM CLR 07/03 A3044 RMK AO2 SLP305 T00720028 401390050=
201403120653 METAR KBFI 120653Z AUTO 00000KT 10SM CLR 07/03 A3046 RMK AO2 SLP312 T00720028=
201403120553 METAR KBFI 120553Z 00000KT 10SM CLR 09/03 A3047 RMK AO2 SLP316 T00890033 10139 20089 58005=
201403120453 METAR KBFI 120453Z 00000KT 10SM CLR 10/03 A3047 RMK AO2 SLP318 T01000028=
201403120353 METAR KBFI 120353Z 00000KT 10SM CLR 11/03 A3048 RMK AO2 SLP319 T01110028=
201403120253 METAR KBFI 120253Z 00000KT 10SM CLR 12/02 A3048 RMK AO2 SLP321 T01170022 55006=
201403120153 METAR KBFI 120153Z 31003KT 10SM CLR 13/02 A3048 RMK AO2 SLP319 T01280017=
201403120053 METAR KBFI 120053Z 30006KT 10SM FEW250 13/00 A3048 RMK AO2 SLP320 T01330000=
201403112353 METAR KBFI 112353Z 33006KT 10SM CLR 14/03 A3050 RMK AO2 SLP327 T01390028 10139 20100 56016=
201403112253 METAR KBFI 112253Z 29005KT 10SM FEW020 13/04 A3051 RMK AO2 SLP332 T01330039=
201403112153 METAR KBFI 112153Z VRB03KT 10SM CLR 13/04 A3053 RMK AO2 SLP337 T01280039=
201403112053 METAR KBFI 112053Z 01007KT 10SM FEW029 13/04 A3054 RMK AO2 SLP343 T01280039 58016=
201403111953 METAR KBFI 111953Z VRB03KT 10SM FEW018 12/03 A3056 RMK AO2 SLP349 T01220033=
201403111853 METAR KBFI 111853Z 35003KT 10SM SCT018 11/04 A3058 RMK AO2 SLP356 T01060044=
201403111829 SPECI KBFI 111829Z VRB03KT 10SM SCT018 11/05 A3059 RMK AO2=
201403111753 METAR KBFI 111753Z COR 00000KT 10SM SCT020 10/04 A3059 RMK AO2 SLP358 T01000044 10100 20050 50005=
201403111653 METAR KBFI 111653Z 00000KT 10SM FEW006 08/04 A3060 RMK AO2 SLP361 T00780044=
201403111607 SPECI KBFI 111607Z 03003KT 10SM FEW006 07/04 A3059 RMK AO2=
201403111553 METAR KBFI 111553Z 00000KT 10SM FEW030 08/04 A3059 RMK AO2 SLP358 T00780044=
201403111453 METAR KBFI 111453Z 00000KT 10SM FEW030 07/04 A3058 RMK AO2 SLP353 T00670039 51005=
201403111353 METAR KBFI 111353Z 14003KT 10SM BKN030 07/04 A3058 RMK AO2 SLP353 T00720039=
201403111253 METAR KBFI 111253Z 00000KT 10SM OVC030 06/04 A3057 RMK AO2 SLP350 T00560039=
201403111153 METAR KBFI 111153Z 17003KT 10SM FEW010 06/04 A3056 RMK AO2 SLP348 70011 T00610039 10083 20056 51016=
201403111053 METAR KBFI 111053Z 00000KT 10SM FEW050 BKN070 06/04 A3054 RMK AO2 SLP341 T00610039=
201403110953 METAR KBFI 110953Z 13004KT 10SM FEW033 OVC050 07/04 A3054 RMK AO2 SLP340 T00720044=
201403110853 METAR KBFI 110853Z 14004KT 10SM BKN060 07/04 A3051 RMK AO2 SLP332 T00720044 51025=
201403110753 METAR KBFI 110753Z 12006KT 10SM BKN060 07/04 A3049 RMK AO2 SLP323 T00720044 401280061=
201403110653 METAR KBFI 110653Z 13007KT 10SM SCT033 07/04 A3047 RMK AO2 SLP317 T00720044=
201403110553 METAR KBFI 110553Z 11006KT 10SM FEW028 BKN033 08/04 A3044 RMK AO2 SLP307 60002 T00830044 10111 20078 51039=
201403110510 SPECI KBFI 110510Z 14007KT 10SM SCT029 SCT041 BKN050 08/05 A3041 RMK AO2=
201403110453 METAR KBFI 110453Z 14007KT 10SM BKN027 BKN041 OVC049 08/05 A3041 RMK AO2 SLP296 T00830050=
201403110353 METAR KBFI 110353Z 00000KT 10SM BKN038 09/06 A3037 RMK AO2 SLP284 T00890056=
201403110253 METAR KBFI 110253Z 00000KT 10SM SCT038 BKN120 09/06 A3032 RMK AO2 RAE0156 SLP267 P0000 60002 T00890056 53024=
201403110153 METAR KBFI 110153Z 18003KT 10SM -RA SCT042 BKN049 10/05 A3029 RMK AO2 SLP256 P0000 T01000050=
201403110053 METAR KBFI 110053Z 00000KT 10SM -RA SCT020 BKN060 OVC095 10/04 A3026 RMK AO2 RAB2358 SLP245 GSB0010E13 P0002 T01000039=
201403110037 SPECI KBFI 110037Z 15006KT 10SM RA SCT017 BKN028 OVC046 10/03 A3025 RMK AO2 RAB2358 LGTCG DSNT NW GSB10E13 P0002=
201403102353 METAR KBFI 102353Z 00000KT 10SM SCT019 OVC027 11/07 A3025 RMK AO2 SLP244 60001 T01110067 10128 20094 53023=
201403102336 SPECI KBFI 102336Z 06003KT 10SM BKN027 BKN055 OVC070 11/06 A3024 RMK AO2=
201403102253 METAR KBFI 102253Z 00000KT 10SM SCT026 BKN034 OVC045 12/06 A3021 RMK AO2 SLP231 P0001 T01170061=
201403102153 METAR KBFI 102153Z 13005KT 10SM SCT023 BKN030 OVC048 12/06 A3019 RMK AO2 RAB31E39 SLP224 P0000 T01170061=
201403102141 SPECI KBFI 102141Z 19006KT 10SM BKN023 BKN040 OVC048 12/06 A3019 RMK AO2 RAB31E39 P0000=
201403102053 METAR KBFI 102053Z 15004KT 10SM SCT015 SCT025 BKN065 12/07 A3019 RMK AO2 RAB36E47 SLP221 P0000 60000 T01170067 51019=
201403102036 SPECI KBFI 102036Z 19007KT 140V210 10SM -RA SCT015 BKN034 OVC040 11/06 A3019 RMK AO2 RAB36 P0000=
201403101953 METAR KBFI 101953Z 17007KT 10SM BKN024 BKN033 OVC042 11/06 A3018 RMK AO2 SLP220 T01060061=
201403101929 SPECI KBFI 101929Z 19007KT 10SM BKN015 OVC022 10/06 A3018 RMK AO2=
201403101853 METAR KBFI 101853Z VRB04KT 10SM BKN014 OVC019 09/06 A3017 RMK AO2 SLP214 T00940061=
201403101753 METAR KBFI 101753Z 00000KT 10SM OVC019 10/06 A3013 RMK AO2 SLP203 60008 T01000061 10100 20094 53030=
201403101653 METAR KBFI 101653Z 00000KT 10SM SCT010 OVC019 09/06 A3010 RMK AO2 SLP193 T00940061=
201403101553 METAR KBFI 101553Z 00000KT 10SM SCT010 BKN015 OVC065 09/06 A3007 RMK AO2 RAE42 SLP180 P0001 T00940061=
201403101453 METAR KBFI 101453Z 00000KT 7SM -RA SCT010 BKN013 OVC022 09/07 A3004 RMK AO2 RAE14B45 SLP173 P0000 60007 T00940072 51020=
201403101353 METAR KBFI 101353Z 00000KT 10SM -RA FEW005 BKN016 OVC055 10/07 A3002 RMK AO2 SLP166 P0002 T01000072=
201403101347 SPECI KBFI 101347Z 00000KT 10SM FEW009 BKN016 OVC049 10/07 A3002 RMK AO2 RAE41 P0002=
201403101253 METAR KBFI 101253Z 00000KT 7SM -RA FEW013 SCT026 OVC037 09/07 A3001 RMK AO2 SLP160 P0005 T00940072=
201403101246 SPECI KBFI 101246Z 00000KT 6SM -RA FEW010 BKN027 OVC034 10/07 A3000 RMK AO2 P0005=
201403101217 SPECI KBFI 101217Z 00000KT 10SM -RA FEW007 BKN015 OVC020 10/08 A2999 RMK AO2 P0002=
201403101159 SPECI KBFI 101159Z 00000KT 4SM RA BR BKN019 BKN028 OVC035 10/08 A2999 RMK AO2 P0002=
201403101153 METAR KBFI 101153Z 00000KT 4SM RA BR SCT019 BKN030 OVC035 10/08 A2998 RMK AO2 SLP153 P0009 60041 70056 T01000078 10106 20094 52004=
201403101150 SPECI KBFI 101150Z 00000KT 4SM RA BR FEW021 BKN028 OVC035 10/08 A2998 RMK AO2 P0008=
201403101053 METAR KBFI 101053Z 00000KT 8SM -RA OVC045 10/08 A2997 RMK AO2 SLP149 P0005 T01000078=
201403100953 METAR KBFI 100953Z 31003KT 5SM -RA BR OVC041 09/08 A2997 RMK AO2 SLP148 P0012 T00940078=
201403100853 METAR KBFI 100853Z 32004KT 6SM -RA BR OVC041 10/08 A2996 RMK AO2 SLP146 P0005 60015 T01000078 55002=
201403100839 SPECI KBFI 100839Z 30003KT 7SM -RA FEW021 OVC041 10/08 A2996 RMK AO2 P0003=
201403100816 SPECI KBFI 100816Z 31003KT 10SM -RA BKN021 OVC041 10/08 A2996 RMK AO2 P0001=
201403100753 METAR KBFI 100753Z 31003KT 7SM -RA FEW012 BKN036 OVC043 10/08 A2996 RMK AO2 SLP143 P0002 T01000078 401610100=
201403100708 SPECI KBFI 100708Z 31004KT 6SM -RA BR SCT012 BKN021 OVC028 10/08 A2996 RMK AO2 P0001=
201403100653 METAR KBFI 100653Z 32003KT 4SM -RA BR FEW007 BKN012 OVC020 10/08 A2996 RMK AO2 SLP144 P0008 T01000083=
201403100611 SPECI KBFI 100611Z 00000KT 10SM -RA BKN012 BKN045 OVC060 11/08 A2997 RMK AO2 P0000=
201403100553 METAR KBFI 100553Z 00000KT 8SM -RA FEW006 BKN045 OVC055 11/09 A2997 RMK AO2 SLP148 P0010 60015 T01060089 10144 20106 52001=
201403100453 METAR KBFI 100453Z 30007KT 7SM -RA SCT006 BKN016 OVC065 11/08 A2997 RMK AO2 SLP148 P0005 T01110083=
201403100353 METAR KBFI 100353Z 00000KT 10SM -RA SCT020 OVC065 12/08 A2997 RMK AO2 RAB53 SLP147 P0000 T01170083=
201403100253 METAR KBFI 100253Z 00000KT 10SM SCT017 OVC070 12/08 A2997 RMK AO2 SLP147 T01220083 56005=
201403100153 METAR KBFI 100153Z 19004KT 10SM FEW017 BKN070 OVC085 13/08 A2997 RMK AO2 SLP148 T01280078=
201403100053 METAR KBFI 100053Z 19005KT 10SM SCT055 BKN070 OVC100 13/08 A2997 RMK AO2 SLP148 T01330078=
201403092353 METAR KBFI 092353Z 20007KT 10SM FEW020 BKN090 OVC200 14/08 A2998 RMK AO2 SLP152 T01440078 10161 20122 55009=
201403092253 METAR KBFI 092253Z 20006KT 10SM FEW018 SCT090 OVC150 15/08 A2998 RMK AO2 SLP151 T01500078=
201403092153 METAR KBFI 092153Z 16009KT 10SM SCT018 OVC150 16/09 A2999 RMK AO2 SLP156 T01560089=
201403092053 METAR KBFI 092053Z 20008KT 10SM SCT019 OVC150 16/08 A3001 RMK AO2 SLP161 T01560083 50001=
201403091953 METAR KBFI 091953Z 15008G14KT 10SM SCT014 BKN100 14/09 A3001 RMK AO2 SLP163 T01440094=
201403091853 METAR KBFI 091853Z 19006KT 10SM OVC014 13/09 A3003 RMK AO2 SLP167 T01330089=
201403091753 METAR KBFI 091753Z 17006KT 10SM OVC015 12/09 A3001 RMK AO2 SLP160 T01220089 10122 20117 51023=
201403091653 METAR KBFI 091653Z 16008KT 10SM OVC015 12/09 A2998 RMK AO2 SLP151 T01220089=
201403091553 METAR KBFI 091553Z 00000KT 10SM OVC015 12/09 A2997 RMK AO2 SLP147 T01170089=
201403091453 METAR KBFI 091453Z 15008KT 10SM OVC015 12/08 A2994 RMK AO2 SLP137 T01170083 52018=
201403091353 METAR KBFI 091353Z COR 12005KT 10SM BKN015 12/08 A2992 RMK AO2 SLP130 T01170083=
201403091253 METAR KBFI 091253Z VRB03KT 10SM BKN015 BKN070 OVC100 12/08 A2990 RMK AO2 SLP126 T01220083=
201403091215 SPECI KBFI 091215Z VRB05KT 10SM SCT010 OVC100 12/09 A2989 RMK AO2=
201403091153 METAR KBFI 091153Z COR 22009G14KT 10SM SCT010 OVC100 12/09 A2988 RMK AO2 SLP119 60004 70113 T01220089 10133 20122 51011=
201403091053 METAR KBFI 091053Z 19012G17KT 10SM SCT015 OVC085 12/09 A2988 RMK AO2 SLP118 T01220089=
201403090953 METAR KBFI 090953Z 20011G21KT 10SM SCT014 BKN100 13/09 A2987 RMK AO2 RAE05 SLP114 P0000 T01280094=
201403090853 METAR KBFI 090853Z 20009G18KT 8SM -RA FEW009 BKN014 OVC022 13/11 A2985 RMK AO2 RAB09E26B51 SLP108 P0001 60004 T01280106 53024=
201403090753 METAR KBFI 090753Z 20010G20KT 10SM BKN018 OVC024 13/11 A2983 RMK AO2 RAE29 SLP100 P0000 T01330106 401330061=
201403090653 METAR KBFI 090653Z 19010G17KT 10SM -RA BKN015 OVC020 13/11 A2980 RMK AO2 SLP090 P0003 T01330106=
201403090553 METAR KBFI 090553Z 17012KT 7SM -RA SCT010 OVC039 13/11 A2978 RMK AO2 SLP084 P0008 60055 T01330106 10133 20100 53012=
201403090453 METAR KBFI 090453Z 15006KT 6SM -RA BR SCT010 OVC039 12/10 A2977 RMK AO2 SLP082 P0009 T01170100=
201403090353 METAR KBFI 090353Z 13003KT 5SM -RA BR BKN010 OVC024 12/10 A2974 RMK AO2 SLP072 P0008 T01170100=
201403090253 METAR KBFI 090253Z 12003KT 3SM -RA BR BKN011 BKN018 OVC027 11/09 A2975 RMK AO2 SLP072 P0011 60030 T01110094 56020=
201403090153 METAR KBFI 090153Z 00000KT 3SM -RA BR SCT004 BKN029 OVC036 11/09 A2975 RMK AO2 SLP075 P0011 T01060089=
201403090113 SPECI KBFI 090113Z 00000KT 4SM -RA BR SCT004 BKN016 OVC027 11/09 A2976 RMK AO2 P0003=
201403090053 METAR KBFI 090053Z 00000KT 3SM -RA BR BKN004 OVC016 11/09 A2977 RMK AO2 SLP080 P0008 T01060089=
201403090012 SPECI KBFI 090012Z 00000KT 3SM -RA BR BKN004 OVC016 11/08 A2980 RMK AO2 P0003=
201403082353 METAR KBFI 082353Z COR 00000KT 3SM -RA BR BKN004 OVC016 10/08 A2980 RMK AO2 SLP092 P0009 60054 T01000083 10111 20100 58018=
201403082253 METAR KBFI 082253Z 00000KT 4SM RA BR FEW004 BKN021 OVC038 10/08 A2984 RMK AO2 SLP103 P0016 T01000083=
201403082153 METAR KBFI 082153Z 13003KT 6SM -RA BKN026 BKN030 OVC038 10/07 A2985 RMK AO2 SLP109 P0011 T01000072=
201403082149 SPECI KBFI 082149Z 00000KT 6SM -RA BR BKN026 OVC038 10/08 A2986 RMK AO2 P0010=
201403082053 METAR KBFI 082053Z COR 00000KT 4SM -RA SCT006 OVC048 10/07 A2991 RMK AO2 SLP127 P0010 60018 T01000072 58017=
201403081953 METAR KBFI 081953Z 00000KT 7SM -RA OVC060 11/07 A2994 RMK AO2 SLP137 P0007 T01060067=
201403081853 METAR KBFI 081853Z 16003KT 10SM -RA OVC065 10/06 A2995 RMK AO2 RAB13 SLP142 P0001 T01000056=
201403081753 METAR KBFI 081753Z 08003KT 10SM OVC070 11/05 A2996 RMK AO2 SLP144 T01060050 10106 20067 56019=
201403081653 METAR KBFI 081653Z 14003KT 10SM FEW020 SCT085 OVC100 09/03 A2998 RMK AO2 SLP150 T00890028=
201403081553 METAR KBFI 081553Z 15005KT 10SM BKN110 08/03 A2999 RMK AO2 SLP154 T00830028=
201403081453 METAR KBFI 081453Z 16006KT 10SM OVC140 07/03 A3001 RMK AO2 SLP163 T00720028 58015=
201403081353 METAR KBFI 081353Z 14005KT 10SM CLR 08/03 A3003 RMK AO2 SLP167 T00780033=
201403081253 METAR KBFI 081253Z 12004KT 10SM CLR 07/03 A3005 RMK AO2 SLP174 T00720033=
201403081153 METAR KBFI 081153Z 00000KT 10SM CLR 07/04 A3006 RMK AO2 SLP178 T00720039 10100 20061 58020=
201403081053 METAR KBFI 081053Z 00000KT 10SM CLR 07/04 A3008 RMK AO2 SLP184 T00720039=
201403080953 METAR KBFI 080953Z 00000KT 10SM CLR 08/04 A3011 RMK AO2 SLP196 T00780039=
201403080853 METAR KBFI 080853Z 00000KT 10SM CLR 08/04 A3012 RMK AO2 SLP198 T00830039 56018=
201403080753 METAR KBFI 080753Z 13004KT 10SM CLR 09/04 A3013 RMK AO2 SLP202 T00890044 401610078=
201403080653 METAR KBFI 080653Z 15004KT 10SM CLR 09/04 A3014 RMK AO2 SLP207 T00940044=
201403080553 METAR KBFI 080553Z 15005KT 10SM CLR 09/05 A3017 RMK AO2 SLP215 T00940050 10161 20094 58013=
201403080453 METAR KBFI 080453Z 13003KT 10SM CLR 11/04 A3019 RMK AO2 SLP221 T01110044=
201403080353 METAR KBFI 080353Z 00000KT 10SM CLR 13/04 A3019 RMK AO2 SLP223 T01280044=
201403080253 METAR KBFI 080253Z 16003KT 10SM FEW060 SCT120 13/04 A3020 RMK AO2 SLP228 T01280039 53001=
201403080153 METAR KBFI 080153Z 17004KT 10SM FEW060 SCT120 14/04 A3020 RMK AO2 SLP227 T01440039=
201403080053 METAR KBFI 080053Z 23005KT 10SM FEW035 SCT220 16/03 A3020 RMK AO2 SLP226 T01560033=
201403072353 METAR KBFI 072353Z 19007KT 10SM FEW032 16/04 A3020 RMK AO2 SLP226 T01610044 10161 20122 56024=
201403072253 METAR KBFI 072253Z 17009KT 10SM SCT032 16/04 A3022 RMK AO2 SLP234 T01560044=
201403072153 METAR KBFI 072153Z 17009G18KT 10SM SCT032 SCT100 16/06 A3024 RMK AO2 SLP240 T01560061=
201403072053 METAR KBFI 072053Z 19006KT 10SM FEW031 SCT039 OVC049 13/07 A3027 RMK AO2 SLP250 T01330067 58003=
201403071953 METAR KBFI 071953Z 17010KT 10SM BKN034 BKN042 14/06 A3028 RMK AO2 SLP253 T01390061=
201403071853 METAR KBFI 071853Z 16013KT 10SM BKN024 BKN030 13/07 A3028 RMK AO2 SLP252 T01330067=
201403071753 METAR KBFI 071753Z 20008G17KT 10SM BKN022 BKN030 12/06 A3028 RMK AO2 SLP253 T01220061 10128 20094 51020=
201403071653 METAR KBFI 071653Z 19008G16KT 10SM BKN022 BKN200 11/06 A3026 RMK AO2 SLP247 T01110056=
201403071553 METAR KBFI 071553Z 19007KT 10SM BKN019 11/06 A3024 RMK AO2 SLP241 T01060056=
201403071453 METAR KBFI 071453Z 16008G15KT 10SM OVC019 10/06 A3022 RMK AO2 SLP233 T01000056 53023=
201403071353 METAR KBFI 071353Z 17010KT 10SM BKN021 09/06 A3020 RMK AO2 SLP224 T00940056=
201403071253 METAR KBFI 071253Z 16011KT 10SM BKN019 10/06 A3018 RMK AO2 SLP218 T01000056=
201403071212 SPECI KBFI 071212Z 18010G17KT 10SM SCT017 10/06 A3016 RMK AO2=
201403071153 METAR KBFI 071153Z 18010G19KT 10SM BKN017 10/06 A3015 RMK AO2 SLP211 70010 T01000061 10111 20100 51020=
201403071053 METAR KBFI 071053Z 19012G16KT 10SM OVC017 11/06 A3015 RMK AO2 SLP209 T01060061=
201403070953 METAR KBFI 070953Z 19011G18KT 10SM OVC019 11/07 A3013 RMK AO2 SLP202 T01060067=
201403070925 SPECI KBFI 070925Z 19009G18KT 10SM BKN019 11/07 A3012 RMK AO2 PRESRR=
201403070853 METAR KBFI 070853Z 19009G16KT 10SM FEW017 11/06 A3009 RMK AO2 SLP190 T01060061 51031=
201403070753 METAR KBFI 070753Z 20009G16KT 10SM SCT020 SCT100 11/07 A3007 RMK AO2 SLP181 T01110067 401390106=
201403070742 SPECI KBFI 070742Z 19009G16KT 10SM SCT020 BKN100 11/07 A3006 RMK AO2=
201403070703 SPECI KBFI 070703Z 20008KT 160V220 10SM BKN020 11/07 A3005 RMK AO2=
201403070653 METAR KBFI 070653Z 19011G20KT 10SM SCT020 11/07 A3004 RMK AO2 SLP173 T01110067=
201403070642 SPECI KBFI 070642Z 20010G19KT 10SM SCT018 11/07 A3004 RMK AO2=
201403070553 METAR KBFI 070553Z 19013G20KT 10SM BKN018 11/07 A3000 RMK AO2 SLP159 T01110067 10122 20111 51029=
201403070453 METAR KBFI 070453Z 19010G22KT 10SM BKN020 BKN110 11/07 A2998 RMK AO2 SLP151 T01110072=
201403070353 METAR KBFI 070353Z 19008KT 10SM BKN018 OVC024 11/07 A2995 RMK AO2 SLP143 T01110072=
201403070316 SPECI KBFI 070316Z 19008G16KT 10SM BKN024 12/07 A2994 RMK AO2=
201403070253 METAR KBFI 070253Z 19011G19KT 10SM FEW016 SCT022 BKN140 11/07 A2992 RMK AO2 SLP130 T01110072 51032=
201403070153 METAR KBFI 070153Z 18011G22KT 10SM SCT026 BKN033 12/07 A2989 RMK AO2 SLP120 T01170067=
201403070053 METAR KBFI 070053Z 18009G18KT 10SM SCT026 BKN036 12/07 A2986 RMK AO2 PK WND 17027/0021 SLP111 T01220072=
201403062353 METAR KBFI 062353Z 19015G20KT 10SM SCT120 BKN150 12/07 A2982 RMK AO2 PK WND 19027/2303 SLP098 60000 T01220067 10139 20122 53062=
201403062253 METAR KBFI 062253Z 19014G29KT 10SM SCT023 BKN100 12/07 A2976 RMK AO2 PK WND 21031/2224 PRESRR SLP079 T01220067=
201403062153 METAR KBFI 062153Z COR 21014G23KT 10SM BKN022 OVC090 12/07 A2969 RMK AO2 PK WND 21027/2143 SLP052 T01220067=
201403062053 METAR KBFI 062053Z 17013G19KT 10SM FEW030 SCT037 OVC047 14/07 A2964 RMK AO2 RAE04 SLP036 P0000 60000 T01390072 53035=
201403061953 METAR KBFI 061953Z 19013G21KT 10SM -RA BKN041 OVC052 14/07 A2960 RMK AO2 RAB17 SLP023 P0000 T01390072=
201403061853 METAR KBFI 061853Z 17007KT 10SM BKN050 OVC065 14/08 A2955 RMK AO2 SLP007 T01390078=
201403061753 METAR KBFI 061753Z 17008KT 10SM BKN065 OVC080 13/08 A2954 RMK AO2 RAB13E23 SLP001 P0000 60010 T01330078 10133 20106 53001 $=
201403061653 METAR KBFI 061653Z 17014G24KT 10SM FEW048 SCT055 OVC070 13/07 A2953 RMK AO2 PK WND 16026/1636 RAB08E17 SLP998 P0001 T01280072 $=
201403061553 METAR KBFI 061553Z 16013KT 10SM BKN049 OVC070 12/07 A2954 RMK AO2 RAB1454E43 SLP001 P0001 T01170072 $=
201403061453 METAR KBFI 061453Z 15008KT 10SM FEW047 OVC055 12/08 A2953 RMK AO2 RAE02B20E47 SLP000 P0001 60008 T01170078 53001 $=
201403061353 METAR KBFI 061353Z 14008KT 10SM -RA OVC049 11/08 A2952 RMK AO2 SLP995 P0002 T01110078 $=
201403061253 METAR KBFI 061253Z 14009KT 6SM -RA OVC047 11/08 A2952 RMK AO2 PK WND 15031/1222 SLP997 P0005 T01060078 $=
201403061153 METAR KBFI 061153Z 17011KT 10SM -RA FEW040 BKN050 OVC110 12/07 A2953 RMK AO2 RAE24B40 SLP999 P0002 60020 70093 T01170072 10139 20111 53002 $=
201403061053 METAR KBFI 061053Z 17017G23KT 10SM -RA FEW036 SCT042 OVC050 12/08 A2953 RMK AO2 RAB16 SLP999 P0001 T01220078 $=
201403060953 METAR KBFI 060953Z 14012KT 10SM FEW045 OVC055 12/09 A2952 RMK AO2 RAE19 SLP995 P0002 T01170089 $=
201403060853 METAR KBFI 060853Z 18008G18KT 6SM -RA FEW028 SCT035 OVC043 12/08 A2952 RMK AO2 PK WND 18028/0800 SLP997 P0006 60015 T01220083 53029 $=
201403060753 METAR KBFI 060753Z 17015G29KT 10SM -RA FEW040 BKN050 OVC090 13/08 A2949 RMK AO2 PK WND 17029/0753 SLP986 P0009 T01330083 401610106 $=
201403060653 METAR KBFI 060653Z 16014G19KT 10SM -RA BKN047 OVC065 13/09 A2945 RMK AO2 RAB04 SLP972 P0000 T01330094 $=
201403060553 METAR KBFI 060553Z 15010KT 10SM SCT023 BKN110 12/10 A2944 RMK AO2 SLP969 60031 T01220100 10144 20117 58011 $=
201403060453 METAR KBFI 060453Z 13009KT 10SM BKN029 OVC036 12/09 A2945 RMK AO2 RAE49 SLP973 P0001 T01220094 $=
201403060353 METAR KBFI 060353Z 14005KT 4SM RA BR FEW029 OVC035 12/10 A2948 RMK AO2 SLP981 P0012 T01220100 $=
201403060253 METAR KBFI 060253Z 14006KT 10SM -RA OVC060 13/10 A2947 RMK AO2 SLP979 P0009 60018 T01280100 56032 $=
201403060153 METAR KBFI 060153Z 13010KT 9SM -RA OVC065 13/11 A2949 RMK AO2 SLP986 P0005 T01330106 $=
201403060053 METAR KBFI 060053Z 12007KT 10SM -RA FEW011 SCT047 OVC070 14/12 A2952 RMK AO2 RAB2359 SLP996 P0004 T01440117 $=
201403060035 SPECI KBFI 060035Z 13004KT 10SM -RA SCT020 BKN043 OVC049 14/11 A2955 RMK AO2 RAB2359 P0003 $=
201403060020 SPECI KBFI 060020Z 15004KT 7SM -RA FEW017 BKN022 OVC030 14/11 A2955 RMK AO2 RAB2359 P0002 $=
201403052353 METAR KBFI 052353Z AUTO 11005KT 10SM BKN037 OVC046 14/11 A2956 RMK AO2 RAB06E40 SLP011 P0000 60000 T01390106 10161 20133 58038 TSNO $=
201403052253 METAR KBFI 052253Z 15004KT 10SM OVC055 15/10 A2961 RMK AO2 SLP026 T01500100 $=
201403052153 METAR KBFI 052153Z 00000KT 10SM FEW020 BKN050 15/10 A2964 RMK AO2 SLP036 T01500100 $=
201403052053 METAR KBFI 052053Z VRB05KT 10SM FEW018 SCT028 BKN200 15/10 A2968 RMK AO2 SLP049 T01500100 58006=
201403051953 METAR KBFI 051953Z 20007KT 170V230 10SM BKN023 BKN200 15/10 A2970 RMK AO2 SLP057 T01500100=
201403051853 METAR KBFI 051853Z 21010KT 10SM BKN018 BKN026 14/11 A2970 RMK AO2 SLP056 T01440111=
201403051753 METAR KBFI 051753Z 20007KT 6SM HZ SCT008 BKN010 OVC013 14/11 A2970 RMK AO2 RAB13E29 SLP055 P0001 60042 T01390111 10139 20106 53012=
201403051653 METAR KBFI 051653Z 17008G17KT 4SM BR BKN008 OVC020 13/11 A2967 RMK AO2 RAB14E49 SLP048 P0001 T01330111=
201403051553 METAR KBFI 051553Z 14010KT 2 1/2SM BR BKN008 OVC010 12/10 A2966 RMK AO2 RAE20 SLP044 P0002 T01170100=
201403051518 SPECI KBFI 051518Z 14009KT 2 1/2SM -RA BR BKN010 OVC015 11/09 A2966 RMK AO2 P0002=
201403051453 METAR KBFI 051453Z 14008KT 4SM -RA BR FEW004 SCT016 OVC025 11/09 A2966 RMK AO2 RAE20B41 SLP043 P0003 60038 T01060094 56011=
201403051353 METAR KBFI 051353Z 11003KT 7SM -RA FEW004 SCT016 OVC025 11/09 A2966 RMK AO2 SLP043 P0019 T01110089=
201403051253 METAR KBFI 051253Z 00000KT 3SM -RA BR SCT004 OVC025 11/09 A2965 RMK AO2 SLP041 P0016 T01060094=
201403051153 METAR KBFI 051153Z 00000KT 3SM RA BR SCT004 BKN016 OVC032 11/09 A2969 RMK AO2 SLP054 P0015 60066 70100 T01060089 10117 20106 56023=
201403051053 METAR KBFI 051053Z 00000KT 3SM RA BR SCT006 BKN030 OVC045 11/09 A2971 RMK AO2 PRESFR SLP062 P0032 T01060089=
201403050953 METAR KBFI 050953Z 00000KT 4SM RA BR SCT030 OVC045 11/09 A2976 RMK AO2 SLP078 P0012 T01110094=
201403050853 METAR KBFI 050853Z 00000KT 10SM -RA FEW047 BKN060 OVC075 11/09 A2978 RMK AO2 SLP084 P0003 60007 T01110094 58036=
201403050800 SPECI KBFI 050800Z 00000KT 8SM -RA BKN031 OVC044 11/09 A2982 RMK AO2 P0001=
201403050753 METAR KBFI 050753Z 00000KT 10SM -RA OVC028 11/09 A2982 RMK AO2 RAB19 SLP097 P0003 T01110094 401330067=
201403050653 METAR KBFI 050653Z 15005KT 10SM OVC028 12/09 A2985 RMK AO2 RAB0559E52 SLP108 P0001 T01170094=
201403050553 METAR KBFI 050553Z 14005KT 10SM BKN028 OVC035 12/10 A2988 RMK AO2 RAE32 SLP119 P0001 60008 T01170100 10133 20117 58009=
201403050526 SPECI KBFI 050526Z 19004KT 8SM -RA BKN028 OVC045 12/10 A2989 RMK AO2 P0001=
201403050453 METAR KBFI 050453Z 17006KT 8SM -RA FEW008 BKN035 OVC045 12/09 A2990 RMK AO2 RAB33 SLP123 P0002 T01170094=
201403050353 METAR KBFI 050353Z 17005KT 10SM FEW024 SCT032 SCT046 12/09 A2991 RMK AO2 RAE21 SLP126 P0002 T01170094=
201403050300 SPECI KBFI 050300Z 16008KT 130V190 9SM -RA SCT018 BKN030 OVC055 12/09 A2991 RMK AO2 P0001=
201403050253 METAR KBFI 050253Z 16004KT 9SM -RA FEW018 BKN025 OVC042 12/09 A2991 RMK AO2 SLP129 P0002 60003 T01220094 55002=
201403050153 METAR KBFI 050153Z 18007G16KT 10SM -RA FEW008 BKN023 OVC036 12/09 A2991 RMK AO2 RAB02 SLP129 P0001 T01220089=
201403050144 SPECI KBFI 050144Z 17006KT 10SM -RA BKN020 BKN027 OVC050 12/09 A2991 RMK AO2 RAB02 P0001=
201403050053 METAR KBFI 050053Z AUTO 19009G15KT 10SM BKN040 13/08 A2991 RMK AO2 RAB15E24 SLP128 P0000 T01280083=
201403042353 METAR KBFI 042353Z 18010G15KT 10SM FEW021 BKN034 OVC046 13/08 A2992 RMK AO2 SLP131 60004 T01330083 10133 20083 58001=
201403042336 SPECI KBFI 042336Z 18008KT 10SM SCT021 BKN032 OVC039 13/09 A2992 RMK AO2=
201403042253 METAR KBFI 042253Z 17011KT 9SM BKN017 OVC023 12/09 A2993 RMK AO2 RAB47E49 SLP135 P0000 T01220089=
201403042153 METAR KBFI 042153Z 18008KT 8SM BR FEW017 BKN022 OVC028 12/09 A2993 RMK AO2 RAE32 SLP133 P0001 T01220089=
201403042053 METAR KBFI 042053Z 16008KT 120V190 5SM -RA BR FEW011 BKN019 OVC025 12/09 A2992 RMK AO2 RAB08E15B31 SLP132 P0001 60003 T01170094 58010=
201403041953 METAR KBFI 041953Z 16015G22KT 10SM BKN015 BKN020 OVC031 12/08 A2993 RMK AO2 RAE34 SLP135 P0001 T01170083=
201403041853 METAR KBFI 041853Z VRB04KT 3SM -RA BR SCT006 BKN010 OVC016 09/08 A2994 RMK AO2 SLP140 P0001 T00940078=
201403041753 METAR KBFI 041753Z 00000KT 3SM -RA BR BKN006 BKN018 OVC023 08/07 A2995 RMK AO2 SLP142 P0007 60022 T00830067 10100 20067 58001=
201403041653 METAR KBFI 041653Z 00000KT 4SM -RA BR BKN006 OVC011 08/06 A2996 RMK AO2 SLP146 P0002 T00780056=
201403041625 SPECI KBFI 041625Z 00000KT 6SM -RA BR BKN006 OVC011 08/06 A2996 RMK AO2 P0000=
201403041553 METAR KBFI 041553Z 00000KT 9SM -RA FEW006 BKN013 OVC024 07/05 A2995 RMK AO2 SLP142 P0001 T00720050=
201403041453 METAR KBFI 041453Z 29003KT 10SM -RA BKN006 BKN013 OVC037 07/05 A2995 RMK AO2 RAB1358 SLP142 P0007 60012 T00670050 53009=
201403041353 METAR KBFI 041353Z 34004KT 4SM BR OVC006 08/06 A2994 RMK AO2 SLP138 T00780056=
201403041253 METAR KBFI 041253Z 25003KT 3SM BR BKN007 OVC017 09/07 A2993 RMK AO2 RAE40 SLP134 P0005 T00940072=
201403041216 SPECI KBFI 041216Z 00000KT 2 1/2SM -RA BR BKN007 BKN011 OVC038 10/08 A2993 RMK AO2 P0003=
201403041153 METAR KBFI 041153Z 17005KT 6SM -RA BR SCT011 BKN024 OVC038 10/08 A2993 RMK AO2 RAB30 SLP133 P0003 60003 70037 T01000078 10106 20100 50002=
201403041053 METAR KBFI 041053Z 18004KT 10SM BKN024 BKN040 BKN050 10/07 A2993 RMK AO2 RAB32E41 SLP135 P0000 T01000072=
201403040953 METAR KBFI 040953Z 19008KT 10SM FEW015 BKN024 11/07 A2993 RMK AO2 SLP136 T01060072=
201403040853 METAR KBFI 040853Z 19007KT 10SM FEW021 BKN030 BKN037 11/07 A2992 RMK AO2 SLP132 T01060067 51015=
201403040753 METAR KBFI 040753Z 18009KT 10SM FEW018 BKN028 BKN035 11/07 A2991 RMK AO2 SLP127 T01060072 401500094=
201403040653 METAR KBFI 040653Z 19010KT 10SM SCT022 BKN026 OVC036 11/07 A2990 RMK AO2 SLP123 T01060072=
201403040553 METAR KBFI 040553Z 18007KT 10SM FEW017 SCT022 BKN030 11/07 A2988 RMK AO2 RAE28 SLP117 P0002 60003 T01060072 10144 20106 51014=
201403040453 METAR KBFI 040453Z 18011KT 10SM -RA FEW026 SCT033 OVC044 12/07 A2987 RMK AO2 RAB51 SLP113 P0001 T01170067=
201403040353 METAR KBFI 040353Z 18008KT 10SM FEW026 BKN037 OVC085 12/06 A2985 RMK AO2 SLP109 T01170061=
201403040253 METAR KBFI 040253Z 19013G19KT 10SM BKN030 OVC035 12/06 A2984 RMK AO2 SLP104 T01220061 53031=
201403040153 METAR KBFI 040153Z 21010G21KT 10SM FEW025 BKN045 BKN200 13/05 A2980 RMK AO2 SLP091 T01280050=
201403040053 METAR KBFI 040053Z 20011G18KT 10SM FEW025 SCT100 14/06 A2977 RMK AO2 SLP081 T01390056=
201403032353 METAR KBFI 032353Z 19013G19KT 10SM FEW025 BKN090 14/06 A2975 RMK AO2 SLP072 60003 T01440061 10150 20094 53021=
201403032253 METAR KBFI 032253Z 21011G19KT 10SM FEW012 SCT080 BKN200 14/06 A2972 RMK AO2 SLP063 T01390061=
201403032153 METAR KBFI 032153Z 22008G18KT 10SM CLR 14/08 A2970 RMK AO2 SLP058 T01390078=
201403032059 SPECI KBFI 032059Z 19007G15KT 10SM FEW015 SCT022 13/09 A2969 RMK AO2=
201403032053 METAR KBFI 032053Z COR 19008KT 6SM HZ SCT008 SCT015 SCT150 13/09 A2969 RMK AO2 SLP052 60003 T01330094 50001=
201403032003 SPECI KBFI 032003Z 15005KT 6SM BR SCT008 OVC010 11/08 A2969 RMK AO2=
201403031953 METAR KBFI 031953Z 14005KT 6SM BR BKN008 OVC010 10/08 A2969 RMK AO2 RAE1858 SLP053 P0000 T01000078=
201403031926 SPECI KBFI 031926Z 13006KT 6SM BR BKN008 OVC010 10/08 A2968 RMK AO2 RAE1858 P0000=
201403031853 METAR KBFI 031853Z 11005KT 1 1/2SM -RA BR SCT006 BKN010 OVC016 09/07 A2969 RMK AO2 SLP052 P0003 T00940072=
201403031815 SPECI KBFI 031815Z 16005KT 1 1/2SM -RA BR BKN006 OVC020 09/07 A2969 RMK AO2 P0001=
201403031758 SPECI KBFI 031758Z 17006KT 3SM -RA BR FEW023 OVC029 09/07 A2968 RMK AO2 P0001=
201403031753 METAR KBFI 031753Z 17006KT 4SM -RA BR SCT009 OVC031 09/07 A2968 RMK AO2 SLP051 P0001 60028 T00940072 10100 20094 52001=
201403031653 METAR KBFI 031653Z 14007KT 10SM -RA SCT015 OVC033 09/07 A2968 RMK AO2 SLP049 P0010 T00940072=
201403031553 METAR KBFI 031553Z 16008KT 6SM -RA SCT015 OVC020 10/07 A2969 RMK AO2 SLP052 P0009 T01000072=
201403031453 METAR KBFI 031453Z 14006KT 7SM -RA BKN023 OVC035 09/08 A2968 RMK AO2 SLP051 P0007 60008 T00940078 56020=
201403031353 METAR KBFI 031353Z 13010KT 8SM -RA SCT032 BKN055 OVC070 09/07 A2969 RMK AO2 RAE1258B27 SLP055 P0000 T00940072=
201403031300 SPECI KBFI 031300Z 15011KT 8SM FEW028 BKN042 OVC049 09/07 A2972 RMK AO2 RAE1258 P0000=
201403031253 METAR KBFI 031253Z 15010KT 7SM -RA FEW019 BKN022 OVC036 09/07 A2972 RMK AO2 RAB42 SLP064 P0001 T00940072=
201403031153 METAR KBFI 031153Z 15007KT 10SM FEW017 BKN023 OVC036 09/07 A2974 RMK AO2 RAE45 SLP071 P0001 60003 70072 T00940072 10106 20094 58007=
201403031053 METAR KBFI 031053Z 17010KT 5SM -RA FEW010 OVC033 10/07 A2975 RMK AO2 RAB02E23B49 SLP074 P0001 T01000072=
201403030953 METAR KBFI 030953Z 17012KT 9SM BKN020 OVC024 09/07 A2976 RMK AO2 RAB09E26 SLP079 P0001 T00940067=
201403030853 METAR KBFI 030853Z 16011KT 10SM OVC022 10/06 A2976 RMK AO2 SLP078 60000 T01000061 51043=
201403030753 METAR KBFI 030753Z 19011G17KT 10SM BKN018 OVC080 10/06 A2974 RMK AO2 SLP070 T01000061 401110028=
201403030653 METAR KBFI 030653Z 19013G23KT 10SM OVC070 10/06 A2969 RMK AO2 RAE0559 SLP054 P0000 T01000061=
201403030553 METAR KBFI 030553Z 19011G18KT 10SM -RA SCT015 OVC060 11/08 A2963 RMK AO2 SLP034 P0003 60035 T01060078 10111 20061 53026=
201403030536 SPECI KBFI 030536Z 18013G17KT 10SM -RA FEW013 SCT022 OVC060 11/08 A2962 RMK AO2 P0003=
201403030453 METAR KBFI 030453Z 00000KT 8SM -RA SCT009 BKN017 OVC034 08/06 A2959 RMK AO2 SLP018 P0002 T00780061=
201403030353 METAR KBFI 030353Z 00000KT 10SM -RA SCT009 BKN029 OVC034 07/04 A2956 RMK AO2 SLP010 P0003 T00670044=
201403030259 SPECI KBFI 030259Z 15008KT 10SM -RA SCT009 SCT027 OVC040 06/04 A2956 RMK AO2 P0001=
201403030253 METAR KBFI 030253Z 14006KT 7SM -RA FEW021 SCT028 OVC037 06/04 A2956 RMK AO2 RAE0154B22 SLP008 P0006 60027 T00610039 55002=
201403030153 METAR KBFI 030153Z 13009KT 7SM -RA FEW005 OVC032 06/03 A2954 RMK AO2 SLP004 P0008 T00610033=
201403030150 SPECI KBFI 030150Z 13009KT 7SM -RA FEW005 OVC032 06/03 A2955 RMK AO2 P0008=
201403030053 METAR KBFI 030053Z 13008KT 3SM -RA FEW005 BKN018 OVC036 06/03 A2956 RMK AO2 SLP010 P0013 T00610033=
201403030012 SPECI KBFI 030012Z 11007KT 3SM RA BR FEW007 BKN018 OVC042 07/04 A2957 RMK AO2 P0004=
201403022353 METAR KBFI 022353Z 12003KT 5SM -RA BR FEW005 BKN032 OVC050 07/05 A2957 RMK AO2 SLP014 P0006 60032 T00720050 10072 20039 56015=
201403022253 METAR KBFI 022253Z 14007KT 10SM -RA BKN032 OVC042 07/04 A2959 RMK AO2 SLP018 P0004 T00670039=
201403022153 METAR KBFI 022153Z 14007KT 5SM -RA BR BKN031 BKN040 OVC055 06/04 A2960 RMK AO2 SLP023 P0008 T00610039=
201403022053 METAR KBFI 022053Z 10007KT 5SM -RA SCT027 BKN035 OVC055 06/03 A2962 RMK AO2 SLP029 P0008 60014 T00560028 58018=
201403021953 METAR KBFI 021953Z 11008KT 8SM -RA SCT032 OVC045 05/02 A2964 RMK AO2 SLP036 P0003 T00500022=
201403021853 METAR KBFI 021853Z 13007KT 10SM -RA SCT005 BKN018 OVC035 05/02 A2966 RMK AO2 SLP043 P0003 T00500022=
201403021753 METAR KBFI 021753Z 11003KT 3SM -RA BR OVC005 04/02 A2967 RMK AO2 SLP047 P0002 60002 T00390022 10039 20033 58006=
201403021653 METAR KBFI 021653Z 14007KT 3SM RA BR BKN005 OVC011 04/02 A2968 RMK AO2 RAE01B49 SLP050 P0000 T00390022=
201403021553 METAR KBFI 021553Z 15009KT 10SM -RA SCT009 BKN013 OVC049 03/02 A2968 RMK AO2 RAB16 SLP050 P0000 T00330017=
201403021453 METAR KBFI 021453Z 15010KT 10SM FEW009 SCT013 OVC042 03/01 A2969 RMK AO2 RAB10E40 SLP052 P0000 60000 T00330011 58011=
201403021353 METAR KBFI 021353Z 15010KT 10SM BKN009 OVC013 03/01 A2970 RMK AO2 SLP056 T00330011=
201403021253 METAR KBFI 021253Z 15008KT 7SM OVC014 03/01 A2972 RMK AO2 SLP062 T00330011=
201403021245 SPECI KBFI 021245Z 16008KT 7SM OVC014 03/01 A2971 RMK AO2=
201403021153 METAR KBFI 021153Z 15006KT 10SM BKN020 BKN024 OVC028 03/01 A2972 RMK AO2 SLP063 P0001 60001 70002 T00330011 10056 20028 51004=
201403021125 SPECI KBFI 021125Z 14006KT 9SM BKN016 OVC022 03/01 A2971 RMK AO2 P0001=
201403021053 METAR KBFI 021053Z 13006KT 4SM BR OVC012 03/01 A2972 RMK AO2 SLP062 T00280006=
201403021009 SPECI KBFI 021009Z 13006KT 9SM OVC014 04/01 A2972 RMK AO2=
201403020953 METAR KBFI 020953Z 13006KT 10SM BKN016 OVC024 04/00 A2972 RMK AO2 SLP064 T00440000=
201403020853 METAR KBFI 020853Z 11008KT 10SM OVC020 04/M02 A2971 RMK AO2 SLP059 T00441017 53005=
201403020753 METAR KBFI 020753Z 12008KT 10SM OVC026 05/M03 A2969 RMK AO2 SLP054 T00501028 400780050=
201403020653 METAR KBFI 020653Z 13009KT 10SM OVC026 05/M04 A2969 RMK AO2 SLP054 T00501039=
201403020553 METAR KBFI 020553Z 12004KT 10SM OVC028 06/M03 A2969 RMK AO2 SLP054 60000 T00561028 10056 20050 53008=
201403020453 METAR KBFI 020453Z 12005KT 10SM OVC028 06/M03 A2967 RMK AO2 SLP048 T00561033=
201403020353 METAR KBFI 020353Z 11008KT 10SM OVC030 06/M03 A2967 RMK AO2 SLP045 T00561028=
201403020253 METAR KBFI 020253Z 12009KT 10SM OVC034 06/M03 A2967 RMK AO2 SLP046 60000 T00561028 53001=
201403020153 METAR KBFI 020153Z 13006KT 10SM OVC034 06/M02 A2966 RMK AO2 RAE07 SLP043 P0000 T00561022=
201403020053 METAR KBFI 020053Z 10006KT 10SM -RA OVC038 06/M03 A2966 RMK AO2 RAB14E26B51 SLP044 P0000 T00561028=
201403012353 METAR KBFI 012353Z 13009KT 10SM OVC036 05/M02 A2967 RMK AO2 RAB33E43 SLP045 P0000 60001 T00501022 10072 20050 58006=
201403012253 METAR KBFI 012253Z 12006KT 10SM OVC038 05/M02 A2968 RMK AO2 RAE30 SLP050 P0000 T00501017=
201403012153 METAR KBFI 012153Z 13009KT 10SM -RA OVC036 05/M01 A2968 RMK AO2 SLP050 P0000 T00501011=
201403012053 METAR KBFI 012053Z 13010KT 10SM -RA OVC039 05/M01 A2968 RMK AO2 SLP052 P0001 60001 T00501011 50003=
201403011953 METAR KBFI 011953Z 13014G18KT 10SM -RA OVC044 06/M02 A2969 RMK AO2 RAB33SNB49E50 SLP053 P0000 T00611022=
201403011853 METAR KBFI 011853Z 12009KT 10SM OVC046 07/M04 A2968 RMK AO2 SLP052 T00671039=
201403011753 METAR KBFI 011753Z 12011KT 10SM OVC050 07/M03 A2968 RMK AO2 SLP049 T00721033 10078 20072 51020=
201403011653 METAR KBFI 011653Z 00000KT 10SM OVC055 08/M02 A2966 RMK AO2 SLP043 T00781022=
201403011553 METAR KBFI 011553Z 03003KT 10SM OVC055 08/M03 A2964 RMK AO2 SLP035 T00781028=
201403011453 METAR KBFI 011453Z 00000KT 10SM OVC060 08/M03 A2962 RMK AO2 SLP028 T00781028 51015=
201403011353 METAR KBFI 011353Z 00000KT 10SM OVC060 08/M02 A2960 RMK AO2 SLP023 T00781022=
201403011253 METAR KBFI 011253Z 00000KT 10SM OVC060 08/M02 A2959 RMK AO2 SLP018 T00781022=
201403011153 METAR KBFI 011153Z 00000KT 10SM BKN065 OVC100 07/M02 A2957 RMK AO2 SLP013 T00721022 10089 20067 51006=
201403011053 METAR KBFI 011053Z 00000KT 10SM FEW060 OVC100 07/M03 A2957 RMK AO2 SLP012 T00721033=
201403010953 METAR KBFI 010953Z 00000KT 10SM FEW070 OVC100 07/M03 A2957 RMK AO2 SLP012 T00721033=
201403010853 METAR KBFI 010853Z 00000KT 10SM SCT095 07/M04 A2955 RMK AO2 SLP007 T00721039 53005=
201403010753 METAR KBFI 010753Z 01004KT 10SM CLR 08/M04 A2955 RMK AO2 SLP005 T00781044 401330067=
201403010653 METAR KBFI 010653Z 00000KT 10SM CLR 08/M04 A2954 RMK AO2 SLP003 T00781039=
201403010553 METAR KBFI 010553Z 36004KT 10SM CLR 09/M04 A2954 RMK AO2 SLP002 T00891044 10133 20083 53001=
201403010453 METAR KBFI 010453Z 36004KT 10SM CLR 09/M04 A2954 RMK AO2 SLP002 T00941044=
201403010353 METAR KBFI 010353Z 36006KT 10SM FEW045 10/M04 A2953 RMK AO2 SLP999 T01001039=
201403010253 METAR KBFI 010253Z 01005KT 10SM CLR 10/M03 A2953 RMK AO2 SLP000 T01001033 55001=
201403010153 METAR KBFI 010153Z AUTO 35006KT 10SM CLR 11/M03 A2953 RMK AO2 SLP999 T01111028 TSNO=
201403010053 METAR KBFI 010053Z 34007KT 10SM CLR 13/M02 A2952 RMK AO2 SLP997 T01281017=

# No short TAF reports from KBFI in databse.

###################################
#  large TAF from KBFI
###################################
201403312330 TAF KBFI 312330Z 0100/0124 33008KT P6SM FEW040 BKN250 FM010600
                       01004KT P6SM BKN100 BKN250 FM011200 00000KT
                       P6SM SCT100 BKN250 FM012000 25005KT P6SM
                       FEW040 SCT120 BKN250=
201403311720 TAF KBFI 311720Z 3118/0118 36006KT P6SM BKN250 FM010600 01004KT
                       P6SM BKN250 FM011200 19004KT P6SM BKN120
                       BKN250=
201403311120 TAF KBFI 311120Z 3112/0112 00000KT P6SM SCT200 FM311600 34004KT
                       P6SM BKN200 FM010600 01004KT P6SM BKN120
                       OVC200=
201403310520 TAF KBFI 310520Z 3106/0106 12004KT P6SM SCT200 FM310900 35002KT
                       P6SM BKN200=
201403302321 TAF KBFI 302321Z 3100/3124 20010KT P6SM VCSH SCT030 BKN080 FM310300
                       14003KT P6SM SCT035 SCT080 FM310600 VRB03KT
                       P6SM SCT045 SCT080 FM311500 05005KT P6SM
                       SCT080=
201403302320 TAF KBFI 302320Z 3100/3124 20010KT P6SM SCT030 BKN080 FM310300
                       14003KT P6SM SCT035 SCT080 FM310600 VRB03KT
                       P6SM SCT045 SCT080 FM311500 05005KT P6SM
                       SCT080=
201403302102 TAF AMD KBFI 302102Z 3021/3118 20010KT P6SM SCT030 BKN080 FM310300
                       14003KT P6SM SCT030 SCT080 FM310600 VRB03KT
                       P6SM SCT045 FM311400 05005KT P6SM SCT050=
201403301720 TAF KBFI 301720Z 3018/3118 19010G19KT P6SM VCSH SCT020 BKN050 FM302100
                       19008KT P6SM -SHRA SCT030 BKN050 FM310300
                       13002KT P6SM VCSH SCT030 OVC050 FM310600
                       VRB03KT P6SM SCT045 FM311400 05005KT P6SM
                       SCT050=
201403301120 TAF KBFI 301120Z 3012/3112 19010G19KT P6SM VCSH SCT020 BKN050 FM302100
                       19008KT P6SM -SHRA SCT030 BKN050 FM310300
                       13002KT P6SM VCSH SCT030 OVC050=
201403300524 TAF KBFI 300524Z 3006/3106 17009G18KT P6SM VCSH FEW021 SCT027 OVC035
                       TEMPO 3006/3009 -SHRA BKN020 OVC035 FM300900
                       20008KT P6SM VCSH SCT025 OVC045 FM301300
                       20007KT P6SM SCT030 BKN050 FM302300 21005KT
                       P6SM VCSH BKN050 BKN100=
201403300306 TAF KBFI 300306Z 3003/3024 18008KT P6SM VCSH BKN025 OVC040
                      TEMPO 3003/3007 -RA BKN020 OVC035 FM300900
                       20008KT P6SM VCSH SCT025 OVC045 FM301300
                       20007KT P6SM SCT030 BKN050 FM302300 21005KT
                       P6SM VCSH BKN050 BKN100=
201403300305 TAF AMD KBFI 300305Z 3003/3024 18008KT P6SM BKN025 OVC040
                      TEMPO 3003/3007 -RA BKN020 OVC035 FM300900
                       20008KT P6SM VCSH SCT025 OVC045 FM301300
                       20007KT P6SM SCT030 BKN050 FM302300 21005KT
                       P6SM VCSH BKN050 BKN100=
201403292320 TAF KBFI 292320Z 3000/3024 18012KT P6SM -SHRA VCTS SCT018 OVC028CB
                       FM300300 17010KT P6SM VCSH SCT030 OVC040=
201403292220 TAF AMD KBFI 292220Z 2922/3018 18010KT P6SM -SHRA VCTS SCT018 OVC028CB
                       FM300300 17009KT P6SM VCSH SCT030 OVC045=
201403291720 TAF KBFI 291720Z 2918/3018 16010G20KT P6SM -RA SCT028 OVC035 FM292200
                       18012G22KT P6SM -SHRA SCT028 OVC035 FM300400
                       17009KT P6SM VCSH SCT030 OVC045=
201403291120 TAF KBFI 291120Z 2912/3012 14008KT P6SM -RA BKN050 OVC070 FM291600
                       18016G23KT P6SM -RA SCT030 OVC050 FM292200
                       19016G23KT P6SM -SHRA SCT030 OVC050 FM300400
                       17009KT P6SM VCSH SCT030 OVC050=
201403290530 TAF KBFI 290530Z 2906/3006 16009KT P6SM VCSH SCT035 BKN100 FM291200
                       16008KT P6SM -RA SCT030 OVC050 FM291800
                       18016G23KT P6SM -RA SCT030 OVC050 FM292200
                       19016G23KT P6SM -SHRA SCT030 OVC050 FM300400
                       17009KT P6SM VCSH SCT030 OVC050=
201403282320 TAF KBFI 282320Z 2900/2924 16010G18KT P6SM -SHRA BKN028 BKN040
                       OVC050 FM290600 16008KT P6SM VCSH SCT025
                       BKN040 OVC050 FM291300 16008KT P6SM -RA
                       SCT025 OVC035 FM292000 18010KT P6SM -SHRA
                       SCT030 OVC035=
201403282126 TAF AMD KBFI 282126Z 2821/2918 18010G18KT P6SM -SHRA SCT025 BKN040
                       OVC050
                      TEMPO 2821/2823 4SM -SHRA BKN025 OVC040 FM290600
                       15008KT P6SM VCSH SCT025 BKN040 OVC050 FM291300
                       17010KT P6SM -RA SCT025 OVC035=
201403281720 TAF KBFI 281720Z 2818/2918 12008KT P6SM -RA OVC040 FM282000 18012G18KT
                       P6SM -SHRA SCT025 BKN040 OVC050 FM290600
                       15008KT P6SM VCSH SCT025 BKN040 OVC050 FM291300
                       17010KT P6SM -RA SCT025 OVC035=
201403281139 TAF KBFI 281139Z 2812/2912 14006KT P6SM -RA OVC040 FM281600 16008KT
                       P6SM -RA OVC025 FM282000 18012G18KT P6SM
                       -SHRA SCT025 BKN040 OVC050 FM290600 16008KT
                       P6SM -SHRA SCT025 BKN040 OVC050=
201403280538 TAF KBFI 280538Z 2806/2906 17008KT P6SM SCT030 BKN045 OVC070 FM281100
                       14006KT P6SM -RA OVC040 FM281600 16008KT
                       P6SM -RA OVC025 FM282000 18012G18KT P6SM
                       -SHRA SCT025 BKN040 OVC050=
201403272320 TAF KBFI 272320Z 2800/2824 17007KT P6SM BKN035 BKN060
                      TEMPO 2800/2803 -SHRA SCT035 BKN060 FM280300
                       16006KT P6SM VCSH SCT035 BKN060 FM281100
                       14006KT P6SM -RA OVC040 FM281600 16010KT
                       P6SM -RA OVC025 FM281800 16010KT P6SM -RA
                       BKN015 OVC025=
201403271732 TAF KBFI 271732Z 2718/2818 VRB03KT P6SM SCT010 BKN016 BKN026
                      TEMPO 2718/2720 2SM -SHRA BR BKN010 OVC016
                       FM272000 VRB03KT P6SM SCT016 BKN026 BKN040
                       TEMPO 2720/2722 -SHRA BKN016 OVC026 FM272200
                       18004KT P6SM -SHRA SCT030 BKN045 FM280300
                       16004KT P6SM BKN045 BKN080 FM281300 14005KT
                       P6SM -RA OVC035 FM281700 15006KT P6SM -RA
                       OVC025=
201403271606 TAF AMD KBFI 271606Z 2716/2812 VRB03KT P6SM -SHRA SCT014 BKN025
                       OVC050
                      TEMPO 2716/2719 BKN015 OVC025 FM272000 VRB03KT
                       P6SM SCT030 BKN040 OVC060 FM272200 VRB03KT
                       P6SM SCT035 BKN050 FM280800 14006KT P6SM
                       BKN050 OVC100=
201403271134 TAF KBFI 271134Z 2712/2812 VRB03KT P6SM -SHRA BKN035 OVC050 FM271700
                       VRB03KT P6SM SCT030 BKN040 OVC060 FM272200
                       VRB03KT P6SM SCT035 BKN050 FM280800 14006KT
                       P6SM BKN050 OVC100=
201403270540 TAF KBFI 270540Z 2706/2806 16006KT P6SM SCT045 BKN100 FM270800
                       16006KT P6SM -SHRA SCT030 BKN050 BKN070
                       FM271100 14006KT P6SM VCSH SCT025 BKN035
                       OVC050 FM271700 14006KT P6SM SCT040 BKN060
                       FM280200 18008KT P6SM -SHRA BKN040 BKN060=
201403262341 TAF KBFI 262341Z 2700/2724 17006KT P6SM VCSH SCT035 BKN045 OVC060
                       FM270600 15004KT P6SM VCSH SCT020 BKN030
                       OVC050 FM271900 19007KT P6SM VCSH SCT035
                       BKN050=
201403261740 TAF KBFI 261740Z 2618/2718 16005KT P6SM -SHRA BKN035 OVC060 FM262000
                       17006KT P6SM VCSH SCT035 BKN045 OVC060 FM270600
                       15004KT P6SM VCSH SCT020 BKN030 OVC050=
201403261138 TAF KBFI 261138Z 2612/2712 17006KT P6SM SCT035 BKN050 FM261700
                       14006KT P6SM BKN060 FM262200 14006KT P6SM
                       -SHRA BKN040 OVC060=
201403260540 TAF KBFI 260540Z 2606/2706 18012G20KT P6SM SCT030 BKN045
                      TEMPO 2606/2607 BKN030 FM261000 17008KT P6SM
                       SCT035 BKN050 FM261700 14006KT P6SM BKN060
                       FM270000 17008KT P6SM -SHRA BKN040 OVC060=
201403252320 TAF KBFI 252320Z 2600/2624 18012G20KT P6SM -SHRA SCT035 BKN050
                       TEMPO 2600/2604 BKN035CB FM260600 17008KT
                       P6SM BKN040 BKN050 FM261000 18005KT P6SM
                       BKN040 FM261800 18008KT P6SM BKN040 BKN060=
201403251723 TAF KBFI 251723Z 2518/2618 17008KT P6SM -SHRA BKN050 BKN060 FM252100
                       18012G20KT P6SM -SHRA BKN050 FM260600 17008KT
                       P6SM BKN040 BKN060 FM261000 VRB03KT P6SM
                       BKN035=
201403251138 TAF KBFI 251138Z 2512/2612 VRB03KT P6SM SCT070 OVC100 FM251400
                       VRB03KT P6SM -RA OVC040 FM251800 17008KT
                       P6SM -SHRA BKN040 BKN060 FM260600 17008KT
                       P6SM SCT030 BKN040 BKN060 FM261000 VRB03KT
                       P6SM SCT040 BKN060=
201403250528 TAF KBFI 250528Z 2506/2606 VRB03KT P6SM OVC200 FM250800 14004KT
                       P6SM SCT070 OVC100 FM251400 14008KT P6SM
                       -RA OVC040 FM251800 17008KT P6SM -SHRA BKN040
                       BKN060=
201403242321 TAF KBFI 242321Z 2500/2524 34005KT P6SM BKN200 FM250800 12008KT
                       P6SM SCT070 OVC100 FM251200 10008KT P6SM
                       -RA BKN040 OVC070 FM251800 18010KT P6SM
                       -SHRA BKN040=
201403241729 TAF KBFI 241729Z 2418/2518 02007KT P6SM SCT200 FM250300 VRB03KT
                       P6SM BKN200 FM250800 12008KT P6SM SCT070
                       OVC100 FM251200 10008KT P6SM -RA BKN040
                       OVC070=
201403241130 TAF KBFI 241130Z 2412/2512 00000KT P6SM SCT110 BKN200 FM241800
                       00000KT P6SM SKC FM250300 VRB03KT P6SM BKN250
                       FM250800 12005KT P6SM OVC100=
201403240535 TAF KBFI 240535Z 2406/2506 00000KT P6SM SKC FM240900 00000KT P6SM
                       OVC120 FM241500 00000KT P6SM SKC=
201403232320 TAF KBFI 232320Z 2400/2424 31006KT P6SM SCT200 FM240300 36004KT
                       P6SM BKN200 FM240600 06005KT P6SM SCT100
                       OVC200 FM241800 35006KT P6SM SCT200=
201403231723 TAF KBFI 231723Z 2318/2418 36006KT P6SM SCT040 SCT100 FM232000
                       33006KT P6SM SCT040 FM240000 36004KT P6SM
                       BKN200 FM240600 06005KT P6SM SCT100 OVC200=
201403231130 TAF KBFI 231130Z 2312/2412 02003KT P6SM BKN050 OVC070 FM231400
                       VRB03KT P6SM SCT013 BKN060
                      TEMPO 2314/2317 BKN013 FM231800 34005KT P6SM
                       SCT250 FM232200 31004KT P6SM BKN250 FM240600
                       00000KT P6SM SCT100 OVC250=
201403230530 TAF KBFI 230530Z 2306/2406 VRB05KT P6SM SCT070 OVC200 FM231400
                       VRB03KT P6SM SCT013
                      TEMPO 2314/2317 BKN013 FM231800 34005KT P6SM
                       SCT250 FM232200 31004KT P6SM BKN250=
201403222339 TAF KBFI 222339Z 2300/2324 33004KT P6SM BKN100 BKN150 FM230600
                       01004KT P6SM BKN050 BKN100 FM231200 03005KT
                       P6SM BKN035 BKN070 FM231800 34004KT P6SM
                       SCT060 BKN200=
201403221729 TAF KBFI 221729Z 2218/2318 VRB04KT P6SM SCT120 BKN200 FM222000
                       31004KT P6SM BKN120 BKN200 FM230000 35004KT
                       P6SM BKN050 BKN100 FM230900 03005KT P6SM
                       BKN030 BKN070=
201403221122 TAF KBFI 221122Z 2212/2312 14004KT P6SM BKN150 FM221800 20004KT
                       P6SM BKN070 BKN120 FM230600 VRB04KT P6SM
                       BKN060 BKN120=
201403220528 TAF KBFI 220528Z 2206/2306 00000KT P6SM SKC FM221200 04004KT P6SM
                       SCT060 BKN120 BKN150 FM221800 20004KT P6SM
                       BKN060 BKN120 FM230500 VRB04KT P6SM BKN060
                       BKN120=
201403212320 TAF KBFI 212320Z 2200/2224 32008KT P6SM SCT035 FM220400 03004KT
                       P6SM SCT200 FM221200 04004KT P6SM SCT060
                       BKN120 BKN150 FM221800 20004KT P6SM BKN060
                       BKN120=
201403211735 TAF KBFI 211735Z 2118/2218 04007KT P6SM SCT020 SCT070 SCT200
                      TEMPO 2118/2120 BKN020 FM212000 34009KT P6SM
                       FEW070 SCT200 FM220300 03004KT P6SM SCT200
                       FM221200 04004KT P6SM SCT060 BKN120 BKN150=
201403211144 TAF KBFI 211144Z 2112/2212 34003KT P6SM BKN028
                      TEMPO 2112/2114 SCT028 BKN060 FM211400 VRB03KT
                       P6SM SCT025
                      TEMPO 2114/2118 BKN025 OVC200 FM211800 34006KT
                       P6SM FEW025 SCT200 FM212100 36008KT P6SM
                       SCT040 FM220800 07004KT P6SM FEW060 BKN150=
201403211003 TAF AMD KBFI 211003Z 2110/2206 34003KT P6SM BKN028
                      TEMPO 2110/2114 SCT028 BKN060 FM211400 VRB03KT
                       P6SM SCT025
                      TEMPO 2114/2118 BKN025 OVC200 FM211800 34006KT
                       P6SM FEW025 SCT200 FM212100 36008KT P6SM
                       SCT040=
201403210529 TAF KBFI 210529Z 2106/2206 05007KT P6SM BKN070 OVC090 FM211200
                       VRB03KT P6SM SCT010 FM211800 34006KT P6SM
                       FEW025 FM212100 36008KT P6SM SCT040=
201403202320 TAF KBFI 202320Z 2100/2124 VRB03KT P6SM VCSH SCT020 SCT040 BKN070
                       FM210400 VRB03KT P6SM SCT080 BKN250 FM211200
                       VRB03KT P6SM SCT010 FM211800 34006KT P6SM
                       FEW025 FM212100 36008KT P6SM FEW035=
201403201720 TAF KBFI 201720Z 2018/2118 18006KT P6SM VCSH BKN022 BKN050 FM202300
                       31006KT P6SM VCSH SCT020 SCT040 BKN070 FM210400
                       02004KT P6SM SCT080 BKN250 FM211200 04004KT
                       P6SM SCT010 FM211700 34006KT P6SM FEW025=
201403201130 TAF KBFI 201130Z 2012/2112 13006KT P6SM SCT020 FM201400 19006KT
                       P6SM VCSH SCT020 BKN040 BKN060 FM210000
                       31006KT P6SM VCSH SCT045 BKN070 FM210400
                       00000KT P6SM SCT080 BKN250=
201403200530 TAF KBFI 200530Z 2006/2106 04004KT P6SM SCT030 BKN110 FM201200
                       20006KT P6SM VCSH BKN045 OVC070 FM210000
                       31006KT P6SM VCSH BKN045 OVC070 FM210400
                       00000KT P6SM SCT080 BKN250=
201403200205 TAF AMD KBFI 200205Z 2002/2024 06009G17KT P6SM VCSH FEW035 BKN060
                       BKN100 FM200600 13005KT P6SM SCT050 SCT100
                       BKN200 FM201200 15007KT P6SM SCT045 OVC060
                       FM201500 17008KT P6SM -SHRA OVC045 FM202100
                       18006KT P6SM SCT040 SCT080=
201403192320 TAF KBFI 192320Z 2000/2024 03012KT P6SM SCT022 BKN035 BKN050
                      TEMPO 2000/2002 VRB06KT 6SM -SHRA OVC022
                       FM200400 13005KT P6SM SCT050 SCT100 BKN200
                       FM201200 15007KT P6SM SCT045 OVC060 FM201500
                       17008KT P6SM -SHRA OVC045 FM202100 18006KT
                       P6SM SCT040 SCT080=
201403192207 TAF AMD KBFI 192207Z 1922/2018 21010G20KT P6SM VCSH SCT018 BKN050
                       FM200000 33007KT P6SM -SHRA BKN022 BKN050
                       FM200400 16005KT P6SM SCT050 SCT100 BKN200
                       FM201200 15007KT P6SM SCT045 OVC060 FM201500
                       18010KT P6SM -SHRA OVC040=
201403191726 TAF KBFI 191726Z 1918/2018 20012G22KT P6SM -SHRA BKN018 BKN050
                       FM192100 26008KT P6SM -SHRA BKN028 BKN050
                       FM200000 32006KT P6SM BKN035 BKN050 FM200500
                       17004KT P6SM SCT050 SCT100 BKN200 FM201200
                       15007KT P6SM SCT045 OVC060 FM201500 18010KT
                       P6SM -SHRA OVC040=
201403191124 TAF KBFI 191124Z 1912/2012 17006KT P6SM OVC013 FM191400 17006KT
                       P6SM -RA BKN013 OVC025 FM191800 20012G22KT
                       P6SM -SHRA BKN025 BKN050 FM192200 26008KT
                       P6SM -SHRA BKN020 BKN050 FM200100 32006KT
                       P6SM BKN035 BKN050 FM200500 17004KT P6SM
                       SCT050 SCT100 BKN200=
201403191033 TAF AMD KBFI 191033Z 1911/2006 15006KT P6SM SCT013 OVC045
                      TEMPO 1911/1913 BKN013 FM191300 15006KT P6SM
                       -RA BKN013 OVC025 FM191800 20012G22KT P6SM
                       -SHRA BKN025 BKN050 FM192200 23010G20KT
                       P6SM SCT025 BKN050 FM200100 32006KT P6SM
                       BKN035 BKN050=
201403190520 TAF KBFI 190520Z 1906/2006 00000KT P6SM SCT025 BKN045 OVC060
                      TEMPO 1906/1910 BKN025 FM191000 14003KT P6SM
                       -RA BKN020 BKN045 OVC060 FM191300 15006KT
                       P6SM -RA OVC020 FM191800 20012G22KT P6SM
                       -SHRA BKN025 BKN050 FM192200 23010G20KT
                       P6SM SCT025 BKN050 FM200100 32006KT P6SM
                       BKN035 BKN050=
201403190121 TAF AMD KBFI 190121Z 1901/1924 VRB03KT P6SM SCT020 BKN050 OVC200
                       TEMPO 1901/1903 BKN020 OVC035 FM191000 16008KT
                       P6SM -RA OVC020 FM191800 20012G22KT P6SM
                       -SHRA BKN025 BKN050 FM192200 23010G20KT
                       P6SM VCSH SCT025 BKN050=
201403182320 TAF KBFI 182320Z 1900/1924 VRB03KT P6SM OVC020 FM191000 16008KT
                       P6SM -RA OVC020 FM191800 20012G22KT P6SM
                       -SHRA BKN025 BKN050 FM192200 23010G20KT
                       P6SM VCSH SCT025 BKN050=
201403181720 TAF KBFI 181720Z 1818/1918 VRB03KT P6SM BKN025 OVC040 FM191000
                       16008KT P6SM -RA OVC025 FM191700 20010G20KT
                       P6SM -SHRA BKN025 BKN050=
201403181302 TAF AMD KBFI 181302Z 1813/1912 14006KT P6SM SCT020 BKN070
                      TEMPO 1813/1816 BKN020 FM181800 18008KT P6SM
                       BKN030 OVC040 FM190300 16004KT P6SM -DZ
                       OVC025 FM190800 17006KT P6SM -RA OVC020=
201403181121 TAF KBFI 181121Z 1812/1912 14006KT P6SM BKN070
                      TEMPO 1814/1818 BKN035 FM181800 18008KT P6SM
                       BKN030 OVC040 FM190300 16004KT P6SM -DZ
                       OVC025 FM190800 17006KT P6SM -RA OVC020=
201403181038 TAF AMD KBFI 181038Z 1811/1906 14007KT P6SM OVC070
                      TEMPO 1814/1818 BKN030 FM181800 18008KT P6SM
                       BKN030 OVC040 FM190300 16004KT P6SM -DZ
                       OVC025=
201403180521 TAF KBFI 180521Z 1806/1906 12004KT P6SM SCT045 SCT080
                      TEMPO 1806/1810 BKN045 BKN080 FM181000 15004KT
                       P6SM BKN025 BKN040 FM181800 18008KT P6SM
                       BKN030 OVC040 FM190300 16004KT P6SM -DZ
                       OVC025=
201403180112 TAF AMD KBFI 180112Z 1801/1824 36005KT P6SM FEW045 BKN080 FM180900
                       15005KT P6SM BKN020 BKN040 FM181800 16006KT
                       P6SM BKN025 OVC040=
201403172320 TAF KBFI 172320Z 1800/1824 VRB04KT P6SM SCT030 BKN050 FM180900
                       15005KT P6SM BKN020 BKN040 FM181800 16006KT
                       P6SM BKN025 OVC040=
201403171720 TAF KBFI 171720Z 1718/1818 16007KT P6SM SCT040 FM180300 VRB04KT
                       P6SM BKN040 FM180900 16006KT P6SM BKN025
                       BKN040 FM181600 16008KT P6SM BKN030 OVC050=
201403171122 TAF KBFI 171122Z 1712/1812 15004KT P6SM SCT015 BKN050
                      TEMPO 1712/1715 BKN015 FM171700 32005KT P6SM
                       SCT030 BKN050 FM180000 VRB03KT P6SM OVC045
                       FM180700 17005KT P6SM OVC030=
201403170859 TAF AMD KBFI 170859Z 1709/1806 19004KT P6SM SCT010 OVC020
                      TEMPO 1709/1712 5SM -SHRA BR OVC010 FM171200
                       21005KT P6SM BKN030 OVC050 FM171700 32005KT
                       P6SM SCT030 BKN050 FM180000 VRB03KT P6SM
                       OVC040=
201403170531 TAF KBFI 170531Z 1706/1806 08004KT P6SM -RA FEW010 OVC030 FM170800
                       VRB03KT P6SM BKN035 OVC050 FM171700 32005KT
                       P6SM SCT030 BKN050 FM180000 VRB03KT P6SM
                       OVC040=
201403170348 TAF AMD KBFI 170348Z 1704/1724 03004KT P6SM -SHRA FEW015 OVC030
                       FM170700 VRB03KT P6SM FEW020 OVC035 FM171700
                       VRB04KT P6SM SCT030 SCT040 FM172000 VRB04KT
                       P6SM OVC040=
201403162338 TAF KBFI 162338Z 1700/1724 18005KT 6SM -RA BR BKN010 OVC018 FM170300
                       15004KT P6SM -SHRA BKN015 OVC030 FM171300
                       VRB04KT P6SM SCT015 BKN030 FM171700 VRB04KT
                       P6SM SCT030 SCT040 FM172000 VRB04KT P6SM
                       OVC040=
201403161740 TAF KBFI 161740Z 1618/1718 18005KT 6SM -RA BR BKN016 OVC045
                      TEMPO 1618/1622 4SM -RA BR BKN008 OVC016
                       FM162200 22005KT 4SM -RA BR BKN010 OVC018
                       FM170400 18007KT P6SM -SHRA BKN018 OVC035
                       FM171000 17007KT P6SM SCT018 BKN030 FM171700
                       20008KT P6SM SCT030 SCT045=
201403161120 TAF KBFI 161120Z 1612/1712 19008KT P6SM -RA SCT018 OVC050
                      TEMPO 1612/1614 5SM -RA BR BKN018 FM161400
                       18006KT 6SM -RA BR OVC018 FM162000 19008KT
                       4SM -RA BR BKN012 OVC018 FM170600 19010G16KT
                       P6SM -SHRA BKN030 OVC060=
201403160932 TAF AMD KBFI 160932Z 1610/1706 19010KT P6SM -RA SCT015 OVC045
                      TEMPO 1610/1614 4SM -RA BR BKN015 FM161600
                       18005KT 4SM -RA BR OVC018=
201403160520 TAF KBFI 160520Z 1606/1706 19006KT P6SM -RA OVC050
                      TEMPO 1606/1609 5SM -RA BR BKN025 OVC035
                       FM160900 19008KT P6SM -RA BKN030 OVC045
                       FM161600 18005KT 4SM -RA BR OVC018=
201403160013 TAF AMD KBFI 160013Z 1600/1624 21004KT P6SM OVC040 FM160200 17008KT
                       P6SM -RA OVC035 FM161600 18005KT 4SM -RA
                       BR OVC018=
201403152335 TAF KBFI 152335Z 1600/1624 15007KT P6SM OVC040 FM160400 17008KT
                       P6SM -RA OVC035 FM161600 18005KT 4SM -RA
                       BR OVC018=
201403151737 TAF KBFI 151737Z 1518/1618 15006KT P6SM OVC070
                      TEMPO 1518/1520 -RA FM152200 15007KT P6SM
                       OVC050 FM160300 17009KT P6SM -RA BKN030
                       OVC045 FM161100 20009KT P6SM -RA OVC020=
201403151120 TAF KBFI 151120Z 1512/1612 10003KT P6SM FEW030 BKN200 FM151600
                       15006KT P6SM SCT030 BKN045 OVC070
                      TEMPO 1516/1520 -RA BKN030 FM160500 17008KT
                       P6SM -RA BKN025 OVC040 FM160900 17008KT
                       P6SM -RA OVC020=
201403150525 TAF KBFI 150525Z 1506/1606 16006KT P6SM FEW080 BKN200 FM151600
                       15006KT P6SM BKN045 OVC070
                      PROB30 1516/1522 -RA FM160500 17008KT P6SM
                       -RA BKN025 OVC040=
201403150108 TAF AMD KBFI 150108Z 1501/1524 VRB04KT P6SM BKN070 BKN250 FM150300
                       16004KT P6SM FEW070 BKN250 FM151800 16009KT
                       P6SM SCT040 OVC080=
201403142336 TAF KBFI 142336Z 1500/1524 25011G20KT P6SM BKN070 FM150300 16004KT
                       P6SM BKN250 FM151800 16009KT P6SM SCT040
                       OVC080=
201403141737 TAF KBFI 141737Z 1418/1518 22009G18KT P6SM VCSH SCT020 BKN045 FM142300
                       21012G20KT P6SM SCT045 BKN100 FM150300 19007KT
                       P6SM SCT045 BKN100 FM151200 15003KT P6SM
                       SCT030 OVC050=
201403141120 TAF KBFI 141120Z 1412/1512 15011G17KT P6SM -RA OVC023 FM141500
                       19013G20KT P6SM -SHRA SCT020 BKN030 OVC045
                       FM142000 21014G22KT P6SM SCT030 BKN050 FM142300
                       21012G20KT P6SM SCT050 BKN120 FM150200 18007KT
                       P6SM SCT050 BKN150=
201403140722 TAF AMD KBFI 140722Z 1407/1506 16008KT P6SM -RA SCT012 OVC022
                      TEMPO 1407/1411 5SM -RA BR BKN012 FM141100
                       18010KT 5SM -RA BR SCT010 BKN016 OVC025
                       FM141500 19012G20KT P6SM -SHRA SCT020 BKN030
                       BKN045 FM142000 21014G22KT P6SM SCT030 BKN050
                       FM142300 21012G20KT P6SM SCT050 BKN120 FM150200
                       18007KT P6SM SCT050 BKN150=
201403140521 TAF KBFI 140521Z 1406/1506 16006KT P6SM BKN060 OVC100
                      TEMPO 1407/1409 -RA BKN040 OVC060 FM140900
                       18010KT P6SM -RA OVC030 FM141300 18010KT
                       5SM -RA BR SCT010 BKN016 OVC025 FM141500
                       19012G20KT P6SM -SHRA SCT020 BKN030 BKN045
                       FM142000 21014G22KT P6SM SCT030 BKN050 FM142300
                       21012G20KT P6SM SCT050 BKN120 FM150200 18007KT
                       P6SM SCT050 BKN150=
201403132320 TAF KBFI 132320Z 1400/1424 19006KT P6SM FEW050 SCT100 BKN250 FM140300
                       18006KT P6SM OVC050 FM140600 17007KT P6SM
                       -RA OVC040 FM140900 18010KT P6SM -RA BKN020
                       OVC030 FM141300 18010KT 5SM -RA BR SCT010
                       BKN016 OVC025 FM141500 19010G20KT P6SM -SHRA
                       SCT020 BKN030 BKN045=
201403131745 TAF KBFI 131745Z 1318/1418 00000KT P6SM SCT011 BKN200
                      TEMPO 1318/1319 BKN011 BKN200 FM131900 18005KT
                       P6SM FEW030 BKN150 FM140300 18006KT P6SM
                       OVC050 FM140600 17007KT P6SM -RA OVC040
                       FM140900 18010KT P6SM -RA BKN020 OVC030
                       FM141300 18010KT 5SM -RA BR SCT010 BKN016
                       OVC025 FM141500 19010G20KT P6SM -SHRA SCT020
                       BKN030 BKN045=
201403131139 TAF KBFI 131139Z 1312/1412 VRB03KT P6SM SCT100 FM131800 18006KT
                       P6SM SCT030 BKN050 FM140500 18006KT P6SM
                       -RA OVC040 FM140900 18010KT P6SM -RA BKN020
                       OVC035=
201403130543 TAF KBFI 130543Z 1306/1406 VRB03KT P6SM BKN100 FM131100 VRB03KT
                       P6SM SCT010 SCT100 FM131800 18006KT P6SM
                       SCT025 BKN060=
201403122333 TAF KBFI 122333Z 1300/1324 VRB03KT P6SM SCT250 FM130500 VRB03KT
                       P6SM SCT070 SCT150 FM131000 18004KT P6SM
                       SCT015 BKN050 FM132000 18005KT P6SM SCT030
                       SCT050=
201403121720 TAF KBFI 121720Z 1218/1318 00000KT P6SM FEW250 FM122000 32005KT
                       P6SM SCT150 FM130200 VRB02KT P6SM BKN150
                       FM131200 VRB02KT P6SM SCT012 OVC050=
201403121505 TAF AMD KBFI 121505Z 1215/1312 13004KT 1/2SM FG BKN001 FM121700
                       VRB03KT 5SM BR SCT005 FM121800 VRB03KT P6SM
                       SCT150 FM122000 32005KT P6SM SCT150 FM130800
                       VRB03KT P6SM BKN050 BKN150=
201403121120 TAF KBFI 121120Z 1212/1312 00000KT P6SM SKC FM122000 32005KT P6SM
                       SCT150 FM130800 VRB03KT P6SM BKN050 BKN150=
201403120520 TAF KBFI 120520Z 1206/1306 00000KT P6SM SKC FM122000 32005KT P6SM
                       SCT150=
201403112320 TAF KBFI 112320Z 1200/1224 29005KT P6SM FEW020 FM120400 VRB02KT
                       P6SM SKC FM122000 32005KT P6SM BKN130=
201403111720 TAF KBFI 111720Z 1118/1218 00000KT P6SM FEW006 FM111830 32005KT
                       P6SM SCT035 FM120400 VRB02KT P6SM SKC=
201403111616 TAF AMD KBFI 111616Z 1116/1212 03003KT P6SM SCT006 FM111800 34004KT
                       P6SM SCT025 SCT050 FM120400 04004KT P6SM
                       SKC=
201403111122 TAF KBFI 111122Z 1112/1212 VRB03KT P6SM SCT030 BKN060
                      TEMPO 1113/1116 BKN030 BKN050 FM111700 VRB03KT
                       P6SM SCT025 SCT050 FM120400 04004KT P6SM
                       SKC=
201403111002 TAF AMD KBFI 111002Z 1110/1206 15005KT P6SM SCT025 BKN050
                      TEMPO 1112/1116 BKN025 BKN050 FM111700 VRB04KT
                       P6SM SCT025 SCT050 FM120400 04004KT P6SM
                       SKC=
201403110520 TAF KBFI 110520Z 1106/1206 15005KT P6SM SCT020 BKN040 FM111000
                       VRB03KT P6SM BKN025 BKN040 FM111900 32006KT
                       P6SM SCT025 SCT050 FM120400 02004KT P6SM
                       SKC=
201403110302 TAF AMD KBFI 110302Z 1103/1124 VRB03KT P6SM SCT040 SCT100 FM111000
                       VRB03KT P6SM BKN020 BKN040 FM111900 32006KT
                       P6SM SCT025 SCT050=
201403102351 TAF AMD KBFI 102351Z 1100/1124 06003KT P6SM VCTS BKN027CB BKN060
                       OVC070 FM110300 VRB03KT P6SM -SHRA SCT015
                       BKN025 BKN040 FM111000 VRB03KT P6SM VCSH
                       SCT014 BKN025 OVC040
                      TEMPO 1110/1114 BKN014 OVC025 FM111900 32005KT
                       P6SM SCT030 SCT050=
201403102324 TAF KBFI 102324Z 1100/1124 00000KT P6SM VCSH SCT026 BKN035 OVC045
                       TEMPO 1100/1103 -SHRA BKN025 OVC040 FM110300
                       VRB03KT P6SM -SHRA SCT015 BKN025 BKN040
                       FM111000 VRB03KT P6SM VCSH SCT014 BKN025
                       OVC040
                      TEMPO 1110/1114 BKN014 OVC025 FM111900 32005KT
                       P6SM SCT030 SCT050=
201403102029 TAF AMD KBFI 102029Z 1020/1118 17007KT P6SM -SHRA SCT015 BKN024
                       OVC035 FM110000 VRB03KT P6SM -SHRA BKN025
                       BKN040 FM110700 VRB03KT P6SM SCT015 BKN025
                       BKN040
                      TEMPO 1110/1114 BKN015 OVC025=
201403101726 TAF KBFI 101726Z 1018/1118 00000KT P6SM VCSH SCT010 OVC019 FM102100
                       VRB03KT P6SM VCSH SCT025 BKN040 FM110700
                       VRB03KT P6SM SCT015 BKN025 BKN040
                      TEMPO 1110/1114 BKN015 OVC025=
201403101120 TAF KBFI 101120Z 1012/1112 31004KT P6SM -SHRA SCT020 OVC040
                      TEMPO 1012/1015 5SM -SHRA BR BKN020 OVC040
                       FM101500 31003KT P6SM -SHRA BKN015 OVC040
                       FM101800 31003KT P6SM BKN025 OVC045
                      TEMPO 1018/1021 -SHRA SCT025 BKN045 FM102100
                       VRB03KT P6SM VCSH SCT035 BKN050 FM110400
                       VRB03KT P6SM SCT050 SCT200=
201403100540 TAF KBFI 100540Z 1006/1106 30006KT P6SM -SHRA SCT015 OVC050
                      TEMPO 1006/1010 BKN015 OVC050 FM101000 VRB03KT
                       P6SM -SHRA BKN025 OVC040 FM101400 16003KT
                       P6SM BKN030 OVC050
                      TEMPO 1014/1018 -SHRA FM101800 20007KT P6SM
                       VCSH SCT035 BKN050 FM102300 20007KT P6SM
                       VCSH SCT050 BKN100=
201403092344 TAF KBFI 092344Z 1000/1024 19006KT P6SM VCSH SCT045 SCT070 OVC130
                       FM100200 VRB03KT P6SM -SHRA SCT030 BKN045
                       OVC070 FM100900 VRB03KT P6SM VCSH SCT030
                       OVC045
                      PROB30 1009/1015 -SHRA BKN030 OVC045 FM101800
                       21008KT P6SM VCSH SCT035 BKN050 BKN200
                      PROB30 1018/1024 -SHRA=
201403092103 TAF AMD KBFI 092103Z 0921/1018 19009KT P6SM SCT025 SCT050 OVC200
                       FM100300 17007KT P6SM -SHRA SCT030 BKN050
                       OVC100 FM100900 VRB04KT P6SM VCSH SCT028
                       BKN050 OVC100
                      PROB30 1009/1015 -SHRA BKN028 OVC050=
201403091744 TAF KBFI 091744Z 0918/1018 17009KT P6SM BKN015 BKN050 OVC100 FM092000
                       19009KT P6SM SCT030 BKN050 BKN100 FM100300
                       17007KT P6SM -SHRA SCT030 BKN050 OVC100
                       FM100900 VRB04KT P6SM VCSH SCT028 BKN050
                       OVC100
                      PROB30 1009/1015 -SHRA BKN028 OVC050=
201403091503 TAF AMD KBFI 091503Z 0915/1012 17008KT P6SM VCSH BKN015 OVC030
                       TEMPO 0915/0918 -SHRA FM091800 18008KT P6SM
                       BKN030 BKN080 FM092100 19008KT P6SM SCT030
                       BKN080 FM100000 23005KT P6SM SCT030 BKN100=
201403091123 TAF KBFI 091123Z 0912/1012 18010G20KT P6SM SCT018 OVC070
                      TEMPO 0912/0916 -RA BKN018 OVC070 FM091600
                       18008KT P6SM BKN025 OVC070 FM091900 18008KT
                       P6SM BKN030 BKN080 FM092100 19008KT P6SM
                       SCT030 BKN080 FM100000 23005KT P6SM SCT030
                       BKN100=
201403090926 TAF AMD KBFI 090926Z 0909/1006 20010G20KT P6SM SCT009 BKN015 OVC020
                       TEMPO 0909/0913 6SM -RA BR BKN009 OVC015
                       FM091300 19008KT P6SM BKN010 OVC020 FM091700
                       17008KT P6SM BKN015 OVC025 FM092000 18009KT
                       P6SM BKN020 OVC030 FM092200 18008KT P6SM
                       SCT030 BKN050=
201403090535 TAF KBFI 090535Z 0906/1006 15006KT 6SM -RA BR BKN010 OVC020
                      TEMPO 0906/0910 4SM -RA BR BKN007 OVC010
                       FM091000 16008KT 5SM -RA BR BKN007 OVC010
                       FM091700 17008KT P6SM BKN015 OVC025 FM092000
                       18009KT P6SM BKN020 OVC030 FM092200 18008KT
                       P6SM SCT030 BKN050=
201403090305 TAF AMD KBFI 090305Z 0903/0924 12003KT 5SM -RA BR SCT004 OVC015
                       TEMPO 0903/0906 2SM RA BR BKN004 OVC015
                       FM090600 19013KT 5SM -RA BR SCT009 BKN015
                       OVC030 FM091200 17006KT P6SM -SHRA BKN020
                       OVC035 FM091800 20006KT P6SM -SHRA SCT020
                       BKN035 OVC050=
201403090030 TAF AMD KBFI 090030Z 0901/0924 VRB05KT 5SM -RA BR SCT004 OVC015
                       TEMPO 0901/0903 3SM -RA BR BKN004 OVC015
                       FM090300 16010KT 2SM RA BR BKN007 OVC020
                       FM090600 19013KT 5SM -RA BR SCT009 BKN020
                       OVC035 FM091200 17006KT P6SM -SHRA BKN020
                       OVC035 FM091800 20006KT P6SM -SHRA SCT020
                       BKN035 OVC050=
201403082344 TAF KBFI 082344Z 0900/0924 VRB05KT 4SM -RA BR SCT007 OVC020 FM090200
                       16010KT 2SM RA BR BKN007 OVC020 FM090600
                       19013KT 5SM -RA BR SCT009 BKN020 OVC035
                       FM091200 17006KT P6SM -SHRA BKN020 OVC035
                       FM091800 20006KT P6SM -SHRA SCT020 BKN035
                       OVC050=
201403082153 TAF AMD KBFI 082153Z 0822/0918 VRB03KT 5SM -RA BR BKN025 OVC040
                       FM090000 15009KT 5SM -RA BR SCT009 OVC025
                       FM090300 17013KT 5SM -RA BR SCT009 OVC020
                       FM090800 19013KT P6SM -RA SCT009 BKN020
                       OVC035 FM091500 19008KT P6SM -SHRA SCT020
                       BKN035 OVC050=
201403082137 TAF AMD KBFI 082137Z 0822/0918 VRB03KT 4SM -RA BR SCT006 OVC050
                       FM090000 15009KT P6SM -RA SCT020 OVC035
                       FM090300 17013KT 5SM -RA BR SCT009 OVC020
                       FM090800 19013KT P6SM -RA SCT009 BKN020
                       OVC035 FM091500 19008KT P6SM -SHRA SCT020
                       BKN035 OVC050=
201403081748 TAF KBFI 081748Z 0818/0918 VRB03KT P6SM FEW020 SCT050 OVC080
                      TEMPO 0818/0820 -RA FM082000 15009KT P6SM
                       -RA SCT035 OVC050 FM090000 15009KT P6SM
                       -RA SCT020 OVC035 FM090300 17013KT 5SM -RA
                       BR SCT009 OVC020 FM090800 19013KT P6SM -RA
                       SCT009 BKN020 OVC035 FM091500 19008KT P6SM
                       -SHRA SCT020 BKN035 OVC050=
201403081120 TAF KBFI 081120Z 0812/0912 13004KT P6SM SCT100 BKN200 FM081500
                       14005KT P6SM OVC070 FM082000 15007KT P6SM
                       -RA SCT030 OVC050 FM090000 16008KT P6SM
                       -RA SCT015 OVC030 FM090300 17010KT 6SM -RA
                       BR SCT011 OVC020=
201403080528 TAF KBFI 080528Z 0806/0906 13004KT P6SM SCT110 BKN200 FM081500
                       14005KT P6SM OVC070 FM082000 15007KT P6SM
                       -RA SCT030 OVC050 FM090000 16008KT P6SM
                       -RA SCT015 OVC030 FM090300 17010KT 6SM -RA
                       BR SCT011 OVC020=
201403072348 TAF KBFI 072348Z 0800/0824 17009KT P6SM FEW040 SCT110 SCT200 FM080600
                       VRB03KT P6SM SCT110 BKN200 FM081200 VRB03KT
                       P6SM SCT050 OVC110
                      PROB30 0814/0818 -RA OVC050 FM081800 15008KT
                       P6SM -RA SCT035 OVC050=
201403072108 TAF AMD KBFI 072108Z 0721/0818 19009KT P6SM BKN050 OVC200 FM080000
                       15006KT P6SM SCT040 SCT110 OVC200 FM081200
                       15005KT P6SM SCT040 OVC110
                      PROB30 0812/0818 -RA OVC040=
201403071909 TAF AMD KBFI 071909Z 0719/0818 18011KT P6SM BKN030 OVC200 FM072000
                       19009KT P6SM BKN035 BKN110 OVC200 FM080000
                       15006KT P6SM SCT040 SCT110 OVC200 FM081200
                       15005KT P6SM SCT040 OVC110
                      PROB30 0812/0818 -RA OVC040=
201403071740 TAF KBFI 071740Z 0718/0818 19011KT P6SM BKN025 OVC200 FM072000
                       19009KT P6SM BKN035 BKN110 OVC200 FM080000
                       15006KT P6SM SCT040 SCT110 OVC200 FM081200
                       15005KT P6SM SCT040 OVC110
                      PROB30 0812/0818 -RA OVC040=
201403071700 TAF AMD KBFI 071700Z 0717/0812 18012KT P6SM BKN022 OVC200 FM071800
                       16008KT P6SM BKN024 OVC040 FM072200 18008KT
                       P6SM SCT030 BKN100 FM080200 15004KT P6SM
                       FEW035 BKN200=
201403071543 TAF AMD KBFI 071543Z 0716/0812 16012KT P6SM BKN020 OVC200 FM071800
                       16008KT P6SM BKN024 OVC040 FM072200 18008KT
                       P6SM SCT030 BKN100 FM080200 15004KT P6SM
                       FEW035 BKN200=
201403071127 TAF KBFI 071127Z 0712/0812 19010KT P6SM OVC017 FM071800 16008KT
                       P6SM BKN024 OVC040 FM072200 18008KT P6SM
                       SCT030 BKN100 FM080200 15004KT P6SM FEW035
                       BKN200=
201403070543 TAF KBFI 070543Z 0706/0806 21010KT P6SM OVC020 FM071200 16008KT
                       P6SM OVC014 FM071600 16008KT P6SM OVC020
                       FM071900 17008KT P6SM BKN030 OVC045 FM072200
                       18008KT P6SM SCT030 BKN100=
201403070321 TAF AMD KBFI 070321Z 0703/0724 19010G20KT P6SM SCT026 SCT045 BKN100
                       TEMPO 0704/0706 BKN026 BKN045 BKN100 FM070600
                       17010KT P6SM BKN025 BKN045 FM072200 19006KT
                       P6SM SCT030 BKN050=
201403062329 TAF KBFI 062329Z 0700/0724 19014G29KT P6SM VCSH SCT023 BKN100 BKN200
                       TEMPO 0700/0704 -SHRA BKN025 OVC050 FM070600
                       17009KT P6SM OVC030 FM072200 19006KT P6SM
                       SCT030 BKN050=
201403061735 TAF KBFI 061735Z 0618/0718 17014G24KT P6SM -RA SCT035 OVC070
                      TEMPO 0618/0622 -RA OVC030 FM062200 19010G20KT
                       P6SM VCSH SCT025 BKN045 FM070600 21011KT
                       P6SM OVC025=
201403061400 TAF AMD KBFI 061400Z 0614/0712 14010G18KT P6SM -RA OVC050 FM061700
                       18015G25KT P6SM -SHRA SCT015 BKN025 OVC040
                       FM070300 18012KT P6SM -SHRA BKN030 OVC045=
201403061134 TAF KBFI 061134Z 0612/0712 17015G25KT P6SM -SHRA SCT025 OVC045
                       FM061400 17015G25KT P6SM -SHRA SCT015 BKN030
                       OVC045 FM061700 18015G25KT P6SM -SHRA SCT015
                       BKN025 OVC040 FM070300 18012KT P6SM -SHRA
                       BKN030 OVC045=
201403060816 TAF AMD KBFI 060816Z 0608/0706 17015G25KT P6SM -SHRA SCT025 BKN040
                       OVC070 FM061200 18014G22KT P6SM -SHRA SCT015
                       BKN030 OVC050 FM061800 18014G24KT P6SM -SHRA
                       SCT015 BKN025 OVC040=
201403060528 TAF KBFI 060528Z 0606/0706 13010KT P6SM -RA BKN025 OVC040 FM060800
                       16010G20KT 6SM -RA BR SCT012 BKN025 OVC035
                       FM061200 16012G22KT 6SM -RA BR SCT014 OVC020
                       FM061800 18012G22KT P6SM -SHRA SCT015 OVC030=
201403052341 TAF KBFI 052341Z 0600/0624 15004KT 6SM -RA BKN040 OVC060 FM060600
                       16012G19KT 4SM RA OVC020 FM061200 17012G21KT
                       6SM -RA SCT016 OVC030 FM061800 19011G18KT
                       P6SM VCSH SCT020 OVC035=
201403052022 TAF AMD KBFI 052022Z 0520/0618 20007KT P6SM VCSH BKN023 BKN200
                       FM052200 VRB03KT P6SM SCT025 BKN035 OVC050
                       FM060300 13006KT 3SM RA SCT030 OVC045 FM061200
                       18012KT 5SM -RA SCT004 BKN012 OVC020=
201403051735 TAF KBFI 051735Z 0518/0618 17008G17KT 4SM BR VCSH BKN008 OVC020
                       FM052200 VRB03KT P6SM SCT025 BKN035 OVC050
                       FM060300 13006KT 3SM RA SCT030 OVC045 FM061200
                       18012KT 5SM -RA SCT004 BKN012 OVC020=
201403051140 TAF KBFI 051140Z 0512/0612 VRB03KT 3SM RA SCT010 BKN030 OVC045
                       FM051500 15006KT 4SM -RA SCT006 BKN010 OVC020
                       FM051800 17010KT P6SM -SHRA SCT010 BKN020
                       OVC030 FM052300 VRB03KT P6SM SCT025 BKN035
                       OVC050 FM060300 13006KT 4SM RA SCT030 OVC045=
201403050907 TAF AMD KBFI 050907Z 0509/0606 VRB03KT P6SM -RA SCT035 OVC060 FM051300
                       VRB03KT P6SM -RA SCT008 BKN020 OVC030 FM051500
                       13006KT 4SM -RA SCT006 OVC010 FM051800 17010KT
                       P6SM -SHRA SCT010 BKN020 OVC030 FM052100
                       17010KT P6SM -SHRA SCT020 BKN030 OVC045
                       FM060400 13006KT 5SM -RA SCT006 OVC012=
201403050540 TAF KBFI 050540Z 0506/0606 18006KT P6SM -RA SCT008 BKN020 OVC030
                       FM051000 13006KT 4SM -RA SCT006 OVC010 FM051700
                       17010KT P6SM -SHRA SCT010 BKN020 OVC030
                       FM052100 17010KT P6SM -SHRA SCT020 BKN030
                       OVC045 FM060400 13006KT 5SM -RA SCT006 OVC012=
201403042329 TAF KBFI 042329Z 0500/0524 17011KT P6SM BKN017 OVC023 FM050300
                       15004KT P6SM -RA OVC014 FM050600 00000KT
                       4SM -RA BR OVC010 WS020/20040KT FM051500
                       17008KT P6SM -SHRA BKN018 BKN030 OVC045=
201403041731 TAF KBFI 041731Z 0418/0518 00000KT 4SM -RA BR SCT006 OVC015
                      TEMPO 0418/0422 BKN006 OVC015 FM042200 17009KT
                       P6SM -SHRA SCT018 BKN030 OVC045 FM050300
                       15004KT P6SM -RA OVC014 FM050600 00000KT
                       4SM -RA BR OVC010 FM051700 17008KT P6SM
                       -SHRA BKN018 BKN030 OVC045=
201403041400 TAF AMD KBFI 041400Z 0414/0512 34004KT 4SM -RA BR OVC006
                      TEMPO 0414/0418 6SM -RA BR SCT007 OVC016
                       FM050000 13006KT P6SM SCT030 BKN045 OVC060
                       FM050800 13006KT P6SM -RA SCT012 BKN018
                       OVC030=
201403041141 TAF KBFI 041141Z 0412/0512 17006KT P6SM -RA SCT015 BKN025 OVC040
                       TEMPO 0412/0416 5SM -RA FM050000 13006KT
                       P6SM SCT030 BKN045 OVC060 FM050800 13006KT
                       P6SM -RA SCT012 BKN018 OVC030=
201403040541 TAF KBFI 040541Z 0406/0506 19008KT P6SM SCT020 SCT030 OVC045
                      TEMPO 0406/0410 -SHRA BKN030 OVC045 FM041200
                       19008KT P6SM -RA SCT015 BKN025 OVC040 FM050000
                       13006KT P6SM SCT030 BKN045 OVC070=
201403032339 TAF KBFI 032339Z 0400/0424 20011G17KT P6SM FEW020 SCT045 BKN200
                       FM040300 17007KT P6SM VCSH SCT008 SCT015
                       BKN035 FM040600 16006KT P6SM -SHRA SCT008
                       BKN015 OVC025 FM041400 17007KT P6SM -RA
                       SCT012 BKN020 OVC030 FM042200 17007KT P6SM
                       -RA SCT018 BKN028 OVC040=
201403032121 TAF AMD KBFI 032121Z 0321/0418 19007G15KT P6SM FEW015 SCT022
                      TEMPO 0322/0324 BKN015 BKN022 FM040000 18007KT
                       P6SM VCSH SCT015 SCT022
                      TEMPO 0400/0403 SCT015 BKN022 FM040300 VRB03KT
                       P6SM -SHRA SCT004 BKN010 OVC020 FM041700
                       16004KT P6SM VCSH SCT015 BKN030 OVC045=
201403031959 TAF AMD KBFI 031959Z 0320/0418 14005KT 6SM BR BKN008 OVC010 FM032200
                       18008KT P6SM VCSH SCT010 BKN020 OVC035
                      TEMPO 0322/0324 BKN010 OVC020 FM040300 VRB03KT
                       P6SM -SHRA SCT004 BKN010 OVC020 FM041700
                       16004KT P6SM VCSH SCT015 BKN030 OVC045=
201403031851 TAF AMD KBFI 031851Z 0319/0418 16005KT 2SM -RA BR BKN006 OVC020
                       FM032130 18007KT P6SM VCSH SCT018 BKN030
                       OVC045 FM040300 VRB03KT P6SM -SHRA SCT004
                       BKN010 OVC020 FM041700 16004KT P6SM VCSH
                       SCT015 BKN030 OVC045=
201403031741 TAF KBFI 031741Z 0318/0418 14007KT P6SM -SHRA SCT015 BKN035 OVC045
                       FM032200 18007KT P6SM VCSH SCT018 BKN035
                       OVC045 FM040300 VRB03KT P6SM -SHRA SCT004
                       BKN010 OVC020 FM041700 16004KT P6SM VCSH
                       SCT015 BKN030 OVC045=
201403031140 TAF KBFI 031140Z 0312/0412 17010KT P6SM -RA SCT020 OVC035 FM031500
                       17010KT P6SM -RA SCT015 BKN025 OVC035 FM032200
                       19008KT P6SM SCT018 BKN028 OVC040 FM040300
                       VRB03KT P6SM -RA SCT004 BKN010 OVC020=
201403030540 TAF KBFI 030540Z 0306/0406 18012KT P6SM -RA SCT009 BKN015 OVC035
                       TEMPO 0308/0312 5SM -RA BKN009 OVC015 FM031200
                       18012KT P6SM SCT015 BKN025 OVC040 FM032000
                       18008KT P6SM -RA BKN025 OVC040=
201403030023 TAF AMD KBFI 030023Z 0300/0324 14008KT P6SM -RA BKN030 OVC050
                      TEMPO 0300/0304 3SM -RA BR BKN020 OVC040
                       FM030500 18012KT P6SM -RA SCT010 BKN020
                       OVC030 FM031400 17010KT P6SM -RA SCT015
                       BKN025 OVC035 FM032000 17006KT P6SM -RA
                       BKN020 OVC035=
201403022320 TAF KBFI 022320Z 0300/0324 14008KT P6SM -RA BKN030 OVC050 FM030500
                       18012KT P6SM -RA SCT010 BKN020 OVC030 FM031400
                       17010KT P6SM -RA SCT015 BKN025 OVC035 FM032000
                       17006KT P6SM -RA BKN020 OVC035=
201403022101 TAF AMD KBFI 022101Z 0221/0318 14008KT 4SM -RA BKN030 OVC050 FM030500
                       18012KT P6SM -RA SCT010 BKN020 OVC030 FM031400
                       17010KT P6SM VCSH SCT015 BKN025 OVC035=
201403021727 TAF KBFI 021727Z 0218/0318 13006KT P6SM -RA SCT007 BKN015 OVC025
                       TEMPO 0218/0220 3SM -RA BKN006 OVC012 FM022000
                       14008KT 4SM -RA BKN007 OVC014 FM030500 18012KT
                       P6SM -RA SCT010 BKN020 OVC030 FM031400 17010KT
                       P6SM VCSH SCT015 BKN025 OVC035=
201403021140 TAF KBFI 021140Z 0212/0312 13006KT P6SM -RA SCT009 BKN016 OVC025
                       TEMPO 0212/0216 4SM -RA BKN009 OVC016 FM021600
                       13006KT P6SM -RA SCT009 BKN016 OVC025
                      TEMPO 0216/0220 4SM -RA BKN009 OVC016 FM022000
                       14008KT P6SM -RA SCT009 OVC016 FM030500
                       18012KT P6SM SCT012 BKN020 OVC030=
201403020541 TAF KBFI 020541Z 0206/0306 12006KT P6SM OVC025 FM021500 12006KT
                       P6SM -RA OVC018
                      TEMPO 0223/0303 5SM -RA FM030300 18012KT
                       P6SM SCT010 BKN015 OVC025=
201403012327 TAF KBFI 012327Z 0200/0224 12007KT P6SM OVC035 FM020900 14005KT
                       P6SM -RA SCT015 OVC025 FM021700 16005KT
                       P6SM -RA OVC015
                      TEMPO 0220/0224 4SM -RA BR OVC011=
201403012207 TAF AMD KBFI 012207Z 0122/0218 VRB03KT P6SM OVC035 FM020000 VRB03KT
                       P6SM OVC030 FM020900 VRB03KT P6SM -RA SCT015
                       OVC025 FM021700 16005KT P6SM -RA OVC015=
201403011720 TAF KBFI 011720Z 0118/0218 VRB03KT P6SM OVC050 FM020000 VRB03KT
                       P6SM OVC040 FM020900 VRB03KT P6SM -RA SCT015
                       OVC025 FM021700 16005KT P6SM -RA OVC015=
201403011138 TAF KBFI 011138Z 0112/0212 VRB03KT P6SM BKN070 FM020000 VRB03KT
                       P6SM BKN040 OVC070 FM020900 VRB03KT P6SM
                       -RA SCT015 OVC025=
201403010539 TAF KBFI 010539Z 0106/0206 36006KT P6SM SCT200 FM012000 36006KT
                       P6SM BKN120 BKN200 FM020000 VRB03KT P6SM
                       BKN045 OVC070=