##########################################################
# Query made at 02/17/2025 02:35:43 UTC
# Time interval: from 10/01/2014 00:00  to 10/31/2014 23:59  UTC
##########################################################

##########################################################
# KBFI, Seattle, Seattle Boeing Field (United States)
# WMO index: -----. WIGOS ID: Unknown
# Latitude 47-32-45N. Longitude 122-18-49W. Altitude 5 m.
##########################################################

###################################
#  METAR/SPECI from KBFI
###################################
201410312353 METAR KBFI 312353Z 16006KT 10SM FEW015 SCT060 BKN200 14/08 A2984 RMK AO2 SLP105 60001 T01390078 10150 20122 53007=
201410312253 METAR KBFI 312253Z 18006KT 10SM SCT019 BKN050 14/09 A2983 RMK AO2 SLP102 T01390089=
201410312153 METAR KBFI 312153Z COR 17006KT 10SM SCT017 BKN055 BKN200 14/09 A2982 RMK AO2 SLP099 T01390089=
201410312053 METAR KBFI 312053Z 17007KT 10SM BKN013 OVC060 13/09 A2982 RMK AO2 RAB27E36 SLP098 P0000 60001 T01330094 51008=
201410311953 METAR KBFI 311953Z VRB06KT 10SM SCT011 OVC039 12/09 A2982 RMK AO2 RAB02E26 SLP097 P0001 T01220094=
201410311853 METAR KBFI 311853Z 21006KT 10SM FEW015 BKN060 OVC080 13/09 A2982 RMK AO2 RAE41 SLP098 P0000 T01280094=
201410311800 SPECI KBFI 311800Z 15003KT 10SM -RA FEW015 BKN060 OVC080 12/09 A2980 RMK AO2 P0000=
201410311753 METAR KBFI 311753Z 12005KT 10SM -RA BKN012 OVC039 12/09 A2980 RMK AO2 SLP090 P0009 60051 T01220094 10122 20117 51034=
201410311653 METAR KBFI 311653Z 33003KT 4SM -RA BKN012 OVC039 12/09 A2977 RMK AO2 SLP082 P0011 T01220094=
201410311553 METAR KBFI 311553Z 27006KT 3SM RA BR BKN006 BKN011 OVC020 12/10 A2974 RMK AO2 SLP071 P0019 T01220100=
201410311453 METAR KBFI 311453Z 27003KT 3SM RA BR BKN006 12/10 A2970 RMK AO2 SLP056 P0007 60012 T01220100 55005=
201410311447 SPECI KBFI 311447Z 00000KT 2 1/2SM RA BR SCT006 OVC012 12/10 A2970 RMK AO2 P0006=
201410311353 METAR KBFI 311353Z 00000KT 5SM -RA SCT009 OVC032 12/09 A2970 RMK AO2 SLP056 P0003 T01220094=
201410311338 SPECI KBFI 311338Z 00000KT 7SM -RA SCT009 OVC037 12/10 A2969 RMK AO2 P0002=
201410311331 SPECI KBFI 311331Z 00000KT 6SM -RA BR BKN009 OVC037 12/10 A2970 RMK AO2 P0001=
201410311253 METAR KBFI 311253Z 00000KT 7SM -RA SCT008 OVC037 12/10 A2970 RMK AO2 SLP056 P0002 T01170100=
201410311153 METAR KBFI 311153Z 00000KT 10SM -RA FEW008 OVC039 12/09 A2971 RMK AO2 SLP061 P0001 60034 70093 T01170094 10144 20117 58018=
201410311105 SPECI KBFI 311105Z 00000KT 7SM -RA SCT024 OVC045 12/10 A2973 RMK AO2 P0000=
201410311053 METAR KBFI 311053Z 00000KT 6SM -RA BR BKN024 OVC043 12/10 A2974 RMK AO2 SLP069 P0004 T01220100=
201410310953 METAR KBFI 310953Z 00000KT 6SM -RA BR OVC047 12/10 A2976 RMK AO2 SLP076 P0004 T01220100=
201410310853 METAR KBFI 310853Z 17004KT 8SM -RA SCT008 SCT016 OVC047 13/11 A2977 RMK AO2 SLP079 P0010 60025 T01280106 58000=
201410310830 SPECI KBFI 310830Z 14003KT 6SM -RA BR SCT008 BKN015 OVC038 13/11 A2977 RMK AO2 P0007=
201410310821 SPECI KBFI 310821Z 14004KT 6SM -RA SCT008 BKN014 OVC050 13/11 A2977 RMK AO2 P0005=
201410310753 METAR KBFI 310753Z 00000KT 4SM RA BKN039 OVC046 13/11 A2977 RMK AO2 SLP081 P0007 T01330106 401670122=
201410310709 SPECI KBFI 310709Z 14007KT 8SM -RA SCT014 BKN042 OVC050 13/11 A2977 RMK AO2 P0002=
201410310700 SPECI KBFI 310700Z 14006KT 7SM -RA SCT013 BKN019 OVC042 13/11 A2978 RMK AO2 P0001=
201410310653 METAR KBFI 310653Z 16006KT 5SM -RA BR BKN013 BKN019 OVC044 14/12 A2978 RMK AO2 RAB0557 SLP084 P0008 T01390117=
201410310553 METAR KBFI 310553Z 14006KT 10SM OVC042 14/11 A2977 RMK AO2 RAB43E52 SLP079 P0000 60017 T01440111 10161 20144 58000=
201410310453 METAR KBFI 310453Z 13007KT 10SM OVC036 14/12 A2978 RMK AO2 RAE11 SLP083 P0000 T01440117=
201410310353 METAR KBFI 310353Z 16007KT 10SM -RA SCT012 BKN028 OVC046 15/12 A2978 RMK AO2 SLP082 P0005 T01500122=
201410310321 SPECI KBFI 310321Z 14007KT 6SM -RA BR BKN015 OVC019 15/13 A2977 RMK AO2 P0003=
201410310253 METAR KBFI 310253Z 13006KT 10SM -RA OVC012 16/13 A2977 RMK AO2 SLP080 P0008 60012 T01560128 53009=
201410310231 SPECI KBFI 310231Z 13006KT 5SM RA BR BKN012 OVC055 15/13 A2977 RMK AO2 P0004=
201410310153 METAR KBFI 310153Z 16007KT 10SM -RA OVC080 16/13 A2976 RMK AO2 RAE0057B21 SLP077 P0001 T01560128=
201410310053 METAR KBFI 310053Z 10003KT 10SM -RA SCT034 BKN050 OVC090 16/12 A2974 RMK AO2 RAB24 SLP072 P0003 T01560122=
201410302353 METAR KBFI 302353Z 00000KT 10SM BKN050 BKN090 OVC110 16/13 A2974 RMK AO2 RAE49 SLP070 P0005 60035 T01610128 10167 20156 56013=
201410302253 METAR KBFI 302253Z 00000KT 10SM RA SCT048 BKN060 BKN110 16/12 A2975 RMK AO2 SLP073 P0003 T01610122=
201410302153 METAR KBFI 302153Z 14007KT 10SM RA BKN035 BKN065 OVC090 16/12 A2976 RMK AO2 SLP076 P0001 T01610122=
201410302053 METAR KBFI 302053Z 09003KT 4SM RA SCT048 BKN065 OVC080 16/13 A2978 RMK AO2 SLP083 P0019 60026 T01560128 58018=
201410302000 SPECI KBFI 302000Z 10007KT 4SM -RA FEW048 SCT070 OVC090 16/12 A2979 RMK AO2 PRESFR P0002=
201410301953 METAR KBFI 301953Z VRB04KT 2 1/2SM RA SCT040 BKN070 OVC090 16/12 A2982 RMK AO2 SLP099 P0006 T01610122=
201410301853 METAR KBFI 301853Z 11004KT 10SM -RA SCT060 OVC090 17/12 A2982 RMK AO2 RAB1755 SLP098 P0001 T01670122=
201410301753 METAR KBFI 301753Z 16003KT 10SM BKN065 BKN095 16/12 A2983 RMK AO2 RAE34 SLP102 P0003 60007 T01610117 10161 20128 58009=
201410301653 METAR KBFI 301653Z 00000KT 7SM -RA FEW030 SCT060 OVC095 15/12 A2987 RMK AO2 RAB00 SLP113 P0004 T01500117=
201410301553 METAR KBFI 301553Z 26003KT 10SM SCT070 OVC090 14/11 A2987 RMK AO2 RAB1455E34 SLP113 P0000 T01390111=
201410301453 METAR KBFI 301453Z 00000KT 10SM FEW070 SCT080 OVC100 14/11 A2986 RMK AO2 RAB28E42 SLP110 P0000 60000 T01390111 56022=
201410301353 METAR KBFI 301353Z 00000KT 10SM OVC100 14/11 A2987 RMK AO2 SLP114 T01390106=
201410301253 METAR KBFI 301253Z 00000KT 10SM BKN070 OVC100 13/11 A2989 RMK AO2 SLP123 T01330106=
201410301153 METAR KBFI 301153Z 00000KT 10SM FEW060 13/10 A2992 RMK AO2 RAB24E33 SLP133 P0000 60000 70002 T01280100 10133 20122 58022=
201410301053 METAR KBFI 301053Z 00000KT 10SM BKN060 OVC095 13/10 A2995 RMK AO2 SLP142 T01280100=
201410300953 METAR KBFI 300953Z 00000KT 10SM SCT060 BKN090 OVC120 13/10 A2997 RMK AO2 SLP149 T01280100=
201410300853 METAR KBFI 300853Z 00000KT 10SM BKN080 OVC110 13/10 A2999 RMK AO2 SLP155 T01280100 58016=
201410300753 METAR KBFI 300753Z 00000KT 10SM BKN060 BKN100 OVC120 13/10 A3001 RMK AO2 SLP161 T01280100 401830117=
201410300653 METAR KBFI 300653Z 00000KT 10SM FEW100 12/10 A3002 RMK AO2 SLP166 T01220100=
201410300553 METAR KBFI 300553Z 00000KT 10SM CLR 13/10 A3004 RMK AO2 SLP171 T01280100 10172 20117 56010=
201410300453 METAR KBFI 300453Z 00000KT 10SM FEW070 12/10 A3004 RMK AO2 SLP172 T01220100=
201410300353 METAR KBFI 300353Z 00000KT 10SM SCT065 BKN080 13/10 A3006 RMK AO2 SLP177 T01330100=
201410300253 METAR KBFI 300253Z 00000KT 10SM FEW060 BKN200 14/11 A3007 RMK AO2 SLP181 T01390106 56010=
201410300153 METAR KBFI 300153Z 00000KT 10SM SCT060 BKN200 16/11 A3008 RMK AO2 SLP184 T01560106=
201410300053 METAR KBFI 300053Z 00000KT 10SM FEW030 SCT065 BKN200 17/11 A3008 RMK AO2 SLP186 T01670106=
201410292353 METAR KBFI 292353Z 13005KT 10SM FEW020 SCT065 17/10 A3010 RMK AO2 SLP191 T01720100 10183 20161 56010=
201410292253 METAR KBFI 292253Z 19003KT 10SM FEW020 SCT075 BKN200 17/11 A3011 RMK AO2 SLP195 T01720106=
201410292153 METAR KBFI 292153Z 18004KT 10SM FEW020 BKN075 BKN200 18/11 A3011 RMK AO2 SLP196 T01780106=
201410292053 METAR KBFI 292053Z 17006KT 10SM FEW015 BKN080 17/11 A3013 RMK AO2 SLP201 T01720106 50003=
201410291953 METAR KBFI 291953Z 19007G15KT 10SM SCT019 18/10 A3014 RMK AO2 SLP205 T01780100=
201410291853 METAR KBFI 291853Z 20007KT 170V230 10SM SCT019 17/11 A3013 RMK AO2 SLP202 T01720111=
201410291753 METAR KBFI 291753Z 17008KT 10SM SCT016 17/12 A3012 RMK AO2 SLP197 60002 T01670117 10167 20139 51018=
201410291653 METAR KBFI 291653Z 18008KT 10SM SCT030 SCT080 16/11 A3011 RMK AO2 SLP194 T01560111=
201410291553 METAR KBFI 291553Z 18010G16KT 10SM SCT110 14/11 A3009 RMK AO2 SLP188 P0001 T01440111=
201410291453 METAR KBFI 291453Z 17013G21KT 10SM OVC070 14/11 A3006 RMK AO2 SLP180 60001 T01440111 51017=
201410291353 METAR KBFI 291353Z 17009KT 10SM FEW031 OVC100 14/11 A3005 RMK AO2 SLP176 T01440111=
201410291253 METAR KBFI 291253Z 16008KT 10SM SCT027 BKN048 OVC100 14/11 A3004 RMK AO2 RAB02E26 SLP171 P0001 T01440111=
201410291153 METAR KBFI 291153Z 14006KT 10SM SCT039 BKN046 OVC070 14/11 A3001 RMK AO2 SLP163 60003 70030 T01440111 10150 20139 51016=
201410291053 METAR KBFI 291053Z 14011KT 10SM BKN034 BKN055 14/11 A3000 RMK AO2 SLP158 T01390111=
201410290953 METAR KBFI 290953Z 14007KT 10SM FEW020 BKN040 14/11 A2999 RMK AO2 SLP155 T01440111=
201410290853 METAR KBFI 290853Z 16006KT 10SM BKN024 BKN045 14/11 A2997 RMK AO2 SLP147 60003 T01390111 53015=
201410290753 METAR KBFI 290753Z 17009KT 10SM BKN018 OVC033 15/12 A2995 RMK AO2 RAE52 SLP141 P0002 T01500117 401670106=
201410290731 SPECI KBFI 290731Z 17005KT 9SM -RA BKN018 OVC033 14/12 A2994 RMK AO2 P0002=
201410290653 METAR KBFI 290653Z 17008KT 6SM -RA SCT028 BKN036 OVC055 15/12 A2994 RMK AO2 RAE17B49 SLP137 P0001 T01500117=
201410290553 METAR KBFI 290553Z 15008KT 8SM -RA FEW036 BKN055 OVC095 15/12 A2992 RMK AO2 RAB35 SLP132 P0000 60000 T01500117 10161 20144 53017=
201410290453 METAR KBFI 290453Z 15008KT 10SM BKN050 BKN070 OVC120 16/11 A2990 RMK AO2 SLP125 T01560111=
201410290353 METAR KBFI 290353Z 15007KT 10SM FEW032 OVC055 14/12 A2989 RMK AO2 SLP120 T01440117=
201410290253 METAR KBFI 290253Z 13006KT 10SM FEW032 SCT043 OVC050 15/12 A2987 RMK AO2 RAE0155 SLP115 P0000 60000 T01500117 53007=
201410290153 METAR KBFI 290153Z 14008KT 10SM -RA SCT030 BKN041 OVC080 15/11 A2986 RMK AO2 RAB22 SLP112 P0000 T01500111=
201410290100 SPECI KBFI 290100Z 14007KT 10SM OVC031 15/10 A2985 RMK AO2=
201410290053 METAR KBFI 290053Z 13008KT 10SM FEW015 BKN023 OVC031 15/10 A2985 RMK AO2 SLP109 T01500100=
201410290013 SPECI KBFI 290013Z 10010KT 10SM FEW015 BKN029 BKN048 15/11 A2985 RMK AO2=
201410282353 METAR KBFI 282353Z 16012KT 10SM FEW021 BKN035 BKN050 16/11 A2985 RMK AO2 SLP108 60001 T01610111 10167 20122 55001=
201410282334 SPECI KBFI 282334Z 16011KT 10SM FEW020 BKN035 OVC050 16/12 A2985 RMK AO2=
201410282324 SPECI KBFI 282324Z 16008KT 10SM BKN024 OVC033 17/12 A2985 RMK AO2=
201410282253 METAR KBFI 282253Z 16008KT 10SM FEW022 BKN039 BKN049 17/12 A2984 RMK AO2 SLP105 T01670117=
201410282153 METAR KBFI 282153Z 16008KT 10SM BKN031 OVC039 16/12 A2985 RMK AO2 SLP107 T01610117=
201410282053 METAR KBFI 282053Z 14007KT 10SM BKN031 OVC039 16/12 A2985 RMK AO2 SLP108 60001 T01560117 58005=
201410281953 METAR KBFI 281953Z 15005KT 10SM BKN030 OVC048 14/11 A2986 RMK AO2 RAE01B23E40 SLP112 P0001 T01440111=
201410281853 METAR KBFI 281853Z 15006KT 10SM -RA FEW010 BKN035 13/10 A2986 RMK AO2 RAE22B51 SLP112 P0000 T01330100=
201410281753 METAR KBFI 281753Z 15004KT 7SM -RA FEW009 BKN016 OVC026 12/10 A2987 RMK AO2 RAE32B52 SLP114 P0003 60026 T01220100 10122 20111 51006=
201410281726 SPECI KBFI 281726Z 15006KT 3SM -RA BR SCT009 BKN019 12/10 A2986 RMK AO2 P0003=
201410281707 SPECI KBFI 281707Z 15006KT 2SM -RA BR SCT009 BKN019 12/10 A2986 RMK AO2 P0002=
201410281653 METAR KBFI 281653Z 14006KT 3SM -RA BR SCT009 BKN019 12/10 A2986 RMK AO2 RAB17 SLP112 P0004 T01220100=
201410281553 METAR KBFI 281553Z 16003KT 10SM SCT017 BKN023 OVC031 12/09 A2985 RMK AO2 RAE44 SLP108 P0007 T01170094=
201410281531 SPECI KBFI 281531Z 14005KT 6SM -RA SCT023 BKN029 OVC070 12/09 A2986 RMK AO2 P0007=
201410281453 METAR KBFI 281453Z 00000KT 3SM RA OVC036 12/09 A2987 RMK AO2 RAE18B46 SLP113 P0005 60012 T01170089 55007=
201410281353 METAR KBFI 281353Z 11003KT 6SM RA OVC038 12/09 A2986 RMK AO2 SLP112 P0005 T01170089=
201410281253 METAR KBFI 281253Z 00000KT 7SM -RA OVC034 11/08 A2988 RMK AO2 SLP116 P0002 T01110083 $=
201410281153 METAR KBFI 281153Z 00000KT 4SM -RA FEW033 OVC050 11/08 A2989 RMK AO2 SLP120 P0008 60016 70016 T01110083 10128 20111 58022 $=
201410281053 METAR KBFI 281053Z 16006KT 10SM -RA OVC048 11/08 A2991 RMK AO2 RAE11B31 SLP127 P0001 T01110078 $=
201410280953 METAR KBFI 280953Z 15006KT 8SM -RA OVC055 12/07 A2994 RMK AO2 RAB11 SLP136 P0001 T01170072 $=
201410280853 METAR KBFI 280853Z 00000KT 10SM FEW050 OVC080 12/08 A2995 RMK AO2 RAB13E51 SLP142 P0004 60006 T01170078 58007 $=
201410280753 METAR KBFI 280753Z 00000KT 10SM BKN070 OVC090 12/08 A2996 RMK AO2 RAE45 SLP143 P0001 T01170078 401670067 $=
201410280653 METAR KBFI 280653Z 00000KT 10SM -RA OVC070 12/08 A2998 RMK AO2 RAB10 SLP150 P0001 T01220078 $=
201410280553 METAR KBFI 280553Z 13006KT 10SM BKN065 OVC075 13/07 A2997 RMK AO2 SLP150 T01280067 10144 20128 57008 $=
201410280453 METAR KBFI 280453Z 13004KT 10SM OVC070 13/06 A2999 RMK AO2 SLP153 T01330061 $=
201410280353 METAR KBFI 280353Z 13005KT 10SM OVC100 14/06 A2999 RMK AO2 SLP154 T01390061 $=
201410280253 METAR KBFI 280253Z 00000KT 10SM OVC110 14/07 A3000 RMK AO2 SLP158 T01390067 56017 $=
201410280153 METAR KBFI 280153Z 00000KT 10SM SCT070 OVC090 14/07 A3001 RMK AO2 SLP162 T01440072 $=
201410280053 METAR KBFI 280053Z 00000KT 10SM FEW040 SCT060 BKN110 OVC150 14/07 A3003 RMK AO2 SLP169 T01440067 $=
201410272353 METAR KBFI 272353Z 00000KT 10SM OVC060 14/07 A3005 RMK AO2 SLP175 T01440067 10167 20117 56015 $=
201410272253 METAR KBFI 272253Z 24003KT 10SM BKN065 15/06 A3006 RMK AO2 SLP180 T01500056 $=
201410272153 METAR KBFI 272153Z 00000KT 10SM SCT055 OVC110 16/06 A3007 RMK AO2 SLP182 T01610056 $=
201410272053 METAR KBFI 272053Z VRB04KT 10SM FEW044 OVC095 17/06 A3009 RMK AO2 SLP190 T01670056 58015 $=
201410271953 METAR KBFI 271953Z 16004KT 10SM FEW041 BKN150 15/07 A3011 RMK AO2 SLP197 T01500067 $=
201410271853 METAR KBFI 271853Z 17003KT 10SM SCT080 13/07 A3013 RMK AO2 SLP203 T01330072 $=
201410271753 METAR KBFI 271753Z 16003KT 10SM SCT045 BKN150 11/06 A3014 RMK AO2 SLP205 T01110061 10111 20067 56002 $=
201410271653 METAR KBFI 271653Z 14003KT 10SM FEW012 BKN120 10/06 A3014 RMK AO2 SLP206 T01000061 $=
201410271553 METAR KBFI 271553Z 13004KT 10SM FEW015 SCT035 OVC150 09/06 A3014 RMK AO2 SLP205 T00890061 $=
201410271453 METAR KBFI 271453Z 14004KT 10SM SCT025 BKN030 08/06 A3014 RMK AO2 SLP207 T00830061 56005 $=
201410271353 METAR KBFI 271353Z 15003KT 10SM SCT029 BKN036 08/06 A3015 RMK AO2 SLP209 T00830061=
201410271333 SPECI KBFI 271333Z 15003KT 10SM BKN029 OVC038 08/06 A3016 RMK AO2=
201410271253 METAR KBFI 271253Z 00000KT 10SM SCT015 SCT036 08/06 A3016 RMK AO2 SLP212 T00830061 $=
201410271153 METAR KBFI 271153Z 14004KT 10SM SCT015 07/05 A3016 RMK AO2 SLP211 7//// T00720050 10100 20072 58003 $=
201410271053 METAR KBFI 271053Z 13005KT 10SM SCT012 08/06 A3016 RMK AO2 SLP213 T00830061 $=
201410270953 METAR KBFI 270953Z 14005KT 10SM BKN021 08/06 A3017 RMK AO2 SLP215 T00830061 $=
201410270853 METAR KBFI 270853Z 00000KT 10SM BKN023 08/06 A3017 RMK AO2 SLP214 T00830061 51011 $=
201410270753 METAR KBFI 270753Z 15005KT 10SM FEW037 08/06 A3015 RMK AO2 SLP210 T00780056 401500078 $=
201410270653 METAR KBFI 270653Z 15003KT 10SM OVC033 09/07 A3015 RMK AO2 SLP209 T00940072 $=
201410270553 METAR KBFI 270553Z 14003KT 10SM FEW029 09/07 A3013 RMK AO2 SLP203 T00940067 10139 20083 53010 $=
201410270453 METAR KBFI 270453Z 00000KT 10SM FEW029 09/06 A3012 RMK AO2 SLP199 T00940061 $=
201410270353 METAR KBFI 270353Z 13003KT 10SM SCT065 11/07 A3011 RMK AO2 SLP195 T01060067 $=
201410270253 METAR KBFI 270253Z 08003KT 10SM BKN055 BKN070 12/07 A3010 RMK AO2 SLP193 T01220072 51017 $=
201410270153 METAR KBFI 270153Z 00000KT 10SM BKN055 OVC070 13/07 A3009 RMK AO2 SLP188 T01280067 $=
201410270053 METAR KBFI 270053Z 00000KT 10SM OVC044 13/07 A3007 RMK AO2 SLP182 T01330067 $=
201410262353 METAR KBFI 262353Z VRB04KT 10SM SCT022 BKN030 14/07 A3005 RMK AO2 SLP176 60006 T01390067 10150 20117 53024 $=
201410262253 METAR KBFI 262253Z VRB04KT 10SM SCT022 BKN030 14/07 A3003 RMK AO2 SLP167 T01440072 $=
201410262153 METAR KBFI 262153Z 31004KT 10SM FEW034 OVC065 13/09 A2999 RMK AO2 RAB16E42 SLP156 P0001 T01330094 $=
201410262053 METAR KBFI 262053Z VRB06KT 10SM BKN023 OVC035 14/08 A2998 RMK AO2 RAE32 SLP152 P0000 60005 T01390083 53006 $=
201410262037 SPECI KBFI 262037Z 21007G15KT 180V250 10SM BKN023 BKN040 14/08 A2997 RMK AO2 RAE32 P0000 $=
201410261953 METAR KBFI 261953Z 20014G19KT 10SM -RA FEW024 BKN038 13/08 A2997 RMK AO2 SLP147 P0000 T01330078 $=
201410261853 METAR KBFI 261853Z 16011G20KT 10SM -RA SCT040 BKN070 12/08 A2996 RMK AO2 SLP144 P0005 T01170078 $=
201410261753 METAR KBFI 261753Z 17017G25KT 10SM -RA SCT020 BKN090 12/07 A2996 RMK AO2 RAB53 SLP146 P0000 6//// T01220067 51017 $=
201410261653 METAR KBFI 261653Z 17012G19KT 10SM 12/06 A2995 RMK AO2 SLP142 T01170061 $=
201410261553 METAR KBFI 261553Z SCT017 BKN090 A2994 RMK AO2 SLP140 $=
201410261453 METAR KBFI 261453Z 18011G21KT 10SM SCT070 BKN110 11/06 A2991 RMK AO2 SLP129 T01110061 53017=
201410261353 METAR KBFI 261353Z 18012G18KT 10SM SCT100 11/06 A2989 RMK AO2 SLP122 T01110061=
201410261253 METAR KBFI 261253Z 17012KT 10SM SCT110 11/07 A2988 RMK AO2 SLP119 T01110067=
201410261153 METAR KBFI 261153Z 18011KT 10SM SCT100 12/07 A2986 RMK AO2 SLP112 70037 T01170067 10139 20117 51020=
201410261053 METAR KBFI 261053Z 19012G18KT 10SM SCT100 12/06 A2986 RMK AO2 SLP110 T01220056=
201410260953 METAR KBFI 260953Z 20010G20KT 10SM SCT110 13/06 A2983 RMK AO2 SLP101 T01280061=
201410260853 METAR KBFI 260853Z 19014G24KT 10SM SCT100 13/07 A2980 RMK AO2 SLP092 T01280067 51044=
201410260753 METAR KBFI 260753Z 20017G26KT 10SM CLR 13/07 A2976 RMK AO2 PK WND 18026/0745 SLP078 T01280072 401780100=
201410260653 METAR KBFI 260653Z 20014G24KT 10SM CLR 13/07 A2974 RMK AO2 PK WND 19028/0555 SLP070 T01280067=
201410260553 METAR KBFI 260553Z 20011G19KT 10SM FEW012 OVC110 13/07 A2968 RMK AO2 PK WND 19034/0454 PRESRR SLP049 60020 T01330072 10178 20128 51095=
201410260453 METAR KBFI 260453Z 19017G35KT 10SM FEW012 SCT021 OVC120 13/08 A2959 RMK AO2 PK WND 20040/0434 PRESRR SLP019 T01330078=
201410260353 METAR KBFI 260353Z 19021G32KT 10SM SCT019 BKN023 OVC100 13/08 A2951 RMK AO2 PK WND 20039/0341 RAB09E44 SLP992 P0001 T01330083=
201410260253 METAR KBFI 260253Z 18017G36KT 10SM SCT019 BKN023 OVC100 14/11 A2939 RMK AO2 PK WND 19036/0251 RAE52 PRESRR SLP953 P0004 60019 T01440106 53042=
201410260153 METAR KBFI 260153Z 17012G20KT 6SM -RA FEW040 BKN049 OVC075 16/11 A2931 RMK AO2 SLP925 P0015 T01560111=
201410260053 METAR KBFI 260053Z 16017G24KT 10SM -RA OVC060 17/10 A2926 RMK AO2 PK WND 15029/0013 RAB35 SLP909 P0000 T01720100=
201410252353 METAR KBFI 252353Z 15018G24KT 10SM BKN060 OVC075 18/09 A2927 RMK AO2 RAE16 SLP911 P0001 60013 T01780094 10178 20139 56023=
201410252253 METAR KBFI 252253Z 11003KT 7SM -RA OVC060 15/11 A2929 RMK AO2 SLP919 P0007 T01500111=
201410252153 METAR KBFI 252153Z 00000KT 8SM -RA OVC070 14/12 A2930 RMK AO2 SLP921 P0003 T01390117=
201410252053 METAR KBFI 252053Z 00000KT 10SM -RA BKN075 14/11 A2934 RMK AO2 RAE16B53 SLP934 P0001 60002 T01390106 56036=
201410251953 METAR KBFI 251953Z 00000KT 10SM -RA SCT060 OVC085 14/11 A2936 RMK AO2 RAE05B49 SLP942 P0000 T01390106=
201410251853 METAR KBFI 251853Z VRB04KT 10SM -RA FEW060 BKN080 OVC100 14/11 A2940 RMK AO2 RAB40 SLP956 P0001 T01440106=
201410251753 METAR KBFI 251753Z 29004KT 10SM BKN120 14/10 A2944 RMK AO2 SLP970 60004 T01390100 10144 20100 58041=
201410251653 METAR KBFI 251653Z 27004KT 10SM SCT030 BKN090 13/09 A2950 RMK AO2 RAE35 SLP990 P0000 T01280094=
201410251553 METAR KBFI 251553Z 11007KT 10SM -RA FEW060 OVC075 12/09 A2955 RMK AO2 RAB03 PRESFR SLP005 P0004 T01170094=
201410251453 METAR KBFI 251453Z 20005G15KT 10SM OVC080 12/08 A2956 RMK AO2 SLP011 T01170083 53013=
201410251353 METAR KBFI 251353Z 00000KT 10SM BKN120 11/09 A2947 RMK AO2 SLP980 T01110089=
201410251253 METAR KBFI 251253Z 00000KT 10SM CLR 11/08 A2948 RMK AO2 SLP982 T01110083=
201410251153 METAR KBFI 251153Z 00000KT 10SM CLR 11/09 A2952 RMK AO2 SLP997 60001 70018 T01110089 10122 20111 58047=
201410251053 METAR KBFI 251053Z 00000KT 10SM FEW095 12/09 A2958 RMK AO2 SLP017 T01170089=
201410250953 METAR KBFI 250953Z 33004KT 10SM SCT095 12/09 A2962 RMK AO2 SLP031 T01170089=
201410250853 METAR KBFI 250853Z 30006KT 10SM OVC100 12/09 A2966 RMK AO2 SLP044 60001 T01220094 56044=
201410250753 METAR KBFI 250753Z 33004KT 10SM BKN090 OVC110 12/09 A2969 RMK AO2 SLP055 T01220089 401560100=
201410250653 METAR KBFI 250653Z 00000KT 10SM OVC065 12/09 A2974 RMK AO2 RAE32 SLP071 P0001 T01220089=
201410250553 METAR KBFI 250553Z 00000KT 10SM -RA FEW055 BKN070 OVC085 12/09 A2979 RMK AO2 SLP088 P0005 60017 T01220094 10150 20122 58021=
201410250453 METAR KBFI 250453Z VRB03KT 8SM -RA BKN060 OVC075 12/09 A2983 RMK AO2 SLP100 P0007 T01220089=
201410250353 METAR KBFI 250353Z 00000KT 10SM -RA OVC070 13/10 A2985 RMK AO2 SLP107 P0005 T01330100=
201410250253 METAR KBFI 250253Z 36003KT 10SM -RA BKN065 OVC080 14/09 A2986 RMK AO2 RAB37 SLP110 P0000 60000 T01390089 56012=
201410250153 METAR KBFI 250153Z 00000KT 10SM OVC100 14/08 A2987 RMK AO2 SLP115 T01390083=
201410250053 METAR KBFI 250053Z COR VRB03KT 10SM SCT080 OVC10 14/08 A2987 RMK AO2 SLP114 T01440083=
201410242353 METAR KBFI 242353Z 35003KT 10SM FEW100 OVC150 15/08 A2989 RMK AO2 SLP121 T01500083 10156 20128 58028=
201410242253 METAR KBFI 242253Z 30005KT 10SM OVC120 14/09 A2993 RMK AO2 SLP136 T01440089=
201410242153 METAR KBFI 242153Z 00000KT 10SM FEW100 OVC180 16/08 A2994 RMK AO2 SLP139 T01560083=
201410242053 METAR KBFI 242053Z 30003KT 10SM FEW030 OVC200 14/09 A2997 RMK AO2 SLP149 T01440089 58023=
201410241953 METAR KBFI 241953Z 01003KT 10SM OVC210 16/08 A2999 RMK AO2 SLP155 T01560078=
201410241853 METAR KBFI 241853Z 00000KT 10SM BKN240 14/08 A3002 RMK AO2 SLP166 T01440083=
201410241753 METAR KBFI 241753Z 00000KT 10SM OVC240 13/08 A3004 RMK AO2 SLP172 T01280083 10133 20100 58003=
201410241653 METAR KBFI 241653Z 00000KT 10SM SCT130 BKN240 12/07 A3005 RMK AO2 SLP175 T01170072=
201410241553 METAR KBFI 241553Z 00000KT 10SM SCT120 BKN240 11/08 A3005 RMK AO2 SLP174 T01060078=
201410241453 METAR KBFI 241453Z COR 00000KT 10SM SCT035 11/07 A3005 RMK AO2 SLP175 T01060067 53003=
201410241353 METAR KBFI 241353Z COR 00000KT 10SM BKN240 11/08 A3003 RMK AO2 SLP169 T01060078=
201410241253 METAR KBFI 241253Z 00000KT 10SM SCT050 11/07 A3003 RMK AO2 SLP168 T01110072=
201410241153 METAR KBFI 241153Z 14005KT 10SM SCT043 OVC050 11/07 A3004 RMK AO2 SLP171 60002 70035 T01110072 10111 20100 50002=
201410241053 METAR KBFI 241053Z 13004KT 10SM OVC040 11/08 A3004 RMK AO2 RAE0957 SLP173 P0000 T01110078=
201410240953 METAR KBFI 240953Z 14004KT 10SM -RA OVC048 11/08 A3003 RMK AO2 SLP170 P0000 T01060083=
201410240853 METAR KBFI 240853Z 15007KT 10SM -RA OVC070 11/08 A3003 RMK AO2 SLP169 P0002 60002 T01060078 51013=
201410240753 METAR KBFI 240753Z 13006KT 10SM -RA FEW043 BKN060 OVC070 11/07 A3003 RMK AO2 RAB28 SLP167 P0000 T01110072 401670100=
201410240653 METAR KBFI 240653Z 15004KT 10SM OVC070 11/07 A3001 RMK AO2 SLP160 T01060072=
201410240553 METAR KBFI 240553Z 14004KT 10SM SCT100 11/07 A2999 RMK AO2 SLP156 60000 T01110072 10122 20100 51016=
201410240453 METAR KBFI 240453Z 00000KT 10SM BKN100 10/07 A2998 RMK AO2 SLP151 T01000072=
201410240353 METAR KBFI 240353Z 14005KT 10SM FEW090 11/07 A2996 RMK AO2 SLP145 T01060072=
201410240253 METAR KBFI 240253Z VRB04KT 10SM CLR 12/07 A2995 RMK AO2 SLP140 60000 T01170072 53015=
201410240153 METAR KBFI 240153Z COR 14005KT 10SM FEW040 12/07 A2993 RMK AO2 SLP134 T01220067=
201410240053 METAR KBFI 240053Z 17007KT 10SM FEW020 BKN047 BKN100 12/07 A2991 RMK AO2 RAE07 SLP126 P0000 T01170072=
201410232353 METAR KBFI 232353Z 17007KT 10SM -RA SCT044 BKN060 OVC110 11/07 A2990 RMK AO2 RAB09 SLP125 P0021 60022 T01110067 10167 20111 53026=
201410232253 METAR KBFI 232253Z 26005KT 10SM SCT037 BKN047 BKN070 14/07 A2988 RMK AO2 RAB24E34 SLP117 P0000 T01390067=
201410232153 METAR KBFI 232153Z 20009G15KT 10SM FEW020 SCT030 BKN075 16/09 A2984 RMK AO2 RAB27E39 SLP103 P0001 T01560089=
201410232053 METAR KBFI 232053Z 18011G17KT 10SM FEW015 SCT030 BKN060 BKN180 16/08 A2982 RMK AO2 SLP099 60000 T01560083 51013=
201410231953 METAR KBFI 231953Z 18010G19KT 10SM SCT035 16/09 A2981 RMK AO2 SLP096 T01560094=
201410231853 METAR KBFI 231853Z 17012G19KT 10SM FEW015 SCT035 BKN090 13/08 A2981 RMK AO2 PK WND 12028/1835 RAE08 SLP093 P0000 T01280083=
201410231753 METAR KBFI 231753Z 15009KT 10SM -RA FEW034 BKN045 BKN060 13/09 A2979 RMK AO2 SLP086 P0002 60011 T01280089 10133 20117 51016=
201410231653 METAR KBFI 231653Z 12005KT 10SM -RA FEW033 BKN050 OVC055 12/09 A2977 RMK AO2 SLP082 P0003 T01220089=
201410231553 METAR KBFI 231553Z 17007KT 10SM -RA BKN060 OVC075 12/09 A2976 RMK AO2 SLP077 P0002 T01170089=
201410231453 METAR KBFI 231453Z 15011G18KT 10SM -RA BKN070 OVC085 12/09 A2974 RMK AO2 SLP070 P0001 60004 T01220089 50010=
201410231353 METAR KBFI 231353Z 14013KT 10SM -RA OVC060 12/09 A2974 RMK AO2 SLP072 P0003 T01220089=
201410231253 METAR KBFI 231253Z 17013KT 10SM -RA SCT050 BKN070 OVC085 13/09 A2973 RMK AO2 RAB49 SLP067 P0000 T01330089=
201410231153 METAR KBFI 231153Z 13005KT 10SM SCT050 BKN060 BKN095 12/09 A2971 RMK AO2 RAB35E47 SLP060 P0000 60013 70135 T01220094 10156 20117 56012=
201410231053 METAR KBFI 231053Z 14004KT 10SM CLR 12/09 A2972 RMK AO2 SLP062 T01170094=
201410230953 METAR KBFI 230953Z 16005KT 10SM BKN040 13/09 A2973 RMK AO2 SLP068 T01280094=
201410230853 METAR KBFI 230853Z 16004KT 10SM FEW033 SCT050 BKN070 13/09 A2974 RMK AO2 SLP071 60013 T01280094 51019=
201410230753 METAR KBFI 230753Z 17009KT 10SM FEW025 BKN060 BKN095 13/09 A2973 RMK AO2 RAE29 SLP067 P0002 T01330094 401560128=
201410230737 SPECI KBFI 230737Z 17011KT 10SM SCT025 BKN060 BKN090 13/09 A2973 RMK AO2 RAE29 P0002=
201410230653 METAR KBFI 230653Z 16009KT 6SM -RA SCT020 BKN025 OVC050 14/10 A2971 RMK AO2 RAB09 SLP061 P0011 T01390100=
201410230553 METAR KBFI 230553Z 18006KT 10SM SCT025 BKN070 16/11 A2968 RMK AO2 PRESRR SLP052 60026 T01560106 10156 20139 53040=
201410230453 METAR KBFI 230453Z 17007KT 10SM SCT030 BKN040 BKN060 16/11 A2963 RMK AO2 RAE50 SLP035 P0001 T01560111=
201410230353 METAR KBFI 230353Z 18008G19KT 3SM RA SCT030 BKN044 OVC060 14/10 A2961 RMK AO2 SLP028 P0016 T01390100=
201410230253 METAR KBFI 230253Z COR 15006KT 9SM -RA SCT022 SCT047 OVC055 14/11 A2957 RMK AO2 SLP012 P0003 60009 T01440111 55016=
201410230153 METAR KBFI 230153Z 14012KT 10SM -RA BKN023 OVC075 14/11 A2956 RMK AO2 SLP011 P0002 T01440111=
201410230053 METAR KBFI 230053Z 14008KT 10SM -RA BKN023 BKN075 OVC090 14/11 A2959 RMK AO2 SLP020 P0004 T01440111=
201410222353 METAR KBFI 222353Z 13008KT 9SM -RA BKN023 BKN075 OVC090 14/12 A2961 RMK AO2 SLP028 P0011 60047 T01440117 10150 20144 56023=
201410222255 SPECI KBFI 222255Z 12005KT 5SM -RA BKN023 BKN075 OVC090 15/12 A2964 RMK AO2 P0000=
201410222253 METAR KBFI 222253Z COR 12004KT 6SM -RA BKN023 BKN075 OVC090 15/12 A2964 RMK AO2 SLP037 P0008 T01500117=
201410222206 SPECI KBFI 222206Z 13005KT 9SM -RA FEW009 BKN077 OVC090 15/12 A2964 RMK AO2 P0001=
201410222200 SPECI KBFI 222200Z 13007KT 9SM -RA BKN075 OVC090 15/12 A2964 RMK AO2 P0001=
201410222153 METAR KBFI 222153Z 13006KT 9SM -RA SCT011 BKN020 OVC060 15/12 A2964 RMK AO2 SLP037 P0005 T01500122=
201410222053 METAR KBFI 222053Z 14004KT 7SM -RA SCT011 BKN020 OVC060 15/13 A2968 RMK AO2 SLP051 P0005 60023 T01500128 58015=
201410222002 SPECI KBFI 222002Z 16003KT 3SM RA BR BKN008 OVC017 15/13 A2970 RMK AO2 P0002=
201410221955 SPECI KBFI 221955Z 14006KT 2 1/2SM RA BR FEW008 BKN015 OVC025 15/13 A2970 RMK AO2 P0001=
201410221953 METAR KBFI 221953Z 14006KT 3SM RA BR BKN008 OVC017 15/13 A2971 RMK AO2 SLP059 P0011 T01500128=
201410221901 SPECI KBFI 221901Z 14006KT 3SM RA BR BKN008 OVC017 15/13 A2972 RMK AO2 P0003=
201410221853 METAR KBFI 221853Z 16004KT 6SM RA BR SCT008 OVC012 15/13 A2973 RMK AO2 SLP067 P0007 T01500128=
201410221753 METAR KBFI 221753Z 15005KT 3SM RA BR FEW008 BKN025 OVC030 15/12 A2973 RMK AO2 SLP066 P0013 60049 T01500122 10150 20144 50003=
201410221724 SPECI KBFI 221724Z 20004KT 3SM RA BR FEW012 BKN025 OVC035 15/12 A2973 RMK AO2 P0007=
201410221717 SPECI KBFI 221717Z 18003KT 3SM RA FEW012 SCT020 OVC037 15/12 A2972 RMK AO2 P0005=
201410221708 SPECI KBFI 221708Z 17006KT 2SM RA BR FEW015 BKN028 OVC037 15/12 A2972 RMK AO2 P0004=
201410221701 SPECI KBFI 221701Z 16007KT 3SM RA FEW015 BKN028 OVC037 15/12 A2972 RMK AO2 P0002=
201410221659 SPECI KBFI 221659Z 16006KT 2 1/2SM -RA FEW023 SCT028 OVC037 15/12 A2972 RMK AO2 P0002=
201410221653 METAR KBFI 221653Z 16006KT 3SM RA FEW023 BKN028 OVC043 15/12 A2972 RMK AO2 SLP064 P0003 T01500122=
201410221650 SPECI KBFI 221650Z 18006KT 4SM -RA SCT023 BKN028 OVC039 15/12 A2972 RMK AO2 P0002=
201410221600 SPECI KBFI 221600Z 16006KT 10SM -RA FEW060 BKN080 OVC090 15/12 A2970 RMK AO2 P0000=
201410221553 METAR KBFI 221553Z 15008KT 7SM -RA SCT019 BKN026 OVC038 15/12 A2971 RMK AO2 RAB16 SLP059 P0002 T01500122=
201410221510 SPECI KBFI 221510Z 00000KT 10SM BKN026 OVC038 15/12 A2970 RMK AO2=
201410221453 METAR KBFI 221453Z 18006KT 10SM FEW030 BKN039 BKN047 15/12 A2969 RMK AO2 RAE50 SLP053 P0001 60031 T01500117 50012=
201410221400 SPECI KBFI 221400Z 17006KT 9SM RA SCT029 BKN038 OVC047 14/12 A2969 RMK AO2 P0000=
201410221353 METAR KBFI 221353Z 17008KT 6SM RA BKN029 OVC038 15/12 A2969 RMK AO2 SLP054 P0015 T01500117=
201410221325 SPECI KBFI 221325Z 17009G16KT 5SM RA OVC035 14/11 A2967 RMK AO2 P0012=
201410221316 SPECI KBFI 221316Z 15009KT 2 1/2SM RA BKN038 BKN047 OVC065 14/12 A2967 RMK AO2 P0011=
201410221253 METAR KBFI 221253Z COR 15009KT 5SM RA FEW036 BKN055 OVC070 14/12 A2967 RMK AO2 SLP047 P0015 T01440117=
201410221153 METAR KBFI 221153Z 15009KT 10SM -RA BKN048 OVC060 14/11 A2966 RMK AO2 SLP042 P0005 60012 70015 T01440106 10161 20139 55009=
201410221053 METAR KBFI 221053Z 14009KT 9SM -RA OVC085 14/10 A2965 RMK AO2 SLP041 P0004 T01440100=
201410220953 METAR KBFI 220953Z 15007KT 10SM -RA BKN055 OVC075 14/09 A2967 RMK AO2 RAE0858B30 SLP048 P0002 T01440094=
201410220853 METAR KBFI 220853Z 13007KT 10SM -RA OVC050 15/09 A2968 RMK AO2 RAB18 SLP051 P0001 60001 T01500089 57027=
201410220753 METAR KBFI 220753Z AUTO 15008KT 10SM SCT070 BKN080 OVC100 14/09 A2971 RMK AO2 RAB03E18B39E49 SLP060 P0000 T01440089 401780128 TSNO=
201410220653 METAR KBFI 220653Z 13009KT 10SM SCT080 OVC100 15/08 A2974 RMK AO2 RAB34E49 SLP069 P0000 T01500078=
201410220553 METAR KBFI 220553Z 12008KT 10SM OVC070 16/08 A2976 RMK AO2 RAE01 SLP078 P0000 60000 T01610078 10172 20156 56022=
201410220453 METAR KBFI 220453Z 14009KT 10SM -RA OVC085 16/09 A2978 RMK AO2 RAB49 SLP085 P0000 T01560089=
201410220353 METAR KBFI 220353Z 14008KT 10SM BKN075 16/08 A2980 RMK AO2 SLP091 T01610083=
201410220253 METAR KBFI 220253Z 14010KT 10SM BKN070 OVC100 16/08 A2983 RMK AO2 SLP099 T01610083 58017=
201410220153 METAR KBFI 220153Z 15012KT 10SM OVC065 17/08 A2985 RMK AO2 SLP109 T01670083=
201410220053 METAR KBFI 220053Z 15012KT 10SM OVC060 17/09 A2986 RMK AO2 SLP112 T01670089=
201410212353 METAR KBFI 212353Z COR 15007KT 10SM BKN045 OVC060 16/10 A2988 RMK AO2 RAE49 SLP117 P0000 60000 T01610100 10178 20156 58014=
201410212253 METAR KBFI 212253Z 15011KT 10SM -RA BKN044 OVC050 16/10 A2989 RMK AO2 SLP122 P0000 T01560100=
201410212153 METAR KBFI 212153Z 13013KT 10SM -RA SCT030 OVC048 16/10 A2991 RMK AO2 RAB39 SLP126 P0000 T01560100=
201410212053 METAR KBFI 212053Z 16010KT 10SM BKN055 OVC070 16/11 A2992 RMK AO2 RAB00E38 SLP130 P0000 60000 T01610106 58000=
201410211953 METAR KBFI 211953Z 21007KT 170V250 10SM BKN065 OVC080 17/09 A2993 RMK AO2 SLP133 T01670094=
201410211853 METAR KBFI 211853Z 17008G15KT 10SM FEW015 SCT040 BKN200 17/10 A2992 RMK AO2 RAB09E20 SLP131 P0000 T01720100=
201410211753 METAR KBFI 211753Z 18009KT 10SM SCT030 BKN050 BKN200 17/09 A2992 RMK AO2 SLP131 60003 T01670094 10172 20128 51016=
201410211653 METAR KBFI 211653Z 17012KT 10SM CLR 16/10 A2991 RMK AO2 SLP128 T01560100=
201410211553 METAR KBFI 211553Z 17008KT 10SM BKN080 BKN095 14/11 A2989 RMK AO2 SLP122 T01440106=
201410211453 METAR KBFI 211453Z 17011KT 10SM SCT025 BKN060 14/10 A2987 RMK AO2 RAE16 SLP115 P0000 60003 T01390100 51012=
201410211353 METAR KBFI 211353Z 15007G18KT 6SM -RA SCT031 SCT038 OVC060 13/10 A2986 RMK AO2 RAB36 SLP112 P0003 T01330100=
201410211253 METAR KBFI 211253Z 14007KT 10SM FEW048 BKN060 13/10 A2985 RMK AO2 SLP106 T01280100=
201410211153 METAR KBFI 211153Z 15005KT 10SM FEW048 BKN060 OVC070 13/11 A2984 RMK AO2 RAE46 SLP103 P0002 60007 70030 T01330106 10144 20128 53004=
201410211053 METAR KBFI 211053Z 00000KT 10SM -RA FEW041 BKN060 OVC070 14/11 A2983 RMK AO2 RAB0958 SLP101 P0003 T01390106=
201410210953 METAR KBFI 210953Z 00000KT 10SM BKN060 OVC070 13/11 A2982 RMK AO2 RAE17B40E49 SLP098 P0002 T01330111=
201410210853 METAR KBFI 210853Z 14005KT 9SM -RA SCT045 OVC060 14/11 A2982 RMK AO2 RAB52 SLP098 P0000 60000 T01390106 53008=
201410210753 METAR KBFI 210753Z 13006KT 10SM OVC065 14/11 A2981 RMK AO2 SLP094 T01390111 401890128=
201410210653 METAR KBFI 210653Z 14005KT 10SM BKN070 13/11 A2980 RMK AO2 SLP091 T01330111=
201410210553 METAR KBFI 210553Z 14005KT 10SM SCT060 13/11 A2980 RMK AO2 RAE49 SLP090 P0001 60018 T01330111 10178 20133 51011=
201410210453 METAR KBFI 210453Z VRB03KT 5SM -RA FEW030 BKN043 OVC050 14/12 A2979 RMK AO2 SLP089 P0017 T01440117=
201410210353 METAR KBFI 210353Z 16004KT 10SM -RA SCT030 OVC047 14/11 A2977 RMK AO2 RAB49 SLP081 P0000 T01440106=
201410210253 METAR KBFI 210253Z 15004KT 10SM BKN046 16/10 A2977 RMK AO2 SLP079 T01560100 53004=
201410210153 METAR KBFI 210153Z 15006KT 10SM FEW040 SCT070 16/11 A2976 RMK AO2 SLP076 OCNL LTGIC DSNT NW T01610111=
201410210053 METAR KBFI 210053Z 14007KT 10SM SCT063 SCT170 16/12 A2975 RMK AO2 SLP073 T01610117=
201410202353 METAR KBFI 202353Z 16008KT 10SM SCT030 SCT100 18/12 A2975 RMK AO2 RAB12E21 SLP075 P0000 60000 T01780117 10189 20167 56002=
201410202253 METAR KBFI 202253Z 17010KT 10SM BKN060 BKN075 OVC100 18/12 A2976 RMK AO2 SLP076 T01780117=
201410202153 METAR KBFI 202153Z 16008KT 10SM FEW015 SCT060 BKN100 18/13 A2975 RMK AO2 SLP075 VIRGA SE T01780128=
201410202053 METAR KBFI 202053Z 16006KT 10SM BKN075 BKN095 17/13 A2976 RMK AO2 SLP077 T01720128 55001=
201410201953 METAR KBFI 201953Z 16007KT 10SM FEW015 BKN070 18/12 A2974 RMK AO2 PRESFR SLP071 T01780117=
201410201853 METAR KBFI 201853Z 00000KT 10SM FEW050 BKN090 17/13 A2976 RMK AO2 SLP076 T01720128=
201410201753 METAR KBFI 201753Z 17005KT 10SM SCT013 SCT055 BKN150 17/13 A2976 RMK AO2 SLP079 60005 T01720128 10172 20156 51015=
201410201653 METAR KBFI 201653Z 17006KT 10SM FEW030 BKN070 17/13 A2975 RMK AO2 SLP074 T01670133=
201410201553 METAR KBFI 201553Z 17004KT 10SM FEW015 SCT060 BKN110 16/13 A2974 RMK AO2 RAE28 SLP069 P0002 T01560133=
201410201453 METAR KBFI 201453Z 18007KT 10SM -RA FEW060 SCT070 OVC085 16/13 A2972 RMK AO2 RAB04 SLP064 P0002 60003 T01560128 53010=
201410201353 METAR KBFI 201353Z 00000KT 10SM OVC033 16/13 A2970 RMK AO2 RAB1257E47 SLP057 P0001 T01610133=
201410201253 METAR KBFI 201253Z 16005KT 10SM OVC039 16/14 A2970 RMK AO2 SLP056 T01560139=
201410201153 METAR KBFI 201153Z 14006KT 10SM FEW043 BKN100 OVC120 16/13 A2969 RMK AO2 RAE53 SLP053 P0004 60021 70021 T01560133 10172 20156 58008=
201410201053 METAR KBFI 201053Z 14006KT 10SM -RA FEW045 OVC090 16/13 A2970 RMK AO2 SLP057 P0008 T01610133=
201410200953 METAR KBFI 200953Z 14008KT 7SM -RA OVC080 16/14 A2971 RMK AO2 SLP061 P0008 T01610139=
201410200853 METAR KBFI 200853Z 14004KT 10SM -RA FEW060 OVC085 17/13 A2971 RMK AO2 RAB28 SLP061 P0001 60001 T01670133 53006=
201410200753 METAR KBFI 200753Z 00000KT 10SM BKN060 OVC085 17/13 A2970 RMK AO2 SLP057 T01720128 402330133=
201410200653 METAR KBFI 200653Z 00000KT 10SM BKN065 BKN110 17/13 A2970 RMK AO2 SLP055 T01720128=
201410200553 METAR KBFI 200553Z 00000KT 10SM FEW110 17/13 A2970 RMK AO2 SLP056 T01720128 10228 20172 51005=
201410200453 METAR KBFI 200453Z 00000KT 10SM FEW080 SCT120 18/13 A2969 RMK AO2 SLP054 T01780128=
201410200353 METAR KBFI 200353Z 00000KT 10SM CLR 18/13 A2970 RMK AO2 SLP056 T01780128=
201410200253 METAR KBFI 200253Z VRB06KT 10SM FEW040 SCT110 19/13 A2968 RMK AO2 SLP051 T01940128 53001=
201410200153 METAR KBFI 200153Z VRB05KT 10SM SCT110 21/12 A2967 RMK AO2 SLP047 T02110117=
201410200053 METAR KBFI 200053Z 16008KT 10SM SCT070 22/12 A2967 RMK AO2 SLP047 T02170122=
201410192353 METAR KBFI 192353Z 18007KT 10SM SCT110 23/13 A2968 RMK AO2 SLP050 T02280128 10233 20194 56012=
201410192253 METAR KBFI 192253Z 19008G14KT 10SM FEW070 23/13 A2969 RMK AO2 SLP053 T02330128=
201410192153 METAR KBFI 192153Z 19007G16KT 10SM SCT065 SCT200 23/13 A2970 RMK AO2 SLP056 T02330133=
201410192053 METAR KBFI 192053Z 19009G15KT 10SM FEW040 SCT065 23/13 A2971 RMK AO2 SLP061 T02280133 58011=
201410191953 METAR KBFI 191953Z 19007KT 10SM FEW040 SCT070 SCT200 22/13 A2973 RMK AO2 SLP068 T02170133=
201410191853 METAR KBFI 191853Z 15009KT 10SM CLR 21/14 A2975 RMK AO2 SLP074 T02060139=
201410191753 METAR KBFI 191753Z VRB04KT 10SM FEW090 SCT200 19/13 A2974 RMK AO2 SLP072 T01940133 10194 20133 53005=
201410191653 METAR KBFI 191653Z 12004KT 10SM FEW080 BKN100 17/12 A2974 RMK AO2 SLP072 T01720122=
201410191553 METAR KBFI 191553Z 13006KT 10SM SCT075 BKN100 15/12 A2973 RMK AO2 SLP065 T01500122=
201410191453 METAR KBFI 191453Z 14006KT 10SM SCT075 BKN100 14/12 A2973 RMK AO2 SLP067 T01440122 56006=
201410191353 METAR KBFI 191353Z 14006KT 10SM BKN100 14/12 A2973 RMK AO2 SLP068 T01390117=
201410191253 METAR KBFI 191253Z 00000KT 10SM BKN085 14/13 A2974 RMK AO2 SLP071 T01440128=
201410191153 METAR KBFI 191153Z 00000KT 10SM BKN090 14/12 A2975 RMK AO2 SLP073 70009 T01390122 10161 20133 56018=
201410191053 METAR KBFI 191053Z 00000KT 10SM OVC085 14/12 A2976 RMK AO2 SLP078 T01440122=
201410190953 METAR KBFI 190953Z 00000KT 10SM SCT080 14/12 A2978 RMK AO2 SLP082 T01440122=
201410190918 SPECI KBFI 190918Z 00000KT 10SM FEW001 BKN080 13/12 A2979 RMK AO2=
201410190911 SPECI KBFI 190911Z 15003KT 1 3/4SM BR BKN080 14/12 A2979 RMK AO2=
201410190853 METAR KBFI 190853Z 00000KT 6SM BR FEW080 15/13 A2980 RMK AO2 SLP091 T01500128 56007=
201410190753 METAR KBFI 190753Z 00000KT 8SM CLR 15/13 A2980 RMK AO2 SLP091 T01500133 402000150=
201410190653 METAR KBFI 190653Z 00000KT 10SM CLR 16/14 A2980 RMK AO2 SLP090 T01560139=
201410190553 METAR KBFI 190553Z 00000KT 10SM BKN170 16/14 A2982 RMK AO2 SLP098 T01610139 10200 20156 58022=
201410190453 METAR KBFI 190453Z 00000KT 10SM SCT070 16/14 A2985 RMK AO2 SLP106 T01610139=
201410190353 METAR KBFI 190353Z 00000KT 10SM CLR 17/14 A2987 RMK AO2 SLP113 T01670144=
201410190253 METAR KBFI 190253Z 00000KT 10SM OVC075 18/15 A2988 RMK AO2 SLP119 T01830150 56013=
201410190153 METAR KBFI 190153Z 00000KT 10SM FEW075 18/14 A2989 RMK AO2 SLP122 T01830144=
201410190053 METAR KBFI 190053Z 10003KT 10SM FEW026 SCT075 19/15 A2990 RMK AO2 SLP126 T01940150=
201410190024 SPECI KBFI 190024Z 09007KT 10SM SCT019 SCT029 BKN070 20/15 A2991 RMK AO2=
201410182353 METAR KBFI 182353Z 00000KT 10SM SCT019 BKN029 BKN070 20/14 A2992 RMK AO2 SLP132 60002 T02000144 10200 20161 56011=
201410182333 SPECI KBFI 182333Z 00000KT 10SM SCT019 BKN029 BKN070 20/14 A2992 RMK AO2=
201410182253 METAR KBFI 182253Z 09004KT 10SM SCT019 BKN030 OVC050 19/15 A2993 RMK AO2 SLP133 T01940150=
201410182153 METAR KBFI 182153Z 11003KT 10SM SCT019 BKN039 OVC070 19/15 A2995 RMK AO2 SLP140 T01890150=
201410182053 METAR KBFI 182053Z 14005KT 10SM SCT014 BKN050 OVC070 18/14 A2996 RMK AO2 SLP143 60002 T01830144 58001=
201410182016 SPECI KBFI 182016Z 14007KT 10SM BKN012 OVC048 18/14 A2996 RMK AO2=
201410181953 METAR KBFI 181953Z 14005KT 10SM FEW012 SCT031 OVC050 18/14 A2996 RMK AO2 RAB11E21 SLP145 P0001 T01780144=
201410181853 METAR KBFI 181853Z 17007KT 10SM BKN022 OVC029 17/14 A2996 RMK AO2 RAB22E50 SLP144 P0001 T01670139=
201410181849 SPECI KBFI 181849Z 16007KT 6SM -RA BKN022 BKN029 OVC035 17/14 A2996 RMK AO2 RAB22 P0001=
201410181836 SPECI KBFI 181836Z 16008KT 2 1/2SM -RA BR SCT006 OVC024 17/14 A2996 RMK AO2 VIS 1 1/2V5 RAB22 P0001=
201410181753 METAR KBFI 181753Z 14009KT 6SM BR SCT006 OVC024 16/14 A2995 RMK AO2 RAE32 SLP142 P0001 60007 T01610139 10161 20150 51014=
201410181725 SPECI KBFI 181725Z 14008KT 3SM -RA BR BKN006 BKN013 OVC022 16/14 A2995 RMK AO2 P0001=
201410181653 METAR KBFI 181653Z 15006KT 3SM -RA BR FEW008 BKN024 OVC030 16/14 A2994 RMK AO2 RAB23 SLP138 P0001 T01610139=
201410181553 METAR KBFI 181553Z 14009KT 10SM SCT008 BKN012 BKN035 16/14 A2992 RMK AO2 SLP133 T01610139=
201410181539 SPECI KBFI 181539Z 15007KT 10SM BKN010 BKN035 OVC075 16/14 A2992 RMK AO2=
201410181521 SPECI KBFI 181521Z 15005KT 10SM BKN025 OVC035 16/14 A2991 RMK AO2=
201410181512 SPECI KBFI 181512Z 14005KT 10SM FEW012 SCT023 OVC035 16/14 A2991 RMK AO2=
201410181502 SPECI KBFI 181502Z 13007KT 10SM SCT012 BKN023 OVC035 16/13 A2991 RMK AO2=
201410181455 SPECI KBFI 181455Z 13006KT 10SM SCT012 SCT028 OVC035 16/13 A2991 RMK AO2=
201410181453 METAR KBFI 181453Z 13005KT 10SM BKN012 BKN023 OVC035 16/13 A2991 RMK AO2 SLP128 60005 T01560133 51008=
201410181445 SPECI KBFI 181445Z 13005KT 10SM BKN012 BKN023 OVC028 16/13 A2991 RMK AO2=
201410181429 SPECI KBFI 181429Z 14005KT 9SM SCT010 OVC024 16/13 A2991 RMK AO2=
201410181353 METAR KBFI 181353Z 14004KT 10SM BKN010 BKN026 OVC035 16/13 A2990 RMK AO2 RAE49 SLP125 P0002 T01560133=
201410181351 SPECI KBFI 181351Z 14004KT 10SM BKN010 BKN026 OVC035 16/13 A2990 RMK AO2 RAE49 P0002=
201410181253 METAR KBFI 181253Z 00000KT 4SM RA BR SCT008 BKN039 OVC046 16/14 A2990 RMK AO2 SLP124 P0003 T01560139=
201410181153 METAR KBFI 181153Z 00000KT 4SM RA BR SCT008 BKN039 OVC046 16/13 A2989 RMK AO2 SLP120 P0005 60023 70036 T01560133 10161 20150 51008=
201410181144 SPECI KBFI 181144Z 13003KT 9SM RA BKN006 BKN028 OVC046 16/13 A2989 RMK AO2 P0002=
201410181110 SPECI KBFI 181110Z 14004KT 8SM RA FEW006 BKN031 OVC045 16/13 A2988 RMK AO2 P0000=
201410181053 METAR KBFI 181053Z 12004KT 3SM RA BR BKN030 OVC046 15/13 A2989 RMK AO2 RAE0956B22 SLP119 P0009 T01500133=
201410180953 METAR KBFI 180953Z 10003KT 5SM -RA BR SCT027 OVC036 16/13 A2988 RMK AO2 RAB0856 SLP117 P0009 T01560133=
201410180939 SPECI KBFI 180939Z 00000KT 4SM -RA BR OVC027 16/13 A2988 RMK AO2 RAB0856 P0009=
201410180931 SPECI KBFI 180931Z 00000KT 2 1/2SM -RA BR BKN027 OVC040 16/13 A2988 RMK AO2 RAB0856 P0009=
201410180921 SPECI KBFI 180921Z 00000KT 4SM -RA BKN029 OVC038 16/13 A2988 RMK AO2 RAB0856 P0005=
201410180912 SPECI KBFI 180912Z 00000KT 2 1/2SM -RA BKN027 OVC036 16/13 A2987 RMK AO2 RAB0856 P0004=
201410180853 METAR KBFI 180853Z 11003KT 10SM OVC036 16/13 A2986 RMK AO2 SLP112 T01610128 53011=
201410180753 METAR KBFI 180753Z 14007KT 10SM SCT040 BKN060 OVC085 16/13 A2985 RMK AO2 SLP107 T01560128 401780139=
201410180653 METAR KBFI 180653Z 12007KT 10SM OVC055 16/13 A2983 RMK AO2 SLP102 T01560128=
201410180553 METAR KBFI 180553Z 00000KT 10SM BKN039 OVC055 16/13 A2983 RMK AO2 SLP101 60001 T01560128 10156 20150 51010=
201410180453 METAR KBFI 180453Z 15005KT 10SM OVC037 15/13 A2983 RMK AO2 SLP100 T01500128=
201410180353 METAR KBFI 180353Z 15005KT 10SM BKN034 OVC043 15/13 A2981 RMK AO2 RAE06 SLP094 P0000 T01500128=
201410180253 METAR KBFI 180253Z 15006KT 9SM -RA OVC042 15/12 A2980 RMK AO2 RAB00E11B50 SLP090 P0000 60001 T01500122 51013=
201410180153 METAR KBFI 180153Z 17007KT 150V210 10SM OVC040 16/12 A2979 RMK AO2 RAE13B32E42 SLP087 P0001 T01560122=
201410180053 METAR KBFI 180053Z 15003KT 6SM -RA OVC040 16/12 A2977 RMK AO2 RAB2354E08B29 SLP082 P0000 T01560122=
201410172353 METAR KBFI 172353Z 00000KT 10SM OVC046 16/13 A2976 RMK AO2 RAE39 SLP077 P0001 60008 T01560128 10178 20156 51012=
201410172253 METAR KBFI 172253Z 12005KT 8SM -RA OVC050 16/12 A2975 RMK AO2 SLP075 P0003 T01560117=
201410172153 METAR KBFI 172153Z 12003KT 9SM -RA OVC055 17/12 A2974 RMK AO2 SLP069 P0003 T01670117=
201410172053 METAR KBFI 172053Z 00000KT 10SM -RA OVC060 17/12 A2973 RMK AO2 RAB30 SLP066 P0000 60001 T01670122 58004=
201410171953 METAR KBFI 171953Z 00000KT 10SM BKN070 OVC080 17/11 A2973 RMK AO2 RAE19 SLP066 P0001 T01720106=
201410171853 METAR KBFI 171853Z 00000KT 10SM -RA BKN070 OVC090 17/10 A2974 RMK AO2 RAB22 SLP071 P0000 T01720100=
201410171753 METAR KBFI 171753Z 14004KT 10SM SCT060 OVC090 17/11 A2974 RMK AO2 RAB15E48 SLP070 P0001 60004 T01670106 10167 20139 58020=
201410171653 METAR KBFI 171653Z AUTO 00000KT 10SM OVC090 16/10 A2976 RMK AO2 SLP077 T01560100=
201410171553 METAR KBFI 171553Z 00000KT 10SM FEW060 OVC090 14/11 A2978 RMK AO2 RAB1458E13 SLP083 P0000 T01390106=
201410171453 METAR KBFI 171453Z 14003KT 10SM SCT060 OVC080 14/10 A2980 RMK AO2 RAE50 SLP089 P0001 60003 T01390100 50005=
201410171353 METAR KBFI 171353Z 14003KT 10SM -RA OVC075 14/09 A2980 RMK AO2 SLP090 P0002 T01390094=
201410171253 METAR KBFI 171253Z 09003KT 10SM -RA OVC090 14/09 A2979 RMK AO2 RAB29 SLP088 P0000 T01440094=
201410171153 METAR KBFI 171153Z 00000KT 10SM OVC085 15/09 A2978 RMK AO2 RAB12E45 SLP084 P0001 60001 70001 T01500089 10172 20144 56005=
201410171053 METAR KBFI 171053Z 00000KT 10SM FEW060 OVC085 15/07 A2979 RMK AO2 SLP086 T01500072=
201410170953 METAR KBFI 170953Z 00000KT 10SM SCT080 SCT095 BKN120 16/06 A2978 RMK AO2 SLP085 T01560061=
201410170853 METAR KBFI 170853Z 13003KT 10SM SCT200 17/05 A2980=
201410170853 METAR KBFI 170853Z 13003KT 10SM SCT200 17/05 A2980 RMK AO2 SLP089 T01670050 56009=
201410170753 METAR KBFI 170753Z 14005KT 10SM SCT200 16/06 A2980 RMK AO2 SLP092 T01610056 402170111=
201410170653 METAR KBFI 170653Z 14008KT 10SM SCT200 17/06 A2981 RMK AO2 SLP094 T01670056=
201410170553 METAR KBFI 170553Z 14007KT 10SM SCT150 16/06 A2982 RMK AO2 SLP098 T01560061 10206 20139 58020=
201410170453 METAR KBFI 170453Z 14004KT 10SM CLR 14/07 A2985 RMK AO2 SLP106 T01390072=
201410170353 METAR KBFI 170353Z 00000KT 10SM CLR 14/09 A2986 RMK AO2 SLP113 T01440089=
201410170253 METAR KBFI 170253Z 00000KT 10SM SCT250 15/08 A2988 RMK AO2 SLP118 T01500083 56007=
201410170153 METAR KBFI 170153Z 00000KT 10SM SCT250 18/07 A2989 RMK AO2 SLP120 T01780067=
201410170053 METAR KBFI 170053Z 00000KT 10SM FEW035 SCT090 SCT250 19/06 A2989 RMK AO2 SLP122 T01890061=
201410162353 METAR KBFI 162353Z VRB03KT 10SM FEW040 SCT090 21/07 A2990 RMK AO2 SLP125 T02060072 10217 20161 56018=
201410162253 METAR KBFI 162253Z 29005KT 10SM FEW090 SCT200 21/07 A2991 RMK AO2 SLP130 T02060067=
201410162153 METAR KBFI 162153Z 21004KT 10SM FEW035 SCT250 21/06 A2993 RMK AO2 SLP134 T02110056=
201410162053 METAR KBFI 162053Z 17004KT 10SM FEW035 SCT250 21/06 A2995 RMK AO2 SLP143 T02060061 58023=
201410161953 METAR KBFI 161953Z 16003KT 10SM FEW050 19/07 A2999 RMK AO2 SLP154 T01940067=
201410161853 METAR KBFI 161853Z 14006KT 10SM FEW050 SCT250 18/08 A3001 RMK AO2 SLP163 T01830078=
201410161753 METAR KBFI 161753Z AUTO 14004KT 10SM SCT085 16/09 A3002 RMK AO2 SLP166 T01610089 10161 20117 50003 TSNO=
201410161653 METAR KBFI 161653Z 15004KT 10SM FEW060 BKN070 OVC100 14/08 A3003 RMK AO2 SLP169 T01390083=
201410161553 METAR KBFI 161553Z 14003KT 10SM BKN075 OVC090 13/09 A3002 RMK AO2 SLP166 T01330089=
201410161453 METAR KBFI 161453Z 13003KT 10SM FEW047 BKN070 OVC090 12/09 A3001 RMK AO2 SLP163 T01220089 51008=
201410161353 METAR KBFI 161353Z VRB03KT 10SM BKN046 BKN060 12/08 A3001 RMK AO2 SLP161 T01220083=
201410161253 METAR KBFI 161253Z COR 12004KT 10SM FEW060 BKN150 13/08 A3000 RMK AO2 SLP159 T01330078=
201410161153 METAR KBFI 161153Z 10003KT 10SM FEW070 12/08 A2999 RMK AO2 SLP155 60001 70019 T01220083 10133 20111 58001=
201410161053 METAR KBFI 161053Z 15006KT 10SM FEW070 12/08 A3000 RMK AO2 SLP159 T01170083=
201410160953 METAR KBFI 160953Z 16004KT 10SM SCT070 11/08 A3000 RMK AO2 SLP159 T01110083=
201410160853 METAR KBFI 160853Z 13005KT 10SM BKN060 12/08 A2999 RMK AO2 RAE21 SLP156 P0000 60001 T01170083 51008=
201410160753 METAR KBFI 160753Z 13003KT 10SM -RA FEW055 BKN075 OVC120 12/09 A2999 RMK AO2 RAE03B45 SLP154 P0000 T01220094 401670117=
201410160653 METAR KBFI 160653Z 12004KT 10SM -RA SCT043 OVC065 13/08 A2998 RMK AO2 RAB18 SLP151 P0001 T01280083=
201410160553 METAR KBFI 160553Z 14007KT 10SM FEW048 SCT065 OVC100 13/08 A2997 RMK AO2 SLP148 T01280078 10161 20122 51020=
201410160453 METAR KBFI 160453Z 14008KT 10SM SCT040 12/08 A2995 RMK AO2 SLP143 T01220078=
201410160353 METAR KBFI 160353Z 15006KT 10SM SCT041 12/08 A2993 RMK AO2 SLP135 T01220078=
201410160253 METAR KBFI 160253Z 17009KT 10SM SCT080 14/08 A2991 RMK AO2 SLP128 T01390083 51026=
201410160153 METAR KBFI 160153Z 16008G16KT 10SM FEW025 SCT040 SCT110 14/08 A2989 RMK AO2 SLP122 T01440083=
201410160053 METAR KBFI 160053Z 17009G20KT 10SM FEW040 SCT080 15/09 A2987 RMK AO2 SLP113 T01500094=
201410152353 METAR KBFI 152353Z 17016G21KT 9SM SCT021 BKN029 BKN110 16/11 A2983 RMK AO2 RAE24 SLP101 P0001 60006 T01610106 10167 20133 53038=
201410152307 SPECI KBFI 152307Z 18012G17KT 9SM -RA SCT021 BKN029 BKN110 16/11 A2980 RMK AO2 P0001=
201410152300 SPECI KBFI 152300Z 17010G17KT 8SM -RA FEW037 BKN065 OVC090 16/11 A2980 RMK AO2 P0000=
201410152253 METAR KBFI 152253Z 18011G17KT 9SM -RA SCT021 BKN029 BKN110 16/10 A2979 RMK AO2 RAB52 SLP088 P0001 T01610100=
201410152153 METAR KBFI 152153Z 19011G16KT 10SM SCT021 BKN029 OVC110 16/11 A2976 RMK AO2 SLP076 T01560106=
201410152053 METAR KBFI 152053Z 17009G18KT 10SM FEW019 BKN027 OVC100 14/11 A2972 RMK AO2 RAE25 SLP064 P0000 60004 T01440106 51037=
201410151953 METAR KBFI 151953Z 17011G22KT 10SM -RA BKN024 BKN029 OVC035 14/10 A2969 RMK AO2 RAE1859B27 SLP053 P0000 T01390100=
201410151853 METAR KBFI 151853Z 18009KT 3SM -RA BKN017 OVC023 14/11 A2965 RMK AO2 SLP041 P0004 T01390106=
201410151819 SPECI KBFI 151819Z 16011G21KT 10SM -RA BKN027 BKN031 OVC060 14/11 A2963 RMK AO2 P0001=
201410151753 METAR KBFI 151753Z 17012KT 10SM -RA FEW025 OVC065 14/10 A2961 RMK AO2 SLP027 P0000 60012 T01440100 10144 20133 53022=
201410151653 METAR KBFI 151653Z 14008KT 10SM -RA FEW040 SCT049 OVC060 14/11 A2958 RMK AO2 RAB1558E08B52 SLP015 P0001 T01390111=
201410151553 METAR KBFI 151553Z 13007KT 10SM FEW049 OVC060 14/11 A2956 RMK AO2 RAE51 SLP009 P0007 T01390111=
201410151453 METAR KBFI 151453Z 15003KT 4SM RA SCT040 OVC048 14/11 A2955 RMK AO2 RAE05B37 SLP005 P0004 60004 T01390111 53013=
201410151353 METAR KBFI 151353Z 15005KT 10SM -RA BKN060 OVC080 14/11 A2952 RMK AO2 RAB08 SLP997 P0000 T01390111=
201410151253 METAR KBFI 151253Z 13004KT 10SM OVC060 14/11 A2951 RMK AO2 SLP994 T01390111=
201410151153 METAR KBFI 151153Z 12003KT 10SM SCT090 OVC110 13/11 A2951 RMK AO2 SLP992 60026 7//// T01330111 10150 20133 58009=
201410151053 METAR KBFI 151053Z 11003KT 10SM OVC060 14/11 A2951 RMK AO2 RAE40 SLP993 P0003 T01390111=
201410150953 METAR KBFI 150953Z 13005KT 5SM -RA BR OVC060 14/12 A2953 RMK AO2 SLP000 P0019 T01390117=
201410150853 METAR KBFI 150853Z 12003KT 10SM -RA FEW055 OVC075 14/12 A2953 RMK AO2 SLP001 P0004 60004 T01440117 55006=
201410150753 METAR KBFI 150753Z 13004KT 10SM -RA SCT055 OVC075 14/11 A2953 RMK AO2 RAE00B42 SLP000 P0000 T01440111 401720128=
201410150653 METAR KBFI 150653Z 00000KT 10SM -RA OVC065 15/11 A2954 RMK AO2 RAB50 SLP002 P0000 T01500106=
201410150553 METAR KBFI 150553Z 00000KT 10SM BKN095 14/11 A2955 RMK AO2 SLP007 T01440111 10167 20144 56025=
201410150453 METAR KBFI 150453Z 00000KT 10SM BKN090 OVC110 16/11 A2957 RMK AO2 SLP013 T01560106=
201410150353 METAR KBFI 150353Z 00000KT 10SM BKN070 OVC085 16/11 A2960 RMK AO2 SLP022 T01560106=
201410150253 METAR KBFI 150253Z 00000KT 10SM BKN065 OVC080 16/11 A2963 RMK AO2 SLP032 T01560106 58016=
201410150153 METAR KBFI 150153Z 27004KT 10SM OVC070 16/11 A2964 RMK AO2 SLP037 -RA DSNT W T01560106=
201410150053 METAR KBFI 150053Z 00000KT 10SM BKN080 OVC100 16/10 A2966 RMK AO2 SLP045 T01610100=
201410142353 METAR KBFI 142353Z VRB03KT 10SM FEW030 SCT090 BKN200 17/10 A2967 RMK AO2 SLP048 60011 T01670100 10172 20150 56029=
201410142253 METAR KBFI 142253Z COR 00000KT 10SM FEW030 SCT080 OVC200 17/10 A2970 RMK AO2 SLP057 T01670100=
201410142153 METAR KBFI 142153Z 31004KT 10SM FEW015 SCT030 BKN040 17/11 A2972 RMK AO2 SLP064 T01720106=
201410142053 METAR KBFI 142053Z 21003KT 10SM FEW012 SCT049 BKN075 17/10 A2976 RMK AO2 SLP077 60011 T01720100 56026=
201410141953 METAR KBFI 141953Z 11003KT 10SM SCT020 SCT090 17/11 A2978 RMK AO2 SLP084 T01670106=
201410141853 METAR KBFI 141853Z 12005KT 10SM FEW019 BKN038 OVC080 16/11 A2981 RMK AO2 SLP094 P0011 T01610111=
201410141753 METAR KBFI 141753Z 13005KT 10SM FEW013 BKN044 OVC080 15/11 A2984 RMK AO2 SLP103 6//// T01500111 10156 20128 50000 $=
201410141653 METAR KBFI 141653Z 14007KT 10SM SCT017 OVC080 14/11 A2984 RMK AO2 SLP105 T01440111 PNO $=
201410141650 SPECI KBFI 141650Z 14009KT 10SM SCT017 OVC080 14/11 A2984 RMK AO2 PNO $=
201410141553 METAR KBFI 141553Z 13005KT 10SM BKN021 BKN065 OVC080 13/11 A2983 RMK AO2 SLP102 T01330106 PNO $=
201410141548 SPECI KBFI 141548Z 13005KT 10SM BKN021 OVC085 13/11 A2983 RMK AO2 PNO $=
201410141453 METAR KBFI 141453Z 13005KT 10SM SCT070 BKN090 BKN200 13/11 A2983 RMK AO2 SLP100 6//// T01280106 51006 PNO=
201410141353 METAR KBFI 141353Z 14005KT 10SM SCT030 BKN050 13/11 A2982 RMK AO2 SLP099 T01330106 PNO=
201410141253 METAR KBFI 141253Z 12005KT 10SM FEW049 BKN075 OVC095 13/11 A2982 RMK AO2 SLP096 T01330106 PNO $=
201410141153 METAR KBFI 141153Z 14005KT 10SM FEW010 SCT033 BKN048 13/11 A2981 RMK AO2 RAE19 SLP094 6//// 7//// T01280106 10156 20128 51008 PNO $=
201410141055 SPECI KBFI 141055Z 14004KT 4SM -RA BR BKN010 OVC016 13/11 A2981 RMK AO2 CIG 007V014 PNO $=
201410141053 METAR KBFI 141053Z 14004KT 3SM -RA BR SCT010 OVC016 13/11 A2981 RMK AO2 RAB04 SLP094 T01280106 PNO $=
201410140953 METAR KBFI 140953Z 14007KT 10SM SCT010 BKN044 OVC090 13/11 A2980 RMK AO2 RAE51 SLP091 T01280106 PNO $=
201410140853 METAR KBFI 140853Z 12008KT 6SM -RA BR FEW008 OVC060 13/11 A2979 RMK AO2 SLP086 6//// T01280106 50038 PNO $=
201410140850 SPECI KBFI 140850Z 12008KT 6SM -RA BR FEW008 OVC060 13/11 A2978 RMK AO2 PNO $=
201410140753 METAR KBFI 140753Z 19004KT 3SM RA BKN011 OVC055 14/11 A2980 RMK AO2 PRESRR SLP089 T01390111 402170117 PNO $=
201410140716 SPECI KBFI 140716Z 26006G15KT 3SM RA SCT011 BKN020 OVC055 14/11 A2976 RMK AO2 PRESRR PNO $=
201410140653 METAR KBFI 140653Z 24008KT 9SM -RA FEW036 BKN055 OVC075 14/11 A2971 RMK AO2 RAE0554B19 PRESRR SLP060 T01440106 PNO $=
201410140553 METAR KBFI 140553Z COR 18007KT 10SM FEW010 SCT030 16/12 A2967 RMK AO2 SLP047 6//// T01560117 10211 20156 53004 PNO $=
201410140453 METAR KBFI 140453Z 18010KT 4SM -RA BKN036 OVC044 16/13 A2966 RMK AO2 SLP044 P0000 T01610128=
201410140353 METAR KBFI 140353Z 25006KT 10SM -RA FEW045 BKN055 OVC095 17/12 A2966 RMK AO2 RAB03 SLP045 P0000 T01670122=
201410140253 METAR KBFI 140253Z 22009G18KT 180V250 10SM OVC036 19/11 A2966 RMK AO2 RAE17 SLP043 P0000 60000 T01940111 55003=
201410140153 METAR KBFI 140153Z 22006KT 10SM -RA OVC046 21/11 A2965 RMK AO2 SLP041 P0000 T02060106=
201410140053 METAR KBFI 140053Z 21004KT 10SM -RA OVC050 19/10 A2966 RMK AO2 SLP042 P0000 T01940100=
201410132353 METAR KBFI 132353Z 26006KT 10SM -RA OVC055 21/09 A2967 RMK AO2 RAB48 SLP047 P0000 60000 T02110094 10217 20178 56025=
201410132253 METAR KBFI 132253Z 17004KT 10SM BKN060 OVC075 21/09 A2968 RMK AO2 SLP050 T02110089=
201410132153 METAR KBFI 132153Z 20008KT 10SM BKN060 OVC120 21/09 A2971 RMK AO2 SLP059 VIRGA NW T02110089=
201410132053 METAR KBFI 132053Z 16011KT 10SM SCT080 SCT130 21/09 A2974 RMK AO2 SLP071 T02110089 58019=
201410131953 METAR KBFI 131953Z 21008KT 10SM FEW100 BKN200 19/08 A2977 RMK AO2 SLP082 T01890078=
201410131853 METAR KBFI 131853Z 16006KT 10SM BKN230 19/09 A2979 RMK AO2 SLP089 T01940094=
201410131753 METAR KBFI 131753Z 19004KT 10SM FEW130 BKN200 18/09 A2980 RMK AO2 SLP090 T01780089 10178 20117 56007=
201410131653 METAR KBFI 131653Z 15005KT 10SM FEW130 BKN200 16/11 A2980 RMK AO2 SLP091 T01560106=
201410131553 METAR KBFI 131553Z 14003KT 10SM SCT120 13/11 A2981 RMK AO2 SLP094 T01330106=
201410131453 METAR KBFI 131453Z 00000KT 10SM SCT120 13/09 A2982 RMK AO2 SLP097 T01280094 56035=
201410131353 METAR KBFI 131353Z 00000KT 10SM FEW100 BKN200 12/09 A2985 RMK AO2 SLP107 T01220094=
201410131253 METAR KBFI 131253Z 14004KT 10SM CLR 12/09 A2989 RMK AO2 SLP120 T01220094=
201410131153 METAR KBFI 131153Z 16006KT 10SM SCT090 13/11 A2992 RMK AO2 SLP133 T01280106 10161 20122 58027=
201410131053 METAR KBFI 131053Z 13003KT 10SM SCT085 13/11 A2995 RMK AO2 SLP142 T01330111=
201410130953 METAR KBFI 130953Z 00000KT 10SM OVC085 15/12 A2999 RMK AO2 SLP156 T01500117=
201410130853 METAR KBFI 130853Z 14004KT 10SM OVC085 14/12 A3001 RMK AO2 SLP160 T01440117 58016=
201410130753 METAR KBFI 130753Z 00000KT 10SM OVC090 15/12 A3003 RMK AO2 SLP168 T01500117 401890128=
201410130653 METAR KBFI 130653Z 00000KT 10SM FEW100 16/12 A3004 RMK AO2 SLP173 T01560122=
201410130553 METAR KBFI 130553Z 13004KT 10SM FEW100 16/12 A3005 RMK AO2 SLP176 60000 T01560117 10183 20156 58022=
201410130453 METAR KBFI 130453Z 00000KT 10SM SCT120 16/12 A3008 RMK AO2 SLP187 T01560122=
201410130353 METAR KBFI 130353Z 00000KT 10SM BKN065 16/12 A3010 RMK AO2 SLP193 T01610122=
201410130253 METAR KBFI 130253Z 00000KT 10SM SCT120 17/12 A3012 RMK AO2 RAE22 SLP198 P0000 60000 T01670117 56017=
201410130153 METAR KBFI 130153Z 00000KT 10SM -RA FEW060 OVC080 17/11 A3014 RMK AO2 RAB43 SLP205 P0000 T01720111=
201410130053 METAR KBFI 130053Z 15003KT 10SM OVC090 18/11 A3014 RMK AO2 SLP206 T01780106=
201410122353 METAR KBFI 122353Z 00000KT 10SM OVC080 18/10 A3017 RMK AO2 SLP215 T01830100 10189 20161 56013=
201410122253 METAR KBFI 122253Z 19004KT 10SM OVC100 19/10 A3018 RMK AO2 SLP220 T01890100=
201410122153 METAR KBFI 122153Z 21005KT 10SM FEW025 BKN050 OVC200 19/10 A3018 RMK AO2 SLP221 T01890100=
201410122053 METAR KBFI 122053Z 19007KT 10SM CLR 19/11 A3020 RMK AO2 SLP227 T01890106 58012=
201410121953 METAR KBFI 121953Z 17006KT 10SM SCT020 BKN032 18/12 A3022 RMK AO2 SLP233 T01780117=
201410121920 SPECI KBFI 121920Z 22005KT 10SM FEW020 SCT030 SCT036 17/11 A3023 RMK AO2=
201410121853 METAR KBFI 121853Z COR 23005KT 10SM BKN018 OVC034 17/12 A3023 RMK AO2 SLP238 T01670117=
201410121753 METAR KBFI 121753Z 16007KT 10SM BKN014 OVC030 16/12 A3024 RMK AO2 SLP240 T01610117 10161 20133 58001=
201410121653 METAR KBFI 121653Z 15003KT 10SM BKN010 OVC024 16/12 A3025 RMK AO2 SLP242 T01560117=
201410121626 SPECI KBFI 121626Z 16005KT 10SM BKN010 OVC026 15/12 A3025 RMK AO2=
201410121553 METAR KBFI 121553Z 00000KT 10SM BKN017 OVC024 15/12 A3026 RMK AO2 SLP245 T01500117=
201410121453 METAR KBFI 121453Z 00000KT 10SM OVC022 14/12 A3025 RMK AO2 SLP241 T01440117 50003=
201410121353 METAR KBFI 121353Z 00000KT 10SM OVC020 14/12 A3025 RMK AO2 SLP242 T01440117=
201410121253 METAR KBFI 121253Z 11004KT 10SM BKN019 OVC024 14/11 A3024 RMK AO2 SLP238 T01390111=
201410121153 METAR KBFI 121153Z 13005KT 10SM OVC019 14/11 A3024 RMK AO2 SLP238 T01390111 10139 20128 50004=
201410121053 METAR KBFI 121053Z 13005KT 10SM OVC019 14/11 A3024 RMK AO2 SLP239 T01390111=
201410120953 METAR KBFI 120953Z 13007KT 10SM BKN017 OVC090 13/11 A3023 RMK AO2 SLP236 T01280106=
201410120942 SPECI KBFI 120942Z 14006KT 10SM BKN017 BKN090 13/11 A3023 RMK AO2=
201410120853 METAR KBFI 120853Z 15005KT 10SM BKN090 13/11 A3022 RMK AO2 SLP234 T01330106 53012=
201410120753 METAR KBFI 120753Z 13005KT 10SM BKN090 13/11 A3021 RMK AO2 SLP229 T01330111 401940128=
201410120653 METAR KBFI 120653Z 13006KT 10SM SCT020 BKN080 13/11 A3020 RMK AO2 SLP225 T01330106=
201410120553 METAR KBFI 120553Z 14003KT 10SM SCT020 BKN080 14/11 A3019 RMK AO2 SLP223 60000 T01390111 10194 20133 51019=
201410120453 METAR KBFI 120453Z AUTO 12004KT 10SM SCT023 BKN080 14/11 A3018 RMK AO2 SLP218 T01390106 TSNO=
201410120353 METAR KBFI 120353Z 14007KT 10SM SCT080 13/11 A3015 RMK AO2 SLP210 T01330111=
201410120253 METAR KBFI 120253Z 17003KT 10SM SCT040 14/12 A3013 RMK AO2 SLP204 60000 T01440117 53019=
201410120153 METAR KBFI 120153Z COR 21003KT 10SM SCT015 BKN110 15/12 A3011 RMK AO2 RAE45 PRESRR SLP197 TSOHD MOV E FRQLTGICCG P0000 T01500117=
201410120053 METAR KBFI 120053Z 00000KT 10SM -RA BKN075 BKN095 19/11 A3009 RMK AO2 RAB44 SLP190 P0000 T01890111=
201410112353 METAR KBFI 112353Z 00000KT 10SM FEW020 BKN045 BKN170 19/11 A3008 RMK AO2 SLP184 60000 T01940111 10194 20167 52009=
201410112253 METAR KBFI 112253Z VRB03KT 10SM SCT090 BKN110 19/11 A3007 RMK AO2 SLP182 T01890111=
201410112153 METAR KBFI 112153Z 10005KT 10SM FEW010 SCT022 BKN032 19/13 A3006 RMK AO2 RAE2054 SLP178 T01890128=
201410112053 METAR KBFI 112053Z 29004KT 10SM -RA FEW023 BKN070 OVC090 17/13 A3005 RMK AO2 RAB00 SLP175 P0000 60000 T01720128 53009=
201410111953 METAR KBFI 111953Z 21012G20KT 190V250 10SM SCT019 BKN090 19/13 A3004 RMK AO2 RAE00 SLP171 P0000 T01890128=
201410111853 METAR KBFI 111853Z 20010G21KT 10SM -RA SCT019 BKN110 18/12 A3002 RMK AO2 RAB51 SLP167 P0000 T01780122=
201410111753 METAR KBFI 111753Z 18010G16KT 10SM BKN019 BKN025 17/13 A3002 RMK AO2 SLP166 T01670128 10167 20161 55001=
201410111653 METAR KBFI 111653Z 20006KT 10SM FEW018 BKN022 BKN110 17/12 A3002 RMK AO2 SLP165 T01670122=
201410111553 METAR KBFI 111553Z 16008KT 10SM BKN018 OVC025 17/13 A3002 RMK AO2 SLP164 T01670128=
201410111453 METAR KBFI 111453Z 16005KT 10SM FEW012 BKN021 OVC030 17/13 A3003 RMK AO2 SLP167 T01670133 51006=
201410111353 METAR KBFI 111353Z 15005KT 10SM FEW012 BKN023 OVC030 16/13 A3002 RMK AO2 SLP165 T01610133=
201410111253 METAR KBFI 111253Z 14007KT 10SM SCT007 BKN010 OVC017 16/13 A3001 RMK AO2 SLP163 T01610133=
201410111153 METAR KBFI 111153Z 14007KT 10SM BKN010 OVC014 16/13 A3001 RMK AO2 SLP161 60000 T01610133 10172 20156 51001=
201410111053 METAR KBFI 111053Z 13005KT 10SM OVC008 16/13 A3001 RMK AO2 SLP161 T01560133=
201410110953 METAR KBFI 110953Z 15005KT 10SM FEW005 OVC008 16/13 A3002 RMK AO2 SLP165 T01560133=
201410110900 SPECI KBFI 110900Z 13006KT 10SM OVC008 16/13 A3000 RMK AO2 CIG 007V013=
201410110853 METAR KBFI 110853Z 15005KT 10SM FEW008 OVC011 16/13 A3000 RMK AO2 RAB14E35 SLP160 P0000 60000 T01610133 58002=
201410110832 SPECI KBFI 110832Z 15006KT 8SM -RA OVC013 16/13 A3001 RMK AO2 RAB14 P0000=
201410110753 METAR KBFI 110753Z 15007KT 10SM BKN020 BKN031 OVC045 16/13 A3001 RMK AO2 RAB31E44 SLP163 P0000 T01610133 402000111=
201410110653 METAR KBFI 110653Z 14009KT 10SM BKN047 BKN060 OVC075 16/13 A3002 RMK AO2 RAB05E48 SLP166 P0000 T01610133=
201410110553 METAR KBFI 110553Z 14008KT 10SM SCT030 BKN065 OVC080 17/12 A3001 RMK AO2 SLP162 60000 T01720122 10183 20172 58003=
201410110453 METAR KBFI 110453Z 16007KT 10SM BKN060 18/12 A3002 RMK AO2 SLP165 T01780122=
201410110353 METAR KBFI 110353Z 15008KT 10SM FEW034 SCT065 OVC110 18/12 A3002 RMK AO2 SLP165 T01780122=
201410110253 METAR KBFI 110253Z 14006KT 10SM BKN110 18/12 A3002 RMK AO2 SLP165 60000 T01780117 56007=
201410110153 METAR KBFI 110153Z 14011KT 10SM FEW070 OVC100 18/12 A3002 RMK AO2 SLP166 T01780122=
201410110053 METAR KBFI 110053Z 14011KT 10SM BKN100 BKN120 18/12 A3003 RMK AO2 RAE09 SLP169 P0000 T01780122=
201410102353 METAR KBFI 102353Z 14011KT 10SM -RA FEW024 SCT065 BKN250 18/12 A3004 RMK AO2 RAB50 SLP172 P0000 60000 T01830122 10200 20150 58007=
201410102253 METAR KBFI 102253Z 16013G18KT 10SM SCT024 BKN065 BKN250 19/12 A3005 RMK AO2 SLP176 T01940117=
201410102200 SPECI KBFI 102200Z 16010G16KT 10SM FEW024 SCT070 BKN085 19/12 A3006 RMK AO2=
201410102153 METAR KBFI 102153Z 16007G16KT 10SM BKN018 BKN070 BKN085 19/12 A3006 RMK AO2 SLP179 T01890117=
201410102100 SPECI KBFI 102100Z 16010G17KT 10SM BKN018 BKN070 BKN085 18/12 A3006 RMK AO2=
201410102053 METAR KBFI 102053Z 16009KT 10SM SCT015 18/12 A3006 RMK AO2 SLP180 T01830122 58003=
201410102036 SPECI KBFI 102036Z 15010KT 10SM SCT015 18/12 A3006 RMK AO2=
201410102027 SPECI KBFI 102027Z 15011KT 10SM BKN015 18/12 A3006 RMK AO2=
201410101953 METAR KBFI 101953Z 16011KT 10SM OVC011 16/12 A3007 RMK AO2 SLP183 T01610122=
201410101853 METAR KBFI 101853Z 17008KT 7SM SCT008 OVC011 16/12 A3007 RMK AO2 SLP183 T01610117=
201410101800 SPECI KBFI 101800Z 16010G15KT 10SM OVC007 15/12 A3006 RMK AO2=
201410101753 METAR KBFI 101753Z COR 16008KT 10SM OVC007 15/12 A3007 RMK AO2 SLP182 T01500117 10150 20117 53001=
201410101653 METAR KBFI 101653Z 15009KT 3SM BR OVC004 13/12 A3007 RMK AO2 SLP181 T01330117=
201410101553 METAR KBFI 101553Z 16007KT 2SM BR OVC004 13/11 A3007 RMK AO2 SLP180 T01280111=
201410101546 SPECI KBFI 101546Z 16007KT 2SM BR OVC004 13/11 A3006 RMK AO2=
201410101453 METAR KBFI 101453Z 17008KT 3/4SM FG OVC002 13/11 A3004 RMK AO2 SLP173 T01280111 51008=
201410101353 METAR KBFI 101353Z 18006KT 3/4SM BR VV002 12/11 A3004 RMK AO2 SLP170 T01220111=
201410101253 METAR KBFI 101253Z 15006KT 3/4SM FG VV002 12/11 A3004 RMK AO2 SLP170 T01220111=
201410101209 SPECI KBFI 101209Z 14005KT 1/2SM FG VV002 12/11 A3003 RMK AO2=
201410101201 SPECI KBFI 101201Z 14005KT 1/4SM FG VV002 12/11 A3002 RMK AO2=
201410101153 METAR KBFI 101153Z 13006KT 1/2SM FG VV002 12/11 A3002 RMK AO2 SLP165 T01220106 10139 20111 50000=
201410101137 SPECI KBFI 101137Z 14006KT 1/2SM FG VV002 12/11 A3002 RMK AO2=
201410101053 METAR KBFI 101053Z 15005KT 1/4SM FG VV001 12/11 A3002 RMK AO2 SLP165 T01220111=
201410100953 METAR KBFI 100953Z 13004KT 1/8SM FG VV001 12/11 A3002 RMK AO2 SLP166 T01220106=
201410100939 SPECI KBFI 100939Z 14004KT 1/8SM FG VV001 11/09 A3002 RMK AO2=
201410100853 METAR KBFI 100853Z 00000KT 5SM BR FEW005 13/11 A3002 RMK AO2 SLP165 VIS LWR SE T01330106 50001=
201410100753 METAR KBFI 100753Z COR 00000KT 6SM BR FEW005 13/11 A3002 RMK AO2 SLP166 T01330111 401830133=
201410100653 METAR KBFI 100653Z 00000KT 10SM CLR 14/11 A3002 RMK AO2 SLP164 T01390111=
201410100553 METAR KBFI 100553Z 00000KT 10SM CLR 14/11 A3002 RMK AO2 SLP164 T01390111 10183 20133 51003=
201410100453 METAR KBFI 100453Z 00000KT 10SM CLR 14/12 A3002 RMK AO2 SLP164 T01440117=
201410100353 METAR KBFI 100353Z 00000KT 10SM FEW250 16/12 A3002 RMK AO2 SLP164 T01560117=
201410100253 METAR KBFI 100253Z 00000KT 10SM SCT250 16/12 A3001 RMK AO2 SLP161 T01610122 56002=
201410100153 METAR KBFI 100153Z 00000KT 10SM SCT250 17/12 A3001 RMK AO2 SLP161 T01670122=
201410100053 METAR KBFI 100053Z 00000KT 10SM SCT250 18/12 A3001 RMK AO2 SLP161 T01780122=
201410092353 METAR KBFI 092353Z 32004KT 10SM SCT250 18/12 A3001 RMK AO2 SLP163 T01830122 10183 20156 56008=
201410092253 METAR KBFI 092253Z 32005KT 10SM SCT250 17/12 A3002 RMK AO2 SLP166 T01720122=
201410092153 METAR KBFI 092153Z 30004KT 7SM FEW010 BKN250 17/13 A3003 RMK AO2 SLP167 T01720128=
201410092053 METAR KBFI 092053Z 33005KT 9SM SCT010 BKN250 17/13 A3004 RMK AO2 SLP171 T01720128 58009=
201410091953 METAR KBFI 091953Z VRB04KT 7SM SCT010 18/13 A3005 RMK AO2 SLP177 T01780128=
201410091853 METAR KBFI 091853Z 03004KT 7SM OVC008 17/12 A3006 RMK AO2 SLP180 T01670122=
201410091753 METAR KBFI 091753Z 00000KT 4SM BR OVC006 16/12 A3006 RMK AO2 SLP180 T01560122 10161 20144 51009=
201410091653 METAR KBFI 091653Z VRB03KT 4SM BR OVC006 15/13 A3006 RMK AO2 SLP180 T01500128=
201410091616 SPECI KBFI 091616Z 05003KT 4SM BR OVC006 15/13 A3006 RMK AO2 CIG 003V007=
201410091553 METAR KBFI 091553Z 00000KT 2SM BR OVC004 15/13 A3005 RMK AO2 SLP175 T01500128=
201410091453 METAR KBFI 091453Z 00000KT 2SM BR OVC004 14/13 A3004 RMK AO2 SLP171 T01440128 53003=
201410091353 METAR KBFI 091353Z VRB03KT 2SM BR OVC004 15/13 A3003 RMK AO2 SLP168 T01500128=
201410091253 METAR KBFI 091253Z COR 05003KT 3SM BR OVC004 15/13 A3003 RMK AO2 CIG 003V006 SLP168 T01500128=
201410091153 METAR KBFI 091153Z 00000KT 4SM BR OVC004 16/13 A3003 RMK AO2 SLP169 T01560133 10156 20144 58000=
201410091053 METAR KBFI 091053Z 00000KT 5SM BR OVC004 16/13 A3003 RMK AO2 SLP169 T01560133=
201410090953 METAR KBFI 090953Z 00000KT 5SM BR OVC004 15/13 A3003 RMK AO2 SLP169 T01500133=
201410090853 METAR KBFI 090853Z 00000KT 4SM BR OVC004 14/12 A3003 RMK AO2 CIG 002V008 SLP169 T01440122 52001=
201410090826 SPECI KBFI 090826Z 00000KT 6SM BR FEW002 BKN008 14/12 A3003 RMK AO2=
201410090753 METAR KBFI 090753Z 00000KT 10SM FEW002 SCT007 14/12 A3003 RMK AO2 SLP169 T01440122 402000144=
201410090725 SPECI KBFI 090725Z 00000KT 10SM FEW002 BKN005 14/12 A3003 RMK AO2=
201410090653 METAR KBFI 090653Z 00000KT 10SM SCT005 15/13 A3003 RMK AO2 SLP167 T01500128=
201410090642 SPECI KBFI 090642Z 00000KT 10SM SCT005 14/12 A3003 RMK AO2=
201410090553 METAR KBFI 090553Z 00000KT 10SM CLR 15/12 A3003 RMK AO2 SLP168 T01500122 10189 20150 51005=
201410090453 METAR KBFI 090453Z AUTO 00000KT 10SM CLR 16/12 A3002 RMK AO2 SLP166 T01560122 TSNO=
201410090353 METAR KBFI 090353Z AUTO 00000KT 10SM CLR 16/13 A3002 RMK AO2 SLP165 T01610128 TSNO=
201410090253 METAR KBFI 090253Z AUTO 00000KT 10SM CLR 16/13 A3001 RMK AO2 SLP163 T01610128 53001 TSNO=
201410090153 METAR KBFI 090153Z 31003KT 10SM SCT140 17/13 A3001 RMK AO2 SLP162 T01670128=
201410090053 METAR KBFI 090053Z 32005KT 10SM FEW015 SCT140 18/13 A3001 RMK AO2 SLP160 T01780128=
201410082353 METAR KBFI 082353Z 30005KT 10SM FEW015 SCT150 BKN220 18/13 A3001 RMK AO2 SLP161 T01830128 10200 20167 58001=
201410082253 METAR KBFI 082253Z VRB05KT 10SM FEW015 SCT140 20/13 A3001 RMK AO2 SLP162 T02000133=
201410082153 METAR KBFI 082153Z VRB04KT 10SM SCT100 19/13 A3001 RMK AO2 SLP162 T01940133=
201410082053 METAR KBFI 082053Z 34004KT 10SM SCT013 BKN150 19/13 A3001 RMK AO2 SLP162 T01890128 58002=
201410081953 METAR KBFI 081953Z 31009KT 10SM SCT008 BKN150 18/12 A3002 RMK AO2 SLP164 T01780122=
201410081910 SPECI KBFI 081910Z 31009KT 10SM SCT015 BKN150 17/12 A3002 RMK AO2=
201410081853 METAR KBFI 081853Z 30005KT 10SM BKN015 OVC150 18/12 A3002 RMK AO2 SLP165 T01780122=
201410081800 SPECI KBFI 081800Z 28003KT 10SM BKN015 OVC150 17/13 A3002 RMK AO2=
201410081753 METAR KBFI 081753Z 31003KT 10SM SCT009 OVC010 17/13 A3002 RMK AO2 SLP164 T01670128 10167 20150 51006=
201410081653 METAR KBFI 081653Z 00000KT 10SM SCT009 OVC010 17/13 A3001 RMK AO2 SLP163 T01670128=
201410081646 SPECI KBFI 081646Z 00000KT 10SM SCT009 OVC010 16/13 A3001 RMK AO2=
201410081553 METAR KBFI 081553Z 00000KT 10SM OVC009 16/12 A3001 RMK AO2 SLP160 T01610122=
201410081502 SPECI KBFI 081502Z 00000KT 8SM SCT007 OVC009 16/13 A3000 RMK AO2=
201410081453 METAR KBFI 081453Z 00000KT 5SM HZ SCT008 OVC010 16/13 A3000 RMK AO2 SLP158 T01560128 51010=
201410081353 METAR KBFI 081353Z 00000KT 3SM BR SCT005 OVC009 15/13 A2999 RMK AO2 SLP155 T01500128=
201410081253 METAR KBFI 081253Z 32003KT 6SM BR SCT005 BKN009 BKN110 15/13 A2998 RMK AO2 SLP151 T01500128=
201410081153 METAR KBFI 081153Z 00000KT 7SM BKN005 BKN009 16/13 A2997 RMK AO2 SLP148 T01560133 10161 20156 50003=
201410081142 SPECI KBFI 081142Z 00000KT 7SM BKN005 OVC009 16/13 A2997 RMK AO2=
201410081053 METAR KBFI 081053Z 32003KT 3SM BR OVC003 16/14 A2997 RMK AO2 SLP148 T01560139=
201410080953 METAR KBFI 080953Z 30003KT 3SM BR OVC003 16/14 A2997 RMK AO2 SLP147 T01560139=
201410080853 METAR KBFI 080853Z 30003KT 3SM BR OVC003 16/14 A2996 RMK AO2 SLP145 T01560139 53006=
201410080753 METAR KBFI 080753Z 32004KT 4SM BR OVC003 16/13 A2995 RMK AO2 SLP142 T01560133 402000144=
201410080653 METAR KBFI 080653Z VRB04KT 5SM BR OVC003 16/14 A2995 RMK AO2 SLP141 T01560139=
201410080553 METAR KBFI 080553Z 32005KT 5SM BR BKN003 OVC035 16/14 A2994 RMK AO2 SLP139 T01560139 10194 20156 53009=
201410080528 SPECI KBFI 080528Z VRB04KT 5SM BR FEW003 OVC032 16/14 A2994 RMK AO2=
201410080453 METAR KBFI 080453Z 31004KT 8SM BKN034 OVC043 17/14 A2993 RMK AO2 SLP135 T01670139=
201410080353 METAR KBFI 080353Z VRB03KT 10SM OVC039 18/14 A2992 RMK AO2 SLP132 T01780139=
201410080253 METAR KBFI 080253Z VRB06KT 10SM OVC035 18/14 A2992 RMK AO2 SLP130 T01830139 55000=
201410080153 METAR KBFI 080153Z 00000KT 10SM OVC031 19/14 A2991 RMK AO2 SLP128 T01890139=
201410080053 METAR KBFI 080053Z 31004KT 10SM FEW010 BKN250 19/14 A2991 RMK AO2 SLP129 T01890139=
201410072353 METAR KBFI 072353Z 33008KT 10SM BKN250 19/14 A2992 RMK AO2 SLP130 T01940144 10200 20172 58010=
201410072253 METAR KBFI 072253Z 00000KT 10SM SCT014 20/14 A2993 RMK AO2 SLP134 CIG LWR TO THE SW T02000144=
201410072153 METAR KBFI 072153Z VRB04KT 10SM BKN016 19/14 A2994 RMK AO2 SLP137 T01940144=
201410072053 METAR KBFI 072053Z 32004KT 7SM OVC010 19/14 A2995 RMK AO2 SLP140 T01940144 58011=
201410071953 METAR KBFI 071953Z 00000KT 6SM HZ OVC009 19/14 A2996 RMK AO2 SLP146 T01890144=
201410071853 METAR KBFI 071853Z 00000KT 4SM HZ OVC006 18/14 A2998 RMK AO2 SLP150 T01780144=
201410071830 SPECI KBFI 071830Z 00000KT 4SM HZ OVC006 17/14 A2998 RMK AO2=
201410071753 METAR KBFI 071753Z 00000KT 2 1/2SM BR OVC003 17/14 A2998 RMK AO2 SLP151 T01670144 10167 20144 52006=
201410071653 METAR KBFI 071653Z 00000KT 2 1/2SM BR OVC003 16/14 A2997 RMK AO2 SLP149 T01610144=
201410071553 METAR KBFI 071553Z 00000KT 1SM BR OVC003 16/14 A2997 RMK AO2 SLP147 T01560139=
201410071453 METAR KBFI 071453Z 31004KT 1 1/4SM BR OVC003 16/14 A2996 RMK AO2 SLP145 T01560139 55000=
201410071441 SPECI KBFI 071441Z 00000KT 1 1/2SM BR OVC003 16/14 A2995 RMK AO2=
201410071423 SPECI KBFI 071423Z 32003KT 3SM BR OVC003 16/14 A2995 RMK AO2=
201410071353 METAR KBFI 071353Z 28003KT 6SM BR OVC005 16/13 A2995 RMK AO2 SLP142 T01560133=
201410071253 METAR KBFI 071253Z 00000KT 8SM OVC005 15/13 A2995 RMK AO2 SLP142 T01500133=
201410071244 SPECI KBFI 071244Z 30003KT 9SM OVC005 15/13 A2995 RMK AO2=
201410071153 METAR KBFI 071153Z 00000KT 7SM OVC003 14/13 A2996 RMK AO2 SLP145 T01440128 10189 20144 55000=
201410071126 SPECI KBFI 071126Z 33004KT 6SM BR BKN003 15/13 A2996 RMK AO2=
201410071053 METAR KBFI 071053Z 00000KT 10SM FEW003 16/13 A2996 RMK AO2 SLP144 T01560128=
201410070953 METAR KBFI 070953Z 00000KT 10SM CLR 16/13 A2996 RMK AO2 SLP145 T01610133=
201410070853 METAR KBFI 070853Z 00000KT 10SM CLR 17/14 A2997 RMK AO2 SLP147 T01720139 56003=
201410070753 METAR KBFI 070753Z 00000KT 10SM CLR 18/14 A2997 RMK AO2 SLP147 T01780139 402500144=
201410070653 METAR KBFI 070653Z 00000KT 10SM CLR 18/14 A2997 RMK AO2 SLP149 T01830144=
201410070553 METAR KBFI 070553Z 00000KT 10SM CLR 19/14 A2998 RMK AO2 SLP150 T01890144 10244 20189 58000=
201410070453 METAR KBFI 070453Z 00000KT 10SM CLR 19/14 A2998 RMK AO2 SLP151 T01940139=
201410070353 METAR KBFI 070353Z 00000KT 10SM CLR 20/14 A2998 RMK AO2 SLP152 T02000144=
201410070253 METAR KBFI 070253Z 31004KT 10SM CLR 21/14 A2998 RMK AO2 SLP151 T02060144 53001=
201410070153 METAR KBFI 070153Z 33003KT 10SM CLR 22/15 A2997 RMK AO2 SLP149 T02170150=
201410070053 METAR KBFI 070053Z VRB03KT 10SM CLR 24/14 A2998 RMK AO2 SLP151 T02390144=
201410062353 METAR KBFI 062353Z 32003KT 10SM CLR 24/14 A2998 RMK AO2 SLP150 T02440144 10250 20200 56011=
201410062253 METAR KBFI 062253Z 33006KT 10SM CLR 25/14 A2998 RMK AO2 SLP152 T02500144=
201410062153 METAR KBFI 062153Z 32006KT 10SM CLR 24/14 A2999 RMK AO2 SLP156 T02390139=
201410062053 METAR KBFI 062053Z 33006KT 10SM CLR 23/13 A3001 RMK AO2 SLP161 T02330133 58015=
201410061953 METAR KBFI 061953Z VRB05KT 10SM CLR 22/14 A3003 RMK AO2 SLP168 T02220139 $=
201410061853 METAR KBFI 061853Z 29004KT 10SM FEW005 22/14 A3004 RMK AO2 SLP172 T02170139=
201410061753 METAR KBFI 061753Z 00000KT 10SM CLR 20/14 A3005 RMK AO2 SLP177 T02000144 10200 20150 58001=
201410061653 METAR KBFI 061653Z 00000KT 10SM SCT015 18/14 A3007 RMK AO2 SLP180 T01830139=
201410061600 SPECI KBFI 061600Z 00000KT 10SM SCT005 17/14 A3006 RMK AO2=
201410061553 METAR KBFI 061553Z 00000KT 10SM BKN005 17/14 A3006 RMK AO2 SLP177 T01720139=
201410061521 SPECI KBFI 061521Z 00000KT 10SM SCT005 16/14 A3006 RMK AO2=
201410061453 METAR KBFI 061453Z 00000KT 10SM OVC005 16/13 A3006 RMK AO2 SLP178 T01560128 56004=
201410061353 METAR KBFI 061353Z 00000KT 10SM OVC006 16/13 A3006 RMK AO2 SLP178 T01560128=
201410061253 METAR KBFI 061253Z 00000KT 10SM OVC006 16/13 A3005 RMK AO2 SLP177 T01560128=
201410061153 METAR KBFI 061153Z 00000KT 10SM BKN006 15/12 A3007 RMK AO2 SLP181 T01500122 10178 20144 55003=
201410061137 SPECI KBFI 061137Z 00000KT 10SM BKN006 15/13 A3007 RMK AO2=
201410061128 SPECI KBFI 061128Z 00000KT 10SM SCT006 15/12 A3007 RMK AO2=
201410061053 METAR KBFI 061053Z 00000KT 10SM CLR 15/13 A3007 RMK AO2 SLP181 T01500128=
201410060953 METAR KBFI 060953Z 00000KT 10SM CLR 16/13 A3007 RMK AO2 SLP182 T01560128=
201410060853 METAR KBFI 060853Z 00000KT 10SM CLR 16/13 A3008 RMK AO2 SLP185 T01610128 55002=
201410060753 METAR KBFI 060753Z 00000KT 10SM CLR 17/13 A3007 RMK AO2 SLP182 T01670128 402330128=
201410060653 METAR KBFI 060653Z 00000KT 10SM CLR 17/13 A3007 RMK AO2 SLP183 T01720133=
201410060553 METAR KBFI 060553Z 00000KT 10SM CLR 18/13 A3008 RMK AO2 SLP187 T01780133 10228 20172 50003=
201410060453 METAR KBFI 060453Z 00000KT 10SM CLR 18/13 A3009 RMK AO2 SLP187 T01830133=
201410060353 METAR KBFI 060353Z 00000KT 10SM CLR 19/13 A3008 RMK AO2 SLP187 T01890133=
201410060253 METAR KBFI 060253Z 00000KT 10SM CLR 20/14 A3008 RMK AO2 SLP184 T02000139 55003=
201410060153 METAR KBFI 060153Z 31006KT 10SM SCT250 21/14 A3007 RMK AO2 SLP181 T02110139=
201410060053 METAR KBFI 060053Z 32004KT 10SM CLR 22/14 A3007 RMK AO2 SLP182 T02220139=
201410052353 METAR KBFI 052353Z VRB04KT 10SM CLR 23/14 A3008 RMK AO2 SLP187 T02280139 10233 20178 58012=
201410052253 METAR KBFI 052253Z 29006KT 10SM CLR 23/14 A3010 RMK AO2 SLP192 T02280139=
201410052153 METAR KBFI 052153Z 33006KT 10SM FEW200 23/14 A3012 RMK AO2 SLP197 T02280139=
201410052053 METAR KBFI 052053Z VRB03KT 10SM CLR 22/14 A3012 RMK AO2 SLP198 T02170139 56010=
201410051953 METAR KBFI 051953Z VRB04KT 10SM CLR 21/13 A3013 RMK AO2 SLP201 T02060133=
201410051853 METAR KBFI 051853Z 33005KT 10SM SCT150 19/13 A3014 RMK AO2 SLP205 T01890128=
201410051753 METAR KBFI 051753Z 27003KT 10SM SCT100 18/13 A3015 RMK AO2 SLP208 T01780128 10178 20128 58000=
201410051653 METAR KBFI 051653Z AUTO 00000KT 9SM SCT007 17/13 A3015 RMK AO2 SLP208 T01670128 TSNO=
201410051553 METAR KBFI 051553Z 00000KT 10SM OVC005 14/12 A3015 RMK AO2 SLP210 T01440117=
201410051518 SPECI KBFI 051518Z 00000KT 10SM OVC005 14/11 A3015 RMK AO2=
201410051453 METAR KBFI 051453Z 00000KT 10SM OVC003 13/11 A3015 RMK AO2 SLP209 T01330111 50001=
201410051353 METAR KBFI 051353Z 00000KT 10SM BKN005 OVC013 13/11 A3015 RMK AO2 SLP210 T01330106=
201410051301 SPECI KBFI 051301Z 00000KT 10SM BKN005 OVC015 13/11 A3015 RMK AO2=
201410051259 SPECI KBFI 051259Z 00000KT 10SM SCT005 OVC015 13/11 A3015 RMK AO2=
201410051253 METAR KBFI 051253Z 00000KT 10SM SCT030 13/11 A3015 RMK AO2 SLP209 T01330106=
201410051153 METAR KBFI 051153Z 00000KT 10SM CLR 13/11 A3014 RMK AO2 SLP207 T01330106 10161 20133 55002=
201410051053 METAR KBFI 051053Z 00000KT 10SM CLR 14/11 A3014 RMK AO2 SLP205 T01390106=
201410050953 METAR KBFI 050953Z 00000KT 10SM CLR 14/11 A3014 RMK AO2 SLP206 T01440111=
201410050853 METAR KBFI 050853Z 00000KT 10SM CLR 15/11 A3015 RMK AO2 SLP210 T01500111 55002=
201410050753 METAR KBFI 050753Z 00000KT 10SM CLR 16/11 A3015 RMK AO2 SLP208 T01560111 402280133=
201410050653 METAR KBFI 050653Z 00000KT 10SM CLR 16/12 A3015 RMK AO2 SLP210 T01560117=
201410050553 METAR KBFI 050553Z 00000KT 10SM CLR 16/12 A3016 RMK AO2 SLP211 T01610117 10222 20161 53006=
201410050453 METAR KBFI 050453Z VRB03KT 10SM CLR 17/12 A3015 RMK AO2 SLP210 T01670122=
201410050353 METAR KBFI 050353Z 00000KT 10SM CLR 18/12 A3014 RMK AO2 SLP205 T01780122=
201410050253 METAR KBFI 050253Z 00000KT 10SM CLR 18/12 A3014 RMK AO2 SLP205 T01830117 55004=
201410050153 METAR KBFI 050153Z 31003KT 10SM FEW085 19/12 A3013 RMK AO2 SLP202 T01940117=
201410050053 METAR KBFI 050053Z 32004KT 10SM CLR 21/11 A3014 RMK AO2 SLP206 T02060111=
201410042353 METAR KBFI 042353Z 29003KT 10SM BKN100 22/11 A3015 RMK AO2 SLP209 T02170111 10228 20178 58011=
201410042253 METAR KBFI 042253Z 00000KT 10SM BKN100 22/11 A3016 RMK AO2 SLP213 T02170111=
201410042153 METAR KBFI 042153Z 00000KT 10SM BKN090 21/11 A3017 RMK AO2 SLP217 T02110111=
201410042053 METAR KBFI 042053Z 30005KT 10SM BKN110 21/12 A3018 RMK AO2 SLP220 T02110117 58005=
201410041953 METAR KBFI 041953Z 32004KT 10SM BKN100 20/12 A3019 RMK AO2 SLP223 T02000122=
201410041853 METAR KBFI 041853Z 00000KT 10SM BKN095 20/12 A3020 RMK AO2 SLP225 T02000122=
201410041753 METAR KBFI 041753Z 00000KT 10SM BKN100 BKN110 18/12 A3020 RMK AO2 SLP226 T01780117 10183 20133 51007=
201410041653 METAR KBFI 041653Z COR 00000KT 10SM BKN090 BKN110 17/12 A3020 RMK AO2 SLP226 T01670117=
201410041553 METAR KBFI 041553Z 00000KT 10SM SCT095 BKN120 16/12 A3019 RMK AO2 SLP221 T01560117=
201410041453 METAR KBFI 041453Z COR 00000KT 10SM SCT100 BKN160 14/11 A3018 RMK AO2 SLP219 T01440111 55003=
201410041353 METAR KBFI 041353Z 00000KT 10SM SCT100 15/11 A3018 RMK AO2 SLP218 T01500111=
201410041253 METAR KBFI 041253Z AUTO 15003KT 10SM BKN100 15/11 A3018 RMK AO2 SLP218 T01500106 TSNO=
201410041153 METAR KBFI 041153Z AUTO 00000KT 10SM BKN110 15/11 A3019 RMK AO2 SLP221 T01500106 10161 20144 53003 TSNO=
201410041053 METAR KBFI 041053Z AUTO 00000KT 10SM SCT110 16/11 A3018 RMK AO2 SLP219 T01560111 TSNO=
201410040953 METAR KBFI 040953Z 00000KT 10SM BKN110 16/11 A3017 RMK AO2 SLP215 T01610106=
201410040853 METAR KBFI 040853Z 00000KT 10SM BKN200 16/11 A3018 RMK AO2 SLP219 T01610106 50004=
201410040753 METAR KBFI 040753Z 00000KT 10SM CLR 16/10 A3018 RMK AO2 SLP221 T01560100 402220094=
201410040653 METAR KBFI 040653Z 00000KT 10SM CLR 15/09 A3017 RMK AO2 SLP217 T01500094=
201410040553 METAR KBFI 040553Z 00000KT 10SM CLR 15/09 A3016 RMK AO2 SLP214 T01500094 10222 20144 53004=
201410040453 METAR KBFI 040453Z 00000KT 10SM CLR 16/09 A3016 RMK AO2 SLP213 T01560094=
201410040353 METAR KBFI 040353Z 00000KT 10SM CLR 17/09 A3015 RMK AO2 SLP209 T01670089=
201410040253 METAR KBFI 040253Z 34003KT 10SM CLR 18/09 A3015 RMK AO2 SLP210 T01830089 56006=
201410040153 METAR KBFI 040153Z 30003KT 10SM CLR 19/08 A3015 RMK AO2 SLP210 T01940083=
201410040053 METAR KBFI 040053Z AUTO 00000KT 10SM BKN250 21/07 A3015 RMK AO2 SLP210 T02110072=
201410032353 METAR KBFI 032353Z 30004KT 10SM SCT180 22/07 A3017 RMK AO2 SLP216 T02170067 10222 20172 57007=
201410032253 METAR KBFI 032253Z 31005KT 10SM FEW150 BKN250 22/08 A3018 RMK AO2 SLP219 T02170083=
201410032153 METAR KBFI 032153Z 34004KT 10SM FEW150 BKN250 21/09 A3018 RMK AO2 SLP220 T02110089=
201410032053 METAR KBFI 032053Z 30006KT 10SM FEW130 SCT230 21/09 A3019 RMK AO2 SLP223 T02110094 58018=
201410031953 METAR KBFI 031953Z VRB04KT 10SM FEW120 SCT250 19/09 A3022 RMK AO2 SLP232 T01940094=
201410031853 METAR KBFI 031853Z 00000KT 10SM FEW150 19/10 A3023 RMK AO2 SLP236 T01890100=
201410031753 METAR KBFI 031753Z COR 00000KT 10SM SCT220 17/10 A3024 RMK AO2 SLP241 T01720100 10172 20094 57003=
201410031653 METAR KBFI 031653Z 00000KT 10SM FEW120 15/11 A3024 RMK AO2 SLP241 T01500106=
201410031553 METAR KBFI 031553Z 00000KT 10SM CLR 13/09 A3025 RMK AO2 SLP243 T01330094=
201410031453 METAR KBFI 031453Z 00000KT 10SM CLR 11/08 A3025 RMK AO2 SLP243 T01110083 56011=
201410031353 METAR KBFI 031353Z 00000KT 10SM CLR 11/08 A3026 RMK AO2 SLP245 T01110083=
201410031253 METAR KBFI 031253Z 00000KT 10SM CLR 11/08 A3027 RMK AO2 SLP248 T01060078=
201410031153 METAR KBFI 031153Z 00000KT 10SM CLR 12/08 A3029 RMK AO2 SLP255 T01170078 10144 20111 58002=
201410031053 METAR KBFI 031053Z 00000KT 10SM CLR 12/08 A3029 RMK AO2 SLP257 T01170078=
201410030953 METAR KBFI 030953Z 00000KT 10SM CLR 12/08 A3029 RMK AO2 SLP257 T01220078=
201410030853 METAR KBFI 030853Z 00000KT 10SM CLR 13/08 A3029 RMK AO2 SLP257 T01280078 56005=
201410030753 METAR KBFI 030753Z 00000KT 10SM CLR 13/08 A3029 RMK AO2 SLP258 T01330083 402060117=
201410030653 METAR KBFI 030653Z 00000KT 10SM CLR 13/09 A3030 RMK AO2 SLP260 T01330089=
201410030553 METAR KBFI 030553Z 00000KT 10SM CLR 14/09 A3031 RMK AO2 SLP262 T01390089 10200 20133 53002=
201410030453 METAR KBFI 030453Z 00000KT 10SM CLR 15/08 A3030 RMK AO2 SLP261 T01500083=
201410030353 METAR KBFI 030353Z 00000KT 10SM CLR 16/09 A3030 RMK AO2 SLP261 T01560089=
201410030253 METAR KBFI 030253Z 00000KT 10SM SCT240 17/08 A3030 RMK AO2 SLP260 T01670078 53010=
201410030153 METAR KBFI 030153Z 30004KT 10SM SCT220 18/07 A3029 RMK AO2 SLP256 T01780072=
201410030053 METAR KBFI 030053Z 30006KT 10SM SCT220 19/06 A3028 RMK AO2 SLP253 T01890061=
201410022353 METAR KBFI 022353Z 30006KT 10SM SCT140 20/04 A3027 RMK AO2 SLP250 T02000039 10206 20172 57006=
201410022253 METAR KBFI 022253Z 30006KT 10SM FEW095 20/06 A3028 RMK AO2 SLP252 T02000061=
201410022153 METAR KBFI 022153Z 30007KT 10SM FEW030 SCT120 19/07 A3028 RMK AO2 SLP254 T01940067=
201410022053 METAR KBFI 022053Z VRB05KT 10SM FEW040 SCT110 19/09 A3029 RMK AO2 SLP256 T01890089 56005=
201410021953 METAR KBFI 021953Z 33008KT 10SM FEW040 18/09 A3029 RMK AO2 SLP258 T01780089=
201410021853 METAR KBFI 021853Z 35009KT 10SM FEW028 17/09 A3029 RMK AO2 SLP258 T01720094=
201410021753 METAR KBFI 021753Z 00000KT 10SM FEW025 17/09 A3030 RMK AO2 SLP261 T01720094 10172 20117 51010=
201410021653 METAR KBFI 021653Z 06005KT 10SM FEW040 16/09 A3030 RMK AO2 SLP260 T01610094=
201410021553 METAR KBFI 021553Z 00000KT 10SM FEW070 14/09 A3029 RMK AO2 SLP256 T01390094=
201410021453 METAR KBFI 021453Z 14003KT 10SM FEW065 12/09 A3027 RMK AO2 SLP251 T01220089 51013=
201410021353 METAR KBFI 021353Z 00000KT 10SM BKN065 13/08 A3027 RMK AO2 SLP248 T01330083=
201410021253 METAR KBFI 021253Z 00000KT 10SM BKN060 13/08 A3025 RMK AO2 SLP242 T01280083=
201410021153 METAR KBFI 021153Z 00000KT 10SM SCT065 14/08 A3024 RMK AO2 SLP238 T01390078 10156 20128 53006=
201410021053 METAR KBFI 021053Z 00000KT 10SM OVC065 15/08 A3023 RMK AO2 SLP235 T01500078=
201410020953 METAR KBFI 020953Z 00000KT 10SM OVC065 15/08 A3023 RMK AO2 SLP235 T01500083=
201410020853 METAR KBFI 020853Z VRB03KT 10SM BKN060 16/08 A3022 RMK AO2 SLP232 T01560078 51007=
201410020753 METAR KBFI 020753Z 00000KT 10SM OVC050 16/08 A3022 RMK AO2 SLP232 T01560078 401940122=
201410020653 METAR KBFI 020653Z 00000KT 10SM BKN048 OVC065 16/08 A3021 RMK AO2 SLP230 T01560078=
201410020553 METAR KBFI 020553Z 09003KT 10SM BKN070 16/08 A3020 RMK AO2 SLP225 T01560078 10194 20156 51011=
201410020453 METAR KBFI 020453Z VRB03KT 10SM BKN070 16/07 A3019 RMK AO2 SLP224 T01610072=
201410020353 METAR KBFI 020353Z VRB04KT 10SM BKN040 17/07 A3018 RMK AO2 SLP219 T01670067=
201410020253 METAR KBFI 020253Z 05006KT 10SM BKN045 BKN080 17/08 A3016 RMK AO2 SLP214 T01720078 50001=
201410020153 METAR KBFI 020153Z 00000KT 10SM BKN065 18/08 A3017 RMK AO2 SLP215 T01830083=
201410020053 METAR KBFI 020053Z 00000KT 10SM FEW025 BKN100 18/08 A3016 RMK AO2 SLP213 T01830078=
201410012353 METAR KBFI 012353Z VRB04KT 10SM SCT100 19/07 A3016 RMK AO2 SLP213 T01890072 10194 20150 56011=
201410012253 METAR KBFI 012253Z 18004KT 10SM FEW025 SCT200 19/08 A3017 RMK AO2 SLP215 T01890083=
201410012153 METAR KBFI 012153Z COR 24006KT 10SM FEW025 SCT200 19/09 A3018 RMK AO2 SLP220 T01890089=
201410012053 METAR KBFI 012053Z VRB04KT 10SM SCT019 SCT200 18/09 A3020 RMK AO2 SLP225 T01780094 58013=
201410011953 METAR KBFI 011953Z VRB03KT 10SM BKN024 17/10 A3021 RMK AO2 SLP229 T01720100=
201410011853 METAR KBFI 011853Z 13003KT 10SM OVC019 16/10 A3022 RMK AO2 SLP233 T01560100=
201410011800 SPECI KBFI 011800Z 14006KT 10SM OVC017 15/10 A3023 RMK AO2=
201410011753 METAR KBFI 011753Z 15007KT 10SM BKN012 BKN022 BKN060 16/11 A3023 RMK AO2 SLP237 T01560106 10156 20122 50007=
201410011653 METAR KBFI 011653Z 21004KT 10SM BKN012 BKN040 14/10 A3024 RMK AO2 SLP240 T01390100=
201410011553 METAR KBFI 011553Z 23003KT 10SM BKN008 BKN023 OVC055 13/11 A3023 RMK AO2 SLP235 T01330106=
201410011453 METAR KBFI 011453Z 16003KT 10SM SCT016 BKN050 13/10 A3021 RMK AO2 SLP230 T01330100 50002=
201410011404 SPECI KBFI 011404Z 00000KT 10SM SCT008 OVC011 13/11 A3021 RMK AO2=
201410011353 METAR KBFI 011353Z 00000KT 10SM OVC011 13/10 A3021 RMK AO2 SLP230 T01330100=
201410011348 SPECI KBFI 011348Z 15003KT 10SM OVC011 13/10 A3021 RMK AO2 CIG 009V013=
201410011337 SPECI KBFI 011337Z 14004KT 10SM SCT011 OVC042 13/10 A3021 RMK AO2=
201410011320 SPECI KBFI 011320Z 18003KT 10SM BKN009 BKN034 OVC042 13/10 A3021 RMK AO2=
201410011253 METAR KBFI 011253Z 16005KT 10SM SCT030 OVC042 13/10 A3021 RMK AO2 SLP228 T01280100=
201410011153 METAR KBFI 011153Z 00000KT 10SM SCT032 13/10 A3020 RMK AO2 SLP224 7//// T01330100 10161 20128 51005=
201410011053 METAR KBFI 011053Z 00000KT 10SM SCT032 13/09 A3019 RMK AO2 SLP222 T01330094=
201410010953 METAR KBFI 010953Z 00000KT 10SM BKN032 OVC080 14/10 A3019 RMK AO2 SLP222 T01440100=
201410010853 METAR KBFI 010853Z 00000KT 10SM BKN030 BKN085 14/10 A3018 RMK AO2 SLP219 T01440100 51005=
201410010755 SPECI KBFI 010755Z 00000KT 10SM FEW026 BKN036 OVC047 15/10 A3018 RMK AO2=
201410010753 METAR KBFI 010753Z 00000KT 10SM BKN026 OVC060 15/10 A3018 RMK AO2 SLP218 T01500100 402060128=
201410010653 METAR KBFI 010653Z 09004KT 10SM BKN026 OVC055 16/09 A3017 RMK AO2 SLP215 T01560094=
201410010553 METAR KBFI 010553Z 10003KT 10SM FEW028 SCT050 OVC080 16/09 A3016 RMK AO2 SLP214 T01610094 10200 20161 52013=
201410010453 METAR KBFI 010453Z 08003KT 10SM SCT050 OVC065 16/09 A3015 RMK AO2 SLP209 T01610094=
201410010353 METAR KBFI 010353Z VRB05KT 10SM OVC065 17/10 A3014 RMK AO2 SLP206 T01670100=
201410010253 METAR KBFI 010253Z 00000KT 10SM SCT050 BKN070 18/10 A3013 RMK AO2 SLP201 T01780100 53012=
201410010153 METAR KBFI 010153Z 00000KT 10SM OVC070 19/08 A3010 RMK AO2 SLP194 T01890078=
201410010053 METAR KBFI 010053Z VRB03KT 10SM FEW035 SCT050 19/09 A3009 RMK AO2 SLP189 T01940094=

###################################
#  short TAF from KBFI
###################################
201410170907 TAF KBFI 170907Z 1709/1806 13004KT P6SM BKN120 OVC200 FM171100
                       14005KT P6SM -RA BKN060 OVC120 FM171500
                       14006KT P6SM -RA OVC050 FM172200 15012KT
                       P6SM -RA BKN028 OVC050
                      TEMPO 1722/1802 4SM RA BR OVC028 FM180200
                       18010G18KT P6SM -SHRA BKN035 OVC050=

###################################
#  large TAF from KBFI
###################################
201410312329 TAF KBFI 312329Z 0100/0124 18006KT P6SM VCSH SCT019 BKN050 BKN100
                       FM010500 16004KT P6SM BKN030 OVC050 FM011000
                       00000KT P6SM SCT018 OVC030
                      TEMPO 0112/0116 5SM BR BKN007 FM011800 VRB03KT
                       P6SM BKN250=
201410312006 TAF AMD KBFI 312006Z 3120/0118 VRB06KT P6SM VCSH SCT011 OVC040
                       TEMPO 3120/3122 5SM -SHRA BR OVC012 FM312200
                       21004KT P6SM SCT015 OVC040
                      TEMPO 3122/3124 5SM -SHRA OVC030 FM010000
                       12003KT P6SM VCSH OVC030 FM010900 14002KT
                       P6SM OVC018=
201410311732 TAF KBFI 311732Z 3118/0118 33003KT P6SM -RA BKN012 OVC040
                      TEMPO 3118/3121 5SM -RA BR OVC030 FM312100
                       21004KT P6SM OVC018
                      TEMPO 3121/3124 5SM -SHRA OVC030 FM010000
                       12003KT P6SM VCSH OVC030 FM010900 14002KT
                       P6SM OVC018=
201410311509 TAF AMD KBFI 311509Z 3115/0112 VRB03KT P6SM -SHRA SCT025 OVC045
                       TEMPO 3115/3118 2SM -SHRA BR BKN006 OVC012
                       FM312000 21006KT P6SM VCSH SCT020 BKN040
                       FM010600 16006KT P6SM BKN020 OVC040=
201410311120 TAF KBFI 311120Z 3112/0112 VRB03KT P6SM -SHRA SCT025 OVC045
                      TEMPO 3112/3116 5SM -SHRA BR BKN025 OVC040
                       FM312000 21006KT P6SM VCSH SCT020 BKN040
                       FM010600 16006KT P6SM BKN020 OVC040=
201410310807 TAF AMD KBFI 310807Z 3108/0106 VRB03KT P6SM -RA SCT015 OVC040
                      TEMPO 3108/3111 4SM RA BR BKN015 OVC030 FM311200
                       16006KT P6SM SCT020 OVC040
                      TEMPO 3112/3116 5SM -SHRA BR BKN020 OVC040
                       FM312000 21006KT P6SM VCSH SCT020 BKN040
                       FM010500 16006KT P6SM BKN020 OVC040=
201410310520 TAF KBFI 310520Z 3106/0106 16006KT P6SM -SHRA SCT025 OVC050
                      TEMPO 3106/3110 -SHRA BKN025 OVC050 FM312000
                       21008KT P6SM VCSH SCT030 BKN050=
201410310302 TAF AMD KBFI 310302Z 3103/3124 16007KT P6SM -SHRA BKN012 OVC020
                       FM310600 18008KT P6SM VCSH SCT010 BKN025
                       OVC040 FM310900 18008KT 5SM -RA BR SCT012
                       OVC018 FM311600 19007KT P6SM -SHRA BKN018
                       OVC035 FM312000 19006KT P6SM VCSH BKN035=
201410302339 TAF KBFI 302339Z 3100/3124 13007KT 5SM -RA BR SCT020 OVC035 FM310800
                       VRB04KT 5SM -RA BR OVC022 FM311600 19007KT
                       P6SM -SHRA BKN018 OVC035 FM312000 19006KT
                       P6SM VCSH BKN035=
201410302043 TAF AMD KBFI 302043Z 3021/3118 10007KT 6SM -RA SCT050 OVC070
                      TEMPO 3021/3024 4SM -RA BR BKN050 OVC070
                       FM310000 15007KT 5SM -RA BR SCT020 OVC035
                       FM311100 17005KT 5SM -RA BR SCT012 OVC018
                       FM311600 18009KT P6SM -SHRA BKN018 OVC035=
201410301735 TAF KBFI 301735Z 3018/3118 00000KT P6SM -RA BKN060 OVC100 FM310000
                       15007KT P6SM -RA SCT020 OVC035 FM311100
                       17005KT 5SM -RA BR SCT012 OVC018 FM311600
                       18009KT P6SM -SHRA BKN018 OVC035=
201410301120 TAF KBFI 301120Z 3012/3112 VRB03KT P6SM -RA BKN050 OVC090 FM301700
                       12008KT P6SM -RA OVC050 FM310000 18008KT
                       P6SM -RA SCT020 OVC035 FM311100 18006KT
                       P6SM OVC018=
201410300520 TAF KBFI 300520Z 3006/3106 00000KT P6SM SCT070 BKN200 FM301000
                       VRB03KT P6SM BKN050 OVC120 FM301400 VRB03KT
                       P6SM -RA OVC050 FM302200 12006KT P6SM -RA
                       SCT020 OVC035=
201410292325 TAF KBFI 292325Z 3000/3024 19003KT P6SM FEW020 SCT080 BKN200 FM300700
                       12003KT P6SM SCT050 BKN200 FM301000 VRB03KT
                       P6SM BKN050 OVC120 FM301400 VRB03KT P6SM
                       -RA OVC050 FM302200 12006KT P6SM -RA SCT020
                       OVC035=
201410291740 TAF KBFI 291740Z 2918/3018 18008KT P6SM SCT030 SCT080 FM292300
                       13005KT P6SM SCT050 FM300700 12004KT P6SM
                       SCT050 BKN200 FM301000 VRB03KT P6SM BKN060
                       OVC120 FM301400 VRB03KT P6SM -RA OVC050=
201410291623 TAF AMD KBFI 291623Z 2916/3012 18010G16KT P6SM SCT030 SCT045 SCT110
                       FM291900 17007KT P6SM SCT025 SCT045 FM292200
                       19005KT P6SM SCT045 BKN250=
201410291120 TAF KBFI 291120Z 2912/3012 15007KT P6SM SCT025 BKN040
                      TEMPO 2912/2916 -SHRA BKN025 BKN040 FM291600
                       16008KT P6SM BKN025 BKN040 FM291900 17007KT
                       P6SM SCT025 BKN045 FM292200 19005KT P6SM
                       SCT045 BKN250=
201410290534 TAF KBFI 290534Z 2906/3006 15008KT P6SM VCSH SCT030 BKN050
                      TEMPO 2906/2909 -SHRA BKN030 BKN050 FM290900
                       16008KT P6SM VCSH BKN025 BKN045 FM291800
                       17006KT P6SM BKN045 FM292200 19005KT P6SM
                       SCT045 BKN250=
201410282322 TAF KBFI 282322Z 2900/2924 16010KT P6SM -SHRA FEW025 BKN040 BKN060
                       FM290300 19010KT P6SM -SHRA BKN025 OVC040
                       FM290600 18008KT P6SM -SHRA OVC020 FM291800
                       19008KT P6SM BKN030=
201410282102 TAF AMD KBFI 282102Z 2821/2918 18010G20KT P6SM -SHRA BKN030 BKN040
                       FM290300 19010KT P6SM -SHRA BKN025 OVC040
                       FM290600 17006KT P6SM -SHRA OVC025=
201410281732 TAF KBFI 281732Z 2818/2918 15008KT P6SM -SHRA BKN030 OVC045
                      TEMPO 2818/2819 3SM SHRA SCT009 BKN020 FM281900
                       18012G20KT P6SM -SHRA BKN030 OVC045 FM282200
                       19014G22KT P6SM -SHRA SCT025 BKN040 FM290300
                       19010KT P6SM -SHRA BKN025 OVC040 FM290600
                       17006KT P6SM -SHRA OVC025=
201410281123 TAF KBFI 281123Z 2812/2912 15006KT P6SM -RA BKN035 OVC050 FM281500
                       16008KT P6SM -RA BKN030 OVC045 FM281800
                       16010KT P6SM -SHRA BKN030 OVC045 FM282200
                       17012KT P6SM -SHRA SCT030 BKN045=
201410280535 TAF KBFI 280535Z 2806/2906 13006KT P6SM -RA OVC060 FM281200 13006KT
                       P6SM -RA OVC035 FM281500 16008KT P6SM -RA
                       BKN030 OVC045 FM281900 17010KT P6SM -SHRA
                       BKN045=
201410272332 TAF KBFI 272332Z 2800/2824 15007KT P6SM SCT040 BKN070 OVC120 FM280300
                       15009KT P6SM -RA BKN040 OVC080 FM281500
                       18010KT P6SM -SHRA BKN030 OVC050 FM282100
                       19012KT P6SM -SHRA BKN035=
201410271739 TAF KBFI 271739Z 2718/2818 13005KT P6SM SCT030 BKN120
                      TEMPO 2718/2719 FEW012 FM280000 15007KT P6SM
                       SCT040 BKN070 OVC100 FM280300 15009KT P6SM
                       -RA BKN040 OVC080=
201410271121 TAF KBFI 271121Z 2712/2812 14005KT P6SM SCT020 BKN150
                      TEMPO 2712/2716 BKN020 BKN150 FM271700 15006KT
                       P6SM SCT050 BKN120 FM280200 15008KT P6SM
                       -RA BKN050 OVC080=
201410270906 TAF AMD KBFI 270906Z 2709/2806 14003KT P6SM BKN023 FM271700 16006KT
                       P6SM SCT045 OVC120 FM280200 16008KT P6SM
                       -RA BKN040 OVC060=
201410270530 TAF KBFI 270530Z 2706/2806 VRB03KT P6SM FEW045 FM271200 14003KT
                       P6SM VCFG OVC045 FM271800 16006KT P6SM SCT045
                       OVC120 FM280200 16008KT P6SM -RA BKN040
                       OVC060=
201410262330 TAF KBFI 262330Z 2700/2724 VRB04KT P6SM VCSH SCT022 BKN040
                      TEMPO 2700/2704 30006KT FM270600 15003KT
                       P6SM BKN050 FM271300 14003KT P6SM SCT016
                       TEMPO 2713/2717 OVC016 FM271800 14004KT
                       P6SM SCT030 OVC100=
201410262100 TAF AMD KBFI 262100Z 2621/2718 VRB06KT P6SM VCSH BKN023 OVC035
                       FM262200 19008KT P6SM VCSH SCT040 BKN080
                       TEMPO 2700/2704 30006KT FM270600 15003KT
                       P6SM BKN050 FM271300 14003KT P6SM OVC016=
201410261720 TAF KBFI 261720Z 2618/2718 17012G19KT P6SM SCT030 BKN045 BKN080
                       TEMPO 2618/2622 -SHRA BKN030 BKN045 FM262200
                       19008KT P6SM VCSH SCT040 BKN080 FM270600
                       15003KT P6SM BKN050 FM271300 14003KT P6SM
                       OVC016=
201410261120 TAF KBFI 261120Z 2612/2712 20010G20KT P6SM VCSH SCT045 BKN100
                      TEMPO 2612/2616 -SHRA BKN045 BKN100 FM261800
                       18010G20KT P6SM -SHRA SCT025 BKN050 BKN100
                       FM270100 18005KT P6SM SCT050 SCT100 FM270800
                       16004KT P6SM BKN050 BKN080=
201410260536 TAF KBFI 260536Z 2606/2706 19017G30KT P6SM SCT020 BKN100
                      TEMPO 2606/2610 -SHRA SCT020 BKN040 BKN100
                       FM261200 17012KT P6SM -SHRA SCT015 BKN035
                       BKN080 FM261800 18012KT P6SM -SHRA SCT025
                       BKN050 BKN080=
201410260116 TAF AMD KBFI 260116Z 2601/2624 16017G25KT P6SM -RA OVC060
                      TEMPO 2602/2604 -RA BKN030 OVC060 FM260400
                       18020G30KT P6SM -RA BKN025 OVC060
                      TEMPO 2604/2608 19026G39KT FM261300 20012G20KT
                       P6SM -SHRA BKN015 BKN035 FM262100 21014G22KT
                       P6SM -SHRA SCT023 BKN040=
201410252330 TAF KBFI 252330Z 2600/2624 11008KT P6SM -RA SCT030 OVC060
                      TEMPO 2600/2601 5SM -RA BR BKN030 OVC060
                       FM260100 19018G27KT P6SM -RA OVC025
                      TEMPO 2604/2608 19026G39KT FM261300 20012G20KT
                       P6SM -SHRA BKN015 BKN035 FM262100 21014G22KT
                       P6SM -SHRA SCT023 BKN040=
201410251735 TAF KBFI 251735Z 2518/2618 VRB05KT P6SM SCT030 BKN090
                      TEMPO 2518/2521 -RA BKN030 OVC080 FM252100
                       09006KT P6SM -RA SCT025 OVC045
                      TEMPO 2521/2601 4SM -RA BR OVC025 FM260100
                       19016G24KT P6SM -RA OVC022
                      TEMPO 2604/2608 19024G32KT FM261300 20012G20KT
                       P6SM -SHRA BKN015 BKN035=
201410251123 TAF KBFI 251123Z 2512/2612 VRB03KT P6SM OVC090 FM251500 16007KT
                       P6SM -RA OVC045 FM252200 17007KT P6SM -RA
                       OVC025 FM260200 21015G25KT P6SM -RA BKN025
                       OVC045=
201410250543 TAF KBFI 250543Z 2506/2606 VRB03KT P6SM -RA OVC045 FM251200 VRB03KT
                       6SM BR SCT020 OVC060 FM251600 15006KT P6SM
                       -RA OVC040 FM251800 17006KT P6SM -RA OVC020
                       FM260200 20012G20KT P6SM -RA BKN025 OVC035=
201410242330 TAF KBFI 242330Z 2500/2524 30005KT P6SM OVC120 FM250400 01008KT
                       P6SM -RA OVC080 FM250700 05006KT P6SM -RA
                       OVC040 FM251300 07006KT 4SM -RA BR OVC016
                       FM251800 13006KT P6SM -RA BKN023 OVC035=
201410241725 TAF KBFI 241725Z 2418/2518 00000KT P6SM SCT130 BKN230 FM242200
                       36004KT P6SM SCT130 OVC230 FM250400 05004KT
                       P6SM -RA OVC080 FM250700 05006KT P6SM -RA
                       OVC040 FM251300 07006KT 4SM -RA BR OVC016=
201410241136 TAF KBFI 241136Z 2412/2512 VRB03KT P6SM SCT025 OVC040 FM241800
                       VRB03KT P6SM BKN060 OVC100 FM250400 11006KT
                       P6SM -RA OVC045=
201410240534 TAF KBFI 240534Z 2406/2506 13006KT P6SM SCT060 BKN100 FM240800
                       13006KT P6SM -SHRA BKN050 BKN070 FM241000
                       VRB03KT P6SM SCT060 BKN100 FM241800 VRB03KT
                       P6SM BKN100 BKN200 FM250400 02006KT P6SM
                       -RA OVC045=
201410232346 TAF KBFI 232346Z 2400/2424 19007KT P6SM VCTS SCT035CB BKN060
                      TEMPO 2400/2402 24013G23KT 3SM +SHRA OVC030
                       FM240200 17005KT P6SM VCSH FEW035 SCT060
                       BKN110 FM240600 VRB03KT P6SM SCT060 BKN110
                       FM241800 35005KT P6SM SCT110 BKN200=
201410232255 TAF AMD KBFI 232255Z 2323/2418 19013KT P6SM VCTS SCT040CB BKN060
                       TEMPO 2323/2401 19013G20KT 5SM SHRA OVC030
                       FM240100 19008KT P6SM SCT040 BKN060
                      TEMPO 2401/2404 -SHRA FM240400 15005KT P6SM
                       SCT035 BKN060 BKN110 FM241200 VRB03KT P6SM
                       SCT060 BKN110=
201410232103 TAF AMD KBFI 232103Z 2321/2418 17013KT P6SM VCTS SCT040CB BKN060
                       TEMPO 2321/2324 17013G20KT 5SM SHRA OVC030
                       FM240000 19008KT P6SM SCT040 BKN060
                      TEMPO 2400/2404 -SHRA FM240400 15005KT P6SM
                       SCT035 BKN060 BKN110 FM241200 VRB03KT P6SM
                       SCT060 BKN110=
201410231731 TAF KBFI 231731Z 2318/2418 14008KT P6SM -SHRA OVC050 FM232000 17013KT
                       P6SM VCSH SCT040 BKN060
                      TEMPO 2320/2324 17013G20KT -SHRA OVC040 FM240000
                       19008KT P6SM SCT040 BKN060
                      TEMPO 2400/2404 -SHRA FM240400 15005KT P6SM
                       SCT035 BKN060 BKN110 FM241200 VRB03KT P6SM
                       SCT060 BKN110=
201410231503 TAF AMD KBFI 231503Z 2315/2412 15013KT P6SM -SHRA SCT040 OVC060
                       TEMPO 2315/2318 BKN040 OVC060 FM231800 18008KT
                       P6SM -SHRA SCT025 BKN040 BKN060 FM240200
                       18008KT P6SM SCT040 BKN060=
201410231132 TAF KBFI 231132Z 2312/2412 16006KT P6SM -SHRA SCT040 BKN060 BKN100
                       FM231700 18008KT P6SM -SHRA SCT025 BKN040
                       BKN060 FM240200 18008KT P6SM SCT040 BKN060=
201410230538 TAF KBFI 230538Z 2306/2406 18008KT P6SM SCT035 BKN060 BKN100
                      TEMPO 2306/2308 -SHRA BKN035 OVC060 FM231700
                       18008KT P6SM -SHRA SCT025 BKN040 BKN060
                       FM240200 18008KT P6SM SCT040 BKN060=
201410230305 TAF AMD KBFI 230305Z 2303/2324 16006KT P6SM -RA BKN040 OVC060 FM230600
                       18008KT P6SM -SHRA SCT030 BKN050 BKN080
                       FM232100 19011KT P6SM -SHRA SCT035 BKN050
                       BKN090
                      PROB30 2321/2324 5SM TSRA OVC030CB=
201410222350 TAF KBFI 222350Z 2300/2324 13006KT P6SM -RA SCT022 SCT050 OVC090
                       TEMPO 2300/2302 5SM -RA BR BKN022 OVC050
                       FM230200 13006KT 5SM -RA BR BKN018 OVC035
                       FM230600 17011KT P6SM -SHRA SCT020 BKN035
                       OVC050 FM232100 19011KT P6SM -SHRA SCT035
                       BKN050 BKN090
                      PROB30 2321/2324 5SM TSRA OVC030CB=
201410222239 TAF AMD KBFI 222239Z 2223/2318 15007KT P6SM -RA SCT035 SCT050 OVC090
                       TEMPO 2223/2301 BKN035 OVC050 FM230100 15007KT
                       5SM -RA BR SCT015 BKN030 OVC050 FM230600
                       18008KT P6SM -SHRA BKN035 OVC050=
201410221909 TAF AMD KBFI 221909Z 2219/2318 15008KT 5SM -RA BR SCT008 BKN015
                       OVC030
                      TEMPO 2219/2221 2SM RA BR BKN008 OVC015 FM222100
                       15010KT 5SM -RA BR SCT015 OVC028 FM230600
                       18008KT P6SM -SHRA BKN035 OVC050=
201410221720 TAF KBFI 221720Z 2218/2318 15008KT 6SM -RA BR SCT015 BKN028 OVC045
                       TEMPO 2218/2220 2SM RA BR FM222000 15010KT
                       5SM -RA BR SCT015 OVC028 FM230600 18008KT
                       P6SM -SHRA BKN035 OVC050=
201410221521 TAF AMD KBFI 221521Z 2215/2312 17008KT P6SM SCT028 OVC040
                      TEMPO 2215/2218 -SHRA BKN028 OVC040 FM222200
                       15008KT P6SM -RA OVC040 FM230600 18006KT
                       P6SM VCSH OVC040=
201410221120 TAF KBFI 221120Z 2212/2312 16010KT P6SM -RA OVC050 FM221400 16010KT
                       P6SM -RA OVC045 FM222200 15008KT P6SM -RA
                       OVC040 FM230600 18006KT P6SM VCSH OVC040=
201410220520 TAF KBFI 220520Z 2206/2306 14008KT P6SM -RA OVC050 FM220900 16012KT
                       P6SM RA OVC035 FM221400 16012G20KT P6SM
                       RA OVC030 FM222200 15010KT 6SM RA BR OVC025=
201410220254 TAF AMD KBFI 220254Z 2203/2224 15012KT P6SM OVC060 FM220400 15010KT
                       P6SM -RA OVC045 FM220900 16012G20KT P6SM
                       -RA OVC030 FM221800 17010KT P6SM -SHRA BKN030
                       OVC060=
201410212320 TAF KBFI 212320Z 2200/2224 17012KT P6SM BKN040 OVC060 FM220300
                       15010KT P6SM -RA OVC030 FM220900 16012G20KT
                       P6SM -RA OVC030 FM221800 17010KT P6SM -SHRA
                       BKN030 OVC060=
201410211723 TAF KBFI 211723Z 2118/2218 17012KT P6SM FEW050 SCT080 BKN150
                      TEMPO 2118/2121 -SHRA SCT030 BKN045 FM220300
                       15010KT P6SM -RA OVC045 FM220900 16012G20KT
                       P6SM -RA OVC030=
201410211120 TAF KBFI 211120Z 2112/2212 15005KT P6SM -SHRA OVC050 FM211600 16006KT
                       P6SM VCSH OVC060 FM220000 15009KT P6SM -RA
                       OVC035 FM220900 16010G18KT P6SM -RA OVC030=
201410211039 TAF AMD KBFI 211039Z 2111/2206 16005KT P6SM -SHRA OVC045 FM211900
                       17008KT P6SM BKN040 FM220000 16010KT P6SM
                       -RA OVC040=
201410210529 TAF KBFI 210529Z 2106/2206 16006KT P6SM VCSH BKN035 BKN060
                      TEMPO 2106/2110 -SHRA OVC030 FM211000 16005KT
                       P6SM BKN030 FM211900 17008KT P6SM BKN040
                       FM220000 16010KT P6SM -RA OVC040=
201410210344 TAF AMD KBFI 210344Z 2104/2124 15006KT P6SM VCTS SCT035 BKN060CB
                       TEMPO 2104/2105 VRB06KT 5SM SHRA BKN035
                       BKN060 FM210500 16006KT P6SM VCSH SCT035
                       BKN060 FM210800 16007KT P6SM BKN040 FM212000
                       17011KT P6SM BKN040=
201410210214 TAF AMD KBFI 210214Z 2102/2124 15006KT P6SM VCSH SCT035 BKN060
                       TEMPO 2102/2104 -SHRA BKN035 FM210600 16007KT
                       P6SM BKN040 FM212000 17011KT P6SM BKN040=
201410202324 TAF KBFI 202324Z 2100/2124 18006KT P6SM VCSH SCT035 BKN060
                      TEMPO 2100/2103 -SHRA BKN035 FM210300 15004KT
                       P6SM VCSH SCT035 BKN050 FM210600 16007KT
                       P6SM BKN040 FM212000 17011KT P6SM BKN040=
201410201727 TAF KBFI 201727Z 2018/2118 18006KT P6SM SCT035 BKN060 FM202000
                       18006KT P6SM -SHRA SCT035 BKN050 FM210300
                       15004KT P6SM VCSH SCT035 BKN050 FM210600
                       VRB03KT P6SM OVC035=
201410201120 TAF KBFI 201120Z 2012/2112 13005KT P6SM -RA SCT035 OVC050
                      TEMPO 2013/2016 6SM -RA BR OVC030 FM201800
                       18006KT P6SM -SHRA SCT035 BKN050 FM210000
                       15004KT P6SM -SHRA SCT035 BKN050 FM210400
                       VRB03KT P6SM VCSH OVC035=
201410200520 TAF KBFI 200520Z 2006/2106 16005KT P6SM SCT050 OVC100 FM200900
                       16006KT P6SM -RA OVC050 FM201200 16008KT
                       P6SM -RA BKN025 OVC045 FM201900 19006KT
                       P6SM -SHRA SCT030 BKN050 FM210000 18004KT
                       P6SM -SHRA SCT030 BKN050 FM210400 VRB03KT
                       P6SM VCSH OVC030=
201410192321 TAF KBFI 192321Z 2000/2024 19008KT P6SM FEW040 SCT070 FM200500
                       16005KT P6SM BKN050 OVC150 FM200700 16006KT
                       P6SM -RA OVC050 FM201100 18008KT P6SM -RA
                       BKN025 OVC045 FM202000 19006KT P6SM -SHRA
                       SCT030 BKN050=
201410191722 TAF KBFI 191722Z 1918/2018 16006KT P6SM FEW070 BKN120 FM200300
                       16005KT P6SM OVC050
                      PROB30 2004/2008 -RA FM200800 16006KT P6SM
                       -RA OVC050 FM201400 18008KT P6SM -RA BKN025
                       OVC045=
201410191630 TAF AMD KBFI 191630Z 1917/2012 15008KT P6SM SCT060 BKN100 FM192000
                       17008KT P6SM SCT050 BKN150 FM200600 15005KT
                       P6SM -RA OVC050=
201410191120 TAF KBFI 191120Z 1912/2012 VRB03KT P6SM SCT070 BKN150
                      TEMPO 1913/1916 14003KT 3SM BR OVC006 FM191600
                       14004KT 5SM BR BKN010 OVC150 FM191700 15005KT
                       P6SM SCT070 OVC150 FM192000 17005KT P6SM
                       SCT050 BKN150 FM200600 15005KT P6SM -RA
                       OVC050=
201410190715 TAF AMD KBFI 190715Z 1907/2006 VRB03KT P6SM SCT070 BKN150 FM191400
                       14003KT 3SM BR OVC006 FM191700 14004KT 5SM
                       BR BKN010 OVC150 FM191800 15005KT P6SM SCT070
                       OVC150 FM192000 17005KT P6SM SCT050 BKN150=
201410190525 TAF KBFI 190525Z 1906/2006 VRB03KT P6SM SCT070 BKN150 FM192000
                       17005KT P6SM SCT050 BKN150=
201410182320 TAF KBFI 182320Z 1900/1924 09004KT P6SM SCT025 BKN070
                      TEMPO 1900/1903 BKN025 OVC070 FM190400 11004KT
                       P6SM SCT045 BKN150 FM192000 17005KT P6SM
                       SCT050 BKN150=
201410181721 TAF KBFI 181721Z 1818/1918 16005KT P6SM SCT010 BKN030 OVC045
                      TEMPO 1818/1820 5SM -SHRA BR BKN010 OVC030
                       FM182200 21006KT P6SM SCT035 BKN045 BKN150
                       FM190300 11004KT P6SM SCT045 BKN150=
201410181609 TAF AMD KBFI 181609Z 1816/1912 14009KT P6SM SCT008 BKN012 BKN035
                       TEMPO 1816/1818 SCT015 BKN040 FM181800 18005KT
                       P6SM SCT025 BKN040 FM182100 21006KT P6SM
                       SCT035 BKN045 BKN150 FM190300 11004KT P6SM
                       SCT045 BKN150=
201410181120 TAF KBFI 181120Z 1812/1912 12005KT P6SM VCSH SCT025 OVC035
                      TEMPO 1812/1816 3SM -SHRA BKN025 FM181700
                       18005KT P6SM SCT030 BKN040 FM182100 21006KT
                       P6SM SCT035 BKN045 BKN150 FM190300 11004KT
                       P6SM SCT045 BKN150=
201410180524 TAF KBFI 180524Z 1806/1906 15005KT P6SM -RA OVC035 FM181000 15005KT
                       P6SM VCSH OVC025 FM181700 15005KT P6SM SCT020
                       BKN030 FM182100 19005KT P6SM SCT030 BKN040
                       FM190300 12004KT P6SM SCT045=
201410172335 TAF KBFI 172335Z 1800/1824 13005KT P6SM -RA SCT030 OVC045 FM180800
                       16005KT P6SM -SHRA SCT015 OVC025 FM181200
                       15005KT P6SM VCSH SCT010 BKN015 OVC020 FM181700
                       15005KT P6SM SCT015 BKN025 FM182100 19005KT
                       P6SM SCT030 BKN040=
201410171741 TAF KBFI 171741Z 1718/1818 13004KT P6SM -RA SCT050 OVC080 FM172200
                       14005KT P6SM -RA SCT040 OVC050 FM180100
                       15007KT P6SM -SHRA SCT030 OVC040 FM181000
                       16005KT P6SM -SHRA SCT015 OVC025 FM181300
                       15005KT P6SM VCSH SCT010 BKN015 OVC020 FM181700
                       15005KT P6SM SCT015 BKN025=
201410171121 TAF KBFI 171121Z 1712/1812 14004KT P6SM -RA BKN060 OVC120 FM171500
                       14006KT P6SM -RA OVC050 FM172200 15012KT
                       P6SM -RA BKN028 OVC050
                      TEMPO 1722/1802 5SM -RA BR OVC028 FM180200
                       18010G18KT P6SM -SHRA BKN035 OVC050 FM180600
                       16008KT P6SM VCSH OVC030=
201410170907 TAF AMD KBFI 170907Z 1709/1806 13004KT P6SM BKN120 OVC200 FM171100
                       14005KT P6SM -RA BKN060 OVC120 FM171500
                       14006KT P6SM -RA OVC050 FM172200 15012KT
                       P6SM -RA BKN028 OVC050
                      TEMPO 1722/1802 4SM RA BR OVC028 FM180200
                       18010G18KT P6SM -SHRA BKN035 OVC050=
201410170539 TAF KBFI 170539Z 1706/1806 13004KT P6SM BKN120 OVC200 FM171300
                       14005KT P6SM BKN080 OVC120 FM171500 14006KT
                       P6SM -RA OVC050 FM172200 15012KT P6SM -RA
                       BKN028 OVC050
                      TEMPO 1722/1802 4SM RA BR OVC028 FM180200
                       18010G18KT P6SM -SHRA BKN035 OVC050=
201410162333 TAF KBFI 162333Z 1700/1724 29005KT P6SM SCT090 SCT250 FM170500
                       12003KT P6SM BKN090 OVC200 FM171300 13004KT
                       P6SM -RA OVC050 FM171600 12004KT P6SM -RA
                       BKN030 OVC050 FM172200 13010KT P6SM -RA
                       BKN030 OVC050=
201410161728 TAF KBFI 161728Z 1618/1718 15004KT P6SM BKN070 BKN100 BKN200 FM162100
                       VRB03KT P6SM BKN200 FM170500 12003KT P6SM
                       BKN090 OVC200 FM171300 13004KT P6SM -RA
                       OVC050 FM171600 12004KT 6SM -RA BKN030 OVC050=
201410161122 TAF KBFI 161122Z 1612/1712 15005KT P6SM SCT040 BKN080 FM161800
                       17006KT P6SM SCT045 BKN120 BKN200 FM170400
                       15005KT P6SM BKN100 OVC150 FM171000 13004KT
                       P6SM BKN070 OVC100=
201410160532 TAF KBFI 160532Z 1606/1706 14008KT P6SM -SHRA SCT040 BKN070 FM161000
                       14006KT P6SM BKN035 FM161800 14004KT P6SM
                       SCT045 BKN200 FM170400 13005KT P6SM BKN100
                       OVC150=
201410152331 TAF KBFI 152331Z 1600/1624 18012G17KT P6SM VCSH SCT021 BKN029 BKN110
                       FM160300 17010KT P6SM BKN030 BKN060 FM161300
                       15004KT P6SM BKN050 FM161700 20005KT P6SM
                       SCT050 BKN200=
201410151727 TAF KBFI 151727Z 1518/1618 14008KT P6SM -SHRA FEW040 SCT050 OVC060
                       FM152100 20010G20KT P6SM -SHRA BKN045 OVC060
                       FM160300 18007KT P6SM VCSH BKN040=
201410151501 TAF AMD KBFI 151501Z 1515/1612 15003KT P6SM -SHRA SCT040 OVC050
                       TEMPO 1515/1519 4SM -SHRA BR OVC035 FM152100
                       20010G20KT P6SM -SHRA BKN045 OVC060 FM160300
                       18007KT P6SM VCSH BKN040=
201410151123 TAF KBFI 151123Z 1512/1612 14004KT P6SM -SHRA BKN050 OVC080 FM151700
                       19009KT P6SM -SHRA BKN050 BKN070 FM152100
                       20015G25KT P6SM -SHRA BKN045 OVC060 FM160300
                       18007KT P6SM VCSH BKN040=
201410150527 TAF KBFI 150527Z 1506/1606 VRB05KT P6SM VCSH SCT040 BKN050 BKN090
                       FM150700 16004KT P6SM -SHRA BKN040 OVC060
                       FM151700 19009KT P6SM -SHRA OVC035 FM152100
                       21012KT P6SM VCSH BKN040=
201410142320 TAF KBFI 142320Z 1500/1524 15005KT P6SM SCT030 BKN070 OVC110
                      TEMPO 1503/1506 -SHRA BKN030 FM150600 14004KT
                       P6SM -SHRA OVC030 FM151700 18008KT P6SM
                       -SHRA OVC020 FM152100 18008KT P6SM VCSH
                       BKN030
                      TEMPO 1521/1524 -SHRA BKN025=
201410141730 TAF KBFI 141730Z 1418/1518 14006KT P6SM SCT020 BKN080 FM142200
                       16005KT P6SM VCSH SCT020 BKN040 OVC080 FM150000
                       15005KT P6SM VCSH SCT030 BKN070 OVC110
                      TEMPO 1502/1506 -SHRA BKN030 FM150600 14004KT
                       P6SM -SHRA OVC030 FM151700 18008KT P6SM
                       -SHRA OVC020=
201410141301 TAF AMD KBFI 141301Z 1413/1512 12005KT P6SM VCSH FEW050 BKN080
                       OVC100
                      TEMPO 1413/1417 5SM -SHRA BR BKN017 OVC020
                       FM141800 19006KT P6SM VCSH BKN025 BKN040
                       FM142200 16005KT P6SM -SHRA SCT025 BKN040
                       OVC070 FM150000 15005KT P6SM -SHRA SCT030
                       BKN070 OVC110 FM150600 18004KT P6SM -SHRA
                       OVC030=
201410141126 TAF KBFI 141126Z 1412/1512 17007KT 6SM -RA BR FEW010 OVC025
                      TEMPO 1412/1414 4SM -RA BR BKN010 BKN015
                       FM141800 19006KT P6SM VCSH BKN025 BKN040
                       FM142200 16005KT P6SM -SHRA SCT025 BKN040
                       OVC070 FM150000 15005KT P6SM -SHRA SCT030
                       BKN070 OVC110 FM150600 18004KT P6SM -SHRA
                       OVC030=
201410140527 TAF KBFI 140527Z 1406/1506 18007KT P6SM -RA OVC035
                      TEMPO 1406/1410 4SM RA BR BKN012 OVC025 FM141000
                       VRB03KT 6SM -RA BR FEW009 OVC015 FM141800
                       18003KT P6SM -RA BKN022 OVC040 FM142100
                       18003KT P6SM VCSH SCT030 BKN045 OVC070=
201410140304 TAF AMD KBFI 140304Z 1403/1424 22010G20KT P6SM -RA BKN035 OVC080
                       FM140600 16007KT P6SM -RA OVC030 FM141200
                       VRB03KT 6SM -RA BR FEW009 OVC015 FM141800
                       18003KT P6SM -RA BKN022 OVC040 FM142100
                       18003KT P6SM -RA SCT030 BKN045 OVC070=
201410132332 TAF KBFI 132332Z 1400/1424 18010KT P6SM -RA SCT030 OVC050
                      TEMPO 1400/1402 18012G20KT FM140300 16007KT
                       P6SM -RA FEW015 OVC030 FM141200 VRB03KT
                       6SM -RA BR FEW009 OVC015 FM141800 VRB03KT
                       P6SM -RA BKN022 OVC040 FM142100 VRB03KT
                       P6SM -RA SCT030 BKN045 OVC070=
201410132259 TAF AMD KBFI 132259Z 1323/1418 17010KT P6SM VCSH BKN050 OVC110
                       FM140000 18013G20KT P6SM -RA SCT030 OVC050
                       FM140300 16007KT P6SM -RA FEW015 OVC030
                       FM141200 VRB03KT 6SM -RA BR FEW009 OVC015=
201410132102 TAF AMD KBFI 132102Z 1321/1418 16013KT P6SM SCT050 BKN110 OVC200
                       FM132200 18013G20KT P6SM VCSH BKN050 OVC110
                       FM140000 18012KT P6SM -RA SCT030 OVC050
                       FM140300 16007KT P6SM -RA FEW015 OVC030
                       FM141200 VRB03KT 6SM -RA BR FEW009 OVC015=
201410131746 TAF KBFI 131746Z 1318/1418 15006KT P6SM SCT110 OVC200 FM132100
                       18013G20KT P6SM VCSH SCT050 OVC110 FM140000
                       18012KT P6SM -RA SCT030 OVC050 FM140300
                       16007KT P6SM -RA FEW015 OVC030 FM141200
                       VRB03KT 6SM -RA BR FEW009 OVC015=
201410131518 TAF AMD KBFI 131518Z 1315/1412 VRB03KT P6SM SCT110 OVC200 FM131800
                       17008KT P6SM SCT080 BKN150 FM132100 20012KT
                       P6SM BKN050 OVC080 FM140000 20015G25KT P6SM
                       -RA OVC050 FM140500 18008KT P6SM -RA OVC025=
201410131129 TAF KBFI 131129Z 1312/1412 12004KT P6SM SCT080 BKN120 OVC150 FM131600
                       17008KT P6SM SCT080 BKN150 FM132100 20012KT
                       P6SM BKN050 OVC080 FM140000 20015G25KT P6SM
                       -RA OVC050 FM140500 18008KT P6SM -RA OVC025=
201410130521 TAF KBFI 130521Z 1306/1406 19005KT P6SM BKN100 OVC150 FM131600
                       15006KT P6SM SCT080 BKN200 FM132200 18012KT
                       P6SM -RA OVC050=
201410122320 TAF KBFI 122320Z 1300/1324 19005KT P6SM BKN100 OVC150 FM130600
                       14003KT P6SM OVC080 FM131600 15006KT P6SM
                       SCT080 BKN200 FM132200 18012KT P6SM -RA
                       OVC050=
201410122031 TAF AMD KBFI 122031Z 1221/1318 20006KT P6SM BKN040 BKN120 FM130000
                       19004KT P6SM BKN050 OVC100 FM130600 14003KT
                       P6SM OVC080=
201410121741 TAF KBFI 121741Z 1218/1318 15005KT P6SM BKN010 OVC025
                      TEMPO 1218/1221 SCT010 BKN025 OVC150 FM122100
                       20005KT P6SM BKN035 OVC120 FM130000 19004KT
                       P6SM BKN050 OVC100 FM130600 14003KT P6SM
                       OVC080=
201410121121 TAF KBFI 121121Z 1212/1312 13005KT P6SM BKN019 BKN080 FM121800
                       21006KT P6SM SCT030 BKN040 BKN120 FM122200
                       18005KT P6SM BKN050 BKN120 FM130300 13005KT
                       P6SM BKN030 BKN050 OVC100=
201410120521 TAF KBFI 120521Z 1206/1306 VRB04KT P6SM SCT025 BKN080
                      TEMPO 1206/1209 BKN025 FM120900 14003KT P6SM
                       OVC018 FM121200 00000KT P6SM OVC010 FM121800
                       17004KT P6SM SCT020 BKN035 FM122200 25004KT
                       P6SM BKN050 BKN120=
201410112342 TAF KBFI 112342Z 1200/1224 VRB03KT P6SM SCT025 BKN100 FM120600
                       15004KT P6SM BKN025 OVC060 FM120900 14003KT
                       P6SM OVC018 FM121200 00000KT P6SM OVC010
                       FM121800 17004KT P6SM SCT020 BKN035 FM122200
                       25004KT P6SM BKN050 BKN120=
201410111741 TAF KBFI 111741Z 1118/1218 19008KT P6SM -SHRA BKN020 OVC035
                      TEMPO 1118/1121 2SM SHRA BKN010 OVC020 FM112100
                       19010KT P6SM -SHRA BKN025 BKN035 FM112300
                       19012KT P6SM VCSH SCT025 BKN045 BKN100 FM120200
                       20006KT P6SM VCSH BKN030 OVC060 FM120900
                       16005KT P6SM BKN012 OVC020 FM121700 17005KT
                       P6SM SCT025 BKN040=
201410111505 TAF AMD KBFI 111505Z 1115/1212 15007KT P6SM BKN020 OVC030 FM111800
                       18008KT P6SM VCSH BKN025 OVC040 FM112100
                       19010KT P6SM VCSH SCT025 BKN035 BKN100 FM120000
                       23007KT P6SM VCSH BKN030 OVC060=
201410111120 TAF KBFI 111120Z 1112/1212 14007KT P6SM SCT008 OVC016
                      TEMPO 1112/1116 BKN008 FM111800 18008KT P6SM
                       OVC025 FM112100 19010KT P6SM SCT025 BKN035
                       BKN100 FM120000 23007KT P6SM VCSH BKN030
                       OVC060=
201410110520 TAF KBFI 110520Z 1106/1206 16008KT P6SM VCSH BKN060 OVC100 FM110900
                       15007KT P6SM OVC016 FM111800 18008KT P6SM
                       OVC025 FM112100 19010KT P6SM SCT025 BKN035
                       BKN100=
201410102340 TAF KBFI 102340Z 1100/1124 16012G18KT P6SM SCT025 BKN060 BKN100
                       FM110200 16008KT P6SM BKN060 OVC100 FM110600
                       16007KT P6SM BKN025 OVC040 FM110900 15007KT
                       P6SM OVC016 FM111200 18005KT 5SM BR BKN010
                       OVC015 FM111800 18008KT P6SM OVC025 FM112100
                       19010KT P6SM SCT025 BKN035 BKN100=
201410102049 TAF AMD KBFI 102049Z 1021/1118 15010KT P6SM SCT015 BKN150 FM110600
                       18007KT P6SM BKN020 OVC045 FM111000 18008KT
                       P6SM OVC015=
201410101908 TAF AMD KBFI 101908Z 1019/1118 16010KT P6SM OVC012 FM102000 18010KT
                       P6SM BKN016 OVC120 FM102300 18008KT P6SM
                       BKN025 OVC100 FM110600 18007KT P6SM BKN020
                       OVC045 FM111000 18008KT P6SM OVC015=
201410101808 TAF AMD KBFI 101808Z 1018/1118 16010KT P6SM OVC007 FM102000 18010KT
                       P6SM BKN014 OVC120 FM102300 18008KT P6SM
                       BKN025 OVC100 FM110600 18007KT P6SM BKN020
                       OVC045 FM111000 18008KT P6SM OVC015=
201410101742 TAF KBFI 101742Z 1018/1118 15008KT 4SM BR BKN004 BKN150 FM102000
                       18008KT 6SM BR BKN006 OVC150 FM102100 18007KT
                       P6SM BKN015 OVC100 FM102300 18007KT P6SM
                       BKN025 OVC100 FM110600 18007KT P6SM BKN020
                       OVC045 FM111000 18008KT P6SM OVC015=
201410101430 TAF AMD KBFI 101430Z 1015/1112 16005KT 3/4SM BR VV002 FM101700
                       15006KT 2SM BR BKN004 BKN150 FM101900 17008KT
                       P6SM BKN020 OVC100 FM102300 17008KT P6SM
                       SCT020 BKN030 OVC045=
201410101120 TAF KBFI 101120Z 1012/1112 00000KT 1/4SM FG VV001 FM101700 15006KT
                       2SM BR BKN004 BKN150 FM101900 17008KT P6SM
                       BKN020 OVC100 FM102300 17008KT P6SM SCT020
                       BKN030 OVC045=
201410100540 TAF KBFI 100540Z 1006/1106 00000KT P6SM SCT200
                      TEMPO 1009/1010 3SM BR FM101000 00000KT 3SM
                       BR OVC003 FM101700 16005KT 3SM BR BKN006
                       BKN150 FM101900 16005KT P6SM BKN020 OVC100
                       FM102300 16008KT P6SM SCT015 BKN025 OVC040=
201410092330 TAF KBFI 092330Z 1000/1024 32004KT P6SM SCT200
                      TEMPO 1004/1007 3SM BR FM100700 00000KT 3SM
                       BR OVC003 FM101700 16005KT 3SM BR BKN003
                       BKN150 FM102000 16005KT P6SM BKN015 BKN100
                       FM102300 16008KT P6SM -DZ OVC025=
201410091720 TAF KBFI 091720Z 0918/1018 VRB03KT 6SM HZ OVC008
                      TEMPO 0918/0921 3SM BR OVC005 FM092100 36005KT
                       6SM HZ SCT200
                      TEMPO 1005/1008 2SM BR BKN005 FM100800 00000KT
                       2SM BR OVC004 FM101700 15005KT 5SM BR BKN005
                       BKN150=
201410091120 TAF KBFI 091120Z 0912/1012 00000KT 5SM BR OVC004 FM091900 34003KT
                       6SM BR BKN006 FM092000 32005KT 6SM HZ SKC
                       FM100300 00000KT 6SM HZ SKC FM101000 00000KT
                       4SM BR OVC005=
201410090729 TAF AMD KBFI 090729Z 0907/1006 00000KT P6SM FEW002 BKN005 FM090900
                       00000KT 3SM BR OVC003 FM091900 34003KT 6SM
                       BR BKN006 FM092000 32005KT P6SM SKC FM100300
                       00000KT P6SM SKC=
201410090712 TAF AMD KBFI 090712Z 0907/1006 00000KT P6SM SCT005 FM090900 00000KT
                       3SM BR OVC003 FM091900 34003KT 6SM BR BKN006
                       FM092000 32005KT P6SM SKC FM100300 00000KT
                       P6SM SKC=
201410090520 TAF KBFI 090520Z 0906/1006 00000KT P6SM SKC FM090900 00000KT 5SM
                       BR SCT006 FM091000 00000KT 3SM BR OVC003
                       FM091900 34003KT 6SM BR BKN006 FM092000
                       32005KT P6SM SKC FM100300 00000KT P6SM SKC=
201410082320 TAF KBFI 082320Z 0900/0924 34006KT P6SM SCT150 FM091000 00000KT
                       5SM BR SCT005
                      TEMPO 0914/0916 1SM BR OVC003 FM091700 34006KT
                       P6SM SKC=
201410082007 TAF AMD KBFI 082007Z 0820/0918 31007KT P6SM BKN150 FM090000 34007KT
                       P6SM SCT150 FM091000 00000KT 5SM BR SCT005
                       TEMPO 0914/0916 1SM BR OVC003 FM091700 35007KT
                       P6SM SKC=
201410081720 TAF KBFI 081720Z 0818/0918 VRB03KT P6SM BKN015 BKN150 FM082100
                       34006KT P6SM SCT020 BKN150 FM090300 VRB03KT
                       P6SM SCT150 FM091000 00000KT 5SM BR SCT005
                       TEMPO 0914/0916 1SM BR OVC003 FM091700 35007KT
                       P6SM SKC=
201410081252 TAF AMD KBFI 081252Z 0813/0912 00000KT 6SM BR BKN007 OVC150 FM081500
                       00000KT P6SM VCFG BKN010 BKN150 FM082000
                       VRB03KT P6SM SCT015 BKN120 FM082200 VRB03KT
                       P6SM BKN120 FM090300 00000KT P6SM SCT120
                       FM091000 00000KT 3SM BR OVC003=
201410081120 TAF KBFI 081120Z 0812/0912 32003KT 3SM BR OVC003 FM081500 00000KT
                       5SM BR BKN009 BKN150 FM082000 00000KT P6SM
                       SCT015 BKN120 FM082200 35006KT P6SM BKN120
                       FM090300 00000KT P6SM SCT120 FM091000 00000KT
                       3SM BR OVC003=
201410081007 TAF AMD KBFI 081007Z 0810/0906 30003KT 3SM BR OVC003 FM081500 00000KT
                       5SM BR OVC009 FM082000 00000KT P6SM SCT015
                       BKN120 FM082200 35006KT P6SM BKN150 FM090300
                       00000KT P6SM SCT120=
201410080821 TAF AMD KBFI 080821Z 0808/0906 32004KT 4SM BR OVC003 FM081000 00000KT
                       5SM BR OVC008 FM081400 00000KT 5SM BR OVC010
                       FM082000 00000KT P6SM SCT015 BKN120 FM082200
                       35006KT P6SM BKN150 FM090300 00000KT P6SM
                       SCT120=
201410080650 TAF AMD KBFI 080650Z 0807/0906 32005KT 5SM BR BKN003 OVC035 FM080800
                       00000KT 3SM BR BKN003 BKN035 FM081400 00000KT
                       5SM BR BKN008 BKN120 FM082000 00000KT P6SM
                       SCT015 BKN120 FM082200 35006KT P6SM BKN150
                       FM090300 00000KT P6SM SCT120=
201410080520 TAF KBFI 080520Z 0806/0906 31004KT P6SM BKN035 OVC045 FM080800
                       00000KT 3SM BR BKN006 BKN035 FM081400 00000KT
                       5SM BR BKN008 BKN120 FM082000 00000KT P6SM
                       SCT015 BKN120 FM082200 35006KT P6SM BKN150
                       FM090300 00000KT P6SM SCT120=
201410080303 TAF AMD KBFI 080303Z 0803/0824 VRB06KT P6SM OVC035 FM080700 00000KT
                       3SM BR BKN004 BKN025 FM081400 00000KT 5SM
                       BR BKN008 BKN120 FM082000 00000KT P6SM SCT015
                       BKN120 FM082200 35006KT P6SM BKN150=
201410080252 TAF AMD KBFI 080252Z 0803/0824 00000KT P6SM OVC030 FM080700 00000KT
                       3SM BR BKN004 BKN025 FM082000 00000KT P6SM
                       SCT015 BKN200 FM082200 35006KT P6SM BKN150=
201410072320 TAF KBFI 072320Z 0800/0824 00000KT P6SM SCT015
                      TEMPO 0804/0807 5SM BR BKN010 FM080700 00000KT
                       3SM BR OVC003 FM082000 00000KT P6SM SCT015
                       BKN200 FM082200 35006KT P6SM BKN150=
201410072002 TAF AMD KBFI 072002Z 0720/0818 00000KT 6SM HZ BKN010 FM072130 VRB03KT
                       P6SM SCT015 FM080600 00000KT 5SM BR OVC003=
201410071720 TAF KBFI 071720Z 0718/0818 00000KT 5SM BR OVC006
                      TEMPO 0718/0720 3SM BR OVC003 FM072000 VRB03KT
                       P6SM SCT015 FM072200 34004KT P6SM SKC FM080900
                       00000KT 5SM BR OVC003=
201410071508 TAF AMD KBFI 071508Z 0715/0812 31004KT 5SM BR OVC005
                      TEMPO 0715/0718 1SM BR OVC003 FM071800 VRB03KT
                       P6SM BKN008 FM072000 34004KT P6SM FEW015
                       FM072100 34004KT P6SM SKC FM080300 00000KT
                       P6SM SKC FM081000 00000KT P6SM SCT008 SCT150=
201410071350 TAF AMD KBFI 071350Z 0714/0812 00000KT 6SM BR OVC005 FM071800 VRB03KT
                       P6SM BKN008 FM072000 34004KT P6SM FEW015
                       FM072100 34004KT P6SM SKC FM080300 00000KT
                       P6SM SKC FM081000 00000KT P6SM SCT008 SCT150=
201410071134 TAF AMD KBFI 071134Z 0712/0812 33004KT 6SM BR BKN003 FM071800 VRB03KT
                       P6SM BKN008 FM072000 34004KT P6SM FEW015
                       FM072100 34004KT P6SM SKC FM080300 00000KT
                       P6SM SKC FM081000 00000KT P6SM SCT008 SCT150=
201410071120 TAF KBFI 071120Z 0712/0812 00000KT P6SM FEW003 FM071230 00000KT
                       6SM BR OVC004 FM071800 VRB03KT P6SM BKN008
                       FM072000 34004KT P6SM FEW015 FM072100 34004KT
                       P6SM SKC FM080300 00000KT P6SM SKC FM081000
                       00000KT P6SM SCT008 SCT150=
201410071000 TAF AMD KBFI 071000Z 0710/0806 00000KT P6SM SKC FM071200 00000KT
                       2SM BR OVC004 FM071800 VRB03KT P6SM BKN008
                       FM072000 34004KT P6SM FEW015 FM072100 34004KT
                       P6SM SKC FM080300 00000KT P6SM SKC=
201410070524 TAF KBFI 070524Z 0706/0806 00000KT P6SM SKC FM071000 00000KT 5SM
                       BR BKN006 FM071300 00000KT 2SM BR OVC004
                       FM071800 VRB03KT P6SM BKN008 FM072000 34004KT
                       P6SM FEW015 FM072100 34004KT P6SM SKC FM080300
                       00000KT P6SM SKC=
201410062320 TAF KBFI 062320Z 0700/0724 33007KT P6SM SKC FM071000 35005KT 5SM
                       BR BKN005
                      TEMPO 0712/0716 2SM BR OVC003 FM071700 VRB03KT
                       P6SM BKN008 FM071900 35005KT P6SM SCT015
                       FM072100 35005KT P6SM SKC=
201410061733 TAF KBFI 061733Z 0618/0718 VRB03KT P6SM SKC FM071000 35005KT 5SM
                       BR OVC007
                      TEMPO 0712/0716 2SM BR OVC003 FM071700 35005KT
                       P6SM BKN010=
201410061534 TAF AMD KBFI 061534Z 0616/0712 00000KT P6SM VCFG SCT005 FM061800
                       02003KT P6SM SCT200 FM070800 35005KT 5SM
                       BR BKN005 FM071100 VRB03KT 5SM BR OVC005=
201410061337 TAF AMD KBFI 061337Z 0614/0712 00000KT P6SM VCFG OVC005 FM061700
                       00000KT P6SM BKN006 FM061800 02003KT P6SM
                       SCT050 BKN200
                      TEMPO 0618/0622 BKN050 BKN200 FM071000 03003KT
                       P6SM OVC007=
201410061151 TAF AMD KBFI 061151Z 0612/0712 00000KT P6SM VCFG OVC006 FM061300
                       00000KT 3SM BR OVC004 FM061700 00000KT P6SM
                       BKN006 FM061800 02003KT P6SM SCT050 BKN200
                       TEMPO 0618/0622 BKN050 BKN200 FM071000 03003KT
                       P6SM OVC007=
201410061130 TAF KBFI 061130Z 0612/0712 00000KT P6SM SKC FM061300 00000KT 3SM
                       BR OVC004 FM061700 00000KT P6SM BKN006 FM061800
                       02003KT P6SM SCT050 BKN200
                      TEMPO 0618/0622 BKN050 BKN200 FM071000 03003KT
                       P6SM OVC007=
201410060530 TAF KBFI 060530Z 0606/0706 00000KT P6SM SCT220 FM061300 00000KT
                       3SM BR OVC004 FM061700 00000KT P6SM BKN006
                       FM061800 00000KT P6SM SCT200=
201410052322 TAF KBFI 052322Z 0600/0624 VRB03KT P6SM SCT200 FM061300 00000KT
                       3SM BR OVC004 FM061700 00000KT P6SM BKN006
                       FM061800 00000KT P6SM SCT200=
201410051732 TAF KBFI 051732Z 0518/0618 VRB03KT P6SM SCT200 FM061300 00000KT
                       3SM BR OVC004 FM061700 00000KT P6SM BKN006=
201410051300 TAF AMD KBFI 051300Z 0513/0612 00000KT P6SM VCFG SCT005
                      TEMPO 0513/0514 4SM BR BKN005 FM051400 00000KT
                       4SM BR OVC005 FM051700 VRB03KT P6SM VCFG
                       BKN008 FM051900 VRB03KT P6SM SCT200=
201410051120 TAF KBFI 051120Z 0512/0612 00000KT P6SM SKC FM051600 00000KT P6SM
                       SCT200=
201410050524 TAF KBFI 050524Z 0506/0606 VRB03KT P6SM SCT200 FM051600 00000KT
                       P6SM SCT200=
201410042334 TAF KBFI 042334Z 0500/0524 00000KT P6SM SCT200 FM050600 00000KT
                       P6SM BKN100 BKN200 FM051600 00000KT P6SM
                       SCT200=
201410041739 TAF KBFI 041739Z 0418/0518 00000KT P6SM BKN100 FM050600 00000KT
                       P6SM SCT200=
201410041120 TAF KBFI 041120Z 0412/0512 00000KT P6SM BKN110 OVC200 FM050500
                       00000KT P6SM SCT250=
201410040528 TAF KBFI 040528Z 0406/0506 00000KT P6SM BKN250 FM041300 32002KT
                       P6SM BKN100 OVC200 FM050500 00000KT P6SM
                       SCT250=
201410032330 TAF KBFI 032330Z 0400/0424 30006KT P6SM BKN200 FM040500 VRB03KT
                       P6SM SKC=
201410031738 TAF KBFI 031738Z 0318/0418 VRB03KT P6SM BKN200=
201410031120 TAF KBFI 031120Z 0312/0412 00000KT P6SM SKC
                      TEMPO 0313/0317 SCT008 FM040200 VRB03KT P6SM
                       BKN200=
201410030520 TAF KBFI 030520Z 0306/0406 00000KT P6SM SCT250 FM031300 00000KT
                       P6SM SCT008 SCT070 FM031700 VRB03KT P6SM
                       BKN200=
201410022320 TAF KBFI 022320Z 0300/0324 31005KT P6SM BKN100 FM030400 00000KT
                       P6SM BKN090 FM031300 00000KT P6SM SCT008
                       SCT070 FM031700 VRB03KT P6SM BKN200=
201410021735 TAF KBFI 021735Z 0218/0318 VRB03KT P6SM SCT150 FM022100 32004KT
                       P6SM BKN120 FM030400 00000KT P6SM SCT080=
201410021443 TAF AMD KBFI 021443Z 0215/0312 00000KT P6SM SCT060 FM021700 30005KT
                       P6SM FEW060 SCT150 FM030400 00000KT P6SM
                       SCT060=
201410021132 TAF KBFI 021132Z 0212/0312 00000KT P6SM OVC070
                      TEMPO 0213/0217 4SM BR SCT007 SCT070 FM021700
                       30004KT P6SM SCT080 SCT150 FM031000 00000KT
                       5SM BR SCT006 BKN060=
201410020531 TAF KBFI 020531Z 0206/0306 VRB03KT P6SM BKN070 BKN200 FM021300
                       00000KT P6SM BKN007 FM021700 30004KT P6SM
                       SCT100 SCT250=
201410012320 TAF KBFI 012320Z 0200/0224 VRB03KT P6SM FEW250 FM021300 00000KT
                       P6SM BKN007 FM021700 30004KT P6SM SCT100
                       SCT250=
201410011732 TAF KBFI 011732Z 0118/0218 VRB03KT P6SM BKN012 BKN040 FM012100
                       20005KT P6SM SCT040 FM020000 VRB03KT P6SM
                       SCT200 FM021300 00000KT P6SM BKN007=
201410011140 TAF KBFI 011140Z 0112/0212 VRB03KT P6SM SCT030 SCT050 BKN200
                      TEMPO 0114/0118 BKN030 OVC050 FM011800 20005KT
                       P6SM SCT050 BKN200 FM012000 28005KT P6SM
                       SCT070 BKN200 FM020000 VRB03KT P6SM BKN200=
201410011015 TAF AMD KBFI 011015Z 0110/0206 VRB03KT P6SM BKN035 BKN070 FM011200
                       VRB03KT P6SM SCT030 BKN050
                      TEMPO 0114/0118 BKN030 BKN050 FM011800 18006KT
                       P6SM BKN035 BKN200 FM012000 23006KT P6SM
                       SCT040 BKN200 FM020000 30005KT P6SM FEW050
                       BKN200=
201410010902 TAF AMD KBFI 010902Z 0109/0206 VRB03KT P6SM BKN030 BKN070 FM011200
                       VRB03KT P6SM OVC025 FM011800 18006KT P6SM
                       BKN035 BKN200 FM012000 23006KT P6SM SCT040
                       BKN200 FM020000 30005KT P6SM FEW050 BKN200=
201410010540 TAF KBFI 010540Z 0106/0206 VRB03KT P6SM SCT028 BKN050
                      TEMPO 0106/0110 BKN028 BKN050 FM011000 VRB03KT
                       P6SM OVC025 FM011800 18006KT P6SM BKN035
                       BKN200 FM012000 23006KT P6SM SCT040 BKN200
                       FM020000 30005KT P6SM FEW050 BKN200=
201410010304 TAF AMD KBFI 010304Z 0103/0124 VRB03KT P6SM BKN070 FM011100 18005KT
                       P6SM BKN020 BKN040 FM011800 21006KT P6SM
                       SCT020 BKN050 BKN200=