##########################################################
# Query made at 02/17/2025 02:37:19 UTC
# Time interval: from 11/01/2014 00:00  to 11/30/2014 23:59  UTC
##########################################################

##########################################################
# KBFI, Seattle, Seattle Boeing Field (United States)
# WMO index: -----. WIGOS ID: Unknown
# Latitude 47-32-45N. Longitude 122-18-49W. Altitude 5 m.
##########################################################

###################################
#  METAR/SPECI from KBFI
###################################
201411302353 METAR KBFI 302353Z 36003KT 10SM SCT200 03/M06 A3013 RMK AO2 SLP204 T00331061 10050 21006 56016=
201411302253 METAR KBFI 302253Z VRB05KT 10SM CLR 04/M06 A3014 RMK AO2 SLP206 T00441061=
201411302153 METAR KBFI 302153Z 01007KT 10SM CLR 04/M06 A3016 RMK AO2 SLP212 T00391061=
201411302053 METAR KBFI 302053Z 03004KT 10SM CLR 04/M06 A3018 RMK AO2 SLP220 T00391061 58021=
201411301953 METAR KBFI 301953Z 35005KT 10SM CLR 02/M06 A3021 RMK AO2 SLP230 T00221061=
201411301853 METAR KBFI 301853Z VRB04KT 10SM CLR 01/M07 A3024 RMK AO2 SLP239 T00111067=
201411301753 METAR KBFI 301753Z 33004KT 10SM CLR M01/M07 A3024 RMK AO2 SLP240 T10061067 11006 21033 51002=
201411301653 METAR KBFI 301653Z VRB05KT 10SM CLR M01/M07 A3024 RMK AO2 SLP240 T10111067=
201411301553 METAR KBFI 301553Z 00000KT 10SM FEW010 M02/M07 A3024 RMK AO2 SLP239 T10221067=
201411301453 METAR KBFI 301453Z 00000KT 10SM SCT010 M02/M06 A3024 RMK AO2 SLP238 T10221061 53003=
201411301353 METAR KBFI 301353Z VRB03KT 10SM FEW010 M02/M05 A3023 RMK AO2 SLP235 T10171050=
201411301304 SPECI KBFI 301304Z 33004KT 10SM SCT009 M02/M06 A3023 RMK AO2=
201411301253 METAR KBFI 301253Z 33003KT 10SM SCT011 M02/M06 A3023 RMK AO2 SLP236 T10221056=
201411301153 METAR KBFI 301153Z 00000KT 10SM CLR M03/M06 A3023 RMK AO2 SLP235 70006 T10281061 11011 21039 50002=
201411301053 METAR KBFI 301053Z 00000KT 10SM CLR M02/M06 A3023 RMK AO2 SLP236 T10221061=
201411300953 METAR KBFI 300953Z 00000KT 10SM CLR M03/M07 A3023 RMK AO2 SLP235 T10281067=
201411300853 METAR KBFI 300853Z 00000KT 10SM CLR M02/M06 A3022 RMK AO2 SLP233 T10221061 51009=
201411300753 METAR KBFI 300753Z 00000KT 10SM CLR M03/M07 A3022 RMK AO2 SLP233 T10281067 400611028=
201411300653 METAR KBFI 300653Z 00000KT 10SM CLR M02/M06 A3021 RMK AO2 SLP228 T10171061=
201411300553 METAR KBFI 300553Z 00000KT 10SM CLR M01/M07 A3019 RMK AO2 SLP223 T10111067 10011 21011 51021=
201411300453 METAR KBFI 300453Z 05003KT 10SM CLR M01/M07 A3017 RMK AO2 SLP217 T10061067=
201411300353 METAR KBFI 300353Z 00000KT 10SM CLR M01/M07 A3016 RMK AO2 SLP211 T10061072=
201411300253 METAR KBFI 300253Z 35004KT 10SM CLR 00/M08 A3013 RMK AO2 SLP203 T00001078 51020=
201411300153 METAR KBFI 300153Z VRB04KT 10SM BKN038 01/M09 A3012 RMK AO2 SLP197 T00061089=
201411300053 METAR KBFI 300053Z 36004KT 10SM BKN048 01/M12 A3009 RMK AO2 SLP190 T00061117=
201411292353 METAR KBFI 292353Z VRB06G15KT 10SM BKN050 01/M12 A3007 RMK AO2 SLP182 T00111122 10017 20006 51032=
201411292253 METAR KBFI 292253Z 01008G15KT 340V060 10SM SCT065 01/M12 A3004 RMK AO2 PK WND 32026/2222 SLP172 T00111117=
201411292153 METAR KBFI 292153Z 34010G18KT 10SM FEW040 BKN070 01/M09 A3001 RMK AO2 SLP160 T00111094=
201411292053 METAR KBFI 292053Z 33009G22KT 10SM FEW040 BKN100 01/M08 A2998 RMK AO2 PK WND 34027/1957 SLP150 T00061083 51045=
201411291953 METAR KBFI 291953Z 33015G23KT 10SM SCT090 01/M08 A2993 RMK AO2 PK WND 31029/1913 SLP136 T00111083=
201411291853 METAR KBFI 291853Z 32012G26KT 10SM SCT050 BKN100 02/M06 A2989 RMK AO2 PK WND 32027/1808 SLP120 T00171061=
201411291753 METAR KBFI 291753Z 33012G22KT 10SM SCT040 BKN090 01/M06 A2984 RMK AO2 PK WND 32026/1734 SLP105 60006 T00111056 10033 20011 51052=
201411291653 METAR KBFI 291653Z 32012G23KT 10SM BKN055 OVC075 01/M04 A2979 RMK AO2 SNE1556 SLP088 P0000 T00111039 $=
201411291556 SPECI KBFI 291556Z 32009G17KT 9SM FEW009 SCT015 OVC030 01/M02 A2975 RMK AO2 SNE56 P0000=
201411291553 METAR KBFI 291553Z 32007G19KT 10SM -SN FEW012 OVC021 01/M02 A2974 RMK AO2 SNB1454 SLP071 P0004 T00111022=
201411291509 SPECI KBFI 291509Z VRB06KT 2SM -SN BKN021 OVC037 02/M01 A2970 RMK AO2 SNB1454 P0001=
201411291453 METAR KBFI 291453Z VRB06KT 9SM FEW016 SCT023 OVC035 02/M01 A2969 RMK AO2 RAB14E26UPB26E28SNB28E45 SLP053 P0000 60002 T00221011 53033=
201411291437 SPECI KBFI 291437Z VRB06KT 6SM -SN FEW016 BKN023 OVC031 03/M01 A2967 RMK AO2 RAB14E26UPB26E28SNB28 P0000=
201411291427 SPECI KBFI 291427Z 03005KT 10SM FEW019 OVC030 03/M01 A2967 RMK AO2 RAB14E26UPB26 P0000=
201411291353 METAR KBFI 291353Z 00000KT 8SM SCT015 OVC023 03/00 A2965 RMK AO2 RAE1256UPB27E29SNB1256E27 SLP039 P0001 T00280000=
201411291302 SPECI KBFI 291302Z 00000KT 2 1/2SM -SN BKN008 BKN019 OVC028 03/M01 A2962 RMK AO2 RAE1256SNB1256 P0000=
201411291253 METAR KBFI 291253Z AUTO VRB03KT 4SM -RA BKN014 BKN023 OVC030 03/00 A2962 RMK AO2 RAB33 SLP029 P0001 T00280000 TSNO=
201411291153 METAR KBFI 291153Z AUTO 00000KT 10SM BKN026 OVC034 03/01 A2959 RMK AO2 SLP020 70135 T00330006 10061 20033 50008 TSNO=
201411291053 METAR KBFI 291053Z AUTO VRB04KT 10SM BKN024 OVC032 03/00 A2960 RMK AO2 SLP023 T00330000 TSNO=
201411291048 SPECI KBFI 291048Z AUTO 35003KT 10SM BKN026 OVC034 03/00 A2960 RMK AO2 TSNO=
201411291033 SPECI KBFI 291033Z AUTO 36003KT 10SM SCT026 BKN032 OVC045 04/00 A2959 RMK AO2 TSNO=
201411290953 METAR KBFI 290953Z 34004KT 10SM SCT019 BKN026 OVC041 05/01 A2957 RMK AO2 SLP012 T00500006=
201411290853 METAR KBFI 290853Z 24006KT 10SM BKN018 BKN024 06/02 A2954 RMK AO2 SLP003 T00560017 53004=
201411290810 SPECI KBFI 290810Z 21006G15KT 10SM BKN020 OVC085 06/02 A2954 RMK AO2=
201411290753 METAR KBFI 290753Z 22005G14KT 10SM FEW010 SCT018 OVC080 06/02 A2953 RMK AO2 SLP000 T00610017 401440044=
201411290744 SPECI KBFI 290744Z 20006KT 10SM FEW010 SCT018 OVC080 06/02 A2953 RMK AO2=
201411290653 METAR KBFI 290653Z VRB04KT 10SM SCT009 SCT018 OVC023 06/03 A2953 RMK AO2 SLP998 T00560028=
201411290553 METAR KBFI 290553Z 13006KT 10SM SCT009 BKN015 OVC038 05/02 A2953 RMK AO2 RAE0457B20E34 SLP999 P0001 60013 T00500022 10050 20044 50005=
201411290453 METAR KBFI 290453Z 13005KT 7SM -RA SCT008 BKN020 OVC028 05/03 A2953 RMK AO2 SLP000 P0001 T00500028=
201411290353 METAR KBFI 290353Z 15007KT 6SM -RA FEW010 BKN022 OVC049 05/02 A2952 RMK AO2 SLP997 P0001 T00500022=
201411290253 METAR KBFI 290253Z 18003KT 10SM -RA BKN025 OVC034 05/02 A2951 RMK AO2 RAE0155B45 SLP994 P0000 60010 T00500022 53003=
201411290153 METAR KBFI 290153Z 00000KT 10SM -RA SCT013 OVC047 05/02 A2950 RMK AO2 SLP990 P0001 T00500017=
201411290126 SPECI KBFI 290126Z 00000KT 10SM -RA BKN026 OVC040 05/02 A2950 RMK AO2 P0001=
201411290053 METAR KBFI 290053Z 09004KT 5SM -RA BKN009 OVC024 04/02 A2949 RMK AO2 SLP986 P0009 T00440017=
201411290020 SPECI KBFI 290020Z 04003KT 3SM -RA BR BKN009 OVC024 04/02 A2950 RMK AO2 P0005=
201411282353 METAR KBFI 282353Z VRB03KT 1 3/4SM -RA BKN009 OVC024 05/02 A2951 RMK AO2 SLP991 P0003 60070 T00500022 10089 20050 53003=
201411282253 METAR KBFI 282253Z 02005KT 5SM -RA SCT013 OVC030 06/02 A2949 RMK AO2 SLP985 P0004 T00560022=
201411282153 METAR KBFI 282153Z 02006KT 5SM -RA BKN013 BKN018 OVC035 06/03 A2950 RMK AO2 SLP988 P0012 T00610033=
201411282100 SPECI KBFI 282100Z VRB04KT 5SM -RA BKN011 OVC021 07/04 A2950 RMK AO2 P0001=
201411282053 METAR KBFI 282053Z 01005KT 3SM -RA BKN009 BKN015 OVC021 07/04 A2950 RMK AO2 SLP988 P0016 60051 T00720039 58009=
201411281953 METAR KBFI 281953Z 35005KT 3SM -RA BKN008 BKN015 OVC021 08/05 A2951 RMK AO2 SLP991 P0015 T00780050=
201411281853 METAR KBFI 281853Z 01006KT 3SM RA BKN008 BKN015 OVC021 08/06 A2952 RMK AO2 SLP996 P0020 T00830056=
201411281757 SPECI KBFI 281757Z VRB05KT 3SM RA BR BKN009 OVC013 09/07 A2953 RMK AO2 P0002=
201411281753 METAR KBFI 281753Z 35005KT 3SM RA BR SCT007 BKN016 OVC021 09/07 A2952 RMK AO2 SLP997 P0036 60052 T00890067 10144 20089 55000=
201411281743 SPECI KBFI 281743Z 35005KT 3SM RA BKN009 OVC019 09/07 A2952 RMK AO2 P0030=
201411281653 METAR KBFI 281653Z 23007KT 3SM RA SCT012 OVC019 13/11 A2951 RMK AO2 SLP991 P0012 T01330106=
201411281631 SPECI KBFI 281631Z 21007KT 3SM -RA OVC018 13/10 A2951 RMK AO2 P0007=
201411281613 SPECI KBFI 281613Z 19007G15KT 2 1/2SM -RA BKN020 OVC026 13/10 A2951 RMK AO2 P0004=
201411281553 METAR KBFI 281553Z 19008G16KT 8SM -RA OVC022 14/09 A2951 RMK AO2 RAB1456 SLP993 P0003 T01390094=
201411281538 SPECI KBFI 281538Z 19006KT 9SM -RA BKN022 OVC028 14/10 A2951 RMK AO2 RAB1456 P0002=
201411281453 METAR KBFI 281453Z 18009G23KT 10SM BKN030 OVC039 14/09 A2952 RMK AO2 RAB07E20 SLP997 P0000 60001 T01440094 58027=
201411281353 METAR KBFI 281353Z AUTO 18012G19KT 10SM BKN025 OVC030 14/09 A2955 RMK AO2 RAE42 SLP006 P0001 T01390094 TSNO=
201411281253 METAR KBFI 281253Z AUTO 17012G19KT 10SM -RA BKN023 OVC028 14/10 A2958 RMK AO2 RAE19B53 SLP017 P0000 T01390100 TSNO=
201411281153 METAR KBFI 281153Z 17013G23KT 10SM -RA SCT021 BKN025 OVC037 14/09 A2961 RMK AO2 RAB19 SLP025 P0001 60005 70008 T01390094 10144 20133 58021=
201411281053 METAR KBFI 281053Z 17012G19KT 10SM BKN021 OVC040 14/09 A2964 RMK AO2 RAE41 SLP036 P0000 T01390094=
201411280953 METAR KBFI 280953Z 18009KT 10SM -RA BKN021 BKN026 OVC031 14/09 A2965 RMK AO2 SLP041 P0001 T01390094=
201411280920 SPECI KBFI 280920Z 18010G17KT 10SM -RA SCT019 BKN027 OVC044 14/10 A2966 RMK AO2 P0001=
201411280911 SPECI KBFI 280911Z 18010G19KT 10SM -RA FEW019 BKN031 OVC048 14/10 A2966 RMK AO2 P0001=
201411280853 METAR KBFI 280853Z 18010KT 10SM -RA SCT019 BKN029 OVC045 14/10 A2967 RMK AO2 SLP045 P0002 60003 T01390100 58015=
201411280753 METAR KBFI 280753Z 17010KT 6SM -RA BKN021 OVC028 14/10 A2968 RMK AO2 SLP051 P0001 T01390100 401670133=
201411280653 METAR KBFI 280653Z 18011G19KT 10SM -RA BKN020 OVC026 14/09 A2971 RMK AO2 RAB49 SLP060 P0000 T01440094=
201411280553 METAR KBFI 280553Z 18012G28KT 10SM BKN020 BKN028 OVC034 14/09 A2971 RMK AO2 PK WND 16028/0547 SLP060 60002 T01440094 10156 20133 58015=
201411280514 SPECI KBFI 280514Z 17012G19KT 10SM BKN022 OVC033 14/10 A2973 RMK AO2=
201411280453 METAR KBFI 280453Z 17013G18KT 10SM FEW019 SCT025 OVC038 14/10 A2974 RMK AO2 SLP070 T01390100=
201411280353 METAR KBFI 280353Z 16014KT 10SM SCT021 BKN028 OVC038 14/10 A2974 RMK AO2 RAB0255E04 SLP069 P0000 T01390100=
201411280253 METAR KBFI 280253Z 17013KT 8SM FEW017 OVC034 14/11 A2975 RMK AO2 RAE42 SLP075 P0002 60002 T01390106 56008=
201411280153 METAR KBFI 280153Z 17014G19KT 10SM -RA OVC041 14/10 A2975 RMK AO2 RAB41 SLP075 P0000 T01440100=
201411280053 METAR KBFI 280053Z 17008G16KT 10SM BKN028 OVC038 15/09 A2976 RMK AO2 PK WND 17027/0000 SLP076 T01500094=
201411272353 METAR KBFI 272353Z 17015G21KT 10SM BKN026 16/09 A2978 RMK AO2 SLP083 T01560094 10156 20144 56010=
201411272253 METAR KBFI 272253Z 18010G19KT 10SM SCT021 BKN027 OVC039 15/10 A2978 RMK AO2 PK WND 17026/2229 SLP085 T01500100=
201411272156 SPECI KBFI 272156Z 17011G22KT 10SM BKN020 OVC065 15/10 A2980 RMK AO2=
201411272153 METAR KBFI 272153Z 17014G22KT 10SM SCT018 BKN030 OVC065 15/10 A2980 RMK AO2 SLP090 T01500100=
201411272053 METAR KBFI 272053Z 17015G22KT 9SM SCT018 BKN030 OVC065 15/11 A2981 RMK AO2 SLP093 T01500106 56015=
201411271953 METAR KBFI 271953Z 17013KT 10SM BKN018 14/11 A2981 RMK AO2 SLP095 T01440106=
201411271853 METAR KBFI 271853Z 17013G16KT 10SM BKN030 16/09 A2984 RMK AO2 SLP103 T01560094=
201411271753 METAR KBFI 271753Z 18009G16KT 10SM OVC028 16/09 A2985 RMK AO2 SLP108 60001 T01560094 10156 20133 50001=
201411271744 SPECI KBFI 271744Z 18011G18KT 10SM BKN028 OVC034 16/09 A2985 RMK AO2=
201411271653 METAR KBFI 271653Z 17011G20KT 10SM SCT030 BKN036 15/09 A2985 RMK AO2 RAE1557 SLP108 P0001 T01500094=
201411271642 SPECI KBFI 271642Z 17012G19KT 10SM BKN030 OVC036 15/10 A2985 RMK AO2 RAE1557 P0001=
201411271553 METAR KBFI 271553Z 19010KT 10SM -RA OVC022 14/10 A2985 RMK AO2 RAB18 SLP109 P0000 T01440100=
201411271453 METAR KBFI 271453Z 17011G17KT 10SM OVC026 14/09 A2985 RMK AO2 SLP106 T01440089 55003=
201411271432 SPECI KBFI 271432Z 17011G17KT 10SM OVC028 14/09 A2984 RMK AO2=
201411271417 SPECI KBFI 271417Z 17009G18KT 10SM OVC030 14/09 A2984 RMK AO2=
201411271353 METAR KBFI 271353Z 18011G16KT 10SM OVC028 14/08 A2984 RMK AO2 SLP104 T01390083=
201411271342 SPECI KBFI 271342Z 17008KT 10SM OVC028 13/08 A2984 RMK AO2=
201411271253 METAR KBFI 271253Z 18009G16KT 10SM OVC034 13/08 A2985 RMK AO2 SLP108 T01330083=
201411271153 METAR KBFI 271153Z 17010G17KT 10SM OVC032 14/08 A2986 RMK AO2 SLP109 70001 T01390078 10167 20139 58003=
201411271053 METAR KBFI 271053Z 18010G19KT 10SM OVC036 15/07 A2986 RMK AO2 SLP111 T01500067=
201411270953 METAR KBFI 270953Z 18016G24KT 10SM OVC040 16/06 A2987 RMK AO2 SLP113 T01610061=
201411270853 METAR KBFI 270853Z 18007G18KT 10SM OVC050 17/07 A2986 RMK AO2 SLP112 T01670067 58003=
201411270753 METAR KBFI 270753Z 17011KT 10SM BKN060 OVC075 16/09 A2987 RMK AO2 SLP114 T01610089 401670144=
201411270653 METAR KBFI 270653Z 17006KT 10SM FEW070 OVC090 15/10 A2988 RMK AO2 SLP117 T01500100=
201411270553 METAR KBFI 270553Z 16007KT 10SM FEW065 BKN090 OVC110 14/11 A2987 RMK AO2 RAB11E20 SLP115 P0000 60001 T01440106 10161 20144 58018=
201411270453 METAR KBFI 270453Z 17007KT 10SM FEW046 BKN085 OVC110 15/11 A2989 RMK AO2 RAE13 SLP123 P0001 T01500111=
201411270353 METAR KBFI 270353Z 16003KT 10SM -RA BKN046 OVC085 15/11 A2990 RMK AO2 RAB50 SLP126 P0000 T01500111=
201411270253 METAR KBFI 270253Z VRB03KT 10SM OVC042 16/11 A2992 RMK AO2 SLP132 T01560111 56030=
201411270153 METAR KBFI 270153Z 00000KT 10SM OVC042 16/11 A2994 RMK AO2 SLP138 T01560111=
201411270053 METAR KBFI 270053Z 16003KT 10SM OVC040 16/11 A2998 RMK AO2 SLP152 T01560111=
201411262353 METAR KBFI 262353Z 19003KT 10SM BKN038 OVC049 16/11 A3001 RMK AO2 SLP163 60000 T01610111 10167 20156 56019=
201411262253 METAR KBFI 262253Z 19006KT 10SM BKN038 OVC049 16/11 A3003 RMK AO2 SLP170 T01610111=
201411262153 METAR KBFI 262153Z 17007KT 10SM SCT040 OVC050 16/11 A3004 RMK AO2 DZE49 SLP172 P0000 T01610111=
201411262053 METAR KBFI 262053Z 20006KT 10SM -DZ SCT025 OVC050 16/11 A3007 RMK AO2 DZB50 SLP182 P0000 60000 T01610111 56018=
201411261953 METAR KBFI 261953Z 18004KT 10SM BKN060 OVC200 16/11 A3008 RMK AO2 SLP184 T01610106=
201411261853 METAR KBFI 261853Z 15006KT 10SM FEW030 BKN060 OVC200 16/11 A3010 RMK AO2 SLP191 T01610111=
201411261753 METAR KBFI 261753Z 17008G18KT 10SM SCT047 OVC060 16/11 A3012 RMK AO2 SLP199 T01610111 10161 20144 58000=
201411261653 METAR KBFI 261653Z 16010KT 10SM FEW025 SCT035 BKN080 OVC200 15/11 A3012 RMK AO2 SLP200 T01500111=
201411261553 METAR KBFI 261553Z 18006G18KT 10SM FEW028 BKN035 15/11 A3013 RMK AO2 SLP202 T01500106=
201411261453 METAR KBFI 261453Z 18010G16KT 10SM FEW023 BKN036 15/11 A3012 RMK AO2 SLP200 T01500111 56007=
201411261353 METAR KBFI 261353Z 16009KT 10SM FEW015 BKN034 14/11 A3013 RMK AO2 SLP201 T01440106=
201411261253 METAR KBFI 261253Z 19011G22KT 10SM FEW015 SCT030 15/11 A3013 RMK AO2 SLP204 T01500111=
201411261153 METAR KBFI 261153Z 19011G22KT 10SM FEW015 15/11 A3014 RMK AO2 PK WND 18027/1109 SLP206 70029 T01500111 10150 20150 56008=
201411261053 METAR KBFI 261053Z 19017G26KT 10SM FEW013 SCT025 15/11 A3015 RMK AO2 PK WND 19027/1027 SLP211 T01500111=
201411260953 METAR KBFI 260953Z 19015G23KT 10SM SCT017 15/11 A3015 RMK AO2 PK WND 17026/0854 SLP210 T01500111=
201411260853 METAR KBFI 260853Z AUTO 18013G22KT 10SM FEW013 BKN020 15/12 A3017 RMK AO2 SLP215 T01500117 50005 TSNO=
201411260753 METAR KBFI 260753Z AUTO 18015G23KT 7SM FEW013 BKN022 15/12 A3017 RMK AO2 SLP217 T01500117 401560106=
201411260653 METAR KBFI 260653Z 18010G18KT 10SM FEW018 BKN046 OVC075 15/12 A3017 RMK AO2 PK WND 18027/0603 SLP216 T01500117=
201411260553 METAR KBFI 260553Z 18011G23KT 10SM SCT021 OVC070 15/11 A3015 RMK AO2 SLP210 60000 T01500111 10156 20111 53003=
201411260502 SPECI KBFI 260502Z 18009G19KT 10SM FEW007 SCT021 OVC070 15/11 A3016 RMK AO2=
201411260453 METAR KBFI 260453Z 19011G20KT 10SM SCT021 OVC070 15/11 A3015 RMK AO2 SLP209 T01500111=
201411260443 SPECI KBFI 260443Z 19012G20KT 10SM BKN021 OVC070 15/12 A3015 RMK AO2=
201411260418 SPECI KBFI 260418Z 17014G21KT 10SM SCT019 OVC075 15/11 A3015 RMK AO2=
201411260353 METAR KBFI 260353Z 17015G23KT 10SM BKN019 15/11 A3014 RMK AO2 PK WND 20027/0306 SLP206 T01500111=
201411260253 METAR KBFI 260253Z 18015G24KT 10SM FEW007 BKN019 BKN080 15/12 A3014 RMK AO2 PK WND 19026/0238 SLP207 LLWS 60000 T01500117 56012=
201411260249 SPECI KBFI 260249Z 18012G23KT 10SM FEW007 BKN019 BKN080 16/12 A3014 RMK AO2 PK WND 19026/0238=
201411260217 SPECI KBFI 260217Z 18012G23KT 10SM FEW016 SCT075 16/12 A3015 RMK AO2=
201411260153 METAR KBFI 260153Z 19010G18KT 10SM BKN016 OVC020 16/12 A3015 RMK AO2 SLP210 T01560117=
201411260053 METAR KBFI 260053Z 19008G14KT 110V220 10SM SCT007 BKN013 OVC019 14/12 A3015 RMK AO2 RAE02 SLP210 P0000 T01440117=
201411260041 SPECI KBFI 260041Z 15006KT 10SM SCT007 BKN014 OVC019 13/10 A3016 RMK AO2 RAE02 P0000=
201411252353 METAR KBFI 252353Z 00000KT 3SM -RA BR OVC005 11/09 A3018 RMK AO2 CIG 004V009 SLP219 P0002 60009 T01110089 10111 20106 58005=
201411252253 METAR KBFI 252253Z 00000KT 3SM -RA BR OVC005 11/09 A3019 RMK AO2 RAB21DZB46E48 SLP222 P0000 T01110089=
201411252153 METAR KBFI 252153Z 00000KT 2 1/2SM BR BKN005 BKN013 OVC023 11/08 A3019 RMK AO2 RAB05E44 SLP224 P0001 T01060083=
201411252053 METAR KBFI 252053Z 00000KT 2 1/2SM BR BKN005 OVC010 11/08 A3020 RMK AO2 RAE52 SLP226 P0002 60006 T01060083 58006=
201411251953 METAR KBFI 251953Z VRB03KT 2 1/2SM -RA BR BKN004 OVC010 11/08 A3022 RMK AO2 RAB00 SLP233 P0003 T01060083=
201411251853 METAR KBFI 251853Z 32003KT 4SM BR BKN004 OVC010 11/08 A3023 RMK AO2 RAB03E49 SLP235 P0001 T01060083=
201411251753 METAR KBFI 251753Z 00000KT 4SM BR BKN004 OVC010 11/09 A3022 RMK AO2 RAB15E45 SLP232 P0002 60020 T01110089 10128 20106 51014=
201411251717 SPECI KBFI 251717Z 00000KT 2SM -RA BKN005 OVC010 11/08 A3022 RMK AO2 RAB15 P0001=
201411251653 METAR KBFI 251653Z VRB03KT 4SM BR BKN005 OVC012 11/09 A3021 RMK AO2 RAB1554E19 SLP228 P0000 T01110089=
201411251619 SPECI KBFI 251619Z 00000KT 4SM BR BKN005 OVC012 11/09 A3020 RMK AO2 RAB1554E19 P0000=
201411251553 METAR KBFI 251553Z 32003KT 2 1/2SM BR SCT005 BKN012 OVC027 11/09 A3019 RMK AO2 RAE53 SLP224 P0003 T01110089=
201411251541 SPECI KBFI 251541Z 00000KT 2 1/2SM -RA BR BKN005 OVC027 11/09 A3019 RMK AO2 P0003=
201411251453 METAR KBFI 251453Z 00000KT 4SM -RA BR FEW008 SCT015 OVC021 12/09 A3018 RMK AO2 SLP218 P0006 60015 T01170094 53008=
201411251419 SPECI KBFI 251419Z 00000KT 4SM -RA FEW008 SCT019 OVC026 12/09 A3017 RMK AO2 P0004=
201411251353 METAR KBFI 251353Z 00000KT 4SM -RA BR FEW004 BKN008 OVC022 12/10 A3016 RMK AO2 SLP214 P0006 T01220100=
201411251253 METAR KBFI 251253Z 00000KT 2 1/2SM -RA BR FEW004 BKN013 OVC022 13/11 A3016 RMK AO2 SLP211 P0003 T01280111=
201411251153 METAR KBFI 251153Z 00000KT 3SM -RA BR OVC009 13/11 A3015 RMK AO2 RAB1058 SLP210 P0004 60004 70005 T01280106 10133 20106 51019=
201411251053 METAR KBFI 251053Z 00000KT 4SM BR OVC009 13/11 A3015 RMK AO2 RAB06E44 SLP209 P0000 T01330106=
201411250953 METAR KBFI 250953Z VRB05KT 10SM OVC009 13/11 A3012 RMK AO2 RAB30E40 SLP198 P0000 T01330106=
201411250853 METAR KBFI 250853Z 21012G25KT 10SM OVC007 13/11 A3010 RMK AO2 SLP191 60000 T01330106 53002=
201411250753 METAR KBFI 250753Z 20011G22KT 10SM OVC007 13/10 A3010 RMK AO2 DZE48 SLP192 P0000 T01330100 401330039=
201411250653 METAR KBFI 250653Z 19011G18KT 10SM DZ OVC007 13/10 A3008 RMK AO2 SLP185 P0000 T01280100=
201411250553 METAR KBFI 250553Z 15009KT 3SM DZ BR OVC006 11/08 A3009 RMK AO2 SLP190 P0000 60001 T01060083 10106 20089 56016=
201411250546 SPECI KBFI 250546Z 13008KT 2 1/2SM DZ BR OVC006 11/08 A3009 RMK AO2 P0000=
201411250511 SPECI KBFI 250511Z 14010KT 3SM DZ BR OVC008 10/08 A3010 RMK AO2 P0000=
201411250504 SPECI KBFI 250504Z 14009KT 3SM DZ BR OVC010 10/07 A3010 RMK AO2 P0000=
201411250453 METAR KBFI 250453Z 13007KT 2 1/2SM DZ BR OVC008 10/07 A3011 RMK AO2 DZB15 CIG 007V013 SLP194 P0000 T01000072=
201411250432 SPECI KBFI 250432Z 12007KT 5SM -DZ BR OVC008 10/07 A3012 RMK AO2 DZB15 CIG 007V013 P0000=
201411250419 SPECI KBFI 250419Z 12008KT 5SM -DZ BR BKN010 OVC015 10/07 A3013 RMK AO2 DZB15 CIG 008V012 P0000=
201411250353 METAR KBFI 250353Z 14008KT 6SM BR OVC018 09/07 A3011 RMK AO2 SLP197 T00940067=
201411250253 METAR KBFI 250253Z 16011G15KT 10SM BKN026 OVC050 11/06 A3014 RMK AO2 SLP206 60001 T01060056 58019=
201411250153 METAR KBFI 250153Z 14006KT 10SM FEW036 SCT043 OVC050 09/06 A3016 RMK AO2 RAE0054 SLP212 T00890061=
201411250053 METAR KBFI 250053Z 14006KT 10SM -RA SCT045 BKN060 OVC075 10/06 A3018 RMK AO2 SLP218 P0001 T01000061=
201411242353 METAR KBFI 242353Z 14006KT 10SM -RA FEW048 BKN055 OVC085 10/06 A3020 RMK AO2 RAB06E16B50 SLP224 P0000 60000 T01000061 10106 20072 58020=
201411242253 METAR KBFI 242253Z 14008KT 10SM FEW050 SCT070 OVC095 10/05 A3022 RMK AO2 SLP233 T01000050=
201411242153 METAR KBFI 242153Z 12008KT 10SM BKN044 OVC090 09/03 A3023 RMK AO2 SLP236 T00940033=
201411242053 METAR KBFI 242053Z 14008KT 10SM BKN035 OVC050 09/03 A3025 RMK AO2 RAB03E19 SLP244 P0000 60000 T00940033 58029=
201411241953 METAR KBFI 241953Z 14005KT 10SM OVC036 09/03 A3029 RMK AO2 SLP255 T00890028=
201411241853 METAR KBFI 241853Z 15008KT 10SM SCT040 OVC050 08/02 A3032 RMK AO2 SLP265 T00780022=
201411241753 METAR KBFI 241753Z 14007KT 10SM FEW044 BKN100 07/02 A3034 RMK AO2 SLP273 T00720017 10072 20039 58004=
201411241653 METAR KBFI 241653Z 15007KT 10SM FEW033 BKN140 OVC200 07/02 A3036 RMK AO2 SLP278 T00670022=
201411241553 METAR KBFI 241553Z 13005KT 10SM BKN033 06/02 A3034 RMK AO2 SLP273 T00610022=
201411241453 METAR KBFI 241453Z 15005KT 10SM BKN100 OVC200 05/02 A3035 RMK AO2 SLP277 T00500022 55003=
201411241353 METAR KBFI 241353Z 13003KT 10SM CLR 05/02 A3034 RMK AO2 SLP274 T00500022=
201411241253 METAR KBFI 241253Z 13003KT 10SM CLR 04/02 A3036 RMK AO2 SLP279 T00440022=
201411241153 METAR KBFI 241153Z 00000KT 10SM CLR 04/02 A3036 RMK AO2 SLP280 70038 T00440022 10083 20039 58004=
201411241053 METAR KBFI 241053Z 14003KT 10SM CLR 04/02 A3037 RMK AO2 SLP284 T00390022=
201411240953 METAR KBFI 240953Z 14003KT 10SM CLR 07/04 A3037 RMK AO2 SLP284 T00670039=
201411240853 METAR KBFI 240853Z 14003KT 10SM FEW110 07/04 A3037 RMK AO2 SLP284 T00670039 51020=
201411240753 METAR KBFI 240753Z 13003KT 10SM CLR 07/04 A3037 RMK AO2 SLP282 T00720044 401390067=
201411240653 METAR KBFI 240653Z 12004KT 10SM FEW050 08/04 A3034 RMK AO2 SLP274 T00780044=
201411240553 METAR KBFI 240553Z 14006KT 10SM CLR 08/05 A3031 RMK AO2 SLP264 T00830050 10128 20067 51018=
201411240453 METAR KBFI 240453Z 14007KT 10SM CLR 07/04 A3030 RMK AO2 SLP260 T00670039=
201411240353 METAR KBFI 240353Z 13005KT 10SM FEW030 07/04 A3029 RMK AO2 SLP255 T00720039=
201411240253 METAR KBFI 240253Z 11003KT 10SM SCT200 09/04 A3026 RMK AO2 SLP246 T00890039 53025=
201411240153 METAR KBFI 240153Z 00000KT 10SM FEW030 09/04 A3023 RMK AO2 SLP236 T00890039=
201411240053 METAR KBFI 240053Z 00000KT 10SM SCT030 SCT120 11/04 A3021 RMK AO2 SLP228 T01110039=
201411232353 METAR KBFI 232353Z 16003KT 10SM SCT030 12/06 A3018 RMK AO2 SLP221 60000 T01220061 10139 20111 51020=
201411232253 METAR KBFI 232253Z 00000KT 10SM FEW015 BKN037 14/06 A3017 RMK AO2 SLP215 T01390056=
201411232153 METAR KBFI 232153Z 18006KT 10SM SCT030 14/07 A3015 RMK AO2 SLP209 T01390067=
201411232053 METAR KBFI 232053Z 21004KT 10SM SCT018 SCT200 14/07 A3012 RMK AO2 SLP201 60000 T01390067 51010=
201411231953 METAR KBFI 231953Z 20006KT 10SM SCT019 SCT033 OVC100 12/08 A3011 RMK AO2 SLP196 T01220083=
201411231853 METAR KBFI 231853Z 20010KT 10SM SCT019 SCT033 OVC100 12/07 A3012 RMK AO2 RAE05 SLP198 P0000 T01170072=
201411231753 METAR KBFI 231753Z VRB05KT 10SM -RA FEW016 BKN024 OVC033 11/07 A3010 RMK AO2 RAB43 SLP191 P0001 60038 T01110072 10111 20100 55002=
201411231721 SPECI KBFI 231721Z 18007KT 10SM FEW019 BKN027 OVC095 11/07 A3010 RMK AO2=
201411231653 METAR KBFI 231653Z 18011G17KT 10SM BKN100 11/07 A3008 RMK AO2 PK WND 19026/1603 RAE21 SLP185 P0000 T01060067=
201411231553 METAR KBFI 231553Z 18015G23KT 6SM -RA FEW024 BKN034 OVC049 11/07 A3008 RMK AO2 SLP186 P0027 T01060072=
201411231453 METAR KBFI 231453Z 19009G16KT 5SM RA BKN028 OVC037 11/06 A3010 RMK AO2 RAB01 SLP192 P0007 60010 T01060061 56015=
201411231353 METAR KBFI 231353Z 15011KT 10SM BKN026 OVC033 10/06 A3010 RMK AO2 RAB1254E04 SLP192 P0000 T01000056=
201411231253 METAR KBFI 231253Z 17017G24KT 9SM BKN035 BKN050 OVC065 10/06 A3011 RMK AO2 RAE42 SLP194 P0003 T01000056=
201411231153 METAR KBFI 231153Z 18009G16KT 7SM -RA FEW030 BKN050 OVC080 10/06 A3015 RMK AO2 RAE15B44 SLP208 P0002 60005 70008 T01000061 10100 20078 50002=
201411231053 METAR KBFI 231053Z 18011G17KT 10SM -RA FEW029 SCT036 OVC045 10/06 A3016 RMK AO2 RAE05B28 SLP212 P0003 T01000061=
201411230953 METAR KBFI 230953Z 18011G16KT 10SM -RA FEW016 BKN045 OVC120 10/06 A3015 RMK AO2 RAB53 SLP211 P0000 T01000061=
201411230853 METAR KBFI 230853Z 17010KT 10SM BKN110 10/06 A3014 RMK AO2 SLP206 T01000061 51012=
201411230753 METAR KBFI 230753Z 16011KT 10SM CLR 10/06 A3013 RMK AO2 SLP203 T01000056 401110067=
201411230704 SPECI KBFI 230704Z 14008KT 10SM FEW018 08/05 A3013 RMK AO2=
201411230653 METAR KBFI 230653Z 14008KT 10SM BKN017 09/05 A3013 RMK AO2 SLP202 T00890050=
201411230613 SPECI KBFI 230613Z 13007KT 10SM BKN023 08/05 A3011 RMK AO2=
201411230553 METAR KBFI 230553Z 15006KT 10SM BKN030 08/04 A3010 RMK AO2 SLP193 T00780044 10094 20067 51020=
201411230453 METAR KBFI 230453Z 15005KT 10SM SCT120 07/04 A3008 RMK AO2 SLP186 T00720044=
201411230353 METAR KBFI 230353Z 13008KT 10SM SCT095 BKN120 09/06 A3007 RMK AO2 SLP181 T00890056=
201411230253 METAR KBFI 230253Z 14008KT 10SM SCT024 BKN040 08/06 A3004 RMK AO2 SLP173 T00780056 52029=
201411230153 METAR KBFI 230153Z 11003KT 10SM BKN050 08/05 A3002 RMK AO2 SLP164 T00780050=
201411230053 METAR KBFI 230053Z 12004KT 10SM SCT030 BKN050 08/05 A2998 RMK AO2 SLP153 T00830050=
201411222353 METAR KBFI 222353Z 11004KT 10SM BKN047 09/06 A2996 RMK AO2 SLP144 60000 T00940056 10100 20089 51034=
201411222301 SPECI KBFI 222301Z 11006KT 10SM SCT025 BKN031 09/06 A2994 RMK AO2=
201411222253 METAR KBFI 222253Z COR 11006KT 10SM SCT023 BKN029 10/06 A2993 RMK AO2 SLP135 T01000056=
201411222153 METAR KBFI 222153Z 14008KT 10SM BKN017 BKN050 10/06 A2990 RMK AO2 SLP123 T01000061=
201411222053 METAR KBFI 222053Z 17008KT 10SM BKN017 BKN050 10/06 A2986 RMK AO2 SLP110 60000 T01000056 51034=
201411221953 METAR KBFI 221953Z 17006KT 10SM OVC015 09/06 A2983 RMK AO2 RAE53 SLP100 P0000 T00940056=
201411221853 METAR KBFI 221853Z 17007KT 10SM -RA SCT018 OVC060 09/06 A2979 RMK AO2 SLP088 P0000 T00940056=
201411221753 METAR KBFI 221753Z 17009KT 10SM -RA SCT018 OVC060 09/04 A2976 RMK AO2 SLP076 P0003 60003 T00890044 10100 20078 53024=
201411221653 METAR KBFI 221653Z 19009G16KT 10SM -RA SCT018 OVC080 09/05 A2973 RMK AO2 RAB50 SLP069 P0000 T00940050=
201411221553 METAR KBFI 221553Z COR 14004KT 10SM SCT018 BKN080 BKN095 09/05 A2970 RMK AO2 SLP057 T00890050=
201411221453 METAR KBFI 221453Z 19008G18KT 10SM SCT065 BKN080 BKN095 10/04 A2969 RMK AO2 SLP052 T01000044 51012=
201411221353 METAR KBFI 221353Z 17008KT 10SM BKN085 OVC120 09/04 A2968 RMK AO2 SLP050 T00940044=
201411221253 METAR KBFI 221253Z COR 16009KT 10SM FEW030 09/04 A2966 RMK AO2 SLP044 T00890044=
201411221153 METAR KBFI 221153Z 14008KT 10SM CLR 08/04 A2965 RMK AO2 SLP040 70065 T00780044 10117 20078 51034=
201411221053 METAR KBFI 221053Z AUTO 14005KT 10SM FEW044 09/04 A2963 RMK AO2 SLP035 T00890044 TSNO=
201411220953 METAR KBFI 220953Z 23004KT 10SM FEW024 SCT070 SCT095 09/04 A2959 RMK AO2 SLP020 T00940044=
201411220853 METAR KBFI 220853Z 23007KT 210V270 10SM FEW024 11/04 A2955 RMK AO2 SLP006 T01060044 51045=
201411220753 METAR KBFI 220753Z COR 19008G17KT 10SM SCT023 SCT110 11/06 A2951 RMK AO2 SLP991 T01110056 401280094=
201411220653 METAR KBFI 220653Z 18011G16KT 10SM CLR 11/05 A2946 RMK AO2 SLP977 T01110050=
201411220553 METAR KBFI 220553Z 19013G24KT 10SM SCT016 12/06 A2942 RMK AO2 PK WND 19027/0514 SLP960 60019 T01170061 10128 20100 51030=
201411220453 METAR KBFI 220453Z 18016G29KT 10SM BKN016 BKN120 12/08 A2938 RMK AO2 PK WND 20029/0446 SLP949 T01170078=
201411220353 METAR KBFI 220353Z 18014G21KT 10SM OVC016 13/09 A2936 RMK AO2 RAB0258E18 SLP942 P0001 T01280089=
201411220259 SPECI KBFI 220259Z 14007KT 6SM -RA BR OVC011 11/08 A2933 RMK AO2 RAB58 P0000=
201411220253 METAR KBFI 220253Z 14006KT 6SM BR FEW008 OVC015 10/08 A2933 RMK AO2 RAE42 SLP930 P0001 60018 T01000078 55017=
201411220214 SPECI KBFI 220214Z 00000KT 9SM -RA FEW008 OVC015 10/08 A2931 RMK AO2 P0001=
201411220153 METAR KBFI 220153Z 13007KT 9SM -RA BKN017 OVC024 10/07 A2931 RMK AO2 SLP926 P0004 T01000072=
201411220053 METAR KBFI 220053Z 12007KT 4SM -RA SCT012 OVC024 10/07 A2933 RMK AO2 SLP933 P0013 T01000072=
201411212353 METAR KBFI 212353Z 16005KT 4SM -RA SCT012 OVC018 10/07 A2937 RMK AO2 SLP947 P0003 60041 T01000072 10117 20100 56064=
201411212253 METAR KBFI 212253Z 14006KT 5SM -RA OVC040 10/07 A2942 RMK AO2 SLP961 P0014 T01000072=
201411212153 METAR KBFI 212153Z 13006KT 6SM -RA OVC046 11/07 A2949 RMK AO2 SLP986 P0008 T01060072=
201411212053 METAR KBFI 212053Z 12009KT 6SM -RA OVC060 12/08 A2956 RMK AO2 SLP011 P0009 60016 T01170078 58042=
201411211953 METAR KBFI 211953Z 14005KT 5SM -RA BKN055 OVC070 12/08 A2962 RMK AO2 SLP031 P0005 T01170078=
201411211853 METAR KBFI 211853Z AUTO 12006KT 6SM -RA SCT041 BKN048 OVC060 11/08 A2966 RMK AO2 RAB1756E09B25 SLP044 P0002 T01110078 TSNO=
201411211753 METAR KBFI 211753Z 14007KT 10SM BKN040 OVC090 11/07 A2969 RMK AO2 RAB11E20 SLP053 P0000 60005 T01110072 10111 20094 56029=
201411211653 METAR KBFI 211653Z 14007KT 10SM BKN037 OVC060 10/07 A2972 RMK AO2 RAE07 SLP063 P0000 T01000067=
201411211553 METAR KBFI 211553Z 14004KT 9SM -RA BKN037 OVC060 10/07 A2974 RMK AO2 SLP072 P0002 T01000072=
201411211453 METAR KBFI 211453Z 17003KT 10SM -RA BKN047 OVC055 10/07 A2978 RMK AO2 RAE07B32 SLP082 P0001 60003 T01000067 56027=
201411211353 METAR KBFI 211353Z 12004KT 10SM -RA BKN046 OVC055 10/07 A2980 RMK AO2 RAB19 SLP089 P0002 T01000067=
201411211253 METAR KBFI 211253Z 16003KT 10SM OVC060 10/07 A2983 RMK AO2 RAE24 SLP101 P0000 T01000067=
201411211153 METAR KBFI 211153Z 13003KT 10SM -RA OVC055 10/07 A2985 RMK AO2 SLP109 P0002 60002 70003 T01000067 10106 20094 58012=
201411211053 METAR KBFI 211053Z 13004KT 10SM -RA BKN060 OVC075 10/07 A2988 RMK AO2 RAB49 SLP116 P0000 T01000067=
201411210953 METAR KBFI 210953Z 14006KT 10SM FEW046 OVC060 10/07 A2987 RMK AO2 SLP115 T01000067=
201411210853 METAR KBFI 210853Z 14005KT 10SM OVC047 10/07 A2989 RMK AO2 SLP121 T01000072 58012=
201411210753 METAR KBFI 210753Z 13006KT 10SM OVC070 09/07 A2991 RMK AO2 SLP126 T00940072 401220067=
201411210653 METAR KBFI 210653Z 10003KT 10SM BKN042 OVC060 10/07 A2992 RMK AO2 SLP132 T01000072=
201411210553 METAR KBFI 210553Z 00000KT 10SM BKN046 OVC065 10/07 A2992 RMK AO2 SLP133 60001 T01000067 10117 20100 55004=
201411210453 METAR KBFI 210453Z 13003KT 10SM BKN060 OVC100 10/07 A2992 RMK AO2 SLP131 T01000072=
201411210353 METAR KBFI 210353Z 15006KT 10SM BKN050 OVC065 11/08 A2993 RMK AO2 SLP136 T01060078=
201411210253 METAR KBFI 210253Z 14005KT 10SM SCT040 OVC050 11/08 A2994 RMK AO2 RAE27 SLP137 P0001 60001 T01060078 58005=
201411210153 METAR KBFI 210153Z 15004KT 10SM -RA OVC070 11/08 A2994 RMK AO2 RAB50 SLP137 P0000 T01110078=
201411210053 METAR KBFI 210053Z 12005KT 10SM BKN034 OVC044 11/08 A2995 RMK AO2 RAE22 SLP141 P0000 T01110078=
201411210013 SPECI KBFI 210013Z 15005KT 10SM -RA BKN024 OVC031 12/08 A2995 RMK AO2 P0000=
201411202353 METAR KBFI 202353Z 17005KT 7SM -RA OVC033 12/08 A2995 RMK AO2 RAB48 SLP142 P0000 60000 T01170078 10122 20094 56004=
201411202253 METAR KBFI 202253Z 15004KT 10SM FEW039 OVC049 12/08 A2995 RMK AO2 SLP143 T01220078=
201411202153 METAR KBFI 202153Z 09004KT 10SM FEW039 OVC048 12/07 A2996 RMK AO2 SLP143 T01220072=
201411202053 METAR KBFI 202053Z 12004KT 10SM OVC046 12/07 A2996 RMK AO2 SLP146 T01170072 58006=
201411201953 METAR KBFI 201953Z 15003KT 10SM FEW043 OVC055 12/07 A2997 RMK AO2 SLP147 T01170067=
201411201853 METAR KBFI 201853Z 15004KT 10SM BKN043 BKN050 OVC060 11/06 A2998 RMK AO2 SLP153 T01060061=
201411201753 METAR KBFI 201753Z 13007KT 10SM SCT050 OVC075 09/06 A2998 RMK AO2 SLP153 T00940061 10094 20067 50003=
201411201653 METAR KBFI 201653Z 15007KT 10SM FEW039 OVC065 09/06 A2998 RMK AO2 SLP153 T00890061=
201411201600 SPECI KBFI 201600Z 15005KT 10SM SCT009 SCT075 07/04 A2998 RMK AO2=
201411201553 METAR KBFI 201553Z 14006KT 10SM SCT020 BKN075 07/04 A2998 RMK AO2 SLP150 T00670044=
201411201520 SPECI KBFI 201520Z 12007KT 10SM SCT012 BKN040 08/05 A2997 RMK AO2=
201411201511 SPECI KBFI 201511Z 12007KT 10SM SCT012 BKN025 08/05 A2997 RMK AO2=
201411201453 METAR KBFI 201453Z 12005KT 10SM BKN014 OVC023 08/05 A2997 RMK AO2 SLP150 T00830050 53007=
201411201432 SPECI KBFI 201432Z 12005KT 10SM BKN028 OVC030 08/06 A2998 RMK AO2=
201411201353 METAR KBFI 201353Z 11005KT 10SM FEW028 BKN033 OVC042 08/05 A2997 RMK AO2 SLP147 T00780050=
201411201253 METAR KBFI 201253Z 13005KT 10SM OVC026 07/04 A2996 RMK AO2 SLP144 T00720044=
201411201153 METAR KBFI 201153Z 13004KT 8SM OVC026 07/04 A2995 RMK AO2 RAE53 SLP143 P0001 60010 70010 T00670044 10089 20067 52014=
201411201053 METAR KBFI 201053Z 13003KT 7SM -RA OVC028 07/04 A2994 RMK AO2 SLP138 P0003 T00670039=
201411200953 METAR KBFI 200953Z 13003KT 9SM -RA BKN030 OVC035 07/04 A2993 RMK AO2 SLP134 P0003 T00720039=
201411200853 METAR KBFI 200853Z 00000KT 10SM -RA OVC043 08/04 A2991 RMK AO2 SLP129 P0003 60003 T00780039 53017=
201411200753 METAR KBFI 200753Z 13004KT 10SM -RA BKN070 OVC085 09/02 A2988 RMK AO2 RAB49 SLP119 P0000 T00890017 401110011=
201411200653 METAR KBFI 200653Z 13003KT 10SM BKN100 07/02 A2987 RMK AO2 SLP115 T00720017=
201411200553 METAR KBFI 200553Z 16005KT 10SM SCT100 07/02 A2986 RMK AO2 SLP112 T00720022 10106 20072 51005=
201411200453 METAR KBFI 200453Z 13005KT 10SM BKN110 BKN200 08/02 A2985 RMK AO2 SLP109 T00830022=
201411200353 METAR KBFI 200353Z 14007KT 10SM BKN140 08/03 A2986 RMK AO2 SLP110 T00780028=
201411200253 METAR KBFI 200253Z 00000KT 10SM BKN140 10/03 A2985 RMK AO2 SLP106 T01000028 53006=
201411200153 METAR KBFI 200153Z 18003KT 10SM FEW110 09/02 A2984 RMK AO2 SLP104 T00940022=
201411200053 METAR KBFI 200053Z 00000KT 10SM SCT110 BKN200 10/02 A2984 RMK AO2 SLP103 T01000017=
201411192353 METAR KBFI 192353Z 31003KT 10SM BKN110 OVC250 11/00 A2983 RMK AO2 SLP100 T01060000 10111 20078 56015=
201411192253 METAR KBFI 192253Z 30005KT 10SM SCT100 OVC250 11/01 A2984 RMK AO2 SLP103 T01110011=
201411192153 METAR KBFI 192153Z 32003KT 10SM BKN170 11/01 A2985 RMK AO2 SLP107 T01110011=
201411192053 METAR KBFI 192053Z 32008KT 10SM BKN170 11/01 A2987 RMK AO2 SLP116 T01060006 58028=
201411191953 METAR KBFI 191953Z 33004KT 10SM BKN110 BKN200 10/01 A2991 RMK AO2 SLP127 T01000006=
201411191853 METAR KBFI 191853Z 28003KT 10SM BKN200 09/M01 A2993 RMK AO2 SLP135 T00941011=
201411191753 METAR KBFI 191753Z 00000KT 8SM BKN120 OVC200 08/01 A2996 RMK AO2 SLP144 HZ ALQDS T00780006 10078 20033 58014=
201411191653 METAR KBFI 191653Z 00000KT 6SM HZ BKN120 OVC200 06/02 A2998 RMK AO2 SLP151 T00610017=
201411191553 METAR KBFI 191553Z COR 00000KT 6SM HZ BKN120 05/01 A3000 RMK AO2 SLP158 T00500011=
201411191453 METAR KBFI 191453Z 00000KT 6SM HZ BKN120 04/01 A3000 RMK AO2 SLP158 T00440011 58014=
201411191353 METAR KBFI 191353Z 00000KT 10SM SCT110 04/01 A3002 RMK AO2 SLP164 T00390011=
201411191253 METAR KBFI 191253Z 00000KT 10SM BKN110 04/01 A3003 RMK AO2 SLP169 T00440011=
201411191153 METAR KBFI 191153Z 00000KT 6SM HZ BKN110 04/01 A3004 RMK AO2 SLP172 T00440011 10044 20006 58014=
201411191053 METAR KBFI 191053Z 00000KT 5SM HZ BKN110 03/01 A3007 RMK AO2 SLP180 T00330006=
201411190953 METAR KBFI 190953Z 00000KT 10SM BKN120 03/00 A3008 RMK AO2 SLP184 T00280000=
201411190853 METAR KBFI 190853Z 00000KT 10SM FEW120 02/00 A3008 RMK AO2 SLP186 T00220000 58002=
201411190753 METAR KBFI 190753Z 13003KT 7SM CLR 02/M01 A3009 RMK AO2 SLP187 T00171006 400941017=
201411190653 METAR KBFI 190653Z 00000KT 7SM CLR 02/00 A3009 RMK AO2 SLP189 T00220000=
201411190553 METAR KBFI 190553Z 00000KT 5SM HZ CLR 03/01 A3009 RMK AO2 SLP188 T00330006 10089 20033 55006=
201411190453 METAR KBFI 190453Z 00000KT 5SM HZ OVC180 03/01 A3009 RMK AO2 SLP188 T00330006=
201411190353 METAR KBFI 190353Z 00000KT 5SM HZ OVC200 04/01 A3010 RMK AO2 SLP193 T00390011=
201411190253 METAR KBFI 190253Z 00000KT 7SM CLR 06/02 A3011 RMK AO2 SLP195 T00610022 56000=
201411190153 METAR KBFI 190153Z 00000KT 8SM SCT150 OVC200 06/02 A3011 RMK AO2 SLP195 T00610017=
201411190053 METAR KBFI 190053Z 00000KT 7SM SCT150 OVC200 07/02 A3011 RMK AO2 SLP195 FU HAZE ALQDS T00720017=
201411182353 METAR KBFI 182353Z 00000KT 7SM FEW015 OVC200 09/01 A3011 RMK AO2 SLP195 T00890011 10094 20033 55005=
201411182253 METAR KBFI 182253Z 00000KT 7SM OVC200 09/01 A3011 RMK AO2 SLP195 T00890011=
201411182153 METAR KBFI 182153Z 00000KT 8SM CLR 09/01 A3011 RMK AO2 SLP194 T00890011=
201411182053 METAR KBFI 182053Z 00000KT 10SM CLR 08/M01 A3012 RMK AO2 SLP200 T00831006 58010=
201411181953 METAR KBFI 181953Z 15004KT 7SM OVC250 07/01 A3014 RMK AO2 SLP204 T00670011=
201411181853 METAR KBFI 181853Z 12003KT 7SM OVC250 05/00 A3016 RMK AO2 SLP211 T00500000=
201411181753 METAR KBFI 181753Z 00000KT 7SM BKN250 03/M01 A3015 RMK AO2 SLP210 T00331011 10033 21017 58001=
201411181653 METAR KBFI 181653Z 00000KT 8SM CLR 02/M02 A3017 RMK AO2 SLP214 T00171022=
201411181553 METAR KBFI 181553Z 15004KT 8SM SCT200 M01/M03 A3016 RMK AO2 SLP213 T10061033=
201411181453 METAR KBFI 181453Z 15004KT 9SM SCT200 M01/M04 A3016 RMK AO2 SLP211 T10061039 53004=
201411181353 METAR KBFI 181353Z 15005KT 10SM CLR M01/M03 A3015 RMK AO2 SLP208 T10061033=
201411181253 METAR KBFI 181253Z 14005KT 10SM CLR M01/M03 A3014 RMK AO2 SLP207 T10111033=
201411181153 METAR KBFI 181153Z 00000KT 9SM CLR 01/M03 A3014 RMK AO2 SLP207 T00061028 10033 21017 56011=
201411181053 METAR KBFI 181053Z 00000KT 10SM CLR 01/M02 A3015 RMK AO2 SLP208 T00061022=
201411180953 METAR KBFI 180953Z 00000KT 10SM CLR 01/M03 A3015 RMK AO2 SLP210 T00111028=
201411180853 METAR KBFI 180853Z 00000KT 10SM CLR 01/M03 A3018 RMK AO2 SLP218 T00061033 58012=
201411180753 METAR KBFI 180753Z 00000KT 10SM CLR 02/M03 A3019 RMK AO2 SLP223 T00171028 401111028=
201411180653 METAR KBFI 180653Z 00000KT 10SM CLR 02/M03 A3021 RMK AO2 SLP228 T00221028=
201411180553 METAR KBFI 180553Z 00000KT 10SM CLR 02/M03 A3021 RMK AO2 SLP229 T00221033 10100 20011 56012=
201411180453 METAR KBFI 180453Z 00000KT 10SM CLR 03/M03 A3022 RMK AO2 SLP232 T00281028=
201411180353 METAR KBFI 180353Z 00000KT 10SM CLR 05/M02 A3023 RMK AO2 SLP236 T00501022=
201411180253 METAR KBFI 180253Z AUTO 00000KT 10SM CLR 04/M03 A3024 RMK AO2 SLP241 T00441028 56002 TSNO=
201411180153 METAR KBFI 180153Z 00000KT 10SM CLR 07/M03 A3025 RMK AO2 SLP242 T00671033=
201411180053 METAR KBFI 180053Z 00000KT 10SM SCT250 09/M04 A3025 RMK AO2 SLP241 T00891044=
201411172353 METAR KBFI 172353Z 32004KT 10SM CLR 10/M04 A3025 RMK AO2 SLP243 T01001039 10111 20033 56023=
201411172253 METAR KBFI 172253Z COR 33005KT 10SM SCT250 11/M04 A3027 RMK AO2 PK WND 31035/2156 SLP250 T01111044=
201411172153 METAR KBFI 172153Z 28004KT 10SM CLR 11/M04 A3029 RMK AO2 SLP255 T01061039=
201411172053 METAR KBFI 172053Z 31003KT 10SM SCT200 10/M02 A3032 RMK AO2 SLP266 T01001017 56021=
201411171953 METAR KBFI 171953Z 00000KT 10SM CLR 09/M06 A3033 RMK AO2 SLP271 T00891056=
201411171853 METAR KBFI 171853Z 00000KT 9SM CLR 07/M02 A3035 RMK AO2 SLP278 T00721022=
201411171753 METAR KBFI 171753Z 13003KT 10SM CLR 03/M03 A3038 RMK AO2 SLP286 T00331033 10033 21028 58001=
201411171653 METAR KBFI 171653Z 15007KT 9SM CLR 01/M03 A3039 RMK AO2 SLP291 T00061033=
201411171553 METAR KBFI 171553Z 00000KT 8SM CLR M01/M05 A3039 RMK AO2 SLP291 T10111050=
201411171453 METAR KBFI 171453Z 00000KT 9SM CLR M01/M05 A3038 RMK AO2 SLP287 T10061050 51005=
201411171353 METAR KBFI 171353Z 12003KT 10SM CLR M01/M05 A3038 RMK AO2 SLP286 T10111050=
201411171253 METAR KBFI 171253Z 00000KT 10SM CLR M01/M05 A3038 RMK AO2 SLP286 T10111050=
201411171153 METAR KBFI 171153Z 00000KT 10SM CLR 00/M04 A3037 RMK AO2 SLP282 T00001044 10022 21017 56009=
201411171053 METAR KBFI 171053Z 00000KT 10SM CLR M01/M05 A3037 RMK AO2 SLP285 T10061050=
201411170953 METAR KBFI 170953Z 00000KT 10SM CLR 00/M04 A3038 RMK AO2 SLP285 T00001044=
201411170853 METAR KBFI 170853Z 00000KT 10SM CLR 01/M04 A3040 RMK AO2 SLP292 T00061039 58006=
201411170753 METAR KBFI 170753Z 00000KT 10SM CLR 02/M04 A3042 RMK AO2 SLP300 T00171039 401001028=
201411170653 METAR KBFI 170653Z 00000KT 10SM CLR 01/M06 A3042 RMK AO2 SLP302 T00111056=
201411170553 METAR KBFI 170553Z 00000KT 10SM CLR 02/M06 A3041 RMK AO2 SLP298 T00221056 10089 20022 51014=
201411170453 METAR KBFI 170453Z 00000KT 10SM CLR 03/M06 A3040 RMK AO2 SLP294 T00331056=
201411170353 METAR KBFI 170353Z 00000KT 10SM CLR 04/M06 A3039 RMK AO2 SLP289 T00391061=
201411170253 METAR KBFI 170253Z 00000KT 10SM CLR 06/M07 A3037 RMK AO2 SLP284 T00611072 58007=
201411170153 METAR KBFI 170153Z 31003KT 10SM CLR 07/M06 A3038 RMK AO2 SLP288 T00671056=
201411170053 METAR KBFI 170053Z 33003KT 10SM CLR 07/M03 A3039 RMK AO2 SLP291 T00721028=
201411162353 METAR KBFI 162353Z 31003KT 10SM CLR 09/M03 A3039 RMK AO2 SLP292 T00891028 10100 20067 56016=
201411162253 METAR KBFI 162253Z 31005KT 10SM CLR 09/M04 A3040 RMK AO2 SLP294 T00941039=
201411162153 METAR KBFI 162153Z 30007KT 10SM CLR 09/M05 A3042 RMK AO2 SLP300 T00941050=
201411162053 METAR KBFI 162053Z 31004KT 10SM CLR 09/M05 A3044 RMK AO2 SLP308 T00941050 58016=
201411161953 METAR KBFI 161953Z VRB03KT 10SM CLR 10/M09 A3046 RMK AO2 SLP314 T01001094=
201411161853 METAR KBFI 161853Z 00000KT 10SM CLR 08/M08 A3048 RMK AO2 SLP321 T00831078=
201411161753 METAR KBFI 161753Z VRB03KT 10SM CLR 07/M06 A3049 RMK AO2 SLP324 T00671056 10067 21028 58001=
201411161653 METAR KBFI 161653Z 00000KT 10SM CLR 02/M05 A3049 RMK AO2 SLP325 T00171050=
201411161553 METAR KBFI 161553Z 00000KT 10SM CLR M02/M07 A3049 RMK AO2 SLP325 T10171067=
201411161453 METAR KBFI 161453Z 00000KT 10SM CLR M02/M07 A3049 RMK AO2 SLP325 T10221072 56003=
201411161353 METAR KBFI 161353Z 00000KT 10SM CLR M01/M07 A3049 RMK AO2 SLP325 T10061067=
201411161253 METAR KBFI 161253Z 00000KT 10SM CLR M01/M07 A3050 RMK AO2 SLP327 T10111072=
201411161153 METAR KBFI 161153Z 00000KT 10SM CLR M02/M07 A3050 RMK AO2 SLP328 T10171067 10017 21028 58005=
201411161053 METAR KBFI 161053Z 00000KT 10SM CLR M02/M07 A3051 RMK AO2 SLP332 T10171067=
201411160953 METAR KBFI 160953Z 00000KT 10SM CLR M01/M07 A3051 RMK AO2 SLP331 T10111067=
201411160853 METAR KBFI 160853Z 00000KT 10SM CLR M01/M06 A3052 RMK AO2 SLP333 T10061061 58009=
201411160753 METAR KBFI 160753Z 00000KT 10SM CLR 01/M06 A3053 RMK AO2 SLP337 T00061056 401001039=
201411160653 METAR KBFI 160653Z 00000KT 10SM CLR 00/M06 A3054 RMK AO2 SLP340 T00001056=
201411160553 METAR KBFI 160553Z 00000KT 10SM CLR 01/M06 A3054 RMK AO2 SLP342 T00111056 10089 20006 51008=
201411160453 METAR KBFI 160453Z 00000KT 10SM CLR 03/M07 A3054 RMK AO2 SLP342 T00281067=
201411160353 METAR KBFI 160353Z 00000KT 10SM CLR 04/M07 A3053 RMK AO2 SLP339 T00391072=
201411160253 METAR KBFI 160253Z 03003KT 10SM CLR 06/M09 A3052 RMK AO2 SLP334 T00561089 52021=
201411160153 METAR KBFI 160153Z 04004KT 10SM CLR 07/M09 A3050 RMK AO2 SLP329 T00671089=
201411160053 METAR KBFI 160053Z 02006KT 10SM CLR 07/M08 A3048 RMK AO2 SLP319 T00721078=
201411152353 METAR KBFI 152353Z 01006KT 10SM CLR 09/M11 A3046 RMK AO2 SLP314 T00891106 10100 20044 56003=
201411152253 METAR KBFI 152253Z 02005KT 10SM CLR 09/M12 A3046 RMK AO2 SLP315 T00941117=
201411152153 METAR KBFI 152153Z 02006KT 10SM CLR 09/M12 A3046 RMK AO2 SLP315 T00941122=
201411152053 METAR KBFI 152053Z 36004KT 10SM CLR 09/M12 A3047 RMK AO2 SLP317 T00891122 58003=
201411151953 METAR KBFI 151953Z 01004KT 10SM CLR 08/M11 A3047 RMK AO2 SLP318 T00831106=
201411151853 METAR KBFI 151853Z 00000KT 10SM CLR 07/M08 A3048 RMK AO2 SLP320 T00721078=
201411151753 METAR KBFI 151753Z 00000KT 10SM CLR 04/M04 A3048 RMK AO2 SLP320 T00441044 10044 21039 51017=
201411151653 METAR KBFI 151653Z 00000KT 10SM CLR 01/M04 A3046 RMK AO2 SLP315 T00061039=
201411151553 METAR KBFI 151553Z 00000KT 10SM CLR M02/M06 A3045 RMK AO2 SLP309 T10221061=
201411151453 METAR KBFI 151453Z 00000KT 10SM CLR M03/M07 A3043 RMK AO2 SLP303 T10281072 51023=
201411151353 METAR KBFI 151353Z 00000KT 10SM CLR M02/M07 A3041 RMK AO2 SLP295 T10221067=
201411151253 METAR KBFI 151253Z 00000KT 10SM CLR M02/M06 A3039 RMK AO2 SLP289 T10171061=
201411151153 METAR KBFI 151153Z 00000KT 10SM CLR M02/M06 A3036 RMK AO2 SLP280 T10221061 10017 21022 53012=
201411151053 METAR KBFI 151053Z 00000KT 10SM CLR M02/M07 A3035 RMK AO2 SLP275 T10171067=
201411150953 METAR KBFI 150953Z 00000KT 10SM CLR M01/M06 A3034 RMK AO2 SLP272 T10111061=
201411150853 METAR KBFI 150853Z AUTO 00000KT 10SM CLR 00/M07 A3032 RMK AO2 SLP268 T00001067 53016=
201411150753 METAR KBFI 150753Z 00000KT 10SM CLR 00/M06 A3031 RMK AO2 SLP263 T00001061 400891028=
201411150653 METAR KBFI 150653Z 00000KT 10SM CLR 01/M06 A3029 RMK AO2 SLP255 T00061061=
201411150553 METAR KBFI 150553Z 00000KT 10SM CLR 02/M06 A3028 RMK AO2 SLP252 T00171061 10078 20011 51018=
201411150453 METAR KBFI 150453Z 00000KT 10SM CLR 02/M07 A3026 RMK AO2 SLP245 T00171072=
201411150353 METAR KBFI 150353Z 00000KT 10SM CLR 04/M07 A3024 RMK AO2 SLP241 T00391067=
201411150253 METAR KBFI 150253Z 00000KT 10SM CLR 04/M07 A3022 RMK AO2 SLP234 T00441067 51018=
201411150153 METAR KBFI 150153Z 00000KT 10SM CLR 06/M07 A3020 RMK AO2 SLP228 T00561067=
201411150053 METAR KBFI 150053Z 34004KT 10SM CLR 06/M07 A3019 RMK AO2 SLP222 T00611067=
201411142353 METAR KBFI 142353Z 34007KT 10SM CLR 08/M07 A3017 RMK AO2 SLP216 T00781072 10089 20056 53009=
201411142253 METAR KBFI 142253Z AUTO VRB04KT 10SM CLR 08/M12 A3015 RMK AO2 SLP210 T00831117 TSNO=
201411142153 METAR KBFI 142153Z VRB03KT 10SM CLR 09/M09 A3015 RMK AO2 SLP208 T00891094=
201411142053 METAR KBFI 142053Z VRB04KT 10SM CLR 08/M11 A3014 RMK AO2 SLP207 T00831106 51008=
201411141953 METAR KBFI 141953Z 03003KT 10SM CLR 08/M09 A3014 RMK AO2 SLP205 T00781089=
201411141853 METAR KBFI 141853Z VRB04KT 10SM FEW100 06/M11 A3013 RMK AO2 SLP202 T00611106=
201411141753 METAR KBFI 141753Z 00000KT 10SM CLR 06/M07 A3012 RMK AO2 SLP199 T00611072 10061 21017 51014=
201411141653 METAR KBFI 141653Z 04004KT 10SM CLR 04/M03 A3011 RMK AO2 SLP196 T00391033=
201411141553 METAR KBFI 141553Z 00000KT 10SM CLR 02/M06 A3010 RMK AO2 SLP191 T00171061=
201411141453 METAR KBFI 141453Z 03003KT 10SM CLR 02/M07 A3008 RMK AO2 SLP185 T00171072 51012 $=
201411141353 METAR KBFI 141353Z 00000KT 10SM CLR M01/M08 A3007 RMK AO2 SLP182 T10061083=
201411141253 METAR KBFI 141253Z AUTO 05005KT 10SM CLR 02/M10 A3006 RMK AO2 SLP179 T00171100 TSNO=
201411141153 METAR KBFI 141153Z 00000KT 10SM CLR M02/M07 A3005 RMK AO2 SLP174 T10221072 10011 21028 51005=
201411141053 METAR KBFI 141053Z 00000KT 10SM CLR M02/M07 A3004 RMK AO2 SLP173 T10221072=
201411140953 METAR KBFI 140953Z 00000KT 10SM CLR M02/M08 A3003 RMK AO2 SLP170 T10221078=
201411140853 METAR KBFI 140853Z 00000KT 10SM CLR M02/M07 A3003 RMK AO2 SLP169 T10171072 50003=
201411140753 METAR KBFI 140753Z 14004KT 10SM CLR M01/M07 A3004 RMK AO2 SLP171 T10111072 400941011=
201411140653 METAR KBFI 140653Z 00000KT 10SM CLR 01/M08 A3003 RMK AO2 SLP168 T00061078=
201411140553 METAR KBFI 140553Z 00000KT 10SM CLR 01/M08 A3002 RMK AO2 SLP166 T00111078 10078 20006 53007=
201411140453 METAR KBFI 140453Z 00000KT 10SM CLR 02/M08 A3001 RMK AO2 SLP163 T00221083=
201411140353 METAR KBFI 140353Z 00000KT 10SM FEW075 02/M09 A3000 RMK AO2 SLP160 T00221089=
201411140253 METAR KBFI 140253Z 00000KT 10SM CLR 05/M11 A3000 RMK AO2 SLP159 T00501111 51008=
201411140153 METAR KBFI 140153Z 00000KT 10SM SCT075 04/M11 A3000 RMK AO2 SLP159 T00441111=
201411140053 METAR KBFI 140053Z 12005KT 10SM CLR 07/M13 A2999 RMK AO2 SLP155 T00671133=
201411132353 METAR KBFI 132353Z 12006KT 10SM SCT075 08/M13 A2998 RMK AO2 SLP151 T00781133 10094 20056 53000=
201411132253 METAR KBFI 132253Z 14004KT 10SM SCT075 09/M14 A2997 RMK AO2 SLP148 T00891144=
201411132153 METAR KBFI 132153Z 16004KT 10SM SCT065 09/M14 A2997 RMK AO2 SLP148 T00891139=
201411132053 METAR KBFI 132053Z 17005KT 10SM CLR 09/M14 A2998 RMK AO2 SLP151 T00891144 58007=
201411131953 METAR KBFI 131953Z 00000KT 10SM CLR 08/M13 A2999 RMK AO2 SLP154 T00781133=
201411131853 METAR KBFI 131853Z 00000KT 10SM CLR 07/M13 A3000 RMK AO2 SLP157 T00671133=
201411131753 METAR KBFI 131753Z 00000KT 10SM FEW180 06/M12 A3000 RMK AO2 SLP158 T00561122 10061 20022 53002=
201411131653 METAR KBFI 131653Z 00000KT 10SM CLR 03/M11 A3000 RMK AO2 SLP157 T00331111=
201411131553 METAR KBFI 131553Z COR 00000KT 10SM SCT250 03/M13 A2999 RMK AO2 SLP155 T00281128=
201411131453 METAR KBFI 131453Z 10004KT 10SM CLR 04/M16 A2999 RMK AO2 SLP156 T00391161 58021=
201411131353 METAR KBFI 131353Z 11003KT 10SM CLR 04/M17 A3001 RMK AO2 SLP163 T00441167=
201411131253 METAR KBFI 131253Z 11007KT 10SM SCT150 03/M17 A3004 RMK AO2 SLP172 T00331167=
201411131153 METAR KBFI 131153Z 11005KT 10SM SCT150 03/M16 A3006 RMK AO2 SLP178 T00331156 10039 20011 58013=
201411131053 METAR KBFI 131053Z 00000KT 10SM FEW150 03/M16 A3008 RMK AO2 SLP184 T00281156=
201411130953 METAR KBFI 130953Z 11010G19KT 10SM CLR 04/M17 A3008 RMK AO2 SLP187 T00391167=
201411130853 METAR KBFI 130853Z 10004KT 10SM CLR 03/M15 A3010 RMK AO2 SLP191 T00281150 56017=
201411130753 METAR KBFI 130753Z 00000KT 10SM CLR 03/M15 A3011 RMK AO2 SLP195 T00281150 400831011=
201411130653 METAR KBFI 130653Z 12011KT 10SM CLR 04/M17 A3012 RMK AO2 SLP200 T00391172=
201411130553 METAR KBFI 130553Z 12010G19KT 10SM CLR 04/M16 A3014 RMK AO2 SLP207 T00391161 10067 20033 58009=
201411130453 METAR KBFI 130453Z 13009KT 10SM CLR 04/M16 A3015 RMK AO2 SLP211 T00391156=
201411130353 METAR KBFI 130353Z 12010KT 080V140 10SM CLR 04/M17 A3016 RMK AO2 SLP213 T00391167=
201411130253 METAR KBFI 130253Z 11007G15KT 10SM CLR 04/M16 A3017 RMK AO2 SLP216 T00441161 56008=
201411130153 METAR KBFI 130153Z 13007KT 10SM CLR 03/M14 A3018 RMK AO2 SLP220 T00331144=
201411130053 METAR KBFI 130053Z 13007KT 10SM CLR 05/M16 A3018 RMK AO2 SLP219 T00501156=
201411122353 METAR KBFI 122353Z 15010KT 10SM CLR 07/M16 A3020 RMK AO2 SLP224 T00671161 10083 20050 56014=
201411122253 METAR KBFI 122253Z 14007KT 10SM CLR 08/M16 A3020 RMK AO2 SLP227 T00781161=
201411122153 METAR KBFI 122153Z 13009KT 10SM CLR 08/M16 A3021 RMK AO2 SLP231 T00831161=
201411122053 METAR KBFI 122053Z 13009KT 10SM CLR 08/M16 A3024 RMK AO2 SLP239 T00781161 58026=
201411121953 METAR KBFI 121953Z 14008KT 10SM CLR 07/M17 A3027 RMK AO2 SLP249 T00671167=
201411121853 METAR KBFI 121853Z 13008KT 10SM CLR 06/M16 A3030 RMK AO2 SLP259 T00611161=
201411121753 METAR KBFI 121753Z 12007G15KT 10SM CLR 05/M17 A3031 RMK AO2 SLP264 T00501167 10050 21011 58006=
201411121653 METAR KBFI 121653Z 10003KT 10SM CLR 04/M15 A3033 RMK AO2 SLP269 T00391150=
201411121553 METAR KBFI 121553Z 09005KT 10SM CLR 02/M16 A3033 RMK AO2 SLP270 T00221161=
201411121453 METAR KBFI 121453Z 00000KT 10SM CLR 01/M12 A3033 RMK AO2 SLP271 T00061122 58004=
201411121353 METAR KBFI 121353Z 00000KT 10SM CLR 01/M12 A3034 RMK AO2 SLP273 T00061122=
201411121253 METAR KBFI 121253Z 00000KT 10SM CLR 00/M12 A3034 RMK AO2 SLP274 T00001122=
201411121153 METAR KBFI 121153Z AUTO 10007KT 10SM CLR 02/M16 A3034 RMK AO2 SLP274 T00221161 10039 20022 58008 TSNO=
201411121053 METAR KBFI 121053Z AUTO 10005KT 10SM CLR 02/M16 A3036 RMK AO2 SLP280 T00221156 TSNO=
201411120953 METAR KBFI 120953Z 11009KT 10SM CLR 03/M16 A3037 RMK AO2 SLP282 T00281156=
201411120853 METAR KBFI 120853Z 11009G16KT 10SM CLR 03/M16 A3037 RMK AO2 SLP283 T00281161 50002=
201411120753 METAR KBFI 120753Z 11011G16KT 10SM CLR 03/M16 A3037 RMK AO2 SLP283 T00331161 401000022=
201411120653 METAR KBFI 120653Z VRB05KT 10SM CLR 02/M16 A3037 RMK AO2 SLP283 T00221156=
201411120553 METAR KBFI 120553Z 11009G19KT 10SM CLR 04/M16 A3036 RMK AO2 SLP280 T00391156 10072 20039 53007=
201411120453 METAR KBFI 120453Z 11011G17KT 10SM CLR 04/M16 A3035 RMK AO2 SLP276 T00391156=
201411120353 METAR KBFI 120353Z 11009KT 10SM CLR 04/M15 A3034 RMK AO2 SLP275 T00441150=
201411120253 METAR KBFI 120253Z 11008G16KT 10SM CLR 05/M16 A3034 RMK AO2 SLP273 T00501156 51009=
201411120153 METAR KBFI 120153Z 11009G17KT 10SM CLR 06/M16 A3033 RMK AO2 SLP271 T00561161=
201411120053 METAR KBFI 120053Z 11013G18KT 10SM CLR 06/M16 A3032 RMK AO2 SLP267 T00611156=
201411112353 METAR KBFI 112353Z 13012G19KT 10SM CLR 07/M13 A3031 RMK AO2 SLP263 T00721133 10100 20072 53003=
201411112253 METAR KBFI 112253Z 12011G17KT 10SM CLR 08/M13 A3030 RMK AO2 SLP260 T00831128=
201411112153 METAR KBFI 112153Z 08006G14KT 10SM CLR 09/M13 A3030 RMK AO2 SLP259 T00941128=
201411112053 METAR KBFI 112053Z 06007G18KT 10SM CLR 09/M12 A3030 RMK AO2 SLP260 T00941117 50004=
201411111953 METAR KBFI 111953Z VRB05G19KT 10SM CLR 09/M10 A3030 RMK AO2 SLP261 T00941100=
201411111853 METAR KBFI 111853Z 10008KT 060V130 10SM CLR 09/M07 A3031 RMK AO2 SLP262 T00941072=
201411111753 METAR KBFI 111753Z 12010KT 10SM CLR 08/M07 A3029 RMK AO2 SLP256 T00831067 10083 20039 51021=
201411111653 METAR KBFI 111653Z 09006KT 10SM CLR 08/M05 A3028 RMK AO2 SLP251 T00781050=
201411111553 METAR KBFI 111553Z AUTO 06004KT 10SM FEW075 07/M01 A3025 RMK AO2 SLP243 T00671011 TSNO=
201411111453 METAR KBFI 111453Z 04004KT 10SM CLR 06/02 A3023 RMK AO2 SLP235 T00560017 53009=
201411111353 METAR KBFI 111353Z 00000KT 10SM FEW007 05/02 A3021 RMK AO2 SLP229 T00500017=
201411111253 METAR KBFI 111253Z 01004KT 10SM FEW005 06/02 A3020 RMK AO2 SLP227 T00560017=
201411111153 METAR KBFI 111153Z 00000KT 10SM SCT070 06/02 A3020 RMK AO2 SLP225 T00560022 10083 20056 51007=
201411111053 METAR KBFI 111053Z 00000KT 10SM BKN070 07/03 A3019 RMK AO2 SLP222 T00670028=
201411110953 METAR KBFI 110953Z 00000KT 10SM BKN070 07/04 A3019 RMK AO2 SLP222 T00720039=
201411110853 METAR KBFI 110853Z 00000KT 10SM BKN075 07/04 A3018 RMK AO2 SLP218 T00720039 53002=
201411110753 METAR KBFI 110753Z 02003KT 10SM OVC075 07/03 A3017 RMK AO2 SLP217 T00720028 401220061=
201411110653 METAR KBFI 110653Z 02003KT 10SM BKN075 08/02 A3017 RMK AO2 SLP215 T00780017=
201411110553 METAR KBFI 110553Z 00000KT 10SM SCT070 06/02 A3017 RMK AO2 SLP217 T00610022 10117 20061 53002=
201411110453 METAR KBFI 110453Z 00000KT 10SM CLR 07/03 A3016 RMK AO2 SLP213 T00720028=
201411110353 METAR KBFI 110353Z 00000KT 10SM CLR 09/02 A3016 RMK AO2 SLP212 T00890022=
201411110253 METAR KBFI 110253Z 00000KT 10SM CLR 09/02 A3017 RMK AO2 SLP215 T00940017 58003=
201411110153 METAR KBFI 110153Z 00000KT 10SM CLR 10/01 A3018 RMK AO2 SLP218 T01000011=
201411110053 METAR KBFI 110053Z 00000KT 10SM CLR 11/02 A3018 RMK AO2 SLP220 T01060022=
201411102353 METAR KBFI 102353Z 02004KT 10SM CLR 12/04 A3018 RMK AO2 SLP218 T01170039 10122 20106 56006=
201411102253 METAR KBFI 102253Z VRB06KT 10SM FEW024 12/04 A3018 RMK AO2 SLP219 T01170039=
201411102153 METAR KBFI 102153Z 03007KT 10SM CLR 12/04 A3019 RMK AO2 SLP221 T01220044 $=
201411102053 METAR KBFI 102053Z 06007KT 10SM FEW050 12/04 A3019 RMK AO2 SLP224 T01220044 58003 $=
201411102005 SPECI KBFI 102005Z 05006KT 10SM SCT027 12/05 A3020 RMK AO2 $=
201411101953 METAR KBFI 101953Z VRB03KT 10SM FEW020 BKN027 12/06 A3020 RMK AO2 SLP226 T01170056 $=
201411101853 METAR KBFI 101853Z VRB03KT 10SM FEW018 11/05 A3020 RMK AO2 SLP225 T01110050=
201411101753 METAR KBFI 101753Z 04006KT 10SM SCT018 11/04 A3020 RMK AO2 SLP227 T01060044 10106 20083 51004=
201411101653 METAR KBFI 101653Z VRB03KT 10SM SCT019 BKN030 09/06 A3020 RMK AO2 SLP227 T00940056=
201411101553 METAR KBFI 101553Z 00000KT 10SM SCT018 09/05 A3020 RMK AO2 SLP225 T00890050=
201411101518 SPECI KBFI 101518Z 03004KT 10SM SCT014 09/05 A3019 RMK AO2=
201411101507 SPECI KBFI 101507Z 00000KT 10SM SCT014 BKN020 09/06 A3019 RMK AO2=
201411101500 SPECI KBFI 101500Z 06003KT 10SM SCT013 09/06 A3019 RMK AO2=
201411101453 METAR KBFI 101453Z VRB03KT 10SM SCT014 BKN020 09/05 A3019 RMK AO2 SLP222 T00890050 53021=
201411101353 METAR KBFI 101353Z 00000KT 10SM SCT018 09/05 A3017 RMK AO2 SLP216 T00890050=
201411101253 METAR KBFI 101253Z 01004KT 10SM BKN023 10/06 A3014 RMK AO2 SLP206 T01000056=
201411101200 SPECI KBFI 101200Z 03003KT 10SM OVC025 10/06 A3013 RMK AO2=
201411101153 METAR KBFI 101153Z 00000KT 10SM SCT025 10/06 A3013 RMK AO2 SLP202 70027 T01000061 10106 20078 51019=
201411101100 SPECI KBFI 101100Z VRB03KT 10SM SCT025 10/06 A3012 RMK AO2=
201411101053 METAR KBFI 101053Z 00000KT 10SM BKN017 10/06 A3012 RMK AO2 SLP198 T01000061=
201411100953 METAR KBFI 100953Z 00000KT 10SM BKN017 08/06 A3011 RMK AO2 SLP194 T00830061=
201411100853 METAR KBFI 100853Z 00000KT 10SM FEW040 08/06 A3007 RMK AO2 SLP183 T00830061 53022=
201411100753 METAR KBFI 100753Z 00000KT 10SM FEW060 10/06 A3005 RMK AO2 SLP174 T01000061 401390089=
201411100653 METAR KBFI 100653Z 00000KT 10SM BKN024 OVC035 11/08 A3003 RMK AO2 SLP167 T01060083=
201411100553 METAR KBFI 100553Z 00000KT 10SM FEW029 BKN043 OVC050 11/08 A3001 RMK AO2 SLP161 60008 T01060078 10117 20100 53021=
201411100453 METAR KBFI 100453Z 00000KT 10SM FEW026 BKN044 OVC065 11/08 A2999 RMK AO2 SLP154 T01060083=
201411100353 METAR KBFI 100353Z 00000KT 10SM SCT038 BKN045 OVC065 11/08 A2995 RMK AO2 SLP143 T01060078=
201411100253 METAR KBFI 100253Z 00000KT 10SM FEW041 BKN050 OVC065 11/08 A2995 RMK AO2 RAB0158E42 SLP140 P0003 60008 T01060078 53018=
201411100153 METAR KBFI 100153Z 34004KT 10SM SCT028 BKN035 OVC041 12/07 A2993 RMK AO2 RAB35E46 SLP133 P0000 T01170072=
201411100109 SPECI KBFI 100109Z 00000KT 10SM BKN030 BKN035 OVC042 12/08 A2991 RMK AO2=
201411100053 METAR KBFI 100053Z 00000KT 10SM OVC028 11/08 A2990 RMK AO2 RAE36 SLP126 P0005 T01110083=
201411092353 METAR KBFI 092353Z 03003KT 10SM -RA SCT026 OVC035 12/08 A2989 RMK AO2 RAB25 SLP122 P0006 60007 T01220083 10139 20100 53014=
201411092253 METAR KBFI 092253Z 04003KT 10SM BKN024 OVC039 13/08 A2987 RMK AO2 RAE17 SLP115 P0001 T01330083=
201411092153 METAR KBFI 092153Z 00000KT 8SM -RA SCT019 BKN026 OVC049 13/09 A2986 RMK AO2 RAB45 SLP111 P0000 T01330094=
201411092053 METAR KBFI 092053Z 15007KT 10SM SCT014 BKN030 14/10 A2985 RMK AO2 SLP108 T01390100 51010=
201411091953 METAR KBFI 091953Z 14006KT 10SM SCT008 BKN050 13/09 A2985 RMK AO2 SLP108 T01280094=
201411091943 SPECI KBFI 091943Z 12006KT 10SM SCT008 SCT012 BKN060 12/09 A2985 RMK AO2=
201411091853 METAR KBFI 091853Z 00000KT 4SM HZ OVC008 11/08 A2985 RMK AO2 SLP107 T01060078=
201411091753 METAR KBFI 091753Z 15008KT 7SM BKN008 OVC012 10/08 A2982 RMK AO2 SLP099 60012 T01000078 10117 20100 58017=
201411091653 METAR KBFI 091653Z VRB04KT 7SM BKN008 BKN018 OVC080 10/07 A2984 RMK AO2 RAB15E42 CIG 007V011 SLP106 P0000 T01000072=
201411091641 SPECI KBFI 091641Z 12008KT 3SM -RA BR OVC022 10/07 A2982 RMK AO2 RAB15 P0000=
201411091553 METAR KBFI 091553Z COR 17010KT 3SM -RABR OVC022 11/06 A2986 RMK AO2 RAE12 SLP110 P0000 T01060061=
201411091453 METAR KBFI 091453Z 16010KT 10SM -RA BKN026 OVC032 11/07 A2987 RMK AO2 SLP115 P0005 60012 T01060067 56025=
201411091353 METAR KBFI 091353Z 17006KT 9SM -RA BKN060 OVC075 11/07 A2989 RMK AO2 RAB11 SLP120 P0007 T01110072=
201411091253 METAR KBFI 091253Z 17008G14KT 140V210 10SM OVC060 11/07 A2990 RMK AO2 SLP126 T01110067=
201411091153 METAR KBFI 091153Z 13008KT 10SM OVC065 10/07 A2995 RMK AO2 RAE42 SLP140 P0001 60002 70002 T01000067 10106 20089 58029=
201411091053 METAR KBFI 091053Z 14009KT 10SM -RA BKN080 OVC100 09/07 A2999 RMK AO2 RAB02 SLP153 P0001 T00940067=
201411090953 METAR KBFI 090953Z 13005KT 10SM SCT008 OVC095 09/07 A3005 RMK AO2 SLP174 T00940067=
201411090853 METAR KBFI 090853Z 14005KT 10SM SCT008 OVC100 10/07 A3003 RMK AO2 SLP169 T01000067 58020=
201411090832 SPECI KBFI 090832Z 13005KT 10SM BKN010 OVC110 09/07 A3006 RMK AO2=
201411090812 SPECI KBFI 090812Z 13005KT 10SM BKN008 BKN110 10/07 A3006 RMK AO2=
201411090753 METAR KBFI 090753Z 14005KT 10SM SCT110 09/07 A3006 RMK AO2 SLP178 T00940067 401390061=
201411090653 METAR KBFI 090653Z 14004KT 10SM FEW015 09/06 A3007 RMK AO2 SLP182 T00940061=
201411090553 METAR KBFI 090553Z 00000KT 10SM CLR 10/06 A3009 RMK AO2 SLP189 T01000061 10133 20089 56013=
201411090453 METAR KBFI 090453Z 00000KT 10SM CLR 11/06 A3010 RMK AO2 SLP191 T01060061=
201411090353 METAR KBFI 090353Z 00000KT 10SM CLR 11/06 A3011 RMK AO2 SLP197 T01060061=
201411090253 METAR KBFI 090253Z 00000KT 10SM CLR 11/06 A3013 RMK AO2 SLP201 T01110056 56016=
201411090153 METAR KBFI 090153Z 30003KT 10SM FEW120 12/07 A3015 RMK AO2 SLP209 T01220067=
201411090053 METAR KBFI 090053Z 34003KT 10SM CLR 12/07 A3015 RMK AO2 SLP209 T01220067=
201411082353 METAR KBFI 082353Z 31003KT 10SM SCT150 13/06 A3018 RMK AO2 SLP218 T01330056 10139 20094 56019=
201411082253 METAR KBFI 082253Z 00000KT 10SM SCT150 13/06 A3019 RMK AO2 SLP222 T01330061=
201411082153 METAR KBFI 082153Z 00000KT 10SM SCT140 BKN200 13/06 A3021 RMK AO2 SLP230 T01280061=
201411082053 METAR KBFI 082053Z 35004KT 10SM CLR 12/06 A3023 RMK AO2 SLP237 T01220061 56032=
201411081953 METAR KBFI 081953Z 34006KT 10SM SCT200 12/06 A3025 RMK AO2 SLP245 T01220056=
201411081853 METAR KBFI 081853Z 19003KT 10SM FEW012 SCT200 11/06 A3028 RMK AO2 SLP253 T01060061=
201411081753 METAR KBFI 081753Z 00000KT 7SM SCT007 BKN250 09/06 A3033 RMK AO2 SLP269 T00940061 10094 20061 58003=
201411081653 METAR KBFI 081653Z 00000KT 3SM BKN005 08/06 A3034 RMK AO2 SLP272 VIS N 7SM VIS S 2SM T00780056=
201411081553 METAR KBFI 081553Z 00000KT 2SM BR OVC004 08/06 A3034 RMK AO2 SLP272 T00780056=
201411081453 METAR KBFI 081453Z 00000KT 2SM BR OVC003 07/06 A3032 RMK AO2 SLP268 T00720056 58003=
201411081353 METAR KBFI 081353Z 00000KT 2SM BR OVC002 07/06 A3033 RMK AO2 SLP272 T00720056=
201411081345 SPECI KBFI 081345Z 00000KT 1 3/4SM BR OVC002 07/06 A3033 RMK AO2=
201411081253 METAR KBFI 081253Z 00000KT 10SM OVC004 07/04 A3033 RMK AO2 SLP271 T00670044=
201411081223 SPECI KBFI 081223Z 00000KT 10SM OVC004 06/04 A3033 RMK AO2=
201411081153 METAR KBFI 081153Z 00000KT 10SM BKN006 06/04 A3033 RMK AO2 SLP271 T00610039 10094 20061 56014=
201411081150 SPECI KBFI 081150Z 00000KT 10SM BKN006 06/04 A3034 RMK AO2=
201411081053 METAR KBFI 081053Z 00000KT 5SM SCT006 SCT020 07/04 A3036 RMK AO2 SLP279 T00670044=
201411081043 SPECI KBFI 081043Z 00000KT 5SM SCT006 06/04 A3036 RMK AO2=
201411080953 METAR KBFI 080953Z 14003KT 10SM CLR 07/04 A3038 RMK AO2 SLP286 T00670039=
201411080853 METAR KBFI 080853Z 00000KT 10SM CLR 08/04 A3038 RMK AO2 SLP287 T00780044 58006=
201411080753 METAR KBFI 080753Z 00000KT 10SM CLR 07/04 A3039 RMK AO2 SLP291 T00720044 401500072=
201411080653 METAR KBFI 080653Z 00000KT 10SM CLR 08/05 A3040 RMK AO2 SLP293 T00830050=
201411080553 METAR KBFI 080553Z 00000KT 10SM CLR 09/06 A3040 RMK AO2 SLP293 T00940056 10144 20089 55002=
201411080453 METAR KBFI 080453Z 00000KT 10SM CLR 09/06 A3040 RMK AO2 SLP292 T00940056=
201411080353 METAR KBFI 080353Z 00000KT 10SM CLR 11/06 A3039 RMK AO2 SLP291 T01060061=
201411080253 METAR KBFI 080253Z 00000KT 10SM CLR 12/06 A3040 RMK AO2 SLP295 T01170056 58004=
201411080153 METAR KBFI 080153Z 34003KT 10SM CLR 13/06 A3042 RMK AO2 SLP300 T01280056=
201411080053 METAR KBFI 080053Z VRB03KT 10SM FEW040 SCT250 14/04 A3042 RMK AO2 SLP300 T01390044=
201411072353 METAR KBFI 072353Z 31004KT 10SM CLR 14/05 A3042 RMK AO2 SLP299 T01440050 10150 20128 56014=
201411072253 METAR KBFI 072253Z 30006KT 10SM FEW040 15/06 A3042 RMK AO2 SLP301 T01500061=
201411072153 METAR KBFI 072153Z 30004KT 10SM FEW015 SCT030 15/07 A3044 RMK AO2 SLP306 T01500067=
201411072053 METAR KBFI 072053Z 30004KT 10SM FEW025 BKN250 14/07 A3045 RMK AO2 SLP312 T01440067 58009=
201411071953 METAR KBFI 071953Z 00000KT 10SM FEW015 SCT034 14/07 A3048 RMK AO2 SLP319 T01390072=
201411071853 METAR KBFI 071853Z 00000KT 10SM FEW020 SCT038 BKN250 14/06 A3047 RMK AO2 SLP318 T01440061=
201411071753 METAR KBFI 071753Z COR 00000KT 10SM FEW020 SCT060 13/07 A3048 RMK AO2 SLP322 T01280072 10128 20089 51016=
201411071653 METAR KBFI 071653Z 13004KT 10SM SCT060 11/07 A3048 RMK AO2 SLP320 T01060072=
201411071553 METAR KBFI 071553Z 00000KT 10SM CLR 09/07 A3046 RMK AO2 SLP315 T00890067=
201411071453 METAR KBFI 071453Z 14003KT 10SM BKN065 09/07 A3044 RMK AO2 SLP306 T00890067 53025=
201411071353 METAR KBFI 071353Z 14003KT 10SM OVC065 09/07 A3041 RMK AO2 SLP298 T00940067=
201411071253 METAR KBFI 071253Z 14005KT 10SM OVC060 10/07 A3039 RMK AO2 SLP289 T01000072=
201411071153 METAR KBFI 071153Z 13006KT 10SM FEW040 OVC060 10/07 A3036 RMK AO2 SLP282 70019 T01000072 10133 20089 51018=
201411071053 METAR KBFI 071053Z 12004KT 10SM BKN050 10/07 A3036 RMK AO2 SLP279 T01000072=
201411070953 METAR KBFI 070953Z 15006KT 10SM SCT200 11/07 A3034 RMK AO2 SLP272 T01060072=
201411070853 METAR KBFI 070853Z 12003KT 10SM CLR 11/07 A3031 RMK AO2 SLP263 T01110072 51020=
201411070753 METAR KBFI 070753Z AUTO 17005KT 10SM CLR 12/07 A3030 RMK AO2 SLP259 T01220072 401830122 TSNO=
201411070653 METAR KBFI 070653Z 18006KT 10SM FEW020 13/07 A3028 RMK AO2 SLP254 T01280072=
201411070553 METAR KBFI 070553Z 18006KT 10SM CLR 13/07 A3025 RMK AO2 PRESRR SLP244 T01280072 10150 20128 53041=
201411070453 METAR KBFI 070453Z 20006KT 10SM SCT180 13/07 A3020 RMK AO2 SLP227 T01330072=
201411070353 METAR KBFI 070353Z 19011G20KT 160V220 10SM SCT160 14/07 A3015 RMK AO2 PK WND 19029/0316 SLP210 T01390072=
201411070253 METAR KBFI 070253Z 19016G27KT 10SM FEW100 14/08 A3013 RMK AO2 PK WND 19030/0240 SLP202 T01390078 53034=
201411070153 METAR KBFI 070153Z 19012G27KT 10SM SCT023 BKN100 14/08 A3009 RMK AO2 PK WND 19033/0136 PRESRR SLP190 T01440083=
201411070053 METAR KBFI 070053Z 19017G26KT 10SM SCT020 BKN060 14/08 A3005 RMK AO2 PK WND 20027/0038 SLP175 T01440083=
201411062353 METAR KBFI 062353Z 19010G21KT 10SM FEW020 SCT025 BKN060 15/09 A3003 RMK AO2 PK WND 18027/2254 RAB12E20 SLP168 P0000 60005 T01500094 10183 20150 53044=
201411062253 METAR KBFI 062253Z 18016G27KT 140V210 10SM FEW020 SCT025 BKN060 16/10 A2997 RMK AO2 PK WND 17028/2203 SLP148 T01560100=
201411062153 METAR KBFI 062153Z 19016G23KT 10SM FEW020 SCT025 BKN060 16/10 A2994 RMK AO2 PK WND 19030/2100 RAE17 SLP139 P0001 T01560100=
201411062053 METAR KBFI 062053Z 18016G24KT 6SM -RA FEW022 BKN036 OVC060 16/11 A2990 RMK AO2 PK WND 20027/2024 RAB01 SLP124 P0004 60004 T01560111 53010=
201411061953 METAR KBFI 061953Z 19015G26KT 10SM FEW037 BKN070 OVC200 18/10 A2986 RMK AO2 PK WND 17030/1903 SLP112 T01830100=
201411061853 METAR KBFI 061853Z COR 19017G32KT 10SM FEW035 BKN060 18/11 A2986 RMK AO2 PK WND 17034/1829 SLP110 T01780106=
201411061753 METAR KBFI 061753Z COR 17016G21KT 10SM FEW015 SCT080 17/12 A2987 RMK AO2 RAE19 SLP113 P0000 60014 T01720122 10172 20139 50024=
201411061653 METAR KBFI 061653Z COR 15009KT 10SM -RA SCT030 BKN070 16/12 A2987 RMK AO2 SLP115 P0010 T01560122=
201411061553 METAR KBFI 061553Z 17006KT 4SM RA FEW015 OVC065 15/12 A2983 RMK AO2 RAB31 SLP101 P0004 T01500122=
201411061453 METAR KBFI 061453Z 17008KT 10SM SCT060 SCT100 14/12 A2979 RMK AO2 RAE51 SLP089 P0000 60000 T01440122 58022=
201411061353 METAR KBFI 061353Z 15007KT 10SM -RA FEW055 SCT090 BKN110 14/12 A2982 RMK AO2 RAB45 SLP098 P0000 T01440122=
201411061253 METAR KBFI 061253Z 11004KT 10SM SCT070 SCT080 OVC100 14/12 A2984 RMK AO2 SLP103 T01390117=
201411061153 METAR KBFI 061153Z 13003KT 10SM BKN070 BKN085 14/12 A2986 RMK AO2 SLP111 60006 70030 T01390117 10150 20139 58026=
201411061053 METAR KBFI 061053Z 19004KT 10SM BKN055 OVC070 14/12 A2988 RMK AO2 RAE08 SLP119 P0000 T01440122=
201411060953 METAR KBFI 060953Z 00000KT 10SM -RA OVC070 14/13 A2992 RMK AO2 SLP131 P0001 T01440128=
201411060853 METAR KBFI 060853Z 00000KT 10SM -RA FEW040 OVC075 14/12 A2994 RMK AO2 SLP137 P0002 60005 T01440122 58022=
201411060753 METAR KBFI 060753Z 00000KT 10SM -RA FEW008 OVC075 14/12 A2996 RMK AO2 SLP143 P0001 T01440122 401610117=
201411060653 METAR KBFI 060653Z 00000KT 10SM -RA SCT019 BKN070 OVC110 14/13 A3000 RMK AO2 SLP157 P0002 T01440128=
201411060553 METAR KBFI 060553Z 00000KT 10SM -RA SCT028 BKN036 OVC080 15/12 A3000 RMK AO2 RAE04B21 SLP159 P0000 60016 T01500122 10156 20150 58013=
201411060453 METAR KBFI 060453Z 14004KT 10SM -RA OVC048 15/12 A3002 RMK AO2 SLP165 P0008 T01500122=
201411060353 METAR KBFI 060353Z 00000KT 8SM -RA OVC040 15/12 A3003 RMK AO2 RAE0255B43 SLP169 P0001 T01500122=
201411060253 METAR KBFI 060253Z 00000KT 10SM -RA OVC040 16/12 A3004 RMK AO2 RAB45 SLP172 P0000 60007 T01560122 58016=
201411060153 METAR KBFI 060153Z 14003KT 10SM OVC043 15/12 A3006 RMK AO2 RAE10B41E51 SLP177 P0001 T01500122=
201411060053 METAR KBFI 060053Z 00000KT 7SM -RA OVC038 15/13 A3008 RMK AO2 SLP185 P0006 T01500128=
201411052353 METAR KBFI 052353Z 00000KT 3SM -RA OVC040 16/12 A3009 RMK AO2 RAB32 SLP188 P0004 60008 T01560122 10161 20144 57021=
201411052253 METAR KBFI 052253Z 10003KT 10SM OVC038 16/11 A3011 RMK AO2 SLP194 T01610111=
201411052153 METAR KBFI 052153Z 00000KT 10SM SCT030 BKN040 OVC050 16/12 A3013 RMK AO2 RAB00E49 SLP203 P0004 T01560117=
201411052053 METAR KBFI 052053Z 00000KT 10SM OVC040 16/10 A3015 RMK AO2 SLP209 T01560100 56014=
201411051953 METAR KBFI 051953Z 00000KT 10SM SCT036 OVC047 16/09 A3016 RMK AO2 SLP214 T01560089=
201411051853 METAR KBFI 051853Z 00000KT 10SM OVC047 15/09 A3018 RMK AO2 SLP218 T01500089=
201411051753 METAR KBFI 051753Z 00000KT 10SM FEW038 OVC046 14/09 A3019 RMK AO2 SLP223 T01440089 10144 20122 58009=
201411051703 SPECI KBFI 051703Z 00000KT 10SM BKN030 OVC036 13/09 A3021 RMK AO2=
201411051653 METAR KBFI 051653Z 14004KT 10SM BKN028 OVC035 13/09 A3021 RMK AO2 SLP230 T01330089=
201411051553 METAR KBFI 051553Z 00000KT 10SM OVC035 13/10 A3022 RMK AO2 SLP232 T01330100=
201411051453 METAR KBFI 051453Z 00000KT 10SM OVC045 13/09 A3022 RMK AO2 SLP232 T01280094 58017=
201411051353 METAR KBFI 051353Z 00000KT 10SM OVC070 12/09 A3025 RMK AO2 SLP242 T01220094=
201411051253 METAR KBFI 051253Z 00000KT 10SM OVC075 13/09 A3026 RMK AO2 SLP247 T01280094=
201411051153 METAR KBFI 051153Z 00000KT 10SM OVC090 13/09 A3027 RMK AO2 SLP250 70004 T01280089 10133 20117 55003=
201411051053 METAR KBFI 051053Z 13004KT 10SM OVC090 13/09 A3027 RMK AO2 SLP249 T01280094=
201411050953 METAR KBFI 050953Z 14006KT 10SM FEW047 BKN100 12/09 A3027 RMK AO2 SLP250 T01170089=
201411050853 METAR KBFI 050853Z 12004KT 10SM FEW019 BKN120 13/09 A3028 RMK AO2 SLP253 T01280094 50003=
201411050753 METAR KBFI 050753Z 14004KT 10SM SCT019 OVC055 13/10 A3029 RMK AO2 SLP255 T01330100 401610133=
201411050653 METAR KBFI 050653Z 14004KT 10SM SCT018 OVC021 13/10 A3028 RMK AO2 SLP252 T01330100=
201411050553 METAR KBFI 050553Z 14003KT 10SM OVC022 13/10 A3027 RMK AO2 SLP249 T01330100 10156 20133 51010=
201411050453 METAR KBFI 050453Z 10003KT 10SM BKN018 OVC027 14/10 A3026 RMK AO2 SLP246 T01440100=
201411050401 SPECI KBFI 050401Z 12003KT 10SM FEW020 BKN029 OVC033 14/10 A3025 RMK AO2=
201411050353 METAR KBFI 050353Z 12003KT 10SM SCT025 OVC031 14/10 A3026 RMK AO2 SLP246 T01390100=
201411050344 SPECI KBFI 050344Z 00000KT 10SM SCT025 OVC031 14/10 A3026 RMK AO2=
201411050337 SPECI KBFI 050337Z 11003KT 10SM BKN025 OVC031 14/10 A3026 RMK AO2=
201411050319 SPECI KBFI 050319Z 10003KT 10SM SCT025 OVC031 14/10 A3025 RMK AO2=
201411050311 SPECI KBFI 050311Z 00000KT 10SM BKN028 OVC034 14/10 A3024 RMK AO2=
201411050300 SPECI KBFI 050300Z 12003KT 10SM OVC030 14/10 A3024 RMK AO2=
201411050253 METAR KBFI 050253Z 10004KT 10SM BKN021 OVC030 14/10 A3024 RMK AO2 SLP240 T01440100 51013=
201411050229 SPECI KBFI 050229Z 14003KT 10SM BKN029 OVC042 14/09 A3024 RMK AO2=
201411050153 METAR KBFI 050153Z 10003KT 10SM BKN035 OVC044 14/09 A3023 RMK AO2 SLP237 T01440094=
201411050053 METAR KBFI 050053Z 14004KT 10SM SCT025 BKN030 OVC070 14/09 A3022 RMK AO2 SLP233 T01440094=
201411042353 METAR KBFI 042353Z 00000KT 10SM BKN025 BKN032 OVC039 16/09 A3020 RMK AO2 SLP227 T01560094 10161 20150 51022=
201411042253 METAR KBFI 042253Z 05006KT 10SM SCT022 BKN028 OVC034 16/10 A3018 RMK AO2 SLP220 T01560100=
201411042153 METAR KBFI 042153Z 01003KT 10SM OVC018 16/10 A3018 RMK AO2 SLP218 T01560100=
201411042053 METAR KBFI 042053Z 00000KT 10SM BKN016 16/11 A3014 RMK AO2 SLP205 T01560111 53024=
201411041953 METAR KBFI 041953Z VRB06KT 10SM SCT013 BKN024 OVC070 16/12 A3010 RMK AO2 SLP193 T01560117=
201411041853 METAR KBFI 041853Z 21008KT 10SM SCT017 BKN024 OVC032 16/12 A3009 RMK AO2 SLP190 T01610117=
201411041753 METAR KBFI 041753Z 16008KT 10SM OVC024 16/12 A3007 RMK AO2 SLP180 60004 T01560117 10156 20133 53021=
201411041653 METAR KBFI 041653Z 14008KT 10SM SCT012 BKN033 OVC075 14/12 A3003 RMK AO2 SLP170 T01440117=
201411041641 SPECI KBFI 041641Z 14008KT 7SM SCT012 BKN033 OVC075 14/12 A3003 RMK AO2=
201411041553 METAR KBFI 041553Z AUTO 14007KT 8SM SCT016 BKN023 OVC040 14/12 A3003 RMK AO2 SLP167 T01390117 TSNO=
201411041453 METAR KBFI 041453Z 15007KT 4SM BR SCT006 BKN017 OVC024 13/12 A3000 RMK AO2 RAE38 SLP159 P0002 60004 T01330117 53003=
201411041353 METAR KBFI 041353Z 12004KT 3SM -RA BR SCT006 BKN015 OVC024 13/11 A2999 RMK AO2 RAE01B52 SLP154 P0001 T01330111=
201411041319 SPECI KBFI 041319Z 15004KT 4SM BR BKN006 OVC032 13/11 A2999 RMK AO2 RAE01 P0001=
201411041253 METAR KBFI 041253Z 13006KT 4SM -RA BR SCT006 BKN010 OVC032 13/11 A2999 RMK AO2 SLP156 P0001 T01330111=
201411041229 SPECI KBFI 041229Z 13004KT 4SM -RA BR SCT006 BKN010 OVC036 13/11 A2999 RMK AO2 P0001=
201411041153 METAR KBFI 041153Z 12003KT 4SM -RA BR BKN030 OVC037 13/11 A2999 RMK AO2 RAB29 SLP156 P0002 60010 70027 T01330111 10144 20133 55004=
201411041053 METAR KBFI 041053Z 12003KT 6SM BR OVC030 13/11 A2999 RMK AO2 SLP156 T01330111=
201411040953 METAR KBFI 040953Z 14006KT 10SM OVC036 14/11 A2999 RMK AO2 RAE14 SLP155 P0000 T01390111=
201411040853 METAR KBFI 040853Z 16009KT 10SM -RA SCT055 BKN075 OVC100 14/11 A3001 RMK AO2 SLP160 P0001 60008 T01390106 58005=
201411040753 METAR KBFI 040753Z 16010KT 10SM -RA SCT060 OVC085 14/11 A3001 RMK AO2 SLP160 P0004 T01390106 401560128=
201411040653 METAR KBFI 040653Z 15010KT 9SM -RA OVC060 14/11 A3002 RMK AO2 SLP166 P0003 T01390111=
201411040553 METAR KBFI 040553Z 14010KT 10SM -RA OVC055 14/11 A3002 RMK AO2 SLP166 P0002 60006 T01390111 10150 20139 58011=
201411040453 METAR KBFI 040453Z 15011KT 10SM -RA BKN055 OVC080 14/11 A3003 RMK AO2 SLP170 P0001 T01390111=
201411040353 METAR KBFI 040353Z 15009KT 10SM -RA OVC060 14/11 A3004 RMK AO2 SLP173 P0001 T01390111=
201411040253 METAR KBFI 040253Z 16011G17KT 10SM -RA SCT060 BKN070 OVC090 14/11 A3005 RMK AO2 SLP177 P0002 60002 T01440111 58005=
201411040153 METAR KBFI 040153Z 16010KT 10SM -RA BKN050 OVC085 14/11 A3006 RMK AO2 RAB47 SLP179 P0000 T01440111=
201411040053 METAR KBFI 040053Z 16006KT 10SM SCT030 BKN080 OVC090 15/11 A3007 RMK AO2 RAE13 SLP182 P0000 T01500111=
201411032353 METAR KBFI 032353Z 16008KT 10SM -RA FEW017 BKN029 OVC041 15/11 A3007 RMK AO2 SLP182 P0004 60005 T01500111 10156 20133 58010=
201411032253 METAR KBFI 032253Z 16008KT 3SM -RA SCT017 BKN029 OVC041 16/12 A3009 RMK AO2 RAB39 SLP188 P0000 T01560117=
201411032153 METAR KBFI 032153Z 17009KT 10SM FEW024 BKN046 OVC065 16/11 A3009 RMK AO2 RAE2055 SLP190 P0001 T01560111=
201411032053 METAR KBFI 032053Z 16009KT 6SM -RA FEW030 BKN045 OVC055 14/11 A3010 RMK AO2 RAB43 SLP192 P0000 60000 T01440111 58007=
201411031953 METAR KBFI 031953Z 16011G17KT 10SM FEW022 BKN043 OVC055 15/11 A3011 RMK AO2 SLP196 T01500111=
201411031913 SPECI KBFI 031913Z 17008G15KT 10SM SCT022 BKN080 OVC095 14/11 A3012 RMK AO2=
201411031853 METAR KBFI 031853Z 17009KT 10SM FEW015 BKN022 OVC130 14/11 A3012 RMK AO2 RAE14 SLP198 P0000 T01390106=
201411031753 METAR KBFI 031753Z 17009KT 6SM -RA FEW010 SCT020 OVC030 13/11 A3012 RMK AO2 SLP198 P0003 60006 T01330106 10139 20128 53012=
201411031653 METAR KBFI 031653Z 15006KT 7SM -RA OVC042 13/10 A3010 RMK AO2 RAE1558B25 SLP194 P0003 T01330100=
201411031553 METAR KBFI 031553Z 14007KT 10SM -RA FEW033 OVC080 13/09 A3009 RMK AO2 RAB49 SLP189 P0000 T01330094=
201411031519 SPECI KBFI 031519Z 13006KT 10SM OVC031 13/09 A3009 RMK AO2=
201411031453 METAR KBFI 031453Z 16008KT 10SM OVC029 13/09 A3008 RMK AO2 SLP186 T01330094 58002=
201411031353 METAR KBFI 031353Z 13007KT 10SM SCT031 BKN040 OVC085 13/10 A3009 RMK AO2 SLP188 T01330100=
201411031253 METAR KBFI 031253Z 13007KT 10SM SCT034 SCT055 OVC075 13/10 A3009 RMK AO2 SLP188 T01330100=
201411031153 METAR KBFI 031153Z 14008KT 10SM SCT012 BKN024 OVC075 13/10 A3009 RMK AO2 SLP188 70012 T01330100 10133 20128 51002=
201411031119 SPECI KBFI 031119Z 16006KT 10SM SCT012 BKN024 OVC075 13/10 A3009 RMK AO2=
201411031053 METAR KBFI 031053Z 15007KT 10SM OVC012 13/10 A3009 RMK AO2 SLP188 T01330100=
201411030953 METAR KBFI 030953Z 15006KT 10SM OVC010 13/10 A3009 RMK AO2 SLP188 T01280100=
201411030853 METAR KBFI 030853Z 15005KT 10SM OVC015 13/10 A3008 RMK AO2 SLP186 T01330100 55001=
201411030753 METAR KBFI 030753Z 12006KT 10SM OVC020 13/10 A3008 RMK AO2 SLP185 T01330100 401440067=
201411030653 METAR KBFI 030653Z 15005KT 10SM OVC016 13/10 A3007 RMK AO2 SLP183 T01280100=
201411030553 METAR KBFI 030553Z 13005KT 10SM OVC022 13/10 A3008 RMK AO2 SLP186 60005 T01280100 10128 20122 53001=
201411030453 METAR KBFI 030453Z 14007KT 10SM OVC024 13/10 A3008 RMK AO2 RAE0358 SLP184 P0000 T01280100=
201411030353 METAR KBFI 030353Z 14006KT 7SM -RA OVC027 13/10 A3008 RMK AO2 RAB49 SLP187 P0000 T01280100=
201411030253 METAR KBFI 030253Z 13005KT 10SM SCT026 OVC037 13/10 A3008 RMK AO2 RAE04 SLP185 P0000 60005 T01280100 53001=
201411030153 METAR KBFI 030153Z 13005KT 5SM -RA BR FEW013 BKN035 OVC044 12/11 A3008 RMK AO2 SLP184 P0001 T01220106=
201411030150 SPECI KBFI 030150Z 14006KT 4SM -RA BR FEW013 BKN035 OVC044 13/11 A3008 RMK AO2 P0001=
201411030053 METAR KBFI 030053Z 13007KT 10SM -RA OVC024 13/10 A3008 RMK AO2 SLP184 P0004 T01280100=
201411030001 SPECI KBFI 030001Z 14008KT 4SM -RA FEW007 BKN024 OVC029 13/10 A3008 RMK AO2 P0001=
201411022353 METAR KBFI 022353Z 14006KT 4SM -RA FEW016 OVC024 13/10 A3008 RMK AO2 SLP187 P0004 60007 T01280100 10144 20117 56010=
201411022253 METAR KBFI 022253Z 12005KT 10SM -RA SCT041 OVC075 13/09 A3009 RMK AO2 SLP189 P0001 T01330094=
201411022153 METAR KBFI 022153Z 15007KT 140V200 10SM -RA SCT033 BKN043 OVC070 13/09 A3010 RMK AO2 RAB08 SLP193 P0002 T01330089=
201411022053 METAR KBFI 022053Z 16007KT 10SM FEW032 SCT050 OVC060 14/08 A3011 RMK AO2 SLP197 T01390078 58010=
201411021953 METAR KBFI 021953Z 18005KT 10SM BKN032 OVC070 14/07 A3013 RMK AO2 SLP203 T01440072=
201411021853 METAR KBFI 021853Z 15006KT 10SM SCT013 BKN070 13/08 A3014 RMK AO2 SLP206 T01330078=
201411021753 METAR KBFI 021753Z 14004KT 10SM SCT034 BKN095 12/08 A3014 RMK AO2 SLP207 T01170078 10117 20083 50003=
201411021653 METAR KBFI 021653Z 14004KT 10SM OVC032 11/08 A3015 RMK AO2 SLP209 T01060078=
201411021553 METAR KBFI 021553Z 13006KT 10SM SCT011 10/07 A3014 RMK AO2 SLP206 T01000072=
201411021453 METAR KBFI 021453Z 14007KT 10SM OVC013 10/07 A3013 RMK AO2 SLP203 T01000072 51004=
201411021420 SPECI KBFI 021420Z 12006KT 10SM BKN015 OVC018 10/07 A3013 RMK AO2=
201411021353 METAR KBFI 021353Z COR 13006KT 10SM BKN015 OVC018 09/07 A3013 RMK AO2 SLP202 T00890067=
201411021253 METAR KBFI 021253Z 13004KT 9SM FEW013 OVC020 09/07 A3013 RMK AO2 SLP203 T00890067=
201411021201 SPECI KBFI 021201Z 16005KT 9SM OVC016 09/07 A3012 RMK AO2=
201411021153 METAR KBFI 021153Z 16004KT 10SM OVC014 09/07 A3012 RMK AO2 SLP199 T00940072 10094 20067 51015=
201411021053 METAR KBFI 021053Z 00000KT 8SM BKN010 08/06 A3011 RMK AO2 SLP196 T00830061=
201411020953 METAR KBFI 020953Z 11003KT 10SM SCT013 BKN050 08/06 A3009 RMK AO2 SLP188 T00830061=
201411020853 METAR KBFI 020853Z 15005KT 10SM FEW040 07/06 A3008 RMK AO2 SLP184 T00720056 53012=
201411020753 METAR KBFI 020753Z 00000KT 9SM BKN035 09/06 A3006 RMK AO2 SLP180 T00890061 401280083=
201411020653 METAR KBFI 020653Z 00000KT 9SM BKN050 09/06 A3005 RMK AO2 SLP175 T00890061=
201411020553 METAR KBFI 020553Z 00000KT 10SM BKN060 09/06 A3004 RMK AO2 SLP172 T00940061 10128 20089 53013=
201411020453 METAR KBFI 020453Z 00000KT 10SM BKN060 10/07 A3003 RMK AO2 SLP168 T01000067=
201411020353 METAR KBFI 020353Z 00000KT 10SM OVC049 11/07 A3001 RMK AO2 SLP163 T01110067=
201411020253 METAR KBFI 020253Z 00000KT 10SM OVC049 11/07 A3000 RMK AO2 SLP159 T01110067 53012=
201411020153 METAR KBFI 020153Z 00000KT 10SM OVC047 12/07 A2999 RMK AO2 SLP155 T01170067=
201411020053 METAR KBFI 020053Z 10004KT 10SM BKN039 OVC055 12/07 A2997 RMK AO2 SLP150 T01220067=
201411020007 SPECI KBFI 020007Z 00000KT 10SM BKN034 BKN045 OVC055 12/06 A2997 RMK AO2=
201411012353 METAR KBFI 012353Z 00000KT 10SM BKN029 BKN040 OVC049 12/06 A2997 RMK AO2 SLP148 T01220061 10128 20111 52016=
201411012253 METAR KBFI 012253Z 32003KT 10SM FEW024 BKN030 OVC046 12/06 A2995 RMK AO2 SLP143 T01220056=
201411012153 METAR KBFI 012153Z VRB05KT 10SM SCT026 OVC037 13/06 A2994 RMK AO2 SLP137 T01280056=
201411012053 METAR KBFI 012053Z 00000KT 10SM BKN018 BKN023 OVC028 12/07 A2992 RMK AO2 SLP132 T01220072 51003=
201411011953 METAR KBFI 011953Z 00000KT 10SM SCT008 BKN020 OVC030 12/07 A2992 RMK AO2 SLP132 T01170072=
201411011853 METAR KBFI 011853Z VRB03KT 10SM BKN012 BKN020 OVC029 12/07 A2992 RMK AO2 SLP132 T01170072=
201411011800 SPECI KBFI 011800Z 00000KT 10SM BKN012 OVC018 11/07 A2991 RMK AO2=
201411011753 METAR KBFI 011753Z COR 00000KT 10SM BKN012 BKN018 OVC023 11/07 A2991 RMK AO2 SLP129 T01110072 10117 20100 51014=
201411011653 METAR KBFI 011653Z 03003KT 10SM SCT010 BKN018 OVC023 12/07 A2990 RMK AO2 SLP125 T01170072=
201411011553 METAR KBFI 011553Z 32005KT 10SM SCT008 OVC013 11/07 A2989 RMK AO2 SLP121 T01110067=
201411011528 SPECI KBFI 011528Z VRB04KT 10SM SCT006 OVC013 11/07 A2988 RMK AO2=
201411011453 METAR KBFI 011453Z 32004KT 10SM BKN006 OVC022 11/08 A2987 RMK AO2 SLP115 T01060078 53007=
201411011353 METAR KBFI 011353Z 00000KT 7SM SCT005 OVC007 11/08 A2986 RMK AO2 SLP111 T01060083=
201411011253 METAR KBFI 011253Z 00000KT 10SM SCT005 OVC007 11/08 A2986 RMK AO2 SLP111 T01110083=
201411011153 METAR KBFI 011153Z 00000KT 10SM SCT005 OVC007 11/09 A2985 RMK AO2 SLP108 70052 T01060089 10117 20100 56003=
201411011053 METAR KBFI 011053Z 13003KT 10SM OVC007 11/08 A2986 RMK AO2 CIG 006V010 SLP109 T01060083=
201411010953 METAR KBFI 010953Z 00000KT 10SM BKN007 OVC019 11/09 A2984 RMK AO2 CIG 005V008 SLP105 T01060089=
201411010938 SPECI KBFI 010938Z 00000KT 10SM BKN007 OVC013 10/08 A2985 RMK AO2=
201411010926 SPECI KBFI 010926Z 14003KT 10SM FEW007 BKN013 OVC060 11/08 A2986 RMK AO2=
201411010916 SPECI KBFI 010916Z 00000KT 10SM FEW007 BKN015 OVC060 11/08 A2986 RMK AO2=
201411010900 SPECI KBFI 010900Z 00000KT 10SM FEW007 OVC060 11/08 A2986 RMK AO2=
201411010853 METAR KBFI 010853Z 00000KT 10SM SCT007 BKN016 OVC060 11/08 A2986 RMK AO2 SLP111 T01060083 58005=
201411010820 SPECI KBFI 010820Z 00000KT 10SM BKN007 BKN021 OVC026 11/08 A2987 RMK AO2=
201411010811 SPECI KBFI 010811Z 00000KT 10SM SCT007 BKN015 OVC026 11/09 A2987 RMK AO2=
201411010753 METAR KBFI 010753Z 00000KT 10SM BKN015 BKN020 BKN030 11/09 A2987 RMK AO2 SLP116 T01110089 401500111=
201411010718 SPECI KBFI 010718Z 00000KT 10SM SCT008 SCT015 12/09 A2987 RMK AO2=
201411010653 METAR KBFI 010653Z 00000KT 9SM SCT018 11/08 A2986 RMK AO2 SLP112 T01110083=
201411010553 METAR KBFI 010553Z 00000KT 10SM SCT020 SCT028 BKN039 11/08 A2987 RMK AO2 SLP116 T01110083 10139 20111 50004=
201411010453 METAR KBFI 010453Z 00000KT 10SM SCT030 BKN040 OVC060 12/09 A2988 RMK AO2 SLP118 T01220089=
201411010400 SPECI KBFI 010400Z 00000KT 10SM SCT018 BKN023 BKN028 12/09 A2987 RMK AO2=
201411010353 METAR KBFI 010353Z 00000KT 10SM OVC038 12/09 A2987 RMK AO2 SLP116 T01220089=
201411010253 METAR KBFI 010253Z 13003KT 10SM OVC038 12/09 A2986 RMK AO2 SLP112 T01220089 53007=
201411010153 METAR KBFI 010153Z 00000KT 10SM SCT042 12/08 A2985 RMK AO2 SLP109 T01220083=
201411010053 METAR KBFI 010053Z 17006KT 10SM BKN060 13/08 A2985 RMK AO2 SLP106 T01280078=

# No short TAF reports from KBFI in databse.

###################################
#  large TAF from KBFI
###################################
201411302320 TAF KBFI 302320Z 0100/0124 02006KT P6SM SCT250=
201411301720 TAF KBFI 301720Z 3018/0118 02007KT P6SM SKC=
201411301120 TAF KBFI 301120Z 3012/0112 02004KT P6SM SKC FM301800 02010KT P6SM
                       SKC=
201411300520 TAF KBFI 300520Z 3006/0106 05004KT P6SM SKC FM301800 03010KT P6SM
                       SKC=
201411292320 TAF KBFI 292320Z 3000/3024 35010G16KT P6SM SCT050 FM300400 03008KT
                       P6SM SKC=
201411291723 TAF KBFI 291723Z 2918/3018 34015G25KT P6SM FEW015 BKN050 FM292100
                       35010G20KT P6SM SCT040 FM300300 03008KT
                       P6SM SKC=
201411291132 TAF KBFI 291132Z 2912/3012 35007KT P6SM -SHSN BKN025 BKN080
                      TEMPO 2913/2917 2SM -SHSN SCT007 OVC012 FM291800
                       02012G20KT P6SM SCT040 FM300000 03010KT
                       P6SM SKC=
201411290539 TAF KBFI 290539Z 2906/3006 18010KT P6SM VCSH BKN025 OVC035
                      TEMPO 2906/2907 6SM -RA SCT008 BKN020 FM291200
                       35008KT P6SM -SHSN BKN020 BKN040 FM291800
                       02012G20KT P6SM SCT040 FM300000 03010KT
                       P6SM SKC=
201411282359 TAF AMD KBFI 282359Z 2900/2924 02007KT 4SM -RA BR SCT008 OVC025
                       TEMPO 2900/2903 2SM -RA BR BKN008 OVC025
                       FM290400 VRB04KT P6SM VCSH SCT025 BKN040
                       FM291100 35010KT P6SM -SHSN BKN025 BKN040
                       FM291600 02012KT P6SM SCT040=
201411282320 TAF KBFI 282320Z 2900/2924 02007KT P6SM SCT015 OVC035
                      TEMPO 2900/2904 5SM -SHRA BR BKN015 OVC030
                       FM290400 VRB04KT P6SM VCSH SCT025 BKN040
                       FM291100 35010KT P6SM -SHSN BKN025 BKN040
                       FM291600 02012KT P6SM SCT040=
201411282102 TAF AMD KBFI 282102Z 2821/2918 01010KT 5SM -RA BR SCT010 OVC025
                       TEMPO 2821/2823 3SM RA BR BKN010 OVC020
                       FM282300 35008KT P6SM -SHRA BKN025 OVC050
                       FM290200 VRB04KT P6SM VCSH SCT025 BKN050
                       FM291100 35010KT P6SM -SHSN BKN020 BKN040
                       FM291600 02010KT P6SM SCT040=
201411281831 TAF AMD KBFI 281831Z 2819/2918 35010KT P6SM -RA SCT008 OVC020
                      TEMPO 2819/2821 3SM RA BR BKN008 OVC015 FM282100
                       35010KT P6SM -SHRA BKN025 OVC050 FM290200
                       VRB04KT P6SM VCSH SCT025 BKN050 FM291200
                       35010KT P6SM -SHSN BKN020 BKN040=
201411281722 TAF KBFI 281722Z 2818/2918 35010KT P6SM -RA OVC025
                      TEMPO 2818/2822 3SM RA BR OVC015 FM282200
                       35010KT P6SM -SHRA BKN025 OVC050 FM290200
                       VRB04KT P6SM VCSH SCT025 BKN050 FM291200
                       35010KT P6SM -SHSN BKN020 BKN040=
201411281137 TAF KBFI 281137Z 2812/2912 18012G20KT P6SM -RA BKN020 OVC035 FM281800
                       01010KT P6SM -RA OVC018
                      TEMPO 2818/2821 6SM RA OVC012 FM282100 01010KT
                       P6SM -RA BKN025 BKN040 FM290200 20010KT
                       P6SM BKN040 BKN070=
201411280537 TAF KBFI 280537Z 2806/2906 17012G22KT P6SM -SHRA BKN022 OVC035
                       FM281500 17012G22KT P6SM RA OVC017 FM281800
                       01005KT 6SM -RA BR OVC015 FM282000 01005KT
                       P6SM VCSH SCT020 OVC030 FM290200 20010KT
                       P6SM BKN040=
201411272341 TAF KBFI 272341Z 2800/2824 17014G22KT P6SM -SHRA BKN025 OVC060
                       FM280300 17012G22KT P6SM -SHRA BKN027 OVC100
                       FM281200 17012G22KT 6SM RA BR OVC017 FM281400
                       01005KT 6SM -RA BR OVC017 FM282100 18006KT
                       P6SM VCSH SCT017 OVC030=
201411272059 TAF AMD KBFI 272059Z 2721/2818 17015G22KT P6SM -SHRA BKN030 BKN100
                       FM280300 17014G24KT P6SM -SHRA BKN027 OVC100
                       FM281200 17014G24KT P6SM RA OVC017 FM281400
                       36005KT P6SM -RA OVC017=
201411271741 TAF KBFI 271741Z 2718/2818 17012G20KT P6SM BKN030 BKN100 FM272000
                       17012G22KT P6SM -SHRA SCT030 SCT045 BKN100
                       FM280300 17012G23KT P6SM -SHRA BKN027 OVC100
                       FM281200 17012G24KT P6SM RA OVC017 FM281400
                       36005KT P6SM -RA OVC017=
201411271409 TAF AMD KBFI 271409Z 2714/2812 18010KT P6SM OVC028 FM272000 20015G25KT
                       P6SM -RA SCT030 BKN040 BKN080=
201411271130 TAF KBFI 271130Z 2712/2812 18012G25KT P6SM -RA SCT025 OVC035 FM272000
                       20015G25KT P6SM -RA SCT030 BKN040 BKN080=
201411270902 TAF AMD KBFI 270902Z 2709/2806 18013G20KT P6SM -RA SCT030 OVC050
                       FM271100 18013G20KT P6SM -RA SCT020 OVC030
                       FM272000 20015G25KT P6SM -RA SCT025 OVC035=
201411270521 TAF KBFI 270521Z 2706/2806 19008KT P6SM -RA SCT025 BKN040 OVC080
                       FM270800 18013G20KT P6SM -RA SCT015 OVC025
                       FM272000 20015G25KT P6SM -RA SCT025 OVC035=
201411262341 TAF KBFI 262341Z 2700/2724 18006KT P6SM BKN030 OVC200 FM270300
                       18008KT P6SM -SHRA SCT030 BKN050 FM270700
                       17010G15KT P6SM -RA SCT020 OVC030 FM272100
                       18010KT P6SM -RA BKN012 OVC030=
201411261741 TAF KBFI 261741Z 2618/2718 17010KT P6SM -SHRA BKN035 BKN060 FM261900
                       18008KT P6SM FEW025 SCT060 BKN200 FM270000
                       16007KT P6SM -SHRA BKN030 OVC200 FM270700
                       17010KT P6SM -RA SCT020 OVC030=
201411261559 TAF AMD KBFI 261559Z 2616/2712 19010G17KT P6SM VCSH SCT013 BKN035
                       FM262000 17006KT P6SM BKN040 OVC150 FM270300
                       17012G18KT P6SM -RA OVC025
                      TEMPO 2708/2712 4SM -RA BR OVC015=
201411261135 TAF KBFI 261135Z 2612/2712 19017G26KT P6SM VCSH SCT013 BKN030 OVC050
                       TEMPO 2612/2616 BKN013 OVC030 FM262000 17006KT
                       P6SM BKN040 OVC150 FM270300 17012G18KT P6SM
                       -RA OVC025
                      TEMPO 2708/2712 4SM -RA BR OVC015=
201411260534 TAF KBFI 260534Z 2606/2706 20014G22KT P6SM VCSH FEW008 SCT025 OVC035
                       TEMPO 2606/2610 -RA BKN025 FM261000 20012KT
                       P6SM BKN025 OVC030 FM262000 19011KT P6SM
                       BKN030 OVC150=
201411260326 TAF AMD KBFI 260326Z 2603/2624 18015G24KT P6SM FEW007 BKN019 BKN080
                       FM260500 18010KT P6SM OVC012 FM262000 16010KT
                       P6SM OVC050=
201411260225 TAF AMD KBFI 260225Z 2602/2624 17010G20KT P6SM SCT015 SCT025 OVC030
                       TEMPO 2602/2604 SCT015 OVC025 FM260400 18008KT
                       P6SM OVC012 FM262000 16010KT P6SM OVC050=
201411252331 TAF KBFI 252331Z 2600/2624 00000KT 3SM -RA BR OVC005 FM260200 17008G17KT
                       5SM -RA BR OVC007 FM260700 16010KT P6SM
                       OVC015 FM262000 16010KT P6SM OVC050=
201411252101 TAF AMD KBFI 252101Z 2521/2618 00000KT 2SM BR BKN005 OVC010 FM260100
                       17008G15KT 5SM -RA BR OVC020 FM260700 17011KT
                       4SM BR VCSH OVC020=
201411251728 TAF KBFI 251728Z 2518/2618 00000KT 2SM -RA BR BKN005 OVC010 FM252100
                       16005KT 3SM -RA BR OVC012 FM260100 17008G15KT
                       5SM -RA BR OVC020 FM260700 17011KT 4SM BR
                       VCSH OVC020=
201411251335 TAF AMD KBFI 251335Z 2514/2612 00000KT 4SM -RA BR SCT004 OVC013
                       TEMPO 2514/2518 1SM RA BR OVC004 FM252200
                       18008G16KT P6SM -RA BKN015 OVC035 FM260800
                       18008KT P6SM -RA BKN020 OVC035=
201411251120 TAF KBFI 251120Z 2512/2612 00000KT 4SM -RA BR OVC009 FM252200 18008G16KT
                       P6SM -RA BKN015 OVC035 FM260800 18008KT
                       P6SM -RA BKN020 OVC035=
201411251008 TAF AMD KBFI 251008Z 2510/2606 VRB05KT P6SM OVC009
                      TEMPO 2510/2512 -RA FM251200 13007KT 5SM
                       -RA BR OVC009 FM252200 18008G16KT P6SM -RA
                       BKN020 OVC050=
201411250828 TAF AMD KBFI 250828Z 2508/2606 20011G22KT P6SM OVC007
                      TEMPO 2508/2512 -RA FM251200 13007KT 5SM
                       -RA BR OVC009 FM252200 18008G16KT P6SM -RA
                       BKN020 OVC050=
201411250520 TAF KBFI 250520Z 2506/2606 13007KT 2SM -DZ BR OVC008 WS020/23035KT
                       FM251200 13007KT 5SM -RA BR OVC010 FM252200
                       18008G16KT P6SM -RA BKN020 OVC050=
201411250407 TAF AMD KBFI 250407Z 2504/2524 14008KT 6SM BR OVC018
                      TEMPO 2508/2512 -RA FM251200 18006KT 5SM
                       -RA BR OVC020 FM252200 18007KT P6SM -RA
                       BKN020 OVC050=
201411242336 TAF KBFI 242336Z 2500/2524 14008KT P6SM -RA FEW050 SCT070 OVC100
                       FM250200 16007G18KT P6SM -RA BKN020 OVC050
                       FM251200 18006KT 5SM -RA BR OVC020 FM252200
                       18007KT P6SM -RA BKN020 OVC050=
201411241722 TAF KBFI 241722Z 2418/2518 15007KT P6SM FEW035 BKN140 OVC200 FM242100
                       15006KT P6SM -RA OVC050
                      TEMPO 2421/2424 P6SM -RA OVC030 FM250000
                       16008G18KT P6SM -RA OVC030 FM251200 17004KT
                       4SM -RA BR OVC020=
201411241126 TAF KBFI 241126Z 2412/2512 14003KT P6SM FEW030 SCT100 FM241400
                       14005KT P6SM SCT025 BKN100 FM242000 17008KT
                       P6SM VCSH BKN035 OVC060 FM250000 18010G18KT
                       6SM -RA BR SCT025 OVC035 FM250400 18008G14KT
                       5SM -RA BR SCT012 OVC020=
201411240520 TAF KBFI 240520Z 2406/2506 14007KT P6SM SCT200 FM241400 14005KT
                       P6SM SCT035 BKN150 FM242000 17007KT P6SM
                       VCSH BKN035 OVC060 FM250000 17008KT P6SM
                       -RA SCT025 OVC035 FM250400 17008KT 6SM -RA
                       BR SCT012 OVC020=
201411232346 TAF KBFI 232346Z 2400/2424 16004KT P6SM SCT020 SCT040 FM241400
                       14005KT P6SM SCT035 BKN150 FM242000 17007KT
                       P6SM VCSH BKN035 OVC060=
201411231747 TAF KBFI 231747Z 2318/2418 18012G20KT P6SM VCSH SCT020 BKN040
                      TEMPO 2321/2401 -SHRA BKN020 OVC040 FM240300
                       17005KT P6SM SCT030 BKN045 FM240700 14005KT
                       P6SM BKN045=
201411231415 TAF AMD KBFI 231415Z 2314/2412 15014G22KT P6SM -RA BKN026 OVC035
                       TEMPO 2314/2315 5SM TSRA BR OVC020CB FM231600
                       19012G18KT P6SM -SHRA SCT018 BKN025 FM232100
                       19010G18KT P6SM VCSH SCT025 BKN040 FM240300
                       17005KT P6SM SCT030 BKN045 FM240700 14005KT
                       P6SM BKN045=
201411231120 TAF KBFI 231120Z 2312/2412 18011G17KT P6SM -RA SCT015 SCT035 OVC045
                       FM231300 18012G18KT 5SM -RA BR SCT015 OVC025
                       FM231600 19012G18KT P6SM -SHRA SCT018 BKN025
                       FM232100 19010G18KT P6SM VCSH SCT025 BKN040
                       FM240300 17005KT P6SM SCT030 BKN045 FM240700
                       14005KT P6SM BKN045=
201411230803 TAF AMD KBFI 230803Z 2308/2406 16011KT P6SM SCT025 BKN070
                      TEMPO 2308/2311 BKN025 BKN070 FM231100 16011KT
                       P6SM -RA SCT015 OVC025 FM231300 17012KT
                       5SM -RA BR SCT014 OVC020 FM231700 18014G22KT
                       P6SM VCSH SCT018 BKN025 FM232100 19010G18KT
                       P6SM VCSH SCT025 BKN040 FM240300 17005KT
                       P6SM SCT030 BKN045=
201411230534 TAF KBFI 230534Z 2306/2406 15005KT P6SM SCT025 BKN090 FM231000
                       16011KT P6SM -RA SCT015 OVC025 FM231300
                       17012KT 5SM -RA BR SCT014 OVC020 FM231700
                       18014G22KT P6SM VCSH SCT018 BKN025 FM232100
                       19010G18KT P6SM VCSH SCT025 BKN040 FM240300
                       17005KT P6SM SCT030 BKN045=
201411230301 TAF AMD KBFI 230301Z 2303/2324 14008KT P6SM SCT024 BKN040 FM230600
                       17007KT P6SM VCSH BKN024 FM231000 17011G18KT
                       P6SM -SHRA SCT011 OVC024 FM231200 17014G24KT
                       5SM -SHRA BR SCT012 OVC018 FM231600 20014G22KT
                       P6SM VCSH SCT015 BKN025 FM232100 21010G18KT
                       P6SM VCSH SCT025 BKN040=
201411222356 TAF KBFI 222356Z 2300/2324 15004KT P6SM SCT025 BKN035 FM230300
                       16005KT P6SM SCT025 SCT035 FM230600 17007KT
                       P6SM VCSH BKN030 FM231000 17011G18KT P6SM
                       -SHRA SCT015 OVC025 FM231200 17014G24KT
                       5SM -SHRA BR SCT012 OVC018 FM231600 20014G22KT
                       P6SM VCSH SCT015 BKN025 FM232100 21010G18KT
                       P6SM VCSH SCT025 BKN040=
201411222111 TAF AMD KBFI 222111Z 2221/2318 17008KT P6SM VCSH BKN018 BKN050
                       FM222300 17008KT P6SM VCSH BKN030 BKN050
                       FM231200 17014G24KT P6SM -SHRA SCT015 OVC030
                       FM231600 17009KT P6SM VCSH SCT015 BKN030=
201411221748 TAF KBFI 221748Z 2218/2318 19010G16KT P6SM -SHRA SCT015 OVC050
                       TEMPO 2218/2219 BKN015 OVC040 FM222000 19009KT
                       P6SM VCSH SCT020 BKN035 FM231200 17014G24KT
                       P6SM -SHRA SCT015 OVC030 FM231600 17009KT
                       P6SM VCSH SCT015 BKN030=
201411221125 TAF KBFI 221125Z 2212/2312 14005KT P6SM SCT025 SCT080 FM221600
                       17010KT P6SM -SHRA SCT015 BKN025 FM222100
                       18010G18KT P6SM VCSH SCT025 BKN040 FM230300
                       17007KT P6SM VCSH SCT025 BKN040 FM230900
                       18012G22KT P6SM VCSH SCT025 BKN040=
201411220656 TAF AMD KBFI 220656Z 2207/2306 19013G24KT P6SM SCT016 FM221100
                       18010KT P6SM BKN025 FM221600 17010KT P6SM
                       -SHRA SCT011 OVC015 FM222100 18008KT P6SM
                       VCSH SCT025 BKN035=
201411220520 TAF KBFI 220520Z 2206/2306 18012G25KT P6SM BKN016 BKN120 FM220800
                       18010KT P6SM VCSH SCT015 BKN020 FM221600
                       17010KT P6SM -SHRA SCT011 OVC015 FM222100
                       18008KT P6SM VCSH SCT025 BKN035=
201411220410 TAF AMD KBFI 220410Z 2204/2224 18014G21KT P6SM OVC016 FM220600
                       18011G18KT P6SM -SHRA SCT008 BKN015 BKN030
                       FM221000 18010KT P6SM -SHRA SCT015 BKN020
                       FM222200 20008KT P6SM VCSH SCT025 BKN035=
201411220212 TAF AMD KBFI 220212Z 2202/2224 15006KT P6SM -SHRA SCT017 BKN025
                       TEMPO 2202/2205 -RA OVC017 FM221000 17010KT
                       P6SM -SHRA SCT015 BKN020 FM222200 20008KT
                       P6SM VCSH SCT025 BKN035=
201411212347 TAF KBFI 212347Z 2200/2224 15006KT 4SM RA BR OVC035 FM220300 18012G20KT
                       P6SM VCSH SCT020 BKN025
                      TEMPO 2205/2209 SCT020 FM221100 17010KT P6SM
                       -SHRA SCT015 BKN020 FM222200 20008KT P6SM
                       VCSH SCT025 BKN035=
201411211746 TAF KBFI 211746Z 2118/2218 14008KT P6SM -RA BKN035 OVC050 FM212100
                       15008KT 5SM RA BR OVC030 FM220300 18011G20KT
                       P6SM -SHRA SCT020 BKN030 OVC050=
201411211421 TAF AMD KBFI 211421Z 2114/2212 13006KT P6SM VCSH OVC050
                      TEMPO 2114/2116 -RA FM211600 15007KT P6SM
                       -RA OVC040 FM212000 15008KT 5SM -RA BR OVC030
                       FM220400 17011G21KT P6SM -SHRA BKN030 OVC050=
201411211120 TAF KBFI 211120Z 2112/2212 13004KT P6SM VCSH BKN060 OVC080 FM211600
                       15007KT P6SM -RA OVC045 FM212000 15008KT
                       5SM -RA BR OVC030 FM220400 17011G21KT P6SM
                       -SHRA BKN030 OVC050=
201411210542 TAF KBFI 210542Z 2106/2206 13003KT P6SM BKN060 OVC100 FM211700
                       15006KT P6SM -RA BKN030 OVC050 FM220200
                       15010G17KT 4SM -SHRA OVC030=
201411202349 TAF KBFI 202349Z 2100/2124 15006KT P6SM VCSH SCT030 OVC045
                      TEMPO 2100/2104 -SHRA BKN030 OVC045 FM210400
                       16006KT P6SM BKN030 OVC045 FM211500 15007KT
                       6SM -RA BR OVC025=
201411201734 TAF KBFI 201734Z 2018/2118 15006KT P6SM VCSH SCT035 BKN050
                      TEMPO 2018/2022 BKN035 BKN050 FM202200 15006KT
                       P6SM VCSH SCT035 BKN050
                      TEMPO 2022/2102 -SHRA BKN035 BKN050 FM210200
                       16006KT P6SM BKN035 OVC050=
201411201625 TAF AMD KBFI 201625Z 2016/2112 15005KT P6SM SCT020 BKN050 FM201900
                       16005KT P6SM VCSH SCT030 BKN050
                      TEMPO 2020/2024 -SHRA BKN030 BKN050=
201411201400 TAF AMD KBFI 201400Z 2014/2112 15005KT P6SM SCT028 OVC040
                      TEMPO 2014/2017 -SHRA BKN028 OVC040 FM201900
                       16004KT P6SM VCSH BKN030 OVC050=
201411201315 TAF AMD KBFI 201315Z 2013/2112 15005KT P6SM BKN028 OVC040
                      TEMPO 2014/2017 -SHRA FM201900 16004KT P6SM
                       VCSH BKN030 OVC050=
201411201125 TAF KBFI 201125Z 2012/2112 13003KT P6SM -RA OVC028 FM201900 16004KT
                       P6SM VCSH BKN030 OVC050=
201411201001 TAF AMD KBFI 201001Z 2010/2106 13003KT P6SM -RA BKN030 OVC035 FM201700
                       15004KT P6SM VCSH OVC030 FM210300 18003KT
                       P6SM BKN030 OVC050=
201411200525 TAF KBFI 200525Z 2006/2106 14004KT P6SM OVC100
                      TEMPO 2006/2009 P6SM -RA BKN050 OVC100 FM200900
                       15005KT P6SM -RA OVC050 FM201700 15004KT
                       P6SM VCSH OVC030 FM210300 18003KT P6SM BKN030
                       OVC050=
201411192342 TAF KBFI 192342Z 2000/2024 30004KT P6SM BKN120 OVC160 FM200200
                       15005KT P6SM BKN100 OVC150 FM200600 16006KT
                       P6SM -RA OVC045 FM200900 18007KT P6SM -RA
                       OVC025 FM201200 18008KT P6SM -RA BKN020
                       OVC030 FM201800 18008KT P6SM -SHRA BKN040=
201411191738 TAF KBFI 191738Z 1918/2018 VRB03KT P6SM BKN120 OVC160 FM200000
                       15005KT P6SM OVC100 FM200700 15005KT P6SM
                       -RA OVC045 FM201200 16007KT P6SM -RA OVC025=
201411191125 TAF KBFI 191125Z 1912/2012 00000KT P6SM OVC110 FM200500 15005KT
                       P6SM VCSH OVC050 FM201100 16006KT P6SM -RA
                       OVC030=
201411190532 TAF KBFI 190532Z 1906/2006 00000KT 5SM BR OVC180 FM191100 00000KT
                       4SM BR BKN090 OVC200 FM200500 14004KT P6SM
                       OVC050=
201411182332 TAF KBFI 182332Z 1900/1924 00000KT P6SM OVC200 FM191200 14003KT
                       P6SM BKN100 OVC150=
201411181720 TAF KBFI 181720Z 1818/1918 VRB04KT P6SM BKN200 FM190000 15004KT
                       P6SM BKN150 FM190600 00000KT P6SM BKN100
                       OVC150 FM191200 VRB03KT P6SM BKN050 OVC080=
201411181127 TAF KBFI 181127Z 1812/1912 00000KT P6SM SKC FM191000 00000KT P6SM
                       BKN100 OVC200=
201411180520 TAF KBFI 180520Z 1806/1906 VRB03KT P6SM BKN250=
201411172320 TAF KBFI 172320Z 1800/1824 VRB03KT P6SM BKN250=
201411171720 TAF KBFI 171720Z 1718/1818 12004KT P6SM SKC FM172100 VRB03KT P6SM
                       SCT200=
201411171122 TAF KBFI 171122Z 1712/1812 VRB03KT P6SM SCT200=
201411170521 TAF KBFI 170521Z 1706/1806 VRB03KT P6SM SKC FM172000 32006KT P6SM
                       SKC FM180000 VRB03KT P6SM SKC=
201411162320 TAF KBFI 162320Z 1700/1724 VRB04KT P6SM SKC=
201411161729 TAF KBFI 161729Z 1618/1718 VRB03KT P6SM SKC=
201411161121 TAF KBFI 161121Z 1612/1712 VRB03KT P6SM SKC=
201411160520 TAF KBFI 160520Z 1606/1706 VRB03KT P6SM SKC=
201411160316 TAF AMD KBFI 160316Z 1603/1624 VRB03KT P6SM SKC=
201411152320 TAF KBFI 152320Z 1600/1624 02006KT P6SM SKC FM160600 VRB03KT P6SM
                       SKC=
201411151725 TAF KBFI 151725Z 1518/1618 VRB04KT P6SM SKC=
201411151120 TAF KBFI 151120Z 1512/1612 VRB03KT P6SM SKC FM152000 35006KT P6SM
                       SKC FM160000 VRB03KT P6SM SKC=
201411150521 TAF KBFI 150521Z 1506/1606 VRB03KT P6SM SKC FM152000 35006KT P6SM
                       SKC FM160000 VRB03KT P6SM SKC=
201411142320 TAF KBFI 142320Z 1500/1524 VRB03KT P6SM SKC=
201411141720 TAF KBFI 141720Z 1418/1518 04007KT P6SM SKC FM150600 VRB03KT P6SM
                       SKC=
201411141122 TAF KBFI 141122Z 1412/1512 VRB03KT P6SM SKC FM141900 33007KT P6SM
                       SKC FM150000 02004KT P6SM SKC FM150600 VRB03KT
                       P6SM SKC=
201411140524 TAF KBFI 140524Z 1406/1506 VRB03KT P6SM SKC FM141900 35006KT P6SM
                       SKC FM150000 02004KT P6SM SKC=
201411140302 TAF AMD KBFI 140302Z 1403/1424 VRB03KT P6SM SKC=
201411132335 TAF KBFI 132335Z 1400/1424 15004KT P6SM FEW060 FM140400 VRB03KT
                       P6SM SKC=
201411131733 TAF KBFI 131733Z 1318/1418 05004KT P6SM FEW060 SCT200 FM140400
                       VRB03KT P6SM SKC=
201411131123 TAF KBFI 131123Z 1312/1412 10007KT P6SM BKN150
                      TEMPO 1312/1316 10010G20KT FM132000 01005KT
                       P6SM BKN150 FM140100 VRB03KT P6SM SCT150=
201411131005 TAF AMD KBFI 131005Z 1310/1406 11009KT P6SM FEW150
                      TEMPO 1310/1312 11010G20KT FM131200 05005KT
                       P6SM SCT150 FM132000 01005KT P6SM SCT150
                       FM140100 VRB03KT P6SM FEW150=
201411130527 TAF KBFI 130527Z 1306/1406 11009KT P6SM FEW150 FM131200 05005KT
                       P6SM SCT150 FM132000 01005KT P6SM SCT150
                       FM140100 VRB03KT P6SM FEW150=
201411122320 TAF KBFI 122320Z 1300/1324 10008KT P6SM SKC FM130700 05006KT P6SM
                       SKC FM131800 04004KT P6SM FEW200=
201411121720 TAF KBFI 121720Z 1218/1318 10008KT P6SM SKC
                      TEMPO 1218/1222 10012G18KT FM130700 05006KT
                       P6SM SKC=
201411121120 TAF KBFI 121120Z 1212/1312 10008KT P6SM SKC
                      TEMPO 1218/1222 10012G18KT=
201411120530 TAF KBFI 120530Z 1206/1306 11012G18KT P6SM SKC=
201411120024 TAF AMD KBFI 120024Z 1200/1224 11008G18KT P6SM SKC FM120300 08007KT
                       P6SM SKC=
201411112320 TAF KBFI 112320Z 1200/1224 07008G18KT P6SM SKC FM120300 07007KT
                       P6SM SKC=
201411112102 TAF AMD KBFI 112102Z 1121/1218 07007G18KT P6SM SKC FM120200 06005KT
                       P6SM SKC=
201411111727 TAF KBFI 111727Z 1118/1218 09006KT P6SM SKC FM120200 06005KT P6SM
                       SKC=
201411111125 TAF KBFI 111125Z 1112/1212 00000KT P6SM SCT080
                      TEMPO 1112/1113 BKN080 FM111600 01007KT P6SM
                       SKC FM112000 34013G20KT P6SM SKC FM120600
                       12006KT P6SM SKC=
201411110900 TAF AMD KBFI 110900Z 1109/1206 00000KT P6SM SCT080
                      TEMPO 1109/1113 BKN080 FM111600 01007KT P6SM
                       SKC FM112000 34013G20KT P6SM SKC=
201411110530 TAF KBFI 110530Z 1106/1206 00000KT P6SM SKC FM111600 01007KT P6SM
                       SKC FM112000 34013G20KT P6SM SKC=
201411102342 TAF KBFI 102342Z 1100/1124 03006KT P6SM SKC FM110600 VRB03KT P6SM
                       SKC=
201411101732 TAF KBFI 101732Z 1018/1118 VRB03KT P6SM SCT020 BKN030
                      TEMPO 1018/1020 BKN020 BKN030 FM102000 34006KT
                       P6SM SKC FM110600 08003KT P6SM SKC=
201411101130 TAF KBFI 101130Z 1012/1112 VRB03KT P6SM SCT025 FM101300 00000KT
                       P6SM SCT007
                      TEMPO 1014/1017 BKN007 FM101700 35004KT P6SM
                       SKC FM110600 08003KT P6SM SKC=
201411100530 TAF KBFI 100530Z 1006/1106 00000KT P6SM SCT027 BKN045 OVC070 FM100800
                       34004KT P6SM SCT027 SCT070 FM101300 00000KT
                       P6SM SCT007
                      TEMPO 1014/1017 BKN007 FM101700 35004KT P6SM
                       SKC=
201411092320 TAF KBFI 092320Z 1000/1024 04003KT P6SM VCSH SCT015 BKN040
                      TEMPO 1000/1003 VRB03KT 5SM -SHRA BKN015
                       BKN030 FM100300 34004KT P6SM SCT025 SCT040
                       FM101800 34006KT P6SM FEW040=
201411091819 TAF AMD KBFI 091819Z 0918/1018 15008KT P6SM VCSH SCT008 OVC012
                       TEMPO 0918/0922 VRB05KT 4SM -SHRA BR OVC008
                       FM092200 30005KT P6SM VCSH BKN035 FM100100
                       30006KT P6SM SCT040 FM100800 01005KT P6SM
                       SCT060=
201411091740 TAF KBFI 091740Z 0918/1018 VRB04KT P6SM -SHRA SCT008 BKN018 BKN080
                       FM092100 30005KT P6SM VCSH BKN035 FM100100
                       30006KT P6SM SCT040 FM100800 01005KT P6SM
                       SCT060=
201411091135 TAF KBFI 091135Z 0912/1012 14009KT P6SM -RA OVC060 FM091300 17009KT
                       P6SM -RA OVC020 FM091600 18010G18KT P6SM
                       -SHRA BKN018 BKN035 FM092000 20007KT P6SM
                       VCSH BKN035 FM100200 30006KT P6SM SCT040
                       BKN080 BKN250 FM100800 01005KT P6SM SCT060
                       BKN120=
201411090820 TAF AMD KBFI 090820Z 0908/1006 13005KT P6SM BKN007 BKN110
                      TEMPO 0909/0913 SCT007 OVC090 FM091300 17009KT
                       P6SM -RA OVC020 FM091600 18010G18KT P6SM
                       -SHRA BKN018 BKN035 FM092000 20007KT P6SM
                       VCSH BKN035=
201411090520 TAF KBFI 090520Z 0906/1006 00000KT P6SM BKN160 FM090800 13004KT
                       P6SM OVC100 FM091000 15006KT P6SM OVC050
                       FM091300 17009KT P6SM -RA OVC020 FM091600
                       18010G18KT P6SM -SHRA BKN018 BKN035 FM092000
                       20007KT P6SM VCSH BKN035=
201411082320 TAF KBFI 082320Z 0900/0924 00000KT P6SM BKN120 OVC220 FM090700
                       13004KT P6SM OVC100 FM091000 15006KT P6SM
                       OVC050 FM091300 17009KT P6SM -RA OVC020
                       FM091600 18010G18KT P6SM -SHRA BKN018 BKN035
                       FM092000 20007KT P6SM VCSH BKN035=
201411081803 TAF AMD KBFI 081803Z 0818/0918 00000KT P6SM SCT007 BKN250 FM081900
                       VRB03KT P6SM BKN250 FM090900 13004KT P6SM
                       OVC100 FM091300 17009KT P6SM -RA OVC020
                       FM091600 18010G18KT P6SM -SHRA BKN018 BKN035=
201411081731 TAF KBFI 081731Z 0818/0918 00000KT 3SM BR BKN005 FM081930 VRB03KT
                       P6SM BKN250 FM090900 13004KT P6SM OVC100
                       FM091300 17009KT P6SM -RA OVC020 FM091600
                       18010G18KT P6SM -SHRA BKN018 BKN035=
201411081533 TAF AMD KBFI 081533Z 0816/0912 00000KT 2SM BR OVC003 FM081900 VRB03KT
                       P6SM BKN007 FM082100 VRB04KT P6SM BKN250
                       FM090900 13004KT P6SM OVC100=
201411081228 TAF AMD KBFI 081228Z 0812/0912 00000KT P6SM OVC004
                      TEMPO 0814/0818 3/4SM BR BKN002 OVC004 FM081800
                       VRB03KT P6SM BKN007 FM082000 VRB04KT P6SM
                       BKN250 FM090900 13004KT P6SM OVC100=
201411081130 TAF KBFI 081130Z 0812/0912 00000KT 5SM BR SCT006 FM081300 00000KT
                       5SM BR BKN006
                      TEMPO 0814/0818 3/4SM BR BKN002 BKN005 FM081800
                       VRB03KT P6SM BKN007 FM082000 VRB04KT P6SM
                       BKN250 FM090900 13004KT P6SM OVC100=
201411080525 TAF KBFI 080525Z 0806/0906 00000KT P6SM SKC FM081000 VRB03KT P6SM
                       SCT006 FM081300 04003KT 3SM BR SCT003 BKN006
                       TEMPO 0814/0818 3/4SM BR BKN002 BKN005 FM082000
                       35003KT P6SM SCT200=
201411072329 TAF KBFI 072329Z 0800/0824 32005KT P6SM FEW035 SCT200 FM080300
                       VRB03KT P6SM SCT200 FM081000 VRB03KT P6SM
                       SCT006 FM081300 04003KT 3SM BR SCT003 BKN006
                       TEMPO 0814/0818 3/4SM BR BKN002 BKN005 FM082000
                       35003KT P6SM SCT200=
201411071736 TAF KBFI 071736Z 0718/0818 13004KT P6SM FEW025 SCT060 SCT200 FM072200
                       32003KT P6SM SCT200 FM081000 VRB03KT P6SM
                       SCT006 FM081300 04003KT 3SM BR SCT003 BKN006
                       TEMPO 0814/0818 3/4SM BR BKN002 BKN005=
201411071414 TAF AMD KBFI 071414Z 0714/0812 14003KT P6SM BKN060 BKN150 FM072100
                       VRB03KT P6SM SCT150=
201411071130 TAF KBFI 071130Z 0712/0812 14003KT P6SM SCT012 BKN050 BKN150
                      TEMPO 0713/0717 P6SM BKN012 FM072100 VRB03KT
                       P6SM SCT150=
201411070540 TAF KBFI 070540Z 0706/0806 18007KT P6SM FEW030 SCT180 FM070900
                       16005KT P6SM FEW030 SCT100 FM071200 14003KT
                       P6SM SCT012 BKN045
                      TEMPO 0713/0717 P6SM BKN012 FM072100 01004KT
                       P6SM SCT150=
201411070222 TAF KBFI 070222Z 0702/0724 19012G23KT P6SM SCT028 BKN100 BKN200
                       FM070500 17008KT P6SM SCT028 SCT100 BKN200
                       FM071200 16005KT P6SM SCT012 BKN035
                      TEMPO 0712/0716 4SM BR BKN012 FM071800 30004KT
                       P6SM SCT040 SCT150=
201411070221 TAF AMD KBFI 070221Z 0702/0724 19012G23KT P6SM SCT028 BKN100 BKN200
                       TEMPO 0702/0705 BKN030 FM070500 17008KT
                       P6SM SCT028 SCT100 BKN200 FM071200 16005KT
                       P6SM SCT012 BKN035
                      TEMPO 0712/0716 4SM BR BKN012 FM071800 30004KT
                       P6SM SCT040 SCT150=
201411062338 TAF KBFI 062338Z 0700/0724 20016G28KT P6SM -SHRA SCT020 BKN035
                       BKN080
                      TEMPO 0700/0703 BKN030 FM070300 18008KT P6SM
                       BKN035 BKN080 FM071200 16005KT P6SM SCT012
                       BKN035
                      TEMPO 0712/0716 4SM BR BKN012 FM071800 30004KT
                       P6SM SCT040 SCT150=
201411061727 TAF KBFI 061727Z 0618/0718 18012G22KT P6SM -SHRA SCT030 BKN050
                       BKN070 FM062000 20016G28KT P6SM -SHRA SCT030
                       BKN050 BKN100 FM070100 18010KT P6SM BKN050
                       FM071300 16005KT P6SM BKN012 BKN045=
201411061124 TAF KBFI 061124Z 0612/0712 19004KT P6SM FEW050 OVC070 FM061600
                       18012G22KT 5SM -RA BR BKN018 OVC030 FM062100
                       20016G28KT P6SM -SHRA BKN025 OVC040 FM070100
                       18010KT P6SM BKN045 FM070500 16005KT P6SM
                       BKN050=
201411060535 TAF KBFI 060535Z 0606/0706 14004KT P6SM -RA OVC050 FM061600 18012G22KT
                       5SM -RA BR BKN018 OVC030 FM062100 20016G26KT
                       P6SM -SHRA BKN025 OVC040 FM070100 18010KT
                       P6SM BKN045=
201411060016 TAF AMD KBFI 060016Z 0600/0624 12004KT P6SM -RA BKN035 OVC060
                      TEMPO 0600/0604 4SM -RA BR FM060900 14006KT
                       P6SM -RA BKN020 OVC035 FM061500 18012G22KT
                       P6SM -SHRA SCT012 BKN030 FM061800 20016G26KT
                       P6SM -SHRA BKN030=
201411052320 TAF KBFI 052320Z 0600/0624 12004KT P6SM -RA BKN035 OVC060 FM060900
                       14006KT P6SM -RA BKN020 OVC035 FM061500
                       18012G22KT P6SM -SHRA SCT012 BKN030 FM061800
                       20016G26KT P6SM -SHRA BKN030=
201411052100 TAF AMD KBFI 052100Z 0521/0618 12003KT P6SM VCSH BKN030 OVC070
                       TEMPO 0521/0523 -RA FM052300 12003KT P6SM
                       -RA BKN035 OVC060 FM060900 14004KT P6SM
                       -RA BKN025 OVC035 FM061500 18012G22KT P6SM
                       -SHRA BKN030=
201411051730 TAF KBFI 051730Z 0518/0618 12003KT P6SM BKN030 OVC070 FM052300
                       12003KT P6SM -RA BKN035 OVC060 FM060900
                       14004KT P6SM -RA BKN025 OVC035 FM061500
                       18012G22KT P6SM -SHRA BKN030=
201411051135 TAF KBFI 051135Z 0512/0612 13004KT P6SM BKN090 OVC150 FM051800
                       12003KT P6SM SCT035 OVC070 FM052300 12003KT
                       P6SM -RA BKN035 OVC060 FM060900 VRB02KT
                       P6SM -RA BKN025 OVC035=
201411050859 TAF AMD KBFI 050859Z 0509/0606 12004KT P6SM FEW020 SCT120 BKN180
                       TEMPO 0509/0513 BKN020 OVC120 FM051800 15007KT
                       P6SM SCT030 OVC070=
201411050520 TAF KBFI 050520Z 0506/0606 10003KT P6SM SCT018 OVC030
                      TEMPO 0506/0508 BKN018 OVC030 FM051100 12004KT
                       P6SM SCT007 OVC015
                      TEMPO 0511/0515 P6SM BKN010 OVC020 FM051800
                       15007KT P6SM SCT030 OVC070=
201411050134 TAF AMD KBFI 050134Z 0502/0524 VRB03KT P6SM VCSH SCT030 BKN070
                       OVC200
                      TEMPO 0502/0504 BKN030 OVC070 FM050700 14004KT
                       P6SM OVC020 FM051100 12004KT P6SM SCT007
                       OVC015
                      TEMPO 0511/0515 P6SM BKN010 OVC020 FM051800
                       15007KT P6SM SCT030 OVC070=
201411042326 TAF KBFI 042326Z 0500/0524 VRB04KT P6SM VCSH SCT025 BKN040 BKN070
                       TEMPO 0500/0504 -SHRA BKN025 OVC030 FM050700
                       14004KT P6SM OVC020 FM051100 12004KT P6SM
                       SCT007 OVC015
                      TEMPO 0511/0515 P6SM BKN010 OVC020 FM051800
                       15007KT P6SM SCT030 OVC070=
201411041903 TAF AMD KBFI 041903Z 0419/0518 21008KT P6SM VCSH SCT015 BKN025
                       OVC030
                      TEMPO 0419/0423 VRB04KT -SHRA SCT010 BKN020
                       FM042300 VRB04KT P6SM VCSH OVC030 FM050700
                       14004KT P6SM OVC025=
201411041726 TAF KBFI 041726Z 0418/0518 16008KT P6SM VCSH SCT012 BKN030 OVC080
                       FM041900 21008KT P6SM BKN030 OVC080 FM042300
                       20004KT P6SM VCSH OVC030 FM050700 14004KT
                       P6SM OVC025=
201411041259 TAF AMD KBFI 041259Z 0413/0512 13006KT P6SM SCT010 OVC030
                      TEMPO 0413/0415 4SM -RA BR BKN010 OVC030
                       FM041500 21010G20KT P6SM SCT015 OVC030
                      TEMPO 0415/0418 -SHRA BKN015 OVC030 FM041800
                       21010KT P6SM BKN035 FM042300 22006KT P6SM
                       BKN050=
201411041120 TAF KBFI 041120Z 0412/0512 16006KT P6SM OVC030
                      TEMPO 0412/0414 -RA BKN020 OVC030 FM041400
                       21010G20KT P6SM SCT020 OVC030
                      TEMPO 0414/0418 -SHRA OVC020 FM041800 21010KT
                       P6SM BKN035 FM042300 22006KT P6SM BKN050=
201411040520 TAF KBFI 040520Z 0406/0506 15010KT P6SM -RA OVC060 FM041000 18012KT
                       5SM -RA BR OVC020 FM041400 21010G20KT P6SM
                       VCSH SCT020 OVC030 FM041800 21010KT P6SM
                       BKN035 FM042300 22006KT P6SM BKN050=
201411040220 TAF AMD KBFI 040220Z 0402/0424 16010KT P6SM -RA FEW030 OVC050
                      TEMPO 0402/0404 3SM -RA BR FM040600 18012KT
                       5SM -RA BR SCT015 OVC025 FM041000 18012KT
                       4SM -RA BR OVC015 FM041400 21010G20KT P6SM
                       VCSH SCT020 OVC030 FM041800 21010KT P6SM
                       BKN035=
201411032335 TAF KBFI 032335Z 0400/0424 18007KT P6SM -RA FEW015 BKN030 OVC040
                       TEMPO 0400/0404 3SM -RA BR FM040600 18012KT
                       5SM -RA BR SCT015 OVC025 FM041000 18012KT
                       4SM -RA BR OVC015 FM041400 21010G20KT P6SM
                       VCSH SCT020 OVC030 FM041800 21010KT P6SM
                       BKN035=
201411031724 TAF KBFI 031724Z 0318/0418 16006KT P6SM -RA SCT025 BKN030 OVC045
                       FM040600 16008KT P6SM -RA SCT018 OVC028
                       FM041000 16008KT P6SM -RA OVC020 FM041400
                       20008KT P6SM SCT020 OVC030=
201411031136 TAF KBFI 031136Z 0312/0412 16008KT P6SM SCT015 BKN025 OVC050 FM031500
                       16008KT P6SM -RA SCT025 BKN040 OVC060 FM040600
                       16008KT P6SM -RA SCT018 OVC028 FM041000
                       16008KT P6SM -RA OVC020=
201411030536 TAF KBFI 030536Z 0306/0406 15006KT P6SM OVC025 FM031200 15006KT
                       P6SM OVC016 FM031700 15006KT P6SM -RA OVC016
                       FM040300 15006KT P6SM -RA SCT018 OVC028=
201411022328 TAF KBFI 022328Z 0300/0324 12005KT P6SM -RA BKN030 OVC080 FM030500
                       15005KT P6SM OVC018 FM031700 16006KT 5SM
                       -RA BR OVC025=
201411021808 TAF AMD KBFI 021808Z 0218/0318 14004KT P6SM SCT035 BKN100 FM022200
                       17010KT P6SM -RA BKN030 OVC050 FM030400
                       16005KT P6SM VCSH BKN030 OVC050=
201411021724 TAF KBFI 021724Z 0218/0318 14004KT P6SM BKN030 OVC090 FM022200
                       17010KT P6SM -RA BKN030 OVC050 FM030400
                       16005KT P6SM VCSH BKN030 OVC050=
201411021434 TAF AMD KBFI 021434Z 0215/0312 13006KT P6SM BKN015 OVC050 FM021700
                       15008KT P6SM BKN030 OVC050 FM022000 16008KT
                       P6SM -RA OVC025 FM030600 15004KT P6SM OVC020=
201411021120 TAF KBFI 021120Z 0212/0312 00000KT P6SM SCT010 BKN050
                      TEMPO 0212/0214 BKN010 OVC050 FM021400 15004KT
                       P6SM BKN030 OVC050 FM022000 16008KT P6SM
                       -RA OVC025 FM030600 15004KT P6SM OVC020=
201411021010 TAF AMD KBFI 021010Z 0210/0306 00000KT P6SM SCT010 BKN050
                      TEMPO 0210/0214 BKN010 OVC050 FM021400 15004KT
                       P6SM BKN030 OVC050 FM022000 16008KT P6SM
                       -RA OVC025=
201411020520 TAF KBFI 020520Z 0206/0306 00000KT P6SM BKN050 FM021100 15004KT
                       P6SM BKN030 OVC050 FM022000 16008KT P6SM
                       -RA OVC025=
201411012326 TAF KBFI 012326Z 0200/0224 32003KT P6SM FEW024 BKN030 OVC045 FM020600
                       15005KT 5SM BR OVC015 FM022000 16008KT P6SM
                       -RA OVC025=
201411011727 TAF KBFI 011727Z 0118/0218 03003KT P6SM BKN018 OVC023 FM012200
                       31005KT P6SM SCT020 BKN030 FM012300 29005KT
                       P6SM SCT030 BKN200 FM020700 15005KT P6SM
                       OVC015=
201411011120 TAF KBFI 011120Z 0112/0212 VRB03KT 5SM BR BKN007
                      TEMPO 0112/0115 3SM BR OVC005 FM011700 VRB03KT
                       P6SM BKN010 FM011900 21005KT P6SM BKN015
                       FM012100 21005KT P6SM SCT020 FM020300 18006KT
                       P6SM BKN020 FM021000 16007KT P6SM OVC020=
201411010520 TAF KBFI 010520Z 0106/0206 16004KT P6SM SCT030 BKN050
                      TEMPO 0106/0110 BKN030 OVC050 FM011000 00000KT
                       P6SM SCT018 OVC030
                      TEMPO 0112/0116 5SM BR BKN007 FM011800 VRB03KT
                       P6SM BKN250=