##########################################################
# Query made at 02/17/2025 02:30:53 UTC
# Time interval: from 07/01/2014 00:00  to 07/31/2014 23:59  UTC
##########################################################

##########################################################
# KBFI, Seattle, Seattle Boeing Field (United States)
# WMO index: -----. WIGOS ID: Unknown
# Latitude 47-32-45N. Longitude 122-18-49W. Altitude 5 m.
##########################################################

###################################
#  METAR/SPECI from KBFI
###################################
201407312353 METAR KBFI 312353Z 30008G16KT 10SM SCT250 29/11 A3002 RMK AO2 SLP167 TCU DSNT SE T02940111 10300 20228 56013=
201407312253 METAR KBFI 312253Z COR 32011G15KT 10SM SCT250 30/11 A3003 RMK AO2 SLP170 T03000106=
201407312153 METAR KBFI 312153Z 31008KT 10SM CLR 29/12 A3005 RMK AO2 SLP176 T02890117=
201407312053 METAR KBFI 312053Z 32010G16KT 10SM CLR 28/11 A3006 RMK AO2 SLP180 T02780111 57012=
201407311953 METAR KBFI 311953Z 29007KT 10SM CLR 27/12 A3007 RMK AO2 SLP183 T02670122=
201407311853 METAR KBFI 311853Z 32004KT 10SM CLR 25/12 A3009 RMK AO2 SLP188 T02500117=
201407311753 METAR KBFI 311753Z 32007KT 280V340 10SM CLR 23/11 A3010 RMK AO2 SLP192 T02280106 10228 20172 58005=
201407311653 METAR KBFI 311653Z AUTO 31006KT 10SM CLR 22/10 A3011 RMK AO2 SLP194 T02170100 TSNO=
201407311553 METAR KBFI 311553Z AUTO 00000KT 10SM CLR 21/09 A3012 RMK AO2 SLP199 T02110089 TSNO=
201407311453 METAR KBFI 311453Z AUTO 00000KT 10SM CLR 21/09 A3011 RMK AO2 SLP197 T02060089 53001 TSNO=
201407311353 METAR KBFI 311353Z VRB03KT 10SM CLR 19/08 A3011 RMK AO2 SLP196 T01890083=
201407311253 METAR KBFI 311253Z 30003KT 10SM CLR 18/08 A3011 RMK AO2 SLP195 T01780083=
201407311153 METAR KBFI 311153Z 28003KT 10SM CLR 18/09 A3011 RMK AO2 SLP196 T01780089 10217 20178 50002=
201407311053 METAR KBFI 311053Z 00000KT 10SM CLR 19/07 A3011 RMK AO2 SLP197 T01890072=
201407310953 METAR KBFI 310953Z 00000KT 10SM CLR 20/07 A3011 RMK AO2 SLP195 T02000072=
201407310853 METAR KBFI 310853Z 00000KT 10SM CLR 20/07 A3011 RMK AO2 SLP194 T02000072 50003=
201407310753 METAR KBFI 310753Z VRB03KT 10SM CLR 21/08 A3011 RMK AO2 SLP194 T02060083 402940167=
201407310653 METAR KBFI 310653Z 00000KT 10SM CLR 21/07 A3010 RMK AO2 SLP192 T02110072=
201407310553 METAR KBFI 310553Z VRB04KT 10SM CLR 22/07 A3010 RMK AO2 SLP191 T02170072 10294 20217 53008=
201407310453 METAR KBFI 310453Z VRB04KT 10SM CLR 24/10 A3009 RMK AO2 SLP187 T02390100=
201407310353 METAR KBFI 310353Z VRB03KT 10SM CLR 26/11 A3008 RMK AO2 SLP185 T02560111=
201407310253 METAR KBFI 310253Z VRB05KT 10SM FEW250 28/09 A3007 RMK AO2 SLP182 T02780089 56007=
201407310153 METAR KBFI 310153Z 32006KT 10SM FEW250 28/09 A3007 RMK AO2 SLP182 T02830089=
201407310053 METAR KBFI 310053Z 31007KT 10SM CLR 28/08 A3008 RMK AO2 SLP184 T02830078=
201407302353 METAR KBFI 302353Z 35007KT 320V020 10SM CLR 29/07 A3009 RMK AO2 SLP189 T02890072 10294 20228 56013=
201407302253 METAR KBFI 302253Z 30009G14KT 10SM CLR 29/11 A3010 RMK AO2 SLP191 T02890106=
201407302153 METAR KBFI 302153Z 30008KT 10SM CLR 28/10 A3011 RMK AO2 SLP197 T02780100=
201407302053 METAR KBFI 302053Z 30008KT 10SM CLR 27/11 A3013 RMK AO2 SLP202 T02670106 58004=
201407301953 METAR KBFI 301953Z 30007KT 10SM CLR 26/10 A3014 RMK AO2 SLP204 T02610100=
201407301853 METAR KBFI 301853Z 28006KT 10SM FEW250 24/13 A3014 RMK AO2 SLP206 T02440128=
201407301753 METAR KBFI 301753Z 30005KT 10SM CLR 23/13 A3014 RMK AO2 SLP206 T02330133 10233 20167 58001=
201407301653 METAR KBFI 301653Z VRB03KT 10SM CLR 23/14 A3015 RMK AO2 SLP208 T02280139=
201407301553 METAR KBFI 301553Z 18003KT 10SM CLR 21/14 A3015 RMK AO2 SLP209 T02060139=
201407301453 METAR KBFI 301453Z 00000KT 10SM CLR 19/13 A3015 RMK AO2 SLP208 T01890133 51008=
201407301353 METAR KBFI 301353Z 00000KT 10SM CLR 17/13 A3014 RMK AO2 SLP207 T01720133=
201407301253 METAR KBFI 301253Z 00000KT 10SM CLR 17/13 A3013 RMK AO2 SLP203 T01720128=
201407301153 METAR KBFI 301153Z 00000KT 10SM CLR 18/13 A3012 RMK AO2 SLP200 T01780128 10222 20172 53008=
201407301053 METAR KBFI 301053Z AUTO 00000KT 10SM CLR 18/13 A3011 RMK AO2 SLP196 T01780128 TSNO=
201407300953 METAR KBFI 300953Z AUTO VRB03KT 10SM CLR 19/13 A3011 RMK AO2 SLP194 T01890128 TSNO=
201407300853 METAR KBFI 300853Z 33003KT 10SM CLR 19/13 A3010 RMK AO2 SLP191 T01940128 51003=
201407300753 METAR KBFI 300753Z 00000KT 10SM CLR 21/13 A3010 RMK AO2 SLP191 T02110128 402940167=
201407300653 METAR KBFI 300653Z 00000KT 10SM CLR 22/12 A3009 RMK AO2 SLP189 T02170122=
201407300553 METAR KBFI 300553Z 00000KT 10SM CLR 22/12 A3009 RMK AO2 SLP188 T02220122 10294 20222 53012=
201407300453 METAR KBFI 300453Z 31003KT 10SM CLR 23/12 A3008 RMK AO2 SLP185 T02330117=
201407300353 METAR KBFI 300353Z VRB03KT 10SM CLR 26/11 A3006 RMK AO2 SLP178 T02560111=
201407300253 METAR KBFI 300253Z VRB05KT 10SM CLR 28/11 A3005 RMK AO2 SLP176 T02780106 55003=
201407300153 METAR KBFI 300153Z 30006KT 10SM CLR 28/11 A3004 RMK AO2 SLP173 T02780111=
201407300053 METAR KBFI 300053Z 29006KT 10SM CLR 28/10 A3005 RMK AO2 SLP175 T02830100=
201407292353 METAR KBFI 292353Z 30007KT 10SM CLR 29/10 A3006 RMK AO2 SLP179 T02890100 10294 20250 58015=
201407292253 METAR KBFI 292253Z 31008KT 280V340 10SM CLR 28/11 A3008 RMK AO2 SLP186 T02830111=
201407292153 METAR KBFI 292153Z 31009KT 10SM CLR 29/11 A3009 RMK AO2 SLP191 T02890111=
201407292053 METAR KBFI 292053Z 32004KT 10SM CLR 29/11 A3011 RMK AO2 SLP194 T02890111 58008=
201407291953 METAR KBFI 291953Z 31007KT 280V340 10SM CLR 27/11 A3011 RMK AO2 SLP197 T02720111=
201407291853 METAR KBFI 291853Z 30006KT 10SM CLR 27/11 A3013 RMK AO2 SLP201 T02670111=
201407291753 METAR KBFI 291753Z VRB04KT 10SM CLR 26/12 A3013 RMK AO2 SLP203 T02560117 10256 20167 58001=
201407291653 METAR KBFI 291653Z 00000KT 10SM CLR 24/13 A3014 RMK AO2 SLP205 T02440128=
201407291553 METAR KBFI 291553Z 00000KT 10SM CLR 22/13 A3014 RMK AO2 SLP205 T02220128=
201407291453 METAR KBFI 291453Z 00000KT 10SM CLR 20/13 A3013 RMK AO2 SLP204 T02000128 51010=
201407291353 METAR KBFI 291353Z 00000KT 10SM CLR 18/12 A3013 RMK AO2 SLP201 T01780117=
201407291253 METAR KBFI 291253Z 00000KT 10SM CLR 17/12 A3012 RMK AO2 SLP198 T01720117=
201407291153 METAR KBFI 291153Z 00000KT 10SM CLR 18/12 A3010 RMK AO2 SLP194 T01780117 10233 20178 53008=
201407291053 METAR KBFI 291053Z 00000KT 10SM CLR 18/11 A3009 RMK AO2 SLP190 T01830111=
201407290953 METAR KBFI 290953Z 00000KT 10SM CLR 19/11 A3008 RMK AO2 SLP187 T01940111=
201407290853 METAR KBFI 290853Z 00000KT 10SM CLR 21/12 A3008 RMK AO2 SLP185 T02060117 54000=
201407290753 METAR KBFI 290753Z 00000KT 10SM CLR 22/11 A3008 RMK AO2 SLP185 T02170111 403110167=
201407290653 METAR KBFI 290653Z 00000KT 10SM CLR 22/11 A3008 RMK AO2 SLP185 T02220106=
201407290553 METAR KBFI 290553Z 00000KT 10SM CLR 23/11 A3008 RMK AO2 SLP185 T02330111 10306 20233 51012=
201407290453 METAR KBFI 290453Z VRB03KT 10SM CLR 25/12 A3007 RMK AO2 SLP184 T02500122=
201407290353 METAR KBFI 290353Z 30004KT 10SM CLR 24/12 A3006 RMK AO2 SLP178 T02440117=
201407290253 METAR KBFI 290253Z 32006KT 10SM CLR 28/11 A3004 RMK AO2 SLP174 T02780111 56006=
201407290153 METAR KBFI 290153Z VRB06KT 10SM CLR 29/11 A3005 RMK AO2 SLP174 T02890106=
201407290053 METAR KBFI 290053Z 31008KT 10SM CLR 30/09 A3006 RMK AO2 SLP177 T03000089=
201407282353 METAR KBFI 282353Z 32009KT 10SM CLR 31/08 A3006 RMK AO2 SLP180 T03060083 10311 20233 58008=
201407282253 METAR KBFI 282253Z 30008G14KT 10SM CLR 30/10 A3008 RMK AO2 SLP185 T03000100=
201407282153 METAR KBFI 282153Z 30008KT 10SM CLR 29/11 A3009 RMK AO2 SLP188 T02890111=
201407282053 METAR KBFI 282053Z 30008KT 10SM CLR 28/11 A3009 RMK AO2 SLP188 T02780106 58007=
201407281953 METAR KBFI 281953Z 32005KT 10SM CLR 27/12 A3010 RMK AO2 SLP191 T02670117=
201407281853 METAR KBFI 281853Z 32006KT 10SM CLR 25/12 A3011 RMK AO2 SLP195 T02500117=
201407281753 METAR KBFI 281753Z VRB04KT 10SM CLR 23/12 A3011 RMK AO2 SLP196 T02330117 10233 20167 58006=
201407281653 METAR KBFI 281653Z VRB04KT 10SM CLR 22/12 A3012 RMK AO2 SLP197 T02220122=
201407281553 METAR KBFI 281553Z VRB03KT 10SM CLR 21/12 A3012 RMK AO2 SLP200 T02110122=
201407281453 METAR KBFI 281453Z 00000KT 10SM CLR 19/12 A3013 RMK AO2 SLP201 T01890122 51009=
201407281353 METAR KBFI 281353Z 32003KT 10SM CLR 17/12 A3013 RMK AO2 SLP201 T01720117=
201407281253 METAR KBFI 281253Z 00000KT 10SM CLR 17/11 A3011 RMK AO2 SLP197 T01670111=
201407281153 METAR KBFI 281153Z 00000KT 10SM CLR 17/11 A3010 RMK AO2 SLP192 T01720111 10222 20172 55000=
201407281053 METAR KBFI 281053Z 00000KT 10SM CLR 18/12 A3009 RMK AO2 SLP190 T01830117=
201407280953 METAR KBFI 280953Z 00000KT 10SM CLR 18/12 A3010 RMK AO2 SLP191 T01830117=
201407280853 METAR KBFI 280853Z 00000KT 10SM CLR 19/11 A3010 RMK AO2 SLP192 T01940111 58001=
201407280753 METAR KBFI 280753Z 00000KT 10SM CLR 20/11 A3011 RMK AO2 SLP196 T02000111 402780161=
201407280653 METAR KBFI 280653Z VRB03KT 10SM CLR 21/11 A3010 RMK AO2 SLP192 T02110111=
201407280553 METAR KBFI 280553Z VRB03KT 10SM CLR 22/12 A3010 RMK AO2 SLP193 T02220122 10278 20222 51010=
201407280453 METAR KBFI 280453Z 00000KT 10SM CLR 24/12 A3009 RMK AO2 SLP190 T02390117=
201407280353 METAR KBFI 280353Z 32004KT 10SM CLR 24/11 A3008 RMK AO2 SLP186 T02440111=
201407280253 METAR KBFI 280253Z 31007KT 10SM SCT200 26/11 A3007 RMK AO2 SLP182 T02610111 55006=
201407280153 METAR KBFI 280153Z 28007KT 10SM SCT200 27/11 A3007 RMK AO2 SLP182 T02720106=
201407280053 METAR KBFI 280053Z 30008G15KT 10SM SCT200 28/11 A3007 RMK AO2 SLP182 T02780111=
201407272353 METAR KBFI 272353Z 30008KT 10SM FEW200 27/12 A3009 RMK AO2 SLP188 T02720117 10278 20222 56013=
201407272253 METAR KBFI 272253Z 31010G15KT 10SM FEW200 27/12 A3009 RMK AO2 SLP190 T02720122=
201407272153 METAR KBFI 272153Z 31008KT 10SM CLR 27/12 A3011 RMK AO2 SLP196 T02670117=
201407272053 METAR KBFI 272053Z 30009KT 10SM FEW200 26/11 A3013 RMK AO2 SLP201 T02610111 58014=
201407271953 METAR KBFI 271953Z 30007KT 270V340 10SM CLR 25/12 A3014 RMK AO2 SLP205 T02500117=
201407271853 METAR KBFI 271853Z 31007KT 10SM CLR 24/11 A3016 RMK AO2 SLP211 T02440111=
201407271753 METAR KBFI 271753Z 31007KT 10SM CLR 22/12 A3016 RMK AO2 SLP214 T02220117 10222 20161 58009=
201407271653 METAR KBFI 271653Z VRB03KT 10SM CLR 21/12 A3017 RMK AO2 SLP216 T02060117=
201407271553 METAR KBFI 271553Z 30005KT 10SM CLR 19/12 A3019 RMK AO2 SLP222 T01890117=
201407271453 METAR KBFI 271453Z 00000KT 10SM CLR 18/11 A3019 RMK AO2 SLP223 T01780111 52007=
201407271353 METAR KBFI 271353Z 00000KT 10SM CLR 17/11 A3018 RMK AO2 SLP221 T01720106=
201407271253 METAR KBFI 271253Z AUTO 00000KT 10SM CLR 17/10 A3018 RMK AO2 SLP218 T01670100=
201407271153 METAR KBFI 271153Z 00000KT 10SM CLR 17/11 A3017 RMK AO2 SLP216 T01670106 10200 20161 50002=
201407271053 METAR KBFI 271053Z 00000KT 10SM CLR 17/11 A3017 RMK AO2 SLP216 T01670106=
201407270953 METAR KBFI 270953Z VRB03KT 10SM CLR 17/11 A3017 RMK AO2 SLP216 T01720111=
201407270853 METAR KBFI 270853Z VRB03KT 10SM CLR 18/11 A3017 RMK AO2 SLP214 T01780111 51005=
201407270753 METAR KBFI 270753Z 00000KT 10SM CLR 18/11 A3016 RMK AO2 SLP213 T01830111 402670144=
201407270653 METAR KBFI 270653Z VRB03KT 10SM CLR 19/11 A3016 RMK AO2 SLP212 T01890111=
201407270553 METAR KBFI 270553Z 00000KT 10SM CLR 20/11 A3015 RMK AO2 SLP210 T02000111 10267 20200 51010=
201407270453 METAR KBFI 270453Z 00000KT 10SM CLR 21/11 A3014 RMK AO2 SLP207 T02110111=
201407270353 METAR KBFI 270353Z 31005KT 10SM CLR 21/11 A3013 RMK AO2 SLP203 T02110111=
201407270253 METAR KBFI 270253Z 30007KT 10SM CLR 22/11 A3012 RMK AO2 SLP199 T02220106 55000=
201407270153 METAR KBFI 270153Z 30006KT 10SM CLR 24/11 A3012 RMK AO2 SLP198 T02440111=
201407270053 METAR KBFI 270053Z 32007KT 10SM CLR 26/11 A3012 RMK AO2 SLP199 T02560106=
201407262353 METAR KBFI 262353Z 32006KT 10SM CLR 27/11 A3012 RMK AO2 SLP200 T02670111 10267 20211 56010=
201407262253 METAR KBFI 262253Z 31007KT 10SM CLR 26/09 A3013 RMK AO2 SLP202 T02610094=
201407262153 METAR KBFI 262153Z AUTO 31007KT 10SM CLR 26/11 A3014 RMK AO2 SLP207 T02610106 TSNO=
201407262053 METAR KBFI 262053Z AUTO VRB04KT 10SM CLR 25/11 A3015 RMK AO2 SLP210 T02500111 58005 TSNO=
201407261953 METAR KBFI 261953Z 29006KT 10SM CLR 23/11 A3016 RMK AO2 SLP212 T02330111=
201407261853 METAR KBFI 261853Z VRB04KT 10SM FEW070 23/11 A3017 RMK AO2 SLP216 T02280111=
201407261753 METAR KBFI 261753Z 32003KT 10SM CLR 22/11 A3017 RMK AO2 SLP215 T02170111 10222 20144 50001=
201407261653 METAR KBFI 261653Z VRB03KT 10SM CLR 20/11 A3017 RMK AO2 SLP216 T02000106=
201407261553 METAR KBFI 261553Z 05003KT 10SM CLR 19/10 A3017 RMK AO2 SLP215 T01890100=
201407261453 METAR KBFI 261453Z 00000KT 10SM CLR 18/11 A3016 RMK AO2 SLP214 T01780106 53009=
201407261353 METAR KBFI 261353Z 00000KT 10SM CLR 16/12 A3015 RMK AO2 SLP210 T01610117=
201407261253 METAR KBFI 261253Z 00000KT 10SM FEW040 15/11 A3014 RMK AO2 SLP207 T01500106=
201407261153 METAR KBFI 261153Z 00000KT 10SM CLR 15/11 A3014 RMK AO2 SLP205 7//// T01500106 10189 20150 53006=
201407261053 METAR KBFI 261053Z 00000KT 10SM CLR 16/11 A3013 RMK AO2 SLP202 T01610106=
201407260953 METAR KBFI 260953Z 00000KT 10SM CLR 16/11 A3012 RMK AO2 SLP200 T01610106=
201407260853 METAR KBFI 260853Z 00000KT 10SM CLR 17/11 A3012 RMK AO2 SLP199 T01670106 52004=
201407260753 METAR KBFI 260753Z 00000KT 10SM CLR 17/11 A3011 RMK AO2 SLP196 T01720106 402390139=
201407260653 METAR KBFI 260653Z 00000KT 10SM CLR 18/10 A3011 RMK AO2 SLP196 T01780100=
201407260553 METAR KBFI 260553Z 00000KT 10SM CLR 19/09 A3011 RMK AO2 SLP194 T01890094 10239 20189 51009=
201407260453 METAR KBFI 260453Z 00000KT 10SM CLR 19/10 A3010 RMK AO2 SLP193 T01890100=
201407260353 METAR KBFI 260353Z 31005KT 10SM CLR 19/11 A3009 RMK AO2 SLP188 T01940106=
201407260253 METAR KBFI 260253Z 30006KT 10SM CLR 22/10 A3008 RMK AO2 SLP185 T02170100 56007=
201407260153 METAR KBFI 260153Z AUTO 29006KT 10SM CLR 23/10 A3008 RMK AO2 SLP186 T02280100 TSNO=
201407260053 METAR KBFI 260053Z 32006KT 10SM CLR 23/10 A3009 RMK AO2 SLP189 T02330100=
201407252353 METAR KBFI 252353Z 31006KT 10SM FEW040 23/10 A3010 RMK AO2 SLP192 T02330100 10239 20189 58009=
201407252253 METAR KBFI 252253Z VRB06KT 10SM SCT050 23/10 A3011 RMK AO2 SLP197 T02330100=
201407252153 METAR KBFI 252153Z VRB04KT 10SM SCT045 23/10 A3012 RMK AO2 SLP199 T02280100=
201407252053 METAR KBFI 252053Z 27007KT 10SM BKN044 22/11 A3013 RMK AO2 SLP202 T02220106 58006=
201407252000 SPECI KBFI 252000Z 32006KT 10SM BKN044 22/10 A3014 RMK AO2=
201407251953 METAR KBFI 251953Z VRB06KT 10SM BKN027 22/11 A3014 RMK AO2 SLP205 T02170106=
201407251853 METAR KBFI 251853Z VRB06KT 10SM BKN027 21/12 A3014 RMK AO2 SLP207 T02060117=
201407251753 METAR KBFI 251753Z 32006KT 10SM SCT027 20/11 A3015 RMK AO2 SLP208 6//// T02000111 10206 20139 56006=
201407251653 METAR KBFI 251653Z VRB03KT 10SM SCT017 19/11 A3015 RMK AO2 SLP210 T01890106=
201407251553 METAR KBFI 251553Z 07006KT 10SM SCT040 18/11 A3016 RMK AO2 SLP212 T01780111 PNO $=
201407251453 METAR KBFI 251453Z AUTO VRB03KT 10SM SCT040 17/11 A3017 RMK AO2 SLP215 6//// T01720111 58002 TSNO PNO $=
201407251353 METAR KBFI 251353Z 00000KT 10SM SCT055 15/11 A3017 RMK AO2 SLP216 T01500111 PNO $=
201407251253 METAR KBFI 251253Z 00000KT 10SM SCT037 BKN055 14/11 A3017 RMK AO2 SLP216 T01390106 PNO $=
201407251153 METAR KBFI 251153Z 00000KT 10SM BKN035 OVC055 16/11 A3017 RMK AO2 SLP216 6//// 7//// T01560111 10167 20144 58006 PNO $=
201407251053 METAR KBFI 251053Z 00000KT 10SM FEW033 16/11 A3018 RMK AO2 SLP219 T01560106 PNO $=
201407250953 METAR KBFI 250953Z 00000KT 10SM FEW033 OVC055 16/11 A3019 RMK AO2 SLP222 T01610106 PNO $=
201407250853 METAR KBFI 250853Z 00000KT 10SM OVC055 17/10 A3019 RMK AO2 SLP222 6//// T01670100 58006 PNO $=
201407250753 METAR KBFI 250753Z 00000KT 10SM OVC033 17/11 A3020 RMK AO2 SLP225 T01670106 402060144 PNO $=
201407250653 METAR KBFI 250653Z 00000KT 10SM OVC037 17/11 A3021 RMK AO2 SLP228 T01670106 PNO $=
201407250600 SPECI KBFI 250600Z 00000KT 10SM OVC033 17/11 A3021 RMK AO2 PNO $=
201407250553 METAR KBFI 250553Z 00000KT 10SM BKN025 OVC050 17/11 A3021 RMK AO2 SLP229 6//// T01670106 10178 20167 50002 PNO $=
201407250500 SPECI KBFI 250500Z 00000KT 10SM BKN025 OVC050 17/11 A3021 RMK AO2 PNO $=
201407250453 METAR KBFI 250453Z COR 00000KT 10SM BKN025 BKN050 17/11 A3021 RMK AO2 SLP231 T01670106 PNO $=
201407250353 METAR KBFI 250353Z 06004KT 10SM BKN025 BKN050 17/11 A3021 RMK AO2 SLP228 T01670111 PNO $=
201407250253 METAR KBFI 250253Z 04006KT 10SM BKN025 BKN055 17/11 A3020 RMK AO2 SLP227 6//// T01670111 51001 PNO $=
201407250153 METAR KBFI 250153Z 04006G14KT 10SM BKN045 17/12 A3020 RMK AO2 SLP226 T01720117 PNO $=
201407250053 METAR KBFI 250053Z COR VRB06G14KT 10SM BKN015 BKN035 18/12 A3021 RMK AO2 SLP228 T01780122 PNO $=
201407242353 METAR KBFI 242353Z 03007KT 350V050 10SM OVC039 18/13 A3020 RMK AO2 SLP226 6//// T01780133 10206 20172 50004 PNO $=
201407242253 METAR KBFI 242253Z 00000KT 10SM OVC035 19/14 A3020 RMK AO2 RAB11E22 SLP227 T01940139 PNO $=
201407242153 METAR KBFI 242153Z 00000KT 10SM SCT033 BKN042 OVC049 19/13 A3020 RMK AO2 SLP225 T01890133 PNO $=
201407242053 METAR KBFI 242053Z 19009KT 170V240 10SM FEW027 OVC037 21/12 A3019 RMK AO2 SLP222 6//// T02060117 51007 PNO $=
201407241953 METAR KBFI 241953Z 18007KT 10SM SCT023 OVC031 19/12 A3018 RMK AO2 SLP221 T01940122 PNO $=
201407241853 METAR KBFI 241853Z 21005KT 10SM SCT023 OVC031 18/12 A3018 RMK AO2 SLP218 T01830122 PNO $=
201407241753 METAR KBFI 241753Z 21005KT 10SM OVC021 17/12 A3017 RMK AO2 SLP215 6//// T01720122 10172 20156 53017 PNO $=
201407241653 METAR KBFI 241653Z 19006KT 10SM OVC019 17/12 A3015 RMK AO2 SLP208 T01670117 PNO $=
201407241553 METAR KBFI 241553Z 19007KT 10SM SCT016 OVC023 16/11 A3013 RMK AO2 RAE03 SLP202 T01610111 PNO $=
201407241453 METAR KBFI 241453Z 17004KT 10SM -RA OVC027 16/11 A3012 RMK AO2 SLP198 6//// T01560111 53014 PNO $=
201407241353 METAR KBFI 241353Z 17005KT 10SM -RA SCT027 OVC041 16/11 A3009 RMK AO2 RAB30 SLP190 T01560106 PNO $=
201407241253 METAR KBFI 241253Z 16005KT 10SM BKN045 OVC060 16/10 A3009 RMK AO2 SLP188 T01560100 PNO $=
201407241153 METAR KBFI 241153Z 17006KT 10SM BKN039 BKN050 16/10 A3008 RMK AO2 SLP184 6//// 7//// T01560100 10161 20144 51006 PNO $=
201407241053 METAR KBFI 241053Z 16007KT 10SM FEW037 BKN048 OVC055 16/10 A3007 RMK AO2 SLP182 T01560100 PNO $=
201407240953 METAR KBFI 240953Z 15007KT 10SM SCT045 BKN060 BKN085 15/11 A3006 RMK AO2 SLP180 T01500111 PNO $=
201407240853 METAR KBFI 240853Z 13007KT 10SM SCT065 OVC085 14/11 A3006 RMK AO2 SLP178 6//// T01440111 58003 PNO $=
201407240753 METAR KBFI 240753Z AUTO 14008KT 10SM BKN038 BKN048 OVC085 14/12 A3007 RMK AO2 RAE22 SLP181 T01440117 401890144 TSNO PNO $=
201407240653 METAR KBFI 240653Z AUTO 16007KT 10SM -RA FEW027 OVC080 16/11 A3007 RMK AO2 RAB50 SLP183 T01560111 TSNO PNO $=
201407240553 METAR KBFI 240553Z AUTO 16007KT 10SM BKN070 OVC090 16/11 A3007 RMK AO2 SLP181 6//// T01610106 10189 20156 50010 TSNO PNO $=
201407240453 METAR KBFI 240453Z 16008KT 10SM FEW037 BKN070 16/12 A3007 RMK AO2 SLP182 T01610117 PNO $=
201407240353 METAR KBFI 240353Z 20008KT 160V230 10SM SCT048 OVC075 17/11 A3006 RMK AO2 SLP177 T01720111 PNO $=
201407240253 METAR KBFI 240253Z 14008KT 10SM FEW019 SCT029 OVC055 17/13 A3004 RMK AO2 RAE03 SLP171 6//// T01720133 56004 PNO $=
201407240153 METAR KBFI 240153Z 14012KT 10SM -RA FEW012 SCT038 BKN050 17/13 A3004 RMK AO2 RAB30 SLP171 T01670133 PNO $=
201407240053 METAR KBFI 240053Z 17009KT 10SM FEW015 SCT021 BKN090 19/14 A3005 RMK AO2 SLP174 T01890139=
201407232353 METAR KBFI 232353Z 16007KT 10SM SCT020 BKN075 17/14 A3005 RMK AO2 RAE05 SLP174 P0000 6//// T01720139 10183 20167 50006=
201407232253 METAR KBFI 232253Z 16008KT 6SM -RA SCT020 OVC070 17/13 A3006 RMK AO2 SLP177 P0000 T01670133=
201407232153 METAR KBFI 232153Z 18008G15KT 7SM -RA FEW020 OVC080 17/14 A3005 RMK AO2 SLP175 P0000 T01670139=
201407232053 METAR KBFI 232053Z 16008KT 9SM -RA FEW030 OVC070 17/14 A3003 RMK AO2 SLP169 6//// T01670139 53012=
201407231953 METAR KBFI 231953Z VRB06KT 10SM -RA BKN030 OVC060 17/13 A3001 RMK AO2 SLP162 T01670133 PNO $=
201407231853 METAR KBFI 231853Z 16007KT 2SM -RA BR BKN006 OVC017 18/16 A3000 RMK AO2 SLP159 P0000 T01780156=
201407231846 SPECI KBFI 231846Z 14009KT 5SM -RA BKN009 BKN017 OVC025 18/16 A3000 RMK AO2 CIG 006V012 P0000=
201407231805 SPECI KBFI 231805Z 14006KT 6SM -RA BR FEW008 BKN025 OVC035 18/16 A2999 RMK AO2 P0000=
201407231753 METAR KBFI 231753Z COR 13004KT 4SM -RA BR SCT008 SCT026 OVC034 18/16 A2999 RMK AO2 SLP156 CIG LOWER SE P0000 6//// T01830161 10183 20156 58001=
201407231653 METAR KBFI 231653Z 16007KT 5SM -RA SCT005 BKN017 OVC033 18/15 A3000 RMK AO2 RAB1556 SLP158 CIG LOWER SE T01780150=
201407231553 METAR KBFI 231553Z 00000KT 10SM BKN007 OVC080 17/15 A3000 RMK AO2 RAE34 CIG 005V010 SLP157 T01720150 PNO $=
201407231453 METAR KBFI 231453Z 10006KT 8SM -RA FEW004 BKN070 OVC080 17/15 A2998 RMK AO2 SLP152 6//// T01720150 53004 PNO $=
201407231353 METAR KBFI 231353Z 00000KT 7SM -RA FEW014 BKN050 OVC070 17/14 A2998 RMK AO2 RAB16 SLP152 T01670139 PNO $=
201407231340 SPECI KBFI 231340Z VRB04KT 2SM +RA BR FEW014 BKN039 OVC055 17/14 A2998 RMK AO2 RAB16 PNO $=
201407231253 METAR KBFI 231253Z 00000KT 10SM BKN050 17/13 A2996 RMK AO2 SLP144 OCNL LTGCGIC SE T01670128=
201407231247 SPECI KBFI 231247Z 00000KT 10SM SCT050 17/13 A2996 RMK AO2 LTGCC SE=
201407231153 METAR KBFI 231153Z 00000KT 10SM BKN070 BKN090 OVC110 16/13 A2997 RMK AO2 SLP148 60000 T01560128 10194 20156 55010=
201407231053 METAR KBFI 231053Z 33003KT 10SM BKN100 OVC120 17/14 A2996 RMK AO2 RAE27 SLP145 P0000 T01670144=
201407230953 METAR KBFI 230953Z 00000KT 10SM -RA BKN110 18/15 A2998 RMK AO2 RAE09B44 SLP153 P0000 T01780150=
201407230853 METAR KBFI 230853Z 25003KT 10SM -RA FEW050 SCT090 BKN110 18/15 A3000 RMK AO2 SLP158 P0000 60000 T01780150 58006=
201407230753 METAR KBFI 230753Z 00000KT 10SM -RA FEW095 BKN110 19/14 A3001 RMK AO2 RAB23 SLP162 P0000 T01890139 402280150=
201407230653 METAR KBFI 230653Z 00000KT 10SM SCT120 19/13 A3001 RMK AO2 SLP163 T01890128=
201407230553 METAR KBFI 230553Z 00000KT 10SM CLR 19/13 A3002 RMK AO2 SLP164 T01940128 10228 20194 50003=
201407230453 METAR KBFI 230453Z 00000KT 10SM SCT065 SCT250 19/13 A3002 RMK AO2 SLP166 T01940128=
201407230353 METAR KBFI 230353Z 00000KT 10SM SCT065 21/13 A3001 RMK AO2 SLP162 T02060128=
201407230253 METAR KBFI 230253Z 21003KT 10SM SCT065 22/13 A3001 RMK AO2 SLP162 T02170128 56015=
201407230153 METAR KBFI 230153Z 00000KT 10SM BKN070 22/13 A3002 RMK AO2 SLP166 T02220133=
201407230053 METAR KBFI 230053Z 14003KT 10SM FEW030 BKN060 22/13 A3003 RMK AO2 SLP170 T02170128=
201407222353 METAR KBFI 222353Z 00000KT 10SM BKN070 OVC085 21/13 A3005 RMK AO2 SLP177 60000 T02110128 10217 20178 58012=
201407222253 METAR KBFI 222253Z 00000KT 10SM BKN042 OVC055 19/13 A3007 RMK AO2 SLP182 T01940128=
201407222153 METAR KBFI 222153Z 00000KT 10SM FEW029 BKN038 OVC045 19/13 A3009 RMK AO2 SLP187 T01890128=
201407222053 METAR KBFI 222053Z VRB03KT 10SM OVC043 18/12 A3009 RMK AO2 RAB10E23 SLP189 P0000 60000 T01830122 53009=
201407221953 METAR KBFI 221953Z VRB05KT 10SM BKN060 OVC080 19/11 A3008 RMK AO2 SLP185 T01890111=
201407221853 METAR KBFI 221853Z 00000KT 10SM OVC080 18/12 A3007 RMK AO2 SLP182 T01830117=
201407221753 METAR KBFI 221753Z 00000KT 10SM OVC080 17/12 A3006 RMK AO2 RAB1656E11 SLP179 P0000 60000 T01720122 10178 20150 51005=
201407221653 METAR KBFI 221653Z 24004KT 10SM SCT017 OVC080 18/12 A3006 RMK AO2 SLP178 T01780117=
201407221651 SPECI KBFI 221651Z 00000KT 10SM SCT017 OVC080 18/12 A3006 RMK AO2=
201407221627 SPECI KBFI 221627Z 16003KT 10SM BKN017 OVC085 18/12 A3005 RMK AO2=
201407221553 METAR KBFI 221553Z 05003KT 10SM FEW040 OVC090 17/12 A3005 RMK AO2 SLP175 T01720117=
201407221453 METAR KBFI 221453Z 00000KT 10SM BKN060 OVC100 17/12 A3004 RMK AO2 SLP173 T01670117 53012=
201407221353 METAR KBFI 221353Z 00000KT 10SM FEW060 BKN150 15/11 A3003 RMK AO2 SLP169 T01500111=
201407221253 METAR KBFI 221253Z 30003KT 10SM BKN110 15/11 A3002 RMK AO2 SLP164 T01500111=
201407221153 METAR KBFI 221153Z 31003KT 10SM BKN110 16/12 A3001 RMK AO2 SLP162 T01610117 10183 20161 55001=
201407221053 METAR KBFI 221053Z 00000KT 10SM BKN110 16/12 A3001 RMK AO2 SLP161 T01610117=
201407220953 METAR KBFI 220953Z 00000KT 10SM CLR 16/11 A3000 RMK AO2 SLP160 T01610111=
201407220853 METAR KBFI 220853Z 00000KT 10SM CLR 17/11 A3001 RMK AO2 SLP163 T01670111 51007=
201407220753 METAR KBFI 220753Z 00000KT 10SM CLR 17/11 A3001 RMK AO2 SLP163 T01720111 402500156=
201407220653 METAR KBFI 220653Z 30004KT 10SM CLR 17/11 A3000 RMK AO2 SLP159 T01720111=
201407220553 METAR KBFI 220553Z 30003KT 10SM CLR 18/11 A2999 RMK AO2 SLP156 T01830106 10250 20183 52008=
201407220453 METAR KBFI 220453Z 00000KT 10SM SCT200 21/09 A2999 RMK AO2 SLP155 T02110094=
201407220353 METAR KBFI 220353Z 24003KT 10SM CLR 22/09 A2997 RMK AO2 SLP149 T02220089=
201407220253 METAR KBFI 220253Z 21004KT 10SM FEW250 23/09 A2997 RMK AO2 SLP148 T02280089 56002=
201407220153 METAR KBFI 220153Z VRB03KT 10SM FEW040 24/08 A2997 RMK AO2 SLP148 T02390083=
201407220053 METAR KBFI 220053Z VRB04KT 10SM FEW040 24/08 A2997 RMK AO2 SLP147 T02440083=
201407212353 METAR KBFI 212353Z VRB06KT 10SM FEW040 SCT250 24/08 A2998 RMK AO2 SLP150 T02440078 10244 20178 58016=
201407212253 METAR KBFI 212253Z 27003KT 10SM FEW050 23/08 A3000 RMK AO2 SLP157 T02330083=
201407212153 METAR KBFI 212153Z 33004KT 10SM FEW040 SCT100 23/09 A3001 RMK AO2 SLP163 T02280089=
201407212053 METAR KBFI 212053Z 31005KT 10SM FEW043 23/09 A3002 RMK AO2 SLP167 T02280094 58004=
201407211953 METAR KBFI 211953Z VRB03KT 10SM SCT041 22/09 A3003 RMK AO2 SLP168 T02220094=
201407211853 METAR KBFI 211853Z 26004KT 10SM SCT037 20/10 A3003 RMK AO2 SLP170 T02000100=
201407211753 METAR KBFI 211753Z VRB03KT 10SM SCT034 19/10 A3004 RMK AO2 SLP171 T01940100 10200 20156 58001=
201407211653 METAR KBFI 211653Z 20004KT 10SM BKN035 18/11 A3004 RMK AO2 SLP173 T01780106=
201407211553 METAR KBFI 211553Z 23003KT 10SM BKN018 17/12 A3004 RMK AO2 SLP172 T01720117=
201407211453 METAR KBFI 211453Z 00000KT 10SM SCT016 BKN027 16/11 A3004 RMK AO2 SLP173 T01610111 51008=
201407211353 METAR KBFI 211353Z 00000KT 10SM SCT020 BKN040 16/11 A3004 RMK AO2 SLP173 T01610111=
201407211253 METAR KBFI 211253Z 13005KT 10SM FEW015 OVC040 16/09 A3003 RMK AO2 SLP168 T01610094=
201407211153 METAR KBFI 211153Z 00000KT 10SM OVC038 17/10 A3002 RMK AO2 SLP164 60000 T01670100 10167 20156 53008=
201407211053 METAR KBFI 211053Z 05003KT 10SM OVC036 17/10 A3000 RMK AO2 SLP160 T01670100=
201407210953 METAR KBFI 210953Z 00000KT 10SM OVC032 16/11 A3000 RMK AO2 RAE0855 SLP157 P0000 T01610106=
201407210853 METAR KBFI 210853Z 00000KT 10SM -RA OVC032 16/11 A2999 RMK AO2 RAB23 SLP156 P0000 60000 T01560106 51004=
201407210753 METAR KBFI 210753Z 08005KT 10SM OVC025 16/11 A2999 RMK AO2 SLP155 T01560106 402000156=
201407210653 METAR KBFI 210653Z 00000KT 10SM OVC023 16/11 A2999 RMK AO2 SLP153 T01610106=
201407210553 METAR KBFI 210553Z 00000KT 10SM FEW015 BKN025 OVC029 17/12 A2998 RMK AO2 SLP152 T01670117 10189 20167 51007=
201407210453 METAR KBFI 210453Z VRB03KT 10SM BKN023 OVC040 17/12 A2998 RMK AO2 SLP151 T01670117=
201407210353 METAR KBFI 210353Z 35004KT 10SM BKN015 OVC060 17/12 A2997 RMK AO2 SLP147 T01720122=
201407210253 METAR KBFI 210253Z 30005KT 10SM OVC075 18/13 A2996 RMK AO2 SLP144 T01780128 55000=
201407210153 METAR KBFI 210153Z 32006KT 10SM FEW030 OVC060 18/12 A2995 RMK AO2 SLP142 T01830122=
201407210053 METAR KBFI 210053Z 30005KT 10SM OVC055 18/12 A2995 RMK AO2 SLP141 T01830122=
201407202353 METAR KBFI 202353Z 31003KT 10SM FEW020 BKN036 OVC042 19/11 A2996 RMK AO2 SLP144 T01890111 10200 20172 58006=
201407202253 METAR KBFI 202253Z 00000KT 10SM OVC037 19/11 A2997 RMK AO2 SLP148 T01890106=
201407202153 METAR KBFI 202153Z 21005KT 10SM OVC039 19/10 A2997 RMK AO2 SLP149 T01890100=
201407202053 METAR KBFI 202053Z VRB04KT 10SM BKN040 OVC050 19/10 A2998 RMK AO2 SLP150 T01940100 55002=
201407201953 METAR KBFI 201953Z 17003KT 10SM SCT015 BKN032 OVC046 18/11 A2997 RMK AO2 SLP149 T01830106=
201407201900 SPECI KBFI 201900Z VRB05KT 10SM FEW015 BKN032 OVC046 19/12 A2997 RMK AO2=
201407201853 METAR KBFI 201853Z 00000KT 10SM FEW015 BKN020 OVC043 18/12 A2998 RMK AO2 SLP150 T01830117=
201407201753 METAR KBFI 201753Z 00000KT 10SM FEW015 BKN020 OVC043 18/11 A2998 RMK AO2 SLP152 60000 T01780111 10178 20156 51004=
201407201653 METAR KBFI 201653Z 06005KT 10SM FEW015 BKN020 OVC035 17/12 A2998 RMK AO2 SLP151 T01670117=
201407201553 METAR KBFI 201553Z 05007KT 10SM FEW015 BKN020 OVC035 17/11 A2998 RMK AO2 SLP151 T01670111=
201407201453 METAR KBFI 201453Z 05005KT 10SM BKN022 BKN029 OVC045 16/11 A2997 RMK AO2 RAB1355E05 SLP148 P0000 60000 T01610111 53007=
201407201353 METAR KBFI 201353Z 05005KT 10SM BKN020 OVC035 16/12 A2996 RMK AO2 SLP145 T01560117=
201407201253 METAR KBFI 201253Z 04006KT 10SM BKN018 OVC030 16/12 A2995 RMK AO2 SLP142 T01610122=
201407201153 METAR KBFI 201153Z VRB04KT 10SM OVC016 17/12 A2995 RMK AO2 SLP142 T01670122 10189 20167 52004=
201407201053 METAR KBFI 201053Z 00000KT 10SM BKN020 OVC026 17/13 A2995 RMK AO2 SLP140 T01720128=
201407200953 METAR KBFI 200953Z 00000KT 10SM BKN021 OVC028 18/13 A2994 RMK AO2 SLP139 T01780128=
201407200853 METAR KBFI 200853Z 00000KT 10SM OVC021 18/13 A2994 RMK AO2 SLP138 T01830128 50001=
201407200753 METAR KBFI 200753Z 19006KT 10SM OVC017 18/13 A2994 RMK AO2 SLP139 T01830133 402670167=
201407200653 METAR KBFI 200653Z 19006KT 10SM OVC017 19/14 A2994 RMK AO2 SLP139 T01890139=
201407200553 METAR KBFI 200553Z VRB05KT 10SM OVC017 19/14 A2994 RMK AO2 SLP137 T01940139 10233 20194 52001=
201407200453 METAR KBFI 200453Z 19005KT 10SM OVC021 19/14 A2994 RMK AO2 SLP138 T01940144=
201407200353 METAR KBFI 200353Z 19007KT 10SM FEW015 BKN023 BKN200 20/14 A2993 RMK AO2 SLP135 T02000144=
201407200342 SPECI KBFI 200342Z 00000KT 10SM BKN023 21/14 A2993 RMK AO2=
201407200253 METAR KBFI 200253Z 23009G15KT 10SM CLR 21/14 A2993 RMK AO2 SLP136 T02110144 56008=
201407200153 METAR KBFI 200153Z 24011G17KT 10SM FEW030 SCT070 BKN200 22/15 A2994 RMK AO2 SLP139 T02170150=
201407200053 METAR KBFI 200053Z 23008G16KT 10SM FEW030 SCT070 BKN200 23/16 A2994 RMK AO2 SLP138 T02280156=
201407192353 METAR KBFI 192353Z 25010G19KT 10SM FEW025 SCT050 BKN200 23/16 A2996 RMK AO2 SLP144 T02330156 10267 20200 57003=
201407192253 METAR KBFI 192253Z COR 23012G18KT 10SM SCT038 BKN230 24/16 A2996 RMK AO2 SLP145 T02390156=
201407192153 METAR KBFI 192153Z 20011G19KT 10SM SCT026 BKN200 27/16 A2996 RMK AO2 SLP146 T02670156=
201407192053 METAR KBFI 192053Z 18013G19KT 10SM SCT035 SCT200 26/16 A2997 RMK AO2 SLP147 T02610156 56021=
201407191953 METAR KBFI 191953Z 17013G18KT 10SM BKN027 26/16 A2998 RMK AO2 SLP152 T02560156=
201407191853 METAR KBFI 191853Z 18012G16KT 10SM OVC023 22/15 A3001 RMK AO2 SLP160 T02220150=
201407191753 METAR KBFI 191753Z 16008KT 10SM OVC015 20/14 A3003 RMK AO2 SLP168 T02000144 10200 20167 58010=
201407191653 METAR KBFI 191653Z 17011G16KT 10SM OVC015 19/14 A3004 RMK AO2 SLP172 T01940139=
201407191553 METAR KBFI 191553Z 17008KT 10SM BKN013 19/14 A3005 RMK AO2 SLP176 T01890139=
201407191516 SPECI KBFI 191516Z 17011KT 10SM BKN010 18/14 A3005 RMK AO2=
201407191453 METAR KBFI 191453Z 17009KT 10SM OVC009 18/14 A3006 RMK AO2 SLP179 T01780144 56005=
201407191353 METAR KBFI 191353Z COR 16007KT 10SM OVC009 17/14 A3006 RMK AO2 SLP179 T01720139=
201407191253 METAR KBFI 191253Z COR 15009KT 5SM OVC009 17/14 A3007 RMK AO2 SLP181 T01670139=
201407191153 METAR KBFI 191153Z AUTO 16007KT 10SM OVC012 17/13 A3008 RMK AO2 SLP184 T01720133 10217 20172 53002 TSNO=
201407191053 METAR KBFI 191053Z 16007KT 10SM OVC012 17/13 A3006 RMK AO2 SLP177 T01720133=
201407190953 METAR KBFI 190953Z 15006KT 10SM OVC012 17/13 A3007 RMK AO2 SLP182 T01720128=
201407190922 SPECI KBFI 190922Z 19006KT 10SM BKN012 BKN065 17/13 A3007 RMK AO2=
201407190853 METAR KBFI 190853Z 20004KT 10SM SCT075 18/13 A3007 RMK AO2 SLP182 T01780133 53006=
201407190753 METAR KBFI 190753Z 00000KT 10SM BKN075 19/13 A3005 RMK AO2 SLP177 T01890133 402560139=
201407190653 METAR KBFI 190653Z 24005KT 10SM BKN075 20/14 A3006 RMK AO2 SLP177 T02000139=
201407190553 METAR KBFI 190553Z 24004KT 10SM BKN080 22/13 A3005 RMK AO2 SLP176 T02170133 10256 20206 50001=
201407190453 METAR KBFI 190453Z 00000KT 10SM BKN075 23/13 A3005 RMK AO2 SLP176 T02280128=
201407190353 METAR KBFI 190353Z 23004KT 10SM BKN085 24/12 A3005 RMK AO2 SLP175 T02390117=
201407190253 METAR KBFI 190253Z 16003KT 10SM SCT200 24/11 A3005 RMK AO2 SLP175 T02390111 56007=
201407190153 METAR KBFI 190153Z 00000KT 10SM BKN200 24/11 A3005 RMK AO2 SLP175 T02440111=
201407190053 METAR KBFI 190053Z VRB03KT 10SM BKN200 24/12 A3006 RMK AO2 SLP180 T02390122=
201407182353 METAR KBFI 182353Z VRB03KT 10SM BKN250 24/12 A3007 RMK AO2 SLP182 T02440122 10244 20183 58011=
201407182253 METAR KBFI 182253Z 25005KT 10SM CLR 24/12 A3008 RMK AO2 SLP185 T02440117=
201407182153 METAR KBFI 182153Z VRB05KT 10SM BKN200 22/12 A3009 RMK AO2 SLP190 T02220117=
201407182053 METAR KBFI 182053Z VRB05KT 10SM BKN200 22/11 A3010 RMK AO2 SLP193 T02220106 55000=
201407181953 METAR KBFI 181953Z 22008KT 10SM SCT250 21/11 A3009 RMK AO2 SLP190 T02060106=
201407181853 METAR KBFI 181853Z 20006KT 10SM SCT250 21/11 A3009 RMK AO2 SLP189 T02060111=
201407181753 METAR KBFI 181753Z 18005KT 10SM FEW021 BKN250 19/11 A3010 RMK AO2 SLP193 T01890106 10194 20139 51002=
201407181653 METAR KBFI 181653Z 17008KT 10SM SCT015 BKN250 18/11 A3010 RMK AO2 SLP193 T01830106=
201407181553 METAR KBFI 181553Z 22007KT 10SM BKN016 16/11 A3011 RMK AO2 SLP194 T01610106=
201407181453 METAR KBFI 181453Z 17007KT 10SM BKN016 16/11 A3010 RMK AO2 SLP191 T01560106 53010=
201407181445 SPECI KBFI 181445Z 14007KT 10SM BKN014 16/10 A3009 RMK AO2=
201407181353 METAR KBFI 181353Z 18007KT 10SM FEW050 SCT220 14/10 A3008 RMK AO2 SLP185 T01440100=
201407181253 METAR KBFI 181253Z 17003KT 10SM SCT050 SCT150 14/10 A3008 RMK AO2 SLP186 T01390100=
201407181153 METAR KBFI 181153Z 18005KT 10SM CLR 14/11 A3007 RMK AO2 SLP180 T01440106 10189 20139 51008=
201407181053 METAR KBFI 181053Z 16005KT 10SM CLR 14/11 A3006 RMK AO2 SLP178 T01440106=
201407180953 METAR KBFI 180953Z 21004KT 10SM CLR 15/11 A3005 RMK AO2 SLP175 T01500106=
201407180853 METAR KBFI 180853Z VRB05KT 10SM CLR 16/11 A3004 RMK AO2 SLP172 T01560106 51011=
201407180753 METAR KBFI 180753Z 18007KT 10SM SCT200 17/11 A3003 RMK AO2 SLP170 T01670111 402720150=
201407180653 METAR KBFI 180653Z 20005KT 10SM SCT200 17/11 A3003 RMK AO2 SLP167 T01670111=
201407180553 METAR KBFI 180553Z 19005KT 10SM SCT200 19/12 A3001 RMK AO2 SLP162 T01890117 10272 20189 53016=
201407180453 METAR KBFI 180453Z 18006KT 10SM SCT250 21/12 A3000 RMK AO2 SLP158 T02060117=
201407180353 METAR KBFI 180353Z VRB04KT 10SM SCT250 23/12 A2997 RMK AO2 SLP147 T02280117=
201407180253 METAR KBFI 180253Z 22005KT 10SM CLR 25/12 A2996 RMK AO2 SLP146 T02500122 55003=
201407180153 METAR KBFI 180153Z VRB05KT 10SM FEW250 27/11 A2995 RMK AO2 SLP142 T02670111=
201407180053 METAR KBFI 180053Z 25006KT 10SM FEW250 27/11 A2996 RMK AO2 SLP146 T02720111=
201407172353 METAR KBFI 172353Z VRB03KT 10SM FEW250 27/12 A2997 RMK AO2 SLP149 T02670117 10267 20167 58015=
201407172253 METAR KBFI 172253Z 00000KT 10SM SCT250 25/12 A3000 RMK AO2 SLP158 T02500117=
201407172153 METAR KBFI 172153Z 20005KT 10SM FEW030 24/12 A3001 RMK AO2 SLP160 T02390122=
201407172053 METAR KBFI 172053Z 24007KT 10SM FEW028 23/12 A3001 RMK AO2 SLP163 T02280117 58009=
201407171953 METAR KBFI 171953Z 22006KT 10SM SCT028 22/12 A3003 RMK AO2 SLP168 T02170117=
201407171853 METAR KBFI 171853Z 18006KT 10SM OVC024 19/12 A3004 RMK AO2 SLP171 T01940117=
201407171753 METAR KBFI 171753Z 17006KT 10SM OVC022 17/12 A3004 RMK AO2 SLP172 T01720117 10178 20150 50003=
201407171653 METAR KBFI 171653Z 19008G18KT 100V210 10SM OVC018 17/11 A3004 RMK AO2 SLP173 T01720111=
201407171553 METAR KBFI 171553Z 17007KT 10SM OVC018 17/11 A3004 RMK AO2 SLP172 T01670111=
201407171453 METAR KBFI 171453Z 16008KT 10SM OVC016 16/11 A3003 RMK AO2 SLP169 T01610111 53010=
201407171438 SPECI KBFI 171438Z 18005G15KT 10SM OVC016 16/11 A3003 RMK AO2=
201407171353 METAR KBFI 171353Z 18008G16KT 10SM OVC014 16/11 A3002 RMK AO2 SLP164 T01560111=
201407171323 SPECI KBFI 171323Z 17009KT 10SM OVC011 16/11 A3002 RMK AO2=
201407171253 METAR KBFI 171253Z 19007KT 10SM OVC009 16/11 A3001 RMK AO2 SLP162 T01560111=
201407171153 METAR KBFI 171153Z 17009KT 10SM OVC012 16/12 A3000 RMK AO2 SLP159 T01560117 10228 20156 51012=
201407171053 METAR KBFI 171053Z 19006KT 10SM OVC012 16/12 A2999 RMK AO2 SLP156 T01560117=
201407170953 METAR KBFI 170953Z 20007KT 10SM OVC012 16/12 A2998 RMK AO2 SLP152 T01560117=
201407170853 METAR KBFI 170853Z AUTO 16008KT 10SM CLR 17/12 A2997 RMK AO2 SLP147 T01670122 51015 TSNO=
201407170753 METAR KBFI 170753Z AUTO 19006KT 10SM CLR 18/13 A2996 RMK AO2 SLP146 T01780128 403220150 TSNO=
201407170653 METAR KBFI 170653Z AUTO 20007KT 10SM CLR 19/13 A2994 RMK AO2 SLP139 T01940133 TSNO=
201407170553 METAR KBFI 170553Z 25003KT 10SM CLR 23/14 A2992 RMK AO2 SLP132 T02280139 10322 20228 53010=
201407170453 METAR KBFI 170453Z 30004KT 10SM CLR 25/12 A2991 RMK AO2 SLP128 T02500117=
201407170353 METAR KBFI 170353Z VRB04KT 10SM CLR 26/12 A2990 RMK AO2 SLP124 T02610122=
201407170253 METAR KBFI 170253Z 31004KT 10SM CLR 30/12 A2989 RMK AO2 SLP123 T03000117 56008=
201407170153 METAR KBFI 170153Z 29005KT 10SM CLR 31/12 A2990 RMK AO2 SLP124 T03060117=
201407170053 METAR KBFI 170053Z VRB04KT 10SM CLR 31/12 A2990 RMK AO2 SLP126 T03110117=
201407162353 METAR KBFI 162353Z 28005KT 10SM CLR 32/11 A2992 RMK AO2 SLP131 T03170106 10322 20228 58020=
201407162253 METAR KBFI 162253Z 33005KT 10SM CLR 31/12 A2994 RMK AO2 SLP138 T03110122=
201407162153 METAR KBFI 162153Z 30007KT 10SM CLR 29/13 A2996 RMK AO2 SLP145 T02940128=
201407162053 METAR KBFI 162053Z 28007KT 10SM CLR 27/13 A2998 RMK AO2 SLP150 T02720133 56011=
201407161953 METAR KBFI 161953Z 30005KT 10SM CLR 27/13 A2998 RMK AO2 SLP153 T02720133=
201407161853 METAR KBFI 161853Z 29009KT 10SM CLR 27/13 A3000 RMK AO2 SLP158 T02670133=
201407161753 METAR KBFI 161753Z VRB04KT 10SM CLR 23/12 A3001 RMK AO2 SLP162 T02330122 10244 20150 58002=
201407161653 METAR KBFI 161653Z 34004KT 10SM CLR 23/12 A3002 RMK AO2 SLP164 T02280122=
201407161553 METAR KBFI 161553Z 33004KT 10SM CLR 21/12 A3002 RMK AO2 SLP166 T02060122=
201407161453 METAR KBFI 161453Z 32003KT 10SM CLR 19/12 A3002 RMK AO2 SLP164 T01890122 51005=
201407161353 METAR KBFI 161353Z 31003KT 10SM CLR 16/12 A3002 RMK AO2 SLP164 T01610122=
201407161253 METAR KBFI 161253Z 00000KT 10SM CLR 17/12 A3000 RMK AO2 SLP160 T01670117=
201407161153 METAR KBFI 161153Z 31003KT 10SM CLR 16/12 A3000 RMK AO2 SLP158 T01610122 10217 20156 53005=
201407161053 METAR KBFI 161053Z 33004KT 10SM CLR 17/12 A2999 RMK AO2 SLP155 T01720122=
201407160953 METAR KBFI 160953Z 30003KT 10SM CLR 18/13 A2998 RMK AO2 SLP153 T01780128=
201407160853 METAR KBFI 160853Z 00000KT 10SM CLR 19/13 A2998 RMK AO2 SLP153 T01940128 58000=
201407160753 METAR KBFI 160753Z 30003KT 10SM CLR 20/13 A2998 RMK AO2 SLP153 T02000133 403110156=
201407160653 METAR KBFI 160653Z 34003KT 10SM CLR 21/13 A2999 RMK AO2 SLP154 T02110133=
201407160553 METAR KBFI 160553Z 30004KT 10SM CLR 22/13 A2998 RMK AO2 SLP153 T02170128 10311 20200 53004=
201407160453 METAR KBFI 160453Z 31004KT 10SM CLR 24/13 A2998 RMK AO2 SLP152 T02390128=
201407160353 METAR KBFI 160353Z VRB04KT 10SM CLR 26/12 A2997 RMK AO2 SLP149 T02560122=
201407160253 METAR KBFI 160253Z 31004KT 10SM CLR 28/12 A2997 RMK AO2 SLP149 T02830117 56011=
201407160153 METAR KBFI 160153Z 30005KT 10SM CLR 28/12 A2998 RMK AO2 SLP150 T02830122=
201407160053 METAR KBFI 160053Z 31007KT 10SM CLR 30/13 A2999 RMK AO2 SLP155 T03000128=
201407152353 METAR KBFI 152353Z VRB04KT 10SM CLR 31/13 A3000 RMK AO2 SLP160 T03060133 10306 20217 58017=
201407152253 METAR KBFI 152253Z 35007KT 10SM CLR 29/12 A3002 RMK AO2 SLP166 T02940117=
201407152153 METAR KBFI 152153Z VRB04KT 10SM CLR 28/14 A3004 RMK AO2 SLP171 T02830139=
201407152053 METAR KBFI 152053Z VRB04KT 10SM CLR 27/14 A3005 RMK AO2 SLP176 T02670144 56015=
201407151953 METAR KBFI 151953Z VRB05KT 10SM CLR 26/14 A3007 RMK AO2 SLP182 T02560144=
201407151853 METAR KBFI 151853Z 34003KT 10SM CLR 23/14 A3008 RMK AO2 SLP186 T02330139=
201407151800 SPECI KBFI 151800Z VRB04KT 10SM CLR 22/14 A3010 RMK AO2=
201407151753 METAR KBFI 151753Z 00000KT 10SM FEW008 BKN012 22/14 A3010 RMK AO2 SLP191 T02170139 10217 20156 58007=
201407151653 METAR KBFI 151653Z 00000KT 10SM FEW008 BKN012 19/14 A3011 RMK AO2 SLP197 T01890139=
201407151646 SPECI KBFI 151646Z 22003KT 10SM FEW008 BKN012 19/14 A3011 RMK AO2=
201407151553 METAR KBFI 151553Z 31004KT 10SM BKN008 17/13 A3012 RMK AO2 SLP199 T01720133=
201407151453 METAR KBFI 151453Z 27003KT 10SM BKN008 17/13 A3012 RMK AO2 SLP198 T01720133 53005=
201407151444 SPECI KBFI 151444Z 00000KT 10SM BKN008 17/13 A3011 RMK AO2=
201407151353 METAR KBFI 151353Z 00000KT 10SM SCT008 BKN022 16/13 A3011 RMK AO2 SLP197 T01610128=
201407151253 METAR KBFI 151253Z 00000KT 10SM SCT008 BKN022 16/13 A3011 RMK AO2 SLP194 PRFG W T01560128=
201407151230 SPECI KBFI 151230Z 00000KT 10SM SCT008 BKN022 16/13 A3011 RMK AO2=
201407151153 METAR KBFI 151153Z 00000KT 10SM CLR 17/13 A3010 RMK AO2 SLP194 T01670133 10233 20167 53006=
201407151053 METAR KBFI 151053Z 00000KT 10SM CLR 18/14 A3009 RMK AO2 SLP190 T01780139=
201407150953 METAR KBFI 150953Z 00000KT 10SM CLR 18/14 A3010 RMK AO2 SLP191 T01830144=
201407150853 METAR KBFI 150853Z 00000KT 10SM CLR 19/14 A3009 RMK AO2 SLP188 T01940144 51007=
201407150753 METAR KBFI 150753Z 00000KT 10SM CLR 21/15 A3008 RMK AO2 SLP186 T02060150 403060167=
201407150653 METAR KBFI 150653Z 00000KT 10SM CLR 23/14 A3008 RMK AO2 SLP186 T02280144=
201407150553 METAR KBFI 150553Z 00000KT 10SM CLR 23/15 A3007 RMK AO2 SLP181 T02330150 10306 20222 50006=
201407150453 METAR KBFI 150453Z 30003KT 10SM CLR 24/15 A3007 RMK AO2 SLP182 T02440150=
201407150353 METAR KBFI 150353Z 29005KT 10SM CLR 26/15 A3005 RMK AO2 SLP176 T02560150=
201407150253 METAR KBFI 150253Z 24005KT 10SM CLR 27/16 A3005 RMK AO2 SLP175 T02720156 55003=
201407150153 METAR KBFI 150153Z 24005KT 10SM CLR 29/14 A3004 RMK AO2 SLP173 T02940144=
201407150053 METAR KBFI 150053Z VRB04KT 10SM CLR 30/13 A3004 RMK AO2 SLP174 T03000133=
201407142353 METAR KBFI 142353Z 35008KT 10SM CLR 29/12 A3006 RMK AO2 SLP178 T02940122 10294 20194 56017=
201407142253 METAR KBFI 142253Z 33006KT 10SM CLR 28/14 A3007 RMK AO2 SLP183 T02830139=
201407142153 METAR KBFI 142153Z VRB04KT 10SM CLR 27/15 A3009 RMK AO2 SLP189 T02670150=
201407142053 METAR KBFI 142053Z 29007KT 10SM CLR 24/14 A3011 RMK AO2 SLP195 T02440144 58007=
201407141953 METAR KBFI 141953Z VRB04KT 10SM CLR 24/14 A3012 RMK AO2 SLP198 T02390144=
201407141853 METAR KBFI 141853Z VRB04KT 10SM FEW015 21/14 A3012 RMK AO2 SLP200 T02110139=
201407141753 METAR KBFI 141753Z 24006KT 10SM FEW014 20/13 A3013 RMK AO2 SLP202 T02000133 10200 20167 58002=
201407141653 METAR KBFI 141653Z 23008KT 10SM SCT015 19/13 A3013 RMK AO2 SLP203 T01940133=
201407141631 SPECI KBFI 141631Z 17008KT 10SM SCT015 19/13 A3014 RMK AO2=
201407141553 METAR KBFI 141553Z 20007KT 10SM BKN013 18/13 A3014 RMK AO2 SLP205 T01780133=
201407141453 METAR KBFI 141453Z 17008KT 10SM BKN013 18/13 A3013 RMK AO2 SLP204 T01830133 51009=
201407141353 METAR KBFI 141353Z 16007KT 10SM CLR 18/13 A3012 RMK AO2 SLP201 T01780133=
201407141253 METAR KBFI 141253Z 23004KT 10SM SCT130 17/13 A3012 RMK AO2 SLP199 T01720133=
201407141153 METAR KBFI 141153Z 18004KT 10SM SCT100 19/13 A3011 RMK AO2 SLP194 T01890133 10250 20183 53001=
201407141053 METAR KBFI 141053Z COR 00000KT 10SM SCT100 19/13 A3011 RMK AO2 SLP195 T01890133=
201407140953 METAR KBFI 140953Z 16005KT 10SM SCT100 19/13 A3009 RMK AO2 SLP188 T01940133=
201407140902 SPECI KBFI 140902Z 19005KT 10SM CLR 18/13 A3010 RMK AO2=
201407140853 METAR KBFI 140853Z 22005KT 10SM SCT120 19/13 A3010 RMK AO2 SLP193 T01940128 51016=
201407140753 METAR KBFI 140753Z 16009KT 10SM BKN110 21/13 A3009 RMK AO2 SLP189 T02110133 403000178=
201407140746 SPECI KBFI 140746Z 14014KT 10SM CLR 21/13 A3009 RMK AO2=
201407140653 METAR KBFI 140653Z 16005KT 10SM BKN110 23/16 A3008 RMK AO2 SLP184 OCNL LTGCG VC T02280156=
201407140636 SPECI KBFI 140636Z VRB03KT 10SM BKN110 24/16 A3007 RMK AO2 OCNL LTGCG VC=
201407140553 METAR KBFI 140553Z 00000KT 10SM SCT080 BKN110 25/16 A3005 RMK AO2 SLP176 60000 T02500156 10300 20250 53007=
201407140453 METAR KBFI 140453Z 00000KT 10SM SCT080 BKN110 25/14 A3003 RMK AO2 RAE0357 SLP169 P0000 T02500139=
201407140353 METAR KBFI 140353Z COR 00000KT 10SM -RA SCT055 BKN080 OVC110 28/14 A3001 RMK AO2 RAB46 ONCL LTGCG DSNT W SLP162 P0000 T02780144=
201407140253 METAR KBFI 140253Z 00000KT 10SM OVC200 29/13 A3003 RMK AO2 SLP169 T02890128 53002=
201407140153 METAR KBFI 140153Z 29003KT 10SM CLR 29/13 A3002 RMK AO2 SLP164 T02890133=
201407140053 METAR KBFI 140053Z 30004KT 10SM SCT090 OVC200 29/13 A3003 RMK AO2 SLP169 T02890128=
201407132353 METAR KBFI 132353Z VRB03KT 10SM BKN120 OVC200 29/13 A3003 RMK AO2 SLP167 T02940133 10300 20228 58005=
201407132253 METAR KBFI 132253Z VRB05KT 10SM FEW080 BKN220 29/14 A3003 RMK AO2 SLP169 T02890139=
201407132153 METAR KBFI 132153Z 31006KT 10SM SCT080 BKN200 29/13 A3004 RMK AO2 SLP171 T02890128=
201407132053 METAR KBFI 132053Z VRB05KT 10SM FEW100 BKN210 29/13 A3004 RMK AO2 SLP172 T02890128 58014=
201407131953 METAR KBFI 131953Z 30006KT 10SM BKN200 27/12 A3006 RMK AO2 SLP178 T02670117=
201407131853 METAR KBFI 131853Z VRB04KT 10SM CLR 25/11 A3008 RMK AO2 SLP186 T02500111=
201407131753 METAR KBFI 131753Z COR 30007KT 270V330 10SM SCT200 23/12 A3008 RMK AO2 SLP186 T02280117 10233 20178 58008=
201407131653 METAR KBFI 131653Z 34006KT 10SM FEW210 22/12 A3010 RMK AO2 SLP192 T02220122=
201407131553 METAR KBFI 131553Z COR 32004KT 10SM FEW200 21/12 A3011 RMK AO2 SLP195 T02110122=
201407131453 METAR KBFI 131453Z 30003KT 10SM CLR 20/12 A3011 RMK AO2 SLP194 T02000122 50004=
201407131353 METAR KBFI 131353Z VRB03KT 10SM CLR 18/12 A3011 RMK AO2 SLP195 T01830122=
201407131253 METAR KBFI 131253Z 32004KT 10SM CLR 18/12 A3010 RMK AO2 SLP193 T01830117=
201407131153 METAR KBFI 131153Z 00000KT 10SM CLR 19/12 A3010 RMK AO2 SLP191 T01890117 10250 20189 53005=
201407131053 METAR KBFI 131053Z 00000KT 10SM CLR 19/11 A3009 RMK AO2 SLP187 T01940111=
201407130953 METAR KBFI 130953Z 00000KT 10SM CLR 21/11 A3008 RMK AO2 SLP186 T02060111=
201407130853 METAR KBFI 130853Z 27003KT 10SM CLR 21/12 A3008 RMK AO2 SLP185 T02110117 50004=
201407130753 METAR KBFI 130753Z 00000KT 10SM CLR 22/12 A3008 RMK AO2 SLP186 T02220117 403220167=
201407130653 METAR KBFI 130653Z 00000KT 10SM CLR 24/12 A3008 RMK AO2 SLP185 T02390122=
201407130553 METAR KBFI 130553Z 33003KT 10SM CLR 25/12 A3007 RMK AO2 SLP181 T02500117 10322 20244 53009=
201407130453 METAR KBFI 130453Z 31003KT 10SM CLR 25/11 A3006 RMK AO2 SLP178 T02500106=
201407130353 METAR KBFI 130353Z 32006KT 10SM CLR 26/09 A3004 RMK AO2 SLP174 T02560094=
201407130253 METAR KBFI 130253Z 30006KT 10SM FEW100 28/11 A3004 RMK AO2 SLP172 T02780111 55002=
201407130153 METAR KBFI 130153Z 31007KT 10SM FEW100 31/12 A3003 RMK AO2 SLP170 T03060122=
201407130053 METAR KBFI 130053Z 30008KT 10SM FEW120 32/12 A3004 RMK AO2 SLP171 T03170117=
201407122353 METAR KBFI 122353Z 33006KT 10SM FEW120 32/12 A3004 RMK AO2 SLP174 T03170122 10322 20206 56012=
201407122253 METAR KBFI 122253Z AUTO VRB04KT 10SM FEW150 32/12 A3005 RMK AO2 SLP177 T03220122 TSNO=
201407122153 METAR KBFI 122153Z 29006KT 10SM FEW130 31/12 A3007 RMK AO2 SLP182 T03110117=
201407122053 METAR KBFI 122053Z 32004KT 10SM FEW200 29/13 A3008 RMK AO2 SLP186 T02940128 58004=
201407121953 METAR KBFI 121953Z VRB05KT 10SM FEW220 28/14 A3009 RMK AO2 SLP188 T02830139=
201407121853 METAR KBFI 121853Z VRB05KT 10SM FEW140 27/13 A3009 RMK AO2 SLP189 T02720133=
201407121753 METAR KBFI 121753Z VRB04KT 10SM FEW140 SCT220 26/13 A3009 RMK AO2 SLP189 T02560133 10256 20167 51006=
201407121653 METAR KBFI 121653Z VRB03KT 10SM FEW220 24/13 A3009 RMK AO2 SLP189 T02390133=
201407121553 METAR KBFI 121553Z 32003KT 10SM FEW130 21/13 A3008 RMK AO2 SLP186 T02060133=
201407121453 METAR KBFI 121453Z 00000KT 10SM FEW140 SCT220 21/13 A3007 RMK AO2 SLP184 T02110133 53016=
201407121353 METAR KBFI 121353Z COR 32003KT 10SM FEW140 BKN220 18/13 A3006 RMK AO2 SLP178 T01780128=
201407121253 METAR KBFI 121253Z 00000KT 10SM CLR 19/13 A3004 RMK AO2 SLP173 T01940128=
201407121153 METAR KBFI 121153Z 00000KT 10SM SCT200 19/13 A3003 RMK AO2 SLP168 T01940128 10244 20194 53007=
201407121053 METAR KBFI 121053Z 00000KT 10SM CLR 21/13 A3001 RMK AO2 SLP163 T02060133=
201407120953 METAR KBFI 120953Z 00000KT 10SM CLR 22/13 A3001 RMK AO2 SLP163 T02170133=
201407120853 METAR KBFI 120853Z 00000KT 10SM CLR 22/13 A3001 RMK AO2 SLP161 T02220128 51007=
201407120753 METAR KBFI 120753Z 00000KT 10SM SCT250 23/12 A3000 RMK AO2 SLP159 T02330122 403110156=
201407120653 METAR KBFI 120653Z 00000KT 10SM SCT250 23/13 A3000 RMK AO2 SLP159 T02330128=
201407120553 METAR KBFI 120553Z 31004KT 10SM SCT250 24/12 A2999 RMK AO2 SLP154 T02440122 10311 20244 53013=
201407120453 METAR KBFI 120453Z 31003KT 10SM CLR 27/11 A2998 RMK AO2 SLP151 T02670111=
201407120353 METAR KBFI 120353Z 30003KT 10SM SCT250 28/11 A2996 RMK AO2 SLP144 T02780106=
201407120253 METAR KBFI 120253Z 30005KT 10SM FEW250 30/10 A2995 RMK AO2 SLP141 T03000100 53005=
201407120153 METAR KBFI 120153Z 00000KT 10SM FEW250 31/10 A2993 RMK AO2 SLP136 T03110100=
201407120053 METAR KBFI 120053Z VRB05KT 10SM SCT250 31/11 A2993 RMK AO2 SLP136 T03110106=
201407112353 METAR KBFI 112353Z AUTO VRB05KT 10SM SCT250 30/12 A2993 RMK AO2 SLP136 T03000117 10306 20211 58005=
201407112253 METAR KBFI 112253Z 31006KT 10SM CLR 30/12 A2994 RMK AO2 SLP139 T03000117=
201407112153 METAR KBFI 112153Z 31007KT 10SM FEW200 29/11 A2995 RMK AO2 SLP140 T02940111=
201407112053 METAR KBFI 112053Z VRB05G14KT 10SM CLR 29/12 A2995 RMK AO2 SLP141 T02890122 58004=
201407111953 METAR KBFI 111953Z 32009G14KT 10SM CLR 28/11 A2995 RMK AO2 SLP142 T02780111=
201407111853 METAR KBFI 111853Z 30007KT 10SM CLR 24/12 A2996 RMK AO2 SLP144 T02390117=
201407111753 METAR KBFI 111753Z VRB04KT 10SM CLR 20/12 A2996 RMK AO2 SLP145 T02000122 10239 20156 55001=
201407111653 METAR KBFI 111653Z 30004KT 10SM CLR 21/12 A2996 RMK AO2 SLP145 T02110122=
201407111553 METAR KBFI 111553Z VRB03KT 10SM CLR 22/12 A2996 RMK AO2 SLP146 T02220117=
201407111453 METAR KBFI 111453Z 07004KT 10SM CLR 21/12 A2996 RMK AO2 SLP147 T02060122 51006=
201407111353 METAR KBFI 111353Z 00000KT 10SM CLR 18/13 A2996 RMK AO2 SLP146 T01830128=
201407111253 METAR KBFI 111253Z 00000KT 10SM CLR 17/12 A2995 RMK AO2 SLP143 T01720122=
201407111153 METAR KBFI 111153Z 00000KT 10SM CLR 16/12 A2995 RMK AO2 SLP140 T01560122 10222 20156 53009=
201407111053 METAR KBFI 111053Z 00000KT 10SM CLR 18/12 A2993 RMK AO2 SLP136 T01830122=
201407110953 METAR KBFI 110953Z 33004KT 10SM CLR 19/12 A2993 RMK AO2 SLP134 T01890122=
201407110853 METAR KBFI 110853Z 00000KT 10SM CLR 20/11 A2992 RMK AO2 SLP131 T02000106 51004=
201407110753 METAR KBFI 110753Z 00000KT 10SM CLR 21/11 A2992 RMK AO2 SLP130 T02060111 402890139=
201407110653 METAR KBFI 110653Z 00000KT 10SM CLR 21/11 A2991 RMK AO2 SLP129 T02060111=
201407110553 METAR KBFI 110553Z 00000KT 10SM CLR 22/11 A2991 RMK AO2 SLP127 T02220111 10289 20206 51010=
201407110453 METAR KBFI 110453Z 29003KT 10SM CLR 24/11 A2990 RMK AO2 SLP125 T02390106=
201407110353 METAR KBFI 110353Z 00000KT 10SM CLR 27/08 A2989 RMK AO2 SLP120 T02670083=
201407110253 METAR KBFI 110253Z VRB05KT 10SM CLR 28/07 A2988 RMK AO2 SLP118 T02780072 55003=
201407110153 METAR KBFI 110153Z 31007KT 10SM CLR 28/09 A2988 RMK AO2 SLP116 T02830089=
201407110053 METAR KBFI 110053Z 29006KT 10SM CLR 29/09 A2988 RMK AO2 SLP116 T02890089=
201407102353 METAR KBFI 102353Z 29005KT 10SM CLR 29/08 A2989 RMK AO2 SLP120 T02890083 10289 20211 57012=
201407102253 METAR KBFI 102253Z 31007KT 10SM CLR 28/09 A2990 RMK AO2 SLP123 T02780094=
201407102153 METAR KBFI 102153Z 32008KT 10SM CLR 27/11 A2991 RMK AO2 SLP129 T02720106=
201407102053 METAR KBFI 102053Z 35007KT 10SM CLR 26/11 A2992 RMK AO2 SLP132 T02610106 58014=
201407101953 METAR KBFI 101953Z VRB05KT 10SM CLR 25/12 A2994 RMK AO2 SLP138 T02500122=
201407101853 METAR KBFI 101853Z 32005KT 10SM CLR 23/11 A2995 RMK AO2 SLP143 T02280111=
201407101753 METAR KBFI 101753Z AUTO 30005KT 10SM CLR 22/12 A2996 RMK AO2 SLP146 T02170122 10217 20139 57006=
201407101653 METAR KBFI 101653Z 24003KT 10SM CLR 19/13 A2997 RMK AO2 SLP148 T01940128=
201407101553 METAR KBFI 101553Z VRB03KT 10SM CLR 18/13 A2998 RMK AO2 SLP150 T01830128=
201407101453 METAR KBFI 101453Z 00000KT 10SM CLR 17/12 A2998 RMK AO2 SLP152 T01670122 51005=
201407101353 METAR KBFI 101353Z 00000KT 10SM FEW005 16/12 A2998 RMK AO2 SLP152 T01610122=
201407101253 METAR KBFI 101253Z 15005KT 10SM CLR 14/12 A2997 RMK AO2 SLP149 T01440117=
201407101153 METAR KBFI 101153Z 19004KT 10SM CLR 15/12 A2997 RMK AO2 SLP147 T01500117 10222 20150 53005=
201407101053 METAR KBFI 101053Z 00000KT 10SM CLR 16/12 A2996 RMK AO2 SLP144 T01610122=
201407100953 METAR KBFI 100953Z 14005KT 10SM CLR 16/12 A2996 RMK AO2 SLP143 T01560122=
201407100853 METAR KBFI 100853Z AUTO 22003KT 10SM CLR 19/13 A2995 RMK AO2 SLP142 T01890128 51007 TSNO=
201407100753 METAR KBFI 100753Z AUTO 30003KT 10SM CLR 20/11 A2995 RMK AO2 SLP141 T02000111 402780172 TSNO=
201407100653 METAR KBFI 100653Z AUTO VRB03KT 10SM CLR 21/12 A2994 RMK AO2 SLP138 T02060117 TSNO=
201407100553 METAR KBFI 100553Z 29003KT 10SM CLR 22/12 A2993 RMK AO2 SLP135 T02220117 10278 20222 53004=
201407100453 METAR KBFI 100453Z 31005KT 10SM CLR 23/12 A2993 RMK AO2 SLP133 T02330117=
201407100353 METAR KBFI 100353Z 30004KT 10SM CLR 24/12 A2992 RMK AO2 SLP131 T02440117=
201407100253 METAR KBFI 100253Z 33003KT 10SM CLR 26/13 A2992 RMK AO2 SLP131 T02610133 56010=
201407100153 METAR KBFI 100153Z 28005KT 10SM CLR 27/13 A2992 RMK AO2 SLP131 T02720133=
201407100053 METAR KBFI 100053Z 32004KT 10SM CLR 27/13 A2993 RMK AO2 SLP135 T02720133=
201407092353 METAR KBFI 092353Z 26004KT 10SM CLR 27/13 A2995 RMK AO2 SLP141 T02720128 10278 20217 58015=
201407092253 METAR KBFI 092253Z VRB04KT 10SM CLR 27/11 A2996 RMK AO2 SLP146 T02720111=
201407092153 METAR KBFI 092153Z VRB06KT 10SM CLR 26/11 A2998 RMK AO2 SLP151 T02610111=
201407092053 METAR KBFI 092053Z AUTO 35004KT 10SM CLR 25/11 A2999 RMK AO2 SLP156 T02500106 58011=
201407091953 METAR KBFI 091953Z VRB04KT 10SM CLR 24/13 A3001 RMK AO2 SLP162 T02390128=
201407091853 METAR KBFI 091853Z VRB03KT 10SM CLR 23/13 A3002 RMK AO2 SLP165 T02280128=
201407091753 METAR KBFI 091753Z VRB04KT 10SM CLR 22/13 A3002 RMK AO2 SLP166 T02170133 10222 20172 58001=
201407091653 METAR KBFI 091653Z 00000KT 10SM CLR 21/13 A3003 RMK AO2 SLP169 T02110133=
201407091553 METAR KBFI 091553Z 30003KT 10SM CLR 19/12 A3003 RMK AO2 SLP169 T01940122=
201407091453 METAR KBFI 091453Z 24003KT 10SM FEW010 SCT200 18/12 A3003 RMK AO2 SLP168 T01830122 51009=
201407091353 METAR KBFI 091353Z 00000KT 10SM FEW250 18/12 A3003 RMK AO2 SLP168 T01780117=
201407091253 METAR KBFI 091253Z 00000KT 10SM SCT250 18/11 A3002 RMK AO2 SLP164 T01780106=
201407091153 METAR KBFI 091153Z 00000KT 10SM CLR 18/11 A3000 RMK AO2 SLP159 T01780106 10233 20178 53003=
201407091053 METAR KBFI 091053Z AUTO 00000KT 10SM CLR 18/10 A3000 RMK AO2 SLP158 T01830100 TSNO=
201407090953 METAR KBFI 090953Z AUTO 00000KT 10SM CLR 19/11 A2999 RMK AO2 SLP156 T01890111 TSNO=
201407090853 METAR KBFI 090853Z 33003KT 10SM CLR 20/12 A2999 RMK AO2 SLP155 T02000122 50002=
201407090753 METAR KBFI 090753Z 00000KT 10SM CLR 21/11 A2999 RMK AO2 SLP156 T02060111 403000172=
201407090653 METAR KBFI 090653Z 00000KT 10SM CLR 22/11 A2999 RMK AO2 SLP156 T02170111=
201407090553 METAR KBFI 090553Z 04003KT 10SM CLR 23/14 A2998 RMK AO2 SLP153 T02330139 10300 20233 53008=
201407090453 METAR KBFI 090453Z VRB03KT 10SM CLR 25/13 A2998 RMK AO2 SLP150 T02500133=
201407090353 METAR KBFI 090353Z 31003KT 10SM SCT250 26/13 A2996 RMK AO2 SLP146 T02560128=
201407090253 METAR KBFI 090253Z 30005KT 10SM FEW250 27/12 A2996 RMK AO2 SLP145 T02720122 56010=
201407090153 METAR KBFI 090153Z 30006KT 10SM CLR 28/13 A2996 RMK AO2 SLP146 T02830128=
201407090053 METAR KBFI 090053Z VRB06KT 10SM SCT250 29/13 A2997 RMK AO2 SLP148 T02890128=
201407082353 METAR KBFI 082353Z 31009KT 10SM SCT250 29/13 A2999 RMK AO2 SLP155 T02890133 10294 20233 58012=
201407082253 METAR KBFI 082253Z 33008KT 10SM CLR 29/13 A3000 RMK AO2 SLP160 T02890133=
201407082153 METAR KBFI 082153Z 31009G14KT 10SM CLR 28/13 A3001 RMK AO2 SLP163 T02830128=
201407082053 METAR KBFI 082053Z 33009G15KT 10SM CLR 28/13 A3002 RMK AO2 SLP167 T02780133 58010=
201407081953 METAR KBFI 081953Z 32008G15KT 10SM CLR 27/13 A3004 RMK AO2 SLP171 T02670133=
201407081853 METAR KBFI 081853Z 31007KT 10SM CLR 25/13 A3005 RMK AO2 SLP175 T02500133=
201407081753 METAR KBFI 081753Z VRB05KT 10SM CLR 23/13 A3006 RMK AO2 SLP177 T02330133 10239 20172 58004=
201407081653 METAR KBFI 081653Z VRB04KT 10SM CLR 22/13 A3006 RMK AO2 SLP180 T02170133=
201407081553 METAR KBFI 081553Z 30005KT 10SM CLR 21/13 A3007 RMK AO2 SLP182 T02060133=
201407081453 METAR KBFI 081453Z AUTO 00000KT 10SM CLR 19/13 A3007 RMK AO2 SLP181 T01940133 51005 TSNO=
201407081353 METAR KBFI 081353Z 32003KT 10SM CLR 18/13 A3006 RMK AO2 SLP180 T01780133=
201407081253 METAR KBFI 081253Z 31004KT 10SM CLR 17/13 A3006 RMK AO2 SLP178 T01720133=
201407081153 METAR KBFI 081153Z 00000KT 10SM CLR 18/14 A3005 RMK AO2 SLP176 T01830139 10222 20183 52001=
201407081053 METAR KBFI 081053Z 00000KT 10SM CLR 19/14 A3005 RMK AO2 SLP176 T01890139=
201407080953 METAR KBFI 080953Z 00000KT 10SM CLR 19/14 A3005 RMK AO2 SLP175 T01940139=
201407080853 METAR KBFI 080853Z VRB03KT 10SM CLR 19/14 A3005 RMK AO2 SLP175 T01940139 53001=
201407080753 METAR KBFI 080753Z 00000KT 10SM CLR 20/14 A3005 RMK AO2 SLP175 T02000139 402720189=
201407080653 METAR KBFI 080653Z VRB03KT 10SM CLR 21/15 A3005 RMK AO2 SLP174 T02110150=
201407080553 METAR KBFI 080553Z 00000KT 10SM CLR 23/14 A3005 RMK AO2 SLP174 T02280144 10272 20228 53008=
201407080453 METAR KBFI 080453Z 31003KT 10SM CLR 23/15 A3004 RMK AO2 SLP170 T02280150=
201407080353 METAR KBFI 080353Z 31004KT 10SM FEW040 24/14 A3002 RMK AO2 SLP166 T02440144=
201407080253 METAR KBFI 080253Z 30006KT 10SM CLR 26/14 A3002 RMK AO2 SLP166 T02610144 56008=
201407080153 METAR KBFI 080153Z 32007KT 10SM CLR 27/14 A3002 RMK AO2 SLP167 T02670139=
201407080053 METAR KBFI 080053Z 31008KT 10SM CLR 27/15 A3003 RMK AO2 SLP169 T02720150=
201407072353 METAR KBFI 072353Z 30007KT 10SM CLR 27/16 A3005 RMK AO2 SLP175 T02670156 10267 20211 58013=
201407072253 METAR KBFI 072253Z 30007KT 10SM CLR 26/16 A3006 RMK AO2 SLP180 T02610156=
201407072153 METAR KBFI 072153Z 28007KT 10SM FEW030 26/16 A3008 RMK AO2 SLP185 T02610156=
201407072053 METAR KBFI 072053Z COR VRB04KT 10SM FEW026 26/16 A3009 RMK AO2 SLP188 T02610156 56014=
201407072050 SPECI KBFI 072050Z VRB06KT 10SM SCT026 26/16 A3009 RMK AO2=
201407071953 METAR KBFI 071953Z VRB05KT 10SM FEW015 BKN022 24/16 A3011 RMK AO2 SLP196 T02440161=
201407071853 METAR KBFI 071853Z VRB06KT 10SM OVC018 22/16 A3013 RMK AO2 SLP202 T02220156=
201407071753 METAR KBFI 071753Z COR VRB03KT 10SM OVC013 21/16 A3013 RMK AO2 SLP203 T02110161 10211 20189 58003=
201407071653 METAR KBFI 071653Z VRB04KT 9SM OVC010 20/16 A3014 RMK AO2 SLP205 T02000156=
201407071648 SPECI KBFI 071648Z VRB04KT 9SM OVC010 20/16 A3014 RMK AO2=
201407071553 METAR KBFI 071553Z 00000KT 9SM OVC008 19/16 A3014 RMK AO2 SLP206 T01940156=
201407071453 METAR KBFI 071453Z 01004KT 9SM OVC008 19/16 A3014 RMK AO2 SLP205 T01940156 53007=
201407071353 METAR KBFI 071353Z VRB03KT 10SM OVC011 19/16 A3013 RMK AO2 SLP202 T01940156=
201407071253 METAR KBFI 071253Z VRB03KT 10SM OVC011 19/16 A3012 RMK AO2 SLP199 T01940156=
201407071153 METAR KBFI 071153Z COR 34008KT 10SM OVC013 19/16 A3012 RMK AO2 SLP198 T01940156 10228 20194 56004=
201407071122 SPECI KBFI 071122Z 36005KT 10SM OVC013 20/16 A3012 RMK AO2=
201407071053 METAR KBFI 071053Z 00000KT 10SM BKN015 20/16 A3012 RMK AO2 SLP199 T02000156=
201407070953 METAR KBFI 070953Z 00000KT 10SM FEW100 20/15 A3013 RMK AO2 SLP201 T02000150=
201407070853 METAR KBFI 070853Z VRB03KT 10SM CLR 21/15 A3013 RMK AO2 SLP202 T02060150 58004 TSNO=
201407070753 METAR KBFI 070753Z VRB03KT 10SM CLR 21/16 A3014 RMK AO2 SLP204 T02110156 403000172=
201407070653 METAR KBFI 070653Z 00000KT 10SM FEW070 22/15 A3014 RMK AO2 SLP206 T02220150=
201407070553 METAR KBFI 070553Z 35004KT 10SM BKN070 OVC085 23/15 A3014 RMK AO2 SLP206 T02280150 10294 20228 51008=
201407070453 METAR KBFI 070453Z 32003KT 10SM SCT065 23/15 A3014 RMK AO2 SLP205 T02280150=
201407070353 METAR KBFI 070353Z 31006KT 10SM FEW060 23/15 A3012 RMK AO2 SLP199 T02280150=
201407070253 METAR KBFI 070253Z 31007KT 10SM CLR 24/14 A3012 RMK AO2 SLP198 T02440144 53003=
201407070153 METAR KBFI 070153Z 31006G14KT 10SM FEW060 26/13 A3010 RMK AO2 SLP194 T02610133=
201407070053 METAR KBFI 070053Z 31007KT 280V340 10SM FEW049 28/14 A3010 RMK AO2 SLP193 T02780139=
201407062353 METAR KBFI 062353Z COR VRB06KT 10SM SCT050 29/15 A3011 RMK AO2 SLP195 T02890150 10300 20239 58008=
201407062253 METAR KBFI 062253Z VRB06KT 10SM SCT070 29/15 A3012 RMK AO2 SLP199 T02890150=
201407062153 METAR KBFI 062153Z AUTO VRB03KT 10SM FEW080 28/15 A3013 RMK AO2 WSHFT 2101 SLP202 T02830150 TSNO=
201407062121 SPECI KBFI 062121Z 26006KT 10SM FEW080 28/15 A3013 RMK AO2 WSHFT 2101=
201407062053 METAR KBFI 062053Z VRB06KT 10SM FEW080 28/14 A3013 RMK AO2 SLP203 T02830144 58006=
201407061953 METAR KBFI 061953Z 15005KT 10SM FEW080 28/14 A3014 RMK AO2 SLP206 T02780139=
201407061853 METAR KBFI 061853Z 16010KT 10SM FEW070 27/11 A3015 RMK AO2 SLP209 T02670106=
201407061753 METAR KBFI 061753Z 21004KT 10SM SCT080 24/11 A3015 RMK AO2 SLP209 T02390111 10239 20172 58002=
201407061653 METAR KBFI 061653Z 16004KT 10SM SCT044 23/12 A3016 RMK AO2 SLP211 T02280122=
201407061553 METAR KBFI 061553Z 18004KT 10SM BKN065 20/13 A3016 RMK AO2 SLP212 T02000128=
201407061453 METAR KBFI 061453Z 13004KT 10SM BKN060 BKN095 19/13 A3016 RMK AO2 SLP211 T01890128 51010=
201407061353 METAR KBFI 061353Z 00000KT 10SM BKN060 18/12 A3015 RMK AO2 SLP210 T01830122=
201407061253 METAR KBFI 061253Z 00000KT 10SM BKN065 18/12 A3014 RMK AO2 SLP207 T01780117=
201407061153 METAR KBFI 061153Z COR 00000KT 10SM FEW065 BKN100 17/12 A3013 RMK AO2 SLP201 T01720117 10194 20172 51005=
201407061053 METAR KBFI 061053Z 00000KT 10SM SCT100 17/12 A3012 RMK AO2 SLP200 T01720117=
201407060953 METAR KBFI 060953Z AUTO 32003KT 10SM SCT080 17/12 A3012 RMK AO2 SLP199 T01720117 TSNO=
201407060853 METAR KBFI 060853Z VRB04KT 10SM CLR 18/12 A3011 RMK AO2 SLP196 T01830117 55002=
201407060753 METAR KBFI 060753Z 30003KT 10SM BKN095 19/12 A3011 RMK AO2 SLP196 T01890117 402500161=
201407060653 METAR KBFI 060653Z VRB03KT 10SM OVC090 19/11 A3012 RMK AO2 SLP198 T01940111=
201407060553 METAR KBFI 060553Z 31004KT 10SM OVC100 19/11 A3012 RMK AO2 SLP198 60000 T01940106 10228 20194 50002=
201407060453 METAR KBFI 060453Z 30003KT 10SM OVC090 19/11 A3012 RMK AO2 SLP199 T01940106=
201407060353 METAR KBFI 060353Z 30005KT 10SM BKN100 20/11 A3011 RMK AO2 SLP196 T02000106=
201407060253 METAR KBFI 060253Z 31007KT 10SM BKN100 21/11 A3011 RMK AO2 RAB00E10 SLP196 P0000 60000 T02060111 56006=
201407060153 METAR KBFI 060153Z 31009KT 10SM FEW060 SCT075 BKN110 21/11 A3011 RMK AO2 SLP197 T02060111=
201407060053 METAR KBFI 060053Z 30005KT 10SM BKN060 22/10 A3012 RMK AO2 SLP200 T02220100=
201407052353 METAR KBFI 052353Z 31005KT 10SM OVC060 23/10 A3013 RMK AO2 SLP202 60000 T02280100 10250 20217 50001=
201407052253 METAR KBFI 052253Z 35004KT 10SM OVC065 23/09 A3014 RMK AO2 RAB2154E13 SLP204 P0000 T02280094=
201407052153 METAR KBFI 052153Z 28008KT 10SM FEW060 BKN075 OVC110 23/08 A3013 RMK AO2 RAB2057E42 SLP203 P0000 T02280083=
201407052053 METAR KBFI 052053Z 19006KT 10SM OVC075 24/11 A3013 RMK AO2 SLP202 T02390106 53008=
201407051953 METAR KBFI 051953Z 23006KT 10SM SCT140 BKN200 24/10 A3011 RMK AO2 SLP197 T02440100=
201407051853 METAR KBFI 051853Z VRB06KT 10SM SCT140 BKN200 24/11 A3011 RMK AO2 SLP196 T02440111=
201407051753 METAR KBFI 051753Z VRB04KT 10SM SCT090 BKN140 22/11 A3010 RMK AO2 SLP194 T02220106 10222 20161 51004=
201407051653 METAR KBFI 051653Z 14004KT 9SM SCT080 BKN120 21/12 A3010 RMK AO2 SLP192 T02060117=
201407051553 METAR KBFI 051553Z 11003KT 5SM HZ SCT075 BKN120 19/12 A3010 RMK AO2 SLP192 T01890117=
201407051453 METAR KBFI 051453Z 14006KT 6SM HZ SCT075 18/12 A3009 RMK AO2 SLP190 T01780117 51008=
201407051353 METAR KBFI 051353Z 14004KT 5SM HZ BKN075 BKN120 17/11 A3009 RMK AO2 SLP188 T01670111=
201407051253 METAR KBFI 051253Z AUTO 00000KT 7SM BKN080 16/11 A3008 RMK AO2 SLP184 T01610111 TSNO=
201407051153 METAR KBFI 051153Z 00000KT 10SM BKN080 16/11 A3007 RMK AO2 SLP182 T01610111 10167 20161 53002=
201407051053 METAR KBFI 051053Z 00000KT 10SM OVC085 16/11 A3007 RMK AO2 SLP180 T01610111=
201407050953 METAR KBFI 050953Z 00000KT 10SM FEW090 16/10 A3006 RMK AO2 SLP179 T01610100=
201407050853 METAR KBFI 050853Z 00000KT 10SM FEW090 17/11 A3006 RMK AO2 SLP179 T01670106 51008=
201407050753 METAR KBFI 050753Z 30003KT 10SM SCT150 17/11 A3006 RMK AO2 SLP177 T01670106 402440150=
201407050653 METAR KBFI 050653Z 30004KT 10SM BKN200 16/11 A3005 RMK AO2 SLP174 T01610106=
201407050553 METAR KBFI 050553Z 31004KT 10SM CLR 16/11 A3004 RMK AO2 SLP171 60000 T01610106 10228 20161 55000=
201407050453 METAR KBFI 050453Z 33003KT 10SM BKN100 18/10 A3003 RMK AO2 SLP169 T01780100=
201407050353 METAR KBFI 050353Z 00000KT 10SM BKN110 18/10 A3003 RMK AO2 SLP170 T01830100=
201407050253 METAR KBFI 050253Z 00000KT 10SM FEW040 BKN110 19/09 A3004 RMK AO2 RAB24E36 SLP171 P0000 60000 T01940094 51012=
201407050153 METAR KBFI 050153Z 32005KT 10SM SCT100 SCT120 20/09 A3002 RMK AO2 SLP167 T02000094=
201407050053 METAR KBFI 050053Z 31006KT 10SM SCT110 20/09 A3002 RMK AO2 SLP164 T02000094=
201407042353 METAR KBFI 042353Z 31005KT 10SM FEW040 BKN250 23/10 A3000 RMK AO2 SLP159 T02280100 10244 20200 56005=
201407042253 METAR KBFI 042253Z 34006KT 10SM FEW040 SCT250 24/09 A3000 RMK AO2 SLP159 T02390094=
201407042153 METAR KBFI 042153Z 35006KT 10SM FEW040 SCT250 24/09 A3001 RMK AO2 SLP161 T02390094=
201407042053 METAR KBFI 042053Z COR 00000KT 10SM FEW040 BKN250 23/09 A3002 RMK AO2 SLP164 T02280089 56006=
201407041953 METAR KBFI 041953Z VRB05KT 10SM FEW030 SCT250 23/09 A3002 RMK AO2 SLP166 T02280089=
201407041853 METAR KBFI 041853Z 32005KT 10SM SCT030 SCT250 21/09 A3003 RMK AO2 SLP168 T02110094=
201407041753 METAR KBFI 041753Z 32005KT 10SM FEW030 SCT250 21/09 A3004 RMK AO2 SLP170 T02060089 10211 20156 56007=
201407041653 METAR KBFI 041653Z 08004KT 10SM FEW045 SCT250 19/08 A3004 RMK AO2 SLP172 T01940083=
201407041553 METAR KBFI 041553Z 35003KT 10SM FEW045 18/09 A3005 RMK AO2 SLP175 T01780089=
201407041453 METAR KBFI 041453Z VRB03KT 10SM SCT045 17/09 A3006 RMK AO2 SLP178 T01720089 56006=
201407041353 METAR KBFI 041353Z 00000KT 10SM SCT047 16/08 A3006 RMK AO2 SLP179 T01610083=
201407041253 METAR KBFI 041253Z COR 00000KT 10SM SCT049 16/08 A3006 RMK AO2 SLP180 T01610083=
201407041153 METAR KBFI 041153Z 00000KT 10SM BKN049 16/08 A3007 RMK AO2 SLP184 T01610083 10178 20150 53001=
201407041053 METAR KBFI 041053Z 00000KT 10SM FEW038 OVC049 16/08 A3007 RMK AO2 SLP182 T01610083=
201407040953 METAR KBFI 040953Z 00000KT 10SM BKN045 16/08 A3007 RMK AO2 SLP182 T01560083=
201407040853 METAR KBFI 040853Z 00000KT 10SM FEW060 SCT200 16/08 A3007 RMK AO2 SLP182 T01560083 56003=
201407040753 METAR KBFI 040753Z 00000KT 10SM FEW060 SCT200 16/08 A3007 RMK AO2 SLP184 T01610083 402220150=
201407040653 METAR KBFI 040653Z 00000KT 10SM SCT200 17/08 A3008 RMK AO2 SLP184 T01720078=
201407040553 METAR KBFI 040553Z 35003KT 10SM FEW030 SCT200 18/07 A3008 RMK AO2 SLP186 T01780072 10222 20178 51005=
201407040453 METAR KBFI 040453Z 36004KT 10SM SCT050 BKN220 18/08 A3008 RMK AO2 SLP185 T01830078=
201407040353 METAR KBFI 040353Z 32004KT 10SM SCT040 19/08 A3007 RMK AO2 SLP182 T01890083=
201407040253 SPECI KBFI 040253Z 31006KT 10SM SCT040 BKN120 19/08 A3006 RMK AO2 SLP180 T01940083 55007=
201407040253 METAR KBFI 040253Z 31006KT 10SM SCT040 BKN120 19/08 A3006 RMK AO2 SLP180 T01940083 55007=
201407040153 METAR KBFI 040153Z 32006KT 10SM SCT040 SCT060 BKN120 21/10 A3006 RMK AO2 SLP179 T02060100=
201407040053 SPECI KBFI 040053Z VRB04KT 10SM SCT045 21/11 A3007 RMK AO2 SLP182 T02110111=
201407040053 METAR KBFI 040053Z COR VRB04KT 10SM SCT045 SCT060 21/11 A3007 RMK AO2 SLP182 T02110111=
201407032353 METAR KBFI 032353Z VRB05KT 10SM FEW045 BKN060 22/12 A3008 RMK AO2 SLP187 T02220117 10222 20183 58007=
201407032253 METAR KBFI 032253Z 32005KT 10SM SCT050 OVC060 21/11 A3010 RMK AO2 SLP192 T02060111=
201407032153 METAR KBFI 032153Z 21004KT 10SM OVC040 22/10 A3010 RMK AO2 SLP193 T02170100=
201407032053 METAR KBFI 032053Z 00000KT 10SM BKN030 OVC050 21/10 A3011 RMK AO2 SLP194 T02060100 50004=
201407031953 METAR KBFI 031953Z VRB03KT 10SM BKN028 OVC042 19/11 A3011 RMK AO2 SLP195 T01890106=
201407031853 METAR KBFI 031853Z 20005KT 10SM BKN028 OVC034 19/10 A3011 RMK AO2 SLP194 T01890100=
201407031800 SPECI KBFI 031800Z 18007KT 150V230 10SM OVC032 19/10 A3009 RMK AO2=
201407031753 METAR KBFI 031753Z 18006KT 10SM BKN025 OVC035 19/10 A3009 RMK AO2 SLP190 T01890100 10189 20167 51004=
201407031653 METAR KBFI 031653Z 15008KT 10SM BKN025 OVC035 18/10 A3009 RMK AO2 SLP189 T01780100=
201407031614 SPECI KBFI 031614Z 16008KT 10SM BKN025 OVC035 18/10 A3009 RMK AO2=
201407031553 METAR KBFI 031553Z 17008KT 10SM SCT022 OVC034 17/10 A3009 RMK AO2 SLP189 T01720100=
201407031453 METAR KBFI 031453Z 17005KT 10SM SCT022 OVC034 17/10 A3008 RMK AO2 SLP186 T01670100 53009=
201407031353 METAR KBFI 031353Z 23006KT 10SM FEW028 OVC034 17/11 A3007 RMK AO2 SLP184 T01670106=
201407031331 SPECI KBFI 031331Z 20005KT 10SM FEW027 OVC034 17/10 A3007 RMK AO2=
201407031253 METAR KBFI 031253Z 19003KT 10SM BKN024 OVC030 17/10 A3006 RMK AO2 SLP179 T01670100=
201407031153 METAR KBFI 031153Z 17005KT 10SM OVC030 17/11 A3006 RMK AO2 SLP177 T01670106 10183 20150 51007=
201407031053 METAR KBFI 031053Z 00000KT 10SM FEW019 OVC034 16/11 A3005 RMK AO2 SLP175 T01610106=
201407030953 METAR KBFI 030953Z 17005KT 10SM SCT035 16/10 A3004 RMK AO2 SLP172 T01560100=
201407030853 METAR KBFI 030853Z 20004KT 10SM SCT029 17/11 A3003 RMK AO2 SLP169 T01670106 50005=
201407030753 METAR KBFI 030753Z 15003KT 10SM BKN029 17/11 A3004 RMK AO2 SLP171 T01670106 402780167=
201407030653 METAR KBFI 030653Z 19004KT 10SM CLR 17/11 A3003 RMK AO2 SLP168 T01720111=
201407030553 METAR KBFI 030553Z 19004KT 10SM CLR 18/12 A3002 RMK AO2 SLP165 T01830117 10278 20183 51022=
201407030453 METAR KBFI 030453Z 17005KT 10SM FEW030 SCT100 19/12 A3000 RMK AO2 SLP159 T01940117=
201407030353 METAR KBFI 030353Z 25005KT 10SM CLR 22/11 A2997 RMK AO2 SLP149 T02170111=
201407030253 METAR KBFI 030253Z VRB03KT 10SM CLR 23/11 A2995 RMK AO2 SLP143 T02330111 53007=
201407030153 METAR KBFI 030153Z 24007KT 10SM FEW080 25/13 A2994 RMK AO2 SLP138 T02500128=
201407030053 METAR KBFI 030053Z 25008KT 10SM FEW080 SCT250 27/12 A2993 RMK AO2 SLP136 T02720117=
201407022353 METAR KBFI 022353Z 17008KT 10SM FEW030 28/10 A2993 RMK AO2 SLP136 T02780100 10278 20200 56009=
201407022253 METAR KBFI 022253Z VRB05KT 10SM FEW025 27/09 A2994 RMK AO2 SLP138 T02720094=
201407022153 METAR KBFI 022153Z 18006KT 10SM SCT200 26/12 A2995 RMK AO2 SLP140 T02610117=
201407022053 METAR KBFI 022053Z 15007KT 10SM SCT200 24/12 A2996 RMK AO2 SLP145 T02390122 50002=
201407021953 METAR KBFI 021953Z COR 22006KT 10SM BKN200 23/12 A2996 RMK AO2 SLP146 T02280122=
201407021853 METAR KBFI 021853Z 19007G18KT 10SM SCT020 BKN150 22/12 A2996 RMK AO2 SLP146 T02170122=
201407021753 METAR KBFI 021753Z VRB05KT 10SM CLR 20/13 A2996 RMK AO2 SLP143 T02000128 10211 20189 51010=
201407021653 METAR KBFI 021653Z 20006KT 10SM SCT027 SCT150 BKN250 20/12 A2995 RMK AO2 SLP141 T02000122=
201407021553 METAR KBFI 021553Z 21007KT 10SM SCT150 OVC220 20/12 A2993 RMK AO2 SLP135 T02000122=
201407021453 METAR KBFI 021453Z 19006KT 10SM SCT019 OVC150 19/12 A2992 RMK AO2 SLP133 T01890117 53018=
201407021353 METAR KBFI 021353Z 17006KT 10SM CLR 19/12 A2990 RMK AO2 SLP125 T01890122=
201407021253 METAR KBFI 021253Z 20005KT 10SM SCT150 BKN200 19/12 A2989 RMK AO2 SLP120 T01940122=
201407021153 METAR KBFI 021153Z 18005KT 10SM BKN200 19/12 A2987 RMK AO2 SLP115 T01940122 10244 20194 53032=
201407021053 METAR KBFI 021053Z 19004KT 10SM CLR 21/13 A2983 RMK AO2 SLP102 T02110128=
201407020953 METAR KBFI 020953Z 14005KT 10SM CLR 21/13 A2980 RMK AO2 SLP092 T02060128=
201407020853 METAR KBFI 020853Z 00000KT 10SM CLR 22/12 A2978 RMK AO2 SLP083 T02170122 53006=
201407020753 METAR KBFI 020753Z 00000KT 10SM CLR 23/13 A2977 RMK AO2 SLP079 T02280133 403280172=
201407020653 METAR KBFI 020653Z 00000KT 10SM CLR 24/12 A2976 RMK AO2 SLP077 T02390122=
201407020553 METAR KBFI 020553Z 00000KT 10SM CLR 24/12 A2976 RMK AO2 SLP077 T02440122 10328 20244 53015=
201407020453 METAR KBFI 020453Z VRB03KT 10SM SCT050 SCT240 26/12 A2974 RMK AO2 SLP071 T02560122=
201407020353 METAR KBFI 020353Z 31006KT 10SM SCT050 SCT100 27/12 A2972 RMK AO2 SLP065 T02720122=
201407020253 METAR KBFI 020253Z 31006KT 10SM SCT100 31/11 A2971 RMK AO2 SLP062 T03060111 56013=
201407020153 METAR KBFI 020153Z 31005KT 10SM SCT100 32/11 A2972 RMK AO2 SLP063 T03170106=
201407020053 METAR KBFI 020053Z 32009KT 10SM FEW040 SCT100 32/11 A2973 RMK AO2 SLP067 T03220106=
201407020000 METAR KBFI NIL=
201407012353 METAR KBFI 012353Z 31009KT 10SM FEW040 SCT100 32/11 A2975 RMK AO2 SLP075 T03220111 10328 20256 56023=
201407012300 METAR KBFI NIL=
201407012253 METAR KBFI 012253Z 32008G14KT 10SM FEW040 SCT110 32/11 A2977 RMK AO2 SLP082 T03170111=
201407012200 METAR KBFI NIL=
201407012153 METAR KBFI 012153Z 30011G15KT 10SM FEW120 SCT250 31/11 A2980 RMK AO2 SLP089 T03110111=
201407012053 METAR KBFI 012053Z 31009KT 10SM SCT200 31/10 A2982 RMK AO2 SLP097 T03060100 58021=
201407011953 METAR KBFI 011953Z 32006KT 10SM FEW250 29/12 A2984 RMK AO2 SLP105 T02890122=
201407011853 METAR KBFI 011853Z VRB04KT 10SM CLR 27/12 A2986 RMK AO2 SLP113 T02720117=
201407011753 METAR KBFI 011753Z 33005KT 10SM CLR 26/12 A2988 RMK AO2 SLP118 T02560117 10256 20172 58020=
201407011653 METAR KBFI 011653Z 31006KT 10SM CLR 24/11 A2991 RMK AO2 SLP127 T02390111=
201407011553 METAR KBFI 011553Z 30007KT 10SM CLR 21/11 A2993 RMK AO2 SLP134 T02110111=
201407011453 METAR KBFI 011453Z VRB04KT 10SM SCT250 20/12 A2994 RMK AO2 SLP138 T02000122 58012=
201407011353 METAR KBFI 011353Z 00000KT 10SM FEW250 18/12 A2996 RMK AO2 SLP146 T01830122=
201407011253 METAR KBFI 011253Z 00000KT 10SM FEW060 SCT250 17/12 A2997 RMK AO2 SLP149 T01720117=
201407011153 METAR KBFI 011153Z 00000KT 10SM CLR 17/11 A2998 RMK AO2 SLP150 T01720111 10211 20172 56006=
201407011053 METAR KBFI 011053Z 36004KT 10SM CLR 18/11 A2998 RMK AO2 SLP152 T01830106=
201407010953 METAR KBFI 010953Z VRB05KT 10SM CLR 18/10 A2999 RMK AO2 SLP154 T01830100=
201407010853 METAR KBFI 010853Z 00000KT 10SM CLR 19/11 A2999 RMK AO2 SLP156 T01890106 58011=
201407010753 METAR KBFI 010753Z VRB03KT 10SM CLR 19/11 A3001 RMK AO2 SLP161 T01940106 402560144=
201407010653 METAR KBFI 010653Z 00000KT 10SM CLR 21/12 A3002 RMK AO2 SLP164 T02060117=
201407010553 METAR KBFI 010553Z VRB03KT 10SM CLR 21/12 A3003 RMK AO2 SLP167 T02110117 10250 20206 56006=
201407010453 METAR KBFI 010453Z 32003KT 10SM CLR 21/11 A3003 RMK AO2 SLP170 T02110111=
201407010353 METAR KBFI 010353Z VRB03KT 10SM CLR 22/11 A3003 RMK AO2 SLP169 T02220111=
201407010253 METAR KBFI 010253Z 30006KT 10SM CLR 23/11 A3004 RMK AO2 SLP173 T02330111 56018=
201407010153 METAR KBFI 010153Z 30008KT 10SM CLR 24/11 A3006 RMK AO2 SLP178 T02390111=
201407010053 METAR KBFI 010053Z 32007KT 10SM CLR 24/11 A3008 RMK AO2 SLP184 T02440106=

# No short TAF reports from KBFI in databse.

###################################
#  large TAF from KBFI
###################################
201407312320 TAF KBFI 312320Z 0100/0124 32011G15KT P6SM SCT250 FM010400 VRB03KT
                       P6SM SCT250 FM011300 00000KT P6SM BKN120
                       PROB30 0115/0119 TS BKN120CB FM011900 32008KT
                       P6SM SCT120=
201407311735 TAF KBFI 311735Z 3118/0118 31006KT P6SM FEW200 FM010400 VRB03KT
                       P6SM SCT250 FM011300 00000KT P6SM SCT120=
201407311120 TAF KBFI 311120Z 3112/0112 00000KT P6SM FEW250 FM312000 30008KT
                       P6SM SCT250=
201407310520 TAF KBFI 310520Z 3106/0106 VRB04KT P6SM FEW250 FM312000 30008KT
                       P6SM SCT250=
201407302320 TAF KBFI 302320Z 3100/3124 30009G14KT P6SM SKC FM310300 VRB02KT
                       P6SM SKC FM312000 30008KT P6SM SKC=
201407301720 TAF KBFI 301720Z 3018/3118 VRB03KT P6SM SKC FM302000 30008KT P6SM
                       SKC FM310300 VRB02KT P6SM SKC=
201407301120 TAF KBFI 301120Z 3012/3112 VRB03KT P6SM SKC FM302000 30008KT P6SM
                       SKC=
201407300520 TAF KBFI 300520Z 3006/3106 VRB03KT P6SM SKC FM302000 30008KT P6SM
                       SKC=
201407292326 TAF KBFI 292326Z 3000/3024 31008KT P6SM SKC FM300300 VRB02KT P6SM
                       SKC FM302000 30008KT P6SM SKC=
201407291739 TAF KBFI 291739Z 2918/3018 00000KT P6SM SKC FM292000 30008KT P6SM
                       SKC FM300300 VRB02KT P6SM SKC=
201407291120 TAF KBFI 291120Z 2912/3012 VRB03KT P6SM SKC FM292000 30008KT P6SM
                       SKC=
201407290520 TAF KBFI 290520Z 2906/3006 VRB03KT P6SM SKC FM292000 30008KT P6SM
                       SKC=
201407282320 TAF KBFI 282320Z 2900/2924 30008G14KT P6SM SKC FM290200 30006KT
                       P6SM SKC FM290600 VRB03KT P6SM SKC FM292000
                       30008KT P6SM SKC=
201407281726 TAF KBFI 281726Z 2818/2918 VRB04KT P6SM SKC FM282000 30008KT P6SM
                       SKC FM290600 VRB03KT P6SM SKC=
201407281127 TAF KBFI 281127Z 2812/2912 00000KT P6SM SKC FM281800 31007KT P6SM
                       FEW200 FM290600 VRB03KT P6SM SKC=
201407280534 TAF KBFI 280534Z 2806/2906 00000KT P6SM SKC FM281800 31007KT P6SM
                       FEW200=
201407272323 TAF KBFI 272323Z 2800/2824 31009KT P6SM FEW200 FM280500 00000KT
                       P6SM SKC FM281800 31007KT P6SM SKC=
201407271722 TAF KBFI 271722Z 2718/2818 VRB03KT P6SM SKC FM272100 31007KT P6SM
                       FEW250 FM280500 00000KT P6SM SKC=
201407271120 TAF KBFI 271120Z 2712/2812 00000KT P6SM SKC FM271400 VRB03KT P6SM
                       SKC FM272100 31007KT P6SM FEW250=
201407270544 TAF KBFI 270544Z 2706/2806 00000KT P6SM SKC FM271400 VRB03KT P6SM
                       SKC FM272100 31007KT P6SM FEW250=
201407262322 TAF KBFI 262322Z 2700/2724 31007KT P6SM SKC FM270700 00000KT P6SM
                       SKC FM272100 31007KT P6SM SKC=
201407261721 TAF KBFI 261721Z 2618/2718 VRB03KT P6SM SKC FM262000 31006KT P6SM
                       SKC FM270700 00000KT P6SM SKC=
201407261127 TAF KBFI 261127Z 2612/2712 00000KT P6SM FEW025 FM261400 VRB03KT
                       P6SM FEW020 FM261800 31005KT P6SM SKC FM270600
                       00000KT P6SM SKC=
201407260540 TAF KBFI 260540Z 2606/2706 00000KT P6SM SKC FM261200 00000KT P6SM
                       FEW025 FM261400 VRB03KT P6SM SCT020 FM261800
                       31005KT P6SM SKC=
201407252320 TAF KBFI 252320Z 2600/2624 VRB04KT P6SM SCT045 FM260600 VRB03KT
                       P6SM FEW060 FM261400 00000KT P6SM SCT015
                       FM261800 31005KT P6SM FEW030=
201407251907 TAF AMD KBFI 251907Z 2519/2618 VRB06KT P6SM SCT027
                      TEMPO 2519/2522 BKN027 FM252200 30006KT P6SM
                       FEW035 FM260600 VRB03KT P6SM FEW070 FM261400
                       00000KT P6SM SCT015=
201407251731 TAF KBFI 251731Z 2518/2618 VRB03KT P6SM SCT017 FM252100 30006KT
                       P6SM FEW045 FM260600 VRB03KT P6SM FEW070
                       FM261400 00000KT P6SM SCT015=
201407251506 TAF AMD KBFI 251506Z 2515/2612 VRB03KT P6SM SCT040 FM251800 VRB03KT
                       P6SM FEW050 FM252100 30005KT P6SM SCT250
                       FM260600 VRB03KT P6SM FEW070=
201407251332 TAF AMD KBFI 251332Z 2514/2612 VRB03KT P6SM BKN030 BKN050 FM251800
                       31003KT P6SM BKN050 FM252100 30005KT P6SM
                       SCT250 FM260600 VRB03KT P6SM FEW070=
201407251124 TAF KBFI 251124Z 2512/2612 00000KT P6SM BKN030 OVC050 FM251400
                       VRB03KT P6SM OVC020 FM251800 31003KT P6SM
                       BKN050 FM252100 30005KT P6SM SCT250 FM260600
                       VRB03KT P6SM FEW070=
201407250905 TAF AMD KBFI 250905Z 2509/2606 00000KT P6SM OVC050 FM251200 00000KT
                       P6SM BKN030 OVC050 FM251400 VRB03KT P6SM
                       OVC020 FM251800 31003KT P6SM BKN050 FM252100
                       30005KT P6SM SCT250=
201407250539 TAF KBFI 250539Z 2506/2606 VRB04KT P6SM BKN025 BKN050 FM251200
                       VRB03KT P6SM OVC020 FM251700 31003KT P6SM
                       BKN050 FM252100 30005KT P6SM SCT250=
201407250121 TAF AMD KBFI 250121Z 2501/2524 02006KT P6SM SCT015 SCT035 BKN050
                       TEMPO 2501/2502 BKN015 BKN035 OVC050 FM250200
                       06004KT P6SM SCT030 BKN060 FM250400 18004KT
                       P6SM SCT035 BKN050 FM251200 18002KT P6SM
                       OVC020 FM251700 29003KT P6SM BKN050 FM252200
                       29005KT P6SM SCT250=
201407242326 TAF KBFI 242326Z 2500/2524 00000KT P6SM -SHRA OVC035 FM250400 18004KT
                       P6SM SCT035 BKN050 FM251200 18002KT P6SM
                       OVC020 FM251700 29003KT P6SM BKN050 FM252200
                       29005KT P6SM SCT250=
201407241724 TAF KBFI 241724Z 2418/2518 19006KT P6SM VCSH BKN022 OVC030 FM242300
                       20004KT P6SM SCT030 OVC050 FM250800 VRB03KT
                       P6SM OVC025=
201407241132 TAF KBFI 241132Z 2412/2512 16007KT P6SM VCSH BKN040 OVC050 FM241400
                       17010KT P6SM VCSH OVC020 FM241800 19012KT
                       P6SM BKN030 OVC050 FM250000 22007KT P6SM
                       FEW030 OVC050 FM251000 17003KT P6SM SCT020
                       BKN030=
201407240538 TAF KBFI 240538Z 2406/2506 16008KT P6SM VCSH SCT030 BKN060 FM241200
                       16010KT P6SM VCSH OVC020 FM241800 19012KT
                       P6SM BKN030 OVC050 FM242100 18007KT P6SM
                       SCT030 BKN050 FM250000 22007KT P6SM FEW030
                       BKN060=
201407232322 TAF KBFI 232322Z 2400/2424 16008KT P6SM -RA SCT020 OVC070
                      TEMPO 2400/2404 5SM -RA SCT012 BKN020 OVC050
                       FM240500 17007G15KT P6SM VCSH SCT020 OVC050
                       FM241100 16006G16KT P6SM VCSH OVC020 FM242100
                       18007KT P6SM SCT030 OVC050=
201407232155 TAF AMD KBFI 232155Z 2322/2418 16008KT P6SM -RA FEW030 OVC070
                      TEMPO 2322/2402 -SHRA BKN030 OVC050 FM240300
                       20008KT P6SM VCSH SCT020 BKN030=
201407231728 TAF KBFI 231728Z 2318/2418 21006KT P6SM -RA SCT008 BKN017 OVC045
                       TEMPO 2318/2321 4SM -RA BR BKN007 OVC040
                       FM232100 22007KT P6SM -SHRA VCTS SCT020
                       BKN030CB OVC050 FM240300 20008KT P6SM VCSH
                       SCT020 BKN030=
201407231350 TAF AMD KBFI 231350Z 2314/2412 VRB03KT P6SM -TSRA BKN040CB OVC060
                       TEMPO 2314/2315 2SM TSRA OVC040CB FM231600
                       VRB03KT P6SM -SHRA BKN040 BKN060 FM231900
                       19008KT P6SM -SHRA BKN025 OVC040 FM240300
                       19012KT P6SM -SHRA SCT020 BKN030 OVC045=
201407231224 TAF AMD KBFI 231224Z 2312/2412 VRB03KT P6SM -SHRA VCTS BKN060CB
                       BKN200
                      TEMPO 2312/2314 5SM -TSRA OVC045CB FM231400
                       VRB03KT P6SM -SHRA SCT040 BKN070 OVC120
                       FM231900 19008KT P6SM -SHRA BKN025 OVC040
                       FM240300 19012KT P6SM -SHRA SCT020 BKN030
                       OVC045=
201407231218 TAF AMD KBFI 231218Z 2312/2412 VRB03KT P6SM -SHRA VCTS BKN060CB
                       BKN200 FM231500 VRB03KT P6SM -SHRA SCT040
                       BKN070 OVC120 FM231900 19008KT P6SM -SHRA
                       BKN025 OVC040 FM240300 19012KT P6SM -SHRA
                       SCT020 BKN030 OVC045=
201407231132 TAF KBFI 231132Z 2312/2412 VRB03KT P6SM -SHRA BKN080 BKN200 FM231400
                       VRB03KT P6SM -SHRA SCT040 BKN070 OVC120
                       FM231900 19008KT P6SM -SHRA BKN025 OVC040
                       FM240300 19012KT P6SM -SHRA SCT020 BKN030
                       OVC045=
201407230538 TAF KBFI 230538Z 2306/2406 VRB03KT P6SM SCT070 BKN200 FM230900
                       VRB03KT P6SM BKN100 BKN200 FM231400 VRB03KT
                       P6SM -SHRA SCT040 OVC070 FM231700 19008KT
                       P6SM -SHRA BKN020 OVC035 FM240300 19012KT
                       P6SM -SHRA SCT020 BKN030 OVC045=
201407230302 TAF AMD KBFI 230302Z 2303/2324 VRB03KT P6SM SCT070 BKN200 FM230700
                       VRB03KT P6SM SCT040 OVC070 FM231700 20009KT
                       P6SM -SHRA BKN015 OVC030=
201407222320 TAF KBFI 222320Z 2300/2324 29006KT P6SM BKN045 BKN100 FM230600
                       VRB03KT P6SM BKN040 OVC070 FM231700 20009KT
                       P6SM -SHRA BKN015 OVC030=
201407221720 TAF KBFI 221720Z 2218/2318 VRB03KT P6SM SCT030 BKN080 FM222100
                       29006KT P6SM BKN045 BKN100 FM230600 VRB03KT
                       P6SM BKN040 OVC070 FM231700 20008KT P6SM
                       -SHRA BKN015 OVC030=
201407221128 TAF KBFI 221128Z 2212/2312 VRB03KT P6SM BKN100 BKN200 FM222100
                       29006KT P6SM BKN100 BKN200 FM230600 VRB03KT
                       P6SM BKN050 OVC070=
201407220528 TAF KBFI 220528Z 2206/2306 VRB03KT P6SM SCT250 FM221800 18006KT
                       P6SM SCT120 BKN200 FM222300 29006KT P6SM
                       BKN120 BKN200=
201407212320 TAF KBFI 212320Z 2200/2224 VRB03KT P6SM SCT050 FM220300 29006KT
                       P6SM SCT050 FM220700 VRB03KT P6SM BKN045
                       FM221900 28005KT P6SM SCT050=
201407211720 TAF KBFI 211720Z 2118/2218 VRB03KT P6SM BKN035 FM211900 VRB03KT
                       P6SM SCT050 FM220300 29006KT P6SM SCT050
                       FM220700 VRB03KT P6SM BKN045=
201407211500 TAF AMD KBFI 211500Z 2115/2212 VRB03KT P6SM BKN030 FM211900 VRB03KT
                       P6SM BKN050 FM212200 29006KT P6SM SCT050
                       FM220700 VRB03KT P6SM BKN045=
201407211134 TAF KBFI 211134Z 2112/2212 VRB03KT P6SM OVC040 FM211900 VRB03KT
                       P6SM BKN050 FM212200 29006KT P6SM SCT050
                       FM220700 VRB03KT P6SM BKN045=
201407210534 TAF KBFI 210534Z 2106/2206 VRB03KT P6SM BKN025 OVC040 FM211900
                       VRB03KT P6SM SCT030 BKN050 FM212200 29006KT
                       P6SM SCT040 SCT060=
201407210302 TAF AMD KBFI 210302Z 2103/2124 30006KT P6SM OVC060 FM210700 VRB03KT
                       P6SM BKN045 OVC060 FM211100 VRB03KT P6SM
                       BKN023 OVC035 FM211900 23005KT P6SM SCT030
                       BKN050 FM212100 29005KT P6SM SCT040 SCT060=
201407202320 TAF KBFI 202320Z 2100/2124 21005KT P6SM OVC040 FM211100 VRB03KT
                       P6SM BKN023 OVC035 FM211900 23005KT P6SM
                       SCT030 BKN050 FM212100 29005KT P6SM SCT040
                       SCT060=
201407201723 TAF KBFI 201723Z 2018/2118 VRB03KT P6SM SCT025 BKN045
                      TEMPO 2018/2020 BKN025 OVC045 FM202100 24006KT
                       P6SM SCT035 BKN060 FM210000 29006KT P6SM
                       SCT035 BKN060 FM211100 VRB03KT P6SM BKN030=
201407201127 TAF KBFI 201127Z 2012/2112 VRB03KT P6SM BKN021 OVC030 FM201900
                       20006KT P6SM SCT020 BKN030 BKN045 FM202100
                       24006KT P6SM SCT035 BKN060 FM210000 29006KT
                       P6SM SCT035 BKN060 FM211100 VRB03KT P6SM
                       BKN030=
201407200536 TAF KBFI 200536Z 2006/2106 20006KT P6SM OVC018 FM201800 20006KT
                       P6SM SCT020 BKN030 BKN045 FM202100 24006KT
                       P6SM SCT035 BKN060 FM210000 29006KT P6SM
                       SCT035 BKN060=
201407192320 TAF KBFI 192320Z 2000/2024 23012G20KT P6SM FEW025 SCT040 BKN200
                       TEMPO 2000/2004 SCT020 BKN040 OVC200 FM200400
                       21012KT P6SM FEW020 BKN040 FM200800 18005KT
                       P6SM SCT015 OVC023 FM201200 17006KT P6SM
                       BKN015 OVC023 FM201800 22005KT P6SM BKN028
                       BKN045 FM202100 27006KT P6SM SCT040 BKN060=
201407192101 TAF AMD KBFI 192101Z 1921/2018 18013G20KT P6SM SCT035 SCT200
                      TEMPO 1922/2002 BKN035 BKN200 FM200200 19010KT
                       P6SM SCT015 OVC025 FM200800 19006KT P6SM
                       BKN015 OVC025=
201407191720 TAF KBFI 191720Z 1918/2018 18010KT P6SM OVC015 FM192000 20012G18KT
                       P6SM BKN018 OVC025 FM192300 19010KT P6SM
                       SCT015 OVC025 FM200800 19006KT P6SM BKN015
                       OVC025=
201407191138 TAF KBFI 191138Z 1912/2012 17006KT P6SM OVC012 FM191800 19012G18KT
                       P6SM SCT012 BKN018 OVC025 FM192300 19010KT
                       P6SM SCT015 OVC025 FM200800 19006KT P6SM
                       BKN015 OVC025=
201407190908 TAF AMD KBFI 190908Z 1909/2006 19006KT P6SM OVC012 FM192000 19012KT
                       P6SM SCT018 BKN028 OVC045 FM200100 21012KT
                       P6SM SCT025 BKN040 OVC060=
201407190526 TAF KBFI 190526Z 1906/2006 VRB03KT P6SM BKN070 BKN200 FM191400
                       19006KT P6SM BKN030 OVC060 FM191800 19012KT
                       P6SM BKN040 BKN070=
201407182324 TAF KBFI 182324Z 1900/1924 23006KT P6SM BKN250 FM190200 27005KT
                       P6SM SCT090 BKN250 FM190700 17005KT P6SM
                       BKN060 OVC150 FM191200 16008KT P6SM BKN028
                       OVC060 FM191800 19014G20KT P6SM BKN040 BKN090=
201407181722 TAF KBFI 181722Z 1818/1918 21008KT P6SM SCT015 BKN250 FM190300
                       27005KT P6SM BKN080 OVC200 FM190700 17005KT
                       P6SM BKN060 OVC150 FM191200 16008KT P6SM
                       BKN018 OVC060=
201407181329 TAF AMD KBFI 181329Z 1813/1912 18004KT P6SM SCT011 SCT200
                      TEMPO 1814/1817 BKN011 FM181700 20006KT P6SM
                       BKN250 FM190300 17005KT P6SM BKN080 OVC200
                       FM190800 17005KT P6SM BKN018 OVC060=
201407181120 TAF KBFI 181120Z 1812/1912 18004KT P6SM SCT011
                      TEMPO 1813/1814 OVC011 FM181400 18005KT P6SM
                       OVC011 FM181700 20006KT P6SM BKN250 FM190300
                       17005KT P6SM BKN080 OVC200 FM190800 17005KT
                       P6SM BKN018 OVC060=
201407180520 TAF KBFI 180520Z 1806/1906 17005KT P6SM BKN250 FM181200 17004KT
                       P6SM OVC011 FM181800 20006KT P6SM BKN250
                       FM190300 17005KT P6SM BKN080 OVC200=
201407172330 TAF KBFI 172330Z 1800/1824 00000KT P6SM SCT250 FM180600 17005KT
                       P6SM BKN250 FM181200 17004KT P6SM OVC010
                       FM181800 25005KT P6SM BKN250=
201407172000 TAF AMD KBFI 172000Z 1720/1818 22006KT P6SM SCT028 FM172100 20007KT
                       P6SM SCT030 FM180400 18004KT P6SM FEW250
                       FM181000 17004KT P6SM OVC010=
201407171810 TAF KBFI 171810Z 1718/1818 19006KT P6SM OVC018 FM171900 18007KT
                       P6SM BKN023 FM172100 20007KT P6SM SCT030
                       FM180400 18004KT P6SM FEW250 FM181000 17004KT
                       P6SM OVC010=
201407171725 TAF KBFI 171725Z 1718/1818 19008G18KT P6SM OVC018 FM171900 18007KT
                       P6SM BKN023 FM172100 20007KT P6SM SCT030
                       FM180400 18004KT P6SM FEW250 FM181000 17004KT
                       P6SM OVC010=
201407171132 TAF KBFI 171132Z 1712/1812 18005KT P6SM OVC015 FM171800 18007KT
                       P6SM BKN028 FM172100 20007KT P6SM SCT040
                       SCT250 FM180400 18005KT P6SM SCT250 FM181000
                       17004KT P6SM OVC015=
201407170948 TAF AMD KBFI 170948Z 1710/1806 17006KT P6SM SKC
                      TEMPO 1710/1711 BKN012 FM171100 17005KT P6SM
                       OVC012 FM171800 18007KT P6SM BKN028 FM172100
                       19007KT P6SM SCT040 SCT250=
201407170858 TAF AMD KBFI 170858Z 1709/1806 17003KT P6SM SKC
                      TEMPO 1711/1712 BKN011 FM171200 17005KT P6SM
                       OVC011 FM171800 18007KT P6SM BKN028 FM172100
                       19007KT P6SM SCT040 SCT250=
201407170522 TAF KBFI 170522Z 1706/1806 17003KT P6SM SKC FM171200 17005KT P6SM
                       OVC011 FM171800 18007KT P6SM BKN028 FM172100
                       19007KT P6SM SCT040 SCT250=
201407162325 TAF KBFI 162325Z 1700/1724 33006KT P6SM SKC FM170500 17003KT P6SM
                       SKC FM171200 17005KT P6SM OVC006 FM171900
                       22007KT P6SM SCT250=
201407161725 TAF KBFI 161725Z 1618/1718 34004KT P6SM SKC FM170500 17003KT P6SM
                       SKC FM171200 17005KT P6SM OVC006=
201407161120 TAF KBFI 161120Z 1612/1712 VRB03KT P6SM SKC FM161300 VRB03KT P6SM
                       FEW008 FM161700 26006KT P6SM SKC FM161900
                       28007KT P6SM SKC FM170400 22005KT P6SM SKC
                       FM171100 20004KT P6SM OVC006=
201407160520 TAF KBFI 160520Z 1606/1706 00000KT P6SM SKC FM161400 17003KT P6SM
                       SCT007 FM161700 18005KT P6SM SKC FM161900
                       29005KT P6SM SKC FM170400 VRB03KT P6SM SKC=
201407152330 TAF KBFI 152330Z 1600/1624 35007KT P6SM SKC FM160600 00000KT P6SM
                       SKC FM161200 17003KT P6SM SCT007 FM161800
                       28004KT P6SM SKC=
201407151805 TAF AMD KBFI 151805Z 1518/1618 VRB04KT P6SM SKC FM151900 30006KT
                       P6SM SKC FM160600 00000KT P6SM SKC FM161200
                       17003KT P6SM SCT007 FM161700 18003KT P6SM
                       SKC=
201407151720 TAF KBFI 151720Z 1518/1618 00000KT P6SM FEW008 BKN012
                      TEMPO 1518/1519 BKN012 FM151900 30006KT P6SM
                       SKC FM160600 00000KT P6SM SKC FM161200 17003KT
                       P6SM SCT007 FM161700 18003KT P6SM SKC=
201407151610 TAF AMD KBFI 151610Z 1516/1612 31004KT P6SM BKN008 FM151800 32007KT
                       P6SM SKC FM160400 VRB04KT P6SM SKC=
201407151120 TAF KBFI 151120Z 1512/1612 VRB03KT P6SM SCT006
                      TEMPO 1512/1516 5SM BR OVC006 FM151600 VRB03KT
                       P6SM BKN010 FM151800 32007KT P6SM SKC FM160400
                       VRB04KT P6SM SKC=
201407150906 TAF AMD KBFI 150906Z 1509/1606 VRB03KT P6SM SKC FM151200 VRB03KT
                       P6SM SCT006
                      TEMPO 1513/1516 5SM BR OVC006 FM151800 32007KT
                       P6SM SKC FM160400 VRB04KT P6SM SKC=
201407150520 TAF KBFI 150520Z 1506/1606 VRB03KT P6SM SKC
                      TEMPO 1514/1516 FEW005 FM152000 32007KT P6SM
                       SKC FM160400 VRB04KT P6SM SKC=
201407142320 TAF KBFI 142320Z 1500/1524 33005KT P6SM SKC FM150400 VRB03KT P6SM
                       SKC FM152000 33007KT P6SM SKC=
201407141722 TAF KBFI 141722Z 1418/1518 23008KT P6SM SCT010 FM142200 30007KT
                       P6SM SKC FM150500 VRB03KT P6SM SKC=
201407141502 TAF AMD KBFI 141502Z 1415/1512 17008KT P6SM SCT012
                      TEMPO 1415/1417 BKN012 FM141900 VRB04KT P6SM
                       SKC=
201407141123 TAF KBFI 141123Z 1412/1512 16005KT P6SM SCT100 FM141900 33006KT
                       P6SM SKC FM150900 VRB03KT P6SM SCT017=
201407140540 TAF KBFI 140540Z 1406/1506 VRB03KT P6SM BKN140 BKN200 FM140800
                       21008KT P6SM BKN120 BKN200 FM141100 16006KT
                       P6SM SCT005 SCT100
                      TEMPO 1412/1416 P6SM SCT007 BKN015 FM141900
                       33006KT P6SM SKC=
201407140250 TAF AMD KBFI 140250Z 1403/1424 VRB05KT P6SM -SHRA VCTS BKN060CB
                       OVC120 FM140500 VRB05KT P6SM BKN140 BKN200
                       FM140800 21008KT P6SM BKN120 BKN200 FM141100
                       16006KT P6SM SCT005 SCT100
                      TEMPO 1412/1416 P6SM SCT007 BKN015 FM141700
                       33006KT P6SM SKC=
201407132320 TAF KBFI 132320Z 1400/1424 VRB05KT P6SM SCT120 BKN200 FM140400
                       VRB06KT P6SM SCT060 BKN120 BKN200
                      TEMPO 1404/1408 -TSRA BKN060CB OVC120 FM140800
                       21008KT P6SM BKN120 BKN200 FM141100 16006KT
                       P6SM SCT005 SCT100
                      TEMPO 1412/1416 5SM BR BKN008 FM141700 33006KT
                       P6SM SKC=
201407131720 TAF KBFI 131720Z 1318/1418 34008KT P6SM SCT150 FM140000 VRB06KT
                       P6SM VCTS BKN060CB BKN120 FM140400 19010G20KT
                       P6SM SCT100 FM141100 17006KT P6SM SCT010
                       SCT100
                      TEMPO 1412/1416 5SM BR BKN008 FM141700 33006KT
                       P6SM SKC=
201407131120 TAF KBFI 131120Z 1312/1412 VRB04KT P6SM SKC FM132000 32007KT P6SM
                       BKN100 FM140600 16006G11KT P6SM SCT100=
201407130531 TAF KBFI 130531Z 1306/1406 VRB04KT P6SM SKC FM132000 32007KT P6SM
                       BKN100=
201407122320 TAF KBFI 122320Z 1300/1324 32007KT P6SM FEW150 FM130500 VRB04KT
                       P6SM SKC FM132000 32007KT P6SM BKN150=
201407121720 TAF KBFI 121720Z 1218/1318 VRB03KT P6SM SCT200 FM122000 30005KT
                       P6SM SKC FM130400 VRB03KT P6SM SKC=
201407121120 TAF KBFI 121120Z 1212/1312 VRB03KT P6SM SCT200 FM122000 30005KT
                       P6SM SKC FM130400 VRB03KT P6SM SKC=
201407120540 TAF KBFI 120540Z 1206/1306 VRB03KT P6SM SCT200 FM122000 30005KT
                       P6SM SKC FM130400 VRB03KT P6SM SKC=
201407112320 TAF KBFI 112320Z 1200/1224 32007KT P6SM SCT200 FM120400 VRB03KT
                       P6SM SKC FM122000 32007KT P6SM SCT200=
201407111720 TAF KBFI 111720Z 1118/1218 VRB03KT P6SM SKC FM112000 32007KT P6SM
                       SKC FM120400 VRB03KT P6SM SKC=
201407111122 TAF KBFI 111122Z 1112/1212 VRB03KT P6SM SKC FM112000 32007KT P6SM
                       SKC FM120400 VRB03KT P6SM SKC=
201407110533 TAF KBFI 110533Z 1106/1206 VRB03KT P6SM SKC FM112000 32007KT P6SM
                       SKC FM120400 VRB03KT P6SM SKC=
201407102320 TAF KBFI 102320Z 1100/1124 32008KT P6SM SKC FM110400 VRB04KT P6SM
                       SKC FM112100 32008KT P6SM SKC=
201407101720 TAF KBFI 101720Z 1018/1118 VRB04KT P6SM SKC FM102200 34010KT P6SM
                       SKC FM110400 VRB04KT P6SM SKC=
201407101120 TAF KBFI 101120Z 1012/1112 16004KT P6SM SKC
                      TEMPO 1013/1017 SCT010 FM101800 31006KT P6SM
                       SKC=
201407100531 TAF KBFI 100531Z 1006/1106 29004KT P6SM SKC
                      TEMPO 1012/1016 SCT014=
201407092329 TAF KBFI 092329Z 1000/1024 29004KT P6SM SKC
                      TEMPO 1014/1017 BKN014=
201407091741 TAF KBFI 091741Z 0918/1018 00000KT P6SM SKC FM092100 29006KT P6SM
                       SKC
                      TEMPO 1014/1017 BKN014=
201407091120 TAF KBFI 091120Z 0912/1012 00000KT P6SM SKC FM091400 24003KT P6SM
                       SCT010 FM091800 26005KT P6SM SKC FM092200
                       29005KT P6SM SKC FM100300 VRB03KT P6SM SKC=
201407090520 TAF KBFI 090520Z 0906/1006 VRB03KT P6SM SKC FM091400 24003KT P6SM
                       SCT014 FM091800 26005KT P6SM SKC FM092200
                       29005KT P6SM SKC FM100300 VRB03KT P6SM SKC=
201407090306 TAF AMD KBFI 090306Z 0903/0924 30005KT P6SM SKC FM090600 VRB03KT
                       P6SM SKC FM091400 24003KT P6SM SCT025 FM091800
                       29005KT P6SM SKC=
201407082335 TAF KBFI 082335Z 0900/0924 33008KT P6SM SKC FM091400 24003KT P6SM
                       OVC025 FM091800 29005KT P6SM SKC=
201407081730 TAF KBFI 081730Z 0818/0918 29004KT P6SM SKC FM091500 19004KT P6SM
                       OVC020 FM091700 20005KT P6SM SKC=
201407081305 TAF AMD KBFI 081305Z 0813/0912 31004KT P6SM SKC
                      TEMPO 0814/0816 FEW010 FM081700 30005KT P6SM
                       FEW025 FM081900 30009KT P6SM SKC FM090400
                       00000KT P6SM SKC=
201407081120 TAF KBFI 081120Z 0812/0912 00000KT P6SM SKC FM081300 00000KT P6SM
                       SCT010
                      TEMPO 0813/0816 BKN010 FM081700 30005KT P6SM
                       FEW025 FM081900 30009KT P6SM SKC FM090400
                       00000KT P6SM SKC=
201407080520 TAF KBFI 080520Z 0806/0906 31003KT P6SM SKC FM081100 00000KT P6SM
                       BKN010 FM081700 30005KT P6SM FEW025 FM081900
                       30009KT P6SM SKC FM090400 VRB03KT P6SM SKC=
201407072326 TAF KBFI 072326Z 0800/0824 31010KT P6SM SKC FM080500 33003KT P6SM
                       SKC FM081100 00000KT P6SM BKN008 FM081700
                       30005KT P6SM SCT012 FM081900 30008KT P6SM
                       SKC=
201407071729 TAF KBFI 071729Z 0718/0818 31005KT P6SM SCT015 SCT025
                      TEMPO 0718/0719 SCT010 BKN015 FM072000 32010KT
                       P6SM SKC FM080500 33003KT P6SM SKC FM081100
                       00000KT P6SM BKN008 FM081700 30005KT P6SM
                       SCT012=
201407071328 TAF AMD KBFI 071328Z 0713/0812 VRB03KT P6SM VCFG OVC011 FM071400
                       VRB03KT P6SM VCFG OVC008 FM071800 35006KT
                       P6SM SCT030 FM072000 30010KT P6SM FEW040
                       FM080400 32003KT P6SM SKC FM081100 00000KT
                       P6SM BKN015=
201407071142 TAF AMD KBFI 071142Z 0712/0812 36005KT P6SM OVC011 FM071300 36005KT
                       P6SM VCFG OVC007 FM071800 35006KT P6SM SCT030
                       FM072000 30010KT P6SM FEW040 FM080400 32003KT
                       P6SM SKC FM081100 00000KT P6SM BKN015=
201407071120 TAF KBFI 071120Z 0712/0812 00000KT P6SM BKN015 FM071800 35006KT
                       P6SM SCT030 FM072000 30010KT P6SM FEW040
                       FM080400 32003KT P6SM SKC FM081100 00000KT
                       P6SM BKN015=
201407070524 TAF KBFI 070524Z 0706/0806 32003KT P6SM SCT070 FM071100 00000KT
                       P6SM BKN016 FM071800 35006KT P6SM SCT030
                       FM072000 30010KT P6SM FEW040 FM080400 32003KT
                       P6SM SKC=
201407070305 TAF AMD KBFI 070305Z 0703/0724 31007KT P6SM FEW070 FM070500 00000KT
                       P6SM SCT070 FM071100 00000KT P6SM BKN020
                       FM071800 35006KT P6SM SCT030=
201407062324 TAF KBFI 062324Z 0700/0724 34007KT P6SM SCT050 FM070400 00000KT
                       P6SM BKN050 FM071100 00000KT P6SM BKN020
                       FM071800 35006KT P6SM SCT030=
201407061720 TAF KBFI 061720Z 0618/0718 18004KT P6SM FEW050 FEW120 FM062100
                       26006KT P6SM FEW050 FM062300 33007KT P6SM
                       SCT050 FM070600 00000KT P6SM BKN050 FM071200
                       00000KT P6SM SCT020 BKN050 FM071700 30006KT
                       P6SM SCT030=
201407061340 TAF AMD KBFI 061340Z 0614/0712 00000KT P6SM BKN070 BKN110 FM061700
                       18003KT P6SM SCT120 FM062200 32005KT P6SM
                       SCT120 FM070400 VRB03KT P6SM SCT120 FM071000
                       VRB03KT P6SM SCT020 BKN030 BKN120=
201407061120 TAF KBFI 061120Z 0612/0712 00000KT P6SM BKN100 FM061700 18003KT
                       P6SM SCT120 FM062200 32005KT P6SM SCT120
                       FM070400 VRB03KT P6SM SCT120 FM071000 VRB03KT
                       P6SM SCT020 BKN030 BKN120=
201407060527 TAF KBFI 060527Z 0606/0706 30003KT P6SM OVC090 FM060900 00000KT
                       P6SM OVC070 FM061800 18003KT P6SM SCT050
                       BKN080 FM062300 32005KT P6SM SCT080=
201407052324 TAF KBFI 052324Z 0600/0624 35005KT P6SM BKN060 OVC100 FM060400
                       00000KT P6SM BKN070 OVC100 FM060900 00000KT
                       P6SM OVC050 FM061800 18003KT P6SM SCT050
                       BKN080=
201407051720 TAF KBFI 051720Z 0518/0618 VRB04KT P6SM SCT070 BKN120
                      TEMPO 0518/0520 5SM HZ FM060000 32005KT P6SM
                       BKN070 OVC120 FM060300 VRB03KT P6SM BKN050
                       OVC120=
201407051508 TAF AMD KBFI 051508Z 0515/0612 14006KT 6SM HZ SCT070 BKN120 FM051800
                       VRB03KT P6SM BKN070 OVC120 FM052100 32005KT
                       P6SM BKN050 OVC070 FM060300 VRB03KT P6SM
                       BKN050 OVC070=
201407051227 TAF AMD KBFI 051227Z 0512/0612 00000KT P6SM VCFG OVC080
                      TEMPO 0513/0517 6SM -RA BR FM051800 VRB03KT
                       P6SM OVC070 FM052100 32005KT P6SM BKN050
                       OVC070 FM060300 VRB03KT P6SM BKN050 OVC070=
201407051120 TAF KBFI 051120Z 0512/0612 00000KT P6SM OVC090 FM051500 VRB03KT
                       P6SM OVC070 FM052100 32005KT P6SM BKN050
                       OVC070 FM060300 VRB03KT P6SM BKN050 OVC070=
201407050531 TAF KBFI 050531Z 0506/0606 VRB03KT P6SM BKN100 BKN200 FM051500
                       VRB03KT P6SM BKN070 OVC100 FM052100 32005KT
                       P6SM BKN050 OVC070 FM060300 VRB03KT P6SM
                       BKN050 OVC070=
201407050102 TAF AMD KBFI 050102Z 0501/0524 33009KT P6SM SCT045 OVC120
                      TEMPO 0501/0504 -SHRA BKN045 OVC120 FM050400
                       VRB03KT P6SM BKN120 FM051500 VRB03KT P6SM
                       BKN070 OVC100 FM052100 30005KT P6SM BKN050
                       OVC070=
201407042322 TAF KBFI 042322Z 0500/0524 34006KT P6SM OVC150 FM050200 VRB03KT
                       P6SM BKN100 OVC150 FM051500 VRB03KT P6SM
                       BKN070 OVC100 FM052100 30005KT P6SM BKN050
                       OVC070=
201407041720 TAF KBFI 041720Z 0418/0518 31007KT P6SM SCT150 FM050200 33004KT
                       P6SM BKN100 BKN150 FM051200 00000KT P6SM
                       BKN050 OVC080=
201407041340 TAF AMD KBFI 041340Z 0414/0512 00000KT P6SM SCT050 SCT250 FM042000
                       28005KT P6SM SCT050 BKN250 FM050200 31006KT
                       P6SM SCT050 BKN120=
201407041120 TAF KBFI 041120Z 0412/0512 00000KT P6SM OVC050 FM042000 28005KT
                       P6SM SCT050 BKN250 FM050200 31006KT P6SM
                       SCT050 BKN120=
201407040520 TAF KBFI 040520Z 0406/0506 36004KT P6SM SCT050 BKN220 FM041000
                       VRB03KT P6SM SCT025 OVC050
                      TEMPO 0412/0416 BKN025 OVC050 FM042000 28005KT
                       P6SM SCT050 BKN250 FM050200 31006KT P6SM
                       SCT050 BKN120=
201407032320 TAF KBFI 032320Z 0400/0424 33005KT P6SM OVC050 FM040600 VRB03KT
                       P6SM OVC040 FM041800 31005KT P6SM SCT050=
201407031741 TAF KBFI 031741Z 0318/0418 15007KT P6SM BKN030 OVC045 FM032100
                       VRB04KT P6SM OVC045 FM032300 33005KT P6SM
                       BKN050 FM041000 VRB03KT P6SM OVC040=
201407031120 TAF KBFI 031120Z 0312/0412 17005KT P6SM OVC030 FM031800 20005KT
                       P6SM BKN035 BKN250 FM032000 29005KT P6SM
                       SCT045 SCT250 FM040100 33006KT P6SM FEW050
                       BKN250 FM041000 VRB03KT P6SM OVC030=
201407030809 TAF AMD KBFI 030809Z 0308/0406 15003KT P6SM OVC028 FM031100 18005KT
                       P6SM OVC022 FM031800 22005KT P6SM BKN028
                       BKN250 FM032000 29005KT P6SM SCT045 SCT250
                       FM040100 33006KT P6SM FEW050 BKN250=
201407030520 TAF KBFI 030520Z 0306/0406 17005KT P6SM FEW030 SCT250 FM031100
                       18005KT P6SM OVC020 FM031300 18004KT P6SM
                       OVC014 FM032000 29005KT P6SM SCT045 SCT250
                       FM040100 33006KT P6SM FEW050 BKN250=
201407022348 TAF KBFI 022348Z 0300/0324 20007KT P6SM BKN200 FM030200 29005KT
                       P6SM SCT200 FM031000 18005KT P6SM OVC020
                       FM031200 18004KT P6SM OVC014 FM032000 29005KT
                       P6SM SCT045=
201407021737 TAF KBFI 021737Z 0218/0318 20008KT P6SM FEW020 BKN200 FM022300
                       30006KT P6SM SCT050 FM031000 18005KT P6SM
                       OVC020=
201407021120 TAF KBFI 021120Z 0212/0312 17006KT P6SM BKN200 FM021500 19010KT
                       P6SM FEW020 BKN200 FM022000 23008KT P6SM
                       FEW050 SCT100 FM030200 29006KT P6SM SCT050
                       BKN100 FM031100 19005KT P6SM OVC015=
201407020520 TAF KBFI 020520Z 0206/0306 VRB03KT P6SM FEW050 SCT250 FM021100
                       17008KT P6SM SCT250 FM021500 19010KT P6SM
                       FEW020 SCT050 FM022000 23008KT P6SM FEW050
                       SCT100 FM030200 29006KT P6SM SCT050 BKN100=
201407012320 TAF KBFI 012320Z 0200/0224 31008KT P6SM SCT250 FM020400 VRB03KT
                       P6SM SCT250 FM021500 16004KT P6SM FEW020
                       SCT250 FM021800 19005KT P6SM FEW025 SCT050=
201407011720 TAF KBFI 011720Z 0118/0218 30005KT P6SM SCT250 FM012000 31008KT
                       P6SM SCT250 FM020400 VRB03KT P6SM SCT250
                       FM021500 16004KT P6SM FEW020 SCT250=
201407011120 TAF KBFI 011120Z 0112/0212 36004KT P6SM SKC FM012000 31008KT P6SM
                       SCT250 FM020400 VRB03KT P6SM SCT250=
201407010523 TAF KBFI 010523Z 0106/0206 VRB03KT P6SM FEW250 FM012000 32008KT
                       P6SM SCT250 FM020300 VRB04KT P6SM SCT250=