##########################################################
# Query made at 02/17/2025 02:56:30 UTC
# Time interval: from 11/01/2015 00:00  to 11/30/2015 23:59  UTC
##########################################################

##########################################################
# KBFI, Seattle, Seattle Boeing Field (United States)
# WMO index: -----. WIGOS ID: Unknown
# Latitude 47-32-45N. Longitude 122-18-49W. Altitude 5 m.
##########################################################

###################################
#  METAR/SPECI from KBFI
###################################
201511302353 METAR KBFI 302353Z 14004KT 9SM OVC044 06/01 A3012 RMK AO2 SLP199 T00610011 10067 21006 53012=
201511302253 METAR KBFI 302253Z 15007KT 10SM OVC050 07/M01 A3010 RMK AO2 SLP194 T00671011=
201511302153 METAR KBFI 302153Z VRB05KT 10SM OVC055 06/01 A3009 RMK AO2 SLP189 T00610006=
201511302053 METAR KBFI 302053Z 00000KT 10SM SCT150 06/M03 A3009 RMK AO2 SLP188 T00611028 56016=
201511301953 METAR KBFI 301953Z 00000KT 10SM CLR 06/M02 A3010 RMK AO2 SLP191 T00561017=
201511301853 METAR KBFI 301853Z 16003KT 9SM FEW150 01/M02 A3012 RMK AO2 SLP199 T00111022=
201511301753 METAR KBFI 301753Z 15005KT 6SM BR SCT002 M01/M03 A3014 RMK AO2 SLP204 BCVCFG NW-N SE 60000 T10061028 10000 21017 53002=
201511301744 SPECI KBFI 301744Z 14005KT 6SM BR SCT002 M01/M03 A3014 RMK AO2 BCVCFG NW-N SE=
201511301711 SPECI KBFI 301711Z 14003KT 2 1/2SM BR BKN002 M01/M03 A3014 RMK AO2=
201511301702 SPECI KBFI 301702Z 15004KT 1SM BR VV002 M01/M03 A3014 RMK AO2=
201511301653 METAR KBFI 301653Z 16004KT 1/4SM FZFG VV002 M02/M03 A3013 RMK AO2 SLP204 T10171033=
201511301643 SPECI KBFI 301643Z 14004KT 1/4SM FZFG VV002 M02/M03 A3013 RMK AO2=
201511301553 METAR KBFI 301553Z 00000KT M1/4SM FZFG VV001 M01/M03 A3013 RMK AO2 SLP203 T10111028=
201511301551 SPECI KBFI 301551Z 15003KT M1/4SM FZFG VV001 M01/M03 A3013 RMK AO2=
201511301453 METAR KBFI 301453Z 00000KT 1/4SM FG VV002 00/M02 A3013 RMK AO2 SLP201 60000 T00001017 58005=
201511301353 METAR KBFI 301353Z 00000KT 1/4SM FG VV002 00/M02 A3013 RMK AO2 SNB16E41 SLP204 P0000 T00001017 $=
201511301314 SPECI KBFI 301314Z 00000KT 3/4SM BR OVC003 M01/M02 A3014 RMK AO2 $=
201511301253 METAR KBFI 301253Z 14003KT 3/4SM BR OVC005 M01/M02 A3014 RMK AO2 SLP205 T10061022 $=
201511301241 SPECI KBFI 301241Z 00000KT 3/4SM BR OVC005 M01/M03 A3014 RMK AO2 $=
201511301153 METAR KBFI 301153Z 00000KT 1/4SM FZFG VV001 M01/M03 A3014 RMK AO2 SLP207 T10061028 10017 21011 56008 $=
201511301055 SPECI KBFI 301055Z 00000KT 1/2SM FZFG VV002 M01/M03 A3015 RMK AO2 $=
201511301053 METAR KBFI 301053Z 00000KT 1/2SM FZFG SCT002 M01/M03 A3015 RMK AO2 SLP208 T10111033 $=
201511301018 SPECI KBFI 301018Z 00000KT 2 1/2SM BR SCT002 M01/M03 A3016 RMK AO2 $=
201511300953 METAR KBFI 300953Z 14003KT 1/2SM FZFG OVC002 M01/M03 A3016 RMK AO2 SLP212 T10111028=
201511300929 SPECI KBFI 300929Z 14005KT 1/2SM FZFG VV001 M01/M03 A3016 RMK AO2=
201511300853 METAR KBFI 300853Z 15007KT 1/4SM FG VV001 00/M02 A3017 RMK AO2 SLP214 T00001017 50001=
201511300753 METAR KBFI 300753Z 14006KT 1/4SM FG VV001 01/M01 A3018 RMK AO2 SLP218 T00061011 400391022=
201511300653 METAR KBFI 300653Z 00000KT 1/4SM FG VV001 01/M01 A3016 RMK AO2 SLP214 T00111006=
201511300553 METAR KBFI 300553Z 00000KT 1/4SM FG VV001 01/M01 A3016 RMK AO2 SLP213 T00111006 10022 20006 56003=
201511300536 SPECI KBFI 300536Z 14003KT 1/4SM FG VV001 01/M01 A3016 RMK AO2=
201511300514 SPECI KBFI 300514Z 00000KT 1/4SM FG VV002 01/M01 A3016 RMK AO2=
201511300453 METAR KBFI 300453Z 17003KT 1/4SM FG VV001 01/M01 A3016 RMK AO2 SLP213 T00061011=
201511300353 METAR KBFI 300353Z 00000KT 1/4SM FG VV001 01/M01 A3017 RMK AO2 SLP215 T00061011=
201511300253 METAR KBFI 300253Z 00000KT 1/4SM FG VV001 01/M01 A3017 RMK AO2 SLP216 T00111011 58010=
201511300208 SPECI KBFI 300208Z 00000KT 1/4SM FG VV001 01/M01 A3018 RMK AO2=
201511300153 METAR KBFI 300153Z 00000KT 1/4SM FG VV002 01/M01 A3019 RMK AO2 SLP222 T00111006=
201511300134 SPECI KBFI 300134Z 06003KT 3/4SM BR OVC003 01/M01 A3019 RMK AO2=
201511300113 SPECI KBFI 300113Z 00000KT 1 1/2SM BR OVC005 02/M01 A3019 RMK AO2=
201511300053 METAR KBFI 300053Z 00000KT 3SM BR OVC005 02/M01 A3019 RMK AO2 SLP224 T00171006=
201511292353 METAR KBFI 292353Z 13004KT 2SM BR OVC005 02/M01 A3020 RMK AO2 SLP226 T00221006 10039 20017 56003=
201511292253 METAR KBFI 292253Z 00000KT 3SM BR OVC007 03/00 A3020 RMK AO2 SLP226 T00330000=
201511292153 METAR KBFI 292153Z 00000KT 2 1/2SM BR OVC006 04/01 A3021 RMK AO2 SLP228 T00390006=
201511292107 SPECI KBFI 292107Z 00000KT 2 1/2SM BR OVC006 03/01 A3021 RMK AO2=
201511292053 METAR KBFI 292053Z 00000KT 2 1/2SM HZ OVC004 03/00 A3021 RMK AO2 SLP229 T00330000 57010=
201511291953 METAR KBFI 291953Z 20003KT 2SM BR OVC004 02/01 A3022 RMK AO2 SLP231 T00220006=
201511291853 METAR KBFI 291853Z 00000KT 1 1/4SM BR OVC004 02/01 A3023 RMK AO2 SLP237 T00220006=
201511291814 SPECI KBFI 291814Z 00000KT 1SM BR OVC002 02/01 A3024 RMK AO2=
201511291753 METAR KBFI 291753Z 14003KT M1/4SM FG VV002 02/00 A3024 RMK AO2 SLP239 T00170000 10017 20000 50001=
201511291653 METAR KBFI 291653Z 00000KT M1/4SM FG VV002 01/M01 A3024 RMK AO2 SLP240 T00111006=
201511291553 METAR KBFI 291553Z 14003KT M1/4SM FG VV002 01/M01 A3024 RMK AO2 SLP238 T00111006=
201511291453 METAR KBFI 291453Z 00000KT 1/4SM FG VV002 01/M01 A3024 RMK AO2 SLP238 T00111006 53001=
201511291415 SPECI KBFI 291415Z 00000KT 1/2SM FG VV002 01/M01 A3024 RMK AO2=
201511291353 METAR KBFI 291353Z 00000KT 1 1/4SM BR OVC002 01/M01 A3023 RMK AO2 SLP237 T00061006=
201511291253 METAR KBFI 291253Z 14004KT 1 1/2SM BR OVC002 01/M01 A3024 RMK AO2 SLP238 T00061011=
201511291153 METAR KBFI 291153Z 00000KT 1/4SM FG VV001 00/M02 A3023 RMK AO2 SLP237 60000 T00001017 10000 21022 50001=
201511291053 METAR KBFI 291053Z 14003KT 1/4SM FG VV001 00/M02 A3024 RMK AO2 SLP238 T00001017=
201511290953 METAR KBFI 290953Z 14003KT 1/4SM FG VV001 00/M02 A3023 RMK AO2 SNB31E52 SLP237 P0000 T00001017=
201511290900 SPECI KBFI 290900Z 12003KT 1/4SM FG VV001 00/M02 A3023 RMK AO2=
201511290853 METAR KBFI 290853Z 15004KT 1SM BR VV001 M01/M03 A3023 RMK AO2 SLP236 60000 T10111033 56003=
201511290848 SPECI KBFI 290848Z 15004KT 1SM HZ VV001 M01/M04 A3023 RMK AO2=
201511290753 METAR KBFI 290753Z 13003KT 5SM HZ CLR M02/M04 A3023 RMK AO2 UPB05E23SNB07E20 SLP237 P0000 T10171044 400781039=
201511290653 METAR KBFI 290653Z 00000KT 6SM HZ CLR 00/M03 A3023 RMK AO2 SLP237 T00001033=
201511290553 METAR KBFI 290553Z 00000KT 10SM CLR 00/M04 A3024 RMK AO2 SLP240 T00001039 10078 21011 53006=
201511290453 METAR KBFI 290453Z 00000KT 8SM CLR 00/M03 A3024 RMK AO2 SLP239 T00001033=
201511290353 METAR KBFI 290353Z 00000KT 9SM CLR 01/M03 A3022 RMK AO2 SLP234 T00061033=
201511290253 METAR KBFI 290253Z 00000KT 10SM CLR 02/M02 A3022 RMK AO2 SLP233 T00221022 56006=
201511290153 METAR KBFI 290153Z 00000KT 10SM CLR 03/M02 A3023 RMK AO2 SLP235 T00331022=
201511290053 METAR KBFI 290053Z 00000KT 10SM CLR 04/M02 A3024 RMK AO2 SLP238 T00441017=
201511282353 METAR KBFI 282353Z 00000KT 10SM CLR 08/M02 A3024 RMK AO2 SLP240 T00781017 10078 20006 56015=
201511282253 METAR KBFI 282253Z AUTO 00000KT 10SM CLR 08/M02 A3025 RMK AO2 SLP241 T00781022 TSNO=
201511282153 METAR KBFI 282153Z 00000KT 10SM CLR 07/M02 A3026 RMK AO2 SLP246 T00721017=
201511282053 METAR KBFI 282053Z 00000KT 10SM CLR 07/M02 A3028 RMK AO2 SLP254 T00671017 58021=
201511281953 METAR KBFI 281953Z 00000KT 10SM CLR 05/M01 A3031 RMK AO2 SLP262 T00501006=
201511281853 METAR KBFI 281853Z 00000KT 10SM FEW002 03/M02 A3033 RMK AO2 SLP270 T00281017=
201511281753 METAR KBFI 281753Z 00000KT 10SM SCT002 01/M02 A3035 RMK AO2 SLP275 60000 T00061017 10006 21039 51005=
201511281653 METAR KBFI 281653Z 00000KT 10SM SCT003 M01/M03 A3034 RMK AO2 SLP273 T10111033=
201511281553 METAR KBFI 281553Z 14003KT 10SM SCT002 SCT013 M03/M06 A3034 RMK AO2 SLP273 T10331061=
201511281453 METAR KBFI 281453Z 14003KT 10SM SCT002 M02/M05 A3033 RMK AO2 SNE01 SLP270 P0000 60000 T10221050 54000=
201511281402 SPECI KBFI 281402Z 00000KT 4SM BR SCT002 M02/M04 A3033 RMK AO2 SNE01 P0000=
201511281357 SPECI KBFI 281357Z 00000KT 3SM -SN BR OVC002 M02/M04 A3033 RMK AO2 P0000=
201511281353 METAR KBFI 281353Z 16003KT 2SM -SN BR SCT004 M01/M03 A3033 RMK AO2 VIS 1 1/4V4 SNB48 SLP271 P0000 T10111033=
201511281253 METAR KBFI 281253Z 15005KT 5SM BR FEW005 M03/M06 A3033 RMK AO2 SLP270 GRND FG N-NE T10331056=
201511281153 METAR KBFI 281153Z 00000KT 7SM CLR M01/M04 A3033 RMK AO2 SLP270 60000 T10111039 10022 21028 58008=
201511281053 METAR KBFI 281053Z 00000KT 7SM CLR M01/M03 A3035 RMK AO2 SNB19E44 SLP277 P0000 T10061033=
201511280953 METAR KBFI 280953Z 00000KT 7SM CLR M02/M04 A3035 RMK AO2 SLP276 T10221044=
201511280853 METAR KBFI 280853Z 13003KT 8SM CLR M01/M04 A3036 RMK AO2 SLP279 T10111039 50003=
201511280753 METAR KBFI 280753Z 00000KT 9SM CLR 00/M03 A3036 RMK AO2 SLP280 T00001033 401001022=
201511280653 METAR KBFI 280653Z 00000KT 10SM CLR 01/M03 A3036 RMK AO2 SLP279 T00111028=
201511280553 METAR KBFI 280553Z 00000KT 10SM CLR 02/M03 A3035 RMK AO2 SLP276 T00171033 10083 20017 53001=
201511280453 METAR KBFI 280453Z 02003KT 10SM CLR 04/M03 A3035 RMK AO2 SLP275 T00391028=
201511280353 METAR KBFI 280353Z 00000KT 10SM CLR 05/M03 A3035 RMK AO2 SLP275 T00501028=
201511280253 METAR KBFI 280253Z 00000KT 10SM CLR 06/M02 A3035 RMK AO2 SLP275 T00561022 50000=
201511280153 METAR KBFI 280153Z 00000KT 10SM CLR 06/M02 A3035 RMK AO2 SLP276 T00611017=
201511280053 METAR KBFI 280053Z 00000KT 10SM CLR 07/00 A3034 RMK AO2 SLP275 T00720000=
201511272353 METAR KBFI 272353Z 31004KT 10SM CLR 08/00 A3034 RMK AO2 SLP275 T00830000 10100 20033 56015=
201511272253 METAR KBFI 272253Z 31005KT 10SM CLR 09/M01 A3036 RMK AO2 SLP278 T00941006=
201511272153 METAR KBFI 272153Z 30006KT 10SM CLR 09/M02 A3037 RMK AO2 SLP284 T00941017=
201511272053 METAR KBFI 272053Z 30007KT 10SM CLR 09/M02 A3039 RMK AO2 SLP290 T00891017 58009=
201511271953 METAR KBFI 271953Z 30003KT 10SM CLR 08/M02 A3040 RMK AO2 SLP293 T00831017=
201511271853 METAR KBFI 271853Z 00000KT 10SM CLR 07/M01 A3042 RMK AO2 SLP299 T00721011=
201511271753 METAR KBFI 271753Z 00000KT 10SM CLR 03/M01 A3042 RMK AO2 SLP299 60000 T00331006 10033 21022 53000=
201511271653 METAR KBFI 271653Z 00000KT 10SM CLR 01/M02 A3041 RMK AO2 SLP298 T00061017=
201511271553 METAR KBFI 271553Z 00000KT 10SM CLR M01/M03 A3041 RMK AO2 UPB05E17 SLP299 P0000 T10111033=
201511271453 METAR KBFI 271453Z 00000KT 10SM CLR M01/M04 A3042 RMK AO2 SLP299 60000 T10111044 56005=
201511271353 METAR KBFI 271353Z COR 00000KT 7SM FEW003 M01/M03 A3042 RMK AO2 UPB03E05SNB05E29 SLP300 P0000 T10111033=
201511271253 METAR KBFI 271253Z 00000KT 7SM FEW005 M01/M04 A3042 RMK AO2 SLP302 T10111039=
201511271153 METAR KBFI 271153Z 00000KT 8SM CLR M01/M03 A3043 RMK AO2 SLP304 60000 T10061033 10050 21017 50001=
201511271053 METAR KBFI 271053Z 00000KT 10SM CLR M01/M04 A3043 RMK AO2 SNB37E48 SLP305 P0000 T10111039=
201511270953 METAR KBFI 270953Z 00000KT 10SM CLR 00/M03 A3043 RMK AO2 SLP303 T00001033=
201511270853 METAR KBFI 270853Z 00000KT 10SM CLR 01/M03 A3043 RMK AO2 SLP304 T00111033 56005=
201511270753 METAR KBFI 270753Z 00000KT 10SM CLR 03/M02 A3043 RMK AO2 SLP304 T00331022 401111017=
201511270653 METAR KBFI 270653Z 00000KT 10SM CLR 03/M03 A3044 RMK AO2 SLP308 T00331028=
201511270553 METAR KBFI 270553Z 34003KT 10SM CLR 05/M03 A3045 RMK AO2 SLP309 T00501028 10089 20050 57001=
201511270453 METAR KBFI 270453Z 32005KT 10SM CLR 06/M02 A3044 RMK AO2 SLP308 T00561022=
201511270353 METAR KBFI 270353Z 30004KT 10SM CLR 06/M02 A3045 RMK AO2 SLP311 T00561017=
201511270253 METAR KBFI 270253Z 32003KT 10SM CLR 06/M02 A3045 RMK AO2 SLP310 T00611022 53004=
201511270153 METAR KBFI 270153Z 00000KT 10SM CLR 07/M01 A3045 RMK AO2 SLP309 T00671006=
201511270053 METAR KBFI 270053Z 00000KT 10SM CLR 07/01 A3044 RMK AO2 SLP306 T00720006=
201511262353 METAR KBFI 262353Z 30004KT 10SM CLR 09/01 A3044 RMK AO2 SLP306 T00890006 10111 20056 55002=
201511262253 METAR KBFI 262253Z 30004KT 10SM CLR 10/00 A3043 RMK AO2 SLP303 T01000000=
201511262153 METAR KBFI 262153Z 00000KT 10SM CLR 11/M03 A3043 RMK AO2 SLP305 T01111028=
201511262053 METAR KBFI 262053Z 31006KT 10SM CLR 10/M01 A3044 RMK AO2 SLP308 T01001011 58009=
201511261953 METAR KBFI 261953Z 33003KT 10SM CLR 09/M02 A3045 RMK AO2 SLP311 T00941022=
201511261853 METAR KBFI 261853Z VRB05KT 10SM CLR 07/M02 A3047 RMK AO2 SLP316 T00721022=
201511261753 METAR KBFI 261753Z 33003KT 10SM CLR 06/M01 A3047 RMK AO2 SLP317 60000 T00561006 10056 21006 53012=
201511261653 METAR KBFI 261653Z VRB03KT 10SM CLR 03/M01 A3045 RMK AO2 SLP312 T00331011=
201511261553 METAR KBFI 261553Z COR 00000KT 10SM FEW100 00/M03 A3044 RMK AO2 SNB42E49 SLP306 P0000 T00001028 TSNO=
201511261453 METAR KBFI 261453Z 00000KT 10SM CLR 01/M02 A3043 RMK AO2 SLP305 60000 T00111017 53007=
201511261353 METAR KBFI 261353Z 00000KT 10SM CLR 01/M02 A3042 RMK AO2 SNB1255E13 SLP301 P0000 T00061022=
201511261253 METAR KBFI 261253Z 31003KT 10SM CLR 02/M01 A3042 RMK AO2 SLP300 T00221011=
201511261153 METAR KBFI 261153Z 00000KT 10SM CLR 00/M03 A3041 RMK AO2 UPB31E35SNB19E31 SLP298 P0000 60000 T00001028 10039 21017 53010=
201511261053 METAR KBFI 261053Z 12003KT 10SM CLR M01/M03 A3040 RMK AO2 RAB30E40 SLP293 P0000 T10061033=
201511260953 METAR KBFI 260953Z 00000KT 10SM CLR 00/M03 A3039 RMK AO2 SLP290 T00001028=
201511260853 METAR KBFI 260853Z 00000KT 10SM CLR 03/M01 A3038 RMK AO2 SLP287 T00281006 51010=
201511260753 METAR KBFI 260753Z 00000KT 10SM CLR 03/M01 A3038 RMK AO2 SLP285 T00281011 400940011=
201511260653 METAR KBFI 260653Z 00000KT 10SM CLR 03/M01 A3036 RMK AO2 SLP280 T00331006=
201511260553 METAR KBFI 260553Z 00000KT 10SM CLR 02/M03 A3035 RMK AO2 SLP277 T00171033 10083 20011 53003=
201511260453 METAR KBFI 260453Z 00000KT 10SM CLR 04/M02 A3034 RMK AO2 SLP274 T00391017=
201511260353 METAR KBFI 260353Z 00000KT 10SM CLR 04/M03 A3034 RMK AO2 SLP274 T00441033=
201511260253 METAR KBFI 260253Z 04003KT 10SM CLR 06/M03 A3034 RMK AO2 SLP274 T00561033 51012=
201511260153 METAR KBFI 260153Z 00000KT 10SM CLR 06/M04 A3033 RMK AO2 SLP271 T00611039=
201511260053 METAR KBFI 260053Z 36004KT 10SM CLR 07/M08 A3032 RMK AO2 SLP265 T00721078=
201511252353 METAR KBFI 252353Z VRB04KT 10SM CLR 08/M08 A3031 RMK AO2 SLP262 T00831078 10094 20056 53002=
201511252253 METAR KBFI 252253Z 02006KT 10SM CLR 09/M04 A3029 RMK AO2 SLP257 T00891039=
201511252153 METAR KBFI 252153Z 03006KT 10SM CLR 09/M07 A3029 RMK AO2 SLP257 T00941067=
201511252053 METAR KBFI 252053Z VRB04KT 10SM CLR 09/M04 A3030 RMK AO2 SLP260 T00891044 50002=
201511251953 METAR KBFI 251953Z 04005KT 10SM CLR 08/M04 A3030 RMK AO2 SLP261 T00781044=
201511251853 METAR KBFI 251853Z 05005KT 10SM CLR 07/M05 A3031 RMK AO2 SLP262 T00671050=
201511251753 METAR KBFI 251753Z 05006KT 10SM CLR 06/M04 A3030 RMK AO2 SLP258 T00561044 10056 20028 51019=
201511251653 METAR KBFI 251653Z 00000KT 10SM FEW035 04/M04 A3029 RMK AO2 SLP255 T00391039=
201511251553 METAR KBFI 251553Z VRB04KT 10SM FEW025 03/M04 A3027 RMK AO2 SLP248 T00281039=
201511251453 METAR KBFI 251453Z 02004KT 10SM CLR 03/M04 A3024 RMK AO2 SLP240 T00331044 53013=
201511251353 METAR KBFI 251353Z 03003KT 10SM CLR 03/M07 A3022 RMK AO2 SLP234 T00331067=
201511251253 METAR KBFI 251253Z 03004KT 10SM CLR 04/M06 A3022 RMK AO2 SLP232 T00391061=
201511251153 METAR KBFI 251153Z 02004KT 10SM CLR 04/M06 A3020 RMK AO2 SLP227 70011 T00391061 10061 20039 51015=
201511251053 METAR KBFI 251053Z VRB05KT 10SM CLR 05/M06 A3019 RMK AO2 SLP222 T00501061=
201511250953 METAR KBFI 250953Z VRB04KT 10SM CLR 04/M06 A3017 RMK AO2 SLP217 T00441056=
201511250853 METAR KBFI 250853Z 02003KT 10SM CLR 05/M06 A3016 RMK AO2 SLP212 T00501056 51019=
201511250753 METAR KBFI 250753Z AUTO 36004KT 10SM CLR 06/M04 A3014 RMK AO2 SLP207 T00561044 400890050 TSNO=
201511250653 METAR KBFI 250653Z 33005KT 10SM CLR 06/M04 A3013 RMK AO2 SLP202 T00611039=
201511250553 METAR KBFI 250553Z VRB06G17KT 10SM CLR 06/M04 A3010 RMK AO2 SLP193 T00611039 10083 20061 51024=
201511250453 METAR KBFI 250453Z 34012G20KT 10SM CLR 07/M04 A3008 RMK AO2 SLP186 T00671044=
201511250353 METAR KBFI 250353Z 34008G15KT 10SM CLR 07/M04 A3006 RMK AO2 SLP178 T00671039=
201511250253 METAR KBFI 250253Z 33008G21KT 10SM CLR 07/M03 A3003 RMK AO2 SLP169 T00721033 51025=
201511250153 METAR KBFI 250153Z 34009G20KT 320V020 10SM FEW060 07/M04 A3001 RMK AO2 SLP161 T00721044=
201511250053 METAR KBFI 250053Z 34007G17KT 10SM FEW060 08/M04 A2999 RMK AO2 PK WND 34027/2354 SLP154 T00781039=
201511242353 METAR KBFI 242353Z 33011G24KT 10SM CLR 08/M04 A2996 RMK AO2 PK WND 32028/2305 SLP144 T00831044 10089 20072 53020=
201511242253 METAR KBFI 242253Z 33014G22KT 10SM CLR 09/M04 A2994 RMK AO2 PK WND 31029/2234 SLP137 T00891039=
201511242153 METAR KBFI 242153Z 32007G19KT 10SM SCT060 SCT200 09/M02 A2991 RMK AO2 SLP129 T00891017=
201511242053 METAR KBFI 242053Z 33010G15KT 10SM FEW010 BKN050 09/00 A2990 RMK AO2 SLP124 T00890000 51013=
201511241953 METAR KBFI 241953Z 36005KT 10SM FEW029 BKN049 BKN200 08/01 A2989 RMK AO2 SLP120 T00830011=
201511241853 METAR KBFI 241853Z 01003KT 10SM FEW024 BKN045 08/03 A2987 RMK AO2 SLP116 T00830028=
201511241753 METAR KBFI 241753Z 00000KT 10SM SCT010 BKN035 OVC055 07/02 A2986 RMK AO2 RAB29E40 SLP111 P0000 60011 T00720022 10072 20050 51030=
201511241653 METAR KBFI 241653Z 00000KT 9SM FEW008 BKN013 OVC020 06/03 A2983 RMK AO2 RAE32 SLP101 P0001 T00560028=
201511241553 METAR KBFI 241553Z 14004KT 6SM -RA BR FEW008 BKN015 OVC018 05/03 A2981 RMK AO2 SLP093 P0004 T00500028=
201511241453 METAR KBFI 241453Z 13004KT 7SM -RA FEW008 BKN016 OVC025 06/03 A2977 RMK AO2 SLP082 P0002 60006 T00560028 53015=
201511241353 METAR KBFI 241353Z 13006KT 6SM -RA BR SCT008 BKN018 OVC025 06/03 A2975 RMK AO2 SLP072 P0002 T00560033=
201511241253 METAR KBFI 241253Z 13008KT 5SM -RA BR BKN008 OVC018 06/03 A2974 RMK AO2 SLP070 P0002 T00560033=
201511241153 METAR KBFI 241153Z 14006KT 5SM -RA BR BKN007 OVC025 07/04 A2973 RMK AO2 CIG 006V011 SLP066 P0003 60014 70022 T00670044 10072 20067 52005=
201511241053 METAR KBFI 241053Z 14006KT 5SM -RA BR BKN007 BKN014 OVC021 07/04 A2973 RMK AO2 CIG 006V011 SLP065 P0002 T00670044=
201511240953 METAR KBFI 240953Z 00000KT 5SM -RA BR BKN007 OVC013 07/05 A2972 RMK AO2 CIG 006V009 SLP062 P0002 T00720050=
201511240853 METAR KBFI 240853Z 13005KT 4SM -RA BR OVC005 07/05 A2971 RMK AO2 SLP061 P0003 60007 T00720050 58007=
201511240753 METAR KBFI 240753Z 15003KT 4SM -RA BR OVC007 07/05 A2972 RMK AO2 SLP065 P0002 T00720050 400830006=
201511240653 METAR KBFI 240653Z 14005KT 4SM -RA BR OVC009 07/06 A2973 RMK AO2 CIG 008V012 SLP068 P0002 T00670056=
201511240553 METAR KBFI 240553Z 14006KT 5SM -RA BR OVC009 07/06 A2974 RMK AO2 SLP069 P0001 60007 T00720056 10083 20067 56012=
201511240520 SPECI KBFI 240520Z 13007KT 7SM -RA OVC009 07/06 A2974 RMK AO2 P0001=
201511240453 METAR KBFI 240453Z 14008KT 6SM -RA BR OVC011 07/05 A2974 RMK AO2 SLP071 P0002 T00670050=
201511240353 METAR KBFI 240353Z 14006KT 7SM -RA OVC013 07/05 A2976 RMK AO2 SLP076 P0001 T00670050=
201511240316 SPECI KBFI 240316Z 14006KT 6SM -RA BR FEW010 BKN023 OVC036 07/04 A2977 RMK AO2 P0000=
201511240253 METAR KBFI 240253Z 15007KT 6SM -RA BR OVC036 07/04 A2977 RMK AO2 SLP081 P0002 60003 T00670039 58015=
201511240153 METAR KBFI 240153Z 15005KT 6SM -RA BR FEW026 OVC036 07/04 A2979 RMK AO2 RAB0058 SLP086 P0001 T00720039=
201511240053 METAR KBFI 240053Z 17003KT 10SM SCT021 OVC047 07/03 A2980 RMK AO2 RAE46 SLP092 P0000 T00720028=
201511232353 METAR KBFI 232353Z 00000KT 9SM -RA OVC030 08/02 A2981 RMK AO2 RAB22 SLP095 P0001 60001 T00830022 10083 20050 56014=
201511232253 METAR KBFI 232253Z 15003KT 10SM OVC022 08/02 A2983 RMK AO2 SLP099 T00780017=
201511232153 METAR KBFI 232153Z 14004KT 10SM FEW010 OVC022 08/02 A2984 RMK AO2 SLP104 T00780017=
201511232053 METAR KBFI 232053Z 17004KT 7SM BKN022 BKN050 OVC100 07/02 A2985 RMK AO2 SLP109 T00720022 56008=
201511231953 METAR KBFI 231953Z 17004KT 8SM OVC100 07/02 A2986 RMK AO2 SLP111 T00720022=
201511231853 METAR KBFI 231853Z VRB04KT 7SM OVC100 06/02 A2987 RMK AO2 SLP115 T00610022=
201511231753 METAR KBFI 231753Z 14004KT 6SM HZ SCT004 OVC100 05/02 A2988 RMK AO2 SLP117 FGBNK W-N T00500017 10050 20006 56008=
201511231653 METAR KBFI 231653Z 14003KT 6SM HZ SCT004 BKN100 03/01 A2989 RMK AO2 SLP120 PRFG W-N T00330006=
201511231553 METAR KBFI 231553Z 14005KT 6SM BR SCT004 BKN050 BKN090 02/00 A2989 RMK AO2 SLP119 PRFG W-N T00220000=
201511231535 SPECI KBFI 231535Z 13006KT 6SM BR SCT004 BKN090 02/00 A2989 RMK AO2 PRFG W-N=
201511231453 METAR KBFI 231453Z 14004KT 4SM BR OVC004 02/00 A2990 RMK AO2 SLP125 T00220000 56010=
201511231437 SPECI KBFI 231437Z 17004KT 6SM BR BKN004 OVC100 02/M01 A2991 RMK AO2=
201511231353 METAR KBFI 231353Z 14003KT 6SM BR SCT005 BKN100 02/M01 A2992 RMK AO2 SLP129 T00171006=
201511231328 SPECI KBFI 231328Z 14005KT 7SM SCT005 OVC100 01/M01 A2992 RMK AO2=
201511231253 METAR KBFI 231253Z 15005KT 7SM BKN007 02/M01 A2992 RMK AO2 SLP130 T00171006=
201511231153 METAR KBFI 231153Z 14004KT 7SM SCT007 01/M02 A2993 RMK AO2 SNB03E26 SLP135 P0000 60000 T00061017 10039 20006 55007=
201511231149 SPECI KBFI 231149Z 14004KT 7SM FEW007 01/M02 A2993 RMK AO2 SNB03E26 P0000=
201511231053 METAR KBFI 231053Z 12003KT 7SM CLR 02/M01 A2994 RMK AO2 SLP138 T00171006=
201511230953 METAR KBFI 230953Z AUTO 12003KT 8SM CLR 02/M01 A2995 RMK AO2 SLP142 T00221006=
201511230853 METAR KBFI 230853Z 10003KT 8SM CLR 02/M01 A2996 RMK AO2 SLP144 T00221006 58010=
201511230753 METAR KBFI 230753Z 14003KT 10SM CLR 03/00 A2997 RMK AO2 SLP149 T00280000 401000006=
201511230653 METAR KBFI 230653Z 14003KT 10SM CLR 02/M01 A2998 RMK AO2 SLP152 T00221006=
201511230553 METAR KBFI 230553Z 00000KT 10SM FEW250 03/00 A2999 RMK AO2 SLP154 T00330000 10094 20033 55007=
201511230453 METAR KBFI 230453Z 00000KT 10SM CLR 04/00 A2999 RMK AO2 SLP154 T00390000=
201511230353 METAR KBFI 230353Z 00000KT 10SM CLR 05/00 A3000 RMK AO2 SLP157 T00500000=
201511230253 METAR KBFI 230253Z 00000KT 10SM CLR 06/00 A3001 RMK AO2 SLP161 T00610000 58006=
201511230153 METAR KBFI 230153Z 00000KT 10SM SCT200 07/01 A3002 RMK AO2 SLP165 T00670006=
201511230053 METAR KBFI 230053Z 00000KT 10SM SCT200 08/01 A3002 RMK AO2 SLP167 T00830011=
201511222353 METAR KBFI 222353Z 29004KT 10SM SCT200 09/01 A3003 RMK AO2 SLP167 T00940011 10100 20072 56016=
201511222253 METAR KBFI 222253Z VRB04KT 10SM SCT220 10/01 A3003 RMK AO2 SLP170 T01000011=
201511222153 METAR KBFI 222153Z 28005KT 10SM SCT200 10/00 A3005 RMK AO2 SLP174 T01000000=
201511222053 METAR KBFI 222053Z 32005KT 10SM SCT200 10/00 A3007 RMK AO2 SLP183 T01000000 58020=
201511221953 METAR KBFI 221953Z COR 30004KT 10SM SCT200 09/M01 A3009 RMK AO2 SLP188 T00941006=
201511221853 METAR KBFI 221853Z 00000KT 10SM CLR 08/M01 A3012 RMK AO2 SLP199 T00831006=
201511221753 METAR KBFI 221753Z 00000KT 10SM SCT200 07/M01 A3013 RMK AO2 SLP203 60000 T00721006 10072 20006 56009=
201511221653 METAR KBFI 221653Z 00000KT 10SM FEW060 04/01 A3014 RMK AO2 SLP207 T00440006=
201511221553 METAR KBFI 221553Z 00000KT 10SM FEW200 03/M01 A3015 RMK AO2 RAB45E47SNB31E45 SLP208 P0000 T00331006=
201511221453 METAR KBFI 221453Z AUTO 00000KT 10SM CLR 02/M01 A3016 RMK AO2 RAB31E47 SLP212 P0000 60000 T00221011 57012 TSNO=
201511221353 METAR KBFI 221353Z AUTO 11003KT 10SM CLR 01/M02 A3017 RMK AO2 SLP216 T00111017=
201511221253 METAR KBFI 221253Z 00000KT 10SM CLR 02/M01 A3018 RMK AO2 SLP219 T00221011=
201511221153 METAR KBFI 221153Z 00000KT 10SM CLR 03/M01 A3019 RMK AO2 SLP224 T00281006 10056 20017 58012=
201511221053 METAR KBFI 221053Z 00000KT 10SM CLR 02/M01 A3021 RMK AO2 SLP229 T00221006=
201511220953 METAR KBFI 220953Z 00000KT 10SM CLR 05/01 A3022 RMK AO2 SLP234 T00500006=
201511220853 METAR KBFI 220853Z 00000KT 10SM CLR 04/01 A3023 RMK AO2 SLP236 T00440006 56013=
201511220753 METAR KBFI 220753Z 00000KT 10SM CLR 03/M01 A3024 RMK AO2 SLP240 T00331006 401110011=
201511220653 METAR KBFI 220653Z 00000KT 10SM CLR 04/M01 A3026 RMK AO2 SLP245 T00391006=
201511220553 METAR KBFI 220553Z 00000KT 10SM CLR 06/00 A3027 RMK AO2 SLP249 T00560000 10089 20050 58009=
201511220453 METAR KBFI 220453Z 35003KT 10SM CLR 06/00 A3028 RMK AO2 SLP253 T00560000=
201511220353 METAR KBFI 220353Z 36004KT 10SM CLR 06/M01 A3029 RMK AO2 SLP257 T00611006=
201511220253 METAR KBFI 220253Z 34003KT 10SM CLR 07/M01 A3030 RMK AO2 SLP258 T00671011 58007=
201511220153 METAR KBFI 220153Z 34004KT 10SM CLR 07/M02 A3030 RMK AO2 SLP261 T00721022=
201511220053 METAR KBFI 220053Z 35004KT 10SM SCT200 08/M02 A3031 RMK AO2 SLP264 T00831017=
201511212353 METAR KBFI 212353Z 33004KT 10SM FEW220 09/M01 A3032 RMK AO2 SLP265 T00891006 10111 20067 56013=
201511212253 METAR KBFI 212253Z COR 34006KT 10SM SCT200 10/M01 A3032 RMK AO2 SLP267 T01001006=
201511212153 METAR KBFI 212153Z 36006KT 10SM CLR 11/M02 A3033 RMK AO2 SLP270 T01061022=
201511212053 METAR KBFI 212053Z 02006KT 10SM CLR 10/M02 A3035 RMK AO2 SLP278 T01001017 58015=
201511211953 METAR KBFI 211953Z 02004KT 10SM CLR 09/M02 A3037 RMK AO2 SLP284 T00891017=
201511211853 METAR KBFI 211853Z VRB04KT 10SM CLR 08/M02 A3039 RMK AO2 SLP289 T00831022=
201511211753 METAR KBFI 211753Z 00000KT 10SM CLR 07/M02 A3040 RMK AO2 SLP293 T00671017 10067 20011 50001=
201511211653 METAR KBFI 211653Z 36003KT 10SM SCT220 06/M02 A3040 RMK AO2 SLP294 T00561017=
201511211553 METAR KBFI 211553Z AUTO VRB03KT 10SM FEW200 04/M03 A3040 RMK AO2 SLP293 T00391028=
201511211453 METAR KBFI 211453Z 00000KT 10SM FEW160 03/M03 A3040 RMK AO2 SLP293 T00331028 55002=
201511211353 METAR KBFI 211353Z 35003KT 10SM CLR 03/M03 A3039 RMK AO2 SLP290 T00331028=
201511211253 METAR KBFI 211253Z 00000KT 10SM CLR 03/M02 A3040 RMK AO2 SLP293 T00281022=
201511211153 METAR KBFI 211153Z 00000KT 10SM CLR 04/M01 A3040 RMK AO2 SLP294 T00391011 10050 20017 58005=
201511211053 METAR KBFI 211053Z 00000KT 10SM CLR 03/M02 A3042 RMK AO2 SLP300 T00331022=
201511210953 METAR KBFI 210953Z 00000KT 10SM CLR 02/M02 A3042 RMK AO2 SLP300 T00221022=
201511210853 METAR KBFI 210853Z 00000KT 10SM CLR 04/M01 A3042 RMK AO2 SLP299 T00391011 58008=
201511210753 METAR KBFI 210753Z 00000KT 10SM CLR 03/M01 A3043 RMK AO2 SLP302 T00331011 401060017=
201511210653 METAR KBFI 210653Z 31003KT 10SM CLR 05/M01 A3044 RMK AO2 SLP307 T00501011=
201511210553 METAR KBFI 210553Z 00000KT 10SM CLR 05/00 A3044 RMK AO2 SLP308 T00500000 10100 20039 58012=
201511210453 METAR KBFI 210453Z 00000KT 10SM CLR 06/00 A3046 RMK AO2 SLP314 T00560000=
201511210353 METAR KBFI 210353Z 00000KT 10SM CLR 06/01 A3047 RMK AO2 SLP318 T00610006=
201511210253 METAR KBFI 210253Z 35003KT 10SM CLR 07/00 A3048 RMK AO2 SLP320 T00670000 50000=
201511210153 METAR KBFI 210153Z 00000KT 10SM CLR 08/01 A3049 RMK AO2 SLP323 T00780006=
201511210053 METAR KBFI 210053Z 34003KT 10SM CLR 08/01 A3048 RMK AO2 SLP321 T00830006=
201511202353 METAR KBFI 202353Z VRB03KT 10SM SCT250 10/M01 A3048 RMK AO2 SLP320 T01001006 10106 20056 56016=
201511202253 METAR KBFI 202253Z 35005KT 10SM SCT250 10/M01 A3049 RMK AO2 SLP323 T01001006=
201511202153 METAR KBFI 202153Z VRB04KT 10SM CLR 10/M01 A3051 RMK AO2 SLP330 T01001006=
201511202053 METAR KBFI 202053Z 33004KT 10SM CLR 09/00 A3052 RMK AO2 SLP336 T00940000 58010=
201511201953 METAR KBFI 201953Z VRB04KT 10SM CLR 08/01 A3054 RMK AO2 SLP341 T00780006=
201511201853 METAR KBFI 201853Z 03004KT 10SM FEW010 07/01 A3056 RMK AO2 SLP347 T00670006=
201511201753 METAR KBFI 201753Z 35005KT 10SM SCT004 06/02 A3055 RMK AO2 SLP346 60000 T00560017 10056 20017 51014=
201511201653 METAR KBFI 201653Z 07003KT 10SM SCT004 04/02 A3055 RMK AO2 SLP345 T00390017=
201511201553 METAR KBFI 201553Z 06003KT 4SM BR OVC004 04/02 A3054 RMK AO2 SNE1454 SLP340 T00390017=
201511201525 SPECI KBFI 201525Z 00000KT 10SM OVC004 03/01 A3052 RMK AO2 SNE1454=
201511201453 METAR KBFI 201453Z COR 00000KT 10SM SCT004 02/M01 A3051 RMK AO2 RAB45E47SNB47 SLP332 FOG BANK E-S P0000 60000 T00171006 53010=
201511201353 METAR KBFI 201353Z 00000KT 10SM FEW003 02/M01 A3049 RMK AO2 SLP325 FOG BANK SE-W T00171006=
201511201308 SPECI KBFI 201308Z 00000KT 6SM BR SCT003 03/01 A3049 RMK AO2 FOG BANK SE-W=
201511201253 METAR KBFI 201253Z 00000KT 5SM BR BKN003 03/02 A3049 RMK AO2 SLP323 T00330017=
201511201235 SPECI KBFI 201235Z VRB04KT 5SM BR BKN003 03/02 A3049 RMK AO2=
201511201153 METAR KBFI 201153Z 04003KT 5SM BR SCT004 04/02 A3048 RMK AO2 RAB13E19 SLP322 CIG LWR SE-W P0000 60000 T00390017 10044 20017 51012=
201511201053 METAR KBFI 201053Z COR 00000KT 10SM SCT005 03/00 A3048 RMK AO2 RAB22E37 SLP321 P0000 T00280000=
201511200953 METAR KBFI 200953Z 00000KT 10SM CLR 02/M01 A3046 RMK AO2 RAB05E09SNE05 SLP315 P0000 T00221006=
201511200853 METAR KBFI 200853Z COR 00000KT 10SM CLR 03/00 A3045 RMK AO2 SNB51 SLP310 P0000 60000 T00280000 51023=
201511200753 METAR KBFI 200753Z AUTO 00000KT 10SM CLR 03/00 A3044 RMK AO2 SNB09E24 SLP305 P0000 T00280000 401060028 TSNO=
201511200653 METAR KBFI 200653Z AUTO 00000KT 10SM CLR 03/00 A3041 RMK AO2 SLP295 T00280000 TSNO=
201511200553 METAR KBFI 200553Z AUTO 00000KT 10SM CLR 04/01 A3038 RMK AO2 SLP286 T00390006 10094 20028 53022=
201511200453 METAR KBFI 200453Z 00000KT 10SM CLR 04/01 A3035 RMK AO2 SLP278 T00440006=
201511200353 METAR KBFI 200353Z 00000KT 10SM CLR 07/01 A3033 RMK AO2 SLP270 T00670006=
201511200253 METAR KBFI 200253Z VRB03KT 10SM CLR 07/00 A3031 RMK AO2 SLP264 T00720000 51031=
201511200153 METAR KBFI 200153Z 02004KT 10SM CLR 07/01 A3029 RMK AO2 SLP255 T00720006=
201511200053 METAR KBFI 200053Z 36003KT 10SM FEW022 08/01 A3025 RMK AO2 SLP244 T00830006=
201511192353 METAR KBFI 192353Z 34005KT 10SM CLR 09/M01 A3022 RMK AO2 SLP233 T00941006 10106 20083 53023=
201511192253 METAR KBFI 192253Z 34010G18KT 10SM SCT020 10/01 A3019 RMK AO2 SLP223 T01000006=
201511192153 METAR KBFI 192153Z 36006KT 10SM SCT018 09/01 A3017 RMK AO2 SLP215 T00940011=
201511192053 METAR KBFI 192053Z VRB06KT 10SM SCT018 10/01 A3015 RMK AO2 SLP210 T01000011 51005=
201511191953 METAR KBFI 191953Z AUTO 02007KT 350V070 10SM BKN018 10/03 A3015 RMK AO2 SLP208 T01000028=
201511191853 METAR KBFI 191853Z VRB06G14KT 10SM BKN018 09/03 A3015 RMK AO2 SLP208 T00890033=
201511191753 METAR KBFI 191753Z 01005KT 10SM BKN018 08/04 A3014 RMK AO2 SLP204 60000 T00830039 10083 20067 51008=
201511191750 SPECI KBFI 191750Z 35006KT 10SM BKN018 08/03 A3014 RMK AO2=
201511191653 METAR KBFI 191653Z 01005KT 10SM SCT006 BKN030 BKN120 07/03 A3012 RMK AO2 SLP201 T00720033=
201511191553 METAR KBFI 191553Z 01005KT 10SM FEW007 BKN060 07/03 A3011 RMK AO2 SLP197 T00670033=
201511191453 METAR KBFI 191453Z 35003KT 10SM FEW007 SCT060 BKN120 07/04 A3010 RMK AO2 SLP193 60000 T00670044 55007=
201511191353 METAR KBFI 191353Z 00000KT 10SM FEW007 SCT060 BKN120 07/05 A3010 RMK AO2 SLP192 T00720050=
201511191253 METAR KBFI 191253Z 00000KT 10SM SCT026 BKN075 07/06 A3010 RMK AO2 RAE22 SLP193 P0000 T00720056=
201511191153 METAR KBFI 191153Z 00000KT 10SM -RA BKN028 BKN035 OVC055 07/07 A3012 RMK AO2 SLP200 P0001 60012 70013 T00720067 10089 20072 58017=
201511191053 METAR KBFI 191053Z 15003KT 10SM -RA OVC024 07/06 A3015 RMK AO2 SLP208 P0003 T00720061=
201511190953 METAR KBFI 190953Z 00000KT 10SM -RA OVC020 08/07 A3016 RMK AO2 SLP212 P0003 T00780067=
201511190853 METAR KBFI 190853Z 12003KT 10SM -RA OVC029 08/07 A3017 RMK AO2 SLP217 P0001 60005 T00780067 58012=
201511190800 METAR KBFI NIL=
201511190653 METAR KBFI 190653Z 12004KT 9SM -RA SCT011 BKN027 OVC040 08/06 A3020 RMK AO2 SLP226 P0002 T00830056=
201511190553 METAR KBFI 190553Z VRB03KT 10SM -RA BKN015 BKN024 OVC034 09/05 A3021 RMK AO2 SLP229 P0001 60001 T00890050 10100 20089 58005=
201511190453 METAR KBFI 190453Z VRB04KT 10SM -RA BKN016 BKN026 OVC049 09/05 A3022 RMK AO2 RAB34 SLP231 P0000 T00890050=
201511190353 METAR KBFI 190353Z VRB05KT 10SM FEW029 SCT050 OVC095 09/04 A3022 RMK AO2 SLP232 T00940044=
201511190253 METAR KBFI 190253Z VRB03KT 10SM FEW022 OVC075 10/04 A3022 RMK AO2 SLP234 60000 T01000039 56008=
201511190159 SPECI KBFI 190159Z 17004KT 10SM FEW035 BKN075 OVC100 10/04 A3023 RMK AO2=
201511190153 METAR KBFI 190153Z AUTO 18004KT 10SM BKN028 BKN050 OVC070 10/04 A3023 RMK AO2 RAB02E12 SLP236 P0000 T01000039 TSNO=
201511190053 METAR KBFI 190053Z 19004KT 10SM BKN028 OVC050 10/03 A3024 RMK AO2 SLP239 T01000033=
201511182353 METAR KBFI 182353Z VRB05KT 10SM FEW027 BKN034 OVC085 10/03 A3025 RMK AO2 SLP242 T01000033 10106 20089 56007=
201511182253 METAR KBFI 182253Z 16004KT 10SM FEW027 BKN034 OVC085 10/04 A3025 RMK AO2 SLP244 T01000039=
201511182200 SPECI KBFI 182200Z 18004KT 10SM BKN033 OVC095 10/03 A3026 RMK AO2=
201511182153 METAR KBFI 182153Z 17003KT 10SM BKN028 OVC090 10/03 A3026 RMK AO2 SLP247 T01000033=
201511182053 METAR KBFI 182053Z 19007KT 10SM BKN028 BKN090 11/03 A3027 RMK AO2 SLP249 T01060033 58004=
201511181953 METAR KBFI 181953Z 20007KT 10SM FEW020 OVC250 10/03 A3028 RMK AO2 SLP252 T01000033=
201511181853 METAR KBFI 181853Z 15007KT 10SM FEW015 SCT250 09/03 A3028 RMK AO2 SLP253 T00940028=
201511181753 METAR KBFI 181753Z 14008KT 10SM FEW030 BKN200 09/03 A3028 RMK AO2 SLP252 T00890033 10089 20039 51015=
201511181653 METAR KBFI 181653Z 12006KT 10SM FEW030 BKN250 07/03 A3027 RMK AO2 SLP251 T00720028=
201511181553 METAR KBFI 181553Z AUTO 15005KT 10SM FEW020 SCT150 05/02 A3025 RMK AO2 SLP244 T00500017 TSNO=
201511181453 METAR KBFI 181453Z 11003KT 10SM CLR 06/02 A3023 RMK AO2 SLP238 T00560017 51025=
201511181353 METAR KBFI 181353Z 14006KT 10SM CLR 04/02 A3021 RMK AO2 SLP229 T00440017=
201511181253 METAR KBFI 181253Z 13007KT 10SM FEW020 07/02 A3019 RMK AO2 SLP223 T00670022=
201511181153 METAR KBFI 181153Z 10003KT 10SM CLR 07/02 A3016 RMK AO2 SLP213 70067 T00670022 10089 20056 51038=
201511181053 METAR KBFI 181053Z 10004KT 10SM FEW020 07/02 A3013 RMK AO2 SLP203 T00720022=
201511180953 METAR KBFI 180953Z 00000KT 10SM SCT095 07/02 A3010 RMK AO2 SLP191 T00720022=
201511180853 METAR KBFI 180853Z 21005KT 10SM SCT095 08/02 A3005 RMK AO2 SLP175 T00780022 53040=
201511180753 METAR KBFI 180753Z 22003KT 10SM FEW100 08/03 A3001 RMK AO2 SLP160 T00780028 401610061=
201511180653 METAR KBFI 180653Z 00000KT 10SM CLR 08/03 A2996 RMK AO2 SLP146 T00780033=
201511180553 METAR KBFI 180553Z 31004KT 10SM SCT110 09/03 A2993 RMK AO2 SLP136 60011 T00890028 10139 20078 53052=
201511180453 METAR KBFI 180453Z COR 24004KT 10SM CLR 09/03 A2988 RMK AO2 RAE11 SLP117 P0001 T00890028=
201511180353 METAR KBFI 180353Z COR 00000KT 10SM -RA SCT034 BKN045 08/05 A2983 RMK AO2 RAB06E32B52 SLP101 P0010 T00830050=
201511180330 SPECI KBFI 180330Z 00000KT 10SM -RA SCT031 BKN040 OVC050 08/05 A2981 RMK AO2 RAB06 P0010=
201511180316 SPECI KBFI 180316Z 00000KT 2 1/2SM RA BKN031 OVC037 08/04 A2980 RMK AO2 VIS 1V5 RAB06 P0008=
201511180253 METAR KBFI 180253Z 14003KT 10SM BKN027 OVC035 11/06 A2978 RMK AO2 SLP084 T01060061 51070=
201511180238 SPECI KBFI 180238Z 01006KT 10SM FEW019 BKN025 OVC039 11/05 A2976 RMK AO2=
201511180153 METAR KBFI 180153Z VRB04KT 10SM BKN022 BKN030 OVC041 12/07 A2971 RMK AO2 SLP061 T01220072=
201511180129 SPECI KBFI 180129Z VRB05KT 10SM BKN020 OVC095 12/09 A2969 RMK AO2 PRESRR=
201511180053 METAR KBFI 180053Z 24007G15KT 170V260 10SM SCT020 BKN100 12/09 A2964 RMK AO2 PK WND 23028/0002 PRESRR SLP038 T01170094=
201511172353 METAR KBFI 172353Z 22013G24KT 10SM FEW005 SCT018 OVC100 14/11 A2957 RMK AO2 PK WND 23028/2259 RAE52 SLP014 P0001 60035 T01390111 10161 20139 53023=
201511172253 METAR KBFI 172253Z 21012G27KT 7SM -RA SCT018 BKN028 OVC080 16/13 A2953 RMK AO2 PK WND 17032/2215 SLP998 P0001 T01610133=
201511172239 SPECI KBFI 172239Z 21015G24KT 4SM -RA BR BKN016 BKN021 OVC026 16/14 A2954 RMK AO2 PK WND 17032/2215 PRESRR P0001=
201511172153 METAR KBFI 172153Z 18015G32KT 6SM -RA BR BKN014 OVC020 15/13 A2950 RMK AO2 PK WND 19032/2148 PRESFR SLP988 P0004 T01500128=
201511172053 METAR KBFI 172053Z 18016G32KT 7SM -RA BKN016 OVC023 15/13 A2957 RMK AO2 PK WND 19036/2008 PRESFR SLP012 P0007 60029 T01500128 58046=
201511171953 METAR KBFI 171953Z 19020G33KT 8SM -RA FEW012 BKN017 OVC024 15/13 A2962 RMK AO2 PK WND 19037/1939 PRESFR SLP030 P0008 T01500128=
201511171853 METAR KBFI 171853Z 18015G29KT 5SM -RA BR SCT012 BKN031 OVC055 15/13 A2967 RMK AO2 PK WND 18032/1756 SLP047 P0014 T01500128=
201511171753 METAR KBFI 171753Z 19018G27KT 7SM -RA SCT014 BKN025 OVC040 15/13 A2970 RMK AO2 PK WND 20030/1719 SLP058 P0008 60021 T01500128 10150 20133 56017=
201511171653 METAR KBFI 171653Z 18014G22KT 5SM -RA BKN011 OVC020 14/12 A2970 RMK AO2 SLP059 P0004 T01440117=
201511171553 METAR KBFI 171553Z 18014G23KT 150V210 10SM -RA BKN016 OVC022 15/11 A2974 RMK AO2 SLP070 P0002 T01500111=
201511171517 SPECI KBFI 171517Z 17013G21KT 7SM -RA OVC016 14/11 A2975 RMK AO2 P0001=
201511171453 METAR KBFI 171453Z 17018G22KT 10SM -RA SCT010 BKN014 OVC021 14/11 A2975 RMK AO2 PK WND 16027/1402 SLP074 P0001 60007 T01440111 58017=
201511171353 METAR KBFI 171353Z 17013G22KT 7SM -RA SCT010 BKN014 OVC021 14/11 A2979 RMK AO2 PK WND 15027/1255 SLP087 P0003 T01440111=
201511171253 METAR KBFI 171253Z 17014G22KT 3SM -RA SCT010 BKN014 OVC021 13/11 A2980 RMK AO2 SLP090 P0003 T01330106=
201511171229 SPECI KBFI 171229Z 17013G23KT 8SM -RA BKN009 BKN021 OVC032 13/11 A2980 RMK AO2 P0003=
201511171219 SPECI KBFI 171219Z 17015G19KT 7SM -RA SCT009 BKN023 OVC034 13/11 A2980 RMK AO2 P0002=
201511171210 SPECI KBFI 171210Z 17012G22KT 6SM -RA BKN011 BKN023 OVC039 13/11 A2980 RMK AO2 P0002=
201511171157 SPECI KBFI 171157Z 18013G19KT 6SM -RA SCT009 BKN036 OVC070 13/11 A2980 RMK AO2 P0000=
201511171153 METAR KBFI 171153Z 17011G19KT 6SM -RA SCT011 BKN018 OVC070 13/11 A2980 RMK AO2 SLP091 P0004 60007 70016 T01330106 10133 20083 58017=
201511171140 SPECI KBFI 171140Z 17016G20KT 7SM -RA SCT010 BKN046 OVC075 13/10 A2980 RMK AO2 P0003=
201511171053 METAR KBFI 171053Z 17012G19KT 5SM -RA BKN010 OVC024 13/10 A2983 RMK AO2 RAB00 SLP099 P0003 T01280100=
201511171022 SPECI KBFI 171022Z 18008KT 9SM -RA BKN010 BKN029 OVC040 12/09 A2984 RMK AO2 RAB00 P0000=
201511170953 METAR KBFI 170953Z 18009G16KT 6SM HZ BKN008 OVC018 12/09 A2984 RMK AO2 SLP104 T01220089=
201511170919 SPECI KBFI 170919Z 18009G18KT 6SM HZ BKN008 OVC018 12/09 A2985 RMK AO2=
201511170853 METAR KBFI 170853Z 19011G21KT 6SM HZ BKN011 OVC020 12/08 A2985 RMK AO2 SLP108 60000 T01170083 55010=
201511170753 METAR KBFI 170753Z 18010G17KT 10SM OVC010 11/08 A2985 RMK AO2 SLP107 T01110078 401110017=
201511170653 METAR KBFI 170653Z 18012G21KT 10SM BKN014 BKN090 11/07 A2986 RMK AO2 RAE50 SLP110 P0000 T01060072=
201511170553 METAR KBFI 170553Z 14007KT 10SM -RA SCT016 BKN029 OVC085 08/06 A2988 RMK AO2 SLP118 P0001 60004 T00830056 10089 20078 56014=
201511170546 SPECI KBFI 170546Z 14006KT 10SM -RA FEW013 BKN018 OVC090 08/06 A2989 RMK AO2 P0001=
201511170511 SPECI KBFI 170511Z 15008KT 10SM BKN014 OVC022 08/06 A2989 RMK AO2 RAE09 P0001=
201511170453 METAR KBFI 170453Z 13004KT 10SM -RA FEW015 BKN025 OVC036 08/05 A2990 RMK AO2 RAB03 SLP123 P0000 T00780050=
201511170413 SPECI KBFI 170413Z 00000KT 10SM -RA OVC029 08/05 A2991 RMK AO2 RAB03 P0000=
201511170353 METAR KBFI 170353Z 00000KT 10SM OVC031 08/04 A2991 RMK AO2 SLP127 T00780044=
201511170253 METAR KBFI 170253Z 00000KT 10SM FEW010 OVC035 08/05 A2992 RMK AO2 RAE0155 SLP132 P0000 60003 T00830050 58018=
201511170153 METAR KBFI 170153Z 00000KT 10SM -RA OVC034 08/05 A2995 RMK AO2 SLP142 P0002 T00830050=
201511170053 METAR KBFI 170053Z 19006KT 10SM -RA OVC044 09/04 A2996 RMK AO2 SLP146 P0001 T00890044=
201511162353 METAR KBFI 162353Z 17011G19KT 10SM -RA OVC041 09/04 A2998 RMK AO2 SLP151 P0001 60005 T00890039 10094 20061 56031=
201511162253 METAR KBFI 162253Z 16013G21KT 9SM -RA BKN049 OVC060 09/03 A3000 RMK AO2 SLP159 P0002 T00890033=
201511162153 METAR KBFI 162153Z 16011KT 10SM -RA OVC047 09/03 A3004 RMK AO2 SLP172 P0001 T00890033=
201511162053 METAR KBFI 162053Z 17012KT 10SM -RA OVC047 09/03 A3007 RMK AO2 RAE14B52 SLP182 P0000 60001 T00940028 58023=
201511161953 METAR KBFI 161953Z 14006KT 10SM -RA BKN045 OVC055 08/03 A3009 RMK AO2 SLP188 P0000 T00780033=
201511161853 METAR KBFI 161853Z 14007KT 10SM -RA SCT042 OVC050 07/02 A3013 RMK AO2 RAB06 SLP203 P0001 T00720022=
201511161753 METAR KBFI 161753Z 13007KT 10SM SCT044 BKN050 OVC065 06/02 A3014 RMK AO2 SLP205 T00610017 10061 20017 58002=
201511161653 METAR KBFI 161653Z 13006KT 10SM FEW040 OVC060 06/02 A3014 RMK AO2 SLP207 T00560017=
201511161553 METAR KBFI 161553Z 13006KT 10SM FEW020 BKN042 03/01 A3015 RMK AO2 SLP210 T00330006 $=
201511161453 METAR KBFI 161453Z 14008KT 10SM CLR 03/00 A3014 RMK AO2 SLP207 T00280000 51005 $=
201511161353 METAR KBFI 161353Z 15008KT 10SM CLR 03/M01 A3014 RMK AO2 SLP206 T00281006 $=
201511161253 METAR KBFI 161253Z 10004KT 10SM CLR 03/00 A3014 RMK AO2 SLP206 T00280000 $=
201511161153 METAR KBFI 161153Z AUTO 15007KT 10SM CLR 02/00 A3013 RMK AO2 SNB08E21 SLP202 P0000 60000 70023 T00220000 10050 20022 51015 TSNO $=
201511161053 METAR KBFI 161053Z 12006KT 10SM CLR 03/01 A3012 RMK AO2 SLP200 T00330011 $=
201511160953 METAR KBFI 160953Z 14005KT 10SM SCT013 02/01 A3011 RMK AO2 SLP195 T00220006 $=
201511160853 METAR KBFI 160853Z 15004KT 10SM SCT013 03/01 A3009 RMK AO2 SLP187 T00330011 51032=
201511160753 METAR KBFI 160753Z 14005KT 10SM SCT020 03/01 A3007 RMK AO2 SLP181 T00330011 401000033=
201511160653 METAR KBFI 160653Z 15006KT 10SM CLR 04/01 A3002 RMK AO2 SLP165 T00390011=
201511160553 METAR KBFI 160553Z 14007KT 10SM CLR 04/02 A2999 RMK AO2 SLP155 T00440017 10094 20039 53030=
201511160453 METAR KBFI 160453Z 13004KT 10SM FEW025 06/03 A2996 RMK AO2 SLP144 T00610028=
201511160353 METAR KBFI 160353Z 12003KT 10SM FEW024 05/02 A2993 RMK AO2 SLP134 T00500022=
201511160253 METAR KBFI 160253Z 15003KT 10SM FEW030 05/02 A2990 RMK AO2 SLP125 T00500022 53026=
201511160153 METAR KBFI 160153Z 00000KT 10SM SCT028 07/03 A2987 RMK AO2 SLP116 T00720033=
201511160053 METAR KBFI 160053Z 00000KT 10SM FEW025 08/03 A2985 RMK AO2 SLP107 T00780028=
201511152353 METAR KBFI 152353Z 00000KT 10SM SCT030 BKN200 09/02 A2982 RMK AO2 SLP099 T00890022 10100 20044 53018=
201511152253 METAR KBFI 152253Z 00000KT 10SM SCT025 09/02 A2980 RMK AO2 SLP091 T00940022=
201511152234 SPECI KBFI 152234Z 16004KT 10SM SCT025 09/02 A2979 RMK AO2=
201511152153 METAR KBFI 152153Z VRB03KT 10SM BKN025 BKN200 09/02 A2978 RMK AO2 SLP085 T00890022=
201511152053 METAR KBFI 152053Z 00000KT 10SM SCT021 BKN030 BKN200 08/03 A2977 RMK AO2 SLP081 T00780028 51009=
201511151953 METAR KBFI 151953Z 18003KT 10SM SCT014 SCT035 BKN200 07/03 A2976 RMK AO2 SLP078 T00720028=
201511151853 METAR KBFI 151853Z 12007KT 10SM FEW010 BKN020 BKN044 06/02 A2976 RMK AO2 SLP076 T00560017=
201511151753 METAR KBFI 151753Z 14010KT 10SM SCT010 BKN015 OVC055 05/02 A2974 RMK AO2 SLP071 60023 T00500022 10067 20050 51032=
201511151653 METAR KBFI 151653Z 00000KT 10SM FEW010 BKN018 OVC055 06/02 A2972 RMK AO2 SLP064 T00560022=
201511151615 SPECI KBFI 151615Z 00000KT 10SM FEW011 BKN016 OVC055 06/02 A2971 RMK AO2=
201511151553 METAR KBFI 151553Z 00000KT 10SM SCT016 OVC050 06/03 A2969 RMK AO2 RAE41 SLP052 P0001 T00610028=
201511151453 METAR KBFI 151453Z VRB03KT 10SM -RA OVC028 07/03 A2965 RMK AO2 SLP040 P0004 60022 T00670028 53027=
201511151353 METAR KBFI 151353Z VRB06KT 8SM -RA SCT018 OVC030 06/02 A2962 RMK AO2 SLP030 P0007 T00610022=
201511151253 METAR KBFI 151253Z 01006KT 7SM -RA OVC020 06/03 A2960 RMK AO2 SLP021 P0011 T00610028=
201511151153 METAR KBFI 151153Z 36006KT 5SM -RA BKN014 OVC017 06/03 A2957 RMK AO2 SLP013 P0012 60073 70189 T00560028 10078 20056 53012=
201511151053 METAR KBFI 151053Z 35007G18KT 5SM -RA BKN013 OVC017 07/03 A2954 RMK AO2 SLP004 P0015 T00670033=
201511150953 METAR KBFI 150953Z VRB06G14KT 4SM -RA FEW011 BKN016 OVC040 07/03 A2953 RMK AO2 SLP999 P0010 T00670033=
201511150853 METAR KBFI 150853Z 33005KT 4SM -RA BKN013 OVC025 07/04 A2954 RMK AO2 SLP002 P0015 60036 T00720044 56009=
201511150848 SPECI KBFI 150848Z 36005KT 3SM -RA FEW009 BKN013 OVC025 07/04 A2954 RMK AO2 P0014=
201511150844 SPECI KBFI 150844Z 01005KT 3SM -RA SCT011 BKN020 OVC025 08/04 A2953 RMK AO2 P0013=
201511150835 SPECI KBFI 150835Z VRB03KT 3SM -RA SCT011 BKN014 OVC021 08/05 A2954 RMK AO2 P0011=
201511150828 SPECI KBFI 150828Z 35007KT 3SM RA SCT013 OVC019 08/05 A2955 RMK AO2 P0010=
201511150753 METAR KBFI 150753Z 00000KT 3SM -RA BKN010 BKN015 OVC032 08/05 A2954 RMK AO2 SLP004 P0014 T00780050 401110078=
201511150653 METAR KBFI 150653Z 35005KT 5SM -RA SCT008 BKN024 OVC031 08/05 A2954 RMK AO2 SLP003 P0007 T00780050=
201511150553 METAR KBFI 150553Z 00000KT 5SM -RA SCT009 OVC020 08/05 A2956 RMK AO2 SLP011 P0005 60029 T00780050 10094 20078 56018=
201511150453 METAR KBFI 150453Z 36003KT 4SM -RA FEW011 BKN021 OVC044 08/05 A2958 RMK AO2 SLP018 P0002 T00780050=
201511150353 METAR KBFI 150353Z VRB03KT 5SM -RA BR SCT024 BKN033 OVC044 08/06 A2960 RMK AO2 SLP022 P0004 T00780056=
201511150253 METAR KBFI 150253Z 35007KT 4SM -RA SCT007 OVC024 08/05 A2962 RMK AO2 SLP029 P0002 60018 T00830050 57016=
201511150153 METAR KBFI 150153Z VRB05KT 6SM -RA SCT007 OVC024 09/06 A2963 RMK AO2 SLP034 P0009 T00890056=
201511150055 SPECI KBFI 150055Z 35004KT 4SM -RA FEW012 SCT024 OVC031 09/06 A2965 RMK AO2 P0000=
201511150053 METAR KBFI 150053Z 35005KT 4SM -RA BKN010 BKN024 OVC029 09/06 A2965 RMK AO2 SLP040 P0007 T00890061=
201511150010 SPECI KBFI 150010Z 33004KT 5SM -RA BKN010 OVC014 09/06 A2966 RMK AO2 CIG 006V012 P0002=
201511142353 METAR KBFI 142353Z 33007KT 3SM -RA BKN008 BKN011 OVC041 09/07 A2967 RMK AO2 SLP045 P0015 60034 T00940067 10100 20089 56018=
201511142253 METAR KBFI 142253Z VRB03KT 3SM -RA SCT008 BKN030 OVC055 09/07 A2968 RMK AO2 SLP051 P0008 T00940067=
201511142153 METAR KBFI 142153Z 36004KT 6SM -RA SCT008 BKN045 OVC055 09/06 A2969 RMK AO2 SLP052 P0005 T00940061=
201511142053 METAR KBFI 142053Z 02003KT 9SM -RA SCT006 BKN012 OVC055 09/06 A2972 RMK AO2 RAB09 SLP064 P0000 60006 T00940061 58026=
201511141953 METAR KBFI 141953Z 00000KT 10SM SCT006 BKN010 OVC055 09/06 A2975 RMK AO2 RAE53 SLP074 P0002 T00940061=
201511141901 SPECI KBFI 141901Z 00000KT 10SM -RA BKN010 OVC055 09/06 A2978 RMK AO2 P0000=
201511141853 METAR KBFI 141853Z 00000KT 9SM -RA SCT010 BKN029 OVC060 09/06 A2978 RMK AO2 SLP084 P0004 T00940061=
201511141753 METAR KBFI 141753Z 00000KT 5SM -RA SCT010 BKN027 OVC041 09/06 A2980 RMK AO2 SLP089 P0007 60053 T00890061 10100 20083 58002=
201511141653 METAR KBFI 141653Z 00000KT 5SM -RA SCT010 BKN027 OVC041 09/06 A2980 RMK AO2 SLP090 P0004 T00890061=
201511141553 METAR KBFI 141553Z AUTO 00000KT 9SM -RA OVC032 09/06 A2980 RMK AO2 SLP091 P0003 T00890061 TSNO=
201511141453 METAR KBFI 141453Z 00000KT 7SM -RA OVC036 09/06 A2980 RMK AO2 SLP092 P0011 60039 T00890061 58001=
201511141353 METAR KBFI 141353Z 07004KT 6SM -RA OVC048 09/06 A2981 RMK AO2 SLP095 P0014 T00890061=
201511141253 METAR KBFI 141253Z 02003KT 4SM RA OVC048 09/07 A2981 RMK AO2 SLP096 P0014 T00940067=
201511141153 METAR KBFI 141153Z VRB06KT 5SM RA OVC050 10/07 A2981 RMK AO2 SLP092 P0010 60039 70134 T01000067 10117 20100 56004=
201511141053 METAR KBFI 141053Z VRB05KT 5SM -RA FEW013 BKN033 OVC050 11/08 A2982 RMK AO2 SLP096 P0012 T01060078=
201511141027 SPECI KBFI 141027Z 00000KT 4SM -RA BKN015 OVC033 11/08 A2980 RMK AO2 P0006=
201511140953 METAR KBFI 140953Z 35004KT 8SM -RA OVC033 11/08 A2980 RMK AO2 SLP092 P0004 T01060078=
201511140920 SPECI KBFI 140920Z 32003KT 7SM -RA OVC031 11/08 A2981 RMK AO2 P0001=
201511140904 SPECI KBFI 140904Z 33003KT 10SM -RA FEW008 OVC029 11/08 A2981 RMK AO2 P0000=
201511140853 METAR KBFI 140853Z 00000KT 10SM -RA OVC029 11/08 A2982 RMK AO2 SLP096 P0001 60013 T01060078 58010=
201511140753 METAR KBFI 140753Z VRB03KT 10SM -RA BKN023 OVC029 11/08 A2984 RMK AO2 SLP103 P0004 T01110078 401560111=
201511140704 SPECI KBFI 140704Z 35003KT 6SM -RA OVC018 11/08 A2984 RMK AO2 P0001=
201511140653 METAR KBFI 140653Z 34003KT 8SM -RA SCT006 BKN010 OVC047 12/08 A2984 RMK AO2 SLP104 P0008 T01170083=
201511140553 METAR KBFI 140553Z 00000KT 4SM RA BR SCT006 BKN010 OVC035 12/09 A2985 RMK AO2 SLP106 P0013 60028 T01170094 10150 20117 55003=
201511140500 METAR KBFI NIL=
201511140453 METAR KBFI 140453Z 00000KT 4SM -RA BR SCT007 BKN010 OVC022 12/10 A2984 RMK AO2 SLP105 P0006 T01220100=
201511140416 SPECI KBFI 140416Z 00000KT 8SM -RA SCT006 BKN010 OVC015 13/11 A2985 RMK AO2 P0002=
201511140353 METAR KBFI 140353Z 09003KT 3SM -RA BR BKN012 OVC021 13/11 A2985 RMK AO2 SLP107 P0009 T01280106=
201511140253 METAR KBFI 140253Z VRB04KT 10SM -RA OVC012 15/11 A2986 RMK AO2 RAB51 SLP110 P0000 60000 T01500111 53004=
201511140153 METAR KBFI 140153Z 19006KT 10SM FEW013 BKN023 OVC070 14/11 A2985 RMK AO2 SLP108 T01440111=
201511140053 METAR KBFI 140053Z 18013G16KT 10SM FEW013 BKN023 OVC070 14/12 A2983 RMK AO2 SLP101 T01440117=
201511132353 METAR KBFI 132353Z 19009G20KT 10SM FEW013 BKN023 OVC070 14/13 A2984 RMK AO2 RAE25 SLP106 P0000 60052 T01440128 10156 20144 53000=
201511132312 SPECI KBFI 132312Z 17011G20KT 10SM -RA SCT014 BKN023 OVC080 14/12 A2982 RMK AO2 P0000=
201511132253 METAR KBFI 132253Z 18009G19KT 5SM -RA BR BKN012 OVC020 14/13 A2983 RMK AO2 SLP101 P0019 T01440128=
201511132227 SPECI KBFI 132227Z 18012G17KT 5SM -RA BR BKN012 OVC020 14/13 A2983 RMK AO2 P0018=
201511132217 SPECI KBFI 132217Z 17014G17KT 2SM RA BR BKN012 OVC022 14/12 A2981 RMK AO2 PRESFR P0017=
201511132153 METAR KBFI 132153Z 18013G17KT 1 1/4SM RA BR SCT017 BKN024 OVC041 14/13 A2984 RMK AO2 SLP103 P0022 T01440128=
201511132053 METAR KBFI 132053Z 21007G15KT 1 1/4SM -RA BR OVC017 14/13 A2984 RMK AO2 SLP105 P0006 60011 T01440128 55000=
201511132042 SPECI KBFI 132042Z 18009G18KT 1 1/2SM -RA BR OVC017 14/13 A2983 RMK AO2 P0004=
201511132036 SPECI KBFI 132036Z 18014G18KT 3SM -RA BR OVC017 14/13 A2983 RMK AO2 P0003=
201511131953 METAR KBFI 131953Z 17015G24KT 4SM -RA BR BKN016 OVC024 14/12 A2984 RMK AO2 RAB03 SLP104 P0005 T01440122=
201511131853 METAR KBFI 131853Z 16014G21KT 10SM BKN018 OVC038 15/11 A2984 RMK AO2 RAB1754E24 SLP105 P0000 T01500111=
201511131849 SPECI KBFI 131849Z 18013G22KT 10SM BKN018 OVC038 15/11 A2984 RMK AO2 RAB1754E24 P0000=
201511131842 SPECI KBFI 131842Z 18014G23KT 10SM SCT021 OVC038 16/11 A2984 RMK AO2 RAB1754E24 P0000=
201511131753 METAR KBFI 131753Z 17016G29KT 10SM BKN021 OVC038 15/11 A2984 RMK AO2 PK WND 16029/1753 RAE1658B14E53 SLP104 P0000 60015 T01500106 10150 20133 53003=
201511131653 METAR KBFI 131653Z 17019G25KT 10SM -RA BKN015 OVC026 14/11 A2984 RMK AO2 PK WND 17028/1621 RAB05 SLP105 P0000 T01440106=
201511131553 METAR KBFI 131553Z 17019G26KT 10SM SCT012 OVC020 14/12 A2982 RMK AO2 PK WND 18029/1458 RAE39 SLP099 P0001 T01440117=
201511131453 METAR KBFI 131453Z 17021G33KT 8SM -RA BKN015 OVC021 14/12 A2983 RMK AO2 PK WND 17033/1453 SLP101 P0005 60014 T01390117 58009=
201511131353 METAR KBFI 131353Z 17016G27KT 9SM -RA BKN017 OVC022 14/12 A2984 RMK AO2 PK WND 16028/1332 SLP104 P0005 T01390117=
201511131253 METAR KBFI 131253Z 17015G23KT 5SM -RA BR FEW013 BKN025 OVC070 13/12 A2986 RMK AO2 SLP110 P0004 T01330117=
201511131153 METAR KBFI 131153Z 17014G19KT 4SM -RA BR OVC016 14/12 A2986 RMK AO2 PK WND 17027/1105 SLP110 P0003 60034 70048 T01390122 10139 20111 55001=
201511131149 SPECI KBFI 131149Z 18012G17KT 4SM -RA BR BKN014 OVC020 14/12 A2986 RMK AO2 PK WND 17027/1105 P0003=
201511131100 SPECI KBFI 131100Z 17018G26KT 2 1/2SM -RA BR SCT010 BKN019 OVC025 13/11 A2985 RMK AO2 P0000=
201511131053 METAR KBFI 131053Z 17019G26KT 2 1/2SM -RA BR BKN013 OVC020 13/11 A2985 RMK AO2 PK WND 17028/1036 SLP107 P0008 T01330111=
201511131048 SPECI KBFI 131048Z 17016G22KT 2 1/2SM -RA BR FEW009 SCT013 OVC020 13/11 A2985 RMK AO2 PK WND 17028/1036 P0007=
201511131033 SPECI KBFI 131033Z 17018G23KT 2SM RA BR FEW009 BKN012 OVC024 13/11 A2985 RMK AO2 P0006=
201511130953 METAR KBFI 130953Z 16014G22KT 2SM RA BR FEW011 BKN025 OVC031 13/11 A2986 RMK AO2 PK WND 17027/0929 SLP111 P0011 T01280111=
201511130903 SPECI KBFI 130903Z 17016G23KT 2SM -RA BR FEW016 OVC024 13/11 A2988 RMK AO2 P0001=
201511130853 METAR KBFI 130853Z COR 17013G20KT 2SM -RA BR FEW016 OVC024 13/11 A2988 RMK AO2 SLP119 P0002 60012 T01280106 56013=
201511130753 METAR KBFI 130753Z 17015KT 5SM -RA BR BKN028 OVC040 12/10 A2989 RMK AO2 SLP120 P0005 T01220100 401280061=
201511130653 METAR KBFI 130653Z 16009G15KT 4SM -RA BR OVC026 12/10 A2991 RMK AO2 SLP127 P0005 T01220100=
201511130606 SPECI KBFI 130606Z 15005KT 2 1/2SM -RA BR OVC032 11/09 A2992 RMK AO2 P0002=
201511130553 METAR KBFI 130553Z 14008KT 6SM -RA BR OVC032 11/09 A2992 RMK AO2 SLP131 P0001 60014 T01110089 10111 20094 56018=
201511130453 METAR KBFI 130453Z 15006KT 6SM -RA BR SCT015 OVC034 10/09 A2994 RMK AO2 SLP137 P0003 T01000089=
201511130353 METAR KBFI 130353Z 00000KT 3SM -RA BR SCT015 OVC034 10/09 A2995 RMK AO2 SLP143 P0004 T01000094=
201511130253 METAR KBFI 130253Z 00000KT 4SM -RA BR SCT015 OVC034 10/10 A2997 RMK AO2 SLP150 P0002 60006 T01000100 56024=
201511130153 METAR KBFI 130153Z 16008KT 5SM -RA SCT015 OVC032 10/07 A2999 RMK AO2 SLP155 P0002 T01000067=
201511130053 METAR KBFI 130053Z COR 16009KT 3SM -RA BKN015 OVC037 09/06 A3002 RMK AO2 SLP164 P0002 T00940061=
201511122353 METAR KBFI 122353Z 17010G17KT 5SM -RA BKN015 OVC037 10/06 A3004 RMK AO2 SLP173 P0000 60000 T01000056 10117 20089 58027=
201511122253 METAR KBFI 122253Z 18010G22KT 10SM -RA BKN028 OVC050 11/04 A3008 RMK AO2 RAB06 SLP185 P0000 T01110044=
201511122153 METAR KBFI 122153Z 15015G24KT 10SM BKN050 OVC070 12/04 A3009 RMK AO2 PK WND 15027/2054 SLP190 T01170044=
201511122053 METAR KBFI 122053Z 16024G31KT 10SM BKN045 OVC120 12/04 A3012 RMK AO2 PK WND 15031/2053 RAE48 PRESFR SLP200 P0000 60000 T01170039 58036=
201511121953 METAR KBFI 121953Z 16010G18KT 10SM -RA OVC039 12/03 A3018 RMK AO2 SLP218 P0000 T01170028=
201511121853 METAR KBFI 121853Z 14011KT 10SM -RA FEW020 BKN045 OVC060 10/02 A3021 RMK AO2 SLP230 P0000 T01000017=
201511121753 METAR KBFI 121753Z 15014KT 10SM -RA FEW048 BKN060 OVC070 09/02 A3023 RMK AO2 SLP236 P0000 60000 T00940017 10094 20061 58015=
201511121653 METAR KBFI 121653Z 13012KT 10SM -RA SCT055 BKN120 OVC200 08/02 A3026 RMK AO2 RAB28 SLP247 P0000 T00830017=
201511121553 METAR KBFI 121553Z 14007KT 10SM FEW055 SCT075 BKN095 07/01 A3027 RMK AO2 SLP250 T00720011=
201511121453 METAR KBFI 121453Z 13007KT 10SM FEW060 OVC120 07/01 A3028 RMK AO2 SLP251 T00670011 58020=
201511121353 METAR KBFI 121353Z 14006KT 10SM OVC110 06/02 A3030 RMK AO2 SLP260 T00610017=
201511121253 METAR KBFI 121253Z 14006KT 10SM FEW036 OVC120 06/02 A3031 RMK AO2 SLP265 T00610017=
201511121153 METAR KBFI 121153Z 13006KT 10SM FEW036 SCT050 07/02 A3034 RMK AO2 SLP272 T00670022 10089 20061 58006=
201511121053 METAR KBFI 121053Z 13005KT 10SM SCT050 07/02 A3034 RMK AO2 SLP273 T00720022=
201511120953 METAR KBFI 120953Z 13006KT 10SM CLR 06/02 A3036 RMK AO2 SLP279 T00610022=
201511120853 METAR KBFI 120853Z 12004KT 10SM SCT029 BKN035 BKN110 07/03 A3036 RMK AO2 SLP278 T00720028 56000=
201511120753 METAR KBFI 120753Z 15005KT 10SM FEW017 06/03 A3036 RMK AO2 SLP278 T00610028 401280061=
201511120653 METAR KBFI 120653Z 14008KT 10SM FEW022 08/03 A3035 RMK AO2 SLP277 T00780028=
201511120644 SPECI KBFI 120644Z 14008KT 10SM SCT022 07/03 A3035 RMK AO2=
201511120553 METAR KBFI 120553Z 14007KT 10SM OVC022 08/03 A3036 RMK AO2 SLP279 T00830033 10111 20072 51008=
201511120453 METAR KBFI 120453Z 13004KT 10SM BKN024 09/04 A3035 RMK AO2 SLP278 T00890039=
201511120353 METAR KBFI 120353Z 15003KT 10SM SCT040 BKN110 09/04 A3034 RMK AO2 SLP274 T00890039=
201511120253 METAR KBFI 120253Z 15005KT 10SM BKN110 09/04 A3033 RMK AO2 SLP270 T00940044 53006=
201511120153 METAR KBFI 120153Z 14003KT 10SM FEW030 BKN120 10/03 A3032 RMK AO2 SLP267 T01000033=
201511120053 METAR KBFI 120053Z 00000KT 10SM FEW010 SCT040 11/03 A3031 RMK AO2 SLP264 T01060028=
201511112353 METAR KBFI 112353Z 20005KT 10SM SCT012 SCT043 11/03 A3031 RMK AO2 SLP264 T01110028 10128 20100 53006=
201511112253 METAR KBFI 112253Z 24005KT 10SM SCT035 12/03 A3030 RMK AO2 SLP261 T01220033=
201511112153 METAR KBFI 112153Z 18004KT 10SM SCT035 SCT100 BKN250 13/04 A3030 RMK AO2 SLP260 T01280039=
201511112053 METAR KBFI 112053Z VRB04KT 10SM SCT035 BKN200 12/04 A3029 RMK AO2 SLP257 T01220039 50004=
201511111953 METAR KBFI 111953Z 20005KT 10SM FEW017 SCT120 12/03 A3030 RMK AO2 SLP258 T01220033=
201511111853 METAR KBFI 111853Z 18006KT 10SM FEW020 SCT050 12/04 A3030 RMK AO2 SLP258 T01170039=
201511111753 METAR KBFI 111753Z 16007KT 10SM FEW020 SCT110 11/03 A3028 RMK AO2 SLP253 T01060033 10111 20078 51026=
201511111653 METAR KBFI 111653Z 13005KT 10SM SCT016 BKN030 BKN055 09/04 A3026 RMK AO2 SLP246 T00940044=
201511111553 METAR KBFI 111553Z 15003KT 10SM FEW017 SCT110 08/04 A3023 RMK AO2 SLP235 T00830039=
201511111539 SPECI KBFI 111539Z 17004KT 10SM SCT017 09/04 A3022 RMK AO2=
201511111453 METAR KBFI 111453Z 26003KT 10SM FEW013 BKN019 BKN035 09/05 A3020 RMK AO2 SLP227 T00940050 53027=
201511111353 METAR KBFI 111353Z 18006KT 10SM SCT015 BKN021 09/06 A3016 RMK AO2 SLP213 T00940056=
201511111253 METAR KBFI 111253Z 06005KT 10SM BKN018 OVC025 09/06 A3015 RMK AO2 SLP208 T00940056=
201511111153 METAR KBFI 111153Z 00000KT 10SM BKN018 OVC025 11/09 A3012 RMK AO2 SLP200 60011 70011 T01060089 10117 20094 52026=
201511111053 METAR KBFI 111053Z 21008KT 10SM BKN019 OVC025 11/08 A3009 RMK AO2 RAE07 SLP190 P0000 T01060083=
201511110953 METAR KBFI 110953Z 19010G16KT 10SM -RA FEW021 BKN048 OVC075 11/08 A3007 RMK AO2 RAB02 SLP184 P0002 T01060083=
201511110853 METAR KBFI 110853Z 19013G27KT 10SM SCT020 OVC030 11/09 A3005 RMK AO2 PK WND 19027/0848 RAE45 SLP174 P0003 60009 T01060089 55013=
201511110753 METAR KBFI 110753Z 18006G17KT 5SM -RA BKN030 OVC040 11/07 A3004 RMK AO2 SLP172 P0005 T01060072 401220033=
201511110653 METAR KBFI 110653Z 16012KT 7SM -RA OVC040 10/06 A3006 RMK AO2 SLP179 P0001 T01000056=
201511110553 METAR KBFI 110553Z 18013G20KT 10SM -RA BKN095 BKN110 12/04 A3008 RMK AO2 RAB52 SLP187 P0000 60000 T01170044 10117 20089 56028=
201511110453 METAR KBFI 110453Z 16014G24KT 10SM BKN039 11/04 A3011 RMK AO2 SLP195 T01110039=
201511110353 METAR KBFI 110353Z 17013G18KT 10SM FEW047 09/04 A3014 RMK AO2 SLP206 T00940044=
201511110253 METAR KBFI 110253Z 17012G19KT 10SM OVC047 11/05 A3017 RMK AO2 SLP215 T01110050 56012=
201511110153 METAR KBFI 110153Z 16010KT 10SM SCT038 BKN070 11/05 A3017 RMK AO2 SLP216 T01110050=
201511110053 METAR KBFI 110053Z 17006KT 10SM BKN037 OVC065 12/06 A3019 RMK AO2 SLP221 T01170056=
201511102353 METAR KBFI 102353Z VRB06KT 10SM SCT025 BKN035 OVC065 12/06 A3020 RMK AO2 SLP226 T01170061 10122 20089 56011=
201511102253 METAR KBFI 102253Z 17009KT 10SM FEW020 BKN032 BKN150 12/06 A3021 RMK AO2 SLP228 T01220061=
201511102153 METAR KBFI 102153Z 17008KT 10SM BKN032 OVC150 12/06 A3022 RMK AO2 SLP232 T01170056=
201511102053 METAR KBFI 102053Z 15008KT 10SM SCT020 BKN030 12/06 A3023 RMK AO2 SLP237 T01220056 58010=
201511101953 METAR KBFI 101953Z 14010KT 10SM SCT019 BKN033 BKN150 11/05 A3024 RMK AO2 SLP240 T01110050=
201511101946 SPECI KBFI 101946Z 16008KT 10SM SCT019 11/05 A3024 RMK AO2=
201511101934 SPECI KBFI 101934Z 14006KT 10SM BKN019 BKN037 11/06 A3025 RMK AO2=
201511101853 METAR KBFI 101853Z COR 14008KT 10SM FEW012 SCT040 OVC250 11/06 A3026 RMK AO2 SLP248 T01060056=
201511101753 METAR KBFI 101753Z 16004KT 10SM SCT007 BKN011 09/06 A3026 RMK AO2 SLP248 T00890056 10089 20067 51008=
201511101746 SPECI KBFI 101746Z 17005KT 9SM SCT007 BKN011 08/06 A3026 RMK AO2=
201511101653 METAR KBFI 101653Z 15008KT 5SM BR BKN005 08/06 A3026 RMK AO2 SLP246 T00780056=
201511101553 METAR KBFI 101553Z 18008KT 150V210 4SM BR OVC005 07/06 A3025 RMK AO2 SLP244 T00720056=
201511101453 METAR KBFI 101453Z 16007KT 140V200 2SM BR OVC002 07/06 A3024 RMK AO2 SLP240 T00720056 53013=
201511101400 SPECI KBFI 101400Z 16003KT 4SM BR OVC004 07/06 A3023 RMK AO2=
201511101353 METAR KBFI 101353Z 18004KT 2 1/2SM BR OVC002 07/06 A3023 RMK AO2 SLP236 T00720056=
201511101332 SPECI KBFI 101332Z 15005KT 2SM BR OVC002 07/06 A3022 RMK AO2=
201511101300 SPECI KBFI 101300Z 14006KT 3/4SM BR VV002 07/05 A3022 RMK AO2=
201511101253 METAR KBFI 101253Z 14006KT 1SM BR VV002 07/05 A3021 RMK AO2 SLP230 T00670050=
201511101239 SPECI KBFI 101239Z 14005KT 1SM BR VV002 07/05 A3021 RMK AO2=
201511101223 SPECI KBFI 101223Z 14007KT 1/2SM FG VV002 07/05 A3020 RMK AO2=
201511101153 METAR KBFI 101153Z 14005KT 1/4SM FG VV002 06/04 A3020 RMK AO2 SLP227 60000 70016 T00610044 10083 20033 51012=
201511101053 METAR KBFI 101053Z 16003KT 1/4SM FG VV001 06/04 A3020 RMK AO2 SLP226 T00610044=
201511101045 SPECI KBFI 101045Z 15004KT 1/4SM FG VV001 06/04 A3020 RMK AO2=
201511101023 SPECI KBFI 101023Z 14004KT 1/4SM FG VV002 04/03 A3019 RMK AO2=
201511101000 SPECI KBFI 101000Z 14004KT 1/4SM FG VV001 04/03 A3019 RMK AO2=
201511100953 METAR KBFI 100953Z 12003KT 1/4SM FG VV002 06/03 A3018 RMK AO2 RAB06E10 SLP220 P0000 T00560033=
201511100856 SPECI KBFI 100856Z 00000KT 1/4SM FG VV002 06/04 A3017 RMK AO2=
201511100853 METAR KBFI 100853Z 00000KT 1 1/2SM BR FEW035 06/04 A3017 RMK AO2 SLP215 60000 T00560039 51015=
201511100753 METAR KBFI 100753Z 00000KT 10SM CLR 06/04 A3016 RMK AO2 RAB01E18 SLP212 P0000 T00610039 401110061=
201511100653 METAR KBFI 100653Z 00000KT 10SM CLR 07/04 A3015 RMK AO2 SLP208 T00720044=
201511100553 METAR KBFI 100553Z 00000KT 10SM CLR 08/06 A3013 RMK AO2 SLP201 T00830056 10106 20083 53017=
201511100453 METAR KBFI 100453Z 00000KT 10SM SCT048 09/06 A3011 RMK AO2 SLP195 T00940056=
201511100353 METAR KBFI 100353Z 01007KT 10SM FEW015 BKN035 11/06 A3009 RMK AO2 SLP190 T01060061=
201511100253 METAR KBFI 100253Z 00000KT 10SM BKN034 BKN080 11/06 A3008 RMK AO2 SLP184 T01060061 53018=
201511100153 METAR KBFI 100153Z 35007KT 10SM BKN032 11/06 A3006 RMK AO2 SLP177 T01060061=
201511100053 METAR KBFI 100053Z 02003KT 10SM SCT021 BKN032 BKN065 11/07 A3004 RMK AO2 SLP171 T01060067=
201511092353 METAR KBFI 092353Z 34007KT 10SM SCT020 BKN032 BKN095 11/06 A3002 RMK AO2 SLP166 60006 T01060061 10111 20100 53018=
201511092253 METAR KBFI 092253Z VRB04KT 10SM SCT017 BKN022 OVC032 11/06 A3000 RMK AO2 RAB29E40 SLP158 P0000 T01060061=
201511092153 METAR KBFI 092153Z 00000KT 10SM SCT014 BKN022 OVC036 11/07 A2998 RMK AO2 RAE12 SLP152 P0001 T01110072=
201511092053 METAR KBFI 092053Z 04004KT 6SM -RA SCT010 OVC027 11/07 A2997 RMK AO2 RAE1957B45 SLP148 P0001 60005 T01060072 51006=
201511091953 METAR KBFI 091953Z 00000KT 10SM -RA FEW007 BKN015 OVC040 11/07 A2996 RMK AO2 RAE16B48 SLP145 P0000 T01060067=
201511091853 METAR KBFI 091853Z 00000KT 10SM -RA SCT007 BKN015 OVC040 10/07 A2996 RMK AO2 SLP145 P0004 T01000072=
201511091753 METAR KBFI 091753Z 11003KT 4SM -RA SCT007 BKN014 OVC031 10/07 A2995 RMK AO2 SLP141 P0003 60010 T01000072 10106 20094 51019=
201511091742 SPECI KBFI 091742Z 11003KT 6SM -RA FEW007 BKN013 OVC031 10/07 A2994 RMK AO2 P0002=
201511091653 METAR KBFI 091653Z 00000KT 7SM -RA BKN008 OVC020 10/07 A2993 RMK AO2 SLP135 P0006 T01000072=
201511091553 METAR KBFI 091553Z 30004KT 5SM -RA FEW005 SCT008 BKN030 10/07 A2991 RMK AO2 RAE1457B36 SLP130 P0000 T01000072=
201511091457 SPECI KBFI 091457Z 00000KT 9SM SCT012 BKN028 OVC050 10/08 A2990 RMK AO2 RAE57 P0000=
201511091455 SPECI KBFI 091455Z 00000KT 9SM -RA FEW009 BKN035 OVC055 10/08 A2990 RMK AO2 P0000=
201511091453 METAR KBFI 091453Z 00000KT 8SM -RA SCT012 BKN028 OVC050 10/07 A2989 RMK AO2 RAB32 SLP123 P0001 60001 T01000072 53013=
201511091353 METAR KBFI 091353Z 00000KT 9SM FEW008 BKN021 OVC040 10/07 A2988 RMK AO2 SLP117 T01000072=
201511091253 METAR KBFI 091253Z 00000KT 9SM BKN021 OVC031 10/07 A2986 RMK AO2 SLP112 T01000072=
201511091153 METAR KBFI 091153Z 00000KT 9SM BKN021 OVC031 10/07 A2986 RMK AO2 SLP110 60005 70037 T01000072 10100 20094 53005=
201511091135 SPECI KBFI 091135Z 00000KT 8SM BKN021 OVC047 09/07 A2985 RMK AO2=
201511091100 SPECI KBFI 091100Z 00000KT 10SM FEW023 OVC036 09/07 A2985 RMK AO2=
201511091053 METAR KBFI 091053Z 00000KT 9SM BKN021 OVC034 09/07 A2985 RMK AO2 SLP107 T00940072=
201511090953 METAR KBFI 090953Z 00000KT 10SM BKN021 OVC044 09/07 A2985 RMK AO2 SLP106 T00940072=
201511090938 SPECI KBFI 090938Z 00000KT 10SM BKN021 OVC042 09/07 A2984 RMK AO2=
201511090930 SPECI KBFI 090930Z 00000KT 10SM FEW007 SCT021 OVC042 09/07 A2984 RMK AO2=
201511090853 METAR KBFI 090853Z 00000KT 10SM FEW033 BKN040 OVC080 09/07 A2984 RMK AO2 RAB30E47 SLP104 P0000 60005 T00940067 53003=
201511090753 METAR KBFI 090753Z 00000KT 10SM BKN032 BKN080 OVC100 09/07 A2984 RMK AO2 RAB17E37 SLP103 P0000 T00940072 401330094=
201511090653 METAR KBFI 090653Z 16003KT 10SM FEW041 OVC050 09/07 A2983 RMK AO2 RAE45 SLP101 P0005 T00940067=
201511090553 METAR KBFI 090553Z 12003KT 5SM -RA OVC042 09/07 A2983 RMK AO2 SLP101 P0009 60014 T00940067 10122 20094 53011=
201511090453 METAR KBFI 090453Z 00000KT 5SM -RA FEW014 SCT020 OVC050 09/06 A2982 RMK AO2 RAB04 SLP098 P0005 T00940061=
201511090353 METAR KBFI 090353Z 00000KT 10SM OVC090 11/07 A2980 RMK AO2 SLP091 T01060072=
201511090253 METAR KBFI 090253Z 00000KT 10SM SCT110 11/07 A2980 RMK AO2 SLP090 T01060067 50001=
201511090153 METAR KBFI 090153Z 13003KT 10SM SCT100 OVC150 11/06 A2980 RMK AO2 SLP091 T01110061=
201511090053 METAR KBFI 090053Z 10003KT 10SM FEW020 BKN150 12/07 A2979 RMK AO2 SLP088 T01170072=
201511082353 METAR KBFI 082353Z 13006KT 10SM SCT022 BKN050 12/07 A2979 RMK AO2 SLP089 60009 T01220067 10133 20106 56010=
201511082253 METAR KBFI 082253Z 19003KT 10SM SCT021 BKN043 13/07 A2980 RMK AO2 SLP090 T01280067=
201511082153 SPECI KBFI 082153Z 15004KT 10SM SCT010 BKN021 BKN043 13/07 A2981 RMK AO2 SLP094 T01280072=
201511082153 METAR KBFI 082153Z 15004KT 10SM SCT010 BKN021 BKN043 13/07 A2981 RMK AO2 SLP094 T01280072=
201511082053 METAR KBFI 082053Z 21004KT 10SM SCT010 BKN019 BKN043 12/07 A2982 RMK AO2 SLP098 60009 T01220072 58007=
201511081953 METAR KBFI 081953Z 18003KT 10SM SCT011 BKN016 OVC040 12/08 A2983 RMK AO2 RAE26 SLP101 P0002 T01170078=
201511081853 METAR KBFI 081853Z 13003KT 3SM -RA SCT011 BKN016 OVC040 11/08 A2984 RMK AO2 SLP105 P0007 T01110083=
201511081753 METAR KBFI 081753Z 13006KT 7SM -RA SCT013 BKN024 BKN100 11/08 A2984 RMK AO2 SLP105 P0001 60009 T01110083 10111 20094 50005=
201511081653 METAR KBFI 081653Z 14006KT 7SM -RA SCT013 BKN030 BKN100 11/08 A2985 RMK AO2 RAB51 SLP106 P0000 T01060078=
201511081553 METAR KBFI 081553Z 00000KT 10SM BKN013 BKN100 OVC110 10/08 A2983 RMK AO2 RAE17 SLP102 P0001 T01000078=
201511081453 METAR KBFI 081453Z 00000KT 4SM -RA OVC010 10/07 A2983 RMK AO2 RAB21 SLP100 P0006 60007 T01000072 56002=
201511081353 METAR KBFI 081353Z 28003KT 10SM BKN014 BKN042 10/07 A2983 RMK AO2 RAB17E48 SLP101 P0001 T01000067=
201511081253 METAR KBFI 081253Z 06003KT 10SM BKN014 BKN042 10/07 A2983 RMK AO2 SLP101 T01000067=
201511081153 METAR KBFI 081153Z 13005KT 10SM SCT008 BKN016 OVC030 11/08 A2984 RMK AO2 SLP103 60007 70050 T01060078 10122 20106 50001=
201511081114 SPECI KBFI 081114Z 11004KT 10SM FEW008 SCT045 BKN060 11/08 A2984 RMK AO2=
201511081053 METAR KBFI 081053Z 13006KT 10SM SCT021 BKN060 OVC120 11/08 A2984 RMK AO2 SLP104 T01060078=
201511080953 METAR KBFI 080953Z 14006KT 10SM FEW010 SCT024 OVC100 11/08 A2984 RMK AO2 RAB0857E31 SLP104 P0001 T01110083=
201511080853 METAR KBFI 080853Z 11004KT 10SM SCT016 BKN024 OVC032 12/08 A2983 RMK AO2 RAE0756 SLP102 P0000 60006 T01170083 50004=
201511080814 SPECI KBFI 080814Z 12003KT 10SM SCT013 BKN020 OVC049 11/08 A2985 RMK AO2 RAE0756 P0000=
201511080753 METAR KBFI 080753Z 00000KT 10SM -RA FEW013 BKN047 OVC070 11/08 A2984 RMK AO2 SLP103 P0002 T01110083 401390111=
201511080653 METAR KBFI 080653Z 00000KT 7SM -RA FEW017 BKN047 OVC055 12/08 A2983 RMK AO2 SLP101 P0004 T01170083=
201511080553 METAR KBFI 080553Z 00000KT 10SM -RA FEW012 SCT017 OVC060 12/09 A2982 RMK AO2 SLP098 P0002 60015 T01220089 10133 20122 50002=
201511080453 METAR KBFI 080453Z 00000KT 9SM -RA FEW020 OVC055 12/09 A2983 RMK AO2 RAE06B25 SLP099 P0001 T01220089=
201511080353 METAR KBFI 080353Z 20005KT 10SM -RA BKN048 OVC060 13/09 A2982 RMK AO2 SLP096 P0001 T01280094=
201511080253 METAR KBFI 080253Z 18010G16KT 9SM -RA FEW010 BKN049 OVC060 13/09 A2982 RMK AO2 SLP096 P0005 60011 T01330094 55002=
201511080153 METAR KBFI 080153Z 22005KT 3SM -RA BKN039 OVC045 13/11 A2981 RMK AO2 SLP095 P0004 T01330106=
201511080053 METAR KBFI 080053Z 14003KT 6SM -RA BR FEW012 BKN036 OVC045 13/11 A2981 RMK AO2 SLP094 P0002 T01330111=
201511072353 METAR KBFI 072353Z 14005KT 3SM -RA BR BKN010 OVC034 13/11 A2982 RMK AO2 SLP099 P0002 60014 T01330111 10139 20122 58017=
201511072331 SPECI KBFI 072331Z 14006KT 2 1/2SM -RA BR BKN010 OVC034 13/11 A2984 RMK AO2 P0001=
201511072253 METAR KBFI 072253Z 16007KT 7SM -RA BKN012 OVC039 13/11 A2984 RMK AO2 RAE2157B34 SLP106 P0000 T01330106=
201511072153 METAR KBFI 072153Z COR 17007KT 3SM -RA BKN025 OVC039 13/11 A2986 RMK AO2 SLP110 P0001 T01330106=
201511072053 METAR KBFI 072053Z 14007KT 3SM -RA BKN032 OVC043 13/11 A2987 RMK AO2 SLP115 P0002 60011 T01330106 58023=
201511071953 METAR KBFI 071953Z 15006KT 10SM -RA OVC040 13/11 A2990 RMK AO2 SLP124 P0001 T01330111=
201511071853 METAR KBFI 071853Z 15004KT 10SM -RA BKN040 OVC075 13/11 A2992 RMK AO2 SLP133 P0008 T01280106=
201511071753 METAR KBFI 071753Z 13006KT 4SM -RA BKN060 OVC075 12/09 A2994 RMK AO2 SLP138 P0011 60014 T01220089 10128 20117 58008=
201511071653 METAR KBFI 071653Z COR 13006KT 10SM -RA BKN040 OVC080 13/08 A2995 RMK AO2 SLP143 P0002 T01280083=
201511071553 METAR KBFI 071553Z 00000KT 10SM -RA BKN031 OVC050 13/08 A2996 RMK AO2 RAB51 SLP143 P0001 T01280078=
201511071453 METAR KBFI 071453Z 12004KT 10SM BKN047 OVC080 12/08 A2996 RMK AO2 RAE1358 SLP146 P0000 60000 T01220083 58017=
201511071353 METAR KBFI 071353Z 12003KT 10SM -RA BKN047 OVC060 12/08 A2999 RMK AO2 RAB43 SLP156 P0000 T01220083=
201511071253 METAR KBFI 071253Z 00000KT 10SM OVC055 12/08 A3001 RMK AO2 SLP163 T01220083=
201511071153 METAR KBFI 071153Z 17005KT 10SM BKN110 12/08 A3001 RMK AO2 SLP163 70001 T01170083 10133 20117 58020=
201511071100 METAR KBFI NIL=
201511071053 METAR KBFI 071053Z 14005KT 10SM OVC100 12/08 A3004 RMK AO2 SLP173 T01220083=
201511070953 METAR KBFI 070953Z 14003KT 10SM OVC120 13/08 A3006 RMK AO2 SLP180 T01280083=
201511070853 METAR KBFI 070853Z 16006KT 10SM BKN120 12/09 A3007 RMK AO2 SLP183 T01220089 58020=
201511070753 METAR KBFI 070753Z 15003KT 10SM OVC090 12/08 A3010 RMK AO2 SLP191 T01220083 401720100=
201511070653 METAR KBFI 070653Z 14003KT 10SM BKN110 12/08 A3011 RMK AO2 SLP196 T01220083=
201511070553 METAR KBFI 070553Z 13005KT 10SM FEW110 12/08 A3013 RMK AO2 SLP202 T01220078 10156 20122 58017=
201511070453 METAR KBFI 070453Z 12004KT 10SM BKN100 13/08 A3015 RMK AO2 SLP209 T01330083=
201511070353 METAR KBFI 070353Z 14005KT 10SM FEW070 BKN090 13/08 A3016 RMK AO2 SLP213 T01330083=
201511070253 METAR KBFI 070253Z 13005KT 10SM BKN090 14/08 A3018 RMK AO2 SLP219 T01390083 58015=
201511070153 METAR KBFI 070153Z 13004KT 10SM OVC095 14/08 A3019 RMK AO2 SLP224 T01440083=
201511070053 METAR KBFI 070053Z 17003KT 10SM BKN060 BKN095 15/08 A3021 RMK AO2 SLP231 T01500083=
201511062353 METAR KBFI 062353Z 18004KT 10SM BKN075 BKN090 16/08 A3022 RMK AO2 SLP234 60000 T01560083 10172 20111 56013=
201511062253 METAR KBFI 062253Z 19006KT 10SM BKN060 BKN095 16/08 A3023 RMK AO2 SLP237 T01610083=
201511062153 METAR KBFI 062153Z 16009KT 10SM FEW042 BKN065 BKN090 17/09 A3024 RMK AO2 SLP241 T01720089=
201511062053 METAR KBFI 062053Z 16008KT 10SM BKN050 BKN120 OVC200 16/09 A3026 RMK AO2 SLP247 60000 T01610094 58019=
201511061953 METAR KBFI 061953Z 14008KT 10SM FEW045 BKN060 14/09 A3030 RMK AO2 SLP258 T01440089=
201511061853 METAR KBFI 061853Z 15008KT 10SM BKN040 BKN050 OVC065 12/09 A3031 RMK AO2 RAB32E37 SLP264 P0000 T01220089=
201511061753 METAR KBFI 061753Z 15003KT 10SM OVC034 11/08 A3032 RMK AO2 SLP266 60001 T01110083 10111 20100 51001=
201511061653 METAR KBFI 061653Z 13005KT 10SM SCT016 OVC032 11/08 A3032 RMK AO2 RAE40 SLP265 P0000 T01060078=
201511061553 METAR KBFI 061553Z 14006KT 3SM -RA OVC018 10/07 A3032 RMK AO2 RAE02B38 SLP267 P0001 T01000072=
201511061453 METAR KBFI 061453Z 14005KT 5SM -RA OVC024 10/07 A3031 RMK AO2 RAB16E25B50 SLP265 P0000 60000 T01000072 55001=
201511061353 METAR KBFI 061353Z 14004KT 10SM BR FEW012 BKN026 OVC032 10/07 A3031 RMK AO2 SLP264 T01000072=
201511061332 SPECI KBFI 061332Z 16004KT 8SM BR FEW012 BKN026 OVC032 10/07 A3031 RMK AO2=
201511061253 METAR KBFI 061253Z 14004KT 5SM BR FEW006 SCT016 OVC032 10/07 A3031 RMK AO2 SLP264 T01000072=
201511061208 SPECI KBFI 061208Z 13005KT 5SM BR SCT005 BKN045 OVC090 10/07 A3032 RMK AO2=
201511061153 METAR KBFI 061153Z COR 14006KT 3SM BR SCT005 BKN045 OVC090 10/07 A3032 RMK AO2 SLP265 T01000072 10106 20100 58000=
201511061118 SPECI KBFI 061118Z 15005KT 3SM BR BKN005 OVC015 10/07 A3031 RMK AO2=
201511061100 SPECI KBFI 061100Z 13004KT 4SM BR FEW005 BKN015 10/07 A3032 RMK AO2=
201511061053 METAR KBFI 061053Z 14005KT 4SM BR FEW005 BKN013 OVC019 10/07 A3032 RMK AO2 SLP266 T01000072=
201511061022 SPECI KBFI 061022Z 13005KT 7SM BR BKN013 OVC018 10/07 A3032 RMK AO2=
201511060953 METAR KBFI 060953Z 00000KT 6SM BR FEW009 OVC016 10/07 A3032 RMK AO2 SLP267 T01000072=
201511060853 METAR KBFI 060853Z 14005KT 6SM BR BKN009 OVC014 10/08 A3032 RMK AO2 SLP265 T01000078 51009=
201511060823 SPECI KBFI 060823Z 14005KT 9SM FEW007 OVC012 10/07 A3032 RMK AO2=
201511060753 METAR KBFI 060753Z 15003KT 8SM OVC012 10/08 A3031 RMK AO2 SLP263 T01000078 401280089=
201511060653 METAR KBFI 060653Z 11003KT 10SM BKN012 10/08 A3030 RMK AO2 SLP259 T01000078=
201511060638 SPECI KBFI 060638Z 14003KT 10SM BKN015 09/07 A3030 RMK AO2=
201511060553 METAR KBFI 060553Z 00000KT 10SM SCT050 OVC060 10/07 A3029 RMK AO2 SLP256 T01000072 10128 20100 51016=
201511060453 METAR KBFI 060453Z 00000KT 10SM SCT043 BKN050 OVC060 11/07 A3028 RMK AO2 SLP253 T01110072=
201511060353 METAR KBFI 060353Z 00000KT 10SM SCT045 OVC060 11/07 A3025 RMK AO2 SLP244 T01110067=
201511060253 METAR KBFI 060253Z 00000KT 10SM BKN043 OVC060 11/07 A3024 RMK AO2 SLP240 T01110072 51013=
201511060153 METAR KBFI 060153Z 00000KT 10SM OVC043 12/07 A3023 RMK AO2 SLP238 T01220072=
201511060053 METAR KBFI 060053Z 00000KT 10SM BKN042 OVC060 12/07 A3022 RMK AO2 SLP231 T01220067=
201511052353 METAR KBFI 052353Z 00000KT 10SM BKN044 OVC060 13/06 A3020 RMK AO2 SLP227 T01280061 10128 20117 53012=
201511052253 METAR KBFI 052253Z 36004KT 10SM SCT012 BKN034 OVC043 13/07 A3019 RMK AO2 SLP223 T01280067=
201511052153 METAR KBFI 052153Z 00000KT 10SM BKN036 OVC049 13/08 A3018 RMK AO2 SLP218 T01280078=
201511052100 SPECI KBFI 052100Z 00000KT 10SM BKN027 OVC041 13/08 A3017 RMK AO2=
201511052053 METAR KBFI 052053Z 29003KT 10SM SCT009 BKN012 OVC030 12/08 A3017 RMK AO2 SLP215 T01220083 53010=
201511051953 METAR KBFI 051953Z 00000KT 10SM SCT009 OVC012 12/08 A3016 RMK AO2 SLP211 T01220083=
201511051853 METAR KBFI 051853Z 00000KT 10SM OVC010 12/08 A3014 RMK AO2 SLP207 T01170078=
201511051753 METAR KBFI 051753Z 18005KT 10SM OVC012 12/07 A3014 RMK AO2 SLP205 T01170072 10117 20094 53007=
201511051653 METAR KBFI 051653Z VRB05KT 10SM FEW008 OVC012 11/07 A3013 RMK AO2 SLP201 T01110072=
201511051553 METAR KBFI 051553Z 14007KT 10SM OVC010 11/07 A3012 RMK AO2 SLP200 T01060072=
201511051453 METAR KBFI 051453Z 14007KT 10SM OVC010 10/07 A3012 RMK AO2 SLP198 T01000072 55000=
201511051353 METAR KBFI 051353Z 14006KT 10SM OVC010 09/07 A3012 RMK AO2 SLP198 T00940067=
201511051253 METAR KBFI 051253Z 14007KT 10SM OVC010 09/07 A3011 RMK AO2 SLP197 T00940067=
201511051153 METAR KBFI 051153Z AUTO 15007KT 10SM BKN010 OVC014 09/07 A3012 RMK AO2 RAE17 CIG 009V013 SLP198 P0001 60001 70001 T00940067 10100 20089 58004 TSNO=
201511051104 SPECI KBFI 051104Z AUTO 14005KT 6SM -RA OVC014 09/07 A3012 RMK AO2 P0001 TSNO=
201511051053 METAR KBFI 051053Z 14005KT 8SM -RA OVC016 10/06 A3012 RMK AO2 RAB37 SLP200 P0000 T01000061=
201511051000 SPECI KBFI 051000Z 14006KT 10SM OVC016 09/06 A3012 RMK AO2=
201511050953 METAR KBFI 050953Z 14006KT 10SM SCT025 OVC030 09/06 A3012 RMK AO2 SLP200 T00940056=
201511050853 METAR KBFI 050853Z 14006KT 10SM OVC030 09/06 A3013 RMK AO2 SLP202 T00940056 58007=
201511050753 METAR KBFI 050753Z 15007KT 10SM BKN090 OVC100 09/05 A3014 RMK AO2 SLP205 T00890050 401220028=
201511050653 METAR KBFI 050653Z 14005KT 10SM SCT025 OVC085 09/05 A3015 RMK AO2 SLP210 T00890050=
201511050553 METAR KBFI 050553Z 14007KT 10SM SCT025 OVC085 09/04 A3015 RMK AO2 SLP209 T00890044 10111 20083 58002=
201511050453 METAR KBFI 050453Z 15005KT 10SM FEW070 BKN080 09/04 A3016 RMK AO2 SLP211 T00890044=
201511050353 METAR KBFI 050353Z 14004KT 10SM BKN080 09/04 A3016 RMK AO2 SLP211 T00890039=
201511050253 METAR KBFI 050253Z 14003KT 10SM SCT250 10/04 A3016 RMK AO2 SLP212 T01000039 55004=
201511050153 METAR KBFI 050153Z AUTO 15003KT 10SM SCT085 09/03 A3016 RMK AO2 SLP211 T00890033 TSNO=
201511050053 METAR KBFI 050053Z 18005KT 10SM SCT032 BKN250 09/02 A3016 RMK AO2 SLP212 T00890022=
201511042353 METAR KBFI 042353Z VRB03KT 10SM SCT025 BKN075 BKN250 11/03 A3017 RMK AO2 SLP215 T01110028 10122 20083 56003=
201511042253 METAR KBFI 042253Z 00000KT 10SM BKN038 BKN250 12/03 A3017 RMK AO2 SLP216 T01170028=
201511042153 METAR KBFI 042153Z 15004KT 10SM SCT025 OVC040 12/04 A3016 RMK AO2 SLP214 T01170039=
201511042053 METAR KBFI 042053Z 18004KT 10SM OVC035 12/04 A3018 RMK AO2 SLP218 T01170039 56005=
201511041953 METAR KBFI 041953Z VRB03KT 10SM FEW020 SCT100 11/04 A3018 RMK AO2 SLP218 T01110039=
201511041853 METAR KBFI 041853Z 13005KT 10SM FEW050 SCT150 10/03 A3019 RMK AO2 SLP223 T01000033=
201511041753 METAR KBFI 041753Z 15006KT 10SM FEW070 SCT150 OVC250 08/03 A3019 RMK AO2 SLP223 T00830033 10083 20028 50001=
201511041653 METAR KBFI 041653Z 15005KT 10SM FEW013 SCT050 BKN200 07/03 A3020 RMK AO2 SLP226 T00720033=
201511041553 METAR KBFI 041553Z 00000KT 10SM SCT034 BKN200 04/02 A3020 RMK AO2 SLP226 T00440017=
201511041453 METAR KBFI 041453Z 16004KT 10SM FEW030 SCT150 BKN200 04/02 A3019 RMK AO2 SLP222 T00440017 51002=
201511041353 METAR KBFI 041353Z COR 14004KT 9SM FEW020 SCT100 03/01 A3018 RMK AO2 SLP220 T00330011=
201511041253 METAR KBFI 041253Z 14006KT 10SM FEW002 SCT026 04/01 A3019 RMK AO2 SLP223 T00390011=
201511041153 METAR KBFI 041153Z 15005KT 10SM FEW002 SCT014 04/02 A3018 RMK AO2 SLP220 70006 T00440022 10067 20039 51004=
201511041053 METAR KBFI 041053Z 14004KT 10SM SCT010 04/02 A3018 RMK AO2 SLP220 T00440022=
201511040953 METAR KBFI 040953Z 14005KT 10SM OVC010 06/03 A3018 RMK AO2 SLP220 T00610033=
201511040853 METAR KBFI 040853Z 14006KT 10SM SCT010 BKN029 06/03 A3017 RMK AO2 SLP216 T00560033 51004=
201511040753 METAR KBFI 040753Z 15004KT 6SM BR BKN027 05/03 A3017 RMK AO2 SLP215 T00500033 401220050=
201511040751 SPECI KBFI 040751Z 14005KT 6SM BR BKN027 05/03 A3017 RMK AO2 401220050=
201511040653 METAR KBFI 040653Z 10003KT 9SM CLR 07/04 A3016 RMK AO2 SLP212 T00670039=
201511040553 METAR KBFI 040553Z COR 00000KT 10SM CLR 06/04 A3016 RMK AO2 SLP213 T00610039 10117 20056 53010=
201511040453 METAR KBFI 040453Z 00000KT 10SM FEW025 07/04 A3015 RMK AO2 SLP209 T00720044=
201511040353 METAR KBFI 040353Z 00000KT 10SM FEW026 08/05 A3014 RMK AO2 SLP204 T00830050=
201511040253 METAR KBFI 040253Z 00000KT 10SM BKN026 09/04 A3013 RMK AO2 SLP203 T00890044 51013=
201511040153 METAR KBFI 040153Z 00000KT 10SM BKN028 10/05 A3012 RMK AO2 SLP199 T01000050=
201511040053 METAR KBFI 040053Z 35005KT 10SM SCT025 11/04 A3011 RMK AO2 SLP194 T01110044=
201511032353 METAR KBFI 032353Z 35007KT 10SM SCT029 BKN042 12/04 A3009 RMK AO2 SLP190 60005 T01170044 10122 20094 53011=
201511032253 METAR KBFI 032253Z 35007KT 10SM BKN029 OVC046 12/04 A3008 RMK AO2 SLP187 T01170044=
201511032153 METAR KBFI 032153Z 34009KT 10SM SCT029 BKN042 12/04 A3007 RMK AO2 SLP181 T01170044=
201511032053 METAR KBFI 032053Z 35010KT 10SM SCT026 BKN032 11/05 A3006 RMK AO2 SLP179 60005 T01110050 50000=
201511031953 METAR KBFI 031953Z VRB04KT 10SM SCT025 BKN030 11/05 A3006 RMK AO2 SLP180 T01110050=
201511031853 METAR KBFI 031853Z 26003KT 10SM SCT025 BKN032 OVC039 10/05 A3006 RMK AO2 RAE37 SLP179 P0005 T01000050=
201511031753 METAR KBFI 031753Z 00000KT 7SM -RA SCT015 BKN025 BKN049 10/06 A3006 RMK AO2 RAB50 SLP178 P0000 60001 T01000061 10100 20078 51014=
201511031653 METAR KBFI 031653Z 14003KT 10SM BKN010 BKN013 OVC030 09/06 A3005 RMK AO2 RAE00 SLP177 P0000 T00940061=
201511031553 METAR KBFI 031553Z 00000KT 9SM -RA FEW010 BKN042 OVC050 08/06 A3004 RMK AO2 RAB37 SLP171 P0000 T00830061=
201511031453 METAR KBFI 031453Z 00000KT 10SM FEW012 SCT037 OVC075 09/06 A3002 RMK AO2 SLP165 P0001 60001 T00890061 51008=
201511031353 METAR KBFI 031353Z 17003KT 10SM FEW024 BKN045 OVC075 08/06 A3002 RMK AO2 RAB32E46 SLP164 P0000 T00830056=
201511031253 METAR KBFI 031253Z 00000KT 10SM FEW042 OVC075 08/06 A3000 RMK AO2 SLP158 T00830056=
201511031153 METAR KBFI 031153Z 00000KT 10SM BKN046 OVC055 08/06 A2999 RMK AO2 RAB36E47 SLP156 P0001 60001 70008 T00830056 10094 20067 58001=
201511031053 METAR KBFI 031053Z 00000KT 10SM BKN044 OVC060 08/06 A3000 RMK AO2 RAB39E49 SLP159 P0000 T00830056=
201511030953 METAR KBFI 030953Z 00000KT 10SM OVC042 08/06 A3000 RMK AO2 RAB0855E11 SLP159 P0000 T00830056=
201511030853 METAR KBFI 030853Z 00000KT 10SM FEW048 BKN060 08/05 A3000 RMK AO2 SLP158 T00830050 56002=
201511030753 METAR KBFI 030753Z 00000KT 10SM SCT050 07/04 A3000 RMK AO2 SLP158 T00720044 401330067=
201511030653 METAR KBFI 030653Z 00000KT 10SM SCT060 08/05 A3000 RMK AO2 SLP160 T00830050=
201511030553 METAR KBFI 030553Z 00000KT 10SM SCT060 09/05 A3001 RMK AO2 SLP160 T00940050 10133 20094 52014=
201511030453 METAR KBFI 030453Z 00000KT 10SM SCT065 10/05 A2999 RMK AO2 SLP155 T01000050=
201511030353 METAR KBFI 030353Z 02003KT 10SM OVC065 11/06 A2998 RMK AO2 SLP152 T01060056=
201511030253 METAR KBFI 030253Z 35003KT 10SM BKN055 12/06 A2996 RMK AO2 SLP146 T01170056 53008=
201511030153 METAR KBFI 030153Z 00000KT 10SM OVC049 12/06 A2995 RMK AO2 SLP142 T01170061=
201511030053 METAR KBFI 030053Z 00000KT 10SM FEW026 BKN049 12/06 A2994 RMK AO2 SLP139 T01220061=
201511030000 SPECI KBFI 030000Z VRB04KT 10SM SCT026 BKN033 OVC049 13/06 A2994 RMK AO2=
201511022353 METAR KBFI 022353Z 02004KT 10SM SCT016 BKN024 OVC037 13/06 A2994 RMK AO2 SLP138 60007 T01280061 10128 20111 53002=
201511022332 SPECI KBFI 022332Z VRB03KT 10SM SCT016 BKN024 OVC037 13/07 A2994 RMK AO2=
201511022325 SPECI KBFI 022325Z 00000KT 10SM FEW017 SCT023 OVC032 13/07 A2994 RMK AO2=
201511022253 METAR KBFI 022253Z 03004KT 10SM SCT016 BKN024 OVC037 13/07 A2994 RMK AO2 SLP137 T01280072=
201511022230 SPECI KBFI 022230Z 00000KT 10SM SCT016 BKN024 OVC037 13/07 A2993 RMK AO2=
201511022223 SPECI KBFI 022223Z 00000KT 10SM FEW016 SCT028 OVC037 13/07 A2993 RMK AO2=
201511022200 SPECI KBFI 022200Z 04003KT 10SM BKN023 BKN031 OVC043 13/08 A2993 RMK AO2=
201511022153 METAR KBFI 022153Z 00000KT 10SM SCT020 BKN030 OVC055 13/08 A2993 RMK AO2 SLP136 T01280078=
201511022053 METAR KBFI 022053Z 00000KT 10SM FEW010 SCT023 BKN044 12/08 A2993 RMK AO2 RAE14 SLP136 P0000 60007 T01220078 58001=
201511021953 METAR KBFI 021953Z 00000KT 5SM -RA FEW012 SCT023 OVC032 12/08 A2993 RMK AO2 SLP136 P0006 T01170083=
201511021926 SPECI KBFI 021926Z 00000KT 4SM -RA SCT008 BKN017 OVC026 11/08 A2994 RMK AO2 VIS W-N 1 1/2SM P0005=
201511021853 METAR KBFI 021853Z 00000KT 7SM -RA SCT008 BKN012 OVC029 11/08 A2994 RMK AO2 RAB31 SLP137 P0001 T01110078=
201511021753 METAR KBFI 021753Z 00000KT 10SM SCT014 BKN029 OVC037 12/08 A2994 RMK AO2 SLP137 60000 T01170078 10117 20111 51010=
201511021653 METAR KBFI 021653Z 00000KT 10SM SCT014 BKN029 OVC037 12/08 A2993 RMK AO2 RAB06E16 SLP136 P0000 T01170078=
201511021553 METAR KBFI 021553Z 00000KT 10SM OVC014 12/07 A2992 RMK AO2 SLP132 T01170072=
201511021453 METAR KBFI 021453Z 00000KT 10SM BKN012 OVC020 11/08 A2991 RMK AO2 RAB22E36 SLP127 P0000 60000 T01110078 51008=
201511021353 METAR KBFI 021353Z 16004KT 10SM OVC014 11/08 A2990 RMK AO2 SLP124 T01110078=
201511021253 METAR KBFI 021253Z 16005KT 10SM OVC014 11/07 A2989 RMK AO2 SLP122 T01110072=
201511021153 METAR KBFI 021153Z 20004KT 10SM BKN014 12/07 A2988 RMK AO2 SLP118 70038 T01170072 10122 20111 51006=
201511021142 SPECI KBFI 021142Z 18003KT 10SM OVC014 12/07 A2988 RMK AO2=
201511021100 SPECI KBFI 021100Z 19006KT 10SM BKN016 OVC028 12/07 A2988 RMK AO2=
201511021053 METAR KBFI 021053Z 19004KT 10SM SCT030 BKN100 12/07 A2988 RMK AO2 SLP118 T01170072=
201511020953 METAR KBFI 020953Z 16004KT 10SM SCT030 BKN100 12/07 A2987 RMK AO2 SLP116 T01170072=
201511020853 METAR KBFI 020853Z 16005KT 10SM SCT030 BKN100 11/07 A2986 RMK AO2 SLP112 T01110072 53008=
201511020753 METAR KBFI 020753Z 18006G14KT 10SM SCT030 BKN100 12/08 A2985 RMK AO2 SLP109 T01220078 401390106=
201511020653 METAR KBFI 020653Z 18011G20KT 10SM SCT025 BKN110 12/08 A2984 RMK AO2 SLP104 T01220078=
201511020553 METAR KBFI 020553Z 15010KT 10SM BKN017 BKN027 12/08 A2984 RMK AO2 SLP104 60002 T01170078 10133 20111 53009=
201511020453 METAR KBFI 020453Z 15012KT 10SM SCT025 SCT150 12/08 A2983 RMK AO2 SLP102 T01170078=
201511020353 METAR KBFI 020353Z 16013KT 10SM FEW150 12/08 A2982 RMK AO2 SLP096 T01220083=
201511020253 METAR KBFI 020253Z 17012G22KT 10SM FEW030 BKN240 13/08 A2981 RMK AO2 PK WND 16028/0221 SLP095 60002 T01280083 51014=
201511020153 METAR KBFI 020153Z 17015G22KT 10SM FEW027 BKN050 BKN095 13/08 A2980 RMK AO2 RAE0058 SLP089 P0001 T01280083=
201511020053 METAR KBFI 020053Z 18012KT 10SM -RA FEW027 BKN050 BKN095 13/09 A2979 RMK AO2 RAB36 SLP088 P0001 T01330089=
201511012353 METAR KBFI 012353Z 17008KT 10SM SCT032 BKN065 BKN110 13/11 A2977 RMK AO2 RAE10B41E52 SLP081 P0001 60020 T01330111 10139 20122 51006=
201511012253 METAR KBFI 012253Z 17012G19KT 8SM -RA SCT015 BKN035 OVC050 14/11 A2977 RMK AO2 PK WND 17028/2159 RAB2155 SLP081 P0006 T01390106 $=
201511012153 METAR KBFI 012153Z 17014G21KT 10SM SCT026 BKN035 14/09 A2976 RMK AO2 PK WND 16026/2121 RAB43E53 SLP078 P0000 T01390089=
201511012053 METAR KBFI 012053Z 17016G25KT 10SM SCT026 BKN035 14/11 A2975 RMK AO2 RAE31 SLP075 P0002 60013 T01390111 58004=
201511011953 METAR KBFI 011953Z 16014G21KT 5SM -RA BKN028 OVC045 12/08 A2976 RMK AO2 SLP078 P0010 T01220083=
201511011853 METAR KBFI 011853Z 17012KT 10SM -RA BKN028 OVC045 13/08 A2976 RMK AO2 RAE02B39 SLP077 P0001 T01330078=
201511011753 METAR KBFI 011753Z 15009KT 10SM -RA BKN028 OVC045 13/08 A2976 RMK AO2 RAB43 SLP079 P0000 60016 T01280078 10128 20106 50007=
201511011653 METAR KBFI 011653Z 16010KT 10SM SCT026 BKN060 OVC080 12/07 A2978 RMK AO2 RAB19E28 SLP083 P0000 T01220072=
201511011553 METAR KBFI 011553Z 16009KT 10SM SCT020 SCT036 BKN060 12/08 A2977 RMK AO2 SLP079 T01170083=
201511011453 METAR KBFI 011453Z 17010G17KT 10SM FEW015 BKN043 11/08 A2974 RMK AO2 RAB02E18 SLP071 P0001 60016 T01110083 52014=
201511011353 METAR KBFI 011353Z COR 18007G16KT 10SM BKN043 BKN055 OVC110 11/08 A2973 RMK AO2 RAB01E43 SLP067 P0014 T01110083=
201511011253 METAR KBFI 011253Z 17008KT 10SM OVC060 12/08 A2971 RMK AO2 RAB1156E48 SLP061 P0001 T01170078=
201511011153 METAR KBFI 011153Z 17007KT 10SM BKN026 BKN039 OVC080 12/09 A2970 RMK AO2 RAE53 SLP057 P0003 60013 70060 T01220089 10139 20122 53007=
201511011053 METAR KBFI 011053Z 19008G15KT 10SM -RA OVC065 12/09 A2969 RMK AO2 RAB0959 SLP054 P0001 T01220089=
201511010953 METAR KBFI 010953Z 17010G20KT 10SM BKN075 OVC095 13/09 A2968 RMK AO2 RAE42 SLP051 P0001 T01280094=
201511010853 METAR KBFI 010853Z 18011G25KT 10SM -RA FEW020 SCT035 OVC060 13/09 A2968 RMK AO2 PK WND 17026/0843 SLP050 P0005 60008 T01330089 53002=
201511010753 METAR KBFI 010753Z 17015G22KT 6SM -RA FEW035 BKN049 OVC060 14/09 A2965 RMK AO2 SLP039 P0003 T01390094 401720122=
201511010653 METAR KBFI 010653Z 15010KT 10SM -RA FEW045 OVC060 13/09 A2965 RMK AO2 RAB53 SLP041 P0000 T01330094=
201511010553 METAR KBFI 010553Z 15007KT 10SM FEW038 SCT075 BKN110 13/11 A2967 RMK AO2 RAB12E29 SLP048 P0000 60016 T01280106 10144 20122 58007=
201511010453 METAR KBFI 010453Z 16010KT 10SM FEW028 SCT043 13/09 A2970 RMK AO2 RAE06 SLP056 P0001 T01330094=
201511010353 METAR KBFI 010353Z 16008KT 7SM -RA FEW011 SCT019 OVC055 13/11 A2971 RMK AO2 RAB09 SLP059 P0010 T01330106=
201511010253 METAR KBFI 010253Z 18011G18KT 10SM SCT025 BKN110 14/11 A2969 RMK AO2 SLP055 60005 T01390106 53004=
201511010153 METAR KBFI 010153Z 17011G21KT 10SM SCT015 OVC085 14/11 A2968 RMK AO2 RAE30 SLP050 P0001 T01390106=
201511010053 METAR KBFI 010053Z 17016G21KT 5SM -RA SCT019 BKN023 OVC035 14/11 A2967 RMK AO2 SLP046 P0004 T01390111=

# No short TAF reports from KBFI in databse.

###################################
#  large TAF from KBFI
###################################
201511302324 TAF KBFI 302324Z 0100/0124 16006KT P6SM OVC040
                      TEMPO 0100/0104 -RA FM011200 14008KT P6SM
                       OVC040=
201511302107 TAF AMD KBFI 302107Z 3021/0118 VRB04KT P6SM BKN050 FM302300 16007KT
                       P6SM OVC040
                      TEMPO 3023/0103 -RA FM011200 14008KT P6SM
                       OVC040=
201511301727 TAF KBFI 301727Z 3018/0118 14004KT 5SM HZ SCT002
                      TEMPO 3018/3020 3SM BR BKN002 FM302100 14006KT
                       P6SM BKN120 FM010000 14008KT P6SM OVC070
                       FM011200 14010KT P6SM OVC040=
201511301124 TAF KBFI 301124Z 3012/0112 00000KT 1/2SM FZFG VV002
                      TEMPO 3012/3016 4SM BR SCT002 FM302100 18004KT
                       3SM BR FEW001 BKN120 FM010000 16006KT P6SM
                       OVC070=
201511301040 TAF AMD KBFI 301040Z 3011/0106 00000KT 2SM BR SCT002
                      TEMPO 3011/3015 1/2SM FG OVC002 FM302100
                       18005KT 4SM BR SCT004 OVC120 FM010100 16005KT
                       P6SM OVC060=
201511300530 TAF KBFI 300530Z 3006/0106 00000KT 1/4SM FG VV002 FM302000 17004KT
                       3/4SM BR OVC001 FM302100 18005KT 2SM BR
                       OVC004 FM010100 16005KT P6SM OVC060=
201511300351 TAF AMD KBFI 300351Z 3004/3024 00000KT 1/4SM FG VV001 FM301800
                       VRB03KT 2SM BR OVC004 FM302100 16005KT P6SM
                       BKN200=
201511300203 TAF AMD KBFI 300203Z 3002/3024 00000KT 1/2SM FG OVC002 FM301800
                       VRB03KT 2SM BR OVC004 FM302100 16005KT P6SM
                       BKN200=
201511292328 TAF KBFI 292328Z 3000/3024 00000KT 3SM BR OVC007 FM300100 00000KT
                       1 1/2SM BR OVC005 FM300300 00000KT 1/2SM
                       FG OVC002 FM301800 VRB03KT 2SM BR OVC004
                       FM302100 16005KT P6SM BKN200=
201511292229 TAF AMD KBFI 292229Z 2922/3018 00000KT 2SM BR OVC006 FM300200 00000KT
                       1SM BR OVC005 FM300500 00000KT 1/2SM FG
                       OVC002=
201511292120 TAF AMD KBFI 292120Z 2921/3018 00000KT 2SM BR OVC006 FM292200 VRB03KT
                       4SM BR BKN006 FM292300 15003KT P6SM FEW006
                       FM300400 15003KT 1SM BR SKC FM300900 16006KT
                       1/2SM FG VV002=
201511291940 TAF AMD KBFI 291940Z 2920/3018 VRB03KT 2SM BR OVC004 FM292200 18005KT
                       4SM BR BKN004 FM292300 15003KT P6SM FEW004
                       FM300400 15003KT 1SM BR SKC FM300900 16006KT
                       1/2SM FG VV002=
201511291734 TAF KBFI 291734Z 2918/3018 VRB03KT 1/4SM FG VV002 FM292000 VRB03KT
                       1SM BR OVC003
                      TEMPO 2920/2921 1/2SM FG OVC001 FM292200
                       18005KT P6SM SCT004
                      TEMPO 2922/2923 3SM BR BKN004 FM300600 15003KT
                       1SM BR SKC FM300900 16006KT 1/2SM FG VV002=
201511291307 TAF AMD KBFI 291307Z 2913/3012 14003KT 1 1/2SM BR OVC004
                      TEMPO 2914/2918 1/2SM FG VV002 FM292100 19004KT
                       P6SM SKC FM300500 VRB03KT 5SM BR SKC=
201511291124 TAF KBFI 291124Z 2912/3012 14003KT 1/4SM FG VV001
                      TEMPO 2914/2918 1/2SM FG SCT002 FM291800
                       20003KT 1SM BR BKN002 FM292100 19004KT P6SM
                       SKC FM300500 VRB03KT 5SM BR SKC=
201511290905 TAF AMD KBFI 290905Z 2909/3006 12003KT 1/4SM FG VV001 FM292100
                       VRB03KT P6SM SKC=
201511290904 TAF AMD KBFI 290904Z 2909/3006 15004KT 1SM BR VV001
                      TEMPO 2912/2916 1/2SM FZFG OVC001 FM292100
                       VRB03KT P6SM SKC=
201511290826 TAF AMD KBFI 290826Z 2908/3006 13003KT 5SM BR SKC
                      TEMPO 2912/2916 1/2SM FZFG OVC001 FM292100
                       VRB03KT P6SM SKC=
201511290520 TAF KBFI 290520Z 2906/3006 00000KT P6SM SKC FM290800 00000KT 3SM
                       BR OVC002 FM291200 00000KT 1/2SM FG OVC001
                       FM291700 00000KT 4SM BR OVC004 FM292100
                       VRB03KT P6SM SKC=
201511282320 TAF KBFI 282320Z 2900/2924 00000KT P6SM SKC FM290800 00000KT 3SM
                       BR OVC002 FM291200 00000KT 1/2SM FG OVC001
                       FM291700 00000KT 4SM BR OVC004 FM292100
                       VRB03KT P6SM SKC=
201511281720 TAF KBFI 281720Z 2818/2918 VRB03KT P6SM SCT002 FM281900 20004KT
                       P6SM SKC FM290300 00000KT P6SM SKC FM291200
                       00000KT P6SM VCFG SKC=
201511281400 TAF AMD KBFI 281400Z 2814/2912 00000KT 3SM BR OVC002
                      TEMPO 2814/2818 5SM BR SCT003 FM281800 01004KT
                       P6SM SKC=
201511281132 TAF KBFI 281132Z 2812/2912 00000KT P6SM SKC FM281800 01004KT P6SM
                       SKC=
201511280531 TAF KBFI 280531Z 2806/2906 02003KT P6SM SKC FM280700 00000KT P6SM
                       SKC=
201511272320 TAF KBFI 272320Z 2800/2824 31005KT P6SM SKC FM280400 00000KT P6SM
                       SKC=
201511271720 TAF KBFI 271720Z 2718/2818 31004KT P6SM SKC FM280400 00000KT P6SM
                       SKC=
201511271127 TAF KBFI 271127Z 2712/2812 00000KT P6SM SKC=
201511270528 TAF KBFI 270528Z 2706/2806 32005KT P6SM SKC=
201511262320 TAF KBFI 262320Z 2700/2724 35004KT P6SM SKC FM270300 00000KT P6SM
                       SKC=
201511261720 TAF KBFI 261720Z 2618/2718 35004KT P6SM SKC FM270300 00000KT P6SM
                       SKC=
201511261120 TAF KBFI 261120Z 2612/2712 02003KT P6SM SKC=
201511260520 TAF KBFI 260520Z 2606/2706 03001KT P6SM SKC FM260800 00000KT P6SM
                       SKC FM261400 VRB03KT P6SM SKC=
201511252321 TAF KBFI 252321Z 2600/2624 02006KT P6SM SKC FM260300 VRB03KT P6SM
                       SKC=
201511251721 TAF KBFI 251721Z 2518/2618 35006KT P6SM SKC FM260100 02005KT P6SM
                       SKC=
201511251120 TAF KBFI 251120Z 2512/2612 VRB04KT P6SM SKC FM252000 01004KT P6SM
                       SKC=
201511250520 TAF KBFI 250520Z 2506/2606 02012KT P6SM SKC FM251000 04007KT P6SM
                       SKC FM252000 01004KT P6SM SKC=
201511242329 TAF KBFI 242329Z 2500/2524 33012G22KT P6SM SKC FM250600 02012KT
                       P6SM SKC FM251000 04007KT P6SM SKC=
201511242206 TAF AMD KBFI 242206Z 2422/2518 33010G20KT P6SM SCT040 FM250600
                       02008KT P6SM SKC=
201511241722 TAF KBFI 241722Z 2418/2518 VRB03KT P6SM SCT013 OVC040
                      TEMPO 2418/2420 -RA BKN013 OVC040 FM242000
                       36010KT P6SM SCT015 BKN040 FM242200 36010G20KT
                       P6SM SCT040 FM250600 02008KT P6SM SKC=
201511241400 TAF AMD KBFI 241400Z 2414/2512 13006KT 6SM -RA BR VCSH SCT008 BKN018
                       OVC025
                      TEMPO 2414/2418 -RA FM241900 33010G18KT P6SM
                       SCT015 BKN040 FM242200 33012G21KT P6SM SCT040
                       FM250600 34004KT P6SM SKC=
201511241140 TAF KBFI 241140Z 2412/2512 14004KT 5SM -RA BR BKN007 OVC015 FM241400
                       32004KT P6SM VCSH SCT010 BKN015 OVC030
                      TEMPO 2414/2416 -RA FM241900 33010G18KT P6SM
                       SCT015 BKN040 FM242200 33012G21KT P6SM SCT040
                       FM250600 34004KT P6SM SKC=
201511240911 TAF AMD KBFI 240911Z 2409/2506 14004KT 6SM -RA BR BKN005 OVC010
                       FM241200 VRB03KT P6SM -SHRA SCT006 BKN010
                       OVC015 FM241400 32004KT P6SM VCSH SCT010
                       BKN015 OVC030 FM241900 33010G18KT P6SM SCT015
                       BKN040 FM242200 33012G21KT P6SM SCT040=
201511240548 TAF KBFI 240548Z 2406/2506 14006KT 6SM -RA BR BKN010 OVC018 FM240800
                       15004KT P6SM -SHRA SCT010 BKN018 OVC030
                       FM241400 32004KT P6SM VCSH SCT010 BKN015
                       OVC030 FM241900 33010G18KT P6SM SCT015 BKN040
                       FM242200 33012G21KT P6SM SCT040=
201511240358 TAF AMD KBFI 240358Z 2404/2424 15005KT P6SM -RA SCT012 BKN025 OVC035
                       TEMPO 2404/2407 6SM -RA BR OVC012 FM240700
                       VRB03KT P6SM VCSH OVC020 FM241700 35010G20KT
                       P6SM VCSH BKN035 FM242200 36015G25KT P6SM
                       SCT040=
201511240223 TAF AMD KBFI 240223Z 2402/2424 15005KT 6SM -RA BR FEW026 OVC035
                       FM240700 VRB03KT P6SM VCSH OVC020 FM241700
                       35010G20KT P6SM VCSH BKN035 FM242200 36015G25KT
                       P6SM SCT040=
201511232325 TAF KBFI 232325Z 2400/2424 14004KT P6SM -RA OVC022 FM240700 VRB03KT
                       P6SM VCSH OVC020 FM241700 35010G20KT P6SM
                       VCSH BKN035 FM242200 36015G25KT P6SM SCT040=
201511232210 TAF AMD KBFI 232210Z 2322/2418 14004KT P6SM -RA BKN020 OVC040 FM240700
                       VRB03KT P6SM VCSH BKN025 FM241700 35010G20KT
                       P6SM VCSH BKN035=
201511231730 TAF KBFI 231730Z 2318/2418 VRB03KT P6SM BKN070 BKN150
                      TEMPO 2318/2321 4SM BR FM232300 16006KT P6SM
                       -RA OVC040
                      TEMPO 2401/2405 5SM -RA BR OVC025 FM240700
                       VRB04KT P6SM VCSH BKN025 FM241700 35010G20KT
                       P6SM VCSH BKN030=
201511231441 TAF AMD KBFI 231441Z 2315/2412 17004KT 6SM BR BKN004 OVC100
                      TEMPO 2315/2317 SCT005 OVC110 FM231700 16004KT
                       P6SM SCT045 BKN080 OVC150 FM232300 16005KT
                       P6SM -RA BKN035 OVC050 FM240200 17008KT
                       6SM -RA BR SCT012 OVC018 FM240700 15004KT
                       P6SM SCT015 BKN025=
201511231138 TAF KBFI 231138Z 2312/2412 14004KT P6SM SCT120 BKN200 FM231800
                       16004KT P6SM SCT045 BKN080 OVC150 FM232300
                       16005KT P6SM -RA BKN035 OVC050 FM240200
                       17008KT 6SM -RA BR SCT012 OVC018 FM240700
                       15004KT P6SM SCT015 BKN025=
201511230546 TAF KBFI 230546Z 2306/2406 00000KT P6SM SCT120 BKN250 FM231200
                       14004KT P6SM BKN090 OVC200 FM231800 16004KT
                       P6SM SCT045 BKN080 OVC150 FM232300 16005KT
                       P6SM -RA BKN035 OVC050 FM240200 17008KT
                       6SM -RA BR SCT012 OVC018=
201511222320 TAF KBFI 222320Z 2300/2324 34005KT P6SM FEW080 SCT250 FM230300
                       04004KT P6SM FEW080 SCT250 FM230800 12004KT
                       P6SM SCT060 SCT120 BKN250 FM231800 18005KT
                       P6SM BKN060 BKN120 OVC250=
201511221724 TAF KBFI 221724Z 2218/2318 01006KT P6SM SCT250 FM230300 06006KT
                       P6SM SCT250 FM230800 13004KT P6SM SCT120
                       BKN250=
201511221120 TAF KBFI 221120Z 2212/2312 VRB03KT P6SM SCT250 FM230800 15003KT
                       P6SM BKN250=
201511220525 TAF KBFI 220525Z 2206/2306 35003KT P6SM SKC FM221200 00000KT P6SM
                       BKN250=
201511212328 TAF KBFI 212328Z 2200/2224 35004KT P6SM SCT250 FM220400 00000KT
                       P6SM SCT250=
201511211720 TAF KBFI 211720Z 2118/2218 35004KT P6SM SCT250 FM220400 00000KT
                       P6SM SCT250=
201511211128 TAF KBFI 211128Z 2112/2212 VRB03KT P6SM SCT250 FM211800 35004KT
                       P6SM SCT250 FM220400 00000KT P6SM SCT250=
201511210520 TAF KBFI 210520Z 2106/2206 VRB03KT P6SM SCT250
                      TEMPO 2113/2117 4SM BR SCT001 FM211800 35004KT
                       P6SM SCT250=
201511202320 TAF KBFI 202320Z 2100/2124 35009KT P6SM BKN250 FM210600 02006KT
                       P6SM SKC
                      TEMPO 2113/2117 4SM BR SCT001 FM211800 35008KT
                       P6SM SKC=
201511201724 TAF KBFI 201724Z 2018/2118 03005KT P6SM BCFG FEW004 BKN250
                      TEMPO 2018/2019 4SM BR SCT004 FM201900 04008KT
                       P6SM BKN250 FM210900 08006KT P6SM SKC=
201511201602 TAF AMD KBFI 201602Z 2016/2112 06003KT P6SM SCT004
                      TEMPO 2016/2018 4SM BR BKN004 FM201800 34004KT
                       P6SM BKN250 FM210300 00000KT P6SM SKC=
201511201135 TAF KBFI 201135Z 2012/2112 00000KT P6SM SCT005
                      TEMPO 2012/2016 BKN005 FM201600 34004KT P6SM
                       BKN250 FM210300 00000KT P6SM SKC=
201511200535 TAF KBFI 200535Z 2006/2106 00000KT P6SM SKC FM201800 34005KT P6SM
                       SKC=
201511192320 TAF KBFI 192320Z 2000/2024 36010KT P6SM SCT020 FM200200 03007KT
                       P6SM SKC FM201800 34005KT P6SM SKC=
201511192104 TAF AMD KBFI 192104Z 1921/2018 36008KT P6SM SCT020 FM200000 05007KT
                       P6SM SKC=
201511191821 TAF AMD KBFI 191821Z 1918/2018 36008KT P6SM SCT018 BKN200 FM192000
                       01010KT P6SM SCT025 SCT200 FM200000 05007KT
                       P6SM SKC=
201511191720 TAF KBFI 191720Z 1918/2018 36008KT P6SM SCT006 BKN090 BKN200 FM191900
                       01010KT P6SM SCT025 SCT200 FM200000 05007KT
                       P6SM SKC=
201511191405 TAF AMD KBFI 191405Z 1914/2012 00000KT P6SM SCT013 BKN070 BKN120
                       FM191900 35006KT P6SM FEW020 BKN250 FM200400
                       VRB03KT P6SM SCT010=
201511191140 TAF KBFI 191140Z 1912/2012 VRB03KT P6SM -RA SCT015 OVC030 FM191400
                       36004KT P6SM BKN035 OVC050 FM191900 35006KT
                       P6SM FEW020 BKN250 FM200400 VRB03KT P6SM
                       SCT010=
201511190902 TAF AMD KBFI 190902Z 1909/2006 VRB03KT P6SM -RA SCT015 OVC030 FM191400
                       36004KT P6SM BKN035 OVC050 FM191900 35006KT
                       P6SM FEW020 FM200400 36004KT P6SM SCT015=
201511190540 TAF KBFI 190540Z 1906/2006 18004KT P6SM -RA BKN015 OVC030 FM190800
                       VRB03KT P6SM -RA OVC015 FM191400 36004KT
                       P6SM BKN035 OVC050 FM191900 35006KT P6SM
                       FEW020 FM200400 36004KT P6SM SCT015=
201511190321 TAF AMD KBFI 190321Z 1903/1924 16005KT P6SM VCSH BKN050 OVC070
                       TEMPO 1905/1909 -RA OVC025 FM190900 VRB03KT
                       P6SM -RA OVC030 FM191400 VRB03KT P6SM BKN030
                       OVC050 FM191800 01003KT P6SM SCT020 BKN050=
201511182322 TAF KBFI 182322Z 1900/1924 17006KT P6SM SCT030 OVC080 FM190300
                       16005KT P6SM VCSH BKN030 OVC050
                      TEMPO 1905/1909 -RA OVC020 FM190900 VRB03KT
                       P6SM -RA OVC030 FM191400 VRB03KT P6SM BKN030
                       OVC050 FM191800 01003KT P6SM SCT020 BKN050=
201511181731 TAF KBFI 181731Z 1818/1918 17004KT P6SM FEW020 BKN250 FM182100
                       17006KT P6SM VCSH SCT030 BKN100 FM190300
                       16005KT P6SM -RA BKN030 OVC050 FM190900
                       11003KT P6SM -RA OVC030 FM191400 VRB03KT
                       P6SM BKN030 OVC050=
201511181123 TAF KBFI 181123Z 1812/1912 17004KT P6SM FEW020 BKN100 FM182100
                       17006KT P6SM SCT030 BKN050 OVC100
                      TEMPO 1823/1903 -SHRA BKN030 OVC050 FM190300
                       16005KT P6SM -RA BKN030 OVC050=
201511180520 TAF KBFI 180520Z 1806/1906 24004KT P6SM SCT050 BKN150 FM181200
                       22004KT P6SM BKN050 BKN150 FM182100 17006KT
                       P6SM SCT030 BKN050
                      PROB30 1821/1903 -SHRA BKN030 OVC050 FM190300
                       16005KT P6SM -RA BKN030 OVC050=
201511172349 TAF KBFI 172349Z 1800/1824 21012G26KT P6SM -RA SCT015 BKN025 OVC080
                       FM180100 35008KT 6SM -SHRA BR SCT008 BKN015
                       OVC025 FM180300 14005KT P6SM SCT018 OVC030
                       FM180600 19009KT P6SM SCT025 BKN040 FM182100
                       17008KT P6SM VCSH SCT015 OVC025=
201511171749 TAF KBFI 171749Z 1718/1818 18014G22KT 5SM -RA BKN010 OVC018 FM172200
                       20024G38KT 4SM RA BR SCT008 OVC015 FM180100
                       23015G25KT P6SM SCT015 OVC025
                      TEMPO 1801/1803 32008KT FM180600 19009KT
                       P6SM SCT030 OVC050=
201511171430 TAF AMD KBFI 171430Z 1715/1812 17013G22KT P6SM -RA SCT010 BKN014
                       OVC021 FM171900 21022G35KT 5SM -RA BR OVC012
                       FM172300 22022G35KT 5SM -RA BR OVC018 FM180300
                       23015G25KT P6SM -RA BKN020 OVC035 FM180600
                       24010KT P6SM SCT035 OVC050=
201511171122 TAF KBFI 171122Z 1712/1812 17012G20KT 5SM -RA OVC008 FM171900 21022G35KT
                       5SM -RA BR OVC012 FM180300 23015G25KT P6SM
                       -RA BKN020 OVC035 FM180600 24010KT P6SM
                       SCT035 OVC050=
201511171017 TAF AMD KBFI 171017Z 1710/1806 18010G18KT 6SM -RA BR BKN008 OVC020
                       FM171200 15014G24KT P6SM -RA BKN012 OVC025
                       FM171900 21022G35KT P6SM -RA OVC020 FM180300
                       23015G25KT P6SM -RA OVC035=
201511170522 TAF KBFI 170522Z 1706/1806 15008KT P6SM -RA BKN020 OVC035 FM171200
                       15017G28KT P6SM -RA BKN020 OVC030 FM171900
                       21022G35KT P6SM -RA OVC020 FM180300 23015G25KT
                       P6SM -RA OVC035=
201511162330 TAF KBFI 162330Z 1700/1724 17010KT P6SM -RA SCT030 OVC060 FM170100
                       17012G20KT P6SM -RA BKN030 OVC045 FM171200
                       15017G28KT P6SM -RA BKN020 OVC030 FM171900
                       21022G30KT P6SM -RA OVC020=
201511161726 TAF KBFI 161726Z 1618/1718 15006KT P6SM SCT030 OVC100 FM162100
                       17010KT P6SM -RA SCT030 OVC060 FM170000
                       17012G20KT P6SM -RA BKN030 OVC045 FM171200
                       15017G28KT P6SM -RA BKN020 OVC030=
201511161120 TAF KBFI 161120Z 1612/1712 12006KT P6SM SCT025 BKN200 FM161600
                       15006KT P6SM SCT030 OVC100 FM162100 17010KT
                       P6SM -RA SCT030 OVC060 FM170000 17012G20KT
                       P6SM -RA BKN030 OVC045=
201511160533 TAF KBFI 160533Z 1606/1706 13004KT P6SM SCT025 FM161200 15004KT
                       P6SM SCT030 BKN070 OVC100 FM162100 17010KT
                       P6SM -RA SCT030 OVC060 FM170000 17012G20KT
                       P6SM -RA BKN030 OVC045=
201511152329 TAF KBFI 152329Z 1600/1624 00000KT P6SM SCT025
                      TEMPO 1601/1605 BKN025 BKN200 FM160500 16005KT
                       P6SM SCT035 BKN100 FM161200 15004KT P6SM
                       SCT030 OVC070 FM161800 17009KT P6SM -RA
                       BKN030 OVC060 FM162200 17012G20KT P6SM -RA
                       BKN020 OVC035=
201511151728 TAF KBFI 151728Z 1518/1618 22008KT P6SM SCT010 BKN020 OVC060 FM152000
                       24005KT P6SM SCT030 OVC060 FM160100 16005KT
                       P6SM BKN060 FM161200 15004KT P6SM SCT015
                       OVC070=
201511151127 TAF KBFI 151127Z 1512/1612 35008KT P6SM -RA SCT010 OVC020
                      TEMPO 1512/1514 4SM RA BR BKN010 OVC020 FM151600
                       22008KT P6SM SCT015 OVC030 FM152000 24005KT
                       P6SM SCT030 OVC050 FM160100 16005KT P6SM
                       BKN060=
201511150521 TAF KBFI 150521Z 1506/1606 36008KT P6SM -RA SCT010 BKN020 OVC045
                       TEMPO 1506/1510 4SM RA BR BKN010 OVC020
                       FM151500 20008G14KT 6SM -RA BR SCT015 OVC030
                       FM152000 19007KT P6SM OVC050=
201511150135 TAF AMD KBFI 150135Z 1502/1524 35005KT 5SM -RA BR SCT010 SCT022
                       OVC035
                      TEMPO 1502/1504 3SM RA BR BKN010 BKN022 OVC030
                       FM150400 34006KT 3SM RA BR OVC009 FM151500
                       20008G14KT 6SM -RA BR OVC030 FM152000 19007KT
                       P6SM VCSH OVC050=
201511150044 TAF AMD KBFI 150044Z 1501/1524 33004KT 5SM -RA BKN010 OVC014 FM150300
                       34006KT 3SM RA BR OVC009 FM151500 20008G14KT
                       6SM -RA BR OVC030 FM152000 19007KT P6SM
                       VCSH OVC050=
201511142326 TAF KBFI 142326Z 1500/1524 VRB03KT 3SM -RA SCT008 BKN015 OVC040
                       FM150300 34006KT 3SM RA BR OVC015 FM151500
                       20008G14KT 6SM -RA BR OVC030 FM152000 19007KT
                       P6SM VCSH OVC050=
201511142101 TAF AMD KBFI 142101Z 1421/1518 02003KT 5SM -RA BR SCT006 BKN012
                       OVC060 FM150300 34006KT 3SM RA BR OVC016
                       FM151500 20008G14KT 6SM -RA BR OVC030=
201511141738 TAF KBFI 141738Z 1418/1518 00000KT 5SM -RA SCT010 BKN027 OVC040
                       FM142000 VRB03KT 4SM -RA BR OVC020 FM150300
                       34006KT 3SM RA BR OVC016 FM151500 20008G14KT
                       6SM -RA BR OVC030=
201511141126 TAF KBFI 141126Z 1412/1512 02005KT P6SM -RA SCT020 OVC040
                      TEMPO 1412/1415 5SM RA BR OVC020 FM141700
                       04005KT 4SM -RA BR OVC030=
201511140529 TAF KBFI 140529Z 1406/1506 00000KT P6SM -RA SCT007 BKN013 OVC030
                       TEMPO 1406/1410 4SM -RA BR BKN007 OVC013
                       FM141100 VRB03KT P6SM SCT010 OVC030 FM141700
                       04004KT 4SM -RA BR OVC015=
201511132323 TAF KBFI 132323Z 1400/1424 18009G19KT 5SM -RA BR BKN012 OVC020
                       FM140200 16004KT P6SM -RA BKN019 OVC030
                       FM141400 VRB04KT 5SM -RA BR OVC015=
201511132124 TAF AMD KBFI 132124Z 1321/1418 21007G15KT 2SM -RA BR OVC017 FM132200
                       17008KT P6SM -RA BKN019 OVC035 FM140600
                       16004KT P6SM -RA BKN019 OVC050 FM141400
                       34004KT P6SM RA OVC019=
201511132006 TAF AMD KBFI 132006Z 1320/1418 17015G24KT 4SM -RA BR BKN016 OVC024
                       FM132200 17008KT 6SM -RA BKN019 OVC035 FM140600
                       16004KT P6SM -RA BKN019 OVC050 FM141400
                       34004KT P6SM RA OVC019=
201511131737 TAF KBFI 131737Z 1318/1418 17019G27KT P6SM -RA BKN015 OVC026 FM132300
                       17008KT P6SM -RA BKN019 OVC035 FM140600
                       16004KT P6SM -RA BKN019 OVC050 FM141400
                       34004KT P6SM RA OVC019=
201511131120 TAF KBFI 131120Z 1312/1412 17015G28KT 3SM -RA BR BKN010 OVC020
                       FM132300 17008KT P6SM -RA BKN015 OVC030=
201511130520 TAF KBFI 130520Z 1306/1406 15006KT P6SM -RA OVC030 FM130900 17014G23KT
                       5SM -RA BR OVC020=
201511130216 TAF AMD KBFI 130216Z 1302/1324 16010KT 6SM -RA BR SCT015 OVC035
                       TEMPO 1302/1306 3SM -RA BR BKN015 OVC035
                       FM130600 18015G25KT P6SM -RA OVC025=
201511130155 TAF AMD KBFI 130155Z 1302/1324 16010KT 6SM -RA BR BKN015 OVC035
                       TEMPO 1302/1306 3SM -RA BR FM130600 18015G25KT
                       P6SM -RA OVC025=
201511122320 TAF KBFI 122320Z 1300/1324 18015G25KT P6SM -RA BKN035 BKN050 OVC100
                       FM130600 18015G25KT P6SM -RA OVC025=
201511121733 TAF KBFI 121733Z 1218/1318 19012G20KT P6SM -RA BKN050 OVC100 FM122100
                       18015G25KT P6SM -RA OVC050 FM130500 18015G25KT
                       P6SM -RA OVC025=
201511121122 TAF KBFI 121122Z 1212/1312 13005KT P6SM SCT035 BKN120
                      TEMPO 1212/1215 BKN035 OVC120 FM121500 15007KT
                       P6SM FEW035 BKN050 OVC120 FM121800 19012G20KT
                       P6SM BKN050 OVC100 FM122100 18015G25KT P6SM
                       -RA OVC050 FM130500 18015G25KT P6SM -RA
                       OVC025=
201511121031 TAF AMD KBFI 121031Z 1211/1306 13006KT P6SM SCT030 BKN120 FM121400
                       15007KT P6SM FEW030 BKN050 OVC120 FM121800
                       19012G20KT P6SM BKN035 OVC100 FM122100 18015G25KT
                       P6SM -RA OVC030=
201511120520 TAF KBFI 120520Z 1206/1306 13004KT P6SM SCT025 BKN120
                      TEMPO 1206/1210 BKN025 OVC120 FM121000 17009KT
                       P6SM BKN030 BKN250 FM121800 19012G20KT P6SM
                       BKN035 OVC100 FM122100 18015G25KT P6SM -RA
                       OVC030=
201511112334 TAF KBFI 112334Z 1200/1224 22005KT P6SM SCT035 BKN250 FM120900
                       17009KT P6SM BKN035 BKN250 FM121800 19012G20KT
                       P6SM BKN035 OVC100 FM122100 18015G25KT P6SM
                       -RA OVC030=
201511111729 TAF KBFI 111729Z 1118/1218 17007KT P6SM FEW015 BKN030 BKN050 FM111900
                       18008KT P6SM SCT035 BKN050 FM120000 16006KT
                       P6SM BKN050 FM120800 14006KT P6SM SCT050
                       BKN200=
201511111149 TAF KBFI 111149Z 1112/1212 21012KT P6SM BKN016 OVC025 FM111500
                       21012KT P6SM VCSH SCT025 BKN050 FM111900
                       18008KT P6SM SCT035 BKN050 FM120000 16006KT
                       P6SM BKN050 FM120800 14006KT P6SM SCT050
                       BKN200=
201511110540 TAF KBFI 110540Z 1106/1206 17012G20KT P6SM -RA SCT025 OVC040
                      TEMPO 1109/1112 5SM -RA BR BKN025 OVC040
                       FM111200 20015G25KT P6SM VCSH BKN025 BKN050
                       FM111600 20012G20KT P6SM VCSH SCT030 BKN050
                       FM111900 20012KT P6SM BKN050 FM120000 17006KT
                       P6SM BKN050=
201511102332 TAF KBFI 102332Z 1100/1124 15010KT P6SM VCSH BKN030 BKN120 FM110500
                       16010G20KT P6SM -RA OVC040 FM110900 17013G22KT
                       5SM -RA BR OVC025 FM111200 18012G22KT P6SM
                       -SHRA BKN025 BKN050 FM111500 19010KT P6SM
                       VCSH SCT035 BKN050 FM111800 16008KT P6SM
                       BKN050=
201511101741 TAF KBFI 101741Z 1018/1118 15008KT P6SM SCT010 SCT200
                      TEMPO 1018/1019 4SM BR BKN006 FM102100 15010KT
                       P6SM BKN040 BKN100 FM110300 16010G20KT P6SM
                       -RA OVC040 FM110700 17013G22KT 5SM -RA BR
                       OVC025 FM111100 18013G22KT P6SM -SHRA BKN025
                       BKN050 FM111500 19012KT P6SM VCSH SCT035
                       BKN050=
201511101659 TAF AMD KBFI 101659Z 1017/1112 16006KT 5SM BR SCT006
                      TEMPO 1017/1018 3SM BR BKN006 FM101800 16007KT
                       P6SM SCT008 SCT200 FM102200 16010KT P6SM
                       BKN040 BKN100 FM110300 20010G20KT P6SM -RA
                       OVC040 FM110700 22015G25KT 5SM -RA BR OVC025
                       FM111100 31012KT P6SM -SHRA BKN025 BKN050=
201511101525 TAF AMD KBFI 101525Z 1015/1112 16006KT 4SM BR OVC004
                      TEMPO 1015/1016 2SM BR OVC002 FM101600 16006KT
                       5SM BR SCT006
                      TEMPO 1016/1017 3SM BR BKN006 FM101800 16007KT
                       P6SM SCT008 SCT200 FM102200 16010KT P6SM
                       BKN040 BKN100 FM110300 20010G20KT P6SM -RA
                       OVC040 FM110700 22015G25KT 5SM -RA BR OVC025
                       FM111100 31012KT P6SM -SHRA BKN025 BKN050=
201511101428 TAF AMD KBFI 101428Z 1014/1112 16004KT 4SM BR OVC004 FM101600 16006KT
                       P6SM BKN006 FM101800 16007KT P6SM SCT008
                       SCT200 FM102200 16010KT P6SM BKN040 BKN100
                       FM110300 20010G20KT P6SM -RA OVC040 FM110700
                       22015G25KT 5SM -RA BR OVC025 FM111100 31012KT
                       P6SM -SHRA BKN025 BKN050=
201511101120 TAF KBFI 101120Z 1012/1112 14004KT 2SM BR BKN004
                      TEMPO 1012/1015 1/4SM FG VV001 FM101800 16007KT
                       P6SM SCT008 SCT200 FM102200 16010KT P6SM
                       BKN040 BKN100 FM110300 20010G20KT P6SM -RA
                       OVC040 FM110700 22015G25KT 5SM -RA BR OVC025
                       FM111100 31012KT P6SM -SHRA BKN025 BKN050=
201511100903 TAF AMD KBFI 100903Z 1009/1106 00000KT 1/2SM FG VV002
                      TEMPO 1015/1018 2SM BR BKN003 BKN200 FM101800
                       16008KT P6SM SCT010 BKN150 FM102200 18010KT
                       P6SM BKN040 OVC100 FM110300 20010G20KT P6SM
                       -RA OVC040=
201511100522 TAF KBFI 100522Z 1006/1106 00000KT P6SM SCT035 FM101000 00000KT
                       5SM BR SCT003 SCT200
                      TEMPO 1012/1016 2SM BR BKN003 BKN200 FM101800
                       16008KT P6SM SCT020 BKN150 FM102200 18010KT
                       P6SM BKN040 OVC100 FM110300 20010G20KT P6SM
                       -RA OVC040=
201511092336 TAF KBFI 092336Z 1000/1024 34005KT P6SM SCT025 BKN040 FM100400
                       04004KT P6SM SCT040 FM101000 00000KT 5SM
                       BR SCT006 SCT200
                      TEMPO 1013/1016 3SM BR BKN006 FM101800 VRB03KT
                       P6SM SCT030 BKN200=
201511091745 TAF KBFI 091745Z 0918/1018 34004KT P6SM SCT020 OVC040 FM092000
                       34005KT P6SM SCT025 BKN040 FM100400 04004KT
                       P6SM SCT040 FM101000 00000KT 5SM BR SCT006
                       SCT200
                      TEMPO 1013/1016 3SM BR BKN006=
201511091120 TAF KBFI 091120Z 0912/1012 00000KT P6SM SCT020 OVC040
                      TEMPO 0912/0916 5SM BR BKN020 OVC040 FM092000
                       34005KT P6SM SCT025 BKN040 FM100400 04004KT
                       P6SM SCT040 FM101000 00000KT 5SM BR SCT005
                       SCT200=
201511090520 TAF KBFI 090520Z 0906/1006 00000KT P6SM -SHRA BKN030 BKN050
                      TEMPO 0906/0910 SCT030 BKN080 FM091000 VRB04KT
                       P6SM BKN025 BKN070 FM092000 33006KT P6SM
                       BKN040 BKN070 FM100200 VRB04KT P6SM SCT050
                       BKN090=
201511082345 TAF KBFI 082345Z 0900/0924 VRB03KT P6SM SCT028 SCT050 SCT100
                      TEMPO 0900/0902 BKN028 BKN050 BKN100 FM090200
                       VRB03KT P6SM VCSH SCT028 BKN050 OVC100
                      TEMPO 0902/0906 -SHRA BKN028 OVC050 FM090900
                       VRB03KT P6SM VCSH SCT028 OVC050 FM091200
                       VRB03KT P6SM OVC028 FM092000 30004KT P6SM
                       BKN040 BKN090=
201511082206 TAF AMD KBFI 082206Z 0822/0918 VRB03KT P6SM VCSH SCT018 SCT030
                       BKN050
                      TEMPO 0822/0824 SCT018 BKN030 OVC050 FM090300
                       VRB03KT P6SM SCT030 BKN050 BKN070 FM091200
                       VRB03KT P6SM OVC025=
201511081939 TAF AMD KBFI 081939Z 0820/0918 VRB03KT P6SM VCSH SCT018 SCT030
                       BKN050
                      TEMPO 0820/0822 3SM SHRA BKN018 OVC030 FM090300
                       VRB03KT P6SM SCT030 BKN050 BKN070 FM091200
                       VRB03KT P6SM OVC025=
201511081744 TAF KBFI 081744Z 0818/0918 VRB03KT P6SM -SHRA SCT012 OVC030
                      TEMPO 0818/0820 5SM SHRA BKN012 OVC030 FM082000
                       VRB03KT P6SM VCSH BKN030 BKN050 BKN090
                      TEMPO 0820/0824 -SHRA FM090300 VRB03KT P6SM
                       SCT030 BKN050 BKN070
                      PROB30 0903/0909 -SHRA OVC028 FM091200 VRB03KT
                       P6SM OVC025=
201511081525 TAF AMD KBFI 081525Z 0815/0912 VRB03KT P6SM VCSH BKN010 OVC040
                       TEMPO 0815/0818 4SM -RA BR FM081800 VRB04KT
                       P6SM VCSH SCT020 BKN040 FM091000 00000KT
                       P6SM BKN025=
201511081120 TAF KBFI 081120Z 0812/0912 15005KT P6SM VCSH SCT020 BKN050
                      TEMPO 0812/0816 BKN020 OVC040 FM081800 VRB04KT
                       P6SM VCSH SCT020 BKN040 FM091000 00000KT
                       P6SM BKN025=
201511080523 TAF KBFI 080523Z 0806/0906 VRB04KT P6SM -RA SCT025 OVC050
                      TEMPO 0806/0809 5SM -RA BR BKN025 OVC050
                       FM080900 VRB04KT P6SM -SHRA BKN025 FM081100
                       VRB04KT P6SM VCSH BKN020 FM081800 VRB04KT
                       P6SM VCSH BKN040=
201511080309 TAF AMD KBFI 080309Z 0803/0824 18010G18KT P6SM -RA SCT012 OVC040
                       TEMPO 0803/0806 4SM -RA BR BKN012 OVC025
                       FM080600 23007KT P6SM -SHRA BKN025 FM081000
                       VRB04KT P6SM VCSH BKN025 FM081800 VRB04KT
                       P6SM VCSH BKN040=
201511072347 TAF KBFI 072347Z 0800/0824 17008KT P6SM -RA SCT012 BKN025 OVC040
                       TEMPO 0800/0803 3SM -RA BR BKN012 OVC025
                       FM080300 17006KT 4SM -RA BR SCT009 OVC025
                       FM080900 VRB03KT 6SM BR BKN025 OVC040 FM081800
                       VRB03KT P6SM BKN030 OVC045
                      PROB30 0818/0824 -RA=
201511072105 TAF AMD KBFI 072105Z 0721/0818 18010KT 4SM -RA BR FEW012 SCT025
                       OVC040
                      TEMPO 0721/0801 3SM -RA BR FEW012 BKN025
                       OVC040 FM080600 VRB03KT P6SM -RA BKN020
                       OVC035 FM081200 VRB03KT 6SM BR OVC015=
201511071817 TAF AMD KBFI 071817Z 0718/0818 15008KT 6SM -RA BR SCT030 OVC050
                       TEMPO 0718/0720 4SM -RA BR FM072000 18010KT
                       4SM -RA BR FEW012 OVC025 FM080600 VRB03KT
                       P6SM -RA BKN020 OVC035 FM081200 VRB03KT
                       6SM BR OVC015=
201511071739 TAF KBFI 071739Z 0718/0818 15008KT 6SM -RA BR SCT030 OVC050 FM072000
                       18010KT 4SM -RA BR FEW012 OVC025 FM080600
                       VRB03KT P6SM -RA BKN020 OVC035 FM081200
                       VRB03KT 6SM BR OVC015=
201511071120 TAF KBFI 071120Z 0712/0812 16006KT P6SM BKN050 OVC100 FM071600
                       16008KT P6SM -RA SCT025 OVC050
                      TEMPO 0717/0721 BKN025 OVC040 FM072100 19010KT
                       P6SM -RA OVC035 FM080200 30005KT P6SM -SHRA
                       BKN018 OVC035 FM081000 15005KT P6SM VCSH
                       BKN018 OVC035=
201511070520 TAF KBFI 070520Z 0706/0806 12004KT P6SM BKN050 OVC090 FM070900
                       16008KT P6SM SCT050 OVC100 FM071500 16008KT
                       P6SM -RA SCT025 OVC045 FM071800 18010KT
                       6SM -RA BR OVC025=
201511062326 TAF KBFI 062326Z 0700/0724 18008KT P6SM SCT060 BKN100 OVC200 FM070900
                       16008KT P6SM SCT050 OVC100
                      PROB30 0709/0715 -RA OVC050 FM071500 16008KT
                       P6SM -RA SCT025 OVC045 FM071800 18010KT
                       6SM -RA BR OVC025=
201511062103 TAF AMD KBFI 062103Z 0621/0718 18007KT P6SM BKN050 BKN100 OVC200
                       FM070000 16007KT P6SM SCT035 BKN050 OVC100
                       PROB30 0709/0715 -RA FM071500 16010KT P6SM
                       -RA SCT028 OVC040=
201511061917 TAF AMD KBFI 061917Z 0619/0718 15007KT P6SM BKN035 BKN050 OVC200
                       FM062100 18007KT P6SM SCT035 BKN050 OVC200
                       FM062300 16007KT P6SM SCT035 BKN050 OVC100
                       PROB30 0709/0715 -RA FM071500 16010KT P6SM
                       -RA SCT028 OVC040=
201511061724 TAF KBFI 061724Z 0618/0718 15007KT P6SM SCT028 OVC040
                      TEMPO 0618/0620 6SM -DZ BR BKN028 OVC040
                       FM062000 18007KT P6SM SCT035 BKN050 OVC100
                       FM062300 16007KT P6SM SCT035 BKN050 OVC100
                       PROB30 0709/0715 -RA FM071500 16010KT P6SM
                       -RA SCT028 OVC040=
201511061641 TAF AMD KBFI 061641Z 0617/0712 14006KT 6SM BR OVC015
                      TEMPO 0617/0619 3SM -RA BR FM061900 18008KT
                       P6SM SCT015 OVC030
                      TEMPO 0619/0621 -RA BKN018 OVC035 FM070000
                       18010KT P6SM SCT020 OVC040 FM070400 18010KT
                       5SM -RA BR BKN015 OVC030=
201511061120 TAF KBFI 061120Z 0612/0712 14004KT P6SM SCT005 BKN012 OVC040
                      TEMPO 0612/0615 3SM BR BKN005 OVC010 FM061500
                       16006KT P6SM OVC015 FM061800 18008KT P6SM
                       SCT015 OVC030
                      TEMPO 0618/0621 -RA BKN018 OVC035 FM070000
                       18010KT P6SM SCT020 OVC040 FM070400 18010KT
                       5SM -RA BR BKN015 OVC030=
201511060717 TAF AMD KBFI 060717Z 0607/0706 14004KT P6SM BKN012 OVC040
                      TEMPO 0608/0612 4SM BR OVC008 FM061500 16006KT
                       P6SM OVC015 FM061800 18008KT P6SM SCT015
                       OVC030
                      TEMPO 0618/0621 -RA BKN018 OVC035 FM070000
                       18010KT P6SM SCT020 OVC040=
201511060520 TAF KBFI 060520Z 0606/0706 00000KT P6SM BKN045 BKN200 FM060800
                       13004KT P6SM SCT015 BKN045 BKN200
                      TEMPO 0608/0612 BKN015 OVC040 FM061200 16006KT
                       P6SM BKN015 OVC045 FM062100 19008KT P6SM
                       -RA BKN025 OVC040=
201511052333 TAF KBFI 052333Z 0600/0624 36004KT P6SM VCSH SCT012 BKN035 OVC045
                       FM060600 VRB03KT P6SM OVC015 FM061200 VRB03KT
                       P6SM OVC012 FM061800 16006KT P6SM -RA BKN025
                       OVC040=
201511052157 TAF AMD KBFI 052157Z 0522/0618 00000KT P6SM VCSH BKN035 OVC050
                       TEMPO 0522/0602 OVC016 FM060600 15004KT
                       P6SM OVC012 FM061700 15005KT P6SM VCSH OVC025=
201511051721 TAF KBFI 051721Z 0518/0618 16005KT P6SM VCSH FEW008 OVC012 FM052000
                       16004KT P6SM VCSH OVC018 FM060600 15004KT
                       P6SM OVC012 FM061700 15005KT P6SM VCSH OVC025=
201511051210 TAF AMD KBFI 051210Z 0512/0612 15005KT P6SM SCT010 OVC025
                      TEMPO 0512/0516 5SM -SHRA BR BKN010 OVC025
                       FM051600 15006KT P6SM SCT014 OVC025
                      TEMPO 0516/0520 5SM -SHRA BR BKN014 OVC022
                       FM052000 15006KT P6SM VCSH OVC022 FM060600
                       16005KT P6SM VCSH OVC025=
201511051127 TAF KBFI 051127Z 0512/0612 15005KT P6SM SCT016 OVC030
                      TEMPO 0512/0516 5SM -SHRA BR BKN016 OVC030
                       FM051600 15006KT P6SM SCT014 OVC025
                      TEMPO 0516/0520 5SM -SHRA BR BKN014 OVC022
                       FM052000 15006KT P6SM VCSH OVC022 FM060600
                       16005KT P6SM VCSH OVC025=
201511050907 TAF AMD KBFI 050907Z 0509/0606 15005KT P6SM SCT016 OVC030
                      TEMPO 0509/0513 BKN016 OVC030 FM051300 15006KT
                       P6SM SCT014 OVC025
                      TEMPO 0513/0517 5SM -RA BR BKN014 OVC022
                       FM051700 15004KT P6SM OVC022
                      PROB30 0519/0523 4SM -RA OVC014 FM052300
                       17005KT P6SM VCSH OVC020=
201511050527 TAF KBFI 050527Z 0506/0606 VRB03KT P6SM SCT035 BKN050
                      TEMPO 0506/0510 BKN035 OVC050 FM051000 16004KT
                       P6SM OVC035 FM051200 15006KT P6SM OVC022
                       FM051900 15004KT P6SM OVC022
                      PROB30 0519/0523 4SM -RA OVC019 FM052300
                       17005KT P6SM VCSH OVC020=
201511042338 TAF KBFI 042338Z 0500/0524 00000KT P6SM BKN040 BKN250 FM050500
                       VRB03KT P6SM BKN045 OVC120 FM051000 16004KT
                       P6SM OVC045 FM051200 15006KT P6SM OVC022
                       PROB30 0513/0519 6SM -RA OVC020 FM051900
                       15004KT P6SM OVC022
                      PROB30 0519/0524 4SM -RA OVC015=
201511042103 TAF AMD KBFI 042103Z 0421/0518 18004KT P6SM BKN035 BKN200 FM050100
                       18004KT P6SM SCT040 BKN200 FM050500 VRB03KT
                       P6SM BKN050 OVC120 FM051000 15004KT P6SM
                       -RA OVC040 FM051400 15006KT P6SM -RA BKN020
                       OVC040=
201511041732 TAF KBFI 041732Z 0418/0518 15005KT P6SM FEW013 SCT050 BKN200 FM050500
                       VRB03KT P6SM BKN050 OVC120 FM051000 15004KT
                       P6SM -RA OVC040 FM051400 15006KT P6SM -RA
                       BKN020 OVC040=
201511041420 TAF AMD KBFI 041420Z 0414/0512 14004KT P6SM SCT030 SCT100
                      TEMPO 0414/0418 BKN030 FM041800 16005KT P6SM
                       SCT035 BKN100 FM050500 16005KT P6SM SCT050
                       BKN080 FM051000 16005KT P6SM BKN025 OVC045=
201511041136 TAF KBFI 041136Z 0412/0512 15005KT P6SM SCT010 BKN026
                      TEMPO 0412/0414 5SM BR BKN010 OVC026 FM041400
                       15004KT 5SM BR SCT009 BKN026
                      TEMPO 0414/0417 2SM BR BKN009 OVC026 FM041800
                       16005KT 5SM BR BKN014 BKN150 FM042100 18006KT
                       P6SM SCT016 BKN120 FM050500 16005KT P6SM
                       SCT050 BKN080 FM051000 16005KT P6SM BKN025
                       OVC045=
201511041011 TAF AMD KBFI 041011Z 0410/0506 15005KT P6SM BKN010 OVC026
                      TEMPO 0410/0414 5SM BR SCT010 BKN026 FM041400
                       15004KT 5SM BR SCT009 BKN026
                      TEMPO 0414/0417 2SM BR BKN009 OVC026 FM041800
                       16005KT 5SM BR BKN014 BKN150 FM042100 18006KT
                       P6SM SCT016 BKN120 FM050500 16005KT P6SM
                       SCT050 BKN080=
201511040821 TAF AMD KBFI 040821Z 0408/0506 15004KT 6SM BR SCT012 BKN026
                      TEMPO 0408/0410 SCT026 FM041000 VRB03KT P6SM
                       FEW012 SCT250 FM041300 15004KT 5SM BR SCT009
                       SCT250
                      TEMPO 0413/0417 2SM BR BKN009 FM041800 16005KT
                       5SM BR BKN014 BKN150 FM042100 18006KT P6SM
                       SCT016 BKN120 FM050500 16005KT P6SM SCT050
                       BKN080=
201511040530 TAF KBFI 040530Z 0406/0506 VRB03KT P6SM SCT025 SCT250 FM041000
                       VRB03KT P6SM FEW012 SCT250 FM041300 15004KT
                       5SM BR SCT009 SCT250
                      TEMPO 0413/0417 2SM BR BKN009 FM041800 16005KT
                       5SM BR BKN014 BKN150 FM042100 18006KT P6SM
                       SCT016 BKN120 FM050500 16005KT P6SM SCT050
                       BKN080=
201511040302 TAF AMD KBFI 040302Z 0403/0424 VRB03KT P6SM SCT025
                      TEMPO 0403/0405 BKN025 FM041300 VRB03KT 3SM
                       BR BKN008 BKN040 FM041900 16005KT 5SM BR
                       BKN035 FM042100 19006KT P6SM SCT015 BKN040=
201511032329 TAF KBFI 032329Z 0400/0424 35007KT P6SM SCT029 OVC045 FM040200
                       36005KT P6SM SCT045 FM041300 VRB03KT 3SM
                       BR BKN008 BKN040 FM041900 16005KT 5SM BR
                       BKN035 FM042100 19006KT P6SM SCT015 BKN040=
201511031901 TAF AMD KBFI 031901Z 0319/0418 26003KT P6SM SCT025 BKN030 OVC040
                       TEMPO 0319/0321 BKN015 OVC025 FM032100 VRB03KT
                       P6SM SCT030 BKN040 FM040000 00000KT P6SM
                       SCT045 FM041400 VRB03KT 5SM BR BKN012 BKN040=
201511031735 TAF KBFI 031735Z 0318/0418 14003KT P6SM VCFG SCT010 BKN013 OVC030
                       FM032000 VRB03KT P6SM SCT030 BKN040 FM040000
                       00000KT P6SM SCT045 FM041400 VRB03KT 5SM
                       BR BKN012 BKN040=
201511031139 TAF KBFI 031139Z 0312/0412 VRB03KT P6SM VCFG SCT025 BKN045
                      TEMPO 0312/0316 BKN025 OVC045 FM032000 33006KT
                       P6SM SCT030 BKN045 FM040000 33005KT P6SM
                       SCT045 BKN250 FM040500 VRB03KT P6SM SCT045
                       BKN250=
201511030535 TAF KBFI 030535Z 0306/0406 VRB03KT P6SM BKN050 FM030800 VRB03KT
                       P6SM SCT025 BKN050 FM031200 VRB03KT P6SM
                       VCFG BKN025 BKN045 FM032000 33006KT P6SM
                       SCT030 BKN045 FM040000 33005KT P6SM SCT045
                       BKN250=
201511022336 TAF KBFI 022336Z 0300/0324 00000KT P6SM FEW017 OVC035 FM030200
                       00000KT P6SM SCT022 BKN040 FM030900 00000KT
                       P6SM OVC018 FM031400 00000KT P6SM OVC012
                       FM031900 01004KT P6SM OVC040=
201511022003 TAF AMD KBFI 022003Z 0220/0318 00000KT P6SM VCSH FEW012 SCT023
                       OVC030
                      TEMPO 0220/0222 5SM -SHRA OVC022 FM030000
                       VRB03KT P6SM SCT022 BKN035 FM030900 00000KT
                       P6SM OVC018=
201511021727 TAF KBFI 021727Z 0218/0318 00000KT P6SM VCSH SCT014 BKN029 OVC035
                       TEMPO 0218/0220 5SM -DZ BR BKN012 OVC020
                       FM022000 VRB03KT P6SM BKN019 FM030000 VRB03KT
                       P6SM SCT022 BKN035 FM030900 00000KT P6SM
                       OVC018=
201511021456 TAF AMD KBFI 021456Z 0215/0312 16004KT P6SM -SHRA OVC015 FM021900
                       32005KT P6SM VCSH SCT023 BKN045 FM030900
                       09003KT P6SM OVC018=
201511021135 TAF KBFI 021135Z 0212/0312 19006KT P6SM VCSH BKN015 OVC028
                      TEMPO 0212/0214 SCT015 BKN028 OVC040 FM021400
                       16004KT P6SM VCSH OVC015 FM021900 19006KT
                       P6SM VCSH SCT023 BKN045
                      TEMPO 0223/0303 30006KT FM030900 09003KT
                       P6SM OVC018=
201511020530 TAF KBFI 020530Z 0206/0306 15012KT P6SM VCSH SCT025 BKN100 FM021100
                       16004KT P6SM VCSH OVC018
                      TEMPO 0212/0216 BKN011 FM021900 23005KT P6SM
                       -SHRA SCT026 BKN050=
201511012320 TAF KBFI 012320Z 0200/0224 17013G25KT 5SM -SHRA VCTS BKN025CB BKN035
                       OVC050 FM020100 17012G22KT P6SM -SHRA BKN025
                       BKN045 FM020600 18006KT P6SM VCSH OVC025
                       FM021200 VRB03KT P6SM OVC022 FM021800 VRB03KT
                       P6SM SCT025 BKN050=
201511012241 TAF AMD KBFI 012241Z 0123/0218 18015G25KT 5SM -TSRA BKN020 BKN035CB
                       OVC050 FM020100 17012G22KT P6SM VCSH BKN030
                       BKN045 FM020600 16006KT P6SM VCSH OVC025=
201511011720 TAF KBFI 011720Z 0118/0218 16008G20KT P6SM -SHRA BKN035 OVC060
                       FM011900 18015G25KT 5SM SHRA BR VCTS BKN030CB
                       OVC040 FM020100 17012G22KT P6SM VCSH BKN030
                       BKN045 FM020600 16006KT P6SM VCSH OVC025=
201511011135 TAF KBFI 011135Z 0112/0212 19010G16KT P6SM -RA SCT019 BKN035 OVC070
                       TEMPO 0112/0116 4SM -SHRA BR SCT013 BKN020
                       OVC045 FM011600 18018G30KT 5SM -SHRA BR
                       BKN025 OVC035 FM020000 18014G22KT P6SM -SHRA
                       BKN035 BKN050 FM020700 16006KT P6SM VCSH
                       OVC022=
201511010535 TAF KBFI 010535Z 0106/0206 16010KT P6SM SCT028 BKN045
                      TEMPO 0107/0111 18018G28KT 4SM SHRA BR SCT016
                       BKN023 OVC035 FM011100 16012KT P6SM -SHRA
                       BKN025 BKN040 FM011600 18018G30KT 5SM -SHRA
                       BR BKN025 OVC035 FM020000 18014G22KT P6SM
                       -SHRA BKN035 BKN050=