##########################################################
# Query made at 02/17/2025 02:50:06 UTC
# Time interval: from 07/01/2015 00:00  to 07/31/2015 23:59  UTC
##########################################################

##########################################################
# KBFI, Seattle, Seattle Boeing Field (United States)
# WMO index: -----. WIGOS ID: Unknown
# Latitude 47-32-45N. Longitude 122-18-49W. Altitude 5 m.
##########################################################

###################################
#  METAR/SPECI from KBFI
###################################
201507312353 METAR KBFI 312353Z 29006KT 10SM CLR 34/05 A2998 RMK AO2 SLP153 T03390050 10344 20272 57020=
201507312253 METAR KBFI 312253Z VRB03KT 10SM CLR 34/03 A3000 RMK AO2 SLP160 T03390033=
201507312153 METAR KBFI 312153Z VRB04KT 10SM CLR 33/07 A3002 RMK AO2 SLP166 T03280067=
201507312053 METAR KBFI 312053Z 30007KT 10SM CLR 31/08 A3004 RMK AO2 SLP173 T03110083 56014=
201507311953 METAR KBFI 311953Z 32007KT 290V360 10SM CLR 31/08 A3005 RMK AO2 SLP177 T03060078=
201507311853 METAR KBFI 311853Z 29005KT 10SM CLR 29/09 A3007 RMK AO2 SLP183 T02890089=
201507311753 METAR KBFI 311753Z 33004KT 10SM CLR 27/09 A3008 RMK AO2 SLP187 T02720094 10278 20189 58003=
201507311653 METAR KBFI 311653Z COR 33003KT 10SM CLR 26/09 A3009 RMK AO2 SLP189 T02560094=
201507311553 METAR KBFI 311553Z 29004KT 10SM CLR 23/11 A3009 RMK AO2 SLP190 T02330106=
201507311453 METAR KBFI 311453Z 00000KT 10SM CLR 22/11 A3009 RMK AO2 SLP190 T02170111 53012=
201507311353 METAR KBFI 311353Z 00000KT 10SM CLR 20/11 A3008 RMK AO2 SLP185 T02000106=
201507311253 METAR KBFI 311253Z 00000KT 10SM CLR 20/11 A3006 RMK AO2 SLP179 T02000106=
201507311153 METAR KBFI 311153Z 00000KT 10SM CLR 21/10 A3006 RMK AO2 SLP178 T02060100 10261 20200 53006=
201507311053 METAR KBFI 311053Z 00000KT 10SM CLR 21/09 A3005 RMK AO2 SLP176 T02110094=
201507310953 METAR KBFI 310953Z 00000KT 10SM CLR 22/11 A3005 RMK AO2 SLP174 T02170111=
201507310853 METAR KBFI 310853Z 00000KT 10SM CLR 23/09 A3004 RMK AO2 SLP172 T02280094 51006=
201507310753 METAR KBFI 310753Z 04004KT 10SM CLR 24/09 A3004 RMK AO2 SLP172 T02440089 403330183=
201507310653 METAR KBFI 310653Z 00000KT 10SM CLR 26/10 A3003 RMK AO2 SLP170 T02560100=
201507310553 METAR KBFI 310553Z 31003KT 10SM CLR 26/10 A3002 RMK AO2 SLP166 T02610100 10328 20261 53009=
201507310453 METAR KBFI 310453Z 00000KT 10SM CLR 27/07 A3001 RMK AO2 SLP163 T02720072=
201507310353 METAR KBFI 310353Z 00000KT 10SM CLR 29/07 A2999 RMK AO2 SLP157 T02940072=
201507310253 METAR KBFI 310253Z VRB05KT 10SM CLR 31/07 A2999 RMK AO2 SLP157 T03110067 56006=
201507310153 METAR KBFI 310153Z 30007KT 10SM CLR 32/07 A3000 RMK AO2 SLP157 T03170067=
201507310053 METAR KBFI 310053Z 30008KT 10SM CLR 33/08 A3001 RMK AO2 SLP160 T03280083=
201507302353 METAR KBFI 302353Z 30007KT 10SM CLR 33/09 A3001 RMK AO2 SLP163 T03330089 10333 20267 56015=
201507302253 METAR KBFI 302253Z 30007G14KT 270V340 10SM CLR 33/09 A3002 RMK AO2 SLP166 T03280094=
201507302153 METAR KBFI 302153Z 31008KT 10SM CLR 32/09 A3004 RMK AO2 SLP172 T03220094=
201507302053 METAR KBFI 302053Z 31007KT 10SM CLR 31/10 A3006 RMK AO2 SLP178 T03060100 58012=
201507301953 METAR KBFI 301953Z 31008KT 10SM CLR 29/09 A3007 RMK AO2 SLP182 T02940094=
201507301853 METAR KBFI 301853Z 30006KT 10SM CLR 29/09 A3008 RMK AO2 SLP184 T02940094=
201507301753 METAR KBFI 301753Z 33006KT 10SM CLR 27/10 A3009 RMK AO2 SLP189 T02670100 10267 20183 58006=
201507301653 METAR KBFI 301653Z AUTO 00000KT 10SM CLR 26/11 A3010 RMK AO2 SLP191 T02560111 TSNO=
201507301553 METAR KBFI 301553Z AUTO 00000KT 10SM CLR 23/11 A3011 RMK AO2 SLP195 T02330111 TSNO=
201507301453 METAR KBFI 301453Z 00000KT 10SM CLR 22/12 A3011 RMK AO2 SLP195 T02170122 53008=
201507301353 METAR KBFI 301353Z 00000KT 10SM CLR 19/11 A3010 RMK AO2 SLP192 T01940111=
201507301253 METAR KBFI 301253Z 00000KT 10SM CLR 19/11 A3009 RMK AO2 SLP188 T01890106=
201507301153 METAR KBFI 301153Z 00000KT 10SM CLR 19/11 A3008 RMK AO2 SLP187 T01940106 10244 20189 56001=
201507301053 METAR KBFI 301053Z 00000KT 10SM CLR 19/12 A3008 RMK AO2 SLP187 T01940122=
201507300953 METAR KBFI 300953Z 00000KT 10SM CLR 21/12 A3009 RMK AO2 SLP188 T02110122=
201507300853 METAR KBFI 300853Z 00000KT 10SM CLR 22/12 A3009 RMK AO2 SLP188 T02220117 50001=
201507300753 METAR KBFI 300753Z VRB03KT 10SM CLR 23/11 A3009 RMK AO2 SLP188 T02330111 403170167=
201507300653 METAR KBFI 300653Z 00000KT 10SM CLR 24/10 A3009 RMK AO2 SLP187 T02440100=
201507300553 METAR KBFI 300553Z 00000KT 10SM CLR 24/10 A3008 RMK AO2 SLP187 T02390100 10311 20239 53006=
201507300453 METAR KBFI 300453Z 00000KT 10SM CLR 25/10 A3008 RMK AO2 SLP186 T02500100=
201507300353 METAR KBFI 300353Z 30004KT 10SM CLR 27/10 A3007 RMK AO2 SLP182 T02670100=
201507300253 METAR KBFI 300253Z 31006KT 10SM CLR 29/09 A3007 RMK AO2 SLP181 T02890089 56007=
201507300153 METAR KBFI 300153Z 30007KT 10SM CLR 31/09 A3007 RMK AO2 SLP181 T03060094=
201507300053 METAR KBFI 300053Z 31009G16KT 10SM CLR 31/09 A3008 RMK AO2 SLP184 T03110094=
201507292353 METAR KBFI 292353Z 31007G14KT 10SM CLR 31/10 A3009 RMK AO2 SLP188 T03110100 10317 20239 56017=
201507292253 METAR KBFI 292253Z 31009G16KT 280V350 10SM CLR 31/11 A3010 RMK AO2 SLP193 T03110106=
201507292153 METAR KBFI 292153Z 32007KT 10SM CLR 31/11 A3012 RMK AO2 SLP199 T03110111=
201507292053 METAR KBFI 292053Z 29005KT 10SM CLR 29/11 A3014 RMK AO2 SLP205 T02940106 56014=
201507291953 METAR KBFI 291953Z 30007KT 9SM CLR 27/10 A3015 RMK AO2 SLP209 T02720100=
201507291853 METAR KBFI 291853Z 32007KT 290V350 10SM CLR 26/10 A3016 RMK AO2 SLP214 T02610100=
201507291753 METAR KBFI 291753Z 31007KT 10SM CLR 24/10 A3018 RMK AO2 SLP219 T02440100 10244 20167 58006=
201507291653 METAR KBFI 291653Z 30006KT 10SM CLR 23/11 A3018 RMK AO2 SLP221 T02330111=
201507291553 METAR KBFI 291553Z 00000KT 10SM CLR 22/12 A3020 RMK AO2 SLP225 T02170117=
201507291453 METAR KBFI 291453Z 00000KT 10SM FEW200 19/13 A3020 RMK AO2 SLP225 T01940128 53004=
201507291353 METAR KBFI 291353Z COR 00000KT 10SM FEW200 18/12 A3019 RMK AO2 SLP222 T01780122=
201507291253 METAR KBFI 291253Z 00000KT 10SM CLR 17/12 A3018 RMK AO2 SLP220 T01670122=
201507291153 METAR KBFI 291153Z 31003KT 10SM CLR 17/12 A3018 RMK AO2 SLP220 T01720122 10206 20172 55004=
201507291053 METAR KBFI 291053Z 00000KT 10SM CLR 18/12 A3018 RMK AO2 SLP220 T01830117=
201507290953 METAR KBFI 290953Z 00000KT 10SM CLR 19/12 A3019 RMK AO2 SLP221 T01890117=
201507290853 METAR KBFI 290853Z 00000KT 10SM CLR 19/12 A3019 RMK AO2 SLP224 T01940117 58001=
201507290753 METAR KBFI 290753Z 00000KT 10SM CLR 19/12 A3020 RMK AO2 SLP227 T01890117 402830161=
201507290653 METAR KBFI 290653Z 30004KT 10SM CLR 19/11 A3019 RMK AO2 SLP224 T01940111=
201507290553 METAR KBFI 290553Z 00000KT 10SM CLR 21/11 A3020 RMK AO2 SLP225 T02060106 10278 20206 52009=
201507290453 METAR KBFI 290453Z 31004KT 10SM CLR 21/11 A3019 RMK AO2 SLP223 T02110106=
201507290353 METAR KBFI 290353Z 33004KT 10SM CLR 23/10 A3018 RMK AO2 SLP218 T02330100=
201507290253 METAR KBFI 290253Z 29005KT 10SM CLR 26/09 A3017 RMK AO2 SLP216 T02610089 55004=
201507290153 METAR KBFI 290153Z 31008KT 10SM SCT250 27/08 A3017 RMK AO2 SLP215 T02720083=
201507290053 METAR KBFI 290053Z 31006KT 10SM FEW250 28/08 A3017 RMK AO2 SLP217 T02780083=
201507282353 METAR KBFI 282353Z 30008KT 10SM SCT250 27/09 A3018 RMK AO2 SLP220 T02720094 10283 20211 56018=
201507282253 METAR KBFI 282253Z 29008KT 10SM SCT250 27/11 A3020 RMK AO2 SLP226 T02720106=
201507282153 METAR KBFI 282153Z 29008KT 10SM SCT200 27/11 A3022 RMK AO2 SLP232 T02670106=
201507282053 METAR KBFI 282053Z 35005KT 10SM FEW230 26/11 A3023 RMK AO2 SLP238 T02560106 58013=
201507281953 METAR KBFI 281953Z 34006KT 10SM FEW240 24/12 A3025 RMK AO2 SLP242 T02390117=
201507281853 METAR KBFI 281853Z VRB04KT 10SM FEW240 23/12 A3026 RMK AO2 SLP247 T02280117=
201507281753 METAR KBFI 281753Z VRB05KT 10SM CLR 22/12 A3027 RMK AO2 SLP251 T02170117 10222 20161 58002=
201507281653 METAR KBFI 281653Z VRB05KT 10SM CLR 21/11 A3028 RMK AO2 SLP252 T02060111=
201507281553 METAR KBFI 281553Z VRB03KT 10SM FEW150 19/11 A3028 RMK AO2 SLP255 T01890111=
201507281453 METAR KBFI 281453Z 00000KT 10SM CLR 18/11 A3028 RMK AO2 SLP253 T01830111 53004=
201507281353 METAR KBFI 281353Z 34004KT 10SM FEW150 17/11 A3028 RMK AO2 SLP252 T01670111=
201507281253 METAR KBFI 281253Z 00000KT 10SM SCT150 16/11 A3027 RMK AO2 SLP249 T01610111=
201507281153 METAR KBFI 281153Z 00000KT 10SM CLR 17/11 A3027 RMK AO2 SLP249 T01670111 10211 20161 51003=
201507281053 METAR KBFI 281053Z 00000KT 10SM CLR 17/11 A3027 RMK AO2 SLP249 T01670111=
201507280953 METAR KBFI 280953Z 00000KT 10SM CLR 16/11 A3026 RMK AO2 SLP248 T01610111=
201507280853 METAR KBFI 280853Z 00000KT 10SM FEW065 17/11 A3026 RMK AO2 SLP246 T01720111 53013=
201507280753 METAR KBFI 280753Z 00000KT 10SM SCT065 18/11 A3024 RMK AO2 SLP240 T01830111 402500133=
201507280653 METAR KBFI 280653Z 00000KT 10SM BKN060 19/11 A3023 RMK AO2 SLP236 T01940111=
201507280553 METAR KBFI 280553Z 00000KT 10SM SCT070 21/11 A3022 RMK AO2 SLP233 T02110106 10250 20211 51004=
201507280453 METAR KBFI 280453Z 00000KT 10SM BKN070 BKN080 22/10 A3022 RMK AO2 SLP233 T02170100=
201507280353 METAR KBFI 280353Z 00000KT 10SM FEW060 OVC085 22/10 A3021 RMK AO2 SLP228 T02220100=
201507280253 METAR KBFI 280253Z 00000KT 10SM BKN070 22/09 A3021 RMK AO2 SLP228 T02220094 53003=
201507280153 METAR KBFI 280153Z 00000KT 10SM BKN070 23/08 A3020 RMK AO2 SLP225 T02330083=
201507280053 METAR KBFI 280053Z 00000KT 10SM FEW030 BKN080 24/07 A3020 RMK AO2 SLP225 T02390072=
201507272353 METAR KBFI 272353Z VRB05KT 10SM FEW035 BKN080 24/08 A3020 RMK AO2 SLP226 T02390083 10250 20183 58002=
201507272253 METAR KBFI 272253Z VRB06KT 10SM SCT050 24/08 A3020 RMK AO2 SLP227 T02440083=
201507272153 METAR KBFI 272153Z 00000KT 10SM SCT040 SCT150 23/09 A3021 RMK AO2 SLP228 T02330094=
201507272053 METAR KBFI 272053Z 21005KT 10SM SCT036 22/11 A3020 RMK AO2 SLP227 T02220106 50000=
201507271953 METAR KBFI 271953Z VRB04KT 10SM SCT022 BKN040 19/11 A3021 RMK AO2 SLP229 T01940111=
201507271853 METAR KBFI 271853Z 00000KT 10SM SCT022 BKN031 19/11 A3021 RMK AO2 SLP228 T01940106=
201507271753 METAR KBFI 271753Z 26003KT 10SM SCT022 BKN028 18/11 A3020 RMK AO2 SLP227 T01830111 10194 20133 51010=
201507271653 METAR KBFI 271653Z VRB04KT 10SM FEW010 BKN015 17/12 A3020 RMK AO2 SLP225 T01720122=
201507271602 SPECI KBFI 271602Z 15003KT 10SM SCT009 BKN015 16/12 A3019 RMK AO2=
201507271553 METAR KBFI 271553Z COR 15004KT 10SM SCT009 BKN015 16/12 A3019 RMK AO2 SLP222 T01610122=
201507271453 METAR KBFI 271453Z 12004KT 6SM HZ OVC009 16/12 A3017 RMK AO2 CIG 006V012 SLP217 T01560122 53009=
201507271353 METAR KBFI 271353Z 16004KT 10SM BKN006 OVC070 14/12 A3017 RMK AO2 SLP215 T01440117=
201507271253 METAR KBFI 271253Z 14005KT 10SM SCT019 BKN026 BKN080 13/10 A3015 RMK AO2 SLP210 T01330100=
201507271153 METAR KBFI 271153Z 10003KT 10SM SCT033 15/11 A3014 RMK AO2 SLP205 60001 70011 T01500111 10167 20139 53010=
201507271053 METAR KBFI 271053Z 13003KT 10SM SCT035 14/11 A3012 RMK AO2 SLP200 P0001 T01440111=
201507270953 METAR KBFI 270953Z 14003KT 10SM SCT036 14/12 A3011 RMK AO2 SLP197 T01440117=
201507270853 METAR KBFI 270853Z 00000KT 10SM BKN034 16/12 A3011 RMK AO2 SLP195 T01560122 53002=
201507270753 METAR KBFI 270753Z 00000KT 10SM SCT036 BKN045 16/12 A3011 RMK AO2 SLP194 T01560122 402280156=
201507270653 METAR KBFI 270653Z 00000KT 10SM FEW030 SCT035 BKN043 17/12 A3010 RMK AO2 SLP193 T01670122=
201507270553 METAR KBFI 270553Z 00000KT 10SM FEW040 16/12 A3010 RMK AO2 SLP193 60006 T01560122 10189 20156 53005=
201507270453 METAR KBFI 270453Z 00000KT 10SM SCT040 17/12 A3010 RMK AO2 SLP192 T01670122=
201507270353 METAR KBFI 270353Z 00000KT 10SM FEW040 SCT110 17/12 A3009 RMK AO2 SLP189 T01720117=
201507270253 METAR KBFI 270253Z 00000KT 10SM FEW020 BKN090 19/12 A3009 RMK AO2 RAB23E32 SLP188 P0000 60006 T01890122 53005=
201507270153 METAR KBFI 270153Z 00000KT 10SM BKN090 18/12 A3008 RMK AO2 RAE22 SLP185 P0000 T01830122=
201507270053 METAR KBFI 270053Z 00000KT 10SM -RA FEW016 BKN070 17/13 A3008 RMK AO2 SLP185 P0006 T01720133=
201507262353 METAR KBFI 262353Z COR 31007KT 4SM -RA SCT020 BKN054 OVC075 18/13 A3007 RMK AO2 RAB2255E11B33 SLP183 P0004 60004 T01780133 10228 20178 53006=
201507262253 METAR KBFI 262253Z 29005KT 10SM FEW042 SCT065 BKN080 20/11 A3006 RMK AO2 SLP179 T02000106=
201507262153 METAR KBFI 262153Z VRB03KT 10SM FEW042 SCT065 BKN080 22/09 A3005 RMK AO2 SLP175 T02170094=
201507262053 METAR KBFI 262053Z VRB04KT 10SM SCT038 OVC095 22/09 A3005 RMK AO2 SLP177 T02170094 58005=
201507261953 METAR KBFI 261953Z 18005KT 10SM FEW019 BKN036 BKN080 22/10 A3006 RMK AO2 SLP180 T02170100=
201507261853 METAR KBFI 261853Z 16006KT 10SM BKN019 BKN036 OVC080 20/11 A3007 RMK AO2 SLP182 T02000111=
201507261753 METAR KBFI 261753Z 23005KT 10SM BKN019 BKN034 OVC080 19/11 A3007 RMK AO2 SLP182 T01890111 10194 20161 52003=
201507261653 METAR KBFI 261653Z 21006KT 10SM BKN019 OVC032 18/11 A3006 RMK AO2 SLP180 T01830111=
201507261553 METAR KBFI 261553Z COR 22004KT 10SM BKN019 OVC032 18/11 A3006 RMK AO2 SLP180 T01780111=
201507261453 METAR KBFI 261453Z 00000KT 10SM FEW017 BKN026 BKN036 17/11 A3006 RMK AO2 SLP179 T01670111 53003=
201507261353 METAR KBFI 261353Z 14006KT 10SM BKN012 OVC021 17/11 A3005 RMK AO2 SLP177 T01670106=
201507261253 METAR KBFI 261253Z 15005KT 10SM BKN012 OVC021 17/11 A3005 RMK AO2 SLP175 T01670106=
201507261250 SPECI KBFI 261250Z 15004KT 10SM BKN012 OVC021 17/11 A3005 RMK AO2=
201507261153 METAR KBFI 261153Z 14006KT 10SM BKN019 OVC028 17/11 A3005 RMK AO2 SLP174 T01670106 10183 20161 55003=
201507261127 SPECI KBFI 261127Z 17003KT 10SM OVC021 17/11 A3005 RMK AO2=
201507261053 METAR KBFI 261053Z 00000KT 10SM BKN030 OVC050 17/11 A3004 RMK AO2 SLP173 T01670106=
201507260953 METAR KBFI 260953Z 00000KT 10SM BKN040 OVC095 17/11 A3005 RMK AO2 SLP175 T01670111=
201507260853 METAR KBFI 260853Z 00000KT 10SM BKN042 OVC050 17/11 A3005 RMK AO2 SLP177 T01670111 57002=
201507260753 METAR KBFI 260753Z 00000KT 10SM OVC045 17/11 A3006 RMK AO2 SLP177 T01720111 402110161=
201507260653 METAR KBFI 260653Z 32003KT 10SM BKN042 BKN100 17/11 A3006 RMK AO2 SLP178 T01720111=
201507260553 METAR KBFI 260553Z 00000KT 10SM BKN036 OVC045 18/09 A3006 RMK AO2 SLP179 60000 T01830094 10211 20183 51005=
201507260453 METAR KBFI 260453Z 01003KT 10SM SCT034 BKN080 18/09 A3006 RMK AO2 SLP178 T01830094=
201507260353 METAR KBFI 260353Z VRB04KT 10SM BKN038 BKN047 OVC080 18/10 A3005 RMK AO2 RAB04E13 SLP176 P0000 T01830100=
201507260253 METAR KBFI 260253Z VRB03KT 10SM FEW039 BKN070 20/10 A3004 RMK AO2 SLP173 T02000100 56006=
201507260153 METAR KBFI 260153Z VRB03KT 10SM SCT044 SCT050 OVC100 21/11 A3005 RMK AO2 SLP176 T02060106=
201507260053 METAR KBFI 260053Z 02009KT 10SM BKN080 BKN250 21/11 A3005 RMK AO2 SLP176 T02060106=
201507252353 METAR KBFI 252353Z 36010KT 10SM BKN045 BKN070 21/11 A3006 RMK AO2 WSHFT 2308 SLP179 T02060106 10211 20172 58003=
201507252328 SPECI KBFI 252328Z 36010KT 10SM FEW030 BKN050 OVC080 21/11 A3006 RMK AO2 WSHFT 2308=
201507252253 METAR KBFI 252253Z COR 35009KT 10SM FEW030 BKN050 OVC080 21/11 A3007 RMK AO2 SLP182 T02060106=
201507252153 METAR KBFI 252153Z 06009KT 10SM SCT028 OVC055 21/11 A3007 RMK AO2 SLP182 T02060106=
201507252053 METAR KBFI 252053Z VRB06KT 10SM FEW030 BKN060 OVC075 21/12 A3007 RMK AO2 SLP182 T02110117 58004=
201507251953 METAR KBFI 251953Z VRB06KT 10SM SCT035 BKN040 19/11 A3008 RMK AO2 SLP185 T01940111=
201507251853 METAR KBFI 251853Z 05006KT 10SM SCT015 BKN025 18/11 A3008 RMK AO2 SLP184 T01830111=
201507251753 METAR KBFI 251753Z COR 02010KT 10SM SCT015 BKN025 OVC030 17/11 A3008 RMK AO2 RAB1659E08 SLP186 P0000 60000 T01720111 10178 20161 51008=
201507251653 METAR KBFI 251653Z 08009G14KT 10SM BKN015 OVC023 17/12 A3008 RMK AO2 SLP184 T01670117=
201507251553 METAR KBFI 251553Z 04006KT 10SM BKN023 OVC030 18/12 A3007 RMK AO2 SLP181 T01780122=
201507251453 METAR KBFI 251453Z 07004KT 10SM BKN019 OVC075 17/12 A3006 RMK AO2 SLP178 60000 T01720122 53010=
201507251353 METAR KBFI 251353Z 06004KT 10SM BKN016 OVC022 17/12 A3005 RMK AO2 SLP174 T01670122=
201507251253 METAR KBFI 251253Z VRB04KT 10SM BKN020 OVC029 17/13 A3004 RMK AO2 RAE23 SLP171 P0000 T01670128=
201507251153 METAR KBFI 251153Z 04006KT 10SM -RA SCT012 OVC020 17/13 A3003 RMK AO2 RAB48 SLP168 P0001 60003 70003 T01670133 10206 20167 53001=
201507251116 SPECI KBFI 251116Z 00000KT 10SM SCT012 OVC019 17/13 A3003 RMK AO2=
201507251102 SPECI KBFI 251102Z 26003KT 10SM BKN012 OVC019 17/14 A3003 RMK AO2=
201507251053 METAR KBFI 251053Z 00000KT 10SM FEW011 BKN017 OVC075 17/14 A3003 RMK AO2 SLP168 T01720139=
201507251011 SPECI KBFI 251011Z 00000KT 10SM BKN009 OVC020 18/14 A3003 RMK AO2=
201507251000 SPECI KBFI 251000Z AUTO 00000KT 10SM BKN011 OVC020 18/14 A3002 RMK AO2 TSNO=
201507250953 METAR KBFI 250953Z 00000KT 10SM SCT009 BKN020 18/14 A3002 RMK AO2 SLP166 T01780144=
201507250853 METAR KBFI 250853Z 35003KT 10SM SCT009 OVC042 18/14 A3002 RMK AO2 RAE02 SLP167 P0000 60002 T01780144 58004=
201507250811 SPECI KBFI 250811Z 00000KT 10SM SCT009 OVC042 18/16 A3002 RMK AO2 RAE02 P0000=
201507250753 METAR KBFI 250753Z 16005KT 5SM -RA FEW017 OVC040 18/16 A3003 RMK AO2 RAB15 SLP169 P0001 T01830156 402500150=
201507250653 METAR KBFI 250653Z 18004KT 10SM SCT022 OVC040 19/15 A3004 RMK AO2 RAB18E39 SLP171 P0001 T01940150=
201507250553 METAR KBFI 250553Z 21004KT 10SM FEW022 OVC043 21/14 A3004 RMK AO2 SLP170 T02060139 10250 20206 55000=
201507250453 METAR KBFI 250453Z 22006KT 10SM BKN047 OVC060 21/14 A3003 RMK AO2 SLP169 T02110139=
201507250353 METAR KBFI 250353Z 23007KT 10SM SCT045 BKN060 OVC080 21/14 A3003 RMK AO2 SLP169 T02110139=
201507250253 METAR KBFI 250253Z 20011G21KT 10SM OVC070 22/13 A3004 RMK AO2 SLP171 T02220133 56007=
201507250153 METAR KBFI 250153Z 22007G17KT 170V240 10SM SCT060 BKN080 23/13 A3004 RMK AO2 SLP171 T02330128=
201507250053 METAR KBFI 250053Z AUTO 19006KT 10SM BKN070 OVC100 24/13 A3004 RMK AO2 SLP172 T02440128 TSNO=
201507242353 METAR KBFI 242353Z 21009G16KT 10SM FEW030 BKN050 24/12 A3006 RMK AO2 SLP177 60000 T02390122 10244 20189 56010=
201507242253 METAR KBFI 242253Z COR 20007G14KT 10SM BKN060 23/12 A3006 RMK AO2 SLP180 T02330117=
201507242153 METAR KBFI 242153Z 20011G16KT 10SM FEW040 BKN080 BKN240 24/11 A3007 RMK AO2 SLP182 T02390111=
201507242053 METAR KBFI 242053Z 21010KT 10SM BKN048 BKN110 22/11 A3009 RMK AO2 SLP188 60000 T02220106 58002=
201507241953 METAR KBFI 241953Z 20007KT 10SM FEW030 BKN045 OVC080 21/11 A3009 RMK AO2 RAE05 SLP190 P0000 T02110111=
201507241853 METAR KBFI 241853Z 20005KT 7SM -RA FEW029 BKN055 OVC075 19/12 A3010 RMK AO2 RAB16 SLP191 P0000 T01890122=
201507241753 METAR KBFI 241753Z 16007KT 10SM SCT029 OVC070 20/11 A3009 RMK AO2 SLP190 T02000106 10200 20150 51009=
201507241737 SPECI KBFI 241737Z 17008KT 10SM SCT027 OVC070 20/11 A3009 RMK AO2=
201507241653 METAR KBFI 241653Z 18005KT 10SM BKN029 OVC070 19/11 A3009 RMK AO2 SLP188 T01890106=
201507241553 METAR KBFI 241553Z 16008KT 10SM BKN019 17/11 A3008 RMK AO2 SLP185 T01720111=
201507241453 METAR KBFI 241453Z 18008G16KT 10SM BKN019 17/11 A3007 RMK AO2 SLP181 T01670106 52009=
201507241353 METAR KBFI 241353Z 15008KT 10SM SCT019 16/10 A3006 RMK AO2 SLP179 T01610100=
201507241253 METAR KBFI 241253Z COR 17005KT 10SM SCT015 15/10 A3005 RMK AO2 SLP175 T01500100=
201507241153 METAR KBFI 241153Z 16004KT 10SM CLR 16/11 A3004 RMK AO2 SLP173 T01560106 10206 20156 53005=
201507241053 METAR KBFI 241053Z 19003KT 10SM CLR 16/10 A3003 RMK AO2 SLP170 T01610100=
201507240953 METAR KBFI 240953Z 15003KT 10SM CLR 17/10 A3003 RMK AO2 SLP168 T01670100=
201507240853 METAR KBFI 240853Z 18004KT 10SM FEW060 18/10 A3003 RMK AO2 SLP167 T01830100 51006=
201507240753 METAR KBFI 240753Z 05003KT 10SM FEW070 19/11 A3002 RMK AO2 SLP166 T01940106 402720167=
201507240653 METAR KBFI 240653Z 00000KT 10SM SCT060 20/10 A3002 RMK AO2 SLP164 T02000100=
201507240553 METAR KBFI 240553Z 00000KT 10SM SCT080 21/10 A3001 RMK AO2 SLP161 T02060100 10267 20200 51015=
201507240453 METAR KBFI 240453Z 29004KT 10SM SCT080 20/11 A3000 RMK AO2 SLP157 T02000106=
201507240353 METAR KBFI 240353Z 31005KT 10SM BKN080 21/11 A2998 RMK AO2 SLP151 T02060106=
201507240253 METAR KBFI 240253Z COR 30006KT 10SM SCT060 BKN250 22/11 A2996 RMK AO2 SLP146 T02220106 53001=
201507240153 METAR KBFI 240153Z COR 29005KT 10SM SCT060 BKN250 24/11 A2995 RMK AO2 SLP143 T02440106=
201507240053 METAR KBFI 240053Z 31006KT 10SM SCT070 25/10 A2996 RMK AO2 SLP143 T02500100=
201507232353 METAR KBFI 232353Z 00000KT 10SM SCT040 BKN065 26/09 A2996 RMK AO2 SLP144 T02560089 10272 20206 57008=
201507232253 METAR KBFI 232253Z 00000KT 10SM SCT050 SCT250 27/09 A2997 RMK AO2 SLP147 T02670089=
201507232153 METAR KBFI 232153Z VRB03KT 10SM CLR 26/09 A2997 RMK AO2 SLP149 T02610089=
201507232053 METAR KBFI 232053Z 25006KT 10SM FEW030 24/09 A2998 RMK AO2 SLP152 T02440089 56002=
201507231953 METAR KBFI 231953Z VRB06KT 10SM FEW030 23/09 A2998 RMK AO2 SLP153 T02330094=
201507231853 METAR KBFI 231853Z VRB03KT 10SM FEW030 SCT060 22/09 A2999 RMK AO2 SLP154 T02220094=
201507231753 METAR KBFI 231753Z 17005KT 10SM FEW020 BKN060 21/10 A2999 RMK AO2 SLP154 T02110100 10211 20167 51006=
201507231653 METAR KBFI 231653Z 16003KT 10SM SCT025 OVC060 19/10 A2999 RMK AO2 SLP153 T01940100=
201507231553 METAR KBFI 231553Z 10003KT 10SM FEW020 OVC080 18/11 A2998 RMK AO2 SLP153 T01830106=
201507231453 METAR KBFI 231453Z 00000KT 10SM FEW060 18/11 A2997 RMK AO2 SLP149 T01780106 53011=
201507231353 METAR KBFI 231353Z 00000KT 10SM FEW023 SCT060 BKN200 17/10 A2996 RMK AO2 SLP144 T01720100=
201507231253 METAR KBFI 231253Z 00000KT 10SM SCT050 BKN200 17/10 A2995 RMK AO2 SLP140 T01670100=
201507231153 METAR KBFI 231153Z 00000KT 10SM SCT050 17/10 A2994 RMK AO2 SLP138 T01670100 10183 20167 51011=
201507231053 METAR KBFI 231053Z 00000KT 10SM CLR 17/10 A2993 RMK AO2 SLP136 T01670100=
201507230953 METAR KBFI 230953Z 00000KT 10SM CLR 17/10 A2992 RMK AO2 SLP131 T01720100=
201507230853 METAR KBFI 230853Z 00000KT 10SM CLR 18/10 A2991 RMK AO2 SLP127 T01780100 53001=
201507230753 METAR KBFI 230753Z AUTO 00000KT 10SM CLR 18/11 A2990 RMK AO2 SLP126 T01780106 402500161 TSNO=
201507230653 METAR KBFI 230653Z AUTO 00000KT 10SM CLR 18/10 A2990 RMK AO2 SLP126 T01830100 TSNO=
201507230553 METAR KBFI 230553Z 00000KT 10SM CLR 19/10 A2990 RMK AO2 SLP125 T01890100 10250 20189 53015=
201507230453 METAR KBFI 230453Z VRB04KT 10SM FEW065 BKN250 19/10 A2989 RMK AO2 SLP120 T01940100=
201507230353 METAR KBFI 230353Z VRB03KT 10SM FEW050 SCT250 21/11 A2987 RMK AO2 SLP113 T02060106=
201507230253 METAR KBFI 230253Z 31008KT 10SM FEW040 SCT250 21/10 A2986 RMK AO2 SLP111 T02110100 55007=
201507230153 METAR KBFI 230153Z 32005KT 10SM FEW040 SCT260 23/09 A2986 RMK AO2 SLP110 T02330094=
201507230053 METAR KBFI 230053Z VRB05KT 10SM FEW035 24/09 A2986 RMK AO2 SLP110 T02440094=
201507222353 METAR KBFI 222353Z 31004KT 10SM SCT055 BKN200 24/09 A2988 RMK AO2 SLP118 T02390089 10244 20200 56014=
201507222253 METAR KBFI 222253Z VRB03KT 10SM SCT035 SCT130 23/09 A2989 RMK AO2 SLP121 T02330089=
201507222153 METAR KBFI 222153Z VRB03KT 10SM SCT035 BKN130 24/09 A2991 RMK AO2 SLP127 T02440089=
201507222053 METAR KBFI 222053Z 26006KT 10SM SCT035 BKN130 23/09 A2992 RMK AO2 SLP131 T02330094 58012=
201507221953 METAR KBFI 221953Z 24008KT 10SM SCT041 BKN200 22/10 A2994 RMK AO2 SLP137 T02170100=
201507221853 METAR KBFI 221853Z VRB04KT 10SM SCT035 BKN200 21/10 A2995 RMK AO2 SLP140 T02110100=
201507221753 METAR KBFI 221753Z VRB06KT 10SM BKN029 BKN200 20/10 A2995 RMK AO2 SLP143 T02000100 10200 20161 58002=
201507221653 METAR KBFI 221653Z 14005KT 10SM BKN029 BKN050 BKN200 19/10 A2996 RMK AO2 SLP145 T01890100=
201507221615 SPECI KBFI 221615Z 14008KT 10SM SCT023 SCT200 19/10 A2996 RMK AO2=
201507221553 METAR KBFI 221553Z 13009KT 10SM BKN023 BKN050 18/11 A2996 RMK AO2 SLP145 T01780106=
201507221535 SPECI KBFI 221535Z 14006KT 10SM BKN023 18/11 A2996 RMK AO2=
201507221453 METAR KBFI 221453Z VRB05KT 10SM FEW021 17/10 A2996 RMK AO2 SLP144 T01670100 53006=
201507221353 METAR KBFI 221353Z VRB04KT 10SM FEW021 SCT036 16/11 A2995 RMK AO2 SLP142 T01610106=
201507221253 METAR KBFI 221253Z 19004KT 10SM BKN034 16/11 A2994 RMK AO2 SLP139 T01610106=
201507221153 METAR KBFI 221153Z 14004KT 10SM BKN032 16/10 A2994 RMK AO2 SLP138 70013 T01610100 10183 20161 51005=
201507221053 METAR KBFI 221053Z 00000KT 10SM SCT026 BKN035 16/11 A2994 RMK AO2 SLP138 T01610106=
201507220953 METAR KBFI 220953Z 23004KT 10SM SCT026 BKN035 17/10 A2994 RMK AO2 SLP137 T01720100=
201507220853 METAR KBFI 220853Z 06003KT 10SM FEW046 BKN060 BKN080 18/11 A2993 RMK AO2 SLP134 T01780106 50002=
201507220753 METAR KBFI 220753Z 00000KT 10SM SCT042 BKN065 18/11 A2993 RMK AO2 SLP135 T01780106 402440161=
201507220653 METAR KBFI 220653Z VRB03KT 10SM OVC080 18/10 A2993 RMK AO2 SLP134 T01830100=
201507220553 METAR KBFI 220553Z 00000KT 10SM BKN044 18/10 A2992 RMK AO2 SLP132 T01830100 10239 20183 53008=
201507220453 METAR KBFI 220453Z VRB03KT 10SM FEW060 19/10 A2991 RMK AO2 SLP128 T01940100=
201507220353 METAR KBFI 220353Z 31003KT 10SM FEW060 19/10 A2990 RMK AO2 SLP124 T01940100=
201507220253 METAR KBFI 220253Z 30008KT 10SM CLR 20/09 A2990 RMK AO2 SLP123 T02000094 56011=
201507220153 METAR KBFI 220153Z 31006KT 10SM FEW040 SCT080 SCT200 22/10 A2990 RMK AO2 SLP123 T02220100=
201507220053 METAR KBFI 220053Z 30005KT 10SM SCT080 23/10 A2991 RMK AO2 SLP129 T02280100=
201507212353 METAR KBFI 212353Z VRB03KT 10SM SCT040 BKN075 BKN200 24/09 A2993 RMK AO2 SLP134 T02440094 10244 20194 58015=
201507212253 METAR KBFI 212253Z 34003KT 10SM SCT048 BKN070 24/09 A2994 RMK AO2 SLP140 T02390094=
201507212153 METAR KBFI 212153Z 24005KT 10SM SCT045 BKN070 OVC200 23/10 A2996 RMK AO2 SLP146 T02280100=
201507212053 METAR KBFI 212053Z VRB04KT 10SM SCT065 OVC150 22/11 A2997 RMK AO2 SLP149 T02220106 58009=
201507211953 METAR KBFI 211953Z 16004KT 10SM SCT033 BKN047 OVC060 21/11 A2999 RMK AO2 SLP153 T02110106=
201507211853 METAR KBFI 211853Z 25005KT 10SM FEW020 BKN033 OVC060 20/11 A3000 RMK AO2 SLP157 T02000111=
201507211753 METAR KBFI 211753Z 00000KT 10SM FEW030 BKN060 20/11 A3000 RMK AO2 SLP158 60013 T02000111 10206 20161 58002=
201507211653 METAR KBFI 211653Z 00000KT 10SM FEW021 BKN028 BKN033 19/12 A3000 RMK AO2 RAE05 SLP160 P0000 T01890122=
201507211610 SPECI KBFI 211610Z 00000KT 10SM FEW021 BKN033 OVC050 18/12 A3001 RMK AO2 RAE05 P0000=
201507211553 METAR KBFI 211553Z COR 00000KT 10SM BKN025 OVC040 18/13 A3001 RMK AO2 SLP162 P0000 T01780128=
201507211453 METAR KBFI 211453Z 00000KT 10SM -RA FEW009 OVC021 17/13 A3000 RMK AO2 RAB1354 SLP160 P0001 60013 T01720128 51004=
201507211353 METAR KBFI 211353Z 00000KT 6SM HZ SCT017 OVC025 17/12 A3000 RMK AO2 RAE51 SLP159 P0009 T01670122=
201507211253 METAR KBFI 211253Z 00000KT 4SM RA BKN018 OVC023 17/13 A2999 RMK AO2 RAB12 SLP156 P0003 T01720133=
201507211153 METAR KBFI 211153Z 10005KT 10SM OVC024 19/12 A2999 RMK AO2 SLP155 T01890117 10206 20183 55001=
201507211053 METAR KBFI 211053Z VRB03KT 10SM OVC024 19/12 A2999 RMK AO2 SLP155 T01890122=
201507210953 METAR KBFI 210953Z 11004KT 10SM FEW026 OVC033 19/12 A2999 RMK AO2 SLP155 T01890122=
201507210853 METAR KBFI 210853Z 05003KT 10SM FEW029 OVC039 19/12 A2999 RMK AO2 SLP156 T01940122 52001=
201507210753 METAR KBFI 210753Z 06004KT 10SM BKN025 19/13 A2999 RMK AO2 SLP156 T01940128 402780189=
201507210653 METAR KBFI 210653Z VRB03KT 10SM BKN040 20/13 A2999 RMK AO2 SLP156 T02000128=
201507210553 METAR KBFI 210553Z 00000KT 10SM FEW065 21/12 A2999 RMK AO2 SLP156 T02060122 10278 20206 53009=
201507210453 METAR KBFI 210453Z 00000KT 10SM CLR 22/13 A2999 RMK AO2 SLP154 T02170128=
201507210353 METAR KBFI 210353Z 27004KT 10SM CLR 22/13 A2997 RMK AO2 SLP149 T02220128=
201507210253 METAR KBFI 210253Z 32010KT 10SM CLR 24/12 A2997 RMK AO2 SLP147 T02390122 56012=
201507210153 METAR KBFI 210153Z 30003KT 10SM CLR 27/12 A2997 RMK AO2 SLP148 T02670122=
201507210053 METAR KBFI 210053Z VRB05KT 10SM FEW040 27/12 A2998 RMK AO2 SLP153 T02720117=
201507202353 METAR KBFI 202353Z 21005KT 10SM CLR 27/12 A3000 RMK AO2 SLP159 T02720117 10272 20211 58017=
201507202253 METAR KBFI 202253Z VRB05KT 10SM CLR 27/12 A3002 RMK AO2 SLP166 T02670122=
201507202153 METAR KBFI 202153Z VRB05KT 10SM CLR 26/12 A3004 RMK AO2 SLP172 T02560122=
201507202053 METAR KBFI 202053Z 19005KT 10SM CLR 24/12 A3005 RMK AO2 SLP176 T02390122 58005=
201507201953 METAR KBFI 201953Z 21008G18KT 10SM SCT045 23/12 A3007 RMK AO2 SLP181 T02280122=
201507201853 METAR KBFI 201853Z 24011KT 10SM BKN035 22/12 A3007 RMK AO2 SLP181 T02220122=
201507201753 METAR KBFI 201753Z 18010KT 10SM OVC031 21/12 A3007 RMK AO2 SLP180 T02110117 10211 20189 50001=
201507201653 METAR KBFI 201653Z 19007KT 170V230 10SM OVC027 20/12 A3007 RMK AO2 SLP181 T02000117=
201507201553 METAR KBFI 201553Z VRB06KT 10SM OVC027 19/12 A3007 RMK AO2 SLP181 T01940117=
201507201453 METAR KBFI 201453Z VRB04KT 10SM OVC027 19/12 A3006 RMK AO2 SLP179 T01940117 51010=
201507201353 METAR KBFI 201353Z VRB06KT 10SM OVC027 19/12 A3005 RMK AO2 SLP177 T01890117=
201507201253 METAR KBFI 201253Z 17008KT 10SM OVC021 19/13 A3004 RMK AO2 SLP173 T01890128=
201507201153 METAR KBFI 201153Z 18008G15KT 10SM OVC021 19/13 A3003 RMK AO2 SLP169 T01890128 10222 20189 53006=
201507201053 METAR KBFI 201053Z 19008G16KT 140V210 10SM OVC017 19/13 A3002 RMK AO2 SLP166 T01890133=
201507200953 METAR KBFI 200953Z 18008KT 10SM OVC015 19/14 A3002 RMK AO2 SLP165 T01890139=
201507200853 METAR KBFI 200853Z 16009KT 10SM SCT015 BKN050 19/14 A3001 RMK AO2 SLP163 T01890144 51009=
201507200753 METAR KBFI 200753Z 17006KT 10SM CLR 19/14 A3001 RMK AO2 SLP160 T01940144 403670194=
201507200653 METAR KBFI 200653Z 18007KT 10SM SCT200 21/14 A3000 RMK AO2 SLP157 T02060139=
201507200553 METAR KBFI 200553Z 19007KT 10SM CLR 22/14 A2999 RMK AO2 SLP154 T02220139 10356 20222 51018=
201507200453 METAR KBFI 200453Z VRB05KT 10SM SCT150 24/13 A2997 RMK AO2 SLP149 T02440128=
201507200353 METAR KBFI 200353Z 16011G17KT 10SM CLR 27/12 A2996 RMK AO2 SLP144 T02670117=
201507200253 METAR KBFI 200253Z VRB06KT 10SM SCT150 29/11 A2993 RMK AO2 SLP135 T02940111 53001=
201507200153 METAR KBFI 200153Z 20007G14KT 10SM SCT050 BKN200 33/11 A2992 RMK AO2 SLP132 T03330106=
201507200053 METAR KBFI 200053Z 23009G14KT 10SM FEW200 34/09 A2992 RMK AO2 SLP133 T03440089=
201507192353 METAR KBFI 192353Z 23007KT 10SM FEW200 36/10 A2993 RMK AO2 SLP134 T03560100 10367 20294 57009=
201507192253 METAR KBFI 192253Z VRB05KT 10SM FEW200 36/09 A2994 RMK AO2 SLP137 T03610094=
201507192153 METAR KBFI 192153Z 20006KT 10SM CLR 36/09 A2995 RMK AO2 SLP140 T03560089=
201507192053 METAR KBFI 192053Z 23006KT 10SM CLR 34/09 A2995 RMK AO2 SLP143 T03440094 58007=
201507191953 METAR KBFI 191953Z 00000KT 10SM CLR 33/10 A2997 RMK AO2 SLP147 T03330100=
201507191853 METAR KBFI 191853Z 00000KT 10SM CLR 32/11 A2997 RMK AO2 SLP149 T03170106=
201507191753 METAR KBFI 191753Z 33004KT 10SM CLR 29/12 A2998 RMK AO2 SLP150 T02940122 10294 20200 51002=
201507191653 METAR KBFI 191653Z 00000KT 10SM CLR 28/12 A2997 RMK AO2 SLP149 T02830122=
201507191553 METAR KBFI 191553Z 30003KT 10SM CLR 26/12 A2998 RMK AO2 SLP150 T02610122=
201507191453 METAR KBFI 191453Z 00000KT 10SM CLR 24/12 A2997 RMK AO2 SLP148 T02390122 51007=
201507191353 METAR KBFI 191353Z 00000KT 10SM CLR 22/13 A2997 RMK AO2 SLP147 T02170128=
201507191253 METAR KBFI 191253Z 00000KT 10SM CLR 21/12 A2996 RMK AO2 SLP146 T02060122=
201507191153 METAR KBFI 191153Z 00000KT 10SM CLR 21/12 A2995 RMK AO2 SLP141 T02110117 10272 20211 53006=
201507191053 METAR KBFI 191053Z 00000KT 10SM CLR 22/12 A2994 RMK AO2 SLP138 T02170122=
201507190953 METAR KBFI 190953Z 14005KT 10SM CLR 22/12 A2993 RMK AO2 SLP135 T02220122=
201507190853 METAR KBFI 190853Z 00000KT 10SM CLR 23/11 A2993 RMK AO2 SLP135 T02330111 51003=
201507190753 METAR KBFI 190753Z 00000KT 10SM CLR 24/11 A2993 RMK AO2 SLP134 T02440106 403330189=
201507190653 METAR KBFI 190653Z 29003KT 10SM CLR 26/10 A2993 RMK AO2 SLP135 T02560100=
201507190553 METAR KBFI 190553Z 30004KT 10SM CLR 27/09 A2992 RMK AO2 SLP132 T02720089 10333 20272 53009=
201507190453 METAR KBFI 190453Z 00000KT 10SM CLR 29/08 A2991 RMK AO2 SLP129 T02890083=
201507190353 METAR KBFI 190353Z 30003KT 10SM CLR 31/07 A2990 RMK AO2 SLP125 T03060067=
201507190253 METAR KBFI 190253Z 30005KT 10SM CLR 31/06 A2989 RMK AO2 SLP123 T03110061 56009=
201507190153 METAR KBFI 190153Z 30006KT 10SM CLR 33/06 A2990 RMK AO2 SLP124 T03280056=
201507190053 METAR KBFI 190053Z 29007KT 260V330 10SM CLR 33/06 A2991 RMK AO2 SLP127 T03280056=
201507182353 METAR KBFI 182353Z 30009G14KT 10SM CLR 33/05 A2992 RMK AO2 SLP132 T03280050 10333 20256 56016=
201507182253 METAR KBFI 182253Z 30010G15KT 10SM CLR 33/07 A2993 RMK AO2 SLP136 T03280067=
201507182153 METAR KBFI 182153Z 32005KT 10SM CLR 32/08 A2994 RMK AO2 SLP139 T03220083=
201507182053 METAR KBFI 182053Z 32006KT 10SM CLR 32/10 A2997 RMK AO2 SLP148 T03170100 58014=
201507181953 METAR KBFI 181953Z AUTO 30009G14KT 10SM CLR 29/11 A2999 RMK AO2 SLP154 T02940106 TSNO=
201507181853 METAR KBFI 181853Z VRB05KT 10SM CLR 27/12 A3000 RMK AO2 SLP159 T02670122=
201507181753 METAR KBFI 181753Z 31005KT 10SM CLR 26/12 A3001 RMK AO2 SLP162 T02610122 10261 20189 58004=
201507181653 METAR KBFI 181653Z 32004KT 10SM CLR 23/12 A3001 RMK AO2 SLP163 T02330122=
201507181553 METAR KBFI 181553Z VRB03KT 10SM CLR 22/12 A3002 RMK AO2 SLP167 T02220122=
201507181453 METAR KBFI 181453Z 31003KT 10SM FEW240 21/12 A3002 RMK AO2 SLP166 T02060117 52004=
201507181353 METAR KBFI 181353Z 32003KT 10SM FEW240 19/11 A3002 RMK AO2 SLP165 T01940111=
201507181253 METAR KBFI 181253Z 00000KT 10SM SCT240 19/11 A3001 RMK AO2 SLP163 T01940111=
201507181153 METAR KBFI 181153Z 00000KT 10SM CLR 19/11 A3001 RMK AO2 SLP162 T01940111 10239 20189 53003=
201507181053 METAR KBFI 181053Z 00000KT 10SM CLR 21/11 A3000 RMK AO2 SLP158 T02060111=
201507180953 METAR KBFI 180953Z 00000KT 10SM CLR 20/11 A3000 RMK AO2 SLP159 T02000106=
201507180853 METAR KBFI 180853Z 00000KT 10SM CLR 22/11 A3000 RMK AO2 SLP158 T02170106 53000=
201507180753 METAR KBFI 180753Z 00000KT 10SM CLR 23/11 A2999 RMK AO2 SLP156 T02280111 402830150=
201507180653 METAR KBFI 180653Z 00000KT 10SM CLR 23/11 A2999 RMK AO2 SLP156 T02280111=
201507180553 METAR KBFI 180553Z 00000KT 10SM CLR 24/09 A3000 RMK AO2 SLP158 T02390089 10283 20239 51004=
201507180453 METAR KBFI 180453Z 00000KT 10SM CLR 25/08 A3000 RMK AO2 SLP158 T02500078=
201507180353 METAR KBFI 180353Z VRB04KT 10SM CLR 26/07 A2999 RMK AO2 SLP154 T02610072=
201507180253 METAR KBFI 180253Z 01006KT 10SM SCT250 27/07 A2998 RMK AO2 SLP153 T02720072 56008=
201507180153 METAR KBFI 180153Z VRB06KT 10SM SCT250 28/06 A2999 RMK AO2 SLP154 T02780061=
201507180053 METAR KBFI 180053Z AUTO 33006KT 10SM SCT250 28/07 A3000 RMK AO2 SLP157 T02830067=
201507172353 METAR KBFI 172353Z VRB06G16KT 10SM FEW200 28/06 A3001 RMK AO2 SLP161 T02780056 10283 20222 56017=
201507172253 METAR KBFI 172253Z 29010G15KT 10SM FEW200 27/06 A3002 RMK AO2 SLP166 T02720061=
201507172153 METAR KBFI 172153Z VRB06G15KT 10SM CLR 27/07 A3003 RMK AO2 SLP168 T02670067=
201507172053 METAR KBFI 172053Z 30010G14KT 10SM FEW250 26/09 A3006 RMK AO2 SLP178 T02560094 58017=
201507171953 METAR KBFI 171953Z VRB05KT 10SM SCT240 25/11 A3008 RMK AO2 SLP185 T02500106=
201507171853 METAR KBFI 171853Z 32006KT 10SM SCT240 24/11 A3010 RMK AO2 SLP191 T02390111=
201507171753 METAR KBFI 171753Z COR VRB04KT 10SM SCT250 23/11 A3011 RMK AO2 SLP195 T02280106 10228 20156 58009=
201507171653 METAR KBFI 171653Z VRB04KT 10SM SCT250 20/11 A3013 RMK AO2 SLP201 T02000106=
201507171553 METAR KBFI 171553Z 30004KT 10SM FEW030 BKN250 19/11 A3014 RMK AO2 SLP206 T01940111=
201507171453 METAR KBFI 171453Z 00000KT 10SM BKN250 18/11 A3014 RMK AO2 SLP205 T01780106 53001=
201507171353 METAR KBFI 171353Z 00000KT 10SM SCT250 17/11 A3013 RMK AO2 SLP204 T01670106=
201507171253 METAR KBFI 171253Z 00000KT 10SM SCT250 16/11 A3013 RMK AO2 SLP203 T01610106=
201507171153 METAR KBFI 171153Z 00000KT 10SM FEW200 SCT250 16/09 A3013 RMK AO2 SLP203 T01560094 10211 20150 55002=
201507171053 METAR KBFI 171053Z 00000KT 10SM CLR 17/10 A3013 RMK AO2 SLP202 T01670100=
201507170953 METAR KBFI 170953Z 00000KT 10SM CLR 17/10 A3014 RMK AO2 SLP205 T01720100=
201507170853 METAR KBFI 170853Z 00000KT 10SM CLR 18/10 A3014 RMK AO2 SLP205 T01780100 51006=
201507170753 METAR KBFI 170753Z 32003KT 10SM CLR 18/09 A3014 RMK AO2 SLP204 T01780094 402720178=
201507170653 METAR KBFI 170653Z 26003KT 10SM SCT250 19/09 A3012 RMK AO2 SLP200 T01890089=
201507170553 METAR KBFI 170553Z 31003KT 10SM CLR 21/08 A3012 RMK AO2 SLP198 T02110078 10267 20211 51009=
201507170453 METAR KBFI 170453Z 34003KT 10SM SCT250 23/08 A3011 RMK AO2 SLP196 T02280083=
201507170353 METAR KBFI 170353Z COR VRB03KT 10SM FEW055 SCT250 24/09 A3010 RMK AO2 SLP193 T02440089=
201507170253 METAR KBFI 170253Z 32005KT 10SM SCT055 SCT250 25/09 A3009 RMK AO2 SLP190 T02500089 56007=
201507170153 METAR KBFI 170153Z 30004KT 10SM CLR 26/09 A3010 RMK AO2 SLP191 T02560089=
201507170053 METAR KBFI 170053Z VRB04KT 10SM SCT050 SCT250 26/09 A3010 RMK AO2 SLP193 T02610089=
201507162353 METAR KBFI 162353Z VRB04KT 10SM SCT050 SCT250 26/08 A3011 RMK AO2 SLP197 T02610078 10272 20206 56008=
201507162253 METAR KBFI 162253Z 30003KT 10SM SCT050 SCT250 26/08 A3012 RMK AO2 SLP198 T02560083=
201507162153 METAR KBFI 162153Z 28008KT 10SM SCT049 26/09 A3013 RMK AO2 SLP202 T02560089=
201507162053 METAR KBFI 162053Z VRB03KT 10SM SCT045 24/10 A3014 RMK AO2 SLP205 T02440100 58005=
201507161953 METAR KBFI 161953Z 00000KT 10SM SCT038 23/11 A3014 RMK AO2 SLP207 T02280111=
201507161853 METAR KBFI 161853Z 00000KT 10SM SCT025 BKN220 22/12 A3015 RMK AO2 SLP209 T02220117=
201507161753 METAR KBFI 161753Z 23004KT 10SM SCT025 BKN220 22/12 A3015 RMK AO2 SLP210 T02170117 10222 20178 51008=
201507161653 METAR KBFI 161653Z VRB03KT 10SM SCT025 BKN035 20/12 A3015 RMK AO2 SLP208 T02000117=
201507161553 METAR KBFI 161553Z 24004KT 10SM FEW016 BKN035 19/12 A3014 RMK AO2 SLP206 T01890122=
201507161453 METAR KBFI 161453Z 17004KT 10SM BKN034 BKN060 19/11 A3013 RMK AO2 SLP202 T01890111 53011=
201507161353 METAR KBFI 161353Z 00000KT 10SM OVC034 18/11 A3012 RMK AO2 SLP198 T01830106=
201507161253 METAR KBFI 161253Z 00000KT 10SM BKN030 18/11 A3010 RMK AO2 SLP193 T01780106=
201507161153 METAR KBFI 161153Z 07003KT 10SM FEW030 SCT050 18/11 A3010 RMK AO2 SLP191 T01780106 10194 20178 53002=
201507161053 METAR KBFI 161053Z 00000KT 10SM CLR 18/10 A3009 RMK AO2 SLP189 T01780100=
201507160953 METAR KBFI 160953Z 06003KT 10SM FEW080 18/10 A3009 RMK AO2 SLP188 T01830100=
201507160853 METAR KBFI 160853Z 06006KT 10SM OVC039 18/10 A3009 RMK AO2 SLP189 T01830100 53005=
201507160753 METAR KBFI 160753Z 07005KT 10SM FEW039 BKN055 OVC070 19/10 A3009 RMK AO2 SLP188 T01890100 402720172=
201507160653 METAR KBFI 160653Z 06006KT 10SM BKN047 OVC060 19/11 A3008 RMK AO2 SLP185 T01940111=
201507160553 METAR KBFI 160553Z 06006KT 10SM OVC047 19/12 A3008 RMK AO2 SLP185 T01940117 10272 20194 53016=
201507160453 METAR KBFI 160453Z VRB03KT 10SM OVC045 21/12 A3006 RMK AO2 SLP178 T02110117=
201507160353 METAR KBFI 160353Z 36005KT 10SM SCT075 22/11 A3004 RMK AO2 SLP172 T02170111=
201507160253 METAR KBFI 160253Z VRB05KT 10SM SCT060 SCT200 23/11 A3003 RMK AO2 SLP168 T02330111 53008=
201507160153 METAR KBFI 160153Z COR 30004KT 10SM SCT060 SCT200 24/11 A3002 RMK AO2 SLP165 T02440111=
201507160053 METAR KBFI 160053Z 30009KT 10SM SCT070 SCT200 25/12 A3001 RMK AO2 SLP162 T02500117=
201507152353 METAR KBFI 152353Z 28006KT 10SM SCT065 BKN200 27/11 A3001 RMK AO2 SLP161 T02720106 10272 20222 58015=
201507152253 METAR KBFI 152253Z VRB04KT 10SM FEW050 SCT220 27/10 A3002 RMK AO2 SLP167 T02670100=
201507152153 METAR KBFI 152153Z VRB05KT 10SM FEW050 BKN220 26/09 A3004 RMK AO2 SLP170 T02610094=
201507152053 METAR KBFI 152053Z 23006KT 10SM FEW030 BKN220 26/09 A3005 RMK AO2 SLP176 T02560094 56010=
201507151953 METAR KBFI 151953Z VRB03KT 10SM FEW030 BKN250 25/11 A3006 RMK AO2 SLP179 T02500111=
201507151853 METAR KBFI 151853Z 24005KT 10SM FEW030 BKN250 24/11 A3007 RMK AO2 SLP181 T02440111=
201507151753 METAR KBFI 151753Z 00000KT 10SM FEW030 BKN250 23/11 A3008 RMK AO2 SLP186 T02280106 10228 20172 50002=
201507151653 METAR KBFI 151653Z 15003KT 10SM BKN250 21/11 A3009 RMK AO2 SLP188 T02110106=
201507151553 METAR KBFI 151553Z 18003KT 10SM CLR 19/11 A3009 RMK AO2 SLP188 T01940106=
201507151453 METAR KBFI 151453Z 14003KT 10SM CLR 18/10 A3008 RMK AO2 SLP184 T01830100 51013=
201507151353 METAR KBFI 151353Z 00000KT 10SM CLR 19/10 A3007 RMK AO2 SLP180 T01890100=
201507151253 METAR KBFI 151253Z 00000KT 10SM FEW100 SCT250 17/09 A3005 RMK AO2 SLP176 T01720094=
201507151153 METAR KBFI 151153Z 00000KT 10SM CLR 18/10 A3004 RMK AO2 SLP171 T01780100 10222 20178 50004=
201507151053 METAR KBFI 151053Z 00000KT 10SM CLR 18/10 A3004 RMK AO2 SLP171 T01780100=
201507150953 METAR KBFI 150953Z 00000KT 10SM CLR 18/10 A3003 RMK AO2 SLP167 T01830100=
201507150853 METAR KBFI 150853Z 00000KT 10SM CLR 19/10 A3002 RMK AO2 SLP167 T01890100 51007=
201507150753 METAR KBFI 150753Z 00000KT 10SM CLR 19/11 A3002 RMK AO2 SLP164 T01890106 402780172=
201507150653 METAR KBFI 150653Z 00000KT 10SM CLR 19/11 A3002 RMK AO2 SLP165 T01940106=
201507150553 METAR KBFI 150553Z VRB05KT 10SM CLR 22/11 A3000 RMK AO2 SLP159 T02220106 10272 20222 51011=
201507150453 METAR KBFI 150453Z VRB03KT 10SM CLR 23/11 A2999 RMK AO2 SLP157 T02280106=
201507150353 METAR KBFI 150353Z VRB03KT 10SM FEW060 SCT250 24/08 A2998 RMK AO2 SLP152 T02440083=
201507150253 METAR KBFI 150253Z 35005KT 10SM FEW050 26/08 A2997 RMK AO2 SLP149 T02560078 55002=
201507150153 METAR KBFI 150153Z 31006KT 10SM FEW060 27/07 A2996 RMK AO2 SLP143 T02670072=
201507150053 METAR KBFI 150053Z 30008KT 10SM SCT040 27/08 A2996 RMK AO2 SLP146 T02720078=
201507142353 METAR KBFI 142353Z VRB06G14KT 10SM CLR 27/08 A2998 RMK AO2 SLP151 T02720083 10278 20217 56014=
201507142253 METAR KBFI 142253Z VRB05KT 10SM CLR 27/09 A2999 RMK AO2 SLP155 T02720094=
201507142153 METAR KBFI 142153Z 28007KT 10SM BKN250 27/09 A3000 RMK AO2 SLP160 T02670094=
201507142053 METAR KBFI 142053Z VRB06KT 10SM FEW020 BKN250 26/11 A3002 RMK AO2 SLP165 T02610106 58012=
201507141953 METAR KBFI 141953Z 34006KT 10SM FEW020 SCT250 24/11 A3004 RMK AO2 SLP170 T02440106=
201507141853 METAR KBFI 141853Z VRB05KT 10SM FEW020 SCT250 23/11 A3005 RMK AO2 SLP174 T02330106=
201507141753 METAR KBFI 141753Z VRB05KT 10SM FEW020 SCT250 22/11 A3005 RMK AO2 SLP177 T02220106 10228 20178 58009=
201507141653 METAR KBFI 141653Z 00000KT 10SM FEW020 SCT250 22/11 A3007 RMK AO2 SLP182 T02170106=
201507141553 METAR KBFI 141553Z 06004KT 10SM FEW030 SCT200 20/11 A3008 RMK AO2 SLP184 T02000106=
201507141453 METAR KBFI 141453Z 05004KT 10SM FEW020 SCT250 19/10 A3008 RMK AO2 SLP186 T01940100 53010=
201507141353 METAR KBFI 141353Z 04006KT 10SM FEW075 18/09 A3007 RMK AO2 SLP183 T01780094=
201507141253 METAR KBFI 141253Z VRB03KT 10SM BKN070 18/09 A3006 RMK AO2 SLP178 T01780094=
201507141153 METAR KBFI 141153Z 00000KT 10SM OVC070 18/09 A3005 RMK AO2 SLP176 T01780094 10206 20172 53002=
201507141053 METAR KBFI 141053Z 00000KT 10SM BKN060 18/09 A3005 RMK AO2 SLP175 T01780094=
201507140953 METAR KBFI 140953Z 00000KT 10SM CLR 18/10 A3004 RMK AO2 SLP174 T01780100=
201507140853 METAR KBFI 140853Z 05003KT 10SM CLR 18/10 A3005 RMK AO2 SLP174 T01830100 51003=
201507140753 METAR KBFI 140753Z VRB03KT 10SM FEW065 18/10 A3005 RMK AO2 SLP174 T01830100 402610183=
201507140653 METAR KBFI 140653Z 06005KT 10SM FEW095 19/11 A3005 RMK AO2 SLP174 T01890106=
201507140553 METAR KBFI 140553Z AUTO VRB03KT 10SM CLR 21/11 A3004 RMK AO2 SLP171 T02060111 10256 20206 52007=
201507140453 METAR KBFI 140453Z 35003KT 10SM SCT250 21/11 A3003 RMK AO2 SLP169 T02110111=
201507140353 METAR KBFI 140353Z 33004KT 10SM SCT050 22/11 A3002 RMK AO2 SLP165 T02220111=
201507140253 METAR KBFI 140253Z 32006KT 10SM FEW050 SCT260 23/11 A3001 RMK AO2 SLP163 T02280111 55004=
201507140153 METAR KBFI 140153Z 33006KT 10SM SCT060 SCT250 24/12 A3001 RMK AO2 SLP162 T02440117=
201507140053 METAR KBFI 140053Z 31007KT 10SM FEW030 SCT250 25/12 A3002 RMK AO2 SLP164 T02500117=
201507132353 METAR KBFI 132353Z 30007KT 10SM SCT030 SCT250 25/12 A3003 RMK AO2 SLP167 T02500117 10261 20211 56015=
201507132253 METAR KBFI 132253Z VRB06KT 10SM FEW035 SCT260 25/11 A3004 RMK AO2 SLP171 T02500111=
201507132153 METAR KBFI 132153Z 32011KT 10SM SCT030 SCT200 25/13 A3006 RMK AO2 SLP177 T02500128=
201507132053 METAR KBFI 132053Z 32010KT 10SM SCT030 SCT200 24/13 A3007 RMK AO2 SLP182 T02390133 58007=
201507131953 METAR KBFI 131953Z VRB03KT 10SM SCT024 BKN110 23/13 A3008 RMK AO2 SLP185 T02330133=
201507131853 METAR KBFI 131853Z VRB06KT 10SM FEW015 BKN024 BKN110 22/14 A3009 RMK AO2 SLP188 T02220139=
201507131753 METAR KBFI 131753Z 19004KT 10SM BKN022 BKN070 21/14 A3009 RMK AO2 SLP189 T02110139 10217 20189 51001=
201507131653 METAR KBFI 131653Z 18004KT 10SM SCT011 BKN016 OVC045 20/14 A3009 RMK AO2 SLP189 T02000139=
201507131553 METAR KBFI 131553Z VRB04KT 10SM OVC020 19/13 A3009 RMK AO2 SLP188 T01940133=
201507131453 METAR KBFI 131453Z 21003KT 10SM OVC018 19/13 A3009 RMK AO2 SLP188 T01890133 53009=
201507131353 METAR KBFI 131353Z 16005KT 10SM BKN026 BKN080 19/13 A3007 RMK AO2 SLP184 T01890133=
201507131253 METAR KBFI 131253Z VRB05KT 10SM BKN019 BKN050 19/13 A3006 RMK AO2 SLP178 T01890133=
201507131251 SPECI KBFI 131251Z VRB05KT 10SM BKN019 BKN050 19/13 A3006 RMK AO2=
201507131153 METAR KBFI 131153Z 00000KT 10SM SCT022 OVC050 19/14 A3006 RMK AO2 SLP178 T01940139 10206 20194 53005=
201507131053 METAR KBFI 131053Z 00000KT 10SM OVC026 19/14 A3005 RMK AO2 SLP176 T01940139=
201507130953 METAR KBFI 130953Z 07004KT 10SM BKN070 20/13 A3005 RMK AO2 SLP174 T02000133=
201507130853 METAR KBFI 130853Z 05004KT 10SM FEW100 20/13 A3004 RMK AO2 SLP173 T02000133 51008=
201507130753 METAR KBFI 130753Z 00000KT 10SM FEW100 20/13 A3004 RMK AO2 SLP171 T02000133 402780183=
201507130653 METAR KBFI 130653Z 00000KT 10SM SCT085 20/13 A3003 RMK AO2 SLP168 T02000128=
201507130553 METAR KBFI 130553Z 00000KT 10SM CLR 20/13 A3002 RMK AO2 SLP165 T02000128 10272 20200 51014=
201507130453 METAR KBFI 130453Z 00000KT 10SM SCT050 20/13 A3002 RMK AO2 SLP165 T02000128=
201507130353 METAR KBFI 130353Z 30005KT 10SM SCT050 SCT250 22/13 A3000 RMK AO2 SLP157 T02170128=
201507130300 METAR KBFI NIL=
201507130253 METAR KBFI 130253Z VRB05KT 10SM FEW110 SCT220 26/12 A2998 RMK AO2 SLP151 T02560122 53002=
201507130153 METAR KBFI 130153Z 22005KT 10SM SCT050 BKN200 27/11 A2997 RMK AO2 SLP148 T02670111=
201507130053 METAR KBFI 130053Z VRB05KT 10SM SCT050 SCT200 27/11 A2997 RMK AO2 SLP149 T02670106=
201507122353 METAR KBFI 122353Z 24005KT 10SM SCT050 SCT200 27/10 A2997 RMK AO2 SLP149 T02720100 10278 20217 56009=
201507122253 METAR KBFI 122253Z 24009KT 10SM SCT050 SCT200 27/11 A2998 RMK AO2 SLP152 T02720111=
201507122153 METAR KBFI 122153Z 21007G15KT 10SM SCT050 SCT200 27/11 A2999 RMK AO2 SLP155 T02670111=
201507122053 METAR KBFI 122053Z 19006G14KT 10SM SCT044 26/11 A3000 RMK AO2 SLP159 T02560111 56008=
201507121953 METAR KBFI 121953Z 18004KT 10SM FEW028 SCT046 24/12 A3001 RMK AO2 SLP161 T02440117=
201507121853 METAR KBFI 121853Z VRB05KT 10SM SCT026 BKN050 23/12 A3002 RMK AO2 SLP164 T02280117=
201507121753 METAR KBFI 121753Z 13006KT 10SM SCT026 BKN037 BKN200 23/13 A3003 RMK AO2 SLP167 T02280128 10228 20183 51004=
201507121653 METAR KBFI 121653Z AUTO 16007KT 10SM FEW019 OVC045 20/13 A3002 RMK AO2 SLP166 T02000133 TSNO=
201507121553 METAR KBFI 121553Z 16007KT 10SM BKN032 OVC043 19/14 A3002 RMK AO2 SLP167 T01940139=
201507121453 METAR KBFI 121453Z 16005KT 10SM SCT036 OVC046 19/13 A3001 RMK AO2 SLP163 T01940133 53012=
201507121353 METAR KBFI 121353Z 16006KT 10SM BKN037 OVC048 19/13 A3000 RMK AO2 SLP157 T01890133=
201507121253 METAR KBFI 121253Z VRB03KT 10SM SCT037 OVC050 18/14 A2999 RMK AO2 SLP154 T01830139=
201507121153 METAR KBFI 121153Z 18003KT 10SM OVC050 19/13 A2998 RMK AO2 SLP151 T01890133 10194 20183 55001=
201507121053 METAR KBFI 121053Z 16006KT 10SM OVC050 19/13 A2997 RMK AO2 SLP148 T01890133=
201507120953 METAR KBFI 120953Z 16007KT 10SM FEW045 OVC120 19/13 A2998 RMK AO2 SLP151 T01890133=
201507120853 METAR KBFI 120853Z 17006KT 10SM OVC045 19/13 A2998 RMK AO2 SLP151 T01940133 50001=
201507120753 METAR KBFI 120753Z 15005KT 10SM FEW110 18/13 A2998 RMK AO2 SLP152 T01830133 402330183=
201507120653 METAR KBFI 120653Z 20003KT 10SM SCT027 OVC100 19/13 A2998 RMK AO2 SLP152 T01890133=
201507120553 METAR KBFI 120553Z 00000KT 10SM OVC060 19/13 A2997 RMK AO2 SLP150 T01890133 10228 20189 53008=
201507120453 METAR KBFI 120453Z 15006KT 10SM OVC060 19/13 A2997 RMK AO2 SLP147 T01890133=
201507120353 METAR KBFI 120353Z 15005KT 10SM OVC055 19/13 A2995 RMK AO2 SLP142 T01940128=
201507120253 METAR KBFI 120253Z 19004KT 10SM BKN045 OVC055 20/13 A2995 RMK AO2 SLP142 T02000128 53011=
201507120153 METAR KBFI 120153Z 22005KT 10SM OVC065 21/13 A2993 RMK AO2 SLP135 T02060128=
201507120053 METAR KBFI 120053Z 25005KT 10SM OVC065 21/12 A2992 RMK AO2 SLP133 T02110122=
201507112353 METAR KBFI 112353Z 23005KT 10SM SCT065 BKN110 OVC230 22/12 A2992 RMK AO2 SLP130 T02220122 10233 20200 55003=
201507112253 METAR KBFI 112253Z VRB05KT 10SM FEW035 OVC060 23/11 A2992 RMK AO2 SLP130 T02280111=
201507112153 METAR KBFI 112153Z 19008KT 10SM BKN060 BKN110 22/11 A2992 RMK AO2 SLP133 T02220111=
201507112053 METAR KBFI 112053Z VRB04KT 10SM FEW044 OVC100 20/12 A2993 RMK AO2 SLP134 T02000117 51008=
201507111953 METAR KBFI 111953Z VRB06KT 10SM BKN050 OVC120 21/12 A2993 RMK AO2 SLP133 T02060117=
201507111853 METAR KBFI 111853Z 19008KT 10SM BKN031 BKN048 OVC100 21/11 A2992 RMK AO2 SLP130 T02110111=
201507111753 METAR KBFI 111753Z COR 15008KT 10SM SCT031 BKN045 OVC100 21/12 A2990 RMK AO2 SLP126 T02110117 10211 20183 53004=
201507111653 METAR KBFI 111653Z 16008KT 10SM OVC039 20/11 A2990 RMK AO2 SLP124 T02000111=
201507111553 METAR KBFI 111553Z 19004KT 10SM BKN045 OVC055 20/12 A2989 RMK AO2 SLP123 T02000117=
201507111453 METAR KBFI 111453Z 17005KT 10SM FEW029 OVC036 19/11 A2989 RMK AO2 SLP122 T01940111 51005=
201507111353 METAR KBFI 111353Z 17005KT 10SM FEW029 OVC042 19/12 A2989 RMK AO2 SLP121 T01890122=
201507111253 METAR KBFI 111253Z 17004KT 10SM FEW032 OVC038 18/12 A2989 RMK AO2 SLP120 T01830117=
201507111153 METAR KBFI 111153Z 22005KT 10SM OVC036 18/12 A2988 RMK AO2 SLP117 T01830117 10194 20183 53002=
201507111053 METAR KBFI 111053Z 18005KT 10SM OVC034 19/12 A2987 RMK AO2 SLP114 T01890117=
201507110953 METAR KBFI 110953Z 18004KT 10SM OVC034 19/11 A2987 RMK AO2 SLP114 T01890111=
201507110853 METAR KBFI 110853Z AUTO 19004KT 10SM OVC044 19/12 A2987 RMK AO2 SLP114 T01890117 58002 TSNO=
201507110753 METAR KBFI 110753Z 17005KT 10SM OVC044 19/12 A2987 RMK AO2 SLP116 T01890117 402280183=
201507110653 METAR KBFI 110653Z COR 16005KT 10SM FEW040 SCT100 19/12 A2987 RMK AO2 SLP115 T01890122=
201507110553 METAR KBFI 110553Z 19006KT 10SM SCT100 19/12 A2988 RMK AO2 SLP116 T01940117 10222 20194 53006=
201507110453 METAR KBFI 110453Z 18005KT 10SM FEW042 20/12 A2986 RMK AO2 SLP113 T02000117=
201507110353 METAR KBFI 110353Z 21005KT 10SM FEW042 21/12 A2986 RMK AO2 SLP110 T02060122=
201507110253 METAR KBFI 110253Z 22005KT 10SM OVC040 21/12 A2986 RMK AO2 SLP110 T02060122 55001=
201507110153 METAR KBFI 110153Z 24007KT 10SM OVC038 21/12 A2985 RMK AO2 SLP109 T02110117=
201507110053 METAR KBFI 110053Z VRB05KT 10SM BKN038 OVC100 22/12 A2985 RMK AO2 SLP109 T02170117=
201507102353 METAR KBFI 102353Z VRB06KT 10SM OVC031 22/12 A2986 RMK AO2 SLP111 T02220117 10228 20200 58008=
201507102253 METAR KBFI 102253Z 21008KT 10SM OVC039 23/12 A2987 RMK AO2 SLP114 T02280117=
201507102153 METAR KBFI 102153Z 21007KT 10SM OVC037 22/12 A2988 RMK AO2 SLP118 T02170122=
201507102053 METAR KBFI 102053Z 19007KT 10SM OVC033 22/12 A2988 RMK AO2 SLP119 T02170122 53002=
201507102014 SPECI KBFI 102014Z 21007KT 170V260 10SM OVC031 22/12 A2988 RMK AO2=
201507101953 METAR KBFI 101953Z 16010G14KT 10SM BKN023 OVC031 22/12 A2987 RMK AO2 SLP116 T02170122=
201507101853 METAR KBFI 101853Z 23008KT 10SM BKN023 OVC031 21/13 A2988 RMK AO2 SLP116 T02110128=
201507101753 METAR KBFI 101753Z 20005KT 10SM BKN023 OVC031 21/12 A2988 RMK AO2 SLP116 T02060122 10206 20183 51006=
201507101653 METAR KBFI 101653Z 19006KT 10SM SCT020 OVC035 19/12 A2988 RMK AO2 SLP116 T01940122=
201507101553 METAR KBFI 101553Z 17006KT 10SM SCT020 OVC035 19/12 A2987 RMK AO2 SLP113 T01890122=
201507101453 METAR KBFI 101453Z 17007KT 10SM FEW025 OVC030 19/12 A2986 RMK AO2 SLP110 T01890122 51009=
201507101446 SPECI KBFI 101446Z 19006KT 10SM SCT025 OVC030 19/12 A2985 RMK AO2=
201507101353 METAR KBFI 101353Z 16007KT 10SM FEW010 OVC026 18/12 A2985 RMK AO2 SLP108 T01830122=
201507101311 SPECI KBFI 101311Z 17008KT 10SM FEW021 OVC028 18/12 A2984 RMK AO2=
201507101253 METAR KBFI 101253Z 17008KT 10SM SCT021 OVC030 18/12 A2984 RMK AO2 SLP104 T01830122=
201507101153 METAR KBFI 101153Z 17009KT 10SM OVC021 18/13 A2983 RMK AO2 SLP101 T01830133 10189 20183 51008=
201507101053 METAR KBFI 101053Z 17008KT 10SM OVC021 19/13 A2982 RMK AO2 SLP098 T01890133=
201507100953 METAR KBFI 100953Z 20008KT 10SM OVC017 18/13 A2982 RMK AO2 SLP098 T01830133=
201507100853 METAR KBFI 100853Z 19011G16KT 10SM OVC015 18/13 A2981 RMK AO2 SLP092 T01830128 53010=
201507100753 METAR KBFI 100753Z 18006KT 10SM OVC015 18/13 A2979 RMK AO2 SLP088 T01830133 403000167=
201507100708 SPECI KBFI 100708Z 18005KT 10SM OVC015 18/13 A2978 RMK AO2=
201507100653 METAR KBFI 100653Z 17008KT 10SM SCT015 18/13 A2978 RMK AO2 SLP083 T01830133=
201507100553 METAR KBFI 100553Z 19007KT 150V220 10SM CLR 19/13 A2975 RMK AO2 SLP074 T01890133 10300 20189 53029=
201507100453 METAR KBFI 100453Z VRB05KT 10SM CLR 21/14 A2972 RMK AO2 SLP064 T02060139=
201507100353 METAR KBFI 100353Z 00000KT 10SM CLR 24/14 A2968 RMK AO2 SLP050 T02440144=
201507100253 METAR KBFI 100253Z 20007KT 170V230 10SM CLR 27/14 A2966 RMK AO2 SLP044 T02670144 55000=
201507100153 METAR KBFI 100153Z 27006KT 10SM CLR 29/15 A2966 RMK AO2 SLP042 T02890150=
201507100053 METAR KBFI 100053Z 33005KT 10SM CLR 29/14 A2966 RMK AO2 SLP043 T02940144=
201507092353 METAR KBFI 092353Z VRB04KT 10SM CLR 29/15 A2966 RMK AO2 SLP044 T02940150 10300 20233 56017=
201507092253 METAR KBFI 092253Z VRB04KT 10SM CLR 29/14 A2967 RMK AO2 SLP048 T02940144=
201507092153 METAR KBFI 092153Z 30005KT 10SM CLR 29/14 A2969 RMK AO2 SLP053 T02890144=
201507092053 METAR KBFI 092053Z VRB05KT 9SM CLR 28/14 A2971 RMK AO2 SLP061 T02780139 58013=
201507091953 METAR KBFI 091953Z VRB03KT 9SM CLR 26/14 A2973 RMK AO2 SLP068 T02560139=
201507091853 METAR KBFI 091853Z VRB03KT 9SM CLR 24/14 A2974 RMK AO2 SLP072 T02440139=
201507091753 METAR KBFI 091753Z VRB03KT 8SM CLR 24/14 A2975 RMK AO2 SLP074 T02390139 10239 20167 56007=
201507091653 METAR KBFI 091653Z VRB03KT 10SM CLR 22/13 A2976 RMK AO2 SLP076 T02170133=
201507091553 METAR KBFI 091553Z 00000KT 7SM FEW010 BKN150 19/13 A2976 RMK AO2 SLP079 T01940133=
201507091453 METAR KBFI 091453Z 00000KT 10SM SCT010 BKN100 18/13 A2977 RMK AO2 SLP081 T01830133 58001=
201507091404 SPECI KBFI 091404Z 17003KT 10SM SCT010 OVC070 17/13 A2978 RMK AO2=
201507091353 METAR KBFI 091353Z COR 00000KT 10SM SCT010 OVC070 17/13 A2978 RMK AO2 SLP083 T01720133=
201507091346 SPECI KBFI 091346Z 00000KT 10SM BKN010 17/13 A2978 RMK AO2=
201507091253 METAR KBFI 091253Z 22003KT 10SM FEW010 17/13 A2977 RMK AO2 SLP082 T01670128=
201507091153 METAR KBFI 091153Z 23003KT 10SM CLR 17/13 A2977 RMK AO2 SLP082 T01670128 10228 20167 52002=
201507091053 METAR KBFI 091053Z 18003KT 10SM CLR 17/13 A2977 RMK AO2 SLP081 T01720128=
201507090953 METAR KBFI 090953Z 20004KT 10SM CLR 19/13 A2977 RMK AO2 SLP080 T01890133=
201507090853 METAR KBFI 090853Z 19003KT 10SM CLR 21/13 A2977 RMK AO2 SLP080 T02060133 51006=
201507090753 METAR KBFI 090753Z 00000KT 10SM CLR 21/12 A2976 RMK AO2 SLP078 T02060122 403000172=
201507090653 METAR KBFI 090653Z 00000KT 10SM CLR 22/12 A2976 RMK AO2 SLP077 T02170122=
201507090553 METAR KBFI 090553Z 00000KT 8SM CLR 23/12 A2975 RMK AO2 SLP073 T02280117 10300 20228 53012=
201507090453 METAR KBFI 090453Z 32003KT 9SM CLR 23/12 A2973 RMK AO2 SLP067 T02330117=
201507090353 METAR KBFI 090353Z VRB04KT 7SM CLR 24/12 A2972 RMK AO2 SLP063 T02440117=
201507090253 METAR KBFI 090253Z 29006KT 6SM HZ CLR 26/11 A2971 RMK AO2 SLP061 T02560111 56008=
201507090153 METAR KBFI 090153Z 29007KT 5SM HZ BKN240 28/11 A2972 RMK AO2 SLP063 T02780106=
201507090053 METAR KBFI 090053Z 31007KT 7SM CLR 29/12 A2972 RMK AO2 SLP065 T02890122=
201507082353 METAR KBFI 082353Z 32007KT 280V350 6SM HZ BKN240 30/11 A2974 RMK AO2 SLP070 T03000106 10300 20228 56024=
201507082253 METAR KBFI 082253Z VRB05KT 10SM BKN250 29/13 A2976 RMK AO2 SLP078 T02940128=
201507082153 METAR KBFI 082153Z 34004KT 8SM CLR 29/13 A2978 RMK AO2 SLP085 T02890128=
201507082053 METAR KBFI 082053Z 27006KT 10SM SCT250 28/13 A2981 RMK AO2 SLP094 T02780128 58020=
201507081953 METAR KBFI 081953Z 31003KT 7SM CLR 26/13 A2983 RMK AO2 SLP102 T02610133=
201507081853 METAR KBFI 081853Z 35003KT 10SM FEW200 24/13 A2985 RMK AO2 SLP109 FU ALQDS T02440133=
201507081753 METAR KBFI 081753Z 33004KT 7SM CLR 23/13 A2987 RMK AO2 SLP114 T02280133 10233 20172 58015=
201507081653 METAR KBFI 081653Z VRB03KT 7SM CLR 22/13 A2989 RMK AO2 SLP121 T02170128=
201507081553 METAR KBFI 081553Z 00000KT 9SM CLR 21/13 A2991 RMK AO2 SLP126 FU ALQDS T02060128=
201507081453 METAR KBFI 081453Z 00000KT 9SM CLR 19/13 A2991 RMK AO2 SLP130 T01940128 58000=
201507081353 METAR KBFI 081353Z 00000KT 10SM CLR 18/12 A2992 RMK AO2 SLP131 T01780122=
201507081253 METAR KBFI 081253Z 00000KT 10SM CLR 17/12 A2992 RMK AO2 SLP131 T01720122=
201507081153 METAR KBFI 081153Z 00000KT 10SM CLR 17/12 A2992 RMK AO2 SLP130 T01720122 10200 20172 51002=
201507081053 METAR KBFI 081053Z 00000KT 10SM CLR 18/12 A2992 RMK AO2 SLP130 T01780122=
201507080953 METAR KBFI 080953Z 00000KT 10SM CLR 18/12 A2991 RMK AO2 SLP129 T01830122=
201507080853 METAR KBFI 080853Z 00000KT 10SM CLR 18/12 A2991 RMK AO2 SLP128 T01830122 51001=
201507080753 METAR KBFI 080753Z 36003KT 10SM CLR 19/12 A2991 RMK AO2 SLP127 T01890122 402720156=
201507080653 METAR KBFI 080653Z 33003KT 10SM CLR 19/13 A2991 RMK AO2 SLP130 T01940128=
201507080553 METAR KBFI 080553Z 31004KT 10SM CLR 20/12 A2991 RMK AO2 SLP127 T02000122 10272 20200 51007=
201507080453 METAR KBFI 080453Z 00000KT 10SM BKN240 21/12 A2991 RMK AO2 SLP126 T02060122=
201507080353 METAR KBFI 080353Z 31005KT 10SM BKN260 22/13 A2989 RMK AO2 SLP123 T02170128=
201507080253 METAR KBFI 080253Z 32004KT 10SM OVC240 23/13 A2989 RMK AO2 SLP120 T02280128 55008=
201507080153 METAR KBFI 080153Z 30006KT 10SM CLR 24/13 A2988 RMK AO2 SLP119 T02440128=
201507080053 METAR KBFI 080053Z 30007KT 10SM BKN250 26/13 A2989 RMK AO2 SLP122 T02560128=
201507072353 METAR KBFI 072353Z 33005KT 10SM CLR 27/12 A2991 RMK AO2 SLP128 T02670122 10272 20206 56020=
201507072253 METAR KBFI 072253Z VRB03KT 10SM OVC240 27/12 A2993 RMK AO2 SLP135 T02670117=
201507072153 METAR KBFI 072153Z VRB05KT 10SM CLR 27/12 A2995 RMK AO2 SLP141 T02670117=
201507072053 METAR KBFI 072053Z 00000KT 10SM OVC250 25/12 A2997 RMK AO2 SLP148 T02500117 58022=
201507071953 METAR KBFI 071953Z VRB03KT 10SM CLR 24/12 A3000 RMK AO2 SLP158 T02390122=
201507071853 METAR KBFI 071853Z VRB04KT 10SM CLR 22/12 A3002 RMK AO2 SLP165 T02170122=
201507071753 METAR KBFI 071753Z VRB03KT 10SM CLR 21/12 A3004 RMK AO2 SLP171 T02110122 10211 20161 58009=
201507071653 METAR KBFI 071653Z 19004KT 10SM BKN020 19/12 A3005 RMK AO2 SLP176 T01940117=
201507071553 METAR KBFI 071553Z 00000KT 10SM BKN018 18/12 A3006 RMK AO2 SLP178 T01830117=
201507071509 SPECI KBFI 071509Z 20006KT 10SM BKN018 18/11 A3007 RMK AO2=
201507071453 METAR KBFI 071453Z 20005KT 10SM SCT020 BKN150 17/11 A3006 RMK AO2 SLP180 T01720111 51006=
201507071353 METAR KBFI 071353Z 20006KT 10SM FEW015 SCT150 17/11 A3006 RMK AO2 SLP180 T01670111=
201507071253 METAR KBFI 071253Z 17006KT 10SM SCT020 16/11 A3006 RMK AO2 SLP178 T01610111=
201507071153 METAR KBFI 071153Z 16006KT 10SM CLR 16/11 A3005 RMK AO2 SLP174 T01610111 10211 20156 51008=
201507071053 METAR KBFI 071053Z 15006KT 10SM CLR 16/11 A3004 RMK AO2 SLP173 T01610111=
201507070953 METAR KBFI 070953Z VRB06KT 10SM CLR 17/11 A3004 RMK AO2 SLP171 T01670111=
201507070853 METAR KBFI 070853Z 19005KT 10SM CLR 17/11 A3002 RMK AO2 SLP166 T01720111 53010=
201507070753 METAR KBFI 070753Z 18006KT 10SM CLR 18/12 A3001 RMK AO2 SLP163 T01830117 403110172=
201507070653 METAR KBFI 070653Z 23005KT 10SM CLR 20/12 A3000 RMK AO2 SLP160 T02000117=
201507070553 METAR KBFI 070553Z 00000KT 10SM CLR 21/12 A2999 RMK AO2 SLP156 T02110122 10306 20211 53018=
201507070453 METAR KBFI 070453Z 00000KT 10SM CLR 23/12 A2997 RMK AO2 SLP149 T02330122=
201507070353 METAR KBFI 070353Z 22003KT 10SM OVC200 25/11 A2995 RMK AO2 SLP142 T02500111=
201507070253 METAR KBFI 070253Z 19004KT 10SM BKN250 28/09 A2994 RMK AO2 SLP139 T02830094 56005=
201507070153 METAR KBFI 070153Z 22006KT 10SM BKN240 30/10 A2994 RMK AO2 SLP138 T03000100=
201507070053 METAR KBFI 070053Z 20003KT 10SM BKN240 30/09 A2994 RMK AO2 SLP139 T03000089=
201507062353 METAR KBFI 062353Z VRB03KT 10SM BKN240 30/12 A2996 RMK AO2 SLP144 T03000117 10311 20244 56007=
201507062253 METAR KBFI 062253Z 00000KT 10SM BKN240 29/12 A2996 RMK AO2 SLP146 T02940117=
201507062153 METAR KBFI 062153Z 22008KT 10SM CLR 29/12 A2997 RMK AO2 SLP149 T02890117=
201507062053 METAR KBFI 062053Z VRB06KT 10SM CLR 29/11 A2998 RMK AO2 SLP151 T02890111 58005=
201507061953 METAR KBFI 061953Z 18006KT 10SM SCT250 27/12 A2999 RMK AO2 SLP154 T02720122=
201507061853 METAR KBFI 061853Z VRB03KT 10SM CLR 26/13 A2999 RMK AO2 SLP156 T02610128=
201507061753 METAR KBFI 061753Z VRB03KT 10SM SCT200 24/13 A2999 RMK AO2 SLP156 T02440128 10244 20172 58002=
201507061653 METAR KBFI 061653Z VRB04KT 10SM CLR 23/12 A3000 RMK AO2 SLP160 T02280122=
201507061553 METAR KBFI 061553Z VRB04KT 10SM CLR 21/12 A3000 RMK AO2 SLP159 T02060122=
201507061453 METAR KBFI 061453Z 15006KT 10SM CLR 19/12 A3000 RMK AO2 SLP158 T01940122 53013=
201507061353 METAR KBFI 061353Z 19004KT 10SM CLR 18/12 A2999 RMK AO2 SLP154 T01780122=
201507061300 METAR KBFI NIL=
201507061253 METAR KBFI 061253Z 18004KT 10SM SCT200 17/12 A2997 RMK AO2 SLP148 T01720117=
201507061153 METAR KBFI 061153Z 19006KT 10SM CLR 18/12 A2996 RMK AO2 SLP145 T01830117 10261 20183 51010=
201507061053 METAR KBFI 061053Z 15008KT 10SM CLR 19/11 A2995 RMK AO2 SLP142 T01890111=
201507060953 METAR KBFI 060953Z 16004KT 10SM CLR 19/12 A2994 RMK AO2 SLP138 T01890122=
201507060853 METAR KBFI 060853Z 15004KT 10SM CLR 20/12 A2993 RMK AO2 SLP135 T02000122 53022=
201507060753 METAR KBFI 060753Z 19004KT 10SM CLR 22/13 A2991 RMK AO2 SLP127 T02170128 403280194=
201507060653 METAR KBFI 060653Z 00000KT 10SM CLR 24/09 A2988 RMK AO2 SLP119 T02440089=
201507060553 METAR KBFI 060553Z 32003KT 10SM CLR 26/08 A2986 RMK AO2 SLP113 T02610078 10328 20261 53016=
201507060453 METAR KBFI 060453Z 34003KT 10SM CLR 28/07 A2985 RMK AO2 SLP108 T02780072=
201507060353 METAR KBFI 060353Z 29004KT 10SM CLR 29/07 A2983 RMK AO2 SLP100 T02890067=
201507060253 METAR KBFI 060253Z AUTO 30005KT 10SM CLR 31/06 A2982 RMK AO2 SLP096 T03060061 53002 TSNO=
201507060153 METAR KBFI 060153Z 30006KT 10SM BKN200 31/07 A2981 RMK AO2 SLP094 T03110072=
201507060053 METAR KBFI 060053Z 33006KT 10SM CLR 32/07 A2981 RMK AO2 SLP093 T03220072=
201507052353 METAR KBFI 052353Z 31006KT 10SM CLR 32/08 A2981 RMK AO2 SLP094 T03220078 10328 20267 56007=
201507052253 METAR KBFI 052253Z 32007KT 10SM CLR 32/07 A2981 RMK AO2 SLP095 T03170072=
201507052153 METAR KBFI 052153Z 30009KT 10SM BKN200 31/08 A2982 RMK AO2 SLP098 T03110083=
201507052053 METAR KBFI 052053Z 30008KT 10SM CLR 29/09 A2983 RMK AO2 SLP101 T02940089 57002=
201507051953 METAR KBFI 051953Z 32006KT 10SM CLR 29/08 A2983 RMK AO2 SLP102 T02890083=
201507051853 METAR KBFI 051853Z 30007KT 10SM CLR 28/09 A2983 RMK AO2 SLP102 T02830094=
201507051753 METAR KBFI 051753Z VRB04KT 10SM CLR 27/10 A2984 RMK AO2 SLP103 T02670100 10267 20194 50001=
201507051653 METAR KBFI 051653Z 32004KT 10SM CLR 24/12 A2984 RMK AO2 SLP104 T02390117=
201507051553 METAR KBFI 051553Z 28004KT 8SM CLR 23/12 A2983 RMK AO2 SLP102 T02330122=
201507051453 METAR KBFI 051453Z 00000KT 7SM CLR 22/12 A2983 RMK AO2 SLP102 T02170122 51010=
201507051353 METAR KBFI 051353Z 00000KT 10SM CLR 20/12 A2983 RMK AO2 SLP099 T02000117=
201507051253 METAR KBFI 051253Z 00000KT 7SM CLR 19/12 A2982 RMK AO2 SLP096 T01940117=
201507051153 METAR KBFI 051153Z 00000KT 9SM CLR 20/12 A2980 RMK AO2 SLP092 T02000117 10261 20200 53003=
201507051053 METAR KBFI 051053Z 00000KT 10SM CLR 21/12 A2979 RMK AO2 SLP089 T02060117=
201507050953 METAR KBFI 050953Z 00000KT 10SM CLR 22/11 A2979 RMK AO2 SLP088 T02170106=
201507050853 METAR KBFI 050853Z 33003KT 10SM CLR 23/11 A2979 RMK AO2 SLP088 T02280106 53007=
201507050753 METAR KBFI 050753Z 00000KT 10SM CLR 23/09 A2978 RMK AO2 SLP086 T02280094 403330167=
201507050653 METAR KBFI 050653Z 00000KT 10SM CLR 24/09 A2978 RMK AO2 SLP082 T02440089=
201507050553 METAR KBFI 050553Z 00000KT 10SM CLR 26/08 A2977 RMK AO2 SLP082 T02610078 10333 20261 53004=
201507050453 METAR KBFI 050453Z 30003KT 10SM CLR 27/07 A2977 RMK AO2 SLP080 T02720067=
201507050353 METAR KBFI 050353Z 00000KT 10SM SCT200 29/06 A2975 RMK AO2 SLP076 T02940061=
201507050253 METAR KBFI 050253Z 00000KT 10SM CLR 32/06 A2976 RMK AO2 SLP077 T03170056 55005=
201507050153 METAR KBFI 050153Z 35007KT 320V030 10SM FEW200 33/04 A2976 RMK AO2 SLP076 T03280044=
201507050053 METAR KBFI 050053Z 30008KT 10SM CLR 33/04 A2977 RMK AO2 SLP079 T03280039=
201507042353 METAR KBFI 042353Z 32008KT 280V350 10SM CLR 33/04 A2977 RMK AO2 SLP082 T03330039 10333 20261 58018=
201507042253 METAR KBFI 042253Z 30009KT 10SM CLR 32/02 A2980 RMK AO2 SLP090 T03170022=
201507042153 METAR KBFI 042153Z 30008KT 10SM CLR 32/06 A2981 RMK AO2 SLP095 T03170061=
201507042053 METAR KBFI 042053Z VRB03KT 10SM CLR 31/07 A2983 RMK AO2 SLP100 T03110072 58012=
201507041953 METAR KBFI 041953Z 28004KT 10SM CLR 30/08 A2984 RMK AO2 SLP105 T03000078=
201507041853 METAR KBFI 041853Z 30007KT 10SM CLR 28/08 A2986 RMK AO2 SLP110 T02780083=
201507041753 METAR KBFI 041753Z 30006KT 10SM CLR 26/12 A2986 RMK AO2 SLP113 T02610117 10261 20167 58008=
201507041653 METAR KBFI 041653Z 30003KT 10SM CLR 24/12 A2987 RMK AO2 SLP116 T02440122=
201507041553 METAR KBFI 041553Z 00000KT 10SM CLR 23/13 A2988 RMK AO2 SLP119 T02280128=
201507041453 METAR KBFI 041453Z 00000KT 10SM CLR 21/12 A2989 RMK AO2 SLP121 T02060122 50005=
201507041353 METAR KBFI 041353Z 10004KT 10SM CLR 19/12 A2989 RMK AO2 SLP122 T01890117=
201507041253 METAR KBFI 041253Z 13004KT 10SM CLR 17/12 A2988 RMK AO2 SLP119 T01720117=
201507041153 METAR KBFI 041153Z 17005KT 10SM CLR 18/12 A2988 RMK AO2 SLP116 T01830122 10261 20172 51001=
201507041053 METAR KBFI 041053Z 00000KT 10SM CLR 20/12 A2987 RMK AO2 SLP116 T02000122=
201507040953 METAR KBFI 040953Z 20003KT 10SM CLR 21/12 A2988 RMK AO2 SLP118 T02060122=
201507040853 METAR KBFI 040853Z 00000KT 10SM CLR 22/12 A2987 RMK AO2 SLP115 T02220122 53005=
201507040753 METAR KBFI 040753Z 00000KT 10SM CLR 22/12 A2987 RMK AO2 SLP114 T02220117 403390194=
201507040653 METAR KBFI 040653Z 34004KT 10SM CLR 25/12 A2986 RMK AO2 SLP111 T02500122=
201507040553 METAR KBFI 040553Z VRB03KT 10SM CLR 26/11 A2986 RMK AO2 SLP110 T02610111 10339 20261 53012=
201507040453 METAR KBFI 040453Z AUTO 30003KT 10SM CLR 27/11 A2985 RMK AO2 SLP107 T02720106 TSNO=
201507040353 METAR KBFI 040353Z 32004KT 10SM CLR 29/10 A2983 RMK AO2 SLP100 T02890100=
201507040253 METAR KBFI 040253Z 31005KT 10SM CLR 31/11 A2982 RMK AO2 SLP097 T03060111 56009=
201507040153 METAR KBFI 040153Z 30006KT 10SM CLR 33/11 A2982 RMK AO2 SLP098 T03280111=
201507040053 METAR KBFI 040053Z 30008KT 10SM CLR 33/11 A2983 RMK AO2 SLP101 T03330111=
201507032353 METAR KBFI 032353Z VRB05KT 10SM CLR 33/11 A2985 RMK AO2 SLP107 T03330111 10339 20267 56022=
201507032253 METAR KBFI 032253Z 30006KT 10SM CLR 33/11 A2987 RMK AO2 SLP113 T03330111=
201507032153 METAR KBFI 032153Z VRB03KT 10SM CLR 33/09 A2989 RMK AO2 SLP121 T03280094=
201507032053 METAR KBFI 032053Z 32005KT 10SM CLR 32/11 A2991 RMK AO2 SLP129 T03170106 58011=
201507031953 METAR KBFI 031953Z 32008KT 10SM CLR 31/12 A2993 RMK AO2 SLP133 T03060122=
201507031853 METAR KBFI 031853Z AUTO 30007KT 10SM CLR 29/12 A2994 RMK AO2 SLP138 T02890122 TSNO=
201507031753 METAR KBFI 031753Z AUTO 32005KT 10SM CLR 27/13 A2995 RMK AO2 SLP140 T02670128 10272 20194 58006=
201507031653 METAR KBFI 031653Z 31005KT 10SM CLR 26/12 A2995 RMK AO2 SLP142 T02560122=
201507031553 METAR KBFI 031553Z 32003KT 10SM CLR 24/12 A2996 RMK AO2 SLP145 T02390117=
201507031453 METAR KBFI 031453Z 29003KT 10SM CLR 22/12 A2996 RMK AO2 SLP146 T02220122 51006=
201507031353 METAR KBFI 031353Z 00000KT 10SM CLR 21/12 A2996 RMK AO2 SLP145 T02110122=
201507031253 METAR KBFI 031253Z 00000KT 10SM CLR 20/12 A2996 RMK AO2 SLP143 T02000117=
201507031153 METAR KBFI 031153Z VRB03KT 10SM CLR 20/12 A2995 RMK AO2 SLP140 T02000117 10272 20200 53005=
201507031053 METAR KBFI 031053Z 00000KT 10SM CLR 21/12 A2994 RMK AO2 SLP137 T02110122=
201507030953 METAR KBFI 030953Z 00000KT 9SM CLR 22/12 A2994 RMK AO2 SLP137 T02220122=
201507030853 METAR KBFI 030853Z 27003KT 10SM CLR 23/12 A2993 RMK AO2 SLP135 T02280122 50002=
201507030753 METAR KBFI 030753Z 30004KT 10SM CLR 24/12 A2994 RMK AO2 SLP136 T02390122 403330194=
201507030653 METAR KBFI 030653Z 00000KT 10SM CLR 25/12 A2993 RMK AO2 SLP135 T02500122=
201507030553 METAR KBFI 030553Z 00000KT 10SM CLR 27/11 A2992 RMK AO2 SLP133 T02720111 10333 20272 50004=
201507030453 METAR KBFI 030453Z 00000KT 10SM CLR 29/10 A2993 RMK AO2 SLP133 T02940100=
201507030353 METAR KBFI 030353Z VRB05KT 10SM SCT250 31/11 A2992 RMK AO2 SLP130 T03060111=
201507030253 METAR KBFI 030253Z 32007KT 10SM SCT250 32/11 A2991 RMK AO2 SLP129 T03170111 56006=
201507030153 METAR KBFI 030153Z 32006KT 10SM CLR 33/12 A2992 RMK AO2 SLP130 T03280122=
201507030053 METAR KBFI 030053Z 31007KT 10SM FEW250 33/12 A2992 RMK AO2 SLP131 T03330117=
201507022353 METAR KBFI 022353Z 31007G14KT 10SM FEW250 33/11 A2993 RMK AO2 SLP136 T03330111 10333 20272 58021=
201507022253 METAR KBFI 022253Z 30009KT 10SM CLR 33/11 A2996 RMK AO2 SLP144 T03280111=
201507022153 METAR KBFI 022153Z 31007KT 10SM CLR 32/12 A2997 RMK AO2 SLP149 T03220117=
201507022053 METAR KBFI 022053Z 31008KT 10SM CLR 32/12 A2999 RMK AO2 SLP156 T03220117 58006=
201507021953 METAR KBFI 021953Z 33007KT 10SM CLR 31/12 A3000 RMK AO2 SLP159 T03060117=
201507021853 METAR KBFI 021853Z 33007KT 10SM CLR 28/12 A3001 RMK AO2 SLP161 T02830117=
201507021753 METAR KBFI 021753Z 33007KT 10SM CLR 27/12 A3001 RMK AO2 SLP163 T02720117 10272 20194 58003=
201507021653 METAR KBFI 021653Z 31004KT 10SM CLR 26/12 A3002 RMK AO2 SLP165 T02610122=
201507021553 METAR KBFI 021553Z 33003KT 10SM CLR 24/12 A3002 RMK AO2 SLP166 T02440122=
201507021453 METAR KBFI 021453Z VRB04KT 10SM CLR 23/12 A3002 RMK AO2 SLP166 T02280122 51012=
201507021353 METAR KBFI 021353Z 00000KT 10SM CLR 21/12 A3001 RMK AO2 SLP162 T02110122=
201507021253 METAR KBFI 021253Z 31003KT 10SM CLR 20/12 A3000 RMK AO2 SLP159 T02000122=
201507021153 METAR KBFI 021153Z 00000KT 10SM CLR 20/12 A2999 RMK AO2 SLP154 T02000117 10261 20200 52007=
201507021053 METAR KBFI 021053Z 35003KT 10SM CLR 21/12 A2998 RMK AO2 SLP152 T02110117=
201507020953 METAR KBFI 020953Z VRB03KT 10SM CLR 22/12 A2997 RMK AO2 SLP149 T02220122=
201507020853 METAR KBFI 020853Z 00000KT 10SM CLR 23/12 A2997 RMK AO2 SLP147 T02330117 51001=
201507020753 METAR KBFI 020753Z AUTO 00000KT 10SM CLR 24/12 A2996 RMK AO2 SLP146 T02390122 403170183 TSNO=
201507020653 METAR KBFI 020653Z AUTO 00000KT 10SM CLR 26/12 A2996 RMK AO2 SLP147 T02560122 TSNO=
201507020553 METAR KBFI 020553Z VRB04KT 10SM CLR 26/12 A2996 RMK AO2 SLP145 T02610122 10317 20261 53010=
201507020453 METAR KBFI 020453Z 31004KT 10SM CLR 26/12 A2995 RMK AO2 SLP141 T02610122=
201507020353 METAR KBFI 020353Z 30004KT 10SM CLR 28/13 A2993 RMK AO2 SLP136 T02780128=
201507020253 METAR KBFI 020253Z 31006KT 10SM CLR 29/13 A2993 RMK AO2 SLP135 T02940128 55003=
201507020153 METAR KBFI 020153Z 32007KT 10SM CLR 30/13 A2993 RMK AO2 SLP134 T03000133=
201507020053 METAR KBFI 020053Z 30007KT 10SM CLR 30/13 A2993 RMK AO2 SLP136 T03000128=
201507012353 METAR KBFI 012353Z 30008KT 10SM CLR 31/12 A2994 RMK AO2 SLP138 T03110122 10317 20244 57016=
201507012253 METAR KBFI 012253Z 30010G17KT 10SM CLR 31/12 A2996 RMK AO2 SLP144 T03060117=
201507012153 METAR KBFI 012153Z 30008KT 260V350 10SM CLR 27/12 A2997 RMK AO2 SLP148 T02720122=
201507012053 METAR KBFI 012053Z 31009KT 10SM CLR 29/12 A2999 RMK AO2 SLP155 T02890122 58013=
201507011953 METAR KBFI 011953Z VRB06KT 10SM CLR 28/12 A3000 RMK AO2 SLP160 T02780122=
201507011853 METAR KBFI 011853Z 31006KT 10SM CLR 26/13 A3002 RMK AO2 SLP164 T02610128=
201507011753 METAR KBFI 011753Z 30006KT 10SM CLR 24/13 A3003 RMK AO2 SLP167 T02440128 10250 20183 56010=
201507011653 METAR KBFI 011653Z 30006KT 10SM CLR 24/12 A3003 RMK AO2 SLP170 T02440122=
201507011553 METAR KBFI 011553Z 05006KT 10SM CLR 24/12 A3004 RMK AO2 SLP173 T02390122=
201507011453 METAR KBFI 011453Z 04005KT 10SM CLR 22/12 A3006 RMK AO2 SLP177 T02220122 51004=
201507011353 METAR KBFI 011353Z 00000KT 10SM CLR 19/12 A3005 RMK AO2 SLP177 T01940122=
201507011253 METAR KBFI 011253Z 32003KT 10SM CLR 18/12 A3005 RMK AO2 SLP176 T01830122=
201507011153 METAR KBFI 011153Z 31003KT 10SM CLR 18/12 A3004 RMK AO2 SLP173 T01830122 10233 20183 55001=
201507011053 METAR KBFI 011053Z 00000KT 10SM CLR 20/12 A3004 RMK AO2 SLP173 T02000122=
201507010953 METAR KBFI 010953Z 00000KT 10SM CLR 21/11 A3004 RMK AO2 SLP173 T02060111=
201507010853 METAR KBFI 010853Z 00000KT 10SM CLR 22/11 A3005 RMK AO2 SLP174 T02170106 58001=
201507010753 METAR KBFI 010753Z 00000KT 10SM CLR 22/10 A3005 RMK AO2 SLP176 T02220100 403110167=
201507010653 METAR KBFI 010653Z VRB03KT 10SM CLR 23/09 A3005 RMK AO2 SLP177 T02280089=
201507010553 METAR KBFI 010553Z 04004KT 10SM CLR 23/10 A3005 RMK AO2 SLP175 T02330100 10311 20233 53016=
201507010500 METAR KBFI NIL=
201507010353 METAR KBFI 010353Z VRB04KT 10SM CLR 28/11 A3001 RMK AO2 SLP160 T02830111=
201507010253 METAR KBFI 010253Z 34005KT 10SM CLR 29/10 A3000 RMK AO2 SLP159 T02940100 55008=
201507010153 METAR KBFI 010153Z VRB05KT 10SM FEW080 31/12 A3000 RMK AO2 SLP159 T03060122=
201507010053 METAR KBFI 010053Z 30005KT 10SM CLR 31/13 A3001 RMK AO2 SLP161 T03060133=

# No short TAF reports from KBFI in databse.

###################################
#  large TAF from KBFI
###################################
201507312320 TAF KBFI 312320Z 0100/0124 31005KT P6SM SKC FM010300 00000KT P6SM
                       SKC FM011900 30005KT P6SM SKC=
201507311720 TAF KBFI 311720Z 3118/0118 33006KT P6SM SKC FM010300 00000KT P6SM
                       SKC=
201507311121 TAF KBFI 311121Z 3112/0112 00000KT P6SM SKC FM311800 30006KT P6SM
                       SKC FM010300 00000KT P6SM SKC=
201507310521 TAF KBFI 310521Z 3106/0106 00000KT P6SM SKC FM311800 30006KT P6SM
                       SKC FM010300 00000KT P6SM SKC=
201507302327 TAF KBFI 302327Z 3100/3124 31008KT P6SM SKC FM310300 VRB03KT P6SM
                       SKC FM311800 30006KT P6SM SKC=
201507301740 TAF KBFI 301740Z 3018/3118 31008KT P6SM SKC FM310300 VRB03KT P6SM
                       SKC=
201507301122 TAF KBFI 301122Z 3012/3112 00000KT P6SM SKC FM301800 31008KT P6SM
                       SKC FM310400 30004KT P6SM SKC=
201507300522 TAF KBFI 300522Z 3006/3106 00000KT P6SM SKC FM301800 31008KT P6SM
                       SKC FM310400 30004KT P6SM SKC=
201507292336 TAF KBFI 292336Z 3000/3024 32009KT P6SM FEW250 FM300300 VRB03KT
                       P6SM SKC FM301800 31008KT P6SM SKC=
201507291723 TAF KBFI 291723Z 2918/3018 32009KT P6SM FEW250 FM300300 VRB03KT
                       P6SM SKC=
201507291126 TAF KBFI 291126Z 2912/3012 VRB03KT P6SM SKC FM291800 32008KT P6SM
                       SKC FM300600 VRB03KT P6SM SKC=
201507290536 TAF KBFI 290536Z 2906/3006 VRB03KT P6SM SCT250 FM291800 32008KT
                       P6SM SCT250=
201507282346 TAF KBFI 282346Z 2900/2924 30008KT P6SM SCT250 FM290300 VRB03KT
                       P6SM SCT250 FM291800 32008KT P6SM SCT250=
201507281742 TAF KBFI 281742Z 2818/2918 31006KT P6SM SCT250 FM290300 VRB03KT
                       P6SM SKC=
201507281128 TAF KBFI 281128Z 2812/2912 VRB03KT P6SM SCT250 FM281800 32006KT
                       P6SM SCT250 FM290600 VRB03KT P6SM SCT250=
201507280532 TAF KBFI 280532Z 2806/2906 VRB03KT P6SM BKN060 FM280900 VRB03KT
                       P6SM FEW070 FM281800 32006KT P6SM SCT250=
201507272330 TAF KBFI 272330Z 2800/2824 31005KT P6SM FEW045 BKN070 FM280400
                       VRB03KT P6SM FEW070 FM281800 31005KT P6SM
                       SCT250=
201507272111 TAF AMD KBFI 272111Z 2721/2818 VRB03KT P6SM SCT040 FM280000 31005KT
                       P6SM BKN070 BKN250 FM280900 VRB03KT P6SM
                       FEW070 BKN250=
201507271736 TAF KBFI 271736Z 2718/2818 VRB03KT P6SM SCT020 BKN035
                      TEMPO 2718/2719 BKN020 BKN035 FM271900 22004KT
                       P6SM FEW028 BKN040 FM272100 28005KT P6SM
                       BKN050 BKN250 FM280000 31005KT P6SM BKN070
                       BKN250 FM280900 VRB03KT P6SM FEW070 BKN250=
201507271422 TAF AMD KBFI 271422Z 2714/2812 16004KT P6SM VCFG BKN008 BKN070
                       FM271700 16005KT P6SM BKN015 BKN050 FM271800
                       18006KT P6SM SCT035 BKN050 FM272200 25006KT
                       P6SM FEW040 BKN070 FM280100 30005KT P6SM
                       SCT070 FM280300 00000KT P6SM SCT070 FM281100
                       00000KT P6SM SCT040=
201507271312 TAF AMD KBFI 271312Z 2713/2812 14004KT P6SM SCT015 BKN025 FM271700
                       16005KT P6SM BKN035 BKN050 FM271800 18006KT
                       P6SM SCT035 BKN050 FM272200 25006KT P6SM
                       FEW040 BKN070 FM280100 30005KT P6SM SCT070
                       FM280300 00000KT P6SM SCT070 FM281100 00000KT
                       P6SM SCT040=
201507271120 TAF KBFI 271120Z 2712/2812 14004KT P6SM BKN035 FM271700 16005KT
                       P6SM BKN035 BKN050 FM271800 18006KT P6SM
                       SCT035 BKN050 FM272200 25006KT P6SM FEW040
                       BKN070 FM280100 30005KT P6SM SCT070 FM280300
                       00000KT P6SM SCT070 FM281100 00000KT P6SM
                       SCT040=
201507270520 TAF KBFI 270520Z 2706/2806 VRB03KT P6SM SCT030 BKN060 FM270900
                       00000KT P6SM BKN035 BKN060 FM271200 VRB03KT
                       P6SM OVC025 FM271700 16005KT P6SM BKN030
                       BKN050 FM271800 18006KT P6SM SCT030 BKN050
                       FM272200 25007KT P6SM FEW035 BKN070 FM280100
                       03004KT P6SM SCT070 FM280300 00000KT P6SM
                       SCT070=
201507262320 TAF KBFI 262320Z 2700/2724 29005KT P6SM -SHRA FEW040 BKN070
                      TEMPO 2700/2702 -TSRA BKN035CB OVC070 FM270200
                       36005KT P6SM SCT030 BKN060 FM270800 VRB03KT
                       P6SM BKN030 OVC060 FM271200 14004KT P6SM
                       OVC020 FM271800 19005KT P6SM BKN030 OVC060
                       FM272100 22005KT P6SM SCT040 BKN090=
201507261726 TAF KBFI 261726Z 2618/2718 21006KT P6SM -SHRA BKN030 OVC050
                      TEMPO 2621/2701 -TSRA OVC030CB FM270100 36005KT
                       P6SM SCT030 BKN060 FM270800 VRB03KT P6SM
                       BKN030 OVC060 FM271200 14004KT P6SM OVC020=
201507261120 TAF KBFI 261120Z 2612/2712 VRB04KT P6SM VCSH SCT025 BKN035 OVC050
                       TEMPO 2612/2615 BKN025 OVC035 FM261900 16005KT
                       P6SM -SHRA BKN035 OVC060 FM262000 18006KT
                       P6SM -SHRA VCTS OVC035CB FM270100 36005KT
                       P6SM BKN035 FM270400 VRB03KT P6SM BKN030=
201507260903 TAF AMD KBFI 260903Z 2609/2706 VRB04KT P6SM BKN035 OVC080 FM261200
                       VRB04KT P6SM OVC028 FM261900 16005KT P6SM
                       -SHRA BKN035 OVC060 FM262000 18006KT P6SM
                       -SHRA VCTS OVC035CB FM270100 VRB04KT P6SM
                       BKN035=
201507260520 TAF KBFI 260520Z 2606/2706 VRB04KT P6SM SCT025 OVC035 FM260900
                       VRB04KT P6SM BKN025 OVC035 FM261200 VRB04KT
                       P6SM OVC025 FM261900 16005KT P6SM -SHRA
                       BKN035 OVC060 FM262000 18006KT P6SM -SHRA
                       VCTS OVC035CB FM270200 VRB04KT P6SM BKN035=
201507252325 TAF KBFI 252325Z 2600/2624 03006KT P6SM FEW030 BKN050 OVC080 FM260600
                       22004KT P6SM SCT025 OVC050 FM261200 21008KT
                       P6SM OVC023 FM261900 24005KT P6SM -SHRA
                       BKN035 OVC060
                      PROB30 2620/2624 -TSRA OVC035CB=
201507252137 TAF AMD KBFI 252137Z 2522/2618 03006KT P6SM FEW030 BKN060 OVC080
                       FM260000 VRB06KT P6SM FEW030 BKN080 FM260500
                       18005KT P6SM SCT025 OVC040 FM261200 16004KT
                       P6SM OVC023=
201507251720 TAF KBFI 251720Z 2518/2618 VRB05KT P6SM BKN015 OVC025 FM252000
                       21006KT P6SM SCT025 OVC060
                      TEMPO 2520/2522 BKN025 OVC060 FM260500 18005KT
                       P6SM SCT025 OVC040 FM261200 16004KT P6SM
                       OVC023=
201507251503 TAF AMD KBFI 251503Z 2515/2612 VRB04KT P6SM SCT019 OVC080
                      TEMPO 2515/2518 BKN019 OVC080 FM251800 19008KT
                       P6SM SCT030 BKN070
                      TEMPO 2518/2520 BKN030 OVC070 FM252000 20008KT
                       P6SM BKN050 FM260500 20005KT P6SM SCT025
                       OVC040=
201507251120 TAF KBFI 251120Z 2512/2612 VRB04KT P6SM VCSH SCT025 OVC050
                      TEMPO 2512/2515 6SM -RA BR BKN018 OVC025
                       FM251700 19008KT P6SM SCT030 BKN050 FM252000
                       20008KT P6SM BKN050 FM260500 20005KT P6SM
                       SCT025 OVC040=
201507250520 TAF KBFI 250520Z 2506/2606 23007KT P6SM FEW030 BKN040 OVC060
                      TEMPO 2508/2510 -RA OVC028 FM251000 18005KT
                       P6SM VCSH OVC025
                      TEMPO 2510/2512 -RA FM251700 19008KT P6SM
                       SCT030 BKN050 FM252000 20008KT P6SM BKN050
                       FM260500 20005KT P6SM SCT025 OVC040=
201507250401 TAF AMD KBFI 250401Z 2504/2524 23007KT P6SM BKN040 OVC060
                      TEMPO 2505/2509 -RA OVC030 FM250900 18006KT
                       P6SM VCSH OVC028 FM251700 18005KT P6SM SCT035
                       BKN050 FM252200 22008KT P6SM SCT050 BKN100=
201507242320 TAF KBFI 242320Z 2500/2524 20010KT P6SM BKN060 BKN090 FM250300
                       20008KT P6SM -RA BKN030 OVC050 FM250800
                       18006KT P6SM OVC025 FM251700 18005KT P6SM
                       SCT035 BKN050 FM252200 22008KT P6SM SCT050
                       BKN100=
201507241720 TAF KBFI 241720Z 2418/2518 19005KT P6SM SCT025 OVC070
                      TEMPO 2418/2422 BKN025 OVC070 FM250300 20008KT
                       P6SM -RA BKN035 OVC050 FM250500 21006KT
                       P6SM -RA OVC030 FM251700 18005KT P6SM SCT035
                       BKN050=
201507241121 TAF KBFI 241121Z 2412/2512 16004KT P6SM FEW020 BKN050 OVC250
                      TEMPO 2413/2416 BKN020 FM241700 18010KT P6SM
                       SCT035 BKN050 OVC100 FM250000 20008KT P6SM
                       -RA BKN035 OVC050 FM250300 21006KT P6SM
                       -RA OVC030 FM250800 18005KT P6SM VCSH BKN035
                       BKN050=
201507240910 TAF AMD KBFI 240910Z 2409/2506 VRB04KT P6SM SCT070 BKN250 FM241200
                       16004KT P6SM SCT020 BKN050 OVC250 FM241700
                       18010KT P6SM SCT035 BKN050 OVC100 FM250000
                       20008KT P6SM -RA BKN035 OVC050 FM250500
                       21006KT P6SM -RA OVC030=
201507240520 TAF KBFI 240520Z 2406/2506 VRB04KT P6SM SCT080 BKN250 FM241100
                       16004KT P6SM SCT020 BKN050 OVC250 FM241300
                       17005KT P6SM OVC020 FM241700 18010KT P6SM
                       SCT035 BKN050 OVC100 FM250000 20008KT P6SM
                       -RA BKN035 OVC050 FM250500 21006KT P6SM
                       -RA OVC030=
201507232342 TAF KBFI 232342Z 2400/2424 29005KT P6SM SCT050 SCT100 BKN250 FM240300
                       VRB03KT P6SM SCT100 BKN250 FM240900 17005KT
                       P6SM BKN100 OVC250 FM241200 17005KT P6SM
                       OVC025 FM241800 20009KT P6SM SCT035 BKN050
                       OVC100=
201507232032 TAF AMD KBFI 232032Z 2321/2418 27005KT P6SM FEW035 SCT060 FM240300
                       VRB03KT P6SM FEW120 FM240900 17005KT P6SM
                       SCT250 FM241200 17005KT P6SM OVC025=
201507231737 TAF KBFI 231737Z 2318/2418 19005KT P6SM SCT028 SCT060 BKN120 FM232000
                       27005KT P6SM SCT060 BKN120 FM240300 VRB03KT
                       P6SM FEW120 FM240900 17005KT P6SM SCT250
                       FM241200 17005KT P6SM OVC025=
201507231620 TAF AMD KBFI 231620Z 2316/2412 18006KT P6SM FEW020 OVC080 FM231800
                       24007KT P6SM SCT050 SCT200 FM232100 28008KT
                       P6SM SCT050 SCT200 FM240400 VRB04KT P6SM
                       SCT050 SCT200=
201507231127 TAF KBFI 231127Z 2312/2412 VRB03KT P6SM BKN045 BKN150 FM231300
                       18006KT P6SM BKN040 FM231800 24007KT P6SM
                       SCT050 SCT200 FM232100 28008KT P6SM SCT050
                       SCT200 FM240400 VRB04KT P6SM SCT050 SCT200=
201507230908 TAF AMD KBFI 230908Z 2309/2406 VRB04KT P6SM BKN150 FM231300 18006KT
                       P6SM BKN040 FM231800 24007KT P6SM SCT050
                       SCT200 FM232100 28008KT P6SM SCT050 SCT200
                       FM240400 VRB04KT P6SM SCT050 SCT200=
201507230520 TAF KBFI 230520Z 2306/2406 VRB04KT P6SM SCT050 BKN120 OVC250 FM230800
                       VRB03KT P6SM SCT020 BKN045 FM231200 VRB03KT
                       P6SM BKN025 BKN040 FM231800 25005KT P6SM
                       SCT025 BKN050 FM232100 28007KT P6SM SCT050
                       SCT200 FM240400 VRB04KT P6SM SCT050 BKN200=
201507222323 TAF KBFI 222323Z 2300/2324 VRB03KT P6SM SCT035 SCT130 FM230100
                       32006KT P6SM SCT045 BKN150 FM230800 VRB03KT
                       P6SM SCT025 BKN050 FM231300 20005KT P6SM
                       BKN020 OVC040 FM232000 24006KT P6SM SCT025
                       BKN060=
201507221731 TAF KBFI 221731Z 2218/2318 14005KT P6SM SCT029 BKN050 BKN200
                      TEMPO 2218/2222 BKN030 BKN050 OVC150 FM222200
                       21006KT P6SM SCT040 SCT150 FM230100 32006KT
                       P6SM SCT045 BKN150 FM230800 VRB03KT P6SM
                       SCT025 BKN050 FM231300 20005KT P6SM BKN020
                       OVC040=
201507221330 TAF AMD KBFI 221330Z 2214/2312 19004KT P6SM BKN035 FM221600 20007KT
                       P6SM SCT025 BKN045 FM222200 21006KT P6SM
                       SCT045 SCT120 FM230000 31006KT P6SM SCT045
                       BKN120 FM230900 VRB03KT P6SM SCT020 BKN040=
201507221120 TAF KBFI 221120Z 2212/2312 16006KT P6SM BKN020 OVC035
                      TEMPO 2212/2216 SCT020 BKN035 FM221600 20007KT
                       P6SM SCT025 BKN045 FM222200 21006KT P6SM
                       SCT045 SCT120 FM230000 31006KT P6SM SCT045
                       BKN120 FM230900 VRB03KT P6SM SCT020 BKN040=
201507220532 TAF KBFI 220532Z 2206/2306 VRB03KT P6SM SCT045 FM221000 17006KT
                       P6SM SCT020 BKN035 FM221200 16006KT P6SM
                       BKN020 OVC035 FM221700 20007KT P6SM SCT025
                       BKN045 FM222200 21006KT P6SM SCT045 FM230000
                       31006KT P6SM SCT045=
201507212336 TAF KBFI 212336Z 2200/2224 34005KT P6SM BKN060 FM220300 32005KT
                       P6SM SCT020 BKN035 FM220600 03005KT P6SM
                       BKN020 OVC035 FM221000 17006KT P6SM OVC020
                       FM221700 20007KT P6SM OVC050=
201507211730 TAF KBFI 211730Z 2118/2218 00000KT P6SM SCT022 BKN050
                      TEMPO 2118/2121 BKN022 OVC045 FM212100 22006KT
                       P6SM SCT025 BKN045 FM220100 30006KT P6SM
                       SCT030 SCT060 FM220900 VRB03KT P6SM OVC022
                       FM221700 20006KT P6SM SCT030 BKN050=
201507211625 TAF AMD KBFI 211625Z 2116/2212 00000KT P6SM FEW021 BKN035 OVC050
                       TEMPO 2116/2120 BKN022 OVC040 FM212100 22006KT
                       P6SM SCT030 BKN040 FM220000 30006KT P6SM
                       SCT030 BKN050 FM220900 VRB03KT P6SM OVC022=
201507211303 TAF AMD KBFI 211303Z 2113/2212 00000KT P6SM RA BKN018 OVC023
                      TEMPO 2113/2117 5SM -RA FM212100 22006KT
                       P6SM SCT030 BKN040 FM220000 30006KT P6SM
                       SCT030 BKN040 FM220900 VRB03KT P6SM OVC022=
201507211120 TAF KBFI 211120Z 2112/2212 18006KT P6SM BKN018 OVC030
                      TEMPO 2112/2116 SCT020 OVC035 FM212100 22006KT
                       P6SM SCT030 BKN040 FM220000 30006KT P6SM
                       SCT030 BKN040 FM220900 VRB03KT P6SM OVC022=
201507210708 TAF AMD KBFI 210708Z 2107/2206 VRB03KT P6SM SCT018 OVC035 FM211000
                       18006KT P6SM OVC018 FM211800 20006KT P6SM
                       OVC025 FM212100 22006KT P6SM SCT030 BKN040
                       FM220000 30006KT P6SM SCT030 BKN040=
201507210520 TAF KBFI 210520Z 2106/2206 VRB03KT P6SM SCT018 FM211000 18006KT
                       P6SM OVC018 FM211800 20006KT P6SM OVC025
                       FM212100 22006KT P6SM SCT030 BKN040 FM220000
                       30006KT P6SM SCT030 BKN040=
201507202332 TAF KBFI 202332Z 2100/2124 29006KT P6SM FEW050 FM210400 VRB04KT
                       P6SM FEW050 FM210800 20008KT P6SM OVC021
                       FM212100 24006KT P6SM SCT030 BKN045=
201507202002 TAF AMD KBFI 202002Z 2020/2118 21008G18KT P6SM SCT045 FM202200
                       23010KT P6SM FEW050 SCT250 FM210400 20008KT
                       P6SM BKN035 FM210800 17006KT P6SM OVC020=
201507201729 TAF KBFI 201729Z 2018/2118 19007KT P6SM OVC027 FM202000 18010KT
                       P6SM BKN035 FM202200 20010KT P6SM FEW040
                       SCT250 FM210400 20008KT P6SM BKN035 FM210800
                       17006KT P6SM OVC020=
201507201120 TAF KBFI 201120Z 2012/2112 17008G18KT P6SM OVC016 FM202000 18010KT
                       P6SM BKN025 FM202200 20010KT P6SM SCT025
                       SCT250 FM210400 20008KT P6SM BKN025 FM210600
                       17006KT P6SM OVC020=
201507201008 TAF AMD KBFI 201008Z 2010/2106 17008KT P6SM OVC013 FM201500 19010KT
                       P6SM OVC018 FM202000 18010KT P6SM BKN025
                       FM202200 20010KT P6SM SCT025 SCT250 FM210400
                       20008KT P6SM BKN025=
201507200520 TAF KBFI 200520Z 2006/2106 18010KT P6SM SCT150 FM201200 17008KT
                       P6SM OVC012 FM201500 19010KT P6SM OVC018
                       FM202000 18010KT P6SM BKN025 FM202200 20010KT
                       P6SM SCT025 SCT250 FM210400 20008KT P6SM
                       BKN025=
201507192320 TAF KBFI 192320Z 2000/2024 22008KT P6SM SKC FM200500 18007KT P6SM
                       SKC FM201200 17007KT P6SM OVC012 FM201700
                       19010KT P6SM OVC022 FM202100 20010KT P6SM
                       SCT250=
201507191727 TAF KBFI 191727Z 1918/2018 VRB03KT P6SM SKC FM192100 25006KT P6SM
                       SKC FM192300 24009KT P6SM SKC FM200400 17007KT
                       P6SM SKC FM201200 17007KT P6SM OVC012=
201507191423 TAF KBFI 191423Z 1912/2012 VRB03KT P6SM SKC FM192100 20006KT P6SM
                       SCT250 FM200600 17006KT P6SM BKN250 FM201100
                       17007KT P6SM OVC012=
201507190523 TAF KBFI 190523Z 1906/2006 VRB03KT P6SM SKC FM192100 24006KT P6SM
                       SCT250=
201507182320 TAF KBFI 182320Z 1900/1924 32008KT P6SM SKC FM190400 00000KT P6SM
                       SKC FM191500 VRB03KT P6SM SCT250 FM191900
                       24007KT P6SM SCT250=
201507181724 TAF KBFI 181724Z 1818/1918 33006KT P6SM SCT250 FM190400 VRB03KT
                       P6SM SKC FM191500 08004KT P6SM SCT250=
201507181120 TAF KBFI 181120Z 1812/1912 VRB03KT P6SM SCT250 FM181800 33008KT
                       P6SM SCT250 FM190400 VRB03KT P6SM SKC=
201507180520 TAF KBFI 180520Z 1806/1906 VRB03KT P6SM BKN250 FM181800 33008KT
                       P6SM SCT250 FM190400 VRB03KT P6SM SKC=
201507172325 TAF KBFI 172325Z 1800/1824 29010G15KT P6SM FEW200 FM180200 33004KT
                       P6SM SKC FM180600 00000KT P6SM SKC FM181800
                       33006KT P6SM SKC=
201507172106 TAF AMD KBFI 172106Z 1721/1818 32010G14KT P6SM SKC FM180200 33004KT
                       P6SM SKC FM180600 00000KT P6SM SKC=
201507171721 TAF KBFI 171721Z 1718/1818 VRB04KT P6SM SCT250 FM172200 32010G14KT
                       P6SM SKC FM180200 33004KT P6SM SKC FM180600
                       00000KT P6SM SKC=
201507171120 TAF KBFI 171120Z 1712/1812 00000KT P6SM SKC FM171800 31006KT P6SM
                       SKC FM172200 32010G15KT P6SM SKC FM180200
                       33004KT P6SM SKC=
201507170520 TAF KBFI 170520Z 1706/1806 VRB03KT P6SM SCT250 FM171800 31006KT
                       P6SM SKC FM172200 32010G15KT P6SM SKC FM180200
                       33004KT P6SM SKC=
201507162320 TAF KBFI 162320Z 1700/1724 30006KT P6SM SCT050 SCT250 FM170600
                       VRB04KT P6SM SCT250 FM171800 31006KT P6SM
                       SKC=
201507161723 TAF KBFI 161723Z 1618/1718 VRB04KT P6SM BKN040 FM162300 VRB04KT
                       P6SM SCT050 FM170600 VRB04KT P6SM SKC=
201507161120 TAF KBFI 161120Z 1612/1712 00000KT P6SM BKN035 FM161800 20006KT
                       P6SM SCT035 BKN050 FM162200 29006KT P6SM
                       SCT050 FM170000 31006KT P6SM SCT250 FM170400
                       00000KT P6SM SKC=
201507160901 TAF AMD KBFI 160901Z 1609/1706 06006KT P6SM OVC040 FM161100 16006KT
                       P6SM SCT025 OVC040
                      TEMPO 1613/1616 BKN025 OVC040 FM161800 20006KT
                       P6SM SCT030 BKN050 FM162200 29006KT P6SM
                       SCT050 FM170000 31006KT P6SM SCT250=
201507160520 TAF KBFI 160520Z 1606/1706 VRB03KT P6SM OVC045 FM161100 16006KT
                       P6SM BKN025 OVC045 FM161800 20006KT P6SM
                       SCT030 BKN050 FM162200 29006KT P6SM SCT050
                       FM170000 31006KT P6SM SCT250=
201507152320 TAF KBFI 152320Z 1600/1624 VRB04KT P6SM SCT040 BKN200 FM160500
                       VRB04KT P6SM BKN040 BKN150 FM161100 16006KT
                       P6SM BKN025 OVC050 FM161800 23006KT P6SM
                       SCT030 BKN050=
201507151720 TAF KBFI 151720Z 1518/1618 VRB04KT P6SM FEW030 BKN250 FM152100
                       32007KT P6SM SCT040 BKN200 FM160300 VRB04KT
                       P6SM BKN040 BKN150 FM161000 16006KT P6SM
                       BKN025 OVC050 FM161700 23006KT P6SM SCT030
                       BKN050=
201507151120 TAF KBFI 151120Z 1512/1612 00000KT P6SM SCT250 FM151900 33008KT
                       P6SM SCT050 SCT250 FM160400 VRB03KT P6SM
                       BKN050 BKN250 FM161100 16005KT P6SM BKN025
                       OVC050=
201507150524 TAF KBFI 150524Z 1506/1606 VRB03KT P6SM SCT250 FM151900 33008KT
                       P6SM SCT050 SCT250 FM160400 VRB03KT P6SM
                       SCT050 SCT250=
201507142321 TAF KBFI 142321Z 1500/1524 VRB05KT P6SM SKC FM151000 VRB04KT P6SM
                       SCT015 SCT050 FM151900 33006KT P6SM SCT050=
201507141720 TAF KBFI 141720Z 1418/1518 VRB04KT P6SM SCT250 FM142100 32007KT
                       P6SM SCT250 FM151000 VRB04KT P6SM SCT015
                       SCT050=
201507141129 TAF KBFI 141129Z 1412/1512 19004KT P6SM BKN060 BKN250 FM141900
                       32007KT P6SM SCT045 SCT250 FM150400 VRB04KT
                       P6SM SCT045=
201507140522 TAF KBFI 140522Z 1406/1506 VRB04KT P6SM SCT100 SCT250 FM141200
                       19004KT P6SM SCT040 SCT100 FM141900 32007KT
                       P6SM SCT045 SCT100 FM150400 VRB04KT P6SM
                       SCT045=
201507132322 TAF KBFI 132322Z 1400/1424 VRB06KT P6SM FEW035 SCT260 FM140200
                       30005KT P6SM SCT060 BKN250 FM141200 19004KT
                       P6SM SCT030 BKN050 FM141900 32005KT P6SM
                       SCT050 SCT100=
201507131722 TAF KBFI 131722Z 1318/1418 18004KT P6SM SCT016 OVC045
                      TEMPO 1318/1321 BKN020 OVC045 FM132100 24006KT
                       P6SM BKN060 BKN120 FM140200 30005KT P6SM
                       SCT060 BKN120 FM141200 19004KT P6SM SCT030
                       BKN050=
201507131336 TAF AMD KBFI 131336Z 1314/1412 17004KT P6SM SCT020 BKN050
                      TEMPO 1314/1317 BKN020 OVC050 FM131900 20004KT
                       P6SM BKN050 FM132100 27006KT P6SM SCT060
                       BKN120 FM140300 30005KT P6SM FEW060 BKN120
                       FM140600 VRB03KT P6SM BKN060=
201507131219 TAF KBFI 131219Z 1312/1412 17004KT P6SM SCT025 OVC050
                      TEMPO 1312/1316 BKN025 OVC050 FM131900 20004KT
                       P6SM BKN050 FM132100 27006KT P6SM SCT060
                       BKN120 FM140300 30005KT P6SM FEW060 BKN120
                       FM140600 VRB03KT P6SM BKN060=
201507131217 TAF AMD KBFI 131217Z 1312/1412 17004KT P6SM VCSH SCT025 OVC050
                       TEMPO 1312/1316 BKN025 OVC050 FM131900 20004KT
                       P6SM BKN050 FM132100 27006KT P6SM SCT060
                       BKN120 FM140300 30005KT P6SM FEW060 BKN120
                       FM140600 VRB03KT P6SM BKN060=
201507131138 TAF KBFI 131138Z 1312/1412 20004KT P6SM OVC025 FM131900 20004KT
                       P6SM BKN050 FM132100 27006KT P6SM SCT060
                       BKN120 FM140300 30005KT P6SM FEW060 BKN120
                       FM140600 VRB03KT P6SM BKN060=
201507130549 TAF KBFI 130549Z 1306/1406 30004KT P6SM VCSH SCT050 BKN220 FM130700
                       22004KT P6SM BKN050 FM131200 20004KT P6SM
                       OVC025 FM131900 20004KT P6SM VCSH SCT020
                       BKN050 FM132100 27006KT P6SM SCT060 BKN120
                       FM140300 30005KT P6SM FEW060 BKN120=
201507122327 TAF KBFI 122327Z 1300/1324 24008KT P6SM SCT050 SCT200 FM130500
                       22005KT P6SM VCSH SCT025 BKN050 FM131200
                       20004KT P6SM OVC020 FM131900 20004KT P6SM
                       VCSH SCT020 BKN050=
201507121723 TAF KBFI 121723Z 1218/1318 16007KT P6SM FEW019 OVC045
                      TEMPO 1218/1220 -SHRA OVC025 FM122200 21006KT
                       P6SM BKN040 FM130600 22005KT P6SM OVC035
                       FM131200 20004KT P6SM OVC020=
201507121201 TAF AMD KBFI 121201Z 1212/1312 16006KT P6SM VCSH SCT020 OVC050
                       FM121800 19005KT P6SM SCT030 OVC035 FM122200
                       21006KT P6SM BKN040 FM130600 22003KT P6SM
                       OVC035=
201507121132 TAF KBFI 121132Z 1212/1312 16006KT P6SM OVC030 FM121800 19005KT
                       P6SM SCT030 OVC035 FM122200 21006KT P6SM
                       BKN040 FM130600 22003KT P6SM OVC035=
201507120551 TAF KBFI 120551Z 1206/1306 16006KT P6SM VCSH OVC060 FM121100 20006KT
                       P6SM OVC030 FM121800 20006KT P6SM SCT030
                       BKN060=
201507112322 TAF KBFI 112322Z 1200/1224 VRB05KT P6SM VCSH FEW035 OVC060 FM120300
                       20006KT P6SM SCT030 OVC045 FM121100 20006KT
                       P6SM OVC030 FM121800 20006KT P6SM SCT030
                       BKN060
                      PROB30 1218/1224 -SHRA OVC030=
201507111723 TAF KBFI 111723Z 1118/1218 17008KT P6SM VCSH OVC040 FM120300 20006KT
                       P6SM SCT030 OVC045
                      PROB30 1203/1209 -SHRA OVC030 FM121100 20006KT
                       P6SM OVC030 FM121700 20006KT P6SM SCT030
                       BKN060=
201507111206 TAF AMD KBFI 111206Z 1112/1212 20005KT P6SM OVC035 FM111600 18006KT
                       P6SM VCSH OVC030 FM112200 20005KT P6SM BKN030
                       FM120300 19008KT P6SM OVC035=
201507111131 TAF KBFI 111131Z 1112/1212 18005KT P6SM OVC030 FM111600 18006KT
                       P6SM VCSH OVC030 FM112200 20005KT P6SM BKN030
                       FM120300 19008KT P6SM OVC035=
201507110553 TAF KBFI 110553Z 1106/1206 17003KT P6SM OVC040 FM111000 17005KT
                       P6SM OVC020 FM111600 18006KT P6SM VCSH OVC020
                       FM112200 20005KT P6SM BKN030 FM120300 19008KT
                       P6SM OVC035=
201507102322 TAF KBFI 102322Z 1100/1124 21008KT P6SM OVC040
                      TEMPO 1100/1104 SCT035 FM110400 20005KT P6SM
                       OVC030 FM111000 20005KT P6SM OVC020 FM112200
                       20005KT P6SM BKN030=
201507101720 TAF KBFI 101720Z 1018/1118 19006KT P6SM SCT020 OVC035 FM102200
                       22006KT P6SM BKN035
                      TEMPO 1022/1102 SCT035 FM110300 20005KT P6SM
                       OVC035 FM111000 20005KT P6SM OVC020=
201507101628 TAF AMD KBFI 101628Z 1016/1112 17006KT P6SM SCT020 OVC035 FM102100
                       22006KT P6SM BKN035
                      TEMPO 1021/1101 SCT035 FM110300 20005KT P6SM
                       OVC025=
201507101144 TAF KBFI 101144Z 1012/1112 17008KT P6SM OVC020 FM101700 18006KT
                       P6SM OVC018 FM102100 22006KT P6SM SCT025
                       FM110300 20005KT P6SM OVC025=
201507100721 TAF AMD KBFI 100721Z 1007/1106 18006KT P6SM OVC015 FM101200 17006KT
                       P6SM OVC010 FM101700 18006KT P6SM OVC018
                       FM102100 22006KT P6SM SCT025=
201507100548 TAF KBFI 100548Z 1006/1106 VRB04KT P6SM SKC FM100900 18006KT P6SM
                       OVC015 FM101200 17006KT P6SM OVC010 FM101700
                       18006KT P6SM OVC018 FM102100 22006KT P6SM
                       SCT025=
201507092320 TAF KBFI 092320Z 1000/1024 VRB04KT P6SM SKC FM100900 18006KT P6SM
                       OVC015 FM101800 18006KT P6SM OVC018 FM102200
                       22006KT P6SM SCT025=
201507091720 TAF KBFI 091720Z 0918/1018 VRB04KT P6SM SKC FM101000 18006KT P6SM
                       OVC010=
201507091147 TAF KBFI 091147Z 0912/1012 18004KT P6SM SCT008 FM091800 22006KT
                       P6SM SKC FM100000 29006KT P6SM SKC FM100600
                       19004KT P6SM SCT030 FM100900 21006KT P6SM
                       BKN020=
201507090540 TAF KBFI 090540Z 0906/1006 VRB03KT P6SM SKC FM091100 20003KT P6SM
                       SKC FM091200 21004KT P6SM FEW010 FM091800
                       22006KT P6SM SKC FM100000 29006KT P6SM SKC=
201507082320 TAF KBFI 082320Z 0900/0924 32006KT P6SM SKC FM090400 VRB03KT P6SM
                       SKC FM091100 20003KT P6SM SKC FM091800 29006KT
                       P6SM SKC=
201507081720 TAF KBFI 081720Z 0818/0918 30006KT P6SM SCT200 FM090300 VRB03KT
                       P6SM SCT200 FM091100 20003KT P6SM SCT200=
201507081142 TAF KBFI 081142Z 0812/0912 VRB03KT P6SM BKN150 FM081800 30006KT
                       P6SM SCT200 FM090300 VRB03KT P6SM SCT250=
201507080542 TAF KBFI 080542Z 0806/0906 VRB03KT P6SM OVC130 FM081400 VRB03KT
                       P6SM SCT015 OVC130 FM081800 30006KT P6SM
                       OVC150 FM090300 VRB03KT P6SM SCT200=
201507080155 TAF AMD KBFI 080155Z 0802/0824 30006KT P6SM OVC130 FM080300 VRB03KT
                       P6SM OVC130 FM081800 31005KT P6SM OVC100=
201507072320 TAF KBFI 072320Z 0800/0824 31005KT P6SM FEW250 FM080600 00000KT
                       P6SM SKC FM080800 00000KT P6SM FEW100 FM081800
                       31005KT P6SM SCT250=
201507071733 TAF KBFI 071733Z 0718/0818 VRB03KT P6SM SCT020
                      TEMPO 0718/0719 BKN020 FM072000 30006KT P6SM
                       FEW250 FM080300 VRB03KT P6SM SKC FM080800
                       00000KT P6SM SCT100=
201507071144 TAF KBFI 071144Z 0712/0812 17006KT P6SM SCT019 SCT250 FM071300
                       17006KT P6SM OVC019 FM071830 24005KT P6SM
                       SCT250 FM072200 30005KT P6SM BKN200 FM080300
                       VRB03KT P6SM BKN150=
201507070545 TAF KBFI 070545Z 0706/0806 VRB03KT P6SM BKN200 FM071200 18006KT
                       P6SM SCT015 BKN200 FM071400 18006KT P6SM
                       BKN012 BKN200 FM071830 27005KT P6SM BKN200
                       FM072200 31005KT P6SM BKN200 FM080300 VRB03KT
                       P6SM BKN200=
201507062320 TAF KBFI 062320Z 0700/0724 VRB04KT P6SM BKN200 FM070600 21006KT
                       P6SM SCT200 FM071300 20007KT P6SM BKN015
                       FM071700 23005KT P6SM SCT200=
201507062000 TAF AMD KBFI 062000Z 0620/0718 18006KT P6SM BKN200 FM070000 VRB04KT
                       P6SM SCT200 FM071400 18005KT P6SM SCT009
                       SCT200 FM071700 VRB04KT P6SM SCT200=
201507061720 TAF KBFI 061720Z 0618/0718 VRB04KT P6SM SCT200 FM071400 18005KT
                       P6SM SCT009 SCT200 FM071700 VRB04KT P6SM
                       SCT200=
201507061134 TAF KBFI 061134Z 0612/0712 17007KT P6SM SCT150 FM061800 20007KT
                       P6SM SCT200 FM062100 28005KT P6SM SCT200
                       FM070300 VRB03KT P6SM SCT200=
201507060552 TAF KBFI 060552Z 0606/0706 VRB03KT P6SM BKN130 FM061800 19006KT
                       P6SM FEW090 BKN130 FM062100 25006KT P6SM
                       FEW090 BKN130 FM070000 29006KT P6SM SCT130=
201507052329 TAF KBFI 052329Z 0600/0624 32007KT P6SM BKN200 FM060600 33005KT
                       P6SM BKN200 FM061200 20004KT P6SM BKN200
                       FM061800 22007KT P6SM SCT200=
201507051730 TAF KBFI 051730Z 0518/0618 32007KT P6SM SCT200 FM060300 VRB03KT
                       P6SM FEW200=
201507051129 TAF KBFI 051129Z 0512/0612 VRB03KT 6SM HZ SCT250 FM051800 32007KT
                       P6SM FEW250 FM060300 VRB03KT P6SM FEW250=
201507050525 TAF KBFI 050525Z 0506/0606 VRB03KT P6SM FEW250 FM051800 32009KT
                       P6SM FEW250 FM060300 VRB03KT P6SM FEW250=
201507042325 TAF KBFI 042325Z 0500/0524 31009KT P6SM SKC FM050300 VRB03KT P6SM
                       SKC FM051800 32008KT P6SM SKC=
201507041720 TAF KBFI 041720Z 0418/0518 30004KT P6SM SKC FM041900 31007KT P6SM
                       SKC FM050300 VRB03KT P6SM SKC=
201507041130 TAF KBFI 041130Z 0412/0512 VRB03KT P6SM SKC FM041900 31007KT P6SM
                       SKC FM050300 VRB03KT P6SM SKC=
201507040539 TAF KBFI 040539Z 0406/0506 VRB03KT P6SM SKC FM041800 32007KT P6SM
                       SKC=
201507032325 TAF KBFI 032325Z 0400/0424 30006KT P6SM SKC FM040500 VRB02KT P6SM
                       SKC FM041800 30007KT P6SM SKC=
201507031722 TAF KBFI 031722Z 0318/0418 30006KT P6SM SKC FM040500 VRB02KT P6SM
                       SKC=
201507031137 TAF KBFI 031137Z 0312/0412 00000KT P6SM SKC FM032000 30006KT P6SM
                       SKC FM040500 VRB02KT P6SM SKC=
201507030520 TAF KBFI 030520Z 0306/0406 VRB03KT P6SM SKC FM032000 31006KT P6SM
                       SKC=
201507022320 TAF KBFI 022320Z 0300/0324 31006KT P6SM SKC FM030500 00000KT P6SM
                       SKC FM032000 31006KT P6SM SKC=
201507021720 TAF KBFI 021720Z 0218/0318 32004KT P6SM SKC FM022100 31006KT P6SM
                       SKC FM030600 00000KT P6SM SKC=
201507021127 TAF KBFI 021127Z 0212/0312 35003KT P6SM SKC FM022100 31006KT P6SM
                       SKC FM030600 00000KT P6SM SKC=
201507020520 TAF KBFI 020520Z 0206/0306 31004KT P6SM SKC FM020700 00000KT P6SM
                       SKC FM022100 31006KT P6SM SKC=
201507012320 TAF KBFI 012320Z 0200/0224 31008KT P6SM SKC FM020400 00000KT P6SM
                       SKC FM022100 31006KT P6SM SKC=
201507011720 TAF KBFI 011720Z 0118/0218 30005KT P6SM SKC FM011900 32008KT P6SM
                       SKC FM020400 00000KT P6SM SKC=
201507011122 TAF KBFI 011122Z 0112/0212 00000KT P6SM SKC FM011900 32009KT P6SM
                       SKC FM020600 00000KT P6SM SKC=
201507010527 TAF KBFI 010527Z 0106/0206 VRB02KT P6SM SKC FM011900 32009KT P6SM
                       SKC=