##########################################################
# Query made at 02/17/2025 02:58:12 UTC
# Time interval: from 12/01/2015 00:00  to 12/31/2015 23:59  UTC
##########################################################

##########################################################
# KBFI, Seattle, Seattle Boeing Field (United States)
# WMO index: -----. WIGOS ID: Unknown
# Latitude 47-32-45N. Longitude 122-18-49W. Altitude 5 m.
##########################################################

###################################
#  METAR/SPECI from KBFI
###################################
201512312353 METAR KBFI 312353Z 32003KT 10SM CLR 06/M04 A3053 RMK AO2 SLP338 T00561039 10061 20017 56007=
201512312253 METAR KBFI 312253Z 32004KT 10SM CLR 06/M06 A3054 RMK AO2 SLP339 T00611056=
201512312153 METAR KBFI 312153Z 33005KT 10SM CLR 06/M06 A3054 RMK AO2 SLP342 T00561056=
201512312053 METAR KBFI 312053Z 32004KT 10SM CLR 06/M06 A3055 RMK AO2 SLP345 T00561056 58004=
201512311953 METAR KBFI 311953Z 30003KT 10SM CLR 05/M05 A3058 RMK AO2 SLP354 T00501050=
201512311853 METAR KBFI 311853Z 31004KT 10SM CLR 03/M04 A3058 RMK AO2 SLP355 T00331044=
201512311753 METAR KBFI 311753Z AUTO 00000KT 10SM CLR 02/M03 A3057 RMK AO2 SLP349 T00171028 10017 21039 53014 TSNO=
201512311653 METAR KBFI 311653Z 00000KT 10SM CLR M02/M04 A3055 RMK AO2 SLP344 T10221044=
201512311553 METAR KBFI 311553Z 00000KT 10SM CLR M03/M04 A3054 RMK AO2 SLP340 T10281044=
201512311453 METAR KBFI 311453Z 00000KT 10SM CLR M03/M05 A3053 RMK AO2 SLP336 T10281050 50002=
201512311353 METAR KBFI 311353Z 00000KT 10SM CLR M03/M05 A3053 RMK AO2 SLP336 T10281050=
201512311253 METAR KBFI 311253Z 00000KT 10SM CLR M02/M04 A3052 RMK AO2 SLP334 T10221044=
201512311153 METAR KBFI 311153Z 00000KT 10SM CLR M03/M04 A3052 RMK AO2 UPB44E48 SLP333 P0000 60000 T10281044 10000 21044 51004=
201512311053 METAR KBFI 311053Z 16004KT 10SM CLR M03/M04 A3052 RMK AO2 SLP333 T10281044=
201512310953 METAR KBFI 310953Z 00000KT 10SM CLR M02/M03 A3051 RMK AO2 SLP330 T10171033=
201512310853 METAR KBFI 310853Z 00000KT 10SM CLR M02/M04 A3051 RMK AO2 UPB35E47 SLP329 P0000 60000 T10221039 53007=
201512310753 METAR KBFI 310753Z 00000KT 10SM CLR M01/M03 A3050 RMK AO2 SLP327 T10111033 400671028=
201512310653 METAR KBFI 310653Z 00000KT 10SM CLR M01/M03 A3049 RMK AO2 SLP323 T10111033 $=
201512310553 METAR KBFI 310553Z 00000KT 10SM CLR 00/M03 A3048 RMK AO2 SLP322 T00001028 10056 21011 51004=
201512310453 METAR KBFI 310453Z 00000KT 10SM CLR 00/M03 A3048 RMK AO2 SLP320 T00001028=
201512310353 METAR KBFI 310353Z 00000KT 10SM CLR 01/M03 A3049 RMK AO2 SLP322 T00061028=
201512310253 METAR KBFI 310253Z 00000KT 10SM CLR 01/M04 A3047 RMK AO2 SLP318 T00111039 51010=
201512310153 METAR KBFI 310153Z 35003KT 10SM CLR 03/M04 A3046 RMK AO2 SLP315 T00331039=
201512310053 METAR KBFI 310053Z 36004KT 10SM CLR 04/M05 A3046 RMK AO2 SLP312 T00391050=
201512302353 METAR KBFI 302353Z VRB04KT 10SM CLR 06/M05 A3044 RMK AO2 SLP308 T00561050 10067 20028 53002=
201512302253 METAR KBFI 302253Z AUTO 03004KT 10SM CLR 06/M05 A3043 RMK AO2 SLP305 T00611050 TSNO=
201512302153 METAR KBFI 302153Z VRB04KT 10SM CLR 06/M04 A3043 RMK AO2 SLP305 T00611044=
201512302053 METAR KBFI 302053Z 05006KT 10SM FEW250 06/M03 A3044 RMK AO2 SLP306 T00611033 58001=
201512301953 METAR KBFI 301953Z 35004KT 10SM FEW250 05/M03 A3044 RMK AO2 SLP308 T00501033=
201512301853 METAR KBFI 301853Z VRB03KT 10SM SCT200 04/M03 A3045 RMK AO2 SLP309 T00441028=
201512301753 METAR KBFI 301753Z 33003KT 10SM SCT200 03/M02 A3044 RMK AO2 SLP307 60000 T00281022 10028 21028 51027=
201512301653 METAR KBFI 301653Z 32003KT 10SM SCT200 01/M03 A3041 RMK AO2 SLP298 T00111028=
201512301553 METAR KBFI 301553Z 28003KT 10SM FEW200 M01/M03 A3039 RMK AO2 SLP289 T10061033=
201512301453 METAR KBFI 301453Z 00000KT 10SM CLR M01/M03 A3036 RMK AO2 SLP280 60000 T10111028 53012=
201512301353 METAR KBFI 301353Z 00000KT 10SM CLR 00/M02 A3034 RMK AO2 SNE1257 SLP273 P0000 T00001022=
201512301253 METAR KBFI 301253Z COR 00000KT 10SM CLR M01/M03 A3033 RMK AO2 SNB53 SLP269 P0000 T10061028=
201512301153 METAR KBFI 301153Z 00000KT 10SM CLR M01/M03 A3032 RMK AO2 SLP267 T10111028 10033 21022 51022=
201512301053 METAR KBFI 301053Z 00000KT 10SM CLR M01/M03 A3031 RMK AO2 SLP263 T10111028=
201512300953 METAR KBFI 300953Z 00000KT 10SM CLR 00/M03 A3028 RMK AO2 SLP253 T00001028=
201512300853 METAR KBFI 300853Z 00000KT 10SM CLR 01/M02 A3026 RMK AO2 SLP245 T00111022 51013=
201512300753 METAR KBFI 300753Z 00000KT 10SM CLR 01/M01 A3025 RMK AO2 SLP242 T00061006 400780000=
201512300653 METAR KBFI 300653Z 27003KT 10SM CLR 02/00 A3023 RMK AO2 SLP237 T00170000=
201512300553 METAR KBFI 300553Z 00000KT 10SM CLR 03/01 A3022 RMK AO2 SLP233 T00330006 10072 20033 53015=
201512300453 METAR KBFI 300453Z 36003KT 10SM FEW060 03/01 A3020 RMK AO2 SLP225 T00330011=
201512300353 METAR KBFI 300353Z 34003KT 10SM CLR 03/02 A3019 RMK AO2 SLP222 T00330017=
201512300253 METAR KBFI 300253Z 00000KT 10SM FEW035 04/02 A3018 RMK AO2 SLP218 T00440017 53009=
201512300153 METAR KBFI 300153Z 02004KT 10SM FEW065 05/02 A3016 RMK AO2 SLP214 T00500017=
201512300053 METAR KBFI 300053Z 35004KT 10SM BKN070 06/02 A3016 RMK AO2 SLP212 T00610017=
201512292353 METAR KBFI 292353Z VRB04KT 10SM OVC070 07/01 A3015 RMK AO2 SLP208 T00720011 10078 20044 53007=
201512292253 METAR KBFI 292253Z 00000KT 10SM SCT020 OVC070 07/02 A3013 RMK AO2 SLP204 T00670017=
201512292153 METAR KBFI 292153Z 33010KT 10SM FEW020 BKN075 07/02 A3013 RMK AO2 WSHFT 2132 SLP202 T00720022=
201512292053 METAR KBFI 292053Z 33008KT 10SM FEW020 BKN075 07/02 A3013 RMK AO2 SLP203 T00720022 58010=
201512291953 METAR KBFI 291953Z 00000KT 10SM FEW009 SCT015 BKN075 06/03 A3015 RMK AO2 SLP207 T00610033=
201512291906 SPECI KBFI 291906Z 00000KT 10SM SCT015 BKN075 06/03 A3016 RMK AO2=
201512291853 METAR KBFI 291853Z 00000KT 10SM FEW009 OVC075 05/03 A3016 RMK AO2 SLP213 T00500028=
201512291845 SPECI KBFI 291845Z 00000KT 10SM FEW009 OVC075 05/03 A3016 RMK AO2=
201512291753 METAR KBFI 291753Z 06004KT 10SM FEW030 OVC075 04/02 A3016 RMK AO2 SLP214 T00440022 10044 20028 53008=
201512291653 METAR KBFI 291653Z 00000KT 7SM FEW030 OVC075 03/03 A3015 RMK AO2 SLP210 T00330028=
201512291553 METAR KBFI 291553Z 15003KT 10SM SCT050 OVC075 03/02 A3014 RMK AO2 SLP205 T00330022=
201512291453 METAR KBFI 291453Z 00000KT 9SM FEW008 SCT020 OVC030 03/02 A3014 RMK AO2 SLP205 T00330022 53001=
201512291353 METAR KBFI 291353Z 00000KT 10SM FEW008 SCT028 OVC065 04/02 A3014 RMK AO2 SLP205 T00390022=
201512291253 METAR KBFI 291253Z 16003KT 9SM SCT008 OVC065 04/02 A3014 RMK AO2 SLP204 T00390022=
201512291227 SPECI KBFI 291227Z 14004KT 10SM BKN008 BKN020 OVC065 03/03 A3014 RMK AO2=
201512291217 SPECI KBFI 291217Z 12003KT 9SM FEW008 OVC065 04/03 A3014 RMK AO2=
201512291209 SPECI KBFI 291209Z 12004KT 8SM FEW008 BKN020 OVC060 03/03 A3014 RMK AO2=
201512291153 METAR KBFI 291153Z 13003KT 8SM BKN020 OVC060 03/03 A3014 RMK AO2 SLP207 70002 T00330028 10044 20033 58001=
201512291139 SPECI KBFI 291139Z 00000KT 6SM BR BKN020 OVC060 04/03 A3015 RMK AO2=
201512291053 METAR KBFI 291053Z 00000KT 7SM SCT022 OVC060 04/03 A3015 RMK AO2 SLP210 T00390033=
201512290953 METAR KBFI 290953Z 00000KT 7SM OVC060 04/03 A3014 RMK AO2 SLP207 T00390028=
201512290853 METAR KBFI 290853Z 19003KT 8SM OVC060 04/03 A3015 RMK AO2 SLP208 T00390033 58004=
201512290753 METAR KBFI 290753Z 00000KT 9SM BKN060 04/03 A3017 RMK AO2 SLP215 T00440033 400610028=
201512290653 METAR KBFI 290653Z 00000KT 10SM BKN060 04/03 A3017 RMK AO2 SLP215 T00440028=
201512290553 METAR KBFI 290553Z 00000KT 10SM SCT043 OVC065 04/02 A3016 RMK AO2 SLP212 60000 T00440022 10056 20044 51003=
201512290453 METAR KBFI 290453Z 00000KT 10SM BKN048 OVC060 05/03 A3015 RMK AO2 RAB19E34 SLP210 P0000 T00500028=
201512290353 METAR KBFI 290353Z 00000KT 10SM OVC060 05/03 A3016 RMK AO2 SLP212 T00500028=
201512290253 METAR KBFI 290253Z 00000KT 10SM FEW038 BKN045 OVC060 05/02 A3015 RMK AO2 SLP209 T00500022 51007=
201512290153 METAR KBFI 290153Z 00000KT 10SM FEW017 OVC055 06/03 A3015 RMK AO2 SLP208 T00560028=
201512290053 METAR KBFI 290053Z 00000KT 10SM FEW010 SCT035 OVC055 06/02 A3014 RMK AO2 SLP205 T00560022=
201512282353 METAR KBFI 282353Z 00000KT 10SM FEW008 BKN035 OVC050 06/03 A3013 RMK AO2 SLP202 60000 T00560028 10061 20039 53002=
201512282253 METAR KBFI 282253Z 00000KT 10SM SCT015 BKN035 OVC050 06/03 A3012 RMK AO2 RAE01 SLP200 P0000 T00560033=
201512282153 METAR KBFI 282153Z 00000KT 6SM -RA BR BKN011 BKN018 OVC035 06/04 A3013 RMK AO2 RAB45 SLP201 P0000 T00560039=
201512282151 SPECI KBFI 282151Z 00000KT 7SM -RA BKN011 BKN018 OVC035 06/04 A3013 RMK AO2 RAB45 P0000=
201512282100 SPECI KBFI 282100Z 00000KT 8SM FEW023 BKN030 OVC049 06/04 A3013 RMK AO2=
201512282053 METAR KBFI 282053Z 00000KT 9SM SCT010 BKN022 OVC040 06/04 A3013 RMK AO2 SLP201 60000 T00560039 58002=
201512281956 SPECI KBFI 281956Z 00000KT 10SM FEW008 BKN025 OVC044 05/04 A3013 RMK AO2=
201512281953 METAR KBFI 281953Z 00000KT 10SM SCT015 BKN025 OVC044 05/04 A3013 RMK AO2 SLP202 T00500039=
201512281853 METAR KBFI 281853Z 14004KT 10SM FEW005 SCT025 OVC040 04/03 A3014 RMK AO2 RAB20E39 SLP205 P0000 T00440033=
201512281753 METAR KBFI 281753Z 17003KT 10SM FEW006 BKN025 OVC040 04/03 A3013 RMK AO2 SLP204 60002 T00390033 10039 20028 53014=
201512281653 METAR KBFI 281653Z 15003KT 9SM BKN010 OVC025 03/03 A3012 RMK AO2 SLP198 T00330033=
201512281553 METAR KBFI 281553Z 12004KT 9SM BKN010 OVC025 03/03 A3010 RMK AO2 RAB27E38 SLP193 P0000 T00330028=
201512281453 METAR KBFI 281453Z 00000KT 10SM SCT006 OVC010 03/03 A3009 RMK AO2 SLP190 60002 T00330028 53004=
201512281432 SPECI KBFI 281432Z 00000KT 10SM SCT006 OVC010 03/02 A3009 RMK AO2=
201512281353 METAR KBFI 281353Z 14003KT 10SM BKN016 OVC030 03/02 A3008 RMK AO2 RAE18 SLP186 P0001 T00330022=
201512281253 METAR KBFI 281253Z 00000KT 9SM -RA OVC015 03/03 A3008 RMK AO2 SLP185 P0001 T00280028=
201512281153 METAR KBFI 281153Z 00000KT 7SM -RA OVC015 03/03 A3008 RMK AO2 UPB00E11RAB11 SLP186 P0001 60001 70033 T00280028 10033 20028 53010=
201512281053 METAR KBFI 281053Z 00000KT 7SM OVC015 03/02 A3008 RMK AO2 UPB22E25RAB25E37 SLP184 P0000 T00280022=
201512280953 METAR KBFI 280953Z 13006KT 10SM OVC016 03/02 A3006 RMK AO2 SLP178 T00280017=
201512280853 METAR KBFI 280853Z 14003KT 10SM OVC016 03/02 A3005 RMK AO2 SLP176 T00280022 50000=
201512280753 METAR KBFI 280753Z 00000KT 10SM OVC018 03/02 A3006 RMK AO2 SLP177 T00280022 400560028=
201512280653 METAR KBFI 280653Z 14004KT 10SM OVC020 03/02 A3005 RMK AO2 SLP175 T00280022=
201512280553 METAR KBFI 280553Z 12004KT 10SM OVC020 03/02 A3005 RMK AO2 RAE48UPB16E36 SLP175 P0000 60016 T00280017 10039 20028 51005=
201512280453 METAR KBFI 280453Z 13006KT 10SM -RA SCT019 OVC026 03/02 A3005 RMK AO2 SLP174 P0003 T00280017=
201512280353 METAR KBFI 280353Z 12004KT 10SM -RA OVC018 03/02 A3005 RMK AO2 SLP174 P0003 T00280017=
201512280253 METAR KBFI 280253Z 14006KT 10SM -RA BKN018 OVC029 03/02 A3004 RMK AO2 SLP170 P0002 60010 T00330017 51003=
201512280153 METAR KBFI 280153Z 13004KT 10SM -RA SCT011 OVC020 03/02 A3003 RMK AO2 SLP170 P0004 T00330022=
201512280053 METAR KBFI 280053Z 00000KT 7SM -RA FEW013 SCT023 OVC030 04/03 A3003 RMK AO2 SLP168 P0004 T00390028=
201512272353 METAR KBFI 272353Z 00000KT 7SM -RA FEW010 SCT020 OVC030 04/02 A3003 RMK AO2 SLP167 P0002 60016 T00390022 10056 20028 55006=
201512272253 METAR KBFI 272253Z 00000KT 7SM -RA BKN017 OVC026 04/02 A3002 RMK AO2 SLP164 P0002 T00390022=
201512272153 METAR KBFI 272153Z 00000KT 10SM -RA BKN024 OVC037 04/02 A3003 RMK AO2 SLP168 P0001 T00390022=
201512272053 METAR KBFI 272053Z 13004KT 7SM -RA SCT015 OVC020 03/02 A3004 RMK AO2 SLP173 P0004 60011 T00280022 58021=
201512271953 METAR KBFI 271953Z 14008KT 9SM -RA SCT012 OVC019 03/02 A3008 RMK AO2 SLP187 P0005 T00330017=
201512271853 METAR KBFI 271853Z 00000KT 7SM -RA BKN019 OVC028 04/02 A3010 RMK AO2 SLP194 P0002 T00440017=
201512271753 METAR KBFI 271753Z 17003KT 10SM -RA SCT016 OVC034 06/M01 A3011 RMK AO2 RAB38 SLP194 P0000 60000 T00561011 10056 20028 55002=
201512271653 METAR KBFI 271653Z 00000KT 10SM OVC065 05/M02 A3009 RMK AO2 SLP190 T00501022=
201512271553 METAR KBFI 271553Z 16003KT 10SM OVC060 04/M02 A3008 RMK AO2 SLP186 T00391017=
201512271453 METAR KBFI 271453Z 11003KT 10SM BKN085 04/M01 A3011 RMK AO2 SLP196 T00391011 56022=
201512271353 METAR KBFI 271353Z 00000KT 10SM BKN070 OVC080 04/M01 A3012 RMK AO2 SLP200 T00391011=
201512271253 METAR KBFI 271253Z 00000KT 10SM SCT090 SCT110 03/M02 A3015 RMK AO2 SLP207 T00331017=
201512271153 METAR KBFI 271153Z 16003KT 10SM BKN085 OVC100 03/M01 A3018 RMK AO2 SLP218 60000 T00331011 10044 20033 56021=
201512271053 METAR KBFI 271053Z 11003KT 10SM OVC075 04/M03 A3020 RMK AO2 SLP225 T00441028=
201512270953 METAR KBFI 270953Z 00000KT 10SM SCT050 OVC080 04/M02 A3021 RMK AO2 SLP228 T00391022=
201512270853 METAR KBFI 270853Z 14003KT 10SM OVC055 04/M02 A3024 RMK AO2 SLP239 60000 T00391017 58033=
201512270753 METAR KBFI 270753Z 10007KT 10SM OVC060 04/00 A3028 RMK AO2 RAB27E39 SLP251 P0000 T00390000 400500011=
201512270653 METAR KBFI 270653Z 17007KT 10SM BKN055 OVC080 04/M03 A3033 RMK AO2 SLP269 T00441033=
201512270553 METAR KBFI 270553Z 11006KT 10SM FEW060 OVC080 04/M02 A3033 RMK AO2 SLP271 T00391022 10050 20033 56014=
201512270453 METAR KBFI 270453Z 18004KT 10SM OVC110 04/M03 A3035 RMK AO2 SLP276 T00441028=
201512270353 METAR KBFI 270353Z 13004KT 10SM OVC120 04/M02 A3036 RMK AO2 SLP279 T00391017=
201512270253 METAR KBFI 270253Z 14003KT 10SM OVC110 04/00 A3037 RMK AO2 SLP285 T00390000 56023=
201512270153 METAR KBFI 270153Z 12005KT 10SM OVC110 04/M01 A3039 RMK AO2 SLP290 T00441006=
201512270053 METAR KBFI 270053Z 00000KT 10SM OVC070 05/02 A3041 RMK AO2 SLP297 T00500017=
201512262353 METAR KBFI 262353Z 00000KT 10SM BKN080 OVC120 05/00 A3044 RMK AO2 SLP307 T00500000 10050 20028 58019=
201512262253 METAR KBFI 262253Z 00000KT 10SM OVC095 05/00 A3047 RMK AO2 SLP317 T00500000=
201512262153 METAR KBFI 262153Z 00000KT 10SM OVC100 05/00 A3048 RMK AO2 SLP320 T00500000=
201512262053 METAR KBFI 262053Z 00000KT 10SM OVC100 04/01 A3050 RMK AO2 SLP326 T00440006 58025=
201512261953 METAR KBFI 261953Z 16004KT 10SM OVC120 04/01 A3052 RMK AO2 SLP335 T00390006=
201512261853 METAR KBFI 261853Z 15003KT 10SM OVC120 03/00 A3056 RMK AO2 SLP347 T00330000=
201512261753 METAR KBFI 261753Z 15005KT 10SM SCT055 OVC100 03/01 A3057 RMK AO2 SLP351 T00280006 10028 20011 51008=
201512261653 METAR KBFI 261653Z 14006KT 10SM FEW007 OVC055 02/01 A3057 RMK AO2 SLP351 T00170006=
201512261553 METAR KBFI 261553Z 15004KT 10SM OVC050 02/01 A3056 RMK AO2 SLP347 T00170006=
201512261453 METAR KBFI 261453Z 00000KT 9SM OVC050 02/01 A3055 RMK AO2 SLP343 T00170011 55001=
201512261353 METAR KBFI 261353Z 00000KT 10SM BKN048 02/01 A3053 RMK AO2 SLP338 T00170006=
201512261253 METAR KBFI 261253Z 13004KT 10SM OVC048 02/01 A3054 RMK AO2 SLP342 T00170011=
201512261153 METAR KBFI 261153Z 15005KT 8SM FEW008 OVC048 02/01 A3055 RMK AO2 SLP344 70005 T00170011 10039 20017 51008=
201512261053 METAR KBFI 261053Z 12004KT 10SM FEW008 BKN048 03/02 A3055 RMK AO2 SLP344 T00280017=
201512260955 SPECI KBFI 260955Z 14005KT 7SM SCT008 BKN018 OVC050 02/02 A3054 RMK AO2=
201512260953 METAR KBFI 260953Z 14005KT 7SM BKN012 OVC020 02/02 A3054 RMK AO2 SLP340 T00220017=
201512260853 METAR KBFI 260853Z 12004KT 7SM BKN012 03/03 A3053 RMK AO2 SLP336 T00330028 51013=
201512260753 METAR KBFI 260753Z 14005KT 8SM BKN012 OVC020 03/03 A3052 RMK AO2 SLP333 T00330028 400500022=
201512260653 METAR KBFI 260653Z 00000KT 7SM BKN015 BKN033 OVC055 02/02 A3051 RMK AO2 SLP330 T00220017=
201512260553 METAR KBFI 260553Z 11003KT 10SM BKN018 OVC029 04/03 A3049 RMK AO2 SLP323 60001 T00390028 10044 20028 51021=
201512260534 SPECI KBFI 260534Z 00000KT 10SM BKN018 03/03 A3049 RMK AO2=
201512260510 SPECI KBFI 260510Z 00000KT 10SM FEW020 SCT026 BKN060 04/03 A3048 RMK AO2=
201512260453 METAR KBFI 260453Z 00000KT 10SM BKN027 BKN036 OVC048 04/03 A3047 RMK AO2 RAB13E52 SLP318 P0001 T00390028=
201512260353 METAR KBFI 260353Z 00000KT 10SM BKN027 BKN036 04/03 A3045 RMK AO2 RAB22E42 SLP311 P0000 T00390028=
201512260253 METAR KBFI 260253Z 15003KT 10SM BKN036 03/02 A3042 RMK AO2 SLP302 T00330022 51025=
201512260153 METAR KBFI 260153Z 14004KT 10SM BKN039 03/02 A3041 RMK AO2 SLP296 T00280017=
201512260053 METAR KBFI 260053Z 14003KT 10SM BKN024 BKN030 04/02 A3038 RMK AO2 SLP287 T00390022=
201512252353 METAR KBFI 252353Z 14004KT 10SM BKN021 OVC029 04/03 A3035 RMK AO2 SLP277 60000 T00440033 10050 20039 53029=
201512252346 SPECI KBFI 252346Z 14005KT 10SM BKN021 BKN027 OVC055 04/03 A3035 RMK AO2=
201512252253 METAR KBFI 252253Z 16004KT 10SM SCT011 BKN050 05/03 A3032 RMK AO2 SLP266 T00500028=
201512252153 METAR KBFI 252153Z COR 15004KT 10SM SCT015 BKN023 BKN039 05/03 A3029 RMK AO2 SLP255 T00500033=
201512252100 SPECI KBFI 252100Z 14003KT 10SM OVC035 04/03 A3027 RMK AO2=
201512252053 METAR KBFI 252053Z 12003KT 10SM SCT008 OVC013 04/03 A3027 RMK AO2 RAE1959 SLP248 P0000 60000 T00440033 51015=
201512251953 METAR KBFI 251953Z 13003KT 6SM -RA BR SCT008 OVC013 04/03 A3025 RMK AO2 RAB42 SLP242 P0000 T00390033=
201512251853 METAR KBFI 251853Z 15003KT 10SM FEW007 BKN010 OVC035 04/03 A3024 RMK AO2 SLP241 T00390028=
201512251800 SPECI KBFI 251800Z 00000KT 10SM FEW007 BKN010 OVC035 04/03 A3023 RMK AO2=
201512251753 METAR KBFI 251753Z 00000KT 10SM FEW015 SCT022 OVC039 04/03 A3022 RMK AO2 RAE1658 SLP233 P0001 60004 T00390028 10039 20028 51039=
201512251707 SPECI KBFI 251707Z 14005KT 10SM FEW015 SCT022 OVC039 03/02 A3019 RMK AO2 RAE1658 P0001=
201512251653 METAR KBFI 251653Z 14004KT 10SM -RA FEW007 BKN022 OVC037 03/02 A3018 RMK AO2 UPB19E26RAB26 SLP219 P0000 T00330022=
201512251553 METAR KBFI 251553Z 14003KT 10SM FEW013 BKN024 OVC028 03/02 A3015 RMK AO2 RAE19UPB04E06 SLP208 P0000 T00280022=
201512251453 METAR KBFI 251453Z 14005KT 7SM -RA FEW013 BKN024 OVC028 03/02 A3011 RMK AO2 UPB19E21 SLP194 P0002 60003 T00280022 53028=
201512251353 METAR KBFI 251353Z 14004KT 10SM -RA FEW013 BKN024 OVC028 03/03 A3008 RMK AO2 SLP184 P0001 T00330028=
201512251333 SPECI KBFI 251333Z 14005KT 10SM -RA BKN011 OVC020 03/03 A3007 RMK AO2 P0001=
201512251253 METAR KBFI 251253Z 13005KT 6SM -RA BR OVC007 03/03 A3005 RMK AO2 SLP175 P0000 T00330028=
201512251153 METAR KBFI 251153Z COR 12004KT 6SM -RA BR OVC007 04/03 A3002 RMK AO2 RAB46 SLP167 P0000 60002 70008 T00390028 10056 20033 51019=
201512251139 SPECI KBFI 251139Z 13005KT 10SM OVC009 04/03 A3002 RMK AO2=
201512251107 SPECI KBFI 251107Z 13005KT 10SM FEW009 OVC048 03/03 A3001 RMK AO2=
201512251053 METAR KBFI 251053Z 14006KT 10SM FEW027 OVC048 04/03 A3000 RMK AO2 SLP159 T00390028=
201512251051 SPECI KBFI 251051Z 14006KT 10SM SCT025 OVC048 04/03 A3000 RMK AO2=
201512250953 METAR KBFI 250953Z 13004KT 10SM OVC025 04/03 A2997 RMK AO2 SLP148 T00440033=
201512250932 SPECI KBFI 250932Z 13004KT 10SM FEW018 BKN023 OVC075 04/03 A2996 RMK AO2=
201512250922 SPECI KBFI 250922Z 13004KT 10SM FEW018 BKN046 OVC075 04/03 A2996 RMK AO2=
201512250853 METAR KBFI 250853Z 11003KT 10SM BKN023 BKN035 OVC075 04/03 A2995 RMK AO2 SLP140 60002 T00440033 51014=
201512250848 SPECI KBFI 250848Z 14003KT 10SM SCT023 BKN035 OVC075 04/03 A2994 RMK AO2=
201512250822 SPECI KBFI 250822Z 12004KT 10SM BKN023 OVC035 04/03 A2994 RMK AO2=
201512250753 METAR KBFI 250753Z 09003KT 10SM FEW009 OVC031 04/03 A2993 RMK AO2 RAE32 SLP134 P0002 T00440033 400670033=
201512250745 SPECI KBFI 250745Z 08003KT 10SM FEW011 BKN033 OVC060 04/03 A2993 RMK AO2 RAE32 P0002=
201512250653 METAR KBFI 250653Z 11003KT 10SM -RA BKN015 OVC018 05/04 A2991 RMK AO2 RAB48 SLP127 P0000 T00500039=
201512250553 METAR KBFI 250553Z 00000KT 10SM BKN015 OVC018 06/04 A2989 RMK AO2 SLP121 60000 T00560039 10061 20050 53021=
201512250453 METAR KBFI 250453Z 00000KT 10SM BKN018 OVC029 06/03 A2987 RMK AO2 RAB07E46 SLP114 P0000 T00560033=
201512250353 METAR KBFI 250353Z 00000KT 10SM BKN018 OVC037 06/03 A2984 RMK AO2 SLP105 T00560028=
201512250253 METAR KBFI 250253Z 00000KT 10SM BKN022 OVC031 06/03 A2983 RMK AO2 SLP099 T00560028 51019=
201512250153 METAR KBFI 250153Z 00000KT 10SM BKN026 OVC045 06/02 A2981 RMK AO2 SLP093 T00560022=
201512250057 SPECI KBFI 250057Z 21003KT 10SM BKN026 OVC045 06/02 A2979 RMK AO2=
201512250053 METAR KBFI 250053Z 00000KT 10SM SCT028 BKN043 OVC070 06/02 A2979 RMK AO2 SLP088 T00560022=
201512242353 METAR KBFI 242353Z 22005KT 10SM SCT033 BKN050 06/03 A2977 RMK AO2 RAB2256E05 SLP080 P0000 60000 T00610028 10067 20056 53022=
201512242253 METAR KBFI 242253Z 18004KT 10SM FEW018 BKN025 OVC033 06/03 A2974 RMK AO2 SLP071 T00610028=
201512242153 METAR KBFI 242153Z 18005KT 10SM OVC018 06/03 A2973 RMK AO2 SLP066 T00610028=
201512242053 METAR KBFI 242053Z 20005KT 10SM BKN018 OVC024 06/03 A2971 RMK AO2 SLP059 T00610028 51013=
201512241953 METAR KBFI 241953Z 21009G15KT 180V240 10SM BKN018 BKN039 06/03 A2969 RMK AO2 SLP053 T00610028=
201512241853 METAR KBFI 241853Z 21006KT 10SM BKN018 OVC035 06/02 A2968 RMK AO2 SLP051 T00560022=
201512241753 METAR KBFI 241753Z 20006KT 10SM BKN015 OVC032 06/02 A2967 RMK AO2 SLP046 60006 T00560022 10056 20039 53022=
201512241653 METAR KBFI 241653Z 19007KT 10SM OVC017 05/02 A2965 RMK AO2 SLP039 T00500022=
201512241553 METAR KBFI 241553Z 18007G14KT 10SM OVC017 05/02 A2962 RMK AO2 SLP031 T00500022=
201512241453 METAR KBFI 241453Z 17007KT 10SM OVC015 05/02 A2960 RMK AO2 RAE00 SLP024 P0000 60006 T00500022 53011=
201512241406 SPECI KBFI 241406Z VRB04G15KT 10SM OVC015 05/03 A2959 RMK AO2 RAE00 P0000=
201512241353 METAR KBFI 241353Z 18007KT 10SM -RA OVC013 05/03 A2958 RMK AO2 SLP018 P0004 T00500028=
201512241348 SPECI KBFI 241348Z 19009KT 10SM -RA OVC013 05/03 A2958 RMK AO2 P0004=
201512241337 SPECI KBFI 241337Z 19007KT 9SM -RA OVC015 04/03 A2958 RMK AO2 P0004=
201512241253 METAR KBFI 241253Z 19009G14KT 8SM -RA OVC011 05/03 A2957 RMK AO2 RAB19 SLP013 P0002 T00500033=
201512241153 METAR KBFI 241153Z 15007KT 10SM OVC011 04/03 A2956 RMK AO2 RAE24 SLP008 P0000 60003 70012 T00440028 10050 20033 51011=
201512241053 METAR KBFI 241053Z 16007KT 10SM -RA OVC013 04/03 A2955 RMK AO2 SLP007 P0003 T00390028=
201512240953 METAR KBFI 240953Z 18011G17KT 9SM -RA BKN013 OVC022 04/02 A2954 RMK AO2 RAB39 SLP001 P0000 T00390022=
201512240853 METAR KBFI 240853Z 17008G16KT 10SM OVC015 04/03 A2952 RMK AO2 SLP997 60000 T00440028 51011=
201512240753 METAR KBFI 240753Z 18008G21KT 10SM OVC015 05/03 A2952 RMK AO2 RAB20E36 SLP995 P0000 T00500028 400610039=
201512240653 METAR KBFI 240653Z 18015G25KT 10SM OVC015 04/03 A2951 RMK AO2 PK WND 20028/0641 SLP993 T00440028=
201512240553 METAR KBFI 240553Z 18012G23KT 10SM BKN015 OVC021 04/02 A2949 RMK AO2 PK WND 18028/0507 RAE0454 SLP986 60003 T00440022 10056 20044 55000=
201512240453 METAR KBFI 240453Z 18015G23KT 10SM -RA OVC020 06/03 A2949 RMK AO2 SLP986 P0001 T00560033=
201512240353 METAR KBFI 240353Z 17017G26KT 10SM -RA BKN015 OVC024 05/03 A2948 RMK AO2 PK WND 16027/0338 RAE16B41 SLP984 P0001 T00500033=
201512240253 METAR KBFI 240253Z 18011G18KT 10SM -RA BKN018 OVC025 06/03 A2949 RMK AO2 RAE0155B45 SLP986 P0000 60001 T00560033 55002=
201512240153 METAR KBFI 240153Z 17012G23KT 10SM -RA BKN015 OVC020 05/03 A2948 RMK AO2 RAE12B39 SLP984 P0000 T00500033=
201512240053 METAR KBFI 240053Z 18013G21KT 10SM -RA BKN014 OVC043 05/03 A2949 RMK AO2 PK WND 09031/0027 SLP987 P0001 T00500033=
201512232353 METAR KBFI 232353Z 18010KT 10SM -RA OVC012 04/03 A2950 RMK AO2 PK WND 18026/2259 SLP989 P0003 60006 T00440033 10061 20039 56010=
201512232253 METAR KBFI 232253Z 17013G19KT 10SM -RA OVC015 05/03 A2950 RMK AO2 PK WND 16026/2200 RAE25B47 SLP989 P0001 T00500033=
201512232153 METAR KBFI 232153Z 17015G23KT 10SM -RA BKN015 OVC034 05/03 A2951 RMK AO2 RAB2055E05B44 SLP992 P0001 T00500028=
201512232053 METAR KBFI 232053Z 17011G22KT 10SM BKN017 OVC024 06/ A2953 RMK AO2 PK WND 19026/2017 RAE52 SLP998 P0000 60001 T0056 58014 $=
201512231953 METAR KBFI 231953Z COR 17010G17KT 10SM -RA SCT024 BKN031 OVC041 06/02 A2955 RMK AO2 RAB12 SLP007 P0001 T00610022=
201512231853 METAR KBFI 231853Z 18010G17KT 10SM SCT021 BKN090 BKN110 05/02 A2957 RMK AO2 SLP014 T00500017=
201512231753 METAR KBFI 231753Z 19010G15KT 10SM SCT017 BKN021 OVC060 06/02 A2957 RMK AO2 SLP012 T00610022 10061 20050 51007=
201512231653 METAR KBFI 231653Z 19008KT 10SM OVC017 06/02 A2956 RMK AO2 SLP011 T00610022=
201512231553 METAR KBFI 231553Z 19005G14KT 10SM OVC015 06/02 A2955 RMK AO2 SLP007 T00560017=
201512231453 METAR KBFI 231453Z 17006KT 10SM OVC015 06/02 A2955 RMK AO2 SLP005 T00560022 53008=
201512231353 METAR KBFI 231353Z 17009KT 110V210 10SM BKN015 OVC020 06/02 A2953 RMK AO2 SLP001 T00560022 $=
201512231253 METAR KBFI 231253Z VRB05G14KT 10SM OVC018 06/02 A2954 RMK AO2 SLP001 T00560022 $=
201512231153 METAR KBFI 231153Z 14007G16KT 110V200 10SM BKN022 06/02 A2952 RMK AO2 SLP997 70012 T00560017 10061 20050 51021 $=
201512231053 METAR KBFI 231053Z VRB06KT 10SM BKN022 06/02 A2952 RMK AO2 SLP995 T00560017 $=
201512230953 METAR KBFI 230953Z 24008G18KT 10SM OVC022 06/02 A2950 RMK AO2 SLP990 T00560017 $=
201512230853 METAR KBFI 230853Z 23010G14KT 10SM SCT020 BKN090 06/05 A2946 RMK AO2 SLP977 T00560050 51018 $=
201512230753 METAR KBFI 230753Z 19006G14KT 10SM BKN020 OVC080 06/05 A2946 RMK AO2 SLP976 T00560050 400830011 $=
201512230653 METAR KBFI 230653Z 20010G22KT 10SM OVC018 06/05 A2943 RMK AO2 PK WND 16026/0629 SLP966 T00610050 $=
201512230553 METAR KBFI 230553Z 17016G23KT 10SM BKN017 OVC023 05/04 A2941 RMK AO2 PK WND 19026/0541 SLP959 60012 T00500044 10078 20039 58009 $=
201512230453 METAR KBFI 230453Z 16015G19KT 10SM BKN014 OVC021 04/04 A2943 RMK AO2 RAE18 SLP965 P0000 T00440044 $=
201512230353 METAR KBFI 230353Z 14012G23KT 10SM -RA OVC012 04/04 A2944 RMK AO2 SLP968 P0005 T00440039=
201512230253 METAR KBFI 230253Z 15007KT 10SM -RA SCT019 OVC027 05/04 A2944 RMK AO2 SLP968 P0006 60007 T00500044 55013=
201512230153 METAR KBFI 230153Z 17011G15KT 9SM -RA SCT028 OVC032 07/02 A2944 RMK AO2 RAB27 SLP968 P0001 T00670017=
201512230053 METAR KBFI 230053Z 12007KT 10SM SCT040 OVC100 08/01 A2944 RMK AO2 SLP969 T00780006=
201512222353 METAR KBFI 222353Z 15008KT 10SM FEW040 BKN110 07/02 A2947 RMK AO2 SLP981 T00720017 10083 20011 58027=
201512222253 METAR KBFI 222253Z 17007KT 10SM SCT026 BKN110 08/02 A2951 RMK AO2 SLP991 T00780022=
201512222153 METAR KBFI 222153Z 17009G15KT 10SM SCT026 BKN040 OVC110 08/02 A2952 RMK AO2 SLP997 T00780022=
201512222053 METAR KBFI 222053Z 18007KT 10SM SCT022 BKN039 BKN080 08/03 A2955 RMK AO2 SLP007 T00830028 58018=
201512221953 METAR KBFI 221953Z 18007KT 10SM SCT022 BKN039 BKN080 07/02 A2958 RMK AO2 SLP016 T00720022 $=
201512221853 METAR KBFI 221853Z 19007KT 10SM BKN016 OVC026 07/02 A2960 RMK AO2 SLP024 T00720022=
201512221753 METAR KBFI 221753Z 16008KT 10SM OVC026 06/02 A2961 RMK AO2 SLP025 60000 T00610022 10067 20044 53009=
201512221653 METAR KBFI 221653Z 14007KT 10SM BKN023 OVC027 06/02 A2959 RMK AO2 SLP019 T00560022=
201512221553 METAR KBFI 221553Z 15008KT 10SM FEW015 BKN025 04/02 A2958 RMK AO2 SLP015 T00440017=
201512221453 METAR KBFI 221453Z 14007KT 10SM BKN034 06/02 A2957 RMK AO2 SLP012 60000 T00560022 51010=
201512221353 METAR KBFI 221353Z 16009KT 10SM BKN032 04/02 A2956 RMK AO2 RAB12E21 SLP009 P0000 T00440017 $=
201512221253 METAR KBFI 221253Z 15007KT 10SM FEW022 OVC038 06/03 A2955 RMK AO2 SLP005 T00560028 $=
201512221228 SPECI KBFI 221228Z 16003KT 10SM FEW020 SCT024 OVC034 07/02 A2954 RMK AO2 $=
201512221153 METAR KBFI 221153Z 00000KT 10SM OVC020 07/02 A2954 RMK AO2 SLP002 60000 70076 T00670022 10072 20044 51022 $=
201512221123 SPECI KBFI 221123Z 00000KT 10SM BKN022 BKN029 06/02 A2953 RMK AO2 $=
201512221111 SPECI KBFI 221111Z 16004KT 10SM FEW018 SCT024 SCT041 06/02 A2952 RMK AO2 $=
201512221053 METAR KBFI 221053Z 22005KT 10SM BKN020 BKN027 OVC041 07/02 A2952 RMK AO2 RAE0959 SLP996 P0000 T00670022 $=
201512221023 SPECI KBFI 221023Z VRB03KT 10SM BKN020 OVC042 07/03 A2951 RMK AO2 RAE0959 P0000 $=
201512221000 SPECI KBFI 221000Z 00000KT 10SM FEW019 BKN040 OVC055 07/02 A2950 RMK AO2 RAE0959 P0000 $=
201512220953 METAR KBFI 220953Z 15004KT 10SM -RA BKN015 BKN025 07/02 A2949 RMK AO2 RAB49 SLP987 P0000 T00670022 $=
201512220853 METAR KBFI 220853Z 18003KT 10SM BKN015 BKN025 07/03 A2947 RMK AO2 SLP980 T00720028 53011 $=
201512220753 METAR KBFI 220753Z 19009KT 10SM BKN018 07/03 A2945 RMK AO2 SLP973 T00720033 400720039 $=
201512220653 METAR KBFI 220653Z AUTO 13004KT 10SM BKN012 OVC018 05/04 A2945 RMK AO2 SLP971 T00500039 TSNO $=
201512220553 METAR KBFI 220553Z AUTO 12005KT 10SM OVC014 04/04 A2944 RMK AO2 RAE0455 SLP969 P0000 60000 T00440039 10067 20039 58002 TSNO $=
201512220550 SPECI KBFI 220550Z AUTO 12007KT 10SM BKN014 OVC019 04/04 A2944 RMK AO2 RAE0455 P0000 TSNO $=
201512220526 SPECI KBFI 220526Z 11007KT 10SM SCT008 OVC021 04/03 A2944 RMK AO2 RAE0455 P0000 $=
201512220453 METAR KBFI 220453Z 11005KT 10SM -RA BKN006 OVC025 04/04 A2945 RMK AO2 RAB43 SLP973 P0000 T00440039 $=
201512220425 SPECI KBFI 220425Z 15010KT 10SM BKN006 OVC037 04/04 A2945 RMK AO2 $=
201512220353 METAR KBFI 220353Z 14011KT 10SM FEW006 OVC043 04/04 A2945 RMK AO2 RAE08 SLP971 P0000 T00440039 $=
201512220253 METAR KBFI 220253Z 13007KT 10SM -RA SCT017 SCT035 OVC055 06/06 A2943 RMK AO2 RAB48 SLP966 P0000 60000 T00560056 51040 $=
201512220213 SPECI KBFI 220213Z 15006KT 10SM FEW018 BKN055 OVC075 06/06 A2942 RMK AO2 $=
201512220153 METAR KBFI 220153Z 00000KT 10SM BKN018 BKN026 06/06 A2941 RMK AO2 SLP958 T00610061 $=
201512220053 METAR KBFI 220053Z VRB03KT 10SM BKN015 BKN022 OVC060 06/06 A2937 RMK AO2 RAE2355 SLP946 P0000 T00610061 $=
201512212353 METAR KBFI 212353Z 32008G15KT 9SM -RA BKN015 OVC019 06/06 A2931 RMK AO2 PRESRR SLP925 P0001 60048 T00610061 10067 20050 53057 $=
201512212253 METAR KBFI 212253Z 32006KT 8SM -RA BKN016 OVC023 06/06 A2923 RMK AO2 PRESRR SLP897 P0008 T00560056 $=
201512212153 METAR KBFI 212153Z 36010KT 4SM -RA BR SCT013 OVC018 05/05 A2917 RMK AO2 SLP876 P0017 T00500050 $=
201512212107 SPECI KBFI 212107Z 00000KT 1 3/4SM RA BR OVC016 06/06 A2915 RMK AO2 P0005 $=
201512212053 METAR KBFI 212053Z 00000KT 6SM RA SCT018 OVC023 06/ A2914 RMK AO2 SLP868 P0013 60022 T0061 56030 $=
201512211953 METAR KBFI 211953Z 04005KT 4SM -RA BR OVC026 07/06 A2915 RMK AO2 SLP869 P0005 T00670061=
201512211853 METAR KBFI 211853Z 04007KT 5SM -RA OVC034 07/M01 A2918 RMK AO2 PRESFR SLP880 P0004 T00671011=
201512211753 METAR KBFI 211753Z 07006KT 9SM -RA OVC038 06/M01 A2923 RMK AO2 SLP899 P0007 60028 T00611006 10067 20056 56067 $=
201512211725 SPECI KBFI 211725Z VRB05KT 7SM -RA OVC030 06/00 A2926 RMK AO2 P0005=
201512211653 METAR KBFI 211653Z 08005KT 6SM RA OVC027 07/M01 A2930 RMK AO2 SLP920 P0013 T00671006=
201512211553 METAR KBFI 211553Z 04003KT 7SM -RA OVC031 06/00 A2934 RMK AO2 PRESFR SLP935 P0005 T00610000=
201512211453 METAR KBFI 211453Z 10005KT 10SM -RA OVC031 07/00 A2943 RMK AO2 PRESFR SLP966 P0002 60003 T00670000 58065=
201512211353 METAR KBFI 211353Z 13004KT 10SM -RA FEW030 OVC040 06/00 A2951 RMK AO2 PRESFR SLP992 P0001 T00610000=
201512211253 METAR KBFI 211253Z 11005KT 10SM -RA FEW030 BKN050 OVC070 06/00 A2957 RMK AO2 SLP014 P0000 T00610000=
201512211153 METAR KBFI 211153Z AUTO 15006KT 10SM -RA FEW031 BKN049 OVC070 06/00 A2963 RMK AO2 SLP032 P0001 60010 70021 T00610000 10072 20061 58040=
201512211053 METAR KBFI 211053Z 14008KT 8SM -RA OVC037 06/00 A2968 RMK AO2 SLP049 P0002 T00610000=
201512210953 METAR KBFI 210953Z 15005KT 10SM -RA BKN021 OVC029 06/00 A2971 RMK AO2 SLP060 P0002 T00610000=
201512210853 METAR KBFI 210853Z 15006KT 10SM -RA BKN022 OVC030 06/00 A2974 RMK AO2 SLP071 P0002 60005 T00610000 56020=
201512210753 METAR KBFI 210753Z 14007KT 8SM -RA FEW013 BKN022 OVC034 06/00 A2977 RMK AO2 SLP079 P0003 T00610000 400940061=
201512210653 METAR KBFI 210653Z 17010G17KT 10SM -RA OVC015 07/00 A2978 RMK AO2 SLP083 P0000 T00670000=
201512210553 METAR KBFI 210553Z 15009KT 10SM -RA SCT029 SCT050 OVC120 06/00 A2980 RMK AO2 RAB52 SLP091 P0000 60000 T00610000 10083 20061 53003=
201512210453 METAR KBFI 210453Z 16009KT 10SM FEW020 SCT120 07/01 A2980 RMK AO2 SLP090 T00670006=
201512210353 METAR KBFI 210353Z 18010G18KT 130V210 10SM SCT020 SCT150 07/01 A2979 RMK AO2 SLP089 T00720006=
201512210253 METAR KBFI 210253Z 19009KT 10SM SCT020 BKN025 07/01 A2979 RMK AO2 SLP089 T00720006 51014=
201512210153 METAR KBFI 210153Z 17009KT 10SM SCT021 07/01 A2978 RMK AO2 SLP085 T00720006=
201512210053 METAR KBFI 210053Z 16012G17KT 10SM SCT021 BKN090 08/01 A2977 RMK AO2 SLP082 T00780006=
201512202353 METAR KBFI 202353Z 19012G22KT 10SM SCT021 BKN035 08/01 A2975 RMK AO2 SLP075 T00780006 10094 20072 53016=
201512202253 METAR KBFI 202253Z 19013G17KT 10SM SCT024 BKN030 08/01 A2973 RMK AO2 SLP067 T00830006=
201512202153 METAR KBFI 202153Z 19014G19KT 10SM BKN024 OVC030 09/01 A2972 RMK AO2 SLP065 T00890006=
201512202053 METAR KBFI 202053Z 18007KT 10SM SCT021 BKN030 BKN110 09/01 A2971 RMK AO2 SLP059 T00940006 50000=
201512201953 METAR KBFI 201953Z 18005KT 10SM BKN020 OVC025 08/00 A2971 RMK AO2 SLP061 T00830000=
201512201853 METAR KBFI 201853Z 18009G14KT 10SM BKN018 OVC032 08/00 A2972 RMK AO2 SLP062 T00830000=
201512201753 METAR KBFI 201753Z 18006G15KT 10SM FEW019 BKN032 08/00 A2971 RMK AO2 SLP059 60011 T00780000 10094 20067 53018=
201512201659 SPECI KBFI 201659Z 19015G21KT 10SM SCT029 BKN090 07/00 A2966 RMK AO2=
201512201653 METAR KBFI 201653Z COR 20013G21KT 10SM SCT029 BKN090 08/00 A2966 RMK AO2 PK WND 18027/1624 RAE06 SLP043 P0000 T00780000=
201512201553 METAR KBFI 201553Z 18014G25KT 10SM -RA BKN027 OVC038 08/00 A2965 RMK AO2 PK WND 19026/1532 SLP042 P0002 T00780000=
201512201453 METAR KBFI 201453Z 00000KT 7SM -RA SCT028 OVC032 07/00 A2965 RMK AO2 RAE11B31 SLP042 P0002 60009 T00720000 55000=
201512201353 METAR KBFI 201353Z 16007KT 10SM -RA OVC032 08/00 A2962 RMK AO2 SLP031 P0006 T00830000=
201512201253 METAR KBFI 201253Z 17008KT 10SM -RA OVC040 08/00 A2963 RMK AO2 SLP035 P0001 T00830000=
201512201153 METAR KBFI 201153Z 16012G21KT 9SM -RA OVC048 09/00 A2966 RMK AO2 SLP042 P0001 60006 70006 T00890000 10089 20067 58030=
201512201053 METAR KBFI 201053Z 17015G21KT 10SM -RA BKN055 OVC070 09/00 A2969 RMK AO2 SLP055 P0002 T00890000=
201512200953 METAR KBFI 200953Z 16016G22KT 10SM -RA OVC038 09/01 A2971 RMK AO2 SLP061 P0001 T00890006=
201512200853 METAR KBFI 200853Z 16013G22KT 10SM -RA BKN048 OVC070 09/00 A2974 RMK AO2 SLP072 P0001 60002 T00890000 58028=
201512200753 METAR KBFI 200753Z 14010KT 10SM -RA OVC050 08/00 A2978 RMK AO2 SLP083 P0001 T00780000 401000039=
201512200653 METAR KBFI 200653Z 14010KT 10SM -RA BKN050 BKN090 OVC110 07/01 A2981 RMK AO2 RAB03E19B48 SLP093 P0000 T00720006=
201512200553 METAR KBFI 200553Z 15008KT 10SM FEW040 BKN055 OVC075 07/01 A2983 RMK AO2 RAB36E45 SLP100 P0000 60000 T00720006 10094 20067 58011=
201512200453 METAR KBFI 200453Z 14009KT 10SM FEW044 BKN055 07/01 A2984 RMK AO2 RAB34E45 SLP106 P0000 T00720006=
201512200353 METAR KBFI 200353Z 14009KT 10SM SCT046 OVC070 08/01 A2985 RMK AO2 SLP109 T00780006=
201512200253 METAR KBFI 200253Z 14008KT 10SM SCT044 BKN070 BKN080 07/01 A2986 RMK AO2 SLP111 T00720006 58006=
201512200153 METAR KBFI 200153Z 16008KT 10SM SCT038 BKN048 OVC080 08/01 A2987 RMK AO2 SLP115 T00830006=
201512200053 METAR KBFI 200053Z 17011G18KT 10SM FEW035 BKN060 09/00 A2988 RMK AO2 SLP117 T00890000=
201512192353 METAR KBFI 192353Z 18006G16KT 10SM FEW038 OVC060 09/00 A2988 RMK AO2 SLP117 60000 T00940000 10100 20056 56004=
201512192253 METAR KBFI 192253Z 19008G15KT 150V220 10SM FEW012 BKN034 OVC060 09/01 A2988 RMK AO2 SLP117 T00940006=
201512192153 METAR KBFI 192153Z 16009KT 10SM SCT023 BKN055 09/01 A2988 RMK AO2 SLP117 T00940006=
201512192053 METAR KBFI 192053Z 16008KT 120V190 10SM SCT023 BKN055 09/01 A2989 RMK AO2 SLP121 60000 T00890011 58013=
201512191953 METAR KBFI 191953Z 14006KT 10SM FEW017 SCT046 BKN055 08/00 A2991 RMK AO2 RAE04 SLP127 P0000 T00780000=
201512191853 METAR KBFI 191853Z 14009KT 10SM -RA BKN039 BKN050 07/M01 A2992 RMK AO2 RAB45 SLP130 P0000 T00671006=
201512191753 METAR KBFI 191753Z 12007KT 10SM BKN041 06/00 A2993 RMK AO2 SLP133 T00560000 10061 20039 51010=
201512191653 METAR KBFI 191653Z 14007KT 10SM FEW017 SCT030 04/00 A2992 RMK AO2 SLP130 T00440000=
201512191553 METAR KBFI 191553Z 15009KT 10SM SCT026 BKN035 04/00 A2991 RMK AO2 SLP127 T00440000=
201512191533 SPECI KBFI 191533Z 15007KT 10SM BKN028 04/00 A2990 RMK AO2=
201512191506 SPECI KBFI 191506Z 14006KT 10SM FEW014 SCT023 OVC030 04/00 A2990 RMK AO2=
201512191453 METAR KBFI 191453Z 14007KT 10SM FEW014 BKN023 OVC030 05/00 A2990 RMK AO2 SLP123 T00500000 53006=
201512191353 METAR KBFI 191353Z 14008KT 10SM BKN020 06/00 A2989 RMK AO2 SLP119 T00610000=
201512191304 SPECI KBFI 191304Z 14007KT 10SM BKN020 OVC042 06/00 A2988 RMK AO2=
201512191253 METAR KBFI 191253Z 14007KT 10SM BKN038 BKN110 05/00 A2988 RMK AO2 SLP118 T00500000=
201512191153 METAR KBFI 191153Z 13006KT 10SM SCT036 BKN090 OVC110 06/00 A2988 RMK AO2 SLP116 60000 70022 T00560000 10067 20050 51006=
201512191053 METAR KBFI 191053Z 14008KT 10SM FEW018 SCT038 BKN070 06/00 A2987 RMK AO2 SLP115 T00560000=
201512190953 METAR KBFI 190953Z 14005KT 10SM OVC095 06/00 A2986 RMK AO2 SLP112 T00560000=
201512190853 METAR KBFI 190853Z 15005KT 10SM FEW047 OVC100 06/00 A2986 RMK AO2 SLP111 60000 T00560000 50000=
201512190753 METAR KBFI 190753Z 14009KT 10SM SCT048 OVC110 06/00 A2986 RMK AO2 RAE05 SLP112 P0000 T00560000 401060056=
201512190653 METAR KBFI 190653Z 14011KT 10SM -RA BKN060 OVC100 06/00 A2986 RMK AO2 RAB53 SLP111 P0000 T00610000=
201512190553 METAR KBFI 190553Z 13006KT 10SM BKN095 06/00 A2986 RMK AO2 SLP111 60016 T00610000 10078 20056 51001=
201512190453 METAR KBFI 190453Z 14007KT 10SM SCT040 06/00 A2986 RMK AO2 RAE08 SLP110 P0000 T00610000=
201512190353 METAR KBFI 190353Z 15005KT 10SM -RA OVC036 07/00 A2986 RMK AO2 SLP112 P0012 T00670000=
201512190253 METAR KBFI 190253Z 00000KT 7SM -RA BKN033 07/00 A2986 RMK AO2 SLP110 P0002 60004 T00720000 51008=
201512190153 METAR KBFI 190153Z 00000KT 10SM -RA OVC018 07/00 A2985 RMK AO2 RAB30 SLP108 P0002 T00720000=
201512190120 SPECI KBFI 190120Z 16007KT 10SM BKN022 BKN031 OVC039 07/00 A2985 RMK AO2=
201512190053 METAR KBFI 190053Z 14007KT 10SM SCT028 BKN048 07/00 A2984 RMK AO2 RAB06E15 SLP103 P0000 T00670000=
201512190000 SPECI KBFI 190000Z 15010KT 10SM BKN024 BKN031 08/00 A2983 RMK AO2=
201512182353 METAR KBFI 182353Z 16012G17KT 10SM SCT029 BKN050 08/00 A2983 RMK AO2 SLP102 60000 T00780000 10100 20072 52008=
201512182253 METAR KBFI 182253Z 17008KT 10SM SCT029 BKN050 08/00 A2982 RMK AO2 SLP098 T00830000=
201512182153 METAR KBFI 182153Z 17011KT 10SM BKN055 BKN075 OVC090 09/00 A2982 RMK AO2 SLP097 T00890000=
201512182053 METAR KBFI 182053Z 18008KT 10SM BKN055 BKN075 OVC090 08/01 A2981 RMK AO2 RAB33E42 SLP094 P0000 60000 T00830006 51025=
201512181953 METAR KBFI 181953Z AUTO 19011G22KT 10SM SCT014 BKN065 OVC080 08/00 A2979 RMK AO2 RAB22E33 SLP087 P0000 T00830000 TSNO=
201512181859 SPECI KBFI 181859Z 19011G17KT 10SM SCT014 BKN065 OVC080 09/M01 A2977 RMK AO2=
201512181853 METAR KBFI 181853Z 17009G18KT 10SM SCT014 BKN020 BKN080 09/M01 A2977 RMK AO2 SLP080 T00941006=
201512181753 METAR KBFI 181753Z COR 18012G21KT 10SM SCT014 BKN020 BKN080 10/M01 A2973 RMK AO2 SLP068 60006 T01001006 10106 20078 53037=
201512181653 METAR KBFI 181653Z 19009KT 10SM BKN020 OVC120 10/00 A2968 RMK AO2 SLP050 T01000000=
201512181553 METAR KBFI 181553Z 19009G16KT 10SM BKN017 OVC032 09/00 A2965 RMK AO2 SLP040 T00940000=
201512181453 METAR KBFI 181453Z 20010KT 10SM SCT010 BKN040 09/00 A2963 RMK AO2 RAB1354E32 SLP032 P0005 60006 T00890000 51038 $=
201512181353 METAR KBFI 181353Z 19007KT 9SM SCT017 OVC050 10/00 A2960 RMK AO2 RAB30E39 SLP022 P0000 T01000000 $=
201512181253 METAR KBFI 181253Z COR 15012KT 10SM FEW015 08/00 A2955 RMK AO2 SLP007 P0001 T00830000 $=
201512181153 METAR KBFI 181153Z 14012KT 10SM FEW024 BKN085 BKN100 08/00 A2951 RMK AO2 RAE02B43E53 SLP994 P0000 60045 70114 T00780000 10083 20056 53022 $=
201512181053 METAR KBFI 181053Z AUTO 15010KT 10SM -RA BKN048 08/00 A2948 RMK AO2 SLP983 P0006 T00830000 TSNO $=
201512180953 METAR KBFI 180953Z 14010KT 4SM RA SCT029 OVC041 07/00 A2945 RMK AO2 SLP974 P0022 T00670000 $=
201512180928 SPECI KBFI 180928Z 14009KT 4SM RA FEW026 SCT033 OVC041 07/00 A2944 RMK AO2 P0012 $=
201512180904 SPECI KBFI 180904Z 10005KT 5SM -RA BKN025 OVC034 07/00 A2944 RMK AO2 P0002 $=
201512180853 METAR KBFI 180853Z 13006KT 6SM -RA SCT025 BKN035 OVC043 07/00 A2945 RMK AO2 SLP972 P0004 60017 T00670000 58034 $=
201512180839 SPECI KBFI 180839Z 11006KT 10SM -RA SCT025 BKN035 OVC055 07/00 A2945 RMK AO2 PRESFR P0001 $=
201512180753 METAR KBFI 180753Z 11005KT 8SM -RA BKN027 BKN031 OVC043 06/00 A2949 RMK AO2 SLP987 P0003 T00610000 400830039 $=
201512180719 SPECI KBFI 180719Z 13008KT 9SM -RA BKN027 OVC060 06/00 A2952 RMK AO2 P0001 $=
201512180700 SPECI KBFI 180700Z 13010KT 10SM -RA BKN055 OVC070 06/00 A2952 RMK AO2 P0000 $=
201512180653 METAR KBFI 180653Z 13011KT 8SM -RA BKN028 OVC044 06/M04 A2952 RMK AO2 SLP996 P0010 T00561044 $=
201512180553 METAR KBFI 180553Z 13011KT 7SM -RA BKN028 OVC042 06/00 A2955 RMK AO2 SLP005 P0009 60046 T00610000 10067 20056 58020 $=
201512180453 METAR KBFI 180453Z 13007KT 6SM -RA FEW024 BKN028 OVC044 06/00 A2957 RMK AO2 SLP014 P0008 T00610000 $=
201512180353 METAR KBFI 180353Z 13005KT 6SM -RA OVC026 06/00 A2959 RMK AO2 SLP020 P0009 T00610000 $=
201512180253 METAR KBFI 180253Z 12007KT 6SM -RA OVC022 06/01 A2961 RMK AO2 SLP025 P0008 60020 T00560006 58019 $=
201512180153 METAR KBFI 180153Z 13009KT 6SM -RA SCT020 BKN025 OVC030 06/01 A2962 RMK AO2 SLP031 P0004 T00560006 $=
201512180100 SPECI KBFI 180100Z 13006KT 3SM -RA BKN017 OVC023 06/01 A2965 RMK AO2 P0001 $=
201512180053 METAR KBFI 180053Z 12007KT 3SM -RA OVC013 06/01 A2966 RMK AO2 SLP043 P0008 T00560006 $=
201512172353 METAR KBFI 172353Z 14005KT 3SM -RA OVC013 06/01 A2966 RMK AO2 SLP044 P0001 60011 T00560006 10061 20056 58026 $=
201512172253 METAR KBFI 172253Z 13008KT 3SM -RA BKN013 OVC027 06/01 A2968 RMK AO2 SLP050 P0000 T00560006 $=
201512172153 METAR KBFI 172153Z 13012KT 3SM -RA BKN013 OVC027 06/01 A2972 RMK AO2 SLP063 P0001 T00560006 $=
201512172150 SPECI KBFI 172150Z 13011KT 2 1/2SM -RA BKN013 OVC027 06/01 A2972 RMK AO2 P0001 $=
201512172053 METAR KBFI 172053Z 14012KT 4SM -RA OVC027 06/01 A2974 RMK AO2 SLP069 P0002 60009 T00560006 58022 $=
201512172013 SPECI KBFI 172013Z 13010KT 4SM -RA OVC029 06/00 A2975 RMK AO2 P0001 $=
201512171953 METAR KBFI 171953Z 13009KT 10SM -RA OVC031 06/00 A2976 RMK AO2 SLP078 P0004 T00560000 $=
201512171853 METAR KBFI 171853Z 12010G15KT 9SM -RA OVC035 06/00 A2978 RMK AO2 SLP085 P0003 T00560000=
201512171753 METAR KBFI 171753Z 13010KT 8SM -RA OVC037 06/00 A2980 RMK AO2 SLP091 P0005 60012 T00560000 10083 20056 58009=
201512171653 METAR KBFI 171653Z 13009KT 7SM -RA OVC039 06/00 A2981 RMK AO2 SLP095 P0005 T00560000=
201512171553 METAR KBFI 171553Z 13011KT 10SM -RA OVC041 07/00 A2982 RMK AO2 RAB09 SLP097 P0002 T00670000=
201512171453 METAR KBFI 171453Z 13007KT 10SM OVC060 08/00 A2983 RMK AO2 SLP100 T00780000 56034=
201512171353 METAR KBFI 171353Z 00000KT 10SM OVC048 06/00 A2985 RMK AO2 SLP108 T00610000=
201512171253 METAR KBFI 171253Z 31004KT 10SM OVC060 07/M01 A2988 RMK AO2 SLP118 T00671006=
201512171153 METAR KBFI 171153Z 00000KT 10SM OVC070 06/00 A2993 RMK AO2 SLP133 70005 T00560000 10056 20039 58030=
201512171053 METAR KBFI 171053Z 00000KT 10SM OVC090 05/00 A2997 RMK AO2 SLP148 T00500000=
201512170953 METAR KBFI 170953Z 00000KT 10SM BKN100 OVC120 04/00 A2999 RMK AO2 SLP155 T00440000=
201512170853 METAR KBFI 170853Z 00000KT 10SM BKN046 BKN055 OVC120 05/00 A3002 RMK AO2 SLP164 T00500000 58027=
201512170753 METAR KBFI 170753Z 00000KT 10SM CLR 04/00 A3005 RMK AO2 SLP174 T00440000 400780028=
201512170653 METAR KBFI 170653Z 00000KT 10SM FEW055 04/00 A3007 RMK AO2 SLP183 T00440000=
201512170553 METAR KBFI 170553Z 14003KT 10SM CLR 04/00 A3010 RMK AO2 SLP190 T00390000 10067 20028 58019=
201512170453 METAR KBFI 170453Z 00000KT 10SM CLR 04/00 A3014 RMK AO2 SLP204 T00440000=
201512170353 METAR KBFI 170353Z 12003KT 10SM CLR 04/00 A3014 RMK AO2 SLP204 T00440000=
201512170253 METAR KBFI 170253Z 15003KT 10SM SCT250 03/00 A3015 RMK AO2 SLP209 T00330000 58018=
201512170153 METAR KBFI 170153Z 00000KT 10SM FEW025 SCT250 04/00 A3017 RMK AO2 SLP217 T00440000=
201512170053 METAR KBFI 170053Z 00000KT 10SM FEW020 SCT160 BKN250 06/00 A3019 RMK AO2 SLP224 T00610000=
201512162353 METAR KBFI 162353Z 07003KT 10SM SCT018 BKN210 07/01 A3020 RMK AO2 SLP227 T00670006 10078 20061 56017=
201512162253 METAR KBFI 162253Z 10003KT 10SM CLR 07/01 A3021 RMK AO2 SLP231 T00720006=
201512162153 METAR KBFI 162153Z AUTO 00000KT 10SM CLR 07/01 A3023 RMK AO2 SLP237 T00720006 TSNO=
201512162053 METAR KBFI 162053Z VRB04KT 10SM SCT019 OVC036 07/00 A3025 RMK AO2 SLP243 T00720000 58003=
201512161953 METAR KBFI 161953Z 00000KT 10SM SCT019 BKN025 BKN040 07/M01 A3025 RMK AO2 SLP243 T00671006=
201512161853 METAR KBFI 161853Z 00000KT 10SM SCT014 BKN021 BKN028 07/00 A3026 RMK AO2 SLP248 T00670000=
201512161818 SPECI KBFI 161818Z 14005KT 10SM FEW014 BKN027 OVC032 07/M01 A3026 RMK AO2=
201512161806 SPECI KBFI 161806Z 15004KT 10SM BKN014 BKN018 OVC031 06/00 A3026 RMK AO2=
201512161753 METAR KBFI 161753Z 14003KT 10SM SCT012 SCT019 BKN034 06/00 A3026 RMK AO2 SLP246 60005 T00610000 10067 20039 53012=
201512161653 METAR KBFI 161653Z 07005KT 10SM FEW024 BKN038 06/00 A3025 RMK AO2 RAB1557E49 SLP242 P0003 T00560000=
201512161553 METAR KBFI 161553Z 00000KT 10SM BKN024 BKN040 05/00 A3023 RMK AO2 SLP236 VCSH T00500000=
201512161453 METAR KBFI 161453Z 31006KT 10SM FEW020 SCT028 SCT038 05/00 A3022 RMK AO2 SLP234 60002 T00500000 51012=
201512161353 METAR KBFI 161353Z 31003KT 10SM BKN018 OVC025 07/00 A3022 RMK AO2 SLP232 T00670000=
201512161253 METAR KBFI 161253Z 00000KT 10SM BKN020 OVC027 07/00 A3021 RMK AO2 RAB09E33 SLP229 P0002 T00670000=
201512161153 METAR KBFI 161153Z VRB03KT 10SM SCT013 OVC027 07/00 A3019 RMK AO2 RAB19E33 SLP222 P0000 60010 70010 T00670000 10083 20067 53009=
201512161053 METAR KBFI 161053Z 35003KT 10SM FEW015 SCT025 OVC050 07/00 A3017 RMK AO2 RAE41 SLP217 P0002 T00720000=
201512160953 METAR KBFI 160953Z 00000KT 8SM -RA SCT020 OVC035 07/M01 A3017 RMK AO2 SLP214 P0002 T00721011=
201512160853 METAR KBFI 160853Z 00000KT 10SM -RA OVC032 07/00 A3016 RMK AO2 SLP212 P0004 60006 T00720000 58001=
201512160753 METAR KBFI 160753Z 00000KT 2 1/2SM -RA OVC008 08/00 A3017 RMK AO2 RAB09 SLP214 P0002 T00780000 400830006=
201512160719 SPECI KBFI 160719Z 25004KT 2 1/2SM -RA OVC008 08/00 A3017 RMK AO2 RAB09 P0000=
201512160653 METAR KBFI 160653Z 22003KT 10SM OVC011 08/00 A3017 RMK AO2 SLP215 T00830000=
201512160553 METAR KBFI 160553Z 14005KT 10SM OVC011 08/00 A3016 RMK AO2 SLP213 T00780000 10083 20067 58013=
201512160453 METAR KBFI 160453Z 16005KT 10SM OVC011 08/00 A3018 RMK AO2 SLP218 T00830000=
201512160353 METAR KBFI 160353Z 16008KT 10SM OVC014 08/00 A3019 RMK AO2 SLP222 T00780000=
201512160253 METAR KBFI 160253Z 15007KT 10SM OVC012 08/00 A3020 RMK AO2 SLP226 T00780000 58015=
201512160215 SPECI KBFI 160215Z 16008KT 10SM OVC014 07/00 A3020 RMK AO2=
201512160153 METAR KBFI 160153Z 15006KT 10SM OVC016 07/01 A3021 RMK AO2 SLP230 T00720006=
201512160053 METAR KBFI 160053Z 13007KT 10SM OVC016 07/00 A3024 RMK AO2 SLP238 T00670000=
201512152353 METAR KBFI 152353Z 14006KT 10SM BKN016 OVC026 07/00 A3024 RMK AO2 SLP240 T00670000 10067 20039 57020=
201512152253 METAR KBFI 152253Z 14006KT 10SM BKN018 OVC026 07/00 A3026 RMK AO2 SLP246 T00670000=
201512152153 METAR KBFI 152153Z 14007KT 10SM OVC029 06/00 A3028 RMK AO2 SLP254 T00610000=
201512152053 METAR KBFI 152053Z 16008KT 10SM SCT013 OVC029 06/02 A3030 RMK AO2 SLP260 T00560022 58014=
201512151953 METAR KBFI 151953Z 15009KT 10SM FEW011 BKN035 BKN070 06/02 A3032 RMK AO2 SLP266 T00560022=
201512151853 METAR KBFI 151853Z 17006KT 5SM BR SCT007 BKN040 05/03 A3034 RMK AO2 SLP274 T00500028=
201512151846 SPECI KBFI 151846Z 16006KT 5SM BR SCT007 BKN040 04/03 A3034 RMK AO2=
201512151753 METAR KBFI 151753Z 14007KT 4SM BR OVC005 04/03 A3034 RMK AO2 SLP274 T00390028 10044 20028 55001=
201512151751 SPECI KBFI 151751Z 13007KT 4SM BR OVC006 04/03 A3034 RMK AO2=
201512151653 METAR KBFI 151653Z 15007KT 1 1/2SM BR OVC002 03/02 A3034 RMK AO2 SLP273 T00330022=
201512151553 METAR KBFI 151553Z 14007KT 1SM BR VV002 03/02 A3034 RMK AO2 SLP272 T00280022=
201512151453 METAR KBFI 151453Z 15008KT 3/4SM BR VV002 03/02 A3035 RMK AO2 SLP275 T00280022 50001=
201512151439 SPECI KBFI 151439Z 14008KT 1/2SM FG VV002 03/02 A3035 RMK AO2=
201512151402 SPECI KBFI 151402Z 15006KT 1/4SM FG VV002 03/02 A3035 RMK AO2=
201512151353 METAR KBFI 151353Z 14007KT 1/2SM FG VV002 03/03 A3035 RMK AO2 SLP278 T00330028=
201512151340 SPECI KBFI 151340Z 15005KT 1/2SM FG VV002 04/03 A3035 RMK AO2=
201512151323 SPECI KBFI 151323Z 17007KT 1SM BR OVC003 04/03 A3035 RMK AO2=
201512151253 METAR KBFI 151253Z 12005KT 2SM BR OVC003 04/03 A3035 RMK AO2 SLP277 T00440028=
201512151227 SPECI KBFI 151227Z 13004KT 8SM OVC003 04/02 A3035 RMK AO2=
201512151153 METAR KBFI 151153Z 13004KT 9SM OVC005 03/02 A3034 RMK AO2 SLP274 60000 T00280017 10039 20006 53005=
201512151132 SPECI KBFI 151132Z 13006KT 9SM BKN005 OVC010 02/01 A3033 RMK AO2=
201512151114 SPECI KBFI 151114Z 14005KT 8SM BKN010 01/00 A3033 RMK AO2=
201512151053 METAR KBFI 151053Z 13003KT 7SM FEW010 01/00 A3033 RMK AO2 SLP269 T00110000=
201512150953 METAR KBFI 150953Z 15005KT 7SM FEW046 01/00 A3033 RMK AO2 SLP268 T00110000=
201512150853 METAR KBFI 150853Z 00000KT 10SM CLR 02/01 A3033 RMK AO2 SNE0754 SLP269 60000 T00220006 50008=
201512150753 METAR KBFI 150753Z 00000KT 10SM -SN FEW030 02/01 A3033 RMK AO2 SNB40 SLP269 P0000 T00220006 401000011=
201512150653 METAR KBFI 150653Z 00000KT 9SM BKN030 03/01 A3032 RMK AO2 SLP266 T00280011=
201512150553 METAR KBFI 150553Z 00000KT 9SM SCT025 SCT060 03/02 A3030 RMK AO2 SLP260 T00330017 10083 20022 53013=
201512150453 METAR KBFI 150453Z 15003KT 10SM FEW028 SCT060 03/01 A3028 RMK AO2 SLP254 T00280011=
201512150353 METAR KBFI 150353Z 00000KT 10SM BKN065 04/02 A3028 RMK AO2 SLP252 T00390017=
201512150253 METAR KBFI 150253Z 00000KT 10SM FEW050 05/02 A3026 RMK AO2 SLP247 T00500022 51020=
201512150153 METAR KBFI 150153Z 00000KT 10SM SCT050 07/02 A3024 RMK AO2 SLP241 T00720017=
201512150053 METAR KBFI 150053Z 00000KT 10SM SCT055 08/01 A3023 RMK AO2 SLP235 T00780011=
201512142353 METAR KBFI 142353Z 35008KT 10SM SCT030 09/01 A3021 RMK AO2 SLP228 T00890011 10100 20078 53013=
201512142253 METAR KBFI 142253Z 32008KT 10SM FEW030 SCT045 BKN070 09/02 A3019 RMK AO2 SLP222 T00890022=
201512142153 METAR KBFI 142153Z 30003KT 10SM FEW030 SCT045 BKN070 09/02 A3017 RMK AO2 SLP215 T00890022=
201512142129 SPECI KBFI 142129Z 18003KT 10SM FEW030 SCT045 BKN070 09/02 A3017 RMK AO2=
201512142053 METAR KBFI 142053Z COR 00000KT 10SM FEW030 SCT045 BKN070 09/02 A3017 RMK AO2 SLP215 T00890017 51011=
201512141953 METAR KBFI 141953Z 00000KT 10SM FEW025 SCT045 BKN070 08/02 A3016 RMK AO2 SLP213 T00830022=
201512141853 METAR KBFI 141853Z 00000KT 10SM FEW025 SCT045 BKN070 08/02 A3015 RMK AO2 SLP210 T00830022=
201512141753 METAR KBFI 141753Z 00000KT 10SM BKN049 08/03 A3014 RMK AO2 SLP204 T00780028 10078 20056 53029=
201512141653 METAR KBFI 141653Z 00000KT 10SM BKN047 07/03 A3011 RMK AO2 SLP194 T00670028=
201512141553 METAR KBFI 141553Z 00000KT 10SM BKN047 OVC070 07/02 A3007 RMK AO2 SLP183 T00720022=
201512141453 METAR KBFI 141453Z 13006KT 10SM FEW048 OVC060 07/03 A3005 RMK AO2 SLP175 T00670028 53023=
201512141414 SPECI KBFI 141414Z 11005KT 10SM SCT024 OVC044 07/03 A3004 RMK AO2=
201512141353 METAR KBFI 141353Z 07003KT 10SM OVC024 07/03 A3003 RMK AO2 SLP167 T00670033=
201512141253 METAR KBFI 141253Z 12003KT 10SM FEW020 OVC070 07/03 A3000 RMK AO2 SLP159 T00670028=
201512141153 METAR KBFI 141153Z 13004KT 10SM SCT035 OVC080 06/03 A2998 RMK AO2 SLP152 70006 T00560033 10078 20056 51023=
201512141053 METAR KBFI 141053Z 12004KT 10SM SCT020 BKN060 07/03 A2997 RMK AO2 SLP148 T00720033=
201512140953 METAR KBFI 140953Z 14005KT 10SM BKN020 06/04 A2994 RMK AO2 SLP138 T00610039=
201512140853 METAR KBFI 140853Z 08004KT 10SM BKN020 07/04 A2991 RMK AO2 SLP129 T00720044 53026=
201512140753 METAR KBFI 140753Z 09005KT 10SM BKN017 BKN023 OVC031 07/05 A2989 RMK AO2 SLP120 T00720050 401000072=
201512140653 METAR KBFI 140653Z 11005KT 10SM BKN021 07/05 A2986 RMK AO2 SLP111 T00720050=
201512140553 METAR KBFI 140553Z 14006KT 10SM OVC019 08/05 A2984 RMK AO2 RAE15 SLP103 P0000 60004 T00780050 10094 20078 51029=
201512140453 METAR KBFI 140453Z 14007KT 10SM -RA BKN025 OVC070 08/06 A2981 RMK AO2 RAE34B53 SLP094 P0001 T00780056=
201512140353 METAR KBFI 140353Z 08005KT 10SM -RA BKN019 OVC033 08/06 A2978 RMK AO2 RAB09 SLP085 P0001 T00830056=
201512140343 SPECI KBFI 140343Z 08005KT 9SM -RA BKN017 OVC033 08/06 A2978 RMK AO2 RAB09 P0001=
201512140253 METAR KBFI 140253Z 10003KT 10SM BKN033 OVC042 08/06 A2975 RMK AO2 RAE12 SLP074 P0000 60002 T00830061 51029=
201512140153 METAR KBFI 140153Z 00000KT 10SM -RA BKN028 OVC048 09/06 A2973 RMK AO2 SLP066 P0001 T00890061=
201512140053 METAR KBFI 140053Z 00000KT 10SM -RA SCT033 BKN040 OVC048 09/06 A2969 RMK AO2 SLP054 P0001 T00890056=
201512132353 METAR KBFI 132353Z 00000KT 10SM -RA SCT020 BKN028 OVC034 09/05 A2966 RMK AO2 RAB42 SLP044 P0000 60000 T00940050 10094 20083 53030=
201512132253 METAR KBFI 132253Z VRB06KT 10SM SCT024 BKN037 OVC090 09/04 A2963 RMK AO2 SLP032 T00890044=
201512132153 METAR KBFI 132153Z 19007G20KT 10SM BKN024 OVC028 09/04 A2960 RMK AO2 SLP023 T00890039=
201512132053 METAR KBFI 132053Z 18017G26KT 10SM SCT013 BKN020 OVC025 09/04 A2958 RMK AO2 PK WND 19029/2005 SLP015 T00890044 53004=
201512131953 METAR KBFI 131953Z 17011G28KT 10SM BKN020 BKN075 OVC090 09/04 A2956 RMK AO2 PK WND 17029/1922 SLP010 T00890044=
201512131853 METAR KBFI 131853Z 18015G26KT 10SM SCT025 BKN030 BKN120 09/04 A2957 RMK AO2 PK WND 19027/1812 SLP012 T00890044=
201512131753 METAR KBFI 131753Z 18012G22KT 10SM BKN025 OVC035 08/04 A2956 RMK AO2 PK WND 17028/1743 RAB1659E10 SLP010 P0000 60002 T00830044 10089 20078 53007=
201512131653 METAR KBFI 131653Z 16013G21KT 10SM FEW027 OVC035 08/04 A2955 RMK AO2 PK WND 18029/1608 RAB16E37 SLP006 P0001 T00830044=
201512131553 METAR KBFI 131553Z 17017G23KT 10SM BKN025 OVC032 08/04 A2953 RMK AO2 RAB12E31 SLP000 P0000 T00830044=
201512131453 METAR KBFI 131453Z 17014G21KT 10SM BKN025 OVC032 09/04 A2954 RMK AO2 PK WND 16028/1354 SLP003 60001 T00890039 53023=
201512131408 SPECI KBFI 131408Z 18010G17KT 10SM BKN025 OVC031 09/04 A2952 RMK AO2 PK WND 16028/1354 PRESRR=
201512131353 METAR KBFI 131353Z 16016G26KT 10SM FEW030 BKN039 BKN050 09/04 A2950 RMK AO2 PK WND 17030/1300 SLP988 T00890044=
201512131324 SPECI KBFI 131324Z 17013G23KT 10SM FEW030 BKN039 BKN050 09/04 A2949 RMK AO2 PK WND 17030/1300=
201512131317 SPECI KBFI 131317Z 18010G27KT 10SM BKN027 OVC032 09/04 A2949 RMK AO2 PK WND 17030/1300=
201512131253 METAR KBFI 131253Z 16016G23KT 10SM FEW030 BKN039 BKN050 08/04 A2948 RMK AO2 PK WND 17031/1218 RAB1159E49 SLP984 P0001 T00830044=
201512131153 METAR KBFI 131153Z 17019G29KT 10SM BKN038 08/04 A2947 RMK AO2 PK WND 16030/1054 RAE43 SLP980 P0001 60008 70061 T00830044 10100 20083 58004=
201512131053 METAR KBFI 131053Z 16026G33KT 7SM -RA FEW024 BKN030 BKN040 09/05 A2951 RMK AO2 PK WND 17033/1053 SLP992 P0002 T00890050=
201512130953 METAR KBFI 130953Z 17017G24KT 9SM -RA BKN030 09/05 A2947 RMK AO2 RAE12B50 SLP979 P0001 T00890050=
201512130853 METAR KBFI 130853Z 19013G19KT 10SM -RA FEW024 BKN032 09/05 A2949 RMK AO2 PK WND 17040/0836 RAB35 SLP984 P0001 60004 T00940050 53016=
201512130753 METAR KBFI 130753Z 20014G27KT 10SM FEW020 OVC060 10/04 A2946 RMK AO2 PK WND 19028/0743 SLP975 T01000044 401060067=
201512130653 METAR KBFI 130653Z 17016G24KT 10SM FEW027 SCT037 BKN045 09/06 A2944 RMK AO2 PK WND 20029/0638 RAE18 SLP968 P0003 T00940056=
201512130553 METAR KBFI 130553Z 19010G17KT 7SM -RA SCT020 OVC030 10/06 A2944 RMK AO2 PK WND 19027/0504 RAB02E18B49 SLP968 P0002 60008 T01000061 10106 20078 51023=
201512130453 METAR KBFI 130453Z 20011G20KT 10SM SCT020 BKN030 10/05 A2943 RMK AO2 PK WND 19031/0440 RAE03B40E52 SLP966 P0000 T01000050=
201512130353 METAR KBFI 130353Z 18011G23KT 8SM -RA FEW030 BKN035 BKN044 10/07 A2940 RMK AO2 PK WND 19036/0317 RAB0258 SLP955 P0001 T01000067=
201512130253 METAR KBFI 130253Z 18011G23KT 10SM FEW026 BKN035 11/07 A2937 RMK AO2 PK WND 16029/0242 RAE17 SLP945 P0000 60005 T01060067 56004=
201512130153 METAR KBFI 130153Z 17018G31KT 10SM -RA FEW017 SCT027 OVC034 10/07 A2937 RMK AO2 PK WND 17034/0143 RAB0057 SLP945 P0003 T01000067=
201512130053 METAR KBFI 130053Z 17019G25KT 10SM FEW017 SCT027 OVC034 09/07 A2936 RMK AO2 RAE42 SLP943 P0002 T00940067=
201512122353 METAR KBFI 122353Z 15006KT 8SM -RA FEW017 SCT027 OVC034 08/06 A2938 RMK AO2 SLP949 P0001 60042 T00830061 10083 20072 56049=
201512122253 METAR KBFI 122253Z 15004KT 5SM -RA BR SCT035 OVC041 08/06 A2939 RMK AO2 SLP952 P0004 T00780056=
201512122153 METAR KBFI 122153Z 13005KT 5SM -RA BR SCT014 OVC022 08/06 A2945 RMK AO2 PRESFR SLP971 P0010 T00780056=
201512122053 METAR KBFI 122053Z 14006KT 5SM -RA BR SCT014 OVC022 07/06 A2953 RMK AO2 PRESFR SLP998 P0013 60027 T00720056 58074=
201512122024 SPECI KBFI 122024Z 14005KT 4SM -RA BR SCT014 OVC022 07/06 A2958 RMK AO2 PRESFR P0007=
201512122007 SPECI KBFI 122007Z 14007KT 3SM -RA BR SCT022 OVC030 08/06 A2960 RMK AO2 PRESFR P0003=
201512121953 METAR KBFI 121953Z COR 16007KT 5SM -RA BR SCT022 OVC030 08/06 A2962 RMK AO2 SLP029 P0009 T00780056=
201512121853 METAR KBFI 121853Z 14010KT 6SM -RA BR OVC032 08/06 A2969 RMK AO2 PRESFR SLP054 P0005 T00780056=
201512121753 METAR KBFI 121753Z 15005KT 10SM -RA OVC042 08/06 A2975 RMK AO2 SLP072 P0001 60003 T00780056 10089 20067 56028=
201512121653 METAR KBFI 121653Z 13010KT 7SM -RA OVC042 08/05 A2977 RMK AO2 RAB10 SLP080 P0002 T00780050=
201512121553 METAR KBFI 121553Z 14007KT 10SM OVC044 08/06 A2979 RMK AO2 RAE24 SLP089 P0000 T00780056=
201512121453 METAR KBFI 121453Z 14006KT 10SM -RA OVC055 08/06 A2983 RMK AO2 RAB08E23B40 SLP101 P0000 60000 T00780056 58010=
201512121353 METAR KBFI 121353Z AUTO 17006KT 10SM BKN041 OVC050 09/05 A2984 RMK AO2 SLP103 T00890050 TSNO=
201512121253 METAR KBFI 121253Z 12006KT 10SM FEW016 BKN034 OVC055 08/06 A2985 RMK AO2 SLP109 T00780056=
201512121153 METAR KBFI 121153Z 14008KT 10SM SCT028 BKN049 07/06 A2986 RMK AO2 SLP111 T00720056 10083 20061 50005=
201512121053 METAR KBFI 121053Z 14007KT 10SM SCT025 BKN047 BKN065 07/06 A2988 RMK AO2 SLP117 T00720056=
201512120953 METAR KBFI 120953Z 14006KT 10SM SCT030 OVC038 07/06 A2986 RMK AO2 SLP110 T00720056=
201512120853 METAR KBFI 120853Z 14004KT 10SM OVC017 07/06 A2985 RMK AO2 SLP106 T00720056 51018=
201512120753 METAR KBFI 120753Z 00000KT 10SM BKN046 07/05 A2984 RMK AO2 SLP104 T00670050 401170056=
201512120710 SPECI KBFI 120710Z 00000KT 10SM BKN013 OVC049 08/06 A2982 RMK AO2=
201512120653 METAR KBFI 120653Z 00000KT 10SM BKN047 08/06 A2982 RMK AO2 SLP096 T00780056=
201512120553 METAR KBFI 120553Z 00000KT 10SM BKN043 07/05 A2979 RMK AO2 SLP088 60000 T00720050 10106 20067 53016=
201512120453 METAR KBFI 120453Z AUTO 00000KT 10SM BKN060 08/05 A2977 RMK AO2 SLP081 T00830050=
201512120353 METAR KBFI 120353Z 00000KT 10SM OVC048 09/06 A2976 RMK AO2 RAE0254 SLP078 T00940056=
201512120253 METAR KBFI 120253Z 00000KT 10SM -RA FEW039 SCT048 OVC080 09/06 A2975 RMK AO2 RAB09 SLP073 P0000 60000 T00940056 53027=
201512120153 METAR KBFI 120153Z 00000KT 10SM SCT050 OVC060 10/05 A2972 RMK AO2 SLP063 T01000050=
201512120053 METAR KBFI 120053Z 00000KT 10SM SCT055 OVC075 09/05 A2969 RMK AO2 RAB36E47 SLP053 P0000 T00940050=
201512112353 METAR KBFI 112353Z 00000KT 10SM BKN060 OVC090 11/05 A2967 RMK AO2 SLP045 T01060050 10117 20083 53023=
201512112253 METAR KBFI 112253Z 32004KT 10SM FEW070 BKN100 11/04 A2964 RMK AO2 SLP035 T01110039=
201512112153 METAR KBFI 112153Z 32006KT 10SM BKN100 11/04 A2961 RMK AO2 SLP025 T01110044=
201512112053 METAR KBFI 112053Z COR 33005KT 10SM BKN100 11/06 A2960 RMK AO2 SLP022 T01060061 50001=
201512111953 METAR KBFI 111953Z 32006KT 10SM FEW085 OVC100 10/06 A2960 RMK AO2 SLP023 T01000056 $=
201512111853 METAR KBFI 111853Z 00000KT 10SM BKN110 09/06 A2960 RMK AO2 SLP023 T00890056 $=
201512111753 METAR KBFI 111753Z 00000KT 10SM BKN095 OVC110 08/05 A2959 RMK AO2 SLP021 T00830050 10083 20056 52008 $=
201512111653 METAR KBFI 111653Z 00000KT 10SM FEW055 SCT080 BKN200 07/06 A2959 RMK AO2 SLP018 T00720056 $=
201512111553 METAR KBFI 111553Z 00000KT 10SM OVC085 07/05 A2958 RMK AO2 SLP015 T00720050 $=
201512111453 METAR KBFI 111453Z 00000KT 10SM FEW055 BKN075 07/06 A2957 RMK AO2 SLP012 T00720056 53011 $=
201512111353 METAR KBFI 111353Z 00000KT 10SM BKN060 06/04 A2955 RMK AO2 SLP007 T00610044 $=
201512111253 METAR KBFI 111253Z 00000KT 10SM BKN075 06/04 A2954 RMK AO2 SLP004 T00610044 $=
201512111153 METAR KBFI 111153Z 00000KT 10SM BKN070 OVC090 06/04 A2954 RMK AO2 SLP001 60001 70059 T00610044 10094 20061 51014 $=
201512111053 METAR KBFI 111053Z 00000KT 10SM FEW090 07/04 A2953 RMK AO2 SLP999 T00670044 $=
201512110953 METAR KBFI 110953Z 14003KT 10SM SCT045 BKN070 BKN095 07/05 A2951 RMK AO2 RAB19E41 SLP992 P0000 T00720050 $=
201512110853 METAR KBFI 110853Z 12005KT 10SM FEW041 BKN049 OVC075 08/06 A2949 RMK AO2 RAE45 SLP987 P0001 60001 T00780056 51009 $=
201512110753 METAR KBFI 110753Z 15004KT 10SM -RA SCT042 OVC050 08/05 A2949 RMK AO2 RAB08E19B38 SLP987 P0000 T00780050 401330067 $=
201512110653 METAR KBFI 110653Z 18009G16KT 10SM SCT055 BKN090 09/04 A2948 RMK AO2 SLP982 T00940039 $=
201512110553 METAR KBFI 110553Z 14012KT 10SM SCT075 08/04 A2947 RMK AO2 SLP978 60010 T00780044 10106 20072 51014 $=
201512110453 METAR KBFI 110453Z 16012G18KT 10SM SCT075 BKN085 09/04 A2946 RMK AO2 SLP975 T00890044 $=
201512110353 METAR KBFI 110353Z 14011KT 10SM FEW055 SCT110 08/04 A2945 RMK AO2 SLP972 T00830044 $=
201512110253 METAR KBFI 110253Z 16015G21KT 10SM CLR 09/04 A2943 RMK AO2 SLP965 P0001 60010 T00940039 $=
201512110153 METAR KBFI 110153Z 17011G15KT 140V210 10SM 09/06 A2941 RMK AO2 SLP957 P0004 T00940056 $=
201512110053 METAR KBFI 110053Z 17006KT 10SM -RA SCT039 BKN047 BKN070 10/06 A2939 RMK AO2 SLP952 P0005 T01000056=
201512102353 METAR KBFI 102353Z 17010G18KT 10SM -RA FEW041 SCT060 BKN080 11/06 A2937 RMK AO2 PK WND 17029/2256 SLP946 P0002 60030 T01060056 10111 20094 51031=
201512102253 METAR KBFI 102253Z 17013G23KT 10SM -RA FEW041 SCT060 BKN080 11/06 A2935 RMK AO2 PK WND 17038/2223 TSB17E32RAB02 SLP938 P0000 T01110056=
201512102233 SPECI KBFI 102233Z 16019G33KT 10SM -RA FEW039 BKN049 OVC070 11/05 A2935 RMK AO2 PK WND 17038/2223 TSB17E32RAB02 P0000=
201512102222 SPECI KBFI 102222Z 18019G30KT 9SM -TSRA FEW039 BKN047 OVC070 11/06 A2935 RMK AO2 PK WND 18030/2222 TSB17RAB02 PRESRR P0000=
201512102153 METAR KBFI 102153Z 16016G24KT 10SM BKN049 OVC070 11/06 A2933 RMK AO2 PK WND 16032/2101 SLP930 T01110061=
201512102053 METAR KBFI 102053Z 16016G26KT 10SM FEW029 OVC044 11/07 A2928 RMK AO2 PK WND 15026/2050 RAE44 SLP915 P0006 60028 T01060067 52035=
201512101953 METAR KBFI 101953Z 16015G22KT 5SM -RA SCT021 BKN029 OVC034 10/07 A2925 RMK AO2 PK WND 16031/1859 SLP903 P0016 T01000072=
201512101853 METAR KBFI 101853Z 17019G31KT 6SM -RA BKN038 BKN045 OVC050 11/06 A2921 RMK AO2 PK WND 17036/1836 PRESRR SLP892 P0006 T01060061=
201512101753 METAR KBFI 101753Z COR 16017G24KT 7SM -RA BKN035 OVC040 11/06 A2918 RMK AO2 PK WND 15034/1709 SLP880 P0006 60018 T01110061 10117 20094 55004=
201512101653 METAR KBFI 101653Z 14014G22KT 10SM -RA BKN050 OVC070 11/05 A2914 RMK AO2 RAB05E16B44 SLP869 P0000 T01110050=
201512101553 METAR KBFI 101553Z 12005KT 10SM BKN060 OVC075 10/06 A2915 RMK AO2 SLP870 T01000056=
201512101453 METAR KBFI 101453Z 12007KT 10SM BKN060 OVC080 10/06 A2919 RMK AO2 RAE02 SLP884 P0000 60012 T01000061 58007=
201512101353 METAR KBFI 101353Z 13011KT 10SM -RA FEW040 BKN047 OVC070 11/07 A2922 RMK AO2 RAE02B19 SLP896 P0003 T01060067=
201512101253 METAR KBFI 101253Z 11009KT 10SM -RA FEW036 OVC046 09/07 A2924 RMK AO2 SLP900 P0009 T00940072=
201512101153 METAR KBFI 101153Z 15010G21KT 8SM -RA OVC045 10/06 A2921 RMK AO2 SLP891 P0005 60005 70019 T01000061 10133 20067 56034=
201512101053 METAR KBFI 101053Z 17008G16KT 10SM -RA OVC055 13/03 A2923 RMK AO2 PK WND 14027/1014 RAB19 SLP897 P0000 T01280033=
201512100953 METAR KBFI 100953Z 12009KT 10SM OVC100 12/02 A2923 RMK AO2 SLP898 T01220017=
201512100853 METAR KBFI 100853Z 05004KT 10SM CLR 11/03 A2931 RMK AO2 PRESFR SLP925 T01060028 58102=
201512100753 METAR KBFI 100753Z 00000KT 10SM CLR 08/06 A2946 RMK AO2 PRESFR SLP975 T00830056 401440078=
201512100653 METAR KBFI 100653Z 00000KT 10SM CLR 08/05 A2950 RMK AO2 PRESFR SLP990 T00830050=
201512100553 METAR KBFI 100553Z 00000KT 10SM CLR 08/05 A2961 RMK AO2 PRESFR SLP027 60006 T00780050 10122 20078 58061=
201512100453 METAR KBFI 100453Z 00000KT 10SM CLR 09/06 A2970 RMK AO2 SLP058 T00890056=
201512100353 METAR KBFI 100353Z 14004KT 10SM CLR 09/06 A2976 RMK AO2 SLP077 T00890061=
201512100253 METAR KBFI 100253Z 15005KT 10SM SCT038 BKN055 09/07 A2979 RMK AO2 RAE0159 SLP088 P0000 60006 T00940067 58020=
201512100153 METAR KBFI 100153Z 12004KT 10SM RA SCT038 BKN055 OVC080 11/07 A2985 RMK AO2 RAB35 SLP106 P0006 T01060067=
201512100053 METAR KBFI 100053Z 16005KT 10SM SCT045 BKN055 BKN070 12/07 A2985 RMK AO2 RAE04B20E37 SLP107 P0000 T01170072=
201512092353 METAR KBFI 092353Z 17008KT 9SM -RA FEW013 BKN032 12/07 A2985 RMK AO2 RAB2259E06B25 SLP107 P0000 60001 T01220072 10133 20117 53005=
201512092253 METAR KBFI 092253Z 21012G16KT 10SM FEW013 SCT070 SCT150 13/06 A2984 RMK AO2 SLP103 T01280061=
201512092153 METAR KBFI 092153Z COR 19008G15KT 10SM FEW015 SCT042 BKN100 13/06 A2984 RMK AO2 SLP106 T01280056=
201512092053 METAR KBFI 092053Z 20007G16KT 10SM FEW015 SCT042 BKN100 12/06 A2983 RMK AO2 SLP102 60001 T01220061 51032=
201512091953 METAR KBFI 091953Z 20015G23KT 10SM SCT120 12/06 A2980 RMK AO2 PK WND 23028/1913 SLP091 T01220061=
201512091853 METAR KBFI 091853Z 21012G22KT 10SM FEW015 SCT030 BKN200 12/06 A2978 RMK AO2 PK WND 17029/1754 SLP084 P0001 T01220061=
201512091753 METAR KBFI 091753Z 20009G21KT 10SM SCT030 BKN055 12/07 A2974 RMK AO2 PK WND 19028/1709 PRESRR SLP070 60007 T01220072 10128 20106 53037=
201512091653 METAR KBFI 091653Z 19015G25KT 10SM SCT026 BKN033 12/07 A2969 RMK AO2 SLP053 T01170072=
201512091553 METAR KBFI 091553Z 18007G20KT 10SM SCT026 BKN034 BKN041 11/07 A2965 RMK AO2 PK WND 18026/1509 TSE1454RAE00B23E41 SLP041 P0000 T01110067=
201512091457 SPECI KBFI 091457Z 17014G20KT 10SM -RA FEW028 BKN040 BKN070 12/07 A2963 RMK AO2 TSE54 P0000=
201512091453 METAR KBFI 091453Z COR 19009G24KT 10SM -RA FEW024 SCT030 BKN040 11/07 A2963 RMK AO2 PK WND 29032/1430 WSHFT 1419 TSB33RAB27 SLP033 P0005 60007 T01110072 51033=
201512091437 SPECI KBFI 091437Z 21012G32KT 170V240 4SM VCTS -RA FEW026 BKN036 OVC060 11/07 A2963 RMK AO2 PK WND 29032/1430 WSHFT 1419 TSB33RAB27 LTGCCCG VIC W-NE P0004=
201512091353 METAR KBFI 091353Z 19010G19KT 10SM SCT034 12/08 A2960 RMK AO2 RAE1256 PRESRR SLP023 P0000 T01220078=
201512091253 METAR KBFI 091253Z 20012G25KT 10SM -RA SCT020 OVC050 11/07 A2958 RMK AO2 RAB11 SLP015 P0002 T01110072=
201512091153 METAR KBFI 091153Z 19015G24KT 10SM SCT013 BKN019 OVC065 12/08 A2953 RMK AO2 PK WND 22034/1101 RAE26 SLP000 P0007 60052 70174 T01220078 10144 20117 53025=
201512091053 METAR KBFI 091053Z 19011G20KT 6SM -RA SCT013 BKN019 OVC070 14/11 A2947 RMK AO2 SLP978 P0007 T01390106=
201512090953 METAR KBFI 090953Z 20014G30KT 6SM -RA SCT013 BKN019 OVC070 14/11 A2944 RMK AO2 PK WND 20030/0947 SLP969 P0013 T01390106=
201512090853 METAR KBFI 090853Z 17008KT 3SM RA BR SCT013 BKN019 OVC027 14/12 A2946 RMK AO2 SLP975 P0015 60025 T01390117 56015=
201512090753 METAR KBFI 090753Z 15010KT 8SM -RA BKN015 OVC060 14/12 A2946 RMK AO2 SLP976 P0006 T01390117 401720111=
201512090653 METAR KBFI 090653Z 16011KT 10SM -RA SCT013 BKN020 OVC075 13/12 A2948 RMK AO2 SLP982 P0004 T01330117=
201512090553 METAR KBFI 090553Z 16012G17KT 9SM -RA SCT009 BKN015 OVC021 13/12 A2950 RMK AO2 SLP990 P0007 60031 T01330117 10150 20133 56035=
201512090453 METAR KBFI 090453Z 16008KT 4SM -RA BR BKN009 OVC013 13/12 A2954 RMK AO2 SLP001 P0004 T01330122=
201512090353 METAR KBFI 090353Z 14005KT 8SM -RA FEW014 BKN017 OVC060 14/12 A2957 RMK AO2 SLP012 P0007 T01390122=
201512090253 METAR KBFI 090253Z VRB05KT 7SM -RA FEW014 BKN017 OVC060 14/12 A2961 RMK AO2 SLP025 P0006 60013 T01390122 56021=
201512090153 METAR KBFI 090153Z 17004KT 6SM -RA BR FEW008 BKN017 OVC080 14/12 A2963 RMK AO2 SLP032 P0005 T01440122=
201512090112 SPECI KBFI 090112Z 16006KT 10SM -RA SCT015 BKN020 OVC075 14/12 A2964 RMK AO2 P0001=
201512090053 METAR KBFI 090053Z 17006G17KT 10SM -RA SCT015 SCT046 OVC075 14/12 A2964 RMK AO2 SLP038 P0002 T01440122=
201512082353 METAR KBFI 082353Z 17010G15KT 10SM -RA SCT015 OVC070 15/12 A2967 RMK AO2 SLP046 P0003 60051 T01500122 10172 20150 55002=
201512082253 METAR KBFI 082253Z 19011KT 7SM -RA SCT015 OVC070 15/12 A2966 RMK AO2 SLP044 P0002 T01500122=
201512082153 METAR KBFI 082153Z 19013G19KT 10SM -RA BKN025 OVC050 16/13 A2967 RMK AO2 SLP045 P0006 T01560128=
201512082110 SPECI KBFI 082110Z 19010G21KT 6SM -RA SCT019 BKN048 OVC080 16/13 A2967 RMK AO2 P0002=
201512082053 METAR KBFI 082053Z 19015G22KT 5SM -RA BR SCT017 BKN024 OVC075 16/14 A2967 RMK AO2 SLP048 P0015 60040 T01610139 53002=
201512081953 METAR KBFI 081953Z 17012G18KT 4SM RA BR BKN012 OVC030 16/14 A2966 RMK AO2 SLP043 P0015 T01610139 $=
201512081925 SPECI KBFI 081925Z 18010G18KT 4SM -RA SCT009 BKN015 OVC050 16/13 A2966 RMK AO2 P0007=
201512081853 METAR KBFI 081853Z 17011G17KT 4SM RA FEW010 BKN015 OVC050 16/13 A2967 RMK AO2 PK WND 16029/1803 RAB02 SLP047 P0010 T01610133=
201512081753 METAR KBFI 081753Z 18016G26KT 10SM OVC020 17/14 A2967 RMK AO2 PK WND 16032/1732 SLP046 60040 T01720139 10172 20111 55005 $=
201512081653 METAR KBFI 081653Z 17017G28KT 10SM FEW010 BKN015 OVC020 16/14 A2966 RMK AO2 PK WND 17028/1644 RAE30 SLP042 P0001 T01610139 $=
201512081553 METAR KBFI 081553Z 16010KT 10SM -RA SCT009 OVC013 14/13 A2967 RMK AO2 SLP048 P0003 T01440128 $=
201512081453 METAR KBFI 081453Z 14008KT 4SM -RA BR SCT009 OVC013 13/12 A2968 RMK AO2 SLP050 P0006 60036 T01280117 58019 $=
201512081415 SPECI KBFI 081415Z 15008KT 10SM -RA SCT009 BKN015 OVC020 13/12 A2969 RMK AO2 P0001 $=
201512081353 METAR KBFI 081353Z 14010KT 3SM -RA BR OVC013 12/12 A2971 RMK AO2 SLP061 P0008 T01220117 $=
201512081253 METAR KBFI 081253Z 15007KT 4SM -RA BR OVC026 11/11 A2974 RMK AO2 SLP069 P0022 T01110111 $=
201512081248 SPECI KBFI 081248Z 15004KT 3SM RA BR OVC028 12/11 A2974 RMK AO2 P0021 $=
201512081238 SPECI KBFI 081238Z 13008KT 2 1/2SM RA BR BKN028 OVC032 12/12 A2974 RMK AO2 P0019 $=
201512081231 SPECI KBFI 081231Z 12003KT 3SM RA BR OVC028 12/12 A2975 RMK AO2 P0014 $=
201512081153 METAR KBFI 081153Z 15007KT 5SM -RA BR OVC036 12/12 A2977 RMK AO2 SLP079 P0007 60022 70125 T01170117 10133 20100 58033 $=
201512081053 METAR KBFI 081053Z 14009KT 7SM -RA OVC050 12/11 A2982 RMK AO2 SLP097 P0004 T01220111 $=
201512080953 METAR KBFI 080953Z 17011KT 10SM -RA OVC070 13/11 A2986 RMK AO2 RAB02 SLP111 P0001 T01330111 $=
201512080853 METAR KBFI 080853Z 15008KT 10SM SCT028 OVC110 13/11 A2986 RMK AO2 RAE38 SLP112 P0007 60010 T01280111 50001 $=
201512080753 METAR KBFI 080753Z 17008KT 140V210 5SM -RA BR BKN013 OVC025 13/11 A2989 RMK AO2 SLP121 P0001 T01330111 401330100 $=
201512080704 SPECI KBFI 080704Z 17012G16KT 3SM -RA BR SCT013 OVC026 13/12 A2986 RMK AO2 P0000 $=
201512080703 SPECI KBFI 080703Z 17009G16KT 3SM -RA BR SCT013 OVC026 13/12 A2986 RMK AO2 P0000 $=
201512080653 METAR KBFI 080653Z 16010KT 2SM -RA BR SCT013 OVC026 13/12 A2986 RMK AO2 RAB16 SLP111 P0002 T01280117 $=
201512080650 SPECI KBFI 080650Z 17009G16KT 2SM -RA BR SCT013 OVC026 13/12 A2986 RMK AO2 RAB16 P0002 $=
201512080553 METAR KBFI 080553Z 14005KT 9SM SCT013 BKN026 OVC039 10/09 A2986 RMK AO2 RAE24 SLP111 P0002 60003 T01000094 10100 20100 51015 $=
201512080529 SPECI KBFI 080529Z 13008KT 8SM SCT005 OVC011 10/09 A2986 RMK AO2 RAE24 P0002 $=
201512080510 SPECI KBFI 080510Z 13007KT 3SM -RA BR BKN005 BKN009 OVC028 10/09 A2987 RMK AO2 P0002 $=
201512080500 SPECI KBFI 080500Z 13005KT 2 1/2SM -RA BR BKN005 OVC031 10/09 A2986 RMK AO2 P0001 $=
201512080453 METAR KBFI 080453Z 13006KT 3SM -RA BR BKN007 OVC025 10/08 A2986 RMK AO2 RAE01B42 SLP110 P0000 T01000083 $=
201512080353 METAR KBFI 080353Z 13003KT 8SM -RA BKN007 OVC012 10/09 A2984 RMK AO2 RAB22 SLP105 P0000 T01000089 $=
201512080322 SPECI KBFI 080322Z 12004KT 8SM -RA BKN007 OVC012 10/08 A2982 RMK AO2 RAB22 P0000 $=
201512080253 METAR KBFI 080253Z 00000KT 7SM SCT008 OVC014 10/09 A2982 RMK AO2 RAB02E28 SLP096 P0001 60001 T01000094 51039 $=
201512080153 METAR KBFI 080153Z 11003KT 10SM FEW007 OVC015 10/09 A2979 RMK AO2 SLP086 T01000089 $=
201512080053 METAR KBFI 080053Z 10003KT 10SM FEW005 BKN023 OVC035 10/09 A2974 RMK AO2 RAB32E42 SLP070 P0000 T01000089 $=
201512080005 SPECI KBFI 080005Z 00000KT 10SM BKN019 OVC090 10/09 A2971 RMK AO2 $=
201512072353 METAR KBFI 072353Z 00000KT 10SM FEW011 SCT070 OVC090 10/10 A2970 RMK AO2 RAE48 SLP057 P0006 60076 T01000100 10106 20100 53027 $=
201512072253 METAR KBFI 072253Z 06003KT 4SM RA BR FEW003 SCT007 OVC048 10/10 A2967 RMK AO2 SLP045 P0023 T01000100 $=
201512072153 METAR KBFI 072153Z 00000KT 4SM -RA BR FEW015 BKN040 OVC060 11/11 A2962 RMK AO2 SLP030 P0010 T01060106 $=
201512072053 METAR KBFI 072053Z 00000KT 3SM -RA BR FEW003 BKN040 OVC050 10/10 A2962 RMK AO2 SLP030 P0013 60037 T01000100 58035 $=
201512071953 METAR KBFI 071953Z 14004KT 5SM -RA BR SCT040 OVC047 10/10 A2966 RMK AO2 SLP043 P0013 T01000100=
201512071853 METAR KBFI 071853Z 13004KT 5SM -RA BR FEW017 SCT035 OVC048 10/10 A2971 RMK AO2 SLP059 P0011 T01000100=
201512071753 METAR KBFI 071753Z 14009KT 5SM -RA BR SCT019 OVC044 10/09 A2972 RMK AO2 SLP065 P0018 60024 T01000094 10122 20100 58005=
201512071653 METAR KBFI 071653Z 15008KT 4SM -RA BR BKN032 OVC048 10/08 A2974 RMK AO2 RAB05 SLP069 P0006 T01000083=
201512071553 METAR KBFI 071553Z 13007KT 10SM BKN032 OVC039 11/07 A2973 RMK AO2 SLP067 T01060067 $=
201512071453 METAR KBFI 071453Z 13005KT 10SM SCT039 SCT050 OVC060 10/06 A2974 RMK AO2 SLP071 T01000061 56014 $=
201512071353 METAR KBFI 071353Z 00000KT 10SM OVC047 11/05 A2975 RMK AO2 SLP073 T01110050 $=
201512071253 METAR KBFI 071253Z 16004KT 10SM BKN055 12/05 A2976 RMK AO2 SLP079 T01170050 $=
201512071153 METAR KBFI 071153Z 22003KT 10SM OVC065 12/04 A2978 RMK AO2 SLP084 60001 70036 T01220044 10128 20111 56017 $=
201512071053 METAR KBFI 071053Z 17012KT 10SM CLR 12/04 A2980 RMK AO2 SLP089 T01220044 $=
201512070953 METAR KBFI 070953Z 15009G18KT 10SM SCT042 BKN110 12/05 A2981 RMK AO2 RAB40E52 SLP093 P0000 T01170050 $=
201512070853 METAR KBFI 070853Z 17007G16KT 10SM SCT044 BKN070 BKN085 12/04 A2983 RMK AO2 RAE19 SLP101 P0000 60001 T01220044 53001 $=
201512070753 METAR KBFI 070753Z 17012G21KT 10SM -RA BKN044 OVC070 12/04 A2982 RMK AO2 RAE06B47 SLP099 P0000 T01220044 401500078 $=
201512070653 METAR KBFI 070653Z 18007KT 10SM -RA OVC070 12/09 A2983 RMK AO2 RAB23 SLP100 P0001 T01220089 $=
201512070553 METAR KBFI 070553Z 14007G18KT 10SM FEW050 BKN075 12/08 A2983 RMK AO2 RAE32 SLP100 P0003 60014 T01170083 10128 20111 58010 $=
201512070453 METAR KBFI 070453Z 16014G18KT 10SM -RA OVC043 12/09 A2985 RMK AO2 SLP107 P0002 T01220089 $=
201512070353 METAR KBFI 070353Z 14012KT 10SM -RA OVC044 12/08 A2985 RMK AO2 RAE23B39 SLP107 P0002 T01170083 $=
201512070253 METAR KBFI 070253Z 14008KT 9SM -RA OVC048 12/09 A2986 RMK AO2 SLP110 P0004 60007 T01170089 56012 $=
201512070153 METAR KBFI 070153Z 16011KT 10SM -RA OVC048 12/07 A2987 RMK AO2 SLP114 P0002 T01220067 $=
201512070053 METAR KBFI 070053Z 13010KT 10SM -RA OVC050 12/06 A2988 RMK AO2 SLP116 P0001 T01220061 $=
201512062353 METAR KBFI 062353Z 14011KT 10SM -RA OVC055 13/06 A2989 RMK AO2 RAB29 SLP122 P0001 60001 T01280061 10150 20111 55012 $=
201512062253 METAR KBFI 062253Z 16008KT 10SM BKN050 BKN070 OVC110 14/05 A2989 RMK AO2 SLP121 T01390050 $=
201512062153 METAR KBFI 062153Z 17013G20KT 10SM BKN050 OVC070 14/06 A2991 RMK AO2 RAE2059 SLP128 P0000 T01390056 $=
201512062053 METAR KBFI 062053Z 18013G22KT 10SM -RA BKN045 BKN060 14/08 A2993 RMK AO2 RAB37 SLP134 P0000 60000 T01440083 50012 $=
201512061953 METAR KBFI 061953Z 17015G23KT 10SM FEW025 BKN038 14/11 A2993 RMK AO2 SLP135 T01440111 $=
201512061853 METAR KBFI 061853Z 17012KT 10SM BKN022 BKN032 OVC039 13/11 A2993 RMK AO2 RAE04 SLP135 P0000 T01280106 $=
201512061753 METAR KBFI 061753Z 15010KT 10SM -RA SCT022 BKN038 OVC055 11/09 A2989 RMK AO2 SLP122 P0000 60020 T01110094 10111 20083 53042 $=
201512061743 SPECI KBFI 061743Z 14011KT 10SM SCT022 BKN038 OVC055 11/09 A2989 RMK AO2 RAE39 P0000 $=
201512061736 SPECI KBFI 061736Z 14010KT 10SM -RA SCT022 BKN027 OVC055 11/09 A2988 RMK AO2 P0000 $=
201512061653 METAR KBFI 061653Z 14011KT 10SM -RA SCT022 BKN038 OVC050 10/08 A2986 RMK AO2 SLP110 P0001 T01000083 $=
201512061553 METAR KBFI 061553Z 15010KT 10SM -RA SCT032 OVC060 09/08 A2980 RMK AO2 SLP091 P0002 T00890078 $=
201512061453 METAR KBFI 061453Z 14008KT 10SM -RA BKN033 OVC045 09/08 A2977 RMK AO2 SLP080 P0008 60017 T00890083 53005 $=
201512061353 METAR KBFI 061353Z 17003KT 10SM -RA OVC042 09/06 A2974 RMK AO2 SLP071 P0002 T00890060 $=
201512061253 METAR KBFI 061253Z 16008KT 9SM -RA OVC048 09/06 A2974 RMK AO2 SLP069 P0007 T00890060 $=
201512061153 METAR KBFI 061153Z 12005KT 8SM -RA OVC048 09/06 A2976 RMK AO2 SLP075 P0006 60027 70100 T00890060 10094 20078 58004 $=
201512061053 METAR KBFI 061053Z 13005KT 7SM -RA OVC050 09/06 A2977 RMK AO2 SLP082 P0007 T00890063 $=
201512060953 METAR KBFI 060953Z 14006KT 8SM -RA OVC044 09/06 A2977 RMK AO2 SLP080 P0004 T00890060 $=
201512060853 METAR KBFI 060853Z 16003KT 10SM -RA OVC055 09/09 A2977 RMK AO2 SLP080 P0002 60010 T00890089 58011 $=
201512060753 METAR KBFI 060753Z COR 00000KT 9SM -RA OVC048 09/06 A2979 RMK AO2 SLP087 P0005 T0089 401720067 $=
201512060653 METAR KBFI 060653Z 19003KT 10SM -RA OVC050 08/06 A2979 RMK AO2 SLP088 P0003 T00800060 $=
201512060553 METAR KBFI 060553Z 00000KT 7SM -RA OVC048 09/09 A2980 RMK AO2 SLP091 P0005 60021 T00940094 10094 20083 55004 $=
201512060453 METAR KBFI 060453Z 15005KT 10SM -RA OVC050 09/08 A2980 RMK AO2 SLP090 P0002 T00940078 $=
201512060353 METAR KBFI 060353Z 00000KT 8SM -RA OVC055 09/ A2981 RMK AO2 SLP094 P0006 T0089 $=
201512060253 METAR KBFI 060253Z 00000KT 9SM -RA OVC060 09/ A2981 RMK AO2 SLP094 P0003 60008 T0089 55008 $=
201512060153 METAR KBFI 060153Z 14004KT 10SM -RA OVC060 08/08 A2980 RMK AO2 SLP090 P0002 T00830078=
201512060053 METAR KBFI 060053Z 14006KT 10SM -RA OVC060 09/08 A2981 RMK AO2 SLP094 P0003 T00890078 $=
201512052353 METAR KBFI 052353Z 14004KT 9SM -RA OVC055 08/08 A2984 RMK AO2 SLP103 P0004 60046 T00830083 10089 20083 56029 $=
201512052253 METAR KBFI 052253Z 14006KT 10SM -RA OVC055 09/08 A2985 RMK AO2 SLP109 P0007 T00890078 $=
201512052153 METAR KBFI 052153Z 14006KT 10SM -RA OVC045 08/08 A2989 RMK AO2 SLP122 P0010 T00830083 $=
201512052053 METAR KBFI 052053Z 14005KT 7SM -RA OVC045 08/08 A2992 RMK AO2 SLP132 P0010 60025 T00830083 58021 $=
201512051953 METAR KBFI 051953Z AUTO 16004KT 9SM -RA BKN048 OVC055 09/09 A2994 RMK AO2 SLP138 P0006 T00890089 TSNO $=
201512051853 METAR KBFI 051853Z AUTO 00000KT 4SM -RA OVC042 08/ A2997 RMK AO2 SLP147 P0009 T0083 TSNO $=
201512051753 METAR KBFI 051753Z 10003KT 10SM -RA OVC040 09/06 A2998 RMK AO2 SLP152 P0006 60006 T00890061 10111 20067 58004=
201512051653 METAR KBFI 051653Z 14005KT 10SM -RA OVC048 10/02 A2999 RMK AO2 RAB35 SLP156 P0000 T01000017=
201512051553 METAR KBFI 051553Z 14005KT 10SM OVC070 09/02 A2999 RMK AO2 SLP154 T00940017=
201512051453 METAR KBFI 051453Z 14005KT 10SM SCT065 BKN080 OVC095 08/02 A2999 RMK AO2 SLP156 T00780022 56017=
201512051353 METAR KBFI 051353Z 14007KT 10SM BKN070 OVC085 08/02 A3001 RMK AO2 SLP162 T00830022=
201512051253 METAR KBFI 051253Z 14005KT 10SM FEW075 OVC095 08/02 A3002 RMK AO2 SLP166 T00780022=
201512051153 METAR KBFI 051153Z 15006KT 10SM BKN100 OVC110 07/02 A3005 RMK AO2 SLP174 70012 T00720022 10089 20067 58019=
201512051053 METAR KBFI 051053Z 13005KT 10SM SCT150 07/02 A3007 RMK AO2 SLP183 T00720022=
201512050953 METAR KBFI 050953Z 12004KT 10SM CLR 07/03 A3008 RMK AO2 SLP185 T00720028=
201512050853 METAR KBFI 050853Z 14004KT 10SM SCT055 07/03 A3010 RMK AO2 SLP193 T00670028 58008=
201512050753 METAR KBFI 050753Z 14008KT 10SM FEW055 08/03 A3012 RMK AO2 SLP200 T00780028 401170072=
201512050653 METAR KBFI 050653Z 14005KT 10SM SCT049 BKN065 BKN085 07/03 A3013 RMK AO2 SLP201 T00720028=
201512050553 METAR KBFI 050553Z 14004KT 10SM FEW055 SCT075 07/03 A3013 RMK AO2 SLP201 T00720033 10111 20072 51004=
201512050453 METAR KBFI 050453Z 14006KT 10SM BKN055 OVC070 09/04 A3012 RMK AO2 SLP200 T00890044=
201512050353 METAR KBFI 050353Z 14006KT 10SM BKN055 BKN070 BKN100 08/04 A3013 RMK AO2 SLP202 T00830039=
201512050253 METAR KBFI 050253Z 17007KT 10SM FEW050 09/04 A3011 RMK AO2 SLP197 T00940039 51016=
201512050153 METAR KBFI 050153Z 18008KT 10SM FEW050 10/04 A3011 RMK AO2 SLP197 T01000044=
201512050053 METAR KBFI 050053Z 18007G16KT 10SM FEW029 SCT038 BKN049 11/04 A3009 RMK AO2 SLP188 T01060044=
201512042353 METAR KBFI 042353Z 17010KT 10SM FEW029 SCT038 BKN049 12/05 A3007 RMK AO2 SLP181 P0001 60001 T01170050 10117 20106 53014=
201512042253 METAR KBFI 042253Z 19010G15KT 10SM BKN029 BKN039 BKN080 11/05 A3005 RMK AO2 RAB2158E43 SLP176 P0000 T01110050=
201512042153 METAR KBFI 042153Z 16008KT 10SM SCT016 BKN032 BKN090 11/06 A3003 RMK AO2 SLP170 T01110056=
201512042053 METAR KBFI 042053Z 17008KT 10SM FEW011 BKN080 BKN200 12/06 A3003 RMK AO2 RAB02E26 SLP167 P0000 60000 T01170061 51016=
201512041953 METAR KBFI 041953Z 18008G15KT 130V210 10SM SCT016 BKN060 BKN095 11/05 A3002 RMK AO2 SLP164 T01060050=
201512041853 METAR KBFI 041853Z 18011KT 10SM FEW016 BKN060 BKN095 11/06 A3001 RMK AO2 SLP160 T01060056=
201512041753 METAR KBFI 041753Z 17009KT 10SM FEW025 SCT090 10/06 A2998 RMK AO2 SLP151 60011 T01000056 10106 20078 51033=
201512041653 METAR KBFI 041653Z 15008KT 10SM BKN028 BKN085 09/05 A2996 RMK AO2 SLP144 T00890050=
201512041553 METAR KBFI 041553Z 14007KT 10SM OVC017 08/05 A2993 RMK AO2 SLP134 T00780050=
201512041514 SPECI KBFI 041514Z 14009KT 10SM BKN017 BKN035 BKN050 08/04 A2990 RMK AO2=
201512041453 METAR KBFI 041453Z 13009KT 10SM FEW120 08/04 A2988 RMK AO2 SLP118 60011 T00780044 53024=
201512041353 METAR KBFI 041353Z 15007KT 10SM SCT070 OVC095 08/06 A2986 RMK AO2 RAE41 SLP109 P0003 T00830056=
201512041253 METAR KBFI 041253Z 20006KT 4SM RA OVC044 09/06 A2983 RMK AO2 SLP102 P0008 T00940056=
201512041235 SPECI KBFI 041235Z VRB04KT 8SM -RA SCT015 SCT035 OVC048 09/06 A2983 RMK AO2 P0004=
201512041212 SPECI KBFI 041212Z 19007KT 10SM -RA SCT015 BKN027 OVC050 10/06 A2982 RMK AO2 P0002=
201512041153 METAR KBFI 041153Z 19006KT 10SM -RA SCT044 BKN055 OVC095 10/06 A2981 RMK AO2 RAB48 SLP094 P0000 60000 70022 T01000061 10111 20094 53025=
201512041053 METAR KBFI 041053Z 15008KT 10SM SCT021 09/06 A2978 RMK AO2 SLP085 T00940061=
201512040953 METAR KBFI 040953Z 16007KT 10SM OVC017 10/07 A2976 RMK AO2 SLP076 T01000067=
201512040853 METAR KBFI 040853Z 16006KT 10SM OVC019 11/06 A2974 RMK AO2 SLP069 T01060061 51024=
201512040753 METAR KBFI 040753Z 17007KT 10SM OVC021 10/07 A2972 RMK AO2 SLP063 T01000067 401560094=
201512040653 METAR KBFI 040653Z 00000KT 10SM OVC021 11/06 A2969 RMK AO2 SLP055 T01060061=
201512040553 METAR KBFI 040553Z VRB05G16KT 10SM BKN019 OVC095 11/07 A2966 RMK AO2 SLP045 60015 T01060067 10156 20106 51042=
201512040453 METAR KBFI 040453Z 18008KT 150V220 10SM BKN023 BKN027 11/07 A2963 RMK AO2 SLP033 T01110067=
201512040353 METAR KBFI 040353Z 15008KT 10SM SCT022 SCT120 11/07 A2958 RMK AO2 SLP016 T01060072=
201512040253 METAR KBFI 040253Z 16007KT 10SM FEW060 OVC100 11/07 A2954 RMK AO2 RAE41 SLP003 P0001 60015 T01060072 51036=
201512040153 METAR KBFI 040153Z 20005KT 10SM -RA FEW009 SCT038 OVC050 11/08 A2951 RMK AO2 SLP993 P0012 T01110078=
201512040100 SPECI KBFI 040100Z 24010KT 200V270 10SM -RA FEW007 BKN038 OVC048 13/08 A2948 RMK AO2 P0000=
201512040053 METAR KBFI 040053Z COR 24009G18KT 10SM -RA FEW007 BKN038 OVC048 13/08 A2947 RMK AO2 RAB2359 PRESRR SLP980 P0002 T01280083=
201512032353 METAR KBFI 032353Z 12009KT 10SM OVC060 14/06 A2943 RMK AO2 RAB10E39 SLP967 P0000 60001 T01390061 10144 20117 53008=
201512032253 METAR KBFI 032253Z 15006KT 10SM OVC060 13/06 A2940 RMK AO2 SLP957 T01330061=
201512032153 METAR KBFI 032153Z 13008KT 10SM OVC075 13/06 A2940 RMK AO2 RAE02 SLP956 P0000 T01330061=
201512032053 METAR KBFI 032053Z 10003KT 9SM -RA FEW050 OVC070 13/06 A2941 RMK AO2 RAB00E10B43 SLP958 P0001 60001 T01330061 58009=
201512031953 METAR KBFI 031953Z 14008KT 10SM BKN055 OVC080 13/06 A2943 RMK AO2 RAB16E27 SLP967 P0000 T01280056=
201512031853 METAR KBFI 031853Z 14005KT 10SM OVC070 12/06 A2945 RMK AO2 SLP971 T01220056=
201512031753 METAR KBFI 031753Z 14012G19KT 10SM BKN080 OVC100 12/05 A2944 RMK AO2 RAE01B21E42 SLP968 P0000 60006 T01170050 10117 20094 56029=
201512031653 METAR KBFI 031653Z 14011KT 10SM -RA BKN075 OVC100 11/06 A2945 RMK AO2 RAE03B44 SLP971 P0000 T01110056=
201512031553 METAR KBFI 031553Z 12012G21KT 10SM -RA SCT055 OVC080 10/07 A2950 RMK AO2 SLP990 P0002 T01000072=
201512031453 METAR KBFI 031453Z 16003KT 10SM -RA FEW055 OVC080 09/08 A2952 RMK AO2 SLP996 P0002 60004 T00940078 56022=
201512031353 METAR KBFI 031353Z 14010G14KT 10SM -RA BKN065 OVC080 11/08 A2953 RMK AO2 RAE21B41 SLP998 P0001 T01060078=
201512031253 METAR KBFI 031253Z 15010KT 10SM -RA OVC060 10/08 A2955 RMK AO2 SLP007 P0001 T01000078=
201512031153 METAR KBFI 031153Z COR 14011G19KT 10SM -RA SCT060 OVC075 10/08 A2959 RMK AO2 SLP019 P0003 60033 70033 T01000078 10117 20094 58037=
201512031053 METAR KBFI 031053Z 13012G19KT 8SM -RA OVC070 09/08 A2963 RMK AO2 SLP033 P0007 T00940078=
201512030953 METAR KBFI 030953Z 14010KT 7SM -RA OVC070 09/08 A2967 RMK AO2 SLP048 P0010 T00940078=
201512030853 METAR KBFI 030853Z 14007KT 6SM -RA BR BKN050 OVC070 09/07 A2970 RMK AO2 SLP056 P0010 60013 T00940072 58022=
201512030753 METAR KBFI 030753Z 13008KT 8SM -RA BKN055 OVC075 11/05 A2973 RMK AO2 SLP067 P0003 T01060050 401220056=
201512030653 METAR KBFI 030653Z 13011G21KT 10SM -RA SCT070 OVC090 12/02 A2974 RMK AO2 RAB36 SLP070 P0000 T01170022=
201512030553 METAR KBFI 030553Z 13011G19KT 10SM BKN065 BKN100 11/01 A2976 RMK AO2 SLP078 T01110011 10117 20100 58036=
201512030453 METAR KBFI 030453Z 13010G19KT 10SM BKN070 11/01 A2982 RMK AO2 SLP097 T01110011=
201512030353 METAR KBFI 030353Z 12009KT 10SM SCT049 OVC065 11/01 A2986 RMK AO2 SLP109 T01110011=
201512030253 METAR KBFI 030253Z 12008KT 10SM OVC050 11/02 A2987 RMK AO2 SLP113 T01110017 58019=
201512030153 METAR KBFI 030153Z 15007KT 10SM OVC048 11/02 A2990 RMK AO2 SLP123 T01110022=
201512030053 METAR KBFI 030053Z 13007KT 10SM OVC050 11/02 A2991 RMK AO2 SLP129 T01110022=
201512022353 METAR KBFI 022353Z 11010KT 10SM SCT045 OVC060 12/03 A2992 RMK AO2 SLP132 T01170028 10122 20083 58033=
201512022253 METAR KBFI 022253Z 14012KT 10SM SCT047 OVC055 12/03 A2996 RMK AO2 SLP143 T01170033=
201512022153 METAR KBFI 022153Z 14006KT 10SM BKN049 OVC060 12/04 A3000 RMK AO2 SLP158 T01170044=
201512022053 METAR KBFI 022053Z VRB03KT 10SM OVC046 11/04 A3002 RMK AO2 SLP165 T01110044 58014=
201512021953 METAR KBFI 021953Z 14003KT 10SM OVC045 10/04 A3005 RMK AO2 SLP174 T01000039=
201512021853 METAR KBFI 021853Z 16004KT 10SM FEW020 SCT038 BKN060 09/04 A3005 RMK AO2 SLP174 T00890039=
201512021753 METAR KBFI 021753Z 15005KT 10SM BKN031 OVC042 08/04 A3006 RMK AO2 SLP178 T00830044 10083 20056 53004=
201512021653 METAR KBFI 021653Z 00000KT 10SM BKN031 OVC038 07/04 A3005 RMK AO2 SLP176 T00720039=
201512021553 METAR KBFI 021553Z 00000KT 10SM SCT030 BKN050 07/04 A3004 RMK AO2 SLP171 T00670044=
201512021453 METAR KBFI 021453Z 16003KT 10SM SCT030 BKN042 06/03 A3005 RMK AO2 SLP175 T00610033 58000=
201512021353 METAR KBFI 021353Z 16005KT 10SM SCT020 OVC028 07/04 A3005 RMK AO2 SLP175 T00670039=
201512021253 METAR KBFI 021253Z 18003KT 10SM SCT020 BKN085 06/04 A3005 RMK AO2 SLP176 T00560039=
201512021153 METAR KBFI 021153Z 15006KT 4SM BR BKN011 OVC016 06/04 A3005 RMK AO2 RAE33 SLP175 P0001 60017 70042 T00610039 10067 20056 51012=
201512021053 METAR KBFI 021053Z 13007KT 6SM -RA BR BKN011 OVC016 06/04 A3004 RMK AO2 RAB07 SLP172 P0000 T00610039=
201512020953 METAR KBFI 020953Z 00000KT 4SM BR BKN011 OVC030 06/04 A3003 RMK AO2 RAE39 SLP168 P0001 T00610039=
201512020904 SPECI KBFI 020904Z 15004KT 3SM -RA BKN009 OVC024 06/03 A3002 RMK AO2 P0001=
201512020853 METAR KBFI 020853Z COR 15007KT 3SM -RA BKN009 OVC024 06/03 A3002 RMK AO2 RAE03B36 SLP164 P0001 60015 T00610033 55001=
201512020845 SPECI KBFI 020845Z 14009KT 4SM -RA BKN020 OVC032 07/03 A3002 RMK AO2 RAE03B36 P0001=
201512020753 METAR KBFI 020753Z 14011KT 10SM -RA FEW020 OVC034 06/03 A2999 RMK AO2 SLP156 P0004 T00560033 401170044=
201512020653 METAR KBFI 020653Z 11006KT 5SM -RA BKN021 BKN029 OVC034 06/03 A3002 RMK AO2 SLP165 P0010 T00610033=
201512020553 METAR KBFI 020553Z 15009KT 5SM -RA BR FEW025 BKN040 OVC048 06/04 A3001 RMK AO2 SLP162 P0008 60025 T00610039 10100 20056 53003=
201512020453 METAR KBFI 020453Z 13004KT 7SM -RA OVC044 06/04 A3001 RMK AO2 SLP161 P0005 T00610044=
201512020353 METAR KBFI 020353Z 13006KT 9SM -RA OVC055 07/03 A3000 RMK AO2 SLP159 P0005 T00670033=
201512020253 METAR KBFI 020253Z 14007KT 8SM -RA OVC055 07/02 A3000 RMK AO2 SLP159 P0007 60007 T00720022 58012=
201512020153 METAR KBFI 020153Z 16004KT 10SM -RA OVC055 08/01 A3002 RMK AO2 RAB43 SLP166 P0000 T00830011=
201512020053 METAR KBFI 020053Z 13005KT 10SM SCT055 BKN075 OVC085 09/M01 A3003 RMK AO2 SLP169 T00891006=
201512012353 METAR KBFI 012353Z VRB03KT 10SM SCT090 SCT110 10/M01 A3004 RMK AO2 SLP170 T01001006 10117 20083 55014=
201512012253 METAR KBFI 012253Z 12007KT 10SM BKN110 11/M01 A3003 RMK AO2 SLP170 T01111011=
201512012153 METAR KBFI 012153Z 13008KT 10SM SCT060 BKN100 BKN250 12/01 A3004 RMK AO2 SLP174 T01170006=
201512012053 METAR KBFI 012053Z 12007KT 10SM FEW060 OVC250 12/01 A3008 RMK AO2 SLP185 T01170011 58032=
201512011953 METAR KBFI 011953Z 18003KT 10SM BKN060 BKN250 11/02 A3011 RMK AO2 SLP197 T01110017=
201512011853 METAR KBFI 011853Z 17005KT 10SM FEW060 SCT250 10/02 A3014 RMK AO2 SLP206 T01000017=
201512011753 METAR KBFI 011753Z 15006KT 10SM FEW020 SCT100 08/02 A3017 RMK AO2 SLP217 60000 T00830017 10083 20044 56004=
201512011653 METAR KBFI 011653Z 14003KT 10SM FEW060 SCT200 06/02 A3017 RMK AO2 SLP217 T00610022=
201512011553 METAR KBFI 011553Z 00000KT 10SM BKN070 06/02 A3017 RMK AO2 SLP217 T00560017=
201512011453 METAR KBFI 011453Z 00000KT 10SM BKN065 06/02 A3018 RMK AO2 SLP220 60000 T00560017 50000=
201512011353 METAR KBFI 011353Z 14003KT 10SM BKN038 OVC075 06/02 A3019 RMK AO2 SLP223 T00560022=
201512011253 METAR KBFI 011253Z 14003KT 10SM SCT037 OVC048 06/02 A3019 RMK AO2 RAE12B31E41 SLP222 P0000 T00560022=
201512011153 METAR KBFI 011153Z 15003KT 8SM -RA BKN030 OVC047 06/02 A3018 RMK AO2 RAE1056B46 SLP220 P0000 60000 70001 T00560022 10061 20044 50004=
201512011053 METAR KBFI 011053Z 00000KT 10SM -RA OVC034 06/02 A3019 RMK AO2 RAB47 SLP222 P0000 T00560022=
201512010953 METAR KBFI 010953Z 00000KT 10SM OVC034 06/02 A3018 RMK AO2 RAE01 SLP218 P0000 T00560022=
201512010853 METAR KBFI 010853Z 00000KT 5SM -RA OVC032 05/02 A3017 RMK AO2 RAE02B30 SLP216 P0000 60000 T00500017 51005=
201512010753 METAR KBFI 010753Z 00000KT 9SM -RA SCT034 BKN049 OVC060 06/02 A3017 RMK AO2 RAB48 SLP216 P0000 T00560017 400671017=
201512010653 METAR KBFI 010653Z 00000KT 8SM BKN039 BKN047 OVC065 06/02 A3016 RMK AO2 SLP213 T00560022=
201512010553 METAR KBFI 010553Z 00000KT 8SM OVC046 06/02 A3015 RMK AO2 SLP210 60001 T00560022 10061 20050 51007=
201512010453 METAR KBFI 010453Z 00000KT 8SM BKN055 OVC065 06/01 A3015 RMK AO2 SLP209 T00560011=
201512010353 METAR KBFI 010353Z 00000KT 9SM BKN039 OVC060 06/01 A3015 RMK AO2 SLP208 T00560011=
201512010253 METAR KBFI 010253Z 14005KT 10SM BKN040 05/01 A3013 RMK AO2 RAB03E28 SLP203 P0000 60001 T00500011 50003=
201512010153 METAR KBFI 010153Z 16003KT 10SM FEW015 OVC034 06/01 A3014 RMK AO2 RAE49 SLP204 P0001 T00560011=
201512010053 METAR KBFI 010053Z 14006KT 6SM -RA SCT015 OVC028 05/02 A3012 RMK AO2 RAB2357 SLP200 P0000 T00500017=

# No short TAF reports from KBFI in databse.

###################################
#  large TAF from KBFI
###################################
201512312320 TAF KBFI 312320Z 0100/0124 VRB04KT P6SM SKC=
201512311720 TAF KBFI 311720Z 3118/0118 VRB04KT P6SM SKC=
201512311130 TAF KBFI 311130Z 3112/0112 VRB04KT P6SM SKC=
201512310530 TAF KBFI 310530Z 3106/0106 00000KT P6SM SKC=
201512302320 TAF KBFI 302320Z 3100/3124 04003KT P6SM SKC=
201512301720 TAF KBFI 301720Z 3018/3118 34004KT P6SM SKC FM310300 04003KT P6SM
                       SKC=
201512301336 TAF AMD KBFI 301336Z 3014/3112 00000KT P6SM SKC FM301700 34004KT
                       P6SM SKC FM310300 04003KT P6SM SKC=
201512301124 TAF KBFI 301124Z 3012/3112 00000KT P6SM SKC FM301300 VRB03KT P6SM
                       SCT005
                      TEMPO 3014/3016 BKN005 FM301700 34004KT P6SM
                       SKC FM310300 04003KT P6SM SKC=
201512301013 TAF AMD KBFI 301013Z 3010/3106 00000KT P6SM SKC FM301300 VRB03KT
                       P6SM SCT005
                      TEMPO 3013/3016 BKN005 FM301700 34004KT P6SM
                       SKC FM310300 04003KT P6SM SKC=
201512300530 TAF KBFI 300530Z 3006/3106 36003KT P6SM FEW060 FM301300 VRB03KT
                       P6SM VCFG BKN006 FM301700 34004KT P6SM SKC
                       FM310300 04003KT P6SM SKC=
201512300207 TAF AMD KBFI 300207Z 3002/3024 02004KT P6SM FEW070 FM300900 VRB03KT
                       P6SM VCFG BKN007 FM301800 04004KT P6SM SKC=
201512292325 TAF KBFI 292325Z 3000/3024 02004KT P6SM SCT020 BKN070 FM300300
                       05004KT P6SM FEW025 SCT070 FM301200 05004KT
                       P6SM BKN007 FM301800 04004KT P6SM SKC=
201512291724 TAF KBFI 291724Z 2918/3018 VRB04KT P6SM FEW025 OVC070 FM292100
                       02003KT P6SM SCT030 BKN070 FM300000 03004KT
                       P6SM FEW070 FM300300 05004KT P6SM SKC FM301200
                       05004KT P6SM SCT007
                      TEMPO 3012/3016 BKN007=
201512291404 TAF AMD KBFI 291404Z 2914/3012 14003KT P6SM SCT025 OVC060
                      TEMPO 2914/2917 BKN025 OVC060 FM291800 VRB03KT
                       P6SM SCT025 BKN060 FM300300 00000KT P6SM
                       SCT250=
201512291241 TAF AMD KBFI 291241Z 2913/3012 00000KT P6SM SCT008 BKN020 OVC060
                       TEMPO 2913/2917 5SM BR BKN008 OVC020 FM291800
                       34003KT P6SM BKN040 OVC120 FM300300 00000KT
                       P6SM SCT250=
201512291130 TAF KBFI 291130Z 2912/3012 00000KT P6SM SCT022 OVC060
                      TEMPO 2912/2916 5SM BR BKN022 OVC060 FM291800
                       34003KT P6SM BKN040 OVC120 FM300300 00000KT
                       P6SM SCT250=
201512290530 TAF KBFI 290530Z 2906/3006 00000KT P6SM BKN050 OVC060 FM291100
                       00000KT 5SM BR SCT012 OVC035
                      TEMPO 2911/2915 12003KT 4SM BR BKN012 OVC020
                       FM291800 34003KT P6SM BKN040 OVC120 FM300100
                       00000KT P6SM SCT250=
201512290127 TAF AMD KBFI 290127Z 2901/2924 VRB03KT P6SM VCSH FEW014 SCT035
                       OVC050
                      TEMPO 2901/2904 FEW014 BKN035 OVC050 FM290600
                       12003KT P6SM SCT012 OVC020 FM291800 04004KT
                       P6SM SCT015 BKN025=
201512282320 TAF KBFI 282320Z 2900/2924 VRB03KT P6SM SCT015 BKN030 OVC050 FM290600
                       12003KT P6SM SCT012 OVC020 FM291800 04004KT
                       P6SM SCT015 BKN025=
201512281720 TAF KBFI 281720Z 2818/2918 18004KT P6SM VCSH SCT010 OVC025
                      TEMPO 2818/2821 -RA BKN010 FM282100 18003KT
                       P6SM BKN025 OVC040 FM290600 12003KT P6SM
                       OVC016=
201512281141 TAF KBFI 281141Z 2812/2912 VRB03KT P6SM BKN012 OVC018 FM282100
                       VRB03KT P6SM SCT012 OVC018=
201512280540 TAF KBFI 280540Z 2806/2906 14006KT P6SM SCT018 OVC028 FM281000
                       VRB03KT P6SM SCT012 OVC018 FM281400 VRB03KT
                       P6SM BKN012 OVC018 FM282100 VRB03KT P6SM
                       SCT012 OVC020=
201512272332 TAF KBFI 272332Z 2800/2824 00000KT P6SM -RA BKN017 OVC026 FM280400
                       VRB03KT P6SM VCSH OVC022 FM281200 00000KT
                       P6SM OVC018=
201512271727 TAF KBFI 271727Z 2718/2818 16005KT P6SM -RA BKN025 OVC040 FM280000
                       15004KT P6SM -RA OVC025 FM280400 VRB03KT
                       P6SM VCSH OVC025 FM281200 00000KT P6SM OVC022=
201512271121 TAF KBFI 271121Z 2712/2812 14004KT P6SM SCT040 OVC080 FM271400
                       14004KT P6SM VCSH SCT030 OVC050
                      TEMPO 2714/2718 -RA BKN030 FM271800 14005KT
                       P6SM -RA OVC030 FM280400 15004KT P6SM OVC025=
201512270520 TAF KBFI 270520Z 2706/2806 14004KT P6SM SCT050 OVC100 FM271400
                       14004KT P6SM -RA SCT030 OVC050 FM271800
                       14005KT P6SM -RA OVC030 FM280400 15004KT
                       P6SM VCSH OVC025=
201512262323 TAF KBFI 262323Z 2700/2724 00000KT P6SM OVC100 FM270200 14004KT
                       P6SM SCT050 OVC090 FM271400 14004KT P6SM
                       -RA SCT030 OVC050 FM271800 14005KT P6SM
                       -RA OVC030=
201512261732 TAF KBFI 261732Z 2618/2718 14006KT P6SM BKN060 OVC120 FM270200
                       15007KT P6SM BKN050 OVC100 FM271400 17010KT
                       P6SM -RA SCT030 OVC050=
201512261120 TAF KBFI 261120Z 2612/2712 14003KT P6SM SCT010 BKN040 FM262100
                       17004KT P6SM SCT050 OVC200 FM270200 15004KT
                       P6SM SCT050 OVC100=
201512260520 TAF KBFI 260520Z 2606/2706 16004KT P6SM SCT020 BKN030 FM260800
                       16004KT P6SM OVC020 FM261000 14003KT 4SM
                       BR OVC010 FM262100 14004KT P6SM SCT050 OVC120=
201512252334 TAF KBFI 252334Z 2600/2624 16004KT P6SM VCSH SCT014 BKN035 FM260800
                       16004KT P6SM OVC015 FM261000 14003KT 4SM
                       BR OVC007 FM262100 14004KT P6SM SCT050 OVC120=
201512251725 TAF KBFI 251725Z 2518/2618 14005KT P6SM VCSH FEW015 SCT022 OVC040
                       TEMPO 2518/2521 4SM -SHRA BR OVC012 FM252100
                       11003KT P6SM BKN030 OVC045 FM260000 00000KT
                       P6SM OVC035 FM260500 14004KT P6SM OVC015=
201512251120 TAF KBFI 251120Z 2512/2612 VRB03KT P6SM SCT020 OVC040 FM251600
                       VRB03KT P6SM SCT020 BKN035 FM252100 VRB03KT
                       P6SM BKN030 FM260100 07003KT P6SM BKN020
                       OVC050=
201512250520 TAF KBFI 250520Z 2506/2606 VRB03KT P6SM OVC010 FM251600 VRB03KT
                       P6SM BKN015 FM252100 VRB03KT P6SM BKN030
                       FM260100 07003KT P6SM BKN030 OVC050=
201512242327 TAF KBFI 242327Z 2500/2524 18004KT P6SM SCT018 BKN025 OVC035 FM250100
                       VRB03KT P6SM -SHRA BKN018 OVC025 FM250500
                       VRB03KT P6SM -SHRA OVC010 FM251600 VRB03KT
                       P6SM BKN015 FM252100 VRB03KT P6SM BKN030=
201512241735 TAF KBFI 241735Z 2418/2518 19007KT P6SM OVC017 FM242300 16005KT
                       P6SM -SHRA OVC015 FM250500 VRB03KT P6SM
                       VCSH OVC010=
201512241129 TAF KBFI 241129Z 2412/2512 17008KT P6SM -SHRA OVC015 FM250000 16005KT
                       P6SM OVC015 FM250500 17003KT P6SM OVC015=
201512240520 TAF KBFI 240520Z 2406/2506 17013G19KT P6SM -SHRA OVC015 FM240800
                       17008KT P6SM -SHRA OVC015 FM250000 16005KT
                       P6SM OVC015=
201512232333 TAF KBFI 232333Z 2400/2424 17013G19KT P6SM -SHRA OVC015 FM240800
                       17008KT P6SM -SHRA OVC015=
201512232059 TAF AMD KBFI 232059Z 2321/2418 17011G22KT P6SM -SHRA BKN017 OVC024
                       FM240500 17008KT P6SM -SHRA BKN015 OVC025=
201512231745 TAF KBFI 231745Z 2318/2418 19008KT P6SM VCSH OVC017 FM232000 19008KT
                       P6SM VCSH SCT017 BKN026 OVC035 FM240500
                       17008KT P6SM -SHRA BKN015 OVC025=
201512231136 TAF KBFI 231136Z 2312/2412 22009KT P6SM BKN022 FM231500 20011KT
                       P6SM SCT028 OVC040
                      TEMPO 2315/2319 -SHRA OVC028 FM232300 18010KT
                       P6SM VCSH SCT025 BKN050=
201512230526 TAF KBFI 230526Z 2306/2406 16015G23KT P6SM BKN014 OVC021
                      TEMPO 2306/2310 5SM -SHRA BR OVC012 FM231000
                       20012G22KT P6SM -SHRA BKN015 BKN030 FM231800
                       17010KT P6SM VCSH SCT025 BKN040=
201512222328 TAF KBFI 222328Z 2300/2324 16010KT P6SM SCT025 BKN045 FM230300
                       16010KT P6SM -RA BKN020 OVC035 FM230600
                       17012G20KT P6SM -SHRA BKN020 BKN035 FM231800
                       17010KT P6SM VCSH SCT025 BKN040=
201512221727 TAF KBFI 221727Z 2218/2318 15007KT P6SM SCT025 BKN045
                      TEMPO 2218/2220 BKN025 BKN045 FM222100 15007KT
                       P6SM BKN050 FM230200 15010KT P6SM -RA BKN020
                       OVC035 FM230700 17012KT P6SM -SHRA BKN020
                       BKN035=
201512221139 TAF KBFI 221139Z 2212/2312 16005KT P6SM BKN020 BKN040
                      TEMPO 2212/2216 SCT020 BKN040 FM221600 16006KT
                       P6SM SCT030 BKN050
                      TEMPO 2216/2218 BKN030 OVC050 FM221800 19007KT
                       P6SM BKN035 BKN050 FM222100 17007KT P6SM
                       BKN050 FM230100 16010KT P6SM -RA BKN025
                       OVC035 FM230300 17012KT P6SM -RA BKN020
                       OVC030=
201512220535 TAF KBFI 220535Z 2206/2306 15008KT P6SM SCT008 OVC020
                      TEMPO 2206/2210 5SM -SHRA BR BKN008 OVC015
                       FM221000 16008KT P6SM VCSH SCT006 BKN015
                       OVC025 FM221800 16007KT P6SM BKN040 BKN050
                       FM230100 15010KT P6SM -RA BKN025 OVC035=
201512212332 TAF KBFI 212332Z 2200/2224 32010KT P6SM -SHRA SCT016 OVC030 FM220100
                       18007KT P6SM -SHRA SCT018 OVC030 FM220600
                       16007KT P6SM -SHRA BKN018 OVC030 FM221800
                       16008KT P6SM VCSH BKN035 OVC050 FM222300
                       16008KT P6SM -RA BKN035 OVC050=
201512211730 TAF KBFI 211730Z 2118/2218 04007KT 6SM -RA BR OVC025 FM212000 02010KT
                       6SM -RA BR OVC020
                      TEMPO 2120/2123 4SM -RA BR OVC014 FM212300
                       32012G20KT 4SM -RA BR OVC020 FM220100 18007KT
                       6SM -RA BR OVC020 FM220600 18007KT P6SM
                       -SHRA BKN020 OVC035=
201512211140 TAF KBFI 211140Z 2112/2212 14007KT P6SM -RA SCT025 OVC035 FM211600
                       10005KT 6SM -RA BR OVC018 FM211900 04005KT
                       6SM -RA BR OVC018 FM220100 16007KT 6SM -RA
                       BR OVC020 FM220600 17007KT P6SM -SHRA BKN020
                       OVC035=
201512210534 TAF KBFI 210534Z 2106/2206 16010KT P6SM VCSH SCT025 BKN040 FM210900
                       16006KT P6SM -SHRA BKN025 OVC035 FM211400
                       09007KT 6SM -RA BR OVC025 FM211800 04012KT
                       6SM -RA BR OVC020
                      TEMPO 2120/2124 3SM -RA FM220200 19005KT
                       P6SM -RA OVC015=
201512202335 TAF KBFI 202335Z 2100/2124 19013G17KT P6SM SCT024 BKN035
                      TEMPO 2100/2104 -SHRA BKN024 BKN035 FM210800
                       12005KT P6SM OVC030
                      TEMPO 2110/2114 -RA FM211400 10004KT 5SM
                       -RA OVC030 FM211800 03010KT P6SM -RA OVC018
                       TEMPO 2120/2124 4SM -RA=
201512201730 TAF KBFI 201730Z 2018/2118 19015G21KT P6SM VCSH SCT029 BKN040 BKN090
                       FM202100 19010G18KT P6SM -SHRA SCT025 BKN045
                       BKN070 FM210200 17008KT P6SM -SHRA SCT025
                       BKN050 BKN070 FM210900 16008KT P6SM -SHRA
                       BKN025 BKN050 FM211600 03011KT 4SM -RA BR
                       OVC025=
201512201137 TAF KBFI 201137Z 2012/2112 16014G24KT P6SM -RA OVC040 FM201400
                       15014G24KT P6SM -RA OVC030
                      TEMPO 2015/2019 BKN020 OVC030 FM202000 18010KT
                       P6SM -SHRA SCT020 BKN040 BKN070=
201512200538 TAF KBFI 200538Z 2006/2106 14010KT P6SM BKN050 OVC070
                      TEMPO 2006/2009 -RA FM200900 15010KT P6SM
                       -RA OVC040 FM201200 17010KT 6SM -RA BR OVC025
                       FM201900 18010KT P6SM -SHRA SCT020 BKN040
                       OVC070=
201512192335 TAF KBFI 192335Z 2000/2024 19008G15KT P6SM VCSH SCT035 OVC060
                      TEMPO 2000/2004 BKN035 OVC060 FM200600 14009KT
                       P6SM OVC050
                      TEMPO 2006/2010 -RA FM201000 16012KT 5SM
                       -RA BR OVC025 FM202000 20010KT P6SM -SHRA
                       SCT023 BKN035 OVC050=
201512191730 TAF KBFI 191730Z 1918/2018 14007KT P6SM SCT030
                      TEMPO 1918/1920 -SHRA BKN030 FM200000 17010KT
                       P6SM BKN050 OVC090 FM200700 17012KT P6SM
                       -RA OVC045=
201512191124 TAF KBFI 191124Z 1912/2012 15006KT P6SM VCSH SCT025 BKN050
                      TEMPO 1912/1916 BKN025 BKN045 FM191800 16006KT
                       P6SM BKN050 BKN200 FM200000 17010KT P6SM
                       BKN050 OVC090 FM200700 17012KT P6SM -RA
                       OVC045=
201512190521 TAF KBFI 190521Z 1906/2006 16006KT P6SM SCT020 BKN050
                      TEMPO 1906/1908 -SHRA BKN020 OVC045 FM190800
                       16006KT P6SM VCSH BKN050
                      TEMPO 1911/1915 BKN025 BKN045 FM191800 17006KT
                       P6SM BKN050 BKN250 FM200000 17010KT P6SM
                       -RA OVC050=
201512190308 TAF AMD KBFI 190308Z 1903/1924 20008KT P6SM SCT020 BKN050
                      TEMPO 1903/1907 -SHRA BKN020 OVC045 FM190700
                       15006KT P6SM VCSH BKN050 BKN250=
201512182330 TAF KBFI 182330Z 1900/1924 17008KT P6SM SCT029 BKN050 BKN090
                      TEMPO 1900/1901 -SHRA BKN029 BKN050 BKN090
                       FM190500 13006KT P6SM BKN070 BKN250=
201512181730 TAF KBFI 181730Z 1818/1918 19009KT P6SM VCSH BKN020 OVC120 FM182100
                       18010KT P6SM SCT030 BKN045 BKN060
                      TEMPO 1821/1901 -SHRA SCT020 BKN030 OVC045
                       FM190500 13006KT P6SM BKN060=
201512181134 TAF KBFI 181134Z 1812/1912 15010KT P6SM SCT030 BKN050 FM181400
                       18012G18KT P6SM SCT030 BKN050 FM182100 18010KT
                       P6SM SCT030 BKN045 BKN060
                      TEMPO 1821/1901 -SHRA SCT020 BKN030 OVC045
                       FM190500 13006KT P6SM BKN060=
201512180537 TAF KBFI 180537Z 1806/1906 13008KT P6SM -RA BKN025 OVC040 FM181200
                       18012G18KT P6SM -RA SCT012 BKN020 OVC030
                       FM181800 18008KT P6SM -SHRA SCT020 BKN030
                       OVC045 FM190300 17006KT P6SM SCT030 BKN045
                       BKN060=
201512172345 TAF KBFI 172345Z 1800/1824 13008KT 4SM -RA BR SCT007 OVC020
                      TEMPO 1800/1804 2SM -RA BR FM180400 13008KT
                       2SM -RA BR BKN007 OVC015 FM180900 16013KT
                       4SM -RA BR BKN010 OVC020 FM181200 18013G20KT
                       6SM -RA BR BKN020 OVC035 FM181800 18008KT
                       P6SM -SHRA FEW025 BKN040 OVC070=
201512172237 TAF AMD KBFI 172237Z 1723/1818 12009KT 3SM -RA BR BKN015 OVC030
                       FM180900 15013KT 5SM -RA BR FEW010 OVC020
                       FM181200 17013G20KT 6SM -RA BR BKN020 OVC035=
201512172025 TAF AMD KBFI 172025Z 1720/1818 12009KT P6SM -RA FEW015 OVC030
                      TEMPO 1720/1722 4SM -RA BR FM180900 15013KT
                       5SM -RA BR FEW010 OVC020 FM181200 17013G20KT
                       6SM -RA BR BKN020 OVC035=
201512171720 TAF KBFI 171720Z 1718/1818 12011KT P6SM -RA FEW025 OVC040 WS020/15035KT
                       FM172000 11007KT 6SM -RA BR FEW015 OVC030
                       FM180900 15013KT 5SM -RA BR FEW010 OVC020
                       FM181200 17013G20KT 6SM -RA BR BKN020 OVC035=
201512171132 TAF KBFI 171132Z 1712/1812 11008KT P6SM -RA OVC045 FM172100 11008KT
                       5SM -RA OVC035=
201512170541 TAF KBFI 170541Z 1706/1806 VRB03KT P6SM OVC150 FM170900 11006KT
                       P6SM OVC100 FM171200 11006KT P6SM -RA OVC050
                       WS020/15030KT FM172100 11006KT 5SM -RA OVC035=
201512170039 TAF AMD KBFI 170039Z 1701/1724 VRB03KT P6SM SCT020 SCT110 OVC200
                       FM170300 VRB03KT P6SM BKN110 OVC200 FM170600
                       VRB03KT P6SM SCT050 OVC110 FM171200 07006KT
                       P6SM -RA FEW020 SCT035 OVC050 WS020/15030KT
                       FM171800 11006KT 6SM -RA BR BKN020 OVC035
                       WS020/15035KT FM172100 11006KT 6SM -RA BR
                       FEW010 OVC020=
201512162341 TAF KBFI 162341Z 1700/1724 VRB03KT P6SM SCT020 SCT110 OVC200 FM170300
                       02005KT P6SM SCT110 OVC200 FM170600 VRB03KT
                       P6SM SCT050 OVC110 FM171200 10006KT P6SM
                       -RA SCT035 OVC050=
201512162014 TAF AMD KBFI 162014Z 1620/1718 VRB03KT P6SM SCT022 SCT110 OVC200
                       TEMPO 1620/1622 BKN022 BKN110 OVC200 FM170300
                       02005KT P6SM SCT110 OVC200 FM170600 VRB03KT
                       P6SM SCT050 OVC110
                      PROB30 1706/1712 -RA OVC050 FM171200 10006KT
                       P6SM -RA SCT035 OVC050=
201512161828 TAF AMD KBFI 161828Z 1618/1718 VRB04KT P6SM SCT030 BKN050 BKN200
                       TEMPO 1618/1620 BKN030 BKN050 BKN200 FM162000
                       32005KT P6SM SCT050 SCT110 OVC200 FM170300
                       02005KT P6SM SCT110 OVC200 FM170600 VRB03KT
                       P6SM SCT050 OVC110
                      PROB30 1706/1712 -RA OVC050 FM171200 10006KT
                       P6SM -RA SCT035 OVC050=
201512161749 TAF KBFI 161749Z 1618/1718 VRB04KT P6SM SCT035 BKN200
                      TEMPO 1618/1620 BKN035 BKN200 FM162000 32005KT
                       P6SM SCT040 SCT110 OVC200 FM170300 02005KT
                       P6SM SCT110 OVC200 FM170600 VRB03KT P6SM
                       SCT050 OVC110
                      PROB30 1706/1712 -RA OVC050 FM171200 10006KT
                       P6SM -RA SCT035 OVC050=
201512161509 TAF AMD KBFI 161509Z 1615/1712 31005KT P6SM SCT028 SCT040
                      TEMPO 1615/1618 BKN028 BKN040 FM161800 34006KT
                       P6SM SCT035 SCT050 BKN200 FM162100 34006KT
                       P6SM SCT050 SCT120 OVC200 FM170900 11006KT
                       P6SM -RA OVC050=
201512161147 TAF KBFI 161147Z 1612/1712 VRB03KT P6SM SCT015 BKN025 OVC040
                      TEMPO 1614/1617 BKN015 OVC025 FM161700 34006KT
                       P6SM SCT025 BKN040 OVC060 FM162100 34006KT
                       P6SM SCT050 SCT120 OVC200 FM170900 11006KT
                       P6SM -RA OVC050=
201512160540 TAF KBFI 160540Z 1606/1706 16006KT P6SM -RA OVC009 FM160900 VRB04KT
                       3SM -RA BR OVC006 FM161800 VRB03KT 5SM BR
                       OVC008 FM162000 VRB03KT P6SM OVC016 FM170000
                       VRB03KT P6SM SCT020 SCT120 OVC200=
201512160058 TAF AMD KBFI 160058Z 1601/1624 15007KT P6SM VCSH BKN015 OVC025
                       FM160300 18007KT 6SM -RA SCT008 OVC015
                      TEMPO 1605/1609 3SM -RA BR BKN008 OVC015
                       FM160900 VRB04KT 3SM -RA BR OVC008 FM161800
                       VRB03KT P6SM VCFG OVC012 FM162100 VRB03KT
                       P6SM OVC016=
201512152341 TAF KBFI 152341Z 1600/1624 14006KT P6SM BKN018 OVC026 FM160900
                       VRB04KT 5SM BR OVC009=
201512152113 TAF AMD KBFI 152113Z 1521/1618 17007KT P6SM SCT013 BKN030 OVC070
                       FM160000 18007KT 5SM -RA BR BKN013 OVC040
                       FM160900 VRB04KT 5SM BR OVC009=
201512151932 TAF AMD KBFI 151932Z 1520/1618 17007KT 5SM BR VCSH SCT007 BKN040
                       OVC070 FM152200 18007KT 5SM -RA BR BKN013
                       OVC040 FM160900 VRB04KT 5SM BR OVC009=
201512151823 TAF AMD KBFI 151823Z 1518/1618 15007KT 4SM BR VCSH OVC008
                      TEMPO 1518/1520 2SM BR OVC005 FM152000 15007KT
                       P6SM VCSH BKN011 OVC070 FM152200 18007KT
                       6SM -RA BR BKN013 OVC040 FM160900 VRB04KT
                       5SM BR OVC009=
201512151743 TAF KBFI 151743Z 1518/1618 15007KT 3SM BR VCSH OVC008 FM152000
                       15007KT P6SM VCSH BKN011 OVC070 FM152200
                       18007KT 6SM -RA BR BKN013 OVC040 FM160900
                       VRB04KT 5SM BR OVC009=
201512151623 TAF AMD KBFI 151623Z 1516/1612 VRB03KT 1SM BR VV002 FM151800 16006KT
                       3SM BR OVC007 FM152100 18008KT P6SM -RA
                       SCT010 BKN016 OVC025 FM160800 VRB03KT 5SM
                       BR OVC008=
201512151500 TAF AMD KBFI 151500Z 1515/1612 VRB03KT 3/4SM BR VV002 FM151800
                       16006KT 3SM BR OVC007 FM152100 18008KT P6SM
                       -RA SCT010 BKN016 OVC025 FM160800 VRB03KT
                       5SM BR OVC008=
201512151328 TAF AMD KBFI 151328Z 1513/1612 VRB03KT P6SM OVC005
                      TEMPO 1513/1516 1SM BR OVC003 FM151700 16006KT
                       P6SM SCT006 BKN012 OVC020 FM152100 18008KT
                       P6SM -RA SCT010 BKN016 OVC025 FM160800 VRB03KT
                       5SM BR OVC008=
201512151138 TAF KBFI 151138Z 1512/1612 VRB03KT P6SM OVC005 FM151700 16006KT
                       P6SM SCT006 BKN012 OVC020 FM152100 18008KT
                       P6SM -RA SCT010 BKN016 OVC025 FM160800 VRB03KT
                       5SM BR OVC008=
201512150543 TAF KBFI 150543Z 1506/1606 VRB03KT P6SM SCT050 FM151100 VRB03KT
                       P6SM SCT006 FM151300 VRB03KT P6SM OVC006
                       FM151800 16006KT P6SM BKN012 OVC020 FM152100
                       18008KT P6SM -RA BKN025 OVC040=
201512142344 TAF KBFI 142344Z 1500/1524 32005KT P6SM SCT030 BKN060 FM150600
                       00000KT P6SM VCFG SCT016
                      TEMPO 1506/1509 BKN016 FM150900 00000KT P6SM
                       VCFG OVC011 FM151800 15005KT P6SM OVC020
                       FM152100 18006KT P6SM BKN020 OVC045=
201512141740 TAF KBFI 141740Z 1418/1518 VRB03KT P6SM VCSH FEW025 BKN045 BKN070
                       FM142000 VRB03KT P6SM SCT050 SCT070
                      TEMPO 1420/1424 BKN050 BKN070 FM150900 VRB03KT
                       P6SM SCT030 BKN150
                      TEMPO 1509/1512 BKN030 BKN150 FM151200 15005KT
                       P6SM BKN030 BKN150=
201512141502 TAF AMD KBFI 141502Z 1415/1512 13005KT P6SM VCSH SCT030 OVC060
                       TEMPO 1415/1418 BKN030 OVC060 FM142000 34004KT
                       P6SM BKN035 BKN060 FM150300 VRB03KT P6SM
                       OVC030 FM151000 00000KT P6SM OVC020=
201512141410 TAF AMD KBFI 141410Z 1414/1512 13004KT P6SM VCSH BKN030 BKN070
                       TEMPO 1414/1417 -SHRA BKN024 FM141700 VRB03KT
                       P6SM BKN030 BKN060 FM142000 34004KT P6SM
                       BKN035 BKN060 FM150300 VRB03KT P6SM OVC030
                       FM151000 00000KT P6SM OVC020=
201512141219 TAF AMD KBFI 141219Z 1412/1512 13004KT P6SM SCT022 OVC045
                      TEMPO 1412/1415 -SHRA BKN022 OVC045 FM141500
                       VRB03KT P6SM OVC022 FM142000 34004KT P6SM
                       BKN035 BKN060 FM150300 VRB03KT P6SM OVC030
                       FM151000 00000KT P6SM OVC020=
201512141151 TAF KBFI 141151Z 1412/1512 12005KT P6SM BKN020 OVC030 FM142000
                       34004KT P6SM BKN035 BKN060 FM150300 VRB03KT
                       P6SM OVC030 FM151000 00000KT P6SM OVC020=
201512140542 TAF KBFI 140542Z 1406/1506 17005KT P6SM BKN020 OVC030 FM142100
                       33004KT P6SM FEW025 SCT040 BKN060 FM150300
                       VRB03KT P6SM OVC025=
201512140136 TAF AMD KBFI 140136Z 1402/1424 17005KT P6SM VCSH SCT020 OVC040
                       TEMPO 1402/1405 -SHRA BKN020 OVC040 FM140600
                       17005KT P6SM BKN020 OVC030 FM142100 33004KT
                       P6SM FEW025 SCT040 BKN060=
201512132321 TAF KBFI 132321Z 1400/1424 21008KT P6SM BKN020 OVC040
                      TEMPO 1400/1403 SCT020 BKN040 OVC090 FM140600
                       17005KT P6SM BKN020 OVC030 FM142100 33004KT
                       P6SM FEW025 SCT040 BKN060=
201512131724 TAF KBFI 131724Z 1318/1418 16014G22KT P6SM BKN030 OVC040 FM140000
                       16010KT P6SM BKN025 OVC045 FM140600 15005KT
                       P6SM OVC025=
201512131137 TAF KBFI 131137Z 1312/1412 17018G30KT P6SM -SHRA BKN035 BKN050
                       FM132000 17013G22KT P6SM -SHRA BKN025 BKN050
                       FM140000 16010KT P6SM VCSH BKN022 BKN050
                       FM140600 15005KT P6SM BKN022 BKN050=
201512130547 TAF KBFI 130547Z 1306/1406 19013G22KT P6SM -RA BKN025 OVC050 FM131000
                       18015G25KT P6SM -RA BKN035 BKN050 FM132000
                       17013G22KT P6SM -SHRA BKN022 BKN050 FM140000
                       16012KT P6SM VCSH BKN020 BKN050=
201512122323 TAF KBFI 122323Z 1300/1324 15007KT P6SM -RA FEW030 OVC040
                      TEMPO 1300/1302 5SM -RA BR OVC030 FM130200
                       17012G18KT P6SM -SHRA SCT030 OVC040 FM130600
                       17014G23KT P6SM SCT035 OVC050 FM131200 18014G23KT
                       P6SM SCT035 BKN050=
201512121720 TAF KBFI 121720Z 1218/1318 13010KT P6SM -RA OVC040 FM122200 15014G22KT
                       4SM -RA BR OVC030 FM130200 17015G25KT 5SM
                       -SHRA BKN030 BKN040 FM130600 17012G20KT
                       P6SM -SHRA BKN035 BKN045 FM131200 18012G20KT
                       P6SM SCT035 BKN050=
201512121129 TAF KBFI 121129Z 1212/1312 14007KT P6SM SCT025 BKN080 BKN200
                      TEMPO 1212/1216 FEW020 OVC025 FM121800 14010KT
                       P6SM -RA SCT030 OVC045 FM122200 15014G22KT
                       4SM -RA BR OVC030 FM130200 17015G25KT 5SM
                       -SHRA BKN030 BKN040 FM130600 17012G20KT
                       P6SM -SHRA BKN035 BKN045=
201512120521 TAF KBFI 120521Z 1206/1306 VRB03KT P6SM FEW050 SCT060 OVC200 FM120800
                       16006KT P6SM FEW050 BKN080 BKN200 FM121600
                       16012KT P6SM -RA FEW025 OVC045 FM122100
                       17013G22KT 5SM -RA BR OVC025 FM130000 20013G25KT
                       6SM -SHRA BKN025 BKN040=
201512112320 TAF KBFI 112320Z 1200/1224 33004KT P6SM FEW060 BKN090 OVC200 FM120500
                       15006KT P6SM FEW060 BKN100 BKN200 FM121600
                       15006KT P6SM -RA FEW030 OVC050 FM122000
                       15012G20KT 6SM -RA OVC030=
201512111726 TAF KBFI 111726Z 1118/1218 36004KT P6SM FEW060 BKN090 OVC200 FM120500
                       15006KT P6SM FEW060 BKN090 BKN200 FM121600
                       15006KT P6SM -RA FEW030 OVC050=
201512111145 TAF KBFI 111145Z 1112/1212 VRB04KT P6SM VCSH BKN050 FM111500 VRB03KT
                       P6SM BKN060 BKN200 FM111900 34005KT P6SM
                       SCT060 FM120500 15006KT P6SM BKN060 BKN200=
201512110536 TAF KBFI 110536Z 1106/1206 16010G18KT P6SM -SHRA SCT025 BKN050
                       FM110900 14005KT P6SM VCSH BKN045 FM111500
                       15005KT P6SM BKN050 BKN200 FM111900 34005KT
                       P6SM BKN050=
201512102334 TAF KBFI 102334Z 1100/1124 17014G24KT P6SM -SHRA SCT030 BKN045
                       TEMPO 1100/1104 6SM -SHRA BR SCT015 BKN025
                       OVC040 FM110400 16011KT P6SM VCSH SCT025
                       BKN040
                      TEMPO 1104/1108 -SHRA FM110900 14005KT P6SM
                       VCSH BKN045 FM111500 15005KT P6SM SCT050
                       BKN200 FM112100 34005KT P6SM SCT050=
201512101728 TAF KBFI 101728Z 1018/1118 14014G22KT P6SM -RA BKN050 OVC070
                      TEMPO 1018/1022 5SM -RA BR OVC030 FM102200
                       17015G22KT P6SM -SHRA SCT035 BKN050 BKN070
                       FM110300 17007KT P6SM VCSH SCT035 OVC070=
201512101356 TAF AMD KBFI 101356Z 1014/1112 13011KT P6SM -RA FEW040 BKN045 OVC070
                       FM101600 16012G22KT P6SM -SHRA SCT035 BKN050
                       OVC070 FM102100 18012G22KT P6SM -SHRA SCT035
                       BKN050 BKN070 FM110300 14008KT P6SM SCT035
                       BKN060=
201512101141 TAF KBFI 101141Z 1012/1112 16012G18KT P6SM -RA BKN040 OVC060 FM101500
                       16012G22KT P6SM -SHRA SCT035 BKN050 OVC070
                       FM102100 18012G22KT P6SM -SHRA SCT035 BKN050
                       BKN070 FM110300 14008KT P6SM SCT035 BKN060=
201512100548 TAF KBFI 100548Z 1006/1106 10004KT P6SM SCT080 SCT120 OVC200 FM101200
                       14010G22KT P6SM -RA SCT035 OVC060
                      TEMPO 1017/1020 5SM -RA BR BKN022 OVC035
                       FM102000 16012G24KT P6SM -RA BKN030 OVC050
                       FM110300 14004KT P6SM -SHRA SCT030 BKN050=
201512092329 TAF KBFI 092329Z 1000/1024 21012G16KT P6SM SCT070 BKN200 FM100300
                       13004KT P6SM SCT120 OVC200 FM101200 14006G18KT
                       P6SM -RA SCT030 OVC060 FM101800 19016G24KT
                       P6SM -RA BKN035 OVC050=
201512091723 TAF KBFI 091723Z 0918/1018 19015G25KT P6SM VCSH SCT026 BKN035 BKN200
                       FM092100 18008G16KT P6SM VCSH BKN045 BKN200
                       FM100300 12004G14KT P6SM OVC070 FM101200
                       15006G18KT P6SM -RA SCT035 OVC060=
201512091421 TAF AMD KBFI 091421Z 0914/1012 19010G19KT 5SM TSRA BKN030CB FM091600
                       19012KT P6SM -SHRA SCT030 BKN050 FM092100
                       22012KT P6SM VCSH SCT030 BKN050 FM100300
                       06006KT P6SM BKN030=
201512091301 TAF AMD KBFI 091301Z 0913/1012 20012G25KT P6SM -SHRA SCT020 OVC050
                       FM092100 22012KT P6SM VCSH SCT030 BKN050
                       FM100300 06006KT P6SM BKN030=
201512091121 TAF KBFI 091121Z 0912/1012 18020G30KT P6SM -SHRA SCT012 BKN025
                       OVC040 FM091400 20020G30KT P6SM -SHRA SCT012
                       BKN030 OVC045 FM092100 22012KT P6SM VCSH
                       BKN030 FM100300 06006KT P6SM BKN030=
201512090523 TAF KBFI 090523Z 0906/1006 16010KT 6SM RA BR SCT009 BKN015 OVC020
                       TEMPO 0906/0909 4SM RA BR OVC009 FM090900
                       20015G30KT 4SM RA BR BKN007 OVC012 FM091200
                       20020G30KT P6SM -SHRA SCT012 BKN030 OVC045
                       FM092000 22018G27KT P6SM VCSH BKN040=
201512090215 TAF AMD KBFI 090215Z 0902/0924 16007KT 6SM -RA BR SCT007 OVC015
                       FM090400 VRB04KT 5SM -RA BR BKN007 OVC012
                       FM090700 17012G22KT 4SM RA BR BKN007 OVC012
                       FM091200 19015G24KT P6SM -SHRA SCT012 BKN030
                       OVC045 FM092000 19014G22KT P6SM VCSH BKN040=
201512082320 TAF KBFI 082320Z 0900/0924 20012KT P6SM -RA OVC030 FM090700 20015G25KT
                       P6SM -RA OVC030 FM091500 18015G25KT P6SM
                       -RA SCT030 OVC050 FM091900 20015G25KT P6SM
                       VCSH OVC050=
201512081722 TAF KBFI 081722Z 0818/0918 20018G30KT P6SM -RA SCT010 BKN015 OVC020
                       FM090000 20012KT P6SM -RA OVC030 FM090700
                       20015G25KT P6SM -RA OVC030 FM091500 18015G25KT
                       P6SM -RA SCT030 OVC050=
201512081307 TAF AMD KBFI 081307Z 0813/0912 15007KT 3SM RA OVC026 WS020/20040KT
                       FM081500 18016G34KT 3SM RA OVC025 FM081800
                       20018G30KT 6SM RA BR SCT012 OVC030 FM090000
                       20012KT P6SM -RA OVC030 FM090600 20015G25KT
                       P6SM -RA OVC030=
201512081128 TAF KBFI 081128Z 0812/0912 18015G25KT 6SM -RA BR SCT030 OVC050
                       TEMPO 0812/0816 OVC030 FM081800 20018G30KT
                       6SM RA BR SCT012 OVC030 FM090000 20012KT
                       P6SM -RA OVC030 FM090600 20015G25KT P6SM
                       -RA OVC030=
201512080520 TAF KBFI 080520Z 0806/0906 15005KT P6SM BKN012 OVC030
                      TEMPO 0806/0810 2SM -RA BR BKN005 FM081000
                       18015G25KT 6SM -RA BR SCT015 OVC025 FM081800
                       20018G30KT 4SM RA BR SCT008 OVC014 FM090000
                       20012KT 6SM -RA BR SCT012 BKN040=
201512072352 TAF KBFI 072352Z 0800/0824 VRB03KT P6SM VCSH SCT004 BKN020 OVC040
                       FM080200 13005KT P6SM VCSH SCT012 OVC030
                       FM080400 18012G22KT P6SM VCSH SCT008 OVC012
                       TEMPO 0804/0807 6SM -SHRA BR FM080700 17008KT
                       P6SM VCSH SCT018 BKN030 FM081000 16012G20KT
                       6SM -RA BR SCT015 OVC025 FM081800 18016G25KT
                       4SM RA BR SCT008 OVC014=
201512072121 TAF AMD KBFI 072121Z 0721/0818 34004KT 4SM RA BR SCT005 SCT018
                       OVC040 FM072300 17004KT P6SM -SHRA BKN015
                       OVC020 FM080200 17011G20KT P6SM -RA SCT010
                       OVC015 FM080700 17008KT P6SM VCSH SCT020
                       BKN035 FM081200 17012G22KT 6SM -RA BR SCT015
                       OVC025=
201512071939 TAF AMD KBFI 071939Z 0720/0818 13005KT 4SM RA BR SCT025 OVC045
                       FM072100 34004KT 4SM RA BR SCT008 OVC018
                       FM072300 17004KT P6SM VCSH BKN015 OVC020
                       FM080200 17011G20KT P6SM -RA SCT010 OVC015
                       FM080700 17008KT P6SM VCSH SCT020 BKN035
                       FM081200 17012G22KT 6SM -RA BR SCT015 OVC025=
201512071754 TAF KBFI 071754Z 0718/0818 14005KT 4SM RA BR SCT025 OVC040 FM072000
                       34004KT 4SM RA BR SCT008 OVC018 FM072300
                       17004KT P6SM VCSH BKN015 OVC020 FM080200
                       17011G20KT P6SM -RA SCT010 OVC015 FM080700
                       17008KT P6SM VCSH SCT020 BKN035 FM081200
                       17012G22KT 6SM -RA BR SCT015 OVC025=
201512071523 TAF AMD KBFI 071523Z 0715/0812 13006KT P6SM SCT035 OVC050
                      TEMPO 0715/0717 -RA FM071700 16009KT P6SM
                       -RA SCT020 OVC035 FM080000 18010KT 5SM -RA
                       BR OVC025=
201512071120 TAF KBFI 071120Z 0712/0812 18012KT P6SM -RA SCT040 OVC050 FM071600
                       16008KT P6SM VCSH BKN060 OVC120 FM072100
                       17010KT P6SM -RA OVC040 FM080000 18010KT
                       5SM -RA BR OVC025=
201512070522 TAF KBFI 070522Z 0706/0806 16012G22KT P6SM -RA OVC045 FM071000
                       17010KT P6SM -RA OVC028 FM071600 15007KT
                       P6SM -RA OVC045 FM072200 16010KT 5SM -RA
                       BR OVC025=
201512062332 TAF KBFI 062332Z 0700/0724 16012G22KT P6SM -RA OVC050 FM071000
                       17010KT P6SM -RA OVC028 FM071600 15007KT
                       P6SM -RA OVC045 FM072200 16010KT 5SM -RA
                       BR OVC025=
201512061721 TAF KBFI 061721Z 0618/0718 14010KT P6SM -SHRA BKN040 OVC050 FM062000
                       18012G20KT P6SM -SHRA SCT035 BKN050 FM070400
                       17015G25KT P6SM -RA OVC035=
201512061122 TAF KBFI 061122Z 0612/0712 14006KT P6SM -RA OVC050 FM061500 16009KT
                       P6SM -SHRA BKN030 OVC050 FM062000 18011KT
                       P6SM -SHRA SCT035 BKN050 FM070400 17012G18KT
                       P6SM -RA OVC035 WS020/18040KT=
201512060527 TAF KBFI 060527Z 0606/0706 15006KT P6SM -RA OVC050 FM061300 15009KT
                       P6SM -SHRA BKN030 OVC050 FM061900 18011KT
                       P6SM -SHRA SCT035 BKN050 FM070500 17012KT
                       P6SM -RA OVC035=
201512052340 TAF KBFI 052340Z 0600/0624 13010KT P6SM -RA OVC050 WS020/18045KT
                       FM061400 16010KT P6SM -SHRA BKN030 OVC050
                       FM061900 16010KT P6SM -SHRA SCT035 BKN050=
201512051725 TAF KBFI 051725Z 0518/0618 13010KT P6SM -RA OVC050 WS020/18045KT
                       FM052200 13012G20KT 5SM RA BR SCT025 OVC040
                       WS020/18045KT FM060800 16011KT 5SM RA BR
                       BKN024 OVC040 FM061400 16010KT P6SM -SHRA
                       BKN030 BKN050=
201512051423 TAF AMD KBFI 051423Z 0514/0612 14007KT P6SM BKN070 OVC090 FM051600
                       13008KT P6SM -RA OVC050 WS020/18045KT FM052200
                       13010KT 5SM RA BR SCT025 OVC040 FM060800
                       16011KT 5SM RA BR BKN022 OVC040=
201512051123 TAF KBFI 051123Z 0512/0612 13006KT P6SM SCT050 BKN090 FM051500
                       13008KT P6SM -RA OVC050 FM052200 13010KT
                       5SM RA BR SCT025 OVC040 FM060800 16011KT
                       5SM RA BR BKN022 OVC040=
201512050520 TAF KBFI 050520Z 0506/0606 14007KT P6SM VCSH SCT040 BKN070 FM050900
                       13006KT P6SM SCT050 BKN080 FM051500 13008KT
                       P6SM -RA OVC050 FM052100 13011KT 5SM RA
                       BR SCT025 OVC040=
201512042356 TAF KBFI 042356Z 0500/0524 18010G16KT P6SM VCSH SCT030 BKN045 FM050700
                       13005KT P6SM SCT045 BKN150 FM051400 13010G16KT
                       P6SM -RA OVC050 FM051800 13010G16KT 5SM
                       RA BR SCT025 OVC040=
201512041751 TAF KBFI 041751Z 0418/0518 15008KT P6SM VCSH BKN025 BKN100 FM042000
                       16009KT P6SM VCSH SCT030 BKN040
                      TEMPO 0423/0503 6SM -SHRA BR SCT025 BKN035
                       OVC060 FM050400 14007KT P6SM BKN045 FM050800
                       13007KT P6SM SCT050 BKN150 FM051400 14011KT
                       6SM -RA BR OVC040
                      TEMPO 0517/0518 4SM -RA BR OVC030=
201512041607 TAF AMD KBFI 041607Z 0416/0512 14008KT P6SM VCSH SCT015 BKN025
                       OVC120
                      TEMPO 0416/0418 BKN015 OVC030 FM041900 15007KT
                       P6SM SCT035 BKN060 BKN120
                      TEMPO 0422/0502 -SHRA SCT025 BKN035 OVC060
                       FM050400 14006KT P6SM BKN045 FM050800 13006KT
                       P6SM SCT045 BKN150=
201512041400 TAF AMD KBFI 041400Z 0414/0512 15007KT P6SM VCSH FEW015 SCT050
                       OVC090
                      TEMPO 0414/0418 BKN050 FM041800 15006KT P6SM
                       SCT060 BKN120 FM051000 16006KT P6SM -RA
                       OVC045=
201512041120 TAF KBFI 041120Z 0412/0512 15008KT 5SM -SHRA BKN018 OVC030 FM041300
                       15008KT P6SM VCSH BKN018 OVC030 FM041800
                       15006KT P6SM SCT035 BKN060 FM042200 15006KT
                       P6SM SCT060 BKN120 FM051000 16006KT P6SM
                       -RA OVC045=
201512040651 TAF AMD KBFI 040651Z 0407/0506 16008KT P6SM VCSH BKN019 OVC100
                       FM041800 16006KT P6SM SCT035 BKN060=
201512040529 TAF KBFI 040529Z 0406/0506 18008KT P6SM VCSH BKN023 OVC120 FM041800
                       16006KT P6SM SCT035 BKN060=
201512040436 TAF AMD KBFI 040436Z 0405/0424 15008KT P6SM VCSH SCT022 SCT120
                       FM040800 17008KT P6SM VCSH BKN025 BKN050
                       FM041800 16006KT P6SM SCT030 BKN060=
201512040303 TAF AMD KBFI 040303Z 0403/0424 16007KT P6SM VCSH FEW060 OVC100
                       FM040800 17008KT P6SM VCSH SCT025 BKN050
                       FM041800 16006KT P6SM SCT030 BKN060=
201512032320 TAF KBFI 032320Z 0400/0424 16015G25KT P6SM -RA SCT025 OVC050 WS020/18050KT
                       TEMPO 0400/0403 4SM RA BR BKN025 OVC050
                       FM040300 19017G30KT 3SM RA BR OVC020 FM040800
                       18012KT P6SM VCSH BKN025 BKN050 FM041800
                       16006KT P6SM SCT030 BKN060=
201512031720 TAF KBFI 031720Z 0318/0418 12012KT P6SM -RA OVC040 FM032100 12012G20KT
                       5SM -RA OVC030 WS020/18055KT FM040000 18029G42KT
                       6SM SHRA BKN025 OVC040 FM040400 19015G22KT
                       6SM SHRA BKN025 BKN050 FM041000 18010KT
                       P6SM BKN030 BKN050=
201512031420 TAF AMD KBFI 031420Z 0314/0412 14011G16KT P6SM -RA BKN070 OVC080
                       TEMPO 0314/0317 5SM -RA BR SCT030 OVC050
                       FM031700 12012G20KT 5SM -RA SCT030 OVC050
                       WS020/18050KT FM032100 12012G20KT 5SM -RA
                       SCT030 OVC050 WS020/18055KT FM040100 18029G42KT
                       6SM SHRA BKN025 OVC040 FM040500 19015G22KT
                       6SM SHRA BKN025 OVC050=
201512031124 TAF KBFI 031124Z 0312/0412 13012G19KT P6SM -RA OVC070 FM031300
                       12012KT 5SM -RA SCT030 OVC050 FM031700 12012G20KT
                       5SM -RA SCT030 OVC050 FM032100 12012G20KT
                       5SM -RA SCT030 OVC050 WS020/18055KT FM040100
                       18029G42KT 6SM SHRA BKN025 OVC040 FM040500
                       19015G22KT 6SM SHRA BKN025 OVC050=
201512030907 TAF AMD KBFI 030907Z 0309/0406 14007KT 6SM -RA BR BKN050 OVC070
                       FM031300 12012KT 5SM -RA SCT030 OVC050 FM031700
                       13012G20KT 5SM -RA SCT030 OVC050 FM040100
                       18029G42KT 6SM SHRA BKN025=
201512030541 TAF KBFI 030541Z 0306/0406 13010G19KT P6SM BKN070 FM031000 12012KT
                       P6SM -RA OVC050 FM031300 12012KT 5SM -RA
                       SCT030 OVC050 FM031700 13012G20KT 5SM -RA
                       SCT030 OVC050 FM040100 18029G42KT 6SM SHRA
                       BKN025=
201512030307 TAF AMD KBFI 030307Z 0303/0324 12008KT P6SM OVC050 FM031000 12012KT
                       5SM -RA BR OVC025 FM031700 14012G22KT P6SM
                       -RA BKN025 OVC050 FM032300 18017G27KT P6SM
                       -SHRA BKN020 BKN040=
201512022320 TAF KBFI 022320Z 0300/0324 14012KT P6SM OVC050 FM030400 14012KT
                       P6SM -RA OVC040 FM031000 12012KT 5SM -RA
                       BR OVC025 FM031700 14012G22KT P6SM -RA BKN025
                       OVC050 FM032300 18017G27KT P6SM -SHRA BKN020
                       BKN040=
201512021720 TAF KBFI 021720Z 0218/0318 VRB03KT P6SM BKN035 BKN080 FM022000
                       12006KT P6SM BKN080 FM030400 12010KT P6SM
                       -RA OVC040=
201512021318 TAF AMD KBFI 021318Z 0213/0312 VRB03KT P6SM VCSH SCT025 SCT045
                       BKN080
                      TEMPO 0213/0215 BKN025 BKN045 OVC080 FM021500
                       VRB03KT P6SM SCT045 BKN080 OVC150 FM022000
                       13007KT P6SM BKN080 OVC150 FM030400 13007KT
                       P6SM -RA OVC050=
201512021123 TAF KBFI 021123Z 0212/0312 13007KT 6SM -RA BR BKN011 OVC016 FM021400
                       13007KT P6SM BKN030 OVC050 FM022000 13007KT
                       P6SM BKN050 BKN120 FM030400 13007KT P6SM
                       -RA OVC050=
201512020929 TAF AMD KBFI 020929Z 0209/0306 15004KT 3SM -RA BKN010 OVC024 FM021100
                       15006KT P6SM BKN035 OVC050 FM022000 VRB04KT
                       P6SM BKN060 BKN120 FM030400 13005KT P6SM
                       -RA OVC050=
201512020823 TAF AMD KBFI 020823Z 0208/0306 14011KT P6SM -RA FEW020 OVC035 FM021100
                       15006KT P6SM SCT035 OVC050 FM022000 VRB04KT
                       P6SM BKN060 BKN120 FM030400 13005KT P6SM
                       -RA OVC050=
201512020525 TAF KBFI 020525Z 0206/0306 13004KT P6SM -RA OVC040 FM020800 14008KT
                       5SM -RA BR OVC035 FM021100 15006KT P6SM
                       SCT035 OVC050 FM022000 VRB04KT P6SM BKN060
                       BKN120 FM030400 13005KT P6SM -RA OVC050=
201512020302 TAF AMD KBFI 020302Z 0203/0224 14007KT P6SM -RA OVC060 FM020700
                       14008KT 5SM -RA BR OVC035 FM021400 19008KT
                       P6SM VCSH BKN030 BKN050 FM021700 21005KT
                       P6SM SCT030 BKN060 BKN120=
201512012322 TAF KBFI 012322Z 0200/0224 12008KT P6SM -RA BKN050 OVC100 FM020300
                       14008KT P6SM -RA OVC035 FM020700 14008KT
                       5SM -RA BR OVC025 FM021400 19008KT P6SM
                       VCSH BKN030 BKN050 FM021700 21005KT P6SM
                       SCT030 BKN060 BKN120=
201512011720 TAF KBFI 011720Z 0118/0218 14005KT P6SM BKN050 BKN120 FM020200
                       14005KT P6SM -RA OVC035 FM020700 14005KT
                       5SM -RA BR OVC025 FM021400 19008KT P6SM
                       VCSH BKN030 BKN050 FM021700 21005KT P6SM
                       SCT030 BKN060 BKN120=
201512011120 TAF KBFI 011120Z 0112/0212 00000KT P6SM -SHRA OVC035 FM011600 14008KT
                       P6SM BKN050 BKN120 FM020200 12005KT P6SM
                       -RA OVC035=
201512010533 TAF KBFI 010533Z 0106/0206 00000KT P6SM BKN060 OVC100
                      TEMPO 0106/0109 -RA FM010900 13005KT P6SM
                       -RA BKN035 OVC050 FM011600 14008KT P6SM
                       BKN050 BKN120 FM020200 12005KT P6SM -RA
                       OVC035=
201512010247 TAF AMD KBFI 010247Z 0103/0124 16003KT P6SM FEW015 OVC035
                      TEMPO 0103/0107 -RA FM011200 14008KT P6SM
                       OVC040=