##########################################################
# Query made at 02/17/2025 02:54:52 UTC
# Time interval: from 10/01/2015 00:00  to 10/31/2015 23:59  UTC
##########################################################

##########################################################
# KBFI, Seattle, Seattle Boeing Field (United States)
# WMO index: -----. WIGOS ID: Unknown
# Latitude 47-32-45N. Longitude 122-18-49W. Altitude 5 m.
##########################################################

###################################
#  METAR/SPECI from KBFI
###################################
201510312353 METAR KBFI 312353Z 17008KT 10SM -RA FEW016 SCT023 OVC032 14/11 A2968 RMK AO2 RAB43 SLP050 P0001 60008 T01440111 10172 20133 53001=
201510312253 METAR KBFI 312253Z COR 17012KT 10SM SCT017 14/11 A2967 RMK AO2 RAE17 SLP048 P0000 T01390106=
201510312153 METAR KBFI 312153Z 16016G23KT 10SM -RA FEW010 SCT025 OVC070 13/10 A2968 RMK AO2 SLP049 P0004 T01330100=
201510312053 METAR KBFI 312053Z 17012G19KT 10SM -RA SCT025 OVC085 14/10 A2968 RMK AO2 RAE05B52 SLP049 P0000 60003 T01440100 50024=
201510311953 METAR KBFI 311953Z 19012G19KT 10SM -RA SCT025 OVC085 15/12 A2968 RMK AO2 SLP050 P0001 T01500122=
201510311853 METAR KBFI 311853Z 21011G22KT 10SM -RA BKN025 OVC080 17/13 A2965 RMK AO2 PK WND 18028/1824 SLP040 P0002 T01670128=
201510311838 SPECI KBFI 311838Z 20016G23KT 9SM -RA BKN017 OVC027 17/13 A2964 RMK AO2 PK WND 18028/1824 P0002=
201510311753 METAR KBFI 311753Z 17014G30KT 9SM -RA BKN017 OVC027 17/14 A2961 RMK AO2 PK WND 17030/1748 SLP025 P0003 60023 T01720144 10172 20161 53005=
201510311653 METAR KBFI 311653Z 17018G25KT 6SM -RA BR BKN017 OVC027 17/14 A2956 RMK AO2 PK WND 17026/1628 SLP011 P0005 T01670144=
201510311553 METAR KBFI 311553Z 17015G24KT 8SM -RA BKN018 BKN026 OVC035 17/13 A2958 RMK AO2 PK WND 16026/1525 SLP015 P0006 T01670133=
201510311453 METAR KBFI 311453Z 18013G22KT 8SM -RA BKN018 BKN026 OVC035 17/13 A2959 RMK AO2 PK WND 16028/1405 SLP020 P0004 60009 T01670133 56010=
201510311445 SPECI KBFI 311445Z 17012G25KT 9SM -RA BKN020 BKN025 OVC095 17/13 A2959 RMK AO2 PK WND 16028/1405 P0003=
201510311353 METAR KBFI 311353Z 17018G27KT 9SM -RA SCT023 OVC095 17/13 A2960 RMK AO2 PK WND 17029/1340 SLP021 P0005 T01670128=
201510311253 METAR KBFI 311253Z 17017G24KT 10SM -RA FEW023 BKN095 OVC110 17/13 A2960 RMK AO2 RAB15 SLP023 P0000 T01720133=
201510311230 SPECI KBFI 311230Z 18012G24KT 10SM SCT023 BKN046 OVC120 17/13 A2960 RMK AO2 RAB15E24 P0000=
201510311153 METAR KBFI 311153Z 18011G19KT 10SM BKN023 BKN028 OVC048 17/13 A2962 RMK AO2 RAB06E19B45E48 SLP030 P0000 60059 70082 T01720133 10172 20144 58014=
201510311053 METAR KBFI 311053Z 17015G20KT 10SM BKN018 OVC025 17/14 A2963 RMK AO2 RAE17 SLP035 P0000 T01720139=
201510311021 SPECI KBFI 311021Z 17011G18KT 10SM BKN016 OVC021 17/14 A2965 RMK AO2 RAE17 P0000=
201510310953 METAR KBFI 310953Z 15009KT 10SM -RA FEW010 BKN014 OVC021 16/14 A2965 RMK AO2 SLP040 P0008 T01560139=
201510310853 METAR KBFI 310853Z 12007KT 2SM RA BR FEW005 BKN014 OVC023 14/13 A2966 RMK AO2 SLP044 P0027 60051 T01440128 56037=
201510310823 SPECI KBFI 310823Z 14003KT 2SM RA BR FEW005 BKN024 OVC034 14/13 A2968 RMK AO2 P0016=
201510310820 SPECI KBFI 310820Z 14003KT 3SM RA BR FEW004 BKN027 OVC034 14/13 A2968 RMK AO2 P0015=
201510310753 METAR KBFI 310753Z 14003KT 4SM -RA BR OVC050 14/13 A2969 RMK AO2 SLP054 P0017 T01440133 401940128=
201510310653 METAR KBFI 310653Z 09003KT 5SM RA BR SCT008 BKN042 OVC085 14/14 A2973 RMK AO2 SLP066 P0007 T01440139=
201510310553 METAR KBFI 310553Z 14006KT 5SM -RA BR FEW010 SCT055 OVC070 14/13 A2977 RMK AO2 SLP081 P0011 60014 T01440128 10178 20144 58022=
201510310453 METAR KBFI 310453Z 14004KT 9SM -RA SCT030 OVC090 14/12 A2980 RMK AO2 RAB0356 SLP091 P0002 T01440117=
201510310353 METAR KBFI 310353Z 16006KT 10SM SCT030 BKN100 15/11 A2982 RMK AO2 RAE50 SLP098 P0000 T01500106=
201510310253 METAR KBFI 310253Z 14008KT 10SM -RA BKN026 BKN055 OVC085 16/11 A2984 RMK AO2 RAB40 SLP104 P0001 60001 T01560111 50008=
201510310153 METAR KBFI 310153Z 15007KT 10SM BKN026 OVC031 17/11 A2984 RMK AO2 SLP105 T01670106=
201510310053 METAR KBFI 310053Z VRB05KT 10SM BKN028 17/10 A2982 RMK AO2 SLP098 T01720100=
201510302353 METAR KBFI 302353Z VRB04KT 10SM BKN028 18/11 A2981 RMK AO2 SLP095 T01780111 10194 20178 53027=
201510302253 METAR KBFI 302253Z 23006G15KT 10SM BKN028 BKN070 OVC200 18/12 A2979 RMK AO2 SLP086 T01830117=
201510302153 METAR KBFI 302153Z 19012G20KT 10SM SCT012 BKN018 BKN200 19/12 A2976 RMK AO2 PK WND 21027/2105 SLP076 T01940122=
201510302053 METAR KBFI 302053Z 20012G27KT 10SM SCT012 BKN018 BKN200 19/12 A2973 RMK AO2 PK WND 24027/2049 SLP069 T01940122 51018=
201510301953 METAR KBFI 301953Z 20015G24KT 10SM FEW010 SCT026 BKN200 19/12 A2972 RMK AO2 SLP063 T01940122=
201510301853 METAR KBFI 301853Z 20012G28KT 10SM FEW010 SCT026 BKN200 18/13 A2970 RMK AO2 PK WND 22028/1844 SLP057 T01830128=
201510301753 METAR KBFI 301753Z 20010G23KT 10SM SCT010 BKN026 OVC200 18/13 A2968 RMK AO2 PK WND 18026/1742 SLP050 60009 T01830128 10183 20128 53010=
201510301653 METAR KBFI 301653Z COR 20015G22KT 10SM BKN011 18/15 A2966 RMK AO2 SLP044 T01830150=
201510301553 METAR KBFI 301553Z 18012G20KT 10SM OVC011 17/15 A2965 RMK AO2 PK WND 16026/1534 SLP040 T01670150 $=
201510301456 SPECI KBFI 301456Z 16011G21KT 10SM OVC011 16/ A2966 RMK AO2 $=
201510301453 METAR KBFI 301453Z COR 16012G21KT 10SM OVC011 16/ A2965 RMK AO2 RAE39 SLP040 P0001 60009 T0156 56040 $=
201510301353 METAR KBFI 301353Z 13009KT 3SM -RA BKN008 OVC014 13/ A2966 RMK AO2 SLP045 P0005 T0133 $=
201510301342 SPECI KBFI 301342Z 14009KT 3SM -RA BR BKN008 OVC014 13/12 A2968 RMK AO2 P0003 $=
201510301329 SPECI KBFI 301329Z 15009KT 4SM -RA BR BKN012 OVC017 13/12 A2969 RMK AO2 P0001=
201510301253 METAR KBFI 301253Z 15013G19KT 8SM -RA OVC026 13/11 A2971 RMK AO2 SLP060 P0003 T01330111=
201510301233 SPECI KBFI 301233Z 13013G19KT 9SM -RA BKN028 OVC039 13/12 A2972 RMK AO2 PRESFR P0003=
201510301153 METAR KBFI 301153Z COR 15015G22KT 8SM -RA BKN050 BKN055 OVC090 14/11 A2977 RMK AO2 SLP080 P0003 60006 70008 T01390106 10150 20139 58052=
201510301053 METAR KBFI 301053Z 16012G20KT 8SM -RA FEW012 BKN036 OVC070 14/11 A2984 RMK AO2 SLP105 P0001 T01440111=
201510300953 METAR KBFI 300953Z 16008KT 8SM -RA SCT011 BKN070 OVC085 15/12 A2988 RMK AO2 SLP119 P0002 T01500117=
201510300853 METAR KBFI 300853Z 17010KT 10SM -RA FEW015 SCT060 BKN110 15/11 A2992 RMK AO2 RAB50 SLP132 P0000 60000 T01500111 58020=
201510300753 METAR KBFI 300753Z 16006KT 10SM FEW060 14/11 A2995 RMK AO2 SLP143 T01440111 401670139=
201510300653 METAR KBFI 300653Z 17007KT 10SM FEW028 BKN034 BKN050 14/11 A2996 RMK AO2 SLP144 T01440106=
201510300553 METAR KBFI 300553Z 16009KT 10SM BKN035 15/11 A2998 RMK AO2 SLP152 T01500106 10161 20150 58009=
201510300453 METAR KBFI 300453Z 16007KT 10SM BKN050 15/10 A2999 RMK AO2 SLP156 T01500100=
201510300353 METAR KBFI 300353Z 19007KT 10SM OVC048 16/10 A3001 RMK AO2 SLP162 T01560100=
201510300253 METAR KBFI 300253Z 20006KT 10SM SCT025 OVC110 16/11 A3001 RMK AO2 SLP161 T01560106 55002=
201510300153 METAR KBFI 300153Z 18005KT 10SM SCT043 BKN110 16/11 A3000 RMK AO2 SLP159 T01560111=
201510300053 METAR KBFI 300053Z 17011KT 10SM SCT016 OVC043 16/12 A3001 RMK AO2 SLP161 T01560117=
201510292353 METAR KBFI 292353Z 17009KT 10SM SCT016 OVC043 16/12 A3001 RMK AO2 RAB2256E08 SLP162 P0000 60002 T01610122 10167 20156 56007=
201510292253 METAR KBFI 292253Z 16008KT 10SM BKN016 OVC048 16/12 A3002 RMK AO2 RAB27E48 SLP166 P0000 T01610122=
201510292153 METAR KBFI 292153Z 18008KT 10SM BKN016 OVC050 17/12 A3002 RMK AO2 RAB00E28 SLP166 P0001 T01670117=
201510292053 METAR KBFI 292053Z 18007KT 10SM BKN016 OVC050 16/12 A3003 RMK AO2 RAE09 SLP170 P0000 60001 T01610122 58008=
201510291953 METAR KBFI 291953Z 19008KT 10SM -RA BKN016 OVC050 16/12 A3006 RMK AO2 RAB00E25B51 SLP179 P0001 T01610117=
201510291853 METAR KBFI 291853Z 16008KT 10SM OVC019 17/12 A3006 RMK AO2 SLP179 T01670117=
201510291753 METAR KBFI 291753Z AUTO 16010KT 10SM OVC017 16/11 A3006 RMK AO2 SLP178 T01610111 10161 20139 51013 TSNO=
201510291653 METAR KBFI 291653Z 16006KT 10SM OVC015 16/11 A3005 RMK AO2 SLP174 T01560111=
201510291553 METAR KBFI 291553Z 17008KT 10SM OVC015 15/11 A3004 RMK AO2 SLP171 T01500111=
201510291453 METAR KBFI 291453Z 15006KT 10SM SCT012 BKN020 14/11 A3002 RMK AO2 SLP165 T01440111 51005=
201510291353 METAR KBFI 291353Z 16008KT 130V190 10SM BKN012 OVC019 14/11 A3002 RMK AO2 SLP165 T01440111=
201510291253 METAR KBFI 291253Z 17005KT 10SM OVC012 14/11 A3001 RMK AO2 SLP163 T01440111=
201510291153 METAR KBFI 291153Z 16003KT 10SM OVC010 14/11 A3001 RMK AO2 SLP160 70010 T01390111 10144 20133 50004=
201510291053 METAR KBFI 291053Z 15007KT 10SM BKN014 OVC070 14/11 A3001 RMK AO2 SLP161 T01390111=
201510290953 METAR KBFI 290953Z 14004KT 10SM OVC014 14/11 A3001 RMK AO2 SLP160 T01390111=
201510290853 METAR KBFI 290853Z 12006KT 10SM OVC014 14/11 A3000 RMK AO2 SLP157 T01440111 51005=
201510290753 METAR KBFI 290753Z 12005KT 10SM OVC013 14/11 A2999 RMK AO2 SLP155 T01440111 401500122=
201510290653 METAR KBFI 290653Z 00000KT 10SM OVC011 14/11 A2999 RMK AO2 SLP154 T01390111=
201510290621 SPECI KBFI 290621Z 14003KT 10SM OVC013 14/11 A2998 RMK AO2=
201510290553 METAR KBFI 290553Z 14005KT 10SM SCT012 BKN017 OVC080 14/11 A2998 RMK AO2 RAE14 SLP151 P0000 60006 T01390111 10150 20133 53006=
201510290453 METAR KBFI 290453Z 13007KT 10SM -RA FEW039 BKN085 OVC100 14/12 A2996 RMK AO2 SLP145 P0002 T01390122=
201510290353 METAR KBFI 290353Z 14009KT 9SM -RA OVC070 14/12 A2996 RMK AO2 SLP145 P0003 T01390117=
201510290253 METAR KBFI 290253Z 14008KT 10SM -RA FEW035 BKN055 OVC070 14/11 A2996 RMK AO2 RAB18 SLP145 P0001 60001 T01440111 56005=
201510290153 METAR KBFI 290153Z 15007KT 10SM FEW024 OVC060 15/11 A2996 RMK AO2 SLP146 T01500111=
201510290053 METAR KBFI 290053Z 16005KT 10SM SCT008 BKN018 OVC080 15/11 A2997 RMK AO2 SLP148 T01500111=
201510282353 METAR KBFI 282353Z 17007KT 10SM OVC014 15/11 A2998 RMK AO2 SLP150 60002 T01500111 10150 20133 53003=
201510282253 METAR KBFI 282253Z 17003KT 10SM OVC014 14/11 A2997 RMK AO2 SLP149 T01440111=
201510282153 METAR KBFI 282153Z 14007KT 10SM SCT005 OVC012 14/11 A2996 RMK AO2 RAE17 SLP146 P0000 T01390111=
201510282053 METAR KBFI 282053Z 14010KT 4SM -RA BR SCT009 OVC018 13/11 A2997 RMK AO2 RAB1955 SLP147 P0002 60002 T01330111 50004=
201510282012 SPECI KBFI 282012Z 14010KT 2 1/2SM -RA BR SCT009 OVC018 13/11 A2997 RMK AO2 RAB1955 P0001=
201510281953 METAR KBFI 281953Z COR 16006KT 3SM -RA BR FEW011 BKN020 OVC034 13/11 A2997 RMK AO2 RAB29E51 SLP148 P0000 T01330106=
201510281853 METAR KBFI 281853Z 16004KT 10SM BKN045 OVC060 14/10 A2996 RMK AO2 SLP146 T01390100=
201510281753 METAR KBFI 281753Z 00000KT 10SM BKN070 OVC085 14/10 A2996 RMK AO2 RAE21 SLP143 P0000 60002 T01440100 10144 20122 51013=
201510281653 METAR KBFI 281653Z 20003KT 10SM -RA OVC085 14/09 A2994 RMK AO2 RAB09 SLP138 P0001 T01440094=
201510281553 METAR KBFI 281553Z 15005KT 10SM OVC085 13/10 A2993 RMK AO2 RAB1458E50 SLP136 P0001 T01330100=
201510281453 METAR KBFI 281453Z 13006KT 10SM OVC080 13/10 A2992 RMK AO2 SLP130 60000 T01280100 53006=
201510281353 METAR KBFI 281353Z 12003KT 10SM FEW060 OVC085 13/09 A2991 RMK AO2 RAB34E45 SLP127 P0000 T01330094=
201510281253 METAR KBFI 281253Z 00000KT 10SM BKN100 OVC120 12/09 A2990 RMK AO2 RAB1154E03 SLP125 P0000 T01220094=
201510281153 METAR KBFI 281153Z 00000KT 10SM OVC090 13/09 A2990 RMK AO2 SLP124 T01280094 10139 20122 58009=
201510281053 METAR KBFI 281053Z 00000KT 10SM OVC110 13/09 A2991 RMK AO2 SLP127 T01280089=
201510280953 METAR KBFI 280953Z 00000KT 10SM OVC110 13/09 A2992 RMK AO2 SLP131 T01280089=
201510280853 METAR KBFI 280853Z 00000KT 10SM OVC110 13/08 A2993 RMK AO2 SLP133 T01330083 56004=
201510280753 METAR KBFI 280753Z 00000KT 10SM BKN170 13/08 A2993 RMK AO2 SLP134 T01330083 401560089=
201510280653 METAR KBFI 280653Z 00000KT 10SM BKN170 13/09 A2993 RMK AO2 SLP135 T01280094=
201510280553 METAR KBFI 280553Z 00000KT 10SM BKN170 12/09 A2994 RMK AO2 SLP137 T01170089 10156 20117 56004=
201510280453 METAR KBFI 280453Z 00000KT 10SM SCT250 13/09 A2994 RMK AO2 SLP137 T01280094=
201510280353 METAR KBFI 280353Z 00000KT 10SM SCT250 13/09 A2994 RMK AO2 SLP138 T01280094=
201510280253 METAR KBFI 280253Z 00000KT 10SM CLR 13/09 A2995 RMK AO2 SLP141 T01280094 55004=
201510280153 METAR KBFI 280153Z 00000KT 10SM SCT120 13/09 A2995 RMK AO2 SLP140 T01330094=
201510280053 METAR KBFI 280053Z 00000KT 10SM FEW120 OVC200 14/09 A2995 RMK AO2 SLP141 T01440094=
201510272353 METAR KBFI 272353Z 32003KT 10SM BKN250 16/09 A2996 RMK AO2 SLP144 T01560094 10156 20133 56007=
201510272253 METAR KBFI 272253Z 33004KT 10SM SCT250 16/10 A2996 RMK AO2 SLP145 T01560100=
201510272153 METAR KBFI 272153Z 30010KT 10SM FEW004 BKN180 16/10 A2997 RMK AO2 SLP148 T01560100=
201510272053 METAR KBFI 272053Z 33004KT 10SM BKN250 15/10 A2998 RMK AO2 SLP152 T01500100 58010=
201510271953 METAR KBFI 271953Z 31005KT 10SM FEW005 BKN250 14/10 A3000 RMK AO2 SLP157 T01440100=
201510271853 METAR KBFI 271853Z 32005KT 10SM FEW008 BKN250 14/10 A3001 RMK AO2 SLP161 T01390100=
201510271753 METAR KBFI 271753Z 00000KT 10SM FEW008 OVC200 13/09 A3001 RMK AO2 SLP162 60000 T01330094 10133 20094 58004=
201510271653 METAR KBFI 271653Z 00000KT 10SM FEW008 BKN250 11/09 A3002 RMK AO2 SLP164 T01110089=
201510271553 METAR KBFI 271553Z 00000KT 10SM FEW008 BKN250 12/09 A3002 RMK AO2 SLP163 T01170089=
201510271453 METAR KBFI 271453Z 00000KT 10SM FEW008 SCT250 11/08 A3002 RMK AO2 SLP165 60000 T01110083 55004=
201510271353 METAR KBFI 271353Z 00000KT 10SM SCT008 11/09 A3002 RMK AO2 RAB21E32 SLP164 P0000 T01110089=
201510271253 METAR KBFI 271253Z 00000KT 10SM FEW008 09/08 A3003 RMK AO2 RAB1154E09 SLP169 P0000 T00940078=
201510271153 METAR KBFI 271153Z 00000KT 8SM SCT008 10/08 A3003 RMK AO2 SLP170 P0001 60001 70009 T01000078 10139 20089 58002=
201510271125 SPECI KBFI 271125Z 24003KT 3SM BR FEW002 11/08 A3004 RMK AO2=
201510271053 METAR KBFI 271053Z 00000KT 10SM CLR 11/08 A3005 RMK AO2 RAB07E20 SLP175 P0000 T01060078=
201510270953 METAR KBFI 270953Z 00000KT 10SM CLR 11/08 A3005 RMK AO2 SLP175 T01060083=
201510270853 METAR KBFI 270853Z 00000KT 10SM CLR 11/08 A3004 RMK AO2 SLP172 T01110083 58003=
201510270753 METAR KBFI 270753Z 15003KT 10SM BKN075 13/09 A3004 RMK AO2 SLP173 T01280089 401440117=
201510270653 METAR KBFI 270653Z 15003KT 10SM OVC049 13/09 A3005 RMK AO2 SLP175 T01330094=
201510270553 METAR KBFI 270553Z 13004KT 10SM OVC045 13/10 A3005 RMK AO2 SLP175 T01330100 10139 20128 53004=
201510270453 METAR KBFI 270453Z 13004KT 10SM OVC043 13/10 A3004 RMK AO2 SLP172 T01330100=
201510270353 METAR KBFI 270353Z 13005KT 10SM OVC041 13/10 A3004 RMK AO2 SLP172 T01330100=
201510270253 METAR KBFI 270253Z 14007KT 10SM OVC039 13/10 A3004 RMK AO2 SLP171 T01330100 53001=
201510270153 METAR KBFI 270153Z 15007KT 10SM OVC035 14/10 A3003 RMK AO2 SLP167 T01390100=
201510270053 METAR KBFI 270053Z 14008KT 10SM SCT024 OVC033 14/11 A3003 RMK AO2 SLP168 T01390106=
201510270000 SPECI KBFI 270000Z 14010KT 10SM FEW008 SCT027 OVC033 14/11 A3003 RMK AO2=
201510262353 METAR KBFI 262353Z 14008KT 10SM FEW008 BKN025 OVC033 14/11 A3003 RMK AO2 SLP170 60001 T01390111 10144 20122 53009=
201510262253 METAR KBFI 262253Z 17007KT 10SM FEW008 BKN025 OVC033 14/11 A3002 RMK AO2 SLP167 T01440111=
201510262221 SPECI KBFI 262221Z 18008KT 100V210 10SM SCT008 OVC015 14/11 A3002 RMK AO2=
201510262153 METAR KBFI 262153Z 17007KT 10SM SCT008 OVC012 14/12 A3002 RMK AO2 SLP164 T01390122=
201510262053 METAR KBFI 262053Z 17008KT 10SM OVC012 14/12 A3001 RMK AO2 SLP161 60001 T01440122 51012=
201510261953 METAR KBFI 261953Z 16008KT 6SM BR OVC011 13/12 A3000 RMK AO2 RAB01E35 SLP158 P0001 T01330117=
201510261853 METAR KBFI 261853Z 17008KT 5SM HZ OVC009 13/11 A2999 RMK AO2 RAB1759E45 SLP155 P0000 T01330106=
201510261815 SPECI KBFI 261815Z 14010KT 4SM -RA BR OVC008 13/11 A2998 RMK AO2 RAB1759 CIG 004V011 P0000=
201510261753 METAR KBFI 261753Z 14010KT 2SM BR OVC006 12/11 A2997 RMK AO2 SLP149 P0001 60007 T01220106 10128 20117 53012=
201510261653 METAR KBFI 261653Z 14010KT 2SM BR OVC007 12/10 A2996 RMK AO2 SLP144 T01220100=
201510261635 SPECI KBFI 261635Z 14010KT 2SM BR OVC007 12/10 A2995 RMK AO2=
201510261625 SPECI KBFI 261625Z 14011KT 3SM BR OVC010 12/10 A2995 RMK AO2=
201510261553 METAR KBFI 261553Z 14012KT 2SM BR OVC006 12/11 A2994 RMK AO2 SLP137 T01170106=
201510261453 METAR KBFI 261453Z 15009KT 3SM BR BKN010 OVC014 12/10 A2992 RMK AO2 RAE53 SLP130 P0002 60006 T01170100 51009=
201510261353 METAR KBFI 261353Z 14012G18KT 3SM -RA BR FEW020 OVC030 12/10 A2990 RMK AO2 SLP123 P0001 T01170100=
201510261253 METAR KBFI 261253Z 14011KT 4SM -RA BR FEW026 OVC030 12/10 A2989 RMK AO2 SLP121 P0003 T01220100=
201510261153 METAR KBFI 261153Z 14010KT 10SM -RA FEW049 OVC060 12/09 A2987 RMK AO2 RAB30 SLP115 P0001 60001 70036 T01220094 10156 20122 53008=
201510261053 METAR KBFI 261053Z 14012KT 10SM FEW055 SCT070 OVC090 13/09 A2986 RMK AO2 SLP111 T01280089=
201510260953 METAR KBFI 260953Z 15011KT 10SM SCT032 BKN055 14/09 A2986 RMK AO2 SLP109 T01390089=
201510260853 METAR KBFI 260853Z 14012KT 10SM FEW035 SCT049 OVC060 13/09 A2985 RMK AO2 SLP107 T01330094 53026=
201510260753 METAR KBFI 260753Z 16011G18KT 10SM FEW027 OVC095 14/09 A2982 RMK AO2 SLP098 T01440094 401890089=
201510260653 METAR KBFI 260653Z 16012G22KT 10SM SCT030 BKN040 15/10 A2979 RMK AO2 PK WND 20028/0613 SLP086 T01500100=
201510260553 METAR KBFI 260553Z 17011G25KT 10SM FEW026 BKN042 OVC090 16/11 A2977 RMK AO2 RAE49 SLP081 P0001 60029 T01560106 10156 20133 53026=
201510260453 METAR KBFI 260453Z 14011KT 8SM -RA OVC036 14/12 A2972 RMK AO2 SLP065 P0005 T01390117=
201510260353 METAR KBFI 260353Z 14007KT 10SM -RA FEW026 BKN034 OVC044 14/12 A2970 RMK AO2 SLP056 P0008 T01390117=
201510260253 METAR KBFI 260253Z 13007KT 6SM -RA BR OVC026 13/12 A2969 RMK AO2 SLP055 P0009 60015 T01330117 53007=
201510260245 SPECI KBFI 260245Z 13007KT 6SM -RA BR OVC026 14/12 A2969 RMK AO2 P0008=
201510260237 SPECI KBFI 260237Z 13008KT 2 1/2SM RA BR OVC028 14/12 A2969 RMK AO2 P0006=
201510260153 METAR KBFI 260153Z 00000KT 5SM -RA OVC036 14/11 A2968 RMK AO2 SLP051 P0003 T01390111=
201510260053 METAR KBFI 260053Z 00000KT 7SM -RA OVC055 14/11 A2967 RMK AO2 SLP047 P0003 T01440106=
201510252353 METAR KBFI 252353Z 00000KT 7SM -RA OVC070 15/11 A2967 RMK AO2 RAB2256 SLP047 P0004 60005 T01500106 10189 20150 51006=
201510252253 METAR KBFI 252253Z 28003KT 10SM OVC080 16/09 A2966 RMK AO2 RAB12E45 SLP044 P0001 T01610094=
201510252153 METAR KBFI 252153Z VRB03KT 10SM FEW065 OVC090 17/08 A2966 RMK AO2 SLP045 T01720083=
201510252053 METAR KBFI 252053Z 34003KT 10SM OVC110 18/08 A2965 RMK AO2 SLP041 T01780083 56014=
201510251953 METAR KBFI 251953Z 34005KT 10SM OVC100 18/09 A2965 RMK AO2 SLP041 T01830089=
201510251853 METAR KBFI 251853Z VRB03KT 10SM BKN110 18/09 A2967 RMK AO2 SLP045 T01780094=
201510251753 METAR KBFI 251753Z AUTO VRB03KT 10SM BKN110 16/09 A2969 RMK AO2 PRESFR SLP055 60001 T01610089 10161 20089 56018 TSNO=
201510251653 METAR KBFI 251653Z 00000KT 10SM BKN110 13/10 A2970 RMK AO2 RAB31E41 SLP057 P0000 T01330100=
201510251553 METAR KBFI 251553Z 00000KT 10SM BKN110 13/09 A2974 RMK AO2 SLP069 T01280094=
201510251453 METAR KBFI 251453Z VRB03KT 10SM BKN100 11/08 A2975 RMK AO2 RAB10E33 SLP073 P0000 60001 T01110083 57022=
201510251353 METAR KBFI 251353Z 00000KT 8SM BKN150 10/08 A2976 RMK AO2 SLP077 P0001 T01000078=
201510251253 METAR KBFI 251253Z 00000KT 10SM FEW110 11/08 A2980 RMK AO2 SLP090 T01060083=
201510251153 METAR KBFI 251153Z 00000KT 10SM CLR 11/08 A2981 RMK AO2 SLP094 60000 70001 T01060083 10128 20106 56005=
201510251053 METAR KBFI 251053Z 00000KT 10SM BKN095 11/09 A2981 RMK AO2 SLP095 T01110089=
201510250953 METAR KBFI 250953Z 00000KT 10SM FEW080 OVC100 12/09 A2982 RMK AO2 SLP097 T01220089=
201510250853 METAR KBFI 250853Z 00000KT 10SM OVC090 12/09 A2982 RMK AO2 RAB10E47 SLP099 P0000 60000 T01220089 58017=
201510250753 METAR KBFI 250753Z 04007KT 010V080 10SM SCT046 OVC100 12/08 A2985 RMK AO2 RAE05B42E52 SLP109 P0000 T01220083 401560106=
201510250653 METAR KBFI 250653Z VRB03KT 10SM -RA BKN090 OVC110 12/08 A2987 RMK AO2 RAB51 SLP113 P0000 T01170083=
201510250553 METAR KBFI 250553Z 00000KT 10SM SCT110 11/08 A2987 RMK AO2 SLP116 T01110078 10133 20106 58003=
201510250500 METAR KBFI NIL=
201510250453 METAR KBFI 250453Z 00000KT 10SM FEW100 SCT120 12/08 A2987 RMK AO2 SLP115 T01170083=
201510250400 METAR KBFI NIL=
201510250353 METAR KBFI 250353Z 00000KT 10SM BKN250 11/08 A2989 RMK AO2 SLP120 T01110078=
201510250253 METAR KBFI 250253Z 00000KT 10SM BKN200 12/08 A2988 RMK AO2 SLP118 T01170078 56004=
201510250153 METAR KBFI 250153Z 00000KT 10SM BKN140 12/08 A2988 RMK AO2 SLP119 T01220078=
201510250053 METAR KBFI 250053Z 30004KT 10SM BKN140 13/08 A2988 RMK AO2 SLP118 T01280083=
201510242353 METAR KBFI 242353Z 32004KT 10SM BKN140 BKN200 13/08 A2989 RMK AO2 SLP123 60001 T01330083 10156 20117 56015=
201510242253 METAR KBFI 242253Z 32007KT 10SM BKN140 14/08 A2990 RMK AO2 SLP124 T01440083=
201510242153 METAR KBFI 242153Z AUTO 30005KT 10SM BKN140 BKN250 15/08 A2992 RMK AO2 SLP130 T01500083 TSNO=
201510242053 METAR KBFI 242053Z VRB05KT 10SM SCT012 BKN080 13/08 A2994 RMK AO2 SLP137 60001 T01330083 56020=
201510241953 METAR KBFI 241953Z 35005KT 10SM SCT012 OVC080 13/08 A2997 RMK AO2 SLP147 T01280083=
201510241853 METAR KBFI 241853Z 00000KT 6SM BR SCT009 BKN015 OVC025 12/08 A2995 RMK AO2 RAB03E42 SLP143 P0001 T01170083=
201510241753 METAR KBFI 241753Z 00000KT 6SM BR SCT009 BKN015 OVC025 12/08 A3000 RMK AO2 SLP157 T01170078 10117 20106 50006=
201510241653 METAR KBFI 241653Z 07003KT 5SM HZ OVC009 12/08 A3000 RMK AO2 SLP158 T01170078=
201510241600 METAR KBFI NIL=
201510241553 METAR KBFI 241553Z 00000KT 5SM HZ OVC009 11/08 A2999 RMK AO2 SLP156 T01110078=
201510241453 METAR KBFI 241453Z 00000KT 5SM HZ OVC009 11/08 A2998 RMK AO2 SLP151 T01110078 58002=
201510241353 METAR KBFI 241353Z 00000KT 7SM OVC009 11/08 A2998 RMK AO2 SLP152 T01060078=
201510241253 METAR KBFI 241253Z 34003KT 8SM OVC009 11/07 A2999 RMK AO2 SLP156 T01060072=
201510241153 METAR KBFI 241153Z 36003KT 7SM OVC008 11/08 A2998 RMK AO2 SLP153 T01110078 10117 20111 58014=
201510241053 METAR KBFI 241053Z 33003KT 8SM BKN010 11/08 A3000 RMK AO2 SLP158 T01110078=
201510240953 METAR KBFI 240953Z 36004KT 8SM OVC008 12/08 A3002 RMK AO2 SLP163 T01170078=
201510240910 SPECI KBFI 240910Z 35003KT 8SM OVC009 12/08 A3002 RMK AO2=
201510240853 METAR KBFI 240853Z 34003KT 7SM BKN010 11/08 A3002 RMK AO2 SLP167 T01110078 56008=
201510240838 SPECI KBFI 240838Z 32003KT 7SM BKN009 11/08 A3002 RMK AO2=
201510240804 SPECI KBFI 240804Z 00000KT 7SM SCT009 11/08 A3003 RMK AO2=
201510240753 METAR KBFI 240753Z 00000KT 8SM BKN009 12/08 A3003 RMK AO2 SLP169 T01170078 401500078=
201510240729 SPECI KBFI 240729Z 33003KT 9SM BKN009 12/08 A3003 RMK AO2=
201510240717 SPECI KBFI 240717Z 00000KT 9SM SCT009 12/08 A3004 RMK AO2=
201510240653 METAR KBFI 240653Z COR 33003KT 10SM CLR 12/08 A3004 RMK FG E SFC009 AO2 SLP172 T01170078=
201510240553 METAR KBFI 240553Z 00000KT 10SM CLR 12/08 A3005 RMK AO2 SLP175 T01220078 10139 20117 56006=
201510240453 METAR KBFI 240453Z 36003KT 10SM BKN250 12/08 A3005 RMK AO2 SLP176 T01220078=
201510240353 METAR KBFI 240353Z 33003KT 10SM CLR 12/08 A3006 RMK AO2 SLP178 T01220078=
201510240253 METAR KBFI 240253Z 36003KT 10SM CLR 13/08 A3007 RMK AO2 SLP181 T01280078 56011=
201510240153 METAR KBFI 240153Z 00000KT 10SM BKN180 13/07 A3008 RMK AO2 SLP185 T01330072=
201510240053 METAR KBFI 240053Z VRB03KT 10SM BKN180 14/08 A3008 RMK AO2 SLP185 T01390078=
201510232353 METAR KBFI 232353Z 31006KT 10SM BKN180 14/08 A3010 RMK AO2 SLP192 T01390083 10150 20122 56017=
201510232253 METAR KBFI 232253Z 02004KT 10SM BKN180 14/07 A3011 RMK AO2 SLP195 T01440067=
201510232153 METAR KBFI 232153Z VRB03KT 10SM BKN180 14/07 A3013 RMK AO2 SLP202 T01440072=
201510232053 METAR KBFI 232053Z VRB03KT 10SM FEW010 BKN180 14/07 A3015 RMK AO2 SLP209 T01440072 58013=
201510231953 METAR KBFI 231953Z 04005KT 10SM OVC210 14/08 A3017 RMK AO2 SLP214 T01390078=
201510231853 METAR KBFI 231853Z 31005KT 10SM FEW005 OVC200 13/07 A3018 RMK AO2 SLP219 T01280072=
201510231753 METAR KBFI 231753Z 00000KT 10SM FEW006 OVC200 13/07 A3019 RMK AO2 SLP222 T01280072 10128 20089 57001=
201510231653 METAR KBFI 231653Z 02003KT 10SM FEW006 BKN250 12/08 A3019 RMK AO2 SLP222 T01170078=
201510231634 SPECI KBFI 231634Z 00000KT 10SM BKN250 11/07 A3019 RMK AO2=
201510231553 METAR KBFI 231553Z COR 00000KT 10SM FEW005 OVC200 10/06 A3019 RMK AO2 SLP222 T01000061=
201510231453 METAR KBFI 231453Z 00000KT 10SM SCT006 OVC200 09/07 A3019 RMK AO2 SLP223 T00940067 56007=
201510231353 METAR KBFI 231353Z 00000KT 5SM BR OVC006 10/07 A3020 RMK AO2 SLP226 T01000072=
201510231253 METAR KBFI 231253Z 15003KT 3SM BR BKN004 OVC006 09/07 A3021 RMK AO2 SLP229 TOPS BKN007 T00940067=
201510231153 METAR KBFI 231153Z 15005KT 3SM BR BKN004 09/06 A3022 RMK AO2 SLP233 TOPS BKN007 60000 T00890061 10111 20078 58007=
201510231053 METAR KBFI 231053Z 00000KT 8SM BCFG SCT005 09/06 A3023 RMK AO2 SLP236 TOPS 008 T00890061=
201510230953 METAR KBFI 230953Z COR 00000KT 10SM VCFG SCT005 09/06 A3024 RMK AO2 SLP241 T00890061=
201510230919 SPECI KBFI 230919Z 00000KT 10SM FEW006 SCT200 10/07 A3024 RMK AO2=
201510230853 METAR KBFI 230853Z 00000KT 10SM CLR 09/06 A3024 RMK AO2 SLP240 60000 T00940061 56011=
201510230753 METAR KBFI 230753Z 00000KT 10SM CLR 10/07 A3025 RMK AO2 RAB39E52 SLP242 P0000 T01000067 401670083=
201510230653 METAR KBFI 230653Z 00000KT 10SM CLR 10/07 A3026 RMK AO2 SLP248 T01000067=
201510230553 METAR KBFI 230553Z 00000KT 10SM CLR 11/07 A3028 RMK AO2 SLP252 T01110072 10167 20106 52003=
201510230453 METAR KBFI 230453Z 00000KT 10SM CLR 11/07 A3027 RMK AO2 SLP250 T01060067=
201510230353 METAR KBFI 230353Z 00000KT 10SM CLR 12/07 A3027 RMK AO2 SLP250 T01220067=
201510230253 METAR KBFI 230253Z 00000KT 10SM BKN250 13/06 A3027 RMK AO2 SLP249 T01330061 53005=
201510230153 METAR KBFI 230153Z VRB03KT 10SM BKN250 14/07 A3026 RMK AO2 SLP247 T01440072=
201510230053 METAR KBFI 230053Z 30004KT 10SM BKN250 16/06 A3025 RMK AO2 SLP244 T01560056=
201510222353 METAR KBFI 222353Z 30007KT 10SM BKN250 16/06 A3025 RMK AO2 SLP244 T01610056 10167 20144 56009=
201510222253 METAR KBFI 222253Z 31005KT 10SM FEW020 BKN250 17/06 A3026 RMK AO2 SLP247 T01670061=
201510222153 METAR KBFI 222153Z 30006KT 10SM CLR 16/07 A3027 RMK AO2 SLP248 T01610072=
201510222053 METAR KBFI 222053Z 31005KT 10SM SCT020 16/08 A3028 RMK AO2 SLP253 T01610078 58001=
201510221953 METAR KBFI 221953Z 33006KT 10SM SCT020 16/08 A3028 RMK AO2 SLP254 T01610083=
201510221853 METAR KBFI 221853Z 00000KT 10SM BKN020 14/08 A3028 RMK AO2 SLP254 T01440083=
201510221850 SPECI KBFI 221850Z 00000KT 10SM BKN020 15/08 A3028 RMK AO2=
201510221753 METAR KBFI 221753Z 00000KT 10SM SCT030 14/09 A3029 RMK AO2 SLP255 60000 T01440089 10144 20083 51011=
201510221653 METAR KBFI 221653Z 33005KT 10SM SCT030 14/08 A3028 RMK AO2 SLP254 T01390083=
201510221553 METAR KBFI 221553Z COR 34004KT 10SM FEW005 SCT020 12/09 A3027 RMK AO2 SLP250 T01220089=
201510221453 METAR KBFI 221453Z COR 00000KT 10SM SCT020 10/08 A3025 RMK AO2 SLP244 60000 T01000078 51007=
201510221416 SPECI KBFI 221416Z 00000KT 8SM FEW005 BKN020 10/08 A3025 RMK AO2=
201510221353 METAR KBFI 221353Z 00000KT 7SM FEW005 BKN050 10/08 A3025 RMK AO2 RAB11E24 SLP244 P0000 T01000078=
201510221306 SPECI KBFI 221306Z 00000KT 3SM BR FEW005 BKN032 BKN043 10/08 A3025 RMK AO2=
201510221253 METAR KBFI 221253Z 00000KT 1SM BR FEW005 BKN034 09/08 A3025 RMK AO2 SLP242 T00940078=
201510221156 SPECI KBFI 221156Z 00000KT 1/2SM FG FEW005 09/08 A3024 RMK AO2=
201510221153 METAR KBFI 221153Z 00000KT 1/2SM FG SCT060 10/08 A3023 RMK AO2 SLP238 60001 70001 T01000078 10133 20094 53009=
201510221146 SPECI KBFI 221146Z VRB03KT 2SM BR SCT060 09/08 A3023 RMK AO2=
201510221053 METAR KBFI 221053Z 00000KT 3SM BR SCT070 11/09 A3022 RMK AO2 RAB14E17 SLP233 P0000 T01110089=
201510220953 METAR KBFI 220953Z 00000KT 7SM CLR 11/08 A3022 RMK AO2 SLP231 P0001 T01110083=
201510220853 METAR KBFI 220853Z 00000KT 10SM FEW003 SCT070 12/09 A3021 RMK AO2 SLP228 T01220094 53009=
201510220753 METAR KBFI 220753Z 00000KT 10SM SCT070 13/09 A3019 RMK AO2 SLP223 T01280094 401830094=
201510220653 METAR KBFI 220653Z 00000KT 10SM OVC070 13/10 A3019 RMK AO2 SLP222 T01330100=
201510220553 METAR KBFI 220553Z 00000KT 10SM OVC065 13/09 A3018 RMK AO2 SLP219 T01330094 10172 20128 51008=
201510220453 METAR KBFI 220453Z 00000KT 10SM BKN065 13/09 A3017 RMK AO2 SLP217 T01330094=
201510220353 METAR KBFI 220353Z 00000KT 10SM BKN049 14/09 A3017 RMK AO2 SLP215 T01440094=
201510220253 METAR KBFI 220253Z 00000KT 10SM BKN041 15/09 A3016 RMK AO2 SLP211 T01500094 53011=
201510220153 METAR KBFI 220153Z 31003KT 10SM BKN025 OVC060 15/10 A3014 RMK AO2 SLP205 T01500100=
201510220053 METAR KBFI 220053Z 00000KT 10SM BKN030 17/11 A3013 RMK AO2 SLP201 T01670106=
201510212353 METAR KBFI 212353Z 00000KT 10SM FEW022 BKN030 OVC040 17/12 A3012 RMK AO2 RAB11E28 SLP200 P0000 60000 T01720117 10183 20133 56001=
201510212253 METAR KBFI 212253Z 00000KT 10SM FEW042 SCT050 OVC060 17/11 A3013 RMK AO2 SLP201 T01720106=
201510212153 METAR KBFI 212153Z 25008KT 10SM FEW030 SCT100 BKN250 17/11 A3012 RMK AO2 SLP200 T01670111=
201510212053 METAR KBFI 212053Z 22004KT 10SM FEW030 SCT100 BKN250 18/11 A3013 RMK AO2 SLP201 T01780111 58003=
201510211953 METAR KBFI 211953Z 15007KT 10SM FEW100 BKN200 17/11 A3013 RMK AO2 SLP203 T01670106=
201510211853 METAR KBFI 211853Z 14004KT 10SM FEW100 BKN250 14/10 A3014 RMK AO2 SLP204 T01440100=
201510211753 METAR KBFI 211753Z 14007KT 10SM OVC100 13/09 A3014 RMK AO2 SLP204 T01330094 10133 20100 58004=
201510211653 METAR KBFI 211653Z 14003KT 10SM FEW005 BKN100 12/09 A3014 RMK AO2 SLP206 T01170089=
201510211553 METAR KBFI 211553Z 14007KT 10SM SCT003 OVC150 11/08 A3015 RMK AO2 SLP208 T01060083=
201510211524 SPECI KBFI 211524Z 14005KT 6SM BR SCT003 OVC150 10/08 A3014 RMK AO2=
201510211459 SPECI KBFI 211459Z 12004KT 3SM BR OVC003 10/08 A3015 RMK AO2=
201510211453 METAR KBFI 211453Z 13003KT 1SM BR VV003 10/09 A3015 RMK AO2 SLP208 T01000089 55002=
201510211410 SPECI KBFI 211410Z 14004KT 1SM BR OVC003 11/09 A3014 RMK AO2=
201510211353 METAR KBFI 211353Z 14004KT 10SM OVC003 11/09 A3015 RMK AO2 SLP208 T01110089=
201510211253 METAR KBFI 211253Z 13003KT 10SM OVC003 11/09 A3015 RMK AO2 SLP209 T01110089=
201510211202 SPECI KBFI 211202Z 00000KT 10SM BKN003 11/08 A3015 RMK AO2=
201510211153 METAR KBFI 211153Z 00000KT 10SM SCT003 11/08 A3015 RMK AO2 SLP210 60000 T01060083 10128 20094 53000=
201510211123 SPECI KBFI 211123Z 00000KT 10SM FEW005 11/08 A3016 RMK AO2=
201510211053 METAR KBFI 211053Z 00000KT 10SM CLR 10/07 A3015 RMK AO2 SLP208 T01000072=
201510211000 METAR KBFI NIL=
201510210953 METAR KBFI 210953Z 00000KT 10SM CLR 11/08 A3015 RMK AO2 RAB27E37 SLP209 P0000 T01060083=
201510210853 METAR KBFI 210853Z 00000KT 10SM CLR 11/08 A3015 RMK AO2 SLP210 T01110083 58016=
201510210753 METAR KBFI 210753Z 00000KT 10SM CLR 11/08 A3017 RMK AO2 SLP215 T01060083 401830106=
201510210653 METAR KBFI 210653Z 00000KT 10SM CLR 11/08 A3019 RMK AO2 SLP222 T01110083=
201510210553 METAR KBFI 210553Z 00000KT 10SM CLR 12/09 A3020 RMK AO2 SLP225 T01220089 10178 20122 57008=
201510210453 METAR KBFI 210453Z 00000KT 10SM CLR 13/09 A3021 RMK AO2 SLP228 T01280089=
201510210353 METAR KBFI 210353Z 00000KT 10SM CLR 14/09 A3021 RMK AO2 SLP231 T01390089=
201510210253 METAR KBFI 210253Z 30004KT 10SM CLR 14/09 A3022 RMK AO2 SLP234 T01440089 56003=
201510210153 METAR KBFI 210153Z 00000KT 10SM CLR 16/08 A3023 RMK AO2 SLP235 T01610083=
201510210053 METAR KBFI 210053Z 31005KT 10SM FEW120 17/08 A3023 RMK AO2 SLP235 T01720078=
201510202353 METAR KBFI 202353Z 30008KT 10SM FEW040 18/08 A3023 RMK AO2 SLP236 T01780078 10183 20150 57013=
201510202253 METAR KBFI 202253Z 31009KT 10SM FEW035 SCT200 18/08 A3024 RMK AO2 SLP241 T01830078=
201510202153 METAR KBFI 202153Z 33008KT 10SM FEW035 SCT200 18/09 A3025 RMK AO2 SLP244 T01780094=
201510202053 METAR KBFI 202053Z 32010KT 10SM FEW025 BKN250 17/09 A3027 RMK AO2 SLP249 T01720094 58008=
201510201953 METAR KBFI 201953Z VRB05KT 10SM FEW015 SCT070 17/10 A3028 RMK AO2 SLP253 T01720100=
201510201853 METAR KBFI 201853Z 00000KT 10SM FEW015 SCT045 BKN250 17/11 A3029 RMK AO2 SLP256 T01670106=
201510201753 METAR KBFI 201753Z 00000KT 10SM SCT015 BKN045 15/11 A3029 RMK AO2 SLP257 T01500106 10156 20128 51007=
201510201731 SPECI KBFI 201731Z 00000KT 10SM SCT015 BKN045 15/10 A3029 RMK AO2=
201510201724 SPECI KBFI 201724Z 29003KT 10SM BKN015 BKN047 15/11 A3029 RMK AO2=
201510201711 SPECI KBFI 201711Z 32003KT 10SM SCT013 BKN047 15/11 A3029 RMK AO2=
201510201653 METAR KBFI 201653Z 29004KT 10SM BKN013 BKN042 14/11 A3028 RMK AO2 SLP254 T01440106=
201510201651 SPECI KBFI 201651Z 28003KT 10SM BKN013 BKN042 15/11 A3028 RMK AO2=
201510201553 METAR KBFI 201553Z 31004KT 10SM SCT010 BKN045 14/11 A3027 RMK AO2 SLP251 T01440111=
201510201507 SPECI KBFI 201507Z 30003KT 9SM FEW010 BKN047 14/11 A3026 RMK AO2=
201510201505 SPECI KBFI 201505Z 00000KT 9SM BKN008 OVC049 14/11 A3026 RMK AO2=
201510201453 METAR KBFI 201453Z 00000KT 9SM FEW010 BKN047 14/11 A3025 RMK AO2 SLP243 T01390111 51009=
201510201353 METAR KBFI 201353Z 32003KT 10SM OVC045 14/11 A3024 RMK AO2 SLP241 T01390106=
201510201253 METAR KBFI 201253Z 00000KT 10SM OVC047 13/11 A3023 RMK AO2 SLP236 T01330106=
201510201153 METAR KBFI 201153Z 00000KT 10SM FEW042 13/10 A3022 RMK AO2 SLP234 T01280100 10150 20128 51010=
201510201053 METAR KBFI 201053Z 00000KT 10SM SCT060 14/11 A3022 RMK AO2 SLP231 T01390106=
201510200953 METAR KBFI 200953Z 00000KT 10SM BKN050 OVC065 14/11 A3021 RMK AO2 SLP231 T01440111=
201510200853 METAR KBFI 200853Z 00000KT 10SM FEW012 SCT048 OVC065 14/12 A3019 RMK AO2 SLP223 T01440117 53015=
201510200753 METAR KBFI 200753Z 00000KT 10SM FEW010 OVC060 14/12 A3018 RMK AO2 SLP218 T01440117 401940139=
201510200653 METAR KBFI 200653Z 32003KT 10SM SCT009 BKN035 OVC060 14/12 A3015 RMK AO2 SLP210 T01440117=
201510200553 METAR KBFI 200553Z 00000KT 10SM FEW008 BKN035 OVC060 15/12 A3015 RMK AO2 RAE03 SLP208 P0000 60000 T01500117 10183 20150 53016=
201510200453 METAR KBFI 200453Z 00000KT 10SM -RA BKN029 BKN060 OVC070 15/12 A3012 RMK AO2 RAB53 SLP199 P0000 T01500117=
201510200440 SPECI KBFI 200440Z 00000KT 10SM BKN029 OVC049 16/12 A3012 RMK AO2=
201510200353 METAR KBFI 200353Z 31004KT 10SM SCT024 SCT031 OVC045 16/12 A3010 RMK AO2 SLP193 T01560117=
201510200253 METAR KBFI 200253Z 31009KT 10SM BKN023 OVC044 16/12 A3008 RMK AO2 SLP185 T01610117 53024=
201510200210 SPECI KBFI 200210Z 32006KT 10SM BKN022 OVC039 17/12 A3006 RMK AO2=
201510200153 METAR KBFI 200153Z VRB03KT 10SM SCT021 BKN048 OVC080 18/12 A3005 RMK AO2 SLP174 T01780122=
201510200053 METAR KBFI 200053Z 00000KT 10SM SCT025 OVC041 18/12 A3002 RMK AO2 SLP166 T01830117=
201510192353 METAR KBFI 192353Z 24005KT 10SM SCT024 BKN029 OVC036 18/12 A3001 RMK AO2 SLP160 T01830117 10194 20172 53007=
201510192253 METAR KBFI 192253Z 17006KT 10SM SCT025 BKN035 BKN070 19/12 A2999 RMK AO2 SLP156 T01890117=
201510192153 METAR KBFI 192153Z VRB06KT 10SM SCT022 OVC043 18/12 A2999 RMK AO2 SLP156 T01830117=
201510192107 SPECI KBFI 192107Z 16005KT 10SM SCT020 BKN030 OVC048 18/13 A2999 RMK AO2=
201510192100 SPECI KBFI 192100Z VRB04KT 10SM BKN020 OVC048 18/12 A2999 RMK AO2=
201510192053 METAR KBFI 192053Z VRB05KT 10SM SCT020 BKN030 OVC048 18/12 A2999 RMK AO2 SLP154 T01830122 53007=
201510191953 METAR KBFI 191953Z COR 17009KT 10SM FEW020 BKN050 19/13 A2998 RMK AO2 SLP151 T01890128=
201510191853 METAR KBFI 191853Z 20007KT 170V240 10SM SCT015 BKN025 BKN040 18/13 A2997 RMK AO2 SLP148 T01830128=
201510191753 METAR KBFI 191753Z 16007KT 10SM FEW010 SCT033 BKN040 17/13 A2997 RMK AO2 SLP147 T01720133 10172 20156 51009=
201510191706 SPECI KBFI 191706Z 16007KT 10SM SCT010 SCT018 BKN024 17/13 A2997 RMK AO2=
201510191653 METAR KBFI 191653Z 18007KT 10SM SCT018 BKN024 17/13 A2997 RMK AO2 SLP147 T01670133=
201510191553 METAR KBFI 191553Z 16006KT 10SM SCT008 BKN024 16/13 A2995 RMK AO2 SLP142 T01610128=
201510191453 METAR KBFI 191453Z 16004KT 10SM BKN008 BKN017 OVC028 16/13 A2994 RMK AO2 SLP138 T01560128 55000=
201510191353 METAR KBFI 191353Z 13005KT 10SM BKN008 OVC013 16/13 A2994 RMK AO2 SLP137 T01560133=
201510191253 METAR KBFI 191253Z 14004KT 5SM BR BKN008 OVC014 16/13 A2994 RMK AO2 SLP137 T01560133=
201510191153 METAR KBFI 191153Z 00000KT 10SM OVC009 16/13 A2994 RMK AO2 SLP138 60001 70016 T01560133 10167 20156 58007=
201510191053 METAR KBFI 191053Z 00000KT 10SM OVC009 16/13 A2995 RMK AO2 SLP142 T01560128=
201510191027 SPECI KBFI 191027Z 19003KT 10SM OVC009 16/13 A2996 RMK AO2=
201510190953 METAR KBFI 190953Z AUTO 18004KT 10SM OVC011 16/13 A2996 RMK AO2 SLP144 T01610128 TSNO=
201510190853 METAR KBFI 190853Z 00000KT 10SM OVC011 16/13 A2996 RMK AO2 CIG 008V014 SLP145 60001 T01610128 56003=
201510190753 METAR KBFI 190753Z 00000KT 10SM BKN011 16/13 A2996 RMK AO2 SLP146 T01610133 401670150=
201510190653 METAR KBFI 190653Z 00000KT 7SM BKN011 16/13 A2996 RMK AO2 RAE01 SLP146 P0001 T01610133=
201510190553 METAR KBFI 190553Z 00000KT 5SM -RA BR OVC011 16/14 A2997 RMK AO2 RAB23 CIG 007V013 SLP149 P0000 60009 T01610139 10167 20156 56004=
201510190546 SPECI KBFI 190546Z 00000KT 8SM OVC010 17/14 A2997 RMK AO2 RAB23E33 CIG 007V013 P0000=
201510190453 METAR KBFI 190453Z 20003KT 4SM BR OVC006 16/14 A2997 RMK AO2 RAE23 CIG 004V009 SLP149 P0002 T01610139=
201510190353 METAR KBFI 190353Z 16003KT 2SM -RA BR OVC008 16/14 A2998 RMK AO2 RAB01 CIG 006V011 SLP150 P0001 T01610139=
201510190253 METAR KBFI 190253Z 14003KT 3SM BR OVC008 16/14 A2998 RMK AO2 RAB20E33 SLP153 P0001 60006 T01610139 55002=
201510190153 METAR KBFI 190153Z 14004KT 3SM BR BKN006 BKN030 16/15 A2998 RMK AO2 RAB03E43 SLP151 P0005 T01610150=
201510190129 SPECI KBFI 190129Z 14004KT 1SM -RA BR BKN006 OVC013 16/14 A2998 RMK AO2 RAB03 P0004=
201510190120 SPECI KBFI 190120Z 14004KT 3/4SM -RA BR BKN006 OVC013 16/14 A2998 RMK AO2 RAB03 P0003=
201510190117 SPECI KBFI 190117Z 15003KT 3/4SM -RA BR BKN011 BKN017 OVC026 16/14 A2998 RMK AO2 RAB03 P0002=
201510190053 METAR KBFI 190053Z AUTO 14005KT 1 3/4SM BR OVC007 16/14 A2998 RMK AO2 SLP152 T01610139 TSNO=
201510190005 SPECI KBFI 190005Z 15003KT 2SM BR OVC006 16/14 A2999 RMK AO2=
201510182355 SPECI KBFI 182355Z 16005KT 1 3/4SM HZ OVC010 16/13 A2999 RMK AO2 CIG 006V012=
201510182353 METAR KBFI 182353Z 15006KT 2 1/2SM HZ BKN006 OVC015 16/13 A2999 RMK AO2 SLP155 60001 T01610133 10167 20156 56006=
201510182253 METAR KBFI 182253Z 15007KT 10SM BKN009 OVC015 17/13 A2999 RMK AO2 SLP156 T01670133=
201510182153 METAR KBFI 182153Z 15005KT 7SM BKN009 OVC015 16/13 A3000 RMK AO2 RAB2057E15 SLP157 P0000 T01610133=
201510182053 METAR KBFI 182053Z 16005KT 6SM HZ BKN009 OVC022 17/13 A3001 RMK AO2 RAE45 SLP161 P0000 60001 T01670133 56004=
201510182051 SPECI KBFI 182051Z 15006KT 6SM HZ BKN009 OVC022 17/13 A3001 RMK AO2 RAE45 P0000=
201510181953 METAR KBFI 181953Z COR 15004KT 2SM -RA BR BKN006 OVC150 16/14 A3002 RMK AO2 RAE13B49 SLP164 P0000 T01610139=
201510181853 METAR KBFI 181853Z 00000KT 2SM -RA BR BKN008 OVC015 16/13 A3002 RMK AO2 RAB28 SLP165 P0001 T01560133=
201510181847 SPECI KBFI 181847Z 00000KT 2SM -RA BR BKN008 OVC015 16/13 A3002 RMK AO2 RAB28 P0000=
201510181753 METAR KBFI 181753Z 00000KT 2SM BR BKN004 OVC015 16/13 A3002 RMK AO2 RAE27 SLP166 P0001 60005 T01560133 10156 20150 51013=
201510181653 METAR KBFI 181653Z 13003KT 2SM -RA BR BKN004 OVC015 15/13 A3001 RMK AO2 CIG 003V009 SLP163 P0003 T01500133=
201510181553 METAR KBFI 181553Z 16003KT 1 1/2SM -RA BR BKN004 OVC017 15/13 A3000 RMK AO2 RAB39 SLP158 P0000 T01500128=
201510181549 SPECI KBFI 181549Z 14004KT 2SM -RA BR BKN004 OVC017 15/13 A3000 RMK AO2 RAB39 P0000=
201510181542 SPECI KBFI 181542Z 14003KT 1 3/4SM -RA BR FEW006 OVC017 15/13 A3000 RMK AO2 RAB39 P0000=
201510181453 METAR KBFI 181453Z 12003KT 4SM BR SCT006 OVC016 15/13 A2999 RMK AO2 SLP153 P0001 60001 T01500128 51002=
201510181450 SPECI KBFI 181450Z 00000KT 4SM BR BKN006 OVC016 15/13 A2998 RMK AO2 P0001=
201510181422 SPECI KBFI 181422Z 14004KT 2SM BR SCT009 OVC016 16/13 A2999 RMK AO2=
201510181353 METAR KBFI 181353Z 14003KT 6SM HZ BKN018 OVC025 16/13 A2998 RMK AO2 SLP153 T01560128=
201510181253 METAR KBFI 181253Z 12003KT 4SM BR BKN010 BKN016 OVC021 16/13 A2998 RMK AO2 SLP153 T01560133=
201510181153 METAR KBFI 181153Z 00000KT 8SM OVC012 16/13 A2998 RMK AO2 SLP151 70004 T01560128 10161 20150 51007=
201510181053 METAR KBFI 181053Z 14003KT 10SM SCT029 BKN034 OVC095 15/12 A2997 RMK AO2 SLP150 T01500122=
201510180953 METAR KBFI 180953Z 00000KT 10SM SCT028 OVC090 15/12 A2997 RMK AO2 SLP148 T01500122=
201510180853 METAR KBFI 180853Z 00000KT 10SM BKN028 OVC046 16/12 A2996 RMK AO2 SLP144 T01560122 53004=
201510180844 SPECI KBFI 180844Z 19004KT 10SM BKN028 OVC044 16/13 A2996 RMK AO2=
201510180753 METAR KBFI 180753Z 16004KT 10SM OVC044 16/13 A2995 RMK AO2 SLP140 T01610128 402000139=
201510180653 METAR KBFI 180653Z 16003KT 10SM BKN016 OVC042 16/13 A2995 RMK AO2 SLP140 T01610128=
201510180553 METAR KBFI 180553Z 00000KT 10SM BKN016 OVC042 16/13 A2995 RMK AO2 SLP140 60004 T01560133 10178 20156 55000=
201510180453 METAR KBFI 180453Z 14003KT 10SM SCT016 BKN036 BKN100 16/13 A2994 RMK AO2 SLP139 T01560128=
201510180353 METAR KBFI 180353Z 14003KT 10SM FEW017 SCT023 OVC110 16/13 A2995 RMK AO2 SLP140 T01610128=
201510180253 METAR KBFI 180253Z 15003KT 10SM OVC018 16/13 A2994 RMK AO2 RAE34 SLP137 P0001 60004 T01610128 51013=
201510180153 METAR KBFI 180153Z 17004KT 9SM -RA BKN018 OVC100 17/13 A2993 RMK AO2 SLP135 P0002 T01670133=
201510180053 METAR KBFI 180053Z 20004KT 8SM -RA FEW019 SCT026 OVC100 17/13 A2991 RMK AO2 RAE15B37 SLP130 P0001 T01720128=
201510172353 METAR KBFI 172353Z VRB03KT 10SM -RA BKN080 18/13 A2990 RMK AO2 RAB48 SLP124 P0000 60000 T01780133 10200 20161 53008=
201510172253 METAR KBFI 172253Z VRB04KT 10SM OVC085 18/13 A2989 RMK AO2 SLP120 T01830128=
201510172153 METAR KBFI 172153Z 19004KT 10SM OVC090 19/12 A2988 RMK AO2 SLP116 T01940122=
201510172053 METAR KBFI 172053Z 17003KT 10SM BKN080 20/12 A2987 RMK AO2 SLP116 T02000122 58004=
201510171953 METAR KBFI 171953Z 00000KT 10SM BKN090 19/13 A2988 RMK AO2 SLP118 T01940128=
201510171853 METAR KBFI 171853Z COR 00000KT 10SM BKN090 18/12 A2989 RMK AO2 SLP120 T01780122=
201510171753 METAR KBFI 171753Z 00000KT 10SM BKN100 16/12 A2989 RMK AO2 SLP120 T01610117 10161 20139 53004=
201510171653 METAR KBFI 171653Z COR 20005KT 10SM BKN090 16/12 A2988 RMK AO2 SLP117 T01560117=
201510171553 METAR KBFI 171553Z COR 00000KT 10SM BKN100 14/11 A2986 RMK AO2 SLP110 T01440111=
201510171453 METAR KBFI 171453Z 00000KT 10SM SCT110 14/11 A2987 RMK AO2 SLP115 T01390111 53004=
201510171353 METAR KBFI 171353Z 25003KT 10SM CLR 14/11 A2987 RMK AO2 SLP114 T01390106=
201510171253 METAR KBFI 171253Z 00000KT 10SM CLR 14/11 A2985 RMK AO2 SLP109 T01440106=
201510171153 METAR KBFI 171153Z 00000KT 10SM CLR 14/10 A2986 RMK AO2 SLP111 T01440100 10167 20144 53001=
201510171053 METAR KBFI 171053Z 00000KT 10SM CLR 14/11 A2984 RMK AO2 SLP104 T01440111=
201510170953 METAR KBFI 170953Z 00000KT 10SM CLR 15/10 A2986 RMK AO2 SLP110 T01500100=
201510170853 METAR KBFI 170853Z 00000KT 10SM CLR 14/10 A2986 RMK AO2 SLP110 T01440100 50001=
201510170753 METAR KBFI 170753Z 00000KT 10SM CLR 16/10 A2987 RMK AO2 SLP114 T01610100 402110094=
201510170653 METAR KBFI 170653Z 14005KT 10SM CLR 16/10 A2987 RMK AO2 SLP115 T01560100=
201510170553 METAR KBFI 170553Z 16003KT 10SM CLR 16/09 A2985 RMK AO2 SLP109 T01560089 10206 20150 53007=
201510170453 METAR KBFI 170453Z 00000KT 10SM CLR 17/09 A2984 RMK AO2 SLP103 T01720089=
201510170353 METAR KBFI 170353Z 00000KT 10SM CLR 17/09 A2984 RMK AO2 SLP104 T01720094=
201510170253 METAR KBFI 170253Z 00000KT 10SM BKN170 18/09 A2983 RMK AO2 SLP102 T01830094 56007=
201510170153 METAR KBFI 170153Z 00000KT 10SM OVC170 18/10 A2983 RMK AO2 SLP102 T01830100=
201510170053 METAR KBFI 170053Z 00000KT 10SM FEW170 BKN250 19/09 A2985 RMK AO2 SLP107 T01940089=
201510162353 METAR KBFI 162353Z 31003KT 10SM FEW100 21/08 A2985 RMK AO2 SLP108 T02060083 10211 20161 56015=
201510162253 METAR KBFI 162253Z 31005KT 10SM FEW100 21/08 A2986 RMK AO2 SLP110 T02060083=
201510162153 METAR KBFI 162153Z 31004KT 10SM BKN100 BKN250 19/08 A2987 RMK AO2 SLP115 T01940083=
201510162053 METAR KBFI 162053Z COR 32005KT 10SM BKN100 BKN250 19/08 A2990 RMK AO2 SLP123 T01890083 58016 TSNO=
201510161953 METAR KBFI 161953Z 32003KT 10SM FEW150 BKN250 19/09 A2992 RMK AO2 SLP130 T01940089=
201510161853 METAR KBFI 161853Z 30003KT 10SM SCT230 18/09 A2993 RMK AO2 SLP134 T01780089=
201510161753 METAR KBFI 161753Z 32003KT 10SM BKN250 16/09 A2994 RMK AO2 SLP139 60000 T01560094 10156 20094 56003=
201510161653 METAR KBFI 161653Z 00000KT 10SM SCT180 SCT240 12/09 A2994 RMK AO2 SLP139 T01220089=
201510161553 METAR KBFI 161553Z 00000KT 10SM FEW004 SCT015 BKN180 11/08 A2995 RMK AO2 SLP140 T01060083=
201510161453 METAR KBFI 161453Z 00000KT 10SM FEW015 BKN150 10/08 A2995 RMK AO2 SLP142 60000 T01000078 58004=
201510161353 METAR KBFI 161353Z 15003KT 10SM BKN150 10/08 A2996 RMK AO2 RAB01E12 SLP146 P0000 T01000078=
201510161253 METAR KBFI 161253Z 00000KT 10SM CLR 10/07 A2997 RMK AO2 SLP148 T01000072=
201510161153 METAR KBFI 161153Z 00000KT 10SM CLR 11/08 A2996 RMK AO2 SLP146 P0001 60001 70001 T01060078 10144 20106 58001=
201510161053 METAR KBFI 161053Z 00000KT 10SM CLR 11/07 A2997 RMK AO2 SLP147 T01060072=
201510160953 METAR KBFI 160953Z 00000KT 10SM CLR 11/08 A2997 RMK AO2 SLP148 T01110078=
201510160853 METAR KBFI 160853Z 00000KT 10SM CLR 12/08 A2997 RMK AO2 SLP148 T01170078 58002=
201510160753 METAR KBFI 160753Z 00000KT 10SM CLR 12/08 A2997 RMK AO2 SLP148 T01220083 402000111=
201510160653 METAR KBFI 160653Z 00000KT 10SM CLR 13/08 A2998 RMK AO2 SLP150 T01280083=
201510160553 METAR KBFI 160553Z 00000KT 10SM CLR 14/08 A2997 RMK AO2 SLP150 T01390083 10183 20133 53002=
201510160453 METAR KBFI 160453Z 00000KT 10SM CLR 14/08 A2997 RMK AO2 SLP148 T01440083=
201510160353 METAR KBFI 160353Z 00000KT 10SM CLR 15/08 A2997 RMK AO2 SLP147 T01500083=
201510160253 METAR KBFI 160253Z 32003KT 10SM CLR 16/08 A2997 RMK AO2 SLP148 T01610078 53001=
201510160153 METAR KBFI 160153Z 31004KT 10SM BKN250 17/09 A2996 RMK AO2 SLP145 T01670089=
201510160053 METAR KBFI 160053Z 30005KT 10SM BKN250 18/09 A2996 RMK AO2 SLP144 T01830089=
201510160000 METAR KBFI NIL=
201510152353 METAR KBFI 152353Z 31005KT 10SM BKN250 18/09 A2997 RMK AO2 SLP147 T01830089 10200 20156 56014=
201510152300 METAR KBFI NIL=
201510152253 METAR KBFI 152253Z VRB05KT 10SM SCT250 20/08 A2998 RMK AO2 SLP150 T02000083=
201510152200 METAR KBFI NIL=
201510152153 METAR KBFI 152153Z 32006KT 10SM SCT250 19/09 A2998 RMK AO2 SLP153 T01940089=
201510152053 METAR KBFI 152053Z 30006KT 10SM CLR 19/10 A3001 RMK AO2 SLP161 T01890100 58021=
201510151953 METAR KBFI 151953Z 30005KT 10SM BKN250 18/09 A3004 RMK AO2 SLP171 T01780094=
201510151853 METAR KBFI 151853Z 32004KT 10SM BKN250 18/10 A3006 RMK AO2 SLP177 T01780100=
201510151753 METAR KBFI 151753Z 00000KT 10SM FEW006 BKN200 16/09 A3007 RMK AO2 SLP182 T01560094 10156 20117 58002=
201510151653 METAR KBFI 151653Z 34003KT 10SM FEW006 BKN250 13/09 A3008 RMK AO2 SLP184 T01330089=
201510151610 SPECI KBFI 151610Z 00000KT 10SM FEW006 SCT010 BKN040 12/09 A3008 RMK AO2=
201510151553 METAR KBFI 151553Z 35004KT 10SM BKN006 12/09 A3008 RMK AO2 SLP185 T01220089=
201510151453 METAR KBFI 151453Z 00000KT 9SM BKN006 12/09 A3008 RMK AO2 SLP184 T01170089 58004=
201510151353 METAR KBFI 151353Z VRB03KT 10SM BKN006 12/09 A3009 RMK AO2 SLP188 T01170089=
201510151253 METAR KBFI 151253Z 36003KT 10SM BKN006 12/09 A3010 RMK AO2 SLP191 T01170089=
201510151153 METAR KBFI 151153Z 00000KT 10SM OVC006 12/09 A3009 RMK AO2 SLP188 T01170089 10128 20111 58008=
201510151053 METAR KBFI 151053Z VRB03KT 10SM OVC006 12/09 A3010 RMK AO2 SLP191 T01170094=
201510150953 METAR KBFI 150953Z 00000KT 10SM BKN008 12/09 A3011 RMK AO2 SLP195 T01170089=
201510150942 SPECI KBFI 150942Z 00000KT 10SM SCT008 12/09 A3011 RMK AO2=
201510150853 METAR KBFI 150853Z 00000KT 10SM CLR 12/08 A3011 RMK AO2 SLP196 T01170083 58005=
201510150753 METAR KBFI 150753Z 00000KT 10SM CLR 12/08 A3012 RMK AO2 SLP198 T01170083 401720117=
201510150653 METAR KBFI 150653Z VRB03KT 10SM CLR 12/08 A3012 RMK AO2 SLP199 T01220083=
201510150553 METAR KBFI 150553Z VRB04KT 10SM CLR 13/08 A3013 RMK AO2 SLP201 T01280083 10156 20128 58003=
201510150453 METAR KBFI 150453Z 36003KT 10SM CLR 13/08 A3013 RMK AO2 SLP204 T01330083=
201510150353 METAR KBFI 150353Z 03003KT 10SM CLR 13/09 A3014 RMK AO2 SLP204 T01330089=
201510150253 METAR KBFI 150253Z 36003KT 10SM CLR 14/09 A3014 RMK AO2 SLP204 T01390089 55005=
201510150153 METAR KBFI 150153Z 33004KT 10SM SCT250 14/09 A3013 RMK AO2 SLP204 T01390089=
201510150053 METAR KBFI 150053Z 31006KT 10SM SCT250 14/09 A3014 RMK AO2 SLP205 T01440089=
201510142353 METAR KBFI 142353Z VRB04KT 10SM SCT250 16/09 A3015 RMK AO2 SLP210 T01560094 10172 20128 56021=
201510142300 METAR KBFI NIL=
201510142253 METAR KBFI 142253Z VRB05KT 10SM CLR 16/09 A3016 RMK AO2 SLP213 T01610094=
201510142200 METAR KBFI NIL=
201510142153 METAR KBFI 142153Z 03004KT 10SM SCT022 17/09 A3018 RMK AO2 SLP219 T01670089=
201510142053 METAR KBFI 142053Z VRB06KT 10SM BKN020 16/09 A3021 RMK AO2 SLP231 T01560089 58011=
201510141953 METAR KBFI 141953Z 01005KT 10SM OVC016 14/08 A3024 RMK AO2 SLP239 T01390083=
201510141948 SPECI KBFI 141948Z 35006KT 10SM OVC016 14/09 A3024 RMK AO2=
201510141853 METAR KBFI 141853Z VRB05KT 10SM OVC013 13/08 A3025 RMK AO2 SLP241 T01330083=
201510141839 SPECI KBFI 141839Z VRB05KT 10SM OVC011 13/08 A3025 RMK AO2=
201510141753 METAR KBFI 141753Z VRB04KT 7SM OVC008 12/09 A3025 RMK AO2 SLP244 T01220089 10128 20117 53004=
201510141653 METAR KBFI 141653Z 00000KT 8SM OVC008 12/09 A3025 RMK AO2 SLP242 T01220089=
201510141553 METAR KBFI 141553Z 02005KT 7SM OVC008 12/09 A3024 RMK AO2 SLP241 T01220089=
201510141515 SPECI KBFI 141515Z VRB05KT 8SM OVC008 12/09 A3024 RMK AO2=
201510141453 METAR KBFI 141453Z VRB04KT 7SM OVC010 12/09 A3024 RMK AO2 SLP240 T01220089 58002=
201510141353 METAR KBFI 141353Z VRB03KT 10SM OVC012 12/09 A3025 RMK AO2 SLP242 T01220089=
201510141253 METAR KBFI 141253Z VRB04KT 10SM OVC010 12/09 A3025 RMK AO2 CIG 008V013 SLP241 T01220089=
201510141215 SPECI KBFI 141215Z VRB03KT 10SM OVC010 12/09 A3024 RMK AO2 CIG 008V015=
201510141153 METAR KBFI 141153Z 35003KT 10SM BKN008 12/09 A3025 RMK AO2 SLP242 60000 T01220089 10128 20111 58003=
201510141117 SPECI KBFI 141117Z 00000KT 10SM SCT008 12/09 A3025 RMK AO2=
201510141100 METAR KBFI NIL=
201510141053 METAR KBFI 141053Z 00000KT 10SM OVC008 12/09 A3025 RMK AO2 CIG 007V011 SLP243 T01170089=
201510141000 METAR KBFI NIL=
201510140953 METAR KBFI 140953Z 00000KT 10SM BKN010 12/09 A3026 RMK AO2 SLP245 T01170089=
201510140853 METAR KBFI 140853Z 00000KT 10SM FEW010 12/08 A3026 RMK AO2 RAB04E14 SLP245 P0000 60000 T01170083 58002=
201510140753 METAR KBFI 140753Z 00000KT 10SM FEW010 12/08 A3026 RMK AO2 SLP247 T01170083 401720111=
201510140653 METAR KBFI 140653Z 00000KT 10SM CLR 12/09 A3026 RMK AO2 SLP246 T01220089=
201510140553 METAR KBFI 140553Z 00000KT 10SM CLR 13/08 A3026 RMK AO2 SLP246 T01280083 10167 20128 53006=
201510140453 METAR KBFI 140453Z 00000KT 10SM CLR 13/09 A3025 RMK AO2 SLP243 T01330089=
201510140353 METAR KBFI 140353Z 00000KT 10SM CLR 13/08 A3025 RMK AO2 SLP244 T01330083=
201510140253 METAR KBFI 140253Z 00000KT 10SM CLR 14/09 A3024 RMK AO2 SLP241 T01440089 55002=
201510140153 METAR KBFI 140153Z 32004KT 10SM FEW025 16/09 A3024 RMK AO2 SLP239 T01560094=
201510140053 METAR KBFI 140053Z VRB03KT 10SM SCT025 17/11 A3024 RMK AO2 SLP239 T01670106=
201510132353 METAR KBFI 132353Z VRB03KT 10SM SCT025 17/11 A3025 RMK AO2 SLP243 T01670106 10172 20144 56005=
201510132253 METAR KBFI 132253Z 01004KT 10SM BKN030 17/10 A3025 RMK AO2 SLP244 T01670100=
201510132153 METAR KBFI 132153Z VRB03KT 10SM BKN023 BKN100 17/11 A3025 RMK AO2 SLP244 T01670106=
201510132053 METAR KBFI 132053Z 02007KT 10SM OVC019 16/11 A3026 RMK AO2 SLP247 T01610111 58000=
201510131953 METAR KBFI 131953Z 00000KT 10SM OVC013 16/11 A3027 RMK AO2 SLP248 T01610111=
201510131853 METAR KBFI 131853Z 30004KT 10SM OVC011 16/12 A3026 RMK AO2 SLP248 T01560117=
201510131850 SPECI KBFI 131850Z 31004KT 10SM OVC011 15/11 A3026 RMK AO2=
201510131753 METAR KBFI 131753Z 32008KT 10SM OVC008 14/11 A3026 RMK AO2 SLP245 T01440111 10144 20139 53019=
201510131653 METAR KBFI 131653Z 33006KT 6SM HZ OVC007 14/12 A3024 RMK AO2 SLP239 T01440117=
201510131553 METAR KBFI 131553Z 00000KT 7SM OVC007 14/12 A3021 RMK AO2 SLP229 T01440117=
201510131453 METAR KBFI 131453Z 33003KT 7SM OVC005 14/12 A3020 RMK AO2 SLP225 T01390117 53010=
201510131353 METAR KBFI 131353Z VRB04KT 4SM HZ OVC005 14/11 A3019 RMK AO2 SLP223 T01390111=
201510131253 METAR KBFI 131253Z VRB05KT 4SM BR OVC005 14/12 A3017 RMK AO2 CIG 004V010 SLP217 T01390117=
201510131153 METAR KBFI 131153Z 31004KT 5SM BR OVC005 14/12 A3017 RMK AO2 RAB29E45 SLP215 P0001 60013 70041 T01390117 10144 20139 53005=
201510131053 METAR KBFI 131053Z 31003KT 5SM HZ BKN007 BKN018 OVC023 14/12 A3015 RMK AO2 RAE26 SLP210 P0002 T01440117=
201510131002 SPECI KBFI 131002Z 00000KT 6SM -RA BKN007 BKN018 OVC023 14/12 A3016 RMK AO2 P0000=
201510131000 METAR KBFI NIL=
201510130953 METAR KBFI 130953Z COR 30003KT 4SM -RA BR BKN007 OVC020 14/12 A3016 RMK AO2 RAB0859E24B48 SLP211 P0001 T01440122=
201510130918 SPECI KBFI 130918Z 00000KT 3SM -RA FEW007 OVC016 14/12 A3015 RMK AO2 RAB0859 P0001=
201510130900 SPECI KBFI 130900Z 00000KT 6SM -RA BR OVC016 14/12 A3015 RMK AO2 RAB0859 P0000=
201510130853 METAR KBFI 130853Z 00000KT 2 1/2SM BR BKN005 OVC014 14/12 A3015 RMK AO2 RAE06 SLP210 P0001 60009 T01440122 51003=
201510130753 METAR KBFI 130753Z 00000KT 2 1/2SM -RA BR BKN005 OVC014 14/12 A3015 RMK AO2 SLP209 P0002 T01440122 402000117=
201510130653 METAR KBFI 130653Z 00000KT 2SM -RA BR BKN005 OVC011 14/12 A3015 RMK AO2 SLP210 P0006 T01440122=
201510130553 METAR KBFI 130553Z VRB04KT 2SM -RA BR OVC009 14/12 A3014 RMK AO2 SLP207 P0011 60028 T01440122 10200 20144 53007=
201510130511 SPECI KBFI 130511Z 31005KT 2SM -RA BR BKN004 OVC011 16/14 A3013 RMK AO2 P0004=
201510130501 SPECI KBFI 130501Z 16003KT 1 3/4SM -RA BR BKN006 OVC011 17/15 A3013 RMK AO2 P0002=
201510130453 METAR KBFI 130453Z 15003KT 2SM -RA BR FEW005 BKN012 OVC017 17/15 A3013 RMK AO2 SLP203 P0008 T01670150=
201510130422 SPECI KBFI 130422Z 15003KT 2SM -RA BR FEW008 SCT014 OVC019 17/16 A3013 RMK AO2 P0003=
201510130408 SPECI KBFI 130408Z VRB03KT 2 1/2SM -RA BR BKN014 OVC021 17/16 A3013 RMK AO2 P0001=
201510130400 METAR KBFI NIL=
201510130353 METAR KBFI 130353Z 17003KT 3SM -RA BR FEW008 OVC022 17/16 A3013 RMK AO2 SLP201 P0005 T01670156=
201510130315 SPECI KBFI 130315Z VRB03KT 3SM -RA BR FEW007 BKN021 OVC026 17/14 A3013 RMK AO2 P0003=
201510130303 SPECI KBFI 130303Z 14003KT 2 1/2SM -RA BR FEW009 BKN023 OVC028 17/14 A3012 RMK AO2 P0002=
201510130253 METAR KBFI 130253Z 15003KT 2 1/2SM -RA FEW010 BKN026 OVC035 17/14 A3012 RMK AO2 RAB0158 SLP200 P0004 60004 T01720139 53013=
201510130231 SPECI KBFI 130231Z 18003KT 7SM -RA BKN026 OVC032 17/14 A3012 RMK AO2 RAB0158 P0002=
201510130153 METAR KBFI 130153Z 20004KT 10SM BKN037 OVC060 18/13 A3010 RMK AO2 RAB33E42 SLP193 P0000 T01780133=
201510130053 METAR KBFI 130053Z 20006KT 10SM BKN035 OVC080 19/13 A3009 RMK AO2 SLP188 T01890128=
201510122353 METAR KBFI 122353Z 24006KT 10SM BKN035 OVC050 20/12 A3009 RMK AO2 SLP187 T02000117 10200 20167 53002=
201510122253 METAR KBFI 122253Z 19005KT 10SM BKN038 OVC048 20/12 A3008 RMK AO2 SLP184 T02000117=
201510122153 METAR KBFI 122153Z 19004KT 10SM SCT034 OVC045 19/11 A3008 RMK AO2 SLP185 T01940111=
201510122053 METAR KBFI 122053Z VRB03KT 10SM OVC038 19/11 A3008 RMK AO2 SLP185 T01890106 58004=
201510121953 METAR KBFI 121953Z 19007KT 10SM BKN048 BKN055 18/11 A3010 RMK AO2 SLP191 T01830106=
201510121853 METAR KBFI 121853Z 18007G14KT 10SM BKN050 BKN055 OVC100 18/11 A3009 RMK AO2 SLP189 T01830106=
201510121753 METAR KBFI 121753Z 15010G18KT 10SM BKN100 17/11 A3009 RMK AO2 SLP189 T01670106 10167 20122 51007=
201510121653 METAR KBFI 121653Z 17007G15KT 10SM SCT120 BKN160 16/11 A3009 RMK AO2 SLP189 T01560106=
201510121553 METAR KBFI 121553Z 13005KT 10SM SCT120 BKN180 14/08 A3007 RMK AO2 SLP184 T01390083=
201510121453 METAR KBFI 121453Z 13007KT 10SM SCT120 BKN200 13/08 A3007 RMK AO2 SLP182 T01280078 53006=
201510121353 METAR KBFI 121353Z 14010KT 10SM BKN200 13/09 A3005 RMK AO2 SLP175 T01330089=
201510121253 METAR KBFI 121253Z 16010KT 10SM BKN120 12/08 A3006 RMK AO2 SLP179 T01220078=
201510121153 METAR KBFI 121153Z 14006KT 10SM SCT120 13/08 A3005 RMK AO2 SLP176 T01280078 10144 20117 58003=
201510121053 METAR KBFI 121053Z 12005KT 10SM CLR 13/09 A3006 RMK AO2 SLP178 T01280094=
201510120953 METAR KBFI 120953Z 12004KT 10SM CLR 12/09 A3006 RMK AO2 SLP180 T01220089=
201510120853 METAR KBFI 120853Z 13004KT 10SM CLR 12/09 A3006 RMK AO2 SLP179 T01220089 58002=
201510120753 METAR KBFI 120753Z 12003KT 10SM SCT120 13/09 A3007 RMK AO2 SLP181 T01330089 401940111=
201510120653 METAR KBFI 120653Z 15004KT 10SM SCT120 13/09 A3007 RMK AO2 SLP180 T01330094=
201510120553 METAR KBFI 120553Z 14003KT 10SM SCT120 14/09 A3007 RMK AO2 SLP182 T01440094 10189 20139 53003=
201510120500 METAR KBFI NIL=
201510120453 METAR KBFI 120453Z 00000KT 10SM FEW120 16/09 A3005 RMK AO2 SLP176 T01560094=
201510120400 METAR KBFI NIL=
201510120353 METAR KBFI 120353Z 00000KT 10SM BKN150 16/09 A3006 RMK AO2 SLP180 T01610094=
201510120253 METAR KBFI 120253Z 00000KT 10SM CLR 17/09 A3006 RMK AO2 SLP178 T01720089 56029=
201510120153 METAR KBFI 120153Z 00000KT 10SM SCT100 OVC200 18/09 A3008 RMK AO2 SLP187 T01780089=
201510120053 METAR KBFI 120053Z 05003KT 10SM FEW100 OVC250 18/08 A3012 RMK AO2 SLP198 T01830083=
201510112353 METAR KBFI 112353Z 00000KT 10SM FEW120 18/08 A3015 RMK AO2 SLP208 T01830078 10194 20167 58004=
201510112253 METAR KBFI 112253Z 00000KT 10SM BKN150 18/08 A3015 RMK AO2 SLP211 T01830083=
201510112153 METAR KBFI 112153Z 24005KT 10SM FEW030 BKN100 18/08 A3016 RMK AO2 SLP212 T01830083=
201510112053 METAR KBFI 112053Z VRB03KT 10SM SCT030 BKN100 19/09 A3016 RMK AO2 SLP212 T01940089 58017=
201510111953 METAR KBFI 111953Z 15005KT 10SM SCT025 BKN080 19/09 A3019 RMK AO2 SLP221 T01890089=
201510111853 METAR KBFI 111853Z 19006KT 10SM SCT019 18/09 A3019 RMK AO2 SLP224 T01780094=
201510111753 METAR KBFI 111753Z 21003KT 10SM SCT019 17/11 A3021 RMK AO2 SLP229 T01720106 10172 20111 53012=
201510111653 METAR KBFI 111653Z 13006KT 10SM SCT019 16/11 A3018 RMK AO2 SLP220 T01560106=
201510111553 METAR KBFI 111553Z 00000KT 10SM SCT019 14/10 A3019 RMK AO2 SLP223 T01390100=
201510111453 METAR KBFI 111453Z 00000KT 10SM SCT019 12/09 A3017 RMK AO2 SLP217 T01220094 50014=
201510111353 METAR KBFI 111353Z 00000KT 10SM FEW018 13/09 A3018 RMK AO2 SLP218 T01280094=
201510111253 METAR KBFI 111253Z 12003KT 10SM SCT019 13/10 A3017 RMK AO2 SLP215 T01330100=
201510111236 SPECI KBFI 111236Z 09003KT 10SM OVC019 14/10 A3015 RMK AO2=
201510111229 SPECI KBFI 111229Z 12004KT 10SM SCT021 13/10 A3015 RMK AO2=
201510111153 METAR KBFI 111153Z AUTO 15006KT 10SM OVC019 14/11 A3013 RMK AO2 SLP203 70072 T01390106 10156 20133 52034 TSNO=
201510111053 METAR KBFI 111053Z 14006KT 10SM OVC019 13/11 A3010 RMK AO2 SLP192 T01330106=
201510111000 SPECI KBFI 111000Z 17003KT 10SM BKN019 14/10 A3007 RMK AO2=
201510110953 METAR KBFI 110953Z VRB06KT 10SM SCT021 BKN047 14/11 A3006 RMK AO2 SLP180 T01440106=
201510110900 SPECI KBFI 110900Z 16006KT 10SM SCT021 BKN047 14/10 A3003 RMK AO2=
201510110853 METAR KBFI 110853Z COR 17007KT 10SM SCT021 BKN047 14/10 A3003 RMK AO2 SLP169 T01440100 51040=
201510110753 METAR KBFI 110753Z 17009KT 10SM OVC022 15/11 A3000 RMK AO2 SLP159 T01500106 402220150=
201510110653 METAR KBFI 110653Z 17005KT 10SM OVC018 16/11 A2997 RMK AO2 SLP147 T01560106=
201510110553 METAR KBFI 110553Z 17008KT 10SM OVC018 16/11 A2991 RMK AO2 SLP129 60000 T01560111 10178 20156 53038=
201510110453 METAR KBFI 110453Z 22011G19KT 170V230 10SM BKN021 OVC050 16/11 A2986 RMK AO2 SLP110 T01610111=
201510110353 METAR KBFI 110353Z 18014G21KT 10SM FEW024 BKN090 BKN110 16/12 A2983 RMK AO2 SLP100 T01610117=
201510110253 METAR KBFI 110253Z 18011G16KT 10SM SCT022 BKN027 BKN075 16/12 A2980 RMK AO2 PRESRR SLP091 60000 T01610117 53029=
201510110227 SPECI KBFI 110227Z 18014G20KT 10SM BKN024 BKN031 BKN110 16/12 A2978 RMK AO2=
201510110153 METAR KBFI 110153Z 18011G17KT 10SM FEW021 SCT035 BKN085 16/12 A2976 RMK AO2 PK WND 17026/0127 RAB06E37 SLP078 P0000 T01560122=
201510110053 METAR KBFI 110053Z 18009G16KT 10SM SCT025 BKN060 17/12 A2975 RMK AO2 RAB12E21 SLP075 P0000 T01720117 $=
201510102353 METAR KBFI 102353Z 18012G21KT 10SM SCT025 BKN060 17/13 A2972 RMK AO2 SLP062 60022 T01720128 10222 20172 51048 $=
201510102308 SPECI KBFI 102308Z 18013G18KT 10SM BKN010 OVC030 17/ A2969 RMK AO2 $=
201510102300 SPECI KBFI 102300Z 20011G25KT 10SM FEW026 SCT110 17/ A2969 RMK AO2 $=
201510102253 METAR KBFI 102253Z COR 20009G25KT 10SM BKN010 OVC015 18/ A2968 RMK AO2 PK WND 19031/2221 RAE41 SLP049 P0001 T0178 $=
201510102153 METAR KBFI 102153Z 19012G21KT 5SM -RA BKN009 OVC015 18/16 A2964 RMK AO2 PK WND 18029/2104 RAB2055 SLP036 P0016 T01830156=
201510102145 SPECI KBFI 102145Z 18014G25KT 5SM -RA FEW022 BKN065 OVC090 18/16 A2963 RMK AO2 PK WND 18029/2104 RAB2055 P0016=
201510102131 SPECI KBFI 102131Z 18013G23KT 1 3/4SM RA SCT024 BKN036 OVC070 18/15 A2963 RMK AO2 PK WND 18029/2104 RAB2055 PRESRR P0015=
201510102053 METAR KBFI 102053Z 17013G20KT 10SM SCT045 OVC070 22/13 A2957 RMK AO2 RAB1955E16 SLP014 P0000 60005 T02220133 58037=
201510101953 METAR KBFI 101953Z 15009KT 10SM SCT042 BKN085 21/17 A2961 RMK AO2 RAE12 SLP026 P0000 T02110167=
201510101853 METAR KBFI 101853Z 13007KT 9SM -RA SCT025 OVC060 19/16 A2965 RMK AO2 SLP041 P0005 T01890161=
201510101800 SPECI KBFI 101800Z 12005KT 3SM -RA BR SCT009 BKN014 OVC037 18/16 A2968 RMK AO2 P0001=
201510101753 METAR KBFI 101753Z 12007KT 3SM -RA BR SCT025 OVC038 18/16 A2968 RMK AO2 SLP051 P0011 60050 T01830161 10189 20172 56024=
201510101653 METAR KBFI 101653Z 13005KT 3SM RA SCT025 BKN080 OVC100 18/16 A2970 RMK AO2 RAB1557 SLP057 P0020 T01830156=
201510101553 METAR KBFI 101553Z 15005KT 10SM BKN034 OVC049 18/16 A2973 RMK AO2 SLP067 T01830156=
201510101453 METAR KBFI 101453Z 12005KT 10SM FEW038 SCT055 18/16 A2975 RMK AO2 RAE36 SLP075 P0004 60019 T01780156 58022=
201510101353 METAR KBFI 101353Z 13003KT 4SM -RA BR BKN034 BKN043 OVC049 18/16 A2978 RMK AO2 SLP085 P0015 T01780156=
201510101253 METAR KBFI 101253Z 00000KT 7SM -RA OVC034 18/16 A2980 RMK AO2 RAE02B33 SLP090 P0000 T01830156=
201510101153 METAR KBFI 101153Z 14005KT 6SM -RA BR FEW034 BKN044 OVC055 18/16 A2982 RMK AO2 RAB29 SLP096 P0004 60005 70005 T01780156 10189 20178 58021=
201510101053 METAR KBFI 101053Z 15006KT 10SM BKN042 BKN050 OVC065 18/15 A2984 RMK AO2 RAB13E26 SLP105 P0001 T01830150=
201510100953 METAR KBFI 100953Z 14006KT 10SM OVC042 18/14 A2987 RMK AO2 SLP113 T01830144=
201510100853 METAR KBFI 100853Z 13005KT 10SM OVC055 19/14 A2988 RMK AO2 SLP117 T01890144 58014=
201510100753 METAR KBFI 100753Z 14006KT 10SM BKN045 OVC055 18/15 A2990 RMK AO2 SLP125 T01830150 402110128=
201510100653 METAR KBFI 100653Z 14008KT 10SM OVC050 19/15 A2991 RMK AO2 SLP129 T01890150=
201510100553 METAR KBFI 100553Z 14006KT 10SM BKN048 18/14 A2992 RMK AO2 SLP131 T01830144 10206 20167 58009=
201510100453 METAR KBFI 100453Z 14003KT 10SM SCT050 18/14 A2993 RMK AO2 SLP135 T01780139=
201510100353 METAR KBFI 100353Z 15003KT 10SM BKN049 19/14 A2994 RMK AO2 SLP138 T01940139=
201510100253 METAR KBFI 100253Z 20003KT 10SM SCT038 OVC049 20/14 A2995 RMK AO2 SLP140 T02000139 58003=
201510100153 METAR KBFI 100153Z 16004KT 10SM BKN037 OVC045 19/14 A2994 RMK AO2 SLP139 T01940144=
201510100053 METAR KBFI 100053Z 20004KT 9SM BKN036 OVC050 20/14 A2996 RMK AO2 SLP145 T02000139=
201510100000 SPECI KBFI 100000Z 18005KT 10SM OVC038 21/14 A2995 RMK AO2=
201510092353 METAR KBFI 092353Z 21004KT 10SM OVC021 21/14 A2995 RMK AO2 SLP143 60000 T02110144 10211 20194 51001=
201510092253 METAR KBFI 092253Z 15006KT 10SM OVC021 21/14 A2995 RMK AO2 RAE2156 SLP142 P0000 T02060144=
201510092153 METAR KBFI 092153Z 22003KT 6SM -RA OVC021 20/14 A2996 RMK AO2 RAB29 SLP144 P0000 T02000144=
201510092053 METAR KBFI 092053Z 15005KT 10SM OVC044 21/13 A2995 RMK AO2 SLP142 60000 T02060133 50002=
201510091953 METAR KBFI 091953Z 15003KT 10SM OVC050 20/14 A2995 RMK AO2 RAB05E17 SLP143 P0000 T02000139=
201510091853 METAR KBFI 091853Z 16003KT 10SM BKN050 OVC070 20/13 A2997 RMK AO2 RAB1758E10 SLP147 P0000 T02000133=
201510091753 METAR KBFI 091753Z 00000KT 10SM OVC055 19/13 A2995 RMK AO2 RAE1657 SLP140 P0000 60000 T01940128 10194 20128 50015=
201510091653 METAR KBFI 091653Z 19003KT 10SM -RA SCT055 OVC100 18/13 A2995 RMK AO2 RAB18 SLP142 P0000 T01830128=
201510091553 METAR KBFI 091553Z 14004KT 10SM OVC080 17/11 A2992 RMK AO2 SLP131 T01670106=
201510091453 METAR KBFI 091453Z 14005KT 10SM FEW070 BKN250 14/11 A2990 RMK AO2 SLP125 T01390106 56010=
201510091353 METAR KBFI 091353Z 13004KT 10SM BKN180 13/10 A2990 RMK AO2 SLP125 T01280100=
201510091253 METAR KBFI 091253Z 16004KT 10SM CLR 14/12 A2991 RMK AO2 SLP129 T01440117=
201510091153 METAR KBFI 091153Z COR 14008KT 10SM BKN200 14/12 A2993 RMK AO2 DZE1056 SLP135 BCFG SE-NW P0000 60001 70001 T01390117 10167 20139 58009=
201510091110 SPECI KBFI 091110Z 16007KT 3SM BR SCT001 14/13 A2994 RMK AO2 DZE1056 MIFG SE-NW P0000=
201510091101 SPECI KBFI 091101Z 15006KT 1SM BR SCT001 14/12 A2994 RMK AO2 DZE1056 MIFG SE-NW P0000=
201510091053 METAR KBFI 091053Z 14007KT 3/4SM -DZ BR VV001 14/13 A2995 RMK AO2 RAB13E48DZB49 SLP140 P0000 T01440128=
201510091012 SPECI KBFI 091012Z 14007KT 1/4SM FG VV001 14/12 A2996 RMK AO2=
201510091001 SPECI KBFI 091001Z 13005KT 3/4SM BR VV001 14/12 A2996 RMK AO2=
201510090953 METAR KBFI 090953Z 15003KT 2 1/2SM MIFG SCT002 14/12 A2996 RMK AO2 SLP143 T01390122=
201510090951 SPECI KBFI 090951Z 17003KT 2 1/2SM MIFG SCT002 14/12 A2996 RMK AO2=
201510090853 METAR KBFI 090853Z 00000KT 4SM BR FEW003 15/13 A2996 RMK AO2 RAB09E22 SLP143 P0001 60001 T01500128 56012=
201510090846 SPECI KBFI 090846Z 00000KT 4SM BR FEW003 15/13 A2995 RMK AO2 RAB09E22 P0001=
201510090753 METAR KBFI 090753Z 00000KT 4SM BR CLR 16/13 A2996 RMK AO2 SLP144 T01560133 402170144=
201510090653 METAR KBFI 090653Z 00000KT 4SM BR CLR 16/14 A2997 RMK AO2 SLP149 T01610139=
201510090553 METAR KBFI 090553Z 00000KT 8SM CLR 16/13 A2999 RMK AO2 SLP155 T01610133 10217 20161 58007=
201510090453 METAR KBFI 090453Z 00000KT 10SM CLR 18/14 A3001 RMK AO2 SLP162 T01780144=
201510090353 METAR KBFI 090353Z 00000KT 10SM BKN140 18/14 A3001 RMK AO2 SLP161 T01830144=
201510090253 METAR KBFI 090253Z 08003KT 10SM BKN140 19/14 A3001 RMK AO2 SLP162 T01890144 56014=
201510090153 METAR KBFI 090153Z 12003KT 10SM BKN140 20/14 A3002 RMK AO2 SLP165 T02000144=
201510090053 METAR KBFI 090053Z 17004KT 10SM BKN140 21/14 A3004 RMK AO2 SLP172 T02060139=
201510082353 METAR KBFI 082353Z 00000KT 10SM BKN140 21/14 A3005 RMK AO2 SLP176 T02060139 10211 20172 58012=
201510082253 METAR KBFI 082253Z 00000KT 10SM SCT010 OVC140 21/14 A3007 RMK AO2 SLP182 T02110139=
201510082153 METAR KBFI 082153Z 00000KT 9SM SCT010 OVC140 21/14 A3008 RMK AO2 SLP184 T02060144=
201510082053 METAR KBFI 082053Z 00000KT 8SM SCT010 OVC140 19/14 A3009 RMK AO2 SLP188 T01940144 56014=
201510081953 METAR KBFI 081953Z 00000KT 7SM BR SCT010 OVC140 18/14 A3010 RMK AO2 SLP193 T01830144=
201510081853 METAR KBFI 081853Z 04003KT 6SM BR FEW010 OVC160 18/14 A3010 RMK AO2 PRESFR SLP194 T01780139=
201510081753 METAR KBFI 081753Z 00000KT 6SM BR FEW005 OVC130 17/15 A3013 RMK AO2 SLP202 T01720145 10172 20144 50001=
201510081749 SPECI KBFI 081749Z 00000KT 6SM BR FEW005 OVC130 17/15 A3013 RMK AO2=
201510081653 METAR KBFI 081653Z 00000KT 7SM FEW080 OVC150 17/14 A3013 RMK AO2 SLP203 T01670139=
201510081553 METAR KBFI 081553Z 00000KT 10SM FEW050 SCT150 OVC200 16/13 A3012 RMK AO2 SLP200 BCFG NW-N T01610133=
201510081453 METAR KBFI 081453Z 00000KT 10SM BKN080 16/13 A3013 RMK AO2 SLP203 T01560133 58002=
201510081353 METAR KBFI 081353Z COR 17003KT 10SM BKN080 15/13 A3013 RMK AO2 SLP204 T01500128=
201510081253 METAR KBFI 081253Z 00000KT 10SM CLR 16/13 A3014 RMK AO2 SLP207 T01560133=
201510081153 METAR KBFI 081153Z 00000KT 10SM FEW070 OVC150 16/13 A3014 RMK AO2 SLP205 60001 70036 T01560128 10167 20150 58008=
201510081053 METAR KBFI 081053Z 11003KT 10SM FEW100 16/13 A3015 RMK AO2 SLP209 T01560133=
201510080953 METAR KBFI 080953Z 00000KT 10SM OVC130 16/13 A3016 RMK AO2 SLP213 T01560133=
201510080853 METAR KBFI 080853Z 00000KT 10SM OVC130 16/13 A3016 RMK AO2 SLP213 60001 T01610133 55002=
201510080753 METAR KBFI 080753Z 00000KT 10SM FEW085 16/13 A3016 RMK AO2 SLP211 T01610133 401670150=
201510080653 METAR KBFI 080653Z 09003KT 10SM BKN060 OVC075 16/13 A3016 RMK AO2 RAB20E36 SLP214 P0001 T01610133=
201510080553 METAR KBFI 080553Z 00000KT 10SM OVC055 17/13 A3017 RMK AO2 SLP215 T01670133 10167 20161 53003=
201510080453 METAR KBFI 080453Z 11003KT 10SM SCT065 OVC080 17/14 A3016 RMK AO2 SLP212 T01670139=
201510080353 METAR KBFI 080353Z COR 14005KT 10SM SCT060 BKN180 16/13 A3015 RMK AO2 SLP210 T01610133=
201510080253 METAR KBFI 080253Z 14006KT 10SM FEW070 SCT120 16/13 A3016 RMK AO2 SLP213 T01610133 53006=
201510080153 METAR KBFI 080153Z 13008KT 10SM SCT030 BKN065 17/13 A3015 RMK AO2 SLP208 T01670133=
201510080053 METAR KBFI 080053Z 14006KT 10SM SCT020 OVC060 17/14 A3015 RMK AO2 SLP208 T01670139=
201510072353 METAR KBFI 072353Z 14007KT 10SM SCT026 BKN070 OVC110 17/13 A3014 RMK AO2 SLP207 60011 T01670133 10167 20161 51003=
201510072253 METAR KBFI 072253Z 15007KT 10SM SCT008 SCT021 OVC090 16/13 A3014 RMK AO2 RAE23 SLP206 P0000 T01610133=
201510072232 SPECI KBFI 072232Z 14008KT 10SM SCT008 BKN021 OVC060 17/13 A3014 RMK AO2 RAE23 P0000=
201510072153 METAR KBFI 072153Z 16007KT 5SM -RA BKN008 OVC021 17/13 A3015 RMK AO2 SLP208 P0003 T01670133=
201510072053 METAR KBFI 072053Z 17007KT 6SM -RA BKN008 OVC021 17/14 A3013 RMK AO2 SLP203 P0002 60008 T01670139 53007=
201510072034 SPECI KBFI 072034Z 16006KT 6SM -RA BKN008 OVC021 17/13 A3013 RMK AO2 P0001=
201510072000 SPECI KBFI 072000Z 16008KT 9SM -RA BKN012 OVC021 17/13 A3013 RMK AO2 P0000=
201510071953 METAR KBFI 071953Z 15006KT 4SM -RA SCT008 OVC035 17/13 A3012 RMK AO2 SLP200 P0003 T01670133=
201510071853 METAR KBFI 071853Z 14007KT 4SM -RA BKN008 OVC035 16/13 A3011 RMK AO2 SLP196 P0003 T01610133=
201510071753 METAR KBFI 071753Z 17003KT 3SM -RA BKN007 BKN028 OVC045 16/13 A3011 RMK AO2 SLP197 P0006 60024 T01610133 10161 20150 53009=
201510071653 METAR KBFI 071653Z 00000KT 3SM -RA SCT007 BKN028 OVC045 16/13 A3010 RMK AO2 SLP193 P0008 T01610133=
201510071556 SPECI KBFI 071556Z 00000KT 3SM -RA BR SCT008 BKN050 OVC070 16/13 A3009 RMK AO2 P0001=
201510071553 METAR KBFI 071553Z 00000KT 5SM -RA BR FEW020 OVC050 16/13 A3009 RMK AO2 SLP190 P0004 T01560133=
201510071453 METAR KBFI 071453Z AUTO 00000KT 5SM -RA BR FEW035 OVC065 15/13 A3009 RMK AO2 SLP187 P0001 60006 T01500128 58004=
201510071353 METAR KBFI 071353Z 15003KT 7SM -RA FEW035 BKN050 OVC090 15/13 A3009 RMK AO2 SLP189 P0002 T01500128=
201510071253 METAR KBFI 071253Z 15003KT 6SM -RA BR FEW018 BKN035 OVC055 15/13 A3010 RMK AO2 SLP193 P0003 T01500128=
201510071153 METAR KBFI 071153Z 16005KT 8SM -RA FEW035 OVC060 16/12 A3010 RMK AO2 SLP191 P0001 60002 70003 T01560122 10167 20156 53004=
201510071053 METAR KBFI 071053Z 14004KT 10SM -RA OVC065 16/13 A3009 RMK AO2 RAB04 SLP188 P0001 T01560128=
201510070953 METAR KBFI 070953Z 15004KT 10SM OVC070 17/12 A3009 RMK AO2 SLP188 T01670117=
201510070853 METAR KBFI 070853Z 15006KT 10SM BKN070 OVC110 16/12 A3008 RMK AO2 SLP187 T01560117 50000=
201510070753 METAR KBFI 070753Z 14006KT 10SM FEW120 16/12 A3008 RMK AO2 SLP186 T01610117 401940117=
201510070653 METAR KBFI 070653Z 15006KT 10SM FEW110 16/12 A3009 RMK AO2 SLP189 T01610117=
201510070553 METAR KBFI 070553Z 15006KT 10SM SCT120 16/12 A3008 RMK AO2 SLP187 T01610117 10183 20161 51009=
201510070453 METAR KBFI 070453Z 14006KT 10SM FEW110 17/12 A3008 RMK AO2 SLP185 T01670117=
201510070353 METAR KBFI 070353Z 16004KT 10SM FEW120 OVC160 17/11 A3007 RMK AO2 SLP183 T01670111=
201510070253 METAR KBFI 070253Z 16005KT 10SM BKN110 17/11 A3006 RMK AO2 SLP178 T01720111 53000=
201510070153 METAR KBFI 070153Z 15011G16KT 10SM OVC110 17/11 A3005 RMK AO2 SLP175 T01720111=
201510070053 METAR KBFI 070053Z COR 16007KT 140V210 10SM BKN110 OVC160 18/11 A3006 RMK AO2 SLP177 T01780111=
201510062353 METAR KBFI 062353Z 20004KT 10SM SCT120 18/11 A3006 RMK AO2 SLP177 T01780106 10194 20172 53008=
201510062253 METAR KBFI 062253Z 23005KT 10SM BKN150 OVC200 18/11 A3005 RMK AO2 SLP176 T01780106=
201510062153 METAR KBFI 062153Z 17009KT 10SM BKN150 OVC200 19/11 A3003 RMK AO2 SLP168 T01890106=
201510062053 METAR KBFI 062053Z 19008KT 10SM BKN170 OVC230 19/09 A3003 RMK AO2 SLP169 T01940094 53006=
201510061953 METAR KBFI 061953Z 17009KT 10SM SCT150 OVC220 19/09 A3002 RMK AO2 SLP167 T01940089=
201510061853 METAR KBFI 061853Z 14009KT 10SM SCT150 OVC220 18/10 A3001 RMK AO2 SLP163 T01830100=
201510061753 METAR KBFI 061753Z 15006KT 10SM SCT150 BKN250 17/10 A3001 RMK AO2 RAB11E21 SLP163 P0000 60001 T01720100 10172 20117 53013=
201510061653 METAR KBFI 061653Z 15005KT 10SM SCT150 BKN200 15/09 A3000 RMK AO2 SLP158 P0001 T01500094=
201510061553 METAR KBFI 061553Z 15010KT 10SM SCT150 BKN250 14/09 A2998 RMK AO2 SLP152 T01440094=
201510061453 METAR KBFI 061453Z 15006KT 10SM SCT150 BKN250 13/10 A2997 RMK AO2 SLP150 T01280100 53019=
201510061353 METAR KBFI 061353Z 15003KT 10SM SCT060 13/10 A2995 RMK AO2 SLP142 T01280100=
201510061253 METAR KBFI 061253Z 00000KT 10SM SCT250 12/09 A2994 RMK AO2 SLP137 T01220089=
201510061153 METAR KBFI 061153Z VRB04KT 10SM CLR 13/09 A2992 RMK AO2 SLP130 T01280094 10161 20117 51003=
201510061053 METAR KBFI 061053Z 00000KT 10SM CLR 13/09 A2991 RMK AO2 SLP129 T01280094=
201510060953 METAR KBFI 060953Z 00000KT 10SM CLR 12/08 A2991 RMK AO2 SLP129 T01220083=
201510060853 METAR KBFI 060853Z 00000KT 10SM CLR 13/08 A2991 RMK AO2 SLP127 T01280083 51010=
201510060753 METAR KBFI 060753Z 00000KT 10SM CLR 13/09 A2990 RMK AO2 SLP123 T01330089 402280106=
201510060653 METAR KBFI 060653Z 00000KT 10SM CLR 14/09 A2989 RMK AO2 SLP121 T01440089=
201510060553 METAR KBFI 060553Z 00000KT 10SM CLR 16/09 A2988 RMK AO2 SLP117 T01610089 10217 20156 53004=
201510060453 METAR KBFI 060453Z 00000KT 10SM CLR 16/09 A2987 RMK AO2 SLP114 T01610094=
201510060353 METAR KBFI 060353Z 00000KT 10SM CLR 17/09 A2987 RMK AO2 SLP115 T01720094=
201510060253 METAR KBFI 060253Z 00000KT 10SM BKN250 18/09 A2987 RMK AO2 SLP113 T01780094 53003=
201510060153 METAR KBFI 060153Z 30003KT 10SM BKN250 19/09 A2986 RMK AO2 SLP109 T01890094=
201510060053 METAR KBFI 060053Z 31004KT 10SM BKN250 20/09 A2986 RMK AO2 SLP111 T02000094=
201510052353 METAR KBFI 052353Z 32006KT 10SM BKN250 22/09 A2986 RMK AO2 SLP109 T02170094 10228 20178 56004=
201510052253 METAR KBFI 052253Z COR VRB04KT 10SM BKN220 22/09 A2986 RMK AO2 SLP110 T02170094=
201510052153 METAR KBFI 052153Z 31006KT 10SM CLR 22/10 A2986 RMK AO2 SLP110 T02220100=
201510052053 METAR KBFI 052053Z 31004KT 10SM BKN250 22/10 A2987 RMK AO2 SLP114 T02220100 57009=
201510051953 METAR KBFI 051953Z 29004KT 10SM BKN250 21/09 A2988 RMK AO2 SLP118 T02060094=
201510051853 METAR KBFI 051853Z 33003KT 10SM SCT250 19/10 A2988 RMK AO2 SLP119 T01890100=
201510051753 METAR KBFI 051753Z VRB03KT 10SM SCT250 18/10 A2990 RMK AO2 SLP123 T01780100 10178 20106 58005=
201510051653 METAR KBFI 051653Z 00000KT 10SM SCT200 17/10 A2991 RMK AO2 SLP127 T01670100=
201510051553 METAR KBFI 051553Z 00000KT 10SM FEW250 15/09 A2991 RMK AO2 SLP128 T01500094=
201510051453 METAR KBFI 051453Z 00000KT 10SM FEW250 13/09 A2991 RMK AO2 SLP128 T01280089 50006=
201510051353 METAR KBFI 051353Z 00000KT 10SM CLR 13/08 A2991 RMK AO2 SLP129 T01280078=
201510051253 METAR KBFI 051253Z 00000KT 10SM CLR 12/07 A2991 RMK AO2 SLP127 T01170072=
201510051153 METAR KBFI 051153Z 00000KT 10SM CLR 11/07 A2989 RMK AO2 SLP122 T01110072 10156 20111 52007=
201510051053 METAR KBFI 051053Z AUTO 00000KT 10SM CLR 11/07 A2989 RMK AO2 SLP120 T01110067 TSNO=
201510050953 METAR KBFI 050953Z AUTO 00000KT 10SM CLR 12/07 A2988 RMK AO2 SLP118 T01220067 TSNO=
201510050853 METAR KBFI 050853Z AUTO 00000KT 10SM CLR 12/07 A2987 RMK AO2 SLP116 T01220067 50000 TSNO=
201510050753 METAR KBFI 050753Z AUTO 00000KT 10SM CLR 13/07 A2987 RMK AO2 SLP116 T01280072 402220117 TSNO=
201510050653 METAR KBFI 050653Z AUTO 00000KT 10SM CLR 15/08 A2988 RMK AO2 SLP118 T01500078 TSNO=
201510050553 METAR KBFI 050553Z 00000KT 10SM CLR 15/07 A2987 RMK AO2 SLP116 T01500067 10211 20150 51003=
201510050453 METAR KBFI 050453Z 00000KT 10SM CLR 17/07 A2987 RMK AO2 SLP115 T01670067=
201510050353 METAR KBFI 050353Z 00000KT 10SM CLR 17/08 A2987 RMK AO2 SLP115 T01670078=
201510050253 METAR KBFI 050253Z 29003KT 10SM CLR 17/07 A2986 RMK AO2 SLP112 T01670072 53001=
201510050153 METAR KBFI 050153Z 30004KT 10SM CLR 18/07 A2986 RMK AO2 SLP110 T01830072=
201510050053 METAR KBFI 050053Z 31005KT 10SM CLR 20/07 A2986 RMK AO2 SLP110 T02000067=
201510042353 METAR KBFI 042353Z 30006KT 10SM CLR 21/08 A2986 RMK AO2 SLP112 T02110078 10222 20172 56016=
201510042253 METAR KBFI 042253Z 30007KT 10SM CLR 21/08 A2988 RMK AO2 SLP117 T02110083=
201510042153 METAR KBFI 042153Z 30008KT 10SM CLR 22/08 A2989 RMK AO2 SLP120 T02170083=
201510042053 METAR KBFI 042053Z AUTO 30008KT 10SM CLR 22/07 A2991 RMK AO2 SLP127 T02170067 56019 TSNO=
201510041953 METAR KBFI 041953Z 31004KT 10SM SCT200 21/06 A2993 RMK AO2 SLP133 T02110061=
201510041853 METAR KBFI 041853Z 05005KT 10SM CLR 20/09 A2994 RMK AO2 SLP139 T02000089=
201510041753 METAR KBFI 041753Z 00000KT 10SM CLR 17/09 A2996 RMK AO2 SLP146 T01720089 10172 20117 58006=
201510041653 METAR KBFI 041653Z VRB04KT 10SM BKN220 16/08 A2998 RMK AO2 SLP151 T01610078=
201510041553 METAR KBFI 041553Z 04003KT 10SM CLR 15/08 A2998 RMK AO2 SLP152 T01500083=
201510041453 METAR KBFI 041453Z VRB03KT 10SM CLR 12/09 A2998 RMK AO2 SLP152 T01220089 58005=
201510041353 METAR KBFI 041353Z 00000KT 10SM CLR 12/09 A2998 RMK AO2 SLP152 T01220089=
201510041253 METAR KBFI 041253Z 00000KT 10SM CLR 13/09 A3000 RMK AO2 SLP158 T01280089=
201510041153 METAR KBFI 041153Z 00000KT 10SM CLR 13/09 A3000 RMK AO2 SLP157 T01330089 10156 20128 55000=
201510041053 METAR KBFI 041053Z 00000KT 10SM CLR 13/08 A2999 RMK AO2 SLP155 T01280078=
201510040953 METAR KBFI 040953Z 00000KT 10SM CLR 14/08 A2999 RMK AO2 SLP154 T01390078=
201510040853 METAR KBFI 040853Z 00000KT 10SM CLR 14/06 A3000 RMK AO2 SLP157 T01390056 56007=
201510040753 METAR KBFI 040753Z 34003KT 10SM CLR 14/07 A3000 RMK AO2 SLP158 T01440072 402000133=
201510040653 METAR KBFI 040653Z 04003KT 10SM CLR 16/06 A3001 RMK AO2 SLP161 T01560056=
201510040553 METAR KBFI 040553Z VRB03KT 10SM CLR 16/06 A3002 RMK AO2 SLP164 T01560056 10200 20156 58004=
201510040453 METAR KBFI 040453Z 04003KT 10SM CLR 16/06 A3003 RMK AO2 SLP167 T01610061=
201510040353 METAR KBFI 040353Z 04003KT 10SM CLR 17/06 A3003 RMK AO2 SLP170 T01670061=
201510040253 METAR KBFI 040253Z VRB04KT 10SM CLR 17/04 A3003 RMK AO2 SLP168 T01720044 53002=
201510040153 METAR KBFI 040153Z 34004KT 10SM CLR 18/06 A3002 RMK AO2 SLP166 T01830056=
201510040053 METAR KBFI 040053Z VRB06KT 10SM CLR 19/06 A3002 RMK AO2 SLP166 T01940056=
201510032353 METAR KBFI 032353Z 32006KT 10SM CLR 19/06 A3002 RMK AO2 SLP166 T01940061 10200 20167 56009=
201510032253 METAR KBFI 032253Z 32007KT 280V340 10SM CLR 20/07 A3003 RMK AO2 SLP168 T02000067=
201510032153 METAR KBFI 032153Z VRB05KT 10SM CLR 20/07 A3004 RMK AO2 SLP172 T02000072=
201510032053 METAR KBFI 032053Z VRB04KT 10SM FEW030 19/08 A3005 RMK AO2 SLP176 T01940078 56009=
201510031953 METAR KBFI 031953Z 35006KT 10SM FEW032 19/07 A3006 RMK AO2 SLP179 T01890072=
201510031853 METAR KBFI 031853Z 00000KT 10SM SCT032 18/08 A3007 RMK AO2 SLP181 T01780078=
201510031753 METAR KBFI 031753Z 03005KT 10SM SCT028 17/08 A3008 RMK AO2 SLP185 T01670078 10167 20133 50000=
201510031653 METAR KBFI 031653Z VRB06KT 10SM FEW026 15/07 A3009 RMK AO2 SLP187 T01500072=
201510031600 METAR KBFI NIL=
201510031553 METAR KBFI 031553Z VRB03KT 10SM SCT032 14/08 A3009 RMK AO2 SLP187 T01390078=
201510031453 METAR KBFI 031453Z VRB04KT 10SM SCT025 BKN032 13/07 A3008 RMK AO2 SLP185 T01330072 53007=
201510031353 METAR KBFI 031353Z VRB04KT 10SM BKN023 14/07 A3007 RMK AO2 SLP181 T01390072=
201510031253 METAR KBFI 031253Z 34006KT 10SM OVC022 14/07 A3005 RMK AO2 SLP175 T01390072=
201510031214 SPECI KBFI 031214Z VRB05KT 10SM OVC018 14/08 A3005 RMK AO2=
201510031153 METAR KBFI 031153Z AUTO 35007KT 320V030 10SM OVC034 14/08 A3006 RMK AO2 SLP179 70001 T01390078 10150 20139 58004 TSNO=
201510031053 METAR KBFI 031053Z COR 33004KT 10SM BKN017 OVC046 14/08 A3007 RMK AO2 SLP181 T01390078=
201510031051 SPECI KBFI 031051Z VRB04KT 10SM SCT027 OVC046 14/08 A3007 RMK AO2=
201510030953 METAR KBFI 030953Z VRB06KT 10SM BKN025 OVC035 14/08 A3007 RMK AO2 SLP182 T01440083=
201510030900 METAR KBFI NIL=
201510030821 SPECI KBFI 030821Z VRB03KT 10SM OVC016 14/10 A3006 RMK AO2=
201510030812 SPECI KBFI 030812Z VRB03KT 10SM OVC014 14/10 A3006 RMK AO2=
201510030753 METAR KBFI 030753Z VRB03KT 10SM OVC018 14/10 A3006 RMK AO2 SLP180 T01440100 401670111=
201510030700 METAR KBFI NIL=
201510030600 METAR KBFI NIL=
201510030500 METAR KBFI NIL=
201510030400 METAR KBFI NIL=
201510030300 METAR KBFI NIL=
201510030153 METAR KBFI 030153Z 11004KT 10SM OVC024 17/11 A3007 RMK AO2 SLP182 T01670111=
201510030053 METAR KBFI 030053Z 10004KT 10SM OVC024 16/11 A3009 RMK AO2 SLP188 T01610111=
201510022353 METAR KBFI 022353Z VRB03KT 10SM OVC022 17/11 A3010 RMK AO2 SLP193 T01670111 10167 20144 58020=
201510022253 METAR KBFI 022253Z 12005KT 10SM OVC024 17/11 A3013 RMK AO2 SLP202 T01670106=
201510022153 METAR KBFI 022153Z 16006KT 10SM BKN020 OVC028 17/11 A3014 RMK AO2 SLP206 T01670106=
201510022053 METAR KBFI 022053Z 17006KT 10SM SCT014 OVC018 16/11 A3016 RMK AO2 SLP213 T01610111 56019=
201510022000 SPECI KBFI 022000Z 17006KT 10SM SCT014 OVC018 16/11 A3018 RMK AO2=
201510021953 METAR KBFI 021953Z 17006KT 6SM HZ OVC014 16/11 A3017 RMK AO2 SLP217 T01610111=
201510021853 METAR KBFI 021853Z 14010KT 10SM OVC012 16/11 A3018 RMK AO2 SLP220 T01560111=
201510021834 SPECI KBFI 021834Z 14009KT 10SM OVC012 16/11 A3020 RMK AO2=
201510021753 METAR KBFI 021753Z 16004KT 6SM HZ OVC009 14/11 A3022 RMK AO2 CIG 008V013 SLP231 T01440106 10144 20128 53001=
201510021653 METAR KBFI 021653Z 15011KT 5SM HZ OVC009 14/11 A3020 RMK AO2 CIG 007V012 SLP228 T01390106=
201510021553 METAR KBFI 021553Z 17005KT 7SM OVC007 14/11 A3021 RMK AO2 SLP230 T01390106=
201510021453 METAR KBFI 021453Z 16004KT 8SM OVC007 14/11 A3021 RMK AO2 SLP231 T01390111 51011=
201510021353 METAR KBFI 021353Z 19005KT 5SM BR OVC004 13/11 A3021 RMK AO2 SLP229 T01330111=
201510021253 METAR KBFI 021253Z 00000KT 3SM BR OVC003 13/11 A3020 RMK AO2 SLP226 T01280111=
201510021220 SPECI KBFI 021220Z 00000KT 4SM BR OVC003 13/11 A3019 RMK AO2=
201510021153 METAR KBFI 021153Z 23004KT 4SM HZ OVC005 13/11 A3018 RMK AO2 SLP220 T01330106 10156 20111 53008=
201510021101 SPECI KBFI 021101Z VRB03KT 4SM HZ BKN005 12/09 A3017 RMK AO2=
201510021053 METAR KBFI 021053Z 00000KT 9SM FEW008 SCT015 12/09 A3016 RMK AO2 SLP214 T01170089=
201510020953 METAR KBFI 020953Z 00000KT 10SM CLR 13/09 A3016 RMK AO2 SLP213 T01280094=
201510020853 METAR KBFI 020853Z AUTO 00000KT 10SM CLR 13/10 A3016 RMK AO2 SLP211 T01330100 51012 TSNO=
201510020753 METAR KBFI 020753Z 00000KT 10SM CLR 13/09 A3015 RMK AO2 SLP208 T01330094 402110106=
201510020653 METAR KBFI 020653Z 00000KT 10SM CLR 14/10 A3013 RMK AO2 SLP203 T01440100=
201510020553 METAR KBFI 020553Z 00000KT 10SM CLR 15/10 A3012 RMK AO2 SLP200 T01500100 10211 20150 50019=
201510020453 METAR KBFI 020453Z 33004KT 10SM CLR 17/10 A3013 RMK AO2 SLP202 T01670100=
201510020353 METAR KBFI 020353Z 00000KT 10SM CLR 17/10 A3009 RMK AO2 SLP190 T01670100=
201510020253 METAR KBFI 020253Z 00000KT 10SM CLR 18/10 A3007 RMK AO2 SLP181 T01830100 53013=
201510020153 METAR KBFI 020153Z 29003KT 10SM CLR 19/09 A3005 RMK AO2 SLP174 T01940094=
201510020053 METAR KBFI 020053Z 31003KT 10SM CLR 21/09 A3003 RMK AO2 SLP170 T02060089=
201510012353 METAR KBFI 012353Z 30006KT 10SM CLR 21/09 A3003 RMK AO2 SLP168 T02060094 10211 20144 53003=
201510012253 METAR KBFI 012253Z AUTO 30006KT 10SM CLR 21/10 A3002 RMK AO2 SLP165 T02110100 TSNO=
201510012153 METAR KBFI 012153Z AUTO 30006KT 10SM CLR 20/11 A3002 RMK AO2 SLP165 T02000106 TSNO=
201510012053 METAR KBFI 012053Z 33004KT 10SM CLR 19/11 A3002 RMK AO2 SLP165 T01940111 56007=
201510011953 METAR KBFI 011953Z 32005KT 10SM CLR 19/11 A3002 RMK AO2 SLP167 T01890111=
201510011853 METAR KBFI 011853Z 30006KT 10SM FEW040 17/11 A3003 RMK AO2 SLP170 T01720106=
201510011753 METAR KBFI 011753Z 00000KT 6SM HZ FEW006 14/11 A3004 RMK AO2 SLP172 60000 T01440111 10144 20106 50002=
201510011735 SPECI KBFI 011735Z 00000KT 6SM HZ SCT006 14/11 A3004 RMK AO2=
201510011733 SPECI KBFI 011733Z 00000KT 6SM BR BKN004 14/12 A3004 RMK AO2=
201510011653 METAR KBFI 011653Z 13003KT 2 1/2SM BR OVC004 13/11 A3004 RMK AO2 SLP173 VIS SE 1SM T01280106=
201510011553 METAR KBFI 011553Z 00000KT 3/4SM BR OVC002 12/11 A3004 RMK AO2 SLP171 T01220106=
201510011500 SPECI KBFI 011500Z 00000KT 1/4SM FG VV002 12/10 A3003 RMK AO2=
201510011453 METAR KBFI 011453Z 00000KT 1/4SM FG VV001 12/10 A3003 RMK AO2 SLP170 60000 T01170100 51008=
201510011433 SPECI KBFI 011433Z 00000KT 1/2SM FG VV001 11/09 A3003 RMK AO2=
201510011353 METAR KBFI 011353Z 00000KT 2SM BR OVC003 12/09 A3003 RMK AO2 SLP167 T01170094=
201510011253 METAR KBFI 011253Z 14003KT 2SM BR OVC003 12/10 A3002 RMK AO2 RAB34E37 SLP164 P0000 T01170100=
201510011220 SPECI KBFI 011220Z 00000KT 3SM BR OVC003 11/09 A3001 RMK AO2=
201510011153 METAR KBFI 011153Z 00000KT 8SM BKN008 12/09 A3001 RMK AO2 SLP161 60001 70001 T01170089 10144 20106 51005=
201510011125 SPECI KBFI 011125Z 14003KT 8SM BKN008 11/08 A3001 RMK AO2=
201510011053 METAR KBFI 011053Z 00000KT 7SM SCT008 12/09 A3001 RMK AO2 SLP161 T01170089=
201510011013 SPECI KBFI 011013Z 00000KT 9SM SCT008 12/09 A3001 RMK AO2=
201510010953 METAR KBFI 010953Z 00000KT 8SM BKN008 12/09 A3001 RMK AO2 RAB0856E06 SLP161 P0000 T01170089=
201510010943 SPECI KBFI 010943Z 00000KT 7SM SCT008 12/09 A3001 RMK AO2 RAB0856E06 P0000=
201510010853 METAR KBFI 010853Z 00000KT 10SM CLR 13/09 A2999 RMK AO2 SLP156 P0001 60001 T01280094 53002=
201510010753 METAR KBFI 010753Z 00000KT 10SM CLR 13/09 A2998 RMK AO2 SLP152 T01280094 402000111=
201510010653 METAR KBFI 010653Z 00000KT 10SM CLR 14/11 A2998 RMK AO2 SLP151 T01440106=
201510010553 METAR KBFI 010553Z 00000KT 10SM CLR 14/11 A2999 RMK AO2 SLP154 T01440106 10194 20144 58000=
201510010453 METAR KBFI 010453Z 00000KT 10SM CLR 14/11 A2999 RMK AO2 SLP155 T01440106=
201510010353 METAR KBFI 010353Z 00000KT 10SM CLR 15/11 A2999 RMK AO2 SLP156 T01500106=
201510010253 METAR KBFI 010253Z 00000KT 10SM CLR 17/11 A2999 RMK AO2 SLP155 T01670106 53005=
201510010153 METAR KBFI 010153Z 00000KT 10SM CLR 18/11 A2998 RMK AO2 SLP150 T01830106=
201510010053 METAR KBFI 010053Z 29003KT 10SM CLR 19/11 A2997 RMK AO2 SLP150 T01940106=

# No short TAF reports from KBFI in databse.

###################################
#  large TAF from KBFI
###################################
201510312334 TAF KBFI 312334Z 0100/0124 17012KT P6SM -SHRA SCT015 BKN035 FM010500
                       18015G25KT 6SM -SHRA BR BKN025 BKN040 FM011100
                       16012KT P6SM -SHRA BKN025 BKN040 FM011600
                       18016G30KT 5SM -SHRA BR BKN025 OVC035=
201510311729 TAF KBFI 311729Z 3118/0118 18018G28KT 5SM -RA BR SCT010 BKN018
                       OVC050 FM311900 19015G25KT P6SM -SHRA SCT014
                       BKN025 FM010000 16013G22KT P6SM -SHRA SCT018
                       BKN030 FM010800 17010KT 6SM -SHRA BR SCT012
                       BKN018 FM011600 17015G25KT 6SM -SHRA BR
                       SCT012 BKN015 OVC025=
201510311135 TAF KBFI 311135Z 3112/0112 18016G24KT 5SM -RA BR SCT010 BKN018
                       OVC050 FM312000 20014G23KT P6SM -SHRA SCT014
                       BKN025 FM010000 19013G22KT P6SM -SHRA SCT018
                       BKN030 FM010800 17012G22KT 6SM -SHRA BR
                       SCT012 BKN018=
201510310550 TAF KBFI 310550Z 3106/0106 16005KT 6SM -RA BR BKN010 OVC018 FM310800
                       19020G32KT 4SM -RA BR BKN008 OVC014
                      TEMPO 3108/3110 2SM RA BR FM312000 19015G24KT
                       P6SM -SHRA SCT012 BKN025 FM010000 18012G20KT
                       P6SM -SHRA SCT015 BKN030=
201510302320 TAF KBFI 302320Z 3100/3124 19015G25KT P6SM VCSH SCT018 BKN035 OVC060
                       TEMPO 3100/3104 5SM -SHRA BKN018 OVC035
                       FM310400 19010KT P6SM -RA OVC025 FM310600
                       17008KT 6SM RA SCT006 OVC015 FM310900 18018G25KT
                       5SM -RA BR SCT006 OVC015 FM311800 19015G25KT
                       5SM -RA BR OVC020=
201510301720 TAF KBFI 301720Z 3018/3118 18015G25KT P6SM -SHRA BKN015 OVC025
                       FM302100 18014G22KT P6SM VCSH SCT020 BKN030
                       OVC060 FM310300 18010KT P6SM -RA OVC030
                       FM310500 16006KT 3SM RA SCT006 OVC012 FM311200
                       16015G22KT 6SM -RA BR SCT010 OVC018=
201510301506 TAF AMD KBFI 301506Z 3015/3112 17012G20KT P6SM -RA BKN010 OVC020
                       FM301700 17012G18KT 5SM -RA OVC028 FM302000
                       17012G18KT P6SM SCT025 BKN045 OVC060 FM310400
                       16010KT P6SM -RA OVC045 FM310600 16008KT
                       4SM RA SCT009 OVC016=
201510301138 TAF KBFI 301138Z 3012/3112 17012G18KT P6SM -RA OVC040 FM301600
                       17012G18KT 5SM -RA OVC028 FM302000 17012G18KT
                       P6SM SCT025 BKN045 OVC060 FM310400 16010KT
                       P6SM -RA OVC045 FM310600 16008KT 4SM RA
                       SCT009 OVC016=
201510300539 TAF KBFI 300539Z 3006/3106 15008KT P6SM OVC050 FM301000 15008KT
                       P6SM -RA OVC040 FM301500 17012G18KT 5SM
                       -RA SCT012 OVC020 FM302100 17012G18KT P6SM
                       SCT020 BKN030 OVC045 FM310400 17010KT P6SM
                       -RA SCT008 OVC016=
201510292341 TAF KBFI 292341Z 3000/3024 17007KT P6SM -SHRA BKN020 OVC050 FM300200
                       15005KT P6SM VCSH SCT030 BKN070 OVC130 FM300400
                       15005KT P6SM SCT035 BKN070 OVC130
                      TEMPO 3004/3008 BKN035 OVC050 FM300800 15008KT
                       P6SM RA SCT020 OVC035 FM301500 18013KT 5SM
                       -RA BR OVC020 FM302000 18013G22KT P6SM -RA
                       BKN020 OVC035=
201510292106 TAF AMD KBFI 292106Z 2921/3018 19009KT P6SM VCSH BKN020 BKN040
                       BKN200
                      TEMPO 2921/2924 -SHRA FM300300 16007KT P6SM
                       BKN040 BKN070 OVC150 FM300900 15007KT P6SM
                       -RA OVC035 FM301500 15012KT 5SM -RA BR OVC020=
201510291839 TAF AMD KBFI 291839Z 2919/3018 17009KT P6SM VCSH BKN020 BKN200
                       TEMPO 2919/2921 -SHRA OVC015 FM292100 19009KT
                       P6SM VCSH BKN040 BKN200 FM300300 16007KT
                       P6SM BKN040 BKN070 OVC150 FM300900 15007KT
                       P6SM -RA OVC035 FM301500 15012KT 5SM -RA
                       BR OVC020=
201510291745 TAF KBFI 291745Z 2918/3018 17009KT P6SM VCSH BKN020 BKN200 FM292100
                       19009KT P6SM VCSH BKN040 BKN200 FM300300
                       16007KT P6SM BKN040 BKN070 OVC150
                      PROB30 3003/3009 -RA FM300900 15007KT P6SM
                       -RA OVC035 FM301500 15012KT 5SM -RA BR OVC020=
201510291135 TAF KBFI 291135Z 2912/3012 16006KT P6SM BKN012 BKN040 OVC070 FM291800
                       16006KT P6SM SCT020 BKN040 OVC070 FM300700
                       16006KT P6SM -RA BKN020 OVC035=
201510290541 TAF KBFI 290541Z 2906/3006 16006KT P6SM SCT010 BKN020 OVC035 FM290900
                       16006KT P6SM BKN010 OVC018 FM291800 18008KT
                       P6SM BKN018 OVC035 FM292200 18008KT P6SM
                       BKN030 OVC045 FM300500 16006KT P6SM BKN020
                       OVC035=
201510282350 TAF AMD KBFI 282350Z 2900/2924 17008KT P6SM BKN020 BKN060 BKN150
                       FM290200 17006KT P6SM -RA SCT025 OVC060
                       TEMPO 2902/2906 6SM -RA BR BKN025 OVC040
                       FM290600 17004KT P6SM FEW011 OVC025 FM291200
                       17004KT P6SM VCFG BKN011 OVC025 FM291800
                       19009KT P6SM BKN020 OVC040 FM292100 19009KT
                       P6SM BKN035 BKN070=
201510282344 TAF KBFI 282344Z 2900/2924 17008KT P6SM SCT020 BKN060 BKN150 FM290200
                       17006KT P6SM -RA SCT025 OVC060
                      TEMPO 2902/2906 6SM -RA BR BKN025 OVC040
                       FM290600 17004KT P6SM FEW011 OVC025 FM291200
                       17004KT P6SM VCFG BKN011 OVC025 FM291800
                       19009KT P6SM BKN020 OVC040 FM292100 19009KT
                       P6SM BKN035 BKN070=
201510282057 TAF AMD KBFI 282057Z 2821/2918 16009KT 5SM -RA BR SCT009 BKN020
                       OVC040
                      TEMPO 2821/2824 3SM -RA BR BKN009 OVC020
                       FM290000 18006KT P6SM -RA FEW011 OVC025
                       FM291200 16006KT 6SM BR BKN011 OVC020=
201510281745 TAF KBFI 281745Z 2818/2918 18005KT P6SM SCT040 OVC060
                      TEMPO 2818/2820 -RA FM282000 18007KT P6SM
                       SCT025 OVC040
                      TEMPO 2820/2824 -RA BKN025 OVC040 FM290000
                       18006KT P6SM -RA FEW011 OVC025 FM291200
                       16006KT 6SM BR BKN011 OVC020=
201510281120 TAF KBFI 281120Z 2812/2912 16004KT P6SM BKN120 OVC200
                      TEMPO 2813/2815 P6SM -RA OVC080 FM281500
                       16006KT 6SM -RA BKN040 OVC080 FM282000 16008KT
                       5SM -SHRA OVC020 FM290000 17008KT P6SM -SHRA
                       OVC025 FM290600 15005KT P6SM -SHRA OVC018=
201510280520 TAF KBFI 280520Z 2806/2906 VRB03KT P6SM BKN120 OVC200
                      TEMPO 2812/2815 6SM -RA OVC060 FM281500 17006KT
                       5SM -RA BR BKN045 OVC100 FM282000 17010KT
                       5SM -SHRA OVC022 FM290000 18006KT 6SM -SHRA
                       BR OVC035=
201510272332 TAF KBFI 272332Z 2800/2824 33004KT P6SM BKN250 FM280300 VRB03KT
                       P6SM SCT120 OVC200 FM280600 VRB03KT P6SM
                       BKN120 OVC200
                      TEMPO 2812/2815 6SM -RA OVC060 FM281500 17006KT
                       5SM -RA BR BKN045 OVC100 FM282000 17010KT
                       4SM -SHRA OVC020=
201510271739 TAF KBFI 271739Z 2718/2818 00000KT P6SM FEW008 BKN250 FM280300
                       VRB03KT P6SM SCT120 OVC200 FM280600 00000KT
                       P6SM BKN120 OVC200 FM281500 14004KT P6SM
                       -RA BKN045 OVC100=
201510271501 TAF AMD KBFI 271501Z 2715/2812 00000KT P6SM FEW008 SCT250 FM271700
                       34005KT P6SM FEW020 BKN250 FM280300 VRB04KT
                       P6SM SCT120 OVC200 FM280600 12005KT P6SM
                       BKN120 OVC200 FM281000 16005KT P6SM BKN100
                       OVC150=
201510271132 TAF KBFI 271132Z 2712/2812 00000KT 5SM BR FEW007
                      TEMPO 2712/2716 3SM BR BKN002 FM271600 00000KT
                       5SM BR SCT010 SCT250 FM271700 34005KT P6SM
                       FEW020 BKN250 FM280300 VRB04KT P6SM SCT120
                       OVC200 FM280600 12005KT P6SM BKN120 OVC200
                       FM281000 16005KT P6SM BKN100 OVC150=
201510271127 TAF KBFI 271127Z 2712/2812 00000KT P6SM FEW007
                      TEMPO 2713/2716 3SM BR SCT004 FM271600 00000KT
                       5SM BR SCT010 SCT250 FM271700 34005KT P6SM
                       FEW020 BKN250 FM280300 VRB04KT P6SM SCT120
                       OVC200 FM280600 12005KT P6SM BKN120 OVC200
                       FM281000 16005KT P6SM BKN100 OVC150=
201510270946 TAF AMD KBFI 270946Z 2710/2806 00000KT P6SM SCT050 FM271200 00000KT
                       5SM BR SCT007
                      TEMPO 2712/2716 2SM BR OVC007 FM271800 35006KT
                       5SM BR BKN022 FM271900 33006KT P6SM FEW025
                       SCT250 FM280300 VRB04KT P6SM SCT120 BKN200=
201510270520 TAF KBFI 270520Z 2706/2806 13004KT P6SM OVC040 FM270900 00000KT
                       5SM BR OVC020
                      TEMPO 2712/2716 1SM BR OVC008 FM271900 35006KT
                       5SM BR BKN022 FM272000 33006KT P6SM FEW025
                       SCT250 FM280300 VRB04KT P6SM SCT120 BKN200=
201510270307 TAF AMD KBFI 270307Z 2703/2724 00000KT 6SM BR OVC030 FM270600 VRB03KT
                       5SM BR OVC025 FM271000 00000KT 3SM BR OVC012
                       TEMPO 2712/2716 1SM BR OVC006 FM271900 VRB03KT
                       P6SM SCT250=
201510270034 TAF AMD KBFI 270034Z 2701/2724 17007KT P6SM FEW008 SCT025 OVC035
                       TEMPO 2701/2703 BKN025 OVC035 FM270300 00000KT
                       5SM BR OVC012 FM271300 00000KT 2SM BR OVC004
                       FM271900 VRB03KT P6SM SCT250=
201510262326 TAF KBFI 262326Z 2700/2724 17007KT P6SM FEW008 BKN025 OVC035
                      TEMPO 2700/2703 BKN008 OVC019 FM270300 00000KT
                       5SM BR OVC012 FM271300 00000KT 2SM BR OVC004
                       FM271900 VRB03KT P6SM SCT250=
201510262008 TAF AMD KBFI 262008Z 2620/2718 16008KT P6SM OVC011
                      TEMPO 2623/2703 SCT012 OVC025 FM270300 VRB03KT
                       5SM BR OVC015 FM270800 11002KT 5SM BR OVC009
                       TEMPO 2712/2716 2SM BR OVC005=
201510261726 TAF KBFI 261726Z 2618/2718 14010KT 2SM BR VCSH OVC007
                      TEMPO 2618/2620 5SM BR SCT008 OVC015 FM262000
                       18004KT P6SM SCT015 OVC025 FM270300 VRB03KT
                       5SM BR OVC015 FM270800 11002KT 5SM BR OVC009
                       TEMPO 2712/2716 2SM BR OVC005=
201510261618 TAF AMD KBFI 261618Z 2616/2712 15012KT P6SM -SHRA BKN030 OVC050
                       TEMPO 2616/2618 2SM -SHRA BR OVC006 FM261800
                       16008KT P6SM VCSH OVC030 FM270300 VRB03KT
                       6SM BR OVC020 FM270900 VRB03KT 5SM BR OVC012=
201510261337 TAF AMD KBFI 261337Z 2614/2712 15012KT 6SM -SHRA BKN030 OVC050
                       TEMPO 2614/2616 4SM -SHRA BR FM261700 16008KT
                       P6SM VCSH OVC030 FM270300 VRB03KT 6SM BR
                       OVC020 FM270900 VRB03KT 5SM BR OVC012=
201510261120 TAF KBFI 261120Z 2612/2712 15012KT P6SM -SHRA BKN030 OVC050 FM261700
                       16008KT P6SM VCSH OVC030 FM270300 VRB03KT
                       6SM BR OVC020 FM270900 VRB03KT 5SM BR OVC012=
201510260527 TAF KBFI 260527Z 2606/2706 15012KT 6SM -RA BR SCT018 OVC025 FM260700
                       16013G20KT 5SM -RA BR SCT015 OVC025
                      TEMPO 2608/2610 3SM -RA BR OVC015 FM261200
                       17007KT 5SM -RA SCT005 OVC012 FM261800 VRB04KT
                       P6SM VCSH OVC025 FM270400 VRB04KT 6SM BR
                       VCSH OVC015=
201510260300 TAF AMD KBFI 260300Z 2603/2624 14008KT 5SM -RA BR OVC025 FM260500
                       16012G20KT 5SM -RA BR OVC022 FM260800 17009KT
                       P6SM -RA BKN025 OVC040 FM261700 18007KT
                       P6SM VCSH BKN030 BKN050=
201510252320 TAF KBFI 252320Z 2600/2624 VRB04KT P6SM -RA OVC060 FM260400 16007KT
                       5SM -RA BR BKN030 OVC050 FM260800 18007KT
                       P6SM -RA BKN025 OVC040 FM261700 18007KT
                       P6SM VCSH BKN030 BKN050=
201510251720 TAF KBFI 251720Z 2518/2618 05005KT P6SM VCSH BKN050 OVC100 FM252200
                       VRB04KT P6SM -RA BKN040 OVC080 FM260300
                       15007KT 5SM -SHRA BR BKN025 OVC050 FM260800
                       18010KT P6SM -SHRA BKN025 OVC040 FM261700
                       18006KT P6SM VCSH BKN030=
201510251120 TAF KBFI 251120Z 2512/2612 VRB03KT P6SM -SHRA BKN080 BKN120 OVC200
                       FM251900 VRB03KT P6SM -RA BKN060 OVC100
                       FM260300 15005KT 6SM -SHRA BR BKN025 OVC050
                       FM261000 16005KT 5SM -DZ BR OVC020=
201510250520 TAF KBFI 250520Z 2506/2606 VRB03KT P6SM -SHRA BKN120 OVC200 FM251200
                       VRB03KT P6SM -SHRA BKN080 BKN120 OVC200
                       FM251900 04005KT P6SM -RA BKN060 OVC100
                       FM260300 15006KT P6SM -SHRA BKN045 OVC060=
201510242320 TAF KBFI 242320Z 2500/2524 32007KT P6SM SCT120 BKN200 FM250800
                       04004KT P6SM SCT080 BKN120 FM252100 VRB04KT
                       P6SM -RA BKN050 OVC100=
201510241720 TAF KBFI 241720Z 2418/2518 04004KT P6SM SCT010 OVC100
                      TEMPO 2418/2420 5SM BR BKN009 OVC100 FM242100
                       02006KT P6SM BKN080 OVC120 FM250400 04004KT
                       P6SM SCT080 BKN120 FM251700 VRB04KT P6SM
                       BKN050 OVC100=
201510241608 TAF AMD KBFI 241608Z 2416/2512 00000KT P6SM OVC010
                      TEMPO 2416/2418 4SM BR OVC007 FM241900 34005KT
                       P6SM SCT010 OVC120 FM242100 34005KT P6SM
                       BKN080 OVC120 FM250400 02005KT P6SM BKN120=
201510241123 TAF KBFI 241123Z 2412/2512 36004KT P6SM BKN009 BKN200 FM241600
                       36005KT P6SM SCT120 OVC200 FM242100 36006KT
                       P6SM BKN100 BKN150 FM250300 00000KT P6SM
                       SCT120=
201510240807 TAF AMD KBFI 240807Z 2408/2506 00000KT P6SM BKN009 BKN200 FM241600
                       00000KT P6SM SCT120 BKN200 FM242000 36006KT
                       P6SM VCSH BKN100 BKN150 FM250200 00000KT
                       P6SM SCT100=
201510240520 TAF KBFI 240520Z 2406/2506 00000KT P6SM SCT150 BKN200
                      TEMPO 2413/2416 3SM BR BKN006 FM242000 36006KT
                       P6SM VCSH BKN100 BKN150 FM250300 00000KT
                       P6SM SCT100=
201510232320 TAF KBFI 232320Z 2400/2424 02004KT P6SM BKN200 FM240600 00000KT
                       P6SM BKN200
                      TEMPO 2413/2416 3SM BR BKN005 FM242000 36006KT
                       P6SM BKN150=
201510231720 TAF KBFI 231720Z 2318/2418 02004KT P6SM OVC200 FM240600 00000KT
                       P6SM OVC200
                      TEMPO 2413/2416 3SM BR BKN005=
201510231123 TAF KBFI 231123Z 2312/2412 00000KT P6SM SCT005 BKN250
                      TEMPO 2312/2316 3SM BR BKN005 FM231900 33008KT
                       P6SM FEW035 BKN250 FM232100 30008KT P6SM
                       OVC200=
201510231031 TAF AMD KBFI 231031Z 2311/2406 00000KT P6SM SCT005 BKN250
                      TEMPO 2312/2315 3SM BR BKN005 FM231900 33008KT
                       P6SM BKN250=
201510230540 TAF KBFI 230540Z 2306/2406 00000KT P6SM SCT250 FM231000 02004KT
                       P6SM BKN250 FM231900 33008KT P6SM BKN250=
201510222322 TAF KBFI 222322Z 2300/2324 31005KT P6SM FEW030 BKN250 FM230300
                       00000KT P6SM BKN250=
201510221724 TAF KBFI 221724Z 2218/2318 33005KT P6SM FEW015 FM221900 30004KT
                       P6SM FEW030 SCT060 FM230100 VRB03KT P6SM
                       BKN250=
201510221534 TAF AMD KBFI 221534Z 2216/2312 00000KT P6SM SCT020 FM221900 30004KT
                       P6SM FEW030 SCT060 FM222200 31005KT P6SM
                       FEW035 SCT250 FM230100 VRB03KT P6SM BKN250=
201510221407 TAF AMD KBFI 221407Z 2214/2312 00000KT P6SM FEW005 BKN050
                      TEMPO 2214/2217 3SM BR BKN005 BKN050 FM221900
                       30004KT P6SM SCT035 SCT070 FM222200 31005KT
                       P6SM FEW035 SCT250 FM230100 VRB03KT P6SM
                       BKN250=
201510221202 TAF AMD KBFI 221202Z 2212/2312 00000KT 1/2SM FG FEW005 FM221300
                       00000KT 1/2SM FG VV002 FM221800 00000KT
                       4SM BR BKN004 BKN035 FM221900 30004KT P6SM
                       SCT035 SCT070 FM222200 31005KT P6SM FEW035
                       SCT250 FM230100 VRB03KT P6SM BKN250=
201510221124 TAF KBFI 221124Z 2212/2312 00000KT P6SM FEW003 SCT070
                      TEMPO 2212/2216 3SM BR SCT003 FM221900 30004KT
                       P6SM SCT035 SCT070 FM222200 31005KT P6SM
                       FEW035 SCT250 FM230100 VRB03KT P6SM BKN250=
201510220520 TAF KBFI 220520Z 2206/2306 00000KT P6SM SCT020 BKN060
                      TEMPO 2208/2212 BKN020 FM221200 00000KT 5SM
                       BR BKN012 OVC025 FM221800 30004KT P6SM BKN030
                       BKN050 FM222100 31005KT P6SM SCT050=
201510212321 TAF KBFI 212321Z 2200/2224 00000KT P6SM FEW030 BKN060 BKN200 FM220200
                       30005KT P6SM BKN060 BKN150 FM220700 00000KT
                       P6SM BKN030 FM221200 00000KT 5SM BR BKN012
                       OVC025 FM221800 30004KT P6SM BKN030 BKN050
                       FM222100 31005KT P6SM SCT050=
201510211724 TAF KBFI 211724Z 2118/2218 16003KT P6SM FEW005 BKN100 BKN250 FM220100
                       30005KT P6SM BKN040 BKN100 FM220700 00000KT
                       P6SM BKN030 FM221000 00000KT 4SM BR BKN012
                       OVC025=
201510211423 TAF AMD KBFI 211423Z 2114/2212 13003KT P6SM BKN003
                      TEMPO 2114/2116 1SM BR SCT003 FM211700 21006KT
                       P6SM SCT050 SCT100 BKN250 FM220100 30005KT
                       P6SM BKN040 BKN100 FM220700 01004KT P6SM
                       BKN030=
201510211305 TAF AMD KBFI 211305Z 2113/2212 13003KT P6SM OVC003
                      TEMPO 2114/2118 SCT003 FM211800 21006KT P6SM
                       SCT050 SCT100 BKN250 FM220100 30005KT P6SM
                       BKN040 BKN100 FM220700 01004KT P6SM BKN030=
201510211120 TAF KBFI 211120Z 2112/2212 13003KT P6SM BKN250
                      TEMPO 2112/2116 SCT003 FM211900 21006KT P6SM
                       SCT050 SCT100 BKN250 FM220100 30005KT P6SM
                       BKN040 BKN100 FM220700 01004KT P6SM BKN030=
201510210520 TAF KBFI 210520Z 2106/2206 00000KT P6SM SKC FM211200 13003KT 5SM
                       BR BKN006 FM211800 19005KT P6SM SCT100 BKN250
                       FM220100 30005KT P6SM BKN040 BKN100=
201510202320 TAF KBFI 202320Z 2100/2124 31005KT P6SM FEW030 SCT250 FM210300
                       00000KT P6SM FEW040 SCT250 FM211200 13003KT
                       5SM BR BKN006 FM211800 19005KT P6SM SCT100
                       BKN250=
201510201720 TAF KBFI 201720Z 2018/2118 29004KT P6SM FEW015 SCT040 SCT250
                      TEMPO 2018/2020 SCT015 BKN040 BKN250 FM210300
                       00000KT P6SM FEW050 SCT250 FM211200 13003KT
                       5SM BR BKN006=
201510201121 TAF KBFI 201121Z 2012/2112 02004KT P6SM SCT012 SCT030 BKN060
                      TEMPO 2012/2016 BKN012 FM202000 35005KT P6SM
                       BKN050 FM210000 01005KT P6SM SCT050 FM210900
                       02003KT P6SM BKN020=
201510200520 TAF KBFI 200520Z 2006/2106 VRB03KT P6SM OVC025 FM201000 VRB02KT
                       5SM BR OVC010 FM201800 VRB03KT P6SM BKN015
                       OVC025 FM202000 32004KT P6SM SCT020 BKN050
                       FM202300 33004KT P6SM SCT050=
201510192322 TAF KBFI 192322Z 2000/2024 17005KT P6SM FEW020 BKN040 BKN070
                      TEMPO 2001/2003 BKN020 OVC040 FM200300 36004KT
                       P6SM BKN020 OVC030 FM200600 VRB03KT P6SM
                       BKN012 OVC020 FM201000 VRB02KT 5SM BR OVC010
                       FM201800 VRB03KT P6SM BKN015 OVC025 FM202000
                       32004KT P6SM SCT020 BKN050 FM202300 33004KT
                       P6SM SCT050=
201510192107 TAF AMD KBFI 192107Z 1921/2018 21004KT P6SM SCT025 OVC050
                      TEMPO 1921/1924 BKN025 OVC050 FM200000 18005KT
                       P6SM SCT020 BKN025 OVC030 FM200200 VRB03KT
                       P6SM BKN012 OVC020=
201510191757 TAF AMD KBFI 191757Z 1918/2018 16007KT P6SM SCT020 BKN040 FM200000
                       18005KT P6SM SCT020 BKN025 OVC030 FM200200
                       VRB03KT P6SM BKN012 OVC020=
201510191721 TAF KBFI 191721Z 1918/2018 18007KT P6SM SCT010 OVC025 FM191900
                       20008KT P6SM SCT025 OVC040 FM200000 18005KT
                       P6SM SCT020 BKN025 OVC030 FM200200 VRB03KT
                       P6SM BKN012 OVC020=
201510191120 TAF KBFI 191120Z 1912/2012 16004KT P6SM OVC009 FM191800 17005KT
                       P6SM -RA BKN015 OVC020 FM192300 18005KT
                       P6SM SCT020 BKN025 OVC030 FM200600 VRB04KT
                       P6SM BKN012 OVC020 FM200900 VRB04KT P6SM
                       OVC009=
201510191005 TAF AMD KBFI 191005Z 1910/2006 16004KT 6SM BR OVC011 FM191800 17005KT
                       P6SM -RA BKN012 OVC020 FM192300 18005KT
                       P6SM SCT012 BKN020 OVC030=
201510190527 TAF KBFI 190527Z 1906/2006 16004KT 3SM BR BKN006 OVC015
                      TEMPO 1906/1910 2SM -RA BR OVC006 FM191000
                       17003KT 2SM BR OVC003 FM191700 15004KT 6SM
                       BR OVC007 FM191800 17005KT P6SM -RA BKN012
                       OVC020 FM192300 18005KT P6SM SCT012 BKN020
                       OVC030=
201510190125 TAF AMD KBFI 190125Z 1901/1924 16004KT 5SM BR BKN006 OVC015
                      TEMPO 1901/1904 1SM BR BKN006 OVC015 FM190400
                       16004KT 3SM BR BKN006 OVC015 FM191000 17003KT
                       2SM BR OVC003 FM191700 15004KT 6SM BR OVC007
                       FM191800 17005KT P6SM -RA BKN012 OVC020
                       FM192300 18005KT P6SM SCT012 BKN020 OVC030=
201510182324 TAF KBFI 182324Z 1900/1924 16004KT P6SM BKN009 OVC015
                      TEMPO 1900/1904 SCT009 OVC015 FM190500 16004KT
                       6SM BR BKN008 OVC015 FM191000 17003KT 2SM
                       BR OVC003 FM191700 15004KT 6SM BR OVC007
                       FM191800 17005KT P6SM -RA BKN012 OVC020
                       FM192300 18005KT P6SM SCT012 BKN020 OVC030=
201510181728 TAF KBFI 181728Z 1818/1918 14003KT 6SM BR SCT006 OVC015
                      TEMPO 1818/1821 2SM -RA BR BKN004 OVC015
                       FM182100 18003KT P6SM BKN010 OVC016
                      TEMPO 1821/1823 3SM -RA BR FM190000 17003KT
                       P6SM OVC018 FM190500 16003KT P6SM OVC009=
201510181613 TAF AMD KBFI 181613Z 1816/1912 14003KT 6SM BR SCT006 OVC015
                      TEMPO 1816/1819 1SM -RA BR BKN004 OVC015
                       FM181900 22004KT P6SM SCT008 OVC018 FM190500
                       19005KT P6SM BKN015=
201510181427 TAF AMD KBFI 181427Z 1814/1912 14003KT 6SM BR SCT008 OVC015
                      TEMPO 1814/1818 2SM -RA BR BKN008 OVC015
                       FM181900 22004KT P6SM SCT008 OVC018 FM190500
                       19005KT P6SM BKN015=
201510181120 TAF KBFI 181120Z 1812/1912 14003KT P6SM SCT029 BKN035 OVC100
                      TEMPO 1812/1815 BKN008 FM181900 22004KT P6SM
                       SCT008 BKN015 FM190500 19005KT P6SM BKN015=
201510180521 TAF KBFI 180521Z 1806/1906 14003KT P6SM VCSH SCT016 BKN035 FM180800
                       20003KT P6SM OVC015 FM181100 VRB03KT 6SM
                       BR SCT008 OVC015
                      TEMPO 1811/1815 BKN008 FM181900 22004KT P6SM
                       SCT008 BKN015 FM190500 19005KT P6SM VCSH
                       BKN015=
201510180229 TAF AMD KBFI 180229Z 1802/1824 20004KT P6SM VCSH SCT015 BKN090
                       TEMPO 1803/1806 6SM -RA BKN010 FM180800
                       VRB03KT P6SM VCSH OVC020 FM181200 VRB03KT
                       5SM BR BKN012 OVC020 FM181900 20004KT P6SM
                       BKN020 OVC030=
201510172321 TAF KBFI 172321Z 1800/1824 20004KT P6SM VCSH BKN050 BKN090 FM180400
                       VRB03KT P6SM VCSH SCT020 OVC045 FM180900
                       VRB03KT P6SM VCSH OVC020 FM181200 VRB03KT
                       5SM BR BKN012 OVC020 FM181900 20004KT P6SM
                       BKN020 OVC030=
201510171722 TAF KBFI 171722Z 1718/1818 15004KT P6SM VCSH SCT050 BKN100
                      TEMPO 1718/1722 -SHRA BKN050 FM172200 21004KT
                       P6SM VCSH BKN050 BKN090 FM180400 VRB03KT
                       P6SM VCSH SCT020 OVC045 FM180800 VRB03KT
                       P6SM VCSH OVC020 FM181200 VRB03KT 5SM BR
                       BKN012 OVC020=
201510171257 TAF KBFI 171257Z 1713/1812 00000KT P6SM SKC FM171500 15004KT P6SM
                       BKN050 OVC080 FM171900 21004KT P6SM VCSH
                       BKN050 OVC080 FM180500 VRB03KT P6SM VCSH
                       OVC020=
201510170605 TAF AMD KBFI 170605Z 1706/1806 16003KT P6SM SKC FM171000 16003KT
                       P6SM BKN100 FM171500 15004KT P6SM BKN050
                       OVC080 FM171900 21004KT P6SM VCSH BKN050
                       OVC080 FM180500 VRB03KT P6SM VCSH OVC020=
201510170520 TAF KBFI 170520Z 1706/1806 00000KT P6SM BKN170 FM171000 15003KT
                       P6SM BKN100 FM171500 14004KT P6SM BKN050
                       OVC080 FM171900 21004KT P6SM VCSH BKN050
                       OVC080 FM180500 VRB03KT P6SM VCSH OVC020=
201510162320 TAF KBFI 162320Z 1700/1724 32003KT P6SM BKN150 FM171000 15003KT
                       P6SM BKN100 FM171500 14004KT P6SM BKN050
                       OVC080 FM171900 21004KT P6SM BKN050 OVC080=
201510161741 TAF KBFI 161741Z 1618/1718 32003KT P6SM BKN250 FM170700 15003KT
                       P6SM BKN100 FM171200 15003KT P6SM -SHRA
                       BKN050 OVC100=
201510161120 TAF KBFI 161120Z 1612/1712 00000KT P6SM SCT200 FM162000 VRB03KT
                       P6SM SCT120 BKN200 FM170400 15004KT P6SM
                       SCT060 OVC100=
201510160525 TAF KBFI 160525Z 1606/1706 00000KT P6SM SCT250 FM162000 VRB03KT
                       P6SM SCT120 BKN250 FM170400 15004KT P6SM
                       SCT060 OVC100=
201510152320 TAF KBFI 152320Z 1600/1624 32005KT P6SM SCT250 FM160400 VRB03KT
                       P6SM SCT250 FM161200 VRB03KT P6SM SCT120
                       BKN250 FM162000 VRB03KT P6SM SCT120 SCT250=
201510151720 TAF KBFI 151720Z 1518/1618 32005KT P6SM SCT250 FM160400 VRB03KT
                       P6SM SCT250 FM161200 VRB03KT P6SM SCT120
                       BKN250=
201510151120 TAF KBFI 151120Z 1512/1612 VRB03KT P6SM OVC006 FM151800 32005KT
                       P6SM SCT250 FM160400 00000KT P6SM SCT250=
201510150958 TAF AMD KBFI 150958Z 1510/1606 00000KT P6SM BKN008 FM151800 32005KT
                       P6SM SCT250 FM160400 00000KT P6SM SCT250=
201510150522 TAF KBFI 150522Z 1506/1606 36003KT P6SM SCT250 FM150800 00000KT
                       P6SM SCT250 FM152100 32005KT P6SM SCT250
                       FM160400 00000KT P6SM SCT250=
201510142320 TAF KBFI 142320Z 1500/1524 03006KT P6SM BKN250 FM150600 VRB03KT
                       P6SM SCT250 FM151200 06006KT P6SM SKC=
201510141726 TAF KBFI 141726Z 1418/1518 03005KT P6SM BKN012
                      TEMPO 1418/1420 5SM BR OVC008 FM142100 01006KT
                       P6SM BKN250 FM150600 06004KT P6SM SKC=
201510141329 TAF AMD KBFI 141329Z 1413/1512 VRB03KT P6SM VCFG BKN010 BKN025
                       FM141800 35007KT P6SM SCT025 SCT250 FM142100
                       00000KT P6SM SCT250=
201510141207 TAF AMD KBFI 141207Z 1412/1512 VRB03KT P6SM VCFG BKN008 FM141800
                       35007KT P6SM SCT010 SCT250 FM142100 00000KT
                       P6SM SCT250=
201510141120 TAF KBFI 141120Z 1412/1512 00000KT P6SM OVC008
                      TEMPO 1412/1416 1/2SM FG SCT010 FM141800
                       35003KT 3SM BR SCT010 SCT250 FM142100 00000KT
                       P6SM SCT250=
201510141034 TAF AMD KBFI 141034Z 1411/1506 00000KT P6SM BKN010 FM141200 00000KT
                       5SM BR BKN007 FM141700 34004KT P6SM BKN015
                       FM142000 35005KT P6SM SCT250=
201510140522 TAF KBFI 140522Z 1406/1506 00000KT P6SM SKC FM141200 00000KT 5SM
                       BR BKN007 FM141700 34004KT P6SM BKN015 FM142000
                       35005KT P6SM SCT250=
201510132320 TAF KBFI 132320Z 1400/1424 01004KT P6SM SCT030 SCT250
                      TEMPO 1400/1402 BKN030 BKN250 FM140200 00000KT
                       P6SM SCT250 FM141200 00000KT 5SM BR BKN007
                       FM141700 34004KT P6SM BKN015 FM142000 35005KT
                       P6SM SCT250=
201510131720 TAF KBFI 131720Z 1318/1418 33006KT P6SM OVC007 FM132200 33006KT
                       P6SM BKN250 FM140200 00000KT P6SM BKN250
                       FM140900 00000KT 5SM BR BKN007=
201510131559 TAF AMD KBFI 131559Z 1316/1412 00000KT P6SM OVC007 FM131800 03002KT
                       P6SM BKN010 OVC015 FM132200 00000KT P6SM
                       BKN250=
201510131305 TAF AMD KBFI 131305Z 1313/1412 VRB05KT 4SM BR OVC005 FM131800 03002KT
                       5SM BR BKN007 OVC013 FM132200 00000KT P6SM
                       BKN250=
201510131120 TAF KBFI 131120Z 1312/1412 31003KT 4SM BR BKN007 BKN018 OVC023
                       TEMPO 1312/1316 2SM BR OVC007 FM131800 03002KT
                       4SM BR OVC007 FM132100 00000KT P6SM BKN250=
201510130901 TAF AMD KBFI 130901Z 1309/1406 00000KT 2SM BR BKN005 OVC014 FM132000
                       34003KT 5SM BR OVC010 FM132100 VRB03KT P6SM
                       SCT030 OVC120 FM140300 00000KT P6SM OVC019=
201510130701 TAF AMD KBFI 130701Z 1307/1406 00000KT 2SM -RA BR BKN005 OVC011
                       FM130900 00000KT 5SM BR OVC010 FM132100
                       00000KT P6SM SCT030=
201510130527 TAF KBFI 130527Z 1306/1406 31005KT 2SM -RA BR BKN004 OVC011 FM130700
                       16002KT 5SM BR VCSH OVC015 FM130900 00000KT
                       5SM BR OVC010 FM132100 00000KT P6SM SCT030=
201510130301 TAF AMD KBFI 130301Z 1303/1324 15003KT 2SM -RA FEW010 BKN026 OVC035
                       FM130500 16003KT P6SM OVC026 FM130700 16003KT
                       P6SM OVC018 FM131500 00000KT P6SM OVC008
                       FM131700 00000KT P6SM OVC012 FM132100 35004KT
                       P6SM SCT030=
201510122320 TAF KBFI 122320Z 1300/1324 19004KT P6SM OVC035 FM130500 16003KT
                       P6SM OVC028 FM130700 16003KT P6SM OVC018
                       FM131500 00000KT P6SM OVC008 FM131700 00000KT
                       P6SM OVC012 FM132100 35004KT P6SM SCT030=
201510121732 TAF KBFI 121732Z 1218/1318 15008KT P6SM SCT050 OVC100 FM122000
                       17006KT P6SM BKN050 OVC100 FM122200 20008KT
                       P6SM OVC045
                      TEMPO 1222/1302 -RA FM130200 18005KT P6SM
                       -RA OVC045 FM130600 16003KT 6SM -RA BR OVC015=
201510121120 TAF KBFI 121120Z 1212/1312 12005KT P6SM SCT120 BKN200 FM121600
                       15008KT P6SM OVC100 FM121900 17006KT P6SM
                       OVC050 FM122200 20008KT P6SM -RA OVC045
                       FM130600 16003KT P6SM OVC015=
201510120522 TAF KBFI 120522Z 1206/1306 00000KT P6SM SCT120 OVC200 FM121100
                       14005KT P6SM SCT018 BKN100 OVC200 FM121800
                       17007KT P6SM SCT035 OVC100 FM122200 18006KT
                       P6SM -RA BKN035 OVC060=
201510112326 TAF KBFI 112326Z 1200/1224 VRB04KT P6SM SCT030 SCT100 BKN200 FM121100
                       14005KT P6SM SCT018 BKN100 BKN200 FM121800
                       17007KT P6SM SCT035 OVC100 FM122200 18006KT
                       P6SM -RA BKN035 OVC060=
201510111720 TAF KBFI 111720Z 1118/1218 16005KT P6SM SCT030 FM112000 17006KT
                       P6SM SCT035 SCT120 SCT250 FM112200 VRB04KT
                       P6SM SCT120 BKN200 FM121200 14004KT P6SM
                       SCT060 BKN120 BKN200=
201510111448 TAF AMD KBFI 111448Z 1115/1212 15004KT P6SM SCT025
                      TEMPO 1115/1117 BKN025 FM111800 16005KT P6SM
                       SCT030 FM112000 17006KT P6SM SCT035 SCT120
                       FM112200 VRB04KT P6SM SCT120 BKN200=
201510111120 TAF KBFI 111120Z 1112/1212 14006KT P6SM OVC019 FM111900 17004KT
                       P6SM SCT020 BKN100 FM112200 VRB04KT P6SM
                       SCT120 BKN250=
201510110524 TAF KBFI 110524Z 1106/1206 22011G19KT P6SM VCSH BKN021 OVC050 FM110800
                       18009G15KT P6SM VCSH BKN025 FM111300 16005KT
                       P6SM OVC019 FM111700 17004KT P6SM BKN035
                       FM111800 15004KT P6SM SCT035 BKN120 FM112100
                       04004KT P6SM SCT100=
201510102331 TAF KBFI 102331Z 1100/1124 20012G24KT P6SM -SHRA BKN030 OVC040
                       FM110400 17006KT P6SM VCSH BKN030 FM111300
                       VRB03KT P6SM BKN025 FM111800 18004KT P6SM
                       SCT035 FM112000 31005KT P6SM SCT100=
201510101733 TAF KBFI 101733Z 1018/1118 15008KT 6SM -RA BR OVC040
                      TEMPO 1018/1021 3SM RA BR FM102100 16012G20KT
                       5SM RA BR OVC025 FM102200 18013G24KT P6SM
                       -SHRA OVC025 FM110100 18010G20KT P6SM -SHRA
                       BKN035 FM110600 17006KT P6SM VCSH BKN035
                       FM111300 VRB03KT P6SM BKN025=
201510101120 TAF KBFI 101120Z 1012/1112 15006KT P6SM VCSH BKN040 BKN050 OVC070
                       FM101400 15007KT P6SM VCSH OVC030 FM101800
                       17010KT P6SM -RA OVC030 FM102100 18014G22KT
                       2SM RA BR OVC025 FM102300 19010G18KT 2SM
                       RA BR OVC012 FM110100 20010G18KT 5SM -SHRA
                       OVC035 FM110600 18006KT P6SM -SHRA BKN025
                       OVC050=
201510100535 TAF KBFI 100535Z 1006/1106 14003KT P6SM SCT050 FM100800 16004KT
                       P6SM VCSH SCT060 BKN120 FM101400 16008KT
                       P6SM SCT030 OVC060 FM101800 17011KT P6SM
                       -RA OVC030 FM102000 17012KT 5SM -RA BR OVC018
                       FM102300 19014G22KT 3SM RA BR OVC015=
201510092333 TAF KBFI 092333Z 1000/1024 18007KT P6SM -SHRA SCT022 OVC050
                      TEMPO 1000/1002 6SM -SHRA BR BKN022 OVC050
                       FM100200 16006KT P6SM VCSH SCT035 BKN060
                       FM100800 16004KT P6SM VCSH SCT060 BKN120
                       FM101400 16008KT P6SM SCT030 OVC060 FM101800
                       17011KT P6SM -RA OVC030 FM102000 17012KT
                       5SM -RA BR OVC018 FM102300 19014G22KT 3SM
                       RA BR OVC015=
201510091744 TAF KBFI 091744Z 0918/1018 18007KT P6SM -RA OVC050
                      TEMPO 0919/0923 5SM -RA OVC035 FM100200 17006KT
                       P6SM VCSH SCT035 BKN060 FM100800 16004KT
                       P6SM VCSH SCT060 BKN120 FM101500 17010KT
                       P6SM OVC060=
201510091607 TAF AMD KBFI 091607Z 0916/1012 14005KT P6SM OVC080 FM091700 16007KT
                       P6SM -RA OVC050
                      TEMPO 0919/0923 5SM -RA OVC035 FM100200 17008KT
                       P6SM SCT035 BKN060 FM100800 16006KT P6SM
                       SCT060 BKN120=
201510091134 TAF KBFI 091134Z 0912/1012 14006KT 4SM BR SCT001 BKN200 FM091600
                       14006KT P6SM SCT060 OVC100 FM091900 14006KT
                       P6SM -RA OVC040
                      TEMPO 0921/1001 5SM -RA FM100400 17008KT
                       P6SM SCT035 BKN060 FM100800 14006KT P6SM
                       SCT060 BKN120=
201510090907 TAF AMD KBFI 090907Z 0909/1006 00000KT 4SM BR SCT002 FM091200 00000KT
                       3/4SM BR OVC002
                      TEMPO 0915/0916 3SM BR SCT002 FM091600 14006KT
                       P6SM SCT040 BKN060 OVC100 FM091900 14006KT
                       P6SM -RA OVC040 FM100400 17008KT P6SM SCT035
                       BKN060=
201510090540 TAF KBFI 090540Z 0906/1006 VRB03KT P6SM SCT060 BKN150
                      TEMPO 0914/0916 5SM BR FM091700 14006KT P6SM
                       SCT040 BKN060 OVC100 FM091900 14006KT P6SM
                       -RA OVC040 FM100400 17008KT P6SM SCT035
                       BKN060=
201510082320 TAF KBFI 082320Z 0900/0924 VRB03KT P6SM SCT010 OVC140 FM090600
                       VRB03KT P6SM SCT030 BKN150 FM091600 16006KT
                       P6SM BKN040 FM091800 17008KT P6SM -RA OVC035=
201510081733 TAF KBFI 081733Z 0818/0918 VRB03KT P6SM FEW080 BKN200
                      TEMPO 0818/0819 4SM BR SCT002 OVC120 FM090600
                       VRB03KT P6SM SCT250 FM091600 16006KT P6SM
                       -RA BKN040=
201510081132 TAF KBFI 081132Z 0812/0912 VRB03KT P6SM SCT060 BKN120
                      TEMPO 0814/0817 5SM BR SCT002 OVC120=
201510080524 TAF KBFI 080524Z 0806/0906 13004KT P6SM SCT060 BKN120 FM081300
                       VRB03KT 3SM BR OVC005 FM081700 VRB03KT 5SM
                       BR OVC008 FM081900 VRB03KT P6SM SCT060 BKN120=
201510080303 TAF AMD KBFI 080303Z 0803/0824 15006KT P6SM SCT060 BKN120 FM081000
                       VRB03KT 5SM BR OVC007 FM081300 VRB03KT 3SM
                       BR OVC005 FM081700 VRB03KT 5SM BR OVC008
                       FM082000 16005KT P6SM SCT008 OVC018 FM082200
                       16005KT P6SM SCT016 BKN035=
201510072320 TAF KBFI 072320Z 0800/0824 15006KT 6SM BR SCT012 OVC070
                      TEMPO 0800/0804 5SM -RA BR BKN012 OVC040
                       FM080400 16006KT 6SM BR SCT012 OVC020 FM080600
                       VRB03KT 5SM BR BKN011 OVC020 FM081000 VRB03KT
                       5SM BR OVC007 FM081300 VRB03KT 3SM BR OVC005
                       FM081700 VRB03KT 5SM BR OVC008 FM082000
                       16005KT P6SM SCT008 OVC018 FM082200 16005KT
                       P6SM SCT016 BKN035=
201510071720 TAF KBFI 071720Z 0718/0818 15006KT 5SM -RA BR SCT009 OVC030
                      TEMPO 0718/0722 3SM -RA BR BKN009 OVC025
                       FM072200 15006KT 5SM -RA SCT011 OVC020
                      TEMPO 0722/0802 3SM -RA BR BKN011 OVC020
                       FM080500 17006KT P6SM SCT012 OVC020 FM081100
                       VRB03KT 5SM BR OVC006 FM081300 VRB03KT 3SM
                       BR OVC005 FM081700 VRB03KT 5SM BR OVC008=
201510071511 TAF AMD KBFI 071511Z 0715/0812 15006KT 5SM -RA BR SCT020 OVC030
                       TEMPO 0715/0719 3SM -RA BR BKN018 OVC025
                       FM072000 15006KT 3SM -RA BR OVC015 FM072200
                       15006KT 5SM -RA BKN009 OVC015 FM080700 17006KT
                       P6SM SCT012 OVC020 FM081100 VRB03KT 5SM
                       BR OVC006=
201510071130 TAF KBFI 071130Z 0712/0812 15006KT P6SM -RA SCT030 OVC060
                      TEMPO 0716/0718 -RA BKN030 OVC060 FM071800
                       15006KT P6SM -RA BKN030 OVC050 FM072000
                       15006KT P6SM -RA OVC015 FM072200 15006KT
                       5SM -RA BKN009 OVC015 FM080700 17006KT P6SM
                       SCT012 OVC020 FM081100 VRB03KT 5SM BR OVC006=
201510070543 TAF KBFI 070543Z 0706/0806 17008KT P6SM SCT060 BKN100 OVC200 FM071100
                       17008KT P6SM -RA SCT030 OVC060 FM071500
                       15006KT P6SM -RA OVC015 FM071800 15006KT
                       4SM -RA BKN009 OVC015 FM080000 17006KT P6SM
                       -RA SCT009 OVC015=
201510062320 TAF KBFI 062320Z 0700/0724 18006KT P6SM SCT100 BKN140 OVC200 FM070800
                       19008KT P6SM SCT060 OVC100 FM071100 19008KT
                       P6SM SCT030 OVC060 FM071300 19008KT P6SM
                       -RA OVC014=
201510061744 TAF KBFI 061744Z 0618/0718 18006KT P6SM SCT100 SCT140 BKN200 FM070800
                       19008KT P6SM SCT060 OVC100 FM071300 19008KT
                       P6SM -RA OVC014=
201510061130 TAF KBFI 061130Z 0612/0712 17006KT P6SM SCT100 BKN200 FM070800
                       17006KT P6SM SCT060 OVC100=
201510060535 TAF KBFI 060535Z 0606/0706 VRB03KT P6SM BKN200 FM061200 17006KT
                       P6SM SCT100 BKN200=
201510052320 TAF KBFI 052320Z 0600/0624 33006KT P6SM BKN250 FM060600 VRB03KT
                       P6SM BKN200 FM061200 15005KT P6SM SCT100
                       BKN200 FM062000 21007KT P6SM SCT050 BKN150=
201510051731 TAF KBFI 051731Z 0518/0618 31006KT P6SM SKC FM060400 VRB03KT P6SM
                       SKC=
201510051124 TAF KBFI 051124Z 0512/0612 VRB03KT P6SM SKC FM051900 31006KT P6SM
                       SKC FM060400 VRB03KT P6SM SKC=
201510050530 TAF KBFI 050530Z 0506/0606 VRB03KT P6SM SKC FM051900 31006KT P6SM
                       SKC=
201510042320 TAF KBFI 042320Z 0500/0524 30007KT P6SM SKC FM050300 VRB03KT P6SM
                       SKC FM051900 31006KT P6SM SKC=
201510041721 TAF KBFI 041721Z 0418/0518 VRB03KT P6SM SCT200 FM042000 33006KT
                       P6SM SKC FM050300 VRB03KT P6SM SKC=
201510041121 TAF KBFI 041121Z 0412/0512 VRB03KT P6SM SKC FM042000 33006KT P6SM
                       SKC FM050300 VRB03KT P6SM SKC=
201510040526 TAF KBFI 040526Z 0406/0506 VRB03KT P6SM SKC FM042000 33006KT P6SM
                       SKC FM050300 VRB03KT P6SM SKC=
201510032328 TAF KBFI 032328Z 0400/0424 33010KT P6SM SKC FM040300 01005KT P6SM
                       SKC FM042000 33006KT P6SM SKC=
201510031721 TAF KBFI 031721Z 0318/0418 34008KT P6SM FEW025 FM032000 33010KT
                       P6SM SKC FM040300 01005KT P6SM SKC=
201510031120 TAF KBFI 031120Z 0312/0412 33004KT P6SM SCT027 OVC045
                      TEMPO 0312/0316 SCT016 BKN027 FM031800 34006KT
                       P6SM BKN040 FM032000 33010KT P6SM SCT250
                       FM040300 01005KT P6SM FEW250=
201510030840 TAF AMD KBFI 030840Z 0309/0406 VRB03KT P6SM OVC016
                      TEMPO 0312/0316 OVC012 FM031800 34006KT P6SM
                       BKN015 FM032000 33010KT P6SM SCT250 FM040300
                       01005KT P6SM FEW250=
201510030535 TAF KBFI 030535Z 0306/0406 34007KT P6SM SCT025 BKN040
                      TEMPO 0306/0308 -SHRA BKN025 OVC040 FM031200
                       VRB03KT P6SM BKN018 FM031800 36005KT P6SM
                       SCT025 FM032100 36008KT P6SM SKC=
201510022320 TAF KBFI 022320Z 0300/0324 17007KT P6SM VCSH OVC025 FM030400 34007KT
                       P6SM SCT025 BKN040
                      TEMPO 0304/0308 -SHRA BKN025 OVC040 FM031200
                       VRB03KT P6SM BKN018 FM031800 36005KT P6SM
                       SCT025 FM032100 36008KT P6SM SKC=
201510021723 TAF KBFI 021723Z 0218/0318 16010KT P6SM OVC012 FM022000 20010KT
                       P6SM VCSH BKN025 FM030400 36007KT P6SM VCSH
                       BKN035 FM031200 VRB03KT P6SM BKN018 FM031700
                       36006KT P6SM SCT025=
201510021120 TAF KBFI 021120Z 0212/0312 00000KT P6SM OVC008
                      TEMPO 0214/0218 4SM BR OVC005 FM021800 18006KT
                       P6SM OVC018 FM022000 21010KT P6SM VCSH OVC030
                       FM030300 VRB03KT P6SM VCSH SCT025 OVC040=
201510020900 TAF AMD KBFI 020900Z 0209/0306 00000KT P6SM SKC FM021200 16006KT
                       P6SM BKN008 FM021600 19010KT P6SM OVC020
                       FM022200 19007KT P6SM VCSH BKN030=
201510020525 TAF KBFI 020525Z 0206/0306 33004KT P6SM SKC FM020800 VRB03KT P6SM
                       SKC FM021200 16006KT P6SM BKN008 FM021600
                       19010KT P6SM OVC020 FM022200 19007KT P6SM
                       VCSH BKN030=
201510012320 TAF KBFI 012320Z 0200/0224 30006KT P6SM SKC FM020800 VRB03KT P6SM
                       SKC FM021200 16006KT P6SM BKN008 FM021600
                       19007KT P6SM OVC020 FM022200 19007KT P6SM
                       VCSH BKN030=
201510011720 TAF KBFI 011720Z 0118/0218 VRB03KT 4SM BR SCT005 FM012000 32005KT
                       P6SM SKC FM021100 VRB03KT 5SM BR BKN005
                       FM021300 16006KT 5SM BR OVC008 FM021700
                       21008KT P6SM OVC015=
201510011457 TAF AMD KBFI 011457Z 0115/0212 00000KT 2SM BR BKN001
                      TEMPO 0115/0117 1/4SM FG VV001 FM011800 VRB03KT
                       P6SM SKC FM012100 32005KT P6SM SKC=
201510011120 TAF KBFI 011120Z 0112/0212 00000KT 3SM BR OVC006
                      TEMPO 0113/0117 1SM BR OVC003 FM011900 VRB04KT
                       4SM BR BKN009 FM012000 32005KT P6SM SCT012
                       FM012100 32005KT P6SM SKC=
201510010530 TAF KBFI 010530Z 0106/0206 00000KT P6SM SKC FM011200 VRB03KT 3SM
                       BR OVC006
                      TEMPO 0113/0117 1SM BR OVC003 FM011900 VRB04KT
                       4SM BR BKN009 FM012000 32005KT P6SM SCT012
                       FM012100 32005KT P6SM SKC=