##########################################################
# Query made at 02/17/2025 02:43:45 UTC
# Time interval: from 03/01/2015 00:00  to 03/31/2015 23:59  UTC
##########################################################

##########################################################
# KBFI, Seattle, Seattle Boeing Field (United States)
# WMO index: -----. WIGOS ID: Unknown
# Latitude 47-32-45N. Longitude 122-18-49W. Altitude 5 m.
##########################################################

###################################
#  METAR/SPECI from KBFI
###################################
201503312353 METAR KBFI 312353Z COR 34007KT 6SM RA BKN033 BKN040 BKN050 10/05 A3011 RMK AO2 SLP197 P0006 60010 T01000050 10133 20100 53005=
201503312253 METAR KBFI 312253Z 03007KT 7SM -RA BKN033 BKN041 OVC055 12/05 A3011 RMK AO2 RAB43 SLP195 P0002 T01170050=
201503312153 METAR KBFI 312153Z 07008KT 10SM SCT030 SCT050 BKN200 13/04 A3010 RMK AO2 RAE08 SLP193 P0000 T01280044=
201503312053 METAR KBFI 312053Z 06008KT 6SM -RA FEW020 BKN035 BKN047 11/05 A3010 RMK AO2 RAB20 SLP192 P0002 60002 T01060050 53009=
201503311953 METAR KBFI 311953Z 05007KT 10SM BKN045 BKN070 13/04 A3009 RMK AO2 SLP188 T01280044=
201503311853 METAR KBFI 311853Z 00000KT 10SM BKN048 12/03 A3008 RMK AO2 SLP184 T01220033=
201503311753 METAR KBFI 311753Z 11005KT 10SM SCT031 BKN045 11/04 A3007 RMK AO2 SLP183 60000 T01110044 10117 20089 53017=
201503311653 METAR KBFI 311653Z 07006KT 10SM SCT023 BKN029 OVC043 09/04 A3006 RMK AO2 SLP177 T00940044=
201503311553 METAR KBFI 311553Z 06005KT 10SM FEW009 BKN023 09/06 A3004 RMK AO2 RAB33E42 SLP171 VIS NW-E 5 P0000 T00940061=
201503311520 SPECI KBFI 311520Z 17004KT 3SM HZ FEW009 OVC023 09/06 A3003 RMK AO2=
201503311453 METAR KBFI 311453Z 10004KT 8SM BKN017 OVC023 09/05 A3002 RMK AO2 RAB1357E08 SLP166 P0000 60000 T00940050 51024=
201503311353 METAR KBFI 311353Z 14004KT 10SM OVC023 10/04 A3000 RMK AO2 SLP159 T01000044=
201503311253 METAR KBFI 311253Z 18005KT 10SM OVC023 10/04 A2998 RMK AO2 SLP151 T01000044=
201503311153 METAR KBFI 311153Z VRB03G14KT 10SM BKN021 BKN049 10/04 A2995 RMK AO2 SLP142 60005 70005 T01000044 10144 20100 53037=
201503311053 METAR KBFI 311053Z 21013G19KT 10SM BKN110 10/05 A2989 RMK AO2 SLP123 T01000050=
201503310953 METAR KBFI 310953Z 18009G14KT 10SM FEW043 12/07 A2986 RMK AO2 RAE30 SLP110 P0001 T01170067=
201503310853 METAR KBFI 310853Z 17006KT 9SM -RA BKN040 OVC050 13/09 A2984 RMK AO2 RAB20E30B51 SLP106 P0000 60004 T01330089 55006=
201503310753 METAR KBFI 310753Z 20004KT 10SM OVC055 13/08 A2984 RMK AO2 RAE48 SLP103 P0002 T01330083 401940122=
201503310653 METAR KBFI 310653Z AUTO 20003KT 10SM -RA BKN070 BKN090 OVC100 13/09 A2984 RMK AO2 SLP104 P0002 T01330089 TSNO=
201503310553 METAR KBFI 310553Z 20005KT 8SM -RA BKN049 OVC090 14/08 A2986 RMK AO2 RAB50 SLP111 P0000 60000 T01440078 10189 20139 58004=
201503310453 METAR KBFI 310453Z 18005KT 10SM SCT090 15/07 A2987 RMK AO2 SLP115 T01500072=
201503310353 METAR KBFI 310353Z 22005KT 10SM BKN046 16/07 A2988 RMK AO2 SLP118 T01560067=
201503310253 METAR KBFI 310253Z 22006KT 10SM FEW040 BKN140 BKN220 16/07 A2987 RMK AO2 SLP115 T01610067 55007=
201503310153 METAR KBFI 310153Z VRB05KT 10SM FEW030 SCT150 BKN220 17/08 A2987 RMK AO2 SLP114 T01670078=
201503310053 METAR KBFI 310053Z COR 19004KT 10SM FEW0030 SCT140 BKN220 18/07 A2987 RMK AO2 SLP115 T01780072=
201503302353 METAR KBFI 302353Z 21006KT 10SM FEW075 SCT200 19/07 A2989 RMK AO2 SLP122 T01890072 10194 20150 56036=
201503302253 METAR KBFI 302253Z 18008KT 10SM FEW030 BKN140 BKN220 19/07 A2993 RMK AO2 SLP134 T01890072=
201503302153 METAR KBFI 302153Z 23007KT 10SM FEW030 BKN200 19/07 A2996 RMK AO2 SLP145 T01890067=
201503302053 METAR KBFI 302053Z 19008KT 10SM SCT050 BKN140 BKN200 18/08 A3000 RMK AO2 SLP158 T01780083 58025=
201503301953 METAR KBFI 301953Z 21009G14KT 10SM SCT040 BKN200 17/08 A3003 RMK AO2 SLP167 T01720078=
201503301853 METAR KBFI 301853Z 17007KT 10SM FEW016 SCT043 BKN090 16/09 A3005 RMK AO2 SLP175 T01610089=
201503301753 METAR KBFI 301753Z 18007KT 10SM FEW016 SCT043 BKN090 15/09 A3007 RMK AO2 SLP183 T01500089 10150 20122 58004=
201503301653 METAR KBFI 301653Z 17007KT 10SM SCT016 SCT065 14/09 A3008 RMK AO2 SLP186 T01440089=
201503301553 METAR KBFI 301553Z 15006KT 10SM SCT045 BKN060 14/09 A3008 RMK AO2 SLP186 T01390089=
201503301453 METAR KBFI 301453Z 12006KT 10SM FEW049 BKN060 13/09 A3008 RMK AO2 SLP187 T01330089 56006=
201503301353 METAR KBFI 301353Z 12006KT 10SM FEW047 BKN080 13/09 A3009 RMK AO2 SLP187 T01330089=
201503301253 METAR KBFI 301253Z 16007KT 10SM BKN080 13/09 A3009 RMK AO2 SLP189 T01280089=
201503301153 METAR KBFI 301153Z 13005KT 10SM OVC055 14/09 A3010 RMK AO2 SLP193 T01390089 10150 20133 58007=
201503301053 METAR KBFI 301053Z 18005KT 10SM FEW060 OVC080 14/09 A3011 RMK AO2 SLP197 T01390089=
201503300953 METAR KBFI 300953Z 15003KT 10SM BKN080 13/09 A3012 RMK AO2 SLP199 T01330089=
201503300853 METAR KBFI 300853Z 13004KT 10SM OVC080 14/09 A3013 RMK AO2 SLP201 T01390094 58011=
201503300753 METAR KBFI 300753Z 14006KT 10SM BKN055 OVC075 14/09 A3014 RMK AO2 SLP205 T01390094 401720106=
201503300653 METAR KBFI 300653Z 15006KT 10SM OVC050 14/09 A3015 RMK AO2 SLP210 T01440094=
201503300553 METAR KBFI 300553Z 18005KT 10SM OVC060 14/09 A3016 RMK AO2 SLP212 T01440089 10172 20144 55000=
201503300453 METAR KBFI 300453Z 20006KT 10SM OVC043 14/09 A3017 RMK AO2 SLP215 T01440089=
201503300353 METAR KBFI 300353Z 17006KT 10SM BKN041 OVC150 16/07 A3015 RMK AO2 SLP208 T01560072=
201503300253 METAR KBFI 300253Z 17004KT 10SM SCT043 BKN050 OVC090 15/08 A3016 RMK AO2 SLP212 T01500078 58012=
201503300153 METAR KBFI 300153Z 18004KT 10SM BKN043 OVC050 16/08 A3017 RMK AO2 SLP216 T01610078=
201503300053 METAR KBFI 300053Z 23004KT 10SM OVC045 17/07 A3018 RMK AO2 SLP221 T01670072=
201503292353 METAR KBFI 292353Z 20007KT 10SM SCT046 OVC060 17/07 A3019 RMK AO2 SLP224 T01720067 10172 20133 56012=
201503292253 METAR KBFI 292253Z 19007KT 10SM FEW035 OVC050 17/07 A3020 RMK AO2 SLP226 T01670067=
201503292153 METAR KBFI 292153Z 18005KT 10SM FEW035 OVC060 17/06 A3021 RMK AO2 SLP229 T01670061=
201503292053 METAR KBFI 292053Z 20009G16KT 10SM SCT050 BKN090 16/06 A3023 RMK AO2 SLP236 T01610056 58008=
201503291953 METAR KBFI 291953Z 17008G14KT 10SM FEW050 BKN075 16/06 A3024 RMK AO2 SLP241 T01610056=
201503291853 METAR KBFI 291853Z AUTO 17009KT 10SM SCT035 BKN085 14/06 A3025 RMK AO2 SLP244 T01440061 TSNO=
201503291753 METAR KBFI 291753Z 15009KT 10SM FEW037 OVC100 13/06 A3025 RMK AO2 SLP244 T01330061 10133 20106 58003=
201503291653 METAR KBFI 291653Z 17010G16KT 10SM OVC041 13/06 A3026 RMK AO2 SLP248 T01280061=
201503291553 METAR KBFI 291553Z 16007KT 10SM FEW045 OVC075 12/06 A3026 RMK AO2 SLP245 T01220061=
201503291453 METAR KBFI 291453Z 16008KT 10SM OVC060 12/06 A3026 RMK AO2 SLP247 T01170061 55004=
201503291353 METAR KBFI 291353Z 12006KT 10SM OVC065 11/07 A3025 RMK AO2 SLP244 T01110072=
201503291253 METAR KBFI 291253Z 15006KT 10SM FEW080 11/07 A3025 RMK AO2 SLP244 T01060072=
201503291153 METAR KBFI 291153Z 16003KT 10SM FEW070 BKN090 OVC110 11/07 A3027 RMK AO2 SLP251 T01110067 10128 20111 56015=
201503291053 METAR KBFI 291053Z 14005KT 10SM OVC100 11/06 A3028 RMK AO2 SLP254 T01110061=
201503290953 METAR KBFI 290953Z 14005KT 10SM OVC100 12/06 A3030 RMK AO2 SLP260 T01170056=
201503290853 METAR KBFI 290853Z 12005KT 10SM FEW035 OVC100 12/06 A3032 RMK AO2 SLP266 T01220056 58007=
201503290753 METAR KBFI 290753Z 16005KT 10SM OVC037 12/05 A3033 RMK AO2 SLP271 T01220050 401780111=
201503290653 METAR KBFI 290653Z 16004KT 10SM OVC045 12/05 A3035 RMK AO2 SLP277 T01220050=
201503290553 METAR KBFI 290553Z VRB05KT 10SM FEW090 BKN120 12/04 A3034 RMK AO2 SLP273 T01220044 10156 20122 50003=
201503290453 METAR KBFI 290453Z 17006KT 10SM BKN065 OVC100 13/04 A3034 RMK AO2 SLP274 T01280039=
201503290353 METAR KBFI 290353Z 19004KT 10SM OVC100 13/04 A3033 RMK AO2 SLP271 T01330044=
201503290253 METAR KBFI 290253Z 21010KT 10SM SCT050 OVC070 14/05 A3033 RMK AO2 SLP270 T01390050 51005=
201503290153 METAR KBFI 290153Z 20008KT 10SM SCT050 BKN080 BKN100 14/06 A3033 RMK AO2 SLP269 T01440056=
201503290053 METAR KBFI 290053Z 18009KT 10SM BKN060 OVC080 15/07 A3032 RMK AO2 SLP267 T01500067=
201503282353 METAR KBFI 282353Z 19010KT 10SM SCT040 BKN090 16/07 A3032 RMK AO2 SLP265 T01560067 10178 20139 55006=
201503282253 METAR KBFI 282253Z 19013G16KT 10SM SCT040 BKN110 16/06 A3031 RMK AO2 SLP265 T01560061=
201503282153 METAR KBFI 282153Z 21009G15KT 170V240 10SM FEW020 BKN055 BKN110 18/06 A3032 RMK AO2 SLP267 T01780061=
201503282053 METAR KBFI 282053Z 18011G17KT 10SM SCT036 17/07 A3033 RMK AO2 SLP272 T01670067 53005=
201503281953 METAR KBFI 281953Z 18008KT 10SM SCT036 15/06 A3030 RMK AO2 SLP261 T01500061=
201503281853 METAR KBFI 281853Z 19008KT 10SM BKN038 14/06 A3033 RMK AO2 SLP271 T01440056=
201503281753 METAR KBFI 281753Z AUTO 19008G17KT 10SM BKN026 14/06 A3032 RMK AO2 SLP267 T01440061 10144 20111 51029 TSNO=
201503281653 METAR KBFI 281653Z 19012G18KT 10SM BKN026 13/07 A3030 RMK AO2 SLP260 T01330067=
201503281646 SPECI KBFI 281646Z 18011G17KT 10SM SCT026 13/07 A3030 RMK AO2=
201503281553 METAR KBFI 281553Z 20010G17KT 10SM BKN022 12/06 A3027 RMK AO2 SLP251 T01220061=
201503281453 METAR KBFI 281453Z 21007KT 10SM BKN022 11/06 A3023 RMK AO2 SLP238 T01110061 53048=
201503281353 METAR KBFI 281353Z 21010G17KT 10SM SCT011 11/06 A3018 RMK AO2 PRESRR SLP220 T01110061=
201503281253 METAR KBFI 281253Z COR 20010G23KT 10SM FEW011 11/06 A3012 RMK AO2 PK WND 16026/1224 SLP200 T01110061=
201503281153 METAR KBFI 281153Z 19014G22KT 10SM SCT021 12/06 A3009 RMK AO2 SLP190 60001 70001 T01170061 10128 20111 51011=
201503281053 METAR KBFI 281053Z 20011G17KT 10SM SCT019 SCT024 BKN090 12/07 A3009 RMK AO2 SLP188 T01170067=
201503281014 SPECI KBFI 281014Z 18014G20KT 10SM BKN013 12/07 A3008 RMK AO2=
201503281003 SPECI KBFI 281003Z 19012G20KT 10SM BKN020 12/07 A3008 RMK AO2=
201503280953 METAR KBFI 280953Z 20011G19KT 10SM FEW020 12/07 A3008 RMK AO2 SLP186 T01170067=
201503280853 METAR KBFI 280853Z 19014G20KT 10SM SCT018 12/07 A3006 RMK AO2 SLP179 60001 T01170067 53007=
201503280756 SPECI KBFI 280756Z 18011G20KT 10SM SCT018 SCT024 BKN100 12/08 A3005 RMK AO2=
201503280753 METAR KBFI 280753Z 18013G22KT 10SM BKN021 BKN030 BKN110 12/08 A3005 RMK AO2 SLP175 T01220078 402060100=
201503280719 SPECI KBFI 280719Z 17013G18KT 10SM BKN026 BKN032 OVC110 12/08 A3005 RMK AO2=
201503280653 METAR KBFI 280653Z 18011G21KT 10SM SCT036 OVC110 12/08 A3005 RMK AO2 RAE31 SLP174 P0001 T01220078=
201503280553 METAR KBFI 280553Z 19010G18KT 10SM -RA FEW021 OVC070 13/08 A3004 RMK AO2 RAB17 SLP171 P0000 60000 T01280083 10194 20128 53028=
201503280453 METAR KBFI 280453Z 21013G20KT 190V250 10SM SCT008 BKN050 14/09 A3001 RMK AO2 RAB16E26 SLP161 P0000 T01390089=
201503280353 METAR KBFI 280353Z 18007KT 10SM BKN037 BKN055 OVC080 16/09 A2997 RMK AO2 SLP147 T01560089=
201503280253 METAR KBFI 280253Z 20006KT 10SM SCT010 BKN100 15/09 A2995 RMK AO2 SLP143 T01500089 51003=
201503280153 METAR KBFI 280153Z 21008KT 10SM FEW002 BKN043 16/09 A2995 RMK AO2 SLP143 T01610089=
201503280053 METAR KBFI 280053Z 23008G16KT 10SM SCT040 18/09 A2995 RMK AO2 SLP141 T01830089=
201503272353 METAR KBFI 272353Z 17008KT 10SM SCT150 BKN250 19/09 A2995 RMK AO2 SLP140 T01890089 10206 20167 56012=
201503272253 METAR KBFI 272253Z VRB05KT 10SM SCT150 BKN250 20/09 A2995 RMK AO2 SLP141 T02000094=
201503272153 METAR KBFI 272153Z 19006KT 10SM SCT050 BKN230 20/11 A2996 RMK AO2 SLP145 T02000106=
201503272053 METAR KBFI 272053Z 20007G15KT 10SM SCT050 BKN200 19/11 A2998 RMK AO2 SLP152 T01940106 58017=
201503271953 METAR KBFI 271953Z 17006KT 10SM SCT050 BKN200 19/11 A3001 RMK AO2 SLP162 T01940111=
201503271853 METAR KBFI 271853Z 18009G14KT 10SM SCT048 BKN200 18/11 A3003 RMK AO2 SLP167 T01830106=
201503271753 METAR KBFI 271753Z 14007KT 10SM BKN200 17/11 A3003 RMK AO2 SLP169 T01670106 10167 20100 50000=
201503271653 METAR KBFI 271653Z COR 13006KT 10SM BKN200 14/10 A3003 RMK AO2 SLP170 T01390100=
201503271553 METAR KBFI 271553Z COR 15009KT 10SM FEW001 BKN200 12/09 A3003 RMK AO2 SLP169 T01170089=
201503271453 METAR KBFI 271453Z COR 13006KT 9SM FEW004 SCT170 11/08 A3003 RMK AO2 SLP169 T01060083 58002=
201503271353 METAR KBFI 271353Z 15005KT 10SM CLR 10/08 A3003 RMK AO2 SLP168 T01000078=
201503271253 METAR KBFI 271253Z 00000KT 10SM CLR 11/08 A3004 RMK AO2 SLP171 T01060078=
201503271153 METAR KBFI 271153Z 00000KT 10SM CLR 11/08 A3004 RMK AO2 RAB1058E07 SLP170 P0000 60000 T01110083 10150 20111 56023=
201503271053 METAR KBFI 271053Z 00000KT 10SM CLR 12/08 A3006 RMK AO2 SLP177 T01170083=
201503270953 METAR KBFI 270953Z 00000KT 10SM CLR 12/08 A3008 RMK AO2 SLP185 T01220083=
201503270853 METAR KBFI 270853Z 00000KT 10SM CLR 13/09 A3010 RMK AO2 SLP193 T01280089 58014=
201503270753 METAR KBFI 270753Z 00000KT 10SM CLR 14/09 A3012 RMK AO2 SLP199 T01390089 402220106=
201503270653 METAR KBFI 270653Z 00000KT 10SM CLR 14/09 A3014 RMK AO2 SLP206 T01440089=
201503270553 METAR KBFI 270553Z 00000KT 10SM SCT250 15/09 A3015 RMK AO2 SLP208 T01500094 10217 20150 50004=
201503270453 METAR KBFI 270453Z AUTO 32003KT 10SM CLR 16/09 A3015 RMK AO2 SLP209 T01560094=
201503270353 METAR KBFI 270353Z 00000KT 10SM SCT150 16/09 A3014 RMK AO2 SLP207 T01560089=
201503270253 METAR KBFI 270253Z 31003KT 10SM CLR 17/09 A3013 RMK AO2 SLP204 T01670094 55009=
201503270153 METAR KBFI 270153Z 27003KT 10SM CLR 21/08 A3013 RMK AO2 SLP203 T02060083=
201503270053 METAR KBFI 270053Z 17004KT 10SM CLR 21/08 A3014 RMK AO2 SLP205 T02110083=
201503262353 METAR KBFI 262353Z 19006KT 10SM CLR 22/07 A3016 RMK AO2 SLP213 T02170072 10222 20172 56021=
201503262253 METAR KBFI 262253Z 00000KT 10SM CLR 22/09 A3018 RMK AO2 SLP219 T02170089=
201503262153 METAR KBFI 262153Z VRB05KT 10SM SCT250 21/09 A3020 RMK AO2 SLP226 T02110094=
201503262053 METAR KBFI 262053Z 17004KT 10SM SCT250 21/10 A3022 RMK AO2 SLP234 T02060100 58015=
201503261953 METAR KBFI 261953Z 00000KT 10SM FEW250 20/11 A3024 RMK AO2 SLP239 T02000106=
201503261853 METAR KBFI 261853Z 00000KT 10SM FEW030 SCT250 18/11 A3026 RMK AO2 SLP245 T01830111=
201503261753 METAR KBFI 261753Z VRB03KT 10SM FEW030 SCT250 18/11 A3027 RMK AO2 SLP249 T01780111 10178 20106 56004=
201503261653 METAR KBFI 261653Z 00000KT 10SM SCT250 16/11 A3027 RMK AO2 SLP249 T01610106=
201503261553 METAR KBFI 261553Z 00000KT 10SM FEW055 BKN250 14/10 A3027 RMK AO2 SLP249 T01390100=
201503261453 METAR KBFI 261453Z COR 00000KT 10SM 250BKN 12/09 A3028 RMK AO2 SLP253 T01220094 58004=
201503261353 METAR KBFI 261353Z 15003KT 10SM FEW060 SCT140 11/09 A3028 RMK AO2 SLP254 T01110089=
201503261253 METAR KBFI 261253Z 14004KT 10SM FEW060 SCT120 12/09 A3029 RMK AO2 SLP257 T01170094=
201503261153 METAR KBFI 261153Z 14007KT 10SM FEW060 13/10 A3029 RMK AO2 SLP258 70008 T01280100 10150 20122 58001=
201503261053 METAR KBFI 261053Z 13009KT 10SM FEW012 OVC070 13/11 A3030 RMK AO2 SLP259 T01330106=
201503260953 METAR KBFI 260953Z 11006KT 10SM BKN012 14/11 A3030 RMK AO2 SLP261 T01440106=
201503260853 METAR KBFI 260853Z 15008KT 10SM BKN100 BKN120 14/11 A3030 RMK AO2 SLP259 T01390106 50000=
201503260808 SPECI KBFI 260808Z 19007KT 10SM SCT027 OVC100 14/11 A3030 RMK AO2=
201503260753 METAR KBFI 260753Z 19007KT 10SM SCT012 OVC027 14/11 A3030 RMK AO2 SLP261 T01440111 401610089=
201503260653 METAR KBFI 260653Z 20005KT 10SM SCT009 BKN025 14/11 A3030 RMK AO2 SLP259 T01440111=
201503260553 METAR KBFI 260553Z 16011G18KT 10SM BKN009 OVC014 14/11 A3030 RMK AO2 SLP259 60001 T01440111 10161 20139 51007=
201503260524 SPECI KBFI 260524Z 17012KT 8SM FEW011 OVC019 14/12 A3030 RMK AO2=
201503260453 METAR KBFI 260453Z 17010KT 6SM HZ SCT008 BKN014 OVC023 14/12 A3029 RMK AO2 SLP257 T01440117=
201503260353 METAR KBFI 260353Z 16007KT 6SM HZ BKN017 OVC023 14/12 A3029 RMK AO2 SLP255 T01440117=
201503260253 METAR KBFI 260253Z 19009G15KT 5SM HZ BKN020 BKN026 OVC033 15/11 A3027 RMK AO2 RAE06 SLP251 P0000 60001 T01500111 51009=
201503260153 METAR KBFI 260153Z 17006KT 10SM -RA OVC020 16/11 A3027 RMK AO2 SLP249 P0001 T01560111=
201503260053 METAR KBFI 260053Z 17009G16KT 10SM -RA OVC024 16/11 A3026 RMK AO2 RAB2355 SLP245 P0000 T01560106=
201503252353 METAR KBFI 252353Z 17010G22KT 120V200 10SM OVC025 16/11 A3025 RMK AO2 SLP242 P0001 60003 T01610106 10161 20122 53010=
201503252253 METAR KBFI 252253Z 17009G16KT 10SM OVC027 16/11 A3024 RMK AO2 RAB12E53 SLP238 P0000 T01560106=
201503252153 METAR KBFI 252153Z 18010G17KT 10SM OVC029 16/10 A3022 RMK AO2 RAE47 SLP233 P0000 T01560100=
201503252053 METAR KBFI 252053Z 17007G15KT 10SM -RA OVC027 15/10 A3022 RMK AO2 SLP232 P0001 60002 T01500100 53005=
201503252012 SPECI KBFI 252012Z 16007KT 10SM -RA BKN027 BKN039 OVC048 15/10 A3022 RMK AO2 P0000=
201503251953 METAR KBFI 251953Z 16009G20KT 10SM -RA FEW029 BKN039 OVC047 14/09 A3022 RMK AO2 SLP231 P0000 T01440094=
201503251853 METAR KBFI 251853Z 14009KT 10SM -RA SCT025 BKN050 OVC120 13/10 A3021 RMK AO2 RAB12 SLP228 P0001 T01330100=
201503251753 METAR KBFI 251753Z 14011KT 10SM SCT040 OVC120 12/09 A3021 RMK AO2 SLP228 60004 T01220089 10122 20089 55002=
201503251653 METAR KBFI 251653Z 14009KT 10SM SCT034 SCT070 OVC150 11/08 A3020 RMK AO2 SLP227 T01110078=
201503251553 METAR KBFI 251553Z 13010KT 10SM BKN026 OVC032 10/07 A3020 RMK AO2 SLP226 T01000072=
201503251453 METAR KBFI 251453Z 15005KT 10SM OVC026 09/07 A3021 RMK AO2 RAB00E35 SLP229 P0002 60004 T00940067 55006=
201503251353 METAR KBFI 251353Z 14004KT 10SM BKN029 OVC040 09/06 A3020 RMK AO2 RAE28 SLP227 P0000 T00940061=
201503251253 METAR KBFI 251253Z 11005KT 10SM -RA BKN029 OVC041 09/06 A3021 RMK AO2 SLP230 P0002 T00890061=
201503251153 METAR KBFI 251153Z 00000KT 9SM -RA OVC033 09/06 A3023 RMK AO2 SLP235 P0003 60007 70018 T00890056 10111 20089 55006=
201503251053 METAR KBFI 251053Z 14005KT 8SM -RA OVC038 09/06 A3023 RMK AO2 RAE03B19 SLP235 P0002 T00940056=
201503250953 METAR KBFI 250953Z 00000KT 10SM -RA OVC046 09/06 A3022 RMK AO2 RAB21 SLP234 P0000 T00940061=
201503250853 METAR KBFI 250853Z 12003KT 10SM BKN041 OVC049 09/06 A3024 RMK AO2 RAE32 SLP241 P0000 60002 T00940061 58004=
201503250753 METAR KBFI 250753Z 13006KT 10SM -RA OVC047 10/06 A3025 RMK AO2 SLP242 P0002 T01000056 401500078=
201503250653 METAR KBFI 250653Z 14006KT 10SM -RA SCT041 BKN050 OVC065 11/06 A3025 RMK AO2 RAB49 SLP244 P0000 T01060056=
201503250553 METAR KBFI 250553Z 15008KT 10SM FEW037 OVC100 11/05 A3026 RMK AO2 SLP245 T01110050 10144 20106 53005=
201503250453 METAR KBFI 250453Z 14007KT 10SM OVC110 11/05 A3025 RMK AO2 SLP242 T01110050=
201503250353 METAR KBFI 250353Z 14008KT 10SM CLR 11/05 A3025 RMK AO2 SLP242 T01110050=
201503250253 METAR KBFI 250253Z 15008KT 10SM FEW070 OVC080 12/06 A3024 RMK AO2 SLP240 T01170056 51012=
201503250153 METAR KBFI 250153Z 18006KT 10SM FEW055 BKN080 OVC250 13/05 A3023 RMK AO2 SLP237 T01280050=
201503250053 METAR KBFI 250053Z 17007KT 10SM FEW055 BKN080 13/04 A3022 RMK AO2 SLP232 T01330044=
201503242353 METAR KBFI 242353Z 00000KT 10SM SCT027 BKN060 13/06 A3021 RMK AO2 RAB2256E24 SLP228 P0001 60001 T01330061 10150 20100 50005=
201503242253 METAR KBFI 242253Z 19007KT 10SM FEW050 BKN060 OVC080 13/04 A3021 RMK AO2 SLP229 T01330044=
201503242153 METAR KBFI 242153Z 16013KT 10SM SCT032 BKN055 14/05 A3019 RMK AO2 SLP223 T01440050=
201503242053 METAR KBFI 242053Z 17006KT 10SM SCT028 BKN040 13/06 A3019 RMK AO2 SLP223 T01280056 51007=
201503242017 SPECI KBFI 242017Z 15006KT 10SM SCT026 SCT030 OVC041 12/06 A3019 RMK AO2=
201503241953 METAR KBFI 241953Z 16007KT 130V200 10SM FEW014 BKN026 12/05 A3019 RMK AO2 SLP222 T01170050=
201503241853 METAR KBFI 241853Z 16008KT 10SM FEW014 BKN026 OVC033 11/06 A3018 RMK AO2 SLP218 T01110056=
201503241753 METAR KBFI 241753Z 16007KT 10SM BKN017 OVC023 10/05 A3017 RMK AO2 SLP216 60010 T01000050 10100 20078 51026=
201503241653 METAR KBFI 241653Z 15007KT 10SM BKN019 OVC050 09/05 A3015 RMK AO2 SLP211 T00890050=
201503241600 SPECI KBFI 241600Z 17007KT 10SM SCT019 BKN049 BKN095 09/05 A3013 RMK AO2=
201503241553 METAR KBFI 241553Z 19009KT 10SM FEW011 BKN019 OVC029 08/05 A3012 RMK AO2 RAE1454 SLP200 T00830050=
201503241453 METAR KBFI 241453Z 13006KT 10SM -RA FEW011 BKN019 OVC029 08/05 A3009 RMK AO2 SLP190 P0002 60010 T00830050 51035=
201503241353 METAR KBFI 241353Z 23003KT 9SM -RA SCT014 OVC037 08/05 A3006 RMK AO2 SLP179 P0004 T00780050=
201503241317 SPECI KBFI 241317Z 29003KT 8SM -RA BKN029 OVC035 08/04 A3004 RMK AO2 P0002=
201503241310 SPECI KBFI 241310Z 31003KT 7SM -RA OVC031 08/04 A3004 RMK AO2 P0002=
201503241253 METAR KBFI 241253Z 34007KT 7SM -RA BKN029 OVC035 08/05 A3003 RMK AO2 SLP168 P0004 T00830050=
201503241153 METAR KBFI 241153Z 32006G15KT 10SM -RA FEW031 OVC042 08/05 A2999 RMK AO2 SLP155 P0002 60017 70036 T00830050 10094 20083 53028=
201503241128 SPECI KBFI 241128Z 34005KT 8SM -RA SCT009 BKN037 OVC047 09/06 A2997 RMK AO2 P0001=
201503241100 SPECI KBFI 241100Z 00000KT 5SM -RA OVC007 09/06 A2995 RMK AO2 CIG 006V011 P0000=
201503241053 METAR KBFI 241053Z 31003KT 7SM -RA OVC037 09/06 A2995 RMK AO2 SLP141 P0006 T00890061=
201503240953 METAR KBFI 240953Z 00000KT 7SM -RA OVC037 08/06 A2993 RMK AO2 SLP134 P0004 T00830061=
201503240853 METAR KBFI 240853Z 00000KT 8SM -RA FEW014 OVC039 08/06 A2991 RMK AO2 SLP126 P0003 60005 T00830056 55006=
201503240753 METAR KBFI 240753Z 00000KT 10SM -RA SCT035 OVC045 08/06 A2990 RMK AO2 SLP125 P0001 T00830056 401220056=
201503240653 METAR KBFI 240653Z 00000KT 10SM -RA OVC045 09/04 A2991 RMK AO2 RAB26 SLP129 P0001 T00890044=
201503240553 METAR KBFI 240553Z 00000KT 10SM BKN075 OVC090 09/04 A2992 RMK AO2 SLP132 60001 T00890044 10122 20083 56016=
201503240453 METAR KBFI 240453Z 15005KT 10SM FEW029 OVC160 09/04 A2993 RMK AO2 SLP134 T00890039=
201503240353 METAR KBFI 240353Z 12006KT 10SM FEW029 SCT040 BKN160 09/04 A2994 RMK AO2 SLP138 T00940044=
201503240253 METAR KBFI 240253Z COR 16006KT 10SM SCT033 OVC120 11/05 A2997 RMK AO2 SLP148 60001 T01060050 58002=
201503240153 METAR KBFI 240153Z 16006KT 10SM FEW033 SCT055 BKN095 11/05 A2999 RMK AO2 RAB12E41 SLP153 P0001 T01060050=
201503240053 METAR KBFI 240053Z 18009G19KT 10SM FEW021 BKN038 OVC055 11/05 A2998 RMK AO2 SLP153 T01110050=
201503232353 METAR KBFI 232353Z 18007KT 10SM FEW012 SCT025 BKN055 12/06 A2998 RMK AO2 SLP151 60017 T01170061 10117 20089 50001=
201503232253 METAR KBFI 232253Z COR 17010G15KT 10SM FEW012 SCT041 SCT060 BKN100 11/07 A2998 RMK AO2 RAE41 SLP152 P0004 T01110067=
201503232153 METAR KBFI 232153Z 17007KT 10SM -RA SCT014 BKN035 OVC060 11/07 A2998 RMK AO2 SLP150 P0004 T01110072=
201503232053 METAR KBFI 232053Z 16011KT 9SM -RA BKN014 BKN032 OVC039 11/07 A2997 RMK AO2 SLP150 P0001 60009 T01060067 50006=
201503231953 METAR KBFI 231953Z 18005KT 7SM -RA FEW009 BKN030 OVC042 10/06 A2998 RMK AO2 SLP153 P0002 T01000061=
201503231853 METAR KBFI 231853Z VRB03KT 6SM -RA SCT010 OVC037 09/07 A2997 RMK AO2 SLP149 P0006 T00940067=
201503231753 METAR KBFI 231753Z 18004KT 8SM -RA FEW008 SCT010 OVC025 09/06 A2996 RMK AO2 RAB23 SLP144 P0001 60001 T00940061 10094 20061 53011=
201503231737 SPECI KBFI 231737Z 00000KT 8SM -RA FEW008 SCT010 OVC027 09/07 A2995 RMK AO2 RAB23 P0000=
201503231735 SPECI KBFI 231735Z 00000KT 8SM -RA SCT010 BKN027 OVC060 09/07 A2995 RMK AO2 RAB23 P0000=
201503231653 METAR KBFI 231653Z 00000KT 10SM FEW020 BKN065 OVC150 09/06 A2993 RMK AO2 SLP135 T00890056=
201503231553 METAR KBFI 231553Z 00000KT 10SM FEW020 BKN070 08/06 A2992 RMK AO2 SLP132 T00780056=
201503231453 METAR KBFI 231453Z COR 00000KT 10SM FEW028 BKN070 07/05 A2993 RMK AO2 SLP133 FG BNK NW T00720050 56004=
201503231427 SPECI KBFI 231427Z 00000KT 10SM FEW028 07/05 A2993 RMK AO2 FG BNK NW=
201503231413 SPECI KBFI 231413Z 14003KT 1SM BR BKN001 BKN028 06/04 A2993 RMK AO2=
201503231400 SPECI KBFI 231400Z 00000KT 3/4SM BR BKN001 BKN028 06/04 A2993 RMK AO2=
201503231353 METAR KBFI 231353Z 00000KT 3/4SM BR VV002 06/04 A2993 RMK AO2 SLP135 T00610044=
201503231253 METAR KBFI 231253Z COR 00000KT 1/2SM FG VV001 07/05 A2993 RMK AO2 SLP135 T00670050=
201503231239 SPECI KBFI 231239Z 00000KT 1 1/4SM BR VV002 06/04 A2993 RMK AO2=
201503231153 METAR KBFI 231153Z 00000KT 5SM BR BKN002 07/04 A2994 RMK AO2 SLP137 60000 70007 T00670044 10100 20056 56011=
201503231147 SPECI KBFI 231147Z 00000KT 3SM BR BKN002 07/05 A2994 RMK AO2=
201503231143 SPECI KBFI 231143Z 00000KT 1 1/2SM BR BKN002 06/05 A2994 RMK AO2 VIS 3/4V3=
201503231053 METAR KBFI 231053Z 14006KT 1/4SM FG VV001 07/05 A2994 RMK AO2 SLP138 T00670050=
201503231033 SPECI KBFI 231033Z 13005KT 1/4SM FG VV001 07/06 A2995 RMK AO2 $=
201503231022 SPECI KBFI 231022Z 14006KT 1/2SM FG OVC002 07/04 A2995 RMK AO2 $=
201503231013 SPECI KBFI 231013Z 13004KT 2SM BR OVC004 07/04 A2995 RMK AO2=
201503230953 METAR KBFI 230953Z 13003KT 10SM CLR 07/04 A2996 RMK AO2 RAB38E41 SLP144 P0000 T00670044=
201503230853 METAR KBFI 230853Z 13006KT 8SM CLR 08/06 A2997 RMK AO2 SLP148 T00780056 58003=
201503230753 METAR KBFI 230753Z 14003KT 10SM FEW028 08/06 A2998 RMK AO2 SLP150 T00780056 401330056=
201503230653 METAR KBFI 230653Z 00000KT 10SM CLR 09/06 A2998 RMK AO2 SLP152 T00890061=
201503230553 METAR KBFI 230553Z 15003KT 10SM CLR 09/07 A2998 RMK AO2 SLP151 60002 T00940067 10133 20094 51001=
201503230453 METAR KBFI 230453Z 14004KT 10SM CLR 11/07 A2998 RMK AO2 SLP150 T01060072=
201503230353 METAR KBFI 230353Z 17003KT 10SM FEW050 BKN200 11/07 A2998 RMK AO2 SLP152 T01060072=
201503230253 METAR KBFI 230253Z COR 16006KT 10SM FEW017 11/07 A2997 RMK AO2 SLP149 60002 T01110067 53010=
201503230153 METAR KBFI 230153Z 00000KT 10SM FEW025 BKN050 12/08 A2996 RMK AO2 RAE24 SLP146 P0001 T01170083=
201503230128 SPECI KBFI 230128Z VRB04KT 4SM HZ FEW023 SCT029 OVC037 11/08 A2996 RMK AO2 RAE24 P0001=
201503230102 SPECI KBFI 230102Z 26004KT 4SM -RA BKN027 OVC035 12/08 A2995 RMK AO2 P0000=
201503230055 SPECI KBFI 230055Z 25006KT 2 1/2SM -RA BKN029 OVC037 12/08 A2995 RMK AO2 P0000=
201503230053 METAR KBFI 230053Z 27004KT 6SM -RA FEW024 BKN030 OVC038 12/08 A2995 RMK AO2 RAB34 SLP141 P0001 T01220078=
201503222353 METAR KBFI 222353Z 11003KT 10SM SCT045 OVC060 13/07 A2994 RMK AO2 SLP140 60005 T01330067 10133 20111 56019=
201503222253 METAR KBFI 222253Z 15005KT 10SM SCT017 BKN022 OVC060 12/07 A2996 RMK AO2 SLP146 T01220067=
201503222218 SPECI KBFI 222218Z 16005KT 10SM SCT017 BKN022 OVC065 12/07 A2997 RMK AO2=
201503222153 METAR KBFI 222153Z 13005KT 10SM BKN040 OVC060 12/07 A2998 RMK AO2 RAE41 SLP152 P0002 T01170067=
201503222053 METAR KBFI 222053Z 16003KT 6SM -RA SCT042 BKN049 OVC060 11/07 A3000 RMK AO2 SLP158 P0003 60003 T01110067 50003=
201503221953 METAR KBFI 221953Z 15008KT 10SM -RA FEW047 OVC060 11/06 A3000 RMK AO2 RAB20 SLP159 P0000 T01110061=
201503221853 METAR KBFI 221853Z 15005KT 10SM BKN055 OVC060 12/05 A2999 RMK AO2 SLP156 T01170050=
201503221753 METAR KBFI 221753Z 00000KT 10SM OVC060 11/05 A2999 RMK AO2 SLP155 60000 T01110050 10111 20056 55004=
201503221653 METAR KBFI 221653Z 00000KT 10SM BKN090 11/06 A2998 RMK AO2 SLP150 T01060061=
201503221553 METAR KBFI 221553Z 00000KT 10SM FEW070 OVC090 09/06 A2998 RMK AO2 SLP153 T00890056=
201503221453 METAR KBFI 221453Z 00000KT 10SM BKN065 OVC100 08/06 A3000 RMK AO2 SLP159 60000 T00830056 56010=
201503221353 METAR KBFI 221353Z 00000KT 10SM BKN095 06/04 A3000 RMK AO2 SLP160 T00610039=
201503221253 METAR KBFI 221253Z 00000KT 10SM CLR 07/04 A3001 RMK AO2 RAB26E38 SLP162 P0000 T00670044=
201503221153 METAR KBFI 221153Z 00000KT 10SM CLR 07/04 A3003 RMK AO2 SLP169 60000 70014 T00670039 10117 20067 56015=
201503221053 METAR KBFI 221053Z 00000KT 10SM CLR 08/04 A3005 RMK AO2 RAB35E41 SLP174 P0000 T00780044=
201503220953 METAR KBFI 220953Z 00000KT 10SM CLR 08/05 A3005 RMK AO2 SLP176 T00830050=
201503220853 METAR KBFI 220853Z 12003KT 10SM CLR 10/06 A3007 RMK AO2 SLP184 T01000056 58012=
201503220753 METAR KBFI 220753Z 00000KT 10SM CLR 10/06 A3009 RMK AO2 SLP190 T01000061 401500094=
201503220653 METAR KBFI 220653Z 14005KT 10SM BKN046 10/06 A3010 RMK AO2 SLP193 T01000061=
201503220553 METAR KBFI 220553Z 10006KT 10SM OVC055 12/07 A3011 RMK AO2 SLP195 T01170067 10150 20111 50002=
201503220453 METAR KBFI 220453Z 00000KT 10SM BKN047 12/06 A3011 RMK AO2 SLP196 T01170056=
201503220353 METAR KBFI 220353Z 00000KT 10SM BKN049 11/04 A3011 RMK AO2 SLP194 T01110044=
201503220253 METAR KBFI 220253Z 00000KT 10SM FEW040 SCT200 13/03 A3010 RMK AO2 SLP193 T01280033 53000=
201503220153 METAR KBFI 220153Z VRB03KT 10SM SCT045 14/04 A3010 RMK AO2 SLP191 T01390039=
201503220053 METAR KBFI 220053Z 18010G19KT 10SM SCT045 14/05 A3010 RMK AO2 SLP192 T01440050=
201503212353 METAR KBFI 212353Z 19010G18KT 10SM FEW030 15/06 A3010 RMK AO2 SLP193 60002 T01500056 10150 20122 58001=
201503212253 METAR KBFI 212253Z 20009G18KT 10SM FEW025 BKN040 15/07 A3011 RMK AO2 SLP195 T01500067=
201503212153 METAR KBFI 212153Z 20010G16KT 10SM FEW034 SCT040 BKN050 14/07 A3011 RMK AO2 SLP196 T01440067=
201503212053 METAR KBFI 212053Z 18011G18KT 10SM BKN030 BKN055 14/07 A3010 RMK AO2 RAE52 SLP194 P0000 60002 T01390067 51011=
201503211953 METAR KBFI 211953Z 20012G21KT 9SM -RA SCT010 BKN033 14/08 A3010 RMK AO2 RAB35 SLP191 P0002 T01390078=
201503211853 METAR KBFI 211853Z 17013G20KT 10SM SCT010 BKN040 13/07 A3009 RMK AO2 SLP188 T01330072=
201503211753 METAR KBFI 211753Z 19012G23KT 160V220 7SM FEW010 BKN040 12/07 A3007 RMK AO2 PK WND 18028/1731 RAE10 SLP183 P0001 60012 T01170072 10133 20106 52032=
201503211728 SPECI KBFI 211728Z 19011G18KT 7SM SCT012 BKN028 BKN032 12/08 A3006 RMK AO2 RAE10 P0001=
201503211653 METAR KBFI 211653Z 18014G20KT 7SM RA FEW022 SCT030 OVC038 11/07 A3005 RMK AO2 SLP174 P0004 T01060067=
201503211553 METAR KBFI 211553Z 17012KT 8SM -RA SCT030 BKN050 OVC060 11/07 A3000 RMK AO2 PK WND 17026/1507 RAB03 SLP159 P0006 T01110067=
201503211453 METAR KBFI 211453Z 17015G31KT 10SM FEW026 BKN055 BKN110 13/05 A2998 RMK AO2 PK WND 17031/1446 RAB08E33 SLP150 P0001 60001 T01280050 51019=
201503211353 METAR KBFI 211353Z 17011KT 10SM BKN049 BKN060 13/06 A2996 RMK AO2 SLP146 T01280056=
201503211253 METAR KBFI 211253Z 18009KT 10SM FEW046 13/07 A2994 RMK AO2 SLP139 T01280072=
201503211153 METAR KBFI 211153Z 16007KT 10SM SCT030 BKN100 13/08 A2992 RMK AO2 SLP131 60000 70013 T01280083 10133 20117 53008=
201503211053 METAR KBFI 211053Z 15006KT 10SM BKN050 13/09 A2990 RMK AO2 SLP123 T01280089=
201503210953 METAR KBFI 210953Z 16006KT 10SM BKN045 BKN055 13/09 A2990 RMK AO2 RAB0856E29 SLP125 P0000 T01280089=
201503210853 METAR KBFI 210853Z 15006KT 10SM FEW030 BKN040 OVC048 13/09 A2990 RMK AO2 SLP124 T01280089 53004=
201503210753 METAR KBFI 210753Z 12003KT 10SM SCT040 BKN047 OVC055 12/09 A2989 RMK AO2 SLP120 T01220089 401560106=
201503210653 METAR KBFI 210653Z COR 00000KT 10SM BKN050 BKN065 OVC080 12/08 A2988 RMK AO2 SLP117 T01170083=
201503210553 METAR KBFI 210553Z 13005KT 10SM BKN065 BKN100 12/08 A2989 RMK AO2 RAB0457E34 SLP120 P0000 60006 T01220083 10133 20122 56005=
201503210453 METAR KBFI 210453Z 10003KT 10SM BKN041 OVC070 13/08 A2989 RMK AO2 RAB0359E19 SLP122 P0000 T01280083=
201503210353 METAR KBFI 210353Z 00000KT 10SM BKN045 OVC065 13/08 A2989 RMK AO2 RAE30 SLP122 P0002 T01280078=
201503210253 METAR KBFI 210253Z 18004KT 10SM -RA SCT065 OVC080 13/08 A2990 RMK AO2 RAB10 SLP125 P0001 60004 T01280078 53004=
201503210153 METAR KBFI 210153Z 18003KT 10SM SCT060 OVC075 13/08 A2989 RMK AO2 RAE11 SLP119 P0001 T01280083=
201503210053 METAR KBFI 210053Z 21003KT 5SM -RA OVC075 13/08 A2988 RMK AO2 RAB00 SLP119 P0002 T01280078=
201503202353 METAR KBFI 202353Z 00000KT 10SM OVC075 13/08 A2989 RMK AO2 RAB2259E13 SLP121 P0000 60006 T01330083 10156 20133 55019=
201503202253 METAR KBFI 202253Z 00000KT 10SM FEW055 BKN075 OVC080 14/09 A2989 RMK AO2 RAB00E17 SLP120 P0000 T01440089=
201503202153 METAR KBFI 202153Z 05003KT 10SM FEW055 OVC075 14/09 A2990 RMK AO2 RAE30 SLP124 P0002 T01390089=
201503202053 METAR KBFI 202053Z AUTO 15005KT 7SM -RA OVC070 14/08 A2995 RMK AO2 SLP140 P0004 60004 T01390083 53009=
201503201953 METAR KBFI 201953Z 00000KT 10SM -RA OVC070 14/08 A2993 RMK AO2 RAB32 SLP134 P0000 T01390083=
201503201853 METAR KBFI 201853Z 24004KT 10SM OVC085 16/07 A2992 RMK AO2 SLP131 T01560072=
201503201753 METAR KBFI 201753Z 00000KT 10SM FEW050 BKN140 14/07 A2992 RMK AO2 SLP131 60001 T01440067 10144 20106 58007=
201503201653 METAR KBFI 201653Z COR 15005KT 10SM FEW050 BKN140 BKN230 13/07 A2992 RMK AO2 SLP133 T01280067=
201503201553 METAR KBFI 201553Z 14004KT 10SM FEW050 BKN110 BKN200 12/08 A2994 RMK AO2 SLP137 T01170078=
201503201453 METAR KBFI 201453Z 15005KT 10SM BKN110 OVC200 11/08 A2994 RMK AO2 SLP138 P0001 60001 T01110078 55013=
201503201353 METAR KBFI 201353Z 11005KT 10SM BKN140 OVC200 11/08 A2994 RMK AO2 SLP138 T01110078=
201503201253 METAR KBFI 201253Z 00000KT 10SM BKN140 11/08 A2997 RMK AO2 SLP148 T01060083=
201503201153 METAR KBFI 201153Z 13004KT 10SM CLR 12/08 A2998 RMK AO2 SLP150 60000 70001 T01170083 10139 20106 55003=
201503201053 METAR KBFI 201053Z 12003KT 10SM CLR 12/08 A2997 RMK AO2 SLP149 T01220083=
201503200953 METAR KBFI 200953Z 14004KT 10SM BKN100 12/08 A2998 RMK AO2 SLP153 T01170083=
201503200853 METAR KBFI 200853Z 00000KT 10SM BKN090 12/09 A2999 RMK AO2 SLP154 60000 T01220089 56017=
201503200753 METAR KBFI 200753Z 00000KT 10SM BKN080 BKN095 OVC110 13/09 A3000 RMK AO2 SLP158 T01280089 401720094=
201503200653 METAR KBFI 200653Z 00000KT 10SM FEW055 OVC085 13/09 A3002 RMK AO2 RAB32E48 SLP165 P0000 T01280094=
201503200553 METAR KBFI 200553Z 00000KT 10SM OVC075 13/09 A3004 RMK AO2 RAE17B39E53 SLP171 P0000 60001 T01330094 10167 20133 50001=
201503200453 METAR KBFI 200453Z 00000KT 10SM -RA OVC060 14/09 A3004 RMK AO2 RAB12 SLP171 P0001 T01390089=
201503200353 METAR KBFI 200353Z 00000KT 10SM OVC055 14/07 A3004 RMK AO2 SLP171 T01440072=
201503200253 METAR KBFI 200253Z 00000KT 10SM OVC049 14/07 A3004 RMK AO2 SLP170 60000 T01440072 55011=
201503200153 METAR KBFI 200153Z 00000KT 10SM BKN050 OVC100 16/06 A3003 RMK AO2 RAE12 SLP168 P0000 T01610056=
201503200053 METAR KBFI 200053Z 09004KT 10SM -RA BKN050 OVC120 16/06 A3005 RMK AO2 RAB13 SLP175 P0000 T01610061=
201503192353 METAR KBFI 192353Z 00000KT 10SM BKN070 OVC150 17/05 A3007 RMK AO2 SLP181 60000 T01670050 10172 20128 58009=
201503192253 METAR KBFI 192253Z 25003KT 10SM BKN070 OVC200 16/06 A3008 RMK AO2 RAB20E52 SLP186 P0000 T01610061=
201503192153 METAR KBFI 192153Z 21007KT 10SM SCT120 OVC200 17/06 A3008 RMK AO2 SLP187 T01720061=
201503192053 METAR KBFI 192053Z VRB05KT 10SM BKN140 OVC250 16/06 A3009 RMK AO2 SLP190 T01560056 56007=
201503191953 METAR KBFI 191953Z 19007KT 10SM BKN140 OVC210 16/05 A3010 RMK AO2 SLP191 T01560050=
201503191853 METAR KBFI 191853Z 13006KT 10SM SCT120 OVC200 14/05 A3010 RMK AO2 SLP192 T01390050=
201503191753 METAR KBFI 191753Z 15006KT 10SM BKN110 OVC200 13/05 A3012 RMK AO2 SLP197 T01280050 10128 20100 58006=
201503191653 METAR KBFI 191653Z 15005KT 10SM BKN110 BKN200 12/05 A3013 RMK AO2 SLP203 T01170050=
201503191553 METAR KBFI 191553Z 14005KT 10SM BKN120 OVC200 11/05 A3013 RMK AO2 SLP201 T01060050=
201503191453 METAR KBFI 191453Z 14003KT 10SM BKN120 OVC200 11/05 A3013 RMK AO2 SLP204 T01060050 55010=
201503191353 METAR KBFI 191353Z 14006KT 10SM BKN110 10/05 A3013 RMK AO2 SLP203 T01000050=
201503191253 METAR KBFI 191253Z 14007KT 10SM FEW120 10/05 A3015 RMK AO2 SLP209 T01000050=
201503191153 METAR KBFI 191153Z 00000KT 10SM FEW120 10/05 A3016 RMK AO2 SLP214 T01000050 10122 20094 56009=
201503191053 METAR KBFI 191053Z 15005KT 10SM CLR 10/06 A3017 RMK AO2 SLP216 T01000056=
201503190953 METAR KBFI 190953Z 13007KT 10SM CLR 11/06 A3018 RMK AO2 SLP219 T01060056=
201503190853 METAR KBFI 190853Z 16003KT 10SM CLR 09/06 A3019 RMK AO2 SLP223 T00940056 58009=
201503190753 METAR KBFI 190753Z AUTO 14004KT 10SM CLR 10/05 A3020 RMK AO2 SLP227 T01000050 401720078 TSNO=
201503190653 METAR KBFI 190653Z AUTO 14004KT 10SM CLR 12/06 A3021 RMK AO2 SLP229 T01170056 TSNO=
201503190553 METAR KBFI 190553Z 00000KT 10SM CLR 11/05 A3022 RMK AO2 SLP232 T01110050 10167 20106 57001=
201503190453 METAR KBFI 190453Z 00000KT 10SM SCT230 13/05 A3022 RMK AO2 SLP234 T01330050=
201503190353 METAR KBFI 190353Z 15003KT 10SM SCT250 14/04 A3022 RMK AO2 SLP232 T01390044=
201503190253 METAR KBFI 190253Z 00000KT 10SM SCT250 14/04 A3022 RMK AO2 SLP233 T01440039 56008=
201503190153 METAR KBFI 190153Z 18003KT 10SM FEW035 SCT060 16/04 A3022 RMK AO2 SLP234 T01560039=
201503190053 METAR KBFI 190053Z 17005KT 10SM FEW020 SCT050 17/04 A3023 RMK AO2 SLP237 T01670044=
201503182353 METAR KBFI 182353Z VRB03KT 10SM SCT045 SCT250 17/04 A3025 RMK AO2 SLP242 T01670044 10172 20122 56012=
201503182253 METAR KBFI 182253Z 21006KT 10SM SCT045 SCT250 17/05 A3026 RMK AO2 SLP245 T01670050=
201503182153 METAR KBFI 182153Z 23006KT 10SM SCT035 BKN250 16/06 A3027 RMK AO2 SLP249 T01560056=
201503182053 METAR KBFI 182053Z VRB03KT 10SM SCT032 BKN050 16/07 A3028 RMK AO2 SLP254 T01610067 58009=
201503181953 METAR KBFI 181953Z 00000KT 10SM BKN027 BKN035 14/07 A3030 RMK AO2 SLP258 T01440067=
201503181853 METAR KBFI 181853Z 00000KT 10SM BKN021 BKN035 13/07 A3031 RMK AO2 SLP263 T01280067=
201503181753 METAR KBFI 181753Z 13004KT 10SM BKN021 BKN035 12/06 A3031 RMK AO2 SLP263 T01220061 10122 20078 51008=
201503181707 SPECI KBFI 181707Z 13005KT 10SM BKN020 BKN039 12/06 A3030 RMK AO2=
201503181700 SPECI KBFI 181700Z 12005KT 10SM SCT020 OVC034 12/06 A3030 RMK AO2=
201503181653 METAR KBFI 181653Z 11003KT 10SM BKN020 BKN039 12/06 A3030 RMK AO2 SLP260 T01170061=
201503181553 METAR KBFI 181553Z 15004KT 10SM SCT017 BKN070 10/06 A3030 RMK AO2 SLP260 T01000061=
201503181453 METAR KBFI 181453Z 16005KT 10SM SCT017 BKN050 08/05 A3029 RMK AO2 SLP255 T00780050 53010=
201503181439 SPECI KBFI 181439Z 13004KT 10SM SCT017 08/05 A3028 RMK AO2=
201503181353 METAR KBFI 181353Z COR 00000KT 10SM FEW017 BKN050 08/04 A3027 RMK AO2 SLP250 T00830044=
201503181253 METAR KBFI 181253Z 00000KT 10SM SCT021 OVC055 09/05 A3026 RMK AO2 SLP246 T00940050=
201503181153 METAR KBFI 181153Z 13003KT 10SM SCT060 10/05 A3026 RMK AO2 SLP245 70004 T01000050 10111 20094 51004=
201503181053 METAR KBFI 181053Z 13003KT 10SM BKN055 10/06 A3025 RMK AO2 SLP243 T01000056=
201503180953 METAR KBFI 180953Z 13003KT 10SM BKN034 BKN050 OVC090 11/06 A3025 RMK AO2 SLP244 T01060056=
201503180853 METAR KBFI 180853Z 12004KT 10SM OVC029 11/06 A3024 RMK AO2 SLP240 T01060056 51013=
201503180753 METAR KBFI 180753Z 14006KT 10SM FEW034 SCT055 BKN100 11/06 A3023 RMK AO2 SLP237 T01060056 401560056=
201503180653 METAR KBFI 180653Z 15006KT 10SM BKN095 11/06 A3022 RMK AO2 SLP233 T01060056=
201503180553 METAR KBFI 180553Z 16006KT 10SM BKN100 11/06 A3021 RMK AO2 SLP228 60001 T01110056 10128 20100 51017=
201503180453 METAR KBFI 180453Z 15007KT 10SM OVC110 11/06 A3019 RMK AO2 SLP222 T01110061=
201503180353 METAR KBFI 180353Z 13006KT 10SM OVC100 11/07 A3017 RMK AO2 SLP216 T01110067=
201503180253 METAR KBFI 180253Z 15010KT 10SM FEW070 OVC100 12/07 A3015 RMK AO2 SLP210 60001 T01170067 53008=
201503180153 METAR KBFI 180153Z 14009KT 10SM BKN070 OVC085 12/07 A3014 RMK AO2 RAB01E15 SLP205 P0001 T01170072=
201503180053 METAR KBFI 180053Z 15008KT 10SM FEW047 OVC060 12/08 A3013 RMK AO2 RAE20 SLP202 P0000 T01220078=
201503172353 METAR KBFI 172353Z 18004KT 6SM -RA OVC055 13/08 A3013 RMK AO2 SLP202 P0002 60003 T01280078 10156 20106 53012=
201503172253 METAR KBFI 172253Z 20006KT 9SM -RA BKN055 OVC070 13/07 A3012 RMK AO2 RAB30 SLP197 P0001 T01330072=
201503172153 METAR KBFI 172153Z 21010G16KT 10SM BKN060 BKN080 OVC160 15/06 A3010 RMK AO2 SLP194 T01500056=
201503172053 METAR KBFI 172053Z 17008KT 10SM SCT055 SCT070 OVC200 15/06 A3009 RMK AO2 SLP190 T01500061 53004=
201503171953 METAR KBFI 171953Z 15008KT 10SM FEW050 SCT100 BKN250 15/06 A3009 RMK AO2 SLP187 T01500056=
201503171853 METAR KBFI 171853Z 00000KT 10SM FEW050 SCT080 BKN140 BKN220 13/07 A3009 RMK AO2 SLP188 T01280067=
201503171753 METAR KBFI 171753Z 00000KT 10SM BKN065 11/07 A3008 RMK AO2 SLP187 60000 T01060067 10106 20056 51008=
201503171653 METAR KBFI 171653Z 13005KT 10SM OVC065 09/06 A3008 RMK AO2 SLP185 T00890056=
201503171553 METAR KBFI 171553Z 14005KT 10SM SCT080 BKN200 08/06 A3007 RMK AO2 SLP182 T00830056=
201503171516 SPECI KBFI 171516Z 00000KT 10SM FEW007 SCT065 OVC080 08/05 A3007 RMK AO2=
201503171453 METAR KBFI 171453Z 14003KT 10SM OVC075 07/04 A3006 RMK AO2 SLP179 60000 T00670044 53005=
201503171353 METAR KBFI 171353Z 00000KT 10SM FEW070 SCT200 07/04 A3005 RMK AO2 RAB47E53 SLP174 P0000 T00670039=
201503171253 METAR KBFI 171253Z 00000KT 10SM FEW070 SCT200 06/03 A3005 RMK AO2 SLP174 T00610033=
201503171153 METAR KBFI 171153Z 00000KT 10SM CLR 07/03 A3005 RMK AO2 RAB19E32 SLP174 P0000 60000 T00670033 10106 20061 58005=
201503171053 METAR KBFI 171053Z 00000KT 10SM CLR 07/03 A3005 RMK AO2 SLP176 T00670033=
201503170953 METAR KBFI 170953Z 00000KT 10SM CLR 08/04 A3006 RMK AO2 SLP178 T00780039=
201503170853 METAR KBFI 170853Z 00000KT 10SM CLR 09/04 A3006 RMK AO2 SLP178 T00890044 58013=
201503170753 METAR KBFI 170753Z 00000KT 10SM CLR 09/05 A3007 RMK AO2 SLP183 T00940050 401440078=
201503170653 METAR KBFI 170653Z 00000KT 10SM SCT075 10/05 A3009 RMK AO2 SLP188 T01000050=
201503170553 METAR KBFI 170553Z 00000KT 10SM BKN075 10/05 A3010 RMK AO2 SLP192 T01000050 10144 20100 58004=
201503170453 METAR KBFI 170453Z 00000KT 10SM SCT240 11/05 A3010 RMK AO2 SLP193 T01110050=
201503170353 METAR KBFI 170353Z 34003KT 10SM CLR 12/05 A3011 RMK AO2 SLP196 T01170050=
201503170253 METAR KBFI 170253Z 33007KT 10SM SCT240 12/05 A3011 RMK AO2 SLP195 T01220050 56011=
201503170153 METAR KBFI 170153Z 33007KT 10SM SCT250 13/05 A3011 RMK AO2 SLP195 T01330050=
201503170053 METAR KBFI 170053Z 31008KT 10SM SCT200 BKN250 13/05 A3012 RMK AO2 SLP199 T01330050=
201503162353 METAR KBFI 162353Z 32007G14KT 10SM BKN250 14/04 A3014 RMK AO2 SLP207 T01390044 10144 20100 56022=
201503162253 METAR KBFI 162253Z 29007KT 10SM FEW040 BKN250 14/04 A3016 RMK AO2 SLP213 T01390044=
201503162153 METAR KBFI 162153Z 30008KT 10SM FEW023 BKN200 14/06 A3018 RMK AO2 SLP218 T01390056=
201503162053 METAR KBFI 162053Z 33010KT 10SM SCT023 BKN200 13/06 A3021 RMK AO2 SLP229 T01280061 58020=
201503161953 METAR KBFI 161953Z 33003KT 10SM BKN024 BKN200 12/06 A3023 RMK AO2 SLP236 T01220056=
201503161853 METAR KBFI 161853Z 00000KT 10SM SCT024 SCT070 BKN200 12/06 A3025 RMK AO2 SLP244 T01170061=
201503161753 METAR KBFI 161753Z 35003KT 10SM SCT014 BKN019 11/06 A3027 RMK AO2 SLP249 T01060061 10117 20078 51003=
201503161750 SPECI KBFI 161750Z 34003KT 10SM SCT014 BKN019 11/06 A3027 RMK AO2=
201503161653 METAR KBFI 161653Z 05003KT 10SM BKN014 BKN041 10/06 A3027 RMK AO2 SLP248 T01000061=
201503161606 SPECI KBFI 161606Z 00000KT 10SM SCT008 BKN036 09/06 A3025 RMK AO2=
201503161553 METAR KBFI 161553Z 00000KT 10SM FEW010 BKN038 09/06 A3026 RMK AO2 SLP246 T00890061=
201503161453 METAR KBFI 161453Z 00000KT 10SM FEW010 BKN038 08/05 A3026 RMK AO2 SLP245 T00830050 53011=
201503161353 METAR KBFI 161353Z 00000KT 10SM FEW010 BKN038 08/05 A3024 RMK AO2 SLP240 T00780050=
201503161253 METAR KBFI 161253Z 00000KT 10SM FEW015 OVC030 08/05 A3023 RMK AO2 SLP236 T00830050=
201503161153 METAR KBFI 161153Z 15003KT 10SM OVC030 08/05 A3022 RMK AO2 SLP234 60003 70230 T00780050 10083 20078 50010=
201503161053 METAR KBFI 161053Z 17003KT 10SM OVC034 08/05 A3022 RMK AO2 SLP234 T00830050=
201503160953 METAR KBFI 160953Z 14004KT 10SM OVC038 08/05 A3022 RMK AO2 SLP232 T00830050=
201503160853 METAR KBFI 160853Z 11005KT 10SM OVC042 08/05 A3019 RMK AO2 SLP224 60003 T00830050 51039=
201503160753 METAR KBFI 160753Z 11003KT 10SM OVC050 08/06 A3016 RMK AO2 RAE18 SLP212 P0000 T00780056 401220078=
201503160653 METAR KBFI 160653Z 16004KT 10SM -RA SCT030 BKN036 OVC045 08/06 A3012 RMK AO2 RAE33B51 SLP200 P0003 T00780056=
201503160553 METAR KBFI 160553Z 14003KT 5SM -RA BR SCT021 BKN026 OVC032 08/06 A3008 RMK AO2 SLP185 P0006 60093 T00780056 10089 20078 51078=
201503160453 METAR KBFI 160453Z 00000KT 6SM -RA SCT009 OVC029 08/05 A3002 RMK AO2 SLP166 P0009 T00830050=
201503160353 METAR KBFI 160353Z 30004KT 3SM -RA SCT009 BKN029 OVC035 08/06 A2994 RMK AO2 PRESRR SLP139 P0026 T00830056=
201503160253 METAR KBFI 160253Z 30006KT 2SM +RA BR SCT008 BKN015 OVC020 08/06 A2985 RMK AO2 PRESRR SLP107 P0034 60052 T00780056 53076=
201503160217 SPECI KBFI 160217Z VRB05KT 2SM RA BKN008 OVC017 08/06 A2979 RMK AO2 VIS 1 1/4V4 P0007=
201503160153 METAR KBFI 160153Z 28008KT 7SM -RA SCT008 BKN020 OVC026 09/06 A2977 RMK AO2 RAE03B24 PRESRR SLP082 P0001 T00890061=
201503160116 SPECI KBFI 160116Z 32004KT 10SM SCT007 BKN012 OVC020 09/07 A2972 RMK AO2 RAE03 P0000=
201503160105 SPECI KBFI 160105Z 21004KT 5SM BR BKN007 BKN012 OVC024 09/07 A2971 RMK AO2 RAE03 P0000=
201503160103 SPECI KBFI 160103Z 23007KT 210V280 5SM BR SCT007 BKN012 OVC024 09/07 A2971 RMK AO2 RAE03 PRESRR P0000=
201503160059 SPECI KBFI 160059Z VRB05KT 5SM -RA BR SCT007 BKN010 OVC023 09/07 A2970 RMK AO2 PRESRR P0000=
201503160053 METAR KBFI 160053Z 27008KT 2 1/2SM -RA BR BKN007 OVC021 09/07 A2970 RMK AO2 PRESRR SLP055 P0017 T00890067=
201503160050 SPECI KBFI 160050Z 30007KT 270V340 2SM -RA BR BKN007 OVC021 09/07 A2970 RMK AO2 VIS 1 1/2V3 PRESRR P0017=
201503160011 SPECI KBFI 160011Z 33008KT 1 1/4SM RA SCT007 BKN021 OVC027 09/06 A2962 RMK AO2 P0005=
201503152353 METAR KBFI 152353Z 32008KT 1 1/2SM -RA BR OVC005 09/07 A2962 RMK AO2 SLP031 P0003 60068 T00890067 10094 20089 56019=
201503152345 SPECI KBFI 152345Z 31008KT 1 3/4SM -RA OVC005 09/07 A2963 RMK AO2 P0002=
201503152253 METAR KBFI 152253Z 33006KT 5SM -RA BR BKN007 OVC014 09/07 A2963 RMK AO2 SLP032 P0006 T00890067=
201503152153 METAR KBFI 152153Z 34006KT 5SM -RA BR BKN007 OVC014 09/07 A2965 RMK AO2 SLP041 P0010 T00940072=
201503152053 METAR KBFI 152053Z 32004KT 3SM RA BR BKN006 OVC014 09/07 A2968 RMK AO2 SLP051 P0019 60049 T00940072 56037=
201503151953 METAR KBFI 151953Z 35006KT 3SM -RA BKN007 BKN012 OVC048 09/07 A2970 RMK AO2 PRESFR SLP056 P0013 T00940067=
201503151853 METAR KBFI 151853Z 35007KT 3SM -RA BKN007 BKN010 OVC014 09/07 A2974 RMK AO2 SLP071 P0017 T00940067=
201503151753 METAR KBFI 151753Z VRB04KT 3SM -RA BKN007 BKN010 OVC028 10/07 A2979 RMK AO2 SLP087 P0014 60066 T01000072 10106 20094 55009=
201503151653 METAR KBFI 151653Z 34006KT 3SM -RA BKN007 BKN010 OVC028 10/07 A2979 RMK AO2 SLP087 P0011 T01000072=
201503151553 METAR KBFI 151553Z 35004KT 3SM -RA BKN007 BKN010 OVC028 10/07 A2980 RMK AO2 SLP090 P0010 T01000067=
201503151543 SPECI KBFI 151543Z 35004KT 3SM -RA BKN007 BKN010 OVC028 10/07 A2980 RMK AO2 P0009=
201503151502 SPECI KBFI 151502Z 02003KT 3SM RA BKN010 BKN013 OVC028 10/07 A2981 RMK AO2 P0003=
201503151453 METAR KBFI 151453Z COR 33004KT 4SM -RA BKN010 BKN023 OVC028 10/07 A2982 RMK AO2 SLP097 P0013 60031 T01000072 55005=
201503151451 SPECI KBFI 151451Z 34003KT 4SM -RA BKN009 OVC025 10/07 A2982 RMK AO2 P0013=
201503151415 SPECI KBFI 151415Z VRB03KT 5SM -RA BR FEW007 BKN016 OVC027 10/08 A2982 RMK AO2 P0002=
201503151402 SPECI KBFI 151402Z 00000KT 5SM -RA BR BKN016 OVC027 10/08 A2982 RMK AO2 P0001=
201503151353 METAR KBFI 151353Z VRB03KT 5SM -RA BR SCT005 BKN014 OVC025 10/08 A2983 RMK AO2 SLP100 P0011 T01000078=
201503151253 METAR KBFI 151253Z 34005KT 4SM -RA OVC007 11/08 A2983 RMK AO2 SLP102 P0007 T01060078=
201503151153 METAR KBFI 151153Z 00000KT 6SM -RA BR FEW007 OVC055 11/08 A2985 RMK AO2 SLP108 P0007 60015 70036 T01060083 10128 20106 58026=
201503151053 METAR KBFI 151053Z 00000KT 8SM -RA OVC050 11/08 A2988 RMK AO2 SLP118 P0004 T01060078=
201503150953 METAR KBFI 150953Z 16004KT 10SM -RA OVC055 11/07 A2991 RMK AO2 SLP128 P0002 T01060072=
201503150853 METAR KBFI 150853Z 17005KT 10SM -RA OVC055 11/07 A2993 RMK AO2 SLP134 P0002 60002 T01110072 58015=
201503150753 METAR KBFI 150753Z 00000KT 10SM -RA OVC055 12/07 A2995 RMK AO2 RAE0655B42 SLP140 P0000 T01220072 401610117=
201503150653 METAR KBFI 150653Z 00000KT 10SM -RA BKN019 OVC080 12/06 A2996 RMK AO2 RAB22 SLP145 P0000 T01220061=
201503150553 METAR KBFI 150553Z 00000KT 10SM BKN017 OVC085 13/07 A2997 RMK AO2 SLP149 T01280067 10150 20128 56004=
201503150453 METAR KBFI 150453Z 05004KT 10SM BKN021 OVC042 13/06 A2997 RMK AO2 SLP149 T01280061=
201503150353 METAR KBFI 150353Z 00000KT 10SM SCT029 BKN038 OVC120 14/08 A2998 RMK AO2 SLP151 T01390083=
201503150253 METAR KBFI 150253Z 00000KT 10SM BKN042 BKN120 13/08 A2998 RMK AO2 SLP153 T01330078 51015=
201503150153 METAR KBFI 150153Z 00000KT 10SM BKN043 OVC120 14/08 A2997 RMK AO2 SLP148 T01390078=
201503150053 METAR KBFI 150053Z 16008KT 10SM SCT030 BKN055 BKN120 14/08 A2996 RMK AO2 SLP144 T01390083=
201503142353 METAR KBFI 142353Z 16008KT 130V200 10SM FEW030 BKN055 BKN120 14/08 A2994 RMK AO2 SLP138 60000 T01440083 10161 20144 53004=
201503142253 METAR KBFI 142253Z 19013G18KT 10SM SCT030 BKN055 BKN120 15/09 A2993 RMK AO2 SLP134 T01500089=
201503142153 METAR KBFI 142153Z 18009G19KT 10SM SCT025 BKN055 BKN120 16/09 A2992 RMK AO2 SLP132 T01560089=
201503142053 METAR KBFI 142053Z 22012G18KT 10SM BKN019 BKN025 BKN055 16/11 A2993 RMK AO2 SLP134 60000 T01610111 51030=
201503141953 METAR KBFI 141953Z COR 19011G24KT 9SM SCT013 BKN019 OVC026 16/11 A2990 RMK AO2 RAE04 SLP124 P0000 T01560111=
201503141900 SPECI KBFI 141900Z 19011G18KT 4SM -RA SCT010 BKN026 OVC032 15/12 A2987 RMK AO2 P0000=
201503141853 METAR KBFI 141853Z 19011G22KT 160V230 6SM -RA SCT010 BKN032 OVC033 15/11 A2987 RMK AO2 RAB02E11B45 SLP115 P0000 T01500111=
201503141753 METAR KBFI 141753Z 17010G21KT 130V200 9SM SCT022 OVC032 16/11 A2984 RMK AO2 RAB1656E07 SLP103 P0000 60021 T01560111 10156 20128 52022=
201503141653 METAR KBFI 141653Z 19009G19KT 8SM FEW019 BKN025 OVC030 15/11 A2981 RMK AO2 RAE35 SLP095 P0001 T01500111=
201503141553 METAR KBFI 141553Z 14006KT 4SM -RA BR FEW015 OVC022 13/11 A2980 RMK AO2 SLP089 P0002 T01330111=
201503141500 METAR KBFI NIL=
201503141453 METAR KBFI 141453Z 13005KT 4SM -RA FEW012 OVC028 13/11 A2977 RMK AO2 SLP081 P0003 60018 T01330106 56020=
201503141353 METAR KBFI 141353Z 14005KT 6SM -RA BR OVC030 13/11 A2978 RMK AO2 SLP084 P0007 T01280106=
201503141253 METAR KBFI 141253Z 15007KT 6SM -RA BR OVC038 13/11 A2980 RMK AO2 SLP091 P0008 T01280106=
201503141153 METAR KBFI 141153Z 14007KT 5SM -RA BR FEW034 OVC060 13/11 A2983 RMK AO2 SLP101 P0009 60051 70051 T01280106 10156 20128 58031=
201503141107 SPECI KBFI 141107Z 13006KT 5SM -RA BR SCT015 SCT042 OVC060 13/11 A2986 RMK AO2 PRESFR P0002=
201503141053 METAR KBFI 141053Z 15007KT 5SM -RA BR SCT013 BKN019 OVC055 13/11 A2988 RMK AO2 SLP116 P0010 T01280106=
201503140953 METAR KBFI 140953Z 16006KT 9SM -RA SCT014 BKN019 OVC024 13/10 A2991 RMK AO2 SLP127 P0014 T01280100=
201503140853 METAR KBFI 140853Z 15008KT 6SM -RA BR BKN023 BKN032 OVC050 13/11 A2992 RMK AO2 SLP132 P0009 60018 T01280106 58015=
201503140820 SPECI KBFI 140820Z 19004KT 4SM -RA SCT017 BKN022 OVC050 13/10 A2994 RMK AO2 P0004=
201503140753 METAR KBFI 140753Z 15003KT 8SM -RA FEW049 OVC060 13/10 A2994 RMK AO2 SLP137 P0005 T01280100 401940100=
201503140653 METAR KBFI 140653Z 23006KT 7SM -RA BKN065 OVC075 14/09 A2997 RMK AO2 SLP149 P0004 T01390094=
201503140553 METAR KBFI 140553Z 25009KT 8SM -RA OVC065 16/09 A2997 RMK AO2 RAB32 SLP147 P0000 60000 T01560094 10194 20156 53004=
201503140453 METAR KBFI 140453Z 23007KT 10SM BKN110 17/08 A2994 RMK AO2 SLP139 T01670078=
201503140353 METAR KBFI 140353Z 15003KT 10SM SCT080 17/09 A2994 RMK AO2 SLP139 T01670089=
201503140253 METAR KBFI 140253Z 15005KT 10SM BKN150 OVC200 17/09 A2995 RMK AO2 SLP143 T01670089 55013=
201503140153 METAR KBFI 140153Z 16010KT 10SM BKN150 OVC200 17/08 A2995 RMK AO2 SLP142 T01720083=
201503140053 METAR KBFI 140053Z 14005KT 10SM BKN150 OVC200 18/09 A2997 RMK AO2 SLP148 T01830089=
201503132353 METAR KBFI 132353Z 00000KT 10SM OVC250 19/07 A2999 RMK AO2 SLP155 T01940067 10194 20139 56023=
201503132253 METAR KBFI 132253Z 33003KT 10SM OVC170 19/06 A3000 RMK AO2 SLP158 T01890056=
201503132153 METAR KBFI 132153Z 35003KT 10SM OVC250 18/06 A3002 RMK AO2 SLP167 T01830056=
201503132053 METAR KBFI 132053Z 33005KT 10SM BKN250 17/07 A3006 RMK AO2 SLP178 T01720072 56025=
201503131953 METAR KBFI 131953Z 33004KT 10SM BKN250 16/07 A3007 RMK AO2 SLP182 T01610067=
201503131853 METAR KBFI 131853Z 00000KT 10SM BKN250 15/07 A3010 RMK AO2 SLP193 T01500072=
201503131753 METAR KBFI 131753Z 00000KT 10SM BKN160 14/07 A3013 RMK AO2 SLP204 T01390067 10139 20100 58019=
201503131653 METAR KBFI 131653Z COR 34003KT 10SM BKN170 13/07 A3017 RMK AO2 SLP216 T01280072 TSNO=
201503131553 METAR KBFI 131553Z 32003KT 10SM SCT160 BKN250 12/07 A3018 RMK AO2 SLP220 T01170067=
201503131453 METAR KBFI 131453Z 00000KT 10SM BKN160 11/07 A3019 RMK AO2 SLP222 T01110067 58016=
201503131353 METAR KBFI 131353Z COR 00000KT 10SM BKN160 BKN230 11/06 A3021 RMK AO2 SLP228 T01110061=
201503131253 METAR KBFI 131253Z 00000KT 10SM CLR 11/07 A3022 RMK AO2 SLP233 T01110067=
201503131153 METAR KBFI 131153Z 00000KT 10SM CLR 11/07 A3024 RMK AO2 SLP238 T01110067 10133 20100 58023=
201503131053 METAR KBFI 131053Z 00000KT 10SM CLR 11/07 A3026 RMK AO2 SLP248 T01110067=
201503130953 METAR KBFI 130953Z 00000KT 10SM CLR 11/06 A3029 RMK AO2 SLP255 T01110061=
201503130853 METAR KBFI 130853Z 13003KT 10SM CLR 11/06 A3030 RMK AO2 SLP261 T01110061 56019=
201503130753 METAR KBFI 130753Z 00000KT 10SM CLR 12/06 A3031 RMK AO2 SLP265 T01170061 401940111=
201503130653 METAR KBFI 130653Z 00000KT 10SM CLR 12/06 A3034 RMK AO2 SLP274 T01220061=
201503130553 METAR KBFI 130553Z 00000KT 10SM CLR 13/06 A3036 RMK AO2 SLP280 T01330061 10189 20128 58003=
201503130453 METAR KBFI 130453Z 00000KT 10SM CLR 14/06 A3037 RMK AO2 SLP282 T01390061=
201503130353 METAR KBFI 130353Z 00000KT 10SM CLR 14/07 A3037 RMK AO2 SLP283 T01390067=
201503130253 METAR KBFI 130253Z 00000KT 10SM SCT250 17/06 A3037 RMK AO2 SLP283 T01720061 55003=
201503130153 METAR KBFI 130153Z 28003KT 10SM SCT250 18/06 A3036 RMK AO2 SLP279 T01780056=
201503130053 METAR KBFI 130053Z VRB03KT 10SM FEW050 SCT250 19/06 A3036 RMK AO2 SLP282 T01890061=
201503122353 METAR KBFI 122353Z 23006KT 10SM CLR 19/06 A3037 RMK AO2 SLP285 T01890061 10194 20156 56016=
201503122253 METAR KBFI 122253Z 20008KT 10SM FEW045 SCT250 19/06 A3039 RMK AO2 SLP290 T01890061=
201503122153 METAR KBFI 122153Z COR 20009G15KT 10SM SCT045 SCT200 18/08 A3040 RMK AO2 SLP293 T01830078=
201503122053 METAR KBFI 122053Z 22006KT 10SM SCT045 SCT200 18/08 A3042 RMK AO2 SLP301 T01830083 50006=
201503121953 METAR KBFI 121953Z 19008KT 10SM SCT035 BKN210 17/08 A3043 RMK AO2 SLP304 T01720083=
201503121853 METAR KBFI 121853Z 24008G16KT 10SM SCT035 BKN210 17/09 A3042 RMK AO2 SLP300 T01670094=
201503121753 METAR KBFI 121753Z 23010G14KT 10SM SCT035 BKN200 16/09 A3040 RMK AO2 SLP295 T01560094 10156 20122 53021=
201503121653 METAR KBFI 121653Z 21007KT 10SM SCT035 BKN200 15/09 A3038 RMK AO2 SLP287 T01500094=
201503121553 METAR KBFI 121553Z 18008KT 10SM SCT027 BKN200 14/09 A3036 RMK AO2 SLP280 T01440094=
201503121453 METAR KBFI 121453Z 17006KT 10SM SCT025 BKN040 13/09 A3034 RMK AO2 SLP274 T01330089 51024=
201503121400 SPECI KBFI 121400Z 16005KT 10SM SCT025 SCT041 12/09 A3033 RMK AO2=
201503121353 METAR KBFI 121353Z COR 16006KT 10SM SCT025 SCT041 13/09 A3032 RMK AO2 SLP267 T01280089=
201503121253 METAR KBFI 121253Z 16007KT 10SM BKN041 13/09 A3030 RMK AO2 SLP258 T01330094=
201503121229 SPECI KBFI 121229Z 16007KT 10SM SCT029 OVC043 13/09 A3028 RMK AO2=
201503121153 METAR KBFI 121153Z 15009KT 10SM BKN027 BKN032 OVC043 13/09 A3027 RMK AO2 SLP250 70008 T01330094 10144 20122 51013=
201503121148 SPECI KBFI 121148Z 16006KT 10SM BKN027 BKN043 13/09 A3027 RMK AO2=
201503121053 METAR KBFI 121053Z 17009KT 10SM FEW026 13/09 A3025 RMK AO2 SLP242 T01330094=
201503120953 METAR KBFI 120953Z 16009KT 10SM FEW033 13/09 A3023 RMK AO2 SLP238 T01330094=
201503120915 SPECI KBFI 120915Z 16007KT 10SM FEW016 BKN031 13/09 A3022 RMK AO2=
201503120853 METAR KBFI 120853Z 16008KT 10SM SCT016 BKN024 BKN034 13/09 A3021 RMK AO2 SLP229 T01330094 51031=
201503120840 SPECI KBFI 120840Z 15008KT 10SM BKN018 BKN024 OVC034 13/09 A3020 RMK AO2=
201503120753 METAR KBFI 120753Z 16010KT 10SM OVC033 14/09 A3019 RMK AO2 SLP221 T01390094 401670106=
201503120653 METAR KBFI 120653Z 17008KT 10SM OVC030 14/10 A3016 RMK AO2 SLP212 T01390100=
201503120553 METAR KBFI 120553Z 16007KT 10SM BKN038 OVC075 14/09 A3012 RMK AO2 SLP198 60003 T01390094 10156 20133 53025=
201503120453 METAR KBFI 120453Z 16006KT 10SM SCT040 BKN050 OVC070 13/10 A3009 RMK AO2 RAE0357 SLP189 P0000 T01330100=
201503120353 METAR KBFI 120353Z 14006KT 10SM -RA OVC050 13/10 A3007 RMK AO2 RAB26 SLP181 P0001 T01330100=
201503120253 METAR KBFI 120253Z 15007KT 10SM BKN060 OVC100 14/10 A3004 RMK AO2 RAE38 SLP173 P0001 60002 T01390100 53018=
201503120153 METAR KBFI 120153Z 16005KT 10SM -RA SCT035 BKN060 OVC070 14/09 A3003 RMK AO2 RAB00 SLP167 P0001 T01390094=
201503120053 METAR KBFI 120053Z 17007KT 10SM SCT040 OVC050 16/09 A3001 RMK AO2 RAB14E27 SLP160 P0000 T01560089=
201503112353 METAR KBFI 112353Z 17005KT 10SM FEW015 OVC048 16/09 A2999 RMK AO2 SLP155 60001 T01560089 10167 20128 53006=
201503112253 METAR KBFI 112253Z 21006KT 10SM BKN048 OVC065 15/10 A2998 RMK AO2 RAB11E53 SLP153 P0001 T01500100=
201503112153 METAR KBFI 112153Z VRB06KT 10SM BKN045 OVC060 16/09 A2998 RMK AO2 SLP151 T01610089=
201503112053 METAR KBFI 112053Z 16007KT 10SM OVC047 17/09 A2997 RMK AO2 SLP149 60000 T01670089 53002=
201503111953 METAR KBFI 111953Z 14007KT 10SM OVC041 15/09 A2997 RMK AO2 SLP148 T01500094=
201503111853 METAR KBFI 111853Z 12005KT 10SM OVC037 14/09 A2996 RMK AO2 RAB03E12 SLP145 P0000 T01390089=
201503111753 METAR KBFI 111753Z 15004KT 8SM OVC036 13/09 A2997 RMK AO2 SLP147 60004 T01280089 10128 20106 51014=
201503111653 METAR KBFI 111653Z 15005KT 10SM OVC044 13/09 A2996 RMK AO2 SLP144 T01280089=
201503111553 METAR KBFI 111553Z 12003KT 10SM FEW050 OVC090 12/09 A2994 RMK AO2 RAE53 SLP138 P0001 T01220089=
201503111453 METAR KBFI 111453Z 15005KT 8SM -RA FEW055 SCT070 OVC090 12/09 A2993 RMK AO2 RAB1358 SLP134 P0002 60003 T01220089 51018=
201503111353 METAR KBFI 111353Z 17005KT 10SM SCT060 OVC085 12/08 A2992 RMK AO2 RAB1256E43 SLP131 P0001 T01220083=
201503111253 METAR KBFI 111253Z 21003KT 10SM OVC080 12/08 A2990 RMK AO2 SLP125 T01220078=
201503111153 METAR KBFI 111153Z 14004KT 10SM BKN085 11/08 A2988 RMK AO2 SLP117 60002 70002 T01060083 10133 20106 55006=
201503111053 METAR KBFI 111053Z 00000KT 10SM SCT090 11/08 A2987 RMK AO2 SLP115 T01060078=
201503110953 METAR KBFI 110953Z 00000KT 10SM OVC100 12/08 A2988 RMK AO2 SLP118 T01220083=
201503110853 METAR KBFI 110853Z 16004KT 10SM OVC100 12/08 A2989 RMK AO2 SLP122 60002 T01220083 58011=
201503110753 METAR KBFI 110753Z 11007KT 10SM BKN070 OVC100 13/09 A2993 RMK AO2 RAE49 SLP135 P0002 T01280089 401560067=
201503110653 METAR KBFI 110653Z 12007KT 10SM -RA OVC070 13/09 A2995 RMK AO2 RAB25 SLP140 P0000 T01280089=
201503110553 METAR KBFI 110553Z 17006KT 10SM CLR 13/08 A2993 RMK AO2 SLP133 T01330078 10156 20128 51040=
201503110453 METAR KBFI 110453Z 17006KT 10SM CLR 14/07 A2990 RMK AO2 SLP124 T01390072=
201503110353 METAR KBFI 110353Z 15007G15KT 10SM CLR 14/06 A2984 RMK AO2 SLP106 T01390056=
201503110253 METAR KBFI 110253Z 16004KT 10SM OVC180 13/05 A2981 RMK AO2 SLP093 T01330050 53009=
201503110153 METAR KBFI 110153Z 16005KT 10SM OVC220 13/05 A2979 RMK AO2 SLP088 T01330050=
201503110053 METAR KBFI 110053Z 27003KT 10SM OVC220 14/05 A2979 RMK AO2 SLP087 T01390050=
201503102353 METAR KBFI 102353Z 34003KT 10SM OVC220 14/06 A2978 RMK AO2 SLP084 T01440056 10150 20083 56015=
201503102253 METAR KBFI 102253Z 33006KT 10SM OVC220 14/05 A2978 RMK AO2 SLP084 T01390050=
201503102153 METAR KBFI 102153Z 33008KT 10SM OVC250 14/06 A2979 RMK AO2 WSHFT 2122 SLP088 T01440056=
201503102142 SPECI KBFI 102142Z 33008KT 10SM OVC220 14/05 A2979 RMK AO2 WSHFT 2122=
201503102053 METAR KBFI 102053Z 32004KT 10SM OVC220 13/05 A2983 RMK AO2 SLP099 T01280050 58026=
201503101953 METAR KBFI 101953Z 30006KT 10SM OVC220 12/05 A2985 RMK AO2 SLP108 T01170050=
201503101853 METAR KBFI 101853Z 00000KT 9SM FEW008 BKN250 11/04 A2988 RMK AO2 SLP118 T01110039=
201503101753 METAR KBFI 101753Z VRB03KT 10SM SCT008 08/04 A2990 RMK AO2 SLP125 T00830039 10083 20067 58019=
201503101653 METAR KBFI 101653Z 00000KT 5SM HZ BKN008 07/03 A2993 RMK AO2 SLP134 T00720033=
201503101553 METAR KBFI 101553Z 04006KT 4SM HZ OVC006 07/04 A2994 RMK AO2 SLP139 T00720039=
201503101453 METAR KBFI 101453Z VRB03KT 1 1/2SM BR OVC004 07/05 A2996 RMK AO2 SLP144 T00720050 56006=
201503101359 SPECI KBFI 101359Z VRB03KT 3SM BR OVC004 07/04 A2996 RMK AO2=
201503101353 METAR KBFI 101353Z VRB04KT 1 1/2SM BR OVC004 07/04 A2996 RMK AO2 SLP144 T00670044=
201503101253 METAR KBFI 101253Z 04004KT 1 1/4SM BR OVC002 07/06 A2996 RMK AO2 SLP146 T00720056=
201503101232 SPECI KBFI 101232Z 00000KT 1SM BR OVC002 07/06 A2997 RMK AO2=
201503101153 METAR KBFI 101153Z 31003KT 3/4SM BR VV002 08/06 A2998 RMK AO2 SLP150 60000 T00780056 10094 20072 56012=
201503101111 SPECI KBFI 101111Z 31004KT 1SM BR VV002 08/06 A2999 RMK AO2=
201503101053 METAR KBFI 101053Z 33005KT 1/2SM FG VV002 08/06 A2999 RMK AO2 SLP154 T00780061=
201503101050 SPECI KBFI 101050Z 35003KT 1/2SM FG VV002 08/06 A2999 RMK AO2=
201503101022 SPECI KBFI 101022Z 00000KT 1SM BR VV002 08/06 A3000 RMK AO2=
201503100953 METAR KBFI 100953Z 36004KT 3/4SM BR VV002 08/06 A3001 RMK AO2 SLP162 T00780056=
201503100939 SPECI KBFI 100939Z 36003KT 1 3/4SM BR OVC002 08/06 A3002 RMK AO2=
201503100917 SPECI KBFI 100917Z 36003KT 4SM BR OVC002 08/06 A3003 RMK AO2=
201503100908 SPECI KBFI 100908Z 00000KT 2SM BR OVC002 08/06 A3003 RMK AO2=
201503100900 SPECI KBFI 100900Z 36003KT 1/2SM FG VV002 07/06 A3004 RMK AO2=
201503100853 METAR KBFI 100853Z 34004KT 1 1/2SM BR VV002 07/06 A3004 RMK AO2 SLP171 60000 T00720056 58008=
201503100805 SPECI KBFI 100805Z 04004KT 1 1/2SM BR VV002 08/06 A3004 RMK AO2=
201503100804 SPECI KBFI 100804Z 04004KT 1 1/2SM BR VV002 08/06 A3004 RMK AO2=
201503100753 METAR KBFI 100753Z AUTO 00000KT 5SM HZ SCT005 08/05 A3004 RMK AO2 RAB37E41 SLP173 P0000 T00830050 401390050=
201503100653 METAR KBFI 100653Z 00000KT 8SM CLR 09/06 A3006 RMK AO2 SLP178 T00890056=
201503100553 METAR KBFI 100553Z 00000KT 8SM CLR 09/06 A3006 RMK AO2 SLP179 T00940061 10139 20094 55000=
201503100453 METAR KBFI 100453Z 00000KT 9SM CLR 10/07 A3006 RMK AO2 SLP178 T01000067=
201503100353 METAR KBFI 100353Z 00000KT 10SM CLR 11/06 A3006 RMK AO2 SLP177 T01060061=
201503100253 METAR KBFI 100253Z 00000KT 10SM CLR 12/06 A3006 RMK AO2 SLP179 T01220056 58008=
201503100153 METAR KBFI 100153Z 32003KT 10SM CLR 13/06 A3007 RMK AO2 SLP181 T01280061=
201503100053 METAR KBFI 100053Z 31004KT 10SM CLR 13/06 A3008 RMK AO2 SLP186 T01330061=
201503092353 METAR KBFI 092353Z 34007KT 10SM CLR 14/06 A3008 RMK AO2 SLP187 T01390061 10139 20122 56008=
201503092253 METAR KBFI 092253Z 32009KT 10SM CLR 13/06 A3009 RMK AO2 SLP187 T01280061=
201503092153 METAR KBFI 092153Z 34010KT 10SM CLR 12/06 A3010 RMK AO2 SLP191 T01220061=
201503092053 METAR KBFI 092053Z 32005KT 10SM FEW005 14/07 A3011 RMK AO2 SLP195 T01390067 58009=
201503092007 SPECI KBFI 092007Z 26005KT 10SM FEW005 13/06 A3013 RMK AO2=
201503091953 METAR KBFI 091953Z COR 25006KT 10SM FEW005 13/07 A3013 RMK AO2 SLP202 T01330067=
201503091853 METAR KBFI 091853Z VRB03KT 10SM FEW006 12/06 A3013 RMK AO2 SLP202 T01220061=
201503091753 METAR KBFI 091753Z 15006KT 10SM FEW006 SCT035 13/06 A3014 RMK AO2 SLP204 T01280061 10128 20050 50004=
201503091653 METAR KBFI 091653Z 16004KT 10SM CLR 10/04 A3014 RMK AO2 SLP205 T01000044=
201503091553 METAR KBFI 091553Z 14005KT 10SM CLR 07/04 A3013 RMK AO2 SLP203 T00720039=
201503091453 METAR KBFI 091453Z 16004KT 10SM CLR 05/02 A3012 RMK AO2 SLP200 T00500022 51004=
201503091408 SPECI KBFI 091408Z 13005KT 10SM FEW007 05/02 A3012 RMK AO2=
201503091353 METAR KBFI 091353Z 15006KT 10SM CLR 05/03 A3012 RMK AO2 SLP199 T00500028=
201503091253 METAR KBFI 091253Z 14005KT 10SM CLR 06/03 A3012 RMK AO2 SLP198 T00560028=
201503091153 METAR KBFI 091153Z 15004KT 10SM CLR 06/04 A3011 RMK AO2 SLP196 T00610039 10111 20056 55002=
201503091053 METAR KBFI 091053Z 00000KT 10SM CLR 07/04 A3011 RMK AO2 SLP195 T00720039=
201503090953 METAR KBFI 090953Z 14003KT 10SM CLR 08/04 A3012 RMK AO2 SLP198 T00780044=
201503090853 METAR KBFI 090853Z 00000KT 10SM CLR 09/05 A3012 RMK AO2 SLP198 T00890050 55002=
201503090753 METAR KBFI 090753Z 00000KT 10SM CLR 09/05 A3011 RMK AO2 SLP196 T00940050 401780028=
201503090653 METAR KBFI 090653Z 00000KT 10SM CLR 11/06 A3011 RMK AO2 SLP197 T01060056=
201503090553 METAR KBFI 090553Z 00000KT 10SM CLR 11/06 A3012 RMK AO2 SLP200 T01060056 10172 20106 53003=
201503090453 METAR KBFI 090453Z 00000KT 10SM CLR 12/06 A3012 RMK AO2 SLP198 T01220061=
201503090353 METAR KBFI 090353Z 00000KT 10SM CLR 13/06 A3012 RMK AO2 SLP198 T01280056=
201503090253 METAR KBFI 090253Z 34003KT 10SM CLR 14/06 A3011 RMK AO2 SLP197 T01440056 55010=
201503090153 METAR KBFI 090153Z 32004KT 10SM CLR 16/05 A3011 RMK AO2 SLP196 T01560050=
201503090053 METAR KBFI 090053Z 31004KT 10SM SCT250 17/04 A3012 RMK AO2 SLP199 T01670044=
201503082353 METAR KBFI 082353Z 31008KT 10SM SCT250 17/04 A3014 RMK AO2 SLP207 T01720044 10178 20111 56020=
201503082253 METAR KBFI 082253Z 33005KT 10SM CLR 17/05 A3015 RMK AO2 SLP211 T01670050=
201503082153 METAR KBFI 082153Z 31005KT 10SM CLR 16/05 A3018 RMK AO2 SLP218 T01610050=
201503082053 METAR KBFI 082053Z 32005KT 10SM CLR 15/06 A3020 RMK AO2 SLP227 T01500056 58013=
201503081953 METAR KBFI 081953Z 30003KT 10SM CLR 14/06 A3022 RMK AO2 SLP233 T01440056=
201503081853 METAR KBFI 081853Z 29003KT 10SM CLR 13/06 A3023 RMK AO2 SLP237 T01280056=
201503081753 METAR KBFI 081753Z 00000KT 10SM CLR 11/06 A3024 RMK AO2 SLP239 60000 T01110056 10111 20028 58003=
201503081653 METAR KBFI 081653Z AUTO 00000KT 10SM CLR 08/04 A3025 RMK AO2 SLP242 T00830044 TSNO=
201503081553 METAR KBFI 081553Z COR 00000KT 10SM CLR 07/04 A3025 RMK AO2 RAB22E34 SLP242 P0000 T00670044=
201503081453 METAR KBFI 081453Z 00000KT 10SM SCT005 03/01 A3025 RMK AO2 SLP242 T00280011 58001=
201503081353 METAR KBFI 081353Z 14003KT 10SM FEW009 04/02 A3025 RMK AO2 SLP244 T00390022=
201503081253 METAR KBFI 081253Z 00000KT 10SM CLR 04/02 A3025 RMK AO2 SLP244 T00440022=
201503081153 METAR KBFI 081153Z 00000KT 9SM CLR 07/04 A3025 RMK AO2 SLP243 T00670039 10111 20061 58003=
201503081053 METAR KBFI 081053Z 00000KT 10SM CLR 07/03 A3026 RMK AO2 SLP245 T00670033=
201503080953 METAR KBFI 080953Z 00000KT 10SM CLR 07/04 A3026 RMK AO2 SLP247 T00720039=
201503080853 METAR KBFI 080853Z 00000KT 10SM CLR 07/03 A3026 RMK AO2 SLP246 T00720033 58002=
201503080753 METAR KBFI 080753Z 00000KT 10SM CLR 08/04 A3026 RMK AO2 SLP247 T00830039 401720022=
201503080653 METAR KBFI 080653Z 00000KT 10SM CLR 11/04 A3027 RMK AO2 SLP250 T01060044=
201503080553 METAR KBFI 080553Z 00000KT 10SM CLR 11/04 A3026 RMK AO2 SLP248 T01110044 10167 20089 53005=
201503080453 METAR KBFI 080453Z 00000KT 10SM CLR 12/05 A3026 RMK AO2 SLP245 T01170050=
201503080353 METAR KBFI 080353Z 00000KT 10SM CLR 12/06 A3025 RMK AO2 SLP244 T01220056=
201503080253 METAR KBFI 080253Z 32004KT 10SM CLR 13/04 A3025 RMK AO2 SLP243 T01330044 55004=
201503080153 METAR KBFI 080153Z 31005KT 10SM CLR 14/04 A3024 RMK AO2 SLP239 T01440044=
201503080053 METAR KBFI 080053Z 31005KT 10SM CLR 16/03 A3025 RMK AO2 SLP243 T01610033=
201503072353 METAR KBFI 072353Z 29006KT 10SM CLR 17/05 A3026 RMK AO2 SLP247 T01670050 10172 20100 56017=
201503072253 METAR KBFI 072253Z 31007KT 10SM CLR 17/04 A3027 RMK AO2 SLP251 T01670044=
201503072153 METAR KBFI 072153Z 31005KT 10SM CLR 17/05 A3028 RMK AO2 SLP254 T01670050=
201503072053 METAR KBFI 072053Z 30004KT 10SM CLR 15/05 A3031 RMK AO2 SLP264 T01500050 58015=
201503071953 METAR KBFI 071953Z 32004KT 10SM CLR 14/05 A3033 RMK AO2 SLP271 T01390050=
201503071853 METAR KBFI 071853Z 00000KT 10SM CLR 13/05 A3035 RMK AO2 SLP276 T01280050=
201503071753 METAR KBFI 071753Z 00000KT 10SM CLR 10/05 A3036 RMK AO2 SLP278 T01000050 10100 20022 58001=
201503071653 METAR KBFI 071653Z 00000KT 10SM CLR 08/04 A3037 RMK AO2 SLP282 T00780039=
201503071553 METAR KBFI 071553Z 00000KT 10SM CLR 05/03 A3037 RMK AO2 SLP282 T00500028=
201503071453 METAR KBFI 071453Z 14003KT 9SM CLR 03/01 A3036 RMK AO2 SLP279 T00330006 51001=
201503071353 METAR KBFI 071353Z 15003KT 9SM CLR 03/01 A3036 RMK AO2 SLP279 T00280006=
201503071253 METAR KBFI 071253Z AUTO 00000KT 10SM CLR 04/02 A3036 RMK AO2 SLP278 T00390017 TSNO=
201503071153 METAR KBFI 071153Z 13003KT 10SM CLR 05/02 A3035 RMK AO2 RAE04 SLP278 P0000 60000 T00500022 10094 20050 58004=
201503071053 METAR KBFI 071053Z 00000KT 10SM -RA CLR 06/03 A3036 RMK AO2 RAB45 SLP279 P0000 T00610033=
201503070953 METAR KBFI 070953Z 00000KT 10SM SCT250 07/02 A3037 RMK AO2 SLP284 T00670022=
201503070853 METAR KBFI 070853Z 00000KT 10SM SCT250 07/03 A3037 RMK AO2 RAB10E19 SLP282 P0000 60000 T00720028 58001=
201503070753 METAR KBFI 070753Z 00000KT 9SM CLR 08/05 A3037 RMK AO2 SLP283 T00830050 401500039=
201503070653 METAR KBFI 070653Z 00000KT 10SM CLR 09/04 A3037 RMK AO2 SLP284 T00890044=
201503070553 METAR KBFI 070553Z 00000KT 10SM CLR 09/03 A3037 RMK AO2 SLP283 T00940033 10150 20089 53004=
201503070453 METAR KBFI 070453Z 00000KT 10SM CLR 10/04 A3036 RMK AO2 SLP281 T01000039=
201503070353 METAR KBFI 070353Z 00000KT 9SM CLR 11/04 A3036 RMK AO2 SLP280 T01060039=
201503070253 METAR KBFI 070253Z 34004KT 10SM CLR 12/04 A3036 RMK AO2 SLP279 T01220039 55003=
201503070153 METAR KBFI 070153Z 00000KT 10SM SCT200 14/03 A3035 RMK AO2 SLP277 T01390028=
201503070053 METAR KBFI 070053Z 33005KT 10SM SCT240 15/03 A3036 RMK AO2 SLP279 T01500028=
201503062353 METAR KBFI 062353Z 30005KT 10SM SCT240 15/03 A3037 RMK AO2 SLP282 T01500028 10150 20094 56016=
201503062253 METAR KBFI 062253Z VRB03KT 10SM SCT250 15/02 A3038 RMK AO2 SLP286 T01500017=
201503062153 METAR KBFI 062153Z 32004KT 10SM CLR 14/03 A3039 RMK AO2 SLP291 T01440028=
201503062053 METAR KBFI 062053Z VRB04KT 10SM BKN250 14/03 A3041 RMK AO2 SLP298 T01390033 58010=
201503061953 METAR KBFI 061953Z 00000KT 10SM BKN250 13/03 A3043 RMK AO2 SLP304 T01330028=
201503061853 METAR KBFI 061853Z 08003KT 10SM BKN200 11/02 A3044 RMK AO2 SLP306 T01110017=
201503061753 METAR KBFI 061753Z 00000KT 10SM BKN200 09/03 A3044 RMK AO2 SLP309 T00940028 10094 20039 51012=
201503061653 METAR KBFI 061653Z 00000KT 10SM BKN200 07/03 A3043 RMK AO2 SLP304 T00720028=
201503061553 METAR KBFI 061553Z 00000KT 10SM BKN210 04/01 A3042 RMK AO2 SLP302 T00440011=
201503061453 METAR KBFI 061453Z 15003KT 10SM BKN240 05/01 A3041 RMK AO2 SLP297 T00500011 51006=
201503061353 METAR KBFI 061353Z 00000KT 10SM BKN240 05/01 A3041 RMK AO2 SLP296 T00500011=
201503061253 METAR KBFI 061253Z 00000KT 10SM CLR 06/02 A3040 RMK AO2 SLP294 T00560022=
201503061153 METAR KBFI 061153Z 00000KT 10SM CLR 05/01 A3039 RMK AO2 SLP290 T00500011 10094 20050 58001=
201503061053 METAR KBFI 061053Z 00000KT 10SM CLR 06/02 A3040 RMK AO2 SLP292 T00560017=
201503060953 METAR KBFI 060953Z 00000KT 10SM CLR 07/02 A3040 RMK AO2 SLP293 T00720022=
201503060853 METAR KBFI 060853Z 00000KT 10SM CLR 08/03 A3039 RMK AO2 SLP292 T00780028 58001=
201503060753 METAR KBFI 060753Z 00000KT 10SM CLR 08/03 A3040 RMK AO2 SLP293 T00780033 401500028=
201503060653 METAR KBFI 060653Z 00000KT 10SM CLR 09/04 A3040 RMK AO2 SLP293 T00890039=
201503060553 METAR KBFI 060553Z 34003KT 10SM CLR 09/02 A3040 RMK AO2 SLP293 T00940017 10144 20089 51008=
201503060453 METAR KBFI 060453Z 00000KT 10SM CLR 10/02 A3039 RMK AO2 SLP290 T01000022=
201503060353 METAR KBFI 060353Z 00000KT 10SM CLR 11/03 A3038 RMK AO2 SLP288 T01110033=
201503060253 METAR KBFI 060253Z 00000KT 10SM BKN250 13/01 A3037 RMK AO2 SLP285 T01280006 53003=
201503060153 METAR KBFI 060153Z 00000KT 10SM OVC250 14/00 A3037 RMK AO2 SLP282 T01390000=
201503060053 METAR KBFI 060053Z COR 36004KT 10SM OVC230 14/M01 A3037 RMK AO2 SLP283 T01441011=
201503052353 METAR KBFI 052353Z 27004KT 10SM BKN250 14/M02 A3036 RMK AO2 SLP281 T01441017 10150 20089 55003=
201503052253 METAR KBFI 052253Z 34004KT 10SM CLR 15/M03 A3036 RMK AO2 SLP279 T01501033=
201503052153 METAR KBFI 052153Z 32003KT 10SM BKN250 14/00 A3036 RMK AO2 SLP279 T01440000=
201503052053 METAR KBFI 052053Z 00000KT 10SM BKN250 14/M01 A3037 RMK AO2 SLP284 T01441006 58008=
201503051953 METAR KBFI 051953Z 00000KT 10SM CLR 12/M02 A3039 RMK AO2 SLP289 T01221017=
201503051853 METAR KBFI 051853Z 00000KT 10SM FEW140 SCT250 11/M01 A3039 RMK AO2 SLP290 T01061011=
201503051753 METAR KBFI 051753Z 00000KT 10SM BKN230 09/02 A3039 RMK AO2 SLP292 T00890017 10089 20028 51016=
201503051653 METAR KBFI 051653Z 00000KT 10SM BKN250 06/00 A3039 RMK AO2 SLP289 T00610000=
201503051553 METAR KBFI 051553Z 14004KT 10SM BKN250 04/M01 A3037 RMK AO2 SLP282 T00391006=
201503051453 METAR KBFI 051453Z 14003KT 10SM BKN170 03/M02 A3035 RMK AO2 SLP276 T00331017 53013=
201503051353 METAR KBFI 051353Z 14004KT 10SM BKN190 03/M02 A3033 RMK AO2 SLP270 T00331017=
201503051253 METAR KBFI 051253Z 14005KT 10SM CLR 03/M02 A3032 RMK AO2 SLP268 T00331017=
201503051153 METAR KBFI 051153Z 11003KT 10SM CLR 04/M02 A3031 RMK AO2 SLP263 T00441017 10078 20028 50000=
201503051053 METAR KBFI 051053Z 15003KT 10SM CLR 03/M02 A3031 RMK AO2 SLP265 T00331017=
201503050953 METAR KBFI 050953Z 00000KT 10SM CLR 04/M02 A3032 RMK AO2 SLP265 T00441017=
201503050853 METAR KBFI 050853Z AUTO 16004KT 10SM CLR 05/M02 A3031 RMK AO2 SLP263 T00501017 50001 TSNO=
201503050753 METAR KBFI 050753Z AUTO 00000KT 10SM CLR 06/M02 A3031 RMK AO2 SLP264 T00611017 401331006 TSNO=
201503050653 METAR KBFI 050653Z 00000KT 10SM CLR 07/M03 A3031 RMK AO2 SLP262 T00721028=
201503050553 METAR KBFI 050553Z 00000KT 10SM CLR 08/M02 A3030 RMK AO2 SLP261 T00781017 10133 20072 51008=
201503050453 METAR KBFI 050453Z 00000KT 10SM CLR 08/M03 A3029 RMK AO2 SLP258 T00781033=
201503050353 METAR KBFI 050353Z 00000KT 10SM SCT250 10/M05 A3029 RMK AO2 SLP257 T01001050=
201503050253 METAR KBFI 050253Z 00000KT 10SM CLR 11/M06 A3028 RMK AO2 SLP252 T01111056 55000=
201503050153 METAR KBFI 050153Z 33003KT 10SM SCT250 12/M06 A3026 RMK AO2 SLP247 T01221056=
201503050053 METAR KBFI 050053Z 31004KT 10SM SCT250 13/M06 A3027 RMK AO2 SLP250 T01281061=
201503042353 METAR KBFI 042353Z 31005KT 10SM FEW250 13/M06 A3028 RMK AO2 SLP253 T01331056 10133 20067 56007=
201503042253 METAR KBFI 042253Z VRB03KT 10SM CLR 13/M06 A3028 RMK AO2 SLP254 T01331061=
201503042153 METAR KBFI 042153Z 33009KT 10SM CLR 12/M07 A3029 RMK AO2 SLP256 T01221072=
201503042053 METAR KBFI 042053Z 32007KT 10SM CLR 12/M06 A3030 RMK AO2 SLP260 T01171061 56008=
201503041953 METAR KBFI 041953Z 00000KT 10SM CLR 11/M04 A3031 RMK AO2 SLP264 T01061044=
201503041853 METAR KBFI 041853Z 00000KT 10SM CLR 08/M04 A3031 RMK AO2 SLP264 T00831039=
201503041753 METAR KBFI 041753Z 00000KT 10SM CLR 07/M03 A3032 RMK AO2 SLP268 T00671033 10067 21006 51008=
201503041653 METAR KBFI 041653Z 00000KT 10SM CLR 04/M03 A3032 RMK AO2 SLP267 T00391028=
201503041553 METAR KBFI 041553Z 14003KT 10SM CLR 01/M03 A3031 RMK AO2 SLP263 T00061033=
201503041453 METAR KBFI 041453Z 00000KT 10SM CLR 01/M04 A3030 RMK AO2 SLP260 T00061044 52006=
201503041353 METAR KBFI 041353Z 14003KT 10SM CLR 00/M04 A3030 RMK AO2 SLP258 T00001044=
201503041253 METAR KBFI 041253Z 00000KT 10SM CLR 01/M04 A3029 RMK AO2 SLP255 T00061039=
201503041153 METAR KBFI 041153Z 00000KT 10SM CLR 01/M04 A3028 RMK AO2 SLP254 T00111039 10050 20000 50001=
201503041053 METAR KBFI 041053Z 00000KT 10SM CLR 01/M04 A3029 RMK AO2 SLP255 T00111039=
201503040953 METAR KBFI 040953Z 14003KT 10SM CLR 01/M05 A3029 RMK AO2 SLP255 T00061050=
201503040853 METAR KBFI 040853Z 14003KT 10SM CLR 01/M04 A3028 RMK AO2 SLP253 T00111044 52008=
201503040753 METAR KBFI 040753Z 00000KT 10SM CLR 02/M04 A3027 RMK AO2 SLP250 T00221044 401170000=
201503040653 METAR KBFI 040653Z 00000KT 10SM CLR 04/M04 A3026 RMK AO2 SLP248 T00391044=
201503040553 METAR KBFI 040553Z 00000KT 10SM CLR 05/M05 A3025 RMK AO2 SLP244 T00501050 10117 20050 53008=
201503040453 METAR KBFI 040453Z 00000KT 10SM CLR 05/M06 A3024 RMK AO2 SLP239 T00501061=
201503040353 METAR KBFI 040353Z 00000KT 10SM SCT250 07/M07 A3023 RMK AO2 SLP236 T00671067=
201503040253 METAR KBFI 040253Z 33003KT 10SM FEW250 09/M07 A3023 RMK AO2 SLP237 T00941067 53001=
201503040153 METAR KBFI 040153Z 31004KT 10SM FEW250 10/M10 A3023 RMK AO2 SLP235 T01001100=
201503040053 METAR KBFI 040053Z 32004KT 10SM BKN250 11/M11 A3022 RMK AO2 SLP234 T01061111=
201503032353 METAR KBFI 032353Z 30004KT 10SM SCT230 11/M12 A3023 RMK AO2 SLP235 T01111122 10117 20078 56006=
201503032253 METAR KBFI 032253Z 33005KT 10SM SCT250 11/M08 A3023 RMK AO2 SLP235 T01111083=
201503032153 METAR KBFI 032153Z 31005KT 10SM FEW200 11/M07 A3023 RMK AO2 SLP236 T01111072=
201503032053 METAR KBFI 032053Z 34008KT 10SM CLR 11/M10 A3025 RMK AO2 SLP241 T01061100 58008=
201503031953 METAR KBFI 031953Z 00000KT 10SM SCT200 10/M03 A3026 RMK AO2 SLP246 T01001033=
201503031853 METAR KBFI 031853Z 07003KT 10SM CLR 09/M01 A3026 RMK AO2 SLP248 T00891006=
201503031753 METAR KBFI 031753Z 00000KT 10SM CLR 07/00 A3027 RMK AO2 SLP249 T00720000 10078 20000 53013=
201503031653 METAR KBFI 031653Z 14005KT 10SM CLR 04/00 A3026 RMK AO2 SLP245 T00440000=
201503031553 METAR KBFI 031553Z 00000KT 10SM FEW200 02/M01 A3024 RMK AO2 SLP238 T00221011=
201503031453 METAR KBFI 031453Z 17005KT 10SM CLR 01/M02 A3023 RMK AO2 SLP236 T00061022 51004=
201503031353 METAR KBFI 031353Z 16007KT 10SM CLR 00/M03 A3023 RMK AO2 SLP235 T00001028=
201503031253 METAR KBFI 031253Z 13003KT 10SM CLR 02/M01 A3022 RMK AO2 SLP234 T00221011=
201503031153 METAR KBFI 031153Z 14005KT 10SM CLR 02/M01 A3022 RMK AO2 SLP232 T00221011 10089 20017 53014=
201503031053 METAR KBFI 031053Z 12003KT 10SM CLR 03/M01 A3020 RMK AO2 SLP226 T00331006=
201503030953 METAR KBFI 030953Z 00000KT 10SM CLR 03/M01 A3018 RMK AO2 SLP220 T00331006=
201503030853 METAR KBFI 030853Z 00000KT 10SM CLR 04/M01 A3018 RMK AO2 SLP218 T00391006 51020=
201503030753 METAR KBFI 030753Z 00000KT 10SM CLR 04/M01 A3016 RMK AO2 SLP212 T00391006 401220033=
201503030653 METAR KBFI 030653Z 00000KT 10SM CLR 08/01 A3014 RMK AO2 SLP205 T00830011=
201503030553 METAR KBFI 030553Z 00000KT 10SM CLR 09/01 A3012 RMK AO2 SLP197 T00890006 10122 20089 53015=
201503030453 METAR KBFI 030453Z 00000KT 10SM CLR 09/00 A3010 RMK AO2 SLP191 T00890000=
201503030353 METAR KBFI 030353Z 00000KT 10SM CLR 09/M01 A3008 RMK AO2 SLP186 T00941011=
201503030253 METAR KBFI 030253Z 00000KT 10SM SCT070 10/M02 A3007 RMK AO2 SLP182 T01001017 53010=
201503030153 METAR KBFI 030153Z VRB05KT 10SM FEW035 SCT070 11/M01 A3005 RMK AO2 SLP177 T01111006=
201503030053 METAR KBFI 030053Z 35008G20KT 10SM FEW160 12/M02 A3005 RMK AO2 SLP175 T01171022=
201503022353 METAR KBFI 022353Z COR 33010G17KT 10SM FEW040 12/M01 A3004 RMK AO2 SLP172 T01221006 10122 20089 53002=
201503022253 METAR KBFI 022253Z 34010G14KT 10SM SCT015 12/01 A3002 RMK AO2 SLP166 T01220011=
201503022153 METAR KBFI 022153Z 36009G17KT 340V040 10SM SCT030 12/01 A3003 RMK AO2 SLP167 T01170011=
201503022053 METAR KBFI 022053Z 33009G17KT 10SM BKN026 11/02 A3003 RMK AO2 SLP170 T01110022 58004=
201503021953 METAR KBFI 021953Z 33009G16KT 10SM BKN026 09/02 A3005 RMK AO2 SLP174 T00940022=
201503021853 METAR KBFI 021853Z 33007KT 10SM BKN026 09/02 A3005 RMK AO2 SLP174 T00940017=
201503021753 METAR KBFI 021753Z 33006KT 10SM OVC024 09/02 A3005 RMK AO2 SLP174 T00890017 10089 20072 51010=
201503021653 METAR KBFI 021653Z VRB04KT 10SM SCT020 BKN065 08/02 A3004 RMK AO2 SLP172 T00830017=
201503021553 METAR KBFI 021553Z 01005KT 10SM FEW018 SCT065 BKN085 08/02 A3004 RMK AO2 SLP170 T00780017=
201503021512 SPECI KBFI 021512Z 35005KT 10SM SCT018 BKN065 BKN085 07/02 A3003 RMK AO2=
201503021453 METAR KBFI 021453Z 35005KT 10SM BKN020 OVC065 08/02 A3002 RMK AO2 SLP164 T00780022 51009=
201503021353 METAR KBFI 021353Z 35005KT 10SM SCT025 OVC065 08/02 A3001 RMK AO2 SLP162 T00780022=
201503021253 METAR KBFI 021253Z 35007KT 10SM SCT018 OVC060 08/02 A3000 RMK AO2 SLP158 T00780022=
201503021153 METAR KBFI 021153Z 34008G15KT 10SM OVC060 08/02 A2999 RMK AO2 SLP155 60000 T00780022 10089 20078 55001=
201503021053 METAR KBFI 021053Z 35005KT 10SM OVC060 08/01 A2998 RMK AO2 SLP153 T00830011=
201503020953 METAR KBFI 020953Z 34004KT 10SM OVC065 08/01 A2999 RMK AO2 SLP155 T00780011=
201503020853 METAR KBFI 020853Z VRB04KT 10SM FEW050 OVC075 08/02 A2999 RMK AO2 RAB0758E22 SLP155 P0000 60000 T00780017 52000=
201503020753 METAR KBFI 020753Z 01003KT 10SM BKN050 OVC080 08/02 A2999 RMK AO2 SLP156 T00830017 401280000=
201503020653 METAR KBFI 020653Z VRB04KT 10SM FEW070 OVC085 08/02 A2999 RMK AO2 SLP154 T00830017=
201503020553 METAR KBFI 020553Z VRB03KT 10SM FEW075 OVC090 09/01 A2999 RMK AO2 SLP155 T00890006 10122 20089 53000=
201503020453 METAR KBFI 020453Z 00000KT 10SM OVC095 09/M01 A2998 RMK AO2 SLP153 T00941006=
201503020353 METAR KBFI 020353Z 36003KT 10SM OVC100 10/00 A2998 RMK AO2 SLP152 T01000000=
201503020253 METAR KBFI 020253Z 00000KT 10SM BKN110 11/01 A2999 RMK AO2 SLP155 T01110011 56019=
201503020153 METAR KBFI 020153Z 00000KT 10SM BKN120 12/M02 A3000 RMK AO2 SLP159 T01171017=
201503020058 SPECI KBFI 020058Z 00000KT 10SM OVC120 12/M02 A3002 RMK AO2=
201503020053 METAR KBFI 020053Z COR 00000KT 10SM OVC012 12/M02 A3002 RMK AO2 SLP166 T01221022=
201503012353 METAR KBFI 012353Z 00000KT 10SM OVC140 12/M02 A3005 RMK AO2 SLP174 T01221022 10128 20089 56028=
201503012253 METAR KBFI 012253Z 20005KT 10SM BKN140 OVC200 12/M03 A3007 RMK AO2 SLP182 T01221033=
201503012153 METAR KBFI 012153Z VRB05KT 10SM OVC200 12/M02 A3010 RMK AO2 SLP191 T01221017=
201503012053 METAR KBFI 012053Z 20004KT 10SM BKN200 12/M01 A3013 RMK AO2 SLP202 T01221011 58029=
201503011953 METAR KBFI 011953Z 19003KT 10SM BKN200 12/M01 A3017 RMK AO2 SLP216 T01221006=
201503011853 METAR KBFI 011853Z AUTO 00000KT 10SM SCT250 11/M01 A3019 RMK AO2 SLP224 T01061006 TSNO=
201503011753 METAR KBFI 011753Z 17004KT 10SM SCT250 09/M01 A3022 RMK AO2 SLP231 T00891011 10089 20000 58008=
201503011653 METAR KBFI 011653Z 15003KT 10SM CLR 06/00 A3024 RMK AO2 SLP238 T00560000=
201503011553 METAR KBFI 011553Z 14004KT 10SM CLR 02/M01 A3025 RMK AO2 SLP242 T00221011=
201503011453 METAR KBFI 011453Z 14006KT 10SM CLR 02/M02 A3024 RMK AO2 SLP240 T00171017 58000=
201503011353 METAR KBFI 011353Z 13003KT 10SM CLR 03/M01 A3025 RMK AO2 SLP243 T00281011=
201503011253 METAR KBFI 011253Z 14003KT 10SM CLR 02/M02 A3025 RMK AO2 SLP241 T00221017=
201503011153 METAR KBFI 011153Z 16005KT 10SM CLR 02/M02 A3024 RMK AO2 SLP240 T00171022 10067 20017 58005=
201503011053 METAR KBFI 011053Z 15003KT 10SM CLR 02/M02 A3025 RMK AO2 SLP243 T00171022=
201503010953 METAR KBFI 010953Z 00000KT 10SM CLR 04/M01 A3026 RMK AO2 SLP247 T00441011=
201503010853 METAR KBFI 010853Z 15003KT 10SM CLR 04/M01 A3026 RMK AO2 SLP245 T00441011 53007=
201503010753 METAR KBFI 010753Z 16005KT 10SM CLR 03/M02 A3024 RMK AO2 SLP240 T00281017 401390028=
201503010653 METAR KBFI 010653Z 00000KT 10SM CLR 06/M02 A3024 RMK AO2 SLP240 T00561022=
201503010553 METAR KBFI 010553Z 00000KT 10SM CLR 06/M03 A3023 RMK AO2 SLP238 T00611028 10139 20061 51010=
201503010453 METAR KBFI 010453Z 00000KT 10SM CLR 08/M03 A3023 RMK AO2 SLP235 T00781033=
201503010353 METAR KBFI 010353Z 00000KT 10SM CLR 09/M04 A3021 RMK AO2 SLP231 T00941044=
201503010253 METAR KBFI 010253Z 00000KT 10SM CLR 10/M05 A3020 RMK AO2 SLP227 T01001050 53007=
201503010153 METAR KBFI 010153Z 34005KT 10SM CLR 12/M04 A3019 RMK AO2 SLP222 T01171039=
201503010053 METAR KBFI 010053Z VRB05KT 10SM CLR 13/M07 A3018 RMK AO2 SLP219 T01331072=

# No short TAF reports from KBFI in databse.

###################################
#  large TAF from KBFI
###################################
201503312324 TAF KBFI 312324Z 0100/0124 06007KT P6SM VCSH SCT030 BKN050
                      TEMPO 0100/0103 -SHRA BKN030 BKN050 FM010300
                       17007KT P6SM VCSH SCT035 BKN050 FM011200
                       17006KT P6SM BKN035 BKN050 FM012000 19008KT
                       P6SM -SHRA BKN040 BKN060=
201503311855 TAF AMD KBFI 311855Z 3119/0118 VRB05KT P6SM VCSH SCT030 BKN045
                       FM312100 21010KT P6SM VCSH SCT030 BKN045
                       TEMPO 3122/0102 -SHRA BKN025 BKN045 FM010300
                       17007KT P6SM VCSH SCT035 BKN060=
201503311739 TAF KBFI 311739Z 3118/0118 VRB05KT P6SM VCSH BKN025 BKN200 FM312000
                       21010KT P6SM VCSH SCT030 BKN060 BKN200
                      TEMPO 3122/0102 -SHRA BKN025 OVC060 FM010300
                       17007KT P6SM VCSH SCT035 BKN060=
201503311331 TAF AMD KBFI 311331Z 3114/0112 18006KT P6SM BKN023 BKN100
                      TEMPO 3114/3118 -SHRA SCT023 BKN100 FM311900
                       21013G21KT P6SM VCSH SCT035 BKN060 BKN090
                       TEMPO 3122/0102 -SHRA BKN030 OVC060 FM010300
                       17007KT P6SM VCSH SCT035 BKN060 BKN090=
201503311130 TAF KBFI 311130Z 3112/0112 21014G22KT P6SM SCT018 BKN070 BKN110
                       TEMPO 3114/3118 -SHRA BKN024 OVC030 FM311900
                       21013G21KT P6SM VCSH SCT035 BKN060 BKN090
                       TEMPO 3122/0102 -SHRA BKN030 OVC060 FM010300
                       17007KT P6SM VCSH SCT035 BKN060 BKN090=
201503310520 TAF KBFI 310520Z 3106/0106 18005KT P6SM -RA BKN060 OVC090 FM310700
                       16008KT P6SM -RA BKN045 OVC070 FM310900
                       18012KT P6SM -RA BKN025 OVC045 FM311400
                       20010G18KT P6SM VCSH SCT025 BKN040 BKN070
                       FM311900 20010G20KT P6SM -SHRA BKN040 BKN060=
201503302320 TAF KBFI 302320Z 3100/3124 19007KT P6SM BKN200 FM310300 18007KT
                       P6SM BKN050 BKN200 FM310600 16008KT P6SM
                       -RA BKN045 OVC070 FM310900 18012KT P6SM
                       -RA BKN025 OVC045 FM311400 20010G18KT P6SM
                       VCSH SCT025 BKN040 BKN070 FM311900 20010G20KT
                       P6SM -SHRA BKN040 BKN060=
201503301734 TAF KBFI 301734Z 3018/3118 18008KT P6SM SCT050 BKN200 FM310000
                       18008KT P6SM BKN050 BKN070 FM310400 15008KT
                       P6SM -RA OVC045 FM310800 18010G20KT P6SM
                       -RA OVC021 FM311400 18010G20KT P6SM VCSH
                       SCT022 BKN045 BKN070=
201503301125 TAF KBFI 301125Z 3012/3112 18005KT P6SM FEW060 OVC080 FM301700
                       19007KT P6SM SCT045 BKN100 OVC200 FM310400
                       16008KT P6SM -RA OVC050 FM310800 20014G22KT
                       P6SM -RA OVC021=
201503300530 TAF KBFI 300530Z 3006/3106 20006KT P6SM OVC045 FM301700 19008KT
                       P6SM SCT050 BKN100 OVC200 FM310300 19012G18KT
                       P6SM -RA OVC025=
201503292328 TAF KBFI 292328Z 3000/3024 18007KT P6SM BKN050 OVC100 FM300600
                       16005KT P6SM SCT050 BKN100 OVC200 FM301700
                       19008KT P6SM SCT050 BKN100 OVC200=
201503291733 TAF KBFI 291733Z 2918/3018 17009KT P6SM BKN040 OVC100 FM300400
                       17005KT P6SM OVC050=
201503291120 TAF KBFI 291120Z 2912/3012 17006KT P6SM SCT040 OVC100 FM292000
                       19008KT P6SM SCT060 BKN120 OVC250 FM300900
                       15004KT P6SM OVC050=
201503290520 TAF KBFI 290520Z 2906/3006 17006KT P6SM BKN060 OVC100 FM291200
                       15006KT P6SM SCT060 OVC100 FM292000 19008KT
                       P6SM SCT060 BKN120 OVC250=
201503282320 TAF KBFI 282320Z 2900/2924 20010G18KT P6SM SCT050 BKN100 FM290200
                       18006KT P6SM BKN050 OVC100 FM290600 16006KT
                       P6SM BKN050 OVC080=
201503281736 TAF KBFI 281736Z 2818/2918 20012G18KT P6SM SCT026 BKN090
                      TEMPO 2818/2820 BKN026 BKN090 FM282100 21010KT
                       P6SM SCT030 BKN090 FM290100 18007KT P6SM
                       BKN060 OVC080 FM290600 16007KT P6SM OVC050=
201503281524 TAF AMD KBFI 281524Z 2815/2912 20010G18KT P6SM BKN022 FM281800
                       21010G16KT P6SM BKN030 FM290400 VRB03KT
                       P6SM BKN060 BKN080 OVC180 FM291000 VRB03KT
                       P6SM OVC080=
201503281130 TAF KBFI 281130Z 2812/2912 20012G18KT P6SM VCSH SCT019 SCT024 BKN090
                       TEMPO 2812/2816 BKN019 BKN030 FM282000 21010G16KT
                       P6SM VCSH SCT021 BKN035 BKN060 FM290400
                       VRB03KT P6SM SCT045 BKN080 OVC180 FM291000
                       VRB03KT P6SM OVC080=
201503280530 TAF KBFI 280530Z 2806/2906 21013G22KT P6SM SCT015 BKN040 OVC060
                       TEMPO 2806/2810 P6SM -RA SCT015 OVC026 FM281000
                       21013G22KT P6SM -SHRA BKN021 OVC030 FM282000
                       21008KT P6SM VCSH SCT021 BKN040 BKN060=
201503272320 TAF KBFI 272320Z 2800/2824 26006KT P6SM SCT040 BKN100 FM280300
                       22010KT P6SM BKN040 OVC080
                      TEMPO 2804/2808 -RA OVC035 FM280800 22010KT
                       P6SM -SHRA BKN025 BKN050 FM281200 20007KT
                       P6SM VCSH BKN035 FM281800 20007KT P6SM SCT040=
201503271720 TAF KBFI 271720Z 2718/2818 16006KT P6SM BKN150 FM272200 17006KT
                       P6SM BKN040 BKN120 FM280300 20010KT P6SM
                       -RA BKN025 OVC040 FM281200 21010KT P6SM
                       -SHRA BKN020 BKN035 FM281700 23007KT P6SM
                       VCSH BKN030 BKN050=
201503271132 TAF KBFI 271132Z 2712/2812 00000KT P6SM FEW015 FEW250 FM271500
                       16003KT P6SM SCT015 FM271800 20006KT P6SM
                       SCT030 BKN250 FM272100 22010KT P6SM BKN030
                       BKN070 OVC120 FM280000 20008KT P6SM OVC035
                       FM280500 20012KT P6SM -RA SCT020 OVC030=
201503271044 TAF AMD KBFI 271044Z 2711/2806 00000KT P6SM FEW250 FM271200 00000KT
                       P6SM FEW015 FEW250 FM271800 20006KT P6SM
                       SCT030 BKN250 FM272100 22010KT P6SM BKN030
                       BKN070 OVC120 FM280000 20008KT P6SM OVC035=
201503270550 TAF KBFI 270550Z 2706/2806 32003KT P6SM FEW035 SCT250 FM270900
                       VRB03KT P6SM BKN200 FM271000 15004KT P6SM
                       BKN020 BKN200 FM271800 20006KT P6SM SCT030
                       BKN120 BKN200 FM272100 22010KT P6SM BKN030
                       BKN070 OVC120 FM280000 20008KT P6SM OVC035=
201503262323 TAF KBFI 262323Z 2700/2724 VRB04KT P6SM FEW035 SCT150 BKN200 FM271000
                       15004KT P6SM BKN020 BKN200 FM271800 20006KT
                       P6SM SCT030 BKN120 BKN200 FM272100 22010KT
                       P6SM BKN030 BKN070 OVC120=
201503261720 TAF KBFI 261720Z 2618/2718 24005KT P6SM FEW035 SCT150 BKN200 FM262100
                       24004KT P6SM SCT150 BKN200 FM270300 VRB04KT
                       P6SM BKN200 FM271200 15004KT P6SM BKN020
                       BKN200=
201503261137 TAF KBFI 261137Z 2612/2712 17006KT P6SM FEW010 OVC070
                      TEMPO 2612/2615 5SM BR BKN010 OVC070 FM261700
                       15005KT P6SM FEW035 OVC070 FM262200 24004KT
                       P6SM BKN150 FM270300 VRB04KT P6SM BKN200=
201503260551 TAF KBFI 260551Z 2606/2706 17010KT P6SM -RA FEW010 OVC020 FM261200
                       17006KT P6SM OVC020 FM261700 15005KT P6SM
                       BKN035 OVC080 FM262200 24004KT P6SM SCT040
                       BKN150 FM270300 VRB04KT P6SM BKN200=
201503260041 TAF AMD KBFI 260041Z 2601/2624 17012KT P6SM VCSH OVC025
                      TEMPO 2601/2603 17012G22KT -RA FM260500 17006KT
                       P6SM BKN030 OVC100 FM261800 16005KT P6SM
                       BKN035 OVC120 FM262100 24004KT P6SM SCT040
                       BKN150=
201503252323 TAF KBFI 252323Z 2600/2624 17010KT P6SM -RA OVC030 FM260500 17006KT
                       P6SM BKN030 OVC100 FM261800 16005KT P6SM
                       BKN035 OVC120 FM262100 24004KT P6SM SCT040
                       BKN150=
201503251721 TAF KBFI 251721Z 2518/2618 14009KT P6SM -RA OVC030 FM252000 18010KT
                       P6SM -RA OVC030 FM260300 16005KT P6SM BKN040
                       OVC080=
201503251120 TAF KBFI 251120Z 2512/2612 14005KT P6SM -RA OVC040 FM251400 14005KT
                       P6SM -RA OVC030 FM252000 18010KT P6SM -RA
                       OVC030 FM260300 16005KT P6SM BKN040 OVC080=
201503250520 TAF KBFI 250520Z 2506/2606 14007KT P6SM SCT070 BKN120 OVC150 FM250800
                       15007KT P6SM -RA BKN040 OVC070 FM251200
                       15007KT P6SM -RA OVC025 FM251800 18010KT
                       P6SM -RA OVC030 FM260300 17006KT P6SM BKN040
                       OVC080=
201503242320 TAF KBFI 242320Z 2500/2524 19009KT P6SM FEW050 SCT070 BKN200 FM250300
                       18007KT P6SM SCT050 BKN070 OVC200 FM250800
                       15007KT P6SM -RA BKN040 OVC070 FM251200
                       15007KT P6SM -RA OVC025 FM251800 18010KT
                       P6SM -RA OVC030=
201503241733 TAF KBFI 241733Z 2418/2518 17008KT P6SM FEW012 BKN020 BKN045 FM242000
                       22009KT P6SM SCT030 BKN050 FM250100 22006KT
                       P6SM SCT045 BKN100 OVC200 FM250800 15007KT
                       P6SM -RA BKN040 OVC070 FM251200 15007KT
                       P6SM -RA OVC030=
201503241129 TAF KBFI 241129Z 2412/2512 00000KT P6SM -RA SCT007 OVC035
                      TEMPO 2412/2415 BKN007 OVC035 FM241500 19005KT
                       P6SM -SHRA SCT015 OVC030
                      TEMPO 2415/2419 BKN015 OVC030 FM241900 21008KT
                       P6SM VCSH SCT025 BKN050 FM250100 21005KT
                       P6SM SCT050 BKN100=
201503240525 TAF KBFI 240525Z 2406/2506 13006KT P6SM SCT040 BKN160 FM240900
                       VRB04KT P6SM SCT035 OVC070
                      TEMPO 2410/2414 -RA BKN025 OVC050 FM241400
                       19006KT P6SM -RA OVC020 FM241900 21009KT
                       P6SM SCT025 BKN050 FM250100 21005KT P6SM
                       SCT050 BKN100=
201503240114 TAF AMD KBFI 240114Z 2401/2424 19011KT P6SM SCT022 BKN040 OVC110
                       TEMPO 2401/2404 -SHRA FM240400 21008KT P6SM
                       VCSH BKN030 BKN040 FM240900 20005KT P6SM
                       -RA BKN035 OVC070 FM241500 19008KT P6SM
                       OVC030=
201503232326 TAF KBFI 232326Z 2400/2424 21011KT P6SM -SHRA SCT018 BKN035 BKN060
                       TEMPO 2400/2404 BKN030 FM240400 21008KT
                       P6SM VCSH BKN030 BKN040 FM240900 20005KT
                       P6SM -RA BKN035 OVC070 FM241500 19008KT
                       P6SM OVC030=
201503231725 TAF KBFI 231725Z 2318/2418 16004KT P6SM -SHRA SCT025 BKN050 OVC100
                       FM232000 18009KT P6SM -SHRA BKN035 OVC045
                       FM240300 19007KT P6SM OVC030=
201503231345 TAF AMD KBFI 231345Z 2314/2412 14006KT P6SM SCT002 BKN060 BKN140
                       TEMPO 2314/2316 1/2SM FG OVC002 FM231700
                       16004KT P6SM BKN050 OVC100 FM232000 18009KT
                       P6SM -SHRA OVC045 FM240100 19007KT P6SM
                       -SHRA OVC030=
201503231125 TAF KBFI 231125Z 2312/2412 14006KT P6SM BCFG SCT012
                      TEMPO 2312/2316 1/2SM FG OVC002 FM231600
                       16004KT P6SM BKN050 OVC100 FM232000 18009KT
                       P6SM -SHRA OVC045 FM240100 19007KT P6SM
                       -SHRA OVC030=
201503231029 TAF AMD KBFI 231029Z 2310/2406 14006KT 1/2SM FG OVC002 FM231400
                       16004KT P6SM BKN050 OVC100 FM232000 18009KT
                       P6SM -SHRA OVC045 FM240100 19007KT P6SM
                       -SHRA OVC030=
201503230522 TAF KBFI 230522Z 2306/2406 14004KT P6SM FEW050 BKN150 FM231400
                       16004KT P6SM BKN050 OVC100 FM232000 18009KT
                       P6SM -SHRA OVC045 FM240100 19007KT P6SM
                       -SHRA OVC030=
201503222327 TAF KBFI 222327Z 2300/2324 15005KT P6SM VCSH BKN035 OVC060 FM230700
                       16004KT P6SM SCT050 OVC100 FM231300 17005KT
                       P6SM VCSH OVC050 FM232100 19009KT P6SM -SHRA
                       OVC050=
201503222101 TAF AMD KBFI 222101Z 2221/2318 16003KT 6SM -RA SCT040 BKN050 OVC060
                       FM222200 16006KT P6SM -RA BKN040 OVC080
                       FM230400 18008KT P6SM -SHRA BKN025 BKN050=
201503221732 TAF KBFI 221732Z 2218/2318 00000KT P6SM BKN090 FM222200 16006KT
                       P6SM -RA BKN040 OVC080 FM230400 18008KT
                       P6SM -SHRA BKN025 BKN050=
201503221120 TAF KBFI 221120Z 2212/2312 VRB03KT P6SM BKN150 FM221700 16006KT
                       P6SM SCT050 OVC120 FM222200 16006KT P6SM
                       -RA BKN040 OVC080 FM230400 18008KT P6SM
                       -SHRA BKN025 BKN050=
201503220520 TAF KBFI 220520Z 2206/2306 00000KT P6SM BKN050 FM221400 VRB03KT
                       P6SM BKN050 BKN100 FM222200 16008KT P6SM
                       -RA BKN040 OVC080 FM230400 20008KT P6SM
                       -SHRA BKN025 BKN050=
201503220315 TAF AMD KBFI 220315Z 2203/2224 VRB03KT P6SM SCT040 FM220800 VRB03KT
                       P6SM BKN040 BKN200 FM221200 15005KT P6SM
                       BKN040 BKN100 FM222200 16006KT P6SM -RA
                       BKN040 OVC080=
201503212326 TAF KBFI 212326Z 2200/2224 20009G18KT P6SM SCT045 SCT070 FM220600
                       14003KT P6SM SCT070 FM222100 19007KT P6SM
                       BKN070 OVC120=
201503211727 TAF KBFI 211727Z 2118/2218 18014G20KT P6SM -SHRA FEW022 SCT030
                       OVC040 FM212100 22012KT P6SM VCSH SCT030
                       BKN050 FM220300 20006KT P6SM SCT050 FM221000
                       16006KT P6SM BKN050 BKN150=
201503211120 TAF KBFI 211120Z 2112/2212 16008KT P6SM VCSH BKN050 FM211600 20012KT
                       P6SM -SHRA BKN030 OVC050 FM212100 22012KT
                       P6SM VCSH SCT030 BKN050 FM220300 20006KT
                       P6SM SCT050 FM221000 16006KT P6SM BKN050
                       BKN150=
201503210520 TAF KBFI 210520Z 2106/2206 18007KT P6SM SCT035 BKN060
                      TEMPO 2106/2110 -RA BKN030 OVC050 FM211000
                       21010KT P6SM VCSH BKN020 BKN040 FM211800
                       VRB04KT P6SM VCSH SCT020 BKN040 FM220000
                       VRB04KT P6SM SCT040=
201503210230 TAF AMD KBFI 210230Z 2103/2124 18005KT P6SM -RA SCT060 OVC070 FM210400
                       17009KT 5SM -RA BR SCT030 OVC050 FM210600
                       17010G15KT P6SM -SHRA BKN030 BKN040 FM211900
                       19007KT P6SM -SHRA SCT030 BKN050=
201503202340 TAF KBFI 202340Z 2100/2124 VRB05KT P6SM -RA FEW060 OVC080 FM210200
                       17009KT 5SM -RA BR SCT030 OVC050 FM210600
                       17010G15KT P6SM -SHRA BKN030 BKN040 FM211900
                       19007KT P6SM -SHRA SCT030 BKN050=
201503201740 TAF KBFI 201740Z 2018/2118 12005KT P6SM SCT040 BKN100 FM202000
                       14007KT P6SM -RA BKN040 OVC070 FM210200
                       16009KT P6SM -RA BKN030 OVC050 FM210700
                       20010KT P6SM -SHRA BKN025 BKN040=
201503201120 TAF KBFI 201120Z 2012/2112 12005KT P6SM SCT040 BKN100 FM202000
                       14007KT P6SM -RA BKN040 OVC070 FM210200
                       16010KT P6SM -RA BKN030 OVC050 FM210700
                       20010KT P6SM -SHRA BKN025 BKN040=
201503200520 TAF KBFI 200520Z 2006/2106 00000KT P6SM -RA OVC060 FM200900 12005KT
                       P6SM BKN040 BKN100 FM202000 14007KT P6SM
                       -RA BKN040 OVC070 FM210300 16010KT P6SM
                       -RA BKN030 OVC050=
201503192341 TAF KBFI 192341Z 2000/2024 21006KT P6SM SCT050 BKN070 FM200300
                       16003KT P6SM SCT050 BKN070 FM202200 18008KT
                       P6SM -RA BKN050 OVC070=
201503191805 TAF AMD KBFI 191805Z 1918/2018 15005KT P6SM BKN110 BKN200 FM191900
                       20006KT P6SM BKN100 OVC200 FM200300 14003KT
                       P6SM SCT080 OVC100=
201503191735 TAF KBFI 191735Z 1918/2018 15005KT P6SM BKN110 BKN200 FM191900
                       20006KT P6SM BKN080 OVC150 FM200000 20006KT
                       P6SM BKN050 OVC080=
201503191120 TAF KBFI 191120Z 1912/2012 15005KT P6SM SCT090 OVC150 FM191900
                       20006KT P6SM BKN080 OVC150 FM200000 20006KT
                       P6SM BKN050 OVC080=
201503190520 TAF KBFI 190520Z 1906/2006 00000KT P6SM BKN150 FM191900 20006KT
                       P6SM BKN080 OVC150 FM200000 20006KT P6SM
                       BKN050 OVC080=
201503182320 TAF KBFI 182320Z 1900/1924 21006KT P6SM SCT045 SCT250 FM190300
                       17004KT P6SM BKN200 FM190700 15005KT P6SM
                       OVC120 FM191900 20005KT P6SM OVC080=
201503181836 TAF AMD KBFI 181836Z 1819/1918 15004KT P6SM SCT025 BKN250
                      TEMPO 1819/1821 BKN025 BKN250 FM190300 16004KT
                       P6SM BKN200 FM190700 15005KT P6SM OVC120=
201503181721 TAF KBFI 181721Z 1818/1918 13005KT P6SM SCT040 BKN250 FM181900
                       20005KT P6SM SCT045 BKN250 FM190300 16004KT
                       P6SM BKN200 FM190700 15005KT P6SM OVC120=
201503181121 TAF KBFI 181121Z 1812/1912 14004KT P6SM SCT030 BKN050 BKN080
                      TEMPO 1812/1816 BKN030 BKN050 BKN080 FM181900
                       24005KT P6SM BKN035 FM182300 27004KT P6SM
                       SCT035 BKN200=
201503180905 TAF AMD KBFI 180905Z 1809/1906 14004KT P6SM SCT025 BKN080
                      TEMPO 1809/1813 BKN025 BKN080 FM181300 15004KT
                       P6SM SCT025 BKN080
                      TEMPO 1813/1817 BKN025 BKN080 FM181900 24004KT
                       P6SM BKN030 FM182300 27004KT P6SM SCT035=
201503180541 TAF KBFI 180541Z 1806/1906 15006KT P6SM BKN100 FM181200 15004KT
                       P6SM SCT025 BKN100
                      TEMPO 1813/1817 BKN025 BKN100 FM181900 24004KT
                       P6SM BKN030 FM182300 27004KT P6SM SCT035=
201503172327 TAF KBFI 172327Z 1800/1824 20006KT P6SM VCSH SCT040 OVC070
                      TEMPO 1800/1803 -SHRA BKN040 FM180300 18005KT
                       P6SM -SHRA OVC040 FM180700 16005KT P6SM
                       VCSH OVC030 FM181200 VRB03KT P6SM OVC035
                       FM181900 20004KT P6SM SCT035 BKN060=
201503171727 TAF KBFI 171727Z 1718/1818 13005KT P6SM OVC070 FM172100 20006KT
                       P6SM VCSH BKN035 OVC050 FM180300 18005KT
                       P6SM -SHRA OVC035 FM180700 17005KT 5SM -SHRA
                       BR OVC025=
201503171121 TAF KBFI 171121Z 1712/1812 00000KT P6SM SCT050 BKN250 FM171500
                       16005KT P6SM SCT050 OVC200 FM172000 20006KT
                       P6SM VCSH BKN040 OVC060 FM180300 18005KT
                       P6SM -SHRA BKN025 OVC040 FM180600 17005KT
                       5SM -SHRA BR OVC015=
201503170538 TAF KBFI 170538Z 1706/1806 00000KT P6SM BKN070 BKN250 FM171500
                       16005KT P6SM BKN045 OVC080 FM172100 20006KT
                       P6SM VCSH BKN040 OVC060 FM180300 18005KT
                       P6SM -RA BKN025 OVC040=
201503162322 TAF KBFI 162322Z 1700/1724 29007KT P6SM FEW040 SCT250 FM171200
                       14002KT P6SM BKN090 OVC200 FM171500 VRB03KT
                       P6SM OVC050 FM172000 21007KT P6SM -RA BKN030
                       OVC050=
201503161734 TAF KBFI 161734Z 1618/1718 05003KT P6SM BKN014 BKN040 FM162100
                       33005KT P6SM SCT200 FM171100 09002KT P6SM
                       SCT090 OVC200 FM171500 15004KT P6SM OVC050=
201503161602 TAF AMD KBFI 161602Z 1616/1712 00000KT P6SM FEW010 BKN040 FM161900
                       35005KT P6SM SCT030 SCT250=
201503161120 TAF KBFI 161120Z 1612/1712 13004KT P6SM FEW010 OVC035
                      TEMPO 1612/1616 6SM BR BKN010 OVC030 FM161600
                       VRB03KT P6SM BKN030 FM161900 35005KT P6SM
                       SCT030 SCT250=
201503161006 TAF AMD KBFI 161006Z 1610/1706 13004KT P6SM OVC035
                      TEMPO 1614/1617 BKN018 OVC030 FM161700 VRB03KT
                       P6SM BKN030 FM161900 35005KT P6SM SCT030
                       SCT250=
201503160541 TAF KBFI 160541Z 1606/1706 VRB03KT P6SM -RA SCT008 OVC025
                      TEMPO 1606/1608 4SM -RA BR BKN008 OVC025
                       FM160800 VRB03KT P6SM BKN008 OVC025 FM161200
                       VRB03KT P6SM SCT010 OVC025 FM162000 34005KT
                       P6SM BKN030 FM162200 33005KT P6SM SCT035
                       SCT250=
201503160103 TAF AMD KBFI 160103Z 1601/1624 24010KT 5SM -RA BR SCT007 BKN010
                       OVC023 WS020/19035KT FM160200 19014G22KT
                       P6SM -RA SCT010 BKN025 OVC080 FM160800 14003KT
                       6SM -SHRA BR SCT011 BKN018 OVC026 FM161600
                       VRB03KT P6SM SCT013 BKN025 OVC040 FM162200
                       34006KT P6SM SCT045 BKN250=
201503152358 TAF KBFI 152358Z 1600/1624 32008KT 1 1/2SM -RA BR OVC005 WS020/19035KT
                       FM160200 19014G22KT P6SM -RA SCT009 OVC014
                       FM160800 14003KT 6SM -SHRA BR SCT011 BKN018
                       OVC026 FM161600 VRB03KT P6SM SCT013 BKN025
                       OVC040 FM162200 34006KT P6SM SCT045 BKN250=
201503152320 TAF KBFI 152320Z 1600/1624 33010KT 5SM -RA BR BKN007 OVC014 WS020/19035KT
                       FM160200 19014G22KT P6SM -RA SCT009 OVC014
                       FM160800 14003KT 6SM -SHRA BR SCT011 BKN018
                       OVC026 FM161600 VRB03KT P6SM SCT013 BKN025
                       OVC040 FM162200 34006KT P6SM SCT045 BKN250=
201503151910 TAF AMD KBFI 151910Z 1519/1618 35010G18KT 3SM -RA BKN007 BKN010
                       OVC014 WS020/19035KT FM160000 19014G22KT
                       P6SM -RA SCT009 OVC014 FM160800 14003KT
                       6SM -SHRA BR SCT011 BKN018 OVC026 FM161600
                       VRB03KT P6SM SCT016 BKN040 OVC060=
201503151735 TAF KBFI 151735Z 1518/1618 34010G18KT 3SM -RA BR BKN007 BKN010
                       OVC028 FM160000 19014G22KT P6SM -RA SCT009
                       OVC014 FM160800 14003KT 6SM -SHRA BR SCT011
                       BKN018 OVC026 FM161600 VRB03KT P6SM SCT016
                       BKN040 OVC060=
201503151305 TAF AMD KBFI 151305Z 1513/1612 35005KT 4SM -RA BR OVC007 FM151800
                       02007KT 4SM -RA BR OVC007 FM160200 16014G24KT
                       P6SM -RA OVC020 FM160600 24010KT P6SM BKN030
                       OVC050=
201503151120 TAF KBFI 151120Z 1512/1612 VRB03KT P6SM -RA SCT030 OVC050 FM151500
                       VRB03KT 5SM -RA BR BKN030 OVC045 FM151800
                       04005KT 4SM -RA BR BKN020 OVC035 FM160200
                       16014G24KT P6SM -RA OVC020 FM160600 24010KT
                       P6SM BKN030 OVC050=
201503150538 TAF KBFI 150538Z 1506/1606 05004KT P6SM SCT025 OVC080
                      TEMPO 1506/1508 BKN025 OVC080 FM150800 00000KT
                       P6SM -RA BKN025 OVC035 FM151400 00000KT
                       5SM -RA BR BKN020 OVC030 FM151700 03008KT
                       4SM -RA BR BKN015 OVC025 FM160200 16014G24KT
                       P6SM -RA OVC020=
201503142327 TAF KBFI 142327Z 1500/1524 19011KT P6SM SCT030 BKN060 BKN120 FM150600
                       VRB03KT P6SM VCSH SCT020 OVC040 FM151300
                       01005KT P6SM -RA BKN020 OVC035=
201503141736 TAF KBFI 141736Z 1418/1518 19009G19KT P6SM SCT020 OVC035
                      TEMPO 1418/1421 4SM -RA BR BKN020 OVC045
                       FM142100 18012G20KT P6SM -SHRA SCT020 OVC040
                       FM150500 19007KT P6SM VCSH BKN020 OVC035=
201503141120 TAF KBFI 141120Z 1412/1512 16008KT 5SM -RA SCT010 BKN020 OVC035
                       FM141500 16012KT 6SM -RA BR SCT010 BKN015
                       OVC025
                      TEMPO 1415/1419 4SM -RA BR BKN008 OVC015
                       FM142100 18012G20KT P6SM -RA SCT008 BKN020
                       OVC035 FM150200 19007KT P6SM BKN015 OVC030=
201503140530 TAF KBFI 140530Z 1406/1506 15006KT P6SM SCT050 OVC100 FM140800
                       15008KT P6SM -RA OVC045 FM141500 17012G18KT
                       P6SM -RA OVC020
                      TEMPO 1418/1422 4SM -RA BR OVC015 FM150200
                       19007KT P6SM -RA OVC030=
201503132325 TAF KBFI 132325Z 1400/1424 33003KT P6SM OVC170 FM140600 15006KT
                       P6SM SCT050 OVC100 FM141000 15010KT P6SM
                       -RA OVC045 FM141500 17012G18KT P6SM -RA
                       OVC019
                      TEMPO 1420/1424 4SM -RA BR OVC013=
201503131735 TAF KBFI 131735Z 1318/1418 34003KT P6SM BKN170 FM140000 18006KT
                       P6SM SCT060 OVC120 FM140500 16008KT P6SM
                       BKN050 OVC100 FM141000 16012KT P6SM -RA
                       OVC030=
201503131120 TAF KBFI 131120Z 1312/1412 VRB04KT P6SM OVC200 FM140000 18006KT
                       P6SM SCT060 OVC120 FM140500 16008KT P6SM
                       BKN050 OVC100 FM141000 16012KT P6SM -RA
                       OVC030=
201503130520 TAF KBFI 130520Z 1306/1406 00000KT P6SM BKN250 FM131800 VRB04KT
                       P6SM OVC200 FM140000 16006KT P6SM SCT060
                       OVC120 FM140500 16008KT P6SM BKN050 OVC100=
201503122320 TAF KBFI 122320Z 1300/1324 21008KT P6SM SCT035 SCT250 FM130100
                       VRB03KT P6SM SCT200 FM131200 14003KT P6SM
                       SCT200 FM132000 19005KT P6SM BKN200=
201503121745 TAF KBFI 121745Z 1218/1318 21008KT P6SM SCT035 BKN200 FM130000
                       VRB03KT P6SM SCT200 FM131200 14003KT P6SM
                       SCT200=
201503121120 TAF KBFI 121120Z 1212/1312 18008KT P6SM SCT025 BKN050
                      TEMPO 1212/1216 BKN025 BKN050 FM130000 VRB03KT
                       P6SM SCT050 BKN200=
201503120520 TAF KBFI 120520Z 1206/1306 16006KT P6SM VCSH SCT020 OVC040 FM121100
                       16010KT P6SM BKN025 OVC045 FM121800 18007KT
                       P6SM BKN050=
201503112330 TAF KBFI 112330Z 1200/1224 20007KT P6SM BKN040 OVC060 FM120400
                       16010KT P6SM VCSH BKN025 OVC045 FM121400
                       16010KT P6SM BKN025 OVC045 FM121800 18007KT
                       P6SM BKN050=
201503111730 TAF KBFI 111730Z 1118/1218 16010KT P6SM SCT030 OVC045
                      TEMPO 1118/1122 -RA BKN030 OVC045 FM112200
                       16012KT P6SM -RA BKN030 OVC045 FM120400
                       18010KT P6SM VCSH BKN025 OVC045=
201503111611 TAF AMD KBFI 111611Z 1116/1212 16010KT P6SM SCT030 OVC050
                      TEMPO 1116/1119 -RA BKN030 OVC050 FM111900
                       16012KT P6SM SCT030 OVC045
                      TEMPO 1119/1123 -RA BKN030 OVC045 FM112300
                       16012KT P6SM -RA BKN030 OVC045 FM120400
                       18010KT P6SM VCSH BKN025 OVC045=
201503111120 TAF KBFI 111120Z 1112/1212 14007KT P6SM SCT040 OVC080 FM111600
                       16010KT P6SM VCSH BKN030 OVC060 FM112100
                       16012KT P6SM -SHRA BKN025 OVC050 FM120600
                       18010KT P6SM VCSH BKN020 OVC040=
201503110520 TAF KBFI 110520Z 1106/1206 17006KT P6SM SCT050 OVC100 FM110800
                       20008KT P6SM BKN045 OVC080 FM111200 15007KT
                       P6SM -RA BKN040 OVC060 FM112000 18007KT
                       P6SM -SHRA OVC040=
201503102321 TAF KBFI 102321Z 1100/1124 32004KT P6SM OVC250 FM110100 23006KT
                       P6SM SCT100 OVC200 FM110800 20008KT P6SM
                       BKN045 OVC080 FM111200 15007KT P6SM -RA
                       BKN040 OVC060 FM112000 18007KT P6SM -SHRA
                       OVC040=
201503102121 TAF AMD KBFI 102121Z 1021/1118 32004KT P6SM OVC250 FM110000 23006KT
                       P6SM SCT100 OVC200 FM110800 20008KT P6SM
                       BKN045 OVC080=
201503101833 TAF AMD KBFI 101833Z 1019/1118 VRB03KT P6SM SCT008 FM102000 VRB03KT
                       P6SM SCT015 SCT250 FM102200 23006KT P6SM
                       SCT120 BKN200 FM110800 20008KT P6SM BKN045
                       OVC080=
201503101730 TAF KBFI 101730Z 1018/1118 VRB03KT 5SM BR BKN008 FM102000 VRB03KT
                       P6SM SCT015 SCT250 FM102200 23006KT P6SM
                       SCT120 BKN200 FM110800 20008KT P6SM BKN045
                       OVC080=
201503101643 TAF AMD KBFI 101643Z 1017/1112 02006KT 3SM BR OVC006 FM101800 VRB03KT
                       P6SM OVC008 FM102000 VRB03KT P6SM SCT015
                       SCT250 FM102200 23006KT P6SM SCT120 BKN200
                       FM110800 20008KT P6SM BKN040 OVC100=
201503101521 TAF AMD KBFI 101521Z 1015/1112 02006KT 1 1/2SM BR OVC004 FM101800
                       VRB03KT P6SM OVC008 FM102000 VRB03KT P6SM
                       SCT015 SCT250 FM102200 23006KT P6SM SCT120
                       BKN200 FM110800 20008KT P6SM BKN040 OVC100=
201503101120 TAF KBFI 101120Z 1012/1112 34005KT 1SM BR VV002 FM101500 02006KT
                       3SM BR OVC003 FM101800 VRB03KT P6SM OVC008
                       FM102000 VRB03KT P6SM SCT015 SCT250 FM102200
                       23006KT P6SM SCT120 BKN200 FM110800 20008KT
                       P6SM BKN040 OVC100=
201503100833 TAF AMD KBFI 100833Z 1009/1106 04004KT 1SM BR OVC002 FM101200 VRB03KT
                       5SM BR OVC005 FM102000 VRB03KT P6SM SCT010
                       SCT250 FM102200 34005KT P6SM SCT120 BKN200=
201503100520 TAF KBFI 100520Z 1006/1106 VRB03KT P6SM SKC
                      TEMPO 1006/1010 5SM BR BKN007 FM101000 VRB03KT
                       5SM BR OVC005 FM102000 VRB03KT P6SM SCT010
                       SCT250 FM102200 34005KT P6SM SCT120 BKN200=
201503092320 TAF KBFI 092320Z 1000/1024 32009KT P6SM SKC FM100400 VRB03KT P6SM
                       SKC FM101100 VRB02KT 5SM BR OVC008 FM101900
                       VRB02KT P6SM SCT015 SCT250 FM102200 32006KT
                       P6SM SCT250=
201503091720 TAF KBFI 091720Z 0918/1018 16004KT P6SM VCFG SCT250 FM091900 VRB03KT
                       P6SM SCT250 FM101100 VRB02KT 5SM BR OVC008=
201503091120 TAF KBFI 091120Z 0912/1012 00000KT P6SM BKN250 FM091300 14003KT
                       P6SM FEW006 SCT250
                      TEMPO 0913/0917 5SM BR SCT006 FM091900 18005KT
                       P6SM SCT250 FM100300 VRB03KT P6SM SCT250
                       FM101100 14003KT 5SM BR BKN010=
201503090520 TAF KBFI 090520Z 0906/1006 00000KT P6SM BKN250 FM091300 16003KT
                       P6SM FEW006 SCT250
                      TEMPO 0914/0918 BKN006 FM091900 18005KT P6SM
                       SCT250 FM100300 VRB03KT P6SM SCT250=
201503082320 TAF KBFI 082320Z 0900/0924 33005KT P6SM SCT250 FM090400 00000KT
                       P6SM BKN250 FM091300 16003KT P6SM FEW006
                       SCT250
                      TEMPO 0914/0918 BKN006 FM091900 20005KT P6SM
                       SCT250=
201503081725 TAF KBFI 081725Z 0818/0918 29004KT P6SM SKC FM090400 00000KT P6SM
                       SCT250 FM091300 16003KT P6SM FEW006 SCT250
                       TEMPO 0914/0918 BKN006=
201503081120 TAF KBFI 081120Z 0812/0912 00000KT P6SM SKC FM081800 34005KT P6SM
                       SKC FM090300 VRB03KT P6SM SKC=
201503080520 TAF KBFI 080520Z 0806/0906 00000KT P6SM SKC FM081800 34005KT P6SM
                       SKC FM090300 VRB03KT P6SM SKC=
201503072322 TAF KBFI 072322Z 0800/0824 31007KT P6SM SKC FM080400 00000KT P6SM
                       SKC=
201503071732 TAF KBFI 071732Z 0718/0818 00000KT P6SM SKC FM072100 33006KT P6SM
                       SKC FM080400 00000KT P6SM SKC=
201503071120 TAF KBFI 071120Z 0712/0812 00000KT P6SM SCT250 FM072100 33006KT
                       P6SM SKC FM080300 00000KT P6SM SKC=
201503070520 TAF KBFI 070520Z 0706/0806 00000KT P6SM SCT250 FM072100 33006KT
                       P6SM SKC FM080300 00000KT P6SM SKC=
201503062325 TAF KBFI 062325Z 0700/0724 32003KT P6SM BKN250 FM070200 00000KT
                       P6SM SCT250 FM072100 33006KT P6SM SKC=
201503061720 TAF KBFI 061720Z 0618/0718 30004KT P6SM BKN250 FM070100 00000KT
                       P6SM SCT250=
201503061120 TAF KBFI 061120Z 0612/0712 VRB04KT P6SM BKN200=
201503060520 TAF KBFI 060520Z 0606/0706 VRB04KT P6SM BKN200=
201503052332 TAF KBFI 052332Z 0600/0624 34004KT P6SM BKN250=
201503051726 TAF KBFI 051726Z 0518/0618 15002KT P6SM BKN250=
201503051120 TAF KBFI 051120Z 0512/0612 VRB03KT P6SM BKN200=
201503050521 TAF KBFI 050521Z 0506/0606 VRB03KT P6SM SCT250=
201503042322 TAF KBFI 042322Z 0500/0524 VRB03KT P6SM SCT250 FM050300 32004KT
                       P6SM SCT250=
201503041730 TAF KBFI 041730Z 0418/0518 00000KT P6SM SKC FM050300 32004KT P6SM
                       SCT250=
201503041128 TAF KBFI 041128Z 0412/0512 VRB03KT P6SM SCT250 FM042000 32004KT
                       P6SM SCT250=
201503040520 TAF KBFI 040520Z 0406/0506 VRB03KT P6SM SCT250=
201503032323 TAF KBFI 032323Z 0400/0424 VRB03KT P6SM SCT250=
201503032102 TAF AMD KBFI 032102Z 0321/0418 32006KT P6SM SCT250 FM040200 VRB03KT
                       P6SM SKC=
201503031740 TAF KBFI 031740Z 0318/0418 VRB03KT P6SM FEW250=
201503031120 TAF KBFI 031120Z 0312/0412 VRB04KT P6SM FEW200 FM032000 32005KT
                       P6SM FEW200=
201503030520 TAF KBFI 030520Z 0306/0406 VRB04KT P6SM SKC FM031200 34005KT P6SM
                       SCT200 FM032000 32005KT P6SM SCT200=
201503022336 TAF KBFI 022336Z 0300/0324 33012KT P6SM FEW040 SCT250 FM030200
                       VRB04KT P6SM SCT250 FM032000 32005KT P6SM
                       SCT250=
201503022128 TAF AMD KBFI 022128Z 0221/0318 33011KT P6SM SCT030
                      TEMPO 0221/0224 BKN030 FM030200 VRB03KT P6SM
                       SKC=
201503022020 TAF AMD KBFI 022020Z 0220/0318 33011KT P6SM SCT025
                      TEMPO 0220/0221 BKN025 FM022130 33011KT P6SM
                       SKC FM030200 VRB03KT P6SM SKC=
201503021722 TAF KBFI 021722Z 0218/0318 35006KT P6SM SCT022 BKN070
                      TEMPO 0218/0220 BKN022 BKN070 FM022000 33011KT
                       P6SM FEW070 FM030200 VRB03KT P6SM SKC=
201503021438 TAF AMD KBFI 021438Z 0215/0312 35006KT P6SM SCT020 OVC060
                      TEMPO 0215/0218 BKN020 OVC060 FM021800 36012KT
                       P6SM BKN050 FM022100 36012KT P6SM SKC FM030400
                       02007KT P6SM SKC=
201503021122 TAF KBFI 021122Z 0212/0312 35006KT P6SM SCT050 OVC060 FM021800
                       36012KT P6SM BKN050 FM022100 36012KT P6SM
                       SKC FM030400 02007KT P6SM SKC=
201503020901 TAF AMD KBFI 020901Z 0209/0306 02006KT P6SM -RA BKN050 OVC080 FM021200
                       03006KT P6SM BKN025 OVC040 FM021500 01007KT
                       P6SM BKN030 FM021800 36012KT P6SM BKN050
                       FM022100 36012KT P6SM SCT050 FM030300 02007KT
                       P6SM SKC=
201503020524 TAF KBFI 020524Z 0206/0306 02006KT P6SM -RA BKN050 OVC080 FM020900
                       03006KT P6SM BKN025 OVC040 FM021500 01007KT
                       P6SM BKN030 FM021800 36012KT P6SM BKN050
                       FM022100 36012KT P6SM SCT050 FM030300 02007KT
                       P6SM SKC=
201503012320 TAF KBFI 012320Z 0200/0224 23005KT P6SM OVC120 FM020300 34005KT
                       P6SM -RA BKN050 OVC080 FM020900 VRB03KT
                       P6SM BKN030 OVC045 FM021500 VRB03KT P6SM
                       BKN035 FM021800 34009KT P6SM BKN050=
201503011737 TAF KBFI 011737Z 0118/0218 17005KT P6SM SCT180 FM020000 VRB03KT
                       P6SM BKN120 OVC180 FM020300 VRB03KT P6SM
                       BKN050 OVC100 FM020600 VRB03KT P6SM -RA
                       OVC040 FM020900 00000KT P6SM BKN025 OVC040=
201503011124 TAF KBFI 011124Z 0112/0212 15004KT P6SM SCT200 FM011800 19005KT
                       P6SM SCT200 FM020000 19005KT P6SM BKN150
                       OVC200 FM020400 02006KT P6SM BKN070 OVC120
                       FM020900 02006KT P6SM BKN030 OVC040=
201503010520 TAF KBFI 010520Z 0106/0206 VRB03KT P6SM SCT200 FM011800 15004KT
                       P6SM SCT200=