##########################################################
# Query made at 02/17/2025 03:49:58 UTC
# Time interval: from 08/01/2018 00:00  to 08/31/2018 23:59  UTC
##########################################################

##########################################################
# KBFI, Seattle, Seattle Boeing Field (United States)
# WMO index: -----. WIGOS ID: Unknown
# Latitude 47-32-45N. Longitude 122-18-49W. Altitude 5 m.
##########################################################

###################################
#  METAR/SPECI from KBFI
###################################
201808312353 METAR KBFI 312353Z VRB05KT 10SM SCT045 21/09 A3012 RMK AO2 SLP199 T02060089 10217 20178 58014=
201808312253 METAR KBFI 312253Z VRB05KT 10SM SCT045 20/09 A3014 RMK AO2 SLP205 T02000089=
201808312153 METAR KBFI 312153Z 25009KT 10SM SCT042 21/09 A3015 RMK AO2 SLP209 T02060089=
201808312053 METAR KBFI 312053Z 20007KT 10SM BKN040 19/08 A3016 RMK AO2 SLP212 T01890083 55001=
201808311953 METAR KBFI 311953Z 25008KT 10SM SCT038 BKN047 19/09 A3015 RMK AO2 SLP210 T01940089=
201808311853 METAR KBFI 311853Z 21007KT 10SM BKN033 BKN041 18/09 A3016 RMK AO2 SLP214 T01830094=
201808311753 METAR KBFI 311753Z 23005KT 10SM BKN033 BKN041 18/10 A3016 RMK AO2 SLP213 T01780100 10178 20150 53009=
201808311653 METAR KBFI 311653Z 22006KT 10SM SCT023 SCT050 17/10 A3015 RMK AO2 SLP208 T01720100=
201808311553 METAR KBFI 311553Z 23006KT 10SM FEW050 16/10 A3014 RMK AO2 SLP207 T01560100=
201808311453 METAR KBFI 311453Z 20007KT 10SM FEW010 BKN029 BKN048 16/11 A3013 RMK AO2 SLP204 T01560106 53018=
201808311415 SPECI KBFI 311415Z 19003KT 10SM FEW018 BKN042 OVC050 16/11 A3012 RMK AO2 T01610111=
201808311353 METAR KBFI 311353Z 20005KT 10SM BKN018 OVC038 16/12 A3011 RMK AO2 SLP197 T01610117=
201808311253 METAR KBFI 311253Z 22004KT 10SM OVC015 16/13 A3009 RMK AO2 SLP190 T01610128=
201808311153 METAR KBFI 311153Z VRB04KT 10SM OVC014 17/13 A3008 RMK AO2 SLP186 T01670128 10178 20167 51003=
201808311151 SPECI KBFI 311151Z VRB04KT 10SM OVC014 17/13 A3008 RMK AO2=
201808311125 SPECI KBFI 311125Z 19006KT 10SM OVC016 17/13 A3008 RMK AO2 T01670128=
201808311053 METAR KBFI 311053Z 20005KT 10SM OVC013 17/13 A3008 RMK AO2 SLP185 T01670133=
201808310953 METAR KBFI 310953Z 22004KT 10SM OVC014 17/13 A3007 RMK AO2 SLP183 T01720133=
201808310938 SPECI KBFI 310938Z 19003KT 10SM OVC014 17/13 A3007 RMK AO2 T01720133=
201808310853 METAR KBFI 310853Z 00000KT 10SM OVC017 17/13 A3007 RMK AO2 SLP182 T01720133 50003=
201808310753 METAR KBFI 310753Z 16005KT 10SM OVC017 17/13 A3007 RMK AO2 SLP183 T01720133 402330161=
201808310653 METAR KBFI 310653Z 18005KT 10SM OVC020 17/13 A3007 RMK AO2 SLP181 T01720133=
201808310553 METAR KBFI 310553Z 18005KT 10SM FEW018 BKN043 OVC070 17/13 A3006 RMK AO2 SLP180 T01720133 10228 20172 51012=
201808310453 METAR KBFI 310453Z VRB05KT 10SM OVC040 18/13 A3005 RMK AO2 SLP177 T01830133=
201808310353 METAR KBFI 310353Z 22006KT 10SM SCT035 BKN090 19/13 A3004 RMK AO2 SLP172 T01940133=
201808310253 METAR KBFI 310253Z 19006KT 10SM OVC080 21/13 A3003 RMK AO2 SLP168 T02060133 55000=
201808310153 METAR KBFI 310153Z 22004KT 10SM FEW040 BKN070 21/13 A3002 RMK AO2 SLP165 T02110128=
201808310053 METAR KBFI 310053Z 23007KT 10SM FEW075 SCT090 BKN100 22/12 A3003 RMK AO2 SLP168 T02220122=
201808302353 METAR KBFI 302353Z 24007KT 10SM SCT095 23/12 A3003 RMK AO2 SLP168 T02280117 10233 20194 55003=
201808302253 METAR KBFI 302253Z 17007KT 10SM SCT090 23/11 A3002 RMK AO2 SLP167 T02330111=
201808302153 METAR KBFI 302153Z 20004KT 10SM BKN032 BKN055 22/12 A3003 RMK AO2 SLP170 T02220117=
201808302053 METAR KBFI 302053Z VRB05KT 10SM BKN028 BKN038 OVC046 22/12 A3004 RMK AO2 SLP171 T02170122 51005=
201808301953 METAR KBFI 301953Z 20005KT 10SM OVC035 21/12 A3004 RMK AO2 SLP171 T02060122=
201808301938 SPECI KBFI 301938Z 23005KT 10SM BKN031 OVC035 21/12 A3003 RMK AO2 T02060122=
201808301928 SPECI KBFI 301928Z VRB05KT 10SM OVC029 20/12 A3003 RMK AO2 T02000122=
201808301900 SPECI KBFI 301900Z VRB04KT 10SM OVC030 21/12 A3003 RMK AO2 T02060122=
201808301853 METAR KBFI 301853Z 15006KT 10SM BKN028 OVC030 20/12 A3003 RMK AO2 SLP167 T02000122=
201808301753 METAR KBFI 301753Z 10SM FEW023 BKN030 OVC080 19/12 A3002 RMK AO2 SLP165 T01940122 10194 20161 50005=
201808301653 METAR KBFI 301653Z AUTO 19005KT 10SM SCT021 OVC028 18/12 A3002 RMK AO2 SLP166 T01830122=
201808301553 METAR KBFI 301553Z 20005KT 10SM BKN023 OVC028 17/12 A3001 RMK AO2 SLP163 T01720122=
201808301453 METAR KBFI 301453Z 00000KT 10SM SCT020 BKN050 BKN070 17/13 A3001 RMK AO2 SLP160 T01670128 53009=
201808301353 METAR KBFI 301353Z 21003KT 10SM BKN024 OVC050 17/12 A2999 RMK AO2 SLP156 T01670122=
201808301253 METAR KBFI 301253Z 17003KT 10SM OVC023 17/12 A2998 RMK AO2 SLP151 T01670122=
201808301153 METAR KBFI 301153Z VRB03KT 10SM OVC024 17/12 A2998 RMK AO2 SLP151 T01720117 10189 20172 51005=
201808301053 METAR KBFI 301053Z 10003KT 10SM OVC023 17/12 A2997 RMK AO2 SLP149 T01720117=
201808300953 METAR KBFI 300953Z 08004KT 10SM OVC024 17/12 A2997 RMK AO2 SLP148 T01720117=
201808300853 METAR KBFI 300853Z 05006KT 10SM BKN028 OVC033 17/12 A2996 RMK AO2 SLP146 T01720117 51010=
201808300753 METAR KBFI 300753Z VRB03KT 10SM BKN055 18/12 A2996 RMK AO2 SLP144 T01780117 402500133=
201808300653 METAR KBFI 300653Z AUTO 07004KT 10SM OVC055 19/11 A2994 RMK AO2 SLP139 T01890111=
201808300553 METAR KBFI 300553Z VRB04KT 10SM BKN050 OVC055 19/11 A2993 RMK AO2 SLP136 T01890111 10244 20189 51009=
201808300453 METAR KBFI 300453Z 00000KT 10SM OVC050 19/11 A2993 RMK AO2 SLP134 T01890111=
201808300353 METAR KBFI 300353Z 00000KT 10SM OVC047 19/11 A2992 RMK AO2 SLP131 T01890111=
201808300253 METAR KBFI 300253Z VRB03KT 10SM OVC046 19/11 A2990 RMK AO2 SLP126 T01940111 53012=
201808300153 METAR KBFI 300153Z VRB05KT 10SM SCT045 BKN100 21/11 A2989 RMK AO2 SLP121 T02110106=
201808300053 METAR KBFI 300053Z VRB06KT 10SM FEW050 SCT120 23/11 A2988 RMK AO2 SLP118 T02280111=
201808292353 METAR KBFI 292353Z 29004KT 10SM SCT047 24/11 A2987 RMK AO2 SLP114 T02390106 10250 20200 55002=
201808292253 METAR KBFI 292253Z 20008KT 10SM CLR 25/11 A2987 RMK AO2 SLP113 T02500111=
201808292153 METAR KBFI 292153Z 19007KT 10SM CLR 24/11 A2987 RMK AO2 SLP116 T02390106=
201808292053 METAR KBFI 292053Z 22005KT 10SM BKN230 22/10 A2987 RMK AO2 SLP116 T02220100 56009=
201808291953 METAR KBFI 291953Z 17008KT 10SM SCT150 BKN250 23/09 A2988 RMK AO2 SLP116 T02280094=
201808291853 METAR KBFI 291853Z VRB04KT 10SM CLR 21/09 A2989 RMK AO2 SLP121 T02110094=
201808291753 METAR KBFI 291753Z 18004KT 10SM FEW080 BKN250 21/10 A2990 RMK AO2 SLP125 T02060100 10211 20133 55000=
201808291653 METAR KBFI 291653Z 00000KT 10SM SCT100 BKN230 18/11 A2990 RMK AO2 SLP123 T01830106=
201808291553 METAR KBFI 291553Z 16007KT 10SM BKN230 17/11 A2989 RMK AO2 SLP120 T01720106=
201808291453 METAR KBFI 291453Z 00000KT 10SM BKN230 16/11 A2990 RMK AO2 SLP125 T01560106 53001=
201808291353 METAR KBFI 291353Z 16004KT 10SM BKN250 14/11 A2989 RMK AO2 SLP120 T01440106=
201808291253 METAR KBFI 291253Z 15004KT 10SM BKN250 14/10 A2989 RMK AO2 SLP122 T01390100 $=
201808291153 METAR KBFI 291153Z 00000KT 10SM CLR 15/11 A2990 RMK AO2 SLP124 T01500106 10200 20150 58003 $=
201808291053 METAR KBFI 291053Z 00000KT 10SM CLR 15/11 A2991 RMK AO2 SLP126 T01500106 $=
201808290953 METAR KBFI 290953Z 00000KT 10SM CLR 16/10 A2990 RMK AO2 SLP125 T01610100 $=
201808290853 METAR KBFI 290853Z 00000KT 10SM CLR 16/09 A2991 RMK AO2 SLP127 T01610094 58009 $=
201808290753 METAR KBFI 290753Z 36003KT 10SM CLR 18/09 A2992 RMK AO2 SLP130 T01780094 402780122 $=
201808290653 METAR KBFI 290653Z VRB04KT 10SM CLR 19/09 A2992 RMK AO2 SLP133 T01890089 $=
201808290553 METAR KBFI 290553Z 00000KT 10SM CLR 20/09 A2993 RMK AO2 SLP136 T02000089 10278 20200 58003 $=
201808290453 METAR KBFI 290453Z 00000KT 10SM CLR 21/09 A2994 RMK AO2 SLP137 T02060089 $=
201808290353 METAR KBFI 290353Z 00000KT 10SM CLR 22/08 A2994 RMK AO2 SLP139 T02220083 $=
201808290253 METAR KBFI 290253Z 00000KT 10SM CLR 24/07 A2994 RMK AO2 SLP139 T02390067 56010 $=
201808290153 METAR KBFI 290153Z VRB04KT 10SM CLR 26/07 A2994 RMK AO2 SLP139 T02560067 $=
201808290053 METAR KBFI 290053Z 31006KT 10SM CLR 27/05 A2996 RMK AO2 SLP144 T02670050 $=
201808282353 METAR KBFI 282353Z 31006KT 10SM CLR 28/07 A2997 RMK AO2 SLP149 T02780067 10278 20211 56020 $=
201808282253 METAR KBFI 282253Z 30006KT 10SM CLR 27/08 A2999 RMK AO2 SLP155 T02670083 $=
201808282153 METAR KBFI 282153Z 32006KT 10SM CLR 26/09 A3001 RMK AO2 SLP162 T02560089 $=
201808282053 METAR KBFI 282053Z 32009KT 10SM FEW250 25/11 A3003 RMK AO2 SLP170 T02500106 $=
201808281953 METAR KBFI 281953Z VRB04KT 10SM CLR 24/11 A3005 RMK AO2 SLP175 T02390111 $=
201808281853 METAR KBFI 281853Z 31005KT 10SM CLR 23/11 A3007 RMK AO2 SLP181 T02280106 $=
201808281753 METAR KBFI 281753Z 00000KT 10SM CLR 21/11 A3008 RMK AO2 SLP185 T02110106 10211 20122 58006=
201808281653 METAR KBFI 281653Z 00000KT 10SM FEW250 19/11 A3009 RMK AO2 SLP188 T01890106=
201808281553 METAR KBFI 281553Z 00000KT 10SM CLR 17/11 A3009 RMK AO2 SLP190 T01670111 $=
201808281453 METAR KBFI 281453Z 00000KT 10SM CLR 15/11 A3010 RMK AO2 SLP190 T01500111 53005 $=
201808281353 METAR KBFI 281353Z 16003KT 10SM CLR 13/10 A3008 RMK AO2 SLP185 T01280100 $=
201808281253 METAR KBFI 281253Z 15003KT 10SM CLR 13/11 A3007 RMK AO2 SLP182 T01280106 $=
201808281153 METAR KBFI 281153Z AUTO 14004KT 10SM CLR 13/11 A3008 RMK AO2 SLP186 T01330106 10178 20133 58003 $=
201808281053 METAR KBFI 281053Z AUTO 14003KT 10SM CLR 13/11 A3009 RMK AO2 SLP190 T01330106 $=
201808280953 METAR KBFI 280953Z 14005KT 10SM CLR 14/11 A3009 RMK AO2 SLP188 T01390106 $=
201808280853 METAR KBFI 280853Z 00000KT 10SM CLR 14/11 A3009 RMK AO2 SLP189 T01440106 53003 $=
201808280753 METAR KBFI 280753Z 00000KT 10SM CLR 15/11 A3009 RMK AO2 SLP187 T01500111 402440139 $=
201808280653 METAR KBFI 280653Z 13004KT 10SM CLR 17/11 A3008 RMK AO2 SLP187 T01720111 $=
201808280553 METAR KBFI 280553Z 00000KT 10SM CLR 18/09 A3008 RMK AO2 SLP186 T01780094 10244 20172 51006 $=
201808280453 METAR KBFI 280453Z 00000KT 10SM BKN250 19/09 A3008 RMK AO2 SLP186 T01890094 $=
201808280353 METAR KBFI 280353Z 00000KT 10SM CLR 20/10 A3008 RMK AO2 SLP185 T02000100 $=
201808280253 METAR KBFI 280253Z 31003KT 10SM FEW250 22/09 A3006 RMK AO2 SLP180 T02170094 56005 $=
201808280153 METAR KBFI 280153Z 26003KT 10SM FEW250 23/09 A3007 RMK AO2 SLP181 T02330089 $=
201808280053 METAR KBFI 280053Z 33005KT 10SM FEW250 24/09 A3007 RMK AO2 SLP183 T02390094 $=
201808272353 METAR KBFI 272353Z 05006KT 10SM FEW250 24/10 A3008 RMK AO2 SLP185 T02390100 10239 20172 58011 $=
201808272253 METAR KBFI 272253Z VRB05KT 10SM CLR 23/11 A3009 RMK AO2 SLP189 T02330106=
201808272153 METAR KBFI 272153Z VRB05KT 10SM FEW080 23/11 A3010 RMK AO2 SLP193 T02280111=
201808272053 METAR KBFI 272053Z 08005KT 10SM CLR 21/11 A3011 RMK AO2 SLP196 T02060106 58005=
201808271953 METAR KBFI 271953Z 08004KT 10SM FEW030 20/10 A3012 RMK AO2 SLP198 T02000100=
201808271853 METAR KBFI 271853Z 02007KT 10SM SCT024 18/11 A3013 RMK AO2 SLP202 T01830106=
201808271830 SPECI KBFI 271830Z VRB06KT 10SM SCT026 18/11 A3013 RMK AO2 T01830106=
201808271753 METAR KBFI 271753Z 01008KT 320V060 10SM OVC024 18/11 A3013 RMK AO2 SLP201 T01780111 10178 20139 51019=
201808271653 METAR KBFI 271653Z VRB05KT 10SM OVC020 16/12 A3012 RMK AO2 SLP197 T01610117=
201808271553 METAR KBFI 271553Z AUTO 10SM OVC020 16/12 A3009 RMK AO2 SLP190 T01560117=
201808271453 METAR KBFI 271453Z VRB04KT 10SM OVC025 15/12 A3007 RMK AO2 SLP182 T01500117 53019=
201808271353 METAR KBFI 271353Z VRB03KT 10SM BKN015 OVC034 15/12 A3005 RMK AO2 SLP177 T01500117=
201808271253 METAR KBFI 271253Z 00000KT 10SM BR BKN023 OVC050 14/12 A3003 RMK AO2 SLP168 T01390122 $=
201808271153 METAR KBFI 271153Z 00000KT 10SM BR OVC012 14/12 A3002 RMK AO2 SLP164 60001 70002 T01440122 10150 20144 51014 $=
201808271053 METAR KBFI 271053Z 31004KT 6SM BR OVC010 14/13 A3000 RMK AO2 SLP159 T01440128 $=
201808270953 METAR KBFI 270953Z 35004KT 6SM HZ FEW005 BKN010 OVC030 15/12 A2999 RMK AO2 SLP155 T01500122 $=
201808270853 METAR KBFI 270853Z 00000KT 6SM BR FEW005 BKN010 OVC030 15/13 A2997 RMK AO2 SLP150 60001 T01500133 53008 $=
201808270753 METAR KBFI 270753Z 34003KT 6SM BR SCT005 BKN010 OVC016 15/14 A2997 RMK AO2 SLP147 T01500139 401890144 $=
201808270653 METAR KBFI 270653Z 00000KT 2 1/2SM BR OVC005 15/14 A2995 RMK AO2 RAB08E22 SLP143 P0001 T01500139 $=
201808270553 METAR KBFI 270553Z 15003KT 2 1/2SM BR OVC006 15/13 A2995 RMK AO2 RAE06B42E51 SLP142 P0001 60001 T01500133 10178 20150 51008 $=
201808270453 METAR KBFI 270453Z 00000KT 2 1/2SM -RA BR OVC007 15/13 A2995 RMK AO2 RAB48 CIG 006V010 SLP140 P0000 T01500133 $=
201808270353 METAR KBFI 270353Z VRB04KT 2 1/2SM BR BKN009 OVC011 15/14 A2994 RMK AO2 RAE49 SLP136 P0000 T01500139 $=
201808270253 METAR KBFI 270253Z 13006KT 2 1/2SM -RA BR BKN011 OVC026 16/13 A2993 RMK AO2 RAB17 SLP134 P0000 60000 T01560133 55009 $=
201808270241 SPECI KBFI 270241Z 15008KT 2 1/2SM -RA BKN011 OVC026 16/13 A2993 RMK AO2 RAB17 P0000 T01560128 $=
201808270153 METAR KBFI 270153Z 18008KT 8SM OVC027 17/12 A2993 RMK AO2 SLP133 T01670117=
201808270053 METAR KBFI 270053Z 16009KT 10SM BKN030 OVC038 18/11 A2994 RMK AO2 SLP138 T01780106=
201808262353 METAR KBFI 262353Z 18007KT 10SM BKN027 OVC034 18/11 A2996 RMK AO2 SLP143 T01780106 10189 20167 58010=
201808262253 METAR KBFI 262253Z 21007KT 10SM BKN029 OVC050 18/10 A2997 RMK AO2 SLP147 T01830100=
201808262153 METAR KBFI 262153Z 19008KT 10SM BKN029 OVC035 18/11 A2998 RMK AO2 SLP152 T01780106=
201808262053 METAR KBFI 262053Z 20009G15KT 10SM BKN029 OVC035 18/11 A2999 RMK AO2 SLP153 T01780106 58009=
201808261953 METAR KBFI 261953Z 23008KT 10SM OVC025 17/11 A3000 RMK AO2 SLP158 T01720111=
201808261853 METAR KBFI 261853Z 20011G15KT 10SM OVC026 18/11 A3000 RMK AO2 SLP160 T01780106=
201808261753 METAR KBFI 261753Z 19009G15KT 10SM BKN023 BKN049 BKN095 17/11 A3001 RMK AO2 SLP162 T01720111 10172 20150 56008=
201808261653 METAR KBFI 261653Z 19005KT 10SM BKN016 OVC100 16/12 A3002 RMK AO2 SLP165 T01610117=
201808261553 METAR KBFI 261553Z 20004KT 10SM FU BKN012 OVC022 16/12 A3003 RMK AO2 SLP168 T01560122=
201808261453 METAR KBFI 261453Z 19003KT 10SM FU SCT017 BKN024 OVC070 15/12 A3004 RMK AO2 SLP170 T01500122 56000=
201808261353 METAR KBFI 261353Z 00000KT 6SM HZ FU OVC022 15/12 A3004 RMK AO2 SLP171 T01500117=
201808261341 SPECI KBFI 261341Z 00000KT 6SM HZ FU OVC026 15/11 A3004 RMK AO2 T01500111=
201808261253 METAR KBFI 261253Z 25004KT 6SM HZ FU OVC055 15/11 A3003 RMK AO2 SLP169 T01500106=
201808261153 METAR KBFI 261153Z 00000KT 6SM HZ FU OVC055 15/11 A3004 RMK AO2 SLP171 T01500111 10172 20150 58004=
201808261053 METAR KBFI 261053Z 00000KT 6SM HZ FU BKN030 OVC035 15/11 A3004 RMK AO2 SLP173 T01500111=
201808261023 SPECI KBFI 261023Z 30003KT 6SM HZ FU BKN030 OVC035 15/11 A3005 RMK AO2 T01500111=
201808261013 SPECI KBFI 261013Z 29003KT 6SM HZ FU BKN029 OVC045 15/11 A3005 RMK AO2 T01500111=
201808260953 METAR KBFI 260953Z 00000KT 6SM HZ FU BKN030 OVC035 15/11 A3005 RMK AO2 SLP174 T01500111=
201808260853 METAR KBFI 260853Z 28003KT 7SM FU OVC032 16/11 A3005 RMK AO2 SLP175 T01560111 56002=
201808260753 METAR KBFI 260753Z 00000KT 7SM FU OVC038 16/11 A3006 RMK AO2 SLP177 T01610111 401830122=
201808260653 METAR KBFI 260653Z 00000KT 7SM FU BKN038 OVC048 16/11 A3005 RMK AO2 SLP175 T01610111=
201808260553 METAR KBFI 260553Z 00000KT 7SM FU OVC039 17/11 A3006 RMK AO2 SLP178 T01720111 10178 20167 51004=
201808260453 METAR KBFI 260453Z 00000KT 7SM FU OVC048 17/11 A3005 RMK AO2 SLP177 T01720111=
201808260353 METAR KBFI 260353Z VRB03KT 8SM FU BKN033 OVC040 17/11 A3005 RMK AO2 SLP177 T01720106=
201808260253 METAR KBFI 260253Z 00000KT 9SM FU BKN027 OVC044 17/10 A3004 RMK AO2 SLP173 T01720100 55000=
201808260153 METAR KBFI 260153Z AUTO 35003KT 7SM FU BKN027 OVC044 17/10 A3004 RMK AO2 SLP172 T01720100=
201808260053 METAR KBFI 260053Z 24003KT 7SM FU BKN027 OVC044 18/11 A3005 RMK AO2 SLP174 T01780106=
201808252353 METAR KBFI 252353Z 24006KT 7SM FU BKN028 18/10 A3004 RMK AO2 SLP173 60000 T01780100 10183 20139 57007=
201808252346 SPECI KBFI 252346Z 23004KT 8SM FU SCT028 18/10 A3005 RMK AO2 T01780100=
201808252253 METAR KBFI 252253Z 16005KT 10SM FU FEW028 OVC080 17/10 A3005 RMK AO2 SLP177 T01720100=
201808252153 METAR KBFI 252153Z 17006KT 9SM FU OVC080 17/09 A3006 RMK AO2 SLP178 T01720094=
201808252053 METAR KBFI 252053Z 22007KT 7SM FU FEW022 BKN025 OVC080 17/09 A3007 RMK AO2 SLP181 60000 T01670094 55007=
201808251953 METAR KBFI 251953Z 17006KT 6SM HZ FU FEW022 BKN025 OVC080 16/09 A3006 RMK AO2 SLP178 T01610094=
201808251853 METAR KBFI 251853Z 15007KT 5SM HZ FU OVC015 15/10 A3008 RMK AO2 RAE17 SLP186 P0000 T01500100=
201808251753 METAR KBFI 251753Z 14009KT 5SM -RA FU OVC016 14/11 A3009 RMK AO2 RAB39 SLP188 P0000 60000 T01390106 10144 20122 50004=
201808251653 METAR KBFI 251653Z 15006KT 5SM HZ FU OVC013 14/09 A3009 RMK AO2 SLP189 T01390094=
201808251553 METAR KBFI 251553Z 20006KT 6SM HZ FU OVC011 13/09 A3009 RMK AO2 SLP187 T01330094=
201808251453 METAR KBFI 251453Z 22004KT 5SM HZ FU OVC010 13/10 A3008 RMK AO2 SLP184 T01330100 53002=
201808251353 METAR KBFI 251353Z 21007KT 5SM HZ FU OVC010 13/10 A3007 RMK AO2 SLP181 T01280100=
201808251253 METAR KBFI 251253Z 15004KT 5SM BR FU OVC011 12/10 A3006 RMK AO2 SLP180 T01220100=
201808251153 METAR KBFI 251153Z 15005KT 5SM BR FU SCT013 12/10 A3007 RMK AO2 SLP182 T01220100 10156 20122 50000=
201808251053 METAR KBFI 251053Z 00000KT 6SM HZ FU CLR 13/09 A3008 RMK AO2 SLP185 T01280094=
201808250953 METAR KBFI 250953Z 00000KT 6SM HZ FU CLR 13/10 A3008 RMK AO2 SLP184 T01280100=
201808250853 METAR KBFI 250853Z 00000KT 6SM HZ FU CLR 13/09 A3007 RMK AO2 SLP182 T01330094 58003=
201808250753 METAR KBFI 250753Z 15004KT 7SM FU CLR 14/10 A3008 RMK AO2 SLP185 T01390100 402110139=
201808250653 METAR KBFI 250653Z 17005KT 6SM HZ FU CLR 14/10 A3008 RMK AO2 SLP185 T01440100=
201808250553 METAR KBFI 250553Z 14005KT 6SM HZ FU CLR 16/10 A3008 RMK AO2 SLP185 T01560100 10211 20150 50005=
201808250453 METAR KBFI 250453Z 16003KT 5SM HZ FU CLR 17/09 A3008 RMK AO2 SLP186 T01670094=
201808250353 METAR KBFI 250353Z 18004KT 3SM HZ FU SCT085 17/09 A3008 RMK AO2 SLP184 T01720094=
201808250301 SPECI KBFI 250301Z 22004KT 3SM HZ FU SCT085 18/09 A3007 RMK AO2 T01780094=
201808250253 METAR KBFI 250253Z 23005KT 2SM HZ FU SCT085 18/09 A3006 RMK AO2 SLP180 T01780089 58000=
201808250228 SPECI KBFI 250228Z 19004KT 2SM HZ FU CLR 18/09 A3006 RMK AO2 T01830094=
201808250153 METAR KBFI 250153Z 21004KT 4SM HZ BKN085 18/09 A3007 RMK AO2 SLP181 T01830089=
201808250053 METAR KBFI 250053Z VRB06KT 4SM HZ OVC080 20/09 A3007 RMK AO2 SLP181 T02000089=
201808242353 METAR KBFI 242353Z 22006KT 7SM BKN085 21/09 A3007 RMK AO2 SLP181 T02060089 10211 20167 58007=
201808242253 METAR KBFI 242253Z 19007KT 8SM BKN085 21/09 A3008 RMK AO2 SLP184 T02060089=
201808242153 METAR KBFI 242153Z 8SM SCT039 OVC085 21/09 A3008 RMK AO2 SLP187 T02110089=
201808242053 METAR KBFI 242053Z VRB06KT 8SM BKN029 OVC035 21/09 A3009 RMK AO2 SLP187 T02110094 58002=
201808241953 METAR KBFI 241953Z VRB05KT 8SM BKN029 OVC035 20/10 A3009 RMK AO2 SLP188 T02000100=
201808241853 SPECI KBFI 241853Z 16006KT 7SM BKN029 OVC036 18/09 A3009 RMK AO2 SLP190 T01830094=
201808241853 METAR KBFI 241853Z 16006KT 7SM BKN029 OVC036 18/09 A3009 RMK AO2 SLP190 T01830094=
201808241753 METAR KBFI 241753Z 22005KT 8SM BKN022 BKN028 17/09 A3009 RMK AO2 SLP190 T01670094 10172 20144 53008=
201808241653 METAR KBFI 241653Z 21006KT 10SM BKN018 OVC023 16/10 A3008 RMK AO2 SLP186 T01560100=
201808241553 METAR KBFI 241553Z 19005KT 10SM BKN018 OVC023 16/10 A3008 RMK AO2 SLP186 T01560100=
201808241453 METAR KBFI 241453Z 19005KT 10SM OVC018 15/10 A3007 RMK AO2 SLP182 T01500100 53009=
201808241353 METAR KBFI 241353Z 19008KT 10SM OVC020 14/09 A3006 RMK AO2 SLP178 T01440094=
201808241253 METAR KBFI 241253Z 19006KT 10SM OVC018 14/09 A3005 RMK AO2 SLP174 T01440094=
201808241153 METAR KBFI 241153Z 17006KT 10SM OVC018 14/10 A3004 RMK AO2 SLP173 T01440100 10156 20139 50003=
201808241053 METAR KBFI 241053Z 21004KT 10SM OVC020 14/10 A3005 RMK AO2 SLP175 T01440100=
201808240953 METAR KBFI 240953Z 19005KT 10SM BKN023 OVC028 14/11 A3004 RMK AO2 SLP172 T01390106=
201808240853 METAR KBFI 240853Z 21007KT 10SM OVC023 15/10 A3004 RMK AO2 SLP170 T01500100 52004=
201808240753 METAR KBFI 240753Z VRB05KT 10SM OVC030 15/10 A3003 RMK AO2 SLP170 T01500100 402280144=
201808240653 METAR KBFI 240653Z 23005KT 10SM BKN033 16/10 A3002 RMK AO2 SLP167 T01560100=
201808240553 METAR KBFI 240553Z VRB05KT 10SM FU SCT065 16/10 A3002 RMK AO2 SLP166 T01560100 10228 20156 51016=
201808240453 METAR KBFI 240453Z 26003KT 6SM HZ FU FEW060 17/11 A3002 RMK AO2 SLP165 T01670106=
201808240353 METAR KBFI 240353Z 24005KT 7SM FEW060 18/09 A3000 RMK AO2 SLP158 T01780094=
201808240253 METAR KBFI 240253Z 23005KT 10SM FEW040 SCT100 20/10 A2998 RMK AO2 SLP150 T02000100 55004=
201808240153 METAR KBFI 240153Z 21005KT 10SM FEW048 22/09 A2997 RMK AO2 SLP148 T02220089=
201808240053 METAR KBFI 240053Z 19005KT 10SM FEW041 SCT100 22/09 A2998 RMK AO2 SLP151 T02220094=
201808232353 METAR KBFI 232353Z 20007KT 150V230 10SM FEW041 SCT100 22/11 A2999 RMK AO2 SLP155 T02220106 10228 20167 58012=
201808232253 METAR KBFI 232253Z AUTO VRB03KT 10SM OVC040 21/11 A3000 RMK AO2 SLP159 T02110106=
201808232153 METAR KBFI 232153Z 24009G15KT 10SM BKN042 22/11 A3002 RMK AO2 SLP165 T02170106=
201808232053 METAR KBFI 232053Z 20007KT 10SM OVC040 21/10 A3002 RMK AO2 SLP166 T02060100 56005=
201808231953 METAR KBFI 231953Z VRB06G17KT 10SM BKN036 20/09 A3002 RMK AO2 SLP167 T02000094=
201808231853 METAR KBFI 231853Z 20007KT 180V240 10SM BKN034 BKN045 19/11 A3003 RMK AO2 SLP170 T01890106=
201808231753 METAR KBFI 231753Z 17009KT 10SM BKN030 17/10 A3004 RMK AO2 SLP172 T01670100 10172 20144 53002=
201808231653 METAR KBFI 231653Z 17009KT 10SM BKN014 OVC030 16/12 A3003 RMK AO2 SLP170 T01610122=
201808231553 METAR KBFI 231553Z 18006KT 4SM BR FU BKN011 OVC015 14/13 A3004 RMK AO2 SLP172 T01440133=
201808231453 METAR KBFI 231453Z 20007KT 4SM BR FU BKN011 OVC015 14/12 A3004 RMK AO2 SLP170 T01440122 53015=
201808231153 METAR KBFI 231153Z 19007KT 4SM HZ FU OVC020 16/11 A2999 RMK AO2 SLP155 T01560111 10156 20150 51005 $=
201808231053 METAR KBFI 231053Z 19007KT 5SM HZ FU OVC019 16/11 A2999 RMK AO2 SLP155 T01560111 $=
201808230953 METAR KBFI 230953Z 18009KT 3SM HZ FU OVC017 16/11 A2999 RMK AO2 SLP153 T01560111 $=
201808230853 METAR KBFI 230853Z 19006KT 3SM HZ FU OVC017 16/11 A2998 RMK AO2 SLP151 T01560111 51010 $=
201808230753 METAR KBFI 230753Z 17006KT 3SM HZ FU FEW016 BKN033 16/12 A2997 RMK AO2 SLP149 T01560117 403220150 $=
201808230653 METAR KBFI 230653Z 20005KT 4SM HZ FU CLR 16/12 A2996 RMK AO2 SLP144 T01560117 $=
201808230553 METAR KBFI 230553Z 18006KT 4SM HZ FU CLR 16/12 A2995 RMK AO2 SLP140 T01560117 10317 20156 51028 $=
201808230453 METAR KBFI 230453Z 18007KT 4SM HZ FU CLR 17/12 A2994 RMK AO2 SLP137 T01670122 $=
201808230353 METAR KBFI 230353Z 22004KT 5SM HZ CLR 19/12 A2990 RMK AO2 SLP124 T01940122 $=
201808230253 METAR KBFI 230253Z 26005KT 3SM HZ CLR 25/11 A2986 RMK AO2 SLP112 T02500106 $=
201808230153 METAR KBFI 230153Z VRB05KT 4SM HZ CLR 28/11 A2985 RMK AO2 SLP108 T02830106 $=
201808230130 SPECI KBFI 230130Z 25006KT 4SM HZ FEW009 29/09 A2985 RMK AO2 T02940094 $=
201808230053 METAR KBFI 230053Z 00000KT 3SM HZ FU CLR 31/08 A2985 RMK AO2 SLP108 T03110078=
201808222353 METAR KBFI 222353Z 30004KT 4SM HZ FU CLR 32/08 A2986 RMK AO2 SLP112 T03170078 10322 20244 56014=
201808222253 METAR KBFI 222253Z VRB03KT 4SM HZ FU CLR 31/06 A2987 RMK AO2 SLP115 T03110061=
201808222153 METAR KBFI 222153Z 00000KT 3SM HZ FU CLR 30/08 A2989 RMK AO2 SLP120 T03000083=
201808222053 METAR KBFI 222053Z 35004KT 3SM HZ FU CLR 29/10 A2990 RMK AO2 SLP126 T02890100 56013=
201808222000 SPECI KBFI 222000Z VRB04KT 3SM HZ FU CLR 27/11 A2991 RMK AO2 T02720106=
201808221953 METAR KBFI 221953Z 32005KT 2 1/2SM HZ FU CLR 27/11 A2991 RMK AO2 SLP129 T02720111=
201808221853 METAR KBFI 221853Z VRB05KT 2 1/2SM HZ FU CLR 26/11 A2993 RMK AO2 SLP134 T02610111=
201808221753 METAR KBFI 221753Z 00000KT 3SM HZ FU CLR 24/10 A2994 RMK AO2 SLP138 T02440100 10250 20161 58003=
201808221653 METAR KBFI 221653Z VRB03KT 2 1/2SM HZ FU CLR 22/11 A2995 RMK AO2 SLP141 T02220106=
201808221553 METAR KBFI 221553Z 00000KT 2 1/2SM HZ FU CLR 19/12 A2995 RMK AO2 SLP142 T01940122=
201808221453 METAR KBFI 221453Z 00000KT 2 1/2SM HZ FU FEW034 18/13 A2995 RMK AO2 SLP142 T01780128 51004=
201808221353 METAR KBFI 221353Z 00000KT 3SM HZ FU OVC030 17/12 A2995 RMK AO2 SLP141 T01720117=
201808221253 METAR KBFI 221253Z 00000KT 3SM HZ FU OVC037 17/12 A2994 RMK AO2 SLP138 T01720117=
201808221153 METAR KBFI 221153Z AUTO 00000KT 3SM HZ FU BKN040 17/12 A2994 RMK AO2 SLP138 T01670117 10222 20167 56004=
201808221053 METAR KBFI 221053Z AUTO 00000KT 3SM HZ FU OVC037 18/11 A2994 RMK AO2 SLP139 T01780111=
201808220953 METAR KBFI 220953Z 00000KT 3SM HZ FU OVC038 18/11 A2994 RMK AO2 SLP139 T01830111=
201808220853 METAR KBFI 220853Z 00000KT 3SM HZ FU OVC037 18/12 A2995 RMK AO2 SLP142 T01830117 53004=
201808220753 METAR KBFI 220753Z 00000KT 3SM HZ FU OVC034 19/12 A2995 RMK AO2 SLP141 T01890122 403060172=
201808220653 METAR KBFI 220653Z 00000KT 3SM HZ FU SCT034 20/12 A2994 RMK AO2 SLP139 T02000122=
201808220553 METAR KBFI 220553Z 00000KT 3SM HZ FU BKN037 22/12 A2994 RMK AO2 SLP139 T02220122 10300 20217 58001=
201808220453 METAR KBFI 220453Z 00000KT 4SM HZ FU FEW037 23/12 A2995 RMK AO2 SLP142 T02280117=
201808220353 METAR KBFI 220353Z 32003KT 4SM HZ FU OVC035 24/12 A2995 RMK AO2 SLP141 T02440117=
201808220253 METAR KBFI 220253Z 31004KT 3SM HZ FU FEW037 26/11 A2994 RMK AO2 SLP139 T02560111 56006=
201808220153 METAR KBFI 220153Z 31005KT 3SM HZ FU FEW038 28/11 A2995 RMK AO2 SLP141 T02830106=
201808220053 METAR KBFI 220053Z AUTO 31005KT 3SM HZ FU CLR 29/08 A2995 RMK AO2 SLP142 T02940083=
201808212353 METAR KBFI 212353Z 31006KT 4SM HZ FU CLR 29/09 A2996 RMK AO2 SLP146 T02940089 10306 20239 57018=
201808212253 METAR KBFI 212253Z 32008KT 4SM HZ FU CLR 30/09 A2998 RMK AO2 SLP150 T03000094=
201808212153 METAR KBFI 212153Z 33009G15KT 4SM HZ FU CLR 30/09 A3000 RMK AO2 SLP159 T03000089=
201808212053 METAR KBFI 212053Z 32006KT 4SM HZ FU CLR 29/10 A3002 RMK AO2 SLP164 T02890100 58015=
201808211953 METAR KBFI 211953Z 34007KT 4SM HZ FU CLR 27/11 A3003 RMK AO2 SLP169 T02720111=
201808211853 METAR KBFI 211853Z 30006KT 3SM HZ FU CLR 26/14 A3005 RMK AO2 SLP175 T02560139=
201808211753 METAR KBFI 211753Z 31005KT 3SM HZ FU CLR 24/14 A3006 RMK AO2 SLP178 T02390144 10239 20172 56002=
201808211653 METAR KBFI 211653Z 30003KT 3SM HZ FU CLR 23/15 A3006 RMK AO2 SLP178 T02280150=
201808211553 METAR KBFI 211553Z 00000KT 3SM HZ FU CLR 21/14 A3006 RMK AO2 SLP180 T02060144=
201808211453 METAR KBFI 211453Z 00000KT 3SM HZ FU CLR 19/13 A3007 RMK AO2 SLP181 T01890133 53003=
201808211353 METAR KBFI 211353Z 00000KT 3SM HZ FU CLR 17/13 A3005 RMK AO2 SLP177 T01720128=
201808211253 METAR KBFI 211253Z 00000KT 3SM HZ FU CLR 18/13 A3005 RMK AO2 SLP177 T01780128=
201808211153 METAR KBFI 211153Z 00000KT 3SM HZ FU CLR 18/13 A3006 RMK AO2 SLP177 T01830133 10228 20183 53006=
201808211053 METAR KBFI 211053Z 00000KT 3SM HZ FU FEW050 18/15 A3005 RMK AO2 SLP174 T01830150=
201808210953 METAR KBFI 210953Z 00000KT 3SM HZ FU CLR 19/16 A3004 RMK AO2 SLP172 T01940156=
201808210853 METAR KBFI 210853Z 00000KT 3SM HZ FU OVC047 19/16 A3004 RMK AO2 SLP171 T01940156 53010=
201808210753 METAR KBFI 210753Z 13003KT 3SM HZ FU OVC043 20/16 A3003 RMK AO2 SLP168 T02000161 402720150=
201808210653 METAR KBFI 210653Z 00000KT 3SM HZ FU OVC044 22/14 A3001 RMK AO2 SLP163 T02170139=
201808210453 METAR KBFI 210453Z 00000KT 4SM HZ FU SCT050 23/14 A3000 RMK AO2 SLP160 T02330139=
201808210353 METAR KBFI 210353Z 07003KT 3SM HZ FU SCT048 24/14 A3000 RMK AO2 SLP157 T02390139=
201808210253 METAR KBFI 210253Z 00000KT 2 1/2SM HZ FU FEW043 25/13 A2998 RMK AO2 SLP152 T02500128 53001=
201808210153 METAR KBFI 210153Z VRB03KT 2 1/2SM HZ FU CLR 26/13 A2998 RMK AO2 SLP150 T02610128=
201808210053 METAR KBFI 210053Z 02005KT 2 1/2SM HZ FU CLR 27/12 A2997 RMK AO2 SLP150 T02670122=
201808202353 METAR KBFI 202353Z 04005KT 2 1/2SM HZ FU CLR 27/12 A2998 RMK AO2 SLP150 T02720122 10272 20200 56007=
201808202253 METAR KBFI 202253Z 00000KT 3SM HZ FU CLR 27/13 A2998 RMK AO2 SLP151 T02670128=
201808202153 METAR KBFI 202153Z 30007KT 3SM HZ FU CLR 26/12 A2999 RMK AO2 SLP155 T02560117=
201808202053 METAR KBFI 202053Z 30008G15KT 3SM HZ FU CLR 26/12 A3000 RMK AO2 SLP157 T02560117 58016=
201808201953 METAR KBFI 201953Z 31007G14KT 3SM HZ FU CLR 24/12 A3001 RMK AO2 SLP163 T02440117=
201808201933 SPECI KBFI 201933Z VRB06KT 3SM HZ FU CLR 24/12 A3002 RMK AO2 T02440122=
201808201926 SPECI KBFI 201926Z 32006KT 2 1/2SM HZ FU CLR 24/12 A3002 RMK AO2 T02390122=
201808201853 METAR KBFI 201853Z VRB04KT 4SM HZ FU CLR 22/14 A3003 RMK AO2 SLP170 T02170139=
201808201753 METAR KBFI 201753Z VRB06KT 4SM HZ FU CLR 20/13 A3004 RMK AO2 SLP173 T02000133 10206 20150 56002=
201808201653 METAR KBFI 201653Z 31004KT 5SM HZ FU CLR 19/13 A3005 RMK AO2 SLP174 T01890128=
201808201553 METAR KBFI 201553Z VRB03KT 7SM FU CLR 17/13 A3005 RMK AO2 SLP175 T01670128=
201808201453 METAR KBFI 201453Z 30003KT 7SM FU CLR 16/12 A3005 RMK AO2 SLP176 T01560122 53008=
201808201353 METAR KBFI 201353Z 00000KT 7SM FU CLR 16/12 A3004 RMK AO2 SLP171 T01560122=
201808201253 METAR KBFI 201253Z 00000KT 10SM FU CLR 16/12 A3003 RMK AO2 SLP168 T01560122=
201808201153 METAR KBFI 201153Z 00000KT 7SM FU CLR 16/12 A3003 RMK AO2 SLP168 T01610122 10200 20161 53004=
201808201053 METAR KBFI 201053Z 00000KT 9SM FU CLR 17/12 A3002 RMK AO2 SLP166 T01670122=
201808200953 METAR KBFI 200953Z 00000KT 10SM FU SCT055 17/12 A3002 RMK AO2 SLP164 T01670122=
201808200853 METAR KBFI 200853Z 00000KT 7SM FU SCT050 17/12 A3002 RMK AO2 SLP164 T01670117 55000=
201808200753 METAR KBFI 200753Z 32005KT 7SM FU BKN050 17/13 A3002 RMK AO2 SLP165 T01720128 402500150=
201808200653 METAR KBFI 200653Z 33005KT 9SM FU BKN055 18/13 A3002 RMK AO2 SLP164 T01830128=
201808200553 METAR KBFI 200553Z 00000KT 8SM FU BKN050 20/13 A3002 RMK AO2 SLP164 T02000133 10244 20194 50006=
201808200453 METAR KBFI 200453Z 31003KT 8SM FU CLR 20/13 A3002 RMK AO2 SLP165 T02000133=
201808200353 METAR KBFI 200353Z 31003KT 4SM HZ FU BKN047 21/13 A3001 RMK AO2 SLP163 T02060133=
201808200302 SPECI KBFI 200302Z 3SM HZ FU OVC043 22/13 A3000 RMK AO2 T02220128=
201808200253 METAR KBFI 200253Z 31004KT 2 1/2SM HZ FU OVC043 22/12 A3000 RMK AO2 SLP158 T02220122 55001=
201808200153 METAR KBFI 200153Z 31003KT 2SM HZ FU CLR 23/12 A2999 RMK AO2 SLP155 T02280117=
201808200103 SPECI KBFI 200103Z VRB05KT 2SM HZ FU CLR 24/12 A2999 RMK AO2 T02390117=
201808200053 METAR KBFI 200053Z 31006KT 3SM HZ FU CLR 24/12 A3000 RMK AO2 SLP157 T02390117=
201808192353 METAR KBFI 192353Z 31008KT 3SM HZ FU CLR 24/12 A3000 RMK AO2 SLP159 T02440117 10250 20206 56016=
201808192253 METAR KBFI 192253Z 32006KT 5SM HZ FU FEW040 24/13 A3001 RMK AO2 SLP163 T02440128=
201808192153 METAR KBFI 192153Z 33008KT 6SM HZ FU CLR 24/13 A3003 RMK AO2 SLP168 T02440128=
201808192053 METAR KBFI 192053Z 30007KT 10SM FU CLR 23/13 A3005 RMK AO2 SLP174 T02330128 58014=
201808191953 METAR KBFI 191953Z 31007KT 10SM FU CLR 23/13 A3006 RMK AO2 SLP178 T02280128=
201808191853 METAR KBFI 191853Z 33004KT 10SM FU CLR 21/12 A3008 RMK AO2 SLP184 T02110122=
201808191753 METAR KBFI 191753Z 32004KT 10SM CLR 21/13 A3009 RMK AO2 SLP188 T02110128 10211 20150 56005=
201808191653 METAR KBFI 191653Z 33005KT 10SM CLR 19/12 A3009 RMK AO2 SLP189 T01890122=
201808191553 METAR KBFI 191553Z 31004KT 10SM CLR 18/12 A3010 RMK AO2 SLP191 T01830122=
201808191453 METAR KBFI 191453Z 00000KT 10SM CLR 17/12 A3010 RMK AO2 SLP194 T01670122 53004=
201808191353 METAR KBFI 191353Z AUTO 00000KT 10SM CLR 16/12 A3010 RMK AO2 SLP192 T01560117=
201808191253 METAR KBFI 191253Z AUTO 30003KT 10SM CLR 15/12 A3009 RMK AO2 SLP190 T01500117=
201808191153 METAR KBFI 191153Z 00000KT 10SM CLR 16/12 A3009 RMK AO2 SLP190 T01560117 10194 20150 50001=
201808191053 METAR KBFI 191053Z 33003KT 10SM CLR 16/12 A3009 RMK AO2 SLP190 T01610117=
201808190953 METAR KBFI 190953Z 34005KT 10SM CLR 17/12 A3009 RMK AO2 SLP188 T01670122=
201808190853 METAR KBFI 190853Z 00000KT 10SM CLR 18/13 A3009 RMK AO2 SLP188 T01780128 58001=
201808190753 METAR KBFI 190753Z 30004KT 10SM CLR 18/12 A3009 RMK AO2 SLP189 T01830122 402610133=
201808190653 METAR KBFI 190653Z 00000KT 10SM CLR 19/12 A3009 RMK AO2 SLP189 T01890122=
201808190553 METAR KBFI 190553Z 31004KT 10SM CLR 19/12 A3009 RMK AO2 SLP189 T01940122 10261 20194 50000=
201808190453 METAR KBFI 190453Z VRB03KT 10SM CLR 21/11 A3009 RMK AO2 SLP191 T02110111=
201808190353 METAR KBFI 190353Z 00000KT 10SM SCT200 23/11 A3009 RMK AO2 SLP190 T02280106=
201808190253 METAR KBFI 190253Z VRB04KT 10SM CLR 24/11 A3009 RMK AO2 SLP189 T02390106 56009=
201808190153 METAR KBFI 190153Z 29005KT 9SM FEW180 25/10 A3009 RMK AO2 SLP190 T02500100=
201808190053 METAR KBFI 190053Z VRB05KT 10SM FEW180 26/09 A3010 RMK AO2 SLP194 T02610094=
201808182353 METAR KBFI 182353Z 31008KT 10SM CLR 26/10 A3012 RMK AO2 SLP199 T02560100 10261 20200 58017=
201808182253 METAR KBFI 182253Z VRB03KT 10SM CLR 26/09 A3014 RMK AO2 SLP205 T02560094=
201808182153 METAR KBFI 182153Z VRB05KT 10SM CLR 25/10 A3015 RMK AO2 SLP210 T02500100=
201808182053 METAR KBFI 182053Z VRB04KT 10SM CLR 23/11 A3017 RMK AO2 SLP216 T02330111 58015=
201808181953 METAR KBFI 181953Z 29005KT 10SM CLR 23/12 A3019 RMK AO2 SLP221 T02280117=
201808181853 METAR KBFI 181853Z 34005KT 10SM CLR 21/12 A3020 RMK AO2 SLP226 T02110117=
201808181753 METAR KBFI 181753Z VRB04KT 10SM CLR 20/12 A3021 RMK AO2 SLP230 T02000117 10206 20133 58013=
201808181653 METAR KBFI 181653Z VRB03KT 10SM CLR 18/11 A3023 RMK AO2 SLP236 T01830111=
201808181553 METAR KBFI 181553Z 00000KT 10SM CLR 17/12 A3025 RMK AO2 SLP242 T01670117=
201808181453 METAR KBFI 181453Z VRB03KT 10SM CLR 15/12 A3025 RMK AO2 SLP243 T01500117 53008=
201808181353 METAR KBFI 181353Z 00000KT 10SM CLR 14/11 A3024 RMK AO2 SLP238 T01390106=
201808181253 METAR KBFI 181253Z 00000KT 10SM CLR 14/11 A3023 RMK AO2 SLP235 T01440111=
201808181153 METAR KBFI 181153Z 00000KT 10SM CLR 14/11 A3023 RMK AO2 SLP235 T01390111 10200 20139 53003=
201808181053 METAR KBFI 181053Z 00000KT 10SM CLR 14/11 A3022 RMK AO2 SLP233 T01440111=
201808180953 METAR KBFI 180953Z 00000KT 10SM CLR 15/11 A3022 RMK AO2 SLP231 T01500111=
201808180853 METAR KBFI 180853Z 00000KT 10SM CLR 16/12 A3022 RMK AO2 SLP231 T01610117 51004=
201808180753 METAR KBFI 180753Z 00000KT 10SM CLR 17/11 A3021 RMK AO2 SLP230 T01720111 402330133=
201808180653 METAR KBFI 180653Z 26003KT 10SM CLR 18/11 A3021 RMK AO2 SLP229 T01830111=
201808180553 METAR KBFI 180553Z 00000KT 10SM CLR 20/12 A3021 RMK AO2 SLP228 T02000117 10233 20194 51009=
201808180453 METAR KBFI 180453Z 00000KT 10SM CLR 21/12 A3021 RMK AO2 SLP228 T02060117=
201808180353 METAR KBFI 180353Z 00000KT 10SM CLR 22/12 A3019 RMK AO2 SLP224 T02170117=
201808180253 METAR KBFI 180253Z 24004KT 10SM CLR 22/11 A3018 RMK AO2 SLP219 T02220111 56008=
201808180153 METAR KBFI 180153Z 21003KT 10SM CLR 23/11 A3018 RMK AO2 SLP220 T02280111=
201808180053 METAR KBFI 180053Z VRB03KT 10SM CLR 23/11 A3019 RMK AO2 SLP224 T02330111=
201808172353 METAR KBFI 172353Z VRB03KT 10SM CLR 23/11 A3020 RMK AO2 SLP227 T02280111 10233 20161 56012=
201808172253 METAR KBFI 172253Z VRB04KT 10SM CLR 23/11 A3021 RMK AO2 SLP230 T02280111=
201808172153 METAR KBFI 172153Z 21005KT 10SM CLR 22/11 A3023 RMK AO2 SLP235 T02170106=
201808172053 METAR KBFI 172053Z 21005KT 10SM CLR 20/11 A3024 RMK AO2 SLP239 T02000106 58006=
201808171953 METAR KBFI 171953Z 23007KT 10SM FEW020 19/11 A3024 RMK AO2 SLP241 T01890106=
201808171853 METAR KBFI 171853Z 23009KT 10SM BKN019 18/11 A3026 RMK AO2 SLP246 T01830106=
201808171753 METAR KBFI 171753Z 24006KT 10SM OVC021 17/10 A3026 RMK AO2 SLP245 T01670100 10167 20133 53007=
201808171653 METAR KBFI 171653Z 17009KT 10SM OVC015 16/10 A3025 RMK AO2 SLP243 T01560100=
201808171553 METAR KBFI 171553Z 17007KT 10SM OVC012 14/10 A3024 RMK AO2 SLP240 T01440100=
201808171453 METAR KBFI 171453Z 19007KT 10SM OVC013 14/10 A3023 RMK AO2 SLP238 T01390100 53015=
201808171353 METAR KBFI 171353Z 18006KT 10SM OVC012 13/11 A3022 RMK AO2 SLP232 T01330106=
201808171259 SPECI KBFI 171259Z 18004KT 10SM SCT012 BKN022 OVC034 13/10 A3020 RMK AO2 T01330100=
201808171253 METAR KBFI 171253Z 20007KT 10SM FEW012 OVC034 13/10 A3020 RMK AO2 SLP226 T01330100=
201808171153 METAR KBFI 171153Z 20004KT 10SM HZ FU OVC035 13/11 A3019 RMK AO2 SLP223 T01330106 10183 20133 52011=
201808171053 METAR KBFI 171053Z 16006KT 10SM HZ FU CLR 14/10 A3018 RMK AO2 SLP218 T01390100=
201808170953 METAR KBFI 170953Z 21004KT 10SM HZ FU CLR 14/10 A3017 RMK AO2 SLP216 T01440100=
201808170853 METAR KBFI 170853Z AUTO 18003KT 10SM HZ FU CLR 16/11 A3016 RMK AO2 SLP211 T01560111 53015=
201808170753 METAR KBFI 170753Z 23003KT 10SM HZ FU CLR 17/12 A3014 RMK AO2 SLP205 T01670122 402280150=
201808170653 METAR KBFI 170653Z 00000KT 10SM HZ FU CLR 18/13 A3013 RMK AO2 SLP202 T01780128=
201808170553 METAR KBFI 170553Z 00000KT 10SM HZ FU CLR 18/13 A3011 RMK AO2 SLP196 T01830133 10228 20183 51018=
201808170453 METAR KBFI 170453Z 33003KT 10SM HZ FU CLR 19/13 A3010 RMK AO2 SLP191 T01940128=
201808170353 METAR KBFI 170353Z 33003KT 10SM HZ FU CLR 20/13 A3008 RMK AO2 SLP184 T02000128=
201808170253 METAR KBFI 170253Z 29004KT 10SM HZ FU CLR 21/13 A3006 RMK AO2 SLP178 T02110133 55001=
201808170153 METAR KBFI 170153Z 00000KT 6SM HZ FU CLR 22/13 A3006 RMK AO2 SLP178 T02220133=
201808170053 METAR KBFI 170053Z 25003KT 10SM HZ FU CLR 22/13 A3006 RMK AO2 SLP178 T02220133=
201808162353 METAR KBFI 162353Z VRB04KT 10SM HZ FU CLR 22/13 A3006 RMK AO2 SLP179 T02220128 10228 20167 56010=
201808162253 METAR KBFI 162253Z VRB06KT 10SM HZ FU CLR 22/13 A3007 RMK AO2 SLP181 T02170128=
201808162153 METAR KBFI 162153Z 00000KT 6SM HZ FU CLR 20/13 A3008 RMK AO2 SLP185 T02000128=
201808162053 METAR KBFI 162053Z 23008KT 5SM HZ FU OVC014 19/13 A3009 RMK AO2 SLP188 T01890128 50003=
201808161953 METAR KBFI 161953Z 22006KT 8SM BR OVC012 18/13 A3009 RMK AO2 SLP190 T01780128=
201808161853 METAR KBFI 161853Z 23005KT 8SM BR BKN010 OVC012 17/13 A3009 RMK AO2 SLP189 T01670133=
201808161753 METAR KBFI 161753Z 24006KT 6SM HZ OVC010 17/13 A3008 RMK AO2 SLP186 T01670133 10167 20150 51004=
201808161744 SPECI KBFI 161744Z 23006KT 6SM BR HZ FU OVC010 17/13 A3008 RMK AO2 T01670133=
201808161653 METAR KBFI 161653Z 22005KT 4SM BR HZ FU OVC007 16/13 A3008 RMK AO2 SLP185 T01610128=
201808161553 METAR KBFI 161553Z 18006KT 10SM BR OVC007 16/13 A3007 RMK AO2 SLP184 T01560133=
201808161453 METAR KBFI 161453Z 20005KT 5SM BR OVC006 15/13 A3007 RMK AO2 SLP181 T01500133 51019=
201808161353 METAR KBFI 161353Z 20003KT 3SM BR OVC006 15/13 A3006 RMK AO2 SLP177 T01500133=
201808161253 METAR KBFI 161253Z 20004KT 3SM BR FU OVC006 15/13 A3003 RMK AO2 SLP169 T01500133=
201808161153 METAR KBFI 161153Z 23004KT 9SM FU OVC007 16/13 A3001 RMK AO2 SLP163 T01560133 10206 20150 53017=
201808161120 SPECI KBFI 161120Z 22005KT 10SM FU BKN008 15/13 A3000 RMK AO2 T01500133=
201808161053 METAR KBFI 161053Z 21004KT 10SM FU SCT020 16/13 A3000 RMK AO2 SLP157 T01560133=
201808160953 METAR KBFI 160953Z 21005KT 10SM FU CLR 17/14 A2998 RMK AO2 SLP151 T01670139=
201808160853 METAR KBFI 160853Z 00000KT 7SM FU CLR 18/13 A2996 RMK AO2 SLP146 T01830128 52016=
201808160753 METAR KBFI 160753Z 00000KT 7SM FU CLR 18/13 A2995 RMK AO2 SLP141 T01830128 402890167=
201808160653 METAR KBFI 160653Z 00000KT 8SM FU CLR 19/12 A2993 RMK AO2 SLP134 T01940122=
201808160553 METAR KBFI 160553Z 34003KT 8SM FU CLR 21/12 A2991 RMK AO2 SLP130 T02060122 10289 20206 51016=
201808160453 METAR KBFI 160453Z 32003KT 8SM FU CLR 22/12 A2990 RMK AO2 SLP126 T02170117=
201808160353 METAR KBFI 160353Z VRB05KT 10SM FU CLR 23/12 A2989 RMK AO2 SLP121 T02280117=
201808160253 METAR KBFI 160253Z 32005KT 8SM FU CLR 26/12 A2987 RMK AO2 SLP113 T02560117 55000=
201808160153 METAR KBFI 160153Z 33006KT 7SM FU CLR 27/11 A2986 RMK AO2 SLP112 T02720106=
201808160053 METAR KBFI 160053Z 33007KT 6SM HZ FU CLR 28/13 A2986 RMK AO2 SLP112 T02780128=
201808152353 METAR KBFI 152353Z 30007KT 7SM FU CLR 29/11 A2987 RMK AO2 SLP114 T02890111 10289 20228 56009=
201808152253 METAR KBFI 152253Z 32006KT 7SM FU CLR 28/12 A2987 RMK AO2 SLP115 T02830117=
201808152153 METAR KBFI 152153Z 32005KT 6SM HZ FU CLR 28/12 A2988 RMK AO2 SLP119 T02780122=
201808152053 METAR KBFI 152053Z 30006KT 4SM HZ FU CLR 28/12 A2990 RMK AO2 SLP123 T02780117 58006=
201808151953 METAR KBFI 151953Z VRB04KT 4SM HZ FU CLR 26/13 A2990 RMK AO2 SLP126 T02560128=
201808151853 METAR KBFI 151853Z 34004KT 3SM HZ FU CLR 25/14 A2991 RMK AO2 SLP128 T02500139=
201808151753 METAR KBFI 151753Z VRB05KT 3SM HZ FU CLR 23/14 A2991 RMK AO2 SLP130 T02280144 10233 20167 58003=
201808151653 METAR KBFI 151653Z 00000KT 3SM HZ FU CLR 22/14 A2992 RMK AO2 SLP131 T02220144=
201808151553 METAR KBFI 151553Z 14005KT 3SM HZ FU CLR 20/14 A2993 RMK AO2 SLP133 T02000144=
201808151453 METAR KBFI 151453Z 14004KT 3SM HZ FU CLR 18/15 A2992 RMK AO2 SLP133 T01780150 53013=
201808151353 METAR KBFI 151353Z 00000KT 4SM HZ FU CLR 17/13 A2991 RMK AO2 SLP128 T01720133=
201808151253 METAR KBFI 151253Z 00000KT 4SM HZ FU CLR 17/13 A2990 RMK AO2 SLP124 T01720133=
201808151153 METAR KBFI 151153Z 00000KT 5SM HZ FU CLR 18/13 A2989 RMK AO2 SLP120 T01780133 10211 20172 51010=
201808151053 METAR KBFI 151053Z 00000KT 5SM HZ FU CLR 18/14 A2988 RMK AO2 SLP117 T01780139=
201808150953 METAR KBFI 150953Z 00000KT 4SM HZ FU BKN040 18/14 A2987 RMK AO2 SLP114 T01830139=
201808150853 METAR KBFI 150853Z 00000KT 5SM HZ FU CLR 19/14 A2986 RMK AO2 SLP110 T01890139 51006=
201808150753 METAR KBFI 150753Z 00000KT 5SM HZ FU CLR 19/14 A2985 RMK AO2 SLP108 T01890139 402780172=
201808150653 METAR KBFI 150653Z 00000KT 4SM HZ FU CLR 21/14 A2985 RMK AO2 SLP106 T02060139=
201808150553 METAR KBFI 150553Z 00000KT 4SM HZ FU CLR 21/14 A2984 RMK AO2 SLP103 T02110139 10278 20211 51008=
201808150453 METAR KBFI 150453Z 33003KT 5SM HZ FU CLR 22/14 A2983 RMK AO2 SLP102 T02220139=
201808150353 METAR KBFI 150353Z 00000KT 3SM HZ FU CLR 24/13 A2982 RMK AO2 SLP098 T02390133=
201808150253 METAR KBFI 150253Z 34004KT 4SM HZ FU CLR 25/14 A2981 RMK AO2 SLP095 T02500139 56009=
201808150153 METAR KBFI 150153Z 32005KT 3SM HZ FU CLR 27/12 A2982 RMK AO2 SLP097 T02720117=
201808150053 METAR KBFI 150053Z 32005KT 3SM HZ FU CLR 28/13 A2983 RMK AO2 SLP100 T02780133=
201808142353 METAR KBFI 142353Z 32007KT 4SM HZ FU CLR 27/14 A2984 RMK AO2 SLP104 T02720139 10278 20222 56019=
201808142253 METAR KBFI 142253Z 31007KT 4SM HZ FU CLR 28/14 A2986 RMK AO2 SLP109 T02780144=
201808142153 METAR KBFI 142153Z 32006KT 4SM HZ FU CLR 27/14 A2988 RMK AO2 SLP117 T02720139=
201808142053 METAR KBFI 142053Z 30004KT 3SM HZ FU CLR 26/15 A2990 RMK AO2 SLP123 T02610150 58015=
201808141953 METAR KBFI 141953Z 31005KT 3SM HZ FU CLR 25/15 A2991 RMK AO2 SLP129 T02500150=
201808141853 METAR KBFI 141853Z VRB05KT 3SM HZ FU CLR 23/15 A2993 RMK AO2 SLP135 T02330150=
201808141753 METAR KBFI 141753Z 33003KT 4SM HZ FU CLR 22/15 A2994 RMK AO2 SLP138 T02220150 10228 20172 58007=
201808141653 METAR KBFI 141653Z 07005KT 4SM HZ FU CLR 21/16 A2995 RMK AO2 SLP142 T02110156=
201808141553 METAR KBFI 141553Z 05003KT 5SM HZ FU CLR 20/16 A2996 RMK AO2 SLP145 T02000156=
201808141453 METAR KBFI 141453Z 00000KT 4SM HZ FU CLR 18/15 A2996 RMK AO2 SLP145 T01830150 53004=
201808141353 METAR KBFI 141353Z 00000KT 4SM HZ FU CLR 18/15 A2995 RMK AO2 SLP143 T01780150=
201808141253 METAR KBFI 141253Z 00000KT 5SM HZ FU CLR 18/14 A2995 RMK AO2 SLP141 T01780144=
201808141153 METAR KBFI 141153Z AUTO 00000KT 6SM HZ FU CLR 18/14 A2995 RMK AO2 SLP141 T01780144 10206 20172 58006=
201808141053 METAR KBFI 141053Z 00000KT 6SM HZ FU CLR 18/14 A2996 RMK AO2 SLP144 T01830139=
201808140953 METAR KBFI 140953Z 00000KT 7SM FU CLR 19/14 A2996 RMK AO2 SLP146 T01890139=
201808140853 METAR KBFI 140853Z 00000KT 7SM FU CLR 19/14 A2997 RMK AO2 SLP147 T01890139 58001=
201808140753 METAR KBFI 140753Z 00000KT 7SM FU CLR 19/13 A2997 RMK AO2 SLP148 T01940133 402390144=
201808140653 METAR KBFI 140653Z 00000KT 7SM FU CLR 20/14 A2997 RMK AO2 SLP147 T02000139=
201808140553 METAR KBFI 140553Z 00000KT 7SM FU CLR 21/14 A2997 RMK AO2 SLP148 T02060139 10239 20206 50003=
201808140453 METAR KBFI 140453Z VRB03KT 6SM HZ FU CLR 21/14 A2997 RMK AO2 SLP149 T02110139=
201808140353 METAR KBFI 140353Z 35005KT 8SM FU CLR 22/14 A2997 RMK AO2 SLP149 T02170144=
201808140253 METAR KBFI 140253Z 32004KT 7SM FU CLR 22/14 A2996 RMK AO2 SLP145 T02170144 55010=
201808140153 METAR KBFI 140153Z 32007KT 7SM FU CLR 23/14 A2996 RMK AO2 SLP144 T02280139=
201808140053 METAR KBFI 140053Z AUTO 31008KT 7SM FU CLR 23/14 A2997 RMK AO2 SLP150 T02330144=
201808132353 METAR KBFI 132353Z 30006KT 7SM FU CLR 23/14 A2999 RMK AO2 SLP155 T02330144 10239 20211 58017=
201808132253 METAR KBFI 132253Z 30008KT 8SM FU CLR 24/14 A3000 RMK AO2 SLP160 T02390144=
201808132153 METAR KBFI 132153Z 31009KT 8SM CLR 23/14 A3003 RMK AO2 SLP168 T02280139=
201808132053 METAR KBFI 132053Z 32010G16KT 9SM CLR 23/14 A3004 RMK AO2 SLP172 T02280139 58014=
201808131953 METAR KBFI 131953Z 32008KT 10SM CLR 22/14 A3005 RMK AO2 SLP176 T02220139=
201808131853 METAR KBFI 131853Z VRB05KT 10SM SCT019 22/14 A3007 RMK AO2 SLP183 T02220139=
201808131753 METAR KBFI 131753Z VRB03KT 10SM SCT019 21/14 A3008 RMK AO2 SLP186 T02110139 10211 20144 58009=
201808131653 METAR KBFI 131653Z 06007KT 10SM SCT050 19/14 A3009 RMK AO2 SLP190 T01940139=
201808131553 METAR KBFI 131553Z 00000KT 10SM SCT050 18/13 A3011 RMK AO2 SLP196 T01830133=
201808131453 METAR KBFI 131453Z 00000KT 10SM CLR 17/13 A3011 RMK AO2 SLP196 T01670128 53003=
201808131353 METAR KBFI 131353Z 00000KT 10SM CLR 15/12 A3011 RMK AO2 SLP194 T01500122=
201808131253 METAR KBFI 131253Z 00000KT 10SM CLR 15/12 A3010 RMK AO2 SLP192 T01500122=
201808131153 METAR KBFI 131153Z 00000KT 10SM CLR 16/12 A3010 RMK AO2 SLP193 T01560122 10178 20150 58003=
201808131053 METAR KBFI 131053Z 00000KT 10SM CLR 16/12 A3011 RMK AO2 SLP196 T01560117=
201808130953 METAR KBFI 130953Z 00000KT 10SM CLR 16/12 A3011 RMK AO2 SLP194 T01560117=
201808130853 METAR KBFI 130853Z 00000KT 10SM CLR 16/12 A3011 RMK AO2 SLP196 T01560117 58003=
201808130753 METAR KBFI 130753Z 00000KT 10SM CLR 17/12 A3012 RMK AO2 SLP199 T01670117 402280144=
201808130653 METAR KBFI 130653Z 00000KT 10SM CLR 17/12 A3012 RMK AO2 SLP200 T01720117=
201808130553 METAR KBFI 130553Z VRB03KT 10SM CLR 17/12 A3012 RMK AO2 SLP199 T01720117 10222 20172 51004=
201808130453 METAR KBFI 130453Z 00000KT 10SM CLR 17/11 A3012 RMK AO2 SLP199 T01720111=
201808130353 METAR KBFI 130353Z 32006KT 10SM CLR 18/11 A3012 RMK AO2 SLP197 T01780111=
201808130253 METAR KBFI 130253Z VRB04KT 10SM FEW040 19/11 A3011 RMK AO2 SLP195 T01890111 55002=
201808130153 METAR KBFI 130153Z 31006KT 10SM FEW040 20/12 A3010 RMK AO2 SLP193 T02000117=
201808130053 METAR KBFI 130053Z 30007KT 10SM FEW040 OVC230 21/12 A3011 RMK AO2 SLP195 T02110122=
201808122353 METAR KBFI 122353Z 33006KT 10SM CLR 22/12 A3011 RMK AO2 SLP197 T02170117 10228 20189 56014=
201808122253 METAR KBFI 122253Z 30006KT 10SM FEW020 OVC250 22/11 A3013 RMK AO2 SLP201 T02220106=
201808122153 METAR KBFI 122153Z 33007KT 290V360 10SM SCT020 BKN060 22/11 A3014 RMK AO2 SLP205 T02220111=
201808122053 METAR KBFI 122053Z 32007KT 10SM SCT020 BKN060 22/12 A3016 RMK AO2 SLP211 T02170117 58009=
201808121953 METAR KBFI 121953Z VRB05KT 10SM SCT020 BKN042 21/12 A3018 RMK AO2 SLP218 T02060122=
201808121853 METAR KBFI 121853Z 00000KT 10SM FEW010 SCT025 OVC050 20/12 A3018 RMK AO2 SLP220 T02000122=
201808121753 METAR KBFI 121753Z 00000KT 10SM FEW010 BKN020 OVC100 19/13 A3018 RMK AO2 SLP221 T01890128 10189 20144 53003=
201808121700 SPECI KBFI 121700Z 21003KT 10SM FEW010 BKN020 OVC100 18/13 A3018 RMK AO2 T01830128=
201808121653 METAR KBFI 121653Z VRB03KT 10SM SCT020 OVC100 18/13 A3018 RMK AO2 SLP219 T01830128=
201808121603 SPECI KBFI 121603Z 16003KT 10SM SCT023 OVC100 18/13 A3018 RMK AO2 T01830128=
201808121553 METAR KBFI 121553Z 16003KT 10SM SCT023 18/13 A3018 RMK AO2 SLP219 T01830133=
201808121453 METAR KBFI 121453Z 00000KT 10SM FEW010 SCT041 17/13 A3018 RMK AO2 SLP218 T01720133 51012=
201808121353 METAR KBFI 121353Z 16005KT 10SM SCT020 BKN045 16/13 A3017 RMK AO2 SLP216 T01610133=
201808121253 METAR KBFI 121253Z 15005KT 10SM FEW019 SCT024 OVC037 16/13 A3015 RMK AO2 SLP211 T01560128=
201808121153 METAR KBFI 121153Z 16004KT 10SM FEW080 15/13 A3014 RMK AO2 SLP206 70002 T01500128 10178 20150 51009=
201808121053 METAR KBFI 121053Z 17003KT 10SM SCT041 BKN050 16/13 A3014 RMK AO2 SLP206 T01610128=
201808120953 METAR KBFI 120953Z 19003KT 10SM SCT049 17/13 A3012 RMK AO2 SLP199 T01670133=
201808120853 METAR KBFI 120853Z AUTO 21006KT 10SM SCT045 17/13 A3011 RMK AO2 SLP197 T01720133 53004=
201808120753 METAR KBFI 120753Z 18007KT 10SM FEW046 17/13 A3011 RMK AO2 SLP195 T01670133 402390167=
201808120653 METAR KBFI 120653Z 18006KT 10SM FEW060 17/13 A3010 RMK AO2 SLP191 T01720133=
201808120553 METAR KBFI 120553Z 18005KT 10SM SCT060 18/13 A3010 RMK AO2 SLP193 60000 T01780133 10217 20178 51013=
201808120453 METAR KBFI 120453Z 16008KT 120V180 10SM SCT100 18/14 A3009 RMK AO2 RAB09E22 SLP190 P0000 T01830139=
201808120353 METAR KBFI 120353Z VRB05KT 10SM BKN100 19/13 A3008 RMK AO2 SLP184 T01940133=
201808120253 METAR KBFI 120253Z VRB05KT 10SM FEW030 SCT050 BKN100 20/14 A3006 RMK AO2 LTG DSNT N SLP180 T02000139 53011=
201808120153 METAR KBFI 120153Z 20006KT 10SM SCT045 BKN080 21/14 A3005 RMK AO2 SLP174 T02110144=
201808120053 METAR KBFI 120053Z 21008KT 180V240 10SM SCT045 BKN080 21/14 A3003 RMK AO2 SLP170 T02110144=
201808112353 METAR KBFI 112353Z 22007KT 10SM FEW049 FEW075 21/14 A3003 RMK AO2 RAB19E39 SLP169 P0001 60002 T02110139 10239 20183 58010=
201808112253 METAR KBFI 112253Z 21009G17KT 10SM SCT025 BKN085 22/13 A3004 RMK AO2 SLP172 T02220128=
201808112153 METAR KBFI 112153Z 20008KT 150V240 10SM FEW012 SCT027 BKN040 23/14 A3006 RMK AO2 RAE49 SLP177 P0000 T02330139=
201808112053 METAR KBFI 112053Z 20008G17KT 170V230 10SM -RA FEW011 SCT020 BKN050 21/15 A3006 RMK AO2 SLP179 P0001 60001 T02110150 53006=
201808111953 METAR KBFI 111953Z 19007KT 10SM -RA FEW011 BKN020 20/13 A3006 RMK AO2 LTG DSNT SE RAB53 SLP177 P0000 T02000133=
201808111853 METAR KBFI 111853Z 22012G18KT 10SM FEW011 BKN020 22/13 A3005 RMK AO2 SLP174 T02170133=
201808111753 METAR KBFI 111753Z 24010G15KT 10SM BKN020 21/13 A3004 RMK AO2 SLP173 T02110128 10222 20172 55000=
201808111653 METAR KBFI 111653Z 20007KT 170V230 10SM BKN020 20/13 A3004 RMK AO2 SLP172 T02000128=
201808111553 METAR KBFI 111553Z 17010KT 10SM FEW018 BKN021 BKN030 19/13 A3004 RMK AO2 SLP173 T01890133=
201808111453 METAR KBFI 111453Z 20007KT 10SM BKN026 BKN030 18/13 A3004 RMK AO2 SLP173 T01830133 51010=
201808111353 METAR KBFI 111353Z AUTO 16006KT 10SM BKN023 BKN030 18/13 A3004 RMK AO2 SLP172 T01780128=
201808111253 METAR KBFI 111253Z 19008KT 10SM BKN023 BKN030 17/13 A3002 RMK AO2 SLP166 T01720128=
201808111226 SPECI KBFI 111226Z 18008KT 10SM BKN027 BKN046 18/13 A3002 RMK AO2 T01780128=
201808111153 METAR KBFI 111153Z 16008KT 10SM FEW029 SCT070 18/13 A3001 RMK AO2 SLP163 T01780128 10183 20172 58000=
201808111053 METAR KBFI 111053Z 17008KT 10SM BKN024 BKN037 18/13 A3002 RMK AO2 SLP164 T01830128=
201808111049 SPECI KBFI 111049Z 17011KT 10SM BKN024 BKN037 18/13 A3002 RMK AO2=
201808110953 METAR KBFI 110953Z 17008KT 10SM FEW020 OVC045 18/13 A3001 RMK AO2 SLP160 T01830128=
201808110853 METAR KBFI 110853Z 16009KT 10SM FEW021 BKN046 18/13 A3001 RMK AO2 SLP162 T01780128 51008=
201808110753 METAR KBFI 110753Z 16010KT 10SM SCT019 17/13 A3001 RMK AO2 SLP162 T01720133 402780172=
201808110653 METAR KBFI 110653Z VRB06KT 10SM FEW017 17/13 A3000 RMK AO2 SLP157 T01720133=
201808110553 METAR KBFI 110553Z 20006KT 10SM CLR 18/14 A2999 RMK AO2 SLP154 T01830139 10278 20183 53019=
201808110453 METAR KBFI 110453Z 22005KT 10SM CLR 20/14 A2997 RMK AO2 SLP148 T02000139=
201808110353 METAR KBFI 110353Z 21005KT 10SM CLR 21/14 A2995 RMK AO2 SLP141 T02110139=
201808110253 METAR KBFI 110253Z 21005KT 10SM CLR 23/13 A2993 RMK AO2 SLP135 T02280133 53006=
201808110153 METAR KBFI 110153Z 24009KT 10SM CLR 26/14 A2992 RMK AO2 SLP133 T02560144=
201808110053 METAR KBFI 110053Z 19007KT 10SM CLR 27/15 A2991 RMK AO2 SLP130 T02670150=
201808102353 METAR KBFI 102353Z 19007KT 10SM CLR 28/15 A2991 RMK AO2 SLP129 T02780150 10278 20239 58010=
201808102253 METAR KBFI 102253Z 21007KT 10SM CLR 27/14 A2992 RMK AO2 SLP132 T02720144=
201808102153 METAR KBFI 102153Z 21007KT 10SM CLR 27/14 A2994 RMK AO2 SLP137 T02670139=
201808102053 METAR KBFI 102053Z 22007KT 10SM CLR 26/14 A2994 RMK AO2 SLP139 T02610139 58002=
201808101953 METAR KBFI 101953Z 19008KT 10SM CLR 26/13 A2995 RMK AO2 SLP141 T02560133=
201808101853 METAR KBFI 101853Z 23007KT 10SM CLR 24/13 A2996 RMK AO2 SLP145 T02440133=
201808101753 METAR KBFI 101753Z 18007KT 10SM CLR 24/13 A2995 RMK AO2 SLP141 T02440133 10244 20178 51009=
201808101653 METAR KBFI 101653Z VRB06KT 10SM CLR 22/14 A2995 RMK AO2 SLP141 T02220139=
201808101553 METAR KBFI 101553Z 16006KT 10SM CLR 22/13 A2993 RMK AO2 SLP135 T02170128=
201808101453 METAR KBFI 101453Z 00000KT 10SM CLR 20/13 A2992 RMK AO2 SLP132 T02000128 53009=
201808101353 METAR KBFI 101353Z 00000KT 10SM CLR 18/12 A2991 RMK AO2 SLP128 T01830122=
201808101253 METAR KBFI 101253Z 33004KT 10SM CLR 18/12 A2989 RMK AO2 SLP121 T01830122=
201808101153 METAR KBFI 101153Z 30003KT 10SM CLR 19/12 A2990 RMK AO2 SLP123 T01890122 10239 20189 51004=
201808101053 METAR KBFI 101053Z 00000KT 10SM CLR 20/12 A2989 RMK AO2 SLP122 T02000122=
201808100953 METAR KBFI 100953Z 00000KT 10SM CLR 21/12 A2989 RMK AO2 SLP121 T02060117=
201808100853 METAR KBFI 100853Z 00000KT 10SM CLR 22/12 A2988 RMK AO2 SLP119 T02220117 58005=
201808100753 METAR KBFI 100753Z 00000KT 10SM CLR 23/12 A2989 RMK AO2 SLP121 T02280122 403220167=
201808100653 METAR KBFI 100653Z VRB03KT 10SM CLR 23/12 A2989 RMK AO2 SLP122 T02280117=
201808100553 METAR KBFI 100553Z 00000KT 10SM CLR 24/12 A2990 RMK AO2 SLP123 T02390117 10322 20233 50003=
201808100453 METAR KBFI 100453Z 32004KT 10SM CLR 24/12 A2990 RMK AO2 SLP124 T02390122=
201808100353 METAR KBFI 100353Z 32005KT 10SM CLR 26/12 A2989 RMK AO2 SLP120 T02560117=
201808100253 METAR KBFI 100253Z 30005KT 10SM CLR 28/11 A2989 RMK AO2 SLP120 T02780106 56010=
201808100153 METAR KBFI 100153Z 31006KT 10SM CLR 29/12 A2989 RMK AO2 SLP123 T02940117=
201808100053 METAR KBFI 100053Z 32007KT 10SM CLR 31/12 A2990 RMK AO2 SLP125 T03110122=
201808092353 METAR KBFI 092353Z VRB06KT 10SM CLR 32/12 A2991 RMK AO2 SLP130 T03220117 10322 20239 57016=
201808092253 METAR KBFI 092253Z 29007KT 10SM CLR 31/12 A2993 RMK AO2 SLP136 T03110122=
201808092153 METAR KBFI 092153Z VRB03KT 10SM CLR 31/12 A2994 RMK AO2 SLP140 T03060122=
201808092053 METAR KBFI 092053Z VRB03KT 10SM CLR 29/13 A2996 RMK AO2 SLP146 T02890133 58012=
201808091953 METAR KBFI 091953Z 34006KT 10SM CLR 28/14 A2998 RMK AO2 SLP151 T02780139=
201808091853 METAR KBFI 091853Z 29003KT 10SM CLR 26/14 A2999 RMK AO2 SLP154 HZ FU T02560139=
201808091753 METAR KBFI 091753Z 34004KT 10SM SCT250 24/14 A3000 RMK AO2 SLP157 HZ FU ALQDS T02390139 10239 20167 58002 $=
201808091653 METAR KBFI 091653Z 00000KT 10SM FEW250 22/14 A3000 RMK AO2 SLP159 HZ ALQDS T02220139 $=
201808091553 METAR KBFI 091553Z 14004KT 10SM CLR 20/14 A3001 RMK AO2 SLP160 T02000139 $=
201808091453 METAR KBFI 091453Z VRB03KT 10SM CLR 18/14 A3000 RMK AO2 SLP159 T01780139 51008 $=
201808091353 METAR KBFI 091353Z 18003KT 10SM CLR 17/14 A3000 RMK AO2 SLP158 T01720139=
201808091253 METAR KBFI 091253Z 15006KT 10SM SCT250 17/14 A2999 RMK AO2 SLP154 HZ FU ALQDS T01720139=
201808091153 METAR KBFI 091153Z 17004KT 10SM CLR 18/13 A2998 RMK AO2 SLP151 T01780133 10250 20172 52010=
201808091053 METAR KBFI 091053Z 26004KT 10SM CLR 18/13 A2997 RMK AO2 SLP148 T01830133=
201808090953 METAR KBFI 090953Z 24004KT 10SM CLR 20/13 A2996 RMK AO2 SLP144 T02000133=
201808090853 METAR KBFI 090853Z 15006KT 10SM CLR 21/13 A2995 RMK AO2 SLP141 T02110133 51015=
201808090753 METAR KBFI 090753Z 15008KT 10SM CLR 22/13 A2994 RMK AO2 SLP139 T02220128 403280172=
201808090653 METAR KBFI 090653Z 00000KT 10SM CLR 23/13 A2992 RMK AO2 SLP133 T02330128=
201808090553 METAR KBFI 090553Z 31003KT 10SM CLR 25/12 A2990 RMK AO2 SLP126 T02500122 10328 20250 53019=
201808090453 METAR KBFI 090453Z 00000KT 10SM CLR 27/12 A2988 RMK AO2 SLP119 T02670117=
201808090353 METAR KBFI 090353Z 00000KT 10SM CLR 28/11 A2986 RMK AO2 SLP113 T02830111=
201808090253 METAR KBFI 090253Z 32004KT 10SM CLR 30/10 A2985 RMK AO2 SLP108 T03000100 53001=
201808090153 METAR KBFI 090153Z 29004KT 10SM CLR 31/10 A2984 RMK AO2 SLP104 T03110100=
201808090053 METAR KBFI 090053Z 31005KT 10SM CLR 33/09 A2984 RMK AO2 SLP104 T03280094=
201808082353 METAR KBFI 082353Z 31007KT 10SM CLR 33/09 A2985 RMK AO2 SLP107 T03280089 10328 20261 56010=
201808082253 METAR KBFI 082253Z 33007KT 10SM CLR 32/09 A2986 RMK AO2 SLP110 T03220089=
201808082153 METAR KBFI 082153Z 31006KT 10SM SCT200 32/10 A2987 RMK AO2 SLP113 HZ ALQDS T03170100=
201808082053 METAR KBFI 082053Z 33007KT 10SM CLR 31/13 A2988 RMK AO2 SLP117 T03060128=
201808081953 METAR KBFI 081953Z VRB06KT 10SM CLR 29/12 A2989 RMK AO2 SLP120 T02890117=
201808081853 METAR KBFI 081853Z VRB05KT 10SM 27/12 A2990 RMK AO2 SLP124 T02670122 $=
201808081753 METAR KBFI 081753Z 33006KT 10SM FEW250 25/13 A2991 RMK AO2 SLP127 HZ ALQDS T02500128 10256 20172 58005=
201808081653 METAR KBFI 081653Z 00000KT 10SM FEW250 24/12 A2991 RMK AO2 SLP130 HZ ALQDS T02390122=
201808081553 METAR KBFI 081553Z 00000KT 10SM CLR 22/12 A2993 RMK AO2 SLP134 T02170122=
201808081453 METAR KBFI 081453Z 31003KT 10SM CLR 19/12 A2992 RMK AO2 SLP133 T01940122 53007=
201808081353 METAR KBFI 081353Z 00000KT 10SM SCT200 18/13 A2991 RMK AO2 SLP128 T01780128=
201808081253 METAR KBFI 081253Z 31003KT 10SM FEW040 17/12 A2990 RMK AO2 SLP123 T01720122=
201808081153 METAR KBFI 081153Z 00000KT 10SM CLR 18/12 A2990 RMK AO2 SLP125 T01830122 10228 20183 51002=
201808081053 METAR KBFI 081053Z 00000KT 10SM CLR 18/12 A2990 RMK AO2 SLP125 T01830122=
201808080953 METAR KBFI 080953Z 00000KT 10SM CLR 21/12 A2990 RMK AO2 SLP124 T02060122=
201808080853 METAR KBFI 080853Z 00000KT 10SM CLR 21/12 A2990 RMK AO2 SLP123 T02110122 50001=
201808080753 METAR KBFI 080753Z 34004KT 10SM CLR 22/12 A2990 RMK AO2 SLP124 T02220122 403110172=
201808080653 METAR KBFI 080653Z 29003KT 10SM CLR 21/13 A2990 RMK AO2 SLP125 T02110128=
201808080553 METAR KBFI 080553Z 31005KT 10SM CLR 22/12 A2989 RMK AO2 SLP122 T02220122 10311 20222 51005=
201808080453 METAR KBFI 080453Z 32003KT 10SM CLR 25/12 A2989 RMK AO2 SLP122 T02500117=
201808080353 METAR KBFI 080353Z 31003KT 10SM CLR 26/11 A2989 RMK AO2 SLP121 T02610111=
201808080253 METAR KBFI 080253Z 30004KT 10SM CLR 27/10 A2988 RMK AO2 SLP117 T02720100 56009=
201808080153 METAR KBFI 080153Z 32007KT 10SM CLR 29/09 A2988 RMK AO2 SLP118 T02940094=
201808080053 METAR KBFI 080053Z 32007KT 10SM CLR 30/10 A2989 RMK AO2 SLP122 FU ALQDS T03000100=
201808072353 METAR KBFI 072353Z 30008KT 10SM FEW250 30/10 A2991 RMK AO2 SLP127 HZ ALQDS T03000100 10311 20244 56025=
201808072253 METAR KBFI 072253Z 32009G14KT 10SM FEW250 30/10 A2993 RMK AO2 SLP134 T03000100=
201808072153 METAR KBFI 072153Z 30009KT 10SM FEW250 29/11 A2995 RMK AO2 SLP143 HZ ALQDS T02940106=
201808072053 METAR KBFI 072053Z 32008KT 10SM CLR 28/11 A2998 RMK AO2 SLP152 T02830111 58018=
201808071953 METAR KBFI 071953Z AUTO 31008KT 10SM CLR 27/11 A3000 RMK AO2 SLP157 T02720111=
201808071853 METAR KBFI 071853Z AUTO VRB04KT 10SM CLR 26/11 A3002 RMK AO2 SLP166 T02610111=
201808071753 METAR KBFI 071753Z VRB05KT 10SM CLR 25/12 A3003 RMK AO2 SLP170 T02500122 10250 20172 58012=
201808071653 METAR KBFI 071653Z VRB03KT 10SM CLR 24/13 A3005 RMK AO2 SLP175 T02390128=
201808071553 METAR KBFI 071553Z 30003KT 10SM FEW250 21/13 A3006 RMK AO2 SLP180 T02110128=
201808071453 METAR KBFI 071453Z 00000KT 10SM CLR 19/13 A3007 RMK AO2 SLP182 T01940128 51005=
201808071353 METAR KBFI 071353Z 00000KT 10SM CLR 17/13 A3007 RMK AO2 SLP181 T01720128=
201808071253 METAR KBFI 071253Z 32003KT 10SM CLR 17/12 A3006 RMK AO2 SLP179 T01720122=
201808071153 METAR KBFI 071153Z 00000KT 10SM CLR 18/12 A3006 RMK AO2 SLP177 T01780122 10228 20178 57000=
201808071053 METAR KBFI 071053Z 00000KT 10SM CLR 18/12 A3006 RMK AO2 SLP178 T01830122=
201808070953 METAR KBFI 070953Z 31003KT 10SM CLR 19/12 A3005 RMK AO2 SLP177 T01890117=
201808070853 METAR KBFI 070853Z AUTO 00000KT 10SM CLR 20/12 A3006 RMK AO2 SLP178 T02000122 50003=
201808070753 METAR KBFI 070753Z VRB03KT 10SM CLR 21/12 A3006 RMK AO2 SLP178 T02060117 402940161=
201808070653 METAR KBFI 070653Z 00000KT 10SM CLR 21/11 A3006 RMK AO2 SLP177 T02110111=
201808070553 METAR KBFI 070553Z 00000KT 10SM CLR 22/12 A3005 RMK AO2 SLP174 T02220117 10294 20222 50005=
201808070453 METAR KBFI 070453Z VRB03KT 10SM FEW250 24/12 A3005 RMK AO2 SLP177 T02390117=
201808070353 METAR KBFI 070353Z 00000KT 10SM CLR 24/11 A3004 RMK AO2 SLP173 FU ALQDS T02440106=
201808070253 METAR KBFI 070253Z 31006KT 10SM CLR 26/10 A3003 RMK AO2 SLP169 FU ALQDS T02560100 55007=
201808070153 METAR KBFI 070153Z 30005KT 10SM CLR 27/10 A3003 RMK AO2 SLP167 T02720100=
201808070053 METAR KBFI 070053Z 30007KT 10SM CLR 28/09 A3004 RMK AO2 SLP172 T02830094=
201808062353 METAR KBFI 062353Z 30008KT 10SM CLR 29/09 A3005 RMK AO2 SLP176 T02940094 10294 20233 56013=
201808062253 METAR KBFI 062253Z 32008KT 10SM CLR 29/11 A3006 RMK AO2 SLP180 T02940106=
201808062153 METAR KBFI 062153Z 32008KT 270V350 10SM CLR 28/12 A3007 RMK AO2 SLP184 T02830122=
201808062053 METAR KBFI 062053Z 32006KT 10SM CLR 27/12 A3009 RMK AO2 SLP189 T02670122 58009=
201808061953 METAR KBFI 061953Z 30005KT 10SM SCT250 25/13 A3011 RMK AO2 SLP194 T02500133=
201808061853 METAR KBFI 061853Z VRB06KT 10SM CLR 24/13 A3011 RMK AO2 SLP197 T02390133=
201808061753 METAR KBFI 061753Z 36003KT 10SM CLR 23/13 A3012 RMK AO2 SLP198 T02330133 10233 20161 50003=
201808061653 METAR KBFI 061653Z 33004KT 10SM CLR 21/13 A3012 RMK AO2 SLP199 T02110133=
201808061553 METAR KBFI 061553Z VRB04KT 10SM FEW250 20/14 A3012 RMK AO2 SLP198 T02000139=
201808061453 METAR KBFI 061453Z 00000KT 10SM FEW100 18/13 A3011 RMK AO2 SLP195 T01830133 53016=
201808061353 METAR KBFI 061353Z 00000KT 10SM CLR 17/13 A3009 RMK AO2 SLP189 T01670133=
201808061253 METAR KBFI 061253Z 00000KT 10SM CLR 16/13 A3008 RMK AO2 SLP185 T01610128 $=
201808061153 METAR KBFI 061153Z 00000KT 10SM CLR 17/13 A3006 RMK AO2 SLP179 T01720128 10211 20167 53010 $=
201808061053 METAR KBFI 061053Z 00000KT 10SM CLR 17/13 A3005 RMK AO2 SLP175 T01720128 $=
201808060953 METAR KBFI 060953Z 00000KT 10SM CLR 17/13 A3004 RMK AO2 SLP173 T01720128 $=
201808060853 METAR KBFI 060853Z 00000KT 10SM CLR 18/13 A3003 RMK AO2 SLP169 T01780128 51009 $=
201808060753 METAR KBFI 060753Z VRB03KT 10SM CLR 19/13 A3003 RMK AO2 SLP168 T01890128 402890150 $=
201808060653 METAR KBFI 060653Z 00000KT 10SM CLR 19/13 A3002 RMK AO2 SLP166 T01890128 $=
201808060553 METAR KBFI 060553Z 31003KT 10SM CLR 21/12 A3000 RMK AO2 SLP160 T02110117 10283 20211 51010 $=
201808060453 METAR KBFI 060453Z 32003KT 10SM FEW030 SCT200 22/11 A3000 RMK AO2 SLP157 T02170111 $=
201808060353 METAR KBFI 060353Z 32003KT 10SM CLR 23/11 A2998 RMK AO2 SLP153 T02280106 $=
201808060253 METAR KBFI 060253Z 31004KT 10SM CLR 24/12 A2997 RMK AO2 SLP149 T02390117 53003 $=
201808060153 METAR KBFI 060153Z 31006KT 10SM FEW030 SCT200 26/11 A2996 RMK AO2 SLP146 T02560111 $=
201808060053 METAR KBFI 060053Z 32006KT 10SM FEW030 SCT200 28/12 A2996 RMK AO2 SLP145 T02830117 $=
201808052353 METAR KBFI 052353Z 30007KT 10SM FEW030 SCT200 28/12 A2996 RMK AO2 SLP146 T02830117 10289 20217 56011 $=
201808052253 METAR KBFI 052253Z 29007KT 10SM FEW030 28/11 A2997 RMK AO2 SLP149 T02780111 $=
201808052153 METAR KBFI 052153Z VRB06KT 10SM FEW030 28/12 A2998 RMK AO2 SLP153 T02780122 $=
201808052053 METAR KBFI 052053Z VRB05KT 10SM FEW030 26/12 A3000 RMK AO2 SLP158 T02610122 $=
201808051953 METAR KBFI 051953Z VRB06KT 10SM CLR 26/12 A3001 RMK AO2 SLP162 T02560122 $=
201808051853 METAR KBFI 051853Z 30005KT 10SM CLR 23/12 A3002 RMK AO2 SLP166 T02330122 $=
201808051753 METAR KBFI 051753Z VRB04KT 10SM FEW210 22/13 A3003 RMK AO2 SLP169 T02170133 10222 20150 51001=
201808051653 METAR KBFI 051653Z VRB03KT 10SM SCT220 21/13 A3003 RMK AO2 SLP168 T02060128=
201808051553 METAR KBFI 051553Z 00000KT 10SM SCT220 19/12 A3003 RMK AO2 SLP169 T01890122=
201808051453 METAR KBFI 051453Z 00000KT 10SM SCT210 18/13 A3003 RMK AO2 SLP168 T01780128 51008=
201808051353 METAR KBFI 051353Z 00000KT 10SM CLR 16/13 A3002 RMK AO2 SLP166 T01560128=
201808051253 METAR KBFI 051253Z 00000KT 10SM SCT250 16/13 A3001 RMK AO2 SLP163 T01560128=
201808051153 METAR KBFI 051153Z 33003KT 10SM CLR 16/13 A3000 RMK AO2 SLP160 T01610128 10206 20161 53007=
201808051053 METAR KBFI 051053Z 00000KT 10SM CLR 17/13 A3000 RMK AO2 SLP157 T01670128=
201808050953 METAR KBFI 050953Z 00000KT 10SM CLR 17/12 A2998 RMK AO2 SLP153 T01720122=
201808050853 METAR KBFI 050853Z AUTO 00000KT 10SM CLR 18/12 A2998 RMK AO2 SLP152 T01780122 50004=
201808050753 METAR KBFI 050753Z 32003KT 10SM CLR 18/12 A2998 RMK AO2 SLP153 T01780122 402610150=
201808050653 METAR KBFI 050653Z 32005KT 10SM CLR 19/12 A2997 RMK AO2 SLP150 T01890117=
201808050553 METAR KBFI 050553Z VRB03KT 10SM CLR 21/11 A2997 RMK AO2 SLP148 T02060111 10261 20206 51009=
201808050453 METAR KBFI 050453Z 01003KT 10SM CLR 22/12 A2996 RMK AO2 SLP146 T02170117=
201808050353 METAR KBFI 050353Z 00000KT 10SM FEW080 24/11 A2995 RMK AO2 SLP142 T02390106=
201808050253 METAR KBFI 050253Z VRB03KT 10SM CLR 25/11 A2994 RMK AO2 SLP139 T02500106 55001=
201808050153 METAR KBFI 050153Z 31004KT 10SM FEW030 25/11 A2993 RMK AO2 SLP136 T02500106=
201808050053 METAR KBFI 050053Z VRB05KT 10SM FEW030 26/11 A2994 RMK AO2 SLP137 T02560111=
201808042353 METAR KBFI 042353Z 32007KT 10SM CLR 26/11 A2995 RMK AO2 SLP141 T02610106 10261 20183 58018=
201808042253 METAR KBFI 042253Z 30009KT 10SM CLR 24/11 A2997 RMK AO2 SLP148 T02440106=
201808042153 METAR KBFI 042153Z 34007KT 310V020 10SM FEW020 24/12 A2999 RMK AO2 SLP154 T02390117=
201808042053 METAR KBFI 042053Z VRB05KT 10SM FEW060 23/12 A3000 RMK AO2 SLP159 T02280122 58013=
201808041953 METAR KBFI 041953Z 31006KT 10SM FEW080 21/13 A3002 RMK AO2 SLP164 T02110128=
201808041853 METAR KBFI 041853Z 33006KT 10SM FEW060 20/13 A3003 RMK AO2 SLP169 T02000128=
201808041753 METAR KBFI 041753Z 33006KT 10SM CLR 19/13 A3004 RMK AO2 SLP172 T01890128 10194 20150 58009=
201808041653 METAR KBFI 041653Z 06006KT 10SM CLR 18/12 A3006 RMK AO2 SLP177 T01830122=
201808041638 SPECI KBFI 041638Z VRB03KT 10SM SCT012 18/12 A3006 RMK AO2 T01780122=
201808041557 SPECI KBFI 041557Z VRB05KT 10SM BKN011 17/12 A3006 RMK AO2 T01670122=
201808041553 METAR KBFI 041553Z VRB03KT 10SM BKN009 17/12 A3006 RMK AO2 SLP180 T01670122=
201808041453 METAR KBFI 041453Z VRB03KT 10SM BKN009 16/12 A3007 RMK AO2 SLP181 T01560122 55000=
201808041450 SPECI KBFI 041450Z VRB04KT 10SM BKN009 16/12 A3007 RMK AO2=
201808041353 METAR KBFI 041353Z 32003KT 10SM SCT011 15/12 A3007 RMK AO2 SLP181 T01500122=
201808041253 METAR KBFI 041253Z VRB03KT 10SM SCT009 15/12 A3006 RMK AO2 SLP180 T01500122=
201808041231 SPECI KBFI 041231Z 00000KT 10SM SCT011 16/12 A3007 RMK AO2 T01560122=
201808041153 METAR KBFI 041153Z 00000KT 10SM BKN011 16/12 A3007 RMK AO2 SLP181 T01560122 10183 20156 56003=
201808041053 METAR KBFI 041053Z 33003KT 10SM CLR 16/12 A3007 RMK AO2 SLP181 T01560122=
201808040953 METAR KBFI 040953Z 00000KT 10SM CLR 16/12 A3007 RMK AO2 SLP182 T01610122=
201808040853 METAR KBFI 040853Z 00000KT 10SM CLR 17/12 A3008 RMK AO2 SLP184 T01670122 58005=
201808040753 METAR KBFI 040753Z 35003KT 10SM CLR 17/12 A3008 RMK AO2 SLP187 T01670122 402390150=
201808040653 METAR KBFI 040653Z VRB03KT 10SM CLR 17/12 A3009 RMK AO2 SLP188 T01720122=
201808040553 METAR KBFI 040553Z 35003KT 10SM CLR 18/12 A3009 RMK AO2 SLP189 T01830122 10239 20178 58001=
201808040453 METAR KBFI 040453Z 31004KT 10SM CLR 18/12 A3010 RMK AO2 SLP191 T01830122=
201808040353 METAR KBFI 040353Z 30003KT 10SM CLR 19/12 A3009 RMK AO2 SLP188 T01890122=
201808040253 METAR KBFI 040253Z VRB05KT 10SM CLR 21/12 A3009 RMK AO2 SLP189 T02110117 55004=
201808040153 METAR KBFI 040153Z AUTO 30005KT 10SM CLR 23/11 A3009 RMK AO2 SLP188 T02280111=
201808040053 METAR KBFI 040053Z AUTO 32007KT 10SM SCT040 23/11 A3009 RMK AO2 SLP190 T02280106=
201808032353 METAR KBFI 032353Z 30005KT 10SM BKN046 23/12 A3010 RMK AO2 SLP194 T02330117 10239 20178 56007=
201808032253 METAR KBFI 032253Z 29007KT 10SM SCT045 22/11 A3011 RMK AO2 SLP196 T02220111=
201808032153 METAR KBFI 032153Z VRB05KT 10SM FEW042 23/11 A3012 RMK AO2 SLP199 T02280111=
201808032053 METAR KBFI 032053Z VRB04KT 10SM BKN037 BKN046 22/12 A3013 RMK AO2 SLP201 T02220117 51001=
201808031953 METAR KBFI 031953Z VRB05KT 10SM SCT025 OVC041 21/12 A3013 RMK AO2 SLP201 T02060122=
201808031853 METAR KBFI 031853Z 00000KT 10SM SCT025 BKN041 BKN070 19/12 A3013 RMK AO2 SLP202 T01890122=
201808031753 METAR KBFI 031753Z VRB03KT 10SM FEW023 BKN028 OVC055 18/13 A3012 RMK AO2 SLP200 60000 T01830128 10183 20150 53012=
201808031653 METAR KBFI 031653Z 28004KT 10SM OVC024 17/13 A3011 RMK AO2 SLP195 T01720133=
201808031553 METAR KBFI 031553Z 27004KT 10SM SCT011 OVC024 17/14 A3010 RMK AO2 SLP190 T01670139=
201808031453 METAR KBFI 031453Z AUTO 26003KT 10SM FEW008 OVC015 16/13 A3009 RMK AO2 SLP189 60000 T01560133 53011=
201808031353 METAR KBFI 031353Z 00000KT 10SM BKN010 OVC015 15/13 A3008 RMK AO2 DZE47 SLP185 P0000 T01500133=
201808031253 METAR KBFI 031253Z 21003KT 6SM -DZ BR SCT009 OVC015 15/13 A3007 RMK AO2 RAE08DZB08 SLP181 P0000 T01500133=
201808031153 METAR KBFI 031153Z 00000KT 3SM -RA BR FEW008 OVC016 15/14 A3006 RMK AO2 DZE31RAB31 SLP178 P0000 60000 T01500139 10172 20150 51001=
201808031053 METAR KBFI 031053Z 19004KT 8SM -DZ SCT014 OVC020 15/13 A3006 RMK AO2 DZB34 SLP178 P0000 T01500133=
201808030953 METAR KBFI 030953Z 20004KT 10SM OVC019 16/13 A3006 RMK AO2 SLP177 T01560128=
201808030853 METAR KBFI 030853Z VRB04KT 10SM OVC020 17/12 A3006 RMK AO2 SLP177 T01670122 52002=
201808030753 METAR KBFI 030753Z 22007KT 10SM BKN025 OVC038 17/12 A3006 RMK AO2 SLP177 T01670117 402060150=
201808030653 METAR KBFI 030653Z 21005KT 10SM BKN025 OVC038 17/12 A3005 RMK AO2 SLP175 T01720117=
201808030553 METAR KBFI 030553Z 20006KT 10SM OVC036 17/11 A3005 RMK AO2 SLP175 T01720111 10206 20167 50004=
201808030453 METAR KBFI 030453Z 22004KT 10SM BKN038 BKN060 17/11 A3005 RMK AO2 SLP176 T01720111=
201808030353 METAR KBFI 030353Z 00000KT 10SM OVC055 18/11 A3004 RMK AO2 SLP173 T01780111=
201808030253 METAR KBFI 030253Z 21007KT 10SM OVC055 19/11 A3004 RMK AO2 SLP171 T01890111 55005=
201808030153 METAR KBFI 030153Z 23007KT 10SM OVC050 20/12 A3003 RMK AO2 SLP170 T02000117=
201808030053 METAR KBFI 030053Z 25005KT 10SM OVC047 21/12 A3005 RMK AO2 SLP174 T02060122=
201808022353 METAR KBFI 022353Z 19006KT 10SM FEW031 OVC044 20/12 A3005 RMK AO2 SLP176 T02000122 10206 20167 58008=
201808022253 METAR KBFI 022253Z 18007KT 10SM OVC041 20/12 A3006 RMK AO2 SLP179 T02000122=
201808022153 METAR KBFI 022153Z 17006KT 10SM BKN030 OVC038 19/12 A3007 RMK AO2 SLP183 T01890122=
201808022053 METAR KBFI 022053Z 20007KT 10SM OVC033 19/12 A3008 RMK AO2 SLP184 T01890122 50002=
201808021953 METAR KBFI 021953Z 19006KT 10SM SCT022 BKN029 OVC038 18/12 A3008 RMK AO2 SLP186 T01830122=
201808021853 METAR KBFI 021853Z 20007KT 180V240 10SM FEW019 OVC028 17/12 A3008 RMK AO2 SLP185 T01720122=
201808021753 METAR KBFI 021753Z 17007KT 10SM FEW013 BKN025 OVC031 17/13 A3007 RMK AO2 SLP182 60000 T01670128 10167 20150 51009=
201808021703 SPECI KBFI 021703Z 17009KT 10SM FEW013 OVC025 16/13 A3006 RMK AO2 T01610133=
201808021653 METAR KBFI 021653Z 17007KT 7SM FEW006 SCT013 OVC031 16/13 A3006 RMK AO2 RAE41 SLP180 P0000 T01560133=
201808021646 SPECI KBFI 021646Z 17008KT 7SM FEW006 SCT011 OVC021 16/13 A3006 RMK AO2 RAE41 P0000 T01560128=
201808021553 METAR KBFI 021553Z 19006KT 5SM -RA BR BKN006 BKN014 OVC023 15/13 A3005 RMK AO2 DZB17E38RAB38 SLP177 VIS LWR SE P0000 T01500128=
201808021518 SPECI KBFI 021518Z 17007KT 4SM -DZ BR BKN006 OVC017 15/13 A3005 RMK AO2 DZB17 P0000 T01500133=
201808021453 METAR KBFI 021453Z 16007KT 6SM BR SCT010 BKN018 OVC025 15/13 A3004 RMK AO2 SLP173 T01500128 53008=
201808021353 METAR KBFI 021353Z 18007KT 10SM OVC023 16/11 A3003 RMK AO2 SLP168 T01560111=
201808021253 METAR KBFI 021253Z 16008KT 10SM OVC023 16/11 A3002 RMK AO2 SLP164 T01560111=
201808021153 METAR KBFI 021153Z 18006KT 10SM OVC023 16/11 A3002 RMK AO2 SLP164 T01560106 10172 20150 50001=
201808021053 METAR KBFI 021053Z 20006KT 10SM OVC018 15/12 A3002 RMK AO2 SLP165 T01500117=
201808020953 METAR KBFI 020953Z 21007KT 10SM OVC016 16/11 A3002 RMK AO2 SLP165 T01560111=
201808020853 METAR KBFI 020853Z 19006KT 10SM OVC015 16/12 A3001 RMK AO2 SLP163 T01560117 51004=
201808020753 METAR KBFI 020753Z 22005KT 10SM BKN014 16/12 A3001 RMK AO2 SLP161 T01560122 402390156=
201808020653 METAR KBFI 020653Z 23004KT 10SM FEW017 16/13 A3000 RMK AO2 SLP158 T01610128=
201808020553 METAR KBFI 020553Z 23006KT 10SM CLR 17/13 A2999 RMK AO2 SLP155 T01720128 10239 20167 53011=
201808020453 METAR KBFI 020453Z 23006KT 10SM CLR 18/13 A2998 RMK AO2 SLP150 T01830133=
201808020353 METAR KBFI 020353Z 20004KT 10SM CLR 21/13 A2996 RMK AO2 SLP145 T02060128=
201808020253 METAR KBFI 020253Z 23005KT 10SM CLR 22/13 A2996 RMK AO2 SLP143 T02220128 56012=
201808020153 METAR KBFI 020153Z AUTO VRB06KT 10SM CLR 23/12 A2996 RMK AO2 SLP145 T02330122=
201808020053 METAR KBFI 020053Z 17004KT 10SM CLR 24/12 A2998 RMK AO2 SLP150 T02390122=
201808012353 METAR KBFI 012353Z 24008KT 10SM FEW200 24/12 A2999 RMK AO2 SLP155 T02390117 10239 20167 56015=
201808012253 METAR KBFI 012253Z 22004KT 10SM CLR 23/12 A3001 RMK AO2 SLP160 T02330117=
201808012153 METAR KBFI 012153Z 22004KT 10SM SCT200 23/12 A3002 RMK AO2 SLP165 T02280122=
201808012053 METAR KBFI 012053Z 29007KT 10SM SCT028 SCT200 21/12 A3004 RMK AO2 SLP170 T02060117 58008=
201808011953 METAR KBFI 011953Z 25008KT 10SM BKN024 20/12 A3005 RMK AO2 SLP174 T02000117=
201808011853 METAR KBFI 011853Z 21005KT 10SM OVC017 18/12 A3005 RMK AO2 SLP176 T01780122=
201808011753 METAR KBFI 011753Z 21005KT 10SM OVC018 17/12 A3006 RMK AO2 SLP178 T01670122 10172 20156 50003=
201808011653 METAR KBFI 011653Z 16007KT 10SM OVC015 17/12 A3006 RMK AO2 SLP179 T01670122=
201808011553 METAR KBFI 011553Z 21005KT 10SM OVC015 16/12 A3006 RMK AO2 SLP179 T01610122=
201808011453 METAR KBFI 011453Z 20004KT 10SM OVC012 16/12 A3005 RMK AO2 SLP175 T01610122 53006=
201808011353 METAR KBFI 011353Z 23004KT 10SM OVC014 16/12 A3004 RMK AO2 SLP172 T01610122=
201808011253 METAR KBFI 011253Z 21005KT 10SM OVC013 16/13 A3003 RMK AO2 SLP169 T01610128=
201808011153 METAR KBFI 011153Z 21005KT 10SM OVC013 16/13 A3003 RMK AO2 SLP169 T01610128 10172 20156 50002=
201808011053 METAR KBFI 011053Z VRB04KT 10SM OVC012 16/13 A3003 RMK AO2 SLP170 T01610128=
201808010953 METAR KBFI 010953Z 17007KT 10SM OVC012 16/13 A3003 RMK AO2 SLP168 T01610128=
201808010853 METAR KBFI 010853Z 20008KT 10SM OVC012 16/13 A3003 RMK AO2 SLP168 T01610128 51010=
201808010818 SPECI KBFI 010818Z 18006KT 10SM BKN012 16/13 A3003 RMK AO2 T01610128=
201808010753 METAR KBFI 010753Z 17007KT 10SM SCT015 16/13 A3002 RMK AO2 SLP166 T01560128 402670156=
201808010653 METAR KBFI 010653Z 18006KT 10SM CLR 17/13 A3001 RMK AO2 SLP162 T01670128=
201808010553 METAR KBFI 010553Z 19005KT 10SM CLR 17/13 A3000 RMK AO2 SLP158 T01720133 10267 20172 51012=
201808010453 METAR KBFI 010453Z 22006KT 10SM CLR 19/13 A2999 RMK AO2 SLP156 T01890133=
201808010353 METAR KBFI 010353Z 22007KT 10SM CLR 21/13 A2997 RMK AO2 SLP149 T02110133=
201808010253 METAR KBFI 010253Z 21007KT 10SM CLR 24/13 A2996 RMK AO2 SLP146 HZ ALQDS T02390133 55005=
201808010153 METAR KBFI 010153Z VRB05KT 10SM CLR 26/14 A2996 RMK AO2 SLP144 T02560139=
201808010053 METAR KBFI 010053Z 26008KT 10SM CLR 26/13 A2997 RMK AO2 SLP149 FU HZ ALQDS T02610133=

# No short TAF reports from KBFI in databse.

###################################
#  large TAF from KBFI
###################################
201808312333 TAF KBFI 312333Z 0100/0124 24007KT P6SM SCT045 FM011000 16003KT
                       P6SM BKN015 FM011900 23005KT P6SM SCT025
                       SCT250=
201808312058 KBFI 312058Z 3121/0118 22007KT P6SM BKN040 FM011100 16003KT P6SM
                       BKN015 FM011700 VRB04KT P6SM BKN025=
201808311727 TAF KBFI 311727Z 3118/0118 22007KT P6SM SCT025 BKN050 FM312200
                       21008KT P6SM SCT050 SCT250 FM011100 16003KT
                       P6SM BKN015 FM011700 VRB04KT P6SM BKN025=
201808311455 KBFI 311455Z 3115/0112 19006KT P6SM SCT018 OVC040
                      TEMPO 3115/3117 BKN018 FM311800 19007KT P6SM
                       SCT015 BKN045 FM312200 VRB03KT P6SM SCT050
                       SCT250 FM010900 VRB03KT P6SM BKN015=
201808311135 TAF KBFI 311135Z 3112/0112 19006KT P6SM OVC015 FM311800 19006KT
                       P6SM SCT015 BKN045 FM312200 VRB03KT P6SM
                       SCT050 SCT250 FM010900 VRB03KT P6SM BKN015=
201808310520 TAF KBFI 310520Z 3106/0106 VRB05KT P6SM BKN050 FM310900 VRB03KT
                       P6SM OVC022 FM311900 19006KT P6SM BKN050
                       FM312300 21007KT P6SM SCT050 SCT250=
201808302330 TAF KBFI 302330Z 3100/3124 19006KT P6SM VCSH SCT040 SCT080 FM310900
                       16003KT P6SM OVC022 FM311900 19006KT P6SM
                       SCT025 BKN060 FM312300 21007KT P6SM SCT050
                       SCT250=
201808302102 KBFI 302102Z 3021/3118 19005KT P6SM BKN028 BKN050 FM310900 16003KT
                       P6SM OVC022 FM311700 19005KT P6SM BKN025
                       BKN060=
201808301731 TAF KBFI 301731Z 3018/3118 19005KT P6SM BKN020 BKN030 FM302000
                       20006KT P6SM BKN045 BKN200 FM310900 16003KT
                       P6SM OVC022 FM311700 19005KT P6SM BKN025
                       BKN060=
201808301504 KBFI 301504Z 3015/3112 20004KT P6SM BKN020 BKN050 FM302000 18006KT
                       P6SM BKN045 BKN250 FM310900 18006KT P6SM
                       OVC022=
201808301136 TAF KBFI 301136Z 3012/3112 18006KT P6SM OVC020 FM302000 18006KT
                       P6SM SCT025 OVC045 FM310900 18006KT P6SM
                       OVC022=
201808300913 KBFI 300913Z 3009/3106 18006KT P6SM OVC025 FM302000 18006KT P6SM
                       SCT025 OVC050=
201808300522 TAF KBFI 300522Z 3006/3106 VRB03KT P6SM OVC050 FM301100 16004KT
                       P6SM VCSH OVC015 FM301800 17006KT P6SM VCSH
                       BKN022 BKN080 FM302100 19007KT P6SM OVC050
                       FM310400 18003KT P6SM OVC025=
201808300357 KBFI 300357Z 3004/3024 VRB03KT P6SM OVC050 FM301000 16004KT P6SM
                       VCSH OVC015 FM301800 17006KT P6SM VCSH BKN022
                       BKN080 FM302100 19007KT P6SM VCSH BKN030
                       BKN070=
201808292326 TAF KBFI 292326Z 3000/3024 20008KT P6SM SCT040 SCT120 BKN250 FM300400
                       24006KT P6SM VCSH BKN050 BKN100 FM300900
                       16004KT P6SM VCSH OVC018
                      PROB30 3012/3018 -RA FM301800 17006KT P6SM
                       VCSH BKN022 BKN080 FM302100 19007KT P6SM
                       VCSH BKN030 BKN070=
201808291735 TAF KBFI 291735Z 2918/3018 16007KT P6SM BKN120 BKN250 FM292200
                       21008KT P6SM SCT050 BKN100 FM300400 24006KT
                       P6SM VCSH BKN050 OVC080 FM300900 16004KT
                       P6SM VCSH OVC025
                      PROB30 3009/3015 -RA FM301500 15005KT P6SM
                       VCSH OVC012=
201808291503 KBFI 291503Z 2915/3012 VRB03KT P6SM BKN250 FM291800 18006KT P6SM
                       SCT150 BKN250 FM292000 20008KT P6SM SCT040
                       BKN100 FM300600 24006KT P6SM VCSH OVC050
                       FM301000 VRB04KT P6SM VCSH OVC025=
201808291120 TAF KBFI 291120Z 2912/3012 VRB03KT P6SM SCT250 FM291500 18006KT
                       P6SM SCT150 BKN250 FM292000 20008KT P6SM
                       SCT040 BKN100 FM300600 24006KT P6SM VCSH
                       OVC050 FM301000 VRB04KT P6SM VCSH OVC025=
201808290520 TAF KBFI 290520Z 2906/3006 VRB03KT P6SM SCT250 FM291500 18006KT
                       P6SM SCT150 BKN250 FM292000 20008KT P6SM
                       SCT040 BKN120 FM300300 24006KT P6SM VCSH
                       BKN050 OVC100=
201808282331 TAF KBFI 282331Z 2900/2924 31006KT P6SM FEW250 FM290900 VRB03KT
                       P6SM SCT250 FM291500 17006KT P6SM SCT150
                       BKN250 FM292000 20008KT P6SM SCT040 BKN120=
201808282103 KBFI 282103Z 2821/2918 32008KT P6SM SKC FM290900 17003KT P6SM SCT250
                       FM291500 17006KT P6SM SCT150 BKN250=
201808281729 TAF KBFI 281729Z 2818/2918 VRB03KT P6SM SKC FM282000 30005KT P6SM
                       SKC FM290900 17003KT P6SM SCT250 FM291500
                       17006KT P6SM SCT150 BKN250=
201808281500 KBFI 281500Z 2815/2912 VRB04KT P6SM SKC FM281900 30005KT P6SM SCT250
                       FM290900 17004KT P6SM SCT250=
201808281133 TAF KBFI 281133Z 2812/2912 VRB04KT P6SM SKC FM281900 30005KT P6SM
                       SCT250 FM290900 17004KT P6SM SCT250=
201808280520 TAF KBFI 280520Z 2806/2906 VRB04KT P6SM FEW250 FM281700 32004KT
                       P6SM SKC=
201808272320 TAF KBFI 272320Z 2800/2824 VRB04KT P6SM FEW080 FM281700 32004KT
                       P6SM SKC=
201808271720 TAF KBFI 271720Z 2718/2818 33005KT P6SM OVC025 FM272000 32006KT
                       P6SM FEW035 SCT250 FM280300 VRB03KT P6SM
                       SKC FM281700 36004KT P6SM SKC=
201808271457 KBFI 271457Z 2715/2812 33005KT P6SM OVC025 FM272000 32006KT P6SM
                       FEW035 SCT250 FM280300 VRB03KT P6SM SKC=
201808271127 TAF KBFI 271127Z 2712/2812 33005KT P6SM SCT010 BKN019
                      TEMPO 2716/2720 SCT030 FM272000 32006KT P6SM
                       FEW035 SCT250 FM280300 VRB03KT P6SM SKC=
201808270520 TAF KBFI 270520Z 2706/2806 00000KT 4SM -RA BR OVC007 FM270900 00000KT
                       P6SM OVC010 FM271800 VRB03KT P6SM BKN030
                       FM272000 32006KT P6SM SCT250 FM280300 00000KT
                       P6SM SKC=
201808270417 KBFI 270417Z 2704/2724 VRB03KT 2SM BR BKN009 OVC011 FM271200 VRB03KT
                       6SM BR SCT009 OVC012 FM272000 33006KT 6SM
                       FU SCT250=
201808270252 KBFI 270252Z 2703/2724 15008KT 2SM -RA BKN011 OVC026 FM270800 VRB02KT
                       6SM BR BKN018 BKN050 FM271200 00000KT 6SM
                       BR FU SCT009 OVC015 FM272000 33006KT 6SM
                       FU SCT250=
201808270159 KBFI 270159Z 2702/2724 18008KT 6SM -RA OVC025 FM270600 16004KT
                       P6SM BKN035 OVC060 FM270800 VRB02KT P6SM
                       BKN018 BKN050 FM271200 00000KT 6SM FU SCT009
                       OVC015 FM272000 33006KT 6SM FU SCT250=
201808262332 TAF KBFI 262332Z 2700/2724 21008KT P6SM VCSH BKN030 OVC050 FM270300
                       16004KT P6SM BKN035 OVC060 FM270800 VRB02KT
                       P6SM BKN018 BKN050 FM271200 00000KT 5SM
                       FU SCT009 OVC015 FM272000 33006KT 6SM FU
                       SCT250=
201808262101 KBFI 262101Z 2621/2718 21010KT P6SM VCSH OVC028
                      TEMPO 2621/2624 -RA FM270000 19005KT 6SM
                       FU VCSH BKN028 OVC060 FM270800 VRB02KT 6SM
                       FU BKN018 BKN050 FM271200 00000KT 5SM FU
                       SCT009 OVC015=
201808261734 TAF KBFI 261734Z 2618/2718 19005KT P6SM VCSH BKN015 OVC080
                      TEMPO 2620/2624 -RA FM270000 19005KT 6SM
                       FU VCSH BKN028 OVC060 FM270800 VRB02KT 6SM
                       FU BKN018 BKN050 FM271200 00000KT 5SM FU
                       SCT009 OVC015=
201808261502 KBFI 261502Z 2615/2712 19004KT 6SM FU SCT015 OVC020 FM261800 19007KT
                       P6SM VCSH OVC020
                      TEMPO 2620/2624 -RA FM270000 VRB03KT 6SM
                       FU BKN028 OVC060 FM270600 00000KT 6SM FU
                       SCT028 BKN060 BKN200=
201808261202 KBFI 261202Z 2612/2712 VRB02KT 6SM FU SCT025 OVC050
                      TEMPO 2612/2614 BKN025 OVC050 FM261400 16004KT
                       6SM FU OVC020 FM261800 19007KT P6SM VCSH
                       OVC020
                      TEMPO 2620/2624 -RA FM270000 VRB03KT 6SM
                       FU BKN028 OVC060 FM270600 00000KT 6SM FU
                       SCT028 BKN060 BKN200=
201808261125 TAF KBFI 261125Z 2612/2712 VRB02KT 6SM FU OVC025 FM261400 16004KT
                       6SM FU OVC020 FM261800 19007KT P6SM VCSH
                       OVC020
                      TEMPO 2620/2624 -RA FM270000 VRB03KT 6SM
                       FU BKN028 OVC060 FM270600 00000KT 6SM FU
                       SCT028 BKN060 BKN200=
201808260945 KBFI 260945Z 2610/2706 VRB03KT 6SM FU OVC030 FM261300 17007KT 5SM
                       FU OVC015 FM261800 17006KT 6SM FU VCSH OVC022
                       FM262200 16005KT 6SM FU VCSH BKN022 OVC050
                       PROB30 2622/2704 -SHRA FM270400 16005KT
                       6SM FU VCSH OVC020=
201808260906 KBFI 260906Z 2609/2706 VRB03KT 6SM FU OVC035 FM261300 17007KT 5SM
                       FU OVC015 FM261800 17006KT 6SM FU VCSH OVC022
                       FM262200 16005KT 6SM FU VCSH BKN022 OVC050
                       PROB30 2622/2704 -SHRA FM270400 16005KT
                       6SM FU VCSH OVC020=
201808260526 TAF KBFI 260526Z 2606/2706 00000KT 6SM FU SCT030 OVC045 FM260800
                       16003KT 5SM FU BKN025 OVC040 FM261300 17007KT
                       5SM FU OVC015 FM261800 17006KT 6SM FU VCSH
                       OVC022 FM262200 16005KT 6SM FU VCSH BKN022
                       OVC050
                      PROB30 2622/2704 -SHRA FM270400 16005KT 6SM
                       FU VCSH OVC020=
201808260053 KBFI 260053Z 2601/2624 24006KT 6SM FU VCSH BKN028 FM260600 VRB02KT
                       6SM FU BKN020 BKN070 FM261000 16003KT 4SM
                       FU OVC012 FM261700 17007KT 4SM FU VCSH OVC018
                       FM262000 17006KT 6SM FU VCSH BKN020 OVC060
                       PROB30 2620/2624 -SHRA=
201808252332 TAF KBFI 252332Z 2600/2624 16005KT 6SM FU VCSH SCT025 OVC080 FM260600
                       VRB02KT 6SM FU BKN020 BKN070 FM261000 16003KT
                       4SM FU OVC012 FM261700 17007KT 4SM FU VCSH
                       OVC018 FM262000 17006KT 6SM FU VCSH BKN020
                       OVC060
                      PROB30 2620/2624 -SHRA=
201808251738 TAF KBFI 251738Z 2518/2618 15006KT 5SM FU VCSH OVC012
                      TEMPO 2518/2520 -SHRA FM252000 19006KT 6SM
                       FU VCSH OVC025 FM260000 25005KT 6SM FU VCSH
                       BKN040 BKN100 FM260600 VRB02KT 6SM FU BKN020
                       BKN060 FM261000 VRB02KT 4SM FU OVC012 FM261700
                       17007KT 4SM FU OVC020=
201808251502 KBFI 251502Z 2515/2612 22005KT 5SM BR FU OVC010 FM251700 19005KT
                       5SM BR FU BKN025 OVC100 FM252000 20005KT
                       6SM FU VCSH OVC060 FM260300 VRB02KT 6SM
                       FU FEW040 BKN060 FM261000 VRB02KT 6SM FU
                       OVC030=
201808251353 KBFI 251353Z 2514/2612 15005KT 5SM BR FU OVC012 FM251600 15005KT
                       5SM BR FU BKN025 BKN100 FM251800 17005KT
                       6SM FU SCT060 OVC100 FM252000 20005KT 6SM
                       FU VCSH OVC060 FM260300 VRB02KT 6SM FU FEW040
                       BKN060 FM261000 VRB02KT 6SM FU OVC030=
201808251208 KBFI 251208Z 2512/2612 15005KT 5SM BR FU SCT012 SCT025 SCT100
                      TEMPO 2512/2516 BKN012 BKN025 BKN100 FM251800
                       17005KT 6SM FU SCT060 OVC100 FM252000 20005KT
                       6SM FU VCSH OVC060 FM260300 VRB02KT 6SM
                       FU FEW040 BKN060 FM261000 VRB02KT 6SM FU
                       OVC030=
201808251140 TAF KBFI 251140Z 2512/2612 VRB03KT 6SM BR FU SCT025 SCT100 OVC250
                       TEMPO 2513/2517 BKN025 BKN100 OVC250 FM251800
                       17005KT 6SM FU SCT060 OVC100 FM252000 20005KT
                       6SM FU VCSH OVC060 FM260300 VRB02KT 6SM
                       FU FEW040 BKN060 FM261000 VRB02KT 6SM FU
                       OVC030=
201808250925 KBFI 250925Z 2509/2606 VRB03KT 6SM FU BKN250 FM251200 VRB02KT 4SM
                       FU OVC020 FM252000 20005KT P6SM BKN040 BKN100
                       FM260300 VRB03KT P6SM BKN035 BKN080=
201808250652 KBFI 250652Z 2507/2606 VRB03KT 6SM FU FEW040 SCT250 FM251200 VRB02KT
                       4SM FU OVC020 FM252000 20005KT P6SM BKN040
                       BKN100 FM260300 VRB03KT P6SM BKN035 BKN080=
201808250520 TAF KBFI 250520Z 2506/2606 VRB03KT 5SM HZ FU BKN030 FM250900 VRB02KT
                       4SM HZ FU OVC020 FM252000 20005KT P6SM BKN040
                       BKN100 FM260300 VRB03KT P6SM BKN035 BKN080=
201808250242 KBFI 250242Z 2503/2524 19007KT 3SM HZ BKN040 BKN080 FM250600 19003KT
                       P6SM BKN030 FM250900 VRB02KT P6SM OVC020
                       FM252000 20005KT P6SM BKN030 BKN100=
201808242329 TAF KBFI 242329Z 2500/2524 19007KT 6SM HZ BKN040 BKN080 FM250600
                       19003KT P6SM BKN030 FM250900 VRB02KT P6SM
                       OVC020 FM252000 20005KT P6SM BKN030 BKN100=
201808242102 KBFI 242102Z 2421/2518 21006KT P6SM BKN035 FM250000 21006KT P6SM
                       SCT050 SCT250 FM250600 20003KT P6SM BKN030
                       FM250900 VRB02KT P6SM OVC020 FM251700 16005KT
                       P6SM OVC022=
201808241737 TAF KBFI 241737Z 2418/2518 21006KT P6SM OVC020 FM242000 20005KT
                       P6SM BKN040 FM250000 21006KT P6SM SCT050
                       SCT250 FM250600 20003KT P6SM BKN030 FM250900
                       VRB02KT P6SM OVC020 FM251700 16005KT P6SM
                       OVC022=
201808241140 TAF KBFI 241140Z 2412/2512 19005KT P6SM OVC018 FM241800 19007KT
                       P6SM OVC025 FM242100 23005KT P6SM FEW035
                       BKN060 FM250200 VRB02KT P6SM SCT060 BKN250
                       FM250900 VRB02KT P6SM OVC025=
201808240907 KBFI 240907Z 2409/2506 VRB05KT P6SM OVC022 FM241100 17006KT P6SM
                       OVC018 FM241700 18006KT P6SM BKN020 OVC030
                       FM242200 23005KT P6SM BKN030 FM250200 VRB03KT
                       P6SM BKN035=
201808240647 KBFI 240647Z 2407/2506 VRB05KT P6SM SCT030 SCT060
                      TEMPO 2407/2409 BKN030 BKN060 FM240900 VRB05KT
                       P6SM OVC030 FM241300 17006KT P6SM OVC015
                       FM241700 18006KT P6SM BKN020 OVC030 FM242200
                       23005KT P6SM BKN030 FM250200 VRB03KT P6SM
                       BKN035=
201808240524 TAF KBFI 240524Z 2406/2506 20008KT P6SM SCT060 FM241000 18006KT
                       P6SM OVC025 FM241300 17006KT P6SM OVC015
                       FM241700 18006KT P6SM BKN020 OVC030 FM242200
                       23005KT P6SM BKN030 FM250200 VRB03KT P6SM
                       BKN035=
201808232358 TAF KBFI 232358Z 2400/2424 20008KT P6SM SCT040 FM240500 18006KT
                       P6SM OVC025 FM241000 17006KT P6SM OVC015
                       PROB30 2412/2416 -DZ FM241700 18006KT P6SM
                       BKN020 OVC035=
201808232103 KBFI 232103Z 2321/2418 20009KT P6SM BKN040 FM232200 20008KT P6SM
                       SCT040 FM240500 18006KT P6SM OVC025 FM241000
                       17006KT P6SM OVC015 FM241700 18006KT P6SM
                       BKN020 OVC035=
201808231752 TAF KBFI 231752Z 2318/2418 17009KT P6SM BKN015 OVC030 FM232200
                       18009KT P6SM SCT030 FM240500 17006KT P6SM
                       OVC025 FM241000 16006KT P6SM OVC015 FM241700
                       18006KT P6SM BKN020 OVC035=
201808231501 KBFI 231501Z 2315/2412 20008KT 3SM -DZ BR BKN010 OVC015 FM231700
                       20008KT P6SM OVC015 FM231900 20009KT P6SM
                       BKN022 FM232100 21009KT P6SM SCT030 FM240500
                       17006KT P6SM OVC025 FM241000 16006KT P6SM
                       OVC019=
201808231137 TAF KBFI 231137Z 2312/2412 17007KT 5SM FU OVC015
                      TEMPO 2315/2319 P6SM NSW OVC018 FM231900
                       19009KT P6SM BKN022 FM232100 21009KT P6SM
                       SCT030 FM240500 17006KT P6SM OVC025 FM241000
                       16006KT P6SM OVC019=
201808230738 KBFI 230738Z 2308/2406 20006KT 4SM FU SCT016 BKN030
                      TEMPO 2308/2309 BKN013 BKN035 FM230900 19006KT
                       6SM FU BKN013 BKN035 FM231100 17008KT P6SM
                       OVC012 FM231900 19009KT P6SM BKN020 FM232200
                       21009KT P6SM SCT030 FM240100 20006KT P6SM
                       BKN040=
201808230520 TAF KBFI 230520Z 2306/2406 20006KT 4SM FU BKN030 FM230800 19006KT
                       6SM FU SCT030 FM231100 17008KT P6SM OVC012
                       FM231900 19009KT P6SM BKN020 FM232200 21009KT
                       P6SM SCT030 FM240100 20006KT P6SM BKN040=
201808222326 TAF KBFI 222326Z 2300/2324 35004KT 3SM FU BKN030 FM230500 19006KT
                       6SM FU SCT030 FM231100 17008KT P6SM OVC012
                       FM231900 19009KT P6SM BKN020 FM232200 21009KT
                       P6SM SCT030=
201808221754 TAF KBFI 221754Z 2218/2318 VRB03KT 2SM FU OVC030 FM222300 26006KT
                       4SM FU BKN040 FM230500 19007KT 6SM FU SCT050
                       FM231100 17007KT P6SM OVC012 FM231700 19009KT
                       P6SM BKN015=
201808221508 KBFI 221508Z 2215/2312 VRB03KT 2SM FU OVC030 FM221900 24006KT 4SM
                       FU BKN040 FM230500 19008KT 6SM FU SCT050
                       FM231100 17007KT P6SM OVC014=
201808221120 TAF KBFI 221120Z 2212/2312 VRB03KT 4SM FU BKN040 FM221900 24006KT
                       4SM FU BKN040 FM230500 19008KT 6SM FU SCT050
                       FM231100 17007KT P6SM OVC014=
201808220532 TAF KBFI 220532Z 2206/2306 VRB03KT 4SM FU BKN035 FM221900 28006KT
                       4SM FU BKN035 FM230500 19008KT 6SM FU SCT050=
201808212320 TAF KBFI 212320Z 2200/2224 33008KT 4SM FU BKN035 FM220300 03005KT
                       3SM FU OVC040 FM221200 VRB03KT 2SM FU OVC040
                       FM221900 25007KT 4SM FU BKN040=
201808211720 TAF KBFI 211720Z 2118/2218 35005KT 3SM FU OVC050 FM212000 35008KT
                       3SM FU OVC040 FM220300 03005KT 3SM FU OVC040=
201808211335 KBFI 211335Z 2114/2212 VRB03KT 3SM FU OVC050 FM211800 32006KT 5SM
                       FU OVC050 FM220300 VRB03KT 4SM FU OVC045=
201808211120 TAF KBFI 211120Z 2112/2212 VRB03KT 5SM FU OVC050 FM211800 32006KT
                       5SM FU OVC050 FM220300 VRB03KT 4SM FU OVC045=
201808210831 KBFI 210831Z 2109/2206 VRB03KT 4SM FU OVC050 FM211200 VRB02KT 5SM
                       FU OVC050 FM211800 32006KT 5SM FU OVC050
                       FM220100 VRB03KT 4SM FU OVC040=
201808210523 TAF KBFI 210523Z 2106/2206 VRB02KT 4SM FU VV050 FM211200 VRB02KT
                       5SM FU VV050 FM211800 32006KT 5SM FU VV050
                       FM220100 VRB03KT 4SM FU VV040=
201808210421 KBFI 210421Z 2104/2124 VRB02KT 3SM FU VV050=
201808210314 KBFI 210314Z 2103/2124 VRB02KT 2SM FU VV040 FM210600 03005KT 3SM
                       FU OVC030=
201808210018 KBFI 210018Z 2100/2124 04005KT 2SM FU OVC035 FM210600 03005KT 3SM
                       FU OVC030=
201808202320 TAF KBFI 202320Z 2100/2124 32006KT 3SM FU OVC030 FM210600 03005KT
                       3SM FU OVC030=
201808201958 KBFI 201958Z 2020/2118 32007G14KT 3SM FU OVC030 FM210600 03005KT
                       5SM FU OVC040=
201808201722 TAF KBFI 201722Z 2018/2118 32008KT 5SM FU OVC040 FM202100 35010KT
                       5SM FU OVC040 FM210600 03005KT 5SM FU OVC040=
201808201123 TAF KBFI 201123Z 2012/2112 VRB03KT 6SM FU BKN050 FM201800 35007KT
                       5SM FU OVC045 FM202100 32012KT 6SM FU OVC045
                       FM210300 35005KT 5SM FU OVC045=
201808200541 TAF KBFI 200541Z 2006/2106 VRB03KT 6SM FU OVC040 FM201400 VRB03KT
                       2SM FU OVC030 FM201800 35007KT 4SM FU OVC035
                       FM202100 32012KT 6SM FU OVC045 FM210200
                       35005KT 4SM FU OVC045=
201808200347 KBFI 200347Z 2004/2024 32004KT 3SM FU OVC040 FM200600 02005KT 3SM
                       FU BKN040 FM201900 35010KT 3SM FU SCT040=
201808200120 KBFI 200120Z 2001/2024 31005KT 2SM FU OVC040 FM200600 02005KT 3SM
                       FU BKN040 FM201900 35010KT 3SM FU SCT040=
201808192320 TAF KBFI 192320Z 2000/2024 33008KT 5SM FU FEW040 FM200600 02005KT
                       3SM FU BKN040 FM201900 35010KT 3SM FU SCT040=
201808191720 TAF KBFI 191720Z 1918/2018 32007KT P6SM SKC FM200000 02006KT 4SM
                       FU SCT040 FM201200 35007KT 3SM FU BKN040=
201808191137 TAF KBFI 191137Z 1912/2012 VRB03KT P6SM SKC FM191800 32007KT 6SM
                       FU FEW120 FM200400 VRB03KT 6SM FU FEW120=
201808190541 TAF KBFI 190541Z 1906/2006 VRB03KT P6SM SKC FM191800 32007KT 6SM
                       FU FEW130 FM200200 VRB03KT 6SM FU FEW130=
201808182320 TAF KBFI 182320Z 1900/1924 32008KT P6SM SKC FM190300 36005KT P6SM
                       SKC FM191200 VRB04KT P6SM SKC FM191800 33008KT
                       P6SM SKC FM192200 32009KT 6SM FU SCT040=
201808181722 TAF KBFI 181722Z 1818/1918 32007KT P6SM FEW200 FM190300 36005KT
                       P6SM SKC FM191200 VRB04KT P6SM SKC=
201808181142 TAF KBFI 181142Z 1812/1912 00000KT P6SM SKC FM181400 VRB03KT P6SM
                       FEW016 FM181600 VRB02KT P6SM SKC FM181800
                       30006KT P6SM SKC FM190200 VRB03KT P6SM SKC=
201808180531 TAF KBFI 180531Z 1806/1906 00000KT P6SM SKC FM181200 00000KT P6SM
                       FEW016 FM181600 VRB02KT P6SM SKC FM181800
                       30006KT P6SM SKC FM190200 VRB03KT P6SM SKC=
201808172320 TAF KBFI 172320Z 1800/1824 23007KT P6SM SKC FM180300 VRB05KT P6SM
                       SKC FM181200 VRB03KT P6SM SCT020 FM181900
                       32007KT P6SM SKC=
201808171901 KBFI 171901Z 1719/1818 23009KT P6SM BKN019 FM172000 23007KT P6SM
                       SCT025 SCT250 FM180000 VRB05KT P6SM FEW250
                       FM180600 18003KT P6SM SKC FM181200 VRB03KT
                       P6SM SCT020=
201808171720 TAF KBFI 171720Z 1718/1818 18005KT P6SM OVC015 FM172000 23007KT
                       P6SM SCT025 SCT250 FM180000 VRB05KT P6SM
                       FEW250 FM180600 18003KT P6SM SKC FM181200
                       VRB03KT P6SM SCT020=
201808171344 KBFI 171344Z 1714/1812 18004KT P6SM BKN012 OVC035 FM171800 21005KT
                       P6SM BKN025 FM172000 28005KT P6SM FEW040
                       SCT250 FM180200 VRB03KT P6SM FEW250 FM180600
                       22003KT P6SM SKC=
201808171140 TAF KBFI 171140Z 1712/1812 16003KT P6SM FEW025 FM171400 19005KT
                       P6SM OVC020 FM171800 21005KT P6SM BKN025
                       FM172000 28005KT P6SM FEW040 SCT250 FM180200
                       VRB03KT P6SM FEW250 FM180600 22003KT P6SM
                       SKC=
201808170541 TAF KBFI 170541Z 1706/1806 VRB03KT P6SM BKN150 FM171000 VRB03KT
                       P6SM SCT025 SCT150 FM171400 19005KT P6SM
                       OVC020 FM171800 21005KT P6SM SCT025
                      TEMPO 1718/1721 BKN025 FM172100 28005KT P6SM
                       FEW040 SCT250 FM180200 VRB03KT P6SM FEW250=
201808162320 TAF KBFI 162320Z 1700/1724 VRB05KT P6SM SKC FM171100 19003KT P6SM
                       SCT018 FM171200 18003KT 4SM BR OVC007 FM171800
                       VRB03KT P6SM BKN015 FM172000 24005KT P6SM
                       SKC=
201808162102 KBFI 162102Z 1621/1718 23008KT 5SM HZ OVC015 FM162200 24007KT P6SM
                       SKC FM170200 29004KT P6SM SKC FM170800 19003KT
                       P6SM SCT018 FM171200 18003KT 4SM BR OVC007=
201808161724 TAF KBFI 161724Z 1618/1718 21005KT 4SM BR OVC007 FM161900 23005KT
                       P6SM BKN015 FM162100 23005KT P6SM SKC FM170200
                       29004KT P6SM SKC FM170800 19003KT P6SM SCT018
                       FM171200 18003KT 4SM BR OVC007=
201808161307 KBFI 161307Z 1613/1712 21004KT 3SM BR OVC006 FM161700 21005KT P6SM
                       BKN015 FM161900 22005KT P6SM SKC FM170000
                       VRB03KT P6SM SKC FM170200 29004KT P6SM SKC
                       FM170800 19003KT P6SM SCT018=
201808161143 TAF KBFI 161143Z 1612/1712 21004KT P6SM VCFG SCT020 FM161300 21004KT
                       5SM BR OVC010 FM161700 21005KT P6SM BKN016
                       FM161900 22005KT P6SM SKC FM170000 VRB03KT
                       P6SM SKC FM170200 29004KT P6SM SKC FM170800
                       19003KT P6SM SCT018=
201808160540 TAF KBFI 160540Z 1606/1706 VRB03KT 6SM FU SKC FM160900 VRB03KT
                       6SM FU FEW014
                      TEMPO 1610/1612 BKN014 FM161200 17004KT P6SM
                       VCFG OVC011 FM161800 21005KT P6SM SCT016
                       FM161900 28005KT P6SM SKC FM170200 VRB03KT
                       P6SM SKC=
201808160323 KBFI 160323Z 1603/1624 32004KT P6SM SKC FM160500 VRB03KT 6SM FU
                       SKC FM161100 17004KT P6SM FEW015 FEW050
                       FM161700 25006KT P6SM SCT200=
201808152320 TAF KBFI 152320Z 1600/1624 30005KT 6SM HZ FU SCT050 FM160300 VRB04KT
                       6SM HZ FU FEW050 FM160500 VRB03KT P6SM FEW050
                       FM161100 17004KT P6SM FEW015 FEW050 FM161700
                       25006KT P6SM SCT200=
201808151720 TAF KBFI 151720Z 1518/1618 VRB03KT 3SM HZ FU BKN040 FM152000 29005KT
                       5SM HZ FU SCT045 FM160300 VRB04KT 6SM HZ
                       FU FEW050 FM160500 VRB03KT P6SM FEW050 FM161100
                       17004KT P6SM FEW015 FEW050=
201808151153 TAF KBFI 151153Z 1512/1612 00000KT 5SM HZ FU BKN040 FM151400 VRB03KT
                       3SM HZ FU BKN035 FM151900 29005KT 5SM HZ
                       FU SCT045 FM160300 VRB04KT 6SM HZ FU FEW050
                       FM160500 VRB03KT P6SM FEW050 FM161100 17004KT
                       P6SM FEW015 FEW050=
201808150915 KBFI 150915Z 1509/1606 00000KT 4SM HZ FU SCT045 FM151400 VRB03KT
                       3SM HZ FU SCT040 FM152000 29005KT 5SM HZ
                       FU SCT045 FM160300 VRB04KT 6SM HZ FU FEW050
                       FM160500 VRB03KT P6SM FEW050=
201808150723 KBFI 150723Z 1507/1606 00000KT 4SM HZ FU SCT045 FM152100 29005KT
                       5SM HZ FU SCT045 FM160400 VRB04KT 6SM HZ
                       FU FEW050=
201808150520 TAF KBFI 150520Z 1506/1606 00000KT 5SM HZ FU SCT045 FM152100 29005KT
                       4SM HZ FU SCT045=
201808142320 TAF KBFI 142320Z 1500/1524 VRB04KT 4SM HZ FU SCT040 FM152100 29005KT
                       P6SM SKC=
201808142059 KBFI 142059Z 1421/1518 30006KT 3SM HZ FU SCT050 FM150000 VRB04KT
                       P6SM SKC=
201808141720 TAF KBFI 141720Z 1418/1518 32005KT 5SM HZ FU SCT045 FM142100 32006KT
                       6SM HZ FU SCT050 FM150300 VRB04KT P6SM SKC=
201808141417 KBFI 141417Z 1414/1512 VRB03KT 4SM HZ FU SCT045 FM141800 32005KT
                       6SM HZ FU SCT045 FM142200 32006KT P6SM SCT050
                       FM150300 VRB04KT P6SM FEW060=
201808141142 TAF KBFI 141142Z 1412/1512 VRB03KT 6SM HZ FU SCT045 FM141800 32005KT
                       6SM HZ FU SCT045 FM142200 32006KT P6SM SCT050
                       FM150300 VRB04KT P6SM FEW060=
201808140912 KBFI 140912Z 1409/1506 VRB03KT 6SM HZ FU SCT045 FM141900 31006KT
                       6SM HZ FU SCT045 FM150300 VRB04KT P6SM SKC=
201808140520 TAF KBFI 140520Z 1406/1506 VRB03KT 6SM HZ FU BKN045 FM141800 31006KT
                       6SM HZ FU SCT045=
201808132322 TAF KBFI 132322Z 1400/1424 32006KT 6SM HZ FU SCT050 FM140600 VRB03KT
                       5SM HZ FU SCT035 FM141800 31006KT 6SM HZ
                       FU SCT030=
201808131724 TAF KBFI 131724Z 1318/1418 06007KT 6SM HZ FU SCT050 FM131900 32006KT
                       6SM HZ FU SCT050 FM140600 VRB03KT 5SM HZ
                       FU SCT035=
201808131503 KBFI 131503Z 1315/1412 00000KT P6SM SCT010 SCT200 FM131900 32008KT
                       P6SM SCT080 FM140600 VRB03KT P6SM SCT080=
201808131120 TAF KBFI 131120Z 1312/1412 00000KT P6SM SCT200 FM131900 32008KT
                       P6SM SCT080 FM140600 VRB03KT P6SM SCT080=
201808130522 TAF KBFI 130522Z 1306/1406 00000KT P6SM SKC FM131300 00000KT P6SM
                       SCT008 FM131900 32007KT P6SM SKC=
201808122320 TAF KBFI 122320Z 1300/1324 30006KT P6SM OVC250 FM130100 32004KT
                       P6SM SKC FM130500 00000KT P6SM SKC FM131300
                       00000KT P6SM SCT008 FM131900 32007KT P6SM
                       SKC=
201808121720 TAF KBFI 121720Z 1218/1318 VRB03KT P6SM SCT020 BKN045 FM122200
                       32006KT P6SM SCT050 FM130100 32004KT P6SM
                       SKC FM130500 00000KT P6SM SKC FM131300 00000KT
                       P6SM SCT008=
201808121438 KBFI 121438Z 1215/1312 16005KT P6SM SCT020 BKN045 FM122000 32006KT
                       P6SM SCT050 FM130100 32006KT P6SM SKC=
201808121132 TAF KBFI 121132Z 1212/1312 18004KT P6SM OVC035 FM122000 32006KT
                       P6SM SCT050 FM130100 32006KT P6SM SKC=
201808120520 TAF KBFI 120520Z 1206/1306 16008KT P6SM SCT060 BKN100 FM121100
                       16005KT P6SM OVC025 FM121700 17005KT P6SM
                       BKN035 FM122000 32005KT P6SM SCT050 FM130100
                       32005KT P6SM SKC=
201808112321 TAF KBFI 112321Z 1200/1224 21009G17KT P6SM -SHRA SCT025 BKN050
                       BKN090 FM120200 19005KT P6SM VCSH SCT025
                       OVC050 FM121100 16005KT P6SM OVC025 FM121700
                       17005KT P6SM BKN035 FM122000 32005KT P6SM
                       SCT050 SCT250=
201808112101 KBFI 112101Z 1121/1218 20008G17KT P6SM -SHRA FEW011 SCT020 BKN050
                       FM112200 19006KT P6SM -SHRA SCT020 BKN035
                       OVC050 FM120300 19005KT P6SM VCSH SCT025
                       OVC050 FM121100 16005KT P6SM OVC025 FM121700
                       17005KT P6SM BKN035=
201808112010 KBFI 112010Z 1120/1218 19007KT P6SM -SHRA VCTS FEW011 BKN020 OVC050CB
                       FM112200 19006KT P6SM -SHRA SCT020 OVC050
                       FM120300 19005KT P6SM VCSH SCT025 OVC050
                       FM121100 16005KT P6SM OVC025 FM121700 17005KT
                       P6SM BKN035=
201808111735 TAF KBFI 111735Z 1118/1218 20007KT P6SM BKN020 BKN080 FM111900
                       19010G17KT P6SM -SHRA SCT025 BKN035 OVC060
                       FM120300 19005KT P6SM VCSH SCT025 OVC050
                       FM121100 16005KT P6SM OVC025 FM121700 17005KT
                       P6SM BKN035=
201808111501 KBFI 111501Z 1115/1212 20007KT P6SM BKN026 BKN030 FM111700 18008KT
                       P6SM -SHRA SCT025 OVC040 FM120100 17006KT
                       P6SM SCT025 OVC050 FM121000 16005KT P6SM
                       OVC030=
201808111126 TAF KBFI 111126Z 1112/1212 17008KT P6SM SCT025 BKN035 BKN120
                      TEMPO 1112/1115 BKN025 BKN035 BKN120 FM111700
                       18008KT P6SM -SHRA SCT025 OVC040 FM120100
                       17006KT P6SM SCT025 OVC050 FM121000 16005KT
                       P6SM OVC030=
201808110736 KBFI 110736Z 1108/1206 19005KT P6SM SCT018 FM110900 19005KT P6SM
                       OVC016
                      TEMPO 1109/1110 SCT016 FM111500 19005KT P6SM
                       -DZ OVC020 FM111900 19010KT P6SM -SHRA SCT025
                       OVC040 FM120300 17006KT P6SM SCT025 OVC050=
201808110527 TAF KBFI 110527Z 1106/1206 19005KT P6SM FEW250 FM110900 19005KT
                       P6SM SCT050 BKN100 FM111100 19005KT P6SM
                       OVC025 FM111900 20010KT P6SM -SHRA SCT025
                       OVC040 FM120300 17006KT P6SM SCT025 OVC050=
201808102328 TAF KBFI 102328Z 1100/1124 21007KT P6SM SCT250 FM110800 16008KT
                       P6SM OVC025 FM111500 17008KT P6SM -SHRA
                       OVC030 FM111900 19009KT P6SM -SHRA SCT030
                       BKN045=
201808101745 TAF KBFI 101745Z 1018/1118 VRB06KT P6SM SKC FM102200 20009KT P6SM
                       SKC FM110200 18010KT P6SM SCT030 FM110900
                       16008KT P6SM OVC025 FM111500 17008KT P6SM
                       -SHRA OVC030=
201808101123 TAF KBFI 101123Z 1012/1112 VRB04KT P6SM SKC FM101800 21006KT P6SM
                       SKC FM102200 20009KT P6SM SKC FM110200 18010KT
                       P6SM SCT030 FM110900 16008KT P6SM OVC025=
201808100520 TAF KBFI 100520Z 1006/1106 VRB04KT P6SM SKC FM101800 23005KT P6SM
                       SKC FM102200 23010KT P6SM SKC FM110200 23012KT
                       P6SM SCT030=
201808092335 TAF KBFI 092335Z 1000/1024 31005KT P6SM BKN070 FM101500 19004KT
                       P6SM SCT100 BKN200 FM102100 21010G18KT P6SM
                       FEW030=
201808091735 TAF KBFI 091735Z 0918/1018 VRB03KT P6SM SCT070 FM092100 31006KT
                       P6SM BKN070 FM101200 21005KT P6SM SCT100
                       BKN200=
201808091120 TAF KBFI 091120Z 0912/1012 17004KT P6SM SKC FM091900 30006KT P6SM
                       SKC FM100400 VRB03KT P6SM SKC=
201808090520 TAF KBFI 090520Z 0906/1006 00000KT P6SM SKC FM091900 VRB04KT P6SM
                       SKC=
201808082329 TAF KBFI 082329Z 0900/0924 32005KT P6SM SCT070 SCT100 FM091000
                       00000KT P6SM SCT070 SCT100 FM091900 32006KT
                       P6SM BKN070 BKN100=
201808081737 TAF KBFI 081737Z 0818/0918 31005KT P6SM SCT100 SCT250 FM091000
                       00000KT P6SM SCT100=
201808081132 TAF KBFI 081132Z 0812/0912 VRB03KT P6SM SKC FM081900 31006KT P6SM
                       SKC FM090500 VRB04KT P6SM SKC=
201808080520 TAF KBFI 080520Z 0806/0906 VRB03KT P6SM SKC FM081900 32007KT P6SM
                       SKC=
201808072320 TAF KBFI 072320Z 0800/0824 32009KT P6SM FEW250 FM080400 VRB03KT
                       P6SM SKC FM081900 32007KT P6SM SKC=
201808071720 TAF KBFI 071720Z 0718/0818 VRB03KT P6SM SKC FM072000 32008KT P6SM
                       SKC FM080400 VRB03KT P6SM SKC=
201808071126 TAF KBFI 071126Z 0712/0812 VRB03KT P6SM SKC FM072000 32008KT P6SM
                       SKC FM080600 VRB03KT P6SM SKC=
201808070520 TAF KBFI 070520Z 0706/0806 VRB03KT P6SM SKC FM072000 32008KT P6SM
                       SKC=
201808062320 TAF KBFI 062320Z 0700/0724 32008KT P6SM SKC FM070400 VRB03KT P6SM
                       SKC FM072000 32008KT P6SM SKC=
201808061726 TAF KBFI 061726Z 0618/0718 33004KT P6SM SCT250 FM061900 32007KT
                       P6SM SCT200 FM070400 VRB03KT P6SM FEW200=
201808061128 TAF KBFI 061128Z 0612/0712 VRB03KT P6SM BKN200 FM061900 30006KT
                       P6SM SCT200 FM070400 VRB03KT P6SM FEW200=
201808060520 TAF KBFI 060520Z 0606/0706 VRB03KT P6SM BKN250 FM061900 29006KT
                       P6SM SCT200 FM070400 VRB03KT P6SM FEW200=
201808052320 TAF KBFI 052320Z 0600/0624 29006KT P6SM FEW250 FM060400 VRB03KT
                       P6SM FEW250 FM061900 29006KT P6SM FEW200=
201808051722 TAF KBFI 051722Z 0518/0618 VRB03KT P6SM SCT250 FM052000 31006KT
                       P6SM FEW070 SCT250 FM060400 VRB03KT P6SM
                       FEW250=
201808051132 TAF KBFI 051132Z 0512/0612 VRB04KT P6SM SCT200 FM051900 31006KT
                       P6SM SCT200 FM060400 VRB03KT P6SM FEW120
                       SCT200=
201808050536 TAF KBFI 050536Z 0506/0606 01004KT P6SM FEW060 SCT250 FM051200
                       VRB04KT P6SM FEW030 SCT200 FM051900 31007KT
                       P6SM BKN250 FM060400 VRB03KT P6SM SCT100
                       BKN200=
201808042321 TAF KBFI 042321Z 0500/0524 32007KT P6SM FEW070 FM050400 VRB03KT
                       P6SM FEW250=
201808041720 TAF KBFI 041720Z 0418/0518 03006KT P6SM FEW012 FM041900 31006KT
                       P6SM FEW050 SCT250 FM050400 VRB03KT P6SM
                       FEW250=
201808041131 TAF KBFI 041131Z 0412/0512 VRB03KT P6SM SKC FM041300 VRB03KT P6SM
                       BKN008 FM041700 29006KT P6SM SCT250 FM050400
                       VRB03KT P6SM SCT250=
201808040904 KBFI 040904Z 0409/0506 VRB03KT P6SM SKC FM041300 VRB03KT P6SM SCT010
                       FM041700 29006KT P6SM FEW035 SCT250 FM050400
                       VRB04KT P6SM SCT035 SCT250=
201808040554 TAF KBFI 040554Z 0406/0506 32004KT P6SM FEW060 FM040900 VRB03KT
                       P6SM BKN050 FM041200 VRB03KT P6SM OVC035
                       FM041600 28004KT P6SM SCT030 BKN050 FM041800
                       29006KT P6SM FEW035 SCT250 FM050400 VRB04KT
                       P6SM SCT035 SCT250=
201808032325 TAF KBFI 032325Z 0400/0424 29007KT P6SM FEW040 SCT060 FM040300
                       32005KT P6SM FEW035 BKN060 FM041000 VRB03KT
                       P6SM BKN025 OVC040 FM041800 28004KT P6SM
                       SCT030 BKN050 FM042100 29006KT P6SM FEW035
                       SCT050=
201808031720 TAF KBFI 031720Z 0318/0418 25004KT P6SM SCT025 BKN040 OVC060
                      TEMPO 0318/0320 BKN025 OVC040 FM032100 26005KT
                       P6SM FEW025 BKN045 OVC060 FM040200 31005KT
                       P6SM BKN050 FM041000 VRB03KT P6SM OVC025=
201808031130 TAF KBFI 031130Z 0312/0412 19006KT P6SM OVC016 FM031300 19006KT
                       P6SM SCT009 OVC016
                      TEMPO 0313/0317 3SM -DZ BKN009 OVC016 FM031700
                       19006KT P6SM SCT015 OVC025 FM032000 VRB03KT
                       P6SM SCT025 OVC040 FM032300 VRB03KT P6SM
                       BKN045 FM040200 30006KT P6SM BKN045 FM041000
                       VRB03KT P6SM OVC025=
201808030545 TAF KBFI 030545Z 0306/0406 21005KT P6SM OVC030 FM031200 16006KT
                       P6SM OVC025
                      TEMPO 0312/0316 4SM -DZ FM031900 23005KT
                       P6SM SCT020 OVC035 FM032100 VRB04KT P6SM
                       SCT020 BKN040=
201808030539 TAF KBFI 030539Z 0306/0406 21005KT P6SM BKN030 OVC045 FM030800
                       18005KT P6SM OVC025 FM031200 16005KT P6SM
                       OVC018
                      TEMPO 0312/0316 4SM -DZ BR FM031900 19005KT
                       P6SM SCT018 OVC030 FM032100 22004KT P6SM
                       SCT025 BKN040 FM040100 30005KT P6SM OVC040=
201808022320 TAF KBFI 022320Z 0300/0324 18007KT P6SM OVC040 FM030600 18007KT
                       P6SM OVC030 FM031200 16006KT P6SM OVC018
                       TEMPO 0312/0316 4SM -DZ FM031900 23005KT
                       P6SM SCT020 OVC035 FM032100 VRB04KT P6SM
                       SCT020 BKN040=
201808021720 TAF KBFI 021720Z 0218/0318 18008KT P6SM SCT018 OVC035
                      TEMPO 0218/0220 BKN018 OVC030 FM022300 21008KT
                       P6SM SCT025 BKN035 FM030600 21008KT P6SM
                       OVC025 FM031000 21008KT P6SM SCT008 OVC018
                       TEMPO 0312/0316 3SM -DZ BR BKN008 OVC012=
201808021557 KBFI 021557Z 0216/0312 19008KT P6SM SCT006 OVC020
                      TEMPO 0216/0218 3SM -DZ BR BKN006 OVC015
                       FM022000 19008KT P6SM OVC030 FM022300 19008KT
                       P6SM SCT030 BKN040 OVC050 FM030700 19008KT
                       P6SM OVC030 FM031000 19008KT P6SM OVC020=
201808021132 TAF KBFI 021132Z 0212/0312 19008KT P6SM -DZ OVC016
                      TEMPO 0214/0217 5SM -DZ BR FM021700 19008KT
                       P6SM OVC020 FM022000 19008KT P6SM OVC030
                       FM022300 19008KT P6SM SCT030 BKN040 OVC050
                       FM030700 19008KT P6SM OVC030 FM031000 19008KT
                       P6SM OVC020=
201808020753 KBFI 020753Z 0208/0306 23005KT P6SM SCT018
                      TEMPO 0208/0212 OVC015 FM021200 21006KT P6SM
                       OVC015
                      TEMPO 0212/0216 6SM -DZ OVC012 FM021900 18007KT
                       P6SM BKN020 OVC030 FM022200 17007KT P6SM
                       BKN040 OVC060=
201808020547 TAF KBFI 020547Z 0206/0306 23007KT P6SM FEW030 SCT250 FM021100
                       18008KT P6SM BKN025 FM021300 18006KT P6SM
                       OVC022
                      TEMPO 0214/0217 -DZ OVC020 FM021800 19007KT
                       P6SM OVC030 FM022200 17007KT P6SM BKN040
                       OVC060=
201808012320 TAF KBFI 012320Z 0200/0224 23007KT P6SM FEW030 SCT250 FM020700
                       21007KT P6SM BKN025 FM021200 18008KT P6SM
                       OVC022
                      TEMPO 0214/0217 -DZ OVC015 FM021800 21007KT
                       P6SM OVC030 FM022200 23007KT P6SM BKN040=
201808012103 KBFI 012103Z 0121/0218 27006KT P6SM SCT028 SCT250 FM020700 21007KT
                       P6SM BKN025 FM021200 17007KT P6SM OVC018
                       TEMPO 0214/0217 6SM -DZ BR OVC015=
201808011720 TAF KBFI 011720Z 0118/0218 18007KT P6SM OVC018 FM012000 21007KT
                       P6SM BKN025
                      TEMPO 0120/0122 SCT025 FM012200 23007KT P6SM
                       SCT025 SCT250 FM020700 17007KT P6SM OVC020
                       FM021300 16007KT 6SM -DZ BR OVC012 FM021700
                       21007KT P6SM BKN018 OVC035=
201808011301 KBFI 011301Z 0113/0212 19005KT P6SM OVC013 FM011800 21006KT P6SM
                       SCT013 BKN017
                      TEMPO 0119/0121 SCT018 FM012100 24006KT P6SM
                       FEW020 SCT250 FM020700 19005KT P6SM OVC020
                       FM021100 17007KT P6SM OVC012=
201808011137 TAF KBFI 011137Z 0112/0212 19005KT P6SM OVC012 FM011800 21006KT
                       P6SM SCT012 BKN017
                      TEMPO 0119/0121 SCT018 FM012100 24006KT P6SM
                       FEW020 SCT250 FM020700 19005KT P6SM OVC020
                       FM021100 17007KT P6SM OVC012=
201808010702 KBFI 010702Z 0107/0206 18006KT P6SM SCT015
                      TEMPO 0107/0109 BKN014 FM010900 19004KT P6SM
                       OVC013 FM011800 21006KT P6SM SCT020 FM012100
                       24006KT P6SM SCT250=
201808010531 TAF KBFI 010531Z 0106/0206 22006KT P6SM SKC FM010900 19004KT P6SM
                       OVC014 FM011800 21006KT P6SM SCT020 FM012100
                       24006KT P6SM SCT250=