##########################################################
# Query made at 02/17/2025 03:46:37 UTC
# Time interval: from 06/01/2018 00:00  to 06/30/2018 23:59  UTC
##########################################################

##########################################################
# KBFI, Seattle, Seattle Boeing Field (United States)
# WMO index: -----. WIGOS ID: Unknown
# Latitude 47-32-45N. Longitude 122-18-49W. Altitude 5 m.
##########################################################

###################################
#  METAR/SPECI from KBFI
###################################
201806302353 METAR KBFI 302353Z 19008KT 110V350 10SM OVC028 18/12 A3017 RMK AO2 SLP216 60001 T01830122 10183 20161 56005=
201806302253 METAR KBFI 302253Z VRB06KT 10SM OVC028 18/13 A3018 RMK AO2 RAE38 SLP218 P0000 T01780133=
201806302153 METAR KBFI 302153Z 19007KT 9SM -RA SCT020 OVC030 18/13 A3018 RMK AO2 RAB02 SLP218 P0001 T01780128=
201806302053 METAR KBFI 302053Z 15007KT 10SM OVC032 18/12 A3019 RMK AO2 RAB1958E40 SLP222 P0000 60000 T01780122 56004=
201806301953 METAR KBFI 301953Z 18010KT 10SM BKN030 OVC036 18/11 A3019 RMK AO2 SLP222 T01830111=
201806301853 METAR KBFI 301853Z 18007KT 160V220 10SM SCT020 OVC031 17/11 A3019 RMK AO2 SLP223 T01720106=
201806301753 METAR KBFI 301753Z 18006KT 10SM SCT021 OVC036 16/11 A3020 RMK AO2 SLP225 T01610111 10161 20144 58002=
201806301653 METAR KBFI 301653Z 19006KT 10SM SCT015 BKN023 OVC036 16/11 A3020 RMK AO2 SLP228 T01610111=
201806301553 METAR KBFI 301553Z AUTO 16005KT 10SM SCT012 OVC018 15/11 A3021 RMK AO2 SLP228 T01500111=
201806301453 METAR KBFI 301453Z 18005KT 10SM SCT011 OVC019 14/11 A3020 RMK AO2 SLP227 T01440111 51008=
201806301353 METAR KBFI 301353Z 18006KT 10SM SCT013 OVC019 14/12 A3020 RMK AO2 SLP224 T01440117=
201806301333 SPECI KBFI 301333Z 19005KT 10SM SCT011 OVC020 15/12 A3020 RMK AO2 T01500117=
201806301253 METAR KBFI 301253Z 17005KT 10SM OVC020 15/12 A3019 RMK AO2 SLP222 T01500122=
201806301153 METAR KBFI 301153Z 25003KT 10SM BKN021 OVC050 16/12 A3018 RMK AO2 SLP219 T01560117 10194 20150 53006=
201806301053 METAR KBFI 301053Z 28003KT 10SM BKN055 16/12 A3016 RMK AO2 SLP214 T01560117=
201806300953 METAR KBFI 300953Z 00000KT 10SM BKN050 BKN065 17/12 A3016 RMK AO2 SLP212 T01670122=
201806300853 METAR KBFI 300853Z 30003KT 10SM OVC043 17/12 A3016 RMK AO2 SLP213 T01720122 50003=
201806300753 METAR KBFI 300753Z 32005KT 10SM BKN043 OVC060 17/12 A3016 RMK AO2 SLP213 T01720122 402170133=
201806300653 METAR KBFI 300653Z 32003KT 10SM OVC042 18/12 A3016 RMK AO2 SLP212 T01780122=
201806300553 METAR KBFI 300553Z VRB03KT 10SM BKN042 OVC080 19/13 A3015 RMK AO2 SLP210 T01940128 10217 20194 53011=
201806300453 METAR KBFI 300453Z 05003KT 10SM BKN060 OVC080 19/12 A3014 RMK AO2 SLP205 T01940122=
201806300353 METAR KBFI 300353Z VRB03KT 10SM OVC060 20/12 A3013 RMK AO2 SLP202 T02000122=
201806300253 METAR KBFI 300253Z VRB04KT 10SM OVC055 21/12 A3012 RMK AO2 SLP199 T02060117 55001=
201806300153 METAR KBFI 300153Z VRB04KT 10SM OVC055 21/11 A3012 RMK AO2 SLP198 T02110106=
201806300053 METAR KBFI 300053Z 04003KT 10SM OVC055 21/10 A3011 RMK AO2 SLP197 T02110100=
201806292353 METAR KBFI 292353Z 00000KT 10SM FEW055 BKN070 21/11 A3012 RMK AO2 SLP200 60000 T02110106 10217 20172 56002=
201806292253 METAR KBFI 292253Z VRB03KT 10SM SCT037 BKN075 OVC090 21/11 A3012 RMK AO2 SLP200 T02060106=
201806292153 METAR KBFI 292153Z VRB05KT 10SM OVC035 20/11 A3013 RMK AO2 SLP201 T02000106=
201806292053 METAR KBFI 292053Z 00000KT 10SM SCT037 OVC100 20/11 A3013 RMK AO2 SLP202 60000 T02000106 52002=
201806291953 METAR KBFI 291953Z 18005KT 10SM SCT040 BKN110 19/11 A3013 RMK AO2 SLP202 T01940111=
201806291853 METAR KBFI 291853Z 00000KT 10SM SCT041 BKN100 18/11 A3012 RMK AO2 RAB14E28 SLP200 P0000 T01830106=
201806291753 METAR KBFI 291753Z VRB04KT 10SM FEW026 SCT049 OVC100 18/11 A3012 RMK AO2 SLP200 T01780106 10183 20133 51005=
201806291653 METAR KBFI 291653Z VRB05KT 10SM SCT023 BKN047 BKN100 17/11 A3011 RMK AO2 SLP197 T01720106=
201806291553 METAR KBFI 291553Z 20005KT 10SM FEW020 SCT100 15/10 A3012 RMK AO2 SLP198 T01500100=
201806291453 METAR KBFI 291453Z 17007KT 10SM FEW040 BKN100 15/11 A3011 RMK AO2 SLP195 T01500106 50001=
201806291353 METAR KBFI 291353Z 20004KT 10SM BKN039 14/10 A3011 RMK AO2 SLP196 T01390100=
201806291253 METAR KBFI 291253Z 17005KT 10SM SCT040 BKN075 BKN100 14/10 A3011 RMK AO2 SLP194 T01390100=
201806291153 METAR KBFI 291153Z 20003KT 10SM FEW044 OVC075 14/10 A3010 RMK AO2 SLP194 T01390100 10167 20139 51003=
201806291053 METAR KBFI 291053Z 18005KT 10SM BKN060 OVC075 14/10 A3010 RMK AO2 SLP194 T01440100=
201806290953 METAR KBFI 290953Z 00000KT 10SM BKN050 OVC065 14/10 A3010 RMK AO2 SLP194 T01440100=
201806290853 METAR KBFI 290853Z 12004KT 10SM OVC050 16/11 A3010 RMK AO2 SLP191 T01560106 55002=
201806290753 METAR KBFI 290753Z 05007KT 10SM OVC050 16/11 A3009 RMK AO2 SLP188 T01610106 401940128=
201806290653 METAR KBFI 290653Z 06006KT 10SM OVC048 16/10 A3010 RMK AO2 SLP191 T01610100=
201806290553 METAR KBFI 290553Z 04006KT 10SM OVC047 17/10 A3010 RMK AO2 SLP192 T01670100 10189 20167 50003=
201806290453 METAR KBFI 290453Z 06004KT 10SM OVC047 17/10 A3010 RMK AO2 SLP193 T01720100=
201806290353 METAR KBFI 290353Z 07005KT 10SM OVC038 17/10 A3009 RMK AO2 SLP190 T01720100=
201806290253 METAR KBFI 290253Z 05004KT 10SM OVC041 18/09 A3009 RMK AO2 SLP190 T01780089 53003=
201806290153 METAR KBFI 290153Z 31004KT 10SM OVC050 18/09 A3009 RMK AO2 SLP188 T01780089=
201806290053 METAR KBFI 290053Z 32004KT 10SM FEW046 OVC055 18/09 A3008 RMK AO2 SLP187 T01830089=
201806282353 METAR KBFI 282353Z 00000KT 10SM OVC043 19/08 A3008 RMK AO2 SLP187 T01890083 10194 20156 58005=
201806282253 METAR KBFI 282253Z VRB05KT 10SM SCT040 BKN046 OVC075 19/09 A3009 RMK AO2 SLP189 T01890089=
201806282153 METAR KBFI 282153Z 26005KT 10SM BKN046 OVC075 18/08 A3009 RMK AO2 SLP190 T01830078=
201806282053 METAR KBFI 282053Z 23007KT 10SM SCT045 OVC095 18/09 A3010 RMK AO2 SLP192 T01780089 50000=
201806281953 METAR KBFI 281953Z VRB05KT 10SM SCT042 BKN050 OVC095 17/09 A3010 RMK AO2 SLP194 T01720089=
201806281853 METAR KBFI 281853Z VRB03KT 10SM SCT045 OVC100 17/09 A3010 RMK AO2 SLP193 T01670089=
201806281753 METAR KBFI 281753Z VRB05KT 10SM SCT026 OVC150 16/09 A3010 RMK AO2 SLP191 T01610094 10161 20128 51004=
201806281653 METAR KBFI 281653Z VRB04KT 10SM SCT025 BKN150 16/09 A3009 RMK AO2 SLP189 T01560089=
201806281553 METAR KBFI 281553Z VRB03KT 10SM BKN019 OVC048 15/09 A3009 RMK AO2 SLP190 T01500089=
201806281453 METAR KBFI 281453Z 14006KT 10SM SCT023 BKN060 14/09 A3009 RMK AO2 SLP188 T01390089 50005=
201806281353 METAR KBFI 281353Z 19003KT 10SM SCT017 BKN038 13/09 A3009 RMK AO2 SLP188 T01280089=
201806281339 SPECI KBFI 281339Z 21003KT 10SM SCT024 BKN038 13/09 A3009 RMK AO2 T01280089=
201806281253 METAR KBFI 281253Z 17004KT 10SM SCT024 OVC038 13/09 A3008 RMK AO2 SLP186 T01280089=
201806281153 METAR KBFI 281153Z 22004KT 10SM OVC031 13/09 A3007 RMK AO2 SLP183 T01280089 10156 20128 53007=
201806281053 METAR KBFI 281053Z 00000KT 10SM SCT025 BKN075 13/09 A3006 RMK AO2 SLP179 T01280089=
201806280953 METAR KBFI 280953Z 22004KT 10SM SCT075 13/08 A3006 RMK AO2 SLP178 T01280083=
201806280853 METAR KBFI 280853Z 23005KT 10SM SCT065 BKN080 14/09 A3005 RMK AO2 SLP176 T01390089 55002=
201806280753 METAR KBFI 280753Z 21004KT 10SM OVC080 15/09 A3005 RMK AO2 SLP175 T01500089 402000122=
201806280653 METAR KBFI 280653Z 20003KT 10SM BKN050 OVC090 15/09 A3005 RMK AO2 SLP176 T01500089=
201806280553 METAR KBFI 280553Z 19003KT 10SM BKN060 OVC080 16/09 A3006 RMK AO2 SLP178 T01560094 10200 20156 51009=
201806280453 METAR KBFI 280453Z 19005KT 10SM BKN055 OVC090 16/09 A3005 RMK AO2 SLP176 T01610094=
201806280353 METAR KBFI 280353Z 21004KT 10SM FEW050 OVC090 17/10 A3004 RMK AO2 SLP172 T01670100=
201806280253 METAR KBFI 280253Z 21006KT 10SM FEW040 BKN095 18/09 A3003 RMK AO2 SLP169 T01780089 55000=
201806280153 METAR KBFI 280153Z 20007KT 10SM FEW020 OVC120 19/08 A3003 RMK AO2 SLP168 T01890083=
201806280053 METAR KBFI 280053Z VRB03KT 10SM OVC120 19/08 A3003 RMK AO2 SLP169 T01940083=
201806272353 METAR KBFI 272353Z VRB04KT 10SM OVC110 19/09 A3003 RMK AO2 SLP169 T01940094 10200 20161 58004=
201806272253 METAR KBFI 272253Z 24004KT 10SM OVC120 20/08 A3004 RMK AO2 SLP173 T02000083=
201806272153 METAR KBFI 272153Z 29004KT 10SM SCT110 19/09 A3004 RMK AO2 SLP171 T01940094=
201806272053 METAR KBFI 272053Z 34004KT 10SM BKN110 OVC150 19/09 A3005 RMK AO2 SLP174 T01890089 58006=
201806271953 METAR KBFI 271953Z 00000KT 10SM BKN110 OVC150 18/08 A3006 RMK AO2 SLP178 T01830083=
201806271853 METAR KBFI 271853Z 31004KT 10SM BKN130 OVC180 17/08 A3007 RMK AO2 SLP181 T01720078=
201806271753 METAR KBFI 271753Z 31005KT 10SM OVC180 17/08 A3006 RMK AO2 SLP180 T01670083 10172 20122 58004=
201806271653 METAR KBFI 271653Z VRB04KT 10SM BKN250 17/09 A3007 RMK AO2 SLP182 T01670089=
201806271553 METAR KBFI 271553Z 00000KT 10SM BKN250 15/08 A3008 RMK AO2 SLP185 T01500083=
201806271453 METAR KBFI 271453Z VRB03KT 10SM FEW180 BKN250 14/08 A3007 RMK AO2 SLP184 T01440083 58001=
201806271353 METAR KBFI 271353Z 07004KT 10SM BKN200 14/08 A3008 RMK AO2 SLP185 T01390083=
201806271253 METAR KBFI 271253Z 00000KT 10SM CLR 13/08 A3008 RMK AO2 SLP185 T01280078=
201806271153 METAR KBFI 271153Z 00000KT 10SM FU CLR 13/08 A3008 RMK AO2 SLP185 T01280083 10161 20128 56007=
201806271053 METAR KBFI 271053Z 36003KT 10SM FU CLR 13/08 A3008 RMK AO2 SLP187 T01280078=
201806270953 METAR KBFI 270953Z VRB03KT 10SM FU CLR 13/08 A3009 RMK AO2 SLP189 T01330078=
201806270853 METAR KBFI 270853Z 00000KT 10SM FU CLR 14/08 A3010 RMK AO2 SLP192 T01390078 58008=
201806270753 METAR KBFI 270753Z 00000KT 10SM FU CLR 14/08 A3011 RMK AO2 SLP195 T01440083 402170128=
201806270653 METAR KBFI 270653Z 00000KT 10SM FU CLR 16/07 A3012 RMK AO2 SLP199 T01560072=
201806270553 METAR KBFI 270553Z 35004KT 10SM FU CLR 16/07 A3012 RMK AO2 SLP200 T01610072 10217 20161 58005=
201806270453 METAR KBFI 270453Z 33004KT 10SM FU FEW050 17/08 A3014 RMK AO2 SLP205 T01670078=
201806270353 METAR KBFI 270353Z VRB06KT 10SM FU FEW050 18/06 A3013 RMK AO2 SLP201 FU W T01780061=
201806270253 METAR KBFI 270253Z 32007KT 10SM SCT065 19/08 A3014 RMK AO2 SLP205 T01890083 56009=
201806270153 METAR KBFI 270153Z 31007G15KT 10SM FEW120 21/06 A3014 RMK AO2 SLP206 T02060061=
201806270053 METAR KBFI 270053Z 32006KT 10SM SCT045 SCT120 21/08 A3015 RMK AO2 SLP210 T02060078=
201806262353 METAR KBFI 262353Z 33006KT 10SM SCT046 21/05 A3017 RMK AO2 SLP214 T02110050 10217 20167 58012=
201806262253 METAR KBFI 262253Z 32009KT 10SM CLR 22/08 A3018 RMK AO2 SLP218 T02170078=
201806262153 METAR KBFI 262153Z VRB04KT 10SM SCT042 20/07 A3019 RMK AO2 SLP224 T02000072=
201806262053 METAR KBFI 262053Z VRB06KT 19/08 A3020 RMK AO2 SLP226 T01940078 $=
201806261953 METAR KBFI 261953Z VRB03KT 10SM OVC040 18/08 A3020 RMK AO2 SLP228 T01780078=
201806261853 METAR KBFI 261853Z 00000KT 10SM SCT050 18/08 A3021 RMK AO2 SLP230 T01830078=
201806261753 METAR KBFI 261753Z VRB04KT 10SM OVC050 17/08 A3022 RMK AO2 SLP233 T01720083 10172 20133 50002=
201806261653 METAR KBFI 261653Z 00000KT 10SM OVC050 16/08 A3023 RMK AO2 SLP235 T01610083=
201806261600 SPECI KBFI 261600Z VRB03KT 10SM OVC036 15/09 A3023 RMK AO2 T01500089=
201806261553 METAR KBFI 261553Z 07005KT 10SM BKN025 OVC036 14/09 A3023 RMK AO2 SLP235 T01440094=
201806261453 METAR KBFI 261453Z 07005KT 10SM SCT018 OVC027 14/09 A3022 RMK AO2 SLP231 T01390094 51009=
201806261353 METAR KBFI 261353Z 13005KT 10SM BKN025 14/09 A3021 RMK AO2 SLP229 T01390089=
201806261340 SPECI KBFI 261340Z 12005KT 10SM BKN025 14/09 A3021 RMK AO2 T01390089=
201806261253 METAR KBFI 261253Z 12006KT 10SM FEW025 OVC036 14/09 A3020 RMK AO2 SLP226 T01390089=
201806261153 METAR KBFI 261153Z 10003KT 10SM SCT021 BKN033 BKN075 14/09 A3019 RMK AO2 SLP222 70002 T01390089 10161 20128 53006=
201806261053 METAR KBFI 261053Z 19004KT 10SM SCT038 BKN047 13/09 A3018 RMK AO2 SLP219 T01330089=
201806261038 SPECI KBFI 261038Z 00000KT 10SM SCT029 BKN040 OVC047 13/09 A3018 RMK AO2 T01330089=
201806261014 SPECI KBFI 261014Z 15004KT 10SM BKN029 13/09 A3018 RMK AO2 T01330089=
201806260953 METAR KBFI 260953Z 16003KT 10SM SCT080 13/09 A3018 RMK AO2 SLP218 T01330089=
201806260853 METAR KBFI 260853Z 14004KT 10SM SCT030 BKN044 14/09 A3017 RMK AO2 SLP216 T01390089 53007=
201806260753 METAR KBFI 260753Z 18003KT 10SM BKN034 15/09 A3016 RMK AO2 SLP213 T01500089 402110133=
201806260653 METAR KBFI 260653Z VRB03KT 10SM BKN034 16/09 A3015 RMK AO2 SLP211 T01560089=
201806260553 METAR KBFI 260553Z 00000KT 10SM BKN036 OVC049 16/09 A3015 RMK AO2 SLP209 T01560094 10194 20156 53013=
201806260453 METAR KBFI 260453Z 31003KT 10SM SCT039 BKN048 16/09 A3014 RMK AO2 SLP205 T01610094=
201806260353 METAR KBFI 260353Z 28005KT 10SM BKN044 BKN050 OVC080 17/09 A3012 RMK AO2 SLP199 T01720094=
201806260253 METAR KBFI 260253Z 23004KT 10SM FEW060 BKN080 18/08 A3011 RMK AO2 SLP196 T01780083 53005=
201806260153 METAR KBFI 260153Z 23006KT 10SM FEW030 BKN070 19/08 A3010 RMK AO2 SLP192 T01890078=
201806260053 METAR KBFI 260053Z 26005KT 10SM BKN070 BKN090 18/08 A3010 RMK AO2 SLP192 T01780083=
201806252353 METAR KBFI 252353Z VRB03KT 10SM SCT060 20/08 A3010 RMK AO2 SLP191 60002 T02000078 10211 20144 53003=
201806252253 METAR KBFI 252253Z 19007KT 10SM FEW080 21/07 A3009 RMK AO2 SLP189 T02060067=
201806252153 METAR KBFI 252153Z 18009G17KT 10SM SCT040 BKN070 21/08 A3009 RMK AO2 SLP187 T02110078=
201806252053 METAR KBFI 252053Z 17010KT 10SM SCT030 BKN046 21/09 A3009 RMK AO2 SLP188 60002 T02060094 52012=
201806251953 METAR KBFI 251953Z 00000KT 10SM SCT035 BKN044 OVC065 17/12 A3008 RMK AO2 SLP185 T01670122=
201806251853 METAR KBFI 251853Z VRB04KT 10SM SCT020 BKN030 BKN080 16/13 A3006 RMK AO2 RAB29E51 SLP180 P0002 T01610133=
201806251800 SPECI KBFI 251800Z VRB05KT 10SM SCT026 BKN035 BKN070 18/11 A3005 RMK AO2 T01780111=
201806251753 METAR KBFI 251753Z 20006KT 10SM BKN016 17/11 A3005 RMK AO2 SLP177 T01720111 10178 20133 51016=
201806251653 METAR KBFI 251653Z 21006KT 10SM BKN016 16/11 A3005 RMK AO2 SLP174 T01560106=
201806251605 SPECI KBFI 251605Z 20006KT 10SM BKN016 16/11 A3003 RMK AO2 T01560111=
201806251553 METAR KBFI 251553Z 17006KT 10SM OVC014 15/11 A3003 RMK AO2 SLP168 T01500106=
201806251453 METAR KBFI 251453Z 18008KT 10SM OVC014 14/11 A3001 RMK AO2 SLP161 T01390106 51017=
201806251353 METAR KBFI 251353Z 23007KT 10SM OVC011 13/11 A2999 RMK AO2 SLP154 T01330106=
201806251300 SPECI KBFI 251300Z 20008KT 10SM OVC011 13/11 A2998 RMK AO2 T01330111 $=
201806251253 METAR KBFI 251253Z 20007KT 10SM SCT011 BKN017 OVC025 13/12 A2998 RMK AO2 SLP151 T01330117 $=
201806251153 METAR KBFI 251153Z 15005KT 10SM SCT011 BKN017 OVC025 14/13 A2996 RMK AO2 SLP144 60014 70014 T01440128 10172 20144 51008 $=
201806251053 METAR KBFI 251053Z 00000KT 10SM SCT009 BKN015 OVC021 14/13 A2996 RMK AO2 SLP143 T01440128 $=
201806251022 SPECI KBFI 251022Z 25003KT 10SM BKN009 OVC021 14/13 A2995 RMK AO2 CIG 007V012 T01440128 $=
201806250953 METAR KBFI 250953Z 30003KT 10SM BKN010 BKN016 OVC095 14/13 A2994 RMK AO2 CIG 008V013 SLP138 T01440128 $=
201806250853 METAR KBFI 250853Z 27005KT 10SM FEW050 SCT070 BKN090 15/14 A2993 RMK AO2 RAE0754 SLP136 P0000 60014 T01500144 51005 $=
201806250753 METAR KBFI 250753Z VRB04KT 10SM -RA FEW008 BKN090 OVC110 16/14 A2992 RMK AO2 LTG DSNT E AND SE RAB04 SLP131 P0014 T01560139 402390128 $=
201806250737 SPECI KBFI 250737Z 09011G19KT 4SM RA BR BKN060 OVC075 16/14 A2989 RMK AO2 RAB04 PRESFR P0012 T01560139 $=
201806250722 SPECI KBFI 250722Z 05004KT 5SM VCTS -RA BKN060 BKN075 OVC095 16/13 A2996 RMK AO2 LTG DSNT NE RAB04 P0005 T01610128 $=
201806250653 METAR KBFI 250653Z VRB03KT 10SM OVC080 17/11 A2995 RMK AO2 LTG DSNT NE SLP141 T01720111 $=
201806250553 METAR KBFI 250553Z VRB04KT 10SM OVC070 17/11 A2992 RMK AO2 LTG DSNT NE SLP131 T01720106 10233 20172 53035 $=
201806250453 METAR KBFI 250453Z VRB05KT 10SM SCT075 BKN090 BKN150 18/09 A2988 RMK AO2 SLP118 T01830089 $=
201806250353 METAR KBFI 250353Z 35006KT 10SM SCT150 19/08 A2985 RMK AO2 SLP106 T01940078 $=
201806250253 METAR KBFI 250253Z 36007KT 10SM FEW150 21/05 A2982 RMK AO2 SLP097 T02110050 55009 $=
201806250153 METAR KBFI 250153Z 35005KT 10SM FEW150 SCT200 23/07 A2981 RMK AO2 SLP093 T02280072 $=
201806250053 METAR KBFI 250053Z 30009KT 10SM FEW150 SCT200 23/11 A2982 RMK AO2 SLP097 T02280106 $=
201806242353 METAR KBFI 242353Z 32007KT 10SM FEW150 SCT200 23/11 A2984 RMK AO2 SLP106 T02330111 10239 20172 56025 $=
201806242253 METAR KBFI 242253Z 32007KT 300V360 10SM CLR 23/12 A2987 RMK AO2 SLP114 T02330117 $=
201806242153 METAR KBFI 242153Z 31008KT 10SM FEW080 23/12 A2989 RMK AO2 SLP120 T02280117 $=
201806242053 METAR KBFI 242053Z VRB06KT 10SM FEW080 FEW200 22/12 A2992 RMK AO2 SLP131 T02220117 58027 $=
201806241953 METAR KBFI 241953Z 32005KT 10SM FEW080 FEW200 20/12 A2995 RMK AO2 SLP140 T02000117 $=
201806241853 METAR KBFI 241853Z VRB05KT 10SM FEW200 18/12 A2998 RMK AO2 SLP151 T01780122 $=
201806241753 METAR KBFI 241753Z VRB06KT 10SM FEW010 FEW200 17/12 A3000 RMK AO2 SLP158 T01720122 10178 20128 58020 $=
201806241716 SPECI KBFI 241716Z 32005KT 10SM FEW010 17/12 A3002 RMK AO2 T01670117 $=
201806241653 METAR KBFI 241653Z 33003KT 10SM BKN010 16/12 A3003 RMK AO2 SLP169 T01560117 $=
201806241553 METAR KBFI 241553Z 31004KT 10SM OVC008 14/12 A3005 RMK AO2 SLP174 T01390117 $=
201806241453 METAR KBFI 241453Z 30004KT 10SM OVC008 13/11 A3006 RMK AO2 SLP178 T01330111 58009 $=
201806241353 METAR KBFI 241353Z 31005KT 10SM OVC008 13/11 A3007 RMK AO2 SLP182 T01330111 $=
201806241320 SPECI KBFI 241320Z 31004KT 10SM OVC008 13/11 A3007 RMK AO2 T01330111 $=
201806241253 METAR KBFI 241253Z 30004KT 10SM SCT008 13/11 A3008 RMK AO2 SLP186 T01330111 $=
201806241153 METAR KBFI 241153Z 00000KT 10SM CLR 13/11 A3009 RMK AO2 SLP188 T01330111 10183 20128 58006 $=
201806241053 METAR KBFI 241053Z 30003KT 10SM CLR 13/11 A3010 RMK AO2 SLP193 T01330106 $=
201806240953 METAR KBFI 240953Z 31004KT 10SM CLR 14/11 A3011 RMK AO2 SLP194 T01390111 $=
201806240853 METAR KBFI 240853Z 00000KT 10SM CLR 15/12 A3010 RMK AO2 SLP194 T01500117 58006 $=
201806240753 METAR KBFI 240753Z 31003KT 10SM CLR 16/12 A3011 RMK AO2 SLP197 T01560117 402220139 $=
201806240653 METAR KBFI 240653Z 00000KT 10SM CLR 17/12 A3012 RMK AO2 SLP199 T01720117 $=
201806240553 METAR KBFI 240553Z 00000KT 10SM CLR 18/12 A3012 RMK AO2 SLP200 T01830117 10222 20183 58003 $=
201806240453 METAR KBFI 240453Z 00000KT 10SM CLR 19/12 A3013 RMK AO2 SLP204 T01940122 $=
201806240353 METAR KBFI 240353Z 27004KT 10SM CLR 19/11 A3013 RMK AO2 SLP202 T01940111 $=
201806240253 METAR KBFI 240253Z 31004KT 10SM CLR 21/09 A3013 RMK AO2 SLP203 T02110094 58014 $=
201806240153 METAR KBFI 240153Z 33004KT 10SM FEW065 22/10 A3015 RMK AO2 SLP208 T02170100 $=
201806240053 METAR KBFI 240053Z VRB03KT 10SM SCT065 22/11 A3016 RMK AO2 SLP212 T02170106 $=
201806232353 METAR KBFI 232353Z VRB03KT 10SM SCT039 21/09 A3017 RMK AO2 SLP217 T02110089 10217 20156 58007 $=
201806232253 METAR KBFI 232253Z VRB05KT 10SM BKN039 22/11 A3018 RMK AO2 SLP220 T02170106 $=
201806232153 METAR KBFI 232153Z 00000KT 10SM BKN029 BKN036 19/12 A3019 RMK AO2 SLP222 T01890117 $=
201806232053 METAR KBFI 232053Z VRB03KT 10SM BKN027 19/12 A3019 RMK AO2 SLP224 T01940117 58002 $=
201806231953 METAR KBFI 231953Z AUTO 00000KT 10SM BKN019 OVC025 17/12 A3020 RMK AO2 SLP227 T01720122 $=
201806231853 METAR KBFI 231853Z 00000KT 10SM BKN013 OVC017 16/12 A3021 RMK AO2 SLP228 T01610117 $=
201806231753 METAR KBFI 231753Z 07005KT 10SM BKN013 OVC017 16/12 A3020 RMK AO2 SLP226 T01560117 10156 20139 53009 $=
201806231653 METAR KBFI 231653Z VRB04KT 10SM BKN013 OVC017 15/11 A3019 RMK AO2 SLP223 T01500111 $=
201806231553 METAR KBFI 231553Z 06005KT 10SM BKN014 OVC017 15/12 A3018 RMK AO2 SLP220 T01500117 $=
201806231453 METAR KBFI 231453Z 06004KT 10SM OVC018 14/12 A3017 RMK AO2 SLP217 T01440117 53008 $=
201806231353 METAR KBFI 231353Z 08005KT 10SM BKN014 OVC021 14/13 A3016 RMK AO2 SLP212 T01440133 $=
201806231253 METAR KBFI 231253Z 06003KT 10SM OVC014 14/14 A3015 RMK AO2 SLP210 T01440144 $=
201806231153 METAR KBFI 231153Z 10004KT 7SM BKN009 OVC019 14/14 A3015 RMK AO2 RAB06E33 SLP209 P0001 60012 70012 T01390139 10150 20139 51006 $=
201806231101 SPECI KBFI 231101Z VRB03KT 4SM BR FEW009 OVC019 14/14 A3015 RMK AO2 T01390139 $=
201806231053 METAR KBFI 231053Z 00000KT 4SM BR OVC019 14/14 A3015 RMK AO2 SLP208 T01440144 $=
201806230953 METAR KBFI 230953Z 14003KT 4SM BR SCT009 BKN015 OVC020 14/14 A3014 RMK AO2 RAB08E23 SLP206 P0001 T01390139 $=
201806230853 METAR KBFI 230853Z 09006KT 4SM BR SCT009 BKN015 OVC020 14/14 A3013 RMK AO2 RAE51 SLP203 P0007 60010 T01390139 55000 $=
201806230753 METAR KBFI 230753Z 00000KT 4SM -RA BR SCT008 BKN014 OVC018 14/14 A3013 RMK AO2 RAE08B29 SLP203 P0002 T01440144 402170144 $=
201806230653 METAR KBFI 230653Z 00000KT 5SM -RA BR SCT010 BKN018 OVC023 14/14 A3013 RMK AO2 RAE00B49 SLP202 P0001 T01440139 $=
201806230553 METAR KBFI 230553Z VRB03KT 6SM -RA BR FEW010 BKN018 OVC023 14/12 A3013 RMK AO2 RAB37 SLP204 P0000 60000 T01440122 10206 20144 53009 $=
201806230453 METAR KBFI 230453Z 30005KT 10SM FEW026 OVC032 16/11 A3013 RMK AO2 SLP201 T01560111 $=
201806230353 METAR KBFI 230353Z VRB03KT 10SM SCT039 OVC047 17/11 A3011 RMK AO2 SLP195 T01670106 $=
201806230253 METAR KBFI 230253Z 00000KT 10SM OVC046 19/10 A3011 RMK AO2 SLP194 T01940100 55007 $=
201806230153 METAR KBFI 230153Z 05004KT 10SM OVC050 20/10 A3010 RMK AO2 SLP193 T02000100 $=
201806230053 METAR KBFI 230053Z 00000KT 10SM OVC039 20/10 A3012 RMK AO2 SLP198 T02000100 $=
201806222353 METAR KBFI 222353Z 00000KT 10SM BKN040 19/09 A3013 RMK AO2 SLP202 T01940094 10217 20167 57015 $=
201806222253 METAR KBFI 222253Z 24008KT 10SM BKN043 21/11 A3014 RMK AO2 SLP207 T02110106 $=
201806222153 METAR KBFI 222153Z 25005KT 10SM BKN044 19/11 A3016 RMK AO2 SLP211 T01890106 $=
201806222053 METAR KBFI 222053Z 22007KT 180V270 10SM OVC036 18/11 A3017 RMK AO2 SLP217 T01780106 58004 $=
201806221953 METAR KBFI 221953Z 19008KT 10SM BKN030 OVC037 17/10 A3018 RMK AO2 SLP220 T01720100 $=
201806221853 METAR KBFI 221853Z 24007KT 10SM BKN023 OVC033 18/10 A3018 RMK AO2 SLP219 T01780100 $=
201806221753 METAR KBFI 221753Z 21008KT 10SM BKN023 BKN030 OVC038 17/10 A3018 RMK AO2 SLP221 T01670100 10167 20144 52002 $=
201806221653 METAR KBFI 221653Z 22005KT 10SM BKN024 OVC030 15/10 A3019 RMK AO2 SLP221 T01500100 $=
201806221553 METAR KBFI 221553Z 20004KT 10SM SCT019 OVC021 15/11 A3018 RMK AO2 SLP218 T01500106 $=
201806221453 METAR KBFI 221453Z 18005KT 10SM SCT015 OVC023 15/11 A3018 RMK AO2 SLP218 T01500106 $=
201806221353 METAR KBFI 221353Z 20003KT 10SM SCT015 OVC024 15/11 A3017 RMK AO2 SLP217 T01500106 $=
201806221253 METAR KBFI 221253Z 17003KT 10SM FEW013 OVC023 14/11 A3017 RMK AO2 SLP215 T01440106 $=
201806221153 METAR KBFI 221153Z 18004KT 10SM OVC024 14/11 A3016 RMK AO2 SLP212 T01440111 10161 20144 52006 $=
201806221137 SPECI KBFI 221137Z 20004KT 10SM BKN025 OVC043 14/11 A3015 RMK AO2 T01440111 $=
201806221053 METAR KBFI 221053Z 18005KT 10SM OVC041 14/11 A3015 RMK AO2 SLP210 T01440111 $=
201806220953 METAR KBFI 220953Z 18004KT 10SM OVC037 15/11 A3015 RMK AO2 SLP208 T01500111 $=
201806220853 METAR KBFI 220853Z 18005KT 10SM BKN037 15/11 A3014 RMK AO2 SLP206 T01500111 50000 $=
201806220753 METAR KBFI 220753Z VRB04KT 10SM SCT037 15/11 A3014 RMK AO2 SLP206 T01500111 402110150 $=
201806220653 METAR KBFI 220653Z 00000KT 10SM FEW033 16/11 A3015 RMK AO2 SLP208 T01560111 $=
201806220553 METAR KBFI 220553Z 23003KT 10SM FEW033 16/11 A3014 RMK AO2 SLP206 T01610111 10211 20161 51006 $=
201806220453 METAR KBFI 220453Z 20005KT 10SM FEW036 17/11 A3014 RMK AO2 SLP206 T01670111 $=
201806220353 METAR KBFI 220353Z 21005KT 10SM SCT060 18/11 A3013 RMK AO2 SLP202 T01780111 $=
201806220253 METAR KBFI 220253Z 24006KT 10SM SCT040 19/11 A3012 RMK AO2 SLP200 T01890111 55000 $=
201806220153 METAR KBFI 220153Z AUTO 22006KT 10SM SCT035 20/11 A3012 RMK AO2 SLP199 T02000111 $=
201806220053 METAR KBFI 220053Z 22007KT 170V260 10SM SCT035 20/12 A3012 RMK AO2 SLP199 T02000117 $=
201806212353 METAR KBFI 212353Z 22007KT 180V250 10SM BKN035 21/12 A3012 RMK AO2 SLP200 T02060117 10211 20178 58005 $=
201806212253 METAR KBFI 212253Z VRB06KT 10SM BKN036 21/12 A3013 RMK AO2 SLP202 T02110117 $=
201806212153 METAR KBFI 212153Z 18007KT 150V230 10SM OVC033 20/12 A3014 RMK AO2 SLP206 T02000117 $=
201806212053 METAR KBFI 212053Z VRB05KT 10SM OVC029 19/11 A3014 RMK AO2 SLP206 T01940111 53003 $=
201806212027 SPECI KBFI 212027Z 21007KT 10SM OVC029 19/11 A3014 RMK AO2 T01890111 $=
201806212018 SPECI KBFI 212018Z 19008G16KT 10SM OVC031 19/11 A3014 RMK AO2 T01940111 $=
201806211953 METAR KBFI 211953Z 23008KT 10SM OVC029 19/11 A3014 RMK AO2 SLP204 T01890111 $=
201806211853 METAR KBFI 211853Z 21007KT 10SM OVC028 18/11 A3013 RMK AO2 SLP203 T01830111 $=
201806211820 SPECI KBFI 211820Z 22008KT 200V260 10SM BKN024 OVC034 18/11 A3013 RMK AO2 T01830111 $=
201806211753 METAR KBFI 211753Z 22009KT 10SM SCT024 OVC030 18/11 A3013 RMK AO2 SLP203 T01780111 10183 20156 51011 $=
201806211653 METAR KBFI 211653Z 17007KT 10SM FEW018 BKN023 OVC033 17/12 A3012 RMK AO2 SLP200 T01720117 $=
201806211553 METAR KBFI 211553Z 18007KT 150V210 10SM SCT018 BKN023 OVC030 16/12 A3011 RMK AO2 SLP197 T01610117 $=
201806211453 METAR KBFI 211453Z 20006KT 10SM BKN015 BKN025 OVC031 16/12 A3010 RMK AO2 SLP191 T01560117 51011 $=
201806211353 METAR KBFI 211353Z 17007KT 10SM OVC019 16/12 A3009 RMK AO2 SLP189 T01560117 $=
201806211253 METAR KBFI 211253Z 21005KT 10SM OVC020 16/12 A3008 RMK AO2 SLP185 T01560117 $=
201806211153 METAR KBFI 211153Z VRB06KT 10SM OVC016 16/12 A3007 RMK AO2 SLP180 T01560117 10200 20156 53013 $=
201806211053 METAR KBFI 211053Z 17009G17KT 10SM OVC015 16/12 A3005 RMK AO2 SLP175 T01560122 $=
201806210953 METAR KBFI 210953Z 17009KT 10SM OVC013 16/12 A3004 RMK AO2 SLP171 T01560122 $=
201806210853 METAR KBFI 210853Z 16009KT 10SM OVC014 16/12 A3003 RMK AO2 SLP168 T01610122 51030 $=
201806210753 METAR KBFI 210753Z 19006KT 10SM OVC013 16/12 A3001 RMK AO2 SLP161 T01610122 402890161 $=
201806210742 SPECI KBFI 210742Z 18008KT 10SM OVC013 16/13 A3001 RMK AO2 T01610128 $=
201806210653 METAR KBFI 210653Z VRB06KT 10SM CLR 17/13 A2997 RMK AO2 SLP148 T01670128 $=
201806210553 METAR KBFI 210553Z 21007KT 10SM CLR 20/13 A2994 RMK AO2 SLP138 T02000128 10289 20200 53022 $=
201806210453 METAR KBFI 210453Z 27005KT 10SM BKN200 22/12 A2990 RMK AO2 SLP125 T02220117 $=
201806210353 METAR KBFI 210353Z 31003KT 10SM SCT060 BKN200 24/11 A2989 RMK AO2 SLP121 T02390111 $=
201806210253 METAR KBFI 210253Z VRB03KT 10SM FEW060 BKN200 26/12 A2987 RMK AO2 SLP116 T02560117 56003 $=
201806210153 METAR KBFI 210153Z 30009G15KT 10SM FEW060 BKN200 26/12 A2988 RMK AO2 SLP118 T02610117 $=
201806210053 METAR KBFI 210053Z 32006KT 10SM FEW050 BKN200 28/12 A2987 RMK AO2 SLP115 T02830122 $=
201806202353 METAR KBFI 202353Z 32006KT 10SM FEW050 BKN150 28/12 A2988 RMK AO2 SLP119 T02780117 10283 20233 56012 $=
201806202253 METAR KBFI 202253Z 31007KT 10SM SCT050 BKN150 28/13 A2989 RMK AO2 SLP121 T02830133 $=
201806202153 METAR KBFI 202153Z 31005KT 10SM SCT060 OVC200 27/13 A2990 RMK AO2 SLP126 T02720128 $=
201806202053 METAR KBFI 202053Z VRB04KT 10SM SCT060CB OVC200 27/13 A2992 RMK AO2 SLP131 VIRGA DSNT SE T02720128 57009 $=
201806201953 METAR KBFI 201953Z VRB04KT 10SM SCT120 BKN200 27/13 A2993 RMK AO2 SLP133 T02670128 $=
201806201853 METAR KBFI 201853Z VRB05KT 10SM SCT120 BKN200 26/14 A2994 RMK AO2 SLP137 T02610139 $=
201806201753 METAR KBFI 201753Z 32006KT 10SM SCT120 23/14 A2994 RMK AO2 SLP140 T02330139 10233 20161 58007 $=
201806201653 METAR KBFI 201653Z 34003KT 10SM SCT120 SCT200 23/13 A2995 RMK AO2 SLP143 T02280133 $=
201806201553 METAR KBFI 201553Z VRB03KT 10SM SCT250 21/13 A2996 RMK AO2 SLP146 T02110133 $=
201806201453 METAR KBFI 201453Z VRB03KT 10SM BKN200 18/13 A2997 RMK AO2 SLP147 T01830128 53002 $=
201806201353 METAR KBFI 201353Z 35003KT 10SM SCT200 17/13 A2996 RMK AO2 SLP146 T01720128 $=
201806201253 METAR KBFI 201253Z 32004KT 10SM SCT200 16/13 A2996 RMK AO2 SLP143 T01610128 $=
201806201153 METAR KBFI 201153Z 32004KT 10SM CLR 17/13 A2996 RMK AO2 SLP144 T01670128 10222 20167 58004 $=
201806201053 METAR KBFI 201053Z 35003KT 10SM CLR 17/13 A2996 RMK AO2 SLP146 T01720128 $=
201806200953 METAR KBFI 200953Z VRB03KT 10SM CLR 19/12 A2997 RMK AO2 SLP148 T01890122 $=
201806200853 METAR KBFI 200853Z 32004KT 10SM CLR 19/12 A2997 RMK AO2 SLP148 T01940122 58008 $=
201806200753 METAR KBFI 200753Z VRB04KT 10SM CLR 19/12 A2998 RMK AO2 SLP152 T01940122 403000144 $=
201806200653 METAR KBFI 200653Z 32004KT 10SM BKN250 22/12 A2999 RMK AO2 SLP154 T02170122 $=
201806200553 METAR KBFI 200553Z 00000KT 10SM SCT250 22/11 A2999 RMK AO2 SLP156 T02220111 10300 20222 51007 $=
201806200453 METAR KBFI 200453Z 34005KT 10SM FEW120 SCT200 23/11 A2999 RMK AO2 SLP155 T02280111 $=
201806200353 METAR KBFI 200353Z 32004KT 10SM FEW120 SCT200 24/13 A2998 RMK AO2 SLP151 T02440128 $=
201806200253 METAR KBFI 200253Z 33003KT 10SM SCT120 27/12 A2997 RMK AO2 SLP148 T02720122 56004 $=
201806200153 METAR KBFI 200153Z 00000KT 10SM SCT120 29/11 A2997 RMK AO2 SLP148 T02940111 $=
201806200053 METAR KBFI 200053Z VRB05KT 10SM FEW100 29/12 A2997 RMK AO2 SLP148 T02890117 $=
201806192353 METAR KBFI 192353Z 27005KT 10SM FEW080 BKN200 29/11 A2998 RMK AO2 SLP152 T02890106 10289 20211 $=
201806192253 METAR KBFI 192253Z 24006KT 10SM SCT080 BKN200 28/12 A3001 RMK AO2 SLP160 T02830117=
201806192153 METAR KBFI 192153Z VRB04KT 10SM SCT200 27/11 A3002 RMK AO2 SLP164 T02720111=
201806192053 METAR KBFI 192053Z VRB04KT 10SM SCT200 26/11 A3003 RMK AO2 SLP168 T02560111 56009 $=
201806191953 METAR KBFI 191953Z 19004KT 10SM SCT200 24/11 A3004 RMK AO2 SLP171 T02440106 $=
201806191853 METAR KBFI 191853Z VRB03KT 10SM SCT200 23/10 A3004 RMK AO2 SLP173 T02330100 $=
201806191753 METAR KBFI 191753Z VRB03KT 10SM CLR 21/12 A3005 RMK AO2 SLP177 T02110122 10211 20144 58007 $=
201806191653 METAR KBFI 191653Z VRB05KT 10SM CLR 20/12 A3006 RMK AO2 SLP179 T02000122 $=
201806191553 METAR KBFI 191553Z 23004KT 10SM FEW100 18/12 A3007 RMK AO2 SLP183 T01780117 $=
201806191453 METAR KBFI 191453Z 22003KT 10SM FEW100 17/12 A3008 RMK AO2 SLP184 T01670122 50006 $=
201806191353 METAR KBFI 191353Z 18003KT 10SM SCT011 16/12 A3008 RMK AO2 SLP185 T01560122 $=
201806191308 SPECI KBFI 191308Z 17005KT 10SM SCT011 14/12 A3007 RMK AO2 T01440122 $=
201806191253 METAR KBFI 191253Z 17004KT 10SM FEW010 14/12 A3006 RMK AO2 SLP180 T01440117 $=
201806191153 METAR KBFI 191153Z AUTO 17006KT 10SM CLR 15/12 A3006 RMK AO2 SLP178 T01500117 10200 20150 52008 $=
201806191053 METAR KBFI 191053Z 17007KT 10SM CLR 15/12 A3005 RMK AO2 SLP174 T01500122 $=
201806190953 METAR KBFI 190953Z 15008KT 10SM CLR 15/12 A3004 RMK AO2 SLP173 T01500122 $=
201806190853 METAR KBFI 190853Z 18004KT 10SM CLR 16/12 A3003 RMK AO2 SLP169 T01610122 51009 $=
201806190753 METAR KBFI 190753Z 20006KT 10SM CLR 17/12 A3003 RMK AO2 SLP167 T01670122 403060156 $=
201806190653 METAR KBFI 190653Z 18008KT 10SM CLR 18/12 A3002 RMK AO2 SLP167 T01780122 $=
201806190553 METAR KBFI 190553Z 18005KT 10SM CLR 20/13 A3001 RMK AO2 SLP160 T02000128 10306 20200 53024 $=
201806190453 METAR KBFI 190453Z 18005KT 10SM FEW100 SCT200 21/13 A2998 RMK AO2 SLP153 T02110133 $=
201806190353 METAR KBFI 190353Z 20008KT 10SM SCT150 24/13 A2996 RMK AO2 SLP143 T02440133 $=
201806190253 METAR KBFI 190253Z 21004KT 10SM SCT150 BKN200 27/13 A2993 RMK AO2 SLP136 T02720133 53005 $=
201806190153 METAR KBFI 190153Z VRB06KT 10SM CLR 30/13 A2991 RMK AO2 SLP129 T03000128 $=
201806190053 METAR KBFI 190053Z 20007KT 10SM FEW100 SCT200 30/11 A2991 RMK AO2 SLP130 T03000111 $=
201806182353 METAR KBFI 182353Z 19008KT 10SM FEW100 BKN200 30/11 A2992 RMK AO2 SLP131 T03000106 10306 20244 58004 $=
201806182253 METAR KBFI 182253Z 23006KT 10SM FEW050 SCT200 30/11 A2992 RMK AO2 SLP133 T03000106 $=
201806182153 METAR KBFI 182153Z 20007KT 160V220 10SM FEW060 SCT200 29/13 A2993 RMK AO2 SLP134 T02890128 $=
201806182053 METAR KBFI 182053Z 00000KT 10SM CLR 29/11 A2993 RMK AO2 SLP135 T02890106 58006 $=
201806181953 METAR KBFI 181953Z 29008KT 10SM CLR 28/09 A2994 RMK AO2 SLP137 T02780094 $=
201806181853 METAR KBFI 181853Z VRB04KT 10SM CLR 26/11 A2994 RMK AO2 SLP139 T02610106 $=
201806181753 METAR KBFI 181753Z 00000KT 10SM FEW120 24/12 A2995 RMK AO2 SLP141 T02440117 10250 20156 58001 $=
201806181653 METAR KBFI 181653Z 17004KT 10SM FEW120 24/12 A2995 RMK AO2 SLP141 T02390117 $=
201806181553 METAR KBFI 181553Z 00000KT 10SM SCT120 22/11 A2995 RMK AO2 SLP142 T02170111 $=
201806181453 METAR KBFI 181453Z 15004KT 10SM FEW120 20/11 A2995 RMK AO2 SLP141 T02000111 53013 $=
201806181353 METAR KBFI 181353Z 15005KT 10SM FEW150 18/12 A2994 RMK AO2 SLP138 T01780117 $=
201806181253 METAR KBFI 181253Z 16005KT 10SM FEW150 16/12 A2992 RMK AO2 SLP132 T01610117 $=
201806181153 METAR KBFI 181153Z 00000KT 10SM CLR 17/12 A2991 RMK AO2 SLP129 T01670117 10228 20167 53010 $=
201806181053 METAR KBFI 181053Z 12003KT 10SM CLR 18/12 A2990 RMK AO2 SLP126 T01830122 $=
201806180953 METAR KBFI 180953Z 00000KT 10SM CLR 19/12 A2989 RMK AO2 SLP121 T01890117 $=
201806180853 METAR KBFI 180853Z 13003KT 10SM CLR 19/12 A2988 RMK AO2 SLP119 T01940117 53005 $=
201806180753 METAR KBFI 180753Z 00000KT 10SM CLR 20/09 A2988 RMK AO2 SLP118 T02000089 403060144 $=
201806180653 METAR KBFI 180653Z 00000KT 10SM FEW200 22/09 A2987 RMK AO2 SLP115 T02170094 $=
201806180553 METAR KBFI 180553Z 13004KT 10SM SCT200 23/08 A2987 RMK AO2 SLP114 T02330083 10306 20233 53010 $=
201806180453 METAR KBFI 180453Z 00000KT 10SM CLR 24/08 A2986 RMK AO2 SLP112 T02440078 $=
201806180353 METAR KBFI 180353Z 31003KT 10SM SCT150 26/07 A2984 RMK AO2 SLP105 T02610067 $=
201806180253 METAR KBFI 180253Z VRB03KT 10SM SCT100 29/05 A2984 RMK AO2 SLP104 T02890050 55000 $=
201806180153 METAR KBFI 180153Z VRB06KT 10SM CLR 31/04 A2983 RMK AO2 SLP102 T03060039 $=
201806180053 METAR KBFI 180053Z VRB05KT 10SM CLR 30/04 A2982 RMK AO2 SLP099 T03000044 $=
201806172353 METAR KBFI 172353Z 33008G18KT 10SM FEW120 SCT200 30/04 A2984 RMK AO2 SLP104 T03000039 10300 20244 56017 $=
201806172253 METAR KBFI 172253Z 32009G17KT 10SM FEW090 29/06 A2985 RMK AO2 SLP108 T02890061 $=
201806172153 METAR KBFI 172153Z 31007KT 10SM CLR 29/08 A2987 RMK AO2 SLP113 T02890083 $=
201806172053 METAR KBFI 172053Z 33009G16KT 10SM CLR 27/08 A2989 RMK AO2 SLP121 T02670083 56016 $=
201806171953 METAR KBFI 171953Z 32007KT 10SM FEW140 26/09 A2990 RMK AO2 SLP125 T02560094 $=
201806171853 METAR KBFI 171853Z 32009G14KT 280V350 10SM CLR 26/09 A2991 RMK AO2 SLP130 T02610094 $=
201806171753 METAR KBFI 171753Z VRB06KT 10SM FEW120 24/12 A2993 RMK AO2 SLP136 T02440117 10244 20144 58010 $=
201806171653 METAR KBFI 171653Z 34004KT 10SM CLR 22/11 A2995 RMK AO2 SLP141 T02220106 $=
201806171553 METAR KBFI 171553Z AUTO 30004KT 10SM CLR 21/13 A2996 RMK AO2 SLP144 T02060128 $=
201806171453 METAR KBFI 171453Z 05003KT 10SM CLR 18/13 A2997 RMK AO2 SLP147 T01830133 51004 $=
201806171353 METAR KBFI 171353Z 00000KT 10SM CLR 17/13 A2996 RMK AO2 SLP146 T01670128 $=
201806171253 METAR KBFI 171253Z 00000KT 10SM CLR 15/11 A2996 RMK AO2 SLP144 T01500106 $=
201806171153 METAR KBFI 171153Z 00000KT 10SM CLR 15/10 A2995 RMK AO2 SLP142 T01500100 10211 20150 55004 $=
201806171053 METAR KBFI 171053Z 33003KT 10SM CLR 16/11 A2995 RMK AO2 SLP142 T01610106 $=
201806170953 METAR KBFI 170953Z 00000KT 10SM CLR 17/12 A2995 RMK AO2 SLP141 T01670122 $=
201806170853 METAR KBFI 170853Z 15004KT 10SM CLR 17/13 A2996 RMK AO2 SLP146 T01670128 $=
201806170753 METAR KBFI 170753Z 17004KT 10SM BKN120 17/12 A2996 RMK AO2 SLP146 T01720117 402610133 $=
201806170653 METAR KBFI 170653Z 00000KT 10SM CLR 19/09 A2996 RMK AO2 SLP146 T01940094 $=
201806170553 METAR KBFI 170553Z AUTO 00000KT 10SM FEW050 21/10 A2995 RMK AO2 SLP143 T02110100 10261 20211 53004 $=
201806170453 METAR KBFI 170453Z 00000KT 10SM FEW040 22/08 A2995 RMK AO2 SLP141 T02220083 $=
201806170353 METAR KBFI 170353Z VRB03KT 10SM FEW100 24/07 A2994 RMK AO2 SLP137 T02390072 $=
201806170253 METAR KBFI 170253Z 05004KT 10SM FEW110 25/08 A2994 RMK AO2 SLP138 T02500083 57000 $=
201806170153 METAR KBFI 170153Z VRB04KT 10SM FEW110 26/08 A2994 RMK AO2 SLP138 T02610078 $=
201806170053 METAR KBFI 170053Z 07008KT 10SM SCT110 25/08 A2994 RMK AO2 LTG DSNT NE AND E SLP139 T02500083 $=
201806162353 METAR KBFI 162353Z VRB05KT 10SM CLR 24/08 A2994 RMK AO2 SLP139 T02440083 10250 20178 58009 $=
201806162253 METAR KBFI 162253Z 30008KT 10SM FEW035 24/09 A2995 RMK AO2 SLP143 T02390089 $=
201806162153 METAR KBFI 162153Z 32010KT 10SM FEW035 FEW250 22/09 A2996 RMK AO2 SLP145 T02220094 $=
201806162053 METAR KBFI 162053Z 29011G15KT 10SM FEW035 21/09 A2997 RMK AO2 SLP148 T02110089 58010 $=
201806161953 METAR KBFI 161953Z 33010KT 10SM SCT034 21/09 A2999 RMK AO2 SLP155 T02060089 $=
201806161853 METAR KBFI 161853Z VRB06KT 10SM BKN030 19/10 A2999 RMK AO2 SLP156 T01940100 $=
201806161839 SPECI KBFI 161839Z 06007KT 020V090 10SM BKN030 19/10 A3000 RMK AO2 T01890100 $=
201806161825 SPECI KBFI 161825Z 06008KT 10SM BKN028 18/10 A2999 RMK AO2 T01830100 $=
201806161812 SPECI KBFI 161812Z 06008KT 10SM BKN030 18/10 A3000 RMK AO2 T01830100 $=
201806161753 METAR KBFI 161753Z VRB04KT 10SM BKN027 18/10 A3000 RMK AO2 SLP158 T01780100 10178 20133 50008 $=
201806161653 METAR KBFI 161653Z VRB04KT 10SM BKN026 16/09 A3000 RMK AO2 SLP159 T01610094 $=
201806161553 METAR KBFI 161553Z VRB06KT 10SM OVC027 16/10 A2999 RMK AO2 SLP155 T01610100 $=
201806161453 METAR KBFI 161453Z VRB05KT 10SM BKN023 OVC030 15/09 A2998 RMK AO2 SLP150 T01500094 53013 $=
201806161421 SPECI KBFI 161421Z VRB05KT 10SM BKN022 16/09 A2997 RMK AO2 T01560094 $=
201806161353 METAR KBFI 161353Z VRB04KT 10SM SCT070 14/09 A2996 RMK AO2 SLP145 T01440089 $=
201806161253 METAR KBFI 161253Z 00000KT 10SM CLR 13/09 A2995 RMK AO2 SLP141 T01330089 $=
201806161153 METAR KBFI 161153Z 33003KT 10SM SCT040 BKN055 14/09 A2994 RMK AO2 SLP137 T01390089 10167 20139 $=
201806161053 METAR KBFI 161053Z 01003KT 10SM BKN050 BKN075 15/08 A2994 RMK AO2 SLP137 T01500083 $=
201806160953 METAR KBFI 160953Z AUTO 00000KT 10SM BKN060 OVC075 15/08 A2993 RMK AO2 SLP135 T01500083 $=
201806160853 METAR KBFI 160853Z 00000KT 10SM SCT085 15/09 A2992 RMK AO2 SLP132 T01500089 53003 $=
201806160753 METAR KBFI 160753Z 00000KT 10SM CLR 16/09 A2991 RMK AO2 SLP129 T01560089 402220111 $=
201806160653 METAR KBFI 160653Z 28003KT 10SM FEW085 16/09 A2991 RMK AO2 SLP128 T01610094=
201806160553 METAR KBFI 160553Z 00000KT 10SM CLR 17/08 A2991 RMK AO2 SLP129 T01670083 10222 20167 50002=
201806160453 METAR KBFI 160453Z VRB03KT 10SM SCT080 18/08 A2992 RMK AO2 SLP130 T01780078=
201806160353 METAR KBFI 160353Z 31005KT 10SM BKN080 18/07 A2991 RMK AO2 SLP128 T01830067=
201806160253 METAR KBFI 160253Z 31007KT 10SM SCT080 19/06 A2991 RMK AO2 SLP127 T01940061 56008=
201806160153 METAR KBFI 160153Z 32008G14KT 10SM SCT040 21/07 A2991 RMK AO2 SLP128 T02060067=
201806160053 METAR KBFI 160053Z 30009KT 10SM SCT040 21/06 A2991 RMK AO2 SLP130 T02110056=
201806152353 METAR KBFI 152353Z AUTO 29009KT 10SM SCT040 22/06 A2993 RMK AO2 SLP135 T02170056 10217 20167 58011=
201806152253 METAR KBFI 152253Z 32010G17KT 10SM SCT045 22/06 A2994 RMK AO2 SLP138 T02170056=
201806152153 METAR KBFI 152153Z VRB06G15KT 10SM SCT045 21/07 A2996 RMK AO2 SLP143 T02110067=
201806152053 METAR KBFI 152053Z 32008KT 10SM SCT025 21/08 A2996 RMK AO2 SLP146 T02060083 58010=
201806151953 METAR KBFI 151953Z VRB05KT 10SM SCT025 20/09 A2998 RMK AO2 SLP150 T02000089=
201806151853 METAR KBFI 151853Z 31008KT 280V350 10SM SCT023 18/09 A2999 RMK AO2 SLP154 T01830089=
201806151753 METAR KBFI 151753Z 31007KT 10SM BKN023 18/09 A2999 RMK AO2 SLP156 T01780094 10178 20111 58002=
201806151729 SPECI KBFI 151729Z 31006KT 10SM BKN023 BKN050 16/09 A3000 RMK AO2 T01610094=
201806151653 METAR KBFI 151653Z 35006KT 10SM FEW041 15/09 A3000 RMK AO2 SLP158 T01500094=
201806151553 METAR KBFI 151553Z 30004KT 10SM SCT018 SCT041 14/09 A3000 RMK AO2 SLP158 T01390094=
201806151453 METAR KBFI 151453Z VRB04KT 10SM SCT016 SCT042 13/09 A3000 RMK AO2 SLP158 T01330089 51003=
201806151353 METAR KBFI 151353Z VRB04KT 10SM BKN042 13/09 A3000 RMK AO2 SLP157 T01280089=
201806151253 METAR KBFI 151253Z 01003KT 10SM SCT050 12/09 A3000 RMK AO2 SLP157 T01220089=
201806151153 METAR KBFI 151153Z 00000KT 10SM SCT070 11/09 A2999 RMK AO2 SLP156 T01110089 10144 20111 58002=
201806151053 METAR KBFI 151053Z 00000KT 10SM BKN050 11/09 A3000 RMK AO2 SLP157 T01110089=
201806150953 METAR KBFI 150953Z 00000KT 10SM FEW070 12/09 A2999 RMK AO2 SLP157 T01170089=
201806150853 METAR KBFI 150853Z 00000KT 10SM FEW070 12/09 A3000 RMK AO2 SLP157 T01220089 56006=
201806150753 METAR KBFI 150753Z 00000KT 10SM CLR 13/09 A3001 RMK AO2 SLP160 T01330089 401890122=
201806150653 METAR KBFI 150653Z 00000KT 10SM FEW070 14/09 A3001 RMK AO2 SLP160 T01390089=
201806150553 METAR KBFI 150553Z 00000KT 10SM FEW070 14/09 A3002 RMK AO2 SLP163 T01440089 10189 20144 57002=
201806150453 METAR KBFI 150453Z 31003KT 10SM FEW070 15/09 A3002 RMK AO2 SLP165 T01500089=
201806150353 METAR KBFI 150353Z VRB03KT 10SM CLR 17/08 A3002 RMK AO2 SLP164 T01670078=
201806150253 METAR KBFI 150253Z 00000KT 10SM BKN080 17/08 A3002 RMK AO2 SLP166 T01720078 56010=
201806150153 METAR KBFI 150153Z 27005KT 10SM BKN049 OVC080 18/08 A3003 RMK AO2 SLP167 T01780078=
201806150053 METAR KBFI 150053Z 00000KT 10SM BKN049 OVC070 18/07 A3004 RMK AO2 SLP170 T01830072=
201806142353 METAR KBFI 142353Z 16003KT 10SM SCT045 BKN070 18/08 A3005 RMK AO2 SLP176 T01830078 10189 20144 58012=
201806142253 METAR KBFI 142253Z VRB05KT 10SM SCT048 BKN070 18/07 A3006 RMK AO2 SLP180 T01830072=
201806142153 METAR KBFI 142153Z VRB05KT 10SM SCT037 BKN070 19/09 A3008 RMK AO2 SLP184 T01890089=
201806142053 METAR KBFI 142053Z 00000KT 10SM SCT039 BKN070 18/08 A3009 RMK AO2 SLP188 T01780083 58003=
201806141953 METAR KBFI 141953Z 00000KT 10SM BKN034 BKN090 16/08 A3010 RMK AO2 SLP191 T01610078=
201806141853 METAR KBFI 141853Z 21006KT 10SM SCT030 OVC050 16/08 A3010 RMK AO2 SLP192 T01610083=
201806141753 METAR KBFI 141753Z 23007KT 10SM SCT026 BKN031 BKN045 14/09 A3010 RMK AO2 SLP191 T01440089 10156 20128 50003=
201806141653 METAR KBFI 141653Z VRB05KT 10SM SCT028 BKN037 OVC075 14/08 A3010 RMK AO2 SLP192 T01440078=
201806141553 METAR KBFI 141553Z 16008KT 10SM SCT024 OVC040 14/08 A3010 RMK AO2 SLP192 T01440083=
201806141527 SPECI KBFI 141527Z 13005KT 10SM SCT023 OVC040 14/08 A3009 RMK AO2 T01440078=
201806141516 SPECI KBFI 141516Z 15007KT 10SM BKN023 BKN030 OVC038 14/08 A3009 RMK AO2 T01390083=
201806141453 METAR KBFI 141453Z 15007KT 10SM FEW020 BKN038 OVC080 14/08 A3009 RMK AO2 SLP188 T01390083 53010=
201806141353 METAR KBFI 141353Z 14005KT 10SM BKN020 OVC032 13/08 A3008 RMK AO2 SLP184 T01330083=
201806141332 SPECI KBFI 141332Z 15006KT 10SM FEW021 OVC031 13/08 A3007 RMK AO2 T01280078=
201806141253 METAR KBFI 141253Z VRB05KT 10SM OVC025 13/08 A3007 RMK AO2 SLP181 T01280083=
201806141153 METAR KBFI 141153Z 19004KT 10SM OVC023 13/08 A3006 RMK AO2 SLP177 70011 T01280078 10144 20122 53008=
201806141053 METAR KBFI 141053Z 18006KT 10SM FEW015 BKN024 OVC030 13/08 A3004 RMK AO2 SLP173 T01280078=
201806140953 METAR KBFI 140953Z 17008KT 10SM FEW015 BKN024 OVC038 13/08 A3004 RMK AO2 SLP171 T01280083=
201806140853 METAR KBFI 140853Z 15005KT 10SM SCT018 BKN030 12/08 A3003 RMK AO2 SLP169 T01220083 53006=
201806140753 METAR KBFI 140753Z 16004KT 10SM SCT024 BKN055 13/08 A3003 RMK AO2 SLP167 T01280083 402000111=
201806140653 METAR KBFI 140653Z 18007KT 10SM FEW020 SCT024 BKN033 14/08 A3002 RMK AO2 SLP165 T01390083=
201806140553 METAR KBFI 140553Z 14007KT 090V160 10SM BKN026 BKN030 OVC050 14/10 A3001 RMK AO2 SLP163 60000 T01390100 10161 20139 52013=
201806140453 METAR KBFI 140453Z 06008KT 10SM BKN026 BKN030 OVC049 14/09 A3000 RMK AO2 SLP160 T01440094=
201806140353 METAR KBFI 140353Z 08006KT 10SM BKN026 BKN035 OVC044 14/09 A2999 RMK AO2 SLP154 T01440094=
201806140253 METAR KBFI 140253Z 04008KT 10SM BKN026 OVC033 14/10 A2998 RMK AO2 SLP150 60000 T01440100 51009=
201806140153 METAR KBFI 140153Z VRB06KT 10SM SCT025 BKN032 OVC050 15/10 A2997 RMK AO2 SLP148 T01500100=
201806140053 METAR KBFI 140053Z 05008KT 10SM BKN046 OVC055 16/11 A2996 RMK AO2 RAB33E47 SLP144 P0000 T01610111=
201806132353 METAR KBFI 132353Z 04008KT 350V060 10SM BKN047 OVC060 16/11 A2995 RMK AO2 SLP141 T01610106 10200 20161 53007=
201806132253 METAR KBFI 132253Z 22011G20KT 10SM SCT035 BKN070 19/08 A2994 RMK AO2 SLP137 T01890078=
201806132207 SPECI KBFI 132207Z 20012G18KT 10SM FEW047 BKN055 BKN095 20/09 A2994 RMK AO2 T02000089=
201806132153 METAR KBFI 132153Z 19011G17KT 10SM SCT035 19/09 A2993 RMK AO2 SLP135 T01940089=
201806132053 METAR KBFI 132053Z 20009G20KT 170V230 10SM SCT040 SCT070 18/09 A2993 RMK AO2 SLP134 T01830089 51007 $=
201806131953 METAR KBFI 131953Z 24011G19KT 10SM SCT030 BKN060 17/09 A2992 RMK AO2 SLP132 T01670094 $=
201806131853 METAR KBFI 131853Z 19011KT 10SM SCT020 BKN075 17/10 A2991 RMK AO2 SLP129 T01720100 $=
201806131753 METAR KBFI 131753Z 20008G18KT 10SM SCT020 BKN075 16/09 A2991 RMK AO2 SLP126 60011 T01610094 10167 20111 53007 $=
201806131653 METAR KBFI 131653Z 20009G17KT 10SM SCT020 BKN030 BKN150 16/11 A2990 RMK AO2 SLP124 T01610106 $=
201806131553 METAR KBFI 131553Z 17011KT 10SM BKN030 OVC150 14/09 A2989 RMK AO2 SLP121 T01440094 $=
201806131453 METAR KBFI 131453Z 15005KT 10SM OVC033 12/10 A2989 RMK AO2 RAE41 SLP119 P0003 60011 T01220100 51002 $=
201806131410 SPECI KBFI 131410Z 00000KT 4SM -RA BR FEW008 BKN024 OVC033 12/10 A2989 RMK AO2 P0001 T01220100 $=
201806131400 SPECI KBFI 131400Z 00000KT 6SM -RA BR FEW010 BKN024 OVC033 12/09 A2989 RMK AO2 P0000 T01220094 $=
201806131353 METAR KBFI 131353Z 00000KT 10SM -RA FEW010 BKN024 OVC033 12/09 A2989 RMK AO2 RAE26B49 SLP119 P0004 T01220094 $=
201806131334 SPECI KBFI 131334Z 10005KT 8SM FEW008 OVC028 12/09 A2988 RMK AO2 RAE26 P0004 T01170094 $=
201806131318 SPECI KBFI 131318Z 12004KT 3SM -RA BR OVC028 11/09 A2988 RMK AO2 P0004 T01110094 $=
201806131310 SPECI KBFI 131310Z 18005KT 2SM -RA BR BKN028 OVC035 11/09 A2989 RMK AO2 P0003 T01110094 $=
201806131253 METAR KBFI 131253Z 15004KT 3SM RA OVC033 12/09 A2989 RMK AO2 RAB27 SLP120 P0004 T01170089 $=
201806131153 METAR KBFI 131153Z 14005KT 10SM OVC055 14/07 A2988 RMK AO2 RAB22E32 SLP117 P0000 60000 T01390067 10161 20139 56002 $=
201806131053 METAR KBFI 131053Z 16005KT 10SM OVC075 14/05 A2988 RMK AO2 SLP117 T01440050 $=
201806130953 METAR KBFI 130953Z 15006KT 10SM BKN075 OVC085 14/07 A2988 RMK AO2 RAB36E48 SLP116 P0000 T01390072 $=
201806130853 METAR KBFI 130853Z 12005KT 10SM BKN080 OVC100 15/08 A2988 RMK AO2 SLP119 T01500078 56012 $=
201806130753 METAR KBFI 130753Z 15005KT 10SM BKN095 15/08 A2989 RMK AO2 SLP122 T01500078 401890106 $=
201806130653 METAR KBFI 130653Z 00000KT 10SM SCT100 BKN120 16/07 A2990 RMK AO2 SLP126 T01560072 $=
201806130553 METAR KBFI 130553Z 35003KT 10SM OVC110 16/07 A2992 RMK AO2 SLP130 60000 T01610072 10183 20156 $=
201806130453 METAR KBFI 130453Z 00000KT 10SM BKN100 OVC120 16/07 A2992 RMK AO2 RAB03E13 SLP132 P0000 T01610067 $=
201806130353 METAR KBFI 130353Z 29003KT 10SM OVC100 17/07 A2992 RMK AO2 SLP132 T01670072 $=
201806130253 METAR KBFI 130253Z 32003KT 10SM OVC100 17/07 A2993 RMK AO2 SLP136 T01720067 56010 $=
201806130153 METAR KBFI 130153Z 30006KT 10SM BKN110 OVC150 17/07 A2994 RMK AO2 SLP139 T01720067 $=
201806130053 METAR KBFI 130053Z 32008KT 10SM BKN110 OVC150 18/07 A2995 RMK AO2 SLP141 T01780067 $=
201806122353 METAR KBFI 122353Z 30007KT 10SM OVC120 18/08 A2996 RMK AO2 SLP146 T01830078 10189 20172 56022 $=
201806122253 METAR KBFI 122253Z 31011KT 10SM OVC150 18/08 A2998 RMK AO2 SLP152 T01830078 $=
201806122153 METAR KBFI 122153Z 34006KT 10SM OVC150 18/07 A3000 RMK AO2 SLP159 T01830072 $=
201806122053 METAR KBFI 122053Z 30008KT 10SM OVC150 18/06 A3003 RMK AO2 SLP168 T01830056 56012 $=
201806121953 METAR KBFI 121953Z 31007KT 270V350 10SM OVC250 19/06 A3004 RMK AO2 SLP171 T01890061=
201806121853 METAR KBFI 121853Z 32011KT 10SM OVC250 18/06 A3005 RMK AO2 SLP175 T01830061 $=
201806121753 METAR KBFI 121753Z 30005KT 10SM CLR 18/07 A3006 RMK AO2 SLP180 T01780072 10178 20106 58017 $=
201806121653 METAR KBFI 121653Z VRB04KT 10SM CLR 17/06 A3008 RMK AO2 SLP185 T01720056 $=
201806121553 METAR KBFI 121553Z 35004KT 10SM CLR 14/06 A3010 RMK AO2 SLP192 T01440056 $=
201806121453 METAR KBFI 121453Z 05004KT 10SM SCT200 13/06 A3011 RMK AO2 SLP197 T01330061 56012 $=
201806121353 METAR KBFI 121353Z VRB03KT 10SM BKN200 12/07 A3012 RMK AO2 SLP200 T01170072 $=
201806121253 METAR KBFI 121253Z 00000KT 10SM CLR 11/07 A3014 RMK AO2 SLP204 T01110067 $=
201806121153 METAR KBFI 121153Z 00000KT 10SM CLR 11/06 A3015 RMK AO2 SLP209 T01060056 10150 20106 58012 $=
201806121053 METAR KBFI 121053Z 00000KT 10SM CLR 12/06 A3017 RMK AO2 SLP216 T01170061 $=
201806120953 METAR KBFI 120953Z 00000KT 10SM CLR 12/07 A3018 RMK AO2 SLP219 T01220072 $=
201806120853 METAR KBFI 120853Z 33003KT 10SM CLR 13/07 A3018 RMK AO2 SLP220 T01280072 58001 $=
201806120653 METAR KBFI 120653Z 00000KT 10SM CLR 14/07 A3019 RMK AO2 SLP222 T01390072 $=
201806120553 METAR KBFI 120553Z 00000KT 10SM CLR 15/07 A3019 RMK AO2 SLP221 T01500072 10200 20150 56000 $=
201806120453 METAR KBFI 120453Z 00000KT 10SM FEW070 17/05 A3019 RMK AO2 SLP222 T01670050 $=
201806120353 METAR KBFI 120353Z VRB04KT 10SM FEW075 18/04 A3018 RMK AO2 SLP220 T01780039 $=
201806120253 METAR KBFI 120253Z 31004KT 10SM FEW080 19/04 A3019 RMK AO2 SLP222 T01890039 55006=
201806120153 METAR KBFI 120153Z VRB04KT 10SM FEW060 19/04 A3019 RMK AO2 SLP221 T01940039=
201806120053 METAR KBFI 120053Z 00000KT 10SM SCT060 19/03 A3019 RMK AO2 SLP223 T01940028=
201806112353 METAR KBFI 112353Z 00000KT 10SM SCT035 19/03 A3020 RMK AO2 SLP227 T01940028 10206 20139 58009=
201806112253 METAR KBFI 112253Z 00000KT 10SM SCT060 19/03 A3022 RMK AO2 SLP232 T01940033=
201806112153 METAR KBFI 112153Z 13005KT 10SM BKN050 19/05 A3023 RMK AO2 SLP235 T01890050=
201806112053 METAR KBFI 112053Z VRB04KT 10SM BKN049 17/06 A3023 RMK AO2 SLP236 T01720056 53002=
201806111953 METAR KBFI 111953Z VRB03KT 10SM SCT038 BKN050 16/06 A3022 RMK AO2 SLP234 T01560061=
201806111853 METAR KBFI 111853Z VRB03KT 10SM BKN030 BKN050 16/07 A3022 RMK AO2 SLP234 T01560067=
201806111753 METAR KBFI 111753Z 23003KT 10SM SCT028 BKN040 BKN050 14/09 A3022 RMK AO2 SLP234 T01390094 10139 20100 53011=
201806111653 METAR KBFI 111653Z 00000KT 10SM SCT018 BKN043 12/08 A3021 RMK AO2 SLP229 T01220078=
201806111553 METAR KBFI 111553Z 00000KT 10SM SCT018 BKN040 12/07 A3020 RMK AO2 SLP226 T01220072=
201806111453 METAR KBFI 111453Z 18003KT 10SM FEW008 SCT016 BKN037 12/08 A3019 RMK AO2 SLP223 T01170083 51014=
201806111353 METAR KBFI 111353Z 00000KT 10SM SCT008 BKN024 OVC037 11/08 A3018 RMK AO2 SLP219 T01060083=
201806111253 METAR KBFI 111253Z 00000KT 10SM SCT006 BKN012 BKN030 11/09 A3016 RMK AO2 SLP214 T01060089=
201806111153 METAR KBFI 111153Z 23003KT 10SM OVC012 10/09 A3015 RMK AO2 SLP209 70010 T01000089 10111 20100 53015=
201806111053 METAR KBFI 111053Z 00000KT 10SM BKN011 OVC060 11/09 A3013 RMK AO2 SLP203 T01060089=
201806110953 METAR KBFI 110953Z 15005KT 10SM BKN018 BKN055 10/08 A3012 RMK AO2 SLP199 T01000083=
201806110853 METAR KBFI 110853Z 11004KT 10SM FEW007 SCT016 11/09 A3011 RMK AO2 SLP195 T01060089 53004=
201806110753 METAR KBFI 110753Z 14004KT 10SM FEW023 OVC070 11/09 A3010 RMK AO2 SLP193 T01060089 401670094=
201806110653 METAR KBFI 110653Z AUTO 00000KT 10SM FEW027 BKN080 OVC120 11/09 A3009 RMK AO2 SLP190 T01110089=
201806110553 METAR KBFI 110553Z 13005KT 10SM SCT048 OVC070 11/09 A3010 RMK AO2 RAE0454 SLP190 P0000 60008 T01110089 10156 20111 53006=
201806110453 METAR KBFI 110453Z 11004KT 10SM -RA FEW037 BKN090 OVC110 12/09 A3009 RMK AO2 RAE12B43 SLP189 P0000 T01170094=
201806110353 METAR KBFI 110353Z 12006KT 10SM -RA SCT023 OVC034 12/09 A3008 RMK AO2 RAB0256E07B48 SLP185 P0000 T01220094=
201806110253 METAR KBFI 110253Z 18003KT 10SM FEW025 BKN048 OVC055 12/08 A3008 RMK AO2 RAE51 SLP184 P0004 60008 T01220078 51008=
201806110153 METAR KBFI 110153Z 21003KT 4SM -RA BKN030 OVC040 12/08 A3008 RMK AO2 RAB10E20B40 SLP185 P0004 T01170083=
201806110053 METAR KBFI 110053Z VRB04KT 10SM BKN030 BKN041 14/07 A3007 RMK AO2 SLP181 T01390072=
201806102353 METAR KBFI 102353Z 20011G19KT 160V240 10SM SCT040 BKN110 14/05 A3005 RMK AO2 LTG DSNT N AND NW SLP177 60002 T01440050 10167 20106 55001=
201806102253 METAR KBFI 102253Z 19011G17KT 10SM FEW030 SCT050 BKN130 16/06 A3004 RMK AO2 SLP173 T01610061=
201806102153 METAR KBFI 102153Z 20009KT 10SM FEW030 SCT049 16/07 A3005 RMK AO2 LTG DSNT N AND E RAB2055E26 SLP174 P0000 T01560067=
201806102053 METAR KBFI 102053Z 22015G21KT 10SM SCT037 BKN045 14/06 A3006 RMK AO2 SLP177 60002 T01390056 55002=
201806101953 METAR KBFI 101953Z 21010KT 170V230 10SM SCT045 BKN060 15/06 A3005 RMK AO2 SLP174 T01500056=
201806101853 METAR KBFI 101853Z 21007G14KT 10SM FEW040 SCT060 13/07 A3006 RMK AO2 RAE50 SLP179 P0002 T01330067=
201806101753 METAR KBFI 101753Z 27009KT 10SM -RA FEW035 SCT060 BKN080 13/ A3006 RMK AO2 RAB53 SLP180 P0000 60000 T0128 10144 20094 50004=
201806101653 METAR KBFI 101653Z 18008KT 10SM FEW041 BKN075 BKN090 13/ A3007 RMK AO2 RAB42E52 SLP182 P0000 T0128 $=
201806101553 METAR KBFI 101553Z 18010KT 10SM SCT090 BKN120 12/ A3006 RMK AO2 SLP179 T0117 $=
201806101453 METAR KBFI 101453Z 18008G18KT 10SM SCT070 12/ A3005 RMK AO2 SLP175 T0117 50003 $=
201806101353 METAR KBFI 101353Z 19008KT 10SM SCT075 11/ A3005 RMK AO2 SLP176 T0106 $=
201806101253 METAR KBFI 101253Z 16008KT 10SM SCT090 09/ A3005 RMK AO2 SLP174 T0094 $=
201806101153 METAR KBFI 101153Z 17009KT 10SM SCT080 BKN095 10/ A3004 RMK AO2 SLP172 70017 T0100 10117 20100 50007 $=
201806101053 METAR KBFI 101053Z 18008G16KT 160V220 10SM FEW060 BKN080 OVC100 11/ A3004 RMK AO2 SLP172 T0106 $=
201806100953 METAR KBFI 100953Z 19005KT 10SM FEW090 11/ A3003 RMK AO2 LTG DSNT N SLP168 T0106 $=
201806100853 METAR KBFI 100853Z AUTO 20008G16KT 10SM FEW110 11/ A3002 RMK AO2 SLP165 T0106 53007 $=
201806100753 METAR KBFI 100753Z 17005KT 10SM CLR 11/ A3001 RMK AO2 SLP161 T0106 401720106 $=
201806100653 METAR KBFI 100653Z 19008KT 10SM CLR 11/ A3000 RMK AO2 SLP159 T0111 $=
201806100553 METAR KBFI 100553Z 21004KT 10SM SCT041 BKN050 12/ A3000 RMK AO2 SLP158 60017 T0117 10161 20111 51006 $=
201806100453 METAR KBFI 100453Z 00000KT 10SM FEW016 FEW041 SCT065 12/ A2999 RMK AO2 RAB34E43 SLP156 P0001 T0117 $=
201806100353 METAR KBFI 100353Z 00000KT 10SM BKN045 OVC060 12/ A2999 RMK AO2 RAE0254B19E41 SLP154 P0001 T0117 $=
201806100253 METAR KBFI 100253Z 00000KT 10SM -RA SCT048 BKN060 13/ A2998 RMK AO2 RAE23B45 SLP152 P0004 60015 T0128 50005 $=
201806100153 METAR KBFI 100153Z 33004KT 10SM -RA SCT040 BKN055 13/09 A2999 RMK AO2 RAB26 SLP154 P0011 T01280089=
201806100053 METAR KBFI 100053Z 24004KT 10SM SCT037 BKN095 16/06 A2997 RMK AO2 SLP150 T01560061=
201806092353 METAR KBFI 092353Z 23005KT 10SM BKN040 BKN090 16/07 A2997 RMK AO2 LTG DSNT NE RAE21 SLP147 P0000 60000 T01610067 10172 20128 50004=
201806092253 METAR KBFI 092253Z 25007KT 10SM -RA BKN030 BKN060 14/06 A2997 RMK AO2 RAB12E24B44 SLP149 P0000 T01440061=
201806092153 METAR KBFI 092153Z 29008KT 10SM SCT040 BKN075 BKN110 17/06 A2996 RMK AO2 SLP146 T01670061=
201806092053 METAR KBFI 092053Z VRB03KT 10SM BKN035 BKN050 17/07 A2995 RMK AO2 SLP143 T01670067 56006=
201806091953 METAR KBFI 091953Z VRB04KT 10SM BKN033 16/07 A2996 RMK AO2 SLP143 T01610072=
201806091853 METAR KBFI 091853Z VRB05KT 10SM FEW020 BKN032 14/08 A2997 RMK AO2 SLP147 T01390083=
201806091753 METAR KBFI 091753Z VRB04KT 10SM SCT018 BKN021 BKN044 13/08 A2997 RMK AO2 SLP150 T01330083 10139 20106 58000=
201806091653 METAR KBFI 091653Z 22005KT 10SM OVC015 12/08 A2999 RMK AO2 SLP154 T01170078=
201806091600 SPECI KBFI 091600Z 22003KT 10SM OVC015 11/08 A2998 RMK AO2 T01110078=
201806091553 METAR KBFI 091553Z 21003KT 10SM OVC013 11/08 A2998 RMK AO2 SLP152 T01110078=
201806091453 METAR KBFI 091453Z 17006KT 10SM BKN013 OVC020 11/08 A2997 RMK AO2 SLP150 T01110078 50001=
201806091353 METAR KBFI 091353Z 21005KT 10SM BKN015 OVC020 11/08 A2998 RMK AO2 SLP151 T01110078=
201806091253 METAR KBFI 091253Z 15007KT 10SM FEW015 SCT020 BKN022 11/08 A2997 RMK AO2 SLP149 T01060078=
201806091153 METAR KBFI 091153Z 18007KT 10SM BKN022 OVC037 11/08 A2997 RMK AO2 SLP148 60001 70023 T01060083 10122 20106 53002=
201806091125 SPECI KBFI 091125Z 17007KT 10SM BKN021 BKN037 11/08 A2997 RMK AO2 T01110083=
201806091053 METAR KBFI 091053Z 20006KT 10SM SCT019 SCT034 11/08 A2997 RMK AO2 SLP148 T01110083=
201806090953 METAR KBFI 090953Z 00000KT 10SM BKN017 BKN041 OVC050 12/09 A2996 RMK AO2 SLP145 T01170094=
201806090853 METAR KBFI 090853Z 15005KT 10SM BKN017 BKN041 OVC050 12/09 A2997 RMK AO2 SLP147 60001 T01170089 51010=
201806090753 METAR KBFI 090753Z 18005KT 10SM SCT015 BKN018 OVC050 12/09 A2996 RMK AO2 SLP145 T01170094 401780117=
201806090653 METAR KBFI 090653Z 19005KT 10SM BKN018 BKN027 OVC035 12/11 A2995 RMK AO2 RAE26 SLP142 P0001 T01220106=
201806090553 METAR KBFI 090553Z 00000KT 6SM -RA BR FEW006 BKN039 OVC049 12/11 A2993 RMK AO2 RAB17 SLP136 P0004 60011 T01220106 10144 20122 56004=
201806090453 METAR KBFI 090453Z 29003KT 10SM SCT020 OVC028 13/11 A2994 RMK AO2 RAB21E38 SLP137 P0000 T01280106=
201806090353 METAR KBFI 090353Z 00000KT 10SM FEW020 BKN040 OVC050 13/11 A2994 RMK AO2 SLP138 T01280106=
201806090253 METAR KBFI 090253Z 00000KT 10SM BKN030 OVC060 13/10 A2995 RMK AO2 RAE25 SLP141 P0004 60007 T01280100 56016=
201806090153 METAR KBFI 090153Z 23006KT 5SM -RA BR FEW012 BKN020 OVC040 13/11 A2996 RMK AO2 SLP146 P0002 T01330111=
201806090053 METAR KBFI 090053Z VRB03KT 10SM -RA FEW015 SCT030 OVC070 14/11 A2996 RMK AO2 SLP146 P0001 T01390111=
201806082353 METAR KBFI 082353Z 00000KT 10SM -RA FEW014 SCT034 OVC045 14/11 A2999 RMK AO2 SLP157 P0001 60011 T01440111 10167 20139 58011=
201806082253 METAR KBFI 082253Z 00000KT 10SM -RA SCT014 BKN030 OVC036 14/11 A3001 RMK AO2 SLP162 P0003 T01440111=
201806082153 METAR KBFI 082153Z VRB04KT 10SM -RA SCT017 OVC039 15/12 A3002 RMK AO2 SLP164 P0001 T01500117=
201806082053 METAR KBFI 082053Z 18003KT 9SM -RA SCT023 BKN050 OVC075 15/12 A3003 RMK AO2 SLP168 P0004 60006 T01500122 58001=
201806081953 METAR KBFI 081953Z VRB03KT 7SM -RA SCT030 BKN050 OVC070 16/12 A3004 RMK AO2 SLP170 P0002 T01560117=
201806081853 METAR KBFI 081853Z 23005KT 10SM -RA SCT050 BKN060 OVC080 16/11 A3003 RMK AO2 SLP168 P0000 T01610106=
201806081753 METAR KBFI 081753Z VRB06KT 10SM -RA FEW025 BKN065 OVC080 17/09 A3003 RMK AO2 RAB23 SLP169 P0000 60000 T01670094 10178 20144 56004=
201806081653 METAR KBFI 081653Z 18007KT 10SM FEW050 OVC060 17/08 A3003 RMK AO2 SLP169 T01720083=
201806081553 METAR KBFI 081553Z 18011KT 10SM OVC055 16/09 A3004 RMK AO2 SLP172 T01610089=
201806081453 METAR KBFI 081453Z 19008KT 10SM OVC048 15/09 A3004 RMK AO2 SLP173 T01500089 51004=
201806081353 METAR KBFI 081353Z 17006KT 10SM BKN036 OVC055 15/09 A3004 RMK AO2 SLP172 T01500094 $=
201806081253 METAR KBFI 081253Z 17007KT 10SM FEW037 OVC055 15/09 A3004 RMK AO2 SLP171 T01500094 $=
201806081153 METAR KBFI 081153Z 14007KT 10SM BKN039 OVC050 14/09 A3003 RMK AO2 SLP169 T01440094 10150 20139 58006 $=
201806081053 METAR KBFI 081053Z 17006KT 10SM SCT040 OVC055 14/09 A3004 RMK AO2 SLP172 T01440094 $=
201806080953 METAR KBFI 080953Z 18007KT 10SM OVC048 14/09 A3004 RMK AO2 SLP173 T01440094 $=
201806080853 METAR KBFI 080853Z 18007KT 10SM OVC046 15/09 A3005 RMK AO2 SLP175 T01500094 51004 $=
201806080753 METAR KBFI 080753Z 17008KT 10SM OVC044 14/09 A3005 RMK AO2 SLP174 T01440094 402000128 $=
201806080653 METAR KBFI 080653Z 18005KT 10SM CLR 14/09 A3004 RMK AO2 SLP172 T01440089 $=
201806080553 METAR KBFI 080553Z 16005KT 10SM CLR 14/09 A3004 RMK AO2 SLP171 T01440089 10200 20144 50008 $=
201806080453 METAR KBFI 080453Z 20003KT 10SM SCT150 16/08 A3004 RMK AO2 SLP171 T01560083 $=
201806080353 METAR KBFI 080353Z 23007KT 10SM CLR 17/09 A3002 RMK AO2 SLP165 T01670089 $=
201806080253 METAR KBFI 080253Z 22007KT 10SM SCT040 18/08 A3001 RMK AO2 SLP163 T01780083 $=
201806080153 METAR KBFI 080153Z 19008KT 10SM SCT040 19/08 A3001 RMK AO2 SLP162 T01890078 $=
201806080053 METAR KBFI 080053Z VRB06KT 10SM SCT049 19/08 A3002 RMK AO2 SLP163 T01890078=
201806072353 METAR KBFI 072353Z 17007KT 10SM SCT049 19/08 A3001 RMK AO2 SLP162 T01940078 10200 20150 56003=
201806072253 METAR KBFI 072253Z 23007KT 10SM BKN042 19/08 A3001 RMK AO2 SLP162 T01890078=
201806072153 METAR KBFI 072153Z 23007KT 190V260 10SM BKN050 19/08 A3002 RMK AO2 SLP164 T01890083=
201806072053 METAR KBFI 072053Z 20007KT 180V250 10SM SCT029 BKN045 19/08 A3002 RMK AO2 SLP165 T01890083 51005=
201806071953 METAR KBFI 071953Z 21010KT 10SM SCT023 BKN029 OVC045 17/09 A3002 RMK AO2 SLP164 T01720089=
201806071853 METAR KBFI 071853Z 19011KT 10SM BKN030 OVC048 17/09 A3001 RMK AO2 SLP162 T01670089 $=
201806071842 SPECI KBFI 071842Z 19011KT 10SM BKN030 OVC040 17/09 A3001 RMK AO2 T01670094 $=
201806071753 METAR KBFI 071753Z 21011KT 10SM BKN028 OVC045 15/08 A3001 RMK AO2 SLP160 T01500083 10156 20133 53008 $=
201806071653 METAR KBFI 071653Z 17006KT 10SM SCT029 OVC046 15/08 A3000 RMK AO2 SLP157 T01500078 $=
201806071553 METAR KBFI 071553Z 19005KT 10SM SCT027 OVC046 15/08 A2999 RMK AO2 SLP155 T01500083=
201806071513 SPECI KBFI 071513Z 18007KT 150V210 10SM OVC030 14/08 A2999 RMK AO2 T01440078=
201806071453 METAR KBFI 071453Z 17007KT 10SM OVC028 14/08 A2998 RMK AO2 SLP152 T01440078 $=
201806071440 SPECI KBFI 071440Z 18006KT 10SM OVC028 14/08 A2998 RMK AO2 T01390078 $=
201806071353 METAR KBFI 071353Z 17010KT 10SM OVC028 14/08 A2997 RMK AO2 SLP148 T01390083=
201806071338 SPECI KBFI 071338Z 18006KT 10SM OVC028 14/08 A2997 RMK AO2 T01390083=
201806071253 METAR KBFI 071253Z 19009KT 10SM OVC034 13/08 A2996 RMK AO2 SLP145 T01330078=
201806071153 METAR KBFI 071153Z 17005KT 10SM SCT026 BKN038 13/08 A2995 RMK AO2 SLP142 T01330083 10156 20128 51011=
201806071053 METAR KBFI 071053Z 15006KT 10SM SCT032 13/08 A2994 RMK AO2 SLP139 T01280083=
201806070953 METAR KBFI 070953Z 17007KT 10SM CLR 13/08 A2994 RMK AO2 SLP137 T01330078=
201806070853 METAR KBFI 070853Z 19006KT 10SM CLR 14/08 A2992 RMK AO2 SLP131 T01390083 51010=
201806070753 METAR KBFI 070753Z VRB03KT 10SM CLR 14/09 A2991 RMK AO2 SLP129 T01440089 402440106=
201806070653 METAR KBFI 070653Z 00000KT 10SM CLR 15/08 A2990 RMK AO2 SLP125 T01500083=
201806070553 METAR KBFI 070553Z 31003KT 10SM CLR 16/08 A2989 RMK AO2 SLP121 T01560083 10228 20156 51012=
201806070453 METAR KBFI 070453Z 30005KT 10SM CLR 17/08 A2988 RMK AO2 SLP119 T01670078=
201806070353 METAR KBFI 070353Z 31005KT 10SM SCT220 17/08 A2987 RMK AO2 SLP114 T01720078=
201806070253 METAR KBFI 070253Z 29011KT 10SM CLR 19/07 A2986 RMK AO2 SLP110 T01940072 55001=
201806070153 METAR KBFI 070153Z 30013KT 10SM SCT250 21/08 A2985 RMK AO2 SLP108 T02110078=
201806070053 METAR KBFI 070053Z 30007KT 10SM SCT250 22/08 A2986 RMK AO2 SLP110 T02170083=
201806062353 METAR KBFI 062353Z 32006KT 10SM CLR 23/08 A2986 RMK AO2 SLP110 T02280083 10244 20183 56017=
201806062253 METAR KBFI 062253Z VRB04KT 10SM CLR 23/06 A2987 RMK AO2 SLP114 T02330061=
201806062153 METAR KBFI 062153Z AUTO 33005KT 10SM CLR 23/07 A2989 RMK AO2 SLP121 T02330067=
201806062053 METAR KBFI 062053Z VRB03KT 10SM CLR 22/07 A2991 RMK AO2 SLP127 T02170072 58016=
201806061953 METAR KBFI 061953Z 17004KT 10SM CLR 21/08 A2993 RMK AO2 SLP134 T02110083=
201806061853 METAR KBFI 061853Z 22009KT 10SM FEW040 OVC250 19/07 A2994 RMK AO2 SLP139 T01940072=
201806061753 METAR KBFI 061753Z 00000KT 10SM CLR 18/08 A2995 RMK AO2 SLP143 T01780083 10183 20106 58010=
201806061653 METAR KBFI 061653Z VRB04KT 10SM CLR 18/09 A2997 RMK AO2 SLP148 T01780089=
201806061553 METAR KBFI 061553Z VRB03KT 10SM CLR 16/09 A2998 RMK AO2 SLP151 T01560089=
201806061453 METAR KBFI 061453Z 15005KT 10SM CLR 14/08 A2998 RMK AO2 SLP152 T01390078 56003=
201806061353 METAR KBFI 061353Z 15007KT 10SM CLR 12/07 A2998 RMK AO2 SLP153 T01170072=
201806061253 METAR KBFI 061253Z 14005KT 10SM CLR 11/07 A2999 RMK AO2 SLP153 T01110072=
201806061153 METAR KBFI 061153Z 14007KT 10SM CLR 11/07 A2999 RMK AO2 SLP155 T01110072 10150 20111 56001=
201806061053 METAR KBFI 061053Z 13006KT 10SM CLR 12/08 A2999 RMK AO2 SLP156 T01220078=
201806060953 METAR KBFI 060953Z 14009KT 10SM CLR 12/08 A2999 RMK AO2 SLP154 T01220078=
201806060853 METAR KBFI 060853Z 16008KT 10SM CLR 13/08 A3000 RMK AO2 SLP157 T01280078 58006=
201806060753 METAR KBFI 060753Z 17005KT 10SM CLR 12/08 A3000 RMK AO2 SLP159 T01220078 402060094=
201806060653 METAR KBFI 060653Z 13004KT 10SM CLR 14/07 A3001 RMK AO2 SLP162 T01440072=
201806060553 METAR KBFI 060553Z 23004KT 10SM CLR 15/07 A3001 RMK AO2 SLP163 T01500067 10206 20144 50006=
201806060453 METAR KBFI 060453Z 00000KT 10SM SCT200 16/07 A3002 RMK AO2 SLP164 T01560067=
201806060353 METAR KBFI 060353Z 00000KT 10SM CLR 17/07 A3000 RMK AO2 SLP159 T01670067=
201806060253 METAR KBFI 060253Z VRB04KT 10SM FEW100 18/06 A3000 RMK AO2 SLP157 T01830056 58002=
201806060153 METAR KBFI 060153Z 24006KT 10SM FEW070 19/05 A3000 RMK AO2 SLP160 T01890050=
201806060053 METAR KBFI 060053Z 24005KT 10SM FEW070 19/05 A3000 RMK AO2 SLP160 T01940050=
201806052353 METAR KBFI 052353Z 18010KT 10SM SCT075 20/04 A3000 RMK AO2 SLP159 T02000044 10206 20156 58006=
201806052253 METAR KBFI 052253Z 23008G14KT 100V280 10SM SCT075 BKN100 20/04 A3001 RMK AO2 SLP161 T02000044=
201806052153 METAR KBFI 052153Z 20009G17KT 10SM SCT075 BKN100 19/ A3002 RMK AO2 SLP164 T0189=
201806052053 METAR KBFI 052053Z 23012KT 10SM BKN100 18/ A3002 RMK AO2 SLP165 T0178 53004=
201806051953 METAR KBFI 051953Z 19011KT 10SM OVC100 18/ A3001 RMK AO2 SLP163 T0178=
201806051853 METAR KBFI 051853Z 21007G17KT 170V250 10SM BKN100 17/ A3001 RMK AO2 SLP162 T0167=
201806051753 METAR KBFI 051753Z 18008G15KT 10SM BKN110 16/ A3001 RMK AO2 SLP161 T0161 10161 20094 58001=
201806051653 METAR KBFI 051653Z 17009KT 10SM SCT120 16/ A3001 RMK AO2 SLP161 T0156=
201806051553 METAR KBFI 051553Z 17007KT 10SM FEW050 SCT120 13/ A3001 RMK AO2 SLP162 T0133=
201806051453 METAR KBFI 051453Z 16007KT 10SM FEW050 SCT120 BKN140 12/ A3001 RMK AO2 SLP161 T0122 51009=
201806051353 METAR KBFI 051353Z 17005KT 10SM BKN090 11/ A3000 RMK AO2 SLP160 T0111=
201806051253 METAR KBFI 051253Z 14005KT 10SM BKN090 11/ A2999 RMK AO2 SLP156 T0106 $=
201806051153 METAR KBFI 051153Z 00000KT 10SM SCT090 11/ A2998 RMK AO2 SLP153 70003 T0111 10128 20100 56009 $=
201806051053 METAR KBFI 051053Z 14004KT 10SM CLR 11/ A2999 RMK AO2 SLP155 T0106 $=
201806050953 METAR KBFI 050953Z 08003KT 10SM CLR 12/ A2999 RMK AO2 SLP156 T0117 $=
201806050853 METAR KBFI 050853Z 00000KT 10SM CLR 11/ A3001 RMK AO2 SLP162 T0111 57005 $=
201806050753 METAR KBFI 050753Z 00000KT 10SM CLR 12/ A3001 RMK AO2 SLP163 T0122 401940106 $=
201806050653 METAR KBFI 050653Z 00000KT 10SM CLR 13/ A3002 RMK AO2 SLP165 T0128 $=
201806050553 METAR KBFI 050553Z 31004KT 10SM CLR 13/ A3002 RMK AO2 SLP167 T0128 10194 20128 58001 $=
201806050453 METAR KBFI 050453Z 32004KT 10SM SCT030 SCT200 13/ A3003 RMK AO2 SLP169 T0133 $=
201806050353 METAR KBFI 050353Z 31005KT 10SM CLR 14/06 A3003 RMK AO2 SLP167 T01440061 $=
201806050306 SPECI KBFI 050306Z 32005KT 10SM CLR 17/07 A3003 RMK AO2 T01670067 $=
201806050253 METAR KBFI 050253Z 33011KT 10SM SCT060 SCT200 17/07 A3003 RMK AO2 SLP168 T01670072 56012 $=
201806050153 METAR KBFI 050153Z 31006KT 10SM FEW030 SCT050 18/07 A3004 RMK AO2 SLP171 T01780067 $=
201806050053 METAR KBFI 050053Z 11005KT 10SM BKN050 19/06 A3005 RMK AO2 SLP175 T01940056 $=
201806042353 METAR KBFI 042353Z VRB04KT 10SM FEW030 SCT049 BKN100 19/06 A3006 RMK AO2 SLP180 60000 T01940061 10194 20117 $=
201806042253 METAR KBFI 042253Z 06004KT 10SM FEW029 BKN048 BKN100 18/07 A3008 RMK AO2 SLP186 T01780067 $=
201806042153 METAR KBFI 042153Z 10005KT 10SM SCT030 BKN070 18/07 A3009 RMK AO2 RAE2059 SLP188 P0000 T01780072 $=
201806042053 METAR KBFI 042053Z 07006KT 10SM -RA BKN034 BKN055 16/08 A3009 RMK AO2 RAB47 SLP190 P0000 60000 T01610083 56011=
201806041953 METAR KBFI 041953Z VRB04KT 10SM BKN027 16/08 A3010 RMK AO2 SLP192 T01560083=
201806041912 SPECI KBFI 041912Z 00000KT 10SM FEW019 SCT024 SCT032 14/08 A3011 RMK AO2 T01440083=
201806041853 METAR KBFI 041853Z 14005KT 10SM BKN019 BKN026 BKN033 13/09 A3012 RMK AO2 SLP198 T01330094=
201806041753 METAR KBFI 041753Z VRB04KT 10SM SCT013 OVC019 12/09 A3013 RMK AO2 SLP201 60003 T01170089 10122 20106 51009=
201806041653 METAR KBFI 041653Z 11003KT 5SM BR OVC020 11/08 A3012 RMK AO2 RAB12E44 SLP200 P0002 T01060083=
201806041632 SPECI KBFI 041632Z 13006KT 5SM -RA BR FEW012 OVC018 11/09 A3012 RMK AO2 RAB12 P0002 T01060089=
201806041625 SPECI KBFI 041625Z 11004KT 2SM -RA BR OVC019 11/09 A3012 RMK AO2 RAB12 P0002 T01060089=
201806041553 METAR KBFI 041553Z 18005KT 6SM BR SCT008 BKN016 OVC025 11/09 A3011 RMK AO2 RAB01E17 SLP196 P0001 T01060089=
201806041453 METAR KBFI 041453Z 16008KT 6SM BR BKN018 OVC026 11/08 A3010 RMK AO2 SLP192 T01110078 53002=
201806041353 METAR KBFI 041353Z 10005KT 10SM OVC018 11/08 A3009 RMK AO2 SLP190 T01110078=
201806041253 METAR KBFI 041253Z 08005KT 10SM OVC017 11/08 A3010 RMK AO2 SLP190 T01110078=
201806041153 METAR KBFI 041153Z 05006KT 10SM OVC024 11/08 A3010 RMK AO2 SLP190 70002 T01060083 10128 20106 53006=
201806041053 METAR KBFI 041053Z 06007KT 10SM BKN024 OVC035 12/07 A3009 RMK AO2 SLP188 T01170072=
201806040953 METAR KBFI 040953Z 06007KT 10SM OVC024 12/07 A3008 RMK AO2 SLP186 T01170072=
201806040853 METAR KBFI 040853Z 06006KT 10SM OVC024 12/07 A3008 RMK AO2 SLP184 T01220067 53004=
201806040753 METAR KBFI 040753Z 05005KT 10SM BKN024 OVC048 13/07 A3007 RMK AO2 SLP181 T01280067 401720128=
201806040653 METAR KBFI 040653Z 06006KT 10SM OVC024 13/07 A3007 RMK AO2 SLP182 T01280067=
201806040553 METAR KBFI 040553Z VRB04KT 10SM OVC024 13/08 A3007 RMK AO2 SLP180 60001 T01280083 10144 20128 53010=
201806040453 METAR KBFI 040453Z 07005KT 10SM BKN034 OVC050 13/08 A3006 RMK AO2 SLP178 T01280083=
201806040353 METAR KBFI 040353Z VRB03KT 10SM FEW025 BKN035 OVC050 13/09 A3004 RMK AO2 SLP172 T01330089=
201806040253 METAR KBFI 040253Z 29004KT 10SM FEW014 BKN032 OVC043 13/10 A3004 RMK AO2 SLP170 60001 T01330100 58002=
201806040153 METAR KBFI 040153Z 00000KT 10SM FEW018 BKN043 OVC070 14/11 A3004 RMK AO2 RAE19 SLP171 P0000 T01390106=
201806040053 METAR KBFI 040053Z 32004KT 10SM -RA FEW030 OVC080 13/11 A3004 RMK AO2 RAB05E28B50 SLP172 P0001 T01330106=
201806032353 METAR KBFI 032353Z 31004KT 10SM FEW019 SCT028 OVC075 15/11 A3004 RMK AO2 RAE26 SLP173 P0000 60001 T01500111 10172 20139 50000=
201806032253 METAR KBFI 032253Z 32005KT 10SM -RA OVC070 14/11 A3005 RMK AO2 SLP176 P0001 T01440111=
201806032153 METAR KBFI 032153Z AUTO VRB04KT 10SM -RA FEW028 BKN070 OVC085 16/10 A3005 RMK AO2 RAB51 SLP175 P0000 T01560100=
201806032053 METAR KBFI 032053Z VRB06KT 10SM FEW024 OVC085 17/10 A3004 RMK AO2 SLP173 T01670100 51006=
201806031953 METAR KBFI 031953Z 29005KT 10SM FEW024 BKN090 OVC110 16/09 A3004 RMK AO2 SLP172 T01610094=
201806031853 METAR KBFI 031853Z VRB05KT 10SM BKN100 17/10 A3004 RMK AO2 SLP173 T01670100=
201806031753 METAR KBFI 031753Z 00000KT 10SM BKN100 BKN120 17/10 A3003 RMK AO2 SLP167 T01670100 10172 20133 56013=
201806031653 METAR KBFI 031653Z 00000KT 10SM FEW006 OVC120 16/09 A3003 RMK AO2 SLP168 T01610089=
201806031553 METAR KBFI 031553Z 14003KT 10SM BKN120 15/09 A3005 RMK AO2 SLP175 T01500094=
201806031453 METAR KBFI 031453Z 25003KT 10SM BKN120 14/09 A3006 RMK AO2 SLP180 T01390089 56004=
201806031353 METAR KBFI 031353Z 00000KT 10SM BKN120 14/09 A3006 RMK AO2 SLP180 T01390094=
201806031253 METAR KBFI 031253Z 00000KT 10SM BKN120 13/09 A3007 RMK AO2 SLP182 T01330094=
201806031153 METAR KBFI 031153Z 05003KT 10SM SCT250 14/09 A3007 RMK AO2 SLP183 T01390089 10161 20133 58002=
201806031053 METAR KBFI 031053Z 00000KT 10SM CLR 14/09 A3008 RMK AO2 SLP185 T01440089=
201806030953 METAR KBFI 030953Z 00000KT 10SM CLR 14/09 A3008 RMK AO2 SLP185 T01440094=
201806030853 METAR KBFI 030853Z AUTO 00000KT 10SM CLR 14/09 A3008 RMK AO2 SLP186 T01440089 56005=
201806030753 METAR KBFI 030753Z 00000KT 10SM CLR 16/08 A3009 RMK AO2 SLP187 T01560083 402440122=
201806030653 METAR KBFI 030653Z 00000KT 10SM CLR 16/08 A3009 RMK AO2 SLP189 T01560078=
201806030553 METAR KBFI 030553Z 31003KT 10SM CLR 16/08 A3010 RMK AO2 SLP191 T01610078 10239 20161 56002=
201806030453 METAR KBFI 030453Z 31003KT 10SM FEW150 17/07 A3010 RMK AO2 SLP191 T01670072=
201806030353 METAR KBFI 030353Z 30004KT 10SM CLR 18/07 A3009 RMK AO2 SLP189 T01780067=
201806030253 METAR KBFI 030253Z 31006KT 10SM CLR 20/07 A3010 RMK AO2 SLP193 T02000067 56011=
201806030153 METAR KBFI 030153Z 32007KT 10SM SCT150 22/07 A3011 RMK AO2 SLP194 T02170072=
201806030053 METAR KBFI 030053Z 30006KT 10SM SCT150 23/08 A3012 RMK AO2 SLP199 T02330078=
201806022353 METAR KBFI 022353Z 32007KT 10SM FEW150 24/06 A3013 RMK AO2 SLP204 T02390061 10244 20189 58021=
201806022253 METAR KBFI 022253Z VRB05KT 10SM CLR 24/06 A3015 RMK AO2 SLP211 T02440061=
201806022153 METAR KBFI 022153Z 32006KT 10SM SCT090 23/07 A3018 RMK AO2 SLP218 T02330067=
201806022053 METAR KBFI 022053Z 00000KT 10SM SCT090 22/06 A3020 RMK AO2 SLP225 T02220061 58015=
201806021953 METAR KBFI 021953Z 31007KT 10SM FEW050 SCT090 21/06 A3021 RMK AO2 SLP230 T02110061 $=
201806021853 METAR KBFI 021853Z 30007KT 10SM SCT090 21/08 A3023 RMK AO2 SLP237 T02110078 $=
201806021753 METAR KBFI 021753Z 32005KT 10SM SCT090 19/08 A3024 RMK AO2 SLP239 T01940078 10194 20122 58009 $=
201806021653 METAR KBFI 021653Z 15003KT 10SM SCT090 BKN200 18/07 A3025 RMK AO2 SLP244 T01830067 $=
201806021553 METAR KBFI 021553Z 00000KT 10SM SCT095 BKN200 17/08 A3026 RMK AO2 SLP247 T01670078 $=
201806021453 METAR KBFI 021453Z 00000KT 10SM CLR 15/07 A3027 RMK AO2 SLP248 T01500072 53002 $=
201806021353 METAR KBFI 021353Z 14005KT 10SM SCT095 13/07 A3026 RMK AO2 SLP247 T01330072 $=
201806021253 METAR KBFI 021253Z 15007KT 10SM SCT090 BKN110 13/07 A3026 RMK AO2 SLP246 T01280067 $=
201806021153 METAR KBFI 021153Z 15007KT 10SM FEW070 BKN090 OVC110 13/07 A3026 RMK AO2 SLP246 T01280067 10161 20128 50000 $=
201806021053 METAR KBFI 021053Z 15007KT 10SM BKN070 BKN095 OVC110 13/07 A3026 RMK AO2 SLP247 T01280067 $=
201806020953 METAR KBFI 020953Z 15004KT 10SM BKN075 OVC100 13/07 A3026 RMK AO2 SLP247 T01280067 $=
201806020853 METAR KBFI 020853Z 15005KT 10SM OVC100 13/07 A3026 RMK AO2 SLP246 T01330072 50003 $=
201806020753 METAR KBFI 020753Z 00000KT 10SM CLR 14/07 A3026 RMK AO2 SLP248 T01390067 401890094 $=
201806020653 METAR KBFI 020653Z 16003KT 10SM FEW085 15/07 A3026 RMK AO2 SLP246 T01500067 $=
201806020553 METAR KBFI 020553Z 00000KT 10SM SCT090 16/06 A3025 RMK AO2 SLP243 T01610061 10189 20156 53007 $=
201806020453 METAR KBFI 020453Z 00000KT 10SM SCT090 16/06 A3024 RMK AO2 SLP240 T01610056 $=
201806020353 METAR KBFI 020353Z 23006KT 10SM BKN090 17/05 A3023 RMK AO2 SLP236 T01720050 $=
201806020253 METAR KBFI 020253Z 19004KT 10SM SCT095 17/05 A3023 RMK AO2 SLP235 T01720050 58004 $=
201806020153 METAR KBFI 020153Z 18008KT 110V220 10SM SCT055 18/05 A3023 RMK AO2 SLP236 T01780050 $=
201806020053 METAR KBFI 020053Z 23008KT 10SM SCT050 SCT100 19/04 A3024 RMK AO2 SLP238 T01890044 $=
201806012353 METAR KBFI 012353Z VRB05KT 10SM SCT100 19/04 A3024 RMK AO2 SLP239 T01890044 10189 20150 $=
201806012253 METAR KBFI 012253Z 23007KT 10SM SCT055 BKN080 18/04 A3025 RMK AO2 SLP241 T01780039 $=
201806012225 SPECI KBFI 012225Z VRB04KT 10SM SCT055 BKN080 18/04 A3025 RMK AO2 T01830044 $=
201806012153 METAR KBFI 012153Z 23009G16KT 10SM SCT055 BKN080 17/03 A3024 RMK AO2 SLP241 T01720033=
201806012053 METAR KBFI 012053Z 19007KT 170V240 10SM BKN055 17/03 A3023 RMK AO2 SLP238 T01720033 51007=
201806011953 METAR KBFI 011953Z VRB06G15KT 10SM FEW025 BKN060 16/03 A3023 RMK AO2 SLP236 T01610033=
201806011853 METAR KBFI 011853Z 22009G16KT 10SM SCT027 BKN065 16/04 A3022 RMK AO2 SLP234 T01560044=
201806011753 METAR KBFI 011753Z 21010G17KT 10SM SCT027 BKN035 15/04 A3021 RMK AO2 SLP231 T01500044 10156 20094 53008=
201806011653 METAR KBFI 011653Z 17010KT 10SM SCT027 BKN033 14/07 A3020 RMK AO2 SLP226 T01440067=
201806011651 SPECI KBFI 011651Z 18009KT 10SM SCT027 BKN033 14/07 A3020 RMK AO2=
201806011553 METAR KBFI 011553Z 18011KT 10SM BKN025 13/07 A3019 RMK AO2 SLP223 T01330067=
201806011453 METAR KBFI 011453Z 18006KT 10SM BKN023 12/06 A3018 RMK AO2 SLP218 T01170061 51016=
201806011353 METAR KBFI 011353Z 16008KT 10SM BKN023 11/06 A3016 RMK AO2 SLP214 T01060061=
201806011253 METAR KBFI 011253Z 15009KT 10SM BKN022 10/06 A3015 RMK AO2 SLP208 T01000056=
201806011153 METAR KBFI 011153Z 15009KT 10SM OVC022 10/06 A3013 RMK AO2 SLP203 60002 70002 T01000056 10133 20094 51015 $=
201806011053 METAR KBFI 011053Z 16010KT 10SM BKN026 BKN070 10/06 A3012 RMK AO2 SLP199 T01000056 $=
201806010953 METAR KBFI 010953Z 16007KT 10SM BKN025 OVC070 11/06 A3011 RMK AO2 SLP194 T01060061 $=
201806010853 METAR KBFI 010853Z 17006KT 10SM BKN026 OVC070 11/06 A3009 RMK AO2 SLP188 60002 T01110061 51019 $=
201806010839 SPECI KBFI 010839Z 17007KT 10SM BKN026 OVC070 11/06 A3008 RMK AO2 T01110061 $=
201806010753 METAR KBFI 010753Z 19007KT 10SM BKN060 OVC085 12/06 A3007 RMK AO2 RAE05B29E37 SLP181 P0001 T01170061 401830100 $=
201806010653 METAR KBFI 010653Z 20010KT 10SM -RA BKN060 12/07 A3005 RMK AO2 RAB08 SLP175 P0001 T01170067 $=
201806010553 METAR KBFI 010553Z VRB04KT 10SM BKN060 13/06 A3003 RMK AO2 SLP168 T01330056 10156 20133 $=
201806010453 METAR KBFI 010453Z 20007KT 10SM BKN045 14/05 A3001 RMK AO2 SLP163 T01390050=
201806010353 METAR KBFI 010353Z 15009KT 10SM SCT035 BKN050 14/08 A2999 RMK AO2 SLP154 T01390078=
201806010253 METAR KBFI 010253Z VRB04KT 10SM BKN047 BKN060 OVC080 15/07 A2998 RMK AO2 SLP150 T01500072 53015=
201806010153 METAR KBFI 010153Z VRB04KT 10SM BKN070 OVC085 15/05 A2995 RMK AO2 SLP143 T01500050=
201806010053 METAR KBFI 010053Z 00000KT 10SM BKN060 OVC095 16/05 A2994 RMK AO2 SLP136 T01560050=

# No short TAF reports from KBFI in databse.

###################################
#  large TAF from KBFI
###################################
201806302327 TAF KBFI 302327Z 0100/0124 VRB06KT P6SM VCSH OVC030 FM010500 17005KT
                       P6SM OVC028 FM011000 17007KT P6SM OVC018
                       FM011300 17004KT P6SM OVC014 FM011900 17006KT
                       P6SM BKN030 FM012200 20006KT P6SM BKN050=
201806302217 KBFI 302217Z 3022/0118 19007KT P6SM -SHRA SCT020 OVC030 FM010000
                       19006KT P6SM VCSH OVC035 FM010500 17005KT
                       P6SM OVC028 FM011000 17007KT P6SM OVC018=
201806301720 TAF KBFI 301720Z 3018/0118 19006KT P6SM SCT015 BKN023 OVC035 FM302000
                       20007KT P6SM VCSH OVC035 FM010500 17005KT
                       P6SM OVC028 FM011000 17007KT P6SM OVC018=
201806301423 KBFI 301423Z 3014/0112 18006KT P6SM SCT013 OVC019 FM302000 21008KT
                       P6SM VCSH OVC030 FM010500 17007KT P6SM OVC030
                       FM011000 17007KT P6SM OVC018=
201806301232 KBFI 301232Z 3013/0112 VRB03KT P6SM OVC022 FM302000 21008KT P6SM
                       VCSH OVC030 FM010500 17007KT P6SM OVC030
                       FM011000 17007KT P6SM OVC018=
201806301120 TAF KBFI 301120Z 3012/0112 VRB03KT P6SM SCT035 BKN050
                      TEMPO 3012/3015 BKN035 OVC050 FM301500 16006KT
                       P6SM OVC035 FM302000 21008KT P6SM VCSH OVC040
                       FM010500 17007KT P6SM OVC030 FM011000 17007KT
                       P6SM OVC018=
201806300523 TAF KBFI 300523Z 3006/0106 VRB03KT P6SM FEW035 OVC060 FM301100
                       VRB03KT P6SM OVC025 FM301800 17007KT P6SM
                       BKN035 BKN050 OVC100 FM302100 20009KT P6SM
                       VCSH SCT035 BKN060 OVC100 FM010400 17005KT
                       P6SM BKN028 OVC050=
201806300159 KBFI 300159Z 3002/3024 VRB03KT P6SM OVC060 FM300800 00000KT P6SM
                       OVC035 FM301100 17004KT P6SM OVC018 FM301700
                       19008KT P6SM OVC035 FM302100 19009KT P6SM
                       VCSH SCT018 OVC035=
201806292326 TAF KBFI 292326Z 3000/3024 VRB03KT P6SM VCSH SCT040 BKN080 FM300800
                       00000KT P6SM OVC035 FM301100 17004KT P6SM
                       OVC018 FM301700 19008KT P6SM OVC035 FM302100
                       19009KT P6SM VCSH SCT018 OVC035=
201806291738 TAF KBFI 291738Z 2918/3018 VRB05KT P6SM SCT023 BKN045 BKN100 FM292000
                       23005KT P6SM VCSH SCT030 OVC060 FM300800
                       18004KT P6SM OVC020=
201806291120 TAF KBFI 291120Z 2912/3012 18006KT P6SM BKN060 FM291800 VRB04KT
                       P6SM BKN040 FM300600 18006KT P6SM OVC030=
201806290521 TAF KBFI 290521Z 2906/3006 06004KT P6SM OVC040 FM291100 VRB03KT
                       P6SM VCSH OVC018 FM291800 20005KT P6SM OVC040
                       FM292100 24006KT P6SM BKN050 OVC070=
201806282320 TAF KBFI 282320Z 2900/2924 VRB05KT P6SM VCSH SCT040 BKN045 OVC080
                       FM291100 VRB03KT P6SM VCSH OVC018 FM291800
                       20005KT P6SM OVC040 FM292200 23006KT P6SM
                       BKN040=
201806282105 KBFI 282105Z 2821/2918 23007KT P6SM VCSH SCT045 OVC100 FM291000
                       16004KT P6SM OVC015=
201806281730 TAF KBFI 281730Z 2818/2918 VRB04KT P6SM SCT025 BKN150 FM291000
                       16004KT P6SM OVC015=
201806281503 KBFI 281503Z 2815/2912 14006KT P6SM SCT023 BKN060 FM281700 22007KT
                       P6SM SCT025 BKN050 FM290900 18007KT P6SM
                       OVC020=
201806281120 TAF KBFI 281120Z 2812/2912 18005KT P6SM BKN025 BKN060 FM281700
                       22007KT P6SM SCT025 BKN050 FM290900 18007KT
                       P6SM OVC020=
201806280520 TAF KBFI 280520Z 2806/2906 19005KT P6SM BKN060 OVC090 FM281100
                       16005KT P6SM SCT020 BKN030 OVC050 FM281700
                       18006KT P6SM SCT025 BKN035 FM282100 19005KT
                       P6SM SCT035 BKN045 OVC070=
201806272339 TAF KBFI 272339Z 2800/2824 VRB03KT P6SM FEW045 BKN060 BKN150 FM280600
                       17004KT P6SM BKN050 OVC100 FM281100 16005KT
                       P6SM SCT020 BKN030 OVC050 FM281700 18006KT
                       P6SM SCT025 BKN035 FM282100 19005KT P6SM
                       VCSH SCT035 BKN045 OVC070=
201806271732 TAF KBFI 271732Z 2718/2818 29004KT P6SM SCT090 BKN200 FM272200
                       31006KT P6SM SCT045 BKN060 BKN150 FM280600
                       17004KT P6SM BKN050 OVC100 FM281100 16005KT
                       P6SM SCT020 BKN030 OVC050 FM281700 18006KT
                       P6SM SCT025 BKN035=
201806271616 KBFI 271616Z 2716/2812 VRB03KT P6SM BKN200 FM272100 31005KT P6SM
                       SCT045 BKN060 BKN150 FM280600 18005KT P6SM
                       BKN050 OVC100 FM281100 16007KT P6SM BKN030
                       OVC050=
201806271517 KBFI 271517Z 2715/2812 01003KT P6SM BKN200 FM272200 32006KT P6SM
                       SCT045 BKN060 BKN150 FM280600 18005KT P6SM
                       BKN050 OVC100 FM281100 16007KT P6SM BKN030
                       OVC050=
201806271120 TAF KBFI 271120Z 2712/2812 VRB04KT P6SM SCT200 FM271600 24004KT
                       P6SM SCT120 BKN200 FM272000 22005KT P6SM
                       SCT070 BKN120 OVC200 FM280500 19006KT P6SM
                       BKN060 OVC100 FM281100 16007KT P6SM BKN030
                       OVC050=
201806270531 TAF KBFI 270531Z 2706/2806 01007KT P6SM FEW050 SCT250 FM271000
                       02005KT P6SM SCT050 BKN200 FM271500 20007KT
                       P6SM BKN070 BKN120 FM272000 24006KT P6SM
                       SCT050 BKN070 BKN120 FM280500 19004KT P6SM
                       BKN060 OVC100=
201806262322 TAF KBFI 262322Z 2700/2724 33006KT P6SM SCT050 SCT070 FM270400
                       01007KT P6SM FEW050 FM271000 02005KT P6SM
                       SCT050 FM271500 20007KT P6SM BKN070 BKN120
                       FM271800 25006KT P6SM SCT050 BKN070 BKN120=
201806261721 TAF KBFI 261721Z 2618/2718 VRB05KT P6SM FEW030 BKN050 FM261900
                       28005KT P6SM BKN050 FM262100 29006KT P6SM
                       SCT050 FM270000 33008KT P6SM SCT060 FM270400
                       01007KT P6SM FEW050 SCT200 FM271000 02005KT
                       P6SM BKN050=
201806261323 KBFI 261323Z 2613/2712 15004KT P6SM BKN030 BKN045
                      TEMPO 2613/2617 SCT030 BKN050 FM261700 21005KT
                       P6SM SCT035 BKN050 FM262100 31006KT P6SM
                       SCT050 FM270400 VRB04KT P6SM FEW050 SCT200
                       FM271000 VRB03KT P6SM BKN050=
201806261134 TAF KBFI 261134Z 2612/2712 16004KT P6SM BKN027 BKN045
                      TEMPO 2612/2616 SCT030 BKN050 FM261600 21005KT
                       P6SM SCT027 BKN050 FM262100 31006KT P6SM
                       SCT050 FM270400 VRB04KT P6SM FEW050 SCT200
                       FM271000 VRB03KT P6SM BKN050=
201806260524 TAF KBFI 260524Z 2606/2706 VRB03KT P6SM SCT050 BKN080 FM261100
                       16004KT P6SM OVC023 FM261800 24005KT P6SM
                       SCT025 BKN050 FM262100 30006KT P6SM SCT050=
201806260305 KBFI 260305Z 2603/2624 30004KT P6SM FEW050 BKN080 FM260500 VRB04KT
                       P6SM SCT050 BKN080 FM261100 16004KT P6SM
                       OVC023 FM261800 24005KT P6SM SCT040 SCT250
                       FM262100 30006KT P6SM SCT050 BKN250=
201806252320 TAF KBFI 252320Z 2600/2624 19007KT P6SM SCT035 BKN070 FM260300
                       16005KT P6SM SCT035 BKN070 FM260700 15004KT
                       P6SM BKN035 FM261000 16004KT P6SM BKN020
                       OVC030 FM261800 24005KT P6SM SCT040 SCT250
                       FM262100 30006KT P6SM SCT050 BKN250=
201806251741 TAF KBFI 251741Z 2518/2618 21006KT P6SM VCSH SCT010 BKN016 OVC030
                       FM251900 20010KT P6SM VCSH BKN022 BKN040
                       FM252100 22011KT P6SM SCT030 BKN050 FM260700
                       26006KT P6SM BKN035 FM261000 16004KT P6SM
                       BKN020 OVC030
                      TEMPO 2612/2616 BKN012 OVC020=
201806251144 TAF KBFI 251144Z 2512/2612 19007KT P6SM VCSH SCT010 BKN020 OVC030
                       TEMPO 2512/2516 BKN014 OVC020 FM251600 20010KT
                       P6SM VCSH BKN022 BKN040 FM251900 22011KT
                       P6SM SCT030 BKN050 FM252200 23010KT P6SM
                       SCT040 BKN070 FM260700 26006KT P6SM BKN035=
201806251000 KBFI 251000Z 2510/2606 27005KT P6SM VCSH SCT018 BKN060
                      TEMPO 2510/2514 BKN014 OVC040 FM251400 20012KT
                       P6SM VCSH SCT018 BKN035 FM251900 22012KT
                       P6SM BKN050=
201806250520 TAF KBFI 250520Z 2506/2606 VRB04KT P6SM SCT040 OVC080 FM250800
                       VRB04KT P6SM -RA OVC040 FM251000 18008KT
                       P6SM VCSH BKN030 FM251600 20012KT P6SM VCSH
                       BKN030 FM251900 22012KT P6SM BKN050=
201806242335 TAF KBFI 242335Z 2500/2524 32007KT P6SM FEW150 SCT250 FM250400
                       26007KT P6SM SCT050 OVC120 FM250800 18009KT
                       P6SM -RA SCT018 OVC028 FM251500 20011KT
                       P6SM VCSH BKN030 BKN050 FM251900 21011G17KT
                       P6SM BKN050=
201806241729 TAF KBFI 241729Z 2418/2518 33003KT P6SM SKC FM242200 30006KT P6SM
                       SCT200 FM250300 25009KT P6SM BKN060 OVC120
                       FM250800 17008KT P6SM VCSH OVC035=
201806241613 KBFI 241613Z 2416/2512 31004KT P6SM OVC008 FM241800 31004KT P6SM
                       SCT200 FM242000 31007KT P6SM SCT120 BKN200
                       FM250300 22007KT P6SM BKN070 BKN120 FM250800
                       18009KT P6SM -RA OVC035 FM251100 16009KT
                       P6SM -RA OVC025=
201806241222 KBFI 241222Z 2412/2512 VRB03KT P6SM SCT007
                      TEMPO 2413/2416 BKN006 FM241700 31004KT P6SM
                       SCT200 FM242000 31007KT P6SM SCT120 BKN200
                       FM250300 22007KT P6SM BKN070 BKN120 FM250800
                       18009KT P6SM -RA OVC035 FM251100 16009KT
                       P6SM -RA OVC025=
201806241133 TAF KBFI 241133Z 2412/2512 VRB03KT P6SM SKC
                      TEMPO 2412/2415 6SM BR SCT005 FM242000 31007KT
                       P6SM SCT120 BKN200 FM250300 22007KT P6SM
                       BKN070 BKN120 FM250800 18009KT P6SM -RA
                       OVC035 FM251100 16009KT P6SM -RA OVC025=
201806240539 TAF KBFI 240539Z 2406/2506 VRB03KT P6SM SKC FM242000 33007KT P6SM
                       SCT050 SCT120 BKN200 FM250300 21007KT P6SM
                       BKN040 BKN120 FM250500 18008KT P6SM -RA
                       OVC040=
201806232323 TAF KBFI 232323Z 2400/2424 29005KT P6SM SCT040 FM241200 02003KT
                       P6SM SCT014 FM241700 30004KT P6SM SKC=
201806232102 KBFI 232102Z 2321/2418 VRB03KT P6SM BKN027 FM232200 VRB03KT P6SM
                       SCT045 FM241200 00000KT P6SM SCT014=
201806231732 TAF KBFI 231732Z 2318/2418 VRB04KT P6SM BKN013 OVC017 FM232000
                       32006KT P6SM SCT020 BKN040 FM232300 VRB03KT
                       P6SM SCT045 FM241200 00000KT P6SM SCT014=
201806231513 KBFI 231513Z 2315/2412 06004KT P6SM OVC018 FM231700 VRB03KT P6SM
                       SCT015 OVC025 FM231900 VRB03KT P6SM BKN035
                       FM232300 31006KT P6SM SCT040=
201806231131 TAF KBFI 231131Z 2312/2412 VRB03KT 4SM BR SCT012 OVC020 FM231500
                       VRB03KT P6SM SCT015 OVC025 FM231900 VRB03KT
                       P6SM BKN035 FM232300 31006KT P6SM SCT040=
201806230843 KBFI 230843Z 2309/2406 VRB03KT 4SM -RA SCT008 OVC015 FM231000 VRB03KT
                       P6SM SCT015 OVC025 FM231800 33006KT P6SM
                       OVC035 FM232300 33006KT P6SM SCT040=
201806230520 TAF KBFI 230520Z 2306/2406 VRB04KT P6SM -SHRA OVC030 FM230900 33006KT
                       P6SM OVC025 FM231800 33006KT P6SM OVC035
                       FM232300 33006KT P6SM SCT040=
201806222330 TAF KBFI 222330Z 2300/2324 24008KT P6SM BKN045 BKN140 FM230400
                       19005KT P6SM -SHRA OVC040 FM231200 00000KT
                       P6SM BKN020 OVC035 FM231800 28005KT P6SM
                       OVC040 FM232300 31005KT P6SM SCT045=
201806221733 TAF KBFI 221733Z 2218/2318 22005KT P6SM BKN024 OVC030 FM222000
                       22005KT P6SM OVC040 FM230100 VRB03KT P6SM
                       -SHRA OVC040 FM230600 32006KT P6SM -SHRA
                       BKN020 OVC040=
201806221121 TAF KBFI 221121Z 2212/2312 18008KT P6SM OVC030 FM221800 18008KT
                       P6SM OVC035 FM230100 VRB03KT P6SM -SHRA
                       OVC040 FM230600 32006KT P6SM -SHRA BKN020
                       OVC040=
201806220910 KBFI 220910Z 2209/2306 18008KT P6SM BKN035 FM221200 18008KT P6SM
                       OVC030 FM221800 18008KT P6SM OVC035 FM222200
                       30005KT P6SM -SHRA OVC040 FM230300 32008KT
                       P6SM VCSH BKN040=
201806220520 TAF KBFI 220520Z 2206/2306 21006KT P6SM SCT035
                      TEMPO 2206/2209 BKN030 FM220900 20008KT P6SM
                       OVC030 FM221800 22010KT P6SM BKN035 FM222200
                       30005KT P6SM -SHRA OVC040 FM230300 32008KT
                       P6SM VCSH BKN040=
201806212347 TAF KBFI 212347Z 2200/2224 18006KT P6SM BKN035 FM220100 19006KT
                       P6SM SCT040 FM220800 19007KT P6SM OVC019
                       FM221800 21009KT P6SM OVC020 FM222100 22009KT
                       P6SM OVC030=
201806212106 KBFI 212106Z 2121/2218 17005KT P6SM OVC030 FM220000 22006KT P6SM
                       OVC040 FM220800 17007KT P6SM OVC019=
201806211724 TAF KBFI 211724Z 2118/2218 17007KT P6SM FEW018 BKN023 OVC035 FM212200
                       22006KT P6SM SCT040 FM220800 17007KT P6SM
                       OVC019=
201806211130 TAF KBFI 211130Z 2112/2212 18010KT P6SM OVC015 FM211900 18008KT
                       P6SM OVC024 FM212100 18008KT P6SM SCT045
                       BKN150 FM220700 18008KT P6SM OVC025=
201806210758 KBFI 210758Z 2108/2206 19006KT P6SM OVC012 FM211600 16006KT P6SM
                       OVC018 FM211800 22007KT P6SM OVC030 FM212100
                       22007KT P6SM BKN040 FM220000 22007KT P6SM
                       SCT040 FM220500 18006KT P6SM OVC035=
201806210520 TAF KBFI 210520Z 2106/2206 23008KT P6SM SCT010 BKN250 FM210900
                       21008KT P6SM BKN015 FM211600 16006KT P6SM
                       OVC018 FM211800 22007KT P6SM OVC030 FM212100
                       22007KT P6SM BKN040 FM220000 22007KT P6SM
                       SCT040 FM220500 18006KT P6SM OVC035=
201806210059 KBFI 210059Z 2101/2124 31005KT P6SM SCT060 BKN150 BKN250 FM211100
                       18011KT P6SM BKN015 OVC024 FM212000 21010KT
                       P6SM OVC040=
201806202328 TAF KBFI 202328Z 2100/2124 31007KT P6SM SCT060 BKN150 BKN250
                      TEMPO 2101/2104 -TSRA SCT060CB BKN150 BKN250
                       FM210400 21006KT P6SM VCSH BKN250 FM211100
                       18011KT P6SM BKN015 OVC024 FM212000 21010KT
                       P6SM OVC040=
201806201735 TAF KBFI 201735Z 2018/2118 34003KT P6SM SCT120 BKN200 FM202000
                       26006KT P6SM SCT080 BKN120 BKN200
                      TEMPO 2023/2103 -TSRA BKN070CB FM210300 20005KT
                       P6SM VCSH BKN080 BKN120 FM211100 18008KT
                       P6SM BKN017=
201806201122 TAF KBFI 201122Z 2012/2112 VRB03KT P6SM BKN120 BKN200 FM201800
                       25005KT P6SM SCT100 BKN200 FM202000 26006KT
                       P6SM SCT080 BKN120 BKN200
                      PROB30 2023/2103 -TSRA BKN070CB FM210300
                       20005KT P6SM VCSH BKN080 BKN120 FM211100
                       18008KT P6SM BKN018=
201806200905 KBFI 200905Z 2009/2106 VRB04KT P6SM BKN150 FM201200 VRB02KT P6SM
                       BKN120 BKN200 FM201800 25005KT P6SM SCT100
                       BKN200 FM202000 26006KT P6SM SCT080 BKN120
                       BKN200
                      PROB30 2023/2103 -TSRA BKN070CB FM210500
                       19005KT P6SM VCSH BKN080 BKN120=
201806200525 TAF KBFI 200525Z 2006/2106 34005KT P6SM FEW120 SCT200 FM201200
                       VRB02KT P6SM BKN120 BKN250 FM201800 25005KT
                       P6SM SCT060 BKN250=
201806192320 TAF KBFI 192320Z 2000/2024 VRB04KT P6SM FEW120 SCT250 FM201200
                       VRB02KT P6SM FEW009 BKN120 BKN250 FM201800
                       29005KT P6SM FEW060 FEW120 BKN250=
201806191738 TAF KBFI 191738Z 1918/2018 23005KT P6SM SCT120 FM200000 29005KT
                       P6SM SCT120 SCT250 FM200200 VRB02KT P6SM
                       SCT250=
201806191437 KBFI 191437Z 1915/2012 18004KT P6SM SCT010 FM191700 20006KT P6SM
                       SCT200 FM192000 25006KT P6SM FEW120 SCT200
                       FM200200 28004KT P6SM SCT120 SCT200 FM200600
                       VRB03KT P6SM FEW120 BKN200=
201806191136 TAF KBFI 191136Z 1912/2012 17007KT P6SM SCT010 BKN200
                      TEMPO 1912/1916 BKN009 FM191700 20006KT P6SM
                       SCT200 FM192000 25006KT P6SM FEW120 SCT200
                       FM200200 28004KT P6SM SCT120 SCT200 FM200600
                       VRB03KT P6SM FEW120 BKN200=
201806190600 TAF KBFI 190600Z 1906/2006 18005KT P6SM FEW120 BKN250 FM191300
                       17003KT P6SM FEW008 SCT250 FM191700 23004KT
                       P6SM SCT250 FM192000 28005KT P6SM FEW060
                       SCT250 FM200300 VRB03KT P6SM SCT060 BKN150=
201806182327 TAF KBFI 182327Z 1900/1924 23006KT P6SM FEW060 BKN250 FM190300
                       18004KT P6SM BKN250 FM191100 18004KT P6SM
                       SCT008 SCT250 FM191700 23004KT P6SM SCT250
                       FM192000 30004KT P6SM FEW060 SCT250=
201806181749 TAF KBFI 181749Z 1818/1918 19005KT P6SM BKN250 FM182100 26006KT
                       P6SM FEW060 BKN250 FM190300 18004KT P6SM
                       FEW100 BKN250 FM191100 18004KT P6SM SCT008
                       SCT250=
201806181134 TAF KBFI 181134Z 1812/1912 VRB03KT P6SM SCT150 FM181800 25005KT
                       P6SM FEW150 SCT250 FM190300 VRB03KT P6SM
                       FEW150 SCT250 FM191100 17004KT P6SM FEW008
                       SCT250=
201806180550 TAF KBFI 180550Z 1806/1906 VRB03KT P6SM SCT150 SCT250 FM181800
                       31005KT P6SM FEW150 SCT250 FM190300 VRB03KT
                       P6SM FEW150 SCT250=
201806172320 TAF KBFI 172320Z 1800/1824 32009KT P6SM FEW060 SCT250 FM180200
                       VRB03KT P6SM SCT250 FM181800 31005KT P6SM
                       FEW060 SCT250=
201806171741 TAF KBFI 171741Z 1718/1818 34005KT P6SM FEW060 FM172000 31009KT
                       P6SM FEW060 FM180200 VRB03KT P6SM SKC=
201806171136 TAF KBFI 171136Z 1712/1812 33006KT P6SM SKC FM172100 34011KT P6SM
                       SCT250 FM180300 VRB03KT P6SM SCT250=
201806170556 TAF KBFI 170556Z 1706/1806 VRB04KT P6SM FEW050 FEW100 SCT150 FM170900
                       VRB03KT P6SM SCT100 SCT200 FM171800 32008KT
                       P6SM FEW100 SCT200 FM172000 34010G18KT P6SM
                       FEW100 SCT200 FM180400 VRB04KT P6SM SKC=
201806170318 KBFI 170318Z 1703/1724 04005KT P6SM SCT100 BKN150 FM170500 VRB03KT
                       P6SM SCT100 BKN150 FM171800 32010G18KT P6SM
                       SCT100 SCT150=
201806162326 TAF KBFI 162326Z 1700/1724 31008KT P6SM FEW060 BKN250 FM170200
                       36006KT P6SM FEW100 BKN250 FM170500 VRB03KT
                       P6SM SCT250 FM171800 32010KT P6SM SKC=
201806162034 KBFI 162034Z 1621/1718 32011KT P6SM FEW035 SCT060 SCT250 FM170200
                       36006KT P6SM FEW080 SCT250 FM170500 VRB03KT
                       P6SM SCT250=
201806161909 KBFI 161909Z 1619/1718 02008KT P6SM SCT030
                      TEMPO 1619/1621 BKN030 FM162100 32011KT P6SM
                       SCT060 SCT250 FM170200 36006KT P6SM FEW080
                       SCT250 FM170500 VRB03KT P6SM SCT250=
201806161741 TAF KBFI 161741Z 1618/1718 33008KT P6SM SCT027 FM161900 33008KT
                       P6SM FEW040 FM162000 31011KT P6SM SCT060
                       SCT250 FM170200 36006KT P6SM FEW080 SCT250
                       FM170500 VRB03KT P6SM SCT250=
201806161519 KBFI 161519Z 1615/1712 33006KT P6SM OVC025 FM161800 32010KT P6SM
                       SCT035 FM162100 32012KT P6SM SCT150 FM170600
                       02003KT P6SM SKC=
201806161138 TAF KBFI 161138Z 1612/1712 01003KT P6SM SCT035 BKN050 FM161400
                       35003KT P6SM SCT020 BKN030 FM161800 32010KT
                       P6SM SCT030 FM162100 32012KT P6SM SCT150
                       FM170600 02003KT P6SM SKC=
201806160549 TAF KBFI 160549Z 1606/1706 31005KT P6SM SCT080 FM160900 VRB03KT
                       P6SM FEW035 SCT080 FM161300 VRB03KT P6SM
                       SCT035 BKN080 FM161800 36010KT P6SM SCT060
                       SCT120 FM170300 02005KT P6SM FEW060 SCT100
                       FM170500 VRB03KT P6SM SCT100=
201806160213 KBFI 160213Z 1602/1624 32007G16KT P6SM FEW040 FEW070 FM160400 VRB04KT
                       P6SM FEW040 FEW070 FM160600 VRB02KT P6SM
                       SCT035 FM161400 35004KT P6SM SCT030 SCT070
                       SCT250 FM161800 31009KT P6SM FEW045 SCT250=
201806152341 TAF KBFI 152341Z 1600/1624 31009KT P6SM SCT060 FM160200 31005KT
                       P6SM SCT070 FM160600 VRB02KT P6SM BKN070
                       FM161400 35004KT P6SM SCT027 SCT070 SCT250
                       FM161800 31009KT P6SM FEW045 SCT250=
201806151807 KBFI 151807Z 1518/1618 30006KT P6SM SCT022 SCT040
                      TEMPO 1518/1519 BKN022 BKN040 FM152000 30007KT
                       P6SM SCT050 FM160200 30004KT P6SM SCT070
                       FM160600 VRB02KT P6SM BKN070 FM161400 35004KT
                       P6SM SCT027 SCT070 SCT250=
201806151740 TAF KBFI 151740Z 1518/1618 33006KT P6SM FEW022 SCT040 FM152000
                       30007KT P6SM SCT050 FM160200 30004KT P6SM
                       SCT070 FM160600 VRB02KT P6SM BKN070 FM161400
                       35004KT P6SM SCT027 SCT070 SCT250=
201806151442 KBFI 151442Z 1515/1612 VRB03KT P6SM FEW017 BKN040 FM151800 30005KT
                       P6SM SCT050 FM152000 31007KT P6SM SKC FM160600
                       VRB03KT P6SM SCT060=
201806151130 TAF KBFI 151130Z 1512/1612 00000KT P6SM SCT060 FM151400 VRB03KT
                       P6SM SCT020 BKN030 FM151700 30005KT P6SM
                       SCT030 BKN040 FM152000 31007KT P6SM SKC
                       FM160600 VRB03KT P6SM SCT060=
201806150530 TAF KBFI 150530Z 1506/1606 31003KT P6SM FEW070 FM151300 00000KT
                       P6SM SCT020 BKN030 FM151800 29006KT P6SM
                       SCT035 BKN050 FM160000 30006KT P6SM SCT050
                       BKN250=
201806142322 TAF KBFI 142322Z 1500/1524 28005KT P6SM SCT040 BKN070 FM150400
                       VRB03KT P6SM SCT035 BKN060 FM151300 00000KT
                       P6SM SCT020 BKN030 FM151800 29006KT P6SM
                       SCT035 BKN050=
201806141731 TAF KBFI 141731Z 1418/1518 VRB05KT P6SM SCT025 BKN035 BKN080 FM141900
                       21005KT P6SM SCT030 BKN050 BKN080 FM150100
                       35005KT P6SM SCT040 BKN050 FM151300 00000KT
                       P6SM SCT020 BKN030=
201806141133 TAF KBFI 141133Z 1412/1512 17005KT P6SM SCT018 BKN025 OVC035
                      TEMPO 1413/1417 BKN018 OVC025 FM141700 18005KT
                       P6SM SCT025 BKN035 FM141900 19005KT P6SM
                       SCT030 BKN040 FM142100 23005KT P6SM SCT035
                       BKN050 FM150100 35006KT P6SM SCT040 BKN050=
201806140912 KBFI 140912Z 1409/1506 15005KT P6SM VCSH SCT018 BKN030
                      TEMPO 1409/1413 BKN018 OVC030 FM141300 16005KT
                       P6SM BKN018 BKN030 FM141700 18005KT P6SM
                       SCT025 BKN050 FM142100 22004KT P6SM SCT035
                       BKN050 FM150100 31004KT P6SM SCT040 BKN050=
201806140537 TAF KBFI 140537Z 1406/1506 06008KT P6SM VCSH BKN026 BKN030 OVC050
                       TEMPO 1406/1410 SCT030 BKN080 FM141200 18006KT
                       P6SM OVC020 FM141700 21006KT P6SM SCT025
                       BKN050 FM142100 VRB05KT P6SM BKN050=
201806140336 KBFI 140336Z 1404/1424 04008KT P6SM VCSH BKN026 OVC035
                      TEMPO 1404/1407 SCT030 BKN080 FM140900 18006KT
                       P6SM BKN025 FM141700 21006KT P6SM SCT025
                       BKN050=
201806132320 TAF KBFI 132320Z 1400/1424 24010KT P6SM VCSH BKN050
                      TEMPO 1400/1404 VRB04KT -SHRA FM140900 18006KT
                       P6SM BKN025 FM141700 21006KT P6SM SCT025
                       BKN050=
201806131720 TAF KBFI 131720Z 1318/1418 20012G20KT P6SM VCSH BKN040 FM132200
                       24010KT P6SM VCSH BKN040
                      TEMPO 1400/1404 VRB06KT -SHRA BKN035 FM140900
                       18006KT P6SM BKN025 FM141700 21006KT P6SM
                       SCT025 BKN050=
201806131128 TAF KBFI 131128Z 1312/1412 15006KT P6SM -RA OVC050
                      TEMPO 1312/1315 -RA BKN030 OVC045 FM131500
                       16009KT P6SM -RA OVC027 FM131800 21010KT
                       P6SM VCSH BKN035 BKN060
                      TEMPO 1323/1403 33006KT -SHRA BKN030 FM140900
                       16006KT P6SM OVC018=
201806130520 TAF KBFI 130520Z 1306/1406 00000KT P6SM BKN080 OVC120 FM131000
                       15006KT P6SM -RA OVC045 FM131300 16009KT
                       P6SM -RA OVC022 FM131800 21010KT P6SM VCSH
                       BKN035 BKN060=
201806122324 TAF KBFI 122324Z 1300/1324 31011KT P6SM OVC140 FM130400 VRB04KT
                       P6SM OVC080 FM130700 17005KT P6SM OVC050
                       FM131100 16008KT P6SM -RA OVC030 FM131600
                       16008KT P6SM VCSH BKN030 OVC050 FM132000
                       15005KT P6SM -SHRA SCT030 BKN050=
201806121732 TAF KBFI 121732Z 1218/1318 VRB04KT P6SM FEW150 BKN250 FM121900
                       33005KT P6SM FEW150 BKN250 FM130000 22005KT
                       P6SM OVC150 FM130700 17005KT P6SM OVC050
                       FM131100 16008KT P6SM -RA OVC030 FM131600
                       18010KT P6SM VCSH BKN030 OVC050=
201806121142 TAF KBFI 121142Z 1212/1312 00000KT P6SM SKC FM121900 33005KT P6SM
                       BKN250 FM130000 22006KT P6SM OVC200 FM130700
                       16006KT P6SM -RA OVC070 FM131100 16009KT
                       P6SM -RA OVC035=
201806120530 TAF KBFI 120530Z 1206/1306 00000KT P6SM FEW070 FM121900 33005KT
                       P6SM BKN250 FM130000 22006KT P6SM OVC250=
201806112320 TAF KBFI 112320Z 1200/1224 00000KT P6SM SCT060 FM120400 VRB02KT
                       P6SM SKC FM121900 33005KT P6SM BKN250=
201806112052 KBFI 112052Z 1121/1218 VRB03KT P6SM SCT040 BKN050 FM112300 32005KT
                       P6SM SCT050 FM120400 VRB02KT P6SM SKC=
201806111725 TAF KBFI 111725Z 1118/1218 00000KT P6SM SCT018 BKN040 FM111900
                       26005KT P6SM SCT040
                      TEMPO 1119/1121 BKN040 FM112100 30006KT P6SM
                       SCT050 FM120400 VRB02KT P6SM SKC=
201806111130 TAF KBFI 111130Z 1112/1212 VRB04KT P6SM SCT020 BKN030
                      TEMPO 1112/1116 BKN014 FM111600 22004KT P6SM
                       SCT022 BKN035 FM111900 26005KT P6SM SCT040
                       FM112200 30006KT P6SM SCT050 FM120400 34004KT
                       P6SM SKC=
201806110901 KBFI 110901Z 1109/1206 VRB04KT P6SM SCT020 BKN045
                      TEMPO 1109/1113 BKN017 FM111300 15004KT P6SM
                       SCT015 BKN020 FM111700 22004KT P6SM SCT020
                       BKN030 FM111900 26005KT P6SM SCT040 FM112200
                       30006KT P6SM SCT050 FM120400 34004KT P6SM
                       SKC=
201806110538 TAF KBFI 110538Z 1106/1206 17004KT P6SM SCT020 BKN045
                      TEMPO 1106/1107 -SHRA FM111300 15004KT P6SM
                       SCT015 BKN020 FM111700 22004KT P6SM SCT020
                       BKN030 FM111900 26005KT P6SM SCT040 FM112200
                       30006KT P6SM SCT050 FM120400 34004KT P6SM
                       SKC=
201806110311 KBFI 110311Z 1103/1124 18003KT P6SM -SHRA SCT025 BKN045 OVC060
                       FM110600 17004KT P6SM SCT025 BKN040 FM111300
                       15004KT P6SM SCT015 BKN020 FM111700 22004KT
                       P6SM SCT020 BKN030 FM111900 26005KT P6SM
                       SCT040 FM112200 30006KT P6SM SCT050=
201806102320 TAF KBFI 102320Z 1100/1124 21010KT P6SM SCT035 BKN060
                      TEMPO 1100/1104 -SHRA BKN035 OVC060 FM110400
                       VRB04KT P6SM -SHRA BKN030 OVC060 FM111100
                       VRB04KT P6SM BKN020 FM111700 24005KT P6SM
                       SCT025 BKN050 FM112200 32006KT P6SM SCT050=
201806102116 KBFI 102116Z 1021/1118 25012G22KT P6SM -SHRA BKN040 FM102200 25012KT
                       P6SM VCSH BKN040 FM111100 VRB04KT P6SM BKN025
                       FM111700 24005KT P6SM SCT025 BKN050=
201806101720 TAF KBFI 101720Z 1018/1118 18010KT P6SM VCSH BKN060
                      TEMPO 1018/1022 -SHRA BKN040 FM102200 22008KT
                       P6SM -SHRA BKN040 FM110400 VRB04KT P6SM
                       VCSH BKN035 FM111100 VRB04KT P6SM BKN025
                       FM111700 VRB04KT P6SM SCT025 BKN050=
201806101139 TAF KBFI 101139Z 1012/1112 17008KT P6SM VCSH SCT045 SCT080
                      TEMPO 1012/1016 BKN040 FM101600 18009KT P6SM
                       VCSH BKN040 BKN060 FM102100 18008KT P6SM
                       -SHRA SCT035 BKN045 FM110700 18004KT P6SM
                       SCT022 BKN035 FM111100 VRB03KT P6SM OVC025=
201806100902 KBFI 100902Z 1009/1106 17008KT P6SM SCT045 SCT080
                      TEMPO 1010/1014 BKN040 FM101400 16008KT P6SM
                       VCSH BKN040 FM101900 18009KT P6SM VCSH SCT025
                       BKN040 FM102300 18006KT P6SM -SHRA SCT035
                       BKN045=
201806100536 TAF KBFI 100536Z 1006/1106 17004KT P6SM VCSH SCT030 BKN040 BKN060
                       FM101000 16007KT P6SM VCSH BKN025 FM101900
                       18009KT P6SM VCSH SCT025 BKN040 FM102300
                       18006KT P6SM -SHRA SCT035 BKN045=
201806100040 KBFI 100040Z 1001/1024 23005KT P6SM VCSH SCT040 BKN060
                      TEMPO 1001/1004 35006KT -SHRA BKN040 BKN060
                       FM100900 16006KT P6SM BKN020 FM101800 21010KT
                       P6SM -SHRA BKN035 FM102300 32008KT P6SM
                       VCSH BKN050=
201806092320 TAF KBFI 092320Z 1000/1024 VRB04KT P6SM VCSH BKN050
                      TEMPO 1000/1004 -SHRA BKN035 FM100900 16006KT
                       P6SM BKN020 FM101800 21010KT P6SM -SHRA
                       BKN035 FM102300 32008KT P6SM VCSH BKN050=
201806091720 TAF KBFI 091720Z 0918/1018 22005KT P6SM VCSH SCT020 BKN040
                      TEMPO 0918/0921 BKN020 OVC040 FM092100 30006KT
                       P6SM -SHRA BKN025 BKN050 FM100300 VRB04KT
                       P6SM VCSH SCT025 BKN040 FM101000 18006KT
                       P6SM BKN015 OVC025 FM101600 18008KT P6SM
                       -SHRA BKN018 OVC030=
201806091627 KBFI 091627Z 0916/1012 VRB04KT P6SM BKN015 BKN040 FM092100 VRB04KT
                       P6SM -SHRA BKN030 BKN060 FM100400 16005KT
                       P6SM VCSH SCT025 BKN040 FM100900 20010KT
                       P6SM BKN022 OVC030=
201806091120 TAF KBFI 091120Z 0912/1012 22006KT P6SM VCSH SCT020 BKN035 OVC050
                       TEMPO 0912/0916 BKN020 FM092000 21007KT
                       P6SM VCSH SCT030 BKN040 FM092300 33006KT
                       P6SM -SHRA BKN030 OVC040 FM100400 VRB03KT
                       P6SM VCSH SCT025 BKN040 FM100900 20010KT
                       P6SM BKN025 OVC030=
201806090538 TAF KBFI 090538Z 0906/1006 21004KT P6SM -RA SCT012 BKN016 OVC025
                       TEMPO 0906/0907 6SM -RA BR BKN012 OVC016
                       FM091000 17005KT P6SM VCSH BKN015 BKN025
                       FM091800 19007KT P6SM VCSH SCT018 BKN030
                       FM092000 21007KT P6SM VCSH SCT030 BKN040
                       FM092300 33006KT P6SM -SHRA BKN030 OVC040
                       FM100400 VRB03KT P6SM VCSH SCT025 BKN040=
201806090318 KBFI 090318Z 0903/0924 VRB03KT P6SM -SHRA SCT009 BKN030 FM090600
                       17005KT 6SM -RA BR SCT008 BKN015 OVC025
                       FM091200 17005KT P6SM VCSH BKN015 BKN025
                       FM091800 19007KT P6SM VCSH SCT018 BKN030
                       FM092000 21007KT P6SM VCSH SCT030 BKN040
                       FM092300 33006KT P6SM -SHRA BKN030 OVC040=
201806082320 TAF KBFI 082320Z 0900/0924 VRB03KT P6SM -RA SCT020 OVC040
                      TEMPO 0900/0904 4SM -RA BR BKN015 OVC040
                       FM090400 VRB03KT 5SM -RA BR BKN015 OVC040
                       TEMPO 0905/0909 3SM -RA BR OVC012 FM091200
                       20007KT P6SM -SHRA BKN012 BKN030 FM092000
                       30007KT P6SM VCSH SCT020 BKN040=
201806081721 TAF KBFI 081721Z 0818/0918 17008KT P6SM SCT035 OVC060 FM082100
                       20010KT P6SM -RA SCT025 OVC040 FM082300
                       19005KT 6SM -RA BR SCT012 BKN018 OVC035
                       FM090200 20005KT P6SM -SHRA SCT015 BKN025
                       OVC050 FM091000 17005KT P6SM -SHRA OVC015=
201806081215 TAF KBFI 081215Z 0812/0912 14007KT P6SM BKN040 OVC050 FM081600
                       17008KT P6SM SCT035 BKN120 FM082100 20010KT
                       P6SM -RA SCT025 OVC040 FM082300 19005KT
                       6SM -RA BR SCT012 BKN018 OVC035 FM090200
                       20005KT P6SM -SHRA SCT015 BKN025 OVC050=
201806080539 TAF KBFI 080539Z 0806/0906 18005KT P6SM SCT045 BKN100 FM081000
                       16006KT P6SM SCT025 BKN040 OVC090 FM081600
                       17008KT P6SM SCT035 BKN120 FM082100 20010KT
                       P6SM -RA SCT025 OVC040 FM082300 19005KT
                       6SM -RA BR SCT012 BKN018 OVC035 FM090200
                       20005KT P6SM -SHRA SCT015 BKN025 OVC050=
201806072320 TAF KBFI 072320Z 0800/0824 23008KT P6SM SCT035 BKN050 OVC200 FM080600
                       18008KT P6SM BKN035 OVC050 FM081200 16008KT
                       P6SM OVC025 FM081800 20010KT P6SM BKN035
                       OVC050 FM082200 21010KT P6SM -RA OVC035=
201806071720 TAF KBFI 071720Z 0718/0818 18008KT P6SM SCT025 BKN040 BKN200 FM081000
                       18008KT P6SM OVC020=
201806071130 TAF KBFI 071130Z 0712/0812 15006KT P6SM BKN030
                      TEMPO 0712/0713 SCT030 FM071300 18007KT P6SM
                       OVC030 FM071800 19008KT P6SM SCT030 BKN250
                       FM080400 18004KT P6SM OVC100=
201806070906 KBFI 070906Z 0709/0806 19006KT P6SM BKN220 FM071200 16006KT P6SM
                       SCT018
                      TEMPO 0712/0716 BKN018 FM071700 VRB04KT P6SM
                       SCT030 FM072000 24007KT P6SM SCT040 FM080400
                       22006KT P6SM BKN040=
201806070520 TAF KBFI 070520Z 0706/0806 VRB04KT P6SM BKN250 FM071200 16006KT
                       P6SM BKN018 FM071700 VRB04KT P6SM SCT030
                       FM072000 24007KT P6SM SCT040 FM080400 22006KT
                       P6SM BKN040=
201806062324 TAF KBFI 062324Z 0700/0724 VRB04KT P6SM BKN250 FM071200 16006KT
                       P6SM BKN018 FM071700 VRB04KT P6SM SCT030=
201806061720 TAF KBFI 061720Z 0618/0718 VRB04KT P6SM FEW040 SCT250 FM062200
                       32007KT P6SM SCT040 SCT250 FM070800 VRB03KT
                       P6SM SCT030 SCT250 FM071200 16006KT P6SM
                       BKN018 FM071700 VRB04KT P6SM SCT030=
201806061125 TAF KBFI 061125Z 0612/0712 13006KT P6SM SKC FM061800 22005KT P6SM
                       SCT250 FM070200 30006KT P6SM SCT250 FM070900
                       18003KT P6SM BKN250=
201806060523 TAF KBFI 060523Z 0606/0706 VRB04KT P6SM SCT200 FM060900 VRB04KT
                       P6SM SCT070 SCT100 FM062000 28006KT P6SM
                       FEW070 SCT250 FM070400 VRB03KT P6SM SCT250=
201806052328 TAF KBFI 052328Z 0600/0624 20008KT P6SM BKN070 FM060400 VRB04KT
                       P6SM BKN070 FM061800 23006KT P6SM FEW050
                       SCT100=
201806051720 TAF KBFI 051720Z 0518/0618 17006KT P6SM SCT050 BKN150 FM060300
                       VRB04KT P6SM SCT050 BKN100 BKN150 FM060800
                       VRB04KT P6SM SCT020 SCT050 BKN120=
201806051213 TAF KBFI 051213Z 0512/0612 00000KT P6SM SCT090 FM051800 20008KT
                       P6SM SCT060 BKN120 FM060000 23006KT P6SM
                       SCT050 BKN110=
201806050520 TAF KBFI 050520Z 0506/0606 VRB03KT P6SM SCT050 SCT250 FM051000
                       VRB03KT P6SM BKN060 BKN150 FM051800 20008KT
                       P6SM SCT060 BKN120 FM060000 23006KT P6SM
                       SCT050 BKN110=
201806042320 TAF KBFI 042320Z 0500/0524 35005KT P6SM SCT050 BKN070 BKN250 FM050300
                       VRB03KT P6SM SCT050 BKN250 FM051000 VRB03KT
                       P6SM BKN060 BKN150 FM051800 15005KT P6SM
                       SCT060 BKN120=
201806041735 TAF KBFI 041735Z 0418/0518 12004KT P6SM BKN020 BKN045
                      TEMPO 0418/0420 5SM -DZ BR OVC020 FM042100
                       30006KT P6SM SCT020 SCT050 BKN250 FM050300
                       VRB03KT P6SM SCT050 BKN250 FM051000 VRB03KT
                       P6SM BKN060=
201806041138 TAF KBFI 041138Z 0412/0512 06007KT P6SM BKN024 OVC035 FM041800
                       19007KT P6SM SCT025 BKN045 FM042100 22010KT
                       P6SM SCT050 BKN250 FM050100 30006KT P6SM
                       SCT050 BKN250=
201806040905 KBFI 040905Z 0409/0506 06006KT P6SM OVC024 FM041700 20009KT P6SM
                       SCT025 BKN060 FM050000 28008KT P6SM SCT020
                       BKN050=
201806040520 TAF KBFI 040520Z 0406/0506 VRB04KT P6SM SCT025 BKN040 FM041700
                       20009KT P6SM SCT025 BKN060 FM050000 28008KT
                       P6SM SCT020 BKN050=
201806032321 TAF KBFI 032321Z 0400/0424 33005KT P6SM -RA SCT025 OVC050
                      TEMPO 0400/0404 5SM -RA BR OVC025 FM040500
                       VRB04KT P6SM SCT025 BKN040 FM041700 20009KT
                       P6SM SCT025 BKN060=
201806032320 TAF KBFI 032320Z 0400/0424 33005KT P6SM -RA SCT025 OVC050
                      TEMPO 0400/0404 5SM -RA BR OVC025 FM040500
                       VRB04KT P6SM SCT025 BKN040 FM041700 20009KT
                       P6SM SCT025 BKN060=
201806031738 TAF KBFI 031738Z 0318/0418 00000KT P6SM FEW060 SCT250 FM031900
                       22006KT P6SM OVC050 FM032100 21009KT P6SM
                       -RA BKN035 OVC050 FM040000 21008KT P6SM
                       VCSH SCT035 OVC050 FM041000 16005KT P6SM
                       OVC023 FM041600 20009KT P6SM SCT025 BKN040=
201806031135 TAF KBFI 031135Z 0312/0412 00000KT P6SM FEW060 SCT250 FM031900
                       22006KT P6SM OVC050 FM032100 21009KT P6SM
                       -RA BKN035 OVC050 FM040000 21008KT P6SM
                       VCSH SCT035 OVC050 FM041000 16005KT P6SM
                       OVC021=
201806030523 TAF KBFI 030523Z 0306/0406 VRB03KT P6SM FEW100 SCT200 FM031000
                       VRB03KT P6SM BKN100 OVC150 FM031800 25007KT
                       P6SM -RA BKN030 OVC080 FM032100 20010KT
                       P6SM -RA OVC030 FM040200 18007KT P6SM BKN035
                       BKN060=
201806022320 TAF KBFI 022320Z 0300/0324 30005KT P6SM SCT100 BKN200 FM030600
                       VRB03KT P6SM SCT100 BKN200 FM031000 VRB03KT
                       P6SM BKN100 OVC150 FM031800 15007KT P6SM
                       -RA BKN030 OVC080 FM032000 18010G18KT P6SM
                       -RA OVC030=
201806021720 TAF KBFI 021720Z 0218/0318 VRB03KT P6SM BKN100 FM021900 30005KT
                       P6SM BKN100 BKN200 FM030100 32004KT P6SM
                       SCT100 BKN200 FM030500 00000KT P6SM SCT100
                       BKN200 FM031000 VRB03KT P6SM BKN100 OVC150=
201806021120 TAF KBFI 021120Z 0212/0312 15007KT P6SM BKN070 OVC100 FM021700
                       VRB03KT P6SM BKN100 FM021900 30005KT P6SM
                       BKN100 BKN200 FM030100 32004KT P6SM SCT100
                       BKN200 FM030500 00000KT P6SM BKN200=
201806020900 KBFI 020900Z 0209/0306 VRB04KT P6SM BKN100 OVC250 FM021700 30005KT
                       P6SM BKN100 BKN200 FM030100 32004KT P6SM
                       SCT100 BKN200=
201806020523 TAF KBFI 020523Z 0206/0306 VRB03KT P6SM SCT100 BKN250 FM020800
                       VRB04KT P6SM BKN040 BKN100 BKN200 FM021200
                       VRB04KT P6SM BKN035 BKN100 OVC200 FM021700
                       30005KT P6SM SCT045 BKN200 FM030100 32004KT
                       P6SM SCT050 SCT200=
201806012320 TAF KBFI 012320Z 0200/0224 21008KT P6SM SCT030 SCT050 BKN150 FM020300
                       24006KT P6SM SCT060 BKN150 BKN200 FM020700
                       VRB04KT P6SM BKN040 BKN150 BKN200 FM021200
                       VRB04KT P6SM BKN035 BKN150 OVC200 FM021700
                       33005KT P6SM SCT045 BKN200=
201806011720 TAF KBFI 011720Z 0118/0218 21008KT P6SM SCT030 SCT050
                      TEMPO 0118/0119 BKN025 FM020300 24006KT P6SM
                       SCT060 SCT200 FM020700 VRB04KT P6SM BKN050
                       BKN200 FM021200 VRB04KT P6SM BKN035 BKN150
                       OVC200=
201806011125 TAF KBFI 011125Z 0112/0212 16010KT P6SM BKN026 BKN070 FM011800
                       21008KT P6SM SCT040 FM012000 23010KT P6SM
                       SCT040 SCT050 SCT150 FM020300 20005KT P6SM
                       OVC050 FM020800 16005KT P6SM OVC050=
201806010842 KBFI 010842Z 0109/0206 17007KT P6SM BKN026 OVC070 FM011800 21008KT
                       P6SM SCT030 BKN040 FM012000 23010KT P6SM
                       FEW035 SCT050 SCT150 FM020300 18004KT P6SM
                       OVC050=
201806010521 TAF KBFI 010521Z 0106/0206 22007KT P6SM VCSH FEW035 BKN050 BKN080
                       FM010700 21010KT P6SM SCT035 OVC060 FM010900
                       18008KT P6SM OVC025 FM011800 21008KT P6SM
                       SCT030 BKN040 FM012000 23010KT P6SM FEW035
                       SCT050 SCT150 FM020300 18004KT P6SM OVC050=