##########################################################
# Query made at 02/17/2025 05:51:33 UTC
# Time interval: from 05/01/2019 00:00  to 05/31/2019 23:59  UTC
##########################################################

##########################################################
# KBFI, Seattle, Seattle Boeing Field (United States)
# WMO index: -----. WIGOS ID: Unknown
# Latitude 47-32-45N. Longitude 122-18-49W. Altitude 5 m.
##########################################################

###################################
#  METAR/SPECI from KBFI
###################################
201905312353 METAR KBFI 312353Z 30004KT 10SM CLR 24/11 A3001 RMK AO2 SLP161 T02390106 10244 20156 58020=
201905312253 METAR KBFI 312253Z 00000KT 10SM CLR 23/12 A3003 RMK AO2 SLP169 T02280122=
201905312153 METAR KBFI 312153Z VRB05KT 10SM CLR 21/13 A3005 RMK AO2 SLP174 T02110128=
201905312053 METAR KBFI 312053Z 33004KT 10SM CLR 21/13 A3007 RMK AO2 SLP181 T02060128 58013=
201905311953 METAR KBFI 311953Z 00000KT 8SM SCT014 18/12 A3009 RMK AO2 SLP187 T01830122=
201905311856 SPECI KBFI 311856Z 31004KT 6SM OVC011 17/12 A3010 RMK AO2 T01670122=
201905311853 METAR KBFI 311853Z VRB04KT 5SM BR OVC008 17/12 A3010 RMK AO2 SLP192 T01670117=
201905311753 METAR KBFI 311753Z 00000KT 5SM BR OVC008 16/12 A3010 RMK AO2 SLP193 T01560117 10156 20133 50000=
201905311653 METAR KBFI 311653Z 00000KT 5SM BR OVC004 14/12 A3011 RMK AO2 SLP195 T01390117=
201905311553 METAR KBFI 311553Z 32003KT 5SM BR OVC004 13/11 A3011 RMK AO2 SLP196 T01330111=
201905311453 METAR KBFI 311453Z 31003KT 5SM BR OVC004 13/11 A3010 RMK AO2 SLP193 T01330111 51008=
201905311357 SPECI KBFI 311357Z 00000KT 5SM BR OVC004 13/12 A3010 RMK AO2 T01330117=
201905311353 METAR KBFI 311353Z 00000KT 10SM OVC004 13/12 A3010 RMK AO2 SLP192 T01330117=
201905311253 METAR KBFI 311253Z VRB03KT 5SM BR OVC006 13/11 A3009 RMK AO2 SLP190 T01330111=
201905311210 SPECI KBFI 311210Z 00000KT 5SM BR BKN007 13/11 A3008 RMK AO2 T01330111=
201905311153 METAR KBFI 311153Z 25003KT 6SM BR SCT008 13/11 A3008 RMK AO2 SLP185 T01330111 10194 20133 53006=
201905311053 METAR KBFI 311053Z 28004KT 10SM CLR 14/11 A3007 RMK AO2 SLP183 T01390111=
201905310953 METAR KBFI 310953Z 00000KT 10SM CLR 14/11 A3006 RMK AO2 SLP179 T01390106=
201905310853 METAR KBFI 310853Z 00000KT 10SM CLR 15/11 A3006 RMK AO2 SLP179 T01500111 52018=
201905310753 METAR KBFI 310753Z VRB03KT 10SM CLR 16/11 A3004 RMK AO2 SLP173 T01610111 402440128=
201905310653 METAR KBFI 310653Z 33003KT 10SM CLR 18/11 A3003 RMK AO2 SLP168 T01780111=
201905310553 METAR KBFI 310553Z 00000KT 10SM CLR 19/11 A3001 RMK AO2 SLP161 T01940111 10244 20189 53009=
201905310453 METAR KBFI 310453Z 00000KT 10SM CLR 21/11 A3000 RMK AO2 SLP158 T02060106=
201905310353 METAR KBFI 310353Z 36003KT 10SM CLR 22/10 A2998 RMK AO2 SLP153 T02220100=
201905310253 METAR KBFI 310253Z 33003KT 10SM CLR 23/10 A2998 RMK AO2 SLP152 T02280100 55000=
201905310153 METAR KBFI 310153Z AUTO VRB05KT 10SM CLR 23/11 A2997 RMK AO2 SLP150 T02330111=
201905310053 METAR KBFI 310053Z VRB04KT 10SM FEW200 23/11 A2998 RMK AO2 SLP150 T02330106=
201905302353 METAR KBFI 302353Z VRB04KT 10SM CLR 24/11 A2998 RMK AO2 SLP152 T02390106 10244 20144 56009=
201905302253 METAR KBFI 302253Z VRB05KT 10SM CLR 22/11 A2999 RMK AO2 SLP154 T02220111=
201905302153 METAR KBFI 302153Z 30005KT 10SM CLR 22/12 A2999 RMK AO2 SLP156 T02220117=
201905302053 METAR KBFI 302053Z VRB04KT 10SM CLR 20/12 A3001 RMK AO2 SLP161 T02000122 58011=
201905301953 METAR KBFI 301953Z VRB03KT 10SM CLR 18/12 A3002 RMK AO2 SLP167 T01830117=
201905301910 SPECI KBFI 301910Z 00000KT 10SM SCT016 17/11 A3003 RMK AO2 T01670111=
201905301853 METAR KBFI 301853Z 00000KT 8SM BR OVC014 17/11 A3004 RMK AO2 SLP171 T01670111=
201905301835 SPECI KBFI 301835Z 00000KT 8SM BR OVC014 16/11 A3004 RMK AO2 T01610111=
201905301753 METAR KBFI 301753Z 00000KT 6SM BR OVC008 14/11 A3004 RMK AO2 SLP172 T01440111 10150 20128 52007=
201905301653 METAR KBFI 301653Z VRB04KT 6SM BR OVC006 14/11 A3003 RMK AO2 SLP169 T01440111=
201905301553 METAR KBFI 301553Z 33003KT 10SM BR OVC009 14/11 A3003 RMK AO2 SLP168 T01390106=
201905301453 METAR KBFI 301453Z 13003KT 4SM BR OVC007 13/11 A3002 RMK AO2 SLP164 T01330106 51009=
201905301353 METAR KBFI 301353Z 00000KT 10SM OVC008 13/11 A3001 RMK AO2 SLP161 T01330106=
201905301253 METAR KBFI 301253Z 25003KT 10SM OVC007 13/11 A3000 RMK AO2 SLP159 T01280106=
201905301201 SPECI KBFI 301201Z VRB03KT 10SM OVC008 13/10 A2999 RMK AO2 T01280100=
201905301153 METAR KBFI 301153Z 32003KT 10SM OVC011 13/10 A2999 RMK AO2 SLP155 T01280100 10172 20128 51006=
201905301053 METAR KBFI 301053Z 00000KT 10SM CLR 13/10 A2999 RMK AO2 SLP154 T01280100=
201905300953 METAR KBFI 300953Z 27003KT 10SM CLR 13/10 A2998 RMK AO2 SLP151 T01280100=
201905300853 METAR KBFI 300853Z 28003KT 10SM CLR 14/10 A2997 RMK AO2 SLP149 T01390100 53003=
201905300753 METAR KBFI 300753Z 32003KT 10SM CLR 15/11 A2997 RMK AO2 SLP149 T01500106 402170122=
201905300653 METAR KBFI 300653Z AUTO 00000KT 10SM CLR 17/11 A2996 RMK AO2 SLP144 T01670111=
201905300553 METAR KBFI 300553Z VRB03KT 10SM CLR 17/11 A2996 RMK AO2 SLP146 T01670111 10217 20167 53005=
201905300453 METAR KBFI 300453Z 25003KT 10SM CLR 18/10 A2996 RMK AO2 SLP145 T01830100=
201905300353 METAR KBFI 300353Z 00000KT 10SM CLR 19/10 A2995 RMK AO2 SLP141 T01940100=
201905300253 METAR KBFI 300253Z 31004KT 10SM CLR 20/09 A2995 RMK AO2 SLP141 T02000094 56011=
201905300153 METAR KBFI 300153Z VRB03KT 10SM FEW035 21/10 A2996 RMK AO2 SLP144 T02060100=
201905300053 METAR KBFI 300053Z 00000KT 10SM FEW035 21/09 A2997 RMK AO2 SLP147 T02110094=
201905300000 SPECI KBFI 300000Z 00000KT 10SM FEW038 21/10 A2998 RMK AO2 T02110100=
201905292353 METAR KBFI 292353Z 35004KT 10SM BKN029 22/10 A2998 RMK AO2 SLP152 T02170100 10217 20150 56013=
201905292253 METAR KBFI 292253Z VRB04KT 10SM BKN029 21/11 A2999 RMK AO2 SLP154 T02060106=
201905292153 METAR KBFI 292153Z VRB03KT 10SM BKN029 19/10 A3000 RMK AO2 SLP159 T01940100=
201905292053 METAR KBFI 292053Z VRB03KT 10SM BKN028 18/10 A3002 RMK AO2 SLP165 T01830100 58012=
201905291953 METAR KBFI 291953Z VRB06KT 10SM BKN025 17/10 A3004 RMK AO2 SLP170 T01720100=
201905291853 METAR KBFI 291853Z 00000KT 10SM OVC022 16/09 A3005 RMK AO2 SLP174 T01610094=
201905291753 METAR KBFI 291753Z 16005KT 10SM OVC019 16/09 A3005 RMK AO2 SLP176 T01560094 10156 20122 58007=
201905291653 METAR KBFI 291653Z 19005KT 10SM OVC018 14/09 A3006 RMK AO2 SLP180 T01390089=
201905291553 METAR KBFI 291553Z 20004KT 10SM BKN015 OVC021 14/09 A3007 RMK AO2 SLP183 T01390094=
201905291453 METAR KBFI 291453Z VRB03KT 10SM OVC013 13/09 A3007 RMK AO2 SLP183 T01280094 52001=
201905291353 METAR KBFI 291353Z 22003KT 10SM SCT010 OVC012 13/09 A3007 RMK AO2 SLP183 T01280094=
201905291253 METAR KBFI 291253Z 25004KT 10SM SCT009 OVC012 12/09 A3007 RMK AO2 SLP182 T01220094=
201905291153 METAR KBFI 291153Z 00000KT 10SM OVC011 13/09 A3006 RMK AO2 SLP180 T01280094 10167 20122 58001=
201905291053 METAR KBFI 291053Z 21005KT 10SM OVC012 12/09 A3007 RMK AO2 SLP182 T01220094=
201905291035 SPECI KBFI 291035Z 18005KT 10SM OVC012 12/09 A3007 RMK AO2 T01220089=
201905290953 METAR KBFI 290953Z 00000KT 10SM FEW012 BKN034 12/09 A3007 RMK AO2 SLP181 T01220094=
201905290853 METAR KBFI 290853Z 16006KT 10SM CLR 13/09 A3007 RMK AO2 SLP181 T01280094 53007=
201905290753 METAR KBFI 290753Z 14004KT 10SM CLR 13/09 A3006 RMK AO2 SLP177 T01330094 401890133=
201905290653 METAR KBFI 290653Z VRB05KT 10SM CLR 14/09 A3005 RMK AO2 SLP176 T01440094=
201905290553 METAR KBFI 290553Z 00000KT 10SM CLR 16/11 A3004 RMK AO2 SLP173 T01610106 10189 20161 51005=
201905290453 METAR KBFI 290453Z 23004KT 10SM BKN250 17/11 A3004 RMK AO2 SLP173 T01720106=
201905290353 METAR KBFI 290353Z 14003KT 10SM FEW180 SCT250 17/10 A3003 RMK AO2 SLP170 T01720100=
201905290253 METAR KBFI 290253Z 19008KT 10SM SCT150 BKN250 18/10 A3003 RMK AO2 SLP169 T01830100 56013=
201905290153 METAR KBFI 290153Z 21006KT 10SM CLR 19/11 A3005 RMK AO2 SLP174 T01890106=
201905290053 METAR KBFI 290053Z 22005KT 10SM FEW030 SCT200 18/10 A3005 RMK AO2 SLP175 T01830100=
201905282353 METAR KBFI 282353Z 16008KT 10SM SCT030 SCT200 19/10 A3007 RMK AO2 SLP181 T01890100 10189 20150 58012=
201905282324 SPECI KBFI 282324Z VRB05KT 10SM SCT029 SCT200 18/10 A3007 RMK AO2 T01830100=
201905282253 METAR KBFI 282253Z VRB05KT 10SM OVC029 18/10 A3008 RMK AO2 SLP185 BINOVC T01780100=
201905282153 METAR KBFI 282153Z 21006KT 10SM OVC025 17/09 A3009 RMK AO2 SLP190 T01720094=
201905282053 METAR KBFI 282053Z 20008KT 10SM BKN020 OVC027 17/09 A3010 RMK AO2 SLP193 T01670094 58002=
201905281953 METAR KBFI 281953Z 22009G16KT 10SM BKN020 OVC030 16/09 A3011 RMK AO2 SLP195 T01560094=
201905281853 METAR KBFI 281853Z 20009KT 10SM OVC025 16/09 A3011 RMK AO2 SLP196 T01560094=
201905281753 METAR KBFI 281753Z 23007KT 10SM BKN020 OVC024 16/09 A3011 RMK AO2 SLP195 T01560094 10156 20139 58003=
201905281653 METAR KBFI 281653Z 24006G14KT 10SM BKN017 OVC023 15/09 A3011 RMK AO2 SLP197 T01500089=
201905281553 METAR KBFI 281553Z 21006KT 10SM BKN020 OVC023 14/09 A3012 RMK AO2 SLP198 T01440089=
201905281453 METAR KBFI 281453Z 18006KT 10SM OVC023 14/09 A3012 RMK AO2 SLP198 T01390089 50004=
201905281353 METAR KBFI 281353Z 20007KT 10SM SCT016 OVC020 14/09 A3012 RMK AO2 SLP199 T01390089=
201905281253 METAR KBFI 281253Z 19008G15KT 10SM SCT016 OVC020 14/09 A3011 RMK AO2 SLP196 T01390089=
201905281153 METAR KBFI 281153Z 21006KT 10SM OVC015 14/09 A3010 RMK AO2 SLP194 T01390089 10144 20133 51008=
201905281053 METAR KBFI 281053Z 18006KT 10SM OVC018 14/09 A3010 RMK AO2 SLP193 T01390094=
201905280953 METAR KBFI 280953Z 19005KT 10SM OVC016 14/09 A3009 RMK AO2 SLP190 T01390094=
201905280853 METAR KBFI 280853Z 18005KT 10SM OVC016 14/09 A3008 RMK AO2 SLP186 T01390094 53007=
201905280842 SPECI KBFI 280842Z 20008KT 10SM OVC015 14/09 A3008 RMK AO2 T01390094=
201905280753 METAR KBFI 280753Z 17012G16KT 10SM OVC014 14/10 A3007 RMK AO2 SLP182 T01390100 402560122=
201905280748 SPECI KBFI 280748Z 17008KT 10SM OVC014 14/10 A3007 RMK AO2=
201905280653 METAR KBFI 280653Z 17008KT 10SM OVC015 13/10 A3006 RMK AO2 SLP179 T01330100=
201905280632 SPECI KBFI 280632Z 18005KT 10SM BKN015 14/10 A3005 RMK AO2 T01390100=
201905280553 METAR KBFI 280553Z AUTO 20008KT 10SM CLR 14/10 A3005 RMK AO2 SLP174 T01440100 10250 20139 51027=
201905280453 METAR KBFI 280453Z 18007KT 10SM CLR 16/11 A3003 RMK AO2 SLP167 T01560106=
201905280353 METAR KBFI 280353Z 20007KT 10SM CLR 17/11 A2999 RMK AO2 SLP155 T01670106=
201905280253 METAR KBFI 280253Z 18008KT 10SM CLR 19/11 A2997 RMK AO2 SLP147 T01940111 53008=
201905280153 METAR KBFI 280153Z 18007KT 10SM CLR 22/11 A2995 RMK AO2 SLP141 T02170111=
201905280053 METAR KBFI 280053Z 22005KT 10SM CLR 24/10 A2994 RMK AO2 SLP136 T02440100=
201905272353 METAR KBFI 272353Z 20006KT 10SM CLR 25/11 A2994 RMK AO2 SLP139 T02500111 10256 20206 56007=
201905272253 METAR KBFI 272253Z 21006KT 10SM CLR 26/11 A2995 RMK AO2 SLP140 T02560106=
201905272153 METAR KBFI 272153Z 21007KT 10SM FEW100 24/10 A2995 RMK AO2 SLP143 T02440100=
201905272053 METAR KBFI 272053Z 25007KT 230V300 10SM CLR 23/11 A2996 RMK AO2 SLP145 T02330106 58001=
201905271953 METAR KBFI 271953Z 22003KT 10SM CLR 22/12 A2997 RMK AO2 SLP147 T02220117=
201905271853 METAR KBFI 271853Z VRB03KT 10SM CLR 22/12 A2997 RMK AO2 SLP149 T02170117=
201905271753 METAR KBFI 271753Z VRB03KT 10SM CLR 21/13 A2997 RMK AO2 SLP147 T02110128 10211 20122 58001=
201905271653 METAR KBFI 271653Z 18005KT 10SM SCT080 19/12 A2997 RMK AO2 SLP149 T01890122=
201905271553 METAR KBFI 271553Z AUTO 15005KT 10SM BKN085 17/12 A2997 RMK AO2 SLP150 T01670117=
201905271453 METAR KBFI 271453Z 14003KT 10SM OVC090 16/11 A2997 RMK AO2 SLP148 T01560111 53012=
201905271353 METAR KBFI 271353Z 15005KT 10SM OVC090 14/12 A2996 RMK AO2 SLP145 T01390117=
201905271253 METAR KBFI 271253Z 14003KT 10SM BKN090 13/11 A2994 RMK AO2 SLP139 T01280106=
201905271153 METAR KBFI 271153Z 00000KT 10SM SCT100 13/11 A2993 RMK AO2 SLP136 T01280106 10167 20128 53008=
201905271053 METAR KBFI 271053Z 00000KT 10SM CLR 13/11 A2993 RMK AO2 SLP134 T01280106=
201905270953 METAR KBFI 270953Z 00000KT 10SM CLR 14/11 A2991 RMK AO2 SLP129 T01390111=
201905270853 METAR KBFI 270853Z 00000KT 10SM CLR 14/11 A2991 RMK AO2 SLP128 T01440106 51005=
201905270753 METAR KBFI 270753Z 00000KT 10SM SCT100 17/11 A2991 RMK AO2 SLP128 T01670111 402170122=
201905270653 METAR KBFI 270653Z 00000KT 10SM SCT100 16/11 A2990 RMK AO2 SLP125 T01560111=
201905270553 METAR KBFI 270553Z 00000KT 10SM SCT100 17/11 A2990 RMK AO2 SLP124 T01670111 10217 20167 51015=
201905270453 METAR KBFI 270453Z 00000KT 10SM SCT110 18/11 A2989 RMK AO2 SLP122 T01780106=
201905270353 METAR KBFI 270353Z 35003KT 10SM SCT100 SCT150 19/11 A2987 RMK AO2 SLP114 T01890106=
201905270253 METAR KBFI 270253Z VRB04KT 10SM SCT100 BKN150 19/10 A2985 RMK AO2 SLP109 T01940100 53001=
201905270153 METAR KBFI 270153Z VRB05KT 10SM BKN100 21/10 A2984 RMK AO2 SLP106 T02110100=
201905270053 METAR KBFI 270053Z 31007KT 10SM BKN090 20/10 A2985 RMK AO2 SLP106 T02000100=
201905262353 METAR KBFI 262353Z 33006KT 10SM BKN110 20/10 A2985 RMK AO2 SLP108 T02000100 10211 20139 58004=
201905262253 METAR KBFI 262253Z VRB05KT 10SM SCT120 20/11 A2986 RMK AO2 SLP109 T02000106=
201905262153 METAR KBFI 262153Z AUTO VRB03KT 10SM SCT060 BKN130 18/10 A2986 RMK AO2 SLP111 T01830100=
201905262053 METAR KBFI 262053Z VRB03KT 10SM CLR 18/11 A2986 RMK AO2 SLP112 T01830106 58010=
201905261953 METAR KBFI 261953Z VRB05KT 10SM FEW020 SCT090 18/11 A2988 RMK AO2 SLP116 T01780106=
201905261853 METAR KBFI 261853Z VRB04KT 10SM FEW014 SCT032 BKN070 16/10 A2988 RMK AO2 SLP119 T01560100=
201905261753 METAR KBFI 261753Z 04005KT 10SM FEW013 SCT070 OVC095 14/10 A2989 RMK AO2 SLP122 T01390100 10144 20122 51004=
201905261653 METAR KBFI 261653Z VRB04KT 10SM BKN015 OVC070 14/10 A2989 RMK AO2 SLP122 T01390100=
201905261636 SPECI KBFI 261636Z 05006KT 10SM BKN010 OVC015 14/09 A2989 RMK AO2 T01390094=
201905261553 METAR KBFI 261553Z VRB04KT 10SM OVC015 13/09 A2990 RMK AO2 SLP124 T01330094=
201905261507 SPECI KBFI 261507Z 05005KT 10SM BKN015 BKN020 OVC090 13/09 A2989 RMK AO2 T01330094=
201905261500 SPECI KBFI 261500Z VRB03KT 10SM SCT015 SCT020 OVC090 13/09 A2989 RMK AO2 T01330094=
201905261453 METAR KBFI 261453Z VRB04KT 10SM BKN022 BKN027 13/09 A2988 RMK AO2 SLP119 T01330094 53002=
201905261353 METAR KBFI 261353Z 06006KT 10SM BKN022 BKN027 12/09 A2988 RMK AO2 SLP118 T01220094=
201905261253 METAR KBFI 261253Z 05006KT 10SM BKN023 12/09 A2987 RMK AO2 SLP116 T01220094=
201905261153 METAR KBFI 261153Z VRB03KT 10SM FEW012 OVC023 12/09 A2988 RMK AO2 SLP116 70023 T01220089 10122 20122 57002=
201905261112 SPECI KBFI 261112Z VRB03KT 10SM SCT014 OVC021 12/09 A2988 RMK AO2 T01220089=
201905261053 METAR KBFI 261053Z VRB04KT 10SM OVC012 12/09 A2988 RMK AO2 SLP116 T01220089=
201905260953 METAR KBFI 260953Z 32004KT 10SM BKN008 OVC012 12/09 A2988 RMK AO2 SLP118 T01220094=
201905260853 METAR KBFI 260853Z VRB05KT 10SM BKN008 OVC012 12/09 A2988 RMK AO2 SLP118 T01220089 58007=
201905260753 METAR KBFI 260753Z 33006KT 10SM BKN008 OVC012 12/09 A2989 RMK AO2 SLP121 T01220094 401390117=
201905260653 METAR KBFI 260653Z VRB03KT 10SM BKN012 OVC022 12/09 A2990 RMK AO2 SLP125 T01220094=
201905260553 METAR KBFI 260553Z VRB04KT 10SM FEW008 OVC012 12/09 A2990 RMK AO2 SLP125 60002 T01220094 10139 20117 51009=
201905260453 METAR KBFI 260453Z 35004KT 10SM FEW012 BKN028 12/09 A2990 RMK AO2 SLP125 T01170094=
201905260353 METAR KBFI 260353Z 00000KT 10SM SCT021 BKN050 12/09 A2988 RMK AO2 SLP119 T01220094=
201905260253 METAR KBFI 260253Z 31003KT 10SM SCT021 BKN050 13/10 A2987 RMK AO2 SLP116 60002 T01280100 55008=
201905260153 METAR KBFI 260153Z 00000KT 10SM FEW012 BKN050 13/09 A2987 RMK AO2 RAE02 SLP115 P0000 T01330094=
201905260053 METAR KBFI 260053Z VRB03KT 10SM -RA FEW008 BKN047 OVC060 13/09 A2989 RMK AO2 SLP119 P0002 T01280094=
201905252353 METAR KBFI 252353Z 00000KT 10SM -RA BKN011 OVC050 13/09 A2990 RMK AO2 SLP123 P0004 60021 T01280094 10128 20122 53003=
201905252331 SPECI KBFI 252331Z 00000KT 9SM -RA SCT007 BKN011 OVC027 12/09 A2990 RMK AO2 P0003 T01220094=
201905252253 METAR KBFI 252253Z 20004KT 4SM -RA BR BKN009 OVC015 12/10 A2989 RMK AO2 SLP121 P0013 T01220100=
201905252248 SPECI KBFI 252248Z 19004KT 3SM -RA BR BKN009 OVC015 12/10 A2989 RMK AO2 P0012=
201905252155 SPECI KBFI 252155Z 14006KT 7SM -RA FEW009 BKN015 OVC025 12/10 A2989 RMK AO2 P0001 T01220100=
201905252153 METAR KBFI 252153Z 13006KT 7SM -RA BKN011 OVC025 12/10 A2989 RMK AO2 SLP120 P0004 T01220100=
201905252101 SPECI KBFI 252101Z 15009KT 9SM -RA BKN011 OVC025 12/09 A2988 RMK AO2 P0000 T01220094=
201905252053 METAR KBFI 252053Z 13007KT 8SM -RA BKN015 OVC025 12/09 A2989 RMK AO2 SLP120 P0000 60000 T01220094 57007=
201905251953 METAR KBFI 251953Z 16008KT 10SM -RA BKN017 OVC022 12/08 A2989 RMK AO2 RAB26 SLP123 P0000 T01220083=
201905251853 METAR KBFI 251853Z 17009KT 10SM OVC015 13/08 A2990 RMK AO2 SLP125 T01280078=
201905251753 METAR KBFI 251753Z 18012KT 10SM OVC017 13/07 A2991 RMK AO2 SLP127 T01280072 10128 20117 56010=
201905251653 METAR KBFI 251653Z 17008KT 10SM OVC020 12/07 A2991 RMK AO2 SLP128 T01220072=
201905251553 METAR KBFI 251553Z 16008KT 10SM OVC019 12/07 A2992 RMK AO2 SLP132 T01220072=
201905251453 METAR KBFI 251453Z 18005KT 10SM OVC036 12/07 A2994 RMK AO2 SLP137 T01220072 56014=
201905251353 METAR KBFI 251353Z 17006KT 10SM OVC035 12/07 A2995 RMK AO2 SLP142 T01170072=
201905251253 METAR KBFI 251253Z 17008KT 10SM OVC050 12/07 A2996 RMK AO2 SLP143 T01170072=
201905251153 METAR KBFI 251153Z 19006KT 10SM BKN035 OVC050 12/08 A2998 RMK AO2 SLP151 T01170078 10133 20117 58001=
201905251053 METAR KBFI 251053Z 17004KT 10SM OVC037 12/07 A2998 RMK AO2 SLP152 T01220072=
201905250953 METAR KBFI 250953Z 21005KT 10SM OVC039 12/07 A2999 RMK AO2 SLP154 T01220072=
201905250853 METAR KBFI 250853Z 18006KT 10SM FEW036 OVC046 13/07 A2998 RMK AO2 SLP153 T01280072 53001=
201905250753 METAR KBFI 250753Z 19005KT 10SM OVC044 13/07 A2998 RMK AO2 SLP151 T01280072 401610122=
201905250653 METAR KBFI 250653Z 22006KT 10SM OVC044 13/07 A2998 RMK AO2 SLP151 T01330072=
201905250553 METAR KBFI 250553Z 20004KT 10SM SCT028 OVC048 13/07 A2998 RMK AO2 SLP152 T01330072 10161 20133 53010=
201905250453 METAR KBFI 250453Z 22004KT 10SM FEW028 OVC048 13/07 A2997 RMK AO2 SLP150 T01330072=
201905250353 METAR KBFI 250353Z VRB04KT 10SM OVC050 13/08 A2996 RMK AO2 SLP144 T01330078=
201905250253 METAR KBFI 250253Z 22005KT 10SM BKN050 14/08 A2995 RMK AO2 SLP142 T01390078 52012=
201905250153 METAR KBFI 250153Z VRB04KT 10SM BKN050 14/08 A2994 RMK AO2 SLP138 T01440078=
201905250053 METAR KBFI 250053Z 24006KT 10SM BKN038 OVC048 15/08 A2993 RMK AO2 SLP134 T01500078=
201905242353 METAR KBFI 242353Z 26007KT 220V280 10SM SCT030 BKN060 16/08 A2992 RMK AO2 SLP130 T01610078 10161 20133 53004=
201905242253 METAR KBFI 242253Z 20007KT 10SM SCT030 BKN042 BKN050 16/08 A2991 RMK AO2 SLP127 T01560078=
201905242153 METAR KBFI 242153Z 23007KT 200V270 10SM SCT030 BKN042 BKN050 16/08 A2990 RMK AO2 SLP126 T01560083=
201905242053 METAR KBFI 242053Z 19006KT 10SM BKN027 OVC042 15/09 A2990 RMK AO2 SLP126 T01500089 50001=
201905242023 SPECI KBFI 242023Z 16008KT 10SM OVC031 14/09 A2991 RMK AO2 T01440089=
201905241953 METAR KBFI 241953Z 17009KT 10SM SCT010 OVC024 14/09 A2990 RMK AO2 SLP126 T01440089=
201905241853 METAR KBFI 241853Z 16009KT 10SM OVC024 13/09 A2990 RMK AO2 SLP126 T01330094=
201905241753 METAR KBFI 241753Z 20008KT 8SM SCT009 SCT014 OVC022 13/09 A2990 RMK AO2 SLP124 T01330089 10133 20122 53001=
201905241653 METAR KBFI 241653Z 18013KT 8SM SCT014 OVC020 13/08 A2990 RMK AO2 SLP124 T01330083=
201905241553 METAR KBFI 241553Z 17010G18KT 10SM OVC019 13/08 A2989 RMK AO2 SLP123 T01280083=
201905241518 SPECI KBFI 241518Z 17012G19KT 10SM OVC014 13/08 A2990 RMK AO2 T01280078=
201905241453 METAR KBFI 241453Z 17011KT 6SM HZ FEW012 SCT016 OVC022 13/08 A2990 RMK AO2 SLP123 T01280078 55001=
201905241353 METAR KBFI 241353Z 17011KT 10SM OVC022 13/07 A2989 RMK AO2 SLP121 T01280072=
201905241253 METAR KBFI 241253Z 17011KT 10SM OVC018 13/08 A2989 RMK AO2 SLP121 T01280078=
201905241153 METAR KBFI 241153Z 17010G17KT 10SM OVC023 13/08 A2990 RMK AO2 SLP124 7//// T01280078 10161 20128 52004=
201905241053 METAR KBFI 241053Z 17010KT 10SM OVC021 13/08 A2989 RMK AO2 SLP122 T01330083=
201905240953 METAR KBFI 240953Z 18008KT 10SM OVC018 13/09 A2989 RMK AO2 SLP122 T01330089=
201905240853 METAR KBFI 240853Z 17009KT 10SM OVC014 13/09 A2989 RMK AO2 LTG DSNT N SLP120 T01330094 50004=
201905240753 METAR KBFI 240753Z 15006KT 10SM BKN012 13/10 A2990 RMK AO2 SLP124 T01330100 402560117=
201905240653 METAR KBFI 240653Z 20007KT 10SM SCT014 BKN085 13/10 A2989 RMK AO2 SLP121 T01330100=
201905240553 METAR KBFI 240553Z 20006KT 10SM BKN120 16/12 A2988 RMK AO2 SLP117 T01610117 10256 20161 53009=
201905240453 METAR KBFI 240453Z 18004KT 10SM BKN110 19/12 A2987 RMK AO2 SLP114 T01890122=
201905240353 METAR KBFI 240353Z 19004KT 10SM BKN110 21/11 A2985 RMK AO2 SLP108 T02060111=
201905240253 METAR KBFI 240253Z 25004KT 10SM SCT100 23/12 A2985 RMK AO2 SLP108 T02280117 56010=
201905240153 METAR KBFI 240153Z VRB05KT 10SM FEW110 24/11 A2985 RMK AO2 SLP108 T02440111=
201905240053 METAR KBFI 240053Z 00000KT 10SM CLR 25/12 A2987 RMK AO2 SLP114 T02500117=
201905232353 METAR KBFI 232353Z VRB04KT 10SM CLR 25/12 A2988 RMK AO2 SLP118 6//// T02500117 10256 20161 56022=
201905232253 METAR KBFI 232253Z 32004KT 10SM CLR 24/10 A2990 RMK AO2 SLP123 T02440100=
201905232153 METAR KBFI 232153Z VRB06KT 10SM CLR 24/09 A2992 RMK AO2 SLP133 T02390089 $=
201905232053 METAR KBFI 232053Z 33007KT 10SM CLR 22/10 A2994 RMK AO2 SLP140 6//// T02220100 58026 $=
201905231953 METAR KBFI 231953Z VRB05KT 10SM CLR 21/11 A2998 RMK AO2 SLP150 T02110106 $=
201905231900 SPECI KBFI 231900Z VRB03KT 10SM CLR 19/12 A3000 RMK AO2 T01890122 $=
201905231853 METAR KBFI 231853Z 18003KT 10SM BR CLR 18/12 A3000 RMK AO2 SLP158 T01830122 $=
201905231753 METAR KBFI 231753Z 25004KT 6SM BR FEW008 17/12 A3002 RMK AO2 SLP166 6//// T01720122 10172 20117 58011 PNO $=
201905231722 SPECI KBFI 231722Z 00000KT 6SM BR SCT008 16/12 A3003 RMK AO2 T01560117=
201905231653 METAR KBFI 231653Z 00000KT 10SM BR OVC008 14/11 A3004 RMK AO2 SLP171 T01390111=
201905231553 METAR KBFI 231553Z VRB05KT 9SM BR OVC007 14/12 A3005 RMK AO2 SLP174 T01390117=
201905231453 METAR KBFI 231453Z AUTO 15004KT 6SM BR OVC005 13/11 A3006 RMK AO2 SLP177 T01280111 50002=
201905231353 METAR KBFI 231353Z 16005KT 5SM BR OVC006 12/11 A3006 RMK AO2 SLP179 T01220106=
201905231340 SPECI KBFI 231340Z 00000KT 3SM BR BKN004 13/11 A3006 RMK AO2 T01280106=
201905231253 METAR KBFI 231253Z 00000KT 10SM CLR 12/10 A3006 RMK AO2 SLP178 T01220100=
201905231153 METAR KBFI 231153Z 14007KT 10SM CLR 13/11 A3005 RMK AO2 SLP175 T01280106 10200 20128 51005=
201905231053 METAR KBFI 231053Z 00000KT 10SM CLR 14/11 A3005 RMK AO2 SLP175 T01390106=
201905230953 METAR KBFI 230953Z 00000KT 10SM CLR 14/11 A3005 RMK AO2 SLP174 T01440106=
201905230853 METAR KBFI 230853Z 17005KT 10SM CLR 15/11 A3003 RMK AO2 SLP170 T01500111 51006=
201905230753 METAR KBFI 230753Z 00000KT 10SM CLR 18/11 A3003 RMK AO2 SLP169 T01830106 402330106=
201905230653 METAR KBFI 230653Z 14005KT 10SM BKN120 18/11 A3003 RMK AO2 SLP167 T01780106=
201905230553 METAR KBFI 230553Z 31003KT 10SM BKN120 20/10 A3002 RMK AO2 SLP164 T02000100 10233 20200 52015=
201905230453 METAR KBFI 230453Z 00000KT 10SM SCT100 BKN120 20/11 A3000 RMK AO2 SLP160 T02000106=
201905230353 METAR KBFI 230353Z 00000KT 10SM CLR 22/10 A2998 RMK AO2 SLP153 T02220100=
201905230253 METAR KBFI 230253Z VRB03KT 10SM BKN120 23/10 A2997 RMK AO2 SLP149 T02280100 53003=
201905230153 METAR KBFI 230153Z 31006KT 10SM BKN110 23/09 A2996 RMK AO2 SLP146 T02280094=
201905230053 METAR KBFI 230053Z VRB05KT 10SM BKN120 23/08 A2996 RMK AO2 SLP146 T02280083=
201905222353 METAR KBFI 222353Z 30010KT 10SM SCT120 23/09 A2996 RMK AO2 SLP145 T02280089 10233 20178 58007=
201905222253 METAR KBFI 222253Z 31008KT 10SM SCT040 22/09 A2997 RMK AO2 SLP149 T02220094=
201905222153 METAR KBFI 222153Z VRB06KT 10SM CLR 22/10 A2998 RMK AO2 SLP151 T02170100=
201905222053 METAR KBFI 222053Z 31006KT 10SM SCT040 21/11 A2998 RMK AO2 SLP152 T02060106 55001=
201905221953 METAR KBFI 221953Z VRB04KT 10SM FEW038 21/10 A2998 RMK AO2 SLP152 T02060100=
201905221853 METAR KBFI 221853Z VRB04KT 10SM SCT032 SCT120 19/10 A2998 RMK AO2 SLP151 T01940100=
201905221753 METAR KBFI 221753Z 28003KT 10SM SCT036 BKN110 18/10 A2999 RMK AO2 SLP154 T01780100 10183 20106 51001=
201905221653 METAR KBFI 221653Z 34004KT 10SM SCT036 BKN110 17/10 A2999 RMK AO2 SLP153 T01670100=
201905221553 METAR KBFI 221553Z 00000KT 10SM BKN039 BKN110 15/10 A2998 RMK AO2 SLP153 T01500100=
201905221453 METAR KBFI 221453Z 17004KT 10SM SCT060 BKN110 13/09 A2998 RMK AO2 SLP152 T01280089 51009=
201905221353 METAR KBFI 221353Z 15005KT 10SM BKN110 12/09 A2998 RMK AO2 SLP151 T01220094=
201905221253 METAR KBFI 221253Z 14003KT 10SM BKN110 11/09 A2996 RMK AO2 SLP146 T01110089=
201905221153 METAR KBFI 221153Z 14006KT 10SM BKN100 11/09 A2995 RMK AO2 SLP143 T01110089 10150 20111 51014=
201905221053 METAR KBFI 221053Z 15003KT 10SM OVC100 11/09 A2994 RMK AO2 SLP139 T01110089=
201905220953 METAR KBFI 220953Z 00000KT 10SM CLR 11/09 A2993 RMK AO2 SLP133 T01110089=
201905220853 METAR KBFI 220853Z 00000KT 10SM CLR 12/09 A2991 RMK AO2 SLP129 T01220089 53010=
201905220753 METAR KBFI 220753Z 00000KT 10SM CLR 14/09 A2990 RMK AO2 SLP123 T01390094 401670106=
201905220653 METAR KBFI 220653Z 14004KT 10SM OVC110 14/09 A2989 RMK AO2 SLP121 T01390094=
201905220553 METAR KBFI 220553Z 12003KT 10SM OVC110 16/09 A2988 RMK AO2 SLP118 T01560094 10167 20144 51019=
201905220453 METAR KBFI 220453Z 00000KT 10SM BKN110 15/09 A2987 RMK AO2 SLP114 T01500094=
201905220353 METAR KBFI 220353Z 10004KT 10SM BKN110 BKN200 16/09 A2984 RMK AO2 SLP106 T01560089=
201905220253 METAR KBFI 220253Z 00000KT 10SM FEW040 OVC110 16/09 A2983 RMK AO2 SLP099 T01610094 53014=
201905220153 METAR KBFI 220153Z VRB05KT 10SM FEW040 OVC110 16/09 A2981 RMK AO2 SLP093 T01610089=
201905220053 METAR KBFI 220053Z 03004KT 10SM FEW035 OVC110 17/09 A2979 RMK AO2 SLP089 T01670089=
201905212353 METAR KBFI 212353Z VRB03KT 10SM SCT036 OVC110 17/09 A2979 RMK AO2 SLP086 T01670089 10167 20139 51005=
201905212253 METAR KBFI 212253Z 07004KT 10SM BKN034 17/09 A2978 RMK AO2 SLP083 T01670089=
201905212246 SPECI KBFI 212246Z VRB05KT 10SM BKN032 16/09 A2978 RMK AO2 T01610089=
201905212153 METAR KBFI 212153Z AUTO VRB05KT 10SM OVC027 16/08 A2978 RMK AO2 SLP083 T01560083=
201905212053 METAR KBFI 212053Z VRB05KT 10SM BKN023 OVC026 15/08 A2977 RMK AO2 SLP080 T01500083 53007=
201905211953 METAR KBFI 211953Z VRB05KT 10SM BKN024 OVC029 14/08 A2976 RMK AO2 SLP078 T01440083=
201905211853 METAR KBFI 211853Z VRB03KT 10SM BKN020 BKN140 14/08 A2975 RMK AO2 SLP074 T01440083=
201905211753 METAR KBFI 211753Z VRB05KT 10SM SCT013 SCT022 BKN110 14/09 A2975 RMK AO2 SLP073 60000 T01390089 10139 20106 51009=
201905211653 METAR KBFI 211653Z VRB06KT 10SM SCT013 SCT022 BKN110 12/09 A2974 RMK AO2 SLP071 T01220089=
201905211553 METAR KBFI 211553Z 05004KT 10SM SCT013 SCT022 BKN110 12/08 A2973 RMK AO2 SLP068 T01220083=
201905211453 METAR KBFI 211453Z 00000KT 10SM SCT025 BKN080 12/08 A2972 RMK AO2 SLP064 60000 T01170083 51008=
201905211353 METAR KBFI 211353Z 00000KT 10SM FEW050 BKN070 OVC085 11/08 A2972 RMK AO2 RAE41 SLP063 P0000 T01110078=
201905211253 METAR KBFI 211253Z VRB03KT 10SM -RA OVC070 11/08 A2971 RMK AO2 RAB50 SLP059 P0000 T01110083=
201905211153 METAR KBFI 211153Z 00000KT 10SM BKN060 OVC080 11/08 A2970 RMK AO2 SLP056 60000 T01110078 10117 20111 58003=
201905211053 METAR KBFI 211053Z 00000KT 10SM OVC080 11/08 A2970 RMK AO2 RAB10E38 SLP056 P0000 T01110078=
201905210953 METAR KBFI 210953Z 00000KT 10SM FEW060 OVC080 11/08 A2971 RMK AO2 SLP059 T01110078=
201905210853 METAR KBFI 210853Z 00000KT 10SM OVC080 11/07 A2971 RMK AO2 SLP059 T01110072 56009=
201905210753 METAR KBFI 210753Z 00000KT 10SM OVC090 11/08 A2971 RMK AO2 SLP061 T01110078 401500111=
201905210653 METAR KBFI 210653Z 09004KT 10SM OVC100 12/07 A2972 RMK AO2 SLP064 T01170067=
201905210553 METAR KBFI 210553Z 06007KT 10SM OVC100 11/08 A2973 RMK AO2 SLP068 60000 T01110078 10139 20111 58009=
201905210453 METAR KBFI 210453Z 06008KT 10SM OVC065 11/08 A2975 RMK AO2 RAB0357E53 SLP073 P0000 T01110083=
201905210353 METAR KBFI 210353Z 07004KT 10SM FEW030 BKN065 OVC080 12/08 A2976 RMK AO2 SLP076 T01170083=
201905210253 METAR KBFI 210253Z 07003KT 10SM FEW035 BKN070 OVC090 12/09 A2976 RMK AO2 RAE51 SLP077 P0000 60000 T01220089 56009=
201905210153 METAR KBFI 210153Z 09005KT 10SM -RA FEW010 OVC070 13/09 A2976 RMK AO2 SLP079 P0000 T01280094=
201905210053 METAR KBFI 210053Z 18004KT 10SM -RA OVC060 13/08 A2978 RMK AO2 RAB32 SLP084 P0000 T01330078=
201905202353 METAR KBFI 202353Z 15005KT 10SM OVC080 14/08 A2979 RMK AO2 RAE14 SLP086 P0000 60000 T01390078 10150 20133 50001=
201905202253 METAR KBFI 202253Z 17004KT 10SM -RA FEW015 BKN060 OVC075 14/09 A2980 RMK AO2 SLP089 P0000 T01390094=
201905202153 METAR KBFI 202153Z 19007KT 10SM -RA BKN040 OVC055 14/08 A2979 RMK AO2 RAB53 SLP087 P0000 T01390078=
201905202053 METAR KBFI 202053Z 20008KT 10SM SCT024 SCT031 OVC041 14/08 A2978 RMK AO2 SLP085 T01440083 53001=
201905201953 METAR KBFI 201953Z 21005KT 10SM BKN026 OVC065 14/09 A2978 RMK AO2 SLP083 T01440094=
201905201853 METAR KBFI 201853Z 19006KT 10SM BKN026 OVC065 14/09 A2978 RMK AO2 SLP084 T01390089=
201905201800 SPECI KBFI 201800Z 17010KT 10SM FEW041 OVC060 13/09 A2978 RMK AO2 T01330089=
201905201753 METAR KBFI 201753Z 18007KT 10SM BKN016 OVC049 13/09 A2978 RMK AO2 RAE23 SLP085 P0000 60000 T01330094 10133 20128 56000=
201905201653 METAR KBFI 201653Z VRB05KT 10SM -RA BKN016 OVC070 13/10 A2978 RMK AO2 RAB03E18B40 SLP085 P0000 T01330100=
201905201559 SPECI KBFI 201559Z 18012KT 10SM BKN016 OVC070 13/10 A2978 RMK AO2 T01330100=
201905201553 METAR KBFI 201553Z 17009KT 10SM FEW016 OVC070 13/11 A2978 RMK AO2 RAB31E52 SLP084 P0000 T01330106=
201905201453 METAR KBFI 201453Z 17006KT 10SM FEW036 BKN045 OVC060 13/09 A2978 RMK AO2 SLP085 T01330089 53002=
201905201353 METAR KBFI 201353Z 17007KT 10SM SCT045 OVC055 13/09 A2978 RMK AO2 SLP082 T01330089=
201905201306 SPECI KBFI 201306Z 17007KT 10SM SCT021 OVC038 13/09 A2978 RMK AO2 T01330089=
201905201253 METAR KBFI 201253Z 15007KT 10SM BKN021 BKN034 OVC045 13/09 A2977 RMK AO2 SLP082 T01330089=
201905201153 METAR KBFI 201153Z 17008KT 10SM FEW016 BKN024 OVC030 13/09 A2978 RMK AO2 SLP083 T01330089 10161 20133 55000=
201905201053 METAR KBFI 201053Z 19006KT 10SM BKN024 OVC029 13/09 A2977 RMK AO2 SLP081 T01330094=
201905200953 METAR KBFI 200953Z 22004KT 10SM OVC026 13/09 A2978 RMK AO2 SLP082 T01330094=
201905200853 METAR KBFI 200853Z 18006KT 10SM BKN022 OVC048 14/10 A2978 RMK AO2 SLP083 T01390100 53003=
201905200846 SPECI KBFI 200846Z 20005KT 10SM BKN022 OVC048 14/10 A2978 RMK AO2 T01390100=
201905200753 METAR KBFI 200753Z 19006KT 10SM FEW033 BKN045 OVC060 14/11 A2977 RMK AO2 SLP080 T01440106 402170128=
201905200738 SPECI KBFI 200738Z 21005KT 10SM SCT019 OVC045 14/11 A2977 RMK AO2 T01440106=
201905200720 SPECI KBFI 200720Z 21005KT 10SM BKN018 BKN044 OVC050 15/11 A2977 RMK AO2 T01500106=
201905200653 METAR KBFI 200653Z 20003KT 10SM BKN050 15/11 A2977 RMK AO2 SLP081 T01500106=
201905200553 METAR KBFI 200553Z 00000KT 10SM BKN055 16/09 A2977 RMK AO2 SLP080 60000 T01560089 10217 20150 53016=
201905200453 METAR KBFI 200453Z 26003KT 10SM FEW040 SCT050 BKN080 16/09 A2975 RMK AO2 SLP075 T01560089=
201905200353 METAR KBFI 200353Z VRB03KT 10SM BKN065 BKN110 18/10 A2974 RMK AO2 RAB13E27 SLP069 P0000 T01780100=
201905200253 METAR KBFI 200253Z VRB03KT 10SM BKN049 19/08 A2972 RMK AO2 SLP064 T01940083 53005=
201905200153 METAR KBFI 200153Z 21005KT 10SM BKN090 20/09 A2971 RMK AO2 SLP060 T02000089=
201905200053 METAR KBFI 200053Z 23006KT 10SM FEW045 BKN110 21/09 A2971 RMK AO2 SLP059 T02060094=
201905192353 METAR KBFI 192353Z 27006KT 10SM SCT045 SCT100 21/08 A2971 RMK AO2 SLP060 T02110078 10217 20161 55006=
201905192253 METAR KBFI 192253Z 10SM FEW050 SCT080 21/07 A2971 RMK AO2 SLP060 T02110072=
201905192153 METAR KBFI 192153Z AUTO VRB04KT 10SM CLR 21/07 A2972 RMK AO2 SLP062 T02060072=
201905192053 METAR KBFI 192053Z VRB05KT 10SM FEW050 BKN090 20/08 A2973 RMK AO2 SLP066 T02000083 58004=
201905191953 METAR KBFI 191953Z VRB04KT 10SM CLR 19/08 A2973 RMK AO2 SLP068 T01890083=
201905191853 METAR KBFI 191853Z 33003KT 10SM FEW075 BKN100 17/09 A2974 RMK AO2 SLP070 T01720089=
201905191753 METAR KBFI 191753Z 00000KT 10SM FEW050 BKN100 16/09 A2974 RMK AO2 SLP070 T01610089 10167 20128 50002=
201905191653 METAR KBFI 191653Z VRB03KT 10SM FEW090 OVC120 16/08 A2974 RMK AO2 SLP072 T01560083=
201905191553 METAR KBFI 191553Z 08005KT 10SM FEW075 FEW120 14/09 A2975 RMK AO2 SLP072 T01440089=
201905191453 METAR KBFI 191453Z 00000KT 10SM SCT080 OVC250 14/08 A2973 RMK AO2 SLP068 T01440083 53012=
201905191353 METAR KBFI 191353Z 00000KT 10SM SCT100 14/08 A2972 RMK AO2 SLP064 T01390083=
201905191253 METAR KBFI 191253Z 30003KT 10SM FEW065 BKN080 OVC090 13/09 A2970 RMK AO2 SLP058 T01280094=
201905191153 METAR KBFI 191153Z AUTO 00000KT 10SM FEW070 BKN090 OVC110 14/09 A2970 RMK AO2 SLP057 T01390089 10172 20139 53008=
201905191053 METAR KBFI 191053Z AUTO 19003KT 10SM BKN085 OVC110 14/09 A2969 RMK AO2 SLP052 T01440089=
201905190953 METAR KBFI 190953Z AUTO 15006KT 10SM SCT110 14/08 A2968 RMK AO2 SLP050 T01440083=
201905190853 METAR KBFI 190853Z AUTO 17005KT 10SM SCT110 14/08 A2968 RMK AO2 SLP049 T01440083 50006=
201905190753 METAR KBFI 190753Z 00000KT 10SM SCT110 15/07 A2968 RMK AO2 SLP050 T01500067 402170106=
201905190653 METAR KBFI 190653Z VRB03KT 10SM FEW095 16/06 A2968 RMK AO2 SLP049 T01560061=
201905190553 METAR KBFI 190553Z VRB03KT 10SM CLR 17/06 A2966 RMK AO2 SLP042 T01720061 10206 20172 53012=
201905190453 METAR KBFI 190453Z 31004KT 10SM CLR 18/06 A2964 RMK AO2 SLP037 T01780061=
201905190353 METAR KBFI 190353Z 04004KT 10SM CLR 19/04 A2963 RMK AO2 SLP032 T01940044=
201905190253 METAR KBFI 190253Z 04004KT 10SM FEW050 OVC200 20/04 A2962 RMK AO2 SLP031 T02000039 55011=
201905190153 METAR KBFI 190153Z VRB04KT 10SM OVC200 21/04 A2962 RMK AO2 SLP030 T02060039=
201905190053 METAR KBFI 190053Z 32007KT 10SM FEW050 OVC200 21/04 A2964 RMK AO2 SLP035 T02060039=
201905182353 METAR KBFI 182353Z 32007KT 10SM FEW050 BKN200 21/04 A2966 RMK AO2 SLP042 T02060039 10217 20172 57028=
201905182253 METAR KBFI 182253Z 10SM FEW040 BKN200 21/04 A2968 RMK AO2 SLP050 T02110039=
201905182153 METAR KBFI 182153Z VRB05KT 10SM FEW050 BKN200 21/05 A2971 RMK AO2 SLP062 T02110050=
201905182053 METAR KBFI 182053Z 28007KT 10SM SCT050 BKN200 21/07 A2974 RMK AO2 SLP070 T02060067 56023=
201905181953 METAR KBFI 181953Z VRB03KT 10SM SCT050 SCT200 19/05 A2976 RMK AO2 SLP077 T01940050=
201905181853 METAR KBFI 181853Z 09006KT 10SM SCT050 BKN200 19/05 A2978 RMK AO2 SLP085 T01890050=
201905181753 METAR KBFI 181753Z 29003KT 10SM SCT075 17/06 A2981 RMK AO2 SLP094 T01720056 10172 20106 58018=
201905181653 METAR KBFI 181653Z 11004KT 10SM FEW030 SCT075 BKN200 16/07 A2982 RMK AO2 SLP099 T01610072=
201905181553 METAR KBFI 181553Z 00000KT 10SM FEW075 BKN110 15/09 A2985 RMK AO2 SLP108 T01500089=
201905181453 METAR KBFI 181453Z 13003KT 10SM SCT065 BKN110 13/08 A2986 RMK AO2 SLP112 T01330078 58009=
201905181353 METAR KBFI 181353Z 00000KT 10SM SCT065 SCT110 12/08 A2988 RMK AO2 SLP119 T01220078=
201905181253 METAR KBFI 181253Z 00000KT 10SM OVC065 12/08 A2988 RMK AO2 SLP119 T01170078=
201905181153 METAR KBFI 181153Z 08005KT 10SM SCT065 12/08 A2989 RMK AO2 SLP122 70005 T01220078 10133 20122 58018=
201905181053 METAR KBFI 181053Z 15003KT 10SM FEW035 OVC065 12/07 A2992 RMK AO2 SLP131 T01220072=
201905180953 METAR KBFI 180953Z 00000KT 10SM BKN043 BKN049 OVC060 12/07 A2993 RMK AO2 SLP136 T01220072=
201905180853 METAR KBFI 180853Z 18004KT 10SM SCT040 OVC055 12/07 A2994 RMK AO2 SLP139 T01220072 56004=
201905180753 METAR KBFI 180753Z 14005KT 10SM FEW043 BKN050 OVC060 12/07 A2995 RMK AO2 SLP140 T01220072 401830117=
201905180653 METAR KBFI 180653Z 16004KT 10SM BKN049 OVC070 13/07 A2995 RMK AO2 SLP143 T01280072=
201905180553 METAR KBFI 180553Z 00000KT 10SM FEW046 OVC055 13/08 A2996 RMK AO2 SLP144 60000 T01280083 10172 20128 50001=
201905180453 METAR KBFI 180453Z 00000KT 10SM BKN055 OVC070 13/07 A2996 RMK AO2 RAB09E30 SLP146 P0000 T01280072=
201905180353 METAR KBFI 180353Z VRB06KT 10SM BKN065 OVC080 14/05 A2995 RMK AO2 SLP143 T01440050=
201905180253 METAR KBFI 180253Z AUTO 24007KT 10SM OVC075 15/04 A2995 RMK AO2 SLP143 T01500039 51009=
201905180153 METAR KBFI 180153Z 21007KT 10SM SCT070 OVC110 16/03 A2995 RMK AO2 SLP140 T01610033=
201905180053 METAR KBFI 180053Z 21010G14KT 10SM FEW050 SCT120 17/04 A2994 RMK AO2 SLP138 T01670044=
201905172353 METAR KBFI 172353Z 18011G19KT 10SM BKN085 17/05 A2993 RMK AO2 SLP134 T01670050 10183 20139 53002=
201905172253 METAR KBFI 172253Z 20012G17KT 10SM FEW025 BKN100 18/04 A2992 RMK AO2 SLP131 T01780044=
201905172153 METAR KBFI 172153Z 20010G16KT 10SM BKN100 17/05 A2992 RMK AO2 SLP133 T01720050=
201905172053 METAR KBFI 172053Z 19012G19KT 10SM FEW025 SCT100 17/06 A2992 RMK AO2 SLP131 T01720056 51014=
201905171953 METAR KBFI 171953Z 21008KT 10SM CLR 16/07 A2991 RMK AO2 SLP128 T01610072=
201905171853 METAR KBFI 171853Z 19013G19KT 10SM FEW035 BKN060 15/07 A2990 RMK AO2 SLP126 T01500072=
201905171753 METAR KBFI 171753Z 20013G20KT 10SM FEW036 14/07 A2988 RMK AO2 SLP118 60005 T01440067 10144 20117 51022=
201905171653 METAR KBFI 171653Z AUTO 20008G18KT 10SM SCT022 OVC085 13/07 A2986 RMK AO2 SLP110 T01330072=
201905171553 METAR KBFI 171553Z 20009G18KT 10SM SCT022 OVC085 12/07 A2984 RMK AO2 SLP105 T01220067=
201905171453 METAR KBFI 171453Z 22009G17KT 10SM SCT019 OVC060 12/08 A2981 RMK AO2 RAE03 SLP096 P0001 60005 T01170078 53029=
201905171407 SPECI KBFI 171407Z 20008KT 10SM BKN022 BKN050 OVC075 12/08 A2979 RMK AO2 RAE03 P0001 T01170083=
201905171353 METAR KBFI 171353Z VRB06KT 10SM -RA FEW020 BKN070 OVC090 12/08 A2979 RMK AO2 SLP086 P0004 T01170083=
201905171253 METAR KBFI 171253Z VRB04KT 9SM -RA SCT021 OVC070 12/08 A2975 RMK AO2 RAB46 SLP072 P0000 T01170083=
201905171153 METAR KBFI 171153Z 18006KT 10SM SCT022 BKN060 OVC075 12/08 A2973 RMK AO2 RAE17 SLP066 P0000 60019 70026 T01220083 10139 20122 52017=
201905171101 SPECI KBFI 171101Z VRB06KT 10SM -RA FEW018 BKN050 OVC060 12/09 A2971 RMK AO2 P0000 T01220089=
201905171053 METAR KBFI 171053Z VRB05KT 10SM -RA BKN018 OVC049 12/09 A2971 RMK AO2 RAE29B48 SLP060 P0003 T01220089=
201905170953 METAR KBFI 170953Z 20007KT 10SM -RA OVC017 13/10 A2969 RMK AO2 SLP054 P0003 T01280100=
201905170853 METAR KBFI 170853Z 18005KT 9SM -RA OVC017 13/10 A2968 RMK AO2 SLP049 P0005 60013 T01280100 53009=
201905170753 METAR KBFI 170753Z 17008KT 9SM -RA BKN018 BKN029 OVC039 13/11 A2966 RMK AO2 SLP044 P0004 T01280106 401830122=
201905170653 METAR KBFI 170653Z 20006KT 10SM -RA BKN029 OVC042 13/11 A2966 RMK AO2 SLP043 P0004 T01330106=
201905170553 METAR KBFI 170553Z 19007KT 160V220 9SM -RA OVC024 14/11 A2965 RMK AO2 SLP039 P0003 60003 T01390106 10183 20139 51019=
201905170453 METAR KBFI 170453Z VRB05KT 10SM -RA BKN020 OVC035 14/11 A2963 RMK AO2 RAB51 SLP034 P0000 T01440106=
201905170353 METAR KBFI 170353Z VRB03KT 10SM BKN020 OVC055 16/11 A2961 RMK AO2 SLP028 T01560111=
201905170307 SPECI KBFI 170307Z VRB04KT 10SM BKN024 OVC065 16/12 A2960 RMK AO2 T01610117=
201905170300 SPECI KBFI 170300Z VRB04KT 10SM SCT020 OVC047 17/12 A2959 RMK AO2 T01670117=
201905170253 METAR KBFI 170253Z 19007KT 10SM BKN024 OVC065 17/12 A2959 RMK AO2 SLP020 T01670122 53006=
201905170153 METAR KBFI 170153Z 20004KT 10SM BKN024 OVC065 17/13 A2959 RMK AO2 SLP019 T01670128=
201905170053 METAR KBFI 170053Z VRB03KT 10SM BKN024 OVC065 17/12 A2957 RMK AO2 SLP015 T01720122=
201905162353 METAR KBFI 162353Z 18004KT 10SM SCT011 BKN055 17/13 A2957 RMK AO2 RAE12 SLP014 P0000 60004 T01720128 10172 20144 58001=
201905162351 SPECI KBFI 162351Z 18004KT 10SM SCT011 BKN055 17/13 A2957 RMK AO2 RAE12 P0000=
201905162253 METAR KBFI 162253Z 17006KT 6SM -RA BKN015 OVC070 17/13 A2958 RMK AO2 SLP016 P0001 T01670133=
201905162153 METAR KBFI 162153Z VRB04KT 6SM -RA BR BKN015 OVC070 16/13 A2957 RMK AO2 RAB2059 SLP014 P0002 T01560133=
201905162053 METAR KBFI 162053Z 17003KT 8SM BKN014 OVC070 17/12 A2957 RMK AO2 RAB34E52 SLP012 P0001 60001 T01670122 55002=
201905161953 METAR KBFI 161953Z 00000KT 8SM BKN014 OVC070 16/13 A2957 RMK AO2 RAB10E16B48E53 SLP012 P0000 T01610128=
201905161853 METAR KBFI 161853Z 00000KT 8SM BR BKN013 OVC075 16/12 A2957 RMK AO2 RAB12E29 SLP014 P0000 T01560122=
201905161753 METAR KBFI 161753Z 21004KT 7SM BR OVC012 15/12 A2957 RMK AO2 SLP014 T01500117 10150 20122 53015=
201905161653 METAR KBFI 161653Z 00000KT 10SM BR OVC011 14/11 A2956 RMK AO2 SLP009 T01440111=
201905161553 METAR KBFI 161553Z 00000KT 6SM BR OVC009 14/11 A2954 RMK AO2 SLP004 T01390111=
201905161453 METAR KBFI 161453Z 31004KT 9SM BR OVC007 13/11 A2953 RMK AO2 SLP000 T01330111 58004=
201905161353 METAR KBFI 161353Z 33004KT 4SM BR OVC005 13/11 A2954 RMK AO2 SLP002 T01280111=
201905161311 SPECI KBFI 161311Z 28004KT 8SM BR OVC005 13/11 A2953 RMK AO2 T01280111=
201905161253 METAR KBFI 161253Z VRB03KT 4SM BR OVC004 13/11 A2954 RMK AO2 SLP002 T01280111=
201905161209 SPECI KBFI 161209Z 31003KT 10SM OVC004 12/11 A2954 RMK AO2 T01220106=
201905161153 METAR KBFI 161153Z 33003KT 10SM OVC006 13/11 A2954 RMK AO2 SLP003 70003 T01280111 10150 20122 56015=
201905161124 SPECI KBFI 161124Z 31003KT 10SM BKN005 12/11 A2955 RMK AO2 T01220106=
201905161053 METAR KBFI 161053Z 00000KT 10SM SCT005 12/11 A2955 RMK AO2 SLP007 T01220106=
201905160953 METAR KBFI 160953Z 00000KT 10SM FEW070 13/11 A2957 RMK AO2 SLP013 T01280106=
201905160853 METAR KBFI 160853Z 00000KT 10SM SCT070 13/11 A2958 RMK AO2 SLP018 T01330111 57012=
201905160753 METAR KBFI 160753Z 00000KT 10SM BKN085 14/11 A2960 RMK AO2 SLP022 T01440111 401940117=
201905160653 METAR KBFI 160653Z 34003KT 10SM OVC080 15/11 A2961 RMK AO2 SLP026 T01500111=
201905160553 METAR KBFI 160553Z 00000KT 10SM OVC075 14/12 A2962 RMK AO2 SLP030 60003 T01440117 10178 20144 58003=
201905160453 METAR KBFI 160453Z 35003KT 10SM SCT070 OVC090 15/11 A2963 RMK AO2 SLP033 T01500111=
201905160353 METAR KBFI 160353Z 00000KT 10SM SCT070 BKN090 OVC100 14/11 A2963 RMK AO2 RAE29 SLP032 P0001 T01440111=
201905160253 METAR KBFI 160253Z 33003KT 10SM -RA OVC065 15/11 A2963 RMK AO2 SLP033 P0000 60002 T01500111 58003=
201905160153 METAR KBFI 160153Z 31004KT 10SM -RA OVC080 16/11 A2963 RMK AO2 SLP034 P0001 T01560106=
201905160053 METAR KBFI 160053Z AUTO 32003KT 10SM -RA OVC080 16/11 A2964 RMK AO2 SLP037 P0001 T01610106=
201905152353 METAR KBFI 152353Z AUTO 00000KT 10SM -RA BKN075 OVC090 18/08 A2964 RMK AO2 RAB42 SLP036 P0000 60000 T01780083 10194 20161 55014=
201905152253 METAR KBFI 152253Z 31007KT 10SM FEW075 OVC095 19/07 A2963 RMK AO2 SLP034 T01890067=
201905152153 METAR KBFI 152153Z 31008KT 10SM SCT100 19/07 A2966 RMK AO2 SLP043 T01890072=
201905152053 METAR KBFI 152053Z 31010G14KT 10SM FEW090 19/08 A2968 RMK AO2 SLP050 T01940083 56036=
201905151953 METAR KBFI 151953Z 31008G15KT 10SM CLR 17/09 A2971 RMK AO2 SLP061 T01720089=
201905151853 METAR KBFI 151853Z 32008KT 280V340 10SM FEW140 OVC250 17/09 A2975 RMK AO2 SLP074 T01670094=
201905151753 METAR KBFI 151753Z 30009KT 10SM SCT012 BKN230 17/09 A2979 RMK AO2 SLP086 T01670094 10167 20117 58028=
201905151653 METAR KBFI 151653Z 32006KT 10SM SCT015 BKN250 16/09 A2982 RMK AO2 SLP097 T01560089=
201905151553 METAR KBFI 151553Z 32006KT 10SM FEW016 SCT020 13/09 A2984 RMK AO2 SLP104 T01280089=
201905151453 METAR KBFI 151453Z 30006KT 10SM FEW013 BKN250 12/09 A2987 RMK AO2 SLP114 T01220089 56027=
201905151353 METAR KBFI 151353Z 31004KT 10SM FEW016 FEW034 BKN250 12/09 A2988 RMK AO2 SLP119 T01170089=
201905151253 METAR KBFI 151253Z 00000KT 10SM FEW045 SCT200 12/08 A2990 RMK AO2 SLP124 T01170083=
201905151153 METAR KBFI 151153Z 00000KT 10SM FEW015 BKN036 OVC045 13/09 A2995 RMK AO2 SLP141 70005 T01280089 10128 20117 58017=
201905151053 METAR KBFI 151053Z 13003KT 10SM FEW019 OVC043 12/08 A2998 RMK AO2 SLP150 T01220083=
201905150953 METAR KBFI 150953Z AUTO 00000KT 10SM FEW019 OVC043 12/09 A2999 RMK AO2 SLP156 T01220089=
201905150853 METAR KBFI 150853Z AUTO 15005KT 10SM BKN044 OVC060 12/09 A3000 RMK AO2 SLP158 T01220089 50000=
201905150753 METAR KBFI 150753Z AUTO 14006KT 10SM OVC047 12/09 A3001 RMK AO2 SLP160 T01220094 401670117=
201905150653 METAR KBFI 150653Z 15005KT 10SM BKN046 OVC060 12/09 A3001 RMK AO2 SLP162 T01220094=
201905150553 METAR KBFI 150553Z 17004KT 10SM CLR 12/09 A3000 RMK AO2 SLP158 60005 T01220089 10167 20122 50003=
201905150453 METAR KBFI 150453Z 20006KT 10SM SCT045 BKN055 13/10 A3001 RMK AO2 SLP161 T01280100=
201905150353 METAR KBFI 150353Z 21006KT 10SM FEW036 SCT055 BKN070 13/11 A3000 RMK AO2 RAE49 SLP158 P0004 T01330106=
201905150253 METAR KBFI 150253Z 00000KT 10SM -RA BKN060 BKN070 BKN110 14/11 A2999 RMK AO2 RAB14E30B53 SLP155 P0001 60001 T01440106 53006=
201905150153 METAR KBFI 150153Z 21006KT 10SM FEW055 OVC110 16/09 A2998 RMK AO2 RAB02E32 SLP150 P0000 T01560094=
201905150053 METAR KBFI 150053Z 21008KT 10SM FEW017 BKN024 16/09 A2997 RMK AO2 SLP149 T01610094=
201905142353 METAR KBFI 142353Z 20006KT 10SM FEW017 BKN024 16/10 A2997 RMK AO2 RAE48 SLP149 P0000 60000 T01610100 10167 20128 50001=
201905142253 METAR KBFI 142253Z 22008KT 10SM -RA FEW017 BKN024 OVC055 16/10 A2997 RMK AO2 SLP149 P0000 T01560100=
201905142153 METAR KBFI 142153Z AUTO 19010KT 10SM -RA FEW017 BKN024 OVC055 16/09 A2997 RMK AO2 RAB48 SLP149 P0000 T01560094=
201905142053 METAR KBFI 142053Z 16013KT 10SM FEW017 BKN024 OVC055 16/10 A2997 RMK AO2 RAE1956 SLP148 P0000 60000 T01560100 50000=
201905141953 METAR KBFI 141953Z 16009KT 10SM -RA FEW013 BKN024 OVC055 15/11 A2997 RMK AO2 SLP149 P0000 T01500111=
201905141853 METAR KBFI 141853Z 16010KT 10SM -RA FEW013 BKN024 OVC055 14/11 A2997 RMK AO2 RAE1756B33 SLP148 P0000 T01440111=
201905141753 METAR KBFI 141753Z 17008KT 10SM -RA FEW009 BKN013 BKN040 13/10 A2997 RMK AO2 SLP148 P0000 60000 T01330100 10133 20117 52010=
201905141653 METAR KBFI 141653Z 17008KT 6SM -RA FEW009 BKN013 BKN040 12/09 A2996 RMK AO2 SLP146 P0000 T01220094=
201905141553 METAR KBFI 141553Z 14009KT 7SM -RA OVC060 12/09 A2994 RMK AO2 SLP139 P0000 T01220094=
201905141453 METAR KBFI 141453Z 17009KT 7SM -RA SCT037 OVC065 12/08 A2994 RMK AO2 RAB39 SLP137 P0000 60000 T01220083 53012=
201905141353 METAR KBFI 141353Z 15009KT 10SM OVC100 13/07 A2993 RMK AO2 SLP134 T01280072=
201905141253 METAR KBFI 141253Z 14007KT 10SM BKN045 12/07 A2991 RMK AO2 SLP127 T01220067=
201905141153 METAR KBFI 141153Z 24004KT 10SM FEW065 12/07 A2990 RMK AO2 SLP126 T01170072 10133 20117 55002=
201905141053 METAR KBFI 141053Z 25004KT 10SM SCT070 BKN090 BKN110 13/08 A2989 RMK AO2 SLP120 T01280078=
201905140953 METAR KBFI 140953Z 00000KT 10SM FEW120 12/07 A2990 RMK AO2 SLP123 T01220072=
201905140853 METAR KBFI 140853Z 15003KT 10SM CLR 12/07 A2991 RMK AO2 SLP128 T01220072 58000=
201905140753 METAR KBFI 140753Z 00000KT 10SM CLR 12/07 A2991 RMK AO2 SLP129 T01220072 401940094=
201905140653 METAR KBFI 140653Z 31003KT 10SM CLR 12/07 A2992 RMK AO2 SLP130 T01220072=
201905140553 METAR KBFI 140553Z 00000KT 10SM CLR 13/07 A2991 RMK AO2 SLP128 T01280072 10194 20128 53004=
201905140453 METAR KBFI 140453Z 31005KT 10SM SCT140 13/07 A2991 RMK AO2 SLP128 T01330072=
201905140353 METAR KBFI 140353Z 31004KT 10SM FEW140 SCT200 15/08 A2990 RMK AO2 SLP125 T01500083=
201905140253 METAR KBFI 140253Z 32004KT 10SM SCT140 BKN250 18/07 A2990 RMK AO2 SLP125 T01780072 55009=
201905140153 METAR KBFI 140153Z 00000KT 10SM SCT140 BKN250 18/06 A2989 RMK AO2 SLP122 T01830056=
201905140053 METAR KBFI 140053Z 34005KT 10SM SCT150 BKN250 19/06 A2991 RMK AO2 SLP128 T01890056=
201905132353 METAR KBFI 132353Z 00000KT 10SM FEW150 BKN250 19/04 A2993 RMK AO2 SLP134 T01940039 10194 20128 58015=
201905132253 METAR KBFI 132253Z VRB03KT 10SM FEW150 BKN250 19/02 A2995 RMK AO2 SLP141 T01890022=
201905132153 METAR KBFI 132153Z 24005KT 10SM BKN250 17/06 A2996 RMK AO2 SLP146 T01670056=
201905132053 METAR KBFI 132053Z 25007KT 10SM BKN250 16/04 A2997 RMK AO2 SLP149 T01560039 56012=
201905131953 METAR KBFI 131953Z VRB04KT 10SM OVC250 15/06 A2998 RMK AO2 SLP151 T01500061=
201905131853 METAR KBFI 131853Z VRB05KT 10SM CLR 14/06 A2999 RMK AO2 SLP156 T01390061=
201905131753 METAR KBFI 131753Z 21006KT 10SM SCT020 13/05 A3001 RMK AO2 SLP161 T01280050 10128 20094 58001=
201905131653 METAR KBFI 131653Z 17008KT 10SM BKN021 12/06 A3002 RMK AO2 SLP164 T01220061=
201905131600 SPECI KBFI 131600Z 18006KT 10SM OVC021 12/06 A3001 RMK AO2 T01170061=
201905131553 METAR KBFI 131553Z 16006KT 10SM BKN014 12/06 A3001 RMK AO2 SLP163 T01170061=
201905131453 METAR KBFI 131453Z AUTO 21004KT 10SM BKN014 11/06 A3001 RMK AO2 SLP162 T01060056 53009=
201905131353 METAR KBFI 131353Z 21006KT 10SM BKN014 10/06 A3000 RMK AO2 SLP158 T01000061=
201905131253 METAR KBFI 131253Z 19005KT 10SM BKN014 10/06 A2999 RMK AO2 SLP154 T01000061=
201905131222 SPECI KBFI 131222Z 17005KT 10SM BKN013 09/06 A2998 RMK AO2 T00940061=
201905131153 METAR KBFI 131153Z 21006KT 10SM BKN055 09/06 A2998 RMK AO2 SLP153 T00940061 10144 20094 53007=
201905131053 METAR KBFI 131053Z 19005KT 10SM CLR 10/07 A2998 RMK AO2 SLP150 T01000067=
201905130953 METAR KBFI 130953Z 18004KT 10SM CLR 10/07 A2997 RMK AO2 SLP148 T01000067=
201905130853 METAR KBFI 130853Z 15005KT 10SM CLR 11/07 A2996 RMK AO2 SLP146 T01060067 53005=
201905130753 METAR KBFI 130753Z 19004KT 10SM CLR 12/07 A2996 RMK AO2 SLP144 T01170072 401940117=
201905130653 METAR KBFI 130653Z 20003KT 10SM CLR 13/07 A2994 RMK AO2 SLP139 T01280072=
201905130553 METAR KBFI 130553Z 00000KT 10SM CLR 14/07 A2995 RMK AO2 SLP140 T01440072 10194 20144 51012=
201905130453 METAR KBFI 130453Z 24003KT 10SM CLR 16/07 A2994 RMK AO2 SLP137 T01560072=
201905130353 METAR KBFI 130353Z 23003KT 10SM CLR 17/07 A2993 RMK AO2 SLP133 T01670067=
201905130253 METAR KBFI 130253Z 30003KT 10SM CLR 18/07 A2991 RMK AO2 SLP128 T01830072 56007=
201905130153 METAR KBFI 130153Z 00000KT 10SM CLR 19/07 A2991 RMK AO2 SLP129 T01890072=
201905130053 METAR KBFI 130053Z 00000KT 10SM BKN200 19/08 A2992 RMK AO2 SLP131 T01890078=
201905122353 METAR KBFI 122353Z 20004KT 10SM FEW140 BKN220 19/07 A2993 RMK AO2 SLP135 T01890072 10189 20122 56012=
201905122253 METAR KBFI 122253Z 27005KT 10SM FEW030 SCT160 18/07 A2994 RMK AO2 SLP139 T01780072=
201905122153 METAR KBFI 122153Z AUTO VRB04KT 10SM FEW025 SCT120 18/07 A2995 RMK AO2 SLP142 T01780072=
201905122053 METAR KBFI 122053Z VRB04KT 10SM CLR 17/07 A2997 RMK AO2 SLP147 T01670072 58009=
201905121953 METAR KBFI 121953Z 00000KT 10SM FEW025 15/08 A2998 RMK AO2 SLP152 T01500078=
201905121900 SPECI KBFI 121900Z 00000KT 10SM OVC021 13/07 A2999 RMK AO2 T01330072=
201905121853 METAR KBFI 121853Z 18005KT 10SM OVC014 13/08 A2999 RMK AO2 SLP154 T01330078=
201905121753 METAR KBFI 121753Z 23007KT 10SM OVC014 12/08 A2999 RMK AO2 SLP156 T01220078 10122 20117 51006=
201905121653 METAR KBFI 121653Z 23004KT 10SM OVC013 12/08 A2999 RMK AO2 SLP155 T01170078=
201905121553 METAR KBFI 121553Z 19007KT 10SM OVC015 12/08 A2999 RMK AO2 SLP153 T01170083=
201905121453 METAR KBFI 121453Z 20004KT 10SM OVC015 12/08 A2998 RMK AO2 SLP150 T01170083 51007=
201905121353 METAR KBFI 121353Z 22004KT 10SM OVC011 12/08 A2997 RMK AO2 SLP148 T01170083=
201905121253 METAR KBFI 121253Z 19007KT 10SM OVC009 12/09 A2996 RMK AO2 SLP146 T01170089=
201905121153 METAR KBFI 121153Z VRB05KT 10SM OVC012 12/09 A2995 RMK AO2 SLP143 T01170089 10133 20117 53006=
201905121053 METAR KBFI 121053Z VRB05KT 10SM OVC011 12/09 A2995 RMK AO2 SLP140 T01220089=
201905120953 METAR KBFI 120953Z 18007KT 10SM OVC014 12/09 A2994 RMK AO2 SLP139 T01220089=
201905120853 METAR KBFI 120853Z 20006KT 10SM OVC014 12/08 A2994 RMK AO2 SLP137 T01220083 51010=
201905120753 METAR KBFI 120753Z 17005KT 10SM OVC014 13/09 A2993 RMK AO2 SLP135 T01280089 402830122=
201905120723 SPECI KBFI 120723Z AUTO 20004KT 10SM BKN014 12/09 A2992 RMK AO2 T01220089=
201905120653 METAR KBFI 120653Z 21005KT 10SM CLR 12/09 A2992 RMK AO2 SLP132 T01220089=
201905120553 METAR KBFI 120553Z 19006KT 10SM CLR 13/09 A2991 RMK AO2 SLP127 T01330089 10272 20128 51017=
201905120453 METAR KBFI 120453Z 21006KT 10SM CLR 14/09 A2990 RMK AO2 SLP124 T01440089=
201905120353 METAR KBFI 120353Z 19007KT 10SM CLR 16/09 A2988 RMK AO2 SLP116 T01560094=
201905120253 METAR KBFI 120253Z 21007KT 10SM CLR 19/10 A2986 RMK AO2 SLP110 T01890100 53009=
201905120153 METAR KBFI 120153Z VRB04KT 10SM FEW040 22/08 A2984 RMK AO2 SLP103 T02220083=
201905120053 METAR KBFI 120053Z 21009KT 10SM CLR 26/09 A2983 RMK AO2 SLP102 T02560089=
201905112353 METAR KBFI 112353Z 23009KT 10SM CLR 27/10 A2983 RMK AO2 SLP101 T02720100 10283 20228 58010=
201905112253 METAR KBFI 112253Z VRB05KT 10SM SCT220 28/08 A2984 RMK AO2 SLP105 T02780083=
201905112153 METAR KBFI 112153Z 23006KT 10SM SCT220 27/08 A2985 RMK AO2 SLP109 T02720083=
201905112053 METAR KBFI 112053Z VRB03KT 10SM CLR 27/09 A2986 RMK AO2 SLP111 T02670094 58009=
201905111953 METAR KBFI 111953Z 30004KT 10SM CLR 25/09 A2988 RMK AO2 SLP117 T02500094=
201905111853 METAR KBFI 111853Z 00000KT 10SM CLR 24/09 A2989 RMK AO2 SLP120 T02390089=
201905111753 METAR KBFI 111753Z VRB04KT 10SM SCT200 23/08 A2989 RMK AO2 SLP121 T02330078 10233 20128 53002=
201905111653 METAR KBFI 111653Z 00000KT 10SM CLR 22/09 A2988 RMK AO2 SLP119 T02220089=
201905111553 METAR KBFI 111553Z 14003KT 10SM CLR 20/09 A2988 RMK AO2 SLP119 T02000089=
201905111453 METAR KBFI 111453Z 00000KT 10SM CLR 18/09 A2988 RMK AO2 SLP119 T01780089 51006=
201905111353 METAR KBFI 111353Z 00000KT 10SM CLR 15/09 A2988 RMK AO2 SLP117 T01500089=
201905111253 METAR KBFI 111253Z 14005KT 10SM CLR 13/09 A2987 RMK AO2 SLP114 T01330089=
201905111153 METAR KBFI 111153Z 00000KT 10SM CLR 14/09 A2987 RMK AO2 SLP113 T01440089 10211 20144 52000=
201905111053 METAR KBFI 111053Z 00000KT 10SM CLR 16/08 A2987 RMK AO2 SLP114 T01560083=
201905110953 METAR KBFI 110953Z 00000KT 10SM CLR 16/08 A2986 RMK AO2 SLP111 T01560078=
201905110853 METAR KBFI 110853Z 00000KT 10SM CLR 17/07 A2986 RMK AO2 SLP112 T01720072 53006=
201905110753 METAR KBFI 110753Z 00000KT 10SM CLR 18/07 A2986 RMK AO2 SLP110 T01830072 402890122=
201905110653 METAR KBFI 110653Z 00000KT 10SM CLR 19/07 A2985 RMK AO2 SLP108 T01940067=
201905110553 METAR KBFI 110553Z 00000KT 10SM CLR 21/07 A2984 RMK AO2 SLP106 T02110067 10289 20206 51012=
201905110453 METAR KBFI 110453Z 00000KT 10SM CLR 23/06 A2984 RMK AO2 SLP104 T02280061=
201905110353 METAR KBFI 110353Z 34003KT 10SM CLR 24/04 A2983 RMK AO2 SLP099 T02440044=
201905110253 METAR KBFI 110253Z 31006KT 10SM CLR 26/04 A2981 RMK AO2 SLP094 T02560044 55006=
201905110153 METAR KBFI 110153Z 30006KT 10SM CLR 27/03 A2981 RMK AO2 SLP094 T02720033=
201905110053 METAR KBFI 110053Z VRB06KT 10SM CLR 28/03 A2982 RMK AO2 SLP096 T02830028=
201905102353 METAR KBFI 102353Z AUTO 30007KT 10SM CLR 28/03 A2983 RMK AO2 SLP100 T02830033 10289 20222 58016=
201905102253 METAR KBFI 102253Z 31006KT 10SM CLR 28/03 A2985 RMK AO2 SLP106 T02830028=
201905102153 METAR KBFI 102153Z 32008KT 10SM CLR 28/05 A2986 RMK AO2 SLP112 T02780050=
201905102053 METAR KBFI 102053Z VRB06KT 10SM CLR 27/07 A2987 RMK AO2 SLP116 T02670067 58013=
201905101953 METAR KBFI 101953Z 32005KT 10SM CLR 25/07 A2989 RMK AO2 SLP122 T02500067=
201905101853 METAR KBFI 101853Z VRB05KT 10SM CLR 23/07 A2991 RMK AO2 SLP127 T02330072=
201905101753 METAR KBFI 101753Z 31006KT 10SM CLR 22/08 A2991 RMK AO2 SLP129 T02220078 10222 20122 58011=
201905101653 METAR KBFI 101653Z 00000KT 10SM CLR 21/08 A2992 RMK AO2 SLP132 T02060083=
201905101553 METAR KBFI 101553Z 00000KT 10SM CLR 18/09 A2994 RMK AO2 SLP137 T01830089=
201905101453 METAR KBFI 101453Z 00000KT 10SM CLR 16/09 A2994 RMK AO2 SLP139 T01560094 53006=
201905101353 METAR KBFI 101353Z 00000KT 10SM CLR 14/08 A2994 RMK AO2 SLP137 T01440078=
201905101253 METAR KBFI 101253Z 00000KT 10SM CLR 13/07 A2993 RMK AO2 SLP134 T01330072=
201905101153 METAR KBFI 101153Z 00000KT 10SM CLR 12/07 A2992 RMK AO2 SLP133 T01220067 10194 20122 53001=
201905101053 METAR KBFI 101053Z 00000KT 10SM CLR 14/07 A2992 RMK AO2 SLP131 T01390072=
201905100953 METAR KBFI 100953Z 00000KT 10SM CLR 16/07 A2992 RMK AO2 SLP131 T01560072=
201905100853 METAR KBFI 100853Z 00000KT 10SM CLR 15/07 A2992 RMK AO2 SLP131 T01500067 50002=
201905100753 METAR KBFI 100753Z 00000KT 10SM CLR 17/07 A2993 RMK AO2 SLP133 T01670067 402780139=
201905100653 METAR KBFI 100653Z 00000KT 10SM CLR 18/06 A2992 RMK AO2 SLP131 T01780056=
201905100553 METAR KBFI 100553Z 00000KT 10SM CLR 19/06 A2991 RMK AO2 SLP129 T01890061 10278 20183 50004=
201905100453 METAR KBFI 100453Z 00000KT 10SM CLR 20/05 A2992 RMK AO2 SLP130 T02000050=
201905100353 METAR KBFI 100353Z 34003KT 10SM CLR 23/02 A2991 RMK AO2 SLP127 T02280017=
201905100253 METAR KBFI 100253Z 32006KT 10SM CLR 24/01 A2990 RMK AO2 SLP125 T02440006 56011=
201905100153 METAR KBFI 100153Z 32004KT 10SM CLR 26/05 A2990 RMK AO2 SLP126 T02560050=
201905100053 METAR KBFI 100053Z 32007KT 10SM CLR 26/06 A2992 RMK AO2 SLP131 T02560061=
201905092353 METAR KBFI 092353Z AUTO 33010G15KT 10SM CLR 27/01 A2993 RMK AO2 SLP136 T02720006 10278 20222 58023=
201905092253 METAR KBFI 092253Z 31010G16KT 10SM CLR 26/04 A2996 RMK AO2 SLP144 T02610039=
201905092153 METAR KBFI 092153Z 33011G15KT 10SM CLR 26/04 A2998 RMK AO2 SLP152 T02610044=
201905092053 METAR KBFI 092053Z 32007G15KT 10SM CLR 25/05 A3000 RMK AO2 SLP158 T02500050 57019=
201905091953 METAR KBFI 091953Z 32009KT 10SM CLR 24/06 A3002 RMK AO2 SLP165 T02440061=
201905091853 METAR KBFI 091853Z 33007KT 10SM CLR 24/08 A3004 RMK AO2 SLP171 T02390078=
201905091753 METAR KBFI 091753Z VRB04KT 10SM CLR 22/08 A3006 RMK AO2 SLP177 T02220083 10222 20139 58009=
201905091653 METAR KBFI 091653Z 31006KT 10SM CLR 20/08 A3007 RMK AO2 SLP183 T02000083=
201905091553 METAR KBFI 091553Z 01004KT 10SM CLR 18/09 A3008 RMK AO2 SLP187 T01830089=
201905091453 METAR KBFI 091453Z VRB05KT 10SM CLR 16/09 A3008 RMK AO2 SLP187 T01610089 52004=
201905091353 METAR KBFI 091353Z 05004KT 10SM FEW090 15/09 A3008 RMK AO2 SLP185 T01500089=
201905091253 METAR KBFI 091253Z VRB03KT 10SM FEW110 14/09 A3008 RMK AO2 SLP185 T01390089=
201905091153 METAR KBFI 091153Z 00000KT 10SM SCT110 14/08 A3007 RMK AO2 SLP183 T01440083 10172 20139 58004=
201905091053 METAR KBFI 091053Z VRB03KT 10SM SCT110 15/08 A3008 RMK AO2 SLP184 T01500083=
201905090953 METAR KBFI 090953Z VRB04KT 10SM FEW100 15/08 A3008 RMK AO2 SLP186 T01500083=
201905090853 METAR KBFI 090853Z VRB03KT 10SM CLR 16/08 A3008 RMK AO2 SLP187 T01560078 55001=
201905090753 METAR KBFI 090753Z 00000KT 10SM CLR 17/07 A3008 RMK AO2 SLP186 T01670072 402280100=
201905090653 METAR KBFI 090653Z 00000KT 10SM CLR 17/08 A3008 RMK AO2 SLP186 T01670083=
201905090553 METAR KBFI 090553Z 00000KT 10SM CLR 17/08 A3008 RMK AO2 SLP187 T01720083 10228 20172 51007=
201905090453 METAR KBFI 090453Z 00000KT 10SM CLR 19/08 A3008 RMK AO2 SLP186 T01890083=
201905090353 METAR KBFI 090353Z VRB04KT 10SM CLR 19/09 A3007 RMK AO2 SLP182 T01940089=
201905090253 METAR KBFI 090253Z 31008KT 10SM CLR 21/06 A3006 RMK AO2 SLP179 T02110061 55008=
201905090153 METAR KBFI 090153Z 32007KT 10SM CLR 22/06 A3006 RMK AO2 SLP178 T02220056=
201905090053 METAR KBFI 090053Z VRB06G15KT 10SM FEW200 23/06 A3007 RMK AO2 SLP181 T02280061=
201905082353 METAR KBFI 082353Z 31006KT 10SM FEW200 23/07 A3009 RMK AO2 SLP187 T02280067 10228 20161 58020=
201905082253 METAR KBFI 082253Z 30009KT 10SM FEW150 22/07 A3011 RMK AO2 SLP194 T02220067=
201905082153 METAR KBFI 082153Z 32008KT 10SM FEW100 22/07 A3013 RMK AO2 SLP202 T02170067=
201905082053 METAR KBFI 082053Z 35007KT 10SM SCT160 20/07 A3014 RMK AO2 SLP207 T02000072 58020=
201905081953 METAR KBFI 081953Z 30007KT 260V330 10SM BKN200 19/08 A3017 RMK AO2 SLP217 T01940078=
201905081853 METAR KBFI 081853Z 31005KT 10SM SCT140 BKN200 18/09 A3020 RMK AO2 SLP224 T01830089=
201905081753 METAR KBFI 081753Z VRB03KT 10SM SCT140 BKN200 16/09 A3020 RMK AO2 SLP227 T01610089 10161 20100 58003=
201905081653 METAR KBFI 081653Z 22004KT 10SM BKN120 15/10 A3021 RMK AO2 SLP230 T01500100=
201905081553 METAR KBFI 081553Z 18004KT 9SM FEW005 BKN250 13/09 A3022 RMK AO2 SLP232 T01330094=
201905081453 METAR KBFI 081453Z 14005KT 10SM FEW005 BKN250 12/09 A3021 RMK AO2 SLP231 T01220089 51011=
201905081353 METAR KBFI 081353Z 16004KT 10SM SCT050 SCT200 11/09 A3021 RMK AO2 SLP228 T01110089=
201905081253 METAR KBFI 081253Z 16004KT 10SM SCT200 10/07 A3019 RMK AO2 SLP224 T01000072=
201905081153 METAR KBFI 081153Z 14005KT 10SM CLR 11/07 A3018 RMK AO2 SLP220 T01110067 10172 20111 51010=
201905081053 METAR KBFI 081053Z AUTO 00000KT 10SM CLR 13/07 A3018 RMK AO2 SLP218 T01330072=
201905080953 METAR KBFI 080953Z AUTO 00000KT 10SM CLR 14/07 A3017 RMK AO2 SLP214 T01390072=
201905080853 METAR KBFI 080853Z 00000KT 10SM CLR 14/07 A3015 RMK AO2 SLP210 T01440072 51005=
201905080753 METAR KBFI 080753Z 00000KT 10SM CLR 16/07 A3015 RMK AO2 SLP208 T01560067 402280117=
201905080653 METAR KBFI 080653Z 00000KT 10SM CLR 16/06 A3014 RMK AO2 SLP206 T01610056=
201905080553 METAR KBFI 080553Z 00000KT 10SM CLR 17/06 A3014 RMK AO2 SLP204 T01720056 10228 20172 51015=
201905080453 METAR KBFI 080453Z VRB03KT 10SM SCT250 18/07 A3013 RMK AO2 SLP202 T01830067=
201905080353 METAR KBFI 080353Z 31004KT 10SM SCT250 19/07 A3010 RMK AO2 SLP194 T01890067=
201905080253 METAR KBFI 080253Z 31005KT 10SM FEW100 20/06 A3009 RMK AO2 SLP190 T02000056 53005=
201905080153 METAR KBFI 080153Z 31008KT 10SM FEW100 SCT250 21/04 A3009 RMK AO2 SLP187 T02110044=
201905080053 METAR KBFI 080053Z VRB06KT 10SM CLR 22/06 A3008 RMK AO2 SLP186 T02220056=
201905072353 METAR KBFI 072353Z 33005KT 10SM FEW090 SCT250 22/06 A3008 RMK AO2 SLP185 T02220056 10228 20178 58008=
201905072253 METAR KBFI 072253Z 31006KT 10SM CLR 22/06 A3009 RMK AO2 SLP189 T02170061=
201905072153 METAR KBFI 072153Z 34005KT 10SM CLR 21/07 A3009 RMK AO2 SLP190 T02110067=
201905072053 METAR KBFI 072053Z AUTO 31006KT 10SM CLR 21/07 A3010 RMK AO2 SLP192 T02060067 58001=
201905071953 METAR KBFI 071953Z VRB06KT 10SM SCT200 19/07 A3010 RMK AO2 SLP192 T01890067=
201905071853 METAR KBFI 071853Z 33007KT 10SM CLR 18/07 A3011 RMK AO2 SLP194 T01830067=
201905071753 METAR KBFI 071753Z 34006KT 10SM CLR 18/07 A3010 RMK AO2 SLP193 T01780067 10178 20117 51006=
201905071653 METAR KBFI 071653Z VRB03KT 10SM CLR 17/08 A3009 RMK AO2 SLP190 T01670078=
201905071553 METAR KBFI 071553Z 00000KT 10SM CLR 16/08 A3010 RMK AO2 SLP192 T01560078=
201905071453 METAR KBFI 071453Z 00000KT 10SM CLR 14/08 A3008 RMK AO2 SLP187 T01440078 53017=
201905071353 METAR KBFI 071353Z 00000KT 10SM CLR 13/08 A3007 RMK AO2 SLP180 T01280078=
201905071253 METAR KBFI 071253Z 00000KT 10SM CLR 12/07 A3005 RMK AO2 SLP174 T01170072=
201905071153 METAR KBFI 071153Z 00000KT 10SM CLR 12/07 A3004 RMK AO2 SLP170 T01220072 10178 20122 53010=
201905071053 METAR KBFI 071053Z 00000KT 10SM CLR 13/08 A3003 RMK AO2 SLP168 T01280078=
201905070953 METAR KBFI 070953Z 00000KT 10SM CLR 13/07 A3001 RMK AO2 SLP162 T01330072=
201905070853 METAR KBFI 070853Z 00000KT 10SM CLR 14/06 A3001 RMK AO2 SLP160 T01440061 51009=
201905070753 METAR KBFI 070753Z 00000KT 10SM CLR 15/06 A3000 RMK AO2 SLP158 T01500061 402330083=
201905070653 METAR KBFI 070653Z 00000KT 10SM CLR 17/06 A2999 RMK AO2 SLP154 T01670061=
201905070553 METAR KBFI 070553Z 00000KT 10SM SCT075 18/06 A2998 RMK AO2 SLP151 T01780061 10233 20178 51014=
201905070453 METAR KBFI 070453Z 34004KT 10SM OVC250 19/06 A2997 RMK AO2 SLP148 T01890056=
201905070353 METAR KBFI 070353Z 00000KT 10SM CLR 19/07 A2996 RMK AO2 SLP143 T01940072=
201905070253 METAR KBFI 070253Z VRB05KT 10SM FEW150 OVC250 20/07 A2994 RMK AO2 SLP137 T02000072 55001=
201905070153 METAR KBFI 070153Z 33004KT 10SM SCT200 22/04 A2993 RMK AO2 SLP134 T02220044=
201905070053 METAR KBFI 070053Z VRB04KT 10SM CLR 23/04 A2993 RMK AO2 SLP135 T02330044=
201905062353 METAR KBFI 062353Z 31009KT 10SM FEW050 SCT250 22/06 A2994 RMK AO2 SLP138 T02220056 10228 20172 56012=
201905062253 METAR KBFI 062253Z 32007KT 10SM FEW050 SCT250 23/07 A2995 RMK AO2 SLP140 T02280072=
201905062153 METAR KBFI 062153Z 35009KT 10SM CLR 22/07 A2996 RMK AO2 SLP144 T02170072=
201905062053 METAR KBFI 062053Z 30007KT 280V340 10SM FEW250 21/08 A2997 RMK AO2 SLP150 T02110078 58009=
201905061953 METAR KBFI 061953Z 30007KT 10SM CLR 21/08 A2998 RMK AO2 SLP153 T02060083=
201905061853 METAR KBFI 061853Z 30006KT 10SM CLR 19/08 A3000 RMK AO2 SLP158 T01890078=
201905061753 METAR KBFI 061753Z 28004KT 10SM CLR 17/08 A3000 RMK AO2 SLP159 T01720078 10172 20083 58001=
201905061653 METAR KBFI 061653Z 34004KT 10SM CLR 17/08 A3000 RMK AO2 SLP159 T01670078=
201905061553 METAR KBFI 061553Z VRB03KT 10SM CLR 15/08 A3000 RMK AO2 SLP160 T01500078=
201905061453 METAR KBFI 061453Z 00000KT 10SM CLR 13/08 A3000 RMK AO2 SLP160 T01280083 53011=
201905061353 METAR KBFI 061353Z 15003KT 10SM CLR 10/07 A2999 RMK AO2 SLP155 T01000072=
201905061253 METAR KBFI 061253Z 00000KT 10SM CLR 09/07 A2998 RMK AO2 SLP152 T00940067=
201905061153 METAR KBFI 061153Z 00000KT 10SM CLR 11/07 A2997 RMK AO2 SLP149 T01060067 10156 20106 53010=
201905061053 METAR KBFI 061053Z 00000KT 10SM CLR 11/07 A2996 RMK AO2 SLP145 T01110072=
201905060953 METAR KBFI 060953Z 00000KT 10SM CLR 12/08 A2995 RMK AO2 SLP141 T01220078=
201905060853 METAR KBFI 060853Z 00000KT 10SM CLR 13/07 A2994 RMK AO2 SLP138 T01280072 51006=
201905060753 METAR KBFI 060753Z 00000KT 10SM CLR 14/07 A2994 RMK AO2 SLP138 T01390072 402000078=
201905060653 METAR KBFI 060653Z 00000KT 10SM CLR 14/07 A2993 RMK AO2 SLP135 T01440067=
201905060553 METAR KBFI 060553Z VRB03KT 10SM CLR 16/07 A2992 RMK AO2 SLP133 T01560067 10200 20156 51014=
201905060453 METAR KBFI 060453Z 35004KT 10SM CLR 16/07 A2992 RMK AO2 SLP130 T01610067=
201905060353 METAR KBFI 060353Z 31005KT 10SM CLR 17/07 A2990 RMK AO2 SLP123 T01670067=
201905060253 METAR KBFI 060253Z 31004KT 10SM CLR 18/07 A2988 RMK AO2 SLP119 T01780067 53000=
201905060153 METAR KBFI 060153Z 31007KT 10SM CLR 19/05 A2987 RMK AO2 SLP116 T01890050=
201905060053 METAR KBFI 060053Z 32006G15KT 10SM CLR 20/06 A2988 RMK AO2 SLP118 T02000056=
201905052353 METAR KBFI 052353Z 30008G15KT 10SM CLR 19/06 A2988 RMK AO2 SLP118 T01940061 10200 20156 58004=
201905052253 METAR KBFI 052253Z VRB06G17KT 10SM CLR 19/06 A2989 RMK AO2 SLP122 T01940056=
201905052153 METAR KBFI 052153Z 32007KT 290V360 10SM CLR 19/07 A2989 RMK AO2 SLP121 T01890067=
201905052053 METAR KBFI 052053Z 33008KT 10SM CLR 19/06 A2989 RMK AO2 SLP122 T01890061 58009=
201905051953 METAR KBFI 051953Z AUTO 31008KT 10SM CLR 18/08 A2990 RMK AO2 SLP125 T01780078=
201905051853 METAR KBFI 051853Z VRB04KT 10SM FEW040 17/07 A2991 RMK AO2 SLP129 T01670072=
201905051753 METAR KBFI 051753Z 30009KT 10SM CLR 16/06 A2992 RMK AO2 SLP131 T01560061 10161 20078 55003=
201905051653 METAR KBFI 051653Z 00000KT 10SM SCT120 16/08 A2992 RMK AO2 SLP130 T01560078=
201905051553 METAR KBFI 051553Z 13003KT 10SM CLR 13/08 A2993 RMK AO2 SLP133 T01330083=
201905051453 METAR KBFI 051453Z 00000KT 10SM CLR 12/08 A2993 RMK AO2 SLP134 T01220078 53007=
201905051353 METAR KBFI 051353Z 00000KT 10SM CLR 10/07 A2992 RMK AO2 SLP131 T01000067=
201905051253 METAR KBFI 051253Z 00000KT 10SM CLR 09/07 A2991 RMK AO2 SLP127 T00940067=
201905051153 METAR KBFI 051153Z 00000KT 10SM CLR 10/07 A2991 RMK AO2 SLP127 T01000067 10150 20094 53001=
201905051053 METAR KBFI 051053Z 00000KT 10SM CLR 11/07 A2991 RMK AO2 SLP127 T01110067=
201905050953 METAR KBFI 050953Z 00000KT 10SM CLR 11/07 A2990 RMK AO2 SLP124 T01110067=
201905050853 METAR KBFI 050853Z 00000KT 10SM BKN065 13/07 A2991 RMK AO2 SLP126 T01280067 58003=
201905050753 METAR KBFI 050753Z 00000KT 10SM FEW065 13/07 A2991 RMK AO2 SLP130 T01330067 401940083=
201905050653 METAR KBFI 050653Z 00000KT 10SM FEW070 14/06 A2992 RMK AO2 SLP130 T01390061=
201905050553 METAR KBFI 050553Z 00000KT 10SM SCT075 14/06 A2992 RMK AO2 SLP130 T01440061 10194 20144 50002=
201905050453 METAR KBFI 050453Z 00000KT 10SM CLR 16/06 A2992 RMK AO2 SLP131 T01560056=
201905050353 METAR KBFI 050353Z 00000KT 10SM FEW060 OVC250 16/06 A2991 RMK AO2 SLP129 T01610056=
201905050253 METAR KBFI 050253Z 00000KT 10SM FEW150 OVC250 17/06 A2991 RMK AO2 SLP128 T01720056 58009=
201905050153 METAR KBFI 050153Z 31006KT 10SM FEW040 18/05 A2992 RMK AO2 SLP130 T01780050=
201905050053 METAR KBFI 050053Z 31008G14KT 10SM FEW040 19/04 A2993 RMK AO2 SLP135 T01890044=
201905042353 METAR KBFI 042353Z 34009G14KT 10SM FEW040 19/05 A2994 RMK AO2 SLP137 T01940050 10194 20150 56019=
201905042253 METAR KBFI 042253Z 30008KT 10SM FEW100 19/06 A2995 RMK AO2 SLP142 T01890056=
201905042153 METAR KBFI 042153Z 30008KT 270V340 10SM FEW040 18/06 A2997 RMK AO2 SLP149 T01830061=
201905042053 METAR KBFI 042053Z 32007KT 10SM FEW040 18/06 A2999 RMK AO2 SLP156 T01780061 56011=
201905041953 METAR KBFI 041953Z 34006KT 10SM FEW040 17/06 A3000 RMK AO2 SLP159 T01720061=
201905041853 METAR KBFI 041853Z VRB04KT 10SM CLR 16/07 A3001 RMK AO2 SLP163 T01610067=
201905041753 METAR KBFI 041753Z VRB03KT 10SM SCT040 15/07 A3002 RMK AO2 SLP167 T01500072 10150 20083 58005=
201905041653 METAR KBFI 041653Z VRB03KT 10SM SCT040 13/07 A3003 RMK AO2 SLP169 T01330072=
201905041553 METAR KBFI 041553Z 31004KT 10SM SCT040 12/07 A3003 RMK AO2 SLP170 T01170072=
201905041453 METAR KBFI 041453Z 00000KT 10SM SCT040 11/07 A3004 RMK AO2 SLP171 T01110072 53003=
201905041353 METAR KBFI 041353Z 00000KT 10SM CLR 10/07 A3004 RMK AO2 SLP171 T01000072=
201905041253 METAR KBFI 041253Z 00000KT 10SM CLR 09/06 A3003 RMK AO2 SLP168 T00890061=
201905041153 METAR KBFI 041153Z 00000KT 10SM CLR 09/06 A3003 RMK AO2 SLP169 T00890056 10133 20083 58005=
201905041053 METAR KBFI 041053Z 00000KT 10SM CLR 09/06 A3003 RMK AO2 SLP170 T00890056=
201905040953 METAR KBFI 040953Z 00000KT 10SM CLR 09/06 A3004 RMK AO2 SLP173 T00940056=
201905040853 METAR KBFI 040853Z 00000KT 10SM CLR 11/06 A3005 RMK AO2 SLP174 T01060056 57005=
201905040753 METAR KBFI 040753Z 00000KT 10SM CLR 12/06 A3005 RMK AO2 SLP176 T01170056 401670078=
201905040653 METAR KBFI 040653Z 01004KT 10SM CLR 12/05 A3006 RMK AO2 SLP177 T01220050=
201905040553 METAR KBFI 040553Z 01003KT 10SM CLR 13/05 A3006 RMK AO2 SLP179 T01330050 10167 20133 52002=
201905040453 METAR KBFI 040453Z 36004KT 10SM CLR 14/05 A3006 RMK AO2 SLP179 T01390050=
201905040353 METAR KBFI 040353Z VRB03KT 10SM FEW040 14/05 A3005 RMK AO2 SLP176 T01440050=
201905040253 METAR KBFI 040253Z 32006KT 10SM FEW040 15/05 A3005 RMK AO2 SLP177 T01500050 56013=
201905040153 METAR KBFI 040153Z AUTO VRB04KT 10SM FEW040 16/05 A3006 RMK AO2 SLP178 T01610050=
201905040053 METAR KBFI 040053Z VRB03KT 10SM FEW035 17/05 A3007 RMK AO2 SLP183 T01670050=
201905032353 METAR KBFI 032353Z 31006KT 10SM FEW035 17/05 A3009 RMK AO2 SLP190 T01670050 10167 20111 56013=
201905032253 METAR KBFI 032253Z 28006KT 10SM FEW035 16/05 A3011 RMK AO2 SLP194 T01610050=
201905032153 METAR KBFI 032153Z VRB05KT 10SM FEW030 15/05 A3012 RMK AO2 SLP198 T01500050=
201905032053 METAR KBFI 032053Z 33007G16KT 10SM SCT037 15/05 A3013 RMK AO2 SLP203 T01500050 58011=
201905031953 METAR KBFI 031953Z VRB03KT 10SM SCT022 BKN035 14/05 A3014 RMK AO2 SLP206 T01440050=
201905031853 METAR KBFI 031853Z 20003KT 10SM OVC022 12/06 A3016 RMK AO2 SLP211 T01220056=
201905031753 METAR KBFI 031753Z VRB03KT 10SM OVC022 11/06 A3016 RMK AO2 SLP214 T01110056 10111 20089 50000=
201905031653 METAR KBFI 031653Z 00000KT 10SM FEW017 OVC021 11/06 A3017 RMK AO2 SLP214 T01060056=
201905031553 METAR KBFI 031553Z 00000KT 10SM SCT017 OVC024 10/06 A3017 RMK AO2 SLP215 T01000056=
201905031453 METAR KBFI 031453Z VRB03KT 10SM BKN022 OVC039 09/06 A3016 RMK AO2 SLP213 T00940056 53003=
201905031353 METAR KBFI 031353Z 00000KT 10SM FEW015 BKN030 OVC039 09/06 A3016 RMK AO2 SLP213 T00940056=
201905031253 METAR KBFI 031253Z 23003KT 10SM SCT014 SCT030 OVC039 09/06 A3015 RMK AO2 SLP210 T00890056=
201905031153 METAR KBFI 031153Z 00000KT 10SM BKN027 OVC039 09/06 A3015 RMK AO2 SLP210 T00940056 10117 20078 55004=
201905031053 METAR KBFI 031053Z 15003KT 10SM OVC021 09/05 A3015 RMK AO2 SLP209 T00890050=
201905031007 SPECI KBFI 031007Z 16005KT 10SM BKN020 OVC040 09/05 A3016 RMK AO2 T00890050=
201905030953 METAR KBFI 030953Z 14004KT 10SM SCT018 BKN040 09/05 A3016 RMK AO2 SLP214 T00890050=
201905030853 METAR KBFI 030853Z 17003KT 10SM FEW050 09/05 A3017 RMK AO2 SLP214 T00890050 50001=
201905030753 METAR KBFI 030753Z 00000KT 10SM SCT048 09/06 A3017 RMK AO2 SLP215 T00940056 401440089=
201905030653 METAR KBFI 030653Z 00000KT 10SM FEW060 11/06 A3017 RMK AO2 SLP215 T01110056=
201905030553 METAR KBFI 030553Z 31003KT 10SM BKN060 12/05 A3016 RMK AO2 SLP213 T01170050 10144 20117 51009=
201905030453 METAR KBFI 030453Z 28006KT 10SM BKN046 13/05 A3015 RMK AO2 SLP210 T01280050=
201905030353 METAR KBFI 030353Z 08004KT 10SM OVC045 14/03 A3015 RMK AO2 SLP207 T01440033=
201905030253 METAR KBFI 030253Z 12004KT 10SM BKN046 OVC060 14/03 A3013 RMK AO2 SLP203 T01440033 56006=
201905030153 METAR KBFI 030153Z 13006KT 10SM BKN050 OVC060 14/03 A3013 RMK AO2 SLP204 T01440033=
201905030053 METAR KBFI 030053Z 15005KT 10SM OVC060 14/03 A3014 RMK AO2 SLP207 T01440033=
201905022353 METAR KBFI 022353Z 10SM OVC055 14/03 A3015 RMK AO2 SLP210 T01390028 10144 20117 58009=
201905022253 METAR KBFI 022253Z 19006KT 10SM FEW045 BKN055 14/03 A3017 RMK AO2 SLP215 T01390033=
201905022153 METAR KBFI 022153Z 00000KT 10SM BKN045 BKN050 14/03 A3018 RMK AO2 SLP218 T01440033=
201905022053 METAR KBFI 022053Z 15009KT 10SM BKN045 13/03 A3018 RMK AO2 SLP219 T01330028 58004=
201905021953 METAR KBFI 021953Z 21006KT 10SM SCT040 13/03 A3019 RMK AO2 SLP221 T01280028=
201905021853 METAR KBFI 021853Z 17010G15KT 10SM BKN040 13/03 A3019 RMK AO2 SLP223 T01280028=
201905021753 METAR KBFI 021753Z 19008KT 10SM BKN037 12/03 A3019 RMK AO2 SLP223 T01170033 10117 20089 51013=
201905021653 METAR KBFI 021653Z 18008KT 10SM OVC032 11/03 A3018 RMK AO2 SLP218 T01060028=
201905021553 METAR KBFI 021553Z 21005KT 10SM OVC027 10/02 A3017 RMK AO2 SLP216 T01000022=
201905021453 METAR KBFI 021453Z 18007G16KT 10SM OVC027 09/02 A3015 RMK AO2 SLP210 T00940022 51014=
201905021353 METAR KBFI 021353Z VRB06KT 10SM OVC025 09/03 A3014 RMK AO2 SLP206 T00890028=
201905021253 METAR KBFI 021253Z 18009KT 10SM OVC024 09/03 A3013 RMK AO2 SLP201 T00890028=
201905021153 METAR KBFI 021153Z 19007KT 10SM OVC021 09/03 A3011 RMK AO2 SLP196 T00890033 10106 20089 51007=
201905021053 METAR KBFI 021053Z 17009KT 10SM OVC023 09/04 A3011 RMK AO2 SLP195 T00890039=
201905020953 METAR KBFI 020953Z 18008KT 150V220 10SM OVC025 09/04 A3010 RMK AO2 SLP193 T00940039=
201905020853 METAR KBFI 020853Z 20007KT 10SM OVC026 10/04 A3009 RMK AO2 SLP190 T01000039 51008=
201905020753 METAR KBFI 020753Z 18007KT 10SM OVC033 10/03 A3009 RMK AO2 SLP188 T01000033 401780056=
201905020653 METAR KBFI 020653Z 19007KT 10SM OVC032 10/04 A3007 RMK AO2 SLP183 T01000039=
201905020553 METAR KBFI 020553Z 16008KT 10SM OVC046 10/03 A3007 RMK AO2 SLP181 T01000033 10172 20094 51018=
201905020453 METAR KBFI 020453Z 18004KT 10SM CLR 11/03 A3006 RMK AO2 SLP178 T01060028=
201905020353 METAR KBFI 020353Z 18006KT 10SM FEW040 BKN200 12/03 A3003 RMK AO2 SLP170 T01170028=
201905020253 METAR KBFI 020253Z 21008G15KT 10SM FEW040 BKN200 13/02 A3001 RMK AO2 SLP163 T01280022 53005=
201905020153 METAR KBFI 020153Z 24009G17KT 10SM FEW150 15/01 A3000 RMK AO2 SLP158 T01500011=
201905020053 METAR KBFI 020053Z 22010G17KT 10SM FEW140 17/M03 A3000 RMK AO2 SLP157 T01671028=
201905012353 METAR KBFI 012353Z 23011G17KT 10SM SCT140 17/M02 A3000 RMK AO2 SLP158 T01721022 10178 20122 58013=
201905012253 METAR KBFI 012253Z 19011G18KT 170V230 10SM SCT140 18/01 A3001 RMK AO2 SLP161 T01780006=
201905012153 METAR KBFI 012153Z 19008KT 10SM CLR 17/01 A3003 RMK AO2 SLP167 T01720011=
201905012053 METAR KBFI 012053Z 19006KT 10SM CLR 16/02 A3004 RMK AO2 SLP170 T01610022 58012=
201905011953 METAR KBFI 011953Z 20007KT 170V230 10SM FEW040 16/04 A3005 RMK AO2 SLP175 T01560039=
201905011853 METAR KBFI 011853Z 10SM CLR 14/04 A3006 RMK AO2 SLP180 T01390044=
201905011753 METAR KBFI 011753Z 21009KT 10SM SCT025 12/04 A3007 RMK AO2 SLP182 T01220044 10128 20056 50000=
201905011653 METAR KBFI 011653Z 22007KT 10SM FEW024 11/04 A3008 RMK AO2 SLP185 T01110044=
201905011553 METAR KBFI 011553Z 20007KT 10SM SCT021 11/04 A3009 RMK AO2 SLP187 T01060044=
201905011453 METAR KBFI 011453Z 15006KT 10SM FEW017 09/01 A3007 RMK AO2 SLP183 T00940006 52007=
201905011353 METAR KBFI 011353Z 14007KT 10SM FEW060 07/M01 A3006 RMK AO2 SLP180 T00671011=
201905011253 METAR KBFI 011253Z 15008KT 10SM SCT200 06/M02 A3006 RMK AO2 SLP178 T00611022=
201905011153 METAR KBFI 011153Z 14007KT 10SM CLR 06/M02 A3005 RMK AO2 SLP175 T00611022 10139 20061 56007=
201905011053 METAR KBFI 011053Z 12004KT 10SM CLR 08/M02 A3006 RMK AO2 SLP177 T00781022=
201905010953 METAR KBFI 010953Z 15008KT 10SM CLR 08/M02 A3006 RMK AO2 SLP179 T00831017=
201905010853 METAR KBFI 010853Z 15005KT 10SM CLR 08/M02 A3007 RMK AO2 SLP182 T00781022 53005=
201905010753 METAR KBFI 010753Z 11003KT 10SM CLR 12/M02 A3006 RMK AO2 SLP180 T01171017 401940050=
201905010653 METAR KBFI 010653Z 00000KT 10SM CLR 12/M04 A3005 RMK AO2 SLP177 T01221039=
201905010553 METAR KBFI 010553Z 00000KT 10SM BKN100 14/M04 A3005 RMK AO2 SLP177 T01391039 10194 20139 53002=
201905010453 METAR KBFI 010453Z 00000KT 10SM BKN110 14/M04 A3005 RMK AO2 SLP176 T01441044=
201905010353 METAR KBFI 010353Z 00000KT 10SM SCT110 BKN200 16/M08 A3005 RMK AO2 SLP174 T01611078=
201905010253 METAR KBFI 010253Z 02003KT 10SM SCT110 18/M09 A3005 RMK AO2 SLP175 T01781089 58009=
201905010153 METAR KBFI 010153Z VRB04KT 10SM FEW040 SCT140 18/M12 A3006 RMK AO2 SLP178 T01781117=
201905010053 METAR KBFI 010053Z 31006KT 10SM FEW050 SCT140 19/M11 A3007 RMK AO2 SLP182 T01891111=

# No short TAF reports from KBFI in databse.

###################################
#  large TAF from KBFI
###################################
201905312326 TAF KBFI 312326Z 0100/0124 29004KT P6SM SKC FM010300 VRB03KT P6SM
                       SKC FM011200 VRB03KT 5SM BR OVC005 FM011900
                       25005KT P6SM SKC=
201905311720 TAF KBFI 311720Z 3118/0118 00000KT 5SM BR OVC004 FM311900 28005KT
                       P6SM SCT025 FM312100 29007KT P6SM FEW045
                       SCT200 FM010300 VRB03KT P6SM SKC FM011200
                       VRB03KT 5SM BR OVC005=
201905311505 KBFI 311505Z 3115/0112 VRB03KT 5SM BR OVC004 FM311700 VRB03KT P6SM
                       OVC007 FM311900 28005KT P6SM SCT025 FM312100
                       29007KT P6SM FEW045 SCT200 FM010300 VRB03KT
                       P6SM SKC=
201905311206 KBFI 311206Z 3112/0112 25003KT 6SM BR SCT008 FM311300 VRB03KT 5SM
                       BR OVC007 FM311900 28005KT P6SM SCT025 FM312100
                       29007KT P6SM FEW045 SCT200 FM010300 VRB03KT
                       P6SM SKC=
201905311120 TAF KBFI 311120Z 3112/0112 28004KT P6SM SCT012 FM311300 VRB03KT
                       P6SM OVC012 FM311900 28005KT P6SM SCT025
                       FM312100 29007KT P6SM FEW045 SCT200 FM010300
                       VRB03KT P6SM SKC=
201905311020 KBFI 311020Z 3110/0106 VRB03KT P6SM SCT200 FM311100 VRB03KT P6SM
                       BKN008 FM311400 17006KT P6SM OVC015 FM311700
                       21005KT P6SM BKN022 FM311900 25006KT P6SM
                       SCT025 FM312100 30006KT P6SM FEW040 SCT200
                       FM010300 VRB03KT P6SM SKC=
201905310520 TAF KBFI 310520Z 3106/0106 VRB03KT P6SM SCT200 FM311000 VRB03KT
                       P6SM BKN012 FM311400 17006KT P6SM OVC015
                       FM311700 21005KT P6SM BKN022 FM311900 25006KT
                       P6SM SCT025 FM312100 30006KT P6SM FEW040
                       SCT200 FM010300 VRB03KT P6SM SKC=
201905302324 TAF KBFI 302324Z 3100/3124 26004KT P6SM FEW040 SCT200 FM310500
                       26004KT P6SM SCT200 FM311200 26003KT P6SM
                       BKN012 FM312000 25006KT P6SM SCT025 SCT200
                       FM312100 25006KT P6SM FEW040 SCT200=
201905302003 KBFI 302003Z 3020/3118 22005KT P6SM FEW015 SCT200 FM302100 20004KT
                       P6SM FEW030 SCT200 FM311200 26003KT P6SM
                       OVC018=
201905301724 TAF KBFI 301724Z 3018/3118 22005KT 6SM BR OVC006 FM301900 25005KT
                       P6SM OVC012 FM302100 20004KT P6SM SCT025
                       SCT250 FM310000 25005KT P6SM FEW030 SCT200
                       FM311200 26003KT P6SM OVC018=
201905301503 KBFI 301503Z 3015/3112 VRB03KT P6SM OVC008
                      TEMPO 3015/3018 4SM BR FM301800 26003KT P6SM
                       OVC020 FM302100 28003KT P6SM SCT250=
201905301241 KBFI 301241Z 3013/3112 VRB03KT P6SM OVC008 FM301700 26003KT P6SM
                       OVC020 FM302100 28003KT P6SM SCT250=
201905301121 TAF KBFI 301121Z 3012/3112 00000KT P6SM OVC010 FM301700 26003KT
                       P6SM OVC020 FM302100 28003KT P6SM SCT250=
201905301027 KBFI 301027Z 3010/3106 27003KT P6SM SCT200 FM301100 19003KT P6SM
                       OVC012 FM301800 18003KT P6SM OVC022 FM302000
                       18005KT P6SM BKN025 FM302200 28005KT P6SM
                       SCT025 SCT200=
201905300523 TAF KBFI 300523Z 3006/3106 VRB03KT P6SM SCT200 FM301000 19003KT
                       P6SM OVC017 FM301800 18003KT P6SM OVC022
                       FM302000 18005KT P6SM BKN025 FM302200 28005KT
                       P6SM SCT025 SCT200=
201905292320 TAF KBFI 292320Z 3000/3024 23007KT P6SM SCT200
                      TEMPO 3000/3001 SCT030 FM300400 18004KT P6SM
                       FEW200 FM301000 19003KT P6SM OVC017 FM301800
                       18003KT P6SM OVC022 FM302000 18005KT P6SM
                       BKN025 FM302200 28005KT P6SM SCT025 SCT200=
201905292001 KBFI 292001Z 2920/3018 22004KT P6SM BKN025 FM292100 25003KT P6SM
                       SCT035 SCT250 FM301100 16002KT P6SM BKN020=
201905291724 TAF KBFI 291724Z 2918/3018 18003KT P6SM OVC018 FM292100 22004KT
                       P6SM BKN022 FM292300 25003KT P6SM SCT035
                       SCT250 FM301100 16002KT P6SM BKN020=
201905291504 KBFI 291504Z 2915/3012 21005KT P6SM OVC013 FM291800 18003KT P6SM
                       OVC020 FM292000 22004KT P6SM BKN030 FM292100
                       25003KT P6SM SCT040 SCT250 FM301100 16002KT
                       P6SM BKN020=
201905291124 TAF KBFI 291124Z 2912/3012 21005KT P6SM OVC012 FM291400 18003KT
                       P6SM OVC020 FM291800 22004KT P6SM BKN050
                       FM292000 25003KT P6SM SCT250 FM301100 16002KT
                       P6SM BKN020=
201905290520 TAF KBFI 290520Z 2906/3006 22006KT P6SM SCT120 BKN250 FM291100
                       15005KT P6SM OVC020 FM291800 22005KT P6SM
                       BKN030 FM292000 25005KT P6SM SCT030 FM292200
                       VRB04KT P6SM SCT200=
201905282322 TAF KBFI 282322Z 2900/2924 22007KT P6SM BKN030 FM290100 22006KT
                       P6SM SCT030 SCT150 FM290300 22006KT P6SM
                       SKC FM291000 21004KT P6SM OVC024 FM292000
                       25005KT P6SM BKN035 FM292200 25005KT P6SM
                       SCT035=
201905282102 KBFI 282102Z 2821/2918 20008KT P6SM OVC025 FM282300 19005KT P6SM
                       SCT035 FM290100 22004KT P6SM SKC FM291000
                       17005KT P6SM OVC024=
201905281720 TAF KBFI 281720Z 2818/2918 19006KT P6SM SCT017 OVC023 FM282000
                       20005KT P6SM BKN028 FM282200 19005KT P6SM
                       SCT035 FM290000 22004KT P6SM SKC FM291000
                       17005KT P6SM OVC024=
201905281120 TAF KBFI 281120Z 2812/2912 18006KT P6SM OVC018 FM281600 19006KT
                       P6SM OVC020 FM281900 20005KT P6SM BKN028
                       FM282100 19005KT P6SM SCT035 FM282300 22004KT
                       P6SM SKC FM291000 17005KT P6SM OVC024=
201905280644 KBFI 280644Z 2807/2906 17007KT P6SM BKN015 FM281000 17007KT P6SM
                       OVC012 FM281600 20006KT P6SM OVC018 FM281900
                       23006KT P6SM BKN025 FM282100 25005KT P6SM
                       SCT030 FM282300 VRB04KT P6SM SKC=
201905280520 TAF KBFI 280520Z 2806/2906 17007KT P6SM SKC FM280800 17007KT P6SM
                       SCT012
                      TEMPO 2808/2810 BKN012 FM281000 17007KT P6SM
                       OVC012 FM281600 20006KT P6SM OVC018 FM281900
                       23006KT P6SM BKN025 FM282100 25005KT P6SM
                       SCT030 FM282300 VRB04KT P6SM SKC=
201905272325 TAF KBFI 272325Z 2800/2824 20005KT P6SM FEW050 FEW100 SCT200 FM280400
                       19006KT P6SM FEW070 SCT200 FM281100 19006KT
                       P6SM OVC012 FM281600 20006KT P6SM OVC018
                       FM282000 23006KT P6SM SCT030 SCT200 FM282100
                       23005KT P6SM FEW035 SCT200=
201905271720 TAF KBFI 271720Z 2718/2818 18005KT P6SM SCT200 FM272100 18005KT
                       P6SM FEW070 SCT100 SCT200 FM280400 19006KT
                       P6SM FEW070 SCT200 FM281100 19006KT P6SM
                       OVC012=
201905271138 TAF KBFI 271138Z 2712/2812 VRB03KT P6SM SCT100 BKN200 FM272100
                       VRB03KT P6SM SCT100 SCT200 FM280400 19006KT
                       P6SM SCT100 SCT200 FM281100 19006KT P6SM
                       OVC012=
201905270521 TAF KBFI 270521Z 2706/2806 VRB04KT P6SM SCT100 SCT200 FM271100
                       15004KT P6SM FEW030 BKN120 FM271800 25006KT
                       P6SM SCT035 SCT120 BKN200 FM280300 21005KT
                       P6SM SCT120 SCT200=
201905262340 TAF KBFI 262340Z 2700/2724 VRB04KT P6SM VCSH SCT120 BKN200 FM270500
                       VRB04KT P6SM SCT120 SCT200 FM271100 15004KT
                       P6SM SCT014 BKN140 FM271800 28004KT P6SM
                       BKN250=
201905261737 TAF KBFI 261737Z 2618/2718 32004KT P6SM BKN020 BKN070 FM261900
                       33004KT P6SM SCT030 BKN070 FM262200 32006KT
                       P6SM VCSH SCT040 BKN120 BKN200 FM270500
                       VRB04KT P6SM SCT120 SCT200 FM271100 VRB04KT
                       P6SM SCT014=
201905261137 TAF KBFI 261137Z 2612/2712 VRB04KT P6SM BKN014 OVC022 FM261400
                       VRB03KT P6SM SCT015 OVC022 FM261800 32006KT
                       P6SM SCT030 BKN200 FM262200 32006KT P6SM
                       VCSH SCT040 BKN120 BKN200 FM270500 VRB04KT
                       P6SM SCT120 SCT200 FM271100 VRB04KT P6SM
                       SCT014=
201905260924 KBFI 260924Z 2609/2706 VRB04KT P6SM OVC008 FM261700 32006KT P6SM
                       SCT008 BKN015 FM261900 32006KT P6SM SCT030
                       BKN200 FM262200 32006KT P6SM VCSH SCT040
                       BKN120 BKN200 FM270500 VRB04KT P6SM SCT120
                       SCT200=
201905260528 TAF KBFI 260528Z 2606/2706 VRB04KT P6SM SCT015 BKN030
                      TEMPO 2606/2610 BKN012 FM261000 VRB03KT P6SM
                       BKN012 OVC030 FM261600 34004KT P6SM SCT017
                       BKN030 BKN050 FM261900 33005KT P6SM SCT030
                       BKN200 FM262200 35005KT P6SM VCSH SCT040
                       BKN120 BKN200 FM270500 VRB04KT P6SM SCT120
                       SCT200=
201905252338 TAF KBFI 252338Z 2600/2624 18004KT P6SM -RA SCT008 BKN015 OVC020
                       FM260100 VRB03KT P6SM VCSH SCT020 BKN030
                       BKN045 FM260500 35003KT P6SM BKN040 BKN100
                       FM260900 VRB03KT P6SM BKN030 BKN120 FM261400
                       34004KT P6SM BKN020 OVC030 FM262000 33005KT
                       P6SM SCT025 BKN050=
201905251739 TAF KBFI 251739Z 2518/2618 17008KT P6SM OVC020 FM251900 18005KT
                       P6SM -RA BKN015 OVC020 FM260200 VRB03KT
                       P6SM VCSH SCT020 BKN030 BKN045 FM260500
                       35003KT P6SM BKN050 BKN100 FM260900 VRB03KT
                       P6SM SCT060 BKN120 FM261400 VRB03KT P6SM
                       SCT025 BKN040 BKN120=
201905251132 TAF KBFI 251132Z 2512/2612 17006KT P6SM SCT025 OVC035 FM251500
                       17006KT P6SM SCT015 OVC025 FM251800 17006KT
                       P6SM -SHRA BKN015 OVC025 FM260200 VRB03KT
                       P6SM VCSH SCT020 BKN030 BKN045 FM260500
                       VRB03KT P6SM BKN050 BKN100 FM260900 VRB03KT
                       P6SM SCT060 BKN120=
201905250520 TAF KBFI 250520Z 2506/2606 17007KT P6SM SCT035 BKN050 OVC080 FM250900
                       16008KT P6SM BKN035 OVC050 FM251200 18008KT
                       P6SM SCT020 OVC025 FM251800 19009KT P6SM
                       -RA OVC022 FM260200 35005KT P6SM VCSH BKN035
                       OVC050=
201905242338 TAF KBFI 242338Z 2500/2524 19010KT P6SM SCT030 BKN040 OVC050 FM250300
                       18008KT P6SM BKN040 BKN050 FM251200 18008KT
                       P6SM SCT020 OVC025 FM251800 19009KT P6SM
                       -RA BKN020 OVC025=
201905241737 TAF KBFI 241737Z 2418/2518 18012KT P6SM VCSH SCT015 OVC020 FM242200
                       19010KT P6SM VCSH BKN025 OVC040 FM250300
                       18008KT P6SM BKN035 BKN050 FM250900 18008KT
                       P6SM SCT020 OVC025=
201905241136 TAF KBFI 241136Z 2412/2512 18010KT P6SM OVC022 FM241800 18012KT
                       P6SM VCSH BKN025 OVC040 FM250400 18008KT
                       P6SM BKN035 BKN050 FM250900 18008KT P6SM
                       OVC025=
201905240806 KBFI 240806Z 2408/2506 18008KT P6SM OVC014 FM241700 17011KT P6SM
                       VCSH BKN022 OVC040 FM242100 17011KT P6SM
                       VCSH BKN027 OVC040 FM250500 17006KT P6SM
                       BKN035 BKN050=
201905240526 TAF KBFI 240526Z 2406/2506 19005KT P6SM SCT040 BKN100 BKN200 FM241100
                       18010KT P6SM BKN020 OVC030 FM241500 17011KT
                       P6SM VCSH BKN022 OVC040 FM242100 18011KT
                       P6SM VCSH BKN027 OVC040 FM250500 17006KT
                       P6SM BKN035 BKN050=
201905232320 TAF KBFI 232320Z 2400/2424 29006KT P6SM FEW045 SCT200 FM240400
                       21006KT P6SM SCT200 FM241100 18010KT P6SM
                       BKN016 OVC025 FM242000 18010KT P6SM VCSH
                       BKN025 BKN030=
201905231720 TAF KBFI 231720Z 2318/2418 28006KT P6SM FEW008 SCT200
                      TEMPO 2318/2319 BKN008 FM232000 29006KT P6SM
                       SCT200 FM240400 21006KT P6SM SCT200 FM241100
                       18010KT P6SM BKN016 OVC025=
201905231138 TAF KBFI 231138Z 2312/2412 00000KT P6SM SCT200 FM231400 00000KT
                       P6SM BKN006 BKN200 FM231600 00000KT P6SM
                       SCT200 FM232000 29006KT P6SM SCT200 FM240400
                       21006KT P6SM SCT200 FM241100 18010KT P6SM
                       BKN016 OVC025=
201905230904 KBFI 230904Z 2309/2406 17004KT P6SM SCT120 BKN200 FM231200 17004KT
                       P6SM SCT006 SCT200
                      TEMPO 2313/2315 BKN006 FM231800 29006KT P6SM
                       FEW035 SCT200 FM240300 25006KT P6SM FEW040
                       SCT100=
201905230525 TAF KBFI 230525Z 2306/2406 VRB03KT P6SM BKN120 BKN200 FM230700
                       VRB04KT P6SM SCT120 BKN200 FM231200 VRB03KT
                       P6SM SCT015 SCT200
                      TEMPO 2312/2316 BKN015 FM231800 29006KT P6SM
                       FEW035 SCT200 FM240300 25006KT P6SM FEW040
                       SCT100=
201905222321 TAF KBFI 222321Z 2300/2324 31006KT P6SM FEW040 SCT120 FM230500
                       VRB03KT P6SM SCT120 FM231200 VRB03KT P6SM
                       FEW020 FM231800 29006KT P6SM FEW035 SCT250=
201905221720 TAF KBFI 221720Z 2218/2318 32004KT P6SM SCT035 BKN120
                      TEMPO 2218/2220 BKN035 BKN120 FM222000 31007KT
                       P6SM SCT040 BKN120 FM230500 VRB03KT P6SM
                       SCT120=
201905221120 TAF KBFI 221120Z 2212/2312 00000KT P6SM BKN110 BKN200 FM221400
                       00000KT P6SM BKN050 FM221800 30006KT P6SM
                       BKN250 FM222100 31005KT P6SM BKN100 BKN250
                       FM230500 VRB03KT P6SM SCT250=
201905220530 TAF KBFI 220530Z 2206/2306 00000KT P6SM BKN110 BKN200 FM221400
                       00000KT P6SM BKN050 FM221800 30006KT P6SM
                       BKN250 FM222100 31005KT P6SM BKN100 BKN250=
201905212320 TAF KBFI 212320Z 2200/2224 36008KT P6SM BKN030 BKN150 FM220400
                       03005KT P6SM SCT030 BKN150 FM220800 VRB03KT
                       P6SM FEW030 BKN100 FM221200 15004KT P6SM
                       SCT025 BKN100 FM221900 30008KT P6SM SCT040
                       BKN100=
201905212008 KBFI 212008Z 2120/2218 34008KT P6SM BKN025 BKN050 BKN150 FM212100
                       34005KT P6SM BKN030 BKN150 FM220800 14003KT
                       P6SM SCT030 BKN100 FM221200 15004KT P6SM
                       SCT020 BKN100=
201905211720 TAF KBFI 211720Z 2118/2218 01007KT P6SM FEW015 SCT025 BKN150 FM211900
                       34008KT P6SM SCT030 BKN150 FM220800 14003KT
                       P6SM SCT030 BKN100 FM221200 15004KT P6SM
                       SCT020 BKN100=
201905211120 TAF KBFI 211120Z 2112/2212 00000KT P6SM VCSH SCT030 OVC080
                      TEMPO 2112/2115 -SHRA OVC025 FM211500 32004KT
                       P6SM OVC050 FM220000 30010KT P6SM OVC100
                       FM220300 30004KT P6SM OVC250 FM220600 VRB03KT
                       P6SM SCT060 OVC250=
201905210521 TAF KBFI 210521Z 2106/2206 06008KT P6SM OVC070
                      TEMPO 2106/2109 P6SM -RA OVC050 FM210900
                       00000KT P6SM OVC050
                      TEMPO 2109/2112 P6SM -RA OVC050 FM211200
                       00000KT P6SM OVC025 FM211500 32004KT P6SM
                       VCSH OVC050 FM220000 30010KT P6SM OVC100
                       FM220300 01004KT P6SM OVC250=
201905210357 KBFI 210357Z 2104/2124 07004KT P6SM VCSH FEW030 BKN070 OVC080 FM210600
                       04004KT P6SM VCSH OVC030 FM211200 02005KT
                       P6SM VCSH OVC022 FM211800 33005KT P6SM SCT030
                       BKN040=
201905202324 TAF KBFI 202324Z 2100/2124 20008KT P6SM -SHRA FEW015 SCT030 OVC070
                       FM210300 20004KT P6SM -SHRA SCT020 OVC030
                       FM210600 04004KT P6SM OVC030 FM211200 02005KT
                       P6SM VCSH OVC022 FM211800 33005KT P6SM SCT030
                       BKN040=
201905201720 TAF KBFI 201720Z 2018/2118 18009KT P6SM -SHRA SCT015 BKN035 OVC050
                       FM202000 22005KT P6SM -SHRA SCT030 OVC045
                       FM210300 VRB03KT P6SM VCSH OVC040 FM210600
                       00000KT P6SM VCSH OVC022=
201905201529 KBFI 201529Z 2015/2112 17008KT P6SM -SHRA FEW030 BKN045 OVC060
                       FM202000 19005KT P6SM -SHRA OVC045 FM210100
                       VRB03KT P6SM VCSH OVC045 FM210500 00000KT
                       P6SM OVC040=
201905201120 TAF KBFI 201120Z 2012/2112 17008KT P6SM OVC020 FM201500 17008KT
                       P6SM BKN025 OVC040 FM201800 19005KT P6SM
                       -SHRA OVC045 FM210100 VRB03KT P6SM VCSH
                       OVC045 FM210500 00000KT P6SM OVC040=
201905200522 TAF KBFI 200522Z 2006/2106 26003KT P6SM SCT050 BKN080 FM200700
                       17006KT P6SM SCT030 OVC050 FM201100 17008KT
                       P6SM OVC040 FM201500 17008KT P6SM BKN025
                       OVC040 FM201800 19005KT P6SM -SHRA OVC045
                       FM210100 VRB03KT P6SM VCSH OVC045=
201905192325 TAF KBFI 192325Z 2000/2024 VRB05KT P6SM SCT060 SCT120 SCT200 FM200300
                       VRB05KT P6SM SCT060 BKN120 BKN200 FM200700
                       17005KT P6SM SCT030 OVC050 FM201100 17007KT
                       P6SM BKN025 OVC040 FM201800 18007KT P6SM
                       -SHRA BKN030 OVC045=
201905191732 TAF KBFI 191732Z 1918/2018 VRB05KT P6SM VCSH BKN070 OVC100 FM192100
                       26007KT P6SM BKN070 BKN120 FM200600 17005KT
                       P6SM SCT030 OVC050 FM201100 17007KT P6SM
                       BKN025 OVC040 FM201700 18007KT P6SM -SHRA
                       BKN030 OVC045=
201905191120 TAF KBFI 191120Z 1912/2012 VRB03KT P6SM BKN080 OVC100 FM191300
                       17004KT P6SM VCSH OVC060 FM191800 27006KT
                       P6SM BKN060 FM200400 20005KT P6SM OVC050=
201905190523 TAF KBFI 190523Z 1906/2006 31004KT P6SM FEW050 OVC170 FM190800
                       00000KT P6SM OVC100 FM191100 26004KT P6SM
                       VCSH OVC060 FM191800 21004KT P6SM BKN060=
201905182337 TAF KBFI 182337Z 1900/1924 30006KT P6SM FEW050 SCT120 OVC200 FM190300
                       32007KT P6SM OVC100 FM190700 VRB03KT P6SM
                       -RA BKN050 OVC090 FM191100 VRB04KT P6SM
                       -SHRA OVC035 FM191900 30005KT P6SM VCSH
                       BKN040 BKN060=
201905181731 TAF KBFI 181731Z 1818/1918 VRB04KT P6SM SCT060 SCT120 BKN200 FM182100
                       30006KT P6SM BKN120 OVC200 FM190100 32007KT
                       P6SM OVC100 FM190700 VRB03KT P6SM -RA BKN050
                       OVC090 FM191100 16004KT P6SM -SHRA OVC035=
201905181120 TAF KBFI 181120Z 1812/1912 VRB03KT P6SM SCT035 OVC070 FM181700
                       30004KT P6SM BKN100 FM190000 28004KT P6SM
                       OVC100 FM190400 VRB03KT P6SM -RA OVC040=
201905180520 TAF KBFI 180520Z 1806/1906 00000KT P6SM OVC070 FM181600 15004KT
                       P6SM BKN100 FM190000 28004KT P6SM OVC100
                       FM190400 31002KT P6SM -RA OVC040=
201905172335 TAF KBFI 172335Z 1800/1824 19010KT P6SM SCT040 BKN100 FM180500
                       17008KT P6SM BKN045 BKN080 FM181300 15005KT
                       P6SM SCT050 BKN120 FM181800 VRB06KT P6SM
                       BKN120 OVC200 FM182100 31006KT P6SM SCT120
                       BKN200=
201905171740 TAF KBFI 171740Z 1718/1818 19010KT P6SM SCT020 BKN050 BKN100 FM172200
                       19009KT P6SM SCT030 BKN050 FM180900 16006KT
                       P6SM SCT050 BKN120 FM181700 VRB06KT P6SM
                       BKN120 OVC200=
201905171500 KBFI 171500Z 1715/1812 22011KT P6SM VCSH SCT020 BKN050 BKN100 FM171800
                       19010KT P6SM SCT020 BKN050 FM172100 17006KT
                       P6SM SCT030 BKN045=
201905171121 TAF KBFI 171121Z 1712/1812 VRB06KT P6SM -RA BKN020 OVC050 FM171800
                       19010KT P6SM OVC025 FM172100 17006KT P6SM
                       SCT030 BKN045=
201905170538 TAF KBFI 170538Z 1706/1806 18008KT P6SM BKN015 OVC040 FM171800
                       18008KT P6SM SCT018 OVC028 FM172100 16006KT
                       P6SM SCT030 BKN045=
201905162335 TAF KBFI 162335Z 1700/1724 17005KT 6SM -RA BR SCT015 OVC070 FM170400
                       16007KT P6SM -RA BKN025 OVC070 FM171000
                       17011KT P6SM -RA SCT009 OVC015 FM171900
                       19012G18KT P6SM OVC030=
201905161939 KBFI 161939Z 1620/1718 VRB04KT 6SM -RA BR BKN012 OVC070 FM162200
                       22007KT 6SM -RA OVC035 FM170400 18009KT
                       P6SM -RA OVC020 FM171000 17011KT P6SM -RA
                       SCT009 OVC015=
201905161737 TAF KBFI 161737Z 1618/1718 VRB04KT 6SM -RA BR OVC012 FM162200 22007KT
                       6SM -RA OVC035 FM170400 18009KT P6SM -RA
                       OVC020 FM171000 17011KT P6SM -RA SCT009
                       OVC015=
201905161457 KBFI 161457Z 1615/1712 VRB04KT P6SM OVC007 FM161900 19008KT P6SM
                       VCSH OVC050 FM162200 19008KT P6SM -RA SCT025
                       OVC050 FM170200 19009KT P6SM -RA BKN020
                       OVC030=
201905161124 TAF KBFI 161124Z 1612/1712 VRB03KT P6SM SCT070
                      TEMPO 1612/1614 BKN005 FM161900 19008KT P6SM
                       VCSH OVC050 FM162200 19008KT P6SM -RA SCT025
                       OVC050 FM170200 19009KT P6SM -RA BKN020
                       OVC030=
201905160537 TAF KBFI 160537Z 1606/1706 VRB03KT P6SM BKN080 OVC200 FM161000
                       VRB03KT P6SM SCT020 BKN100 FM161900 19008KT
                       P6SM VCSH SCT035 BKN060 OVC100 FM162200
                       19008KT P6SM -SHRA SCT025 BKN045 OVC060
                       FM170400 19008KT P6SM -SHRA BKN020 OVC030=
201905152325 TAF KBFI 152325Z 1600/1624 30006KT P6SM -RA BKN050 OVC090 FM161000
                       VRB04KT P6SM SCT020 BKN050 BKN090 FM162000
                       21008KT P6SM VCSH SCT020 BKN040=
201905151720 TAF KBFI 151720Z 1518/1618 32007KT P6SM SCT015 SCT120 BKN200 FM152100
                       32006KT P6SM SCT040 BKN120 OVC200 FM160000
                       32006KT P6SM -RA BKN050 OVC090 FM161000
                       VRB04KT P6SM BKN050 BKN090 FM161700 21008KT
                       P6SM BKN040=
201905151326 KBFI 151326Z 1513/1612 VRB03KT P6SM FEW040 SCT200 FM151600 32006KT
                       P6SM SCT050 BKN150 FM160000 VRB03KT P6SM
                       -RA SCT035 OVC050 FM161000 VRB02KT P6SM
                       OVC050=
201905151120 TAF KBFI 151120Z 1512/1612 VRB03KT P6SM SCT020 OVC040
                      TEMPO 1512/1515 BKN020 FM151600 32006KT P6SM
                       SCT050 BKN150 FM160000 VRB03KT P6SM -RA
                       SCT035 OVC050 FM161000 VRB02KT P6SM OVC050=
201905150536 TAF KBFI 150536Z 1506/1606 19006KT P6SM SCT025 BKN050 FM151200
                       VRB03KT P6SM SCT030 BKN050
                      TEMPO 1512/1515 BKN030 FM151600 32006KT P6SM
                       SCT050 BKN150 FM160000 VRB03KT P6SM -RA
                       SCT035 OVC050=
201905142320 TAF KBFI 142320Z 1500/1524 22008KT P6SM FEW023 SCT040 OVC060
                      TEMPO 1500/1502 -SHRA BKN023 OVC040 FM150200
                       18006KT P6SM SCT025 OVC050 FM150900 00000KT
                       P6SM BKN015 OVC040 FM151800 33006KT P6SM
                       SCT035 BKN150=
201905141721 TAF KBFI 141721Z 1418/1518 17008KT P6SM -RA SCT013 BKN025 OVC045
                       TEMPO 1418/1420 5SM -RA BR BKN013 OVC025
                       FM142000 19010KT P6SM -SHRA BKN025 OVC045
                       FM150200 18006KT P6SM SCT025 OVC050 FM150900
                       00000KT P6SM BKN015 OVC040=
201905141122 TAF KBFI 141122Z 1412/1512 24004KT P6SM SCT070 OVC100 FM141400
                       17006KT P6SM -RA OVC050 FM141700 17008KT
                       P6SM -RA OVC025 FM142000 19010KT P6SM -SHRA
                       BKN025 OVC045 FM142300 18008KT P6SM -SHRA
                       SCT025 OVC050 FM150600 VRB03KT P6SM OVC050=
201905140539 TAF KBFI 140539Z 1406/1506 31006KT P6SM SCT120 BKN250 FM141000
                       17006KT P6SM BKN100 OVC200 FM141400 17006KT
                       P6SM -RA SCT025 OVC045 FM141600 17008KT
                       P6SM -RA OVC025 FM141900 19008KT P6SM -SHRA
                       SCT015 BKN025 OVC045 FM142300 19008KT P6SM
                       -SHRA SCT025 BKN045 BKN060=
201905132320 TAF KBFI 132320Z 1400/1424 VRB04KT P6SM BKN200 FM141000 16006KT
                       P6SM BKN030 FM141400 16006KT P6SM -RA OVC025
                       FM142000 21008KT P6SM VCSH BKN040=
201905131723 TAF KBFI 131723Z 1318/1418 18008KT P6SM SCT020 BKN150 FM140200
                       VRB04KT P6SM SCT030 BKN050 BKN120 FM140800
                       18008KT P6SM BKN030 OVC050 FM141200 18008KT
                       P6SM -RA OVC030=
201905131603 KBFI 131603Z 1316/1412 16007KT P6SM BKN015 FM131800 20007KT P6SM
                       SCT020 BKN200 FM140200 VRB04KT P6SM SCT030
                       BKN080 BKN200 FM140800 16006KT P6SM BKN025
                       OVC050=
201905131229 KBFI 131229Z 1312/1412 18005KT P6SM FEW015 SCT220
                      TEMPO 1312/1316 BKN010 FM131800 24005KT P6SM
                       SCT100 BKN250 FM140300 VRB03KT P6SM BKN090=
201905131133 TAF KBFI 131133Z 1312/1412 18005KT P6SM FEW015 SCT220 FM131800
                       24005KT P6SM SCT100 BKN250 FM140300 VRB03KT
                       P6SM BKN090=
201905130520 TAF KBFI 130520Z 1306/1406 VRB03KT P6SM SCT250 FM131200 18004KT
                       P6SM OVC015 FM131800 24005KT P6SM BKN250
                       FM140300 VRB03KT P6SM BKN090=
201905122330 TAF KBFI 122330Z 1300/1324 27005KT P6SM BKN250 FM131200 18004KT
                       P6SM OVC015 FM131800 19004KT P6SM BKN250=
201905121736 TAF KBFI 121736Z 1218/1318 23004KT P6SM OVC013 FM122100 20005KT
                       P6SM BKN250 FM131200 18004KT P6SM OVC015=
201905121127 TAF KBFI 121127Z 1212/1312 VRB05KT P6SM OVC010 FM121900 21008KT
                       P6SM OVC020 FM122100 22007KT P6SM SCT250=
201905120520 TAF KBFI 120520Z 1206/1306 19006KT P6SM SCT250 FM121200 17005KT
                       P6SM OVC012 FM122100 20005KT P6SM SCT250=
201905112324 TAF KBFI 112324Z 1200/1224 VRB05KT P6SM SCT250 FM121200 19005KT
                       P6SM OVC012 FM122100 20005KT P6SM SCT250=
201905111723 TAF KBFI 111723Z 1118/1218 20005KT P6SM SCT250 FM121200 17007KT
                       P6SM OVC011 FM121700 19007KT P6SM BKN040=
201905111124 TAF KBFI 111124Z 1112/1212 VRB03KT P6SM SKC FM111800 23006KT P6SM
                       FEW250 FM120000 25009KT P6SM FEW250=
201905110520 TAF KBFI 110520Z 1106/1206 VRB03KT P6SM SKC FM111800 22006KT P6SM
                       FEW250=
201905102331 TAF KBFI 102331Z 1100/1124 31006KT P6SM SKC FM111800 22006KT P6SM
                       FEW250=
201905101744 TAF KBFI 101744Z 1018/1118 00000KT P6SM SKC FM110000 VRB03KT P6SM
                       FEW250=
201905101120 TAF KBFI 101120Z 1012/1112 VRB03KT P6SM FEW250 FM101700 30006KT
                       P6SM FEW250 FM110400 VRB03KT P6SM FEW250=
201905100520 TAF KBFI 100520Z 1006/1106 VRB03KT P6SM FEW250 FM101800 30006KT
                       P6SM FEW250 FM110400 VRB03KT P6SM FEW250=
201905092330 TAF KBFI 092330Z 1000/1024 32010KT P6SM SCT250 FM100500 VRB03KT
                       P6SM FEW250 FM101800 30006KT P6SM FEW250=
201905091734 TAF KBFI 091734Z 0918/1018 32008KT P6SM FEW250 FM100300 VRB04KT
                       P6SM FEW250 FM101700 29005KT P6SM FEW250=
201905091502 KBFI 091502Z 0915/1012 VRB05KT P6SM FEW250 FM091800 32008KT P6SM
                       FEW250 FM100300 VRB03KT P6SM FEW250 FM100700
                       14005KT P6SM FEW250=
201905091137 TAF KBFI 091137Z 0912/1012 VRB03KT P6SM SCT110 SCT250 FM091800
                       32008KT P6SM FEW250 FM100300 VRB03KT P6SM
                       FEW250 FM100700 14005KT P6SM FEW250=
201905090520 TAF KBFI 090520Z 0906/1006 00000KT P6SM FEW250 FM091800 32006KT
                       P6SM FEW250 FM100300 VRB03KT P6SM FEW250=
201905082332 TAF KBFI 082332Z 0900/0924 32008KT P6SM FEW250 FM090600 00000KT
                       P6SM FEW250 FM091800 32006KT P6SM FEW250=
201905082124 KBFI 082124Z 0821/0918 33007KT P6SM FEW250 FM090600 VRB04KT P6SM
                       FEW250=
201905081736 TAF KBFI 081736Z 0818/0918 33007KT P6SM SCT120 BKN200 FM090600
                       VRB04KT P6SM FEW250=
201905081120 TAF KBFI 081120Z 0812/0912 19003KT P6SM SCT150
                      TEMPO 0812/0816 SCT012 FM081800 33008KT P6SM
                       SCT250 FM090300 01008KT P6SM FEW250=
201905080520 TAF KBFI 080520Z 0806/0906 VRB03KT P6SM SCT250 FM081800 33006KT
                       P6SM FEW150 SCT250 FM090300 VRB03KT P6SM
                       FEW250=
201905072329 TAF KBFI 072329Z 0800/0824 31006KT P6SM SCT250 FM080600 VRB03KT
                       P6SM SCT150 SCT250 FM081800 33006KT P6SM
                       FEW150 SCT250=
201905071733 TAF KBFI 071733Z 0718/0818 31006KT P6SM SCT250 FM080300 VRB03KT
                       P6SM SCT250 FM081700 33004KT P6SM SCT150
                       SCT250=
201905071459 KBFI 071459Z 0715/0812 00000KT P6SM SCT250 FM071800 31006KT P6SM
                       SCT250 FM080300 VRB04KT P6SM SCT250=
201905071120 TAF KBFI 071120Z 0712/0812 00000KT P6SM BKN250 FM071800 31006KT
                       P6SM SCT250 FM080300 VRB04KT P6SM SCT250=
201905070520 TAF KBFI 070520Z 0706/0806 00000KT P6SM BKN250 FM071800 31006KT
                       P6SM SCT250=
201905062325 TAF KBFI 062325Z 0700/0724 32008KT P6SM BKN250 FM070600 00000KT
                       P6SM FEW250 FM071800 31006KT P6SM SCT250=
201905061720 TAF KBFI 061720Z 0618/0718 VRB03KT P6SM FEW250 FM062100 30008KT
                       P6SM SCT250 FM070500 VRB02KT P6SM FEW250=
201905061459 KBFI 061459Z 0615/0712 VRB03KT P6SM FEW250 FM061800 33008KT P6SM
                       SCT250 FM070300 03005KT P6SM SKC=
201905061120 TAF KBFI 061120Z 0612/0712 05005KT P6SM FEW250 FM061800 33008KT
                       P6SM FEW250 FM070300 03005KT P6SM SKC=
201905060520 TAF KBFI 060520Z 0606/0706 33005KT P6SM SCT250=
201905052320 TAF KBFI 052320Z 0600/0624 33008KT P6SM FEW050 SCT250 FM060400
                       VRB03KT P6SM SCT040 SCT250 FM061700 30006KT
                       P6SM SCT250=
201905051720 TAF KBFI 051720Z 0518/0618 00000KT P6SM FEW050 SCT250 FM051900
                       33009KT P6SM FEW050 SCT250 FM060400 VRB03KT
                       P6SM SCT250=
201905051120 TAF KBFI 051120Z 0512/0612 00000KT P6SM FEW050 SCT250
                      TEMPO 0512/0516 SCT050 FM051800 33009KT P6SM
                       FEW050 SCT250 FM060400 02005KT P6SM SCT250=
201905050520 TAF KBFI 050520Z 0506/0606 00000KT P6SM FEW050 BKN250
                      TEMPO 0512/0516 BKN050 BKN250 FM051800 30007KT
                       P6SM FEW060 BKN250 FM060300 00000KT P6SM
                       SCT250=
201905042320 TAF KBFI 042320Z 0500/0524 30005KT P6SM SCT060 SCT250 FM050400
                       VRB03KT P6SM BKN060 FM051800 30007KT P6SM
                       SCT060 SCT250=
201905041720 TAF KBFI 041720Z 0418/0518 30005KT P6SM SCT060 SCT250 FM050400
                       VRB03KT P6SM BKN060=
201905041120 TAF KBFI 041120Z 0412/0512 00000KT P6SM FEW050 SCT250 FM041800
                       30005KT P6SM SCT060 SCT250 FM050400 00000KT
                       P6SM BKN060=
201905040520 TAF KBFI 040520Z 0406/0506 00000KT P6SM FEW050 SCT250 FM041900
                       30005KT P6SM SCT060 SCT250 FM050500 00000KT
                       P6SM BKN060=
201905032320 TAF KBFI 032320Z 0400/0424 30008KT P6SM FEW040 SCT250 FM040600
                       VRB03KT P6SM SCT050 SCT250 FM041900 30006KT
                       P6SM SCT050 SCT250=
201905031720 TAF KBFI 031720Z 0318/0418 VRB03KT P6SM FEW015 OVC021 FM031900
                       VRB03KT P6SM SCT025 FM032200 32008KT P6SM
                       SCT050 FM040600 VRB03KT P6SM SCT050 SCT250=
201905031138 TAF KBFI 031138Z 0312/0412 VRB03KT P6SM OVC021 FM031900 VRB03KT
                       P6SM SCT035 FM032200 32008KT P6SM SCT050
                       FM040600 VRB03KT P6SM SCT050=
201905030520 TAF KBFI 030520Z 0306/0406 VRB05KT P6SM BKN045 FM030800 VRB04KT
                       P6SM OVC035 FM032100 31006KT P6SM SCT040=
201905030300 KBFI 030300Z 0303/0324 12004KT P6SM BKN045 OVC060 FM030800 VRB04KT
                       P6SM OVC035 FM032100 31006KT P6SM SCT040=
201905022320 TAF KBFI 022320Z 0300/0324 18006KT P6SM BKN050 FM030800 16006KT
                       P6SM OVC035 FM032100 31006KT P6SM SCT040=
201905021720 TAF KBFI 021720Z 0218/0318 18008KT P6SM BKN040 FM030800 18006KT
                       P6SM OVC030=
201905021139 TAF KBFI 021139Z 0212/0312 17003KT P6SM OVC025 FM021800 17010KT
                       P6SM BKN035 FM022100 20008KT P6SM BKN050
                       FM030900 17005KT P6SM BKN035=
201905020528 TAF KBFI 020528Z 0206/0306 18005KT P6SM FEW040 SCT250 FM021000
                       17008KT P6SM BKN025 FM021400 18008KT P6SM
                       OVC025 FM021700 17010KT P6SM BKN025 FM022100
                       20008KT P6SM SCT040=
201905012320 TAF KBFI 012320Z 0200/0224 19010KT P6SM FEW040 SCT250 FM020800
                       16008KT P6SM BKN025 FM021200 18008KT P6SM
                       OVC025 FM021700 21008KT P6SM BKN025 FM022100
                       21010KT P6SM SCT040=
201905011720 TAF KBFI 011720Z 0118/0218 21007KT P6SM FEW025 SCT250 FM012200
                       21010KT P6SM SCT030 SCT120 FM020800 16008KT
                       P6SM BKN025 BKN050 FM021200 18008KT P6SM
                       OVC018 FM021700 21008KT P6SM BKN025=
201905011137 TAF KBFI 011137Z 0112/0212 14006KT P6SM SKC FM011400 16006KT P6SM
                       FEW006 FM011700 18008KT P6SM SCT040 SCT200=
201905010529 TAF KBFI 010529Z 0106/0206 VRB03KT P6SM SCT110 SCT250 FM011200
                       15005KT P6SM FEW015 FM011700 18008KT P6SM
                       SCT040 SCT200 FM012200 21010KT P6SM SCT040
                       SCT250=