##########################################################
# Query made at 02/17/2025 04:00:34 UTC
# Time interval: from 02/01/2019 00:00  to 02/28/2019 23:59  UTC
##########################################################

##########################################################
# KBFI, Seattle, Seattle Boeing Field (United States)
# WMO index: -----. WIGOS ID: Unknown
# Latitude 47-32-45N. Longitude 122-18-49W. Altitude 5 m.
##########################################################

###################################
#  METAR/SPECI from KBFI
###################################
201902282353 METAR KBFI 282353Z 31004KT 10SM CLR 09/M06 A3007 RMK AO2 SLP184 T00891056 10094 20039 56007=
201902282253 METAR KBFI 282253Z 03005KT 10SM FEW055 09/M05 A3008 RMK AO2 SLP186 T00891050=
201902282153 METAR KBFI 282153Z VRB03KT 10SM FEW040 FEW250 08/M05 A3008 RMK AO2 SLP186 T00831050=
201902282053 METAR KBFI 282053Z VRB03KT 10SM FEW040 08/M05 A3009 RMK AO2 SLP190 T00781050 58005=
201902281953 METAR KBFI 281953Z 00000KT 10SM CLR 07/M06 A3011 RMK AO2 SLP194 T00721061=
201902281853 METAR KBFI 281853Z 00000KT 10SM CLR 06/M03 A3011 RMK AO2 SLP197 T00561033=
201902281753 METAR KBFI 281753Z 00000KT 10SM CLR 04/M03 A3011 RMK AO2 SLP196 T00441033 10044 21028 50002=
201902281653 METAR KBFI 281653Z 17003KT 10SM CLR 02/M04 A3012 RMK AO2 SLP198 T00171044=
201902281553 METAR KBFI 281553Z AUTO 00000KT 10SM CLR 00/M04 A3012 RMK AO2 SLP197 T00001044=
201902281453 METAR KBFI 281453Z 15003KT 10SM CLR M01/M05 A3011 RMK AO2 SLP194 T10061050 53002=
201902281353 METAR KBFI 281353Z 16005KT 10SM CLR M02/M06 A3010 RMK AO2 SLP191 T10171056=
201902281253 METAR KBFI 281253Z 16004KT 10SM SCT070 M01/M04 A3009 RMK AO2 SLP190 T10061039=
201902281153 METAR KBFI 281153Z 16003KT 10SM SCT065 BKN080 00/M04 A3010 RMK AO2 SLP192 T00001039 10039 21011 50000=
201902281053 METAR KBFI 281053Z 00000KT 10SM BKN065 M01/M04 A3011 RMK AO2 SLP195 T10061039=
201902280953 METAR KBFI 280953Z 00000KT 10SM SCT090 M01/M04 A3011 RMK AO2 SLP195 T10061044=
201902280853 METAR KBFI 280853Z 00000KT 10SM CLR 01/M03 A3010 RMK AO2 SLP192 T00061033 52012=
201902280753 METAR KBFI 280753Z 14005KT 10SM CLR 00/M04 A3009 RMK AO2 SLP187 T00001039 400670000=
201902280653 METAR KBFI 280653Z 15006KT 10SM FEW047 BKN055 02/M03 A3008 RMK AO2 SLP185 T00221028=
201902280553 METAR KBFI 280553Z 16008KT 10SM OVC039 03/M02 A3007 RMK AO2 SLP180 T00331017 10056 20033 53021=
201902280453 METAR KBFI 280453Z 15007KT 10SM BKN040 OVC055 04/M03 A3004 RMK AO2 SLP173 T00441033=
201902280353 METAR KBFI 280353Z 12003KT 10SM FEW038 BKN070 OVC090 04/M03 A3002 RMK AO2 SLP166 T00391028=
201902280253 METAR KBFI 280253Z 15006KT 10SM OVC055 04/M03 A3000 RMK AO2 SLP159 T00441028 53019=
201902280153 METAR KBFI 280153Z 18004KT 10SM OVC060 05/M04 A2998 RMK AO2 SLP151 T00501039=
201902280053 METAR KBFI 280053Z VRB06KT 10SM OVC060 05/M05 A2996 RMK AO2 SLP146 T00501050=
201902272353 METAR KBFI 272353Z 21004KT 10SM OVC060 06/M06 A2995 RMK AO2 SLP140 60000 T00561056 10067 20044 53020=
201902272253 METAR KBFI 272253Z 27005KT 10SM OVC065 06/M07 A2992 RMK AO2 SLP130 T00611067=
201902272153 METAR KBFI 272153Z 29006KT 10SM OVC065 06/M07 A2990 RMK AO2 SLP126 T00561072=
201902272053 METAR KBFI 272053Z 32004KT 10SM OVC065 06/M08 A2989 RMK AO2 SNB1959E45 SLP120 P0000 60000 T00611083 53010=
201902271953 METAR KBFI 271953Z 00000KT 10SM OVC065 06/M09 A2988 RMK AO2 SLP117 T00611094=
201902271853 METAR KBFI 271853Z 04007KT 10SM OVC060 05/M09 A2986 RMK AO2 SLP110 T00501094=
201902271753 METAR KBFI 271753Z AUTO VRB03KT 10SM OVC065 04/M09 A2986 RMK AO2 SLP109 T00441094 10044 20017 53008=
201902271653 METAR KBFI 271653Z VRB03KT 10SM OVC075 03/M10 A2985 RMK AO2 SLP106 T00331100=
201902271553 METAR KBFI 271553Z 03004KT 10SM OVC070 03/M12 A2984 RMK AO2 SLP103 T00281117=
201902271453 METAR KBFI 271453Z 04005KT 10SM OVC070 03/M12 A2983 RMK AO2 SLP101 T00281117 56008=
201902271353 METAR KBFI 271353Z 36004KT 10SM OVC070 02/M12 A2984 RMK AO2 SLP103 T00221117=
201902271253 METAR KBFI 271253Z 34004KT 10SM OVC080 02/M12 A2985 RMK AO2 SLP107 T00221122=
201902271153 METAR KBFI 271153Z 36004KT 10SM OVC090 02/M11 A2986 RMK AO2 SLP109 T00171111 10017 20000 56022=
201902271053 METAR KBFI 271053Z 03004KT 10SM OVC090 02/M12 A2987 RMK AO2 SLP114 T00171117=
201902270953 METAR KBFI 270953Z VRB04KT 10SM OVC095 01/M12 A2989 RMK AO2 SLP122 T00111122=
201902270853 METAR KBFI 270853Z 00000KT 10SM OVC090 01/M12 A2992 RMK AO2 SLP131 T00111117 56032=
201902270753 METAR KBFI 270753Z 00000KT 10SM OVC100 01/M12 A2995 RMK AO2 SLP141 T00111122 400721028=
201902270653 METAR KBFI 270653Z VRB03KT 10SM BKN120 01/M12 A2998 RMK AO2 SLP151 T00111117=
201902270553 METAR KBFI 270553Z 04004KT 10SM CLR 01/M11 A3001 RMK AO2 SLP163 T00061106 10050 20000 58017=
201902270453 METAR KBFI 270453Z 00000KT 10SM BKN200 01/M11 A3004 RMK AO2 SLP172 T00061106=
201902270353 METAR KBFI 270353Z 00000KT 10SM CLR 01/M12 A3006 RMK AO2 SLP178 T00061122=
201902270253 METAR KBFI 270253Z 07005KT 10SM FEW200 02/M12 A3007 RMK AO2 SLP180 T00171122 56004=
201902270153 METAR KBFI 270153Z 10008KT 10SM SCT060 SCT200 03/M12 A3007 RMK AO2 SLP181 T00281122=
201902270053 METAR KBFI 270053Z 12014G19KT 10SM SCT060 SCT200 04/M12 A3007 RMK AO2 SLP183 T00391122=
201902262353 METAR KBFI 262353Z 12015G24KT 10SM FEW040 SCT200 04/M12 A3008 RMK AO2 PK WND 13026/2331 SLP184 T00441122 10072 20044 56014=
201902262253 METAR KBFI 262253Z 15013KT 10SM FEW040 SCT200 06/M10 A3008 RMK AO2 SLP187 T00611100=
201902262153 METAR KBFI 262153Z 11011G15KT 10SM CLR 06/M11 A3010 RMK AO2 SLP192 T00611106=
201902262053 METAR KBFI 262053Z VRB06KT 10SM CLR 07/M09 A3012 RMK AO2 SLP198 T00671094 58010=
201902261953 METAR KBFI 261953Z VRB05KT 10SM CLR 06/M09 A3014 RMK AO2 SLP206 T00611094=
201902261853 METAR KBFI 261853Z 12006KT 10SM CLR 05/M09 A3015 RMK AO2 SLP209 T00501094=
201902261753 METAR KBFI 261753Z 04005KT 10SM CLR 04/M08 A3015 RMK AO2 SLP208 T00441078 10044 21028 51020=
201902261653 METAR KBFI 261653Z VRB04KT 10SM CLR 03/M06 A3014 RMK AO2 SLP205 T00281061=
201902261553 METAR KBFI 261553Z 00000KT 10SM CLR 00/M05 A3011 RMK AO2 SLP196 T00001050=
201902261453 METAR KBFI 261453Z 16003KT 10SM FEW055 M02/M06 A3009 RMK AO2 SLP188 T10221056 51019=
201902261353 METAR KBFI 261353Z AUTO 00000KT 10SM CLR 01/M05 A3007 RMK AO2 SLP182 T00061050=
201902261253 METAR KBFI 261253Z 00000KT 10SM CLR 01/M06 A3006 RMK AO2 SLP177 T00061056=
201902261153 METAR KBFI 261153Z 05003KT 10SM CLR 00/M06 A3003 RMK AO2 SLP169 T00001061 10033 20000 51020=
201902261053 METAR KBFI 261053Z 00000KT 10SM CLR 01/M07 A3001 RMK AO2 SLP163 T00061067=
201902260953 METAR KBFI 260953Z 01003KT 10SM CLR 02/M07 A3000 RMK AO2 SLP157 T00171067=
201902260853 METAR KBFI 260853Z 36003KT 10SM OVC100 03/M06 A2997 RMK AO2 SLP149 T00281061 51025=
201902260753 METAR KBFI 260753Z 02003KT 10SM OVC100 03/M07 A2995 RMK AO2 SLP142 T00331067 400671011=
201902260653 METAR KBFI 260653Z 00000KT 10SM FEW060 OVC100 03/M07 A2993 RMK AO2 SLP135 T00331067=
201902260553 METAR KBFI 260553Z VRB03KT 10SM OVC095 03/M07 A2990 RMK AO2 SLP124 T00331072 10050 20033 53027=
201902260453 METAR KBFI 260453Z 00000KT 10SM FEW050 SCT070 OVC095 03/M08 A2987 RMK AO2 SLP113 T00331078=
201902260353 METAR KBFI 260353Z VRB04KT 10SM FEW050 FEW070 OVC095 04/M08 A2984 RMK AO2 SLP106 T00391083=
201902260253 METAR KBFI 260253Z 01005KT 10SM OVC090 04/M08 A2982 RMK AO2 SLP097 T00391083 53016=
201902260153 METAR KBFI 260153Z 33008KT 10SM OVC080 04/M07 A2980 RMK AO2 SLP089 T00441072=
201902260053 METAR KBFI 260053Z 35003KT 10SM FEW040 OVC085 05/M08 A2978 RMK AO2 SLP084 T00501078=
201902252353 METAR KBFI 252353Z 33009G21KT 10SM OVC085 05/M08 A2977 RMK AO2 SLP081 T00501078 10067 20044 55002=
201902252253 METAR KBFI 252253Z 33012G19KT 10SM OVC080 06/M07 A2976 RMK AO2 SLP077 T00561072=
201902252153 METAR KBFI 252153Z 34011G20KT 290V010 10SM FEW014 SCT090 06/M07 A2976 RMK AO2 SLP078 T00611067=
201902252053 METAR KBFI 252053Z 35009G14KT 10SM CLR 07/M06 A2978 RMK AO2 SLP083 T00671061 57014=
201902251953 METAR KBFI 251953Z 34009G14KT 10SM CLR 07/M05 A2979 RMK AO2 SLP088 T00671050=
201902251853 METAR KBFI 251853Z 02005KT 10SM CLR 06/M06 A2981 RMK AO2 SLP092 T00561061=
201902251753 METAR KBFI 251753Z 02006KT 10SM CLR 04/M05 A2982 RMK AO2 SLP097 T00441050 10044 21011 58010=
201902251653 METAR KBFI 251653Z 01004KT 10SM CLR 03/M04 A2984 RMK AO2 SLP103 T00331044=
201902251553 METAR KBFI 251553Z 02004KT 10SM CLR 02/M04 A2985 RMK AO2 SLP106 T00171039=
201902251453 METAR KBFI 251453Z 00000KT 10SM FEW100 M01/M06 A2985 RMK AO2 SLP107 T10061056 56013=
201902251353 METAR KBFI 251353Z 00000KT 10SM CLR 00/M06 A2986 RMK AO2 SLP112 T00001056=
201902251253 METAR KBFI 251253Z AUTO 00000KT 10SM CLR 00/M04 A2987 RMK AO2 SLP114 T00001039=
201902251153 METAR KBFI 251153Z 00000KT 10SM CLR 01/M03 A2989 RMK AO2 SLP121 T00111033 10044 20006 58012=
201902251053 METAR KBFI 251053Z 00000KT 10SM CLR 01/M02 A2990 RMK AO2 SLP126 T00111022=
201902250953 METAR KBFI 250953Z 00000KT 10SM CLR 01/M02 A2992 RMK AO2 SLP130 T00111022=
201902250853 METAR KBFI 250853Z 00000KT 10SM CLR 02/M01 A2992 RMK AO2 SLP133 T00171011 58008=
201902250753 METAR KBFI 250753Z 02003KT 10SM FEW080 03/M01 A2993 RMK AO2 SLP136 T00281006 400610028=
201902250653 METAR KBFI 250653Z 04004KT 10SM BKN080 04/M01 A2994 RMK AO2 SLP138 T00391006=
201902250553 METAR KBFI 250553Z 05003KT 10SM FEW075 OVC095 04/M01 A2995 RMK AO2 SLP141 60000 T00441006 10061 20044 56002=
201902250453 METAR KBFI 250453Z 00000KT 10SM OVC075 04/M01 A2995 RMK AO2 SLP141 T00441011=
201902250353 METAR KBFI 250353Z 00000KT 10SM SCT055 BKN075 OVC085 06/M02 A2995 RMK AO2 RAE0255 SLP141 P0000 T00561017=
201902250253 METAR KBFI 250253Z VRB03KT 10SM -RA OVC036 05/M01 A2995 RMK AO2 RAB28 SLP143 P0000 60000 T00501011 53003=
201902250153 METAR KBFI 250153Z 00000KT 10SM OVC049 06/M01 A2995 RMK AO2 SLP140 T00561006=
201902250053 METAR KBFI 250053Z 00000KT 10SM BKN041 OVC049 06/M01 A2995 RMK AO2 RAB21E38 SLP141 P0000 T00561006=
201902242353 METAR KBFI 242353Z VRB04KT 10SM SCT047 OVC060 06/M01 A2994 RMK AO2 SLP140 T00611006 10061 20044 55001=
201902242253 METAR KBFI 242253Z 06005KT 10SM OVC050 06/M01 A2994 RMK AO2 SLP137 T00561006=
201902242153 METAR KBFI 242153Z VRB04KT 10SM BKN038 OVC047 06/M01 A2994 RMK AO2 SLP138 T00561011=
201902242053 METAR KBFI 242053Z 13005KT 10SM BKN047 OVC055 06/M01 A2995 RMK AO2 SLP141 T00561011 58001=
201902241953 METAR KBFI 241953Z VRB03KT 10SM SCT020 BKN030 OVC060 05/M01 A2995 RMK AO2 SLP143 T00501006=
201902241853 METAR KBFI 241853Z 03003KT 10SM BKN060 BKN090 05/M01 A2995 RMK AO2 SLP142 T00501011=
201902241753 METAR KBFI 241753Z 30003KT 10SM OVC060 04/00 A2995 RMK AO2 SLP142 T00440000 10044 20028 50000=
201902241653 METAR KBFI 241653Z 06006KT 10SM SCT047 BKN060 04/M01 A2995 RMK AO2 SLP142 T00391006=
201902241553 METAR KBFI 241553Z AUTO VRB03KT 10SM BKN042 OVC049 03/00 A2995 RMK AO2 SLP141 T00330000=
201902241453 METAR KBFI 241453Z 12005KT 10SM FEW040 SCT047 OVC060 03/M01 A2995 RMK AO2 SLP141 T00331011 56009=
201902241353 METAR KBFI 241353Z 00000KT 10SM OVC051 03/00 A2995 RMK AO2 SLP142 T00330000=
201902241253 METAR KBFI 241253Z 15003KT 10SM BKN041 BKN050 OVC100 03/M01 A2996 RMK AO2 SLP145 T00281006=
201902241153 METAR KBFI 241153Z 00000KT 10SM OVC037 03/01 A2998 RMK AO2 SLP151 60000 70012 T00330011 10044 20033 58019=
201902241053 METAR KBFI 241053Z 00000KT 10SM BKN039 OVC047 04/00 A3000 RMK AO2 RAB22E33 SLP157 P0000 T00390000=
201902240953 METAR KBFI 240953Z 06004KT 10SM BKN043 OVC050 04/01 A3002 RMK AO2 SLP164 T00390011=
201902240853 METAR KBFI 240853Z 05005KT 10SM OVC044 04/02 A3003 RMK AO2 SLP169 60000 T00440022 58007=
201902240753 METAR KBFI 240753Z 00000KT 10SM OVC034 04/03 A3004 RMK AO2 RAB01E25 SLP172 P0000 T00440028 400780022=
201902240653 METAR KBFI 240653Z 15003KT 10SM OVC032 04/02 A3005 RMK AO2 SLP176 T00390022=
201902240553 METAR KBFI 240553Z 17003KT 10SM SCT055 BKN070 OVC085 04/02 A3005 RMK AO2 SLP177 60011 T00390022 10067 20039 56005=
201902240453 METAR KBFI 240453Z 05005KT 10SM SCT032 BKN047 OVC085 04/03 A3006 RMK AO2 RAE10 SLP178 P0001 T00440028=
201902240353 METAR KBFI 240353Z 00000KT 8SM -RA BKN015 BKN026 OVC032 05/02 A3006 RMK AO2 SLP180 P0006 T00500017=
201902240253 METAR KBFI 240253Z 00000KT 6SM -RA SCT012 BKN023 OVC041 05/02 A3007 RMK AO2 RAB16 SLP182 P0004 60004 T00500022 55005=
201902240228 SPECI KBFI 240228Z 00000KT 3SM RA SCT012 BKN023 OVC041 06/03 A3007 RMK AO2 RAB16 P0003 T00560028=
201902240153 METAR KBFI 240153Z 00000KT 10SM FEW040 BKN070 OVC100 06/02 A3007 RMK AO2 SLP181 T00610022=
201902240053 METAR KBFI 240053Z 09005KT 10SM SCT050 OVC080 07/02 A3007 RMK AO2 RAB08E17 SLP182 P0000 T00670017=
201902232353 METAR KBFI 232353Z 09007KT 10SM SCT040 BKN050 OVC110 07/02 A3009 RMK AO2 SLP187 60001 T00670017 10078 20056 56011=
201902232253 METAR KBFI 232253Z 22005KT 10SM FEW050 BKN075 08/01 A3009 RMK AO2 SLP189 T00780011=
201902232153 METAR KBFI 232153Z 22009KT 10SM FEW019 SCT075 BKN095 07/01 A3010 RMK AO2 RAE49 SLP193 P0001 T00720006=
201902232101 SPECI KBFI 232101Z 22004KT 4SM -RA BKN028 BKN033 OVC060 06/02 A3012 RMK AO2 P0001 T00610022=
201902232053 METAR KBFI 232053Z 24006KT 4SM -RA BKN028 BKN033 OVC060 06/02 A3012 RMK AO2 RAB49 SLP199 P0000 60000 T00560017 58002=
201902231953 METAR KBFI 231953Z 20007KT 10SM BKN020 BKN039 OVC050 07/01 A3013 RMK AO2 SLP201 T00670011=
201902231853 METAR KBFI 231853Z 19008KT 10SM BKN020 BKN048 OVC075 06/01 A3013 RMK AO2 SLP201 T00610011=
201902231753 METAR KBFI 231753Z 21009KT 10SM BKN015 BKN025 07/02 A3013 RMK AO2 SLP201 T00670022 10067 20022 51010=
201902231653 METAR KBFI 231653Z 15009KT 10SM SCT015 BKN025 04/01 A3012 RMK AO2 SLP199 T00390006=
201902231553 METAR KBFI 231553Z 17006KT 10SM SCT015 BKN025 03/00 A3011 RMK AO2 SLP195 T00330000=
201902231453 METAR KBFI 231453Z 13006KT 10SM SCT016 SCT022 BKN080 03/00 A3010 RMK AO2 SLP191 T00280000 51006=
201902231353 METAR KBFI 231353Z 15007KT 10SM BKN015 OVC040 03/01 A3009 RMK AO2 SLP190 T00330006=
201902231253 METAR KBFI 231253Z 15006KT 10SM OVC017 03/01 A3008 RMK AO2 SLP187 T00330006=
201902231153 METAR KBFI 231153Z 16005KT 10SM OVC014 04/01 A3008 RMK AO2 SLP185 70013 T00390006 10044 20039 51009=
201902231053 METAR KBFI 231053Z 17005KT 10SM OVC015 04/01 A3007 RMK AO2 SLP182 T00390011=
201902231046 SPECI KBFI 231046Z 15007KT 10SM OVC013 04/01 A3007 RMK AO2 T00390006=
201902230953 METAR KBFI 230953Z 20003KT 10SM BKN015 OVC021 04/01 A3007 RMK AO2 SLP180 T00390011=
201902230853 METAR KBFI 230853Z 17004KT 10SM BKN016 OVC023 04/01 A3005 RMK AO2 SLP176 T00390011 53014=
201902230753 METAR KBFI 230753Z 16005KT 10SM SCT015 OVC020 04/01 A3004 RMK AO2 SLP171 T00390011 400560011=
201902230653 METAR KBFI 230653Z 16007KT 10SM OVC018 04/01 A3002 RMK AO2 SLP166 T00440011=
201902230553 METAR KBFI 230553Z 16007KT 10SM BKN015 OVC055 04/01 A3001 RMK AO2 SLP162 T00390011 10050 20028 51012=
201902230453 METAR KBFI 230453Z 15006KT 10SM BKN015 OVC055 04/02 A3000 RMK AO2 SLP159 T00390017=
201902230353 METAR KBFI 230353Z 15006KT 10SM BKN019 OVC055 04/02 A2999 RMK AO2 SLP155 T00440017=
201902230253 METAR KBFI 230253Z 16007KT 10SM BKN019 04/02 A2997 RMK AO2 SLP149 T00440022 53013=
201902230153 METAR KBFI 230153Z 19004KT 10SM OVC015 05/02 A2996 RMK AO2 SLP145 T00500017=
201902230053 METAR KBFI 230053Z 17006KT 10SM OVC012 05/02 A2995 RMK AO2 SLP140 T00500017=
201902222353 METAR KBFI 222353Z 20007KT 10SM OVC012 04/02 A2994 RMK AO2 SLP137 60013 T00440017 10056 20039 51012=
201902222253 METAR KBFI 222253Z 20007KT 10SM OVC012 04/02 A2993 RMK AO2 RAB04E14 SLP133 P0000 T00390017=
201902222153 METAR KBFI 222153Z 23013G21KT 10SM OVC012 04/01 A2992 RMK AO2 RAE13B29E51 SLP132 P0003 T00390011=
201902222100 SPECI KBFI 222100Z 20008G17KT 8SM -RA BKN017 OVC023 04/01 A2990 RMK AO2 P0001 T00440011=
201902222053 METAR KBFI 222053Z 20010G18KT 6SM -RA BKN012 BKN028 OVC033 04/01 A2990 RMK AO2 SLP124 P0009 60010 T00440011 58017=
201902222009 SPECI KBFI 222009Z 19008G19KT 5SM -RA BKN012 BKN028 OVC033 05/00 A2992 RMK AO2 P0001 T00500000=
201902221953 METAR KBFI 221953Z 20008G19KT 170V240 10SM -RA OVC032 06/M01 A2992 RMK AO2 PK WND 17026/1906 RAB01 SLP130 P0001 T00561006=
201902221853 METAR KBFI 221853Z 17012G18KT 10SM OVC032 06/M01 A2994 RMK AO2 RAB26E49 SLP137 P0000 T00561011=
201902221753 METAR KBFI 221753Z 16012KT 10SM SCT033 BKN045 OVC055 06/M02 A2995 RMK AO2 SLP141 60000 T00561017 10056 20017 58023=
201902221701 SPECI KBFI 221701Z 17015G21KT 10SM SCT028 BKN030 OVC110 04/M02 A2998 RMK AO2 T00441017=
201902221653 METAR KBFI 221653Z 17013G19KT 10SM BKN028 BKN033 OVC110 04/M02 A2998 RMK AO2 RAB1559E40 SLP150 P0000 T00441017=
201902221553 METAR KBFI 221553Z 16007KT 10SM BKN040 BKN050 OVC060 03/M02 A3001 RMK AO2 SLP162 T00331022=
201902221453 METAR KBFI 221453Z 14007KT 10SM OVC060 03/M02 A3002 RMK AO2 SLP164 T00281022 58017=
201902221353 METAR KBFI 221353Z 13008KT 10SM SCT075 OVC090 02/M02 A3004 RMK AO2 SLP171 T00221022=
201902221253 METAR KBFI 221253Z 15007KT 10SM OVC100 02/M02 A3006 RMK AO2 SLP179 T00171022=
201902221153 METAR KBFI 221153Z 14008KT 10SM BKN120 02/M02 A3007 RMK AO2 SLP182 T00171022 10028 20011 58010=
201902221053 METAR KBFI 221053Z 13006KT 10SM BKN110 02/M02 A3008 RMK AO2 SLP187 T00171022=
201902220953 METAR KBFI 220953Z 14008KT 10SM FEW120 02/M02 A3009 RMK AO2 SLP190 T00171022=
201902220853 METAR KBFI 220853Z AUTO 15006KT 10SM BKN110 02/M02 A3010 RMK AO2 SLP192 T00171022 56011=
201902220753 METAR KBFI 220753Z 14009KT 10SM OVC250 02/M02 A3010 RMK AO2 SLP193 T00171017 400831017=
201902220653 METAR KBFI 220653Z 13006KT 10SM SCT250 02/M02 A3012 RMK AO2 SLP198 T00221017=
201902220553 METAR KBFI 220553Z 13005KT 10SM CLR 03/M02 A3013 RMK AO2 SLP203 T00281022 10078 20017 51006=
201902220453 METAR KBFI 220453Z 15003KT 10SM CLR 03/M03 A3013 RMK AO2 SLP202 T00281028=
201902220353 METAR KBFI 220353Z 00000KT 10SM CLR 04/M03 A3013 RMK AO2 SLP202 T00391028=
201902220253 METAR KBFI 220253Z 00000KT 10SM CLR 04/M03 A3011 RMK AO2 SLP196 T00441028 57002=
201902220153 METAR KBFI 220153Z 00000KT 10SM FEW030 06/M03 A3012 RMK AO2 SLP198 T00611028=
201902220053 METAR KBFI 220053Z 34005KT 10SM CLR 07/M03 A3012 RMK AO2 SLP197 T00721028=
201902212353 METAR KBFI 212353Z 31004KT 10SM FEW030 07/M03 A3012 RMK AO2 SLP199 T00721028 10083 20039 56007=
201902212253 METAR KBFI 212253Z 32007KT 10SM CLR 08/M03 A3012 RMK AO2 SLP199 T00781028=
201902212153 METAR KBFI 212153Z VRB03KT 10SM CLR 08/M02 A3012 RMK AO2 SLP200 T00831022=
201902212053 METAR KBFI 212053Z 30005KT 10SM CLR 07/M03 A3014 RMK AO2 SLP205 T00721033 58003=
201902211953 METAR KBFI 211953Z 36004KT 10SM FEW028 07/M02 A3016 RMK AO2 SLP214 T00671017=
201902211853 METAR KBFI 211853Z AUTO 32007KT 10SM CLR 06/M02 A3016 RMK AO2 SLP212 T00561022=
201902211753 METAR KBFI 211753Z AUTO 17004KT 10SM CLR 04/M02 A3015 RMK AO2 SLP209 T00391017 10039 21017 51010=
201902211653 METAR KBFI 211653Z 16004KT 10SM CLR 02/M02 A3014 RMK AO2 SLP206 T00171017=
201902211553 METAR KBFI 211553Z 14003KT 10SM SCT007 M01/M03 A3013 RMK AO2 SLP203 T10061028=
201902211453 METAR KBFI 211453Z 14003KT 10SM SCT007 00/M02 A3012 RMK AO2 SLP199 T00001017 51016=
201902211353 METAR KBFI 211353Z 05004KT 6SM BR SCT007 02/M01 A3011 RMK AO2 SLP195 T00171006=
201902211253 METAR KBFI 211253Z 04003KT 10SM SCT021 02/M01 A3010 RMK AO2 SLP191 T00171006=
201902211153 METAR KBFI 211153Z 00000KT 10SM CLR 02/M01 A3007 RMK AO2 SLP183 70001 T00171011 10050 20017 51015=
201902211053 METAR KBFI 211053Z 00000KT 10SM BKN025 03/00 A3007 RMK AO2 SLP181 T00330000=
201902210953 METAR KBFI 210953Z 04004KT 10SM BKN023 BKN029 04/00 A3005 RMK AO2 SLP174 T00440000=
201902210853 METAR KBFI 210853Z 04004KT 10SM SCT023 BKN031 BKN038 05/00 A3003 RMK AO2 SLP169 T00500000 53016=
201902210753 METAR KBFI 210753Z VRB04KT 10SM OVC030 05/00 A3001 RMK AO2 SLP162 T00500000 400670033=
201902210653 METAR KBFI 210653Z VRB04KT 10SM OVC030 05/00 A2999 RMK AO2 SLP156 T00500000=
201902210553 METAR KBFI 210553Z VRB04KT 10SM OVC031 05/00 A2998 RMK AO2 SLP153 T00500000 10056 20039 53022=
201902210453 METAR KBFI 210453Z VRB03KT 10SM OVC030 05/M01 A2996 RMK AO2 SLP143 T00501006=
201902210353 METAR KBFI 210353Z 35007KT 310V020 10SM OVC036 04/M01 A2994 RMK AO2 SLP136 T00441011=
201902210253 METAR KBFI 210253Z 00000KT 10SM FEW030 SCT040 04/M01 A2992 RMK AO2 SLP131 T00391011 53016=
201902210153 METAR KBFI 210153Z 36004KT 10SM BKN033 05/M01 A2989 RMK AO2 SLP122 T00501006=
201902210101 SPECI KBFI 210101Z 36003KT 10SM BKN030 06/M01 A2988 RMK AO2 T00561011=
201902210053 METAR KBFI 210053Z VRB03KT 10SM BKN028 OVC042 06/M01 A2988 RMK AO2 SLP119 T00561006=
201902202353 METAR KBFI 202353Z VRB04KT 10SM BKN028 OVC042 06/00 A2987 RMK AO2 SLP115 60001 T00560000 10067 20044 51002=
201902202320 SPECI KBFI 202320Z 05004KT 10SM BKN025 OVC033 06/00 A2987 RMK AO2 T00560000=
201902202307 SPECI KBFI 202307Z 36004KT 10SM SCT027 BKN033 OVC055 06/00 A2987 RMK AO2 T00560000=
201902202253 METAR KBFI 202253Z AUTO 06005KT 10SM SCT027 BKN055 06/M01 A2987 RMK AO2 RAE05 SLP115 P0000 T00561006=
201902202153 METAR KBFI 202153Z 04005KT 9SM -RA SCT024 BKN029 OVC037 04/01 A2987 RMK AO2 RAB2059E21B51 SLP113 P0001 T00440006=
201902202053 METAR KBFI 202053Z VRB04KT 10SM OVC022 05/M01 A2987 RMK AO2 SLP113 60000 T00501006 56002=
201902201953 METAR KBFI 201953Z 28006KT 10SM FEW022 BKN033 06/01 A2987 RMK AO2 RAB1854E48 SLP113 P0000 T00610011=
201902201853 METAR KBFI 201853Z 31004KT 10SM SCT021 BKN029 OVC033 05/01 A2987 RMK AO2 SLP114 T00500006=
201902201753 METAR KBFI 201753Z 12003KT 10SM SCT029 BKN043 OVC060 04/01 A2987 RMK AO2 SLP115 T00440006 10044 20033 50005=
201902201653 METAR KBFI 201653Z 12003KT 10SM FEW024 BKN035 OVC042 04/01 A2987 RMK AO2 SLP116 T00390011=
201902201553 METAR KBFI 201553Z 00000KT 10SM FEW023 BKN060 04/01 A2987 RMK AO2 SLP114 T00390011=
201902201453 METAR KBFI 201453Z 00000KT 10SM SCT027 BKN060 03/01 A2986 RMK AO2 SLP110 T00330006 53001=
201902201353 METAR KBFI 201353Z 00000KT 10SM SCT021 OVC065 04/01 A2985 RMK AO2 SLP107 T00390006=
201902201329 SPECI KBFI 201329Z 00000KT 10SM FEW036 OVC065 03/01 A2985 RMK AO2 T00330011=
201902201253 METAR KBFI 201253Z 00000KT 10SM SCT010 BKN015 OVC021 03/01 A2984 RMK AO2 SLP106 T00330011=
201902201153 METAR KBFI 201153Z AUTO 00000KT 5SM BR SCT010 BKN015 OVC021 03/01 A2985 RMK AO2 RAE15 SLP109 P0001 60020 70023 T00330011 10050 20033 55000=
201902201053 METAR KBFI 201053Z 00000KT 5SM -RA BR SCT010 BKN015 OVC021 04/02 A2985 RMK AO2 SLP106 P0005 T00390022=
201902200953 METAR KBFI 200953Z 00000KT 5SM -RA BR SCT010 BKN015 OVC021 03/02 A2985 RMK AO2 SLP107 P0006 T00330022=
201902200853 METAR KBFI 200853Z 00000KT 10SM -RA FEW016 OVC021 03/02 A2985 RMK AO2 RAB0759 SLP109 P0008 60008 T00330017 55005=
201902200753 METAR KBFI 200753Z 00000KT 10SM SCT014 BKN017 04/02 A2984 RMK AO2 SLP105 T00440017 400670028=
201902200653 METAR KBFI 200653Z 00000KT 10SM SCT014 BKN017 04/02 A2986 RMK AO2 SLP109 T00440022=
201902200553 METAR KBFI 200553Z 18004KT 10SM SCT014 OVC017 05/02 A2987 RMK AO2 SLP114 60000 T00500022 10067 20044 55011=
201902200453 METAR KBFI 200453Z 20003KT 10SM BKN017 OVC065 06/02 A2987 RMK AO2 RAE28 SLP114 P0000 T00560022=
201902200353 METAR KBFI 200353Z 19003KT 10SM -RA BKN025 OVC037 06/03 A2988 RMK AO2 SLP119 P0000 T00610028=
201902200253 METAR KBFI 200253Z VRB04KT 10SM -RA BKN018 OVC024 06/03 A2990 RMK AO2 SLP125 P0000 60000 T00610028 56028=
201902200153 METAR KBFI 200153Z 19008G15KT 10SM -RA OVC017 07/03 A2992 RMK AO2 RAB48 SLP132 P0000 T00670028=
201902200053 METAR KBFI 200053Z 18009G15KT 10SM OVC018 06/03 A2995 RMK AO2 SLP141 T00610033=
201902192353 METAR KBFI 192353Z 17007KT 10SM OVC018 06/03 A2999 RMK AO2 RAE48 SLP154 P0001 60003 T00610033 10061 20050 58040=
201902192253 METAR KBFI 192253Z VRB05KT 10SM -RA OVC018 06/03 A3003 RMK AO2 RAE03B28 SLP169 P0001 T00610028=
201902192153 METAR KBFI 192153Z 16006KT 10SM -RA BKN017 OVC023 06/03 A3007 RMK AO2 RAB25 SLP181 P0000 T00560028=
201902192053 METAR KBFI 192053Z 16005KT 10SM OVC015 06/03 A3011 RMK AO2 RAB22E41 SLP194 P0001 60001 T00560028 58031=
201902191953 METAR KBFI 191953Z 16006KT 10SM OVC015 05/02 A3015 RMK AO2 SLP210 T00500022=
201902191853 METAR KBFI 191853Z 16007KT 10SM OVC017 06/02 A3018 RMK AO2 SLP218 T00560017=
201902191753 METAR KBFI 191753Z 18006KT 10SM OVC017 05/02 A3020 RMK AO2 SLP225 T00500017 10050 20028 56011=
201902191653 METAR KBFI 191653Z 19007KT 10SM BKN015 OVC028 04/02 A3020 RMK AO2 SLP225 T00440017=
201902191553 METAR KBFI 191553Z 00000KT 10SM BKN015 OVC028 03/02 A3022 RMK AO2 SLP233 T00330017=
201902191453 METAR KBFI 191453Z 14005KT 10SM BKN015 OVC023 03/02 A3023 RMK AO2 SLP236 T00330017 58013=
201902191353 METAR KBFI 191353Z 15006KT 10SM BKN015 OVC021 03/02 A3025 RMK AO2 SLP241 T00330017=
201902191253 METAR KBFI 191253Z 17003KT 10SM SCT014 BKN020 OVC041 04/02 A3027 RMK AO2 SLP248 T00390017=
201902191249 SPECI KBFI 191249Z 15004KT 10SM BKN018 BKN025 OVC039 04/02 A3027 RMK AO2=
201902191229 SPECI KBFI 191229Z VRB06KT 10SM FEW017 BKN032 OVC049 04/02 A3027 RMK AO2 T00390017=
201902191153 METAR KBFI 191153Z VRB03KT 10SM OVC016 04/02 A3028 RMK AO2 SLP252 70009 T00390017 10044 20039 58009=
201902191122 SPECI KBFI 191122Z 14004KT 10SM SCT012 BKN021 OVC026 04/02 A3029 RMK AO2 T00390017=
201902191105 SPECI KBFI 191105Z 14003KT 10SM BKN012 BKN017 OVC022 04/02 A3029 RMK AO2 T00390022=
201902191053 METAR KBFI 191053Z 13005KT 10SM BKN016 OVC021 04/02 A3029 RMK AO2 SLP255 T00390017=
201902190953 METAR KBFI 190953Z 16004KT 10SM OVC016 04/02 A3031 RMK AO2 SLP262 T00390017=
201902190919 SPECI KBFI 190919Z 13004KT 10SM BKN016 BKN021 OVC055 04/02 A3030 RMK AO2 T00390017=
201902190853 METAR KBFI 190853Z 13004KT 10SM OVC014 04/02 A3031 RMK AO2 SLP262 T00390017 56013=
201902190800 SPECI KBFI 190800Z 15005KT 10SM OVC013 04/02 A3031 RMK AO2 T00390017=
201902190753 METAR KBFI 190753Z 15005KT 10SM OVC015 04/02 A3031 RMK AO2 SLP263 T00390022 400670011=
201902190653 METAR KBFI 190653Z 13004KT 10SM OVC021 04/02 A3033 RMK AO2 SLP269 T00390017=
201902190553 METAR KBFI 190553Z 13004KT 10SM BKN023 BKN037 OVC047 04/02 A3035 RMK AO2 RAE48 SLP275 P0000 60000 T00440017 10061 20039 55004=
201902190528 SPECI KBFI 190528Z 11004KT 10SM -RA BKN024 BKN029 OVC036 04/02 A3034 RMK AO2 P0000 T00440022=
201902190519 SPECI KBFI 190519Z 13004KT 10SM -RA FEW024 BKN031 OVC036 04/02 A3034 RMK AO2 P0000 T00440022=
201902190508 SPECI KBFI 190508Z 11003KT 10SM -RA BKN026 OVC036 04/03 A3034 RMK AO2 P0000 T00440028=
201902190453 METAR KBFI 190453Z 15003KT 10SM -RA BKN030 OVC035 04/02 A3034 RMK AO2 RAB48 SLP273 P0000 T00390022=
201902190353 METAR KBFI 190353Z 00000KT 10SM SCT033 BKN070 05/02 A3035 RMK AO2 SLP276 T00500017=
201902190253 METAR KBFI 190253Z 00000KT 10SM BKN065 05/02 A3036 RMK AO2 SLP279 T00500022 55001=
201902190153 METAR KBFI 190153Z 00000KT 10SM FEW030 SCT065 BKN200 06/02 A3035 RMK AO2 SLP277 T00560022=
201902190053 METAR KBFI 190053Z AUTO 07003KT 10SM FEW010 SCT026 OVC065 06/02 A3036 RMK AO2 SLP278 T00610017=
201902182353 METAR KBFI 182353Z 08004KT 10SM FEW010 SCT026 OVC065 06/02 A3036 RMK AO2 SLP280 60002 T00610022 10067 20033 56016=
201902182253 METAR KBFI 182253Z 09003KT 10SM FEW010 SCT026 OVC065 07/02 A3036 RMK AO2 SLP281 T00670022=
201902182153 METAR KBFI 182153Z 13004KT 10SM FEW008 SCT018 OVC026 06/03 A3038 RMK AO2 SLP286 T00560028=
201902182053 METAR KBFI 182053Z 11005KT 10SM FEW008 SCT018 OVC026 05/02 A3040 RMK AO2 SLP295 60002 T00500022 58004=
201902182030 SPECI KBFI 182030Z 10006KT 10SM SCT008 OVC014 04/02 A3041 RMK AO2 T00440017=
201902182000 SPECI KBFI 182000Z 06003KT 9SM BKN008 OVC014 04/02 A3042 RMK AO2 T00390017=
201902181953 METAR KBFI 181953Z 09004KT 9SM BKN008 BKN023 OVC060 04/02 A3042 RMK AO2 RAB14E52 SLP301 P0002 T00390017=
201902181904 SPECI KBFI 181904Z 13004KT 9SM BKN008 BKN023 OVC060 04/02 A3042 RMK AO2 T00390017=
201902181853 METAR KBFI 181853Z 11005KT 8SM SCT008 BKN023 OVC060 04/02 A3042 RMK AO2 SLP301 T00390022=
201902181823 SPECI KBFI 181823Z 15006KT 9SM BKN008 OVC015 04/02 A3042 RMK AO2 T00390017=
201902181753 METAR KBFI 181753Z 15007KT 8SM SCT008 OVC010 03/01 A3042 RMK AO2 SLP299 60007 T00330011 10033 20017 53007=
201902181720 SPECI KBFI 181720Z 14005KT 8SM SCT008 OVC019 03/01 A3041 RMK AO2 T00280011=
201902181653 METAR KBFI 181653Z 14005KT 7SM SCT019 OVC025 03/01 A3041 RMK AO2 SLP296 T00280011=
201902181553 METAR KBFI 181553Z 16006KT 3SM BR OVC020 02/01 A3040 RMK AO2 RAE19 SLP293 P0001 T00220006=
201902181502 SPECI KBFI 181502Z 14006KT 3SM -RA BR FEW008 FEW015 OVC025 02/00 A3040 RMK AO2 P0001 T00170000=
201902181453 METAR KBFI 181453Z 15006KT 2 1/2SM -RA BR SCT008 BKN018 OVC028 02/00 A3040 RMK AO2 UPB1357E06RAB17 SLP292 P0006 60006 T00170000 53009=
201902181353 METAR KBFI 181353Z 15006KT 10SM SCT007 OVC033 02/00 A3039 RMK AO2 SLP290 T00170000=
201902181253 METAR KBFI 181253Z 14006KT 10SM BKN010 OVC037 02/00 A3038 RMK AO2 SLP286 T00170000=
201902181153 METAR KBFI 181153Z 15005KT 8SM SCT009 OVC033 02/01 A3037 RMK AO2 SLP283 T00220006 10022 20006 50004=
201902181112 SPECI KBFI 181112Z 17003KT 8SM SCT009 OVC035 02/01 A3037 RMK AO2 T00170006=
201902181053 METAR KBFI 181053Z 14006KT 7SM BKN033 OVC039 02/01 A3037 RMK AO2 SLP284 T00170006=
201902180953 METAR KBFI 180953Z 15003KT 8SM OVC035 02/01 A3037 RMK AO2 SLP283 T00170006=
201902180853 METAR KBFI 180853Z 15006KT 7SM OVC037 02/00 A3036 RMK AO2 SLP279 T00170000 52012=
201902180753 METAR KBFI 180753Z 15004KT 7SM SCT020 OVC030 01/00 A3035 RMK AO2 SLP275 T00110000 400720000=
201902180653 METAR KBFI 180653Z 17003KT 9SM SCT040 BKN070 01/M01 A3034 RMK AO2 SLP272 T00061006=
201902180553 METAR KBFI 180553Z 00000KT 10SM SCT110 01/M01 A3032 RMK AO2 SLP267 T00061006 10072 20000 53014=
201902180453 METAR KBFI 180453Z 15003KT 10SM SCT110 01/M01 A3031 RMK AO2 SLP262 T00111006=
201902180353 METAR KBFI 180353Z 00000KT 10SM BKN035 03/00 A3029 RMK AO2 SLP258 T00280000=
201902180253 METAR KBFI 180253Z 00000KT 10SM BKN035 04/00 A3028 RMK AO2 SLP253 T00390000 53016=
201902180153 METAR KBFI 180153Z 00000KT 10SM FEW030 BKN036 BKN110 06/00 A3026 RMK AO2 SLP247 T00560000=
201902180053 METAR KBFI 180053Z AUTO VRB03KT 10SM FEW030 BKN039 07/00 A3024 RMK AO2 SLP240 T00670000=
201902172353 METAR KBFI 172353Z 00000KT 10SM BKN030 BKN037 06/00 A3023 RMK AO2 SLP238 60000 T00610000 10061 20028 53010=
201902172253 METAR KBFI 172253Z 01003KT 10SM SCT015 BKN020 OVC030 06/01 A3022 RMK AO2 SLP234 T00560006=
201902172153 METAR KBFI 172153Z 00000KT 10SM SCT015 BKN020 OVC030 06/02 A3021 RMK AO2 RAE03 SLP230 P0000 T00560017=
201902172053 METAR KBFI 172053Z 25004KT 9SM -RA SCT015 BKN020 OVC030 05/02 A3020 RMK AO2 RAE02B50 SLP227 P0000 60000 T00500017 50013=
201902171953 METAR KBFI 171953Z 00000KT 7SM -RA SCT015 BKN022 OVC050 04/02 A3021 RMK AO2 RAB39 SLP228 P0000 T00440017=
201902171900 SPECI KBFI 171900Z 00000KT 10SM FEW012 BKN022 OVC050 04/02 A3019 RMK AO2 T00390017=
201902171853 METAR KBFI 171853Z 20003KT 10SM FEW012 SCT022 BKN033 04/02 A3019 RMK AO2 SLP222 T00390017=
201902171753 METAR KBFI 171753Z 13003KT 10SM FEW012 SCT022 BKN033 03/01 A3017 RMK AO2 SLP215 T00280006 10028 20000 51025=
201902171745 SPECI KBFI 171745Z 00000KT 10SM SCT012 BKN022 BKN035 03/01 A3016 RMK AO2 T00280006=
201902171700 SPECI KBFI 171700Z 14003KT 10SM BKN013 OVC025 02/00 A3015 RMK AO2 T00170000=
201902171653 METAR KBFI 171653Z 16003KT 9SM SCT016 BKN065 02/00 A3015 RMK AO2 SLP208 T00170000=
201902171553 METAR KBFI 171553Z 15003KT 7SM SCT016 BKN065 01/M01 A3012 RMK AO2 SLP198 T00061006=
201902171453 METAR KBFI 171453Z 16004KT 8SM BKN020 OVC030 01/M01 A3009 RMK AO2 SLP190 T00061006 51022=
201902171353 METAR KBFI 171353Z 00000KT 10SM BKN016 OVC020 01/00 A3008 RMK AO2 SLP184 T00110000=
201902171253 METAR KBFI 171253Z 13005KT 10SM BKN016 02/00 A3005 RMK AO2 SLP174 T00170000=
201902171153 METAR KBFI 171153Z 12004KT 10SM OVC016 02/01 A3003 RMK AO2 SLP168 70027 T00220006 10039 20000 51017=
201902171053 METAR KBFI 171053Z 12005KT 10SM OVC017 02/00 A3002 RMK AO2 SLP163 T00170000=
201902171014 SPECI KBFI 171014Z 15004KT 10SM BKN018 01/M01 A3000 RMK AO2 T00061011=
201902170953 METAR KBFI 170953Z 00000KT 10SM SCT009 01/M01 A2999 RMK AO2 SLP156 T00061006=
201902170900 SPECI KBFI 170900Z 11003KT 10SM SCT009 02/01 A2998 RMK AO2 T00220006=
201902170853 METAR KBFI 170853Z 10003KT 10SM FEW009 BKN013 OVC030 02/01 A2998 RMK AO2 SLP151 T00220011 53016=
201902170753 METAR KBFI 170753Z AUTO 14007KT 10SM FEW009 BKN013 OVC030 03/01 A2996 RMK AO2 SLP145 T00280011 400670006=
201902170653 METAR KBFI 170653Z 00000KT 10SM FEW009 BKN013 OVC030 03/02 A2995 RMK AO2 SLP140 T00330022=
201902170553 METAR KBFI 170553Z 00000KT 10SM SCT012 BKN019 OVC028 04/02 A2993 RMK AO2 RAE07 SLP135 P0000 60019 T00390017 10061 20033 53015=
201902170453 METAR KBFI 170453Z 00000KT 8SM -RA BKN016 OVC026 03/02 A2992 RMK AO2 SLP129 P0003 T00330017=
201902170353 METAR KBFI 170353Z 04003KT 6SM -RA BR SCT006 OVC014 04/02 A2990 RMK AO2 SLP124 P0004 T00390022=
201902170253 METAR KBFI 170253Z 00000KT 9SM -RA BKN006 OVC014 04/03 A2989 RMK AO2 SLP120 P0007 60012 T00440033 53012=
201902170231 SPECI KBFI 170231Z 30004KT 4SM RA BR BKN006 OVC014 04/03 A2988 RMK AO2 P0005 T00440033=
201902170153 METAR KBFI 170153Z 15005KT 9SM -RA BKN014 OVC031 04/03 A2987 RMK AO2 RAB07 SLP113 P0004 T00440028=
201902170131 SPECI KBFI 170131Z 00000KT 6SM -RA BKN014 OVC031 06/02 A2986 RMK AO2 RAB07 P0002 T00560022=
201902170053 METAR KBFI 170053Z 15003KT 10SM SCT012 BKN020 OVC031 06/03 A2986 RMK AO2 RAE44 SLP110 P0001 T00560028=
201902162353 METAR KBFI 162353Z 00000KT 7SM -RA FEW008 BKN020 OVC035 06/03 A2985 RMK AO2 RAB2255 SLP108 P0001 60005 T00610028 10067 20039 55001=
201902162253 METAR KBFI 162253Z 13005KT 7SM FEW008 SCT020 OVC034 07/04 A2985 RMK AO2 SLP107 T00670039=
201902162153 METAR KBFI 162153Z 10007KT 6SM HZ SCT008 BKN020 OVC027 06/03 A2985 RMK AO2 RAE03 SLP107 P0000 T00610033=
201902162053 METAR KBFI 162053Z 13006KT 5SM -RA BR OVC008 05/04 A2985 RMK AO2 RAB20E32B50 SLP108 P0001 60004 T00500039 50004=
201902161953 METAR KBFI 161953Z 15006KT 5SM BR OVC008 05/03 A2986 RMK AO2 RAE40 SLP111 P0002 T00500033=
201902161853 METAR KBFI 161853Z 14007KT 4SM -RA BR OVC007 04/03 A2985 RMK AO2 RAB33 SLP108 P0001 T00390028=
201902161753 METAR KBFI 161753Z 15008KT 10SM OVC008 04/02 A2984 RMK AO2 RAE12 SLP104 P0000 60003 T00390022 10039 20011 51014=
201902161700 SPECI KBFI 161700Z 15005KT 7SM -RA BKN009 BKN018 OVC023 03/02 A2984 RMK AO2 P0000 T00330022=
201902161653 METAR KBFI 161653Z 14005KT 5SM -RA BR BKN011 OVC020 03/02 A2983 RMK AO2 RAE01B43UPB01E19 SLP102 P0002 T00330017=
201902161553 METAR KBFI 161553Z 16004KT 9SM -RA BKN011 OVC020 02/01 A2982 RMK AO2 UPB19E30RAB30 SLP097 P0001 T00220011=
201902161453 METAR KBFI 161453Z 00000KT 6SM BR SCT009 BKN012 OVC065 03/01 A2980 RMK AO2 SLP091 T00280011 51010=
201902161353 METAR KBFI 161353Z 00000KT 10SM SCT009 BKN012 BKN065 03/01 A2979 RMK AO2 SLP086 T00280011=
201902161351 SPECI KBFI 161351Z 00000KT 10SM SCT009 BKN012 BKN065 03/01 A2979 RMK AO2=
201902161253 METAR KBFI 161253Z 00000KT 8SM OVC070 01/00 A2977 RMK AO2 SLP081 T00110000=
201902161153 METAR KBFI 161153Z 00000KT 10SM BKN065 BKN085 OVC110 02/00 A2976 RMK AO2 SLP076 T00170000 10033 20006 51008=
201902161053 METAR KBFI 161053Z 00000KT 10SM OVC065 02/01 A2975 RMK AO2 SLP075 T00220006=
201902160953 METAR KBFI 160953Z 00000KT 10SM BKN065 OVC085 02/01 A2974 RMK AO2 SLP071 T00170006=
201902160853 METAR KBFI 160853Z 15004KT 10SM BKN060 01/00 A2973 RMK AO2 SLP068 T00110000 53006=
201902160753 METAR KBFI 160753Z 00000KT 10SM BKN065 03/01 A2972 RMK AO2 SLP065 T00280006 400830017=
201902160653 METAR KBFI 160653Z 00000KT 10SM BKN100 03/01 A2972 RMK AO2 SLP065 T00280011=
201902160553 METAR KBFI 160553Z 18003KT 10SM BKN100 02/01 A2972 RMK AO2 SLP062 60000 T00220006 10083 20017 53005=
201902160453 METAR KBFI 160453Z 00000KT 10SM BKN060 03/01 A2971 RMK AO2 SLP059 T00330011=
201902160353 METAR KBFI 160353Z 00000KT 10SM SCT035 03/01 A2971 RMK AO2 SLP059 T00280006=
201902160253 METAR KBFI 160253Z 00000KT 10SM FEW035 06/01 A2970 RMK AO2 SLP057 60000 T00610011 53006=
201902160153 METAR KBFI 160153Z 13003KT 10SM SCT035 07/01 A2970 RMK AO2 SLP056 T00670011=
201902160053 METAR KBFI 160053Z 20006KT 10SM SCT033 BKN040 BKN049 08/02 A2969 RMK AO2 RAB39E49 SLP052 P0000 T00780022=
201902152353 METAR KBFI 152353Z 21006KT 10SM SCT020 08/02 A2968 RMK AO2 SLP051 60000 T00780017 10078 20044 53007=
201902152253 METAR KBFI 152253Z 18008KT 10SM SCT020 BKN030 08/02 A2967 RMK AO2 SLP046 T00780017=
201902152153 METAR KBFI 152153Z 18007KT 10SM SCT020 BKN024 07/02 A2966 RMK AO2 RAB41E50 SLP043 P0000 T00720017=
201902152053 METAR KBFI 152053Z 19006KT 10SM FEW024 BKN037 BKN110 07/02 A2966 RMK AO2 RAB02E12 SLP044 P0000 60000 T00670017 51021=
201902151953 METAR KBFI 151953Z 17009KT 10SM BKN030 BKN041 OVC050 07/02 A2965 RMK AO2 SLP039 T00670017=
201902151853 METAR KBFI 151853Z 21009G15KT 10SM SCT028 BKN065 OVC080 07/01 A2963 RMK AO2 SLP032 T00720011=
201902151753 METAR KBFI 151753Z 15004KT 10SM FEW048 BKN070 OVC085 04/01 A2960 RMK AO2 SLP023 60000 T00440011 10044 20022 53029=
201902151653 METAR KBFI 151653Z 14005KT 10SM FEW045 BKN060 03/01 A2957 RMK AO2 SLP014 T00330006=
201902151553 METAR KBFI 151553Z 15004KT 10SM FEW055 FEW075 SCT095 03/01 A2954 RMK AO2 UPE22 SLP002 P0000 T00330011=
201902151453 METAR KBFI 151453Z 14006KT 10SM UP OVC055 02/01 A2951 RMK AO2 UPB52 SLP993 P0000 60000 T00220006 52023=
201902151353 METAR KBFI 151353Z 13004KT 10SM SCT041 BKN050 OVC085 02/01 A2949 RMK AO2 SLP984 T00220011=
201902151253 METAR KBFI 151253Z 15003KT 10SM FEW046 BKN055 OVC065 03/01 A2947 RMK AO2 SLP979 T00280011=
201902151153 METAR KBFI 151153Z 00000KT 10SM OVC049 03/02 A2944 RMK AO2 RAE00UPB1057E1059 SLP970 P0000 60001 70015 T00330017 10044 20022 53018=
201902151053 METAR KBFI 151053Z 00000KT 10SM -RA OVC044 02/01 A2942 RMK AO2 RAB23 SLP963 P0000 T00220006=
201902150953 METAR KBFI 150953Z 00000KT 10SM BKN065 OVC080 03/01 A2940 RMK AO2 RAB0854E11UPB05E09 SLP954 P0001 T00330011=
201902150853 METAR KBFI 150853Z 00000KT 7SM BKN050 OVC070 03/02 A2939 RMK AO2 SLP952 T00280017 53017=
201902150753 METAR KBFI 150753Z 16003KT 10SM BKN055 OVC070 04/02 A2936 RMK AO2 SLP943 T00390017 400611028=
201902150653 METAR KBFI 150653Z 00000KT 10SM OVC055 03/02 A2934 RMK AO2 SLP935 T00330017=
201902150553 METAR KBFI 150553Z 12005KT 10SM SCT020 BKN035 OVC050 04/02 A2934 RMK AO2 RAE0454 SLP935 P0000 60004 T00440022 10056 20028 51033=
201902150453 METAR KBFI 150453Z 17009KT 10SM -RA SCT020 BKN046 OVC070 05/02 A2932 RMK AO2 SLP927 P0000 T00500017=
201902150353 METAR KBFI 150353Z 17012KT 10SM -RA FEW015 OVC037 05/02 A2929 RMK AO2 SLP919 P0001 T00500017=
201902150253 METAR KBFI 150253Z 16008KT 10SM -RA OVC042 04/02 A2925 RMK AO2 SLP903 P0001 60003 T00390022 53043=
201902150220 SPECI KBFI 150220Z 18005KT 8SM -RA SCT018 BKN026 OVC042 03/02 A2922 RMK AO2 P0000 T00330017=
201902150153 METAR KBFI 150153Z 00000KT 8SM -RA OVC033 04/03 A2919 RMK AO2 RAE03B23 SLP884 P0001 T00440028=
201902150053 METAR KBFI 150053Z 31003KT 10SM -RA OVC039 04/02 A2913 RMK AO2 SLP865 P0001 T00440022=
201902142353 METAR KBFI 142353Z 00000KT 10SM -RA FEW020 OVC043 05/03 A2912 RMK AO2 SLP860 P0004 60010 T00500028 10061 20044 55001=
201902142253 METAR KBFI 142253Z 00000KT 5SM -RA OVC027 05/01 A2911 RMK AO2 SLP856 P0006 T00500011=
201902142231 SPECI KBFI 142231Z 11010G15KT 4SM -RA OVC028 06/01 A2913 RMK AO2 P0002 T00610006=
201902142153 METAR KBFI 142153Z 33006KT 10SM -RA BKN050 OVC060 06/M01 A2911 RMK AO2 RAB43 SLP858 P0000 T00561006=
201902142053 METAR KBFI 142053Z 33007KT 10SM OVC070 06/01 A2912 RMK AO2 SLP860 T00610006 56037=
201902141953 METAR KBFI 141953Z 32005KT 10SM OVC075 06/M01 A2915 RMK AO2 SLP870 T00611011=
201902141853 METAR KBFI 141853Z 00000KT 10SM OVC090 05/00 A2919 RMK AO2 SLP885 T00500000=
201902141753 METAR KBFI 141753Z 31006KT 10SM OVC065 04/00 A2923 RMK AO2 SLP897 T00440000 10044 21006 56022=
201902141653 METAR KBFI 141653Z 00000KT 10SM OVC060 04/M02 A2924 RMK AO2 SLP902 T00441022=
201902141553 METAR KBFI 141553Z 34003KT 10SM OVC065 03/M02 A2926 RMK AO2 SLP909 T00331017=
201902141453 METAR KBFI 141453Z 00000KT 10SM BKN075 OVC095 03/M02 A2929 RMK AO2 SLP919 T00281017 56034=
201902141353 METAR KBFI 141353Z 00000KT 10SM OVC070 02/M02 A2932 RMK AO2 SLP929 T00171017=
201902141253 METAR KBFI 141253Z 32003KT 10SM BKN065 02/M02 A2936 RMK AO2 SLP941 T00171017=
201902141153 METAR KBFI 141153Z 00000KT 10SM BKN070 M01/M03 A2939 RMK AO2 SLP953 T10061028 10011 21028 58033=
201902141053 METAR KBFI 141053Z 00000KT 9SM CLR M01/M03 A2943 RMK AO2 SLP964 T10111033=
201902140953 METAR KBFI 140953Z 00000KT 10SM CLR M01/M03 A2946 RMK AO2 SLP977 T10111033=
201902140853 METAR KBFI 140853Z 29004KT 10SM CLR 00/M02 A2949 RMK AO2 SLP985 T00001022 58024=
201902140753 METAR KBFI 140753Z 00000KT 10SM CLR 00/M02 A2952 RMK AO2 SLP995 T00001022 400440000=
201902140653 METAR KBFI 140653Z 32003KT 10SM CLR 01/M02 A2954 RMK AO2 SLP003 T00111022=
201902140553 METAR KBFI 140553Z 00000KT 10SM CLR 01/M03 A2956 RMK AO2 SLP009 T00111028 10044 20011 58014=
201902140453 METAR KBFI 140453Z 35003KT 10SM SCT019 02/M02 A2957 RMK AO2 SLP014 T00221022=
201902140353 METAR KBFI 140353Z 36004KT 10SM OVC023 02/M03 A2959 RMK AO2 SLP019 T00221028=
201902140253 METAR KBFI 140253Z 01004KT 10SM OVC025 03/M02 A2960 RMK AO2 SLP023 T00281022 55007=
201902140153 METAR KBFI 140153Z 36004KT 10SM BKN027 OVC070 03/M02 A2960 RMK AO2 SLP023 T00331022=
201902140053 METAR KBFI 140053Z 36003KT 10SM OVC027 04/M02 A2961 RMK AO2 SLP026 T00391022=
201902132353 METAR KBFI 132353Z 04005KT 10SM OVC027 04/M02 A2962 RMK AO2 SLP030 T00441022 10044 20033 56007=
201902132253 METAR KBFI 132253Z 36003KT 10SM OVC028 04/M01 A2962 RMK AO2 SLP031 T00441006=
201902132153 METAR KBFI 132153Z 36005KT 10SM FEW016 SCT020 OVC029 04/00 A2963 RMK AO2 SLP033 T00390000=
201902132053 METAR KBFI 132053Z 01004KT 10SM OVC016 04/00 A2964 RMK AO2 SLP036 T00390000 50000=
201902131953 METAR KBFI 131953Z 35005KT 10SM SCT008 BKN011 OVC022 03/01 A2965 RMK AO2 SLP039 T00330006=
201902131853 METAR KBFI 131853Z 00000KT 10SM BKN016 BKN024 OVC033 04/01 A2965 RMK AO2 SLP038 T00390006=
201902131753 METAR KBFI 131753Z 00000KT 10SM BR SCT010 SCT014 OVC031 03/01 A2964 RMK AO2 SLP036 T00330006 10033 20017 51009=
201902131653 METAR KBFI 131653Z 00000KT 6SM BR OVC010 03/00 A2963 RMK AO2 SLP035 VIS LWR S T00280000=
201902131557 SPECI KBFI 131557Z 00000KT 6SM BR BKN007 BKN012 OVC025 03/01 A2963 RMK AO2 VIS LWR S T00280006=
201902131555 SPECI KBFI 131555Z 00000KT 10SM BKN012 OVC025 03/01 A2963 RMK AO2 T00280006=
201902131553 METAR KBFI 131553Z 00000KT 6SM BR OVC007 03/01 A2962 RMK AO2 SLP031 VIS LWR SOUTH T00280006=
201902131520 SPECI KBFI 131520Z 00000KT 6SM BR OVC007 02/01 A2962 RMK AO2 T00220011=
201902131453 METAR KBFI 131453Z 00000KT 6SM BR OVC007 02/01 A2961 RMK AO2 CIG 006V010 SLP027 T00220011 57002=
201902131353 METAR KBFI 131353Z 17004KT 9SM OVC008 02/01 A2962 RMK AO2 SLP029 T00170006=
201902131315 SPECI KBFI 131315Z 14008KT 10SM OVC007 02/01 A2962 RMK AO2 T00220006=
201902131253 METAR KBFI 131253Z 14006KT 10SM OVC010 02/01 A2962 RMK AO2 SLP028 T00220006=
201902131153 METAR KBFI 131153Z 14006KT 10SM OVC011 02/01 A2962 RMK AO2 SLP030 70032 T00220006 10033 20017 56017=
201902131053 METAR KBFI 131053Z 15004KT 10SM OVC011 02/01 A2964 RMK AO2 SLP037 T00170006=
201902130953 METAR KBFI 130953Z 13004KT 10SM BKN012 02/01 A2964 RMK AO2 SLP038 T00170006=
201902130853 METAR KBFI 130853Z 08003KT 10SM BKN012 OVC055 03/01 A2967 RMK AO2 SLP046 T00280011 58015=
201902130753 METAR KBFI 130753Z 16003KT 10SM BKN012 02/01 A2969 RMK AO2 SLP052 T00220011 400440006=
201902130653 METAR KBFI 130653Z 14005KT 10SM OVC065 02/00 A2970 RMK AO2 SLP057 T00170000=
201902130553 METAR KBFI 130553Z 13007KT 10SM FEW012 SCT020 03/01 A2971 RMK AO2 SLP061 T00330011 10044 20022 58004=
201902130453 METAR KBFI 130453Z 13006KT 10SM SCT017 BKN024 OVC030 03/01 A2972 RMK AO2 SLP062 T00330011=
201902130353 METAR KBFI 130353Z 14005KT 10SM BKN024 OVC030 03/01 A2972 RMK AO2 SLP064 T00330011=
201902130253 METAR KBFI 130253Z 14003KT 10SM BKN018 03/01 A2972 RMK AO2 SLP065 T00280011 53009=
201902130153 METAR KBFI 130153Z 17008KT 10SM BKN016 04/01 A2971 RMK AO2 SLP059 T00440011=
201902130053 METAR KBFI 130053Z 18008G17KT 10SM BKN017 04/02 A2970 RMK AO2 SLP056 T00390017=
201902130002 SPECI KBFI 130002Z 17010KT 10SM BKN016 BKN021 BKN028 04/02 A2970 RMK AO2 T00390017=
201902122353 METAR KBFI 122353Z 17009KT 10SM BKN012 04/01 A2970 RMK AO2 RAE05 SLP056 P0000 60012 T00390011 10039 20011 51000=
201902122253 METAR KBFI 122253Z 16008KT 10SM -RA BKN013 OVC060 03/01 A2970 RMK AO2 SLP055 P0001 T00330011=
201902122240 SPECI KBFI 122240Z 16008KT 10SM -RA SCT014 BKN049 OVC060 03/01 A2969 RMK AO2 P0001 T00280011=
201902122153 METAR KBFI 122153Z 15008KT 7SM -RA BR OVC012 02/01 A2970 RMK AO2 SLP057 P0005 T00220006=
201902122053 METAR KBFI 122053Z 15008KT 5SM -RA BR OVC011 02/01 A2970 RMK AO2 UPE1955RAB1955 SLP056 P0003 60006 T00170006 56002=
201902121953 METAR KBFI 121953Z 14007KT 6SM UP BR SCT009 OVC015 02/01 A2970 RMK AO2 RAB09E24 SLP058 P0001 T00170006=
201902121853 METAR KBFI 121853Z 15007KT 5SM UP BR BKN013 OVC020 01/00 A2969 RMK AO2 RAE43UPB19 SLP055 P0002 T00110000=
201902121753 METAR KBFI 121753Z 15008KT 4SM -RA BR BKN013 OVC020 01/00 A2970 RMK AO2 RAE06B41UPB06E41 SLP058 P0002 60020 T00110000 10011 20006 53002=
201902121653 METAR KBFI 121653Z 16007KT 7SM -RA BKN015 OVC025 01/00 A2969 RMK AO2 SLP054 P0002 T00110000=
201902121553 METAR KBFI 121553Z 15007KT 7SM -RA BR BKN009 OVC020 01/00 A2970 RMK AO2 RAE28B51UPB28E51 SLP056 P0002 T00110000=
201902121453 METAR KBFI 121453Z 15004KT 6SM -RA BR BKN009 OVC020 01/00 A2970 RMK AO2 RAE06B26UPB43E47SNB06E26 SLP056 P0004 60014 T00060000 58001=
201902121353 METAR KBFI 121353Z 15006KT 5SM -RA BR BKN009 OVC026 01/M01 A2971 RMK AO2 SLP059 P0004 T00061006=
201902121339 SPECI KBFI 121339Z 15007KT 7SM -RA BKN009 OVC026 01/M01 A2971 RMK AO2 P0003 T00061006=
201902121332 SPECI KBFI 121332Z 15006KT 7SM -RA BKN010 OVC026 01/00 A2971 RMK AO2 P0002 T00110000=
201902121300 SPECI KBFI 121300Z 16005KT 6SM -RA BR SCT015 OVC024 01/00 A2971 RMK AO2 P0000 T00060000=
201902121253 METAR KBFI 121253Z 18004KT 6SM -RA BR BKN009 OVC021 01/M01 A2971 RMK AO2 SLP059 P0006 T00061006=
201902121153 METAR KBFI 121153Z 16004KT 6SM -RA BR BKN009 OVC021 01/M01 A2970 RMK AO2 RAE06B40UPB23E40SNB06E23 SLP058 P0004 60029 70109 T00061006 10011 20006 58003=
201902121100 SPECI KBFI 121100Z 15004KT 5SM -RA BR OVC021 01/M01 A2971 RMK AO2 P0001 T00061006=
201902121053 METAR KBFI 121053Z 15005KT 5SM -RA BR OVC009 01/M01 A2971 RMK AO2 RAE15B51SNB15E51 SLP061 P0007 T00061006=
201902121050 SPECI KBFI 121050Z 15005KT 4SM -SN BR OVC009 01/M01 A2972 RMK AO2 RAE15SNB15 P0006=
201902121032 SPECI KBFI 121032Z 14005KT 2SM -SN BR OVC009 01/M01 A2973 RMK AO2 RAE15SNB15 P0004 T00061006=
201902121011 SPECI KBFI 121011Z 14007KT 5SM -RA BR OVC009 01/M01 A2972 RMK AO2 P0002 T00061006=
201902120953 METAR KBFI 120953Z 13006KT 5SM -RA BR OVC023 01/M01 A2971 RMK AO2 SLP060 P0006 T00061006=
201902120933 SPECI KBFI 120933Z 13006KT 6SM -RA BR BKN015 OVC019 01/M01 A2971 RMK AO2 P0004 T00111006=
201902120900 SPECI KBFI 120900Z 14007KT 7SM -RA OVC011 01/M01 A2972 RMK AO2 P0000 T00111006=
201902120853 METAR KBFI 120853Z 13009KT 3SM -RA BR OVC009 01/M01 A2972 RMK AO2 SLP063 P0004 60012 T00111006 50010=
201902120800 SPECI KBFI 120800Z 12007KT 3SM -RA BR OVC009 01/01 A2972 RMK AO2 P0001 T00110006=
201902120753 METAR KBFI 120753Z 12007KT 5SM -RA BR OVC012 01/01 A2972 RMK AO2 UPB27E31 SLP064 P0004 T00110006 400171011=
201902120653 METAR KBFI 120653Z 14008KT 6SM -RA BR OVC012 01/01 A2970 RMK AO2 UPB0557E07 SLP057 P0004 T00110006=
201902120553 METAR KBFI 120553Z 14007KT 7SM -RA OVC012 01/00 A2969 RMK AO2 SLP053 P0007 60048 T00110000 10011 20006 53007=
201902120517 SPECI KBFI 120517Z 13006KT 5SM -RA BR BKN013 OVC019 01/00 A2968 RMK AO2 P0003 T00110000=
201902120453 METAR KBFI 120453Z 15007KT 5SM -RA BR FEW005 SCT010 OVC017 01/M01 A2967 RMK AO2 SLP047 P0006 T00111006=
201902120353 METAR KBFI 120353Z 15008KT 3SM -RA BR FEW006 OVC019 01/M01 A2967 RMK AO2 RAB18SNE50 SLP046 P0009 T00111006=
201902120320 SPECI KBFI 120320Z 14004KT 2SM -RASN BR FEW006 OVC014 01/M01 A2967 RMK AO2 RAB18 P0003 T00111006=
201902120253 METAR KBFI 120253Z 15005KT 1SM -SN BR BKN006 OVC013 01/M01 A2967 RMK AO2 SLP046 P0009 60026 T00061006 56009=
201902120153 METAR KBFI 120153Z 15005KT 1 1/4SM -SN BR BKN006 OVC011 01/M01 A2968 RMK AO2 SLP050 P0009 T00061006=
201902120126 SPECI KBFI 120126Z 14007KT 1 3/4SM -SN BR BKN006 BKN011 OVC015 01/M01 A2967 RMK AO2 P0003 T00061006=
201902120100 SPECI KBFI 120100Z 15006KT 2 1/2SM -SN BR FEW009 OVC019 01/M01 A2968 RMK AO2 P0001 T00061006=
201902120053 METAR KBFI 120053Z 13006KT 2 1/2SM -SN BR SCT005 BKN009 OVC015 01/M01 A2968 RMK AO2 SLP049 P0008 T00061006=
201902120040 SPECI KBFI 120040Z 13004KT 2SM -SN BR SCT005 OVC015 01/M01 A2969 RMK AO2 P0007 T00061006=
201902120007 SPECI KBFI 120007Z 17004KT 2SM -SN BR BKN006 OVC010 01/M01 A2969 RMK AO2 P0002 T00061006=
201902112353 METAR KBFI 112353Z 17003KT 1/2SM SN FG OVC006 01/M01 A2969 RMK AO2 SLP055 P0013 60032 T00061006 10017 20000 55007=
201902112253 METAR KBFI 112253Z 00000KT 1/2SM -SN FG VV006 01/00 A2969 RMK AO2 SLP054 P0008 T00060000=
201902112250 SPECI KBFI 112250Z 00000KT 1/2SM SN FG VV006 01/M01 A2969 RMK AO2 P0008=
201902112234 SPECI KBFI 112234Z 00000KT 1/4SM SN FG VV005 01/M01 A2970 RMK AO2 P0006 T00061006=
201902112227 SPECI KBFI 112227Z 00000KT 1/2SM SN FG VV004 01/M01 A2971 RMK AO2 P0005 T00061006=
201902112200 SPECI KBFI 112200Z 00000KT 1/2SM SN FG VV009 01/M01 A2972 RMK AO2 P0001 T00061006=
201902112153 METAR KBFI 112153Z 00000KT 1SM -SN BR BKN007 BKN037 OVC044 01/M01 A2972 RMK AO2 SLP062 P0008 T00061006=
201902112053 METAR KBFI 112053Z 00000KT 2SM -SN BR BKN007 BKN037 OVC044 01/M01 A2974 RMK AO2 SNE1954B22 SLP071 P0003 60003 T00061006 58015 $=
201902111953 METAR KBFI 111953Z 00000KT 2SM -SN BR BKN010 BKN037 OVC044 01/M01 A2977 RMK AO2 SLP080 P0000 T00111006 $=
201902111853 METAR KBFI 111853Z 00000KT 2SM -SN BR FEW022 BKN029 OVC038 01/M01 A2979 RMK AO2 SNB23 SLP086 P0000 T00061011 $=
201902111830 SPECI KBFI 111830Z 00000KT 2SM -SN BR SCT026 BKN038 OVC055 00/M02 A2979 RMK AO2 SNB23 P0000 T00001017 $=
201902111753 METAR KBFI 111753Z 00000KT 10SM BKN021 OVC095 01/M02 A2979 RMK AO2 SLP086 60000 T00061022 10006 21011 55001 $=
201902111653 METAR KBFI 111653Z 00000KT 10SM BKN021 OVC095 00/M03 A2978 RMK AO2 SLP084 T00001028 $=
201902111553 METAR KBFI 111553Z 00000KT 10SM BKN020 OVC035 M01/M03 A2979 RMK AO2 SLP087 T10061033 $=
201902111453 METAR KBFI 111453Z 00000KT 9SM BKN020 OVC035 M01/M03 A2978 RMK AO2 SNE01 SLP082 P0000 60000 T10061033 50002 $=
201902111353 METAR KBFI 111353Z 12003KT 9SM -SN BKN020 OVC035 M01/M04 A2978 RMK AO2 SLP085 P0000 T10111039 $=
201902111253 METAR KBFI 111253Z 00000KT 7SM -SN OVC035 M01/M04 A2978 RMK AO2 SNB49 SLP085 P0000 T10061039 $=
201902111153 METAR KBFI 111153Z 00000KT 10SM BKN020 OVC035 00/M05 A2977 RMK AO2 SLP080 60000 70011 T00001050 10022 21006 51026 $=
201902111100 SPECI KBFI 111100Z 04003KT 10SM BKN020 OVC035 M01/M03 A2975 RMK AO2 T10061033 $=
201902111053 METAR KBFI 111053Z 04003KT 10SM SCT020 OVC035 00/M04 A2975 RMK AO2 SLP074 T00001039 $=
201902110953 METAR KBFI 110953Z 32005KT 10SM FEW020 OVC036 00/M04 A2973 RMK AO2 SLP066 T00001044 $=
201902110853 METAR KBFI 110853Z 35004KT 5SM HZ OVC014 01/M04 A2969 RMK AO2 SNB09E50 SLP054 P0000 60000 T00061039 53030 $=
201902110811 SPECI KBFI 110811Z VRB04KT 4SM -SN BR OVC014 01/M01 A2967 RMK AO2 SNB09 P0000 T00061006 $=
201902110753 METAR KBFI 110753Z 34005KT 7SM SCT014 OVC019 01/M01 A2966 RMK AO2 SLP043 T00061006 400221100 $=
201902110653 METAR KBFI 110653Z 00000KT 10SM SCT019 OVC037 01/01 A2963 RMK AO2 SLP032 T00110011 $=
201902110613 SPECI KBFI 110613Z 17003KT 10SM FEW017 SCT022 BKN035 02/02 A2960 RMK AO2 T00220017 $=
201902110553 METAR KBFI 110553Z VRB04KT 10SM BKN016 BKN022 OVC030 02/01 A2960 RMK AO2 SLP024 60011 T00170011 10022 20000 53017 $=
201902110453 METAR KBFI 110453Z 20012G24KT 10SM OVC013 02/M01 A2956 RMK AO2 SNE0359 SLP009 P0000 T00221006 $=
201902110353 METAR KBFI 110353Z 18011KT 3SM -SN BR BKN010 OVC015 01/M01 A2954 RMK AO2 SLP002 P0008 T00111006 $=
201902110253 METAR KBFI 110253Z 20006G17KT 3/4SM SN BR VV006 01/M01 A2955 RMK AO2 SLP007 P0003 60003 T00061006 56047 $=
201902110153 METAR KBFI 110153Z 16015KT 2 1/2SM -SN BKN010 OVC028 01/M02 A2958 RMK AO2 SLP017 P0000 T00111022 $=
201902110149 SPECI KBFI 110149Z 16015KT 2 1/2SM -SN BKN010 OVC028 01/M02 A2959 RMK AO2 P0000 $=
201902110147 SPECI KBFI 110147Z 16016G20KT 3SM -SN BR BKN007 OVC028 01/M02 A2959 RMK AO2 P0000 $=
201902110053 METAR KBFI 110053Z 14013KT 1SM -SN BR BKN007 OVC028 00/M02 A2964 RMK AO2 SLP037 P0000 T00001017 $=
201902110000 SPECI KBFI 110000Z AUTO 17017G25KT 1SM -SN BKN007 OVC028 01/M03 A2969 RMK AO2 P0000 T00061028 $=
201902102353 METAR KBFI 102353Z AUTO 17019G25KT 1SM -SN FEW017 OVC028 01/M03 A2969 RMK AO2 SNB46 SLP054 P0000 60000 T00111033 10017 21039 58037 $=
201902102253 METAR KBFI 102253Z 16011KT 10SM BKN042 OVC065 01/M04 A2973 RMK AO2 SLP068 T00111044 $=
201902102153 METAR KBFI 102153Z 16010KT 10SM FEW020 OVC050 01/M04 A2977 RMK AO2 SLP081 T00061044 $=
201902102053 METAR KBFI 102053Z 16009KT 10SM FEW020 OVC050 M01/M04 A2980 RMK AO2 SLP091 BINOVC T10061044 58022 $=
201902101953 METAR KBFI 101953Z 13007KT 10SM FEW020 BKN050 M02/M06 A2984 RMK AO2 SLP103 T10171061 $=
201902101853 METAR KBFI 101853Z 14007KT 10SM FEW020 BKN050 M03/M07 A2986 RMK AO2 SLP112 T10281067 $=
201902101753 METAR KBFI 101753Z 16006KT 10SM FEW020 BKN047 M04/M08 A2987 RMK AO2 SLP113 T10391078 11028 21100 58000 $=
201902101653 METAR KBFI 101653Z 15003KT 10SM FEW025 BKN043 M07/M09 A2987 RMK AO2 SLP115 T10671089 $=
201902101553 METAR KBFI 101553Z 13003KT 10SM FEW050 M07/M09 A2986 RMK AO2 SLP112 T10721094 $=
201902101453 METAR KBFI 101453Z 14004KT 10SM CLR M08/M10 A2987 RMK AO2 SLP113 T10781100 55000 $=
201902101353 METAR KBFI 101353Z 15005KT 10SM CLR M09/M11 A2987 RMK AO2 SLP113 T10941111 $=
201902101253 METAR KBFI 101253Z 00000KT 10SM CLR M04/M09 A2987 RMK AO2 SLP113 T10441089 $=
201902101153 METAR KBFI 101153Z VRB03KT 10SM CLR M03/M08 A2987 RMK AO2 SLP113 70003 T10331083 11022 21072 50001 $=
201902101053 METAR KBFI 101053Z 00000KT 10SM CLR M07/M09 A2988 RMK AO2 SLP116 T10721089 $=
201902100953 METAR KBFI 100953Z 00000KT 10SM CLR M06/M08 A2987 RMK AO2 SLP114 T10561078 $=
201902100853 METAR KBFI 100853Z 00000KT 10SM CLR M04/M08 A2986 RMK AO2 SLP112 T10391078 51008 $=
201902100753 METAR KBFI 100753Z 03004KT 10SM CLR M03/M07 A2986 RMK AO2 SLP110 T10281072 400111061 $=
201902100653 METAR KBFI 100653Z VRB04KT 10SM CLR M02/M07 A2985 RMK AO2 SLP107 T10221067 $=
201902100553 METAR KBFI 100553Z 00000KT 10SM CLR M04/M07 A2984 RMK AO2 SLP104 T10391067 10011 21061 53012 $=
201902100453 METAR KBFI 100453Z AUTO 00000KT 10SM CLR M04/M06 A2983 RMK AO2 SLP099 T10391061 $=
201902100353 METAR KBFI 100353Z 04003KT 10SM CLR M02/M06 A2981 RMK AO2 SLP095 T10171056 $=
201902100253 METAR KBFI 100253Z 03003KT 10SM CLR M01/M06 A2980 RMK AO2 SLP092 T10061056 53014 $=
201902100153 METAR KBFI 100153Z 00000KT 10SM CLR M01/M06 A2979 RMK AO2 SLP087 T10061061 $=
201902100053 METAR KBFI 100053Z 35008G14KT 330V030 10SM BKN100 01/M04 A2976 RMK AO2 SLP077 T00061044 $=
201902092353 METAR KBFI 092353Z VRB04KT 10SM FEW045 SCT130 01/M04 A2976 RMK AO2 SLP078 60002 T00061044 10011 21006 53003 $=
201902092253 METAR KBFI 092253Z 00000KT 10SM FEW045 SCT055 BKN200 01/M05 A2976 RMK AO2 SLP077 T00061050=
201902092153 METAR KBFI 092153Z 36010KT 10SM FEW008 OVC055 01/M04 A2975 RMK AO2 SNE11 SLP073 P0000 T00111044=
201902092132 SPECI KBFI 092132Z VRB03KT 10SM SCT008 BKN040 OVC060 01/M03 A2975 RMK AO2 SNE11 P0000 T00061028=
201902092053 METAR KBFI 092053Z 36004KT 1 1/2SM -SN OVC008 00/M03 A2975 RMK AO2 SNE1956B27 SLP075 P0000 60002 T00001028 51020=
201902091953 METAR KBFI 091953Z VRB06KT 5SM -SN SCT008 OVC015 00/M03 A2975 RMK AO2 SLP072 P0002 T00001028=
201902091917 SPECI KBFI 091917Z 34006KT 1SM -SN BR VV008 M01/M03 A2973 RMK AO2 P0001 T10061028=
201902091853 METAR KBFI 091853Z 34007KT 310V020 2SM -SN BKN013 OVC024 00/M03 A2972 RMK AO2 SNB35 SLP065 P0000 T00001033=
201902091839 SPECI KBFI 091839Z 35006KT 1 3/4SM -SN BKN033 OVC044 00/M03 A2972 RMK AO2 SNB35 P0000 T00001033=
201902091753 METAR KBFI 091753Z 35005KT 10SM FEW011 OVC045 00/M03 A2970 RMK AO2 SNE07 SLP055 P0000 60001 T00001033 10000 21011 53021=
201902091702 SPECI KBFI 091702Z 35007KT 4SM -SN BR BKN011 OVC025 M01/M03 A2967 RMK AO2 P0000 T10061028=
201902091655 SPECI KBFI 091655Z VRB05KT 2SM -SN BR BKN020 BKN050 OVC060 M01/M03 A2967 RMK AO2 P0000 T10061028=
201902091653 METAR KBFI 091653Z VRB05KT 1 1/2SM -SN BR BKN005 OVC016 M01/M03 A2967 RMK AO2 SLP047 P0001 T10061028=
201902091553 METAR KBFI 091553Z VRB05KT 1SM -SN BR OVC004 M01/M03 A2965 RMK AO2 SLP041 P0000 T10061028=
201902091453 METAR KBFI 091453Z 34005KT 1/2SM SN FZFG VV008 M01/M03 A2963 RMK AO2 SNB22 SLP034 P0000 60000 T10061028 53008=
201902091353 METAR KBFI 091353Z 34006KT 5SM HZ BKN007 OVC013 M01/M03 A2962 RMK AO2 SLP031 T10061033=
201902091253 METAR KBFI 091253Z VRB06KT 5SM BR BKN007 OVC013 M01/M03 A2960 RMK AO2 SNE05 SLP024 P0000 T10111033=
201902091200 SPECI KBFI 091200Z 35003KT 2SM -SN BR BKN007 OVC013 M01/M03 A2961 RMK AO2 P0000 T10111028=
201902091153 METAR KBFI 091153Z 33005KT 3/4SM -SN BR BKN007 OVC013 M01/M03 A2961 RMK AO2 SLP027 P0003 60032 70059 T10111028 11006 21011 58015=
201902091053 METAR KBFI 091053Z 01005KT 3/4SM -SN BR VV009 M01/M03 A2963 RMK AO2 SLP032 P0006 T10111028=
201902090953 METAR KBFI 090953Z 02004KT 3/4SM -SN BR VV009 M01/M03 A2964 RMK AO2 SLP037 P0006 T10111028=
201902090853 METAR KBFI 090853Z 00000KT 3/4SM -SN BR VV008 M01/M02 A2966 RMK AO2 SLP042 P0006 60017 T10061022 56021=
201902090753 METAR KBFI 090753Z 00000KT 3/4SM -SN BR BKN009 OVC013 M01/M02 A2967 RMK AO2 SLP046 P0005 T10061017 400281011=
201902090653 METAR KBFI 090653Z 00000KT 1/2SM SN FZFG VV006 M01/M02 A2970 RMK AO2 SLP055 P0006 T10111017=
201902090617 SPECI KBFI 090617Z 14006KT 1SM -SN BR BKN011 OVC020 M01/M02 A2971 RMK AO2 P0001 T10061022=
201902090600 SPECI KBFI 090600Z 13006KT 1 1/4SM -SN BR BKN015 OVC022 M01/M02 A2972 RMK AO2 P0000 T10061022=
201902090553 METAR KBFI 090553Z 14006KT 1 1/4SM -SN BR OVC003 M01/M02 A2972 RMK AO2 SLP063 P0001 60008 T10061022 10006 21006 56026=
201902090453 METAR KBFI 090453Z 13012KT 1SM -SN BR OVC003 00/M02 A2974 RMK AO2 SLP071 P0002 T00001022=
201902090450 SPECI KBFI 090450Z 12012KT 1SM -SN BR OVC003 00/M02 A2974 RMK AO2 P0002=
201902090353 METAR KBFI 090353Z 00000KT 2SM -SN BR OVC010 01/M01 A2977 RMK AO2 SNB27 SLP080 P0000 T00061006=
201902090253 METAR KBFI 090253Z 00000KT 2SM BR OVC010 01/M01 A2980 RMK AO2 SNE09 SLP089 P0001 60005 T00061006 56030=
201902090153 METAR KBFI 090153Z 00000KT 1SM -SN BR OVC005 01/M01 A2982 RMK AO2 SNE23B49 SLP098 P0000 T00061006=
201902090053 METAR KBFI 090053Z 00000KT 1SM -SN BR OVC004 01/M01 A2986 RMK AO2 SLP109 P0004 T00061006=
201902082353 METAR KBFI 082353Z 00000KT 1/2SM SN FG VV004 01/M01 A2988 RMK AO2 SLP119 P0006 60019 T00061006 10028 20006 56031=
201902082253 METAR KBFI 082253Z 11003KT 3/4SM -SN BR VV003 01/M01 A2990 RMK AO2 SLP125 P0005 T00061006=
201902082153 METAR KBFI 082153Z 15007KT 1/2SM SN FG VV003 01/M01 A2993 RMK AO2 SLP136 P0007 T00061006=
201902082053 METAR KBFI 082053Z 15006KT 1/2SM SN FG VV004 01/M01 A2998 RMK AO2 SNB29 SLP150 P0001 60001 T00061011 58037=
201902082035 SPECI KBFI 082035Z 18006KT 3/4SM -SN BKN008 OVC065 02/M02 A2999 RMK AO2 SNB29 P0000 T00171022=
201902081953 METAR KBFI 081953Z 15008KT 10SM FEW023 OVC075 02/M03 A3001 RMK AO2 SLP162 T00221028=
201902081853 METAR KBFI 081853Z 15008KT 10SM FEW016 OVC100 02/M03 A3005 RMK AO2 SLP177 T00171028=
201902081753 METAR KBFI 081753Z 15006KT 10SM BKN016 OVC100 01/M03 A3008 RMK AO2 SLP187 T00061033 10011 21011 58019=
201902081653 METAR KBFI 081653Z 15006KT 10SM BKN016 OVC100 00/M03 A3011 RMK AO2 SLP196 T00001033=
201902081553 METAR KBFI 081553Z AUTO 15004KT 10SM BKN070 OVC085 00/M03 A3013 RMK AO2 SLP202 T00001033=
201902081453 METAR KBFI 081453Z 14004KT 10SM OVC070 M01/M03 A3014 RMK AO2 SLP206 T10061033 56018=
201902081353 METAR KBFI 081353Z 15006KT 10SM BKN070 OVC090 M01/M03 A3016 RMK AO2 SLP211 T10061033=
201902081253 METAR KBFI 081253Z 16005KT 10SM OVC065 M01/M03 A3018 RMK AO2 SLP217 T10061033=
201902081153 METAR KBFI 081153Z 14006KT 10SM BKN075 M01/M04 A3019 RMK AO2 SLP224 T10111039 10011 21011 58021=
201902081053 METAR KBFI 081053Z 13004KT 10SM OVC075 M01/M04 A3022 RMK AO2 SLP234 T10061039=
201902080953 METAR KBFI 080953Z 14004KT 10SM OVC055 M01/M04 A3024 RMK AO2 SLP239 T10061039=
201902080853 METAR KBFI 080853Z 12004KT 10SM BKN049 OVC070 00/M04 A3026 RMK AO2 SLP245 T00001039 58005=
201902080753 METAR KBFI 080753Z 12003KT 10SM BKN090 OVC110 M01/M04 A3026 RMK AO2 SLP246 T10111039 400441072=
201902080653 METAR KBFI 080653Z 00000KT 10SM OVC110 00/M03 A3027 RMK AO2 SLP248 T00001033=
201902080553 METAR KBFI 080553Z 00000KT 10SM BKN110 01/M04 A3027 RMK AO2 SLP250 T00061039 10039 20006 56007=
201902080453 METAR KBFI 080453Z 00000KT 10SM FEW120 01/M04 A3028 RMK AO2 SLP252 T00111039=
201902080353 METAR KBFI 080353Z 00000KT 10SM CLR 02/M04 A3028 RMK AO2 SLP253 T00171039=
201902080253 METAR KBFI 080253Z 02003KT 10SM CLR 02/M06 A3029 RMK AO2 SLP256 T00171056 56004=
201902080153 METAR KBFI 080153Z 03003KT 10SM BKN150 03/M05 A3029 RMK AO2 SLP257 T00281050=
201902080053 METAR KBFI 080053Z 33003KT 10SM SCT150 03/M05 A3029 RMK AO2 SLP257 T00331050=
201902072353 METAR KBFI 072353Z 00000KT 10SM SCT150 04/M07 A3030 RMK AO2 SLP261 T00391072 10044 21022 56015=
201902072253 METAR KBFI 072253Z VRB03KT 10SM CLR 04/M06 A3031 RMK AO2 SLP264 T00391061=
201902072153 METAR KBFI 072153Z 31003KT 10SM CLR 04/M06 A3033 RMK AO2 SLP269 T00391056=
201902072053 METAR KBFI 072053Z 31004KT 10SM CLR 03/M07 A3035 RMK AO2 SLP275 T00331067 58011=
201902071953 METAR KBFI 071953Z 00000KT 10SM BKN250 01/M04 A3036 RMK AO2 SLP281 T00111044=
201902071853 METAR KBFI 071853Z 00000KT 10SM BKN250 00/M04 A3037 RMK AO2 SLP285 T00001039=
201902071753 METAR KBFI 071753Z 00000KT 10SM BKN250 M02/M04 A3038 RMK AO2 SLP287 T10221044 11022 21072 50001=
201902071653 METAR KBFI 071653Z 00000KT 10SM FEW008 BKN200 M04/M06 A3038 RMK AO2 SLP288 T10441061=
201902071553 METAR KBFI 071553Z 00000KT 10SM CLR M06/M08 A3038 RMK AO2 SLP287 T10561078=
201902071453 METAR KBFI 071453Z 13003KT 10SM CLR M06/M08 A3038 RMK AO2 SLP286 T10561078 56003=
201902071353 METAR KBFI 071353Z 14003KT 10SM CLR M06/M08 A3038 RMK AO2 SLP286 T10611078=
201902071253 METAR KBFI 071253Z 00000KT 10SM CLR M05/M08 A3038 RMK AO2 SLP288 T10501078=
201902071153 METAR KBFI 071153Z VRB03KT 10SM CLR M05/M08 A3039 RMK AO2 SLP289 T10501078 11022 21056 58001=
201902071053 METAR KBFI 071053Z 00000KT 10SM CLR M05/M07 A3039 RMK AO2 SLP291 T10501072=
201902070953 METAR KBFI 070953Z 00000KT 10SM CLR M04/M07 A3039 RMK AO2 SLP289 T10391072=
201902070853 METAR KBFI 070853Z 00000KT 10SM CLR M04/M07 A3039 RMK AO2 SLP290 T10391067 51005=
201902070753 METAR KBFI 070753Z 13003KT 10SM CLR M03/M06 A3039 RMK AO2 SLP289 T10331061 400281078=
201902070653 METAR KBFI 070653Z 00000KT 10SM CLR M02/M06 A3038 RMK AO2 SLP287 T10221061=
201902070553 METAR KBFI 070553Z 13005KT 10SM CLR M03/M07 A3038 RMK AO2 SLP285 T10331067 10028 21033 53012=
201902070453 METAR KBFI 070453Z 15005KT 10SM CLR M03/M06 A3036 RMK AO2 SLP280 T10281061=
201902070353 METAR KBFI 070353Z 00000KT 10SM CLR M01/M06 A3035 RMK AO2 SLP276 T10061056=
201902070253 METAR KBFI 070253Z 00000KT 10SM CLR M01/M06 A3034 RMK AO2 SLP274 T10061056 53006=
201902070153 METAR KBFI 070153Z 00000KT 10SM FEW140 01/M06 A3033 RMK AO2 SLP271 T00111061=
201902070053 METAR KBFI 070053Z 14003KT 10SM CLR 02/M07 A3033 RMK AO2 SLP268 T00171067=
201902062353 METAR KBFI 062353Z 16003KT 10SM CLR 02/M06 A3032 RMK AO2 SLP268 T00221061 10028 21044 53007=
201902062253 METAR KBFI 062253Z 00000KT 10SM FEW027 02/M07 A3031 RMK AO2 SLP263 T00221067=
201902062153 METAR KBFI 062153Z 00000KT 10SM CLR 02/M07 A3030 RMK AO2 SLP261 T00221067=
201902062053 METAR KBFI 062053Z 00000KT 10SM CLR 02/M08 A3030 RMK AO2 SLP261 T00221078 51007=
201902061953 METAR KBFI 061953Z 00000KT 10SM CLR 01/M07 A3030 RMK AO2 SLP259 T00061072=
201902061853 METAR KBFI 061853Z 15005KT 10SM CLR M02/M07 A3029 RMK AO2 SLP257 T10171072=
201902061753 METAR KBFI 061753Z 15003KT 10SM FEW010 M04/M07 A3028 RMK AO2 SLP254 T10441067 11044 21078 51020=
201902061653 METAR KBFI 061653Z 15005KT 10SM CLR M06/M08 A3027 RMK AO2 SLP249 T10611078=
201902061553 METAR KBFI 061553Z 14003KT 10SM CLR M06/M08 A3025 RMK AO2 SLP244 T10611083=
201902061453 METAR KBFI 061453Z 15003KT 10SM CLR M07/M09 A3022 RMK AO2 SLP234 T10721094 53016=
201902061353 METAR KBFI 061353Z 15004KT 10SM CLR M07/M09 A3021 RMK AO2 SLP228 T10721089=
201902061253 METAR KBFI 061253Z 00000KT 10SM CLR M06/M09 A3019 RMK AO2 SLP224 T10611089=
201902061153 METAR KBFI 061153Z 00000KT 10SM CLR M07/M08 A3018 RMK AO2 SLP218 T10671083 11033 21072 53012=
201902061053 METAR KBFI 061053Z 00000KT 10SM CLR M06/M07 A3017 RMK AO2 SLP215 T10561072=
201902060953 METAR KBFI 060953Z 15004KT 10SM CLR M05/M07 A3015 RMK AO2 SLP209 T10501072=
201902060853 METAR KBFI 060853Z 00000KT 9SM CLR M06/M08 A3014 RMK AO2 SLP206 T10561083 51020=
201902060753 METAR KBFI 060753Z 00000KT 10SM CLR M04/M07 A3013 RMK AO2 SLP201 T10441067 400171089=
201902060653 METAR KBFI 060653Z 00000KT 10SM CLR M04/M07 A3010 RMK AO2 SLP193 T10391067=
201902060553 METAR KBFI 060553Z 00000KT 9SM CLR M03/M07 A3008 RMK AO2 SLP187 T10331067 10017 21033 53016=
201902060453 METAR KBFI 060453Z 00000KT 10SM CLR M03/M07 A3006 RMK AO2 SLP179 T10281072=
201902060353 METAR KBFI 060353Z 00000KT 10SM CLR M02/M07 A3005 RMK AO2 SLP174 T10171067=
201902060253 METAR KBFI 060253Z VRB04KT 10SM BKN041 M01/M08 A3004 RMK AO2 SLP170 T10111078 53021=
201902060153 METAR KBFI 060153Z 00000KT 10SM BKN040 00/M07 A3001 RMK AO2 SLP161 T00001072=
201902060053 METAR KBFI 060053Z 10003KT 10SM BKN044 01/M08 A2999 RMK AO2 SLP154 T00061083=
201902052353 METAR KBFI 052353Z 31004KT 10SM SCT044 01/M09 A2998 RMK AO2 SLP150 T00111094 10017 21039 53014=
201902052253 METAR KBFI 052253Z VRB03KT 10SM SCT032 01/M08 A2996 RMK AO2 SLP144 T00111083=
201902052153 METAR KBFI 052153Z VRB03KT 10SM FEW030 01/M09 A2994 RMK AO2 SLP139 T00111089=
201902052053 METAR KBFI 052053Z 32005KT 10SM FEW030 01/M08 A2993 RMK AO2 SLP136 T00111078 51007=
201902051953 METAR KBFI 051953Z AUTO VRB04KT 10SM SCT030 00/M08 A2993 RMK AO2 SLP136 T00001078=
201902051853 METAR KBFI 051853Z 16005KT 10SM SCT030 M02/M07 A2993 RMK AO2 SLP134 T10221067=
201902051753 METAR KBFI 051753Z 15005KT 10SM FEW020 M04/M08 A2991 RMK AO2 SLP128 T10391078 11039 21089 51017=
201902051653 METAR KBFI 051653Z 16006KT 10SM FEW020 M06/M09 A2990 RMK AO2 SLP125 T10611089=
201902051553 METAR KBFI 051553Z 15006KT 10SM FEW020 M08/M10 A2989 RMK AO2 SLP120 T10831100=
201902051453 METAR KBFI 051453Z 15008KT 9SM FEW002 M07/M09 A2986 RMK AO2 SLP112 T10721094 51015=
201902051353 METAR KBFI 051353Z 14004KT 10SM CLR M08/M09 A2985 RMK AO2 SLP106 T10781094=
201902051253 METAR KBFI 051253Z 15006KT 10SM CLR M08/M10 A2984 RMK AO2 SLP103 T10781100=
201902051153 METAR KBFI 051153Z 18004KT 10SM CLR M09/M11 A2982 RMK AO2 SLP096 70006 T10891106 11028 21089 52005=
201902051053 METAR KBFI 051053Z 13004KT 10SM CLR M06/M08 A2982 RMK AO2 SLP097 T10561083=
201902050953 METAR KBFI 050953Z AUTO 13003KT 10SM CLR M06/M08 A2980 RMK AO2 SLP091 T10561083=
201902050853 METAR KBFI 050853Z AUTO 00000KT 10SM CLR M04/M09 A2980 RMK AO2 SLP091 T10441094 53013=
201902050753 METAR KBFI 050753Z 01003KT 10SM CLR M03/M09 A2979 RMK AO2 SLP085 T10281089 400061039=
201902050653 METAR KBFI 050653Z VRB04KT 10SM CLR M03/M11 A2977 RMK AO2 SLP082 T10331106=
201902050553 METAR KBFI 050553Z VRB04KT 10SM FEW100 M03/M09 A2976 RMK AO2 SLP078 T10281089 11017 21028 53013=
201902050453 METAR KBFI 050453Z VRB05G15KT 10SM FEW030 FEW080 M02/M09 A2975 RMK AO2 SLP074 T10221089=
201902050353 METAR KBFI 050353Z 02005KT 10SM FEW070 M03/M09 A2973 RMK AO2 SLP068 T10281094=
201902050253 METAR KBFI 050253Z 02006KT 10SM FEW070 M02/M09 A2973 RMK AO2 SLP065 T10221089 53009=
201902050153 METAR KBFI 050153Z 02005KT 10SM FEW070 SCT150 M02/M09 A2971 RMK AO2 SLP061 T10221089=
201902050053 METAR KBFI 050053Z VRB06KT 10SM BKN095 M02/M08 A2971 RMK AO2 SLP059 T10221083=
201902042353 METAR KBFI 042353Z VRB05KT 10SM SCT025 OVC100 M02/M08 A2970 RMK AO2 SLP057 60000 T10171078 11017 21039 53007=
201902042253 METAR KBFI 042253Z VRB05KT 10SM SCT025 OVC100 M02/M07 A2969 RMK AO2 SLP054 T10171067=
201902042153 METAR KBFI 042153Z 36007G21KT 10SM SCT032 OVC090 M02/M07 A2968 RMK AO2 SLP050 T10171072=
201902042053 METAR KBFI 042053Z 02007G17KT 10SM SCT030 OVC070 M02/M07 A2968 RMK AO2 SNE15 SLP049 P0000 60000 T10221072 50007=
201902042025 SPECI KBFI 042025Z 36009G19KT 4SM HZ SCT018 BKN032 OVC070 M02/M07 A2968 RMK AO2 SNE15 P0000 T10221072=
201902041956 SPECI KBFI 041956Z 02006G15KT 4SM -SN BKN009 BKN021 OVC032 M03/M07 A2968 RMK AO2 P0000 T10281067=
201902041953 METAR KBFI 041953Z 03008G16KT 2SM -SN BKN021 OVC034 M03/M07 A2968 RMK AO2 SLP050 P0000 T10281067=
201902041853 METAR KBFI 041853Z VRB06KT 2SM -SN OVC020 M03/M07 A2968 RMK AO2 SLP049 P0000 T10331067=
201902041753 METAR KBFI 041753Z 01010G18KT 1SM -SN OVC017 M03/M07 A2966 RMK AO2 SLP042 P0000 60006 T10331067 11022 21033 53021=
201902041653 METAR KBFI 041653Z 36010G19KT 1SM -SN OVC017 M03/M06 A2963 RMK AO2 SLP035 P0000 T10331061=
201902041553 METAR KBFI 041553Z 35006G21KT 1SM -SN OVC017 M03/M07 A2961 RMK AO2 SLP027 P0001 T10331067=
201902041526 SPECI KBFI 041526Z 34008KT 310V020 1SM -SN BR OVC015 M03/M06 A2960 RMK AO2 P0000 T10331056=
201902041500 SPECI KBFI 041500Z 35008G15KT 310V020 1SM -SN BR OVC014 M03/M06 A2960 RMK AO2 P0000 T10331056=
201902041453 METAR KBFI 041453Z 34008G16KT 2SM -SN BR OVC014 M03/M06 A2959 RMK AO2 SLP021 P0001 60005 T10331056 51024=
201902041400 SPECI KBFI 041400Z 36008G17KT 320V040 2SM -SN OVC014 M03/M06 A2957 RMK AO2 P0000 T10281056=
201902041353 METAR KBFI 041353Z 34010G17KT 310V010 3/4SM -SN VV009 M03/M06 A2957 RMK AO2 SLP014 P0001 T10281056=
201902041253 METAR KBFI 041253Z 34007G14KT 3/4SM -SN BR VV009 M02/M04 A2955 RMK AO2 SLP006 P0003 T10221044=
201902041153 METAR KBFI 041153Z 35006KT 3/4SM -SN BR VV009 M02/M04 A2952 RMK AO2 SLP997 P0002 60006 70017 T10221044 10006 21022 53021=
201902041129 SPECI KBFI 041129Z 35007G20KT 3/4SM -SN SCT005 OVC013 M02/M05 A2952 RMK AO2 P0001 T10221050=
201902041119 SPECI KBFI 041119Z 34008KT 300V030 1SM -SN SCT005 OVC013 M02/M04 A2951 RMK AO2 P0000 T10171044=
201902041053 METAR KBFI 041053Z 36007KT 340V060 2SM -SN BR SCT005 OVC013 M02/M04 A2950 RMK AO2 SLP990 P0000 T10171039=
201902040953 METAR KBFI 040953Z 34009KT 2SM -SN OVC013 M01/M04 A2948 RMK AO2 SLP981 P0002 T10111039=
201902040853 METAR KBFI 040853Z 33007KT 2SM -SN BR OVC007 00/M02 A2946 RMK AO2 SLP977 P0002 60002 T00001022 51011=
201902040851 SPECI KBFI 040851Z 34008G17KT 2SM -SN BR OVC007 00/M02 A2946 RMK AO2 P0002=
201902040753 METAR KBFI 040753Z 02003KT 3SM -SN BR BKN013 OVC045 01/M02 A2944 RMK AO2 SLP968 P0000 T00061017 400610000=
201902040653 METAR KBFI 040653Z 02003KT 2SM -SN BR OVC008 01/M02 A2943 RMK AO2 SNB11 SLP966 P0000 T00061017=
201902040649 SPECI KBFI 040649Z 02004KT 2 1/2SM -SN OVC008 01/M02 A2943 RMK AO2 SNB11 P0000=
201902040553 METAR KBFI 040553Z 02003KT 10SM BKN011 OVC018 01/M02 A2942 RMK AO2 SLP962 60005 T00061017 10011 20000 55001=
201902040453 METAR KBFI 040453Z 36005KT 10SM BKN011 OVC018 01/M02 A2942 RMK AO2 SLP961 T00061022=
201902040353 METAR KBFI 040353Z 36004KT 1 1/2SM BR BKN009 OVC016 01/M02 A2942 RMK AO2 SLP962 T00061017=
201902040253 METAR KBFI 040253Z 00000KT 1 1/2SM BR BKN007 OVC016 01/M01 A2942 RMK AO2 SNE48 SLP964 P0001 60005 T00061011 54000=
201902040153 METAR KBFI 040153Z VRB04KT 1 1/2SM -SN BR BKN004 OVC016 01/M01 A2943 RMK AO2 SLP964 P0001 T00061011=
201902040053 METAR KBFI 040053Z VRB03KT 1 1/2SM -SN BR BKN004 OVC016 01/M01 A2942 RMK AO2 SLP964 P0003 T00061011=
201902032353 METAR KBFI 032353Z VRB05KT 1SM -SN BR FEW016 BKN022 OVC033 01/M01 A2943 RMK AO2 RAE13UPB25E26SNB13E25B26 SLP964 P0004 60004 T00061011 10056 20006 53001=
201902032339 SPECI KBFI 032339Z 02006KT 1SM -SN BR FEW016 BKN022 OVC033 01/M01 A2942 RMK AO2 RAE13UPB25E26SNB13E25B26 P0002 T00111006=
201902032324 SPECI KBFI 032324Z 04009KT 2 1/2SM -SN BR FEW016 BKN022 OVC033 02/00 A2941 RMK AO2 RAE13SNB13 P0000 T00170000=
201902032253 METAR KBFI 032253Z 21004KT 10SM -RA FEW008 SCT022 OVC045 04/M01 A2941 RMK AO2 RAB48 SLP959 P0000 T00441006=
201902032153 METAR KBFI 032153Z 19005KT 10SM BKN046 OVC060 05/01 A2941 RMK AO2 SLP959 T00500006=
201902032053 METAR KBFI 032053Z 17013KT 10SM OVC070 06/M01 A2942 RMK AO2 SLP963 T00561006 50003=
201902031953 METAR KBFI 031953Z 19013G19KT 10SM FEW038 BKN150 OVC200 06/M01 A2943 RMK AO2 SLP964 T00561006=
201902031853 METAR KBFI 031853Z 18011KT 10SM BKN030 OVC047 06/00 A2943 RMK AO2 SLP965 T00560000=
201902031753 METAR KBFI 031753Z 18012G21KT 10SM FEW025 BKN034 OVC055 04/00 A2941 RMK AO2 SLP960 60002 T00440000 10050 20044 52010=
201902031700 SPECI KBFI 031700Z 19009G18KT 10SM OVC050 04/M01 A2940 RMK AO2 T00441006=
201902031653 METAR KBFI 031653Z 19008G14KT 160V220 10SM SCT020 BKN025 OVC048 04/00 A2941 RMK AO2 SLP957 T00440000=
201902031553 METAR KBFI 031553Z 18011G18KT 10SM SCT020 BKN025 OVC048 04/01 A2939 RMK AO2 SLP953 T00440006=
201902031455 SPECI KBFI 031455Z 18008KT 10SM SCT020 BKN025 OVC050 05/02 A2938 RMK AO2 T00500017=
201902031453 METAR KBFI 031453Z 18009KT 10SM SCT020 SCT025 OVC050 05/02 A2939 RMK AO2 SLP950 60002 T00500017 56010=
201902031353 METAR KBFI 031353Z 19006KT 7SM FEW022 BKN043 OVC050 05/02 A2939 RMK AO2 RAE1259 SLP950 P0000 T00500017=
201902031253 METAR KBFI 031253Z 14003KT 6SM -RA BR FEW027 OVC050 04/02 A2940 RMK AO2 RAB29 SLP955 P0002 T00440022=
201902031153 METAR KBFI 031153Z 16004KT 10SM FEW027 OVC050 05/01 A2941 RMK AO2 SLP960 T00500006 10067 20044 56009=
201902031053 METAR KBFI 031053Z AUTO 00000KT 10SM FEW029 OVC050 05/01 A2942 RMK AO2 SLP963 T00500011=
201902030953 METAR KBFI 030953Z 00000KT 10SM SCT029 OVC050 06/01 A2943 RMK AO2 SLP966 T00560011=
201902030853 METAR KBFI 030853Z 00000KT 10SM BKN031 OVC050 06/01 A2944 RMK AO2 SLP970 T00560011 56008=
201902030753 METAR KBFI 030753Z 00000KT 10SM FEW033 OVC048 06/02 A2945 RMK AO2 SLP971 T00610017 400940061=
201902030653 METAR KBFI 030653Z 02005KT 10SM OVC046 06/01 A2946 RMK AO2 SLP975 T00610011=
201902030553 METAR KBFI 030553Z 00000KT 10SM OVC043 07/01 A2947 RMK AO2 SLP978 T00670011 10083 20067 56012=
201902030453 METAR KBFI 030453Z 36003KT 10SM OVC041 07/02 A2948 RMK AO2 SLP981 T00670017=
201902030353 METAR KBFI 030353Z 01004KT 10SM BKN027 OVC041 07/03 A2949 RMK AO2 SLP985 T00670028=
201902030253 METAR KBFI 030253Z 36003KT 10SM BKN024 07/03 A2950 RMK AO2 SLP989 T00720033 58016=
201902030153 METAR KBFI 030153Z 36006KT 10SM SCT024 07/03 A2952 RMK AO2 SLP995 T00720033=
201902030053 METAR KBFI 030053Z VRB04KT 10SM SCT016 BKN024 08/03 A2954 RMK AO2 SLP003 T00830033=
201902022353 METAR KBFI 022353Z 32006KT 10SM SCT016 BKN024 08/04 A2955 RMK AO2 SLP005 60000 T00830044 10089 20078 56017=
201902022253 METAR KBFI 022253Z 00000KT 10SM SCT015 BKN023 09/05 A2956 RMK AO2 SLP009 T00890050=
201902022153 METAR KBFI 022153Z 33006KT 10SM SCT010 BKN029 OVC043 09/06 A2958 RMK AO2 SLP016 T00890056=
201902022053 METAR KBFI 022053Z 31006KT 10SM BKN024 OVC037 09/06 A2960 RMK AO2 SLP022 60000 T00890061 58022=
201902021953 METAR KBFI 021953Z 27003KT 10SM SCT008 BKN015 OVC026 08/06 A2963 RMK AO2 SLP033 T00830056=
201902021853 METAR KBFI 021853Z 00000KT 9SM SCT005 BKN012 OVC020 08/06 A2965 RMK AO2 RAB00E10 SLP040 P0000 T00830056=
201902021815 SPECI KBFI 021815Z 00000KT 10SM SCT005 BKN012 OVC020 08/06 A2965 RMK AO2 RAB00E10 P0000 T00830061=
201902021753 METAR KBFI 021753Z 17003KT 7SM SCT005 BKN008 OVC015 08/06 A2966 RMK AO2 RAB35E49 SLP044 P0000 60000 T00780061 10089 20061 50001=
201902021653 METAR KBFI 021653Z 14004KT 10SM SCT005 BKN015 OVC027 08/07 A2967 RMK AO2 SLP046 T00780067=
201902021553 METAR KBFI 021553Z 12004KT 10SM SCT008 BKN018 OVC028 08/06 A2966 RMK AO2 SLP045 T00780061=
201902021453 METAR KBFI 021453Z 14003KT 10SM FEW010 OVC025 07/06 A2966 RMK AO2 SLP043 T00720061 56010=
201902021353 METAR KBFI 021353Z 00000KT 10SM BKN008 BKN018 07/06 A2966 RMK AO2 SLP043 T00720056=
201902021338 SPECI KBFI 021338Z 00000KT 10SM FEW008 SCT015 BKN040 07/06 A2966 RMK AO2 T00670056=
201902021253 METAR KBFI 021253Z 14007KT 10SM FEW015 SCT040 07/05 A2967 RMK AO2 SLP045 T00670050=
201902021244 SPECI KBFI 021244Z 14005KT 10SM SCT015 BKN040 07/06 A2967 RMK AO2 T00720056=
201902021153 METAR KBFI 021153Z 00000KT 10SM OVC013 09/06 A2969 RMK AO2 SLP053 70051 T00890056 10094 20078 53011=
201902021053 METAR KBFI 021053Z 22003KT 10SM BKN013 09/06 A2968 RMK AO2 SLP049 T00890061=
201902020953 METAR KBFI 020953Z 16006KT 10SM OVC011 08/06 A2965 RMK AO2 SLP041 T00830061=
201902020928 SPECI KBFI 020928Z 18004KT 10SM SCT015 09/07 A2965 RMK AO2 T00890067=
201902020853 METAR KBFI 020853Z 15008KT 10SM FEW011 SCT075 08/06 A2966 RMK AO2 SLP042 T00780061 50004=
201902020753 METAR KBFI 020753Z 17008KT 10SM FEW011 BKN065 OVC120 09/07 A2966 RMK AO2 SLP042 T00940067 401060072=
201902020653 METAR KBFI 020653Z 18008G16KT 10SM FEW007 SCT065 OVC110 09/07 A2965 RMK AO2 SLP038 T00890067=
201902020553 METAR KBFI 020553Z 18006KT 10SM FEW060 OVC100 09/07 A2964 RMK AO2 SLP038 60005 T00890067 10106 20089 53010=
201902020453 METAR KBFI 020453Z 20005KT 10SM SCT045 OVC060 09/07 A2963 RMK AO2 RAE00B30E51 SLP034 P0001 T00940072=
201902020353 METAR KBFI 020353Z 19004KT 10SM -RA FEW018 OVC036 09/07 A2962 RMK AO2 SLP029 P0001 T00940072=
201902020342 SPECI KBFI 020342Z 20007KT 10SM -RA FEW013 SCT020 OVC034 10/08 A2962 RMK AO2 P0001 T01000078=
201902020332 SPECI KBFI 020332Z VRB05KT 10SM -RA FEW013 BKN022 OVC042 10/08 A2962 RMK AO2 P0001 T01000078=
201902020253 METAR KBFI 020253Z 19007KT 10SM -RA FEW016 OVC038 10/08 A2962 RMK AO2 SLP028 P0002 60003 T01000078 53009=
201902020153 METAR KBFI 020153Z 19006KT 10SM -RA FEW027 SCT040 OVC055 10/08 A2961 RMK AO2 RAB0056 SLP025 P0001 T01000083=
201902020053 METAR KBFI 020053Z 18006KT 10SM SCT020 BKN055 OVC070 11/08 A2960 RMK AO2 RAB28E53 SLP022 P0000 T01060083=
201902012353 METAR KBFI 012353Z 17009KT 10SM BKN025 OVC075 11/08 A2959 RMK AO2 RAE42 SLP019 P0002 60016 T01060083 10106 20078 56005=
201902012253 METAR KBFI 012253Z 17006KT 5SM -RA BR SCT008 BKN018 OVC055 10/08 A2959 RMK AO2 SLP021 P0003 T01000083=
201902012246 SPECI KBFI 012246Z VRB05KT 5SM -RA BR SCT008 BKN018 OVC055 10/08 A2959 RMK AO2 P0003 T01000083=
201902012153 METAR KBFI 012153Z 17008KT 6SM -RA BR SCT010 BKN055 OVC080 09/08 A2959 RMK AO2 SLP019 P0001 T00940078=
201902012053 METAR KBFI 012053Z 16006KT 5SM -RA BR FEW010 BKN025 OVC035 09/07 A2960 RMK AO2 SLP024 P0003 60010 T00890072 56005=
201902012032 SPECI KBFI 012032Z 17007KT 5SM -RA BR SCT013 BKN034 OVC060 09/07 A2960 RMK AO2 P0002 T00940072=
201902011953 METAR KBFI 011953Z VRB04KT 3SM -RA BR SCT006 BKN010 OVC016 09/08 A2960 RMK AO2 SLP024 P0003 T00890078=
201902011853 METAR KBFI 011853Z 16006KT 3SM -RA BR SCT006 BKN010 OVC016 08/07 A2961 RMK AO2 SLP025 P0004 T00830067=
201902011753 METAR KBFI 011753Z 12005KT 3SM -RA BR SCT006 BKN010 OVC016 08/06 A2962 RMK AO2 SLP029 P0005 60030 T00780061 10089 20072 58007=
201902011653 METAR KBFI 011653Z 13008KT 3SM -RA BR OVC009 08/06 A2963 RMK AO2 SLP033 P0007 T00780061=
201902011632 SPECI KBFI 011632Z 12006KT 3SM -RA BR BKN009 OVC035 08/06 A2963 RMK AO2 P0005 T00780061=
201902011553 METAR KBFI 011553Z 11005KT 6SM -RA BR BKN041 OVC050 07/06 A2963 RMK AO2 SLP032 P0005 T00720061=
201902011453 METAR KBFI 011453Z 00000KT 6SM -RA OVC037 08/05 A2964 RMK AO2 SLP035 P0007 60013 T00780050 55010=
201902011353 METAR KBFI 011353Z 00000KT 7SM -RA OVC045 08/04 A2963 RMK AO2 SLP033 P0003 T00780044=
201902011253 METAR KBFI 011253Z 00000KT 10SM -RA SCT045 OVC065 08/05 A2964 RMK AO2 RAB1156 SLP038 P0003 T00830050=
201902011153 METAR KBFI 011153Z 00000KT 10SM OVC070 08/04 A2967 RMK AO2 SLP046 60000 T00830039 10106 20083 55003=
201902011053 METAR KBFI 011053Z 14006KT 10SM OVC100 08/04 A2967 RMK AO2 SLP045 T00830039=
201902010953 METAR KBFI 010953Z 15006KT 10SM FEW050 OVC120 08/04 A2966 RMK AO2 SLP044 T00830044=
201902010853 METAR KBFI 010853Z 15004KT 10SM SCT050 09/04 A2968 RMK AO2 SLP048 60000 T00890044 58004=
201902010753 METAR KBFI 010753Z 13006KT 10SM BKN047 OVC065 10/04 A2969 RMK AO2 RAB04E20 SLP052 P0000 T01000044 401280028=
201902010653 METAR KBFI 010653Z 12004KT 10SM BKN043 OVC090 10/04 A2968 RMK AO2 SLP051 T01000039=
201902010553 METAR KBFI 010553Z 13003KT 10SM BKN045 BKN100 OVC120 11/04 A2969 RMK AO2 SLP052 60000 T01060039 10117 20100 56016=
201902010453 METAR KBFI 010453Z 14005KT 10SM OVC043 10/04 A2969 RMK AO2 RAB10E30 SLP055 P0000 T01000044=
201902010353 METAR KBFI 010353Z 16005KT 10SM OVC055 11/03 A2970 RMK AO2 SLP058 T01110028=
201902010253 METAR KBFI 010253Z 14006KT 10SM OVC065 11/02 A2973 RMK AO2 SLP068 T01110022 58013=
201902010153 METAR KBFI 010153Z 15005KT 10SM OVC075 11/02 A2975 RMK AO2 SLP074 T01110022=
201902010053 METAR KBFI 010053Z AUTO 16005KT 10SM OVC085 12/02 A2977 RMK AO2 SLP079 T01170017=

# No short TAF reports from KBFI in databse.

###################################
#  large TAF from KBFI
###################################
201902282320 TAF KBFI 282320Z 0100/0124 36005KT P6SM FEW050 SCT200 FM010600
                       05005KT P6SM SCT060 SCT200 FM011800 33006KT
                       P6SM SCT060 FM012100 33007KT P6SM SCT120
                       SCT200=
201902281723 TAF KBFI 281723Z 2818/0118 18005KT P6SM FEW070 FEW200 FM282000
                       20005KT P6SM FEW070 SCT200 FM010200 02005KT
                       P6SM FEW060 SCT200 FM010600 05005KT P6SM
                       BKN060=
201902281120 TAF KBFI 281120Z 2812/0112 00000KT P6SM BKN070 FM281800 23004KT
                       P6SM FEW060 BKN150 FM010000 31004KT P6SM
                       FEW060 BKN150 FM010600 VRB03KT P6SM BKN060
                       BKN100=
201902280905 TAF AMD KBFI 280905Z 2809/0106 00000KT P6SM SCT050 BKN100
                      TEMPO 2809/2812 -SN BKN040 OVC080 FM281200
                       15004KT P6SM SCT035 BKN060 FM282100 20006KT
                       P6SM SCT040 FM010300 VRB03KT P6SM SCT200=
201902280530 TAF KBFI 280530Z 2806/0106 15007KT P6SM VCSH BKN040
                      TEMPO 2806/2810 P6SM -SN BKN035 FM281200
                       15004KT P6SM BKN035 OVC050 FM282100 20006KT
                       P6SM SCT040 FM010300 VRB03KT P6SM SCT200=
201902280256 KBFI 280256Z 2803/2824 18005KT P6SM VCSH OVC060
                      TEMPO 2803/2806 P6SM -SN OVC050 FM280600
                       15007KT P6SM BKN035 OVC050 FM281800 20005KT
                       P6SM OVC050=
201902272320 TAF KBFI 272320Z 2800/2824 25006KT P6SM VCSH OVC070
                      TEMPO 2802/2806 17006KT P6SM -SN BKN040 OVC050
                       FM280600 15007KT P6SM BKN035 OVC050 FM281800
                       20005KT P6SM OVC050=
201902271720 TAF KBFI 271720Z 2718/2818 35004KT P6SM OVC070 FM272000 34006KT
                       P6SM OVC050 FM272300 35005KT 5SM -SHRASN
                       BKN040 OVC050
                      TEMPO 2801/2803 15005KT 5SM -SN BKN035 OVC040
                       FM280500 15004KT P6SM BKN040 OVC050=
201902271413 KBFI 271413Z 2714/2812 35004KT P6SM OVC070 FM272000 34006KT P6SM
                       OVC050 FM272300 35005KT 5SM -SHRASN BKN040
                       OVC050
                      TEMPO 2801/2803 15005KT 5SM -SN BKN035 OVC040
                       FM280500 15004KT P6SM BKN040 OVC050=
201902271138 TAF KBFI 271138Z 2712/2812 00000KT P6SM OVC090 FM272000 34006KT
                       P6SM OVC070 FM272300 35005KT 5SM -SHRASN
                       BKN040 OVC050 FM280100 15005KT 5SM -SN BKN035
                       OVC040 FM280500 15004KT P6SM BKN040 OVC050=
201902270540 TAF KBFI 270540Z 2706/2806 00000KT P6SM BKN200 FM271200 00000KT
                       P6SM BKN100 OVC200 FM272000 34006KT P6SM
                       OVC070 FM280200 13006KT 5SM -SN OVC040=
201902270304 KBFI 270304Z 2703/2724 07008KT P6SM FEW035 SCT200 FM270900 07008KT
                       P6SM SCT120 BKN200 FM271200 04012KT P6SM
                       BKN100 OVC200 FM271500 04012KT P6SM BKN070
                       BKN100 FM272000 02010KT P6SM OVC070=
201902262320 TAF KBFI 262320Z 2700/2724 11015G22KT P6SM FEW035 SCT200 FM270900
                       10015G22KT P6SM SCT120 BKN200 FM271200 04012KT
                       P6SM BKN100 OVC200 FM271500 04012KT P6SM
                       BKN070 BKN100 FM272000 02010KT P6SM OVC070=
201902261720 TAF KBFI 261720Z 2618/2718 03009KT P6SM FEW040 FEW100 FM262100
                       03014KT P6SM FEW100 FM271200 04012KT P6SM
                       BKN100 FM271500 04012KT P6SM BKN070 BKN100=
201902261130 TAF KBFI 261130Z 2612/2712 36004KT P6SM SKC FM261400 36005KT P6SM
                       SCT250 FM262200 34012KT P6SM SCT250=
201902260538 TAF KBFI 260538Z 2606/2706 36006KT P6SM BKN090 FM261400 36006KT
                       P6SM SCT250 FM262200 34012KT P6SM SCT250=
201902260310 KBFI 260310Z 2603/2624 36006KT P6SM BKN100 FM260700 36006KT P6SM
                       SCT250 FM262200 33010G16KT P6SM SCT250=
201902252340 TAF KBFI 252340Z 2600/2624 33012G19KT P6SM OVC080 FM260200 33012KT
                       P6SM BKN100 FM260400 33010KT P6SM SCT250
                       FM262200 33010G16KT P6SM SCT250=
201902252104 KBFI 252104Z 2521/2618 35009G14KT P6SM SKC FM260000 33008G14KT
                       P6SM FEW250 FM260700 08003KT P6SM SCT250
                       FM261200 05002KT P6SM SKC=
201902251722 TAF KBFI 251722Z 2518/2618 01004KT P6SM SKC FM260000 33008G14KT
                       P6SM FEW250 FM260700 08003KT P6SM SCT250
                       FM261200 05002KT P6SM SKC=
201902251137 TAF KBFI 251137Z 2512/2612 VRB03KT P6SM SCT120 FM251800 34006KT
                       P6SM FEW120 BKN250 FM260000 01010KT P6SM
                       BKN120 BKN200 FM260900 VRB03KT P6SM BKN150=
201902250522 TAF KBFI 250522Z 2506/2606 VRB03KT P6SM BKN080 FM251200 VRB03KT
                       P6SM SCT080 SCT250 FM251800 34006KT P6SM
                       FEW120 BKN250 FM260000 01010KT P6SM BKN120
                       OVC200=
201902250005 TAF KBFI 250005Z 2500/2524 VRB05KT P6SM SCT030 BKN050 FM250400
                       34005KT P6SM BKN050 BKN150 FM250800 VRB03KT
                       P6SM SCT250 FM251800 03005KT P6SM FEW120
                       BKN200=
201902241758 TAF KBFI 241758Z 2418/2518 VRB05KT P6SM SCT040 BKN060
                      TEMPO 2418/2421 -RASN BKN025 BKN035 OVC050
                       FM250400 34005KT P6SM SCT050 BKN150 FM250800
                       02003KT P6SM SCT250=
201902241136 TAF KBFI 241136Z 2412/2512 VRB03KT P6SM BKN040 OVC050
                      TEMPO 2412/2415 -SHRA BKN030 OVC045 FM241700
                       35005KT P6SM SCT030 BKN070 FM250400 34005KT
                       P6SM SCT050 BKN150 FM250800 02003KT P6SM
                       SCT250=
201902240540 TAF KBFI 240540Z 2406/2506 VRB03KT P6SM SCT025 BKN045 OVC060
                      TEMPO 2406/2410 -SHRA BKN025 OVC040 FM241000
                       VRB03KT P6SM SCT025 BKN045 OVC060
                      TEMPO 2410/2414 -SHRA BKN025 OVC045 FM241400
                       34006KT P6SM SCT030 BKN050 FM250400 34006KT
                       P6SM SCT050 BKN150=
201902232320 TAF KBFI 232320Z 2400/2424 21006KT P6SM VCSH SCT025 BKN040
                      TEMPO 2400/2404 BKN025 OVC040 FM240900 VRB04KT
                       P6SM SCT020 BKN040
                      TEMPO 2412/2416 -SHRASN BKN020 OVC040 FM241800
                       36008KT P6SM SCT025 BKN050=
201902232115 KBFI 232115Z 2321/2418 21005KT P6SM VCSH BKN030 BKN060 FM240300
                       13006KT P6SM VCSH SCT025 BKN050 FM241200
                       VRB04KT P6SM -SHRASN BKN025 BKN050 FM241600
                       02007KT P6SM SCT030 BKN050=
201902231750 TAF KBFI 231750Z 2318/2418 17008KT P6SM SCT015 OVC025 FM231900
                       13009KT P6SM VCSH SCT025 OVC040 FM232100
                       17008KT P6SM -SHRA SCT030 BKN045 FM240300
                       13006KT P6SM VCSH SCT050 OVC070 FM241200
                       03006KT P6SM -SHRASN BKN030 OVC040=
201902231137 TAF KBFI 231137Z 2312/2412 17008KT P6SM BKN015 OVC020 FM231900
                       13009KT P6SM VCSH BKN025 OVC040 FM232100
                       17008KT P6SM VCSH SCT030 BKN045 FM240300
                       13006KT P6SM VCSH SCT050 OVC070=
201902230532 TAF KBFI 230532Z 2306/2406 17008KT P6SM BKN015 BKN025 OVC045 FM231100
                       17008KT P6SM VCSH SCT015 BKN025 OVC045 FM232100
                       17008KT P6SM VCSH SCT030 BKN045 FM240300
                       13006KT P6SM SCT050 BKN200=
201902222320 TAF KBFI 222320Z 2300/2324 22010KT P6SM VCSH SCT015 BKN040
                      TEMPO 2300/2304 BKN015 OVC030 FM230900 19007KT
                       P6SM VCSH BKN025 FM232000 19010KT P6SM VCSH
                       BKN040=
201902221749 TAF KBFI 221749Z 2218/2318 18014G25KT P6SM -RA SCT025 OVC030 FM221900
                       20014G22KT P6SM -RA BKN025 OVC035 FM230200
                       17009KT P6SM SCT025 BKN040 OVC080 FM230900
                       18006KT P6SM VCSH BKN030=
201902221136 TAF KBFI 221136Z 2212/2312 13006KT P6SM OVC100 FM221400 15006KT
                       P6SM SCT040 OVC070 FM221800 18012G20KT P6SM
                       -RA SCT025 OVC040 FM221900 20014G22KT P6SM
                       -RA BKN025 OVC035 FM230200 17009KT P6SM
                       SCT025 BKN040 OVC080 FM230900 18006KT P6SM
                       VCSH BKN035=
201902220520 TAF KBFI 220520Z 2206/2306 15003KT P6SM BKN250 FM221200 15005KT
                       P6SM BKN120 OVC200 FM221400 15006KT P6SM
                       SCT040 OVC070 FM221700 18014G22KT P6SM -RASN
                       SCT025 OVC040 FM221900 20016G25KT P6SM -RA
                       BKN025 OVC035 FM230200 17009KT P6SM SCT025
                       BKN040 OVC080=
201902212355 TAF KBFI 212355Z 2200/2224 32006KT P6SM SKC FM220300 VRB03KT P6SM
                       BKN200 FM220600 16005KT P6SM BKN120 OVC200
                       FM221100 15006KT P6SM BKN060 OVC120 FM221400
                       15006KT P6SM VCSH BKN035 OVC060 FM221800
                       18012G22KT P6SM -RA OVC030 FM222200 17014G22KT
                       P6SM -RA OVC025=
201902211745 TAF KBFI 211745Z 2118/2218 34005KT P6SM SKC FM220300 VRB03KT P6SM
                       BKN200 FM220800 14005KT P6SM BKN120 OVC200
                       FM221100 15006KT P6SM BKN060 OVC120 FM221400
                       16008KT P6SM VCSH BKN035 OVC060=
201902211339 KBFI 211339Z 2114/2212 VRB04KT P6SM SCT020
                      TEMPO 2114/2117 BKN014 FM211800 34005KT P6SM
                       SKC FM220300 VRB03KT P6SM BKN200 FM220800
                       15005KT P6SM BKN120 OVC200 FM221100 15006KT
                       P6SM BKN060 OVC120=
201902211127 TAF KBFI 211127Z 2112/2212 VRB04KT P6SM SCT030
                      TEMPO 2112/2116 BKN025 FM211800 34005KT P6SM
                       SKC FM220300 VRB03KT P6SM BKN200 FM220800
                       15005KT P6SM BKN120 OVC200 FM221100 15006KT
                       P6SM BKN060 OVC120=
201902210525 TAF KBFI 210525Z 2106/2206 VRB03KT P6SM OVC030 FM211200 00000KT
                       P6SM SCT030
                      TEMPO 2112/2115 BKN030 FM211800 34005KT P6SM
                       SKC FM220300 VRB03KT P6SM BKN250=
201902202322 TAF KBFI 202322Z 2100/2124 36006KT P6SM SCT030 BKN050
                      TEMPO 2100/2103 BKN030 BKN040 FM210800 03006KT
                       P6SM SCT050 FM211600 36007KT P6SM SKC=
201902202132 KBFI 202132Z 2022/2118 VRB04KT P6SM VCSH SCT015 BKN025 BKN040 FM210200
                       02006KT P6SM SCT025 BKN050 FM211000 02008KT
                       P6SM SCT050 FM211700 02008KT P6SM SKC=
201902201723 TAF KBFI 201723Z 2018/2118 VRB03KT P6SM SCT018 BKN050
                      TEMPO 2018/2021 5SM -SHRA BKN018 OVC040 FM210600
                       03004KT P6SM SCT050=
201902201603 KBFI 201603Z 2016/2112 VRB03KT P6SM SCT025 BKN050
                      TEMPO 2016/2020 -SHRA BKN025 OVC050 FM210600
                       03004KT P6SM SCT050 SCT150=
201902201137 TAF KBFI 201137Z 2012/2112 18007KT 6SM -SHRA BR BKN017 OVC025 FM201500
                       33004KT P6SM VCSH BKN018 BKN030 FM202100
                       34006KT P6SM SCT030 BKN050 FM210300 VRB03KT
                       P6SM SCT050 BKN150 FM210700 VRB03KT P6SM
                       FEW050=
201902200521 TAF KBFI 200521Z 2006/2106 20003KT P6SM SCT017 BKN070 OVC100
                      TEMPO 2006/2008 -SHRA BKN017 OVC070 FM200800
                       18007KT 6SM -SHRA BR BKN015 BKN025 FM201500
                       33004KT P6SM VCSH BKN015 BKN030 FM202100
                       35006KT P6SM BKN050 FM210300 VRB03KT P6SM
                       SCT050 BKN150=
201902192320 TAF KBFI 192320Z 2000/2024 16008KT P6SM -RA OVC015 FM200800 18007KT
                       6SM -SHRA BR BKN015 BKN025 FM201500 VRB04KT
                       P6SM VCSH BKN015 BKN030 FM202100 VRB04KT
                       P6SM BKN050=
201902191722 TAF KBFI 191722Z 1918/2018 18007KT P6SM BKN015 OVC030 FM192100
                       16008KT P6SM -RA OVC015 FM200800 18007KT
                       6SM -SHRA BR BKN015 BKN025 FM201500 VRB04KT
                       P6SM VCSH BKN015 BKN030=
201902191135 TAF KBFI 191135Z 1912/2012 14004KT P6SM BKN016 OVC030 FM192100
                       16008KT P6SM -RA OVC018 FM200800 18007KT
                       6SM -SHRA BR BKN015 BKN030=
201902190857 KBFI 190857Z 1909/2006 14004KT P6SM BKN016 OVC045 FM192100 17008KT
                       P6SM -RA OVC015=
201902190520 TAF KBFI 190520Z 1906/2006 15003KT P6SM SCT030 OVC060
                      TEMPO 1906/1909 -SHRA BKN030 OVC060 FM190900
                       14004KT P6SM OVC025 FM192100 17008KT P6SM
                       -RA OVC015=
201902182320 TAF KBFI 182320Z 1900/1924 14005KT P6SM SCT020 BKN040 FM190600
                       15005KT P6SM OVC040 FM190900 14004KT P6SM
                       OVC025 FM192100 17008KT P6SM -RA OVC015=
201902182109 KBFI 182109Z 1821/1918 VRB04KT P6SM SCT015 BKN025 FM190000 14005KT
                       P6SM SCT025 BKN050 FM190600 15005KT P6SM
                       OVC040 FM190900 14004KT P6SM OVC025=
201902181720 TAF KBFI 181720Z 1818/1918 15004KT P6SM OVC025 FM182100 VRB03KT
                       P6SM SCT030 BKN050 FM190600 15005KT P6SM
                       OVC040 FM190900 14004KT P6SM OVC025=
201902181138 TAF KBFI 181138Z 1812/1912 13005KT P6SM BKN035 OVC040 FM181400
                       15004KT P6SM BKN025 OVC035 FM182100 VRB03KT
                       P6SM SCT030 BKN045 FM190600 15005KT P6SM
                       OVC040 FM190900 14004KT P6SM OVC025=
201902180601 TAF KBFI 180601Z 1806/1906 11004KT P6SM SCT030 FM181200 11004KT
                       P6SM FEW020 BKN025 FM182100 23004KT P6SM
                       SCT030 BKN040=
201902180001 KBFI 180001Z 1800/1824 35004KT P6SM BKN030 FM180200 11004KT P6SM
                       SCT030 FM181200 11004KT P6SM FEW020 BKN025
                       FM182100 23004KT P6SM SCT030 BKN040=
201902172322 TAF KBFI 172322Z 1800/1824 35004KT P6SM SCT020 BKN030 FM180300
                       11004KT P6SM SCT030 FM181200 11004KT P6SM
                       FEW020 BKN025 FM182100 23004KT P6SM SCT030
                       BKN040=
201902171747 TAF KBFI 171747Z 1718/1818 15003KT P6SM BKN012 OVC025 FM171900
                       VRB03KT P6SM BKN025 OVC060 FM172100 32006KT
                       P6SM SCT016 BKN030 BKN045 FM180000 VRB03KT
                       P6SM SCT030 BKN045 FM180600 VRB03KT P6SM
                       OVC035 FM181200 13003KT P6SM SCT020 BKN030=
201902171619 KBFI 171619Z 1716/1812 15003KT P6SM SCT015 BKN060
                      TEMPO 1716/1718 P6SM -SHRA SCT005 BKN020
                       OVC030 FM172100 32006KT P6SM SCT016 BKN030
                       BKN045 FM180000 VRB03KT P6SM SCT030 BKN045
                       FM180600 VRB03KT P6SM OVC035=
201902171139 TAF KBFI 171139Z 1712/1812 VRB04KT P6SM OVC015 FM171500 00000KT
                       P6SM OVC010 FM171800 VRB04KT P6SM SCT012
                       BKN016 OVC025 FM172100 32006KT P6SM SCT016
                       BKN030 BKN045 FM180000 VRB03KT P6SM SCT030
                       BKN045 FM180600 VRB03KT P6SM OVC035=
201902170546 TAF KBFI 170546Z 1706/1806 00000KT P6SM -SHRA BKN011 OVC016 FM171100
                       VRB04KT P6SM OVC008 FM171600 00000KT P6SM
                       OVC012 FM171800 VRB04KT P6SM SCT012 BKN016
                       OVC025 FM172100 32006KT P6SM SCT016 BKN030
                       BKN045 FM180000 VRB03KT P6SM SCT030 BKN045=
201902170401 KBFI 170401Z 1704/1724 04005KT 6SM -RA SCT008 OVC015 FM170700 VRB03KT
                       P6SM -SHRASN BKN025 OVC040 FM170900 VRB03KT
                       P6SM BKN012 OVC030 FM171400 00000KT P6SM
                       OVC015 FM171700 07005KT P6SM BKN025 OVC035
                       FM172100 33006KT P6SM SCT035 BKN040=
201902162344 TAF KBFI 162344Z 1700/1724 13005KT P6SM -SHRA SCT020 OVC035
                      TEMPO 1700/1703 4SM -RA BR OVC008 FM170600
                       15003KT P6SM BKN030 OVC040 FM171000 15003KT
                       P6SM BKN010 OVC030 FM171400 00000KT P6SM
                       OVC015 FM171700 VRB03KT P6SM BKN025 OVC035
                       FM172100 33006KT P6SM SCT035 BKN040=
201902161904 KBFI 161904Z 1619/1718 14007KT 3SM -RA BR OVC007 FM162100 16006KT
                       5SM -SHRA BR BKN010 OVC035 FM162300 17005KT
                       P6SM -SHRA OVC020 FM170200 18004KT P6SM
                       -SHRA OVC025 FM170700 15003KT P6SM BKN030
                       OVC040 FM171400 00000KT P6SM BKN020=
201902161755 TAF KBFI 161755Z 1618/1718 15004KT P6SM -RA BKN010 OVC035 FM162100
                       17005KT P6SM -SHRA OVC020 FM170200 18004KT
                       P6SM -SHRA OVC025 FM170700 15003KT P6SM
                       BKN030 OVC040 FM171400 00000KT P6SM BKN020=
201902161547 KBFI 161547Z 1616/1712 00000KT P6SM VCSH BKN012 OVC060
                      TEMPO 1616/1618 5SM -SHRA BR OVC010 FM161800
                       17004KT P6SM -SHRA OVC030 FM162100 17005KT
                       P6SM -RA OVC025 FM170200 18004KT P6SM -SHRA
                       OVC025 FM170700 15003KT P6SM BKN030 OVC040=
201902161137 TAF KBFI 161137Z 1612/1712 00000KT P6SM OVC070 FM161800 17004KT
                       P6SM -SHRA OVC030 FM162100 17005KT P6SM
                       -RA OVC025 FM170200 18004KT P6SM -SHRA OVC025
                       FM170700 15003KT P6SM BKN030 OVC040=
201902160548 TAF KBFI 160548Z 1606/1706 18006KT P6SM BKN060 BKN100 FM160900
                       VRB04KT P6SM OVC050 FM161500 15003KT P6SM
                       OVC030 FM162100 17005KT P6SM VCSH OVC030=
201902152320 TAF KBFI 152320Z 1600/1624 18006KT P6SM SCT025 BKN100 FM160800
                       VRB04KT P6SM OVC050 FM161500 15003KT P6SM
                       OVC030 FM162100 17005KT P6SM VCSH OVC030=
201902152034 KBFI 152034Z 1521/1618 17009KT P6SM VCSH BKN030 OVC050 FM152300
                       17005KT P6SM OVC050 FM160800 15005KT P6SM
                       BKN030 OVC045 FM161500 15003KT P6SM OVC030=
201902151724 TAF KBFI 151724Z 1518/1618 15004KT P6SM -RA SCT035 OVC050 FM152000
                       15005KT P6SM VCSH SCT035 OVC050 FM160000
                       17005KT P6SM OVC045 FM160800 15005KT P6SM
                       BKN030 OVC045 FM161500 15003KT P6SM OVC030=
201902151452 KBFI 151452Z 1515/1612 13004KT P6SM -SHRA SCT040 BKN050 OVC080
                       FM151700 15004KT P6SM -RA BKN035 OVC050
                       FM152000 15005KT P6SM VCSH BKN035 OVC050
                       FM160000 17005KT P6SM OVC045 FM160800 15005KT
                       P6SM BKN030 OVC045=
201902151138 TAF KBFI 151138Z 1512/1612 16006KT P6SM -RA OVC045 FM151400 15007KT
                       P6SM -SHRA OVC030 FM152000 17005KT P6SM
                       BKN035 OVC050 FM160000 17005KT P6SM OVC045
                       FM160800 15005KT P6SM BKN030 OVC045=
201902150909 KBFI 150909Z 1509/1606 00000KT P6SM -SHRA BKN050 OVC070 FM151000
                       14004KT P6SM -RA BKN040 OVC050 FM151200
                       16006KT P6SM -RA OVC025 FM151500 15007KT
                       P6SM -SHRA OVC030 FM151800 17005KT P6SM
                       BKN035 OVC050 FM160000 17005KT P6SM OVC050=
201902150523 TAF KBFI 150523Z 1506/1606 14007KT P6SM -SHRA SCT025 BKN045 FM151200
                       16006KT P6SM VCSH OVC020 FM152100 17005KT
                       P6SM OVC030=
201902142328 TAF KBFI 142328Z 1500/1524 VRB04KT 5SM -RA OVC028 FM150200 15006KT
                       6SM -RA OVC028 FM150700 14007KT P6SM -SHRA
                       OVC025 FM151200 16006KT P6SM VCSH OVC020
                       FM152100 17005KT P6SM OVC030=
201902142119 KBFI 142119Z 1421/1518 33007KT P6SM VCSH SCT040 OVC070 FM142200
                       35007KT 6SM -RA OVC050 FM150200 15006KT
                       P6SM -RA OVC030 FM150700 14007KT P6SM -SHRA
                       OVC025 FM151200 16005KT P6SM VCSH OVC035=
201902141729 TAF KBFI 141729Z 1418/1518 VRB03KT P6SM VCSH SCT040 OVC060 FM142200
                       02007KT 6SM -RA OVC045 FM150200 15006KT
                       P6SM -RA OVC030 FM150700 14007KT P6SM -SHRA
                       OVC025 FM151200 16005KT P6SM VCSH OVC035=
201902141139 TAF KBFI 141139Z 1412/1512 00000KT P6SM FEW035 FEW080 FM141400
                       35005KT P6SM BKN050 BKN200 FM141800 02007KT
                       P6SM VCSH OVC050 FM142200 03007KT P6SM -RA
                       OVC045 FM150500 15008G18KT P6SM -SHRA BKN035
                       FM151100 15008KT P6SM VCSH OVC035=
201902140552 TAF KBFI 140552Z 1406/1506 01004KT P6SM SCT020 BKN070
                      TEMPO 1406/1408 BKN020 BKN070 FM141100 02005KT
                       P6SM SCT030 SCT200 FM141600 02006KT P6SM
                       VCSH BKN050 BKN200 FM142200 03007KT P6SM
                       -RA OVC045 FM150400 15008G18KT P6SM -SHRA
                       BKN045=
201902140416 KBFI 140416Z 1404/1424 01004KT P6SM SCT025 BKN070
                      TEMPO 1404/1406 OVC025 FM141100 02005KT P6SM
                       SCT050 SCT200 FM141600 06006KT P6SM VCSH
                       BKN050 BKN200 FM142100 01008KT P6SM -RA
                       OVC045=
201902132324 TAF KBFI 132324Z 1400/1424 01005KT P6SM FEW015 BKN025 FM140300
                       VRB04KT P6SM SCT250 FM141100 VRB02KT P6SM
                       SCT050 SCT200 FM141600 06005KT P6SM VCSH
                       BKN050 BKN200 FM142100 36006KT P6SM -RA
                       OVC045=
201902132106 KBFI 132106Z 1321/1418 01004KT P6SM VCSH OVC015 FM132300 02005KT
                       P6SM BKN020 FM140200 VRB04KT P6SM SCT250
                       FM141100 VRB03KT P6SM SCT050 SCT200 FM141700
                       06005KT P6SM VCSH BKN050 BKN200=
201902131736 TAF KBFI 131736Z 1318/1418 VRB03KT P6SM VCSH OVC010 FM132200 02005KT
                       P6SM BKN015 FM140200 VRB04KT P6SM SCT250
                       FM141100 VRB03KT P6SM SCT050 SCT200 FM141700
                       06005KT P6SM VCSH BKN050 BKN200=
201902131126 TAF KBFI 131126Z 1312/1412 15006KT P6SM VCSH SCT015 BKN030 OVC050
                       TEMPO 1312/1316 BKN012 OVC020 FM131800 VRB03KT
                       P6SM SCT018 BKN035 OVC050 FM132200 32006KT
                       P6SM SCT030 BKN045 FM140300 VRB04KT P6SM
                       SCT200 FM141100 VRB03KT P6SM SCT100 BKN200=
201902130534 TAF KBFI 130534Z 1306/1406 17006KT P6SM SCT015 BKN025 OVC035 FM131000
                       17006KT P6SM BKN018 OVC025 FM131800 VRB03KT
                       P6SM SCT018 BKN025 OVC040 FM132200 32006KT
                       P6SM SCT030 BKN045 FM140300 32006KT P6SM
                       SCT200=
201902122322 TAF KBFI 122322Z 1300/1324 16008KT P6SM VCSH BKN013 OVC050 FM130200
                       16005KT P6SM BKN018 OVC050 FM132000 34004KT
                       P6SM SCT020 BKN050=
201902121720 TAF KBFI 121720Z 1218/1318 16007KT P6SM -RA BKN015 OVC025 FM122200
                       16006KT P6SM -RA SCT018 BKN025 OVC050 FM130300
                       16005KT P6SM VCSH BKN030 BKN050 FM130900
                       17005KT P6SM BKN025 OVC040=
201902121617 KBFI 121617Z 1216/1312 15007KT P6SM -RA BKN009 OVC020 FM121800
                       15005KT P6SM -RA BKN018 OVC025 FM122200
                       16006KT P6SM -RA SCT018 BKN025 OVC050 FM130300
                       16005KT P6SM VCSH BKN030 BKN050 FM130900
                       17005KT P6SM BKN025 OVC040=
201902121145 TAF KBFI 121145Z 1212/1312 15006KT 5SM -RA BR SCT016 OVC021
                      TEMPO 1212/1216 BKN012 OVC017 FM121600 15005KT
                       6SM -RA BR BKN018 OVC025 FM122200 16006KT
                       P6SM -RA SCT018 BKN025 OVC050 FM130300 16005KT
                       P6SM VCSH BKN030 BKN050 FM130900 17005KT
                       P6SM BKN025 OVC040=
201902120539 TAF KBFI 120539Z 1206/1306 13006KT 5SM -RA BR BKN012 OVC020 FM121100
                       15006KT P6SM -RA BKN018 OVC030 FM122200
                       18006KT P6SM SCT025 BKN045 OVC060=
201902120307 KBFI 120307Z 1203/1224 15006KT 1SM -SN BR BKN006 OVC012 FM120500
                       15006KT 3SM -RASN SCT006 BKN012 OVC020 FM120700
                       15006KT P6SM -RA BKN015 OVC025 FM121100
                       15006KT P6SM -RA BKN017 OVC030 FM122200
                       15006KT P6SM SCT020 BKN050 OVC090=
201902112321 TAF KBFI 112321Z 1200/1224 00000KT 1 1/2SM -SN BR SCT006 OVC013
                       TEMPO 1200/1202 1/2SM SN FG VV006 FM120200
                       VRB03KT 5SM -RASN BKN015 OVC025 FM120400
                       12006KT P6SM -RA BKN015 OVC025 FM121100
                       16007KT P6SM -RA BKN017 OVC030 FM122200
                       16005KT P6SM SCT020 BKN050 OVC090=
201902112108 KBFI 112108Z 1121/1218 04005KT 3SM -SN BR SCT007 BKN025 OVC040
                       TEMPO 1121/1201 1SM -SN BR BKN007 OVC025
                       FM120100 VRB03KT 5SM -RASN BKN015 OVC025
                       FM120400 12006KT P6SM -RA BKN015 OVC025
                       FM121100 16007KT P6SM -RA BKN017 OVC030=
201902111842 KBFI 111842Z 1119/1218 04004KT 3SM -SN BR SCT015 OVC030
                      TEMPO 1119/1123 1SM -SN BR OVC015 FM120100
                       VRB03KT 5SM -RASN BKN015 OVC025 FM120400
                       12006KT P6SM -RA BKN015 OVC025 FM121100
                       16007KT P6SM -RA BKN017 OVC030=
201902111721 TAF KBFI 111721Z 1118/1218 00000KT P6SM FEW020 SCT040 OVC100
                      TEMPO 1118/1120 5SM -SN BKN020 OVC040 FM112000
                       04004KT 4SM -SN BKN015 OVC040
                      TEMPO 1120/1124 1SM -SN BR OVC015 FM120100
                       VRB03KT 5SM -RASN BKN015 OVC025 FM120400
                       12006KT P6SM -RA BKN015 OVC025 FM121100
                       16007KT P6SM -RA BKN017 OVC030=
201902111507 KBFI 111507Z 1115/1212 VRB03KT P6SM FEW013 SCT025 OVC045
                      TEMPO 1115/1118 6SM -SN SCT013 OVC025 FM112200
                       VRB03KT 5SM -RASN BKN015 OVC025 FM120400
                       12006KT P6SM -RA BKN015 OVC025 FM121100
                       16007KT P6SM -RA BKN017 OVC030=
201902111139 TAF KBFI 111139Z 1112/1212 04005KT P6SM SCT015 BKN025 OVC045 FM111500
                       VRB03KT P6SM SCT030 OVC050 FM112200 VRB03KT
                       5SM -RASN BKN015 OVC025 FM120400 12006KT
                       P6SM -RA BKN015 OVC025 FM121100 16007KT
                       P6SM -RA BKN017 OVC030=
201902110645 KBFI 110645Z 1107/1206 17005KT P6SM SCT012 BKN020 OVC035 FM111100
                       14006KT P6SM SCT015 BKN025 OVC045 FM111500
                       VRB03KT P6SM SCT030 OVC050 FM112200 VRB03KT
                       5SM -RASN BKN015 OVC025 FM120400 12006KT
                       P6SM -RA BKN015 OVC025=
201902110540 TAF KBFI 110540Z 1106/1206 18014KT P6SM SCT008 BKN015 OVC030 FM111100
                       14006KT P6SM SCT015 BKN025 OVC045 FM111500
                       VRB03KT P6SM SCT030 OVC050 FM112200 VRB03KT
                       5SM -RASN BKN015 OVC025 FM120400 12006KT
                       P6SM -RA BKN015 OVC025=
201902110319 KBFI 110319Z 1103/1124 18010G16KT 1/2SM SN FG VV006 FM110400 18008KT
                       2SM -SN SCT004 BKN008 OVC015 FM110600 18008KT
                       4SM -SN SCT008 BKN015 OVC030 FM110800 VRB03KT
                       P6SM SCT015 BKN025 OVC045 FM111500 VRB03KT
                       P6SM BKN030 OVC050 FM111800 VRB04KT P6SM
                       SCT015 OVC030 FM112000 01005KT 5SM -SN BKN015
                       OVC025 FM112200 10009KT 3SM -SN BKN010 OVC020=
201902110018 KBFI 110018Z 1100/1124 17015G25KT 2SM -SN BKN012 OVC025
                      TEMPO 1100/1104 1SM -SN BKN007 FM110900 17005KT
                       5SM -SN SCT015 BKN025 OVC040 FM111200 18010KT
                       P6SM SCT015 BKN025 OVC045 FM111500 VRB03KT
                       P6SM BKN030 OVC050 FM111800 VRB04KT P6SM
                       SCT015 OVC030 FM112000 01005KT 5SM -SN BKN015
                       OVC025 FM112200 10009KT 3SM -SN BKN010 OVC020=
201902102339 TAF KBFI 102339Z 1100/1124 14010KT 5SM -SN SCT020 OVC040 FM110100
                       15014G22KT 3SM -SN BKN010 OVC020
                      TEMPO 1101/1105 1SM -SN FM110900 17005KT
                       5SM -SN SCT015 BKN025 OVC040 FM111200 18010KT
                       P6SM SCT015 BKN025 OVC045 FM111500 VRB03KT
                       P6SM BKN030 OVC050 FM111800 VRB04KT P6SM
                       SCT015 OVC030 FM112000 01005KT 5SM -SN BKN015
                       OVC025 FM112200 10009KT 3SM -SN BKN010 OVC020=
201902101739 TAF KBFI 101739Z 1018/1118 15006KT P6SM FEW025 BKN040 FM102200
                       16010KT P6SM SCT035 OVC045 FM110000 14010KT
                       5SM -SN SCT020 OVC040 FM110400 14012KT 2SM
                       -SN OVC012 FM111000 32005KT 5SM -SN SCT015
                       BKN025 OVC040 FM111500 05009KT P6SM BKN030
                       OVC050 FM111700 04008KT P6SM BKN015 OVC030=
201902101142 TAF KBFI 101142Z 1012/1112 VRB03KT P6SM SCT200 FM101800 16006KT
                       P6SM SCT080 BKN120 FM102200 16011KT P6SM
                       SCT035 OVC050 FM110000 14008KT 5SM -SN SCT020
                       OVC040 FM110400 14008KT 3SM -SN OVC012 FM111000
                       32005KT 5SM -SN SCT015 BKN025 OVC040=
201902100544 TAF KBFI 100544Z 1006/1106 VRB03KT P6SM SCT200 FM101800 14006KT
                       P6SM SCT080 BKN120 FM102200 14008KT P6SM
                       SCT035 OVC050 FM110000 14008KT 5SM -SN SCT020
                       OVC040 FM110400 14008KT 3SM -SN OVC015=
201902092333 TAF KBFI 092333Z 1000/1024 01009KT P6SM FEW050 BKN200 FM100300
                       01009KT P6SM SCT080 FM100500 04006KT P6SM
                       SKC FM101100 15005KT P6SM SCT120 FM101800
                       16005KT P6SM SCT100 BKN130 FM102200 15008KT
                       P6SM SCT030 BKN050=
201902092057 KBFI 092057Z 0921/1018 01014KT P6SM VCSH SCT010 BKN015 OVC030
                      TEMPO 0921/0922 1 1/2SM -SN FM092200 01014KT
                       P6SM BKN050 FM100500 04006KT P6SM SCT050
                       BKN150 FM101100 VRB03KT P6SM SCT120 BKN200=
201902091735 TAF KBFI 091735Z 0918/1018 01010KT 5SM -SN SCT009 BKN022 OVC035
                       TEMPO 0918/0920 3SM -SN FM092000 01014KT
                       P6SM VCSH SCT020 BKN035 OVC050 FM092200
                       01014KT P6SM BKN050 FM100500 04006KT P6SM
                       SCT050 BKN150 FM101100 VRB03KT P6SM SCT120
                       BKN200=
201902091301 KBFI 091301Z 0913/1012 36008KT 6SM BR SCT015 OVC035
                      TEMPO 0913/0917 2SM -SN BR BKN010 OVC025
                       FM091700 01010KT 5SM -SN SCT009 BKN022 OVC035
                       FM091900 01014KT P6SM VCSH SCT015 BKN030
                       OVC050 FM092200 01014KT P6SM BKN050 FM100500
                       04006KT P6SM SCT050 BKN120 FM101100 VRB03KT
                       P6SM SCT120 BKN200=
201902091133 TAF KBFI 091133Z 0912/1012 01006KT 1SM -SN BKN009 OVC015
                      TEMPO 0912/0916 3/4SM -SN BR BKN007 OVC012
                       FM091600 01010KT 3SM -SN SCT006 BKN012 OVC030
                       FM091900 01014KT P6SM VCSH SCT015 BKN030
                       OVC050 FM092200 01014KT P6SM BKN050 FM100500
                       04006KT P6SM SCT050 BKN120 FM101100 VRB03KT
                       P6SM SCT120 BKN200=
201902090540 TAF KBFI 090540Z 0906/1006 12008KT 1/2SM -SN FG OVC004 FM091000
                       01006KT 1SM -SN BKN006 OVC012 FM091600 01010KT
                       3SM -SN SCT006 BKN012 OVC030 FM091800 01014KT
                       P6SM SCT015 BKN030 OVC050 FM092200 01014KT
                       P6SM BKN050 FM100500 04006KT P6SM SCT050=
201902090222 KBFI 090222Z 0902/0924 VRB03KT 1SM -SN OVC005 FM090600 VRB03KT
                       4SM BR SCT005 BKN020 OVC030 FM091000 35012G18KT
                       4SM -SN SCT012 OVC020 FM091800 35012G18KT
                       P6SM SCT030 BKN050=
201902082337 TAF KBFI 082337Z 0900/0924 12007KT 3/4SM -SN BR VV003
                      TEMPO 0901/0903 1/2SM SN FM090300 04009KT
                       1SM -SN OVC005 FM090600 08011KT 3SM -SN
                       OVC012 FM091000 35012KT 4SM -SN OVC020 FM091400
                       34015G22KT 5SM -SN BKN020 OVC030 FM091700
                       03015G21KT P6SM BKN050=
201902082203 KBFI 082203Z 0822/0918 15012KT 1/2SM SN FG OVC015
                      TEMPO 0822/0824 1/2SM VV003 FM090200 03013G20KT
                       1SM -SN OVC008 FM090600 01009KT 3SM -SN
                       OVC015 FM091000 35012KT 2SM -SN OVC020 FM091400
                       34015KT 5SM -SN BKN020 OVC030=
201902082046 KBFI 082046Z 0821/0918 15010KT 1SM -SN OVC040 FM082200 15012KT
                       1/2SM SN FG OVC015 FM090200 03013G20KT 1SM
                       -SN OVC008 FM090600 01009KT 3SM -SN OVC015
                       FM091000 35012KT 2SM -SN OVC020 FM091400
                       34015KT 5SM -SN BKN020 OVC030=
201902081737 TAF KBFI 081737Z 0818/0918 10004KT P6SM OVC080
                      TEMPO 0818/0819 P6SM -SN BKN015 FM082000
                       09006KT P6SM BKN040 OVC070 FM082100 05010KT
                       5SM -SN OVC040 FM082300 03012KT 2SM -SN
                       BR OVC015 FM090000 03013G20KT 1/2SM SN FG
                       OVC008 FM090600 01009KT 3SM -SN OVC015 FM091000
                       35012KT 2SM -SN OVC020 FM091400 34015KT
                       5SM -SN BKN020 OVC030=
201902081125 TAF KBFI 081125Z 0812/0912 13004KT P6SM BKN070 OVC100 FM081500
                       10004KT P6SM SCT040 OVC070 FM081900 09006KT
                       P6SM BKN040 OVC070 FM082100 05010KT 5SM
                       -SN OVC040 FM082300 03012KT 2SM -SN BR OVC015
                       FM090000 03013G20KT 1/2SM SN FG OVC008 FM090600
                       01009KT 3SM -SN OVC015 FM091000 35012KT
                       2SM -SN OVC020=
201902080606 TAF KBFI 080606Z 0806/0906 VRB03KT P6SM SCT120 BKN250 FM080900
                       VRB03KT P6SM BKN120 OVC200 FM081500 10004KT
                       P6SM SCT040 OVC080 FM081900 09006KT P6SM
                       BKN040 OVC090 FM082100 05010KT 5SM -SN OVC040
                       FM082300 03012KT 2SM -SN BR OVC015 FM090000
                       02013G20KT 1/2SM SN FG OVC008=
201902072320 TAF KBFI 072320Z 0800/0824 VRB03KT P6SM BKN250 FM080600 VRB03KT
                       P6SM OVC200 FM081500 10007KT P6SM SCT040
                       OVC120 FM081900 12008KT P6SM BKN040 OVC090
                       FM082200 12010KT 5SM -SN OVC040=
201902071720 TAF KBFI 071720Z 0718/0818 VRB04KT P6SM SCT150 BKN250 FM080600
                       14004KT P6SM SCT050 OVC120 FM081600 16008KT
                       P6SM BKN050 OVC090=
201902071120 TAF KBFI 071120Z 0712/0812 VRB04KT P6SM SCT250 FM072000 31004KT
                       P6SM SCT150 BKN250 FM080300 VRB03KT P6SM
                       FEW100 OVC150 FM080800 VRB03KT P6SM BKN050
                       OVC100=
201902070526 TAF KBFI 070526Z 0706/0806 VRB04KT P6SM SKC FM071200 13006KT P6SM
                       BKN250 FM072000 31004KT P6SM SCT150 BKN250
                       FM080300 VRB03KT P6SM FEW100 OVC150=
201902062320 TAF KBFI 062320Z 0700/0724 00000KT P6SM SKC FM071200 10006KT P6SM
                       BKN250=
201902061720 TAF KBFI 061720Z 0618/0718 15005KT P6SM SKC FM062100 VRB03KT P6SM
                       SCT250 FM070400 13003KT P6SM SCT250=
201902061120 TAF KBFI 061120Z 0612/0712 VRB04KT P6SM FEW040 FM062100 VRB03KT
                       P6SM SCT250 FM070400 13003KT P6SM SCT250=
201902060526 TAF KBFI 060526Z 0606/0706 03005KT P6SM FEW040 FM062100 VRB03KT
                       P6SM BKN250=
201902052321 TAF KBFI 052321Z 0600/0624 VRB03KT P6SM SCT035 FM060500 03005KT
                       P6SM SKC FM062100 VRB03KT P6SM BKN250=
201902051720 TAF KBFI 051720Z 0518/0618 VRB04KT P6SM SCT250 FM061700 00000KT
                       P6SM BKN250=
201902051120 TAF KBFI 051120Z 0512/0612 VRB04KT P6SM SCT250 FM051800 04006KT
                       P6SM SCT250 FM060200 VRB03KT P6SM SCT250=
201902050522 TAF KBFI 050522Z 0506/0606 02007KT P6SM FEW040 SCT090 FM051200
                       VRB04KT P6SM SCT090 FM051800 05005KT P6SM
                       SCT250=
201902042320 TAF KBFI 042320Z 0500/0524 36010KT P6SM BKN050 BKN090 FM050600
                       02007KT P6SM SCT050 BKN090 FM051200 02007KT
                       P6SM SCT090=
201902042137 KBFI 042137Z 0422/0518 36012G20KT P6SM BKN060 BKN090 FM050600 04008KT
                       P6SM SCT050 BKN090 FM051200 04008KT P6SM
                       SCT090=
201902041722 TAF KBFI 041722Z 0418/0518 36012G22KT 5SM -SN BR SCT010 OVC018
                       TEMPO 0418/0420 1SM -SN BR BKN010 OVC015
                       FM042000 36014G24KT P6SM BKN020 BKN035 FM042300
                       36012G20KT P6SM BKN050 BKN090 FM050600 04008KT
                       P6SM SCT050 BKN090 FM051200 04008KT P6SM
                       SCT090=
201902041613 KBFI 041613Z 0416/0512 36012G22KT 3SM -SN BR OVC020
                      TEMPO 0416/0418 1SM -SN BR OVC012 FM041900
                       36012G22KT P6SM OVC025 FM042300 36010G18KT
                       P6SM BKN050 FM050600 04010KT P6SM SCT050
                       BKN090=
201902041131 TAF KBFI 041131Z 0412/0512 36007KT 2SM -SN BR SCT005 OVC013
                      TEMPO 0412/0416 3/4SM -SN BR OVC008 FM041600
                       36007KT 5SM -SN BR OVC015 FM041900 36007KT
                       P6SM BKN020 OVC030 FM042300 36007KT P6SM
                       BKN050 FM050500 06004KT P6SM BKN050=
201902041016 KBFI 041016Z 0410/0506 34009KT 2SM -SN OVC013
                      TEMPO 0410/0413 3/4SM -SN BR VV004 FM041500
                       00000KT 4SM -SHSN BR OVC009 FM041700 36005KT
                       P6SM VCSH OVC009 FM042200 35005KT P6SM OVC019
                       FM050400 02002KT P6SM BKN050=
201902040629 KBFI 040629Z 0406/0506 02003KT P6SM BKN011 OVC018 FM040700 00000KT
                       2SM -SN BR OVC004
                      TEMPO 0407/0411 3/4SM -SN BR VV004 FM041500
                       00000KT 4SM -SHSN BR OVC009 FM041700 36005KT
                       P6SM VCSH OVC009 FM042200 35005KT P6SM OVC019
                       FM050400 02002KT P6SM BKN050=
201902040533 TAF KBFI 040533Z 0406/0506 36005KT P6SM BKN011 OVC018 FM040800
                       00000KT 4SM -SHSN BR OVC004 FM041500 00000KT
                       4SM -SHSN BR OVC009 FM041700 36005KT P6SM
                       VCSH OVC009 FM042200 35005KT P6SM OVC019
                       FM050400 02002KT P6SM BKN050=
201902040057 KBFI 040057Z 0401/0424 03007KT 4SM -SN BR SCT012 BKN020 OVC040
                       TEMPO 0401/0404 1SM -SN BR BKN004 OVC020
                       FM040400 36006KT 5SM -SHSN BR OVC020 FM041200
                       34009KT 5SM -SHSN BR OVC018 FM041800 34011KT
                       P6SM VCSH BKN022 BKN040 FM042200 33010KT
                       P6SM BKN040 BKN060=
201902040000 KBFI 040000Z 0400/0424 03007KT 4SM -SN BR SCT012 BKN020 OVC040
                       TEMPO 0400/0404 1SM -SN BR BKN012 OVC020
                       FM040400 36006KT 5SM -SHSN BR OVC020 FM041200
                       34009KT 5SM -SHSN BR OVC018 FM041800 34011KT
                       P6SM VCSH BKN022 BKN040 FM042200 33010KT
                       P6SM BKN040 BKN060=
201902032349 TAF KBFI 032349Z 0400/0424 03007KT 3SM -SHSN BR BKN020 OVC040 FM040100
                       36006KT 5SM -SHSN BR OVC022 FM040600 36006KT
                       5SM -SHSN BR OVC025 FM041200 34009KT 5SM
                       -SHSN BR OVC018 FM041800 34011KT P6SM VCSH
                       BKN022 BKN040 FM042200 33010KT P6SM BKN040
                       BKN060=
201902031745 TAF KBFI 031745Z 0318/0418 18011KT P6SM VCSH BKN025 OVC045 FM032100
                       20008KT P6SM -SHRA BKN024 OVC040 FM040100
                       32004KT P6SM -SHRA OVC028 FM040600 36006KT
                       5SM -SHSN BR OVC025 FM041200 34010KT 5SM
                       -SHSN BR OVC018=
201902031128 TAF KBFI 031128Z 0312/0412 00000KT P6SM VCSH SCT029 OVC050 FM031400
                       00000KT P6SM VCSH BKN029 OVC045 FM031800
                       18008KT P6SM VCSH SCT030 OVC050 FM040200
                       VRB03KT 6SM -SHSNRA BR OVC030 FM040600 36006KT
                       5SM -SHSN BR OVC025
                      TEMPO 0408/0412 2SM -SHSN BR OVC012=
201902030533 TAF KBFI 030533Z 0306/0406 36003KT P6SM OVC040 FM031200 14002KT
                       P6SM OVC025 FM031800 18008KT P6SM VCSH SCT030
                       OVC050 FM040300 33007KT P6SM -RASN OVC030=
201902022337 TAF KBFI 022337Z 0300/0324 33004KT P6SM FEW010 BKN020 OVC035
                      TEMPO 0301/0305 SCT025 BKN040 FM030500 VRB03KT
                       P6SM OVC022 FM031200 16004KT P6SM OVC015
                       FM032000 19008KT P6SM -SHRA BKN025 OVC040=
201902021733 TAF KBFI 021733Z 0218/0318 14004KT P6SM SCT012 BKN022 OVC030 FM022000
                       VRB04KT P6SM BKN025 OVC035 FM030000 32003KT
                       P6SM SCT030 BKN050 FM030500 00000KT P6SM
                       OVC018 FM031200 16004KT P6SM OVC012=
201902021335 KBFI 021335Z 0214/0312 14007KT P6SM SCT018 BKN040
                      TEMPO 0214/0216 BKN018 BKN040 FM021600 VRB03KT
                       P6SM BKN025 BKN040 FM022200 34003KT P6SM
                       SCT030 BKN050 FM030500 00000KT P6SM OVC018=
201902021132 TAF KBFI 021132Z 0212/0312 16006KT P6SM OVC011 FM021600 VRB03KT
                       P6SM OVC018 FM021900 VRB03KT P6SM OVC020
                       FM022200 34003KT P6SM BKN030 FM030500 00000KT
                       P6SM OVC018=
201902021000 KBFI 021000Z 0210/0306 16006KT P6SM VCSH OVC011 FM021700 VRB03KT
                       P6SM OVC025 FM030400 00000KT P6SM OVC018=
201902020533 TAF KBFI 020533Z 0206/0306 20005KT P6SM VCSH SCT045 OVC060 FM020800
                       17005KT P6SM VCSH OVC035 FM021400 VRB03KT
                       6SM BR OVC014 FM021800 VRB03KT P6SM BKN016=
201902012338 TAF KBFI 012338Z 0200/0224 17007KT 5SM -SHRA BR SCT010 BKN030
                      TEMPO 0203/0207 BKN009 OVC030 FM020700 16006KT
                       6SM BR VCSH BKN009 BKN030 FM021100 15005KT
                       P6SM OVC010 FM021800 VRB04KT P6SM SCT015
                       BKN028 FM022100 32004KT P6SM SCT025 BKN040=
201902012031 KBFI 012031Z 0121/0218 15007KT P6SM -RA SCT010 OVC027
                      TEMPO 0121/0123 4SM -RA BR BKN006 OVC025
                       FM012300 17007KT P6SM -SHRA SCT020 OVC030
                       FM020300 16006KT P6SM -SHRA BKN030 OVC050
                       FM021000 15005KT P6SM VCSH OVC015=
201902011733 TAF KBFI 011733Z 0118/0218 15007KT P6SM -RA SCT012 OVC027
                      TEMPO 0118/0121 4SM -RA BR BKN009 OVC025
                       FM012100 17007KT P6SM -SHRA SCT020 OVC030
                       FM020300 16006KT P6SM -SHRA BKN030 OVC050
                       FM021000 15005KT P6SM VCSH OVC015=
201902011654 KBFI 011654Z 0117/0212 15006KT P6SM -RA SCT012 OVC027
                      TEMPO 0117/0121 5SM BR BKN010 OVC025 FM012100
                       17007KT P6SM -SHRA SCT020 OVC030 FM020300
                       16006KT P6SM -SHRA BKN030 OVC050 FM021000
                       15005KT P6SM VCSH OVC020=
201902011120 TAF KBFI 011120Z 0112/0212 14006KT P6SM BKN050 OVC100 FM011300
                       15006KT P6SM -RA SCT030 OVC050 FM011800
                       17007KT 5SM -RA BR OVC030 FM012100 17007KT
                       P6SM -SHRA SCT020 OVC030 FM020300 16006KT
                       P6SM -SHRA BKN030 OVC050 FM021000 15005KT
                       P6SM VCSH OVC020=
201902010540 TAF KBFI 010540Z 0106/0206 18008KT P6SM -RA OVC050 FM011600 17009KT
                       5SM -RA BR OVC030 FM012100 17008KT P6SM
                       -SHRA SCT020 OVC030 FM012300 17008KT P6SM
                       -SHRA SCT030 OVC050=
201902010002 KBFI 010002Z 0100/0124 18006KT P6SM BKN080 BKN200 FM010600 18008KT
                       P6SM BKN050 OVC100 FM011000 18008KT P6SM
                       -RA OVC040 FM011600 18010KT P6SM -RA OVC030
                       FM012100 20008KT P6SM -SHRA BKN030 OVC040=