##########################################################
# Query made at 02/17/2025 05:59:54 UTC
# Time interval: from 10/01/2019 00:00  to 10/31/2019 23:59  UTC
##########################################################

##########################################################
# KBFI, Seattle, Seattle Boeing Field (United States)
# WMO index: -----. WIGOS ID: Unknown
# Latitude 47-32-45N. Longitude 122-18-49W. Altitude 5 m.
##########################################################

###################################
#  METAR/SPECI from KBFI
###################################
201910312353 METAR KBFI 312353Z 30004KT 10SM SCT200 11/01 A3037 RMK AO2 SLP284 T01060011 10117 20061 58001=
201910312253 METAR KBFI 312253Z 30003KT 10SM SCT200 12/M01 A3037 RMK AO2 SLP284 T01171006=
201910312153 METAR KBFI 312153Z VRB05KT 10SM SCT250 11/M01 A3037 RMK AO2 SLP285 T01111011=
201910312053 METAR KBFI 312053Z 00000KT 10SM SCT200 11/M01 A3037 RMK AO2 SLP285 T01111011 58006=
201910311953 METAR KBFI 311953Z 00000KT 10SM CLR 10/M01 A3038 RMK AO2 SLP287 T01001006=
201910311853 METAR KBFI 311853Z 00000KT 10SM BKN250 08/M02 A3039 RMK AO2 SLP290 T00831017=
201910311753 METAR KBFI 311753Z 16005KT 10SM FEW140 BKN250 06/M03 A3039 RMK AO2 SLP291 T00611033 10061 20000 52010=
201910311653 METAR KBFI 311653Z 14003KT 10SM FEW140 BKN250 04/M02 A3038 RMK AO2 SLP287 T00441022=
201910311553 METAR KBFI 311553Z 14005KT 10SM FEW110 BKN150 02/M02 A3037 RMK AO2 SLP284 T00171022=
201910311453 METAR KBFI 311453Z 15005KT 10SM BKN200 01/M02 A3036 RMK AO2 SLP281 T00111022 53003=
201910311353 METAR KBFI 311353Z 17003KT 10SM CLR 01/M02 A3035 RMK AO2 SLP278 T00111022=
201910311253 METAR KBFI 311253Z 16005KT 10SM CLR 01/M03 A3035 RMK AO2 SLP278 T00061028=
201910311153 METAR KBFI 311153Z 00000KT 10SM CLR 01/M02 A3035 RMK AO2 SLP278 T00111022 10044 20000 51005=
201910311053 METAR KBFI 311053Z 15004KT 10SM CLR 01/M02 A3035 RMK AO2 SLP278 T00111022=
201910310953 METAR KBFI 310953Z 15004KT 10SM CLR 01/M02 A3036 RMK AO2 SLP278 T00061017=
201910310853 METAR KBFI 310853Z 00000KT 10SM CLR 02/M01 A3034 RMK AO2 SLP273 T00221011 51004=
201910310753 METAR KBFI 310753Z 00000KT 10SM CLR 03/M01 A3034 RMK AO2 SLP273 T00331006 401111011=
201910310653 METAR KBFI 310653Z 00000KT 10SM CLR 03/M01 A3033 RMK AO2 SLP271 T00331011=
201910310553 METAR KBFI 310553Z 00000KT 10SM CLR 04/M01 A3033 RMK AO2 SLP269 T00441006 10106 20044 57003=
201910310453 METAR KBFI 310453Z 00000KT 10SM CLR 06/M01 A3033 RMK AO2 SLP271 T00561011=
201910310353 METAR KBFI 310353Z 00000KT 10SM CLR 07/M02 A3033 RMK AO2 SLP270 T00721017=
201910310253 METAR KBFI 310253Z 02003KT 10SM CLR 08/M03 A3034 RMK AO2 SLP272 T00781033 53004=
201910310153 METAR KBFI 310153Z 34003KT 10SM CLR 08/M03 A3033 RMK AO2 SLP269 T00831028=
201910310053 METAR KBFI 310053Z 35003KT 10SM CLR 10/M01 A3032 RMK AO2 SLP267 T01001011=
201910302353 METAR KBFI 302353Z 31006KT 10SM CLR 11/M02 A3032 RMK AO2 SLP268 T01061022 10111 20078 56011=
201910302253 METAR KBFI 302253Z 32008KT 10SM CLR 11/M03 A3033 RMK AO2 SLP270 T01061033=
201910302153 METAR KBFI 302153Z 29007KT 10SM SCT250 11/M02 A3034 RMK AO2 SLP274 T01061022=
201910302053 METAR KBFI 302053Z VRB06KT 10SM FEW250 11/M04 A3036 RMK AO2 SLP279 T01061044 58016=
201910301953 METAR KBFI 301953Z VRB05KT 10SM CLR 10/M06 A3037 RMK AO2 SLP285 T01001056=
201910301853 METAR KBFI 301853Z 05004KT 10SM CLR 09/M07 A3039 RMK AO2 SLP291 T00941067=
201910301753 METAR KBFI 301753Z VRB04KT 10SM CLR 08/M10 A3040 RMK AO2 SLP295 T00781100 10078 21011 50000=
201910301653 METAR KBFI 301653Z 00000KT 10SM CLR 05/M06 A3041 RMK AO2 SLP298 T00501056=
201910301553 METAR KBFI 301553Z 14004KT 10SM CLR 01/M04 A3041 RMK AO2 SLP297 T00061044=
201910301453 METAR KBFI 301453Z 00000KT 10SM CLR 01/M06 A3040 RMK AO2 SLP295 T00061056 56006=
201910301353 METAR KBFI 301353Z 00000KT 10SM CLR M01/M06 A3041 RMK AO2 SLP295 T10111056=
201910301253 METAR KBFI 301253Z 00000KT 10SM CLR 00/M06 A3041 RMK AO2 SLP298 T00001056=
201910301153 METAR KBFI 301153Z 00000KT 10SM CLR 01/M06 A3042 RMK AO2 SLP301 T00061061 10028 21011 56009=
201910301053 METAR KBFI 301053Z 00000KT 10SM CLR 00/M06 A3043 RMK AO2 SLP302 T00001061=
201910300953 METAR KBFI 300953Z AUTO 00000KT 10SM CLR 01/M06 A3044 RMK AO2 SLP306 T00061061 TSNO=
201910300853 METAR KBFI 300853Z 00000KT 10SM CLR 01/M07 A3045 RMK AO2 SLP309 T00111067 58004=
201910300753 METAR KBFI 300753Z 00000KT 10SM CLR 02/M08 A3046 RMK AO2 SLP312 T00171078 401000011=
201910300653 METAR KBFI 300653Z 00000KT 10SM CLR 02/M07 A3046 RMK AO2 SLP314 T00221072=
201910300553 METAR KBFI 300553Z 00000KT 10SM CLR 03/M07 A3046 RMK AO2 SLP314 T00281067 10100 20028 58003=
201910300453 METAR KBFI 300453Z 00000KT 10SM CLR 03/M07 A3046 RMK AO2 SLP315 T00331067=
201910300353 METAR KBFI 300353Z 00000KT 10SM SCT120 04/M08 A3047 RMK AO2 SLP316 T00441078=
201910300253 METAR KBFI 300253Z 00000KT 10SM SCT110 06/M07 A3047 RMK AO2 SLP317 T00561072 55001=
201910300153 METAR KBFI 300153Z 00000KT 10SM FEW200 06/M08 A3046 RMK AO2 SLP315 T00611083=
201910300053 METAR KBFI 300053Z 00000KT 10SM CLR 08/M11 A3046 RMK AO2 SLP315 T00781111=
201910292353 METAR KBFI 292353Z 08003KT 10SM CLR 10/M18 A3047 RMK AO2 SLP318 T01001178 10100 20061 56010=
201910292253 METAR KBFI 292253Z 15009KT 10SM CLR 10/M15 A3048 RMK AO2 SLP321 T01001150=
201910292153 METAR KBFI 292153Z 15009KT 10SM CLR 09/M15 A3049 RMK AO2 SLP324 T00941150=
201910292053 METAR KBFI 292053Z VRB03KT 10SM CLR 09/M17 A3050 RMK AO2 SLP328 T00941172 58008=
201910291953 METAR KBFI 291953Z 00000KT 10SM CLR 08/M16 A3052 RMK AO2 SLP333 T00831161=
201910291853 METAR KBFI 291853Z 14006KT 10SM CLR 07/M14 A3053 RMK AO2 SLP336 T00721144=
201910291753 METAR KBFI 291753Z VRB06KT 10SM CLR 06/M17 A3052 RMK AO2 SLP336 T00611172 10061 20017 50005=
201910291653 METAR KBFI 291653Z 12008KT 10SM CLR 04/M18 A3054 RMK AO2 SLP339 T00441178=
201910291553 METAR KBFI 291553Z 14006KT 10SM CLR 03/M17 A3053 RMK AO2 SLP336 T00281167=
201910291453 METAR KBFI 291453Z 00000KT 10SM CLR 02/M13 A3051 RMK AO2 SLP330 T00221133 51015=
201910291353 METAR KBFI 291353Z 13008KT 10SM CLR 03/M14 A3050 RMK AO2 SLP327 T00331144=
201910291253 METAR KBFI 291253Z 13007KT 10SM CLR 03/M12 A3048 RMK AO2 SLP321 T00331117=
201910291153 METAR KBFI 291153Z 15007KT 10SM CLR 03/M10 A3046 RMK AO2 SLP315 T00331100 10056 20028 51029=
201910291053 METAR KBFI 291053Z 15007KT 10SM CLR 04/M08 A3044 RMK AO2 SLP307 T00391083=
201910290953 METAR KBFI 290953Z 14006KT 10SM CLR 03/M05 A3041 RMK AO2 SLP297 T00331050=
201910290853 METAR KBFI 290853Z 00000KT 10SM CLR 04/02 A3038 RMK AO2 SLP286 T00390017 53033=
201910290753 METAR KBFI 290753Z 00000KT 10SM CLR 04/02 A3034 RMK AO2 SLP274 T00440022 401110006=
201910290653 METAR KBFI 290653Z 00000KT 10SM CLR 04/02 A3031 RMK AO2 SLP261 T00440022=
201910290553 METAR KBFI 290553Z 00000KT 10SM CLR 05/03 A3028 RMK AO2 SLP254 T00500028 10111 20050 53022=
201910290453 METAR KBFI 290453Z 00000KT 10SM CLR 07/03 A3026 RMK AO2 SLP247 T00670033=
201910290353 METAR KBFI 290353Z 36004KT 10SM FEW050 08/03 A3023 RMK AO2 SLP237 T00780033=
201910290253 METAR KBFI 290253Z 36003KT 10SM CLR 08/03 A3022 RMK AO2 SLP232 T00830028 53011=
201910290153 METAR KBFI 290153Z 34005KT 10SM CLR 09/03 A3021 RMK AO2 SLP229 T00890028=
201910290053 METAR KBFI 290053Z 31004KT 10SM FEW030 09/02 A3019 RMK AO2 SLP223 T00940017=
201910282353 METAR KBFI 282353Z 36005KT 10SM FEW030 11/00 A3019 RMK AO2 SLP221 T01110000 10111 20067 55004=
201910282253 METAR KBFI 282253Z VRB06KT 10SM CLR 11/02 A3018 RMK AO2 SLP219 T01110017=
201910282153 METAR KBFI 282153Z 31005KT 10SM FEW025 SCT150 11/02 A3019 RMK AO2 SLP221 T01110022=
201910282053 METAR KBFI 282053Z 29007KT 10SM CLR 11/02 A3020 RMK AO2 SLP226 T01060022 58015=
201910281953 METAR KBFI 281953Z 00000KT 10SM CLR 11/02 A3023 RMK AO2 SLP237 T01060017=
201910281853 METAR KBFI 281853Z 20003KT 10SM CLR 08/02 A3024 RMK AO2 SLP240 T00830017=
201910281753 METAR KBFI 281753Z 17003KT 10SM CLR 07/02 A3024 RMK AO2 SLP241 T00670017 10067 20006 58002=
201910281653 METAR KBFI 281653Z 00000KT 10SM CLR 04/01 A3025 RMK AO2 SLP242 T00390006=
201910281553 METAR KBFI 281553Z 18003KT 10SM CLR 02/M01 A3026 RMK AO2 SLP247 T00171006=
201910281453 METAR KBFI 281453Z 15005KT 10SM SCT200 01/M01 A3025 RMK AO2 SLP243 T00061011 56010=
201910281353 METAR KBFI 281353Z 16005KT 10SM CLR 01/M01 A3025 RMK AO2 SLP244 T00061011=
201910281253 METAR KBFI 281253Z 16004KT 10SM CLR 01/M01 A3028 RMK AO2 SLP252 T00111011=
201910281153 METAR KBFI 281153Z 16005KT 10SM CLR 01/M01 A3028 RMK AO2 SLP253 T00111006 10050 20011 58016=
201910281053 METAR KBFI 281053Z 14005KT 10SM CLR 02/00 A3031 RMK AO2 SLP263 T00170000=
201910280953 METAR KBFI 280953Z 15004KT 10SM CLR 02/01 A3032 RMK AO2 SLP267 T00220006=
201910280853 METAR KBFI 280853Z 15004KT 10SM CLR 02/M01 A3033 RMK AO2 SLP269 T00171006 58010=
201910280753 METAR KBFI 280753Z 00000KT 10SM CLR 03/01 A3035 RMK AO2 SLP276 T00330006 401330011=
201910280653 METAR KBFI 280653Z 14004KT 10SM CLR 03/01 A3036 RMK AO2 SLP279 T00330011=
201910280553 METAR KBFI 280553Z 14003KT 10SM CLR 03/01 A3036 RMK AO2 SLP280 T00330006 10117 20028 58012=
201910280453 METAR KBFI 280453Z 00000KT 10SM CLR 07/02 A3037 RMK AO2 SLP285 T00670017=
201910280353 METAR KBFI 280353Z 00000KT 10SM CLR 06/02 A3038 RMK AO2 SLP288 T00610017=
201910280253 METAR KBFI 280253Z 00000KT 10SM CLR 07/02 A3039 RMK AO2 SLP291 T00720017 56003=
201910280153 METAR KBFI 280153Z VRB03KT 10SM CLR 09/01 A3039 RMK AO2 SLP291 T00940011=
201910280053 METAR KBFI 280053Z 00000KT 10SM SCT200 10/M01 A3040 RMK AO2 SLP293 T01001011=
201910272353 METAR KBFI 272353Z 32007KT 10SM CLR 12/M02 A3040 RMK AO2 SLP294 T01171017 10133 20061 56018 TSNO=
201910272253 METAR KBFI 272253Z 32004KT 10SM CLR 13/M02 A3041 RMK AO2 SLP298 T01331017=
201910272153 METAR KBFI 272153Z VRB03KT 10SM CLR 13/M01 A3043 RMK AO2 SLP304 T01331006=
201910272053 METAR KBFI 272053Z 07005KT 10SM CLR 12/00 A3046 RMK AO2 SLP313 T01170000 58013=
201910271953 METAR KBFI 271953Z 04004KT 10SM CLR 11/02 A3048 RMK AO2 SLP319 T01110017=
201910271853 METAR KBFI 271853Z 33005KT 10SM CLR 10/02 A3049 RMK AO2 SLP325 T01000017=
201910271753 METAR KBFI 271753Z 00000KT 10SM FEW200 06/04 A3050 RMK AO2 SLP326 T00610044 10061 20011 50004=
201910271721 SPECI KBFI 271721Z 00000KT 10SM SCT002 04/04 A3051 RMK AO2 T00440039=
201910271653 METAR KBFI 271653Z 13003KT 1/2SM FG VV002 03/03 A3051 RMK AO2 SLP329 T00330033=
201910271553 METAR KBFI 271553Z 00000KT 1/4SM FG VV002 03/03 A3049 RMK AO2 SLP325 T00280028=
201910271453 METAR KBFI 271453Z 00000KT 1/4SM FG VV002 03/02 A3048 RMK AO2 SLP322 T00280022 58006=
201910271355 SPECI KBFI 271355Z 15003KT 3/4SM BR VV002 03/02 A3049 RMK AO2 T00280022=
201910271351 METAR KBFI 271351Z 16004KT 1 1/2SM BR BKN005 03/02 A3050 RMK AO2 VIS 3/4V3 SLP326 T00280022=
201910271350 SPECI KBFI 271350Z 16004KT 1 3/4SM BR BKN005 03/02 A3050 RMK AO2 VIS 3/4V3=
201910271253 METAR KBFI 271253Z 00000KT 10SM BKN005 02/01 A3050 RMK AO2 SLP327 T00170006=
201910271222 SPECI KBFI 271222Z 15004KT 10SM FEW004 03/02 A3050 RMK AO2 T00330022=
201910271153 METAR KBFI 271153Z 00000KT 10SM CLR 03/02 A3050 RMK AO2 SLP329 T00280017 10083 20028 51008=
201910271053 METAR KBFI 271053Z 00000KT 10SM CLR 04/03 A3050 RMK AO2 SLP328 T00390028=
201910270953 METAR KBFI 270953Z 17003KT 10SM CLR 06/03 A3049 RMK AO2 SLP325 T00560033=
201910270853 METAR KBFI 270853Z 06003KT 10SM CLR 05/02 A3048 RMK AO2 SLP321 T00500017 51009=
201910270753 METAR KBFI 270753Z 00000KT 10SM CLR 07/00 A3047 RMK AO2 SLP317 T00720000 401280056=
201910270653 METAR KBFI 270653Z 00000KT 10SM CLR 06/01 A3047 RMK AO2 SLP318 T00610011=
201910270553 METAR KBFI 270553Z 33003KT 10SM CLR 08/02 A3045 RMK AO2 SLP312 T00830017 10128 20083 53009=
201910270453 METAR KBFI 270453Z 36003KT 10SM CLR 09/02 A3044 RMK AO2 SLP309 T00940017=
201910270353 METAR KBFI 270353Z VRB04KT 10SM CLR 11/03 A3043 RMK AO2 SLP304 T01060028=
201910270253 METAR KBFI 270253Z 33007G15KT 10SM CLR 11/03 A3043 RMK AO2 SLP303 T01110028 53018=
201910270153 METAR KBFI 270153Z 34010G19KT 10SM CLR 11/03 A3040 RMK AO2 SLP295 T01110028=
201910270053 METAR KBFI 270053Z 32008KT 290V360 10SM CLR 12/03 A3038 RMK AO2 SLP287 T01170033=
201910262353 METAR KBFI 262353Z AUTO VRB06G16KT 10SM CLR 13/04 A3037 RMK AO2 SLP285 T01280039 10128 20100 53001 TSNO=
201910262253 METAR KBFI 262253Z 34007G16KT 10SM SCT028 12/04 A3037 RMK AO2 SLP282 T01220044=
201910262153 METAR KBFI 262153Z 35010G20KT 310V020 10SM SCT030 BKN095 12/04 A3038 RMK AO2 SLP286 T01220044=
201910262053 METAR KBFI 262053Z 33010G20KT 10SM SCT025 BKN034 12/05 A3037 RMK AO2 SLP284 T01220050 53002=
201910261953 METAR KBFI 261953Z 33009G15KT 10SM SCT023 BKN028 BKN036 11/06 A3036 RMK AO2 SLP282 T01110056=
201910261853 METAR KBFI 261853Z 33007G15KT 10SM SCT019 BKN023 OVC029 11/06 A3036 RMK AO2 SLP281 T01060056=
201910261753 METAR KBFI 261753Z 33008KT 10SM SCT019 BKN027 BKN045 10/06 A3037 RMK AO2 RAB16E48 SLP282 P0000 60000 T01000061 10100 20061 51009=
201910261253 METAR KBFI 261253Z 00000KT 10SM SCT039 BKN050 07/06 A3032 RMK AO2 SLP266 T00720061=
201910261153 METAR KBFI 261153Z 00000KT 10SM BKN048 06/05 A3031 RMK AO2 SLP264 70010 T00610050 10100 20061 51000=
201910261053 METAR KBFI 261053Z 14004KT 10SM BKN032 OVC047 07/06 A3031 RMK AO2 SLP264 T00670056=
201910260953 METAR KBFI 260953Z 19003KT 10SM BKN055 07/06 A3032 RMK AO2 SLP266 T00720056=
201910260853 METAR KBFI 260853Z 13005KT 10SM FEW045 FEW065 08/06 A3031 RMK AO2 SLP264 T00780061 53010=
201910260753 METAR KBFI 260753Z 12004KT 10SM FEW027 BKN032 OVC060 09/07 A3030 RMK AO2 SLP259 T00940072 401560078=
201910260653 METAR KBFI 260653Z 15003KT 10SM FEW028 BKN039 OVC065 09/07 A3028 RMK AO2 SLP254 T00890072=
201910260644 SPECI KBFI 260644Z 13006KT 10SM BKN028 BKN038 OVC075 09/07 A3028 RMK AO2 T00940072=
201910260553 METAR KBFI 260553Z 10004KT 10SM SCT027 BKN033 OVC044 10/08 A3027 RMK AO2 SLP250 T01000078 10111 20089 53021=
201910260453 METAR KBFI 260453Z 00000KT 10SM BKN025 OVC031 10/08 A3024 RMK AO2 SLP239 T01000083=
201910260437 SPECI KBFI 260437Z 00000KT 10SM FEW009 BKN021 OVC031 11/08 A3024 RMK AO2 T01060078=
201910260429 SPECI KBFI 260429Z 00000KT 10SM FEW010 BKN019 BKN033 11/08 A3023 RMK AO2 T01060078=
201910260417 SPECI KBFI 260417Z VRB05KT 10SM FEW008 SCT015 BKN060 10/08 A3023 RMK AO2 T01000083=
201910260353 METAR KBFI 260353Z 20004KT 10SM SCT035 09/08 A3021 RMK AO2 SLP228 T00940083=
201910260253 METAR KBFI 260253Z 15006KT 10SM SCT055 09/08 A3021 RMK AO2 SLP228 T00940083 53004=
201910260153 METAR KBFI 260153Z 00000KT 10SM SCT055 10/08 A3020 RMK AO2 SLP227 T01000083=
201910260053 METAR KBFI 260053Z 18004KT 10SM SCT043 10/09 A3020 RMK AO2 SLP225 T01000089=
201910252353 METAR KBFI 252353Z 14008KT 10SM SCT048 11/09 A3020 RMK AO2 SLP224 60010 T01060089 10139 20106 50003=
201910252253 METAR KBFI 252253Z 15007KT 10SM FEW047 BKN090 11/09 A3020 RMK AO2 RAB2156E22 SLP225 P0001 T01110089=
201910252153 METAR KBFI 252153Z 17006KT 4SM BR SCT020 OVC048 11/09 A3020 RMK AO2 RAB06E44 SLP225 P0003 T01110089=
201910252144 SPECI KBFI 252144Z 15005KT 4SM BR SCT020 OVC048 11/09 A3020 RMK AO2 RAB06E44 P0003 T01110089=
201910252117 SPECI KBFI 252117Z 10004KT 2SM -RA OVC018 11/08 A3019 RMK AO2 RAB06 P0000 T01110083=
201910252053 METAR KBFI 252053Z VRB04KT 4SM HZ OVC018 11/08 A3019 RMK AO2 RAE26 SLP221 P0001 60006 T01110083 51020=
201910252036 SPECI KBFI 252036Z VRB06KT 3SM BR OVC008 11/08 A3018 RMK AO2 RAE26 P0001 T01060083=
201910252023 SPECI KBFI 252023Z 3SM -RA BR OVC012 11/09 A3018 RMK AO2 P0001 T01060089=
201910251953 METAR KBFI 251953Z VRB05KT 1SM -RA BR OVC012 11/09 A3018 RMK AO2 SLP218 P0003 T01060089=
201910251853 METAR KBFI 251853Z VRB04KT 1SM -RA OVC012 13/09 A3015 RMK AO2 RAB14 SLP210 P0002 T01280094=
201910251844 SPECI KBFI 251844Z VRB03KT 1SM -RA OVC007 13/10 A3015 RMK AO2 RAB14 P0002 T01280100=
201910251835 SPECI KBFI 251835Z VRB06KT 5SM -RA OVC016 13/10 A3014 RMK AO2 RAB14 P0001 T01330100=
201910251753 METAR KBFI 251753Z 36004KT 10SM FEW010 BKN013 BKN080 13/11 A3013 RMK AO2 SLP201 T01330106 10156 20083 53015=
201910251653 METAR KBFI 251653Z 20012G21KT 10SM FEW010 BKN013 BKN080 14/11 A3008 RMK AO2 SLP187 T01440111=
201910251553 METAR KBFI 251553Z 19011G19KT 160V230 10SM FEW016 SCT030 BKN060 13/10 A3008 RMK AO2 PK WND 18026/1533 SLP186 T01330100=
201910251453 METAR KBFI 251453Z 15010KT 10SM FEW016 SCT030 BKN060 11/08 A3008 RMK AO2 SLP186 T01110078 58022=
201910251353 METAR KBFI 251353Z 14008KT 10SM SCT028 BKN060 10/08 A3011 RMK AO2 SLP196 T01000078=
201910251253 METAR KBFI 251253Z 14007KT 10SM SCT060 09/07 A3014 RMK AO2 SLP204 T00940072=
201910251153 METAR KBFI 251153Z 16007KT 10SM CLR 08/07 A3015 RMK AO2 SLP208 T00780067 10128 20078 58020=
201910251053 METAR KBFI 251053Z 12004KT 10SM FEW050 09/07 A3017 RMK AO2 SLP215 T00940072=
201910250953 METAR KBFI 250953Z 15004KT 10SM BKN055 09/08 A3019 RMK AO2 SLP223 T00940078=
201910250853 METAR KBFI 250853Z 14003KT 10SM OVC055 11/08 A3021 RMK AO2 SLP229 T01060083 58019=
201910250653 METAR KBFI 250653Z 00000KT 10SM OVC060 12/09 A3025 RMK AO2 SLP242 T01220094=
201910250553 METAR KBFI 250553Z 00000KT 10SM OVC060 12/09 A3026 RMK AO2 SLP248 T01220094 10161 20117 58007=
201910250453 METAR KBFI 250453Z 00000KT 10SM FEW060 12/09 A3027 RMK AO2 SLP250 T01220089=
201910250353 METAR KBFI 250353Z 00000KT 10SM BKN055 13/09 A3028 RMK AO2 SLP253 T01330089=
201910250253 METAR KBFI 250253Z 00000KT 10SM BKN055 14/08 A3029 RMK AO2 SLP255 T01390083 56009=
201910250153 METAR KBFI 250153Z 00000KT 10SM BKN055 14/08 A3029 RMK AO2 SLP257 T01440083=
201910250053 METAR KBFI 250053Z 32004KT 10SM SCT055 16/08 A3030 RMK AO2 SLP259 T01560083=
201910242353 METAR KBFI 242353Z 30003KT 10SM BKN060 16/08 A3031 RMK AO2 SLP264 T01560083 10161 20111 56014=
201910242253 METAR KBFI 242253Z 30004KT 10SM BKN065 16/08 A3033 RMK AO2 SLP269 T01560083=
201910242153 METAR KBFI 242153Z 32005KT 10SM BKN070 16/08 A3034 RMK AO2 SLP272 T01560083=
201910242053 METAR KBFI 242053Z 30004KT 10SM BKN070 16/08 A3035 RMK AO2 SLP278 T01560078 58015=
201910241953 METAR KBFI 241953Z 00000KT 10SM SCT070 14/08 A3038 RMK AO2 SLP286 T01440083=
201910241853 METAR KBFI 241853Z 00000KT 10SM BKN070 13/08 A3039 RMK AO2 SLP290 T01330078=
201910241753 METAR KBFI 241753Z 00000KT 10SM BKN060 11/07 A3040 RMK AO2 SLP293 T01110072 10111 20078 50001=
201910241653 METAR KBFI 241653Z 14005KT 10SM BKN060 09/07 A3041 RMK AO2 SLP297 T00940072=
201910241553 METAR KBFI 241553Z 16004KT 8SM FEW006 OVC065 08/07 A3041 RMK AO2 SLP295 T00830072=
201910241514 SPECI KBFI 241514Z 16006KT 5SM BR SCT003 BKN070 08/07 A3040 RMK AO2 T00830072=
201910241453 METAR KBFI 241453Z 15005KT 4SM BR BKN004 OVC040 08/07 A3040 RMK AO2 SLP292 T00830072 56011=
201910241353 METAR KBFI 241353Z 00000KT 6SM BR BKN004 OVC070 08/07 A3041 RMK AO2 SLP296 T00830072=
201910241253 METAR KBFI 241253Z 00000KT 3SM BR OVC004 08/07 A3042 RMK AO2 SLP299 T00830072=
201910241153 METAR KBFI 241153Z 27003KT 5SM BR BKN005 OVC085 08/07 A3043 RMK AO2 SLP304 T00830067 10094 20072 50002=
201910241053 METAR KBFI 241053Z 00000KT 10SM BKN005 08/07 A3044 RMK AO2 CIG 002V006 SLP307 T00830067=
201910240953 METAR KBFI 240953Z 00000KT 8SM CLR 07/06 A3043 RMK AO2 SLP304 T00720056=
201910240853 METAR KBFI 240853Z 00000KT 10SM CLR 08/06 A3042 RMK AO2 SLP302 T00780061 58007=
201910240753 METAR KBFI 240753Z 00000KT 10SM CLR 08/06 A3043 RMK AO2 SLP305 T00830061 401390056=
201910240653 METAR KBFI 240653Z 00000KT 10SM CLR 09/07 A3045 RMK AO2 SLP309 T00890067=
201910240553 METAR KBFI 240553Z 00000KT 10SM CLR 09/07 A3045 RMK AO2 SLP309 T00940067 10128 20094 58008=
201910240453 METAR KBFI 240453Z 00000KT 10SM CLR 10/07 A3047 RMK AO2 SLP316 T01000067=
201910240353 METAR KBFI 240353Z VRB03KT 10SM CLR 11/07 A3046 RMK AO2 SLP313 T01060067=
201910240253 METAR KBFI 240253Z VRB03KT 10SM CLR 11/07 A3047 RMK AO2 SLP317 T01060067 55002=
201910240153 METAR KBFI 240153Z 00000KT 10SM BKN250 11/07 A3047 RMK AO2 SLP316 T01110072=
201910240053 METAR KBFI 240053Z 31006KT 10SM FEW030 12/07 A3047 RMK AO2 SLP318 T01170067=
201910232353 METAR KBFI 232353Z VRB05KT 10SM BKN200 13/07 A3047 RMK AO2 SLP319 T01280067 10139 20094 56005=
201910232253 METAR KBFI 232253Z 32008KT 10SM CLR 13/07 A3048 RMK AO2 SLP320 T01330067=
201910232153 METAR KBFI 232153Z 29006KT 10SM CLR 13/06 A3048 RMK AO2 SLP320 T01280061=
201910232053 METAR KBFI 232053Z 31007KT 10SM SCT025 14/07 A3049 RMK AO2 SLP324 T01390072 58011=
201910231953 METAR KBFI 231953Z 30005KT 10SM FEW023 BKN200 13/08 A3051 RMK AO2 SLP329 T01330078=
201910231853 METAR KBFI 231853Z VRB05KT 10SM SCT015 13/07 A3053 RMK AO2 SLP337 T01280067=
201910231807 SPECI KBFI 231807Z VRB03KT 10SM SCT006 11/08 A3052 RMK AO2 T01060078=
201910231753 METAR KBFI 231753Z 06004KT 8SM BKN004 09/08 A3052 RMK AO2 SLP335 T00940078 10094 20056 50005=
201910231746 SPECI KBFI 231746Z 04003KT 8SM BKN004 09/08 A3052 RMK AO2 T00890078=
201910231716 SPECI KBFI 231716Z 35003KT 2 1/2SM OVC003 09/08 A3052 RMK AO2 T00890078=
201910231653 METAR KBFI 231653Z 35003KT 1 1/2SM BR OVC002 08/08 A3053 RMK AO2 SLP337 T00830078=
201910231553 METAR KBFI 231553Z 36003KT 1SM BR OVC003 08/07 A3052 RMK AO2 SLP335 T00830072=
201910231539 SPECI KBFI 231539Z 35003KT 1SM BR OVC003 08/07 A3052 RMK AO2 T00780072=
201910231453 METAR KBFI 231453Z 00000KT 1/2SM FG VV002 08/08 A3051 RMK AO2 SLP329 T00830078 53008=
201910231417 SPECI KBFI 231417Z 00000KT 1/2SM FG VV002 08/07 A3050 RMK AO2 T00780072=
201910231353 METAR KBFI 231353Z 00000KT 1 1/2SM BR OVC003 07/06 A3049 RMK AO2 SLP325 T00670056=
201910231350 SPECI KBFI 231350Z 00000KT 1 1/2SM BR OVC003 07/06 A3049 RMK AO2=
201910231343 SPECI KBFI 231343Z 00000KT 8SM OVC003 07/06 A3049 RMK AO2 T00720056=
201910231253 METAR KBFI 231253Z 00000KT 10SM FEW014 07/06 A3048 RMK AO2 SLP321 T00720056=
201910231153 METAR KBFI 231153Z 00000KT 10SM CLR 07/06 A3048 RMK AO2 SLP320 T00670056 10111 20067 53007=
201910231053 METAR KBFI 231053Z 00000KT 10SM CLR 07/06 A3047 RMK AO2 SLP318 T00720056=
201910230953 METAR KBFI 230953Z 00000KT 10SM CLR 07/06 A3046 RMK AO2 SLP315 T00720056=
201910230853 METAR KBFI 230853Z 00000KT 10SM CLR 08/06 A3046 RMK AO2 SLP314 T00780061 50002=
201910230753 METAR KBFI 230753Z 00000KT 10SM CLR 09/07 A3046 RMK AO2 SLP314 T00940072 401560094=
201910230653 METAR KBFI 230653Z 00000KT 10SM CLR 10/07 A3046 RMK AO2 SLP314 T01000072=
201910230553 METAR KBFI 230553Z 00000KT 10SM FEW035 11/08 A3045 RMK AO2 SLP311 T01110078 10139 20100 53008=
201910230453 METAR KBFI 230453Z 00000KT 10SM FEW035 11/08 A3044 RMK AO2 SLP308 T01110083=
201910230353 METAR KBFI 230353Z 00000KT 10SM SCT037 12/08 A3042 RMK AO2 SLP302 T01170083=
201910230253 METAR KBFI 230253Z 00000KT 10SM SCT034 12/09 A3043 RMK AO2 SLP304 T01220089 53003=
201910230153 METAR KBFI 230153Z 00000KT 10SM OVC033 13/09 A3043 RMK AO2 SLP303 T01330094=
201910230053 METAR KBFI 230053Z 00000KT 10SM OVC025 13/09 A3042 RMK AO2 SLP299 T01330089=
201910222353 METAR KBFI 222353Z VRB03KT 10SM FEW015 BKN023 14/09 A3042 RMK AO2 SLP300 60000 T01390094 10139 20128 53002=
201910222253 METAR KBFI 222253Z 00000KT 10SM OVC025 14/09 A3041 RMK AO2 SLP298 T01390089=
201910222153 METAR KBFI 222153Z VRB03KT 10SM OVC025 13/10 A3042 RMK AO2 SLP299 VIS OVR ELLIOT BAY 1 MILE T01280100=
201910222121 SPECI KBFI 222121Z VRB03KT 3SM BR BKN009 OVC018 13/10 A3041 RMK AO2 VIS OVR ELLIOT BAY 1 MILE T01280100=
201910222053 METAR KBFI 222053Z AUTO 04005KT 6SM BR SCT010 OVC018 13/09 A3041 RMK AO2 SLP298 60000 T01280094 51011 TSNO=
201910221953 METAR KBFI 221953Z 00000KT 5SM HZ FEW010 OVC021 13/10 A3040 RMK AO2 RAB34E44 SLP293 P0000 T01280100=
201910221853 METAR KBFI 221853Z 06006KT 10SM FEW010 OVC021 13/10 A3040 RMK AO2 RAE46 SLP293 P0000 T01280100=
201910221753 METAR KBFI 221753Z 00000KT 9SM -RA OVC016 13/10 A3038 RMK AO2 RAE1658B52 SLP287 P0000 60000 T01280100 10144 20128 51031=
201910221653 METAR KBFI 221653Z 06004KT 8SM -RA SCT009 OVC017 13/11 A3035 RMK AO2 RAB36 SLP278 P0000 T01280106=
201910221553 METAR KBFI 221553Z 04005KT 8SM BKN008 OVC016 13/11 A3034 RMK AO2 RAE1454 SLP273 P0000 T01280106=
201910221453 METAR KBFI 221453Z VRB03KT 5SM -RA BR BKN008 OVC016 13/12 A3029 RMK AO2 RAE12B40 SLP256 P0000 60000 T01330117 51030=
201910221353 METAR KBFI 221353Z 00000KT 4SM -RA BR OVC008 13/12 A3027 RMK AO2 RAB07E24B43 SLP249 P0000 T01330117=
201910221318 SPECI KBFI 221318Z 00000KT 4SM -RA OVC008 14/12 A3025 RMK AO2 RAB07 P0000 T01440117=
201910221253 METAR KBFI 221253Z 00000KT 10SM BKN015 OVC023 14/12 A3024 RMK AO2 PRESRR SLP240 T01440117=
201910221153 METAR KBFI 221153Z 14007KT 10SM BKN015 OVC023 14/12 A3020 RMK AO2 SLP226 60000 70004 T01440117 10161 20144 51028=
201910221053 METAR KBFI 221053Z 19005KT 10SM OVC018 15/12 A3017 RMK AO2 SLP215 T01500117=
201910221000 SPECI KBFI 221000Z 19008KT 10SM FEW011 BKN019 OVC025 15/13 A3016 RMK AO2 T01500128=
201910220953 METAR KBFI 220953Z 17008KT 10SM BKN014 BKN019 OVC024 15/13 A3016 RMK AO2 SLP211 T01500128=
201910220921 SPECI KBFI 220921Z 20008KT 150V220 10SM BKN012 BKN019 16/13 A3015 RMK AO2 T01560133=
201910220853 METAR KBFI 220853Z 19009G19KT 10SM SCT012 SCT090 16/13 A3012 RMK AO2 RAE34 SLP197 P0000 60000 T01560133 50000=
201910220653 METAR KBFI 220653Z 18012G19KT 7SM -RA SCT016 BKN022 OVC028 16/13 A3012 RMK AO2 RAB19 SLP199 P0000 T01560133=
201910220553 METAR KBFI 220553Z 18013G23KT 10SM FEW014 BKN039 OVC100 16/13 A3012 RMK AO2 RAE30 SLP198 P0000 60004 T01560133 10156 20144 51004=
201910220453 METAR KBFI 220453Z 18012G22KT 6SM -RA BR SCT009 BKN060 OVC090 15/13 A3011 RMK AO2 SLP197 P0000 T01500133=
201910220353 METAR KBFI 220353Z 18013G23KT 9SM -RA FEW010 BKN065 OVC090 15/13 A3011 RMK AO2 RAB00 SLP196 P0000 T01500133=
201910220253 METAR KBFI 220253Z 19012G21KT 10SM SCT011 BKN085 OVC110 15/14 A3011 RMK AO2 RAE47 SLP194 P0000 60004 T01500139 56008=
201910220153 METAR KBFI 220153Z 17015G20KT 10SM -RA SCT012 SCT070 OVC095 15/13 A3010 RMK AO2 SLP194 P0002 T01500133=
201910220053 METAR KBFI 220053Z 18013G20KT 4SM -RA BR SCT014 OVC095 15/13 A3011 RMK AO2 SLP196 P0002 T01500128=
201910212353 METAR KBFI 212353Z 19011G19KT 5SM -RA BR SCT020 SCT049 OVC070 14/12 A3013 RMK AO2 RAE02B27 SLP202 P0000 60000 T01440122 10144 20122 53001=
201910212253 METAR KBFI 212253Z 17008KT 6SM -RA BR SCT012 OVC018 13/12 A3012 RMK AO2 RAB2158E10B13E19B50 SLP199 P0000 T01330117=
201910212212 SPECI KBFI 212212Z 16008KT 3SM BR BKN006 OVC013 13/11 A3012 RMK AO2 RAB2158E10 P0000 T01280111=
201910212200 SPECI KBFI 212200Z 16008KT 2 1/2SM -RA BR SCT006 OVC013 13/11 A3012 RMK AO2 RAB2158 P0000 T01280106=
201910212153 METAR KBFI 212153Z 16009KT 3SM BR OVC013 13/11 A3012 RMK AO2 SLP198 T01280106=
201910212053 METAR KBFI 212053Z 15010KT 8SM SCT012 OVC024 13/10 A3013 RMK AO2 SLP202 T01280100 58018=
201910212035 SPECI KBFI 212035Z 15011KT 7SM FEW014 BKN025 OVC036 13/10 A3014 RMK AO2 T01280100=
201910211953 METAR KBFI 211953Z 16010KT 6SM HZ FEW014 BKN041 OVC050 13/11 A3016 RMK AO2 SLP213 T01330106=
201910211853 METAR KBFI 211853Z 15008KT 10SM BKN020 OVC060 13/09 A3017 RMK AO2 SLP215 T01280094=
201910211753 METAR KBFI 211753Z 14008KT 10SM SCT050 BKN060 OVC075 13/09 A3018 RMK AO2 RAE06 SLP220 P0000 60000 T01280089 10128 20117 51006=
201910211706 SPECI KBFI 211706Z 17008KT 3SM HZ BKN025 BKN050 OVC070 12/09 A3019 RMK AO2 RAE06 P0000 T01220089=
201910211653 METAR KBFI 211653Z 17007KT 5SM -RA FEW025 BKN050 OVC070 12/09 A3018 RMK AO2 RAE17B27E36B53 SLP219 P0000 T01170089=
201910211640 SPECI KBFI 211640Z 15007KT 10SM FEW025 SCT038 OVC055 12/09 A3017 RMK AO2 RAE17B27E36 P0000 T01170089=
201910211618 SPECI KBFI 211618Z 15007KT 10SM BKN023 OVC060 12/09 A3017 RMK AO2 RAE17 P0000 T01220089=
201910211600 SPECI KBFI 211600Z 18007KT 7SM -RA SCT023 OVC065 12/09 A3017 RMK AO2 P0000 T01220089=
201910211553 METAR KBFI 211553Z 16006KT 6SM -RA BKN016 OVC050 12/09 A3017 RMK AO2 RAB32 SLP216 P0000 T01220089=
201910211453 METAR KBFI 211453Z 18007KT 10SM BKN016 OVC050 12/08 A3016 RMK AO2 SLP214 T01220083 50005=
201910211407 SPECI KBFI 211407Z 17010KT 10SM BKN016 OVC050 12/08 A3017 RMK AO2 T01220083 $=
201910211400 SPECI KBFI 211400Z 17010KT 10SM OVC085 12/08 A3017 RMK AO2 T01170083 $=
201910211353 METAR KBFI 211353Z 16008KT 10SM BKN016 OVC050 12/08 A3017 RMK AO2 SLP215 T01170083 $=
201910211253 METAR KBFI 211253Z 17009KT 10SM BKN022 OVC050 12/08 A3015 RMK AO2 SLP209 T01220083 $=
201910211153 METAR KBFI 211153Z 17007KT 10SM BKN022 OVC050 12/08 A3015 RMK AO2 SLP209 70006 T01220083 10122 20117 53006 $=
201910211053 METAR KBFI 211053Z 17009KT 10SM BKN022 OVC050 12/08 A3013 RMK AO2 SLP202 T01220078 $=
201910211003 SPECI KBFI 211003Z 17011KT 10SM SCT022 OVC070 12/08 A3013 RMK AO2 T01220083 $=
201910210953 METAR KBFI 210953Z 17012KT 10SM BKN022 BKN070 12/08 A3013 RMK AO2 SLP202 T01220083 $=
201910210853 METAR KBFI 210853Z 17007KT 160V220 10SM OVC020 12/09 A3013 RMK AO2 SLP202 T01220089 51016 $=
201910210753 METAR KBFI 210753Z 18004KT 10SM OVC022 12/08 A3011 RMK AO2 SLP197 T01220083 401220072 $=
201910210653 METAR KBFI 210653Z 20007KT 10SM BKN024 OVC029 12/08 A3010 RMK AO2 SLP193 T01220083 $=
201910210553 METAR KBFI 210553Z VRB06KT 10SM FEW018 BKN026 OVC041 12/08 A3008 RMK AO2 SLP186 60006 T01220083 10122 20106 52027 $=
201910210453 METAR KBFI 210453Z 20005KT 10SM FEW018 BKN026 OVC040 12/09 A3006 RMK AO2 SLP180 T01170089 $=
201910210353 METAR KBFI 210353Z 00000KT 10SM OVC017 11/08 A3003 RMK AO2 RAE38 SLP167 P0004 T01110083 $=
201910210253 METAR KBFI 210253Z 11004KT 4SM RA BKN010 OVC015 11/08 A3000 RMK AO2 SLP160 P0002 60002 T01110078 53030 $=
201910210220 SPECI KBFI 210220Z 00000KT 4SM -RA BR BKN010 OVC015 12/11 A2997 RMK AO2 P0000 T01170106 $=
201910210218 SPECI KBFI 210218Z 00000KT 4SM -RA BR OVC015 12/10 A2997 RMK AO2 P0000 T01170100 $=
201910210153 METAR KBFI 210153Z 24005KT 5SM -RA BKN016 12/09 A2996 RMK AO2 RAB38 SLP144 P0000 T01220094 $=
201910210053 METAR KBFI 210053Z VRB05KT 10SM BKN016 12/09 A2993 RMK AO2 SLP133 T01170094 $=
201910202353 METAR KBFI 202353Z 15007KT 10SM SCT006 OVC020 11/09 A2992 RMK AO2 RAE22 SLP130 P0000 60000 T01110094 10111 20094 55002 $=
201910202315 SPECI KBFI 202315Z 15006KT 4SM -RA BR BKN004 OVC020 11/09 A2991 RMK AO2 P0000 T01060094 $=
201910202253 METAR KBFI 202253Z 13005KT 3SM -RA BR OVC008 11/09 A2990 RMK AO2 SLP126 P0000 T01060089 $=
201910202153 METAR KBFI 202153Z 13006KT 2SM -RA BR OVC009 10/09 A2991 RMK AO2 RAE12B36 SLP128 P0000 T01000089 $=
201910202053 METAR KBFI 202053Z 13007KT 1 1/2SM -RA BR OVC009 10/08 A2992 RMK AO2 RAB02 SLP133 P0000 60000 T01000083 58024 $=
201910201953 METAR KBFI 201953Z 14010KT 2SM BR OVC009 10/08 A2995 RMK AO2 RAB1855E51 SLP142 P0000 T01000078 $=
201910201934 SPECI KBFI 201934Z 15009KT 2SM -RA BR OVC009 11/08 A2996 RMK AO2 RAB1855 P0000 T01060078 $=
201910201923 SPECI KBFI 201923Z 14007KT 4SM -RA OVC026 11/08 A2997 RMK AO2 RAB1855 P0000 T01060078 $=
201910201853 METAR KBFI 201853Z 15008KT 7SM OVC026 11/07 A2998 RMK AO2 SLP153 T01060067 $=
201910201753 METAR KBFI 201753Z 15007KT 10SM SCT035 BKN050 OVC065 09/07 A3000 RMK AO2 RAE41 SLP157 P0000 60000 T00940067 10094 20083 58013 $=
201910201653 METAR KBFI 201653Z 14004KT 10SM -RA SCT020 BKN050 OVC070 09/06 A3002 RMK AO2 RAE01B50 SLP164 P0000 T00890056 $=
201910201553 METAR KBFI 201553Z 15005KT 10SM -RA FEW020 BKN055 OVC110 09/05 A3003 RMK AO2 RAB39 SLP169 P0000 T00890050 $=
201910201453 METAR KBFI 201453Z 12005KT 10SM FEW030 OVC110 09/05 A3003 RMK AO2 SLP169 T00940050 58007 $=
201910201353 METAR KBFI 201353Z 13005KT 10SM FEW100 BKN120 09/05 A3004 RMK AO2 SLP172 T00890050 $=
201910201253 METAR KBFI 201253Z 15006KT 10SM SCT026 08/06 A3006 RMK AO2 SLP178 T00830056 $=
201910201153 METAR KBFI 201153Z 14006KT 10SM SCT022 09/06 A3006 RMK AO2 SLP177 70010 T00890056 10089 20072 $=
201910201139 SPECI KBFI 201139Z 14007KT 10SM SCT024 08/06 A3004 RMK AO2 T00830056 $=
201910201100 SPECI KBFI 201100Z 13005KT 10SM BKN021 09/06 A3006 RMK AO2 T00890056 $=
201910201053 METAR KBFI 201053Z 12005KT 10SM 09/06 A3005 RMK AO2 SLP177 T00890061 $=
201910200953 METAR KBFI 200953Z 14006KT 10SM BKN019 08/06 A3007 RMK AO2 SLP180 T00830056=
201910200946 SPECI KBFI 200946Z 14005KT 10SM BKN019 08/06 A3007 RMK AO2 T00780056=
201910200921 SPECI KBFI 200921Z 14006KT 10SM SCT019 07/05 A3007 RMK AO2 T00720050=
201910200853 METAR KBFI 200853Z 14004KT 10SM OVC021 08/06 A3006 RMK AO2 SLP180 T00780056 51008=
201910200819 SPECI KBFI 200819Z 13006KT 10SM BKN021 08/06 A3005 RMK AO2 T00780056=
201910200753 METAR KBFI 200753Z 14007KT 10SM FEW022 08/05 A3006 RMK AO2 SLP178 T00780050 401170072=
201910200653 METAR KBFI 200653Z 14008KT 10SM CLR 07/05 A3005 RMK AO2 SLP174 T00720050=
201910200553 METAR KBFI 200553Z 14008KT 10SM FEW090 08/06 A3004 RMK AO2 SLP171 T00830056 10117 20083 51026=
201910200453 METAR KBFI 200453Z 14006KT 10SM FEW037 FEW080 09/06 A3001 RMK AO2 SLP163 T00890061=
201910200436 SPECI KBFI 200436Z 13007KT 10SM FEW037 FEW080 09/06 A3000 RMK AO2 T00940061=
201910200429 SPECI KBFI 200429Z 13007KT 10SM BKN029 10/07 A3000 RMK AO2 T01000067=
201910200353 METAR KBFI 200353Z 13006KT 10SM FEW037 FEW080 10/07 A2999 RMK AO2 SLP154 T01000067=
201910200253 METAR KBFI 200253Z 16004KT 10SM SCT030 BKN085 09/07 A2996 RMK AO2 SLP146 T00940072 53033=
201910200153 METAR KBFI 200153Z VRB03KT 10SM FEW034 SCT070 10/08 A2993 RMK AO2 SLP135 T01000078=
201910200146 SPECI KBFI 200146Z 05003KT 10SM FEW034 SCT070 11/08 A2992 RMK AO2 T01060078=
201910200053 METAR KBFI 200053Z 00000KT 10SM SCT028 BKN075 12/08 A2989 RMK AO2 SLP122 T01170078=
201910200000 SPECI KBFI 200000Z 07004KT 10SM SCT028 BKN075 12/08 A2987 RMK AO2 T01170078=
201910192353 METAR KBFI 192353Z 13004KT 10SM BKN026 BKN040 12/08 A2986 RMK AO2 SLP112 60002 T01170078 10117 20083 51019=
201910192300 SPECI KBFI 192300Z 10006KT 10SM BKN026 BKN032 OVC040 12/07 A2985 RMK AO2 T01170072=
201910192253 METAR KBFI 192253Z 12007KT 10SM BKN010 BKN041 OVC048 11/07 A2985 RMK AO2 SLP107 T01110072=
201910192202 SPECI KBFI 192202Z 12006KT 10SM BKN010 BKN041 OVC048 11/08 A2983 RMK AO2 T01110078=
201910192153 METAR KBFI 192153Z 11006KT 10SM SCT010 BKN032 OVC048 11/08 A2982 RMK AO2 SLP099 T01110078=
201910192053 METAR KBFI 192053Z 15005KT 10SM BKN007 OVC048 11/08 A2981 RMK AO2 RAE23 SLP093 P0000 60002 T01060083 51022=
201910191953 METAR KBFI 191953Z 14005KT 5SM -RA BR BKN008 OVC048 09/08 A2980 RMK AO2 SLP090 P0002 T00890078=
201910191853 METAR KBFI 191853Z 14006KT 7SM -RA BKN008 OVC018 09/07 A2977 RMK AO2 RAB05 SLP081 P0000 T00890072=
201910191753 METAR KBFI 191753Z 15007KT 6SM BR BKN008 OVC014 08/07 A2974 RMK AO2 RAE45 SLP071 P0000 60008 T00830067 10089 20078 51029=
201910191723 SPECI KBFI 191723Z 14006KT 6SM -RA BR BKN008 OVC014 08/07 A2973 RMK AO2 P0000 T00830067=
201910191653 METAR KBFI 191653Z 14006KT 5SM -RA BR SCT007 BKN014 OVC020 08/07 A2971 RMK AO2 SLP062 P0000 T00830067=
201910191626 SPECI KBFI 191626Z 14005KT 5SM -RA BR SCT009 BKN015 OVC037 08/07 A2970 RMK AO2 P0000 T00830067=
201910191553 METAR KBFI 191553Z 14005KT 8SM -RA FEW010 BKN023 OVC037 08/06 A2969 RMK AO2 SLP052 P0000 T00780061=
201910191453 METAR KBFI 191453Z 14004KT 10SM -RA FEW012 OVC036 08/06 A2966 RMK AO2 SLP042 P0000 60008 T00780061 53015=
201910191353 METAR KBFI 191353Z 00000KT 9SM -RA SCT027 OVC041 08/07 A2962 RMK AO2 SLP031 P0006 T00830067=
201910191253 METAR KBFI 191253Z 00000KT 7SM -RA SCT021 OVC029 08/07 A2961 RMK AO2 SLP027 P0002 T00830067=
201910191153 METAR KBFI 191153Z 14008KT 4SM RA BR FEW030 OVC041 09/08 A2961 RMK AO2 SLP027 P0012 60026 70068 T00890078 10100 20089 56028=
201910191053 METAR KBFI 191053Z 00000KT 7SM -RA SCT032 OVC045 09/08 A2963 RMK AO2 SLP034 P0001 T00940078=
201910190953 METAR KBFI 190953Z 06003KT 10SM -RA FEW030 SCT046 OVC055 10/08 A2965 RMK AO2 SLP040 P0000 T01000078=
201910190853 METAR KBFI 190853Z 12004KT 5SM -RA BR FEW017 SCT023 OVC030 10/08 A2970 RMK AO2 SLP055 P0002 60013 T01000078 58023=
201910190831 SPECI KBFI 190831Z 11005KT 9SM -RA SCT020 BKN026 OVC046 10/08 A2970 RMK AO2 P0001 T01000078=
201910190753 METAR KBFI 190753Z 12006KT 9SM -RA FEW007 FEW022 OVC055 10/08 A2973 RMK AO2 SLP068 P0011 T01000083 401170094=
201910190749 SPECI KBFI 190749Z 12005KT 8SM -RA FEW007 FEW021 OVC049 10/08 A2974 RMK AO2 P0011=
201910190710 SPECI KBFI 190710Z 13003KT 4SM -RA BR SCT021 BKN027 OVC043 10/08 A2976 RMK AO2 P0004 T01000083=
201910190653 METAR KBFI 190653Z 11004KT 9SM -RA OVC043 10/08 A2976 RMK AO2 RAB48 SLP078 P0000 T01000083=
201910190553 METAR KBFI 190553Z 15010KT 10SM BKN060 OVC075 10/08 A2977 RMK AO2 SLP082 60039 T01000083 10117 20094 58022=
201910190453 METAR KBFI 190453Z 15009KT 10SM FEW050 BKN085 10/08 A2981 RMK AO2 RAB23E32 SLP093 P0000 T01000083=
201910190353 METAR KBFI 190353Z 15008KT 10SM BKN030 09/08 A2982 RMK AO2 SLP099 T00940078=
201910190253 METAR KBFI 190253Z 15008KT 10SM BKN050 OVC070 09/08 A2984 RMK AO2 RAE23 SLP104 P0000 60039 T00940078 56008=
201910190153 METAR KBFI 190153Z 16006KT 3SM RA BR BKN009 BKN023 OVC050 10/08 A2985 RMK AO2 SLP109 P0010 T01000078=
201910190056 SPECI KBFI 190056Z VRB04KT 3SM -RA BKN009 BKN023 OVC050 11/08 A2986 RMK AO2 P0000 T01110083=
201910190053 METAR KBFI 190053Z 11012KT 3SM +RA BKN010 BKN025 OVC030 11/08 A2986 RMK AO2 RAB2358 SLP111 P0029 T01110083=
201910182353 METAR KBFI 182353Z 14008KT 10SM SCT025 OVC050 11/09 A2988 RMK AO2 RAE43 SLP116 P0000 60000 T01060089 10117 20100 58009=
201910182253 METAR KBFI 182253Z 15011KT 10SM -RA SCT012 BKN030 OVC050 11/08 A2989 RMK AO2 RAB49 SLP120 P0000 T01110083=
201910182153 METAR KBFI 182153Z 18011KT 10SM SCT017 BKN055 OVC080 11/08 A2990 RMK AO2 RAB12E45 SLP123 P0000 T01110083=
201910182053 METAR KBFI 182053Z 18010G19KT 10SM SCT015 BKN040 OVC080 11/08 A2990 RMK AO2 RAE21B39E52 SLP126 P0000 60000 T01110078 58007=
201910181953 METAR KBFI 181953Z 17014G20KT 10SM -RA SCT012 BKN040 OVC080 11/08 A2992 RMK AO2 RAB26E35B52 SLP130 P0000 T01110078=
201910181853 METAR KBFI 181853Z 17013G18KT 10SM FEW025 SCT050 OVC100 11/08 A2992 RMK AO2 RAE14B32E43 SLP130 P0000 T01060078=
201910181753 METAR KBFI 181753Z 18010KT 8SM -RA SCT012 BKN060 OVC090 11/07 A2993 RMK AO2 RAB17 SLP133 P0000 60003 T01060072 10106 20094 53010=
201910181653 METAR KBFI 181653Z 17013KT 10SM FEW030 SCT080 BKN170 11/07 A2992 RMK AO2 SLP131 T01060067=
201910181553 METAR KBFI 181553Z 15010KT 10SM SCT035 BKN150 09/07 A2990 RMK AO2 RAE1455 SLP124 P0000 T00940067=
201910181453 METAR KBFI 181453Z 17012KT 10SM -RA FEW008 BKN035 BKN075 09/06 A2989 RMK AO2 RAB24 SLP123 P0003 60003 T00940061 52004=
201910181353 METAR KBFI 181353Z 17007KT 10SM SCT020 BKN030 11/06 A2989 RMK AO2 SLP122 T01060061=
201910181253 METAR KBFI 181253Z 14005KT 10SM BKN025 10/07 A2988 RMK AO2 SLP119 T01000067=
201910181153 METAR KBFI 181153Z 17008KT 140V220 10SM BKN023 10/07 A2988 RMK AO2 SLP118 70005 T01000067 10117 20100 51026=
201910181053 METAR KBFI 181053Z 17007KT 10SM OVC021 11/07 A2986 RMK AO2 SLP110 T01060072=
201910180953 METAR KBFI 180953Z VRB05KT 10SM BKN023 11/07 A2984 RMK AO2 SLP104 T01110067=
201910180853 METAR KBFI 180853Z 19009KT 10SM FEW025 SCT110 11/07 A2980 RMK AO2 SLP092 T01110067 53019=
201910180753 METAR KBFI 180753Z 19010G17KT 10SM FEW020 SCT090 12/07 A2977 RMK AO2 SLP082 T01170072 401440100=
201910180653 METAR KBFI 180653Z 17015G21KT 10SM SCT023 BKN090 11/08 A2976 RMK AO2 SLP076 T01110078=
201910180641 SPECI KBFI 180641Z 18011G16KT 10SM BKN024 BKN095 12/07 A2977 RMK AO2 T01170072=
201910180553 METAR KBFI 180553Z 17010KT 10SM SCT020 BKN060 11/08 A2975 RMK AO2 PRESRR SLP073 60000 T01110078 10139 20111 51031=
201910180453 METAR KBFI 180453Z 20011G18KT 10SM SCT020 12/08 A2972 RMK AO2 SLP064 T01170078=
201910180353 METAR KBFI 180353Z 21008G23KT 10SM FEW090 12/08 A2969 RMK AO2 SLP054 T01170078=
201910180253 METAR KBFI 180253Z 19013G20KT 10SM FEW025 BKN070 BKN090 12/09 A2966 RMK AO2 PK WND 18029/0227 RAE30 SLP042 P0000 60000 T01220089 55004=
201910180153 METAR KBFI 180153Z 18014G19KT 10SM -RA SCT022 BKN030 OVC045 13/08 A2965 RMK AO2 SLP039 P0000 T01280083=
201910180053 METAR KBFI 180053Z 15011KT 9SM -RA SCT039 OVC048 13/09 A2964 RMK AO2 RAB18 SLP037 P0000 T01280089=
201910172353 METAR KBFI 172353Z 17014G23KT 10SM BKN045 13/09 A2967 RMK AO2 SLP046 60004 T01330089 10144 20122 58010=
201910172253 METAR KBFI 172253Z 17013KT 10SM FEW032 SCT049 BKN060 13/10 A2969 RMK AO2 RAE2158B14E48 SLP053 P0002 T01330100=
201910172153 METAR KBFI 172153Z 19009KT 7SM -RA FEW023 BKN043 OVC055 13/10 A2969 RMK AO2 SLP054 P0002 T01280100=
201910172053 METAR KBFI 172053Z 18008KT 10SM -RA FEW015 BKN035 BKN070 14/10 A2970 RMK AO2 RAB27 SLP056 P0000 60000 T01440100 50002=
201910171953 METAR KBFI 171953Z 20015G22KT 170V230 10SM SCT025 BKN033 BKN040 14/09 A2970 RMK AO2 RAB06E31 SLP057 P0000 T01390089=
201910171928 SPECI KBFI 171928Z 21008G17KT 5SM -RA SCT021 BKN030 OVC048 13/09 A2970 RMK AO2 RAB06 P0000 T01280094=
201910171853 METAR KBFI 171853Z 17010KT 10SM BKN027 BKN035 OVC050 13/09 A2970 RMK AO2 RAB1758E49 SLP056 P0000 T01330094=
201910171753 METAR KBFI 171753Z 17011G18KT 10SM FEW035 BKN055 OVC075 13/09 A2969 RMK AO2 RAE46 SLP054 P0000 60001 T01330094 10133 20106 51005=
201910171653 METAR KBFI 171653Z 18011KT 10SM -RA FEW040 BKN055 OVC070 12/08 A2969 RMK AO2 SLP054 P0001 T01220083=
201910171553 METAR KBFI 171553Z 18008KT 9SM -RA SCT050 BKN070 OVC110 12/08 A2969 RMK AO2 RAE00B44 SLP053 P0000 T01220078=
201910171453 METAR KBFI 171453Z 17009G16KT 10SM -RA FEW040 BKN065 OVC080 12/07 A2968 RMK AO2 RAB1356E1359B41 SLP049 P0000 60000 T01170072 58006=
201910171353 METAR KBFI 171353Z 15007KT 10SM FEW038 SCT048 BKN065 11/08 A2968 RMK AO2 RAE34 SLP052 P0000 T01060078=
201910171253 METAR KBFI 171253Z 20007G14KT 10SM -RA SCT041 BKN050 OVC070 12/07 A2969 RMK AO2 RAB50 SLP054 P0000 T01220072=
201910171153 METAR KBFI 171153Z 14008KT 10SM FEW033 SCT043 BKN065 11/08 A2969 RMK AO2 SLP054 60000 70023 T01060083 10128 20100 58003=
201910171053 METAR KBFI 171053Z 17010KT 10SM FEW040 SCT055 12/08 A2969 RMK AO2 RAB17E27 SLP055 P0000 T01170083=
201910170953 METAR KBFI 170953Z 15007KT 10SM SCT055 11/09 A2970 RMK AO2 SLP058 T01110089=
201910170853 METAR KBFI 170853Z 16006KT 10SM CLR 10/08 A2970 RMK AO2 SLP058 T01000083 52003=
201910170753 METAR KBFI 170753Z 16007KT 10SM BKN035 BKN070 12/09 A2970 RMK AO2 SLP057 T01170094 401560100=
201910170653 METAR KBFI 170653Z 19005KT 10SM FEW039 SCT050 BKN060 12/09 A2970 RMK AO2 SLP056 T01220094=
201910170553 METAR KBFI 170553Z 17009KT 10SM FEW015 BKN045 BKN060 13/10 A2969 RMK AO2 RAE02 SLP055 P0000 60015 T01280100 10156 20128 51015=
201910170453 METAR KBFI 170453Z 19005KT 10SM -RA BKN015 OVC045 13/11 A2968 RMK AO2 RAB22 SLP052 P0000 T01330106=
201910170353 METAR KBFI 170353Z 20005KT 10SM BKN015 OVC045 13/11 A2967 RMK AO2 SLP046 T01280106=
201910170253 METAR KBFI 170253Z 18009KT 10SM FEW023 SCT050 SCT060 13/11 A2965 RMK AO2 RAE19 SLP041 P0000 60015 T01330111 55003=
201910170153 METAR KBFI 170153Z 17010KT 10SM -RA SCT037 OVC085 13/11 A2964 RMK AO2 SLP036 P0003 T01330111=
201910170053 METAR KBFI 170053Z 22007G14KT 3SM RA FEW015 BKN039 OVC050 14/11 A2966 RMK AO2 RAB16 SLP043 P0012 T01390111=
201910170048 SPECI KBFI 170048Z 20009G14KT 3SM RA FEW015 BKN039 OVC050 14/11 A2966 RMK AO2 RAB16 P0012=
201910170021 SPECI KBFI 170021Z 23007KT 2 1/2SM RA BKN038 OVC047 14/11 A2965 RMK AO2 RAB16 P0002 T01440111=
201910162353 METAR KBFI 162353Z 17005KT 10SM BKN044 OVC120 15/11 A2964 RMK AO2 SLP036 60000 T01500111 10150 20117 56029=
201910162253 METAR KBFI 162253Z 16007KT 10SM OVC041 15/11 A2965 RMK AO2 SLP041 T01500111=
201910162153 METAR KBFI 162153Z 16008KT 10SM OVC047 14/11 A2969 RMK AO2 SLP052 T01440111=
201910162053 METAR KBFI 162053Z 17011KT 10SM OVC045 14/11 A2973 RMK AO2 SLP065 60000 T01390106 56016=
201910161953 METAR KBFI 161953Z 19007KT 10SM BKN043 OVC050 14/11 A2974 RMK AO2 SLP070 T01440111=
201910161853 METAR KBFI 161853Z 16009KT 10SM BKN049 OVC080 13/11 A2975 RMK AO2 RAE28 SLP075 P0000 T01280106=
201910161753 METAR KBFI 161753Z 14004KT 5SM -RA BR BKN049 OVC080 12/10 A2977 RMK AO2 RAB03 SLP081 P0003 60008 T01170100 10122 20106 56005=
201910161653 METAR KBFI 161653Z VRB04KT 10SM OVC040 12/09 A2978 RMK AO2 SLP084 T01220089=
201910161553 METAR KBFI 161553Z 13003KT 10SM BKN050 OVC065 12/08 A2978 RMK AO2 RAE17 SLP083 P0000 T01170083=
201910161453 METAR KBFI 161453Z 12004KT 8SM -RA OVC065 11/08 A2979 RMK AO2 SLP086 P0004 60005 T01060083 56013=
201910161353 METAR KBFI 161353Z 11003KT 7SM -RA SCT065 BKN080 OVC100 12/08 A2981 RMK AO2 RAB40 SLP093 P0001 T01170078=
201910161253 METAR KBFI 161253Z 00000KT 10SM OVC090 12/08 A2980 RMK AO2 RAB1159E36 SLP089 P0000 T01170078=
201910161153 METAR KBFI 161153Z 00000KT 10SM SCT070 OVC090 12/08 A2983 RMK AO2 SLP099 60000 T01170078 10144 20100 58017=
201910161053 METAR KBFI 161053Z 16008KT 10SM FEW060 BKN100 12/08 A2984 RMK AO2 RAB41E50 SLP104 P0000 T01170078=
201910160953 METAR KBFI 160953Z 15010KT 10SM OVC100 12/08 A2988 RMK AO2 SLP117 T01170083=
201910160853 METAR KBFI 160853Z 15007KT 10SM BKN100 BKN120 11/07 A2988 RMK AO2 SLP116 T01060072 56017=
201910160753 METAR KBFI 160753Z 00000KT 10SM FEW100 11/07 A2989 RMK AO2 SLP119 T01110072 401610072=
201910160653 METAR KBFI 160653Z 16005KT 10SM BKN110 12/07 A2989 RMK AO2 SLP122 T01220067=
201910160553 METAR KBFI 160553Z 13005KT 10SM BKN095 13/07 A2993 RMK AO2 SLP133 T01330072 10156 20128 58010=
201910160453 METAR KBFI 160453Z 15006KT 10SM OVC080 14/08 A2994 RMK AO2 SLP136 T01390078=
201910160353 METAR KBFI 160353Z 15007KT 10SM OVC085 14/08 A2995 RMK AO2 SLP140 T01390078=
201910160253 METAR KBFI 160253Z 14008KT 10SM OVC070 14/08 A2996 RMK AO2 SLP143 T01390078 55000=
201910160153 METAR KBFI 160153Z 17006KT 10SM SCT070 BKN100 14/07 A2995 RMK AO2 SLP141 T01440072=
201910160053 METAR KBFI 160053Z 18004KT 10SM BKN080 BKN100 15/07 A2995 RMK AO2 SLP140 T01500072=
201910152353 METAR KBFI 152353Z 25006KT 10SM BKN095 OVC140 16/07 A2996 RMK AO2 SLP143 T01560072 10161 20139 56013=
201910152253 METAR KBFI 152253Z 18005KT 10SM OVC110 16/07 A2997 RMK AO2 SLP148 T01560067=
201910152153 METAR KBFI 152153Z 15007KT 10SM BKN100 BKN200 15/06 A2998 RMK AO2 SLP150 T01500061=
201910152053 METAR KBFI 152053Z 23004KT 10SM SCT100 BKN150 BKN210 16/06 A2999 RMK AO2 SLP156 T01560056 58004=
201910151953 METAR KBFI 151953Z 16009KT 10SM SCT100 BKN210 15/07 A3000 RMK AO2 SLP160 T01500067=
201910151853 METAR KBFI 151853Z 16008KT 10SM BKN120 14/07 A3002 RMK AO2 SLP165 T01440067=
201910151753 METAR KBFI 151753Z 14007KT 10SM SCT120 BKN200 14/07 A3000 RMK AO2 SLP160 T01390072 10139 20072 53019=
201910151653 METAR KBFI 151653Z 14008KT 9SM CLR 11/08 A2999 RMK AO2 SLP154 T01060083=
201910151553 METAR KBFI 151553Z 15006KT 10SM SCT120 BKN200 09/07 A2996 RMK AO2 SLP146 T00890067=
201910151453 METAR KBFI 151453Z 14007KT 10SM FEW014 BKN220 08/06 A2995 RMK AO2 SLP141 T00780061 56009=
201910151353 METAR KBFI 151353Z 14004KT 10SM BKN210 08/06 A2996 RMK AO2 SLP144 T00780056=
201910151253 METAR KBFI 151253Z 16005KT 10SM CLR 08/06 A2996 RMK AO2 SLP144 T00780061=
201910151153 METAR KBFI 151153Z 00000KT 10SM CLR 09/07 A2998 RMK AO2 SLP150 T00890067 10111 20078 56014=
201910151053 METAR KBFI 151053Z 00000KT 10SM CLR 09/07 A2998 RMK AO2 SLP151 T00890067=
201910150953 METAR KBFI 150953Z 00000KT 10SM CLR 09/07 A3000 RMK AO2 SLP157 T00890067=
201910150653 METAR KBFI 150653Z 00000KT 10SM CLR 11/08 A3003 RMK AO2 SLP167 T01060078=
201910150553 METAR KBFI 150553Z 00000KT 10SM CLR 11/08 A3003 RMK AO2 SLP170 T01110078 10161 20111 58008=
201910150453 METAR KBFI 150453Z 29003KT 10SM CLR 12/07 A3006 RMK AO2 SLP177 T01170072=
201910150353 METAR KBFI 150353Z 00000KT 10SM BKN250 12/08 A3007 RMK AO2 SLP181 T01170078=
201910150253 METAR KBFI 150253Z 00000KT 10SM OVC250 12/07 A3006 RMK AO2 SLP178 T01220072 55006=
201910150153 METAR KBFI 150153Z 33004KT 10SM BKN250 14/06 A3005 RMK AO2 SLP176 T01390061=
201910150053 METAR KBFI 150053Z 00000KT 10SM BKN250 15/05 A3005 RMK AO2 SLP174 T01500050=
201910142353 METAR KBFI 142353Z 30004KT 10SM CLR 16/05 A3008 RMK AO2 SLP184 T01610050 10161 20122 56003=
201910142253 METAR KBFI 142253Z 00000KT 10SM BKN250 16/05 A3008 RMK AO2 SLP185 T01560050=
201910142153 METAR KBFI 142153Z VRB03KT 10SM FEW010 16/07 A3007 RMK AO2 SLP184 T01560067=
201910142053 METAR KBFI 142053Z 29004KT 10SM FEW018 15/07 A3009 RMK AO2 SLP187 T01500072 58012=
201910141953 METAR KBFI 141953Z 28005KT 10SM FEW020 14/07 A3010 RMK AO2 SLP193 T01440067=
201910141853 METAR KBFI 141853Z 00000KT 10SM FEW022 13/07 A3012 RMK AO2 SLP198 T01280067=
201910141753 METAR KBFI 141753Z 00000KT 10SM FEW012 12/07 A3012 RMK AO2 SLP200 T01220067 10122 20072 50002=
201910141653 METAR KBFI 141653Z 15004KT 10SM CLR 11/07 A3013 RMK AO2 SLP201 T01060067=
201910141553 METAR KBFI 141553Z 15004KT 10SM FEW010 09/07 A3012 RMK AO2 SLP198 T00940067=
201910141453 METAR KBFI 141453Z 15004KT 10SM SCT009 08/06 A3012 RMK AO2 SLP198 T00780061 51010=
201910141353 METAR KBFI 141353Z 16004KT 10SM OVC009 08/07 A3011 RMK AO2 SLP197 T00780067=
201910141253 METAR KBFI 141253Z 15004KT 10SM BKN008 08/06 A3009 RMK AO2 SLP189 T00780061=
201910141244 SPECI KBFI 141244Z 13003KT 10SM BKN008 08/06 A3009 RMK AO2 T00830061=
201910141218 SPECI KBFI 141218Z 00000KT 9SM SCT025 BKN060 08/06 A3009 RMK AO2 T00780061=
201910141211 SPECI KBFI 141211Z 00000KT 8SM BKN009 08/06 A3009 RMK AO2 T00780061=
201910141200 SPECI KBFI 141200Z 00000KT 10SM SCT009 SCT060 07/06 A3008 RMK AO2 T00720056=
201910141153 METAR KBFI 141153Z 00000KT 9SM FEW060 08/06 A3009 RMK AO2 SLP187 T00780061 10100 20061 53007=
201910141053 METAR KBFI 141053Z 00000KT 10SM SCT060 08/06 A3008 RMK AO2 SLP184 T00830061=
201910140953 METAR KBFI 140953Z 12004KT 10SM OVC016 09/07 A3007 RMK AO2 SLP182 T00890067=
201910140853 METAR KBFI 140853Z 15006KT 10SM SCT012 BKN065 08/07 A3007 RMK AO2 SLP180 T00830067 51013=
201910140753 METAR KBFI 140753Z 15005KT 10SM SCT012 BKN065 09/07 A3005 RMK AO2 SLP177 T00890072 401560083=
201910140653 METAR KBFI 140653Z 00000KT 10SM CLR 09/07 A3005 RMK AO2 SLP174 T00940067=
201910140553 METAR KBFI 140553Z 15006KT 10SM CLR 09/07 A3003 RMK AO2 SLP168 T00940067 10144 20094 51011=
201910140453 METAR KBFI 140453Z 00000KT 10SM OVC055 12/08 A3003 RMK AO2 SLP167 T01220078=
201910140353 METAR KBFI 140353Z 00000KT 10SM BKN070 BKN080 12/07 A3001 RMK AO2 SLP160 T01220072=
201910140253 METAR KBFI 140253Z 00000KT 10SM SCT070 OVC090 13/07 A3000 RMK AO2 SLP157 T01330072 53008=
201910140153 METAR KBFI 140153Z 00000KT 10SM SCT070 BKN090 13/07 A2998 RMK AO2 SLP153 T01330072=
201910140053 METAR KBFI 140053Z 00000KT 10SM SCT075 BKN090 14/07 A2998 RMK AO2 SLP151 T01390072=
201910132353 METAR KBFI 132353Z 16004KT 10SM SCT034 BKN065 14/07 A2997 RMK AO2 SLP149 T01440067 10156 20122 52003=
201910132253 METAR KBFI 132253Z 00000KT 10SM SCT034 BKN065 15/05 A2997 RMK AO2 SLP150 T01500050=
201910132153 METAR KBFI 132153Z 00000KT 10SM FEW033 SCT070 BKN090 15/06 A2996 RMK AO2 SLP145 T01500061=
201910132053 METAR KBFI 132053Z 00000KT 10SM SCT024 OVC085 14/07 A2996 RMK AO2 SLP146 T01440072 58000=
201910131953 METAR KBFI 131953Z 00000KT 10SM BKN017 BKN080 14/08 A2998 RMK AO2 SLP150 T01390083=
201910131853 METAR KBFI 131853Z VRB03KT 10SM BKN017 BKN080 13/08 A2996 RMK AO2 SLP145 T01280078=
201910131753 METAR KBFI 131753Z 00000KT 10SM BKN015 OVC080 12/08 A2996 RMK AO2 SLP146 T01220083 10122 20100 53003=
201910131653 METAR KBFI 131653Z 00000KT 10SM BKN015 OVC075 12/08 A2996 RMK AO2 SLP145 T01170078=
201910131553 METAR KBFI 131553Z 00000KT 10SM OVC080 11/08 A2996 RMK AO2 SLP144 T01110078=
201910131453 METAR KBFI 131453Z 00000KT 10SM OVC075 11/07 A2996 RMK AO2 SLP144 T01060072 53004=
201910131353 METAR KBFI 131353Z 00000KT 10SM OVC080 11/07 A2995 RMK AO2 SLP142 T01110072=
201910131253 METAR KBFI 131253Z 00000KT 10SM OVC080 11/07 A2995 RMK AO2 SLP140 T01110072=
201910131153 METAR KBFI 131153Z 00000KT 10SM OVC070 11/07 A2994 RMK AO2 SLP140 T01110067 10122 20111 53001=
201910131053 METAR KBFI 131053Z 00000KT 10SM OVC080 11/07 A2993 RMK AO2 SLP134 T01110067=
201910130953 METAR KBFI 130953Z 00000KT 10SM OVC085 11/07 A2994 RMK AO2 SLP136 T01110072=
201910130853 METAR KBFI 130853Z 00000KT 10SM OVC090 12/07 A2994 RMK AO2 SLP139 T01170067 56002=
201910130753 METAR KBFI 130753Z 00000KT 10SM OVC100 12/06 A2995 RMK AO2 SLP140 T01170061 401440056=
201910130653 METAR KBFI 130653Z 31004KT 10SM OVC085 12/06 A2994 RMK AO2 SLP137 T01170061=
201910130553 METAR KBFI 130553Z 30003KT 10SM OVC085 12/07 A2995 RMK AO2 SLP140 T01170072 10133 20117 56001=
201910130453 METAR KBFI 130453Z 30003KT 10SM OVC110 12/06 A2995 RMK AO2 SLP140 T01220061=
201910130353 METAR KBFI 130353Z 00000KT 10SM OVC095 12/07 A2995 RMK AO2 SLP140 T01220072=
201910130253 METAR KBFI 130253Z 31003KT 10SM OVC100 12/07 A2995 RMK AO2 SLP142 T01220067 51003=
201910130153 METAR KBFI 130153Z 30003KT 10SM OVC100 13/07 A2995 RMK AO2 SLP141 T01280067=
201910130053 METAR KBFI 130053Z 32004KT 10SM OVC100 13/07 A2995 RMK AO2 SLP141 T01280072=
201910122353 METAR KBFI 122353Z 32006KT 10SM BKN120 13/06 A2994 RMK AO2 SLP139 T01330061 10144 20122 58009=
201910122253 METAR KBFI 122253Z 31003KT 10SM BKN110 14/03 A2995 RMK AO2 SLP142 T01390028=
201910122153 METAR KBFI 122153Z 32003KT 10SM BKN110 14/04 A2996 RMK AO2 SLP146 T01390044=
201910122053 METAR KBFI 122053Z 29004KT 10SM BKN110 14/03 A2997 RMK AO2 SLP148 T01440033 58016=
201910121953 METAR KBFI 121953Z 33005KT 10SM SCT090 BKN110 13/04 A3000 RMK AO2 SLP158 T01280039=
201910121853 METAR KBFI 121853Z 00000KT 10SM BKN095 BKN110 12/02 A3000 RMK AO2 SLP159 T01220017=
201910121753 METAR KBFI 121753Z 00000KT 10SM BKN120 12/03 A3002 RMK AO2 SLP164 T01220033 10122 20061 50002=
201910121653 METAR KBFI 121653Z 00000KT 10SM BKN120 11/06 A3002 RMK AO2 SLP166 T01060056=
201910121553 METAR KBFI 121553Z 00000KT 10SM BKN120 09/04 A3002 RMK AO2 SLP166 T00890044=
201910121453 METAR KBFI 121453Z 00000KT 10SM BKN150 OVC200 07/03 A3001 RMK AO2 SLP161 T00720033 58002=
201910121353 METAR KBFI 121353Z 00000KT 10SM CLR 07/03 A3002 RMK AO2 SLP164 T00670028=
201910121253 METAR KBFI 121253Z 00000KT 10SM CLR 07/02 A3001 RMK AO2 SLP163 T00720022=
201910121153 METAR KBFI 121153Z 00000KT 10SM CLR 06/02 A3001 RMK AO2 SLP163 T00610017 10089 20056 58008=
201910121053 METAR KBFI 121053Z 00000KT 10SM CLR 06/02 A3002 RMK AO2 SLP166 T00610017=
201910120953 METAR KBFI 120953Z 00000KT 10SM CLR 07/02 A3004 RMK AO2 SLP170 T00670017=
201910120853 METAR KBFI 120853Z 00000KT 10SM CLR 07/01 A3004 RMK AO2 SLP172 T00670011 56003=
201910120753 METAR KBFI 120753Z 00000KT 10SM CLR 07/02 A3005 RMK AO2 SLP174 T00720017 401720039=
201910120653 METAR KBFI 120653Z 00000KT 10SM CLR 08/02 A3004 RMK AO2 SLP171 T00780022=
201910120553 METAR KBFI 120553Z 00000KT 10SM CLR 08/02 A3005 RMK AO2 SLP175 T00830022 10167 20083 57001=
201910120453 METAR KBFI 120453Z 00000KT 10SM CLR 09/03 A3005 RMK AO2 SLP175 T00940028=
201910120353 METAR KBFI 120353Z 00000KT 10SM CLR 11/02 A3005 RMK AO2 SLP175 T01060022=
201910120253 METAR KBFI 120253Z 00000KT 10SM CLR 11/02 A3005 RMK AO2 SLP176 T01110022 56003=
201910120153 METAR KBFI 120153Z 00000KT 10SM CLR 14/01 A3005 RMK AO2 SLP176 T01390006=
201910120053 METAR KBFI 120053Z 33005KT 10SM CLR 16/01 A3005 RMK AO2 SLP175 T01610006=
201910112353 METAR KBFI 112353Z 32005KT 10SM CLR 17/01 A3006 RMK AO2 SLP178 T01670011 10172 20128 58020=
201910112253 METAR KBFI 112253Z 33006KT 10SM CLR 17/01 A3008 RMK AO2 SLP185 T01670011=
201910112153 METAR KBFI 112153Z 32005KT 10SM CLR 16/02 A3010 RMK AO2 SLP192 T01610017=
201910112053 METAR KBFI 112053Z 31007KT 10SM CLR 16/03 A3012 RMK AO2 SLP199 T01560028 58023=
201910111953 METAR KBFI 111953Z 31008KT 10SM CLR 14/03 A3015 RMK AO2 SLP209 T01440033=
201910111853 METAR KBFI 111853Z VRB05KT 10SM SCT250 13/04 A3017 RMK AO2 SLP216 T01330039=
201910111753 METAR KBFI 111753Z VRB03KT 10SM CLR 13/01 A3019 RMK AO2 SLP222 T01280006 10128 20044 58012=
201910111653 METAR KBFI 111653Z 29004KT 10SM CLR 11/01 A3021 RMK AO2 SLP229 T01060011=
201910111553 METAR KBFI 111553Z 00000KT 10SM CLR 08/02 A3021 RMK AO2 SLP229 T00780022=
201910111453 METAR KBFI 111453Z AUTO 00000KT 10SM SCT200 06/02 A3022 RMK AO2 SLP234 T00560017 56008=
201910111353 METAR KBFI 111353Z 00000KT 10SM CLR 05/01 A3023 RMK AO2 SLP235 T00500011=
201910111253 METAR KBFI 111253Z 00000KT 10SM CLR 04/01 A3023 RMK AO2 SLP237 T00440011=
201910111153 METAR KBFI 111153Z 00000KT 10SM CLR 05/01 A3025 RMK AO2 SLP242 T00500011 10089 20039 56008=
201910111053 METAR KBFI 111053Z 00000KT 10SM CLR 04/01 A3025 RMK AO2 SLP242 T00440011=
201910110953 METAR KBFI 110953Z 00000KT 10SM CLR 05/02 A3026 RMK AO2 SLP247 T00500017=
201910110853 METAR KBFI 110853Z 00000KT 10SM CLR 06/02 A3027 RMK AO2 SLP250 T00610017 55012=
201910110753 METAR KBFI 110753Z 00000KT 10SM CLR 06/02 A3027 RMK AO2 SLP249 T00610017 401390011=
201910110653 METAR KBFI 110653Z 00000KT 10SM CLR 07/02 A3029 RMK AO2 SLP258 T00720017=
201910110553 METAR KBFI 110553Z 00000KT 10SM CLR 08/01 A3031 RMK AO2 SLP262 T00830011 10133 20083 58004=
201910110453 METAR KBFI 110453Z 00000KT 10SM CLR 09/01 A3032 RMK AO2 SLP266 T00940006=
201910110353 METAR KBFI 110353Z 32003KT 10SM CLR 10/01 A3032 RMK AO2 SLP267 T01000006=
201910110253 METAR KBFI 110253Z 35003KT 10SM CLR 11/02 A3032 RMK AO2 SLP267 T01060022 56010=
201910110153 METAR KBFI 110153Z VRB04KT 10SM CLR 11/03 A3033 RMK AO2 SLP270 T01110028=
201910110053 METAR KBFI 110053Z 33005KT 10SM CLR 13/01 A3034 RMK AO2 SLP272 T01280006=
201910102353 METAR KBFI 102353Z 31006KT 10SM CLR 13/00 A3035 RMK AO2 SLP277 T01330000 10139 20089 56019=
201910102253 METAR KBFI 102253Z 29007KT 10SM CLR 13/00 A3036 RMK AO2 SLP281 T01330000=
201910102153 METAR KBFI 102153Z 31006G18KT 10SM CLR 13/02 A3039 RMK AO2 SLP289 T01330017=
201910102053 METAR KBFI 102053Z 30005KT 10SM CLR 13/02 A3041 RMK AO2 SLP295 T01280017 58020=
201910101953 METAR KBFI 101953Z VRB04KT 10SM CLR 12/02 A3043 RMK AO2 SLP305 T01220017=
201910101853 METAR KBFI 101853Z 00000KT 10SM CLR 11/01 A3045 RMK AO2 SLP310 T01060011=
201910101753 METAR KBFI 101753Z VRB04KT 10SM CLR 09/02 A3047 RMK AO2 SLP316 T00890017 10089 20011 58002=
201910101653 METAR KBFI 101653Z 00000KT 6SM BR SCT006 07/03 A3047 RMK AO2 SLP317 VIS LWR S T00720028=
201910101639 SPECI KBFI 101639Z 00000KT 6SM BR SCT006 06/03 A3047 RMK AO2 VIS LWR S T00610033=
201910101623 SPECI KBFI 101623Z 00000KT 6SM BR BKN006 06/03 A3047 RMK AO2 VIS LWR S T00610033=
201910101553 METAR KBFI 101553Z 00000KT 10SM OVC006 04/02 A3047 RMK AO2 SLP319 T00440022=
201910101453 METAR KBFI 101453Z 15004KT 10SM OVC005 02/01 A3047 RMK AO2 SLP318 T00220006 58000=
201910101353 METAR KBFI 101353Z 13003KT 10SM BKN006 02/00 A3047 RMK AO2 SLP319 T00220000=
201910101331 SPECI KBFI 101331Z 00000KT 10SM FEW006 01/M01 A3048 RMK AO2 T00111006=
201910101253 METAR KBFI 101253Z 00000KT 10SM FEW015 02/00 A3047 RMK AO2 SLP318 T00220000=
201910101153 METAR KBFI 101153Z 00000KT 10SM CLR 02/00 A3047 RMK AO2 SLP318 T00220000 10061 20017 53000=
201910101053 METAR KBFI 101053Z 00000KT 10SM CLR 03/01 A3047 RMK AO2 SLP317 T00280006=
201910100953 METAR KBFI 100953Z 15004KT 10SM CLR 02/00 A3047 RMK AO2 SLP318 T00220000=
201910100853 METAR KBFI 100853Z 00000KT 10SM CLR 04/01 A3047 RMK AO2 SLP318 T00440006 53001=
201910100753 METAR KBFI 100753Z 00000KT 10SM CLR 05/00 A3047 RMK AO2 SLP316 T00500000 401170022=
201910100653 METAR KBFI 100653Z 00000KT 10SM CLR 05/M01 A3047 RMK AO2 SLP316 T00501006=
201910100553 METAR KBFI 100553Z 00000KT 10SM CLR 06/M01 A3047 RMK AO2 SLP317 T00611011 10111 20061 51012=
201910100453 METAR KBFI 100453Z 00000KT 10SM CLR 07/M01 A3046 RMK AO2 SLP314 T00671011=
201910100353 METAR KBFI 100353Z 36004KT 10SM CLR 08/M02 A3045 RMK AO2 SLP309 T00781017=
201910100253 METAR KBFI 100253Z VRB03KT 10SM CLR 09/M03 A3043 RMK AO2 SLP305 T00891028 53010=
201910100153 METAR KBFI 100153Z 36003KT 10SM CLR 09/M03 A3042 RMK AO2 SLP302 T00941028=
201910100053 METAR KBFI 100053Z VRB03KT 10SM CLR 11/M03 A3041 RMK AO2 SLP299 T01061028=
201910092353 METAR KBFI 092353Z VRB06KT 10SM CLR 11/M03 A3041 RMK AO2 SLP296 T01061028 10117 20083 55002=
201910092253 METAR KBFI 092253Z 33007KT 300V010 10SM CLR 11/M02 A3040 RMK AO2 SLP295 T01111022=
201910092153 METAR KBFI 092153Z 30006KT 10SM CLR 11/M03 A3041 RMK AO2 SLP297 T01061028=
201910092053 METAR KBFI 092053Z 32006KT 10SM SCT040 SCT160 11/M02 A3041 RMK AO2 SLP298 T01061022 51007=
201910091953 METAR KBFI 091953Z VRB03KT 10SM FEW016 SCT032 09/01 A3041 RMK AO2 SLP297 T00940006=
201910091853 METAR KBFI 091853Z 01004KT 10SM SCT025 09/00 A3041 RMK AO2 SLP295 T00940000=
201910091753 METAR KBFI 091753Z AUTO 31006KT 10SM FEW010 08/M01 A3039 RMK AO2 SLP291 T00831011 10089 20022 51016 TSNO=
201910091653 METAR KBFI 091653Z VRB03KT 10SM FEW010 SCT020 08/02 A3039 RMK AO2 SLP289 T00780017=
201910091553 METAR KBFI 091553Z 00000KT 10SM FEW010 06/03 A3037 RMK AO2 SLP282 T00560033=
201910091453 METAR KBFI 091453Z 14004KT 10SM CLR 03/02 A3034 RMK AO2 SLP275 T00280017 53028=
201910091353 METAR KBFI 091353Z 00000KT 10SM CLR 04/02 A3031 RMK AO2 SLP264 T00440022 $=
201910091253 METAR KBFI 091253Z 04003KT 10SM CLR 05/02 A3029 RMK AO2 SLP255 T00500022 $=
201910091153 METAR KBFI 091153Z 00000KT 10SM CLR 04/01 A3026 RMK AO2 SLP247 70024 T00390011 10078 20039 53023 $=
201910091053 METAR KBFI 091053Z 00000KT 10SM CLR 06/01 A3024 RMK AO2 SLP239 T00610011 $=
201910090953 METAR KBFI 090953Z 00000KT 10SM CLR 07/01 A3021 RMK AO2 SLP230 T00670011 $=
201910090853 METAR KBFI 090853Z 00000KT 10SM 07/02 A3019 RMK AO2 SLP224 T00720017 $=
201910090753 METAR KBFI 090753Z 00000KT 10SM CLR 06/03 A3017 RMK AO2 SLP216 T00610033 401220050=
201910090653 METAR KBFI 090653Z 00000KT 10SM BKN030 07/04 A3014 RMK AO2 SLP206 T00670044=
201910090553 METAR KBFI 090553Z 00000KT 10SM SCT030 07/04 A3012 RMK AO2 SLP200 60004 T00720039 10094 20067 51020=
201910090453 METAR KBFI 090453Z VRB04KT 10SM BKN025 08/04 A3010 RMK AO2 SLP193 T00830039=
201910090353 METAR KBFI 090353Z 00000KT 10SM BKN028 07/04 A3008 RMK AO2 SLP187 T00720044=
201910090253 METAR KBFI 090253Z 15005KT 10SM BKN026 OVC033 07/05 A3006 RMK AO2 SLP179 60004 T00720050 51024=
201910090224 SPECI KBFI 090224Z 00000KT 10SM BKN027 BKN033 OVC043 08/04 A3006 RMK AO2 T00780044=
201910090153 METAR KBFI 090153Z 16004KT 8SM FEW025 BKN034 OVC043 07/04 A3004 RMK AO2 RAE49 TSE49 SLP172 OCNL LTGCG NE P0002 T00720044=
201910090053 METAR KBFI 090053Z 00000KT 3SM TSRA BKN035 BKN046 OVC065 08/05 A3002 RMK AO2 RAB42 TSB53 SLP164 OCNL LTGCG NE P0002 T00780050=
201910082353 METAR KBFI 082353Z 11005KT 10SM FEW015 SCT060 BKN090 09/04 A2999 RMK AO2 SLP156 60020 T00890044 10111 20072 51016=
201910082253 METAR KBFI 082253Z 12009KT 10SM FEW030 SCT060 BKN080 09/05 A2998 RMK AO2 RAB2155E50 SLP151 VIS LWR SE P0000 T00890050=
201910082200 SPECI KBFI 082200Z 13006KT 10SM -RA FEW008 BKN032 OVC044 08/05 A2997 RMK AO2 RAB2155 VIS LWR SE P0000 T00780050=
201910082153 METAR KBFI 082153Z 15006KT 10SM SCT008 BKN023 BKN050 08/06 A2997 RMK AO2 RAE51 TSE01 SLP148 P0003 T00780056=
201910082107 SPECI KBFI 082107Z 16008KT 4SM -RA BR SCT008 BKN023 OVC034 07/05 A2995 RMK AO2 TSE01 P0002 T00720050=
201910082053 METAR KBFI 082053Z 12003KT 6SM -TSRA BR SCT008 BKN023 BKN120 07/06 A2995 RMK AO2 TSB02 SLP140 OCNL LTGCC OHD MOV NE P0012 60017 T00720056 53017=
201910082008 SPECI KBFI 082008Z VRB03KT 6SM -TSRA BR SCT008 BKN023 BKN120 08/06 A2993 RMK AO2 TSB02 OCNL LTGCC OHD MOV NE P0001 T00780056=
201910081953 METAR KBFI 081953Z 11006KT 4SM -RA BKN023 BKN120 08/06 A2993 RMK AO2 SLP133 P0003 T00830056=
201910081853 METAR KBFI 081853Z 00000KT 10SM -RA BKN023 BKN120 10/04 A2990 RMK AO2 SLP126 OCNL LTGICCG VC P0002 T01000044=
201910081753 METAR KBFI 081753Z 25007KT 210V290 9SM -RA BKN023 BKN034 BKN120 11/05 A2989 RMK AO2 RAB49 SLP123 P0000 60000 T01110050 10122 20089 51007=
201910081653 METAR KBFI 081653Z 24006KT 10SM SCT023 BKN046 BKN120 11/04 A2989 RMK AO2 SLP122 T01110044=
201910081553 METAR KBFI 081553Z 19005KT 10SM SCT023 BKN046 BKN120 11/05 A2989 RMK AO2 SLP120 T01060050=
201910081453 METAR KBFI 081453Z VRB06KT 10SM SCT020 BKN100 10/05 A2987 RMK AO2 SLP115 T01000050 56006=
201910081353 METAR KBFI 081353Z 17006KT 10SM SCT024 09/04 A2988 RMK AO2 SLP117 T00890044=
201910081253 METAR KBFI 081253Z 11008KT 10SM FEW026 BKN032 OVC047 10/06 A2988 RMK AO2 SLP118 T01000056=
201910081153 METAR KBFI 081153Z 11009KT 10SM OVC027 10/06 A2989 RMK AO2 RAE1055 SLP121 P0000 60000 T01000056 10122 20094 51006=
201910081053 METAR KBFI 081053Z 10007KT 10SM -RA BKN029 OVC038 10/06 A2989 RMK AO2 RAB11 SLP120 P0000 T01000061=
201910081000 SPECI KBFI 081000Z 06009G17KT 10SM BKN025 OVC032 11/06 A2987 RMK AO2 T01110061=
201910080953 METAR KBFI 080953Z 06010KT 10SM SCT025 BKN032 11/06 A2988 RMK AO2 SLP116 T01110061=
201910080853 METAR KBFI 080853Z 06012G19KT 10SM OVC023 11/07 A2987 RMK AO2 SLP115 T01110067 50001=
201910080753 METAR KBFI 080753Z 08008KT 10SM OVC023 11/07 A2988 RMK AO2 SLP116 T01110072 401830094=
201910080653 METAR KBFI 080653Z 08007KT 10SM OVC020 12/08 A2988 RMK AO2 SLP118 T01170078=
201910080553 METAR KBFI 080553Z 07008KT 10SM OVC017 12/08 A2987 RMK AO2 SLP114 T01220083 10172 20122 53014=
201910080453 METAR KBFI 080453Z 05008KT 10SM BKN015 OVC023 15/11 A2984 RMK AO2 SLP105 T01500111=
201910080353 METAR KBFI 080353Z VRB05KT 10SM OVC013 16/12 A2984 RMK AO2 SLP103 T01560122=
201910080253 METAR KBFI 080253Z 20009G17KT 180V250 10SM SCT008 OVC013 16/12 A2983 RMK AO2 SLP100 T01560122 55002=
201910080251 SPECI KBFI 080251Z 23007G17KT 10SM SCT008 OVC013 16/12 A2983 RMK AO2=
201910080153 METAR KBFI 080153Z 19013G23KT 170V230 10SM SCT008 BKN009 BKN020 16/13 A2982 RMK AO2 SLP097 T01560128=
201910080141 SPECI KBFI 080141Z 19012G23KT 10SM BKN009 BKN020 16/13 A2982 RMK AO2 T01560133=
201910080132 SPECI KBFI 080132Z 19011G18KT 10SM SCT008 BKN027 BKN090 16/13 A2982 RMK AO2 T01610133=
201910080053 METAR KBFI 080053Z 19011G23KT 10SM SCT010 SCT070 BKN090 16/13 A2984 RMK AO2 SLP103 T01610133=
201910072353 METAR KBFI 072353Z 19012G20KT 10SM BKN015 BKN027 OVC100 17/13 A2986 RMK AO2 SLP112 T01720128 10183 20167 58014=
201910072253 METAR KBFI 072253Z 20013G22KT 10SM BKN020 BKN027 OVC100 17/13 A2989 RMK AO2 PK WND 19028/2221 SLP120 T01720128=
201910072153 METAR KBFI 072153Z 20017G26KT 10SM SCT021 BKN033 OVC090 17/13 A2990 RMK AO2 PK WND 21026/2152 SLP125 T01720128=
201910072149 SPECI KBFI 072149Z 20012G25KT 10SM SCT021 BKN033 OVC090 17/13 A2991 RMK AO2 PK WND 20026/2126=
201910072053 METAR KBFI 072053Z 19011G22KT 10SM OVC020 18/12 A2992 RMK AO2 SLP132 T01780122 58022=
201910071953 METAR KBFI 071953Z 19014G23KT 150V210 10SM OVC019 18/12 A2995 RMK AO2 SLP141 T01780122=
201910071853 METAR KBFI 071853Z 19009G19KT 10SM OVC021 18/11 A2998 RMK AO2 PK WND 19029/1821 SLP150 T01780111=
201910071753 METAR KBFI 071753Z 19014G23KT 10SM SCT017 BKN110 17/10 A2999 RMK AO2 PK WND 20027/1733 SLP154 T01670100 10167 20106 58013=
201910071653 METAR KBFI 071653Z 18008G19KT 150V220 10SM FEW024 BKN110 16/09 A3000 RMK AO2 SLP160 T01560089=
201910071553 METAR KBFI 071553Z 15012KT 10SM FEW024 BKN110 14/08 A3002 RMK AO2 SLP165 T01390078=
201910071453 METAR KBFI 071453Z 14008KT 10SM FEW024 BKN110 12/07 A3003 RMK AO2 SLP167 T01220072=
201910071353 METAR KBFI 071353Z 15010KT 10SM SCT110 11/07 A3004 RMK AO2 SLP173 T01110072 $=
201910071253 METAR KBFI 071253Z 13009KT 10SM 11/07 A3006 RMK AO2 SLP177 T01060072 $=
201910071153 METAR KBFI 071153Z AUTO 13011KT 10SM SCT048 BKN060 OVC110 11/07 A3006 RMK AO2 SLP180 T01110072 10111 20089 56018 TSNO=
201910071053 METAR KBFI 071053Z 15008KT 10SM BKN065 OVC100 11/08 A3008 RMK AO2 SLP185 T01060078=
201910070953 METAR KBFI 070953Z 14008KT 10SM BKN100 10/07 A3010 RMK AO2 SLP191 T01000072=
201910070853 METAR KBFI 070853Z 14007KT 10SM OVC100 10/08 A3012 RMK AO2 SLP198 T01000078 58013=
201910070753 METAR KBFI 070753Z 14005KT 10SM CLR 09/07 A3013 RMK AO2 SLP203 T00940072 401720050=
201910070653 METAR KBFI 070653Z 14003KT 10SM CLR 09/07 A3015 RMK AO2 SLP208 T00890067=
201910070553 METAR KBFI 070553Z 00000KT 10SM CLR 11/08 A3016 RMK AO2 SLP211 T01060078 10161 20106 56010=
201910070453 METAR KBFI 070453Z 00000KT 10SM CLR 12/08 A3017 RMK AO2 SLP215 T01170078=
201910070353 METAR KBFI 070353Z 00000KT 10SM CLR 13/08 A3017 RMK AO2 SLP217 T01280078=
201910070253 METAR KBFI 070253Z 31003KT 10SM CLR 13/07 A3019 RMK AO2 SLP222 T01330072 56010=
201910070153 METAR KBFI 070153Z AUTO 31003KT 10SM CLR 14/08 A3019 RMK AO2 SLP223 T01440078 TSNO=
201910070053 METAR KBFI 070053Z 32007KT 10SM BKN200 16/07 A3020 RMK AO2 SLP226 T01560072=
201910062353 METAR KBFI 062353Z 30007KT 10SM FEW140 BKN200 16/07 A3022 RMK AO2 SLP232 T01610072 10172 20133 56018=
201910062253 METAR KBFI 062253Z 32005KT 10SM CLR 16/07 A3023 RMK AO2 SLP237 T01610072=
201910062153 METAR KBFI 062153Z 32007KT 10SM FEW100 17/07 A3025 RMK AO2 SLP244 T01670072=
201910062053 METAR KBFI 062053Z 30006KT 10SM FEW120 17/07 A3027 RMK AO2 SLP250 T01670072 58025=
201910061953 METAR KBFI 061953Z VRB04KT 10SM CLR 16/07 A3031 RMK AO2 SLP263 T01560072=
201910061853 METAR KBFI 061853Z 32006KT 10SM CLR 15/07 A3033 RMK AO2 SLP271 T01500067=
201910061753 METAR KBFI 061753Z VRB03KT 10SM CLR 13/07 A3035 RMK AO2 SLP275 T01330072 10133 20050 58007=
201910061653 METAR KBFI 061653Z 00000KT 10SM SCT005 11/08 A3036 RMK AO2 SLP280 T01110078=
201910061558 SPECI KBFI 061558Z 00000KT 5SM BR SCT003 09/08 A3036 RMK AO2 T00890078=
201910061553 METAR KBFI 061553Z 00000KT 1SM BR VV003 08/07 A3036 RMK AO2 SLP281 T00830072=
201910061547 SPECI KBFI 061547Z 00000KT 1SM BR VV003 08/08 A3036 RMK AO2=
201910061453 METAR KBFI 061453Z 00000KT M1/4SM FG VV002 07/06 A3037 RMK AO2 SLP283 T00670061 55007=
201910061446 SPECI KBFI 061446Z 12003KT 1/4SM FG VV002 07/06 A3037 RMK AO2 T00670056=
201910061434 SPECI KBFI 061434Z 13003KT 1/2SM FG CLR 06/04 A3037 RMK AO2 T00610044=
201910061353 METAR KBFI 061353Z 00000KT 10SM CLR 07/05 A3036 RMK AO2 SLP281 T00670050=
201910061253 METAR KBFI 061253Z 00000KT 10SM CLR 08/06 A3038 RMK AO2 SLP286 T00780061=
201910061153 METAR KBFI 061153Z 00000KT 10SM CLR 08/06 A3039 RMK AO2 SLP290 T00780061 10117 20078 58009=
201910061053 METAR KBFI 061053Z 00000KT 10SM CLR 08/06 A3040 RMK AO2 SLP295 T00830061=
201910060953 METAR KBFI 060953Z AUTO 00000KT 10SM CLR 09/07 A3042 RMK AO2 SLP300 T00890067 TSNO=
201910060853 METAR KBFI 060853Z AUTO 00000KT 10SM CLR 09/07 A3042 RMK AO2 SLP299 T00940067 50001 TSNO=
201910060753 METAR KBFI 060753Z 00000KT 10SM CLR 10/07 A3042 RMK AO2 SLP300 T01000072 401780094=
201910060653 METAR KBFI 060653Z 00000KT 10SM CLR 11/07 A3042 RMK AO2 SLP300 T01060072=
201910060553 METAR KBFI 060553Z 00000KT 10SM CLR 11/07 A3041 RMK AO2 SLP298 T01110072 10172 20111 53009=
201910060453 METAR KBFI 060453Z 00000KT 10SM CLR 12/08 A3040 RMK AO2 SLP295 T01170078=
201910060353 METAR KBFI 060353Z 00000KT 10SM CLR 14/08 A3039 RMK AO2 SLP291 T01390078=
201910060253 METAR KBFI 060253Z 00000KT 10SM CLR 14/07 A3038 RMK AO2 SLP288 T01390072 53003=
201910060153 METAR KBFI 060153Z 31003KT 10SM FEW030 15/07 A3037 RMK AO2 SLP283 T01500072=
201910060053 METAR KBFI 060053Z 35004KT 10SM FEW030 17/08 A3037 RMK AO2 SLP284 T01670078=
201910052353 METAR KBFI 052353Z 30007KT 10SM FEW030 SCT070 17/08 A3038 RMK AO2 SLP285 T01720078 10178 20139 53001=
201910052253 METAR KBFI 052253Z VRB06KT 10SM FEW031 17/08 A3037 RMK AO2 SLP283 T01720083=
201910052153 METAR KBFI 052153Z VRB03KT 10SM SCT070 17/08 A3037 RMK AO2 SLP285 T01670083=
201910052053 METAR KBFI 052053Z VRB03KT 10SM SCT022 BKN075 16/08 A3037 RMK AO2 SLP284 T01610078 58000=
201910051953 METAR KBFI 051953Z 17004KT 10SM SCT032 BKN080 16/08 A3038 RMK AO2 SLP286 T01560083=
201910051853 METAR KBFI 051853Z VRB03KT 10SM FEW032 BKN085 16/09 A3038 RMK AO2 SLP287 T01560089=
201910051753 METAR KBFI 051753Z AUTO 17004KT 10SM FEW012 SCT022 OVC026 14/09 A3037 RMK AO2 SLP285 T01390094 10139 20106 53013 TSNO=
201910051653 METAR KBFI 051653Z 14005KT 10SM OVC020 13/09 A3036 RMK AO2 SLP280 T01330089=
201910051553 METAR KBFI 051553Z 14005KT 10SM OVC020 13/09 A3035 RMK AO2 SLP275 T01280094=
201910051453 METAR KBFI 051453Z 13004KT 10SM OVC015 12/09 A3034 RMK AO2 SLP272 T01170089 53008=
201910051353 METAR KBFI 051353Z 15005KT 10SM BKN015 11/08 A3032 RMK AO2 SLP267 T01060083=
201910051253 METAR KBFI 051253Z 14004KT 10SM OVC015 12/08 A3032 RMK AO2 SLP267 T01170083=
201910051153 METAR KBFI 051153Z 00000KT 10SM BKN020 12/08 A3031 RMK AO2 SLP264 T01170083 10122 20094 53006=
201910051053 METAR KBFI 051053Z 14006KT 10SM FEW012 BKN027 09/07 A3030 RMK AO2 SLP261 T00940072=
201910050953 METAR KBFI 050953Z 15006KT 10SM FEW012 BKN027 11/08 A3030 RMK AO2 SLP259 T01060078=
201910050853 METAR KBFI 050853Z 15005KT 10SM FEW015 SCT030 12/08 A3030 RMK AO2 SLP258 T01170083 51007=
201910050753 METAR KBFI 050753Z 15007KT 10SM SCT030 BKN150 12/09 A3029 RMK AO2 SLP256 T01170089 401670100=
201910050653 METAR KBFI 050653Z 14007KT 10SM SCT025 12/09 A3029 RMK AO2 SLP256 T01170089=
201910050553 METAR KBFI 050553Z 15007KT 10SM SCT025 12/08 A3028 RMK AO2 SLP251 T01170083 10161 20117 51015=
201910050453 METAR KBFI 050453Z 14006KT 10SM SCT050 12/09 A3027 RMK AO2 SLP249 T01220089=
201910050353 METAR KBFI 050353Z 14008KT 10SM CLR 13/09 A3025 RMK AO2 SLP244 T01280089=
201910050253 METAR KBFI 050253Z 17007KT 10SM SCT060 13/09 A3023 RMK AO2 SLP236 T01330089 51016=
201910050153 METAR KBFI 050153Z 20008KT 10SM OVC065 14/07 A3021 RMK AO2 SLP231 T01440072=
201910050053 METAR KBFI 050053Z 21007KT 10SM SCT035 BKN045 BKN065 15/08 A3020 RMK AO2 SLP226 T01500078=
201910042353 METAR KBFI 042353Z 17010G18KT 10SM SCT036 BKN080 16/08 A3018 RMK AO2 SLP220 60000 T01610078 10167 20139 53010=
201910042253 METAR KBFI 042253Z 19013G19KT 10SM SCT040 BKN080 16/08 A3017 RMK AO2 SLP216 T01610083=
201910042153 METAR KBFI 042153Z 19011KT 10SM SCT040 BKN070 15/08 A3016 RMK AO2 RAB10E37 SLP213 P0000 T01500078=
201910042053 METAR KBFI 042053Z 20008G21KT 10SM SCT042 BKN050 BKN070 15/07 A3015 RMK AO2 SLP210 T01500072 51011=
201910041953 METAR KBFI 041953Z 20013G20KT 10SM FEW044 BKN060 OVC095 16/07 A3014 RMK AO2 SLP207 T01560072=
201910041853 METAR KBFI 041853Z 18010G18KT 10SM FEW028 BKN037 16/08 A3013 RMK AO2 SLP203 T01560083=
201910041753 METAR KBFI 041753Z 18011G21KT 10SM BKN060 14/08 A3012 RMK AO2 SLP199 60000 T01390078 10139 20100 51013=
201910041653 METAR KBFI 041653Z 17013G19KT 10SM SCT030 BKN048 BKN100 12/07 A3011 RMK AO2 SLP196 T01220072=
201910041553 METAR KBFI 041553Z 16008KT 10SM SCT045 BKN055 12/08 A3010 RMK AO2 SLP191 T01170083=
201910041453 METAR KBFI 041453Z 15008KT 10SM BKN050 11/07 A3008 RMK AO2 SLP186 60000 T01060072 53008=
201910041353 METAR KBFI 041353Z 14009KT 10SM BKN046 10/08 A3007 RMK AO2 SLP181 T01000078=
201910041253 METAR KBFI 041253Z 14008KT 10SM BKN050 BKN060 BKN075 10/08 A3006 RMK AO2 RAE41 SLP178 P0000 T01000078=
201910041153 METAR KBFI 041153Z 14006KT 10SM -RA OVC047 11/08 A3006 RMK AO2 SLP177 P0000 60000 70002 T01060078 10117 20100 51009=
201910041053 METAR KBFI 041053Z 16007KT 10SM -RA BKN038 BKN047 OVC055 11/07 A3005 RMK AO2 RAB33 SLP175 P0000 T01060072=
201910040953 METAR KBFI 040953Z 15006KT 10SM FEW037 FEW050 OVC065 11/08 A3004 RMK AO2 SLP173 T01060078=
201910040853 METAR KBFI 040853Z 14007KT 10SM FEW050 BKN065 10/08 A3003 RMK AO2 SLP168 T01000078 53000=
201910040753 METAR KBFI 040753Z 15007KT 10SM OVC065 11/08 A3003 RMK AO2 SLP168 T01110083 401720100=
201910040653 METAR KBFI 040653Z AUTO 14006KT 10SM BKN055 OVC070 11/08 A3003 RMK AO2 SLP167 T01110078=
201910040553 METAR KBFI 040553Z 14005KT 10SM FEW036 SCT048 BKN060 11/08 A3003 RMK AO2 SLP168 T01060078 10133 20100 51008=
201910040453 METAR KBFI 040453Z 15004KT 10SM FEW032 BKN060 11/08 A3002 RMK AO2 SLP165 T01110078=
201910040353 METAR KBFI 040353Z 17004KT 10SM FEW027 OVC034 12/09 A3001 RMK AO2 SLP163 T01220089=
201910040253 METAR KBFI 040253Z 17005KT 10SM BKN043 OVC060 12/09 A3000 RMK AO2 SLP159 T01170089 51005=
201910040153 METAR KBFI 040153Z 16005KT 10SM FEW060 SCT085 12/08 A3000 RMK AO2 SLP158 T01220083=
201910040053 METAR KBFI 040053Z 17006KT 10SM BKN055 13/08 A2999 RMK AO2 SLP156 T01330078=
201910032353 METAR KBFI 032353Z 17005KT 10SM SCT050 OVC065 13/08 A2999 RMK AO2 RAE35 SLP154 P0000 60002 T01330083 10172 20128 53008=
201910032253 METAR KBFI 032253Z VRB06KT 7SM RA SCT055 BKN080 OVC120 13/08 A2998 RMK AO2 RAB45 SLP153 P0002 T01280078=
201910032153 METAR KBFI 032153Z 23010KT 10SM CLR 17/06 A2996 RMK AO2 SLP146 T01670056=
201910032053 METAR KBFI 032053Z 22007KT 10SM FEW030 BKN075 BKN100 17/06 A2996 RMK AO2 SLP146 T01670061 58013=
201910031953 METAR KBFI 031953Z 20007KT 10SM SCT040 BKN080 BKN200 17/07 A2998 RMK AO2 SLP151 T01670067=
201910031853 METAR KBFI 031853Z 17009G15KT 10SM SCT037 BKN065 16/07 A3000 RMK AO2 SLP157 T01610067=
201910031753 METAR KBFI 031753Z 19008G15KT 10SM CLR 15/07 A3000 RMK AO2 SLP159 60000 T01500072 10150 20117 50005=
201910031653 METAR KBFI 031653Z 17012KT 10SM SCT050 SCT085 14/08 A3001 RMK AO2 SLP162 T01390078=
201910031553 METAR KBFI 031553Z 16011G16KT 10SM SCT037 OVC060 13/07 A3001 RMK AO2 SLP162 T01280072=
201910031453 METAR KBFI 031453Z 17010KT 10SM SCT030 BKN050 BKN100 12/07 A2999 RMK AO2 SLP154 60000 T01220072 53008=
201910031353 METAR KBFI 031353Z 17008KT 10SM SCT034 BKN050 OVC100 13/07 A2997 RMK AO2 RAB01E34 SLP149 P0000 T01280067=
201910031253 METAR KBFI 031253Z 15007KT 10SM SCT034 SCT044 OVC060 12/07 A2997 RMK AO2 SLP147 T01170072=
201910031153 METAR KBFI 031153Z 15007KT 10SM FEW039 BKN065 OVC075 12/07 A2996 RMK AO2 RAE34 SLP146 P0000 60000 T01220067 10139 20117 58002=
201910031053 METAR KBFI 031053Z 14006KT 10SM -RA OVC045 12/08 A2997 RMK AO2 RAE11B47 SLP147 P0000 T01170083=
201910030953 METAR KBFI 030953Z 14004KT 10SM -RA OVC050 13/07 A2997 RMK AO2 RAB45 SLP147 P0000 T01280067=
201910030853 METAR KBFI 030853Z VRB04KT 10SM OVC060 13/06 A2997 RMK AO2 SLP148 T01280061 52006=
201910030753 METAR KBFI 030753Z 15003KT 10SM OVC085 13/06 A2996 RMK AO2 SLP146 T01280061 401830044=
201910030653 METAR KBFI 030653Z 00000KT 10SM OVC090 13/06 A2996 RMK AO2 SLP144 T01330061=
201910030553 METAR KBFI 030553Z 00000KT 10SM OVC095 14/04 A2995 RMK AO2 SLP142 T01390044 10167 20133 57006=
201910030453 METAR KBFI 030453Z 00000KT 10SM BKN110 14/05 A2996 RMK AO2 SLP145 T01390050=
201910030353 METAR KBFI 030353Z 19003KT 10SM OVC110 15/03 A2996 RMK AO2 SLP145 T01500033=
201910030253 METAR KBFI 030253Z 00000KT 10SM OVC110 16/03 A2997 RMK AO2 SLP148 T01560028 56004=
201910030153 METAR KBFI 030153Z 00000KT 10SM OVC120 17/02 A2997 RMK AO2 SLP148 T01670017=
201910030053 METAR KBFI 030053Z 26003KT 10SM BKN120 16/03 A2997 RMK AO2 SLP150 T01610028=
201910022353 METAR KBFI 022353Z 25003KT 10SM BKN110 17/03 A2998 RMK AO2 SLP152 T01670028 10183 20133 56008=
201910022253 METAR KBFI 022253Z VRB03KT 10SM CLR 17/02 A2998 RMK AO2 SLP152 T01720017=
201910022153 METAR KBFI 022153Z AUTO 00000KT 10SM CLR 18/03 A2998 RMK AO2 SLP153 T01780033 TSNO=
201910022053 METAR KBFI 022053Z VRB03KT 10SM BKN200 17/04 A3000 RMK AO2 SLP160 T01720039 56021=
201910021953 METAR KBFI 021953Z 31003KT 10SM BKN200 17/03 A3002 RMK AO2 SLP165 T01720028=
201910021853 METAR KBFI 021853Z 17003KT 10SM CLR 15/02 A3004 RMK AO2 SLP171 T01500022=
201910021753 METAR KBFI 021753Z 00000KT 10SM BKN200 14/03 A3006 RMK AO2 SLP180 T01390028 10139 20044 58008=
201910021653 METAR KBFI 021653Z 18003KT 10SM CLR 11/04 A3008 RMK AO2 SLP184 T01110044=
201910021553 METAR KBFI 021553Z 16004KT 10SM CLR 08/04 A3009 RMK AO2 SLP188 T00830044=
201910021453 METAR KBFI 021453Z 17003KT 10SM CLR 06/03 A3009 RMK AO2 SLP189 T00560028 56003=
201910021353 METAR KBFI 021353Z 00000KT 10SM CLR 06/03 A3009 RMK AO2 SLP189 T00560028=
201910021253 METAR KBFI 021253Z 00000KT 10SM CLR 07/03 A3009 RMK AO2 SLP189 T00670033=
201910021153 METAR KBFI 021153Z 15004KT 10SM CLR 06/03 A3010 RMK AO2 SLP191 T00560028 10100 20056 58011=
201910021053 METAR KBFI 021053Z 00000KT 10SM CLR 08/03 A3011 RMK AO2 SLP196 T00780033=
201910020953 METAR KBFI 020953Z 12003KT 10SM CLR 08/03 A3012 RMK AO2 SLP200 T00780033=
201910020853 METAR KBFI 020853Z 15004KT 10SM CLR 07/03 A3013 RMK AO2 SLP202 T00720033 53002=
201910020753 METAR KBFI 020753Z 15004KT 10SM CLR 07/03 A3012 RMK AO2 SLP199 T00720028 401720033=
201910020653 METAR KBFI 020653Z 15003KT 10SM CLR 09/04 A3012 RMK AO2 SLP200 T00890039=
201910020553 METAR KBFI 020553Z 12003KT 10SM CLR 10/03 A3012 RMK AO2 SLP200 T01000033 10167 20089 51001=
201910020453 METAR KBFI 020453Z 00000KT 10SM CLR 11/03 A3012 RMK AO2 SLP200 T01060028=
201910020353 METAR KBFI 020353Z 00000KT 10SM CLR 12/03 A3013 RMK AO2 SLP201 T01170028=
201910020253 METAR KBFI 020253Z 00000KT 10SM CLR 13/02 A3012 RMK AO2 SLP200 T01280017 56004=
201910020153 METAR KBFI 020153Z 30003KT 10SM CLR 15/00 A3012 RMK AO2 SLP200 T01500000=
201910020053 METAR KBFI 020053Z 32005KT 10SM FEW090 16/M01 A3013 RMK AO2 SLP202 T01611006=
201910012353 METAR KBFI 012353Z 30004KT 10SM CLR 16/M02 A3014 RMK AO2 SLP204 T01611017 10172 20117 56012=
201910012253 METAR KBFI 012253Z 31004KT 10SM CLR 17/M02 A3014 RMK AO2 SLP205 T01671017=
201910012153 METAR KBFI 012153Z VRB04KT 10SM CLR 17/01 A3016 RMK AO2 SLP212 T01670006=
201910012053 METAR KBFI 012053Z 21004KT 10SM CLR 16/01 A3017 RMK AO2 SLP216 T01560011 57014=
201910011953 METAR KBFI 011953Z 00000KT 10SM CLR 14/02 A3018 RMK AO2 SLP221 T01440022=
201910011853 METAR KBFI 011853Z AUTO 13003KT 10SM CLR 13/02 A3020 RMK AO2 SLP225 T01330022 TSNO=
201910011753 METAR KBFI 011753Z AUTO 13003KT 10SM CLR 12/02 A3021 RMK AO2 SLP229 T01170022 10117 20033 58001 TSNO=
201910011653 METAR KBFI 011653Z AUTO 15004KT 10SM CLR 09/02 A3021 RMK AO2 SLP231 T00940022 TSNO=
201910011553 METAR KBFI 011553Z 14006KT 10SM CLR 07/02 A3021 RMK AO2 SLP231 T00670022=
201910011453 METAR KBFI 011453Z 14006KT 10SM CLR 04/02 A3021 RMK AO2 SLP231 T00390017 51009=
201910011353 METAR KBFI 011353Z 00000KT 10SM CLR 04/02 A3021 RMK AO2 SLP228 T00440017=
201910011253 METAR KBFI 011253Z 00000KT 10SM CLR 05/02 A3020 RMK AO2 SLP226 T00500017=
201910011153 METAR KBFI 011153Z 17005KT 10SM CLR 06/02 A3019 RMK AO2 SLP222 T00610017 10089 20044 51001=
201910011053 METAR KBFI 011053Z 16004KT 10SM CLR 04/02 A3018 RMK AO2 SLP220 T00440017=
201910010953 METAR KBFI 010953Z 15003KT 10SM CLR 06/01 A3019 RMK AO2 SLP223 T00610011=
201910010853 METAR KBFI 010853Z 11003KT 10SM CLR 08/02 A3019 RMK AO2 SLP221 T00780017 53007=
201910010753 METAR KBFI 010753Z 14006KT 10SM CLR 06/02 A3017 RMK AO2 SLP216 T00560017 401560044=
201910010653 METAR KBFI 010653Z 00000KT 10SM CLR 07/02 A3017 RMK AO2 SLP216 T00720022=
201910010553 METAR KBFI 010553Z 00000KT 10SM CLR 09/02 A3017 RMK AO2 SLP214 T00890022 10150 20083 51007=
201910010453 METAR KBFI 010453Z 00000KT 10SM CLR 10/01 A3016 RMK AO2 SLP212 T01000011=
201910010353 METAR KBFI 010353Z 00000KT 10SM CLR 11/M01 A3016 RMK AO2 SLP211 T01111006=
201910010253 METAR KBFI 010253Z 00000KT 10SM CLR 13/M01 A3014 RMK AO2 SLP207 T01281006 53013=
201910010153 METAR KBFI 010153Z VRB05KT 10SM FEW060 14/M01 A3013 RMK AO2 SLP202 T01391011=
201910010053 METAR KBFI 010053Z 32007KT 10SM FEW060 14/M01 A3012 RMK AO2 SLP198 T01441006=

# No short TAF reports from KBFI in databse.

###################################
#  large TAF from KBFI
###################################
201910312334 TAF KBFI 312334Z 0100/0124 33003KT P6SM SCT250 FM010100 00000KT
                       P6SM SCT250 FM011200 03002KT P6SM SCT250
                       FM011800 34004KT P6SM SCT250=
201910311723 TAF KBFI 311723Z 3118/0118 14003KT P6SM BKN250 FM312300 33003KT
                       P6SM SCT250 FM010100 00000KT P6SM SCT250
                       FM011200 03002KT P6SM SCT250=
201910311120 TAF KBFI 311120Z 3112/0112 14003KT P6SM BKN250 FM311900 33003KT
                       P6SM SCT250 FM010100 00000KT P6SM SCT250=
201910310534 TAF KBFI 310534Z 3106/0106 00000KT P6SM SCT250 FM310900 00000KT
                       P6SM SCT250 FM311800 VRB03KT P6SM BKN250=
201910302329 TAF KBFI 302329Z 3100/3124 31007KT P6SM SCT250 FM310300 00000KT
                       P6SM BKN250 FM310900 14003KT P6SM BKN250
                       FM312200 32005KT P6SM SCT250=
201910301720 TAF KBFI 301720Z 3018/3118 15004KT P6SM SCT250 FM302100 31005KT
                       P6SM SCT250 FM310300 00000KT P6SM BKN250
                       FM310900 14003KT P6SM BKN250=
201910301120 TAF KBFI 301120Z 3012/3112 00000KT P6SM FEW250 FM301800 34005KT
                       P6SM SCT250 FM310300 00000KT P6SM BKN250=
201910300528 TAF KBFI 300528Z 3006/3106 00000KT P6SM SKC FM301800 VRB03KT P6SM
                       FEW200=
201910292323 TAF KBFI 292323Z 3000/3024 15009KT P6SM FEW250 FM300400 00000KT
                       P6SM FEW150 FM301800 34005KT P6SM FEW200=
201910292114 KBFI 292114Z 2921/3018 12006KT P6SM FEW250 FM300200 00000KT P6SM
                       FEW150=
201910291728 TAF KBFI 291728Z 2918/3018 13008KT P6SM SKC FM292000 12007KT P6SM
                       SKC FM300200 00000KT P6SM FEW150=
201910291120 TAF KBFI 291120Z 2912/3012 14005KT P6SM SKC FM292000 33005KT P6SM
                       SKC FM300200 00000KT P6SM SKC=
201910290521 TAF KBFI 290521Z 2906/3006 00000KT P6SM SKC FM291200 VRB03KT P6SM
                       SKC FM291500 19004KT P6SM SKC=
201910282331 TAF KBFI 282331Z 2900/2924 34007KT P6SM SKC FM290700 07004KT P6SM
                       SKC FM291200 12004KT P6SM SKC FM292100 32007KT
                       P6SM SKC=
201910281735 TAF KBFI 281735Z 2818/2918 VRB03KT P6SM SCT250 FM282100 34007KT
                       P6SM SKC FM290200 07004KT P6SM SKC=
201910281121 TAF KBFI 281121Z 2812/2912 14004KT P6SM SCT120 BKN250 FM281600
                       VRB03KT P6SM FEW120 SCT250 FM282100 34007KT
                       P6SM SKC FM290200 07004KT P6SM SKC=
201910280532 TAF KBFI 280532Z 2806/2906 VRB04KT P6SM SCT200 FM282100 34007KT
                       P6SM SCT120=
201910272320 TAF KBFI 272320Z 2800/2824 30005KT P6SM SKC FM280100 VRB03KT P6SM
                       FEW250 FM281400 VRB03KT P6SM SCT250 FM282000
                       33005KT P6SM FEW250=
201910271720 TAF KBFI 271720Z 2718/2818 00000KT P6SM SCT005 SCT250
                      TEMPO 2718/2719 1/2SM FG VV002 FM271900 30005KT
                       P6SM SKC FM280100 00000KT P6SM FEW250
                      TEMPO 2810/2814 1/4SM FG VV002 FM281400 VRB03KT
                       P6SM SCT250=
201910271700 KBFI 271700Z 2717/2812 00000KT P6SM SCT007 SCT250
                      TEMPO 2717/2718 1/2SM FG VV002 FM271800 30005KT
                       P6SM SKC FM280100 00000KT P6SM FEW250=
201910271402 KBFI 271402Z 2714/2812 00000KT P6SM BKN005
                      TEMPO 2714/2715 3/4SM BR VV002 FM271500 00000KT
                       P6SM SCT007 SCT250
                      TEMPO 2715/2716 3/4SM BR BKN002 FM271800
                       30005KT P6SM SKC FM280100 00000KT P6SM FEW250=
201910271351 KBFI 271351Z 2714/2812 00000KT P6SM BKN005 FM271500 00000KT P6SM
                       SCT007 SCT250
                      TEMPO 2715/2716 BKN007 FM271800 30005KT P6SM
                       SKC FM280100 00000KT P6SM FEW250=
201910271124 TAF KBFI 271124Z 2712/2812 00000KT P6SM SCT250 FM271800 30005KT
                       P6SM SKC FM280100 00000KT P6SM FEW250=
201910270520 TAF KBFI 270520Z 2706/2806 36005KT P6SM SKC FM272000 30005KT P6SM
                       FEW250=
201910262320 TAF KBFI 262320Z 2700/2724 33011KT P6SM SCT030 SCT250 FM270300
                       VRB03KT P6SM FEW250 FM272000 27005KT P6SM
                       FEW250=
201910261720 TAF KBFI 261720Z 2618/2718 VRB03KT P6SM SCT020 BKN050 FM262100
                       33011KT P6SM SCT050 SCT250 FM270000 VRB03KT
                       P6SM FEW250=
201910261124 TAF KBFI 261124Z 2612/2712 14004KT P6SM BKN030 OVC045 FM261500
                       VRB03KT P6SM BKN050 FM262100 33011KT P6SM
                       FEW250 FM270000 36003KT P6SM SKC=
201910260905 KBFI 260905Z 2609/2706 13005KT P6SM FEW045 FEW070
                      TEMPO 2609/2612 SCT030 FM261200 VRB04KT P6SM
                       BKN018 FM261600 36006KT P6SM SCT020 FM262000
                       36010KT P6SM SCT040=
201910260520 TAF KBFI 260520Z 2606/2706 VRB04KT P6SM BKN025
                      TEMPO 2606/2610 SCT030 FM261000 VRB04KT P6SM
                       BKN018 FM261600 36006KT P6SM SCT020 FM262000
                       36010KT P6SM SCT040=
201910252320 TAF KBFI 252320Z 2600/2624 15006KT P6SM SCT050 BKN090
                      TEMPO 2600/2602 5SM -RA BR OVC030 FM260300
                       VRB03KT P6SM OVC050 FM261800 34006KT P6SM
                       SCT250=
201910251852 KBFI 251852Z 2519/2618 18012KT P6SM SCT015
                      TEMPO 2519/2521 2SM -RA BR OVC010 FM252100
                       29011KT P6SM OVC050
                      TEMPO 2521/2524 30015G23KT -RA OVC030 FM260000
                       VRB03KT P6SM OVC050=
201910251720 TAF KBFI 251720Z 2518/2618 18012KT P6SM SCT015
                      TEMPO 2518/2521 -RA OVC015 FM252100 29011KT
                       P6SM OVC050
                      TEMPO 2521/2524 30015G23KT -RA OVC030 FM260000
                       VRB03KT P6SM OVC050=
201910251127 TAF KBFI 251127Z 2512/2612 12004KT P6SM OVC050
                      TEMPO 2512/2515 P6SM -RA OVC050 FM251500
                       16009KT P6SM OVC050
                      TEMPO 2515/2518 P6SM -RA OVC050 FM251800
                       18012KT P6SM OVC020 FM252100 29011KT P6SM
                       OVC050
                      PROB30 2521/2524 P6SM -RA OVC050 FM260000
                       29003KT P6SM OVC050=
201910250520 TAF KBFI 250520Z 2506/2606 VRB03KT P6SM BKN060 FM251200 16006KT
                       P6SM SCT025 BKN040
                      TEMPO 2515/2518 -RA BKN025 BKN040 FM251800
                       32007KT P6SM VCSH BKN025 BKN050 FM252100
                       32012G20KT P6SM SCT030 BKN050 FM260300 02008KT
                       P6SM SCT030=
201910250229 KBFI 250229Z 2502/2524 VRB03KT P6SM BKN060 FM250900 17005KT P6SM
                       OVC050 FM251200 18008KT P6SM SCT018 OVC035
                       TEMPO 2515/2518 -RA BKN018 OVC035 FM251800
                       33008KT P6SM VCSH BKN030 BKN050 FM252100
                       33012G22KT P6SM SCT030 BKN050=
201910242320 TAF KBFI 242320Z 2500/2524 VRB03KT P6SM BKN060 FM250300 VRB03KT
                       P6SM OVC060 FM251200 15006KT P6SM OVC035
                       TEMPO 2515/2518 -RA OVC010 FM251800 21010KT
                       P6SM VCSH OVC030 FM252100 21010KT P6SM SCT030
                       OVC050=
201910241725 TAF KBFI 241725Z 2418/2518 16005KT P6SM BKN060 FM242200 VRB03KT
                       P6SM SCT060 BKN150 FM250300 13002KT P6SM
                       OVC100 FM250600 15002KT P6SM BKN100 FM251200
                       15006KT P6SM OVC035
                      TEMPO 2515/2518 -RA OVC010=
201910241601 KBFI 241601Z 2416/2512 00000KT P6SM VCFG SCT005 BKN060
                      TEMPO 2416/2417 5SM BR SCT003 FM241800 VRB03KT
                       P6SM SCT200 FM250300 13002KT P6SM OVC100
                       FM250600 15002KT P6SM BKN100=
201910241551 KBFI 241551Z 2416/2512 00000KT P6SM VCFG BKN005 BKN070 FM241800
                       VRB03KT P6SM SCT200 FM250300 13002KT P6SM
                       OVC100 FM250600 15002KT P6SM BKN100=
201910241126 TAF KBFI 241126Z 2412/2512 00000KT P6SM VCFG BKN005 BKN200 FM241800
                       VRB03KT P6SM SCT200 FM250300 13002KT P6SM
                       OVC100 FM250600 15002KT P6SM BKN100=
201910240520 TAF KBFI 240520Z 2406/2506 00000KT P6SM SKC FM241200 00000KT 4SM
                       BR SCT008 SCT050 OVC250 FM241800 13004KT
                       P6SM BKN250=
201910232324 TAF KBFI 232324Z 2400/2424 35003KT P6SM SCT250 FM240300 00000KT
                       P6SM SCT250 FM241200 00000KT 4SM BR SCT008
                       SCT050 OVC250 FM241800 13004KT P6SM BKN250=
201910231721 KBFI 231721Z 2317/2418 35003KT P6SM SCT002 SCT015
                      TEMPO 2317/2318 2SM BR OVC003 FM240300 00000KT
                       P6SM SCT250=
201910231720 TAF KBFI 231720Z 2318/2418 35003KT P6SM SCT002 SCT015 FM240300
                       00000KT P6SM SCT250 FM241200 12003KT 4SM
                       BR SCT004 SCT250=
201910231500 KBFI 231500Z 2315/2412 00000KT P6SM SCT003 BKN014
                      TEMPO 2315/2318 1/2SM FG OVC002 FM231800
                       33003KT P6SM SCT015 FM240300 00000KT P6SM
                       SCT250=
201910231357 KBFI 231357Z 2314/2412 00000KT P6SM SCT003 BKN014
                      TEMPO 2314/2318 1SM BR OVC003 FM231800 33003KT
                       P6SM SCT015 FM240300 00000KT P6SM SCT250=
201910231349 KBFI 231349Z 2314/2412 00000KT P6SM SCT003 BKN014
                      TEMPO 2314/2318 OVC003 FM231800 33003KT P6SM
                       SCT015 FM240300 00000KT P6SM SCT250=
201910231133 TAF KBFI 231133Z 2312/2412 00000KT P6SM FEW015 FM231400 07002KT
                       P6SM OVC015 FM231800 33003KT P6SM SCT015
                       FM240300 00000KT P6SM SCT250=
201910230902 KBFI 230902Z 2309/2406 00000KT P6SM SKC FM231100 VRB03KT P6SM OVC020
                       FM231200 VRB03KT P6SM SCT008 OVC015 FM231800
                       34005KT P6SM OVC250 FM240000 VRB03KT P6SM
                       SCT250=
201910230520 TAF KBFI 230520Z 2306/2406 VRB03KT P6SM SCT035 FM231100 VRB03KT
                       P6SM OVC020 FM231200 VRB03KT P6SM SCT008
                       OVC015 FM231800 34005KT P6SM OVC250 FM240000
                       VRB03KT P6SM SCT250=
201910230257 KBFI 230257Z 2303/2324 VRB03KT P6SM BKN035 FM231000 VRB03KT P6SM
                       OVC020 FM231200 VRB03KT P6SM SCT008 OVC015
                       FM231800 34005KT P6SM SCT015 OVC250=
201910222335 TAF KBFI 222335Z 2300/2324 29004KT P6SM SCT010 OVC025 FM230400
                       VRB03KT P6SM OVC035 FM230700 VRB03KT P6SM
                       OVC020 FM231200 VRB03KT P6SM SCT008 OVC015
                       FM231800 34005KT P6SM SCT015 OVC250=
201910222136 KBFI 222136Z 2222/2318 29006KT 4SM BR SCT008 BKN010 OVC025 FM222300
                       29004KT P6SM SCT009 OVC015 FM230400 VRB03KT
                       P6SM OVC030 FM230600 VRB03KT P6SM OVC020=
201910221720 TAF KBFI 221720Z 2218/2318 VRB03KT P6SM BKN015 OVC035 FM222100
                       29006KT P6SM OVC040 FM230400 VRB03KT P6SM
                       OVC030 FM230600 VRB03KT P6SM OVC020=
201910221627 KBFI 221627Z 2216/2312 VRB03KT P6SM BKN008 OVC016 FM221800 23007G14KT
                       P6SM SCT010 OVC035 FM230000 27004KT P6SM
                       OVC035 FM230400 06002KT P6SM BKN050 FM230600
                       00000KT P6SM OVC019=
201910221525 KBFI 221525Z 2215/2312 VRB03KT 5SM -RA BR BKN008 OVC016 FM221600
                       20007KT P6SM SCT010 OVC035 FM221800 23007G14KT
                       P6SM SCT010 OVC035 FM230000 27004KT P6SM
                       OVC035 FM230400 06002KT P6SM BKN050 FM230600
                       00000KT P6SM OVC019=
201910221125 TAF KBFI 221125Z 2212/2312 19005KT P6SM VCSH OVC018 FM221600 20007KT
                       P6SM OVC035 FM221800 23007G14KT P6SM SCT010
                       OVC035 FM230000 27004KT P6SM OVC035 FM230400
                       06002KT P6SM BKN050 FM230600 00000KT P6SM
                       OVC019=
201910220930 KBFI 220930Z 2210/2306 20008KT P6SM BKN012 BKN019 FM221100 19010KT
                       P6SM OVC010 FM221800 22008KT P6SM SCT010
                       OVC018 FM222200 24007KT P6SM BKN035 FM230000
                       VRB04KT P6SM BKN050=
201910220520 TAF KBFI 220520Z 2206/2306 18012G18KT 6SM -RA BR SCT009 BKN012
                       FM220700 17012KT 5SM -RA BR OVC007 FM221100
                       19010KT P6SM OVC010 FM221800 22008KT P6SM
                       SCT010 OVC018 FM222200 24007KT P6SM BKN035
                       FM230000 VRB04KT P6SM BKN050=
201910212323 TAF KBFI 212323Z 2200/2224 16010KT 3SM -RA BR SCT006 OVC012 FM220700
                       17012KT 3SM RA BR OVC007 FM221200 19010KT
                       P6SM -SHRA OVC009 FM221800 22008KT P6SM
                       SCT009 OVC018 FM222200 24007KT P6SM BKN035=
201910212105 KBFI 212105Z 2121/2218 15010KT 6SM -RA BR SCT012 OVC025
                      TEMPO 2121/2124 BKN012 FM220000 16009KT 5SM
                       RA BR OVC015 FM220500 16012KT 5SM -RA BR
                       OVC012 FM221200 19008KT P6SM -SHRA OVC015=
201910211727 TAF KBFI 211727Z 2118/2218 17010KT P6SM VCSH BKN025 OVC035
                      TEMPO 2118/2120 5SM -RA BKN015 FM212000 16010KT
                       6SM -RA BR BKN009 OVC015 FM220000 16009KT
                       5SM RA BR OVC015 FM220500 16012KT 5SM -RA
                       BR OVC012 FM221200 19008KT P6SM -SHRA OVC015=
201910211458 KBFI 211458Z 2115/2212 17010KT P6SM VCSH BKN015 OVC050
                      TEMPO 2115/2117 -SHRA SCT015 OVC050 FM211700
                       15009KT P6SM -RA OVC018 FM212000 16010KT
                       6SM -RA BR BKN012 OVC018 FM220000 16009KT
                       5SM RA BR OVC015 FM220500 16012KT 5SM -RA
                       BR OVC012=
201910211137 TAF KBFI 211137Z 2112/2212 19005KT P6SM SCT022 BKN060
                      TEMPO 2113/2117 -RA BKN020 OVC040 FM211700
                       15009KT P6SM -RA OVC018 FM212000 16010KT
                       6SM -RA BR BKN012 OVC018 FM220000 16009KT
                       5SM RA BR OVC015 FM220500 16012KT 5SM -RA
                       BR OVC012=
201910210523 TAF KBFI 210523Z 2106/2206 19005KT P6SM BKN020 OVC040 FM211300
                       16007KT P6SM OVC020 FM211800 15009KT 5SM
                       -RA OVC018 FM212000 16010KT 2SM -RA BR BKN009
                       OVC015 FM220400 16008KT 5SM -RA OVC015=
201910210259 KBFI 210259Z 2103/2124 11006KT 4SM RA BKN010 OVC015 FM210400 17006KT
                       P6SM BKN020 BKN050 FM211300 16007KT P6SM
                       VCSH OVC020 FM211500 15009KT 5SM -RA OVC018
                       FM212000 16010KT 2SM -RA BR BKN009 OVC015=
201910202322 TAF KBFI 202322Z 2100/2124 15006KT 6SM -RA BKN004 OVC020
                      TEMPO 2100/2102 3SM BR FM210400 17006KT P6SM
                       BKN020 BKN050 FM211300 16007KT P6SM VCSH
                       OVC020 FM211500 15009KT 5SM -RA OVC018 FM212000
                       16010KT 2SM -RA BR BKN009 OVC015=
201910202101 KBFI 202101Z 2021/2118 14009KT 6SM -RA SCT009 OVC015
                      TEMPO 2021/2023 2SM BR OVC009 FM210000 16009KT
                       P6SM VCSH BKN028 BKN050 FM210600 18006KT
                       P6SM BKN020 BKN050 FM211300 16005KT P6SM
                       VCSH OVC020 FM211500 15008KT 5SM -RA OVC018=
201910201946 KBFI 201946Z 2020/2118 15009KT 6SM -RA SCT009 OVC025
                      TEMPO 2020/2022 2SM BR OVC010 FM210000 16009KT
                       P6SM VCSH BKN028 BKN050 FM210600 18006KT
                       P6SM BKN020 BKN050 FM211300 16005KT P6SM
                       VCSH OVC020 FM211500 15008KT 5SM -RA OVC018=
201910201728 TAF KBFI 201728Z 2018/2118 14006KT 6SM -RA SCT020 OVC070 FM202000
                       15009KT 6SM -RA BR OVC025 FM210000 16009KT
                       P6SM VCSH BKN028 BKN050 FM210600 18006KT
                       P6SM BKN020 BKN050 FM211300 16005KT P6SM
                       VCSH OVC020 FM211500 15008KT 5SM -RA OVC018=
201910201615 KBFI 201615Z 2016/2112 14006KT 6SM -RA SCT025 OVC070 FM202000 15009KT
                       6SM -RA BR OVC025 FM210000 18009KT P6SM
                       VCSH BKN028 BKN050 FM210500 18008KT P6SM
                       OVC018=
201910201458 KBFI 201458Z 2015/2112 14006KT 6SM -RA BKN025 OVC070 FM201900 15009KT
                       6SM -RA BR OVC025 FM210000 18009KT P6SM
                       VCSH BKN028 BKN050 FM210500 18008KT P6SM
                       OVC018=
201910201136 TAF KBFI 201136Z 2012/2112 14006KT P6SM SCT022 BKN035 OVC090
                      TEMPO 2012/2016 BKN022 FM201600 16008KT P6SM
                       -RA BKN025 OVC050 FM201900 15009KT 6SM -RA
                       BR OVC025 FM210000 18009KT P6SM VCSH BKN028
                       BKN050 FM210500 18008KT P6SM OVC018=
201910200520 TAF KBFI 200520Z 2006/2106 16007KT P6SM SCT030 SCT080 BKN200 FM200900
                       16007KT P6SM BKN035 BKN080 OVC200 FM201500
                       18008KT P6SM -RA BKN030 OVC050 FM201900
                       18012KT 5SM -RA BR OVC025 FM210000 21012KT
                       P6SM VCSH BKN025 BKN050 FM210500 18008KT
                       P6SM OVC018=
201910192337 TAF KBFI 192337Z 2000/2024 11006KT P6SM BKN025 BKN030 OVC040 FM200200
                       16007KT P6SM VCSH BKN030 FM201600 15005KT
                       P6SM OVC025 FM201700 15005KT 5SM -RA BR
                       OVC025 FM201900 15006KT 4SM -RA BR OVC015=
201910191732 TAF KBFI 191732Z 1918/2018 16007KT P6SM -SHRA SCT007 BKN015 OVC020
                       TEMPO 1918/1920 5SM -RA BR FM192100 21011KT
                       P6SM VCSH BKN030 FM200200 18007KT P6SM VCSH
                       SCT030 BKN050 FM200800 16006KT P6SM BKN035
                       FM201400 15004KT P6SM OVC025=
201910191126 TAF KBFI 191126Z 1912/2012 12005KT P6SM -RA SCT025 OVC045
                      TEMPO 1912/1916 5SM RA BR BKN022 OVC040 FM191600
                       16007KT P6SM -SHRA BKN030 BKN050 FM192100
                       21011KT P6SM VCSH SCT030 BKN050 FM200800
                       16006KT P6SM BKN030=
201910190523 TAF KBFI 190523Z 1906/2006 15008KT P6SM VCSH SCT025 BKN050
                      TEMPO 1906/1910 -SHRA BKN025 BKN050 FM191000
                       16008KT P6SM -RA BKN025 OVC040 FM191400
                       18010KT P6SM -RA OVC018 FM192000 21012KT
                       P6SM -SHRA BKN025 BKN050=
201910190204 KBFI 190204Z 1902/1924 VRB05KT 3SM SHRA BR BKN009 OVC030 FM190300
                       15007KT P6SM VCSH BKN020 BKN040 FM191200
                       15007KT 5SM -RA BR OVC018 FM191900 20010KT
                       P6SM -SHRA BKN025 BKN050=
201910190103 KBFI 190103Z 1901/1924 VRB05KT 4SM -TSRA BKN009 BKN025CB OVC040
                       FM190200 17006KT P6SM -RA BKN035 OVC050
                       FM190700 15004KT P6SM -RA BKN020 OVC030
                       FM191200 15003KT 6SM -RA BR OVC015 FM191500
                       15003KT 5SM -RA BR OVC010 FM191800 18005KT
                       4SM -RA BR OVC015=
201910182325 TAF KBFI 182325Z 1900/1924 15010KT P6SM -RA SCT012 BKN030 OVC050
                       FM190200 17006KT P6SM SCT025 OVC050 FM190700
                       15004KT P6SM -RA BKN020 OVC030 FM191200
                       15003KT 6SM -RA BR OVC015 FM191500 15003KT
                       5SM -RA BR OVC010 FM191800 18005KT 4SM -RA
                       BR OVC015=
201910181735 TAF KBFI 181735Z 1818/1918 17012KT P6SM SHRA FEW030 SCT050 OVC120
                       FM181900 18010G16KT P6SM -RA OVC025 FM190200
                       17006KT P6SM SCT025 OVC050 FM190700 15004KT
                       P6SM -RA BKN020 OVC030 FM191200 15003KT
                       6SM -RA BR OVC015=
201910181120 TAF KBFI 181120Z 1812/1912 17008KT P6SM SCT025 BKN100
                      TEMPO 1812/1816 BKN025 OVC100 FM181900 18010G16KT
                       P6SM -RA OVC025 FM190200 17006KT P6SM SCT025
                       OVC050 FM190700 15004KT P6SM -RA BKN020
                       OVC030=
201910181015 KBFI 181015Z 1810/1906 19006KT P6SM SCT025 BKN100
                      TEMPO 1810/1814 BKN025 OVC100 FM182000 18010G18KT
                       P6SM -RA OVC030 FM182300 20007KT P6SM -RA
                       OVC050=
201910180702 KBFI 180702Z 1807/1906 17013G20KT P6SM SCT025 BKN090
                      TEMPO 1807/1809 BKN025 OVC090 FM180900 17010KT
                       P6SM SCT025 BKN070 FM181400 19010KT P6SM
                       -RA OVC050 FM182000 18010G18KT P6SM -RA
                       OVC030 FM182300 20007KT P6SM -RA OVC050=
201910180522 TAF KBFI 180522Z 1806/1906 19012G18KT P6SM BKN020 FM180900 17010KT
                       P6SM SCT025 BKN050 FM181400 19010KT P6SM
                       -RA OVC050 FM182000 18010G18KT P6SM -RA
                       OVC030 FM182300 20007KT P6SM -RA OVC050=
201910180305 KBFI 180305Z 1803/1824 19012G20KT P6SM FEW025 BKN040 BKN080 FM180900
                       17010KT P6SM VCSH SCT025 BKN050 FM181900
                       18010KT P6SM -RA OVC030=
201910172320 TAF KBFI 172320Z 1800/1824 17012G20KT P6SM -RA SCT025 BKN040 OVC060
                       TEMPO 1800/1802 5SM RA BR OVC025 FM180200
                       18008KT P6SM -RA SCT035 OVC050 FM180900
                       17010KT P6SM VCSH SCT025 BKN050 FM181900
                       18010KT P6SM -RA OVC030=
201910171732 TAF KBFI 171732Z 1718/1818 18010KT P6SM -RA SCT040 OVC060 FM172100
                       17012G20KT P6SM -RA SCT025 OVC035
                      TEMPO 1722/1802 5SM RA BR OVC025 FM180200
                       18008KT P6SM -RA SCT035 OVC050 FM180900
                       17010KT P6SM VCSH SCT025 BKN050=
201910171126 TAF KBFI 171126Z 1712/1812 17010KT P6SM FEW025 SCT035 BKN050 FM171500
                       18010KT P6SM -RA BKN030 OVC040
                      TEMPO 1716/1719 3SM RA BR OVC020 FM172100
                       17012G20KT P6SM -RA SCT025 OVC035
                      TEMPO 1722/1802 5SM RA BR OVC025 FM180500
                       18001KT P6SM SCT025 BKN050=
201910170635 KBFI 170635Z 1707/1806 17008KT P6SM FEW015 BKN045 BKN060
                      TEMPO 1707/1711 -SHRA BKN015 OVC045 FM171200
                       16008KT P6SM -SHRA BKN025 OVC040 FM171600
                       18010KT P6SM -RA BKN020 OVC040
                      TEMPO 1716/1719 3SM RA BR OVC020 FM172100
                       17010G18KT P6SM -SHRA OVC035 FM180300 18010KT
                       P6SM -SHRA OVC025=
201910170530 TAF KBFI 170530Z 1706/1806 18006KT P6SM -SHRA BKN015 OVC045 FM171200
                       16008KT P6SM -SHRA BKN025 OVC040 FM171600
                       18010KT P6SM -RA BKN020 OVC040
                      TEMPO 1716/1719 3SM RA BR OVC020 FM172100
                       17010G18KT P6SM -SHRA OVC035 FM180300 18010KT
                       P6SM -SHRA OVC025=
201910162320 TAF KBFI 162320Z 1700/1724 16010KT 5SM RA BR OVC035 FM170200 16006KT
                       P6SM -SHRA BKN040 BKN050 FM171200 16008KT
                       P6SM -SHRA BKN025 OVC040 FM171600 18010KT
                       P6SM -RA BKN020 OVC040
                      TEMPO 1716/1719 3SM RA BR OVC020 FM172100
                       17010G18KT P6SM -SHRA OVC030=
201910161755 TAF KBFI 161755Z 1618/1718 15004KT P6SM -RA OVC040 FM161900 16006KT
                       P6SM VCSH SCT030 OVC060 FM162100 17010G18KT
                       P6SM OVC050 FM170000 15010KT 5SM -RA OVC035
                       FM170300 16006KT P6SM -SHRA BKN040 BKN050
                       FM171200 16008KT P6SM -SHRA BKN025 OVC040
                       FM171600 18012KT P6SM -RA BKN020 OVC040=
201910161128 TAF KBFI 161128Z 1612/1712 15008KT P6SM -RA OVC050
                      TEMPO 1612/1615 5SM RA FM170000 15008KT 5SM
                       -RA OVC035 FM170300 18010KT P6SM -SHRA BKN035
                       BKN050=
201910160533 TAF KBFI 160533Z 1606/1706 15006KT P6SM OVC070 FM161000 15008KT
                       P6SM -RA OVC050 FM170000 17010KT P6SM -RA
                       OVC035 FM170500 17010KT P6SM -SHRA BKN035
                       BKN050=
201910152339 TAF KBFI 152339Z 1600/1624 15008KT P6SM VCSH OVC110 FM160500 15004KT
                       P6SM -RA OVC050 FM161900 15007KT P6SM VCSH
                       SCT025 OVC040=
201910151731 TAF KBFI 151731Z 1518/1618 14008KT P6SM SCT120 OVC200 FM160000
                       15008KT P6SM VCSH OVC050 FM160500 15004KT
                       P6SM -RA OVC050=
201910151120 TAF KBFI 151120Z 1512/1612 VRB03KT P6SM SCT120 OVC200 FM151800
                       13006KT P6SM OVC100 FM160000 15008KT P6SM
                       -RA OVC050=
201910150520 TAF KBFI 150520Z 1506/1606 VRB04KT P6SM BKN250 FM151600 16004KT
                       P6SM OVC100 FM152100 16010KT P6SM -RA OVC050=
201910142320 TAF KBFI 142320Z 1500/1524 VRB04KT P6SM BKN250 FM151600 12007KT
                       P6SM OVC200 FM152200 16012G20KT P6SM OVC090=
201910141720 TAF KBFI 141720Z 1418/1518 VRB04KT P6SM SCT200 FM151600 13007KT
                       P6SM BKN200=
201910141306 KBFI 141306Z 1413/1512 15004KT P6SM SCT008 BKN250
                      TEMPO 1413/1417 BKN008 BKN250 FM141800 VRB03KT
                       P6SM SCT015 BKN200 FM141900 30005KT P6SM
                       BKN200 FM150300 00000KT P6SM SCT250=
201910141122 TAF KBFI 141122Z 1412/1512 12003KT P6SM BKN015
                      TEMPO 1412/1414 SCT015 SCT250 FM141800 VRB03KT
                       P6SM SCT020 BKN200 FM141900 30005KT P6SM
                       BKN200 FM150300 00000KT P6SM SCT250=
201910141035 KBFI 141035Z 1411/1506 14003KT P6SM BKN013 OVC070
                      TEMPO 1411/1413 SCT013 BKN070 FM141700 VRB03KT
                       P6SM SCT020 FM141900 30005KT P6SM SCT200
                       FM150300 VRB03KT P6SM BKN200=
201910140527 TAF KBFI 140527Z 1406/1506 VRB03KT P6SM SCT050 BKN080 FM140800
                       VRB03KT P6SM SCT050 FM141000 00000KT P6SM
                       SCT008
                      TEMPO 1412/1416 5SM BR BKN005 FM141700 VRB03KT
                       P6SM SCT010 FM141900 30005KT P6SM SCT200
                       FM150300 VRB03KT P6SM BKN200=
201910132320 TAF KBFI 132320Z 1400/1424 VRB03KT P6SM SCT040 BKN070 FM140600
                       VRB03KT P6SM SCT050 FM141000 00000KT P6SM
                       SCT005 FM141200 00000KT P6SM BKN005
                      TEMPO 1412/1416 3SM BR BKN003 FM141700 VRB03KT
                       P6SM SCT010 FM141900 30006KT P6SM SKC=
201910131723 TAF KBFI 131723Z 1318/1418 VRB03KT P6SM SCT020 BKN070
                      TEMPO 1318/1320 BKN015 OVC060 FM132100 30005KT
                       P6SM BKN060 FM140000 34007KT P6SM SCT050
                       FM141000 VRB03KT P6SM SCT008 FM141200 12004KT
                       P6SM BKN008
                      TEMPO 1412/1416 5SM BR BKN005 FM141700 VRB04KT
                       P6SM SCT010=
201910131132 TAF KBFI 131132Z 1312/1412 00000KT P6SM OVC080 FM132000 27005KT
                       P6SM BKN050 BKN090 FM140500 VRB03KT P6SM
                       BKN040 BKN060 FM141000 00000KT P6SM BKN020
                       BKN040=
201910130522 TAF KBFI 130522Z 1306/1406 VRB03KT P6SM BKN080 OVC120 FM131100
                       VRB03KT P6SM VCSH BKN050 BKN090 FM132000
                       27005KT P6SM BKN050 BKN090 FM140500 VRB03KT
                       P6SM BKN040 BKN060=
201910122320 TAF KBFI 122320Z 1300/1324 32005KT P6SM BKN090 OVC150 FM131000
                       VRB03KT P6SM VCSH BKN040 BKN090 FM132000
                       32007KT P6SM BKN040 BKN090=
201910121720 TAF KBFI 121720Z 1218/1318 34005KT P6SM BKN090 OVC150 FM131200
                       VRB03KT P6SM BKN050 BKN090=
201910121124 TAF KBFI 121124Z 1212/1312 00000KT P6SM BKN250 FM121800 32003KT
                       P6SM BKN120 OVC200 FM130100 00000KT P6SM
                       OVC090=
201910120520 TAF KBFI 120520Z 1206/1306 VRB04KT P6SM SCT250 FM120900 VRB03KT
                       P6SM BKN200 FM121400 VRB04KT P6SM BKN120
                       OVC200 FM121800 31005KT P6SM OVC100 FM130100
                       VRB03KT P6SM OVC080=
201910112320 TAF KBFI 112320Z 1200/1224 31006KT P6SM SCT250 FM120600 VRB04KT
                       P6SM BKN250 FM121200 VRB04KT P6SM BKN120
                       OVC200 FM121700 31006KT P6SM OVC090=
201910111720 TAF KBFI 111720Z 1118/1218 VRB03KT P6SM SCT250 FM120600 12006KT
                       P6SM BKN250 FM121200 VRB03KT P6SM BKN120
                       OVC200 FM121700 VRB03KT P6SM OVC090=
201910111121 TAF KBFI 111121Z 1112/1212 00000KT P6SM FEW250 FM111800 31006KT
                       P6SM FEW250 FM120400 00000KT P6SM SCT250=
201910110520 TAF KBFI 110520Z 1106/1206 VRB03KT P6SM SCT250 FM111800 31006KT
                       P6SM SKC=
201910102320 TAF KBFI 102320Z 1100/1124 31006KT P6SM FEW250 FM110600 VRB03KT
                       P6SM SCT250 FM111800 31006KT P6SM SKC=
201910101720 TAF KBFI 101720Z 1018/1118 34006KT P6SM SKC FM110600 VRB03KT P6SM
                       SKC=
201910101425 KBFI 101425Z 1014/1112 VRB03KT P6SM SCT005
                      TEMPO 1014/1017 5SM BR BKN005 FM101900 33005KT
                       P6SM SKC FM110400 00000KT P6SM SKC=
201910101120 TAF KBFI 101120Z 1012/1112 00000KT P6SM SKC FM101900 33005KT P6SM
                       SKC FM110400 00000KT P6SM SKC=
201910100524 TAF KBFI 100524Z 1006/1106 VRB03KT P6SM SKC FM101900 33005KT P6SM
                       SKC FM110400 VRB03KT P6SM SKC=
201910092320 TAF KBFI 092320Z 1000/1024 34007KT P6SM SKC FM100600 VRB03KT P6SM
                       SKC=
201910091720 TAF KBFI 091720Z 0918/1018 VRB03KT P6SM SKC FM092100 36007KT P6SM
                       SKC FM100600 VRB03KT P6SM SKC=
201910091137 TAF KBFI 091137Z 0912/1012 VRB03KT P6SM SCT250 FM091400 03006KT
                       P6SM SCT250 FM092000 36010KT P6SM SKC FM100400
                       03004KT P6SM SKC=
201910090523 TAF KBFI 090523Z 0906/1006 VRB04KT P6SM BKN035 FM090700 VRB03KT
                       P6SM SCT250 FM092000 33005KT P6SM FEW250=
201910090302 KBFI 090302Z 0903/0924 VRB05KT P6SM SCT040 BKN080
                      TEMPO 0903/0905 BKN025 OVC040 FM090500 06002KT
                       P6SM BKN060 FM090800 VRB03KT P6SM SCT250
                       FM092000 33005KT P6SM FEW250=
201910082320 TAF KBFI 082320Z 0900/0924 13007KT P6SM VCSH FEW030 SCT060 BKN080
                       FM090200 10005KT P6SM SCT060 BKN080 FM090400
                       06002KT P6SM BKN060 FM090800 VRB03KT P6SM
                       SCT250 FM092000 33005KT P6SM FEW250=
201910081726 TAF KBFI 081726Z 0818/0918 22008KT P6SM VCSH SCT025 BKN050
                      TEMPO 0818/0822 -SHRA OVC020 FM082300 32007KT
                       P6SM BKN035 FM090100 34005KT P6SM BKN050
                       FM090400 06002KT P6SM BKN060 FM090800 VRB03KT
                       P6SM SCT250=
201910081138 TAF KBFI 081138Z 0812/0912 10008KT P6SM -RA BKN025 OVC035 FM081500
                       17008G15KT P6SM BKN035 FM081800 22008G15KT
                       P6SM -SHRA OVC020 FM082300 32007KT P6SM
                       BKN035 FM090100 34005KT P6SM BKN050 FM090400
                       06002KT P6SM BKN060 FM090800 08002KT P6SM
                       SCT250=
201910080529 TAF KBFI 080529Z 0806/0906 22008KT P6SM VCSH BKN015 OVC025 FM081800
                       22008G15KT P6SM -SHRA OVC020 FM082300 34007KT
                       P6SM BKN025 FM090100 01005KT P6SM BKN050
                       FM090400 07003KT P6SM SCT250=
201910080212 KBFI 080212Z 0802/0824 19010G20KT P6SM VCSH BKN015
                      TEMPO 0802/0805 BKN009 FM080800 18007KT P6SM
                       VCSH BKN025 FM081800 22008KT P6SM -SHRA
                       OVC020=
201910072326 TAF KBFI 072326Z 0800/0824 17012G18KT P6SM BKN020 OVC030 FM080200
                       19010G20KT P6SM -RA BKN015 FM080800 18007KT
                       P6SM VCSH BKN025 FM081800 22008KT P6SM -SHRA
                       OVC020=
201910071720 TAF KBFI 071720Z 0718/0818 18012KT P6SM VCSH BKN025 OVC050 FM072000
                       17012G18KT P6SM BKN020 OVC030 FM080200 19010G20KT
                       5SM -RA BKN015 FM080800 18007KT P6SM VCSH
                       BKN025=
201910071139 TAF KBFI 071139Z 0712/0812 15008KT P6SM BKN060 BKN080 OVC100 FM071300
                       15008KT P6SM OVC050 FM071500 15010KT P6SM
                       VCSH SCT030 OVC050 FM071800 16012KT P6SM
                       VCSH BKN030 OVC050 FM072000 17012G18KT P6SM
                       BKN020 OVC030 FM080200 19010G20KT 5SM -RA
                       BKN015=
201910070531 TAF KBFI 070531Z 0706/0806 VRB03KT P6SM BKN200 FM070900 VRB03KT
                       P6SM OVC100 FM071200 15005KT P6SM OVC050
                       FM071500 15010KT P6SM VCSH SCT030 OVC050
                       FM072000 17010G15KT P6SM -RA SCT019 OVC050=
201910062327 TAF KBFI 062327Z 0700/0724 32005KT P6SM SCT120 BKN220 FM070900
                       VRB03KT P6SM OVC100 FM071200 15005KT P6SM
                       VCSH OVC050 FM071500 15010KT P6SM -RA SCT030
                       OVC050 FM071900 17010KT P6SM -RA SCT019
                       OVC050=
201910061731 TAF KBFI 061731Z 0618/0718 32003KT P6SM SCT005 SCT250 FM070900
                       13002KT P6SM OVC100 FM071200 15005KT P6SM
                       VCSH OVC050 FM071500 15007KT P6SM -RA OVC050=
201910061439 KBFI 061439Z 0615/0712 00000KT P6SM SKC
                      TEMPO 0615/0617 1/2SM FG BKN004 FM061800
                       01003KT P6SM SKC FM070500 08001KT P6SM OVC120=
201910061347 KBFI 061347Z 0614/0712 00000KT P6SM SKC
                      TEMPO 0614/0617 2SM BR FEW003 FM061800 01003KT
                       P6SM SKC FM070500 08001KT P6SM OVC120=
201910061135 TAF KBFI 061135Z 0612/0712 VRB03KT P6SM SKC FM061300 00000KT P6SM
                       SKC
                      TEMPO 0613/0617 2SM BR OVC003 FM061800 01003KT
                       P6SM SKC FM070500 08001KT P6SM OVC120=
201910060521 TAF KBFI 060521Z 0606/0706 VRB03KT P6SM FEW030 FM061300 00000KT
                       P6SM BKN008
                      TEMPO 0613/0617 2SM BR OVC008 FM061800 32003KT
                       P6SM BKN250=
201910052324 TAF KBFI 052324Z 0600/0624 VRB06KT P6SM FEW030 SCT080 FM060200
                       01003KT P6SM SCT080 FM061300 00000KT P6SM
                       BKN008
                      TEMPO 0613/0617 2SM BR OVC008 FM061800 32003KT
                       P6SM BKN250=
201910051720 TAF KBFI 051720Z 0518/0618 14005KT P6SM VCSH OVC020 FM052000 19005KT
                       P6SM VCSH SCT025 BKN050 FM052300 33004KT
                       P6SM SCT050 SCT200 FM060400 00000KT P6SM
                       SCT250=
201910051459 KBFI 051459Z 0515/0612 13004KT P6SM VCSH OVC015 FM051800 VRB03KT
                       P6SM VCSH SCT030 BKN050 FM052300 32005KT
                       P6SM SCT050 SCT200 FM060600 03001KT P6SM
                       SCT250=
201910051129 TAF KBFI 051129Z 0512/0612 14006KT P6SM FEW010 BKN025 FM051400
                       14003KT P6SM OVC030 FM051800 VRB03KT P6SM
                       VCSH SCT030 BKN050 FM052300 32005KT P6SM
                       SCT050 SCT200 FM060600 03001KT P6SM SCT250=
201910050520 TAF KBFI 050520Z 0506/0606 16006KT P6SM SCT050 BKN180 FM051400
                       14003KT P6SM OVC030 FM051800 VRB03KT P6SM
                       VCSH SCT030 BKN050 FM052300 32005KT P6SM
                       SCT050 SCT200=
201910050259 KBFI 050259Z 0503/0524 18008KT P6SM VCSH FEW035 SCT060 BKN200 FM051500
                       14003KT P6SM OVC030 FM051800 VRB03KT P6SM
                       VCSH SCT030 BKN050 FM052300 29005KT P6SM
                       SCT050 SCT200=
201910042334 TAF KBFI 042334Z 0500/0524 19013G19KT P6SM VCSH SCT040 BKN080 BKN250
                       FM051500 14003KT P6SM OVC030 FM051800 VRB03KT
                       P6SM VCSH SCT030 BKN050 FM052300 29005KT
                       P6SM SCT050 SCT200=
201910041726 TAF KBFI 041726Z 0418/0518 17013G19KT P6SM SCT030 BKN050 BKN100
                       FM041900 17008KT P6SM -SHRA SCT035 BKN050
                       BKN070 FM050400 16006KT P6SM SCT035 BKN050
                       FM051100 16006KT P6SM BKN015 OVC025=
201910041141 TAF KBFI 041141Z 0412/0512 17008KT P6SM -SHRA BKN035 OVC050 FM041900
                       17008KT P6SM -SHRA SCT035 BKN050 BKN070
                       FM050400 16006KT P6SM SCT035 BKN050 FM051100
                       16006KT P6SM BKN015 OVC025=
201910040909 KBFI 040909Z 0409/0506 15005KT P6SM BKN045 OVC070 FM041400 15005KT
                       P6SM BKN035 OVC050 FM041900 18008KT P6SM
                       -SHRA SCT035 BKN050 BKN070 FM050400 16006KT
                       P6SM SCT035 BKN050=
201910040539 TAF KBFI 040539Z 0406/0506 15005KT P6SM VCSH BKN060 BKN200
                      TEMPO 0406/0410 P6SM -SHRA BKN030 FM041000
                       15005KT P6SM VCSH OVC025 FM041800 18007KT
                       P6SM -SHRA OVC035 FM042300 19009KT P6SM
                       VCSH BKN040 BKN070 FM050500 16006KT P6SM
                       BKN040=
201910032320 TAF KBFI 032320Z 0400/0424 VRB06KT P6SM VCSH SCT060 BKN080 OVC120
                       TEMPO 0400/0404 P6SM -SHRA OVC040 FM041200
                       15005KT P6SM VCSH OVC045 FM041900 18006KT
                       P6SM VCSH OVC040=
201910032208 KBFI 032208Z 0322/0418 23010KT P6SM BKN080 BKN100
                      TEMPO 0322/0324 P6SM -TSRA BKN030 BKN050CB
                       FM040000 20006KT P6SM VCSH BKN040 OVC100
                       TEMPO 0400/0404 P6SM -SHRA OVC040 FM041200
                       15003KT P6SM VCSH OVC040 FM041500 15004KT
                       P6SM OVC035=
201910031727 TAF KBFI 031727Z 0318/0418 17012KT P6SM SCT050 SCT090
                      TEMPO 0320/0324 P6SM -SHRA BKN030 BKN050
                       FM040000 20006KT P6SM VCSH BKN040 OVC100
                       TEMPO 0400/0404 P6SM -SHRA OVC040 FM041200
                       15003KT P6SM VCSH OVC040 FM041500 15004KT
                       P6SM OVC035=
201910031138 TAF KBFI 031138Z 0312/0412 16008KT P6SM SCT025 BKN040 OVC050
                      TEMPO 0316/0320 -SHRA BKN025 OVC040 FM032000
                       16008KT P6SM -SHRA SCT025 BKN040 OVC050
                       FM040400 16008KT P6SM SCT030 BKN050=
201910030538 TAF KBFI 030538Z 0306/0406 VRB03KT P6SM OVC090 FM031200 15004KT
                       P6SM VCSH OVC050 FM031700 17007KT P6SM -RA
                       OVC040 FM032100 19007KT P6SM -SHRA SCT030
                       OVC050 FM040500 16005KT P6SM VCSH BKN040=
201910022334 TAF KBFI 022334Z 0300/0324 VRB03KT P6SM BKN120 OVC200 FM031200
                       15004KT P6SM VCSH OVC050 FM031500 VRB03KT
                       P6SM -RA OVC040 FM032100 17005KT P6SM VCSH
                       SCT030 BKN050=
201910021731 TAF KBFI 021731Z 0218/0318 18003KT P6SM FEW150 BKN250 FM030200
                       15002KT P6SM BKN100 OVC200 FM031100 15004KT
                       P6SM VCSH BKN030 OVC050 FM031500 17006KT
                       P6SM -RA OVC030=
201910021132 TAF KBFI 021132Z 0212/0312 VRB03KT P6SM SCT200 FM021600 17003KT
                       P6SM SCT120 BKN200 FM022100 26005KT P6SM
                       OVC100 FM030700 14004KT P6SM OVC050=
201910020531 TAF KBFI 020531Z 0206/0306 VRB03KT P6SM SCT200 FM021600 VRB03KT
                       P6SM SCT120 BKN200 FM022100 26005KT P6SM
                       OVC100 FM030500 14004KT P6SM OVC070=
201910012332 TAF KBFI 012332Z 0200/0224 31004KT P6SM FEW120 FM020300 VRB03KT
                       P6SM FEW120 FM021600 VRB03KT P6SM BKN120
                       FM022300 24006KT P6SM OVC080=
201910011724 TAF KBFI 011724Z 0118/0218 15005KT P6SM SCT150 FM012100 26005KT
                       P6SM SCT120 FM020300 VRB03KT P6SM SCT100
                       FM021700 VRB03KT P6SM BKN120=
201910011132 TAF KBFI 011132Z 0112/0212 14003KT P6SM SCT250 FM012100 30005KT
                       P6SM SCT200 FM020300 VRB03KT P6SM SCT200=
201910010537 TAF KBFI 010537Z 0106/0206 VRB03KT P6SM SKC FM012100 30005KT P6SM
                       SCT200 FM020300 VRB03KT P6SM SCT200=