##########################################################
# Query made at 02/17/2025 06:33:58 UTC
# Time interval: from 11/01/2020 00:00  to 11/30/2020 23:59  UTC
##########################################################

##########################################################
# KBFI, Seattle, Seattle Boeing Field (United States)
# WMO index: -----. WIGOS ID: Unknown
# Latitude 47-32-45N. Longitude 122-18-49W. Altitude 5 m.
##########################################################

###################################
#  METAR/SPECI from KBFI
###################################
202011302353 METAR KBFI 302353Z 21008KT 10SM FEW080CB 09/02 A3030 RMK AO2 SLP260 T00940017 10106 20094 53041=
202011302253 METAR KBFI 302253Z 25007KT 10SM CLR 11/02 A3026 RMK AO2 SLP246 T01060022=
202011302153 METAR KBFI 302153Z 23007G17KT 190V260 10SM FEW015 SCT026 11/03 A3022 RMK AO2 SLP233 T01060028=
202011302053 METAR KBFI 302053Z 23008G17KT 10SM FEW100 11/04 A3018 RMK AO2 SLP220 T01060039 51050=
202011301953 METAR KBFI 301953Z 22007G15KT 10SM FEW012 SCT020 10/04 A3014 RMK AO2 SLP207 T01000044=
202011301853 METAR KBFI 301853Z 22008G21KT 10SM CLR 10/04 A3010 RMK AO2 SLP191 T01000039=
202011301753 METAR KBFI 301753Z 20010G20KT 10SM FEW019 SCT220 09/04 A3003 RMK AO2 SLP169 60016 T00940044 10094 20056 53046=
202011301653 METAR KBFI 301653Z 22009G17KT 10SM SCT019 BKN026 08/04 A2998 RMK AO2 PRESRR SLP153 T00830044=
202011301553 METAR KBFI 301553Z 20011G21KT 10SM BKN019 BKN026 08/06 A2992 RMK AO2 PK WND 17027/1504 RAE26 SLP131 P0002 T00830061=
202011301453 METAR KBFI 301453Z 18014G25KT 10SM -RA SCT022 BKN028 OVC035 08/06 A2990 RMK AO2 PK WND 17032/1434 RAB1357 SLP123 P0002 60014 T00780056 53016=
202011301442 SPECI KBFI 301442Z 17020G32KT 10SM -RA SCT024 BKN030 OVC039 08/06 A2989 RMK AO2 PK WND 17032/1434 RAB1357 P0002 T00780056=
202011301353 METAR KBFI 301353Z 17013G20KT 10SM BKN029 BKN034 OVC044 08/05 A2986 RMK AO2 PK WND 16028/1340 RAE40 SLP111 P0000 T00780050=
202011301253 METAR KBFI 301253Z 16014KT 10SM -RA FEW016 BKN049 OVC070 07/06 A2987 RMK AO2 SLP114 P0012 T00720056=
202011301153 METAR KBFI 301153Z 12007KT 4SM RA BR OVC042 06/05 A2985 RMK AO2 SLP107 P0020 60022 70022 T00610050 10067 20028 56025=
202011301053 METAR KBFI 301053Z 27008KT 6SM -RA OVC047 07/04 A2989 RMK AO2 RAB33 PRESRR SLP120 P0002 T00670039=
202011300953 METAR KBFI 300953Z 14010KT 10SM BKN060 OVC120 05/03 A2987 RMK AO2 RAB27E38 SLP115 P0000 T00500033=
202011300853 METAR KBFI 300853Z 17005KT 10SM BKN095 OVC120 06/04 A2992 RMK AO2 SLP132 T00560039 56028=
202011300753 METAR KBFI 300753Z 00000KT 8SM FEW080 04/03 A2995 RMK AO2 SLP142 T00390028 400560011=
202011300653 METAR KBFI 300653Z 00000KT 10SM BKN080 03/03 A2998 RMK AO2 SLP150 T00330028=
202011300553 METAR KBFI 300553Z 00000KT 10SM FEW080 04/03 A3001 RMK AO2 SLP160 T00390028 10044 20028 58023=
202011300453 METAR KBFI 300453Z 19004KT 10SM FEW080 04/03 A3003 RMK AO2 SLP169 T00390028=
202011300353 METAR KBFI 300353Z 14006KT 9SM FEW085 03/02 A3006 RMK AO2 SLP179 T00280022=
202011300253 METAR KBFI 300253Z 16004KT 8SM OVC090 04/04 A3007 RMK AO2 SLP183 T00390039 56013=
202011300158 SPECI KBFI 300158Z 15004KT 3SM SCT002 03/03 A3008 RMK AO2 T00280028=
202011300153 METAR KBFI 300153Z 14005KT 3/4SM BR BKN002 03/03 A3007 RMK AO2 SLP183 T00330028=
202011300053 METAR KBFI 300053Z 16005KT 1/4SM FG VV002 04/04 A3009 RMK AO2 SLP189 T00390039=
202011292353 METAR KBFI 292353Z 16005KT M1/4SM FG VV002 04/04 A3011 RMK AO2 SLP196 T00440044 10056 20017 56021=
202011292340 SPECI KBFI 292340Z 15004KT M1/4SM FG VV002 04/04 A3011 RMK AO2 T00440039=
202011292253 METAR KBFI 292253Z 17003KT 1/2SM FG OVC003 05/04 A3011 RMK AO2 SLP197 T00500044=
202011292228 SPECI KBFI 292228Z 16003KT 1/2SM FG OVC003 05/04 A3012 RMK AO2 T00500044=
202011292153 METAR KBFI 292153Z 00000KT 1SM BR BKN004 06/04 A3014 RMK AO2 SLP206 T00560044=
202011292100 SPECI KBFI 292100Z 00000KT 3/4SM BR BKN004 04/04 A3017 RMK AO2 T00440039=
202011292053 METAR KBFI 292053Z 00000KT 3/4SM BR BKN004 04/04 A3017 RMK AO2 SLP217 T00440044 58032=
202011292033 SPECI KBFI 292033Z 00000KT 3/4SM BR OVC003 04/04 A3019 RMK AO2 T00390039=
202011291953 METAR KBFI 291953Z 00000KT 1/4SM FG VV003 04/04 A3021 RMK AO2 SLP228 T00390039=
202011291853 METAR KBFI 291853Z 00000KT M1/4SM FG VV002 03/03 A3025 RMK AO2 SLP242 T00330033=
202011291753 METAR KBFI 291753Z 00000KT 1/4SM FG VV002 02/02 A3027 RMK AO2 SLP249 T00170017 10022 20011 58008=
202011291653 METAR KBFI 291653Z 00000KT M1/4SM FG VV002 02/02 A3028 RMK AO2 SLP254 T00170017=
202011291553 METAR KBFI 291553Z 14004KT M1/4SM FG VV002 01/01 A3029 RMK AO2 SLP255 T00110011=
202011291453 METAR KBFI 291453Z 16004KT 1/4SM FG VV002 02/02 A3029 RMK AO2 SLP257 T00170017 55002=
202011291353 METAR KBFI 291353Z 14003KT 1/4SM FG VV002 02/02 A3029 RMK AO2 SLP256 T00170017=
202011291253 METAR KBFI 291253Z AUTO 00000KT 1/4SM FG VV002 02/02 A3029 RMK AO2 SLP258 T00170017 TSNO=
202011291153 METAR KBFI 291153Z AUTO 00000KT 1/4SM FG VV002 02/02 A3030 RMK AO2 SLP259 T00220022 10044 20022 58019 TSNO=
202011291053 METAR KBFI 291053Z 00000KT 1/4SM FG VV002 03/03 A3032 RMK AO2 SLP267 T00280028=
202011290953 METAR KBFI 290953Z 16004KT 1/4SM FG VV002 03/02 A3033 RMK AO2 SLP271 T00280022=
202011290853 METAR KBFI 290853Z 00000KT 1/4SM FG VV002 02/02 A3035 RMK AO2 SLP278 T00220022 58004=
202011290826 SPECI KBFI 290826Z 17004KT 1/4SM FG VV002 02/02 A3037 RMK AO2 T00220022=
202011290815 SPECI KBFI 290815Z 13003KT 1/2SM FG VV002 03/02 A3036 RMK AO2 T00280022=
202011290753 METAR KBFI 290753Z 14003KT 1/4SM FG VV002 03/03 A3037 RMK AO2 SLP283 T00330028 400890033=
202011290653 METAR KBFI 290653Z 00000KT 1/4SM FG VV002 04/04 A3037 RMK AO2 SLP282 T00390039=
202011290553 METAR KBFI 290553Z 16003KT 1/4SM FG VV002 04/04 A3037 RMK AO2 SLP282 T00390039 10083 20033 58004=
202011290530 SPECI KBFI 290530Z 15004KT 1/4SM FG VV003 04/03 A3037 RMK AO2 T00390033=
202011290453 METAR KBFI 290453Z 00000KT 1SM BR BKN004 BKN018 04/03 A3037 RMK AO2 SLP284 T00390028=
202011290430 SPECI KBFI 290430Z 00000KT 2SM BR BKN006 OVC018 04/03 A3037 RMK AO2 T00390028=
202011290404 SPECI KBFI 290404Z 00000KT 10SM BKN014 04/04 A3038 RMK AO2 T00440039=
202011290353 METAR KBFI 290353Z 00000KT 10SM SCT006 BKN030 05/04 A3038 RMK AO2 SLP286 T00500039=
202011290318 SPECI KBFI 290318Z 00000KT 10SM SCT005 05/04 A3038 RMK AO2 T00500039=
202011290253 METAR KBFI 290253Z 00000KT 10SM CLR 03/03 A3038 RMK AO2 SLP286 T00330028 58004=
202011290153 METAR KBFI 290153Z 00000KT 10SM CLR 06/04 A3039 RMK AO2 SLP290 T00610044=
202011290053 METAR KBFI 290053Z 00000KT 10SM FEW015 BKN026 BKN031 07/04 A3039 RMK AO2 SLP290 T00720044=
202011282353 METAR KBFI 282353Z 00000KT 10SM FEW015 BKN026 BKN031 08/05 A3039 RMK AO2 SLP291 60000 T00830050 10089 20072 51004=
202011282253 METAR KBFI 282253Z VRB03KT 10SM FEW015 BKN026 BKN031 08/04 A3039 RMK AO2 SLP289 T00830044=
202011282153 METAR KBFI 282153Z 00000KT 10SM SCT009 BKN015 OVC023 08/06 A3040 RMK AO2 SLP292 T00830061=
202011282053 METAR KBFI 282053Z 00000KT 10SM FEW010 OVC019 08/06 A3038 RMK AO2 RAE09 SLP287 P0000 60000 T00780061 51003=
202011281953 METAR KBFI 281953Z 04005KT 6SM -RA BR BKN015 OVC032 07/05 A3038 RMK AO2 RAB46 SLP286 P0000 T00720050=
202011281853 METAR KBFI 281853Z 17003KT 10SM FEW010 BKN021 BKN038 09/07 A3038 RMK AO2 SLP286 T00890067=
202011281753 METAR KBFI 281753Z 00000KT 10SM SCT008 BKN022 OVC035 08/07 A3037 RMK AO2 SLP283 60000 T00830067 10083 20072 51029=
202011281653 METAR KBFI 281653Z 16003KT 8SM SCT008 BKN032 BKN041 07/07 A3034 RMK AO2 RAE01B21E38 SLP273 P0000 T00720067=
202011281553 METAR KBFI 281553Z 00000KT 5SM -RA BR OVC007 07/07 A3032 RMK AO2 RAB45 CIG 006V011 SLP268 P0000 T00720067=
202011281453 METAR KBFI 281453Z 14004KT 10SM OVC008 08/07 A3028 RMK AO2 SLP254 T00780067 53011=
202011281353 METAR KBFI 281353Z 13004KT 10SM OVC008 07/07 A3026 RMK AO2 CIG 006V010 SLP245 T00720067=
202011281300 SPECI KBFI 281300Z 14005KT 9SM FEW005 OVC042 07/07 A3025 RMK AO2 T00720067=
202011281253 METAR KBFI 281253Z 15005KT 8SM OVC041 07/07 A3026 RMK AO2 SLP245 T00720067=
202011281216 SPECI KBFI 281216Z 15005KT 4SM BR BKN030 OVC036 07/07 A3025 RMK AO2 T00720067=
202011281206 SPECI KBFI 281206Z 15005KT 4SM BR SCT012 BKN028 OVC036 07/07 A3025 RMK AO2 T00720067=
202011281153 METAR KBFI 281153Z 15005KT 6SM BR FEW006 BKN013 OVC040 07/07 A3025 RMK AO2 SLP243 60000 T00720067 10089 20072 53013=
202011281122 SPECI KBFI 281122Z 00000KT 8SM SCT006 BKN022 OVC027 07/07 A3024 RMK AO2 T00720067=
202011281106 SPECI KBFI 281106Z 14004KT 10SM SCT011 OVC022 07/07 A3024 RMK AO2 T00720067=
202011281053 METAR KBFI 281053Z 13005KT 6SM BR FEW005 BKN011 OVC021 07/06 A3024 RMK AO2 SLP238 T00720061=
202011281032 SPECI KBFI 281032Z AUTO 14003KT 10SM BKN005 OVC018 07/07 A3023 RMK AO2 CIG 005V010 T00720067 TSNO=
202011281024 SPECI KBFI 281024Z AUTO 00000KT 10SM SCT007 OVC018 07/07 A3023 RMK AO2 T00720067 TSNO=
202011280953 METAR KBFI 280953Z AUTO 00000KT 5SM BR OVC018 07/06 A3022 RMK AO2 RAE35 SLP234 P0000 T00720061 TSNO=
202011280853 METAR KBFI 280853Z 00000KT 10SM -RA OVC018 08/05 A3021 RMK AO2 RAB40 SLP230 P0000 60000 T00830050 53015=
202011280753 METAR KBFI 280753Z VRB05KT 10SM OVC023 09/04 A3020 RMK AO2 RAE0659 SLP226 P0000 T00890044 401110061=
202011280712 SPECI KBFI 280712Z 20007G17KT 10SM OVC023 08/04 A3018 RMK AO2 RAE0659 P0000 T00830044=
202011280653 METAR KBFI 280653Z 19011G18KT 10SM -RA OVC070 08/04 A3016 RMK AO2 RAB45 SLP213 P0000 T00830044=
202011280553 METAR KBFI 280553Z 17006KT 10SM OVC038 08/04 A3017 RMK AO2 SLP215 T00780039 10094 20067 53015=
202011280453 METAR KBFI 280453Z 16009KT 10SM OVC050 07/04 A3015 RMK AO2 SLP208 T00720039=
202011280353 METAR KBFI 280353Z 15007KT 10SM CLR 07/03 A3012 RMK AO2 SLP200 T00720033=
202011280253 METAR KBFI 280253Z 15008KT 10SM CLR 07/03 A3012 RMK AO2 SLP200 T00670033 56014=
202011280153 METAR KBFI 280153Z 15005KT 10SM CLR 07/03 A3013 RMK AO2 SLP203 T00670033=
202011280053 METAR KBFI 280053Z 14008KT 10SM SCT150 08/04 A3014 RMK AO2 SLP207 T00780039=
202011272353 METAR KBFI 272353Z 17004KT 10SM SCT150 09/04 A3016 RMK AO2 SLP214 T00940039 10111 20089 56018=
202011272253 METAR KBFI 272253Z 19006KT 10SM FEW120 11/04 A3017 RMK AO2 SLP216 T01060039=
202011272153 METAR KBFI 272153Z 17006KT 10SM FEW030 FEW120 11/04 A3019 RMK AO2 SLP224 T01060044=
202011272053 METAR KBFI 272053Z 16009KT 10SM BKN250 11/04 A3022 RMK AO2 SLP232 T01060039 58026=
202011271953 METAR KBFI 271953Z 15008KT 10SM CLR 10/04 A3025 RMK AO2 SLP242 T01000039=
202011271853 METAR KBFI 271853Z 17007KT 10SM SCT100 BKN250 09/03 A3028 RMK AO2 SLP252 T00940028=
202011271753 METAR KBFI 271753Z 14005KT 10SM FEW050 SCT100 09/03 A3029 RMK AO2 SLP257 T00890033 10089 20061 58004=
202011271653 METAR KBFI 271653Z 12004KT 10SM SCT055 08/03 A3030 RMK AO2 SLP259 T00780028=
202011271553 METAR KBFI 271553Z 11003KT 10SM SCT055 06/02 A3030 RMK AO2 SLP260 T00610022=
202011271453 METAR KBFI 271453Z 00000KT 10SM BKN050 08/03 A3031 RMK AO2 SLP262 T00780028 56007=
202011271353 METAR KBFI 271353Z 14006KT 10SM OVC049 07/03 A3031 RMK AO2 SLP263 T00670033=
202011271253 METAR KBFI 271253Z 14006KT 10SM OVC038 07/03 A3032 RMK AO2 SLP266 T00720033=
202011271153 METAR KBFI 271153Z 14008KT 10SM SCT038 OVC050 07/03 A3033 RMK AO2 SLP269 70001 T00720033 10078 20067 58015=
202011271053 METAR KBFI 271053Z 14007KT 10SM OVC039 07/03 A3035 RMK AO2 SLP277 T00720033=
202011270953 METAR KBFI 270953Z 14007KT 10SM BKN038 07/04 A3036 RMK AO2 SLP281 T00720044=
202011270853 METAR KBFI 270853Z 15007KT 10SM FEW035 SCT043 BKN055 07/04 A3037 RMK AO2 SLP284 T00720044 58003=
202011270753 METAR KBFI 270753Z 15008KT 10SM BKN050 OVC060 07/04 A3038 RMK AO2 SLP286 T00720044 401000061=
202011270653 METAR KBFI 270653Z 15010KT 10SM OVC050 07/05 A3038 RMK AO2 SLP286 T00720050=
202011270553 METAR KBFI 270553Z 14009KT 10SM FEW043 OVC055 07/05 A3038 RMK AO2 SLP287 60000 T00720050 10083 20061 56006=
202011270500 SPECI KBFI 270500Z 16007KT 10SM BKN035 07/04 A3038 RMK AO2 T00670044=
202011270453 METAR KBFI 270453Z 16006KT 10SM BKN015 OVC050 07/04 A3038 RMK AO2 SLP288 T00670044=
202011270409 SPECI KBFI 270409Z 15005KT 10SM BKN015 OVC050 07/05 A3039 RMK AO2 T00720050=
202011270353 METAR KBFI 270353Z 15007KT 10SM OVC050 08/06 A3039 RMK AO2 SLP289 T00780056=
202011270338 SPECI KBFI 270338Z 15006KT 10SM SCT019 OVC050 08/06 A3039 RMK AO2 T00780056=
202011270253 METAR KBFI 270253Z 14008KT 10SM BKN021 08/06 A3040 RMK AO2 SLP293 60000 T00780061 57008=
202011270200 SPECI KBFI 270200Z 15006KT 10SM OVC022 08/06 A3040 RMK AO2 T00780061=
202011270153 METAR KBFI 270153Z 14006KT 10SM BKN042 OVC050 08/06 A3041 RMK AO2 SLP295 T00780061=
202011270053 METAR KBFI 270053Z 15005KT 10SM BKN042 OVC050 08/06 A3041 RMK AO2 RAE2356 SLP298 P0000 T00780061=
202011270010 SPECI KBFI 270010Z 18005KT 10SM SCT021 BKN033 OVC049 08/06 A3042 RMK AO2 RAE2356 P0000 T00780056=
202011262353 METAR KBFI 262353Z VRB06KT 7SM -RA FEW015 BKN020 OVC034 08/06 A3042 RMK AO2 RAB35 SLP301 P0000 60000 T00830061 10100 20083 55001=
202011262253 METAR KBFI 262253Z 18008KT 10SM BKN024 BKN031 OVC040 09/06 A3042 RMK AO2 SLP299 T00940056=
202011262153 METAR KBFI 262153Z 20007KT 10SM BKN022 OVC034 09/05 A3042 RMK AO2 SLP299 T00940050=
202011262053 METAR KBFI 262053Z 19007KT 10SM BKN022 OVC034 09/06 A3042 RMK AO2 SLP302 T00940056 58003=
202011261953 METAR KBFI 261953Z 18009KT 10SM SCT018 BKN023 OVC037 09/06 A3043 RMK AO2 SLP305 T00890056=
202011261853 METAR KBFI 261853Z 20006KT 10SM SCT013 BKN018 OVC037 08/06 A3045 RMK AO2 SLP310 T00830056=
202011261757 SPECI KBFI 261757Z 19006KT 10SM FEW008 BKN010 OVC044 08/06 A3044 RMK AO2 T00830061=
202011261753 METAR KBFI 261753Z 18006KT 10SM BKN010 BKN015 OVC044 08/06 A3043 RMK AO2 RAB07E18 SLP305 P0000 60001 T00830061 10083 20067 51016=
202011261709 SPECI KBFI 261709Z 16007KT 3SM -RA BR BKN008 OVC015 07/06 A3043 RMK AO2 RAB07 P0000 T00670061=
202011261653 METAR KBFI 261653Z 15010KT 3SM BR BKN010 OVC015 07/06 A3042 RMK AO2 RAB23E41 CIG 007V012 SLP300 VIS LWR S P0001 T00670061=
202011261623 SPECI KBFI 261623Z 14007KT 2SM -RA BR BKN010 OVC019 07/06 A3041 RMK AO2 VIS 1 1/4V3 RAB23 P0000 T00670061=
202011261553 METAR KBFI 261553Z 15004KT 9SM FEW009 SCT021 OVC027 07/06 A3041 RMK AO2 RAB45E53 SLP298 P0000 T00670056=
202011261501 SPECI KBFI 261501Z 15003KT 10SM BKN008 OVC025 07/06 A3039 RMK AO2 T00670056=
202011261453 METAR KBFI 261453Z 14004KT 10SM FEW009 OVC025 07/06 A3039 RMK AO2 SLP289 T00670056 51005=
202011261353 METAR KBFI 261353Z 15006KT 10SM OVC009 07/06 A3038 RMK AO2 SLP286 T00670056=
202011261253 METAR KBFI 261253Z 14005KT 10SM OVC009 07/06 A3038 RMK AO2 SLP288 T00670056=
202011261153 METAR KBFI 261153Z 14003KT 10SM BKN011 BKN019 OVC034 07/06 A3037 RMK AO2 SLP284 60000 70005 T00670056 10078 20061 51012=
202011261053 METAR KBFI 261053Z 13003KT 10SM SCT009 BKN011 OVC036 07/06 A3037 RMK AO2 RAB19E28 SLP283 P0000 T00720056=
202011260953 METAR KBFI 260953Z 00000KT 10SM BKN015 BKN022 OVC036 07/06 A3036 RMK AO2 SLP278 T00670056=
202011260853 METAR KBFI 260853Z 13004KT 10SM SCT009 BKN012 BKN022 07/06 A3034 RMK AO2 SLP272 T00670061 51007=
202011260753 METAR KBFI 260753Z 14004KT 10SM FEW012 OVC022 07/06 A3032 RMK AO2 SLP265 T00670056 400940061=
202011260653 METAR KBFI 260653Z 15004KT 10SM FEW013 BKN042 06/06 A3031 RMK AO2 SLP265 T00610056=
202011260553 METAR KBFI 260553Z 00000KT 10SM BKN017 BKN036 OVC046 08/06 A3031 RMK AO2 RAE0457 SLP264 P0000 60001 T00780061 10083 20067 53025=
202011260500 SPECI KBFI 260500Z 00000KT 8SM BKN022 BKN030 OVC040 08/06 A3029 RMK AO2 RAE0457 P0000 T00780061=
202011260453 METAR KBFI 260453Z 00000KT 6SM -RA BR SCT022 BKN030 OVC040 08/06 A3028 RMK AO2 RAB47 SLP254 P0000 T00780061=
202011260353 METAR KBFI 260353Z 13004KT 10SM SCT031 OVC039 07/06 A3025 RMK AO2 SLP244 T00720061=
202011260306 SPECI KBFI 260306Z 12003KT 10SM SCT019 OVC039 07/06 A3024 RMK AO2 T00720061=
202011260253 METAR KBFI 260253Z 13004KT 10SM BKN019 BKN024 OVC040 07/06 A3024 RMK AO2 SLP239 60001 T00720056 51018=
202011260153 METAR KBFI 260153Z VRB03KT 10SM SCT022 BKN040 08/06 A3023 RMK AO2 RAE03 SLP236 P0000 T00780056=
202011260053 METAR KBFI 260053Z 12003KT 10SM -RA SCT022 BKN040 08/06 A3020 RMK AO2 RAB2354E23B52 SLP227 P0001 T00780056=
202011252353 METAR KBFI 252353Z VRB06KT 10SM BKN020 OVC040 08/04 A3018 RMK AO2 RAE02B31E42 SLP221 P0000 60004 T00830044 10094 20072 53022=
202011252253 METAR KBFI 252253Z 00000KT 10SM RA SCT022 BKN043 08/05 A3016 RMK AO2 RAB45 SLP212 P0004 T00830050=
202011252153 METAR KBFI 252153Z 16005KT 10SM BKN039 09/04 A3013 RMK AO2 SLP204 T00890039=
202011252053 METAR KBFI 252053Z 21004KT 10SM SCT021 OVC028 08/04 A3012 RMK AO2 SLP199 T00830039 51014=
202011251953 METAR KBFI 251953Z VRB05KT 10SM BKN014 BKN018 BKN021 08/04 A3011 RMK AO2 SLP196 T00780039=
202011251853 METAR KBFI 251853Z 20006KT 10SM BKN015 BKN021 BKN027 08/04 A3010 RMK AO2 SLP192 T00780044=
202011251753 METAR KBFI 251753Z 20006KT 10SM BKN014 OVC019 07/04 A3008 RMK AO2 SLP184 T00720044 10072 20067 51026=
202011251653 METAR KBFI 251653Z 20004KT 10SM BKN014 OVC016 07/04 A3006 RMK AO2 SLP178 T00720044 $=
202011251553 METAR KBFI 251553Z 19006KT 10SM BKN014 BKN045 OVC070 07/04 A3003 RMK AO2 SLP168 T00720039 $=
202011251453 METAR KBFI 251453Z 20007KT 10SM BKN017 BKN030 OVC070 07/04 A3000 RMK AO2 SLP159 T00720044 53015=
202011251353 METAR KBFI 251353Z 17008KT 10SM BKN016 OVC070 07/04 A2998 RMK AO2 SLP150 T00670044=
202011251253 METAR KBFI 251253Z 16008KT 10SM SCT016 BKN028 BKN110 07/04 A2996 RMK AO2 SLP145 T00720039=
202011251153 METAR KBFI 251153Z 16008KT 10SM SCT016 BKN028 BKN090 07/04 A2996 RMK AO2 SLP143 70004 T00670039 10072 20061 50001=
202011251053 METAR KBFI 251053Z 15006KT 10SM BKN016 BKN060 OVC070 07/04 A2996 RMK AO2 SLP144 T00670044=
202011250953 METAR KBFI 250953Z 14008KT 10SM BKN018 OVC024 07/04 A2996 RMK AO2 SLP143 T00670044=
202011250926 SPECI KBFI 250926Z 16007KT 10SM SCT020 BKN024 BKN110 07/04 A2996 RMK AO2 T00670044=
202011250853 METAR KBFI 250853Z 18005KT 10SM SCT018 BKN030 06/03 A2995 RMK AO2 SLP143 T00610033 51007=
202011250753 METAR KBFI 250753Z 21005KT 10SM SCT020 BKN025 07/04 A2995 RMK AO2 SLP142 T00670039 401170067=
202011250653 METAR KBFI 250653Z 00000KT 10SM BKN022 BKN028 07/04 A2994 RMK AO2 SLP138 T00670039=
202011250553 METAR KBFI 250553Z 00000KT 10SM OVC017 07/04 A2993 RMK AO2 RAE12 SLP135 P0000 60000 T00720044 10083 20072 53013=
202011250453 METAR KBFI 250453Z VRB03KT 9SM -RA OVC022 07/04 A2990 RMK AO2 RAB19 SLP126 P0000 T00720044=
202011250353 METAR KBFI 250353Z 19008KT 10SM SCT016 OVC019 08/04 A2990 RMK AO2 SLP123 T00780044=
202011250255 SPECI KBFI 250255Z 16010KT 10SM BKN019 BKN031 OVC043 08/04 A2989 RMK AO2 T00780044=
202011250253 METAR KBFI 250253Z 19009G15KT 10SM FEW019 BKN031 OVC043 08/04 A2989 RMK AO2 RAE34 SLP122 P0000 60000 T00780044 51015=
202011250153 METAR KBFI 250153Z 18011G17KT 10SM -RA SCT015 BKN045 OVC055 08/04 A2988 RMK AO2 SLP118 P0000 T00780044=
202011250053 METAR KBFI 250053Z 22010G15KT 10SM -RA FEW020 BKN035 OVC080 08/05 A2987 RMK AO2 RAB17 SLP116 P0000 T00780050=
202011242353 METAR KBFI 242353Z 22011G23KT 10SM FEW020 BKN035 OVC080 08/05 A2985 RMK AO2 RAE49 SLP107 P0002 60004 T00830050 10117 20083 55015=
202011242253 METAR KBFI 242253Z 17009KT 7SM -RA BKN021 BKN028 OVC035 11/08 A2984 RMK AO2 RAB2156 SLP105 P0002 T01060083=
202011242200 SPECI KBFI 242200Z 19011G21KT 10SM -RA BKN028 BKN035 OVC075 12/06 A2986 RMK AO2 RAB2156 P0000 T01170061=
202011242153 METAR KBFI 242153Z 17016G22KT 10SM BKN028 OVC060 12/06 A2986 RMK AO2 RAE24 SLP112 P0000 T01170061 $=
202011242053 METAR KBFI 242053Z 17013G23KT 10SM -RA SCT018 BKN028 OVC049 11/07 A2989 RMK AO2 RAB49 SLP122 P0000 60000 T01110067 58036 $=
202011241953 METAR KBFI 241953Z 18009G23KT 7SM SCT020 BKN030 OVC039 11/07 A2993 RMK AO2 RAB16E26 SLP133 P0000 T01060072 $=
202011241853 METAR KBFI 241853Z 18010G18KT 10SM FEW010 BKN031 OVC070 11/06 A2997 RMK AO2 RAB41E50 SLP148 P0000 T01060061 $=
202011241753 METAR KBFI 241753Z 14010KT 10SM SCT029 BKN037 OVC049 08/06 A3000 RMK AO2 SLP158 60000 T00830056 10083 20067 56021 $=
202011241653 METAR KBFI 241653Z 14009KT 10SM BKN018 OVC029 07/05 A3002 RMK AO2 SLP164 T00720050 $=
202011241553 METAR KBFI 241553Z 15009KT 10SM OVC028 07/04 A3004 RMK AO2 RAB21E35 SLP171 P0000 T00670044 $=
202011241453 METAR KBFI 241453Z 14007KT 10SM OVC030 07/04 A3006 RMK AO2 SLP179 T00720044 58021 $=
202011241353 METAR KBFI 241353Z 13007KT 10SM BKN030 OVC046 07/04 A3009 RMK AO2 SLP190 T00670039=
202011241253 METAR KBFI 241253Z 14005KT 10SM OVC046 07/03 A3012 RMK AO2 SLP197 T00720033=
202011241153 METAR KBFI 241153Z 13004KT 10SM OVC060 07/03 A3012 RMK AO2 SLP201 70002 T00720028 10072 20067 58012=
202011241053 METAR KBFI 241053Z 13006KT 10SM OVC065 07/03 A3014 RMK AO2 SLP207 T00720033=
202011240953 METAR KBFI 240953Z 14007KT 10SM BKN050 OVC065 07/04 A3015 RMK AO2 SLP209 T00720039=
202011240853 METAR KBFI 240853Z 14006KT 10SM BKN036 OVC048 07/04 A3016 RMK AO2 SLP212 T00720039 58004=
202011240753 METAR KBFI 240753Z 14007KT 10SM FEW030 BKN037 OVC085 07/04 A3017 RMK AO2 SLP217 T00720044 400890033=
202011240653 METAR KBFI 240653Z 15008KT 10SM BKN025 BKN035 OVC080 07/05 A3017 RMK AO2 SLP217 T00720050=
202011240553 METAR KBFI 240553Z 15005KT 10SM BKN025 BKN035 OVC080 07/06 A3017 RMK AO2 SLP216 T00720056 10089 20072 53010=
202011240453 METAR KBFI 240453Z 15005KT 10SM BKN025 BKN040 07/06 A3015 RMK AO2 SLP210 T00720056=
202011240433 SPECI KBFI 240433Z 13004KT 10SM BKN029 08/06 A3015 RMK AO2 T00780056=
202011240353 METAR KBFI 240353Z 14004KT 10SM FEW026 BKN032 BKN039 08/05 A3015 RMK AO2 SLP208 T00780050=
202011240253 METAR KBFI 240253Z 11003KT 10SM BKN050 OVC100 08/05 A3014 RMK AO2 SLP206 T00780050 53015=
202011240153 METAR KBFI 240153Z 13003KT 10SM BKN050 OVC110 07/04 A3013 RMK AO2 SLP201 T00720044=
202011240053 METAR KBFI 240053Z 12003KT 10SM FEW025 BKN050 OVC110 08/04 A3011 RMK AO2 SLP195 T00780044=
202011232353 METAR KBFI 232353Z 10003KT 10SM BKN025 OVC045 09/04 A3010 RMK AO2 SLP191 T00890044 53020=
202011232253 METAR KBFI 232253Z 10SM BKN025 OVC045 09/04 A3008 RMK AO2 SLP184 T00890044=
202011232200 SPECI KBFI 232200Z 00000KT 10SM SCT011 BKN022 BKN040 09/06 A3006 RMK AO2 T00890056=
202011232153 METAR KBFI 232153Z 10003KT 10SM 09/05 A3006 RMK AO2 SLP178 T00890050=
202011232053 METAR KBFI 232053Z AUTO 08/06 A3004 RMK AO2 SLP172 T00830056 PWINO TSNO $=
202011231822 SPECI KBFI 231822Z RMK AO2 $=
202011231800 SPECI KBFI 231800Z 16010KT 5SM HZ BKN016 OVC030 A2999 RMK AO2 $=
202011231753 METAR KBFI 231753Z 07/05 A2998 RMK AO2 SLP152 60006 T00720050 10078 20061 53022 $=
202011231653 METAR KBFI 231653Z 16010G14KT 10SM A2996 RMK AO2 SLP147 $=
202011231638 SPECI KBFI 231638Z 07/04 A2996 RMK AO2 T00720044 $=
202011231553 METAR KBFI 231553Z 14008KT 10SM BKN020 OVC025 07/04 A2993 RMK AO2 SLP135 T00670044=
202011231508 SPECI KBFI 231508Z AUTO 14006KT 6SM BR FEW007 SCT013 OVC022 06/04 A2992 RMK AO2 T00610044 TSNO=
202011231500 SPECI KBFI 231500Z AUTO 15008KT 5SM BR FEW007 BKN013 OVC024 06/05 A2992 RMK AO2 T00610050 TSNO=
202011231453 METAR KBFI 231453Z AUTO 14008KT 4SM BR FEW017 BKN029 OVC035 06/04 A2992 RMK AO2 RAB01E25 SLP130 P0001 60006 T00610044 51005 TSNO=
202011231355 SPECI KBFI 231355Z 13006KT 5SM BR FEW017 BKN029 OVC035 07/05 A2991 RMK AO2 T00670050=
202011231353 METAR KBFI 231353Z 14006KT 5SM BR FEW017 SCT029 OVC035 07/05 A2991 RMK AO2 RAE52 SLP129 P0001 T00670050=
202011231253 METAR KBFI 231253Z AUTO 14007KT 7SM -RA OVC033 07/05 A2991 RMK AO2 RAB00 SLP129 P0004 T00720050 TSNO=
202011231153 METAR KBFI 231153Z 17005KT 10SM OVC055 07/04 A2990 RMK AO2 SLP125 70004 T00670044 10072 20061 58003=
202011231100 SPECI KBFI 231100Z 16009KT 10SM BKN060 OVC080 07/04 A2991 RMK AO2 T00670044=
202011231053 METAR KBFI 231053Z 14009KT 10SM SCT012 BKN021 BKN080 07/05 A2991 RMK AO2 SLP127 T00670050=
202011231005 SPECI KBFI 231005Z 17008KT 10SM SCT012 BKN021 BKN080 07/04 A2991 RMK AO2 T00670044=
202011230958 SPECI KBFI 230958Z 17008KT 10SM FEW014 SCT022 BKN080 07/04 A2991 RMK AO2 T00670044=
202011230953 METAR KBFI 230953Z 17009KT 10SM SCT012 BKN021 BKN080 07/05 A2991 RMK AO2 SLP128 T00670050=
202011230951 SPECI KBFI 230951Z 17008KT 10SM SCT012 BKN021 BKN080 07/05 A2991 RMK AO2=
202011230853 METAR KBFI 230853Z 21008KT 10SM OVC011 07/05 A2992 RMK AO2 SLP132 T00720050 50002=
202011230753 METAR KBFI 230753Z 18006KT 6SM BR OVC007 07/06 A2992 RMK AO2 SLP133 T00720056 400830022=
202011230713 SPECI KBFI 230713Z 14004KT 8SM BKN007 OVC012 07/06 A2992 RMK AO2 T00670056=
202011230653 METAR KBFI 230653Z 16004KT 9SM OVC010 07/05 A2992 RMK AO2 CIG 005V014 SLP132 T00670050=
202011230553 METAR KBFI 230553Z 15003KT 4SM BR OVC009 06/05 A2992 RMK AO2 CIG 006V012 SLP130 60002 T00610050 10067 20061 58000=
202011230517 SPECI KBFI 230517Z 15003KT 5SM BR SCT006 BKN018 OVC023 06/05 A2992 RMK AO2 T00610050=
202011230453 METAR KBFI 230453Z 15003KT 4SM BR OVC017 06/04 A2992 RMK AO2 SLP130 T00610044=
202011230425 SPECI KBFI 230425Z 00000KT 4SM BR BKN014 OVC017 06/04 A2992 RMK AO2 T00610044=
202011230353 METAR KBFI 230353Z 00000KT 10SM BKN017 BKN021 OVC027 07/04 A2992 RMK AO2 RAB06E16 SLP131 P0000 T00670044=
202011230253 METAR KBFI 230253Z 00000KT 10SM BKN026 OVC032 06/04 A2992 RMK AO2 RAE49 SLP130 P0000 60002 T00610044 58015=
202011230228 SPECI KBFI 230228Z 00000KT 9SM -RA OVC033 06/04 A2993 RMK AO2 P0000 T00610044=
202011230153 METAR KBFI 230153Z 14003KT 9SM -RA OVC033 06/04 A2994 RMK AO2 SLP137 P0000 T00610044=
202011230053 METAR KBFI 230053Z 16004KT 9SM -RA OVC040 06/04 A2996 RMK AO2 SLP143 P0002 T00610044=
202011222353 METAR KBFI 222353Z 16006KT 8SM -RA BKN040 OVC050 07/04 A2996 RMK AO2 SLP145 P0002 60002 T00670039 10083 20056 56004=
202011222253 METAR KBFI 222253Z 16004KT 8SM -RA OVC048 07/04 A2996 RMK AO2 RAE21B44 SLP146 P0000 T00670039=
202011222153 METAR KBFI 222153Z 17006KT 10SM -RA OVC060 08/03 A2997 RMK AO2 RAB43 SLP147 P0000 T00780028=
202011222053 METAR KBFI 222053Z 15007KT 10SM BKN080 OVC100 07/03 A2997 RMK AO2 SLP149 T00720033 58013=
202011221953 METAR KBFI 221953Z 14008KT 10SM BKN090 OVC100 07/03 A2999 RMK AO2 SLP153 T00720033=
202011221853 METAR KBFI 221853Z 14005KT 10SM BKN120 BKN200 07/03 A3000 RMK AO2 SLP160 T00670033 $=
202011221753 METAR KBFI 221753Z 14008KT 10SM OVC180 06/03 A3001 RMK AO2 SLP162 T00560033 56009 $=
202011221653 METAR KBFI 221653Z 15006KT 10SM FEW001 BKN180 BKN220 03/02 A3002 RMK AO2 SLP166 T00330022 $=
202011221553 METAR KBFI 221553Z 17007KT 8SM FEW002 BKN200 03/02 A3002 RMK AO2 SLP164 T00280017 $=
202011221521 SPECI KBFI 221521Z 14005KT 3SM BR FEW002 BKN200 02/02 A3003 RMK AO2 FG BNK 1 N MOV N T00220017 $=
202011221510 SPECI KBFI 221510Z 15004KT 1 1/2SM BR FEW002 BKN200 03/02 A3004 RMK AO2 FG BNK 1 N MOV N T00280022 $=
202011221453 METAR KBFI 221453Z 13004KT 3/4SM BR VV002 03/03 A3004 RMK AO2 SLP171 T00330028 58013 $=
202011221353 METAR KBFI 221353Z 14008KT 1/2SM FG VV002 03/03 A3006 RMK AO2 SLP179 T00330028 $=
202011221253 METAR KBFI 221253Z 14009KT 1/2SM FG VV002 A3007 RMK AO2 SLP184 $=
202011221153 METAR KBFI 221153Z 15007KT 1/4SM FG VV002 03/02 A3008 RMK AO2 SLP184 T00330022 10061 20022 56023 $=
202011221114 SPECI KBFI 221114Z 12003KT 1/4SM FG VV002 04/03 A3008 RMK AO2 T00440033=
202011221053 METAR KBFI 221053Z 16004KT 1SM BR VV002 02/02 A3009 RMK AO2 SLP188 T00220022=
202011221050 SPECI KBFI 221050Z 15003KT 1SM BR VV002 03/02 A3009 RMK AO2=
202011221042 SPECI KBFI 221042Z 15004KT 7SM FEW003 03/02 A3009 RMK AO2 T00280017=
202011221035 SPECI KBFI 221035Z 16003KT 7SM CLR 03/03 A3009 RMK AO2 T00330028=
202011221028 SPECI KBFI 221028Z 00000KT 1 3/4SM BR CLR 03/02 A3010 RMK AO2 T00330022=
202011220953 METAR KBFI 220953Z AUTO 00000KT 7SM CLR 04/03 A3011 RMK AO2 SLP197 T00440033 TSNO=
202011220853 METAR KBFI 220853Z AUTO 00000KT 10SM CLR 06/04 A3015 RMK AO2 SLP207 T00560044 58023 TSNO=
202011220753 METAR KBFI 220753Z 00000KT 9SM CLR 05/03 A3017 RMK AO2 SLP216 T00500033 401220050=
202011220653 METAR KBFI 220653Z 00000KT 10SM CLR 06/04 A3020 RMK AO2 SLP227 T00560039=
202011220553 METAR KBFI 220553Z 00000KT 10SM CLR 06/04 A3021 RMK AO2 SLP231 T00610039 10106 20056 56019=
202011220453 METAR KBFI 220453Z 00000KT 10SM CLR 07/05 A3023 RMK AO2 SLP237 T00670050=
202011220353 METAR KBFI 220353Z 00000KT 10SM CLR 08/05 A3025 RMK AO2 SLP242 T00780050=
202011220253 METAR KBFI 220253Z 00000KT 10SM CLR 08/06 A3027 RMK AO2 SLP250 T00780056 56028=
202011220153 METAR KBFI 220153Z 00000KT 10SM CLR 09/06 A3030 RMK AO2 SLP259 T00890056=
202011220053 METAR KBFI 220053Z 00000KT 10SM CLR 09/05 A3032 RMK AO2 SLP267 T00940050=
202011212353 METAR KBFI 212353Z 32004KT 10SM CLR 11/06 A3035 RMK AO2 SLP278 T01060056 10122 20100 56019=
202011212253 METAR KBFI 212253Z 30007KT 10SM SCT024 11/06 A3037 RMK AO2 SLP283 T01110056=
202011212153 METAR KBFI 212153Z 28006KT 10SM SCT022 SCT250 12/07 A3039 RMK AO2 SLP291 T01170067=
202011212053 METAR KBFI 212053Z 32005KT 10SM SCT021 12/07 A3041 RMK AO2 SLP297 T01170067 58021=
202011211953 METAR KBFI 211953Z 31006KT 10SM BKN021 11/06 A3043 RMK AO2 SLP303 T01060061=
202011211853 METAR KBFI 211853Z VRB04KT 10SM BKN016 11/07 A3046 RMK AO2 SLP312 T01110072=
202011211753 METAR KBFI 211753Z VRB03KT 10SM FEW012 SCT040 11/07 A3047 RMK AO2 SLP318 60000 T01060067 10106 20072 58001=
202011211653 METAR KBFI 211653Z 00000KT 10SM SCT012 BKN044 09/07 A3048 RMK AO2 SLP322 T00890067=
202011211553 METAR KBFI 211553Z 00000KT 10SM SCT014 BKN043 08/06 A3047 RMK AO2 RAB1457E08 SLP318 P0000 T00830061=
202011211453 METAR KBFI 211453Z 15003KT 7SM BKN015 08/06 A3047 RMK AO2 SLP319 60000 T00780061 51002=
202011211353 METAR KBFI 211353Z 18003KT 10SM SCT012 BKN019 OVC042 07/06 A3047 RMK AO2 RAB03E27 SLP319 P0000 T00720061=
202011211253 METAR KBFI 211253Z 15004KT 10SM OVC015 07/06 A3048 RMK AO2 SLP319 T00720061=
202011211153 METAR KBFI 211153Z 15004KT 10SM OVC016 08/06 A3047 RMK AO2 SLP316 60000 70001 T00780061 10089 20078 58000=
202011211053 METAR KBFI 211053Z 14004KT 10SM BKN022 OVC045 08/07 A3047 RMK AO2 RAE36 SLP316 P0000 T00830067=
202011210953 METAR KBFI 210953Z 00000KT 6SM -RA OVC015 08/06 A3047 RMK AO2 RAB28 SLP318 P0000 T00830056=
202011210853 METAR KBFI 210853Z 14004KT 10SM OVC019 08/06 A3047 RMK AO2 SLP317 T00780056 53006=
202011210753 METAR KBFI 210753Z 00000KT 10SM OVC022 09/05 A3046 RMK AO2 SLP314 T00890050 401060061=
202011210653 METAR KBFI 210653Z VRB04KT 10SM BKN022 BKN050 08/04 A3045 RMK AO2 SLP311 T00830044=
202011210651 SPECI KBFI 210651Z 14004KT 10SM BKN022 09/04 A3045 RMK AO2=
202011210553 METAR KBFI 210553Z 16007KT 10SM SCT041 08/04 A3043 RMK AO2 SLP305 T00830044 10106 20072 51008=
202011210453 METAR KBFI 210453Z 15007KT 10SM SCT041 09/05 A3043 RMK AO2 SLP304 T00890050=
202011210353 METAR KBFI 210353Z 17007KT 10SM CLR 09/04 A3042 RMK AO2 SLP301 T00890044=
202011210253 METAR KBFI 210253Z 13006KT 10SM SCT030 09/04 A3041 RMK AO2 SLP297 T00890044 55000=
202011210153 METAR KBFI 210153Z 15011KT 10SM SCT028 BKN043 10/05 A3041 RMK AO2 SLP296 T01000050=
202011210053 METAR KBFI 210053Z 15009G19KT 10SM SCT028 BKN041 11/06 A3041 RMK AO2 SLP298 T01060056=
202011202353 METAR KBFI 202353Z 16010KT 10SM FEW028 OVC038 10/06 A3041 RMK AO2 SLP298 60000 T01000056 10106 20089 56008=
202011202253 METAR KBFI 202253Z 17008G16KT 10SM BKN034 OVC044 10/06 A3041 RMK AO2 SLP298 T01000056=
202011202153 METAR KBFI 202153Z 17007KT 10SM FEW012 OVC041 10/06 A3042 RMK AO2 SLP302 T01000061=
202011202053 METAR KBFI 202053Z 20005KT 10SM FEW020 OVC043 09/06 A3044 RMK AO2 RAE27 SLP306 P0000 60000 T00940056 58004=
202011201953 METAR KBFI 201953Z 24003KT 10SM -RA BKN047 OVC060 09/06 A3044 RMK AO2 RAB36 SLP307 P0000 T00940061=
202011201853 METAR KBFI 201853Z 26003KT 10SM BKN055 BKN070 OVC080 10/06 A3044 RMK AO2 RAB28E38 SLP309 P0000 T01000061=
202011201753 METAR KBFI 201753Z 00000KT 10SM SCT049 BKN060 OVC075 09/05 A3045 RMK AO2 SLP310 60001 T00890050 10089 20067 50005=
202011201653 METAR KBFI 201653Z 16004KT 10SM FEW041 BKN050 OVC080 08/06 A3045 RMK AO2 SLP310 T00780056=
202011201553 METAR KBFI 201553Z 14003KT 10SM FEW010 BKN050 BKN075 07/05 A3044 RMK AO2 RAE02 SLP308 P0000 T00720050=
202011201453 METAR KBFI 201453Z 00000KT 10SM -RA OVC050 07/06 A3043 RMK AO2 SLP305 P0000 60001 T00720056 58001=
202011201353 METAR KBFI 201353Z 00000KT 10SM -RA BKN036 OVC100 07/06 A3044 RMK AO2 RAE23B44 SLP306 P0000 T00720056=
202011201253 METAR KBFI 201253Z 14004KT 10SM -RA BKN037 OVC047 07/05 A3044 RMK AO2 RAE16B42 SLP306 P0001 T00720050=
202011201153 METAR KBFI 201153Z 17005KT 9SM -RA FEW040 BKN049 OVC110 07/04 A3043 RMK AO2 RAB11E27B51 SLP305 P0000 60000 T00670044 10083 20061 53007=
202011201053 METAR KBFI 201053Z 14006KT 10SM BKN045 OVC055 07/05 A3043 RMK AO2 SLP303 T00720050=
202011200953 METAR KBFI 200953Z 15005KT 10SM FEW042 SCT049 BKN060 07/05 A3041 RMK AO2 SLP298 T00670050=
202011200853 METAR KBFI 200853Z 15008KT 10SM FEW037 SCT044 BKN050 06/04 A3041 RMK AO2 RAE01 SLP298 P0000 60000 T00610044 50005=
202011200753 METAR KBFI 200753Z 15006KT 8SM -RA SCT035 BKN041 OVC095 07/05 A3042 RMK AO2 RAB45 SLP299 P0000 T00720050 401000067=
202011200653 METAR KBFI 200653Z 15007KT 10SM FEW038 BKN049 BKN065 07/05 A3041 RMK AO2 RAB02E38 SLP298 P0000 T00670050=
202011200553 METAR KBFI 200553Z 15006KT 10SM BKN045 BKN055 07/05 A3040 RMK AO2 SLP293 60000 T00720050 10089 20067 51015=
202011200453 METAR KBFI 200453Z 15007KT 10SM BKN046 BKN080 07/05 A3039 RMK AO2 SLP290 T00670050=
202011200353 METAR KBFI 200353Z 15007KT 10SM FEW034 OVC045 07/05 A3037 RMK AO2 SLP283 T00720050=
202011200253 METAR KBFI 200253Z 15009KT 10SM SCT036 07/04 A3035 RMK AO2 RAB0155E11 SLP278 P0000 60000 T00670044 51013=
202011200153 METAR KBFI 200153Z 15012KT 10SM FEW026 BKN042 OVC055 08/06 A3035 RMK AO2 SLP277 T00780056=
202011200053 METAR KBFI 200053Z 16008KT 10SM FEW031 BKN070 OVC090 08/04 A3033 RMK AO2 SLP271 T00830044=
202011192353 METAR KBFI 192353Z 18009KT 10SM BKN032 BKN090 09/04 A3032 RMK AO2 SLP265 60000 T00890044 10100 20083 51013=
202011192253 METAR KBFI 192253Z 19010KT 10SM BKN024 09/05 A3031 RMK AO2 RAB23E33 SLP261 P0000 T00890050=
202011192153 METAR KBFI 192153Z 20009KT 10SM SCT030 BKN050 09/04 A3029 RMK AO2 RAE2056 SLP257 P0000 T00890044=
202011192053 METAR KBFI 192053Z 21009G18KT 10SM -RA FEW030 SCT055 10/06 A3028 RMK AO2 RAB47 SLP253 P0000 60000 T01000056 51015=
202011191953 METAR KBFI 191953Z 17010KT 10SM FEW021 BKN050 BKN100 08/06 A3027 RMK AO2 RAE47 SLP249 P0000 T00830056=
202011191918 SPECI KBFI 191918Z 20006KT 6SM RA FEW019 BKN026 OVC060 08/05 A3027 RMK AO2 P0000 T00830050=
202011191853 METAR KBFI 191853Z 18007KT 10SM -RA SCT019 BKN050 BKN080 08/04 A3026 RMK AO2 RAB31 SLP246 P0000 T00830044=
202011191753 METAR KBFI 191753Z 19013G21KT 10SM SCT022 BKN090 BKN200 08/04 A3023 RMK AO2 SLP238 T00830039 10083 20067 51038=
202011191726 SPECI KBFI 191726Z 18010KT 10SM SCT028 08/04 A3022 RMK AO2 T00830039=
202011191653 METAR KBFI 191653Z 19008KT 160V240 10SM BKN017 07/04 A3021 RMK AO2 SLP229 T00720039=
202011191553 METAR KBFI 191553Z 16005KT 10SM BKN015 OVC022 07/04 A3017 RMK AO2 SLP215 T00720039=
202011191453 METAR KBFI 191453Z 17008KT 10SM BKN018 BKN025 07/04 A3012 RMK AO2 SLP199 T00720039 51038=
202011191353 METAR KBFI 191353Z 17007KT 10SM OVC018 07/04 A3009 RMK AO2 SLP187 T00720039=
202011191253 METAR KBFI 191253Z 19007KT 10SM OVC017 07/04 A3005 RMK AO2 SLP175 T00720039=
202011191153 METAR KBFI 191153Z 19006KT 10SM FEW008 BKN017 BKN040 08/04 A3001 RMK AO2 SLP162 60000 70043 T00780039 10078 20061 53026=
202011191053 METAR KBFI 191053Z 18008KT 10SM FEW025 BKN040 BKN080 08/04 A2998 RMK AO2 RAB05E15B38E48 SLP150 P0000 T00780044=
202011190953 METAR KBFI 190953Z 15006KT 10SM BKN033 OVC080 07/04 A2995 RMK AO2 SLP143 T00720039=
202011190853 METAR KBFI 190853Z 14006KT 10SM BKN035 BKN046 07/04 A2993 RMK AO2 SLP136 T00720039 53025=
202011190753 METAR KBFI 190753Z 17009KT 10SM BKN037 BKN046 08/04 A2991 RMK AO2 SLP127 T00780039 401000061=
202011190653 METAR KBFI 190653Z 16007KT 10SM BKN031 BKN042 07/04 A2988 RMK AO2 SLP118 T00670044=
202011190553 METAR KBFI 190553Z 14008KT 10SM FEW040 07/04 A2986 RMK AO2 RAE05B26E36 SLP110 P0000 60000 T00670039 10089 20061 51025=
202011190453 METAR KBFI 190453Z 17010KT 8SM -RA BKN038 08/04 A2984 RMK AO2 RAB49 SLP103 P0000 T00780044=
202011190353 METAR KBFI 190353Z 17011KT 10SM BKN028 08/04 A2981 RMK AO2 SLP094 T00780044=
202011190253 METAR KBFI 190253Z 17015KT 10SM BKN034 OVC041 08/05 A2978 RMK AO2 SLP085 60000 T00830050 51030=
202011190153 METAR KBFI 190153Z 18009KT 10SM BKN036 OVC044 08/05 A2976 RMK AO2 RAE05 SLP075 P0000 T00830050=
202011190053 METAR KBFI 190053Z 18011KT 160V230 10SM -RA SCT020 BKN040 08/05 A2973 RMK AO2 RAB39 SLP066 P0000 T00830050=
202011182353 METAR KBFI 182353Z 18012G24KT 10SM BKN021 OVC041 09/06 A2970 RMK AO2 RAE12 SLP055 P0000 60041 T00890056 10100 20083 53027=
202011182334 SPECI KBFI 182334Z 18012G18KT 10SM BKN021 OVC050 09/06 A2969 RMK AO2 RAE12 P0000 T00890061=
202011182253 METAR KBFI 182253Z 19007KT 10SM -RA SCT028 OVC041 09/06 A2966 RMK AO2 SLP045 P0015 T00890056=
202011182232 SPECI KBFI 182232Z 20008KT 4SM -RA BR FEW023 SCT028 OVC033 08/06 A2966 RMK AO2 P0015 T00830061=
202011182217 SPECI KBFI 182217Z 21010G16KT 2SM RA SCT023 OVC033 08/06 A2965 RMK AO2 P0012 T00830056=
202011182202 SPECI KBFI 182202Z 23010G21KT 2SM RA FEW016 BKN023 OVC033 08/06 A2964 RMK AO2 P0004 T00830056=
202011182153 METAR KBFI 182153Z 22011G15KT 190V250 1 3/4SM RA BR FEW010 BKN023 OVC031 08/06 A2964 RMK AO2 VIS 1 1/2V2 1/2 SLP037 P0024 T00830061=
202011182146 SPECI KBFI 182146Z VRB06KT 2SM RA BR SCT011 BKN028 OVC031 09/07 A2964 RMK AO2 P0019 T00890067=
202011182131 SPECI KBFI 182131Z 23009KT 2SM +RA FEW022 SCT028 OVC033 09/06 A2963 RMK AO2 P0013 T00890061=
202011182121 SPECI KBFI 182121Z 22011G19KT 180V250 5SM RA FEW020 SCT027 OVC036 09/07 A2963 RMK AO2 P0006 T00940067=
202011182053 METAR KBFI 182053Z 20008G16KT 4SM -RA FEW018 BKN033 OVC042 09/07 A2962 RMK AO2 RAB05 SLP028 P0002 60002 T00940067 52008=
202011182003 SPECI KBFI 182003Z 17008KT 10SM OVC029 09/06 A2961 RMK AO2 T00940061=
202011181953 METAR KBFI 181953Z 17007KT 10SM OVC030 09/06 A2961 RMK AO2 RAE05 SLP025 P0000 T00940061=
202011181853 METAR KBFI 181853Z 17008G18KT 10SM -RA BKN037 OVC070 09/06 A2960 RMK AO2 SLP023 P0000 T00890061=
202011181753 METAR KBFI 181753Z 15007KT 7SM -RA FEW039 BKN046 OVC060 08/07 A2959 RMK AO2 SLP020 P0001 60002 T00830067 10083 20078 53013=
202011181653 METAR KBFI 181653Z 16008KT 10SM -RA OVC042 08/06 A2957 RMK AO2 RAE1556B32 SLP014 P0000 T00830061=
202011181553 METAR KBFI 181553Z 15004KT 10SM -RA OVC046 08/06 A2956 RMK AO2 RAE01B47 SLP009 P0000 T00780061=
202011181453 METAR KBFI 181453Z 00000KT 8SM -RA OVC044 08/07 A2955 RMK AO2 RAE05B30 SLP007 P0001 60001 T00830067 58021=
202011181353 METAR KBFI 181353Z 00000KT 10SM -RA OVC043 08/07 A2957 RMK AO2 SLP013 P0000 T00780067=
202011181253 METAR KBFI 181253Z 00000KT 10SM -RA OVC050 08/07 A2960 RMK AO2 SLP022 P0000 T00780067=
202011181153 METAR KBFI 181153Z 22003KT 10SM -RA BKN048 OVC065 08/06 A2961 RMK AO2 RAB12E22B48 SLP028 P0000 60003 70023 T00830061 10111 20078 58019=
202011181053 METAR KBFI 181053Z VRB03KT 10SM BKN047 BKN055 BKN080 08/06 A2964 RMK AO2 SLP037 T00830061=
202011180953 METAR KBFI 180953Z 08003KT 10SM BKN046 OVC060 08/06 A2966 RMK AO2 RAE21B39E51 SLP042 P0000 T00830061=
202011180856 SPECI KBFI 180856Z VRB03KT 8SM -RA FEW015 BKN024 OVC042 08/06 A2967 RMK AO2 P0000 T00830061=
202011180853 METAR KBFI 180853Z 33003KT 7SM -RA FEW015 SCT024 OVC042 09/07 A2967 RMK AO2 RAB00 SLP047 P0003 60003 T00890067 50006=
202011180753 METAR KBFI 180753Z 30004KT 10SM SCT045 BKN060 09/06 A2967 RMK AO2 RAB11E21 SLP047 P0000 T00890056 401720067=
202011180727 SPECI KBFI 180727Z 25006KT 10SM SCT029 BKN039 OVC047 09/04 A2967 RMK AO2 RAB11E21 P0000 T00940044=
202011180705 SPECI KBFI 180705Z 25009G19KT 10SM BKN027 BKN036 OVC070 10/04 A2967 RMK AO2 T01000039=
202011180653 METAR KBFI 180653Z 22010G20KT 10SM SCT027 SCT041 BKN065 10/04 A2968 RMK AO2 SLP050 T01000039=
202011180553 METAR KBFI 180553Z 18013KT 10SM FEW044 BKN055 11/06 A2965 RMK AO2 SLP040 60004 T01060056 10128 20100 51041=
202011180453 METAR KBFI 180453Z 18013G21KT 10SM FEW045 11/07 A2963 RMK AO2 SLP033 T01060067=
202011180353 METAR KBFI 180353Z 21012G26KT 10SM SCT023 BKN037 OVC075 11/08 A2960 RMK AO2 PK WND 17030/0338 RAB0256E46 PRESRR SLP021 P0002 T01110078=
202011180342 SPECI KBFI 180342Z 20019G30KT 10SM -RA BKN022 BKN029 OVC050 11/08 A2958 RMK AO2 PK WND 17030/0338 RAB0256 PRESRR P0002 T01110078=
202011180253 METAR KBFI 180253Z 18008G16KT 10SM SCT035 BKN050 OVC070 11/07 A2953 RMK AO2 RAE40 SLP999 P0002 60002 T01060072 53016=
202011180153 METAR KBFI 180153Z 19003KT 10SM -RA SCT020 BKN033 OVC055 11/08 A2950 RMK AO2 RAB09E25B42 SLP989 P0000 T01110083=
202011180149 SPECI KBFI 180149Z 22004G16KT 10SM -RA SCT015 BKN022 OVC075 11/08 A2950 RMK AO2 RAB09E25B42 P0000=
202011180053 METAR KBFI 180053Z 17012G22KT 10SM SCT020 BKN042 OVC200 12/09 A2948 RMK AO2 RAB09E21 SLP983 P0000 T01220089=
202011172353 METAR KBFI 172353Z 17007KT 10SM SCT015 BKN022 OVC075 12/09 A2946 RMK AO2 RAB25E38 SLP976 P0000 60016 T01220094 10172 20117 53021=
202011172253 METAR KBFI 172253Z AUTO 18011G17KT 10SM SCT022 OVC075 13/10 A2944 RMK AO2 SLP969 T01330100 TSNO=
202011172153 METAR KBFI 172153Z 18013G22KT 10SM SCT060 OVC080 13/09 A2942 RMK AO2 RAE36 SLP962 P0000 T01330094=
202011172053 METAR KBFI 172053Z 18012G23KT 10SM -RA BKN050 OVC070 12/09 A2940 RMK AO2 PK WND 17035/1954 RAB1958 SLP955 P0016 60016 T01220089 53017=
202011172026 SPECI KBFI 172026Z 20013G20KT 2 1/2SM +RA FEW030 BKN038 OVC047 13/09 A2940 RMK AO2 PK WND 17035/1954 RAB1958 PRESRR P0010 T01330094=
202011171953 METAR KBFI 171953Z 17023G36KT 10SM OVC065 17/07 A2934 RMK AO2 PK WND 16036/1953 RAB16E48 SLP934 P0000 T01670072=
202011171853 METAR KBFI 171853Z 18022G33KT 10SM FEW065 BKN085 17/07 A2933 RMK AO2 PK WND 17033/1850 SLP932 T01670072=
202011171753 METAR KBFI 171753Z 15012KT 10SM FEW060 OVC075 12/08 A2935 RMK AO2 RAB36E52 SLP938 P0000 60000 T01170078 10117 20067 50010=
202011171653 METAR KBFI 171653Z 15012KT 10SM SCT080 OVC100 10/07 A2936 RMK AO2 SLP943 T01000072=
202011171553 METAR KBFI 171553Z 15009KT 10SM FEW090 OVC150 09/07 A2936 RMK AO2 SLP940 T00890072=
202011171453 METAR KBFI 171453Z 12006KT 10SM OVC180 08/07 A2932 RMK AO2 SLP928 T00830067 55020=
202011171353 METAR KBFI 171353Z 00000KT 6SM BR OVC200 08/07 A2931 RMK AO2 SLP924 T00780067=
202011171253 METAR KBFI 171253Z 00000KT 10SM CLR 08/07 A2934 RMK AO2 SLP937 T00780067 $=
202011171153 METAR KBFI 171153Z 00000KT 4SM BR CLR 07/07 A2938 RMK AO2 SLP948 70026 T00720067 10083 20067 56041 $=
202011171053 METAR KBFI 171053Z 00000KT 8SM CLR 08/07 A2942 RMK AO2 SLP962 T00780067 $=
202011170953 METAR KBFI 170953Z 00000KT 5SM BR FEW002 08/07 A2946 RMK AO2 SLP974 T00780067 $=
202011170853 METAR KBFI 170853Z 00000KT 5SM BR FEW002 07/06 A2950 RMK AO2 SLP989 T00720061 58038 $=
202011170753 METAR KBFI 170753Z 00000KT 5SM BR CLR 08/07 A2954 RMK AO2 SLP004 T00780067 400890072 $=
202011170653 METAR KBFI 170653Z 00000KT 4SM BR FEW005 08/07 A2958 RMK AO2 SLP016 T00780067 $=
202011170553 METAR KBFI 170553Z 00000KT 4SM BR FEW005 BKN200 08/07 A2961 RMK AO2 SLP027 60001 T00830072 10089 20083 56027 $=
202011170453 METAR KBFI 170453Z 00000KT 7SM FEW050 BKN200 08/07 A2964 RMK AO2 SLP036 T00830072 $=
202011170353 METAR KBFI 170353Z 00000KT 7SM CLR 09/07 A2967 RMK AO2 RAE0254 SLP045 P0000 T00890072 $=
202011170253 METAR KBFI 170253Z 00000KT 10SM -RA FEW009 SCT020 OVC100 09/08 A2969 RMK AO2 RAE19B45 SLP055 P0000 60001 T00890078 57020 $=
202011170153 METAR KBFI 170153Z 00000KT 9SM -RA SCT005 BKN030 OVC042 09/08 A2971 RMK AO2 SLP062 P0001 T00890078 $=
202011170141 SPECI KBFI 170141Z 00000KT 6SM -RA BR SCT005 BKN030 OVC040 09/08 A2972 RMK AO2 P0001 T00890078 $=
202011170053 METAR KBFI 170053Z 00000KT 4SM -RA BR BKN005 OVC025 09/08 A2973 RMK AO2 RAB13 SLP068 P0000 T00890078 $=
202011170013 SPECI KBFI 170013Z 00000KT 4SM -RA BR BKN005 OVC025 09/07 A2974 RMK AO2 RAB13 P0000 T00890072 $=
202011162353 METAR KBFI 162353Z 00000KT 2SM BR BKN004 OVC025 09/08 A2975 RMK AO2 RAE45 SLP075 P0000 60024 T00890078 10089 20083 56038 $=
202011162340 SPECI KBFI 162340Z 2SM -RA BR BKN004 OVC025 09/07 A2976 RMK AO2 P0000 T00890072 $=
202011162338 SPECI KBFI 162338Z 1 1/2SM -RA BR SCT005 OVC025 09/08 A2976 RMK AO2 P0000 T00890078 $=
202011162253 METAR KBFI 162253Z 31003KT 1 1/2SM -RA BR BKN004 BKN018 OVC028 08/07 A2979 RMK AO2 SLP086 P0003 T00830072 $=
202011162153 METAR KBFI 162153Z 05004KT 2SM -RA BR BKN007 BKN013 OVC033 08/07 A2980 RMK AO2 PRESFR SLP090 P0015 T00830072=
202011162128 SPECI KBFI 162128Z 00000KT 2SM RA BR BKN007 OVC033 09/07 A2982 RMK AO2 P0009 T00890072=
202011162053 METAR KBFI 162053Z 31005KT 5SM -RA BR SCT008 OVC036 09/07 A2987 RMK AO2 SLP113 P0002 60006 T00890072 56044=
202011161953 METAR KBFI 161953Z VRB04KT 6SM -RA BR FEW040 BKN050 OVC060 09/07 A2990 RMK AO2 SLP124 P0001 T00890067=
202011161853 METAR KBFI 161853Z 03005KT 7SM -RA SCT005 OVC060 09/07 A2996 RMK AO2 SLP143 P0003 T00890067=
202011161753 METAR KBFI 161753Z VRB04KT 7SM -RA OVC050 08/07 A2999 RMK AO2 SLP156 P0000 60001 T00830067 10089 20078 58017=
202011161653 METAR KBFI 161653Z 00000KT 7SM -RA OVC050 08/06 A3002 RMK AO2 RAB1555 SLP166 P0001 T00830061=
202011161553 METAR KBFI 161553Z 00000KT 10SM SCT037 OVC075 08/06 A3004 RMK AO2 SLP171 T00830061=
202011161453 METAR KBFI 161453Z 00000KT 10SM OVC041 09/07 A3004 RMK AO2 SLP173 60000 T00890067 58019=
202011161353 METAR KBFI 161353Z 00000KT 10SM OVC037 08/07 A3008 RMK AO2 SLP186 T00830072=
202011161253 METAR KBFI 161253Z 00000KT 10SM BKN048 OVC055 08/07 A3009 RMK AO2 RAE45 SLP188 P0000 T00780067=
202011161153 METAR KBFI 161153Z 00000KT 6SM -RA BR OVC055 08/07 A3010 RMK AO2 RAB31 SLP192 P0000 60000 70005 T00830067 10089 20078 58013=
202011161112 SPECI KBFI 161112Z 16004KT 10SM SCT025 SCT060 OVC075 08/06 A3011 RMK AO2 T00780061=
202011161053 METAR KBFI 161053Z 13004KT 10SM BKN025 BKN035 OVC050 08/07 A3012 RMK AO2 SLP200 T00830067=
202011160953 METAR KBFI 160953Z 14004KT 10SM SCT030 BKN036 OVC050 08/07 A3014 RMK AO2 SLP205 T00830067=
202011160925 SPECI KBFI 160925Z 11007KT 10SM SCT025 OVC033 08/06 A3013 RMK AO2 T00830061=
202011160853 METAR KBFI 160853Z 13007KT 10SM OVC029 09/07 A3014 RMK AO2 SLP206 60000 T00890067 56001=
202011160753 METAR KBFI 160753Z 14009KT 10SM OVC050 08/07 A3014 RMK AO2 RAE19 SLP207 P0000 T00830067 401220083=
202011160653 METAR KBFI 160653Z 14009KT 10SM -RA FEW015 OVC060 08/06 A3015 RMK AO2 RAB28 SLP207 P0000 T00830061=
202011160553 METAR KBFI 160553Z 15010KT 10SM SCT040 BKN090 BKN110 08/06 A3013 RMK AO2 SLP202 60005 T00830056 10111 20083 51010=
202011160453 METAR KBFI 160453Z 15007KT 10SM FEW080 08/06 A3012 RMK AO2 SLP197 T00830056=
202011160353 METAR KBFI 160353Z 19006KT 10SM FEW048 BKN090 BKN100 10/06 A3011 RMK AO2 RAB03E21 SLP197 P0000 T01000061=
202011160253 METAR KBFI 160253Z 20011G19KT 10SM BKN100 BKN120 11/06 A3010 RMK AO2 SLP191 60005 T01060056 53013=
202011160153 METAR KBFI 160153Z 19011KT 10SM FEW028 SCT100 10/06 A3008 RMK AO2 RAB0056E49 SLP185 P0003 T01000061=
202011160053 METAR KBFI 160053Z 18010KT 10SM BKN025 OVC055 10/07 A3007 RMK AO2 RAB05E51 SLP181 P0002 T01000072=
202011152353 METAR KBFI 152353Z 18010G18KT 140V210 10SM FEW047 11/07 A3006 RMK AO2 SLP178 60000 T01060067 10122 20100 51013=
202011152253 METAR KBFI 152253Z 20010KT 10SM BKN030 11/06 A3006 RMK AO2 RAB09E20 SLP177 P0000 T01110056=
202011152153 METAR KBFI 152153Z 19010G17KT 10SM FEW036 SCT048 OVC095 12/06 A3003 RMK AO2 SLP170 T01220056=
202011152053 METAR KBFI 152053Z 20011KT 10SM SCT025 BKN033 BKN040 12/06 A3002 RMK AO2 RAB1958E08 SLP165 P0000 60000 T01170056 51016=
202011151953 METAR KBFI 151953Z 19008KT 10SM BKN033 BKN040 11/05 A3001 RMK AO2 SLP163 T01110050=
202011151853 METAR KBFI 151853Z 17013G19KT 10SM SCT008 SCT030 BKN045 11/06 A3001 RMK AO2 SLP160 T01060061=
202011151753 METAR KBFI 151753Z 18010G18KT 10SM SCT026 SCT032 BKN100 11/05 A2997 RMK AO2 SLP150 60000 T01060050 10106 20089 53030=
202011151653 METAR KBFI 151653Z 19010G15KT 10SM FEW024 SCT100 09/05 A2994 RMK AO2 SLP138 T00940050=
202011151553 METAR KBFI 151553Z 17011KT 10SM SCT034 BKN065 09/06 A2990 RMK AO2 SLP126 T00890056=
202011151453 METAR KBFI 151453Z 18009KT 10SM FEW024 SCT036 BKN050 09/06 A2989 RMK AO2 RAB07E37 SLP120 P0000 60000 T00890061 53028=
202011151353 METAR KBFI 151353Z 18009KT 10SM BKN025 09/06 A2985 RMK AO2 SLP108 T00940061=
202011151325 SPECI KBFI 151325Z 17010KT 10SM BKN025 09/06 A2984 RMK AO2 T00890061=
202011151253 METAR KBFI 151253Z 17016KT 10SM FEW075 BKN090 09/06 A2983 RMK AO2 RAB19E32 SLP100 P0000 T00890061=
202011151153 METAR KBFI 151153Z 20007G15KT 10SM FEW030 BKN041 09/07 A2980 RMK AO2 SLP092 60000 70036 T00940067 10100 20061 53015=
202011151116 SPECI KBFI 151116Z 18010G17KT 10SM SCT021 OVC080 10/07 A2978 RMK AO2 T01000067=
202011151053 METAR KBFI 151053Z 19012G18KT 10SM BKN019 10/07 A2978 RMK AO2 SLP084 T01000072=
202011151048 SPECI KBFI 151048Z 19011G18KT 10SM BKN019 10/07 A2978 RMK AO2=
202011151018 SPECI KBFI 151018Z 18013KT 10SM FEW013 SCT018 SCT075 09/07 A2976 RMK AO2 T00940072=
202011151005 SPECI KBFI 151005Z 19010G18KT 10SM FEW010 BKN015 BKN021 09/07 A2976 RMK AO2 T00940072=
202011150955 SPECI KBFI 150955Z 18011KT 10SM FEW009 BKN013 OVC025 09/08 A2976 RMK AO2 T00940078=
202011150953 METAR KBFI 150953Z 18011KT 10SM FEW010 BKN015 OVC025 09/08 A2976 RMK AO2 RAE0854B34E43 SLP077 P0000 T00940078=
202011150938 SPECI KBFI 150938Z 18014G21KT 10SM -RA FEW014 BKN022 OVC055 09/07 A2976 RMK AO2 RAE0854B34 P0000 T00940072=
202011150853 METAR KBFI 150853Z 17012KT 10SM -RA BKN032 BKN040 OVC047 09/07 A2974 RMK AO2 RAB30 SLP072 P0000 60000 T00940072 53012=
202011150753 METAR KBFI 150753Z 18009G15KT 10SM OVC030 08/06 A2973 RMK AO2 RAE28 SLP066 P0000 T00830056 400940044=
202011150653 METAR KBFI 150653Z 14005KT 8SM -RA OVC030 07/06 A2972 RMK AO2 RAB44 SLP063 P0000 T00670056=
202011150553 METAR KBFI 150553Z 16010KT 9SM OVC028 06/05 A2971 RMK AO2 RAE20 SLP060 P0000 60033 T00610050 10072 20061 56007=
202011150453 METAR KBFI 150453Z 00000KT 5SM -RA BR OVC028 06/05 A2972 RMK AO2 SLP065 P0000 T00610050=
202011150353 METAR KBFI 150353Z 00000KT 7SM -RA OVC028 06/05 A2971 RMK AO2 SLP061 P0000 T00610050=
202011150253 METAR KBFI 150253Z 14008KT 10SM -RA OVC028 06/04 A2973 RMK AO2 SLP067 P0012 60033 T00610044 56058=
202011150153 METAR KBFI 150153Z 17006KT 4SM RA BR OVC028 06/04 A2977 RMK AO2 SLP080 P0010 T00610039=
202011150053 METAR KBFI 150053Z 10008KT 7SM -RA OVC028 07/05 A2983 RMK AO2 PRESFR SLP100 P0011 T00670050=
202011142353 METAR KBFI 142353Z 13008KT 5SM -RA OVC031 07/04 A2990 RMK AO2 SLP125 P0003 60003 T00720039 10094 20072 56042=
202011142253 METAR KBFI 142253Z 16007KT 7SM -RA OVC038 08/03 A2995 RMK AO2 RAB24 SLP140 P0000 T00830028=
202011142153 METAR KBFI 142153Z 00000KT 10SM OVC070 09/03 A2998 RMK AO2 SLP150 T00890028=
202011142053 METAR KBFI 142053Z 19005KT 10SM FEW025 OVC085 09/02 A3003 RMK AO2 SLP167 T00890017 58026=
202011141953 METAR KBFI 141953Z 17007KT 10SM FEW015 SCT065 OVC095 09/03 A3006 RMK AO2 SLP179 T00940028=
202011141853 METAR KBFI 141853Z 17009KT 10SM OVC080 08/03 A3009 RMK AO2 SLP190 T00830028=
202011141753 METAR KBFI 141753Z 15006KT 10SM SCT019 08/03 A3010 RMK AO2 SLP193 T00780033 10078 20044 51017=
202011141653 METAR KBFI 141653Z 15008KT 10SM BKN022 06/03 A3009 RMK AO2 SLP189 T00610028=
202011141553 METAR KBFI 141553Z 14007KT 10SM SCT021 SCT026 06/02 A3008 RMK AO2 SLP185 T00560022=
202011141453 METAR KBFI 141453Z 16005KT 10SM SCT020 06/03 A3005 RMK AO2 SLP176 T00610028 52029=
202011141353 METAR KBFI 141353Z 19004KT 10SM OVC020 07/03 A3002 RMK AO2 SLP166 T00670028=
202011141313 SPECI KBFI 141313Z 22005KT 10SM BKN021 07/03 A3001 RMK AO2 T00670028=
202011141253 METAR KBFI 141253Z AUTO VRB03KT 10SM FEW021 07/03 A3000 RMK AO2 SLP157 T00670028 TSNO=
202011141224 SPECI KBFI 141224Z AUTO 22007KT 10SM SCT021 07/03 A2998 RMK AO2 T00670028 TSNO=
202011141153 METAR KBFI 141153Z AUTO 21005KT 10SM BKN022 07/03 A2997 RMK AO2 SLP147 70018 T00670028 10072 20061 51022 TSNO=
202011141115 SPECI KBFI 141115Z AUTO 24008KT 10SM BKN022 BKN090 07/02 A2996 RMK AO2 T00670022 TSNO=
202011141053 METAR KBFI 141053Z AUTO VRB04KT 10SM FEW090 07/02 A2996 RMK AO2 SLP144 T00670022 TSNO=
202011140953 METAR KBFI 140953Z AUTO 22006G17KT 10SM CLR 07/02 A2993 RMK AO2 SLP133 T00670022 TSNO=
202011140853 METAR KBFI 140853Z AUTO VRB06KT 10SM CLR 07/02 A2990 RMK AO2 SLP125 T00670017 51033 TSNO=
202011140830 SPECI KBFI 140830Z 22004KT 10SM SCT024 07/02 A2990 RMK AO2 T00670022=
202011140803 SPECI KBFI 140803Z VRB05KT 10SM BKN024 07/02 A2988 RMK AO2 T00670022=
202011140753 METAR KBFI 140753Z 10SM SCT024 07/02 A2988 RMK AO2 SLP117 T00670022 401170061=
202011140653 METAR KBFI 140653Z VRB04KT 10SM CLR 07/02 A2984 RMK AO2 SLP105 T00670017=
202011140553 METAR KBFI 140553Z 22007KT 10SM FEW025 SCT050 07/02 A2980 RMK AO2 SLP092 T00720022 10100 20067 51043=
202011140453 METAR KBFI 140453Z VRB03KT 10SM FEW025 07/02 A2976 RMK AO2 SLP079 T00720017=
202011140353 METAR KBFI 140353Z 22006G14KT 10SM FEW015 07/02 A2972 RMK AO2 SLP065 T00720022=
202011140253 METAR KBFI 140253Z 24006G16KT 10SM SCT045 SCT090 BKN200 07/02 A2968 RMK AO2 SLP049 T00720022 51042=
202011140153 METAR KBFI 140153Z 23009G16KT 10SM SCT050 BKN080 BKN200 08/01 A2964 RMK AO2 SLP037 T00780011=
202011140053 METAR KBFI 140053Z 25010KT 10SM BKN050 09/01 A2959 RMK AO2 SLP021 T00890006=
202011132353 METAR KBFI 132353Z 24009G17KT 10SM BKN042 BKN080 BKN200 10/02 A2955 RMK AO2 SLP007 T01000017 10117 20100 53047=
202011132253 METAR KBFI 132253Z 26012G19KT 10SM SCT030 SCT050 11/01 A2950 RMK AO2 PK WND 24028/2203 SLP989 T01060011=
202011132153 METAR KBFI 132153Z 24014G23KT 10SM SCT030 SCT100 12/02 A2945 RMK AO2 SLP972 T01170017=
202011132053 METAR KBFI 132053Z 24012G20KT 10SM SCT050 SCT100 BKN220 12/03 A2941 RMK AO2 SLP960 T01170033 51050=
202011131953 METAR KBFI 131953Z 22009G16KT 10SM SCT021 10/04 A2937 RMK AO2 SLP946 T01000044=
202011131853 METAR KBFI 131853Z 22011G24KT 10SM FEW013 BKN040 BKN100 11/05 A2932 RMK AO2 PK WND 19028/1837 SLP927 T01060050=
202011131753 METAR KBFI 131753Z 20009G23KT 10SM SCT011 BKN050 11/07 A2927 RMK AO2 RAB1654E04 SLP910 P0000 60018 T01110067 10111 20072 53019=
202011131659 SPECI KBFI 131659Z 19013G22KT 10SM -RA SCT013 BKN015 BKN050 10/07 A2922 RMK AO2 RAB54 P0000 T01000067=
202011131653 METAR KBFI 131653Z 19014G25KT 10SM SCT013 BKN015 BKN050 10/07 A2923 RMK AO2 SLP896 T01000072=
202011131553 METAR KBFI 131553Z 17015G21KT 6SM BR OVC018 08/06 A2921 RMK AO2 RAE09B14E23B39E48 SLP890 P0000 T00830061=
202011131513 SPECI KBFI 131513Z 17013KT 6SM HZ SCT024 BKN029 OVC036 08/06 A2921 RMK AO2 RAE09 P0000 T00830056=
202011131453 METAR KBFI 131453Z 18015G21KT 10SM -RA BKN040 08/06 A2921 RMK AO2 SLP891 P0000 60018 T00780056 56022=
202011131353 METAR KBFI 131353Z 17011G20KT 7SM RA OVC041 08/06 A2923 RMK AO2 SLP896 P0014 T00780056=
202011131253 METAR KBFI 131253Z 18010KT 7SM -RA OVC042 08/07 A2924 RMK AO2 PK WND 16030/1159 SLP901 P0004 T00830072=
202011131250 SPECI KBFI 131250Z 18012KT 7SM -RA OVC042 08/07 A2924 RMK AO2 PK WND 16030/1159 P0004=
202011131153 METAR KBFI 131153Z 16017G26KT 10SM -RA OVC045 08/07 A2927 RMK AO2 PK WND 15027/1141 SLP913 P0000 60023 70044 T00830067 10083 20072 56069=
202011131053 METAR KBFI 131053Z 15018KT 10SM -RA OVC045 08/05 A2934 RMK AO2 PRESFR SLP933 P0012 T00780050=
202011130953 METAR KBFI 130953Z 16012KT 7SM -RA OVC044 08/06 A2942 RMK AO2 SLP960 P0006 T00830061=
202011130853 METAR KBFI 130853Z 15012KT 10SM -RA OVC046 08/05 A2948 RMK AO2 PRESFR SLP982 P0000 60005 T00780050 58063=
202011130753 METAR KBFI 130753Z 16012KT 10SM -RA OVC045 08/05 A2955 RMK AO2 PRESFR SLP007 P0004 T00780050 401060039=
202011130653 METAR KBFI 130653Z 16013KT 7SM -RA OVC039 08/05 A2961 RMK AO2 PRESFR SLP026 P0001 T00780050=
202011130553 METAR KBFI 130553Z AUTO 16012KT 7SM -RA OVC038 07/05 A2966 RMK AO2 SLP045 P0005 60019 T00720050 10083 20072 58034 TSNO=
202011130453 METAR KBFI 130453Z AUTO 16009KT 6SM -RA BR OVC032 07/05 A2970 RMK AO2 SLP058 P0007 T00720050 TSNO=
202011130353 METAR KBFI 130353Z 16010KT 6SM -RA BR OVC034 07/05 A2974 RMK AO2 SLP069 P0005 T00720050=
202011130253 METAR KBFI 130253Z 17008KT 7SM -RA OVC036 08/04 A2976 RMK AO2 SLP078 P0002 60002 T00780039 56033=
202011130153 METAR KBFI 130153Z 15013KT 10SM -RA OVC038 08/03 A2978 RMK AO2 RAE24B47 SLP085 P0000 T00780033=
202011130053 METAR KBFI 130053Z 16011KT 8SM -RA OVC040 08/03 A2983 RMK AO2 PK WND 18026/0022 SLP101 P0000 T00780033=
202011122353 METAR KBFI 122353Z 17010KT 8SM -RA SCT015 OVC037 08/03 A2986 RMK AO2 RAB07 SLP111 P0002 60002 T00830033 10106 20067 56027=
202011122253 METAR KBFI 122253Z 18007KT 10SM OVC060 10/02 A2987 RMK AO2 SLP116 T01000017=
202011122153 METAR KBFI 122153Z 16005KT 10SM OVC070 10/02 A2990 RMK AO2 SLP126 T01000022=
202011122053 METAR KBFI 122053Z 16008KT 10SM OVC060 09/02 A2994 RMK AO2 SLP138 T00890017 58028=
202011121953 METAR KBFI 121953Z 15008KT 10SM OVC060 08/02 A2998 RMK AO2 SLP151 T00830017=
202011121853 METAR KBFI 121853Z 15007KT 10SM FEW040 OVC055 07/02 A3000 RMK AO2 SLP160 T00720017=
202011121753 METAR KBFI 121753Z 14006KT 10SM OVC055 07/01 A3002 RMK AO2 SLP166 60000 T00670011 10067 20044 56014=
202011121653 METAR KBFI 121653Z 15008KT 10SM FEW032 SCT050 SCT070 06/02 A3003 RMK AO2 SLP168 T00560017=
202011121553 METAR KBFI 121553Z 15006KT 10SM FEW045 SCT050 OVC070 05/02 A3005 RMK AO2 SLP174 T00500017=
202011121453 METAR KBFI 121453Z 15006KT 10SM FEW028 OVC046 04/02 A3007 RMK AO2 SLP180 60000 T00440017 58013=
202011121353 METAR KBFI 121353Z 16005KT 10SM BKN050 OVC065 04/02 A3008 RMK AO2 SLP185 T00440017=
202011121253 METAR KBFI 121253Z 14005KT 10SM BKN033 BKN043 04/02 A3009 RMK AO2 RAB10E26 SLP189 P0000 T00440017=
202011121153 METAR KBFI 121153Z 13003KT 10SM BKN032 BKN042 OVC060 05/02 A3010 RMK AO2 SLP194 60000 T00500022 10061 20039 56015=
202011121053 METAR KBFI 121053Z 15004KT 10SM OVC038 05/02 A3012 RMK AO2 RAE06 SLP197 P0000 T00500022=
202011120953 METAR KBFI 120953Z 11003KT 8SM -RA OVC042 06/02 A3013 RMK AO2 RAB50 SLP201 P0000 T00560022=
202011120853 METAR KBFI 120853Z 14004KT 10SM SCT050 OVC070 04/02 A3015 RMK AO2 SLP208 T00440022 58013=
202011120753 METAR KBFI 120753Z 14003KT 10SM FEW050 OVC070 05/02 A3017 RMK AO2 SLP216 T00500022 400830017=
202011120653 METAR KBFI 120653Z 16003KT 10SM OVC065 06/02 A3018 RMK AO2 SLP219 T00560022=
202011120553 METAR KBFI 120553Z 14005KT 10SM OVC060 06/02 A3019 RMK AO2 SLP221 T00560017 10083 20050 55001=
202011120453 METAR KBFI 120453Z 11004KT 10SM BKN060 06/02 A3017 RMK AO2 SLP217 T00560017=
202011120353 METAR KBFI 120353Z 00000KT 10SM OVC050 07/03 A3018 RMK AO2 SLP220 T00720028=
202011120253 METAR KBFI 120253Z 00000KT 10SM OVC050 07/02 A3019 RMK AO2 SLP222 T00720022 58005=
202011120153 METAR KBFI 120153Z 00000KT 10SM OVC055 07/02 A3020 RMK AO2 SLP225 T00720017=
202011120053 METAR KBFI 120053Z 06003KT 10SM OVC055 08/01 A3020 RMK AO2 SLP226 T00780011=
202011112353 METAR KBFI 112353Z 00000KT 10SM OVC050 08/01 A3020 RMK AO2 SLP227 T00830006 10083 20056 53003=
202011112253 METAR KBFI 112253Z 00000KT 10SM FEW025 BKN050 08/01 A3019 RMK AO2 SLP224 T00830011=
202011112153 METAR KBFI 112153Z 00000KT 10SM BKN050 08/01 A3019 RMK AO2 SLP222 T00780011=
202011112053 METAR KBFI 112053Z 19003KT 10SM SCT018 OVC050 07/01 A3020 RMK AO2 SLP225 T00720011 58001=
202011111953 METAR KBFI 111953Z 00000KT 10SM SCT030 OVC050 07/02 A3020 RMK AO2 SLP227 T00720017=
202011111853 METAR KBFI 111853Z AUTO 00000KT 10SM SCT018 OVC050 07/03 A3021 RMK AO2 SLP229 T00670028 TSNO=
202011111753 METAR KBFI 111753Z 00000KT 10SM FEW020 OVC049 06/03 A3020 RMK AO2 SLP226 T00560028 10056 20022 52012=
202011111653 METAR KBFI 111653Z 11004KT 10SM OVC049 05/02 A3019 RMK AO2 SLP221 T00500022=
202011111553 METAR KBFI 111553Z 17004KT 10SM SCT020 BKN050 04/02 A3018 RMK AO2 SLP218 T00390022=
202011111453 METAR KBFI 111453Z 00000KT 10SM OVC050 04/02 A3016 RMK AO2 SLP214 T00390017 53010=
202011111353 METAR KBFI 111353Z 00000KT 10SM FEW015 OVC055 03/02 A3015 RMK AO2 SLP209 T00330017=
202011111253 METAR KBFI 111253Z 00000KT 10SM OVC055 03/02 A3014 RMK AO2 SLP206 T00330017=
202011111153 METAR KBFI 111153Z 00000KT 10SM OVC055 03/02 A3014 RMK AO2 SLP204 7//// T00330017 10061 20017 51010=
202011111053 METAR KBFI 111053Z 00000KT 10SM OVC050 02/01 A3013 RMK AO2 SLP201 T00220011=
202011110953 METAR KBFI 110953Z 00000KT 10SM BKN048 03/01 A3011 RMK AO2 SLP197 T00280011=
202011110853 METAR KBFI 110853Z 00000KT 10SM BKN036 BKN049 03/01 A3010 RMK AO2 SLP193 T00280011 51014=
202011110753 METAR KBFI 110753Z 00000KT 10SM FEW036 03/01 A3009 RMK AO2 SLP190 T00330011=
202011110653 METAR KBFI 110653Z 00000KT 10SM CLR 04/02 A3008 RMK AO2 SLP185 T00440017=
202011110553 METAR KBFI 110553Z 03005KT 10SM BKN035 OVC085 06/02 A3006 RMK AO2 SLP180 60000 T00610017 10072 20061 53017=
202011110453 METAR KBFI 110453Z 36003KT 10SM OVC038 06/02 A3004 RMK AO2 SLP173 T00610022=
202011110353 METAR KBFI 110353Z 34007KT 10SM SCT015 BKN033 07/02 A3003 RMK AO2 SLP167 T00720022=
202011110302 SPECI KBFI 110302Z 34005KT 10SM SCT028 OVC055 07/02 A3001 RMK AO2 T00720017=
202011110253 METAR KBFI 110253Z 34005KT 10SM FEW023 BKN028 OVC055 07/02 A3001 RMK AO2 SLP162 60000 T00720022 53012=
202011110153 METAR KBFI 110153Z VRB03KT 10SM BKN019 BKN025 OVC031 07/03 A3000 RMK AO2 SLP157 T00720033=
202011110053 METAR KBFI 110053Z 00000KT 10SM OVC028 07/04 A2998 RMK AO2 RAE07 SLP151 P0000 T00720039=
202011102353 METAR KBFI 102353Z 36005KT 7SM -RA FEW016 BKN024 OVC042 07/04 A2998 RMK AO2 RAB32 SLP150 P0000 60000 T00720044 10089 20072 53006=
202011102253 METAR KBFI 102253Z AUTO 31003KT 10SM OVC026 08/04 A2996 RMK AO2 RAB23E36 SLP145 P0000 T00830039 TSNO=
202011102153 METAR KBFI 102153Z 34006KT 10SM SCT012 OVC020 08/04 A2995 RMK AO2 RAB23E33 SLP142 P0000 T00830039=
202011102053 METAR KBFI 102053Z 19003KT 10SM BKN023 OVC035 08/04 A2996 RMK AO2 SLP144 T00830044 58014 $=
202011101953 METAR KBFI 101953Z 00000KT 10SM BKN015 OVC035 08/04 A2998 RMK AO2 SLP150 T00830044 $=
202011101853 METAR KBFI 101853Z 21004KT 10SM BKN015 OVC035 08/04 A3000 RMK AO2 SLP158 T00780044 $=
202011101753 METAR KBFI 101753Z 22004KT 10SM BKN014 OVC044 07/05 A3000 RMK AO2 SLP158 6//// T00720050 50004 $=
202011101653 METAR KBFI 101653Z 23004KT 10SM BKN013 BKN017 07/04 A3000 RMK AO2 SLP158 T00670044 $=
202011101553 METAR KBFI 101553Z 22003KT 10SM BKN017 OVC025 07/04 A2999 RMK AO2 RAE22 SLP155 P0001 T00670044 $=
202011101453 METAR KBFI 101453Z 00000KT 10SM -RA BKN014 OVC020 07/04 A2999 RMK AO2 RAB53 SLP154 P0000 60000 T00670039 56010 $=
202011101353 METAR KBFI 101353Z 00000KT 10SM BKN019 OVC024 A2999 RMK AO2 SLP157 $=
202011101316 SPECI KBFI 101316Z 00000KT 10SM BKN024 BKN031 BKN120 A3000 RMK AO2 $=
202011101253 METAR KBFI 101253Z 14004KT 10SM FEW027 A3000 RMK AO2 SLP160 $=
202011101153 METAR KBFI 101153Z 24006KT 10SM SCT024 BKN033 A3001 RMK AO2 SLP164 60000 70001 53011 $=
202011101053 METAR KBFI 101053Z 00000KT 10SM BKN019 07/04 A3000 RMK AO2 SLP160 T00720039 $=
202011100953 METAR KBFI 100953Z VRB06G17KT 10SM BKN020 07/03 A2999 RMK AO2 RAE49 SLP153 P0000 T00720033 $=
202011100853 METAR KBFI 100853Z 19009G16KT 10SM -RA BKN019 06/03 A2998 RMK AO2 SLP153 P0000 60000 T00610028 55017 $=
202011100753 METAR KBFI 100753Z 19010G20KT 10SM -RA BKN019 OVC023 04/03 A2998 RMK AO2 SLP151 P0000 T00390028 $=
202011100653 METAR KBFI 100653Z 15007KT 10SM -RA OVC022 04/03 A3000 RMK AO2 SLP158 P0000 T00390028 $=
202011100553 METAR KBFI 100553Z 28003KT 10SM -RA OVC026 04/03 A3003 RMK AO2 SLP169 P0001 60001 T00390028 56025 $=
202011100453 METAR KBFI 100453Z 12008KT 10SM -RA BKN025 OVC035 04/02 A3004 RMK AO2 RAE06B49UPB06E49 PRESFR SLP170 P0000 T00390017 $=
202011100353 METAR KBFI 100353Z 15011KT 10SM -RA BKN024 OVC034 04/02 A3008 RMK AO2 RAE02B41UPB02E04 SLP186 P0000 T00390022 $=
202011100253 METAR KBFI 100253Z 15011KT 10SM -RA OVC025 04/01 A3011 RMK AO2 UPB07E11B48E52 SLP195 P0000 60000 T00440006 56015 $=
202011100153 METAR KBFI 100153Z 16015G20KT 10SM -RA SCT034 OVC045 06/01 A3012 RMK AO2 RAB17 SLP200 P0000 T00610006 $=
202011100053 METAR KBFI 100053Z 16011KT 10SM SCT040 OVC050 06/01 A3014 RMK AO2 RAB10E23 SLP204 P0000 T00610006 $=
202011092353 METAR KBFI 092353Z 17010KT 10SM FEW045 OVC055 07/M01 A3015 RMK AO2 SLP209 T00721006 $=
202011092253 METAR KBFI 092253Z 16008KT 10SM SCT048 BKN075 OVC090 01/01 A3018 RMK AO2 SLP219 T00060006 $=
202011092153 METAR KBFI 092153Z 17008KT 10SM SCT060 OVC090 01/M01 A3020 RMK AO2 SLP224 T00061006 $=
202011091953 METAR KBFI 091953Z AUTO A3022 RMK AO2 SLP235 PWINO FZRANO TSNO=
202011091853 METAR KBFI 091853Z 14005KT 10SM OVC090 03/M01 A3024 RMK AO2 SLP240 T00331011 $=
202011091753 METAR KBFI 091753Z 15006KT 10SM OVC130 03/M02 A3024 RMK AO2 SLP241 T00281017 53001 $=
202011091653 METAR KBFI 091653Z 15004KT 10SM CLR 01/M02 A3024 RMK AO2 SLP240 T00111017 $=
202011091553 METAR KBFI 091553Z 14004KT 10SM BKN130 00/M02 A3024 RMK AO2 SLP239 T00001017 $=
202011091453 METAR KBFI 091453Z 15008KT 10SM BKN130 M01/M02 A3024 RMK AO2 SLP240 T10061022 50002 $=
202011091353 METAR KBFI 091353Z 15006KT 10SM CLR M01/M02 A3025 RMK AO2 SLP243 T10111022 $=
202011091253 METAR KBFI 091253Z 15005KT 10SM CLR A3025 RMK AO2 SLP245 $=
202011091153 METAR KBFI 091153Z 14006KT 10SM CLR M02/M03 A3024 RMK AO2 SLP238 T10221033 55000 $=
202011091053 METAR KBFI 091053Z 13003KT 10SM CLR M02/M03 A3024 RMK AO2 SLP238 T10171028 $=
202011090953 METAR KBFI 090953Z AUTO 00000KT 10SM CLR 00/M03 A3023 RMK AO2 SLP236 T00001028 TSNO $=
202011090853 METAR KBFI 090853Z AUTO 15004KT 10SM CLR A3023 RMK AO2 SLP238 53006 TSNO $=
202011090753 METAR KBFI 090753Z AUTO 14005KT 10SM CLR M01/M03 A3023 RMK AO2 SLP234 T10061033 400891017 TSNO $=
202011090653 METAR KBFI 090653Z AUTO 15005KT 10SM CLR 00/M03 A3022 RMK AO2 SLP232 T00001033 TSNO $=
202011090553 METAR KBFI 090553Z 16005KT 10SM CLR M01/M04 A3022 RMK AO2 SLP232 T10061044 10083 21011 51010 $=
202011090453 METAR KBFI 090453Z 00000KT 10SM CLR 02/M04 A3021 RMK AO2 SLP228 T00221044 $=
202011090353 METAR KBFI 090353Z 00000KT 10SM CLR 03/M05 A3020 RMK AO2 SLP226 T00331050 $=
202011090253 METAR KBFI 090253Z 00000KT 10SM CLR 06/M06 A3019 RMK AO2 SLP222 T00561061 51021 $=
202011090153 METAR KBFI 090153Z 00000KT 10SM CLR 06/M07 A3018 RMK AO2 SLP218 T00611067 $=
202011090053 METAR KBFI 090053Z 34004KT 10SM CLR 07/M07 A3015 RMK AO2 SLP210 T00721072 $=
202011082353 METAR KBFI 082353Z 33008G16KT 10SM CLR 08/M07 A3012 RMK AO2 SLP200 T00831072 10089 20061 53020 $=
202011082253 METAR KBFI 082253Z 35007KT 320V020 10SM CLR 09/M08 A3010 RMK AO2 SLP191 T00891078 $=
202011082153 METAR KBFI 082153Z 34008G19KT 10SM CLR 09/M08 A3008 RMK AO2 SLP186 T00891078 $=
202011082053 METAR KBFI 082053Z 35011G20KT 10SM CLR 08/M07 A3006 RMK AO2 SLP180 T00831072 51017 $=
202011081953 METAR KBFI 081953Z 34009G17KT 10SM CLR 08/M06 A3005 RMK AO2 SLP174 T00831061 $=
202011081853 METAR KBFI 081853Z VRB03KT 10SM CLR 08/M04 A3004 RMK AO2 SLP171 T00781044 $=
202011081753 METAR KBFI 081753Z VRB04KT 10SM FEW120 06/M03 A3001 RMK AO2 SLP163 T00611033 10061 21017 51027 $=
202011081653 METAR KBFI 081653Z 00000KT 10SM CLR 01/M02 A3000 RMK AO2 SLP157 T00111017 $=
202011081553 METAR KBFI 081553Z 14003KT 10SM FEW110 M01/M02 A2997 RMK AO2 SLP148 T10061017 $=
202011081453 METAR KBFI 081453Z 13004KT 10SM SCT100 M01/M02 A2993 RMK AO2 SLP136 T10061022 51030 $=
202011081353 METAR KBFI 081353Z 13003KT 10SM FEW120 M01/M03 A2991 RMK AO2 SLP127 T10111028=
202011081253 METAR KBFI 081253Z 15008KT 10SM CLR M01/M02 A2987 RMK AO2 SLP114 T10111022=
202011081153 METAR KBFI 081153Z 15004KT 10SM CLR 00/M02 A2984 RMK AO2 SLP106 T00001022 10067 20000 52024=
202011081053 METAR KBFI 081053Z VRB05KT 10SM CLR 06/M08 A2982 RMK AO2 SLP096 T00561078=
202011080953 METAR KBFI 080953Z 01006KT 10SM CLR 06/M07 A2980 RMK AO2 SLP091 T00561072=
202011080853 METAR KBFI 080853Z 34007KT 290V010 10SM CLR 06/M07 A2977 RMK AO2 SLP082 T00611072 53009=
202011080753 METAR KBFI 080753Z VRB06KT 10SM CLR 06/M08 A2975 RMK AO2 SLP073 T00611078 400780011=
202011080653 METAR KBFI 080653Z 34008G17KT 10SM CLR 06/M08 A2974 RMK AO2 SLP071 T00611083=
202011080553 METAR KBFI 080553Z 36009G15KT 330V040 10SM CLR 06/M08 A2975 RMK AO2 SLP072 T00611083 10078 20050 51005=
202011080453 METAR KBFI 080453Z 31003KT 10SM CLR 05/M01 A2975 RMK AO2 SLP072 T00501006=
202011080353 METAR KBFI 080353Z 32007G15KT 10SM SCT100 07/M01 A2974 RMK AO2 SLP070 T00671011=
202011080253 METAR KBFI 080253Z VRB06KT 10SM BKN100 07/M02 A2973 RMK AO2 SLP067 T00721017 58004=
202011080153 METAR KBFI 080153Z 33016G27KT 10SM SCT030 BKN040 OVC100 08/M01 A2973 RMK AO2 SLP068 T00781006=
202011080053 METAR KBFI 080053Z VRB04KT 10SM SCT029 BKN037 OVC075 07/02 A2974 RMK AO2 SLP072 T00670017=
202011072353 METAR KBFI 072353Z VRB03KT 10SM SCT021 BKN060 OVC090 06/02 A2974 RMK AO2 SLP072 60000 T00610022 10067 20050 53002=
202011072253 METAR KBFI 072253Z 33008G16KT 10SM FEW028 BKN041 OVC080 06/01 A2973 RMK AO2 SLP068 T00610011=
202011072153 METAR KBFI 072153Z VRB03KT 10SM FEW017 BKN055 07/01 A2973 RMK AO2 SLP068 T00670011=
202011072053 METAR KBFI 072053Z 33006KT 10SM FEW021 BKN039 OVC055 06/02 A2974 RMK AO2 SLP070 60000 T00560017 58013=
202011072009 SPECI KBFI 072009Z VRB03KT 10SM FEW023 BKN039 OVC048 07/02 A2975 RMK AO2 T00670017=
202011072000 SPECI KBFI 072000Z VRB04KT 10SM FEW024 BKN029 OVC037 06/03 A2976 RMK AO2 T00610028=
202011071953 METAR KBFI 071953Z 00000KT 10SM SCT024 OVC065 06/03 A2975 RMK AO2 RAB29E38 SLP075 P0000 T00610033=
202011071853 METAR KBFI 071853Z 00000KT 10SM FEW047 OVC060 06/03 A2977 RMK AO2 RAB05E16 SLP080 P0000 T00560033=
202011071753 METAR KBFI 071753Z 00000KT 10SM BKN040 OVC060 05/03 A2978 RMK AO2 SLP083 T00500033 10050 20017 58008=
202011071653 METAR KBFI 071653Z 15005KT 10SM SCT038 OVC050 04/03 A2979 RMK AO2 SLP087 T00390028=
202011071553 METAR KBFI 071553Z 15004KT 10SM FEW038 BKN050 03/02 A2980 RMK AO2 SLP091 T00330022=
202011071453 METAR KBFI 071453Z 16005KT 10SM FEW019 SCT027 OVC034 03/02 A2980 RMK AO2 SLP091 T00330017 58006=
202011071353 METAR KBFI 071353Z 14006KT 10SM FEW003 SCT020 OVC032 03/02 A2981 RMK AO2 SLP095 T00280017=
202011071313 SPECI KBFI 071313Z 14007KT 7SM FEW004 SCT018 BKN032 02/02 A2982 RMK AO2 T00220017=
202011071253 METAR KBFI 071253Z 16004KT 8SM FEW026 BKN032 02/02 A2983 RMK AO2 SLP099 T00220017=
202011071213 SPECI KBFI 071213Z 14004KT 9SM SCT022 OVC030 03/02 A2982 RMK AO2 T00280022=
202011071153 METAR KBFI 071153Z 13004KT 8SM OVC029 03/02 A2982 RMK AO2 SLP097 T00280022 10044 20011 58007=
202011071053 METAR KBFI 071053Z 14005KT 6SM BR OVC023 03/02 A2983 RMK AO2 SLP100 T00280022=
202011070953 METAR KBFI 070953Z 18003KT 7SM OVC025 02/01 A2983 RMK AO2 SLP102 T00170011=
202011070925 SPECI KBFI 070925Z 13003KT 10SM BKN024 02/01 A2983 RMK AO2 T00220011=
202011070853 METAR KBFI 070853Z 00000KT 10SM CLR 02/01 A2984 RMK AO2 SLP104 T00220011 58006=
202011070753 METAR KBFI 070753Z 00000KT 10SM CLR 02/02 A2985 RMK AO2 SLP106 T00220017 401060022=
202011070653 METAR KBFI 070653Z 00000KT 10SM CLR 03/02 A2986 RMK AO2 SLP110 T00330022=
202011070553 METAR KBFI 070553Z 00000KT 10SM CLR 04/02 A2986 RMK AO2 SLP110 T00440022 10106 20044 58004=
202011070453 METAR KBFI 070453Z 24003KT 10SM CLR 06/02 A2987 RMK AO2 SLP114 T00560022=
202011070353 METAR KBFI 070353Z 05004KT 10SM CLR 07/02 A2986 RMK AO2 SLP112 T00720022=
202011070253 METAR KBFI 070253Z VRB03KT 10SM CLR 08/02 A2987 RMK AO2 SLP115 T00780017 53002=
202011070153 METAR KBFI 070153Z 00000KT 10SM CLR 08/02 A2986 RMK AO2 SLP113 T00830022=
202011070053 METAR KBFI 070053Z VRB03KT 10SM SCT030 09/02 A2986 RMK AO2 SLP112 T00940022=
202011062353 METAR KBFI 062353Z VRB04KT 10SM BKN034 11/02 A2986 RMK AO2 SLP112 T01060022 10106 20083 55000=
202011062253 METAR KBFI 062253Z VRB06KT 10SM BKN036 10/02 A2986 RMK AO2 SLP111 T01000022=
202011062153 METAR KBFI 062153Z 33007G17KT 10SM OVC034 10/02 A2986 RMK AO2 SLP110 T01000022=
202011062053 METAR KBFI 062053Z VRB05KT 10SM BKN031 10/03 A2986 RMK AO2 SLP112 T01000028 58009=
202011061953 METAR KBFI 061953Z 36007KT 310V020 10SM BKN031 09/03 A2987 RMK AO2 SLP114 T00940028=
202011061942 SPECI KBFI 061942Z 35008KT 10SM BKN028 09/03 A2988 RMK AO2 T00940028=
202011061853 METAR KBFI 061853Z VRB06KT 10SM OVC028 09/03 A2990 RMK AO2 SLP124 T00890028=
202011061753 METAR KBFI 061753Z 34008KT 300V030 10SM OVC026 08/03 A2989 RMK AO2 SLP121 T00830033 10089 20083 50005=
202011061653 METAR KBFI 061653Z 01008KT 10SM BKN018 BKN024 08/03 A2990 RMK AO2 SLP125 T00830033=
202011061553 METAR KBFI 061553Z VRB06G21KT 10SM BKN018 BKN025 09/04 A2987 RMK AO2 SLP116 T00890039=
202011061453 METAR KBFI 061453Z 10SM BKN020 OVC050 09/04 A2988 RMK AO2 SLP116 T00890044 53007=
202011061400 SPECI KBFI 061400Z 01008G16KT 340V050 10SM BKN020 OVC080 09/04 A2985 RMK AO2 T00890044 $=
202011061353 METAR KBFI 061353Z 34008KT 300V360 10SM SCT020 BKN080 OVC100 09/05 A2985 RMK AO2 SLP107 T00890050 $=
202011061253 METAR KBFI 061253Z 36007KT 330V050 10SM SCT020 BKN080 OVC100 09/04 A2985 RMK AO2 SLP106 T00890044 $=
202011061153 METAR KBFI 061153Z 36007KT 320V030 10SM SCT021 OVC090 09/05 A2986 RMK AO2 SLP109 60000 70003 T00890050 10089 20078 58012=
202011061053 METAR KBFI 061053Z VRB05KT 10SM SCT018 OVC070 09/06 A2986 RMK AO2 RAE16 SLP112 P0000 T00890056=
202011060953 METAR KBFI 060953Z 04004KT 10SM -RA OVC060 08/06 A2989 RMK AO2 SLP121 P0000 T00830056=
202011060853 METAR KBFI 060853Z 35006KT 10SM -RA SCT010 OVC080 08/06 A2989 RMK AO2 RAB49 SLP121 P0000 60000 T00830056 53007=
202011060753 METAR KBFI 060753Z 00000KT 10SM FEW010 OVC100 08/05 A2988 RMK AO2 SLP117 T00830050 401560078=
202011060653 METAR KBFI 060653Z VRB06KT 10SM OVC110 08/05 A2986 RMK AO2 SLP110 T00830050=
202011060553 METAR KBFI 060553Z 00000KT 10SM FEW010 OVC100 08/06 A2987 RMK AO2 SLP114 T00830056 10094 20083 56023=
202011060517 SPECI KBFI 060517Z 33004KT 10SM FEW009 OVC100 08/06 A2988 RMK AO2 T00830061=
202011060453 METAR KBFI 060453Z 36005KT 10SM OVC110 08/07 A2988 RMK AO2 SLP118 T00830067=
202011060353 METAR KBFI 060353Z 00000KT 10SM SCT090 BKN120 09/06 A2990 RMK AO2 SLP126 T00890056=
202011060253 METAR KBFI 060253Z 00000KT 10SM BKN110 09/06 A2994 RMK AO2 SLP136 T00890056 56026=
202011060153 METAR KBFI 060153Z 00000KT 10SM OVC110 09/06 A2996 RMK AO2 SLP144 T00890056=
202011060053 METAR KBFI 060053Z 00000KT 10SM OVC044 09/05 A2999 RMK AO2 SLP154 T00940050=
202011060000 SPECI KBFI 060000Z 10007KT 10SM OVC038 09/06 A3001 RMK AO2 T00940056=
202011052353 METAR KBFI 052353Z 09006KT 10SM BKN012 BKN036 OVC080 09/06 A3001 RMK AO2 RAE05 SLP162 P0000 60003 T00940056 10122 20094 56027=
202011052253 METAR KBFI 052253Z 11013G16KT 7SM -RA BKN012 BKN028 OVC034 09/07 A3003 RMK AO2 RAE01B40 SLP170 P0000 T00940072=
202011052153 METAR KBFI 052153Z 09008KT 10SM -RA BKN012 OVC055 10/09 A3006 RMK AO2 SLP180 P0000 T01000089=
202011052053 METAR KBFI 052053Z 14004KT 10SM -RA BKN012 BKN017 OVC055 11/09 A3009 RMK AO2 SLP189 P0000 60003 T01110089 58010=
202011051953 METAR KBFI 051953Z 23004KT 4SM -RA BR BKN012 BKN017 OVC055 11/09 A3011 RMK AO2 SLP196 P0003 T01110089=
202011051853 METAR KBFI 051853Z 19010KT 10SM -RA BKN070 OVC085 12/09 A3011 RMK AO2 RAB45 SLP196 P0000 T01220089=
202011051753 METAR KBFI 051753Z 19011KT 10SM FEW020 FEW060 OVC100 12/09 A3012 RMK AO2 SLP199 60000 T01220094 10144 20122 53006=
202011051653 METAR KBFI 051653Z 17008KT 10SM OVC090 13/10 A3011 RMK AO2 SLP196 T01280100=
202011051553 METAR KBFI 051553Z 20008KT 10SM FEW021 BKN031 OVC070 13/11 A3010 RMK AO2 RAE39 SLP192 P0000 T01330111=
202011051453 METAR KBFI 051453Z 19007KT 10SM -RA SCT017 SCT030 BKN110 14/11 A3010 RMK AO2 RAB52 SLP192 P0000 60000 T01390111 53000=
202011051353 METAR KBFI 051353Z 17010KT 10SM SCT024 BKN110 14/11 A3010 RMK AO2 SLP192 T01390106=
202011051253 METAR KBFI 051253Z 18010G17KT 10SM FEW015 BKN022 OVC027 14/11 A3010 RMK AO2 SLP192 T01440106=
202011051153 METAR KBFI 051153Z 17011KT 10SM SCT030 SCT070 BKN100 14/11 A3010 RMK AO2 SLP193 60002 70003 T01440111 10156 20144 53009=
202011051053 METAR KBFI 051053Z 20008G16KT 10SM SCT022 BKN030 15/12 A3009 RMK AO2 SLP188 T01500117=
202011051019 SPECI KBFI 051019Z 18009G19KT 10SM BKN021 BKN026 15/12 A3008 RMK AO2 T01500117=
202011050953 METAR KBFI 050953Z 16008KT 10SM FEW024 SCT070 BKN080 14/12 A3007 RMK AO2 RAB06E31 SLP181 P0000 T01440117=
202011050853 METAR KBFI 050853Z 19009G16KT 10SM BKN016 BKN021 OVC027 16/13 A3007 RMK AO2 RAE36 SLP184 P0000 60002 T01560128 51008=
202011050753 METAR KBFI 050753Z 25009KT 6SM -RA BR FEW010 BKN016 OVC023 16/13 A3006 RMK AO2 RAE01B21 SLP180 P0001 T01560133 401830150=
202011050653 METAR KBFI 050653Z 21008G21KT 180V290 5SM -RA BR BKN012 OVC023 16/13 A3005 RMK AO2 PK WND 19030/0556 RAB0554 PRESRR SLP175 P0001 T01560133=
202011050643 SPECI KBFI 050643Z 18013G21KT 5SM -RA BR BKN012 OVC023 16/13 A3003 RMK AO2 PK WND 19030/0556 RAB0554 P0001 T01560133=
202011050553 METAR KBFI 050553Z 17016G24KT 10SM OVC017 16/13 A3001 RMK AO2 RAE04 SLP160 P0000 60001 T01560133 10178 20156 50001=
202011050453 METAR KBFI 050453Z 18009G19KT 10SM -RA BKN020 BKN033 OVC041 16/13 A3001 RMK AO2 RAB20 SLP163 P0000 T01560133=
202011050353 METAR KBFI 050353Z 20014G24KT 10SM BKN031 OVC046 16/13 A3001 RMK AO2 PK WND 20029/0332 RAB15E53 SLP161 P0000 T01610133=
202011050253 METAR KBFI 050253Z 18014G21KT 10SM SCT032 BKN060 OVC080 17/13 A3000 RMK AO2 RAE44 SLP159 P0001 60001 T01670133 50000=
202011050215 SPECI KBFI 050215Z 20012G24KT 180V240 10SM -RA SCT028 BKN041 OVC075 16/14 A3001 RMK AO2 P0001 T01610139=
202011050153 METAR KBFI 050153Z 19009G20KT 110V230 10SM -RA BKN020 OVC035 16/14 A3002 RMK AO2 RAB0054 SLP166 P0000 T01610139=
202011050053 METAR KBFI 050053Z 20013G22KT 10SM BKN020 OVC035 17/13 A3002 RMK AO2 RAB2356E17B37E48 SLP165 P0000 T01720133=
202011050000 SPECI KBFI 050000Z 19012KT 8SM -RA OVC035 18/13 A3001 RMK AO2 RAB2356 P0000 T01780128=
202011042353 METAR KBFI 042353Z 19011KT 10SM BKN022 OVC037 18/13 A3000 RMK AO2 RAB09E52 SLP159 P0000 60000 T01780128 10183 20167 58011=
202011042253 METAR KBFI 042253Z 18011G19KT 10SM BKN022 OVC037 18/12 A3002 RMK AO2 RAB28E45 SLP164 P0000 T01830122=
202011042153 METAR KBFI 042153Z 18007G19KT 10SM BKN033 OVC043 18/13 A3004 RMK AO2 RAB15E24 SLP172 P0000 T01830128=
202011042053 METAR KBFI 042053Z 17013G20KT 10SM BKN030 OVC039 18/13 A3004 RMK AO2 SLP170 T01830128 51005=
202011041953 METAR KBFI 041953Z 18011G18KT 10SM SCT010 BKN029 OVC075 18/14 A3004 RMK AO2 SLP170 T01830139=
202011041853 METAR KBFI 041853Z 19009KT 10SM SCT020 BKN033 OVC050 17/13 A3003 RMK AO2 SLP168 T01720133=
202011041753 METAR KBFI 041753Z 18010KT 10SM OVC026 17/13 A3002 RMK AO2 RAE1659 SLP165 P0000 60000 T01670128 10167 20150 51015=
202011041721 SPECI KBFI 041721Z 18010KT 10SM BKN029 OVC037 17/13 A3002 RMK AO2 RAE1659 P0000 T01670133=
202011041653 METAR KBFI 041653Z 17010G17KT 6SM -RA BKN034 OVC044 16/13 A3002 RMK AO2 RAB23 SLP164 P0000 T01610133=
202011041553 METAR KBFI 041553Z 18007KT 7SM SCT024 OVC036 16/13 A3000 RMK AO2 RAE45 SLP158 P0000 T01560133=
202011041453 METAR KBFI 041453Z 17010KT 9SM -RA FEW028 OVC036 16/13 A2998 RMK AO2 SLP150 P0000 60000 T01560133 53014=
202011041353 METAR KBFI 041353Z 19010KT 6SM -RA BR FEW019 BKN035 16/13 A2996 RMK AO2 SLP146 P0000 T01560133=
202011041253 METAR KBFI 041253Z 17011G19KT 6SM -RA BR FEW019 OVC034 16/14 A2995 RMK AO2 RAB07 SLP140 P0000 T01560139=
202011041153 METAR KBFI 041153Z 16006KT 10SM FEW016 BKN023 OVC050 15/14 A2994 RMK AO2 SLP137 60002 70060 T01500139 10156 20133 51003=
202011041053 METAR KBFI 041053Z 19010KT 10SM FEW016 BKN024 OVC075 16/14 A2994 RMK AO2 RAB0954E39 SLP137 P0000 T01560139=
202011040953 METAR KBFI 040953Z 20005KT 10SM SCT011 OVC018 15/14 A2994 RMK AO2 RAE48 SLP137 P0000 T01500139=
202011040853 METAR KBFI 040853Z 17008KT 3SM -RA BR BKN015 OVC028 15/14 A2993 RMK AO2 RAB22 SLP134 P0002 60002 T01500139 53005=
202011040817 SPECI KBFI 040817Z 17008KT 10SM BKN009 OVC050 15/13 A2992 RMK AO2 T01500133=
202011040800 SPECI KBFI 040800Z 19008KT 10SM OVC030 15/13 A2992 RMK AO2 T01500133=
202011040753 METAR KBFI 040753Z 18008KT 10SM BKN009 OVC027 14/13 A2992 RMK AO2 RAE06 SLP131 P0000 T01440133 401440083=
202011040653 METAR KBFI 040653Z 14008KT 9SM -RA BKN009 OVC027 14/13 A2991 RMK AO2 RAB10 SLP127 P0000 T01390133=
202011040553 METAR KBFI 040553Z 14008KT 3SM BR BKN009 OVC027 13/13 A2991 RMK AO2 RAB13E37 SLP129 P0000 60000 T01330128 10139 20122 50000=
202011040453 METAR KBFI 040453Z 17008KT 4SM BR BKN008 BKN027 OVC033 14/13 A2991 RMK AO2 RAB30E49 SLP129 P0000 T01390128=
202011040353 METAR KBFI 040353Z 14005KT 10SM BKN008 BKN024 BKN031 13/12 A2992 RMK AO2 SLP132 T01280122=
202011040253 METAR KBFI 040253Z 14006KT 6SM BR BKN008 BKN024 BKN031 13/12 A2991 RMK AO2 SLP129 60000 T01280122 53001=
202011040228 SPECI KBFI 040228Z 14005KT 9SM BKN009 BKN027 OVC110 13/12 A2991 RMK AO2 T01280117=
202011040153 METAR KBFI 040153Z 16006KT 10SM BKN008 13/12 A2991 RMK AO2 RAB12E26 SLP129 P0000 T01280117=
202011040114 SPECI KBFI 040114Z 15005KT 6SM -RA BR BKN007 BKN034 13/12 A2991 RMK AO2 RAB12 P0000 T01280117=
202011040053 METAR KBFI 040053Z 14005KT 10SM SCT007 BKN034 BKN080 13/12 A2991 RMK AO2 SLP126 T01280117=
202011032357 SPECI KBFI 032357Z 15006KT 6SM BR BKN010 BKN075 OVC090 13/12 A2991 RMK AO2 T01280117=
202011032353 METAR KBFI 032353Z 14005KT 2 1/2SM BR BKN007 OVC070 12/12 A2991 RMK AO2 RAB29E51 SLP128 P0001 60015 T01220117 10122 20100 53001=
202011032253 METAR KBFI 032253Z 14005KT 2 1/2SM BR OVC005 12/11 A2991 RMK AO2 RAE51 CIG 004V009 SLP127 P0000 T01170111=
202011032153 METAR KBFI 032153Z 15005KT 1 1/4SM -RA BR BKN007 BKN011 OVC020 11/11 A2991 RMK AO2 RAB43 SLP127 P0000 T01110106=
202011032053 METAR KBFI 032053Z 14007KT 1 1/4SM BR FEW007 BKN013 OVC022 11/10 A2991 RMK AO2 RAE13 SLP128 P0002 60014 T01060100 56009=
202011031953 METAR KBFI 031953Z 00000KT 1 1/4SM -RA BR BKN005 BKN015 OVC029 10/09 A2992 RMK AO2 SLP130 P0003 T01000089=
202011031939 SPECI KBFI 031939Z 00000KT 1 1/4SM -RA BR BKN005 BKN015 OVC029 10/09 A2993 RMK AO2 P0000 T01000089=
202011031903 SPECI KBFI 031903Z 00000KT 3SM -RA BR BKN007 BKN015 OVC029 10/09 A2992 RMK AO2 P0000 T01000089 $=
202011031853 METAR KBFI 031853Z 00000KT 3SM -RA BR SCT007 BKN015 OVC029 10/08 A2992 RMK AO2 SLP132 P0009 T01000083 $=
202011031753 METAR KBFI 031753Z 17005KT 2SM RA BR BKN009 OVC046 10/08 A2994 RMK AO2 SLP136 P0024 60043 T01000083 51016 $=
202011031749 SPECI KBFI 031749Z 16005KT 1 3/4SM RA BR BKN009 OVC046 10/08 A2993 RMK AO2 P0023 $=
202011031653 METAR KBFI 031653Z 13007KT 2SM RA BR BKN020 OVC046 10/08 A2991 RMK AO2 SLP128 P0018 T01000083 $=
202011031616 SPECI KBFI 031616Z 13005KT 1 3/4SM RA BR BKN020 OVC046 10/08 A2991 RMK AO2 P0007 T01000078 $=
202011031600 SPECI KBFI 031600Z 18004KT 4SM -RA BR BKN020 OVC046 09/07 A2991 RMK AO2 P0000 T00890072 $=
202011031553 METAR KBFI 031553Z 15003KT 5SM -RA OVC046 A2991 RMK AO2 SLP130 P0001 $=
202011031453 METAR KBFI 031453Z 18005KT 9SM -RA OVC060 09/07 A2989 RMK AO2 RAB52 SLP121 P0000 60000 T00890067 56006 $=
202011031353 METAR KBFI 031353Z 16007KT 10SM BKN075 OVC110 09/07 A2990 RMK AO2 SLP123 T00940067 $=
202011031253 METAR KBFI 031253Z 15009KT 10SM CLR 09/06 A2990 RMK AO2 SLP123 T00890061 $=
202011031153 METAR KBFI 031153Z 14008KT 10SM CLR 09/06 A2991 RMK AO2 SLP127 T00890061 10106 20083 58010 $=
202011031053 METAR KBFI 031053Z 15007KT 10SM CLR 09/06 A2992 RMK AO2 SLP132 T00890061 $=
202011030953 METAR KBFI 030953Z 15007KT 10SM CLR 09/06 A2993 RMK AO2 SLP136 T00890056 $=
202011030853 METAR KBFI 030853Z 15008KT 10SM CLR 10/06 A2994 RMK AO2 SLP137 T01000061 58018 $=
202011030753 METAR KBFI 030753Z 14007KT 10SM CLR 10/06 A2995 RMK AO2 SLP141 T01000061 401940028 $=
202011030653 METAR KBFI 030653Z 14005KT 10SM CLR 11/06 A2998 RMK AO2 SLP150 T01060061 $=
202011030553 METAR KBFI 030553Z 00000KT 10SM CLR 11/06 A2999 RMK AO2 SLP154 T01060056 10183 20100 55005 $=
202011030453 METAR KBFI 030453Z 16004KT 10SM CLR 11/06 A2999 RMK AO2 SLP154 T01110056 $=
202011030353 METAR KBFI 030353Z 16007KT 10SM CLR 12/06 A3000 RMK AO2 SLP158 T01170056 $=
202011030253 METAR KBFI 030253Z 15008KT 10SM CLR 12/06 A3000 RMK AO2 SLP160 T01220056 55005 $=
202011030153 METAR KBFI 030153Z 14006KT 10SM CLR 14/05 A3000 RMK AO2 SLP158 T01390050 $=
202011030053 METAR KBFI 030053Z VRB03KT 10SM CLR 17/04 A3000 RMK AO2 SLP157 T01670044 $=
202011022353 METAR KBFI 022353Z 16005KT 10SM CLR 18/04 A3002 RMK AO2 SLP165 T01780044 10194 20117 56015 $=
202011022253 METAR KBFI 022253Z 17006KT 10SM CLR 19/04 A3002 RMK AO2 SLP166 T01890039 $=
202011022153 METAR KBFI 022153Z VRB04KT 10SM CLR 19/04 A3004 RMK AO2 SLP173 T01890044 $=
202011022053 METAR KBFI 022053Z 16005KT 10SM CLR 18/06 A3006 RMK AO2 SLP180 T01830056 58026 $=
202011021953 METAR KBFI 021953Z 14005KT 10SM CLR 17/07 A3009 RMK AO2 SLP190 T01670072=
202011021853 METAR KBFI 021853Z 16004KT 10SM CLR 14/06 A3012 RMK AO2 SLP198 T01440061=
202011021753 METAR KBFI 021753Z 00000KT 10SM CLR 12/06 A3014 RMK AO2 SLP206 T01170061 58005=
202011021653 METAR KBFI 021653Z 15007KT 10SM CLR 08/04 A3015 RMK AO2 SLP209 T00780044=
202011021553 METAR KBFI 021553Z 14006KT 9SM CLR A3015 RMK AO2 SLP211 $=
202011021453 METAR KBFI 021453Z 15003KT 8SM CLR A3015 RMK AO2 SLP211 55000 $=
202011021353 METAR KBFI 021353Z 15005KT 9SM CLR A3015 RMK AO2 SLP211 $=
202011021253 METAR KBFI 021253Z 00000KT 8SM CLR 06/02 A3015 RMK AO2 SLP210 T00560022=
202011021153 METAR KBFI 021153Z 14006KT 7SM CLR A3015 RMK AO2 SLP211 10078 20039 58003 $=
202011021053 METAR KBFI 021053Z 13003KT 8SM CLR 06/03 A3016 RMK AO2 SLP213 T00560033 $=
202011020953 METAR KBFI 020953Z AUTO 00000KT 9SM CLR 06/04 A3016 RMK AO2 SLP213 T00610039 TSNO $=
202011020853 METAR KBFI 020853Z AUTO 00000KT 10SM CLR 07/04 A3017 RMK AO2 SLP214 T00670044 51000 TSNO $=
202011020753 METAR KBFI 020753Z 00000KT 10SM CLR 07/05 A3016 RMK AO2 SLP214 T00720050 401560056 $=
202011020653 METAR KBFI 020653Z 00000KT 10SM CLR 07/04 A3017 RMK AO2 SLP215 T00720044 $=
202011020553 METAR KBFI 020553Z 14003KT 10SM CLR 08/04 A3016 RMK AO2 SLP214 T00780044 10150 20067 53003 $=
202011020453 METAR KBFI 020453Z 00000KT 10SM CLR 08/05 A3016 RMK AO2 SLP212 T00830050 $=
202011020353 METAR KBFI 020353Z 00000KT 10SM CLR 09/05 A3016 RMK AO2 SLP212 T00890050 $=
202011020253 METAR KBFI 020253Z 00000KT 10SM CLR 10/06 A3015 RMK AO2 SLP211 T01000056 58002 $=
202011020153 METAR KBFI 020153Z 00000KT 10SM CLR 12/05 A3016 RMK AO2 SLP213 T01170050 $=
202011020053 METAR KBFI 020053Z VRB03KT 10SM CLR 13/05 A3017 RMK AO2 SLP215 T01330050 $=
202011012353 METAR KBFI 012353Z 00000KT 10SM CLR 15/04 A3016 RMK AO2 SLP212 T01500039 10156 20111 56018 $=
202011012253 METAR KBFI 012253Z 34004KT 10SM CLR 16/04 A3018 RMK AO2 SLP219 T01560044 $=
202011012153 METAR KBFI 012153Z VRB04KT 10SM CLR 15/05 A3019 RMK AO2 SLP222 T01500050 $=
202011012053 METAR KBFI 012053Z VRB03KT 10SM CLR 14/05 A3021 RMK AO2 SLP230 T01440050 56016 $=
202011011953 METAR KBFI 011953Z VRB03KT 10SM CLR 13/05 A3022 RMK AO2 SLP234 T01330050 $=
202011011853 METAR KBFI 011853Z 00000KT 10SM CLR 13/06 A3024 RMK AO2 SLP241 T01280056 $=
202011011753 METAR KBFI 011753Z 00000KT 10SM CLR 11/05 A3026 RMK AO2 SLP246 T01110050 10111 20056 58001 $=
202011011653 METAR KBFI 011653Z VRB03KT 10SM CLR 09/05 A3027 RMK AO2 SLP248 T00940050 $=
202011011553 METAR KBFI 011553Z VRB04KT 10SM CLR 08/04 A3027 RMK AO2 SLP249 T00780044 $=
202011011453 METAR KBFI 011453Z 00000KT 10SM CLR 06/04 A3026 RMK AO2 SLP248 T00610039 58008 $=
202011011353 METAR KBFI 011353Z 00000KT 10SM CLR 07/04 A3027 RMK AO2 SLP251 T00720044 $=
202011011253 METAR KBFI 011253Z 00000KT 10SM FEW010 08/05 A3028 RMK AO2 SLP253 T00780050 $=
202011011153 METAR KBFI 011153Z VRB03KT 10SM CLR 08/05 A3029 RMK AO2 SLP256 T00830050 10094 20072 56003 $=
202011011053 METAR KBFI 011053Z VRB04KT 10SM CLR 08/05 A3029 RMK AO2 SLP257 T00780050 $=
202011010953 METAR KBFI 010953Z 00000KT 10SM CLR 08/05 A3029 RMK AO2 SLP258 T00780050 $=
202011010921 SPECI KBFI 010921Z VRB03KT 10SM FEW009 08/05 A3030 RMK AO2 T00830050 $=
202011010853 METAR KBFI 010853Z VRB03KT 10SM FEW030 08/05 A3030 RMK AO2 SLP260 T00830050 56009 $=
202011010753 METAR KBFI 010753Z VRB03KT 10SM CLR 09/05 A3030 RMK AO2 SLP261 T00890050 401390039 $=
202011010653 METAR KBFI 010653Z 34003KT 10SM CLR 09/05 A3032 RMK AO2 SLP266 T00890050 $=
202011010553 METAR KBFI 010553Z VRB04KT 10SM CLR 09/04 A3033 RMK AO2 SLP269 T00940044 10128 20094 58006 $=
202011010453 METAR KBFI 010453Z VRB03KT 10SM CLR 10/04 A3034 RMK AO2 SLP272 T01000044 $=
202011010353 METAR KBFI 010353Z 34003KT 10SM CLR 10/04 A3034 RMK AO2 SLP273 T01000044 $=
202011010253 METAR KBFI 010253Z 00000KT 10SM CLR 11/05 A3035 RMK AO2 SLP276 T01060050 55000 $=
202011010153 METAR KBFI 010153Z VRB03KT 10SM BKN250 11/06 A3034 RMK AO2 SLP274 T01110056 $=
202011010053 METAR KBFI 010053Z VRB05KT 10SM CLR 12/04 A3034 RMK AO2 SLP274 T01220044 $=

# No short TAF reports from KBFI in databse.

###################################
#  large TAF from KBFI
###################################
202011302321 TAF KBFI 302321Z 0100/0124 25007KT P6SM SCT050 FM010400 14004KT
                       P6SM SCT050 FM011100 12003KT 4SM BR SCT015
                       FM011800 02004KT P6SM SCT250=
202011301732 TAF KBFI 301732Z 3018/0118 18015G23KT P6SM SCT020 BKN025 FM301900
                       21015G25KT P6SM SCT025 BKN060 FM010000 23010KT
                       P6SM SCT050 FM010400 VRB04KT P6SM SCT050
                       FM011100 12003KT 4SM BR SCT015=
202011301357 KBFI 301357Z 3014/0112 17013G20KT P6SM BKN029 BKN035 OVC045 FM301500
                       18015G23KT P6SM -SHRA OVC025 FM301900 21015G25KT
                       P6SM VCSH BKN050 FM010000 23010KT P6SM SCT050
                       FM010400 VRB04KT P6SM OVC050=
202011301213 KBFI 301213Z 3012/0112 VRB06KT 4SM RA BR OVC045 FM301500 18015G23KT
                       P6SM -SHRA OVC025 FM301900 21015G25KT P6SM
                       VCSH BKN050 FM010000 23010KT P6SM SCT050
                       FM010400 VRB04KT P6SM OVC050=
202011301120 TAF KBFI 301120Z 3012/0112 27008KT 6SM RA OVC045 FM301500 18015G23KT
                       P6SM -SHRA OVC025 FM301900 21015G25KT P6SM
                       VCSH BKN050 FM010000 23010KT P6SM SCT050
                       FM010400 VRB04KT P6SM OVC050=
202011300905 KBFI 300905Z 3009/0106 14008KT 6SM -RA BR SCT015 OVC050 WS020/18035KT
                       FM301200 15012G20KT 5SM -RA BR OVC020 FM301500
                       18015G23KT P6SM -SHRA OVC025 FM301900 21015G25KT
                       P6SM VCSH BKN050 FM010000 23010KT P6SM SCT050
                       FM010400 VRB04KT P6SM FEW060 SCT200=
202011300525 TAF KBFI 300525Z 3006/0106 16004KT P6SM BKN090 FM300900 14008KT
                       6SM -RA BR SCT015 OVC050 FM301200 15012G20KT
                       5SM -RA BR OVC020 FM301500 18015G23KT P6SM
                       -SHRA OVC025 FM301900 21015G25KT P6SM VCSH
                       BKN050 FM010000 23010KT P6SM SCT050 FM010400
                       VRB04KT P6SM FEW060 SCT200=
202011300306 KBFI 300306Z 3003/3024 16004KT P6SM BKN090 FM300800 14005KT 1 1/2SM
                       BR BKN004 OVC080 FM301000 14008KT 3SM -RA
                       BR BKN010 OVC050 FM301200 15012G20KT 5SM
                       -RA BR OVC020 FM301500 18015G23KT P6SM -SHRA
                       OVC025 FM301800 21015G25KT P6SM SCT030 BKN050=
202011292321 TAF KBFI 292321Z 3000/3024 17003KT 1/2SM FG VV002 FM300800 14005KT
                       1 1/2SM BR BKN004 OVC080 FM301000 14008KT
                       3SM -RA BR BKN010 OVC050 FM301200 15012G20KT
                       5SM -RA BR OVC020 FM301500 18015G23KT P6SM
                       -SHRA OVC025 FM301800 21015G25KT P6SM SCT030
                       BKN050=
202011292105 KBFI 292105Z 2921/3018 00000KT 1SM BR BKN004 FM292200 00000KT 4SM
                       BR BKN008 FM292300 VRB03KT P6SM SCT250 FM300100
                       14005KT P6SM BKN080 BKN250 FM301000 14008KT
                       P6SM -RA OVC050 FM301200 15012G20KT 5SM
                       -RA BR OVC020 FM301500 18015G23KT P6SM -SHRA
                       OVC025=
202011291907 KBFI 291907Z 2919/3018 00000KT 1/4SM FG VV002 FM292000 VRB03KT
                       3SM BR BKN005 BKN250 FM292100 14004KT P6SM
                       SCT250 FM300000 14005KT P6SM BKN080 BKN250
                       FM301000 14008KT P6SM -RA OVC050 FM301200
                       15012G20KT 5SM -RA BR OVC020 FM301500 18015G23KT
                       P6SM -SHRA OVC025=
202011291727 TAF KBFI 291727Z 2918/3018 00000KT 1/4SM FG VV002 FM291900 VRB03KT
                       1SM BR BKN003 BKN250 FM292000 14004KT P6SM
                       SCT250 FM300000 14005KT P6SM BKN080 BKN250
                       FM301000 14008KT P6SM -RA OVC050 FM301200
                       15012G20KT 5SM -RA BR OVC020 FM301500 18015G23KT
                       P6SM -SHRA OVC025=
202011291140 TAF KBFI 291140Z 2912/3012 00000KT 1/4SM FG VV002 FM291500 VRB03KT
                       1SM BR OVC004 FM292100 13004KT P6SM BKN090
                       BKN250 FM300400 16005KT P6SM OVC060 FM300900
                       15007KT 6SM BR OVC030=
202011290857 KBFI 290857Z 2909/3006 17004KT 1/4SM FG VV002 FM291300 00000KT
                       P6SM SCT007 BKN250
                      TEMPO 2913/2917 BKN007 FM292000 13004KT P6SM
                       BKN090 BKN250=
202011290559 KBFI 290559Z 2906/3006 16003KT 1/4SM FG VV002 FM291300 00000KT
                       P6SM SCT007 BKN250
                      TEMPO 2913/2917 BKN007 FM292000 13004KT P6SM
                       BKN090 BKN250=
202011290522 KBFI 290522Z 2905/3006 00000KT 1SM BR BKN004 BKN018 FM291300 00000KT
                       P6SM SCT007 BKN250
                      TEMPO 2913/2917 BKN007 FM292000 13004KT P6SM
                       BKN090 BKN250=
202011290520 TAF KBFI 290520Z 2906/3006 00000KT P6SM BKN015 FM291300 00000KT
                       P6SM SCT007 BKN250
                      TEMPO 2913/2917 BKN007 FM292000 13004KT P6SM
                       BKN090 BKN250 FM300200 15005KT P6SM OVC070=
202011282320 TAF KBFI 282320Z 2900/2924 VRB03KT P6SM SCT025 BKN040 BKN250
                      TEMPO 2900/2901 BKN025 OVC040 FM290300 00000KT
                       P6SM BKN250 FM291300 00000KT P6SM SCT007
                       BKN250
                      TEMPO 2913/2917 BKN007 FM292000 13004KT P6SM
                       BKN090 BKN250=
202011281721 TAF KBFI 281721Z 2818/2918 16003KT P6SM SCT008 BKN030 BKN040
                      TEMPO 2818/2820 5SM -SHRA BKN008 OVC030 FM290100
                       00000KT P6SM BKN250 FM291400 00000KT P6SM
                       BKN007=
202011281359 KBFI 281359Z 2814/2912 13004KT P6SM OVC008 FM282000 VRB03KT P6SM
                       OVC025 FM290200 02003KT P6SM BKN100=
202011281155 TAF KBFI 281155Z 2812/2912 00000KT P6SM SCT006 BKN022 OVC027 FM281400
                       15003KT P6SM BKN005 OVC018 FM282000 VRB03KT
                       P6SM OVC025 FM290200 02003KT P6SM BKN100=
202011281041 KBFI 281041Z 2811/2906 14003KT P6SM BKN005 OVC018 FM282000 VRB03KT
                       P6SM OVC025 FM290200 00000KT P6SM BKN060=
202011280901 KBFI 280901Z 2809/2906 VRB03KT P6SM -RA OVC018 FM281000 16004KT
                       P6SM -RA OVC015 FM282000 VRB03KT P6SM OVC025
                       FM290200 00000KT P6SM BKN060=
202011280527 TAF KBFI 280527Z 2806/2906 17009KT 6SM -RA OVC030 FM281000 16004KT
                       P6SM -RA OVC015 FM282000 VRB03KT P6SM OVC025
                       FM290200 00000KT P6SM BKN060=
202011272320 TAF KBFI 272320Z 2800/2824 19006KT P6SM FEW050 BKN250 FM280500
                       16005KT P6SM BKN050 OVC100 FM280800 18006KT
                       P6SM -RA BKN028 OVC050 FM281100 16004KT
                       P6SM -RA OVC015 FM281500 16004KT P6SM BKN020
                       OVC035 FM282000 VRB03KT P6SM BKN030 BKN050
                       FM282300 VRB03KT P6SM BKN050=
202011271725 TAF KBFI 271725Z 2718/2818 16004KT P6SM FEW050 SCT100 BKN250 FM280500
                       16005KT P6SM BKN050 OVC100 FM280800 18006KT
                       P6SM -RA BKN028 OVC050 FM281100 16004KT
                       P6SM -RA OVC015 FM281500 13004KT P6SM BKN020
                       OVC035=
202011271138 TAF KBFI 271138Z 2712/2812 15007KT P6SM BKN050 FM271800 17006KT
                       P6SM BKN200 FM280800 20007KT 6SM -RA BKN030
                       OVC050=
202011270909 KBFI 270909Z 2709/2806 15006KT P6SM SCT020 BKN050 FM271200 15005KT
                       P6SM BKN050 FM271800 17006KT P6SM BKN200
                       FM280500 20007KT 6SM -RA BKN030 OVC050=
202011270520 TAF KBFI 270520Z 2706/2806 15006KT P6SM SCT020 BKN050
                      TEMPO 2706/2710 BKN020 FM271200 15005KT P6SM
                       BKN050 FM271800 17006KT P6SM BKN200 FM280500
                       20007KT 6SM -RA BKN030 OVC050=
202011262333 TAF KBFI 262333Z 2700/2724 17008KT P6SM BKN030 OVC040 FM271500
                       16005KT P6SM BKN025 FM271800 15004KT P6SM
                       BKN200=
202011261726 TAF KBFI 261726Z 2618/2718 VRB03KT P6SM BKN015 OVC020
                      TEMPO 2618/2620 3SM -RA BKN008 FM262100 17005KT
                       P6SM OVC025 FM262300 16008KT P6SM BKN040=
202011261123 TAF KBFI 261123Z 2612/2712 VRB03KT P6SM BKN010 OVC020 FM261500
                       VRB03KT P6SM BKN010 OVC025 FM262200 20008KT
                       P6SM BKN040=
202011260904 KBFI 260904Z 2609/2706 VRB03KT P6SM BKN010 OVC020 FM261500 VRB03KT
                       P6SM OVC025 FM262200 20008KT P6SM BKN040=
202011260520 TAF KBFI 260520Z 2606/2706 VRB03KT P6SM SCT020 BKN030 FM261500
                       VRB03KT P6SM OVC022 FM262200 20008KT P6SM
                       BKN040=
202011252320 TAF KBFI 252320Z 2600/2624 VRB03KT P6SM BKN040 FM260900 15005KT
                       P6SM BKN025 FM262200 VRB03KT P6SM BKN040=
202011251720 TAF KBFI 251720Z 2518/2618 18006KT P6SM BKN018 FM252000 18005KT
                       P6SM BKN030
                      TEMPO 2522/2602 SCT030 FM260900 15005KT P6SM
                       OVC018 FM261700 15005KT P6SM BKN025=
202011251122 TAF KBFI 251122Z 2512/2612 15006KT P6SM VCSH BKN015 OVC030 FM252000
                       16006KT P6SM BKN025 FM260900 00000KT P6SM
                       OVC015=
202011250520 TAF KBFI 250520Z 2506/2606 21010KT P6SM -SHRA BKN020 OVC040 FM251200
                       18006KT P6SM OVC025 FM252000 16006KT P6SM
                       BKN035=
202011242320 TAF KBFI 242320Z 2500/2524 18010KT 5SM -RA BR OVC035
                      TEMPO 2500/2503 3SM RA BR OVC020 FM250300
                       21010KT P6SM -SHRA BKN020 OVC040 FM251200
                       18006KT P6SM OVC025 FM252000 16006KT P6SM
                       BKN035=
202011241810 KBFI 241810Z 2418/2518 16010KT P6SM SCT030 OVC040 FM242200 18010G20KT
                       5SM -RA BR OVC025 FM250300 21008KT P6SM
                       -SHRA BKN020 OVC050 FM251200 18008KT P6SM
                       BKN020=
202011241720 TAF KBFI 241720Z 2418/2518 16010KT P6SM OVC030 FM242200 18010G20KT
                       5SM -RA BR OVC025 FM250300 21008KT P6SM
                       -SHRA BKN020 OVC050 FM251200 18008KT P6SM
                       BKN020=
202011241400 KBFI 241400Z 2414/2512 18008KT P6SM OVC030
                      TEMPO 2414/2418 -DZ FM242200 18010G20KT 5SM
                       -RA BR OVC025 FM250300 21008KT P6SM -SHRA
                       BKN020 OVC050=
202011241152 KBFI 241152Z 2412/2512 18008KT P6SM OVC035
                      TEMPO 2412/2416 4SM -DZ BR BKN010 FM242200
                       18010G20KT 5SM -RA BR OVC025 FM250300 21008KT
                       P6SM -SHRA BKN020 OVC050=
202011241120 TAF KBFI 241120Z 2412/2512 18008KT P6SM OVC035 FM242200 18010G20KT
                       5SM -RA BR OVC025 FM250300 21008KT P6SM
                       -SHRA BKN020 OVC050=
202011240901 KBFI 240901Z 2409/2506 15006KT P6SM BKN035 OVC040 FM241200 18008KT
                       P6SM OVC035 FM242100 18010G20KT 5SM -RA
                       BR OVC025=
202011240520 TAF KBFI 240520Z 2406/2506 VRB03KT P6SM BKN025 OVC040 FM241200
                       18008KT P6SM OVC035 FM242100 18010G20KT
                       5SM -RA BR OVC025=
202011232320 TAF KBFI 232320Z 2400/2424 VRB03KT P6SM BKN025 OVC040 FM241200
                       18008KT P6SM OVC035 FM242100 18010G20KT
                       5SM -RA BR OVC025=
202011231720 TAF KBFI 231720Z 2318/2418 16010KT P6SM SCT020 BKN040
                      TEMPO 2318/2322 -SHRA BKN020 OVC040 FM232200
                       20005KT P6SM VCSH BKN025 BKN040 FM240600
                       16006KT P6SM BKN040 FM241200 16008KT P6SM
                       OVC040=
202011231121 TAF KBFI 231121Z 2312/2412 16008KT P6SM SCT025 OVC060
                      TEMPO 2312/2316 -RA BKN022 OVC050 FM231600
                       17006KT P6SM -RA BKN022 OVC045 FM232200
                       17006KT P6SM VCSH BKN025 BKN045 FM240300
                       16005KT P6SM BKN035=
202011230534 TAF KBFI 230534Z 2306/2406 00000KT 6SM BR VCSH SCT007 OVC020
                      TEMPO 2306/2310 4SM -DZ BR OVC007 FM231000
                       18006KT P6SM VCSH OVC015 FM231500 14006KT
                       P6SM -RA OVC017 FM232200 20007KT P6SM VCSH
                       OVC022 FM240300 15003KT P6SM BKN030=
202011230256 KBFI 230256Z 2303/2324 15003KT P6SM -RA OVC035 FM230600 13005KT
                       P6SM VCSH BKN030 OVC060 FM230900 18006KT
                       P6SM -RA OVC015 FM231500 12005KT P6SM OVC025
                       FM232200 20007KT P6SM OVC025=
202011222333 TAF KBFI 222333Z 2300/2324 15005KT P6SM -RA OVC050 FM230100 15004KT
                       P6SM -RA OVC030 FM230600 13005KT P6SM VCSH
                       BKN030 OVC060 FM230900 18006KT P6SM -RA
                       OVC015 FM231500 12005KT P6SM OVC025 FM232200
                       20007KT P6SM OVC025=
202011221725 TAF KBFI 221725Z 2218/2318 15004KT 6SM BR FEW003 OVC100 FM222000
                       15005KT P6SM -RA OVC050 FM230100 15004KT
                       P6SM -RA OVC030 FM230600 13005KT P6SM VCSH
                       BKN030 OVC060 FM230900 18006KT P6SM -RA
                       OVC015 FM231500 12005KT P6SM OVC025=
202011221232 KBFI 221232Z 2213/2312 15006KT 1/4SM FG VV002
                      TEMPO 2213/2217 4SM BR SCT003 OVC150 FM221700
                       15004KT 6SM BR FEW003 OVC100 FM222000 15005KT
                       P6SM VCSH OVC050 FM230100 15004KT P6SM -RA
                       OVC030 FM230700 15005KT P6SM -RA OVC018=
202011221125 TAF KBFI 221125Z 2212/2312 16004KT 5SM BR SCT003 BKN150
                      TEMPO 2212/2216 1/2SM FG VV002 FM221700 15004KT
                       P6SM OVC100 FM222100 15005KT P6SM VCSH OVC050
                       FM230100 15004KT P6SM -RA OVC030 FM230700
                       15005KT P6SM -RA OVC018=
202011220520 TAF KBFI 220520Z 2206/2306 VRB03KT P6SM SKC FM221000 12003KT P6SM
                       BKN080 OVC250 FM221800 15005KT P6SM BKN100
                       FM221900 16007KT P6SM VCSH OVC050 FM230400
                       15004KT P6SM OVC025=
202011212340 TAF KBFI 212340Z 2200/2224 30007KT P6SM SCT030 BKN070 FM220300
                       34003KT P6SM SCT050 OVC070 FM221000 12003KT
                       P6SM BKN080 FM221800 15005KT P6SM BKN100
                       FM221900 16007KT P6SM VCSH OVC050=
202011211745 TAF KBFI 211745Z 2118/2218 01003KT P6SM SCT012 BKN045 FM212100
                       34005KT P6SM SCT030 BKN070 FM220300 34003KT
                       P6SM SCT050 BKN200 FM221000 12003KT P6SM
                       BKN200=
202011211126 TAF KBFI 211126Z 2112/2212 14003KT P6SM BKN020 BKN045 FM211800
                       01003KT P6SM BKN030 BKN060 FM212100 34005KT
                       P6SM SCT030 BKN070 FM220300 34003KT P6SM
                       SCT050 BKN200 FM221000 12003KT P6SM BKN200=
202011210712 KBFI 210712Z 2107/2206 14003KT P6SM BKN022 BKN050 FM211100 14003KT
                       P6SM OVC020 FM211700 01003KT P6SM SCT040
                       OVC060 FM212200 35003KT P6SM BKN250=
202011210535 TAF KBFI 210535Z 2106/2206 17007KT P6SM SCT050 FM211100 14003KT
                       P6SM OVC020 FM211700 01003KT P6SM SCT040
                       OVC060 FM212200 35003KT P6SM BKN250=
202011202335 TAF KBFI 202335Z 2100/2124 16007KT P6SM BKN050 BKN070 FM210500
                       15005KT P6SM OVC035 FM211100 14003KT P6SM
                       OVC020 FM211700 01003KT P6SM SCT040 OVC060=
202011201725 TAF KBFI 201725Z 2018/2118 14006KT P6SM -SHRA BKN040 BKN060 FM202000
                       16007KT P6SM BKN050 BKN070 FM210500 15005KT
                       P6SM OVC035 FM211100 14003KT P6SM OVC020=
202011201128 TAF KBFI 201128Z 2012/2112 14006KT P6SM -SHRA BKN040 BKN060 FM202000
                       16007KT P6SM BKN050 BKN070 FM210500 15005KT
                       P6SM OVC035 FM211100 14003KT P6SM OVC020=
202011200532 TAF KBFI 200532Z 2006/2106 15007KT P6SM VCSH BKN040 BKN060 FM200900
                       16007KT P6SM BKN035 FM201200 16006KT P6SM
                       OVC025 FM202100 16007KT P6SM OVC050 FM210300
                       15005KT P6SM OVC035=
202011200300 KBFI 200300Z 2003/2024 19010KT P6SM VCSH SCT025 BKN050 FM200900
                       16007KT P6SM -SHRA BKN035 FM201200 16006KT
                       P6SM OVC025 FM202100 16007KT P6SM OVC050=
202011192320 TAF KBFI 192320Z 2000/2024 19010KT P6SM -SHRA SCT025 BKN050
                      TEMPO 2000/2004 BKN025 FM200900 16007KT P6SM
                       -SHRA BKN035 FM201200 16006KT P6SM OVC025
                       FM202100 16007KT P6SM OVC050=
202011191720 TAF KBFI 191720Z 1918/2018 19008G16KT P6SM -SHRA SCT020 BKN045
                       TEMPO 1919/1923 BKN020 OVC045 FM200000 17007KT
                       P6SM OVC050 FM200900 16007KT P6SM BKN035
                       FM201200 16006KT P6SM OVC025=
202011191414 KBFI 191414Z 1914/2012 17008KT P6SM BKN017 BKN030 OVC050 FM191700
                       17008KT P6SM VCSH SCT020 BKN030 OVC050 FM191900
                       18009KT P6SM VCSH SCT030 BKN050 OVC100 FM200500
                       16007KT P6SM BKN035 FM201000 16006KT P6SM
                       BKN025 OVC040=
202011191130 TAF KBFI 191130Z 1912/2012 17008KT P6SM VCSH SCT020 BKN035 BKN050
                       TEMPO 1912/1916 BKN020 FM191900 18008KT
                       P6SM VCSH SCT030 BKN050 OVC100 FM200500
                       16007KT P6SM BKN035 FM201000 16006KT P6SM
                       BKN025 OVC040=
202011190529 TAF KBFI 190529Z 1906/2006 17010KT P6SM BKN028 BKN050 FM191600
                       18008KT P6SM SCT030 BKN050 OVC100=
202011182320 TAF KBFI 182320Z 1900/1924 19008G15KT P6SM -RA SCT025 OVC040 FM190300
                       17007KT P6SM OVC040 FM191200 16007KT P6SM
                       OVC050 FM192000 18008KT P6SM -RA OVC050=
202011181740 TAF KBFI 181740Z 1818/1918 16009KT P6SM -RA BKN030 OVC040 FM190000
                       17008G15KT P6SM -SHRA OVC035 FM190300 17007KT
                       P6SM BKN040 FM191200 16007KT P6SM -SHRA
                       OVC050=
202011181519 KBFI 181519Z 1815/1912 VRB04KT P6SM -RA SCT030 OVC040 FM181700
                       18012G20KT 5SM SHRA BKN030 OVC040 FM190300
                       17007KT P6SM BKN040=
202011181123 TAF KBFI 181123Z 1812/1912 VRB03KT P6SM VCSH BKN040 OVC060 FM181400
                       18010KT 5SM SHRA BKN025 OVC050 FM181700
                       18012G20KT 5SM SHRA BKN030 OVC040 FM190300
                       17007KT P6SM BKN040=
202011180520 TAF KBFI 180520Z 1806/1906 20012KT P6SM VCSH BKN035 OVC050 FM181400
                       18010KT 5SM SHRA BKN030 OVC050 FM181700
                       18012G20KT 5SM SHRA BKN025 OVC040 FM190300
                       17010KT P6SM BKN040=
202011180323 KBFI 180323Z 1803/1824 18010G17KT P6SM SCT025 BKN035 OVC050
                      TEMPO 1803/1805 -SHRA FM180600 20012KT P6SM
                       VCSH BKN035 OVC050 FM181400 18010KT P6SM
                       SHRA BKN035 OVC050=
202011172321 TAF KBFI 172321Z 1800/1824 18010G17KT P6SM SCT025 BKN060
                      TEMPO 1800/1804 -SHRA BKN025 OVC050 FM180600
                       20012KT P6SM -SHRA BKN025 BKN050 FM181500
                       18010KT P6SM VCSH BKN035 BKN060=
202011172205 KBFI 172205Z 1722/1818 18015G25KT P6SM -SHRA BKN035 BKN060 FM180300
                       20012G20KT P6SM -SHRA BKN035 FM180900 18006KT
                       P6SM VCSH BKN035 FM181700 18012KT P6SM -SHRA
                       BKN035=
202011172006 KBFI 172006Z 1720/1818 17025G35KT P6SM SCT035 BKN050
                      TEMPO 1720/1724 5SM SHRA BKN035 OVC050 FM180000
                       20015G25KT P6SM -SHRA BKN035 FM180300 20012G20KT
                       P6SM -SHRA BKN035 FM180900 18006KT P6SM
                       VCSH BKN035 FM181700 18012KT P6SM -SHRA
                       BKN035=
202011171720 TAF KBFI 171720Z 1718/1818 15012G22KT P6SM -RA SCT020 OVC040 FM172100
                       18017G27KT 5SM -SHRA OVC030 FM180300 20012KT
                       P6SM -SHRA BKN030 FM180900 18006KT P6SM
                       VCSH BKN035 FM181700 18012KT P6SM -SHRA
                       BKN035=
202011171120 TAF KBFI 171120Z 1712/1812 12007KT P6SM SCT010 OVC200 FM171500
                       12010KT P6SM BKN050 BKN120 FM171800 15012G22KT
                       5SM -RA SCT020 OVC040 FM172100 18018G28KT
                       5SM -SHRA OVC020 FM180300 20010KT P6SM -SHRA
                       BKN025 FM180800 16005KT P6SM BKN030=
202011170520 TAF KBFI 170520Z 1706/1806 12007KT P6SM SCT015 OVC040 FM171000
                       12010KT P6SM BKN050 BKN120 FM171800 15012G22KT
                       5SM -RA SCT020 OVC040 FM172100 18018G28KT
                       5SM -SHRA OVC020 FM180300 20010G18KT P6SM
                       -SHRA BKN020=
202011162320 TAF KBFI 162320Z 1700/1724 VRB04KT 5SM -RA BR SCT005 BKN015 OVC030
                       TEMPO 1700/1702 2SM -RA BR BKN005 OVC015
                       FM170400 12007KT P6SM SCT015 OVC040 FM170800
                       12007KT P6SM BKN050 BKN120
                      TEMPO 1710/1714 10012G20KT FM171600 15012G22KT
                       P6SM -RA SCT020 OVC040 FM172000 18015G25KT
                       P6SM -RA OVC020 FM172300 20012G22KT P6SM
                       -SHRA BKN020=
202011161720 TAF KBFI 161720Z 1618/1718 00000KT P6SM -RA OVC035
                      TEMPO 1620/1624 5SM -RA OVC025 FM170200 VRB04KT
                       P6SM SCT025 OVC050 FM170800 12006KT P6SM
                       BKN050 BKN120 FM171700 12010KT P6SM -RA
                       OVC040=
202011161120 TAF KBFI 161120Z 1612/1712 13003KT P6SM BKN025 OVC050 FM161500
                       VRB03KT P6SM BKN035 OVC060 FM161800 03004KT
                       P6SM -RA OVC025 FM162300 05005KT 5SM -RA
                       OVC015 FM170300 12004KT P6SM BKN050 OVC100
                       FM170600 VRB03KT P6SM SCT050 BKN120=
202011160552 TAF KBFI 160552Z 1606/1706 17004KT P6SM BKN050 BKN090 FM160900
                       13003KT P6SM BKN025 OVC050 FM161500 VRB03KT
                       P6SM BKN035 OVC060 FM161800 03004KT P6SM
                       -RA OVC025 FM162300 05005KT 5SM -RA OVC015
                       FM170300 12004KT P6SM BKN050 OVC100=
202011160214 KBFI 160214Z 1602/1624 19010KT P6SM FEW030 SCT100
                      TEMPO 1602/1605 -SHRA BKN030 BKN100 FM160600
                       14005KT P6SM OVC025 FM161500 07003KT P6SM
                       OVC050 FM162300 05005KT 4SM -RA BR OVC025=
202011152346 TAF KBFI 152346Z 1600/1624 20010KT P6SM BKN030 FM160600 14005KT
                       P6SM OVC025 FM161500 07003KT P6SM OVC050
                       FM162300 05005KT 4SM -RA BR OVC025=
202011151725 TAF KBFI 151725Z 1518/1618 19010G15KT P6SM FEW024 SCT100 FM160000
                       18008KT P6SM OVC050 FM160600 14005KT P6SM
                       OVC025 FM161500 07003KT P6SM OVC050=
202011151120 TAF KBFI 151120Z 1512/1612 18012G20KT P6SM VCSH BKN020 OVC045 FM151800
                       18010KT P6SM SCT025 OVC060 FM160000 18008KT
                       P6SM OVC050 FM160600 14005KT P6SM OVC025=
202011150527 TAF KBFI 150527Z 1506/1606 14004KT P6SM -RA OVC030 FM150800 16008G16KT
                       P6SM OVC035 FM151200 18012G20KT P6SM OVC045
                       FM160000 18008KT P6SM OVC050=
202011150201 KBFI 150201Z 1502/1524 17006KT 4SM RA BR OVC028 FM150700 15008G14KT
                       P6SM OVC025 FM151200 17010G18KT P6SM OVC025
                       FM151700 18010G18KT P6SM -RA OVC025 FM152300
                       19010KT 4SM -RA OVC050=
202011142325 TAF KBFI 142325Z 1500/1524 16007KT P6SM -RA OVC040 FM150700 15007KT
                       P6SM OVC025 FM151200 17010G15KT P6SM OVC025
                       FM151700 18010G18KT P6SM -RA OVC025 FM152300
                       19010KT 4SM -RA OVC050=
202011141738 TAF KBFI 141738Z 1418/1518 17006KT P6SM SCT025 BKN050 FM150000
                       15006KT P6SM -RA OVC025 FM150700 15007KT
                       P6SM OVC025 FM151200 17010G15KT P6SM OVC025
                       FM151700 18010G18KT P6SM -RA OVC025=
202011141120 TAF KBFI 141120Z 1412/1512 20006KT P6SM SCT030 SCT100 FM141800
                       17006KT P6SM SCT025 BKN050 FM150000 15006KT
                       P6SM -RA OVC025 FM150700 15007KT P6SM OVC025=
202011140520 TAF KBFI 140520Z 1406/1506 22010G18KT P6SM FEW030 SCT100 BKN200
                       FM140900 20008KT P6SM SCT040 BKN100 FM141800
                       17006KT P6SM BKN050 FM150000 15006KT P6SM
                       -RA OVC025=
202011132327 TAF KBFI 132327Z 1400/1424 26012G20KT P6SM SCT030 SCT050 FM140600
                       19013G22KT P6SM OVC050 FM141700 18010KT
                       P6SM BKN050 FM142300 12007KT P6SM OVC020=
202011132058 KBFI 132058Z 1321/1418 24012G20KT P6SM SCT050 SCT100 BKN220 FM140000
                       23015G25KT P6SM VCSH BKN045 FM140600 19013G22KT
                       P6SM OVC050 FM141700 18010KT P6SM BKN050=
202011131818 KBFI 131818Z 1318/1418 20009G23KT P6SM SCT011 BKN050 FM132100 21016G25KT
                       P6SM -SHRA BKN030 FM140000 23015G25KT P6SM
                       VCSH BKN045 FM140600 19013G22KT P6SM OVC050
                       FM141700 18010KT P6SM BKN050=
202011131747 TAF KBFI 131747Z 1318/1418 19013G22KT P6SM -RA SCT013 BKN015 BKN050
                       FM132100 21016G25KT P6SM -SHRA BKN030 FM140000
                       23015G25KT P6SM VCSH BKN045 FM140600 19013G22KT
                       P6SM OVC050 FM141700 18010KT P6SM BKN050=
202011131343 KBFI 131343Z 1314/1412 18010KT 5SM -RA OVC040 FM131500 17010G20KT
                       4SM -RA SCT010 OVC020 FM132100 21016G25KT
                       P6SM -SHRA BKN030 FM140000 23015G25KT P6SM
                       VCSH BKN045 FM140600 19013G22KT P6SM OVC050
                       FM140900 18011KT P6SM OVC050=
202011131121 TAF KBFI 131121Z 1312/1412 16016KT 5SM -RA OVC045 FM131500 17010G20KT
                       4SM -RA SCT010 OVC020 FM132100 21016G25KT
                       P6SM -SHRA BKN030 FM140000 23015G25KT P6SM
                       VCSH BKN045 FM140600 19013G22KT P6SM OVC050=
202011130850 KBFI 130850Z 1309/1406 17012KT 6SM -RA OVC045 FM131200 16014G22KT
                       5SM -RA OVC015 FM131500 17010G15KT 4SM -RA
                       SCT010 OVC020 FM132100 21016G25KT P6SM -SHRA
                       BKN030 FM140000 23015G30KT P6SM VCSH BKN045=
202011130520 TAF KBFI 130520Z 1306/1406 17012G20KT 6SM -RA OVC035 FM130800 17008KT
                       6SM -RA OVC028 FM131500 17010G15KT 4SM -RA
                       SCT010 OVC020 FM132100 21016G25KT P6SM -SHRA
                       BKN030 FM140000 23012G22KT P6SM VCSH BKN045=
202011130258 KBFI 130258Z 1303/1324 17012G20KT 6SM -RA OVC035 FM130900 15008KT
                       6SM -RA OVC015 FM131200 17010G15KT 4SM -RA
                       OVC010 FM132000 18016G25KT 6SM -RA OVC025=
202011122330 TAF KBFI 122330Z 1300/1324 18007KT P6SM OVC060 FM130200 16012G20KT
                       6SM -RA OVC020 FM130900 15008KT 6SM -RA
                       OVC015 FM131200 17010G15KT 4SM -RA OVC010
                       FM132000 18016G25KT 6SM -RA OVC025=
202011122057 KBFI 122057Z 1221/1318 14008KT P6SM SCT030 OVC050 FM122200 17010KT
                       P6SM -RA BKN035 OVC050 FM130200 16012G20KT
                       6SM -RA OVC020 FM130900 15008KT 6SM -RA
                       OVC015 FM131200 17008KT 4SM -RA OVC010=
202011121732 TAF KBFI 121732Z 1218/1318 14008KT P6SM SCT030 OVC050 FM122200
                       17010KT P6SM -RA BKN035 OVC050 FM130200
                       16012G20KT 6SM -RA OVC020 FM130900 15008KT
                       6SM -RA OVC015 FM131200 17008KT 4SM -RA
                       OVC010=
202011121402 KBFI 121402Z 1214/1312 16004KT P6SM BKN050 OVC060 FM121800 14008KT
                       P6SM SCT030 OVC050 FM122100 17010KT P6SM
                       -RA BKN030 OVC050 FM130200 16010G20KT 6SM
                       -RA OVC020 FM130900 15008KT 6SM -RA OVC015=
202011121136 TAF KBFI 121136Z 1212/1312 14004KT P6SM OVC040 FM121800 16008KT
                       P6SM SCT030 OVC050 FM122100 17010KT P6SM
                       -RA BKN030 OVC050 FM130200 16010G20KT 6SM
                       -RA OVC020=
202011120851 KBFI 120851Z 1209/1306 14003KT P6SM FEW050 OVC070 FM121200 14004KT
                       P6SM BKN050 OVC100 FM121800 16008KT P6SM
                       SCT030 OVC050 FM122100 17010KT P6SM -RA
                       BKN030 OVC050 FM130200 16016KT 6SM -RA OVC024=
202011120520 TAF KBFI 120520Z 1206/1306 VRB03KT P6SM OVC050 FM121200 14004KT
                       P6SM BKN050 OVC100 FM121800 15008KT P6SM
                       SCT030 OVC050 FM122100 17010KT P6SM -RA
                       BKN030 OVC050 FM130200 16011KT P6SM -RA
                       OVC024=
202011112320 TAF KBFI 112320Z 1200/1224 00000KT P6SM FEW025 BKN050 FM120300
                       13006KT P6SM OVC050 FM121200 16004KT P6SM
                       BKN050 OVC100 FM121800 16010KT P6SM SCT030
                       OVC050 FM122100 17010KT P6SM -RA BKN030
                       OVC050=
202011111720 TAF KBFI 111720Z 1118/1218 VRB04KT P6SM SCT013 OVC050 FM112000
                       VRB05KT P6SM BKN050 FM120300 13006KT P6SM
                       OVC050 FM121200 16004KT P6SM BKN050 OVC100=
202011111354 KBFI 111354Z 1114/1212 VRB03KT P6SM OVC050 FM112000 10004KT P6SM
                       SCT030 BKN050 FM120200 12003KT P6SM OVC060
                       FM120500 14003KT P6SM OVC050=
202011111132 TAF KBFI 111132Z 1112/1212 VRB03KT P6SM OVC050 FM112000 10004KT
                       P6SM SCT030 BKN050 FM120200 08003KT P6SM
                       OVC070 FM120500 14003KT P6SM OVC050=
202011110851 KBFI 110851Z 1109/1206 VRB03KT P6SM FEW035 FM111200 VRB03KT P6SM
                       OVC018 FM112000 10004KT P6SM SCT030 BKN050
                       FM120200 06003KT P6SM OVC070 FM120500 14003KT
                       P6SM OVC050=
202011110520 TAF KBFI 110520Z 1106/1206 34005KT P6SM SCT025 BKN050
                      TEMPO 1106/1109 BKN023 OVC050 FM110900 VRB03KT
                       P6SM OVC023 FM111200 VRB03KT P6SM OVC018
                       FM112000 17004KT P6SM SCT030 BKN050 FM120200
                       14003KT P6SM OVC070=
202011110301 KBFI 110301Z 1103/1124 34004KT P6SM VCSH BKN025 BKN045 FM110600
                       02003KT P6SM OVC020 FM111200 VRB03KT P6SM
                       OVC018 FM112000 17004KT P6SM SCT030 BKN050=
202011102320 TAF KBFI 102320Z 1100/1124 33004KT P6SM VCSH BKN025 BKN040
                      TEMPO 1100/1104 -SHRA BKN020 FM110600 02005KT
                       P6SM OVC015 FM111200 14004KT P6SM OVC015
                       FM112000 20004KT P6SM SCT030 BKN050=
202011101733 TAF KBFI 101733Z 1018/1118 22005KT P6SM VCSH BKN013 OVC022 FM102100
                       20005KT P6SM VCSH BKN015 BKN025 FM110000
                       35007KT P6SM VCSH BKN015 BKN025 FM110600
                       02005KT P6SM OVC015 FM111200 13004KT P6SM
                       OVC015=
202011101403 KBFI 101403Z 1014/1112 VRB05KT P6SM BKN020 OVC025 FM101500 17010KT
                       P6SM VCSH OVC020 FM101800 18010KT 4SM -RA
                       BR OVC015 FM102000 35006KT 4SM -RA BR OVC015
                       FM110200 34003KT P6SM -RA OVC015 FM111000
                       VRB03KT P6SM OVC025=
202011101124 TAF KBFI 101124Z 1012/1112 VRB05KT P6SM OVC020 FM101500 17010KT
                       P6SM VCSH OVC020 FM101800 18010KT 6SM -SHRA
                       OVC010 FM102000 18006KT 4SM -RA BR OVC015
                       FM110200 34003KT P6SM -RA OVC015 FM111000
                       VRB03KT P6SM OVC025=
202011100857 KBFI 100857Z 1009/1106 19011G20KT P6SM -RA BKN020 OVC025 FM101200
                       18008G16KT P6SM VCSH OVC020 FM101800 17009KT
                       6SM -SHRA OVC010 FM102300 30005KT P6SM -SHRA
                       BKN025 OVC045 FM110200 34003KT P6SM VCSH
                       BKN027 BKN040=
202011100520 TAF KBFI 100520Z 1006/1106 15011KT P6SM -RA FEW014 OVC027 FM101000
                       19010G18KT P6SM VCSH BKN022 OVC045 FM101800
                       17009KT P6SM -SHRA BKN020 OVC040 FM102300
                       30005KT P6SM -SHRA BKN025 OVC045 FM110200
                       34003KT P6SM VCSH BKN027 BKN040=
202011092321 TAF KBFI 092321Z 1000/1024 16008KT P6SM SCT050 BKN080 OVC090 FM100200
                       17008KT P6SM -RA SCT015 OVC040 FM100400
                       15010KT P6SM -RA OVC015 FM101000 20012G20KT
                       P6SM VCSH BKN015 OVC050 FM101800 20012KT
                       P6SM VCSH BKN025 BKN050=
202011091725 TAF KBFI 091725Z 0918/1018 17006KT P6SM OVC120 FM092300 17006KT
                       P6SM OVC050 FM100200 15005KT P6SM -RA SCT020
                       OVC030 FM100700 16008G16KT P6SM -RA OVC015
                       FM101000 20010G20KT P6SM VCSH BKN015 OVC050=
202011091139 TAF KBFI 091139Z 0912/1012 13003KT P6SM SKC FM091900 17006KT P6SM
                       BKN100 FM092300 17006KT P6SM OVC050 FM100200
                       15005KT P6SM -RA SCT020 OVC030 FM100700
                       16008G16KT P6SM -RA OVC015=
202011090520 TAF KBFI 090520Z 0906/1006 VRB03KT P6SM SKC FM091900 17006KT P6SM
                       BKN100 FM092300 17006KT P6SM OVC050 FM100200
                       15005KT P6SM -RA SCT020 OVC030=
202011082336 TAF KBFI 082336Z 0900/0924 35010KT P6SM SKC FM090300 00000KT P6SM
                       SKC FM091900 17006KT P6SM BKN100 FM092300
                       17006KT P6SM OVC050
                      PROB30 0923/0924 P6SM -SHRA OVC050=
202011081720 TAF KBFI 081720Z 0818/0918 11004KT P6SM SKC FM082000 01010G16KT
                       P6SM SKC FM090300 06004KT P6SM SKC FM091100
                       13002KT P6SM SCT250=
202011081135 TAF KBFI 081135Z 0812/0912 35007KT P6SM SKC FM081800 01008G16KT
                       P6SM SKC FM090300 06004KT P6SM SKC FM091100
                       13002KT P6SM SCT250=
202011080520 TAF KBFI 080520Z 0806/0906 35007KT P6SM SCT100 SCT250 FM081800
                       02006KT P6SM SCT250 FM090300 VRB04KT P6SM
                       FEW250=
202011080003 KBFI 080003Z 0800/0824 34010KT P6SM BKN025 BKN040 FM080600 35012G20KT
                       P6SM SCT250=
202011072355 TAF KBFI 072355Z 0800/0824 34010KT P6SM BKN025 BKN040 FM080600
                       35012G20KT P6SM SCT250=
202011071724 TAF KBFI 071724Z 0718/0818 15005KT P6SM BKN035 FM072200 34010KT
                       P6SM SCT040 FM080600 35012G20KT P6SM SKC=
202011071402 KBFI 071402Z 0714/0812 14005KT P6SM SCT020 BKN035 FM071800 VRB04KT
                       P6SM BKN035 FM072200 34010KT P6SM SCT040
                       FM080600 35012G20KT P6SM SKC=
202011071120 TAF KBFI 071120Z 0712/0812 VRB04KT P6SM BKN023
                      TEMPO 0712/0715 4SM BR FM071800 35005KT P6SM
                       BKN035 FM072200 36012KT P6SM SCT040 FM080600
                       35012G20KT P6SM SKC=
202011070520 TAF KBFI 070520Z 0706/0806 VRB04KT P6SM SKC FM071000 11003KT P6SM
                       OVC025 FM072100 32005KT P6SM BKN040 FM080500
                       35006G15KT P6SM BKN250=
202011070258 KBFI 070258Z 0703/0724 34010KT P6SM FEW200 FM070500 VRB03KT P6SM
                       SKC FM071000 11001KT P6SM BKN025=
202011062328 TAF KBFI 062328Z 0700/0724 34010KT P6SM FEW200
                      TEMPO 0700/0701 34010G20KT FM070500 VRB03KT
                       P6SM SKC FM071000 11001KT P6SM BKN025=
202011061728 TAF KBFI 061728Z 0618/0718 01010G20KT P6SM BKN020 OVC070 FM062100
                       34010KT P6SM FEW200
                      TEMPO 0621/0701 34010G20KT FM070500 VRB03KT
                       P6SM SKC FM071000 11001KT P6SM BKN020=
202011061407 KBFI 061407Z 0614/0712 01008G16KT P6SM SCT020 OVC080 FM061500 35007KT
                       P6SM SCT120 FM062200 34010KT P6SM FEW200
                       FM070500 VRB03KT P6SM SKC FM071000 11001KT
                       P6SM BKN060=
202011061136 TAF KBFI 061136Z 0612/0712 04005KT P6SM SCT015 OVC070 FM061500
                       35007KT P6SM SCT120 FM062200 34010KT P6SM
                       FEW200 FM070500 VRB03KT P6SM SKC=
202011060520 TAF KBFI 060520Z 0606/0706 VRB03KT P6SM SCT090 BKN120 FM061500
                       35007KT P6SM SCT120 FM062200 34010KT P6SM
                       FEW200 FM070500 VRB03KT P6SM SKC=
202011060258 KBFI 060258Z 0603/0624 VRB03KT P6SM BKN110 FM060900 VRB03KT P6SM
                       BKN120 FM061500 35007KT P6SM SCT120 FM062200
                       34010KT P6SM FEW200=
202011052340 TAF KBFI 052340Z 0600/0624 09008KT 6SM -RA BKN015 OVC050 FM060200
                       08006KT P6SM SCT030 OVC060 FM060900 VRB03KT
                       P6SM BKN120 FM061500 35007KT P6SM SCT120
                       FM062200 34010KT P6SM FEW200=
202011052110 KBFI 052110Z 0521/0618 VRB05KT 6SM -RA BKN015 OVC050 FM060000 05004KT
                       P6SM VCSH OVC030 FM060600 04005KT P6SM SCT030
                       OVC100 FM061500 VRB03KT P6SM BKN150=
202011051729 TAF KBFI 051729Z 0518/0618 18010KT 6SM -RA FEW020 OVC090 FM060000
                       05004KT P6SM VCSH OVC030 FM060600 04005KT
                       P6SM SCT030 OVC100 FM061500 VRB03KT P6SM
                       BKN150=
202011051136 TAF KBFI 051136Z 0512/0612 20010KT P6SM -SHRA SCT020 OVC030 FM051800
                       22010KT 5SM -RA OVC025 FM052300 VRB05KT
                       4SM -RA OVC030 FM060300 05003KT P6SM SCT030
                       OVC050 FM060600 04003KT P6SM SCT030 OVC100=
202011050520 TAF KBFI 050520Z 0506/0606 20016G28KT P6SM -RA OVC030 FM050900
                       21012KT P6SM -SHRA OVC030 FM051800 22010KT
                       5SM -RA OVC025 FM052300 VRB05KT 4SM -RA
                       OVC030 FM060300 05003KT P6SM SCT030 OVC050=
202011042328 TAF KBFI 042328Z 0500/0524 19012G22KT P6SM -SHRA OVC035 FM050200
                       20016G28KT 5SM -RA OVC035 FM050900 21012KT
                       P6SM -SHRA OVC030 FM051800 22010KT 5SM -RA
                       OVC025 FM052300 VRB05KT 4SM -RA OVC030=
202011041736 TAF KBFI 041736Z 0418/0518 18010G15KT P6SM VCSH OVC035
                      TEMPO 0418/0422 5SM -RA FM042200 19012G22KT
                       P6SM VCSH OVC040 FM050300 20014G25KT 5SM
                       -RA OVC035 FM051000 21012KT P6SM -SHRA OVC030=
202011041139 TAF KBFI 041139Z 0412/0512 19010KT P6SM SCT025 OVC040
                      TEMPO 0412/0415 5SM -RA BR BKN025 OVC040
                       FM041900 17012G21KT P6SM -RA OVC020 FM042100
                       20015G25KT P6SM -RA OVC035 FM050000 17014G21KT
                       P6SM OVC050=
202011040520 TAF KBFI 040520Z 0406/0506 14005KT 5SM BR BKN008 BKN025 FM040800
                       15009KT 5SM BR OVC015 FM041300 18010G18KT
                       5SM BR OVC020 FM041900 17012G21KT P6SM -RA
                       OVC020 FM042100 20015G25KT P6SM -RA OVC035
                       FM050000 17014G21KT P6SM OVC050=
202011040250 KBFI 040250Z 0403/0424 14005KT P6SM BKN009 BKN025 OVC100 FM040600
                       16008KT 5SM BR OVC015 FM041300 18010KT 5SM
                       BR OVC020 FM041900 17012G21KT P6SM -RA OVC020
                       FM042100 20015G25KT P6SM -RA OVC020=
202011040007 KBFI 040007Z 0400/0424 14005KT P6SM -SHRA BKN010 OVC050 FM040300
                       19008KT P6SM VCSH OVC020
                      TEMPO 0403/0406 4SM -SHRA FM040600 20008KT
                       P6SM OVC015 FM041300 18010KT P6SM OVC020
                       FM041900 20012KT P6SM -RA OVC020 FM042100
                       20015G25KT P6SM -RA OVC020=
202011032325 TAF KBFI 032325Z 0400/0424 14005KT 3SM -SHRA BKN005 BKN020 OVC050
                       FM040300 19008KT P6SM VCSH OVC020
                      TEMPO 0403/0406 4SM -SHRA FM040600 20008KT
                       P6SM OVC015 FM041300 18010KT P6SM OVC020
                       FM041900 20012KT P6SM -RA OVC020 FM042100
                       20015G25KT P6SM -RA OVC020=
202011032202 KBFI 032202Z 0322/0418 15005KT 2SM -SHRA BR SCT007 BKN011 OVC020
                       FM040000 20012KT P6SM -SHRA BKN025 OVC040
                       FM041100 18012KT P6SM -RA OVC020=
202011032010 KBFI 032010Z 0320/0418 15005KT 2SM -RA BR BKN015 OVC030
                      TEMPO 0320/0322 1SM -RA BR BKN005 FM032200
                       18012KT P6SM -SHRA SCT020 OVC040 FM040000
                       20012KT P6SM -SHRA BKN025 OVC040 FM041100
                       18012KT P6SM -RA OVC020=
202011031907 KBFI 031907Z 0319/0418 15005KT 2SM -RA BR BKN015 OVC030 FM032000
                       18012KT P6SM -SHRA SCT020 OVC040 FM040000
                       20012KT P6SM -SHRA BKN025 OVC040 FM041100
                       18012KT P6SM -RA OVC020=
202011031720 TAF KBFI 031720Z 0318/0418 15005KT 2SM -RA BR BKN020 OVC045 FM031900
                       18012KT P6SM -SHRA SCT020 OVC040 FM040000
                       20012KT P6SM -SHRA BKN025 OVC040 FM041100
                       18012KT P6SM -RA OVC020=
202011031120 TAF KBFI 031120Z 0312/0412 16006KT P6SM SCT040 OVC120 FM031600
                       18010KT P6SM -RA SCT020 OVC040 FM032000
                       18010G20KT 5SM -RA BR OVC025 FM040000 20012KT
                       P6SM -SHRA BKN025 OVC040 FM041100 18012KT
                       P6SM -RA OVC025=
202011030520 TAF KBFI 030520Z 0306/0406 17007KT P6SM BKN250 FM030900 16006KT
                       P6SM SCT020 BKN050 OVC200 FM031400 16008KT
                       P6SM -RA OVC018 FM032100 20012KT P6SM -SHRA
                       BKN025=
202011022321 TAF KBFI 022321Z 0300/0324 17006KT P6SM BKN250 FM030900 16006KT
                       P6SM SCT020 BKN050 OVC200
                      TEMPO 0311/0314 BKN020 FM031400 16008KT P6SM
                       -RA OVC018 FM032100 20012KT P6SM -SHRA BKN025=
202011021724 TAF KBFI 021724Z 0218/0318 15004KT P6SM FEW250 FM022100 16006KT
                       P6SM SCT250 FM030900 16006KT P6SM SCT020
                       OVC200
                      TEMPO 0311/0314 BKN020 FM031400 16008KT P6SM
                       -RA OVC018=
202011021120 TAF KBFI 021120Z 0212/0312 15004KT P6SM SKC FM021800 16006KT P6SM
                       BKN250 FM030800 16006KT P6SM SCT020 OVC200
                       TEMPO 0308/0311 BKN020 FM031100 16008KT
                       P6SM -RA OVC018=
202011020520 TAF KBFI 020520Z 0206/0306 VRB04KT P6SM SKC FM021000 14005KT P6SM
                       FEW250 FM021500 14003KT P6SM SCT250 FM022000
                       20004KT P6SM BKN250 FM030000 VRB03KT P6SM
                       SCT100 BKN200=
202011012322 TAF KBFI 012322Z 0200/0224 VRB04KT P6SM SKC FM021000 14005KT P6SM
                       BKN250 FM021500 14003KT P6SM BKN250=
202011011723 TAF KBFI 011723Z 0118/0218 VRB03KT P6SM SKC FM021000 14005KT P6SM
                       BKN250 FM021500 14003KT P6SM BKN250=
202011011120 TAF KBFI 011120Z 0112/0212 VRB04KT P6SM SKC FM011800 32005KT P6SM
                       SKC FM020300 00000KT P6SM SCT250 FM021000
                       14005KT P6SM BKN250=
202011010520 TAF KBFI 010520Z 0106/0206 VRB03KT P6SM FEW250 FM011800 VRB03KT
                       P6SM SCT250=