##########################################################
# Query made at 02/17/2025 06:30:40 UTC
# Time interval: from 09/01/2020 00:00  to 09/30/2020 23:59  UTC
##########################################################

##########################################################
# KBFI, Seattle, Seattle Boeing Field (United States)
# WMO index: -----. WIGOS ID: Unknown
# Latitude 47-32-45N. Longitude 122-18-49W. Altitude 5 m.
##########################################################

###################################
#  METAR/SPECI from KBFI
###################################
202009302353 METAR KBFI 302353Z 34003KT 10SM FU CLR 23/14 A3016 RMK AO2 SLP211 T02330139 10239 20172 58010=
202009302253 METAR KBFI 302253Z 30004KT 10SM FU CLR 23/14 A3017 RMK AO2 SLP216 T02330144=
202009302153 METAR KBFI 302153Z VRB03KT 8SM FU CLR 22/14 A3018 RMK AO2 SLP219 T02220144=
202009302053 METAR KBFI 302053Z 33004KT 8SM FU CLR 21/14 A3019 RMK AO2 SLP221 T02060139 50000=
202009301953 METAR KBFI 301953Z 00000KT 10SM CLR 21/14 A3019 RMK AO2 SLP221 T02110139=
202009301853 METAR KBFI 301853Z 20003KT 10SM FEW005 OVC060 19/14 A3019 RMK AO2 SLP222 T01890139=
202009301753 METAR KBFI 301753Z 00000KT 10SM SCT005 OVC060 17/14 A3019 RMK AO2 SLP221 T01720139 10172 20122 51012=
202009301653 METAR KBFI 301653Z 00000KT 8SM SCT005 OVC060 16/14 A3018 RMK AO2 SLP218 T01560144=
202009301553 METAR KBFI 301553Z 00000KT 10SM SCT004 BKN060 14/13 A3016 RMK AO2 SLP213 BCFG NW-N T01440128=
202009301453 METAR KBFI 301453Z 00000KT 10SM SCT005 BKN060 14/12 A3015 RMK AO2 SLP209 BCFG NW-N T01390122 53009=
202009301353 METAR KBFI 301353Z 00000KT 10SM FEW001 13/12 A3014 RMK AO2 SLP205 FG 2 N T01330117=
202009301253 METAR KBFI 301253Z 13003KT 10SM CLR 13/11 A3013 RMK AO2 SLP202 T01280111=
202009301153 METAR KBFI 301153Z 00000KT 10SM CLR 13/12 A3012 RMK AO2 SLP200 T01330117 10167 20133 51008=
202009301053 METAR KBFI 301053Z 00000KT 10SM CLR 14/12 A3012 RMK AO2 SLP198 T01390117=
202009300953 METAR KBFI 300953Z 00000KT 10SM CLR 14/12 A3011 RMK AO2 SLP195 T01390122=
202009300853 METAR KBFI 300853Z 00000KT 10SM CLR 14/12 A3010 RMK AO2 SLP192 T01440122 51013=
202009300753 METAR KBFI 300753Z 00000KT 10SM CLR 14/12 A3009 RMK AO2 SLP188 T01440122 402500122=
202009300653 METAR KBFI 300653Z 00000KT 10SM CLR 16/13 A3008 RMK AO2 SLP184 T01560128=
202009300553 METAR KBFI 300553Z 00000KT 10SM CLR 17/13 A3006 RMK AO2 SLP179 T01670128 10250 20167 53011=
202009300453 METAR KBFI 300453Z 00000KT 10SM CLR 18/13 A3005 RMK AO2 SLP175 T01780128=
202009300353 METAR KBFI 300353Z 00000KT 10SM CLR 18/13 A3004 RMK AO2 SLP171 T01830128=
202009300253 METAR KBFI 300253Z 00000KT 10SM CLR 19/13 A3003 RMK AO2 SLP168 T01940128 53005=
202009300153 METAR KBFI 300153Z 32004KT 10SM CLR 21/13 A3001 RMK AO2 SLP163 T02110128=
202009300053 METAR KBFI 300053Z 31004KT 10SM CLR 23/13 A3001 RMK AO2 SLP162 T02330128=
202009292353 METAR KBFI 292353Z VRB04KT 10SM CLR 25/11 A3001 RMK AO2 SLP163 T02500111 10250 20183 56012=
202009292253 METAR KBFI 292253Z VRB05KT 10SM CLR 24/12 A3002 RMK AO2 SLP166 T02440122=
202009292153 METAR KBFI 292153Z VRB05KT 10SM CLR 24/13 A3003 RMK AO2 SLP170 T02390128=
202009292053 METAR KBFI 292053Z VRB05KT 10SM CLR 23/13 A3005 RMK AO2 SLP175 T02280128 58018=
202009291953 METAR KBFI 291953Z 32006KT 10SM CLR 22/13 A3007 RMK AO2 SLP182 T02220128=
202009291853 METAR KBFI 291853Z 05005KT 10SM CLR 21/13 A3008 RMK AO2 SLP187 T02060128=
202009291753 METAR KBFI 291753Z VRB04KT 10SM CLR 18/12 A3010 RMK AO2 SLP193 T01830122 10183 20122 50000=
202009291653 METAR KBFI 291653Z VRB04KT 10SM FEW011 17/12 A3011 RMK AO2 SLP194 T01670122=
202009291553 METAR KBFI 291553Z 05003KT 10SM SCT015 15/12 A3010 RMK AO2 SLP193 T01500117=
202009291453 METAR KBFI 291453Z 00000KT 10SM CLR 14/12 A3010 RMK AO2 SLP192 T01390117 56004=
202009291353 METAR KBFI 291353Z 00000KT 10SM CLR 13/11 A3010 RMK AO2 SLP193 T01330111=
202009291253 METAR KBFI 291253Z 00000KT 10SM CLR 13/11 A3011 RMK AO2 SLP194 T01330111=
202009291153 METAR KBFI 291153Z 00000KT 10SM CLR 14/12 A3011 RMK AO2 SLP196 T01390117 10167 20139 56009=
202009291053 METAR KBFI 291053Z 00000KT 10SM CLR 14/11 A3012 RMK AO2 SLP197 T01440111=
202009290953 METAR KBFI 290953Z 35003KT 10SM CLR 15/11 A3013 RMK AO2 SLP202 T01500111=
202009290853 METAR KBFI 290853Z 00000KT 10SM CLR 16/11 A3014 RMK AO2 SLP205 T01560106 56008=
202009290753 METAR KBFI 290753Z 00000KT 10SM CLR 16/11 A3015 RMK AO2 SLP208 T01610106 402220122=
202009290653 METAR KBFI 290653Z 00000KT 10SM CLR 16/11 A3015 RMK AO2 SLP209 T01610111=
202009290553 METAR KBFI 290553Z 34003KT 10SM CLR 17/11 A3016 RMK AO2 SLP214 T01670111 10217 20161 58005=
202009290453 METAR KBFI 290453Z 33003KT 10SM CLR 17/11 A3017 RMK AO2 SLP216 T01720111=
202009290353 METAR KBFI 290353Z 00000KT 10SM CLR 17/11 A3018 RMK AO2 SLP218 T01670106=
202009290253 METAR KBFI 290253Z 32004KT 10SM CLR 18/11 A3018 RMK AO2 SLP218 T01780106 56009=
202009290153 METAR KBFI 290153Z 31004KT 10SM CLR 19/11 A3018 RMK AO2 SLP218 T01890106=
202009290053 METAR KBFI 290053Z 31006KT 10SM CLR 21/11 A3018 RMK AO2 SLP221 T02060106=
202009282353 METAR KBFI 282353Z 31007KT 10SM CLR 22/11 A3020 RMK AO2 SLP228 T02170111 10222 20178 56024=
202009282253 METAR KBFI 282253Z AUTO 30007KT 10SM CLR 22/11 A3023 RMK AO2 SLP235 T02170111=
202009282153 METAR KBFI 282153Z 30007KT 10SM CLR 22/11 A3025 RMK AO2 SLP242 T02170111=
202009282053 METAR KBFI 282053Z 29006KT 10SM CLR 21/11 A3027 RMK AO2 SLP251 T02110111 58022=
202009281953 METAR KBFI 281953Z 30008KT 10SM CLR 20/11 A3030 RMK AO2 SLP261 T02000106=
202009281853 METAR KBFI 281853Z 30005KT 10SM CLR 18/10 A3032 RMK AO2 SLP267 T01830100=
202009281753 METAR KBFI 281753Z 29007KT 10SM CLR 18/11 A3034 RMK AO2 SLP273 T01780106 10178 20122 58009=
202009281653 METAR KBFI 281653Z VRB03KT 10SM CLR 16/11 A3036 RMK AO2 SLP279 T01610106=
202009281553 METAR KBFI 281553Z 33004KT 10SM FEW010 14/11 A3036 RMK AO2 SLP282 T01390106=
202009281523 SPECI KBFI 281523Z 30003KT 10SM FEW008 14/11 A3036 RMK AO2 T01390106=
202009281453 METAR KBFI 281453Z 00000KT 10SM CLR 13/10 A3037 RMK AO2 SLP283 T01280100 58001=
202009281353 METAR KBFI 281353Z 00000KT 10SM CLR 12/10 A3037 RMK AO2 SLP283 T01220100=
202009281253 METAR KBFI 281253Z 00000KT 10SM CLR 12/10 A3037 RMK AO2 SLP285 T01220100=
202009281153 METAR KBFI 281153Z 34003KT 10SM CLR 13/10 A3037 RMK AO2 SLP283 T01280100 10144 20122 58014=
202009281053 METAR KBFI 281053Z 34005KT 10SM CLR 13/10 A3039 RMK AO2 SLP291 T01280100=
202009280953 METAR KBFI 280953Z 31003KT 10SM CLR 13/10 A3040 RMK AO2 SLP293 T01330100=
202009280853 METAR KBFI 280853Z 29003KT 10SM CLR 13/09 A3041 RMK AO2 SLP297 T01280094 58006=
202009280753 METAR KBFI 280753Z 00000KT 10SM CLR 13/09 A3043 RMK AO2 SLP302 T01280094 402000111=
202009280653 METAR KBFI 280653Z 00000KT 10SM CLR 14/09 A3043 RMK AO2 SLP302 T01390094=
202009280553 METAR KBFI 280553Z 00000KT 10SM CLR 14/10 A3043 RMK AO2 SLP304 T01440100 10200 20139 58002=
202009280453 METAR KBFI 280453Z 00000KT 10SM CLR 14/10 A3044 RMK AO2 SLP306 T01440100=
202009280353 METAR KBFI 280353Z 00000KT 10SM CLR 16/09 A3044 RMK AO2 SLP307 T01560094=
202009280253 METAR KBFI 280253Z VRB03KT 10SM CLR 17/08 A3044 RMK AO2 SLP306 T01720083 53002=
202009280153 METAR KBFI 280153Z 33005KT 10SM CLR 18/09 A3042 RMK AO2 SLP302 T01780089=
202009280053 METAR KBFI 280053Z 30006KT 10SM FEW100 19/08 A3042 RMK AO2 SLP301 T01940078=
202009272353 METAR KBFI 272353Z 31007KT 10SM CLR 19/08 A3043 RMK AO2 SLP304 T01940078 10200 20167 56008=
202009272253 METAR KBFI 272253Z 29005KT 10SM FEW030 SCT100 19/09 A3044 RMK AO2 SLP308 T01940094=
202009272153 METAR KBFI 272153Z 32006KT 10SM SCT050 SCT100 20/10 A3044 RMK AO2 SLP308 T02000100=
202009272053 METAR KBFI 272053Z VRB05KT 10SM CLR 19/11 A3046 RMK AO2 SLP313 T01890106 58005=
202009271953 METAR KBFI 271953Z 30007KT 10SM FEW110 18/11 A3046 RMK AO2 SLP315 T01830106=
202009271853 METAR KBFI 271853Z 00000KT 10SM SCT030 BKN100 18/09 A3048 RMK AO2 SLP320 T01780089=
202009271753 METAR KBFI 271753Z 05004KT 10SM FEW022 BKN095 17/09 A3047 RMK AO2 SLP318 T01720094 10172 20111 51015=
202009271734 SPECI KBFI 271734Z 12003KT 10SM SCT011 BKN110 16/11 A3047 RMK AO2 T01610106=
202009271653 METAR KBFI 271653Z 00000KT 10SM FEW011 BKN110 16/12 A3047 RMK AO2 SLP317 T01560122=
202009271553 METAR KBFI 271553Z 00000KT 10SM FEW008 SCT100 14/12 A3045 RMK AO2 SLP311 T01390117=
202009271453 METAR KBFI 271453Z 00000KT 10SM SCT008 BKN100 12/11 A3043 RMK AO2 SLP304 T01220106 53020=
202009271353 METAR KBFI 271353Z 00000KT 10SM SCT008 BKN036 11/10 A3040 RMK AO2 SLP295 T01110100=
202009271319 SPECI KBFI 271319Z 00000KT 10SM FEW012 11/10 A3040 RMK AO2 T01110100=
202009271253 METAR KBFI 271253Z 15003KT 10SM BKN010 11/10 A3038 RMK AO2 SLP288 T01110100=
202009271153 METAR KBFI 271153Z 00000KT 10SM SCT048 12/11 A3037 RMK AO2 SLP284 70002 T01170106 10144 20111 51020=
202009271100 SPECI KBFI 271100Z 00000KT 10SM FEW020 BKN049 13/11 A3036 RMK AO2 T01280111=
202009271053 METAR KBFI 271053Z 00000KT 10SM BKN016 13/11 A3036 RMK AO2 SLP280 T01280111=
202009270953 METAR KBFI 270953Z 00000KT 10SM BKN016 13/11 A3035 RMK AO2 SLP276 T01280111=
202009270853 METAR KBFI 270853Z 00000KT 10SM FEW016 BKN022 BKN033 13/11 A3031 RMK AO2 SLP263 T01330106 51026=
202009270753 METAR KBFI 270753Z 17004KT 10SM BKN023 13/11 A3029 RMK AO2 SLP255 T01330106 401940128=
202009270721 SPECI KBFI 270721Z 00000KT 10SM BKN023 14/11 A3027 RMK AO2 T01390106=
202009270653 METAR KBFI 270653Z 00000KT 10SM CLR 13/11 A3027 RMK AO2 SLP248 T01280106=
202009270553 METAR KBFI 270553Z VRB03KT 10SM CLR 14/11 A3023 RMK AO2 SLP237 60000 T01390111 10172 20128 51016=
202009270453 METAR KBFI 270453Z 12006KT 10SM CLR 14/12 A3023 RMK AO2 SLP235 T01390117=
202009270353 METAR KBFI 270353Z 15005KT 10SM FEW100 14/11 A3021 RMK AO2 SLP230 T01440111=
202009270253 METAR KBFI 270253Z 17007KT 10SM FEW060 15/12 A3019 RMK AO2 RAE10 SLP221 P0000 60000 T01500117 53015=
202009270153 METAR KBFI 270153Z 17003KT 10SM -RA BKN043 BKN055 16/12 A3017 RMK AO2 RAB51 SLP214 P0000 T01610117=
202009270053 METAR KBFI 270053Z 20006KT 10SM SCT030 BKN050 17/11 A3014 RMK AO2 RAB13E22 SLP207 P0000 T01670111=
202009262353 METAR KBFI 262353Z 20007KT 10SM FEW029 SCT075 BKN090 17/12 A3014 RMK AO2 SLP207 60002 T01670117 10194 20156 53008=
202009262253 METAR KBFI 262253Z 18008KT 10SM FEW021 FEW026 SCT085 17/12 A3013 RMK AO2 SLP202 T01670122=
202009262153 METAR KBFI 262153Z 18007KT 10SM BKN070 OVC085 16/12 A3012 RMK AO2 RAB21E43 SLP198 P0000 T01610122=
202009262053 METAR KBFI 262053Z 21006KT 10SM SCT032 SCT060 BKN090 17/13 A3012 RMK AO2 RAB20E48 SLP198 P0002 60002 T01670128 53004=
202009261953 METAR KBFI 261953Z 19011G19KT 10SM FEW044 SCT055 BKN070 18/10 A3011 RMK AO2 SLP194 T01780100=
202009261853 METAR KBFI 261853Z 19010KT 10SM SCT022 BKN085 18/11 A3011 RMK AO2 SLP197 T01830111=
202009261753 METAR KBFI 261753Z 17013KT 10SM FEW018 SCT090 17/11 A3011 RMK AO2 SLP194 T01670111 10167 20133 50009=
202009261653 METAR KBFI 261653Z 18007KT 10SM SCT020 BKN100 15/11 A3011 RMK AO2 SLP195 T01500106=
202009261553 METAR KBFI 261553Z 19008KT 10SM SCT014 BKN020 BKN100 14/11 A3009 RMK AO2 SLP190 T01440106=
202009261453 METAR KBFI 261453Z 15006KT 10SM BKN014 BKN100 13/10 A3008 RMK AO2 SLP185 T01330100 53006=
202009261353 METAR KBFI 261353Z 13006KT 10SM OVC014 14/10 A3007 RMK AO2 SLP182 T01390100=
202009261253 METAR KBFI 261253Z 12004KT 10SM OVC014 14/10 A3006 RMK AO2 SLP178 T01390100=
202009261241 SPECI KBFI 261241Z 12003KT 10SM OVC014 13/11 A3006 RMK AO2 T01330106=
202009261153 METAR KBFI 261153Z 14005KT 10SM OVC018 13/10 A3006 RMK AO2 SLP178 70037 T01330100 10139 20128 53006=
202009261053 METAR KBFI 261053Z 14005KT 10SM BKN014 OVC021 13/10 A3004 RMK AO2 SLP173 T01280100=
202009260953 METAR KBFI 260953Z 14006KT 10SM OVC014 14/11 A3004 RMK AO2 SLP171 T01390106=
202009260949 SPECI KBFI 260949Z 15006KT 10SM OVC014 14/11 A3004 RMK AO2=
202009260903 SPECI KBFI 260903Z 12004KT 10SM BKN020 14/10 A3002 RMK AO2 T01390100=
202009260853 METAR KBFI 260853Z 14004KT 10SM SCT022 13/10 A3002 RMK AO2 SLP165 T01330100 53021=
202009260839 SPECI KBFI 260839Z 17005KT 10SM SCT022 13/10 A3001 RMK AO2 T01330100=
202009260753 METAR KBFI 260753Z 17006KT 10SM BKN021 14/10 A2999 RMK AO2 SLP155 T01390100 401890133=
202009260653 METAR KBFI 260653Z 17005KT 10SM OVC021 14/10 A2998 RMK AO2 SLP153 T01390100=
202009260608 SPECI KBFI 260608Z 16007KT 10SM BKN025 OVC085 14/09 A2995 RMK AO2 T01390094=
202009260553 METAR KBFI 260553Z 17007KT 10SM FEW025 OVC085 14/09 A2996 RMK AO2 SLP144 T01390094 10172 20133 51022=
202009260453 METAR KBFI 260453Z 15008KT 10SM BKN070 BKN085 13/09 A2994 RMK AO2 SLP139 T01330089=
202009260353 METAR KBFI 260353Z 16005KT 10SM CLR 14/09 A2992 RMK AO2 SLP132 T01390094=
202009260253 METAR KBFI 260253Z 00000KT 10SM FEW070 SCT140 BKN220 16/09 A2989 RMK AO2 SLP122 T01560089 51024=
202009260153 METAR KBFI 260153Z 17007KT 10SM BKN070 16/09 A2987 RMK AO2 SLP114 T01560094=
202009260053 METAR KBFI 260053Z 18007G15KT 140V210 10SM FEW010 SCT021 BKN200 17/10 A2985 RMK AO2 SLP107 T01720100=
202009252353 METAR KBFI 252353Z 18009KT 10SM FEW060 17/10 A2982 RMK AO2 SLP098 60000 T01720100 10189 20150 51035=
202009252253 METAR KBFI 252253Z 19012G19KT 10SM FEW009 SCT017 BKN085 17/10 A2979 RMK AO2 SLP087 T01720100=
202009252153 METAR KBFI 252153Z 24009KT 10SM SCT022 BKN075 OVC085 17/13 A2976 RMK AO2 SLP077 T01720128=
202009252053 METAR KBFI 252053Z 20011G22KT 10SM SCT012 SCT024 BKN065 17/14 A2972 RMK AO2 SLP063 60000 T01720139 53013=
202009252017 SPECI KBFI 252017Z 17014G20KT 6SM BR SCT012 SCT024 OVC065 16/14 A2970 RMK AO2 T01610139=
202009251958 SPECI KBFI 251958Z 17013KT 1SM BR SCT010 BKN022 OVC065 16/14 A2970 RMK AO2 T01610139=
202009251953 METAR KBFI 251953Z 17012KT 10SM SCT022 OVC065 16/14 A2971 RMK AO2 RAB00E37 SLP059 P0000 T01610139=
202009251921 SPECI KBFI 251921Z 17010KT 2SM -RA BR BKN010 BKN022 OVC031 16/13 A2970 RMK AO2 RAB00 P0000 T01560133=
202009251853 METAR KBFI 251853Z 17015G21KT 10SM BKN018 BKN033 OVC070 16/13 A2969 RMK AO2 RAE02 SLP054 P0000 T01610133=
202009251753 METAR KBFI 251753Z 17007G16KT 10SM -RA BKN024 OVC033 15/12 A2968 RMK AO2 RAE24B48 SLP050 P0000 60037 T01500122 10150 20133 55006=
202009251653 METAR KBFI 251653Z 13007KT 2 1/2SM -RA BR SCT039 BKN050 OVC060 14/12 A2968 RMK AO2 SLP050 P0017 T01390117=
202009251626 SPECI KBFI 251626Z 09004KT 1 1/2SM RA BR BKN041 OVC060 13/12 A2968 RMK AO2 P0016 T01330117=
202009251601 SPECI KBFI 251601Z 17007KT 2 1/2SM RA BR BKN026 OVC046 13/12 A2969 RMK AO2 P0003 T01330117=
202009251553 METAR KBFI 251553Z 15008KT 4SM RA BR BKN028 OVC044 14/12 A2968 RMK AO2 SLP048 P0005 T01390117=
202009251453 METAR KBFI 251453Z 15014KT 7SM -RA FEW048 FEW060 OVC075 14/11 A2970 RMK AO2 SLP057 P0006 60015 T01390111 56019=
202009251353 METAR KBFI 251353Z 15012KT 10SM -RA OVC065 14/12 A2971 RMK AO2 SLP062 P0006 T01390117=
202009251253 METAR KBFI 251253Z 14009KT 10SM -RA FEW050 OVC070 14/12 A2973 RMK AO2 SLP068 P0003 T01390117=
202009251153 METAR KBFI 251153Z 14008KT 10SM -RA OVC070 14/11 A2976 RMK AO2 SLP076 P0002 60002 70043 T01390111 10150 20139 56030=
202009251053 METAR KBFI 251053Z 14008KT 10SM -RA OVC075 14/11 A2978 RMK AO2 SLP085 P0000 T01440106=
202009250953 METAR KBFI 250953Z 14009KT 10SM -RA BKN085 BKN110 14/11 A2982 RMK AO2 RAB49 SLP096 P0000 T01440106=
202009250853 METAR KBFI 250853Z 15009KT 10SM FEW048 BKN085 BKN100 14/11 A2984 RMK AO2 SLP106 T01440111 58024=
202009250753 METAR KBFI 250753Z 15008KT 10SM FEW050 SCT100 14/11 A2988 RMK AO2 SLP116 T01440111 401830144=
202009250653 METAR KBFI 250653Z 15008KT 10SM SCT040 BKN150 15/12 A2989 RMK AO2 SLP121 T01500117=
202009250553 METAR KBFI 250553Z 15007KT 10SM SCT040 BKN150 15/12 A2992 RMK AO2 SLP130 T01500122 10183 20150 58014=
202009250453 METAR KBFI 250453Z 15008KT 10SM FEW075 15/12 A2993 RMK AO2 SLP136 T01500122=
202009250353 METAR KBFI 250353Z 14009KT 10SM CLR 16/12 A2995 RMK AO2 SLP141 T01560122=
202009250253 METAR KBFI 250253Z 14006KT 10SM SCT037 16/12 A2996 RMK AO2 SLP145 T01610122 56004=
202009250153 METAR KBFI 250153Z 17007KT 10SM FEW043 SCT049 BKN065 17/13 A2996 RMK AO2 SLP146 T01670128=
202009250053 METAR KBFI 250053Z 17011KT 10SM FEW029 SCT090 17/12 A2996 RMK AO2 SLP146 T01720117=
202009242353 METAR KBFI 242353Z 17009KT 10SM FEW035 BKN110 18/12 A2997 RMK AO2 SLP149 60029 T01830122 10183 20150 58002=
202009242253 METAR KBFI 242253Z 17011KT 10SM FEW029 BKN110 17/12 A2998 RMK AO2 SLP150 T01720117=
202009242153 METAR KBFI 242153Z 17010KT 10SM FEW032 BKN080 OVC120 18/12 A2998 RMK AO2 SLP150 T01780122=
202009242053 METAR KBFI 242053Z 24008G16KT 10SM SCT095 17/11 A2998 RMK AO2 RAE1955 SLP150 P0000 60029 T01720111 53006=
202009241953 METAR KBFI 241953Z 18009KT 10SM -RA FEW026 SCT028 BKN050 15/11 A2997 RMK AO2 RAB05 SLP149 P0014 T01500111=
202009241853 METAR KBFI 241853Z 00000KT 10SM FEW015 BKN024 OVC065 16/13 A2996 RMK AO2 RAE52 SLP145 P0015 T01610133=
202009241753 METAR KBFI 241753Z 20005KT 10SM -RA SCT027 BKN037 OVC070 16/13 A2996 RMK AO2 SLP144 P0010 60012 T01560128 10172 20156 53022=
202009241653 METAR KBFI 241653Z 18014G20KT 10SM -RA SCT038 BKN065 OVC090 17/12 A2994 RMK AO2 PK WND 20026/1604 RAB10 SLP137 P0002 T01670122=
202009241553 METAR KBFI 241553Z 18015G20KT 10SM FEW036 SCT044 17/12 A2991 RMK AO2 RAB15E31 SLP129 P0000 T01720117=
202009241453 METAR KBFI 241453Z 18010KT 10SM SCT034 BKN044 BKN100 16/12 A2989 RMK AO2 RAB14E24 SLP122 P0000 60000 T01560117 53011=
202009241353 METAR KBFI 241353Z 17012G23KT 10SM SCT033 BKN047 16/12 A2988 RMK AO2 RAE23 SLP117 P0000 T01560117=
202009241253 METAR KBFI 241253Z 17011G21KT 10SM -RA FEW047 BKN060 BKN085 16/12 A2986 RMK AO2 RAE1157B50 SLP111 P0000 T01560117=
202009241153 METAR KBFI 241153Z 17013KT 10SM -RA SCT022 BKN044 BKN070 16/12 A2986 RMK AO2 RAB15 SLP111 P0000 60000 70070 T01560117 10161 20156 50013=
202009241053 METAR KBFI 241053Z 17012G20KT 10SM SCT021 BKN036 OVC044 16/12 A2986 RMK AO2 SLP112 T01610117=
202009240953 METAR KBFI 240953Z 17012G19KT 10SM FEW026 BKN033 BKN044 16/12 A2985 RMK AO2 SLP107 T01610117=
202009240853 METAR KBFI 240853Z 18012G22KT 10SM SCT036 BKN048 16/12 A2982 RMK AO2 SLP099 T01560117 51017=
202009240753 METAR KBFI 240753Z 16012G18KT 10SM BKN034 OVC065 16/12 A2982 RMK AO2 SLP096 T01560122 401780150=
202009240653 METAR KBFI 240653Z 17010G19KT 10SM FEW015 SCT020 16/12 A2980 RMK AO2 SLP092 T01560122=
202009240553 METAR KBFI 240553Z 17011G18KT 10SM FEW012 SCT020 16/13 A2977 RMK AO2 RAB0456E05 SLP082 P0000 60014 T01560133 10172 20156 51020=
202009240453 METAR KBFI 240453Z 18010G18KT 10SM FEW015 BKN034 16/14 A2977 RMK AO2 RAB08E30 SLP080 P0000 T01610139=
202009240353 METAR KBFI 240353Z 18012G19KT 10SM BKN036 17/14 A2974 RMK AO2 RAB0257E15 SLP070 P0000 T01670139 $=
202009240253 METAR KBFI 240253Z 17010KT 10SM FEW025 BKN055 OVC070 16/14 A2971 RMK AO2 RAE09 SLP062 P0000 60014 T01610139 55002 $=
202009240201 SPECI KBFI 240201Z 16013KT 10SM -RA SCT025 BKN033 OVC043 16/14 A2969 RMK AO2 P0000 T01610139 $=
202009240159 SPECI KBFI 240159Z 15011KT 2 1/2SM -RA BR SCT025 BKN030 OVC043 16/14 A2970 RMK AO2 P0000 T01610139 $=
202009240153 METAR KBFI 240153Z 17009KT 3SM RA BR BKN025 OVC037 16/14 A2970 RMK AO2 SLP056 P0004 T01610139 $=
202009240136 SPECI KBFI 240136Z 16012KT 8SM -RA SCT022 BKN027 OVC090 16/ A2969 RMK AO2 P0001 T0161 $=
202009240100 SPECI KBFI 240100Z 13014KT 2 1/2SM -RA BKN034 BKN080 OVC100 17/ A2970 RMK AO2 P0000 T0167 $=
202009240053 METAR KBFI 240053Z 14015KT 2 1/2SM -RA BKN034 OVC100 17/ A2971 RMK AO2 SLP059 P0010 T0167 $=
202009232353 METAR KBFI 232353Z 16014KT 2 1/2SM -RA BR BKN020 OVC100 17/15 A2972 RMK AO2 SLP064 P0005 60049 T01720150 10178 20167 56013 $=
202009232253 METAR KBFI 232253Z 17014G22KT 2 1/2SM -RA BKN020 OVC100 17/ A2973 RMK AO2 SLP068 P0008 T0172 $=
202009232157 SPECI KBFI 232157Z 16013KT 2 1/2SM -RA BKN022 OVC110 18/ A2974 RMK AO2 P0000 T0178 $=
202009232153 METAR KBFI 232153Z 16012KT 9SM -RA SCT034 OVC100 18/ A2974 RMK AO2 SLP070 P0000 T0178 $=
202009232126 SPECI KBFI 232126Z 14013KT 10SM -RA SCT034 OVC100 17/15 A2974 RMK AO2 P0000 T01720150 $=
202009232053 METAR KBFI 232053Z 17008KT 2SM -RA BR BKN028 OVC075 17/16 A2976 RMK AO2 SLP077 P0013 60036 T01720156 55015=
202009232036 SPECI KBFI 232036Z 16007KT 2SM RA BR BKN028 OVC075 17/16 A2976 RMK AO2 P0008 T01720156=
202009231953 METAR KBFI 231953Z 16009KT 4SM -RA BR BKN018 BKN070 OVC090 17/16 A2975 RMK AO2 SLP073 P0014 T01720161=
202009231906 SPECI KBFI 231906Z 16011KT 4SM RA BR BKN018 BKN070 OVC090 17/16 A2978 RMK AO2 P0004 T01670161=
202009231903 SPECI KBFI 231903Z 15010KT 2 1/2SM -RA BR BKN018 BKN070 OVC090 17/16 A2978 RMK AO2 P0002 T01670156=
202009231857 SPECI KBFI 231857Z 14010KT 3SM RA BR FEW055 SCT075 OVC090 17/16 A2978 RMK AO2 P0001 T01720156=
202009231853 METAR KBFI 231853Z 14012KT 2 1/2SM RA BR BKN018 BKN070 OVC090 17/16 A2978 RMK AO2 SLP084 P0009 T01670156=
202009231838 SPECI KBFI 231838Z 14010KT 4SM RA BR BKN018 OVC095 17/15 A2980 RMK AO2 P0004 T01670150=
202009231753 METAR KBFI 231753Z 16009KT 10SM -RA BKN090 OVC110 18/14 A2980 RMK AO2 SLP091 P0000 60007 T01780144 10178 20150 55009=
202009231653 METAR KBFI 231653Z 16008KT 5SM RA BR SCT043 SCT070 OVC100 17/14 A2979 RMK AO2 RAE1558B31 SLP086 P0001 T01670144=
202009231553 METAR KBFI 231553Z 15010KT 10SM -RA FEW048 BKN075 OVC100 16/15 A2982 RMK AO2 RAB12 SLP097 P0002 T01610150=
202009231453 METAR KBFI 231453Z 15007KT 10SM BKN032 OVC150 16/15 A2983 RMK AO2 SLP101 60004 T01560150 58013=
202009231353 METAR KBFI 231353Z 15006KT 10SM OVC039 16/15 A2984 RMK AO2 RAE19 SLP103 P0000 T01560150=
202009231253 METAR KBFI 231253Z 14010KT 6SM -RA BR SCT043 BKN065 OVC085 15/14 A2986 RMK AO2 RAB1158 SLP112 P0004 T01500144 $=
202009231153 METAR KBFI 231153Z 14009KT 10SM BKN055 OVC080 16/14 A2987 RMK AO2 RAE49 SLP113 P0005 60006 70006 T01560139 10183 20156 56010 $=
202009231053 METAR KBFI 231053Z VRB03KT 9SM -RA BKN055 OVC075 17/13 A2989 RMK AO2 RAB37 SLP120 P0001 T01670128=
202009230953 METAR KBFI 230953Z 16008KT 10SM CLR 17/12 A2987 RMK AO2 SLP114 T01670122=
202009230853 METAR KBFI 230853Z 15007KT 10SM CLR 17/12 A2990 RMK AO2 SLP124 T01670117 56009=
202009230753 METAR KBFI 230753Z 14004KT 10SM CLR 17/12 A2991 RMK AO2 SLP127 T01720117 402330156=
202009230653 METAR KBFI 230653Z 11005KT 10SM CLR 18/12 A2991 RMK AO2 SLP128 T01830117=
202009230553 METAR KBFI 230553Z 14003KT 10SM CLR 18/11 A2992 RMK AO2 SLP133 T01830111 10222 20172 56012=
202009230453 METAR KBFI 230453Z 00000KT 10SM CLR 18/11 A2993 RMK AO2 SLP135 T01780111=
202009230353 METAR KBFI 230353Z 00000KT 10SM CLR 19/11 A2994 RMK AO2 SLP139 T01940106=
202009230253 METAR KBFI 230253Z 18004KT 10SM FEW060 OVC200 19/11 A2996 RMK AO2 SLP145 T01940106 57005=
202009230153 METAR KBFI 230153Z 22003KT 10SM SCT060 BKN250 21/10 A2997 RMK AO2 SLP149 T02060100=
202009230053 METAR KBFI 230053Z 19004KT 10SM SCT035 OVC250 21/09 A2996 RMK AO2 SLP146 T02110094=
202009222353 METAR KBFI 222353Z 24004KT 10SM SCT035 BKN250 22/09 A2998 RMK AO2 SLP150 T02170089 10233 20183 56008=
202009222253 METAR KBFI 222253Z 17006KT 10SM FEW030 SCT180 SCT250 23/09 A2998 RMK AO2 SLP151 T02280089=
202009222153 METAR KBFI 222153Z VRB06KT 10SM SCT020 BKN250 22/07 A2999 RMK AO2 SLP154 T02220072=
202009222053 METAR KBFI 222053Z 24008KT 200V260 10SM FEW020 BKN250 22/07 A3000 RMK AO2 SLP158 T02220067 58013=
202009221953 METAR KBFI 221953Z 15010G15KT 10SM FEW020 BKN250 21/08 A3001 RMK AO2 SLP163 T02110083=
202009221853 METAR KBFI 221853Z VRB06KT 10SM CLR 20/11 A3003 RMK AO2 SLP169 T02000111=
202009221753 METAR KBFI 221753Z VRB05KT 10SM SCT015 18/12 A3004 RMK AO2 SLP171 T01830117 10183 20156 53005=
202009221653 METAR KBFI 221653Z 22006KT 10SM SCT018 17/12 A3003 RMK AO2 SLP168 T01720122=
202009221602 SPECI KBFI 221602Z VRB03KT 8SM BKN012 BKN015 16/13 A3002 RMK AO2 T01610128=
202009221553 METAR KBFI 221553Z 21004KT 7SM BKN007 BKN012 16/13 A3002 RMK AO2 SLP167 T01610128=
202009221453 METAR KBFI 221453Z 26003KT 6SM BKN007 OVC012 16/14 A3002 RMK AO2 SLP166 T01560139 53011=
202009221353 METAR KBFI 221353Z 21003KT 10SM BKN009 OVC015 16/14 A3001 RMK AO2 SLP160 T01610139=
202009221350 SPECI KBFI 221350Z 21003KT 10SM BKN009 OVC015 16/14 A3001 RMK AO2=
202009221300 SPECI KBFI 221300Z 17003KT 10SM OVC015 16/14 A3000 RMK AO2 T01610139=
202009221253 METAR KBFI 221253Z 00000KT 10SM OVC013 16/14 A3000 RMK AO2 SLP158 T01610139=
202009221153 METAR KBFI 221153Z 00000KT 10SM OVC011 16/14 A2999 RMK AO2 SLP155 60000 T01610139 10194 20161 53005=
202009221053 METAR KBFI 221053Z AUTO 00000KT 10SM OVC013 16/14 A2998 RMK AO2 RAB09E19 SLP153 P0000 T01610144 TSNO=
202009221050 SPECI KBFI 221050Z AUTO 00000KT 10SM OVC013 16/14 A2998 RMK AO2 RAB09E19 P0000 TSNO=
202009221022 SPECI KBFI 221022Z AUTO 00000KT 10SM SCT015 BKN025 OVC055 16/14 A2998 RMK AO2 RAB09E19 P0000 T01610139 TSNO=
202009220953 METAR KBFI 220953Z AUTO 00000KT 10SM SCT035 BKN060 OVC070 16/14 A2998 RMK AO2 RAE22 SLP150 P0000 T01610139 TSNO=
202009220853 METAR KBFI 220853Z AUTO 31003KT 9SM -RA FEW020 OVC034 17/13 A2998 RMK AO2 RAB53 SLP151 P0000 60000 T01670128 51007 TSNO=
202009220753 METAR KBFI 220753Z AUTO 00000KT 10SM BKN034 OVC050 18/13 A2997 RMK AO2 SLP149 T01830133 402220117 TSNO=
202009220653 METAR KBFI 220653Z 21003KT 10SM FEW033 OVC050 19/13 A2997 RMK AO2 SLP148 T01890128=
202009220553 METAR KBFI 220553Z 00000KT 10SM OVC036 19/12 A2996 RMK AO2 SLP144 T01940122 10217 20189 50003=
202009220453 METAR KBFI 220453Z 19004KT 10SM SCT035 BKN075 19/13 A2996 RMK AO2 SLP145 T01940128=
202009220353 METAR KBFI 220353Z 21004KT 10SM BKN080 OVC095 20/13 A2995 RMK AO2 SLP143 T02000128=
202009220253 METAR KBFI 220253Z 17004KT 10SM SCT070 BKN090 20/13 A2995 RMK AO2 SLP141 T02000128 53002=
202009220153 METAR KBFI 220153Z 17005KT 10SM FEW040 BKN090 BKN200 21/13 A2994 RMK AO2 SLP138 T02060128=
202009220053 METAR KBFI 220053Z 17006KT 10SM FEW090 SCT200 21/12 A2994 RMK AO2 SLP138 T02110117=
202009212353 METAR KBFI 212353Z 17007KT 10SM SCT060 BKN085 21/12 A2994 RMK AO2 SLP138 T02110122 10222 20156 56005=
202009212253 METAR KBFI 212253Z 14007KT 10SM SCT060 OVC150 22/12 A2994 RMK AO2 SLP140 T02170122=
202009212153 METAR KBFI 212153Z 19007KT 10SM FEW060 21/12 A2995 RMK AO2 SLP140 T02110122=
202009212053 METAR KBFI 212053Z 00000KT 10SM BKN075 19/12 A2996 RMK AO2 SLP144 T01890122 56007=
202009211953 METAR KBFI 211953Z 31005KT 10SM BKN075 19/13 A2996 RMK AO2 SLP146 T01890128=
202009211853 METAR KBFI 211853Z VRB03KT 10SM CLR 17/12 A2996 RMK AO2 SLP145 T01720122=
202009211753 METAR KBFI 211753Z VRB03KT 10SM FEW004 SCT070 BKN130 16/12 A2998 RMK AO2 SLP151 T01610122 10161 20122 50005=
202009211653 METAR KBFI 211653Z 31003KT 10SM FEW004 BKN130 BKN180 15/12 A2999 RMK AO2 SLP154 T01500122=
202009211553 METAR KBFI 211553Z 20003KT 10SM FEW120 14/12 A2997 RMK AO2 SLP150 T01390117=
202009211453 METAR KBFI 211453Z 15005KT 10SM FEW015 OVC200 13/11 A2996 RMK AO2 SLP146 T01280111 53003=
202009211353 METAR KBFI 211353Z 16003KT 10SM SCT012 12/11 A2996 RMK AO2 SLP144 T01220111=
202009211253 METAR KBFI 211253Z 15003KT 10SM CLR 13/11 A2996 RMK AO2 SLP143 T01280111=
202009211153 METAR KBFI 211153Z 00000KT 10SM CLR 13/12 A2995 RMK AO2 SLP143 T01280117 10156 20117 55002=
202009211053 METAR KBFI 211053Z 00000KT 10SM CLR 13/11 A2995 RMK AO2 SLP142 T01280111=
202009210953 METAR KBFI 210953Z 00000KT 10SM CLR 13/11 A2995 RMK AO2 SLP143 T01280111=
202009210853 METAR KBFI 210853Z 00000KT 10SM CLR 14/12 A2996 RMK AO2 SLP144 T01390117 58009=
202009210753 METAR KBFI 210753Z 00000KT 10SM CLR 14/12 A2997 RMK AO2 SLP149 T01440117 402220139=
202009210653 METAR KBFI 210653Z 00000KT 10SM CLR 15/12 A2998 RMK AO2 SLP152 T01500122=
202009210553 METAR KBFI 210553Z 00000KT 10SM CLR 15/12 A2998 RMK AO2 SLP153 T01500117 10211 20150 58003=
202009210453 METAR KBFI 210453Z 00000KT 10SM CLR 16/12 A2999 RMK AO2 SLP154 T01610122=
202009210353 METAR KBFI 210353Z 00000KT 10SM CLR 17/12 A3000 RMK AO2 SLP157 T01720122=
202009210253 METAR KBFI 210253Z 00000KT 10SM CLR 18/12 A2999 RMK AO2 SLP156 T01830122 56007=
202009210153 METAR KBFI 210153Z 00000KT 10SM CLR 20/11 A3000 RMK AO2 SLP158 T02000111=
202009210053 METAR KBFI 210053Z 00000KT 10SM CLR 21/11 A3000 RMK AO2 SLP159 T02060111=
202009202353 METAR KBFI 202353Z 28005KT 10SM CLR 21/12 A3001 RMK AO2 SLP163 T02110117 10222 20178 56019=
202009202253 METAR KBFI 202253Z 30005KT 10SM BKN035 22/12 A3003 RMK AO2 SLP168 T02170117=
202009202153 METAR KBFI 202153Z VRB03KT 10SM FEW027 BKN036 22/12 A3005 RMK AO2 SLP174 T02170117=
202009202053 METAR KBFI 202053Z VRB04KT 10SM SCT020 BKN045 21/12 A3007 RMK AO2 SLP182 T02110122 58012=
202009201953 METAR KBFI 201953Z AUTO 13004KT 10SM FEW009 SCT020 BKN042 19/12 A3009 RMK AO2 SLP190 T01940122 TSNO=
202009201853 METAR KBFI 201853Z VRB03KT 10SM SCT009 BKN022 OVC042 18/12 A3010 RMK AO2 SLP193 T01830122=
202009201753 METAR KBFI 201753Z 15005KT 10SM SCT005 BKN015 OVC042 17/13 A3010 RMK AO2 SLP193 T01720133 10183 20156 58001=
202009201653 METAR KBFI 201653Z 17004KT 10SM SCT005 BKN010 OVC027 17/13 A3011 RMK AO2 SLP194 T01670133=
202009201650 SPECI KBFI 201650Z 15003KT 10SM SCT005 BKN010 OVC027 17/13 A3010 RMK AO2=
202009201600 SPECI KBFI 201600Z 19003KT 10SM BKN010 OVC026 16/14 A3011 RMK AO2 T01610139=
202009201553 METAR KBFI 201553Z 18003KT 10SM SCT005 BKN010 OVC020 16/14 A3010 RMK AO2 SLP194 T01610139=
202009201539 SPECI KBFI 201539Z 18003KT 10SM SCT005 BKN009 OVC022 16/14 A3010 RMK AO2 T01610139=
202009201453 METAR KBFI 201453Z 17003KT 10SM FEW006 SCT020 BKN045 16/14 A3010 RMK AO2 SLP191 T01610144 53002=
202009201353 METAR KBFI 201353Z 14003KT 10SM FEW008 BKN030 OVC045 16/14 A3009 RMK AO2 SLP188 T01560139=
202009201253 METAR KBFI 201253Z 13003KT 10SM FEW007 BKN025 OVC044 16/14 A3009 RMK AO2 SLP189 T01560139=
202009201207 SPECI KBFI 201207Z 15003KT 10SM BKN029 OVC034 16/14 A3009 RMK AO2 T01560139=
202009201153 METAR KBFI 201153Z 14004KT 10SM SCT008 OVC034 16/14 A3009 RMK AO2 SLP189 60000 70001 T01560139 10167 20156 58001=
202009201053 METAR KBFI 201053Z 00000KT 10SM FEW007 OVC034 16/14 A3009 RMK AO2 SLP190 T01610144=
202009200953 METAR KBFI 200953Z AUTO 14004KT 10SM OVC032 16/14 A3009 RMK AO2 SLP190 T01610144 TSNO=
202009200900 SPECI KBFI 200900Z 17004KT 10SM OVC031 16/14 A3009 RMK AO2 T01610144=
202009200853 METAR KBFI 200853Z 15005KT 10SM BKN012 OVC028 16/14 A3010 RMK AO2 RAB05E14 SLP191 P0000 60000 T01610139 57002=
202009200753 METAR KBFI 200753Z 16003KT 10SM BKN012 OVC028 16/14 A3010 RMK AO2 RAE49 SLP191 P0000 T01610144 402280161=
202009200653 METAR KBFI 200653Z 13003KT 6SM -RA SCT005 BKN012 OVC028 16/14 A3010 RMK AO2 RAB0554 SLP192 P0000 T01610144=
202009200553 METAR KBFI 200553Z 14003KT 6SM BR BKN008 BKN016 OVC025 16/15 A3010 RMK AO2 RAE12 SLP192 P0000 60001 T01610150 10217 20161 51010=
202009200453 METAR KBFI 200453Z 17003KT 7SM -RA BKN008 BKN025 OVC034 17/15 A3010 RMK AO2 RAB39 SLP191 P0000 T01670150=
202009200353 METAR KBFI 200353Z 00000KT 10SM BKN009 BKN025 OVC034 17/14 A3009 RMK AO2 SLP189 T01670144=
202009200320 SPECI KBFI 200320Z 00000KT 10SM BKN009 BKN025 OVC034 17/14 A3009 RMK AO2 T01670144=
202009200300 SPECI KBFI 200300Z 34003KT 10SM FEW016 SCT025 OVC034 17/15 A3007 RMK AO2 T01670150=
202009200253 METAR KBFI 200253Z VRB03KT 10SM FEW021 BKN026 OVC032 17/15 A3007 RMK AO2 RAB11E43 SLP182 P0001 60001 T01670150 53014=
202009200207 SPECI KBFI 200207Z 31008KT 9SM FEW021 BKN026 OVC032 17/15 A3005 RMK AO2 T01720150=
202009200153 METAR KBFI 200153Z 30005KT 10SM BKN040 17/15 A3005 RMK AO2 SLP175 T01720150=
202009200053 METAR KBFI 200053Z 00000KT 10SM OVC040 19/14 A3004 RMK AO2 SLP170 T01890144=
202009192353 METAR KBFI 192353Z 19008KT 10SM FEW034 BKN046 21/12 A3003 RMK AO2 SLP168 T02110122 10228 20172 57006=
202009192253 METAR KBFI 192253Z VRB04KT 10SM FEW034 SCT046 22/13 A3003 RMK AO2 SLP170 T02220128=
202009192153 METAR KBFI 192153Z 19007KT 10SM BKN039 22/14 A3004 RMK AO2 SLP173 T02170139=
202009192053 METAR KBFI 192053Z 21006KT 10SM FEW022 FEW028 OVC035 20/13 A3005 RMK AO2 SLP175 T02000133 50001=
202009191953 METAR KBFI 191953Z VRB04KT 10SM BKN015 OVC028 19/14 A3005 RMK AO2 SLP175 T01940139=
202009191853 METAR KBFI 191853Z 21008KT 10SM BKN014 19/13 A3005 RMK AO2 SLP174 T01890133=
202009191753 METAR KBFI 191753Z 20006KT 10SM BKN012 OVC019 17/14 A3005 RMK AO2 SLP174 T01720139 10172 20161 53011=
202009191734 SPECI KBFI 191734Z VRB03KT 10SM BKN012 BKN021 17/14 A3004 RMK AO2 T01720139=
202009191702 SPECI KBFI 191702Z 19007KT 160V230 10SM OVC007 17/14 A3003 RMK AO2 T01670144=
202009191655 SPECI KBFI 191655Z 21006KT 10SM SCT009 OVC016 17/14 A3003 RMK AO2 T01720144=
202009191653 METAR KBFI 191653Z 19007KT 10SM OVC007 17/14 A3003 RMK AO2 SLP170 T01720144=
202009191622 SPECI KBFI 191622Z 19004KT 5SM BR OVC007 16/14 A3003 RMK AO2 T01610144=
202009191553 METAR KBFI 191553Z 16004KT 10SM OVC011 17/14 A3002 RMK AO2 CIG 009V013 SLP165 T01670139=
202009191453 METAR KBFI 191453Z VRB03KT 10SM OVC012 16/14 A3001 RMK AO2 SLP163 T01610139 53014=
202009191353 METAR KBFI 191353Z VRB03KT 10SM SCT008 OVC011 16/14 A2999 RMK AO2 SLP155 T01610139=
202009191253 METAR KBFI 191253Z VRB03KT 10SM FU OVC010 16/14 A2998 RMK AO2 SLP150 T01610139=
202009191153 METAR KBFI 191153Z AUTO 00000KT 10SM FU OVC010 16/14 A2997 RMK AO2 SLP149 70022 T01610139 10172 20161 53003 TSNO=
202009191053 METAR KBFI 191053Z AUTO 16005KT 10SM FU OVC012 16/14 A2996 RMK AO2 SLP146 T01610139 TSNO=
202009190953 METAR KBFI 190953Z AUTO 19004KT 10SM FU OVC011 16/14 A2997 RMK AO2 SLP148 T01610144=
202009190906 SPECI KBFI 190906Z 18005KT 10SM FU OVC010 17/14 A2996 RMK AO2 T01670139=
202009190853 METAR KBFI 190853Z 17003KT 10SM FU OVC009 17/14 A2996 RMK AO2 SLP146 T01670144 53005=
202009190753 METAR KBFI 190753Z 16007KT 10SM FU OVC009 17/14 A2995 RMK AO2 SLP142 T01670144 402000161=
202009190713 SPECI KBFI 190713Z 19004KT 10SM FU OVC009 17/14 A2995 RMK AO2 T01670144=
202009190653 METAR KBFI 190653Z 20005KT 10SM FU OVC010 17/14 A2995 RMK AO2 SLP142 T01670144=
202009190553 METAR KBFI 190553Z 21005KT 10SM FU OVC010 17/15 A2995 RMK AO2 SLP142 60004 T01720150 10189 20172 51010=
202009190453 METAR KBFI 190453Z 15004KT 8SM FU OVC010 17/16 A2994 RMK AO2 SLP137 T01720156=
202009190353 METAR KBFI 190353Z 14003KT 7SM FU FEW017 BKN050 OVC100 18/16 A2993 RMK AO2 RAE15 SLP136 P0000 T01780156=
202009190324 SPECI KBFI 190324Z 18005KT 7SM FU FEW017 BKN050 OVC100 18/16 A2993 RMK AO2 RAE15 P0000 T01780156=
202009190304 SPECI KBFI 190304Z 14004KT 6SM -RA BR FU FEW013 BKN027 OVC055 18/16 A2992 RMK AO2 P0000 T01780156=
202009190253 METAR KBFI 190253Z VRB03KT 6SM -RA BR FU FEW012 BKN041 OVC075 18/16 A2992 RMK AO2 RAB08 SLP131 P0004 60004 T01780161 53004=
202009190153 METAR KBFI 190153Z 15004KT 6SM BR FU SCT032 BKN043 OVC095 18/16 A2991 RMK AO2 RAB22E31 SLP129 P0000 T01830161=
202009190053 METAR KBFI 190053Z 12006KT 4SM HZ FU FEW030 BKN065 OVC095 19/16 A2991 RMK AO2 SLP127 T01890161=
202009190012 SPECI KBFI 190012Z 11006KT 4SM HZ FU FEW017 SCT026 BKN036 19/16 A2991 RMK AO2 T01890156=
202009182353 METAR KBFI 182353Z 12004KT 2SM BR FU SCT015 BKN020 BKN032 18/16 A2991 RMK AO2 SLP127 60018 T01830161 10200 20178 58001=
202009182329 SPECI KBFI 182329Z 13006KT 2SM BR FU SCT015 BKN020 BKN100 18/16 A2991 RMK AO2 T01830161=
202009182309 SPECI KBFI 182309Z 12007KT 2SM BR FU SCT020 BKN100 18/16 A2991 RMK AO2 T01830161=
202009182253 METAR KBFI 182253Z 13007KT 2SM BR FU SCT013 BKN022 BKN100 18/16 A2991 RMK AO2 RAE20 SLP129 P0002 T01830161=
202009182153 METAR KBFI 182153Z 14006KT 2SM -RA BR FU FEW013 SCT080 OVC095 18/16 A2991 RMK AO2 SLP128 P0005 T01830161=
202009182138 SPECI KBFI 182138Z 14006KT 2SM -RA BR FU SCT013 BKN070 OVC090 18/16 A2991 RMK AO2 P0005 T01830161=
202009182129 SPECI KBFI 182129Z 14005KT 2SM -RA BR FU FEW010 BKN015 OVC095 18/16 A2991 RMK AO2 P0005 T01830161=
202009182108 SPECI KBFI 182108Z 14005KT 2 1/2SM -RA BR FU BKN010 BKN070 OVC090 18/16 A2991 RMK AO2 P0004 T01830161=
202009182059 SPECI KBFI 182059Z 13004KT 3SM -RA BR FU BKN010 BKN070 OVC090 18/16 A2991 RMK AO2 P0002 T01830161=
202009182053 METAR KBFI 182053Z 11005KT 2SM RA BR FU BKN030 OVC090 18/16 A2991 RMK AO2 SLP129 P0011 60011 T01830161 52005=
202009181953 METAR KBFI 181953Z AUTO VRB04KT 2SM -RA FU BKN030 OVC090 19/16 A2991 RMK AO2 RAB46 SLP127 P0000 T01890156 TSNO=
202009181853 METAR KBFI 181853Z 22005KT 2SM HZ FU BKN016 OVC025 20/16 A2990 RMK AO2 SLP125 T02000156=
202009181753 METAR KBFI 181753Z 22005KT 2SM HZ FU BKN022 BKN090 19/16 A2990 RMK AO2 SLP124 T01940156 10200 20161 55001=
202009181653 METAR KBFI 181653Z 13008KT 2SM HZ FU SCT014 BKN022 BKN090 19/16 A2989 RMK AO2 SLP121 T01940156=
202009181553 METAR KBFI 181553Z 14007KT 2SM HZ FU BKN018 OVC095 18/16 A2988 RMK AO2 SLP119 T01830156=
202009181453 METAR KBFI 181453Z 14006KT 2SM BR FU BKN018 OVC095 17/15 A2990 RMK AO2 SLP125 T01720150 53001=
202009181353 METAR KBFI 181353Z 00000KT 2SM BR FU BKN011 BKN100 17/14 A2990 RMK AO2 SLP123 T01670144=
202009181253 METAR KBFI 181253Z 33003KT 4SM BR FU OVC100 17/14 A2989 RMK AO2 SLP122 T01670144=
202009181153 METAR KBFI 181153Z 31003KT 4SM BR FU OVC100 17/15 A2990 RMK AO2 SLP123 7//// T01720150 10178 20161 55005=
202009181053 METAR KBFI 181053Z 25003KT 4SM BR FU BKN100 17/15 A2988 RMK AO2 SLP119 T01670150=
202009180953 METAR KBFI 180953Z 00000KT 4SM HZ FU SCT100 17/14 A2990 RMK AO2 SLP123 T01720144=
202009180853 METAR KBFI 180853Z 14004KT 4SM BR FU BKN100 17/15 A2991 RMK AO2 SLP128 T01720150 58006=
202009180753 METAR KBFI 180753Z 13005KT 4SM BR FU FEW033 FEW100 17/15 A2993 RMK AO2 SLP134 T01720150 402280167=
202009180653 METAR KBFI 180653Z 00000KT 4SM HZ FU BKN040 17/14 A2993 RMK AO2 SLP136 T01720144=
202009180553 METAR KBFI 180553Z 00000KT 4SM HZ FU BKN040 17/14 A2993 RMK AO2 SLP134 T01720144 10206 20172 53005=
202009180453 METAR KBFI 180453Z 00000KT 4SM HZ FU BKN035 18/14 A2991 RMK AO2 SLP126 T01780144=
202009180353 METAR KBFI 180353Z 00000KT 2 1/2SM HZ FU BKN035 17/14 A2991 RMK AO2 SLP129 T01720144=
202009180253 METAR KBFI 180253Z 31004KT 2 1/2SM HZ FU BKN025 19/15 A2991 RMK AO2 SLP128 T01890150 53002=
202009180153 METAR KBFI 180153Z 32003KT 2 1/2SM HZ FU BKN025 19/15 A2990 RMK AO2 SLP125 T01940150=
202009180053 METAR KBFI 180053Z 30005KT 2 1/2SM HZ FU BKN025 20/15 A2991 RMK AO2 SLP127 T02000150=
202009172353 METAR KBFI 172353Z 30007KT 2 1/2SM HZ FU BKN023 21/15 A2990 RMK AO2 SLP126 6//// T02060150 10228 20189 56012=
202009172253 METAR KBFI 172253Z 32005KT 2 1/2SM HZ FU BKN025 22/15 A2991 RMK AO2 SLP128 T02170150=
202009172153 METAR KBFI 172153Z 33008G20KT 2 1/2SM HZ FU BKN025 22/15 A2992 RMK AO2 SLP131 T02220150=
202009172053 METAR KBFI 172053Z VRB04KT 2 1/2SM HZ FU BKN011 22/16 A2994 RMK AO2 SLP137 6//// T02170156 57019=
202009171953 METAR KBFI 171953Z 33004KT 2 1/2SM HZ FU BKN011 OVC020 22/16 A2996 RMK AO2 SLP144 T02170161=
202009171853 METAR KBFI 171853Z 31004KT 2SM HZ FU OVC013 19/16 A2997 RMK AO2 SLP149 T01940161=
202009171753 METAR KBFI 171753Z 00000KT 2SM HZ FU BKN012 19/16 A2999 RMK AO2 SLP156 T01940156 10211 20167 58010 $=
202009171702 SPECI KBFI 171702Z VRB03KT 2SM HZ FU BKN009 BKN017 19/16 A3000 RMK AO2 T01940156=
202009171653 METAR KBFI 171653Z 00000KT 2SM HZ FU SCT009 BKN017 19/16 A3000 RMK AO2 SLP159 T01940156=
202009171649 SPECI KBFI 171649Z VRB03KT 2 1/2SM HZ FU SCT009 BKN017 19/16 A3000 RMK AO2=
202009171553 METAR KBFI 171553Z 00000KT 1 3/4SM BR FU OVC007 18/16 A3001 RMK AO2 CIG 006V009 SLP163 T01780161=
202009171535 SPECI KBFI 171535Z 00000KT 2SM BR FU BKN009 18/16 A3002 RMK AO2 T01780161=
202009171510 SPECI KBFI 171510Z 29003KT 1 3/4SM BR FU SCT007 17/16 A3002 RMK AO2 T01720156=
202009171453 METAR KBFI 171453Z 00000KT 1 1/2SM BR FU OVC007 17/16 A3002 RMK AO2 SLP166 T01720156 55002=
202009171353 METAR KBFI 171353Z 00000KT 1 1/2SM BR FU FEW006 17/15 A3002 RMK AO2 SLP165 T01670150=
202009171253 METAR KBFI 171253Z 00000KT 2 1/2SM BR FU CLR 17/14 A3002 RMK AO2 SLP165 T01670144=
202009171153 METAR KBFI 171153Z 00000KT 3SM BR FU SCT022 BKN050 17/15 A3003 RMK AO2 SLP168 T01720150 10194 20167 58004=
202009171053 METAR KBFI 171053Z 00000KT 3SM BR FU BKN022 BKN050 18/16 A3003 RMK AO2 SLP169 T01780156=
202009170953 METAR KBFI 170953Z 00000KT 3SM BR FU FEW020 BKN050 17/16 A3004 RMK AO2 SLP171 T01720156=
202009170853 METAR KBFI 170853Z 00000KT 3SM BR FU FEW020 BKN050 17/15 A3004 RMK AO2 SLP172 T01720150 53003=
202009170753 METAR KBFI 170753Z 00000KT 3SM BR FU BKN050 18/16 A3004 RMK AO2 SLP171 T01780156 402220156=
202009170653 METAR KBFI 170653Z 14006KT 3SM HZ FU BKN050 18/16 A3003 RMK AO2 SLP170 T01830156=
202009170553 METAR KBFI 170553Z 15007KT 3SM HZ FU BKN050 19/16 A3003 RMK AO2 SLP170 T01890156 10222 20183 50008=
202009170453 METAR KBFI 170453Z 16006KT 2 1/2SM HZ FU BKN050 19/16 A3003 RMK AO2 SLP170 T01890156=
202009170353 METAR KBFI 170353Z 14004KT 1 1/2SM HZ FU BKN046 19/16 A3002 RMK AO2 SLP166 T01940156=
202009170253 METAR KBFI 170253Z 00000KT 1 1/2SM HZ FU OVC041 19/15 A3001 RMK AO2 SLP162 T01940150 53005=
202009170153 METAR KBFI 170153Z 19003KT 1 3/4SM HZ FU OVC036 21/15 A3000 RMK AO2 SLP158 T02060150=
202009170053 METAR KBFI 170053Z 24004KT 1 3/4SM HZ FU OVC030 21/15 A3000 RMK AO2 SLP157 T02110150=
202009162353 METAR KBFI 162353Z 00000KT 1 1/2SM HZ FU OVC030 22/15 A3000 RMK AO2 SLP157 T02220150 10222 20183 53001=
202009162253 METAR KBFI 162253Z 28004KT 1 1/2SM HZ FU OVC030 22/16 A3000 RMK AO2 SLP157 T02170156=
202009162153 METAR KBFI 162153Z VRB03KT 2SM HZ FU OVC030 21/15 A2999 RMK AO2 SLP156 T02110150=
202009162053 METAR KBFI 162053Z 32004KT 1 3/4SM HZ FU CLR 21/15 A2999 RMK AO2 SLP156 T02060150 56010=
202009161953 METAR KBFI 161953Z 33003KT 1 3/4SM HZ FU BKN040 21/15 A3000 RMK AO2 SLP159 T02060150=
202009161853 METAR KBFI 161853Z AUTO 30004KT 1 3/4SM HZ FU CLR 19/14 A3001 RMK AO2 SLP162 T01890144=
202009161753 METAR KBFI 161753Z VRB04KT 1 1/2SM HZ FU OVC025 18/14 A3002 RMK AO2 SLP166 T01830144 10183 20156 56005=
202009161653 METAR KBFI 161653Z 31003KT 1 1/2SM HZ FU OVC025 18/14 A3003 RMK AO2 SLP167 T01780139=
202009161557 SPECI KBFI 161557Z 31003KT 1 1/4SM HZ FU OVC025 17/14 A3003 RMK AO2 T01670139=
202009161553 METAR KBFI 161553Z 30003KT 2SM HZ FU OVC025 17/14 A3003 RMK AO2 SLP169 T01670139=
202009161453 METAR KBFI 161453Z 00000KT 2SM HZ FU OVC025 17/14 A3004 RMK AO2 SLP171 T01670139 53002=
202009161353 METAR KBFI 161353Z 00000KT 2SM BR FU OVC025 16/14 A3004 RMK AO2 SLP170 T01610139=
202009161253 METAR KBFI 161253Z 00000KT 2SM BR FU OVC025 16/14 A3002 RMK AO2 SLP165 T01610139=
202009161153 METAR KBFI 161153Z 30003KT 2SM BR FU OVC025 16/14 A3003 RMK AO2 SLP169 T01610139 10194 20161 58007=
202009161053 METAR KBFI 161053Z 00000KT 1 1/2SM BR FU OVC025 17/14 A3004 RMK AO2 SLP172 T01670144=
202009160953 METAR KBFI 160953Z 00000KT 1 1/2SM HZ FU OVC025 17/14 A3005 RMK AO2 SLP174 T01720144=
202009160853 METAR KBFI 160853Z 00000KT 1 1/2SM HZ FU OVC025 17/14 A3005 RMK AO2 SLP176 T01720144 55001=
202009160800 SPECI KBFI 160800Z 32005KT 1 3/4SM HZ FU OVC030 18/14 A3004 RMK AO2 T01780144=
202009160753 METAR KBFI 160753Z 35005KT 1 3/4SM HZ FU OVC025 18/15 A3004 RMK AO2 SLP173 T01780150 402560161=
202009160653 METAR KBFI 160653Z VRB03KT 1 3/4SM HZ FU CLR 19/16 A3006 RMK AO2 SLP178 T01940161=
202009160553 METAR KBFI 160553Z 26004KT 1 3/4SM HZ FU CLR 19/16 A3005 RMK AO2 SLP177 60000 T01940161 10244 20183 50000=
202009160453 METAR KBFI 160453Z 27004KT 1 3/4SM HZ FU FEW032 SCT085 19/16 A3008 RMK AO2 RAE09 SLP186 P0000 T01890161=
202009160428 SPECI KBFI 160428Z 00000KT 1 3/4SM HZ FU FEW033 18/16 A3009 RMK AO2 RAE09 P0000 T01830156=
202009160400 SPECI KBFI 160400Z 00000KT 2SM -RA FU FEW046 SCT070 BKN090 19/16 A3008 RMK AO2 P0000 T01940156=
202009160353 METAR KBFI 160353Z 32004KT 1 1/2SM -RA FU FEW075 SCT090 21/15 A3007 RMK AO2 RAB51 SLP183 P0000 T02060150=
202009160253 METAR KBFI 160253Z 00000KT 1 1/2SM HZ FU OVC110 22/15 A3005 RMK AO2 SLP176 T02170150 53009=
202009160153 METAR KBFI 160153Z 00000KT 1 1/4SM HZ FU CLR 22/14 A3004 RMK AO2 SLP172 T02170144=
202009160053 METAR KBFI 160053Z VRB04KT 1 3/4SM HZ FU OVC110 22/14 A3003 RMK AO2 SLP169 T02170139=
202009152353 METAR KBFI 152353Z 32003KT 1 1/4SM HZ FU SCT110 24/14 A3003 RMK AO2 SLP167 60000 T02440139 10256 20211 55015=
202009152253 METAR KBFI 152253Z 32005KT 1 1/4SM HZ FU BKN110 24/14 A3002 RMK AO2 SLP167 T02440139=
202009152153 METAR KBFI 152153Z 30005KT 1 1/4SM HZ FU CLR 24/14 A3005 RMK AO2 SLP176 T02440144=
202009152053 METAR KBFI 152053Z 27004KT 1 1/4SM HZ FU CLR 24/15 A3007 RMK AO2 SLP182 60000 T02390150 58013=
202009151953 METAR KBFI 151953Z 30005KT 1 1/4SM HZ FU SCT090 22/15 A3009 RMK AO2 RAE1856 SLP188 P0000 T02220150=
202009151853 METAR KBFI 151853Z 31005KT 1SM -RA FU BKN075 OVC090 22/16 A3010 RMK AO2 RAB45 SLP192 P0000 T02170156=
202009151753 METAR KBFI 151753Z 00000KT 1SM HZ FU SCT048 BKN060 21/16 A3011 RMK AO2 SLP195 T02060156 10211 20167 52005=
202009151653 METAR KBFI 151653Z 00000KT 1SM HZ FU FEW080 20/16 A3010 RMK AO2 SLP193 T02000156=
202009151553 METAR KBFI 151553Z 13003KT 1SM HZ FU SCT048 SCT055 18/16 A3010 RMK AO2 SLP192 T01830156=
202009151453 METAR KBFI 151453Z 14004KT 3/4SM BR FU BKN043 OVC055 17/16 A3009 RMK AO2 SLP190 T01720156 53008=
202009151419 SPECI KBFI 151419Z 14004KT 3/4SM BR FU FEW030 SCT050 17/16 A3009 RMK AO2 T01720156=
202009151410 SPECI KBFI 151410Z 16004KT 3/4SM BR FU SCT048 SCT060 17/15 A3009 RMK AO2 T01720150=
202009151353 METAR KBFI 151353Z 14004KT 1 1/2SM BR FU SCT033 OVC055 17/16 A3008 RMK AO2 SLP185 T01720156=
202009151253 METAR KBFI 151253Z 15005KT 1 1/4SM BR FU SCT033 OVC055 17/17 A3008 RMK AO2 SLP185 T01720167=
202009151153 METAR KBFI 151153Z 00000KT 1 1/4SM BR FU BKN038 OVC055 17/17 A3007 RMK AO2 SLP182 60005 70005 T01670167 10167 20156 51012=
202009151053 METAR KBFI 151053Z 00000KT 1 1/4SM BR FU BKN023 OVC065 16/16 A3006 RMK AO2 SLP180 T01610161=
202009150953 METAR KBFI 150953Z 00000KT 1 1/4SM BR FU OVC023 17/16 A3005 RMK AO2 RAB13E24 SLP174 P0000 T01670161=
202009150853 METAR KBFI 150853Z 00000KT 1 1/4SM BR FU BKN026 OVC075 16/16 A3003 RMK AO2 RAE0759 SLP170 P0000 60005 T01610161 51001=
202009150753 METAR KBFI 150753Z 00000KT 1 1/2SM -RA BR FU BKN035 OVC075 16/14 A3003 RMK AO2 RAB02 SLP169 P0005 T01610139 402110144=
202009150653 METAR KBFI 150653Z 00000KT 1 3/4SM HZ FU BKN031 OVC075 17/13 A3003 RMK AO2 RAB39E53 SLP170 P0000 T01670128=
202009150648 SPECI KBFI 150648Z 00000KT 1 3/4SM -RA FU OVC033 17/13 A3003 RMK AO2 RAB39 P0000=
202009150553 METAR KBFI 150553Z 33003KT 1 3/4SM HZ FU OVC029 17/13 A3003 RMK AO2 RAB37E50 SLP168 P0000 60000 T01670128 10206 20161 50017=
202009150550 SPECI KBFI 150550Z VRB04KT 1 3/4SM HZ FU OVC029 17/13 A3003 RMK AO2 RAB37E50 P0000=
202009150543 SPECI KBFI 150543Z 31005KT 1 3/4SM -RA FU OVC031 17/13 A3003 RMK AO2 RAB37 P0000 T01670128=
202009150453 METAR KBFI 150453Z 30004KT 1 3/4SM HZ FU OVC027 17/13 A3001 RMK AO2 SLP161 T01720128=
202009150353 METAR KBFI 150353Z 31004KT 1 3/4SM HZ FU OVC028 18/13 A2998 RMK AO2 SLP150 T01780128=
202009150253 METAR KBFI 150253Z 32003KT 1 3/4SM HZ FU OVC027 18/13 A2995 RMK AO2 SLP143 T01780128 53007=
202009150153 METAR KBFI 150153Z 35004KT 1SM HZ FU OVC024 20/13 A2994 RMK AO2 SLP138 T02000128=
202009150053 METAR KBFI 150053Z 29003KT 1SM HZ FU OVC022 21/13 A2993 RMK AO2 SLP135 T02060128=
202009142353 METAR KBFI 142353Z 00000KT 1SM HZ FU OVC021 21/13 A2993 RMK AO2 SLP135 T02060133 10211 20172 53001=
202009142253 METAR KBFI 142253Z 31003KT 1SM HZ FU OVC021 21/13 A2992 RMK AO2 SLP132 T02060133=
202009142153 METAR KBFI 142153Z 30007KT 1SM HZ FU OVC021 20/13 A2992 RMK AO2 SLP130 T02000133=
202009142053 METAR KBFI 142053Z 30006KT 1SM HZ FU VV020 19/13 A2993 RMK AO2 SLP134 T01890133 56012=
202009141953 METAR KBFI 141953Z 32004KT 1SM HZ FU OVC021 19/13 A2994 RMK AO2 SLP137 T01890128=
202009141853 METAR KBFI 141853Z 00000KT 1SM HZ FU VV020 19/13 A2995 RMK AO2 SLP141 T01940133=
202009141753 METAR KBFI 141753Z VRB03KT 1SM HZ FU VV019 17/13 A2996 RMK AO2 SLP146 T01720128 10172 20144 53008=
202009141653 METAR KBFI 141653Z 28003KT 1SM HZ FU VV019 16/12 A2996 RMK AO2 SLP143 T01610122=
202009141553 METAR KBFI 141553Z 00000KT 1SM HZ FU OVC021 16/12 A2995 RMK AO2 SLP141 T01560122=
202009141453 METAR KBFI 141453Z 00000KT 1SM HZ FU OVC023 16/12 A2994 RMK AO2 SLP138 T01560122 56004=
202009141353 METAR KBFI 141353Z 00000KT 1 3/4SM HZ FU BKN028 OVC036 15/12 A2995 RMK AO2 SLP142 T01500122=
202009141253 METAR KBFI 141253Z 00000KT 1 3/4SM HZ FU BKN028 OVC036 15/12 A2993 RMK AO2 SLP136 T01500122=
202009141153 METAR KBFI 141153Z AUTO 00000KT 1 3/4SM BR FU OVC025 14/12 A2995 RMK AO2 SLP142 T01440122 10156 20144 50004 TSNO=
202009141053 METAR KBFI 141053Z AUTO 00000KT 1 3/4SM HZ FU OVC024 15/12 A2995 RMK AO2 SLP143 T01500122 TSNO=
202009140953 METAR KBFI 140953Z 31003KT 1 3/4SM HZ FU OVC024 15/12 A2994 RMK AO2 SLP139 T01500122=
202009140853 METAR KBFI 140853Z 00000KT 1 3/4SM HZ FU OVC024 15/12 A2994 RMK AO2 SLP138 T01500122 51005=
202009140753 METAR KBFI 140753Z 00000KT 1 3/4SM HZ FU OVC024 15/12 A2993 RMK AO2 SLP136 T01500122 401830100=
202009140653 METAR KBFI 140653Z 00000KT 1 3/4SM HZ FU OVC024 15/12 A2995 RMK AO2 SLP141 T01500117=
202009140553 METAR KBFI 140553Z 00000KT 1 3/4SM HZ FU OVC025 16/12 A2992 RMK AO2 SLP133 T01560117 10183 20150 51013=
202009140453 METAR KBFI 140453Z 00000KT 1 3/4SM HZ FU OVC024 16/12 A2990 RMK AO2 SLP126 T01560117=
202009140353 METAR KBFI 140353Z 00000KT 1 3/4SM HZ FU OVC025 16/12 A2991 RMK AO2 SLP128 T01560117=
202009140253 METAR KBFI 140253Z 00000KT 1 3/4SM HZ FU OVC025 16/12 A2989 RMK AO2 SLP120 T01610117 53003=
202009140153 METAR KBFI 140153Z 31003KT 1SM HZ FU OVC023 17/12 A2988 RMK AO2 SLP117 T01720122=
202009140053 METAR KBFI 140053Z VRB03KT 1SM HZ FU OVC023 18/12 A2988 RMK AO2 SLP118 T01780117=
202009132353 METAR KBFI 132353Z 31004KT 1 1/4SM HZ FU OVC023 17/12 A2988 RMK AO2 SLP117 T01720117 10178 20144 56012=
202009132253 METAR KBFI 132253Z 32004KT 1 1/4SM HZ FU OVC023 17/12 A2989 RMK AO2 SLP121 T01720122=
202009132153 METAR KBFI 132153Z VRB03KT 1 1/4SM HZ FU OVC024 18/12 A2990 RMK AO2 SLP123 T01780117=
202009132053 METAR KBFI 132053Z 32004KT 1 1/4SM HZ FU BKN024 OVC031 17/12 A2991 RMK AO2 SLP128 T01720117 56013=
202009131953 METAR KBFI 131953Z 34003KT 1 1/4SM HZ FU OVC025 17/12 A2992 RMK AO2 SLP132 T01670117=
202009131853 METAR KBFI 131853Z 00000KT 1 1/4SM HZ FU OVC026 17/11 A2993 RMK AO2 SLP136 T01670111=
202009131753 METAR KBFI 131753Z 00000KT 1 1/4SM HZ FU OVC027 15/11 A2995 RMK AO2 SLP141 T01500111 10150 20100 58004=
202009131653 METAR KBFI 131653Z 00000KT 1 1/4SM BR FU BKN025 OVC030 13/11 A2996 RMK AO2 SLP144 T01280106=
202009131553 METAR KBFI 131553Z 00000KT 1 1/4SM BR FU OVC025 12/10 A2996 RMK AO2 SLP145 T01170100=
202009131453 METAR KBFI 131453Z 00000KT 1 1/4SM BR FU OVC026 11/09 A2996 RMK AO2 SLP145 T01060089 53002=
202009131353 METAR KBFI 131353Z 00000KT 1 3/4SM BR FU SCT005 OVC028 11/09 A2996 RMK AO2 SLP144 T01060089=
202009131253 METAR KBFI 131253Z 00000KT 1 1/4SM BR FU FEW005 OVC030 11/09 A2995 RMK AO2 SLP142 T01060094=
202009131206 SPECI KBFI 131206Z 00000KT 1 3/4SM BR FU FEW005 OVC031 11/09 A2995 RMK AO2 T01110094=
202009131153 METAR KBFI 131153Z 00000KT 1 3/4SM BR FU OVC031 11/09 A2995 RMK AO2 SLP143 T01110094 10128 20111 58001=
202009131053 METAR KBFI 131053Z 00000KT 1 3/4SM BR FU OVC029 12/10 A2996 RMK AO2 SLP144 T01170100=
202009130953 METAR KBFI 130953Z 13003KT 1 3/4SM BR FU OVC029 12/11 A2996 RMK AO2 SLP145 T01220106=
202009130853 METAR KBFI 130853Z 15004KT 1 3/4SM BR FU OVC029 12/10 A2996 RMK AO2 SLP144 T01170100 53000=
202009130753 METAR KBFI 130753Z 14005KT 1 1/2SM BR FU OVC029 12/10 A2996 RMK AO2 SLP144 T01220100 401670117=
202009130653 METAR KBFI 130653Z 00000KT 1 1/2SM BR FU OVC029 12/10 A2996 RMK AO2 SLP143 T01220100=
202009130553 METAR KBFI 130553Z 00000KT 1 1/2SM BR FU OVC029 12/10 A2996 RMK AO2 SLP144 T01220100 10161 20122 51003=
202009130453 METAR KBFI 130453Z 00000KT 1 1/2SM BR FU OVC028 13/11 A2996 RMK AO2 SLP143 T01280106=
202009130353 METAR KBFI 130353Z 00000KT 1 1/2SM HZ FU OVC028 14/11 A2996 RMK AO2 SLP143 T01390106=
202009130253 METAR KBFI 130253Z 00000KT 1 1/2SM HZ FU OVC028 14/11 A2995 RMK AO2 SLP141 T01440106 56001=
202009130153 METAR KBFI 130153Z 31003KT 1 1/4SM HZ FU OVC027 15/11 A2995 RMK AO2 SLP140 T01500111=
202009130053 METAR KBFI 130053Z 32003KT 1 1/4SM HZ FU OVC026 16/11 A2995 RMK AO2 SLP140 T01560111=
202009122353 METAR KBFI 122353Z 00000KT 1 1/4SM HZ FU OVC027 16/11 A2995 RMK AO2 SLP142 T01610111 10167 20128 56016=
202009122300 SPECI KBFI 122300Z 33005KT 1 1/4SM HZ FU OVC027 16/11 A2996 RMK AO2 T01610111=
202009122253 METAR KBFI 122253Z 30004KT 1 1/4SM HZ FU OVC011 16/11 A2996 RMK AO2 SLP145 T01610111=
202009122153 METAR KBFI 122153Z 00000KT 1 1/4SM HZ FU OVC011 16/11 A2998 RMK AO2 SLP151 T01610111=
202009122053 METAR KBFI 122053Z 00000KT 1 1/4SM HZ FU OVC011 15/11 A3000 RMK AO2 SLP157 T01500111 58013=
202009121953 METAR KBFI 121953Z 00000KT 1 1/4SM HZ FU OVC011 14/11 A3001 RMK AO2 SLP161 T01440111=
202009121853 METAR KBFI 121853Z 00000KT 1 1/4SM HZ FU OVC009 14/11 A3003 RMK AO2 SLP167 T01390111=
202009121753 METAR KBFI 121753Z 23003KT 1 1/4SM BR FU OVC008 13/11 A3004 RMK AO2 SLP170 T01280106 10133 20117 58001=
202009121653 METAR KBFI 121653Z 00000KT 1 1/4SM BR FU OVC008 13/11 A3004 RMK AO2 SLP173 T01280106=
202009121602 SPECI KBFI 121602Z 24003KT 1 1/4SM BR FU OVC009 13/11 A3004 RMK AO2 T01280106=
202009121555 SPECI KBFI 121555Z 00000KT 1 1/4SM BR FU OVC008 13/11 A3004 RMK AO2 T01280106=
202009121553 METAR KBFI 121553Z 20003KT 1 1/4SM BR FU SCT009 OVC026 13/11 A3004 RMK AO2 SLP172 T01280111=
202009121453 METAR KBFI 121453Z 00000KT 1 1/4SM BR FU SCT009 OVC026 13/11 A3004 RMK AO2 SLP172 T01280106 51005=
202009121353 METAR KBFI 121353Z 17004KT 1 1/4SM BR FU FEW009 OVC028 12/11 A3004 RMK AO2 SLP171 T01220106=
202009121343 SPECI KBFI 121343Z 17006KT 1 3/4SM BR FU FEW010 OVC029 12/11 A3004 RMK AO2 T01220106=
202009121253 METAR KBFI 121253Z 15006KT 2SM BR FU OVC032 13/11 A3003 RMK AO2 SLP168 T01280106=
202009121153 METAR KBFI 121153Z 00000KT 2SM HZ FU OVC035 13/11 A3002 RMK AO2 SLP167 T01330106 10178 20133 51002=
202009121053 METAR KBFI 121053Z 26003KT 2SM HZ FU OVC035 14/11 A3002 RMK AO2 SLP166 T01390106=
202009120953 METAR KBFI 120953Z 24003KT 2SM HZ FU OVC034 15/11 A3002 RMK AO2 SLP166 T01500106=
202009120853 METAR KBFI 120853Z AUTO 00000KT 2SM HZ FU OVC032 15/11 A3002 RMK AO2 SLP165 T01500106 51003 TSNO=
202009120753 METAR KBFI 120753Z 17004KT 2SM HZ FU OVC033 15/10 A3002 RMK AO2 SLP164 T01500100 402500133=
202009120653 METAR KBFI 120653Z 17004KT 2SM HZ FU OVC034 17/10 A3001 RMK AO2 SLP163 T01670100=
202009120553 METAR KBFI 120553Z 19003KT 2SM HZ FU OVC033 17/10 A3001 RMK AO2 SLP161 T01720100 10244 20172 51012=
202009120534 SPECI KBFI 120534Z 19005KT 2SM HZ FU OVC032 18/10 A3001 RMK AO2 T01780100=
202009120453 METAR KBFI 120453Z 18005KT 1 3/4SM HZ FU OVC032 18/10 A3000 RMK AO2 SLP158 T01830100=
202009120417 SPECI KBFI 120417Z 18004KT 1 3/4SM HZ FU OVC032 19/10 A3000 RMK AO2 T01940100=
202009120353 METAR KBFI 120353Z 20004KT 2SM HZ FU OVC031 20/10 A2999 RMK AO2 SLP157 T02000100=
202009120253 METAR KBFI 120253Z VRB03KT 2 1/2SM HZ FU BKN033 22/10 A2997 RMK AO2 SLP150 T02170100 55002=
202009120153 METAR KBFI 120153Z 18004KT 1 1/2SM HZ FU SCT031 23/09 A2997 RMK AO2 SLP148 T02280094=
202009120132 SPECI KBFI 120132Z 00000KT 1 1/2SM HZ FU BKN030 23/10 A2997 RMK AO2 T02330100=
202009120053 METAR KBFI 120053Z 00000KT 1 1/4SM HZ FU OVC028 24/09 A2997 RMK AO2 SLP148 T02390094=
202009112353 METAR KBFI 112353Z 32003KT 1 1/4SM HZ FU OVC027 24/09 A2998 RMK AO2 SLP152 T02440094 10250 20183 56016=
202009112253 METAR KBFI 112253Z VRB04KT 1 1/2SM HZ FU OVC027 24/08 A3000 RMK AO2 SLP157 T02390083=
202009112153 METAR KBFI 112153Z 23004KT 1 1/4SM HZ FU OVC026 24/08 A3001 RMK AO2 SLP162 T02390078=
202009112053 METAR KBFI 112053Z VRB03KT 1SM HZ FU OVC024 23/09 A3003 RMK AO2 SLP168 T02280094 58015=
202009111953 METAR KBFI 111953Z VRB04KT 1SM HZ FU OVC025 21/09 A3004 RMK AO2 SLP173 T02110094=
202009111853 METAR KBFI 111853Z 22004KT 1SM HZ FU OVC027 21/11 A3006 RMK AO2 SLP179 T02060106=
202009111753 METAR KBFI 111753Z 17004KT 1 1/4SM HZ FU SCT031 18/11 A3007 RMK AO2 SLP183 T01830106 10183 20133 58002=
202009111653 METAR KBFI 111653Z 15003KT 1 3/4SM HZ FU CLR 17/11 A3008 RMK AO2 SLP186 T01670111=
202009111553 METAR KBFI 111553Z 18003KT 1 3/4SM HZ FU CLR 15/11 A3009 RMK AO2 SLP187 T01500111=
202009111453 METAR KBFI 111453Z 15005KT 2SM HZ FU CLR 14/11 A3008 RMK AO2 SLP186 T01440111 53010=
202009111353 METAR KBFI 111353Z 15006KT 2SM HZ FU CLR 13/11 A3006 RMK AO2 SLP180 T01330106=
202009111340 SPECI KBFI 111340Z 16007KT 2 1/2SM HZ FU CLR 13/11 A3006 RMK AO2 T01330106=
202009111253 METAR KBFI 111253Z 15007KT 4SM HZ FU CLR 14/11 A3006 RMK AO2 SLP178 T01390106=
202009111153 METAR KBFI 111153Z 17005KT 4SM HZ FU CLR 14/11 A3005 RMK AO2 SLP176 T01440111 10206 20144 51011=
202009111053 METAR KBFI 111053Z 17007KT 4SM HZ FU CLR 15/11 A3005 RMK AO2 SLP174 T01500111=
202009110953 METAR KBFI 110953Z 16008KT 4SM HZ FU CLR 16/11 A3004 RMK AO2 SLP172 T01560111=
202009110853 METAR KBFI 110853Z 16007KT 4SM HZ FU CLR 17/12 A3002 RMK AO2 SLP165 T01720117 53023=
202009110753 METAR KBFI 110753Z 15007KT 5SM HZ FU CLR 18/11 A3000 RMK AO2 SLP157 T01830111 403170150=
202009110653 METAR KBFI 110653Z 00000KT 7SM FU CLR 19/09 A2997 RMK AO2 SLP148 T01890094=
202009110553 METAR KBFI 110553Z 00000KT 7SM FU CLR 20/10 A2995 RMK AO2 SLP142 T02000100 10306 20200 51016=
202009110453 METAR KBFI 110453Z 00000KT 7SM FU CLR 22/09 A2994 RMK AO2 SLP136 T02220089=
202009110353 METAR KBFI 110353Z 00000KT 7SM FU CLR 24/08 A2992 RMK AO2 SLP132 T02390078=
202009110253 METAR KBFI 110253Z 00000KT 7SM FU SCT250 26/08 A2990 RMK AO2 SLP126 T02560078 55000=
202009110153 METAR KBFI 110153Z VRB04KT 7SM FU CLR 28/08 A2990 RMK AO2 SLP124 T02830078=
202009110053 METAR KBFI 110053Z 31004KT 7SM FU CLR 29/09 A2990 RMK AO2 SLP125 T02940089=
202009102353 METAR KBFI 102353Z 30007KT 7SM FU CLR 31/08 A2990 RMK AO2 SLP126 T03060078 10317 20239 56014=
202009102253 METAR KBFI 102253Z 31007KT 8SM FU CLR 32/06 A2991 RMK AO2 SLP129 T03170061=
202009102153 METAR KBFI 102153Z 31006KT 10SM FU CLR 31/06 A2993 RMK AO2 SLP135 T03110061=
202009102053 METAR KBFI 102053Z VRB06KT 7SM FU CLR 31/06 A2994 RMK AO2 SLP140 T03060061 56016=
202009101953 METAR KBFI 101953Z 33004KT 8SM FU CLR 29/09 A2996 RMK AO2 SLP144 T02890094=
202009101853 METAR KBFI 101853Z 32005KT 7SM FU CLR 27/10 A2997 RMK AO2 SLP148 T02670100=
202009101753 METAR KBFI 101753Z 30003KT 9SM FU CLR 24/11 A2999 RMK AO2 SLP156 T02390106 10239 20150 50001=
202009101653 METAR KBFI 101653Z 32004KT 6SM HZ FU CLR 22/09 A3000 RMK AO2 SLP157 T02170094=
202009101553 METAR KBFI 101553Z 32004KT 9SM FU CLR 20/11 A3000 RMK AO2 SLP158 T02000111=
202009101453 METAR KBFI 101453Z 00000KT 7SM FU CLR 17/11 A2999 RMK AO2 SLP155 T01720106 53010=
202009101353 METAR KBFI 101353Z 00000KT 10SM FU CLR 16/10 A2998 RMK AO2 SLP151 T01560100=
202009101253 METAR KBFI 101253Z 00000KT 10SM FU CLR 16/10 A2997 RMK AO2 SLP148 T01610100=
202009101153 METAR KBFI 101153Z 00000KT 10SM FU CLR 16/09 A2996 RMK AO2 SLP146 T01610094 10217 20161 50003=
202009101053 METAR KBFI 101053Z 00000KT 10SM FU CLR 17/09 A2996 RMK AO2 SLP146 T01720094=
202009100953 METAR KBFI 100953Z 00000KT 10SM FU CLR 19/10 A2996 RMK AO2 SLP144 T01890100=
202009100853 METAR KBFI 100853Z 34003KT 10SM FU CLR 19/10 A2995 RMK AO2 SLP142 T01940100 50001=
202009100753 METAR KBFI 100753Z 00000KT 10SM FU CLR 19/10 A2995 RMK AO2 SLP143 T01940100 403220144=
202009100653 METAR KBFI 100653Z 00000KT 10SM FU CLR 20/10 A2995 RMK AO2 SLP143 T02000100=
202009100553 METAR KBFI 100553Z 34003KT 10SM FU CLR 22/09 A2995 RMK AO2 SLP142 T02170094 10311 20217 51008=
202009100453 METAR KBFI 100453Z 00000KT 10SM FU CLR 23/09 A2994 RMK AO2 SLP140 T02280089=
202009100353 METAR KBFI 100353Z 30004KT 7SM FU CLR 23/09 A2994 RMK AO2 SLP140 T02330089=
202009100253 METAR KBFI 100253Z 00000KT 7SM FU CLR 27/07 A2993 RMK AO2 SLP133 T02720072 55000=
202009100153 METAR KBFI 100153Z VRB04KT 7SM FU CLR 29/06 A2992 RMK AO2 SLP130 T02940061=
202009100053 METAR KBFI 100053Z VRB04KT 7SM FU CLR 30/07 A2992 RMK AO2 SLP132 T03000072=
202009092353 METAR KBFI 092353Z VRB06KT 7SM FU CLR 30/07 A2993 RMK AO2 SLP134 T03000072 10322 20233 56016=
202009092253 METAR KBFI 092253Z 33008KT 290V350 7SM FU CLR 32/06 A2993 RMK AO2 SLP135 T03220056=
202009092153 METAR KBFI 092153Z 32009G15KT 10SM FU CLR 31/06 A2995 RMK AO2 SLP141 T03060056=
202009092053 METAR KBFI 092053Z 31007KT 9SM FU CLR 30/05 A2997 RMK AO2 SLP149 T03000050 58024=
202009091953 METAR KBFI 091953Z 31008KT 6SM HZ FU CLR 27/07 A3000 RMK AO2 SLP157 T02720072=
202009091853 METAR KBFI 091853Z 31007KT 8SM FU CLR 24/07 A3002 RMK AO2 SLP166 T02440072=
202009091753 METAR KBFI 091753Z 31005KT 8SM FU CLR 23/07 A3004 RMK AO2 SLP173 T02330067 10233 20144 58006=
202009091653 METAR KBFI 091653Z 29005KT 7SM FU CLR 22/07 A3006 RMK AO2 SLP177 T02170072=
202009091553 METAR KBFI 091553Z 33003KT 7SM FU CLR 20/07 A3006 RMK AO2 SLP177 T02000067=
202009091453 METAR KBFI 091453Z 00000KT 6SM HZ FU CLR 17/08 A3006 RMK AO2 SLP179 T01670078 53004=
202009091353 METAR KBFI 091353Z 00000KT 7SM FU CLR 15/07 A3006 RMK AO2 SLP178 T01500072=
202009091253 METAR KBFI 091253Z 32003KT 9SM FU CLR 14/06 A3005 RMK AO2 SLP175 T01440056=
202009091153 METAR KBFI 091153Z 00000KT 9SM FU CLR 16/05 A3005 RMK AO2 SLP175 T01560050 10206 20150 58007=
202009091053 METAR KBFI 091053Z 00000KT 10SM FU CLR 16/05 A3006 RMK AO2 SLP178 T01610050=
202009090953 METAR KBFI 090953Z 9SM FU CLR 17/05 A3007 RMK AO2 SLP181 T01670050=
202009090853 METAR KBFI 090853Z 00000KT 10SM FU CLR 17/06 A3007 RMK AO2 SLP182 T01670056 57005=
202009090753 METAR KBFI 090753Z 29003KT 9SM FU CLR 18/05 A3007 RMK AO2 SLP183 T01780050 402780178=
202009090653 METAR KBFI 090653Z 00000KT 10SM FU CLR 19/06 A3008 RMK AO2 SLP186 T01940056=
202009090553 METAR KBFI 090553Z 36004KT 10SM FU CLR 21/06 A3008 RMK AO2 SLP187 T02060061 10278 20200 58003=
202009090453 METAR KBFI 090453Z 00000KT 9SM FU CLR 21/07 A3009 RMK AO2 SLP189 T02110072=
202009090353 METAR KBFI 090353Z VRB03KT 8SM FU CLR 22/04 A3009 RMK AO2 SLP190 T02170044=
202009090253 METAR KBFI 090253Z 00000KT 6SM HZ FU CLR 22/02 A3009 RMK AO2 SLP190 T02220022 56005=
202009090153 METAR KBFI 090153Z VRB04KT 7SM FU CLR 26/00 A3009 RMK AO2 SLP190 T02560000=
202009090053 METAR KBFI 090053Z VRB05KT 6SM HZ FU CLR 27/M01 A3010 RMK AO2 SLP194 T02671006=
202009082353 METAR KBFI 082353Z VRB06KT 9SM FU CLR 27/M01 A3011 RMK AO2 SLP194 T02721011 10278 20228 56029=
202009082253 METAR KBFI 082253Z VRB06KT 7SM FU CLR 28/M02 A3013 RMK AO2 SLP203 T02781017=
202009082153 METAR KBFI 082153Z 32007KT 10SM FU CLR 27/M02 A3016 RMK AO2 SLP213 T02671022=
202009082053 METAR KBFI 082053Z VRB05KT 10SM FU CLR 26/M03 A3019 RMK AO2 SLP224 T02611028 58030=
202009081953 METAR KBFI 081953Z VRB05KT 7SM FU CLR 25/M03 A3022 RMK AO2 SLP234 T02501033=
202009081853 METAR KBFI 081853Z VRB04KT 10SM FU CLR 24/M03 A3026 RMK AO2 SLP245 T02391033=
202009081753 METAR KBFI 081753Z 07006KT 10SM FU CLR 23/M02 A3028 RMK AO2 SLP254 T02281017 10228 20183 58017=
202009081653 METAR KBFI 081653Z 00000KT 10SM FU CLR 21/M01 A3030 RMK AO2 SLP261 T02111011=
202009081553 METAR KBFI 081553Z 08005KT 10SM FU FEW200 20/M03 A3032 RMK AO2 SLP266 T02001028=
202009081453 METAR KBFI 081453Z 09007KT 10SM FU SCT200 19/M04 A3033 RMK AO2 SLP271 T01941044 53002=
202009081353 METAR KBFI 081353Z 09006KT 10SM FU CLR 19/M06 A3033 RMK AO2 SLP269 T01891056=
202009081253 METAR KBFI 081253Z 06003KT 10SM FU CLR 19/M06 A3033 RMK AO2 SLP270 T01891056=
202009081153 METAR KBFI 081153Z 06004KT 10SM FU CLR 18/M06 A3033 RMK AO2 SLP269 T01831056 10233 20183 58000=
202009081053 METAR KBFI 081053Z 06003KT 10SM FU CLR 19/M06 A3033 RMK AO2 SLP271 T01891056=
202009080953 METAR KBFI 080953Z 09004KT 5SM HZ FU OVC050 19/M04 A3034 RMK AO2 SLP272 T01941044=
202009080853 METAR KBFI 080853Z 14005KT 5SM HZ FU OVC049 19/M05 A3033 RMK AO2 SLP269 T01941050 51018=
202009080753 METAR KBFI 080753Z 13010KT 7SM FU OVC044 22/M06 A3031 RMK AO2 SLP265 T02171061 402890161=
202009080653 METAR KBFI 080653Z 13007KT 6SM HZ FU OVC045 22/M05 A3030 RMK AO2 SLP259 T02221050=
202009080553 METAR KBFI 080553Z 13009KT 8SM FU BKN050 23/M05 A3027 RMK AO2 SLP251 T02331050 10283 20228 51033=
202009080453 METAR KBFI 080453Z 13013KT 6SM HZ FU OVC041 24/M03 A3025 RMK AO2 SLP244 T02441033=
202009080353 METAR KBFI 080353Z VRB03KT 9SM FU OVC044 25/02 A3022 RMK AO2 SLP233 T02500022=
202009080253 METAR KBFI 080253Z 25004KT 10SM FU CLR 24/04 A3018 RMK AO2 SLP219 T02390039 53027=
202009080153 METAR KBFI 080153Z 27007KT 10SM FEW100 26/04 A3015 RMK AO2 PRESRR SLP211 T02560039=
202009080053 METAR KBFI 080053Z 33008G17KT 10SM FEW100 28/04 A3011 RMK AO2 SLP196 T02780039=
202009072353 METAR KBFI 072353Z 33011G23KT 10SM CLR 28/04 A3010 RMK AO2 SLP192 T02830039 10289 20211 55005=
202009072253 METAR KBFI 072253Z 33012G19KT 300V360 10SM BKN200 28/05 A3009 RMK AO2 SLP190 T02830050=
202009072153 METAR KBFI 072153Z 32009G15KT 10SM CLR 28/07 A3010 RMK AO2 SLP192 T02780067=
202009072053 METAR KBFI 072053Z 32008G20KT 10SM CLR 26/08 A3011 RMK AO2 SLP196 T02610078 57014=
202009071953 METAR KBFI 071953Z 33009G16KT 10SM CLR 24/11 A3013 RMK AO2 SLP202 T02440106=
202009071853 METAR KBFI 071853Z 31008KT 10SM FEW030 23/13 A3014 RMK AO2 SLP205 T02280133=
202009071753 METAR KBFI 071753Z 00000KT 10SM BKN020 22/14 A3015 RMK AO2 SLP210 T02170139 10217 20161 51007=
202009071653 METAR KBFI 071653Z VRB06G15KT 10SM BKN014 20/14 A3015 RMK AO2 SLP209 T02000139=
202009071553 METAR KBFI 071553Z VRB04KT 10SM SCT019 19/13 A3015 RMK AO2 SLP208 T01890133=
202009071453 METAR KBFI 071453Z VRB04KT 10SM FEW015 18/13 A3013 RMK AO2 SLP203 T01830128 53007=
202009071353 METAR KBFI 071353Z 00000KT 10SM CLR 17/12 A3012 RMK AO2 SLP199 T01670122=
202009071253 METAR KBFI 071253Z 00000KT 10SM CLR 17/12 A3012 RMK AO2 SLP198 T01670122=
202009071153 METAR KBFI 071153Z 00000KT 10SM CLR 17/13 A3011 RMK AO2 SLP195 T01670128 10200 20161 55000=
202009071053 METAR KBFI 071053Z 00000KT 10SM CLR 17/13 A3011 RMK AO2 SLP194 T01720128=
202009070953 METAR KBFI 070953Z 28003KT 10SM CLR 17/13 A3010 RMK AO2 SLP194 T01720128=
202009070853 METAR KBFI 070853Z VRB03KT 10SM CLR 18/13 A3011 RMK AO2 SLP195 T01780128 58010=
202009070753 METAR KBFI 070753Z VRB03KT 10SM CLR 18/13 A3012 RMK AO2 SLP200 T01830128 402610139=
202009070653 METAR KBFI 070653Z 32003KT 10SM CLR 19/13 A3013 RMK AO2 SLP204 T01940128=
202009070553 METAR KBFI 070553Z 00000KT 10SM CLR 20/13 A3014 RMK AO2 SLP205 T02000128 10261 20200 56001=
202009070453 METAR KBFI 070453Z 30003KT 10SM CLR 21/13 A3014 RMK AO2 SLP206 T02060128=
202009070353 METAR KBFI 070353Z 00000KT 10SM CLR 22/13 A3014 RMK AO2 SLP206 T02220128=
202009070253 METAR KBFI 070253Z 31003KT 10SM CLR 23/13 A3014 RMK AO2 SLP206 T02280128 56017=
202009070153 METAR KBFI 070153Z 32004KT 10SM CLR 24/12 A3015 RMK AO2 SLP210 T02390122=
202009070053 METAR KBFI 070053Z VRB06KT 10SM CLR 26/12 A3017 RMK AO2 SLP215 T02560122=
202009062353 METAR KBFI 062353Z 30006KT 10SM FEW250 26/12 A3019 RMK AO2 SLP224 T02560122 10261 20189 57017=
202009062253 METAR KBFI 062253Z 32007KT 10SM CLR 26/12 A3021 RMK AO2 SLP229 T02560122=
202009062153 METAR KBFI 062153Z 31007KT 10SM CLR 24/13 A3023 RMK AO2 SLP235 T02390128=
202009062053 METAR KBFI 062053Z VRB05KT 10SM CLR 23/13 A3024 RMK AO2 SLP241 T02330133 58013=
202009061953 METAR KBFI 061953Z VRB05KT 10SM CLR 22/13 A3026 RMK AO2 SLP245 T02220133=
202009061853 METAR KBFI 061853Z 32005KT 10SM CLR 20/13 A3028 RMK AO2 SLP252 T02000128=
202009061753 METAR KBFI 061753Z 32005KT 10SM CLR 19/13 A3028 RMK AO2 SLP253 T01890128 10189 20139 56000=
202009061653 METAR KBFI 061653Z VRB04KT 10SM FEW010 18/13 A3028 RMK AO2 SLP254 T01780128=
202009061553 METAR KBFI 061553Z VRB03KT 10SM SCT010 17/13 A3028 RMK AO2 SLP253 T01720133=
202009061453 METAR KBFI 061453Z 00000KT 10SM BKN010 15/13 A3028 RMK AO2 SLP254 T01500128 50001=
202009061353 METAR KBFI 061353Z 27003KT 10SM BKN010 14/12 A3028 RMK AO2 SLP255 T01440122=
202009061253 METAR KBFI 061253Z 00000KT 10SM SCT010 14/12 A3028 RMK AO2 SLP253 T01440122=
202009061153 METAR KBFI 061153Z 00000KT 10SM CLR 15/12 A3028 RMK AO2 SLP252 T01500122 10172 20150 51004=
202009061053 METAR KBFI 061053Z 00000KT 10SM CLR 15/12 A3027 RMK AO2 SLP251 T01500122=
202009060953 METAR KBFI 060953Z 00000KT 10SM CLR 16/12 A3027 RMK AO2 SLP251 T01610122=
202009060853 METAR KBFI 060853Z 00000KT 10SM CLR 16/12 A3027 RMK AO2 SLP248 T01610122 53006=
202009060753 METAR KBFI 060753Z 00000KT 10SM CLR 16/12 A3026 RMK AO2 SLP246 T01610122 402330156=
202009060653 METAR KBFI 060653Z 30004KT 10SM CLR 17/12 A3025 RMK AO2 SLP244 T01670122=
202009060553 METAR KBFI 060553Z 30003KT 10SM CLR 17/12 A3025 RMK AO2 SLP242 T01720122 10222 20172 51009=
202009060453 METAR KBFI 060453Z 30003KT 10SM CLR 18/12 A3024 RMK AO2 SLP239 T01830122=
202009060353 METAR KBFI 060353Z 00000KT 10SM CLR 19/12 A3023 RMK AO2 SLP237 T01940122=
202009060253 METAR KBFI 060253Z 31004KT 10SM CLR 19/12 A3022 RMK AO2 SLP233 T01940122 55000=
202009060153 METAR KBFI 060153Z VRB04KT 10SM CLR 21/12 A3021 RMK AO2 SLP230 T02110122=
202009060053 METAR KBFI 060053Z 30006KT 10SM CLR 22/12 A3022 RMK AO2 SLP231 T02170122=
202009052353 METAR KBFI 052353Z 31006KT 10SM FEW040 22/12 A3022 RMK AO2 SLP233 T02220117 10233 20178 56006=
202009052253 METAR KBFI 052253Z 29007KT 10SM SCT040 23/12 A3022 RMK AO2 SLP234 T02280117=
202009052153 METAR KBFI 052153Z VRB06KT 10SM SCT038 23/12 A3023 RMK AO2 SLP237 T02280117=
202009052053 METAR KBFI 052053Z 00000KT 10SM BKN036 22/11 A3024 RMK AO2 SLP239 T02220111 50000=
202009051953 METAR KBFI 051953Z 12004KT 10SM BKN033 21/11 A3024 RMK AO2 SLP241 T02060111=
202009051853 METAR KBFI 051853Z 12004KT 10SM BKN029 OVC037 19/11 A3025 RMK AO2 SLP243 T01940111=
202009051753 METAR KBFI 051753Z 13004KT 10SM OVC028 18/11 A3024 RMK AO2 SLP239 T01780111 10183 20156 53013=
202009051653 METAR KBFI 051653Z 15005KT 10SM OVC026 17/12 A3022 RMK AO2 SLP234 T01720117=
202009051553 METAR KBFI 051553Z 14005KT 10SM OVC024 17/12 A3021 RMK AO2 SLP228 T01670117=
202009051453 METAR KBFI 051453Z 00000KT 10SM OVC023 16/12 A3020 RMK AO2 SLP227 T01610117 53019=
202009051353 METAR KBFI 051353Z 18005KT 10SM OVC017 16/12 A3019 RMK AO2 SLP222 T01560117=
202009051253 METAR KBFI 051253Z 20006KT 10SM BKN018 OVC023 16/12 A3016 RMK AO2 SLP212 T01610117=
202009051153 METAR KBFI 051153Z 19005KT 10SM OVC016 16/12 A3015 RMK AO2 SLP208 T01610117 10172 20156 53013=
202009051053 METAR KBFI 051053Z 18004KT 10SM OVC019 16/12 A3013 RMK AO2 SLP203 T01610117=
202009051042 SPECI KBFI 051042Z 18008KT 10SM BKN019 16/12 A3013 RMK AO2 T01610117=
202009050953 METAR KBFI 050953Z 17009KT 10SM CLR 16/12 A3012 RMK AO2 SLP198 T01560117=
202009050853 METAR KBFI 050853Z 17006KT 10SM CLR 16/12 A3011 RMK AO2 SLP195 T01560122 53016=
202009050753 METAR KBFI 050753Z 18007KT 10SM CLR 16/12 A3009 RMK AO2 SLP189 T01610122 402890150=
202009050653 METAR KBFI 050653Z 19005KT 10SM CLR 17/12 A3007 RMK AO2 SLP183 T01670122=
202009050553 METAR KBFI 050553Z 17010KT 10SM CLR 17/13 A3006 RMK AO2 SLP179 T01720128 10289 20172 51028=
202009050453 METAR KBFI 050453Z 18004KT 10SM BKN250 18/13 A3005 RMK AO2 SLP175 T01780128=
202009050353 METAR KBFI 050353Z VRB06KT 10SM SCT250 19/13 A3002 RMK AO2 SLP164 T01940128=
202009050253 METAR KBFI 050253Z 23004KT 10SM CLR 22/13 A2998 RMK AO2 SLP151 T02220133 53010=
202009050153 METAR KBFI 050153Z AUTO VRB04KT 10SM BKN250 27/13 A2995 RMK AO2 SLP140 T02670133=
202009050053 METAR KBFI 050053Z VRB05KT 10SM BKN250 28/13 A2994 RMK AO2 SLP139 T02780133=
202009042353 METAR KBFI 042353Z 00000KT 10SM CLR 28/13 A2995 RMK AO2 SLP140 T02830128 10283 20233 58001=
202009042253 METAR KBFI 042253Z VRB03KT 10SM BKN250 28/12 A2995 RMK AO2 SLP141 T02780122=
202009042153 METAR KBFI 042153Z VRB04KT 10SM BKN250 27/13 A2996 RMK AO2 SLP143 T02670128=
202009042053 METAR KBFI 042053Z 31005KT 10SM CLR 26/13 A2995 RMK AO2 SLP141 T02610128 56015=
202009041953 METAR KBFI 041953Z VRB04KT 10SM SCT250 25/13 A2996 RMK AO2 SLP144 T02500128=
202009041853 METAR KBFI 041853Z 30006KT 10SM CLR 24/13 A2998 RMK AO2 SLP151 T02390128=
202009041753 METAR KBFI 041753Z VRB04KT 10SM CLR 23/13 A2999 RMK AO2 SLP156 T02330133 10233 20150 58004=
202009041653 METAR KBFI 041653Z VRB04KT 10SM CLR 22/13 A3000 RMK AO2 SLP159 T02170133=
202009041553 METAR KBFI 041553Z VRB04KT 10SM CLR 20/13 A3001 RMK AO2 SLP160 T02000128=
202009041453 METAR KBFI 041453Z 00000KT 10SM CLR 18/13 A3001 RMK AO2 SLP161 T01830133 53002=
202009041353 METAR KBFI 041353Z 00000KT 10SM CLR 16/12 A2999 RMK AO2 SLP155 T01610117=
202009041253 METAR KBFI 041253Z 00000KT 10SM CLR 16/11 A2999 RMK AO2 SLP156 T01560111=
202009041153 METAR KBFI 041153Z 00000KT 10SM CLR 16/12 A3000 RMK AO2 SLP159 T01610117 10206 20156 56001=
202009041053 METAR KBFI 041053Z AUTO 00000KT 10SM CLR 16/12 A3000 RMK AO2 SLP159 T01610117 TSNO=
202009040953 METAR KBFI 040953Z 00000KT 10SM CLR 18/11 A3000 RMK AO2 SLP160 T01830111=
202009040853 METAR KBFI 040853Z 00000KT 10SM CLR 18/12 A3001 RMK AO2 SLP161 T01830117 56007=
202009040753 METAR KBFI 040753Z 00000KT 10SM CLR 19/12 A3001 RMK AO2 SLP162 T01890117 402720144=
202009040653 METAR KBFI 040653Z 00000KT 10SM CLR 18/11 A3002 RMK AO2 SLP165 T01830106=
202009040553 METAR KBFI 040553Z 00000KT 10SM CLR 20/11 A3003 RMK AO2 SLP168 T02000111 10272 20200 50005=
202009040453 METAR KBFI 040453Z 00000KT 10SM CLR 21/11 A3003 RMK AO2 SLP170 T02110111=
202009040353 METAR KBFI 040353Z 32003KT 10SM CLR 22/11 A3002 RMK AO2 SLP166 T02220111=
202009040253 METAR KBFI 040253Z VRB05KT 10SM SCT250 23/12 A3001 RMK AO2 SLP163 T02330117 56011=
202009040153 METAR KBFI 040153Z 31005KT 10SM CLR 25/12 A3002 RMK AO2 SLP165 T02500117=
202009040053 METAR KBFI 040053Z VRB06KT 10SM CLR 27/12 A3003 RMK AO2 SLP167 T02670122=
202009032353 METAR KBFI 032353Z 32009G14KT 10SM CLR 27/12 A3005 RMK AO2 SLP174 T02720122 10272 20217 58018=
202009032253 METAR KBFI 032253Z 33007G15KT 10SM CLR 27/12 A3006 RMK AO2 SLP180 T02720122=
202009032153 METAR KBFI 032153Z 31008KT 10SM CLR 26/13 A3009 RMK AO2 SLP187 T02610128=
202009032053 METAR KBFI 032053Z 31008KT 10SM CLR 26/13 A3010 RMK AO2 SLP192 T02560128 58015=
202009031953 METAR KBFI 031953Z VRB06KT 10SM CLR 24/13 A3012 RMK AO2 SLP199 T02440128=
202009031853 METAR KBFI 031853Z 29005KT 10SM CLR 23/13 A3013 RMK AO2 SLP202 T02330133=
202009031753 METAR KBFI 031753Z 30004KT 10SM CLR 22/13 A3014 RMK AO2 SLP207 T02170128 10217 20144 50000=
202009031653 METAR KBFI 031653Z 29005KT 10SM FEW120 19/13 A3015 RMK AO2 SLP209 T01940128=
202009031553 METAR KBFI 031553Z VRB03KT 10SM FEW250 18/13 A3015 RMK AO2 SLP209 T01780133=
202009031453 METAR KBFI 031453Z 30003KT 10SM FEW100 16/12 A3014 RMK AO2 SLP207 T01610122 53008=
202009031353 METAR KBFI 031353Z 32003KT 10SM FEW250 14/12 A3013 RMK AO2 SLP204 T01440122=
202009031253 METAR KBFI 031253Z 30003KT 10SM FEW070 14/12 A3012 RMK AO2 SLP197 T01440122=
202009031153 METAR KBFI 031153Z 30003KT 10SM CLR 15/12 A3012 RMK AO2 SLP199 T01500122 10194 20150 55004=
202009031053 METAR KBFI 031053Z 31004KT 10SM CLR 16/12 A3012 RMK AO2 SLP199 T01610122=
202009030953 METAR KBFI 030953Z 00000KT 10SM CLR 17/13 A3013 RMK AO2 SLP202 T01670128=
202009030853 METAR KBFI 030853Z 00000KT 10SM CLR 17/13 A3013 RMK AO2 SLP203 T01720128 51004=
202009030753 METAR KBFI 030753Z 00000KT 10SM CLR 18/13 A3013 RMK AO2 SLP203 T01780128 402670150=
202009030653 METAR KBFI 030653Z VRB04KT 10SM CLR 18/13 A3013 RMK AO2 SLP201 T01830133=
202009030553 METAR KBFI 030553Z 00000KT 10SM CLR 19/13 A3012 RMK AO2 SLP199 T01940133 10250 20194 51008=
202009030453 METAR KBFI 030453Z VRB04KT 10SM CLR 20/13 A3011 RMK AO2 SLP196 T02000133=
202009030353 METAR KBFI 030353Z 32004KT 10SM CLR 20/13 A3010 RMK AO2 SLP194 T02000133=
202009030253 METAR KBFI 030253Z 30005KT 10SM FEW055 SCT250 21/13 A3010 RMK AO2 SLP191 T02060133 53005=
202009030153 METAR KBFI 030153Z 30007KT 10SM SCT250 22/14 A3008 RMK AO2 SLP187 T02220139=
202009030053 METAR KBFI 030053Z 29007KT 10SM CLR 24/14 A3008 RMK AO2 SLP185 T02440139=
202009022353 METAR KBFI 022353Z 31007G15KT 10SM FEW050 25/14 A3008 RMK AO2 SLP186 T02500139 10267 20217 58003=
202009022253 METAR KBFI 022253Z 30011G19KT 10SM FEW055 24/14 A3008 RMK AO2 SLP187 T02440144=
202009022153 METAR KBFI 022153Z VRB06KT 10SM SCT050 26/15 A3009 RMK AO2 SLP189 T02610150=
202009022053 METAR KBFI 022053Z 33008KT 10SM FEW040 24/14 A3009 RMK AO2 SLP189 T02390144 58001=
202009021953 METAR KBFI 021953Z VRB06KT 10SM FEW080 23/14 A3009 RMK AO2 SLP190 T02280144=
202009021853 METAR KBFI 021853Z VRB04KT 10SM CLR 24/14 A3009 RMK AO2 SLP190 T02390144=
202009021753 METAR KBFI 021753Z 31006KT 10SM CLR 22/14 A3009 RMK AO2 SLP190 T02170139 10217 20150 53004=
202009021653 METAR KBFI 021653Z 31003KT 10SM CLR 21/13 A3008 RMK AO2 SLP186 T02060133=
202009021553 METAR KBFI 021553Z 14003KT 10SM FEW070 19/14 A3009 RMK AO2 SLP187 T01890139=
202009021453 METAR KBFI 021453Z 00000KT 10SM CLR 16/13 A3008 RMK AO2 SLP186 T01610133 51010=
202009021353 METAR KBFI 021353Z 31003KT 10SM FEW050 15/13 A3008 RMK AO2 SLP185 T01500128=
202009021253 METAR KBFI 021253Z 00000KT 10SM CLR 16/13 A3006 RMK AO2 SLP180 T01560128=
202009021153 METAR KBFI 021153Z 34003KT 10SM CLR 16/13 A3005 RMK AO2 SLP176 T01560128 10206 20156 55004=
202009021053 METAR KBFI 021053Z 33004KT 10SM CLR 16/13 A3005 RMK AO2 SLP176 T01610128=
202009020953 METAR KBFI 020953Z 00000KT 10SM CLR 17/13 A3005 RMK AO2 SLP177 T01670128=
202009020853 METAR KBFI 020853Z 00000KT 10SM CLR 17/12 A3007 RMK AO2 SLP180 T01720122 58006=
202009020753 METAR KBFI 020753Z 32003KT 10SM CLR 18/12 A3008 RMK AO2 SLP185 T01830122 402670150=
202009020653 METAR KBFI 020653Z 32004KT 10SM CLR 19/12 A3008 RMK AO2 SLP185 T01890122=
202009020553 METAR KBFI 020553Z 31004KT 10SM CLR 21/13 A3008 RMK AO2 SLP187 T02060128 10267 20206 51005=
202009020453 METAR KBFI 020453Z 00000KT 10SM CLR 22/13 A3008 RMK AO2 SLP186 T02170128=
202009020353 METAR KBFI 020353Z 00000KT 10SM CLR 22/13 A3008 RMK AO2 SLP185 T02220128=
202009020253 METAR KBFI 020253Z 00000KT 10SM CLR 24/13 A3007 RMK AO2 SLP182 T02390128 56014=
202009020153 METAR KBFI 020153Z 32005KT 10SM CLR 26/13 A3008 RMK AO2 SLP184 T02610128=
202009020053 METAR KBFI 020053Z 33006KT 10SM CLR 26/13 A3009 RMK AO2 SLP190 T02610128=
202009012353 METAR KBFI 012353Z VRB06KT 10SM CLR 26/12 A3011 RMK AO2 SLP195 T02610122 10267 20211 56014=
202009012253 METAR KBFI 012253Z VRB04KT 10SM CLR 26/12 A3012 RMK AO2 SLP199 T02610117=
202009012153 METAR KBFI 012153Z 31007KT 10SM CLR 26/11 A3014 RMK AO2 SLP205 T02560111=
202009012053 METAR KBFI 012053Z 31006KT 10SM CLR 25/11 A3015 RMK AO2 SLP209 T02500111 56009=
202009011953 METAR KBFI 011953Z 29006KT 10SM CLR 24/11 A3016 RMK AO2 SLP212 T02390111=
202009011853 METAR KBFI 011853Z 33005KT 10SM CLR 23/12 A3017 RMK AO2 SLP215 T02280122=
202009011753 METAR KBFI 011753Z 29006KT 10SM CLR 22/12 A3018 RMK AO2 SLP219 T02170122 10217 20150 53001=
202009011653 METAR KBFI 011653Z 31005KT 10SM CLR 19/12 A3017 RMK AO2 SLP216 T01890122=
202009011553 METAR KBFI 011553Z VRB04KT 10SM FEW050 17/12 A3017 RMK AO2 SLP217 T01670122=
202009011453 METAR KBFI 011453Z 31004KT 10SM BKN055 16/12 A3018 RMK AO2 SLP218 T01560117 53007=
202009011353 METAR KBFI 011353Z VRB05KT 10SM OVC055 15/12 A3016 RMK AO2 SLP213 T01500117=
202009011253 METAR KBFI 011253Z 33003KT 10SM BKN050 15/12 A3016 RMK AO2 SLP212 T01500117=
202009011153 METAR KBFI 011153Z 35003KT 10SM CLR 16/11 A3015 RMK AO2 SLP211 T01560111 10178 20156 58004=
202009011053 METAR KBFI 011053Z 00000KT 10SM CLR 16/11 A3016 RMK AO2 SLP212 T01610111=
202009010953 METAR KBFI 010953Z 30003KT 10SM BKN050 17/11 A3016 RMK AO2 SLP213 T01670111=
202009010853 METAR KBFI 010853Z 00000KT 10SM OVC050 17/11 A3017 RMK AO2 SLP214 T01670111 56001=
202009010753 METAR KBFI 010753Z 00000KT 10SM SCT055 17/11 A3017 RMK AO2 SLP216 T01670106 402170128=
202009010653 METAR KBFI 010653Z 00000KT 10SM CLR 17/11 A3016 RMK AO2 SLP213 T01670106=
202009010553 METAR KBFI 010553Z 00000KT 10SM SCT050 18/11 A3017 RMK AO2 SLP216 T01780106 10211 20178 51010=
202009010453 METAR KBFI 010453Z 00000KT 10SM SCT060 18/10 A3017 RMK AO2 SLP215 T01830100=
202009010353 METAR KBFI 010353Z 28003KT 10SM CLR 18/10 A3016 RMK AO2 SLP211 T01830100=
202009010253 METAR KBFI 010253Z 31006KT 10SM CLR 19/10 A3014 RMK AO2 SLP205 T01890100 55000=
202009010153 METAR KBFI 010153Z 30007KT 10SM CLR 20/09 A3013 RMK AO2 SLP203 T02000094=
202009010053 METAR KBFI 010053Z 32006KT 10SM FEW050 21/09 A3014 RMK AO2 SLP206 T02060094=

# No short TAF reports from KBFI in databse.

###################################
#  large TAF from KBFI
###################################
202009302339 TAF KBFI 302339Z 0100/0124 30004KT 6SM HZ BKN060 FM010500 33005KT
                       P6SM BKN060 FM011200 22001KT 5SM BR BKN025
                       FM011900 33003KT P6SM SCT020=
202009301737 TAF KBFI 301737Z 3018/0118 VRB05KT P6SM SCT005 OVC060 FM301900
                       VRB03KT P6SM SCT070 FM010500 00000KT P6SM
                       SCT070=
202009301127 TAF KBFI 301127Z 3012/0112 00000KT P6SM SCT100 FM301700 26005KT
                       P6SM SCT070 FM010500 00000KT P6SM SKC=
202009300523 TAF KBFI 300523Z 3006/0106 00000KT P6SM SCT100 FM301700 26005KT
                       P6SM SCT070 FM010500 00000KT P6SM SKC=
202009292331 TAF KBFI 292331Z 3000/3024 VRB05KT P6SM SKC FM300300 VRB03KT P6SM
                       BKN070 FM300800 19005KT P6SM SCT070=
202009291729 TAF KBFI 291729Z 2918/3018 VRB04KT P6SM SKC FM292200 33006KT P6SM
                       SKC FM300500 00000KT P6SM BKN070=
202009291121 TAF KBFI 291121Z 2912/3012 VRB03KT P6SM SKC FM292200 34006KT P6SM
                       SKC FM300500 00000KT P6SM BKN200=
202009290525 TAF KBFI 290525Z 2906/3006 VRB03KT P6SM SKC FM292200 34006KT P6SM
                       SKC FM300500 00000KT P6SM SCT200=
202009282331 TAF KBFI 282331Z 2900/2924 30008KT P6SM SKC FM290300 34003KT P6SM
                       SKC FM290800 VRB04KT P6SM SKC=
202009281736 TAF KBFI 281736Z 2818/2918 33003KT P6SM SKC FM282300 32010KT P6SM
                       SKC FM290600 VRB03KT P6SM SKC=
202009281121 TAF KBFI 281121Z 2812/2912 00000KT P6SM SKC FM282000 32008KT P6SM
                       SKC FM290600 VRB03KT P6SM SKC=
202009280526 TAF KBFI 280526Z 2806/2906 00000KT P6SM SKC FM282000 32008KT P6SM
                       SKC=
202009272320 TAF KBFI 272320Z 2800/2824 32005KT P6SM SCT100 FM281200 00000KT
                       P6SM BKN250 FM281800 32006KT P6SM SCT250=
202009272106 KBFI 272106Z 2721/2818 30007KT P6SM SCT100 FM272300 33004KT P6SM
                       SKC FM281200 00000KT P6SM BKN250=
202009271753 TAF KBFI 271753Z 2718/2818 VRB03KT P6SM SCT015 BKN100 FM272300
                       33004KT P6SM SKC FM281200 00000KT P6SM BKN250=
202009271510 KBFI 271510Z 2715/2812 00000KT P6SM SCT010 BKN100 FM271800 VRB03KT
                       P6SM SCT030 BKN150 FM272300 33006KT P6SM
                       SKC=
202009271122 TAF KBFI 271122Z 2712/2812 00000KT P6SM SCT020 BKN040 BKN150
                      TEMPO 2712/2716 BKN020 OVC040 FM271800 VRB03KT
                       P6SM SCT030 BKN150 FM272300 33006KT P6SM
                       SKC=
202009270539 TAF KBFI 270539Z 2706/2806 14006KT P6SM SCT025 SCT070 FM271100
                       14006KT P6SM OVC014 FM271700 VRB03KT P6SM
                       BKN025 FM271800 VRB03KT P6SM SCT030 SCT250
                       FM272300 33006KT P6SM SKC=
202009262320 TAF KBFI 262320Z 2700/2724 18008KT P6SM SCT025 BKN070
                      TEMPO 2700/2703 5SM -SHRA SCT012 OVC020 FM270300
                       VRB03KT P6SM SCT025 BKN060 FM270900 00000KT
                       P6SM OVC016 FM271700 VRB03KT P6SM BKN025
                       FM272000 33005KT P6SM SCT030 SCT250=
202009261726 TAF KBFI 261726Z 2618/2718 15006KT P6SM SCT020 BKN100 FM262100
                       15008KT P6SM -SHRA SCT018 OVC030 FM262300
                       15008KT 5SM -SHRA SCT012 OVC020 FM270300
                       VRB03KT P6SM SCT030 BKN050 FM270900 00000KT
                       P6SM OVC016 FM271700 VRB03KT P6SM BKN025=
202009261127 TAF KBFI 261127Z 2612/2712 15006KT P6SM OVC015 FM261500 15006KT
                       P6SM SCT020 BKN060 FM261900 15008KT P6SM
                       -RA SCT018 OVC030 FM262100 15008KT 5SM -RA
                       SCT012 OVC020 FM262300 18008KT 3SM -RA OVC012
                       FM270300 18008KT P6SM SCT030 BKN050 FM270900
                       18008KT P6SM OVC016=
202009261004 KBFI 261004Z 2610/2706 15006KT P6SM OVC015 FM261400 15006KT P6SM
                       SCT020 BKN060 FM261800 15008KT P6SM -RA
                       SCT018 OVC030 FM262000 15008KT 5SM -RA SCT012
                       OVC020 FM262200 18008KT 3SM -RA OVC012 FM270300
                       18008KT P6SM SCT030 BKN050=
202009260539 TAF KBFI 260539Z 2606/2706 15006KT P6SM SCT060 BKN150 FM261400
                       15006KT P6SM BKN060 FM261800 15008KT P6SM
                       -RA SCT018 OVC030 FM262000 15008KT 5SM -RA
                       SCT012 OVC020 FM262200 18008KT 3SM -RA OVC012
                       FM270300 18008KT P6SM SCT030 BKN050=
202009260250 KBFI 260250Z 2603/2624 17006KT P6SM BKN070 FM260600 16005KT P6SM
                       OVC050 FM261900 19008KT P6SM VCSH BKN050=
202009252321 TAF KBFI 252321Z 2600/2624 22012G20KT P6SM VCSH SCT020 OVC090 FM260200
                       17006KT P6SM VCSH SCT030 BKN050 FM261500
                       19008KT P6SM VCSH BKN035=
202009251720 TAF KBFI 251720Z 2518/2618 15010KT P6SM -RA BKN040 OVC060
                      TEMPO 2518/2519 2SM RA BR OVC030 FM251900
                       17012G18KT P6SM -RA BKN025 OVC035 FM252200
                       22013G22KT P6SM -SHRA SCT025 OVC035 FM260200
                       17006KT P6SM VCSH BKN050=
202009251633 KBFI 251633Z 2517/2612 15010KT P6SM -RA BKN040 OVC060
                      TEMPO 2517/2518 2SM RA BR OVC030 FM251800
                       17012G18KT P6SM -RA BKN025 OVC035 FM252200
                       22013G22KT P6SM -SHRA SCT025 OVC035 FM260100
                       20008KT P6SM VCSH BKN050=
202009251122 TAF KBFI 251122Z 2512/2612 15010KT P6SM -RA SCT045 OVC080 FM251700
                       17012G18KT P6SM -RA BKN025 OVC035 FM252200
                       22013G22KT P6SM -SHRA SCT025 OVC035 FM260100
                       20008KT P6SM VCSH BKN050=
202009250904 KBFI 250904Z 2509/2606 15009KT P6SM SCT050 BKN090 FM251100 15011KT
                       P6SM -RA BKN050 OVC090 FM251300 18015G25KT
                       4SM -RA OVC030 FM251800 17011G20KT 2SM -RA
                       OVC020 FM252200 22013G22KT 4SM -SHRA SCT020
                       OVC035 FM260300 21010KT P6SM VCSH BKN050=
202009250531 TAF KBFI 250531Z 2506/2606 15008KT P6SM BKN090 OVC200 FM250800
                       16011KT 6SM -RA SCT025 OVC060 FM251100 18015G25KT
                       4SM -RA OVC030 FM251800 17011G20KT 2SM -RA
                       OVC020 FM252200 22013G22KT 4SM -SHRA SCT020
                       OVC035 FM260300 21010KT P6SM VCSH BKN050=
202009250251 KBFI 250251Z 2503/2524 17007KT P6SM FEW045 SCT050 BKN060 FM250800
                       16011KT 6SM -SHRA SCT025 OVC060 FM251100
                       18015G25KT 4SM -RA OVC030 FM251800 17011G20KT
                       2SM -RA OVC020=
202009242339 TAF KBFI 242339Z 2500/2524 17011KT P6SM -SHRA SCT025 OVC060 FM251100
                       18015G25KT 4SM -RA OVC030=
202009241726 TAF KBFI 241726Z 2418/2518 17012G20KT P6SM VCSH SCT025 BKN035
                      TEMPO 2418/2420 5SM -SHRA OVC025 FM242000
                       18012G21KT P6SM -SHRA BKN045 FM250200 17012KT
                       P6SM -SHRA BKN050 FM251100 18015G25KT 4SM
                       -RA OVC030=
202009241129 TAF KBFI 241129Z 2412/2512 17012G20KT P6SM VCSH SCT025 BKN035
                      TEMPO 2412/2416 5SM -SHRA OVC025 FM242000
                       18012G21KT P6SM -SHRA BKN045 FM250200 17012KT
                       P6SM -SHRA BKN050 FM251100 18015G25KT 4SM
                       -RA OVC030=
202009240534 TAF KBFI 240534Z 2406/2506 18010G18KT P6SM VCSH OVC035
                      TEMPO 2406/2410 5SM -SHRA FM241000 17012KT
                       6SM -SHRA OVC030 FM242200 18012G21KT P6SM
                       -SHRA BKN045 FM250400 17012KT P6SM -SHRA
                       BKN050=
202009240216 KBFI 240216Z 2402/2424 16013G23KT P6SM -RA SCT025 BKN030 OVC050
                       FM240400 18015G25KT 4SM -SHRA OVC020 FM241000
                       17012KT 4SM -SHRA OVC030 FM241600 16012G21KT
                       2SM -SHRA OVC020=
202009232321 TAF KBFI 232321Z 2400/2424 16013G23KT 3SM -RA BKN020 OVC100
                      TEMPO 2401/2403 1 1/2SM -RA OVC010 FM240400
                       18015G25KT 4SM -SHRA OVC020 FM241000 17012KT
                       4SM -SHRA OVC030 FM241600 16012G21KT 2SM
                       -SHRA OVC020=
202009232052 KBFI 232052Z 2321/2418 16009KT 2SM -RA BR BKN025 OVC070 FM240000
                       18013G27KT 3SM -RA OVC020 FM240600 19015G25KT
                       4SM -SHRA OVC020 FM241000 17012G20KT 4SM
                       -SHRA OVC050 FM241200 16012KT 4SM -SHRA
                       OVC020=
202009231726 TAF KBFI 231726Z 2318/2418 15010KT 4SM RA BR SCT045 BKN070 OVC100
                       FM232000 18015G25KT 3SM -RA OVC025 FM240000
                       18013G27KT 3SM -RA OVC020 FM240600 19015G25KT
                       4SM -SHRA OVC020 FM241000 17012G20KT 4SM
                       -SHRA OVC050=
202009231453 KBFI 231453Z 2315/2412 15006KT 6SM -RA BR OVC040 FM231800 16012G20KT
                       4SM -RA OVC025 FM232200 18015G25KT 3SM -RA
                       OVC025 FM240600 19015KT 4SM -SHRA OVC020
                       FM241000 17012KT 4SM -SHRA OVC050=
202009231130 TAF KBFI 231130Z 2312/2412 16008KT 6SM -RA OVC040 FM231500 18012G21KT
                       4SM -RA BR OVC030 FM232000 18015G25KT 2SM
                       -RA OVC025 FM240600 19015KT 4SM -SHRA OVC020=
202009230523 TAF KBFI 230523Z 2306/2406 19003KT P6SM SCT050 OVC250 FM231200
                       16008KT P6SM -SHRA OVC040 FM231500 18012G21KT
                       4SM -RA BR OVC030 FM232000 18015G25KT 2SM
                       -RA OVC025=
202009222321 TAF KBFI 222321Z 2300/2324 17006KT P6SM FEW030 BKN250 FM230500
                       19003KT P6SM SCT050 BKN250 FM231100 14008KT
                       P6SM -SHRA OVC045 FM231600 16012G21KT 4SM
                       -RA BR OVC020=
202009222052 KBFI 222052Z 2221/2318 15010KT P6SM FEW020 BKN250 FM230000 19006KT
                       P6SM SCT050 OVC120 FM231100 14008KT P6SM
                       -SHRA OVC045 FM231600 16010KT 4SM -RA BR
                       OVC015=
202009221721 TAF KBFI 221721Z 2218/2318 22006KT P6SM SCT018 FM221900 18006KT
                       P6SM BKN030 BKN120 FM222200 21006KT P6SM
                       SCT050 OVC120 FM230800 16008KT P6SM OVC090
                       FM231100 14008KT P6SM -SHRA OVC045 FM231600
                       16007KT 4SM -RA BR OVC015=
202009221450 KBFI 221450Z 2215/2312 21003KT P6SM BKN009 OVC015 FM221700 16006KT
                       P6SM SCT018 OVC030 FM221900 18006KT P6SM
                       BKN030 BKN120 FM222200 21006KT P6SM SCT050
                       OVC120 FM230800 16008KT P6SM OVC090 FM231100
                       14008KT P6SM -SHRA OVC045=
202009221129 TAF KBFI 221129Z 2212/2312 VRB03KT P6SM OVC012 FM221700 16006KT
                       P6SM SCT018 BKN028 OVC045 FM221900 16006KT
                       P6SM BKN050 BKN250 FM222200 14006KT P6SM
                       SCT050 BKN250 FM230500 14008KT P6SM OVC090
                       FM231100 14008KT P6SM -RA OVC045=
202009220913 KBFI 220913Z 2209/2306 VRB03KT P6SM BKN030 OVC050 FM221800 17006KT
                       P6SM BKN050 BKN250 FM222000 14006KT P6SM
                       SCT050 BKN250 FM230500 14006KT P6SM OVC090=
202009220545 TAF KBFI 220545Z 2206/2306 19006KT P6SM SCT035 BKN080 OVC150 FM221200
                       17006KT P6SM SCT010 BKN050 FM221700 17006KT
                       P6SM SCT050 BKN250 FM230500 14006KT P6SM
                       OVC090=
202009212320 TAF KBFI 212320Z 2200/2224 14007KT P6SM SCT060 OVC150 FM220500
                       19004KT P6SM VCSH OVC080 FM221400 18003KT
                       P6SM SCT005 OVC015 FM222000 20005KT P6SM
                       BKN050=
202009212047 KBFI 212047Z 2121/2218 31005KT P6SM BKN080 FM220500 19004KT P6SM
                       VCSH OVC080 FM221000 16003KT P6SM OVC022
                       FM221400 18003KT P6SM SCT005 OVC015=
202009211743 TAF KBFI 211743Z 2118/2218 VRB03KT P6SM FEW004 BKN130 BKN180 FM212100
                       21006KT P6SM BKN120 OVC200 FM220500 19004KT
                       P6SM VCSH OVC080 FM221000 16003KT P6SM OVC022
                       FM221400 18003KT P6SM SCT005 OVC015=
202009211128 TAF KBFI 211128Z 2112/2212 VRB02KT P6SM FEW008 BKN200 FM211700
                       22004KT P6SM SCT120 BKN200 FM212100 21006KT
                       P6SM BKN120 OVC200 FM220500 19004KT P6SM
                       VCSH OVC080 FM220900 16003KT P6SM OVC022=
202009210539 TAF KBFI 210539Z 2106/2206 00000KT P6SM SCT050 SCT200 FM211300
                       23003KT P6SM SCT012 SCT200 FM211700 22004KT
                       P6SM BKN200 FM212100 21006KT P6SM BKN120
                       OVC200 FM220500 19004KT P6SM VCSH OVC080=
202009202330 TAF KBFI 202330Z 2100/2124 29005KT P6SM BKN035 FM210400 00000KT
                       P6SM SCT050 SCT200 FM211300 23003KT P6SM
                       SCT009 BKN250 FM211700 22004KT P6SM BKN250=
202009201727 TAF KBFI 201727Z 2018/2118 19003KT P6SM SCT005 BKN015 OVC030 FM202000
                       24005KT P6SM BKN045 FM210200 31003KT P6SM
                       SCT050 SCT200 FM211300 23003KT P6SM SCT009
                       BKN250=
202009201120 TAF KBFI 201120Z 2012/2112 00000KT P6SM VCSH SCT015 OVC030
                      TEMPO 2013/2017 5SM -SHRA BR BKN015 FM201700
                       19003KT P6SM OVC025 FM202100 24005KT P6SM
                       BKN045 FM210400 31003KT P6SM SCT050 SCT200=
202009200527 TAF KBFI 200527Z 2006/2106 17003KT P6SM VCSH FEW010 BKN015 OVC025
                       TEMPO 2006/2010 BKN010 OVC020 FM201000 16004KT
                       P6SM OVC012 FM201900 19003KT P6SM OVC020
                       FM202100 24005KT P6SM BKN045 FM210400 31003KT
                       P6SM SCT050 SCT200=
202009200252 KBFI 200252Z 2003/2024 31008KT P6SM VCSH FEW021 BKN026 OVC030 FM200600
                       18004KT P6SM OVC020 FM201100 16003KT P6SM
                       OVC015 FM202100 24005KT P6SM BKN050=
202009192332 TAF KBFI 192332Z 2000/2024 19007KT P6SM VCSH SCT030 BKN045 FM200600
                       18004KT P6SM OVC020 FM201100 16003KT P6SM
                       OVC015 FM202100 24005KT P6SM BKN050=
202009191728 TAF KBFI 191728Z 1918/2018 18006KT P6SM VCSH BKN009 OVC025 FM191900
                       18006KT P6SM VCSH SCT010 OVC025 FM192200
                       19007KT P6SM VCSH SCT020 BKN045 FM200600
                       18004KT P6SM OVC020 FM201100 16003KT P6SM
                       OVC015=
202009191126 TAF KBFI 191126Z 1912/2012 16005KT P6SM VCSH OVC011 FM191800 18006KT
                       P6SM VCSH BKN016 OVC030 FM192200 19007KT
                       P6SM VCSH SCT020 BKN045 FM200600 18004KT
                       P6SM OVC020 FM201100 16003KT P6SM OVC015=
202009190524 TAF KBFI 190524Z 1906/2006 15004KT P6SM OVC010 FM191200 18006KT
                       6SM BR VCSH OVC013 FM191600 18006KT P6SM
                       VCSH BKN018 OVC030 FM192200 21007KT P6SM
                       VCSH SCT020 BKN045 FM200500 18004KT P6SM
                       OVC022=
202009190307 KBFI 190307Z 1903/1924 13006KT 6SM -SHRA FU FEW012 BKN040 OVC070
                       FM190700 18006KT 6SM BR VCSH OVC018 FM191500
                       18006KT P6SM VCSH BKN018 OVC030 FM192200
                       21007KT P6SM VCSH SCT020 BKN050=
202009182320 TAF KBFI 182320Z 1900/1924 13006KT 4SM HZ SCT025 BKN050 OVC100
                       TEMPO 1900/1904 2SM -SHRA BKN025 OVC040
                       FM190400 18006KT 5SM BR VCSH OVC018 FM191500
                       18006KT P6SM VCSH BKN018 OVC030 FM192200
                       21007KT P6SM VCSH SCT020 BKN050=
202009182013 KBFI 182013Z 1820/1918 VRB04KT 4SM -RA BR FU BKN030 OVC080
                      TEMPO 1820/1824 2SM -RA BR FU OVC025 FM190000
                       VRB04KT 6SM HZ SCT030 OVC050
                      TEMPO 1900/1904 3SM -SHRA BR BKN030 OVC050
                       FM190400 VRB04KT 5SM -SHRA BR BKN018 OVC040
                       FM190800 15005KT 5SM BR VCSH OVC018 FM191600
                       15005KT P6SM VCSH BKN018 OVC030=
202009181720 TAF KBFI 181720Z 1818/1918 18005KT 4SM BR FU SCT025 BKN080 FM182100
                       VRB04KT 6SM HZ SCT030 OVC050
                      TEMPO 1822/1902 3SM -SHRA BR BKN030 OVC050
                       FM190200 VRB03KT 5SM -SHRA BR BKN018 OVC040
                       FM190800 15005KT 5SM BR VCSH OVC018 FM191600
                       15056KT P6SM VCSH BKN018 OVC030=
202009181135 TAF KBFI 181135Z 1812/1912 VRB03KT 4SM BR FU SCT025 BKN100
                      TEMPO 1814/1818 -SHRA BKN022 OVC050 FM181800
                       18005KT 4SM -SHRA BR BKN022 OVC050 FM182100
                       17006KT 5SM -SHRA BR VCTS BKN035CB OVC060
                       FM190200 22008KT 6SM BR VCSH BKN022 OVC050
                       FM190800 16005KT 6SM BR VCSH OVC017=
202009180542 TAF KBFI 180542Z 1806/1906 VRB03KT 4SM FU HZ SCT025 OVC045 FM181200
                       17002KT 3SM FU HZ BKN020 OVC045 FM181800
                       19005KT 3SM -RA BR OVC014 FM190000 22008KT
                       5SM -SHRA BR BKN035 OVC060=
202009172322 TAF KBFI 172322Z 1800/1824 33010KT 3SM FU HZ BKN025 FM180600 23003KT
                       2SM FU HZ OVC040 FM181200 17002KT 3SM FU
                       HZ OVC015 FM181700 19005KT 3SM -RA HZ OVC015=
202009172051 KBFI 172051Z 1721/1818 33005KT 2SM FU HZ BKN010 OVC020 FM180000
                       30004KT 3SM FU HZ OVC250 FM180600 23003KT
                       2SM FU HZ OVC040 FM181200 19002KT 3SM FU
                       HZ OVC015 FM181700 19005KT 3SM -SHRA HZ
                       OVC015=
202009171720 TAF KBFI 171720Z 1718/1818 00000KT 2SM BR FU SCT009 BKN015 FM172100
                       31005KT 2SM FU HZ OVC040 FM180600 28003KT
                       2SM FU HZ OVC040 FM181200 20002KT 3SM FU
                       HZ OVC015=
202009171450 KBFI 171450Z 1715/1812 00000KT 1 1/2SM BR FU FEW006 OVC020
                      TEMPO 1715/1717 1 1/2SM FU HZ FEW006 OVC020
                       FM171900 31005KT 2SM FU HZ OVC040 FM180600
                       28003KT 2SM FU HZ OVC040=
202009171121 TAF KBFI 171121Z 1712/1812 00000KT 3SM FU HZ SCT020 BKN050
                      TEMPO 1712/1716 3SM FU HZ BKN020 OVC050 FM171900
                       31005KT 2SM FU HZ OVC040 FM180300 VRB03KT
                       2SM FU HZ OVC040=
202009170520 TAF KBFI 170520Z 1706/1806 16004KT 3SM HZ FU BKN050 FM171100 00000KT
                       2SM FU HZ OVC025 FM171900 31005KT 2SM FU
                       HZ OVC040 FM180300 VRB03KT 2SM FU HZ OVC040=
202009170301 KBFI 170301Z 1703/1724 VRB03KT 1 1/2SM FU HZ OVC035 FM171100 00000KT
                       1SM HZ BR OVC025 FM171900 31005KT 2SM HZ
                       OVC030=
202009162320 TAF KBFI 162320Z 1700/1724 VRB03KT 2SM FU HZ OVC030 FM170300 26003KT
                       1 1/2SM FU HZ OVC025 FM171200 21003KT 2SM
                       HZ BR OVC030 FM171700 31003KT 3SM HZ OVC015=
202009162050 KBFI 162050Z 1621/1718 33003KT 2SM FU HZ OVC030 FM170300 26003KT
                       1 1/2SM FU HZ OVC025 FM171200 21003KT 2SM
                       HZ BR OVC030 FM171700 31003KT 3SM HZ OVC015=
202009161721 TAF KBFI 161721Z 1618/1718 31003KT 1 1/2SM FU HZ OVC025 FM162000
                       28005KT 2SM FU HZ OVC030 FM170300 26003KT
                       1 1/2SM FU HZ OVC025 FM171200 28003KT 2SM
                       HZ BR OVC030=
202009161451 KBFI 161451Z 1615/1712 00000KT 2SM BR FU OVC025 FM162000 30005KT
                       1 1/2SM FU HZ OVC030 FM170300 26003KT 1
                       1/2SM FU HZ OVC025=
202009161125 TAF KBFI 161125Z 1612/1712 00000KT 1 1/2SM FU HZ OVC025 FM162000
                       31005KT 1 1/2SM FU HZ OVC030 FM170300 VRB03KT
                       1 1/2SM FU HZ OVC025=
202009160521 TAF KBFI 160521Z 1606/1706 VRB03KT 1 1/2SM FU HZ BKN030 OVC070
                       TEMPO 1606/1609 1 1/2SM -SHRA FU HZ SCT030
                       OVC070 FM162000 31005KT 1 1/2SM FU HZ OVC030
                       FM170300 VRB03KT 1 1/2SM FU HZ OVC025=
202009160346 KBFI 160346Z 1604/1624 00000KT 1 1/2SM FU HZ BKN025
                      TEMPO 1604/1607 -SHRA FM162000 24005KT 2SM
                       FU HZ BKN050=
202009160301 KBFI 160301Z 1603/1624 00000KT 1 1/2SM FU HZ BKN025 FM162000 24005KT
                       2SM FU HZ BKN050=
202009152327 TAF KBFI 152327Z 1600/1624 31004KT 1 1/2SM FU HZ BKN090 FM160300
                       00000KT 1 1/2SM FU BR OVC025 FM162000 30005KT
                       2SM FU HZ BKN050=
202009152055 KBFI 152055Z 1521/1618 29004KT 1 1/2SM FU HZ BKN025 FM160300 00000KT
                       1 1/2SM FU BR OVC025=
202009151728 TAF KBFI 151728Z 1518/1618 15004KT 1SM BR FU FEW080 BKN100 FM152000
                       29004KT 1 1/2SM FU HZ BKN025 FM160300 00000KT
                       1 1/2SM FU BR OVC025=
202009151447 KBFI 151447Z 1515/1612 15004KT 3/4SM BR FU OVC025 FM152000 29004KT
                       1 1/2SM FU HZ BKN025 FM160300 00000KT 1
                       1/2SM FU HZ OVC025=
202009151216 KBFI 151216Z 1512/1612 00000KT 1SM BR FU OVC025
                      TEMPO 1512/1515 SCT025 OVC050 FM152000 29004KT
                       1 1/2SM FU HZ BKN025 FM160300 00000KT 1
                       1/2SM FU HZ OVC025=
202009151120 TAF KBFI 151120Z 1512/1612 00000KT 1SM BR FU OVC025 FM152000 29004KT
                       1 1/2SM FU HZ BKN025 FM160300 00000KT 1
                       1/2SM FU HZ OVC025=
202009150522 TAF KBFI 150522Z 1506/1606 VRB03KT 1 1/2SM HZ FU OVC030
                      TEMPO 1506/1510 2SM -SHRA FU HZ SCT030 OVC070
                       FM151000 18003KT 2SM FU BKN035 OVC070 FM151600
                       23004KT 2SM FU BKN040 BKN070 FM152200 31004KT
                       3SM FU BKN050 BKN120=
202009150303 KBFI 150303Z 1503/1524 VRB03KT 2SM FU HZ OVC029 FM151000 18003KT
                       2SM FU BKN035 FM151600 23004KT 2SM FU BKN040
                       BKN070 FM152200 31004KT 3SM FU BKN050 BKN120=
202009142320 TAF KBFI 142320Z 1500/1524 VRB03KT 1SM FU OVC020 FM150500 VRB03KT
                       1SM FU OVC100 FM152000 29005KT 1SM FU BKN250=
202009141720 TAF KBFI 141720Z 1418/1518 VRB03KT 1SM FU OVC025
                      TEMPO 1418/1420 VRB03KT 1SM FU VV020=
202009141128 TAF KBFI 141128Z 1412/1512 VRB03KT 1SM FU OVC025=
202009140541 TAF KBFI 140541Z 1406/1506 VRB03KT 1SM FU OVC025=
202009140150 KBFI 140150Z 1402/1424 33004KT 1SM FU OVC023 FM140700 29004KT 1
                       1/2SM FU BKN025 OVC030 FM141300 VRB03KT
                       1/2SM FU OVC015=
202009132340 TAF KBFI 132340Z 1400/1424 33004KT 1 1/2SM FU OVC023 FM140200 29004KT
                       2SM FU BKN025 OVC030 FM141300 VRB03KT 1/2SM
                       FU OVC015=
202009132103 KBFI 132103Z 1321/1418 33004KT 1 1/2SM FU OVC024 FM140000 29004KT
                       2SM FU BKN025 OVC030 FM141300 VRB03KT 1/2SM
                       FU OVC015=
202009131725 TAF KBFI 131725Z 1318/1418 00000KT 1SM FU OVC025 FM132100 19006KT
                       2SM FU BKN012 OVC025 FM140000 19006KT 2SM
                       FU OVC025=
202009131508 KBFI 131508Z 1315/1412 00000KT 1SM FU OVC026 FM132100 19006KT 2SM
                       FU BKN012 OVC025 FM140000 19006KT 2SM FU
                       OVC025=
202009131133 TAF KBFI 131133Z 1312/1412 00000KT 1SM FU OVC030 FM131400 00000KT
                       1/2SM FU OVC002 FM132100 19006KT 2SM FU
                       BKN012 OVC025 FM140000 19006KT 2SM FU OVC025=
202009130542 TAF KBFI 130542Z 1306/1406 00000KT 1SM FU OVC030 FM131400 00000KT
                       1/2SM FU OVC002 FM132100 23006KT 2SM FU
                       OVC025=
202009122330 TAF KBFI 122330Z 1300/1324 VRB03KT 1SM FU OVC025 FM130100 VRB03KT
                       1 1/2SM FU OVC035 FM131000 18003KT 1SM FU
                       BKN008 OVC019=
202009122137 KBFI 122137Z 1222/1318 VRB03KT 1SM FU OVC012 FM130000 VRB03KT 2SM
                       FU OVC030 FM131200 18003KT 1SM FU BKN008
                       OVC019=
202009121744 TAF KBFI 121744Z 1218/1318 VRB03KT 1SM FU OVC009 FM122100 VRB03KT
                       2SM FU SCT012 OVC030 FM130000 VRB03KT 2SM
                       FU OVC030 FM131200 18003KT 1SM FU BKN008
                       OVC019=
202009121508 KBFI 121508Z 1215/1312 VRB03KT 1SM FU SCT009 OVC025 FM122300 VRB03KT
                       2SM FU OVC030=
202009121123 TAF KBFI 121123Z 1212/1312 19006KT 2SM FU OVC035 FM121700 VRB03KT
                       1SM FU OVC025 FM122300 VRB03KT 2SM FU OVC030=
202009121028 KBFI 121028Z 1210/1306 19006KT 2SM FU OVC035 FM121800 19006KT 1SM
                       FU OVC020 FM122100 19006KT 2SM FU OVC030=
202009120540 TAF KBFI 120540Z 1206/1306 19006KT 2SM FU OVC035 FM121100 19006KT
                       1SM FU OVC012 FM121800 19006KT 1SM FU OVC020
                       FM122100 19006KT 2SM FU OVC030=
202009112333 TAF KBFI 112333Z 1200/1224 17008KT 1 1/2SM FU OVC025 FM120300 00000KT
                       1SM FU OVC025 FM120900 00000KT 2SM FU OVC015
                       FM122000 24005KT 2SM FU BKN250=
202009112102 KBFI 112102Z 1121/1218 17008KT 1SM FU BKN250 FM120300 00000KT 1SM
                       FU BKN250 FM120900 00000KT 2SM FU OVC015=
202009111720 TAF KBFI 111720Z 1118/1218 17008KT 2SM FU SKC FM120300 00000KT
                       2SM FU SKC FM120900 00000KT 2SM FU OVC015=
202009111600 KBFI 111600Z 1116/1212 17008KT 2SM BR FU OVC008 FM111700 17008KT
                       4SM BR FU OVC012 FM111800 17008KT 6SM FU
                       SKC=
202009111303 KBFI 111303Z 1113/1212 17008KT 4SM BR FU SKC FM111500 17008KT 3SM
                       BR FU OVC008 FM111700 17008KT 4SM BR FU
                       OVC012 FM111800 17008KT 6SM FU SKC=
202009111130 TAF KBFI 111130Z 1112/1212 18008KT 4SM BR FU SKC FM111300 18008KT
                       3SM BR FU OVC008 FM111700 18008KT 4SM BR
                       FU OVC012 FM111800 18008KT 6SM FU SKC=
202009110539 TAF KBFI 110539Z 1106/1206 VRB03KT 6SM FU SKC FM110900 19006KT
                       6SM FU SKC FM111200 19008KT 4SM BR FU OVC009
                       FM111400 19008KT 2SM BR FU OVC005 FM111700
                       19008KT 4SM BR FU OVC009 FM111900 19008KT
                       6SM FU SKC=
202009102322 TAF KBFI 102322Z 1100/1124 32008KT 6SM FU SKC FM110800 22004KT
                       5SM FU SKC FM111200 22006KT 2SM BR FU SCT003
                       TEMPO 1112/1116 1SM BR FU BKN002 FM111900
                       22008KT 5SM FU SKC=
202009101722 TAF KBFI 101722Z 1018/1118 34008KT 6SM FU SKC FM110800 22004KT
                       5SM FU SKC FM111200 22006KT 4SM BR FU SCT004=
202009101130 TAF KBFI 101130Z 1012/1112 VRB03KT P6SM SKC FM101800 31008KT 6SM
                       FU SKC FM110800 19006KT P6SM SKC=
202009100523 TAF KBFI 100523Z 1006/1106 VRB03KT P6SM SKC FM101800 31008KT 6SM
                       FU SKC=
202009100258 KBFI 100258Z 1003/1024 VRB04KT 6SM FU SKC FM101200 20003KT 6SM
                       FU SKC FM101800 34006KT 6SM FU SKC=
202009092320 TAF KBFI 092320Z 1000/1024 32008KT 6SM FU SKC FM100400 VRB03KT
                       6SM FU SKC FM101800 34006KT 6SM FU SKC=
202009091720 TAF KBFI 091720Z 0918/1018 30005KT P6SM SKC FM091900 32008KT 6SM
                       FU SKC FM100400 VRB03KT P6SM SKC=
202009091125 TAF KBFI 091125Z 0912/1012 VRB03KT P6SM SKC FM091900 32008KT 6SM
                       FU SKC FM100400 VRB03KT P6SM SKC=
202009090520 TAF KBFI 090520Z 0906/1006 VRB03KT 6SM FU SKC FM091900 32008KT
                       6SM FU SKC FM100400 VRB03KT 6SM FU SKC=
202009090253 KBFI 090253Z 0903/0924 VRB04KT 6SM FU SKC FM090800 14003KT 6SM
                       FU SKC FM091700 34007KT 6SM HZ SKC=
202009082328 TAF KBFI 082328Z 0900/0924 32009KT 6SM FU SKC FM090600 VRB03KT
                       6SM FU SKC FM091700 34007KT P6SM SKC=
202009081723 TAF KBFI 081723Z 0818/0918 00000KT P6SM SKC FM082000 32008G16KT
                       P6SM SKC FM090000 32009KT P6SM SKC=
202009081138 TAF KBFI 081138Z 0812/0912 06004KT P6SM SKC
                      TEMPO 0812/0816 5SM HZ FU OVC040 FM082000
                       32008G16KT P6SM SKC FM090000 32009KT P6SM
                       SKC=
202009080538 TAF KBFI 080538Z 0806/0906 13012KT 6SM HZ FU BKN030 FM082000 32012G18KT
                       P6SM SKC FM090100 31006KT 6SM HZ SKC=
202009072332 TAF KBFI 072332Z 0800/0824 33012G21KT P6SM SKC FM080600 04006KT
                       P6SM SKC FM082000 32012G18KT P6SM SKC=
202009071739 TAF KBFI 071739Z 0718/0818 33006G15KT P6SM SCT014 FM071830 33014G24KT
                       P6SM SKC FM072300 33021G30KT P6SM SKC FM080400
                       33010KT P6SM SKC FM080700 13008KT P6SM SKC=
202009071137 TAF KBFI 071137Z 0712/0812 VRB03KT P6SM SCT250 FM071900 33014G24KT
                       P6SM SKC FM072300 33021G30KT P6SM SKC FM080400
                       33010KT P6SM SKC FM080700 13008KT P6SM SKC=
202009070524 TAF KBFI 070524Z 0706/0806 VRB03KT P6SM SCT200 FM071900 33016G24KT
                       P6SM FEW250 FM072300 33021G30KT P6SM BKN250=
202009062328 TAF KBFI 062328Z 0700/0724 31006KT P6SM SCT150 FM070300 01002KT
                       P6SM SCT200 FM071900 33016G20KT P6SM FEW250
                       FM072300 33021G30KT P6SM BKN250=
202009061734 TAF KBFI 061734Z 0618/0718 31006KT P6SM SCT150 FM070300 01002KT
                       P6SM SCT200=
202009061501 KBFI 061501Z 0615/0712 33002KT P6SM BKN010 FM061800 31006KT P6SM
                       SCT150 FM070300 01002KT P6SM SCT200=
202009061135 TAF KBFI 061135Z 0612/0712 30003KT P6SM SKC FM061300 33002KT P6SM
                       SCT020 FM061800 31006KT P6SM SCT150 FM070300
                       01002KT P6SM SCT200=
202009060535 TAF KBFI 060535Z 0606/0706 30006KT P6SM FEW250 FM061500 33002KT
                       P6SM SCT020 FM061800 33006KT P6SM SCT150
                       FM070300 01002KT P6SM SCT200=
202009052324 TAF KBFI 052324Z 0600/0624 30007KT P6SM SCT040 FM061500 33002KT
                       P6SM SCT020 FM061800 33006KT P6SM SCT150=
202009051726 TAF KBFI 051726Z 0518/0618 15005KT P6SM OVC026 FM051900 21005KT
                       P6SM FEW020 OVC060 FM052100 31006KT P6SM
                       FEW020 BKN060 FM061500 33002KT P6SM SCT020=
202009051123 TAF KBFI 051123Z 0512/0612 18006KT P6SM OVC015 FM051900 24005KT
                       P6SM FEW020 OVC060 FM052300 30006KT P6SM
                       SCT200=
202009050534 TAF KBFI 050534Z 0506/0606 20004KT P6SM SCT250 FM050900 18007KT
                       P6SM OVC015 FM051900 27005KT P6SM FEW022
                       SCT200 FM052300 30006KT P6SM SCT200=
202009042330 TAF KBFI 042330Z 0500/0524 VRB03KT P6SM BKN200 FM050300 21004KT
                       P6SM SCT200 FM050900 18007KT P6SM OVC015
                       FM051900 27005KT P6SM FEW022 SCT200 FM052300
                       30006KT P6SM SCT200=
202009041734 TAF KBFI 041734Z 0418/0518 VRB04KT P6SM SKC FM042100 29005KT P6SM
                       SKC FM050300 22003KT P6SM SCT200 FM051000
                       18007KT P6SM OVC015=
202009041136 TAF KBFI 041136Z 0412/0512 VRB03KT P6SM SKC FM041700 32004KT P6SM
                       SKC FM042100 29005KT P6SM SKC FM050300 22003KT
                       P6SM SCT250 FM051100 18007KT P6SM OVC030=
202009040522 TAF KBFI 040522Z 0406/0506 VRB03KT P6SM SKC FM041800 31004KT P6SM
                       SKC=
202009032333 TAF KBFI 032333Z 0400/0424 31008KT P6SM FEW250 FM040300 VRB03KT
                       P6SM SKC FM041800 32004KT P6SM SKC=
202009032045 KBFI 032045Z 0321/0418 31008KT P6SM FEW250 FM040300 VRB03KT P6SM
                       SKC=
202009031843 TAF KBFI 031843Z 0400/0424 33008KT P6SM FEW250 FM040300 VRB03KT
                       P6SM SKC=
202009031120 TAF KBFI 031120Z 0312/0412 VRB03KT P6SM FEW250 FM031800 33008KT
                       P6SM FEW250 FM040300 VRB03KT P6SM SKC=
202009030520 TAF KBFI 030520Z 0306/0406 VRB03KT P6SM FEW250 FM031800 33010KT
                       P6SM FEW250 FM040300 VRB03KT P6SM SKC=
202009022320 TAF KBFI 022320Z 0300/0324 30010KT P6SM FEW250 FM030300 00000KT
                       P6SM FEW250 FM031800 33010KT P6SM FEW250=
202009021723 TAF KBFI 021723Z 0218/0318 20005KT P6SM FEW060 FM022000 29007KT
                       P6SM FEW250 FM030300 VRB03KT P6SM FEW250=
202009021503 KBFI 021503Z 0215/0312 VRB03KT P6SM FEW060 FEW250 FM021700 20005KT
                       P6SM SCT250 FM022100 29007KT P6SM SCT250
                       FM030300 VRB03KT P6SM FEW250=
202009021120 TAF KBFI 021120Z 0212/0312 00000KT P6SM FEW250 FM021300 VRB03KT
                       P6SM BKN050 OVC250 FM021700 20005KT P6SM
                       SCT250 FM022100 29007KT P6SM SCT250 FM030300
                       VRB03KT P6SM FEW250=
202009020520 TAF KBFI 020520Z 0206/0306 00000KT P6SM FEW250 FM020900 VRB03KT
                       P6SM BKN050 OVC250 FM021700 22005KT P6SM
                       SCT250 FM022100 29007KT P6SM SCT250 FM030300
                       VRB03KT P6SM FEW250=
202009012328 TAF KBFI 012328Z 0200/0224 32006KT P6SM SCT250 FM020300 00000KT
                       P6SM FEW250 FM020900 00000KT P6SM BKN050
                       OVC250 FM021700 30007KT P6SM SCT250=
202009011721 TAF KBFI 011721Z 0118/0218 00000KT P6SM SCT050 SCT250 FM011900
                       32006KT P6SM SCT250 FM020300 VRB03KT P6SM
                       FEW250=
202009011120 TAF KBFI 011120Z 0112/0212 00000KT P6SM SCT050 SCT250 FM011900
                       32006KT P6SM SCT250 FM020300 VRB03KT P6SM
                       FEW250=
202009010520 TAF KBFI 010520Z 0106/0206 VRB03KT P6SM SCT050 SCT250 FM011000
                       00000KT P6SM SCT050 OVC100 FM011900 32006KT
                       P6SM SCT250 FM020300 VRB03KT P6SM FEW250=