##########################################################
# Query made at 02/17/2025 06:19:07 UTC
# Time interval: from 02/01/2020 00:00  to 02/29/2020 23:59  UTC
##########################################################

##########################################################
# KBFI, Seattle, Seattle Boeing Field (United States)
# WMO index: -----. WIGOS ID: Unknown
# Latitude 47-32-45N. Longitude 122-18-49W. Altitude 5 m.
##########################################################

###################################
#  METAR/SPECI from KBFI
###################################
202002292353 METAR KBFI 292353Z 00000KT 10SM BKN031 BKN039 09/02 A3011 RMK AO2 SLP194 T00890017 10094 20072 53005=
202002292253 METAR KBFI 292253Z 21005KT 10SM BKN039 09/02 A3010 RMK AO2 SLP192 T00890022=
202002292153 METAR KBFI 292153Z 19006KT 10SM BKN032 08/02 A3009 RMK AO2 SLP189 T00830022=
202002292053 METAR KBFI 292053Z 17006KT 10SM SCT018 OVC031 08/02 A3009 RMK AO2 SLP189 T00780022 51008=
202002291953 METAR KBFI 291953Z 18005KT 10SM BKN022 OVC029 07/03 A3009 RMK AO2 SLP189 T00720028=
202002291950 SPECI KBFI 291950Z 16004KT 10SM BKN022 07/03 A3009 RMK AO2=
202002291901 SPECI KBFI 291901Z 17007KT 10SM FEW022 SCT120 08/03 A3007 RMK AO2 T00780028=
202002291853 METAR KBFI 291853Z 17007KT 10SM BKN022 BKN120 07/03 A3007 RMK AO2 SLP181 T00720028=
202002291753 METAR KBFI 291753Z 19007KT 10SM BKN018 BKN075 08/03 A3005 RMK AO2 SLP175 T00780033 10078 20056 51024=
202002291653 METAR KBFI 291653Z 16006KT 10SM SCT016 SCT039 BKN100 07/03 A3003 RMK AO2 SLP168 T00670028=
202002291553 METAR KBFI 291553Z 20004KT 10SM SCT014 BKN039 OVC095 06/03 A3001 RMK AO2 SLP160 T00560028=
202002291453 METAR KBFI 291453Z VRB06KT 10SM BKN075 OVC090 06/02 A2998 RMK AO2 SLP151 T00560022 51023=
202002291353 METAR KBFI 291353Z VRB04KT 10SM BKN015 OVC021 06/02 A2997 RMK AO2 SLP148 T00610022=
202002291253 METAR KBFI 291253Z 21010G15KT 10SM OVC019 07/03 A2995 RMK AO2 SLP141 T00670028=
202002291153 METAR KBFI 291153Z 20008G20KT 160V230 10SM BKN019 OVC025 07/03 A2991 RMK AO2 SLP128 60002 70007 T00670033 10072 20061 58001=
202002291053 METAR KBFI 291053Z 20013G21KT 10SM BKN022 OVC028 07/03 A2992 RMK AO2 PK WND 19026/1000 SLP132 T00670033=
202002290953 METAR KBFI 290953Z 18013G21KT 10SM BKN022 06/03 A2992 RMK AO2 PK WND 18026/0859 RAB0858E16 SLP130 P0000 T00610033=
202002290949 SPECI KBFI 290949Z 17016G21KT 10SM BKN022 06/03 A2992 RMK AO2 PK WND 18026/0859 RAB0858E16 P0000=
202002290942 SPECI KBFI 290942Z 18013G20KT 10SM SCT022 06/03 A2992 RMK AO2 PK WND 18026/0859 RAB0858E16 P0000 T00610033=
202002290853 METAR KBFI 290853Z 18018G26KT 10SM BKN018 OVC023 07/03 A2991 RMK AO2 PK WND 16035/0807 RAE26 SLP127 P0000 60002 T00670033 56004=
202002290753 METAR KBFI 290753Z 18018G27KT 8SM RA OVC033 07/03 A2991 RMK AO2 PK WND 19029/0720 SLP128 P0002 T00670033 401000022=
202002290653 METAR KBFI 290653Z 17016G26KT 10SM -RA OVC033 07/03 A2991 RMK AO2 PK WND 17026/0648 RAE30B42 SLP129 P0000 T00720028=
202002290639 SPECI KBFI 290639Z 17013G20KT 10SM FEW026 OVC035 07/03 A2992 RMK AO2 RAE30 P0000 T00720028=
202002290613 SPECI KBFI 290613Z 17012G18KT 10SM -RA BKN028 OVC037 07/03 A2993 RMK AO2 P0000 T00670033=
202002290553 METAR KBFI 290553Z 17014G20KT 10SM -RA SCT035 OVC046 07/03 A2992 RMK AO2 RAE0458B39 SLP130 P0000 60005 T00720028 10094 20067 58011=
202002290453 METAR KBFI 290453Z 17016G23KT 10SM -RA FEW023 SCT035 SCT042 07/03 A2993 RMK AO2 RAB04E26B49 SLP136 P0000 T00670033=
202002290353 METAR KBFI 290353Z 18016G22KT 10SM FEW018 SCT033 07/04 A2996 RMK AO2 SLP144 T00720039=
202002290253 METAR KBFI 290253Z 18010G18KT 10SM FEW040 BKN100 07/03 A2995 RMK AO2 RAE15 SLP142 P0000 60005 T00720033 52002=
202002290153 METAR KBFI 290153Z 23010G22KT 4SM -RA SCT019 SCT028 OVC036 08/04 A2995 RMK AO2 SLP143 P0005 T00780039=
202002290053 METAR KBFI 290053Z 19011G17KT 10SM -RA BKN032 BKN050 OVC080 09/05 A2994 RMK AO2 RAB22 SLP138 P0000 T00890050=
202002282353 METAR KBFI 282353Z 21012KT 10SM SCT027 BKN110 09/04 A2994 RMK AO2 SLP139 T00940039 10100 20050 56014=
202002282253 METAR KBFI 282253Z 21009G18KT 10SM FEW022 BKN160 BKN250 10/04 A2995 RMK AO2 SLP142 T01000044=
202002282153 METAR KBFI 282153Z 21008G16KT 10SM SCT012 BKN250 09/04 A2996 RMK AO2 SLP143 T00940044=
202002282053 METAR KBFI 282053Z 17010G20KT 10SM OVC010 07/04 A2999 RMK AO2 SLP154 T00670039 58029=
202002282043 SPECI KBFI 282043Z 16012G17KT 10SM OVC010 07/04 A2999 RMK AO2 T00720044=
202002281953 METAR KBFI 281953Z 16008KT 8SM OVC009 06/04 A3003 RMK AO2 SLP168 T00610039=
202002281932 SPECI KBFI 281932Z 16009KT 6SM BR OVC008 07/04 A3004 RMK AO2 CIG 008V013 T00670044=
202002281853 METAR KBFI 281853Z 18005KT 2 1/2SM BR OVC006 06/04 A3005 RMK AO2 CIG 003V010 SLP176 T00610044=
202002281753 METAR KBFI 281753Z 15006KT 2 1/2SM BR OVC003 05/04 A3007 RMK AO2 SLP183 T00500039 10050 20022 58017=
202002281749 SPECI KBFI 281749Z 15005KT 3SM BR OVC003 05/04 A3007 RMK AO2=
202002281653 METAR KBFI 281653Z 14008KT 1SM BR OVC003 05/04 A3009 RMK AO2 SLP188 T00500044=
202002281553 METAR KBFI 281553Z 14006KT 1SM BR VV003 04/04 A3011 RMK AO2 SLP197 T00440039=
202002281506 SPECI KBFI 281506Z 15006KT 1SM BR OVC003 04/03 A3012 RMK AO2 T00440033=
202002281453 METAR KBFI 281453Z 16005KT 6SM BR SCT003 OVC005 04/03 A3012 RMK AO2 SLP200 T00440028 58017=
202002281353 METAR KBFI 281353Z 00000KT 10SM BKN006 03/02 A3015 RMK AO2 SLP208 T00330022=
202002281339 SPECI KBFI 281339Z 00000KT 10SM BKN008 03/02 A3015 RMK AO2 T00330017=
202002281332 SPECI KBFI 281332Z 00000KT 10SM FEW008 03/02 A3015 RMK AO2 T00280017=
202002281253 METAR KBFI 281253Z 00000KT 10SM CLR 03/02 A3016 RMK AO2 SLP212 T00330022=
202002281153 METAR KBFI 281153Z 15008KT 10SM CLR 03/01 A3017 RMK AO2 SLP217 T00280011 10083 20028 58023=
202002281053 METAR KBFI 281053Z 00000KT 10SM CLR 04/02 A3020 RMK AO2 SLP226 T00390022=
202002280953 METAR KBFI 280953Z 00000KT 10SM CLR 04/03 A3022 RMK AO2 SLP233 T00440028=
202002280853 METAR KBFI 280853Z 00000KT 10SM CLR 06/03 A3024 RMK AO2 SLP239 T00560033 58024=
202002280753 METAR KBFI 280753Z 00000KT 10SM CLR 06/03 A3026 RMK AO2 SLP247 T00610028 401440033=
202002280653 METAR KBFI 280653Z 00000KT 10SM CLR 07/03 A3029 RMK AO2 SLP257 T00720033=
202002280553 METAR KBFI 280553Z 31003KT 10SM CLR 08/04 A3031 RMK AO2 SLP263 T00830039 10144 20083 58005=
202002280453 METAR KBFI 280453Z 00000KT 10SM CLR 08/04 A3032 RMK AO2 SLP267 T00830039=
202002280353 METAR KBFI 280353Z VRB03KT 10SM CLR 09/04 A3032 RMK AO2 SLP266 T00890044=
202002280253 METAR KBFI 280253Z 32004KT 10SM CLR 10/04 A3033 RMK AO2 SLP268 T01000044 55011=
202002280153 METAR KBFI 280153Z 31003KT 10SM CLR 12/04 A3032 RMK AO2 SLP268 T01170039=
202002280053 METAR KBFI 280053Z 00000KT 10SM FEW250 14/03 A3034 RMK AO2 SLP272 T01440028=
202002272353 METAR KBFI 272353Z 21003KT 10SM CLR 14/03 A3036 RMK AO2 SLP280 T01390028 10144 20083 56021=
202002272253 METAR KBFI 272253Z 23004KT 10SM SCT250 14/02 A3038 RMK AO2 SLP285 T01390022=
202002272153 METAR KBFI 272153Z 00000KT 10SM SCT250 13/03 A3039 RMK AO2 SLP292 T01280028=
202002272053 METAR KBFI 272053Z 19006KT 10SM CLR 12/03 A3042 RMK AO2 SLP301 T01220033 58019=
202002271953 METAR KBFI 271953Z 17007KT 10SM FEW100 BKN250 12/03 A3045 RMK AO2 SLP311 T01170033=
202002271853 METAR KBFI 271853Z VRB03KT 10SM FEW100 SCT250 10/04 A3047 RMK AO2 SLP318 T01000039=
202002271753 METAR KBFI 271753Z 14006KT 10SM FEW080 SCT250 09/04 A3048 RMK AO2 SLP320 T00890039 10089 20033 50002=
202002271653 METAR KBFI 271653Z VRB04KT 10SM FEW030 SCT110 07/03 A3048 RMK AO2 SLP322 T00670033=
202002271553 METAR KBFI 271553Z 14005KT 10SM SCT110 05/02 A3048 RMK AO2 SLP319 T00500022=
202002271453 METAR KBFI 271453Z 15006KT 10SM BKN100 04/02 A3047 RMK AO2 SLP318 T00390017 58003=
202002271353 METAR KBFI 271353Z 15005KT 10SM OVC075 04/02 A3047 RMK AO2 SLP319 T00390017=
202002271253 METAR KBFI 271253Z 15005KT 10SM BKN075 04/02 A3048 RMK AO2 SLP322 T00390017=
202002271153 METAR KBFI 271153Z 11003KT 10SM BKN080 06/03 A3048 RMK AO2 SLP321 T00610028 10083 20056 58005=
202002271053 METAR KBFI 271053Z 10003KT 10SM FEW120 07/03 A3048 RMK AO2 SLP322 T00670028=
202002270953 METAR KBFI 270953Z 00000KT 10SM SCT090 07/03 A3050 RMK AO2 SLP327 T00670033=
202002270853 METAR KBFI 270853Z 13004KT 10SM SCT110 06/03 A3050 RMK AO2 SLP326 T00610033 57003=
202002270753 METAR KBFI 270753Z 16003KT 10SM FEW037 SCT100 06/03 A3050 RMK AO2 SLP327 T00610033 401220056=
202002270653 METAR KBFI 270653Z 13003KT 10SM SCT100 07/04 A3050 RMK AO2 SLP329 T00720039=
202002270553 METAR KBFI 270553Z 12003KT 10SM BKN100 08/04 A3050 RMK AO2 SLP329 T00780039 10122 20078 55004=
202002270453 METAR KBFI 270453Z 11005KT 10SM FEW110 09/04 A3050 RMK AO2 SLP328 T00890039=
202002270353 METAR KBFI 270353Z 15006KT 10SM CLR 08/04 A3051 RMK AO2 SLP330 T00830039=
202002270253 METAR KBFI 270253Z AUTO VRB03KT 10SM CLR 10/03 A3052 RMK AO2 SLP334 T01000033 55001=
202002270153 METAR KBFI 270153Z 15003KT 10SM CLR 10/01 A3051 RMK AO2 SLP332 T01000011=
202002270053 METAR KBFI 270053Z 16004KT 10SM SCT035 11/02 A3052 RMK AO2 SLP334 T01110017=
202002262353 METAR KBFI 262353Z 00000KT 10SM BKN032 BKN045 12/02 A3052 RMK AO2 SLP335 T01220017 10122 20078 58002=
202002262253 METAR KBFI 262253Z 19005KT 10SM BKN032 OVC040 12/04 A3053 RMK AO2 SLP336 T01170044=
202002262249 SPECI KBFI 262249Z 18005KT 10SM BKN030 OVC040 12/04 A3053 RMK AO2=
202002262208 SPECI KBFI 262208Z 20006KT 10SM BKN027 OVC037 11/04 A3053 RMK AO2 T01110044=
202002262153 METAR KBFI 262153Z VRB05KT 10SM BKN034 BKN048 11/04 A3053 RMK AO2 SLP337 T01110044=
202002262053 METAR KBFI 262053Z VRB03KT 10SM BKN028 BKN034 10/05 A3054 RMK AO2 SLP341 T01000050 50003=
202002261953 METAR KBFI 261953Z 13005KT 10SM OVC018 09/05 A3056 RMK AO2 SLP346 T00890050=
202002261853 METAR KBFI 261853Z 00000KT 10SM OVC016 08/05 A3054 RMK AO2 SLP342 T00830050=
202002261845 SPECI KBFI 261845Z 24003KT 10SM OVC016 08/05 A3054 RMK AO2 T00830050=
202002261753 METAR KBFI 261753Z 00000KT 10SM BKN010 BKN017 08/06 A3053 RMK AO2 SLP339 T00830056 10083 20067 51011=
202002261655 SPECI KBFI 261655Z 00000KT 10SM BKN010 OVC041 08/06 A3053 RMK AO2 T00780056=
202002261653 METAR KBFI 261653Z 00000KT 10SM SCT010 OVC041 08/06 A3053 RMK AO2 SLP337 T00780056=
202002261553 METAR KBFI 261553Z 00000KT 5SM BR OVC011 07/05 A3052 RMK AO2 SLP333 T00720050=
202002261453 METAR KBFI 261453Z 00000KT 3SM BR BKN007 OVC019 07/06 A3050 RMK AO2 SLP328 T00720056 53012=
202002261403 SPECI KBFI 261403Z 00000KT 2 1/2SM BR BKN005 OVC019 07/06 A3049 RMK AO2 T00670056=
202002261400 SPECI KBFI 261400Z 00000KT 8SM OVC019 07/06 A3049 RMK AO2 T00670056=
202002261353 METAR KBFI 261353Z 00000KT 2SM BR OVC005 07/06 A3048 RMK AO2 SLP322 T00670056=
202002261253 METAR KBFI 261253Z 15004KT 2SM BR OVC005 07/06 A3047 RMK AO2 SLP316 T00670056=
202002261218 SPECI KBFI 261218Z 00000KT 2SM BR OVC008 07/06 A3047 RMK AO2 T00670056=
202002261153 METAR KBFI 261153Z 17003KT 6SM BR BKN010 07/06 A3047 RMK AO2 SLP316 T00720056 10094 20072 51009=
202002261135 SPECI KBFI 261135Z 16003KT 10SM BKN010 07/06 A3047 RMK AO2 T00720056=
202002261053 METAR KBFI 261053Z 15005KT 10SM OVC027 07/05 A3045 RMK AO2 SLP312 T00720050=
202002260953 METAR KBFI 260953Z 26004KT 10SM OVC025 08/04 A3046 RMK AO2 SLP313 T00830044=
202002260853 METAR KBFI 260853Z 00000KT 10SM OVC030 09/04 A3044 RMK AO2 SLP307 T00890044 58005=
202002260753 METAR KBFI 260753Z 00000KT 10SM SCT033 OVC040 09/04 A3044 RMK AO2 SLP309 T00890039 401110011=
202002260653 METAR KBFI 260653Z 00000KT 10SM OVC032 09/03 A3045 RMK AO2 SLP311 T00940033=
202002260553 METAR KBFI 260553Z 00000KT 10SM OVC035 09/03 A3045 RMK AO2 SLP312 60000 T00940033 10106 20089 56001=
202002260453 METAR KBFI 260453Z 00000KT 10SM OVC039 09/03 A3046 RMK AO2 SLP312 T00940033=
202002260353 METAR KBFI 260353Z 00000KT 10SM FEW036 OVC049 09/02 A3045 RMK AO2 RAB04E47 SLP312 P0000 T00940022=
202002260253 METAR KBFI 260253Z 14003KT 10SM OVC048 09/02 A3046 RMK AO2 SLP313 T00940017 56007=
202002260153 METAR KBFI 260153Z 00000KT 10SM OVC050 10/01 A3046 RMK AO2 SLP314 T01000006=
202002260053 METAR KBFI 260053Z VRB03KT 10SM BKN065 10/01 A3045 RMK AO2 SLP310 T01000006=
202002252353 METAR KBFI 252353Z 24004KT 10SM BKN080 BKN110 11/M01 A3048 RMK AO2 SLP320 60000 T01061011 10111 20056 56020=
202002252253 METAR KBFI 252253Z 00000KT 10SM BKN085 11/00 A3048 RMK AO2 SLP321 T01060000=
202002252153 METAR KBFI 252153Z 18003KT 10SM SCT070 BKN090 BKN110 10/01 A3050 RMK AO2 RAB28E38 SLP328 P0000 T01000011=
202002252053 METAR KBFI 252053Z 00000KT 10SM OVC110 09/01 A3054 RMK AO2 SLP340 T00890011 58001=
202002251953 METAR KBFI 251953Z 00000KT 10SM FEW050 BKN100 08/00 A3054 RMK AO2 SLP343 T00830000=
202002251853 METAR KBFI 251853Z 00000KT 10SM SCT160 BKN200 07/00 A3056 RMK AO2 SLP346 T00720000=
202002251753 METAR KBFI 251753Z 14005KT 10SM FEW120 06/00 A3054 RMK AO2 SLP341 T00560000 10056 20011 58010=
202002251653 METAR KBFI 251653Z 00000KT 10SM BKN180 04/01 A3058 RMK AO2 SLP355 T00440006=
202002251553 METAR KBFI 251553Z 13003KT 10SM BKN150 03/00 A3058 RMK AO2 SLP354 T00330000=
202002251453 METAR KBFI 251453Z 16003KT 10SM SCT150 BKN200 02/M01 A3057 RMK AO2 SLP351 T00171006 58012=
202002251353 METAR KBFI 251353Z 14005KT 10SM CLR 02/M01 A3059 RMK AO2 SLP358 T00171011=
202002251253 METAR KBFI 251253Z 00000KT 10SM CLR 03/00 A3061 RMK AO2 SLP363 T00280000=
202002251153 METAR KBFI 251153Z 00000KT 10SM CLR 03/M01 A3060 RMK AO2 SLP363 T00331006 10067 20033 56010=
202002251053 METAR KBFI 251053Z 00000KT 10SM CLR 04/00 A3061 RMK AO2 SLP364 T00440000=
202002250953 METAR KBFI 250953Z 00000KT 10SM OVC060 04/00 A3063 RMK AO2 SLP370 T00440000=
202002250853 METAR KBFI 250853Z 16003KT 10SM OVC060 04/00 A3063 RMK AO2 SLP372 T00440000 56001=
202002250753 METAR KBFI 250753Z 00000KT 10SM SCT055 OVC070 06/00 A3064 RMK AO2 SLP373 T00610000 401000033=
202002250653 METAR KBFI 250653Z 00000KT 10SM SCT055 OVC070 06/00 A3063 RMK AO2 SLP372 T00610000=
202002250553 METAR KBFI 250553Z 00000KT 10SM OVC055 07/M01 A3064 RMK AO2 SLP374 T00671011 10100 20067 51010=
202002250453 METAR KBFI 250453Z 00000KT 10SM BKN055 BKN180 07/M01 A3063 RMK AO2 SLP371 T00671006=
202002250353 METAR KBFI 250353Z 08003KT 10SM OVC055 07/00 A3062 RMK AO2 SLP367 T00720000=
202002250253 METAR KBFI 250253Z VRB03KT 10SM BKN055 BKN180 07/M01 A3061 RMK AO2 SLP364 T00721006 51003=
202002250153 METAR KBFI 250153Z 03004KT 10SM BKN060 08/M01 A3061 RMK AO2 SLP363 T00781006=
202002250053 METAR KBFI 250053Z 05005KT 10SM BKN060 BKN200 08/M01 A3060 RMK AO2 SLP362 T00831011=
202002242353 METAR KBFI 242353Z 02005KT 10SM BKN055 10/M01 A3060 RMK AO2 SLP361 T01001011 10100 20067 53003=
202002242253 METAR KBFI 242253Z 07005KT 10SM SCT047 BKN060 BKN250 09/M03 A3059 RMK AO2 SLP358 T00941028=
202002242153 METAR KBFI 242153Z 12004KT 10SM SCT032 BKN250 09/M03 A3059 RMK AO2 SLP357 T00891028=
202002242053 METAR KBFI 242053Z 18003KT 10SM BKN035 BKN055 BKN200 09/M01 A3059 RMK AO2 SLP358 T00891011 58001=
202002241953 METAR KBFI 241953Z 00000KT 10SM BKN035 BKN250 08/00 A3060 RMK AO2 SLP361 T00780000=
202002241853 METAR KBFI 241853Z 23004KT 10SM SCT027 BKN250 07/01 A3060 RMK AO2 SLP361 T00720006=
202002241753 METAR KBFI 241753Z 16006KT 10SM FEW040 OVC250 07/01 A3059 RMK AO2 SLP358 T00670006 10067 20033 51017=
202002241653 METAR KBFI 241653Z 17005KT 10SM SCT040 BKN250 06/01 A3058 RMK AO2 SLP354 T00610006=
202002241553 METAR KBFI 241553Z 15006KT 10SM SCT050 BKN250 04/00 A3056 RMK AO2 SLP348 T00390000=
202002241453 METAR KBFI 241453Z 15005KT 10SM FEW050 04/M01 A3054 RMK AO2 SLP341 T00441006 51019=
202002241353 METAR KBFI 241353Z 18005KT 10SM CLR 06/M01 A3053 RMK AO2 SLP337 T00561011=
202002241253 METAR KBFI 241253Z VRB03KT 10SM CLR 06/M01 A3051 RMK AO2 SLP330 T00561011=
202002241153 METAR KBFI 241153Z 20006KT 10SM BKN050 06/M01 A3049 RMK AO2 SLP323 70013 T00561006 10067 20056 51023=
202002241053 METAR KBFI 241053Z 18008KT 10SM CLR 06/M01 A3047 RMK AO2 SLP317 T00561006=
202002240953 METAR KBFI 240953Z 18008G20KT 10SM SCT034 06/00 A3045 RMK AO2 SLP311 T00610000=
202002240917 SPECI KBFI 240917Z 20010G20KT 10SM SCT030 06/00 A3043 RMK AO2 T00610000=
202002240853 METAR KBFI 240853Z 20009G18KT 10SM OVC027 06/01 A3042 RMK AO2 SLP300 T00610006 53044=
202002240753 METAR KBFI 240753Z 25007G18KT 200V290 10SM OVC023 06/02 A3037 RMK AO2 SLP284 T00610017 401000039=
202002240653 METAR KBFI 240653Z 21011G17KT 10SM OVC023 06/02 A3033 RMK AO2 SLP271 T00610017=
202002240622 SPECI KBFI 240622Z 20010G22KT 10SM BKN023 07/02 A3031 RMK AO2 T00670017=
202002240553 METAR KBFI 240553Z 20009G17KT 10SM SCT023 06/02 A3029 RMK AO2 SLP257 T00610017 10089 20061 53039=
202002240453 METAR KBFI 240453Z 21009G25KT 10SM SCT024 07/02 A3024 RMK AO2 PK WND 22030/0432 SLP240 T00670017=
202002240358 SPECI KBFI 240358Z 20016G24KT 10SM SCT024 07/02 A3021 RMK AO2 T00670017=
202002240353 METAR KBFI 240353Z 21017G25KT 10SM BKN024 07/02 A3020 RMK AO2 PK WND 22030/0321 SLP227 T00670017=
202002240253 METAR KBFI 240253Z 20017G27KT 10SM BKN024 07/02 A3017 RMK AO2 PK WND 21027/0252 SLP217 T00670017 51029=
202002240153 METAR KBFI 240153Z 22010G26KT 10SM BKN024 07/02 A3016 RMK AO2 PK WND 21026/0135 SLP211 T00670017=
202002240053 METAR KBFI 240053Z 21010G26KT 180V250 10SM BKN028 08/02 A3012 RMK AO2 PK WND 21029/0025 SLP200 T00780017=
202002232353 METAR KBFI 232353Z 21011G24KT 10SM BKN030 09/02 A3009 RMK AO2 PK WND 24029/2339 RAB2258E13 SLP188 P0000 60000 T00890022 10100 20072 53035=
202002232253 METAR KBFI 232253Z 22008G18KT 10SM BKN035 BKN040 09/03 A3005 RMK AO2 PK WND 24026/2156 SLP175 T00940028=
202002232153 METAR KBFI 232153Z 20017G25KT 10SM BKN026 09/03 A3001 RMK AO2 SLP161 T00940028=
202002232053 METAR KBFI 232053Z 18013G24KT 150V220 10SM BKN026 09/04 A2999 RMK AO2 RAE04 SLP153 P0000 60000 T00940039 51013=
202002232009 SPECI KBFI 232009Z 20009G19KT 10SM SCT026 BKN035 BKN044 08/04 A2998 RMK AO2 RAE04 P0000 T00780039=
202002231953 METAR KBFI 231953Z 20010G21KT 10SM -RA SCT026 BKN035 OVC044 07/03 A2998 RMK AO2 RAB39 SLP153 P0000 T00720033=
202002231923 SPECI KBFI 231923Z 24008G19KT 10SM SCT025 BKN042 OVC055 08/02 A2999 RMK AO2 T00780022=
202002231853 METAR KBFI 231853Z 19013G20KT 10SM BKN029 BKN036 08/02 A2995 RMK AO2 SLP142 T00830022=
202002231753 METAR KBFI 231753Z 22015G21KT 10SM BKN023 BKN028 08/03 A2995 RMK AO2 PK WND 22026/1720 SLP140 60013 T00780033 10094 20050 51056=
202002231719 SPECI KBFI 231719Z 20011G24KT 10SM BKN019 BKN025 BKN060 07/03 A2991 RMK AO2 T00720033=
202002231653 METAR KBFI 231653Z 19015G25KT 10SM SCT021 SCT080 06/03 A2990 RMK AO2 PK WND 18026/1620 RAE1559 PRESRR SLP126 P0000 T00610028=
202002231553 METAR KBFI 231553Z 18011G16KT 150V220 10SM -RA BKN021 OVC035 07/03 A2984 RMK AO2 PK WND 20035/1504 WSHFT 1503 SLP105 P0009 T00670028=
202002231523 SPECI KBFI 231523Z 25012G24KT 3SM -RA BKN021 OVC035 07/04 A2984 RMK AO2 PK WND 20035/1504 WSHFT 1503 P0009 T00720039=
202002231507 SPECI KBFI 231507Z 21021G35KT 170V240 4SM RA BKN021 OVC035 09/05 A2983 RMK AO2 PK WND 20035/1504 PRESRR P0006 T00890050=
202002231453 METAR KBFI 231453Z 19007KT 6SM RA OVC035 09/05 A2978 RMK AO2 SLP085 P0003 60004 T00890050 56045=
202002231353 METAR KBFI 231353Z 14014KT 9SM -RA OVC043 07/03 A2979 RMK AO2 SLP089 P0001 T00670033=
202002231253 METAR KBFI 231253Z 12003KT 10SM -RA OVC042 06/03 A2986 RMK AO2 RAB1156 SLP110 P0000 T00560033=
202002231153 METAR KBFI 231153Z 17004KT 10SM BKN045 OVC055 05/03 A2992 RMK AO2 PRESFR SLP130 T00500033 10072 20039 58042=
202002231053 METAR KBFI 231053Z 15007KT 10SM BKN032 OVC070 05/03 A2998 RMK AO2 SLP151 T00500033=
202002230953 METAR KBFI 230953Z 16003KT 10SM BKN035 OVC085 05/03 A3001 RMK AO2 SLP162 T00500028=
202002230853 METAR KBFI 230853Z 00000KT 10SM CLR 06/03 A3004 RMK AO2 SLP171 T00560028 58021=
202002230753 METAR KBFI 230753Z 00000KT 10SM OVC110 07/04 A3007 RMK AO2 SLP180 T00670039 400940050=
202002230653 METAR KBFI 230653Z 11003KT 10SM OVC075 07/04 A3008 RMK AO2 SLP185 T00670039=
202002230553 METAR KBFI 230553Z 15004KT 10SM OVC100 07/04 A3010 RMK AO2 SLP192 T00670039 10094 20067 56013=
202002230453 METAR KBFI 230453Z 00000KT 10SM FEW045 BKN110 07/03 A3011 RMK AO2 SLP196 T00720033=
202002230353 METAR KBFI 230353Z 00000KT 10SM FEW050 BKN120 07/03 A3012 RMK AO2 SLP199 T00720033=
202002230253 METAR KBFI 230253Z 31003KT 10SM BKN022 08/03 A3014 RMK AO2 SLP205 T00780033 55003=
202002230212 SPECI KBFI 230212Z 00000KT 10SM BKN022 08/03 A3013 RMK AO2 T00830033=
202002230153 METAR KBFI 230153Z 28004KT 10SM FEW023 SCT049 BKN100 08/03 A3013 RMK AO2 SLP203 T00830033=
202002230053 METAR KBFI 230053Z 00000KT 10SM BKN023 09/04 A3014 RMK AO2 SLP206 T00890039=
202002222353 METAR KBFI 222353Z 16004KT 10SM BKN020 BKN050 OVC100 09/04 A3015 RMK AO2 SLP208 60000 T00890044 10094 20072 56015=
202002222253 METAR KBFI 222253Z 00000KT 10SM SCT020 BKN030 OVC050 09/04 A3016 RMK AO2 SLP212 T00940039=
202002222153 METAR KBFI 222153Z 00000KT 10SM SCT015 BKN035 OVC050 09/04 A3017 RMK AO2 SLP216 T00890044=
202002222108 SPECI KBFI 222108Z 00000KT 10SM FEW009 BKN015 OVC038 08/05 A3018 RMK AO2 T00830050=
202002222053 METAR KBFI 222053Z 00000KT 5SM BR OVC009 08/06 A3019 RMK AO2 RAB00E14B33E43 SLP223 P0000 60000 T00780056 50002=
202002222041 SPECI KBFI 222041Z 00000KT 5SM -RA BR OVC009 08/06 A3019 RMK AO2 RAB00E14B33 P0000 T00780056=
202002221953 METAR KBFI 221953Z 00000KT 9SM OVC010 08/04 A3020 RMK AO2 SLP227 T00780044=
202002221853 METAR KBFI 221853Z 22003KT 10SM OVC015 07/04 A3020 RMK AO2 SLP225 T00720039=
202002221753 METAR KBFI 221753Z 16004KT 10SM OVC017 07/03 A3019 RMK AO2 SLP221 T00720028 10072 20050 51025=
202002221653 METAR KBFI 221653Z 00000KT 10SM OVC020 07/02 A3017 RMK AO2 SLP216 T00720022=
202002221553 METAR KBFI 221553Z 15007KT 10SM BKN016 OVC020 07/02 A3014 RMK AO2 SLP205 T00670022=
202002221453 METAR KBFI 221453Z 14008KT 10SM BKN020 OVC090 06/02 A3011 RMK AO2 SLP196 T00560017 56005=
202002221353 METAR KBFI 221353Z 14009KT 10SM SCT019 SCT095 05/02 A3011 RMK AO2 SLP196 T00500017=
202002221349 SPECI KBFI 221349Z 13010KT 10SM SCT019 SCT095 05/02 A3011 RMK AO2=
202002221253 METAR KBFI 221253Z 14012KT 10SM OVC019 06/02 A3013 RMK AO2 SLP201 T00560017=
202002221153 METAR KBFI 221153Z 14010KT 10SM OVC021 05/02 A3013 RMK AO2 SLP203 T00500017 10072 20050 58008=
202002221053 METAR KBFI 221053Z 14011KT 10SM OVC022 05/02 A3015 RMK AO2 SLP208 T00500017=
202002220953 METAR KBFI 220953Z 15008KT 10SM OVC022 06/02 A3016 RMK AO2 SLP211 T00560022=
202002220907 SPECI KBFI 220907Z 15007KT 10SM BKN022 06/02 A3016 RMK AO2 T00610022=
202002220853 METAR KBFI 220853Z 17007KT 10SM SCT022 06/02 A3016 RMK AO2 SLP212 T00610022 53001=
202002220753 METAR KBFI 220753Z 17005KT 10SM CLR 06/02 A3015 RMK AO2 SLP209 T00610022 401331006=
202002220653 METAR KBFI 220653Z 22005KT 10SM CLR 07/02 A3016 RMK AO2 SLP212 T00720022=
202002220553 METAR KBFI 220553Z 17003KT 10SM CLR 07/02 A3015 RMK AO2 SLP210 T00670022 10128 20061 51007=
202002220453 METAR KBFI 220453Z 17005KT 10SM CLR 07/01 A3015 RMK AO2 SLP208 T00670011=
202002220353 METAR KBFI 220353Z 00000KT 10SM CLR 09/01 A3014 RMK AO2 SLP206 T00940011=
202002220253 METAR KBFI 220253Z 00000KT 10SM BKN250 10/00 A3013 RMK AO2 SLP203 T01000000 55002=
202002220153 METAR KBFI 220153Z 18003KT 10SM BKN250 11/00 A3012 RMK AO2 SLP198 T01110000=
202002220053 METAR KBFI 220053Z VRB03KT 10SM SCT250 12/M01 A3012 RMK AO2 SLP201 T01171006=
202002212353 METAR KBFI 212353Z 19005KT 10SM SCT250 13/M01 A3014 RMK AO2 SLP205 T01281011 10133 20067 56016=
202002212253 METAR KBFI 212253Z 16007KT 10SM SCT250 13/M01 A3014 RMK AO2 SLP207 T01331011=
202002212153 METAR KBFI 212153Z 17006KT 10SM SCT250 13/M01 A3017 RMK AO2 SLP215 T01281011=
202002212053 METAR KBFI 212053Z 21006KT 10SM CLR 12/M02 A3018 RMK AO2 SLP221 T01171017 58017=
202002211953 METAR KBFI 211953Z 15007KT 10SM SCT250 11/01 A3021 RMK AO2 SLP230 T01110006=
202002211853 METAR KBFI 211853Z 14004KT 10SM SCT250 09/01 A3022 RMK AO2 SLP232 T00890006=
202002211753 METAR KBFI 211753Z 00000KT 10SM BKN250 07/00 A3023 RMK AO2 SLP237 T00670000 10067 21006 50005=
202002211653 METAR KBFI 211653Z 16003KT 10SM SCT210 03/M01 A3024 RMK AO2 SLP238 T00331006=
202002211553 METAR KBFI 211553Z 12003KT 10SM CLR 02/M02 A3023 RMK AO2 SLP236 T00171017=
202002211453 METAR KBFI 211453Z 14005KT 10SM CLR 01/M02 A3022 RMK AO2 SLP232 T00061022 58003=
202002211353 METAR KBFI 211353Z 14005KT 10SM CLR 00/M03 A3023 RMK AO2 SLP235 T00001028=
202002211253 METAR KBFI 211253Z 00000KT 10SM CLR 01/M02 A3023 RMK AO2 SLP237 T00111022=
202002211153 METAR KBFI 211153Z 00000KT 10SM CLR 00/M03 A3023 RMK AO2 SLP235 T00001028 10056 20000 58004=
202002211053 METAR KBFI 211053Z 00000KT 10SM CLR 02/M02 A3024 RMK AO2 SLP240 T00171017=
202002210953 METAR KBFI 210953Z 00000KT 10SM CLR 02/M02 A3024 RMK AO2 SLP238 T00221017=
202002210853 METAR KBFI 210853Z 00000KT 10SM CLR 02/M01 A3024 RMK AO2 SLP239 T00221011 55005=
202002210753 METAR KBFI 210753Z 00000KT 10SM CLR 03/M01 A3024 RMK AO2 SLP239 T00331006 401330000=
202002210653 METAR KBFI 210653Z 00000KT 10SM CLR 04/M01 A3025 RMK AO2 SLP243 T00441011=
202002210553 METAR KBFI 210553Z 00000KT 10SM CLR 06/01 A3025 RMK AO2 SLP244 T00560006 10133 20050 53010=
202002210453 METAR KBFI 210453Z 00000KT 10SM CLR 07/02 A3024 RMK AO2 SLP240 T00720017=
202002210353 METAR KBFI 210353Z 00000KT 10SM CLR 07/M02 A3023 RMK AO2 SLP235 T00721017=
202002210253 METAR KBFI 210253Z 00000KT 10SM CLR 09/M02 A3022 RMK AO2 SLP233 T00891022 53002=
202002210153 METAR KBFI 210153Z 30003KT 10SM CLR 11/M03 A3021 RMK AO2 SLP229 T01111028=
202002210053 METAR KBFI 210053Z 00000KT 10SM CLR 13/M04 A3021 RMK AO2 SLP229 T01331044=
202002202353 METAR KBFI 202353Z 33004KT 10SM CLR 13/M04 A3022 RMK AO2 SLP232 T01331039 10133 20078 56005=
202002202253 METAR KBFI 202253Z 33006KT 10SM FEW250 13/M04 A3022 RMK AO2 SLP232 T01281039=
202002202153 METAR KBFI 202153Z 33005KT 10SM FEW250 12/M04 A3022 RMK AO2 SLP234 T01221039=
202002202053 METAR KBFI 202053Z 32005KT 10SM SCT250 12/M03 A3023 RMK AO2 SLP237 T01171028 58010=
202002201953 METAR KBFI 201953Z 32007KT 10SM FEW200 10/M03 A3026 RMK AO2 SLP245 T01001033=
202002201853 METAR KBFI 201853Z 32008KT 10SM FEW200 09/M02 A3026 RMK AO2 SLP248 T00891022=
202002201753 METAR KBFI 201753Z 33004KT 10SM SCT250 08/M01 A3026 RMK AO2 SLP247 T00781011 10078 20000 51006=
202002201653 METAR KBFI 201653Z 00000KT 10SM SCT200 04/M01 A3026 RMK AO2 SLP247 T00441006=
202002201553 METAR KBFI 201553Z 00000KT 10SM FEW200 01/M03 A3026 RMK AO2 SLP245 T00111033=
202002201453 METAR KBFI 201453Z 00000KT 10SM CLR 00/M04 A3024 RMK AO2 SLP241 T00001044 56001=
202002201353 METAR KBFI 201353Z 00000KT 10SM CLR 01/M04 A3025 RMK AO2 SLP241 T00061044=
202002201253 METAR KBFI 201253Z 00000KT 10SM CLR 01/M04 A3024 RMK AO2 SLP240 T00111044=
202002201153 METAR KBFI 201153Z 00000KT 10SM CLR 02/M05 A3025 RMK AO2 SLP242 T00171050 10083 20011 58004=
202002201053 METAR KBFI 201053Z 00000KT 10SM CLR 02/M05 A3025 RMK AO2 SLP243 T00221050=
202002200953 METAR KBFI 200953Z 00000KT 10SM CLR 04/M06 A3026 RMK AO2 SLP245 T00441056=
202002200853 METAR KBFI 200853Z 00000KT 10SM CLR 04/M06 A3026 RMK AO2 SLP246 T00441056 53007=
202002200753 METAR KBFI 200753Z 00000KT 10SM CLR 06/M06 A3025 RMK AO2 SLP243 T00611061 401171011=
202002200653 METAR KBFI 200653Z 13008KT 10SM CLR 08/M08 A3024 RMK AO2 SLP241 T00831078=
202002200553 METAR KBFI 200553Z 12007KT 10SM CLR 08/M07 A3024 RMK AO2 SLP239 T00831072 10117 20067 52002=
202002200453 METAR KBFI 200453Z 12005KT 10SM CLR 08/M06 A3024 RMK AO2 SLP239 T00831061=
202002200353 METAR KBFI 200353Z 12006KT 10SM CLR 09/M06 A3023 RMK AO2 SLP237 T00891061=
202002200253 METAR KBFI 200253Z 11005KT 10SM CLR 09/M06 A3023 RMK AO2 SLP237 T00941056 53001=
202002200153 METAR KBFI 200153Z 00000KT 10SM CLR 09/M03 A3023 RMK AO2 SLP234 T00891028=
202002200053 METAR KBFI 200053Z 30004KT 10SM CLR 11/M03 A3022 RMK AO2 SLP233 T01111033=
202002192353 METAR KBFI 192353Z 32006KT 10SM CLR 12/M03 A3023 RMK AO2 SLP236 T01171033 10117 20067 56019=
202002192253 METAR KBFI 192253Z 32007KT 10SM CLR 12/M03 A3024 RMK AO2 SLP239 T01171028=
202002192153 METAR KBFI 192153Z VRB04KT 10SM CLR 12/M02 A3026 RMK AO2 SLP247 T01171017=
202002192053 METAR KBFI 192053Z 31006KT 10SM CLR 11/M02 A3029 RMK AO2 SLP255 T01111017 58017=
202002191953 METAR KBFI 191953Z VRB05KT 10SM CLR 10/M02 A3031 RMK AO2 SLP265 T01001022=
202002191853 METAR KBFI 191853Z 05004KT 10SM CLR 09/M03 A3033 RMK AO2 SLP269 T00891033=
202002191753 METAR KBFI 191753Z VRB03KT 10SM CLR 07/M03 A3034 RMK AO2 SLP272 T00671028 10067 21006 50003=
202002191653 METAR KBFI 191653Z 00000KT 10SM CLR 03/00 A3034 RMK AO2 SLP274 T00330000=
202002191553 METAR KBFI 191553Z 00000KT 10SM CLR 01/M01 A3034 RMK AO2 SLP272 T00061011=
202002191453 METAR KBFI 191453Z 00000KT 10SM CLR M01/M02 A3033 RMK AO2 SLP269 T10061022 58006=
202002191353 METAR KBFI 191353Z 00000KT 10SM CLR M01/M03 A3034 RMK AO2 SLP272 T10061028=
202002191253 METAR KBFI 191253Z 00000KT 10SM CLR 00/M02 A3034 RMK AO2 SLP275 T00001022=
202002191153 METAR KBFI 191153Z 00000KT 10SM CLR 00/M02 A3035 RMK AO2 SLP275 T00001017 10039 21011 58005=
202002191053 METAR KBFI 191053Z 00000KT 10SM CLR 01/M02 A3035 RMK AO2 SLP278 T00061017=
202002190953 METAR KBFI 190953Z AUTO 00000KT 10SM CLR 02/M01 A3036 RMK AO2 SLP280 T00221011 TSNO=
202002190853 METAR KBFI 190853Z AUTO 35003KT 10SM CLR 03/M01 A3036 RMK AO2 SLP280 T00331006 55003 TSNO=
202002190753 METAR KBFI 190753Z AUTO 01005KT 10SM CLR 03/00 A3036 RMK AO2 SLP280 T00330000 400890000 TSNO=
202002190653 METAR KBFI 190653Z AUTO 35003KT 10SM CLR 04/M01 A3036 RMK AO2 SLP281 T00391006 TSNO=
202002190553 METAR KBFI 190553Z 34003KT 10SM CLR 04/M01 A3037 RMK AO2 SLP283 T00391006 10083 20039 51008=
202002190453 METAR KBFI 190453Z 34003KT 10SM CLR 04/M02 A3037 RMK AO2 SLP282 T00441017=
202002190353 METAR KBFI 190353Z 00000KT 10SM CLR 05/M02 A3036 RMK AO2 SLP278 T00501017=
202002190253 METAR KBFI 190253Z 00000KT 10SM CLR 06/M02 A3035 RMK AO2 SLP275 T00561017 53000=
202002190153 METAR KBFI 190153Z 36003KT 10SM CLR 07/M01 A3034 RMK AO2 SLP274 T00671011=
202002190053 METAR KBFI 190053Z 32006KT 10SM CLR 08/00 A3034 RMK AO2 SLP273 T00780000=
202002182353 METAR KBFI 182353Z 31008KT 10SM CLR 08/M01 A3035 RMK AO2 SLP275 T00781006 10089 20044 56009=
202002182253 METAR KBFI 182253Z 31009G14KT 10SM CLR 08/M01 A3035 RMK AO2 SLP276 T00831006=
202002182153 METAR KBFI 182153Z 31005KT 10SM CLR 08/M01 A3036 RMK AO2 SLP279 T00831006=
202002182053 METAR KBFI 182053Z 03004KT 10SM CLR 08/M02 A3037 RMK AO2 SLP284 T00831017 58017=
202002181953 METAR KBFI 181953Z VRB04KT 10SM CLR 07/M02 A3040 RMK AO2 SLP293 T00721017=
202002181853 METAR KBFI 181853Z 03004KT 10SM FEW050 06/M01 A3041 RMK AO2 SLP297 T00611006=
202002181753 METAR KBFI 181753Z VRB03KT 10SM CLR 04/M01 A3042 RMK AO2 SLP301 T00441006 10044 20000 50003=
202002181653 METAR KBFI 181653Z 00000KT 10SM FEW001 03/00 A3043 RMK AO2 SLP303 T00330000=
202002181553 METAR KBFI 181553Z 00000KT 10SM FEW001 01/M02 A3042 RMK AO2 SLP300 T00061017=
202002181453 METAR KBFI 181453Z 00000KT 10SM FEW001 00/M02 A3041 RMK AO2 SLP298 T00001017 58001=
202002181353 METAR KBFI 181353Z 00000KT 10SM FEW001 00/M02 A3042 RMK AO2 SLP301 T00001017=
202002181253 METAR KBFI 181253Z 00000KT 10SM CLR 01/M02 A3042 RMK AO2 SLP300 T00061017=
202002181153 METAR KBFI 181153Z 00000KT 10SM CLR 01/M01 A3041 RMK AO2 SLP298 T00111011 10050 20006 58005=
202002181053 METAR KBFI 181053Z 00000KT 10SM CLR 02/M01 A3042 RMK AO2 SLP301 T00171006=
202002180953 METAR KBFI 180953Z 00000KT 10SM CLR 02/M01 A3042 RMK AO2 SLP302 T00221006=
202002180853 METAR KBFI 180853Z 00000KT 10SM SCT050 BKN070 03/01 A3043 RMK AO2 SLP303 T00330006 51002=
202002180753 METAR KBFI 180753Z 00000KT 10SM SCT060 04/01 A3043 RMK AO2 SLP302 T00390006 400940011=
202002180653 METAR KBFI 180653Z 00000KT 10SM SCT065 SCT080 04/01 A3043 RMK AO2 SLP303 T00440006=
202002180553 METAR KBFI 180553Z 00000KT 10SM BKN075 05/01 A3042 RMK AO2 SLP301 T00500011 10089 20044 53006=
202002180453 METAR KBFI 180453Z 05007KT 10SM BKN070 06/01 A3041 RMK AO2 SLP296 T00560006=
202002180353 METAR KBFI 180353Z 00000KT 10SM SCT070 06/00 A3041 RMK AO2 SLP296 T00610000=
202002180253 METAR KBFI 180253Z 06004KT 10SM SCT070 BKN250 06/01 A3041 RMK AO2 SLP295 T00610006 53000=
202002180153 METAR KBFI 180153Z 05006KT 10SM SCT130 BKN250 07/00 A3040 RMK AO2 SLP292 T00720000=
202002180053 METAR KBFI 180053Z VRB04KT 10SM SCT035 BKN250 08/M01 A3040 RMK AO2 SLP294 T00781006=
202002172353 METAR KBFI 172353Z 02004KT 10SM SCT035 BKN100 09/M01 A3040 RMK AO2 SLP295 T00891011 10094 20050 56004=
202002172253 METAR KBFI 172253Z 03004KT 10SM SCT035 09/01 A3041 RMK AO2 SLP296 T00890011=
202002172153 METAR KBFI 172153Z 04005KT 10SM SCT037 BKN060 08/00 A3041 RMK AO2 SLP297 T00780000=
202002172053 METAR KBFI 172053Z AUTO 30005KT 10SM SCT021 BKN040 08/01 A3042 RMK AO2 SLP299 T00780011 58003=
202002171953 METAR KBFI 171953Z 00000KT 10SM SCT011 BKN040 08/01 A3043 RMK AO2 SLP303 T00780011=
202002171853 METAR KBFI 171853Z 10003KT 10SM SCT011 SCT065 07/02 A3043 RMK AO2 SLP305 T00670017=
202002171753 METAR KBFI 171753Z 18003KT 10SM SCT011 BKN048 BKN060 05/02 A3043 RMK AO2 SLP302 T00500017 10050 20011 51018=
202002171653 METAR KBFI 171653Z 15005KT 10SM BKN010 BKN050 03/01 A3042 RMK AO2 SLP299 T00330011=
202002171553 METAR KBFI 171553Z 14003KT 10SM FEW010 SCT014 02/01 A3039 RMK AO2 SLP292 T00220006=
202002171453 METAR KBFI 171453Z 15004KT 10SM FEW012 SCT070 02/00 A3037 RMK AO2 SLP284 T00170000 52012=
202002171353 METAR KBFI 171353Z 14005KT 10SM FEW070 02/00 A3036 RMK AO2 SLP280 T00220000=
202002171253 METAR KBFI 171253Z 14004KT 10SM FEW039 BKN070 03/01 A3035 RMK AO2 SLP277 T00280006=
202002171153 METAR KBFI 171153Z 14006KT 10SM BKN080 03/01 A3034 RMK AO2 SLP273 T00280006 10050 20028 51013=
202002171053 METAR KBFI 171053Z 15008KT 10SM OVC070 03/01 A3033 RMK AO2 SLP270 T00330011=
202002170953 METAR KBFI 170953Z 14007KT 10SM BKN060 OVC070 04/02 A3032 RMK AO2 SLP265 T00390017=
202002170853 METAR KBFI 170853Z 16007KT 10SM SCT046 BKN060 OVC070 04/02 A3030 RMK AO2 SLP260 T00390017 51017=
202002170753 METAR KBFI 170753Z 00000KT 10SM FEW038 04/01 A3029 RMK AO2 SLP255 T00390011 400940028=
202002170653 METAR KBFI 170653Z 13003KT 10SM SCT085 05/01 A3027 RMK AO2 SLP250 T00500011=
202002170553 METAR KBFI 170553Z 16004KT 10SM BKN039 05/01 A3025 RMK AO2 SLP243 60000 T00500011 10083 20039 53012=
202002170453 METAR KBFI 170453Z 20004KT 10SM SCT034 BKN095 06/02 A3024 RMK AO2 SLP238 T00560017=
202002170353 METAR KBFI 170353Z 20004KT 10SM FEW035 BKN070 BKN100 07/02 A3022 RMK AO2 SLP233 T00670022=
202002170253 METAR KBFI 170253Z 00000KT 10SM SCT026 BKN055 BKN070 07/03 A3022 RMK AO2 RAB27E42 SLP232 P0000 60000 T00720028 53006=
202002170153 METAR KBFI 170153Z 24006KT 10SM FEW025 BKN036 BKN080 07/02 A3020 RMK AO2 SLP227 T00720022=
202002170053 METAR KBFI 170053Z 23006KT 10SM SCT026 BKN030 BKN035 08/03 A3020 RMK AO2 SLP225 T00830028=
202002162353 METAR KBFI 162353Z 23007KT 10SM SCT034 08/03 A3020 RMK AO2 SLP225 T00780028 10094 20056 55000=
202002162253 METAR KBFI 162253Z 23012KT 10SM BKN027 BKN040 08/03 A3019 RMK AO2 SLP222 T00830028=
202002162153 METAR KBFI 162153Z 21010G17KT 10SM BKN033 BKN040 09/02 A3018 RMK AO2 SLP220 T00890022=
202002162053 METAR KBFI 162053Z 17008KT 10SM BKN028 OVC100 08/03 A3020 RMK AO2 SLP225 T00830028 58005=
202002162006 SPECI KBFI 162006Z 17009KT 10SM BKN024 BKN110 08/03 A3020 RMK AO2 T00780028=
202002161953 METAR KBFI 161953Z 17008KT 10SM BKN110 08/03 A3021 RMK AO2 SLP228 T00780028=
202002161853 METAR KBFI 161853Z 18011KT 10SM FEW018 BKN110 07/02 A3022 RMK AO2 SLP231 T00670022=
202002161815 SPECI KBFI 161815Z 17009KT 10SM SCT018 BKN100 06/03 A3022 RMK AO2 T00610028=
202002161753 METAR KBFI 161753Z 16008KT 10SM OVC018 06/02 A3022 RMK AO2 SLP231 60000 T00560022 10056 20033 51024=
202002161653 METAR KBFI 161653Z 15008KT 10SM OVC014 05/02 A3020 RMK AO2 SLP226 T00500022=
202002161553 METAR KBFI 161553Z 19004KT 10SM OVC011 05/03 A3017 RMK AO2 SLP217 T00500028=
202002161453 METAR KBFI 161453Z 16004KT 10SM OVC009 05/03 A3014 RMK AO2 SLP207 60000 T00500033 53007=
202002161436 SPECI KBFI 161436Z 15007KT 7SM OVC009 04/03 A3014 RMK AO2 T00440033=
202002161353 METAR KBFI 161353Z 12006KT 6SM BR BKN014 OVC020 04/03 A3013 RMK AO2 SLP201 T00440033=
202002161350 SPECI KBFI 161350Z 12006KT 7SM BKN014 OVC022 04/03 A3013 RMK AO2=
202002161253 METAR KBFI 161253Z 00000KT 10SM BKN016 OVC027 04/03 A3012 RMK AO2 RAE01 SLP200 P0000 T00440033=
202002161244 SPECI KBFI 161244Z 12003KT 10SM BKN016 04/03 A3012 RMK AO2 RAE01 P0000 T00440033=
202002161153 METAR KBFI 161153Z 13004KT 10SM -RA SCT014 BKN036 OVC070 04/03 A3012 RMK AO2 SLP198 P0000 60009 70010 T00440028 10078 20044 51012=
202002161126 SPECI KBFI 161126Z 14004KT 10SM -RA SCT028 OVC036 04/03 A3012 RMK AO2 P0000 T00440033=
202002161053 METAR KBFI 161053Z 17005KT 8SM -RA OVC027 04/03 A3011 RMK AO2 SLP197 P0003 T00440033=
202002161000 SPECI KBFI 161000Z 11005KT 6SM -RA OVC026 06/02 A3010 RMK AO2 P0001 T00560022=
202002160953 METAR KBFI 160953Z 10006KT 8SM -RA OVC013 06/03 A3010 RMK AO2 SLP193 P0002 T00560028=
202002160853 METAR KBFI 160853Z 09006KT 6SM -RA BR OVC013 05/03 A3008 RMK AO2 SLP186 P0001 60004 T00500033 51018=
202002160753 METAR KBFI 160753Z 06008KT 3SM -RA BR OVC013 06/03 A3007 RMK AO2 RAE04B25 SLP181 P0000 T00560033 400830056=
202002160653 METAR KBFI 160653Z 06010G15KT 7SM -RA OVC014 06/04 A3005 RMK AO2 RAB21 SLP176 P0003 T00560039=
202002160553 METAR KBFI 160553Z AUTO 16005KT 10SM OVC013 07/04 A3003 RMK AO2 SLP168 T00720044 10078 20072 51005 TSNO=
202002160453 METAR KBFI 160453Z 17006KT 10SM OVC015 07/04 A3002 RMK AO2 SLP164 T00720039=
202002160353 METAR KBFI 160353Z 17007KT 10SM OVC016 07/04 A3001 RMK AO2 SLP162 T00720039=
202002160253 METAR KBFI 160253Z 17007KT 10SM OVC015 07/04 A3001 RMK AO2 SLP161 T00720039 50005=
202002160153 METAR KBFI 160153Z 17006KT 10SM OVC018 07/04 A3001 RMK AO2 SLP161 T00720039=
202002160053 METAR KBFI 160053Z 17009G16KT 10SM OVC020 08/03 A2999 RMK AO2 SLP156 T00780033=
202002160019 SPECI KBFI 160019Z 18006KT 10SM BKN025 OVC110 08/04 A2999 RMK AO2 T00780044=
202002152353 METAR KBFI 152353Z 19012G20KT 10SM SCT030 OVC110 08/04 A2999 RMK AO2 SLP155 60001 T00780044 10083 20072 58018=
202002152300 SPECI KBFI 152300Z 18007KT 3SM BR SCT008 BKN012 OVC032 08/06 A3001 RMK AO2 T00780056=
202002152253 METAR KBFI 152253Z 17006KT 2 1/2SM BR SCT008 BKN014 OVC035 07/06 A3002 RMK AO2 RAE46 SLP164 P0001 T00720056=
202002152153 METAR KBFI 152153Z 17007KT 2 1/2SM -RA BR BKN010 BKN014 OVC035 07/06 A3004 RMK AO2 RAE2059B20 SLP170 P0000 T00720056=
202002152151 SPECI KBFI 152151Z 17007KT 2 1/2SM -RA BR SCT008 BKN014 OVC035 07/06 A3004 RMK AO2 RAE2059B20 P0000=
202002152104 SPECI KBFI 152104Z 16007KT 2 1/2SM BR BKN021 OVC040 07/06 A3004 RMK AO2 RAE2059 P0000 T00720056=
202002152053 METAR KBFI 152053Z 16006KT 3SM -RA BR BKN021 OVC040 07/06 A3005 RMK AO2 SLP173 P0000 60000 T00720056 58014=
202002152019 SPECI KBFI 152019Z 19007G15KT 4SM -RA BKN021 OVC040 07/04 A3006 RMK AO2 P0000 T00720044=
202002151953 METAR KBFI 151953Z 20015G21KT 10SM -RA SCT024 OVC034 08/04 A3006 RMK AO2 RAB41 SLP180 P0000 T00780039=
202002151853 METAR KBFI 151853Z 18007KT 10SM BKN021 OVC033 08/04 A3007 RMK AO2 SLP182 T00830039=
202002151753 METAR KBFI 151753Z 17010KT 10SM OVC037 07/04 A3009 RMK AO2 SLP188 T00720039 10078 20061 58004=
202002151653 METAR KBFI 151653Z 17013G26KT 10SM SCT025 OVC070 07/03 A3010 RMK AO2 PK WND 14026/1645 SLP192 T00670033=
202002151553 METAR KBFI 151553Z 18011G16KT 10SM SCT027 OVC070 07/03 A3010 RMK AO2 SLP193 T00720033=
202002151531 SPECI KBFI 151531Z 16008KT 10SM BKN027 BKN032 OVC070 07/03 A3010 RMK AO2 T00670033=
202002151453 METAR KBFI 151453Z 16009KT 10SM SCT022 OVC075 06/03 A3010 RMK AO2 SLP192 T00610033 58014=
202002151353 METAR KBFI 151353Z 16008KT 10SM OVC075 06/03 A3012 RMK AO2 SLP197 T00610033=
202002151253 METAR KBFI 151253Z 17013G19KT 10SM SCT025 OVC040 07/03 A3013 RMK AO2 SLP203 T00670028=
202002151153 METAR KBFI 151153Z 18010G17KT 10SM SCT024 OVC040 06/03 A3014 RMK AO2 SLP206 60001 70001 T00610033 10061 20056 58012=
202002151053 METAR KBFI 151053Z 15011KT 10SM BKN014 OVC024 06/04 A3015 RMK AO2 SLP210 T00560039=
202002150953 METAR KBFI 150953Z 15008KT 10SM FEW015 OVC022 06/04 A3017 RMK AO2 RAE04 SLP215 P0000 T00610039=
202002150853 METAR KBFI 150853Z 16010KT 10SM -RA SCT022 OVC034 06/04 A3018 RMK AO2 SLP218 P0000 60001 T00560039 56009=
202002150753 METAR KBFI 150753Z 15008KT 10SM -RA SCT022 OVC034 06/03 A3018 RMK AO2 SLP220 P0001 T00560033 401060056=
202002150653 METAR KBFI 150653Z 17008KT 8SM -RA BKN022 BKN045 OVC090 06/03 A3019 RMK AO2 RAB01E35B37 SLP222 P0000 T00610033=
202002150553 METAR KBFI 150553Z 17007KT 10SM BKN020 OVC070 06/03 A3020 RMK AO2 RAE35 SLP227 P0000 60000 T00610033 10094 20061 50005=
202002150453 METAR KBFI 150453Z 20005KT 10SM -RA OVC029 06/03 A3021 RMK AO2 RAB02 SLP229 P0000 T00610028=
202002150437 SPECI KBFI 150437Z 21006KT 9SM -RA OVC029 07/03 A3021 RMK AO2 RAB02 P0000 T00670033=
202002150353 METAR KBFI 150353Z 23007KT 170V260 10SM BKN030 BKN090 07/02 A3020 RMK AO2 SLP226 T00720022=
202002150253 METAR KBFI 150253Z 19009KT 10SM SCT026 07/02 A3019 RMK AO2 SLP221 T00720022 51008=
202002150153 METAR KBFI 150153Z AUTO 20008G17KT 10SM SCT060 08/02 A3018 RMK AO2 SLP219 T00780022 TSNO=
202002150053 METAR KBFI 150053Z 19007KT 10SM CLR 08/02 A3017 RMK AO2 SLP216 T00830017=
202002142353 METAR KBFI 142353Z 18007KT 10SM SCT033 BKN150 09/02 A3016 RMK AO2 SLP213 T00940022 10106 20067 55001=
202002142253 METAR KBFI 142253Z 20006KT 10SM SCT033 BKN150 10/02 A3015 RMK AO2 SLP210 T01000017=
202002142153 METAR KBFI 142153Z 18007KT 10SM SCT018 BKN037 10/02 A3015 RMK AO2 SLP209 T01000017=
202002142053 METAR KBFI 142053Z 18008KT 10SM SCT018 BKN030 09/02 A3016 RMK AO2 SLP214 T00940022 51007=
202002141953 METAR KBFI 141953Z 17010KT 10SM SCT016 BKN027 08/03 A3016 RMK AO2 SLP211 T00830028=
202002141853 METAR KBFI 141853Z 24006KT 10SM BKN020 08/02 A3016 RMK AO2 PK WND 16026/1758 SLP212 T00780022=
202002141753 METAR KBFI 141753Z 17008G15KT 10SM OVC020 07/02 A3014 RMK AO2 SLP207 T00720022 10072 20056 51021=
202002141653 METAR KBFI 141653Z 20008KT 10SM BKN020 06/02 A3013 RMK AO2 SLP204 T00610022=
202002141553 METAR KBFI 141553Z 19007KT 10SM BKN018 06/02 A3010 RMK AO2 SLP193 T00610017=
202002141453 METAR KBFI 141453Z 18004KT 10SM SCT018 OVC021 06/02 A3008 RMK AO2 SLP186 T00610022 53018=
202002141353 METAR KBFI 141353Z 19005KT 10SM OVC021 06/02 A3006 RMK AO2 SLP179 T00610022=
202002141253 METAR KBFI 141253Z 20005KT 10SM SCT017 BKN022 06/02 A3004 RMK AO2 SLP171 T00610022=
202002141153 METAR KBFI 141153Z 19006KT 10SM OVC021 06/02 A3003 RMK AO2 SLP167 70003 T00610022 10067 20061 51019=
202002141053 METAR KBFI 141053Z 16005KT 10SM OVC018 06/03 A3001 RMK AO2 SLP161 T00610028=
202002140953 METAR KBFI 140953Z VRB03KT 10SM OVC019 06/03 A2999 RMK AO2 SLP155 T00610028=
202002140853 METAR KBFI 140853Z 24009KT 10SM OVC017 06/03 A2997 RMK AO2 SLP149 T00610028 51001=
202002140753 METAR KBFI 140753Z 19007G15KT 10SM OVC021 07/03 A2997 RMK AO2 SLP147 T00670028 400890033=
202002140653 METAR KBFI 140653Z 21008G17KT 10SM BKN022 OVC110 07/03 A2998 RMK AO2 SLP150 T00670028=
202002140553 METAR KBFI 140553Z 19006KT 10SM BKN023 06/03 A2997 RMK AO2 SLP148 60002 T00610028 10078 20056 51009=
202002140453 METAR KBFI 140453Z 19005KT 10SM OVC023 07/03 A2997 RMK AO2 SLP148 T00670028=
202002140353 METAR KBFI 140353Z 22005KT 10SM BKN023 OVC028 07/03 A2995 RMK AO2 SLP140 T00720033=
202002140253 METAR KBFI 140253Z 15003KT 10SM BKN023 OVC028 06/04 A2994 RMK AO2 SLP139 60002 T00610039 51003=
202002140153 METAR KBFI 140153Z 19004KT 10SM OVC016 06/04 A2994 RMK AO2 RAE06 SLP138 P0000 T00610039=
202002140112 SPECI KBFI 140112Z 00000KT 6SM BR BKN012 OVC019 06/04 A2994 RMK AO2 RAE06 P0000 T00560039=
202002140053 METAR KBFI 140053Z 00000KT 2SM -RA BR BKN009 OVC012 06/04 A2994 RMK AO2 RAB28 SLP138 P0002 T00610039=
202002140042 SPECI KBFI 140042Z VRB03KT 2SM -RA BR FEW009 OVC014 06/04 A2995 RMK AO2 RAB28 P0002 T00610039=
202002140035 SPECI KBFI 140035Z 36005KT 2SM -RA BR BKN014 OVC019 06/04 A2995 RMK AO2 RAB28 P0001 T00610039=
202002132353 METAR KBFI 132353Z 23008G19KT 10SM OVC017 08/04 A2993 RMK AO2 SLP136 60000 T00780039 10089 20050 55005=
202002132253 METAR KBFI 132253Z 21009G18KT 170V240 10SM SCT010 BKN017 08/04 A2992 RMK AO2 SLP132 T00830044=
202002132153 METAR KBFI 132153Z 21012G20KT 10SM BKN017 OVC080 08/04 A2993 RMK AO2 SLP135 T00780039=
202002132053 METAR KBFI 132053Z 18013G18KT 10SM BKN016 OVC022 08/04 A2995 RMK AO2 SLP141 60000 T00780039 58012=
202002132017 SPECI KBFI 132017Z 18007G19KT 10SM SCT016 SCT026 BKN070 07/04 A2996 RMK AO2 T00720039=
202002131953 METAR KBFI 131953Z 19012G19KT 10SM BKN016 OVC026 07/04 A2998 RMK AO2 SLP150 T00720039=
202002131853 METAR KBFI 131853Z 15008KT 10SM SCT016 OVC024 06/04 A2998 RMK AO2 RAB03E17 SLP150 P0000 T00560039=
202002131753 METAR KBFI 131753Z 15008KT 10SM SCT013 OVC024 05/03 A2998 RMK AO2 RAE50 SLP153 P0001 60001 T00500028 10050 20033 58009=
202002131653 METAR KBFI 131653Z 15009KT 9SM -RA BKN022 BKN055 OVC075 04/02 A3001 RMK AO2 RAB49 SLP161 P0000 T00440022=
202002131553 METAR KBFI 131553Z 14011KT 10SM SCT013 OVC033 04/02 A3002 RMK AO2 SLP165 T00440022=
202002131453 METAR KBFI 131453Z 15010KT 10SM BKN012 OVC030 05/03 A3001 RMK AO2 SLP162 T00500028 53000=
202002131353 METAR KBFI 131353Z 15008KT 10SM BKN008 OVC033 04/03 A3001 RMK AO2 SLP160 T00390028=
202002131347 SPECI KBFI 131347Z 15009KT 10SM BKN008 BKN033 04/02 A3000 RMK AO2=
202002131253 METAR KBFI 131253Z 18004KT 10SM OVC035 04/03 A3001 RMK AO2 SLP162 T00440028=
202002131153 METAR KBFI 131153Z 15006KT 10SM SCT012 BKN036 04/03 A3002 RMK AO2 SLP164 T00390028 10072 20039 58034=
202002131053 METAR KBFI 131053Z 14008KT 10SM SCT015 OVC038 06/04 A3007 RMK AO2 PRESFR SLP180 T00560039=
202002130953 METAR KBFI 130953Z 11003KT 10SM OVC038 06/04 A3010 RMK AO2 SLP193 T00610044=
202002130853 METAR KBFI 130853Z 00000KT 10SM FEW015 OVC038 06/04 A3012 RMK AO2 SLP198 T00610044 55012=
202002130753 METAR KBFI 130753Z 18004KT 10SM BKN039 06/04 A3012 RMK AO2 SLP197 T00560039 400940056=
202002130653 METAR KBFI 130653Z 00000KT 10SM BKN041 06/04 A3013 RMK AO2 SLP203 T00610044=
202002130553 METAR KBFI 130553Z 00000KT 10SM OVC042 07/04 A3015 RMK AO2 SLP210 T00720044 10094 20067 56020=
202002130453 METAR KBFI 130453Z 00000KT 10SM BKN042 07/04 A3017 RMK AO2 SLP214 T00720044=
202002130353 METAR KBFI 130353Z 00000KT 10SM OVC043 08/04 A3019 RMK AO2 SLP222 T00780044=
202002130253 METAR KBFI 130253Z 00000KT 10SM OVC044 08/04 A3021 RMK AO2 SLP230 T00830039 58016=
202002130153 METAR KBFI 130153Z 00000KT 10SM OVC045 09/04 A3023 RMK AO2 SLP236 T00890044=
202002130053 METAR KBFI 130053Z 31003KT 10SM FEW016 OVC043 09/04 A3025 RMK AO2 SLP241 T00890044=
202002122353 METAR KBFI 122353Z 32003KT 10SM FEW020 OVC041 09/04 A3026 RMK AO2 SLP246 T00890044 10094 20078 56014=
202002122301 SPECI KBFI 122301Z 00000KT 10SM SCT018 OVC041 09/05 A3027 RMK AO2 T00940050=
202002122253 METAR KBFI 122253Z 00000KT 10SM BKN018 OVC041 09/04 A3027 RMK AO2 SLP250 T00890044=
202002122153 METAR KBFI 122153Z VRB03KT 10SM FEW017 SCT028 OVC041 09/06 A3028 RMK AO2 SLP254 T00890056=
202002122132 SPECI KBFI 122132Z 33004KT 10SM FEW008 SCT017 OVC046 09/06 A3029 RMK AO2 T00890056=
202002122053 METAR KBFI 122053Z 00000KT 10SM FEW008 SCT017 OVC046 09/06 A3030 RMK AO2 SLP260 T00940056 58010=
202002121953 METAR KBFI 121953Z 18003KT 10SM SCT016 BKN026 OVC048 09/06 A3033 RMK AO2 SLP270 T00890056=
202002121853 METAR KBFI 121853Z 00000KT 10SM BKN011 BKN033 BKN048 08/06 A3035 RMK AO2 SLP275 T00830056=
202002121753 METAR KBFI 121753Z 00000KT 10SM SCT009 BKN014 BKN021 08/06 A3033 RMK AO2 SLP270 60000 T00780056 10078 20061 53001=
202002121653 METAR KBFI 121653Z 12003KT 7SM FEW004 BKN008 OVC050 07/06 A3032 RMK AO2 SLP267 T00720056=
202002121553 METAR KBFI 121553Z 10003KT 5SM BR BKN007 BKN017 OVC036 07/06 A3032 RMK AO2 SLP268 T00670056=
202002121515 SPECI KBFI 121515Z 00000KT 7SM SCT002 BKN007 BKN050 07/06 A3033 RMK AO2 T00670056=
202002121459 SPECI KBFI 121459Z 00000KT 8SM SCT004 BKN035 BKN050 07/06 A3032 RMK AO2 T00670056=
202002121453 METAR KBFI 121453Z 00000KT 8SM FEW015 BKN037 BKN050 07/06 A3033 RMK AO2 SLP269 60000 T00670056 51004=
202002121353 METAR KBFI 121353Z 00000KT 8SM FEW015 BKN037 BKN050 06/06 A3033 RMK AO2 SLP269 T00610056=
202002121253 METAR KBFI 121253Z 00000KT 10SM FEW015 OVC025 07/06 A3032 RMK AO2 RAE51 SLP266 P0000 T00670056=
202002121153 METAR KBFI 121153Z 00000KT 8SM -RA FEW015 OVC025 07/06 A3032 RMK AO2 SLP265 P0000 60005 70005 T00720061 10078 20067 51005=
202002121053 METAR KBFI 121053Z 00000KT 10SM -RA FEW015 BKN037 OVC048 07/06 A3031 RMK AO2 SLP263 P0000 T00720056=
202002120953 METAR KBFI 120953Z 00000KT 7SM -RA BKN020 BKN025 OVC034 07/06 A3031 RMK AO2 SLP262 P0003 T00720061=
202002120939 SPECI KBFI 120939Z 17003KT 6SM -RA BR BKN008 BKN020 OVC030 07/06 A3030 RMK AO2 P0003 T00720061=
202002120853 METAR KBFI 120853Z 11004KT 5SM -RA BR SCT008 OVC030 08/06 A3030 RMK AO2 RAB47 SLP260 P0001 60002 T00780061 53010=
202002120753 METAR KBFI 120753Z 00000KT 3SM BR BKN007 OVC042 08/06 A3029 RMK AO2 RAE0655 SLP257 P0000 T00780061 400830011=
202002120653 METAR KBFI 120653Z 00000KT 3SM -RA BR BKN007 OVC042 08/07 A3028 RMK AO2 RAB28 SLP252 P0001 T00780067=
202002120644 SPECI KBFI 120644Z 13006KT 3SM -RA BR SCT007 SCT024 OVC041 08/06 A3028 RMK AO2 RAB28 P0001 T00780061=
202002120639 SPECI KBFI 120639Z 12006KT 2 1/2SM -RA BR SCT007 BKN025 OVC041 08/06 A3028 RMK AO2 RAB28 P0001 T00780061=
202002120553 METAR KBFI 120553Z 00000KT 10SM OVC009 08/06 A3027 RMK AO2 SLP250 T00780061 10078 20072 53009=
202002120529 SPECI KBFI 120529Z 14004KT 10SM BKN009 BKN017 OVC025 08/06 A3026 RMK AO2 T00780061=
202002120453 METAR KBFI 120453Z 15005KT 10SM SCT008 BKN013 OVC025 08/06 A3026 RMK AO2 SLP246 T00780061=
202002120445 SPECI KBFI 120445Z 14005KT 10SM SCT008 BKN013 OVC025 07/06 A3026 RMK AO2 T00720061=
202002120353 METAR KBFI 120353Z 15006KT 10SM BKN015 OVC023 08/06 A3025 RMK AO2 SLP241 T00780061=
202002120253 METAR KBFI 120253Z 15008KT 10SM SCT018 BKN031 OVC041 08/06 A3024 RMK AO2 SLP241 T00780061 55006=
202002120229 SPECI KBFI 120229Z 14007KT 10SM SCT020 BKN031 BKN041 07/06 A3024 RMK AO2 T00720056=
202002120153 METAR KBFI 120153Z 14005KT 10SM BKN020 OVC035 08/05 A3024 RMK AO2 SLP240 T00780050=
202002120053 METAR KBFI 120053Z 11006KT 10SM BKN023 BKN030 OVC035 08/05 A3025 RMK AO2 SLP242 T00780050=
202002112353 METAR KBFI 112353Z 10007KT 10SM OVC021 08/05 A3026 RMK AO2 SLP247 T00780050 10083 20050 56012=
202002112253 METAR KBFI 112253Z 18005KT 10SM OVC018 08/04 A3027 RMK AO2 SLP250 T00830044=
202002112153 METAR KBFI 112153Z 18005KT 10SM OVC016 08/04 A3028 RMK AO2 SLP253 T00830044=
202002112128 SPECI KBFI 112128Z 17005KT 10SM OVC016 08/04 A3029 RMK AO2 T00780039=
202002112053 METAR KBFI 112053Z 17006KT 10SM OVC014 08/04 A3030 RMK AO2 SLP259 T00780039 58012=
202002111953 METAR KBFI 111953Z 18006KT 10SM OVC014 07/04 A3032 RMK AO2 SLP267 T00720039=
202002111853 METAR KBFI 111853Z 17009KT 10SM OVC013 06/03 A3034 RMK AO2 SLP274 T00610028=
202002111753 METAR KBFI 111753Z 15008KT 10SM OVC013 05/02 A3033 RMK AO2 SLP270 T00500022 10050 20011 53007=
202002111653 METAR KBFI 111653Z 14006KT 10SM OVC014 04/02 A3032 RMK AO2 SLP268 T00440017=
202002111607 SPECI KBFI 111607Z 14007KT 10SM SCT015 BKN020 OVC060 04/02 A3032 RMK AO2 T00390017=
202002111553 METAR KBFI 111553Z 13007KT 10SM SCT026 BKN095 OVC120 03/01 A3031 RMK AO2 SLP263 T00330011=
202002111453 METAR KBFI 111453Z 15006KT 10SM OVC025 02/01 A3031 RMK AO2 SLP263 T00220006 57020=
202002111437 SPECI KBFI 111437Z 15008KT 10SM BKN025 02/01 A3032 RMK AO2 T00220006=
202002111353 METAR KBFI 111353Z 15008KT 5SM BR SCT007 BKN035 02/01 A3032 RMK AO2 SLP268 T00170006=
202002111253 METAR KBFI 111253Z 14007KT 5SM HZ SCT007 02/01 A3036 RMK AO2 SLP279 T00220006=
202002111228 SPECI KBFI 111228Z 14007KT 10SM SCT007 02/01 A3036 RMK AO2 T00170006=
202002111153 METAR KBFI 111153Z 15010KT 10SM CLR 02/01 A3037 RMK AO2 PRESFR SLP283 T00220011 10033 20011 58022=
202002111053 METAR KBFI 111053Z 15004KT 10SM CLR 02/01 A3042 RMK AO2 SLP299 T00220011=
202002110953 METAR KBFI 110953Z 15004KT 10SM CLR 02/01 A3042 RMK AO2 SLP301 T00220011=
202002110853 METAR KBFI 110853Z 15003KT 10SM CLR 03/01 A3043 RMK AO2 SLP305 T00280011 58008=
202002110753 METAR KBFI 110753Z 00000KT 10SM CLR 02/01 A3044 RMK AO2 SLP308 T00220006 400890011=
202002110653 METAR KBFI 110653Z 16004KT 10SM CLR 02/00 A3045 RMK AO2 SLP311 T00170000=
202002110553 METAR KBFI 110553Z 00000KT 10SM FEW140 03/01 A3046 RMK AO2 SLP312 T00330011 10083 20028 56002=
202002110453 METAR KBFI 110453Z 00000KT 10SM SCT140 04/01 A3046 RMK AO2 SLP314 T00390011=
202002110353 METAR KBFI 110353Z 00000KT 10SM CLR 06/02 A3046 RMK AO2 SLP312 T00560017=
202002110253 METAR KBFI 110253Z 31003KT 10SM SCT140 06/01 A3046 RMK AO2 SLP314 T00610011 55001=
202002110153 METAR KBFI 110153Z 31006KT 10SM FEW030 SCT140 07/02 A3046 RMK AO2 SLP313 T00670017=
202002110053 METAR KBFI 110053Z 33005KT 10SM FEW035 08/01 A3045 RMK AO2 SLP312 T00780011=
202002102353 METAR KBFI 102353Z AUTO 31006KT 10SM FEW035 08/01 A3046 RMK AO2 SLP315 T00830011 10089 20061 58010 TSNO=
202002102253 METAR KBFI 102253Z 32006KT 10SM SCT035 09/01 A3047 RMK AO2 SLP318 T00890006=
202002102153 METAR KBFI 102153Z 31005KT 10SM BKN036 08/01 A3048 RMK AO2 SLP322 T00780011=
202002102053 METAR KBFI 102053Z 29003KT 10SM FEW015 BKN033 08/02 A3049 RMK AO2 SLP324 T00780017 58004=
202002101953 METAR KBFI 101953Z 00000KT 10SM SCT015 BKN037 08/02 A3051 RMK AO2 SLP330 T00780017=
202002101853 METAR KBFI 101853Z 00000KT 10SM FEW010 OVC036 07/02 A3050 RMK AO2 SLP329 T00670022=
202002101753 METAR KBFI 101753Z 00000KT 10SM OVC035 06/02 A3050 RMK AO2 SLP328 T00610022 10061 20022 51012=
202002101653 METAR KBFI 101653Z 00000KT 10SM FEW005 BKN040 06/03 A3050 RMK AO2 SLP326 T00560028=
202002101553 METAR KBFI 101553Z 25003KT 10SM SCT036 BKN043 04/02 A3048 RMK AO2 SLP322 T00440022=
202002101453 METAR KBFI 101453Z 00000KT 10SM BKN044 04/02 A3047 RMK AO2 SLP316 T00390022 50003=
202002101353 METAR KBFI 101353Z AUTO 00000KT 10SM OVC043 04/02 A3048 RMK AO2 SLP321 T00390022 TSNO=
202002101253 METAR KBFI 101253Z 12003KT 10SM OVC045 03/02 A3046 RMK AO2 SLP315 T00330017=
202002101153 METAR KBFI 101153Z 17003KT 10SM OVC046 02/01 A3046 RMK AO2 SLP313 T00220011 10039 20011 50001=
202002101053 METAR KBFI 101053Z 15003KT 10SM SCT035 OVC043 03/02 A3046 RMK AO2 SLP313 T00330017=
202002100953 METAR KBFI 100953Z 00000KT 10SM OVC035 03/01 A3046 RMK AO2 SLP313 T00280011=
202002100853 METAR KBFI 100853Z 00000KT 10SM OVC041 03/01 A3046 RMK AO2 SLP312 T00280011 58002=
202002100753 METAR KBFI 100753Z 00000KT 10SM CLR 03/01 A3047 RMK AO2 SLP316 T00280006 400890000=
202002100653 METAR KBFI 100653Z 00000KT 10SM CLR 03/01 A3046 RMK AO2 SLP315 T00280011=
202002100553 METAR KBFI 100553Z 00000KT 10SM CLR 04/02 A3046 RMK AO2 SLP314 T00390017 10089 20033 53003=
202002100453 METAR KBFI 100453Z 00000KT 10SM CLR 05/02 A3045 RMK AO2 SLP312 T00500017=
202002100353 METAR KBFI 100353Z 00000KT 10SM CLR 05/02 A3045 RMK AO2 SLP309 T00500017=
202002100253 METAR KBFI 100253Z 00000KT 10SM CLR 06/02 A3045 RMK AO2 SLP311 T00610017 56008=
202002100153 METAR KBFI 100153Z 23003KT 10SM CLR 07/01 A3046 RMK AO2 SLP312 T00670011=
202002100053 METAR KBFI 100053Z 00000KT 10SM FEW015 SCT200 08/00 A3047 RMK AO2 SLP316 T00830000=
202002092353 METAR KBFI 092353Z 24003KT 10SM FEW025 08/00 A3048 RMK AO2 SLP319 T00830000 10089 20044 55011=
202002092253 METAR KBFI 092253Z 00000KT 10SM SCT015 09/01 A3047 RMK AO2 SLP318 T00890011=
202002092153 METAR KBFI 092153Z VRB03KT 10SM SCT028 08/02 A3049 RMK AO2 SLP324 T00830017=
202002092053 METAR KBFI 092053Z VRB04KT 10SM BKN022 08/02 A3051 RMK AO2 SLP330 T00830017 58009=
202002091953 METAR KBFI 091953Z 00000KT 10SM BKN022 07/02 A3053 RMK AO2 SLP336 T00720017=
202002091853 METAR KBFI 091853Z 16003KT 10SM SCT021 06/03 A3054 RMK AO2 SLP341 T00560028=
202002091753 METAR KBFI 091753Z 00000KT 10SM SCT017 BKN140 04/03 A3054 RMK AO2 SLP340 T00440028 10044 20000 55000=
202002091653 METAR KBFI 091653Z 00000KT 10SM SCT023 SCT200 03/02 A3053 RMK AO2 SLP339 T00280022=
202002091620 SPECI KBFI 091620Z 00000KT 9SM FEW006 SCT015 BKN021 02/01 A3054 RMK AO2 T00220011=
202002091600 SPECI KBFI 091600Z 00000KT 9SM SCT005 SCT016 02/01 A3053 RMK AO2 T00170006=
202002091553 METAR KBFI 091553Z 00000KT 9SM SCT019 01/00 A3054 RMK AO2 SLP339 T00110000=
202002091533 SPECI KBFI 091533Z 16003KT 3SM BR SCT019 01/00 A3053 RMK AO2 T00060000=
202002091522 SPECI KBFI 091522Z 00000KT 1 3/4SM BR SCT019 01/M01 A3053 RMK AO2 VIS 1/2V5 T00061006=
202002091500 SPECI KBFI 091500Z 00000KT 10SM SCT019 02/01 A3054 RMK AO2 T00220006=
202002091453 METAR KBFI 091453Z 00000KT 10SM BKN021 02/01 A3054 RMK AO2 SLP340 T00170006 51015=
202002091400 SPECI KBFI 091400Z 00000KT 10SM BKN021 02/01 A3053 RMK AO2 T00170006=
202002091353 METAR KBFI 091353Z 00000KT 10SM SCT021 BKN100 02/01 A3052 RMK AO2 SLP336 T00220011=
202002091253 METAR KBFI 091253Z 00000KT 10SM FEW019 02/01 A3052 RMK AO2 SLP333 T00170006=
202002091153 METAR KBFI 091153Z 00000KT 10SM CLR 02/01 A3049 RMK AO2 SLP325 T00220011 10072 20022 50000=
202002091053 METAR KBFI 091053Z 00000KT 10SM FEW023 04/02 A3051 RMK AO2 SLP330 T00390022=
202002091033 SPECI KBFI 091033Z 00000KT 10SM FEW021 04/02 A3051 RMK AO2 T00390017=
202002090953 METAR KBFI 090953Z 00000KT 10SM BKN021 04/02 A3049 RMK AO2 SLP325 T00390022=
202002090948 SPECI KBFI 090948Z 00000KT 10SM BKN021 04/02 A3049 RMK AO2=
202002090853 METAR KBFI 090853Z 00000KT 10SM FEW022 SCT027 05/02 A3047 RMK AO2 SLP318 T00500022 52022=
202002090753 METAR KBFI 090753Z VRB03KT 10SM FEW040 07/02 A3045 RMK AO2 SLP311 T00670022 400890056=
202002090653 METAR KBFI 090653Z 36005KT 10SM SCT040 07/02 A3043 RMK AO2 SLP303 T00670022=
202002090553 METAR KBFI 090553Z VRB03KT 10SM BKN040 07/03 A3041 RMK AO2 SLP296 T00720028 10083 20067 51028=
202002090453 METAR KBFI 090453Z 32004KT 10SM FEW024 BKN039 07/03 A3039 RMK AO2 SLP290 T00720033=
202002090353 METAR KBFI 090353Z 33003KT 10SM BKN042 07/03 A3036 RMK AO2 SLP279 T00720033=
202002090253 METAR KBFI 090253Z VRB03KT 10SM BKN040 07/02 A3032 RMK AO2 SLP268 T00720022 53032=
202002090153 METAR KBFI 090153Z 32005KT 10SM BKN040 08/02 A3029 RMK AO2 SLP258 T00780022=
202002090053 METAR KBFI 090053Z 32006KT 10SM SCT040 08/02 A3026 RMK AO2 SLP245 T00830022=
202002082353 METAR KBFI 082353Z VRB03KT 10SM BKN025 BKN034 08/04 A3023 RMK AO2 SLP236 60000 T00830039 10089 20067 51030=
202002082337 SPECI KBFI 082337Z 00000KT 10SM BKN027 OVC034 08/03 A3022 RMK AO2 T00780033=
202002082253 METAR KBFI 082253Z 00000KT 10SM FEW045 BKN090 08/04 A3020 RMK AO2 RAE04B23E35 SLP226 P0000 T00830039=
202002082153 METAR KBFI 082153Z VRB06KT 10SM -RA SCT021 OVC037 07/04 A3018 RMK AO2 RAE38B41 SLP218 P0000 T00720044=
202002082140 SPECI KBFI 082140Z 05011KT 10SM BKN021 OVC033 07/04 A3017 RMK AO2 RAE38 P0000 T00720044=
202002082131 SPECI KBFI 082131Z 05008KT 9SM -RA SCT021 BKN031 OVC048 07/04 A3016 RMK AO2 P0000 T00670044=
202002082053 METAR KBFI 082053Z 05009KT 10SM -RA FEW022 BKN028 OVC034 07/03 A3014 RMK AO2 RAB53 SLP206 P0000 60000 T00670033 51029=
202002081953 METAR KBFI 081953Z VRB04KT 10SM FEW021 BKN049 OVC070 09/04 A3011 RMK AO2 SLP196 T00890039=
202002081853 METAR KBFI 081853Z 17006KT 10SM FEW016 SCT055 BKN080 08/04 A3008 RMK AO2 SLP186 T00780039=
202002081753 METAR KBFI 081753Z 16007KT 10SM SCT016 BKN035 BKN060 07/04 A3005 RMK AO2 SLP176 60000 T00720039 10078 20056 51044=
202002081653 METAR KBFI 081653Z 15006KT 10SM FEW017 FEW037 OVC070 07/04 A3001 RMK AO2 SLP163 T00670044=
202002081604 SPECI KBFI 081604Z 12006KT 10SM FEW029 BKN041 OVC050 07/04 A2998 RMK AO2 T00670044=
202002081553 METAR KBFI 081553Z 12006KT 10SM SCT017 BKN023 OVC050 07/04 A2997 RMK AO2 SLP149 T00670044=
202002081523 SPECI KBFI 081523Z 10003KT 10SM SCT017 BKN023 OVC080 06/04 A2995 RMK AO2 T00610044=
202002081453 METAR KBFI 081453Z 14006KT 10SM SCT017 BKN055 OVC070 06/04 A2992 RMK AO2 RAE1357 SLP132 P0000 60000 T00610044 51042=
202002081353 METAR KBFI 081353Z 12003KT 10SM -RA SCT016 BKN033 OVC050 07/04 A2990 RMK AO2 SLP124 P0000 T00670039=
202002081340 SPECI KBFI 081340Z VRB03KT 9SM -RA BKN016 OVC033 07/04 A2989 RMK AO2 P0000 T00670039=
202002081333 SPECI KBFI 081333Z 00000KT 10SM -RA SCT023 BKN033 OVC042 07/04 A2989 RMK AO2 P0000 T00670039=
202002081253 METAR KBFI 081253Z 00000KT 10SM -RA BKN016 OVC036 07/04 A2987 RMK AO2 RAB36 PRESRR SLP113 P0000 T00720044=
202002081153 METAR KBFI 081153Z AUTO 23009G19KT 10SM BKN020 BKN120 08/04 A2980 RMK AO2 SLP090 60000 70016 T00780039 10083 20072 53018=
202002081053 METAR KBFI 081053Z 21013G22KT 10SM BKN020 BKN120 08/04 A2975 RMK AO2 PK WND 21026/1023 SLP074 T00830039=
202002080953 METAR KBFI 080953Z 19011G26KT 10SM BKN020 OVC027 08/04 A2975 RMK AO2 PK WND 19026/0949 SLP072 T00830039=
202002080853 METAR KBFI 080853Z 19014G22KT 10SM OVC022 08/04 A2975 RMK AO2 PK WND 17027/0820 SLP072 60000 T00780039 56013=
202002080753 METAR KBFI 080753Z 18010G20KT 10SM OVC022 08/04 A2976 RMK AO2 PK WND 19026/0657 RAE02 SLP076 P0000 T00780039 401110067=
202002080653 METAR KBFI 080653Z 17017G29KT 10SM -RA OVC026 07/04 A2976 RMK AO2 PK WND 17029/0644 RAB10 SLP076 P0000 T00720039=
202002080553 METAR KBFI 080553Z 19010G19KT 10SM OVC028 08/03 A2978 RMK AO2 PK WND 19027/0458 RAB14E34 SLP085 P0000 60011 T00830033 10106 20078 56006=
202002080453 METAR KBFI 080453Z 18014G22KT 10SM SCT025 SCT033 08/03 A2979 RMK AO2 PK WND 20031/0413 SLP088 T00780033=
202002080412 SPECI KBFI 080412Z 20013G27KT 10SM SCT023 08/04 A2979 RMK AO2 PK WND 18028/0359 T00780039=
202002080400 SPECI KBFI 080400Z 20020G28KT 10SM BKN024 08/04 A2978 RMK AO2 PK WND 18028/0359 T00780044=
202002080353 METAR KBFI 080353Z 20013G23KT 160V230 10SM SCT017 BKN039 OVC090 08/04 A2979 RMK AO2 RAE0257 SLP086 P0000 T00780044=
202002080300 SPECI KBFI 080300Z 20013G21KT 10SM SCT017 BKN039 OVC090 08/04 A2980 RMK AO2 RAE0257 P0000 T00780039=
202002080253 METAR KBFI 080253Z 20013G22KT 10SM -RA SCT017 BKN022 OVC036 08/04 A2980 RMK AO2 PK WND 21032/0237 WSHFT 0230 SLP091 P0008 60011 T00780039 56013=
202002080250 SPECI KBFI 080250Z 20013G25KT 9SM -RA SCT017 BKN022 OVC036 08/04 A2981 RMK AO2 PK WND 21032/0237 WSHFT 0230 P0008=
202002080153 METAR KBFI 080153Z 19012G20KT 8SM -RA SCT017 BKN022 OVC036 09/07 A2982 RMK AO2 RAB0054 SLP097 P0003 T00940067=
202002080053 METAR KBFI 080053Z 18014G23KT 10SM BKN023 OVC028 11/06 A2984 RMK AO2 PK WND 16027/2355 SLP104 T01060061=
202002080000 SPECI KBFI 080000Z 17017G27KT 10SM SCT020 BKN060 10/07 A2985 RMK AO2 PK WND 16027/2355 PRESFR T01000067=
202002072353 METAR KBFI 072353Z 18013G22KT 5SM HZ BKN024 OVC029 10/07 A2987 RMK AO2 RAE33 PRESFR SLP114 P0004 60005 T01000072 10111 20094 58027=
202002072253 METAR KBFI 072253Z 24012G22KT 5SM -RA BR BKN024 OVC029 09/07 A2991 RMK AO2 PK WND 21028/2243 RAB26 SLP129 P0001 T00940072=
202002072153 METAR KBFI 072153Z 19011G18KT 10SM BKN020 OVC060 11/08 A2995 RMK AO2 SLP141 T01110078=
202002072100 SPECI KBFI 072100Z 20014G22KT 10SM SCT014 BKN022 11/08 A2998 RMK AO2 T01110083=
202002072053 METAR KBFI 072053Z 20013G26KT 10SM FEW011 BKN014 BKN022 11/08 A2998 RMK AO2 PK WND 19026/2049 SLP152 60000 T01110083 58017=
202002071953 METAR KBFI 071953Z 19013G19KT 10SM BKN015 OVC023 11/08 A3001 RMK AO2 RAB05E15 SLP160 P0000 T01110083=
202002071853 METAR KBFI 071853Z 19014G23KT 8SM SCT007 BKN015 OVC080 11/08 A3002 RMK AO2 PK WND 19028/1841 SLP164 T01110083=
202002071835 SPECI KBFI 071835Z 19015G25KT 8SM SCT007 BKN014 OVC080 11/08 A3001 RMK AO2 T01060083=
202002071753 METAR KBFI 071753Z 18011G20KT 5SM BR BKN007 OVC010 11/08 A3003 RMK AO2 RAE49 SLP170 P0000 60000 T01060083 10106 20067 56007=
202002071700 SPECI KBFI 071700Z 16006KT 2 1/2SM -RA BR OVC005 08/08 A3004 RMK AO2 P0000 T00830078=
202002071653 METAR KBFI 071653Z 16005KT 3SM -RA BR OVC005 08/07 A3003 RMK AO2 SLP170 P0000 T00780072=
202002071553 METAR KBFI 071553Z 16003KT 2SM -RA BR OVC005 07/06 A3004 RMK AO2 SLP173 P0000 T00670061=
202002071453 METAR KBFI 071453Z 00000KT 2SM -RA BR OVC005 07/06 A3005 RMK AO2 SLP177 P0000 60000 T00670061 58002=
202002071400 SPECI KBFI 071400Z 00000KT 1 1/2SM -RA BR OVC005 07/06 A3006 RMK AO2 P0000 T00670061=
202002071353 METAR KBFI 071353Z 00000KT 1 1/2SM -RA BR OVC003 07/06 A3006 RMK AO2 DZE49RAB49 SLP180 P0000 T00670061=
202002071333 SPECI KBFI 071333Z 32004KT 1 3/4SM -DZ BR OVC003 07/06 A3007 RMK AO2 P0000 T00670056=
202002071323 SPECI KBFI 071323Z 31004KT 1 3/4SM -DZ BR OVC005 07/06 A3007 RMK AO2 P0000 T00670061=
202002071316 SPECI KBFI 071316Z 32003KT 2SM -DZ BR OVC005 07/06 A3007 RMK AO2 P0000 T00670061=
202002071253 METAR KBFI 071253Z 00000KT 2SM -DZ BR OVC004 07/06 A3006 RMK AO2 SLP180 P0000 T00670061=
202002071210 SPECI KBFI 071210Z 00000KT 2SM -DZ BR OVC003 07/06 A3006 RMK AO2 P0000 T00670061=
202002071153 METAR KBFI 071153Z VRB03KT 1 3/4SM -DZ BR OVC003 07/06 A3006 RMK AO2 SLP179 P0000 60000 70043 T00670061 10067 20067 53017=
202002071102 SPECI KBFI 071102Z VRB03KT 1 1/2SM -DZ BR OVC004 07/06 A3005 RMK AO2 P0000 T00670061=
202002071053 METAR KBFI 071053Z 31003KT 2SM -DZ BR OVC004 07/06 A3005 RMK AO2 SLP174 P0000 T00670061=
202002071042 SPECI KBFI 071042Z 00000KT 2SM -DZ BR OVC004 07/06 A3004 RMK AO2 P0000 T00670061=
202002070953 METAR KBFI 070953Z 00000KT 1 1/2SM -DZ BR OVC004 07/06 A3002 RMK AO2 SLP166 P0000 T00670061=
202002070853 METAR KBFI 070853Z 00000KT 1 3/4SM -DZ BR OVC003 07/06 A3001 RMK AO2 SLP163 P0000 60000 T00670061 51008=
202002070818 SPECI KBFI 070818Z 00000KT 1 3/4SM -DZ BR OVC004 07/06 A3002 RMK AO2 P0000 T00670061=
202002070753 METAR KBFI 070753Z 34003KT 2SM -DZ BR OVC004 07/06 A3001 RMK AO2 SLP162 P0000 T00670061 401060067=
202002070705 SPECI KBFI 070705Z 00000KT 2SM -DZ BR OVC004 07/06 A3001 RMK AO2 P0000 T00670061=
202002070653 METAR KBFI 070653Z 30003KT 1 3/4SM -DZ BR OVC004 07/06 A3001 RMK AO2 DZB12 SLP163 P0000 T00670061=
202002070618 SPECI KBFI 070618Z 32003KT 1 3/4SM -DZ BR OVC004 07/06 A3001 RMK AO2 DZB12 P0000 T00670061=
202002070602 SPECI KBFI 070602Z 30003KT 3SM BR OVC004 07/06 A3000 RMK AO2 T00670061=
202002070555 SPECI KBFI 070555Z 00000KT 1 3/4SM BR OVC004 07/06 A2999 RMK AO2 T00670061=
202002070553 METAR KBFI 070553Z 00000KT 3SM BR OVC004 07/06 A2999 RMK AO2 SLP155 60000 T00670061 10083 20067 51010=
202002070453 METAR KBFI 070453Z 32004KT 3SM BR OVC003 07/06 A2999 RMK AO2 SLP155 T00720061=
202002070353 METAR KBFI 070353Z 31004KT 2 1/2SM BR OVC004 08/07 A2997 RMK AO2 SLP148 T00780067=
202002070305 SPECI KBFI 070305Z 00000KT 3SM BR OVC004 08/07 A2996 RMK AO2 T00780072=
202002070300 SPECI KBFI 070300Z 00000KT 2 1/2SM BR BKN006 OVC013 08/07 A2996 RMK AO2 T00780067=
202002070253 METAR KBFI 070253Z 00000KT 2 1/2SM BR OVC004 08/07 A2996 RMK AO2 RAE01 SLP145 P0000 60000 T00780072 54000=
202002070153 METAR KBFI 070153Z 00000KT 2SM -RA BR OVC004 08/07 A2996 RMK AO2 SLP143 P0000 T00780072=
202002070138 SPECI KBFI 070138Z 00000KT 2SM -RA BR OVC004 08/07 A2997 RMK AO2 P0000 T00780072=
202002070127 SPECI KBFI 070127Z VRB03KT 3SM -RA BR OVC004 08/07 A2996 RMK AO2 P0000 T00780072=
202002070119 SPECI KBFI 070119Z 31003KT 2 1/2SM -RA BR OVC004 08/07 A2997 RMK AO2 P0000 T00780072=
202002070107 SPECI KBFI 070107Z 33004KT 3SM -RA BR OVC005 08/07 A2996 RMK AO2 P0000 T00780072=
202002070053 METAR KBFI 070053Z 32004KT 2SM -RA BR OVC004 08/07 A2996 RMK AO2 RAE39B45 SLP146 P0000 T00780072=
202002070048 SPECI KBFI 070048Z 33005KT 2 1/2SM -RA BR OVC006 08/07 A2996 RMK AO2 RAE39B45 P0000=
202002070044 SPECI KBFI 070044Z 31004KT 3SM BR OVC004 08/07 A2996 RMK AO2 RAE39 P0000 T00780072=
202002070022 SPECI KBFI 070022Z 31004KT 2SM -RA BR OVC004 08/07 A2996 RMK AO2 P0000 T00830072=
202002062353 METAR KBFI 062353Z 31004KT 10SM -RA OVC006 08/07 A2996 RMK AO2 RAB53 SLP145 P0000 60029 T00830072 10106 20083 55016=
202002062253 METAR KBFI 062253Z VRB05KT 6SM BR OVC007 10/08 A2996 RMK AO2 RAB2157E46 SLP143 P0000 T01000083=
202002062153 METAR KBFI 062153Z 21008KT 180V240 6SM BR OVC007 11/09 A2998 RMK AO2 SLP152 T01060089=
202002062053 METAR KBFI 062053Z 18006KT 4SM BR BKN005 OVC011 10/09 A3001 RMK AO2 RAE10 SLP161 P0000 60029 T01000089 58023=
202002061953 METAR KBFI 061953Z 12003KT 1 3/4SM -RA BR OVC005 08/08 A3004 RMK AO2 SLP171 P0027 T00830078=
202002061853 METAR KBFI 061853Z 00000KT 1SM -RA BR BKN005 OVC016 08/07 A3006 RMK AO2 SLP180 P0002 T00830072=
202002061827 SPECI KBFI 061827Z 11003KT 1 3/4SM -RA BR BKN005 BKN016 OVC022 08/07 A3007 RMK AO2 P0001 T00830067=
202002061800 SPECI KBFI 061800Z 16004KT 3SM -RA BR BKN005 OVC015 09/08 A3008 RMK AO2 P0001 T00890083=
202002061753 METAR KBFI 061753Z 00000KT 4SM -RA BR BKN006 OVC020 09/08 A3008 RMK AO2 SLP185 P0005 60014 T00940083 10094 20083 58003=
202002061653 METAR KBFI 061653Z 00000KT 6SM -RA BR BKN007 OVC012 09/08 A3008 RMK AO2 SLP185 P0000 T00890078=
202002061553 METAR KBFI 061553Z 13003KT 6SM -RA BR BKN007 OVC045 08/08 A3009 RMK AO2 SLP187 P0003 T00830078=
202002061453 METAR KBFI 061453Z 00000KT 6SM -RA BR BKN005 OVC040 09/08 A3009 RMK AO2 SLP187 P0003 60006 T00890078 50001=
202002061353 METAR KBFI 061353Z 00000KT 5SM -RA BR BKN006 OVC040 09/08 A3009 RMK AO2 RAB14 SLP189 P0003 T00890078=
202002061253 METAR KBFI 061253Z 00000KT 6SM BR BKN006 OVC020 09/08 A3008 RMK AO2 RAE31 SLP186 P0000 T00890083=
202002061153 METAR KBFI 061153Z 00000KT 3SM -RA BR BKN005 BKN008 OVC020 09/08 A3008 RMK AO2 RAE23B45 SLP186 P0000 60001 70018 T00890083 10100 20089 53004=
202002061053 METAR KBFI 061053Z 00000KT 4SM -RA BR BKN005 OVC020 09/08 A3008 RMK AO2 RAB00 SLP186 P0000 T00890083=
202002060953 METAR KBFI 060953Z 15003KT 4SM BR FEW005 BKN022 OVC038 09/08 A3007 RMK AO2 SLP182 T00890083=
202002060853 METAR KBFI 060853Z 20004KT 4SM BR SCT008 OVC018 09/08 A3007 RMK AO2 SLP182 60001 T00940083 53008=
202002060753 METAR KBFI 060753Z 18004KT 4SM BR FEW009 OVC015 09/08 A3006 RMK AO2 SLP178 T00940083 401060050=
202002060748 SPECI KBFI 060748Z 19004KT 4SM BR FEW009 OVC017 09/08 A3006 RMK AO2=
202002060653 METAR KBFI 060653Z 17004KT 4SM BR OVC015 09/08 A3005 RMK AO2 RAE25 SLP174 P0001 T00940083=
202002060553 METAR KBFI 060553Z 19003KT 5SM -RA BR OVC012 10/08 A3005 RMK AO2 RAE11B35 SLP174 P0000 60001 T01000083 10106 20100 51006=
202002060453 METAR KBFI 060453Z 20003KT 10SM -RA OVC012 10/08 A3004 RMK AO2 SLP173 P0000 T01000083=
202002060353 METAR KBFI 060353Z 20007KT 8SM -RA OVC013 10/08 A3004 RMK AO2 SLP171 P0000 T01000083=
202002060253 METAR KBFI 060253Z 19005KT 10SM -RA OVC014 11/08 A3003 RMK AO2 SLP168 P0000 60001 T01060083 55003=
202002060153 METAR KBFI 060153Z 16009KT 4SM -RA BR SCT007 OVC012 10/08 A3002 RMK AO2 SLP165 P0000 T01000083=
202002060053 METAR KBFI 060053Z 15007KT 4SM -RA BR SCT007 OVC012 10/09 A3004 RMK AO2 SLP170 P0001 T01000089=
202002052353 METAR KBFI 052353Z 16006KT 2SM -RA BR SCT006 OVC010 10/09 A3004 RMK AO2 SLP171 P0003 60010 T01000089 10100 20078 56003=
202002052325 SPECI KBFI 052325Z 17006KT 3SM -RA BR OVC010 09/08 A3004 RMK AO2 P0002 T00940083=
202002052318 SPECI KBFI 052318Z 15006KT 2 1/2SM -RA BR OVC010 09/08 A3004 RMK AO2 P0001 T00940083=
202002052313 SPECI KBFI 052313Z 15007KT 4SM -RA BR OVC008 09/08 A3005 RMK AO2 P0001 T00940083=
202002052258 SPECI KBFI 052258Z 15007KT 2SM -RA BR OVC008 09/08 A3004 RMK AO2 P0001 T00940083=
202002052253 METAR KBFI 052253Z 15007KT 1 3/4SM -RA BR OVC010 09/08 A3004 RMK AO2 SLP171 P0007 T00940083=
202002052153 METAR KBFI 052153Z 13005KT 1 1/4SM -RA BR OVC009 09/08 A3004 RMK AO2 CIG 006V012 SLP173 P0000 T00890083=
202002052053 METAR KBFI 052053Z 15008KT 1 1/4SM -RA BR OVC005 09/08 A3005 RMK AO2 SLP174 P0000 60000 T00890078 58006=
202002051953 METAR KBFI 051953Z 15009KT 1SM -RA BR OVC005 08/08 A3006 RMK AO2 RAB29E41B49 SLP178 P0000 T00830078=
202002051853 METAR KBFI 051853Z 14008KT 1 1/2SM BR BKN004 OVC009 08/07 A3006 RMK AO2 RAE41 SLP179 P0000 T00780072=
202002051753 METAR KBFI 051753Z 15009KT 2 1/2SM -RA BR BKN007 OVC010 08/07 A3006 RMK AO2 SLP180 P0000 60006 T00780067 10078 20067 50004=
202002051653 METAR KBFI 051653Z 16008KT 2 1/2SM -RA BR BKN007 OVC013 07/07 A3007 RMK AO2 SLP181 P0004 T00720067=
202002051553 METAR KBFI 051553Z 14007KT 2 1/2SM -RA BR BKN007 OVC013 07/07 A3006 RMK AO2 SLP178 P0000 T00720067=
202002051453 METAR KBFI 051453Z 14007KT 2 1/2SM -RA BR OVC007 07/06 A3005 RMK AO2 SLP176 P0002 60002 T00670061 55003=
202002051353 METAR KBFI 051353Z 13003KT 2 1/2SM -RA BR OVC007 07/06 A3005 RMK AO2 CIG 006V010 SLP174 P0000 T00670061=
202002051253 METAR KBFI 051253Z 19005KT 2 1/2SM -RA BR OVC008 07/06 A3006 RMK AO2 SLP178 P0000 T00670056=
202002051153 METAR KBFI 051153Z 15004KT 9SM -RA OVC010 07/05 A3006 RMK AO2 SLP180 P0000 60000 70003 T00670050 10067 20044 56016=
202002051053 METAR KBFI 051053Z 14005KT 10SM -RA OVC013 06/04 A3007 RMK AO2 SLP182 P0000 T00610044=
202002050953 METAR KBFI 050953Z 14010KT 10SM -RA OVC016 06/04 A3008 RMK AO2 SLP186 P0000 T00560039=
202002050853 METAR KBFI 050853Z 13007KT 10SM -RA OVC017 06/04 A3011 RMK AO2 SLP195 P0000 60000 T00560039 56020=
202002050753 METAR KBFI 050753Z 14009KT 10SM -RA OVC017 05/03 A3012 RMK AO2 RAB20 SLP200 P0000 T00500033 400500000=
202002050653 METAR KBFI 050653Z 14009KT 10SM OVC017 04/03 A3014 RMK AO2 RAE05 SLP207 P0000 T00440028=
202002050553 METAR KBFI 050553Z 17008KT 10SM -RA OVC027 05/03 A3017 RMK AO2 SLP215 P0000 60003 T00500028 10050 20028 56027=
202002050453 METAR KBFI 050453Z 00000KT 10SM -RA OVC024 04/03 A3019 RMK AO2 SLP222 P0000 T00440028=
202002050353 METAR KBFI 050353Z 15006KT 10SM -RA OVC028 04/03 A3021 RMK AO2 SLP229 P0000 T00390028=
202002050253 METAR KBFI 050253Z 14009KT 10SM -RA FEW011 OVC050 03/02 A3025 RMK AO2 SLP242 P0003 60003 T00330022 58014=
202002050153 METAR KBFI 050153Z 15008KT 10SM -RA SCT045 OVC080 04/02 A3028 RMK AO2 SLP252 P0000 T00390017=
202002050053 METAR KBFI 050053Z 15008KT 10SM -RA SCT009 OVC075 03/02 A3029 RMK AO2 UPB2358E09DZB43E46RAB46 SLP255 P0000 T00330017=
202002050049 SPECI KBFI 050049Z 14008KT 10SM -RA SCT009 OVC075 03/02 A3029 RMK AO2 UPB2358E09DZB43E46RAB46 P0000=
202002042353 METAR KBFI 042353Z 15009KT 10SM SCT025 OVC050 03/01 A3032 RMK AO2 RAE51 SLP268 P0000 60000 T00280011 10028 20011 58026=
202002042253 METAR KBFI 042253Z 15007KT 10SM -RA SCT008 BKN050 OVC065 02/01 A3036 RMK AO2 RAB52 SLP280 P0000 T00220011=
202002042153 METAR KBFI 042153Z 15012KT 4SM BR BKN007 BKN015 OVC022 02/01 A3037 RMK AO2 SNE49 SLP285 P0000 T00170006=
202002042106 SPECI KBFI 042106Z 15010KT 4SM -SN BR BKN007 BKN012 OVC022 02/01 A3040 RMK AO2 P0000 T00170006=
202002042101 SPECI KBFI 042101Z 15010KT 9SM -SN SCT007 BKN012 OVC022 02/01 A3040 RMK AO2 P0000 T00170006=
202002042053 METAR KBFI 042053Z 14010KT 4SM -SN BR BKN007 BKN017 OVC025 02/00 A3040 RMK AO2 SLP294 P0000 60000 T00170000 57021=
202002041953 METAR KBFI 041953Z 15013KT 2SM -SN BR BKN007 BKN017 OVC025 01/00 A3042 RMK AO2 SLP300 P0000 T00110000=
202002041923 SPECI KBFI 041923Z 15012KT 2SM -SN BR BKN007 BKN019 OVC029 01/00 A3043 RMK AO2 P0000 T00110000=
202002041853 METAR KBFI 041853Z 17011KT 3SM -SN BKN007 BKN019 OVC029 02/M01 A3045 RMK AO2 SLP309 P0000 T00221006=
202002041753 METAR KBFI 041753Z 17009KT 8SM -SN BKN007 BKN045 OVC055 02/M01 A3046 RMK AO2 SNB51 SLP315 P0000 60000 T00221011 10022 20006 55012=
202002041653 METAR KBFI 041653Z 14007KT 10SM FEW015 OVC080 02/M01 A3046 RMK AO2 SLP313 T00171011=
202002041553 METAR KBFI 041553Z 15008KT 10SM FEW011 OVC080 01/M02 A3046 RMK AO2 SLP315 T00111017=
202002041453 METAR KBFI 041453Z 14006KT 10SM OVC090 01/M01 A3050 RMK AO2 SLP327 T00111011 53007=
202002041353 METAR KBFI 041353Z 15008KT 10SM SCT015 SCT040 OVC100 01/M01 A3048 RMK AO2 SLP320 T00061011=
202002041253 METAR KBFI 041253Z AUTO 14006KT 10SM CLR 01/M01 A3048 RMK AO2 SLP322 T00061011 TSNO=
202002041153 METAR KBFI 041153Z 14006KT 10SM CLR 01/M01 A3048 RMK AO2 SLP320 T00111011 10033 20000 51001=
202002041053 METAR KBFI 041053Z 14006KT 10SM CLR 01/M01 A3048 RMK AO2 SLP320 T00061011=
202002040953 METAR KBFI 040953Z 15004KT 10SM OVC055 01/M01 A3048 RMK AO2 SLP321 T00111006=
202002040853 METAR KBFI 040853Z 12003KT 10SM BKN055 02/00 A3048 RMK AO2 SLP319 T00220000 53003=
202002040753 METAR KBFI 040753Z 11003KT 10SM OVC060 02/01 A3048 RMK AO2 SLP319 T00220006 400670017=
202002040653 METAR KBFI 040653Z 00000KT 10SM BKN055 03/00 A3046 RMK AO2 SLP315 T00280000=
202002040553 METAR KBFI 040553Z 17004KT 10SM FEW030 BKN055 03/00 A3047 RMK AO2 SLP316 T00280000 10061 20028 51016=
202002040453 METAR KBFI 040453Z 11003KT 10SM FEW030 BKN050 04/00 A3047 RMK AO2 SLP316 T00390000=
202002040353 METAR KBFI 040353Z 00000KT 10SM SCT030 BKN050 04/M01 A3044 RMK AO2 SLP307 T00441011=
202002040253 METAR KBFI 040253Z 06003KT 10SM SCT037 BKN047 04/M02 A3042 RMK AO2 SLP301 T00441017 53007=
202002040153 METAR KBFI 040153Z VRB03KT 10SM BKN038 05/M03 A3042 RMK AO2 SLP299 T00501028=
202002040053 METAR KBFI 040053Z 00000KT 10SM BKN035 BKN043 OVC050 06/M02 A3040 RMK AO2 SLP294 T00561022=
202002032353 METAR KBFI 032353Z 05004KT 10SM FEW034 BKN043 BKN050 06/M02 A3040 RMK AO2 SLP293 T00611022 10067 20044 53012=
202002032253 METAR KBFI 032253Z 00000KT 10SM BKN035 06/M01 A3037 RMK AO2 SLP283 T00611011=
202002032153 METAR KBFI 032153Z 07004KT 10SM BKN030 BKN060 06/M02 A3036 RMK AO2 SLP279 T00561022=
202002032053 METAR KBFI 032053Z 32005KT 10SM SCT030 BKN060 05/M02 A3036 RMK AO2 SLP282 T00501017 51014=
202002031953 METAR KBFI 031953Z 06004KT 10SM FEW027 OVC034 04/M01 A3036 RMK AO2 SLP280 T00441006=
202002031853 METAR KBFI 031853Z 05005KT 10SM SCT024 BKN036 BKN065 04/M01 A3035 RMK AO2 SLP275 T00441011=
202002031753 METAR KBFI 031753Z 10003KT 10SM FEW010 SCT045 BKN060 05/02 A3032 RMK AO2 SLP268 60000 T00500017 10050 20017 51015=
202002031700 SPECI KBFI 031700Z 14005KT 10SM FEW007 SCT010 BKN022 03/02 A3031 RMK AO2 T00330017=
202002031653 METAR KBFI 031653Z 15005KT 10SM SCT010 BKN022 BKN028 03/02 A3031 RMK AO2 SLP264 T00330017=
202002031553 METAR KBFI 031553Z 15006KT 10SM BKN011 BKN030 02/00 A3030 RMK AO2 SLP259 T00170000=
202002031453 METAR KBFI 031453Z 14003KT 10SM BKN011 BKN032 OVC043 02/01 A3028 RMK AO2 RAE19UPB04E07 SLP253 P0000 60000 T00220011 53010=
202002031353 METAR KBFI 031353Z 12004KT 5SM -RA BR OVC012 03/02 A3027 RMK AO2 RAB08E21B39UPB09E11 SLP250 P0000 T00280017=
202002031331 SPECI KBFI 031331Z 13005KT 10SM BKN012 BKN017 OVC037 02/01 A3027 RMK AO2 RAB08E21UPB09E11 P0000 T00220011=
202002031321 SPECI KBFI 031321Z 12005KT 10SM FEW010 BKN024 OVC036 03/01 A3026 RMK AO2 RAB08E21UPB09E11 P0000 T00280011=
202002031253 METAR KBFI 031253Z 15005KT 10SM SCT009 BKN013 OVC020 02/01 A3025 RMK AO2 RAB19E46 SLP244 P0000 T00220011=
202002031250 SPECI KBFI 031250Z 15004KT 10SM SCT009 BKN013 OVC020 02/01 A3025 RMK AO2 RAB19E46 P0000=
202002031224 SPECI KBFI 031224Z 13005KT 7SM -RA FEW007 BKN021 OVC028 03/01 A3025 RMK AO2 RAB19 P0000 T00280011=
202002031207 SPECI KBFI 031207Z 14005KT 10SM BKN011 OVC035 03/01 A3024 RMK AO2 T00280011=
202002031153 METAR KBFI 031153Z 14004KT 10SM FEW008 BKN025 OVC042 03/01 A3023 RMK AO2 RAE1056 SLP237 P0000 60000 T00280011 10033 20028 50000=
202002031053 METAR KBFI 031053Z 17003KT 10SM -RA FEW008 BKN025 OVC042 03/02 A3024 RMK AO2 SLP238 P0000 T00280017=
202002031050 SPECI KBFI 031050Z 15003KT 9SM -RA FEW008 BKN025 OVC042 03/02 A3023 RMK AO2 P0000=
202002031000 SPECI KBFI 031000Z 00000KT 7SM -RA OVC012 03/01 A3023 RMK AO2 P0000 T00330011=
202002030953 METAR KBFI 030953Z 00000KT 8SM -RA OVC015 03/02 A3023 RMK AO2 RAB0854E03B19 SLP236 P0000 T00330017=
202002030942 SPECI KBFI 030942Z 00000KT 10SM -RA OVC013 03/01 A3023 RMK AO2 RAB0854E03B19 P0000 T00280011=
202002030904 SPECI KBFI 030904Z 14004KT 10SM OVC015 03/01 A3023 RMK AO2 RAB0854E03 P0000 T00330011=
202002030853 METAR KBFI 030853Z 14004KT 10SM BKN013 OVC019 03/01 A3023 RMK AO2 UPE02RAB02E49 SLP237 P0000 60000 T00330011 53004=
202002030753 METAR KBFI 030753Z 14006KT 10SM UP SCT019 BKN035 OVC050 03/00 A3023 RMK AO2 UPB53 SLP235 P0000 T00280000 400720000=
202002030653 METAR KBFI 030653Z 15007KT 10SM BKN040 BKN065 03/00 A3022 RMK AO2 SLP231 T00280000=
202002030553 METAR KBFI 030553Z 15006KT 10SM OVC080 03/M01 A3022 RMK AO2 SLP233 T00281006 10067 20017 53007=
202002030453 METAR KBFI 030453Z 15008KT 10SM CLR 03/M01 A3021 RMK AO2 SLP230 T00281011=
202002030353 METAR KBFI 030353Z 15005KT 10SM SCT070 02/M01 A3021 RMK AO2 SLP228 T00221011=
202002030253 METAR KBFI 030253Z 15005KT 10SM CLR 03/M02 A3020 RMK AO2 SLP226 T00281017 53008=
202002030153 METAR KBFI 030153Z 14004KT 10SM SCT070 03/M02 A3019 RMK AO2 SLP222 T00331022=
202002030053 METAR KBFI 030053Z 00000KT 10SM SCT020 06/M02 A3018 RMK AO2 SLP220 T00561017=
202002022353 METAR KBFI 022353Z VRB04KT 10SM SCT025 07/M01 A3018 RMK AO2 SLP218 T00671011 10072 20039 56014=
202002022253 METAR KBFI 022253Z 19005KT 10SM SCT035 07/M02 A3018 RMK AO2 SLP220 T00671017=
202002022153 METAR KBFI 022153Z 17004KT 10SM SCT030 07/00 A3019 RMK AO2 SLP221 T00670000=
202002022053 METAR KBFI 022053Z VRB04KT 10SM BKN027 06/M01 A3022 RMK AO2 SLP232 T00561006 58009=
202002022000 SPECI KBFI 022000Z 20006KT 10SM SCT027 06/00 A3023 RMK AO2 T00560000=
202002021953 METAR KBFI 021953Z 20005KT 10SM BKN014 06/00 A3023 RMK AO2 SLP236 T00610000=
202002021853 METAR KBFI 021853Z 18008KT 10SM BKN014 06/00 A3024 RMK AO2 SLP240 T00560000=
202002021841 SPECI KBFI 021841Z 17008KT 10SM BKN014 05/00 A3024 RMK AO2 T00500000=
202002021753 METAR KBFI 021753Z 14003KT 10SM FEW013 04/00 A3025 RMK AO2 SLP241 T00390000 10039 20006 58004=
202002021653 METAR KBFI 021653Z 15007KT 10SM FEW013 02/M01 A3025 RMK AO2 SLP244 T00171006=
202002021553 METAR KBFI 021553Z 15007KT 10SM SCT014 01/M01 A3026 RMK AO2 SLP245 T00061011=
202002021453 METAR KBFI 021453Z 14006KT 10SM BKN014 02/00 A3026 RMK AO2 SLP245 T00220000 58003=
202002021353 METAR KBFI 021353Z 14007KT 10SM OVC014 03/00 A3026 RMK AO2 SLP246 T00280000=
202002021253 METAR KBFI 021253Z 12004KT 10SM OVC010 03/00 A3027 RMK AO2 SLP248 T00280000=
202002021210 SPECI KBFI 021210Z 14005KT 10SM BKN013 02/M01 A3027 RMK AO2 T00171006=
202002021153 METAR KBFI 021153Z 12004KT 10SM SCT070 02/M01 A3027 RMK AO2 SLP248 70027 T00171006 10044 20000 56003=
202002021053 METAR KBFI 021053Z 13005KT 10SM FEW070 01/M01 A3027 RMK AO2 SLP249 T00111006=
202002020953 METAR KBFI 020953Z 14004KT 10SM SCT070 01/M01 A3027 RMK AO2 SLP249 T00111011=
202002020853 METAR KBFI 020853Z 08004KT 10SM SCT050 03/M01 A3028 RMK AO2 SLP252 T00281006 52004=
202002020753 METAR KBFI 020753Z 13003KT 10SM SCT050 03/M01 A3027 RMK AO2 SLP250 T00281011 401220028=
202002020653 METAR KBFI 020653Z 15007KT 10SM SCT030 03/00 A3027 RMK AO2 SLP249 T00330000=
202002020553 METAR KBFI 020553Z VRB03KT 10SM SCT033 BKN043 04/M01 A3026 RMK AO2 SLP247 T00441006 10061 20033 52007=
202002020453 METAR KBFI 020453Z 07004KT 10SM BKN029 BKN050 04/00 A3026 RMK AO2 SLP246 T00440000=
202002020353 METAR KBFI 020353Z 08007KT 10SM BKN040 04/00 A3025 RMK AO2 SLP242 T00390000=
202002020300 SPECI KBFI 020300Z 08011G20KT 10SM SCT033 OVC045 03/01 A3024 RMK AO2 T00330006=
202002020253 METAR KBFI 020253Z 07011KT 10SM BKN026 BKN033 04/01 A3024 RMK AO2 SLP240 T00390006 53019=
202002020053 METAR KBFI 020053Z 05012KT 10SM FEW024 BKN030 OVC047 06/02 A3020 RMK AO2 SLP227 T00560017=
202002012353 SPECI KBFI 012353Z 06009G15KT 10SM BKN025 OVC034 06/03 A3019 RMK AO2 SLP221 T00610028 10100 20061 53019=
202002012353 METAR KBFI 012353Z 06009G15KT 10SM BKN025 OVC034 06/03 A3019 RMK AO2 SLP221 T00610028 10100 20061 53019=
202002012253 METAR KBFI 012253Z 24005KT 10SM BKN025 OVC034 09/03 A3017 RMK AO2 SLP215 T00890028=
202002012153 METAR KBFI 012153Z 20006G16KT 10SM BKN015 BKN028 OVC250 09/04 A3014 RMK AO2 SLP206 T00940039=
202002012053 METAR KBFI 012053Z 20011G18KT 10SM BKN025 OVC050 09/04 A3013 RMK AO2 SLP203 T00890044 51036=
202002011953 METAR KBFI 011953Z VRB04KT 10SM BKN020 BKN031 09/05 A3013 RMK AO2 SLP201 T00940050=
202002011853 METAR KBFI 011853Z 19007KT 10SM OVC020 09/05 A3010 RMK AO2 SLP192 T00940050=
202002011753 METAR KBFI 011753Z 20008G22KT 160V240 10SM SCT013 BKN050 OVC150 10/06 A3002 RMK AO2 SLP166 60027 T01000056 10117 20100 53034=
202002011653 METAR KBFI 011653Z AUTO 19010G18KT 10SM CLR 11/07 A2997 RMK AO2 RAE1555 SLP149 P0000 T01110072=
202002011553 METAR KBFI 011553Z 18011G17KT 10SM -RA SCT010 BKN050 OVC110 12/09 A2993 RMK AO2 SLP135 P0002 T01170094=
202002011537 SPECI KBFI 011537Z 20008G17KT 7SM -RA SCT015 OVC050 12/09 A2994 RMK AO2 P0001 T01170094=
202002011453 METAR KBFI 011453Z 18009G17KT 7SM -RA SCT016 BKN024 OVC029 12/09 A2993 RMK AO2 PK WND 17028/1413 SLP133 P0010 60025 T01170094 51005=
202002011353 METAR KBFI 011353Z 18014G19KT 7SM -RA SCT018 BKN028 OVC045 12/09 A2992 RMK AO2 SLP130 P0005 T01170094=
202002011253 METAR KBFI 011253Z 18011G19KT 6SM -RA BR SCT013 SCT018 OVC024 12/10 A2993 RMK AO2 SLP133 P0010 T01170100=
202002011153 METAR KBFI 011153Z 19012G20KT 6SM RA BR SCT013 SCT018 OVC024 12/10 A2991 RMK AO2 SLP128 P0016 60049 70072 T01170100 10128 20117 55003=
202002011053 METAR KBFI 011053Z 18012G21KT 6SM -RA BR SCT014 BKN024 OVC040 12/09 A2991 RMK AO2 PK WND 19027/1012 SLP127 P0012 T01170094=
202002010953 METAR KBFI 010953Z 19013G24KT 5SM -RA BR SCT014 BKN024 OVC040 12/10 A2990 RMK AO2 PK WND 20027/0911 SLP126 P0015 T01170100=
202002010853 METAR KBFI 010853Z 19016G27KT 5SM RA SCT014 BKN024 OVC033 12/09 A2992 RMK AO2 PK WND 20028/0842 SLP131 P0002 60006 T01220094 56012=
202002010753 METAR KBFI 010753Z 20013G22KT 180V240 6SM -RA BR SCT014 BKN024 OVC033 12/10 A2993 RMK AO2 PK WND 21027/0657 SLP133 P0003 T01220100 401440089=
202002010653 METAR KBFI 010653Z 19015G25KT 8SM -RA SCT014 BKN024 OVC033 13/10 A2992 RMK AO2 PK WND 21029/0643 SLP132 P0001 T01280100=
202002010553 METAR KBFI 010553Z 22008G15KT 180V270 4SM -RA BKN025 OVC030 13/10 A2995 RMK AO2 RAB29 SLP143 P0001 60002 T01280100 10144 20128 55005=
202002010550 SPECI KBFI 010550Z 24006G19KT 4SM -RA BKN025 OVC030 13/10 A2995 RMK AO2 RAB29 P0001=
202002010453 METAR KBFI 010453Z 21006KT 10SM BKN030 14/09 A2995 RMK AO2 SLP141 T01440089=
202002010353 METAR KBFI 010353Z 17012G18KT 10SM SCT026 OVC032 14/10 A2997 RMK AO2 PK WND 18027/0254 SLP148 T01390100=
202002010253 METAR KBFI 010253Z 17018G30KT 10SM FEW026 BKN042 OVC065 14/10 A2997 RMK AO2 PK WND 17030/0240 RAE09 SLP148 P0000 60001 T01390100 58023=
202002010153 METAR KBFI 010153Z 17012G31KT 6SM -RA SCT025 BKN030 OVC046 14/11 A3002 RMK AO2 PK WND 18031/0144 RAB35 SLP164 P0000 T01390111=
202002010053 METAR KBFI 010053Z 16013G22KT 10SM BKN022 OVC030 14/12 A3002 RMK AO2 PK WND 16027/2359 RAB2356E41 SLP164 P0001 T01440117=
202002010004 SPECI KBFI 010004Z 17015G27KT 4SM -RA BR SCT025 BKN032 OVC050 14/12 A3003 RMK AO2 PK WND 16027/2359 RAB2356 P0000 T01390117=

# No short TAF reports from KBFI in databse.

###################################
#  large TAF from KBFI
###################################
202002292320 TAF KBFI 292320Z 0100/0124 21005KT P6SM VCSH FEW025 BKN040 BKN100
                       FM010100 33006KT P6SM SCT025 BKN040 BKN100
                       TEMPO 0101/0103 -SHRA BKN025 OVC040 FM010300
                       VRB04KT P6SM VCSH SCT035 BKN100 FM010600
                       16004KT P6SM SCT050 BKN120 FM011300 VRB03KT
                       P6SM BKN030 OVC045 FM011900 21005KT P6SM
                       SCT035 BKN050=
202002291725 TAF KBFI 291725Z 2918/0118 16006KT P6SM SCT018 BKN090
                      TEMPO 2918/2921 BKN018 OVC090 FM292100 26006KT
                       P6SM VCSH SCT030 BKN090 FM292300 34005KT
                       P6SM VCSH SCT030 BKN090
                      TEMPO 2923/0103 -SHRA BKN030 OVC080 FM010300
                       VRB04KT P6SM VCSH SCT035 BKN100 FM010600
                       16004KT P6SM SCT050 BKN120 FM011300 VRB03KT
                       P6SM BKN025 BKN050=
202002291604 KBFI 291604Z 2916/0112 20004KT P6SM SCT015 BKN050 BKN090
                      TEMPO 2916/2919 BKN015 OVC050 FM292100 23010KT
                       P6SM VCSH BKN035 BKN100 FM010100 18007KT
                       P6SM SCT040 BKN100 FM010600 15005KT P6SM
                       SCT050 BKN120=
202002291440 KBFI 291440Z 2915/0112 20008KT P6SM -SHRA BKN015 OVC020 FM292100
                       23010KT P6SM VCSH BKN035 BKN100 FM010100
                       18007KT P6SM SCT040 BKN100 FM010600 15005KT
                       P6SM SCT050 BKN120=
202002291130 TAF KBFI 291130Z 2912/0112 18013G20KT P6SM -SHRA BKN020 OVC030
                       FM291500 18008KT P6SM -SHRA BKN022 OVC035
                       FM292100 23010KT P6SM VCSH SCT035 BKN100
                       FM010100 18007KT P6SM SCT040 BKN100 FM010600
                       15005KT P6SM SCT050 BKN120=
202002290520 TAF KBFI 290520Z 2906/0106 18012G20KT P6SM VCSH SCT030 BKN050
                      TEMPO 2906/2910 -SHRA BKN025 OVC040 FM291000
                       18013G20KT P6SM -SHRA BKN030 BKN050 FM291500
                       17008KT P6SM -SHRA BKN022 OVC035 FM292100
                       23010KT P6SM VCSH SCT035 BKN100 FM010100
                       18007KT P6SM SCT040 BKN100=
202002290203 KBFI 290203Z 2902/2924 22014G24KT P6SM -SHRA SCT025 OVC040
                      TEMPO 2902/2906 4SM -SHRA BR BKN022 OVC035
                       FM290600 21015G25KT P6SM BKN025 BKN040 FM291500
                       22005KT P6SM -SHRA BKN020 OVC035 FM292100
                       24010KT P6SM SCT035 BKN100=
202002282320 TAF KBFI 282320Z 2900/2924 21009G18KT P6SM SCT023 BKN150
                      TEMPO 2900/2902 -RA BKN023 BKN150 FM290200
                       18015G25KT P6SM -RA OVC025 FM290500 21015G25KT
                       P6SM BKN025 BKN040 FM291500 22005KT P6SM
                       -SHRA BKN020 OVC035 FM292100 24010KT P6SM
                       SCT035 BKN100=
202002282032 KBFI 282032Z 2821/2918 16008KT P6SM OVC009 FM282200 16008KT P6SM
                       SCT015 SCT050 BKN150 FM290000 18012G22KT
                       P6SM -RA BKN035 BKN050 OVC100 FM290200 18015G25KT
                       P6SM -RA OVC025 FM290500 21015G25KT P6SM
                       BKN025 BKN040 FM291500 22005KT P6SM -SHRA
                       BKN020 OVC035=
202002281725 TAF KBFI 281725Z 2818/2918 14008KT 4SM BR SCT003 OVC006
                      TEMPO 2818/2819 1SM BR OVC003 FM282000 16008KT
                       P6SM SCT015 SCT050 BKN150 FM290000 18012G22KT
                       P6SM -RA BKN035 BKN050 OVC100 FM290200 18015G25KT
                       P6SM -RA OVC025 FM290500 21015G25KT P6SM
                       BKN025 BKN040 FM291500 22005KT P6SM -SHRA
                       BKN020 OVC035=
202002281122 TAF KBFI 281122Z 2812/2912 00000KT P6SM SCT005 SCT200
                      TEMPO 2814/2817 3SM BR BKN005 BKN200 FM281700
                       16006KT P6SM SCT015 SCT050 BKN150 FM282000
                       16010KT P6SM SCT035 BKN050 OVC100 FM290000
                       18012G22KT P6SM -RA OVC035 FM290500 21012KT
                       P6SM -SHRA BKN030 FM291000 21012KT P6SM
                       VCSH BKN025=
202002280539 TAF KBFI 280539Z 2806/2906 02003KT P6SM SCT120 SCT200 FM281100
                       04004KT P6SM SCT013 BKN200
                      TEMPO 2812/2816 BKN013 FM281700 12006KT P6SM
                       SCT020 BKN050 BKN150 FM282000 20010KT P6SM
                       SCT030 BKN040 OVC100 FM290100 19012G20KT
                       P6SM -RA OVC035=
202002272327 TAF KBFI 272327Z 2800/2824 25006KT P6SM BKN250 FM280300 02003KT
                       P6SM SCT120 FM281200 04004KT P6SM SCT013
                       TEMPO 2812/2816 BKN013 FM281700 12006KT
                       P6SM SCT020 BKN050 BKN150 FM282000 20009KT
                       P6SM SCT030 BKN040 OVC100=
202002271724 TAF KBFI 271724Z 2718/2818 18004KT P6SM FEW100 SCT250 FM280300
                       02003KT P6SM SCT120 FM281200 04004KT P6SM
                       SCT013
                      TEMPO 2812/2816 BKN013 FM281700 12006KT P6SM
                       SCT015 BKN200=
202002271120 TAF KBFI 271120Z 2712/2812 VRB03KT P6SM SCT050 BKN120 FM271500
                       VRB03KT P6SM BKN050 BKN120 FM272100 VRB03KT
                       P6SM SCT050 SCT120 FM280400 VRB03KT P6SM
                       SCT120=
202002270520 TAF KBFI 270520Z 2706/2806 15004KT P6SM SCT040 BKN100 OVC200
                      TEMPO 2707/2711 BKN030 OVC050 FM271100 15003KT
                       P6SM OVC028 FM271800 18005KT P6SM BKN028
                       OVC040 FM272100 VRB05KT P6SM SCT030 BKN050
                       FM280300 00000KT P6SM SCT050 SCT200=
202002262320 TAF KBFI 262320Z 2700/2724 20006KT P6SM SCT030 SCT040 SCT250
                      TEMPO 2700/2704 BKN030 FM270600 18004KT P6SM
                       BKN025 BKN050 FM270900 18003KT P6SM OVC018
                       FM271800 18005KT P6SM BKN025 OVC040 FM272100
                       20005KT P6SM SCT030 BKN050=
202002261720 TAF KBFI 261720Z 2618/2718 20003KT P6SM SCT010 SCT025 OVC040
                      TEMPO 2618/2620 BKN010 FM262000 23005KT P6SM
                       BKN030 FM270100 18003KT P6SM SCT025 OVC050
                       FM270800 18004KT P6SM BKN020 OVC040=
202002261521 KBFI 261521Z 2615/2712 18003KT 3SM BR SCT007 OVC020
                      TEMPO 2615/2618 2SM -DZ BR BKN007 FM261800
                       24003KT P6SM OVC020 FM262300 22005KT P6SM
                       OVC050 FM270400 14002KT P6SM OVC050=
202002261250 KBFI 261250Z 2613/2712 15005KT P6SM OVC025
                      TEMPO 2613/2616 2SM -DZ BR OVC008 FM262100
                       24003KT P6SM OVC030 FM262300 22005KT P6SM
                       OVC050 FM270400 14002KT P6SM OVC050=
202002261120 TAF KBFI 261120Z 2612/2712 15005KT P6SM OVC025 FM262100 24003KT
                       P6SM OVC030 FM262300 22005KT P6SM OVC050
                       FM270400 14002KT P6SM OVC050=
202002260520 TAF KBFI 260520Z 2606/2706 VRB03KT P6SM OVC040 FM260900 14003KT
                       P6SM VCSH BKN035 FM261100 17002KT P6SM OVC025
                       FM262100 24003KT P6SM OVC050 FM270100 VRB03KT
                       P6SM OVC050=
202002252329 TAF KBFI 252329Z 2600/2624 18003KT P6SM OVC050 FM260900 14003KT
                       P6SM -RA BKN035 FM261100 17002KT P6SM OVC025
                       FM262100 24003KT P6SM OVC050=
202002251722 TAF KBFI 251722Z 2518/2618 VRB04KT P6SM FEW050 BKN100 FM252200
                       18003KT P6SM OVC050 FM260300 14003KT P6SM
                       -RA BKN035 FM261100 17002KT P6SM OVC025=
202002251427 KBFI 251427Z 2514/2612 VRB04KT P6SM FEW050 BKN100 FM252200 18003KT
                       P6SM OVC050 FM260300 14003KT P6SM -RA BKN035
                       FM261100 17002KT P6SM OVC025=
202002251137 TAF KBFI 251137Z 2512/2612 VRB04KT P6SM FEW050 BKN100 FM252200
                       18003KT P6SM OVC050 FM260300 14003KT P6SM
                       -RA BKN035=
202002250520 TAF KBFI 250520Z 2506/2606 VRB04KT P6SM BKN050 FM252000 18003KT
                       P6SM OVC050 FM260300 14003KT P6SM OVC040=
202002242328 TAF KBFI 242328Z 2500/2524 VRB04KT P6SM SCT035 BKN250 FM250200
                       06003KT P6SM BKN050 FM252000 14003KT P6SM
                       OVC050=
202002242052 KBFI 242052Z 2421/2518 VRB04KT P6SM SCT035 BKN250 FM250200 06003KT
                       P6SM BKN050 FM251200 11002KT P6SM OVC050=
202002241730 TAF KBFI 241730Z 2418/2518 18010KT P6SM SCT025 BKN050 FM242200
                       VRB05KT P6SM BKN050 FM250600 11002KT P6SM
                       OVC050=
202002241405 KBFI 241405Z 2414/2512 18007KT P6SM OVC040 FM241800 18010KT P6SM
                       SCT025 BKN050 FM242200 VRB05KT P6SM BKN050
                       FM250600 11002KT P6SM OVC050=
202002241130 TAF KBFI 241130Z 2412/2512 18010G18KT P6SM SCT025 OVC040 FM241800
                       18010KT P6SM SCT025 BKN050 FM242200 VRB05KT
                       P6SM BKN050 FM250600 11002KT P6SM OVC050=
202002240520 TAF KBFI 240520Z 2406/2506 20012G21KT P6SM SCT025 BKN040 FM241400
                       19010KT P6SM SCT025 BKN050 FM242200 VRB03KT
                       P6SM SCT050 BKN200=
202002232335 TAF KBFI 232335Z 2400/2424 20015G25KT P6SM SCT025 BKN040 FM240200
                       20012G20KT P6SM SCT050 FM241400 19010KT
                       P6SM SCT025 BKN050 FM242200 VRB03KT P6SM
                       SCT050 BKN200=
202002231741 TAF KBFI 231741Z 2318/2418 19015G25KT P6SM BKN025 BKN050 FM232000
                       19015G25KT P6SM SCT025 BKN050 FM240800 19012KT
                       P6SM SCT025 BKN050=
202002231521 KBFI 231521Z 2315/2412 19018G28KT 4SM -RA BKN022 OVC035 FM231700
                       19015G25KT P6SM -RA SCT015 OVC025 FM232000
                       19012G20KT P6SM VCSH SCT025 BKN040 FM240100
                       20020G28KT P6SM SCT030 BKN050 FM240600 19016G24KT
                       6SM -RA OVC015=
202002231139 TAF KBFI 231139Z 2312/2412 15007KT P6SM VCSH BKN030 OVC070 FM231300
                       16008KT 6SM -RA OVC030 FM231700 18012G20KT
                       P6SM -RA SCT015 OVC025 FM232000 18012G20KT
                       P6SM VCSH SCT025 BKN040 FM240100 20020G28KT
                       P6SM SCT030 BKN050 FM240600 19016G24KT 6SM
                       -RA OVC015=
202002230527 TAF KBFI 230527Z 2306/2406 VRB03KT P6SM SCT035 BKN050 BKN100 FM231000
                       13006KT P6SM -RA OVC045 FM231700 18012G20KT
                       P6SM -RA SCT015 OVC025 FM232000 18012G20KT
                       P6SM VCSH SCT025 BKN040 FM240100 20010KT
                       P6SM SCT030 BKN050=
202002222339 TAF KBFI 222339Z 2300/2324 VRB03KT P6SM SCT020 BKN030 OVC050 FM230400
                       VRB03KT P6SM SCT035 BKN050 BKN100 FM231000
                       13006KT P6SM -RA OVC045 FM231700 18012G20KT
                       P6SM -RA SCT015 OVC025 FM232000 18012G20KT
                       P6SM SCT025 BKN040=
202002221741 TAF KBFI 221741Z 2218/2318 18006KT P6SM OVC020 FM230000 16006KT
                       P6SM SCT025 BKN045 BKN070 FM230700 13006KT
                       P6SM SCT035 OVC060 FM231000 13006KT P6SM
                       -RA OVC045 FM231700 18012G20KT P6SM -RA
                       SCT015 OVC025=
202002221137 TAF KBFI 221137Z 2212/2312 14010KT P6SM SCT020 BKN025 OVC070 FM221500
                       16009KT P6SM BKN015 BKN050 FM230000 19005KT
                       P6SM SCT020 BKN050 FM231100 15009KT P6SM
                       VCSH OVC050=
202002220520 TAF KBFI 220520Z 2206/2306 18003KT P6SM SCT050 BKN120 BKN200 FM221000
                       16006KT P6SM FEW015 BKN050 FM221500 18006KT
                       P6SM BKN015 BKN050 FM230000 VRB04KT P6SM
                       SCT020 BKN050=
202002212322 TAF KBFI 212322Z 2200/2224 18006KT P6SM BKN250 FM220300 18003KT
                       P6SM SCT050 BKN120 BKN200 FM221000 16006KT
                       P6SM FEW015 BKN050 FM221500 18006KT P6SM
                       BKN015 BKN050=
202002211723 TAF KBFI 211723Z 2118/2218 21003KT P6SM BKN250 FM220300 18003KT
                       P6SM SCT050 BKN120 BKN200 FM221000 16006KT
                       P6SM FEW015 BKN050 FM221500 18006KT P6SM
                       BKN015 BKN050=
202002211120 TAF KBFI 211120Z 2112/2212 VRB03KT P6SM SCT250 FM211800 16006KT
                       P6SM BKN250 FM220300 18006KT P6SM SCT050
                       BKN120 BKN200 FM220900 16010KT P6SM BKN015
                       BKN050=
202002210520 TAF KBFI 210520Z 2106/2206 VRB03KT P6SM SKC FM212100 22004KT P6SM
                       FEW250=
202002210252 KBFI 210252Z 2103/2124 VRB03KT P6SM SKC FM211800 17003KT P6SM FEW250
                       FM212100 23004KT P6SM FEW250=
202002202341 TAF KBFI 202341Z 2100/2124 30005KT P6SM SCT250 FM210300 VRB03KT
                       P6SM SKC=
202002201720 TAF KBFI 201720Z 2018/2118 VRB04KT P6SM SCT250 FM202100 30005KT
                       P6SM SCT250 FM210300 VRB03KT P6SM SKC=
202002201120 TAF KBFI 201120Z 2012/2112 00000KT P6SM SKC FM201800 VRB04KT P6SM
                       SCT250=
202002200520 TAF KBFI 200520Z 2006/2106 12006KT P6SM SKC FM201500 18003KT P6SM
                       SKC FM201800 VRB04KT P6SM SKC=
202002200257 KBFI 200257Z 2003/2024 11006KT P6SM SKC FM201500 18003KT P6SM SKC=
202002192320 TAF KBFI 192320Z 2000/2024 33007KT P6SM SKC FM201000 12004KT P6SM
                       SKC=
202002191727 TAF KBFI 191727Z 1918/2018 00000KT P6SM SKC FM192000 36007KT P6SM
                       SKC FM201000 12004KT P6SM SKC=
202002191120 TAF KBFI 191120Z 1912/2012 00000KT P6SM SKC FM192000 36005KT P6SM
                       SKC=
202002190520 TAF KBFI 190520Z 1906/2006 VRB03KT P6SM SKC FM192000 36005KT P6SM
                       SKC=
202002190313 KBFI 190313Z 1903/1924 36003KT P6SM SKC FM191200 VRB03KT P6SM SKC
                       FM192100 35005KT P6SM SKC=
202002182320 TAF KBFI 182320Z 1900/1924 36007KT P6SM SKC FM190300 00000KT P6SM
                       SKC FM191500 14005KT P6SM SKC=
202002181720 TAF KBFI 181720Z 1818/1918 00000KT P6SM SKC FM182100 36007KT P6SM
                       SKC FM190300 00000KT P6SM SKC=
202002181120 TAF KBFI 181120Z 1812/1912 00000KT P6SM SKC FM182100 36007KT P6SM
                       SKC=
202002180520 TAF KBFI 180520Z 1806/1906 05006KT P6SM SCT070 BKN200 FM181400
                       05004KT P6SM SKC FM181800 36008KT P6SM FEW250=
202002180258 KBFI 180258Z 1803/1824 VRB03KT P6SM FEW070 SCT200 FM181400 05004KT
                       P6SM SKC FM181800 36008KT P6SM SKC=
202002172320 TAF KBFI 172320Z 1800/1824 03005KT P6SM SCT020 BKN040 FM180100
                       VRB03KT P6SM BKN100 FM181400 05004KT P6SM
                       SKC FM181800 36008KT P6SM SKC=
202002172059 KBFI 172059Z 1721/1818 30005KT P6SM SCT020 BKN040 FM180100 VRB03KT
                       P6SM BKN100 FM181400 05004KT P6SM SKC FM181700
                       36008KT P6SM SKC=
202002171757 TAF KBFI 171757Z 1718/1818 14006KT P6SM SCT070 FM172100 23005KT
                       P6SM SCT050 SCT180 FM180100 VRB03KT P6SM
                       BKN090=
202002171720 KBFI 171720Z 1717/1812 14006KT P6SM SCT070 FM172100 23005KT P6SM
                       SCT050 SCT180 FM180100 VRB03KT P6SM BKN090=
202002171403 KBFI 171403Z 1714/1812 14006KT P6SM SCT070 FM172100 23005KT P6SM
                       SCT050 SCT180 FM180100 VRB03KT P6SM BKN090=
202002171129 TAF KBFI 171129Z 1712/1812 15008KT P6SM BKN070 FM172100 23005KT
                       P6SM SCT050 SCT180 FM180100 VRB03KT P6SM
                       BKN060=
202002170903 KBFI 170903Z 1709/1806 16007KT P6SM VCSH SCT035 BKN060
                      TEMPO 1709/1711 -SHRA FM171600 15005KT P6SM
                       OVC035 FM172000 25005KT P6SM OVC040 FM180100
                       31004KT P6SM BKN080=
202002170538 TAF KBFI 170538Z 1706/1806 17007KT P6SM VCSH SCT035 OVC090 FM171600
                       15005KT P6SM OVC035 FM172000 25005KT P6SM
                       OVC040 FM180100 31004KT P6SM BKN080=
202002162320 TAF KBFI 162320Z 1700/1724 20012KT P6SM VCSH OVC030
                      TEMPO 1700/1704 -SHRA OVC025 FM170500 17007KT
                       P6SM VCSH OVC040 FM171600 15005KT P6SM OVC035
                       FM171900 25005KT P6SM OVC040=
202002161720 TAF KBFI 161720Z 1618/1718 16008KT P6SM VCSH OVC015 FM162100 20012G18KT
                       P6SM -SHRA BKN035 OVC050 FM170500 17007KT
                       P6SM VCSH OVC040 FM171600 15005KT P6SM OVC035=
202002161403 KBFI 161403Z 1614/1712 VRB05KT P6SM VCSH BKN015 OVC020 FM161600
                       16008KT P6SM VCSH OVC025 FM162100 20012G18KT
                       P6SM -SHRA BKN035 OVC050 FM170500 17007KT
                       P6SM VCSH OVC040=
202002161126 TAF KBFI 161126Z 1612/1712 17005KT P6SM VCSH OVC025
                      TEMPO 1612/1615 6SM -RA FM161500 16008KT
                       P6SM VCSH OVC025 FM162100 20012G18KT P6SM
                       -SHRA BKN035 OVC050 FM170500 17007KT P6SM
                       VCSH OVC040=
202002160903 KBFI 160903Z 1609/1706 09007KT P6SM VCSH OVC012
                      TEMPO 1609/1612 6SM -RA FM161900 19010KT
                       P6SM -RA OVC025 FM162200 20012KT P6SM -SHRA
                       OVC025 FM170300 17007KT P6SM OVC040=
202002160538 TAF KBFI 160538Z 1606/1706 17006KT P6SM VCSH OVC015 FM161900 19010KT
                       P6SM -RA OVC025 FM162200 20012KT P6SM -SHRA
                       OVC025 FM170300 17007KT P6SM OVC040=
202002152320 TAF KBFI 152320Z 1600/1624 16009KT P6SM -RA SCT010 OVC015
                      TEMPO 1600/1602 3SM -RA BR OVC010 FM160200
                       18006KT P6SM VCSH OVC025 FM161400 17008KT
                       P6SM OVC030 FM161900 19010KT P6SM -RA OVC030=
202002151723 TAF KBFI 151723Z 1518/1618 17011KT P6SM SCT025 OVC060 FM152100
                       16009KT P6SM -RA OVC015 FM160200 18006KT
                       P6SM VCSH OVC025 FM161400 17008KT P6SM OVC030=
202002151122 TAF KBFI 151122Z 1512/1612 16010KT P6SM -RA BKN015 OVC025 FM151500
                       16009KT P6SM -RA OVC015 FM160200 18006KT
                       P6SM VCSH OVC022=
202002150903 KBFI 150903Z 1509/1606 16010KT P6SM -RA SCT022 OVC035 FM151700
                       17010KT 5SM -RA OVC020 FM152100 18010KT
                       5SM -RA BR OVC020 FM160200 18004KT 6SM BR
                       VCSH OVC025=
202002150535 TAF KBFI 150535Z 1506/1606 20006KT P6SM -RA OVC030 FM151700 17010KT
                       5SM -RA OVC020 FM152100 18010KT 5SM -RA
                       BR OVC020 FM160200 18004KT 6SM BR VCSH OVC025=
202002142327 TAF KBFI 142327Z 1500/1524 19010KT P6SM SCT035 BKN150 FM150100
                       20008KT P6SM BKN050 OVC100 FM150600 17009KT
                       6SM -RA OVC030 FM151700 16011KT P6SM -RA
                       OVC020 FM152100 18007KT 5SM -RA BR OVC020=
202002141720 TAF KBFI 141720Z 1418/1518 17010KT P6SM SCT020 BKN030 FM142100
                       19010KT P6SM BKN045 FM150100 20008KT P6SM
                       BKN050 OVC100 FM150600 17009KT 6SM -RA OVC030
                       FM151700 16011KT P6SM -SHRA OVC020=
202002141404 KBFI 141404Z 1414/1512 19005KT P6SM BKN020 FM141700 17010G15KT
                       P6SM FEW020 BKN030 FM142100 19010KT P6SM
                       BKN045 FM150100 20008KT P6SM BKN050 OVC100
                       FM150600 17009KT 6SM -RA OVC030=
202002141135 TAF KBFI 141135Z 1412/1512 VRB05KT P6SM OVC018 FM141600 17010G15KT
                       P6SM FEW020 BKN030 FM142100 19010KT P6SM
                       BKN045 FM150100 20008KT P6SM BKN050 OVC100
                       FM150600 17009KT 6SM -RA OVC030=
202002140903 KBFI 140903Z 1409/1506 21010KT P6SM OVC018 FM141400 17006KT P6SM
                       BKN015 OVC025 FM141700 17010KT P6SM SCT015
                       BKN022 OVC040 FM142100 15006KT P6SM SCT025
                       BKN040 OVC070 FM150000 20008KT P6SM SCT040
                       BKN050 OVC100=
202002140539 TAF KBFI 140539Z 1406/1506 19005KT P6SM SCT020 OVC025 FM141000
                       17006KT P6SM BKN015 OVC025 FM141700 17010KT
                       P6SM SCT015 BKN022 OVC040 FM142100 15006KT
                       P6SM SCT025 BKN040 OVC070 FM150000 20008KT
                       P6SM SCT040 BKN050 OVC100=
202002132323 TAF KBFI 132323Z 1400/1424 21012G18KT P6SM SCT010 BKN020 BKN050
                       TEMPO 1403/1405 -SHRA BKN010 OVC020 FM140600
                       19008KT P6SM SCT020 BKN035 FM141000 17006KT
                       P6SM BKN015 OVC025 FM141700 17006KT P6SM
                       SCT015 BKN022 OVC040 FM142100 15006KT P6SM
                       SCT025 BKN040 OVC070=
202002131749 TAF KBFI 131749Z 1318/1418 15010KT P6SM BKN022 OVC040 FM132100
                       18010KT P6SM -SHRA OVC025 FM140100 29006KT
                       P6SM -SHRA SCT008 BKN015 OVC025 FM140400
                       18008KT P6SM SCT015 BKN025 OVC040 FM141100
                       18008KT P6SM BKN015 OVC025=
202002131610 KBFI 131610Z 1316/1412 15010KT P6SM SCT012 OVC030 FM131800 16007KT
                       6SM -RA BR OVC030 FM132200 18010KT P6SM
                       -SHRA OVC025=
202002131404 KBFI 131404Z 1314/1412 15008KT P6SM BKN008 OVC035 FM131800 16007KT
                       6SM -RA BR OVC030 FM132300 18010KT P6SM
                       -SHRA OVC025=
202002131133 TAF KBFI 131133Z 1312/1412 13006KT P6SM FEW015 OVC035 FM131800
                       16007KT 6SM -RA BR OVC030 FM132300 18010KT
                       P6SM -SHRA OVC025=
202002130537 TAF KBFI 130537Z 1306/1406 VRB03KT P6SM OVC040 FM131500 16004KT
                       P6SM OVC030 FM131800 17007KT 6SM -RA BR
                       OVC020 FM132300 17010KT P6SM OVC025=
202002122317 KBFI 122317Z 1223/1318 VRB03KT P6SM SCT030 BKN070 FM131500 12004KT
                       P6SM OVC025 FM131759 17007KT 6SM -RA BR
                       OVC020=
202002121735 TAF KBFI 121735Z 1218/1318 VRB03KT P6SM SCT005 BKN008 OVC050 FM121900
                       VRB03KT P6SM SCT005 BKN015 OVC050 FM122100
                       VRB03KT P6SM SCT030 BKN070 FM131500 12004KT
                       P6SM -RA OVC025=
202002121543 KBFI 121543Z 1216/1312 VRB03KT P6SM SCT015 BKN035
                      TEMPO 1216/1218 SCT002 BKN007 FM122000 VRB03KT
                       P6SM SCT030 BKN100 FM130900 12004KT P6SM
                       OVC025=
202002121405 KBFI 121405Z 1214/1312 VRB03KT P6SM SCT015 BKN035 FM122000 VRB03KT
                       P6SM SCT030 BKN100 FM130900 12004KT P6SM
                       OVC025=
202002121132 TAF KBFI 121132Z 1212/1312 VRB03KT P6SM SCT015 BKN035 FM121400
                       11003KT 6SM RA OVC020 FM122000 VRB03KT P6SM
                       SCT030 BKN100 FM130900 12004KT P6SM OVC025=
202002120520 TAF KBFI 120520Z 1206/1306 16005KT P6SM SCT008 BKN015 OVC025 FM121200
                       VRB03KT P6SM SCT015 BKN035 FM121800 VRB03KT
                       P6SM SCT035 BKN100=
202002112339 TAF KBFI 112339Z 1200/1224 16008KT P6SM OVC014 FM120400 14008KT
                       P6SM SCT015 BKN025 OVC045 FM122100 VRB03KT
                       P6SM SCT045 BKN080 BKN150=
202002111742 TAF KBFI 111742Z 1118/1218 16008KT P6SM -SHRA OVC014 FM120400 14008KT
                       P6SM SCT015 BKN025 OVC045=
202002111523 KBFI 111523Z 1115/1212 15006KT P6SM BKN025 OVC150 FM112000 17008KT
                       P6SM VCSH BKN025 OVC050 FM120500 VRB03KT
                       P6SM OVC025=
202002111129 TAF KBFI 111129Z 1112/1212 VRB03KT P6SM SCT018 BKN050 FM111600
                       15005KT P6SM BKN018 OVC050 FM112000 17008KT
                       P6SM VCSH BKN030 OVC050 FM120500 VRB03KT
                       P6SM OVC025=
202002110520 TAF KBFI 110520Z 1106/1206 00000KT P6SM BKN200 FM110900 VRB03KT
                       P6SM SCT018 BKN050 FM111600 15005KT P6SM
                       BKN018 OVC050 FM112000 17007KT P6SM VCSH
                       BKN030 OVC050 FM120500 VRB03KT P6SM OVC025=
202002102322 TAF KBFI 102322Z 1100/1124 32006KT P6SM SCT040 FM110600 VRB03KT
                       P6SM SCT040 FM111100 17006KT P6SM SCT040
                       FM111800 17006KT P6SM SCT020 BKN030 OVC045=
202002101731 TAF KBFI 101731Z 1018/1118 VRB03KT P6SM SCT025 BKN040 FM102200
                       VRB03KT P6SM SCT050 FM111000 16006KT P6SM
                       BKN030=
202002101130 TAF KBFI 101130Z 1012/1112 00000KT P6SM OVC045 FM101400 00000KT
                       P6SM SCT025 OVC035 FM101800 03003KT P6SM
                       SCT080=
202002100531 TAF KBFI 100531Z 1006/1106 00000KT P6SM BKN200 FM101200 00000KT
                       P6SM SCT015 BKN200 FM101800 VRB03KT P6SM
                       BKN200=
202002092338 TAF KBFI 092338Z 1000/1024 00000KT P6SM SCT015 SCT180 FM100200
                       03001KT P6SM SKC FM100600 12002KT P6SM SKC
                       FM101200 00000KT P6SM BKN015 OVC060 FM101800
                       02003KT P6SM SCT250=
202002091736 TAF KBFI 091736Z 0918/1018 00000KT P6SM SCT020 SCT200 FM092100
                       33005KT P6SM SKC FM100300 03001KT P6SM SKC=
202002091405 KBFI 091405Z 0914/1012 00000KT P6SM SCT040
                      TEMPO 0914/0916 6SM BR BKN021 FM092100 33005KT
                       P6SM SKC=
202002091125 TAF KBFI 091125Z 0912/1012 00000KT P6SM SCT040
                      TEMPO 0914/0916 6SM BR BKN017 FM092100 33005KT
                       P6SM SKC=
202002090520 TAF KBFI 090520Z 0906/1006 VRB03KT P6SM BKN040 FM091200 00000KT
                       P6SM SCT040 FM092100 33005KT P6SM SKC=
202002082336 TAF KBFI 082336Z 0900/0924 03004KT P6SM FEW045 BKN090 FM090400
                       01003KT P6SM OVC060 FM090800 36001KT P6SM
                       SCT080 FM091700 08002KT P6SM SCT080=
202002081735 TAF KBFI 081735Z 0818/0918 15006KT P6SM VCSH FEW015 FEW035 BKN050
                       FM081900 VRB05KT P6SM VCSH BKN040 FM082100
                       31004KT P6SM BKN050 FM090400 03005KT P6SM
                       SCT080=
202002081137 TAF KBFI 081137Z 0812/0912 21013G23KT P6SM -RA OVC020 FM081500
                       22010G18KT P6SM VCSH OVC025 FM081900 VRB05KT
                       P6SM VCSH BKN025 OVC040 FM082100 31004KT
                       P6SM BKN040 FM090400 03006KT P6SM SCT040=
202002080905 KBFI 080905Z 0809/0906 19014G22KT P6SM VCSH OVC025 FM081700 VRB05KT
                       P6SM VCSH BKN025 FM082100 31008KT P6SM BKN040
                       FM090400 03006KT P6SM SCT040=
202002080520 TAF KBFI 080520Z 0806/0906 20017G27KT P6SM SCT020 BKN050
                      TEMPO 0806/0810 4SM SHRA BR BKN025 OVC050
                       FM081000 22015G25KT P6SM -SHRA BKN025 OVC040
                       FM081700 VRB05KT P6SM VCSH BKN025 FM082100
                       31008KT P6SM BKN040 FM090400 03006KT P6SM
                       SCT040=
202002080307 KBFI 080307Z 0803/0824 20015G25KT P6SM -SHRA BKN035 FM081200 22009KT
                       P6SM VCSH BKN030 BKN050 FM082100 30006KT
                       P6SM BKN035=
202002072328 TAF KBFI 072328Z 0800/0824 18013G20KT 6SM -RA BR OVC016 FM080300
                       18014G24KT 6SM -RA OVC018 WS020/22040KT
                       FM080700 22020G30KT 6SM -RA BR OVC025 FM081700
                       22009KT P6SM VCSH BKN030 BKN050 FM082100
                       30006KT P6SM BKN035=
202002071859 KBFI 071859Z 0719/0818 18012G18KT P6SM SCT008 BKN017 OVC040
                      TEMPO 0719/0723 6SM -RA BR FM072300 18014G20KT
                       6SM -RA BR OVC015 FM080200 18014G24KT 6SM
                       -RA OVC018 WS020/22040KT FM080600 22020G30KT
                       6SM -RA BR OVC025 FM081700 22009KT P6SM
                       VCSH BKN030 BKN050=
202002071740 TAF KBFI 071740Z 0718/0818 16006KT 5SM BR SCT006 OVC010
                      TEMPO 0718/0722 2SM -DZ BR OVC005 FM072200
                       18009KT 5SM -RA BR OVC013 FM080200 18014G22KT
                       6SM -RA OVC018 WS020/22040KT FM080600 22020G30KT
                       6SM -RA BR OVC025 FM081700 22009KT P6SM
                       VCSH BKN030 BKN050=
202002071536 KBFI 071536Z 0716/0812 VRB04KT 2SM -RA BR SCT005 OVC010
                      TEMPO 0716/0720 1SM -DZ BR OVC005 FM072000
                       18009KT 5SM -RA BR OVC013 FM080200 20016G27KT
                       P6SM -RA OVC018 FM080600 22020G30KT P6SM
                       -SHRA OVC025=
202002071120 TAF KBFI 071120Z 0712/0812 VRB05KT 2SM -RA BR SCT005 OVC010
                      TEMPO 0712/0716 1SM -DZ BKN005 FM071600 18009KT
                       5SM -RA BR OVC013 FM080200 20016G27KT P6SM
                       -RA OVC018 FM080600 22020G30KT P6SM -SHRA
                       OVC025=
202002071003 KBFI 071003Z 0710/0806 VRB04KT 2SM -DZ BR OVC004 FM071200 19005KT
                       5SM -DZ BR OVC005 FM071900 16007KT P6SM
                       VCSH OVC012 FM080200 19015G25KT 6SM -RA
                       BR OVC020=
202002070528 TAF KBFI 070528Z 0706/0806 VRB04KT 3SM -DZ BR OVC004 FM071100 19005KT
                       5SM -DZ BR OVC005 FM071900 16007KT P6SM
                       VCSH OVC012 FM080200 19015G25KT 6SM -RA
                       BR OVC020=
202002070253 KBFI 070253Z 0703/0724 VRB03KT 3SM -RA BR OVC004 FM070600 17006KT
                       5SM -RA BR OVC009 FM071100 21005KT 5SM -RA
                       BR OVC012 FM071900 16007KT P6SM VCSH BKN017
                       OVC025=
202002062343 TAF KBFI 062343Z 0700/0724 19007KT P6SM -RA SCT010 OVC015
                      TEMPO 0701/0705 4SM -RA BR BKN008 OVC014
                       FM070500 17006KT 5SM -RA BR OVC009 FM071100
                       21005KT 5SM -RA BR OVC012 FM071900 16007KT
                       P6SM VCSH BKN017 OVC025=
202002061946 KBFI 061946Z 0620/0718 13004KT 3SM -RA BR SCT007 OVC012
                      TEMPO 0620/0624 1SM -RA BR BKN005 OVC010
                       FM070000 18007KT 3SM -RA BR OVC009 FM070600
                       18006KT 4SM -RA BR OVC007 FM071500 17004KT
                       5SM -RA OVC015=
202002061721 TAF KBFI 061721Z 0618/0718 13004KT 3SM -RA BR BKN007 OVC010 FM070300
                       18007G15KT 4SM -RA BR OVC007 FM071500 17004KT
                       5SM -RA OVC015=
202002061120 TAF KBFI 061120Z 0612/0712 20005KT 4SM -RA BR BKN005 OVC020 FM061800
                       18008KT 6SM -RA BR OVC010 FM070300 18007KT
                       P6SM -RA OVC015=
202002060904 KBFI 060904Z 0609/0706 20005KT 4SM -RA BR SCT007 OVC012 FM061800
                       18008KT 4SM -RA BR OVC010 FM070300 18007KT
                       P6SM -RA OVC015=
202002060530 TAF KBFI 060530Z 0606/0706 20005KT P6SM -RA SCT007 OVC012 FM061800
                       18008KT 4SM -RA BR OVC010 FM070300 18007KT
                       P6SM -RA OVC015=
202002060253 KBFI 060253Z 0603/0624 16008KT 4SM -RA BR SCT007 OVC012 FM060700
                       17008KT 2SM -RA BR OVC007 FM061300 18013KT
                       4SM -RA BR OVC008 FM062000 17006KT 1SM -RA
                       BR OVC005=
202002052327 TAF KBFI 052327Z 0600/0624 15005KT 3SM -RA BR OVC008 FM060400 17008KT
                       2SM -RA BR OVC007 FM061300 18013KT 4SM -RA
                       BR OVC008 FM062000 17006KT 1SM -RA BR OVC005=
202002052108 KBFI 052108Z 0521/0618 17008KT 2SM -RA BR OVC006 FM060400 17008KT
                       2SM -RA BR OVC007 FM061200 19007G15KT 4SM
                       -RA BR OVC008=
202002051723 TAF KBFI 051723Z 0518/0618 14007KT 2SM -RA BR BKN007 OVC010 FM052100
                       17008KT 2SM -RA BR OVC008
                      TEMPO 0523/0601 1 1/2SM RA FM060400 16009G16KT
                       4SM -RA BR OVC008 FM061200 19007KT 4SM -RA
                       BR OVC008=
202002051403 KBFI 051403Z 0514/0612 17009KT P6SM -RA BKN010 OVC015
                      TEMPO 0514/0518 3SM -RA BR OVC007 FM052100
                       20011KT P6SM -RA SCT010 OVC015 FM060300
                       20010KT P6SM -RA BKN009 OVC015=
202002051120 TAF KBFI 051120Z 0512/0612 17009KT P6SM -RA BKN013 OVC018 FM052100
                       20011KT P6SM -RA SCT010 OVC015 FM060300
                       20010KT P6SM -RA BKN009 OVC015=
202002050532 TAF KBFI 050532Z 0506/0606 15006KT P6SM -RA OVC025 FM051300 15006KT
                       6SM -RA OVC018 FM052100 17010KT 6SM -RA
                       SCT009 OVC015=
202002050254 KBFI 050254Z 0503/0524 15008KT 6SM -RA SCT009 OVC080 FM050600 15009KT
                       4SM -RA BR OVC020 FM051300 16009G16KT 4SM
                       -RA BR OVC007 FM052100 17010G17KT 4SM -RA
                       BR OVC010=
202002042324 TAF KBFI 042324Z 0500/0524 15011KT 4SM -RA BKN015 OVC020 FM050600
                       15009KT 4SM -RA BR OVC010 FM051300 16009G16KT
                       4SM -RA BR OVC007 FM052100 17010G17KT 4SM
                       -RA BR OVC010=
202002042106 KBFI 042106Z 0421/0518 15010KT P6SM -SN BKN010 OVC020 FM042200
                       18010KT P6SM -RA SCT015 OVC030 FM050000
                       17011KT P6SM -RA OVC020 FM050900 16009KT
                       5SM -RA OVC015 FM051200 16009G16KT 5SM -RA
                       BR OVC010=
202002041924 KBFI 041924Z 0419/0518 17010KT 2SM -SN BR BKN007 OVC030 FM042100
                       18010KT P6SM -RA OVC030 FM050000 17011KT
                       P6SM -RA OVC020 FM050900 16009KT 5SM -RA
                       OVC015 FM051200 16009G16KT 5SM -RA BR OVC010=
202002041758 KBFI 041758Z 0418/0518 15005KT P6SM OVC060
                      TEMPO 0418/0420 5SM -SN OVC050 FM042100 18010KT
                       P6SM -RA OVC030 FM050000 17011KT P6SM -RA
                       OVC020 FM050900 16009KT 5SM -RA OVC015 FM051200
                       16009G16KT 5SM -RA BR OVC010=
202002041727 TAF KBFI 041727Z 0418/0518 15005KT P6SM OVC060 FM042100 18010KT
                       P6SM -RA OVC030 FM050000 17011KT P6SM -RA
                       OVC020 FM050900 16009KT 5SM -RA OVC015 FM051200
                       16009G16KT 5SM -RA BR OVC010=
202002041120 TAF KBFI 041120Z 0412/0512 15004KT P6SM SCT050 OVC200 FM041600
                       15005KT P6SM OVC050 FM042100 18010KT P6SM
                       -RA OVC030 FM050000 17011KT P6SM -RA OVC020
                       FM050900 19011KT 5SM -RA OVC015=
202002040525 TAF KBFI 040525Z 0406/0506 VRB03KT P6SM SCT030 BKN050 FM041600
                       VRB02KT P6SM OVC050 FM042000 16008KT P6SM
                       -RA OVC030 FM050000 15010KT 6SM -RA OVC020=
202002040300 KBFI 040300Z 0403/0424 VRB03KT P6SM BKN040 FM040700 14003KT P6SM
                       SCT060 FM041600 15005KT P6SM OVC050 FM042000
                       16007KT P6SM -RA OVC050=
202002032320 TAF KBFI 032320Z 0400/0424 33004KT P6SM BKN030 BKN060 FM040200
                       VRB02KT P6SM BKN060 FM040700 14003KT P6SM
                       SCT060 FM041600 15005KT P6SM OVC050 FM042000
                       16007KT P6SM -RA OVC050=
202002032049 KBFI 032049Z 0321/0418 32004KT P6SM SCT020 BKN060 FM040200 VRB02KT
                       P6SM SCT060 FM041600 15005KT P6SM OVC050=
202002031736 TAF KBFI 031736Z 0318/0418 VRB03KT P6SM SCT008 BKN025 FM032000
                       32004KT P6SM BKN060 FM040200 VRB02KT P6SM
                       SCT060 FM041600 15005KT P6SM OVC050=
202002031124 TAF KBFI 031124Z 0312/0412 17003KT P6SM SCT009 BKN018 OVC030
                      TEMPO 0312/0314 5SM -SHRA BR BKN009 OVC018
                       FM031400 VRB03KT P6SM BKN020 OVC035 FM031600
                       VRB03KT P6SM BKN030 OVC050 FM032000 32004KT
                       P6SM BKN060 FM040200 00000KT P6SM SCT060
                       BKN250=
202002030858 KBFI 030858Z 0309/0406 14004KT P6SM -SHRA BKN013 OVC019 FM031300
                       VRB04KT P6SM BKN030 OVC050 FM031600 07004KT
                       P6SM OVC050 FM032000 35005KT P6SM BKN060=
202002030526 TAF KBFI 030526Z 0306/0406 VRB04KT P6SM VCSH BKN050 BKN120 FM030900
                       18005KT P6SM -SHRASN BKN025 BKN050 FM031100
                       VRB04KT P6SM BKN050 FM031600 07004KT P6SM
                       OVC050 FM032000 35005KT P6SM BKN060=
202002022324 TAF KBFI 022324Z 0300/0324 19005KT P6SM SCT030 SCT120 FM030600
                       VRB04KT P6SM VCSH BKN050 BKN120 FM031000
                       VRB04KT P6SM VCSH BKN030 BKN050 FM032000
                       32006KT P6SM BKN050=
202002021720 TAF KBFI 021720Z 0218/0318 15005KT P6SM SCT020 FM022100 21006KT
                       P6SM SCT040 FM030300 18006KT P6SM BKN040
                       FM031000 18006KT P6SM VCSH BKN025=
202002021121 TAF KBFI 021121Z 0212/0312 13005KT P6SM FEW013 SCT050 BKN150
                      TEMPO 0213/0216 BKN013 BKN050 FM021900 18005KT
                       P6SM SCT050 SCT150 FM030700 16003KT P6SM
                       BKN050 BKN150 FM031000 00000KT P6SM VCSH
                       BKN025 OVC050=
202002020532 TAF KBFI 020532Z 0206/0306 07005KT P6SM SCT025 BKN035
                      TEMPO 0206/0207 BKN025 FM022200 21010KT P6SM
                       VCSH SCT025 BKN050=
202002012320 TAF KBFI 012320Z 0200/0224 24007KT P6SM BKN025 OVC040 FM020600
                       18008KT P6SM BKN025 BKN050 FM022200 21010KT
                       P6SM VCSH SCT025 BKN050=
202002012104 KBFI 012104Z 0121/0218 21012G18KT P6SM VCSH BKN025 OVC050 FM012300
                       VRB04KT P6SM -SHRA BKN020 OVC050 FM020600
                       18008KT P6SM BKN025 BKN050 FM021600 18012KT
                       P6SM -SHRA BKN025 OVC040=
202002011901 KBFI 011901Z 0119/0218 19007KT P6SM VCSH BKN020 OVC050 FM012200
                       VRB04KT P6SM -SHRA BKN020 OVC050 FM020600
                       18008KT P6SM BKN025 BKN050 FM021600 18012KT
                       P6SM -SHRA BKN025 OVC040=
202002011720 TAF KBFI 011720Z 0118/0218 19012G20KT P6SM SCT015 OVC120 FM012000
                       21012G20KT P6SM VCSH SCT025 BKN050 FM012300
                       VRB04KT P6SM -SHRA BKN025 BKN050 FM020600
                       18008KT P6SM BKN025 BKN050 FM021600 18012KT
                       P6SM -SHRA BKN025 OVC040=
202002011123 TAF KBFI 011123Z 0112/0212 18012G21KT 6SM -RA BR FEW015 SCT025
                       OVC050
                      TEMPO 0112/0116 3SM RA BR BKN015 OVC025 FM011800
                       23015G25KT P6SM -SHRA SCT025 BKN050 FM012300
                       24012G20KT P6SM SCT050 BKN250 FM020300 18005KT
                       P6SM SCT050 BKN250 FM020900 15005KT P6SM
                       BKN050 BKN100=
202002010537 TAF KBFI 010537Z 0106/0206 21011KT 6SM -RA BR SCT014 OVC020 FM010800
                       17017G27KT 6SM -RA BR BKN017 OVC035 FM011200
                       17018G28KT 6SM -RA BR OVC022 FM011800 21014G22KT
                       P6SM -SHRA BKN025 BKN040 FM012300 21012KT
                       P6SM VCSH BKN040 FM020300 15005KT P6SM BKN100=