##########################################################
# Query made at 02/17/2025 06:32:19 UTC
# Time interval: from 10/01/2020 00:00  to 10/31/2020 23:59  UTC
##########################################################

##########################################################
# KBFI, Seattle, Seattle Boeing Field (United States)
# WMO index: -----. WIGOS ID: Unknown
# Latitude 47-32-45N. Longitude 122-18-49W. Altitude 5 m.
##########################################################

###################################
#  METAR/SPECI from KBFI
###################################
202010312353 METAR KBFI 312353Z 32006KT 10SM BKN250 13/05 A3035 RMK AO2 SLP275 T01280050 10139 20094 56013 $=
202010312253 METAR KBFI 312253Z 29005KT 10SM BKN250 13/05 A3035 RMK AO2 SLP277 T01330050 $=
202010312153 METAR KBFI 312153Z 29006KT 10SM CLR 13/05 A3037 RMK AO2 SLP282 T01330050 $=
202010312053 METAR KBFI 312053Z 28007KT 10SM BKN250 13/06 A3038 RMK AO2 SLP288 T01280056 58015 $=
202010311953 METAR KBFI 311953Z 31004KT 10SM BKN250 12/05 A3041 RMK AO2 SLP298 T01220050 $=
202010311853 METAR KBFI 311853Z 03004KT 10SM FEW015 12/04 A3042 RMK AO2 SLP301 T01170044 $=
202010311753 METAR KBFI 311753Z 00000KT 10SM FEW009 10/06 A3043 RMK AO2 SLP303 T01000056 10100 20039 50011 $=
202010311653 METAR KBFI 311653Z 16003KT 10SM SCT008 08/04 A3043 RMK AO2 SLP304 T00780044 $=
202010311600 SPECI KBFI 311600Z 00000KT 10SM CLR 06/04 A3042 RMK AO2 T00610039 $=
202010311553 METAR KBFI 311553Z 00000KT 10SM SCT007 BKN020 06/04 A3041 RMK AO2 SLP298 T00560039 $=
202010311507 SPECI KBFI 311507Z 14003KT 10SM SCT007 BKN020 05/03 A3040 RMK AO2 T00500028 $=
202010311500 SPECI KBFI 311500Z 17003KT 10SM BKN007 04/02 A3040 RMK AO2 T00390022 $=
202010311453 METAR KBFI 311453Z 16003KT 10SM SCT007 BKN020 05/03 A3039 RMK AO2 SLP291 T00500028 51009 $=
202010311445 SPECI KBFI 311445Z 00000KT 10SM SCT007 BKN020 05/03 A3039 RMK AO2 T00500028 $=
202010311435 SPECI KBFI 311435Z 00000KT 10SM SCT007 05/03 A3039 RMK AO2 T00500028 $=
202010311353 METAR KBFI 311353Z 00000KT 10SM CLR 06/03 A3039 RMK AO2 SLP290 T00610033 $=
202010311253 METAR KBFI 311253Z 00000KT 10SM CLR 06/04 A3038 RMK AO2 SLP286 T00610039 $=
202010311153 METAR KBFI 311153Z 15003KT 10SM CLR 06/04 A3037 RMK AO2 SLP283 70001 T00610039 10111 20061 53008 $=
202010311053 METAR KBFI 311053Z 00000KT 10SM CLR 08/04 A3036 RMK AO2 SLP278 T00780044 $=
202010310953 METAR KBFI 310953Z 00000KT 10SM CLR 07/04 A3035 RMK AO2 SLP276 T00720044 $=
202010310853 METAR KBFI 310853Z 00000KT 10SM OVC060 09/05 A3034 RMK AO2 SLP275 T00940050 51017 $=
202010310753 METAR KBFI 310753Z 00000KT 10SM OVC060 09/04 A3033 RMK AO2 SLP269 T00940044 401670089 $=
202010310653 METAR KBFI 310653Z 00000KT 10SM FEW060 10/04 A3031 RMK AO2 SLP264 T01000044 $=
202010310553 METAR KBFI 310553Z VRB03KT 10SM BKN150 11/04 A3029 RMK AO2 SLP257 T01060039 10144 20106 51023 $=
202010310453 METAR KBFI 310453Z VRB04KT 10SM OVC055 12/03 A3027 RMK AO2 SLP251 T01170033 $=
202010310353 METAR KBFI 310353Z 00000KT 10SM OVC048 12/03 A3025 RMK AO2 SLP243 T01170033 $=
202010310253 METAR KBFI 310253Z VRB04KT 10SM BKN050 12/04 A3022 RMK AO2 SLP234 T01220039 51034 $=
202010310153 METAR KBFI 310153Z VRB04KT 10SM BKN045 13/04 A3019 RMK AO2 SLP224 T01280039 $=
202010310053 METAR KBFI 310053Z 05007KT 10SM BKN060 14/05 A3017 RMK AO2 SLP214 T01390050 $=
202010302353 METAR KBFI 302353Z 05009KT 10SM SCT060 14/06 A3013 RMK AO2 SLP201 T01440061 10167 20144 53013 $=
202010302253 METAR KBFI 302253Z 18006KT 10SM SCT060 17/03 A3010 RMK AO2 SLP193 T01670028 $=
202010302153 METAR KBFI 302153Z 17009KT 10SM CLR 16/05 A3009 RMK AO2 SLP189 T01610050 $=
202010302053 METAR KBFI 302053Z 18007KT 150V220 10SM FEW048 16/05 A3009 RMK AO2 SLP188 T01610050 51025 $=
202010301953 METAR KBFI 301953Z 18005KT 10SM SCT044 16/06 A3008 RMK AO2 SLP184 T01560056=
202010301900 SPECI KBFI 301900Z 21008KT 10SM SCT036 16/06 A3004 RMK AO2 T01560061=
202010301853 METAR KBFI 301853Z 16007KT 10SM BKN024 16/07 A3004 RMK AO2 SLP172 T01560067=
202010301753 METAR KBFI 301753Z VRB05KT 10SM BKN024 14/08 A3001 RMK AO2 SLP163 60001 T01440083 10144 20122 51030=
202010301653 METAR KBFI 301653Z 18007KT 10SM FEW013 BKN021 13/08 A2999 RMK AO2 SLP156 T01330078=
202010301553 METAR KBFI 301553Z 22005KT 10SM BKN013 BKN021 13/09 A2997 RMK AO2 PRESRR SLP147 T01330089=
202010301453 METAR KBFI 301453Z 23009KT 200V260 10SM BKN013 13/09 A2992 RMK AO2 SLP132 60001 T01280089 53011=
202010301353 METAR KBFI 301353Z 19011G20KT 10SM BKN015 13/09 A2988 RMK AO2 SLP117 T01280094=
202010301253 METAR KBFI 301253Z 18012G19KT 10SM BKN022 BKN027 OVC085 13/09 A2988 RMK AO2 RAE51 SLP116 P0001 T01280094=
202010301153 METAR KBFI 301153Z 17013G17KT 10SM -RA OVC027 13/08 A2989 RMK AO2 RAB37 SLP121 P0000 60000 T01330083 10133 20083 57012=
202010301145 SPECI KBFI 301145Z 18007KT 10SM -RA OVC029 13/08 A2989 RMK AO2 RAB37 P0000 T01330078=
202010301053 METAR KBFI 301053Z 18011G17KT 10SM BKN033 OVC110 13/08 A2990 RMK AO2 SLP125 T01280083=
202010300953 METAR KBFI 300953Z 19009KT 10SM BKN038 12/08 A2992 RMK AO2 SLP130 T01220078=
202010300853 METAR KBFI 300853Z 13006KT 10SM OVC036 10/07 A2993 RMK AO2 SLP133 T01000072 56022=
202010300753 METAR KBFI 300753Z 14008KT 10SM CLR 10/07 A2993 RMK AO2 PRESFR SLP136 T01000067 401670083=
202010300653 METAR KBFI 300653Z 14007KT 10SM BKN200 09/07 A2997 RMK AO2 SLP147 T00940072=
202010300553 METAR KBFI 300553Z 15006KT 9SM CLR 08/07 A2999 RMK AO2 SLP155 T00830067 10161 20083 56018=
202010300453 METAR KBFI 300453Z 17004KT 10SM CLR 09/07 A3001 RMK AO2 SLP162 T00890067=
202010300353 METAR KBFI 300353Z 14004KT 10SM CLR 10/07 A3002 RMK AO2 SLP165 T01000072=
202010300253 METAR KBFI 300253Z 00000KT 10SM CLR 11/07 A3004 RMK AO2 SLP173 T01060072 56018=
202010300153 METAR KBFI 300153Z 00000KT 10SM CLR 12/08 A3005 RMK AO2 SLP175 T01220078=
202010300053 METAR KBFI 300053Z 00000KT 10SM CLR 14/08 A3007 RMK AO2 SLP181 T01440078=
202010292353 METAR KBFI 292353Z 00000KT 10SM SCT035 16/08 A3009 RMK AO2 SLP190 T01610083 10167 20133 58019=
202010292253 METAR KBFI 292253Z 15003KT 10SM SCT025 BKN050 16/09 A3011 RMK AO2 SLP197 T01610089=
202010292155 SPECI KBFI 292155Z 00000KT 10SM SCT025 BKN050 15/09 A3013 RMK AO2 T01500089=
202010292153 METAR KBFI 292153Z 00000KT 10SM SCT016 BKN022 BKN045 15/08 A3013 RMK AO2 SLP203 T01500083=
202010292056 SPECI KBFI 292056Z 15004KT 10SM SCT016 BKN022 BKN045 15/09 A3015 RMK AO2 T01500094=
202010292053 METAR KBFI 292053Z 13003KT 10SM SCT016 BKN022 BKN045 15/09 A3015 RMK AO2 SLP209 T01500094 58018=
202010291953 METAR KBFI 291953Z 20004KT 10SM BKN016 OVC041 14/10 A3018 RMK AO2 SLP219 T01390100=
202010291900 SPECI KBFI 291900Z 16003KT 10SM OVC019 14/10 A3020 RMK AO2 T01390100=
202010291853 METAR KBFI 291853Z 00000KT 10SM OVC012 13/10 A3020 RMK AO2 SLP224 T01330100=
202010291753 METAR KBFI 291753Z 00000KT 7SM SCT012 BKN018 OVC035 13/10 A3020 RMK AO2 SLP227 T01280100 10133 20117 50002=
202010291653 METAR KBFI 291653Z 14004KT 10SM SCT012 BKN018 OVC035 13/10 A3020 RMK AO2 SLP227 T01280100=
202010291651 SPECI KBFI 291651Z 15004KT 10SM SCT012 BKN018 OVC035 13/10 A3020 RMK AO2=
202010291553 METAR KBFI 291553Z 17003KT 10SM SCT012 OVC035 13/10 A3020 RMK AO2 SLP225 T01280100=
202010291500 SPECI KBFI 291500Z 15006KT 10SM SCT010 BKN015 OVC035 12/10 A3019 RMK AO2 T01220100=
202010291453 METAR KBFI 291453Z 16005KT 10SM SCT010 BKN015 OVC035 12/10 A3019 RMK AO2 SLP223 T01220100 58001=
202010291353 METAR KBFI 291353Z 13005KT 10SM BKN015 OVC035 12/11 A3020 RMK AO2 SLP226 T01220106=
202010291253 METAR KBFI 291253Z 14005KT 4SM BR SCT008 BKN012 OVC018 12/11 A3020 RMK AO2 SLP225 T01170106=
202010291153 METAR KBFI 291153Z 15006KT 5SM BR SCT008 BKN012 OVC023 12/11 A3020 RMK AO2 SLP224 T01170106 10133 20117 51001=
202010291053 METAR KBFI 291053Z 15008KT 6SM BR SCT009 BKN012 OVC022 12/10 A3019 RMK AO2 SLP224 T01220100=
202010290953 METAR KBFI 290953Z 15008KT 4SM BR OVC014 12/10 A3020 RMK AO2 SLP226 T01220100=
202010290853 METAR KBFI 290853Z 15008KT 10SM BKN016 OVC022 13/10 A3019 RMK AO2 SLP224 T01280100 52001=
202010290753 METAR KBFI 290753Z 15008KT 10SM BKN019 OVC027 13/10 A3019 RMK AO2 SLP223 T01280100 401390072=
202010290653 METAR KBFI 290653Z 15007KT 10SM OVC019 13/10 A3019 RMK AO2 SLP224 T01330100=
202010290553 METAR KBFI 290553Z 14006KT 10SM BKN014 OVC019 13/10 A3019 RMK AO2 SLP223 T01330100 10139 20133 53005=
202010290453 METAR KBFI 290453Z 12004KT 10SM OVC013 13/10 A3018 RMK AO2 SLP220 T01330100=
202010290353 METAR KBFI 290353Z 12003KT 10SM OVC013 14/10 A3017 RMK AO2 SLP217 T01390100=
202010290253 METAR KBFI 290253Z 13004KT 10SM OVC013 14/10 A3017 RMK AO2 SLP217 T01390100 55004=
202010290153 METAR KBFI 290153Z 13004KT 10SM OVC013 14/10 A3017 RMK AO2 SLP215 T01390100=
202010290053 METAR KBFI 290053Z 00000KT 10SM OVC013 14/09 A3018 RMK AO2 SLP219 T01390094=
202010282353 METAR KBFI 282353Z 00000KT 10SM BKN010 13/09 A3019 RMK AO2 SLP221 T01330094 10139 20122 56014=
202010282253 METAR KBFI 282253Z 25004KT 10SM BKN012 13/09 A3019 RMK AO2 SLP224 T01330089=
202010282153 METAR KBFI 282153Z VRB04KT 10SM OVC013 13/09 A3021 RMK AO2 SLP229 T01330089=
202010282053 METAR KBFI 282053Z 18006KT 10SM OVC016 13/09 A3023 RMK AO2 SLP235 T01330089 58015=
202010281953 METAR KBFI 281953Z 19007KT 10SM OVC018 13/08 A3025 RMK AO2 SLP241 T01330083=
202010281853 METAR KBFI 281853Z 14005KT 10SM OVC017 13/07 A3026 RMK AO2 SLP246 T01280072=
202010281753 METAR KBFI 281753Z 16005KT 10SM FEW014 OVC021 12/07 A3027 RMK AO2 SLP250 T01220067 10122 20094 50002=
202010281653 METAR KBFI 281653Z 14005KT 10SM SCT016 OVC020 11/06 A3028 RMK AO2 SLP252 T01110061=
202010281553 METAR KBFI 281553Z 16005KT 10SM SCT015 OVC019 10/06 A3027 RMK AO2 SLP251 T01000056=
202010281453 METAR KBFI 281453Z 14004KT 10SM BKN019 OVC150 10/06 A3027 RMK AO2 SLP248 T01000056 58005=
202010281353 METAR KBFI 281353Z 14009KT 10SM SCT016 BKN023 09/06 A3027 RMK AO2 SLP250 T00940056=
202010281253 METAR KBFI 281253Z 14007KT 10SM OVC019 10/06 A3028 RMK AO2 SLP254 T01000056 $=
202010281153 METAR KBFI 281153Z 15007KT 10SM OVC013 A3028 RMK AO2 SLP255 10100 20072 55002 $=
202010281053 METAR KBFI 281053Z 14007KT 10SM OVC012 09/06 A3028 RMK AO2 SLP252 T00940056 $=
202010280953 METAR KBFI 280953Z 14006KT 10SM OVC029 09/06 A3029 RMK AO2 SLP256 T00890056 $=
202010280853 METAR KBFI 280853Z 14006KT 10SM BKN029 08/05 A3029 RMK AO2 SLP257 T00830050 56006 $=
202010280848 SPECI KBFI 280848Z 15007KT 10SM BKN029 08/05 A3029 RMK AO2 $=
202010280753 METAR KBFI 280753Z 16006KT 10SM CLR 08/04 A3031 RMK AO2 SLP261 T00780044 401500078 $=
202010280653 METAR KBFI 280653Z 14004KT 10SM CLR 09/05 A3031 RMK AO2 SLP263 T00890050 $=
202010280553 METAR KBFI 280553Z 15006KT 10SM CLR 09/05 A3031 RMK AO2 SLP263 T00940050 10150 20089 53001 $=
202010280453 METAR KBFI 280453Z 16005KT 10SM CLR 09/05 A3031 RMK AO2 SLP263 T00940050 $=
202010280353 METAR KBFI 280353Z 13005KT 10SM CLR 11/06 A3031 RMK AO2 SLP263 T01060056 $=
202010280253 METAR KBFI 280253Z 15004KT 10SM SCT040 11/05 A3031 RMK AO2 SLP263 T01060050 57007 $=
202010280153 METAR KBFI 280153Z 15004KT 10SM OVC043 12/06 A3032 RMK AO2 SLP266 T01170056 $=
202010280053 METAR KBFI 280053Z 18003KT 10SM SCT045 13/05 A3032 RMK AO2 SLP267 T01330050 $=
202010272353 METAR KBFI 272353Z 21005KT 10SM BKN045 15/05 A3033 RMK AO2 SLP270 T01500050 10150 20111 56012 $=
202010272253 METAR KBFI 272253Z 26005KT 10SM FEW033 SCT160 15/06 A3034 RMK AO2 SLP274 T01500056 $=
202010272153 METAR KBFI 272153Z 26005KT 10SM FEW050 BKN250 14/04 A3035 RMK AO2 SLP275 T01390044 $=
202010272053 METAR KBFI 272053Z 24003KT 10SM BKN037 BKN250 13/05 A3036 RMK AO2 SLP282 T01330050 58019 $=
202010271953 METAR KBFI 271953Z 00000KT 10SM SCT036 BKN200 13/06 A3039 RMK AO2 SLP292 T01280061=
202010271853 METAR KBFI 271853Z 00000KT 10SM OVC034 13/05 A3042 RMK AO2 SLP300 T01280050=
202010271753 METAR KBFI 271753Z 12003KT 10SM BKN039 OVC047 11/04 A3042 RMK AO2 SLP301 T01110044 10111 20089 58000=
202010271653 METAR KBFI 271653Z 16004KT 10SM FEW032 BKN042 10/04 A3043 RMK AO2 SLP304 T01000044=
202010271553 METAR KBFI 271553Z 16006KT 10SM SCT028 OVC040 09/04 A3043 RMK AO2 SLP303 T00940044=
202010271453 METAR KBFI 271453Z 15005KT 10SM BKN034 OVC043 09/04 A3042 RMK AO2 SLP301 T00890039 56005=
202010271353 METAR KBFI 271353Z 15004KT 10SM OVC037 09/04 A3042 RMK AO2 SLP301 T00940039=
202010271253 METAR KBFI 271253Z 00000KT 10SM OVC035 10/04 A3043 RMK AO2 SLP302 T01000039=
202010271153 METAR KBFI 271153Z 00000KT 10SM OVC038 10/04 A3044 RMK AO2 SLP306 T01000039 10106 20100 58005=
202010271053 METAR KBFI 271053Z 00000KT 10SM OVC038 10/03 A3044 RMK AO2 SLP306 T01000033=
202010270953 METAR KBFI 270953Z 00000KT 10SM OVC040 10/03 A3045 RMK AO2 SLP312 T01000028=
202010270853 METAR KBFI 270853Z 00000KT 10SM OVC039 10/03 A3045 RMK AO2 SLP311 T01000028 58006=
202010270753 METAR KBFI 270753Z 00000KT 10SM OVC039 10/03 A3046 RMK AO2 SLP312 T01000028 401110017=
202010270653 METAR KBFI 270653Z 00000KT 10SM OVC041 10/02 A3047 RMK AO2 SLP317 T01000017=
202010270553 METAR KBFI 270553Z 00000KT 10SM OVC043 11/01 A3047 RMK AO2 SLP317 T01060011 10111 20100 58001=
202010270453 METAR KBFI 270453Z 00000KT 10SM OVC043 11/02 A3047 RMK AO2 SLP318 T01060017=
202010270353 METAR KBFI 270353Z 32003KT 10SM OVC047 11/01 A3048 RMK AO2 SLP319 T01060006=
202010270253 METAR KBFI 270253Z 00000KT 10SM OVC049 11/01 A3047 RMK AO2 SLP318 T01060006 52000=
202010270153 METAR KBFI 270153Z 00000KT 10SM OVC050 11/00 A3047 RMK AO2 SLP318 T01110000=
202010270053 METAR KBFI 270053Z 32003KT 10SM BKN050 11/00 A3047 RMK AO2 SLP318 T01060000=
202010262353 METAR KBFI 262353Z 33005KT 10SM SCT055 11/00 A3047 RMK AO2 SLP318 T01110000 10111 20083 56006=
202010262253 METAR KBFI 262253Z 31006KT 10SM OVC055 11/M01 A3048 RMK AO2 SLP320 T01061006=
202010262153 METAR KBFI 262153Z 32005KT 10SM OVC050 11/02 A3047 RMK AO2 SLP318 T01110017=
202010262053 METAR KBFI 262053Z VRB04KT 10SM BKN050 11/01 A3049 RMK AO2 SLP324 T01110011 58013 $=
202010261953 METAR KBFI 261953Z 01003KT 10SM BKN055 10/M01 A3050 RMK AO2 SLP328 T01001006 $=
202010261853 METAR KBFI 261853Z 00000KT 10SM BKN060 09/00 A3052 RMK AO2 SLP333 T00940000 $=
202010261753 METAR KBFI 261753Z 00000KT 10SM OVC055 08/M01 A3053 RMK AO2 SLP337 60000 T00831006 10083 20033 53004 $=
202010261653 METAR KBFI 261653Z 00000KT 10SM OVC060 07/M02 A3052 RMK AO2 SLP334 T00721017 $=
202010261553 METAR KBFI 261553Z 00000KT 10SM OVC060 07/01 A3051 RMK AO2 SLP330 T00670006 $=
202010261453 METAR KBFI 261453Z AUTO 10SM A3051 RMK AO2 SLP333 60000 55003 PWINO TSNO $=
202010261353 METAR KBFI 261353Z 00000KT 10SM OVC065 04/01 A3051 RMK AO2 RAB1256E08 SLP330 P0000 T00440011 $=
202010261253 METAR KBFI 261253Z 00000KT 10SM OVC065 03/00 A3052 RMK AO2 RAB32E50 SLP334 P0000 T00330000 $=
202010261153 METAR KBFI 261153Z AUTO 00000KT 10SM OVC070 A3052 RMK AO2 SLP336 55006 TSNO $=
202010261053 METAR KBFI 261053Z 13003KT 10SM OVC080 03/M01 A3053 RMK AO2 SLP336 T00281006 $=
202010260953 METAR KBFI 260953Z 13004KT 10SM OVC090 02/M01 A3054 RMK AO2 SLP339 T00171011 $=
202010260853 METAR KBFI 260853Z 00000KT 10SM CLR 02/M02 A3054 RMK AO2 SLP342 T00171022 53000 $=
202010260753 METAR KBFI 260753Z 00000KT 10SM CLR 02/M02 A3054 RMK AO2 SLP340 T00221022 401000006 $=
202010260653 METAR KBFI 260653Z 00000KT 10SM CLR 03/M02 A3054 RMK AO2 SLP340 T00281017 $=
202010260553 METAR KBFI 260553Z 00000KT 10SM CLR 03/M02 A3054 RMK AO2 SLP342 T00331017 10083 20033 58001 $=
202010260453 METAR KBFI 260453Z 00000KT 10SM CLR 04/M02 A3055 RMK AO2 SLP345 T00391022 $=
202010260353 METAR KBFI 260353Z 00000KT 10SM CLR 06/M03 A3054 RMK AO2 SLP342 T00561033 $=
202010260253 METAR KBFI 260253Z VRB03KT 10SM CLR 07/M03 A3055 RMK AO2 SLP343 T00671028 53005 $=
202010260153 METAR KBFI 260153Z 35003KT 10SM CLR 07/M03 A3054 RMK AO2 SLP340 T00671028=
202010260053 METAR KBFI 260053Z 31004KT 10SM CLR 07/M03 A3053 RMK AO2 SLP337 T00721028=
202010252353 METAR KBFI 252353Z 32005KT 10SM SCT200 08/M03 A3053 RMK AO2 SLP337 T00831033 10100 20061 56012=
202010252253 METAR KBFI 252253Z VRB03KT 10SM CLR 10/M05 A3053 RMK AO2 SLP338 T01001050=
202010252153 METAR KBFI 252153Z VRB04KT 10SM SCT200 09/M06 A3055 RMK AO2 SLP344 T00941056=
202010252053 METAR KBFI 252053Z VRB04KT 10SM FEW100 SCT200 09/M06 A3056 RMK AO2 SLP349 T00891061 58005=
202010251953 METAR KBFI 251953Z 36006KT 10SM FEW050 BKN200 08/M07 A3057 RMK AO2 SLP351 T00831067 $=
202010251853 METAR KBFI 251853Z VRB04KT 10SM CLR 08/M05 A3058 RMK AO2 SLP355 T00781050 $=
202010251753 METAR KBFI 251753Z 05003KT 10SM FEW060 BKN250 06/M04 A3058 RMK AO2 SLP354 T00611039 10061 20006 51009 $=
202010251653 METAR KBFI 251653Z 31003KT 10SM CLR 05/M01 A3058 RMK AO2 SLP354 T00501011 $=
202010251553 METAR KBFI 251553Z 00000KT 10SM CLR 03/M01 A3057 RMK AO2 SLP351 T00331011 $=
202010251453 METAR KBFI 251453Z 00000KT 10SM FEW050 01/M02 A3055 RMK AO2 SLP346 T00111022 51016 $=
202010251353 METAR KBFI 251353Z 00000KT 10SM CLR 01/M01 A3054 RMK AO2 SLP342 T00111011 $=
202010251253 METAR KBFI 251253Z AUTO 00000KT 10SM CLR A3052 RMK AO2 SLP336 TSNO $=
202010251153 METAR KBFI 251153Z AUTO 00000KT 10SM CLR 02/M01 A3051 RMK AO2 SLP330 T00171011 51014 TSNO $=
202010251053 METAR KBFI 251053Z AUTO 00000KT 10SM CLR A3050 RMK AO2 SLP329 TSNO $=
202010250953 METAR KBFI 250953Z AUTO 00000KT 10SM CLR A3048 RMK AO2 SLP323 TSNO $=
202010250853 METAR KBFI 250853Z AUTO 00000KT 10SM CLR A3046 RMK AO2 SLP316 51018 TSNO $=
202010250753 METAR KBFI 250753Z 00000KT 10SM CLR 03/M01 A3044 RMK AO2 SLP309 T00331006 401060033 $=
202010250653 METAR KBFI 250653Z 00000KT 10SM CLR 03/M01 A3044 RMK AO2 SLP307 T00331011 $=
202010250553 METAR KBFI 250553Z 00000KT 10SM SCT050 05/M01 A3041 RMK AO2 SLP298 T00501011 10094 20050 51020 $=
202010250453 METAR KBFI 250453Z 01003KT 10SM OVC080 06/M02 A3040 RMK AO2 SLP293 T00611017 $=
202010250353 METAR KBFI 250353Z 00000KT 10SM FEW045 BKN080 07/M02 A3038 RMK AO2 SLP285 T00671017=
202010250253 METAR KBFI 250253Z VRB04KT 10SM OVC045 08/M02 A3035 RMK AO2 SLP278 T00781017 51020=
202010250153 METAR KBFI 250153Z 03003KT 10SM SCT044 BKN055 07/M02 A3034 RMK AO2 SLP272 T00721017=
202010250053 METAR KBFI 250053Z VRB06KT 10SM FEW042 BKN080 08/M02 A3032 RMK AO2 SLP267 T00831017=
202010242353 METAR KBFI 242353Z VRB06KT 10SM OVC070 09/M02 A3029 RMK AO2 SLP258 T00941017 10106 20083 53014=
202010242253 METAR KBFI 242253Z 35007KT 330V030 10SM SCT050 BKN070 09/M02 A3028 RMK AO2 SLP252 T00941022=
202010242153 METAR KBFI 242153Z VRB05KT 10SM SCT050 BKN070 09/M02 A3027 RMK AO2 SLP249 T00941022=
202010242053 METAR KBFI 242053Z 35007G17KT 310V020 10SM SCT070 10/M02 A3025 RMK AO2 SLP244 T01001017 50010=
202010241953 METAR KBFI 241953Z 34008KT 10SM FEW044 BKN055 09/M02 A3026 RMK AO2 SLP245 T00941017=
202010241853 METAR KBFI 241853Z 35008KT 10SM SCT037 BKN045 09/M02 A3024 RMK AO2 SLP241 T00891017 $=
202010241753 METAR KBFI 241753Z VRB06KT 10SM BKN039 08/M01 A3023 RMK AO2 SLP235 T00831006 10083 20061 51021 $=
202010241653 METAR KBFI 241653Z 33006KT 10SM BKN035 07/M01 A3022 RMK AO2 SLP234 T00721011 $=
202010241553 METAR KBFI 241553Z VRB04KT 10SM BKN037 BKN055 07/M01 A3019 RMK AO2 SLP223 T00721011=
202010241453 METAR KBFI 241453Z VRB03KT 10SM SCT040 BKN055 07/M01 A3016 RMK AO2 SLP213 T00721011 51031 $=
202010241353 METAR KBFI 241353Z 36004KT 10SM SCT042 BKN080 07/M01 A3014 RMK AO2 SLP205 T00671006 $=
202010241253 METAR KBFI 241253Z VRB04KT 10SM SCT085 07/M02 A3011 RMK AO2 SLP194 T00721017 $=
202010241153 METAR KBFI 241153Z 34008KT 280V020 10SM BKN085 08/M02 A3007 RMK AO2 SLP182 70005 T00781017 10083 20078 51025 $=
202010241053 METAR KBFI 241053Z 35010G17KT 320V030 10SM OVC044 08/M01 A3005 RMK AO2 SLP176 T00831011 $=
202010240953 METAR KBFI 240953Z 36008G15KT 10SM OVC044 08/M01 A3003 RMK AO2 SLP167 T00831006 $=
202010240911 SPECI KBFI 240911Z VRB03KT 10SM SCT029 OVC070 08/02 A3000 RMK AO2 T00830022 $=
202010240853 METAR KBFI 240853Z VRB06G17KT 10SM BKN028 OVC034 08/03 A3000 RMK AO2 SLP157 T00830028 53022 $=
202010240753 METAR KBFI 240753Z 00000KT 10SM OVC019 08/04 A2996 RMK AO2 SLP146 T00780044 401060033 $=
202010240653 METAR KBFI 240653Z 01008G15KT 330V050 10SM BKN022 OVC048 08/03 A2996 RMK AO2 SLP145 T00780033 $=
202010240638 SPECI KBFI 240638Z VRB06KT 10SM SCT022 OVC048 08/04 A2996 RMK AO2 T00780039 $=
202010240600 SPECI KBFI 240600Z 35007KT 320V020 10SM BKN015 OVC020 08/04 A2993 RMK AO2 T00780044 $=
202010240553 METAR KBFI 240553Z VRB06KT 10SM BKN014 OVC020 08/05 A2993 RMK AO2 SLP135 60001 T00830050 10106 20083 53027 $=
202010240534 SPECI KBFI 240534Z 34008G16KT 10SM BKN014 BKN020 OVC037 08/05 A2992 RMK AO2 T00830050 $=
202010240500 SPECI KBFI 240500Z 33006KT 10SM BKN018 OVC023 08/06 A2990 RMK AO2 T00830056 $=
202010240453 METAR KBFI 240453Z VRB04KT 3SM HZ BKN010 OVC039 09/06 A2989 RMK AO2 SLP123 T00890056 $=
202010240353 METAR KBFI 240353Z VRB04KT 3SM BR BKN010 OVC039 09/07 A2987 RMK AO2 SLP115 T00890067 $=
202010240253 METAR KBFI 240253Z 32007KT 2 1/2SM BR BKN008 OVC012 08/07 A2985 RMK AO2 RAB0155E0157 SLP108 P0001 60001 T00830067 53014=
202010240153 METAR KBFI 240153Z VRB04KT 2 1/2SM BR OVC009 09/07 A2982 RMK AO2 SLP099 T00940072=
202010240132 SPECI KBFI 240132Z VRB03KT 2 1/2SM HZ OVC009 09/07 A2981 RMK AO2 T00940067=
202010240053 METAR KBFI 240053Z 34004KT 10SM OVC015 10/06 A2980 RMK AO2 SLP092 T01000061=
202010232353 METAR KBFI 232353Z VRB03KT 10SM OVC018 11/06 A2981 RMK AO2 SLP094 T01060061 10106 20067 55020=
202010232253 METAR KBFI 232253Z 19008G15KT 150V220 10SM OVC022 10/06 A2980 RMK AO2 SLP089 T01000056=
202010232153 METAR KBFI 232153Z 15011KT 10SM OVC026 08/04 A2983 RMK AO2 SLP101 T00830044=
202010232101 SPECI KBFI 232101Z 15009KT 10SM OVC029 08/04 A2986 RMK AO2 T00830044=
202010232053 METAR KBFI 232053Z 15011KT 10SM OVC030 08/04 A2987 RMK AO2 SLP114 T00830044 58047=
202010231953 METAR KBFI 231953Z 16011KT 10SM OVC034 08/04 A2992 RMK AO2 SLP131 T00830044=
202010231853 METAR KBFI 231853Z 20007G19KT 160V240 10SM OVC040 08/03 A2996 RMK AO2 SLP146 T00830028=
202010231753 METAR KBFI 231753Z 15011G22KT 10SM OVC046 A3000 RMK AO2 SLP160 60004 10067 20050 58027 $=
202010231653 METAR KBFI 231653Z 16006KT 10SM FEW030 OVC050 A3003 RMK AO2 RAE09B31E52 SLP170 P0000 $=
202010231553 METAR KBFI 231553Z 12003KT 6SM -RA OVC060 A3007 RMK AO2 SLP184 P0004 $=
202010231453 METAR KBFI 231453Z 13004KT 10SM -RA OVC065 06/03 A3009 RMK AO2 RAB10 SLP188 P0000 60000 T00610028 57024 $=
202010231353 METAR KBFI 231353Z 16006KT 10SM OVC070 06/02 A3012 RMK AO2 SLP199 T00560022=
202010231253 METAR KBFI 231253Z 14005KT 10SM OVC070 06/02 A3012 RMK AO2 SLP200 T00560022 $=
202010231153 METAR KBFI 231153Z 15007KT 10SM OVC095 06/02 A3016 RMK AO2 PRESFR SLP211 T00560022 58044 $=
202010231053 METAR KBFI 231053Z 15007KT 10SM OVC110 05/02 A3021 RMK AO2 SLP231 T00500022 $=
202010230953 METAR KBFI 230953Z 15004KT 10SM BKN110 A3025 RMK AO2 SLP245 $=
202010230853 METAR KBFI 230853Z 16004KT 10SM FEW120 03/02 A3029 RMK AO2 SLP255 T00330017 58019 $=
202010230753 METAR KBFI 230753Z 00000KT 10SM CLR 05/03 A3032 RMK AO2 SLP267 T00500028 401220039 $=
202010230653 METAR KBFI 230653Z 15004KT 10SM CLR 05/02 A3033 RMK AO2 SLP269 T00500022=
202010230553 METAR KBFI 230553Z 15004KT 10SM CLR 05/03 A3034 RMK AO2 SLP274 T00500033 10111 20044 56008=
202010230453 METAR KBFI 230453Z 00000KT 10SM CLR 07/04 A3035 RMK AO2 SLP275 T00670039=
202010230353 METAR KBFI 230353Z 00000KT 10SM CLR 08/04 A3036 RMK AO2 SLP278 T00780039=
202010230253 METAR KBFI 230253Z 00000KT 10SM CLR 08/04 A3037 RMK AO2 SLP282 T00780039 58002=
202010230153 METAR KBFI 230153Z 00000KT 10SM BKN250 09/04 A3037 RMK AO2 SLP284 T00940044=
202010230053 METAR KBFI 230053Z 32004KT 10SM FEW030 11/04 A3037 RMK AO2 SLP283 T01060039=
202010222353 METAR KBFI 222353Z VRB04KT 10SM FEW030 11/04 A3037 RMK AO2 SLP284 T01110044 10122 20083 56010=
202010222253 METAR KBFI 222253Z VRB05KT 10SM FEW026 12/04 A3038 RMK AO2 SLP286 T01170044=
202010222153 METAR KBFI 222153Z VRB03KT 10SM SCT027 12/05 A3039 RMK AO2 SLP290 T01170050=
202010222053 METAR KBFI 222053Z VRB03KT 10SM SCT026 11/04 A3040 RMK AO2 SLP295 T01110039 58008=
202010221953 METAR KBFI 221953Z 00000KT 10SM BKN024 11/04 A3042 RMK AO2 SLP299 T01060039=
202010221853 METAR KBFI 221853Z 00000KT 10SM SCT012 BKN027 09/06 A3043 RMK AO2 SLP303 T00940056=
202010221753 METAR KBFI 221753Z 14003KT 10SM SCT012 BKN027 08/05 A3043 RMK AO2 SLP303 T00830050 51012 $=
202010221653 METAR KBFI 221653Z 15005KT 10SM BKN009 07/04 A3042 RMK AO2 SLP301 T00670039 $=
202010221553 METAR KBFI 221553Z 15006KT 10SM OVC008 A3041 RMK AO2 SLP299 $=
202010221500 SPECI KBFI 221500Z 15006KT 10SM OVC008 06/03 A3039 RMK AO2 T00560033 $=
202010221453 METAR KBFI 221453Z 16006KT 10SM SCT009 BKN012 BKN023 05/03 A3039 RMK AO2 SLP291 T00500033 53014=
202010221435 SPECI KBFI 221435Z 15006KT 10SM SCT009 BKN012 BKN023 06/03 A3038 RMK AO2 T00560033 $=
202010221353 METAR KBFI 221353Z 14003KT 10SM SCT025 OVC037 05/03 A3037 RMK AO2 SLP284 T00500033 $=
202010221253 METAR KBFI 221253Z 14004KT 10SM FEW020 BKN027 BKN037 05/03 A3036 RMK AO2 SLP279 T00500033 $=
202010221214 SPECI KBFI 221214Z 15005KT 10SM FEW020 BKN027 BKN037 05/03 A3035 RMK AO2 T00500033 $=
202010221153 METAR KBFI 221153Z 16004KT 10SM FEW020 SCT037 04/03 A3035 RMK AO2 SLP277 70018 T00440028 10067 20039 51012 $=
202010221053 METAR KBFI 221053Z 00000KT 10SM SCT035 05/03 A3034 RMK AO2 SLP275 T00500033 $=
202010220953 METAR KBFI 220953Z 14003KT 10SM SCT024 05/04 A3034 RMK AO2 SLP272 T00500039 $=
202010220942 SPECI KBFI 220942Z 15003KT 10SM SCT026 06/04 A3033 RMK AO2 T00560039 $=
202010220853 METAR KBFI 220853Z 00000KT 10SM BKN023 06/04 A3032 RMK AO2 SLP265 T00610039 53008 $=
202010220830 SPECI KBFI 220830Z 00000KT 10SM BKN024 BKN031 05/03 A3031 RMK AO2 T00500033 $=
202010220753 METAR KBFI 220753Z 00000KT 10SM FEW040 05/03 A3030 RMK AO2 SLP260 T00500033 401280050 $=
202010220653 METAR KBFI 220653Z 00000KT 10SM SCT027 BKN048 07/04 A3030 RMK AO2 SLP259 T00670044=
202010220553 METAR KBFI 220553Z 00000KT 10SM SCT030 BKN049 06/04 A3029 RMK AO2 SLP257 T00610044 10128 20050 51016=
202010220453 METAR KBFI 220453Z 16003KT 10SM SCT045 06/03 A3028 RMK AO2 SLP252 T00560033=
202010220353 METAR KBFI 220353Z 00000KT 10SM FEW040 08/05 A3026 RMK AO2 SLP247 T00780050=
202010220253 METAR KBFI 220253Z 10003KT 10SM FEW034 08/04 A3024 RMK AO2 SLP241 T00780044 53015=
202010220153 METAR KBFI 220153Z 00000KT 10SM SCT034 10/04 A3022 RMK AO2 SLP234 T01000039=
202010220053 METAR KBFI 220053Z 30004KT 10SM SCT040 11/03 A3021 RMK AO2 SLP231 T01060028=
202010212353 METAR KBFI 212353Z VRB04KT 10SM BKN041 BKN050 12/03 A3020 RMK AO2 SLP226 60018 T01220033 10122 20072 52011=
202010212253 METAR KBFI 212253Z VRB03KT 10SM FEW015 BKN023 BKN038 12/05 A3019 RMK AO2 SLP222 T01170050=
202010212153 METAR KBFI 212153Z 15003KT 10SM FEW015 BKN023 BKN038 11/06 A3018 RMK AO2 SLP219 T01110056=
202010212053 METAR KBFI 212053Z 09003KT 10SM FEW015 BKN023 BKN038 11/06 A3017 RMK AO2 SLP215 60018 T01060061 51012=
202010211953 METAR KBFI 211953Z 00000KT 10SM BKN035 BKN044 09/06 A3016 RMK AO2 RAE09 SLP213 P0000 T00940061 $=
202010211907 SPECI KBFI 211907Z 13006KT 3SM -RA BR FEW006 BKN026 OVC035 07/06 A3016 RMK AO2 P0000 T00720056 $=
202010211853 METAR KBFI 211853Z 21008KT 3SM RA BR SCT020 BKN026 OVC035 07/05 A3017 RMK AO2 RAB19 SLP216 P0018 T00720050 $=
202010211844 SPECI KBFI 211844Z 33005G14KT 3SM +RA SCT020 BKN029 OVC035 07/04 A3016 RMK AO2 RAB19 P0013 T00720044 $=
202010211820 SPECI KBFI 211820Z 04007G16KT 10SM -RA SCT010 BKN023 OVC033 09/04 A3015 RMK AO2 RAB19 P0000 T00940044 $=
202010211753 METAR KBFI 211753Z 13005KT 10SM SCT017 BKN027 BKN050 11/06 A3013 RMK AO2 SLP203 T01060061 10111 20083 53009 $=
202010211713 SPECI KBFI 211713Z 13006KT 10SM FEW010 BKN026 BKN050 11/07 A3012 RMK AO2 T01060072 $=
202010211653 METAR KBFI 211653Z 13006KT 10SM FEW010 BKN042 BKN120 10/07 A3012 RMK AO2 SLP198 T01000067 $=
202010211553 METAR KBFI 211553Z 14008KT 10SM FEW010 BKN042 BKN120 09/07 A3011 RMK AO2 SLP195 T00890067 $=
202010211453 METAR KBFI 211453Z 15005KT 10SM FEW006 SCT010 BKN048 09/07 A3010 RMK AO2 SLP193 T00890072 51011=
202010211353 METAR KBFI 211353Z 13006KT 10SM SCT023 09/07 A3010 RMK AO2 SLP191 T00890072=
202010211331 SPECI KBFI 211331Z 13005KT 10SM BKN023 08/07 A3009 RMK AO2 T00830072=
202010211253 METAR KBFI 211253Z 16005KT 10SM FEW010 SCT023 BKN034 09/07 A3009 RMK AO2 SLP188 T00890072=
202010211200 SPECI KBFI 211200Z 16004KT 10SM BKN034 09/07 A3007 RMK AO2 T00890072=
202010211153 METAR KBFI 211153Z 15005KT 10SM BKN025 09/08 A3007 RMK AO2 RAE41 SLP182 P0004 60004 70004 T00890078 10100 20078 56009=
202010211053 METAR KBFI 211053Z 00000KT 4SM -RA BR OVC009 09/07 A3008 RMK AO2 RAB53 SLP186 P0000 T00940072=
202010210953 METAR KBFI 210953Z 09003KT 10SM OVC010 10/07 A3008 RMK AO2 SLP187 T01000072=
202010210853 METAR KBFI 210853Z 00000KT 10SM BKN012 OVC018 09/07 A3010 RMK AO2 SLP191 T00940072 57001=
202010210826 SPECI KBFI 210826Z 00000KT 10SM BKN014 BKN055 OVC090 09/07 A3010 RMK AO2 T00890072=
202010210753 METAR KBFI 210753Z 14004KT 10SM BKN095 08/07 A3010 RMK AO2 SLP191 T00830067 401560078=
202010210653 METAR KBFI 210653Z 14004KT 10SM CLR 09/07 A3010 RMK AO2 SLP192 T00890067=
202010210553 METAR KBFI 210553Z 00000KT 10SM CLR 09/07 A3010 RMK AO2 SLP192 T00940067 10150 20094 58004=
202010210453 METAR KBFI 210453Z 00000KT 10SM CLR 11/07 A3011 RMK AO2 SLP195 T01060072=
202010210353 METAR KBFI 210353Z 06004KT 10SM BKN039 BKN047 13/07 A3011 RMK AO2 SLP197 T01280067=
202010210253 METAR KBFI 210253Z 00000KT 10SM SCT043 BKN055 12/07 A3011 RMK AO2 SLP196 T01220067 56003=
202010210153 METAR KBFI 210153Z 00000KT 10SM SCT085 13/07 A3011 RMK AO2 SLP196 T01280067=
202010210053 METAR KBFI 210053Z 00000KT 10SM SCT035 BKN250 14/06 A3011 RMK AO2 SLP195 T01390061=
202010202353 METAR KBFI 202353Z 25005KT 10SM FEW035 BKN250 15/06 A3012 RMK AO2 SLP200 T01500056 10156 20122 56017=
202010202253 METAR KBFI 202253Z VRB04KT 10SM SCT037 15/06 A3013 RMK AO2 SLP202 T01500056=
202010202153 METAR KBFI 202153Z 00000KT 10SM SCT050 14/06 A3015 RMK AO2 SLP208 T01440056=
202010202053 METAR KBFI 202053Z 24003KT 10SM BKN022 14/07 A3017 RMK AO2 SLP217 T01440067 58015=
202010201953 METAR KBFI 201953Z 00000KT 10SM BKN022 BKN055 14/07 A3021 RMK AO2 SLP228 T01390072=
202010201853 METAR KBFI 201853Z 13004KT 10SM BKN055 13/08 A3022 RMK AO2 SLP234 T01330078=
202010201753 METAR KBFI 201753Z 13004KT 10SM BKN055 12/09 A3022 RMK AO2 SLP231 60000 T01220089 10122 20106 58001=
202010201653 METAR KBFI 201653Z 00000KT 10SM BKN049 12/08 A3022 RMK AO2 SLP234 T01220083=
202010201553 METAR KBFI 201553Z 00000KT 10SM BKN047 BKN060 11/09 A3023 RMK AO2 SLP237 T01110094=
202010201453 METAR KBFI 201453Z 15004KT 10SM OVC045 11/09 A3022 RMK AO2 SLP233 60000 T01060089 56005=
202010201353 METAR KBFI 201353Z 00000KT 10SM FEW008 OVC034 11/09 A3022 RMK AO2 RAE34 SLP233 P0000 T01060089=
202010201253 METAR KBFI 201253Z 15004KT 8SM -RA BKN028 OVC034 11/09 A3023 RMK AO2 RAB41 SLP235 P0000 T01060094=
202010201153 METAR KBFI 201153Z 21003KT 10SM BKN027 OVC032 11/09 A3024 RMK AO2 SLP238 70002 T01110094 10111 20106 52001=
202010201119 SPECI KBFI 201119Z 14003KT 10SM OVC029 11/09 A3024 RMK AO2 T01060089=
202010201053 METAR KBFI 201053Z 00000KT 10SM SCT029 OVC039 11/09 A3023 RMK AO2 SLP238 T01110089=
202010200953 METAR KBFI 200953Z 00000KT 10SM BKN031 OVC044 11/09 A3023 RMK AO2 SLP237 T01110089=
202010200853 METAR KBFI 200853Z 00000KT 10SM OVC035 11/09 A3023 RMK AO2 SLP237 T01110089 50004=
202010200753 METAR KBFI 200753Z 14004KT 10SM OVC070 11/09 A3023 RMK AO2 SLP238 T01110089 401500106=
202010200653 METAR KBFI 200653Z 13004KT 10SM SCT037 OVC070 11/09 A3023 RMK AO2 SLP236 T01110089=
202010200553 METAR KBFI 200553Z 16004KT 10SM OVC070 11/09 A3022 RMK AO2 RAE0459 SLP233 P0000 60002 T01060089 10117 20106 53007=
202010200453 METAR KBFI 200453Z 15006KT 10SM -RA SCT025 OVC060 11/09 A3021 RMK AO2 RAB18 SLP230 P0000 T01060089=
202010200400 SPECI KBFI 200400Z 12004KT 10SM SCT021 OVC045 11/09 A3021 RMK AO2 T01110094=
202010200353 METAR KBFI 200353Z 12005KT 10SM OVC024 11/09 A3020 RMK AO2 RAB0255E51 SLP228 P0002 T01110089=
202010200253 METAR KBFI 200253Z 07005KT 9SM OVC024 11/09 A3020 RMK AO2 RAB26E39 SLP226 P0000 60000 T01110089 53008=
202010200153 METAR KBFI 200153Z 06005KT 10SM FEW015 BKN023 OVC032 12/09 A3018 RMK AO2 RAB02E23 SLP219 P0000 T01170089=
202010200150 SPECI KBFI 200150Z 08006KT 10SM FEW015 BKN023 OVC032 12/09 A3018 RMK AO2 RAB02E23 P0000=
202010200053 METAR KBFI 200053Z 05007KT 10SM FEW010 SCT032 OVC065 12/09 A3017 RMK AO2 RAB08E22 SLP217 P0000 T01170094=
202010192353 METAR KBFI 192353Z 05007KT 10SM SCT010 BKN034 OVC042 12/10 A3017 RMK AO2 RAB20E29 SLP217 P0000 60000 T01170100 10150 20117 51004=
202010192253 METAR KBFI 192253Z 08008KT 10SM FEW018 BKN043 OVC049 13/09 A3017 RMK AO2 SLP216 T01280089=
202010192153 METAR KBFI 192153Z 05008KT 10SM SCT008 BKN020 OVC030 13/09 A3017 RMK AO2 SLP216 T01280089=
202010192115 SPECI KBFI 192115Z 05009G16KT 10SM SCT008 BKN022 OVC030 13/09 A3017 RMK AO2 T01280094=
202010192053 METAR KBFI 192053Z 05009KT 10SM SCT010 BKN026 OVC046 13/10 A3016 RMK AO2 SLP213 60000 T01330100 51003=
202010191953 METAR KBFI 191953Z 00000KT 10SM OVC022 15/10 A3016 RMK AO2 RAB08E23 SLP212 P0000 T01500100=
202010191853 METAR KBFI 191853Z 27003KT 10SM BKN010 OVC022 14/11 A3016 RMK AO2 SLP213 T01390106=
202010191753 METAR KBFI 191753Z 21004KT 10SM BKN010 OVC022 14/11 A3015 RMK AO2 SLP210 T01390106 10139 20117 51009=
202010191653 METAR KBFI 191653Z 19004KT 10SM BKN011 OVC022 13/11 A3015 RMK AO2 SLP209 T01330106=
202010191553 METAR KBFI 191553Z 00000KT 10SM BKN015 OVC020 13/11 A3014 RMK AO2 SLP207 T01330106=
202010191453 METAR KBFI 191453Z 15004KT 10SM SCT014 OVC018 13/11 A3013 RMK AO2 SLP201 T01280106 51006=
202010191353 METAR KBFI 191353Z 15006KT 10SM SCT014 BKN017 OVC021 13/11 A3013 RMK AO2 SLP201 T01280106=
202010191253 METAR KBFI 191253Z 19004KT 10SM BKN017 OVC021 13/10 A3012 RMK AO2 SLP199 T01330100 $=
202010191153 METAR KBFI 191153Z 18004KT 10SM OVC019 14/10 A3011 RMK AO2 SLP195 T01390100 10144 20133 53004 $=
202010191053 METAR KBFI 191053Z 20009G14KT 10SM OVC018 13/10 A3010 RMK AO2 SLP192 T01330100 $=
202010190753 METAR KBFI 190753Z 19006KT 10SM OVC020 14/10 A3009 RMK AO2 SLP188 T01390100 401720117 $=
202010190653 METAR KBFI 190653Z VRB06KT 10SM BKN022 OVC037 14/11 A3007 RMK AO2 SLP182 T01440106 $=
202010190651 SPECI KBFI 190651Z 20007KT 10SM BKN022 OVC037 14/11 A3007 RMK AO2 $=
202010190553 METAR KBFI 190553Z 18007KT 10SM BKN036 14/11 A3006 RMK AO2 SLP180 T01440111 10156 20144 51006 $=
202010190526 SPECI KBFI 190526Z 18005KT 10SM FEW028 OVC036 14/11 A3006 RMK AO2 T01440111 $=
202010190453 METAR KBFI 190453Z VRB04KT 10SM SCT013 BKN020 OVC035 15/11 A3006 RMK AO2 SLP180 T01500111 $=
202010190353 METAR KBFI 190353Z 19006KT 10SM SCT011 BKN026 OVC034 16/12 A3005 RMK AO2 SLP175 T01560117 $=
202010190253 METAR KBFI 190253Z 00000KT 10SM SCT011 OVC018 16/12 A3005 RMK AO2 SLP174 T01560122 51009 $=
202010190153 METAR KBFI 190153Z 07004KT 10SM FEW009 BKN015 OVC025 16/12 A3004 RMK AO2 SLP170 T01560122 $=
202010190053 METAR KBFI 190053Z 30003KT 10SM SCT009 BKN017 OVC046 15/13 A3003 RMK AO2 SLP169 T01500133 $=
202010182353 METAR KBFI 182353Z 29003KT 10SM FEW009 BKN017 OVC046 16/13 A3002 RMK AO2 SLP164 60000 T01560133 10172 20144 53008 $=
202010182329 SPECI KBFI 182329Z 29003KT 10SM SCT014 BKN020 OVC050 16/14 A3001 RMK AO2 T01560139 $=
202010182253 METAR KBFI 182253Z 32005KT 10SM BKN014 BKN026 BKN043 16/13 A3001 RMK AO2 SLP161 T01560133 $=
202010182240 SPECI KBFI 182240Z 32004KT 10SM BKN011 BKN017 OVC026 16/13 A3000 RMK AO2 T01560133 $=
202010182208 SPECI KBFI 182208Z VRB04KT 10SM BKN009 OVC023 17/14 A2999 RMK AO2 T01720139 $=
202010182153 METAR KBFI 182153Z 00000KT 10SM SCT010 BKN017 OVC023 17/14 A2999 RMK AO2 SLP155 T01720139 $=
202010182100 SPECI KBFI 182100Z VRB03KT 10SM OVC017 17/14 A2999 RMK AO2 T01670139 $=
202010182053 METAR KBFI 182053Z 18004KT 10SM BKN011 OVC017 17/14 A2999 RMK AO2 SLP157 60000 T01670139 58003 $=
202010181953 METAR KBFI 181953Z 20007KT 160V220 10SM BKN011 OVC013 16/13 A3000 RMK AO2 SLP159 T01610133 $=
202010181929 SPECI KBFI 181929Z 19008KT 10SM BKN011 OVC013 16/13 A3000 RMK AO2 T01610133 $=
202010181853 METAR KBFI 181853Z 15004KT 6SM BR BKN009 OVC011 15/13 A3001 RMK AO2 RAB34E42 SLP161 P0000 T01500133 $=
202010181753 METAR KBFI 181753Z 15005KT 1SM BR OVC009 14/13 A3000 RMK AO2 SLP160 60000 T01440128 10144 20122 51007 $=
202010181722 SPECI KBFI 181722Z 15005KT 1SM BR OVC009 14/13 A3000 RMK AO2 CIG 005V010 T01390128 $=
202010181653 METAR KBFI 181653Z 17007KT 2SM BR BKN008 OVC011 14/12 A3000 RMK AO2 RAB11E21 SLP158 P0000 T01390122 $=
202010181553 METAR KBFI 181553Z VRB05G15KT 10SM BKN009 OVC011 14/11 A2998 RMK AO2 SLP153 T01390111 $=
202010181453 METAR KBFI 181453Z 19014G24KT 10SM BKN020 OVC090 13/11 A2995 RMK AO2 SLP140 T01330106 58024 $=
202010181353 METAR KBFI 181353Z 18011KT 10SM BKN022 OVC100 13/08 A2997 RMK AO2 SLP149 T01330078 $=
202010181253 METAR KBFI 181253Z 17010G16KT 10SM OVC024 13/06 A3000 RMK AO2 SLP159 T01280061 $=
202010181210 SPECI KBFI 181210Z 14005KT 10SM OVC028 12/07 A3002 RMK AO2 T01220067 $=
202010181153 METAR KBFI 181153Z 14007KT 10SM OVC030 12/07 A3002 RMK AO2 SLP164 60000 T01220072 10128 20117 58030 $=
202010181053 METAR KBFI 181053Z 15011KT 10SM OVC030 12/07 A3005 RMK AO2 RAB08E26 SLP176 P0000 T01170072 $=
202010180953 METAR KBFI 180953Z 18012G18KT 10SM OVC030 12/06 A3010 RMK AO2 SLP192 T01220061 $=
202010180853 METAR KBFI 180853Z VRB06KT 10SM OVC050 13/08 A3011 RMK AO2 SLP195 T01280078 58003 $=
202010180753 METAR KBFI 180753Z 16007KT 10SM BKN050 13/07 A3010 RMK AO2 SLP194 T01280072 401440117 $=
202010180653 METAR KBFI 180653Z 19008KT 10SM OVC075 13/07 A3012 RMK AO2 SLP199 T01280067 $=
202010180553 METAR KBFI 180553Z 18008KT 10SM SCT095 13/08 A3012 RMK AO2 SLP197 T01280078 10144 20128 58019 $=
202010180453 METAR KBFI 180453Z 15004KT 10SM FEW024 OVC065 13/08 A3014 RMK AO2 SLP205 T01280083 $=
202010180353 METAR KBFI 180353Z 15006KT 10SM BKN043 OVC050 13/08 A3015 RMK AO2 SLP211 T01330083 $=
202010180253 METAR KBFI 180253Z 14003KT 10SM SCT042 BKN075 OVC095 13/09 A3017 RMK AO2 SLP216 T01330094 55003 $=
202010180153 METAR KBFI 180153Z 00000KT 10SM BKN080 OVC100 14/09 A3017 RMK AO2 SLP215 T01390094 $=
202010180053 METAR KBFI 180053Z 00000KT 10SM FEW040 OVC100 14/08 A3018 RMK AO2 SLP218 T01440083 $=
202010172353 METAR KBFI 172353Z 13006KT 10SM SCT040 OVC100 14/08 A3018 RMK AO2 SLP220 T01440078 10144 20117 58003 $=
202010172253 METAR KBFI 172253Z 15005KT 10SM OVC037 14/08 A3019 RMK AO2 SLP222 T01440083 $=
202010172153 METAR KBFI 172153Z 17005KT 10SM BKN032 BKN043 OVC110 14/08 A3020 RMK AO2 SLP225 T01390083 $=
202010172053 METAR KBFI 172053Z 19006KT 10SM SCT020 OVC040 14/08 A3019 RMK AO2 SLP223 T01390083 58004 $=
202010171953 METAR KBFI 171953Z VRB04KT 10SM BKN018 OVC022 14/09 A3020 RMK AO2 SLP226 T01390089 $=
202010171930 SPECI KBFI 171930Z 19007KT 10SM BKN018 OVC022 13/09 A3020 RMK AO2 T01330094 $=
202010171853 METAR KBFI 171853Z 19007KT 10SM BKN008 OVC022 13/11 A3021 RMK AO2 SLP229 T01330106 $=
202010171753 METAR KBFI 171753Z 17007KT 2 1/2SM BR BKN008 OVC015 12/11 A3021 RMK AO2 SLP228 T01170106 10122 20117 51010 $=
202010171653 METAR KBFI 171653Z 16008KT 2 1/2SM BR BKN008 OVC015 12/11 A3019 RMK AO2 SLP223 T01170111 $=
202010171649 SPECI KBFI 171649Z 16008KT 2 1/2SM BR BKN008 OVC015 12/11 A3019 RMK AO2 CIG 005V010 $=
202010171618 SPECI KBFI 171618Z 15008KT 3SM BR BKN008 OVC018 12/11 A3019 RMK AO2 T01170111 $=
202010171553 METAR KBFI 171553Z 16009KT 10SM BKN008 OVC018 12/11 A3017 RMK AO2 SLP217 T01170106 $=
202010171453 METAR KBFI 171453Z 17007KT 6SM BR BKN008 OVC015 12/11 A3016 RMK AO2 SLP212 T01170106 51009 $=
202010171353 METAR KBFI 171353Z 16005KT 6SM BR BKN008 OVC015 12/11 A3016 RMK AO2 SLP212 T01170111 $=
202010171326 SPECI KBFI 171326Z 17005KT 6SM BR OVC008 12/11 A3016 RMK AO2 T01170111 $=
202010171253 METAR KBFI 171253Z 18004KT 6SM HZ FEW010 OVC015 12/ A3014 RMK AO2 SLP207 T0117 $=
202010171251 SPECI KBFI 171251Z 16005KT 6SM HZ FEW010 OVC015 12/ A3014 RMK AO2 $=
202010171245 SPECI KBFI 171245Z 16006KT 6SM HZ OVC009 12/ A3014 RMK AO2 T0117 $=
202010171153 METAR KBFI 171153Z 15007KT 2SM BR OVC007 12/ A3013 RMK AO2 SLP203 60004 70004 T0117 10156 20117 50010 $=
202010171053 METAR KBFI 171053Z 12006KT 2SM BR OVC007 12/ A3014 RMK AO2 RAE20 SLP205 P0000 T0122 $=
202010170953 METAR KBFI 170953Z 14004KT 1 1/2SM -RA BR OVC008 13/13 A3013 RMK AO2 RAB01 SLP203 P0000 T01280128=
202010170934 SPECI KBFI 170934Z AUTO VRB03KT 2SM -RA BR OVC007 13/13 A3012 RMK AO2 RAB01 CIG 006V011 P0000 T01330128 TSNO=
202010170853 METAR KBFI 170853Z AUTO 05006KT 9SM BKN008 BKN013 OVC019 13/13 A3010 RMK AO2 RAB18E32 SLP193 P0000 60004 T01330128 53013 TSNO=
202010170753 METAR KBFI 170753Z AUTO 06008G15KT 6SM BR FEW008 OVC018 14/12 A3008 RMK AO2 RAB0659E50 SLP187 P0004 T01390122 401830100 TSNO=
202010170732 SPECI KBFI 170732Z 05006KT 3SM -RA BR SCT009 OVC017 14/12 A3009 RMK AO2 RAB0659 P0004 T01390122=
202010170711 SPECI KBFI 170711Z 05010G16KT 2SM -RA BR OVC006 14/12 A3008 RMK AO2 RAB0659 CIG 006V011 P0002 T01390122=
202010170653 METAR KBFI 170653Z 11003KT 6SM BR BKN007 OVC011 15/14 A3007 RMK AO2 CIG 006V010 SLP181 T01500139=
202010170650 SPECI KBFI 170650Z 12003KT 7SM BKN007 OVC011 15/14 A3007 RMK AO2 CIG 006V010=
202010170553 METAR KBFI 170553Z 13004KT 10SM OVC012 16/14 A3005 RMK AO2 SLP175 60000 T01560139 10172 20156 58001=
202010170453 METAR KBFI 170453Z 14003KT 10SM BKN014 BKN020 OVC025 16/14 A3005 RMK AO2 SLP174 T01560139=
202010170353 METAR KBFI 170353Z 16005KT 5SM BR BKN015 OVC022 16/14 A3006 RMK AO2 RAB05E41 SLP178 P0000 T01610144=
202010170253 METAR KBFI 170253Z 19004KT 10SM OVC015 17/14 A3005 RMK AO2 SLP176 T01670139 50001=
202010170153 METAR KBFI 170153Z 16005KT 10SM OVC015 17/14 A3006 RMK AO2 SLP178 T01670139=
202010170053 METAR KBFI 170053Z 18006KT 10SM OVC015 17/13 A3006 RMK AO2 SLP179 T01720133=
202010162353 METAR KBFI 162353Z 22010G21KT 190V250 10SM OVC020 17/13 A3005 RMK AO2 SLP175 T01720133 10183 20150 58009=
202010162253 METAR KBFI 162253Z VRB06KT 10SM OVC023 18/13 A3007 RMK AO2 SLP182 T01780128=
202010162153 METAR KBFI 162153Z 20006G14KT 10SM SCT011 OVC023 17/13 A3008 RMK AO2 PK WND 23026/2116 SLP185 T01720128=
202010162053 METAR KBFI 162053Z 21014G22KT 180V260 10SM SCT011 OVC019 18/13 A3008 RMK AO2 SLP184 T01780128 58026=
202010162013 SPECI KBFI 162013Z 21010G20KT 10SM BKN011 OVC013 17/13 A3010 RMK AO2 T01670128=
202010162000 SPECI KBFI 162000Z 23010G21KT 10SM BKN019 17/13 A3011 RMK AO2 T01670128=
202010161953 METAR KBFI 161953Z 21010G22KT 10SM BKN011 OVC013 17/12 A3011 RMK AO2 SLP195 T01670122=
202010161853 METAR KBFI 161853Z 20010G20KT 10SM BKN011 OVC013 16/12 A3013 RMK AO2 SLP203 T01560117=
202010161753 METAR KBFI 161753Z 19009G20KT 10SM OVC013 15/12 A3015 RMK AO2 SLP210 T01500117 10150 20122 58029=
202010161653 METAR KBFI 161653Z 16011G18KT 10SM OVC014 14/11 A3019 RMK AO2 SLP223 T01440106=
202010161553 METAR KBFI 161553Z 17011G16KT 10SM OVC017 14/09 A3021 RMK AO2 SLP231 T01390089=
202010161453 METAR KBFI 161453Z 17012G18KT 10SM SCT019 OVC023 13/08 A3024 RMK AO2 SLP239 T01330078 56026=
202010161353 METAR KBFI 161353Z 17007KT 10SM OVC026 14/07 A3026 RMK AO2 SLP247 T01390072=
202010161253 METAR KBFI 161253Z 14008KT 10SM OVC030 13/07 A3028 RMK AO2 SLP255 T01330067=
202010161153 METAR KBFI 161153Z 15007KT 10SM OVC033 12/07 A3032 RMK AO2 SLP266 T01220072 10122 20100 58024=
202010161053 METAR KBFI 161053Z 14007KT 10SM BKN045 11/07 A3034 RMK AO2 SLP272 T01060072=
202010160953 METAR KBFI 160953Z 14006KT 10SM OVC046 11/08 A3038 RMK AO2 SLP286 T01060078=
202010160853 METAR KBFI 160853Z 14007KT 10SM FEW045 SCT080 11/07 A3039 RMK AO2 SLP290 T01060072 58013=
202010160753 METAR KBFI 160753Z 15006KT 10SM BKN075 11/08 A3041 RMK AO2 SLP296 T01110078 401670067=
202010160653 METAR KBFI 160653Z 15005KT 10SM BKN080 12/08 A3043 RMK AO2 SLP302 T01220078=
202010160553 METAR KBFI 160553Z 15003KT 10SM BKN075 12/07 A3043 RMK AO2 SLP303 T01170072 10161 20117 58017=
202010160453 METAR KBFI 160453Z 14003KT 10SM SCT070 13/07 A3044 RMK AO2 SLP307 T01280072=
202010160353 METAR KBFI 160353Z 00000KT 10SM OVC070 14/07 A3047 RMK AO2 SLP318 T01390072=
202010160253 METAR KBFI 160253Z 00000KT 10SM OVC075 14/07 A3048 RMK AO2 SLP320 T01440067 55007=
202010160153 METAR KBFI 160153Z 00000KT 10SM BKN080 14/06 A3047 RMK AO2 SLP318 T01440061=
202010160053 METAR KBFI 160053Z 27005KT 10SM SCT080 BKN120 14/07 A3048 RMK AO2 SLP319 T01440067=
202010152353 METAR KBFI 152353Z 33005KT 10SM SCT085 BKN120 16/06 A3050 RMK AO2 SLP327 T01610061 10167 20139 56025=
202010152253 METAR KBFI 152253Z 33004KT 10SM BKN090 17/07 A3052 RMK AO2 SLP335 T01670067=
202010152153 METAR KBFI 152153Z VRB04KT 10SM BKN100 16/07 A3054 RMK AO2 SLP342 T01560067=
202010152053 METAR KBFI 152053Z VRB04KT 10SM BKN110 15/07 A3057 RMK AO2 SLP352 T01500072 58011=
202010151953 METAR KBFI 151953Z 33004KT 10SM BKN110 14/07 A3059 RMK AO2 SLP358 T01440072=
202010151853 METAR KBFI 151853Z 29003KT 10SM FEW024 BKN140 14/07 A3060 RMK AO2 SLP361 T01440072=
202010151753 METAR KBFI 151753Z 00000KT 10SM FEW070 SCT200 14/07 A3061 RMK AO2 SLP363 T01390072 10139 20067 50002=
202010151653 METAR KBFI 151653Z 00000KT 10SM FEW020 12/08 A3061 RMK AO2 SLP365 T01170078=
202010151553 METAR KBFI 151553Z 00000KT 10SM CLR 09/07 A3061 RMK AO2 SLP364 T00940067=
202010151453 METAR KBFI 151453Z 00000KT 10SM FEW042 08/06 A3060 RMK AO2 SLP361 T00780061 53005=
202010151353 METAR KBFI 151353Z 00000KT 10SM FEW009 FEW050 08/06 A3059 RMK AO2 SLP358 T00780056=
202010151253 METAR KBFI 151253Z 14003KT 10SM SCT025 08/06 A3058 RMK AO2 SLP356 T00830056=
202010151153 METAR KBFI 151153Z 00000KT 10SM SCT025 SCT065 09/06 A3058 RMK AO2 SLP356 T00890061 10117 20083 51010=
202010151053 METAR KBFI 151053Z 00000KT 10SM FEW035 SCT065 09/06 A3058 RMK AO2 SLP354 T00890061=
202010150953 METAR KBFI 150953Z 00000KT 10SM SCT040 08/06 A3057 RMK AO2 SLP350 T00830056=
202010150853 METAR KBFI 150853Z 00000KT 10SM BKN032 09/06 A3055 RMK AO2 SLP346 T00890061 51007=
202010150753 METAR KBFI 150753Z 00000KT 10SM SCT075 09/06 A3055 RMK AO2 SLP343 T00940056 401720094=
202010150653 METAR KBFI 150653Z 00000KT 10SM FEW055 BKN075 11/07 A3054 RMK AO2 SLP341 T01060067=
202010150553 METAR KBFI 150553Z 00000KT 10SM SCT055 BKN080 12/06 A3053 RMK AO2 SLP338 T01170061 10161 20117 53018=
202010150453 METAR KBFI 150453Z 00000KT 10SM FEW055 SCT080 12/07 A3051 RMK AO2 SLP330 T01220067=
202010150353 METAR KBFI 150353Z 08003KT 10SM OVC044 13/07 A3050 RMK AO2 SLP326 T01330067=
202010150253 METAR KBFI 150253Z 00000KT 10SM BKN050 14/07 A3048 RMK AO2 SLP320 T01390072 53018=
202010150153 METAR KBFI 150153Z 06003KT 10SM BKN044 14/07 A3046 RMK AO2 SLP314 T01440072=
202010150053 METAR KBFI 150053Z 06005KT 10SM SCT041 SCT047 BKN070 15/07 A3044 RMK AO2 SLP307 T01500072=
202010142353 METAR KBFI 142353Z 04007KT 10SM FEW050 SCT070 16/08 A3043 RMK AO2 SLP302 T01610078 10172 20144 51005=
202010142253 METAR KBFI 142253Z 34005KT 10SM SCT050 BKN090 17/07 A3043 RMK AO2 SLP303 T01670067=
202010142153 METAR KBFI 142153Z 32005KT 10SM SCT038 BKN049 16/08 A3042 RMK AO2 SLP301 T01560078=
202010142053 METAR KBFI 142053Z VRB03KT 10SM FEW018 BKN034 BKN041 17/08 A3041 RMK AO2 SLP297 T01670083 51008=
202010141953 METAR KBFI 141953Z 16005KT 10SM SCT025 BKN041 BKN250 16/08 A3041 RMK AO2 SLP296 T01610083=
202010141853 METAR KBFI 141853Z 20005KT 10SM FEW016 BKN020 14/08 A3040 RMK AO2 SLP293 T01440083=
202010141753 METAR KBFI 141753Z VRB06KT 10SM FEW016 BKN024 14/09 A3039 RMK AO2 SLP289 T01440089 10144 20111 53024=
202010141653 METAR KBFI 141653Z 19007KT 10SM FEW016 BKN022 13/08 A3036 RMK AO2 SLP279 T01280083=
202010141553 METAR KBFI 141553Z VRB06KT 10SM SCT018 BKN023 BKN110 12/08 A3034 RMK AO2 SLP274 T01220078=
202010141521 SPECI KBFI 141521Z 17006KT 10SM FEW012 BKN023 BKN110 12/08 A3032 RMK AO2 T01220078=
202010141453 METAR KBFI 141453Z 19006KT 10SM FEW012 SCT022 BKN120 12/08 A3032 RMK AO2 SLP265 T01220078 51016=
202010141353 METAR KBFI 141353Z 17005KT 10SM BKN020 BKN085 12/08 A3030 RMK AO2 SLP260 T01220083=
202010141253 METAR KBFI 141253Z 17006KT 10SM SCT018 BKN021 11/08 A3029 RMK AO2 SLP256 T01110078=
202010141153 METAR KBFI 141153Z VRB06KT 10SM FEW018 12/08 A3027 RMK AO2 SLP249 70025 T01170078 10128 20111 51018=
202010141053 METAR KBFI 141053Z 15006KT 10SM FEW019 FEW090 12/08 A3025 RMK AO2 SLP244 T01170083=
202010140953 METAR KBFI 140953Z 16005KT 10SM SCT022 BKN055 12/08 A3023 RMK AO2 SLP237 T01170083=
202010140853 METAR KBFI 140853Z 16007KT 10SM BKN022 12/08 A3022 RMK AO2 SLP231 T01170078 53031=
202010140753 METAR KBFI 140753Z 18004KT 10SM FEW022 12/08 A3017 RMK AO2 SLP217 T01170078 401780100=
202010140653 METAR KBFI 140653Z VRB03KT 10SM CLR 12/07 A3014 RMK AO2 SLP207 T01220072=
202010140553 METAR KBFI 140553Z 23007KT 190V250 10SM SCT080 13/08 A3012 RMK AO2 SLP200 T01280078 10167 20128 53030=
202010140453 METAR KBFI 140453Z 22007G15KT 190V250 10SM FEW075 13/07 A3009 RMK AO2 SLP187 T01330072=
202010140353 METAR KBFI 140353Z 22009G18KT 10SM FEW040 14/08 A3006 RMK AO2 SLP178 T01390078=
202010140253 METAR KBFI 140253Z 21010G17KT 10SM SCT030 BKN070 BKN085 14/07 A3003 RMK AO2 SLP170 T01440072 51036=
202010140153 METAR KBFI 140153Z 21016G26KT 10SM BKN075 OVC090 15/07 A3001 RMK AO2 PK WND 23026/0150 SLP162 T01500072=
202010140053 METAR KBFI 140053Z 22015G23KT 10SM SCT043 BKN085 16/06 A2997 RMK AO2 PK WND 24028/0005 SLP149 T01610056=
202010132353 METAR KBFI 132353Z 24016G25KT 10SM FEW030 FEW050 17/06 A2993 RMK AO2 PK WND 20032/2327 SLP134 T01670056 10178 20161 53018=
202010132253 METAR KBFI 132253Z 22018G31KT 10SM FEW030 FEW050 17/06 A2990 RMK AO2 PK WND 22032/2242 SLP124 T01720061=
202010132153 METAR KBFI 132153Z 24015G23KT 210V290 10SM FEW030 SCT045 18/06 A2988 RMK AO2 PK WND 22030/2109 SLP119 T01780061=
202010132053 METAR KBFI 132053Z 24011G22KT 10SM FEW042 SCT049 18/08 A2987 RMK AO2 PK WND 23030/2026 SLP116 T01780078 53031=
202010131953 METAR KBFI 131953Z 23007G23KT 170V250 10SM FEW015 BKN033 18/09 A2984 RMK AO2 PK WND 19033/1910 SLP104 T01780089=
202010131853 METAR KBFI 131853Z 22014G27KT 10SM FEW033 SCT041 BKN140 17/09 A2982 RMK AO2 PK WND 21027/1852 SLP096 T01720094=
202010131753 METAR KBFI 131753Z 21014G21KT 10SM FEW010 BKN030 16/11 A2978 RMK AO2 PK WND 22027/1732 RAE1656 SLP084 P0000 60025 T01610106 10161 20100 53015=
202010131708 SPECI KBFI 131708Z 21011G20KT 180V260 10SM FEW010 FEW030 BKN100 16/12 A2976 RMK AO2 RAE1656 P0000 T01610122=
202010131653 METAR KBFI 131653Z 19013G22KT 10SM -RA SCT009 OVC017 16/13 A2975 RMK AO2 SLP074 P0000 T01610128=
202010131553 METAR KBFI 131553Z 16014KT 10SM -RA BKN009 OVC020 13/12 A2973 RMK AO2 TSE1454 SLP066 P0000 T01330117=
202010131459 SPECI KBFI 131459Z 13007KT 5SM -RA BR BKN009 OVC018 12/10 A2974 RMK AO2 TSE54 P0000 T01170100=
202010131456 SPECI KBFI 131456Z 15007KT 5SM -RA BR BKN011 OVC018 12/10 A2974 RMK AO2 TSE54 P0000 T01170100=
202010131453 METAR KBFI 131453Z 12006KT 5SM TSRA BR SCT006 BKN009 OVC011 11/10 A2974 RMK AO2 TSB51 SLP070 P0009 60025 T01110100 55031=
202010131426 SPECI KBFI 131426Z 31003KT 3SM RA BR SCT006 BKN009 OVC011 11/09 A2974 RMK AO2 P0003 T01060094=
202010131353 METAR KBFI 131353Z VRB04KT 6SM -RA BR SCT009 OVC011 11/09 A2973 RMK AO2 SLP067 P0009 T01060094=
202010131351 SPECI KBFI 131351Z 16005KT 5SM -RA BR BKN009 OVC011 11/09 A2972 RMK AO2 P0009=
202010131253 METAR KBFI 131253Z 14008KT 2 1/2SM -RA BR OVC016 10/08 A2979 RMK AO2 SLP086 P0007 T01000083=
202010131153 METAR KBFI 131153Z 14008KT 4SM RA BR BKN027 OVC034 10/08 A2983 RMK AO2 PRESFR SLP101 P0017 60020 70020 T01000083 10128 20100 58054=
202010131053 METAR KBFI 131053Z 13004KT 5SM -RA BR FEW028 OVC036 10/08 A2989 RMK AO2 PRESFR SLP121 P0002 T01000083=
202010130953 METAR KBFI 130953Z 15007KT 10SM -RA BKN045 OVC055 11/08 A2994 RMK AO2 SLP139 P0000 T01060078=
202010130853 METAR KBFI 130853Z 00000KT 10SM -RA BKN060 OVC080 11/09 A2999 RMK AO2 RAB03 SLP155 P0001 60001 T01110089 56032=
202010130753 METAR KBFI 130753Z 09003KT 10SM SCT065 OVC090 12/08 A3000 RMK AO2 RAB06E42 SLP160 P0000 T01170078 401670111=
202010130653 METAR KBFI 130653Z 16005KT 10SM BKN070 OVC090 12/07 A3003 RMK AO2 SLP170 T01170072=
202010130553 METAR KBFI 130553Z 14007KT 10SM OVC110 12/07 A3009 RMK AO2 SLP187 T01220067 10167 20122 58019=
202010130453 METAR KBFI 130453Z 15007KT 10SM CLR 13/07 A3013 RMK AO2 SLP202 T01280067=
202010130353 METAR KBFI 130353Z 14005KT 10SM CLR 13/07 A3014 RMK AO2 SLP205 T01280067=
202010130253 METAR KBFI 130253Z 20003KT 10SM FEW050 14/05 A3014 RMK AO2 SLP207 T01390050 58010=
202010130153 METAR KBFI 130153Z 00000KT 10SM FEW050 SCT120 14/05 A3016 RMK AO2 SLP212 T01440050=
202010130053 METAR KBFI 130053Z 19005KT 10SM SCT050 15/04 A3016 RMK AO2 SLP212 T01500044=
202010122353 METAR KBFI 122353Z VRB05KT 10SM SCT050 16/04 A3017 RMK AO2 SLP217 T01610044 10167 20133 58008=
202010122253 METAR KBFI 122253Z 16007KT 10SM SCT046 17/05 A3018 RMK AO2 SLP221 T01670050=
202010122153 METAR KBFI 122153Z 21004KT 10SM SCT025 SCT045 16/05 A3020 RMK AO2 SLP225 T01610050=
202010122053 METAR KBFI 122053Z 24004KT 10SM SCT025 SCT045 16/06 A3020 RMK AO2 SLP225 T01560061 50003=
202010121953 METAR KBFI 121953Z 21007KT 10SM SCT016 BKN039 16/06 A3020 RMK AO2 SLP227 T01560061=
202010121853 METAR KBFI 121853Z 19007KT 10SM BKN028 OVC037 14/07 A3020 RMK AO2 SLP226 T01390072=
202010121753 METAR KBFI 121753Z 17007KT 10SM SCT017 BKN023 BKN041 13/08 A3019 RMK AO2 SLP222 60000 T01330078 10133 20111 51031=
202010121653 METAR KBFI 121653Z VRB03KT 10SM BR SCT008 BKN014 12/09 A3016 RMK AO2 SLP214 T01220089 $=
202010121553 METAR KBFI 121553Z 06004KT 3SM BR BKN008 OVC017 11/09 A3013 RMK AO2 RAB14E32 SLP202 P0000 T01110094 $=
202010121541 SPECI KBFI 121541Z 06004KT 3SM BR BKN008 OVC017 11/09 A3012 RMK AO2 RAB14E32 P0000 T01110089 $=
202010121453 METAR KBFI 121453Z 05005KT 4SM BR BKN010 OVC019 12/09 A3010 RMK AO2 SLP191 T01170094 51039 $=
202010121353 METAR KBFI 121353Z 00000KT 10SM OVC023 13/08 A3007 RMK AO2 SLP181 T01280083 $=
202010121253 METAR KBFI 121253Z 24005KT 10SM OVC027 13/08 A3001 RMK AO2 SLP162 T01280083 $=
202010121153 METAR KBFI 121153Z 20005KT 10SM OVC022 13/09 A2998 RMK AO2 SLP151 70021 T01330089 10161 20133 51053 $=
202010121118 SPECI KBFI 121118Z 19007G15KT 10SM BKN024 OVC048 13/09 A2995 RMK AO2 PRESRR T01330089 $=
202010121053 METAR KBFI 121053Z VRB06KT 10SM SCT024 OVC048 13/09 A2993 RMK AO2 SLP135 T01330089 $=
202010120953 METAR KBFI 120953Z 18007G16KT 10SM FEW020 BKN050 13/09 A2989 RMK AO2 PRESRR SLP120 T01330094 $=
202010120853 METAR KBFI 120853Z 19011G21KT 10SM FEW085 14/09 A2982 RMK AO2 PK WND 21027/0807 PRESRR SLP099 T01390094 53037 $=
202010120753 METAR KBFI 120753Z 20018G27KT 10SM FEW020 14/10 A2975 RMK AO2 PK WND 20032/0717 SLP072 T01390100 401670106 $=
202010120710 SPECI KBFI 120710Z 19017G28KT 10SM FEW021 SCT028 15/11 A2973 RMK AO2 PK WND 20028/0703 T01500106 $=
202010120653 METAR KBFI 120653Z 18018G26KT 10SM FEW017 BKN024 BKN030 15/12 A2972 RMK AO2 PK WND 18026/0650 SLP064 T01500122 $=
202010120553 METAR KBFI 120553Z 17010G20KT 10SM FEW013 BKN021 16/12 A2972 RMK AO2 SLP062 60008 T01610122 10161 20139 53018 $=
202010120453 METAR KBFI 120453Z 17010G18KT 10SM FEW013 BKN021 16/13 A2968 RMK AO2 SLP050 T01560128 $=
202010120353 METAR KBFI 120353Z 18013G20KT 10SM BKN013 BKN018 16/15 A2966 RMK AO2 RAE32 SLP044 P0001 T01560150 $=
202010120253 METAR KBFI 120253Z 18011G22KT 3SM -RA BR BKN010 BKN018 OVC026 16/15 A2968 RMK AO2 RAE09B39 SLP048 P0000 60007 T01560150 56019 $=
202010120153 METAR KBFI 120153Z 17016G22KT 3SM -RA BR BKN011 OVC022 14/14 A2968 RMK AO2 PK WND 18028/0115 RAB0055 SLP049 P0000 T01440139 $=
202010120053 METAR KBFI 120053Z 18013G23KT 3SM BR BKN013 OVC018 15/14 A2969 RMK AO2 PK WND 18028/0034 RAE49 SLP052 P0007 T01500139 $=
202010120037 SPECI KBFI 120037Z 18012G28KT 3SM -RA BR BKN015 OVC022 15/14 A2970 RMK AO2 PK WND 18028/0034 P0007 T01500139 $=
202010120019 SPECI KBFI 120019Z 17016G22KT 2SM -RA BR BKN015 OVC022 14/14 A2972 RMK AO2 P0005 T01440139 $=
202010112353 METAR KBFI 112353Z 17013G18KT 3SM RA BR BKN015 OVC034 14/13 A2973 RMK AO2 SLP068 P0005 60013 T01390133 10139 20122 56049 $=
202010112339 SPECI KBFI 112339Z 18011KT 2SM -RA BKN026 OVC034 14/ A2973 RMK AO2 P0002 T0139 $=
202010112253 METAR KBFI 112253Z 15011KT 5SM -RA BKN029 OVC037 13/ A2977 RMK AO2 SLP081 P0002 T0128 $=
202010112153 METAR KBFI 112153Z 14012KT 4SM -RA BR BKN029 OVC037 13/11 A2983 RMK AO2 SLP100 P0005 T01280111 $=
202010112053 METAR KBFI 112053Z 13010KT 4SM -RA BR SCT022 OVC043 13/11 A2988 RMK AO2 PRESFR SLP117 P0001 60001 T01280111 58046=
202010112038 SPECI KBFI 112038Z 13008KT 4SM -RA BR SCT035 OVC042 13/11 A2990 RMK AO2 P0000 T01280111=
202010112023 SPECI KBFI 112023Z 14008KT 2 1/2SM -RA BR BKN040 OVC055 13/11 A2992 RMK AO2 P0000 T01280106=
202010112022 SPECI KBFI 112022Z 14008KT 2 1/2SM -RA BR BKN040 OVC055 13/11 A2992 RMK AO2 P0000 T01280106=
202010111953 METAR KBFI 111953Z 15010KT 10SM -RA FEW015 OVC065 13/10 A2995 RMK AO2 SLP140 P0000 T01280100=
202010111853 METAR KBFI 111853Z 16008KT 10SM -RA SCT015 OVC055 12/09 A3001 RMK AO2 RAB13 SLP161 P0000 T01220089=
202010111753 METAR KBFI 111753Z 13006KT 10SM SCT055 BKN070 OVC085 12/08 A3001 RMK AO2 RAB31E40 SLP162 P0000 60000 T01220083 10122 20111 58009=
202010111653 METAR KBFI 111653Z 15004KT 10SM FEW010 SCT026 OVC100 12/07 A3002 RMK AO2 SLP166 T01170072=
202010111553 METAR KBFI 111553Z 16008KT 10SM FEW010 BKN021 12/07 A3004 RMK AO2 SLP172 T01170072=
202010111453 METAR KBFI 111453Z 16005KT 10SM BKN018 OVC022 11/08 A3004 RMK AO2 SLP171 T01110078 51013=
202010111353 METAR KBFI 111353Z 16006KT 10SM OVC015 11/08 A3003 RMK AO2 SLP168 T01110078=
202010111253 METAR KBFI 111253Z 16007KT 10SM OVC015 11/08 A3001 RMK AO2 SLP163 T01110078=
202010111153 METAR KBFI 111153Z 17008KT 10SM OVC018 11/08 A3000 RMK AO2 SLP158 60000 70003 T01110078 10128 20106 51012=
202010111053 METAR KBFI 111053Z 15008KT 10SM BKN019 OVC024 11/08 A2999 RMK AO2 SLP156 T01110078=
202010110953 METAR KBFI 110953Z AUTO 17008KT 10SM OVC020 12/08 A2998 RMK AO2 SLP152 T01170078 TSNO=
202010110853 METAR KBFI 110853Z 15008KT 10SM OVC019 12/08 A2996 RMK AO2 RAB15E36 SLP146 P0000 60000 T01170083 52023=
202010110753 METAR KBFI 110753Z 17008KT 10SM BKN022 OVC090 12/08 A2994 RMK AO2 SLP139 T01170078 401780117=
202010110653 METAR KBFI 110653Z 19006KT 10SM BKN100 OVC120 12/07 A2992 RMK AO2 SLP130 T01220072=
202010110553 METAR KBFI 110553Z 19007KT 150V220 10SM BKN085 13/07 A2990 RMK AO2 SLP123 T01280072 10156 20122 51014=
202010110453 METAR KBFI 110453Z 17008KT 10SM FEW030 13/07 A2988 RMK AO2 SLP119 T01280072=
202010110353 METAR KBFI 110353Z 17007KT 10SM SCT050 13/07 A2987 RMK AO2 SLP114 T01280067=
202010110253 METAR KBFI 110253Z VRB04KT 10SM CLR 13/06 A2985 RMK AO2 SLP109 T01280056 51027=
202010110153 METAR KBFI 110153Z 20004KT 10SM FEW030 SCT050 14/05 A2983 RMK AO2 SLP100 T01390050=
202010110053 METAR KBFI 110053Z VRB03KT 10SM SCT028 15/04 A2980 RMK AO2 SLP092 T01500039=
202010102353 METAR KBFI 102353Z 25009G19KT 10SM FEW028 SCT090 16/03 A2978 RMK AO2 SLP082 T01560028 10178 20133 53030=
202010102253 METAR KBFI 102253Z 23013KT 10SM CLR 17/07 A2973 RMK AO2 SLP068 T01670067=
202010102153 METAR KBFI 102153Z 22007KT 10SM FEW035 SCT070 18/08 A2972 RMK AO2 SLP063 T01780083=
202010102053 METAR KBFI 102053Z 21008G17KT 180V240 10SM FEW020 SCT040 SCT100 16/08 A2968 RMK AO2 SLP052 T01560083 53022=
202010101953 METAR KBFI 101953Z 22009G16KT 10SM SCT020 BKN150 16/09 A2966 RMK AO2 SLP043 T01560094=
202010101853 METAR KBFI 101853Z 19015G20KT 10SM SCT020 BKN150 14/09 A2964 RMK AO2 SLP037 T01440094=
202010101753 METAR KBFI 101753Z 19010G20KT 10SM SCT020 BKN110 14/09 A2962 RMK AO2 SLP030 60003 T01390094 10144 20133 53020=
202010101653 METAR KBFI 101653Z 18012G20KT 10SM SCT020 BKN050 OVC080 14/10 A2959 RMK AO2 RAE03 SLP019 P0000 T01390100=
202010101553 METAR KBFI 101553Z 18011G21KT 10SM -RA SCT021 BKN049 OVC075 14/11 A2957 RMK AO2 RAE09B31 SLP013 P0000 T01390111=
202010101453 METAR KBFI 101453Z 18015G19KT 10SM -RA FEW012 BKN050 OVC100 14/11 A2956 RMK AO2 PK WND 18026/1436 RAE01B47 SLP010 P0000 60003 T01390106 53004=
202010101400 SPECI KBFI 101400Z 19012G21KT 10SM -RA FEW015 BKN022 OVC055 14/12 A2954 RMK AO2 P0000 T01440122=
202010101353 METAR KBFI 101353Z 19009G23KT 140V210 10SM -RA SCT022 BKN049 OVC080 14/12 A2954 RMK AO2 SLP003 P0000 T01440122=
202010101253 METAR KBFI 101253Z 17008KT 9SM -RA FEW030 SCT038 OVC050 14/12 A2954 RMK AO2 SLP004 P0003 T01440122=
202010101153 METAR KBFI 101153Z 15009KT 9SM -RA BKN047 BKN060 OVC090 14/13 A2955 RMK AO2 SLP006 P0005 60031 70062 T01440128 10156 20144 56030=
202010101053 METAR KBFI 101053Z 16011KT 9SM -RA FEW050 OVC075 14/12 A2957 RMK AO2 SLP013 P0002 T01440122=
202010100953 METAR KBFI 100953Z 17010KT 10SM -RA OVC080 15/13 A2961 RMK AO2 RAB0857 SLP026 P0000 T01500128=
202010100853 METAR KBFI 100853Z 18007KT 10SM FEW070 BKN090 OVC110 15/13 A2964 RMK AO2 RAE49 SLP036 P0000 60024 T01500133 58009=
202010100753 METAR KBFI 100753Z 20010G16KT 4SM -RA FEW050 BKN080 OVC090 16/13 A2965 RMK AO2 SLP040 P0011 T01560128 402000150=
202010100653 METAR KBFI 100653Z 23005KT 3SM RA BR SCT015 OVC037 15/13 A2967 RMK AO2 SLP047 P0013 T01500133=
202010100600 SPECI KBFI 100600Z VRB06KT 3SM RA BR BKN040 OVC048 16/13 A2967 RMK AO2 P0002 T01560133=
202010100553 METAR KBFI 100553Z VRB05KT 3SM RA BR BKN024 BKN047 OVC060 16/13 A2967 RMK AO2 SLP046 P0029 60031 T01560133 10194 20150 56007=
202010100532 SPECI KBFI 100532Z 21004KT 2SM +RA BR BKN024 BKN047 OVC060 16/14 A2967 RMK AO2 P0021 T01560139=
202010100520 SPECI KBFI 100520Z VRB04KT 1 3/4SM +RA BR BKN024 BKN047 OVC060 16/13 A2967 RMK AO2 P0013 T01560133=
202010100453 METAR KBFI 100453Z 26005KT 5SM -RA BKN024 BKN047 OVC060 16/13 A2967 RMK AO2 SLP046 P0002 T01610133=
202010100353 METAR KBFI 100353Z 16004KT 10SM -RA BKN055 BKN075 OVC090 17/13 A2967 RMK AO2 RAB32 SLP047 P0000 T01670128=
202010100253 METAR KBFI 100253Z 15008KT 10SM BKN060 BKN110 18/12 A2969 RMK AO2 SLP053 T01780122 58016=
202010100153 METAR KBFI 100153Z VRB03KT 10SM FEW040 SCT055 BKN120 OVC200 18/12 A2971 RMK AO2 SLP059 T01780117=
202010100053 METAR KBFI 100053Z 24006KT 10SM BKN110 18/12 A2972 RMK AO2 SLP065 T01830117=
202010092353 METAR KBFI 092353Z 22008KT 10SM FEW020 SCT160 19/12 A2973 RMK AO2 SLP069 T01940122 10200 20172 56026=
202010092253 METAR KBFI 092253Z 22004KT 10SM CLR 20/12 A2976 RMK AO2 SLP076 T02000122=
202010092153 METAR KBFI 092153Z 20007KT 10SM SCT030 BKN200 19/12 A2978 RMK AO2 SLP084 T01940117=
202010092053 METAR KBFI 092053Z 21010G15KT 10SM SCT030 BKN250 19/12 A2981 RMK AO2 SLP095 T01940117 58012=
202010091953 METAR KBFI 091953Z 19009G17KT 10SM SCT020 OVC038 18/12 A2984 RMK AO2 SLP103 T01780122=
202010091853 METAR KBFI 091853Z 18008KT 10SM BKN036 18/13 A2984 RMK AO2 SLP105 T01780128=
202010091753 METAR KBFI 091753Z 18007KT 10SM SCT014 OVC038 17/13 A2985 RMK AO2 SLP106 T01720128 10172 20150 56007=
202010091653 METAR KBFI 091653Z 18008KT 10SM SCT012 BKN020 BKN150 17/13 A2985 RMK AO2 SLP109 T01670128=
202010091553 METAR KBFI 091553Z 16005KT 10SM SCT012 BKN020 BKN150 16/13 A2986 RMK AO2 SLP110 T01560128=
202010091453 METAR KBFI 091453Z 18005KT 10SM BKN025 16/13 A2987 RMK AO2 SLP113 T01560128 58005=
202010091353 METAR KBFI 091353Z 15007KT 10SM SCT025 BKN060 15/13 A2988 RMK AO2 SLP118 T01500128=
202010091300 SPECI KBFI 091300Z 14007KT 10SM SCT040 BKN110 15/12 A2989 RMK AO2 T01500122=
202010091253 METAR KBFI 091253Z 15007KT 10SM BKN025 OVC041 15/12 A2989 RMK AO2 SLP121 T01500122=
202010091153 METAR KBFI 091153Z 16007KT 10SM BKN025 OVC039 16/12 A2988 RMK AO2 SLP118 T01560122 10156 20144 58005=
202010091053 METAR KBFI 091053Z 00000KT 10SM BKN021 OVC039 15/12 A2991 RMK AO2 SLP126 T01500122=
202010090953 METAR KBFI 090953Z 14006KT 10SM SCT018 BKN032 OVC044 15/13 A2989 RMK AO2 SLP122 T01500128=
202010090934 SPECI KBFI 090934Z 14006KT 10SM SCT022 BKN044 15/12 A2989 RMK AO2 T01500122=
202010090853 METAR KBFI 090853Z 17004KT 10SM OVC020 16/12 A2990 RMK AO2 SLP123 BINOVC NW T01560117 58005=
202010090753 METAR KBFI 090753Z 17005KT 10SM OVC024 16/12 A2990 RMK AO2 SLP125 T01560117 402000133=
202010090653 METAR KBFI 090653Z 16005KT 10SM BKN026 14/11 A2991 RMK AO2 SLP127 T01440111=
202010090553 METAR KBFI 090553Z 18005KT 10SM SCT050 SCT130 15/12 A2991 RMK AO2 SLP128 T01500117 10194 20150 50002=
202010090453 METAR KBFI 090453Z 18003KT 10SM CLR 15/11 A2991 RMK AO2 SLP129 T01500111=
202010090353 METAR KBFI 090353Z 16004KT 10SM SCT046 16/11 A2991 RMK AO2 SLP129 T01560111=
202010090253 METAR KBFI 090253Z 00000KT 10SM BKN045 17/11 A2991 RMK AO2 SLP126 T01670111 53004=
202010090153 METAR KBFI 090153Z 24005KT 10SM OVC043 17/11 A2990 RMK AO2 SLP123 T01720111=
202010090053 METAR KBFI 090053Z 22005KT 10SM FEW042 BKN055 18/11 A2989 RMK AO2 SLP121 T01830106=
202010082353 METAR KBFI 082353Z 18005KT 10SM FEW030 BKN055 19/11 A2989 RMK AO2 SLP122 T01890111 10200 20167 56005=
202010082253 METAR KBFI 082253Z VRB06KT 10SM BKN041 OVC065 19/11 A2991 RMK AO2 SLP127 T01940106=
202010082153 METAR KBFI 082153Z 20006KT 10SM SCT040 BKN070 19/10 A2989 RMK AO2 SLP123 T01940100=
202010082053 METAR KBFI 082053Z 16009KT 10SM BKN043 18/10 A2991 RMK AO2 SLP128 T01830100 51002=
202010081953 METAR KBFI 081953Z 17009KT 10SM CLR 18/11 A2991 RMK AO2 SLP127 T01830106=
202010081853 METAR KBFI 081853Z 17009KT 10SM SCT015 BKN075 17/11 A2991 RMK AO2 SLP128 T01720106=
202010081753 METAR KBFI 081753Z 19004KT 10SM BKN010 17/11 A2990 RMK AO2 SLP125 T01670106 10172 20139 51008=
202010081653 METAR KBFI 081653Z 19007KT 10SM BKN010 16/11 A2990 RMK AO2 SLP123 T01560106=
202010081553 METAR KBFI 081553Z 20007KT 10SM BKN010 14/11 A2989 RMK AO2 SLP122 T01440111=
202010081453 METAR KBFI 081453Z 20004KT 10SM OVC008 14/12 A2988 RMK AO2 SLP117 T01440122 53004=
202010081353 METAR KBFI 081353Z VRB04KT 10SM OVC008 14/12 A2987 RMK AO2 CIG 007V012 SLP114 T01390122=
202010081253 METAR KBFI 081253Z 18005KT 10SM OVC007 14/12 A2986 RMK AO2 SLP111 T01390122=
202010081153 METAR KBFI 081153Z 23004KT 5SM BR OVC005 14/12 A2986 RMK AO2 SLP112 T01440122 10150 20133 53004=
202010081053 METAR KBFI 081053Z 19004KT 5SM BR OVC006 14/12 A2986 RMK AO2 SLP109 T01440122=
202010080953 METAR KBFI 080953Z 23004KT 5SM BR OVC007 14/13 A2986 RMK AO2 SLP110 T01440128=
202010080853 METAR KBFI 080853Z VRB03KT 5SM BR OVC009 15/13 A2985 RMK AO2 SLP108 T01500128 51003=
202010080827 SPECI KBFI 080827Z 00000KT 6SM BR BKN011 BKN040 14/13 A2985 RMK AO2 T01440128=
202010080753 METAR KBFI 080753Z 14003KT 6SM BR FEW045 14/12 A2985 RMK AO2 SLP107 T01390122 401780133=
202010080653 METAR KBFI 080653Z 16005KT 5SM BR FEW025 BKN046 14/12 A2985 RMK AO2 SLP106 T01390122=
202010080553 METAR KBFI 080553Z 14004KT 6SM BR FEW025 14/12 A2984 RMK AO2 SLP105 T01390122 10178 20133 50000=
202010080453 METAR KBFI 080453Z 00000KT 7SM CLR 14/12 A2984 RMK AO2 SLP105 T01440122=
202010080353 METAR KBFI 080353Z 00000KT 7SM BKN200 15/13 A2984 RMK AO2 SLP106 T01500128=
202010080253 METAR KBFI 080253Z 00000KT 10SM CLR 16/13 A2984 RMK AO2 SLP105 T01610133 55004=
202010080153 METAR KBFI 080153Z 15004KT 8SM FEW010 BKN250 16/13 A2984 RMK AO2 SLP104 T01560128=
202010080053 METAR KBFI 080053Z 00000KT 9SM BKN250 17/13 A2985 RMK AO2 SLP107 T01720133=
202010072353 METAR KBFI 072353Z 00000KT 6SM HZ BKN011 17/13 A2985 RMK AO2 SLP109 T01720133 10178 20150 56014=
202010072253 METAR KBFI 072253Z 21003KT 5SM HZ OVC011 17/13 A2986 RMK AO2 SLP112 T01720133=
202010072153 METAR KBFI 072153Z 00000KT 6SM HZ SCT007 BKN011 17/13 A2988 RMK AO2 SLP116 T01670133=
202010072144 SPECI KBFI 072144Z 00000KT 6SM HZ SCT007 BKN011 17/13 A2988 RMK AO2 T01670133=
202010072053 METAR KBFI 072053Z 00000KT 6SM HZ OVC009 16/13 A2989 RMK AO2 SLP123 T01610133 58014=
202010071953 METAR KBFI 071953Z 32004KT 4SM HZ OVC006 16/13 A2991 RMK AO2 SLP128 T01610128=
202010071853 METAR KBFI 071853Z VRB03KT 4SM HZ OVC006 16/13 A2992 RMK AO2 SLP132 T01610133=
202010071753 METAR KBFI 071753Z 00000KT 3SM BR OVC006 15/13 A2993 RMK AO2 SLP136 T01500133 10150 20133 58001=
202010071653 METAR KBFI 071653Z 00000KT 3SM BR OVC005 15/13 A2994 RMK AO2 SLP138 T01500128=
202010071553 METAR KBFI 071553Z 00000KT 3SM BR OVC005 14/13 A2994 RMK AO2 SLP138 T01440128=
202010071453 METAR KBFI 071453Z 00000KT 3SM BR OVC005 14/13 A2994 RMK AO2 SLP137 T01440128 55003=
202010071353 METAR KBFI 071353Z 00000KT 10SM OVC006 14/13 A2993 RMK AO2 SLP136 T01440128=
202010071253 METAR KBFI 071253Z 00000KT 10SM BKN009 OVC013 14/13 A2994 RMK AO2 SLP138 T01440128=
202010071246 SPECI KBFI 071246Z 00000KT 10SM BKN009 OVC013 14/12 A2994 RMK AO2 T01440122=
202010071153 METAR KBFI 071153Z 00000KT 10SM CLR 13/12 A2995 RMK AO2 SLP140 T01330117 10167 20133 56010=
202010071053 METAR KBFI 071053Z 00000KT 10SM CLR 14/12 A2995 RMK AO2 SLP142 T01390117=
202010070953 METAR KBFI 070953Z 00000KT 10SM CLR 14/12 A2997 RMK AO2 SLP147 T01440117=
202010070853 METAR KBFI 070853Z 00000KT 10SM CLR 15/12 A2998 RMK AO2 SLP150 T01500117 58009=
202010070753 METAR KBFI 070753Z 00000KT 10SM CLR 16/12 A2998 RMK AO2 SLP153 T01560117 402110122=
202010070653 METAR KBFI 070653Z 00000KT 10SM CLR 16/12 A3000 RMK AO2 SLP157 T01560117=
202010070553 METAR KBFI 070553Z 34003KT 10SM CLR 16/12 A3000 RMK AO2 SLP159 T01610117 10206 20156 55000=
202010070453 METAR KBFI 070453Z VRB04KT 10SM CLR 17/12 A3000 RMK AO2 SLP159 T01720122=
202010070353 METAR KBFI 070353Z 28003KT 10SM CLR 16/12 A3000 RMK AO2 SLP157 T01610122=
202010070253 METAR KBFI 070253Z 32004KT 10SM CLR 17/12 A3000 RMK AO2 SLP159 T01670122 55004=
202010070153 METAR KBFI 070153Z AUTO 32004KT 10SM CLR 18/12 A3000 RMK AO2 SLP158 T01830122 TSNO=
202010070053 METAR KBFI 070053Z 32005KT 10SM CLR 20/12 A3001 RMK AO2 SLP160 T02000122=
202010062353 METAR KBFI 062353Z 32008KT 10SM CLR 21/12 A3001 RMK AO2 SLP163 T02060117 10211 20150 56024=
202010062253 METAR KBFI 062253Z 30008KT 10SM CLR 21/12 A3004 RMK AO2 SLP171 T02110122=
202010062153 METAR KBFI 062153Z 31007G14KT 10SM CLR 21/13 A3006 RMK AO2 SLP179 T02060128=
202010062053 METAR KBFI 062053Z VRB04KT 10SM CLR 21/13 A3009 RMK AO2 SLP187 T02060128 58019=
202010061953 METAR KBFI 061953Z 33006KT 10SM CLR 19/12 A3011 RMK AO2 SLP195 T01890122=
202010061853 METAR KBFI 061853Z VRB04KT 6SM HZ FEW015 17/12 A3013 RMK AO2 SLP201 T01720122=
202010061833 SPECI KBFI 061833Z 30005KT 6SM HZ FEW005 SCT008 16/12 A3013 RMK AO2 T01610117=
202010061753 METAR KBFI 061753Z 30005KT 4SM HZ BKN005 15/12 A3014 RMK AO2 SLP206 T01500117 10150 20122 58003=
202010061700 SPECI KBFI 061700Z 30003KT 1 1/4SM BR OVC006 14/12 A3015 RMK AO2 T01390117=
202010061653 METAR KBFI 061653Z 29003KT 1 1/4SM BR OVC004 14/12 A3015 RMK AO2 SLP210 T01390117=
202010061553 METAR KBFI 061553Z 32003KT 1 1/4SM BR OVC004 13/12 A3016 RMK AO2 SLP211 T01330117=
202010061453 METAR KBFI 061453Z VRB03KT 1 1/4SM BR OVC003 13/12 A3015 RMK AO2 SLP209 T01330117 58003=
202010061353 METAR KBFI 061353Z VRB03KT 3SM BR OVC005 13/12 A3015 RMK AO2 SLP210 T01330117=
202010061253 METAR KBFI 061253Z 00000KT 5SM BR OVC006 13/12 A3016 RMK AO2 SLP211 T01330117=
202010061153 METAR KBFI 061153Z 00000KT 5SM BR BKN007 12/11 A3016 RMK AO2 SLP212 T01220111 10139 20122 58008=
202010061136 SPECI KBFI 061136Z 00000KT 5SM BR SCT006 12/11 A3016 RMK AO2 T01220106=
202010061053 METAR KBFI 061053Z 00000KT 5SM BR SCT012 13/11 A3017 RMK AO2 SLP215 T01280111=
202010060953 METAR KBFI 060953Z 30003KT 5SM BR SCT012 13/11 A3017 RMK AO2 SLP217 T01280111=
202010060853 METAR KBFI 060853Z 00000KT 7SM CLR 13/11 A3018 RMK AO2 SLP220 T01330111 58006=
202010060753 METAR KBFI 060753Z 00000KT 8SM CLR 13/12 A3019 RMK AO2 SLP222 T01330117 401940133=
202010060653 METAR KBFI 060653Z 00000KT 9SM CLR 14/12 A3020 RMK AO2 SLP224 T01390117=
202010060553 METAR KBFI 060553Z 00000KT 10SM CLR 14/12 A3020 RMK AO2 SLP226 T01440117 10189 20139 58001=
202010060453 METAR KBFI 060453Z 00000KT 10SM CLR 15/11 A3020 RMK AO2 SLP226 T01500111=
202010060353 METAR KBFI 060353Z 00000KT 10SM CLR 16/11 A3021 RMK AO2 SLP228 T01560111=
202010060253 METAR KBFI 060253Z 31003KT 10SM CLR 16/12 A3020 RMK AO2 SLP226 T01610117 56006=
202010060153 METAR KBFI 060153Z 31005KT 10SM CLR 17/12 A3020 RMK AO2 SLP226 T01670117=
202010060053 METAR KBFI 060053Z 28005KT 10SM CLR 18/12 A3021 RMK AO2 SLP228 T01780117=
202010052353 METAR KBFI 052353Z 32007KT 10SM CLR 19/12 A3022 RMK AO2 SLP232 T01890117 10194 20150 56016=
202010052253 METAR KBFI 052253Z 31006KT 10SM CLR 19/12 A3023 RMK AO2 SLP237 T01890117=
202010052153 METAR KBFI 052153Z 31007KT 10SM CLR 19/12 A3025 RMK AO2 SLP243 T01890117=
202010052053 METAR KBFI 052053Z 30006KT 10SM SCT018 17/12 A3027 RMK AO2 SLP249 T01720122 58003=
202010052000 SPECI KBFI 052000Z 31006KT 10SM BKN017 17/12 A3027 RMK AO2 T01720122=
202010051953 METAR KBFI 051953Z 32005KT 10SM OVC012 17/12 A3028 RMK AO2 SLP251 T01720122=
202010051853 METAR KBFI 051853Z 31007KT 10SM OVC010 15/12 A3028 RMK AO2 SLP254 T01500117=
202010051800 SPECI KBFI 051800Z 33004KT 10SM OVC010 15/12 A3028 RMK AO2 T01500117=
202010051753 METAR KBFI 051753Z VRB04KT 10SM OVC009 15/12 A3028 RMK AO2 SLP252 T01500117 10150 20144 53006=
202010051653 METAR KBFI 051653Z VRB03KT 10SM OVC009 14/12 A3027 RMK AO2 SLP248 T01440117=
202010051553 METAR KBFI 051553Z VRB03KT 10SM OVC009 15/12 A3026 RMK AO2 SLP247 T01500117=
202010051453 METAR KBFI 051453Z 00000KT 10SM BKN009 OVC014 14/12 A3026 RMK AO2 SLP245 T01440117 53003=
202010051353 METAR KBFI 051353Z 35003KT 10SM BKN014 15/12 A3025 RMK AO2 SLP242 T01500122=
202010051253 METAR KBFI 051253Z 00000KT 10SM OVC014 15/12 A3025 RMK AO2 SLP242 T01500122=
202010051243 SPECI KBFI 051243Z 00000KT 10SM OVC014 15/12 A3025 RMK AO2 T01500122=
202010051200 SPECI KBFI 051200Z AUTO 00000KT 10SM BKN017 15/12 A3025 RMK AO2 T01500122 TSNO=
202010051153 METAR KBFI 051153Z AUTO 00000KT 10SM SCT017 15/12 A3025 RMK AO2 SLP241 T01500122 10156 20144 53000 TSNO=
202010051053 METAR KBFI 051053Z AUTO 00000KT 10SM BKN020 14/12 A3025 RMK AO2 SLP242 T01440122 TSNO=
202010050953 METAR KBFI 050953Z AUTO 00000KT 10SM OVC022 15/12 A3024 RMK AO2 SLP240 T01500122 TSNO=
202010050853 METAR KBFI 050853Z AUTO 00000KT 10SM OVC025 15/13 A3025 RMK AO2 SLP241 T01500128 51008 TSNO=
202010050834 SPECI KBFI 050834Z AUTO 00000KT 10SM BKN026 OVC048 15/12 A3024 RMK AO2 T01500122 TSNO=
202010050802 SPECI KBFI 050802Z 00000KT 10SM SCT028 OVC049 15/12 A3024 RMK AO2 T01500122=
202010050753 METAR KBFI 050753Z 00000KT 10SM BKN029 OVC048 16/12 A3024 RMK AO2 SLP239 T01560122 401670139=
202010050742 SPECI KBFI 050742Z 00000KT 10SM BKN029 OVC048 15/12 A3024 RMK AO2 T01500122=
202010050707 SPECI KBFI 050707Z 00000KT 10SM SCT027 OVC033 16/12 A3024 RMK AO2 T01560122=
202010050653 METAR KBFI 050653Z 00000KT 10SM BKN027 BKN033 OVC047 16/12 A3023 RMK AO2 SLP237 T01560122=
202010050641 SPECI KBFI 050641Z 34003KT 10SM OVC029 16/12 A3023 RMK AO2 T01560122=
202010050553 METAR KBFI 050553Z 00000KT 10SM OVC034 16/12 A3022 RMK AO2 SLP233 T01560122 10167 20156 53010=
202010050453 METAR KBFI 050453Z 00000KT 10SM OVC037 16/13 A3021 RMK AO2 SLP228 T01560128=
202010050353 METAR KBFI 050353Z 00000KT 10SM OVC037 16/13 A3020 RMK AO2 SLP225 T01560128=
202010050253 METAR KBFI 050253Z 31004KT 10SM OVC036 16/12 A3019 RMK AO2 SLP223 T01560122 53007=
202010050153 METAR KBFI 050153Z 00000KT 10SM OVC036 16/12 A3017 RMK AO2 SLP217 T01610122=
202010050053 METAR KBFI 050053Z 00000KT 10SM SCT015 OVC022 17/12 A3017 RMK AO2 SLP216 T01670122=
202010042353 METAR KBFI 042353Z 00000KT 10SM SCT014 OVC022 17/12 A3017 RMK AO2 SLP216 T01670122 10167 20144 51009=
202010042253 METAR KBFI 042253Z 00000KT 10SM FEW014 OVC022 16/12 A3017 RMK AO2 SLP215 T01610122=
202010042153 METAR KBFI 042153Z 00000KT 10SM BKN014 OVC020 16/12 A3015 RMK AO2 SLP210 T01610122=
202010042053 METAR KBFI 042053Z 00000KT 10SM SCT010 BKN012 OVC030 16/13 A3014 RMK AO2 SLP207 T01610128 55000=
202010041953 METAR KBFI 041953Z VRB03KT 10SM SCT010 BKN015 OVC020 16/13 A3014 RMK AO2 SLP204 T01610128=
202010041853 METAR KBFI 041853Z 00000KT 5SM HZ BKN008 BKN022 OVC030 16/13 A3014 RMK AO2 SLP206 T01560128=
202010041753 METAR KBFI 041753Z 00000KT 5SM BR BKN007 OVC019 14/13 A3014 RMK AO2 SLP207 T01440128 10150 20139 51014=
202010041653 METAR KBFI 041653Z 00000KT 1SM BR OVC004 14/13 A3013 RMK AO2 SLP204 T01440128=
202010041553 METAR KBFI 041553Z 00000KT 1SM BR BKN005 OVC016 14/13 A3012 RMK AO2 CIG 004V009 SLP198 T01440128=
202010041453 METAR KBFI 041453Z 00000KT 1SM BR OVC008 14/13 A3010 RMK AO2 SLP193 T01390128 53005=
202010041414 SPECI KBFI 041414Z 00000KT 1SM BR OVC008 14/12 A3010 RMK AO2 T01390122=
202010041353 METAR KBFI 041353Z 00000KT 2SM BR OVC008 14/12 A3009 RMK AO2 SLP190 T01390122=
202010041302 SPECI KBFI 041302Z 00000KT 2 1/2SM BR BKN008 OVC017 14/12 A3009 RMK AO2 T01390122=
202010041255 SPECI KBFI 041255Z 00000KT 2 1/2SM BR SCT006 OVC010 14/12 A3009 RMK AO2 CIG 008V012 T01390122=
202010041253 METAR KBFI 041253Z 00000KT 2 1/2SM BR BKN008 OVC017 14/12 A3009 RMK AO2 SLP188 T01390122=
202010041153 METAR KBFI 041153Z 00000KT 4SM BR OVC008 14/13 A3009 RMK AO2 SLP187 T01390128 10144 20133 53000=
202010041104 SPECI KBFI 041104Z 00000KT 7SM OVC009 14/12 A3008 RMK AO2 T01390122=
202010041053 METAR KBFI 041053Z 13003KT 5SM BR OVC010 14/12 A3008 RMK AO2 SLP185 T01390122=
202010040953 METAR KBFI 040953Z 00000KT 8SM OVC010 14/12 A3008 RMK AO2 SLP187 T01440122=
202010040900 SPECI KBFI 040900Z 00000KT 6SM BR OVC008 14/12 A3009 RMK AO2 CIG 006V011 T01390122=
202010040853 METAR KBFI 040853Z 00000KT 3SM BR OVC004 14/12 A3008 RMK AO2 SLP187 T01390122 55002=
202010040753 METAR KBFI 040753Z 00000KT 3SM BR OVC004 14/12 A3008 RMK AO2 SLP186 T01390122 401560122=
202010040653 METAR KBFI 040653Z 25003KT 3SM BR OVC004 13/12 A3009 RMK AO2 SLP187 T01330122=
202010040553 METAR KBFI 040553Z 00000KT 2SM BR BKN004 OVC009 14/12 A3009 RMK AO2 SLP188 T01390122 10150 20133 53009=
202010040458 SPECI KBFI 040458Z 23003KT 2SM BR BKN004 OVC009 14/12 A3008 RMK AO2 T01390122=
202010040456 SPECI KBFI 040456Z 00000KT 6SM BR OVC005 14/12 A3008 RMK AO2 T01390122=
202010040453 METAR KBFI 040453Z 19003KT 2SM BR BKN004 OVC009 14/12 A3008 RMK AO2 SLP186 T01390122=
202010040353 METAR KBFI 040353Z 00000KT 2SM BR BKN004 OVC009 14/12 A3007 RMK AO2 SLP182 T01390122=
202010040253 METAR KBFI 040253Z 00000KT 2SM BR BKN004 OVC009 14/12 A3006 RMK AO2 SLP180 T01390122 56002=
202010040153 METAR KBFI 040153Z 00000KT 2SM BR BKN004 OVC009 14/12 A3006 RMK AO2 SLP180 T01390122=
202010040053 METAR KBFI 040053Z 33003KT 2SM BR BKN004 OVC009 14/13 A3007 RMK AO2 SLP180 T01440128=
202010032353 METAR KBFI 032353Z 33004KT 2SM BR BKN003 OVC009 14/12 A3007 RMK AO2 SLP181 T01440122 10156 20139 56005=
202010032253 METAR KBFI 032253Z 33004KT 2SM BR OVC006 16/12 A3007 RMK AO2 SLP181 T01560122=
202010032153 METAR KBFI 032153Z 00000KT 2SM HZ OVC006 16/13 A3008 RMK AO2 SLP184 T01560128=
202010032100 SPECI KBFI 032100Z 00000KT 2SM BR OVC007 15/13 A3008 RMK AO2 T01500128=
202010032053 METAR KBFI 032053Z AUTO 00000KT 2SM HZ OVC006 16/13 A3008 RMK AO2 SLP187 T01560128 58012 TSNO=
202010031953 METAR KBFI 031953Z 24004KT 2SM BR OVC004 15/13 A3010 RMK AO2 SLP192 T01500128=
202010031853 METAR KBFI 031853Z 00000KT 2SM BR OVC004 14/12 A3011 RMK AO2 SLP196 T01440122=
202010031753 METAR KBFI 031753Z 00000KT 2SM BR OVC004 14/13 A3012 RMK AO2 SLP198 T01390128 10139 20128 50002=
202010031653 METAR KBFI 031653Z 00000KT 1 1/2SM BR OVC004 14/12 A3012 RMK AO2 SLP200 T01390122=
202010031553 METAR KBFI 031553Z 20003KT 1 1/2SM BR OVC003 13/12 A3012 RMK AO2 SLP200 T01330122=
202010031453 METAR KBFI 031453Z 15003KT 1 1/2SM BR OVC003 13/12 A3011 RMK AO2 SLP197 T01330122 53001=
202010031353 METAR KBFI 031353Z 00000KT 1 1/2SM BR OVC003 13/13 A3011 RMK AO2 SLP195 T01330128=
202010031330 SPECI KBFI 031330Z 24003KT 2 1/2SM BR OVC003 13/12 A3011 RMK AO2 T01330122=
202010031301 SPECI KBFI 031301Z 00000KT 1 3/4SM BR OVC004 13/12 A3011 RMK AO2 T01330122=
202010031253 METAR KBFI 031253Z 18003KT 6SM BR OVC004 13/12 A3011 RMK AO2 SLP195 T01330122=
202010031226 SPECI KBFI 031226Z 14004KT 6SM BR OVC005 13/12 A3010 RMK AO2 T01330122=
202010031153 METAR KBFI 031153Z 15005KT 3SM BR BKN004 13/11 A3011 RMK AO2 SLP196 T01280111 10150 20122 53003=
202010031138 SPECI KBFI 031138Z 00000KT 7SM SCT005 13/11 A3011 RMK AO2 T01280111=
202010031053 METAR KBFI 031053Z 00000KT 7SM CLR 13/11 A3010 RMK AO2 SLP193 T01330111=
202010030953 METAR KBFI 030953Z 00000KT 8SM CLR 13/12 A3010 RMK AO2 SLP193 T01330117=
202010030853 METAR KBFI 030853Z 00000KT 8SM CLR 14/12 A3010 RMK AO2 SLP192 T01390117 51005=
202010030753 METAR KBFI 030753Z 00000KT 9SM CLR 14/12 A3010 RMK AO2 SLP191 T01390122 402280128=
202010030653 METAR KBFI 030653Z 00000KT 10SM CLR 15/13 A3009 RMK AO2 SLP188 T01500128=
202010030553 METAR KBFI 030553Z 00000KT 10SM CLR 16/13 A3008 RMK AO2 SLP187 T01610128 10222 20156 51003=
202010030453 METAR KBFI 030453Z 00000KT 10SM CLR 16/13 A3008 RMK AO2 SLP186 T01610128=
202010030353 METAR KBFI 030353Z 00000KT 10SM CLR 17/13 A3008 RMK AO2 SLP184 T01720128=
202010030253 METAR KBFI 030253Z 00000KT 10SM FU CLR 18/13 A3007 RMK AO2 SLP183 T01830128 55002=
202010030153 METAR KBFI 030153Z 00000KT 8SM FU CLR 20/13 A3007 RMK AO2 SLP183 T02000128=
202010030053 METAR KBFI 030053Z 32004KT 10SM FU CLR 21/13 A3007 RMK AO2 SLP184 T02110128=
202010022353 METAR KBFI 022353Z 31004KT 10SM FU CLR 22/13 A3008 RMK AO2 SLP185 T02220128 10228 20161 56014=
202010022253 METAR KBFI 022253Z 32005KT 10SM FU CLR 22/13 A3009 RMK AO2 SLP189 T02220128=
202010022153 METAR KBFI 022153Z 30005KT 10SM FU CLR 22/13 A3010 RMK AO2 SLP192 T02170133=
202010022053 METAR KBFI 022053Z 33004KT 7SM FU CLR 21/13 A3012 RMK AO2 SLP199 T02060133 58010=
202010021953 METAR KBFI 021953Z VRB03KT 9SM FU CLR 20/13 A3014 RMK AO2 SLP205 T02000133=
202010021926 SPECI KBFI 021926Z 15003KT 7SM FU FEW020 18/14 A3014 RMK AO2 T01830139=
202010021853 METAR KBFI 021853Z 19003KT 6SM FU FEW006 BKN010 18/14 A3015 RMK AO2 SLP208 T01830139=
202010021826 SPECI KBFI 021826Z 00000KT 4SM HZ BKN006 17/14 A3015 RMK AO2 T01670139=
202010021753 METAR KBFI 021753Z 00000KT 4SM BR OVC004 16/14 A3015 RMK AO2 SLP209 T01610139 10161 20128 51003=
202010021653 METAR KBFI 021653Z 00000KT 1 1/2SM BR OVC004 15/13 A3015 RMK AO2 SLP209 T01500133=
202010021553 METAR KBFI 021553Z 00000KT 3/4SM BR OVC002 14/13 A3014 RMK AO2 SLP207 T01440133=
202010021533 SPECI KBFI 021533Z 00000KT 3/4SM BR OVC002 14/13 A3014 RMK AO2 T01440133=
202010021453 METAR KBFI 021453Z 00000KT 1SM BR OVC003 14/13 A3014 RMK AO2 SLP206 T01440133 50002=
202010021433 SPECI KBFI 021433Z 36003KT 1 3/4SM BR OVC004 14/13 A3014 RMK AO2 T01440133=
202010021407 SPECI KBFI 021407Z 00000KT 7SM OVC004 14/13 A3014 RMK AO2 T01440128=
202010021353 METAR KBFI 021353Z 00000KT 9SM OVC004 14/12 A3014 RMK AO2 SLP206 T01390122=
202010021253 METAR KBFI 021253Z 00000KT 3SM BR OVC005 13/12 A3013 RMK AO2 SLP204 T01330122=
202010021216 SPECI KBFI 021216Z 00000KT 3SM BR OVC005 13/12 A3013 RMK AO2 T01280117=
202010021153 METAR KBFI 021153Z 00000KT 6SM BR SCT004 13/11 A3013 RMK AO2 SLP202 T01280111 10161 20128 53001=
202010021053 METAR KBFI 021053Z 00000KT 6SM BR SCT006 13/12 A3013 RMK AO2 SLP201 T01330117=
202010020953 METAR KBFI 020953Z 00000KT 10SM FU CLR 13/12 A3013 RMK AO2 SLP201 T01330117=
202010020853 METAR KBFI 020853Z 00000KT 10SM FU CLR 14/12 A3013 RMK AO2 SLP201 T01390117 58001=
202010020753 METAR KBFI 020753Z 00000KT 10SM FU CLR 14/12 A3013 RMK AO2 SLP201 T01440122 402060128=
202010020653 METAR KBFI 020653Z 00000KT 10SM FU CLR 15/12 A3013 RMK AO2 SLP204 T01500122=
202010020553 METAR KBFI 020553Z 00000KT 10SM FU CLR 16/13 A3013 RMK AO2 SLP202 T01610128 10206 20156 53003=
202010020453 METAR KBFI 020453Z 00000KT 10SM FU CLR 16/12 A3013 RMK AO2 SLP201 T01610122=
202010020353 METAR KBFI 020353Z 00000KT 10SM FU CLR 17/12 A3012 RMK AO2 SLP200 T01670122=
202010020253 METAR KBFI 020253Z 00000KT 10SM FU CLR 18/12 A3012 RMK AO2 SLP199 T01780122 55001=
202010020153 METAR KBFI 020153Z 31004KT 10SM FU BKN250 18/13 A3012 RMK AO2 SLP198 T01830128=
202010020053 METAR KBFI 020053Z 33005KT 10SM FU CLR 19/13 A3012 RMK AO2 SLP199 T01940128=
202010012353 METAR KBFI 012353Z 33004KT 10SM FU CLR 21/13 A3012 RMK AO2 SLP200 T02060128 10206 20156 58014=
202010012253 METAR KBFI 012253Z 34005KT 10SM FU CLR 20/13 A3014 RMK AO2 SLP205 T02000133=
202010012153 METAR KBFI 012153Z 32004KT 7SM FU BKN200 19/13 A3015 RMK AO2 SLP210 T01940133=
202010012110 SPECI KBFI 012110Z 33005KT 4SM HZ FU SCT007 18/13 A3016 RMK AO2 T01780133=
202010012053 METAR KBFI 012053Z 33004KT 2SM HZ SCT007 17/13 A3017 RMK AO2 SLP214 T01720133 58015=
202010011953 METAR KBFI 011953Z VRB05KT 2SM HZ SCT007 18/13 A3019 RMK AO2 SLP221 T01780133=
202010011853 METAR KBFI 011853Z 00000KT 1 1/2SM BR FU OVC007 16/13 A3020 RMK AO2 SLP226 T01560128=
202010011753 METAR KBFI 011753Z 00000KT 1SM BR FU OVC005 14/13 A3021 RMK AO2 SLP229 T01440128 10144 20128 51001=
202010011751 SPECI KBFI 011751Z 00000KT 1SM BR FU OVC005 14/13 A3021 RMK AO2=
202010011700 SPECI KBFI 011700Z 00000KT 1SM BR FU OVC004 14/13 A3021 RMK AO2 T01390128=
202010011653 METAR KBFI 011653Z VRB03KT 1/2SM BR FU OVC004 14/13 A3021 RMK AO2 SLP231 T01390128=
202010011553 METAR KBFI 011553Z 00000KT 1/2SM FG FU OVC003 14/13 A3021 RMK AO2 SLP228 T01390128=
202010011529 SPECI KBFI 011529Z 00000KT 1/2SM FG FU OVC003 14/13 A3021 RMK AO2 T01390128=
202010011453 METAR KBFI 011453Z 30003KT 1 3/4SM BR FU OVC004 13/12 A3021 RMK AO2 SLP228 T01330122 51006=
202010011426 SPECI KBFI 011426Z 00000KT 1 1/2SM BR FU OVC002 13/12 A3020 RMK AO2 T01330122=
202010011353 METAR KBFI 011353Z 00000KT 3/4SM BR FU VV002 13/12 A3020 RMK AO2 SLP226 T01280122=
202010011306 SPECI KBFI 011306Z 33004KT 3/4SM BR FU VV002 13/12 A3020 RMK AO2 T01280117=
202010011253 METAR KBFI 011253Z 33003KT 3SM BR FU SCT006 BKN050 13/12 A3020 RMK AO2 SLP225 T01330117=
202010011153 METAR KBFI 011153Z 00000KT 10SM FU SCT006 BKN050 14/12 A3019 RMK AO2 SLP222 T01390122 10161 20133 55003=
202010011113 SPECI KBFI 011113Z 00000KT 10SM FU SCT006 BKN070 14/12 A3019 RMK AO2 T01390122=
202010011053 METAR KBFI 011053Z 00000KT 10SM FU SCT010 BKN070 14/12 A3018 RMK AO2 SLP221 T01390117=
202010010953 METAR KBFI 010953Z 00000KT 10SM FU CLR 14/12 A3018 RMK AO2 SLP220 T01390122=
202010010853 METAR KBFI 010853Z 00000KT 10SM FU CLR 14/12 A3020 RMK AO2 SLP225 T01440122 51002=
202010010753 METAR KBFI 010753Z 00000KT 10SM FU CLR 16/13 A3019 RMK AO2 SLP223 T01560128 402390122=
202010010653 METAR KBFI 010653Z 00000KT 10SM FU CLR 16/13 A3020 RMK AO2 SLP224 T01610133=
202010010553 METAR KBFI 010553Z 00000KT 10SM FU CLR 16/13 A3019 RMK AO2 SLP223 T01560133 10233 20156 51008=
202010010453 METAR KBFI 010453Z 00000KT 10SM FU CLR 17/13 A3019 RMK AO2 SLP221 T01670133=
202010010353 METAR KBFI 010353Z 00000KT 10SM FU CLR 18/13 A3018 RMK AO2 SLP219 T01780133=
202010010253 METAR KBFI 010253Z 00000KT 10SM FU CLR 19/14 A3017 RMK AO2 SLP214 T01890139 53003=
202010010153 METAR KBFI 010153Z 00000KT 10SM FU CLR 21/13 A3015 RMK AO2 SLP210 T02060133=
202010010053 METAR KBFI 010053Z 00000KT 10SM FU CLR 22/13 A3016 RMK AO2 SLP211 T02220133=

# No short TAF reports from KBFI in databse.

###################################
#  large TAF from KBFI
###################################
202010312320 TAF KBFI 312320Z 0100/0124 29005KT P6SM BKN250 FM011000 VRB02KT
                       P6SM FEW050 FM011500 36003KT P6SM SCT250=
202010312058 KBFI 312058Z 3121/0118 28007KT P6SM BKN250 FM011000 VRB02KT P6SM
                       FEW050 FM011500 36003KT P6SM SCT250=
202010311732 TAF KBFI 311732Z 3118/0118 34004KT P6SM SCT150
                      TEMPO 3118/3119 SCT008 SCT250 FM011000 VRB02KT
                       P6SM FEW050 FM011500 36003KT P6SM SCT250=
202010311120 TAF KBFI 311120Z 3112/0112 00000KT P6SM SCT200 FM311800 34004KT
                       P6SM SCT150=
202010310520 TAF KBFI 310520Z 3106/0106 VRB04KT P6SM BKN050 FM311200 00000KT
                       P6SM SCT008 SCT040 FM311800 34004KT P6SM
                       SCT150=
202010310257 KBFI 310257Z 3103/3124 VRB04KT P6SM SCT050 FM311100 VRB03KT P6SM
                       BKN015 FM311700 02003KT P6SM BKN250=
202010302321 TAF KBFI 302321Z 3100/3124 18007KT P6SM SCT050 FM310500 15003KT
                       P6SM SCT050 BKN200 FM311100 VRB03KT P6SM
                       BKN015 FM311700 02003KT P6SM BKN250=
202010302053 KBFI 302053Z 3021/3118 18005KT P6SM SCT040 FM310000 22007KT P6SM
                       BKN050 FM310500 15003KT P6SM SCT050 BKN200
                       FM311100 VRB03KT P6SM BKN015 FM311700 02003KT
                       P6SM BKN250=
202010301722 TAF KBFI 301722Z 3018/3118 18012KT P6SM FEW015 BKN020 FM302100
                       22013G20KT P6SM BKN050 FM310200 28005KT
                       P6SM BKN050 FM310500 15003KT P6SM SCT050
                       BKN200 FM311100 VRB03KT P6SM BKN015=
202010301451 KBFI 301451Z 3015/3112 18012G20KT P6SM BKN015
                      TEMPO 3018/3021 BKN025 OVC040 FM302100 22013G20KT
                       P6SM BKN050 FM310200 28005KT P6SM BKN050
                       FM310500 VRB03KT P6SM SCT050 BKN200 FM311100
                       VRB03KT P6SM BKN015=
202010301141 TAF KBFI 301141Z 3012/3112 17012G18KT P6SM -RA OVC035 FM301500
                       18012G20KT P6SM SCT025 BKN045 OVC060
                      TEMPO 3018/3021 BKN025 OVC040 FM302100 18010KT
                       P6SM BKN050 FM310500 VRB03KT P6SM SCT050
                       BKN200=
202010300903 KBFI 300903Z 3009/3106 15006KT P6SM OVC035 FM301200 17012KT P6SM
                       -RA OVC035 FM301600 18012G20KT P6SM SCT025
                       BKN045 OVC060 FM302100 18010KT P6SM BKN050
                       FM310500 VRB03KT P6SM SCT050 BKN200=
202010300539 TAF KBFI 300539Z 3006/3106 15006KT P6SM SCT100 BKN200 FM301200
                       17010KT P6SM -RA OVC040 FM301600 18012G20KT
                       P6SM SCT025 BKN045 OVC060 FM302100 18010KT
                       P6SM BKN050 FM310500 VRB03KT P6SM SCT050
                       BKN200=
202010292325 TAF KBFI 292325Z 3000/3024 15004KT P6SM SCT025 SCT050 FM301200
                       16010KT P6SM -RA OVC045 FM301500 18015G20KT
                       6SM -RA OVC020 FM302000 21010KT P6SM BKN050=
202010291732 TAF KBFI 291732Z 2918/3018 14004KT P6SM SCT012 BKN018 OVC035 FM292300
                       15006KT P6SM SCT025 BKN045 FM300400 15006KT
                       P6SM SCT045 BKN120 OVC200 FM301000 17012KT
                       P6SM -RA OVC045 FM301500 18015G20KT P6SM
                       SCT020=
202010291446 KBFI 291446Z 2915/3012 13005KT P6SM BKN015 OVC035 FM292000 15006KT
                       P6SM OVC018 FM292300 15006KT P6SM SCT025
                       BKN045 FM300400 15006KT P6SM SCT045 BKN120
                       OVC200 FM301000 17012KT P6SM -RA OVC045=
202010291138 TAF KBFI 291138Z 2912/3012 15006KT P6SM OVC011
                      TEMPO 2912/2915 4SM -DZ FM292000 15006KT
                       P6SM OVC018 FM292300 15006KT P6SM SCT025
                       BKN045 FM300400 15006KT P6SM SCT045 BKN120
                       OVC200 FM301000 17012KT P6SM -RA OVC045=
202010290536 TAF KBFI 290536Z 2906/3006 15004KT P6SM OVC011 FM292000 15004KT
                       P6SM OVC018 FM292300 15004KT P6SM SCT025
                       BKN045 FM300400 15004KT P6SM SCT045 BKN120
                       OVC200=
202010282320 TAF KBFI 282320Z 2900/2924 23004KT P6SM OVC013 FM290800 16004KT
                       P6SM OVC015 FM291500 15003KT 6SM BR OVC015
                       FM292200 26003KT P6SM BKN050=
202010282101 KBFI 282101Z 2821/2918 18006KT P6SM OVC016 FM290800 16006KT P6SM
                       OVC015=
202010281722 TAF KBFI 281722Z 2818/2918 16005KT P6SM SCT015 OVC019 FM282100
                       19006KT P6SM SCT025 BKN045 FM290800 16006KT
                       P6SM OVC015=
202010281445 KBFI 281445Z 2815/2912 14009KT P6SM OVC015 FM282100 19006KT P6SM
                       SCT025 BKN045 FM290800 16006KT P6SM OVC015=
202010281134 TAF KBFI 281134Z 2812/2912 15006KT P6SM OVC010 FM281700 15006KT
                       P6SM SCT010 OVC020 FM282100 19006KT P6SM
                       SCT025 BKN045 FM290800 16006KT P6SM OVC015=
202010280534 TAF KBFI 280534Z 2806/2906 15006KT P6SM SKC FM280900 17006KT P6SM
                       OVC015 FM281200 17006KT P6SM OVC009 FM281700
                       17006KT P6SM OVC015 FM282100 19006KT P6SM
                       SCT025 BKN045=
202010272322 TAF KBFI 272322Z 2800/2824 VRB03KT P6SM SCT040 BKN200 FM280300
                       21003KT P6SM BKN050 BKN120 FM281100 16004KT
                       P6SM OVC016 FM281700 16005KT P6SM OVC024
                       FM282200 18005KT P6SM BKN040=
202010271728 TAF KBFI 271728Z 2718/2818 16004KT P6SM BKN040 BKN060 FM272100
                       16006KT P6SM SCT035 BKN050 FM281100 16004KT
                       P6SM OVC015 FM281700 16005KT P6SM OVC024=
202010271128 TAF KBFI 271128Z 2712/2812 VRB03KT P6SM OVC035 FM272100 17006KT
                       P6SM SCT035 BKN050 FM281100 17006KT P6SM
                       OVC015=
202010270907 KBFI 270907Z 2709/2806 VRB03KT P6SM OVC035 FM271800 17006KT P6SM
                       SCT035 OVC050=
202010270538 TAF KBFI 270538Z 2706/2806 VRB03KT P6SM OVC040 FM270900 VRB03KT
                       P6SM OVC030 FM271800 17006KT P6SM SCT035
                       OVC050=
202010262325 TAF KBFI 262325Z 2700/2724 32004KT P6SM BKN050 BKN120 FM270400
                       VRB03KT P6SM BKN050 FM271300 00000KT P6SM
                       SCT008 BKN100 FM272000 16004KT P6SM SCT120
                       BKN200=
202010261731 TAF KBFI 261731Z 2618/2718 VRB03KT P6SM BKN060 FM262200 34003KT
                       P6SM SCT070 BKN100 FM270400 VRB02KT P6SM
                       SCT100 FM271300 VRB02KT P6SM SCT008 BKN200=
202010261141 TAF KBFI 261141Z 2612/2712 13005KT P6SM BKN080 FM261800 13003KT
                       P6SM SCT100=
202010260536 TAF KBFI 260536Z 2606/2706 VRB02KT P6SM SKC FM261000 VRB03KT P6SM
                       SCT060 FM261800 13003KT P6SM SCT100=
202010252322 TAF KBFI 252322Z 2600/2624 VRB04KT P6SM SCT200 FM260300 36003KT
                       P6SM SCT250 FM261000 VRB03KT P6SM SCT250
                       FM261800 13003KT P6SM SCT250=
202010251722 TAF KBFI 251722Z 2518/2618 31005KT P6SM FEW250 FM252300 32005KT
                       P6SM SCT250 FM260300 06003KT P6SM SCT250
                       FM261000 11003KT P6SM SCT250=
202010251451 KBFI 251451Z 2515/2612 VRB03KT P6SM SKC FM251800 35005KT P6SM FEW250
                       FM252300 31005KT P6SM SCT250 FM260300 05003KT
                       P6SM SCT250=
202010251124 TAF KBFI 251124Z 2512/2612 VRB03KT P6SM SKC FM251800 04002KT P6SM
                       FEW250 FM252300 31005KT P6SM SCT250=
202010250527 TAF KBFI 250527Z 2506/2606 36005KT P6SM BKN080 FM251200 VRB03KT
                       P6SM SKC FM251800 04002KT P6SM FEW250 FM252300
                       31005KT P6SM SCT250=
202010242320 TAF KBFI 242320Z 2500/2524 35010KT P6SM SCT050 BKN070 FM250200
                       36005KT P6SM SKC FM251200 VRB03KT P6SM SKC
                       FM251800 04002KT P6SM FEW250=
202010242050 KBFI 242050Z 2421/2518 35010KT P6SM FEW040 BKN050 FM250200 36005KT
                       P6SM SKC FM251200 VRB03KT P6SM SKC=
202010241721 TAF KBFI 241721Z 2418/2518 33006KT P6SM BKN035 FM242000 35010KT
                       P6SM BKN060 FM250200 03005KT P6SM SKC FM251200
                       36003KT P6SM SKC=
202010241451 KBFI 241451Z 2415/2512 36010KT P6SM SCT040 BKN080 FM241800 36014KT
                       P6SM BKN050 BKN100 FM242000 35010KT P6SM
                       SCT100 FM250200 03005KT P6SM SKC=
202010241128 TAF KBFI 241128Z 2412/2512 36010G19KT P6SM OVC045 FM241800 36014KT
                       P6SM BKN050 BKN100 FM242000 35010KT P6SM
                       SCT100 FM250200 05005KT P6SM SKC=
202010240528 TAF KBFI 240528Z 2406/2506 33006KT P6SM BKN018 OVC023 FM240800
                       02012KT P6SM OVC025 FM241200 36008KT P6SM
                       BKN035 FM241800 02007KT P6SM SCT040 BKN100=
202010240305 KBFI 240305Z 2403/2424 33010KT P6SM SCT008 OVC015
                      TEMPO 2403/2406 3SM -DZ BR BKN008 OVC015
                       FM240600 02012KT P6SM OVC015 FM240800 02012KT
                       P6SM OVC025 FM241200 02010KT P6SM BKN035
                       FM241800 02010KT P6SM SCT040=
202010232321 TAF KBFI 232321Z 2400/2424 19012KT P6SM OVC025 FM240400 02004KT
                       6SM BR BKN015 OVC025 FM241200 33002KT P6SM
                       BKN050=
202010232052 KBFI 232052Z 2321/2418 16011KT P6SM OVC035 FM232200 14010KT P6SM
                       VCSH OVC020 FM240100 08003KT 4SM -SHRA OVC015
                       FM240400 02004KT 6SM BR BKN015 OVC025 FM241200
                       33002KT P6SM BKN050=
202010231725 TAF KBFI 231725Z 2318/2418 12003KT 6SM -RA OVC060 FM232000 15006KT
                       5SM -RA BR OVC030 FM232100 14004KT 3SM -RA
                       BR OVC015 FM240100 08003KT 4SM -RA BR OVC015
                       FM240400 02004KT 6SM BR SCT015 OVC025 FM241200
                       33002KT P6SM BKN050=
202010231453 KBFI 231453Z 2315/2412 15007KT 6SM -RA OVC070 FM232100 14004KT
                       3SM -RA BR OVC015 FM240100 08003KT 4SM -RA
                       BR OVC015 FM240400 35004KT 6SM BR SCT015
                       OVC025=
202010231133 TAF KBFI 231133Z 2312/2412 15007KT P6SM BKN100 FM231600 13004KT
                       P6SM -RA SCT025 OVC040 FM232000 14004KT
                       4SM -RA BR OVC015 FM240400 35004KT 6SM BR
                       SCT015 OVC025=
202010230525 TAF KBFI 230525Z 2306/2406 VRB04KT P6SM SCT200 FM231600 13004KT
                       P6SM -RA SCT025 OVC040 FM232000 14004KT
                       4SM -RA BR OVC015=
202010222326 TAF KBFI 222326Z 2300/2324 VRB04KT P6SM SCT200 FM231600 13004KT
                       P6SM -RA SCT025 OVC040 FM232000 14004KT
                       4SM -RA BR OVC015=
202010221729 TAF KBFI 221729Z 2218/2318 16004KT P6SM BKN009 FM221900 16004KT
                       P6SM SCT200 FM222100 VRB03KT P6SM SCT200
                       FM231600 13004KT P6SM -RA OVC040=
202010221519 KBFI 221519Z 2215/2312 14005KT P6SM SCT010 BKN020 BKN040
                      TEMPO 2215/2217 OVC008 FM221800 34004KT P6SM
                       SCT008 SCT200 FM222200 34003KT P6SM SCT200=
202010221256 KBFI 221256Z 2213/2312 14005KT P6SM SCT010 BKN025 FM221800 34004KT
                       P6SM SCT200=
202010221126 TAF KBFI 221126Z 2212/2312 00000KT P6SM FEW250 FM221400 12004KT
                       P6SM SCT010 FM221800 34004KT P6SM SCT200=
202010220543 TAF KBFI 220543Z 2206/2306 00000KT P6SM FEW250 FM221400 12004KT
                       P6SM SCT010 FM221800 34004KT P6SM SCT250=
202010212337 TAF KBFI 212337Z 2200/2224 VRB04KT P6SM SCT015 BKN025 BKN040 FM220100
                       12004KT P6SM SCT050 SCT250 FM220600 00000KT
                       P6SM FEW250 FM221400 12004KT P6SM SCT010
                       FM221800 34004KT P6SM SCT250=
202010211919 KBFI 211919Z 2119/2218 14007KT P6SM VCSH SCT020 BKN040
                      TEMPO 2119/2121 -SHRA BKN025 OVC040 FM212100
                       33008KT P6SM SCT040 BKN050 FM220200 02004KT
                       P6SM SCT050 SCT250 FM220600 04006KT P6SM
                       FEW250 FM221400 12004KT P6SM SCT010=
202010211737 TAF KBFI 211737Z 2118/2218 17007KT P6SM VCSH SCT020 BKN050
                      TEMPO 2118/2121 29006KT -TSRA BKN020CB FM212100
                       33008KT P6SM SCT040 BKN050 FM220200 02004KT
                       P6SM SCT050 SCT250 FM220600 04006KT P6SM
                       FEW250 FM221400 12004KT P6SM SCT010=
202010211208 KBFI 211208Z 2112/2212 16004KT P6SM -RA VCSH SCT015 BKN035
                      TEMPO 2112/2116 VRB04KT -SHRA FM211600 20008KT
                       P6SM SCT020 BKN050 FM212100 36008KT P6SM
                       BKN050 FM220200 35008KT P6SM SCT050 SCT250
                       FM220600 04006KT P6SM FEW250=
202010211120 TAF KBFI 211120Z 2112/2212 00000KT P6SM -RA VCSH OVC009
                      TEMPO 2112/2116 4SM -SHRA FM211600 20008KT
                       P6SM SCT020 BKN050 FM212100 36008KT P6SM
                       BKN050 FM220200 35008KT P6SM SCT050 SCT250
                       FM220600 04006KT P6SM FEW250=
202010210903 KBFI 210903Z 2109/2206 00000KT P6SM VCSH BKN012 OVC018 FM211500
                       22008KT P6SM SCT025 BKN040 FM212200 02008KT
                       P6SM BKN050 FM220200 35008KT P6SM SCT050
                       SCT250=
202010210523 TAF KBFI 210523Z 2106/2206 VRB04KT P6SM FEW040 SCT050 FM211000
                       22008KT P6SM FEW030 BKN050 FM212200 02008KT
                       P6SM BKN050 FM220200 35008KT P6SM SCT050
                       SCT250=
202010202332 TAF KBFI 202332Z 2100/2124 20004KT P6SM VCSH SCT040 FM210100 VRB04KT
                       P6SM -SHRA OVC040 FM210800 18006KT P6SM
                       VCSH BKN040 FM211800 24006KT P6SM -SHRA
                       BKN035 OVC040 FM212200 34004KT P6SM BKN040=
202010201732 TAF KBFI 201732Z 2018/2118 18005KT P6SM SCT030 BKN050 FM202000
                       22004KT P6SM BKN050 FM210000 20008KT P6SM
                       -SHRA OVC050 FM210900 18007KT P6SM BKN035=
202010201345 KBFI 201345Z 2014/2112 18005KT P6SM BKN030 OVC035 FM202100 22008KT
                       P6SM OVC040 FM210000 20008KT P6SM OVC050
                       FM210700 20012KT P6SM OVC025=
202010201121 TAF KBFI 201121Z 2012/2112 18005KT P6SM SCT030 OVC035 FM202100
                       22008KT P6SM OVC040 FM210000 20008KT P6SM
                       OVC050 FM210700 20012KT P6SM OVC025=
202010200520 TAF KBFI 200520Z 2006/2106 15006KT P6SM -RA SCT025 OVC060
                      TEMPO 2006/2009 6SM -RA OVC020 FM201100 15004KT
                       P6SM OVC020 FM202100 19006KT P6SM OVC040=
202010192340 TAF KBFI 192340Z 2000/2024 VRB05KT P6SM -RA SCT020 BKN040 OVC050
                       TEMPO 2000/2004 -RA OVC025 FM200600 15005KT
                       P6SM SCT025 OVC035 FM201100 15004KT P6SM
                       OVC020 FM202100 19006KT P6SM OVC040=
202010191730 TAF KBFI 191730Z 1918/2018 22008KT P6SM BKN015 OVC020 FM191900
                       21008KT P6SM BKN025 OVC040 FM192200 25010KT
                       P6SM VCSH SCT030 OVC040 FM200000 VRB05KT
                       P6SM VCSH SCT025 OVC050 FM200800 15005KT
                       P6SM OVC025 FM201300 15004KT P6SM OVC015=
202010190520 TAF KBFI 190520Z 1906/2006 VRB04KT P6SM SCT013 BKN020 OVC035 FM190800
                       16006KT P6SM OVC015 FM191700 22005KT P6SM
                       BKN025 FM192200 VRB05KT P6SM VCSH SCT035
                       BKN050=
202010182320 TAF KBFI 182320Z 1900/1924 32004KT P6SM BKN020 FM190800 16006KT
                       P6SM OVC018 FM191700 22005KT P6SM BKN025
                       FM192200 32005KT P6SM BKN035=
202010181720 TAF KBFI 181720Z 1818/1918 18010KT P6SM SCT008 OVC015
                      TEMPO 1818/1820 4SM -RA BR BKN008 OVC015
                       FM182100 21012G20KT P6SM VCSH BKN020 BKN040
                       FM190000 21012KT P6SM VCSH SCT025 BKN050
                       FM190700 22010KT P6SM BKN030 FM191700 22010KT
                       P6SM BKN040=
202010181126 TAF KBFI 181126Z 1812/1912 16010KT P6SM -RA SCT025 OVC030 FM181400
                       18010KT P6SM -RA OVC022 FM182000 21012G18KT
                       P6SM -SHRA BKN025 OVC040 FM190000 21012KT
                       P6SM VCSH SCT025 BKN050 FM190700 22010KT
                       P6SM SCT018 OVC025=
202010180520 TAF KBFI 180520Z 1806/1906 16005KT P6SM FEW025 OVC060 FM180900
                       16006KT P6SM VCSH SCT030 OVC045 FM181200
                       16008KT P6SM -RA OVC018 FM181800 21008KT
                       P6SM -SHRA BKN025 OVC040 FM182100 21010KT
                       P6SM VCSH BKN030 BKN050=
202010172320 TAF KBFI 172320Z 1800/1824 16005KT P6SM BKN035 OVC080 FM180600
                       16006KT P6SM -RA BKN030 OVC045 FM181200
                       16008KT P6SM -RA OVC018 FM181800 21008KT
                       P6SM -SHRA BKN025 OVC040 FM182100 21010KT
                       P6SM VCSH BKN030 BKN050=
202010172220 KBFI 172220Z 1722/1818 18005KT P6SM SCT035 BKN050 OVC100
                      TEMPO 1722/1802 BKN035 OVC050 FM180200 18005KT
                       P6SM BKN035 OVC060 FM180600 VRB04KT P6SM
                       -RA BKN025 OVC040 FM181200 16007KT P6SM
                       -RA OVC018 FM181700 21007KT P6SM VCSH BKN030
                       BKN050=
202010171728 TAF KBFI 171728Z 1718/1818 16006KT P6SM SCT008 OVC015
                      TEMPO 1718/1720 3SM BR BKN008 OVC012 FM172100
                       22006KT P6SM BKN025 BKN050 OVC100 FM180600
                       VRB04KT P6SM -RA BKN025 OVC040 FM181200
                       16010KT P6SM -RA OVC018 FM181700 21008KT
                       P6SM VCSH BKN025 BKN050=
202010171120 TAF KBFI 171120Z 1712/1812 18007KT P6SM VCSH OVC014
                      TEMPO 1712/1716 VRB04KT 2SM -RA SCT005 OVC008
                       FM171800 20007KT P6SM OVC015 FM172000 22006KT
                       P6SM SCT020 BKN050 OVC100 FM180600 18010KT
                       P6SM OVC025=
202010171001 KBFI 171001Z 1710/1806 18006KT P6SM VCSH BKN014 OVC025
                      TEMPO 1710/1712 VRB04KT 2SM -SHRA OVC008
                       FM171800 20007KT P6SM OVC020 FM172000 22006KT
                       P6SM SCT025 BKN050=
202010170520 TAF KBFI 170520Z 1706/1806 18009KT P6SM VCSH BKN014 OVC025
                      TEMPO 1706/1710 VRB04KT -SHRA OVC011 FM171800
                       20007KT P6SM OVC020 FM172000 22006KT P6SM
                       SCT025 BKN050=
202010170134 KBFI 170134Z 1702/1724 18008KT P6SM OVC012 FM172000 18008KT P6SM
                       SCT020 BKN050=
202010162320 TAF KBFI 162320Z 1700/1724 VRB04KT P6SM SCT022 BKN040
                      TEMPO 1700/1703 4SM -SHRA BKN022 OVC040 FM170300
                       02005KT P6SM BKN015 FM171800 VRB04KT P6SM
                       SCT020 OVC100=
202010162103 KBFI 162103Z 1621/1718 21014G22KT P6SM BKN018 OVC040 FM170000 21012KT
                       P6SM -RA BKN010 OVC040 FM170300 VRB04KT
                       P6SM -SHRA BKN025 BKN050 FM170600 02004KT
                       P6SM BKN018 FM171200 00000KT P6SM OVC015=
202010161723 TAF KBFI 161723Z 1618/1718 17012G20KT P6SM -RA OVC015 FM170300
                       VRB04KT P6SM -SHRA BKN025 BKN050 FM170600
                       02004KT P6SM BKN018 FM171200 00000KT P6SM
                       OVC015=
202010161315 KBFI 161315Z 1613/1712 14008KT P6SM OVC030 FM161600 16009KT P6SM
                       OVC030 FM162200 17015G20KT 2SM -RA BR OVC014
                       FM170500 19006KT P6SM OVC025=
202010161120 TAF KBFI 161120Z 1612/1712 14007KT P6SM BKN045 FM161600 16009KT
                       P6SM OVC030 FM162200 17015G20KT 2SM -RA
                       BR OVC014 FM170500 19006KT P6SM OVC025=
202010160857 KBFI 160857Z 1609/1706 14007KT P6SM FEW045 SCT080 FM161600 16009KT
                       P6SM OVC030 FM161900 16012G18KT 6SM -RA
                       BR OVC014 FM170500 21006KT P6SM OVC025=
202010160520 TAF KBFI 160520Z 1606/1706 VRB03KT P6SM SCT070 FM161000 14004KT
                       P6SM OVC040 FM161600 16009KT P6SM OVC030
                       FM161900 16012G18KT 6SM -RA BR OVC014 FM170500
                       21006KT P6SM OVC025=
202010152320 TAF KBFI 152320Z 1600/1624 VRB03KT P6SM BKN090 OVC200 FM160400
                       VRB03KT P6SM OVC080 FM161000 14004KT P6SM
                       OVC040 FM161600 16009KT P6SM OVC030 FM161900
                       16012G18KT 6SM -RA BR OVC014=
202010151751 TAF KBFI 151751Z 1518/1618 VRB02KT P6SM SCT035 SCT050 FM152300
                       32004KT P6SM BKN120 BKN200 FM160300 VRB02KT
                       P6SM OVC100 FM161000 14003KT P6SM OVC050
                       FM161600 16009KT P6SM OVC030=
202010151408 KBFI 151408Z 1514/1612 VRB02KT P6SM SCT035 SCT050 FM152300 32004KT
                       P6SM BKN120 BKN200 FM160300 VRB02KT P6SM
                       OVC100 FM161000 14003KT P6SM OVC050=
202010151120 TAF KBFI 151120Z 1512/1612 VRB02KT 5SM BR OVC010 FM152300 32004KT
                       P6SM BKN120 BKN200 FM160300 VRB02KT P6SM
                       OVC100 FM161000 14003KT P6SM OVC050=
202010150855 KBFI 150855Z 1509/1606 00000KT P6SM SCT080 FM151300 VRB02KT 5SM
                       BR OVC010 FM152000 32004KT P6SM SCT015 BKN120
                       BKN200 FM160300 VRB02KT P6SM OVC100=
202010150520 TAF KBFI 150520Z 1506/1606 VRB03KT P6SM FEW060 SCT080 FM151300
                       VRB02KT 5SM BR OVC010 FM152000 32004KT P6SM
                       SCT015 BKN120 BKN200 FM160300 VRB02KT P6SM
                       OVC100=
202010142322 TAF KBFI 142322Z 1500/1524 34005KT P6SM SCT050 BKN200 FM150500
                       VRB04KT P6SM SCT050 BKN200 FM151300 VRB02KT
                       P6SM OVC012 FM151900 32004KT P6SM SCT015
                       BKN120 BKN200 FM152300 33005KT P6SM SCT120
                       BKN200=
202010141734 TAF KBFI 141734Z 1418/1518 17006KT P6SM SCT022 BKN200
                      TEMPO 1418/1420 BKN022 FM142000 20007KT P6SM
                       BKN040 BKN200 FM142200 22007KT P6SM SCT050
                       BKN200 FM150500 VRB04KT P6SM SCT050 BKN200
                       FM151300 VRB02KT P6SM OVC010=
202010141120 TAF KBFI 141120Z 1412/1512 16005KT P6SM SCT022 BKN060 FM142000
                       20007KT P6SM BKN040 BKN060 FM150300 VRB03KT
                       P6SM OVC050 FM151000 VRB02KT P6SM OVC030=
202010140853 KBFI 140853Z 1409/1506 18004KT P6SM FEW022 FM141500 18008KT P6SM
                       OVC030 FM142000 20007KT P6SM BKN040 BKN060
                       FM150300 VRB03KT P6SM OVC200=
202010140532 TAF KBFI 140532Z 1406/1506 22007G15KT P6SM VCSH FEW080 FM140900
                       18009KT P6SM BKN040 FM141500 18008KT P6SM
                       OVC030 FM142000 20007KT P6SM BKN040 BKN060
                       FM150300 VRB03KT P6SM OVC200=
202010132323 TAF KBFI 132323Z 1400/1424 24015G23KT P6SM VCSH SCT050 BKN070 FM140500
                       20012KT P6SM VCSH BKN050 FM140900 18009KT
                       P6SM BKN040 FM141500 18008KT P6SM OVC030
                       FM142000 20007KT P6SM BKN040 BKN060=
202010132059 KBFI 132059Z 1321/1418 23015G25KT P6SM VCSH BKN045 FM140000 22015G25KT
                       P6SM VCSH BKN040 BKN060 FM140500 20012G20KT
                       P6SM BKN035 BKN050 FM140900 18009KT P6SM
                       BKN030=
202010131721 KBFI 131721Z 1318/1418 20014G22KT P6SM VCSH SCT009 OVC022 WS020/21040KT
                       FM132100 20015G25KT 6SM -SHRA BR BKN030
                       OVC045 FM140000 22018G26KT P6SM VCSH BKN040
                       BKN060 FM140500 20012G20KT P6SM BKN035 BKN050
                       FM140900 18009KT P6SM BKN030=
202010131720 TAF KBFI 131720Z 1318/1418 16014KT P6SM VCSH SCT009 OVC022 WS020/21040KT
                       FM132100 20015G25KT 6SM -SHRA BR BKN030
                       OVC045 FM140000 22018G26KT P6SM VCSH BKN040
                       BKN060 FM140500 20012G20KT P6SM BKN035 BKN050
                       FM140900 18009KT P6SM BKN030=
202010131504 KBFI 131504Z 1315/1412 13007KT 4SM -RA BR BKN011 OVC025 WS020/21040KT
                       FM131600 17010G18KT 4SM -RA BR OVC012 WS020/21040KT
                       FM132100 20022G28KT 6SM -SHRA BR BKN030
                       OVC045 FM140000 22023G32KT P6SM OVC040 FM140300
                       20014G21KT P6SM OVC050 FM140500 18013KT
                       P6SM BKN050=
202010131122 TAF KBFI 131122Z 1312/1412 13007KT 4SM -RA BR SCT025 OVC030 FM131500
                       17010G18KT 4SM -RA BR OVC012 WS020/21040KT
                       FM132100 20022G28KT 6SM -SHRA BR BKN030
                       OVC045 FM140000 22023G32KT P6SM OVC040 FM140300
                       20014G21KT P6SM OVC050 FM140500 18013KT
                       P6SM BKN050=
202010130908 KBFI 130908Z 1309/1406 VRB04KT P6SM -RA SCT050 OVC060 FM131100
                       13007KT P6SM -RA OVC025 FM131500 17010G18KT
                       5SM RA BR OVC012 WS020/21040KT FM132100
                       20022G30KT 6SM -SHRA BR BKN030 OVC045 FM140000
                       22023G34KT P6SM OVC040 FM140300 20014G21KT
                       P6SM OVC050=
202010130520 TAF KBFI 130520Z 1306/1406 14006KT P6SM SCT050 OVC100 FM130900
                       13006KT P6SM -RA OVC018 FM131500 17010G18KT
                       5SM RA BR OVC012 WS020/21040KT FM132100
                       20022G30KT 6SM -SHRA BR BKN030 OVC045 FM140000
                       22023G34KT P6SM OVC040 FM140300 20014G21KT
                       P6SM OVC050=
202010122330 TAF KBFI 122330Z 1300/1324 21004KT P6SM SCT040 BKN200 FM130600
                       14004KT P6SM BKN040 OVC080 FM131000 13006KT
                       P6SM -RA OVC018 FM131500 17010G18KT 5SM
                       RA BR OVC012 WS020/21040KT FM132100 20015G25KT
                       6SM -SHRA BR BKN030 OVC045=
202010121728 TAF KBFI 121728Z 1218/1318 VRB05KT P6SM BKN025 BKN040
                      TEMPO 1218/1220 BKN015 FM122000 20006KT P6SM
                       SCT030 BKN050 FM122200 16005KT P6SM SCT040
                       BKN100 FM130600 14004KT P6SM BKN040 OVC080
                       FM131000 13006KT P6SM -RA OVC018 FM131500
                       17010G18KT 5SM RA BR OVC012 WS020/21040KT=
202010121511 KBFI 121511Z 1215/1312 VRB05KT 6SM BR VCSH BKN020 BKN040
                      TEMPO 1215/1218 4SM -SHRA BR BKN010 OVC025
                       FM121800 17008KT P6SM SCT020 BKN030 FM122100
                       15006KT P6SM SCT045 BKN080 OVC200 FM131000
                       13006KT 6SM -RA BR OVC015=
202010121131 TAF KBFI 121131Z 1212/1312 19008KT P6SM SCT030 BKN045
                      TEMPO 1212/1215 19010G18KT BKN025 FM121700
                       17008KT P6SM SCT030 BKN045 FM122200 15006KT
                       P6SM SCT045 BKN120 OVC200 FM131000 13006KT
                       6SM -RA BR OVC015=
202010120526 TAF KBFI 120526Z 1206/1306 19012G20KT P6SM VCSH SCT012 BKN020 OVC030
                       FM120800 19012G20KT P6SM SCT030 BKN045 FM121700
                       17008KT P6SM SCT030 BKN045 FM122200 15006KT
                       P6SM SCT045 BKN120 OVC200=
202010112335 TAF KBFI 112335Z 1200/1224 15010KT 3SM -RA SCT015 OVC030 FM120100
                       17012G20KT 3SM -RA SCT008 BKN015 OVC030
                       TEMPO 1202/1204 1SM RA BKN008 OVC015 FM120400
                       19012G20KT 4SM -SHRA SCT012 BKN020 OVC030
                       FM120800 19012G20KT P6SM SCT030 BKN045 FM121700
                       17008KT P6SM SCT030 BKN045 FM122200 15006KT
                       P6SM SCT045 BKN120 OVC200=
202010112108 KBFI 112108Z 1121/1218 15010KT 4SM -RA SCT020 OVC035 FM112300 15010KT
                       4SM -RA SCT008 BKN014 OVC020 FM120200 19012G22KT
                       P6SM -SHRA SCT010 BKN018 OVC035 FM120900
                       19012G22KT P6SM SCT030 BKN045 FM121700 17010KT
                       P6SM SCT030 BKN045=
202010111739 TAF KBFI 111739Z 1118/1218 16006KT P6SM -RA SCT025 OVC045 FM112100
                       16006KT 5SM -RA BR SCT008 BKN014 OVC020
                       FM120200 19012G22KT P6SM -SHRA SCT010 BKN018
                       OVC035 FM120900 19012G22KT P6SM SCT030 BKN045
                       FM121700 17010KT P6SM SCT030 BKN045=
202010111506 KBFI 111506Z 1115/1212 16006KT P6SM OVC020 FM111600 16006KT P6SM
                       SCT020 BKN120 FM111800 16006KT P6SM -RA
                       SCT020 OVC040 FM112000 16006KT 2SM -RA BR
                       SCT006 OVC015 FM120200 20014G24KT 4SM -SHRA
                       BR OVC015=
202010111122 TAF KBFI 111122Z 1112/1212 18009KT P6SM VCSH SCT025 OVC050
                      TEMPO 1112/1114 BKN015 FM111400 16008KT P6SM
                       SCT015 OVC030 FM111900 16008KT 3SM -RA SCT006
                       SCT010 OVC020 FM112100 17008KT 2SM -RA BR
                       SCT006 OVC015 FM120200 20014G24KT 4SM -SHRA
                       BR OVC015=
202010111056 KBFI 111056Z 1111/1206 18009KT P6SM VCSH SCT025 OVC050
                      TEMPO 1111/1113 BKN015 FM111300 16008KT P6SM
                       SCT015 OVC040 FM111900 16008KT 3SM -RA SCT006
                       SCT010 OVC020 FM112100 17008KT 2SM -RA BR
                       SCT006 OVC015 FM120200 17008G19KT 4SM -SHRA
                       BR OVC015=
202010110905 KBFI 110905Z 1109/1206 18009KT P6SM VCSH SCT025 OVC050
                      TEMPO 1109/1111 BKN015 FM111200 16008KT P6SM
                       SCT020 OVC040 FM111900 16008KT 3SM -RA SCT006
                       SCT010 OVC020 FM112100 17008KT 2SM -RA BR
                       SCT006 OVC015 FM120200 17008G19KT 4SM -SHRA
                       BR OVC015=
202010110528 TAF KBFI 110528Z 1106/1206 18009KT P6SM VCSH SCT030 OVC070 FM111200
                       16008KT P6SM SCT020 OVC040 FM111900 16008KT
                       3SM -RA SCT006 SCT010 OVC020 FM112100 17008KT
                       2SM -RA BR SCT006 OVC015 FM120200 17008G19KT
                       4SM -SHRA BR OVC015=
202010102333 TAF KBFI 102333Z 1100/1124 20012KT P6SM SCT020 BKN050 BKN080 FM110500
                       18010KT P6SM SCT035 BKN050 FM111200 16008KT
                       P6SM -RA SCT012 BKN020 OVC035 FM111900 16008KT
                       3SM -RA SCT006 BKN011 OVC020=
202010101740 TAF KBFI 101740Z 1018/1118 18012G20KT P6SM -SHRA SCT020 BKN050
                       BKN080 FM110400 18010KT P6SM SCT035 BKN050
                       FM111400 16008KT P6SM OVC015=
202010101506 KBFI 101506Z 1015/1112 18012G20KT P6SM -SHRA SCT020 BKN045 BKN070
                       FM110400 18009G15KT P6SM SCT030 OVC050=
202010101140 TAF KBFI 101140Z 1012/1112 17011KT 6SM -RA BR SCT015 OVC080 FM101300
                       17012G18KT 4SM -RA BKN025 OVC050 FM101700
                       20015G25KT P6SM -SHRA BKN035 BKN050 FM110400
                       18009G15KT P6SM SCT030 OVC050=
202010100901 KBFI 100901Z 1009/1106 17008KT 6SM -RA BR BKN015 OVC030 FM101300
                       17012G18KT 4SM -RA BKN020 OVC035 FM101800
                       20015G25KT P6SM -SHRA SCT020 BKN035 BKN050=
202010100546 KBFI 100546Z 1006/1106 17008KT 3SM RA BR BKN007 OVC015 FM101300
                       17012G18KT 4SM -RA BKN020 OVC035 FM101800
                       20015G25KT P6SM -SHRA SCT020 BKN035 BKN050=
202010100520 TAF KBFI 100520Z 1006/1106 17008KT 5SM -RA BR BKN020 OVC035 FM101300
                       17012G18KT 4SM -RA BKN020 OVC035 FM101800
                       20015G25KT P6SM -SHRA SCT020 BKN035 BKN050=
202010092330 TAF KBFI 092330Z 1000/1024 19008KT P6SM SCT050 BKN120 OVC250 FM100500
                       17008KT P6SM -RA OVC050 FM101100 17012G18KT
                       5SM -RA BKN020 OVC035 FM101800 20012G20KT
                       P6SM -SHRA SCT020 BKN035 BKN050 FM102300
                       20010KT P6SM SCT035 BKN050=
202010092051 KBFI 092051Z 0921/1018 19009G17KT P6SM SCT020 OVC040 FM092200 18010KT
                       P6SM OVC040 FM100600 18010G20KT 4SM -RA
                       BR BKN015 OVC030=
202010091720 TAF KBFI 091720Z 0918/1018 18008KT P6SM SCT012 BKN020 BKN150 FM092200
                       18010KT P6SM OVC040 FM100600 18010G20KT
                       4SM -RA BR BKN015 OVC030=
202010091455 KBFI 091455Z 0915/1012 15007KT P6SM SCT025 BKN060 FM091600 16006KT
                       P6SM OVC050 FM092200 18010KT P6SM OVC040
                       FM100600 18010G20KT 4SM -RA BR BKN015 OVC030=
202010091137 TAF KBFI 091137Z 0912/1012 16003KT P6SM OVC025 FM091600 16006KT
                       P6SM OVC050 FM092200 18010KT P6SM OVC040
                       FM100600 18010G20KT 4SM -RA BR BKN015 OVC030=
202010090524 TAF KBFI 090524Z 0906/1006 VRB06KT P6SM BKN040 OVC070 FM090800
                       16003KT P6SM OVC025 FM091600 16006KT P6SM
                       OVC050 FM092200 18010KT P6SM OVC040=
202010082330 TAF KBFI 082330Z 0900/0924 VRB06KT P6SM BKN040 OVC070 FM090800
                       16003KT P6SM OVC025 FM091600 16006KT P6SM
                       OVC050 FM092200 18010KT P6SM OVC040=
202010082106 KBFI 082106Z 0821/0918 16009KT P6SM BKN045 FM082200 21006KT P6SM
                       OVC050 FM090800 16003KT P6SM OVC025 FM091600
                       16006KT P6SM OVC050=
202010081727 TAF KBFI 081727Z 0818/0918 19007KT P6SM BKN010 FM082200 21006KT
                       P6SM OVC050 FM090800 16003KT P6SM OVC025
                       FM091600 16006KT P6SM OVC050=
202010081442 KBFI 081442Z 0815/0912 VRB04KT P6SM OVC008
                      TEMPO 0815/0817 VRB04KT 5SM BR OVC005 FM081900
                       18005KT P6SM OVC015 FM082200 21006KT P6SM
                       OVC050 FM090800 16003KT P6SM OVC025=
202010081122 TAF KBFI 081122Z 0812/0912 16004KT P6SM OVC005 FM081900 18005KT
                       P6SM OVC015 FM082200 21006KT P6SM OVC050
                       FM090800 16003KT P6SM OVC025=
202010080531 TAF KBFI 080531Z 0806/0906 VRB03KT P6SM SCT015 SCT200
                      TEMPO 0807/0808 5SM BR BKN015 BKN200 FM080800
                       16004KT 4SM BR OVC007 FM081900 17005KT 4SM
                       BR OVC015 FM082200 21006KT P6SM OVC050=
202010080100 KBFI 080100Z 0801/0824 VRB03KT 5SM HZ SCT015 SCT200
                      TEMPO 0805/0808 5SM BR BKN015 BKN200 FM080800
                       16004KT 5SM BR OVC015 FM081600 17005KT 4SM
                       BR OVC015 FM082200 21006KT 6SM HZ OVC050=
202010072322 TAF KBFI 072322Z 0800/0824 21003KT 5SM BR OVC011 FM080800 16004KT
                       6SM BR OVC015 FM081600 17005KT 4SM BR OVC015
                       FM082200 21006KT 6SM HZ OVC050=
202010072033 KBFI 072033Z 0721/0818 32004KT 5SM BR OVC009 FM072300 27005KT P6SM
                       OVC020 FM080800 16004KT 6SM BR OVC015 FM081500
                       17006KT 6SM BR OVC015=
202010071731 TAF KBFI 071731Z 0718/0818 00000KT 3SM BR OVC005 FM072000 29004KT
                       P6SM FEW008 SCT200 FM072300 27005KT P6SM
                       BKN200 FM080800 16004KT P6SM OVC015 FM081500
                       17006KT 6SM BR OVC015=
202010071137 TAF KBFI 071137Z 0712/0812 00000KT P6SM SCT007 FM071300 00000KT
                       4SM BR OVC006
                      TEMPO 0714/0717 1SM BR FM072000 29004KT P6SM
                       FEW008 SCT200 FM072300 27005KT P6SM SCT120
                       BKN200 FM080800 16004KT P6SM OVC015=
202010070534 TAF KBFI 070534Z 0706/0806 31004KT P6SM SKC FM070800 00000KT 5SM
                       BR SCT008 FM071200 00000KT 3SM BR OVC006
                       FM071900 29004KT P6SM FEW008 SCT200 FM072300
                       25005KT P6SM SCT120 BKN200=
202010070257 KBFI 070257Z 0703/0724 32004KT P6SM SKC FM070800 00000KT 5SM BR
                       SCT008 FM071200 00000KT 3SM BR OVC006 FM071900
                       29004KT P6SM FEW008 SCT200 FM072300 25005KT
                       P6SM SCT120 BKN200=
202010062335 TAF KBFI 062335Z 0700/0724 31007G14KT P6SM SKC FM070800 00000KT
                       5SM BR SCT008 FM071200 00000KT 3SM BR OVC006
                       FM071900 29004KT P6SM FEW008 SCT200 FM072300
                       25005KT P6SM SCT120 BKN200=
202010061908 KBFI 061908Z 0619/0718 32005KT 6SM BR SCT012 FM062100 31005KT P6SM
                       SCT200 FM070800 00000KT 5SM BR SCT008 FM071200
                       00000KT 3SM BR OVC006=
202010061721 TAF KBFI 061721Z 0618/0718 32005KT 2SM BR OVC005
                      TEMPO 0618/0620 6SM BR SCT009 FM062000 31005KT
                       P6SM FEW009 SCT200 FM062200 31005KT P6SM
                       SCT200 FM070800 00000KT 5SM BR SCT008 FM071200
                       00000KT 3SM BR OVC006=
202010061508 KBFI 061508Z 0615/0712 00000KT 1SM BR BKN004
                      TEMPO 0615/0618 5SM BR BKN007 FM061800 32005KT
                       P6SM FEW009 SCT200 FM062000 31005KT P6SM
                       SCT200 FM070900 00000KT 4SM BR SCT009=
202010061127 TAF KBFI 061127Z 0612/0712 00000KT 5SM BR SCT007
                      TEMPO 0612/0616 2SM BR BKN007 FM061800 32005KT
                       P6SM SCT200 FM070900 00000KT 4SM BR SCT009=
202010060524 TAF KBFI 060524Z 0606/0706 00000KT P6SM SCT200 FM060900 00000KT
                       P6SM SCT009 FM061200 00000KT 5SM BR BKN008
                       FM061800 32005KT P6SM SCT200=
202010052323 TAF KBFI 052323Z 0600/0624 31006KT P6SM SCT200 FM060900 00000KT
                       P6SM SCT009 FM061200 00000KT 5SM BR BKN008
                       FM061900 32005KT P6SM SCT200=
202010051725 TAF KBFI 051725Z 0518/0618 35004KT P6SM BKN009
                      TEMPO 0518/0520 SCT013 SCT030 FM052000 32006KT
                       P6SM SCT030 FM060200 34002KT P6SM SCT200
                       FM061200 00000KT 6SM BR SCT009 FM061400
                       00000KT 5SM BR BKN008=
202010051638 KBFI 051638Z 0517/0612 35004KT P6SM BKN009
                      TEMPO 0517/0519 SCT012 FM051900 36004KT P6SM
                       SCT015 BKN030 FM052000 32007KT P6SM SCT040
                       FM060200 34002KT P6SM SCT250=
202010051134 TAF KBFI 051134Z 0512/0612 00000KT P6SM BKN020
                      TEMPO 0514/0517 4SM BR OVC010 FM051800 36004KT
                       P6SM SCT015 BKN030 FM052000 32007KT P6SM
                       SCT040 FM060200 34002KT P6SM SCT250=
202010050525 TAF KBFI 050525Z 0506/0606 00000KT P6SM OVC035 FM050900 00000KT
                       P6SM OVC020 FM051400 00000KT 4SM BR OVC004
                       FM051900 36006KT P6SM SCT015 BKN025 FM052100
                       36007KT P6SM SCT025 FM060200 34002KT P6SM
                       SCT250=
202010050300 KBFI 050300Z 0503/0524 VRB03KT P6SM OVC035 FM050600 00000KT P6SM
                       SCT010 OVC015 FM050900 00000KT 4SM BR OVC010
                       FM052000 36006KT P6SM SCT015 BKN020 FM052200
                       36007KT P6SM SCT025=
202010042320 TAF KBFI 042320Z 0500/0524 25005KT P6SM FEW014 OVC025 FM050600
                       00000KT P6SM SCT010 OVC015 FM050900 00000KT
                       4SM BR OVC010 FM052000 36006KT P6SM SCT015
                       BKN020 FM052200 36007KT P6SM SCT025=
202010042006 KBFI 042006Z 0420/0518 VRB03KT P6SM SCT010 BKN015 OVC020 FM050400
                       00000KT 4SM BR OVC015 FM050800 00000KT 3SM
                       BR OVC010=
202010041723 TAF KBFI 041723Z 0418/0518 00000KT 2SM BR SCT004 OVC008
                      TEMPO 0418/0420 1SM BR BKN004 FM042100 22004KT
                       6SM BR SCT008 OVC020 FM050400 00000KT 4SM
                       BR OVC015 FM050800 00000KT 3SM BR OVC010=
202010041603 KBFI 041603Z 0416/0512 00000KT 2SM BR BKN008 OVC016
                      TEMPO 0416/0418 1SM BR BKN005 FM042000 28004KT
                       4SM BR OVC015 FM042200 31004KT P6SM OVC025
                       FM050400 00000KT 6SM BR OVC015=
202010041258 KBFI 041258Z 0413/0512 00000KT 4SM BR OVC009
                      TEMPO 0413/0416 2SM BR OVC008 FM042000 28004KT
                       4SM BR OVC015 FM042200 31004KT P6SM OVC025
                       FM050400 00000KT 6SM BR OVC015=
202010041126 TAF KBFI 041126Z 0412/0512 00000KT 6SM BR OVC009 FM042000 31004KT
                       4SM BR OVC015 FM042200 31004KT P6SM OVC025
                       FM050400 00000KT 6SM BR OVC015=
202010040847 KBFI 040847Z 0409/0506 00000KT 3SM BR OVC004 FM042000 15004KT 4SM
                       BR OVC007 FM042200 18004KT P6SM OVC015=
202010040527 TAF KBFI 040527Z 0406/0506 00000KT 2SM BR BKN004 OVC009 FM040900
                       18002KT 1SM BR OVC004 FM042000 15004KT 4SM
                       BR OVC007 FM042200 18004KT P6SM OVC015=
202010040259 KBFI 040259Z 0403/0424 00000KT 2SM BR BKN004 OVC009 FM040900 18002KT
                       1SM BR OVC004 FM042000 15004KT 4SM BR OVC007
                       FM042200 18004KT P6SM OVC015=
202010032322 TAF KBFI 032322Z 0400/0424 VRB03KT 2SM BR OVC006 FM040900 18002KT
                       1SM BR OVC004 FM042000 15004KT 4SM BR OVC007
                       FM042200 18004KT P6SM OVC015=
202010032145 KBFI 032145Z 0322/0418 00000KT 2SM BR OVC007 FM040000 00000KT 4SM
                       BR BKN010 FM041000 18002KT 2SM BR OVC007=
202010032022 KBFI 032022Z 0320/0418 24004KT 2SM BR OVC004 FM032200 25004KT P6SM
                       SCT014 FM032300 26004KT P6SM SKC FM041000
                       18002KT 2SM BR OVC007=
202010031720 TAF KBFI 031720Z 0318/0418 00000KT 1 1/2SM BR OVC004 FM031900 00000KT
                       3SM BR OVC006 FM032100 30004KT P6SM SKC
                       FM041000 18002KT 2SM BR OVC007=
202010031502 KBFI 031502Z 0315/0412 00000KT 1 1/2SM BR OVC003 FM031900 00000KT
                       4SM BR OVC006 FM032100 30004KT P6SM SKC
                       FM041000 18002KT 4SM BR OVC015=
202010031254 KBFI 031254Z 0313/0412 14004KT 4SM BR OVC005 FM031400 00000KT 1/2SM
                       FG OVC005 FM031900 00000KT 4SM BR OVC006
                       FM032100 30004KT P6SM SKC FM041000 18002KT
                       4SM BR OVC015=
202010031136 TAF KBFI 031136Z 0312/0412 00000KT 1/2SM FG OVC004 FM031900 00000KT
                       4SM BR OVC006 FM032100 30004KT P6SM SKC
                       FM041000 18002KT 4SM BR OVC015=
202010031002 KBFI 031002Z 0310/0406 00000KT P6SM SKC FM031100 00000KT 1/2SM
                       FG OVC004 FM031800 00000KT 4SM BR OVC006
                       FM032000 30004KT P6SM SKC=
202010030521 TAF KBFI 030521Z 0306/0406 VRB02KT P6SM SKC FM031200 00000KT 2SM
                       BR OVC004 FM031800 00000KT 4SM BR OVC006
                       FM032000 30004KT P6SM SKC=
202010030257 KBFI 030257Z 0303/0324 VRB02KT P6SM SKC FM031100 00000KT 2SM BR
                       OVC004 FM031900 00000KT 4SM BR OVC006 FM032000
                       30004KT P6SM SKC=
202010022320 TAF KBFI 022320Z 0300/0324 30005KT P6SM SKC FM030600 VRB02KT P6SM
                       SKC FM031100 00000KT 2SM BR OVC004 FM031900
                       00000KT 4SM BR OVC006 FM032000 30004KT P6SM
                       SKC=
202010021910 KBFI 021910Z 0219/0318 30003KT 6SM BR FEW006 BKN010 FM022000 30005KT
                       P6SM SCT250 FM031100 00000KT 2SM BR OVC004=
202010021720 TAF KBFI 021720Z 0218/0318 30003KT 1 1/2SM BR OVC004 FM021900 30003KT
                       3SM BR BKN004 FM022000 30005KT P6SM SCT250
                       FM031100 00000KT 2SM BR OVC004=
202010021127 TAF KBFI 021127Z 0212/0312 00000KT 1SM BR OVC003 FM022000 32004KT
                       P6SM SCT250 FM031100 00000KT 3SM BR OVC004=
202010020523 TAF KBFI 020523Z 0206/0306 00000KT P6SM BKN250 FM021100 00000KT
                       5SM BR BKN006 FM021200 00000KT 1SM BR OVC003
                       FM022000 28004KT P6SM SCT250=
202010012325 TAF KBFI 012325Z 0200/0224 35004KT P6SM BKN250 FM020300 00000KT
                       P6SM BKN250 FM021100 00000KT 5SM BR BKN006
                       FM021200 00000KT 1SM BR OVC003 FM022000
                       31004KT P6SM SCT250=
202010011720 TAF KBFI 011720Z 0118/0218 VRB03KT 1 1/2SM BR OVC004 FM011900 VRB03KT
                       3SM BR OVC007 FM012000 33005KT P6SM SCT200
                       FM020300 VRB03KT P6SM SCT200 FM021100 00000KT
                       5SM BR BKN006 FM021200 00000KT 1SM BR OVC003=
202010011326 KBFI 011326Z 0113/0212 VRB03KT 2SM BR OVC005
                      TEMPO 0113/0116 1/2SM FG FM011900 32004KT
                       P6SM SCT200 FM021000 00000KT P6SM OVC008=
202010011125 TAF KBFI 011125Z 0112/0212 VRB03KT P6SM BKN005
                      TEMPO 0112/0115 2SM BR FM011900 32004KT P6SM
                       SCT200 FM021000 00000KT P6SM OVC008=
202010010527 TAF KBFI 010527Z 0106/0206 00000KT P6SM SCT060 BKN200 FM011200
                       00000KT P6SM BKN010 FM012000 32004KT P6SM
                       SCT200 FM020300 00000KT P6SM SCT200=