##########################################################
# Query made at 02/17/2025 06:43:56 UTC
# Time interval: from 05/01/2021 00:00  to 05/31/2021 23:59  UTC
##########################################################

##########################################################
# KBFI, Seattle, Seattle Boeing Field (United States)
# WMO index: -----. WIGOS ID: Unknown
# Latitude 47-32-45N. Longitude 122-18-49W. Altitude 5 m.
##########################################################

###################################
#  METAR/SPECI from KBFI
###################################
202105312353 METAR KBFI 312353Z 32009G20KT 10SM CLR 25/08 A3014 RMK AO2 SLP207 T02500083 10256 20189 58006=
202105312253 METAR KBFI 312253Z 32007G19KT 10SM BKN200 25/09 A3015 RMK AO2 SLP210 T02500089=
202105312153 METAR KBFI 312153Z 31011G17KT 10SM CLR 24/09 A3016 RMK AO2 SLP212 T02440094=
202105312053 METAR KBFI 312053Z 31010G18KT 10SM CLR 24/09 A3016 RMK AO2 SLP212 T02390089 58007=
202105311953 METAR KBFI 311953Z 33007KT 300V010 10SM FEW090 SCT200 23/10 A3018 RMK AO2 SLP218 T02330100=
202105311853 METAR KBFI 311853Z VRB03KT 10SM CLR 21/12 A3018 RMK AO2 SLP221 T02110117=
202105311753 METAR KBFI 311753Z VRB03KT 10SM CLR 19/11 A3018 RMK AO2 SLP220 T01890106 10194 20117 56001=
202105311653 METAR KBFI 311653Z 29004KT 10SM FEW180 17/10 A3019 RMK AO2 SLP221 T01670100=
202105311553 METAR KBFI 311553Z 33003KT 10SM FEW180 BKN250 15/10 A3018 RMK AO2 SLP220 T01500100=
202105311453 METAR KBFI 311453Z 00000KT 10SM FEW180 14/09 A3019 RMK AO2 SLP221 T01390094 50001=
202105311353 METAR KBFI 311353Z 00000KT 10SM CLR 13/11 A3019 RMK AO2 SLP222 T01280106=
202105311253 METAR KBFI 311253Z 00000KT 10SM SCT250 12/09 A3019 RMK AO2 SLP222 T01170094=
202105311153 METAR KBFI 311153Z 00000KT 10SM CLR 12/09 A3018 RMK AO2 SLP221 T01220089 10161 20117 51005=
202105311053 METAR KBFI 311053Z 00000KT 10SM CLR 13/09 A3018 RMK AO2 SLP220 T01280089=
202105310953 METAR KBFI 310953Z 00000KT 10SM CLR 14/09 A3018 RMK AO2 SLP220 T01390089=
202105310853 METAR KBFI 310853Z AUTO 00000KT 10SM CLR 14/09 A3017 RMK AO2 SLP215 T01440089 51004=
202105310753 METAR KBFI 310753Z 00000KT 10SM CLR 15/09 A3016 RMK AO2 SLP214 T01500089=
202105310653 METAR KBFI 310653Z 00000KT 10SM CLR 16/08 A3016 RMK AO2 SLP212 T01560083 402170111=
202105310553 METAR KBFI 310553Z 00000KT 10SM CLR 16/08 A3015 RMK AO2 SLP211 T01610083 10217 20161 51009=
202105310453 METAR KBFI 310453Z 00000KT 10SM CLR 17/08 A3015 RMK AO2 SLP210 T01720078=
202105310353 METAR KBFI 310353Z 32004KT 10SM CLR 18/08 A3014 RMK AO2 SLP205 T01780078=
202105310253 METAR KBFI 310253Z 30005KT 10SM CLR 19/08 A3013 RMK AO2 SLP201 T01890083 56005=
202105310153 METAR KBFI 310153Z 31006KT 10SM SCT100 21/07 A3013 RMK AO2 SLP202 T02060067=
202105310053 METAR KBFI 310053Z 31007KT 10SM OVC110 20/07 A3014 RMK AO2 SLP205 T02000072=
202105302353 METAR KBFI 302353Z VRB05G15KT 10SM BKN120 20/07 A3014 RMK AO2 SLP206 T02000072 10217 20183 56006=
202105302253 METAR KBFI 302253Z 31005G15KT 10SM FEW120 21/07 A3015 RMK AO2 SLP209 T02060067=
202105302153 METAR KBFI 302153Z 30009KT 10SM CLR 21/07 A3015 RMK AO2 SLP208 T02110072=
202105302053 METAR KBFI 302053Z VRB05KT 10SM BKN220 20/06 A3016 RMK AO2 SLP213 T02000061 58001=
202105301953 METAR KBFI 301953Z VRB06KT 10SM CLR 19/07 A3018 RMK AO2 SLP218 T01940067=
202105301853 METAR KBFI 301853Z 31006KT 10SM BKN220 19/07 A3017 RMK AO2 SLP216 T01890072=
202105301753 METAR KBFI 301753Z AUTO 32005KT 10SM CLR 18/07 A3016 RMK AO2 SLP213 T01830072 10189 20111 51006=
202105301653 METAR KBFI 301653Z 31004KT 10SM CLR 16/08 A3016 RMK AO2 SLP212 T01610083=
202105301553 METAR KBFI 301553Z 32003KT 10SM CLR 16/08 A3015 RMK AO2 SLP209 T01560083=
202105301453 METAR KBFI 301453Z 00000KT 10SM CLR 14/09 A3014 RMK AO2 SLP207 T01440094 51009=
202105301353 METAR KBFI 301353Z 00000KT 10SM CLR 13/09 A3014 RMK AO2 SLP205 T01280089=
202105301253 METAR KBFI 301253Z 00000KT 10SM CLR 12/08 A3013 RMK AO2 SLP202 T01170078=
202105301153 METAR KBFI 301153Z 00000KT 10SM CLR 12/08 A3012 RMK AO2 SLP198 T01170078 10150 20117 50002=
202105301053 METAR KBFI 301053Z 00000KT 10SM CLR 12/07 A3012 RMK AO2 SLP199 T01170067=
202105300953 METAR KBFI 300953Z 00000KT 10SM CLR 12/07 A3012 RMK AO2 SLP199 T01220067=
202105300853 METAR KBFI 300853Z 00000KT 10SM CLR 13/06 A3011 RMK AO2 SLP195 T01280061 51005=
202105300753 METAR KBFI 300753Z 00000KT 10SM CLR 14/07 A3010 RMK AO2 SLP193 T01390067=
202105300653 METAR KBFI 300653Z 00000KT 10SM CLR 14/07 A3010 RMK AO2 SLP193 T01440067 402170083=
202105300553 METAR KBFI 300553Z 00000KT 10SM CLR 15/06 A3009 RMK AO2 SLP190 T01500061 10217 20150 51011=
202105300453 METAR KBFI 300453Z 30003KT 10SM CLR 16/06 A3009 RMK AO2 SLP187 T01560061=
202105300353 METAR KBFI 300353Z 31004KT 10SM CLR 17/06 A3008 RMK AO2 SLP184 T01720056=
202105300253 METAR KBFI 300253Z 31005KT 10SM CLR 19/04 A3006 RMK AO2 SLP179 T01890039 56004=
202105300153 METAR KBFI 300153Z 31007KT 10SM CLR 20/06 A3006 RMK AO2 SLP179 T02000061=
202105300053 METAR KBFI 300053Z 30009KT 10SM CLR 20/07 A3007 RMK AO2 SLP181 T02000067=
202105292353 METAR KBFI 292353Z VRB06KT 10SM CLR 21/04 A3007 RMK AO2 SLP183 T02110044 10211 20150 58014=
202105292253 METAR KBFI 292253Z 30008KT 10SM CLR 20/06 A3009 RMK AO2 SLP188 T02000061=
202105292153 METAR KBFI 292153Z 30010G18KT 10SM CLR 20/06 A3010 RMK AO2 SLP193 T02000061=
202105292053 METAR KBFI 292053Z 30008KT 10SM CLR 19/06 A3011 RMK AO2 SLP197 T01940061 58015=
202105291953 METAR KBFI 291953Z 32009G16KT 10SM CLR 18/07 A3013 RMK AO2 SLP202 T01830072=
202105291853 METAR KBFI 291853Z VRB05KT 10SM CLR 17/08 A3015 RMK AO2 SLP208 T01670078=
202105291753 METAR KBFI 291753Z VRB06KT 10SM CLR 15/08 A3016 RMK AO2 SLP212 T01500083 10156 20083 58012=
202105291653 METAR KBFI 291653Z VRB05KT 10SM CLR 13/08 A3017 RMK AO2 SLP217 T01330078=
202105291553 METAR KBFI 291553Z VRB03KT 10SM CLR 12/07 A3018 RMK AO2 SLP220 T01220067=
202105291453 METAR KBFI 291453Z 05003KT 10SM CLR 11/07 A3019 RMK AO2 SLP224 T01060067 55002=
202105291353 METAR KBFI 291353Z VRB03KT 10SM CLR 10/07 A3019 RMK AO2 SLP224 T01000067=
202105291253 METAR KBFI 291253Z 00000KT 10SM CLR 08/06 A3020 RMK AO2 SLP225 T00830061=
202105291153 METAR KBFI 291153Z VRB03KT 10SM CLR 09/07 A3020 RMK AO2 SLP226 T00890067 10117 20083 58007=
202105291053 METAR KBFI 291053Z 34003KT 10SM CLR 09/07 A3021 RMK AO2 SLP229 T00890067=
202105290953 METAR KBFI 290953Z 00000KT 10SM CLR 09/07 A3022 RMK AO2 SLP231 T00940067=
202105290853 METAR KBFI 290853Z 00000KT 10SM CLR 10/07 A3022 RMK AO2 SLP234 T01000067 56005=
202105290753 METAR KBFI 290753Z 00000KT 10SM CLR 11/07 A3023 RMK AO2 SLP236 T01060067=
202105290653 METAR KBFI 290653Z 00000KT 10SM CLR 11/06 A3023 RMK AO2 SLP236 T01110061 401780100=
202105290553 METAR KBFI 290553Z VRB03KT 10SM CLR 12/06 A3024 RMK AO2 SLP239 T01170061 10172 20117 55001=
202105290453 METAR KBFI 290453Z AUTO 35004KT 10SM CLR 13/06 A3024 RMK AO2 SLP239 T01330061=
202105290353 METAR KBFI 290353Z AUTO 32005KT 10SM CLR 13/07 A3024 RMK AO2 SLP238 T01330067=
202105290253 METAR KBFI 290253Z 31007KT 10SM FEW043 15/06 A3024 RMK AO2 SLP240 T01500061 56009=
202105290153 METAR KBFI 290153Z 30005KT 10SM CLR 16/07 A3025 RMK AO2 SLP242 T01560067=
202105290053 METAR KBFI 290053Z 30007KT 10SM BKN065 16/07 A3026 RMK AO2 SLP246 T01560067=
202105282353 METAR KBFI 282353Z 33006KT 10SM SCT070 17/06 A3027 RMK AO2 SLP249 T01670061 10178 20117 58005=
202105282253 METAR KBFI 282253Z 31007KT 10SM BKN060 17/07 A3028 RMK AO2 SLP252 T01670067=
202105282153 METAR KBFI 282153Z 10SM BKN045 16/07 A3028 RMK AO2 SLP253 T01560067=
202105282053 METAR KBFI 282053Z 00000KT 10SM BKN048 OVC060 16/07 A3028 RMK AO2 SLP254 T01560067 58001=
202105281953 METAR KBFI 281953Z VRB04KT 10SM FEW033 SCT039 BKN047 16/08 A3029 RMK AO2 SLP256 T01560078=
202105281853 METAR KBFI 281853Z VRB03KT 10SM FEW024 BKN026 14/08 A3029 RMK AO2 SLP257 T01390078=
202105281753 METAR KBFI 281753Z VRB05KT 10SM FEW020 BKN026 OVC033 12/08 A3029 RMK AO2 SLP255 T01220078 10122 20106 51007=
202105281653 METAR KBFI 281653Z 22003KT 10SM FEW020 BKN026 OVC033 12/08 A3028 RMK AO2 SLP254 T01170078=
202105281553 METAR KBFI 281553Z 18003KT 10SM OVC020 11/08 A3028 RMK AO2 SLP251 T01060078=
202105281453 METAR KBFI 281453Z VRB05KT 10SM OVC021 11/08 A3027 RMK AO2 SLP249 T01060078 53020=
202105281353 METAR KBFI 281353Z 20004KT 10SM BKN017 OVC024 11/08 A3024 RMK AO2 SLP241 T01060078=
202105281253 METAR KBFI 281253Z 19006KT 10SM OVC021 11/08 A3022 RMK AO2 SLP234 T01060078=
202105281153 METAR KBFI 281153Z 19006KT 10SM BKN018 OVC022 11/08 A3021 RMK AO2 SLP229 70016 T01060078 10111 20100 51016=
202105281053 METAR KBFI 281053Z VRB04KT 10SM OVC017 11/08 A3020 RMK AO2 SLP225 T01060078=
202105280953 METAR KBFI 280953Z 20011G19KT 10SM BKN019 BKN100 11/08 A3018 RMK AO2 SLP220 T01060078=
202105280853 METAR KBFI 280853Z 19014G20KT 160V230 10SM BKN017 BKN090 11/08 A3016 RMK AO2 SLP213 T01060078 51020=
202105280753 METAR KBFI 280753Z 19010G19KT 10SM BKN017 BKN110 11/08 A3015 RMK AO2 SLP209 T01060078=
202105280653 METAR KBFI 280653Z 21009G18KT 10SM BKN017 11/08 A3013 RMK AO2 SLP201 T01060078 401560106=
202105280553 METAR KBFI 280553Z 20010KT 160V230 10SM SCT017 BKN090 BKN120 11/08 A3010 RMK AO2 PK WND 19030/0509 SLP194 60000 T01110083 10133 20111 52015=
202105280453 METAR KBFI 280453Z 20011G24KT 10SM FEW015 BKN050 11/08 A3009 RMK AO2 PK WND 19026/0432 SLP189 T01110083=
202105280353 METAR KBFI 280353Z 20013G24KT 10SM FEW020 BKN050 12/08 A3007 RMK AO2 PK WND 18027/0328 SLP183 T01170083=
202105280253 METAR KBFI 280253Z 20010G21KT 10SM FEW025 SCT065 BKN120 12/08 A3006 RMK AO2 SLP179 60000 T01220083 53016=
202105280153 METAR KBFI 280153Z 21009G22KT 10SM FEW120 13/08 A3004 RMK AO2 SLP170 T01280078=
202105280053 METAR KBFI 280053Z 19012G25KT 10SM SCT031 BKN045 OVC080 13/09 A3002 RMK AO2 RAE11 SLP166 P0000 T01330089=
202105272353 METAR KBFI 272353Z 20013G27KT 10SM -RA SCT038 SCT048 BKN070 13/09 A3001 RMK AO2 PK WND 19030/2314 RAB06 SLP163 P0000 60005 T01280094 10156 20117 53020=
202105272253 METAR KBFI 272253Z 19013G25KT 10SM SCT044 BKN055 14/08 A2999 RMK AO2 PK WND 20032/2203 RAB2157E27 SLP154 P0000 T01440083=
202105272153 METAR KBFI 272153Z 19012G21KT 10SM SCT033 BKN042 OVC080 14/08 A2997 RMK AO2 PK WND 23027/2141 RAE03 SLP148 P0000 T01440078=
202105272053 METAR KBFI 272053Z 20014G25KT 10SM -RA SCT037 SCT047 BKN065 15/08 A2996 RMK AO2 PK WND 19031/2031 LTG DSNT NE RAB10E14B45 SLP143 P0000 60005 T01500083 51020=
202105271953 METAR KBFI 271953Z 20016G25KT 10SM SCT032 BKN037 OVC055 14/09 A2994 RMK AO2 PK WND 19027/1929 RAE1859 SLP137 P0000 T01440089=
202105271853 METAR KBFI 271853Z 21010G24KT 8SM -RA SCT021 SCT034 BKN055 12/09 A2993 RMK AO2 PK WND 23026/1842 RAB28 SLP135 P0005 T01170089=
202105271753 METAR KBFI 271753Z 18012G23KT 10SM SCT034 BKN050 14/10 A2990 RMK AO2 PK WND 18027/1732 RAE04 SLP123 P0000 60011 T01440100 10144 20106 58004=
202105271653 METAR KBFI 271653Z 21010G18KT 180V250 5SM -RA BR SCT011 BKN016 OVC045 12/11 A2991 RMK AO2 RAB08 SLP127 P0001 T01170106=
202105271651 SPECI KBFI 271651Z 24007G15KT 2 1/2SM -RA BR SCT011 BKN016 OVC030 12/11 A2991 RMK AO2 VIS 1 1/2V5 RAB08 P0001=
202105271649 SPECI KBFI 271649Z 24010G15KT 3SM -RA BR FEW008 BKN013 OVC021 12/11 A2990 RMK AO2 RAB08 P0001=
202105271553 METAR KBFI 271553Z 16010G16KT 10SM SCT016 BKN055 OVC070 12/11 A2990 RMK AO2 RAE39 SLP125 P0002 T01220106=
202105271453 METAR KBFI 271453Z 19009G17KT 10SM -RA SCT015 BKN070 OVC080 11/10 A2991 RMK AO2 SLP127 P0000 60008 T01110100 53007=
202105271353 METAR KBFI 271353Z VRB05KT 6SM -RA BR SCT011 BKN042 OVC050 11/10 A2990 RMK AO2 SLP125 P0006 T01110100=
202105271253 METAR KBFI 271253Z 18005KT 8SM -RA SCT025 OVC040 11/10 A2988 RMK AO2 SLP119 P0002 T01110100=
202105271153 METAR KBFI 271153Z 16006KT 10SM -RA FEW049 OVC075 11/09 A2989 RMK AO2 SLP120 P0002 60002 70002 T01110094 10156 20111 56001=
202105271053 METAR KBFI 271053Z 16007KT 10SM -RA BKN070 BKN120 12/07 A2989 RMK AO2 RAB53 SLP122 P0000 T01220072=
202105270953 METAR KBFI 270953Z 16006KT 10SM OVC120 12/07 A2988 RMK AO2 SLP117 T01220072=
202105270853 METAR KBFI 270853Z 15004KT 10SM FEW060 BKN120 13/07 A2989 RMK AO2 SLP122 T01280072 56020=
202105270753 METAR KBFI 270753Z 15004KT 10SM CLR 13/07 A2990 RMK AO2 SLP124 T01280072=
202105270653 METAR KBFI 270653Z 00000KT 10SM CLR 14/07 A2992 RMK AO2 SLP132 T01440072 401780106=
202105270553 METAR KBFI 270553Z 00000KT 10SM CLR 15/07 A2995 RMK AO2 SLP141 T01500072 10178 20150 58010=
202105270453 METAR KBFI 270453Z 00000KT 10SM CLR 16/07 A2996 RMK AO2 SLP146 T01610067=
202105270353 METAR KBFI 270353Z 24003KT 10SM CLR 16/06 A2997 RMK AO2 SLP149 T01610061=
202105270253 METAR KBFI 270253Z 00000KT 10SM CLR 17/06 A2998 RMK AO2 SLP152 T01670061 56025=
202105270153 METAR KBFI 270153Z 24006KT 10SM CLR 18/06 A3000 RMK AO2 SLP159 T01780061=
202105270053 METAR KBFI 270053Z 00000KT 10SM CLR 17/06 A3003 RMK AO2 SLP168 T01720061=
202105262353 METAR KBFI 262353Z 25005KT 10SM CLR 17/06 A3005 RMK AO2 SLP176 T01670061 10178 20139 58019=
202105262253 METAR KBFI 262253Z 19007KT 10SM CLR 17/06 A3008 RMK AO2 SLP184 T01670061=
202105262153 METAR KBFI 262153Z 20005KT 10SM CLR 17/06 A3009 RMK AO2 SLP190 T01720061=
202105262053 METAR KBFI 262053Z 20007KT 10SM CLR 17/06 A3011 RMK AO2 SLP195 T01670061 58018=
202105261953 METAR KBFI 261953Z 25010G18KT 10SM BKN044 16/06 A3013 RMK AO2 SLP203 T01610056=
202105261853 METAR KBFI 261853Z 23006G14KT 10SM BKN044 15/06 A3015 RMK AO2 SLP208 T01500061=
202105261753 METAR KBFI 261753Z 21006KT 10SM SCT028 OVC047 14/06 A3016 RMK AO2 SLP213 T01390056 10139 20111 58008=
202105261653 METAR KBFI 261653Z 17007KT 10SM SCT030 OVC050 13/06 A3017 RMK AO2 SLP216 T01330061=
202105261553 METAR KBFI 261553Z 17004KT 10SM SCT028 OVC050 13/07 A3018 RMK AO2 SLP219 T01280067=
202105261453 METAR KBFI 261453Z 17007KT 10SM SCT024 OVC050 12/07 A3019 RMK AO2 SLP221 T01220072 58003=
202105261353 METAR KBFI 261353Z 14006KT 10SM FEW026 SCT033 OVC050 12/07 A3019 RMK AO2 SLP223 T01170072=
202105261253 METAR KBFI 261253Z 16008KT 10SM OVC048 12/07 A3020 RMK AO2 SLP225 T01170072=
202105261153 METAR KBFI 261153Z 15009KT 10SM OVC047 12/07 A3019 RMK AO2 SLP224 T01170072 10122 20106 58001=
202105261053 METAR KBFI 261053Z AUTO 17007KT 10SM OVC047 12/07 A3020 RMK AO2 SLP227 T01170072=
202105260953 METAR KBFI 260953Z 16007KT 10SM FEW023 OVC049 12/07 A3020 RMK AO2 SLP226 T01170072=
202105260853 METAR KBFI 260853Z 16007KT 10SM BKN050 12/07 A3020 RMK AO2 SLP225 T01170072 50004=
202105260753 METAR KBFI 260753Z 17004KT 10SM BKN048 11/07 A3020 RMK AO2 SLP227 T01060067=
202105260653 METAR KBFI 260653Z 19004KT 10SM FEW075 11/07 A3019 RMK AO2 SLP224 T01110067 401780111=
202105260553 METAR KBFI 260553Z 18004KT 10SM SCT050 12/07 A3018 RMK AO2 SLP221 T01220072 10178 20117 51016=
202105260353 METAR KBFI 260353Z 19006KT 10SM SCT055 14/07 A3015 RMK AO2 SLP210 T01390072=
202105260253 METAR KBFI 260253Z 20007KT 170V240 10SM BKN050 15/08 A3014 RMK AO2 SLP205 T01500083 53005=
202105260153 METAR KBFI 260153Z 21007KT 170V240 10SM BKN046 16/08 A3012 RMK AO2 SLP199 T01610083=
202105260053 METAR KBFI 260053Z 20006G18KT 10SM BKN044 17/09 A3012 RMK AO2 SLP198 T01670089=
202105252353 METAR KBFI 252353Z VRB04KT 10SM BKN031 17/09 A3012 RMK AO2 SLP200 T01720094 10172 20133 53003=
202105252253 METAR KBFI 252253Z 21008KT 10SM BKN029 OVC038 16/09 A3012 RMK AO2 SLP199 T01610094=
202105252153 METAR KBFI 252153Z 24003KT 10SM BKN029 16/09 A3011 RMK AO2 SLP196 T01610094=
202105252053 METAR KBFI 252053Z 23007KT 10SM BKN025 15/09 A3011 RMK AO2 SLP197 T01500094 58000=
202105251953 METAR KBFI 251953Z 16005KT 10SM OVC025 15/09 A3011 RMK AO2 SLP197 T01500094=
202105251853 METAR KBFI 251853Z 17008KT 10SM OVC023 14/09 A3012 RMK AO2 SLP198 T01440089=
202105251753 METAR KBFI 251753Z 16005KT 10SM OVC020 13/09 A3012 RMK AO2 SLP197 T01330089 10139 20117 51010=
202105251653 METAR KBFI 251653Z 17011G18KT 10SM BKN015 BKN020 BKN110 13/09 A3011 RMK AO2 SLP196 T01330089=
202105251553 METAR KBFI 251553Z 21008KT 10SM BKN022 BKN110 13/08 A3010 RMK AO2 SLP192 T01280083=
202105251453 METAR KBFI 251453Z 22005KT 10SM SCT012 BKN060 BKN120 12/08 A3009 RMK AO2 SLP187 T01170083 51013=
202105251353 METAR KBFI 251353Z 20006KT 10SM FEW012 BKN060 BKN120 12/09 A3008 RMK AO2 SLP184 T01170089=
202105251253 METAR KBFI 251253Z 19003KT 10SM FEW012 OVC050 12/09 A3006 RMK AO2 SLP178 T01170094=
202105251153 METAR KBFI 251153Z 23003KT 10SM BKN060 12/09 A3005 RMK AO2 SLP175 70001 T01170094 10144 20117 53003=
202105251053 METAR KBFI 251053Z 22003KT 10SM BKN030 BKN038 OVC055 12/10 A3004 RMK AO2 SLP172 T01220100=
202105250953 METAR KBFI 250953Z 00000KT 10SM BKN028 OVC036 13/11 A3004 RMK AO2 SLP171 T01280106=
202105250853 METAR KBFI 250853Z 00000KT 10SM BKN047 OVC070 13/11 A3004 RMK AO2 SLP171 T01280106 58002=
202105250753 METAR KBFI 250753Z 00000KT 10SM FEW013 BKN039 13/11 A3004 RMK AO2 SLP173 T01330111=
202105250711 SPECI KBFI 250711Z 00000KT 10SM FEW017 SCT024 OVC065 13/12 A3005 RMK AO2 T01330117=
202105250653 METAR KBFI 250653Z 00000KT 10SM BKN017 BKN022 OVC070 14/12 A3005 RMK AO2 SLP174 T01390117 401720100=
202105250645 SPECI KBFI 250645Z 00000KT 10SM BKN017 BKN055 OVC070 14/12 A3004 RMK AO2 T01390117=
202105250553 METAR KBFI 250553Z 00000KT 10SM SCT017 OVC040 14/12 A3005 RMK AO2 SLP174 T01390117 10172 20139 53009=
202105250453 METAR KBFI 250453Z 19004KT 10SM SCT030 BKN060 BKN200 14/12 A3004 RMK AO2 SLP172 T01440117=
202105250353 METAR KBFI 250353Z 19005KT 10SM SCT030 BKN060 BKN200 15/11 A3002 RMK AO2 SLP167 T01500111=
202105250253 METAR KBFI 250253Z 17007KT 10SM BKN033 16/11 A3002 RMK AO2 SLP165 T01560111 56005=
202105250153 METAR KBFI 250153Z 21005KT 10SM OVC028 16/11 A3002 RMK AO2 SLP165 T01560111=
202105250053 METAR KBFI 250053Z 20005KT 10SM BKN028 BKN070 16/11 A3003 RMK AO2 SLP168 T01610111=
202105242353 METAR KBFI 242353Z 18011G18KT 10SM BKN031 OVC070 17/12 A3003 RMK AO2 SLP170 60001 T01670117 10167 20117 58010=
202105242253 METAR KBFI 242253Z 22007KT 10SM FEW021 BKN029 OVC075 16/11 A3005 RMK AO2 SLP174 T01560106=
202105242153 METAR KBFI 242153Z 20007KT 10SM BKN018 OVC025 15/12 A3006 RMK AO2 RAE16 SLP178 P0000 T01500117=
202105242053 METAR KBFI 242053Z 18009KT 10SM -RA BKN014 OVC025 14/12 A3006 RMK AO2 RAB1956 SLP180 P0001 60001 T01390117 57003=
202105241953 METAR KBFI 241953Z 17009KT 10SM OVC014 13/11 A3007 RMK AO2 RAE53 SLP180 P0000 T01330111=
202105241853 METAR KBFI 241853Z 18010G16KT 10SM -RA OVC012 13/11 A3007 RMK AO2 RAB01 SLP181 P0000 T01280111=
202105241753 METAR KBFI 241753Z 17011KT 10SM OVC014 12/11 A3007 RMK AO2 RAE53 SLP182 P0000 60000 T01220106 10122 20106 53002=
202105241653 METAR KBFI 241653Z 17007KT 9SM -RA BKN013 OVC019 12/10 A3007 RMK AO2 RAB33 SLP182 P0000 T01170100=
202105241626 SPECI KBFI 241626Z 17008G17KT 10SM BKN013 OVC019 12/10 A3007 RMK AO2 T01170100=
202105241553 METAR KBFI 241553Z 16007KT 10SM OVC007 11/10 A3007 RMK AO2 RAB10E23 SLP181 P0000 T01110100=
202105241517 SPECI KBFI 241517Z 17009KT 10SM -RA OVC007 11/09 A3007 RMK AO2 RAB10 P0000 T01060094=
202105241453 METAR KBFI 241453Z 16008KT 10SM OVC014 11/09 A3007 RMK AO2 SLP181 60000 T01110094 53003=
202105241353 METAR KBFI 241353Z 17011KT 10SM BKN016 OVC022 11/09 A3006 RMK AO2 SLP180 T01060094=
202105241253 METAR KBFI 241253Z 17009KT 10SM OVC015 11/09 A3006 RMK AO2 RAE16 SLP178 P0000 T01060089=
202105241153 METAR KBFI 241153Z AUTO 17005KT 8SM -RA OVC016 11/09 A3006 RMK AO2 RAB05 SLP178 P0000 60000 T01060094 10122 20106 55003=
202105241053 METAR KBFI 241053Z 17008KT 10SM OVC020 11/08 A3005 RMK AO2 RAB43E50 SLP176 P0000 T01110083=
202105240953 METAR KBFI 240953Z 20009KT 10SM OVC018 12/08 A3006 RMK AO2 SLP179 T01170078=
202105240853 METAR KBFI 240853Z 19010KT 10SM OVC020 12/08 A3007 RMK AO2 SLP181 T01170078 56003=
202105240753 METAR KBFI 240753Z 19009KT 10SM OVC021 12/08 A3007 RMK AO2 SLP182 T01170078=
202105240653 METAR KBFI 240653Z 19009G17KT 10SM OVC024 12/07 A3007 RMK AO2 SLP181 T01170072 401720111=
202105240553 METAR KBFI 240553Z 19008G18KT 160V220 10SM OVC026 12/07 A3007 RMK AO2 SLP183 60000 T01220072 10144 20122 53002=
202105240453 METAR KBFI 240453Z VRB06G18KT 10SM OVC026 12/07 A3007 RMK AO2 SLP183 T01220072=
202105240353 METAR KBFI 240353Z 20009G18KT 10SM OVC026 13/07 A3006 RMK AO2 SLP180 T01280072=
202105240253 METAR KBFI 240253Z 18009G19KT 10SM OVC025 13/08 A3007 RMK AO2 RAE0154 SLP182 P0000 60000 T01280078 53001=
202105240153 METAR KBFI 240153Z 21007G19KT 10SM -RA BKN026 OVC055 13/09 A3007 RMK AO2 RAB29 SLP182 P0000 T01280089=
202105240053 METAR KBFI 240053Z 20008G18KT 170V240 10SM SCT026 OVC043 13/08 A3006 RMK AO2 SLP180 T01330083=
202105232353 METAR KBFI 232353Z 23007G20KT 190V250 10SM BKN029 OVC038 14/08 A3007 RMK AO2 SLP181 T01440083 10172 20133 50002=
202105232253 METAR KBFI 232253Z VRB06G16KT 10SM BKN031 BKN038 15/09 A3007 RMK AO2 SLP181 T01500089=
202105232153 METAR KBFI 232153Z 22010G20KT 10SM SCT022 BKN028 BKN048 16/09 A3007 RMK AO2 SLP181 T01610094=
202105232053 METAR KBFI 232053Z 19011KT 10SM BKN014 OVC022 16/10 A3006 RMK AO2 SLP179 T01610100 58002=
202105231953 METAR KBFI 231953Z 19009KT 10SM BKN014 OVC022 15/11 A3007 RMK AO2 SLP182 T01500106=
202105231853 METAR KBFI 231853Z 17005KT 10SM BKN014 OVC022 14/11 A3008 RMK AO2 SLP184 T01390106=
202105231753 METAR KBFI 231753Z 19008KT 6SM BR OVC010 13/11 A3007 RMK AO2 SLP181 T01330111 10133 20117 58001=
202105231653 METAR KBFI 231653Z 18007KT 3SM BR OVC005 13/11 A3007 RMK AO2 SLP181 T01280111=
202105231553 METAR KBFI 231553Z 17006KT 3SM BR OVC005 12/12 A3008 RMK AO2 SLP185 T01220117=
202105231453 METAR KBFI 231453Z 15009KT 4SM BR OVC009 12/11 A3007 RMK AO2 SLP182 T01170106 51007=
202105231353 METAR KBFI 231353Z 16009KT 10SM OVC014 12/09 A3007 RMK AO2 SLP181 T01220094=
202105231342 SPECI KBFI 231342Z 14009KT 10SM BKN014 OVC022 12/09 A3006 RMK AO2 T01220094=
202105231253 METAR KBFI 231253Z 15008KT 10SM OVC017 12/09 A3006 RMK AO2 SLP178 T01220094=
202105231153 METAR KBFI 231153Z 15008KT 10SM OVC018 12/09 A3005 RMK AO2 SLP176 T01170094 10144 20111 57004=
202105231053 METAR KBFI 231053Z 16005KT 10SM BKN017 12/09 A3005 RMK AO2 SLP177 T01170094=
202105231008 SPECI KBFI 231008Z 17007KT 10SM BKN013 12/09 A3006 RMK AO2 T01170094=
202105230953 METAR KBFI 230953Z 17005KT 10SM SCT012 12/09 A3006 RMK AO2 SLP178 T01170094=
202105230853 METAR KBFI 230853Z 16007KT 10SM FEW110 12/09 A3006 RMK AO2 SLP179 T01170089 51004=
202105230753 METAR KBFI 230753Z 17004KT 10SM CLR 12/09 A3006 RMK AO2 SLP179 T01220089=
202105230653 METAR KBFI 230653Z 17005KT 10SM CLR 13/09 A3005 RMK AO2 SLP177 T01330089 401720083=
202105230553 METAR KBFI 230553Z 19004KT 10SM CLR 14/09 A3005 RMK AO2 SLP176 T01440089 10172 20144 53001=
202105230453 METAR KBFI 230453Z 15005KT 10SM SCT120 15/09 A3005 RMK AO2 SLP176 T01500094=
202105230353 METAR KBFI 230353Z 08003KT 10SM OVC110 16/08 A3005 RMK AO2 SLP174 T01610083=
202105230253 METAR KBFI 230253Z 00000KT 10SM FEW120 17/08 A3005 RMK AO2 SLP175 T01670078 58003=
202105230153 METAR KBFI 230153Z 17005KT 10SM BKN100 16/08 A3006 RMK AO2 SLP178 T01610083=
202105230053 METAR KBFI 230053Z 17007KT 10SM CLR 16/08 A3006 RMK AO2 SLP179 T01610083=
202105222353 METAR KBFI 222353Z 00000KT 10SM FEW027 17/09 A3006 RMK AO2 SLP178 T01670089 10172 20100 56016=
202105222253 METAR KBFI 222253Z 00000KT 10SM FEW027 15/09 A3007 RMK AO2 SLP182 T01500094=
202105222153 METAR KBFI 222153Z 12003KT 10SM FEW021 14/09 A3009 RMK AO2 SLP188 T01440089=
202105222053 METAR KBFI 222053Z 17004KT 10SM OVC015 12/09 A3010 RMK AO2 SLP194 T01220089 58018=
202105222022 SPECI KBFI 222022Z 18003KT 10SM OVC012 12/09 A3011 RMK AO2 T01170089=
202105221953 METAR KBFI 221953Z 21005KT 6SM BR OVC009 11/08 A3012 RMK AO2 SLP200 T01060083=
202105221853 METAR KBFI 221853Z VRB04KT 6SM BR OVC009 11/08 A3014 RMK AO2 SLP206 T01060083=
202105221753 METAR KBFI 221753Z AUTO 25004KT 6SM BR OVC007 10/08 A3016 RMK AO2 SLP212 T01000083 10100 20089 58015=
202105221653 METAR KBFI 221653Z 25006KT 10SM BR OVC008 09/08 A3017 RMK AO2 SLP216 T00940083=
202105221553 METAR KBFI 221553Z VRB03KT 10SM OVC005 09/08 A3019 RMK AO2 SLP223 T00940083=
202105221453 METAR KBFI 221453Z 21003KT 5SM BR OVC006 09/08 A3020 RMK AO2 SLP227 T00940083 51002=
202105221353 METAR KBFI 221353Z VRB03KT 10SM OVC009 09/08 A3020 RMK AO2 SLP227 T00940083=
202105221253 METAR KBFI 221253Z 18006KT 10SM OVC006 09/08 A3020 RMK AO2 SLP226 T00940083=
202105221153 METAR KBFI 221153Z 17004KT 10SM OVC006 09/08 A3020 RMK AO2 SLP224 T00890083 10128 20083 53002=
202105221053 METAR KBFI 221053Z 17003KT 10SM BKN009 09/07 A3019 RMK AO2 SLP222 T00890072=
202105221051 SPECI KBFI 221051Z 19003KT 10SM BKN009 08/07 A3019 RMK AO2=
202105220953 METAR KBFI 220953Z 00000KT 10SM FEW010 09/08 A3019 RMK AO2 SLP221 T00940078=
202105220853 METAR KBFI 220853Z 00000KT 10SM CLR 10/08 A3019 RMK AO2 SLP222 T01000078 53001=
202105220753 METAR KBFI 220753Z 00000KT 10SM CLR 11/08 A3018 RMK AO2 SLP221 T01110083=
202105220653 METAR KBFI 220653Z AUTO 00000KT 10SM CLR 12/08 A3019 RMK AO2 SLP221 T01220083 401720078=
202105220553 METAR KBFI 220553Z 28004KT 10SM CLR 13/08 A3019 RMK AO2 SLP222 T01330083 10172 20133 51009=
202105220453 METAR KBFI 220453Z 00000KT 10SM CLR 14/07 A3018 RMK AO2 SLP220 T01440072=
202105220353 METAR KBFI 220353Z 23004KT 10SM CLR 14/07 A3018 RMK AO2 SLP219 T01440072=
202105220253 METAR KBFI 220253Z 25004KT 10SM CLR 16/08 A3016 RMK AO2 SLP213 T01560078 53000=
202105220153 METAR KBFI 220153Z VRB04KT 10SM FEW200 17/08 A3015 RMK AO2 SLP209 T01670083=
202105220053 METAR KBFI 220053Z 00000KT 10SM CLR 17/08 A3015 RMK AO2 SLP210 T01670078=
202105212353 METAR KBFI 212353Z VRB06KT 10SM SCT036 17/08 A3016 RMK AO2 SLP212 T01670078 10167 20111 56014=
202105212253 METAR KBFI 212253Z VRB03KT 10SM CLR 16/08 A3017 RMK AO2 SLP216 T01610078=
202105212153 METAR KBFI 212153Z 26004KT 10SM SCT028 15/08 A3019 RMK AO2 SLP221 T01500078=
202105212053 METAR KBFI 212053Z 27006KT 10SM BKN028 14/07 A3020 RMK AO2 SLP226 T01390072 58008=
202105211953 METAR KBFI 211953Z 00000KT 10SM BKN022 13/07 A3021 RMK AO2 SLP229 T01280067=
202105211853 METAR KBFI 211853Z 29004KT 10SM OVC023 12/07 A3022 RMK AO2 SLP232 T01220067=
202105211753 METAR KBFI 211753Z 00000KT 10SM OVC021 12/07 A3022 RMK AO2 SLP234 T01170067 10117 20078 50001=
202105211700 SPECI KBFI 211700Z 22005KT 10SM OVC019 11/07 A3023 RMK AO2 T01060067=
202105211653 METAR KBFI 211653Z 19004KT 10SM OVC014 11/07 A3023 RMK AO2 SLP236 T01060067=
202105211553 METAR KBFI 211553Z VRB04KT 10SM OVC014 09/07 A3023 RMK AO2 SLP237 T00940067=
202105211453 METAR KBFI 211453Z 18006KT 10SM OVC011 09/07 A3022 RMK AO2 SLP233 T00890067 53006=
202105211353 METAR KBFI 211353Z 21004KT 10SM OVC012 09/07 A3021 RMK AO2 SLP230 T00890067=
202105211253 METAR KBFI 211253Z 16006KT 10SM OVC012 08/07 A3021 RMK AO2 SLP228 T00830067=
202105211153 METAR KBFI 211153Z AUTO 15008KT 10SM BKN013 08/06 A3020 RMK AO2 SLP226 T00830061 10117 20078 53010=
202105211053 METAR KBFI 211053Z 17006KT 10SM SCT011 BKN015 08/07 A3019 RMK AO2 SLP222 T00830067=
202105210953 METAR KBFI 210953Z 15005KT 10SM FEW015 08/06 A3017 RMK AO2 SLP217 T00830061=
202105210853 METAR KBFI 210853Z 19004KT 10SM CLR 09/07 A3017 RMK AO2 SLP216 T00940067 53011=
202105210753 METAR KBFI 210753Z 17007KT 10SM CLR 09/06 A3015 RMK AO2 SLP210 T00940061=
202105210653 METAR KBFI 210653Z 18005KT 10SM FEW150 11/06 A3015 RMK AO2 SLP210 T01060061 401670078=
202105210553 METAR KBFI 210553Z 19005KT 10SM FEW060 SCT150 12/06 A3014 RMK AO2 SLP206 T01170061 10167 20111 53013=
202105210453 METAR KBFI 210453Z 26004KT 10SM CLR 13/07 A3013 RMK AO2 SLP202 T01280067=
202105210353 METAR KBFI 210353Z 24006KT 10SM BKN085 14/07 A3011 RMK AO2 SLP196 T01390067=
202105210253 METAR KBFI 210253Z 24004KT 10SM SCT050 14/07 A3010 RMK AO2 SLP193 T01440067 53004=
202105210153 METAR KBFI 210153Z 21008KT 10SM SCT050 16/07 A3009 RMK AO2 SLP190 T01560067=
202105210053 METAR KBFI 210053Z 00000KT 10SM SCT050 17/04 A3009 RMK AO2 SLP189 T01670044=
202105202353 METAR KBFI 202353Z 28006KT 10SM FEW048 16/04 A3009 RMK AO2 SLP189 T01560044 10161 20100 58011=
202105202253 METAR KBFI 202253Z 24005KT 10SM BKN035 15/06 A3010 RMK AO2 SLP192 T01500061=
202105202153 METAR KBFI 202153Z 00000KT 10SM BKN041 BKN050 14/06 A3011 RMK AO2 SLP197 T01440061=
202105202053 METAR KBFI 202053Z 10007KT 10SM SCT036 BKN047 13/06 A3012 RMK AO2 SLP200 T01330061 58003=
202105201953 METAR KBFI 201953Z 13008KT 10SM FEW020 SCT030 BKN060 13/08 A3012 RMK AO2 SLP200 T01280078=
202105201853 METAR KBFI 201853Z 15006KT 10SM BKN016 OVC022 11/07 A3013 RMK AO2 SLP203 T01110067=
202105201753 METAR KBFI 201753Z 15006KT 10SM BKN010 OVC027 10/07 A3013 RMK AO2 SLP203 60000 T01000067 10100 20078 51004=
202105201653 METAR KBFI 201653Z 15004KT 10SM BKN015 OVC031 09/06 A3013 RMK AO2 SLP203 T00890061=
202105201646 SPECI KBFI 201646Z 14005KT 10SM BKN015 OVC031 09/06 A3013 RMK AO2 T00890061=
202105201553 METAR KBFI 201553Z 14006KT 10SM BKN012 BKN035 OVC050 08/06 A3013 RMK AO2 SLP201 T00830061=
202105201453 METAR KBFI 201453Z 15006KT 10SM SCT012 BKN045 OVC060 08/06 A3012 RMK AO2 RAB22E35 SLP198 P0000 60000 T00780061 53009=
202105201353 METAR KBFI 201353Z 17006KT 10SM SCT012 BKN047 OVC060 08/06 A3010 RMK AO2 RAB19E29 SLP194 P0000 T00780061=
202105201253 METAR KBFI 201253Z 15005KT 10SM SCT017 OVC050 08/06 A3010 RMK AO2 SLP192 T00780056=
202105201209 SPECI KBFI 201209Z 16007KT 10SM OVC015 08/05 A3010 RMK AO2 T00780050=
202105201153 METAR KBFI 201153Z 17006KT 10SM BKN014 OVC065 08/05 A3009 RMK AO2 SLP189 T00830050 10106 20078 53002=
202105201053 METAR KBFI 201053Z 15008KT 10SM OVC065 08/05 A3008 RMK AO2 SLP187 T00830050=
202105200953 METAR KBFI 200953Z 14006KT 10SM OVC070 08/05 A3008 RMK AO2 SLP187 T00830050=
202105200853 METAR KBFI 200853Z 15005KT 10SM OVC070 09/04 A3008 RMK AO2 SLP187 T00890044 52001=
202105200753 METAR KBFI 200753Z 10005KT 10SM BKN080 09/04 A3008 RMK AO2 SLP186 T00940039=
202105200653 METAR KBFI 200653Z 11003KT 10SM FEW120 09/05 A3008 RMK AO2 SLP186 T00940050 401440067=
202105200553 METAR KBFI 200553Z 00000KT 10SM FEW048 11/03 A3008 RMK AO2 SLP186 T01060028 10144 20100 50008=
202105200453 METAR KBFI 200453Z 00000KT 10SM SCT044 11/04 A3009 RMK AO2 SLP187 T01060044=
202105200353 METAR KBFI 200353Z 10004KT 10SM SCT044 12/04 A3007 RMK AO2 SLP183 T01170039=
202105200253 METAR KBFI 200253Z 33007KT 10SM CLR 13/M01 A3006 RMK AO2 SLP178 T01281006 53000=
202105200153 METAR KBFI 200153Z VRB06KT 10SM CLR 13/00 A3005 RMK AO2 SLP175 T01330000=
202105200053 METAR KBFI 200053Z 32006KT 10SM CLR 14/01 A3006 RMK AO2 SLP178 T01390006=
202105192353 METAR KBFI 192353Z 32006KT 10SM SCT085 14/02 A3006 RMK AO2 SLP177 T01390022 10144 20100 58010=
202105192253 METAR KBFI 192253Z VRB04G14KT 10SM SCT085 13/04 A3007 RMK AO2 SLP181 T01330044=
202105192153 METAR KBFI 192153Z 31007G14KT 290V010 10SM CLR 14/03 A3008 RMK AO2 SLP185 T01390028=
202105192053 METAR KBFI 192053Z 34007G15KT 310V010 10SM FEW060 14/03 A3009 RMK AO2 SLP187 T01390028 58014=
202105191953 METAR KBFI 191953Z 10SM BKN039 BKN047 BKN070 12/03 A3010 RMK AO2 SLP192 T01220033=
202105191853 METAR KBFI 191853Z 10SM FEW020 BKN030 11/03 A3012 RMK AO2 SLP197 T01110028 $=
202105191753 METAR KBFI 191753Z 10SM SCT030 BKN042 10/04 A3013 RMK AO2 SLP202 T01000044 10106 20072 57003 $=
202105191653 METAR KBFI 191653Z 10SM SCT030 BKN042 11/04 A3013 RMK AO2 SLP202 T01060044 $=
202105191553 METAR KBFI 191553Z 32007KT 290V360 10SM BKN030 OVC042 10/04 A3013 RMK AO2 SLP204 T01000039=
202105191453 METAR KBFI 191453Z 35006KT 10SM SCT027 BKN036 09/04 A3014 RMK AO2 SLP204 T00940044 51004=
202105191418 SPECI KBFI 191418Z 00000KT 10SM BKN027 BKN038 09/04 A3014 RMK AO2 T00890044=
202105191353 METAR KBFI 191353Z VRB03KT 10SM SCT028 BKN036 BKN090 08/04 A3014 RMK AO2 SLP204 T00830044=
202105191253 METAR KBFI 191253Z 30005KT 10SM BKN023 BKN029 08/04 A3013 RMK AO2 SLP203 T00780044=
202105191213 SPECI KBFI 191213Z VRB03KT 10SM BKN027 BKN033 OVC075 08/04 A3012 RMK AO2 T00780044=
202105191153 METAR KBFI 191153Z 00000KT 10SM FEW027 FEW032 OVC075 08/06 A3012 RMK AO2 SLP200 70025 T00780056 10083 20067 56002=
202105191053 METAR KBFI 191053Z 00000KT 10SM OVC060 07/06 A3012 RMK AO2 SLP200 T00720061=
202105190953 METAR KBFI 190953Z 00000KT 10SM OVC055 07/06 A3012 RMK AO2 SLP199 T00670061=
202105190853 METAR KBFI 190853Z 00000KT 10SM BKN043 07/06 A3013 RMK AO2 SLP202 T00720061 58004=
202105190753 METAR KBFI 190753Z 13003KT 10SM CLR 07/06 A3014 RMK AO2 SLP204 T00720056=
202105190719 SPECI KBFI 190719Z VRB04KT 10SM FEW012 SCT017 BKN075 08/06 A3014 RMK AO2 T00780061=
202105190700 SPECI KBFI 190700Z 00000KT 10SM BKN014 OVC070 08/07 A3015 RMK AO2 T00830067=
202105190653 METAR KBFI 190653Z 06004KT 10SM SCT014 OVC070 08/07 A3014 RMK AO2 SLP207 T00830067 401610078=
202105190553 METAR KBFI 190553Z 05005KT 7SM BKN065 BKN090 08/07 A3014 RMK AO2 RAE35 SLP206 P0000 60025 T00830067 10139 20078 50003=
202105190453 METAR KBFI 190453Z 02003KT 10SM -RA OVC037 08/07 A3014 RMK AO2 RAB05 TSB30E45 SLP206 P0005 T00830067=
202105190451 SPECI KBFI 190451Z 00000KT 4SM RA BR OVC037 08/06 A3014 RMK AO2 RAB05 TSB30E45 P0005=
202105190436 SPECI KBFI 190436Z 00000KT 10SM -TSRA OVC042 09/06 A3013 RMK AO2 RAB05 TSB30 P0001 T00890056=
202105190353 METAR KBFI 190353Z 11003KT 10SM BKN038 BKN060 OVC070 11/08 A3013 RMK AO2 RAE0254 SLP203 P0000 T01060083=
202105190253 METAR KBFI 190253Z 00000KT 10SM -RA SCT033 BKN070 BKN110 11/07 A3011 RMK AO2 RAE22B30 SLP196 P0000 60020 T01110067 51002=
202105190224 SPECI KBFI 190224Z 27004KT 10SM BKN050 BKN060 BKN095 11/07 A3011 RMK AO2 RAE22 P0000 T01110067=
202105190207 SPECI KBFI 190207Z 00000KT 8SM VCTS -RA FEW026 BKN048 OVC065 11/06 A3011 RMK AO2 P0000 T01110061=
202105190153 METAR KBFI 190153Z 00000KT 4SM -RA SCT030 BKN044 OVC070 11/07 A3011 RMK AO2 TSB32E47 SLP196 P0018 T01060067=
202105190138 SPECI KBFI 190138Z VRB03KT 4SM -TSRA BKN042 OVC050 11/08 A3012 RMK AO2 TSB32 P0015 T01060078=
202105190053 METAR KBFI 190053Z 32006KT 4SM -RA FEW044 BKN050 BKN090 12/06 A3012 RMK AO2 RAB03 TSE20 SLP198 P0002 T01170061=
202105190026 SPECI KBFI 190026Z 00000KT 8SM VCTS -RA BKN065 OVC075 13/06 A3011 RMK AO2 RAB03 TSE20 P0000 T01280061=
202105182353 METAR KBFI 182353Z 31007KT 10SM SCT040 SCT100 14/04 A3011 RMK AO2 SLP194 T01390044 10161 20128 56007=
202105182253 METAR KBFI 182253Z 18009G19KT 140V210 10SM SCT040 SCT060 16/03 A3011 RMK AO2 SLP196 T01610028=
202105182153 METAR KBFI 182153Z 22010KT 10SM SCT040 BKN060 15/04 A3012 RMK AO2 SLP198 T01500039=
202105182053 METAR KBFI 182053Z 20011KT 10SM FEW050 16/04 A3013 RMK AO2 SLP201 T01560044 56005=
202105181953 METAR KBFI 181953Z 17010G16KT 130V220 10SM SCT028 14/03 A3013 RMK AO2 SLP202 T01440033=
202105181853 METAR KBFI 181853Z 19010G17KT 170V240 10SM SCT028 14/04 A3014 RMK AO2 SLP205 T01390039=
202105181800 SPECI KBFI 181800Z 18011G15KT 10SM SCT028 13/04 A3014 RMK AO2 T01280044=
202105181753 METAR KBFI 181753Z 18011KT 10SM BKN028 13/04 A3014 RMK AO2 SLP206 T01280044 10128 20083 51009=
202105181653 METAR KBFI 181653Z 19013KT 10SM BKN028 12/04 A3014 RMK AO2 SLP206 T01170044=
202105181553 METAR KBFI 181553Z 19010G18KT 10SM BKN028 11/05 A3013 RMK AO2 SLP203 T01060050=
202105181453 METAR KBFI 181453Z 20011G19KT 150V220 10SM FEW020 09/04 A3011 RMK AO2 SLP197 T00890044 53021=
202105181353 METAR KBFI 181353Z AUTO 22011G22KT 10SM CLR 09/04 A3008 RMK AO2 SLP187 T00890044=
202105181253 METAR KBFI 181253Z AUTO 19014G21KT 10SM CLR 08/04 A3006 RMK AO2 SLP180 T00830039=
202105181153 METAR KBFI 181153Z 20014G21KT 10SM FEW120 09/05 A3005 RMK AO2 SLP176 60000 70003 T00890050 10111 20083 51014=
202105181053 METAR KBFI 181053Z 18008G20KT 10SM CLR 08/05 A3005 RMK AO2 SLP174 T00830050=
202105180953 METAR KBFI 180953Z 19012G21KT 10SM SCT110 09/05 A3003 RMK AO2 SLP170 T00940050=
202105180853 METAR KBFI 180853Z 18011G21KT 10SM SCT026 SCT110 09/06 A3001 RMK AO2 SLP163 60000 T00940061 53027=
202105180804 SPECI KBFI 180804Z 20013G21KT 10SM BKN027 BKN034 11/06 A3000 RMK AO2 T01060061=
202105180753 METAR KBFI 180753Z 20008G15KT 10SM SCT031 11/06 A2999 RMK AO2 SLP156 T01060061=
202105180653 METAR KBFI 180653Z 22011G19KT 10SM CLR 11/07 A2994 RMK AO2 RAE0554 SLP138 P0000 T01060067 401670106=
202105180600 SPECI KBFI 180600Z 20010G19KT 170V230 10SM SCT020 SCT027 BKN049 11/09 A2993 RMK AO2 RAE0554 P0000 T01110089=
202105180553 METAR KBFI 180553Z 20013G24KT 10SM -RA FEW011 BKN029 OVC044 11/09 A2993 RMK AO2 RAE0457B37 SLP135 P0000 60003 T01110089 10144 20111 52011=
202105180459 SPECI KBFI 180459Z 17009KT 10SM FEW011 BKN029 OVC044 12/09 A2992 RMK AO2 RAE57 P0000 T01170094=
202105180453 METAR KBFI 180453Z 16009KT 10SM -RA SCT029 BKN036 OVC044 12/10 A2992 RMK AO2 RAB24 SLP132 P0000 T01170100=
202105180353 METAR KBFI 180353Z 20007KT 10SM SCT019 BKN029 BKN120 11/09 A2991 RMK AO2 RAE07B25E37 SLP128 P0000 T01110094=
202105180253 METAR KBFI 180253Z VRB05KT 9SM -RA BKN034 OVC060 12/10 A2990 RMK AO2 SLP124 P0002 60003 T01170100 56013=
202105180153 METAR KBFI 180153Z 24010G15KT 5SM -RA BR SCT015 BKN034 OVC060 12/09 A2992 RMK AO2 RAB34 SLP130 P0001 T01170094=
202105180100 SPECI KBFI 180100Z 21006KT 10SM SCT028 SCT065 OVC085 13/09 A2992 RMK AO2 T01330089=
202105180053 METAR KBFI 180053Z VRB06KT 10SM BKN028 OVC100 13/09 A2992 RMK AO2 RAB30E43 SLP131 P0000 T01330089=
202105172353 METAR KBFI 172353Z 24008G16KT 10SM BKN028 OVC100 14/09 A2994 RMK AO2 SLP137 T01440089 10167 20128 55000=
202105172253 METAR KBFI 172253Z 23009G16KT 10SM BKN027 15/08 A2994 RMK AO2 SLP136 T01500083=
202105172153 METAR KBFI 172153Z 18008KT 10SM BKN027 BKN200 16/09 A2994 RMK AO2 SLP138 T01560089=
202105172053 METAR KBFI 172053Z 10SM BKN027 BKN200 16/09 A2994 RMK AO2 SLP138 T01610094 58013=
202105171953 METAR KBFI 171953Z AUTO 19004KT 10SM OVC022 14/09 A2996 RMK AO2 SLP144 T01390089=
202105171853 METAR KBFI 171853Z AUTO 20007KT 10SM OVC022 13/08 A2997 RMK AO2 SLP147 T01330083=
202105171753 METAR KBFI 171753Z 17010KT 10SM OVC024 13/08 A2998 RMK AO2 SLP151 T01280083 10128 20106 51001=
202105171653 METAR KBFI 171653Z 17009KT 10SM OVC023 12/08 A2998 RMK AO2 SLP150 T01220078=
202105171553 METAR KBFI 171553Z 18008KT 10SM OVC015 12/ A2998 RMK AO2 SLP151 T0117 $=
202105171453 METAR KBFI 171453Z 17008KT 10SM BKN013 OVC018 11/ A2998 RMK AO2 SLP150 T0111 51010 $=
202105171353 METAR KBFI 171353Z 19008G15KT 10SM BKN011 OVC018 11/ A2997 RMK AO2 SLP147 T0106 $=
202105171253 METAR KBFI 171253Z 21005KT 10SM OVC012 11/ A2996 RMK AO2 SLP144 T0106 $=
202105171153 METAR KBFI 171153Z 23009KT 10SM OVC012 12/ A2995 RMK AO2 SLP140 T0117 10172 20111 53010 $=
202105171053 METAR KBFI 171053Z 18007KT 10SM OVC011 11/ A2993 RMK AO2 SLP134 T0111 $=
202105170953 METAR KBFI 170953Z 19008KT 10SM OVC010 12/ A2992 RMK AO2 SLP131 T0117 $=
202105170910 SPECI KBFI 170910Z 21006KT 10SM OVC012 12/ A2991 RMK AO2 T0117 $=
202105170853 METAR KBFI 170853Z 17007KT 10SM FEW010 12/ A2992 RMK AO2 SLP130 T0117 53012 $=
202105170753 METAR KBFI 170753Z AUTO 16005KT 10SM CLR 13/ A2990 RMK AO2 SLP125 T0133 $=
202105170653 METAR KBFI 170653Z 00000KT 10SM CLR 16/ A2989 RMK AO2 SLP121 T0161 402440106 $=
202105170553 METAR KBFI 170553Z VRB03KT 10SM CLR 17/ A2988 RMK AO2 SLP118 T0167 10244 20167 52012 $=
202105170453 METAR KBFI 170453Z 28003KT 10SM CLR 17/ A2987 RMK AO2 SLP115 T0167 $=
202105170353 METAR KBFI 170353Z 31005KT 10SM CLR 18/09 A2986 RMK AO2 SLP110 T01780094=
202105170253 METAR KBFI 170253Z 32006KT 10SM CLR 22/08 A2985 RMK AO2 SLP107 T02220083 56014=
202105170153 METAR KBFI 170153Z 30005KT 10SM SCT220 24/09 A2985 RMK AO2 SLP109 T02390089=
202105170053 METAR KBFI 170053Z 30005KT 10SM CLR 24/11 A2987 RMK AO2 SLP115 T02390106=
202105162353 METAR KBFI 162353Z VRB04KT 10SM CLR 24/11 A2989 RMK AO2 SLP120 T02390106 10244 20183 57022=
202105162253 METAR KBFI 162253Z 32006KT 10SM SCT200 24/11 A2991 RMK AO2 SLP127 T02390106=
202105162153 METAR KBFI 162153Z 35006KT 10SM CLR 23/09 A2993 RMK AO2 SLP136 T02330094=
202105162053 METAR KBFI 162053Z 30005KT 10SM CLR 22/09 A2995 RMK AO2 SLP142 T02220094 58015=
202105161953 METAR KBFI 161953Z 00000KT 10SM CLR 21/09 A2997 RMK AO2 SLP148 T02060094=
202105161853 METAR KBFI 161853Z VRB05KT 10SM CLR 19/09 A2999 RMK AO2 SLP153 T01940089=
202105161753 METAR KBFI 161753Z VRB04KT 10SM CLR 18/08 A3000 RMK AO2 SLP157 T01830083 10183 20106 58008=
202105161653 METAR KBFI 161653Z VRB03KT 10SM CLR 17/09 A3000 RMK AO2 SLP160 T01720094=
202105161553 METAR KBFI 161553Z 00000KT 10SM CLR 16/09 A3002 RMK AO2 SLP163 T01610094=
202105161453 METAR KBFI 161453Z 00000KT 10SM CLR 13/09 A3002 RMK AO2 SLP165 T01330089 57001=
202105161353 METAR KBFI 161353Z 00000KT 10SM CLR 12/09 A3002 RMK AO2 SLP165 T01170094=
202105161253 METAR KBFI 161253Z AUTO 00000KT 10SM CLR 11/09 A3002 RMK AO2 SLP165 T01060089=
202105161153 METAR KBFI 161153Z 00000KT 10SM CLR 12/09 A3002 RMK AO2 SLP165 T01170089 10167 20117 53004=
202105161053 METAR KBFI 161053Z 35003KT 10SM CLR 12/09 A3002 RMK AO2 SLP164 T01220089=
202105160953 METAR KBFI 160953Z 00000KT 10SM CLR 13/09 A3001 RMK AO2 SLP163 T01280089=
202105160853 METAR KBFI 160853Z 00000KT 10SM CLR 14/09 A3001 RMK AO2 SLP162 T01390089 58001=
202105160753 METAR KBFI 160753Z 30003KT 10SM CLR 15/09 A3001 RMK AO2 SLP162 T01500089=
202105160653 METAR KBFI 160653Z 00000KT 10SM CLR 16/08 A3001 RMK AO2 SLP162 T01560083 402280100=
202105160553 METAR KBFI 160553Z 00000KT 10SM CLR 17/08 A3001 RMK AO2 SLP163 T01670078 10228 20167 53003=
202105160453 METAR KBFI 160453Z 00000KT 10SM CLR 18/08 A3001 RMK AO2 SLP161 T01780078=
202105160353 METAR KBFI 160353Z 30005KT 10SM CLR 19/07 A3000 RMK AO2 SLP159 T01890072=
202105160253 METAR KBFI 160253Z AUTO 32006KT 10SM CLR 21/07 A3000 RMK AO2 SLP159 T02060067 56008=
202105160153 METAR KBFI 160153Z 30006KT 10SM CLR 21/07 A3000 RMK AO2 SLP160 T02110072=
202105160053 METAR KBFI 160053Z 32007KT 10SM CLR 22/06 A3001 RMK AO2 SLP163 T02220061=
202105152353 METAR KBFI 152353Z 31008KT 10SM CLR 22/08 A3003 RMK AO2 SLP167 T02220083 10228 20150 57016=
202105152253 METAR KBFI 152253Z 31007KT 10SM CLR 22/09 A3004 RMK AO2 SLP172 T02170089=
202105152153 METAR KBFI 152153Z 32007KT 10SM CLR 21/09 A3006 RMK AO2 SLP178 T02110089=
202105152053 METAR KBFI 152053Z 31008KT 10SM CLR 20/08 A3007 RMK AO2 SLP183 T02000083 58016=
202105151953 METAR KBFI 151953Z 33008KT 10SM CLR 18/09 A3009 RMK AO2 SLP188 T01830089=
202105151853 METAR KBFI 151853Z 31005KT 10SM CLR 17/09 A3011 RMK AO2 SLP195 T01670094=
202105151753 METAR KBFI 151753Z VRB04KT 10SM CLR 15/08 A3012 RMK AO2 SLP199 T01500083 10161 20100 58005=
202105151653 METAR KBFI 151653Z AUTO 35005KT 10SM CLR 14/09 A3014 RMK AO2 SLP204 T01390089=
202105151553 METAR KBFI 151553Z AUTO 31005KT 10SM CLR 12/09 A3014 RMK AO2 SLP205 T01220089=
202105151453 METAR KBFI 151453Z AUTO 29003KT 10SM CLR 12/09 A3014 RMK AO2 SLP205 T01170089 53009=
202105151353 METAR KBFI 151353Z 30004KT 10SM CLR 11/08 A3012 RMK AO2 SLP200 T01110083=
202105151253 METAR KBFI 151253Z 00000KT 10SM CLR 11/07 A3012 RMK AO2 SLP197 T01060072=
202105151153 METAR KBFI 151153Z 00000KT 10SM CLR 11/08 A3011 RMK AO2 SLP195 T01060078 10161 20106 53002=
202105151053 METAR KBFI 151053Z 00000KT 10SM CLR 12/08 A3011 RMK AO2 SLP195 T01170078=
202105150953 METAR KBFI 150953Z 00000KT 10SM CLR 12/07 A3010 RMK AO2 SLP192 T01220067=
202105150853 METAR KBFI 150853Z 33003KT 10SM CLR 13/07 A3010 RMK AO2 SLP194 T01280067 51008=
202105150753 METAR KBFI 150753Z 00000KT 10SM CLR 14/07 A3010 RMK AO2 SLP193 T01390067=
202105150653 METAR KBFI 150653Z 00000KT 10SM CLR 14/07 A3009 RMK AO2 SLP188 T01440067 402280061=
202105150553 METAR KBFI 150553Z 00000KT 10SM CLR 16/07 A3008 RMK AO2 SLP185 T01610067 10228 20156 53006=
202105150453 METAR KBFI 150453Z 00000KT 10SM CLR 17/07 A3008 RMK AO2 SLP184 T01670072=
202105150353 METAR KBFI 150353Z 04005KT 10SM CLR 18/08 A3006 RMK AO2 SLP180 T01780078=
202105150253 METAR KBFI 150253Z VRB04KT 10SM FEW250 20/07 A3006 RMK AO2 SLP180 T02000072 55001=
202105150153 METAR KBFI 150153Z VRB04KT 10SM BKN250 22/07 A3006 RMK AO2 SLP178 T02170072=
202105150053 METAR KBFI 150053Z VRB05KT 10SM CLR 23/06 A3006 RMK AO2 SLP178 T02280061=
202105142353 METAR KBFI 142353Z 31008KT 10SM FEW050 22/05 A3007 RMK AO2 SLP181 T02220050 10222 20167 58016=
202105142253 METAR KBFI 142253Z 31009G16KT 10SM CLR 22/05 A3008 RMK AO2 SLP185 T02170050=
202105142153 METAR KBFI 142153Z 30010KT 10SM CLR 21/07 A3010 RMK AO2 SLP192 T02110072=
202105142053 METAR KBFI 142053Z 32008KT 290V010 10SM CLR 21/09 A3011 RMK AO2 SLP196 T02060089 58012=
202105141953 METAR KBFI 141953Z 30007KT 10SM CLR 19/09 A3012 RMK AO2 SLP199 T01940094=
202105141853 METAR KBFI 141853Z VRB05KT 10SM CLR 18/09 A3014 RMK AO2 SLP206 T01780089=
202105141753 METAR KBFI 141753Z VRB05KT 10SM CLR 17/08 A3015 RMK AO2 SLP208 T01670083 10172 20111 57005=
202105141653 METAR KBFI 141653Z 34004KT 10SM CLR 16/09 A3015 RMK AO2 SLP210 T01610089 $=
202105141553 METAR KBFI 141553Z 33005KT 10SM CLR 14/09 A3016 RMK AO2 SLP212 T01440094=
202105141453 METAR KBFI 141453Z 00000KT 10SM CLR 14/09 A3016 RMK AO2 SLP213 T01390089 53008=
202105141353 METAR KBFI 141353Z 30003KT 10SM CLR 12/10 A3016 RMK AO2 SLP211 T01220100=
202105141253 METAR KBFI 141253Z 00000KT 10SM CLR 11/ A3014 RMK AO2 SLP207 T0111 $=
202105141153 METAR KBFI 141153Z 00000KT 10SM CLR 12/ A3014 RMK AO2 SLP205 T0117 10161 20106 52001 $=
202105141053 METAR KBFI 141053Z 00000KT 10SM CLR 12/09 A3014 RMK AO2 SLP205 T01220094 $=
202105140953 METAR KBFI 140953Z 00000KT 10SM CLR 13/09 A3013 RMK AO2 SLP203 T01330089 $=
202105140853 METAR KBFI 140853Z 00000KT 10SM CLR 13/09 A3013 RMK AO2 SLP204 T01330089 53003 $=
202105140753 METAR KBFI 140753Z 05006KT 10SM CLR 15/09 A3013 RMK AO2 SLP201 T01500089 $=
202105140653 METAR KBFI 140653Z 00000KT 10SM CLR 16/08 A3013 RMK AO2 SLP202 T01560083 402170094 $=
202105140553 METAR KBFI 140553Z 00000KT 10SM CLR 16/08 A3013 RMK AO2 SLP201 T01610083 10217 20161 50003 $=
202105140453 METAR KBFI 140453Z 00000KT 10SM CLR 17/08 A3013 RMK AO2 SLP202 T01670083 $=
202105140353 METAR KBFI 140353Z 31005KT 10SM CLR 18/07 A3012 RMK AO2 SLP199 T01830067 $=
202105140253 METAR KBFI 140253Z VRB05KT 10SM CLR 19/07 A3012 RMK AO2 SLP198 T01940067 55008 $=
202105140153 METAR KBFI 140153Z 30008KT 10SM CLR 21/07 A3011 RMK AO2 SLP197 T02060067 $=
202105140053 METAR KBFI 140053Z 31010G16KT 10SM FEW040 21/05 A3013 RMK AO2 SLP201 T02110050 $=
202105132353 METAR KBFI 132353Z 31010G14KT 10SM CLR 21/06 A3014 RMK AO2 SLP205 T02110061 10217 20156 56011 $=
202105132253 METAR KBFI 132253Z 31007G15KT 290V350 10SM CLR 21/08 A3015 RMK AO2 SLP209 T02110083 $=
202105132153 METAR KBFI 132153Z 30009G17KT 10SM CLR 21/09 A3016 RMK AO2 SLP213 T02110089 $=
202105132053 METAR KBFI 132053Z 30008KT 10SM CLR 20/09 A3017 RMK AO2 SLP217 T02000094 58015 $=
202105131953 METAR KBFI 131953Z 30010KT 10SM FEW040 BKN250 19/09 A3019 RMK AO2 SLP222 T01940094 $=
202105131853 METAR KBFI 131853Z VRB06KT 10SM CLR 18/09 A3021 RMK AO2 SLP229 T01780094 $=
202105131753 METAR KBFI 131753Z VRB06KT 10SM CLR 16/10 A3022 RMK AO2 SLP231 T01560100 10156 20094 58005 $=
202105131653 METAR KBFI 131653Z 32004KT 10SM FEW012 14/10 A3022 RMK AO2 SLP233 T01390100 $=
202105131632 SPECI KBFI 131632Z 00000KT 10SM FEW009 SCT012 13/10 A3023 RMK AO2 T01280100 $=
202105131553 METAR KBFI 131553Z VRB03KT 10SM OVC009 12/10 A3023 RMK AO2 SLP235 T01220100 $=
202105131453 METAR KBFI 131453Z VRB03KT 10SM OVC006 11/ A3023 RMK AO2 SLP236 T0106 53010 $=
202105131353 METAR KBFI 131353Z 30004KT 10SM OVC006 10/09 A3022 RMK AO2 SLP233 T01000089=
202105131327 SPECI KBFI 131327Z 31004KT 10SM BKN005 09/09 A3021 RMK AO2 T00940089=
202105131253 METAR KBFI 131253Z 31005KT 10SM SCT010 BKN120 09/ A3021 RMK AO2 SLP228 T0094 $=
202105131153 METAR KBFI 131153Z 30004KT 9SM CLR 10/ A3020 RMK AO2 SLP226 T0100 10156 20100 53004 $=
202105131053 METAR KBFI 131053Z 29003KT 10SM SCT070 11/ A3020 RMK AO2 SLP224 T0111 $=
202105130953 METAR KBFI 130953Z 00000KT 10SM BKN070 13/09 A3019 RMK AO2 SLP223 T01280094=
202105130853 METAR KBFI 130853Z 00000KT 10SM OVC070 14/09 A3019 RMK AO2 SLP222 T01390094 53005=
202105130753 METAR KBFI 130753Z 00000KT 10SM BKN070 14/09 A3018 RMK AO2 SLP219 T01390094=
202105130653 METAR KBFI 130653Z 00000KT 10SM FEW075 15/09 A3017 RMK AO2 SLP217 T01500094 402060128=
202105130553 METAR KBFI 130553Z VRB03KT 10SM OVC075 16/09 A3017 RMK AO2 SLP216 T01560089 10200 20150 51013=
202105130453 METAR KBFI 130453Z VRB04KT 10SM BKN075 16/09 A3017 RMK AO2 SLP215 T01560089=
202105130353 METAR KBFI 130353Z 31004KT 10SM SCT060 16/09 A3015 RMK AO2 SLP209 T01560089=
202105130253 METAR KBFI 130253Z 32005KT 10SM CLR 17/08 A3013 RMK AO2 SLP204 T01670083 53001=
202105130153 METAR KBFI 130153Z 32007KT 10SM CLR 18/08 A3013 RMK AO2 SLP203 T01830083=
202105130053 METAR KBFI 130053Z 34009G15KT 300V360 10SM CLR 19/07 A3013 RMK AO2 SLP202 T01940067=
202105122353 METAR KBFI 122353Z 31008G16KT 10SM CLR 20/07 A3013 RMK AO2 SLP203 T02000072 10206 20156 58004=
202105122253 METAR KBFI 122253Z 31009KT 10SM CLR 19/08 A3014 RMK AO2 SLP205 T01940078=
202105122153 METAR KBFI 122153Z 30008KT 10SM SCT060 SCT120 19/08 A3014 RMK AO2 SLP207 T01940083=
202105122053 METAR KBFI 122053Z 31007KT 10SM CLR 19/09 A3014 RMK AO2 SLP207 T01940089 58004=
202105121953 METAR KBFI 121953Z 10SM BKN120 18/08 A3015 RMK AO2 SLP209 T01780083=
202105121853 METAR KBFI 121853Z 31008KT 10SM BKN100 17/09 A3016 RMK AO2 SLP211 T01670094=
202105121753 METAR KBFI 121753Z 10SM SCT100 16/09 A3015 RMK AO2 SLP211 T01560089 10156 20128 53004=
202105121653 METAR KBFI 121653Z VRB05KT 10SM CLR 15/09 A3015 RMK AO2 SLP208 T01500089=
202105121553 METAR KBFI 121553Z 06004KT 10SM SCT060 OVC110 14/09 A3015 RMK AO2 SLP208 T01440094=
202105121453 METAR KBFI 121453Z 04004KT 10SM OVC100 13/09 A3014 RMK AO2 SLP206 T01330089 53003=
202105121353 METAR KBFI 121353Z 00000KT 10SM BKN100 13/08 A3014 RMK AO2 SLP204 T01330078=
202105121253 METAR KBFI 121253Z 00000KT 10SM SCT110 13/08 A3013 RMK AO2 SLP203 T01280078=
202105121153 METAR KBFI 121153Z 00000KT 10SM BKN100 13/07 A3013 RMK AO2 SLP203 T01280072 10156 20128 50000=
202105121053 METAR KBFI 121053Z 00000KT 10SM OVC100 13/07 A3014 RMK AO2 SLP205 T01330072=
202105120953 METAR KBFI 120953Z 00000KT 10SM FEW120 13/07 A3013 RMK AO2 SLP202 T01280072=
202105120853 METAR KBFI 120853Z 00000KT 10SM FEW120 13/07 A3013 RMK AO2 SLP203 T01330072 58003=
202105120753 METAR KBFI 120753Z VRB03KT 10SM CLR 14/07 A3014 RMK AO2 SLP205 T01390067=
202105120653 METAR KBFI 120653Z 00000KT 10SM CLR 14/07 A3014 RMK AO2 SLP206 T01440067 402000083=
202105120553 METAR KBFI 120553Z VRB03KT 10SM CLR 16/06 A3014 RMK AO2 SLP206 T01560056 10200 20156 53002=
202105120453 METAR KBFI 120453Z 00000KT 10SM CLR 16/07 A3014 RMK AO2 SLP205 T01560067=
202105120353 METAR KBFI 120353Z 31005KT 10SM CLR 17/06 A3013 RMK AO2 SLP204 T01670061=
202105120253 METAR KBFI 120253Z VRB04KT 10SM BKN200 18/05 A3013 RMK AO2 SLP204 T01780050 56005=
202105120153 METAR KBFI 120153Z 30008KT 10SM CLR 19/05 A3014 RMK AO2 SLP204 T01890050=
202105120053 METAR KBFI 120053Z 32010KT 10SM BKN250 19/04 A3014 RMK AO2 SLP207 T01940044=
202105112353 METAR KBFI 112353Z 30008KT 10SM CLR 19/04 A3015 RMK AO2 SLP209 T01940044 10200 20139 58012=
202105112253 METAR KBFI 112253Z 30008KT 10SM CLR 19/03 A3016 RMK AO2 SLP213 T01940033=
202105112153 METAR KBFI 112153Z 31007G15KT 270V350 10SM CLR 19/02 A3018 RMK AO2 SLP218 T01890022=
202105112053 METAR KBFI 112053Z 34007G15KT 10SM CLR 19/03 A3019 RMK AO2 SLP222 T01890033 56016=
202105111953 METAR KBFI 111953Z 31010G15KT 10SM CLR 17/04 A3020 RMK AO2 SLP227 T01720044=
202105111853 METAR KBFI 111853Z VRB05KT 10SM SCT250 16/07 A3022 RMK AO2 SLP231 T01610067=
202105111753 METAR KBFI 111753Z VRB04KT 10SM CLR 14/08 A3023 RMK AO2 SLP237 T01440078 10144 20083 58005=
202105111653 METAR KBFI 111653Z VRB04KT 10SM SCT250 13/08 A3024 RMK AO2 SLP239 T01280078=
202105111553 METAR KBFI 111553Z 10SM CLR 12/07 A3025 RMK AO2 SLP241 T01220067=
202105111453 METAR KBFI 111453Z VRB04KT 10SM SCT250 11/07 A3025 RMK AO2 SLP242 T01110067 53002=
202105111353 METAR KBFI 111353Z 00000KT 10SM CLR 10/07 A3025 RMK AO2 SLP242 T01000067=
202105111253 METAR KBFI 111253Z 00000KT 10SM CLR 09/06 A3024 RMK AO2 SLP239 T00890056=
202105111153 METAR KBFI 111153Z 00000KT 10SM CLR 09/06 A3024 RMK AO2 SLP240 T00890056 10128 20089 55000=
202105111053 METAR KBFI 111053Z 00000KT 10SM CLR 09/06 A3024 RMK AO2 SLP238 T00890056=
202105110953 METAR KBFI 110953Z 00000KT 10SM CLR 10/06 A3023 RMK AO2 SLP237 T01000056=
202105110853 METAR KBFI 110853Z AUTO 00000KT 10SM CLR 11/06 A3024 RMK AO2 SLP240 T01060056 51003 TSNO=
202105110753 METAR KBFI 110753Z 00000KT 10SM CLR 10/06 A3024 RMK AO2 SLP239 T01000056=
202105110653 METAR KBFI 110653Z 00000KT 10SM CLR 12/06 A3024 RMK AO2 SLP239 T01170056 401830061=
202105110553 METAR KBFI 110553Z 00000KT 10SM CLR 13/06 A3023 RMK AO2 SLP237 T01280061 10178 20128 51005=
202105110453 METAR KBFI 110453Z 00000KT 10SM BKN070 BKN200 13/04 A3023 RMK AO2 SLP236 T01330044=
202105110353 METAR KBFI 110353Z 00000KT 10SM BKN060 BKN200 15/04 A3022 RMK AO2 SLP234 T01500044=
202105110253 METAR KBFI 110253Z VRB06KT 10SM BKN065 16/04 A3022 RMK AO2 SLP232 T01610039 56004=
202105110153 METAR KBFI 110153Z VRB06G15KT 10SM BKN080 BKN250 16/03 A3022 RMK AO2 SLP232 T01610033=
202105110053 METAR KBFI 110053Z 33009G14KT 300V010 10SM FEW065 BKN250 17/03 A3022 RMK AO2 SLP233 T01720033=
202105102353 METAR KBFI 102353Z 31009KT 10SM SCT035 SCT065 BKN200 17/04 A3023 RMK AO2 SLP236 T01720039 10183 20133 56010=
202105102253 METAR KBFI 102253Z 29008KT 10SM SCT035 BKN250 18/03 A3024 RMK AO2 SLP238 T01780028=
202105102153 METAR KBFI 102153Z 28005G15KT 10SM FEW040 SCT080 BKN200 18/04 A3025 RMK AO2 SLP242 T01780039=
202105102053 METAR KBFI 102053Z VRB05KT 10SM FEW030 SCT250 17/04 A3026 RMK AO2 SLP246 T01670039 58007=
202105101953 METAR KBFI 101953Z VRB06KT 10SM SCT022 17/06 A3027 RMK AO2 SLP250 T01670056=
202105101853 METAR KBFI 101853Z VRB05KT 10SM SCT022 15/07 A3028 RMK AO2 SLP253 T01500072=
202105101753 METAR KBFI 101753Z 26003KT 10SM SCT022 13/07 A3028 RMK AO2 SLP252 T01330067 10144 20061 58007=
202105101653 METAR KBFI 101653Z 09004KT 10SM FEW040 13/07 A3028 RMK AO2 SLP255 T01330067=
202105101553 METAR KBFI 101553Z 12003KT 10SM FEW040 12/07 A3030 RMK AO2 SLP260 T01170067=
202105101453 METAR KBFI 101453Z 00000KT 10SM FEW040 10/07 A3030 RMK AO2 SLP259 T01000067 53007=
202105101353 METAR KBFI 101353Z 00000KT 10SM CLR 08/06 A3029 RMK AO2 SLP257 T00830056=
202105101253 METAR KBFI 101253Z 14003KT 10SM CLR 07/06 A3028 RMK AO2 SLP253 T00720056=
202105101153 METAR KBFI 101153Z 00000KT 10SM CLR 08/06 A3028 RMK AO2 SLP252 T00780056 10128 20078 50004=
202105101053 METAR KBFI 101053Z 00000KT 10SM CLR 08/06 A3028 RMK AO2 SLP252 T00830056=
202105100953 METAR KBFI 100953Z 00000KT 10SM CLR 09/05 A3027 RMK AO2 SLP251 T00890050=
202105100853 METAR KBFI 100853Z 00000KT 10SM CLR 10/05 A3026 RMK AO2 SLP248 T01000050 53003=
202105100753 METAR KBFI 100753Z 00000KT 10SM CLR 11/05 A3026 RMK AO2 SLP247 T01060050=
202105100653 METAR KBFI 100653Z VRB04KT 10SM CLR 12/04 A3025 RMK AO2 SLP244 T01170044 401720094=
202105100553 METAR KBFI 100553Z 00000KT 10SM CLR 12/04 A3026 RMK AO2 SLP245 T01220039 10167 20122 51006=
202105100453 METAR KBFI 100453Z 35004KT 10SM CLR 13/04 A3025 RMK AO2 SLP244 T01330039=
202105100353 METAR KBFI 100353Z 33004KT 10SM SCT080 14/03 A3024 RMK AO2 SLP241 T01390033=
202105100253 METAR KBFI 100253Z VRB06KT 10SM BKN075 15/03 A3024 RMK AO2 SLP239 T01500033 53001=
202105100153 METAR KBFI 100153Z 32006KT 10SM SCT080 16/04 A3023 RMK AO2 SLP235 T01560039=
202105100053 METAR KBFI 100053Z 34009KT 10SM SCT050 16/04 A3023 RMK AO2 SLP237 T01610039=
202105092353 METAR KBFI 092353Z 31008KT 10SM SCT050 17/04 A3023 RMK AO2 SLP237 T01670044 10172 20128 56010=
202105092253 METAR KBFI 092253Z 29009G14KT 270V340 10SM CLR 17/04 A3024 RMK AO2 SLP241 T01670044=
202105092153 METAR KBFI 092153Z 30007KT 260V330 10SM BKN055 16/04 A3025 RMK AO2 SLP243 T01610044=
202105092053 METAR KBFI 092053Z 30007KT 260V320 10SM BKN055 16/06 A3026 RMK AO2 SLP247 T01560056 58008=
202105091953 METAR KBFI 091953Z 27005KT 10SM FEW029 BKN060 14/06 A3027 RMK AO2 SLP250 T01440061=
202105091853 METAR KBFI 091853Z VRB04KT 10SM FEW029 OVC055 14/06 A3028 RMK AO2 SLP253 T01390061=
202105091815 SPECI KBFI 091815Z VRB05KT 10SM BKN026 BKN055 13/07 A3029 RMK AO2 T01280067=
202105091753 METAR KBFI 091753Z VRB03KT 10SM SCT019 SCT026 BKN055 14/08 A3029 RMK AO2 SLP256 T01390078 10139 20094 58003=
202105091653 METAR KBFI 091653Z 35004KT 10SM BKN014 12/08 A3029 RMK AO2 SLP258 T01220078=
202105091553 METAR KBFI 091553Z 27003KT 10SM BKN014 11/08 A3029 RMK AO2 SLP258 T01110078=
202105091505 SPECI KBFI 091505Z 00000KT 10SM BKN010 BKN050 11/08 A3029 RMK AO2 T01060083=
202105091453 METAR KBFI 091453Z 00000KT 10SM BKN009 OVC024 11/08 A3030 RMK AO2 SLP259 T01060078 55000=
202105091353 METAR KBFI 091353Z 10003KT 10SM BKN009 OVC016 10/08 A3029 RMK AO2 SLP258 T01000078=
202105091253 METAR KBFI 091253Z 12003KT 10SM BKN005 BKN014 OVC020 09/08 A3029 RMK AO2 SLP258 T00940078=
202105091159 SPECI KBFI 091159Z 12004KT 10SM BKN005 BKN014 OVC020 09/08 A3030 RMK AO2 T00940083=
202105091153 METAR KBFI 091153Z 12004KT 10SM BKN012 OVC020 09/08 A3030 RMK AO2 SLP259 60000 T00940083 10111 20094 56004=
202105091151 SPECI KBFI 091151Z 12004KT 10SM BKN014 OVC020 09/08 A3030 RMK AO2=
202105091053 METAR KBFI 091053Z 11004KT 8SM BKN017 OVC023 09/08 A3031 RMK AO2 SLP262 T00940083=
202105090953 METAR KBFI 090953Z 12004KT 10SM OVC017 10/08 A3031 RMK AO2 SLP263 T01000078=
202105090950 SPECI KBFI 090950Z 12004KT 10SM OVC017 10/08 A3031 RMK AO2=
202105090931 SPECI KBFI 090931Z 12004KT 10SM OVC014 10/08 A3031 RMK AO2 T01000078=
202105090853 METAR KBFI 090853Z 16003KT 10SM BKN021 OVC027 11/07 A3031 RMK AO2 RAE0759 SLP263 P0000 60000 T01060072 56008=
202105090753 METAR KBFI 090753Z 00000KT 10SM -RA OVC024 11/08 A3032 RMK AO2 RAB30 SLP265 P0000 T01060078=
202105090653 METAR KBFI 090653Z 00000KT 10SM OVC027 11/07 A3032 RMK AO2 SLP266 T01060067 401440067=
202105090553 METAR KBFI 090553Z 19004KT 10SM OVC032 11/07 A3033 RMK AO2 SLP271 T01110067 10133 20111 58002=
202105090453 METAR KBFI 090453Z VRB03KT 10SM BKN033 OVC040 11/06 A3035 RMK AO2 SLP275 T01110061=
202105090353 METAR KBFI 090353Z 18005KT 10SM BKN040 OVC047 11/06 A3034 RMK AO2 SLP274 T01110061=
202105090253 METAR KBFI 090253Z 16004KT 10SM OVC048 12/06 A3034 RMK AO2 SLP273 T01170056 58003=
202105090153 METAR KBFI 090153Z 20004KT 10SM OVC060 12/06 A3035 RMK AO2 SLP276 T01220056=
202105090053 METAR KBFI 090053Z 19006KT 10SM OVC060 12/05 A3035 RMK AO2 SLP276 T01220050=
202105082353 METAR KBFI 082353Z 22006KT 10SM FEW043 BKN065 OVC075 13/04 A3035 RMK AO2 SLP276 T01330044 10144 20100 56006=
202105082253 METAR KBFI 082253Z VRB05KT 10SM BKN080 14/04 A3035 RMK AO2 SLP277 T01390039=
202105082153 METAR KBFI 082153Z 21007KT 10SM SCT045 BKN070 14/04 A3036 RMK AO2 SLP280 T01390039=
202105082053 METAR KBFI 082053Z 20012KT 10SM SCT045 BKN060 13/04 A3037 RMK AO2 SLP282 T01330039 58006=
202105081953 METAR KBFI 081953Z 17008KT 10SM FEW047 13/02 A3037 RMK AO2 SLP285 T01330022=
202105081853 METAR KBFI 081853Z 19004KT 10SM BKN049 11/02 A3038 RMK AO2 SLP288 T01110017=
202105081753 METAR KBFI 081753Z 00000KT 10SM SCT020 BKN040 11/04 A3038 RMK AO2 SLP288 T01060044 10106 20067 50000=
202105081653 METAR KBFI 081653Z 20005KT 10SM BKN018 09/04 A3039 RMK AO2 SLP291 T00890044=
202105081553 METAR KBFI 081553Z 15004KT 10SM OVC019 08/04 A3039 RMK AO2 SLP291 T00830044=
202105081453 METAR KBFI 081453Z 19005KT 10SM BKN015 OVC019 08/04 A3038 RMK AO2 SLP288 T00780039 53007=
202105081353 METAR KBFI 081353Z 15006KT 10SM BKN014 OVC017 08/04 A3037 RMK AO2 SLP283 T00780039=
202105081253 METAR KBFI 081253Z 15007KT 10SM OVC019 07/03 A3036 RMK AO2 SLP280 T00720033=
202105081153 METAR KBFI 081153Z AUTO 15007KT 10SM BKN024 OVC060 07/03 A3035 RMK AO2 SLP278 70001 T00670033 10100 20067 52001 TSNO=
202105081150 SPECI KBFI 081150Z AUTO 15007KT 10SM BKN024 OVC060 07/03 A3035 RMK AO2 TSNO=
202105081053 METAR KBFI 081053Z AUTO 15009KT 10SM FEW027 OVC055 07/03 A3035 RMK AO2 SLP276 T00720033 TSNO=
202105081042 SPECI KBFI 081042Z AUTO 15009KT 10SM SCT027 OVC055 07/03 A3035 RMK AO2 T00720033 TSNO=
202105081026 SPECI KBFI 081026Z AUTO 15008KT 10SM BKN027 OVC048 07/03 A3035 RMK AO2 T00720033 TSNO=
202105080953 METAR KBFI 080953Z 16008KT 10SM FEW027 SCT033 OVC050 08/03 A3035 RMK AO2 SLP276 T00780033=
202105080853 METAR KBFI 080853Z 15010KT 10SM SCT030 OVC045 08/03 A3034 RMK AO2 SLP274 T00780033 51006=
202105080806 SPECI KBFI 080806Z 17006KT 10SM BKN027 OVC065 08/04 A3034 RMK AO2 T00830039=
202105080753 METAR KBFI 080753Z 15007KT 10SM FEW028 SCT033 BKN060 08/03 A3034 RMK AO2 SLP273 T00830033=
202105080741 SPECI KBFI 080741Z 17007KT 10SM SCT028 BKN033 OVC060 08/03 A3034 RMK AO2 T00830033=
202105080653 METAR KBFI 080653Z 09006KT 10SM FEW023 OVC029 09/04 A3033 RMK AO2 SLP270 T00940044 401390078=
202105080553 METAR KBFI 080553Z 02005KT 10SM BKN031 OVC055 10/05 A3033 RMK AO2 RAB06E36 SLP268 P0000 60000 T01000050 10139 20100 51015=
202105080453 METAR KBFI 080453Z 12007KT 10SM BKN040 BKN047 OVC070 11/04 A3032 RMK AO2 SLP265 T01060044=
202105080353 METAR KBFI 080353Z 13007KT 10SM OVC060 11/04 A3030 RMK AO2 SLP260 T01110039=
202105080253 METAR KBFI 080253Z 00000KT 10SM BKN050 12/03 A3028 RMK AO2 SLP253 T01220028 53008=
202105080153 METAR KBFI 080153Z VRB03KT 10SM FEW060 SCT075 OVC095 13/03 A3027 RMK AO2 SLP249 T01280028=
202105080053 METAR KBFI 080053Z VRB04KT 10SM BKN085 13/03 A3026 RMK AO2 SLP247 T01280028=
202105072353 METAR KBFI 072353Z VRB04KT 10SM FEW060 BKN090 13/02 A3026 RMK AO2 SLP245 60001 T01330022 10139 20078 50002=
202105072253 METAR KBFI 072253Z VRB03KT 10SM SCT060 BKN090 13/03 A3026 RMK AO2 SLP247 T01280033=
202105072153 METAR KBFI 072153Z 07008KT 10SM SCT024 BKN039 12/04 A3026 RMK AO2 RAB2058E27 SLP247 P0000 T01170039=
202105072053 METAR KBFI 072053Z VRB03KT 10SM SCT030 BKN041 11/04 A3025 RMK AO2 SLP243 60001 T01110039 51009=
202105071953 METAR KBFI 071953Z 03005KT 10SM FEW009 SCT017 BKN040 11/06 A3025 RMK AO2 SLP242 T01110056=
202105071853 METAR KBFI 071853Z 04005KT 10SM SCT009 SCT013 BKN018 08/06 A3025 RMK AO2 RAE1758B26E48 SLP241 P0001 T00830061=
202105071753 METAR KBFI 071753Z 00000KT 9SM -RA SCT009 BKN018 OVC026 08/05 A3023 RMK AO2 RAB38 SLP234 P0000 60000 T00830050 10089 20078 53014=
202105071653 METAR KBFI 071653Z 19007KT 10SM SCT009 BKN018 08/04 A3021 RMK AO2 SLP229 T00830044=
202105071600 SPECI KBFI 071600Z 19008KT 10SM SCT009 BKN018 08/04 A3020 RMK AO2 T00830039=
202105071553 METAR KBFI 071553Z 20005KT 10SM SCT021 OVC029 08/04 A3019 RMK AO2 SLP224 T00830039=
202105071453 METAR KBFI 071453Z 21005KT 10SM SCT018 BKN025 08/04 A3018 RMK AO2 SLP221 T00830044 53011=
202105071353 METAR KBFI 071353Z 17006KT 10SM FEW030 BKN080 08/04 A3017 RMK AO2 SLP215 T00830039=
202105071302 SPECI KBFI 071302Z 19009KT 10SM BKN020 BKN090 08/04 A3016 RMK AO2 T00780039=
202105071253 METAR KBFI 071253Z 18007KT 10SM FEW075 BKN090 OVC110 08/04 A3016 RMK AO2 SLP212 T00780044=
202105071153 METAR KBFI 071153Z 17010KT 10SM FEW020 BKN120 08/04 A3015 RMK AO2 SLP210 T00830044 10100 20078 53007=
202105071053 METAR KBFI 071053Z 16008KT 10SM FEW015 SCT110 BKN250 08/05 A3014 RMK AO2 SLP206 T00830050=
202105070953 METAR KBFI 070953Z 17009KT 10SM FEW090 OVC110 09/04 A3013 RMK AO2 SLP201 T00890044=
202105070853 METAR KBFI 070853Z 19009KT 10SM FEW020 BKN080 09/04 A3013 RMK AO2 SLP202 T00890039 51010=
202105070753 METAR KBFI 070753Z 16007G17KT 10SM SCT025 09/05 A3012 RMK AO2 SLP199 T00890050=
202105070653 METAR KBFI 070653Z 16008KT 10SM SCT025 09/05 A3012 RMK AO2 SLP197 T00940050 401890089=
202105070553 METAR KBFI 070553Z 19007KT 160V230 10SM FEW025 10/04 A3010 RMK AO2 SLP192 T01000044 10150 20100 51019=
202105070453 METAR KBFI 070453Z 20007G14KT 10SM CLR 10/04 A3009 RMK AO2 SLP187 T01000044=
202105070353 METAR KBFI 070353Z 19010G18KT 10SM FEW030 11/04 A3006 RMK AO2 SLP179 T01110044=
202105070253 METAR KBFI 070253Z 23011G20KT 200V270 10SM FEW036 BKN050 12/06 A3004 RMK AO2 SLP173 T01220056 53011=
202105070153 METAR KBFI 070153Z 20008G18KT 10SM SCT038 BKN049 BKN060 14/08 A3002 RMK AO2 SLP167 T01390078=
202105070053 METAR KBFI 070053Z 22006KT 10SM BKN038 15/07 A3002 RMK AO2 SLP164 T01500072=
202105062353 METAR KBFI 062353Z 19011G15KT 10SM SCT024 BKN075 OVC110 14/08 A3001 RMK AO2 RAE06 SLP163 P0000 60000 T01390078 10189 20139 51020=
202105062253 METAR KBFI 062253Z 26010G18KT 10SM -RA SCT024 BKN032 OVC075 14/09 A3000 RMK AO2 RAB2158 SLP160 P0000 T01440089=
202105062153 METAR KBFI 062153Z 21010G20KT 10SM SCT040 OVC065 16/09 A2998 RMK AO2 PK WND 25026/2106 RAB26E47 SLP153 P0000 T01610089=
202105062053 METAR KBFI 062053Z 25010G22KT 210V280 10SM SCT065 BKN080 18/07 A2995 RMK AO2 SLP142 T01780072 53014=
202105061953 METAR KBFI 061953Z 19011KT 10SM SCT060 BKN120 17/07 A2994 RMK AO2 SLP137 T01670072=
202105061853 METAR KBFI 061853Z 17011KT 10SM SCT070 BKN250 16/08 A2992 RMK AO2 SLP133 T01610078=
202105061753 METAR KBFI 061753Z 21005KT 10SM SCT120 BKN180 15/08 A2991 RMK AO2 SLP129 60000 T01500078 10150 20133 53014=
202105061653 METAR KBFI 061653Z 21007G14KT 10SM BKN120 BKN200 14/07 A2990 RMK AO2 SLP123 T01440067=
202105061553 METAR KBFI 061553Z VRB06KT 10SM BKN120 OVC180 14/06 A2988 RMK AO2 SLP119 T01440061=
202105061453 METAR KBFI 061453Z 16009KT 10SM BKN080 OVC120 14/06 A2987 RMK AO2 SLP115 60000 T01390056 53014=
202105061353 METAR KBFI 061353Z 16009KT 10SM SCT120 OVC180 14/05 A2986 RMK AO2 SLP109 T01390050=
202105061253 METAR KBFI 061253Z 15011KT 10SM BKN110 OVC150 13/06 A2984 RMK AO2 RAB20E29 SLP104 P0000 T01330056=
202105061153 METAR KBFI 061153Z 15010KT 10SM CLR 13/06 A2983 RMK AO2 SLP100 T01330061 10139 20111 53004=
202105061053 METAR KBFI 061053Z 14008KT 10SM CLR 13/08 A2982 RMK AO2 SLP097 T01280078=
202105060953 METAR KBFI 060953Z 12003KT 10SM CLR 11/07 A2981 RMK AO2 SLP095 T01110072=
202105060853 METAR KBFI 060853Z 00000KT 10SM CLR 12/08 A2982 RMK AO2 SLP096 T01170078 56008=
202105060753 METAR KBFI 060753Z 00000KT 10SM CLR 13/08 A2983 RMK AO2 SLP099 T01280078=
202105060653 METAR KBFI 060653Z 00000KT 10SM CLR 13/07 A2983 RMK AO2 SLP101 T01330072 402000078=
202105060553 METAR KBFI 060553Z 00000KT 10SM CLR 14/07 A2984 RMK AO2 SLP105 T01390072 10189 20139 58001=
202105060453 METAR KBFI 060453Z 32004KT 10SM CLR 14/07 A2985 RMK AO2 SLP107 T01440072=
202105060353 METAR KBFI 060353Z 33004KT 10SM CLR 15/08 A2985 RMK AO2 SLP106 T01500078=
202105060253 METAR KBFI 060253Z 33007KT 10SM CLR 16/08 A2985 RMK AO2 SLP106 T01610078 56019=
202105060153 METAR KBFI 060153Z 31005KT 10SM CLR 17/08 A2986 RMK AO2 SLP110 T01720083=
202105060053 METAR KBFI 060053Z VRB06KT 10SM CLR 18/08 A2988 RMK AO2 SLP119 T01830083=
202105052353 METAR KBFI 052353Z 31005KT 10SM CLR 19/07 A2990 RMK AO2 SLP125 T01890072 10200 20139 58022=
202105052253 METAR KBFI 052253Z 32010G15KT 10SM CLR 18/07 A2993 RMK AO2 SLP136 T01830067=
202105052153 METAR KBFI 052153Z 33007KT 10SM CLR 18/06 A2995 RMK AO2 SLP143 T01780061=
202105052053 METAR KBFI 052053Z 31005KT 10SM BKN200 17/07 A2997 RMK AO2 SLP147 T01720072 58033=
202105051953 METAR KBFI 051953Z VRB05KT 10SM CLR 17/07 A3001 RMK AO2 SLP161 T01670067=
202105051853 METAR KBFI 051853Z VRB04KT 10SM BKN200 16/07 A3004 RMK AO2 SLP173 T01610072=
202105051753 METAR KBFI 051753Z VRB04KT 10SM FEW070 SCT200 14/07 A3006 RMK AO2 SLP180 T01390072 10139 20078 56017=
202105051653 METAR KBFI 051653Z 33004KT 10SM BKN250 13/05 A3008 RMK AO2 SLP185 T01280050=
202105051553 METAR KBFI 051553Z VRB03KT 10SM CLR 11/05 A3010 RMK AO2 SLP192 T01110050=
202105051453 METAR KBFI 051453Z 00000KT 10SM BKN250 09/06 A3012 RMK AO2 SLP197 T00940056 58009=
202105051353 METAR KBFI 051353Z VRB03KT 10SM FEW015 SCT200 09/06 A3013 RMK AO2 SLP202 T00890056=
202105051253 METAR KBFI 051253Z VRB04KT 10SM FEW015 SCT200 08/05 A3013 RMK AO2 SLP204 T00780050=
202105051153 METAR KBFI 051153Z VRB04KT 10SM CLR 08/06 A3014 RMK AO2 SLP206 T00830056 10111 20083 58019=
202105051053 METAR KBFI 051053Z 00000KT 10SM CLR 08/06 A3016 RMK AO2 SLP213 T00830056=
202105050953 METAR KBFI 050953Z VRB03KT 10SM CLR 09/05 A3019 RMK AO2 SLP222 T00890050=
202105050853 METAR KBFI 050853Z 33003KT 10SM CLR 09/06 A3020 RMK AO2 SLP225 T00940056 56010=
202105050753 METAR KBFI 050753Z VRB03KT 10SM CLR 10/06 A3021 RMK AO2 SLP228 T01000056=
202105050653 METAR KBFI 050653Z VRB04KT 10SM CLR 11/06 A3021 RMK AO2 SLP230 T01060056 401720100=
202105050553 METAR KBFI 050553Z 34003KT 10SM CLR 11/06 A3023 RMK AO2 SLP235 T01110056 10172 20111 53004=
202105050453 METAR KBFI 050453Z 00000KT 10SM CLR 12/06 A3021 RMK AO2 SLP231 T01170056=
202105050353 METAR KBFI 050353Z VRB03KT 10SM CLR 13/06 A3021 RMK AO2 SLP229 T01280056=
202105050253 METAR KBFI 050253Z 29009KT 10SM FEW080 BKN250 14/06 A3022 RMK AO2 SLP231 T01390061 55003=
202105050153 METAR KBFI 050153Z VRB05G15KT 10SM CLR 16/06 A3021 RMK AO2 SLP228 T01610061=
202105050053 METAR KBFI 050053Z 30006KT 10SM CLR 17/05 A3022 RMK AO2 SLP231 T01670050=
202105042353 METAR KBFI 042353Z AUTO 10SM CLR 17/06 A3023 RMK AO2 SLP235 T01720056 10172 20122 58013 TSNO=
202105042253 METAR KBFI 042253Z VRB05KT 10SM SCT045 17/06 A3024 RMK AO2 SLP239 T01670061=
202105042153 METAR KBFI 042153Z 15003KT 10SM FEW048 15/07 A3026 RMK AO2 SLP246 T01500067=
202105042053 METAR KBFI 042053Z VRB04KT 10SM SCT034 OVC045 14/07 A3026 RMK AO2 SLP248 T01440067 58002=
202105041953 METAR KBFI 041953Z 05005KT 10SM SCT029 SCT035 BKN048 15/07 A3027 RMK AO2 SLP249 T01500067=
202105041853 METAR KBFI 041853Z 36004KT 10SM BKN027 BKN048 13/06 A3028 RMK AO2 SLP252 T01330061=
202105041753 METAR KBFI 041753Z 00000KT 10SM OVC023 12/07 A3027 RMK AO2 SLP250 T01220067 10128 20100 51003=
202105041653 METAR KBFI 041653Z VRB04KT 10SM OVC016 12/07 A3027 RMK AO2 SLP250 T01220072=
202105041553 METAR KBFI 041553Z VRB03KT 10SM SCT009 OVC016 11/07 A3027 RMK AO2 SLP249 T01110072=
202105041453 METAR KBFI 041453Z 00000KT 10SM SCT009 BKN016 BKN025 10/07 A3026 RMK AO2 SLP247 T01000072 52012=
202105041402 SPECI KBFI 041402Z VRB04KT 10SM BKN009 OVC025 10/08 A3025 RMK AO2 T01000078=
202105041353 METAR KBFI 041353Z 34004KT 10SM BKN012 OVC023 10/08 A3024 RMK AO2 SLP240 T01000078=
202105041350 SPECI KBFI 041350Z 34004KT 10SM BKN012 OVC023 10/08 A3024 RMK AO2=
202105041253 METAR KBFI 041253Z 10SM OVC009 11/09 A3022 RMK AO2 SLP234 T01060089=
202105041202 SPECI KBFI 041202Z 30004KT 10SM OVC009 11/09 A3021 RMK AO2 T01060089=
202105041153 METAR KBFI 041153Z 30006KT 10SM OVC010 11/09 A3021 RMK AO2 SLP228 60000 70008 T01060089 10122 20106 51009=
202105041141 SPECI KBFI 041141Z VRB04KT 10SM OVC010 11/09 A3021 RMK AO2 CIG 007V014 T01110094=
202105041053 METAR KBFI 041053Z 31003KT 10SM OVC008 11/10 A3020 RMK AO2 RAE01 CIG 006V010 SLP227 P0000 T01110100=
202105040953 METAR KBFI 040953Z VRB03KT 5SM -RA BR BKN008 BKN018 OVC023 12/11 A3019 RMK AO2 RAB0855E08B45 SLP223 P0000 T01170106=
202105040853 METAR KBFI 040853Z 00000KT 10SM BKN008 BKN018 OVC023 12/11 A3018 RMK AO2 SLP219 T01170106 52002=
202105040848 SPECI KBFI 040848Z 00000KT 10SM FEW008 BKN018 OVC023 12/11 A3018 RMK AO2=
202105040815 SPECI KBFI 040815Z 23003KT 10SM BKN008 BKN012 OVC024 12/11 A3018 RMK AO2 T01170106=
202105040809 SPECI KBFI 040809Z 19003KT 10SM BKN010 OVC023 12/11 A3018 RMK AO2 CIG 008V013 T01170106=
202105040753 METAR KBFI 040753Z 18004KT 10SM FEW009 SCT012 OVC022 12/11 A3017 RMK AO2 SLP217 T01170106=
202105040723 SPECI KBFI 040723Z 20004KT 10SM SCT009 OVC023 12/11 A3017 RMK AO2 T01170106=
202105040653 METAR KBFI 040653Z 18003KT 10SM BKN009 OVC021 12/11 A3017 RMK AO2 SLP217 T01220106 401440078=
202105040553 METAR KBFI 040553Z 16004KT 4SM BR BKN009 OVC020 12/11 A3017 RMK AO2 CIG 007V012 SLP215 60000 T01220111 10128 20117 51003=
202105040453 METAR KBFI 040453Z 18003KT 4SM BR SCT005 OVC009 12/11 A3017 RMK AO2 RAB37E48 SLP215 P0000 T01170111=
202105040436 SPECI KBFI 040436Z 17005KT 3SM BR SCT005 BKN009 OVC013 12/11 A3017 RMK AO2 T01220111=
202105040353 METAR KBFI 040353Z 16005KT 3SM BR SCT008 BKN015 OVC023 12/11 A3016 RMK AO2 SLP213 T01220111=
202105040253 METAR KBFI 040253Z 14003KT 9SM SCT011 OVC015 12/11 A3016 RMK AO2 RAE0159 SLP212 P0000 60000 T01220106 56005=
202105040153 METAR KBFI 040153Z 16007KT 10SM -RA SCT016 OVC027 13/11 A3016 RMK AO2 SLP213 P0000 T01280106=
202105040053 METAR KBFI 040053Z 16009KT 10SM -RA BKN012 BKN016 OVC024 12/11 A3017 RMK AO2 RAE12B32 SLP215 P0000 T01220106=
202105032353 METAR KBFI 032353Z 15007KT 7SM -RA SCT026 OVC055 12/10 A3017 RMK AO2 SLP217 P0004 60008 T01220100 10144 20117 58002=
202105032253 METAR KBFI 032253Z 16006KT 6SM -RA BR OVC060 12/09 A3018 RMK AO2 SLP218 P0004 T01170094=
202105032153 METAR KBFI 032153Z 20005KT 10SM -RA SCT028 OVC045 13/08 A3018 RMK AO2 RAB31 SLP219 P0000 T01280078=
202105032053 METAR KBFI 032053Z 18009KT 160V230 10SM BKN031 14/07 A3018 RMK AO2 SLP218 T01390072 58006=
202105031953 METAR KBFI 031953Z 19011KT 10SM BKN028 OVC049 14/07 A3018 RMK AO2 SLP219 T01390067=
202105031853 METAR KBFI 031853Z 16009KT 10SM BKN028 OVC049 13/07 A3020 RMK AO2 SLP224 T01280067=
202105031753 METAR KBFI 031753Z 18006KT 10SM SCT023 OVC026 12/06 A3020 RMK AO2 SLP225 T01220061 10122 20078 55005=
202105031653 METAR KBFI 031653Z 20005KT 10SM OVC028 11/06 A3019 RMK AO2 SLP223 T01110056=
202105031618 SPECI KBFI 031618Z 16008KT 10SM BKN025 BKN080 OVC100 11/06 A3020 RMK AO2 T01110056=
202105031553 METAR KBFI 031553Z 14009KT 10SM FEW075 OVC100 11/05 A3020 RMK AO2 SLP226 T01110050=
202105031453 METAR KBFI 031453Z 14008KT 10SM OVC110 09/04 A3021 RMK AO2 SLP230 T00940044 53004=
202105031353 METAR KBFI 031353Z AUTO 18007KT 10SM OVC110 08/04 A3020 RMK AO2 SLP227 T00830039 TSNO=
202105031253 METAR KBFI 031253Z 15008KT 10SM FEW110 08/04 A3020 RMK AO2 SLP224 T00780044=
202105031153 METAR KBFI 031153Z 15007KT 10SM CLR 08/05 A3020 RMK AO2 SLP226 T00830050 10117 20083 50001=
202105031053 METAR KBFI 031053Z 17004KT 10SM SCT120 09/05 A3021 RMK AO2 SLP228 T00890050=
202105030953 METAR KBFI 030953Z 17003KT 10SM CLR 09/05 A3019 RMK AO2 SLP224 T00890050=
202105030853 METAR KBFI 030853Z 00000KT 10SM CLR 09/06 A3020 RMK AO2 SLP225 T00890056 51005=
202105030753 METAR KBFI 030753Z 00000KT 10SM FEW065 10/06 A3020 RMK AO2 SLP225 T01000056 401670067=
202105030653 METAR KBFI 030653Z 00000KT 10SM CLR 11/06 A3019 RMK AO2 SLP223 T01060056=
202105030553 METAR KBFI 030553Z 30004KT 10SM FEW065 12/06 A3018 RMK AO2 SLP220 T01170056 10167 20117 50006=
202105030453 METAR KBFI 030453Z 30004KT 10SM OVC070 13/03 A3018 RMK AO2 SLP221 T01330028=
202105030353 METAR KBFI 030353Z 30003KT 10SM OVC070 14/02 A3017 RMK AO2 SLP216 T01390022=
202105030253 METAR KBFI 030253Z 08003KT 10SM CLR 16/02 A3016 RMK AO2 SLP214 T01560017 56007=
202105030153 METAR KBFI 030153Z 12005KT 10SM SCT048 16/02 A3017 RMK AO2 SLP216 T01610022=
202105030053 METAR KBFI 030053Z 00000KT 10SM FEW040 SCT050 16/03 A3017 RMK AO2 SLP217 T01610033=
202105022353 METAR KBFI 022353Z 00000KT 10SM SCT055 15/03 A3019 RMK AO2 SLP222 T01500028 10167 20111 56016=
202105022253 METAR KBFI 022253Z 06005KT 10SM SCT055 16/03 A3020 RMK AO2 SLP227 T01610033=
202105022153 METAR KBFI 022153Z 06005KT 10SM BKN047 15/03 A3022 RMK AO2 SLP231 T01500033=
202105022053 METAR KBFI 022053Z 00000KT 10SM BKN046 15/04 A3023 RMK AO2 SLP238 T01500039 58004=
202105021953 METAR KBFI 021953Z 00000KT 10SM BKN045 13/03 A3024 RMK AO2 SLP241 T01280033=
202105021853 METAR KBFI 021853Z 10003KT 10SM BKN039 12/04 A3025 RMK AO2 SLP244 T01220039=
202105021753 METAR KBFI 021753Z 33003KT 10SM BKN036 OVC045 11/04 A3025 RMK AO2 SLP242 T01110039 10117 20067 55000=
202105021653 METAR KBFI 021653Z VRB03KT 10SM BKN045 11/04 A3024 RMK AO2 SLP240 T01110039=
202105021553 METAR KBFI 021553Z 00000KT 10SM SCT034 SCT055 10/04 A3025 RMK AO2 SLP242 T01000039=
202105021453 METAR KBFI 021453Z 11004KT 10SM SCT055 09/04 A3025 RMK AO2 SLP242 T00890044 53008=
202105021353 METAR KBFI 021353Z 00000KT 10SM BKN038 08/04 A3024 RMK AO2 SLP239 T00830039=
202105021253 METAR KBFI 021253Z 00000KT 10SM BKN035 08/04 A3022 RMK AO2 SLP234 T00830039=
202105021153 METAR KBFI 021153Z 00000KT 10SM BKN031 09/04 A3022 RMK AO2 SLP234 60001 70001 T00890039 10111 20083 51007=
202105021053 METAR KBFI 021053Z 09006KT 10SM BKN033 OVC055 09/04 A3022 RMK AO2 SLP233 T00890039=
202105020953 METAR KBFI 020953Z AUTO VRB05KT 10SM FEW041 OVC055 09/04 A3021 RMK AO2 SLP231 T00890044 TSNO=
202105020853 METAR KBFI 020853Z AUTO 08005KT 10SM SCT039 OVC055 09/05 A3020 RMK AO2 SLP227 60001 T00940050 52009 TSNO=
202105020753 METAR KBFI 020753Z 08003KT 10SM OVC042 09/07 A3020 RMK AO2 RAE09 SLP224 P0000 T00940067 401500089=
202105020653 METAR KBFI 020653Z 11006KT 9SM -RA OVC040 09/06 A3019 RMK AO2 RAB23 SLP221 P0001 T00940061=
202105020553 METAR KBFI 020553Z 07006KT 10SM OVC038 11/05 A3018 RMK AO2 SLP218 60000 T01110050 10150 20111 53021=
202105020453 METAR KBFI 020453Z 00000KT 10SM OVC033 12/04 A3015 RMK AO2 SLP211 T01220044=
202105020353 METAR KBFI 020353Z VRB03KT 10SM OVC031 13/05 A3013 RMK AO2 SLP202 T01280050=
202105020253 METAR KBFI 020253Z VRB04KT 10SM OVC038 13/07 A3011 RMK AO2 SLP197 60000 T01280067 53004=
202105020153 METAR KBFI 020153Z VRB03KT 10SM SCT041 BKN048 BKN055 13/07 A3011 RMK AO2 SLP194 T01330072=
202105020053 METAR KBFI 020053Z 05006KT 10SM FEW045 SCT060 BKN075 14/07 A3010 RMK AO2 RAE06B27E41 SLP192 P0000 T01440067=
202105012353 METAR KBFI 012353Z VRB05KT 9SM -RA BKN048 OVC065 13/08 A3010 RMK AO2 RAB41 SLP193 P0000 60000 T01330078 10150 20111 58008=
202105012253 METAR KBFI 012253Z 00000KT 10SM BKN041 BKN060 OVC075 15/06 A3011 RMK AO2 SLP196 T01500061=
202105012153 METAR KBFI 012153Z VRB03KT 10SM SCT032 BKN041 BKN050 14/06 A3012 RMK AO2 SLP199 T01440056=
202105012053 METAR KBFI 012053Z 07003KT 10SM FEW030 BKN038 BKN047 14/06 A3013 RMK AO2 SLP201 T01390061 58007=
202105011953 METAR KBFI 011953Z 00000KT 10SM BKN027 OVC030 13/07 A3014 RMK AO2 SLP206 T01280067=
202105011853 METAR KBFI 011853Z 00000KT 10SM BKN025 OVC037 12/06 A3015 RMK AO2 SLP207 T01220061=
202105011753 METAR KBFI 011753Z 24005KT 10SM SCT019 BKN030 OVC039 12/07 A3015 RMK AO2 SLP208 60000 T01170072 10117 20089 53003=
202105011706 SPECI KBFI 011706Z 23006KT 10SM BKN019 OVC030 11/07 A3014 RMK AO2 T01060072=
202105011653 METAR KBFI 011653Z 23006KT 10SM SCT019 OVC028 11/07 A3014 RMK AO2 SLP206 T01060072=
202105011553 METAR KBFI 011553Z 16006KT 10SM BKN013 BKN023 11/08 A3014 RMK AO2 SLP207 T01060078=
202105011505 SPECI KBFI 011505Z 15009KT 10SM BKN008 OVC021 09/08 A3014 RMK AO2 T00940078=
202105011453 METAR KBFI 011453Z 16009KT 6SM BR BKN010 OVC021 09/08 A3014 RMK AO2 CIG 007V014 SLP205 60000 T00940083 51004=
202105011407 SPECI KBFI 011407Z 16005KT 2 1/2SM BR BKN006 OVC013 09/08 A3014 RMK AO2 T00940083=
202105011400 SPECI KBFI 011400Z 15005KT 8SM BKN008 OVC013 09/08 A3013 RMK AO2 T00940083=
202105011353 METAR KBFI 011353Z 15005KT 2 1/2SM BR BKN006 BKN013 09/08 A3013 RMK AO2 RAB21E30 SLP204 P0000 T00940083=
202105011321 SPECI KBFI 011321Z 15008KT 2 1/2SM -RA BR SCT006 BKN017 OVC034 09/08 A3013 RMK AO2 RAB21 P0000 T00890078=
202105011253 METAR KBFI 011253Z 15005KT 10SM OVC019 10/07 A3013 RMK AO2 SLP203 T01000072=
202105011153 METAR KBFI 011153Z 12004KT 9SM OVC024 10/07 A3013 RMK AO2 SLP201 60000 70003 T01000072 10128 20100 53002=
202105011053 METAR KBFI 011053Z 00000KT 10SM OVC022 10/07 A3012 RMK AO2 RAB22E25 SLP199 P0000 T01000067=
202105010953 METAR KBFI 010953Z VRB04KT 10SM OVC017 11/07 A3012 RMK AO2 SLP199 T01110067=
202105010853 METAR KBFI 010853Z 04006KT 10SM OVC017 11/07 A3012 RMK AO2 SLP199 T01110072 50002=
202105010753 METAR KBFI 010753Z 00000KT 10SM OVC015 12/09 A3012 RMK AO2 SLP201 T01170089 401830106=
202105010653 METAR KBFI 010653Z 19003KT 10SM OVC018 12/09 A3012 RMK AO2 SLP198 T01220089=
202105010553 METAR KBFI 010553Z 25003KT 10SM CLR 13/09 A3011 RMK AO2 SLP197 T01280089 10183 20122 51006=
202105010453 METAR KBFI 010453Z 00000KT 10SM CLR 13/09 A3011 RMK AO2 SLP197 T01280089=
202105010353 METAR KBFI 010353Z 27004KT 10SM CLR 15/08 A3010 RMK AO2 SLP192 T01500083=
202105010253 METAR KBFI 010253Z 21007KT 10SM SCT030 16/09 A3010 RMK AO2 SLP190 T01610089 56016=
202105010153 METAR KBFI 010153Z 20010KT 10SM SCT027 17/09 A3011 RMK AO2 SLP195 T01720089=
202105010053 METAR KBFI 010053Z 18008KT 10SM SCT027 18/10 A3012 RMK AO2 SLP198 T01780100=

# No short TAF reports from KBFI in databse.

###################################
#  large TAF from KBFI
###################################
202105312320 TAF KBFI 312320Z 0100/0124 32007G19KT P6SM SCT140 BKN250 FM010300
                       36003KT P6SM SCT250 FM011800 32006KT P6SM
                       SKC=
202105311720 TAF KBFI 311720Z 3118/0118 29004KT P6SM BKN250 FM010300 36003KT
                       P6SM SCT250=
202105311125 TAF KBFI 311125Z 3112/0112 00000KT P6SM BKN250 FM311700 31006KT
                       P6SM BKN250 FM010300 00000KT P6SM SCT250=
202105310520 TAF KBFI 310520Z 3106/0106 00000KT P6SM FEW100 SCT250 FM311200
                       00000KT P6SM BKN250 FM311700 31006KT P6SM
                       BKN250 FM010300 34003KT P6SM SCT250=
202105302328 TAF KBFI 302328Z 3100/3124 30008KT P6SM BKN120 OVC200 FM310400
                       31004KT P6SM SCT120 BKN200 FM310900 00000KT
                       P6SM SCT120 BKN250 FM311700 31006KT P6SM
                       SCT250=
202105301720 TAF KBFI 301720Z 3018/3118 30005KT P6SM FEW120 OVC200 FM302300
                       30006KT P6SM BKN120 OVC200 FM310400 00000KT
                       P6SM BKN100 OVC200 FM310900 00000KT P6SM
                       SCT120 BKN250 FM311700 31005KT P6SM SCT250=
202105301120 TAF KBFI 301120Z 3012/3112 00000KT P6SM BKN250 FM301700 30005KT
                       P6SM FEW120 OVC200 FM302300 30006KT P6SM
                       BKN120 OVC200 FM310400 00000KT P6SM BKN100
                       OVC200 FM310900 00000KT P6SM SCT120 BKN250=
202105300529 TAF KBFI 300529Z 3006/3106 00000KT P6SM BKN250 FM301700 30005KT
                       P6SM FEW120 OVC200 FM302300 30006KT P6SM
                       BKN120 OVC200 FM310400 00000KT P6SM BKN100
                       OVC200=
202105292320 TAF KBFI 292320Z 3000/3024 31007KT P6SM SCT250 FM300400 VRB03KT
                       P6SM BKN250 FM301700 30005KT P6SM FEW120
                       OVC200 FM302300 30006KT P6SM BKN120 OVC200=
202105291720 TAF KBFI 291720Z 2918/3018 VRB04KT P6SM SCT250 FM292100 31007KT
                       P6SM BKN250 FM300500 00000KT P6SM BKN250
                       FM301700 30005KT P6SM BKN200=
202105291121 TAF KBFI 291121Z 2912/3012 00000KT P6SM SCT250 FM292100 31007KT
                       P6SM BKN250 FM300500 00000KT P6SM BKN250=
202105290521 TAF KBFI 290521Z 2906/3006 00000KT P6SM SKC FM292100 31007KT P6SM
                       SCT250 FM300500 00000KT P6SM SKC=
202105282321 TAF KBFI 282321Z 2900/2924 31007KT P6SM BKN060 FM290500 35002KT
                       P6SM SKC FM291200 03002KT P6SM BKN250 FM291500
                       36001KT P6SM BKN250=
202105282051 KBFI 282051Z 2821/2918 25004KT P6SM FEW030 BKN050 FM282300 28004KT
                       P6SM SCT070 FM290500 00000KT P6SM SKC FM291200
                       32002KT P6SM BKN250=
202105281721 TAF KBFI 281721Z 2818/2918 22003KT P6SM FEW020 BKN025 OVC030 FM282000
                       25004KT P6SM SCT020 BKN040 FM282300 28004KT
                       P6SM SCT070 FM290500 00000KT P6SM SKC FM291200
                       32002KT P6SM BKN250=
202105281455 KBFI 281455Z 2815/2912 20004KT P6SM BKN017 OVC024 FM281800 19007KT
                       P6SM SCT020 BKN040 FM282200 27004KT P6SM
                       BKN070 FM290200 33004KT P6SM SCT070 FM290500
                       00000KT P6SM SKC=
202105281121 TAF KBFI 281121Z 2812/2912 19008KT P6SM BKN017 OVC100 FM281800
                       19007KT P6SM SCT020 BKN040 FM282200 27004KT
                       P6SM BKN070 FM290200 33004KT P6SM SCT070
                       FM290500 00000KT P6SM SKC=
202105280525 TAF KBFI 280525Z 2806/2906 20012KT P6SM VCSH SCT015 BKN060
                      TEMPO 2806/2809 -SHRA BKN015 BKN060 FM280900
                       16010KT P6SM OVC025 FM281800 19007KT P6SM
                       SCT020 BKN040 FM282200 27004KT P6SM BKN070
                       FM290200 33004KT P6SM SCT070=
202105272357 TAF KBFI 272357Z 2800/2824 20012G25KT P6SM -SHRA SCT040 BKN050
                       FM280300 18012KT P6SM VCSH SCT030 OVC040
                       FM280900 16010KT P6SM OVC035 FM281200 16008KT
                       P6SM SCT015 OVC020 FM281800 19007KT P6SM
                       SCT020 BKN030 FM282200 27004KT P6SM BKN070=
202105271749 TAF KBFI 271749Z 2718/2818 24010KT P6SM BKN030 OVC040
                      TEMPO 2718/2720 2SM -RA BR BKN015 OVC030
                       FM272000 24016G22KT P6SM SCT025 OVC045 FM280300
                       17012KT P6SM SCT025 OVC040 FM280700 16010KT
                       P6SM OVC025=
202105271656 KBFI 271656Z 2717/2812 24010KT P6SM BKN030 OVC040
                      TEMPO 2717/2719 2SM -RA BR SCT020 OVC030
                       FM271900 24016G22KT P6SM -SHRA SCT025 OVC045
                       FM280300 17012KT P6SM SCT025 OVC040 FM280700
                       16010KT P6SM OVC025=
202105271122 TAF KBFI 271122Z 2712/2812 16007KT P6SM -RA OVC060 FM271400 16012KT
                       P6SM -RA SCT020 OVC030 FM271900 17016G22KT
                       P6SM -SHRA SCT025 OVC045 FM280300 17012KT
                       P6SM SCT025 OVC040 FM280700 16010KT P6SM
                       OVC025=
202105270524 TAF KBFI 270524Z 2706/2806 16003KT P6SM OVC150 FM271000 15006KT
                       P6SM -RA OVC045 FM271400 16012KT P6SM -RA
                       SCT020 OVC030 FM271900 17016G22KT P6SM -SHRA
                       SCT025 OVC045 FM280300 17012KT P6SM SCT025
                       OVC040=
202105262329 TAF KBFI 262329Z 2700/2724 19008KT P6SM OVC200 FM270700 15006KT
                       P6SM OVC100 FM271000 15006KT P6SM -RA OVC045
                       FM271400 16012KT P6SM -RA SCT020 OVC030
                       FM271900 17016G22KT P6SM -SHRA SCT030 OVC050=
202105261748 TAF KBFI 261748Z 2618/2718 17008KT P6SM SCT030 OVC050 FM262100
                       17008KT P6SM SCT120 OVC200 FM270700 15006KT
                       P6SM OVC100 FM271000 15006KT P6SM -RA OVC045
                       FM271400 16012KT P6SM -RA SCT020 OVC030=
202105261512 KBFI 261512Z 2615/2712 17008KT P6SM SCT025 OVC045 FM262100 17008KT
                       P6SM SCT120 OVC200 FM270700 15006KT P6SM
                       OVC100 FM271000 15006KT P6SM -RA OVC045=
202105261132 TAF KBFI 261132Z 2612/2712 17008KT P6SM SCT025 OVC045
                      TEMPO 2615/2618 BKN025 OVC045 FM262100 17008KT
                       P6SM SCT120 OVC200 FM270700 15006KT P6SM
                       OVC100 FM271000 15006KT P6SM -RA OVC045=
202105260911 KBFI 260911Z 2609/2706 18008KT P6SM OVC050 FM261300 18008KT P6SM
                       OVC025 FM261900 18008KT P6SM SCT120 OVC200=
202105260539 TAF KBFI 260539Z 2606/2706 18008KT P6SM SCT050 FM260900 18008KT
                       P6SM OVC025 FM261900 18008KT P6SM SCT120
                       OVC200=
202105252320 TAF KBFI 252320Z 2600/2624 23006KT P6SM SCT025 BKN040 FM260900
                       19006KT P6SM OVC025 FM261900 20006KT P6SM
                       SCT035 BKN120 BKN200 FM262300 22005KT P6SM
                       SCT120 OVC200=
202105251730 TAF KBFI 251730Z 2518/2618 18009KT P6SM VCSH BKN020 OVC045
                      TEMPO 2519/2521 SCT025 BKN045 FM252100 20006KT
                       P6SM SCT028 BKN045 FM260100 19006KT P6SM
                       SCT035 BKN050 FM260900 19006KT P6SM OVC028=
202105251120 TAF KBFI 251120Z 2512/2612 22003KT P6SM BKN030 BKN040 OVC060 FM251800
                       23006KT P6SM SCT025 BKN040 FM260900 19006KT
                       P6SM OVC025=
202105250909 KBFI 250909Z 2509/2606 00000KT P6SM FEW020 BKN045 OVC070 FM251200
                       20005KT P6SM BKN020 BKN045 FM251800 23006KT
                       P6SM SCT025 BKN040=
202105250532 TAF KBFI 250532Z 2506/2606 19004KT P6SM VCSH SCT030 BKN060 BKN200
                       FM250700 20003KT P6SM OVC025 FM251200 20005KT
                       P6SM OVC015 FM251800 23006KT P6SM SCT025
                       BKN040=
202105250302 KBFI 250302Z 2503/2524 19005KT P6SM VCSH SCT025 BKN035 FM250900
                       19005KT P6SM OVC020 FM251200 16003KT P6SM
                       OVC010 FM251600 18005KT P6SM OVC015=
202105242320 TAF KBFI 242320Z 2500/2524 22007KT P6SM FEW020 BKN029 FM250200
                       21008KT P6SM VCSH OVC015 FM250900 19005KT
                       P6SM OVC020 FM251200 16003KT P6SM OVC010
                       FM251600 18005KT P6SM OVC015=
202105242050 KBFI 242050Z 2421/2518 17009KT P6SM OVC014 FM250200 21008KT P6SM
                       VCSH OVC015 FM250900 19005KT P6SM OVC020
                       FM251200 16003KT P6SM OVC015=
202105241721 TAF KBFI 241721Z 2418/2518 16008KT P6SM -RA BKN013 OVC020 FM242000
                       20007KT P6SM -SHRA OVC020 FM250200 21008KT
                       P6SM VCSH OVC015 FM250900 19005KT P6SM OVC020
                       FM251200 18003KT P6SM OVC015=
202105241453 KBFI 241453Z 2415/2512 17008KT P6SM VCSH BKN015 OVC022 FM241800
                       18008KT 6SM -RA OVC020 FM242000 20007KT
                       P6SM -SHRA BKN025 OVC030 FM250200 21008KT
                       P6SM VCSH OVC020 FM250900 19005KT P6SM OVC020=
202105241120 TAF KBFI 241120Z 2412/2512 17008KT P6SM -RA OVC020 FM242000 20007KT
                       P6SM -SHRA BKN025 OVC030 FM250200 21008KT
                       P6SM VCSH OVC020 FM250900 19005KT P6SM OVC020=
202105240520 TAF KBFI 240520Z 2406/2506 20010KT P6SM VCSH OVC026 FM241200 17007KT
                       P6SM -RA OVC015 FM241600 18006KT 6SM -RA
                       BR OVC015 FM242000 19006KT P6SM -SHRA OVC015
                       FM250000 20007KT P6SM VCSH OVC020=
202105232322 TAF KBFI 232322Z 2400/2424 22010G20KT P6SM BKN030 BKN040 FM240300
                       19011KT P6SM OVC035 FM240600 17009KT P6SM
                       VCSH OVC020 FM241200 17007KT P6SM -RA OVC015
                       FM241600 18006KT 6SM -RA BR OVC015 FM242000
                       19006KT P6SM OVC015=
202105232054 KBFI 232054Z 2321/2418 19010KT P6SM BKN014 OVC022 FM240000 18009KT
                       P6SM OVC035 FM240600 17009KT P6SM VCSH OVC020
                       FM241200 17007KT P6SM -RA OVC015 FM241600
                       18006KT 6SM -RA BR OVC015=
202105231812 KBFI 231812Z 2318/2418 19006KT 6SM BR OVC010
                      TEMPO 2318/2319 3SM BR FM232100 19010KT P6SM
                       OVC020 FM240000 21009KT P6SM OVC035 FM240600
                       19009KT P6SM VCSH OVC020 FM241200 17007KT
                       P6SM -RA OVC015=
202105231720 TAF KBFI 231720Z 2318/2418 17006KT 3SM BR OVC005 FM232100 19010KT
                       P6SM OVC035 FM240000 21009KT P6SM OVC035
                       FM240600 19009KT P6SM VCSH OVC020 FM241200
                       17007KT P6SM -RA OVC015=
202105231558 KBFI 231558Z 2316/2412 16006KT 3SM BR OVC005 FM231700 21006KT 6SM
                       BR OVC010 FM232100 19010KT P6SM OVC035 FM240000
                       21009KT P6SM OVC035 FM240600 19009KT P6SM
                       VCSH OVC025=
202105231455 KBFI 231455Z 2315/2412 16009KT P6SM OVC014 FM231700 21006KT P6SM
                       OVC022 FM232100 19010KT P6SM OVC035 FM240000
                       21009KT P6SM OVC035 FM240600 19009KT P6SM
                       VCSH OVC025=
202105231120 TAF KBFI 231120Z 2312/2412 16005KT P6SM BKN017 OVC120 FM231300
                       17005KT P6SM OVC013 FM231700 21006KT P6SM
                       OVC022 FM240000 21009KT P6SM OVC035 FM240600
                       19009KT P6SM VCSH OVC025=
202105230901 KBFI 230901Z 2309/2406 15005KT P6SM FEW010 OVC120 FM231200 16006KT
                       P6SM OVC010 FM231800 19007KT P6SM OVC015
                       FM240000 20009KT P6SM OVC035=
202105230520 TAF KBFI 230520Z 2306/2406 15005KT P6SM OVC120 FM230900 16005KT
                       P6SM OVC035 FM231200 16006KT P6SM OVC010
                       FM231800 19007KT P6SM OVC015 FM240000 20009KT
                       P6SM OVC035=
202105222321 TAF KBFI 222321Z 2300/2324 12003KT P6SM FEW027 FM230700 17005KT
                       P6SM BKN070 FM230900 16005KT P6SM OVC035
                       FM231200 16006KT P6SM OVC010 FM231800 19007KT
                       P6SM OVC015=
202105222052 KBFI 222052Z 2221/2318 18003KT P6SM OVC012 FM230000 27005KT P6SM
                       FEW050 BKN120 FM230700 17005KT P6SM BKN035
                       FM230900 16005KT P6SM OVC035 FM231200 16006KT
                       P6SM OVC010=
202105221720 TAF KBFI 221720Z 2218/2318 25006KT 6SM BR OVC008 FM222000 25006KT
                       P6SM FEW050 SCT250 FM230700 17005KT P6SM
                       BKN035 FM230900 16005KT P6SM OVC010=
202105221451 KBFI 221451Z 2215/2312 17003KT P6SM OVC009 FM221600 18003KT P6SM
                       OVC010 FM221800 22004KT P6SM OVC020 FM222000
                       25006KT P6SM SCT250 FM230700 17005KT P6SM
                       BKN015 FM230900 16005KT P6SM OVC010=
202105221120 TAF KBFI 221120Z 2212/2312 17003KT P6SM OVC007 FM221600 18003KT
                       P6SM OVC010 FM221800 22004KT P6SM SCT030
                       FM222000 25006KT P6SM SCT250 FM230700 17005KT
                       P6SM BKN015 FM230900 16005KT P6SM OVC010=
202105220520 TAF KBFI 220520Z 2206/2306 00000KT P6SM FEW200 FM221300 25003KT
                       P6SM SCT010 FM221800 25004KT P6SM SCT250=
202105212321 TAF KBFI 212321Z 2200/2224 26004KT P6SM SCT028 FM220400 34003KT
                       P6SM FEW060 SCT250 FM221000 VRB02KT P6SM
                       BKN250 FM221300 25003KT P6SM BKN015 FM221800
                       25004KT P6SM SCT250=
202105212050 KBFI 212050Z 2121/2218 VRB04KT P6SM BKN022 FM212300 30005KT P6SM
                       FEW060 SCT100 FM220400 34003KT P6SM FEW060
                       SCT250 FM221000 19002KT P6SM BKN250 FM221300
                       17003KT P6SM BKN015=
202105211721 TAF KBFI 211721Z 2118/2218 22005KT P6SM OVC020 FM212000 31006KT
                       P6SM BKN035 FM212200 30005KT P6SM FEW060
                       SCT100 FM220400 VRB03KT P6SM FEW060 SCT250
                       FM221000 19002KT P6SM BKN025=
202105211450 KBFI 211450Z 2115/2212 21004KT P6SM OVC012 FM211700 20005KT P6SM
                       BKN015 FM211800 25005KT P6SM OVC030 FM212200
                       31006KT P6SM FEW060 SCT100 FM220400 VRB03KT
                       P6SM FEW060 SCT250 FM221000 19002KT P6SM
                       BKN025=
202105211120 TAF KBFI 211120Z 2112/2212 17005KT P6SM OVC015 FM211700 20005KT
                       P6SM BKN020 FM211800 25005KT P6SM FEW060
                       SCT250 FM212200 31006KT P6SM FEW060 SCT100
                       FM220400 VRB03KT P6SM FEW060 SCT250=
202105211034 KBFI 211034Z 2111/2206 15004KT P6SM FEW050 SCT200 FM211200 16003KT
                       P6SM BKN018 FM211800 25005KT P6SM FEW060
                       SCT250 FM212200 31006KT P6SM SCT060 FM220400
                       VRB03KT P6SM FEW060 SCT250=
202105210521 TAF KBFI 210521Z 2106/2206 26004KT P6SM FEW050 SCT200 FM210900
                       15003KT P6SM BKN060 FM211300 19002KT P6SM
                       BKN025 BKN060 FM211800 25005KT P6SM FEW060
                       SCT250 FM212200 31006KT P6SM SCT060 FM220400
                       VRB03KT P6SM FEW060 SCT250=
202105202320 TAF KBFI 202320Z 2100/2124 VRB04KT P6SM BKN050 FM210500 32003KT
                       P6SM BKN070 FM210900 15003KT P6SM BKN060
                       FM211200 19002KT P6SM BKN060=
202105202051 KBFI 202051Z 2021/2118 16005KT P6SM FEW020 SCT030 BKN060 FM210000
                       VRB04KT P6SM BKN070 FM210500 32003KT P6SM
                       BKN070 FM210900 15003KT P6SM BKN060 FM211200
                       19002KT P6SM BKN060=
202105201727 TAF KBFI 201727Z 2018/2118 15006KT P6SM SCT012 BKN045 OVC060 FM202100
                       18005KT P6SM SCT070 BKN150 FM210000 VRB04KT
                       P6SM BKN070 FM210500 32003KT P6SM BKN070
                       FM210900 15003KT P6SM BKN060=
202105201721 TAF KBFI 201721Z 2018/2118 15006KT P6SM SCT012 BKN045 OVC060 FM202100
                       18005KT P6SM SCT070 BKN150 FM210000 VRB04KT
                       P6SM BKN070 FM210500 32003KT P6SM BKN070
                       FM210900 15003KT P6SM BKN060=
202105201452 KBFI 201452Z 2015/2112 17006KT P6SM SCT012 BKN045 OVC060 FM201800
                       19004KT P6SM OVC050 FM202100 22005KT P6SM
                       SCT070 BKN150 FM210000 VRB04KT P6SM BKN070=
202105201158 KBFI 201158Z 2012/2112 17006KT P6SM SCT014 BKN070
                      TEMPO 2012/2016 BKN014 OVC070 FM202100 22005KT
                       P6SM SCT070 BKN150=
202105201120 TAF KBFI 201120Z 2012/2112 15006KT P6SM OVC070 FM202100 22005KT
                       P6SM SCT070 BKN150=
202105200525 TAF KBFI 200525Z 2006/2106 00000KT P6SM FEW060 FM200900 00000KT
                       P6SM BKN070 BKN120 FM201200 16003KT P6SM
                       OVC050 FM202100 22004KT P6SM SCT050 BKN150=
202105192328 TAF KBFI 192328Z 2000/2024 32008KT P6SM SCT050 FM200400 00000KT
                       P6SM SCT050 FM201200 18006KT P6SM BKN050
                       FM202100 18006KT P6SM SCT050 BKN150=
202105191732 TAF KBFI 191732Z 1918/2018 32008KT P6SM SCT030 BKN045 BKN060 FM200400
                       00000KT P6SM SCT050 FM201200 18006KT P6SM
                       BKN050=
202105191303 KBFI 191303Z 1913/2012 30005KT P6SM SCT023 BKN050
                      TEMPO 1913/1917 -SHRA BKN023 OVC050 FM191900
                       32006KT P6SM SCT060 FM200400 00000KT P6SM
                       BKN060=
202105191120 TAF KBFI 191120Z 1912/2012 00000KT P6SM OVC060 FM191900 32006KT
                       P6SM SCT060 FM200400 00000KT P6SM BKN060=
202105190522 TAF KBFI 190522Z 1906/2006 VRB03KT P6SM VCSH BKN040 BKN070 FM191100
                       VRB03KT P6SM SCT015 BKN025 OVC040 FM191600
                       32006KT P6SM BKN050 FM191900 32008KT P6SM
                       SCT050=
202105190254 KBFI 190254Z 1903/1924 VRB04KT P6SM VCSH BKN050 FM191100 VRB03KT
                       P6SM SCT015 BKN025 OVC040 FM191600 32006KT
                       P6SM BKN050 FM191900 32008KT P6SM SCT050=
202105190102 KBFI 190102Z 1901/1924 32007KT 4SM -RA VCTS BKN050CB FM190400 32008KT
                       P6SM SCT025 BKN035 FM190700 VRB03KT P6SM
                       -SHRA BKN015 OVC025 FM191100 VRB03KT P6SM
                       SCT015 BKN025 OVC040 FM191600 32006KT P6SM
                       BKN050 FM191900 32008KT P6SM SCT050=
202105190101 KBFI 190101Z 1901/1924 32007KT P6SM VCTS BKN050CB FM190400 32008KT
                       P6SM SCT025 BKN035 FM190700 VRB03KT P6SM
                       -SHRA BKN015 OVC025 FM191100 VRB03KT P6SM
                       SCT015 BKN025 OVC040 FM191600 32006KT P6SM
                       BKN050 FM191900 32008KT P6SM SCT050=
202105182339 TAF KBFI 182339Z 1900/1924 18008KT P6SM SCT040 FM190200 32008KT
                       P6SM SCT040 FM190400 32008KT P6SM SCT025
                       BKN035 FM190700 VRB03KT P6SM -SHRA BKN015
                       OVC025 FM191100 VRB03KT P6SM SCT015 BKN025
                       OVC040 FM191600 32006KT P6SM BKN050 FM191900
                       32008KT P6SM SCT050=
202105181740 TAF KBFI 181740Z 1818/1918 18012KT P6SM BKN030
                      TEMPO 1818/1820 SCT030 FM182100 18008KT P6SM
                       BKN035 FM190200 32008KT P6SM BKN022 OVC035
                       FM190700 36008KT P6SM -SHRA BKN015 OVC025=
202105181129 TAF KBFI 181129Z 1812/1912 18012G21KT P6SM VCSH SCT020 BKN100 FM181500
                       19011G18KT P6SM VCSH BKN040 BKN110 FM181900
                       20010G17KT P6SM VCSH BKN050 FM190000 26009KT
                       P6SM SCT050 FM190300 VRB05KT P6SM -SHRA
                       BKN050 BKN100 FM191100 VRB03KT P6SM OVC045=
202105180535 TAF KBFI 180535Z 1806/1906 17010KT P6SM -RA SCT018 BKN030 FM180700
                       17014G23KT P6SM VCSH SCT020 BKN040 FM181500
                       19011G18KT P6SM VCSH BKN040 FM181900 19010G17KT
                       P6SM VCSH BKN050 FM190000 26012KT P6SM SCT050
                       BKN100 FM190400 30005KT P6SM -SHRA BKN060
                       BKN100=
202105172321 TAF KBFI 172321Z 1800/1824 20011KT P6SM SCT025 OVC050 FM180300
                       18012G21KT P6SM -RA OVC027 FM180700 17014G23KT
                       P6SM VCSH BKN040 FM181500 19011KT P6SM VCSH
                       BKN040 FM181900 19010KT P6SM VCSH BKN050=
202105171722 TAF KBFI 171722Z 1718/1818 18009KT P6SM BKN020 BKN035 FM172000
                       20011KT P6SM SCT022 BKN040 FM180300 18012G21KT
                       P6SM -RA OVC035 FM180700 17014G23KT P6SM
                       VCSH BKN040 FM181500 19011KT P6SM VCSH BKN040=
202105171130 TAF KBFI 171130Z 1712/1812 18007KT P6SM OVC010 FM171700 18009KT
                       P6SM BKN025 FM171900 20011KT P6SM BKN040
                       FM180300 18012G21KT P6SM -RA OVC050 FM180800
                       17014G23KT P6SM VCSH BKN045=
202105170903 KBFI 170903Z 1709/1806 16006KT P6SM SCT009 BKN200
                      TEMPO 1709/1711 BKN009 FM171100 17006KT P6SM
                       OVC008 FM171800 18008KT P6SM SCT022 BKN040
                       FM180300 17012G21KT P6SM -SHRA OVC050=
202105170525 TAF KBFI 170525Z 1706/1806 30004KT P6SM SCT030 BKN200 FM171100
                       19006KT P6SM OVC015 FM171800 18008KT P6SM
                       SCT022 BKN040 FM180300 17012G21KT P6SM -SHRA
                       OVC050=
202105162320 TAF KBFI 162320Z 1700/1724 30007KT P6SM SCT200 FM170600 23008KT
                       P6SM SCT060 FM171100 21006KT P6SM BKN018
                       FM171300 21006KT P6SM OVC014 FM171800 21008KT
                       P6SM SCT022 FM171900 21010KT P6SM BKN040=
202105161720 TAF KBFI 161720Z 1618/1718 28007KT P6SM SKC FM170600 23008KT P6SM
                       SCT060 FM171100 21006KT P6SM BKN018 FM171300
                       21006KT P6SM OVC014=
202105161130 TAF KBFI 161130Z 1612/1712 VRB03KT P6SM SKC FM161400 VRB03KT P6SM
                       FEW009 FM161800 28006KT P6SM SKC FM170500
                       20005KT P6SM SCT070 FM171100 18006KT P6SM
                       BKN025=
202105160524 TAF KBFI 160524Z 1606/1706 VRB03KT P6SM SKC FM161300 00000KT P6SM
                       FEW009 FM161800 28006KT P6SM SKC=
202105152320 TAF KBFI 152320Z 1600/1624 30007KT P6SM FEW250 FM160300 35006KT
                       P6SM SKC FM160700 02004KT P6SM SKC FM161300
                       VRB04KT P6SM FEW013 FM161800 30004KT P6SM
                       SKC=
202105151720 TAF KBFI 151720Z 1518/1618 35005KT P6SM SKC FM152000 35010KT P6SM
                       FEW050 FM160300 35006KT P6SM SKC FM160700
                       02004KT P6SM SKC FM161300 25004KT P6SM FEW013=
202105151131 TAF KBFI 151131Z 1512/1612 VRB03KT P6SM SCT200 FM151800 31007KT
                       P6SM SKC FM160500 VRB02KT P6SM SKC=
202105150537 TAF KBFI 150537Z 1506/1606 VRB03KT P6SM SCT200 FM151800 31008KT
                       P6SM SKC=
202105142343 TAF KBFI 142343Z 1500/1524 31010KT P6SM SKC FM150300 31006KT P6SM
                       SKC FM150600 VRB03KT P6SM SKC FM151800 31006KT
                       P6SM SKC=
202105141723 TAF KBFI 141723Z 1418/1518 32008KT P6SM SKC FM150600 VRB03KT P6SM
                       SKC=
202105141139 TAF KBFI 141139Z 1412/1512 VRB04KT P6SM SKC FM141400 34003KT 6SM
                       BR SCT005 FM141700 30003KT P6SM SKC FM142000
                       30008KT P6SM SKC=
202105140527 TAF KBFI 140527Z 1406/1506 VRB04KT P6SM FEW250 FM141200 34003KT
                       5SM BR SCT010 FM141700 30003KT P6SM FEW250
                       FM142000 30008KT P6SM FEW250=
202105140251 KBFI 140251Z 1403/1424 30010KT P6SM SKC FM140600 VRB04KT P6SM FEW250
                       FM141200 34003KT 5SM BR SCT010 FM141700
                       30003KT P6SM FEW250 FM142000 30008KT P6SM
                       FEW250=
202105132328 TAF KBFI 132328Z 1400/1424 31010KT P6SM FEW250 FM140600 VRB04KT
                       P6SM FEW250 FM141200 VRB03KT 5SM BR SCT010
                       FM141700 30003KT P6SM FEW250 FM142000 30008KT
                       P6SM FEW250=
202105131739 TAF KBFI 131739Z 1318/1418 32004KT P6SM SCT250 FM132200 31008KT
                       P6SM SCT250 FM140500 VRB04KT P6SM FEW250
                       FM141200 VRB03KT 5SM BR SCT010 FM141700
                       35003KT P6SM FEW250=
202105131611 KBFI 131611Z 1316/1412 VRB03KT P6SM BKN009 FM131700 32004KT P6SM
                       SCT250 FM132200 31007KT P6SM SCT250 FM140500
                       VRB04KT P6SM FEW250=
202105131224 KBFI 131224Z 1312/1412 VRB03KT P6SM SCT070 SCT250 FM131300 VRB03KT
                       4SM BR BKN010
                      TEMPO 1313/1317 1/2SM FG BKN005 FM131700
                       32004KT P6SM SCT250 FM132200 31007KT P6SM
                       SCT250 FM140500 VRB04KT P6SM FEW250=
202105131129 TAF KBFI 131129Z 1312/1412 VRB03KT P6SM SCT070 SCT250 FM131400
                       VRB03KT P6SM SCT030 FM131700 32004KT P6SM
                       SCT250 FM132200 31007KT P6SM SCT250 FM140500
                       VRB04KT P6SM FEW250=
202105130523 TAF KBFI 130523Z 1306/1406 VRB03KT P6SM SCT070 FM131300 00000KT
                       P6SM SCT030 FM131700 31005KT P6SM SCT250
                       FM132200 32007KT P6SM SCT250 FM140500 VRB04KT
                       P6SM FEW250=
202105122329 TAF KBFI 122329Z 1300/1324 31009KT P6SM FEW060 SCT200 FM131300
                       VRB02KT P6SM BKN035 FM131500 VRB02KT P6SM
                       OVC030 FM131800 31005KT P6SM BKN060 FM132200
                       31005KT P6SM BKN250=
202105121734 TAF KBFI 121734Z 1218/1318 VRB05KT P6SM SCT090 OVC120 FM122200
                       32010KT P6SM SCT060 FM130500 VRB03KT P6SM
                       FEW070 FM131300 VRB02KT P6SM BKN035 FM131500
                       VRB02KT P6SM OVC030=
202105121459 KBFI 121459Z 1215/1312 VRB03KT P6SM BKN080 OVC100 FM121800 30005KT
                       P6SM BKN070 BKN100 FM122200 32010KT P6SM
                       SCT060 FM130500 VRB04KT P6SM FEW070=
202105121126 TAF KBFI 121126Z 1212/1312 00000KT P6SM BKN080 OVC100 FM121800
                       30005KT P6SM BKN070 BKN100 FM122200 32010KT
                       P6SM SCT060 FM130500 VRB04KT P6SM FEW070=
202105120907 KBFI 120907Z 1209/1306 00000KT P6SM BKN120 OVC200 FM121500 VRB03KT
                       P6SM BKN080 OVC120 FM121800 30005KT P6SM
                       BKN060 BKN100 FM122200 32010KT P6SM SCT060
                       FM130500 VRB04KT P6SM SCT080=
202105120526 TAF KBFI 120526Z 1206/1306 00000KT P6SM OVC200 FM121500 VRB03KT
                       P6SM BKN080 OVC120 FM121800 30005KT P6SM
                       BKN060 BKN100 FM122200 32010KT P6SM SCT060
                       FM130500 VRB04KT P6SM SCT080=
202105112321 TAF KBFI 112321Z 1200/1224 31008KT P6SM FEW045 BKN250 FM120300
                       32004KT P6SM SCT120 OVC200 FM120800 VRB03KT
                       P6SM BKN100 OVC200 FM121800 30005KT P6SM
                       BKN060 OVC100=
202105111722 TAF KBFI 111722Z 1118/1218 30006KT P6SM BKN250 FM120300 30004KT
                       P6SM SCT120 OVC200 FM120800 VRB03KT P6SM
                       BKN100 OVC200=
202105111129 TAF KBFI 111129Z 1112/1212 00000KT P6SM FEW200 FM111900 30006KT
                       P6SM BKN200 FM120000 31007KT P6SM SCT120
                       OVC200 FM120800 VRB03KT P6SM BKN100 OVC200=
202105110525 TAF KBFI 110525Z 1106/1206 VRB02KT P6SM SCT070 SCT200 FM111100
                       00000KT P6SM FEW200 FM111900 30006KT P6SM
                       BKN200 FM120000 31007KT P6SM SCT120 OVC200=
202105102320 TAF KBFI 102320Z 1100/1124 31008KT P6SM FEW035 BKN200 FM110500
                       34002KT P6SM SCT250 FM111900 30007KT P6SM
                       BKN250=
202105101720 TAF KBFI 101720Z 1018/1118 31005KT P6SM FEW035 BKN250 FM110500
                       34002KT P6SM SCT250=
202105101122 TAF KBFI 101122Z 1012/1112 00000KT P6SM OVC035 FM101700 30006KT
                       P6SM SCT040 SCT150 FM110500 34002KT P6SM
                       SCT150=
202105100529 TAF KBFI 100529Z 1006/1106 35004KT P6SM SCT050 BKN100 FM101000
                       00000KT P6SM OVC035 FM101700 30006KT P6SM
                       SCT040 SCT250=
202105092320 TAF KBFI 092320Z 1000/1024 31006KT P6SM SCT035 BKN050 FM100500
                       VRB03KT P6SM SCT050 BKN100 FM101000 00000KT
                       P6SM OVC035 FM101700 30006KT P6SM SCT040
                       SCT250=
202105091725 TAF KBFI 091725Z 0918/1018 VRB03KT P6SM BKN014 FM091900 31006KT
                       P6SM SCT025 BKN050 FM092300 31006KT P6SM
                       SCT035 BKN050 FM100500 VRB03KT P6SM SCT050
                       BKN100 FM101000 00000KT P6SM OVC030=
202105091518 KBFI 091518Z 0915/1012 VRB03KT P6SM BKN010 OVC040 FM091700 31006KT
                       P6SM SCT025 OVC040 FM092300 31006KT P6SM
                       SCT035 BKN050 FM101000 00000KT P6SM OVC020=
202105091233 KBFI 091233Z 0913/1012 12004KT P6SM VCSH BKN005 OVC020 FM091700
                       31006KT P6SM SCT025 OVC040 FM092300 31006KT
                       P6SM SCT035 BKN050 FM101000 00000KT P6SM
                       OVC020=
202105091129 TAF KBFI 091129Z 0912/1012 16004KT P6SM VCSH BKN015 OVC020 FM091300
                       11005KT P6SM OVC015 FM091700 31006KT P6SM
                       SCT025 BKN040 FM092300 31006KT P6SM SCT050=
202105090902 KBFI 090902Z 0909/1006 16004KT P6SM VCSH BKN020 OVC025 FM091000
                       VRB03KT P6SM OVC020 FM091800 31006KT P6SM
                       SCT030 BKN060 FM092300 31006KT P6SM SCT050=
202105090532 TAF KBFI 090532Z 0906/1006 16004KT P6SM VCSH OVC050 FM091000 VRB03KT
                       P6SM OVC025 FM091800 31006KT P6SM SCT030
                       BKN060 FM092300 31006KT P6SM SCT050=
202105090302 KBFI 090302Z 0903/0924 16004KT P6SM VCSH OVC050 FM091000 VRB03KT
                       P6SM OVC025 FM091800 31006KT P6SM SCT030
                       BKN060=
202105082320 TAF KBFI 082320Z 0900/0924 15008KT P6SM SCT040 BKN060 FM090200
                       15005KT P6SM VCSH SCT035 OVC050 FM091000
                       VRB03KT P6SM OVC025 FM091800 31006KT P6SM
                       SCT030 BKN060=
202105081720 TAF KBFI 081720Z 0818/0918 15008KT P6SM BKN020 OVC040 FM082000
                       15008KT P6SM SCT025 OVC040 FM090000 15005KT
                       P6SM VCSH SCT035 OVC050 FM091100 VRB03KT
                       P6SM OVC025=
202105081139 TAF KBFI 081139Z 0812/0912 15008KT P6SM BKN025 OVC040 FM081900
                       15008KT P6SM SCT025 OVC040 FM090000 15008KT
                       P6SM SCT035 BKN050 OVC080 FM091100 15008KT
                       P6SM OVC025=
202105080539 TAF KBFI 080539Z 0806/0906 15008KT P6SM BKN040 BKN060 FM081300
                       15008KT P6SM BKN025 OVC040 FM081900 15008KT
                       P6SM SCT025 OVC040=
202105080251 KBFI 080251Z 0803/0824 VRB03KT P6SM FEW060 SCT070 FM080600 15006KT
                       P6SM SCT030 BKN045 FM081200 15006KT P6SM
                       SCT030 OVC045 FM081800 18005KT P6SM SCT030
                       OVC045=
202105072338 TAF KBFI 072338Z 0800/0824 VRB05KT P6SM -SHRA SCT030 OVC060 FM080300
                       VRB05KT P6SM BKN035 BKN045 FM080600 15006KT
                       P6SM SCT030 BKN045 FM081200 15006KT P6SM
                       SCT030 OVC045=
202105071731 TAF KBFI 071731Z 0718/0818 19007KT P6SM SCT010 BKN020 FM071900
                       31006KT P6SM -SHRA SCT010 BKN025 OVC040
                       TEMPO 0719/0723 VRB05KT -SHRA BKN020 FM072300
                       33006KT P6SM -SHRA BKN025 OVC035 FM080300
                       VRB03KT P6SM BKN035 BKN045 FM080600 17008KT
                       P6SM SCT030 BKN045=
202105071501 KBFI 071501Z 0715/0812 18010KT P6SM SCT020 BKN035
                      TEMPO 0715/0717 BKN025 FM071900 22010KT P6SM
                       SCT025 BKN040 BKN060 FM072100 31006KT P6SM
                       -SHRA SCT015 BKN025 OVC040 FM072300 31006KT
                       P6SM -SHRA BKN015 OVC025 FM080300 VRB03KT
                       P6SM SCT030 BKN045 FM080600 17008KT P6SM
                       SCT030 BKN045=
202105071139 TAF KBFI 071139Z 0712/0812 18010KT P6SM SCT040 BKN070 FM071900
                       22010KT P6SM SCT025 BKN040 BKN060 FM072100
                       31006KT P6SM -SHRA SCT015 BKN025 OVC040
                       FM072300 31006KT P6SM -SHRA BKN015 OVC025
                       FM080300 VRB03KT P6SM SCT030 BKN045 FM080600
                       17008KT P6SM SCT030 BKN045=
202105070536 TAF KBFI 070536Z 0706/0806 20012KT P6SM SCT030 FM071000 18010KT
                       P6SM BKN025 OVC040 FM072000 18010KT P6SM
                       SCT025 BKN040 BKN060 FM072300 28010KT P6SM
                       -SHRA SCT012 BKN022 OVC040 FM080400 22010KT
                       P6SM SCT035 BKN060=
202105070310 KBFI 070310Z 0703/0724 22010G20KT P6SM SCT035 BKN050 FM070600 21010KT
                       P6SM SCT035 BKN060 FM071000 17007KT P6SM
                       -SHRA BKN028 FM072000 20011KT P6SM -SHRA
                       BKN040 FM072300 23012G18KT P6SM -SHRA BKN050=
202105062320 TAF KBFI 062320Z 0700/0724 22010G20KT P6SM -SHRA BKN040 BKN120
                       FM070600 21010KT P6SM VCSH BKN035 FM071000
                       16007KT P6SM VCSH OVC025 FM071800 VRB04KT
                       P6SM -SHRA BKN035 FM072300 VRB04KT P6SM
                       VCSH BKN040=
202105062154 KBFI 062154Z 0622/0718 18012G20KT P6SM -RA SCT035 OVC050
                      TEMPO 0622/0701 3SM -RA SCT020 BKN030 OVC035
                       FM070600 18008KT P6SM SCT030 OVC050 FM071100
                       18008KT P6SM VCSH OVC025=
202105061720 TAF KBFI 061720Z 0618/0718 21008G16KT P6SM BKN120 OVC200 FM062000
                       18012G20KT P6SM SCT050 OVC100 FM062300 18012G22KT
                       P6SM -RA OVC050 FM070600 18008KT P6SM SCT030
                       OVC050 FM071100 18008KT P6SM VCSH OVC025=
202105061128 TAF KBFI 061128Z 0612/0712 16006KT P6SM OVC200 FM062000 18012KT
                       P6SM OVC100 FM070000 18012KT P6SM -RA OVC050
                       FM070600 18008KT P6SM SCT030 OVC050 FM071100
                       18008KT P6SM OVC025=
202105060531 TAF KBFI 060531Z 0606/0706 32004KT P6SM BKN250 FM061200 18006KT
                       P6SM BKN250 FM062000 18012G18KT P6SM OVC100
                       FM070000 18012G18KT P6SM -RA OVC050=
202105060251 KBFI 060251Z 0603/0624 31007KT P6SM SCT250 FM060600 28003KT P6SM
                       BKN250 FM061100 17007KT P6SM BKN120 FM062000
                       20012G20KT P6SM OVC100=
202105052320 TAF KBFI 052320Z 0600/0624 34007KT P6SM SCT250 FM060400 VRB03KT
                       P6SM BKN250 FM061300 17007KT P6SM BKN250
                       FM062000 20012KT P6SM OVC100=
202105051720 TAF KBFI 051720Z 0518/0618 34007KT P6SM SCT250 FM060400 VRB03KT
                       P6SM BKN250 FM061300 17007KT P6SM BKN250=
202105051127 TAF KBFI 051127Z 0512/0612 00000KT P6SM SKC FM051700 34008KT P6SM
                       SCT250 FM060400 00000KT P6SM BKN250=
202105050547 TAF KBFI 050547Z 0506/0524 35003KT P6SM SCT045 FM051200 00000KT
                       P6SM SCT020 FM051700 34006KT P6SM SCT040=
202105050250 KBFI 050250Z 0503/0524 VRB05KT P6SM SCT045 FM050600 35003KT P6SM
                       SCT045 FM051200 00000KT P6SM SCT020 FM051700
                       34006KT P6SM SCT040=
202105042320 TAF KBFI 042320Z 0500/0524 VRB04KT P6SM SCT045 FM051200 00000KT
                       P6SM SCT020 FM051700 34006KT P6SM SCT040=
202105042009 KBFI 042009Z 0420/0518 VRB04KT P6SM SCT030 BKN050 FM050400 VRB03KT
                       P6SM SCT050 FM051200 VRB03KT P6SM SCT020
                       FM051700 34007KT P6SM SCT040=
202105041736 TAF KBFI 041736Z 0418/0518 VRB04KT P6SM BKN022 BKN040 FM042100
                       36007KT P6SM SCT025 BKN050 FM050400 VRB03KT
                       P6SM SCT050 FM051200 VRB03KT P6SM SCT020
                       FM051700 34007KT P6SM SCT040=
202105041124 TAF KBFI 041124Z 0412/0512 33003KT P6SM OVC015 FM042000 30006KT
                       P6SM SCT050 SCT250 FM050000 11007KT P6SM
                       SCT250=
202105040808 KBFI 040808Z 0408/0506 16006KT P6SM BKN015 OVC020
                      TEMPO 0408/0411 4SM -SHRA BR BKN007 FM041200
                       33003KT P6SM OVC015 FM042000 30006KT P6SM
                       SCT050 SCT250 FM050000 11007KT P6SM SCT250=
202105040653 KBFI 040653Z 0407/0506 16006KT P6SM BKN015 OVC020
                      TEMPO 0407/0411 4SM -SHRA BR BKN007 FM041200
                       33003KT P6SM OVC015 FM042000 30006KT P6SM
                       BKN050=
202105040520 TAF KBFI 040520Z 0406/0506 16006KT P6SM BKN015 OVC020
                      TEMPO 0406/0408 4SM -SHRA BR BKN005 FM041200
                       33003KT P6SM OVC015 FM042000 30006KT P6SM
                       BKN050=
202105040512 KBFI 040512Z 0405/0424 16006KT P6SM BKN015 OVC020
                      TEMPO 0405/0408 4SM -SHRA BR BKN005 FM041200
                       33003KT P6SM OVC025 FM042000 30006KT P6SM
                       BKN040=
202105040242 KBFI 040242Z 0403/0424 16006KT P6SM -SHRA BKN015 OVC020 FM041200
                       33003KT P6SM OVC025 FM042000 30006KT P6SM
                       BKN040=
202105032329 TAF KBFI 032329Z 0400/0424 16006KT 6SM -RA BR OVC050 FM040600 VRB04KT
                       P6SM -SHRA OVC030 FM041200 33003KT P6SM
                       OVC030 FM042000 30006KT P6SM BKN040=
202105032058 KBFI 032058Z 0321/0418 19007KT P6SM VCSH OVC028 FM040000 20007KT
                       P6SM VCSH SCT030 BKN040 FM040600 VRB04KT
                       P6SM -SHRA OVC030 FM041200 VRB02KT P6SM
                       OVC030=
202105031731 TAF KBFI 031731Z 0318/0418 20005KT P6SM VCSH OVC028 FM040000 20007KT
                       P6SM VCSH SCT030 BKN040 FM040600 VRB04KT
                       P6SM -SHRA OVC030 FM041200 VRB02KT P6SM
                       OVC030=
202105031639 KBFI 031639Z 0317/0412 16008KT P6SM VCSH BKN025 BKN080 OVC100 FM031800
                       18007KT P6SM -RA BKN025 OVC050 FM040000
                       20007KT P6SM VCSH SCT030 BKN040 FM040600
                       VRB04KT P6SM -SHRA OVC030=
202105031500 KBFI 031500Z 0315/0412 14008KT P6SM OVC110 FM031600 19006KT P6SM
                       VCSH SCT050 OVC100 FM031700 19007KT P6SM
                       -RA BKN030 OVC050 FM040000 20007KT P6SM
                       VCSH SCT030 BKN040 FM040600 VRB04KT P6SM
                       -SHRA OVC030=
202105031122 TAF KBFI 031122Z 0312/0412 17004KT P6SM BKN120 OVC200 FM031600
                       19006KT P6SM VCSH SCT050 OVC100 FM031700
                       19007KT P6SM -RA BKN030 OVC050 FM040000
                       20007KT P6SM VCSH SCT030 BKN040 FM040600
                       VRB04KT P6SM -SHRA OVC030=
202105030521 TAF KBFI 030521Z 0306/0406 30004KT P6SM OVC070 FM030900 16005KT
                       P6SM SCT040 BKN070 OVC150 FM031600 19007KT
                       P6SM -RA BKN030 OVC050 FM040000 20007KT
                       P6SM VCSH SCT025 BKN040=
202105022330 TAF KBFI 022330Z 0300/0324 29007KT P6SM FEW040 SCT250 FM030600
                       20005KT P6SM SCT040 BKN100 OVC250 FM031700
                       21007KT P6SM -RA BKN030 OVC040=
202105021723 TAF KBFI 021723Z 0218/0318 VRB04KT P6SM SCT030 SCT060 FM022100
                       29007KT P6SM FEW040 SCT250 FM030600 20005KT
                       P6SM SCT040 BKN100 OVC250 FM031700 21007KT
                       P6SM -RA BKN030 OVC040=
202105021521 KBFI 021521Z 0215/0312 VRB04KT P6SM SCT030 SCT060 FM022100 29007KT
                       P6SM FEW040 SCT250 FM030600 20005KT P6SM
                       SCT040 BKN100 OVC250=
202105021123 TAF KBFI 021123Z 0212/0312 VRB05KT P6SM OVC030 FM021800 25005KT
                       P6SM SCT030 BKN040 FM022100 29007KT P6SM
                       FEW040 SCT250 FM030600 20005KT P6SM SCT040
                       BKN100 OVC250=
202105020520 TAF KBFI 020520Z 0206/0306 VRB03KT P6SM VCSH BKN035 OVC060 FM020900
                       15005KT P6SM BKN030 FM021100 00000KT P6SM
                       BKN025 FM021900 28004KT P6SM BKN050 FM022100
                       29007KT P6SM BKN100=
202105012336 TAF KBFI 012336Z 0200/0224 VRB03KT P6SM VCSH SCT030 BKN050 FM020900
                       15005KT P6SM BKN030 FM021100 00000KT P6SM
                       BKN015 FM021900 28004KT P6SM BKN050=
202105011736 TAF KBFI 011736Z 0118/0218 23006KT P6SM BKN019 OVC030 FM012000
                       22008KT P6SM FEW030 BKN050 FM020000 VRB05KT
                       P6SM VCSH SCT030 BKN050 FM020900 15005KT
                       P6SM OVC020=
202105011317 KBFI 011317Z 0113/0212 VRB05KT P6SM OVC019
                      TEMPO 0113/0116 -DZ BKN009 FM011600 22008KT
                       P6SM OVC025 FM012000 22008KT P6SM FEW030
                       BKN050 FM020000 VRB05KT P6SM VCSH SCT030
                       BKN050 FM020900 15005KT P6SM OVC020=
202105011120 TAF KBFI 011120Z 0112/0212 00000KT P6SM OVC022
                      TEMPO 0112/0116 -DZ BKN008 FM011600 22008KT
                       P6SM OVC025 FM012000 22008KT P6SM FEW030
                       BKN050 FM020000 VRB05KT P6SM VCSH SCT030
                       BKN050 FM020900 15005KT P6SM OVC020=
202105010806 KBFI 010806Z 0108/0206 00000KT P6SM OVC015 FM011600 20008KT P6SM
                       BKN030 FM012000 22008KT P6SM FEW035 SCT050
                       FM020000 23005KT P6SM BKN050=
202105010521 TAF KBFI 010521Z 0106/0206 00000KT P6SM FEW040 FM011100 20008KT
                       P6SM BKN030 FM012000 22008KT P6SM FEW035
                       SCT050 FM020000 23005KT P6SM BKN050=
202105010120 KBFI 010120Z 0101/0124 18008KT P6SM SCT030 FM010800 18008KT P6SM
                       BKN025 FM011200 17004KT 6SM BR OVC015 FM011600
                       18005KT 6SM BR OVC020 FM011800 20006KT P6SM
                       BKN050=