##########################################################
# Query made at 02/17/2025 06:47:15 UTC
# Time interval: from 07/01/2021 00:00  to 07/31/2021 23:59  UTC
##########################################################

##########################################################
# KBFI, Seattle, Seattle Boeing Field (United States)
# WMO index: -----. WIGOS ID: Unknown
# Latitude 47-32-45N. Longitude 122-18-49W. Altitude 5 m.
##########################################################

###################################
#  METAR/SPECI from KBFI
###################################
202107312353 METAR KBFI 312353Z 00000KT 10SM FEW120 OVC220 21/13 A3004 RMK AO2 SLP172 T02060133 10228 20194 53003=
202107312253 METAR KBFI 312253Z 30003KT 10SM CLR 21/13 A3001 RMK AO2 SLP161 T02110133=
202107312153 METAR KBFI 312153Z VRB05KT 10SM CLR 21/13 A3003 RMK AO2 SLP169 T02110133=
202107312053 METAR KBFI 312053Z 34007KT 290V010 10SM BKN170 20/13 A3003 RMK AO2 SLP169 T02000128 58006=
202107311953 METAR KBFI 311953Z 32004KT 10SM CLR 22/13 A3005 RMK AO2 SLP177 T02170133=
202107311853 METAR KBFI 311853Z 31006KT 10SM FEW110 23/13 A3006 RMK AO2 SLP180 T02280128=
202107311753 METAR KBFI 311753Z 19005KT 10SM FEW070 BKN095 BKN110 21/13 A3005 RMK AO2 SLP175 T02060128 10206 20183 51012=
202107311653 METAR KBFI 311653Z VRB03KT 10SM FEW060 BKN100 19/13 A3004 RMK AO2 SLP172 T01940128=
202107311553 METAR KBFI 311553Z 32004KT 10SM CLR 19/13 A3003 RMK AO2 SLP170 T01890128=
202107311453 METAR KBFI 311453Z 35004KT 10SM BKN100 20/13 A3002 RMK AO2 SLP164 T02000128 53014=
202107311353 METAR KBFI 311353Z 31004KT 10SM BKN110 21/13 A3001 RMK AO2 SLP161 T02060128=
202107311253 METAR KBFI 311253Z 35003KT 10SM CLR 21/12 A2998 RMK AO2 SLP152 T02060122=
202107311153 METAR KBFI 311153Z 00000KT 10SM CLR 20/12 A2997 RMK AO2 SLP150 T02000122 10256 20200 53007=
202107311053 METAR KBFI 311053Z VRB03KT 10SM CLR 21/12 A2996 RMK AO2 SLP145 T02060122=
202107310953 METAR KBFI 310953Z 32003KT 10SM CLR 22/12 A2996 RMK AO2 SLP144 T02170117=
202107310853 METAR KBFI 310853Z 34003KT 10SM CLR 24/11 A2995 RMK AO2 SLP143 T02390106 56001=
202107310753 METAR KBFI 310753Z 35003KT 10SM CLR 24/11 A2995 RMK AO2 SLP143 T02440111 403110156=
202107310653 METAR KBFI 310653Z 00000KT 10SM CLR 25/12 A2995 RMK AO2 SLP143 T02500117=
202107310553 METAR KBFI 310553Z 00000KT 10SM CLR 26/13 A2996 RMK AO2 SLP144 T02560133 10311 20250 53010=
202107310453 METAR KBFI 310453Z 30003KT 10SM CLR 26/13 A2994 RMK AO2 SLP140 T02560133=
202107310353 METAR KBFI 310353Z 32004KT 10SM CLR 28/12 A2992 RMK AO2 SLP132 T02780122=
202107310253 METAR KBFI 310253Z 32006KT 10SM CLR 29/12 A2993 RMK AO2 SLP133 T02890117 55001=
202107310153 METAR KBFI 310153Z 32007KT 10SM CLR 31/11 A2992 RMK AO2 SLP130 T03060111=
202107310053 METAR KBFI 310053Z 31008KT 10SM CLR 31/12 A2992 RMK AO2 SLP132 T03060122=
202107302353 METAR KBFI 302353Z 31006G15KT 10SM CLR 31/12 A2993 RMK AO2 SLP134 T03060122 10311 20228 58013=
202107302253 METAR KBFI 302253Z 31010G20KT 10SM CLR 30/12 A2994 RMK AO2 SLP139 T03000117=
202107302153 METAR KBFI 302153Z 32008KT 280V360 10SM CLR 30/12 A2995 RMK AO2 SLP143 T03000122=
202107302053 METAR KBFI 302053Z VRB06KT 10SM CLR 29/13 A2997 RMK AO2 SLP147 T02890128 58015=
202107301953 METAR KBFI 301953Z AUTO 32006KT 10SM CLR 27/13 A2998 RMK AO2 SLP153 T02670128=
202107301853 METAR KBFI 301853Z 30007KT 270V340 10SM CLR 25/13 A3000 RMK AO2 SLP160 T02500128=
202107301753 METAR KBFI 301753Z VRB05KT 10SM CLR 23/12 A3001 RMK AO2 SLP162 T02280122 10233 20156 58003=
202107301653 METAR KBFI 301653Z 33005KT 10SM CLR 21/13 A3002 RMK AO2 SLP166 T02110133=
202107301553 METAR KBFI 301553Z 30006KT 10SM CLR 19/13 A3002 RMK AO2 SLP166 T01890133=
202107301453 METAR KBFI 301453Z 30004KT 10SM CLR 18/13 A3002 RMK AO2 SLP165 T01780133 53008=
202107301353 METAR KBFI 301353Z 29003KT 10SM CLR 16/13 A3001 RMK AO2 SLP162 T01610133=
202107301253 METAR KBFI 301253Z VRB03KT 10SM CLR 16/13 A3000 RMK AO2 SLP158 T01610128=
202107301153 METAR KBFI 301153Z 32003KT 10SM CLR 17/13 A3000 RMK AO2 SLP157 T01670133 10228 20167 53003=
202107301053 METAR KBFI 301053Z 00000KT 10SM CLR 17/13 A2999 RMK AO2 SLP156 T01720133=
202107300953 METAR KBFI 300953Z 32004KT 10SM CLR 19/13 A2999 RMK AO2 SLP154 T01890128=
202107300853 METAR KBFI 300853Z 00000KT 10SM CLR 21/13 A2999 RMK AO2 SLP154 T02060133 55002=
202107300753 METAR KBFI 300753Z 00000KT 10SM CLR 22/13 A2999 RMK AO2 SLP153 T02170128 403060167=
202107300653 METAR KBFI 300653Z 00000KT 10SM CLR 22/12 A2999 RMK AO2 SLP154 T02220122=
202107300553 METAR KBFI 300553Z 00000KT 10SM CLR 23/12 A2999 RMK AO2 SLP156 T02280122 10306 20228 53014=
202107300453 METAR KBFI 300453Z 00000KT 10SM CLR 24/13 A2998 RMK AO2 SLP152 T02440133=
202107300353 METAR KBFI 300353Z 33004KT 10SM CLR 26/13 A2996 RMK AO2 SLP145 T02560128=
202107300253 METAR KBFI 300253Z 31006KT 10SM CLR 26/12 A2995 RMK AO2 SLP142 T02560122 55010=
202107300153 METAR KBFI 300153Z 31007KT 10SM CLR 28/12 A2995 RMK AO2 SLP141 T02780117=
202107300053 METAR KBFI 300053Z 30007KT 10SM CLR 30/11 A2996 RMK AO2 SLP146 T03000111=
202107292353 METAR KBFI 292353Z 30008G15KT 10SM CLR 31/11 A2998 RMK AO2 SLP152 T03060111 10306 20244 56016=
202107292253 METAR KBFI 292253Z 30010G16KT 10SM CLR 30/12 A2999 RMK AO2 SLP156 T03000117=
202107292153 METAR KBFI 292153Z 32010KT 10SM CLR 29/12 A3001 RMK AO2 SLP161 T02940122=
202107292053 METAR KBFI 292053Z 33007G15KT 300V010 10SM CLR 28/13 A3003 RMK AO2 SLP167 T02830128 58018=
202107291953 METAR KBFI 291953Z 31007KT 10SM CLR 27/13 A3005 RMK AO2 SLP174 T02720128=
202107291853 METAR KBFI 291853Z 32005KT 10SM CLR 26/13 A3007 RMK AO2 SLP181 T02560133=
202107291753 METAR KBFI 291753Z 33005KT 10SM CLR 24/13 A3008 RMK AO2 SLP185 T02440133 10244 20167 58006=
202107291653 METAR KBFI 291653Z 00000KT 10SM CLR 23/14 A3009 RMK AO2 SLP187 T02280144=
202107291553 METAR KBFI 291553Z AUTO 00000KT 10SM CLR 21/14 A3010 RMK AO2 SLP192 T02110144=
202107291453 METAR KBFI 291453Z AUTO 00000KT 10SM CLR 19/14 A3010 RMK AO2 SLP191 T01890139 53006=
202107291353 METAR KBFI 291353Z 00000KT 10SM CLR 17/13 A3009 RMK AO2 SLP188 T01720133=
202107291253 METAR KBFI 291253Z 00000KT 10SM CLR 17/13 A3008 RMK AO2 SLP186 T01670133=
202107291153 METAR KBFI 291153Z 00000KT 10SM CLR 17/13 A3008 RMK AO2 SLP185 T01720128 10222 20172 53006=
202107291053 METAR KBFI 291053Z 00000KT 10SM CLR 18/13 A3007 RMK AO2 SLP181 T01830128=
202107290953 METAR KBFI 290953Z 00000KT 10SM CLR 19/13 A3007 RMK AO2 SLP181 T01890128=
202107290853 METAR KBFI 290853Z 31003KT 10SM CLR 19/12 A3006 RMK AO2 SLP179 T01940122 58003=
202107290753 METAR KBFI 290753Z 29003KT 10SM CLR 20/12 A3007 RMK AO2 SLP181 T02000122 402940167=
202107290653 METAR KBFI 290653Z 00000KT 10SM CLR 20/13 A3007 RMK AO2 SLP182 T02000128=
202107290553 METAR KBFI 290553Z 00000KT 10SM CLR 22/11 A3007 RMK AO2 SLP182 T02220111 10294 20222 53015=
202107290453 METAR KBFI 290453Z VRB03KT 10SM CLR 23/09 A3006 RMK AO2 SLP178 T02330094=
202107290353 METAR KBFI 290353Z 32004KT 10SM CLR 23/09 A3004 RMK AO2 SLP171 T02280094=
202107290253 METAR KBFI 290253Z 30006KT 10SM CLR 27/08 A3003 RMK AO2 SLP167 T02670083 56009=
202107290153 METAR KBFI 290153Z 30006KT 10SM CLR 28/09 A3003 RMK AO2 SLP167 T02780089=
202107290053 METAR KBFI 290053Z 33006KT 10SM SCT200 29/08 A3004 RMK AO2 SLP172 T02940083=
202107282353 METAR KBFI 282353Z VRB05KT 10SM CLR 29/09 A3005 RMK AO2 SLP177 T02940094 10294 20233 57015=
202107282253 METAR KBFI 282253Z VRB06KT 10SM CLR 29/10 A3007 RMK AO2 SLP182 T02890100=
202107282153 METAR KBFI 282153Z 31008KT 9SM CLR 28/09 A3008 RMK AO2 SLP187 T02830089=
202107282053 METAR KBFI 282053Z 29003KT 10SM CLR 27/11 A3010 RMK AO2 SLP192 T02670106 58008=
202107281953 METAR KBFI 281953Z 33005KT 10SM BKN200 25/11 A3011 RMK AO2 SLP195 T02500111=
202107281853 METAR KBFI 281853Z 32006KT 10SM CLR 26/11 A3011 RMK AO2 SLP197 T02560111=
202107281753 METAR KBFI 281753Z VRB05KT 10SM SCT200 23/11 A3012 RMK AO2 SLP200 T02330111 10239 20167 58005=
202107281653 METAR KBFI 281653Z 33006KT 10SM SCT250 22/12 A3013 RMK AO2 SLP201 T02220117=
202107281553 METAR KBFI 281553Z 28003KT 10SM CLR 20/11 A3014 RMK AO2 SLP205 T02000111=
202107281453 METAR KBFI 281453Z 31003KT 10SM CLR 18/11 A3014 RMK AO2 SLP204 T01830106 53008=
202107281353 METAR KBFI 281353Z 33003KT 10SM SCT200 17/10 A3013 RMK AO2 SLP201 T01720100=
202107281253 METAR KBFI 281253Z 00000KT 10SM CLR 17/11 A3012 RMK AO2 SLP199 T01670106=
202107281153 METAR KBFI 281153Z 00000KT 10SM CLR 17/11 A3011 RMK AO2 SLP196 T01720106 10222 20172 50000=
202107281053 METAR KBFI 281053Z 34003KT 10SM CLR 18/11 A3012 RMK AO2 SLP198 T01830106=
202107280953 METAR KBFI 280953Z 00000KT 10SM CLR 19/10 A3012 RMK AO2 SLP198 T01890100=
202107280853 METAR KBFI 280853Z 26003KT 10SM CLR 19/10 A3011 RMK AO2 SLP196 T01940100 51012=
202107280753 METAR KBFI 280753Z 00000KT 10SM CLR 21/10 A3010 RMK AO2 SLP193 T02060100 402890167=
202107280653 METAR KBFI 280653Z 28003KT 10SM CLR 21/11 A3009 RMK AO2 SLP189 T02110106=
202107280553 METAR KBFI 280553Z VRB03KT 10SM CLR 22/12 A3008 RMK AO2 SLP185 T02220117 10289 20222 53017=
202107280453 METAR KBFI 280453Z 30004KT 10SM CLR 22/12 A3006 RMK AO2 SLP180 T02220122=
202107280353 METAR KBFI 280353Z 32003KT 10SM SCT200 24/11 A3004 RMK AO2 SLP173 T02390111=
202107280253 METAR KBFI 280253Z 30006KT 10SM FEW200 26/09 A3003 RMK AO2 SLP168 T02610094 53000=
202107280153 METAR KBFI 280153Z 30004KT 10SM SCT200 27/13 A3002 RMK AO2 SLP167 T02670128=
202107280053 METAR KBFI 280053Z VRB05KT 10SM CLR 28/12 A3002 RMK AO2 SLP167 T02780122=
202107272353 METAR KBFI 272353Z VRB06KT 10SM SCT200 28/11 A3003 RMK AO2 SLP168 T02780111 10283 20222 58007=
202107272253 METAR KBFI 272253Z 00000KT 10SM SCT200 27/14 A3004 RMK AO2 SLP171 T02720139=
202107272153 METAR KBFI 272153Z VRB06KT 10SM SCT250 27/14 A3005 RMK AO2 SLP174 T02670139=
202107272053 METAR KBFI 272053Z VRB03KT 10SM CLR 26/14 A3005 RMK AO2 SLP175 T02610139 58001=
202107271953 METAR KBFI 271953Z 30005KT 10SM CLR 24/14 A3005 RMK AO2 SLP177 T02440139=
202107271853 METAR KBFI 271853Z VRB06KT 10SM CLR 23/14 A3005 RMK AO2 SLP176 T02330139=
202107271753 METAR KBFI 271753Z 29007KT 10SM CLR 22/14 A3005 RMK AO2 SLP176 T02220139 10228 20167 51005=
202107271653 METAR KBFI 271653Z 10SM CLR 22/14 A3005 RMK AO2 SLP176 T02170139=
202107271553 METAR KBFI 271553Z 00000KT 10SM CLR 20/14 A3005 RMK AO2 SLP174 T02000144=
202107271453 METAR KBFI 271453Z VRB03KT 10SM CLR 19/14 A3004 RMK AO2 SLP171 T01890139 51010=
202107271353 METAR KBFI 271353Z 00000KT 10SM CLR 18/14 A3003 RMK AO2 SLP169 T01780139=
202107271253 METAR KBFI 271253Z 00000KT 10SM CLR 17/13 A3002 RMK AO2 SLP165 T01720133=
202107271153 METAR KBFI 271153Z VRB03KT 10SM CLR 18/13 A3001 RMK AO2 SLP161 T01780133 10200 20172 51004=
202107271053 METAR KBFI 271053Z VRB03KT 10SM CLR 18/13 A3000 RMK AO2 SLP160 T01780133=
202107270953 METAR KBFI 270953Z VRB03KT 10SM CLR 18/14 A3000 RMK AO2 SLP159 T01830139=
202107270853 METAR KBFI 270853Z 00000KT 10SM CLR 19/13 A3000 RMK AO2 SLP157 T01890133 53010=
202107270753 METAR KBFI 270753Z 00000KT 10SM CLR 19/13 A2999 RMK AO2 SLP154 T01940133 402720161=
202107270653 METAR KBFI 270653Z 00000KT 10SM CLR 19/13 A2997 RMK AO2 SLP149 T01940133=
202107270553 METAR KBFI 270553Z VRB06KT 10SM CLR 20/14 A2997 RMK AO2 SLP147 T02000139 10267 20200 51011=
202107270453 METAR KBFI 270453Z 10SM CLR 22/13 A2996 RMK AO2 SLP146 T02170128=
202107270353 METAR KBFI 270353Z 00000KT 10SM CLR 24/12 A2995 RMK AO2 SLP140 T02390122=
202107270253 METAR KBFI 270253Z 00000KT 10SM CLR 26/11 A2993 RMK AO2 SLP136 T02610111 55005=
202107270153 METAR KBFI 270153Z 31005KT 10SM CLR 27/12 A2993 RMK AO2 SLP136 T02670117=
202107270053 METAR KBFI 270053Z 30009KT 10SM CLR 27/11 A2994 RMK AO2 SLP137 T02670111=
202107262353 METAR KBFI 262353Z 32007KT 290V360 10SM CLR 27/12 A2995 RMK AO2 SLP141 T02720117 10272 20217 56014=
202107262253 METAR KBFI 262253Z 31009G15KT 10SM CLR 26/13 A2996 RMK AO2 SLP145 T02610128=
202107262153 METAR KBFI 262153Z 30008G14KT 10SM CLR 26/13 A2998 RMK AO2 SLP152 T02610133=
202107262053 METAR KBFI 262053Z VRB05KT 10SM CLR 26/13 A2999 RMK AO2 SLP155 T02610133 58009=
202107261953 METAR KBFI 261953Z 29005KT 10SM CLR 24/14 A3000 RMK AO2 SLP159 T02390139=
202107261853 METAR KBFI 261853Z VRB03KT 10SM CLR 23/13 A3001 RMK AO2 SLP162 T02280133=
202107261753 METAR KBFI 261753Z VRB04KT 10SM CLR 21/13 A3002 RMK AO2 SLP164 T02110133 10217 20161 58005=
202107261653 METAR KBFI 261653Z 00000KT 10SM CLR 21/13 A3003 RMK AO2 SLP167 T02110133=
202107261553 METAR KBFI 261553Z 00000KT 10SM CLR 19/13 A3003 RMK AO2 SLP168 T01890128=
202107261453 METAR KBFI 261453Z AUTO 00000KT 10SM CLR 18/13 A3003 RMK AO2 SLP169 T01780128 51005=
202107261353 METAR KBFI 261353Z 10SM OVC060 17/12 A3003 RMK AO2 SLP168 T01720122=
202107261253 METAR KBFI 261253Z 00000KT 10SM SCT060 16/12 A3002 RMK AO2 SLP165 T01610122=
202107261153 METAR KBFI 261153Z 00000KT 10SM SCT060 16/12 A3001 RMK AO2 SLP163 T01610122 10194 20161 58002=
202107261053 METAR KBFI 261053Z 00000KT 10SM CLR 16/12 A3002 RMK AO2 SLP166 T01610122=
202107260953 METAR KBFI 260953Z 00000KT 10SM CLR 17/12 A3002 RMK AO2 SLP165 T01670122=
202107260853 METAR KBFI 260853Z 00000KT 10SM CLR 17/12 A3002 RMK AO2 SLP166 T01670122 53003=
202107260753 METAR KBFI 260753Z VRB03KT 10SM CLR 17/13 A3002 RMK AO2 SLP164 T01720128 402890161=
202107260653 METAR KBFI 260653Z VRB03KT 10SM CLR 19/13 A3001 RMK AO2 SLP162 T01890133=
202107260553 METAR KBFI 260553Z 34004KT 10SM CLR 19/13 A3001 RMK AO2 SLP162 T01940128 10289 20194 53010=
202107260453 METAR KBFI 260453Z VRB06KT 10SM CLR 21/13 A3000 RMK AO2 SLP159 T02060133=
202107260353 METAR KBFI 260353Z VRB03KT 10SM CLR 22/13 A2999 RMK AO2 SLP155 T02220133=
202107260253 METAR KBFI 260253Z VRB05KT 10SM CLR 24/13 A2998 RMK AO2 SLP152 T02440128 55005=
202107260153 METAR KBFI 260153Z VRB06KT 10SM CLR 27/13 A2997 RMK AO2 SLP150 T02720133=
202107260053 METAR KBFI 260053Z VRB06KT 10SM CLR 28/13 A2998 RMK AO2 SLP153 T02780128=
202107252353 METAR KBFI 252353Z VRB05KT 10SM CLR 28/13 A3000 RMK AO2 SLP158 T02830133 10289 20222 58017=
202107252253 METAR KBFI 252253Z VRB06KT 10SM CLR 28/13 A3002 RMK AO2 SLP164 T02780128=
202107252153 METAR KBFI 252153Z VRB04KT 10SM CLR 27/12 A3004 RMK AO2 SLP171 T02670122=
202107252053 METAR KBFI 252053Z 33005KT 10SM CLR 26/13 A3005 RMK AO2 SLP175 T02610133 58011=
202107251953 METAR KBFI 251953Z VRB03KT 10SM CLR 24/13 A3006 RMK AO2 SLP180 T02440133=
202107251853 METAR KBFI 251853Z 33010KT 10SM CLR 23/13 A3008 RMK AO2 SLP184 T02330133=
202107251753 METAR KBFI 251753Z VRB05KT 10SM CLR 22/13 A3008 RMK AO2 SLP186 T02220133 10222 20161 58005=
202107251653 METAR KBFI 251653Z 00000KT 10SM CLR 22/13 A3010 RMK AO2 SLP191 T02220133=
202107251553 METAR KBFI 251553Z 06003KT 10SM CLR 21/13 A3010 RMK AO2 SLP192 T02060128=
202107251453 METAR KBFI 251453Z VRB04KT 10SM CLR 19/13 A3010 RMK AO2 SLP192 T01940133 51009=
202107251353 METAR KBFI 251353Z VRB04KT 10SM CLR 17/13 A3010 RMK AO2 SLP191 T01670128=
202107251253 METAR KBFI 251253Z 00000KT 10SM CLR 17/13 A3008 RMK AO2 SLP186 T01720128=
202107251153 METAR KBFI 251153Z 31003KT 10SM CLR 17/13 A3007 RMK AO2 SLP183 T01720128 10217 20172 53001=
202107251053 METAR KBFI 251053Z 00000KT 10SM CLR 18/13 A3007 RMK AO2 SLP182 T01780133=
202107250953 METAR KBFI 250953Z 00000KT 10SM CLR 18/13 A3007 RMK AO2 SLP181 T01830128=
202107250853 METAR KBFI 250853Z 33003KT 10SM CLR 19/13 A3007 RMK AO2 SLP182 T01890128 51003=
202107250753 METAR KBFI 250753Z 32003KT 10SM CLR 19/13 A3007 RMK AO2 SLP182 T01890128 402780167=
202107250653 METAR KBFI 250653Z 29004KT 10SM CLR 19/13 A3007 RMK AO2 SLP181 T01940128=
202107250553 METAR KBFI 250553Z 05003KT 10SM CLR 22/13 A3006 RMK AO2 SLP179 T02170128 10267 20217 53005=
202107250453 METAR KBFI 250453Z 00000KT 10SM CLR 23/12 A3006 RMK AO2 SLP177 T02330122=
202107250353 METAR KBFI 250353Z 00000KT 10SM CLR 24/12 A3005 RMK AO2 SLP174 T02440122=
202107250253 METAR KBFI 250253Z 30005KT 10SM CLR 24/13 A3005 RMK AO2 SLP174 T02440128 56013=
202107250153 METAR KBFI 250153Z 30009G17KT 10SM CLR 26/13 A3005 RMK AO2 SLP175 T02560128=
202107250053 METAR KBFI 250053Z 30010G15KT 10SM CLR 26/13 A3007 RMK AO2 SLP181 T02560128=
202107242353 METAR KBFI 242353Z 31010G18KT 10SM CLR 27/12 A3008 RMK AO2 SLP187 T02670122 10278 20211 58016=
202107242253 METAR KBFI 242253Z AUTO 34007G19KT 310V010 10SM CLR 27/12 A3010 RMK AO2 SLP193 T02720122=
202107242153 METAR KBFI 242153Z AUTO 31008KT 10SM CLR 27/13 A3011 RMK AO2 SLP197 T02670128=
202107242053 METAR KBFI 242053Z 30009KT 10SM CLR 26/13 A3013 RMK AO2 SLP202 T02560133 58017=
202107241953 METAR KBFI 241953Z 33007KT 300V010 10SM CLR 24/13 A3015 RMK AO2 SLP209 T02440133=
202107241853 METAR KBFI 241853Z 32005KT 10SM CLR 23/14 A3016 RMK AO2 SLP214 T02330139=
202107241753 METAR KBFI 241753Z 30006KT 10SM CLR 22/13 A3018 RMK AO2 SLP219 T02170133 10217 20167 58007=
202107241653 METAR KBFI 241653Z 31007KT 10SM CLR 20/14 A3019 RMK AO2 SLP224 T02000139=
202107241553 METAR KBFI 241553Z 09005KT 10SM CLR 19/14 A3020 RMK AO2 SLP226 T01940144=
202107241453 METAR KBFI 241453Z 05006KT 10SM CLR 18/14 A3020 RMK AO2 SLP226 T01830144 53005=
202107241353 METAR KBFI 241353Z 00000KT 10SM CLR 17/14 A3019 RMK AO2 SLP223 T01720139=
202107241253 METAR KBFI 241253Z 00000KT 10SM CLR 17/14 A3018 RMK AO2 SLP220 T01670139=
202107241153 METAR KBFI 241153Z AUTO 32003KT 10SM CLR 17/14 A3018 RMK AO2 SLP220 T01720139 10206 20172 58006=
202107241053 METAR KBFI 241053Z 00000KT 10SM CLR 18/14 A3019 RMK AO2 SLP223 T01780139=
202107240953 METAR KBFI 240953Z 00000KT 10SM CLR 18/14 A3020 RMK AO2 SLP225 T01780139=
202107240853 METAR KBFI 240853Z 00000KT 10SM CLR 19/14 A3020 RMK AO2 SLP227 T01890144 53002=
202107240753 METAR KBFI 240753Z 00000KT 10SM CLR 19/14 A3020 RMK AO2 SLP226 T01890144 402560128=
202107240653 METAR KBFI 240653Z 06003KT 10SM CLR 19/14 A3020 RMK AO2 SLP225 T01940139=
202107240553 METAR KBFI 240553Z 00000KT 10SM CLR 21/13 A3020 RMK AO2 SLP225 T02060133 10256 20206 50002=
202107240453 METAR KBFI 240453Z 00000KT 10SM CLR 21/13 A3020 RMK AO2 SLP226 T02110128=
202107240353 METAR KBFI 240353Z 00000KT 10SM CLR 22/13 A3019 RMK AO2 SLP222 T02170128=
202107240253 METAR KBFI 240253Z 30007KT 10SM CLR 23/12 A3019 RMK AO2 SLP223 T02280117 56010=
202107240153 METAR KBFI 240153Z 32005KT 10SM CLR 25/11 A3019 RMK AO2 SLP223 T02500111=
202107240053 METAR KBFI 240053Z AUTO 33009G15KT 10SM CLR 26/10 A3020 RMK AO2 SLP228 T02560100=
202107232353 METAR KBFI 232353Z 29006KT 10SM CLR 26/09 A3022 RMK AO2 SLP233 T02560094 10256 20200 58012=
202107232253 METAR KBFI 232253Z 30007KT 260V320 10SM CLR 26/09 A3024 RMK AO2 SLP239 T02560094=
202107232153 METAR KBFI 232153Z VRB04KT 10SM CLR 25/10 A3025 RMK AO2 SLP243 T02500100=
202107232053 METAR KBFI 232053Z 29006KT 10SM CLR 24/11 A3026 RMK AO2 SLP245 T02390111 58007=
202107231953 METAR KBFI 231953Z 00000KT 10SM CLR 22/11 A3026 RMK AO2 SLP248 T02220106=
202107231853 METAR KBFI 231853Z 26005KT 10SM CLR 21/11 A3027 RMK AO2 SLP251 T02110106=
202107231753 METAR KBFI 231753Z VRB03KT 10SM CLR 20/11 A3028 RMK AO2 SLP252 T02000111 10200 20128 51005=
202107231653 METAR KBFI 231653Z VRB04KT 10SM CLR 18/11 A3028 RMK AO2 SLP252 T01830106=
202107231553 METAR KBFI 231553Z 10004KT 10SM CLR 17/11 A3027 RMK AO2 SLP250 T01670106=
202107231453 METAR KBFI 231453Z AUTO 14004KT 10SM CLR 16/11 A3026 RMK AO2 SLP248 T01560106 51012=
202107231353 METAR KBFI 231353Z 15005KT 10SM CLR 14/10 A3025 RMK AO2 SLP244 T01390100=
202107231253 METAR KBFI 231253Z 15003KT 10SM CLR 13/09 A3024 RMK AO2 SLP240 T01330089=
202107231153 METAR KBFI 231153Z 00000KT 10SM CLR 14/09 A3023 RMK AO2 SLP235 T01440094 10178 20144 51009=
202107231053 METAR KBFI 231053Z 00000KT 10SM CLR 15/09 A3022 RMK AO2 SLP234 T01500094=
202107230953 METAR KBFI 230953Z 00000KT 10SM CLR 16/09 A3021 RMK AO2 SLP228 T01560094=
202107230853 METAR KBFI 230853Z 00000KT 10SM CLR 16/09 A3020 RMK AO2 SLP226 T01560094 52011=
202107230753 METAR KBFI 230753Z VRB03KT 10SM CLR 17/09 A3019 RMK AO2 SLP223 T01670089 402390150=
202107230653 METAR KBFI 230653Z 34004KT 10SM CLR 17/09 A3018 RMK AO2 SLP219 T01720094=
202107230553 METAR KBFI 230553Z 00000KT 10SM CLR 18/09 A3017 RMK AO2 SLP215 T01780089 10239 20178 53014=
202107230453 METAR KBFI 230453Z VRB04KT 10SM CLR 18/09 A3015 RMK AO2 SLP210 T01830094=
202107230353 METAR KBFI 230353Z 31006KT 10SM CLR 19/08 A3013 RMK AO2 SLP202 T01940083=
202107230253 METAR KBFI 230253Z 30007KT 10SM CLR 21/07 A3013 RMK AO2 SLP201 T02060072 55001=
202107230153 METAR KBFI 230153Z 30006KT 10SM CLR 22/08 A3012 RMK AO2 SLP199 T02220078=
202107230053 METAR KBFI 230053Z 30008KT 10SM CLR 24/09 A3012 RMK AO2 SLP201 T02390094=
202107222353 METAR KBFI 222353Z VRB05KT 10SM CLR 24/09 A3013 RMK AO2 SLP202 T02390089 10239 20189 58012=
202107222253 METAR KBFI 222253Z 31007KT 10SM CLR 23/09 A3015 RMK AO2 SLP208 T02330089=
202107222153 METAR KBFI 222153Z 29009KT 10SM CLR 23/08 A3016 RMK AO2 SLP211 T02280078=
202107222053 METAR KBFI 222053Z VRB05KT 10SM CLR 22/07 A3016 RMK AO2 SLP214 T02220072 58006=
202107221953 METAR KBFI 221953Z VRB05KT 10SM CLR 21/09 A3018 RMK AO2 SLP218 T02060094=
202107221853 METAR KBFI 221853Z 33006KT 10SM CLR 20/11 A3018 RMK AO2 SLP220 T02000106=
202107221753 METAR KBFI 221753Z VRB03KT 10SM FEW030 19/11 A3018 RMK AO2 SLP220 T01940106 10194 20150 58002=
202107221653 METAR KBFI 221653Z VRB03KT 10SM CLR 18/11 A3019 RMK AO2 SLP222 T01780106=
202107221553 METAR KBFI 221553Z VRB03KT 10SM FEW024 SCT055 BKN200 17/11 A3019 RMK AO2 SLP223 T01720106=
202107221453 METAR KBFI 221453Z VRB03KT 10SM OVC055 16/10 A3019 RMK AO2 SLP222 T01560100 53007=
202107221353 METAR KBFI 221353Z 07006KT 10SM BKN050 15/10 A3018 RMK AO2 SLP221 T01500100=
202107221253 METAR KBFI 221253Z 00000KT 10SM SCT025 BKN050 15/09 A3017 RMK AO2 SLP215 T01500094=
202107221153 METAR KBFI 221153Z 00000KT 10SM BKN026 OVC047 16/09 A3017 RMK AO2 SLP215 T01560094 10172 20150 53003=
202107221142 SPECI KBFI 221142Z 00000KT 10SM BKN026 OVC047 16/09 A3017 RMK AO2 T01560094=
202107221053 METAR KBFI 221053Z 00000KT 10SM FEW047 BKN065 16/09 A3016 RMK AO2 SLP214 T01560094=
202107220953 METAR KBFI 220953Z 05003KT 10SM OVC065 16/10 A3016 RMK AO2 SLP212 T01610100=
202107220853 METAR KBFI 220853Z 06003KT 10SM FEW048 OVC070 16/09 A3016 RMK AO2 SLP212 T01610094 51006=
202107220753 METAR KBFI 220753Z 00000KT 10SM OVC065 17/09 A3015 RMK AO2 SLP210 T01670094 402220139=
202107220653 METAR KBFI 220653Z 00000KT 10SM SCT047 17/09 A3015 RMK AO2 SLP209 T01670094=
202107220553 METAR KBFI 220553Z VRB03KT 10SM BKN047 17/10 A3014 RMK AO2 SLP206 T01720100 10222 20172 51010=
202107220453 METAR KBFI 220453Z VRB03KT 10SM SCT048 18/09 A3013 RMK AO2 SLP203 T01780089=
202107220353 METAR KBFI 220353Z 30005KT 10SM SCT060 18/09 A3012 RMK AO2 SLP199 T01780094=
202107220253 METAR KBFI 220253Z 30008KT 10SM SCT060 19/11 A3011 RMK AO2 SLP195 T01940106 56006=
202107220153 METAR KBFI 220153Z 30009KT 10SM CLR 21/11 A3011 RMK AO2 SLP196 T02060111=
202107220053 METAR KBFI 220053Z VRB03KT 10SM BKN060 22/10 A3012 RMK AO2 SLP198 T02170100=
202107212353 METAR KBFI 212353Z VRB06KT 10SM CLR 21/11 A3013 RMK AO2 SLP201 T02110106 10217 20161 58010=
202107212300 SPECI KBFI 212300Z 00000KT 10SM CLR 21/11 A3014 RMK AO2 T02110106=
202107212253 METAR KBFI 212253Z 00000KT 10SM BKN028 21/10 A3014 RMK AO2 SLP207 T02110100=
202107212153 METAR KBFI 212153Z VRB05KT 10SM BKN028 21/11 A3015 RMK AO2 SLP209 T02060106=
202107212053 METAR KBFI 212053Z VRB03KT 10SM BKN028 19/11 A3016 RMK AO2 SLP212 T01940106 58001=
202107211953 METAR KBFI 211953Z 00000KT 10SM BKN028 17/11 A3017 RMK AO2 SLP214 T01720106=
202107211853 METAR KBFI 211853Z VRB03KT 10SM OVC027 17/11 A3016 RMK AO2 SLP214 T01670106=
202107211753 METAR KBFI 211753Z 14003KT 10SM BKN025 OVC040 16/11 A3016 RMK AO2 SLP213 T01610106 10172 20139 51008=
202107211742 SPECI KBFI 211742Z 16006KT 10SM SCT026 OVC039 17/11 A3016 RMK AO2 T01670106=
202107211714 SPECI KBFI 211714Z 18003KT 10SM BKN027 OVC036 16/11 A3016 RMK AO2 T01610106=
202107211653 METAR KBFI 211653Z 18007KT 10SM FEW027 OVC036 16/11 A3016 RMK AO2 SLP211 T01610106=
202107211637 SPECI KBFI 211637Z 15005KT 10SM SCT028 BKN033 OVC041 16/10 A3016 RMK AO2 T01560100=
202107211553 METAR KBFI 211553Z 14006KT 10SM SCT019 OVC023 15/10 A3015 RMK AO2 SLP210 T01500100=
202107211453 METAR KBFI 211453Z AUTO 16007KT 10SM SCT019 OVC025 14/10 A3014 RMK AO2 SLP205 T01440100 51007=
202107211353 METAR KBFI 211353Z 17006KT 10SM OVC020 14/11 A3013 RMK AO2 SLP202 T01440111=
202107211253 METAR KBFI 211253Z 17005KT 10SM OVC022 14/11 A3013 RMK AO2 SLP201 T01440106=
202107211201 SPECI KBFI 211201Z 20003KT 10SM BKN023 OVC036 15/11 A3012 RMK AO2 T01500106=
202107211153 METAR KBFI 211153Z VRB03KT 10SM SCT023 OVC036 15/11 A3012 RMK AO2 SLP198 T01500106 10172 20150 53005=
202107211053 METAR KBFI 211053Z 00000KT 10SM OVC035 16/10 A3011 RMK AO2 SLP195 T01610100=
202107210953 METAR KBFI 210953Z VRB03KT 10SM OVC030 16/11 A3010 RMK AO2 SLP193 T01560106=
202107210853 METAR KBFI 210853Z 00000KT 10SM OVC034 16/11 A3010 RMK AO2 SLP192 T01610106 53006=
202107210753 METAR KBFI 210753Z 08004KT 10SM BKN034 OVC055 16/11 A3009 RMK AO2 SLP189 T01560106 402220150=
202107210653 METAR KBFI 210653Z VRB03KT 10SM BKN038 BKN060 17/11 A3009 RMK AO2 SLP188 T01670111=
202107210553 METAR KBFI 210553Z VRB03KT 10SM BKN055 17/11 A3008 RMK AO2 SLP187 T01720106 10222 20172 53003=
202107210453 METAR KBFI 210453Z 31004KT 10SM CLR 17/11 A3008 RMK AO2 SLP185 T01720106=
202107210353 METAR KBFI 210353Z 30005KT 10SM CLR 18/11 A3007 RMK AO2 SLP182 T01780111=
202107210253 METAR KBFI 210253Z 00000KT 10SM CLR 21/12 A3007 RMK AO2 SLP184 T02060122 56017=
202107210153 METAR KBFI 210153Z VRB04KT 10SM CLR 22/12 A3009 RMK AO2 SLP188 T02170122=
202107210053 METAR KBFI 210053Z VRB04KT 10SM FEW038 21/12 A3011 RMK AO2 SLP194 T02110117=
202107202353 METAR KBFI 202353Z 00000KT 10SM BKN035 21/12 A3013 RMK AO2 SLP201 T02110122 10222 20167 58016=
202107202253 METAR KBFI 202253Z 00000KT 10SM BKN028 OVC035 20/12 A3014 RMK AO2 SLP206 T02000122=
202107202153 METAR KBFI 202153Z 10SM BKN028 OVC035 19/12 A3016 RMK AO2 SLP212 T01940122=
202107202053 METAR KBFI 202053Z 16005KT 10SM BKN027 OVC033 19/12 A3017 RMK AO2 SLP217 T01890122 58005=
202107201953 METAR KBFI 201953Z 20007KT 170V240 10SM OVC027 18/12 A3018 RMK AO2 SLP220 T01780122=
202107201853 METAR KBFI 201853Z 23005KT 10SM SCT022 OVC025 18/12 A3018 RMK AO2 SLP220 T01780122=
202107201753 METAR KBFI 201753Z 19006KT 10SM SCT010 OVC026 17/12 A3019 RMK AO2 SLP222 T01670122 10172 20150 50004=
202107201653 METAR KBFI 201653Z 19005KT 10SM OVC022 16/13 A3019 RMK AO2 SLP223 T01610128=
202107201600 SPECI KBFI 201600Z 21005KT 10SM OVC019 16/13 A3018 RMK AO2 T01560133=
202107201553 METAR KBFI 201553Z 23004KT 10SM SCT011 OVC014 16/13 A3018 RMK AO2 SLP220 T01560133=
202107201453 METAR KBFI 201453Z 10SM SCT012 OVC014 15/13 A3018 RMK AO2 SLP218 T01500133 53010=
202107201353 METAR KBFI 201353Z VRB04KT 7SM FEW010 OVC020 15/13 A3017 RMK AO2 SLP214 T01500133=
202107201253 METAR KBFI 201253Z 23003KT 9SM FEW010 OVC019 15/14 A3015 RMK AO2 SLP210 T01500139=
202107201153 METAR KBFI 201153Z 20005KT 10SM OVC019 16/13 A3015 RMK AO2 SLP208 T01610128 10200 20156 53004=
202107201053 METAR KBFI 201053Z 24004KT 10SM OVC017 16/13 A3014 RMK AO2 SLP205 T01610128=
202107200953 METAR KBFI 200953Z 14005KT 10SM OVC018 16/13 A3014 RMK AO2 SLP204 T01610133=
202107200924 SPECI KBFI 200924Z 18004KT 10SM BKN023 16/13 A3014 RMK AO2 T01560128=
202107200853 METAR KBFI 200853Z VRB03KT 10SM SCT028 16/13 A3013 RMK AO2 SLP204 T01560128 53011=
202107200753 METAR KBFI 200753Z VRB03KT 10SM CLR 17/12 A3012 RMK AO2 SLP199 T01670117 402830150=
202107200653 METAR KBFI 200653Z 00000KT 10SM CLR 19/09 A3011 RMK AO2 SLP195 T01890094=
202107200553 METAR KBFI 200553Z 00000KT 10SM CLR 20/10 A3010 RMK AO2 SLP193 T02000100 10283 20200 51016=
202107200453 METAR KBFI 200453Z 00000KT 10SM CLR 22/10 A3009 RMK AO2 SLP190 T02170100=
202107200353 METAR KBFI 200353Z AUTO 28003KT 10SM CLR 22/11 A3007 RMK AO2 SLP183 T02220106=
202107200253 METAR KBFI 200253Z 26006KT 10SM CLR 25/11 A3006 RMK AO2 SLP177 T02500106 53001=
202107200153 METAR KBFI 200153Z 32004KT 10SM CLR 27/11 A3005 RMK AO2 SLP174 T02670106=
202107200053 METAR KBFI 200053Z 23005KT 10SM CLR 27/12 A3005 RMK AO2 SLP175 T02720117=
202107192353 METAR KBFI 192353Z VRB03KT 10SM CLR 28/10 A3005 RMK AO2 SLP177 T02780100 10283 20217 58010=
202107192253 METAR KBFI 192253Z VRB05KT 10SM CLR 27/12 A3007 RMK AO2 SLP181 T02720117=
202107192153 METAR KBFI 192153Z 29005KT 10SM CLR 27/12 A3008 RMK AO2 SLP184 T02670117=
202107192053 METAR KBFI 192053Z 23005KT 10SM CLR 26/11 A3008 RMK AO2 SLP187 T02560111 56010=
202107191953 METAR KBFI 191953Z 36003KT 10SM CLR 24/11 A3010 RMK AO2 SLP191 T02390111=
202107191853 METAR KBFI 191853Z 00000KT 10SM CLR 23/12 A3010 RMK AO2 SLP192 T02330117=
202107191753 METAR KBFI 191753Z VRB05KT 10SM CLR 22/12 A3012 RMK AO2 SLP198 T02220117 10222 20150 58005=
202107191653 METAR KBFI 191653Z 32004KT 10SM CLR 21/12 A3013 RMK AO2 SLP201 T02060117=
202107191553 METAR KBFI 191553Z 19003KT 10SM CLR 19/12 A3013 RMK AO2 SLP203 T01890122=
202107191453 METAR KBFI 191453Z 00000KT 10SM CLR 17/12 A3013 RMK AO2 SLP203 T01720122 53005=
202107191353 METAR KBFI 191353Z 00000KT 10SM CLR 16/12 A3013 RMK AO2 SLP201 T01560117=
202107191253 METAR KBFI 191253Z 00000KT 10SM CLR 15/11 A3012 RMK AO2 SLP199 T01500106=
202107191153 METAR KBFI 191153Z 00000KT 10SM CLR 15/10 A3012 RMK AO2 SLP198 T01500100 10189 20150 51005=
202107191053 METAR KBFI 191053Z 00000KT 10SM CLR 16/11 A3011 RMK AO2 SLP197 T01560106=
202107190953 METAR KBFI 190953Z 31003KT 10SM CLR 16/10 A3011 RMK AO2 SLP194 T01610100=
202107190853 METAR KBFI 190853Z AUTO 00000KT 10SM CLR 17/10 A3010 RMK AO2 SLP193 T01670100 50004=
202107190753 METAR KBFI 190753Z 00000KT 10SM CLR 18/11 A3010 RMK AO2 SLP193 T01780106 402610144=
202107190653 METAR KBFI 190653Z VRB03KT 10SM CLR 18/11 A3010 RMK AO2 SLP191 T01830106=
202107190553 METAR KBFI 190553Z 31004KT 10SM CLR 18/11 A3009 RMK AO2 SLP189 T01830106 10261 20183 53006=
202107190453 METAR KBFI 190453Z 30005KT 10SM CLR 19/10 A3008 RMK AO2 SLP187 T01940100=
202107190353 METAR KBFI 190353Z 32004KT 10SM CLR 21/11 A3008 RMK AO2 SLP184 T02060106=
202107190253 METAR KBFI 190253Z 31006KT 10SM CLR 22/11 A3007 RMK AO2 SLP183 T02170111 56005=
202107190153 METAR KBFI 190153Z 31006KT 10SM CLR 23/11 A3007 RMK AO2 SLP182 T02330111=
202107190053 METAR KBFI 190053Z 30008KT 10SM CLR 24/11 A3008 RMK AO2 SLP186 T02440111=
202107182353 METAR KBFI 182353Z 32007KT 10SM CLR 26/11 A3008 RMK AO2 SLP187 T02610111 10261 20200 58016=
202107182253 METAR KBFI 182253Z VRB06KT 10SM SCT250 26/12 A3010 RMK AO2 SLP192 T02560117=
202107182153 METAR KBFI 182153Z 31005KT 10SM SCT250 24/12 A3012 RMK AO2 SLP199 T02440117=
202107182053 METAR KBFI 182053Z 28004KT 10SM CLR 24/12 A3013 RMK AO2 SLP203 T02390117 58009=
202107181953 METAR KBFI 181953Z 29004KT 10SM CLR 23/11 A3015 RMK AO2 SLP209 T02280111=
202107181853 METAR KBFI 181853Z 28004KT 10SM CLR 22/11 A3016 RMK AO2 SLP212 T02170111=
202107181753 METAR KBFI 181753Z 30005KT 10SM CLR 21/11 A3016 RMK AO2 SLP212 T02060111 10206 20144 50000=
202107181653 METAR KBFI 181653Z 33005KT 10SM CLR 19/11 A3017 RMK AO2 SLP215 T01940111=
202107181553 METAR KBFI 181553Z 07003KT 10SM CLR 17/10 A3017 RMK AO2 SLP215 T01720100=
202107181453 METAR KBFI 181453Z VRB03KT 10SM CLR 17/10 A3016 RMK AO2 SLP212 T01720100 51006=
202107181353 METAR KBFI 181353Z AUTO 00000KT 10SM CLR 16/10 A3016 RMK AO2 SLP211 T01560100=
202107181253 METAR KBFI 181253Z 00000KT 10SM FEW050 15/10 A3015 RMK AO2 SLP208 T01500100=
202107181153 METAR KBFI 181153Z 00000KT 10SM SCT060 16/10 A3014 RMK AO2 SLP207 T01560100 10178 20150 50004=
202107181053 METAR KBFI 181053Z 00000KT 10SM BKN060 16/10 A3014 RMK AO2 SLP207 T01560100=
202107180953 METAR KBFI 180953Z 00000KT 10SM BKN060 16/10 A3014 RMK AO2 SLP205 T01560100=
202107180853 METAR KBFI 180853Z 00000KT 10SM OVC065 16/10 A3013 RMK AO2 SLP202 T01610100 53010=
202107180753 METAR KBFI 180753Z 00000KT 10SM BKN065 17/11 A3012 RMK AO2 SLP198 T01670106 402390133=
202107180653 METAR KBFI 180653Z 00000KT 10SM CLR 17/11 A3011 RMK AO2 SLP194 T01720106=
202107180553 METAR KBFI 180553Z VRB04KT 10SM CLR 18/11 A3010 RMK AO2 SLP192 T01780106 10233 20178 51014=
202107180453 METAR KBFI 180453Z 36006KT 10SM CLR 18/11 A3009 RMK AO2 SLP189 T01830111=
202107180353 METAR KBFI 180353Z 30005KT 10SM CLR 18/11 A3007 RMK AO2 SLP182 T01830111=
202107180253 METAR KBFI 180253Z 31007KT 10SM CLR 21/11 A3006 RMK AO2 SLP178 T02060111 53000=
202107180153 METAR KBFI 180153Z 31006G14KT 10SM CLR 22/11 A3005 RMK AO2 SLP175 T02170111=
202107180053 METAR KBFI 180053Z 31010G16KT 10SM CLR 23/12 A3005 RMK AO2 SLP176 T02280122=
202107172353 METAR KBFI 172353Z VRB05KT 10SM SCT040 23/12 A3006 RMK AO2 SLP178 T02280122 10239 20189 58011=
202107172253 METAR KBFI 172253Z 33005KT 10SM CLR 23/12 A3007 RMK AO2 SLP181 T02330122=
202107172153 METAR KBFI 172153Z VRB06KT 10SM CLR 23/12 A3008 RMK AO2 SLP186 T02280122=
202107172053 METAR KBFI 172053Z VRB04KT 10SM CLR 22/12 A3009 RMK AO2 SLP189 T02220122 58004=
202107171953 METAR KBFI 171953Z 32005KT 10SM SCT032 21/12 A3010 RMK AO2 SLP192 T02110122=
202107171853 METAR KBFI 171853Z VRB06KT 10SM BKN033 21/13 A3010 RMK AO2 SLP193 T02110128=
202107171753 METAR KBFI 171753Z 21006KT 10SM BKN033 19/12 A3010 RMK AO2 SLP193 T01890122 10189 20133 52002=
202107171653 METAR KBFI 171653Z 21008KT 10SM BKN033 18/12 A3010 RMK AO2 SLP193 T01830122=
202107171553 METAR KBFI 171553Z VRB03KT 10SM SCT022 BKN036 17/12 A3010 RMK AO2 SLP191 T01720122=
202107171453 METAR KBFI 171453Z 19005KT 10SM SCT022 BKN065 16/12 A3010 RMK AO2 SLP191 T01610117 53012=
202107171353 METAR KBFI 171353Z 16004KT 10SM BKN065 15/12 A3009 RMK AO2 SLP187 T01500122=
202107171253 METAR KBFI 171253Z 14004KT 10SM SCT040 BKN060 14/11 A3007 RMK AO2 SLP182 T01390111=
202107171153 METAR KBFI 171153Z 20005KT 10SM CLR 14/11 A3006 RMK AO2 SLP179 T01390111 10172 20139 51007=
202107171053 METAR KBFI 171053Z 00000KT 10SM BKN039 15/11 A3006 RMK AO2 SLP177 T01500111=
202107170953 METAR KBFI 170953Z 15004KT 10SM SCT043 14/11 A3005 RMK AO2 SLP176 T01440111=
202107170853 METAR KBFI 170853Z 16005KT 10SM FEW043 15/11 A3004 RMK AO2 SLP172 T01500111 53001=
202107170753 METAR KBFI 170753Z 00000KT 10SM CLR 16/12 A3004 RMK AO2 SLP172 T01610117 402060139=
202107170653 METAR KBFI 170653Z 18004KT 10SM OVC090 17/11 A3004 RMK AO2 SLP171 T01670111=
202107170553 METAR KBFI 170553Z 17003KT 10SM SCT090 17/11 A3004 RMK AO2 SLP172 T01720106 10206 20172 52004=
202107170453 METAR KBFI 170453Z 22006KT 10SM OVC060 18/11 A3004 RMK AO2 SLP171 T01830111=
202107170353 METAR KBFI 170353Z 20005KT 10SM OVC065 19/12 A3003 RMK AO2 SLP168 T01940117=
202107170253 METAR KBFI 170253Z 19005KT 10SM OVC065 19/12 A3003 RMK AO2 SLP167 T01940117 55003=
202107170153 METAR KBFI 170153Z 19006KT 10SM SCT030 OVC060 20/13 A3002 RMK AO2 SLP166 T02000128=
202107170053 METAR KBFI 170053Z AUTO 18009KT 10SM SCT025 BKN060 21/12 A3003 RMK AO2 SLP167 T02060117=
202107162353 METAR KBFI 162353Z 19008KT 10SM SCT028 BKN060 21/12 A3004 RMK AO2 SLP171 T02060122 10206 20156 56009=
202107162253 METAR KBFI 162253Z 16009G15KT 10SM FEW033 OVC055 21/12 A3004 RMK AO2 SLP173 T02060122=
202107162153 METAR KBFI 162153Z VRB06KT 10SM FEW040 OVC055 20/12 A3005 RMK AO2 SLP176 T02000122=
202107162053 METAR KBFI 162053Z 17006KT 10SM BKN027 OVC050 19/12 A3006 RMK AO2 SLP180 T01890122 58003=
202107161953 METAR KBFI 161953Z 22007KT 10SM BKN021 OVC055 18/12 A3007 RMK AO2 SLP182 T01830117=
202107161853 METAR KBFI 161853Z 18007KT 10SM OVC021 17/12 A3007 RMK AO2 SLP183 T01670117=
202107161753 METAR KBFI 161753Z VRB04KT 10SM OVC015 16/12 A3007 RMK AO2 SLP183 T01560117 10156 20139 50004=
202107161716 SPECI KBFI 161716Z 17007KT 10SM BKN016 OVC024 15/12 A3008 RMK AO2 T01500117=
202107161653 METAR KBFI 161653Z 18006KT 10SM OVC012 14/12 A3008 RMK AO2 SLP185 T01440117=
202107161553 METAR KBFI 161553Z 20004KT 10SM OVC012 14/12 A3007 RMK AO2 SLP183 T01390117=
202107161453 METAR KBFI 161453Z 21004KT 10SM OVC013 14/12 A3006 RMK AO2 SLP178 T01440117 51008=
202107161353 METAR KBFI 161353Z 22004KT 10SM OVC014 14/12 A3005 RMK AO2 SLP177 T01390117=
202107161253 METAR KBFI 161253Z 20008KT 10SM BKN014 OVC040 14/12 A3005 RMK AO2 SLP175 T01440117=
202107161153 METAR KBFI 161153Z 18007KT 10SM BKN014 OVC040 14/12 A3004 RMK AO2 SLP170 T01440117 10178 20139 51002=
202107161053 METAR KBFI 161053Z 22004KT 10SM SCT014 OVC046 14/12 A3003 RMK AO2 SLP170 T01440117=
202107160953 METAR KBFI 160953Z 19006KT 10SM BKN015 OVC046 14/12 A3003 RMK AO2 SLP170 T01440117=
202107160935 SPECI KBFI 160935Z 17007KT 10SM BKN016 OVC046 14/12 A3003 RMK AO2 T01440117=
202107160853 METAR KBFI 160853Z 20008KT 10SM OVC044 15/12 A3003 RMK AO2 SLP168 T01500117 53005=
202107160753 METAR KBFI 160753Z 23003KT 10SM OVC044 16/12 A3003 RMK AO2 SLP167 T01610117 402170128=
202107160653 METAR KBFI 160653Z 28004KT 10SM OVC041 17/12 A3002 RMK AO2 SLP164 T01670122=
202107160553 METAR KBFI 160553Z 22005KT 10SM SCT035 BKN070 18/12 A3002 RMK AO2 SLP164 T01780122 10217 20178 53004=
202107160453 METAR KBFI 160453Z 00000KT 10SM FEW040 19/12 A3001 RMK AO2 SLP163 T01890122=
202107160353 METAR KBFI 160353Z 00000KT 10SM FEW035 19/12 A3001 RMK AO2 SLP160 T01940122=
202107160253 METAR KBFI 160253Z 22004KT 10SM CLR 20/12 A3000 RMK AO2 SLP160 T02000122 56011=
202107160153 METAR KBFI 160153Z 18004KT 10SM CLR 21/12 A3001 RMK AO2 SLP160 T02110117=
202107160053 METAR KBFI 160053Z VRB04KT 10SM SCT038 21/12 A3002 RMK AO2 SLP166 T02060117=
202107152353 METAR KBFI 152353Z VRB04KT 10SM FEW036 21/12 A3004 RMK AO2 SLP171 T02060117 10211 20156 58010=
202107152253 METAR KBFI 152253Z 19007KT 10SM SCT034 21/12 A3006 RMK AO2 SLP177 T02060117=
202107152200 SPECI KBFI 152200Z AUTO 23008KT 10SM OVC037 20/12 A3006 RMK AO2 T02000117=
202107152153 METAR KBFI 152153Z AUTO 23007KT 210V270 10SM BKN025 OVC037 20/12 A3006 RMK AO2 SLP180 T02000117=
202107152053 METAR KBFI 152053Z 19006G15KT 10SM BKN025 OVC039 19/12 A3007 RMK AO2 SLP181 T01890117 58003=
202107151953 METAR KBFI 151953Z 24008G15KT 10SM BKN024 OVC039 18/11 A3007 RMK AO2 SLP183 T01780111=
202107151853 METAR KBFI 151853Z VRB06KT 10SM BKN022 17/11 A3007 RMK AO2 SLP184 T01670111=
202107151753 METAR KBFI 151753Z 20004KT 10SM OVC017 16/11 A3008 RMK AO2 SLP184 T01610111 10161 20133 51004=
202107151653 METAR KBFI 151653Z VRB05KT 10SM OVC012 15/11 A3008 RMK AO2 SLP184 T01500111=
202107151644 SPECI KBFI 151644Z 22006KT 10SM OVC015 14/11 A3008 RMK AO2 T01440111=
202107151553 METAR KBFI 151553Z VRB04KT 10SM OVC012 14/11 A3007 RMK AO2 SLP183 T01390111=
202107151453 METAR KBFI 151453Z 22006KT 10SM OVC012 14/11 A3006 RMK AO2 SLP180 T01390111 53012=
202107151353 METAR KBFI 151353Z 18007KT 10SM OVC010 13/11 A3005 RMK AO2 SLP174 T01330111=
202107151253 METAR KBFI 151253Z 20005KT 10SM OVC009 13/11 A3004 RMK AO2 SLP172 T01330111=
202107151153 METAR KBFI 151153Z VRB04KT 10SM OVC009 13/11 A3003 RMK AO2 SLP168 T01330111 10178 20128 53005=
202107151053 METAR KBFI 151053Z VRB05KT 10SM OVC009 13/11 A3002 RMK AO2 SLP166 T01330111=
202107150953 METAR KBFI 150953Z 18007KT 10SM OVC010 13/11 A3002 RMK AO2 SLP164 T01330111=
202107150853 METAR KBFI 150853Z 18007KT 10SM BKN013 13/11 A3001 RMK AO2 SLP163 T01330111 51004=
202107150753 METAR KBFI 150753Z 17006KT 10SM CLR 14/12 A3001 RMK AO2 SLP162 T01440117 402440128=
202107150653 METAR KBFI 150653Z 23005KT 10SM CLR 16/12 A3000 RMK AO2 SLP158 T01610122=
202107150553 METAR KBFI 150553Z VRB06KT 10SM CLR 18/13 A2998 RMK AO2 SLP153 T01780128 10244 20178 53012=
202107150453 METAR KBFI 150453Z 28003KT 10SM CLR 19/14 A2997 RMK AO2 SLP147 T01940139=
202107150353 METAR KBFI 150353Z 24003KT 10SM CLR 21/14 A2995 RMK AO2 SLP141 T02110144=
202107150253 METAR KBFI 150253Z 23006KT 10SM CLR 23/14 A2995 RMK AO2 SLP141 T02280139 56012=
202107150153 METAR KBFI 150153Z VRB04KT 10SM CLR 23/14 A2995 RMK AO2 SLP142 T02330139=
202107150053 METAR KBFI 150053Z VRB04KT 10SM CLR 24/14 A2997 RMK AO2 SLP147 T02390139=
202107142353 METAR KBFI 142353Z 34004KT 10SM CLR 23/13 A2998 RMK AO2 SLP152 T02330133 10233 20150 57018=
202107142253 METAR KBFI 142253Z VRB03KT 10SM CLR 22/13 A3000 RMK AO2 SLP159 T02220133=
202107142153 METAR KBFI 142153Z 10SM CLR 21/13 A3001 RMK AO2 SLP163 T02060133=
202107142053 METAR KBFI 142053Z 10SM SCT035 19/13 A3003 RMK AO2 SLP170 T01940133 58010=
202107141955 SPECI KBFI 141955Z 00000KT 10SM OVC017 17/13 A3005 RMK AO2 T01720128=
202107141953 METAR KBFI 141953Z 21006KT 10SM BKN012 OVC017 18/13 A3005 RMK AO2 SLP175 T01780128=
202107141853 METAR KBFI 141853Z 26007KT 10SM OVC011 16/12 A3006 RMK AO2 SLP178 T01610122=
202107141753 METAR KBFI 141753Z 20004KT 10SM OVC010 15/12 A3006 RMK AO2 SLP180 T01500122 10150 20128 58000=
202107141737 SPECI KBFI 141737Z 17005KT 10SM OVC010 15/12 A3007 RMK AO2 T01500122=
202107141653 METAR KBFI 141653Z 16005KT 10SM OVC007 14/12 A3007 RMK AO2 SLP182 T01390122=
202107141553 METAR KBFI 141553Z 22005KT 6SM BR OVC006 14/12 A3007 RMK AO2 SLP182 T01390122=
202107141453 METAR KBFI 141453Z 22005KT 7SM OVC006 13/12 A3007 RMK AO2 SLP181 T01330122 53007=
202107141353 METAR KBFI 141353Z 20004KT 10SM OVC007 13/12 A3006 RMK AO2 SLP178 T01330122=
202107141313 SPECI KBFI 141313Z 21004KT 10SM OVC008 13/12 A3005 RMK AO2 T01330122=
202107141253 METAR KBFI 141253Z 22004KT 10SM SCT008 BKN013 OVC080 13/12 A3005 RMK AO2 SLP175 T01280122=
202107141153 METAR KBFI 141153Z 00000KT 10SM CLR 14/12 A3004 RMK AO2 SLP173 T01390117 10206 20139 53009=
202107141053 METAR KBFI 141053Z 28003KT 10SM CLR 14/12 A3003 RMK AO2 SLP169 T01440122=
202107140953 METAR KBFI 140953Z 33003KT 10SM CLR 16/13 A3003 RMK AO2 SLP167 T01610128=
202107140853 METAR KBFI 140853Z VRB03KT 10SM CLR 18/12 A3002 RMK AO2 SLP164 T01830117 51006=
202107140753 METAR KBFI 140753Z 00000KT 10SM CLR 19/11 A3001 RMK AO2 SLP163 T01940111 402780133=
202107140653 METAR KBFI 140653Z 00000KT 10SM CLR 20/13 A3001 RMK AO2 SLP161 T02000128=
202107140553 METAR KBFI 140553Z 31004KT 10SM CLR 21/14 A3000 RMK AO2 SLP159 T02110139 10278 20211 53007=
202107140453 METAR KBFI 140453Z 00000KT 10SM CLR 23/13 A2999 RMK AO2 SLP156 T02280133=
202107140353 METAR KBFI 140353Z 31003KT 10SM CLR 24/13 A2998 RMK AO2 SLP151 T02390133=
202107140253 METAR KBFI 140253Z 34004KT 10SM CLR 26/13 A2998 RMK AO2 SLP151 T02560133 55009=
202107140153 METAR KBFI 140153Z 32005G16KT 10SM CLR 26/13 A2998 RMK AO2 SLP150 T02610133=
202107140053 METAR KBFI 140053Z 29005KT 10SM CLR 27/13 A2999 RMK AO2 SLP155 T02720128=
202107132353 METAR KBFI 132353Z VRB06KT 10SM CLR 27/12 A3000 RMK AO2 SLP160 T02720122 10272 20172 58017=
202107132253 METAR KBFI 132253Z 30005KT 10SM CLR 27/13 A3002 RMK AO2 SLP167 T02670133=
202107132153 METAR KBFI 132153Z VRB03KT 10SM CLR 25/14 A3004 RMK AO2 SLP173 T02500144=
202107132053 METAR KBFI 132053Z VRB03KT 10SM CLR 23/14 A3005 RMK AO2 SLP177 T02330139 58014=
202107131953 METAR KBFI 131953Z VRB04KT 10SM CLR 21/14 A3008 RMK AO2 SLP184 T02110139=
202107131853 METAR KBFI 131853Z 10SM CLR 19/13 A3009 RMK AO2 SLP188 T01940133=
202107131753 METAR KBFI 131753Z 00000KT 10SM SCT013 17/13 A3009 RMK AO2 SLP190 T01720128 10172 20133 58004=
202107131717 SPECI KBFI 131717Z VRB04KT 10SM OVC011 17/13 A3010 RMK AO2 T01670128=
202107131655 SPECI KBFI 131655Z 23004KT 10SM OVC009 16/13 A3011 RMK AO2 T01560128=
202107131653 METAR KBFI 131653Z 10SM OVC090 16/13 A3010 RMK AO2 SLP194 T01560128=
202107131553 METAR KBFI 131553Z VRB03KT 10SM OVC007 14/12 A3011 RMK AO2 SLP194 T01390122=
202107131453 METAR KBFI 131453Z 16006KT 10SM OVC007 14/12 A3011 RMK AO2 SLP195 T01390122 53007=
202107131353 METAR KBFI 131353Z 18004KT 10SM BKN008 14/12 A3010 RMK AO2 SLP192 T01390122=
202107131308 SPECI KBFI 131308Z 22005KT 10SM BKN008 13/12 A3009 RMK AO2 T01330117=
202107131304 SPECI KBFI 131304Z 23005KT 10SM BKN008 13/12 A3009 RMK AO2 T01330117=
202107131253 METAR KBFI 131253Z 21004KT 10SM CLR 13/12 A3009 RMK AO2 SLP189 T01330117=
202107131153 METAR KBFI 131153Z AUTO 21004KT 10SM CLR 14/12 A3009 RMK AO2 SLP187 T01390117 10222 20139 53010=
202107131053 METAR KBFI 131053Z AUTO 22004KT 10SM CLR 14/12 A3007 RMK AO2 SLP182 T01390122=
202107130953 METAR KBFI 130953Z AUTO 22003KT 10SM CLR 15/12 A3006 RMK AO2 SLP180 T01500122=
202107130853 METAR KBFI 130853Z AUTO VRB05KT 10SM CLR 16/13 A3006 RMK AO2 SLP177 T01610128 52005=
202107130753 METAR KBFI 130753Z AUTO 25004KT 10SM CLR 18/14 A3005 RMK AO2 SLP176 T01780139 402780139=
202107130653 METAR KBFI 130653Z AUTO 26003KT 10SM CLR 20/14 A3004 RMK AO2 SLP173 T02000139=
202107130553 METAR KBFI 130553Z 00000KT 10SM CLR 22/13 A3004 RMK AO2 SLP172 T02170133 10278 20217 53011=
202107130453 METAR KBFI 130453Z 29003KT 10SM FEW250 23/13 A3003 RMK AO2 SLP168 T02280128=
202107130353 METAR KBFI 130353Z 00000KT 10SM FEW250 25/13 A3001 RMK AO2 SLP162 T02500128=
202107130253 METAR KBFI 130253Z 00000KT 10SM CLR 27/13 A3001 RMK AO2 SLP161 T02670128 56007=
202107130153 METAR KBFI 130153Z 30005KT 10SM FEW250 27/13 A3001 RMK AO2 SLP162 T02670133=
202107130053 METAR KBFI 130053Z VRB04KT 10SM FEW150 27/13 A3001 RMK AO2 SLP163 T02720128=
202107122353 METAR KBFI 122353Z 30006KT 10SM CLR 27/13 A3003 RMK AO2 SLP169 T02720133 10278 20206 57010=
202107122253 METAR KBFI 122253Z VRB03KT 10SM FEW150 27/13 A3004 RMK AO2 SLP172 T02670133=
202107122153 METAR KBFI 122153Z VRB06KT 10SM FEW250 26/12 A3005 RMK AO2 SLP175 T02610117=
202107122053 METAR KBFI 122053Z 33007KT 10SM CLR 25/13 A3006 RMK AO2 SLP179 T02500128 58008=
202107121953 METAR KBFI 121953Z 33006KT 10SM CLR 24/13 A3007 RMK AO2 SLP181 T02390128=
202107121853 METAR KBFI 121853Z VRB03KT 10SM CLR 22/13 A3008 RMK AO2 SLP185 T02220133=
202107121753 METAR KBFI 121753Z 31003KT 10SM CLR 20/13 A3008 RMK AO2 SLP187 T02000128 10206 20139 56000=
202107121653 METAR KBFI 121653Z 31005KT 10SM CLR 19/13 A3008 RMK AO2 SLP187 T01890128=
202107121553 METAR KBFI 121553Z VRB03KT 10SM CLR 18/13 A3008 RMK AO2 SLP186 T01780128=
202107121453 METAR KBFI 121453Z VRB03KT 10SM CLR 17/12 A3008 RMK AO2 SLP187 T01670122 51007=
202107121353 METAR KBFI 121353Z 00000KT 10SM CLR 15/12 A3008 RMK AO2 SLP186 T01500122=
202107121253 METAR KBFI 121253Z 00000KT 10SM CLR 14/12 A3007 RMK AO2 SLP183 T01440122=
202107121153 METAR KBFI 121153Z AUTO 31003KT 10SM CLR 14/12 A3006 RMK AO2 SLP180 T01440122 10206 20144 53005=
202107121053 METAR KBFI 121053Z AUTO 32004KT 10SM CLR 15/12 A3006 RMK AO2 SLP178 T01500122=
202107120953 METAR KBFI 120953Z AUTO 32004KT 10SM CLR 16/12 A3005 RMK AO2 SLP177 T01610122=
202107120853 METAR KBFI 120853Z 00000KT 10SM CLR 18/12 A3005 RMK AO2 SLP175 T01780117 50001=
202107120753 METAR KBFI 120753Z 31003KT 10SM CLR 18/12 A3005 RMK AO2 SLP176 T01830122 402670144=
202107120653 METAR KBFI 120653Z 10SM CLR 19/12 A3005 RMK AO2 SLP175 T01890122=
202107120553 METAR KBFI 120553Z VRB03KT 10SM CLR 21/12 A3005 RMK AO2 SLP174 T02060122 10261 20206 53002=
202107120453 METAR KBFI 120453Z VRB03KT 10SM CLR 22/12 A3004 RMK AO2 SLP173 T02220122=
202107120353 METAR KBFI 120353Z 35004KT 10SM CLR 23/13 A3003 RMK AO2 SLP170 T02330128=
202107120253 METAR KBFI 120253Z 30006KT 10SM CLR 24/12 A3004 RMK AO2 SLP172 T02390117 56010=
202107120153 METAR KBFI 120153Z 31008G16KT 10SM CLR 24/12 A3004 RMK AO2 SLP173 T02440117=
202107120053 METAR KBFI 120053Z 32006KT 10SM CLR 26/11 A3005 RMK AO2 SLP177 T02560106=
202107112353 METAR KBFI 112353Z AUTO 30008KT 10SM CLR 26/11 A3007 RMK AO2 SLP182 T02560106 10267 20200 56018=
202107112253 METAR KBFI 112253Z AUTO 32006KT 10SM CLR 26/13 A3008 RMK AO2 SLP187 T02560128=
202107112153 METAR KBFI 112153Z 32007KT 10SM CLR 25/12 A3010 RMK AO2 SLP193 T02500122=
202107112053 METAR KBFI 112053Z 30004KT 10SM CLR 24/12 A3012 RMK AO2 SLP200 T02390117 58013=
202107111953 METAR KBFI 111953Z 28006KT 10SM CLR 23/12 A3014 RMK AO2 SLP206 T02280122=
202107111853 METAR KBFI 111853Z VRB04KT 10SM CLR 22/13 A3015 RMK AO2 SLP210 T02220128=
202107111753 METAR KBFI 111753Z VRB04KT 10SM CLR 20/13 A3016 RMK AO2 SLP214 T02000128 10200 20144 58005=
202107111653 METAR KBFI 111653Z VRB03KT 10SM CLR 19/12 A3017 RMK AO2 SLP217 T01890122=
202107111553 METAR KBFI 111553Z 23003KT 10SM SCT016 18/13 A3018 RMK AO2 SLP219 T01780128=
202107111453 METAR KBFI 111453Z 00000KT 10SM SCT016 16/12 A3018 RMK AO2 SLP219 T01610117 51007=
202107111353 METAR KBFI 111353Z 00000KT 10SM FEW010 16/11 A3018 RMK AO2 SLP218 T01560111=
202107111253 METAR KBFI 111253Z AUTO 00000KT 10SM CLR 14/11 A3017 RMK AO2 SLP215 T01440106=
202107111153 METAR KBFI 111153Z AUTO 00000KT 10SM CLR 15/11 A3016 RMK AO2 SLP212 T01500106 10206 20150 53006=
202107111053 METAR KBFI 111053Z 00000KT 10SM CLR 16/11 A3015 RMK AO2 SLP209 T01560111=
202107110953 METAR KBFI 110953Z 00000KT 10SM CLR 16/12 A3015 RMK AO2 SLP208 T01610117=
202107110853 METAR KBFI 110853Z 33004KT 10SM CLR 17/12 A3014 RMK AO2 SLP206 T01670122 51004=
202107110753 METAR KBFI 110753Z 00000KT 10SM FEW070 18/12 A3014 RMK AO2 SLP205 T01780117 402560150=
202107110653 METAR KBFI 110653Z 34003KT 10SM CLR 19/12 A3013 RMK AO2 SLP204 T01890122=
202107110553 METAR KBFI 110553Z 33004KT 10SM CLR 21/12 A3013 RMK AO2 SLP202 60000 T02060117 10256 20206 53009=
202107110453 METAR KBFI 110453Z 35004KT 10SM CLR 21/12 A3012 RMK AO2 RAB39E48 SLP199 P0000 T02110122=
202107110353 METAR KBFI 110353Z VRB03KT 10SM CLR 23/13 A3010 RMK AO2 SLP193 T02280133=
202107110253 METAR KBFI 110253Z 30004KT 10SM CLR 23/13 A3010 RMK AO2 SLP192 T02330133 56008=
202107110153 METAR KBFI 110153Z AUTO VRB06KT 10SM CLR 24/14 A3010 RMK AO2 SLP192 T02440139=
202107110053 METAR KBFI 110053Z 30007KT 10SM CLR 25/14 A3011 RMK AO2 SLP196 T02500144=
202107102353 METAR KBFI 102353Z VRB04KT 10SM CLR 25/14 A3012 RMK AO2 SLP200 T02500139 10256 20183 56014=
202107102253 METAR KBFI 102253Z 34006KT 10SM CLR 24/14 A3014 RMK AO2 SLP204 T02440144=
202107102153 METAR KBFI 102153Z 33005KT 10SM CLR 24/14 A3015 RMK AO2 SLP209 T02390139=
202107102053 METAR KBFI 102053Z VRB05KT 10SM CLR 23/14 A3016 RMK AO2 SLP214 T02330139 58009=
202107101953 METAR KBFI 101953Z 10SM CLR 22/14 A3018 RMK AO2 SLP219 T02220139=
202107101853 METAR KBFI 101853Z 00000KT 10SM CLR 21/14 A3019 RMK AO2 SLP224 T02060139=
202107101753 METAR KBFI 101753Z 00000KT 10SM CLR 18/13 A3019 RMK AO2 SLP223 T01830133 10189 20150 51005=
202107101653 METAR KBFI 101653Z 18005KT 10SM BKN010 18/14 A3019 RMK AO2 SLP221 T01780139=
202107101558 SPECI KBFI 101558Z 25005KT 10SM BKN010 17/13 A3019 RMK AO2 T01670133=
202107101553 METAR KBFI 101553Z AUTO VRB05KT 10SM BKN015 17/13 A3019 RMK AO2 SLP221 T01670133=
202107101539 SPECI KBFI 101539Z 25005KT 10SM BKN015 17/13 A3018 RMK AO2 T01670133=
202107101453 METAR KBFI 101453Z 31004KT 10SM CLR 17/13 A3018 RMK AO2 SLP219 T01670133 51015=
202107101353 METAR KBFI 101353Z 00000KT 10SM FEW010 16/13 A3017 RMK AO2 SLP215 T01610133=
202107101253 METAR KBFI 101253Z 00000KT 10SM FEW065 15/13 A3015 RMK AO2 SLP210 T01500128=
202107101153 METAR KBFI 101153Z 00000KT 10SM CLR 16/13 A3013 RMK AO2 SLP204 T01560128 10194 20156 53011=
202107101053 METAR KBFI 101053Z VRB03KT 10SM CLR 17/13 A3012 RMK AO2 SLP199 T01670133=
202107100953 METAR KBFI 100953Z 00000KT 10SM CLR 17/13 A3011 RMK AO2 SLP194 T01720133=
202107100853 METAR KBFI 100853Z 30003KT 10SM CLR 17/13 A3010 RMK AO2 SLP193 T01720133 53013=
202107100753 METAR KBFI 100753Z 00000KT 10SM CLR 18/14 A3009 RMK AO2 SLP188 T01830139 402670133=
202107100653 METAR KBFI 100653Z 27003KT 10SM CLR 18/13 A3007 RMK AO2 SLP184 T01830133=
202107100553 METAR KBFI 100553Z 32004KT 10SM CLR 19/13 A3007 RMK AO2 SLP180 T01940128 10261 20194 52014=
202107100453 METAR KBFI 100453Z 30004KT 10SM CLR 22/13 A3005 RMK AO2 SLP176 T02170133=
202107100353 METAR KBFI 100353Z 31004KT 10SM CLR 23/13 A3004 RMK AO2 SLP171 T02330128=
202107100253 METAR KBFI 100253Z 31004KT 10SM CLR 25/13 A3002 RMK AO2 SLP166 T02500128 56007=
202107100153 METAR KBFI 100153Z 30008KT 10SM CLR 25/13 A3003 RMK AO2 SLP167 T02500133=
202107100053 METAR KBFI 100053Z 30009KT 10SM CLR 26/13 A3003 RMK AO2 SLP169 T02560128=
202107092353 METAR KBFI 092353Z AUTO 30008KT 10SM CLR 26/13 A3004 RMK AO2 SLP174 T02610133 10267 20200 58017=
202107092253 METAR KBFI 092253Z 32007KT 10SM CLR 26/13 A3006 RMK AO2 SLP180 T02610133=
202107092153 METAR KBFI 092153Z VRB04KT 10SM CLR 26/14 A3007 RMK AO2 SLP184 T02560139=
202107092053 METAR KBFI 092053Z VRB04KT 10SM CLR 24/13 A3009 RMK AO2 SLP190 T02390133 58010=
202107091953 METAR KBFI 091953Z 30006KT 10SM CLR 23/13 A3011 RMK AO2 SLP194 T02280133=
202107091853 METAR KBFI 091853Z 31005KT 10SM CLR 21/13 A3012 RMK AO2 SLP199 T02110133=
202107091753 METAR KBFI 091753Z 31007KT 10SM CLR 20/13 A3012 RMK AO2 SLP201 T02000128 10200 20133 58005=
202107091653 METAR KBFI 091653Z 30004KT 10SM CLR 18/13 A3013 RMK AO2 SLP203 T01830128=
202107091553 METAR KBFI 091553Z 20003KT 10SM CLR 17/12 A3015 RMK AO2 SLP208 T01720122=
202107091453 METAR KBFI 091453Z 00000KT 10SM SCT055 16/12 A3014 RMK AO2 SLP205 T01560122 51006=
202107091353 METAR KBFI 091353Z 18003KT 10SM BKN055 14/12 A3014 RMK AO2 SLP205 T01440122=
202107091253 METAR KBFI 091253Z 17003KT 10SM SCT060 14/12 A3013 RMK AO2 SLP203 T01390122=
202107091153 METAR KBFI 091153Z 18006KT 10SM BKN055 14/12 A3012 RMK AO2 SLP199 T01390122 10172 20133 51013=
202107091053 METAR KBFI 091053Z VRB03KT 10SM SCT055 14/12 A3011 RMK AO2 SLP194 T01440122=
202107090953 METAR KBFI 090953Z 00000KT 10SM SCT055 BKN250 15/12 A3010 RMK AO2 SLP192 T01500122=
202107090853 METAR KBFI 090853Z 00000KT 10SM CLR 16/12 A3008 RMK AO2 SLP187 T01560122 51010=
202107090753 METAR KBFI 090753Z 00000KT 10SM CLR 16/12 A3008 RMK AO2 SLP184 T01610122 402330122=
202107090653 METAR KBFI 090653Z VRB03KT 10SM CLR 17/12 A3007 RMK AO2 SLP183 T01670122=
202107090553 METAR KBFI 090553Z 30007KT 10SM CLR 17/12 A3005 RMK AO2 SLP176 T01720122 10233 20172 53013=
202107090453 METAR KBFI 090453Z 32004KT 10SM CLR 20/12 A3004 RMK AO2 SLP171 T02000117=
202107090353 METAR KBFI 090353Z 00000KT 10SM CLR 21/12 A3002 RMK AO2 SLP165 T02110117=
202107090253 METAR KBFI 090253Z 32004KT 10SM CLR 22/11 A3001 RMK AO2 SLP163 T02170111 55003=
202107090153 METAR KBFI 090153Z 00000KT 10SM CLR 23/12 A3001 RMK AO2 SLP161 T02280117=
202107090053 METAR KBFI 090053Z 23004KT 10SM FEW250 22/12 A3001 RMK AO2 SLP163 T02220117=
202107082353 METAR KBFI 082353Z 10SM CLR 21/11 A3002 RMK AO2 SLP166 T02060111 10217 20156 58009=
202107082253 METAR KBFI 082253Z 18006KT 10SM FEW025 BKN070 22/12 A3003 RMK AO2 SLP169 T02170117=
202107082153 METAR KBFI 082153Z VRB04KT 10SM SCT060 19/12 A3004 RMK AO2 SLP173 T01940117=
202107082053 METAR KBFI 082053Z VRB04KT 10SM SCT029 18/11 A3005 RMK AO2 SLP176 T01780111 50001=
202107082045 SPECI KBFI 082045Z 23005KT 10SM SCT028 17/11 A3005 RMK AO2 T01720111=
202107081953 METAR KBFI 081953Z VRB04KT 10SM OVC025 18/11 A3006 RMK AO2 SLP177 T01780111=
202107081853 METAR KBFI 081853Z 20005KT 10SM OVC023 17/11 A3006 RMK AO2 SLP178 T01670106=
202107081753 METAR KBFI 081753Z 19005KT 10SM OVC019 16/11 A3005 RMK AO2 SLP175 T01560106 10161 20122 53005=
202107081653 METAR KBFI 081653Z 24006KT 10SM OVC022 15/11 A3004 RMK AO2 SLP172 T01500106=
202107081553 METAR KBFI 081553Z 21004KT 10SM OVC022 14/11 A3004 RMK AO2 SLP172 T01440106=
202107081453 METAR KBFI 081453Z 00000KT 10SM OVC022 14/11 A3003 RMK AO2 SLP170 T01390106 55001=
202107081353 METAR KBFI 081353Z 00000KT 10SM OVC024 13/11 A3003 RMK AO2 SLP169 T01330106=
202107081253 METAR KBFI 081253Z 00000KT 10SM OVC024 13/10 A3003 RMK AO2 SLP169 T01280100=
202107081214 SPECI KBFI 081214Z 21003KT 10SM BKN028 13/10 A3004 RMK AO2 T01280100=
202107081153 METAR KBFI 081153Z 00000KT 10SM SCT042 12/10 A3004 RMK AO2 SLP171 T01220100 10156 20122 51002=
202107081053 METAR KBFI 081053Z VRB03KT 10SM SCT042 13/10 A3003 RMK AO2 SLP170 T01280100=
202107080953 METAR KBFI 080953Z 21004KT 10SM BKN041 13/10 A3004 RMK AO2 SLP170 T01330100=
202107080853 METAR KBFI 080853Z 19004KT 10SM BKN039 14/10 A3003 RMK AO2 SLP169 T01390100 56003=
202107080753 METAR KBFI 080753Z 20004KT 10SM BKN042 14/10 A3003 RMK AO2 SLP170 T01440100 402220144=
202107080653 METAR KBFI 080653Z 20005KT 10SM OVC041 15/11 A3003 RMK AO2 SLP170 T01500106=
202107080553 METAR KBFI 080553Z VRB03KT 10SM FEW035 15/11 A3004 RMK AO2 SLP172 T01500106 10222 20150 51012=
202107080453 METAR KBFI 080453Z 20006KT 10SM FEW070 17/11 A3003 RMK AO2 SLP169 T01670111=
202107080353 METAR KBFI 080353Z 22005KT 10SM CLR 18/11 A3001 RMK AO2 SLP163 T01780111=
202107080253 METAR KBFI 080253Z 19007KT 10SM CLR 19/11 A3000 RMK AO2 SLP160 T01940111 55006=
202107080153 METAR KBFI 080153Z 23007KT 10SM CLR 21/12 A3000 RMK AO2 SLP159 T02060117=
202107080053 METAR KBFI 080053Z 20008KT 10SM CLR 21/12 A3001 RMK AO2 SLP161 T02110122=
202107072353 METAR KBFI 072353Z VRB05KT 10SM CLR 21/12 A3002 RMK AO2 SLP166 T02110122 10217 20167 58007=
202107072253 METAR KBFI 072253Z 25007KT 220V300 10SM CLR 22/12 A3003 RMK AO2 SLP170 T02170122=
202107072153 METAR KBFI 072153Z 10SM CLR 21/12 A3004 RMK AO2 SLP171 T02110122=
202107072053 METAR KBFI 072053Z 20009G16KT 10SM SCT024 BKN030 21/13 A3004 RMK AO2 SLP173 T02060128 51001=
202107071953 METAR KBFI 071953Z 21008G18KT 070V240 10SM OVC032 18/12 A3004 RMK AO2 SLP173 T01830122=
202107071853 METAR KBFI 071853Z 19010G18KT 10SM BKN023 OVC029 18/12 A3004 RMK AO2 SLP173 T01780117=
202107071753 METAR KBFI 071753Z 21009G15KT 10SM OVC023 17/12 A3004 RMK AO2 SLP172 T01670117 10167 20144 53002=
202107071653 METAR KBFI 071653Z 21008G18KT 10SM SCT017 BKN021 OVC028 16/12 A3003 RMK AO2 PK WND 09027/1618 SLP170 T01610117=
202107071553 METAR KBFI 071553Z 19008KT 10SM OVC013 16/12 A3003 RMK AO2 SLP170 T01610122=
202107071453 METAR KBFI 071453Z 18009KT 10SM OVC013 14/12 A3003 RMK AO2 SLP170 T01440122 53016=
202107071353 METAR KBFI 071353Z 17007KT 10SM OVC012 14/12 A3001 RMK AO2 SLP162 T01440117=
202107071253 METAR KBFI 071253Z 18007G15KT 10SM OVC013 14/12 A3000 RMK AO2 SLP159 T01440122=
202107071153 METAR KBFI 071153Z 17008KT 10SM OVC010 14/13 A2999 RMK AO2 SLP153 T01440128 10206 20144 53022=
202107071129 SPECI KBFI 071129Z 21005KT 10SM BKN010 15/13 A2997 RMK AO2 T01500128=
202107071053 METAR KBFI 071053Z VRB05KT 10SM CLR 16/13 A2996 RMK AO2 SLP146 T01560133=
202107070953 METAR KBFI 070953Z 19007KT 10SM CLR 17/13 A2994 RMK AO2 SLP138 T01670133=
202107070853 METAR KBFI 070853Z AUTO 00000KT 10SM CLR 18/14 A2992 RMK AO2 SLP131 T01830139 53004=
202107070753 METAR KBFI 070753Z 36004KT 10SM CLR 19/14 A2991 RMK AO2 SLP129 T01890139 402720144=
202107070653 METAR KBFI 070653Z 00000KT 10SM CLR 20/12 A2991 RMK AO2 SLP129 T02000122=
202107070553 METAR KBFI 070553Z 30003KT 10SM SCT150 BKN250 21/12 A2991 RMK AO2 SLP127 T02060122 10272 20206 53005=
202107070453 METAR KBFI 070453Z VRB05KT 10SM CLR 22/12 A2991 RMK AO2 SLP126 T02170122=
202107070353 METAR KBFI 070353Z 32005KT 10SM CLR 23/12 A2989 RMK AO2 SLP122 T02330122=
202107070253 METAR KBFI 070253Z 32006KT 10SM SCT250 26/12 A2989 RMK AO2 SLP122 T02560122 56012=
202107070153 METAR KBFI 070153Z 32007KT 10SM CLR 27/12 A2990 RMK AO2 SLP125 T02670122=
202107070053 METAR KBFI 070053Z 30009KT 10SM CLR 27/12 A2991 RMK AO2 SLP127 T02720122=
202107062353 METAR KBFI 062353Z 30006KT 10SM CLR 27/13 A2993 RMK AO2 SLP134 T02670128 10272 20161 56026=
202107062253 METAR KBFI 062253Z 31005KT 10SM CLR 26/13 A2995 RMK AO2 SLP142 T02610128=
202107062153 METAR KBFI 062153Z AUTO 31005KT 10SM CLR 24/14 A2998 RMK AO2 SLP150 T02440144=
202107062053 METAR KBFI 062053Z AUTO VRB03KT 10SM CLR 23/14 A3001 RMK AO2 SLP160 T02280144 58018=
202107061953 METAR KBFI 061953Z VRB03KT 10SM CLR 21/14 A3003 RMK AO2 SLP167 T02110144=
202107061853 METAR KBFI 061853Z VRB04KT 7SM SCT009 SCT012 18/14 A3005 RMK AO2 SLP175 T01830144=
202107061753 METAR KBFI 061753Z 00000KT 10SM OVC009 16/14 A3006 RMK AO2 SLP178 T01610139 10161 20144 58004=
202107061653 METAR KBFI 061653Z 23003KT 8SM OVC007 16/14 A3007 RMK AO2 SLP181 T01560139=
202107061553 METAR KBFI 061553Z 00000KT 5SM BR OVC005 15/14 A3007 RMK AO2 SLP182 T01500139=
202107061453 METAR KBFI 061453Z 28004KT 10SM OVC007 15/14 A3007 RMK AO2 SLP182 T01500139 53004=
202107061353 METAR KBFI 061353Z 00000KT 10SM OVC008 15/13 A3007 RMK AO2 SLP181 T01500133=
202107061253 METAR KBFI 061253Z 00000KT 10SM BKN010 14/13 A3006 RMK AO2 SLP178 T01440133=
202107061153 METAR KBFI 061153Z 24003KT 10SM SCT010 14/13 A3006 RMK AO2 SLP178 T01440133 10189 20144 51003=
202107061053 METAR KBFI 061053Z AUTO 00000KT 10SM CLR 15/13 A3005 RMK AO2 SLP177 T01500133=
202107060953 METAR KBFI 060953Z 31004KT 10SM CLR 16/14 A3006 RMK AO2 SLP177 T01560139=
202107060853 METAR KBFI 060853Z 31003KT 10SM CLR 17/14 A3005 RMK AO2 SLP175 T01670139 51003=
202107060753 METAR KBFI 060753Z 00000KT 10SM CLR 17/14 A3005 RMK AO2 SLP174 T01720139 402330139=
202107060653 METAR KBFI 060653Z 00000KT 10SM CLR 18/13 A3005 RMK AO2 SLP175 T01780133=
202107060553 METAR KBFI 060553Z 31004KT 10SM CLR 19/14 A3004 RMK AO2 SLP172 T01890139 10233 20189 52003=
202107060453 METAR KBFI 060453Z VRB03KT 10SM CLR 20/14 A3004 RMK AO2 SLP173 T02000144=
202107060353 METAR KBFI 060353Z 27003KT 10SM CLR 22/14 A3003 RMK AO2 SLP168 T02220139=
202107060253 METAR KBFI 060253Z 00000KT 10SM CLR 23/13 A3003 RMK AO2 SLP169 T02330133 56007=
202107060153 METAR KBFI 060153Z 20003KT 10SM CLR 23/14 A3004 RMK AO2 SLP170 T02330139=
202107060053 METAR KBFI 060053Z 23003KT 10SM CLR 23/14 A3004 RMK AO2 SLP172 T02330139=
202107052353 METAR KBFI 052353Z 22005KT 10SM CLR 22/14 A3005 RMK AO2 SLP176 T02220139 10228 20161 57011=
202107052253 METAR KBFI 052253Z VRB05KT 10SM CLR 22/14 A3006 RMK AO2 SLP179 T02170139=
202107052153 METAR KBFI 052153Z 10SM CLR 21/13 A3007 RMK AO2 SLP184 T02060133=
202107052053 METAR KBFI 052053Z VRB06KT 10SM SCT023 19/13 A3008 RMK AO2 SLP187 T01940133 58003=
202107051953 METAR KBFI 051953Z VRB06KT 10SM OVC022 18/13 A3009 RMK AO2 SLP190 T01830128=
202107051853 METAR KBFI 051853Z 17008KT 10SM OVC017 17/13 A3010 RMK AO2 SLP192 T01670128=
202107051753 METAR KBFI 051753Z 23007KT 10SM OVC011 16/13 A3010 RMK AO2 SLP191 T01610128 10161 20139 51007=
202107051653 METAR KBFI 051653Z 22004KT 10SM OVC011 15/13 A3009 RMK AO2 SLP188 T01500128=
202107051553 METAR KBFI 051553Z 20005KT 7SM OVC012 15/13 A3009 RMK AO2 SLP188 T01500128=
202107051453 METAR KBFI 051453Z 18007KT 5SM HZ OVC011 14/12 A3008 RMK AO2 SLP184 T01440122 51014=
202107051353 METAR KBFI 051353Z 22003KT 10SM FU OVC010 14/12 A3006 RMK AO2 SLP180 T01440122=
202107051253 METAR KBFI 051253Z 18004KT 10SM FU OVC010 14/12 A3005 RMK AO2 SLP175 T01390122=
202107051153 METAR KBFI 051153Z 18005KT 10SM FU OVC010 14/12 A3003 RMK AO2 SLP170 T01390122 10200 20139 51010=
202107051053 METAR KBFI 051053Z 16007KT 10SM FU OVC011 14/12 A3003 RMK AO2 SLP169 T01440122=
202107050953 METAR KBFI 050953Z 18007KT 10SM FU BKN011 14/13 A3002 RMK AO2 SLP164 T01440128=
202107050853 METAR KBFI 050853Z 22004KT 10SM FU CLR 16/13 A3000 RMK AO2 SLP160 T01560128 53008=
202107050753 METAR KBFI 050753Z 27006KT 10SM FU CLR 17/14 A2999 RMK AO2 SLP156 T01720139 402560144=
202107050653 METAR KBFI 050653Z 27004KT 10SM FU CLR 18/14 A2998 RMK AO2 SLP151 T01780144=
202107050553 METAR KBFI 050553Z 00000KT 10SM FU CLR 20/15 A2998 RMK AO2 SLP152 T02000150 10256 20200 53009=
202107050453 METAR KBFI 050453Z VRB03KT 10SM CLR 22/15 A2997 RMK AO2 SLP150 T02170150=
202107050353 METAR KBFI 050353Z 24005KT 10SM FEW080 23/15 A2996 RMK AO2 SLP144 T02330150=
202107050253 METAR KBFI 050253Z 23005KT 10SM CLR 24/16 A2995 RMK AO2 SLP143 T02440156 56004=
202107050153 METAR KBFI 050153Z 18005KT 10SM CLR 25/16 A2995 RMK AO2 SLP143 T02500156=
202107050053 METAR KBFI 050053Z 20003KT 10SM CLR 26/15 A2996 RMK AO2 SLP144 T02560150=
202107042353 METAR KBFI 042353Z 24006KT 10SM FEW120 26/15 A2997 RMK AO2 SLP147 T02560150 10256 20178 56013=
202107042253 METAR KBFI 042253Z VRB05KT 10SM CLR 24/14 A2997 RMK AO2 SLP150 T02440144=
202107042153 METAR KBFI 042153Z VRB03KT 10SM CLR 23/14 A2999 RMK AO2 SLP155 T02330144=
202107042053 METAR KBFI 042053Z 00000KT 10SM CLR 23/14 A3001 RMK AO2 SLP160 T02280139 58005=
202107042046 SPECI KBFI 042046Z 22007KT 10SM CLR 22/14 A3001 RMK AO2 T02170139=
202107042000 SPECI KBFI 042000Z 24007KT 10SM OVC012 21/14 A3001 RMK AO2 T02110139=
202107041953 METAR KBFI 041953Z 24008KT 10SM OVC012 21/14 A3001 RMK AO2 SLP163 T02060139=
202107041853 METAR KBFI 041853Z 25008KT 10SM OVC012 20/13 A3002 RMK AO2 SLP165 T02000133=
202107041753 METAR KBFI 041753Z 23007KT 180V270 10SM OVC012 18/13 A3002 RMK AO2 SLP165 T01780133 10178 20144 51004=
202107041716 SPECI KBFI 041716Z 18008KT 10SM OVC012 17/13 A3001 RMK AO2 T01720133=
202107041653 METAR KBFI 041653Z 16006KT 10SM OVC008 17/13 A3001 RMK AO2 SLP163 T01670133=
202107041553 METAR KBFI 041553Z 17006KT 10SM OVC008 16/13 A3002 RMK AO2 SLP164 T01560133=
202107041453 METAR KBFI 041453Z 18008KT 10SM OVC008 15/13 A3001 RMK AO2 SLP161 T01500133 51011=
202107041353 METAR KBFI 041353Z 18007KT 10SM OVC008 15/13 A3000 RMK AO2 SLP159 T01500133=
202107041253 METAR KBFI 041253Z 20006KT 10SM OVC007 15/14 A2999 RMK AO2 SLP154 T01500139=
202107041217 SPECI KBFI 041217Z 19006KT 10SM BKN007 15/14 A2998 RMK AO2 T01500139=
202107041214 SPECI KBFI 041214Z 18005KT 10SM BKN010 15/14 A2998 RMK AO2 T01500139=
202107041153 METAR KBFI 041153Z 20005KT 10SM CLR 15/14 A2998 RMK AO2 SLP150 T01500139 10222 20150 53009=
202107041053 METAR KBFI 041053Z 24003KT 10SM CLR 16/14 A2997 RMK AO2 SLP147 T01610139=
202107040953 METAR KBFI 040953Z 31003KT 10SM CLR 17/14 A2996 RMK AO2 SLP144 T01720144=
202107040853 METAR KBFI 040853Z 25003KT 10SM CLR 18/13 A2995 RMK AO2 SLP141 T01830133 53009=
202107040753 METAR KBFI 040753Z 00000KT 10SM CLR 19/13 A2994 RMK AO2 SLP137 T01940133 402830161=
202107040653 METAR KBFI 040653Z 31004KT 10SM CLR 20/13 A2993 RMK AO2 SLP135 T02000133=
202107040553 METAR KBFI 040553Z 32004KT 10SM CLR 22/14 A2992 RMK AO2 SLP132 T02220139 10283 20222 53006=
202107040453 METAR KBFI 040453Z 32003KT 10SM CLR 24/14 A2991 RMK AO2 SLP129 T02390144=
202107040353 METAR KBFI 040353Z 33004KT 10SM CLR 26/14 A2990 RMK AO2 SLP125 T02560144=
202107040253 METAR KBFI 040253Z VRB04KT 10SM CLR 27/14 A2990 RMK AO2 SLP126 T02720139 56011=
202107040153 METAR KBFI 040153Z VRB04KT 10SM CLR 28/16 A2991 RMK AO2 SLP128 T02780156=
202107040053 METAR KBFI 040053Z 29006KT 10SM CLR 28/14 A2992 RMK AO2 SLP131 T02780139=
202107032353 METAR KBFI 032353Z 00000KT 10SM CLR 28/13 A2994 RMK AO2 SLP137 T02780133 10283 20206 56013=
202107032253 METAR KBFI 032253Z VRB06KT 10SM CLR 27/14 A2994 RMK AO2 SLP140 T02720139=
202107032153 METAR KBFI 032153Z VRB04KT 10SM CLR 27/13 A2996 RMK AO2 SLP145 T02720128=
202107032053 METAR KBFI 032053Z VRB04KT 10SM CLR 26/14 A2997 RMK AO2 SLP149 T02610144 58008=
202107031953 METAR KBFI 031953Z VRB03KT 10SM CLR 24/14 A2998 RMK AO2 SLP151 T02390144=
202107031853 METAR KBFI 031853Z 00000KT 10SM CLR 22/16 A3000 RMK AO2 SLP157 T02220156=
202107031753 METAR KBFI 031753Z VRB05KT 10SM CLR 21/16 A3000 RMK AO2 SLP158 T02110156 10211 20161 57002=
202107031653 METAR KBFI 031653Z VRB06KT 10SM CLR 21/16 A3000 RMK AO2 SLP157 T02060156=
202107031553 METAR KBFI 031553Z VRB04KT 10SM CLR 19/14 A3000 RMK AO2 SLP159 T01890144=
202107031453 METAR KBFI 031453Z 00000KT 10SM CLR 18/14 A3000 RMK AO2 SLP159 T01780144 51004=
202107031353 METAR KBFI 031353Z 00000KT 10SM FEW031 17/14 A3000 RMK AO2 SLP158 T01670144=
202107031253 METAR KBFI 031253Z 00000KT 10SM CLR 16/14 A3000 RMK AO2 SLP157 T01610144=
202107031153 METAR KBFI 031153Z 00000KT 10SM CLR 17/14 A2999 RMK AO2 SLP155 T01670139 10222 20161 52005=
202107031053 METAR KBFI 031053Z 00000KT 10SM CLR 17/14 A2999 RMK AO2 SLP154 T01670139=
202107030953 METAR KBFI 030953Z 00000KT 10SM CLR 17/14 A2998 RMK AO2 SLP151 T01720144=
202107030853 METAR KBFI 030853Z 00000KT 10SM CLR 18/14 A2998 RMK AO2 SLP150 T01780144 51004=
202107030753 METAR KBFI 030753Z 32005KT 10SM CLR 18/14 A2998 RMK AO2 SLP150 T01830139 402610161=
202107030653 METAR KBFI 030653Z 00000KT 10SM CLR 20/14 A2997 RMK AO2 SLP148 T02000139=
202107030553 METAR KBFI 030553Z 00000KT 10SM CLR 22/14 A2996 RMK AO2 SLP147 T02220144 10261 20222 50001=
202107030453 METAR KBFI 030453Z 00000KT 10SM CLR 23/15 A2997 RMK AO2 SLP148 T02280150=
202107030353 METAR KBFI 030353Z 31005KT 10SM CLR 24/15 A2996 RMK AO2 SLP145 T02390150=
202107030253 METAR KBFI 030253Z 32003KT 10SM CLR 24/14 A2996 RMK AO2 SLP146 T02440144 56008=
202107030153 METAR KBFI 030153Z 28006KT 10SM CLR 25/15 A2997 RMK AO2 SLP147 T02500150=
202107030053 METAR KBFI 030053Z 29004KT 10SM SCT060 26/15 A2998 RMK AO2 SLP151 T02560150=
202107022353 METAR KBFI 022353Z 29006KT 10SM SCT041 26/15 A2999 RMK AO2 SLP154 T02560150 10256 20183 58013=
202107022253 METAR KBFI 022253Z 10SM SCT040 25/15 A3000 RMK AO2 SLP160 T02500150=
202107022153 METAR KBFI 022153Z VRB03KT 10SM FEW027 BKN250 24/15 A3002 RMK AO2 SLP164 T02440150=
202107022053 METAR KBFI 022053Z VRB03KT 10SM SCT050 23/14 A3002 RMK AO2 SLP167 T02330144 58005=
202107021953 METAR KBFI 021953Z VRB03KT 10SM CLR 22/16 A3003 RMK AO2 SLP169 T02220156=
202107021853 METAR KBFI 021853Z 00000KT 10SM SCT015 BKN032 19/15 A3004 RMK AO2 SLP173 T01890150=
202107021753 METAR KBFI 021753Z AUTO VRB03KT 10SM SCT015 OVC032 18/15 A3004 RMK AO2 SLP171 T01830150 10183 20161 52002=
202107021653 METAR KBFI 021653Z 17004KT 10SM OVC012 18/15 A3004 RMK AO2 SLP171 T01830150=
202107021553 METAR KBFI 021553Z 17005KT 10SM OVC011 17/14 A3003 RMK AO2 SLP170 T01720144=
202107021453 METAR KBFI 021453Z 21004KT 10SM OVC011 17/14 A3003 RMK AO2 SLP169 T01670144 51008=
202107021353 METAR KBFI 021353Z 19005KT 10SM BKN011 OVC038 16/14 A3003 RMK AO2 CIG 009V014 SLP168 T01610144=
202107021340 SPECI KBFI 021340Z 18004KT 10SM SCT009 BKN013 OVC036 16/14 A3003 RMK AO2 T01610144=
202107021324 SPECI KBFI 021324Z 18005KT 10SM FEW009 SCT012 OVC035 16/14 A3002 RMK AO2 T01610144=
202107021253 METAR KBFI 021253Z 20005KT 10SM OVC012 16/14 A3002 RMK AO2 SLP164 T01610144=
202107021240 SPECI KBFI 021240Z 21005KT 10SM BKN012 OVC037 16/14 A3002 RMK AO2 T01610144=
202107021153 METAR KBFI 021153Z 23004KT 10SM OVC039 17/14 A3001 RMK AO2 SLP160 T01670144 10200 20167 51005=
202107021053 METAR KBFI 021053Z 22004KT 10SM OVC041 17/14 A3000 RMK AO2 SLP159 T01720144=
202107020953 METAR KBFI 020953Z 20005KT 10SM FEW033 FEW049 OVC065 17/14 A3000 RMK AO2 SLP158 T01720144=
202107020853 METAR KBFI 020853Z 25004KT 10SM FEW033 OVC060 18/15 A2999 RMK AO2 SLP155 T01830150 53003=
202107020753 METAR KBFI 020753Z 23003KT 10SM OVC065 19/16 A2998 RMK AO2 SLP153 T01890156 402330178=
202107020653 METAR KBFI 020653Z 26005KT 10SM OVC055 19/16 A2998 RMK AO2 SLP151 T01940156=
202107020553 METAR KBFI 020553Z 18003KT 10SM BKN040 OVC055 20/16 A2998 RMK AO2 SLP152 T02000156 10233 20200 53005=
202107020453 METAR KBFI 020453Z 00000KT 10SM BKN040 21/16 A2998 RMK AO2 SLP150 T02060156=
202107020353 METAR KBFI 020353Z 26003KT 10SM BKN040 22/16 A2997 RMK AO2 SLP147 T02170156=
202107020253 METAR KBFI 020253Z 27004KT 10SM SCT045 22/16 A2997 RMK AO2 SLP147 T02220156 56005=
202107020153 METAR KBFI 020153Z VRB05KT 10SM OVC045 22/15 A2997 RMK AO2 SLP147 T02220150=
202107020053 METAR KBFI 020053Z 29006KT 10SM OVC049 22/15 A2997 RMK AO2 SLP149 T02220150=
202107012353 METAR KBFI 012353Z 31006KT 10SM OVC050 23/14 A2998 RMK AO2 SLP153 T02280144 10233 20194 58003=
202107012253 METAR KBFI 012253Z VRB04KT 10SM SCT038 OVC050 23/14 A2999 RMK AO2 SLP153 T02330144=
202107012153 METAR KBFI 012153Z VRB04KT 10SM OVC040 22/14 A2999 RMK AO2 SLP155 T02220139=
202107012053 METAR KBFI 012053Z 00000KT 10SM OVC036 22/14 A2999 RMK AO2 SLP155 T02170139 58002=
202107011953 METAR KBFI 011953Z 17004KT 10SM BKN033 OVC100 21/13 A2999 RMK AO2 SLP156 T02060133=
202107011853 METAR KBFI 011853Z 21004KT 10SM BKN035 BKN200 21/14 A3000 RMK AO2 SLP158 T02060139=
202107011753 METAR KBFI 011753Z VRB05KT 10SM SCT030 OVC041 20/14 A3000 RMK AO2 SLP157 T02000139 10200 20178 51006=
202107011653 METAR KBFI 011653Z 20004KT 10SM SCT023 OVC038 19/13 A3000 RMK AO2 SLP157 T01890133=
202107011553 METAR KBFI 011553Z VRB04KT 10SM OVC035 18/14 A2999 RMK AO2 SLP154 T01830139=
202107011453 METAR KBFI 011453Z 18006KT 10SM SCT024 OVC036 18/14 A2998 RMK AO2 SLP151 T01780144 51005=
202107011353 METAR KBFI 011353Z 23003KT 10SM BKN025 OVC042 18/14 A2997 RMK AO2 SLP148 T01780139=
202107011253 METAR KBFI 011253Z VRB03KT 10SM BKN022 OVC044 18/14 A2997 RMK AO2 SLP147 T01780139=
202107011153 METAR KBFI 011153Z 24004KT 10SM FEW018 BKN034 OVC044 18/14 A2996 RMK AO2 SLP145 T01780139 10189 20178 55001=
202107011053 METAR KBFI 011053Z 23003KT 10SM FEW034 OVC047 18/14 A2996 RMK AO2 SLP143 T01780139=
202107010953 METAR KBFI 010953Z 17005KT 10SM OVC031 18/14 A2996 RMK AO2 SLP145 T01830144=
202107010853 METAR KBFI 010853Z 20004KT 10SM BKN029 18/14 A2996 RMK AO2 SLP146 T01830144 50002=
202107010753 METAR KBFI 010753Z 17007KT 10SM OVC021 18/14 A2997 RMK AO2 SLP148 T01830144 402390161=
202107010653 METAR KBFI 010653Z 19008KT 10SM BKN029 18/14 A2996 RMK AO2 SLP145 T01830139=
202107010650 SPECI KBFI 010650Z 17004KT 10SM BKN029 18/14 A2996 RMK AO2=
202107010553 METAR KBFI 010553Z 19007KT 10SM BKN032 19/14 A2995 RMK AO2 SLP141 T01890139 10239 20189 53013=
202107010453 METAR KBFI 010453Z 18009KT 10SM OVC036 19/14 A2993 RMK AO2 SLP136 T01940144=
202107010353 METAR KBFI 010353Z 17007KT 10SM OVC037 20/14 A2992 RMK AO2 SLP131 T02000144=
202107010253 METAR KBFI 010253Z 22008KT 10SM OVC037 21/14 A2991 RMK AO2 SLP128 T02060144 53005=
202107010153 METAR KBFI 010153Z 19009KT 10SM OVC035 22/14 A2990 RMK AO2 SLP125 T02170144=
202107010053 METAR KBFI 010053Z 18008KT 10SM BKN040 23/16 A2989 RMK AO2 SLP122 T02330156=

# No short TAF reports from KBFI in databse.

###################################
#  large TAF from KBFI
###################################
202107312320 TAF KBFI 312320Z 0100/0124 30007KT P6SM BKN150 FM010600 VRB04KT
                       P6SM VCSH OVC090 FM012000 30007KT P6SM BKN150=
202107311720 TAF KBFI 311720Z 3118/0118 VRB04KT P6SM BKN120 FM312100 34007KT
                       P6SM VCSH BKN090 FM010900 VRB03KT P6SM BKN120=
202107311120 TAF KBFI 311120Z 3112/0112 VRB03KT P6SM BKN150 BKN250 FM311800
                       33008KT P6SM BKN150 BKN250 FM010600 VRB03KT
                       P6SM BKN150 BKN250=
202107310533 TAF KBFI 310533Z 3106/0106 VRB03KT P6SM SCT150 BKN250 FM311800
                       33008KT P6SM SCT150 BKN250=
202107302320 TAF KBFI 302320Z 3100/3124 32012KT P6SM FEW250 FM310400 02007KT
                       P6SM SCT200 FM310800 VRB03KT P6SM BKN150
                       FM311800 33008KT P6SM SCT150=
202107301720 TAF KBFI 301720Z 3018/3118 32008KT P6SM SKC FM310800 VRB03KT P6SM
                       SCT150=
202107301125 TAF KBFI 301125Z 3012/3112 VRB03KT P6SM SKC FM301900 32008KT P6SM
                       FEW150 FM310800 VRB03KT P6SM BKN200=
202107300526 TAF KBFI 300526Z 3006/3106 VRB03KT P6SM SKC FM301900 32008KT P6SM
                       FEW150 FM310400 VRB03KT P6SM BKN200=
202107292320 TAF KBFI 292320Z 3000/3024 33008KT P6SM FEW050 FM300400 VRB03KT
                       P6SM SKC FM301800 33008KT P6SM SCT120=
202107291720 TAF KBFI 291720Z 2918/3018 31007KT P6SM SKC FM300700 00000KT P6SM
                       SKC=
202107291121 TAF KBFI 291121Z 2912/3012 00000KT P6SM SKC FM291900 31007KT P6SM
                       SKC FM300700 00000KT P6SM SKC=
202107290540 TAF KBFI 290540Z 2906/3006 VRB03KT P6SM FEW250 FM291900 31007KT
                       P6SM SCT250=
202107282330 TAF KBFI 282330Z 2900/2924 32007KT P6SM SCT250 FM290600 VRB03KT
                       P6SM SCT250 FM291900 31007KT P6SM SCT250=
202107281733 TAF KBFI 281733Z 2818/2918 32007KT P6SM SCT250 FM290600 VRB03KT
                       P6SM SCT250=
202107281130 TAF KBFI 281130Z 2812/2912 VRB03KT P6SM SCT250 FM281900 31006KT
                       P6SM SCT250 FM290600 VRB03KT P6SM SCT250=
202107280539 TAF KBFI 280539Z 2806/2906 VRB03KT P6SM SCT250 FM281900 31006KT
                       P6SM SCT250=
202107272329 TAF KBFI 272329Z 2800/2824 31005KT P6SM SCT250 FM280500 VRB03KT
                       P6SM SCT250 FM281900 31005KT P6SM SCT250=
202107271722 TAF KBFI 271722Z 2718/2818 31005KT P6SM SCT250 FM280500 VRB03KT
                       P6SM SCT250=
202107271133 TAF KBFI 271133Z 2712/2812 VRB03KT P6SM BKN250 FM271400 VRB03KT
                       P6SM SCT008 FM271600 31006KT P6SM SCT250
                       FM280500 VRB03KT P6SM SCT250=
202107270537 TAF KBFI 270537Z 2706/2806 VRB03KT P6SM BKN250 FM271400 VRB03KT
                       P6SM SCT010 FM271800 31006KT P6SM SCT250=
202107262325 TAF KBFI 262325Z 2700/2724 31009G15KT P6SM SKC FM270300 VRB03KT
                       P6SM SKC FM271500 27004KT P6SM FEW050 FM272000
                       30005KT P6SM SKC=
202107261733 TAF KBFI 261733Z 2618/2718 00000KT P6SM SKC FM270300 VRB03KT P6SM
                       SKC FM271500 27004KT P6SM FEW050=
202107261120 TAF KBFI 261120Z 2612/2712 VRB03KT P6SM SKC FM261800 31008KT P6SM
                       SKC FM270300 VRB03KT P6SM SKC=
202107260520 TAF KBFI 260520Z 2606/2706 VRB04KT P6SM SKC FM261800 31008KT P6SM
                       SKC=
202107260303 KBFI 260303Z 2603/2624 VRB04KT P6SM SKC FM260600 00000KT P6SM SKC
                       FM261800 31008KT P6SM SKC=
202107252320 TAF KBFI 252320Z 2600/2624 VRB04KT P6SM SKC
                      TEMPO 2600/2604 33008KT=
202107251720 TAF KBFI 251720Z 2518/2618 31006KT P6SM SKC FM252200 31010KT P6SM
                       SKC FM260400 VRB03KT P6SM SKC=
202107251120 TAF KBFI 251120Z 2512/2612 VRB03KT P6SM SKC FM251900 29007KT P6SM
                       SKC FM260400 VRB03KT P6SM SKC=
202107250520 TAF KBFI 250520Z 2506/2606 VRB03KT P6SM SKC FM251900 29007KT P6SM
                       SKC=
202107250300 KBFI 250300Z 2503/2524 30005KT P6SM SKC FM250800 00000KT P6SM SKC
                       FM251900 29008KT P6SM SKC=
202107242320 TAF KBFI 242320Z 2500/2524 34014KT P6SM SKC FM250600 04004KT P6SM
                       SKC FM251200 33010KT P6SM SKC=
202107241724 TAF KBFI 241724Z 2418/2518 31007KT P6SM SKC FM250600 00000KT P6SM
                       SKC=
202107241127 TAF KBFI 241127Z 2412/2512 00000KT P6SM SKC FM241700 32008KT P6SM
                       SKC FM250600 00000KT P6SM SKC=
202107240526 TAF KBFI 240526Z 2406/2506 00000KT P6SM SKC FM241700 31005KT P6SM
                       SKC=
202107232320 TAF KBFI 232320Z 2400/2424 30007KT P6SM SKC FM240600 00000KT P6SM
                       SKC FM241700 21005KT P6SM SKC=
202107231720 TAF KBFI 231720Z 2318/2418 27004KT P6SM FEW120 FM232000 30006KT
                       P6SM SKC FM240600 00000KT P6SM SKC FM241700
                       21005KT P6SM SKC=
202107231141 TAF KBFI 231141Z 2312/2412 VRB03KT P6SM SKC FM232000 30006KT P6SM
                       SKC FM240600 VRB03KT P6SM SKC=
202107230523 TAF KBFI 230523Z 2306/2406 VRB03KT P6SM SCT250 FM231200 18004KT
                       P6SM SKC FM232000 30005KT P6SM SKC=
202107222320 TAF KBFI 222320Z 2300/2324 31007KT P6SM FEW040 SCT250 FM230500
                       VRB03KT P6SM SCT250 FM231200 18004KT P6SM
                       SKC FM232000 30005KT P6SM SKC=
202107221722 TAF KBFI 221722Z 2218/2318 VRB03KT P6SM FEW025 SCT050 FM222000
                       30006KT P6SM FEW050 SCT250 FM230500 VRB03KT
                       P6SM SCT250 FM231200 18004KT P6SM SKC=
202107221128 TAF KBFI 221128Z 2212/2312 VRB03KT P6SM BKN050 FM221700 30006KT
                       P6SM SCT050 FM230600 VRB03KT P6SM SKC=
202107220533 TAF KBFI 220533Z 2206/2306 30004KT P6SM SCT045 FM221100 VRB03KT
                       P6SM BKN040 FM221700 30006KT P6SM SCT050=
202107212322 TAF KBFI 212322Z 2200/2224 31004KT P6SM SCT035 FM220500 VRB03KT
                       P6SM SCT045 FM220900 00000KT P6SM BKN050
                       FM221400 00000KT P6SM BKN030 OVC050 FM221800
                       30005KT P6SM SCT050=
202107211721 TAF KBFI 211721Z 2118/2218 18007KT P6SM SCT027 OVC035 FM212200
                       28006KT P6SM SCT045 FM220500 VRB03KT P6SM
                       SCT050 FM220900 00000KT P6SM BKN050 FM221400
                       00000KT P6SM BKN030 OVC050=
202107211126 TAF KBFI 211126Z 2112/2212 17004KT P6SM OVC030 FM211800 22006KT
                       P6SM BKN045 FM212200 28009KT P6SM SCT045
                       FM220900 15003KT P6SM BKN050=
202107210524 TAF KBFI 210524Z 2106/2206 29005KT P6SM SCT040 FM211100 17004KT
                       P6SM BKN030 FM211900 23006KT P6SM BKN045
                       FM212200 29012KT P6SM SCT045=
202107202323 TAF KBFI 202323Z 2100/2124 24006KT P6SM BKN035 FM210200 29005KT
                       P6SM SCT040 FM210900 VRB04KT P6SM BKN028
                       FM211900 23006KT P6SM BKN045=
202107201728 TAF KBFI 201728Z 2018/2118 19005KT P6SM FEW010 OVC022 FM202200
                       24006KT P6SM BKN035
                      TEMPO 2022/2101 SCT040 FM210100 29005KT P6SM
                       SCT040 FM210400 36003KT P6SM SCT040 FM211200
                       VRB04KT P6SM BKN025=
202107201138 TAF KBFI 201138Z 2012/2112 24004KT P6SM OVC015 FM201800 22005KT
                       P6SM OVC025 FM202200 27006KT P6SM SCT040=
202107200538 TAF KBFI 200538Z 2006/2106 VRB05KT P6SM SKC FM201400 17004KT P6SM
                       OVC015 FM201800 24005KT P6SM OVC025 FM202200
                       27006KT P6SM SCT040=
202107200252 KBFI 200252Z 2003/2024 VRB05KT P6SM SKC FM201400 17004KT P6SM OVC015
                       FM201800 24005KT P6SM OVC025 FM202200 27006KT
                       P6SM SCT040=
202107192320 TAF KBFI 192320Z 2000/2024 28005KT P6SM SKC FM200800 20003KT P6SM
                       SCT100 FM201000 22005KT P6SM SCT040 FM201400
                       22004KT P6SM OVC035 FM201800 24005KT P6SM
                       BKN040 FM202200 25006KT P6SM SCT040=
202107191738 TAF KBFI 191738Z 1918/2018 28005KT P6SM SKC FM200800 20003KT P6SM
                       SCT100 FM201000 22005KT P6SM SCT040 FM201400
                       22004KT P6SM OVC035=
202107191120 TAF KBFI 191120Z 1912/2012 00000KT P6SM FEW180 FM191700 28005KT
                       P6SM SKC FM200800 20003KT P6SM SCT100=
202107190539 TAF KBFI 190539Z 1906/2006 00000KT P6SM FEW180 FM191700 28005KT
                       P6SM SKC=
202107182322 TAF KBFI 182322Z 1900/1924 32006KT P6SM SCT250 FM190600 00000KT
                       P6SM SCT250 FM191700 28005KT P6SM SKC=
202107181721 TAF KBFI 181721Z 1818/1918 33005KT P6SM FEW040 SCT250 FM190600
                       00000KT P6SM SCT250 FM191700 28005KT P6SM
                       SKC=
202107181129 TAF KBFI 181129Z 1812/1912 00000KT P6SM BKN060 FM181900 29005KT
                       P6SM BKN150 FM182300 30007KT P6SM BKN150=
202107180527 TAF KBFI 180527Z 1806/1906 36006KT P6SM SKC FM181900 29005KT P6SM
                       SCT250 FM182300 30007KT P6SM SKC=
202107180303 KBFI 180303Z 1803/1824 31008KT P6SM SCT050 SCT250 FM180600 VRB03KT
                       P6SM SKC FM181900 29005KT P6SM SCT250=
202107172321 TAF KBFI 172321Z 1800/1824 33005KT P6SM SKC FM180500 VRB03KT P6SM
                       SKC FM181900 29005KT P6SM SCT250=
202107171720 TAF KBFI 171720Z 1718/1818 21005KT P6SM SCT030 BKN070
                      TEMPO 1718/1719 BKN030 OVC070 FM172000 25005KT
                       P6SM SCT070 FM172200 28007KT P6SM SKC FM180300
                       29003KT P6SM SKC=
202107171406 KBFI 171406Z 1714/1812 16004KT P6SM SCT030 BKN070
                      TEMPO 1714/1718 BKN030 OVC070 FM172200 28007KT
                       P6SM SKC FM180300 29003KT P6SM SKC=
202107171127 TAF KBFI 171127Z 1712/1812 VRB05KT P6SM BKN050 FM171300 VRB05KT
                       P6SM OVC030 FM172000 23004KT P6SM BKN035
                       FM172200 28007KT P6SM SKC FM180300 29003KT
                       P6SM SKC=
202107170537 TAF KBFI 170537Z 1706/1806 19006KT P6SM OVC060 FM170700 VRB05KT
                       P6SM BKN050 FM171100 VRB05KT P6SM OVC030
                       FM172000 23004KT P6SM BKN035 FM172200 28007KT
                       P6SM SKC=
202107170301 KBFI 170301Z 1703/1724 19006KT P6SM OVC060 FM170700 VRB05KT P6SM
                       BKN050 FM171100 VRB05KT P6SM OVC030 FM172000
                       23004KT P6SM BKN035 FM172200 28007KT P6SM
                       SKC=
202107162327 TAF KBFI 162327Z 1700/1724 16009G15KT P6SM SCT025 OVC060 FM170700
                       VRB05KT P6SM SCT024 BKN050 FM171100 VRB05KT
                       P6SM OVC024 FM172000 23004KT P6SM BKN028
                       FM172200 28007KT P6SM SCT035=
202107161720 TAF KBFI 161720Z 1618/1718 18006KT P6SM OVC012 FM162100 21006KT
                       P6SM OVC025 FM170000 21006KT P6SM SCT025
                       BKN040 FM171100 21006KT P6SM OVC025=
202107161127 TAF KBFI 161127Z 1612/1712 VRB03KT P6SM BKN014 OVC040 FM161500
                       18006KT P6SM OVC012 FM161800 18006KT P6SM
                       OVC016 FM162100 21006KT P6SM OVC025 FM170000
                       21006KT P6SM SCT025 BKN040 FM171100 21006KT
                       P6SM OVC025=
202107160537 TAF KBFI 160537Z 1606/1706 VRB03KT P6SM BKN040 FM161000 18006KT
                       P6SM OVC010 FM161700 18006KT P6SM OVC016
                       FM162100 21006KT P6SM OVC025 FM170000 21006KT
                       P6SM SCT025 BKN040=
202107152321 TAF KBFI 152321Z 1600/1624 19007KT P6SM SCT035 FM160800 20006KT
                       P6SM OVC015 FM162000 19005KT P6SM BKN025=
202107151720 TAF KBFI 151720Z 1518/1618 20006KT P6SM OVC012 FM152100 20006KT
                       P6SM BKN024 FM152300 24006KT P6SM SCT030
                       BKN045 FM160800 20006KT P6SM OVC015=
202107151124 TAF KBFI 151124Z 1512/1612 20006KT P6SM OVC009 FM151600 20006KT
                       P6SM OVC012 FM152100 20006KT P6SM BKN024
                       FM152300 24006KT P6SM SCT030 BKN045 FM160800
                       20006KT P6SM OVC015=
202107150539 TAF KBFI 150539Z 1506/1606 VRB03KT P6SM SKC FM151000 20006KT P6SM
                       OVC012 FM152100 20006KT P6SM BKN024 FM152300
                       24006KT P6SM SCT030 BKN045=
202107142320 TAF KBFI 142320Z 1500/1524 VRB03KT P6SM SKC FM151100 21008KT P6SM
                       OVC012 FM151900 21008KT P6SM OVC015 FM152100
                       22008KT P6SM BKN024 FM152200 22008KT P6SM
                       SKC=
202107142002 KBFI 142002Z 1420/1518 21007KT P6SM OVC017 FM142100 21006KT P6SM
                       SKC
                      TEMPO 1421/1422 FEW022 FM151100 21008KT P6SM
                       OVC012=
202107141811 KBFI 141811Z 1418/1518 20004KT P6SM OVC010 FM141900 21006KT P6SM
                       OVC015 FM142000 25006KT P6SM SKC FM151100
                       21008KT P6SM OVC012=
202107141722 TAF KBFI 141722Z 1418/1518 16005KT P6SM OVC007 FM141900 21006KT
                       P6SM OVC015 FM142000 25006KT P6SM SKC FM151100
                       21008KT P6SM OVC012=
202107141132 TAF KBFI 141132Z 1412/1512 VRB03KT P6SM SKC FM141300 20006KT P6SM
                       OVC006 FM141700 20006KT P6SM OVC012 FM142000
                       30006KT P6SM SCT250 FM151100 19006KT P6SM
                       OVC012=
202107140539 TAF KBFI 140539Z 1406/1506 VRB04KT P6SM SKC FM141200 20006KT P6SM
                       OVC008 FM141700 20006KT P6SM OVC012 FM142000
                       30006KT P6SM SCT250=
202107132320 TAF KBFI 132320Z 1400/1424 29006KT P6SM SKC FM140600 VRB03KT P6SM
                       SKC FM141400 VRB03KT P6SM OVC015 FM141800
                       24006KT P6SM SCT250=
202107131804 KBFI 131804Z 1318/1418 VRB03KT P6SM SCT015 FM131900 24006KT P6SM
                       SKC FM140600 VRB03KT P6SM SKC FM141400 VRB03KT
                       P6SM OVC015=
202107131720 TAF KBFI 131720Z 1318/1418 VRB03KT P6SM OVC009 FM131900 24006KT
                       P6SM SKC FM140600 VRB03KT P6SM SKC FM141400
                       VRB03KT P6SM OVC015=
202107131613 KBFI 131613Z 1316/1412 VRB03KT P6SM OVC006 FM131900 31006KT P6SM
                       SKC FM140600 VRB03KT P6SM SKC=
202107131309 KBFI 131309Z 1313/1412 VRB03KT P6SM OVC006 FM131600 VRB03KT P6SM
                       SCT010 FM131900 31006KT P6SM SKC FM140600
                       VRB03KT P6SM SKC=
202107131140 TAF KBFI 131140Z 1312/1412 VRB03KT P6SM SKC
                      TEMPO 1314/1316 SCT007 FM131900 31006KT P6SM
                       SKC FM140600 VRB03KT P6SM SKC=
202107130536 TAF KBFI 130536Z 1306/1406 VRB03KT P6SM SKC
                      TEMPO 1314/1316 SCT007 FM131900 31006KT P6SM
                       SKC=
202107122320 TAF KBFI 122320Z 1300/1324 32007KT P6SM SKC FM130700 VRB03KT P6SM
                       SKC FM131500 21003KT P6SM SCT010 FM131800
                       29005KT P6SM SKC=
202107121720 TAF KBFI 121720Z 1218/1318 32007KT P6SM FEW250 FM130700 VRB03KT
                       P6SM SKC FM131500 21003KT P6SM SCT010=
202107121122 TAF KBFI 121122Z 1212/1312 32004KT P6SM SKC FM121500 32003KT P6SM
                       FEW250
                      TEMPO 1215/1218 OVC010 FM122000 31005KT P6SM
                       SKC FM130000 32003KT P6SM SKC FM130600 VRB03KT
                       P6SM SKC=
202107120850 KBFI 120850Z 1209/1306 31004KT P6SM SKC FM121000 00000KT P6SM SKC
                       FM121500 32003KT P6SM OVC020
                      TEMPO 1215/1218 OVC006 FM122000 31005KT P6SM
                       BKN050 FM130000 32003KT P6SM SKC=
202107120525 TAF KBFI 120525Z 1206/1306 VRB04KT P6SM SKC FM121000 00000KT P6SM
                       SKC FM121500 32003KT P6SM OVC020
                      TEMPO 1215/1218 OVC006 FM122000 31005KT P6SM
                       BKN050=
202107112326 TAF KBFI 112326Z 1200/1224 32006KT P6SM SKC FM120600 30002KT P6SM
                       SKC FM121000 00000KT P6SM SKC FM121500 26003KT
                       P6SM OVC020
                      TEMPO 1215/1218 OVC006 FM122000 31005KT P6SM
                       BKN050=
202107111720 TAF KBFI 111720Z 1118/1218 VRB03KT P6SM SKC FM112100 32005KT P6SM
                       SKC FM120600 30002KT P6SM SKC FM121000 00000KT
                       P6SM SKC FM121500 26003KT P6SM FEW020=
202107111454 KBFI 111454Z 1115/1212 30003KT P6SM FEW010
                      TEMPO 1115/1117 BKN010 FM111800 32003KT P6SM
                       SKC FM120000 32005KT P6SM SKC FM120600 29002KT
                       P6SM SKC=
202107111120 TAF KBFI 111120Z 1112/1212 VRB03KT P6SM FEW070 FM111500 30003KT
                       P6SM SCT070 FM111800 32003KT P6SM SKC FM120000
                       32005KT P6SM SKC FM120600 29002KT P6SM SKC=
202107110853 KBFI 110853Z 1109/1206 VRB03KT P6SM FEW070 FM111500 30003KT P6SM
                       SCT070 FM111800 32003KT P6SM SKC FM120000
                       32005KT P6SM SKC=
202107110520 TAF KBFI 110520Z 1106/1206 35003KT P6SM SKC FM111500 30003KT P6SM
                       BKN070 FM111800 32003KT P6SM SKC FM120000
                       32005KT P6SM SKC=
202107102320 TAF KBFI 102320Z 1100/1124 34006KT P6SM SKC FM110600 29003KT P6SM
                       SKC FM111500 30003KT P6SM BKN070 FM112000
                       32005KT P6SM SKC=
202107101932 KBFI 101932Z 1020/1118 VRB03KT P6SM SKC FM110000 30007KT P6SM SKC
                       FM110600 29003KT P6SM SKC FM111500 27003KT
                       P6SM BKN070=
202107101725 TAF KBFI 101725Z 1018/1118 18005KT P6SM BKN010 FM101900 20006KT
                       P6SM BKN025 BKN050 FM110000 30007KT P6SM
                       SKC FM110600 29003KT P6SM SKC FM111500 27003KT
                       P6SM BKN070=
202107101430 KBFI 101430Z 1015/1112 VRB03KT P6SM SCT006 SCT020 FM101800 26006KT
                       P6SM SKC FM110000 30007KT P6SM SKC FM110600
                       27003KT P6SM SKC=
202107101123 TAF KBFI 101123Z 1012/1112 VRB03KT P6SM SKC FM101400 20003KT P6SM
                       FEW250 FM101800 26006KT P6SM SKC FM110000
                       30007KT P6SM SKC FM110600 27003KT P6SM SKC=
202107100851 KBFI 100851Z 1009/1106 VRB03KT P6SM SKC FM101400 20003KT P6SM FEW250
                       FM101800 26006KT P6SM SKC FM110000 30007KT
                       P6SM SKC=
202107100522 TAF KBFI 100522Z 1006/1106 30003KT P6SM SKC FM101800 26006KT P6SM
                       SKC FM110000 30007KT P6SM SKC=
202107092326 TAF KBFI 092326Z 1000/1024 31006KT P6SM SKC FM100600 VRB03KT P6SM
                       SKC FM101800 31006KT P6SM SKC=
202107091740 TAF KBFI 091740Z 0918/1018 31006KT P6SM SKC FM100600 VRB03KT P6SM
                       SKC=
202107091506 KBFI 091506Z 0915/1012 VRB03KT P6SM SCT050 FM092100 31006KT P6SM
                       SKC FM100600 VRB03KT P6SM SKC=
202107091121 TAF KBFI 091121Z 0912/1012 VRB03KT P6SM SCT050 BKN250 FM091300
                       VRB03KT P6SM OVC020 FM091700 33003KT P6SM
                       SKC FM100000 31006KT P6SM SKC FM100600 29002KT
                       P6SM BKN250=
202107090850 KBFI 090850Z 0909/1006 VRB03KT P6SM SKC FM091300 VRB03KT P6SM OVC020
                       FM091700 33003KT P6SM SKC FM100000 31006KT
                       P6SM SKC=
202107090522 TAF KBFI 090522Z 0906/1006 32003KT P6SM SCT250 FM091300 VRB03KT
                       P6SM OVC014 FM091700 30006KT P6SM SKC=
202107082340 TAF KBFI 082340Z 0900/0924 21006KT P6SM SCT250 FM090500 VRB03KT
                       P6SM SCT250 FM091300 VRB03KT P6SM OVC014
                       FM091700 30006KT P6SM SKC=
202107081942 KBFI 081942Z 0820/0918 22006KT P6SM OVC025 FM082100 22006KT P6SM
                       SCT030 BKN250 FM090000 28006KT P6SM SCT250
                       FM090500 VRB03KT P6SM SCT250=
202107081721 TAF KBFI 081721Z 0818/0918 23006KT P6SM OVC022 FM082000 28006KT
                       P6SM SCT030 BKN250 FM090000 28006KT P6SM
                       SCT250 FM090500 VRB03KT P6SM SCT250=
202107081439 KBFI 081439Z 0815/0912 00000KT P6SM OVC025 FM081900 28006KT P6SM
                       SCT250 FM090300 31004KT P6SM SCT250=
202107081121 TAF KBFI 081121Z 0812/0912 21004KT P6SM SCT040 FM081400 22002KT
                       P6SM OVC035
                      TEMPO 0816/0817 OVC015 FM081700 28006KT P6SM
                       SCT250 FM090300 31004KT P6SM SCT250=
202107080850 KBFI 080850Z 0809/0906 20004KT P6SM BKN040 FM081400 25002KT P6SM
                       OVC015 FM081700 28006KT P6SM SCT250 FM090300
                       31004KT P6SM SCT250=
202107080521 TAF KBFI 080521Z 0806/0906 20007KT P6SM FEW070 FM081100 VRB03KT
                       P6SM SCT040 FM081400 30002KT P6SM OVC015
                       FM081700 28006KT P6SM SCT250=
202107072339 TAF KBFI 072339Z 0800/0824 24007KT P6SM SCT040 FM081100 VRB03KT
                       P6SM OVC015 FM081900 24006KT P6SM SCT250=
202107071736 TAF KBFI 071736Z 0718/0818 21011KT P6SM OVC020 FM071900 23010KT
                       P6SM BKN020 FM080000 23008KT P6SM SCT030
                       FM080800 18004KT P6SM BKN008=
202107071304 KBFI 071304Z 0713/0812 17008KT P6SM OVC010 FM071800 22008KT P6SM
                       OVC010 FM071900 23010KT P6SM SCT010 FM072200
                       23008KT P6SM SKC FM080600 18004KT P6SM SKC=
202107071224 KBFI 071224Z 0712/0812 17008KT P6SM OVC010 FM071400 18007KT P6SM
                       OVC005 FM071800 22008KT P6SM OVC010 FM071900
                       23010KT P6SM SCT010 FM072200 23008KT P6SM
                       SKC FM080600 18004KT P6SM SKC=
202107071124 TAF KBFI 071124Z 0712/0812 VRB05KT P6SM SKC FM071400 18007KT 3SM
                       BR OVC005 FM071800 22008KT P6SM OVC010 FM071900
                       23010KT P6SM SCT010 FM072200 23008KT P6SM
                       SKC FM080600 18004KT P6SM SKC=
202107070524 TAF KBFI 070524Z 0706/0806 32005KT P6SM SKC FM071000 20005KT P6SM
                       BKN015 FM071200 21008KT P6SM OVC010
                      TEMPO 0712/0715 3SM BR OVC005 FM071800 22008KT
                       P6SM OVC010 FM071900 23010KT P6SM SCT010
                       FM072200 23008KT P6SM SKC FM080300 18004KT
                       P6SM SKC=
202107062320 TAF KBFI 062320Z 0700/0724 31005KT P6SM SKC FM070400 33003KT P6SM
                       SKC FM071000 20005KT P6SM BKN015 FM071200
                       21008KT P6SM OVC010
                      TEMPO 0712/0715 3SM BR OVC005 FM071800 22008KT
                       P6SM OVC010 FM071900 23010KT P6SM SCT010
                       FM072200 23008KT P6SM SKC=
202107061756 TAF KBFI 061756Z 0618/0718 23003KT P6SM OVC007 FM061900 28004KT
                       P6SM SCT010 FM062100 31005KT P6SM SKC FM070400
                       33003KT P6SM SKC FM071000 20005KT P6SM BKN015
                       FM071200 21008KT P6SM OVC010
                      TEMPO 0712/0715 3SM BR OVC005=
202107061444 KBFI 061444Z 0615/0712 00000KT P6SM OVC008
                      TEMPO 0615/0616 OVC005 FM061600 27003KT P6SM
                       OVC015 FM061800 30004KT P6SM FEW015 FM062100
                       31005KT P6SM SKC FM070400 33003KT P6SM SKC
                       FM071000 20005KT P6SM BKN030=
202107061125 TAF KBFI 061125Z 0612/0712 31004KT P6SM SKC FM061300 27003KT P6SM
                       OVC015 FM061800 30004KT P6SM FEW015 FM062100
                       31005KT P6SM SKC FM070400 33003KT P6SM SKC
                       FM071000 20005KT P6SM BKN030=
202107061040 KBFI 061040Z 0611/0706 31004KT P6SM SKC FM061300 27003KT P6SM OVC015
                       FM061800 30004KT P6SM FEW015 FM062100 31005KT
                       P6SM SKC FM070400 33003KT P6SM SKC=
202107060520 TAF KBFI 060520Z 0606/0706 VRB03KT P6SM SKC FM061100 VRB03KT P6SM
                       BKN009 FM061800 30004KT P6SM FEW015 FM062100
                       31005KT P6SM SKC FM070400 33003KT P6SM SKC=
202107052323 TAF KBFI 052323Z 0600/0624 25005KT P6SM FEW030 SCT200 FM060300
                       30005KT P6SM SCT200 FM061100 VRB03KT P6SM
                       BKN009 FM061800 30004KT P6SM FEW015 FM062100
                       31005KT P6SM SKC=
202107051726 TAF KBFI 051726Z 0518/0618 21005KT P6SM OVC012 FM051900 21005KT
                       P6SM BKN015
                      TEMPO 0520/0521 SCT017 FM052100 23004KT P6SM
                       FEW020 SCT200 FM060300 30005KT P6SM SCT200
                       FM061100 VRB03KT P6SM BKN009=
202107051455 KBFI 051455Z 0515/0612 19005KT P6SM OVC012 FM051900 21005KT P6SM
                       BKN015
                      TEMPO 0520/0521 SCT017 FM052100 21004KT P6SM
                       FEW020 SCT200 FM060000 29007KT P6SM BKN250
                       FM060400 30003KT P6SM BKN250=
202107051120 TAF KBFI 051120Z 0512/0612 16007KT 6SM FU OVC011 FM052000 21004KT
                       P6SM SCT020 FM060000 29007KT P6SM BKN250
                       FM060400 30003KT P6SM BKN250=
202107050854 KBFI 050854Z 0509/0606 27006KT 6SM FU SKC FM051100 19004KT P6SM
                       OVC010 FM052000 21004KT P6SM SCT020 FM060300
                       29007KT P6SM BKN250=
202107050520 TAF KBFI 050520Z 0506/0606 VRB03KT P6SM SKC FM051100 19004KT P6SM
                       OVC012 FM052000 21004KT P6SM SCT020 FM060300
                       29007KT P6SM BKN250=
202107042325 TAF KBFI 042325Z 0500/0524 24006KT P6SM SCT200 FM051100 19004KT
                       P6SM OVC012 FM052000 21004KT P6SM SCT020=
202107041721 TAF KBFI 041721Z 0418/0518 17006KT P6SM OVC012
                      TEMPO 0419/0420 SCT015 FM042000 24005KT P6SM
                       SCT018 SCT200 FM042200 24006KT P6SM SCT200
                       FM051100 19004KT P6SM OVC012=
202107041224 KBFI 041224Z 0412/0512 19006KT P6SM OVC007 FM042000 24005KT P6SM
                       SCT030 SCT200 FM050100 25006KT P6SM SCT150=
202107041125 TAF KBFI 041125Z 0412/0512 24003KT P6SM OVC020 FM042000 24005KT
                       P6SM SCT030 SCT200 FM050100 25006KT P6SM
                       SCT150=
202107040901 KBFI 040901Z 0409/0506 27004KT P6SM SKC FM041200 19003KT P6SM OVC015
                       FM042000 24005KT P6SM SCT025 SCT200 FM050100
                       25006KT P6SM SCT200=
202107040520 TAF KBFI 040520Z 0406/0506 33004KT P6SM SKC FM041200 19003KT P6SM
                       OVC015 FM042000 24005KT P6SM SCT025 SCT200
                       FM050100 25006KT P6SM SCT200=
202107032322 TAF KBFI 032322Z 0400/0424 26005KT P6SM SKC FM041200 19003KT P6SM
                       OVC015 FM042000 24005KT P6SM SCT025 SCT200=
202107031730 TAF KBFI 031730Z 0318/0418 25005KT P6SM SCT030 FM032100 26007KT
                       P6SM SKC FM041200 22006KT P6SM OVC015=
202107031304 KBFI 031304Z 0313/0412 VRB03KT P6SM FEW020 SCT120 SCT250
                      TEMPO 0313/0316 BKN015 FM031600 20004KT P6SM
                       FEW025 SCT120 FM031800 25005KT P6SM SCT030
                       FM032300 26007KT P6SM SKC=
202107031123 TAF KBFI 031123Z 0312/0412 VRB03KT P6SM SKC
                      TEMPO 0312/0313 BKN015 FM031300 23005KT P6SM
                       OVC015 FM031800 25005KT P6SM SCT030 FM032300
                       26007KT P6SM SKC=
202107030520 TAF KBFI 030520Z 0306/0406 VRB03KT P6SM SKC FM031100 19003KT P6SM
                       BKN017 FM031700 23005KT P6SM SCT035 FM032300
                       25005KT P6SM SKC=
202107022324 TAF KBFI 022324Z 0300/0324 VRB04KT P6SM SCT040 FM030300 VRB03KT
                       P6SM SCT045 FM031100 19003KT P6SM BKN017
                       FM031700 23005KT P6SM SCT035=
202107021720 TAF KBFI 021720Z 0218/0318 18004KT P6SM BKN012 OVC030
                      TEMPO 0218/0220 SCT012 BKN035 FM022000 23005KT
                       P6SM SCT017 BKN035 FM022200 29006KT P6SM
                       SCT035 FM031100 VRB03KT P6SM BKN015=
202107021552 KBFI 021552Z 0216/0312 21004KT P6SM BKN010 OVC035
                      TEMPO 0216/0219 SCT012 BKN035 FM021900 23005KT
                       P6SM SCT017 BKN035 FM022200 31006KT P6SM
                       SCT035 FM030300 36005KT P6SM SCT040=
202107021245 KBFI 021245Z 0213/0312 22004KT P6SM SCT015 OVC035
                      TEMPO 0213/0216 BKN012 FM022000 31006KT P6SM
                       SCT035 FM030300 36005KT P6SM SCT040=
202107021124 TAF KBFI 021124Z 0212/0312 22004KT P6SM OVC040
                      TEMPO 0212/0216 BKN030 FM022000 31006KT P6SM
                       SCT035 FM030300 36005KT P6SM SCT040=
202107020520 TAF KBFI 020520Z 0206/0306 23005KT P6SM BKN040 FM020800 20003KT
                       P6SM OVC040 FM021200 17003KT P6SM OVC025
                       FM022000 29005KT P6SM SCT040=
202107012320 TAF KBFI 012320Z 0200/0224 20005KT P6SM BKN050 FM020300 28005KT
                       P6SM SCT050 FM020800 20003KT P6SM OVC040
                       FM021200 17003KT P6SM OVC025 FM022000 29005KT
                       P6SM SCT040=
202107011732 TAF KBFI 011732Z 0118/0218 20005KT P6SM SCT025 OVC040
                      TEMPO 0118/0120 BKN022 FM012200 20005KT P6SM
                       BKN050 FM020200 28005KT P6SM SCT050 FM020800
                       20003KT P6SM OVC040 FM021200 17003KT P6SM
                       OVC025=
202107011120 TAF KBFI 011120Z 0112/0212 23003KT P6SM FEW035 OVC045 FM011300
                       20005KT P6SM OVC028 FM012100 19005KT P6SM
                       BKN035 FM020000 24008KT P6SM SCT040 BKN050
                       FM020600 28004KT P6SM OVC030=
202107010815 KBFI 010815Z 0108/0206 17007KT P6SM OVC021 FM011200 22005KT P6SM
                       OVC015 FM012100 22005KT P6SM BKN025 FM020000
                       19005KT P6SM SCT025=
202107010520 TAF KBFI 010520Z 0106/0206 18009KT P6SM OVC035 FM010900 VRB04KT
                       P6SM BKN030 FM011200 22005KT P6SM OVC015
                       FM012100 22005KT P6SM BKN025 FM020000 19005KT
                       P6SM SCT025=