##########################################################
# Query made at 02/17/2025 07:08:47 UTC
# Time interval: from 08/01/2022 00:00  to 08/31/2022 23:59  UTC
##########################################################

##########################################################
# KBFI, Seattle, Seattle Boeing Field (United States)
# WMO index: -----. WIGOS ID: Unknown
# Latitude 47-32-45N. Longitude 122-18-49W. Altitude 5 m.
##########################################################

###################################
#  METAR/SPECI from KBFI
###################################
202208312353 METAR KBFI 312353Z VRB04KT 10SM CLR 29/16 A2992 RMK AO2 SLP132 T02890161 10306 20256 51000=
202208312253 METAR KBFI 312253Z 21007KT 180V270 10SM CLR 29/16 A2992 RMK AO2 SLP131 T02940156=
202208312153 METAR KBFI 312153Z 17007KT 130V210 10SM CLR 30/14 A2992 RMK AO2 SLP133 T03000144=
202208312053 METAR KBFI 312053Z 19005KT 10SM CLR 29/15 A2992 RMK AO2 SLP132 T02890150 56001=
202208311953 METAR KBFI 311953Z VRB06KT 10SM CLR 28/15 A2992 RMK AO2 SLP132 T02830150=
202208311853 METAR KBFI 311853Z VRB05KT 10SM CLR 28/15 A2992 RMK AO2 SLP132 T02780150=
202208311753 METAR KBFI 311753Z 00000KT 10SM CLR 26/16 A2992 RMK AO2 SLP133 60000 T02560161 10256 20183 50000=
202208311653 METAR KBFI 311653Z 16005KT 10SM CLR 23/16 A2994 RMK AO2 SLP138 T02330161=
202208311553 METAR KBFI 311553Z 17005KT 10SM BKN180 22/16 A2993 RMK AO2 SLP136 T02170156=
202208311453 METAR KBFI 311453Z 00000KT 10SM CLR 19/16 A2992 RMK AO2 SLP132 60000 T01940156 53003=
202208311353 METAR KBFI 311353Z 00000KT 10SM SCT100 18/14 A2991 RMK AO2 SLP127 T01830144=
202208311253 METAR KBFI 311253Z 35004KT 10SM CLR 19/16 A2990 RMK AO2 RAB21E33 SLP123 P0000 T01890156=
202208311153 METAR KBFI 311153Z 00000KT 10SM CLR 19/14 A2991 RMK AO2 SLP129 T01890144 10228 20183 55004=
202208310953 METAR KBFI 310953Z 00000KT 10SM CLR 20/15 A2991 RMK AO2 SLP129 T02000150=
202208310853 METAR KBFI 310853Z AUTO 00000KT 10SM CLR 21/15 A2993 RMK AO2 SLP133 T02060150 51008=
202208310753 METAR KBFI 310753Z AUTO 00000KT 10SM CLR 21/15 A2992 RMK AO2 SLP131 T02110150 403000167=
202208310653 METAR KBFI 310653Z AUTO 33003KT 10SM CLR 22/16 A2991 RMK AO2 SLP129 T02220161=
202208310553 METAR KBFI 310553Z AUTO 00000KT 10SM CLR 23/15 A2990 RMK AO2 SLP125 T02280150 10294 20228 50005=
202208310453 METAR KBFI 310453Z 34003KT 10SM CLR 24/16 A2990 RMK AO2 SLP126 T02440156=
202208310353 METAR KBFI 310353Z 32003KT 10SM CLR 25/16 A2991 RMK AO2 SLP127 T02500156=
202208310253 METAR KBFI 310253Z VRB03KT 10SM CLR 26/15 A2989 RMK AO2 SLP120 T02560150 55005=
202208310153 METAR KBFI 310153Z 31007KT 10SM CLR 27/16 A2988 RMK AO2 SLP119 T02720156=
202208310053 METAR KBFI 310053Z 31007KT 10SM CLR 28/14 A2989 RMK AO2 SLP121 T02830144=
202208302353 METAR KBFI 302353Z 30008KT 10SM CLR 29/14 A2990 RMK AO2 SLP125 T02940144 10300 20244 58017=
202208302253 METAR KBFI 302253Z 31006G16KT 10SM CLR 29/14 A2992 RMK AO2 SLP131 T02890139=
202208302053 METAR KBFI 302053Z 31009KT 10SM CLR 28/14 A2995 RMK AO2 SLP141 T02780144 56013=
202208301953 METAR KBFI 301953Z AUTO 32005KT 10SM CLR 27/15 A2996 RMK AO2 SLP145 T02720150=
202208301853 METAR KBFI 301853Z VRB04KT 10SM CLR 26/16 A2997 RMK AO2 SLP149 T02610156=
202208301753 METAR KBFI 301753Z VRB05KT 10SM CLR 25/16 A2999 RMK AO2 SLP155 T02500156 10250 20167 58005=
202208301553 METAR KBFI 301553Z VRB03KT 10SM CLR 21/15 A3001 RMK AO2 SLP160 T02110150=
202208301453 METAR KBFI 301453Z 00000KT 10SM CLR 19/14 A3000 RMK AO2 SLP159 T01940139 51011=
202208301353 METAR KBFI 301353Z 00000KT 10SM CLR 17/12 A3000 RMK AO2 SLP157 T01670122=
202208301253 METAR KBFI 301253Z 34003KT 10SM CLR 18/13 A2998 RMK AO2 SLP152 T01830133=
202208301153 METAR KBFI 301153Z 00000KT 10SM CLR 18/12 A2997 RMK AO2 SLP148 T01780117 10222 20178 50001=
202208301053 METAR KBFI 301053Z 00000KT 10SM CLR 19/12 A2997 RMK AO2 SLP149 T01890117=
202208300953 METAR KBFI 300953Z AUTO 00000KT 10SM CLR 20/11 A2997 RMK AO2 SLP148 T02000111=
202208300853 METAR KBFI 300853Z AUTO 00000KT 10SM CLR 20/11 A2997 RMK AO2 SLP148 T02000111 51003=
202208300753 METAR KBFI 300753Z AUTO 00000KT 10SM CLR 20/12 A2997 RMK AO2 SLP147 T02000122 402720144=
202208300653 METAR KBFI 300653Z 00000KT 10SM CLR 22/12 A2996 RMK AO2 SLP144 T02170122=
202208300553 METAR KBFI 300553Z 00000KT 10SM CLR 22/11 A2996 RMK AO2 SLP144 T02220111 10272 20222 51010=
202208300453 METAR KBFI 300453Z VRB03KT 10SM CLR 23/11 A2995 RMK AO2 SLP143 T02330111=
202208300353 METAR KBFI 300353Z 31003KT 10SM FEW150 23/11 A2994 RMK AO2 SLP139 T02330111=
202208300253 METAR KBFI 300253Z 31005KT 10SM SCT200 24/11 A2993 RMK AO2 SLP134 T02440111 56006=
202208300153 METAR KBFI 300153Z 31005KT 10SM CLR 26/11 A2993 RMK AO2 SLP134 T02610106=
202208292353 METAR KBFI 292353Z 31009G16KT 10SM CLR 27/11 A2995 RMK AO2 SLP140 T02670106 10272 20211 57016=
202208292253 METAR KBFI 292253Z 30010KT 10SM SCT200 27/12 A2996 RMK AO2 SLP146 T02670117=
202208292053 METAR KBFI 292053Z 30008KT 10SM CLR 26/13 A2999 RMK AO2 SLP156 T02560128 58013=
202208291953 METAR KBFI 291953Z 30005KT 10SM CLR 24/13 A3001 RMK AO2 SLP163 T02390133=
202208291853 METAR KBFI 291853Z 35006KT 10SM CLR 22/13 A3003 RMK AO2 SLP169 T02220128=
202208291753 METAR KBFI 291753Z 32005KT 10SM CLR 22/13 A3003 RMK AO2 SLP168 T02170133 10217 20144 50002=
202208291653 METAR KBFI 291653Z AUTO 00000KT 10SM CLR 19/13 A3003 RMK AO2 SLP169 T01940133=
202208291553 METAR KBFI 291553Z AUTO 00000KT 10SM CLR 18/13 A3003 RMK AO2 SLP168 T01830133=
202208291453 METAR KBFI 291453Z 00000KT 10SM CLR 16/13 A3002 RMK AO2 SLP167 T01610128 53004=
202208291353 METAR KBFI 291353Z 00000KT 10SM CLR 14/12 A3002 RMK AO2 SLP163 T01440122=
202208291253 METAR KBFI 291253Z 00000KT 10SM CLR 14/12 A3001 RMK AO2 SLP161 T01440122=
202208291153 METAR KBFI 291153Z 00000KT 10SM CLR 15/12 A3001 RMK AO2 SLP163 T01500122 10183 20150 53006=
202208291053 METAR KBFI 291053Z 00000KT 10SM CLR 16/12 A3000 RMK AO2 SLP159 T01560122=
202208290953 METAR KBFI 290953Z 00000KT 10SM CLR 16/12 A3000 RMK AO2 SLP157 T01610117=
202208290853 METAR KBFI 290853Z 00000KT 10SM CLR 17/12 A2999 RMK AO2 SLP157 T01670117 53008=
202208290753 METAR KBFI 290753Z 33004KT 10SM CLR 17/12 A2998 RMK AO2 SLP152 T01720117 402440117=
202208290653 METAR KBFI 290653Z 00000KT 10SM CLR 18/11 A2997 RMK AO2 SLP149 T01780111=
202208290553 METAR KBFI 290553Z 00000KT 10SM CLR 18/11 A2997 RMK AO2 SLP148 T01830106 10244 20178 51008=
202208290453 METAR KBFI 290453Z 30003KT 10SM CLR 18/11 A2997 RMK AO2 SLP147 T01830111=
202208290353 METAR KBFI 290353Z 31005KT 10SM CLR 19/11 A2996 RMK AO2 SLP144 T01940111=
202208290253 METAR KBFI 290253Z 31003KT 10SM CLR 21/11 A2995 RMK AO2 SLP140 T02060111 55001=
202208290153 METAR KBFI 290153Z 30008KT 10SM CLR 23/10 A2994 RMK AO2 SLP139 T02330100=
202208282353 METAR KBFI 282353Z VRB06KT 10SM CLR 24/09 A2995 RMK AO2 SLP141 T02390089 10244 20189 56012=
202208282253 METAR KBFI 282253Z VRB05KT 10SM CLR 23/10 A2996 RMK AO2 SLP144 T02330100=
202208282153 METAR KBFI 282153Z 33005KT 10SM CLR 23/10 A2997 RMK AO2 SLP149 T02280100=
202208282053 METAR KBFI 282053Z VRB05KT 10SM CLR 22/12 A2998 RMK AO2 SLP152 T02170117 58016=
202208281953 METAR KBFI 281953Z 30005KT 10SM CLR 21/12 A3000 RMK AO2 SLP159 T02110117=
202208281853 METAR KBFI 281853Z 36004KT 10SM CLR 20/12 A3002 RMK AO2 SLP164 T02000117=
202208281753 METAR KBFI 281753Z VRB04KT 10SM CLR 19/12 A3003 RMK AO2 SLP168 T01890117 10189 20117 58004=
202208281653 METAR KBFI 281653Z 12004KT 10SM CLR 17/12 A3004 RMK AO2 SLP172 T01670117=
202208281553 METAR KBFI 281553Z 11004KT 10SM FEW038 BKN070 15/11 A3004 RMK AO2 SLP173 T01500111=
202208281453 METAR KBFI 281453Z 15007KT 10SM BKN025 13/11 A3004 RMK AO2 SLP172 T01330111 53008=
202208281353 METAR KBFI 281353Z 14006KT 10SM BKN025 12/11 A3003 RMK AO2 SLP170 T01220106=
202208281253 METAR KBFI 281253Z 00000KT 10SM FEW018 12/11 A3002 RMK AO2 SLP164 T01220106=
202208281153 METAR KBFI 281153Z AUTO 16004KT 10SM CLR 12/11 A3001 RMK AO2 SLP163 T01220106 10161 20122 53002=
202208281053 METAR KBFI 281053Z AUTO 00000KT 10SM CLR 13/11 A3001 RMK AO2 SLP162 T01330111=
202208280953 METAR KBFI 280953Z AUTO 00000KT 10SM CLR 14/11 A3001 RMK AO2 SLP161 T01390111=
202208280853 METAR KBFI 280853Z AUTO 18005KT 10SM CLR 14/11 A3001 RMK AO2 SLP161 T01390111 53005=
202208280753 METAR KBFI 280753Z AUTO 20004KT 10SM CLR 14/11 A3000 RMK AO2 SLP159 T01440111 402110139=
202208280653 METAR KBFI 280653Z AUTO 00000KT 10SM CLR 16/11 A2999 RMK AO2 SLP155 T01610111=
202208280553 METAR KBFI 280553Z 16004KT 10SM SCT050 16/12 A2999 RMK AO2 SLP156 T01610117 10211 20161 50010=
202208280453 METAR KBFI 280453Z 21004KT 10SM FEW050 BKN080 17/12 A2999 RMK AO2 SLP156 T01720117=
202208280353 METAR KBFI 280353Z 00000KT 10SM CLR 18/11 A2998 RMK AO2 SLP151 T01830111=
202208280253 METAR KBFI 280253Z 00000KT 10SM BKN050 OVC080 19/12 A2996 RMK AO2 SLP146 T01890117 56002=
202208280153 METAR KBFI 280153Z 00000KT 10SM OVC065 20/11 A2997 RMK AO2 SLP147 T02000106=
202208280053 METAR KBFI 280053Z 00000KT 10SM SCT043 OVC060 21/11 A2996 RMK AO2 SLP146 T02060111=
202208272353 METAR KBFI 272353Z 00000KT 10SM BKN045 21/11 A2997 RMK AO2 SLP148 T02060106 10211 20156 56005=
202208272253 METAR KBFI 272253Z 28003KT 10SM SCT041 BKN049 OVC075 21/11 A2997 RMK AO2 SLP148 T02060111=
202208272153 METAR KBFI 272153Z 29003KT 10SM SCT038 SCT048 OVC075 19/11 A2998 RMK AO2 SLP152 T01940111=
202208272053 METAR KBFI 272053Z 23008KT 190V270 10SM BKN036 OVC044 19/11 A2998 RMK AO2 SLP153 T01940106 56003=
202208271953 METAR KBFI 271953Z 16007KT 10SM SCT028 OVC038 18/11 A2999 RMK AO2 SLP154 T01830111=
202208271949 SPECI KBFI 271949Z VRB05KT 10SM SCT028 OVC038 18/11 A2999 RMK AO2=
202208271853 METAR KBFI 271853Z 17010G16KT 10SM OVC026 16/11 A2999 RMK AO2 SLP156 T01610106=
202208271753 METAR KBFI 271753Z 18008KT 10SM OVC022 16/11 A2999 RMK AO2 SLP154 60000 T01560111 10156 20139 51006=
202208271653 METAR KBFI 271653Z 17009KT 10SM OVC022 15/11 A2998 RMK AO2 SLP152 T01500111=
202208271553 METAR KBFI 271553Z 17009KT 10SM BKN017 OVC022 14/12 A2998 RMK AO2 SLP151 T01390117=
202208271500 SPECI KBFI 271500Z 18006KT 10SM OVC019 14/11 A2997 RMK AO2 T01440111=
202208271453 METAR KBFI 271453Z 19008KT 10SM OVC010 14/11 A2997 RMK AO2 SLP148 60000 T01440111 53006=
202208271353 METAR KBFI 271353Z 19009KT 10SM OVC019 14/12 A2996 RMK AO2 RAB20E38 SLP145 P0000 T01390117=
202208271300 SPECI KBFI 271300Z 19008KT 10SM OVC018 14/12 A2995 RMK AO2 T01440117=
202208271253 METAR KBFI 271253Z 20007KT 6SM HZ BKN009 OVC015 14/12 A2995 RMK AO2 RAB16E27 SLP142 P0000 T01440117=
202208271153 METAR KBFI 271153Z AUTO VRB03KT 6SM BR BKN009 OVC015 14/13 A2995 RMK AO2 CIG 006V012 SLP141 T01390133 10172 20139 51005=
202208271107 SPECI KBFI 271107Z 18006KT 4SM BR OVC009 14/14 A2995 RMK AO2 CIG 007V011 T01440139=
202208271053 METAR KBFI 271053Z 18004KT 5SM BR OVC010 14/14 A2995 RMK AO2 CIG 007V011 SLP141 T01440139=
202208271031 SPECI KBFI 271031Z 20006KT 8SM OVC009 15/14 A2994 RMK AO2 CIG 007V012 T01500139=
202208270953 METAR KBFI 270953Z VRB06KT 8SM SCT008 BKN012 OVC016 15/14 A2993 RMK AO2 SLP136 T01500139=
202208270905 SPECI KBFI 270905Z 20003KT 10SM FEW009 OVC019 16/14 A2994 RMK AO2 T01560139=
202208270853 METAR KBFI 270853Z 21004KT 10SM OVC019 16/14 A2994 RMK AO2 SLP137 T01560144 56006=
202208270833 SPECI KBFI 270833Z 21006KT 10SM OVC015 16/14 A2994 RMK AO2 T01560144=
202208270801 SPECI KBFI 270801Z 19005KT 10SM OVC013 16/14 A2994 RMK AO2 T01610139=
202208270753 METAR KBFI 270753Z 17009KT 10SM OVC015 17/14 A2994 RMK AO2 SLP137 T01670139 402280156=
202208270653 METAR KBFI 270653Z VRB06KT 10SM OVC020 17/14 A2995 RMK AO2 SLP140 T01670139=
202208270612 SPECI KBFI 270612Z VRB03KT 10SM BKN025 OVC044 17/14 A2995 RMK AO2 T01670139=
202208270600 SPECI KBFI 270600Z VRB05KT 10SM SCT027 OVC044 17/14 A2995 RMK AO2 T01720139=
202208270553 METAR KBFI 270553Z 22005KT 10SM BKN029 OVC038 17/13 A2995 RMK AO2 SLP143 T01720133 10222 20172 53009=
202208270453 METAR KBFI 270453Z 24005KT 10SM BKN029 OVC038 18/14 A2994 RMK AO2 SLP140 T01830144=
202208270400 SPECI KBFI 270400Z 22006KT 10SM BKN029 OVC038 20/15 A2993 RMK AO2 T02000150=
202208270353 METAR KBFI 270353Z 18007KT 10SM BKN030 OVC038 20/15 A2993 RMK AO2 SLP136 T02000150=
202208270253 METAR KBFI 270253Z VRB06KT 10SM BKN050 BKN065 22/16 A2993 RMK AO2 SLP134 T02170156 57014=
202208270153 METAR KBFI 270153Z 18005KT 10SM OVC048 22/16 A2994 RMK AO2 SLP139 T02170156=
202208270053 METAR KBFI 270053Z 19007KT 10SM FEW030 OVC050 22/15 A2996 RMK AO2 SLP144 T02170150=
202208270004 SPECI KBFI 270004Z 20004KT 10SM BKN029 OVC055 22/15 A2997 RMK AO2 T02220150=
202208262353 METAR KBFI 262353Z 20005KT 10SM SCT025 OVC055 22/15 A2997 RMK AO2 SLP148 T02170150 10228 20178 58011=
202208262253 METAR KBFI 262253Z 19008KT 10SM OVC026 22/15 A2998 RMK AO2 SLP152 T02220150=
202208262153 METAR KBFI 262153Z 10SM OVC029 21/15 A2999 RMK AO2 SLP157 T02110150=
202208262053 METAR KBFI 262053Z 22009KT 10SM OVC024 20/14 A3000 RMK AO2 SLP159 T02000144 58006=
202208261953 METAR KBFI 261953Z 18007KT 10SM OVC022 19/14 A3001 RMK AO2 SLP162 T01940144=
202208261853 METAR KBFI 261853Z 19008G19KT 10SM OVC019 18/14 A3002 RMK AO2 SLP164 T01830144=
202208261753 METAR KBFI 261753Z 17010G14KT 10SM SCT013 OVC016 18/14 A3002 RMK AO2 SLP165 T01830139 10183 20156 50003=
202208261653 METAR KBFI 261653Z 23007KT 10SM OVC019 17/13 A3002 RMK AO2 SLP166 T01720133=
202208261553 METAR KBFI 261553Z 22009KT 10SM OVC018 16/13 A3001 RMK AO2 SLP163 T01610133=
202208261453 METAR KBFI 261453Z 20007KT 10SM OVC015 16/14 A3001 RMK AO2 SLP162 T01610139 53005=
202208261353 METAR KBFI 261353Z 17007KT 10SM OVC011 16/14 A3000 RMK AO2 SLP160 T01610139=
202208261253 METAR KBFI 261253Z 18010KT 10SM OVC013 16/14 A3000 RMK AO2 SLP158 T01610139=
202208261153 METAR KBFI 261153Z 18012G16KT 10SM OVC012 17/14 A2999 RMK AO2 SLP156 T01670144 10194 20161 51004=
202208261053 METAR KBFI 261053Z VRB05KT 10SM OVC011 17/14 A2999 RMK AO2 SLP156 T01670144=
202208260953 METAR KBFI 260953Z 18007KT 10SM OVC011 17/14 A3000 RMK AO2 SLP157 T01670144=
202208260853 METAR KBFI 260853Z 18008KT 10SM BKN011 16/14 A2998 RMK AO2 SLP153 T01610144 53006=
202208260753 METAR KBFI 260753Z VRB05KT 10SM CLR 17/14 A2997 RMK AO2 SLP148 T01670144 403220167=
202208260653 METAR KBFI 260653Z 17007KT 10SM CLR 18/15 A2997 RMK AO2 SLP147 T01780150=
202208260553 METAR KBFI 260553Z 16008KT 10SM CLR 19/16 A2997 RMK AO2 SLP147 T01940156 10317 20194 51019=
202208260453 METAR KBFI 260453Z 33003KT 10SM CLR 22/15 A2996 RMK AO2 SLP144 T02220150=
202208260353 METAR KBFI 260353Z 26004KT 10SM CLR 24/16 A2993 RMK AO2 SLP136 T02440161=
202208260253 METAR KBFI 260253Z 22005KT 10SM CLR 28/16 A2991 RMK AO2 SLP128 T02830161 55002=
202208260153 METAR KBFI 260153Z 24004KT 10SM CLR 30/15 A2990 RMK AO2 SLP125 T03000150=
202208260053 METAR KBFI 260053Z 32005KT 10SM CLR 31/16 A2990 RMK AO2 SLP126 T03110156=
202208252353 METAR KBFI 252353Z VRB04KT 10SM CLR 32/15 A2991 RMK AO2 SLP129 T03170150 10322 20256 56014=
202208252253 METAR KBFI 252253Z 28005KT 10SM CLR 31/16 A2992 RMK AO2 SLP132 T03110156=
202208252153 METAR KBFI 252153Z VRB04KT 10SM CLR 31/16 A2994 RMK AO2 SLP138 T03060156=
202208252053 METAR KBFI 252053Z 29004KT 10SM CLR 29/16 A2996 RMK AO2 SLP143 T02940161 58011=
202208251953 METAR KBFI 251953Z 35006KT 10SM CLR 28/17 A2997 RMK AO2 SLP148 T02830167=
202208251853 METAR KBFI 251853Z VRB03KT 10SM CLR 27/17 A2998 RMK AO2 SLP151 T02670167=
202208251753 METAR KBFI 251753Z 34004KT 10SM CLR 26/17 A2999 RMK AO2 SLP155 T02560167 10256 20178 55001=
202208251653 METAR KBFI 251653Z 28004KT 10SM CLR 24/16 A2999 RMK AO2 SLP154 T02390161=
202208251553 METAR KBFI 251553Z 00000KT 10SM CLR 21/16 A2999 RMK AO2 SLP156 T02110161=
202208251453 METAR KBFI 251453Z AUTO 00000KT 10SM CLR 19/16 A2999 RMK AO2 SLP156 T01940156 53019=
202208251353 METAR KBFI 251353Z 00000KT 10SM CLR 18/15 A2997 RMK AO2 SLP149 T01780150=
202208251253 METAR KBFI 251253Z 00000KT 10SM CLR 18/15 A2995 RMK AO2 SLP143 T01830150=
202208251153 METAR KBFI 251153Z 00000KT 10SM CLR 19/16 A2994 RMK AO2 SLP138 T01940161 10228 20189 51011=
202208251053 METAR KBFI 251053Z 00000KT 10SM CLR 19/16 A2993 RMK AO2 SLP136 T01890156=
202208250953 METAR KBFI 250953Z 00000KT 10SM CLR 19/16 A2992 RMK AO2 SLP132 T01940156=
202208250853 METAR KBFI 250853Z 00000KT 10SM CLR 20/16 A2991 RMK AO2 SLP127 T02000156 51004=
202208250753 METAR KBFI 250753Z 30003KT 10SM CLR 21/16 A2991 RMK AO2 SLP126 T02110161 402940150=
202208250653 METAR KBFI 250653Z 00000KT 10SM CLR 22/16 A2990 RMK AO2 SLP123 T02170161=
202208250553 METAR KBFI 250553Z 32003KT 10SM CLR 23/16 A2989 RMK AO2 SLP122 T02280161 10289 20228 51014=
202208250453 METAR KBFI 250453Z 00000KT 10SM CLR 24/16 A2989 RMK AO2 SLP121 T02390161=
202208250353 METAR KBFI 250353Z 34003KT 10SM CLR 25/16 A2987 RMK AO2 SLP114 T02500156=
202208250253 METAR KBFI 250253Z 30004KT 10SM CLR 26/16 A2985 RMK AO2 SLP109 T02610156 53002=
202208250153 METAR KBFI 250153Z 32006KT 10SM CLR 28/15 A2985 RMK AO2 SLP106 T02780150=
202208250053 METAR KBFI 250053Z 32008G15KT 10SM CLR 28/14 A2985 RMK AO2 SLP106 T02830144=
202208242353 METAR KBFI 242353Z 30009KT 10SM CLR 29/14 A2985 RMK AO2 SLP107 T02890144 10294 20211 56014=
202208242253 METAR KBFI 242253Z 31010G17KT 10SM CLR 28/14 A2986 RMK AO2 SLP112 T02830144=
202208242153 METAR KBFI 242153Z 31007G15KT 10SM CLR 28/15 A2987 RMK AO2 SLP116 T02830150=
202208242053 METAR KBFI 242053Z 33007KT 10SM CLR 27/16 A2989 RMK AO2 SLP121 T02720156 58015=
202208241953 METAR KBFI 241953Z 32008KT 10SM CLR 26/16 A2990 RMK AO2 SLP126 T02560156=
202208241853 METAR KBFI 241853Z 32005KT 10SM CLR 24/16 A2992 RMK AO2 SLP131 T02390156=
202208241753 METAR KBFI 241753Z 32008KT 10SM CLR 22/14 A2993 RMK AO2 SLP136 T02170144 10233 20150 58013=
202208241653 METAR KBFI 241653Z 00000KT 10SM CLR 21/15 A2995 RMK AO2 SLP141 T02060150=
202208241553 METAR KBFI 241553Z 32005KT 10SM FEW150 18/14 A2997 RMK AO2 SLP149 T01780139=
202208241453 METAR KBFI 241453Z 00000KT 10SM SCT150 17/14 A2997 RMK AO2 SLP148 T01670139 53003=
202208241353 METAR KBFI 241353Z 30003KT 10SM SCT150 16/13 A2996 RMK AO2 SLP146 T01560133=
202208241253 METAR KBFI 241253Z 30004KT 10SM SCT120 16/13 A2996 RMK AO2 SLP144 T01560133=
202208241153 METAR KBFI 241153Z 00000KT 10SM FEW120 16/14 A2996 RMK AO2 SLP145 T01610139 10211 20161 51001=
202208241053 METAR KBFI 241053Z 31004KT 10SM SCT120 17/14 A2996 RMK AO2 SLP144 T01670139=
202208240953 METAR KBFI 240953Z 31004KT 10SM FEW120 17/14 A2996 RMK AO2 SLP145 T01720144=
202208240853 METAR KBFI 240853Z 33004KT 10SM CLR 18/14 A2996 RMK AO2 SLP143 T01780139 56007=
202208240753 METAR KBFI 240753Z 00000KT 10SM CLR 19/14 A2996 RMK AO2 SLP146 T01940144 402610156=
202208240653 METAR KBFI 240653Z AUTO 31003KT 10SM CLR 20/14 A2996 RMK AO2 SLP146 T02000144=
202208240553 METAR KBFI 240553Z 00000KT 10SM CLR 21/14 A2998 RMK AO2 SLP150 T02110144 10256 20211 50006=
202208240453 METAR KBFI 240453Z VRB03KT 10SM CLR 21/14 A2999 RMK AO2 SLP154 T02110144=
202208240353 METAR KBFI 240353Z 31005KT 10SM CLR 21/14 A2997 RMK AO2 SLP150 T02110144=
202208240253 METAR KBFI 240253Z 34005KT 10SM CLR 22/15 A2996 RMK AO2 SLP144 T02220150 55002=
202208240153 METAR KBFI 240153Z 31005KT 10SM CLR 24/15 A2996 RMK AO2 SLP143 T02440150=
202208240053 METAR KBFI 240053Z 31006KT 10SM CLR 25/15 A2996 RMK AO2 SLP143 T02500150=
202208232353 METAR KBFI 232353Z VRB06G14KT 10SM CLR 26/15 A2996 RMK AO2 SLP146 T02560150 10261 20200 58018=
202208232253 METAR KBFI 232253Z 31007G17KT 10SM CLR 25/16 A2998 RMK AO2 SLP152 T02500156=
202208232153 METAR KBFI 232153Z 30009G18KT 10SM CLR 24/16 A3000 RMK AO2 SLP159 T02390156=
202208232053 METAR KBFI 232053Z 31009G15KT 10SM SCT120 23/14 A3002 RMK AO2 SLP164 T02330144 56016=
202208231953 METAR KBFI 231953Z VRB06KT 10SM CLR 23/14 A3003 RMK AO2 SLP169 T02280139=
202208231853 METAR KBFI 231853Z 31005KT 10SM CLR 22/14 A3005 RMK AO2 SLP174 T02170139=
202208231753 METAR KBFI 231753Z VRB04KT 10SM FEW020 SCT040 20/14 A3006 RMK AO2 SLP180 T02000139 10206 20156 58008=
202208231653 METAR KBFI 231653Z VRB03KT 10SM FEW005 19/14 A3007 RMK AO2 SLP182 T01940144=
202208231553 METAR KBFI 231553Z 00000KT 10SM SCT010 18/14 A3009 RMK AO2 SLP187 T01830139=
202208231453 METAR KBFI 231453Z 00000KT 10SM FEW200 17/14 A3009 RMK AO2 SLP188 T01670139 52003=
202208231353 METAR KBFI 231353Z 00000KT 10SM CLR 16/13 A3009 RMK AO2 SLP188 T01560133=
202208231253 METAR KBFI 231253Z 00000KT 10SM CLR 16/13 A3008 RMK AO2 SLP185 T01560133=
202208231153 METAR KBFI 231153Z AUTO 00000KT 10SM CLR 16/13 A3008 RMK AO2 SLP185 T01610133 10194 20161 55001=
202208231053 METAR KBFI 231053Z 00000KT 10SM CLR 17/13 A3008 RMK AO2 SLP184 T01670133=
202208230953 METAR KBFI 230953Z 00000KT 10SM CLR 17/14 A3008 RMK AO2 SLP185 T01670139=
202208230853 METAR KBFI 230853Z 34004KT 10SM CLR 17/14 A3008 RMK AO2 SLP186 T01720139 51002=
202208230753 METAR KBFI 230753Z 33004KT 10SM CLR 18/14 A3008 RMK AO2 SLP186 T01780139 402830161=
202208230653 METAR KBFI 230653Z 00000KT 10SM CLR 19/14 A3008 RMK AO2 SLP186 T01890139=
202208230553 METAR KBFI 230553Z VRB03KT 10SM CLR 19/14 A3008 RMK AO2 SLP184 T01940139 10283 20194 51011=
202208230453 METAR KBFI 230453Z 00000KT 10SM CLR 21/12 A3008 RMK AO2 SLP184 T02110122=
202208230353 METAR KBFI 230353Z 32004KT 10SM CLR 22/13 A3007 RMK AO2 SLP181 T02170128=
202208230253 METAR KBFI 230253Z 32004KT 10SM FEW060 SCT100 23/13 A3005 RMK AO2 SLP174 T02330128 53003=
202208230153 METAR KBFI 230153Z 32004KT 10SM CLR 26/14 A3004 RMK AO2 SLP171 T02560139=
202208230053 METAR KBFI 230053Z VRB05KT 10SM CLR 28/13 A3004 RMK AO2 SLP172 T02780133=
202208222353 METAR KBFI 222353Z 33006KT 10SM CLR 28/16 A3004 RMK AO2 SLP171 T02780156 10283 20222 56017=
202208222253 METAR KBFI 222253Z 34005KT 10SM CLR 28/15 A3005 RMK AO2 SLP175 T02780150=
202208222153 METAR KBFI 222153Z 30005KT 10SM CLR 28/14 A3007 RMK AO2 SLP181 T02780139=
202208222053 METAR KBFI 222053Z 36003KT 10SM FEW040 FEW250 26/16 A3009 RMK AO2 SLP187 T02610156 58007=
202208221953 METAR KBFI 221953Z VRB05KT 10SM CLR 24/16 A3010 RMK AO2 SLP192 T02440161=
202208221853 METAR KBFI 221853Z 00000KT 10SM CLR 23/16 A3011 RMK AO2 SLP194 T02330161=
202208221753 METAR KBFI 221753Z 35004KT 10SM SCT250 22/16 A3011 RMK AO2 SLP194 T02220156 10228 20161 51005=
202208221653 METAR KBFI 221653Z VRB03KT 10SM CLR 21/16 A3010 RMK AO2 SLP193 T02110161=
202208221553 METAR KBFI 221553Z 00000KT 10SM CLR 19/16 A3011 RMK AO2 SLP194 T01940161=
202208221453 METAR KBFI 221453Z 00000KT 10SM CLR 18/15 A3009 RMK AO2 SLP189 T01780150 53015=
202208221353 METAR KBFI 221353Z 00000KT 10SM SCT160 16/14 A3008 RMK AO2 SLP184 T01610144=
202208221253 METAR KBFI 221253Z VRB03KT 10SM CLR 17/14 A3006 RMK AO2 SLP179 T01670144=
202208221153 METAR KBFI 221153Z 00000KT 10SM CLR 17/14 A3005 RMK AO2 SLP175 T01720144 10200 20172 53007=
202208221053 METAR KBFI 221053Z 29004KT 10SM CLR 18/15 A3004 RMK AO2 SLP172 T01780150=
202208220953 METAR KBFI 220953Z 29003KT 10SM CLR 18/15 A3003 RMK AO2 SLP169 T01780150=
202208220853 METAR KBFI 220853Z 30004KT 10SM CLR 18/15 A3003 RMK AO2 SLP168 T01830150 51002=
202208220753 METAR KBFI 220753Z 31003KT 10SM CLR 18/15 A3002 RMK AO2 SLP166 T01830150 402720172=
202208220653 METAR KBFI 220653Z 00000KT 10SM CLR 19/15 A3003 RMK AO2 SLP168 T01890150=
202208220553 METAR KBFI 220553Z 31004KT 10SM CLR 20/15 A3002 RMK AO2 SLP166 T02000150 10272 20200 50012=
202208220453 METAR KBFI 220453Z 30003KT 10SM CLR 21/15 A3003 RMK AO2 SLP167 T02060150=
202208220353 METAR KBFI 220353Z 30005KT 10SM CLR 21/15 A3001 RMK AO2 SLP160 T02110150=
202208220253 METAR KBFI 220253Z 32005KT 10SM BKN200 23/15 A2999 RMK AO2 SLP154 T02280150 55000=
202208220153 METAR KBFI 220153Z 30005KT 10SM BKN200 26/14 A2998 RMK AO2 SLP151 T02610144=
202208220053 METAR KBFI 220053Z 33004KT 10SM CLR 27/14 A2997 RMK AO2 SLP150 T02720139=
202208212353 METAR KBFI 212353Z 00000KT 10SM CLR 27/15 A2999 RMK AO2 SLP154 T02670150 10272 20206 56012=
202208212253 METAR KBFI 212253Z VRB03KT 10SM CLR 27/16 A2999 RMK AO2 SLP156 T02670156=
202208212153 METAR KBFI 212153Z 00000KT 10SM CLR 25/15 A3001 RMK AO2 SLP161 T02500150=
202208212053 METAR KBFI 212053Z 28004KT 10SM CLR 24/16 A3002 RMK AO2 SLP166 T02390156 56009=
202208211953 METAR KBFI 211953Z VRB05KT 10SM FEW020 23/16 A3002 RMK AO2 SLP167 T02330161=
202208211853 METAR KBFI 211853Z 00000KT 10SM SCT022 22/16 A3004 RMK AO2 SLP171 T02220156=
202208211810 SPECI KBFI 211810Z 23004KT 10SM SCT025 21/16 A3005 RMK AO2 T02110161=
202208211753 METAR KBFI 211753Z 17004KT 10SM BKN019 BKN027 21/16 A3005 RMK AO2 SLP175 T02110161 10211 20172 50005=
202208211653 METAR KBFI 211653Z 20004KT 10SM OVC018 19/16 A3006 RMK AO2 SLP178 T01940156=
202208211553 METAR KBFI 211553Z 20005KT 10SM OVC018 18/15 A3005 RMK AO2 SLP175 T01830150=
202208211453 METAR KBFI 211453Z 16004KT 10SM OVC020 18/15 A3003 RMK AO2 SLP170 T01830150 53007=
202208211353 METAR KBFI 211353Z 00000KT 10SM OVC017 18/15 A3003 RMK AO2 SLP169 T01780150=
202208211253 METAR KBFI 211253Z 00000KT 10SM BKN015 BKN027 OVC048 18/15 A3001 RMK AO2 SLP162 T01780150=
202208211153 METAR KBFI 211153Z 20003KT 10SM FEW015 BKN030 OVC046 18/15 A3001 RMK AO2 SLP163 T01780150 10200 20178 53007=
202208211053 METAR KBFI 211053Z VRB04KT 10SM OVC046 18/14 A3000 RMK AO2 SLP159 T01780144=
202208210953 METAR KBFI 210953Z 19006KT 10SM OVC046 18/14 A3000 RMK AO2 SLP158 T01830144=
202208210853 METAR KBFI 210853Z 17005KT 10SM OVC045 18/14 A2999 RMK AO2 SLP156 T01830144 53009=
202208210753 METAR KBFI 210753Z 16006KT 10SM OVC045 19/15 A2998 RMK AO2 SLP152 T01940150 402560172=
202208210653 METAR KBFI 210653Z 21004KT 10SM OVC048 19/15 A2997 RMK AO2 SLP148 T01940150=
202208210553 METAR KBFI 210553Z VRB03KT 10SM CLR 20/16 A2996 RMK AO2 SLP146 T02000156 10256 20200 51018=
202208210453 METAR KBFI 210453Z 28004KT 10SM CLR 21/16 A2995 RMK AO2 SLP142 T02110161=
202208210353 METAR KBFI 210353Z 00000KT 10SM CLR 23/16 A2993 RMK AO2 SLP133 T02280161=
202208210253 METAR KBFI 210253Z 16005KT 10SM SCT045 23/16 A2991 RMK AO2 SLP128 T02330156 55007=
202208210153 METAR KBFI 210153Z 18003KT 10SM CLR 25/16 A2991 RMK AO2 SLP128 T02500161=
202208210053 METAR KBFI 210053Z 18005KT 10SM CLR 25/16 A2992 RMK AO2 SLP132 T02500161=
202208202353 METAR KBFI 202353Z 18005KT 10SM CLR 25/16 A2993 RMK AO2 SLP135 T02500156 10250 20194 56012=
202208202253 METAR KBFI 202253Z 23004KT 10SM CLR 25/16 A2994 RMK AO2 SLP137 T02500156=
202208202153 METAR KBFI 202153Z 24006KT 10SM OVC050 23/16 A2995 RMK AO2 SLP143 T02330156=
202208202053 METAR KBFI 202053Z 20007KT 10SM BKN050 23/16 A2997 RMK AO2 SLP147 T02280156 58007=
202208201953 METAR KBFI 201953Z VRB05KT 10SM BKN031 OVC050 21/15 A2998 RMK AO2 SLP151 T02110150=
202208201853 METAR KBFI 201853Z 18005KT 10SM BKN030 OVC050 21/16 A2999 RMK AO2 SLP154 T02060156=
202208201753 METAR KBFI 201753Z 20004KT 10SM SCT028 OVC050 19/15 A2999 RMK AO2 SLP155 T01940150 10194 20172 51008=
202208201653 METAR KBFI 201653Z VRB03KT 10SM SCT028 OVC050 19/15 A2998 RMK AO2 SLP150 T01890150=
202208201553 METAR KBFI 201553Z VRB04KT 10SM SCT028 OVC050 18/15 A2998 RMK AO2 SLP153 T01830150=
202208201453 METAR KBFI 201453Z 16005KT 10SM FEW025 OVC050 18/15 A2997 RMK AO2 SLP147 T01780150 53004=
202208201353 METAR KBFI 201353Z VRB03KT 10SM OVC050 17/14 A2996 RMK AO2 SLP144 T01720144=
202208201253 METAR KBFI 201253Z VRB03KT 10SM OVC050 17/14 A2996 RMK AO2 SLP145 T01720144=
202208201153 METAR KBFI 201153Z 19005KT 10SM OVC050 17/14 A2996 RMK AO2 SLP143 70002 T01720144 10194 20172 50003=
202208201053 METAR KBFI 201053Z 22005KT 10SM OVC050 18/15 A2996 RMK AO2 SLP145 T01780150=
202208200953 METAR KBFI 200953Z 18004KT 10SM FEW039 BKN050 18/15 A2995 RMK AO2 SLP141 T01780150=
202208200853 METAR KBFI 200853Z 17005KT 10SM CLR 17/15 A2995 RMK AO2 SLP140 T01720150 50005=
202208200753 METAR KBFI 200753Z 16005KT 10SM BKN046 18/16 A2996 RMK AO2 SLP144 T01830156 402610183=
202208200653 METAR KBFI 200653Z 20003KT 10SM FEW047 19/16 A2995 RMK AO2 SLP142 T01890156=
202208200553 METAR KBFI 200553Z 18006KT 10SM CLR 19/16 A2993 RMK AO2 SLP134 T01940161 10261 20194 51012=
202208200453 METAR KBFI 200453Z 20003KT 10SM CLR 21/16 A2992 RMK AO2 SLP131 T02110161=
202208200353 METAR KBFI 200353Z 22003KT 10SM CLR 23/17 A2991 RMK AO2 SLP126 T02280167=
202208200253 METAR KBFI 200253Z 18006KT 10SM CLR 24/17 A2989 RMK AO2 SLP123 T02390172 53000=
202208200153 METAR KBFI 200153Z 18007KT 10SM CLR 25/17 A2989 RMK AO2 SLP122 T02500172=
202208200053 METAR KBFI 200053Z VRB03KT 10SM CLR 25/18 A2989 RMK AO2 SLP121 T02500178=
202208192353 METAR KBFI 192353Z 17007KT 10SM BKN150 26/18 A2989 RMK AO2 SLP123 60000 T02610183 10261 20189 56008=
202208192253 METAR KBFI 192253Z 14006KT 10SM CLR 26/18 A2990 RMK AO2 SLP125 T02560178=
202208192153 METAR KBFI 192153Z 17006G15KT 10SM CLR 25/18 A2991 RMK AO2 SLP128 T02500178=
202208192053 METAR KBFI 192053Z 00000KT 10SM BKN140 23/18 A2992 RMK AO2 SLP131 60000 T02330183 58015=
202208191953 METAR KBFI 191953Z 18004KT 10SM BKN110 21/17 A2994 RMK AO2 SLP137 T02060172=
202208191853 METAR KBFI 191853Z 21007KT 10SM FEW037 SCT110 19/17 A2995 RMK AO2 RAE31 SLP141 P0000 T01940172=
202208191753 METAR KBFI 191753Z 23005KT 10SM -RA FEW080 SCT095 BKN120 19/17 A2996 RMK AO2 RAB34 SLP146 P0000 60002 T01890167 10222 20183 51001=
202208191653 METAR KBFI 191653Z 19007KT 150V220 10SM FEW060 SCT090 BKN110 19/17 A2996 RMK AO2 RAE53 SLP146 P0002 T01890172=
202208191553 METAR KBFI 191553Z 16008KT 10SM -RA FEW014 SCT120 18/17 A2997 RMK AO2 RAB03E15B32 SLP149 P0000 T01830167=
202208191453 METAR KBFI 191453Z 20003KT 10SM FEW014 FEW080 SCT120 19/16 A2996 RMK AO2 RAE06B23E30 SLP145 P0000 60000 T01890161 53027=
202208191353 METAR KBFI 191353Z 18008KT 10SM -RA SCT050 SCT075 BKN090 19/16 A2993 RMK AO2 RAB51 SLP135 P0000 T01940161=
202208191253 METAR KBFI 191253Z 17007KT 10SM BKN150 20/17 A2990 RMK AO2 RAB30E41 SLP124 P0000 T02000167=
202208191153 METAR KBFI 191153Z 15008KT 10SM BKN170 22/17 A2988 RMK AO2 SLP118 T02220172 10267 20222 51016=
202208191053 METAR KBFI 191053Z 00000KT 10SM FEW010 BKN150 23/18 A2986 RMK AO2 SLP112 T02330183=
202208190953 METAR KBFI 190953Z 35003KT 10SM OVC150 23/17 A2985 RMK AO2 SLP109 T02330167=
202208190853 METAR KBFI 190853Z VRB03KT 10SM OVC150 26/18 A2983 RMK AO2 SLP102 T02560178 58007=
202208190753 METAR KBFI 190753Z 00000KT 10SM BKN150 24/17 A2986 RMK AO2 SLP111 T02440172 403170211=
202208190653 METAR KBFI 190653Z 00000KT 10SM BKN150 24/17 A2985 RMK AO2 SLP107 T02440167=
202208190553 METAR KBFI 190553Z 00000KT 10SM BKN150 27/18 A2985 RMK AO2 SLP109 T02670178 10311 20256 58001=
202208190453 METAR KBFI 190453Z 18003KT 10SM BKN170 26/17 A2987 RMK AO2 SLP114 T02610172=
202208190353 METAR KBFI 190353Z VRB04KT 10SM BKN170 27/17 A2985 RMK AO2 SLP108 T02670172=
202208190253 METAR KBFI 190253Z 32004KT 10SM BKN170 28/17 A2986 RMK AO2 SLP110 T02780167 58007=
202208190206 SPECI KBFI 190206Z 00000KT 10SM BKN170 29/17 A2986 RMK AO2 T02940172=
202208190153 METAR KBFI 190153Z 00000KT 10SM CLR 29/17 A2987 RMK AO2 SLP115 T02890167=
202208190053 METAR KBFI 190053Z 29003KT 10SM CLR 30/17 A2987 RMK AO2 SLP115 T03000167=
202208182353 METAR KBFI 182353Z 10005KT 10SM BKN170 31/19 A2988 RMK AO2 SLP117 T03110189 10317 20250 58006=
202208182253 METAR KBFI 182253Z 12004KT 10SM BKN170 30/18 A2988 RMK AO2 SLP119 T03000178=
202208182153 METAR KBFI 182153Z 21003KT 10SM CLR 29/17 A2990 RMK AO2 SLP126 T02890172=
202208182053 METAR KBFI 182053Z AUTO VRB03KT 10SM CLR 28/16 A2990 RMK AO2 SLP123 T02830161 58006=
202208181953 METAR KBFI 181953Z AUTO 31004KT 10SM CLR 28/16 A2991 RMK AO2 SLP128 T02780161=
202208181853 METAR KBFI 181853Z AUTO 28003KT 10SM CLR 28/16 A2991 RMK AO2 SLP128 T02780161=
202208181753 METAR KBFI 181753Z AUTO VRB05KT 10SM CLR 26/15 A2991 RMK AO2 SLP130 T02560150 10256 20211 57006=
202208181653 METAR KBFI 181653Z AUTO 33004KT 10SM CLR 24/15 A2992 RMK AO2 SLP132 T02390150=
202208181553 METAR KBFI 181553Z 30003KT 10SM CLR 23/15 A2992 RMK AO2 SLP132 T02280150=
202208181453 METAR KBFI 181453Z 30004KT 10SM BKN150 22/14 A2993 RMK AO2 SLP135 T02170144 53009=
202208181353 METAR KBFI 181353Z 00000KT 10SM CLR 22/14 A2992 RMK AO2 SLP132 T02170144=
202208181253 METAR KBFI 181253Z 00000KT 10SM OVC150 21/14 A2990 RMK AO2 SLP125 T02110144=
202208181153 METAR KBFI 181153Z 32003KT 10SM CLR 23/15 A2990 RMK AO2 SLP126 T02280150 10256 20217 58001=
202208181053 METAR KBFI 181053Z 20004KT 10SM BKN200 22/14 A2991 RMK AO2 SLP129 T02170144=
202208180953 METAR KBFI 180953Z 00000KT 10SM BKN200 22/14 A2990 RMK AO2 SLP126 T02220139=
202208180853 METAR KBFI 180853Z 00000KT 10SM CLR 22/14 A2991 RMK AO2 SLP127 T02220144 52002=
202208180753 METAR KBFI 180753Z 31004KT 10SM CLR 24/15 A2990 RMK AO2 SLP126 T02390150 403060172=
202208180653 METAR KBFI 180653Z 00000KT 10SM CLR 25/15 A2990 RMK AO2 SLP125 T02500150=
202208180553 METAR KBFI 180553Z 22003KT 10SM CLR 24/14 A2990 RMK AO2 SLP125 60000 T02440144 10306 20239 51005=
202208180453 METAR KBFI 180453Z AUTO 30004KT 10SM CLR 24/14 A2990 RMK AO2 SLP125 T02440139=
202208180353 METAR KBFI 180353Z 33003KT 10SM CLR 27/14 A2990 RMK AO2 RAB37E46 SLP126 P0000 T02670139=
202208180253 METAR KBFI 180253Z 32003KT 10SM CLR 28/13 A2989 RMK AO2 SLP120 T02830133 55001=
202208180153 METAR KBFI 180153Z 31007KT 10SM CLR 29/13 A2988 RMK AO2 SLP118 T02890133=
202208180053 METAR KBFI 180053Z 30009KT 10SM CLR 29/13 A2988 RMK AO2 SLP118 T02940133=
202208172353 METAR KBFI 172353Z 30009KT 10SM CLR 30/13 A2989 RMK AO2 SLP122 T03000133 10300 20250 56021=
202208172253 METAR KBFI 172253Z 30009G18KT 10SM CLR 29/14 A2991 RMK AO2 SLP129 T02940139=
202208172153 METAR KBFI 172153Z 32008KT 10SM CLR 29/15 A2993 RMK AO2 SLP135 T02890150=
202208172053 METAR KBFI 172053Z 31006KT 10SM CLR 28/14 A2995 RMK AO2 SLP143 T02830144 56017=
202208171953 METAR KBFI 171953Z 31007KT 10SM CLR 28/14 A2997 RMK AO2 SLP147 T02780144=
202208171853 METAR KBFI 171853Z VRB05KT 10SM CLR 26/15 A2999 RMK AO2 SLP155 T02610150=
202208171753 METAR KBFI 171753Z 00000KT 10SM CLR 24/14 A3000 RMK AO2 SLP160 T02440144 10244 20172 56012=
202208171653 METAR KBFI 171653Z 06007KT 10SM CLR 23/13 A3002 RMK AO2 SLP164 T02280133=
202208171553 METAR KBFI 171553Z 00000KT 10SM CLR 22/13 A3002 RMK AO2 SLP166 T02170133=
202208171453 METAR KBFI 171453Z 36003KT 10SM CLR 19/14 A3004 RMK AO2 SLP172 T01940139 53004=
202208171353 METAR KBFI 171353Z 00000KT 10SM CLR 17/14 A3003 RMK AO2 SLP170 T01720144=
202208171253 METAR KBFI 171253Z 00000KT 10SM CLR 18/14 A3003 RMK AO2 SLP167 T01780144=
202208171153 METAR KBFI 171153Z 00000KT 10SM CLR 18/14 A3003 RMK AO2 SLP168 T01780144 10211 20178 50000=
202208171053 METAR KBFI 171053Z 00000KT 10SM CLR 18/14 A3003 RMK AO2 SLP167 T01830144=
202208170953 METAR KBFI 170953Z AUTO 00000KT 10SM CLR 18/14 A3003 RMK AO2 SLP168 T01830144=
202208170853 METAR KBFI 170853Z AUTO 00000KT 10SM CLR 19/15 A3003 RMK AO2 SLP168 T01890150 53003=
202208170753 METAR KBFI 170753Z AUTO 00000KT 10SM CLR 19/14 A3003 RMK AO2 SLP167 T01940139 402670156=
202208170653 METAR KBFI 170653Z AUTO VRB03KT 10SM CLR 21/13 A3002 RMK AO2 SLP164 T02060133=
202208170553 METAR KBFI 170553Z AUTO VRB03KT 10SM CLR 21/13 A3002 RMK AO2 SLP164 T02110128 10267 20211 52010=
202208170453 METAR KBFI 170453Z AUTO 00000KT 10SM CLR 22/12 A3001 RMK AO2 SLP161 T02220117=
202208170353 METAR KBFI 170353Z AUTO VRB03KT 10SM CLR 23/11 A2999 RMK AO2 SLP157 T02330106=
202208170253 METAR KBFI 170253Z 30005KT 10SM CLR 24/10 A2999 RMK AO2 SLP154 T02390100 56007=
202208170153 METAR KBFI 170153Z 30008G14KT 10SM CLR 24/12 A2999 RMK AO2 SLP155 T02440117=
202208170053 METAR KBFI 170053Z 31009G17KT 10SM CLR 26/13 A3000 RMK AO2 SLP157 T02560128=
202208162353 METAR KBFI 162353Z 33007G14KT 280V360 10SM CLR 27/14 A3001 RMK AO2 SLP161 T02670139 10267 20206 58014=
202208162253 METAR KBFI 162253Z 29007KT 10SM CLR 26/14 A3002 RMK AO2 SLP165 T02560139=
202208162153 METAR KBFI 162153Z 31007KT 10SM CLR 26/14 A3004 RMK AO2 SLP171 T02560144=
202208162053 METAR KBFI 162053Z VRB05KT 10SM CLR 24/14 A3005 RMK AO2 SLP175 T02440144 56013=
202208161953 METAR KBFI 161953Z VRB05KT 10SM FEW014 24/14 A3006 RMK AO2 SLP179 T02390144=
202208161853 METAR KBFI 161853Z 10SM FEW014 22/15 A3008 RMK AO2 SLP185 T02220150=
202208161800 SPECI KBFI 161800Z VRB04KT 10SM FEW014 21/15 A3009 RMK AO2 T02060150=
202208161753 METAR KBFI 161753Z VRB06KT 10SM BKN013 21/15 A3009 RMK AO2 SLP188 60000 T02060150 10211 20156 58003=
202208161653 METAR KBFI 161653Z 00000KT 10SM BKN013 19/15 A3010 RMK AO2 SLP194 T01890150=
202208161553 METAR KBFI 161553Z 15004KT 10SM BKN013 18/15 A3011 RMK AO2 SLP194 T01780150=
202208161453 METAR KBFI 161453Z 00000KT 10SM SCT011 17/14 A3010 RMK AO2 SLP192 60000 T01720144 53010=
202208161353 METAR KBFI 161353Z 00000KT 10SM SCT011 16/14 A3009 RMK AO2 RAE1256 SLP189 P0000 T01560144=
202208161307 SPECI KBFI 161307Z 00000KT 10SM SCT011 16/14 A3008 RMK AO2 RAE1256 P0000 T01610139=
202208161300 SPECI KBFI 161300Z 00000KT 10SM OVC011 16/14 A3008 RMK AO2 RAE1256 P0000 T01610139=
202208161253 METAR KBFI 161253Z 00000KT 10SM -RA SCT012 16/14 A3007 RMK AO2 RAB45 SLP183 P0000 T01610144=
202208161153 METAR KBFI 161153Z 00000KT 10SM CLR 17/14 A3007 RMK AO2 SLP181 T01670139 10211 20167 51010=
202208161053 METAR KBFI 161053Z 00000KT 10SM CLR 17/14 A3006 RMK AO2 SLP180 T01670139=
202208160953 METAR KBFI 160953Z 00000KT 10SM CLR 18/14 A3005 RMK AO2 SLP175 T01780139=
202208160853 METAR KBFI 160853Z 00000KT 10SM CLR 18/14 A3004 RMK AO2 SLP171 T01780139 51005=
202208160753 METAR KBFI 160753Z 35003KT 10SM CLR 19/14 A3004 RMK AO2 SLP170 T01940144 402830144=
202208160653 METAR KBFI 160653Z 05004KT 10SM CLR 20/14 A3003 RMK AO2 SLP168 T02000139=
202208160553 METAR KBFI 160553Z 34004KT 10SM CLR 21/14 A3002 RMK AO2 SLP166 T02110139 10283 20211 51012=
202208160453 METAR KBFI 160453Z 00000KT 10SM CLR 21/12 A3001 RMK AO2 SLP163 T02110122=
202208160353 METAR KBFI 160353Z 31004KT 10SM CLR 22/12 A3000 RMK AO2 SLP159 T02170117=
202208160253 METAR KBFI 160253Z 32005KT 10SM CLR 24/12 A2999 RMK AO2 SLP154 T02440122 55001=
202208160153 METAR KBFI 160153Z 33005KT 10SM CLR 27/12 A2998 RMK AO2 SLP152 T02670122=
202208160053 METAR KBFI 160053Z 31004KT 10SM CLR 28/13 A2999 RMK AO2 SLP154 T02780133=
202208152353 METAR KBFI 152353Z VRB04KT 10SM CLR 27/13 A2999 RMK AO2 SLP155 T02720128 10283 20222 58013=
202208152253 METAR KBFI 152253Z 32005KT 10SM CLR 28/12 A3000 RMK AO2 SLP160 T02780122=
202208152153 METAR KBFI 152153Z AUTO VRB03KT 10SM CLR 27/12 A3002 RMK AO2 SLP165 T02670122=
202208152053 METAR KBFI 152053Z AUTO VRB05KT 10SM CLR 27/12 A3003 RMK AO2 SLP169 T02670122 56012=
202208151953 METAR KBFI 151953Z AUTO 00000KT 10SM CLR 25/13 A3004 RMK AO2 SLP172 T02500128=
202208151853 METAR KBFI 151853Z AUTO VRB03KT 10SM CLR 24/13 A3005 RMK AO2 SLP176 T02390133=
202208151753 METAR KBFI 151753Z 29006KT 10SM CLR 23/13 A3007 RMK AO2 SLP181 T02280133 10228 20144 58004=
202208151653 METAR KBFI 151653Z 07003KT 10SM CLR 21/13 A3007 RMK AO2 SLP182 T02110133=
202208151553 METAR KBFI 151553Z 00000KT 10SM CLR 19/13 A3008 RMK AO2 SLP184 T01890133=
202208151453 METAR KBFI 151453Z 00000KT 10SM CLR 17/13 A3008 RMK AO2 SLP184 T01720128 51003=
202208151353 METAR KBFI 151353Z 14003KT 10SM CLR 14/12 A3007 RMK AO2 SLP183 T01440117=
202208151253 METAR KBFI 151253Z 00000KT 10SM CLR 16/12 A3007 RMK AO2 SLP182 T01560117=
202208151153 METAR KBFI 151153Z 00000KT 10SM CLR 16/12 A3007 RMK AO2 SLP181 T01610122 10189 20161 55004=
202208151053 METAR KBFI 151053Z 00000KT 10SM CLR 17/12 A3007 RMK AO2 SLP181 T01670122=
202208150953 METAR KBFI 150953Z 00000KT 10SM CLR 17/12 A3007 RMK AO2 SLP182 T01670117=
202208150853 METAR KBFI 150853Z AUTO 30003KT 10SM CLR 17/12 A3008 RMK AO2 SLP185 T01720117 50001=
202208150753 METAR KBFI 150753Z 00000KT 10SM CLR 18/12 A3008 RMK AO2 SLP186 T01830117 402670150=
202208150653 METAR KBFI 150653Z 00000KT 10SM CLR 18/12 A3008 RMK AO2 SLP187 T01830117=
202208150553 METAR KBFI 150553Z 00000KT 10SM CLR 19/12 A3008 RMK AO2 SLP184 T01890117 10267 20189 51006=
202208150453 METAR KBFI 150453Z 31004KT 10SM CLR 19/12 A3007 RMK AO2 SLP183 T01940122=
202208150353 METAR KBFI 150353Z 31005KT 10SM CLR 21/12 A3007 RMK AO2 SLP181 T02110117=
202208150253 METAR KBFI 150253Z 10SM CLR 23/11 A3006 RMK AO2 SLP178 T02330111 56009=
202208150153 METAR KBFI 150153Z 30006KT 10SM CLR 26/10 A3006 RMK AO2 SLP179 T02560100=
202208150053 METAR KBFI 150053Z 30007KT 10SM CLR 26/11 A3007 RMK AO2 SLP183 T02560106=
202208142353 METAR KBFI 142353Z 31007KT 10SM FEW090 26/11 A3008 RMK AO2 SLP187 T02610106 10267 20206 58014=
202208142253 METAR KBFI 142253Z VRB05KT 10SM CLR 26/12 A3010 RMK AO2 SLP193 T02560122=
202208142153 METAR KBFI 142153Z VRB03KT 10SM CLR 25/13 A3011 RMK AO2 SLP197 T02500128=
202208142053 METAR KBFI 142053Z VRB03KT 10SM CLR 24/12 A3013 RMK AO2 SLP201 T02440122 58010=
202208141953 METAR KBFI 141953Z 32006KT 10SM CLR 23/13 A3014 RMK AO2 SLP206 T02280128=
202208141853 METAR KBFI 141853Z 30006KT 10SM FEW150 22/13 A3015 RMK AO2 SLP208 T02170133=
202208141753 METAR KBFI 141753Z 00000KT 10SM CLR 21/13 A3015 RMK AO2 SLP211 T02060133 10211 20150 58007=
202208141653 METAR KBFI 141653Z 00000KT 10SM CLR 19/13 A3017 RMK AO2 SLP214 T01940133=
202208141553 METAR KBFI 141553Z 09003KT 10SM FEW017 18/14 A3018 RMK AO2 SLP219 T01830139=
202208141453 METAR KBFI 141453Z 00000KT 10SM CLR 17/14 A3018 RMK AO2 SLP218 T01670139 53008=
202208141353 METAR KBFI 141353Z AUTO 00000KT 10SM CLR 16/13 A3017 RMK AO2 SLP215 T01560128=
202208141253 METAR KBFI 141253Z 00000KT 10SM CLR 15/13 A3016 RMK AO2 SLP212 T01500128=
202208141153 METAR KBFI 141153Z 00000KT 10SM CLR 16/13 A3015 RMK AO2 SLP210 T01560128 10189 20156 55001=
202208141053 METAR KBFI 141053Z 00000KT 10SM CLR 16/13 A3015 RMK AO2 SLP210 T01560128=
202208140953 METAR KBFI 140953Z 00000KT 10SM CLR 17/13 A3015 RMK AO2 SLP210 T01670133=
202208140853 METAR KBFI 140853Z 00000KT 10SM CLR 17/13 A3016 RMK AO2 SLP211 T01720133 55001=
202208140753 METAR KBFI 140753Z 00000KT 10SM CLR 17/13 A3015 RMK AO2 SLP210 T01720133 402440156=
202208140653 METAR KBFI 140653Z 00000KT 10SM CLR 18/13 A3016 RMK AO2 SLP211 T01780133=
202208140553 METAR KBFI 140553Z VRB03KT 10SM CLR 19/13 A3016 RMK AO2 SLP212 T01890128 10244 20189 50004=
202208140453 METAR KBFI 140453Z 00000KT 10SM CLR 19/12 A3016 RMK AO2 SLP213 T01890122=
202208140353 METAR KBFI 140353Z 30005KT 10SM CLR 20/12 A3016 RMK AO2 SLP211 T02000122=
202208140253 METAR KBFI 140253Z 26006KT 10SM CLR 22/13 A3015 RMK AO2 SLP208 T02170133 56005=
202208140153 METAR KBFI 140153Z 25004KT 10SM CLR 23/12 A3015 RMK AO2 SLP208 T02280122=
202208140053 METAR KBFI 140053Z 24006KT 10SM CLR 24/12 A3015 RMK AO2 SLP210 T02390122=
202208132353 METAR KBFI 132353Z 18005KT 10SM SCT055 24/12 A3016 RMK AO2 SLP213 T02390117 10244 20200 58007=
202208132253 METAR KBFI 132253Z 23005KT 10SM SCT045 24/12 A3017 RMK AO2 SLP217 T02390122=
202208132153 METAR KBFI 132153Z VRB05KT 10SM SCT055 23/12 A3018 RMK AO2 SLP219 T02280122=
202208132053 METAR KBFI 132053Z 20006KT 10SM BKN055 23/12 A3018 RMK AO2 SLP220 T02280122 56002=
202208131953 METAR KBFI 131953Z 24011G17KT 10SM SCT055 22/12 A3018 RMK AO2 SLP220 T02220122=
202208131853 METAR KBFI 131853Z AUTO 17010KT 10SM SCT050 23/13 A3019 RMK AO2 SLP222 T02280128=
202208131753 METAR KBFI 131753Z 18007G18KT 10SM FEW060 22/13 A3019 RMK AO2 SLP223 T02170133 10217 20167 53007=
202208131653 METAR KBFI 131653Z 19007G16KT 150V210 10SM BKN055 18/12 A3018 RMK AO2 SLP219 T01830122=
202208131553 METAR KBFI 131553Z 18008KT 10SM FEW035 OVC060 18/12 A3017 RMK AO2 SLP217 T01830117=
202208131453 METAR KBFI 131453Z 18006KT 10SM OVC030 18/11 A3017 RMK AO2 SLP215 T01780111 53010=
202208131443 SPECI KBFI 131443Z 20004KT 10SM OVC029 18/11 A3017 RMK AO2 T01780111=
202208131353 METAR KBFI 131353Z 14005KT 10SM OVC034 17/11 A3016 RMK AO2 SLP211 T01720111=
202208131253 METAR KBFI 131253Z 12006KT 10SM BKN048 OVC060 17/11 A3014 RMK AO2 SLP206 T01720111=
202208131153 METAR KBFI 131153Z 14007KT 10SM OVC070 17/11 A3014 RMK AO2 SLP205 T01670111 10178 20156 51005=
202208131053 METAR KBFI 131053Z 15007KT 10SM OVC070 17/11 A3014 RMK AO2 SLP204 T01720106=
202208130953 METAR KBFI 130953Z VRB04KT 10SM SCT033 16/11 A3013 RMK AO2 SLP203 T01610111=
202208130853 METAR KBFI 130853Z 21005KT 10SM OVC048 17/11 A3012 RMK AO2 SLP200 T01720111 51010=
202208130753 METAR KBFI 130753Z 19005KT 10SM OVC041 17/11 A3012 RMK AO2 SLP197 T01720106 402610144=
202208130653 METAR KBFI 130653Z 18008KT 10SM OVC040 17/11 A3010 RMK AO2 SLP193 T01720106=
202208130553 METAR KBFI 130553Z 18006G15KT 10SM BKN044 BKN055 18/09 A3009 RMK AO2 SLP189 T01780094 10244 20178 51023=
202208130453 METAR KBFI 130453Z 20006KT 10SM OVC042 18/11 A3008 RMK AO2 SLP184 T01830106=
202208130353 METAR KBFI 130353Z 20004KT 10SM OVC044 20/13 A3005 RMK AO2 SLP176 T02000128=
202208130253 METAR KBFI 130253Z 22007G16KT 170V250 10SM BKN046 21/13 A3002 RMK AO2 SLP166 T02110133 53006=
202208130153 METAR KBFI 130153Z 22007G16KT 10SM CLR 23/14 A3001 RMK AO2 SLP162 T02280139=
202208130053 METAR KBFI 130053Z 22007G15KT 160V260 10SM CLR 23/14 A3000 RMK AO2 SLP160 T02330139=
202208122353 METAR KBFI 122353Z 20007KT 10SM CLR 24/15 A3000 RMK AO2 SLP160 T02440150 10261 20200 55002=
202208122253 METAR KBFI 122253Z 20007KT 10SM CLR 26/14 A3000 RMK AO2 SLP158 T02560144=
202208122153 METAR KBFI 122153Z 19005KT 10SM CLR 24/14 A3001 RMK AO2 SLP161 T02440144=
202208122053 METAR KBFI 122053Z VRB06KT 10SM CLR 24/14 A3001 RMK AO2 SLP162 T02440144 58010=
202208121953 METAR KBFI 121953Z 23005KT 10SM CLR 23/14 A3002 RMK AO2 SLP165 T02330139=
202208121853 METAR KBFI 121853Z VRB06KT 10SM CLR 22/14 A3003 RMK AO2 SLP170 T02170139=
202208121753 METAR KBFI 121753Z AUTO 24005KT 10SM CLR 20/14 A3004 RMK AO2 SLP172 60000 T02000139 10206 20144 50001=
202208121653 METAR KBFI 121653Z 15008KT 10SM CLR 19/13 A3004 RMK AO2 SLP172 T01890133=
202208121553 METAR KBFI 121553Z VRB05KT 10SM CLR 18/13 A3004 RMK AO2 SLP172 T01830133=
202208121453 METAR KBFI 121453Z 15004KT 10SM CLR 17/13 A3004 RMK AO2 SLP171 60000 T01670128 53006=
202208121353 METAR KBFI 121353Z 00000KT 10SM CLR 15/12 A3003 RMK AO2 SLP168 T01500122=
202208121253 METAR KBFI 121253Z 00000KT 10SM CLR 16/12 A3001 RMK AO2 RAB29E38 SLP162 P0000 T01560122=
202208121153 METAR KBFI 121153Z 00000KT 10SM CLR 16/12 A3002 RMK AO2 SLP166 T01560122 10194 20156 50000=
202208121053 METAR KBFI 121053Z 00000KT 10SM CLR 16/12 A3003 RMK AO2 SLP167 T01610117=
202208120953 METAR KBFI 120953Z 00000KT 10SM CLR 17/12 A3002 RMK AO2 SLP166 T01670122=
202208120853 METAR KBFI 120853Z 00000KT 10SM CLR 17/12 A3002 RMK AO2 SLP165 T01670122 55000=
202208120753 METAR KBFI 120753Z 00000KT 10SM CLR 18/12 A3002 RMK AO2 SLP166 T01830122 402670150=
202208120653 METAR KBFI 120653Z 00000KT 10SM CLR 19/12 A3002 RMK AO2 SLP164 T01890122=
202208120553 METAR KBFI 120553Z 31003KT 10SM CLR 19/12 A3002 RMK AO2 SLP165 T01940122 10267 20194 50007=
202208120453 METAR KBFI 120453Z 32003KT 10SM CLR 21/12 A3002 RMK AO2 SLP166 T02060117=
202208120353 METAR KBFI 120353Z 30005KT 10SM CLR 22/11 A3001 RMK AO2 SLP163 T02220111=
202208120253 METAR KBFI 120253Z 30006KT 10SM CLR 23/13 A3000 RMK AO2 SLP158 T02330128 56004=
202208120153 METAR KBFI 120153Z 31006KT 10SM CLR 25/12 A3000 RMK AO2 SLP159 T02500122=
202208120053 METAR KBFI 120053Z VRB04KT 10SM CLR 26/11 A3000 RMK AO2 SLP158 T02610106=
202208112353 METAR KBFI 112353Z 33005KT 10SM CLR 26/11 A3001 RMK AO2 SLP162 T02610106 10267 20211 56017=
202208112253 METAR KBFI 112253Z AUTO VRB05KT 10SM CLR 26/12 A3003 RMK AO2 SLP167 T02560117=
202208112153 METAR KBFI 112153Z VRB03KT 10SM CLR 25/12 A3004 RMK AO2 SLP172 T02500122=
202208112053 METAR KBFI 112053Z 10SM CLR 24/13 A3006 RMK AO2 SLP179 T02440128 56016=
202208111953 METAR KBFI 111953Z 31004KT 10SM CLR 24/13 A3007 RMK AO2 SLP183 T02390133=
202208111853 METAR KBFI 111853Z VRB05KT 10SM CLR 22/14 A3009 RMK AO2 SLP189 T02220139=
202208111753 METAR KBFI 111753Z 33005KT 10SM CLR 21/14 A3011 RMK AO2 SLP194 T02110139 10211 20150 58010=
202208111653 METAR KBFI 111653Z 31004KT 10SM CLR 20/14 A3011 RMK AO2 SLP197 T02000139=
202208111553 METAR KBFI 111553Z 35004KT 10SM CLR 19/15 A3013 RMK AO2 SLP203 T01890150=
202208111453 METAR KBFI 111453Z 00000KT 10SM CLR 17/14 A3014 RMK AO2 SLP205 T01720144 50002=
202208111353 METAR KBFI 111353Z 00000KT 10SM CLR 16/14 A3014 RMK AO2 SLP205 T01560139=
202208111253 METAR KBFI 111253Z 00000KT 10SM SCT048 16/13 A3013 RMK AO2 SLP203 T01560133=
202208111153 METAR KBFI 111153Z 00000KT 10SM BKN046 16/14 A3013 RMK AO2 SLP202 T01610139 10183 20156 56004=
202208111053 METAR KBFI 111053Z 35003KT 10SM FEW038 BKN047 16/14 A3013 RMK AO2 SLP204 T01610139=
202208110953 METAR KBFI 110953Z 00000KT 10SM SCT038 16/13 A3013 RMK AO2 SLP202 T01610133=
202208110853 METAR KBFI 110853Z 00000KT 10SM CLR 16/13 A3014 RMK AO2 SLP207 T01610133 58005=
202208110753 METAR KBFI 110753Z 00000KT 10SM BKN048 17/13 A3015 RMK AO2 SLP208 T01720133 402170156=
202208110653 METAR KBFI 110653Z 00000KT 10SM SCT050 18/13 A3015 RMK AO2 SLP210 T01780133=
202208110553 METAR KBFI 110553Z VRB04KT 10SM SCT049 18/13 A3016 RMK AO2 SLP211 T01780133 10211 20178 51010=
202208110453 METAR KBFI 110453Z 18004KT 10SM OVC047 19/14 A3015 RMK AO2 SLP208 T01890139=
202208110353 METAR KBFI 110353Z AUTO 16005KT 10SM FEW036 OVC045 19/14 A3014 RMK AO2 SLP206 T01890139=
202208110253 METAR KBFI 110253Z 16009KT 10SM SCT035 OVC047 19/14 A3013 RMK AO2 SLP202 T01940139 51011=
202208110153 METAR KBFI 110153Z 20006KT 10SM OVC046 19/14 A3012 RMK AO2 SLP200 T01940139=
202208110100 SPECI KBFI 110100Z 18009G17KT 130V220 10SM BKN047 21/15 A3011 RMK AO2 T02110150=
202208110053 METAR KBFI 110053Z 17010G15KT 10SM BKN024 BKN029 21/15 A3011 RMK AO2 SLP196 T02110150=
202208102353 METAR KBFI 102353Z 19010KT 10SM BKN024 BKN029 21/15 A3010 RMK AO2 SLP191 T02110150 10217 20178 51009=
202208102253 METAR KBFI 102253Z 21006KT 10SM BKN020 OVC030 21/16 A3009 RMK AO2 SLP188 T02060156=
202208102153 METAR KBFI 102153Z 17007KT 10SM BKN020 OVC034 21/16 A3008 RMK AO2 SLP185 T02110161=
202208102053 METAR KBFI 102053Z 20009KT 160V240 10SM SCT018 BKN020 OVC034 21/16 A3007 RMK AO2 SLP181 T02060156 53004=
202208102030 SPECI KBFI 102030Z 19008G15KT 10SM SCT018 BKN020 20/16 A3006 RMK AO2 T02000156=
202208101953 METAR KBFI 101953Z 24008KT 10SM BKN020 OVC034 19/15 A3006 RMK AO2 SLP179 T01940150=
202208101853 METAR KBFI 101853Z 18007KT 10SM BKN020 OVC034 19/15 A3006 RMK AO2 SLP177 T01890150=
202208101850 SPECI KBFI 101850Z 19005KT 10SM FEW020 OVC034 19/15 A3005 RMK AO2=
202208101753 METAR KBFI 101753Z 18006KT 10SM BKN018 BKN028 OVC037 18/15 A3004 RMK AO2 LTG DSNT N AND NW RAB26E42 SLP173 P0000 60000 T01780150 10183 20156 51013=
202208101653 METAR KBFI 101653Z 00000KT 10SM VCTS BKN018 BKN028 OVC037 18/14 A3003 RMK AO2 LTG DSNT SW SLP167 LTGCG T01780144=
202208101637 SPECI KBFI 101637Z 18006KT 10SM VCTS OVC015 18/14 A3003 RMK AO2 LTG DSNT S-W LTGCG T01780144=
202208101553 METAR KBFI 101553Z 17007KT 10SM OVC014 18/14 A3003 RMK AO2 SLP167 T01780144=
202208101453 METAR KBFI 101453Z 17009KT 10SM OVC013 17/14 A3001 RMK AO2 SLP161 T01670144 51019=
202208101353 METAR KBFI 101353Z 16007KT 10SM OVC012 16/14 A2999 RMK AO2 SLP156 T01610144=
202208101253 METAR KBFI 101253Z VRB04KT 10SM OVC009 16/14 A2997 RMK AO2 SLP148 T01560144=
202208101217 SPECI KBFI 101217Z 19006KT 10SM OVC009 16/14 A2996 RMK AO2 T01560144=
202208101153 METAR KBFI 101153Z 20007KT 10SM BKN011 16/14 A2995 RMK AO2 SLP142 T01610144 10200 20161 51008=
202208101150 SPECI KBFI 101150Z 22006KT 10SM BKN011 16/14 A2995 RMK AO2=
202208101053 METAR KBFI 101053Z 00000KT 10SM CLR 17/14 A2994 RMK AO2 SLP139 T01670139=
202208100953 METAR KBFI 100953Z 00000KT 10SM CLR 17/14 A2993 RMK AO2 SLP134 T01720139=
202208100853 METAR KBFI 100853Z AUTO 00000KT 10SM CLR 18/14 A2991 RMK AO2 SLP130 T01780139 50004=
202208100753 METAR KBFI 100753Z AUTO 00000KT 10SM CLR 18/14 A2992 RMK AO2 SLP131 T01780139 402500156=
202208100653 METAR KBFI 100653Z 00000KT 10SM CLR 19/14 A2991 RMK AO2 SLP127 T01940144=
202208100553 METAR KBFI 100553Z 32003KT 10SM CLR 20/14 A2990 RMK AO2 SLP125 T02000144 10250 20200 53009=
202208100453 METAR KBFI 100453Z 00000KT 10SM CLR 22/15 A2989 RMK AO2 SLP123 T02220150=
202208100353 METAR KBFI 100353Z 31003KT 10SM CLR 23/15 A2988 RMK AO2 SLP116 T02280150=
202208100253 METAR KBFI 100253Z VRB03KT 10SM FEW150 24/15 A2987 RMK AO2 SLP115 T02390150 56007=
202208100153 METAR KBFI 100153Z 00000KT 10SM FEW150 25/15 A2988 RMK AO2 SLP117 T02500150=
202208100053 METAR KBFI 100053Z 29004KT 10SM CLR 25/15 A2988 RMK AO2 SLP118 T02500150=
202208092353 METAR KBFI 092353Z 27004KT 10SM CLR 24/15 A2989 RMK AO2 SLP122 60000 T02440150 10244 20178 56013=
202208092253 METAR KBFI 092253Z VRB03KT 10SM CLR 23/16 A2990 RMK AO2 SLP126 T02330156=
202208092153 METAR KBFI 092153Z AUTO 00000KT 10SM FEW017 BKN130 21/15 A2991 RMK AO2 SLP129 T02110150=
202208092053 METAR KBFI 092053Z 25005KT 10SM FEW015 BKN130 21/16 A2993 RMK AO2 SLP135 60000 T02060156 58011=
202208091953 METAR KBFI 091953Z 00000KT 10SM SCT012 OVC110 19/15 A2996 RMK AO2 SLP144 T01890150=
202208091853 METAR KBFI 091853Z 00000KT 10SM SCT012 18/14 A2997 RMK AO2 RAE48 SLP147 P0000 T01830144=
202208091753 METAR KBFI 091753Z 25004KT 10SM -RA SCT012 18/14 A2996 RMK AO2 SLP146 P0000 60000 T01780144 10183 20156 58003=
202208091653 METAR KBFI 091653Z VRB03KT 10SM -RA SCT012 18/15 A2997 RMK AO2 SLP147 P0000 T01780150=
202208091627 SPECI KBFI 091627Z 00000KT 10SM -RA SCT009 17/14 A2996 RMK AO2 PRESFR P0000 T01670144=
202208091553 METAR KBFI 091553Z 20004KT 10SM -RA BKN009 16/14 A2999 RMK AO2 SLP155 P0000 T01610144=
202208091453 METAR KBFI 091453Z VRB03KT 10SM -RA BKN009 16/14 A2997 RMK AO2 RAB50 SLP149 P0000 60000 T01610144 58002=
202208091353 METAR KBFI 091353Z 00000KT 10SM OVC009 16/14 A2997 RMK AO2 SLP150 T01560144=
202208091253 METAR KBFI 091253Z 18004KT 10SM OVC009 16/14 A2998 RMK AO2 SLP152 T01560139=
202208091153 METAR KBFI 091153Z 18006KT 10SM BKN009 16/14 A2998 RMK AO2 SLP151 T01560139 10228 20156 50001=
202208091149 SPECI KBFI 091149Z 16005KT 10SM BKN009 16/14 A2998 RMK AO2=
202208091129 SPECI KBFI 091129Z 21003KT 10SM SCT010 16/14 A2998 RMK AO2 T01560139=
202208091053 METAR KBFI 091053Z 17007KT 10SM BKN010 16/14 A2998 RMK AO2 SLP153 T01560139=
202208091049 SPECI KBFI 091049Z 18006KT 10SM BKN011 16/14 A2998 RMK AO2=
202208090953 METAR KBFI 090953Z 17006KT 10SM CLR 16/14 A2997 RMK AO2 SLP150 T01560139=
202208090853 METAR KBFI 090853Z 17005KT 10SM CLR 16/14 A2997 RMK AO2 SLP147 T01610139 51014=
202208090753 METAR KBFI 090753Z 21004KT 10SM CLR 17/14 A2996 RMK AO2 SLP143 T01720139 403110167=
202208090653 METAR KBFI 090653Z 19004KT 10SM CLR 19/14 A2994 RMK AO2 SLP139 T01890144=
202208090553 METAR KBFI 090553Z 10SM CLR 23/13 A2992 RMK AO2 SLP133 T02280133 10300 20222 53017=
202208090453 METAR KBFI 090453Z 00000KT 10SM CLR 24/12 A2991 RMK AO2 SLP127 T02440122=
202208090353 METAR KBFI 090353Z 30004KT 10SM CLR 26/12 A2988 RMK AO2 SLP119 T02560122=
202208090253 METAR KBFI 090253Z AUTO 31005KT 10SM CLR 27/12 A2987 RMK AO2 SLP116 T02720122 55001=
202208090153 METAR KBFI 090153Z 31007KT 10SM FEW250 29/13 A2987 RMK AO2 SLP114 T02890128=
202208090053 METAR KBFI 090053Z 30008G15KT 10SM CLR 29/14 A2987 RMK AO2 SLP115 T02940139=
202208082353 METAR KBFI 082353Z 32008G16KT 10SM CLR 30/14 A2988 RMK AO2 SLP117 T03000139 10311 20250 58021=
202208082253 METAR KBFI 082253Z 30008KT 10SM CLR 30/14 A2990 RMK AO2 SLP124 T03000144=
202208082153 METAR KBFI 082153Z VRB05KT 10SM CLR 31/14 A2992 RMK AO2 SLP130 T03060139=
202208082053 METAR KBFI 082053Z VRB05KT 10SM CLR 29/14 A2994 RMK AO2 SLP137 T02890144 58009=
202208081953 METAR KBFI 081953Z 32006KT 10SM CLR 28/14 A2995 RMK AO2 SLP142 T02780144=
202208081853 METAR KBFI 081853Z VRB04KT 10SM CLR 27/15 A2996 RMK AO2 SLP144 T02670150=
202208081753 METAR KBFI 081753Z 29006KT 10SM CLR 25/14 A2996 RMK AO2 SLP146 60000 T02500144 10250 20172 58005=
202208081653 METAR KBFI 081653Z 32005KT 10SM CLR 23/14 A2997 RMK AO2 SLP150 T02280144=
202208081553 METAR KBFI 081553Z 00000KT 10SM CLR 21/15 A2999 RMK AO2 SLP153 T02110150=
202208081453 METAR KBFI 081453Z 00000KT 10SM CLR 19/14 A2998 RMK AO2 SLP151 60000 T01940139 51006=
202208081353 METAR KBFI 081353Z 34003KT 10SM CLR 18/14 A2997 RMK AO2 SLP150 T01780139=
202208081253 METAR KBFI 081253Z 00000KT 10SM CLR 17/14 A2997 RMK AO2 RAB25E36 SLP148 P0000 T01720139=
202208081153 METAR KBFI 081153Z 00000KT 10SM CLR 17/13 A2996 RMK AO2 SLP146 T01720133 10222 20167 58002=
202208081053 METAR KBFI 081053Z 00000KT 10SM CLR 18/13 A2997 RMK AO2 SLP148 T01780133=
202208080953 METAR KBFI 080953Z 00000KT 10SM CLR 18/13 A2996 RMK AO2 SLP146 T01830133=
202208080853 METAR KBFI 080853Z 00000KT 10SM CLR 19/13 A2997 RMK AO2 SLP148 T01940133 53003=
202208080753 METAR KBFI 080753Z 00000KT 10SM CLR 21/13 A2996 RMK AO2 SLP146 T02060133 402940150=
202208080653 METAR KBFI 080653Z 00000KT 10SM CLR 22/14 A2996 RMK AO2 SLP146 T02170139=
202208080553 METAR KBFI 080553Z 00000KT 10SM CLR 22/14 A2996 RMK AO2 SLP145 60000 T02220139 10294 20217 53007=
202208080453 METAR KBFI 080453Z 00000KT 10SM CLR 23/14 A2995 RMK AO2 RAB04E16 SLP142 P0000 T02330139=
202208080353 METAR KBFI 080353Z AUTO 32003KT 10SM CLR 25/14 A2994 RMK AO2 SLP138 T02500139=
202208080253 METAR KBFI 080253Z 32005KT 10SM CLR 27/13 A2994 RMK AO2 SLP138 T02670133 55008=
202208080153 METAR KBFI 080153Z 31005KT 10SM CLR 28/13 A2993 RMK AO2 SLP136 T02780133=
202208080053 METAR KBFI 080053Z VRB06KT 10SM CLR 29/13 A2995 RMK AO2 SLP140 T02890128=
202208072353 METAR KBFI 072353Z 31008KT 10SM CLR 29/13 A2996 RMK AO2 SLP145 T02940128 10294 20244 56016=
202208072253 METAR KBFI 072253Z 31009G18KT 10SM CLR 29/13 A2997 RMK AO2 SLP149 T02890128=
202208072153 METAR KBFI 072153Z 32008G15KT 10SM CLR 29/13 A2999 RMK AO2 SLP155 T02940128=
202208072053 METAR KBFI 072053Z 32007KT 10SM CLR 28/14 A3001 RMK AO2 SLP161 T02830139 57014=
202208071953 METAR KBFI 071953Z 31007KT 10SM CLR 27/13 A3002 RMK AO2 SLP165 T02670133=
202208071853 METAR KBFI 071853Z VRB03KT 10SM CLR 26/13 A3004 RMK AO2 SLP171 T02560128=
202208071753 METAR KBFI 071753Z 31005KT 10SM CLR 24/13 A3005 RMK AO2 SLP175 T02440128 10250 20150 58003=
202208071653 METAR KBFI 071653Z VRB04KT 10SM CLR 23/14 A3006 RMK AO2 SLP179 T02280139=
202208071553 METAR KBFI 071553Z VRB03KT 10SM CLR 21/14 A3006 RMK AO2 SLP180 T02060144=
202208071453 METAR KBFI 071453Z 00000KT 10SM CLR 18/14 A3006 RMK AO2 SLP178 T01830139 53009=
202208071353 METAR KBFI 071353Z 00000KT 10SM CLR 16/14 A3005 RMK AO2 SLP176 T01610139=
202208071253 METAR KBFI 071253Z 00000KT 10SM CLR 16/12 A3004 RMK AO2 SLP171 T01610122=
202208071153 METAR KBFI 071153Z AUTO 00000KT 10SM CLR 16/12 A3003 RMK AO2 SLP169 T01610117 10206 20161 56002=
202208071053 METAR KBFI 071053Z AUTO 00000KT 10SM CLR 17/12 A3003 RMK AO2 SLP170 T01670117=
202208070953 METAR KBFI 070953Z 00000KT 10SM CLR 18/12 A3003 RMK AO2 SLP170 T01780117=
202208070853 METAR KBFI 070853Z 00000KT 10SM CLR 19/12 A3004 RMK AO2 SLP171 T01890122 51003=
202208070753 METAR KBFI 070753Z 00000KT 10SM CLR 19/12 A3003 RMK AO2 SLP170 T01890122 402780139=
202208070653 METAR KBFI 070653Z 00000KT 10SM CLR 20/12 A3003 RMK AO2 SLP169 T02000122=
202208070553 METAR KBFI 070553Z 00000KT 10SM CLR 21/12 A3003 RMK AO2 SLP168 T02060122 10272 20206 50007=
202208070453 METAR KBFI 070453Z 00000KT 10SM CLR 22/12 A3003 RMK AO2 SLP168 T02220122=
202208070353 METAR KBFI 070353Z 34003KT 10SM CLR 24/12 A3002 RMK AO2 SLP164 T02390117=
202208070253 METAR KBFI 070253Z 31006KT 10SM CLR 24/12 A3001 RMK AO2 SLP161 T02440117 56005=
202208070153 METAR KBFI 070153Z 30007KT 10SM CLR 26/12 A3001 RMK AO2 SLP161 T02560117=
202208070053 METAR KBFI 070053Z 31006KT 10SM CLR 27/12 A3001 RMK AO2 SLP163 T02670117=
202208062353 METAR KBFI 062353Z 30008KT 290V350 10SM CLR 27/12 A3002 RMK AO2 SLP166 T02720117 10278 20217 58010=
202208062253 METAR KBFI 062253Z 30009G17KT 10SM CLR 27/10 A3004 RMK AO2 SLP170 T02670100=
202208062153 METAR KBFI 062153Z 32008G16KT 10SM CLR 27/09 A3005 RMK AO2 SLP174 T02670094=
202208062053 METAR KBFI 062053Z 30011G18KT 10SM CLR 26/09 A3005 RMK AO2 SLP176 T02560094 58014=
202208061953 METAR KBFI 061953Z VRB06KT 10SM CLR 25/12 A3007 RMK AO2 SLP181 T02500117=
202208061853 METAR KBFI 061853Z 30007KT 10SM CLR 24/13 A3008 RMK AO2 SLP185 T02390133=
202208061753 METAR KBFI 061753Z VRB04KT 10SM CLR 22/13 A3009 RMK AO2 SLP190 T02170133 10217 20139 53004=
202208061653 METAR KBFI 061653Z 31005KT 10SM CLR 20/13 A3009 RMK AO2 SLP188 T02000128=
202208061553 METAR KBFI 061553Z 00000KT 10SM CLR 19/13 A3009 RMK AO2 SLP187 T01890128=
202208061453 METAR KBFI 061453Z 00000KT 10SM CLR 17/12 A3008 RMK AO2 SLP186 T01670122 51010=
202208061353 METAR KBFI 061353Z 00000KT 10SM CLR 15/12 A3008 RMK AO2 SLP184 T01500122=
202208061253 METAR KBFI 061253Z 00000KT 10SM CLR 14/12 A3006 RMK AO2 SLP180 T01440117=
202208061153 METAR KBFI 061153Z 00000KT 10SM CLR 14/12 A3005 RMK AO2 SLP176 T01440117 10194 20144 53004=
202208061053 METAR KBFI 061053Z 00000KT 10SM CLR 15/11 A3005 RMK AO2 SLP174 T01500111=
202208060953 METAR KBFI 060953Z 00000KT 10SM CLR 16/11 A3004 RMK AO2 SLP173 T01610111=
202208060853 METAR KBFI 060853Z AUTO 00000KT 10SM CLR 17/11 A3004 RMK AO2 SLP172 T01720111 50003=
202208060753 METAR KBFI 060753Z 00000KT 10SM CLR 18/11 A3004 RMK AO2 SLP172 T01780111 402280128=
202208060653 METAR KBFI 060653Z 07003KT 10SM CLR 19/12 A3004 RMK AO2 SLP171 T01940117=
202208060553 METAR KBFI 060553Z 00000KT 10SM CLR 19/11 A3003 RMK AO2 SLP169 T01940106 10228 20194 51014=
202208060453 METAR KBFI 060453Z VRB03KT 10SM CLR 21/11 A3002 RMK AO2 SLP166 T02060106=
202208060353 METAR KBFI 060353Z VRB04KT 10SM CLR 21/12 A3000 RMK AO2 SLP160 T02060117=
202208060253 METAR KBFI 060253Z 33007KT 10SM CLR 21/12 A2999 RMK AO2 SLP155 T02110117 56007=
202208060153 METAR KBFI 060153Z 32007KT 10SM CLR 22/12 A2999 RMK AO2 SLP156 T02220122=
202208060053 METAR KBFI 060053Z 32008G17KT 10SM CLR 22/12 A3000 RMK AO2 SLP159 T02220122=
202208052353 METAR KBFI 052353Z VRB06KT 10SM CLR 23/12 A3001 RMK AO2 SLP162 T02280122 10228 20178 58011=
202208052253 METAR KBFI 052253Z 31009G18KT 10SM CLR 22/12 A3003 RMK AO2 SLP167 T02220122=
202208052153 METAR KBFI 052153Z 31009G17KT 10SM CLR 22/12 A3004 RMK AO2 SLP170 T02220117=
202208052053 METAR KBFI 052053Z 30010G17KT 10SM CLR 21/12 A3004 RMK AO2 SLP173 T02110117 58010=
202208051953 METAR KBFI 051953Z 31010G20KT 10SM CLR 21/11 A3005 RMK AO2 SLP176 T02060111=
202208051853 METAR KBFI 051853Z 30010G15KT 10SM CLR 19/12 A3007 RMK AO2 SLP181 T01940117=
202208051753 METAR KBFI 051753Z 32007KT 10SM CLR 18/11 A3007 RMK AO2 SLP183 T01780111 10194 20128 58004=
202208051653 METAR KBFI 051653Z 05004KT 10SM CLR 17/12 A3008 RMK AO2 SLP185 T01670117=
202208051553 METAR KBFI 051553Z VRB04KT 10SM FEW017 16/12 A3008 RMK AO2 SLP187 T01610117=
202208051515 SPECI KBFI 051515Z 10SM BKN015 15/12 A3009 RMK AO2 T01500117=
202208051453 METAR KBFI 051453Z VRB04KT 10SM FEW013 FEW120 14/11 A3008 RMK AO2 SLP187 T01390111 53006=
202208051353 METAR KBFI 051353Z 00000KT 10SM CLR 14/11 A3008 RMK AO2 SLP185 T01390111=
202208051253 METAR KBFI 051253Z 00000KT 10SM CLR 13/11 A3007 RMK AO2 SLP182 T01330111=
202208051153 METAR KBFI 051153Z VRB03KT 10SM CLR 13/11 A3007 RMK AO2 SLP181 T01330106 10167 20133 56004=
202208051053 METAR KBFI 051053Z VRB03KT 10SM CLR 14/11 A3007 RMK AO2 SLP183 T01390106=
202208050953 METAR KBFI 050953Z VRB03KT 10SM CLR 14/10 A3007 RMK AO2 SLP183 T01440100=
202208050853 METAR KBFI 050853Z 00000KT 10SM CLR 14/11 A3008 RMK AO2 SLP185 T01390106 50005=
202208050753 METAR KBFI 050753Z 00000KT 10SM CLR 15/11 A3009 RMK AO2 SLP188 T01500111 402000144=
202208050653 METAR KBFI 050653Z VRB03KT 10SM CLR 16/12 A3008 RMK AO2 SLP185 T01560117=
202208050553 METAR KBFI 050553Z VRB03KT 10SM CLR 17/10 A3007 RMK AO2 SLP181 T01670100 10200 20167 52006=
202208050453 METAR KBFI 050453Z 00000KT 10SM FEW060 17/10 A3006 RMK AO2 SLP180 T01720100=
202208050353 METAR KBFI 050353Z 35003KT 10SM FEW065 18/10 A3005 RMK AO2 SLP176 T01830100=
202208050253 METAR KBFI 050253Z VRB03KT 10SM SCT048 OVC060 19/09 A3005 RMK AO2 SLP175 T01890094 56007=
202208050153 METAR KBFI 050153Z VRB04KT 10SM SCT055 BKN075 19/09 A3005 RMK AO2 SLP176 T01940094=
202208050053 METAR KBFI 050053Z VRB05KT 10SM SCT060 SCT085 19/09 A3006 RMK AO2 SLP179 T01940094=
202208042353 METAR KBFI 042353Z VRB04KT 10SM BKN060 BKN080 19/11 A3007 RMK AO2 SLP182 60000 T01940111 10200 20150 58003=
202208042253 METAR KBFI 042253Z VRB06KT 10SM BKN060 OVC080 19/11 A3008 RMK AO2 SLP185 T01890111=
202208042153 METAR KBFI 042153Z VRB04KT 10SM SCT030 BKN055 17/11 A3008 RMK AO2 SLP187 T01720111=
202208042053 METAR KBFI 042053Z VRB05KT 10SM FEW028 OVC050 17/12 A3008 RMK AO2 RAE1956 SLP185 P0000 60000 T01670117 51014=
202208041953 METAR KBFI 041953Z 05007KT 8SM -RA SCT025 BKN035 OVC042 16/13 A3007 RMK AO2 RAB1854 SLP183 P0000 T01560133=
202208041853 METAR KBFI 041853Z VRB04KT 5SM HZ BKN020 OVC034 16/13 A3006 RMK AO2 SLP178 T01560128=
202208041753 METAR KBFI 041753Z 21008KT 10SM BKN024 OVC034 17/11 A3004 RMK AO2 SLP171 T01720111 10178 20150 53016=
202208041653 METAR KBFI 041653Z 20005KT 10SM BKN024 OVC034 17/12 A3002 RMK AO2 SLP164 T01670117=
202208041553 METAR KBFI 041553Z 20007G16KT 10SM BKN028 OVC060 17/12 A3001 RMK AO2 SLP160 T01670117=
202208041453 METAR KBFI 041453Z VRB05KT 10SM FEW020 OVC060 16/12 A2999 RMK AO2 SLP156 T01610122 53017=
202208041353 METAR KBFI 041353Z 19006KT 10SM FEW019 SCT049 OVC065 16/12 A2997 RMK AO2 SLP150 T01560122=
202208041305 SPECI KBFI 041305Z 21009G15KT 10SM SCT019 OVC070 16/12 A2996 RMK AO2 T01560122=
202208041253 METAR KBFI 041253Z 20007G15KT 160V230 10SM BKN019 OVC070 16/12 A2995 RMK AO2 SLP143 T01560122=
202208041153 METAR KBFI 041153Z 18009KT 10SM SCT019 OVC070 16/12 A2994 RMK AO2 SLP139 T01560122 10161 20150 58003=
202208041053 METAR KBFI 041053Z 17006KT 9SM OVC021 16/12 A2994 RMK AO2 SLP139 T01560122=
202208040953 METAR KBFI 040953Z 19008G15KT 10SM OVC022 16/11 A2995 RMK AO2 SLP141 T01610111=
202208040853 METAR KBFI 040853Z 17012KT 10SM OVC023 16/11 A2995 RMK AO2 SLP141 T01610111 50004=
202208040753 METAR KBFI 040753Z 18007KT 10SM BKN024 BKN065 16/11 A2995 RMK AO2 SLP142 T01610111 402330122=
202208040653 METAR KBFI 040653Z 17011KT 10SM SCT027 BKN065 16/11 A2994 RMK AO2 SLP137 T01560106=
202208040553 METAR KBFI 040553Z 18006KT 10SM SCT027 16/11 A2994 RMK AO2 SLP137 T01560111 10228 20156 51013=
202208040453 METAR KBFI 040453Z 19009G22KT 150V210 10SM FEW027 16/12 A2993 RMK AO2 SLP135 T01610117=
202208040353 METAR KBFI 040353Z 22008KT 10SM CLR 17/12 A2991 RMK AO2 SLP128 T01720117=
202208040253 METAR KBFI 040253Z 23007KT 10SM CLR 19/12 A2990 RMK AO2 SLP124 T01890117 53002=
202208040153 METAR KBFI 040153Z 23007G16KT 10SM CLR 21/12 A2989 RMK AO2 SLP122 T02110117=
202208040053 METAR KBFI 040053Z VRB06KT 10SM CLR 23/12 A2989 RMK AO2 SLP121 T02280117=
202208032353 METAR KBFI 032353Z 19007KT 10SM CLR 23/13 A2989 RMK AO2 SLP122 T02280128 10233 20156 56013=
202208032253 METAR KBFI 032253Z 26008KT 10SM CLR 23/12 A2991 RMK AO2 SLP126 T02330122=
202208032153 METAR KBFI 032153Z 23007KT 10SM CLR 22/12 A2992 RMK AO2 SLP132 T02220117=
202208032053 METAR KBFI 032053Z VRB03KT 10SM CLR 21/12 A2993 RMK AO2 SLP136 T02110117 58017=
202208031953 METAR KBFI 031953Z 27006KT 10SM CLR 19/12 A2995 RMK AO2 SLP143 T01940117=
202208031853 METAR KBFI 031853Z 10SM FEW019 18/12 A2997 RMK AO2 SLP148 T01780122=
202208031753 METAR KBFI 031753Z 22007KT 10SM OVC017 16/12 A2998 RMK AO2 SLP153 T01560117 10156 20122 58003=
202208031653 METAR KBFI 031653Z 23006KT 10SM OVC013 15/12 A2999 RMK AO2 SLP155 T01500117=
202208031553 METAR KBFI 031553Z 23007KT 10SM OVC011 14/11 A2999 RMK AO2 SLP155 T01390111=
202208031544 SPECI KBFI 031544Z 18006KT 10SM OVC011 14/11 A2999 RMK AO2 T01390111=
202208031453 METAR KBFI 031453Z 22006KT 10SM OVC009 13/11 A2999 RMK AO2 SLP155 T01280111 53001=
202208031409 SPECI KBFI 031409Z VRB04KT 10SM OVC009 13/12 A2999 RMK AO2 T01280117=
202208031353 METAR KBFI 031353Z 18007KT 10SM BKN010 13/12 A2999 RMK AO2 SLP156 T01280117=
202208031253 METAR KBFI 031253Z 17007KT 10SM CLR 13/11 A2998 RMK AO2 SLP153 T01280111=
202208031153 METAR KBFI 031153Z 24004KT 10SM CLR 14/11 A2999 RMK AO2 SLP155 T01390111 10189 20139 55003=
202208031053 METAR KBFI 031053Z 27003KT 10SM CLR 15/12 A2999 RMK AO2 SLP154 T01500117=
202208030953 METAR KBFI 030953Z 21003KT 10SM CLR 16/12 A2999 RMK AO2 SLP156 T01560117=
202208030853 METAR KBFI 030853Z 18004KT 10SM CLR 16/12 A3000 RMK AO2 SLP158 T01560122 50002=
202208030753 METAR KBFI 030753Z 00000KT 10SM CLR 17/12 A3000 RMK AO2 SLP160 T01670122 402500150=
202208030653 METAR KBFI 030653Z 31004KT 10SM CLR 17/12 A3000 RMK AO2 SLP158 T01720122=
202208030553 METAR KBFI 030553Z 00000KT 10SM CLR 19/13 A2999 RMK AO2 SLP155 T01890133 10250 20189 53007=
202208030453 METAR KBFI 030453Z VRB03KT 10SM CLR 20/14 A2998 RMK AO2 SLP152 T02000139=
202208030353 METAR KBFI 030353Z VRB03KT 10SM CLR 22/13 A2997 RMK AO2 SLP148 T02170133=
202208030253 METAR KBFI 030253Z 30005KT 10SM CLR 23/12 A2997 RMK AO2 SLP148 T02330117 56014=
202208030153 METAR KBFI 030153Z 33003KT 10SM CLR 24/12 A2998 RMK AO2 SLP153 T02390117=
202208030053 METAR KBFI 030053Z 32006KT 10SM CLR 24/12 A3000 RMK AO2 SLP157 T02440117=
202208022353 METAR KBFI 022353Z VRB05KT 10SM CLR 24/11 A3001 RMK AO2 SLP162 T02440106 10244 20178 56014=
202208022253 METAR KBFI 022253Z AUTO VRB04KT 10SM CLR 24/09 A3002 RMK AO2 SLP166 T02390094=
202208022153 METAR KBFI 022153Z 22007KT 10SM CLR 24/11 A3004 RMK AO2 SLP171 T02390106=
202208022053 METAR KBFI 022053Z VRB06KT 10SM CLR 23/11 A3005 RMK AO2 SLP176 T02280111 58007=
202208021953 METAR KBFI 021953Z 24006KT 10SM SCT019 BKN028 21/12 A3007 RMK AO2 SLP181 T02110117=
202208021853 METAR KBFI 021853Z 21009KT 10SM SCT019 BKN028 20/12 A3007 RMK AO2 SLP183 T02000117=
202208021753 METAR KBFI 021753Z 22008KT 190V250 10SM BKN024 18/12 A3007 RMK AO2 SLP183 T01780117 10178 20150 50002=
202208021653 METAR KBFI 021653Z VRB06KT 10SM SCT009 OVC020 17/12 A3008 RMK AO2 SLP187 T01720122=
202208021553 METAR KBFI 021553Z 18006KT 10SM OVC020 16/13 A3008 RMK AO2 SLP184 T01560128=
202208021453 METAR KBFI 021453Z 19006KT 10SM SCT009 OVC017 15/13 A3007 RMK AO2 SLP181 T01500133 51009=
202208021353 METAR KBFI 021353Z VRB05KT 10SM BKN013 OVC019 15/13 A3006 RMK AO2 SLP179 T01500133=
202208021253 METAR KBFI 021253Z 18008KT 10SM OVC013 16/13 A3005 RMK AO2 SLP176 T01560133=
202208021153 METAR KBFI 021153Z 21006KT 10SM OVC013 16/13 A3004 RMK AO2 SLP172 T01560133 10178 20156 53013=
202208021053 METAR KBFI 021053Z 20008KT 10SM OVC013 16/13 A3002 RMK AO2 SLP166 T01610133=
202208020953 METAR KBFI 020953Z 21006KT 10SM OVC013 17/14 A3001 RMK AO2 SLP162 T01670139=
202208020853 METAR KBFI 020853Z 20006KT 10SM OVC013 17/14 A3000 RMK AO2 SLP159 T01670139 50014=
202208020753 METAR KBFI 020753Z 18007KT 10SM OVC013 17/14 A3001 RMK AO2 SLP160 T01670144 402720167=
202208020717 SPECI KBFI 020717Z 19007KT 150V210 10SM BKN014 17/14 A2998 RMK AO2 T01670144=
202208020653 METAR KBFI 020653Z 18006KT 10SM CLR 17/14 A2998 RMK AO2 SLP152 T01670144=
202208020553 METAR KBFI 020553Z 19006KT 10SM CLR 18/14 A2996 RMK AO2 SLP145 T01780144 10272 20178 51018=
202208020453 METAR KBFI 020453Z 22006KT 10SM CLR 20/14 A2995 RMK AO2 SLP142 T02000144=
202208020353 METAR KBFI 020353Z 18007KT 10SM CLR 22/15 A2992 RMK AO2 SLP131 T02170150=
202208020253 METAR KBFI 020253Z 19005KT 10SM CLR 24/16 A2991 RMK AO2 SLP127 T02440156 55004=
202208020153 METAR KBFI 020153Z 21006KT 10SM CLR 26/16 A2991 RMK AO2 SLP126 T02610161=
202208020053 METAR KBFI 020053Z VRB05KT 10SM CLR 27/16 A2991 RMK AO2 SLP130 T02670156=
202208012353 METAR KBFI 012353Z VRB05KT 10SM CLR 27/16 A2992 RMK AO2 RAE00 SLP131 P0000 60000 T02720161 10272 20200 58010=
202208012253 METAR KBFI 012253Z 27007KT 10SM -RA FEW043 SCT070 SCT085 26/17 A2993 RMK AO2 RAB48 SLP135 P0000 T02560172=
202208012153 METAR KBFI 012153Z VRB06KT 10SM CLR 26/16 A2994 RMK AO2 SLP139 T02610156=
202208012053 METAR KBFI 012053Z 19008KT 10SM CLR 24/16 A2995 RMK AO2 SLP141 T02440156 58002=
202208011953 METAR KBFI 011953Z 19005KT 10SM SCT130 BKN200 23/16 A2996 RMK AO2 SLP144 T02330156=
202208011853 METAR KBFI 011853Z 24008KT 10SM CLR 22/15 A2996 RMK AO2 SLP146 T02220150=
202208011753 METAR KBFI 011753Z 21006KT 10SM CLR 20/14 A2996 RMK AO2 SLP143 60000 T02000144 10211 20172 58002=
202208011653 METAR KBFI 011653Z AUTO 21007KT 10SM CLR 19/14 A2996 RMK AO2 SLP146 T01890139=
202208011553 METAR KBFI 011553Z AUTO 18006KT 10SM CLR 19/14 A2996 RMK AO2 SLP145 T01940144=
202208011453 METAR KBFI 011453Z 17004KT 10SM CLR 18/14 A2996 RMK AO2 SLP145 60000 T01830144 50014=
202208011353 METAR KBFI 011353Z 21004KT 10SM CLR 18/14 A2996 RMK AO2 SLP145 T01780144=
202208011253 METAR KBFI 011253Z 16007KT 10SM CLR 19/14 A2994 RMK AO2 RAB23E32 SLP138 P0000 T01940144=
202208011153 METAR KBFI 011153Z 00000KT 10SM CLR 19/15 A2992 RMK AO2 SLP131 T01940150 10267 20194 53011=
202208011053 METAR KBFI 011053Z 00000KT 10SM CLR 21/14 A2990 RMK AO2 SLP125 T02110144=
202208010953 METAR KBFI 010953Z 00000KT 10SM CLR 21/14 A2989 RMK AO2 SLP120 T02060144=
202208010853 METAR KBFI 010853Z 32003KT 10SM CLR 22/15 A2989 RMK AO2 SLP120 T02220150 53005=
202208010753 METAR KBFI 010753Z 33003KT 10SM CLR 23/15 A2987 RMK AO2 SLP115 T02280150 403390183=
202208010653 METAR KBFI 010653Z 32003KT 10SM CLR 24/14 A2986 RMK AO2 SLP113 T02390144=
202208010553 METAR KBFI 010553Z 00000KT 10SM CLR 27/15 A2987 RMK AO2 SLP115 T02670150 10339 20261 51012=
202208010453 METAR KBFI 010453Z 00000KT 10SM CLR 27/12 A2986 RMK AO2 SLP112 T02670122=
202208010353 METAR KBFI 010353Z 32005KT 10SM CLR 28/13 A2985 RMK AO2 SLP106 T02780128=
202208010253 METAR KBFI 010253Z 31005KT 10SM CLR 29/14 A2984 RMK AO2 SLP103 T02940139 55005=
202208010153 METAR KBFI 010153Z 32007KT 290V350 10SM CLR 33/13 A2983 RMK AO2 SLP101 T03280133=
202208010053 METAR KBFI 010053Z 31005KT 10SM CLR 33/14 A2984 RMK AO2 SLP104 T03330139=

# No short TAF reports from KBFI in databse.

###################################
#  large TAF from KBFI
###################################
202208312340 TAF KBFI 312340Z 0100/0124 22006KT P6SM FEW160 FM011200 20003KT
                       P6SM SCT010
                      TEMPO 0112/0116 BKN010 FM011800 20004KT P6SM
                       SKC=
202208311737 TAF KBFI 311737Z 3118/0118 16005KT P6SM SCT180 FM311900 22006KT
                       P6SM SCT150 FM011200 20003KT P6SM SCT010=
202208311121 TAF KBFI 311121Z 3112/0112 00000KT P6SM SCT150 FM311900 22006KT
                       P6SM SCT150=
202208310528 TAF KBFI 310528Z 3106/0106 00000KT P6SM SKC FM311900 22006KT P6SM
                       SCT200=
202208310255 KBFI 310255Z 3103/3124 31007KT P6SM SKC FM310600 VRB03KT P6SM SKC
                       FM311900 24006KT P6SM SCT250=
202208302320 TAF KBFI 302320Z 3100/3124 33008KT P6SM SKC FM310200 31007KT P6SM
                       SKC FM310600 03004KT P6SM SKC FM311100 24003KT
                       P6SM FEW250=
202208301723 TAF KBFI 301723Z 3018/3118 33008KT P6SM FEW250 FM310200 31007KT
                       P6SM SKC FM310600 03006KT P6SM SKC FM311100
                       35003KT P6SM FEW250=
202208301133 TAF KBFI 301133Z 3012/3112 00000KT P6SM SCT250 FM301800 31009KT
                       P6SM FEW250 FM310200 31004KT P6SM FEW250=
202208300529 TAF KBFI 300529Z 3006/3106 00000KT P6SM FEW250 FM301800 31009KT
                       P6SM FEW250 FM310200 31004KT P6SM FEW250=
202208300254 KBFI 300254Z 3003/3024 31006KT P6SM SCT250 FM300600 30003KT P6SM
                       SCT250 FM301300 02003KT P6SM FEW250=
202208292320 TAF KBFI 292320Z 3000/3024 32009KT P6SM SKC FM300400 30003KT P6SM
                       SKC FM301300 02003KT P6SM FEW250=
202208291722 TAF KBFI 291722Z 2918/3018 00000KT P6SM SKC FM292000 32006KT P6SM
                       SKC FM300400 30002KT P6SM SKC=
202208291123 TAF KBFI 291123Z 2912/3012 00000KT P6SM SKC FM291900 32006KT P6SM
                       SKC FM300400 00000KT P6SM SKC=
202208290520 TAF KBFI 290520Z 2906/3006 00000KT P6SM FEW250 FM291900 32006KT
                       P6SM FEW250 FM300300 00000KT P6SM SKC=
202208282331 TAF KBFI 282331Z 2900/2924 33005KT P6SM SKC FM290700 VRB04KT P6SM
                       FEW250 FM291800 32004KT P6SM SKC=
202208281736 TAF KBFI 281736Z 2818/2918 VRB04KT P6SM FEW035 BKN070 FM281900
                       20005KT P6SM SCT250 FM290400 33003KT P6SM
                       FEW250=
202208281123 TAF KBFI 281123Z 2812/2912 00000KT P6SM FEW040 SCT250 FM281300
                       VRB03KT P6SM SCT020 SCT040
                      TEMPO 2813/2817 BKN020 BKN250 FM281900 30005KT
                       P6SM SCT250 FM290400 00000KT P6SM FEW250=
202208280524 TAF KBFI 280524Z 2806/2906 21004KT P6SM FEW050 BKN080 FM281300
                       20003KT P6SM BKN020 FM281900 30003KT P6SM
                       SCT250=
202208272332 TAF KBFI 272332Z 2800/2824 28006KT P6SM SCT040 BKN050 OVC070 FM280100
                       22006KT P6SM SCT050 BKN070 FM280500 24003KT
                       P6SM BKN050 FM281300 20003KT P6SM BKN025
                       FM281900 30003KT P6SM SCT250=
202208271728 TAF KBFI 271728Z 2718/2818 17009KT P6SM OVC025 FM271900 21008KT
                       P6SM BKN035 FM280100 22006KT P6SM SCT050
                       BKN070 FM280500 24003KT P6SM BKN050 FM281300
                       14003KT P6SM BKN015=
202208271453 KBFI 271453Z 2715/2812 19009KT P6SM OVC019
                      TEMPO 2715/2717 -DZ FEW009 FM271700 18007KT
                       P6SM OVC030 FM271900 18007KT P6SM BKN050
                       FM280100 33004KT P6SM SCT050 BKN100 FM280500
                       00000KT P6SM BKN050=
202208271125 TAF KBFI 271125Z 2712/2812 18004KT P6SM SCT009 OVC017
                      TEMPO 2712/2715 5SM -DZ BR BKN009 OVC017
                       FM271700 18007KT P6SM OVC030 FM271900 18007KT
                       P6SM BKN050 FM280100 33004KT P6SM SCT050
                       BKN100 FM280500 00000KT P6SM BKN050=
202208270526 TAF KBFI 270526Z 2706/2806 22005KT P6SM OVC028 FM271200 17006KT
                       P6SM OVC020 FM271700 18007KT P6SM OVC030
                       FM271900 18007KT P6SM BKN050 FM280100 33004KT
                       P6SM BKN050=
202208262320 TAF KBFI 262320Z 2700/2724 21008KT P6SM OVC030 FM270300 23007KT
                       P6SM BKN050 FM270500 20005KT P6SM OVC025
                       FM270700 18007KT P6SM OVC025 FM271800 20007KT
                       P6SM BKN030=
202208261720 TAF KBFI 261720Z 2618/2718 21008KT P6SM OVC020 FM262000 22010KT
                       P6SM OVC040 FM262200 23007KT P6SM BKN050
                       FM270500 20005KT P6SM OVC025 FM270700 18008KT
                       P6SM OVC015=
202208261139 TAF KBFI 261139Z 2612/2712 18004KT P6SM OVC011 FM262000 22005KT
                       P6SM OVC035 FM262200 23006KT P6SM BKN040
                       FM270900 17007KT P6SM OVC025=
202208260539 TAF KBFI 260539Z 2606/2706 VRB03KT P6SM SKC FM260700 18003KT P6SM
                       SCT020 FM260900 18003KT P6SM OVC015 FM261300
                       20004KT 4SM BR OVC009 FM261800 22005KT P6SM
                       OVC035 FM262200 23006KT P6SM BKN040=
202208260227 KBFI 260227Z 2602/2624 22004KT P6SM SKC FM260700 23004KT P6SM SCT020
                       FM260900 VRB04KT P6SM OVC015
                      TEMPO 2612/2616 OVC009 FM261800 22005KT P6SM
                       OVC035 FM262200 23006KT P6SM BKN040=
202208252320 TAF KBFI 252320Z 2600/2624 VRB04KT P6SM SKC FM260300 25005KT P6SM
                       SKC FM260500 23004KT P6SM SKC FM261300 VRB04KT
                       P6SM BKN020
                      TEMPO 2613/2617 OVC015 FM261800 22005KT P6SM
                       OVC035 FM262200 23006KT P6SM BKN040=
202208251733 TAF KBFI 251733Z 2518/2618 28005KT P6SM SKC FM260300 25005KT P6SM
                       SKC FM260500 23004KT P6SM SKC FM261300 VRB04KT
                       P6SM BKN020
                      TEMPO 2613/2617 OVC015=
202208251136 TAF KBFI 251136Z 2512/2612 VRB03KT P6SM SKC FM251800 28006KT P6SM
                       SKC FM260500 23004KT P6SM SKC=
202208250528 TAF KBFI 250528Z 2506/2606 VRB03KT P6SM SKC FM251800 25006KT P6SM
                       SKC=
202208242320 TAF KBFI 242320Z 2500/2524 32008KT P6SM SKC FM250300 VRB03KT P6SM
                       SKC FM251800 25006KT P6SM SKC=
202208241720 TAF KBFI 241720Z 2418/2518 32006KT P6SM SKC FM250300 VRB03KT P6SM
                       SKC=
202208241123 TAF KBFI 241123Z 2412/2512 00000KT P6SM SKC
                      TEMPO 2414/2416 4SM BR BKN005 FM241800 32004KT
                       P6SM SKC FM250300 36004KT P6SM SKC=
202208240540 TAF KBFI 240540Z 2406/2506 00000KT P6SM SKC FM241500 32002KT P6SM
                       FEW007 FEW050 FM241800 32004KT P6SM SKC=
202208232338 TAF KBFI 232338Z 2400/2424 31008KT P6SM FEW130 SCT250
                      TEMPO 2400/2403 31008G18KT FEW045 FM240500
                       00000KT P6SM SKC FM241500 32002KT P6SM FEW007
                       FEW050 FM241800 32004KT P6SM SKC=
202208231735 TAF KBFI 231735Z 2318/2418 VRB03KT P6SM SKC FM232200 32006KT P6SM
                       SKC FM240500 00000KT P6SM SKC FM241500 32002KT
                       P6SM FEW007 FEW050=
202208231122 TAF KBFI 231122Z 2312/2412 00000KT P6SM SKC FM232200 32006KT P6SM
                       SKC FM240500 00000KT P6SM SKC=
202208230539 TAF KBFI 230539Z 2306/2406 30005KT P6SM SKC FM230700 VRB03KT P6SM
                       SCT200 FM231100 VRB04KT P6SM FEW250=
202208222320 TAF KBFI 222320Z 2300/2324 34005KT P6SM SKC FM230200 30005KT P6SM
                       SKC FM230700 VRB03KT P6SM SCT200 FM231100
                       VRB04KT P6SM FEW250=
202208221722 TAF KBFI 221722Z 2218/2318 27004KT P6SM SCT200 FM222200 29007KT
                       P6SM SKC FM230700 VRB03KT P6SM SCT200=
202208221122 TAF KBFI 221122Z 2212/2312 29004KT P6SM SCT150 BKN200 FM221800
                       27004KT P6SM SCT200 FM222200 28006KT P6SM
                       SCT200 FM230700 VRB03KT P6SM SCT200=
202208220533 TAF KBFI 220533Z 2206/2306 30003KT P6SM BKN250 FM221300 27002KT
                       P6SM SCT015 BKN200 FM221800 25004KT P6SM
                       SCT200 FM230500 VRB03KT P6SM SCT200=
202208212333 TAF KBFI 212333Z 2200/2224 28005KT P6SM SCT200 FM220400 30003KT
                       P6SM FEW200 FM221300 27002KT P6SM SCT020
                       FM221800 25003KT P6SM SCT250=
202208211728 TAF KBFI 211728Z 2118/2218 20004KT P6SM BKN018 OVC030 FM211900
                       21004KT P6SM SCT025 OVC035 FM212100 28005KT
                       P6SM SCT200 FM220400 30003KT P6SM FEW200
                       FM221300 27002KT P6SM BKN020=
202208211138 KBFI 211138Z 2112/2212 19004KT P6SM SCT025 BKN045
                      TEMPO 2112/2116 BKN020 OVC045 FM211800 24004KT
                       P6SM SCT025 BKN200 FM212100 29005KT P6SM
                       SCT200 FM220400 30003KT P6SM FEW200=
202208211120 TAF KBFI 211120Z 2112/2212 19004KT P6SM SCT025 BKN045
                      TEMPO 2113/2117 BKN020 OVC045 FM211800 24004KT
                       P6SM SCT025 BKN200 FM212100 29005KT P6SM
                       SCT200 FM220400 30003KT P6SM FEW200=
202208210658 KBFI 210658Z 2107/2206 21003KT P6SM BKN045 FM211200 19004KT P6SM
                       BKN025 FM211800 24004KT P6SM SCT025 BKN200
                       FM212100 29005KT P6SM SCT200 FM220400 30003KT
                       P6SM FEW200=
202208210533 TAF KBFI 210533Z 2106/2206 VRB03KT P6SM FEW040 SCT200 FM211200
                       19004KT P6SM BKN025 FM211800 24004KT P6SM
                       SCT025 BKN200 FM212100 29005KT P6SM SCT200
                       FM220400 30003KT P6SM FEW200=
202208202323 TAF KBFI 202323Z 2100/2124 23005KT P6SM FEW035 BKN050 FM210200
                       VRB03KT P6SM SCT200 FM211200 23005KT P6SM
                       BKN030 FM211400 32002KT P6SM OVC015 FM211800
                       29003KT P6SM BKN030=
202208201724 TAF KBFI 201724Z 2018/2118 VRB05KT P6SM SCT025 OVC050 FM202100
                       24006KT P6SM SCT050 SCT200 FM210400 VRB03KT
                       P6SM SCT200 FM211200 23005KT P6SM BKN050
                       FM211400 32002KT P6SM OVC015=
202208201335 KBFI 201335Z 2014/2112 20004KT P6SM SCT015 BKN040
                      TEMPO 2014/2017 BKN015 OVC040 FM201800 23005KT
                       P6SM SCT017 BKN040 FM202100 24006KT P6SM
                       SCT050 SCT200 FM210400 VRB03KT P6SM SCT200=
202208201121 TAF KBFI 201121Z 2012/2112 21005KT P6SM SCT015 BKN040 FM201300
                       20004KT P6SM BKN015 BKN040 FM201800 23005KT
                       P6SM SCT017 BKN040 FM202100 24006KT P6SM
                       SCT050 SCT200 FM210400 VRB03KT P6SM SCT200=
202208200522 TAF KBFI 200522Z 2006/2106 22005KT P6SM SCT040 SCT200 FM200900
                       18004KT P6SM FEW017 BKN040 FM201200 18006KT
                       P6SM OVC018 FM201800 23005KT P6SM BKN040
                       FM202100 23006KT P6SM SCT050 SCT200=
202208192326 TAF KBFI 192326Z 2000/2024 20008KT P6SM VCSH SCT060 BKN150 FM200100
                       23004KT P6SM SCT060 BKN120 FM201200 18006KT
                       P6SM OVC018 FM202000 23005KT P6SM BKN050=
202208191721 TAF KBFI 191721Z 1918/2018 20008KT P6SM VCSH SCT060 BKN100
                      TEMPO 1918/1922 P6SM -RA BKN015 OVC060 FM200100
                       23004KT P6SM SCT060 BKN120 FM200900 18006KT
                       P6SM OVC018=
202208191120 TAF KBFI 191120Z 1912/2012 18007KT P6SM SCT015 BKN150
                      TEMPO 1914/1916 P6SM BKN015 OVC120 FM191800
                       20008KT P6SM BKN120 FM200900 16006KT P6SM
                       OVC018=
202208190520 TAF KBFI 190520Z 1906/2006 VRB04KT P6SM BKN150 FM191000 16006KT
                       P6SM SCT015 BKN090
                      TEMPO 1914/1917 5SM BR BKN015 OVC090 FM191800
                       20007KT P6SM VCSH SCT020 BKN050 BKN090=
202208182327 TAF KBFI 182327Z 1900/1924 12004KT P6SM BKN150 BKN250 FM190200
                       VRB04KT P6SM BKN250 FM191200 21006KT P6SM
                       BKN020 OVC100 FM192100 25005KT P6SM BKN100=
202208181740 TAF KBFI 181740Z 1818/1918 33005KT P6SM BKN200 FM190500 21005KT
                       P6SM BKN090 FM191100 19005KT P6SM SCT018
                       SCT050 BKN090 FM191400 19006KT P6SM VCSH
                       BKN090=
202208181120 TAF KBFI 181120Z 1812/1912 VRB04KT P6SM BKN150 FM181800 33006KT
                       P6SM BKN150 FM190200 VRB04KT P6SM BKN120
                       FM190500 21005KT P6SM BKN090 FM191100 17007KT
                       P6SM SCT018 SCT050 BKN090=
202208180520 TAF KBFI 180520Z 1806/1906 33005KT P6SM BKN200 FM181800 34008KT
                       P6SM BKN200 FM190200 VRB04KT P6SM BKN150
                       FM190500 18007KT P6SM BKN120=
202208172338 TAF KBFI 172338Z 1800/1824 33008KT P6SM SKC FM180700 VRB03KT P6SM
                       BKN150 FM181400 VRB03KT P6SM SCT250 FM181900
                       31006KT P6SM SCT250=
202208171735 TAF KBFI 171735Z 1718/1818 33008KT P6SM SKC FM180400 02004KT P6SM
                       BKN150 FM181400 VRB03KT P6SM SCT250=
202208171120 TAF KBFI 171120Z 1712/1812 00000KT P6SM SKC FM172000 33008KT P6SM
                       SCT150 FM180200 02004KT P6SM BKN150=
202208170521 TAF KBFI 170521Z 1706/1806 00000KT P6SM SKC FM171900 30008KT P6SM
                       SKC=
202208162336 TAF KBFI 162336Z 1700/1724 30006KT P6SM SKC FM170600 00000KT P6SM
                       SKC FM171900 30008KT P6SM SKC=
202208161720 TAF KBFI 161720Z 1618/1718 00000KT P6SM BKN013 FM162100 32007KT
                       P6SM FEW250 FM170600 00000KT P6SM SKC=
202208161504 KBFI 161504Z 1615/1712 VRB03KT P6SM SCT011 FM161700 30004KT P6SM
                       SCT250 FM162100 32007KT P6SM FEW250 FM170600
                       00000KT P6SM SKC=
202208161121 TAF KBFI 161121Z 1612/1712 00000KT P6SM SCT008 BKN250 FM161400
                       00000KT P6SM BKN008 BKN250 FM161700 30004KT
                       P6SM SCT250 FM162100 32007KT P6SM FEW250
                       FM170600 00000KT P6SM SKC=
202208160521 TAF KBFI 160521Z 1606/1706 VRB03KT P6SM BKN250 FM161400 00000KT
                       P6SM BKN015 BKN250 FM161700 30004KT P6SM
                       SCT250 FM162100 32007KT P6SM FEW250=
202208152320 TAF KBFI 152320Z 1600/1624 30004KT P6SM SCT250 FM160400 33005KT
                       P6SM BKN250 FM160600 22003KT P6SM BKN250
                       FM161400 VRB03KT P6SM SCT015 BKN150=
202208151729 TAF KBFI 151729Z 1518/1618 29004KT P6SM SCT250 FM160400 33005KT
                       P6SM BKN250 FM161500 18002KT P6SM OVC015=
202208151121 TAF KBFI 151121Z 1512/1612 VRB03KT P6SM SCT250 FM151900 29005KT
                       P6SM SCT250 FM160500 00000KT P6SM BKN250=
202208150520 TAF KBFI 150520Z 1506/1606 31004KT P6SM SCT250 FM151900 26005KT
                       P6SM SCT250=
202208142320 TAF KBFI 142320Z 1500/1524 29005KT P6SM FEW090 FM150400 VRB03KT
                       P6SM SCT250 FM151900 26005KT P6SM FEW250=
202208141720 TAF KBFI 141720Z 1418/1518 29006KT P6SM FEW050 FM150400 VRB03KT
                       P6SM FEW250=
202208141128 TAF KBFI 141128Z 1412/1512 00000KT P6SM FEW250 FM141400 00000KT
                       P6SM SCT015 BKN045
                      TEMPO 1414/1417 BKN015 FM141900 29006KT P6SM
                       SCT050 FM150000 VRB03KT P6SM FEW250=
202208140520 TAF KBFI 140520Z 1406/1506 VRB03KT P6SM FEW250 FM141400 VRB03KT
                       P6SM SCT015 BKN045
                      TEMPO 1414/1417 BKN015 FM141900 29006KT P6SM
                       SCT050=
202208140303 KBFI 140303Z 1403/1424 26006KT P6SM SKC FM140400 VRB03KT P6SM SCT250
                       FM141400 VRB03KT P6SM SCT015 BKN045
                      TEMPO 1414/1417 BKN015 FM141900 29005KT P6SM
                       SCT050=
202208132320 TAF KBFI 132320Z 1400/1424 23005KT P6SM FEW030 SCT050 FM140400
                       VRB03KT P6SM SCT250 FM141400 VRB03KT P6SM
                       SCT015 BKN045
                      TEMPO 1414/1417 BKN015 FM141900 29005KT P6SM
                       SCT050=
202208131723 TAF KBFI 131723Z 1318/1418 21007KT P6SM FEW030 BKN060 FM140000
                       29006KT P6SM SCT250 FM140400 VRB03KT P6SM
                       SCT250 FM141400 VRB03KT P6SM BKN020 BKN045=
202208131330 KBFI 131330Z 1314/1412 17005KT P6SM BKN050 OVC060 FM131800 23005KT
                       P6SM SCT035 BKN050 FM140000 29006KT P6SM
                       SCT250 FM140400 32003KT P6SM SCT250=
202208131135 TAF KBFI 131135Z 1312/1412 15007KT P6SM OVC070 FM131300 17005KT
                       P6SM BKN030 OVC050 FM131800 23005KT P6SM
                       SCT035 BKN050 FM140000 29006KT P6SM SCT250
                       FM140400 32003KT P6SM SCT250=
202208130535 TAF KBFI 130535Z 1306/1406 20006KT P6SM OVC040 FM131200 16004KT
                       P6SM BKN030 OVC050 FM131800 23005KT P6SM
                       SCT035 BKN050 FM140000 29006KT P6SM SCT250=
202208130301 KBFI 130301Z 1303/1324 22007G16KT P6SM BKN045 FM130600 18004KT
                       P6SM BKN045 FM131200 16004KT P6SM BKN030
                       OVC050 FM131800 23005KT P6SM SCT035 BKN050=
202208122321 TAF KBFI 122321Z 1300/1324 20007KT P6SM FEW050 FM130700 18004KT
                       P6SM BKN050 FM131200 16004KT P6SM BKN030
                       OVC050 FM131800 23005KT P6SM SCT035 BKN050=
202208121727 TAF KBFI 121727Z 1218/1318 21006KT P6SM FEW050 SCT120 FM130700
                       18004KT P6SM BKN050 FM131200 16004KT P6SM
                       BKN035 OVC050=
202208121120 TAF KBFI 121120Z 1212/1312 VRB03KT P6SM FEW050 FM121300 20003KT
                       P6SM SCT150 FM121900 23006KT P6SM FEW050
                       FM130600 18004KT P6SM SCT050 FM130900 17005KT
                       P6SM BKN050=
202208120520 TAF KBFI 120520Z 1206/1306 VRB03KT P6SM FEW050 FM121300 21003KT
                       P6SM SCT150 FM121900 23006KT P6SM FEW050=
202208112320 TAF KBFI 112320Z 1200/1224 33005KT P6SM FEW050 FM120200 VRB03KT
                       P6SM FEW050 FM121300 21003KT P6SM SCT150
                       FM121900 23006KT P6SM FEW050=
202208111723 TAF KBFI 111723Z 1118/1218 31006KT P6SM FEW050 FM120200 VRB03KT
                       P6SM FEW050 FM121300 21003KT P6SM SCT100=
202208111120 TAF KBFI 111120Z 1112/1212 VRB03KT P6SM OVC050
                      TEMPO 1112/1116 OVC010 FM111800 33004KT P6SM
                       SCT250 FM120300 VRB03KT P6SM SCT250=
202208110520 TAF KBFI 110520Z 1106/1206 VRB03KT P6SM OVC050 FM111100 VRB03KT
                       P6SM SCT250
                      TEMPO 1112/1116 OVC010 FM111800 33004KT P6SM
                       SCT250=
202208102324 TAF KBFI 102324Z 1100/1124 20007KT P6SM VCSH BKN020 OVC030 FM110200
                       VRB03KT P6SM OVC050 FM110500 28004KT P6SM
                       BKN050 FM111100 VRB03KT P6SM SCT250=
202208101727 TAF KBFI 101727Z 1018/1118 20005KT P6SM VCTS BKN015 OVC030CB FM101900
                       20007KT P6SM VCSH SCT015 OVC030 FM110200
                       VRB03KT P6SM BKN050 FM110600 VRB03KT P6SM
                       SCT250=
202208101238 KBFI 101238Z 1013/1112 20005KT P6SM OVC010 FM102200 20007KT P6SM
                       OVC050 FM110200 VRB03KT P6SM BKN050 FM110600
                       VRB03KT P6SM SCT250=
202208101120 TAF KBFI 101120Z 1012/1112 VRB03KT P6SM SCT250 FM101400 20005KT
                       P6SM OVC025 FM102200 20007KT P6SM OVC050
                       FM110200 VRB03KT P6SM BKN050 FM110600 VRB03KT
                       P6SM SCT250=
202208100524 TAF KBFI 100524Z 1006/1106 VRB03KT P6SM BKN250 FM101100 20005KT
                       P6SM OVC025 FM101400 19005KT P6SM OVC015
                       FM102200 20007KT P6SM OVC050=
202208092326 TAF KBFI 092326Z 1000/1024 VRB03KT P6SM SCT150 BKN250 FM100500
                       VRB03KT P6SM BKN250 FM101100 20005KT P6SM
                       OVC025 FM101600 19005KT P6SM OVC015 FM102200
                       21007KT P6SM OVC050=
202208091731 TAF KBFI 091731Z 0918/1018 27006KT P6SM VCSH SCT010 BKN150 FM092100
                       30005KT P6SM OVC250 FM100700 VRB03KT P6SM
                       BKN250=
202208091459 KBFI 091459Z 0915/1012 VRB04KT P6SM BKN008
                      TEMPO 0915/0917 -RA OVC006 FM091700 27006KT
                       P6SM SCT010 OVC250 FM092100 30005KT P6SM
                       OVC250 FM100300 VRB03KT P6SM OVC250=
202208091120 TAF KBFI 091120Z 0912/1012 18006KT P6SM BKN010 FM091300 VRB04KT
                       P6SM BKN010 FM091700 27006KT P6SM SCT010
                       OVC250 FM092100 30005KT P6SM OVC250 FM100300
                       VRB03KT P6SM OVC250=
202208090523 TAF KBFI 090523Z 0906/1006 VRB03KT P6SM SCT250 FM091000 VRB03KT
                       P6SM BKN250 FM091300 VRB03KT P6SM BKN150
                       FM091700 31006KT P6SM OVC250 FM100000 27004KT
                       P6SM OVC250=
202208082320 TAF KBFI 082320Z 0900/0924 30007KT P6SM FEW150 SCT250 FM090400
                       29003KT P6SM SCT250 FM091000 27003KT P6SM
                       BKN250 FM091300 22003KT P6SM BKN150 FM091700
                       24003KT P6SM OVC250=
202208082059 KBFI 082059Z 0821/0918 30007KT P6SM SKC FM091000 27003KT P6SM SKC
                       FM091300 22003KT P6SM BKN150 FM091700 VRB03KT
                       P6SM OVC250=
202208081724 TAF KBFI 081724Z 0818/0918 33004KT P6SM SKC FM082100 30008KT P6SM
                       SKC FM091000 27003KT P6SM SKC FM091300 22003KT
                       P6SM BKN150=
202208081135 TAF KBFI 081135Z 0812/0912 VRB02KT P6SM SKC FM081800 33006KT P6SM
                       SKC FM091000 VRB02KT P6SM SKC=
202208080526 TAF KBFI 080526Z 0806/0906 31003KT P6SM SKC FM080700 VRB02KT P6SM
                       SKC FM081800 33006KT P6SM SKC=
202208072320 TAF KBFI 072320Z 0800/0824 31012KT P6SM SKC FM080700 VRB02KT P6SM
                       SKC FM081700 29004KT P6SM SKC=
202208072057 KBFI 072057Z 0721/0818 32007KT P6SM SKC FM080700 VRB02KT P6SM SKC
                       FM081700 29004KT P6SM SKC=
202208071720 TAF KBFI 071720Z 0718/0818 VRB04KT P6SM SKC FM072000 31008KT P6SM
                       SKC FM080700 VRB02KT P6SM SKC=
202208071456 KBFI 071456Z 0715/0812 00000KT P6SM SKC FM071800 32010KT P6SM SKC
                       FM080700 VRB02KT P6SM SKC=
202208071120 TAF KBFI 071120Z 0712/0812 VRB01KT P6SM SKC FM071800 32007KT P6SM
                       SKC FM080700 VRB02KT P6SM SKC=
202208070535 TAF KBFI 070535Z 0706/0806 35005KT P6SM SKC FM071800 32007KT P6SM
                       SKC=
202208062320 TAF KBFI 062320Z 0700/0724 30009G17KT P6SM SKC FM070400 32005KT
                       P6SM SKC FM070800 VRB03KT P6SM SKC FM071800
                       32005KT P6SM SKC=
202208062030 KBFI 062030Z 0621/0718 31007KT P6SM SKC FM062200 30007KT P6SM SKC
                       FM070800 25003KT P6SM SKC=
202208061720 TAF KBFI 061720Z 0618/0718 31005KT P6SM SKC FM062200 31007KT P6SM
                       SKC FM070800 25003KT P6SM SKC=
202208061452 KBFI 061452Z 0615/0712 VRB02KT P6SM SKC FM061700 33005KT P6SM SKC
                       FM062200 31007KT P6SM SKC FM070800 25001KT
                       P6SM SKC=
202208061121 TAF KBFI 061121Z 0612/0712 VRB02KT P6SM SKC FM061700 33005KT P6SM
                       SKC FM070800 25001KT P6SM SKC=
202208060536 TAF KBFI 060536Z 0606/0706 VRB03KT P6SM SKC FM062000 31008KT P6SM
                       SKC=
202208060252 KBFI 060252Z 0603/0624 32007KT P6SM SKC FM060600 VRB03KT P6SM SKC
                       FM062000 31008KT P6SM SKC=
202208052322 TAF KBFI 052322Z 0600/0624 31010G18KT P6SM SKC FM060600 VRB03KT
                       P6SM SKC FM062000 31006KT P6SM SKC=
202208051723 TAF KBFI 051723Z 0518/0618 VRB03KT P6SM SKC FM052000 34007KT P6SM
                       SKC FM060600 VRB03KT P6SM SKC=
202208051132 TAF KBFI 051132Z 0512/0612 VRB03KT P6SM SKC FM052000 34007KT P6SM
                       SKC FM060600 VRB03KT P6SM SKC=
202208050527 TAF KBFI 050527Z 0506/0606 VRB03KT P6SM SKC FM052000 34007KT P6SM
                       SKC=
202208050254 KBFI 050254Z 0503/0524 VRB04KT P6SM SCT050 FM050500 VRB03KT P6SM
                       SKC FM052000 34007KT P6SM SKC=
202208042325 TAF KBFI 042325Z 0500/0524 31006KT P6SM SCT050 FM050500 34006KT
                       P6SM SKC FM051200 02004KT P6SM SKC=
202208041735 TAF KBFI 041735Z 0418/0518 21005KT P6SM BKN025 OVC040 FM042300
                       31006KT P6SM SCT050 FM050500 34006KT P6SM
                       SKC=
202208041132 TAF KBFI 041132Z 0412/0512 19010KT P6SM BKN022 OVC035 FM041700
                       21008KT P6SM SCT025 BKN040 OVC060 FM042300
                       31006KT P6SM SCT050 FM050500 34006KT P6SM
                       SKC=
202208040539 TAF KBFI 040539Z 0406/0506 19010KT P6SM OVC025 FM041900 21008KT
                       P6SM SCT025 BKN040 OVC060 FM042300 31006KT
                       P6SM SCT050 FM050500 34006KT P6SM SKC=
202208032327 TAF KBFI 032327Z 0400/0424 23008KT P6SM FEW250 FM040600 18007KT
                       P6SM OVC030 FM040900 19009KT P6SM VCSH OVC025
                       FM041300 17006KT P6SM OVC015 FM041800 21005KT
                       P6SM OVC040=
202208032056 KBFI 032056Z 0321/0418 23004KT P6SM FEW250 FM040000 23007KT P6SM
                       FEW120 FM040600 18007KT P6SM OVC035 FM040900
                       19009KT P6SM VCSH OVC025=
202208031732 TAF KBFI 031732Z 0318/0418 22006KT P6SM SCT020 FM031900 23004KT
                       P6SM FEW030 FM040000 23007KT P6SM FEW120
                       FM040600 18007KT P6SM OVC060 FM040900 19006KT
                       P6SM VCSH OVC040=
202208031706 KBFI 031706Z 0317/0412 22005KT P6SM OVC010 FM031800 22006KT P6SM
                       SCT025 FM031900 23004KT P6SM FEW030 FM040000
                       23007KT P6SM FEW120 FM040600 18007KT P6SM
                       OVC060 FM040900 19006KT P6SM VCSH OVC040=
202208031504 KBFI 031504Z 0315/0412 22005KT P6SM FEW008
                      TEMPO 0315/0317 OVC008 FM031800 22006KT P6SM
                       SCT025 FM031900 23004KT P6SM FEW030 FM040000
                       23007KT P6SM FEW120 FM040600 18007KT P6SM
                       OVC060 FM040900 19006KT P6SM VCSH OVC040=
202208031316 KBFI 031316Z 0313/0412 VRB03KT P6SM FEW008
                      TEMPO 0313/0316 OVC008 FM031800 22006KT P6SM
                       SCT025 FM031900 23004KT P6SM FEW030 FM040000
                       23007KT P6SM FEW120 FM040600 18007KT P6SM
                       OVC060 FM040900 19006KT P6SM VCSH OVC040=
202208031150 TAF KBFI 031150Z 0312/0412 VRB03KT P6SM BKN018
                      TEMPO 0312/0315 OVC010 FM031800 22006KT P6SM
                       BKN030 FM031900 23004KT P6SM FEW030 FM040000
                       23007KT P6SM FEW120 FM040600 18007KT P6SM
                       OVC060 FM040900 19006KT P6SM VCSH OVC040=
202208031018 KBFI 031018Z 0310/0406 VRB03KT P6SM SKC FM031200 20005KT P6SM BKN018
                       TEMPO 0312/0315 OVC010 FM031800 22006KT
                       P6SM BKN030 FM031900 23004KT P6SM FEW030
                       FM040000 23007KT P6SM FEW120=
202208030554 TAF KBFI 030554Z 0306/0406 VRB03KT P6SM SKC FM031200 20005KT P6SM
                       BKN020
                      TEMPO 0312/0315 OVC015 FM031800 22006KT P6SM
                       BKN030 FM031900 23004KT P6SM FEW030 FM040000
                       23007KT P6SM FEW120=
202208030251 KBFI 030251Z 0303/0324 32005KT P6SM SKC FM031200 VRB03KT P6SM BKN020
                       FM031800 22006KT P6SM SKC=
202208022321 TAF KBFI 022321Z 0300/0324 23006KT P6SM SKC FM030200 28005KT P6SM
                       SKC FM031200 VRB03KT P6SM BKN020 FM031800
                       22006KT P6SM SKC=
202208021720 TAF KBFI 021720Z 0218/0318 21005KT P6SM BKN020 FM021900 23006KT
                       P6SM SKC FM030200 28005KT P6SM SKC FM031100
                       VRB03KT P6SM SCT020=
202208021150 TAF KBFI 021150Z 0212/0312 20007KT P6SM OVC013 FM021600 21006KT
                       P6SM BKN015 FM021800 21005KT P6SM FEW250
                       FM022200 VRB04KT P6SM SKC FM030000 34005KT
                       P6SM SKC FM030700 VRB03KT P6SM FEW020 FM031100
                       VRB03KT P6SM SCT020=
202208020801 KBFI 020801Z 0208/0306 19007KT P6SM OVC013 FM021600 21006KT P6SM
                       BKN015 FM021800 21005KT P6SM FEW250 FM022200
                       VRB04KT P6SM SKC FM030300 35005KT P6SM SKC=
202208020550 TAF KBFI 020550Z 0206/0306 22006KT P6SM SKC FM021000 20008KT P6SM
                       BKN020 FM021200 19006KT P6SM OVC015 FM021800
                       21005KT P6SM FEW250 FM022200 VRB04KT P6SM
                       SKC FM030300 35005KT P6SM SKC=
202208012320 TAF KBFI 012320Z 0200/0224 27007KT P6SM FEW150 BKN250 FM020600
                       18007KT P6SM SCT150 FM021200 19006KT P6SM
                       OVC015 FM021800 21005KT P6SM BKN250=
202208012223 KBFI 012223Z 0122/0218 21007KT P6SM VCSH FEW060 SCT180 BKN250 FM012330
                       21007KT P6SM FEW150 BKN250 FM021200 19006KT
                       P6SM OVC015 FM021700 21005KT P6SM BKN030=
202208011728 TAF KBFI 011728Z 0118/0218 21007KT P6SM SCT250 FM012000 19006KT
                       P6SM SCT150 FM021200 19006KT P6SM OVC015
                       FM021700 21005KT P6SM BKN030=
202208011137 TAF KBFI 011137Z 0112/0212 VRB03KT P6SM BKN150 FM012000 19006KT
                       P6SM SCT150 FM021100 19006KT P6SM OVC015=
202208010539 TAF KBFI 010539Z 0106/0206 VRB03KT P6SM SKC FM011000 19006KT P6SM
                       SCT150=