##########################################################
# Query made at 02/17/2025 07:12:01 UTC
# Time interval: from 10/01/2022 00:00  to 10/31/2022 23:59  UTC
##########################################################

##########################################################
# KBFI, Seattle, Seattle Boeing Field (United States)
# WMO index: -----. WIGOS ID: Unknown
# Latitude 47-32-45N. Longitude 122-18-49W. Altitude 5 m.
##########################################################

###################################
#  METAR/SPECI from KBFI
###################################
202210312353 METAR KBFI 312353Z VRB03KT 10SM BKN022 BKN060 12/06 A2985 RMK AO2 SLP107 T01170061 10128 20117 53002=
202210312253 METAR KBFI 312253Z VRB06KT 10SM BKN022 OVC060 12/07 A2984 RMK AO2 SLP103 T01170072=
202210312153 METAR KBFI 312153Z 19009G15KT 10SM BKN020 BKN060 BKN200 12/07 A2984 RMK AO2 SLP105 T01220067=
202210312053 METAR KBFI 312053Z 21008G18KT 170V240 10SM BKN020 BKN060 BKN200 12/07 A2984 RMK AO2 SLP105 T01220072 50013=
202210311953 METAR KBFI 311953Z 21009G16KT 10SM BKN019 BKN050 12/07 A2985 RMK AO2 SLP107 T01170072=
202210311853 METAR KBFI 311853Z 20010G16KT 10SM SCT016 BKN050 12/09 A2983 RMK AO2 SLP100 T01220089=
202210311753 METAR KBFI 311753Z 19012G23KT 10SM BKN018 13/11 A2980 RMK AO2 PK WND 16027/1659 SLP092 60002 T01280111 10128 20100 53005=
202210311729 SPECI KBFI 311729Z 17013G24KT 10SM SCT018 13/11 A2980 RMK AO2 PK WND 16027/1659 T01280111=
202210311653 METAR KBFI 311653Z 17017G25KT 10SM BKN016 OVC030 13/11 A2979 RMK AO2 PK WND 16026/1635 SLP088 T01280111=
202210311553 METAR KBFI 311553Z 17014G21KT 10SM BKN020 BKN029 OVC070 12/11 A2979 RMK AO2 SLP087 T01220106=
202210311453 METAR KBFI 311453Z 17015G25KT 10SM FEW008 BKN020 OVC110 12/11 A2979 RMK AO2 RAE44 SLP087 P0000 60002 T01170106 56018=
202210311353 METAR KBFI 311353Z 17014G20KT 10SM -RA FEW008 BKN020 OVC110 12/11 A2979 RMK AO2 SLP088 P0001 T01170106=
202210311253 METAR KBFI 311253Z 17013G18KT 9SM -RA FEW008 SCT016 BKN036 12/11 A2982 RMK AO2 RAB26 SLP097 P0001 T01170111 $=
202210311153 METAR KBFI 311153Z 12007KT 10SM FEW008 SCT016 BKN036 10/09 A2984 RMK AO2 RAE30 SLP104 P0000 60088 70094 T01000094 10122 20100 58012 $=
202210311149 SPECI KBFI 311149Z 13009KT 10SM FEW008 SCT016 BKN036 10/09 A2984 RMK AO2 RAE30 P0000 $=
202210311053 METAR KBFI 311053Z 17008KT 10SM -RA OVC024 10/09 A2985 RMK AO2 SLP107 P0000 T01000094 $=
202210310953 METAR KBFI 310953Z 14003KT 4SM -RA BR BKN007 10/10 A2988 RMK AO2 SLP116 P0012 T01000100 $=
202210310903 SPECI KBFI 310903Z 00000KT 3SM -RA BR BKN007 10/10 A2987 RMK AO2 P0003 T01000100 $=
202210310856 SPECI KBFI 310856Z 33003KT 2 1/2SM RA BR BKN007 10/10 A2987 RMK AO2 P0001 T01000100 $=
202210310853 METAR KBFI 310853Z VRB03KT 3SM RA BR BKN007 10/10 A2988 RMK AO2 SLP116 P0026 60076 T01000100 $=
202210310753 METAR KBFI 310753Z 33004KT 3SM RA BR BKN007 10/10 A2986 RMK AO2 SLP112 P0037 T01000100 401390100 $=
202210310653 METAR KBFI 310653Z 30005KT 3SM RA BR BKN007 12/11 A2987 RMK AO2 RAB02 SLP115 P0013 T01170111 $=
202210310632 SPECI KBFI 310632Z VRB05KT 4SM RA BR BKN007 12/11 A2987 RMK AO2 RAB02 P0007 T01220111 $=
202210310553 METAR KBFI 310553Z 21006KT 5SM RA BR BKN015 OVC020 12/11 A2989 RMK AO2 SLP121 P0006 60006 T01220111 10139 20122 58022=
202210310453 METAR KBFI 310453Z 18011G19KT 10SM -RA BKN015 OVC027 12/11 A2991 RMK AO2 SLP128 P0000 T01220106=
202210310353 METAR KBFI 310353Z 17011G18KT 10SM -RA BKN027 OVC034 12/11 A2994 RMK AO2 RAB07 SLP136 P0000 T01220106=
202210310253 METAR KBFI 310253Z 18011G22KT 10SM BKN027 OVC034 13/10 A2995 RMK AO2 SLP143 60000 T01280100 56015=
202210310153 METAR KBFI 310153Z 19010G22KT 10SM BKN027 OVC034 13/09 A2996 RMK AO2 RAB11E25 SLP146 P0000 T01330094=
202210310053 METAR KBFI 310053Z 18012G24KT 10SM OVC026 14/09 A2998 RMK AO2 SLP150 T01390094=
202210302353 METAR KBFI 302353Z 17008KT 10SM OVC025 13/10 A3000 RMK AO2 SLP158 60000 T01330100 10133 20117 58028=
202210302253 METAR KBFI 302253Z 19006KT 10SM OVC025 13/11 A3003 RMK AO2 RAB30E40 SLP170 P0000 T01280106=
202210302153 METAR KBFI 302153Z 20007KT 10SM BKN022 OVC031 12/10 A3006 RMK AO2 SLP178 T01220100=
202210302053 METAR KBFI 302053Z 17007G15KT 10SM OVC027 12/10 A3008 RMK AO2 SLP186 T01220100 58020=
202210301953 METAR KBFI 301953Z 20007KT 10SM OVC027 12/09 A3011 RMK AO2 SLP196 T01220094=
202210301853 METAR KBFI 301853Z 20010G16KT 8SM OVC015 13/08 A3014 RMK AO2 SLP204 T01280078=
202210301753 METAR KBFI 301753Z 16008KT 10SM BKN025 OVC034 12/07 A3014 RMK AO2 SLP206 T01220067 10122 20100 56006=
202210301653 METAR KBFI 301653Z 17014G22KT 10SM BKN025 BKN042 12/07 A3014 RMK AO2 SLP207 T01170067=
202210301553 METAR KBFI 301553Z 17014G24KT 10SM FEW043 SCT065 BKN110 12/07 A3015 RMK AO2 SLP209 T01170067=
202210301453 METAR KBFI 301453Z 17012G22KT 10SM SCT030 BKN050 BKN110 12/06 A3016 RMK AO2 SLP212 T01170056 56015=
202210301353 METAR KBFI 301353Z 14010KT 10SM FEW050 BKN110 11/06 A3017 RMK AO2 SLP217 T01110056=
202210301253 METAR KBFI 301253Z 15010KT 10SM SCT120 10/06 A3018 RMK AO2 SLP218 T01000061=
202210301153 METAR KBFI 301153Z 14008KT 10SM BKN040 OVC060 11/06 A3020 RMK AO2 SLP227 T01060061 10111 20100 56009=
202210301053 METAR KBFI 301053Z 15008KT 10SM OVC085 11/06 A3021 RMK AO2 SLP229 T01060061=
202210300953 METAR KBFI 300953Z 15010KT 10SM OVC100 10/07 A3022 RMK AO2 SLP232 T01000067=
202210300853 METAR KBFI 300853Z 17009KT 10SM OVC070 11/07 A3023 RMK AO2 SLP236 T01110067 57002=
202210300753 METAR KBFI 300753Z 14007KT 10SM BKN070 OVC090 10/07 A3023 RMK AO2 SLP237 T01000067 401440056=
202210300653 METAR KBFI 300653Z 17009KT 10SM BKN100 OVC120 11/07 A3023 RMK AO2 SLP237 T01110072=
202210300553 METAR KBFI 300553Z 14008KT 10SM CLR 10/06 A3024 RMK AO2 SLP238 T01000061 10133 20089 55002=
202210300453 METAR KBFI 300453Z 17006KT 10SM CLR 12/07 A3023 RMK AO2 SLP236 T01170067=
202210300353 METAR KBFI 300353Z 13004KT 10SM CLR 10/06 A3024 RMK AO2 SLP238 T01000061=
202210300253 METAR KBFI 300253Z 15006KT 10SM CLR 09/06 A3024 RMK AO2 SLP240 T00940056 58006=
202210300153 METAR KBFI 300153Z 17004KT 10SM CLR 10/06 A3026 RMK AO2 SLP246 T01000061=
202210300053 METAR KBFI 300053Z 15007KT 10SM CLR 12/07 A3024 RMK AO2 SLP240 T01170072=
202210292353 METAR KBFI 292353Z VRB03KT 10SM CLR 13/06 A3026 RMK AO2 SLP246 T01330061 10144 20106 56012=
202210292253 METAR KBFI 292253Z 18005KT 10SM CLR 14/07 A3027 RMK AO2 SLP251 T01390067=
202210292153 METAR KBFI 292153Z 19005KT 10SM FEW012 14/07 A3028 RMK AO2 SLP252 T01390072=
202210292053 METAR KBFI 292053Z 24005KT 10SM SCT016 13/09 A3029 RMK AO2 SLP258 T01330089 58008=
202210291953 METAR KBFI 291953Z 25003KT 10SM SCT016 13/09 A3031 RMK AO2 SLP262 T01280089=
202210291925 SPECI KBFI 291925Z 24005KT 10SM SCT016 12/09 A3031 RMK AO2 T01220089=
202210291853 METAR KBFI 291853Z VRB05KT 10SM SCT012 BKN016 13/08 A3031 RMK AO2 SLP264 T01280083=
202210291753 METAR KBFI 291753Z 16004KT 10SM SCT008 BKN010 11/08 A3032 RMK AO2 SLP266 T01060083 10106 20056 51013=
202210291653 METAR KBFI 291653Z 13004KT 10SM OVC008 09/08 A3031 RMK AO2 SLP264 T00890078=
202210291553 METAR KBFI 291553Z 17005KT 9SM OVC007 08/08 A3031 RMK AO2 SLP262 T00780078=
202210291453 METAR KBFI 291453Z 13003KT 5SM BR BKN006 BKN011 08/07 A3028 RMK AO2 SLP253 T00780072 53000=
202210291412 SPECI KBFI 291412Z 00000KT 5SM BR BKN006 BKN011 06/06 A3027 RMK AO2 T00610061=
202210291359 SPECI KBFI 291359Z 00000KT 5SM BR BKN011 07/06 A3027 RMK AO2 T00670061=
202210291353 METAR KBFI 291353Z 12003KT 6SM BR SCT010 BKN040 07/06 A3026 RMK AO2 SLP247 T00670061=
202210291253 METAR KBFI 291253Z 16003KT 8SM FEW010 06/06 A3028 RMK AO2 SLP252 T00610061=
202210291153 METAR KBFI 291153Z 00000KT 9SM SCT010 07/06 A3028 RMK AO2 SLP253 70020 T00670061 10089 20061 50001=
202210291122 SPECI KBFI 291122Z 10003KT 7SM BKN011 07/07 A3029 RMK AO2 T00720067=
202210291053 METAR KBFI 291053Z 00000KT 7SM CLR 07/06 A3029 RMK AO2 SLP256 T00670061=
202210290953 METAR KBFI 290953Z 15005KT 10SM FEW008 06/06 A3028 RMK AO2 SLP254 T00610061=
202210290853 METAR KBFI 290853Z 15003KT 10SM SCT023 07/07 A3028 RMK AO2 SLP251 T00720067 53005=
202210290846 SPECI KBFI 290846Z 13004KT 10SM BKN024 07/07 A3027 RMK AO2 T00720067=
202210290753 METAR KBFI 290753Z 15006KT 10SM CLR 07/07 A3026 RMK AO2 SLP247 T00720067 401440067=
202210290653 METAR KBFI 290653Z 16003KT 10SM OVC070 09/08 A3027 RMK AO2 SLP248 T00890078=
202210290553 METAR KBFI 290553Z 16005KT 10SM SCT075 07/07 A3026 RMK AO2 SLP246 T00720072 10128 20067 53012=
202210290453 METAR KBFI 290453Z 16003KT 10SM BKN075 07/07 A3024 RMK AO2 SLP241 T00720067=
202210290353 METAR KBFI 290353Z 16004KT 10SM CLR 08/07 A3023 RMK AO2 SLP235 T00830072=
202210290253 METAR KBFI 290253Z 00000KT 10SM SCT044 09/08 A3023 RMK AO2 SLP235 T00940078 53015=
202210290153 METAR KBFI 290153Z 00000KT 10SM CLR 11/08 A3021 RMK AO2 SLP228 T01060078=
202210290053 METAR KBFI 290053Z 00000KT 10SM SCT030 12/08 A3020 RMK AO2 SLP224 T01220078=
202210290000 SPECI KBFI 290000Z 22005KT 10SM CLR 13/08 A3018 RMK AO2 T01280078=
202210282353 METAR KBFI 282353Z VRB05KT 10SM BKN027 13/08 A3018 RMK AO2 SLP220 T01280078 10139 20111 51003=
202210282253 METAR KBFI 282253Z 23006KT 10SM BKN027 13/08 A3018 RMK AO2 SLP219 T01330083=
202210282153 METAR KBFI 282153Z VRB04KT 10SM FEW015 SCT021 BKN026 13/09 A3019 RMK AO2 SLP221 T01330089=
202210282053 METAR KBFI 282053Z 22005KT 10SM FEW015 SCT021 BKN026 13/09 A3017 RMK AO2 SLP217 T01280094 50008=
202210282000 SPECI KBFI 282000Z 22005KT 10SM SCT021 BKN026 13/10 A3018 RMK AO2 T01280100=
202210281953 METAR KBFI 281953Z 22004KT 10SM BKN011 12/10 A3018 RMK AO2 SLP219 T01220100=
202210281853 METAR KBFI 281853Z 23004KT 10SM BKN011 11/09 A3017 RMK AO2 SLP217 T01110094=
202210281753 METAR KBFI 281753Z 23003KT 10SM BKN011 11/09 A3015 RMK AO2 SLP210 60020 T01110094 10111 20100 51017=
202210281751 SPECI KBFI 281751Z 24004KT 10SM BKN011 11/09 A3015 RMK AO2=
202210281653 METAR KBFI 281653Z 21004KT 10SM BKN008 11/10 A3013 RMK AO2 RAE02 SLP201 P0000 T01060100=
202210281555 SPECI KBFI 281555Z 20003KT 5SM -RA BR BKN008 11/09 A3010 RMK AO2 P0000 T01060094=
202210281553 METAR KBFI 281553Z 20005KT 8SM -RA BKN010 BKN018 OVC023 11/09 A3010 RMK AO2 RAB52 SLP193 P0000 T01060094=
202210281453 METAR KBFI 281453Z 19006KT 8SM BKN010 BKN018 OVC023 11/09 A3008 RMK AO2 RAE31 SLP185 P0006 60020 T01060094 53025=
202210281353 METAR KBFI 281353Z 16005KT 3SM -RA BR BKN006 OVC011 10/09 A3005 RMK AO2 SLP175 P0009 T01000094=
202210281253 METAR KBFI 281253Z 00000KT 3SM -RA BR BKN006 OVC011 10/09 A3002 RMK AO2 SLP166 P0005 T01000094=
202210281211 SPECI KBFI 281211Z 06006KT 6SM -RA BR SCT006 OVC014 10/09 A3001 RMK AO2 P0000 T01000089=
202210281153 METAR KBFI 281153Z 07004KT 4SM -RA BR BKN006 OVC015 10/09 A3000 RMK AO2 RAB00 SLP160 P0007 60007 70007 T01000089 10144 20100 51009=
202210281150 SPECI KBFI 281150Z 06004KT 4SM -RA BR SCT006 BKN013 OVC019 10/09 A3000 RMK AO2 RAB00 P0007=
202210281110 SPECI KBFI 281110Z 21005KT 3SM RA BR BKN008 BKN030 OVC070 11/09 A3000 RMK AO2 RAB00 P0003 T01060089=
202210281103 SPECI KBFI 281103Z 23007G19KT 200V270 7SM -RA BKN015 BKN030 OVC070 11/08 A3000 RMK AO2 RAB00 P0000 T01060083=
202210281053 METAR KBFI 281053Z AUTO 23006KT 10SM SCT017 SCT048 OVC070 11/08 A3000 RMK AO2 RAB0955E29 SLP157 P0000 T01110083=
202210280953 METAR KBFI 280953Z 25008KT 10SM OVC041 14/06 A2998 RMK AO2 SLP151 T01390061=
202210280853 METAR KBFI 280853Z 00000KT 10SM OVC040 14/04 A2995 RMK AO2 SLP140 T01390044 53001=
202210280753 METAR KBFI 280753Z 23003KT 10SM OVC041 14/04 A2994 RMK AO2 SLP138 T01390044 401610094=
202210280653 METAR KBFI 280653Z 17007KT 10SM OVC043 14/06 A2994 RMK AO2 SLP138 T01390056=
202210280553 METAR KBFI 280553Z 16008KT 10SM OVC046 13/06 A2994 RMK AO2 RAE38 SLP139 P0000 60000 T01330061 10156 20133 58004=
202210280453 METAR KBFI 280453Z 17011KT 10SM -RA OVC050 14/06 A2995 RMK AO2 RAB35 SLP141 P0000 T01390061=
202210280353 METAR KBFI 280353Z 17013G22KT 10SM OVC049 15/05 A2995 RMK AO2 SLP143 T01500050=
202210280253 METAR KBFI 280253Z 19008G21KT 10SM BKN045 OVC055 15/05 A2996 RMK AO2 SLP144 T01500050 53003=
202210280153 METAR KBFI 280153Z 20010G24KT 10SM OVC050 15/06 A2994 RMK AO2 SLP138 T01500056=
202210280053 METAR KBFI 280053Z 19011G22KT 10SM BKN070 15/06 A2994 RMK AO2 PK WND 19027/0005 SLP138 T01500056=
202210272353 METAR KBFI 272353Z 20013G26KT 10SM CLR 16/06 A2995 RMK AO2 PK WND 20029/2256 SLP141 60000 T01560056 10161 20122 56017=
202210272253 METAR KBFI 272253Z 20016G27KT 10SM BKN070 16/06 A2995 RMK AO2 PK WND 19028/2243 SLP141 T01560056=
202210272153 METAR KBFI 272153Z 20009G17KT 10SM FEW049 SCT060 BKN075 16/06 A2998 RMK AO2 SLP151 T01560061=
202210272053 METAR KBFI 272053Z 19010G20KT 10SM BKN050 BKN065 BKN080 16/06 A3000 RMK AO2 SLP158 60000 T01560061 58016=
202210271953 METAR KBFI 271953Z 18014G24KT 10SM BKN080 15/06 A3002 RMK AO2 SLP167 T01500056=
202210271853 METAR KBFI 271853Z 19013G25KT 10SM BKN070 14/06 A3003 RMK AO2 PK WND 19028/1756 RAE14 SLP169 P0000 T01390061=
202210271753 METAR KBFI 271753Z 18017G25KT 10SM -RA SCT055 OVC080 13/06 A3005 RMK AO2 PK WND 20030/1737 RAB52 SLP174 P0000 60000 T01280061 10133 20111 53001=
202210271653 METAR KBFI 271653Z AUTO 18012G20KT 10SM OVC070 13/06 A3004 RMK AO2 SLP172 T01280061=
202210271553 METAR KBFI 271553Z 17011G18KT 10SM SCT030 12/06 A3004 RMK AO2 SLP173 T01170061=
202210271453 METAR KBFI 271453Z 17013G21KT 10SM OVC031 12/06 A3004 RMK AO2 SLP173 T01170061 58012=
202210271353 METAR KBFI 271353Z 18011G19KT 10SM BKN030 OVC050 12/06 A3007 RMK AO2 SLP181 T01170061=
202210271253 METAR KBFI 271253Z 17011KT 10SM BKN029 OVC050 11/06 A3008 RMK AO2 SLP184 T01110061=
202210271153 METAR KBFI 271153Z 17010KT 10SM OVC028 11/06 A3008 RMK AO2 SLP185 T01110061 10111 20094 58009=
202210271053 METAR KBFI 271053Z 15006KT 10SM BKN020 OVC027 10/07 A3010 RMK AO2 SLP192 T01000072=
202210270953 METAR KBFI 270953Z 18011G18KT 10SM OVC027 11/07 A3011 RMK AO2 SLP196 T01060067=
202210270853 METAR KBFI 270853Z 15010KT 10SM OVC034 09/07 A3011 RMK AO2 SLP194 T00940067 58012=
202210270753 METAR KBFI 270753Z 17012KT 10SM BKN038 OVC055 10/06 A3012 RMK AO2 SLP198 T01000061 401110061=
202210270653 METAR KBFI 270653Z 17010KT 10SM OVC044 11/06 A3014 RMK AO2 SLP205 T01060056=
202210270553 METAR KBFI 270553Z 17010KT 10SM OVC037 10/06 A3014 RMK AO2 SLP206 T01000056 10111 20094 55001=
202210270520 SPECI KBFI 270520Z 16009KT 10SM BKN020 OVC041 10/05 A3014 RMK AO2 T01000050=
202210270513 SPECI KBFI 270513Z 15009KT 10SM BKN030 OVC041 10/05 A3014 RMK AO2 T01000050=
202210270453 METAR KBFI 270453Z 15010KT 10SM BKN020 OVC036 10/05 A3013 RMK AO2 SLP203 T01000050=
202210270353 METAR KBFI 270353Z 17008KT 10SM BKN020 OVC034 10/06 A3014 RMK AO2 SLP206 T01000061=
202210270253 METAR KBFI 270253Z 17007KT 10SM FEW033 OVC040 10/06 A3014 RMK AO2 SLP207 T01000056 51004=
202210270153 METAR KBFI 270153Z 20007KT 10SM OVC055 11/06 A3014 RMK AO2 SLP205 T01060056=
202210270053 METAR KBFI 270053Z 17005KT 10SM OVC100 11/05 A3014 RMK AO2 SLP205 T01060050=
202210262353 METAR KBFI 262353Z 20003KT 10SM FEW022 OVC100 11/06 A3013 RMK AO2 SLP203 T01110056 10111 20083 53001=
202210262300 SPECI KBFI 262300Z 20005KT 10SM FEW022 OVC100 11/06 A3013 RMK AO2 T01110061=
202210262253 METAR KBFI 262253Z 21004KT 10SM BKN022 11/06 A3012 RMK AO2 SLP201 T01110061=
202210262153 METAR KBFI 262153Z VRB05KT 10SM BKN022 11/06 A3013 RMK AO2 SLP202 T01110061=
202210262053 METAR KBFI 262053Z 20006KT 10SM BKN022 BKN120 11/06 A3013 RMK AO2 SLP202 T01110061 51006=
202210261953 METAR KBFI 261953Z 17008KT 10SM BKN022 BKN120 11/06 A3013 RMK AO2 SLP202 T01060061=
202210261939 SPECI KBFI 261939Z 18006KT 10SM FEW023 10/06 A3012 RMK AO2 T01000061=
202210261853 METAR KBFI 261853Z 10SM BKN020 09/06 A3013 RMK AO2 SLP201 T00940056=
202210261753 METAR KBFI 261753Z 15007KT 10SM BKN020 BKN031 08/06 A3011 RMK AO2 SLP196 T00830061 10089 20061 51023=
202210261653 METAR KBFI 261653Z 14005KT 10SM BKN020 BKN031 08/06 A3010 RMK AO2 SLP191 T00780061=
202210261553 METAR KBFI 261553Z 15006KT 10SM BKN020 BKN031 08/07 A3007 RMK AO2 SLP182 T00780067=
202210261501 SPECI KBFI 261501Z 15004KT 10SM BKN020 BKN031 07/06 A3004 RMK AO2 T00670061=
202210261453 METAR KBFI 261453Z AUTO 15003KT 10SM BKN031 07/06 A3005 RMK AO2 SLP174 T00670061 51022=
202210261353 METAR KBFI 261353Z 11003KT 10SM BKN032 OVC050 07/06 A3003 RMK AO2 SLP170 T00720061=
202210261253 METAR KBFI 261253Z 15007KT 10SM FEW050 SCT075 06/06 A2999 RMK AO2 SLP156 T00610056 $=
202210261153 METAR KBFI 261153Z 16006KT 10SM FEW018 OVC033 07/06 A2998 RMK AO2 SLP152 60003 70039 T00670056 10078 20061 51023 $=
202210261144 SPECI KBFI 261144Z 15006KT 10SM SCT015 OVC033 07/06 A2998 RMK AO2 T00670056 $=
202210261137 SPECI KBFI 261137Z 13005KT 10SM BKN015 OVC033 07/06 A2998 RMK AO2 T00670061 $=
202210261053 METAR KBFI 261053Z 17007KT 10SM BKN012 06/06 A2996 RMK AO2 SLP146 T00610056 $=
202210261042 SPECI KBFI 261042Z 14006KT 10SM BKN013 07/06 A2996 RMK AO2 T00670056 $=
202210260953 METAR KBFI 260953Z 14006KT 10SM SCT015 BKN035 07/06 A2994 RMK AO2 SLP139 T00670061 $=
202210260853 METAR KBFI 260853Z 15007KT 10SM FEW013 BKN040 07/06 A2991 RMK AO2 SLP129 60003 T00670061 53013 $=
202210260753 METAR KBFI 260753Z 17005KT 10SM SCT016 BKN027 OVC040 08/07 A2990 RMK AO2 RAE46 SLP124 P0001 T00780067 401110067 $=
202210260653 METAR KBFI 260653Z 17007KT 10SM -RA OVC015 08/06 A2989 RMK AO2 SLP120 P0002 T00780061 $=
202210260553 METAR KBFI 260553Z VRB05KT 8SM -RA OVC015 08/06 A2987 RMK AO2 RAE01B18 SLP116 P0002 60022 T00780061 10094 20078 53008 $=
202210260453 METAR KBFI 260453Z 17009KT 10SM -RA FEW024 BKN075 BKN090 08/07 A2985 RMK AO2 RAB22 SLP108 P0000 T00780067 $=
202210260353 METAR KBFI 260353Z 17013G22KT 10SM FEW024 BKN075 BKN090 08/06 A2984 RMK AO2 RAE33 SLP104 P0001 T00780061 $=
202210260253 METAR KBFI 260253Z 17008G17KT 10SM -RA FEW012 BKN030 OVC080 08/07 A2985 RMK AO2 RAE10B35 SLP108 P0001 60019 T00830067 55007 $=
202210260153 METAR KBFI 260153Z 20009G16KT 3SM -RA BR SCT012 BKN023 OVC048 09/08 A2985 RMK AO2 WSHFT 0106 SLP106 P0014 T00890078 $=
202210260126 SPECI KBFI 260126Z 16011G19KT 2 1/2SM -RA BR SCT012 BKN025 OVC040 08/07 A2983 RMK AO2 WSHFT 0106 P0012 T00830072=
202210260104 SPECI KBFI 260104Z 20007G18KT 2 1/2SM +RA BR SCT012 BKN025 OVC040 09/08 A2985 RMK AO2 P0007 T00890078=
202210260053 METAR KBFI 260053Z 18012KT 6SM -RA BR FEW025 OVC037 09/08 A2984 RMK AO2 SLP105 P0004 T00890078=
202210252353 METAR KBFI 252353Z 15014KT 10SM -RA OVC044 09/08 A2987 RMK AO2 SLP115 P0003 60014 T00940083 10111 20094 56047=
202210252253 METAR KBFI 252253Z 15013KT 6SM -RA BR BKN046 OVC060 10/09 A2991 RMK AO2 SLP128 P0003 T01000089=
202210252153 METAR KBFI 252153Z 15014KT 10SM -RA BKN044 OVC055 10/09 A2996 RMK AO2 SLP145 P0002 T01000089=
202210252053 METAR KBFI 252053Z 16010KT 6SM -RA BR SCT017 BKN043 OVC055 10/08 A3001 RMK AO2 SLP162 P0006 60006 T01000083 58036=
202210252014 SPECI KBFI 252014Z 17011KT 9SM -RA BKN018 OVC060 11/08 A3004 RMK AO2 P0001 T01060078=
202210251953 METAR KBFI 251953Z 18010G17KT 9SM -RA FEW013 SCT024 OVC070 11/08 A3006 RMK AO2 RAB06 SLP178 P0000 T01060078=
202210251853 METAR KBFI 251853Z 17007KT 10SM BKN045 BKN080 11/07 A3009 RMK AO2 SLP188 T01110067=
202210251753 METAR KBFI 251753Z 18008KT 10SM FEW100 11/07 A3012 RMK AO2 SLP199 60000 T01060067 10106 20089 58013=
202210251653 METAR KBFI 251653Z 18008G18KT 10SM SCT020 SCT060 BKN075 10/07 A3014 RMK AO2 RAB25E39 SLP204 P0000 T01000072=
202210251553 METAR KBFI 251553Z 17009KT 10SM BKN018 09/07 A3015 RMK AO2 SLP208 T00940067=
202210251453 METAR KBFI 251453Z 15006KT 10SM BKN017 09/07 A3016 RMK AO2 SLP212 T00940067 58005=
202210251353 METAR KBFI 251353Z 16004KT 10SM OVC018 09/07 A3017 RMK AO2 SLP217 T00940067=
202210251253 METAR KBFI 251253Z 14006KT 10SM OVC021 09/07 A3018 RMK AO2 SLP220 T00890067=
202210251153 METAR KBFI 251153Z 16007KT 10SM BKN021 09/07 A3017 RMK AO2 SLP217 70004 T00940067 10094 20067 58004=
202210251053 METAR KBFI 251053Z 15007KT 10SM BKN018 08/07 A3019 RMK AO2 SLP221 T00830067=
202210250953 METAR KBFI 250953Z 15007KT 10SM CLR 08/06 A3018 RMK AO2 SLP219 T00780061=
202210250913 SPECI KBFI 250913Z 13007KT 10SM SCT018 09/07 A3018 RMK AO2 T00890067=
202210250853 METAR KBFI 250853Z 14004KT 10SM OVC018 08/06 A3019 RMK AO2 SLP221 T00780061 53016=
202210250840 SPECI KBFI 250840Z 12005KT 10SM BKN018 08/07 A3018 RMK AO2 T00830067=
202210250753 METAR KBFI 250753Z 14007KT 10SM CLR 08/06 A3016 RMK AO2 SLP214 T00830061 401440072=
202210250653 METAR KBFI 250653Z 13007KT 10SM FEW039 09/07 A3016 RMK AO2 SLP211 T00940067=
202210250553 METAR KBFI 250553Z 15007KT 10SM CLR 09/06 A3014 RMK AO2 SLP205 T00890061 10139 20083 51027=
202210250453 METAR KBFI 250453Z 15006KT 10SM BKN095 09/07 A3012 RMK AO2 SLP198 T00940067=
202210250353 METAR KBFI 250353Z 13007KT 10SM CLR 11/07 A3008 RMK AO2 SLP185 T01060067=
202210250253 METAR KBFI 250253Z 15007KT 10SM FEW090 11/07 A3006 RMK AO2 LTG DSNT E SLP177 T01060067 51023=
202210250153 METAR KBFI 250153Z 19005KT 10SM SCT028 BKN041 BKN110 12/07 A3004 RMK AO2 SLP172 T01220072=
202210250053 METAR KBFI 250053Z VRB04KT 10SM SCT028 BKN041 BKN110 13/08 A3001 RMK AO2 SLP161 T01330078=
202210242353 METAR KBFI 242353Z 25004KT 10SM SCT028 BKN041 BKN110 14/08 A2999 RMK AO2 SLP155 60002 T01390083 10144 20094 53002=
202210242253 METAR KBFI 242253Z 23006KT 10SM BKN028 BKN037 BKN048 14/08 A2998 RMK AO2 SLP151 T01390083=
202210242153 METAR KBFI 242153Z 06004KT 10SM BKN028 BKN037 OVC048 13/09 A2998 RMK AO2 SLP150 T01280094=
202210242053 METAR KBFI 242053Z 14005KT 10SM FEW010 OVC025 12/09 A2999 RMK AO2 SLP153 60002 T01170094 51013=
202210241953 METAR KBFI 241953Z 16005KT 10SM FEW010 OVC025 11/09 A2998 RMK AO2 RAE13 SLP151 P0000 T01110094=
202210241941 SPECI KBFI 241941Z 12004KT 10SM BKN016 OVC025 11/09 A2998 RMK AO2 RAE13 P0000 T01060094=
202210241853 METAR KBFI 241853Z 00000KT 3SM -RA BR SCT004 OVC012 10/09 A2997 RMK AO2 SLP147 P0002 T01000094=
202210241753 METAR KBFI 241753Z 14003KT 6SM -RA BR OVC011 09/08 A2995 RMK AO2 RAB15E35B52 SLP141 P0000 60002 T00940078 10100 20072 53005=
202210241653 METAR KBFI 241653Z 00000KT 10SM BKN008 OVC010 09/08 A2994 RMK AO2 SLP139 T00890083=
202210241553 METAR KBFI 241553Z 13006KT 4SM BR BKN009 OVC014 08/07 A2993 RMK AO2 SLP133 T00780072=
202210241453 METAR KBFI 241453Z 12007KT 4SM BR FEW005 BKN009 OVC025 08/07 A2993 RMK AO2 RAE03 SLP136 P0000 60002 T00780067 58015=
202210241353 METAR KBFI 241353Z 14007KT 3SM -RA BR FEW005 BKN010 OVC025 08/07 A2995 RMK AO2 RAE20B51 SLP140 P0002 T00780072=
202210241305 SPECI KBFI 241305Z 15005KT 3SM -RA BR FEW006 OVC028 08/07 A2997 RMK AO2 P0001 T00780072=
202210241253 METAR KBFI 241253Z 15006KT 4SM -RA BR OVC030 08/07 A2997 RMK AO2 RAB35 SLP147 P0000 T00780072=
202210241153 METAR KBFI 241153Z 17010G18KT 4SM BR SCT028 OVC045 08/07 A2998 RMK AO2 SLP150 60000 T00830067 10094 20083 56032=
202210241053 METAR KBFI 241053Z 14006KT 10SM BKN043 OVC050 09/06 A2999 RMK AO2 SLP155 T00940056=
202210240953 METAR KBFI 240953Z 15006KT 10SM SCT047 BKN060 OVC070 09/06 A3002 RMK AO2 SLP164 T00890061=
202210240853 METAR KBFI 240853Z 14007KT 10SM SCT060 BKN070 OVC090 09/06 A3007 RMK AO2 SLP182 60000 T00890061 58022=
202210240753 METAR KBFI 240753Z 15007KT 10SM OVC060 09/06 A3009 RMK AO2 RAB39E49 SLP189 P0000 T00890061 401280050=
202210240653 METAR KBFI 240653Z 14008KT 10SM SCT042 SCT050 OVC070 09/06 A3012 RMK AO2 SLP198 T00940061=
202210240553 METAR KBFI 240553Z 15008KT 10SM FEW041 BKN090 OVC110 09/06 A3014 RMK AO2 SLP204 T00940061 10122 20094 56008=
202210240453 METAR KBFI 240453Z 14007KT 10SM SCT045 BKN110 09/06 A3014 RMK AO2 SLP205 T00940061=
202210240353 METAR KBFI 240353Z 14006KT 10SM BKN031 BKN039 BKN046 10/06 A3015 RMK AO2 SLP207 T01000061=
202210240253 METAR KBFI 240253Z 15003KT 10SM SCT042 BKN120 10/07 A3016 RMK AO2 SLP212 T01000067 58003=
202210240153 METAR KBFI 240153Z 18003KT 10SM CLR 10/06 A3016 RMK AO2 SLP213 T01000056=
202210240053 METAR KBFI 240053Z VRB03KT 10SM CLR 12/06 A3017 RMK AO2 SLP215 T01170056=
202210232353 METAR KBFI 232353Z 21005KT 10SM CLR 12/05 A3017 RMK AO2 SLP215 T01220050 10128 20094 55003=
202210232253 METAR KBFI 232253Z 17007KT 10SM FEW015 BKN110 13/06 A3015 RMK AO2 SLP210 T01280056=
202210232153 METAR KBFI 232153Z AUTO 16006KT 10SM SCT015 BKN110 12/06 A3017 RMK AO2 SLP216 T01220061=
202210232053 METAR KBFI 232053Z 25005KT 10SM BKN015 BKN024 12/07 A3018 RMK AO2 SLP218 T01170067 51010=
202210231953 METAR KBFI 231953Z 17007KT 10SM BKN015 BKN024 11/07 A3016 RMK AO2 SLP213 T01060067=
202210231853 METAR KBFI 231853Z 14004KT 10SM BKN015 10/07 A3017 RMK AO2 SLP215 T01000072=
202210231753 METAR KBFI 231753Z 14005KT 10SM SCT006 BKN008 BKN015 09/08 A3015 RMK AO2 SLP208 T00940078 10094 20056 53019=
202210231653 METAR KBFI 231653Z 16005KT 10SM SCT006 BKN008 BKN015 08/07 A3012 RMK AO2 SLP200 T00780067=
202210231553 METAR KBFI 231553Z 15006KT 10SM FEW007 BKN009 BKN015 07/06 A3011 RMK AO2 SLP196 T00720061=
202210231519 SPECI KBFI 231519Z 18004KT 10SM BKN008 OVC026 07/06 A3010 RMK AO2 T00720061=
202210231500 SPECI KBFI 231500Z 15004KT 10SM SCT008 OVC025 07/06 A3009 RMK AO2 T00720061=
202210231453 METAR KBFI 231453Z 13003KT 10SM OVC011 07/06 A3009 RMK AO2 SLP189 T00720061 51030=
202210231440 SPECI KBFI 231440Z 00000KT 10SM SCT008 OVC025 07/06 A3008 RMK AO2 T00720061=
202210231353 METAR KBFI 231353Z 14003KT 10SM OVC015 07/06 A3007 RMK AO2 SLP181 T00670061=
202210231253 METAR KBFI 231253Z 13004KT 10SM OVC015 07/06 A3004 RMK AO2 SLP171 T00670061=
202210231153 METAR KBFI 231153Z 13003KT 10SM BKN019 06/05 A3000 RMK AO2 SLP158 70022 T00560050 10067 20050 51013=
202210231053 METAR KBFI 231053Z 15004KT 10SM SCT030 BKN040 OVC065 07/06 A2998 RMK AO2 SLP152 T00670056=
202210230953 METAR KBFI 230953Z 17005KT 10SM FEW030 BKN042 OVC065 07/06 A2996 RMK AO2 SLP145 T00670056=
202210230853 METAR KBFI 230853Z 15004KT 10SM BKN043 OVC060 07/06 A2995 RMK AO2 SLP140 T00670056 51019=
202210230753 METAR KBFI 230753Z 00000KT 10SM SCT042 SCT050 OVC065 07/06 A2993 RMK AO2 SLP134 T00670056 401110056=
202210230653 METAR KBFI 230653Z 00000KT 10SM BKN046 OVC065 06/06 A2991 RMK AO2 SLP129 T00560056=
202210230606 SPECI KBFI 230606Z 00000KT 10SM BKN047 06/06 A2990 RMK AO2 T00560056=
202210230553 METAR KBFI 230553Z 00000KT 1 3/4SM BR CLR 06/05 A2989 RMK AO2 SLP121 T00560050 10089 20056 53017=
202210230453 METAR KBFI 230453Z 00000KT 10SM CLR 06/06 A2987 RMK AO2 SLP113 T00610056=
202210230353 METAR KBFI 230353Z 14003KT 10SM OVC060 07/06 A2985 RMK AO2 SLP108 T00720061=
202210230253 METAR KBFI 230253Z 00000KT 10SM SCT060 08/06 A2984 RMK AO2 LTG DSNT SW SLP104 T00780061 53010=
202210230153 METAR KBFI 230153Z 14006KT 10SM SCT055 07/06 A2983 RMK AO2 SLP100 T00720056=
202210230053 METAR KBFI 230053Z 00000KT 10SM SCT050 BKN060 08/07 A2982 RMK AO2 SLP096 T00830067=
202210222353 METAR KBFI 222353Z 17005KT 10SM BKN060 08/07 A2981 RMK AO2 RAE20 SLP094 P0001 60012 T00830072 10111 20083 51013=
202210222253 METAR KBFI 222253Z 16004KT 3SM -RA BR BKN014 BKN043 OVC050 08/07 A2981 RMK AO2 RAE20B41 SLP093 P0002 T00830072=
202210222153 METAR KBFI 222153Z 13006KT 3SM -RA BR BKN014 BKN034 OVC050 09/08 A2979 RMK AO2 SLP086 P0009 T00890078=
202210222053 METAR KBFI 222053Z 17004KT 6SM -RA BR BKN010 BKN014 BKN024 10/08 A2977 RMK AO2 RAB52 SLP082 P0000 60000 T01000078 50003=
202210221953 METAR KBFI 221953Z 16005KT 10SM FEW010 BKN014 BKN024 10/08 A2978 RMK AO2 SLP084 T01000078=
202210221900 SPECI KBFI 221900Z 24004KT 10SM SCT017 BKN026 OVC050 10/08 A2977 RMK AO2 T01000078=
202210221853 METAR KBFI 221853Z 27005KT 10SM SCT014 BKN030 OVC050 10/08 A2977 RMK AO2 SLP082 T01000078=
202210221753 METAR KBFI 221753Z 00000KT 10SM SCT014 BKN030 OVC050 10/07 A2977 RMK AO2 RAE1657 SLP079 P0000 60010 T01000072 10100 20083 51015=
202210221653 METAR KBFI 221653Z 00000KT 10SM -RA SCT025 BKN042 OVC050 09/07 A2976 RMK AO2 RAE18B45 SLP076 P0001 T00940072=
202210221553 METAR KBFI 221553Z 31003KT 4SM RA BR BKN008 BKN015 OVC036 08/08 A2974 RMK AO2 RAB04 SLP072 P0009 T00830078=
202210221517 SPECI KBFI 221517Z 27003KT 5SM -RA BR SCT023 BKN031 OVC039 09/07 A2973 RMK AO2 RAB04 P0001 T00890072=
202210221453 METAR KBFI 221453Z 00000KT 10SM BKN015 BKN027 09/07 A2972 RMK AO2 SLP064 T00890072 53012=
202210221353 METAR KBFI 221353Z 00000KT 10SM BKN015 BKN027 09/07 A2971 RMK AO2 SLP059 T00890072=
202210221253 METAR KBFI 221253Z 00000KT 10SM BKN015 BKN027 09/07 A2969 RMK AO2 SLP055 T00890072=
202210221213 SPECI KBFI 221213Z 00000KT 10SM BKN012 BKN018 OVC050 09/08 A2969 RMK AO2 T00890078=
202210221206 SPECI KBFI 221206Z 00000KT 10SM SCT012 BKN018 OVC050 08/08 A2969 RMK AO2 T00830078=
202210221153 METAR KBFI 221153Z 00000KT 10SM BKN014 BKN025 OVC031 09/08 A2969 RMK AO2 SLP052 60000 70022 T00890078 10094 20072 53003=
202210221053 METAR KBFI 221053Z 00000KT 10SM SCT016 BKN022 OVC029 08/08 A2968 RMK AO2 SLP051 T00830078=
202210221030 SPECI KBFI 221030Z 00000KT 10SM BKN016 BKN028 OVC034 08/07 A2968 RMK AO2 T00830072=
202210220953 METAR KBFI 220953Z 00000KT 10SM FEW020 SCT065 OVC100 07/07 A2968 RMK AO2 SLP049 T00720067=
202210220853 METAR KBFI 220853Z VRB03KT 10SM BR FU SCT065 OVC100 09/07 A2968 RMK AO2 SLP049 60000 T00890067 53004=
202210220753 METAR KBFI 220753Z AUTO 00000KT 10SM BR FU SCT017 BKN031 OVC060 09/08 A2967 RMK AO2 SLP046 T00890078 401220083=
202210220653 METAR KBFI 220653Z 00000KT 10SM BR FU SCT017 BKN031 OVC060 09/07 A2966 RMK AO2 RAB0556E26 SLP044 P0000 T00890072=
202210220553 METAR KBFI 220553Z 00000KT 10SM BR FU BKN032 OVC042 09/07 A2967 RMK AO2 SLP045 60015 T00890072 10089 20083 56007=
202210220453 METAR KBFI 220453Z 00000KT 10SM BR FU SCT021 OVC035 09/08 A2967 RMK AO2 RAE45 SLP045 P0001 T00890078=
202210220435 SPECI KBFI 220435Z VRB03KT 10SM -RA BR FU FEW018 SCT023 OVC031 09/07 A2967 RMK AO2 P0001 T00890072=
202210220356 SPECI KBFI 220356Z 04004KT 10SM -RA BR FU FEW008 SCT014 OVC023 08/07 A2967 RMK AO2 P0000 T00830072=
202210220353 METAR KBFI 220353Z VRB04KT 4SM -RA BR FU BKN012 OVC019 08/08 A2967 RMK AO2 SLP048 P0002 T00830078=
202210220253 METAR KBFI 220253Z 00000KT 4SM -RA BR FU BKN012 OVC019 09/07 A2969 RMK AO2 SLP052 P0002 60012 T00890072 56016=
202210220153 METAR KBFI 220153Z 17003KT 4SM -RA BR FU BKN012 OVC019 08/07 A2970 RMK AO2 SLP057 P0007 T00830072=
202210220053 METAR KBFI 220053Z 17005KT 4SM -RA BR FU BKN012 OVC019 09/07 A2972 RMK AO2 SLP063 P0003 T00890072=
202210212353 METAR KBFI 212353Z 18005KT 10SM -RA FU BKN019 OVC026 09/07 A2973 RMK AO2 SLP068 P0003 60005 T00890072 10111 20089 56028=
202210212253 METAR KBFI 212253Z 16008G17KT 4SM -RA BR FU BKN011 BKN019 OVC026 09/08 A2975 RMK AO2 RAB04 SLP075 P0001 T00890078=
202210212153 METAR KBFI 212153Z 17009G16KT 10SM FU BKN016 BKN019 OVC026 10/08 A2979 RMK AO2 RAE2054B22E31 SLP086 P0000 T01000083=
202210212115 SPECI KBFI 212115Z 20006KT 10SM FU BKN018 BKN026 OVC049 10/08 A2981 RMK AO2 RAE2054 P0000 T01000078=
202210212053 METAR KBFI 212053Z 19007KT 10SM -RA FU FEW018 OVC047 10/08 A2982 RMK AO2 SLP096 P0000 60001 T01000078 58020=
202210211953 METAR KBFI 211953Z 23006G17KT 10SM -RA FU BKN046 OVC055 11/08 A2985 RMK AO2 RAB1857 SLP107 P0001 T01060078=
202210211938 SPECI KBFI 211938Z 23009G18KT 10SM -RA FU SCT023 BKN050 OVC055 11/08 A2985 RMK AO2 RAB1857 P0001 T01060078=
202210211853 METAR KBFI 211853Z 24003KT 10SM FU BKN025 OVC033 11/08 A2986 RMK AO2 RAE17 SLP110 P0000 T01110078=
202210211823 SPECI KBFI 211823Z 00000KT 10SM FU BKN024 OVC050 11/08 A2988 RMK AO2 RAE17 P0000 T01110083=
202210211753 METAR KBFI 211753Z 00000KT 10SM -RA FU FEW026 OVC060 11/08 A2987 RMK AO2 SLP116 P0001 60002 T01060078 10111 20106 58014=
202210211653 METAR KBFI 211653Z 19007KT 7SM -RA FU OVC055 11/08 A2991 RMK AO2 RAB02 SLP129 P0001 T01060078=
202210211553 METAR KBFI 211553Z 15006KT 10SM FU FEW029 BKN049 OVC075 11/07 A2992 RMK AO2 RAB1458E15 SLP132 P0000 T01110067=
202210211453 METAR KBFI 211453Z 15007KT 10SM FU FEW031 BKN080 OVC090 11/06 A2992 RMK AO2 PRESFR SLP130 T01110056 58013=
202210211400 SPECI KBFI 211400Z 16006KT 10SM FU SCT033 OVC100 11/07 A2995 RMK AO2 T01110067=
202210211353 METAR KBFI 211353Z 16007KT 10SM FU OVC026 11/07 A2994 RMK AO2 SLP139 T01110067=
202210211253 METAR KBFI 211253Z 16007KT 10SM FU OVC026 11/06 A2994 RMK AO2 SLP138 T01110061=
202210211153 METAR KBFI 211153Z 15007KT 10SM FU OVC026 11/06 A2995 RMK AO2 SLP143 T01110061 10128 20111 58010=
202210211053 METAR KBFI 211053Z 15006KT 10SM FU OVC026 11/06 A2998 RMK AO2 SLP150 T01110061=
202210210953 METAR KBFI 210953Z AUTO 16006KT 10SM FU BKN028 OVC040 12/06 A3000 RMK AO2 SLP157 T01170056=
202210210853 METAR KBFI 210853Z AUTO 18007KT 10SM FU OVC035 12/06 A2998 RMK AO2 SLP153 T01170056 50001=
202210210753 METAR KBFI 210753Z 16007KT 10SM FU OVC035 12/07 A2999 RMK AO2 SLP156 T01220067 401720072=
202210210653 METAR KBFI 210653Z 16006KT 10SM FU BKN040 OVC047 13/08 A2997 RMK AO2 PRESFR SLP149 T01280078=
202210210553 METAR KBFI 210553Z VRB03KT 10SM FU OVC039 14/09 A2998 RMK AO2 RAB13E23 SLP152 P0000 60000 T01390094 10167 20139 55012=
202210210538 SPECI KBFI 210538Z 16006KT 10SM FU FEW015 SCT024 OVC037 14/11 A2997 RMK AO2 RAB13E23 P0000 T01390106=
202210210453 METAR KBFI 210453Z 16006KT 4SM HZ FU FEW010 BKN020 15/12 A2998 RMK AO2 SLP150 T01500122=
202210210353 METAR KBFI 210353Z 18003KT 6SM HZ FU BKN015 15/12 A3001 RMK AO2 SLP161 T01500122=
202210210314 SPECI KBFI 210314Z 17003KT 5SM HZ FU FEW020 BKN047 OVC060 15/12 A3001 RMK AO2 T01500117=
202210210300 SPECI KBFI 210300Z 00000KT 5SM HZ FU SCT020 BKN029 BKN044 15/12 A3001 RMK AO2 T01500117=
202210210253 METAR KBFI 210253Z 00000KT 4SM HZ FU OVC040 15/12 A3002 RMK AO2 SLP164 T01500117 55007=
202210210153 METAR KBFI 210153Z 16004KT 4SM HZ FU OVC040 16/12 A3001 RMK AO2 SLP163 T01560117=
202210210053 METAR KBFI 210053Z 00000KT 1 1/2SM HZ FU OVC036 16/11 A3001 RMK AO2 SLP162 T01610111=
202210202353 METAR KBFI 202353Z 29003KT 1 1/2SM HZ FU OVC039 17/11 A3004 RMK AO2 SLP171 60000 T01670111 10172 20139 56013=
202210202253 METAR KBFI 202253Z 27004KT 1 1/4SM HZ FU FEW034 OVC050 17/12 A3004 RMK AO2 SLP171 T01670117=
202210202153 METAR KBFI 202153Z 00000KT 1 1/4SM HZ FU BKN055 17/12 A3004 RMK AO2 SLP174 T01670117=
202210202053 METAR KBFI 202053Z 00000KT 1 1/2SM HZ FU OVC055 16/11 A3008 RMK AO2 SLP184 60000 T01560111 58019=
202210201953 METAR KBFI 201953Z 00000KT 1 1/4SM HZ FU BKN060 14/11 A3011 RMK AO2 RAB30E43 SLP194 P0000 T01440111=
202210201853 METAR KBFI 201853Z VRB03KT 1 1/2SM HZ FU BKN060 14/11 A3013 RMK AO2 RAB04E24 SLP202 P0000 T01440106=
202210201753 METAR KBFI 201753Z 16004KT 1 1/2SM HZ FU FEW036 BKN060 OVC100 13/10 A3013 RMK AO2 PRESFR SLP203 T01280100 10128 20072 50005=
202210201653 METAR KBFI 201653Z 00000KT 1 1/2SM HZ FU CLR 12/09 A3014 RMK AO2 SLP206 T01220094=
202210201553 METAR KBFI 201553Z 14003KT 1 1/4SM BR FU CLR 10/09 A3012 RMK AO2 SLP200 T01000089=
202210201500 SPECI KBFI 201500Z 14004KT 1 1/4SM BR FU CLR 09/08 A3012 RMK AO2 T00890083=
202210201453 METAR KBFI 201453Z 16004KT 2SM BR FU CLR 08/08 A3012 RMK AO2 SLP198 T00830078 58010=
202210201353 METAR KBFI 201353Z 00000KT 2SM BR FU CLR 08/08 A3014 RMK AO2 SLP204 T00830083=
202210201253 METAR KBFI 201253Z 00000KT 1 1/2SM BR FU CLR 09/09 A3014 RMK AO2 SLP207 T00940089 $=
202210201153 METAR KBFI 201153Z 15005KT 1 1/2SM BR FU CLR 09/09 A3015 RMK AO2 SLP208 T00890089 10122 20089 58016 $=
202210201053 METAR KBFI 201053Z 00000KT 1 1/2SM BR FU CLR 09/09 A3018 RMK AO2 SLP219 T00940089 $=
202210200953 METAR KBFI 200953Z 15003KT 1 1/2SM BR FU CLR 09/09 A3018 RMK AO2 SLP220 T00940089 $=
202210200853 METAR KBFI 200853Z 00000KT 2SM BR FU CLR 11/09 A3019 RMK AO2 SLP224 T01060094 55008 $=
202210200753 METAR KBFI 200753Z 00000KT 2SM BR FU CLR 11/09 A3019 RMK AO2 SLP223 T01110094 401890083 $=
202210200653 METAR KBFI 200653Z 00000KT 2SM BR FU CLR 12/09 A3020 RMK AO2 SLP227 T01170094=
202210200553 METAR KBFI 200553Z 00000KT 2SM BR FU CLR 12/09 A3022 RMK AO2 SLP232 T01170094 10183 20117 58003=
202210200453 METAR KBFI 200453Z 00000KT 2SM HZ FU CLR 13/10 A3023 RMK AO2 SLP235 T01330100=
202210200353 METAR KBFI 200353Z 00000KT 2SM HZ FU CLR 14/10 A3023 RMK AO2 SLP236 T01390100=
202210200253 METAR KBFI 200253Z 00000KT 2SM HZ FU CLR 15/10 A3023 RMK AO2 SLP236 T01500100 55004=
202210200153 METAR KBFI 200153Z 00000KT 2SM HZ FU CLR 16/11 A3023 RMK AO2 SLP235 T01610106=
202210200053 METAR KBFI 200053Z 00000KT 2SM HZ FU CLR 17/11 A3023 RMK AO2 SLP236 T01720106=
202210192353 METAR KBFI 192353Z 32003KT 1SM HZ FU CLR 18/10 A3024 RMK AO2 SLP240 T01830100 10189 20144 58016=
202210192253 METAR KBFI 192253Z 00000KT 1SM HZ FU CLR 19/11 A3026 RMK AO2 SLP245 T01890106=
202210192153 METAR KBFI 192153Z 29004KT 1 1/2SM HZ FU CLR 18/11 A3028 RMK AO2 SLP252 T01830106=
202210192053 METAR KBFI 192053Z 31005KT 1 1/2SM HZ FU CLR 17/11 A3029 RMK AO2 SLP256 T01720106 58010=
202210192037 SPECI KBFI 192037Z VRB03KT 1 1/2SM HZ FU CLR 17/11 A3030 RMK AO2 T01670106=
202210191953 METAR KBFI 191953Z 32005KT 2 1/2SM HZ FU CLR 16/11 A3031 RMK AO2 SLP263 T01560106=
202210191853 METAR KBFI 191853Z 31004KT 2 1/2SM HZ FU SCT011 SCT034 15/11 A3032 RMK AO2 SLP266 T01500111=
202210191753 METAR KBFI 191753Z 30003KT 2SM HZ FU CLR 14/12 A3032 RMK AO2 SLP267 T01440117 10144 20083 50004=
202210191653 METAR KBFI 191653Z 00000KT 2SM BR FU SCT006 BKN019 13/11 A3033 RMK AO2 SLP269 T01280111=
202210191634 SPECI KBFI 191634Z 00000KT 2SM BR FU SCT006 BKN019 12/11 A3033 RMK AO2 T01220111=
202210191553 METAR KBFI 191553Z 00000KT 4SM BR FU SCT006 BKN019 10/09 A3031 RMK AO2 SLP265 T01000094=
202210191453 METAR KBFI 191453Z 00000KT 4SM BR FU SCT006 09/08 A3031 RMK AO2 SLP263 T00890083 55000=
202210191421 SPECI KBFI 191421Z 00000KT 4SM BR FU SCT006 09/09 A3031 RMK AO2 T00940089=
202210191353 METAR KBFI 191353Z 00000KT 4SM BR FU BKN020 09/08 A3030 RMK AO2 SLP261 T00890083=
202210191253 METAR KBFI 191253Z 00000KT 4SM BR FU SCT020 09/08 A3031 RMK AO2 SLP262 T00940083=
202210191153 METAR KBFI 191153Z 00000KT 4SM BR FU CLR 10/09 A3031 RMK AO2 SLP263 T01000089 10133 20083 50006=
202210191053 METAR KBFI 191053Z 00000KT 4SM BR FU CLR 10/09 A3031 RMK AO2 SLP264 T01000094=
202210190953 METAR KBFI 190953Z 00000KT 5SM BR FU CLR 10/09 A3030 RMK AO2 SLP259 T01000089=
202210190853 METAR KBFI 190853Z 00000KT 5SM BR FU CLR 11/09 A3029 RMK AO2 SLP257 T01060094 53012=
202210190753 METAR KBFI 190753Z 00000KT 5SM BR FU CLR 11/09 A3027 RMK AO2 SLP250 T01110094 401940089=
202210190653 METAR KBFI 190653Z 00000KT 6SM BR FU CLR 12/10 A3026 RMK AO2 SLP247 T01170100=
202210190553 METAR KBFI 190553Z 00000KT 5SM BR FU CLR 12/11 A3026 RMK AO2 SLP246 T01220106 10189 20122 51005=
202210190453 METAR KBFI 190453Z 00000KT 5SM BR FU CLR 13/11 A3025 RMK AO2 SLP245 T01280106=
202210190353 METAR KBFI 190353Z 00000KT 6SM HZ FU CLR 13/10 A3025 RMK AO2 SLP242 T01330100=
202210190253 METAR KBFI 190253Z 00000KT 7SM FU CLR 16/11 A3024 RMK AO2 SLP240 T01560106 53013=
202210190153 METAR KBFI 190153Z 00000KT 6SM HZ FU CLR 17/11 A3023 RMK AO2 SLP235 T01670111=
202210190053 METAR KBFI 190053Z 32003KT 5SM HZ FU CLR 18/11 A3021 RMK AO2 SLP229 T01780111=
202210182353 METAR KBFI 182353Z AUTO 31005KT 9SM FU CLR 19/11 A3021 RMK AO2 SLP228 T01890111 10194 20122 56006=
202210182253 METAR KBFI 182253Z 32005KT 9SM FU CLR 19/12 A3021 RMK AO2 SLP230 T01890117=
202210182153 METAR KBFI 182153Z 29006KT 4SM HZ FU CLR 19/12 A3021 RMK AO2 SLP231 T01890117=
202210182053 METAR KBFI 182053Z 26004KT 4SM HZ FU CLR 18/12 A3022 RMK AO2 SLP234 T01780117 58002=
202210181953 METAR KBFI 181953Z VRB05KT 5SM HZ FU CLR 17/11 A3023 RMK AO2 SLP237 T01670111=
202210181853 METAR KBFI 181853Z 30004KT 4SM HZ FU FEW005 14/11 A3023 RMK AO2 SLP237 T01440111=
202210181848 SPECI KBFI 181848Z VRB03KT 4SM HZ FU FEW005 14/11 A3023 RMK AO2=
202210181753 METAR KBFI 181753Z VRB03KT 2SM BR OVC006 12/12 A3023 RMK AO2 SLP236 T01220117 10122 20089 51005=
202210181653 METAR KBFI 181653Z 00000KT 1 1/2SM BR OVC003 11/11 A3023 RMK AO2 SLP236 T01110111=
202210181553 METAR KBFI 181553Z 16003KT 1 1/2SM BR OVC003 11/11 A3022 RMK AO2 SLP233 T01060106=
202210181453 METAR KBFI 181453Z 14004KT 3SM BR OVC004 11/10 A3021 RMK AO2 SLP231 T01060100 51013=
202210181353 METAR KBFI 181353Z 15003KT 8SM OVC005 10/09 A3020 RMK AO2 SLP227 T01000094=
202210181329 SPECI KBFI 181329Z 14003KT 8SM OVC006 10/09 A3020 RMK AO2 T01000089=
202210181257 SPECI KBFI 181257Z 00000KT 6SM SCT006 09/08 A3019 RMK AO2 T00890083 $=
202210181253 METAR KBFI 181253Z 00000KT 7SM FU CLR 09/08 A3019 RMK AO2 SLP224 T00890083 $=
202210181153 METAR KBFI 181153Z 7SM FU CLR 10/09 A3018 RMK AO2 SLP218 T01000094 10128 20089 53008 $=
202210181053 METAR KBFI 181053Z 00000KT 8SM FU CLR 09/09 A3016 RMK AO2 SLP213 T00940089 $=
202210180953 METAR KBFI 180953Z 00000KT 8SM FU CLR 10/09 A3015 RMK AO2 SLP211 T01000089 $=
202210180853 METAR KBFI 180853Z 00000KT 10SM FU CLR 12/10 A3015 RMK AO2 SLP210 T01170100 53005 $=
202210180753 METAR KBFI 180753Z 00000KT 10SM FU CLR 11/09 A3014 RMK AO2 SLP205 T01110094 402000100 $=
202210180653 METAR KBFI 180653Z 00000KT 10SM FU CLR 12/10 A3014 RMK AO2 SLP204 T01220100 $=
202210180553 METAR KBFI 180553Z 00000KT 10SM FU CLR 12/11 A3014 RMK AO2 SLP205 T01220106 10194 20122 51008 $=
202210180453 METAR KBFI 180453Z 00000KT 10SM FU CLR 13/11 A3013 RMK AO2 SLP204 T01280106 $=
202210180353 METAR KBFI 180353Z 00000KT 10SM FU CLR 14/11 A3013 RMK AO2 SLP201 T01390106 $=
202210180253 METAR KBFI 180253Z 00000KT 10SM FU CLR 15/11 A3011 RMK AO2 SLP197 T01500106 53007 $=
202210180153 METAR KBFI 180153Z 00000KT 10SM FU CLR 17/11 A3010 RMK AO2 SLP193 T01670106 $=
202210180053 METAR KBFI 180053Z 25003KT 10SM FU CLR 18/11 A3009 RMK AO2 SLP189 T01830106 $=
202210172353 METAR KBFI 172353Z 00000KT 10SM FU CLR 19/11 A3009 RMK AO2 SLP189 T01940111 10200 20161 56009 $=
202210172253 METAR KBFI 172253Z VRB03KT 10SM FU CLR 19/11 A3010 RMK AO2 SLP191 T01940111 $=
202210172153 METAR KBFI 172153Z 21003KT 10SM FU BKN050 BKN200 19/11 A3010 RMK AO2 SLP191 T01890111 $=
202210172053 METAR KBFI 172053Z 26005KT 10SM FU CLR 19/11 A3012 RMK AO2 SLP199 T01940111 58009 $=
202210171953 METAR KBFI 171953Z 24005KT 10SM FU CLR 19/11 A3013 RMK AO2 SLP203 T01890111 $=
202210171853 METAR KBFI 171853Z 15007KT 10SM FU CLR 18/11 A3014 RMK AO2 SLP205 T01780111 $=
202210171753 METAR KBFI 171753Z 15007KT 10SM FU CLR 16/11 A3015 RMK AO2 SLP208 T01560111 10156 20100 50004 $=
202210171653 METAR KBFI 171653Z 16008KT 10SM FU SCT030 14/11 A3015 RMK AO2 SLP209 T01390106 $=
202210171553 METAR KBFI 171553Z 14007KT 10SM FU CLR 12/10 A3014 RMK AO2 SLP207 T01170100 $=
202210171453 METAR KBFI 171453Z 13005KT 9SM FU CLR 11/09 A3013 RMK AO2 SLP204 T01060094 53010 $=
202210171353 METAR KBFI 171353Z 15006KT 10SM FU CLR 10/09 A3012 RMK AO2 SLP198 T01000094=
202210171253 METAR KBFI 171253Z 15007KT 10SM FU CLR 10/09 A3011 RMK AO2 SLP195 T01000094 $=
202210171153 METAR KBFI 171153Z 15009KT 10SM FU CLR 11/10 A3010 RMK AO2 SLP193 T01110100 10139 20111 53008 $=
202210171053 METAR KBFI 171053Z 15009KT 10SM FU CLR 12/10 A3010 RMK AO2 SLP191 T01170100 $=
202210170953 METAR KBFI 170953Z 15009KT 10SM FU CLR 12/11 A3009 RMK AO2 SLP188 T01170106 $=
202210170853 METAR KBFI 170853Z 14009KT 10SM FU CLR 12/10 A3008 RMK AO2 SLP186 T01220100 53008 $=
202210170753 METAR KBFI 170753Z 14008KT 10SM FU CLR 13/11 A3007 RMK AO2 SLP182 T01330106 402830094 $=
202210170653 METAR KBFI 170653Z 15008KT 10SM FU CLR 13/11 A3007 RMK AO2 SLP180 T01330106 $=
202210170553 METAR KBFI 170553Z 15008KT 10SM FU CLR 14/11 A3006 RMK AO2 SLP178 T01390106 10267 20139 51026 $=
202210170453 METAR KBFI 170453Z 15009KT 10SM FU CLR 14/11 A3004 RMK AO2 SLP172 T01440106 $=
202210170353 METAR KBFI 170353Z 19006KT 10SM FU CLR 15/11 A3002 RMK AO2 SLP164 T01500106 $=
202210170253 METAR KBFI 170253Z 20008KT 10SM FU CLR 18/11 A2998 RMK AO2 SLP152 T01780106 53035 $=
202210170153 METAR KBFI 170153Z 35004KT 8SM FU CLR 21/07 A2992 RMK AO2 SLP133 T02110067 $=
202210170053 METAR KBFI 170053Z 00000KT 10SM FU CLR 25/07 A2988 RMK AO2 SLP119 T02500067 $=
202210162353 METAR KBFI 162353Z VRB03KT 10SM FU CLR 27/07 A2988 RMK AO2 SLP118 T02670067 10283 20206 56009 $=
202210162253 METAR KBFI 162253Z 31005KT 10SM FU CLR 28/06 A2988 RMK AO2 SLP120 T02830056 $=
202210162153 METAR KBFI 162153Z AUTO 34005KT 10SM FU CLR 28/06 A2989 RMK AO2 SLP123 T02780056 $=
202210162053 METAR KBFI 162053Z 33004KT 10SM FU CLR 27/06 A2991 RMK AO2 SLP127 T02720056 58012 $=
202210161953 METAR KBFI 161953Z 33006KT 10SM FU CLR 25/07 A2993 RMK AO2 SLP134 T02500067 $=
202210161853 METAR KBFI 161853Z VRB03KT 10SM FU CLR 23/08 A2994 RMK AO2 SLP137 T02280083=
202210161753 METAR KBFI 161753Z 32005KT 10SM FU CLR 21/09 A2994 RMK AO2 SLP139 T02060094 10206 20094 50003=
202210161653 METAR KBFI 161653Z 31003KT 10SM FU CLR 17/11 A2994 RMK AO2 SLP139 T01670106=
202210161553 METAR KBFI 161553Z 00000KT 8SM FU CLR 13/11 A2994 RMK AO2 SLP138 T01330106=
202210161453 METAR KBFI 161453Z 00000KT 9SM FU CLR 10/08 A2993 RMK AO2 SLP136 T01000083 51003=
202210161353 METAR KBFI 161353Z 00000KT 10SM FU CLR 10/08 A2993 RMK AO2 SLP136 T01000083=
202210161253 METAR KBFI 161253Z 00000KT 10SM FU CLR 11/09 A2993 RMK AO2 SLP134 T01060089=
202210161153 METAR KBFI 161153Z AUTO 00000KT 9SM FU CLR 11/09 A2993 RMK AO2 SLP133 T01110089 10150 20111 58003=
202210161053 METAR KBFI 161053Z AUTO 00000KT 9SM FU CLR 12/09 A2993 RMK AO2 SLP134 T01170089=
202210160953 METAR KBFI 160953Z 00000KT 8SM FU CLR 12/09 A2994 RMK AO2 SLP138 T01220094=
202210160853 METAR KBFI 160853Z 00000KT 7SM FU CLR 12/09 A2993 RMK AO2 SLP136 T01220094 53002=
202210160753 METAR KBFI 160753Z 00000KT 6SM HZ FU CLR 13/09 A2993 RMK AO2 SLP135 T01280094 402220117=
202210160653 METAR KBFI 160653Z 00000KT 7SM FU CLR 13/09 A2993 RMK AO2 SLP134 T01330094=
202210160553 METAR KBFI 160553Z 00000KT 7SM FU CLR 14/10 A2993 RMK AO2 SLP134 T01440100 10211 20144 51002=
202210160453 METAR KBFI 160453Z 00000KT 6SM HZ FU CLR 16/10 A2993 RMK AO2 SLP134 T01560100=
202210160353 METAR KBFI 160353Z 00000KT 6SM HZ FU CLR 17/10 A2993 RMK AO2 SLP134 T01670100=
202210160253 METAR KBFI 160253Z 31003KT 7SM FU CLR 18/10 A2992 RMK AO2 SLP131 T01780100 53003=
202210160153 METAR KBFI 160153Z 30003KT 7SM FU CLR 18/10 A2991 RMK AO2 SLP129 T01830100=
202210160053 METAR KBFI 160053Z AUTO 31004KT 5SM HZ FU CLR 20/11 A2991 RMK AO2 SLP127 T02000106=
202210152353 METAR KBFI 152353Z 31005KT 6SM HZ FU CLR 21/11 A2991 RMK AO2 SLP128 T02110106 10222 20178 56011=
202210152253 METAR KBFI 152253Z 33005KT 6SM HZ FU CLR 22/11 A2992 RMK AO2 SLP130 T02170106=
202210152153 METAR KBFI 152153Z 31005KT 5SM HZ FU CLR 22/11 A2992 RMK AO2 SLP132 T02170106=
202210152053 METAR KBFI 152053Z 33006KT 5SM HZ FU CLR 21/11 A2994 RMK AO2 SLP139 T02060106 58015=
202210151953 METAR KBFI 151953Z 31007KT 5SM HZ FU CLR 20/11 A2996 RMK AO2 SLP146 T02000106=
202210151853 METAR KBFI 151853Z 30007KT 5SM HZ FU CLR 20/11 A2998 RMK AO2 SLP152 T02000106=
202210151753 METAR KBFI 151753Z 04003KT 5SM HZ FU CLR 18/11 A2999 RMK AO2 SLP154 T01830111 10183 20117 58000=
202210151653 METAR KBFI 151653Z 00000KT 5SM HZ FU CLR 16/11 A2999 RMK AO2 SLP156 T01610111=
202210151553 METAR KBFI 151553Z VRB04KT 4SM HZ FU CLR 14/11 A2999 RMK AO2 SLP155 T01390106=
202210151453 METAR KBFI 151453Z VRB03KT 4SM HZ FU CLR 13/10 A2999 RMK AO2 SLP155 T01280100 51005=
202210151353 METAR KBFI 151353Z 32003KT 4SM HZ FU CLR 13/10 A2998 RMK AO2 SLP152 T01280100=
202210151253 METAR KBFI 151253Z 00000KT 4SM HZ FU CLR 13/09 A2998 RMK AO2 SLP152 T01280094=
202210151153 METAR KBFI 151153Z VRB03KT 5SM HZ FU CLR 13/10 A2997 RMK AO2 SLP149 T01330100 10150 20133 52002=
202210151053 METAR KBFI 151053Z 00000KT 8SM FU CLR 13/11 A2997 RMK AO2 SLP149 T01330106=
202210150953 METAR KBFI 150953Z 00000KT 8SM FU CLR 14/10 A2997 RMK AO2 SLP148 T01390100=
202210150853 METAR KBFI 150853Z 00000KT 9SM FU CLR 14/09 A2997 RMK AO2 SLP147 T01390094 56005=
202210150753 METAR KBFI 150753Z 31004KT 10SM FU CLR 14/11 A2997 RMK AO2 SLP147 T01390106 402170083=
202210150653 METAR KBFI 150653Z 31003KT 10SM FU CLR 13/10 A2998 RMK AO2 SLP150 T01330100=
202210150553 METAR KBFI 150553Z AUTO 00000KT 10SM FU CLR 14/10 A2998 RMK AO2 SLP152 T01440100 10206 20139 53003=
202210150453 METAR KBFI 150453Z 00000KT 10SM FU CLR 16/10 A2998 RMK AO2 SLP153 T01560100=
202210150353 METAR KBFI 150353Z 00000KT 10SM FU CLR 15/10 A2997 RMK AO2 SLP149 T01500100=
202210150253 METAR KBFI 150253Z 00000KT 10SM FU CLR 17/10 A2997 RMK AO2 SLP149 T01670100 55000=
202210150153 METAR KBFI 150153Z 32004KT 10SM FU CLR 18/10 A2996 RMK AO2 SLP144 T01780100=
202210150053 METAR KBFI 150053Z 31005KT 10SM FU CLR 21/08 A2996 RMK AO2 SLP144 T02060083=
202210142353 METAR KBFI 142353Z 31005KT 10SM FU CLR 21/10 A2997 RMK AO2 SLP149 T02060100 10217 20156 56015=
202210142253 METAR KBFI 142253Z VRB05KT 10SM FU CLR 22/11 A2998 RMK AO2 SLP152 T02170106=
202210142153 METAR KBFI 142153Z VRB03KT 10SM FU CLR 22/11 A2999 RMK AO2 SLP156 T02170106=
202210142053 METAR KBFI 142053Z 33005KT 10SM FU SCT200 20/10 A3002 RMK AO2 SLP164 T02000100 58014=
202210141953 METAR KBFI 141953Z 31007KT 10SM FU CLR 19/10 A3004 RMK AO2 SLP171 T01940100=
202210141853 METAR KBFI 141853Z VRB03KT 7SM FU CLR 17/11 A3005 RMK AO2 SLP175 T01720111=
202210141753 METAR KBFI 141753Z 00000KT 4SM HZ FU CLR 15/11 A3006 RMK AO2 SLP178 T01500111 10156 20083 58005=
202210141653 METAR KBFI 141653Z 17003KT 4SM BR FU CLR 13/11 A3007 RMK AO2 SLP180 T01280106=
202210141553 METAR KBFI 141553Z 00000KT 5SM BR FU CLR 11/09 A3007 RMK AO2 SLP182 T01060094=
202210141453 METAR KBFI 141453Z 00000KT 3SM BR FU CLR 09/08 A3007 RMK AO2 SLP183 T00890083 53001=
202210141353 METAR KBFI 141353Z 15003KT 4SM BR FU CLR 08/08 A3007 RMK AO2 SLP182 T00830078=
202210141253 METAR KBFI 141253Z 00000KT 5SM BR CLR 09/08 A3006 RMK AO2 SLP180 T00890083=
202210141153 METAR KBFI 141153Z 00000KT 6SM BR CLR 10/08 A3007 RMK AO2 SLP182 T01000083 10139 20094 58002=
202210141053 METAR KBFI 141053Z 00000KT 5SM BR CLR 10/09 A3007 RMK AO2 SLP183 T01000089=
202210140953 METAR KBFI 140953Z 00000KT 7SM CLR 11/09 A3008 RMK AO2 SLP185 T01060089=
202210140853 METAR KBFI 140853Z AUTO 00000KT 10SM CLR 11/09 A3008 RMK AO2 SLP185 T01110089 58002=
202210140753 METAR KBFI 140753Z 00000KT 7SM CLR 12/09 A3008 RMK AO2 SLP185 T01170094 402220083=
202210140653 METAR KBFI 140653Z 00000KT 7SM CLR 13/10 A3009 RMK AO2 SLP188 T01280100=
202210140553 METAR KBFI 140553Z 00000KT 7SM CLR 14/09 A3008 RMK AO2 SLP186 T01390094 10211 20133 55003=
202210140453 METAR KBFI 140453Z 00000KT 5SM HZ CLR 14/09 A3008 RMK AO2 SLP185 T01390089=
202210140353 METAR KBFI 140353Z 00000KT 5SM HZ CLR 15/08 A3008 RMK AO2 SLP185 T01500083=
202210140253 METAR KBFI 140253Z 00000KT 6SM HZ CLR 17/09 A3009 RMK AO2 SLP190 T01670094 53003=
202210140153 METAR KBFI 140153Z 00000KT 5SM HZ CLR 18/09 A3008 RMK AO2 SLP185 T01830094=
202210140053 METAR KBFI 140053Z 32005KT 5SM HZ CLR 20/09 A3008 RMK AO2 SLP184 T02000094=
202210132353 METAR KBFI 132353Z 32004KT 6SM HZ CLR 21/10 A3008 RMK AO2 SLP187 T02110100 10222 20150 56022=
202210132253 METAR KBFI 132253Z VRB05KT 5SM HZ CLR 22/10 A3010 RMK AO2 SLP192 T02170100=
202210132153 METAR KBFI 132153Z 32006KT 6SM HZ CLR 21/09 A3013 RMK AO2 SLP201 T02060094=
202210132053 METAR KBFI 132053Z 33006KT 6SM HZ CLR 20/09 A3015 RMK AO2 SLP209 T02000094 56016=
202210131953 METAR KBFI 131953Z 33005KT 10SM CLR 19/11 A3016 RMK AO2 SLP212 T01890111=
202210131853 METAR KBFI 131853Z VRB03KT 8SM CLR 18/11 A3018 RMK AO2 SLP220 T01780111=
202210131753 METAR KBFI 131753Z 00000KT 8SM CLR 15/11 A3020 RMK AO2 SLP225 T01500106 10150 20083 58001=
202210131653 METAR KBFI 131653Z 00000KT 8SM CLR 13/11 A3021 RMK AO2 SLP229 T01330106=
202210131553 METAR KBFI 131553Z 15004KT 6SM BR CLR 10/09 A3020 RMK AO2 SLP228 T01000094=
202210131453 METAR KBFI 131453Z 14004KT 9SM CLR 08/08 A3020 RMK AO2 SLP225 T00830078 53002=
202210131353 METAR KBFI 131353Z 00000KT 10SM CLR 09/08 A3019 RMK AO2 SLP222 T00890078=
202210131253 METAR KBFI 131253Z 00000KT 10SM CLR 09/08 A3019 RMK AO2 SLP223 T00940083=
202210131153 METAR KBFI 131153Z 00000KT 10SM CLR 10/09 A3019 RMK AO2 SLP223 T01000089 10128 20100 55001=
202210131053 METAR KBFI 131053Z 00000KT 10SM CLR 10/09 A3019 RMK AO2 SLP223 T01000089=
202210130953 METAR KBFI 130953Z 00000KT 10SM CLR 10/09 A3019 RMK AO2 SLP223 T01000089=
202210130853 METAR KBFI 130853Z 00000KT 10SM CLR 11/09 A3019 RMK AO2 SLP224 T01110094 58001=
202210130753 METAR KBFI 130753Z 00000KT 10SM CLR 12/09 A3020 RMK AO2 SLP226 T01170094 401890100=
202210130653 METAR KBFI 130653Z 00000KT 10SM CLR 12/09 A3020 RMK AO2 SLP226 T01220089=
202210130553 METAR KBFI 130553Z 00000KT 10SM CLR 13/09 A3020 RMK AO2 SLP225 T01280094 10183 20128 52002=
202210130453 METAR KBFI 130453Z 00000KT 10SM CLR 13/09 A3019 RMK AO2 SLP224 T01330094=
202210130353 METAR KBFI 130353Z 00000KT 10SM CLR 14/09 A3019 RMK AO2 SLP224 T01440094=
202210130253 METAR KBFI 130253Z 29004KT 10SM CLR 15/09 A3019 RMK AO2 SLP223 T01500094 53001=
202210130153 METAR KBFI 130153Z 31003KT 10SM CLR 16/09 A3018 RMK AO2 SLP221 T01610094=
202210130053 METAR KBFI 130053Z 31005KT 10SM CLR 17/09 A3019 RMK AO2 SLP221 T01720094=
202210122353 METAR KBFI 122353Z 30006KT 10SM CLR 18/09 A3019 RMK AO2 SLP222 T01830094 10189 20156 56010=
202210122253 METAR KBFI 122253Z 31007KT 10SM CLR 19/10 A3019 RMK AO2 SLP224 T01890100=
202210122153 METAR KBFI 122153Z 31006KT 10SM CLR 19/09 A3020 RMK AO2 SLP227 T01890094=
202210122053 METAR KBFI 122053Z 30008KT 10SM CLR 18/09 A3022 RMK AO2 SLP232 T01830089 58015=
202210121953 METAR KBFI 121953Z 33007KT 10SM SCT030 BKN200 17/09 A3023 RMK AO2 SLP237 T01720089=
202210121853 METAR KBFI 121853Z 30007KT 10SM CLR 17/09 A3025 RMK AO2 SLP242 T01670089=
202210121753 METAR KBFI 121753Z 05005KT 10SM CLR 16/09 A3026 RMK AO2 SLP246 T01560089 10156 20100 50002=
202210121653 METAR KBFI 121653Z 00000KT 10SM CLR 14/09 A3027 RMK AO2 SLP248 T01440089=
202210121553 METAR KBFI 121553Z 36003KT 10SM CLR 13/08 A3026 RMK AO2 SLP245 T01280083=
202210121453 METAR KBFI 121453Z 00000KT 10SM CLR 11/08 A3025 RMK AO2 SLP244 T01110083 51009=
202210121353 METAR KBFI 121353Z 00000KT 10SM CLR 10/08 A3025 RMK AO2 SLP242 T01000078=
202210121253 METAR KBFI 121253Z 00000KT 10SM CLR 11/08 A3024 RMK AO2 SLP240 T01110083=
202210121153 METAR KBFI 121153Z 00000KT 10SM CLR 11/08 A3023 RMK AO2 SLP236 T01060078 10128 20106 55001=
202210121053 METAR KBFI 121053Z 28003KT 10SM CLR 11/08 A3022 RMK AO2 SLP233 T01060078=
202210120953 METAR KBFI 120953Z 00000KT 10SM CLR 12/08 A3023 RMK AO2 SLP235 T01220083=
202210120853 METAR KBFI 120853Z 00000KT 10SM CLR 12/08 A3023 RMK AO2 SLP237 T01220078 50005=
202210120753 METAR KBFI 120753Z 00000KT 10SM CLR 12/08 A3023 RMK AO2 SLP237 T01170078 401940094=
202210120653 METAR KBFI 120653Z 35003KT 10SM CLR 13/08 A3023 RMK AO2 SLP236 T01280083=
202210120553 METAR KBFI 120553Z 00000KT 10SM CLR 13/07 A3022 RMK AO2 SLP232 T01280072 10189 20128 51010=
202210120453 METAR KBFI 120453Z 00000KT 10SM CLR 14/07 A3021 RMK AO2 SLP229 T01390072=
202210120353 METAR KBFI 120353Z 00000KT 10SM CLR 14/08 A3020 RMK AO2 SLP226 T01440078=
202210120253 METAR KBFI 120253Z 00000KT 10SM CLR 15/07 A3019 RMK AO2 SLP222 T01500072 53004=
202210120153 METAR KBFI 120153Z 33004KT 10SM CLR 17/07 A3018 RMK AO2 SLP218 T01670072=
202210120053 METAR KBFI 120053Z 32004KT 10SM CLR 18/07 A3017 RMK AO2 SLP216 T01780072=
202210112353 METAR KBFI 112353Z 30006KT 10SM CLR 19/08 A3018 RMK AO2 SLP218 T01890078 10194 20150 58008=
202210112253 METAR KBFI 112253Z AUTO 31007KT 10SM CLR 18/07 A3019 RMK AO2 SLP223 T01830067=
202210112153 METAR KBFI 112153Z AUTO VRB05KT 10SM CLR 18/08 A3020 RMK AO2 SLP224 T01780078=
202210112053 METAR KBFI 112053Z 33006KT 10SM CLR 18/09 A3020 RMK AO2 SLP226 T01830094 58011=
202210111953 METAR KBFI 111953Z 34004KT 10SM CLR 17/09 A3022 RMK AO2 SLP232 T01720094=
202210111853 METAR KBFI 111853Z VRB05KT 10SM FEW015 16/09 A3023 RMK AO2 SLP236 T01610094=
202210111753 METAR KBFI 111753Z VRB04KT 10SM CLR 15/10 A3023 RMK AO2 SLP237 T01500100 10150 20094 51013=
202210111653 METAR KBFI 111653Z VRB04KT 10SM SCT014 14/11 A3023 RMK AO2 SLP235 T01440106=
202210111553 METAR KBFI 111553Z 00000KT 10SM CLR 12/10 A3020 RMK AO2 SLP228 T01220100=
202210111453 METAR KBFI 111453Z 00000KT 10SM CLR 10/08 A3019 RMK AO2 SLP224 T01000083 50006=
202210111353 METAR KBFI 111353Z 00000KT 10SM CLR 10/08 A3020 RMK AO2 SLP226 T01000078=
202210111253 METAR KBFI 111253Z 00000KT 10SM CLR 11/09 A3020 RMK AO2 SLP225 T01060089 $=
202210111153 METAR KBFI 111153Z 15004KT 10SM FEW030 11/08 A3018 RMK AO2 SLP218 T01060083 10156 20100 53014 $=
202210111053 METAR KBFI 111053Z 11003KT 10SM CLR 12/09 A3015 RMK AO2 SLP209 T01220089 $=
202210110953 METAR KBFI 110953Z 00000KT 10SM SCT060 13/08 A3014 RMK AO2 SLP207 T01280083 $=
202210110853 METAR KBFI 110853Z 18003KT 10SM OVC046 13/09 A3013 RMK AO2 SLP203 T01280094 51027 $=
202210110753 METAR KBFI 110753Z 19006KT 10SM OVC034 13/09 A3011 RMK AO2 SLP196 T01330094 402110094 $=
202210110731 SPECI KBFI 110731Z 17009KT 10SM SCT027 OVC034 14/12 A3011 RMK AO2 T01390117 $=
202210110653 METAR KBFI 110653Z 00000KT 10SM OVC027 15/08 A3010 RMK AO2 SLP192 T01500083 $=
202210110553 METAR KBFI 110553Z 07003KT 10SM OVC026 16/08 A3005 RMK AO2 SLP177 T01560083 10200 20150 51020 $=
202210110453 METAR KBFI 110453Z 06006KT 10SM OVC025 15/11 A3004 RMK AO2 SLP170 T01500106 $=
202210110422 SPECI KBFI 110422Z 00000KT 10SM OVC029 15/11 A3002 RMK AO2 T01500106 $=
202210110353 METAR KBFI 110353Z VRB04KT 10SM OVC031 15/10 A3003 RMK AO2 SLP168 T01500100 $=
202210110253 METAR KBFI 110253Z VRB06KT 10SM OVC032 17/13 A3000 RMK AO2 SLP157 T01720128 53000 $=
202210110153 METAR KBFI 110153Z 00000KT 10SM CLR 18/12 A2998 RMK AO2 SLP152 T01830122 $=
202210110053 METAR KBFI 110053Z 00000KT 10SM FEW050 19/12 A2999 RMK AO2 SLP155 T01940122 $=
202210102353 METAR KBFI 102353Z 00000KT 10SM CLR 20/12 A2999 RMK AO2 SLP156 T02000122 10211 20178 56013 $=
202210102253 METAR KBFI 102253Z 18006KT 10SM FEW100 19/12 A2999 RMK AO2 SLP157 T01940122 $=
202210102153 METAR KBFI 102153Z 20007G14KT 10SM FU BKN100 21/12 A3000 RMK AO2 SLP158 T02060117 $=
202210102053 METAR KBFI 102053Z VRB04KT 10SM FU FEW120 20/12 A3003 RMK AO2 SLP169 T02000117 56008 $=
202210101953 METAR KBFI 101953Z 20007KT 10SM FU CLR 20/12 A3003 RMK AO2 SLP169 T02000122 $=
202210101853 METAR KBFI 101853Z VRB04KT 9SM FU CLR 20/12 A3005 RMK AO2 SLP174 T02000122 $=
202210101753 METAR KBFI 101753Z AUTO 15005KT 7SM FU CLR 18/12 A3006 RMK AO2 SLP177 T01780117 10178 20094 58003 $=
202210101653 METAR KBFI 101653Z 13007KT 6SM HZ FU CLR 16/11 A3006 RMK AO2 SLP178 T01560111 $=
202210101553 METAR KBFI 101553Z 16007KT 6SM BR FU CLR 12/11 A3006 RMK AO2 SLP180 T01220111 $=
202210101453 METAR KBFI 101453Z 15006KT 4SM BR FU CLR 10/09 A3007 RMK AO2 SLP181 T01000094 58001 $=
202210101353 METAR KBFI 101353Z 12003KT 5SM BR FU CLR 11/10 A3007 RMK AO2 SLP183 T01060100 $=
202210101253 METAR KBFI 101253Z 00000KT 5SM BR FU CLR 11/11 A3007 RMK AO2 SLP182 T01110106 $=
202210101153 METAR KBFI 101153Z 13004KT 6SM BR FU CLR 11/11 A3007 RMK AO2 SLP182 T01110106 10144 20100 58004 $=
202210101053 METAR KBFI 101053Z 00000KT 6SM BR FU CLR 12/11 A3008 RMK AO2 SLP187 T01170106 $=
202210100953 METAR KBFI 100953Z 00000KT 7SM FU CLR 12/11 A3009 RMK AO2 SLP188 T01170106 $=
202210100853 METAR KBFI 100853Z 00000KT 7SM FU CLR 12/11 A3008 RMK AO2 SLP186 T01170106 56002 $=
202210100753 METAR KBFI 100753Z 00000KT 7SM FU CLR 13/11 A3008 RMK AO2 SLP186 T01280111 402280106 $=
202210100653 METAR KBFI 100653Z 00000KT 8SM FU CLR 13/10 A3008 RMK AO2 SLP187 T01330100 $=
202210100553 METAR KBFI 100553Z 14003KT 8SM FU CLR 14/11 A3009 RMK AO2 SLP189 T01440106 10217 20144 54000 $=
202210100453 METAR KBFI 100453Z 00000KT 8SM FU CLR 15/11 A3009 RMK AO2 SLP189 T01500106 $=
202210100353 METAR KBFI 100353Z 00000KT 8SM FU CLR 16/11 A3009 RMK AO2 SLP188 T01610106 $=
202210100253 METAR KBFI 100253Z 00000KT 10SM FU CLR 18/11 A3009 RMK AO2 SLP189 T01780106 53001 $=
202210100153 METAR KBFI 100153Z 00000KT 10SM FU CLR 19/11 A3008 RMK AO2 SLP186 T01940106 $=
202210100053 METAR KBFI 100053Z 30003KT 8SM FU CLR 21/11 A3008 RMK AO2 SLP187 T02060111 $=
202210092353 METAR KBFI 092353Z 33005KT 7SM FU CLR 22/11 A3009 RMK AO2 SLP187 T02170111 10228 20172 56017 $=
202210092253 METAR KBFI 092253Z 33005KT 8SM FU CLR 22/12 A3010 RMK AO2 SLP193 T02220122 $=
202210092153 METAR KBFI 092153Z 31006KT 9SM FU CLR 22/12 A3011 RMK AO2 SLP197 T02170122 $=
202210092053 METAR KBFI 092053Z 29006KT 10SM FU CLR 22/13 A3014 RMK AO2 SLP204 T02170128 58008 $=
202210091953 METAR KBFI 091953Z 30005KT 10SM FU CLR 20/13 A3016 RMK AO2 SLP211 T02000128 $=
202210091853 METAR KBFI 091853Z 31003KT 4SM HZ FU CLR 18/13 A3016 RMK AO2 SLP213 T01830128 $=
202210091753 METAR KBFI 091753Z VRB03KT 4SM HZ FU CLR 18/13 A3016 RMK AO2 SLP213 T01780128 10178 20106 50003 $=
202210091653 METAR KBFI 091653Z 00000KT 5SM HZ FU CLR 15/12 A3016 RMK AO2 SLP213 T01500122 $=
202210091553 METAR KBFI 091553Z 00000KT 5SM BR FU BKN009 12/12 A3016 RMK AO2 SLP213 T01220117 $=
202210091453 METAR KBFI 091453Z 00000KT 6SM BR FU CLR 11/10 A3015 RMK AO2 SLP210 T01060100 53004 $=
202210091353 METAR KBFI 091353Z 00000KT 6SM BR FU CLR 11/11 A3015 RMK AO2 SLP208 T01110106 $=
202210091253 METAR KBFI 091253Z 15003KT 7SM FU CLR 11/10 A3014 RMK AO2 SLP206 T01060100 $=
202210091153 METAR KBFI 091153Z 00000KT 7SM FU CLR 11/10 A3014 RMK AO2 SLP206 T01110100 10161 20111 53003 $=
202210091053 METAR KBFI 091053Z 00000KT 7SM FU CLR 12/11 A3013 RMK AO2 SLP203 T01220111 $=
202210090953 METAR KBFI 090953Z 00000KT 8SM FU CLR 13/11 A3013 RMK AO2 SLP204 T01280111 $=
202210090853 METAR KBFI 090853Z 00000KT 9SM FU CLR 13/11 A3013 RMK AO2 SLP203 T01280106 53003 $=
202210090753 METAR KBFI 090753Z 00000KT 9SM FU CLR 14/12 A3013 RMK AO2 SLP202 T01390117 402330117 $=
202210090653 METAR KBFI 090653Z 00000KT 9SM FU CLR 15/11 A3012 RMK AO2 SLP200 T01500111 $=
202210090553 METAR KBFI 090553Z 00000KT 10SM FU CLR 16/12 A3012 RMK AO2 SLP200 T01610117 10222 20156 53006 $=
202210090453 METAR KBFI 090453Z 00000KT 9SM FU CLR 16/12 A3012 RMK AO2 SLP197 T01610117 $=
202210090353 METAR KBFI 090353Z 00000KT 10SM FU CLR 17/12 A3011 RMK AO2 SLP195 T01670117 $=
202210090253 METAR KBFI 090253Z AUTO 00000KT 10SM FU CLR 18/12 A3011 RMK AO2 SLP194 T01780117 53001 $=
202210090153 METAR KBFI 090153Z 00000KT 10SM FU CLR 19/12 A3010 RMK AO2 SLP192 T01890117 $=
202210090053 METAR KBFI 090053Z 32004KT 9SM FU CLR 21/12 A3010 RMK AO2 SLP191 T02060117 $=
202210082353 METAR KBFI 082353Z 32006KT 6SM HZ FU CLR 22/11 A3010 RMK AO2 SLP193 T02220111 10233 20172 56015 $=
202210082253 METAR KBFI 082253Z 31005KT 9SM FU CLR 23/11 A3011 RMK AO2 SLP196 T02280111 $=
202210082153 METAR KBFI 082153Z 30005KT 10SM FU CLR 22/12 A3013 RMK AO2 SLP202 T02220117 $=
202210082053 METAR KBFI 082053Z 30007KT 10SM FU CLR 22/13 A3015 RMK AO2 SLP208 T02170128 58019 $=
202210081953 METAR KBFI 081953Z 30004KT 10SM FU CLR 21/13 A3017 RMK AO2 SLP216 T02060128=
202210081853 METAR KBFI 081853Z 29005KT 10SM FU CLR 19/13 A3019 RMK AO2 SLP221 T01890128=
202210081753 METAR KBFI 081753Z 00000KT 10SM FU CLR 17/13 A3020 RMK AO2 SLP227 T01720128 10172 20117 50002=
202210081653 METAR KBFI 081653Z 00000KT 10SM FU CLR 15/13 A3021 RMK AO2 SLP229 T01500128=
202210081553 METAR KBFI 081553Z 00000KT 9SM FU CLR 13/12 A3021 RMK AO2 SLP228 T01330122 $=
202210081453 METAR KBFI 081453Z 00000KT 9SM FU CLR 12/11 A3020 RMK AO2 SLP225 T01170111 51004 $=
202210081353 METAR KBFI 081353Z 00000KT 10SM FU CLR 12/11 A3019 RMK AO2 SLP224 T01220111 $=
202210081253 METAR KBFI 081253Z 00000KT 4SM BR FU CLR 12/11 A3019 RMK AO2 SLP223 T01170111 $=
202210081153 METAR KBFI 081153Z AUTO 00000KT 8SM FU CLR 12/11 A3019 RMK AO2 SLP221 T01220111 10161 20117 58001 $=
202210081053 METAR KBFI 081053Z 00000KT 8SM FU CLR 12/11 A3019 RMK AO2 SLP222 T01220111 $=
202210080953 METAR KBFI 080953Z 00000KT 9SM FU CLR 13/12 A3019 RMK AO2 SLP221 T01330117 $=
202210080853 METAR KBFI 080853Z 00000KT 9SM FU CLR 14/12 A3019 RMK AO2 SLP222 T01390117 51002 $=
202210080753 METAR KBFI 080753Z FU CLR 15/12 A3018 RMK AO2 SLP220 T01500117 402390117 $=
202210080653 METAR KBFI 080653Z 34003KT 10SM FU CLR 16/12 A3018 RMK AO2 SLP221 T01560117=
202210080553 METAR KBFI 080553Z 00000KT 9SM CLR 16/12 A3018 RMK AO2 SLP219 T01610117 10233 20161 53010=
202210080453 METAR KBFI 080453Z 00000KT 8SM CLR 17/11 A3017 RMK AO2 SLP215 T01670111=
202210080353 METAR KBFI 080353Z 00000KT 9SM CLR 18/11 A3016 RMK AO2 SLP212 T01780111=
202210080153 METAR KBFI 080153Z 00000KT 9SM CLR 21/11 A3014 RMK AO2 SLP204 T02060111=
202210080053 METAR KBFI 080053Z VRB03KT 10SM CLR 22/11 A3013 RMK AO2 SLP203 T02220111=
202210072353 METAR KBFI 072353Z 33006KT 10SM CLR 23/12 A3014 RMK AO2 SLP206 T02330117 10239 20189 56012=
202210072253 METAR KBFI 072253Z 31005KT 10SM CLR 24/12 A3015 RMK AO2 SLP208 T02390122=
202210072153 METAR KBFI 072153Z 32007KT 10SM CLR 23/12 A3016 RMK AO2 SLP212 T02280122=
202210072053 METAR KBFI 072053Z 32007KT 280V340 10SM CLR 22/13 A3017 RMK AO2 SLP217 T02170128 58015=
202210071953 METAR KBFI 071953Z 30005KT 7SM CLR 21/14 A3019 RMK AO2 SLP223 T02110139=
202210071853 METAR KBFI 071853Z 29005KT 6SM HZ CLR 19/13 A3021 RMK AO2 SLP228 T01940133=
202210071753 METAR KBFI 071753Z 00000KT 6SM HZ CLR 19/14 A3022 RMK AO2 SLP231 T01890139 10189 20117 50002=
202210071653 METAR KBFI 071653Z 00000KT 5SM BR CLR 16/13 A3022 RMK AO2 SLP232 T01560133=
202210071553 METAR KBFI 071553Z 00000KT 4SM BR CLR 14/13 A3022 RMK AO2 SLP232 T01390128=
202210071453 METAR KBFI 071453Z 00000KT 4SM BR CLR 12/12 A3021 RMK AO2 SLP229 T01220117 53010=
202210071353 METAR KBFI 071353Z 00000KT 6SM BR SCT200 12/12 A3020 RMK AO2 SLP226 T01220117=
202210071253 METAR KBFI 071253Z 00000KT 7SM CLR 13/12 A3019 RMK AO2 SLP222 T01280117=
202210071153 METAR KBFI 071153Z 00000KT 7SM CLR 13/12 A3018 RMK AO2 SLP219 T01280117 10161 20128 51011=
202210071053 METAR KBFI 071053Z 00000KT 6SM BR CLR 13/12 A3017 RMK AO2 SLP216 T01330122=
202210070953 METAR KBFI 070953Z 00000KT 9SM HZ CLR 13/12 A3016 RMK AO2 SLP212 T01330122=
202210070853 METAR KBFI 070853Z 00000KT 10SM HZ CLR 14/12 A3015 RMK AO2 SLP207 T01390122 53007=
202210070753 METAR KBFI 070753Z 00000KT 10SM HZ CLR 14/12 A3013 RMK AO2 SLP204 T01440122 402220111=
202210070653 METAR KBFI 070653Z 00000KT 10SM HZ CLR 16/13 A3013 RMK AO2 SLP202 T01560128=
202210070553 METAR KBFI 070553Z 00000KT 10SM HZ CLR 16/13 A3012 RMK AO2 SLP200 T01610128 10217 20161 52009=
202210070453 METAR KBFI 070453Z 00000KT 10SM HZ CLR 17/13 A3011 RMK AO2 SLP197 T01670128=
202210070353 METAR KBFI 070353Z 31003KT 10SM HZ CLR 18/13 A3011 RMK AO2 SLP194 T01780128=
202210070253 METAR KBFI 070253Z AUTO 30003KT 10SM HZ CLR 18/13 A3010 RMK AO2 SLP191 T01830128 53002=
202210070153 METAR KBFI 070153Z 31003KT 7SM HZ CLR 19/13 A3008 RMK AO2 SLP187 T01940128=
202210070053 METAR KBFI 070053Z 30003KT 10SM HZ CLR 21/13 A3008 RMK AO2 SLP185 T02060128=
202210062353 METAR KBFI 062353Z 32005KT 6SM HZ CLR 22/13 A3009 RMK AO2 SLP188 T02170128 10222 20156 56015=
202210062253 METAR KBFI 062253Z 30005KT 9SM CLR 22/13 A3010 RMK AO2 SLP191 T02170133=
202210062153 METAR KBFI 062153Z 31005KT 9SM CLR 21/13 A3011 RMK AO2 SLP196 T02110133=
202210062053 METAR KBFI 062053Z 30004KT 8SM CLR 20/13 A3013 RMK AO2 SLP203 T02000133 58015=
202210061953 METAR KBFI 061953Z VRB03KT 9SM CLR 19/13 A3015 RMK AO2 SLP210 T01890133=
202210061900 SPECI KBFI 061900Z 06005KT 8SM CLR 17/13 A3016 RMK AO2 T01720133=
202210061853 METAR KBFI 061853Z VRB04KT 6SM HZ BKN013 17/13 A3017 RMK AO2 SLP214 T01670133=
202210061827 SPECI KBFI 061827Z 00000KT 6SM HZ BKN013 17/13 A3017 RMK AO2 T01670128=
202210061753 METAR KBFI 061753Z 00000KT 7SM OVC009 16/13 A3018 RMK AO2 CIG 009V013 SLP218 T01560128 10156 20122 50000=
202210061653 METAR KBFI 061653Z 29004KT 5SM BR OVC005 14/12 A3018 RMK AO2 SLP218 T01390122=
202210061553 METAR KBFI 061553Z 29003KT 3SM BR OVC005 14/13 A3018 RMK AO2 SLP219 T01390133=
202210061500 SPECI KBFI 061500Z 00000KT 3SM BR OVC005 14/13 A3017 RMK AO2 T01390128=
202210061453 METAR KBFI 061453Z 00000KT 2SM BR OVC005 13/13 A3017 RMK AO2 SLP218 T01330128 53000=
202210061400 SPECI KBFI 061400Z 00000KT 2SM BR OVC005 13/13 A3017 RMK AO2 T01330128=
202210061353 METAR KBFI 061353Z 00000KT 2SM BR VV004 13/13 A3017 RMK AO2 SLP214 T01330128=
202210061253 METAR KBFI 061253Z 00000KT 2SM BR VV004 13/13 A3017 RMK AO2 SLP215 T01280128=
202210061153 METAR KBFI 061153Z VRB03KT 1SM BR VV004 12/12 A3017 RMK AO2 SLP217 T01220122 10133 20111 50000=
202210061112 SPECI KBFI 061112Z 15003KT 1SM FG VV002 12/12 A3018 RMK AO2 T01220122=
202210061053 METAR KBFI 061053Z 15004KT 1/2SM FG OVC004 12/12 A3017 RMK AO2 CIG 002V005 SLP217 T01220122=
202210061045 SPECI KBFI 061045Z 14004KT 1/2SM FG OVC005 12/12 A3017 RMK AO2 T01220122=
202210060953 METAR KBFI 060953Z 00000KT 4SM BR OVC006 12/12 A3018 RMK AO2 SLP218 T01220117=
202210060853 METAR KBFI 060853Z 00000KT 6SM BR SCT006 12/11 A3017 RMK AO2 SLP217 T01170111 56001=
202210060850 SPECI KBFI 060850Z 00000KT 6SM BR SCT006 12/12 A3017 RMK AO2=
202210060753 METAR KBFI 060753Z 00000KT 4SM BR CLR 13/12 A3017 RMK AO2 SLP217 T01280122 401780122=
202210060653 METAR KBFI 060653Z 00000KT 6SM BR CLR 13/12 A3018 RMK AO2 SLP218 T01280117=
202210060553 METAR KBFI 060553Z 00000KT 5SM BR CLR 13/12 A3017 RMK AO2 SLP216 T01330122 10178 20128 53003=
202210060453 METAR KBFI 060453Z 00000KT 6SM BR CLR 13/12 A3017 RMK AO2 SLP216 T01330122=
202210060353 METAR KBFI 060353Z 00000KT 7SM CLR 14/13 A3016 RMK AO2 SLP213 T01440128=
202210060253 METAR KBFI 060253Z 00000KT 9SM SCT018 15/13 A3016 RMK AO2 SLP214 T01500128 53003=
202210060153 METAR KBFI 060153Z 00000KT 9SM CLR 16/13 A3016 RMK AO2 SLP211 T01560128=
202210060053 METAR KBFI 060053Z 00000KT 10SM CLR 17/13 A3016 RMK AO2 SLP211 T01720133=
202210052353 METAR KBFI 052353Z 00000KT 10SM SCT015 18/13 A3016 RMK AO2 SLP211 T01780133 10178 20144 56010=
202210052341 SPECI KBFI 052341Z VRB03KT 10SM FEW018 17/13 A3016 RMK AO2 T01720133=
202210052253 METAR KBFI 052253Z 07005KT 8SM OVC015 17/13 A3016 RMK AO2 SLP213 T01670133=
202210052153 METAR KBFI 052153Z AUTO 00000KT 6SM BR OVC011 16/13 A3018 RMK AO2 SLP218 T01610133=
202210052131 SPECI KBFI 052131Z VRB03KT 6SM BR OVC011 16/13 A3018 RMK AO2 T01610133=
202210052053 METAR KBFI 052053Z 00000KT 5SM BR OVC009 16/13 A3019 RMK AO2 SLP221 T01610133 58008=
202210051953 METAR KBFI 051953Z 30003KT 5SM BR OVC008 16/13 A3020 RMK AO2 SLP225 T01560133=
202210051853 METAR KBFI 051853Z 00000KT 5SM BR OVC008 15/13 A3020 RMK AO2 SLP227 T01500128=
202210051753 METAR KBFI 051753Z 33003KT 6SM BR OVC009 15/13 A3021 RMK AO2 SLP229 T01500128 10150 20139 51009=
202210051653 METAR KBFI 051653Z 00000KT 6SM BR OVC009 14/13 A3021 RMK AO2 SLP228 T01440128=
202210051553 METAR KBFI 051553Z 00000KT 4SM BR OVC009 14/13 A3019 RMK AO2 SLP223 T01390128 $=
202210051453 METAR KBFI 051453Z 00000KT 9SM OVC009 14/12 A3018 RMK AO2 SLP220 T01390122 51005 $=
202210051353 METAR KBFI 051353Z 00000KT 10SM OVC009 14/12 A3018 RMK AO2 SLP219 T01390122=
202210051253 METAR KBFI 051253Z 18005KT 10SM OVC009 14/12 A3017 RMK AO2 SLP216 T01390122=
202210051202 SPECI KBFI 051202Z 22003KT 10SM OVC009 14/12 A3017 RMK AO2 T01390122=
202210051153 METAR KBFI 051153Z 00000KT 8SM OVC010 14/12 A3017 RMK AO2 SLP214 T01390122 10144 20139 51008=
202210051053 METAR KBFI 051053Z 26004KT 10SM OVC008 14/13 A3016 RMK AO2 SLP213 T01390128=
202210050953 METAR KBFI 050953Z VRB03KT 8SM OVC007 14/13 A3015 RMK AO2 SLP209 T01390128=
202210050853 METAR KBFI 050853Z 16005KT 10SM OVC007 14/13 A3014 RMK AO2 SLP206 T01390128 51010=
202210050753 METAR KBFI 050753Z 13006KT 10SM OVC008 14/13 A3013 RMK AO2 SLP203 T01440133 401890117=
202210050653 METAR KBFI 050653Z 00000KT 10SM OVC008 14/13 A3012 RMK AO2 SLP199 T01440133=
202210050553 METAR KBFI 050553Z 00000KT 10SM BKN009 14/13 A3011 RMK AO2 CIG 007V011 SLP196 T01390133 10189 20133 53013=
202210050545 SPECI KBFI 050545Z 26003KT 10SM BKN009 14/13 A3011 RMK AO2 CIG 008V011 T01390128=
202210050453 METAR KBFI 050453Z 00000KT 8SM CLR 14/12 A3010 RMK AO2 SLP191 T01390122=
202210050353 METAR KBFI 050353Z 00000KT 8SM CLR 14/12 A3009 RMK AO2 SLP188 T01390122=
202210050253 METAR KBFI 050253Z 00000KT 10SM CLR 14/12 A3007 RMK AO2 SLP183 T01440122 53011=
202210050153 METAR KBFI 050153Z 34003KT 10SM CLR 15/13 A3006 RMK AO2 SLP177 T01500128=
202210050053 METAR KBFI 050053Z 32005KT 10SM CLR 18/13 A3004 RMK AO2 SLP171 T01780128=
202210042353 METAR KBFI 042353Z 00000KT 10SM CLR 18/13 A3004 RMK AO2 SLP172 T01830133 10183 20128 56006=
202210042253 METAR KBFI 042253Z 00000KT 7SM SCT013 BKN100 17/13 A3004 RMK AO2 SLP173 T01720133=
202210042153 METAR KBFI 042153Z 24003KT 7SM BKN013 16/13 A3005 RMK AO2 SLP174 T01560128=
202210042108 SPECI KBFI 042108Z 8SM OVC009 16/13 A3006 RMK AO2 T01560128=
202210042100 SPECI KBFI 042100Z VRB04KT 9SM OVC012 16/13 A3006 RMK AO2 T01560128=
202210042053 METAR KBFI 042053Z VRB03KT 9SM OVC009 16/12 A3006 RMK AO2 SLP178 T01560122 58011=
202210041953 METAR KBFI 041953Z AUTO 19004KT 10SM OVC008 14/12 A3007 RMK AO2 SLP183 T01440122=
202210041853 METAR KBFI 041853Z 3SM BR OVC007 14/12 A3008 RMK AO2 SLP186 T01390122 $=
202210041800 SPECI KBFI 041800Z 24003KT 3SM BR OVC006 13/13 A3009 RMK AO2 T01280128 $=
202210041753 METAR KBFI 041753Z 22004KT 1SM BR OVC005 13/13 A3009 RMK AO2 SLP189 T01280128 10128 20122 51002 $=
202210041724 SPECI KBFI 041724Z VRB05KT 1SM BR OVC005 13/13 A3009 RMK AO2 T01280128 $=
202210041653 METAR KBFI 041653Z 19003KT 1SM BR OVC004 13/13 A3009 RMK AO2 SLP189 T01280128 $=
202210041553 METAR KBFI 041553Z 16005KT 1SM BR OVC003 12/12 A3009 RMK AO2 SLP188 T01220122=
202210041453 METAR KBFI 041453Z 16005KT 1SM BR OVC003 12/12 A3008 RMK AO2 SLP187 T01220122 53010=
202210041353 METAR KBFI 041353Z 16005KT 2SM BR OVC003 12/12 A3007 RMK AO2 SLP182 T01220122=
202210041253 METAR KBFI 041253Z 17005KT 2SM BR OVC003 12/12 A3007 RMK AO2 SLP181 T01220122=
202210041153 METAR KBFI 041153Z 16004KT 3SM BR FU OVC004 13/12 A3005 RMK AO2 SLP177 T01280122 10161 20117 53002=
202210041053 METAR KBFI 041053Z 17003KT 4SM BR FU OVC005 12/12 A3005 RMK AO2 SLP176 T01170117=
202210040953 METAR KBFI 040953Z 00000KT 10SM FU CLR 13/11 A3004 RMK AO2 SLP173 T01330106=
202210040853 METAR KBFI 040853Z 00000KT 10SM FU CLR 14/11 A3005 RMK AO2 SLP174 T01390111 53002=
202210040753 METAR KBFI 040753Z 00000KT 10SM FU CLR 14/11 A3004 RMK AO2 SLP173 T01440111 402390111=
202210040653 METAR KBFI 040653Z 00000KT 10SM FU CLR 15/12 A3004 RMK AO2 SLP171 T01500117=
202210040553 METAR KBFI 040553Z 00000KT 10SM FU CLR 16/12 A3004 RMK AO2 SLP172 T01610117 10239 20161 51009=
202210040453 METAR KBFI 040453Z 00000KT 10SM FU CLR 17/12 A3004 RMK AO2 SLP171 T01720117=
202210040353 METAR KBFI 040353Z 00000KT 10SM FU CLR 18/12 A3003 RMK AO2 SLP168 T01780117=
202210040253 METAR KBFI 040253Z 00000KT 10SM FU CLR 19/12 A3001 RMK AO2 SLP163 T01890117 53002=
202210040153 METAR KBFI 040153Z 00000KT 10SM FU CLR 21/12 A3001 RMK AO2 SLP161 T02060117=
202210040053 METAR KBFI 040053Z 33005KT 10SM FU CLR 22/12 A3001 RMK AO2 SLP161 T02220117=
202210032353 METAR KBFI 032353Z VRB04KT 10SM FU CLR 23/12 A3001 RMK AO2 SLP161 T02330117 10239 20189 56013=
202210032253 METAR KBFI 032253Z 31005KT 10SM FU CLR 24/12 A3002 RMK AO2 SLP164 T02390122=
202210032153 METAR KBFI 032153Z 33006KT 10SM FU CLR 24/12 A3003 RMK AO2 SLP169 T02390122=
202210032053 METAR KBFI 032053Z VRB04KT 9SM FU CLR 23/13 A3005 RMK AO2 SLP174 T02280128 58013=
202210031953 METAR KBFI 031953Z 32006KT 9SM FU CLR 21/13 A3006 RMK AO2 SLP180 T02060128=
202210031853 METAR KBFI 031853Z AUTO 33005KT 7SM FU CLR 20/13 A3007 RMK AO2 SLP183 T02000128=
202210031753 METAR KBFI 031753Z AUTO 00000KT 7SM FU CLR 19/13 A3009 RMK AO2 SLP187 T01890133 10189 20111 50002=
202210031653 METAR KBFI 031653Z 00000KT 7SM FU CLR 16/13 A3009 RMK AO2 SLP190 T01610128=
202210031553 METAR KBFI 031553Z 15003KT 7SM FU CLR 14/12 A3009 RMK AO2 SLP188 T01390122=
202210031453 METAR KBFI 031453Z 15003KT 7SM FU CLR 12/11 A3008 RMK AO2 SLP185 T01220111 53011=
202210031353 METAR KBFI 031353Z 13003KT 8SM FU CLR 11/11 A3007 RMK AO2 SLP181 T01110106=
202210031253 METAR KBFI 031253Z 00000KT 9SM FU CLR 12/12 A3006 RMK AO2 SLP178 T01220117=
202210031153 METAR KBFI 031153Z 00000KT 9SM FU CLR 13/12 A3005 RMK AO2 SLP174 T01280117 10167 20128 52004=
202210031053 METAR KBFI 031053Z 00000KT 10SM FU CLR 13/12 A3004 RMK AO2 SLP173 T01330117=
202210030953 METAR KBFI 030953Z 00000KT 10SM FU CLR 14/12 A3004 RMK AO2 SLP171 T01390122=
202210030853 METAR KBFI 030853Z 00000KT 10SM FU CLR 14/12 A3003 RMK AO2 SLP170 T01440117 51009=
202210030753 METAR KBFI 030753Z 00000KT 10SM FU CLR 15/12 A3003 RMK AO2 SLP167 T01500117 402500117=
202210030653 METAR KBFI 030653Z 00000KT 10SM FU CLR 16/12 A3002 RMK AO2 SLP164 T01610117=
202210030553 METAR KBFI 030553Z 00000KT 10SM FU CLR 17/11 A3001 RMK AO2 SLP161 T01670111 10250 20167 51013=
202210030453 METAR KBFI 030453Z 00000KT 10SM FU CLR 18/12 A3000 RMK AO2 SLP157 T01780117=
202210030353 METAR KBFI 030353Z 00000KT 10SM FU CLR 19/12 A2999 RMK AO2 SLP154 T01890117=
202210030253 METAR KBFI 030253Z 00000KT 10SM FU CLR 19/12 A2997 RMK AO2 SLP148 T01940117 53006=
202210030153 METAR KBFI 030153Z 32003KT 10SM FU CLR 22/12 A2996 RMK AO2 SLP146 T02170117=
202210030053 METAR KBFI 030053Z VRB03KT 10SM FU CLR 23/12 A2996 RMK AO2 SLP144 T02330122=
202210022353 METAR KBFI 022353Z 32006KT 10SM FU CLR 24/12 A2995 RMK AO2 SLP142 T02440117 10250 20189 56006=
202210022253 METAR KBFI 022253Z 32006KT 10SM CLR 25/12 A2995 RMK AO2 SLP142 T02500117=
202210022153 METAR KBFI 022153Z 30006KT 10SM CLR 24/12 A2996 RMK AO2 SLP144 T02440122=
202210022053 METAR KBFI 022053Z VRB06KT 10SM CLR 23/12 A2997 RMK AO2 SLP148 T02330122 58008=
202210021953 METAR KBFI 021953Z 30005KT 10SM CLR 22/12 A2998 RMK AO2 SLP152 T02170122=
202210021853 METAR KBFI 021853Z VRB05KT 10SM CLR 21/13 A2999 RMK AO2 SLP154 T02060128=
202210021753 METAR KBFI 021753Z 32004KT 10SM CLR 19/13 A2999 RMK AO2 SLP156 T01940128 10194 20117 51007=
202210021653 METAR KBFI 021653Z 00000KT 9SM CLR 17/13 A2999 RMK AO2 SLP156 T01720133=
202210021553 METAR KBFI 021553Z 00000KT 7SM CLR 14/12 A2998 RMK AO2 SLP153 T01440122=
202210021453 METAR KBFI 021453Z 14005KT 8SM CLR 12/11 A2997 RMK AO2 SLP149 T01220111 53010=
202210021353 METAR KBFI 021353Z 00000KT 10SM CLR 13/11 A2996 RMK AO2 SLP145 T01280111=
202210021253 METAR KBFI 021253Z AUTO 00000KT 10SM CLR 13/12 A2995 RMK AO2 SLP141 T01280117=
202210021153 METAR KBFI 021153Z 00000KT 10SM CLR 14/12 A2994 RMK AO2 SLP139 T01390117 10172 20133 53003=
202210021053 METAR KBFI 021053Z 00000KT 10SM CLR 14/12 A2993 RMK AO2 SLP136 T01440117=
202210020953 METAR KBFI 020953Z 00000KT 10SM CLR 16/12 A2993 RMK AO2 SLP135 T01560117=
202210020853 METAR KBFI 020853Z 00000KT 10SM CLR 15/12 A2993 RMK AO2 SLP135 T01500117 50001=
202210020753 METAR KBFI 020753Z 00000KT 10SM CLR 16/12 A2993 RMK AO2 SLP136 T01560122 402390128=
202210020653 METAR KBFI 020653Z 00000KT 10SM CLR 17/12 A2993 RMK AO2 SLP136 T01670122=
202210020553 METAR KBFI 020553Z 31003KT 10SM CLR 17/13 A2993 RMK AO2 SLP134 T01720128 10228 20172 51001=
202210020453 METAR KBFI 020453Z 34003KT 10SM CLR 18/13 A2993 RMK AO2 SLP134 T01780128=
202210020353 METAR KBFI 020353Z 00000KT 10SM CLR 18/13 A2993 RMK AO2 SLP136 T01830128=
202210020253 METAR KBFI 020253Z 30005KT 10SM CLR 19/13 A2993 RMK AO2 SLP134 T01890128 55002=
202210020153 METAR KBFI 020153Z VRB03KT 10SM CLR 21/13 A2992 RMK AO2 SLP132 T02060128=
202210020053 METAR KBFI 020053Z AUTO 31006KT 10SM CLR 22/13 A2992 RMK AO2 SLP133 T02170133=
202210012353 METAR KBFI 012353Z 32006KT 10SM CLR 23/13 A2993 RMK AO2 SLP135 T02280133 10239 20183 56015=
202210012253 METAR KBFI 012253Z 31007KT 10SM CLR 23/13 A2994 RMK AO2 SLP137 T02330128=
202210012153 METAR KBFI 012153Z 30008KT 10SM CLR 23/13 A2995 RMK AO2 SLP143 T02280128=
202210012053 METAR KBFI 012053Z 31006KT 10SM CLR 22/13 A2997 RMK AO2 SLP150 T02170128 58023=
202210011953 METAR KBFI 011953Z 31008KT 10SM CLR 21/13 A3000 RMK AO2 SLP158 T02110128=
202210011853 METAR KBFI 011853Z 30009KT 10SM CLR 20/13 A3002 RMK AO2 SLP166 T02000128=
202210011753 METAR KBFI 011753Z 31006KT 10SM CLR 18/13 A3004 RMK AO2 SLP172 T01830128 10189 20128 58009=
202210011653 METAR KBFI 011653Z VRB06KT 10SM CLR 18/12 A3006 RMK AO2 SLP179 T01780122=
202210011553 METAR KBFI 011553Z 00000KT 10SM CLR 16/13 A3007 RMK AO2 SLP182 T01610128=
202210011453 METAR KBFI 011453Z VRB03KT 10SM CLR 14/13 A3007 RMK AO2 SLP182 T01390128 58001=
202210011353 METAR KBFI 011353Z 00000KT 10SM CLR 14/12 A3007 RMK AO2 SLP183 T01390122=
202210011253 METAR KBFI 011253Z 33003KT 10SM CLR 13/12 A3007 RMK AO2 SLP183 T01330117=
202210011153 METAR KBFI 011153Z 27003KT 10SM CLR 13/12 A3007 RMK AO2 SLP183 T01280117 10161 20128 57001=
202210011053 METAR KBFI 011053Z 31003KT 10SM CLR 14/12 A3007 RMK AO2 SLP182 T01390122=
202210010953 METAR KBFI 010953Z 00000KT 10SM CLR 14/12 A3008 RMK AO2 SLP186 T01390117=
202210010853 METAR KBFI 010853Z 31003KT 10SM CLR 14/12 A3008 RMK AO2 SLP184 T01440122 58002=
202210010753 METAR KBFI 010753Z 00000KT 10SM CLR 14/12 A3008 RMK AO2 SLP186 T01440122 402060128=
202210010653 METAR KBFI 010653Z 00000KT 10SM CLR 15/12 A3008 RMK AO2 SLP186 T01500122=
202210010553 METAR KBFI 010553Z 00000KT 10SM CLR 16/12 A3008 RMK AO2 SLP187 T01560122 10206 20156 50001=
202210010453 METAR KBFI 010453Z 00000KT 10SM CLR 17/12 A3009 RMK AO2 SLP188 T01670122=
202210010353 METAR KBFI 010353Z 00000KT 10SM CLR 18/12 A3009 RMK AO2 SLP188 T01780122=
202210010253 METAR KBFI 010253Z 00000KT 10SM CLR 18/12 A3008 RMK AO2 SLP186 T01830122 55003=
202210010153 METAR KBFI 010153Z 00000KT 10SM CLR 19/12 A3008 RMK AO2 SLP185 T01940122=
202210010053 METAR KBFI 010053Z VRB04KT 10SM CLR 20/12 A3008 RMK AO2 SLP186 T02000122=

# No short TAF reports from KBFI in databse.

###################################
#  large TAF from KBFI
###################################
202210312325 TAF KBFI 312325Z 0100/0124 21009KT P6SM BKN025 BKN060 FM010200
                       VRB05KT P6SM BKN050 BKN200 FM010700 12003KT
                       P6SM BKN020 BKN050 FM011900 20004KT P6SM
                       OVC050=
202210312134 KBFI 312134Z 3122/0118 22009G15KT P6SM BKN025 BKN060 FM010200 VRB05KT
                       P6SM BKN050 BKN200 FM010700 12003KT P6SM
                       BKN020 BKN050=
202210311720 TAF KBFI 311720Z 3118/0118 18010G22KT P6SM VCSH BKN020 OVC030 FM311900
                       22007KT P6SM OVC045 FM010200 VRB05KT P6SM
                       SCT050 BKN200 FM010700 12003KT P6SM BKN020
                       BKN050=
202210311122 TAF KBFI 311122Z 3112/0112 17008KT P6SM -RA SCT010 OVC024 FM311600
                       18010G15KT P6SM VCSH OVC025 FM312000 22007KT
                       P6SM OVC035 FM010200 18005KT P6SM SCT050
                       BKN200 FM010700 15003KT P6SM BKN020 BKN050=
202210310815 KBFI 310815Z 3108/0106 33004KT 3SM RA BR BKN007 OVC013 FM311000
                       VRB04KT P6SM -RA SCT007 OVC015 FM311600
                       18010G15KT P6SM VCSH OVC025 FM312000 22007KT
                       P6SM OVC035 FM010400 VRB03KT P6SM BKN040=
202210310524 TAF KBFI 310524Z 3106/0106 18010KT P6SM -RA SCT015 OVC025 FM311600
                       18010G15KT P6SM VCSH OVC025 FM312000 22007KT
                       P6SM OVC035 FM010400 VRB03KT P6SM BKN040=
202210310302 KBFI 310302Z 3103/3124 19013G23KT P6SM VCSH OVC025 FM310600 19007KT
                       4SM -RA BR OVC020 FM311600 18010G15KT 6SM
                       -SHRA BR OVC025 FM312000 22007KT P6SM OVC035=
202210302325 TAF KBFI 302325Z 3100/3124 19010KT P6SM OVC025 FM310600 19007KT
                       4SM -RA BR OVC020 FM311600 18010G15KT 6SM
                       -SHRA BR OVC025 FM312000 22007KT P6SM OVC035=
202210302054 KBFI 302054Z 3021/3118 17008G15KT P6SM VCSH OVC030 FM310000 17008KT
                       6SM -RA BR OVC020 FM311600 18010G17KT 6SM
                       -SHRA BR OVC025=
202210301730 TAF KBFI 301730Z 3018/3118 17015G25KT P6SM BKN025 BKN040 FM302000
                       17012G18KT 6SM -RA BR OVC020 FM310000 17008KT
                       6SM -RA BR OVC020 FM311600 18010G17KT 6SM
                       -SHRA BR OVC025=
202210301121 TAF KBFI 301121Z 3012/3112 15008KT P6SM OVC080 FM301400 16008KT
                       P6SM BKN050 OVC080 FM301600 16010KT P6SM
                       -RA OVC040 FM302000 17012G18KT 6SM -RA BR
                       OVC020 FM310000 17008KT 6SM -RA BR OVC020=
202210300524 TAF KBFI 300524Z 3006/3106 17006KT P6SM BKN200 FM300900 16008KT
                       P6SM BKN040 OVC080 FM301500 16010G15KT P6SM
                       OVC040 FM301800 17013G20KT 6SM -RA BR OVC020
                       FM310000 17008KT 6SM -RA BR OVC020=
202210292320 TAF KBFI 292320Z 3000/3024 25003KT P6SM SCT016 SCT250 FM300400
                       16006KT P6SM SCT040 BKN120 OVC200 FM300900
                       16008KT P6SM BKN040 OVC080 FM301500 16010G15KT
                       P6SM OVC040 FM301800 17015G20KT 6SM -RA
                       BR OVC020=
202210292052 KBFI 292052Z 2921/3018 25003KT P6SM SCT016 FM300400 16006KT P6SM
                       SCT040 BKN120 OVC200 FM300900 16008KT P6SM
                       BKN040 OVC080 FM301500 16010G15KT P6SM OVC040=
202210291725 TAF KBFI 291725Z 2918/3018 13004KT P6SM OVC008 FM292000 17006KT
                       P6SM SCT030 BKN250 FM300400 16006KT P6SM
                       SCT040 BKN120 OVC200 FM300900 16008KT P6SM
                       BKN040 OVC080 FM301500 16010G15KT P6SM OVC040=
202210291607 KBFI 291607Z 2916/3012 18005KT P6SM OVC007 FM292000 17006KT P6SM
                       SCT030 BKN250 FM300400 16006KT P6SM SCT040
                       BKN120 OVC200 FM300900 16008KT P6SM BKN040
                       OVC080=
202210291133 KBFI 291133Z 2912/3012 00000KT P6SM FEW008 BKN200
                      TEMPO 2912/2916 5SM BR BKN008 BKN200 FM291800
                       17005KT P6SM SCT040 BKN250 FM300400 16006KT
                       P6SM SCT040 BKN120 OVC200 FM300900 16008KT
                       P6SM BKN040 OVC080=
202210291120 TAF KBFI 291120Z 2912/3012 00000KT P6SM FEW008 BKN200
                      TEMPO 2912/2916 5SM BR SCT008 BKN200 FM291800
                       17005KT P6SM SCT040 BKN250 FM300400 16006KT
                       P6SM SCT040 BKN120 OVC200 FM300900 16008KT
                       P6SM BKN040 OVC080=
202210290526 TAF KBFI 290526Z 2906/3006 16003KT P6SM FEW030 SCT070
                      TEMPO 2910/2914 BKN030 BKN070 FM291800 16005KT
                       P6SM SCT040 BKN250 FM300400 18006KT P6SM
                       SCT040 BKN120 OVC200=
202210290259 KBFI 290259Z 2903/2924 VRB03KT P6SM FEW040 FM290800 VRB03KT P6SM
                       SCT040 FM291200 VRB03KT P6SM BKN035 FM291700
                       15005KT P6SM SCT040 BKN200=
202210282320 TAF KBFI 282320Z 2900/2924 23006KT P6SM BKN025 FM290600 16003KT
                       P6SM BKN050 FM291200 15003KT P6SM BKN030=
202210282038 KBFI 282038Z 2821/2918 22005KT P6SM SCT020 BKN030 FM282200 26005KT
                       P6SM BKN050 FM290000 VRB03KT P6SM BKN250
                       FM290600 16003KT P6SM BKN050=
202210281720 TAF KBFI 281720Z 2818/2918 21004KT P6SM BKN008 FM282000 18004KT
                       P6SM OVC020 FM282200 26005KT P6SM BKN050
                       FM290600 16003KT P6SM BKN050=
202210281438 KBFI 281438Z 2815/2912 16005KT 5SM -RA BR BKN006 OVC010
                      TEMPO 2815/2817 3SM -RA BR FM281800 VRB03KT
                       P6SM OVC020 FM282200 26005KT P6SM BKN050
                       FM290600 16003KT P6SM BKN050=
202210281141 TAF KBFI 281141Z 2812/2912 21005KT P6SM RA BKN008 OVC035 FM281500
                       20005KT 6SM -RA OVC025 FM281800 35005KT
                       P6SM OVC020 FM282200 20005KT P6SM SCT050
                       FM290600 16003KT P6SM BKN050=
202210280541 TAF KBFI 280541Z 2806/2906 17011KT P6SM -RA OVC050 FM281300 18005KT
                       6SM -RA OVC020 FM281800 VRB03KT P6SM OVC015
                       FM282100 20005KT P6SM SCT040=
202210272320 TAF KBFI 272320Z 2800/2824 20012G22KT P6SM BKN070 FM280600 16006KT
                       P6SM -RA OVC050 FM281300 17004KT 6SM -RA
                       OVC015 FM281800 VRB03KT P6SM OVC015=
202210272043 KBFI 272043Z 2721/2818 19013G25KT P6SM BKN080 WS020/23035KT FM280600
                       16006KT P6SM -RA OVC050 FM281300 13004KT
                       6SM -RA OVC015=
202210271900 KBFI 271900Z 2719/2818 19013G25KT P6SM BKN070 WS020/23035KT FM280600
                       16006KT P6SM -RA OVC050 FM281300 13004KT
                       6SM -RA OVC015=
202210271720 TAF KBFI 271720Z 2718/2818 17013G21KT P6SM OVC070 FM280600 16006KT
                       P6SM -RA OVC050 FM281300 13004KT 6SM -RA
                       OVC015=
202210271433 KBFI 271433Z 2715/2812 16010G18KT P6SM BKN030 OVC050 FM271600 17013G21KT
                       P6SM OVC050 FM280600 16006KT P6SM -RA OVC050
                       FM281000 13004KT P6SM -RA OVC050=
202210271139 TAF KBFI 271139Z 2712/2812 15007KT P6SM OVC025 FM271300 16010G18KT
                       P6SM BKN025 FM271600 17013G21KT P6SM OVC050
                       FM280600 16006KT P6SM -RA OVC050 FM281000
                       13004KT P6SM -RA OVC050=
202210270539 TAF KBFI 270539Z 2706/2806 15010KT P6SM BKN025 OVC035 FM270800
                       20009KT P6SM OVC030 FM271300 16010G20KT
                       P6SM BKN025 FM271600 17013G21KT P6SM OVC050=
202210262320 TAF KBFI 262320Z 2700/2724 21004KT P6SM BKN020 FM270400 19008KT
                       P6SM VCSH OVC025 FM270800 19010KT P6SM OVC035
                       FM271500 16010G20KT P6SM OVC030 FM271800
                       17013G21KT P6SM OVC050=
202210262047 KBFI 262047Z 2621/2718 18008KT P6SM BKN020 BKN120 FM270000 18006KT
                       P6SM OVC050 FM270400 19008KT P6SM VCSH OVC025
                       FM270800 19010KT P6SM OVC035=
202210261720 TAF KBFI 261720Z 2618/2718 14005KT P6SM BKN020 BKN030 FM262100
                       18006KT P6SM OVC050 FM270400 19008KT P6SM
                       VCSH OVC025 FM270800 19010KT P6SM OVC035=
202210261442 KBFI 261442Z 2615/2712 11003KT P6SM BKN030 OVC050 FM261700 20008KT
                       P6SM BKN040 FM270000 19008KT P6SM BKN060
                       FM270400 19008KT P6SM VCSH BKN030 FM270800
                       19013KT P6SM SCT035=
202210261139 TAF KBFI 261139Z 2612/2712 17007KT P6SM BKN015 FM261700 20008KT
                       P6SM BKN040 FM270000 19008KT P6SM BKN060
                       FM270400 19008KT P6SM VCSH BKN030 FM270800
                       19013KT P6SM SCT035=
202210260540 TAF KBFI 260540Z 2606/2706 17009KT P6SM -RA FEW025 BKN080 FM261100
                       17005KT P6SM VCSH OVC030 FM261700 20007KT
                       P6SM BKN040 FM270000 21008KT P6SM BKN060
                       FM270400 19008KT P6SM VCSH BKN030=
202210252338 TAF KBFI 252338Z 2600/2624 17010G18KT 6SM -RA OVC035 FM260300 18010G17KT
                       P6SM -SHRA OVC050 FM260500 19008KT P6SM
                       -SHRA OVC030 FM261100 15005KT P6SM OVC030
                       FM261700 19007KT P6SM BKN050=
202210251737 TAF KBFI 251737Z 2518/2618 18008G16KT P6SM SCT020 BKN050 FM252100
                       18010G18KT 5SM -RA BR OVC025 FM260800 19008KT
                       P6SM -SHRA OVC025 FM261100 15005KT P6SM
                       OVC030=
202210251139 TAF KBFI 251139Z 2512/2612 15007KT P6SM BKN020 FM252000 19011G18KT
                       P6SM -RA OVC035 FM252300 18010G18KT 5SM
                       -RA BR OVC025 FM260400 21007KT P6SM -RA
                       OVC030=
202210250536 TAF KBFI 250536Z 2506/2606 15006KT P6SM VCSH SCT030 BKN045
                      TEMPO 2506/2509 6SM -RA BKN030 FM252100 17011G18KT
                       P6SM -RA OVC035 FM260000 18010KT 5SM -RA
                       OVC030=
202210242347 TAF KBFI 242347Z 2500/2524 20009G17KT P6SM VCSH BKN040 FM250200
                       20004KT P6SM BKN045 FM252300 17011G18KT
                       P6SM -RA OVC025=
202210241744 TAF KBFI 241744Z 2418/2518 16006KT 6SM -SHRA BR OVC015 FM242200
                       18009G17KT P6SM VCSH BKN040
                      TEMPO 2422/2502 -SHRA OVC030 FM250600 17008KT
                       P6SM BKN045=
202210241126 TAF KBFI 241126Z 2412/2512 15007KT P6SM -RA OVC040 FM241400 16008KT
                       6SM -RA BR OVC018 FM241700 18010KT 6SM -SHRA
                       BR OVC015 FM242000 18011G18KT P6SM VCSH
                       BKN035
                      TEMPO 2422/2502 -SHRA OVC030 FM250600 17008KT
                       P6SM BKN045=
202210240855 KBFI 240855Z 2409/2506 15007KT P6SM -RA OVC035 FM241200 15006KT
                       6SM -RA BR OVC020 FM241700 18010KT 6SM -SHRA
                       BR OVC025 FM242100 18011G18KT P6SM VCSH
                       BKN035=
202210240526 TAF KBFI 240526Z 2406/2506 14007KT P6SM BKN040 OVC100 FM240800
                       15007KT P6SM -RA OVC035 FM241200 15006KT
                       6SM -RA BR OVC020 FM241700 18010KT 6SM -SHRA
                       BR OVC025 FM242100 18011G18KT P6SM VCSH
                       BKN035=
202210240301 KBFI 240301Z 2403/2424 16006KT P6SM BKN040 OVC100 FM240900 15007KT
                       P6SM -RA OVC035 FM241300 15006KT P6SM -RA
                       OVC021 FM241700 18010KT 6SM -SHRA BR OVC025
                       FM242100 18011KT P6SM VCSH BKN035=
202210232341 TAF KBFI 232341Z 2400/2424 18006KT P6SM SCT040 BKN200 FM240900
                       15007KT P6SM -RA OVC045 FM241200 15006KT
                       P6SM -RA OVC030 FM241700 18010KT 6SM -SHRA
                       OVC025 FM242100 18008KT P6SM OVC050=
202210231740 TAF KBFI 231740Z 2318/2418 16005KT P6SM BKN010 BKN250 FM231900
                       19006KT P6SM SCT050 OVC250 FM240900 15007KT
                       P6SM -RA OVC045 FM241700 18010KT 6SM -SHRA
                       OVC025=
202210231127 TAF KBFI 231127Z 2312/2412 16004KT P6SM SCT020 BKN040 FM231500
                       15003KT 5SM BR SCT007 OVC030 FM231800 15005KT
                       P6SM BKN040 BKN250 FM232200 19006KT P6SM
                       SCT050 OVC250 FM240900 15007KT P6SM -RA
                       OVC045=
202210230856 KBFI 230856Z 2309/2406 00000KT P6SM BKN050 FM231100 00000KT P6SM
                       OVC018 FM231500 VRB03KT 6SM BR SCT007 OVC015
                       FM231800 15005KT P6SM BKN030 BKN250 FM232200
                       20006KT P6SM SCT045 OVC250=
202210230525 TAF KBFI 230525Z 2306/2406 00000KT P6SM BKN050 FM231000 00000KT
                       P6SM OVC018 FM231500 VRB03KT 6SM BR SCT007
                       OVC015 FM231800 15005KT P6SM BKN030 BKN250
                       FM232200 20006KT P6SM SCT045 OVC250=
202210230317 KBFI 230317Z 2303/2324 00000KT P6SM BKN050 FM231000 VRB02KT P6SM
                       OVC017 FM231500 VRB03KT 6SM BR SCT007 OVC014
                       FM231800 15005KT P6SM BKN035=
202210222340 TAF KBFI 222340Z 2300/2324 16005KT 3SM -SHRA BR BKN015 BKN040 OVC050
                       FM230100 15003KT P6SM VCSH BKN040 FM230500
                       00000KT P6SM BKN060 FM231200 05002KT 6SM
                       BR OVC020 FM231800 15005KT P6SM BKN035=
202210221728 TAF KBFI 221728Z 2218/2318 30004KT P6SM VCSH SCT020 OVC040
                      TEMPO 2218/2222 4SM -SHRA SCT008 FM222300
                       31005KT P6SM VCSH BKN040 FM230500 00000KT
                       P6SM BKN060 FM231300 05002KT 6SM BR OVC020=
202210221124 TAF KBFI 221124Z 2212/2312 00000KT P6SM VCSH BKN018 OVC030
                      TEMPO 2212/2216 6SM -SHRA FM221700 29004KT
                       P6SM VCSH SCT020 OVC035 FM222300 31005KT
                       P6SM VCSH BKN040 FM230500 00000KT P6SM BKN060=
202210220527 TAF KBFI 220527Z 2206/2306 VRB03KT P6SM -SHRA BKN018 OVC030 FM221700
                       35004KT 6SM -SHRA OVC022 FM222300 29005KT
                       P6SM VCSH OVC035 FM230500 00000KT P6SM BKN060=
202210220206 KBFI 220206Z 2202/2224 17003KT 6SM -RA SCT010 OVC017
                      TEMPO 2202/2204 4SM -RA BR OVC010 FM220500
                       VRB03KT P6SM -SHRA OVC015 FM221700 35004KT
                       P6SM VCSH SCT015 OVC025=
202210212320 TAF KBFI 212320Z 2200/2224 18006KT 5SM -RA OVC010 FM220500 VRB03KT
                       P6SM -SHRA OVC015 FM221700 35004KT P6SM
                       VCSH SCT015 OVC025=
202210211724 TAF KBFI 211724Z 2118/2218 17006KT P6SM VCSH SCT030 OVC050
                      TEMPO 2118/2121 -RA OVC025 FM212100 18005KT
                       5SM -RA OVC025 FM220500 VRB03KT 6SM -SHRA
                       OVC018 FM221500 VRB03KT P6SM VCSH OVC020=
202210211604 KBFI 211604Z 2116/2212 17006KT P6SM SCT030 OVC050 FM212100 18005KT
                       5SM -RA OVC025 FM220500 VRB03KT 6SM -SHRA
                       OVC018=
202210211122 TAF KBFI 211122Z 2112/2212 16007KT P6SM OVC028 FM211600 17006KT
                       P6SM -RA OVC025 FM212100 18005KT 5SM -RA
                       OVC015 FM220500 VRB03KT 6SM -SHRA OVC018=
202210210851 KBFI 210851Z 2109/2206 16007KT P6SM BKN035 FM211600 17006KT P6SM
                       -RA OVC030 FM212100 18005KT 5SM -RA OVC015=
202210210523 TAF KBFI 210523Z 2106/2206 16005KT 6SM HZ FU SCT015 OVC045
                      TEMPO 2106/2110 BKN015 FM211600 17006KT P6SM
                       -RA OVC030 FM212100 18005KT 5SM -RA OVC015=
202210210258 KBFI 210258Z 2103/2124 16005KT 4SM HZ FU SCT018 OVC050
                      TEMPO 2103/2107 BKN017 FM210700 16006KT P6SM
                       SCT018 BKN050 FM211600 17007KT 5SM -RA BR
                       OVC030=
202210210105 KBFI 210105Z 2101/2124 VRB03KT 2SM HZ FU BKN035 OVC050
                      TEMPO 2101/2104 4SM HZ FU SCT035 BKN050 FM210400
                       19004KT 4SM BR FU SCT035 BKN050 FM210600
                       16006KT P6SM BKN050 FM211600 17007KT 5SM
                       -RA BR OVC030=
202210202320 TAF KBFI 202320Z 2100/2124 VRB03KT 1SM HZ FU SCT035 OVC050 FM210100
                       19004KT 4SM BR FU SCT035 BKN050 FM210600
                       16006KT P6SM BKN050 FM211600 17007KT 5SM
                       -RA BR OVC030=
202210202103 KBFI 202103Z 2021/2118 VRB03KT 1 1/2SM BR FU OVC050 FM202300 27006KT
                       P6SM SCT050 SCT250 FM210100 19004KT P6SM
                       SCT050 BKN100 FM210600 16006KT P6SM BKN050
                       FM211400 17007KT P6SM -SHRA OVC030=
202210201720 TAF KBFI 201720Z 2018/2118 VRB03KT 1 1/2SM BR FU SKC FM202100 27006KT
                       P6SM SCT050 SCT250 FM210100 19004KT P6SM
                       SCT050 BKN100 FM210600 16006KT P6SM BKN050
                       FM211400 17007KT P6SM -SHRA OVC030=
202210201506 KBFI 201506Z 2015/2112 15003KT 1 1/2SM BR FU SKC FM201700 VRB03KT
                       3SM BR FU SCT015 FM202100 22006KT P6SM SCT050
                       BKN100 FM210100 19006KT P6SM BKN050=
202210201120 TAF KBFI 201120Z 2012/2112 15003KT 1 1/2SM BR FU SKC FM201500 VRB03KT
                       3SM BR FU SCT015 FM202100 22006KT P6SM SCT050
                       BKN100 FM210100 19006KT P6SM BKN050=
202210201012 KBFI 201012Z 2010/2106 00000KT 2SM HZ FU SCT015
                      TEMPO 2010/2013 1SM BR FU FM201300 VRB03KT
                       4SM BR FU OVC020 FM201800 18003KT 6SM HZ
                       BKN035 BKN080 FM202100 24006KT P6SM SCT025
                       BKN100=
202210200521 TAF KBFI 200521Z 2006/2106 00000KT 2SM HZ FU SKC FM200900 00000KT
                       2SM HZ FU SCT015 FM201300 VRB03KT 4SM BR
                       FU OVC020 FM201800 18003KT 6SM HZ BKN035
                       BKN080 FM202100 24006KT P6SM SCT025 BKN100=
202210200311 KBFI 200311Z 2003/2024 35004KT 2SM HZ FU SKC FM200900 35004KT 2SM
                       BR FU SCT015 FM201300 34005KT 2SM FU OVC020
                       FM201800 VRB03KT 5SM FU BKN035 FM202100
                       35006KT 5SM FU BKN035=
202210192334 TAF KBFI 192334Z 2000/2024 VRB04KT 1SM HZ FU SKC FM200900 35004KT
                       2SM BR FU SCT015 FM201300 34005KT 2SM FU
                       OVC020 FM201800 VRB03KT 5SM FU BKN035 FM202100
                       35006KT 5SM FU BKN035=
202210191741 TAF KBFI 191741Z 1918/2018 VRB03KT 3SM BR FU BKN020 FM192000 35005KT
                       5SM FU SCT250 FM200000 33004KT 6SM FU SKC
                       FM200900 34004KT 2SM BR FU SCT015 FM201700
                       34005KT 5SM FU OVC020=
202210191120 TAF KBFI 191120Z 1912/2012 00000KT 4SM BR SCT025
                      TEMPO 1914/1917 3SM BR BKN005 FM191700 VRB03KT
                       4SM HZ SCT020 FM192100 35005KT 5SM FU SKC
                       FM200000 32004KT 6SM FU SKC=
202210190520 TAF KBFI 190520Z 1906/2006 00000KT 5SM HZ SKC FM191200 00000KT
                       5SM BR SCT005
                      TEMPO 1914/1917 3SM BR BKN005 FM191700 VRB03KT
                       6SM HZ SCT020 FM192100 35005KT 4SM FU SKC
                       FM200000 32004KT 6SM FU SKC=
202210190303 KBFI 190303Z 1903/1924 VRB03KT 6SM HZ SKC FM191200 00000KT 5SM
                       BR SCT005
                      TEMPO 1914/1917 3SM BR BKN005 FM191700 VRB03KT
                       6SM HZ SCT020 FM192100 35005KT 4SM FU SKC=
202210182320 TAF KBFI 182320Z 1900/1924 31006KT 4SM FU SKC FM190500 VRB03KT
                       4SM BR SKC FM191200 00000KT 5SM BR SCT005
                       TEMPO 1914/1917 3SM BR OVC004 FM191700 VRB03KT
                       6SM HZ FEW005 FM192100 35005KT 4SM FU SKC=
202210181903 KBFI 181903Z 1819/1918 30004KT 4SM FU FEW005 FM190000 31004KT 4SM
                       FU SKC FM190500 VRB03KT 5SM BR SKC FM191200
                       00000KT 5SM BR SCT005
                      TEMPO 1914/1917 3SM BR OVC004 FM191700 VRB03KT
                       6SM HZ FEW005=
202210181757 TAF KBFI 181757Z 1818/1918 00000KT 1 1/2SM BR OVC003 FM181900 VRB03KT
                       6SM HZ FEW005 FM182000 34006KT 6SM FU SKC
                       FM190000 31004KT 6SM FU SKC FM191200 00000KT
                       P6SM SCT005
                      TEMPO 1914/1917 3SM BR OVC004 FM191700 VRB03KT
                       6SM HZ FEW005=
202210181518 KBFI 181518Z 1815/1912 00000KT P6SM FEW250
                      TEMPO 1815/1817 3SM BR OVC004 FM181700 VRB03KT
                       6SM HZ FEW030 FM182000 34006KT 6SM HZ SKC
                       FM190000 31004KT 6SM HZ SKC=
202210181357 KBFI 181357Z 1814/1912 00000KT P6SM FEW250
                      TEMPO 1814/1817 OVC005 FM181700 VRB03KT 6SM
                       HZ FEW030 FM182000 34006KT 6SM HZ SKC FM190000
                       31004KT 6SM HZ SKC=
202210181125 TAF KBFI 181125Z 1812/1912 00000KT P6SM FEW250
                      TEMPO 1813/1817 BKN020 FM181700 VRB03KT 6SM
                       HZ FEW030 FM182000 34006KT 6SM HZ SKC FM190000
                       31004KT 6SM HZ SKC=
202210180520 TAF KBFI 180520Z 1806/1906 00000KT P6SM FEW250 FM180800 00000KT
                       P6SM SCT250
                      TEMPO 1813/1817 BKN020 FM181700 VRB03KT 6SM
                       HZ FEW030 FM182000 34006KT 6SM HZ SKC FM190000
                       31004KT 6SM HZ SKC=
202210180253 KBFI 180253Z 1803/1824 VRB03KT P6SM FEW250 FM180800 00000KT P6SM
                       SCT250
                      TEMPO 1813/1817 BKN020 FM181700 VRB03KT 6SM
                       HZ FEW030 FM182000 34006KT 6SM HZ SKC=
202210172320 TAF KBFI 172320Z 1800/1824 22006KT P6SM SCT250 FM180200 31004KT
                       P6SM SKC FM180800 07002KT P6SM SKC
                      TEMPO 1813/1817 BKN025 FM181700 VRB03KT P6SM
                       FEW050 FM182000 34006KT P6SM SKC=
202210172055 KBFI 172055Z 1721/1818 22006KT P6SM SCT250 FM180200 31004KT P6SM
                       SKC FM180800 07002KT P6SM SKC FM181500 VRB03KT
                       P6SM FEW050=
202210171742 TAF KBFI 171742Z 1718/1818 16007KT 6SM FU SCT030 FM171900 22006KT
                       P6SM SKC FM180200 31004KT P6SM SKC FM180800
                       07002KT P6SM SKC FM181500 VRB03KT P6SM FEW050=
202210171555 KBFI 171555Z 1716/1812 14006KT 6SM FU SKC FM171800 26004KT P6SM
                       SCT250 FM180000 31004KT P6SM SKC FM180800
                       07002KT P6SM SKC=
202210171121 TAF KBFI 171121Z 1712/1812 15009KT P6SM SKC FM171500 00000KT P6SM
                       FEW250
                      TEMPO 1715/1718 BKN005 FM171800 26004KT P6SM
                       SCT250 FM180000 31004KT P6SM SKC FM180800
                       07002KT P6SM SKC=
202210170521 TAF KBFI 170521Z 1706/1806 15009KT 6SM HZ SKC FM171500 00000KT
                       P6SM FEW250
                      TEMPO 1715/1718 BKN005 FM171800 26004KT P6SM
                       SCT250 FM180000 31004KT P6SM SKC=
202210162323 TAF KBFI 162323Z 1700/1724 33006KT 6SM HZ SKC FM170200 22005KT
                       6SM HZ SKC FM171500 00000KT P6SM FEW250
                       TEMPO 1715/1718 BKN005 FM171800 26004KT
                       P6SM SCT250=
202210162052 KBFI 162052Z 1621/1718 33006KT P6SM SKC FM170200 27005KT 6SM HZ
                       SKC FM171300 20003KT P6SM BKN008 FM171700
                       20004KT P6SM FEW250=
202210161738 TAF KBFI 161738Z 1618/1718 31003KT 6SM FU SKC FM170200 27005KT
                       P6SM SKC FM171300 20003KT P6SM BKN008 FM171700
                       20004KT P6SM FEW250=
202210161120 TAF KBFI 161120Z 1612/1712 00000KT 6SM HZ SKC FM161900 31007KT
                       4SM HZ SKC FM162000 30006KT 5SM HZ SKC FM170300
                       25005KT P6SM SKC=
202210160520 TAF KBFI 160520Z 1606/1706 34006KT 6SM HZ SKC FM160900 00000KT
                       4SM HZ SKC FM162000 30006KT 5SM BR SKC FM170300
                       25005KT P6SM SKC=
202210152321 TAF KBFI 152321Z 1600/1624 33007KT 5SM HZ SKC FM160300 34006KT
                       6SM HZ SKC FM160900 00000KT 4SM HZ SKC FM162000
                       30006KT 5SM BR SKC=
202210152051 KBFI 152051Z 1521/1618 33008G15KT 5SM HZ SKC FM160200 34007KT 6SM
                       HZ SKC FM160900 00000KT 4SM HZ SKC=
202210151917 KBFI 151917Z 1519/1618 35006KT 4SM HZ SKC FM152100 33008G15KT 6SM
                       HZ SKC FM160200 34007KT 6SM HZ SKC FM160900
                       00000KT 4SM HZ SKC=
202210151724 TAF KBFI 151724Z 1518/1618 02002KT 4SM HZ SKC FM152100 33008G15KT
                       6SM HZ SKC FM160200 34007KT 6SM HZ SKC FM160900
                       00000KT 4SM HZ SKC=
202210151506 KBFI 151506Z 1515/1612 02002KT 4SM HZ SKC FM152100 33008G15KT 5SM
                       HZ SKC FM160200 07003KT 6SM HZ SKC FM160900
                       00000KT P6SM SKC=
202210151315 KBFI 151315Z 1513/1612 02002KT 4SM HZ SKC FM151700 33004KT 3SM
                       HZ SKC FM152100 33005KT 5SM HZ SKC FM160200
                       07003KT P6SM SKC FM160900 00000KT P6SM SKC=
202210151129 TAF KBFI 151129Z 1512/1612 02002KT 6SM HZ SKC FM151700 33004KT
                       3SM HZ SKC FM152100 33005KT 5SM HZ SKC FM160200
                       07003KT P6SM SKC FM160900 00000KT P6SM SKC=
202210150520 TAF KBFI 150520Z 1506/1606 00000KT 6SM HZ SKC FM151200 02002KT
                       4SM HZ SKC FM151800 33006KT 3SM HZ SKC FM152200
                       33005KT 5SM HZ SKC=
202210142320 TAF KBFI 142320Z 1500/1524 31005KT 6SM HZ SKC FM150300 00000KT
                       6SM HZ SKC FM151200 02002KT 3SM HZ SKC FM151800
                       33006KT 3SM HZ SKC=
202210141721 TAF KBFI 141721Z 1418/1518 00000KT 5SM HZ SKC FM141900 31005KT
                       5SM HZ SKC FM150300 00000KT 6SM HZ SKC FM151200
                       02002KT 3SM HZ SKC=
202210141127 TAF KBFI 141127Z 1412/1512 00000KT 6SM HZ SKC FM141900 32006KT
                       5SM HZ SKC FM150300 00000KT 6SM HZ SKC=
202210140527 TAF KBFI 140527Z 1406/1506 00000KT 6SM HZ SKC FM141900 32006KT
                       5SM HZ SKC=
202210132321 TAF KBFI 132321Z 1400/1424 32005KT 5SM HZ SKC FM140600 03002KT
                       6SM HZ SKC FM141800 32005KT 5SM HZ SKC=
202210131720 TAF KBFI 131720Z 1318/1418 31005KT 6SM HZ SKC FM140600 03002KT
                       P6SM SKC=
202210131120 TAF KBFI 131120Z 1312/1412 00000KT P6SM SKC FM131700 32006KT 6SM
                       HZ SKC FM140600 03006KT P6SM SKC=
202210130536 TAF KBFI 130536Z 1306/1406 00000KT P6SM SKC FM131700 32006KT 6SM
                       HZ SKC=
202210122321 TAF KBFI 122321Z 1300/1324 32006KT P6SM SKC FM130200 33002KT 6SM
                       HZ SKC FM131800 32005KT 6SM HZ SKC=
202210121720 TAF KBFI 121720Z 1218/1318 33002KT P6SM SKC FM121900 33006KT P6SM
                       SKC FM130200 33002KT P6SM SKC=
202210121120 TAF KBFI 121120Z 1212/1312 00000KT P6SM SKC FM121500 VRB02KT P6SM
                       SKC FM121900 33003KT P6SM SKC FM130000 33005KT
                       P6SM SKC=
202210120834 KBFI 120834Z 1209/1306 00000KT P6SM SKC FM121500 VRB02KT P6SM SKC
                       FM121900 33003KT P6SM SKC=
202210120520 TAF KBFI 120520Z 1206/1306 00000KT P6SM SKC FM121500 VRB02KT P6SM
                       SKC FM121900 33003KT P6SM SKC=
202210112320 TAF KBFI 112320Z 1200/1224 33005KT P6SM SKC FM120400 01003KT P6SM
                       SKC FM121500 VRB02KT P6SM SKC FM121900 33003KT
                       P6SM SKC=
202210111720 TAF KBFI 111720Z 1118/1218 VRB04KT P6SM FEW250 FM112200 33005KT
                       P6SM SKC FM120400 01003KT P6SM SKC FM121500
                       VRB02KT P6SM SKC=
202210111120 TAF KBFI 111120Z 1112/1212 VRB03KT P6SM SCT060 FM111600 00000KT
                       P6SM BKN050 FM111800 34003KT P6SM FEW250
                       FM112200 33004KT P6SM SKC=
202210110846 KBFI 110846Z 1109/1206 19006KT P6SM OVC035 FM111100 VRB03KT 5SM
                       BR BKN020 FM111500 05003KT 6SM BR BKN250=
202210110520 TAF KBFI 110520Z 1106/1206 06006KT P6SM OVC025 FM111100 VRB03KT
                       5SM BR BKN020 FM111500 05003KT 6SM BR BKN250=
202210102320 TAF KBFI 102320Z 1100/1124 19006KT P6SM SCT100 BKN200 FM110400
                       24008KT P6SM BKN045 OVC070 FM110700 17004KT
                       P6SM BKN015 OVC025 FM111100 VRB03KT 5SM
                       BR BKN020 FM111500 05003KT 6SM BR BKN250=
202210101727 TAF KBFI 101727Z 1018/1118 16004KT 6SM HZ SKC FM101900 19006KT
                       P6SM SCT100 BKN200 FM110100 22008KT P6SM
                       BKN050 OVC080 FM110400 24008KT P6SM BKN045
                       OVC070 FM110700 17006KT P6SM BKN015 OVC025
                       FM111100 VRB03KT 5SM BR OVC020 FM111500
                       05003KT 6SM BR BKN020=
202210101128 TAF KBFI 101128Z 1012/1112 16004KT 6SM HZ SKC FM101900 19006KT
                       P6SM SCT100 BKN200 FM110100 22008KT P6SM
                       BKN050 OVC080 FM110700 17006KT P6SM BKN015
                       OVC025=
202210100541 TAF KBFI 100541Z 1006/1106 00000KT P6SM SKC FM101200 17006KT 6SM
                       HZ SKC FM101900 19006KT P6SM SCT100 BKN200
                       FM110100 22008KT P6SM BKN050 OVC080=
202210092320 TAF KBFI 092320Z 1000/1024 31005KT P6SM SKC FM100500 00000KT P6SM
                       SKC FM101000 17006KT 6SM HZ SKC FM101800
                       19005KT P6SM SCT250 FM102200 25010KT P6SM
                       FEW250=
202210091723 TAF KBFI 091723Z 0918/1018 00000KT 6SM HZ SKC FM091900 30004KT
                       P6SM SKC FM092300 31006KT P6SM SKC FM101100
                       17006KT 6SM HZ SKC=
202210091135 TAF KBFI 091135Z 0912/1012 00000KT 6SM HZ SKC FM091900 30006KT
                       P6SM SKC FM100600 00000KT P6SM SKC FM101100
                       17006KT P6SM SKC=
202210090526 TAF KBFI 090526Z 0906/1006 00000KT P6SM SKC FM091300 00000KT 6SM
                       HZ BR SKC FM091700 30006KT P6SM SKC=
202210082320 TAF KBFI 082320Z 0900/0924 31005KT P6SM SKC FM090400 00000KT P6SM
                       SKC FM091300 00000KT 6SM HZ BR SKC FM091700
                       35003KT P6SM SKC=
202210081720 TAF KBFI 081720Z 0818/0918 32004KT P6SM SKC FM082300 32006KT P6SM
                       SKC FM090900 02003KT P6SM SKC FM091300 00000KT
                       6SM HZ BR SKC=
202210081502 KBFI 081502Z 0815/0912 VRB03KT P6SM SKC
                      TEMPO 0815/0816 4SM HZ FM081800 32004KT P6SM
                       SKC FM082300 34006KT P6SM SKC=
202210081121 TAF KBFI 081121Z 0812/0912 VRB03KT P6SM SKC
                      TEMPO 0812/0816 4SM HZ=
202210080520 TAF KBFI 080520Z 0806/0906 VRB03KT P6SM SKC
                      TEMPO 0812/0816 3SM HZ=
202210072340 TAF KBFI 072340Z 0800/0824 31006KT 6SM HZ SCT250 FM080300 VRB03KT
                       6SM HZ SKC FM080900 00000KT P6SM BCFG FEW006
                       FM081800 31005KT P6SM SKC=
202210072056 KBFI 072056Z 0721/0818 31006KT 6SM HZ BKN250 FM080200 VRB03KT P6SM
                       SKC FM080900 00000KT P6SM BCFG FEW006=
202210071723 TAF KBFI 071723Z 0718/0818 VRB03KT P6SM BKN250 FM072100 31006KT
                       P6SM SCT250 FM080200 VRB03KT P6SM SKC FM080900
                       00000KT P6SM BCFG FEW006=
202210071456 KBFI 071456Z 0715/0812 00000KT 6SM BR SCT007 BKN250
                      TEMPO 0715/0716 4SM BR BKN007 FM071900 31005KT
                       P6SM SCT250 FM080200 VRB03KT P6SM SKC FM080900
                       00000KT P6SM BCFG FEW006=
202210071128 TAF KBFI 071128Z 0712/0812 00000KT 6SM BR SCT007 BKN250
                      TEMPO 0712/0716 6SM BR BKN007 FM071900 31005KT
                       P6SM SCT250 FM080200 VRB03KT P6SM SKC FM080900
                       00000KT P6SM BCFG FEW006=
202210070528 TAF KBFI 070528Z 0706/0806 31005KT P6SM BKN250 FM071000 00000KT
                       P6SM SCT007 BKN250
                      TEMPO 0712/0716 6SM BR BKN007 FM071900 31005KT
                       P6SM SCT250 FM080200 VRB03KT P6SM SCT250=
202210062320 TAF KBFI 062320Z 0700/0724 31005KT P6SM BKN250 FM070700 VRB02KT
                       P6SM BCFG FEW008 SCT250 FM071000 00000KT
                       4SM BR BKN006 FM071200 00000KT 1/2SM FG
                       VV002 FM071700 VRB03KT 4SM BR BKN005 BKN015
                       FM071900 31005KT P6SM SCT250=
202210061720 TAF KBFI 061720Z 0618/0718 31004KT P6SM BKN008 BKN250 FM062000
                       34004KT P6SM SCT011 BKN250 FM062300 32005KT
                       P6SM SCT250 FM070700 VRB02KT P6SM BCFG FEW008
                       FM071000 00000KT 4SM BR BKN006 FM071200
                       00000KT 1/2SM FG VV002 FM071700 VRB03KT
                       4SM BR BKN005 BKN015=
202210061131 TAF KBFI 061131Z 0612/0712 VRB03KT 1SM BR OVC004 FM061700 00000KT
                       6SM BR OVC007 FM062000 34004KT P6SM SCT011
                       SCT250 FM062300 32005KT P6SM FEW250 FM070700
                       VRB02KT P6SM BCFG FEW008 FM071000 00000KT
                       4SM BR BKN006=
202210061017 KBFI 061017Z 0610/0706 00000KT 3SM BR OVC005 FM061700 00000KT 6SM
                       BR OVC009 FM062000 34004KT P6SM SCT010 SCT250
                       FM062300 32005KT P6SM FEW250=
202210060820 KBFI 060820Z 0608/0706 VRB02KT 4SM BR SCT005
                      TEMPO 0608/0612 3SM BR BKN005 FM061200 00000KT
                       4SM BR OVC005 FM062000 34004KT P6SM SCT010
                       SCT250 FM062300 32005KT P6SM FEW250=
202210060538 TAF KBFI 060538Z 0606/0706 VRB02KT 6SM BR SCT015
                      TEMPO 0607/0610 5SM BR BKN013 FM061000 00000KT
                       6SM BR OVC012 FM062000 34004KT P6SM SCT015
                       SCT250 FM062300 32005KT P6SM FEW250=
202210060232 KBFI 060232Z 0603/0624 00000KT P6SM SKC FM060600 VRB02KT 6SM BR
                       BKN250 FM061000 00000KT 6SM BCFG OVC006
                       FM061500 VRB02KT 4SM BCFG OVC004 FM061900
                       35002KT P6SM SCT015 SCT250=
202210052331 TAF KBFI 052331Z 0600/0624 07006KT P6SM SCT200 FM060600 VRB02KT
                       P6SM SCT007 FM061000 00000KT 6SM BCFG OVC006
                       FM061500 VRB02KT 4SM BCFG OVC004 FM061900
                       35002KT P6SM SCT015 SCT250=
202210052052 KBFI 052052Z 0521/0618 31005KT 6SM BR OVC008 FM052200 33005KT P6SM
                       FEW012 SCT200 FM060000 32006KT P6SM SCT200
                       FM060700 VRB02KT P6SM SCT007 FM061000 00000KT
                       6SM BR OVC006=
202210051733 TAF KBFI 051733Z 0518/0618 VRB04KT 6SM BR OVC009 FM052000 32003KT
                       P6SM OVC012 FM052100 31005KT P6SM FEW012
                       SCT200 FM060000 32006KT P6SM SCT200 FM060700
                       VRB02KT P6SM SCT007 FM061000 00000KT 6SM
                       BR OVC006=
202210051121 TAF KBFI 051121Z 0512/0612 25003KT P6SM OVC008 FM051800 VRB04KT
                       P6SM OVC012 FM052100 31005KT P6SM FEW012
                       SCT200 FM060000 32006KT P6SM SCT200 FM060700
                       VRB02KT P6SM SCT007 FM061000 00000KT 6SM
                       BR OVC006=
202210051005 KBFI 051005Z 0510/0606 VRB03KT P6SM OVC008 FM051800 VRB04KT P6SM
                       OVC011 FM052100 31005KT P6SM FEW012 SCT250=
202210050706 KBFI 050706Z 0507/0606 VRB03KT P6SM OVC008 FM051200 00000KT 6SM
                       BR OVC007 FM051800 VRB04KT P6SM OVC011 FM052100
                       31005KT P6SM FEW012 SCT250=
202210050520 TAF KBFI 050520Z 0506/0606 00000KT P6SM SCT007
                      TEMPO 0506/0507 6SM BR OVC005 FM050700 VRB03KT
                       6SM BR OVC005 FM051200 00000KT 4SM BR OVC004
                       FM051800 VRB04KT 6SM BR OVC009 FM052100
                       31005KT P6SM FEW012 SCT250=
202210050237 KBFI 050237Z 0503/0524 34003KT P6SM SKC FM050600 00000KT 5SM BR
                       OVC050
                      TEMPO 0506/0508 1/2SM FG OVC001 FM050900
                       VRB03KT 2SM BR OVC004 FM051200 00000KT 3/4SM
                       BR OVC001 FM051400 35005KT 1/4SM BCFG VV001=
202210042328 TAF KBFI 042328Z 0500/0524 26005KT P6SM SCT015 BKN200 FM050600
                       00000KT 5SM BR OVC050 FM050900 VRB03KT 2SM
                       BR OVC004 FM051200 00000KT 3/4SM BR OVC002
                       FM051400 35005KT 1/4SM BCFG VV001=
202210041853 KBFI 041853Z 0419/0518 19004KT 3SM BCFG OVC007 FM042000 19003KT
                       3SM BR OVC009 FM042200 26005KT P6SM SCT015
                       BKN200 FM050900 VRB03KT 6SM BCFG OVC008
                       FM051300 00000KT 6SM BCFG OVC005=
202210041812 KBFI 041812Z 0418/0518 19004KT 2SM BCFG OVC004 FM041900 19003KT
                       3SM BR OVC007 FM042000 26005KT P6SM SCT015
                       BKN200 FM050900 VRB03KT 6SM BCFG OVC008
                       FM051300 00000KT 6SM BCFG OVC005=
202210041725 TAF KBFI 041725Z 0418/0518 19004KT 1SM BCFG OVC004 FM041900 19003KT
                       2SM BR BKN011 FM042000 26005KT P6SM SCT015
                       BKN200 FM050900 VRB03KT 6SM BCFG OVC008
                       FM051300 00000KT 6SM BCFG OVC005=
202210041603 KBFI 041603Z 0416/0512 19004KT 1SM BCFG OVC003 FM041900 19003KT
                       P6SM BKN011 FM042000 26005KT P6SM SCT015
                       BKN200 FM050900 VRB03KT 6SM BR OVC008=
202210041458 KBFI 041458Z 0415/0512 17005KT 2SM BR OVC004 FM041600 19004KT 5SM
                       BR OVC006 FM041800 19003KT P6SM BKN011 FM042000
                       26005KT P6SM SCT015 BKN200 FM050900 VRB03KT
                       6SM BR OVC008=
202210041120 TAF KBFI 041120Z 0412/0512 17003KT 3SM BR OVC004 FM041600 19004KT
                       5SM BR OVC006 FM041800 19003KT P6SM BKN011
                       FM042000 26005KT P6SM SCT015 BKN200 FM050900
                       VRB03KT 6SM BR OVC008=
202210040855 KBFI 040855Z 0409/0506 VRB02KT 6SM BR SCT006
                      TEMPO 0409/0411 4SM BR BKN004 FM041100 20003KT
                       4SM BR OVC004 FM041800 19003KT P6SM BKN011
                       FM042000 27003KT P6SM SCT015 BKN200=
202210040520 TAF KBFI 040520Z 0406/0506 VRB02KT P6SM SKC FM040800 VRB03KT P6SM
                       FEW009
                      TEMPO 0408/0410 6SM BR BKN007 FM041000 20003KT
                       6SM BR BKN007 FM041300 21003KT 5SM BR OVC006
                       FM041800 19003KT P6SM BKN011 FM042000 27003KT
                       P6SM SCT015 BKN200=
202210040247 KBFI 040247Z 0403/0424 31005KT P6SM SKC FM040700 20005KT P6SM SKC
                       FM041200 20003KT 3SM BR BKN007 FM041500
                       21003KT 2SM BR OVC005 FM042000 27003KT 6SM
                       HZ BKN060=
202210032320 TAF KBFI 032320Z 0400/0424 31005KT 6SM HZ SKC FM040700 20005KT
                       P6SM SKC FM041200 20003KT 3SM BR BKN007
                       FM041500 21003KT 2SM BR OVC005 FM042000
                       27003KT 6SM HZ BKN060=
202210031727 TAF KBFI 031727Z 0318/0418 00000KT 6SM HZ SKC FM032100 30005KT
                       6SM HZ SKC FM040700 20005KT P6SM SKC FM041200
                       20003KT 3SM BR BKN007 FM041500 21003KT 2SM
                       BR OVC005=
202210031456 KBFI 031456Z 0315/0412 02003KT 6SM HZ FEW250 FM032100 30005KT P6SM
                       SKC FM040700 20005KT P6SM SKC=
202210031137 TAF KBFI 031137Z 0312/0412 02003KT P6SM SKC FM032100 30005KT P6SM
                       SKC FM040700 20005KT P6SM SKC=
202210030540 TAF KBFI 030540Z 0306/0406 VRB02KT P6SM SKC FM031000 02003KT P6SM
                       SKC FM032100 30005KT P6SM SKC=
202210030235 KBFI 030235Z 0303/0324 32003KT 6SM HZ SKC FM030500 00000KT P6SM
                       SKC FM032200 30005KT P6SM SKC=
202210022320 TAF KBFI 022320Z 0300/0324 32006KT 6SM HZ SKC FM030500 00000KT
                       P6SM SKC FM032200 30005KT P6SM SKC=
202210021726 TAF KBFI 021726Z 0218/0318 00000KT P6SM SKC FM022000 32004KT P6SM
                       SKC FM030500 00000KT P6SM SKC=
202210021124 TAF KBFI 021124Z 0212/0312 00000KT P6SM SKC FM021500 00000KT P6SM
                       FEW250 FM022000 32004KT P6SM SKC FM030300
                       VRB01KT P6SM SKC=
202210020527 TAF KBFI 020527Z 0206/0306 34003KT P6SM SKC FM021500 00000KT P6SM
                       FEW250 FM022000 32004KT P6SM SKC FM030300
                       VRB01KT P6SM SKC=
202210020241 KBFI 020241Z 0203/0224 02003KT P6SM SKC FM021500 00000KT P6SM FEW250
                       FM022000 32004KT P6SM SKC=
202210012326 TAF KBFI 012326Z 0200/0224 31007KT P6SM SKC FM020200 02003KT P6SM
                       FEW250 FM021500 00000KT P6SM FEW250 FM022000
                       32004KT P6SM SKC=
202210011720 TAF KBFI 011720Z 0118/0218 33006KT P6SM SKC FM012000 36010KT P6SM
                       FEW250 FM020200 02003KT P6SM FEW250=
202210011142 TAF KBFI 011142Z 0112/0212 VRB03KT P6SM SKC FM011600 02004KT P6SM
                       FEW250 FM012000 36007KT P6SM FEW250 FM020200
                       02003KT P6SM FEW250=
202210010536 TAF KBFI 010536Z 0106/0206 00000KT P6SM SKC FM011000 VRB02KT P6SM
                       SKC FM011600 34003KT P6SM FEW250=