##########################################################
# Query made at 02/17/2025 07:07:08 UTC
# Time interval: from 07/01/2022 00:00  to 07/31/2022 23:59  UTC
##########################################################

##########################################################
# KBFI, Seattle, Seattle Boeing Field (United States)
# WMO index: -----. WIGOS ID: Unknown
# Latitude 47-32-45N. Longitude 122-18-49W. Altitude 5 m.
##########################################################

###################################
#  METAR/SPECI from KBFI
###################################
202207312353 METAR KBFI 312353Z VRB05KT 10SM CLR 33/14 A2985 RMK AO2 SLP108 T03330139 10333 20256 58016=
202207312253 METAR KBFI 312253Z VRB06KT 10SM CLR 33/14 A2987 RMK AO2 SLP115 T03330139=
202207312153 METAR KBFI 312153Z VRB05KT 10SM CLR 32/13 A2988 RMK AO2 SLP119 T03220133=
202207312053 SPECI KBFI 312053Z 34005KT 10SM CLR 30/14 A2990 RMK AO2 SLP124 T03000144 58008=
202207312053 METAR KBFI 312053Z 34005KT 10SM CLR 30/14 A2990 RMK AO2 SLP124 T03000144 58008=
202207311953 METAR KBFI 311953Z VRB04KT 10SM CLR 29/15 A2991 RMK AO2 SLP127 T02940150=
202207311853 METAR KBFI 311853Z VRB06KT 10SM CLR 27/16 A2992 RMK AO2 SLP130 T02720156=
202207311753 METAR KBFI 311753Z VRB05KT 10SM CLR 26/15 A2992 RMK AO2 SLP131 T02560150 10261 20183 58005=
202207311653 METAR KBFI 311653Z 30005KT 10SM CLR 24/15 A2993 RMK AO2 SLP133 T02390150=
202207311553 METAR KBFI 311553Z 26003KT 10SM CLR 23/15 A2993 RMK AO2 SLP136 T02280150=
202207311453 METAR KBFI 311453Z VRB03KT 10SM CLR 21/15 A2993 RMK AO2 SLP136 T02060150 51007=
202207311353 METAR KBFI 311353Z 00000KT 10SM CLR 19/15 A2993 RMK AO2 SLP136 T01940150=
202207311253 METAR KBFI 311253Z 33003KT 10SM CLR 19/14 A2992 RMK AO2 SLP132 T01890144=
202207311153 METAR KBFI 311153Z 31003KT 10SM CLR 19/14 A2991 RMK AO2 SLP129 T01940144 10256 20194 51008=
202207311053 METAR KBFI 311053Z 28003KT 10SM CLR 21/15 A2990 RMK AO2 SLP126 T02060150=
202207310953 METAR KBFI 310953Z 00000KT 10SM CLR 21/15 A2991 RMK AO2 SLP127 T02110150=
202207310853 METAR KBFI 310853Z 00000KT 10SM CLR 21/15 A2989 RMK AO2 SLP121 T02110150 53007=
202207310753 METAR KBFI 310753Z 00000KT 10SM CLR 23/15 A2988 RMK AO2 SLP118 T02330150 403330189=
202207310653 METAR KBFI 310653Z 32003KT 10SM CLR 24/15 A2987 RMK AO2 SLP116 T02440150=
202207310553 METAR KBFI 310553Z 30003KT 10SM CLR 26/15 A2987 RMK AO2 SLP115 T02560150 10333 20256 53011=
202207310453 METAR KBFI 310453Z 35003KT 6SM HZ CLR 27/14 A2986 RMK AO2 SLP111 T02720144=
202207310353 METAR KBFI 310353Z 32004KT 10SM CLR 28/14 A2985 RMK AO2 SLP106 T02830139=
202207310253 METAR KBFI 310253Z 31005KT 10SM CLR 30/14 A2984 RMK AO2 SLP103 T03000144 55005=
202207310153 METAR KBFI 310153Z 32005KT 10SM CLR 32/15 A2983 RMK AO2 SLP103 T03170150=
202207310053 METAR KBFI 310053Z 30006KT 10SM CLR 33/13 A2984 RMK AO2 SLP105 T03280133=
202207302353 METAR KBFI 302353Z 30007KT 10SM CLR 33/14 A2985 RMK AO2 SLP108 T03330144 10333 20272 58012=
202207302253 METAR KBFI 302253Z AUTO 32006KT 10SM CLR 33/16 A2986 RMK AO2 SLP113 T03330156=
202207302153 METAR KBFI 302153Z 33007KT 10SM CLR 32/17 A2987 RMK AO2 SLP116 T03220167=
202207302053 METAR KBFI 302053Z VRB06KT 10SM CLR 31/17 A2989 RMK AO2 SLP120 T03110167 58006=
202207301953 METAR KBFI 301953Z VRB05KT 10SM CLR 31/17 A2990 RMK AO2 SLP123 T03060167=
202207301853 METAR KBFI 301853Z VRB05KT 10SM CLR 28/17 A2990 RMK AO2 SLP125 T02830172=
202207301753 METAR KBFI 301753Z 33005KT 10SM CLR 27/18 A2990 RMK AO2 SLP126 T02720178 10272 20189 58006=
202207301653 METAR KBFI 301653Z VRB04KT 10SM CLR 26/17 A2991 RMK AO2 SLP129 T02560167=
202207301553 METAR KBFI 301553Z 00000KT 10SM CLR 24/17 A2992 RMK AO2 SLP130 T02390172=
202207301453 METAR KBFI 301453Z 00000KT 10SM CLR 22/16 A2992 RMK AO2 SLP133 T02170161 51012=
202207301353 METAR KBFI 301353Z 00000KT 10SM CLR 19/15 A2991 RMK AO2 SLP128 T01940150=
202207301253 METAR KBFI 301253Z 33003KT 10SM CLR 19/15 A2990 RMK AO2 SLP125 T01890150=
202207301153 METAR KBFI 301153Z 00000KT 10SM CLR 19/15 A2989 RMK AO2 SLP120 T01940150 10244 20194 53010=
202207301053 METAR KBFI 301053Z 00000KT 10SM CLR 21/16 A2988 RMK AO2 SLP116 T02060156=
202207300953 METAR KBFI 300953Z AUTO 34003KT 10SM CLR 21/16 A2986 RMK AO2 SLP112 T02110161=
202207300853 METAR KBFI 300853Z 00000KT 10SM CLR 22/16 A2986 RMK AO2 SLP110 T02220161 53003=
202207300753 METAR KBFI 300753Z 00000KT 10SM CLR 23/17 A2985 RMK AO2 SLP108 T02280167 403280183=
202207300653 METAR KBFI 300653Z 00000KT 10SM CLR 24/17 A2985 RMK AO2 SLP107 T02390167=
202207300553 METAR KBFI 300553Z 30003KT 10SM CLR 24/17 A2985 RMK AO2 SLP107 T02440167 10322 20244 51010=
202207300453 METAR KBFI 300453Z 33003KT 10SM CLR 25/17 A2984 RMK AO2 SLP104 T02500167=
202207300353 METAR KBFI 300353Z 31005KT 10SM CLR 27/17 A2982 RMK AO2 SLP099 T02670167=
202207300253 METAR KBFI 300253Z VRB04KT 10SM CLR 29/17 A2982 RMK AO2 SLP096 T02890172 56009=
202207300153 METAR KBFI 300153Z VRB05KT 10SM CLR 31/17 A2982 RMK AO2 SLP097 T03110172=
202207300053 METAR KBFI 300053Z 30007KT 10SM CLR 32/17 A2983 RMK AO2 SLP100 T03170172=
202207292353 METAR KBFI 292353Z 30008KT 10SM CLR 32/17 A2984 RMK AO2 SLP105 T03220172 10328 20256 58014=
202207292253 METAR KBFI 292253Z 29005KT 10SM CLR 32/17 A2986 RMK AO2 SLP110 T03170172=
202207292153 METAR KBFI 292153Z VRB05KT 10SM CLR 31/17 A2987 RMK AO2 SLP115 T03110172=
202207292053 METAR KBFI 292053Z 31008KT 10SM CLR 29/17 A2988 RMK AO2 SLP119 T02940167 58009=
202207291953 METAR KBFI 291953Z VRB05KT 10SM CLR 29/16 A2989 RMK AO2 SLP122 T02890156=
202207291853 METAR KBFI 291853Z VRB03KT 10SM CLR 28/16 A2991 RMK AO2 SLP127 T02780161=
202207291753 METAR KBFI 291753Z 30005KT 10SM CLR 26/17 A2991 RMK AO2 SLP128 T02560167 10256 20183 58006=
202207291653 METAR KBFI 291653Z 32005KT 10SM CLR 24/17 A2992 RMK AO2 SLP130 T02440167=
202207291553 METAR KBFI 291553Z 32003KT 10SM CLR 23/16 A2992 RMK AO2 SLP132 T02280161=
202207291453 METAR KBFI 291453Z 00000KT 10SM CLR 21/16 A2993 RMK AO2 SLP134 T02110156 53006=
202207291353 METAR KBFI 291353Z 00000KT 10SM CLR 19/15 A2992 RMK AO2 SLP130 T01890150=
202207291253 METAR KBFI 291253Z 00000KT 10SM CLR 18/15 A2991 RMK AO2 SLP128 T01830150=
202207291153 METAR KBFI 291153Z 00000KT 10SM CLR 19/16 A2991 RMK AO2 SLP128 T01940156 10233 20189 53006=
202207291053 METAR KBFI 291053Z 29003KT 10SM CLR 19/16 A2990 RMK AO2 SLP123 T01940156=
202207290953 METAR KBFI 290953Z 00000KT 10SM CLR 20/16 A2989 RMK AO2 SLP123 T02000156=
202207290853 METAR KBFI 290853Z 00000KT 10SM CLR 21/16 A2989 RMK AO2 SLP121 T02110161 51003=
202207290753 METAR KBFI 290753Z 31003KT 10SM CLR 21/16 A2989 RMK AO2 SLP121 T02110161 403220178=
202207290653 METAR KBFI 290653Z 30004KT 10SM CLR 22/16 A2989 RMK AO2 SLP121 T02170156=
202207290553 METAR KBFI 290553Z 33003KT 10SM CLR 23/16 A2988 RMK AO2 SLP119 T02330161 10322 20233 51006=
202207290453 METAR KBFI 290453Z 33005KT 10SM CLR 24/16 A2988 RMK AO2 SLP118 T02390156=
202207290353 METAR KBFI 290353Z 32004KT 10SM CLR 25/16 A2987 RMK AO2 SLP115 T02500161=
202207290253 METAR KBFI 290253Z 31005KT 10SM CLR 28/17 A2986 RMK AO2 SLP113 T02780167 56008=
202207290153 METAR KBFI 290153Z 31006KT 10SM CLR 30/17 A2987 RMK AO2 SLP114 T03000167=
202207290053 METAR KBFI 290053Z 30007KT 10SM CLR 31/16 A2988 RMK AO2 SLP117 T03110161=
202207282353 METAR KBFI 282353Z 31007KT 10SM CLR 32/16 A2989 RMK AO2 SLP121 T03170161 10322 20239 58014=
202207282253 METAR KBFI 282253Z VRB05KT 10SM CLR 32/16 A2990 RMK AO2 SLP126 T03170161=
202207282153 METAR KBFI 282153Z 31008KT 10SM CLR 31/16 A2992 RMK AO2 SLP130 T03110156=
202207282053 METAR KBFI 282053Z 32007KT 10SM CLR 30/17 A2993 RMK AO2 SLP135 T03000167 57012=
202207281953 METAR KBFI 281953Z VRB06KT 10SM FEW150 28/17 A2994 RMK AO2 SLP139 T02780167=
202207281853 METAR KBFI 281853Z 30006KT 10SM CLR 27/17 A2995 RMK AO2 SLP142 T02670172=
202207281753 METAR KBFI 281753Z 33005KT 10SM CLR 24/16 A2996 RMK AO2 SLP146 T02390161 10256 20178 56013=
202207281653 METAR KBFI 281653Z 00000KT 10SM CLR 24/17 A2998 RMK AO2 SLP150 T02390167=
202207281553 METAR KBFI 281553Z 32003KT 10SM FEW250 22/16 A2998 RMK AO2 SLP150 T02170161=
202207281453 METAR KBFI 281453Z AUTO 29003KT 10SM CLR 19/16 A3000 RMK AO2 SLP159 T01940156 53009=
202207281353 METAR KBFI 281353Z 00000KT 10SM CLR 18/15 A2998 RMK AO2 SLP153 T01830150=
202207281253 METAR KBFI 281253Z 33003KT 10SM CLR 18/15 A2999 RMK AO2 SLP155 T01830150=
202207281153 METAR KBFI 281153Z 33004KT 10SM CLR 18/15 A2997 RMK AO2 SLP150 T01830150 10239 20178 51005=
202207281053 METAR KBFI 281053Z VRB03KT 10SM CLR 19/16 A2997 RMK AO2 SLP147 T01890156=
202207280953 METAR KBFI 280953Z VRB03KT 10SM CLR 21/16 A2997 RMK AO2 SLP149 T02060156=
202207280853 METAR KBFI 280853Z 00000KT 10SM CLR 21/16 A2996 RMK AO2 SLP145 T02110161 51002=
202207280753 METAR KBFI 280753Z 31003KT 10SM CLR 22/16 A2996 RMK AO2 SLP145 T02170161 403280178=
202207280653 METAR KBFI 280653Z 00000KT 10SM CLR 22/17 A2996 RMK AO2 SLP144 T02220167=
202207280553 METAR KBFI 280553Z 00000KT 10SM CLR 24/17 A2995 RMK AO2 SLP143 T02390167 10328 20239 53008=
202207280453 METAR KBFI 280453Z 00000KT 10SM CLR 25/16 A2995 RMK AO2 SLP140 T02500161=
202207280353 METAR KBFI 280353Z 31005KT 10SM CLR 25/16 A2993 RMK AO2 SLP136 T02500161=
202207280253 METAR KBFI 280253Z 31005KT 10SM CLR 27/16 A2993 RMK AO2 SLP134 T02720161 56004=
202207280153 METAR KBFI 280153Z 32005KT 10SM CLR 30/17 A2993 RMK AO2 SLP135 T03000167=
202207280053 METAR KBFI 280053Z 31006KT 10SM CLR 32/17 A2994 RMK AO2 SLP137 T03170167=
202207272353 METAR KBFI 272353Z VRB04KT 10SM CLR 32/16 A2994 RMK AO2 SLP138 T03220161 10322 20250 58009=
202207272253 METAR KBFI 272253Z 29006KT 10SM CLR 32/17 A2995 RMK AO2 SLP143 T03220167=
202207272153 METAR KBFI 272153Z VRB04KT 10SM CLR 31/17 A2996 RMK AO2 SLP145 T03110172=
202207272053 METAR KBFI 272053Z VRB05KT 10SM CLR 31/17 A2997 RMK AO2 SLP148 T03110172 58009=
202207271953 METAR KBFI 271953Z VRB03KT 10SM FEW150 28/17 A2998 RMK AO2 SLP151 T02830172=
202207271853 METAR KBFI 271853Z 00000KT 10SM FEW150 26/17 A3000 RMK AO2 SLP157 T02610172=
202207271753 METAR KBFI 271753Z 00000KT 10SM SCT150 25/17 A3000 RMK AO2 SLP158 T02500167 10250 20178 55001=
202207271653 METAR KBFI 271653Z 21004KT 10SM SCT200 23/16 A3000 RMK AO2 SLP157 T02330161=
202207271553 METAR KBFI 271553Z 00000KT 10SM CLR 22/16 A3000 RMK AO2 SLP157 T02220156=
202207271453 METAR KBFI 271453Z 19004KT 10SM CLR 20/16 A3000 RMK AO2 SLP159 T02000156 51012=
202207271353 METAR KBFI 271353Z 18004KT 10SM FEW150 18/15 A3000 RMK AO2 SLP158 T01830150=
202207271253 METAR KBFI 271253Z 16006KT 10SM CLR 18/15 A2998 RMK AO2 SLP151 T01780150=
202207271153 METAR KBFI 271153Z 16006KT 10SM CLR 19/16 A2997 RMK AO2 SLP147 T01890156 10256 20189 51016=
202207271053 METAR KBFI 271053Z 16007KT 10SM CLR 20/17 A2996 RMK AO2 SLP145 T02000167=
202207270953 METAR KBFI 270953Z 00000KT 10SM CLR 22/16 A2993 RMK AO2 SLP136 T02220156=
202207270853 METAR KBFI 270853Z 33003KT 10SM CLR 23/15 A2992 RMK AO2 SLP131 T02280150 53014=
202207270753 METAR KBFI 270753Z 00000KT 10SM CLR 24/16 A2990 RMK AO2 SLP125 T02440156 403440189=
202207270653 METAR KBFI 270653Z 00000KT 10SM CLR 26/16 A2989 RMK AO2 SLP121 T02560156=
202207270553 METAR KBFI 270553Z 32004KT 10SM CLR 26/16 A2988 RMK AO2 SLP116 T02610156 10339 20261 53015=
202207270453 METAR KBFI 270453Z 32003KT 10SM CLR 28/15 A2986 RMK AO2 SLP111 T02780150=
202207270353 METAR KBFI 270353Z 31003KT 10SM CLR 29/15 A2984 RMK AO2 SLP105 T02940150=
202207270253 METAR KBFI 270253Z 32005KT 10SM CLR 32/15 A2983 RMK AO2 SLP101 T03170150 55002=
202207270153 METAR KBFI 270153Z 30006KT 10SM CLR 33/17 A2982 RMK AO2 SLP099 T03280167=
202207270053 METAR KBFI 270053Z 30006KT 10SM CLR 33/16 A2983 RMK AO2 SLP101 T03330156=
202207262353 METAR KBFI 262353Z AUTO VRB05KT 10SM CLR 34/16 A2984 RMK AO2 SLP103 T03390156 10344 20267 58009=
202207262253 METAR KBFI 262253Z VRB03KT 10SM CLR 33/16 A2985 RMK AO2 SLP108 T03280156=
202207262153 METAR KBFI 262153Z VRB05KT 10SM CLR 32/17 A2985 RMK AO2 SLP109 T03170172=
202207262053 METAR KBFI 262053Z VRB05KT 10SM CLR 31/17 A2987 RMK AO2 SLP113 T03060172 58006=
202207261953 METAR KBFI 261953Z 32007KT 10SM CLR 29/17 A2988 RMK AO2 SLP116 T02940167=
202207261853 METAR KBFI 261853Z 32003KT 10SM CLR 28/17 A2988 RMK AO2 SLP118 T02780167=
202207261753 METAR KBFI 261753Z VRB05KT 10SM CLR 27/17 A2988 RMK AO2 SLP119 T02670167 10267 20189 56003=
202207261653 METAR KBFI 261653Z 29005KT 10SM CLR 25/17 A2989 RMK AO2 SLP120 T02500167=
202207261553 METAR KBFI 261553Z 29004KT 10SM CLR 23/16 A2989 RMK AO2 SLP120 T02330161=
202207261453 METAR KBFI 261453Z 00000KT 10SM CLR 22/17 A2989 RMK AO2 SLP122 T02220172 51008=
202207261353 METAR KBFI 261353Z 00000KT 10SM CLR 20/16 A2989 RMK AO2 SLP121 T02000156=
202207261253 METAR KBFI 261253Z 00000KT 10SM CLR 19/15 A2988 RMK AO2 SLP117 T01890150=
202207261153 METAR KBFI 261153Z 00000KT 10SM CLR 19/15 A2987 RMK AO2 SLP114 T01940150 10239 20194 51007=
202207261053 METAR KBFI 261053Z 00000KT 10SM CLR 19/14 A2987 RMK AO2 SLP113 T01940144=
202207260953 METAR KBFI 260953Z 00000KT 10SM CLR 20/14 A2985 RMK AO2 SLP109 T02000144=
202207260853 METAR KBFI 260853Z 00000KT 10SM CLR 21/15 A2985 RMK AO2 SLP107 T02110150 55001=
202207260753 METAR KBFI 260753Z 00000KT 10SM CLR 22/15 A2985 RMK AO2 SLP107 T02220150 402940156=
202207260653 METAR KBFI 260653Z 31003KT 10SM CLR 23/16 A2985 RMK AO2 SLP107 T02280156=
202207260553 METAR KBFI 260553Z 00000KT 10SM CLR 24/16 A2985 RMK AO2 SLP108 T02390156 10294 20239 52005=
202207260453 METAR KBFI 260453Z 00000KT 10SM CLR 24/16 A2985 RMK AO2 SLP107 T02440156=
202207260353 METAR KBFI 260353Z 00000KT 10SM CLR 26/16 A2984 RMK AO2 SLP104 T02560161=
202207260253 METAR KBFI 260253Z 31006KT 10SM CLR 27/15 A2984 RMK AO2 SLP103 T02720150 56013=
202207260153 METAR KBFI 260153Z 32007KT 10SM CLR 28/14 A2985 RMK AO2 SLP106 T02830139=
202207260053 METAR KBFI 260053Z 30008KT 10SM CLR 28/16 A2986 RMK AO2 SLP111 T02830156=
202207252353 METAR KBFI 252353Z 30008KT 10SM CLR 29/16 A2987 RMK AO2 SLP115 T02890156 10294 20244 58016=
202207252253 METAR KBFI 252253Z 29010KT 10SM CLR 29/16 A2989 RMK AO2 SLP120 T02890161=
202207252153 METAR KBFI 252153Z 30008G16KT 10SM CLR 28/16 A2991 RMK AO2 SLP126 T02780156=
202207252053 METAR KBFI 252053Z AUTO 30009KT 10SM CLR 27/15 A2992 RMK AO2 SLP131 T02720150 58019=
202207251953 METAR KBFI 251953Z 30008G16KT 10SM CLR 27/14 A2994 RMK AO2 SLP137 T02720144=
202207251853 METAR KBFI 251853Z 29008KT 10SM CLR 26/16 A2996 RMK AO2 SLP145 T02610161=
202207251753 METAR KBFI 251753Z VRB04KT 10SM CLR 25/16 A2997 RMK AO2 SLP150 T02500156 10250 20156 58009=
202207251653 METAR KBFI 251653Z 00000KT 10SM CLR 23/16 A2998 RMK AO2 SLP152 T02330156=
202207251553 METAR KBFI 251553Z VRB03KT 10SM CLR 22/15 A3000 RMK AO2 SLP158 T02170150=
202207251453 METAR KBFI 251453Z VRB04KT 10SM CLR 21/15 A3000 RMK AO2 SLP159 T02060150 55003=
202207251353 METAR KBFI 251353Z 00000KT 10SM CLR 17/14 A3000 RMK AO2 SLP158 T01720144=
202207251253 METAR KBFI 251253Z 00000KT 10SM CLR 16/13 A3000 RMK AO2 SLP159 T01560133=
202207251153 METAR KBFI 251153Z 00000KT 10SM CLR 16/13 A3001 RMK AO2 SLP162 T01610133 10222 20156 56001=
202207251053 METAR KBFI 251053Z 33004KT 10SM CLR 17/13 A3001 RMK AO2 SLP163 T01670133=
202207250953 METAR KBFI 250953Z 00000KT 10SM CLR 18/13 A3001 RMK AO2 SLP162 T01780133=
202207250853 METAR KBFI 250853Z 32004KT 10SM CLR 19/14 A3001 RMK AO2 SLP163 T01940139 58003=
202207250753 METAR KBFI 250753Z 00000KT 10SM CLR 21/14 A3002 RMK AO2 SLP165 T02060139 402670139=
202207250653 METAR KBFI 250653Z 00000KT 10SM CLR 21/14 A3003 RMK AO2 SLP168 T02110139=
202207250553 METAR KBFI 250553Z VRB03KT 10SM CLR 22/13 A3002 RMK AO2 SLP166 T02220133 10267 20217 50003=
202207250453 METAR KBFI 250453Z 30004KT 10SM BKN200 22/14 A3002 RMK AO2 SLP166 T02170144=
202207250353 METAR KBFI 250353Z 31003KT 10SM SCT140 BKN200 22/14 A3002 RMK AO2 SLP164 T02220144=
202207250253 METAR KBFI 250253Z 30005KT 10SM BKN200 23/15 A3001 RMK AO2 SLP163 T02330150 56011=
202207250153 METAR KBFI 250153Z 32007KT 10SM SCT200 26/15 A3002 RMK AO2 SLP164 T02560150=
202207250053 METAR KBFI 250053Z 33007G16KT 300V360 10SM FEW060 SCT200 26/14 A3003 RMK AO2 SLP169 T02610144=
202207242353 METAR KBFI 242353Z VRB06G17KT 10SM FEW060 SCT200 27/14 A3005 RMK AO2 SLP174 T02670139 10267 20200 57013=
202207242253 METAR KBFI 242253Z AUTO 31009G18KT 10SM CLR 27/13 A3006 RMK AO2 SLP178 T02670133=
202207242153 METAR KBFI 242153Z AUTO 30007KT 10SM CLR 26/14 A3007 RMK AO2 SLP182 T02610139=
202207242053 METAR KBFI 242053Z VRB06KT 10SM CLR 24/13 A3008 RMK AO2 SLP187 T02440133 58011=
202207241953 METAR KBFI 241953Z 34007KT 300V010 10SM CLR 23/13 A3010 RMK AO2 SLP191 T02330133=
202207241853 METAR KBFI 241853Z 32007KT 10SM CLR 22/14 A3011 RMK AO2 SLP195 T02220139=
202207241753 METAR KBFI 241753Z VRB05KT 10SM CLR 21/14 A3011 RMK AO2 SLP197 T02060139 10206 20139 58006=
202207241653 METAR KBFI 241653Z 30004KT 10SM CLR 19/14 A3012 RMK AO2 SLP200 T01940139=
202207241553 METAR KBFI 241553Z 32004KT 10SM CLR 17/13 A3014 RMK AO2 SLP204 T01720133=
202207241453 METAR KBFI 241453Z 33004KT 10SM SCT008 16/13 A3013 RMK AO2 SLP204 T01560133 51004=
202207241435 SPECI KBFI 241435Z 32004KT 10SM SCT008 15/13 A3013 RMK AO2 T01500133=
202207241416 SPECI KBFI 241416Z 00000KT 10SM BKN008 14/13 A3013 RMK AO2 T01440133=
202207241353 METAR KBFI 241353Z 31003KT 10SM FEW009 14/13 A3013 RMK AO2 SLP203 T01440128=
202207241253 METAR KBFI 241253Z VRB03KT 10SM CLR 14/13 A3013 RMK AO2 SLP202 T01390128=
202207241153 METAR KBFI 241153Z AUTO VRB03KT 10SM CLR 15/13 A3012 RMK AO2 SLP200 T01500128 10189 20144 50002=
202207241053 METAR KBFI 241053Z AUTO 00000KT 10SM CLR 15/13 A3012 RMK AO2 SLP200 T01500128=
202207240953 METAR KBFI 240953Z AUTO 31004KT 10SM CLR 15/13 A3012 RMK AO2 SLP199 T01500133=
202207240853 METAR KBFI 240853Z 31003KT 10SM CLR 17/13 A3012 RMK AO2 SLP198 T01670128 53002=
202207240753 METAR KBFI 240753Z 31003KT 10SM CLR 17/13 A3011 RMK AO2 SLP197 T01720128 402220144=
202207240653 METAR KBFI 240653Z 00000KT 10SM CLR 18/13 A3011 RMK AO2 SLP197 T01780133=
202207240553 METAR KBFI 240553Z 00000KT 10SM CLR 19/13 A3011 RMK AO2 SLP196 T01890133 10222 20183 50002=
202207240453 METAR KBFI 240453Z 00000KT 10SM CLR 21/13 A3011 RMK AO2 SLP197 T02060133=
202207240353 METAR KBFI 240353Z 30005KT 10SM CLR 21/13 A3011 RMK AO2 SLP194 T02060133=
202207240253 METAR KBFI 240253Z 01004KT 10SM CLR 22/13 A3010 RMK AO2 SLP193 T02170133 55003=
202207240153 METAR KBFI 240153Z VRB05KT 10SM FEW025 22/13 A3010 RMK AO2 SLP192 T02170128=
202207240053 METAR KBFI 240053Z VRB04KT 10SM FEW020 22/13 A3010 RMK AO2 SLP193 T02220128=
202207232353 METAR KBFI 232353Z 25003KT 10SM SCT036 22/13 A3011 RMK AO2 SLP197 T02170128 10222 20161 58010=
202207232253 METAR KBFI 232253Z VRB04KT 10SM BKN034 21/13 A3012 RMK AO2 SLP199 T02110128=
202207232153 METAR KBFI 232153Z VRB04KT 10SM SCT023 BKN037 21/13 A3014 RMK AO2 SLP205 T02110133=
202207232053 METAR KBFI 232053Z VRB03KT 10SM BKN023 BKN037 20/13 A3014 RMK AO2 SLP207 T02000133 58005=
202207231953 METAR KBFI 231953Z AUTO 32006KT 10SM BKN023 OVC037 18/12 A3015 RMK AO2 SLP210 T01830122=
202207231853 METAR KBFI 231853Z VRB04KT 10SM BKN023 OVC037 18/13 A3015 RMK AO2 SLP210 T01780128=
202207231753 METAR KBFI 231753Z 00000KT 10SM OVC020 17/12 A3016 RMK AO2 SLP212 T01670122 10167 20144 52004=
202207231653 METAR KBFI 231653Z 00000KT 10SM OVC020 17/12 A3015 RMK AO2 SLP210 T01670122=
202207231553 METAR KBFI 231553Z 00000KT 10SM OVC017 16/12 A3015 RMK AO2 SLP210 T01560117=
202207231453 METAR KBFI 231453Z 05004KT 10SM OVC016 15/12 A3015 RMK AO2 SLP208 T01500117 53008=
202207231353 METAR KBFI 231353Z 00000KT 10SM OVC017 14/12 A3013 RMK AO2 SLP204 T01440117=
202207231253 METAR KBFI 231253Z 00000KT 10SM OVC021 14/12 A3012 RMK AO2 SLP200 T01440117=
202207231153 METAR KBFI 231153Z 00000KT 10SM OVC020 14/12 A3012 RMK AO2 SLP199 T01440117 10167 20144 53001=
202207231053 METAR KBFI 231053Z VRB03KT 10SM OVC021 15/12 A3012 RMK AO2 SLP199 T01500117=
202207230953 METAR KBFI 230953Z VRB03KT 10SM OVC021 15/12 A3011 RMK AO2 SLP197 T01500122=
202207230853 METAR KBFI 230853Z VRB03KT 10SM OVC022 15/12 A3012 RMK AO2 SLP198 T01500122 53004=
202207230753 METAR KBFI 230753Z 00000KT 10SM OVC022 16/13 A3011 RMK AO2 SLP196 T01610128 402280144=
202207230653 METAR KBFI 230653Z VRB04KT 10SM CLR 16/13 A3011 RMK AO2 SLP196 T01610128=
202207230553 METAR KBFI 230553Z 30003KT 10SM CLR 16/13 A3011 RMK AO2 SLP194 T01610128 10228 20161 53015=
202207230453 METAR KBFI 230453Z 31004KT 10SM CLR 18/13 A3009 RMK AO2 SLP188 T01830133=
202207230353 METAR KBFI 230353Z 23003KT 10SM CLR 20/13 A3006 RMK AO2 SLP180 T02000133=
202207230253 METAR KBFI 230253Z 23005KT 10SM CLR 22/14 A3006 RMK AO2 SLP179 T02170139 56007=
202207230153 METAR KBFI 230153Z VRB03KT 10SM CLR 22/13 A3006 RMK AO2 SLP179 T02220133=
202207230053 METAR KBFI 230053Z 00000KT 10SM CLR 22/13 A3007 RMK AO2 SLP182 T02220133=
202207222353 METAR KBFI 222353Z 31005KT 10SM CLR 22/13 A3008 RMK AO2 SLP186 T02220133 10222 20172 56010=
202207222253 METAR KBFI 222253Z 10SM CLR 22/13 A3009 RMK AO2 SLP189 T02170128=
202207222153 METAR KBFI 222153Z 10SM CLR 21/13 A3010 RMK AO2 SLP191 T02110128=
202207222053 METAR KBFI 222053Z AUTO 22007KT 10SM SCT031 20/12 A3011 RMK AO2 SLP195 T02000122 58002=
202207222000 SPECI KBFI 222000Z 23008KT 10SM SCT031 20/12 A3011 RMK AO2 T02000117=
202207221953 METAR KBFI 221953Z 23008KT 10SM OVC021 20/12 A3011 RMK AO2 SLP196 T02000122=
202207221853 METAR KBFI 221853Z 19007KT 160V220 10SM OVC019 19/12 A3013 RMK AO2 SLP201 T01890122=
202207221753 METAR KBFI 221753Z 20008KT 10SM OVC019 17/12 A3012 RMK AO2 SLP197 T01720117 10172 20144 51008=
202207221653 METAR KBFI 221653Z 22007KT 10SM OVC023 16/12 A3011 RMK AO2 SLP195 T01610117=
202207221553 METAR KBFI 221553Z 20007KT 10SM OVC021 16/12 A3010 RMK AO2 SLP192 T01560117=
202207221453 METAR KBFI 221453Z 21006KT 10SM OVC021 15/12 A3009 RMK AO2 SLP189 T01500117 51010=
202207221353 METAR KBFI 221353Z 21005KT 10SM OVC020 15/12 A3008 RMK AO2 SLP186 T01500117=
202207221253 METAR KBFI 221253Z 19008KT 10SM OVC016 14/12 A3007 RMK AO2 SLP183 T01440117=
202207221153 METAR KBFI 221153Z 17010KT 10SM OVC017 15/12 A3006 RMK AO2 SLP179 70005 T01500117 10183 20144 53011=
202207221053 METAR KBFI 221053Z 21009KT 10SM OVC017 15/12 A3005 RMK AO2 SLP174 T01500117=
202207220953 METAR KBFI 220953Z 17007KT 10SM OVC015 15/12 A3004 RMK AO2 SLP171 T01500122=
202207220853 METAR KBFI 220853Z 18006KT 10SM BKN015 BKN070 14/12 A3003 RMK AO2 SLP167 T01440122 51013=
202207220753 METAR KBFI 220753Z 20007KT 10SM SCT250 15/12 A3001 RMK AO2 SLP163 T01500122 402720150=
202207220653 METAR KBFI 220653Z VRB04KT 10SM FEW250 17/13 A3000 RMK AO2 SLP159 T01670128=
202207220553 METAR KBFI 220553Z 23005KT 10SM CLR 18/13 A2999 RMK AO2 SLP154 T01830133 10272 20183 53014=
202207220453 METAR KBFI 220453Z 30005KT 10SM CLR 19/14 A2997 RMK AO2 SLP149 T01940139=
202207220353 METAR KBFI 220353Z 30006KT 10SM CLR 21/14 A2995 RMK AO2 SLP143 T02060139=
202207220253 METAR KBFI 220253Z 31006KT 10SM CLR 24/14 A2995 RMK AO2 SLP140 T02390144 55008=
202207220153 METAR KBFI 220153Z AUTO 25006KT 10SM CLR 27/13 A2994 RMK AO2 SLP139 T02670133=
202207220053 METAR KBFI 220053Z 18005KT 10SM CLR 27/13 A2995 RMK AO2 SLP143 T02670133=
202207212353 METAR KBFI 212353Z 00000KT 10SM CLR 27/13 A2997 RMK AO2 SLP148 60001 T02670133 10272 20194 58017=
202207212253 METAR KBFI 212253Z 23004KT 10SM CLR 26/14 A2999 RMK AO2 SLP155 T02560139=
202207212153 METAR KBFI 212153Z 22005KT 10SM CLR 25/14 A3001 RMK AO2 SLP161 T02500139=
202207212053 METAR KBFI 212053Z 21005KT 10SM CLR 24/14 A3002 RMK AO2 SLP165 60001 T02440144 58015=
202207212053 SPECI KBFI 212053Z 21005KT 10SM CLR 24/14 A3002 RMK AO2 SLP165 60001 T02440144 58015=
202207211953 METAR KBFI 211953Z 25007KT 10SM CLR 24/14 A3003 RMK AO2 SLP170 T02390139=
202207211853 METAR KBFI 211853Z 10SM CLR 22/14 A3005 RMK AO2 SLP177 P0001 T02170139 $=
202207211753 METAR KBFI 211753Z VRB06KT 10SM CLR 20/14 A3006 RMK AO2 RAB12RAEMMB31RAEMMB37RAEMM SLP180 P0004 60004 T02000139 10200 20150 58003 $=
202207211730 SPECI KBFI 211730Z VRB03KT 10SM CLR 19/13 A3007 RMK AO2 RAB12RAEMM P0000 T01890133 $=
202207211727 SPECI KBFI 211727Z 25004KT 1 3/4SM CLR 19/13 A3007 RMK AO2 RAB12RAEMM P0000 T01890133 $=
202207211653 METAR KBFI 211653Z 23005KT 10SM FEW005 FEW120 18/13 A3007 RMK AO2 SLP182 T01780133 $=
202207211553 METAR KBFI 211553Z 22005KT 10SM FEW005 SCT120 16/13 A3008 RMK AO2 SLP184 T01610133 $=
202207211453 METAR KBFI 211453Z 23006KT 10SM FEW007 SCT120 17/13 A3007 RMK AO2 SLP183 T01670133 53004=
202207211353 METAR KBFI 211353Z 00000KT 10SM CLR 16/14 A3006 RMK AO2 SLP179 T01610139=
202207211253 METAR KBFI 211253Z 22003KT 10SM CLR 16/13 A3006 RMK AO2 SLP177 T01560133=
202207211153 METAR KBFI 211153Z 00000KT 10SM CLR 17/13 A3006 RMK AO2 SLP179 T01670133 10206 20161 53007=
202207211053 METAR KBFI 211053Z 00000KT 10SM FEW007 17/13 A3005 RMK AO2 SLP175 T01670133=
202207210953 METAR KBFI 210953Z 30003KT 10SM CLR 17/13 A3004 RMK AO2 SLP172 T01670133=
202207210853 METAR KBFI 210853Z 00000KT 10SM CLR 18/13 A3004 RMK AO2 SLP171 T01780133 51006=
202207210753 METAR KBFI 210753Z 00000KT 10SM CLR 19/14 A3003 RMK AO2 SLP169 T01890139 402890167=
202207210653 METAR KBFI 210653Z 30004KT 10SM CLR 19/13 A3003 RMK AO2 SLP168 T01890133=
202207210553 METAR KBFI 210553Z 32005KT 10SM CLR 21/14 A3002 RMK AO2 SLP166 T02060139 10283 20206 53004=
202207210453 METAR KBFI 210453Z 30004KT 10SM CLR 22/14 A3002 RMK AO2 SLP165 T02220139=
202207210353 METAR KBFI 210353Z 31004KT 10SM CLR 23/14 A3001 RMK AO2 SLP161 T02330144=
202207210253 METAR KBFI 210253Z 31006KT 10SM CLR 26/14 A3001 RMK AO2 SLP161 T02560144 56008=
202207210153 METAR KBFI 210153Z VRB05KT 10SM CLR 27/14 A3001 RMK AO2 SLP163 T02670144=
202207210053 METAR KBFI 210053Z 32005KT 10SM CLR 28/14 A3002 RMK AO2 SLP165 T02780144=
202207202353 METAR KBFI 202353Z 30006KT 10SM CLR 28/14 A3003 RMK AO2 SLP169 T02830144 10289 20228 58011=
202207202253 METAR KBFI 202253Z VRB06KT 10SM CLR 28/14 A3005 RMK AO2 SLP174 T02830139=
202207202153 METAR KBFI 202153Z VRB05KT 10SM CLR 27/14 A3006 RMK AO2 SLP178 T02720139=
202207202053 METAR KBFI 202053Z 31006KT 10SM CLR 26/14 A3006 RMK AO2 SLP180 T02610139 58009=
202207201953 METAR KBFI 201953Z VRB05KT 10SM CLR 25/14 A3008 RMK AO2 SLP184 T02500144=
202207201853 METAR KBFI 201853Z VRB06KT 10SM CLR 24/14 A3008 RMK AO2 SLP187 T02390144=
202207201753 METAR KBFI 201753Z 32005KT 10SM CLR 23/14 A3009 RMK AO2 SLP189 T02280139 10228 20167 50000=
202207201653 METAR KBFI 201653Z 31007KT 270V330 10SM CLR 22/14 A3009 RMK AO2 SLP190 T02170139=
202207201553 METAR KBFI 201553Z 00000KT 10SM CLR 21/14 A3009 RMK AO2 SLP189 T02110139=
202207201453 METAR KBFI 201453Z VRB03KT 10SM CLR 18/14 A3009 RMK AO2 SLP189 T01830139 52013=
202207201353 METAR KBFI 201353Z 00000KT 10SM CLR 17/13 A3008 RMK AO2 SLP186 T01720133=
202207201253 METAR KBFI 201253Z 00000KT 10SM CLR 17/13 A3006 RMK AO2 SLP179 T01670133=
202207201153 METAR KBFI 201153Z 00000KT 10SM CLR 17/13 A3005 RMK AO2 SLP176 T01670133 10200 20167 51004=
202207201053 METAR KBFI 201053Z 00000KT 10SM CLR 17/13 A3005 RMK AO2 SLP176 T01670133=
202207200953 METAR KBFI 200953Z 00000KT 10SM CLR 17/13 A3004 RMK AO2 SLP174 T01720128=
202207200853 METAR KBFI 200853Z 00000KT 10SM CLR 18/13 A3004 RMK AO2 SLP172 T01830128 51007=
202207200753 METAR KBFI 200753Z 00000KT 10SM CLR 19/13 A3004 RMK AO2 SLP171 T01890128 402610139=
202207200653 METAR KBFI 200653Z 00000KT 10SM CLR 19/13 A3003 RMK AO2 SLP169 T01890128=
202207200553 METAR KBFI 200553Z 32003KT 10SM CLR 19/12 A3002 RMK AO2 SLP164 T01940122 10261 20194 53009=
202207200453 METAR KBFI 200453Z 30004KT 10SM CLR 21/12 A3001 RMK AO2 SLP162 T02110122=
202207200353 METAR KBFI 200353Z 31004KT 10SM CLR 22/12 A2999 RMK AO2 SLP156 T02220122=
202207200253 METAR KBFI 200253Z 31007KT 10SM CLR 24/12 A2999 RMK AO2 SLP155 T02390117 56007=
202207200153 METAR KBFI 200153Z 30005KT 10SM CLR 26/12 A2999 RMK AO2 SLP155 T02560122=
202207200053 METAR KBFI 200053Z 31008G18KT 280V340 10SM CLR 26/12 A3000 RMK AO2 SLP157 T02560117=
202207192353 METAR KBFI 192353Z 31009G18KT 10SM CLR 26/12 A3001 RMK AO2 SLP162 T02560117 10261 20200 58008=
202207192253 METAR KBFI 192253Z 32009KT 10SM CLR 26/13 A3002 RMK AO2 SLP165 T02560128=
202207192153 METAR KBFI 192153Z 29009KT 10SM CLR 25/14 A3003 RMK AO2 SLP168 T02500139=
202207192053 METAR KBFI 192053Z VRB05KT 10SM CLR 24/13 A3004 RMK AO2 SLP170 T02390133 58013=
202207191953 METAR KBFI 191953Z AUTO 28007KT 10SM CLR 23/14 A3005 RMK AO2 SLP176 T02280139=
202207191853 SPECI KBFI 191853Z AUTO 34006KT 10SM CLR 22/13 A3007 RMK AO2 SLP181 T02170133=
202207191853 METAR KBFI 191853Z AUTO 34006KT 10SM CLR 22/13 A3007 RMK AO2 SLP181 T02170133=
202207191753 METAR KBFI 191753Z 31004KT 10SM CLR 20/13 A3007 RMK AO2 SLP184 T02000128 10206 20139 58007=
202207191653 METAR KBFI 191653Z VRB04KT 10SM CLR 19/13 A3009 RMK AO2 SLP189 T01890133=
202207191553 METAR KBFI 191553Z VRB03KT 10SM CLR 17/12 A3010 RMK AO2 SLP191 T01720122=
202207191453 METAR KBFI 191453Z VRB03KT 10SM FEW014 16/12 A3010 RMK AO2 SLP191 T01610122 53001=
202207191353 METAR KBFI 191353Z 00000KT 10SM CLR 15/12 A3010 RMK AO2 SLP191 T01500122=
202207191253 METAR KBFI 191253Z 34003KT 10SM FEW015 14/11 A3009 RMK AO2 SLP190 T01390111=
202207191153 METAR KBFI 191153Z 00000KT 10SM CLR 14/12 A3009 RMK AO2 SLP190 70001 T01390117 10167 20139 58008=
202207191053 METAR KBFI 191053Z 00000KT 10SM CLR 14/12 A3011 RMK AO2 SLP194 T01440117=
202207190953 METAR KBFI 190953Z 00000KT 10SM CLR 14/11 A3011 RMK AO2 SLP196 T01440111=
202207190853 METAR KBFI 190853Z AUTO VRB03KT 10SM CLR 14/12 A3012 RMK AO2 SLP198 T01440117 52006=
202207190753 METAR KBFI 190753Z 32004KT 10SM CLR 15/12 A3011 RMK AO2 SLP197 T01500117 402280128=
202207190653 METAR KBFI 190653Z 30004KT 10SM CLR 16/12 A3010 RMK AO2 SLP194 T01560117=
202207190553 METAR KBFI 190553Z 33004KT 10SM CLR 17/12 A3010 RMK AO2 SLP192 T01670117 10228 20161 58003=
202207190453 METAR KBFI 190453Z 30005KT 10SM CLR 17/12 A3011 RMK AO2 SLP194 T01720117=
202207190353 METAR KBFI 190353Z 32007KT 10SM CLR 18/12 A3011 RMK AO2 SLP194 T01830122=
202207190253 METAR KBFI 190253Z 30008KT 10SM CLR 20/12 A3011 RMK AO2 SLP195 T02000117 56018=
202207190153 METAR KBFI 190153Z 31007KT 10SM CLR 21/12 A3012 RMK AO2 SLP199 T02110122=
202207190053 METAR KBFI 190053Z VRB04KT 10SM CLR 22/12 A3014 RMK AO2 SLP207 T02220122=
202207182353 METAR KBFI 182353Z 00000KT 10SM FEW040 22/12 A3016 RMK AO2 SLP213 T02170117 10217 20161 58012=
202207182253 METAR KBFI 182253Z VRB04KT 10SM FEW043 22/12 A3018 RMK AO2 SLP218 T02170122=
202207182153 METAR KBFI 182153Z 16006KT 10SM BKN034 21/13 A3019 RMK AO2 SLP223 T02110128=
202207182053 METAR KBFI 182053Z 10SM BKN032 19/12 A3020 RMK AO2 SLP225 T01940117 51003=
202207181953 METAR KBFI 181953Z 00000KT 10SM BKN025 OVC037 18/12 A3020 RMK AO2 SLP225 T01830117=
202207181900 SPECI KBFI 181900Z 21004KT 10SM BKN027 18/12 A3020 RMK AO2 T01780122=
202207181853 METAR KBFI 181853Z 20004KT 10SM SCT022 OVC035 17/12 A3020 RMK AO2 SLP227 T01670117=
202207181753 METAR KBFI 181753Z 20006KT 10SM SCT022 OVC035 16/11 A3019 RMK AO2 SLP222 60001 T01610111 10161 20128 51006=
202207181653 METAR KBFI 181653Z 16007KT 10SM SCT022 OVC034 15/11 A3018 RMK AO2 SLP219 T01500111=
202207181650 SPECI KBFI 181650Z 18006KT 10SM SCT022 OVC034 15/11 A3018 RMK AO2=
202207181553 METAR KBFI 181553Z 21007KT 10SM BKN015 OVC040 14/11 A3017 RMK AO2 SLP216 T01390111=
202207181453 METAR KBFI 181453Z 16006KT 10SM BKN015 14/12 A3014 RMK AO2 SLP207 60001 T01390117 51018=
202207181353 METAR KBFI 181353Z 15008KT 7SM SCT015 OVC041 13/12 A3013 RMK AO2 RAB1255E06 SLP202 P0000 T01280117=
202207181257 SPECI KBFI 181257Z 16006KT 5SM -RA BR SCT016 OVC046 13/12 A3011 RMK AO2 RAB55 P0000 T01280117=
202207181253 METAR KBFI 181253Z 17006KT 7SM BKN014 BKN025 OVC043 13/12 A3011 RMK AO2 RAB13E50 SLP196 P0001 T01280117=
202207181153 METAR KBFI 181153Z 20004KT 10SM BKN014 BKN025 OVC043 13/11 A3009 RMK AO2 SLP189 60000 T01330111 10161 20133 53015=
202207181053 METAR KBFI 181053Z 20005KT 8SM OVC020 13/12 A3007 RMK AO2 SLP181 T01330117=
202207180953 METAR KBFI 180953Z 00000KT 10SM SCT055 OVC110 14/12 A3006 RMK AO2 SLP179 T01440117=
202207180853 METAR KBFI 180853Z VRB03KT 10SM SCT055 OVC110 15/12 A3005 RMK AO2 SLP174 60000 T01500122 53004=
202207180753 METAR KBFI 180753Z 00000KT 10SM SCT050 BKN060 16/12 A3004 RMK AO2 SLP170 T01560122 402000150=
202207180653 METAR KBFI 180653Z 00000KT 10SM SCT045 BKN060 OVC090 16/13 A3003 RMK AO2 RAE09 SLP169 P0000 T01610128=
202207180553 METAR KBFI 180553Z VRB04KT 10SM -RA BKN055 OVC070 16/13 A3003 RMK AO2 RAB44 SLP170 P0000 60000 T01610128 10200 20161 53004=
202207180453 METAR KBFI 180453Z 34003KT 10SM SCT050 OVC060 18/10 A3003 RMK AO2 SLP168 T01780100=
202207180353 METAR KBFI 180353Z 31004KT 10SM BKN075 OVC095 18/09 A3001 RMK AO2 SLP163 T01780094=
202207180253 METAR KBFI 180253Z VRB04KT 10SM BKN075 OVC090 18/09 A3002 RMK AO2 SLP166 T01780089 56004=
202207180153 METAR KBFI 180153Z 30004KT 10SM OVC095 18/09 A3002 RMK AO2 SLP166 T01830089=
202207180053 METAR KBFI 180053Z 32004KT 10SM BKN060 BKN090 19/08 A3003 RMK AO2 SLP167 T01940083=
202207172353 METAR KBFI 172353Z VRB03KT 10SM OVC044 19/09 A3003 RMK AO2 SLP170 T01940089 10200 20172 58011=
202207172253 METAR KBFI 172253Z 07003KT 10SM FEW042 OVC080 20/09 A3005 RMK AO2 SLP174 T02000094=
202207172153 METAR KBFI 172153Z VRB03KT 10SM BKN046 BKN075 19/09 A3006 RMK AO2 SLP177 T01890094=
202207172053 METAR KBFI 172053Z 00000KT 10SM OVC038 18/09 A3007 RMK AO2 SLP181 T01830089 58001=
202207171953 METAR KBFI 171953Z VRB05KT 10SM BKN038 OVC050 18/09 A3007 RMK AO2 SLP183 T01780094=
202207171853 METAR KBFI 171853Z 07005KT 10SM OVC070 18/09 A3008 RMK AO2 SLP184 T01830094=
202207171753 METAR KBFI 171753Z VRB05KT 10SM SCT025 OVC070 17/09 A3007 RMK AO2 SLP182 T01720094 10172 20150 53001=
202207171653 METAR KBFI 171653Z 09005KT 10SM SCT025 BKN070 17/10 A3007 RMK AO2 SLP182 T01670100=
202207171553 METAR KBFI 171553Z 12004KT 10SM OVC070 16/10 A3007 RMK AO2 SLP181 T01560100=
202207171453 METAR KBFI 171453Z VRB03KT 10SM OVC065 16/10 A3007 RMK AO2 SLP181 T01560100 51003=
202207171353 METAR KBFI 171353Z VRB03KT 10SM BKN055 OVC070 15/09 A3007 RMK AO2 SLP181 T01500094=
202207171253 METAR KBFI 171253Z 05003KT 10SM BKN050 OVC060 15/09 A3006 RMK AO2 SLP179 T01500094=
202207171153 METAR KBFI 171153Z VRB03KT 10SM OVC046 15/09 A3006 RMK AO2 SLP178 T01500089 10167 20150 50000=
202207171053 METAR KBFI 171053Z 00000KT 10SM OVC055 15/09 A3006 RMK AO2 SLP179 T01500089=
202207170953 METAR KBFI 170953Z 00000KT 10SM OVC042 15/09 A3006 RMK AO2 SLP180 T01500094=
202207170853 METAR KBFI 170853Z 00000KT 10SM BKN039 15/09 A3006 RMK AO2 SLP178 T01500094 57005=
202207170753 METAR KBFI 170753Z 00000KT 10SM BKN039 OVC065 16/10 A3006 RMK AO2 SLP179 T01610100 402220161=
202207170653 METAR KBFI 170653Z 00000KT 10SM BKN038 OVC065 16/09 A3007 RMK AO2 SLP182 T01610094=
202207170553 METAR KBFI 170553Z 34005KT 10SM OVC065 17/09 A3007 RMK AO2 SLP183 T01670094 10206 20167 50007=
202207170453 METAR KBFI 170453Z 34005KT 10SM BKN042 OVC060 17/09 A3008 RMK AO2 SLP184 T01670094=
202207170353 METAR KBFI 170353Z VRB05KT 10SM OVC060 17/10 A3006 RMK AO2 SLP179 T01720100=
202207170253 METAR KBFI 170253Z 31006KT 10SM OVC060 18/11 A3005 RMK AO2 SLP176 T01780106 55004=
202207170153 METAR KBFI 170153Z 30005KT 10SM BKN055 19/12 A3005 RMK AO2 SLP175 T01890117=
202207170053 METAR KBFI 170053Z 31006KT 10SM OVC055 19/12 A3006 RMK AO2 SLP179 T01940117=
202207162353 METAR KBFI 162353Z 31007KT 10SM OVC050 21/12 A3006 RMK AO2 SLP180 T02110117 10222 20183 56009=
202207162253 METAR KBFI 162253Z 00000KT 10SM OVC049 21/12 A3007 RMK AO2 SLP183 T02110117=
202207162153 METAR KBFI 162153Z 23006KT 10SM OVC044 21/12 A3008 RMK AO2 SLP185 T02110122=
202207162053 METAR KBFI 162053Z AUTO 24004KT 10SM OVC039 21/12 A3009 RMK AO2 SLP189 T02110122 58002=
202207161953 METAR KBFI 161953Z 15006KT 10SM OVC030 21/12 A3010 RMK AO2 SLP191 T02060117=
202207161853 METAR KBFI 161853Z VRB05KT 10SM OVC033 19/12 A3010 RMK AO2 SLP192 T01940122=
202207161800 SPECI KBFI 161800Z 21004KT 10SM OVC035 19/12 A3010 RMK AO2 T01890122=
202207161753 METAR KBFI 161753Z 20006KT 10SM SCT012 BKN018 OVC025 19/12 A3010 RMK AO2 SLP191 T01890122 10189 20161 50001=
202207161653 METAR KBFI 161653Z 00000KT 10SM SCT012 BKN018 OVC025 17/13 A3010 RMK AO2 SLP193 T01720128=
202207161553 METAR KBFI 161553Z 22006KT 10SM BKN018 OVC025 17/13 A3010 RMK AO2 SLP191 T01720128=
202207161453 METAR KBFI 161453Z 21004KT 10SM BKN032 OVC047 17/13 A3009 RMK AO2 SLP190 T01670133 53008=
202207161405 SPECI KBFI 161405Z 23005KT 10SM BKN012 OVC047 17/13 A3009 RMK AO2 T01670133=
202207161353 METAR KBFI 161353Z 19005KT 10SM BKN040 OVC047 17/14 A3009 RMK AO2 SLP187 T01670139=
202207161303 SPECI KBFI 161303Z 17005KT 10SM SCT017 OVC046 16/14 A3007 RMK AO2 T01610139=
202207161253 METAR KBFI 161253Z 20005KT 10SM BKN015 OVC070 16/14 A3007 RMK AO2 SLP183 T01610139=
202207161153 METAR KBFI 161153Z 00000KT 10SM BKN015 OVC070 17/14 A3007 RMK AO2 SLP182 T01670144 10194 20167 50002=
202207161100 SPECI KBFI 161100Z VRB04KT 10SM SCT015 BKN026 OVC037 17/14 A3008 RMK AO2 T01720144=
202207161053 METAR KBFI 161053Z 21004KT 3SM HZ BKN030 OVC041 17/14 A3007 RMK AO2 SLP183 T01720144=
202207160953 METAR KBFI 160953Z 16006KT 3SM HZ BKN030 OVC041 18/14 A3006 RMK AO2 SLP180 T01780144=
202207160853 METAR KBFI 160853Z 18006KT 10SM OVC036 18/14 A3006 RMK AO2 SLP180 T01780144 58001=
202207160753 METAR KBFI 160753Z 18005KT 10SM FEW037 OVC055 18/14 A3007 RMK AO2 SLP181 T01830144 402560128=
202207160653 METAR KBFI 160653Z 16009KT 10SM OVC065 18/14 A3007 RMK AO2 SLP181 T01830144=
202207160553 METAR KBFI 160553Z 18007KT 10SM OVC065 19/14 A3007 RMK AO2 SLP181 T01940144 10256 20194 53010=
202207160453 METAR KBFI 160453Z 19005KT 10SM OVC070 20/14 A3006 RMK AO2 SLP178 T02000144=
202207160353 METAR KBFI 160353Z 25004KT 10SM OVC075 21/14 A3004 RMK AO2 SLP173 T02110139=
202207160253 METAR KBFI 160253Z VRB05KT 10SM BKN070 BKN095 OVC120 22/13 A3004 RMK AO2 SLP171 T02170133 58001=
202207160153 METAR KBFI 160153Z 28006KT 10SM BKN055 22/13 A3004 RMK AO2 SLP172 T02220128=
202207160053 METAR KBFI 160053Z 26006KT 10SM BKN060 23/13 A3004 RMK AO2 SLP173 T02330133=
202207152353 METAR KBFI 152353Z 21007KT 10SM CLR 25/13 A3004 RMK AO2 SLP172 T02500133 10256 20194 56006=
202207152253 METAR KBFI 152253Z 22007KT 190V250 10SM CLR 25/12 A3004 RMK AO2 SLP173 T02500117=
202207152153 METAR KBFI 152153Z AUTO 18006KT 10SM CLR 24/11 A3005 RMK AO2 SLP175 T02440106=
202207152053 METAR KBFI 152053Z 21007G16KT 170V240 10SM CLR 23/09 A3006 RMK AO2 SLP178 T02330094 56004=
202207151953 METAR KBFI 151953Z 19010KT 160V220 10SM CLR 23/09 A3006 RMK AO2 SLP179 T02280094=
202207151853 METAR KBFI 151853Z 18006G17KT 10SM CLR 21/11 A3006 RMK AO2 SLP180 T02060111=
202207151753 METAR KBFI 151753Z 22008KT 10SM CLR 19/11 A3007 RMK AO2 SLP182 T01940111 10194 20128 58001=
202207151653 METAR KBFI 151653Z 17008G16KT 10SM CLR 18/11 A3008 RMK AO2 SLP184 T01780106=
202207151553 METAR KBFI 151553Z 19010KT 10SM CLR 16/11 A3008 RMK AO2 SLP186 T01610111=
202207151353 METAR KBFI 151353Z 18007KT 10SM CLR 14/11 A3007 RMK AO2 SLP182 T01390106=
202207151253 METAR KBFI 151253Z 17006KT 10SM CLR 13/11 A3006 RMK AO2 SLP180 T01330106=
202207151153 METAR KBFI 151153Z 15006KT 10SM SCT250 13/10 A3005 RMK AO2 SLP176 T01280100 10172 20128 53009=
202207151053 METAR KBFI 151053Z 15005KT 10SM CLR 13/10 A3004 RMK AO2 SLP171 T01330100=
202207150953 METAR KBFI 150953Z 00000KT 10SM CLR 14/10 A3003 RMK AO2 SLP168 T01440100=
202207150853 METAR KBFI 150853Z 20007KT 10SM CLR 15/11 A3002 RMK AO2 SLP166 T01500106 53009=
202207150753 METAR KBFI 150753Z 19004KT 10SM CLR 16/11 A3001 RMK AO2 SLP162 T01610111 402610133=
202207150653 METAR KBFI 150653Z 00000KT 10SM CLR 17/11 A3000 RMK AO2 SLP160 T01670111=
202207150553 METAR KBFI 150553Z 31003KT 10SM CLR 17/11 A3000 RMK AO2 SLP157 T01720111 10261 20172 53014=
202207150453 METAR KBFI 150453Z 30005KT 10SM CLR 18/11 A2998 RMK AO2 SLP151 T01780111=
202207150353 METAR KBFI 150353Z 30006KT 10SM CLR 19/12 A2996 RMK AO2 SLP146 T01940117=
202207150253 METAR KBFI 150253Z AUTO 30004KT 10SM CLR 22/12 A2995 RMK AO2 SLP143 T02170122 55005=
202207150153 METAR KBFI 150153Z 31006KT 10SM CLR 23/13 A2995 RMK AO2 SLP140 T02330128=
202207150053 METAR KBFI 150053Z 19005KT 10SM CLR 26/13 A2995 RMK AO2 SLP143 T02560128=
202207142353 METAR KBFI 142353Z VRB03KT 10SM CLR 26/12 A2997 RMK AO2 SLP147 T02560122 10261 20189 56018=
202207142253 METAR KBFI 142253Z VRB04KT 10SM CLR 26/12 A2998 RMK AO2 SLP151 T02560117=
202207142153 METAR KBFI 142153Z 27004KT 10SM CLR 24/12 A3000 RMK AO2 SLP158 T02390122=
202207142053 METAR KBFI 142053Z VRB04KT 10SM CLR 23/13 A3002 RMK AO2 SLP165 T02280128 58016=
202207141953 METAR KBFI 141953Z VRB04KT 10SM CLR 22/12 A3004 RMK AO2 SLP172 T02170117=
202207141853 METAR KBFI 141853Z VRB05KT 10SM CLR 20/12 A3006 RMK AO2 SLP177 T02000122=
202207141753 METAR KBFI 141753Z VRB03KT 10SM CLR 19/12 A3007 RMK AO2 SLP181 T01890122 10189 20133 58005=
202207141653 METAR KBFI 141653Z AUTO VRB04KT 10SM CLR 18/12 A3008 RMK AO2 SLP184 T01780117=
202207141553 METAR KBFI 141553Z AUTO 00000KT 10SM CLR 17/12 A3008 RMK AO2 SLP186 T01670117=
202207141453 METAR KBFI 141453Z AUTO 12003KT 10SM CLR 16/11 A3008 RMK AO2 SLP186 T01560111 50001=
202207141353 METAR KBFI 141353Z 00000KT 10SM CLR 14/11 A3009 RMK AO2 SLP188 T01440106=
202207141253 METAR KBFI 141253Z 00000KT 10SM FEW030 14/11 A3008 RMK AO2 SLP185 T01390111=
202207141153 METAR KBFI 141153Z 00000KT 10SM CLR 14/11 A3008 RMK AO2 SLP185 T01390106 10172 20139 53002=
202207141053 METAR KBFI 141053Z 00000KT 10SM CLR 14/11 A3007 RMK AO2 SLP183 T01390106=
202207140953 METAR KBFI 140953Z VRB04KT 10SM CLR 14/11 A3007 RMK AO2 SLP182 T01440106=
202207140853 METAR KBFI 140853Z VRB03KT 10SM CLR 15/11 A3007 RMK AO2 SLP182 T01500111 50003=
202207140753 METAR KBFI 140753Z 01003KT 10SM CLR 16/11 A3007 RMK AO2 SLP183 T01560111 402390139=
202207140653 METAR KBFI 140653Z VRB04KT 10SM CLR 16/11 A3007 RMK AO2 SLP182 T01610111=
202207140553 METAR KBFI 140553Z VRB03KT 10SM CLR 17/10 A3006 RMK AO2 SLP179 T01720100 10239 20172 51015=
202207140453 METAR KBFI 140453Z 00000KT 10SM CLR 19/10 A3005 RMK AO2 SLP176 T01890100=
202207140353 METAR KBFI 140353Z 30004KT 10SM CLR 18/11 A3003 RMK AO2 SLP169 T01830106=
202207140253 METAR KBFI 140253Z 31005KT 10SM CLR 21/11 A3002 RMK AO2 SLP165 T02060106 55004=
202207140153 METAR KBFI 140153Z 30008KT 10SM CLR 23/09 A3001 RMK AO2 SLP163 T02280094=
202207140053 METAR KBFI 140053Z 29006KT 10SM CLR 23/12 A3002 RMK AO2 SLP165 T02330117=
202207132353 METAR KBFI 132353Z VRB04KT 10SM CLR 23/12 A3003 RMK AO2 SLP169 T02330117 10239 20183 58007=
202207132253 METAR KBFI 132253Z 30006KT 10SM CLR 23/09 A3004 RMK AO2 SLP173 T02330089=
202207132153 METAR KBFI 132153Z 31007KT 10SM CLR 23/09 A3004 RMK AO2 SLP173 T02280089=
202207132053 METAR KBFI 132053Z 31007KT 10SM CLR 22/11 A3005 RMK AO2 SLP176 T02220106 58004=
202207131953 METAR KBFI 131953Z VRB05KT 10SM CLR 21/12 A3006 RMK AO2 SLP180 T02110117=
202207131853 METAR KBFI 131853Z 00000KT 10SM CLR 19/11 A3007 RMK AO2 SLP182 T01940111=
202207131753 METAR KBFI 131753Z VRB04KT 10SM SCT029 18/12 A3007 RMK AO2 SLP181 T01830122 10183 20139 51003=
202207131653 METAR KBFI 131653Z 00000KT 10SM SCT027 17/11 A3007 RMK AO2 SLP181 T01670106=
202207131553 METAR KBFI 131553Z VRB03KT 10SM FEW024 17/11 A3006 RMK AO2 SLP180 T01670106=
202207131453 METAR KBFI 131453Z 00000KT 10SM SCT026 16/11 A3006 RMK AO2 SLP178 T01560106 51010=
202207131353 METAR KBFI 131353Z 08003KT 10SM SCT026 14/10 A3005 RMK AO2 SLP175 T01440100=
202207131253 METAR KBFI 131253Z 00000KT 10SM SCT080 BKN140 BKN200 14/10 A3004 RMK AO2 SLP172 T01440100=
202207131153 METAR KBFI 131153Z 07004KT 10SM CLR 14/09 A3003 RMK AO2 SLP168 T01440094 10167 20139 51011=
202207131053 METAR KBFI 131053Z 00000KT 10SM CLR 14/09 A3002 RMK AO2 SLP165 T01440094=
202207130953 METAR KBFI 130953Z 02004KT 10SM CLR 14/09 A3000 RMK AO2 SLP159 T01440094=
202207130853 METAR KBFI 130853Z AUTO VRB03KT 10SM CLR 15/10 A2999 RMK AO2 SLP156 T01500100 51011=
202207130753 METAR KBFI 130753Z AUTO 05006KT 10SM CLR 16/11 A2999 RMK AO2 SLP154 T01560106 402780156=
202207130653 METAR KBFI 130653Z AUTO VRB04KT 10SM CLR 16/11 A2998 RMK AO2 SLP150 T01610106=
202207130553 METAR KBFI 130553Z AUTO 05007KT 010V070 10SM CLR 17/11 A2996 RMK AO2 SLP145 T01670106 10256 20167 51028=
202207130453 METAR KBFI 130453Z VRB06KT 10SM CLR 18/12 A2994 RMK AO2 SLP138 T01830117=
202207130353 METAR KBFI 130353Z 35009KT 10SM CLR 20/12 A2990 RMK AO2 SLP126 T02000117=
202207130253 METAR KBFI 130253Z 36008KT 10SM CLR 22/12 A2988 RMK AO2 SLP117 T02220117 53005=
202207130153 METAR KBFI 130153Z 32004KT 10SM CLR 23/13 A2986 RMK AO2 SLP111 T02330128=
202207130053 METAR KBFI 130053Z VRB05KT 10SM CLR 24/14 A2985 RMK AO2 SLP109 T02390139=
202207122353 METAR KBFI 122353Z 32007KT 10SM CLR 26/14 A2986 RMK AO2 SLP112 T02560139 10278 20228 56012=
202207122253 METAR KBFI 122253Z VRB06KT 10SM CLR 27/14 A2987 RMK AO2 SLP114 T02670139=
202207122153 METAR KBFI 122153Z 31006KT 10SM CLR 27/14 A2987 RMK AO2 SLP116 T02720139=
202207122053 METAR KBFI 122053Z 36005KT 10SM CLR 27/13 A2990 RMK AO2 SLP124 T02720133 58009=
202207121953 METAR KBFI 121953Z AUTO VRB05KT 10SM CLR 26/13 A2991 RMK AO2 SLP128 T02560133=
202207121853 METAR KBFI 121853Z AUTO 30006KT 10SM CLR 24/14 A2993 RMK AO2 SLP133 T02390139=
202207121753 METAR KBFI 121753Z 32006KT 10SM CLR 23/14 A2992 RMK AO2 SLP133 T02280139 10228 20161 58010=
202207121653 METAR KBFI 121653Z 00000KT 10SM CLR 22/13 A2994 RMK AO2 SLP138 T02220133=
202207121553 METAR KBFI 121553Z VRB03KT 10SM CLR 21/13 A2995 RMK AO2 SLP141 T02060128=
202207121453 METAR KBFI 121453Z 35004KT 10SM CLR 19/12 A2995 RMK AO2 SLP143 T01940122 51003=
202207121353 METAR KBFI 121353Z 31003KT 10SM CLR 17/13 A2995 RMK AO2 SLP143 T01720128=
202207121253 METAR KBFI 121253Z 00000KT 10SM CLR 16/12 A2995 RMK AO2 SLP142 T01610122=
202207121153 METAR KBFI 121153Z 31003KT 10SM CLR 17/12 A2995 RMK AO2 SLP140 T01720122 10233 20172 58002=
202207121053 METAR KBFI 121053Z 00000KT 10SM CLR 18/12 A2995 RMK AO2 SLP141 T01780122=
202207120953 METAR KBFI 120953Z 00000KT 10SM CLR 18/12 A2995 RMK AO2 SLP141 T01830117=
202207120853 METAR KBFI 120853Z AUTO 00000KT 10SM CLR 19/12 A2995 RMK AO2 SLP142 T01940117 56009=
202207120753 METAR KBFI 120753Z AUTO VRB03KT 10SM CLR 20/12 A2996 RMK AO2 SLP144 T02000122 402780156=
202207120653 METAR KBFI 120653Z VRB04KT 10SM CLR 22/12 A2997 RMK AO2 SLP147 T02170122=
202207120553 METAR KBFI 120553Z 00000KT 10SM CLR 23/12 A2998 RMK AO2 SLP151 60000 T02280117 10272 20228 53000=
202207120453 METAR KBFI 120453Z 00000KT 10SM CLR 24/11 A2998 RMK AO2 RAB27E36 SLP151 P0000 T02440111=
202207120353 METAR KBFI 120353Z VRB03KT 10SM CLR 26/11 A2997 RMK AO2 SLP149 T02560106=
202207120253 METAR KBFI 120253Z VRB06KT 10SM SCT200 27/11 A2998 RMK AO2 SLP151 T02670106 56012=
202207120153 METAR KBFI 120153Z 30008KT 10SM CLR 27/13 A2998 RMK AO2 SLP153 T02670133=
202207120053 METAR KBFI 120053Z 32008G16KT 280V360 10SM CLR 27/13 A3000 RMK AO2 SLP158 T02720128=
202207112353 METAR KBFI 112353Z 31010G18KT 10SM CLR 27/13 A3001 RMK AO2 SLP163 T02720133 10278 20222 56026=
202207112253 METAR KBFI 112253Z 30007G16KT 10SM CLR 27/14 A3003 RMK AO2 SLP169 T02720139=
202207112153 METAR KBFI 112153Z AUTO 30007KT 280V340 10SM CLR 28/14 A3006 RMK AO2 SLP177 T02780144=
202207112053 METAR KBFI 112053Z VRB06KT 10SM CLR 27/14 A3009 RMK AO2 SLP189 T02670139 58026=
202207111953 METAR KBFI 111953Z 30007KT 10SM CLR 25/14 A3012 RMK AO2 SLP199 T02500139=
202207111853 METAR KBFI 111853Z VRB06KT 10SM CLR 23/14 A3015 RMK AO2 SLP209 T02330139=
202207111753 METAR KBFI 111753Z VRB05KT 10SM CLR 22/14 A3017 RMK AO2 SLP215 T02220144 10222 20156 58020=
202207111653 METAR KBFI 111653Z 30005KT 10SM CLR 21/14 A3019 RMK AO2 SLP223 T02060139=
202207111553 METAR KBFI 111553Z VRB04KT 10SM CLR 19/14 A3021 RMK AO2 SLP229 T01940139=
202207111453 METAR KBFI 111453Z VRB04KT 10SM CLR 18/14 A3023 RMK AO2 SLP235 T01830144 58012=
202207111353 METAR KBFI 111353Z 00000KT 10SM CLR 17/14 A3024 RMK AO2 SLP241 T01720139=
202207111253 METAR KBFI 111253Z 00000KT 10SM CLR 16/14 A3025 RMK AO2 SLP245 T01610139=
202207111153 METAR KBFI 111153Z 36003KT 10SM CLR 16/13 A3026 RMK AO2 SLP247 T01610133 10194 20161 58007=
202207111053 METAR KBFI 111053Z 00000KT 10SM CLR 16/13 A3028 RMK AO2 SLP252 T01610133=
202207110953 METAR KBFI 110953Z 00000KT 10SM CLR 16/13 A3028 RMK AO2 SLP252 T01610133=
202207110853 METAR KBFI 110853Z 00000KT 10SM CLR 17/13 A3029 RMK AO2 SLP255 T01720128 58006=
202207110753 METAR KBFI 110753Z 00000KT 10SM CLR 17/13 A3030 RMK AO2 SLP258 T01720128 402390150=
202207110653 METAR KBFI 110653Z 00000KT 10SM CLR 18/13 A3030 RMK AO2 SLP260 T01780128=
202207110553 METAR KBFI 110553Z 00000KT 10SM CLR 19/12 A3030 RMK AO2 SLP261 T01940122 10239 20189 53001=
202207110453 METAR KBFI 110453Z 00000KT 10SM CLR 21/11 A3030 RMK AO2 SLP261 T02110111=
202207110353 METAR KBFI 110353Z VRB03KT 10SM CLR 22/11 A3029 RMK AO2 SLP258 T02220111=
202207110253 METAR KBFI 110253Z 31006KT 10SM CLR 23/12 A3030 RMK AO2 SLP260 T02280117 56006=
202207110153 METAR KBFI 110153Z 32005KT 10SM FEW040 23/12 A3030 RMK AO2 SLP260 T02280117=
202207110053 METAR KBFI 110053Z 33006KT 10SM FEW040 23/12 A3031 RMK AO2 SLP265 T02330117=
202207102353 METAR KBFI 102353Z 00000KT 10SM CLR 23/12 A3032 RMK AO2 SLP267 T02280122 10233 20172 58011=
202207102253 METAR KBFI 102253Z VRB04KT 10SM SCT040 22/12 A3033 RMK AO2 SLP269 T02220122=
202207102153 METAR KBFI 102153Z AUTO 00000KT 10SM SCT040 22/13 A3035 RMK AO2 SLP276 T02170128=
202207102053 METAR KBFI 102053Z 33005KT 10SM BKN023 21/13 A3035 RMK AO2 SLP277 T02060128 52001=
202207101953 METAR KBFI 101953Z 00000KT 10SM BKN023 20/13 A3035 RMK AO2 SLP276 T02000133=
202207101853 METAR KBFI 101853Z 24006KT 10SM BKN023 18/13 A3035 RMK AO2 SLP277 T01830128=
202207101753 METAR KBFI 101753Z 17006KT 10SM OVC018 18/13 A3035 RMK AO2 SLP276 T01780133 10178 20150 51006=
202207101653 METAR KBFI 101653Z 20005KT 10SM OVC014 17/13 A3034 RMK AO2 SLP274 T01670128=
202207101553 METAR KBFI 101553Z 15006KT 10SM OVC014 16/13 A3034 RMK AO2 SLP274 T01610128=
202207101453 METAR KBFI 101453Z 14006KT 10SM OVC015 15/12 A3033 RMK AO2 SLP270 T01500122 51014=
202207101353 METAR KBFI 101353Z 14007KT 10SM OVC017 15/12 A3032 RMK AO2 SLP266 T01500122=
202207101253 METAR KBFI 101253Z 15007KT 10SM BKN020 16/12 A3031 RMK AO2 SLP263 T01560122=
202207101224 SPECI KBFI 101224Z AUTO 16005KT 10SM BKN020 OVC037 16/12 A3030 RMK AO2 T01560122=
202207101200 SPECI KBFI 101200Z AUTO 16005KT 10SM BKN030 OVC037 16/12 A3029 RMK AO2 T01610122=
202207101153 METAR KBFI 101153Z AUTO 15006KT 10SM BKN028 OVC035 16/12 A3029 RMK AO2 SLP257 T01610122 10183 20156 51006=
202207101053 METAR KBFI 101053Z 19004KT 10SM OVC026 16/12 A3029 RMK AO2 SLP255 T01610117=
202207101041 SPECI KBFI 101041Z 18005KT 10SM OVC029 16/12 A3028 RMK AO2 T01610117=
202207100953 METAR KBFI 100953Z 14005KT 10SM OVC032 16/12 A3028 RMK AO2 SLP253 T01610117=
202207100853 METAR KBFI 100853Z 18004KT 10SM BKN037 16/12 A3027 RMK AO2 SLP250 T01560117 51010=
202207100753 METAR KBFI 100753Z 16006KT 10SM FEW038 OVC075 16/12 A3026 RMK AO2 SLP247 T01610122 402440144=
202207100653 METAR KBFI 100653Z 12006KT 10SM OVC037 18/12 A3026 RMK AO2 SLP246 T01830117=
202207100553 METAR KBFI 100553Z 00000KT 10SM CLR 18/12 A3024 RMK AO2 SLP240 T01830117 10239 20183 53019=
202207100453 METAR KBFI 100453Z 00000KT 10SM SCT055 19/12 A3022 RMK AO2 SLP232 T01890122=
202207100353 METAR KBFI 100353Z 28003KT 10SM CLR 19/12 A3020 RMK AO2 SLP227 T01890117=
202207100253 METAR KBFI 100253Z 31005KT 10SM SCT060 19/12 A3019 RMK AO2 SLP221 T01940117 53007=
202207100153 METAR KBFI 100153Z AUTO 30007KT 10SM FEW055 21/12 A3018 RMK AO2 SLP218 T02110117=
202207100053 METAR KBFI 100053Z VRB04KT 10SM FEW055 24/12 A3017 RMK AO2 SLP215 T02390122=
202207092353 METAR KBFI 092353Z VRB04KT 10SM CLR 23/10 A3017 RMK AO2 SLP214 T02330100 10244 20194 52000=
202207092253 METAR KBFI 092253Z 00000KT 10SM CLR 24/11 A3017 RMK AO2 SLP214 T02390111=
202207092153 METAR KBFI 092153Z 28005KT 10SM FEW046 23/13 A3016 RMK AO2 SLP214 T02330128=
202207092053 METAR KBFI 092053Z 00000KT 10SM BKN046 22/13 A3016 RMK AO2 SLP214 T02220128 58002=
202207091953 METAR KBFI 091953Z VRB03KT 10SM CLR 22/12 A3017 RMK AO2 SLP216 T02170122=
202207091853 METAR KBFI 091853Z 33006KT 10SM CLR 22/13 A3018 RMK AO2 SLP218 T02170128=
202207091753 METAR KBFI 091753Z VRB03KT 10SM SCT055 BKN200 20/12 A3017 RMK AO2 SLP216 T02000122 10200 20144 51004=
202207091653 METAR KBFI 091653Z VRB03KT 10SM FEW060 OVC200 19/12 A3017 RMK AO2 SLP215 T01940117=
202207091553 METAR KBFI 091553Z 00000KT 10SM BKN060 18/11 A3017 RMK AO2 SLP216 T01780111=
202207091453 METAR KBFI 091453Z 00000KT 10SM BKN047 17/11 A3016 RMK AO2 SLP212 T01720111 53008=
202207091353 METAR KBFI 091353Z VRB03KT 10SM CLR 16/11 A3015 RMK AO2 SLP208 T01610111=
202207091253 METAR KBFI 091253Z 00000KT 10SM CLR 15/11 A3014 RMK AO2 SLP207 T01500111=
202207091153 METAR KBFI 091153Z 00000KT 10SM SCT055 15/11 A3013 RMK AO2 SLP203 T01500111 10183 20150 53001=
202207091053 METAR KBFI 091053Z 00000KT 10SM BKN055 16/11 A3013 RMK AO2 SLP203 T01610111=
202207090953 METAR KBFI 090953Z 00000KT 10SM BKN055 16/11 A3013 RMK AO2 SLP202 T01610111=
202207090853 METAR KBFI 090853Z 07003KT 10SM FEW055 17/11 A3013 RMK AO2 SLP203 T01670111 50000=
202207090753 METAR KBFI 090753Z 00000KT 10SM BKN060 17/11 A3014 RMK AO2 SLP205 T01720111 402560161=
202207090653 METAR KBFI 090653Z AUTO 00000KT 10SM SCT050 18/12 A3014 RMK AO2 SLP205 T01780117=
202207090553 METAR KBFI 090553Z VRB04KT 10SM CLR 18/12 A3013 RMK AO2 SLP203 T01830117 10250 20183 53011=
202207090453 METAR KBFI 090453Z 00000KT 10SM CLR 19/12 A3012 RMK AO2 SLP199 T01940117=
202207090353 METAR KBFI 090353Z 30006KT 10SM CLR 19/12 A3011 RMK AO2 SLP194 T01940117=
202207090253 METAR KBFI 090253Z 30008KT 10SM FEW080 21/12 A3010 RMK AO2 SLP192 T02060117 55001=
202207090153 METAR KBFI 090153Z 30007KT 10SM FEW070 23/12 A3009 RMK AO2 SLP189 T02280122=
202207090053 METAR KBFI 090053Z VRB04KT 10SM SCT060 24/12 A3009 RMK AO2 SLP188 T02390122=
202207082353 METAR KBFI 082353Z VRB04KT 10SM FEW070 24/11 A3010 RMK AO2 SLP193 T02440111 10256 20200 58003=
202207082253 METAR KBFI 082253Z 17006KT 10SM BKN065 24/12 A3011 RMK AO2 SLP194 T02440122=
202207082153 METAR KBFI 082153Z VRB04KT 10SM BKN065 24/13 A3011 RMK AO2 SLP196 T02440128=
202207082053 METAR KBFI 082053Z 00000KT 10SM BKN060 23/13 A3011 RMK AO2 SLP195 T02330128 58004=
202207081953 METAR KBFI 081953Z 10SM FEW038 FEW070 22/13 A3011 RMK AO2 SLP197 T02170133=
202207081853 METAR KBFI 081853Z VRB05KT 10SM SCT037 BKN080 21/13 A3012 RMK AO2 SLP198 T02110133=
202207081753 METAR KBFI 081753Z 24006KT 10SM BKN030 BKN080 20/13 A3012 RMK AO2 SLP199 T02000128 10206 20161 51004=
202207081653 METAR KBFI 081653Z 00000KT 10SM SCT027 SCT050 OVC080 19/13 A3012 RMK AO2 SLP199 T01890133=
202207081553 METAR KBFI 081553Z 00000KT 10SM FEW029 BKN044 OVC049 18/13 A3012 RMK AO2 SLP198 T01780133=
202207081453 METAR KBFI 081453Z 21003KT 10SM FEW030 BKN050 OVC090 17/13 A3011 RMK AO2 SLP196 T01720128 51005=
202207081353 METAR KBFI 081353Z 19003KT 10SM OVC050 17/13 A3011 RMK AO2 SLP195 T01670128=
202207081253 METAR KBFI 081253Z 00000KT 10SM BKN060 OVC085 17/13 A3010 RMK AO2 SLP193 T01670128=
202207081153 METAR KBFI 081153Z 23003KT 10SM BKN060 OVC090 16/13 A3010 RMK AO2 SLP191 T01610133 10178 20161 53006=
202207081053 METAR KBFI 081053Z 00000KT 10SM FEW024 BKN060 OVC080 17/13 A3009 RMK AO2 SLP187 T01670133=
202207080953 METAR KBFI 080953Z 00000KT 10SM BKN065 17/13 A3008 RMK AO2 SLP187 T01720133=
202207080853 METAR KBFI 080853Z 00000KT 10SM BKN065 17/13 A3008 RMK AO2 SLP184 T01720128 50001=
202207080753 METAR KBFI 080753Z 00000KT 10SM OVC065 18/13 A3008 RMK AO2 SLP186 T01780128 402500150=
202207080653 METAR KBFI 080653Z 00000KT 10SM SCT065 17/12 A3008 RMK AO2 SLP185 T01720122=
202207080553 METAR KBFI 080553Z 28003KT 10SM SCT060 17/12 A3007 RMK AO2 SLP183 T01720122 10244 20167 51016=
202207080453 METAR KBFI 080453Z 29004KT 10SM FEW085 17/12 A3006 RMK AO2 SLP180 T01670122=
202207080353 METAR KBFI 080353Z 30004KT 10SM FEW042 SCT080 18/12 A3005 RMK AO2 SLP174 T01830122=
202207080253 METAR KBFI 080253Z 32006KT 10SM CLR 20/13 A3003 RMK AO2 SLP168 T02000128 53002=
202207080153 METAR KBFI 080153Z 30006KT 10SM SCT200 22/13 A3001 RMK AO2 SLP162 T02220133=
202207080053 METAR KBFI 080053Z 32007G16KT 10SM SCT090 23/13 A3001 RMK AO2 SLP162 T02330128=
202207072353 METAR KBFI 072353Z 27006KT 10SM SCT090 24/12 A3002 RMK AO2 SLP165 T02440122 10250 20200 56004=
202207072253 METAR KBFI 072253Z 00000KT 10SM SCT050 25/13 A3002 RMK AO2 SLP166 T02500133=
202207072153 METAR KBFI 072153Z 20006KT 10SM SCT120 24/12 A3003 RMK AO2 SLP168 T02390122=
202207072053 METAR KBFI 072053Z 26003KT 10SM SCT030 SCT080 23/12 A3003 RMK AO2 SLP169 T02330117 58004=
202207071953 METAR KBFI 071953Z 27005KT 10SM SCT080 23/14 A3004 RMK AO2 SLP172 T02280139=
202207071853 METAR KBFI 071853Z 20005KT 10SM FEW033 21/13 A3004 RMK AO2 SLP173 T02110133=
202207071753 METAR KBFI 071753Z VRB03KT 10SM BKN032 21/14 A3004 RMK AO2 SLP173 T02110139 10211 20150 51007=
202207071653 METAR KBFI 071653Z 20004KT 10SM SCT030 BKN120 BKN250 19/13 A3004 RMK AO2 SLP172 T01890133=
202207071553 METAR KBFI 071553Z VRB04KT 10SM FEW120 19/13 A3003 RMK AO2 SLP170 T01890133=
202207071453 METAR KBFI 071453Z VRB03KT 10SM SCT036 BKN065 17/13 A3002 RMK AO2 SLP166 T01720133 51008=
202207071353 METAR KBFI 071353Z 17003KT 10SM SCT049 16/14 A3001 RMK AO2 SLP163 T01560139=
202207071253 METAR KBFI 071253Z 00000KT 10SM SCT049 OVC075 16/14 A3001 RMK AO2 SLP161 T01560139=
202207071153 METAR KBFI 071153Z VRB03KT 10SM BKN050 16/14 A3000 RMK AO2 SLP158 60000 70003 T01560139 10172 20156 51007=
202207071053 METAR KBFI 071053Z 16006KT 10SM SCT018 BKN050 BKN090 16/14 A2999 RMK AO2 SLP155 T01560144=
202207070953 METAR KBFI 070953Z 15005KT 10SM SCT016 BKN041 BKN090 16/14 A2999 RMK AO2 SLP155 T01610144=
202207070853 METAR KBFI 070853Z 17005KT 10SM FEW016 SCT023 BKN055 16/14 A2998 RMK AO2 SLP151 60000 T01610144 53004=
202207070753 METAR KBFI 070753Z 15005KT 10SM SCT016 BKN041 17/16 A2998 RMK AO2 RAB04E19 SLP150 P0000 T01670156 402280161=
202207070653 METAR KBFI 070653Z 00000KT 10SM BKN046 OVC080 17/16 A2997 RMK AO2 SLP147 T01670156=
202207070553 METAR KBFI 070553Z 27003KT 10SM SCT050 BKN080 17/15 A2997 RMK AO2 RAE03 SLP147 P0000 60002 T01720150 10222 20167 51013=
202207070453 METAR KBFI 070453Z 00000KT 10SM -RA SCT028 BKN050 OVC090 18/16 A2996 RMK AO2 RAB09 SLP145 P0002 T01780156=
202207070353 METAR KBFI 070353Z 00000KT 10SM OVC044 21/14 A2994 RMK AO2 SLP139 T02060144=
202207070253 METAR KBFI 070253Z 23004KT 10SM BKN050 OVC090 21/14 A2993 RMK AO2 SLP134 T02110144 53000=
202207070153 METAR KBFI 070153Z 20004KT 10SM FEW030 BKN090 OVC110 22/14 A2992 RMK AO2 SLP131 T02170139=
202207070053 METAR KBFI 070053Z 18006KT 10SM BKN090 OVC110 22/14 A2992 RMK AO2 SLP132 T02220139=
202207062353 METAR KBFI 062353Z 16007KT 10SM SCT030 SCT050 OVC095 22/14 A2993 RMK AO2 SLP134 T02220139 10228 20183 56006=
202207062253 METAR KBFI 062253Z 22008KT 10SM SCT050 22/14 A2993 RMK AO2 SLP135 T02220139=
202207062153 METAR KBFI 062153Z 13004KT 10SM SCT060 OVC110 22/14 A2993 RMK AO2 SLP136 T02170144=
202207062053 METAR KBFI 062053Z 19007KT 10SM OVC039 21/14 A2995 RMK AO2 SLP140 T02060144 50001=
202207061953 METAR KBFI 061953Z 10SM BKN039 BKN070 BKN095 20/15 A2995 RMK AO2 SLP141 T02000150=
202207061853 METAR KBFI 061853Z 24006KT 10SM BKN021 BKN039 BKN095 19/15 A2995 RMK AO2 SLP141 T01890150=
202207061753 METAR KBFI 061753Z 18005KT 10SM FEW060 BKN100 19/16 A2994 RMK AO2 RAE01 SLP139 P0000 60001 T01890156 10194 20161 53004=
202207061653 METAR KBFI 061653Z 24004KT 9SM -RA SCT020 BKN060 OVC090 17/16 A2994 RMK AO2 RAB20 SLP139 P0001 T01720156=
202207061553 METAR KBFI 061553Z 28003KT 10SM FEW070 BKN090 BKN100 18/15 A2993 RMK AO2 SLP135 T01830150=
202207061453 METAR KBFI 061453Z 00000KT 10SM BKN038 BKN095 BKN120 18/16 A2993 RMK AO2 SLP135 T01780156 53004=
202207061353 METAR KBFI 061353Z 00000KT 10SM FEW008 SCT038 BKN041 17/15 A2992 RMK AO2 SLP133 T01670150=
202207061253 METAR KBFI 061253Z 00000KT 10SM FEW008 OVC038 16/16 A2992 RMK AO2 SLP131 T01610156=
202207061153 METAR KBFI 061153Z 14004KT 10SM OVC035 17/16 A2992 RMK AO2 SLP131 60000 70002 T01670156 10172 20161 51001=
202207061053 METAR KBFI 061053Z 00000KT 10SM FEW040 SCT055 OVC085 17/16 A2992 RMK AO2 RAB0958E08 SLP130 P0000 T01670156=
202207060953 METAR KBFI 060953Z 00000KT 10SM SCT045 BKN060 OVC090 16/16 A2992 RMK AO2 SLP133 T01610156=
202207060853 METAR KBFI 060853Z 00000KT 10SM BKN055 17/15 A2992 RMK AO2 RAB03E15 SLP130 P0000 60000 T01670150 55001=
202207060753 METAR KBFI 060753Z 00000KT 10SM FEW048 FEW095 SCT120 17/15 A2992 RMK AO2 RAE0655 SLP130 P0000 T01670150 402390117=
202207060653 METAR KBFI 060653Z 00000KT 10SM -RA FEW041 SCT060 BKN100 17/14 A2991 RMK AO2 RAB06E22B41 SLP128 P0000 T01670144=
202207060553 METAR KBFI 060553Z 00000KT 10SM BKN070 BKN090 17/14 A2992 RMK AO2 SLP131 60002 T01720139 10217 20161 53006=
202207060453 METAR KBFI 060453Z 20003KT 10SM FEW060 BKN075 OVC110 17/14 A2991 RMK AO2 SLP126 T01670144=
202207060353 METAR KBFI 060353Z 00000KT 10SM BKN080 OVC095 17/14 A2991 RMK AO2 RAE23 SLP129 P0000 T01720139=
202207060253 METAR KBFI 060253Z 35003KT 7SM -RA OVC030 18/14 A2990 RMK AO2 RAB08 SLP124 P0002 60002 T01780139 53001=
202207060153 METAR KBFI 060153Z 30006KT 10SM OVC085 19/12 A2990 RMK AO2 SLP123 T01940122=
202207060053 METAR KBFI 060053Z 31004KT 10SM SCT110 21/13 A2989 RMK AO2 RAE00 SLP120 P0000 T02060133=
202207052353 METAR KBFI 052353Z 35004KT 10SM -RA FEW036 SCT070 OVC100 21/12 A2990 RMK AO2 RAB30 SLP123 P0000 60000 T02110117 10239 20178 56004=
202207052253 METAR KBFI 052253Z 31004KT 10SM OVC095 22/09 A2990 RMK AO2 SLP124 T02220094=
202207052153 METAR KBFI 052153Z 31006KT 10SM BKN100 23/12 A2990 RMK AO2 SLP123 T02280122=
202207052053 METAR KBFI 052053Z 31005KT 10SM FEW035 23/12 A2991 RMK AO2 SLP127 T02280117 56012=
202207051953 METAR KBFI 051953Z VRB04KT 10SM FEW035 SCT250 22/13 A2992 RMK AO2 SLP131 T02170128=
202207051853 METAR KBFI 051853Z VRB04KT 10SM SCT250 21/13 A2993 RMK AO2 SLP134 T02060133=
202207051753 METAR KBFI 051753Z 30006KT 10SM BKN200 18/13 A2994 RMK AO2 SLP139 T01780128 10183 20117 58009=
202207051653 METAR KBFI 051653Z VRB04KT 10SM BKN060 BKN200 17/13 A2996 RMK AO2 SLP144 T01720128=
202207051558 SPECI KBFI 051558Z VRB03KT 10SM SCT008 BKN060 BKN200 16/13 A2997 RMK AO2 T01610128=
202207051553 METAR KBFI 051553Z 09003KT 10SM BKN008 16/13 A2997 RMK AO2 SLP149 T01610128=
202207051453 METAR KBFI 051453Z 30003KT 10SM BKN008 14/12 A2997 RMK AO2 SLP149 T01440122 58003=
202207051353 METAR KBFI 051353Z 00000KT 9SM BKN008 13/12 A2998 RMK AO2 SLP150 T01330122=
202207051253 METAR KBFI 051253Z 00000KT 10SM BKN010 13/12 A2998 RMK AO2 SLP151 T01280117=
202207051153 METAR KBFI 051153Z 00000KT 10SM CLR 13/11 A2997 RMK AO2 SLP149 T01280111 10150 20128 57001=
202207051053 METAR KBFI 051053Z 00000KT 10SM CLR 13/11 A2997 RMK AO2 SLP149 T01280111=
202207050953 METAR KBFI 050953Z VRB03KT 10SM CLR 13/11 A2997 RMK AO2 SLP150 T01330111=
202207050853 METAR KBFI 050853Z VRB03KT 10SM CLR 14/11 A2998 RMK AO2 SLP150 T01390111 58002=
202207050753 METAR KBFI 050753Z VRB03KT 10SM CLR 14/11 A2998 RMK AO2 SLP151 T01440111 402000106=
202207050653 METAR KBFI 050653Z 00000KT 9SM CLR 15/11 A2998 RMK AO2 SLP151 T01500111=
202207050553 METAR KBFI 050553Z 31003KT 10SM CLR 15/11 A2998 RMK AO2 SLP152 T01500111 10200 20144 51006=
202207050453 METAR KBFI 050453Z 31003KT 10SM BKN110 16/12 A2998 RMK AO2 SLP151 T01560117=
202207050353 METAR KBFI 050353Z 30006KT 10SM SCT110 17/12 A2997 RMK AO2 SLP147 T01670117=
202207050253 METAR KBFI 050253Z 30004KT 10SM FEW040 SCT160 19/11 A2996 RMK AO2 SLP145 T01940111 55002=
202207050153 METAR KBFI 050153Z VRB03KT 10SM FEW040 SCT090 20/11 A2996 RMK AO2 SLP144 T02000111=
202207050053 METAR KBFI 050053Z 32005KT 10SM CLR 19/11 A2996 RMK AO2 SLP146 T01890111=
202207042353 METAR KBFI 042353Z 00000KT 10SM FEW035 SCT090 20/11 A2997 RMK AO2 SLP148 T02000111 10200 20161 58004=
202207042253 METAR KBFI 042253Z 25005KT 10SM SCT095 18/11 A2997 RMK AO2 SLP149 T01830106=
202207042153 METAR KBFI 042153Z 26006KT 10SM SCT035 BKN100 19/11 A2998 RMK AO2 SLP152 T01890111=
202207042053 METAR KBFI 042053Z 28006KT 10SM BKN041 BKN100 18/10 A2998 RMK AO2 SLP151 T01830100 51002=
202207041953 METAR KBFI 041953Z 21006KT 10SM OVC038 19/11 A2998 RMK AO2 SLP151 T01890106=
202207041853 METAR KBFI 041853Z 17004KT 10SM BKN037 17/09 A2998 RMK AO2 SLP150 T01670089=
202207041753 METAR KBFI 041753Z 24005KT 10SM BKN035 16/09 A2997 RMK AO2 SLP149 T01610089 10167 20117 58003=
202207041653 METAR KBFI 041653Z 20005KT 10SM OVC035 15/09 A2998 RMK AO2 SLP151 T01500094=
202207041553 METAR KBFI 041553Z 14007KT 10SM OVC036 14/11 A2998 RMK AO2 SLP152 T01440111=
202207041453 METAR KBFI 041453Z 15006KT 10SM BKN036 13/11 A2998 RMK AO2 SLP152 T01330111 53006=
202207041353 METAR KBFI 041353Z 15007KT 10SM BKN030 13/12 A2997 RMK AO2 SLP149 T01280117=
202207041253 METAR KBFI 041253Z 15006KT 9SM BKN032 OVC041 12/12 A2997 RMK AO2 SLP147 T01170117=
202207041153 METAR KBFI 041153Z 15005KT 10SM OVC041 12/11 A2996 RMK AO2 SLP146 70002 T01170111 10133 20106 51005=
202207041053 METAR KBFI 041053Z 15005KT 10SM FEW030 OVC041 12/11 A2996 RMK AO2 SLP146 T01170111=
202207040953 METAR KBFI 040953Z 15004KT 10SM CLR 11/10 A2995 RMK AO2 SLP142 T01110100=
202207040853 METAR KBFI 040853Z 15004KT 10SM CLR 11/11 A2995 RMK AO2 SLP141 T01110106 58002=
202207040753 METAR KBFI 040753Z AUTO 14004KT 10SM SCT032 SCT044 12/11 A2995 RMK AO2 SLP142 T01170106 401500117=
202207040653 METAR KBFI 040653Z 15004KT 10SM BKN035 12/11 A2995 RMK AO2 SLP143 T01220111=
202207040553 METAR KBFI 040553Z 16003KT 10SM BKN037 13/13 A2995 RMK AO2 SLP143 60001 T01330128 10144 20128 50001=
202207040453 METAR KBFI 040453Z 15004KT 10SM FEW032 BKN050 14/13 A2996 RMK AO2 RAE16 SLP145 P0000 T01390133=
202207040353 METAR KBFI 040353Z 12003KT 10SM -RA SCT020 OVC030 14/13 A2996 RMK AO2 RAB36 SLP143 P0001 T01440128=
202207040253 METAR KBFI 040253Z 13005KT 10SM SCT020 OVC030 14/13 A2995 RMK AO2 SLP142 60000 T01440128 55001=
202207040153 METAR KBFI 040153Z 11005KT 10SM SCT020 BKN028 OVC043 14/13 A2995 RMK AO2 RAE01 SLP140 P0000 T01440128=
202207040053 METAR KBFI 040053Z 11005KT 10SM -RA BKN020 OVC030 14/13 A2995 RMK AO2 RAE23B46 SLP141 P0000 T01390128=
202207032353 METAR KBFI 032353Z 13006KT 10SM -RA BKN021 OVC032 13/12 A2996 RMK AO2 RAB52 SLP143 P0000 60000 T01330122 10139 20128 58002=
202207032253 METAR KBFI 032253Z 13006KT 8SM BR SCT010 OVC025 13/13 A2996 RMK AO2 SLP145 T01330128=
202207032153 METAR KBFI 032153Z 15006KT 7SM BR SCT011 OVC025 13/12 A2997 RMK AO2 SLP147 T01330122=
202207032053 METAR KBFI 032053Z 16007KT 7SM BR SCT011 OVC025 13/12 A2996 RMK AO2 RAE1956 SLP145 P0000 60000 T01280117 51008=
202207031953 METAR KBFI 031953Z 18006KT 7SM -RA BR SCT011 OVC025 13/12 A2995 RMK AO2 RAB53 SLP142 P0000 T01280117=
202207031901 SPECI KBFI 031901Z 18007KT 4SM BR OVC013 13/12 A2995 RMK AO2 T01330117=
202207031853 METAR KBFI 031853Z 16008KT 4SM SCT012 OVC020 13/12 A2995 RMK AO2 SLP140 T01330117=
202207031753 METAR KBFI 031753Z VRB04KT 10SM SCT012 BKN021 13/12 A2994 RMK AO2 SLP136 60001 T01330117 10139 20128 55000=
202207031653 METAR KBFI 031653Z 15007KT 4SM BR BKN008 OVC014 13/12 A2994 RMK AO2 SLP137 T01280122=
202207031553 METAR KBFI 031553Z 15007KT 4SM BR SCT007 OVC011 13/13 A2992 RMK AO2 RAB08E33 SLP133 P0001 T01280128=
202207031503 SPECI KBFI 031503Z 15006KT 4SM BR OVC015 13/12 A2994 RMK AO2 T01330117=
202207031453 METAR KBFI 031453Z 16007KT 10SM OVC013 13/11 A2994 RMK AO2 SLP137 T01330111 53004=
202207031353 METAR KBFI 031353Z 18005KT 10SM OVC013 13/11 A2993 RMK AO2 SLP135 T01330111=
202207031253 METAR KBFI 031253Z 19006KT 10SM OVC012 13/12 A2992 RMK AO2 SLP132 T01330117=
202207031226 SPECI KBFI 031226Z 19006KT 10SM OVC013 13/11 A2992 RMK AO2 T01330111=
202207031153 METAR KBFI 031153Z 19006KT 10SM OVC017 14/11 A2992 RMK AO2 SLP132 T01390111 10167 20139 53003=
202207031053 METAR KBFI 031053Z 17004KT 10SM BKN015 OVC021 14/11 A2992 RMK AO2 SLP132 T01390111=
202207030953 METAR KBFI 030953Z AUTO 19006KT 10SM OVC015 14/11 A2992 RMK AO2 SLP130 T01390111=
202207030938 SPECI KBFI 030938Z AUTO 19005KT 10SM BKN015 OVC034 14/11 A2991 RMK AO2 T01390111=
202207030853 METAR KBFI 030853Z AUTO 21005KT 10SM OVC031 14/11 A2991 RMK AO2 SLP129 T01440111 56001=
202207030828 SPECI KBFI 030828Z 19006KT 10SM OVC030 14/12 A2991 RMK AO2 T01440117=
202207030753 METAR KBFI 030753Z 23003KT 10SM BKN020 OVC028 15/12 A2991 RMK AO2 SLP129 T01500117 401940133=
202207030723 SPECI KBFI 030723Z 22004KT 10SM BKN027 OVC045 16/12 A2992 RMK AO2 T01560122=
202207030653 METAR KBFI 030653Z 20005KT 10SM FEW030 SCT047 16/12 A2991 RMK AO2 SLP129 T01560122=
202207030553 METAR KBFI 030553Z 00000KT 10SM FEW035 SCT055 BKN110 17/13 A2992 RMK AO2 SLP131 T01670128 10194 20167 53010=
202207030453 METAR KBFI 030453Z 18003KT 10SM SCT031 BKN037 17/13 A2990 RMK AO2 SLP126 T01670133=
202207030353 METAR KBFI 030353Z 15003KT 10SM BKN110 17/13 A2989 RMK AO2 SLP122 T01720128=
202207030253 METAR KBFI 030253Z 23005KT 10SM FEW035 SCT110 18/13 A2989 RMK AO2 SLP120 T01830128 56006=
202207030153 METAR KBFI 030153Z 21005KT 10SM FEW030 SCT200 19/13 A2989 RMK AO2 SLP122 T01890133=
202207030053 METAR KBFI 030053Z 24007KT 10SM SCT028 SCT210 18/13 A2989 RMK AO2 SLP122 T01830133=
202207022353 METAR KBFI 022353Z 21007KT 10SM BKN028 BKN034 18/13 A2991 RMK AO2 SLP126 T01830133 10194 20156 57013=
202207022253 METAR KBFI 022253Z 24004KT 10SM BKN020 OVC025 18/13 A2992 RMK AO2 SLP131 T01830133=
202207022153 METAR KBFI 022153Z 23003KT 10SM OVC025 18/13 A2993 RMK AO2 SLP135 T01780133=
202207022053 METAR KBFI 022053Z 27003KT 10SM OVC022 18/13 A2994 RMK AO2 SLP140 T01830128 56012=
202207021953 METAR KBFI 021953Z 00000KT 10SM BKN020 17/12 A2996 RMK AO2 SLP144 T01720122=
202207021853 METAR KBFI 021853Z 00000KT 10SM OVC012 17/12 A2997 RMK AO2 SLP148 T01670122=
202207021753 METAR KBFI 021753Z 00000KT 10SM OVC012 16/12 A2998 RMK AO2 SLP152 T01560117 10156 20133 58008=
202207021653 METAR KBFI 021653Z 00000KT 10SM OVC011 14/12 A2999 RMK AO2 SLP156 T01440117=
202207021553 METAR KBFI 021553Z 00000KT 10SM OVC011 14/12 A3000 RMK AO2 SLP159 T01440117=
202207021453 METAR KBFI 021453Z 04003KT 10SM OVC011 14/12 A3001 RMK AO2 SLP160 T01390117 58002=
202207021353 METAR KBFI 021353Z 05003KT 10SM OVC010 14/12 A3001 RMK AO2 SLP162 T01390117=
202207021253 METAR KBFI 021253Z 00000KT 10SM OVC012 14/12 A3001 RMK AO2 SLP162 T01390117=
202207021153 METAR KBFI 021153Z 33003KT 10SM OVC011 13/12 A3001 RMK AO2 SLP162 T01330117 10172 20133 56001=
202207021053 METAR KBFI 021053Z VRB04KT 10SM OVC011 14/12 A3001 RMK AO2 SLP162 T01390117=
202207021040 SPECI KBFI 021040Z 00000KT 10SM BKN011 14/12 A3001 RMK AO2 T01390117=
202207020953 METAR KBFI 020953Z 00000KT 10SM CLR 14/12 A3001 RMK AO2 SLP163 T01390117=
202207020853 METAR KBFI 020853Z VRB04KT 10SM CLR 14/12 A3001 RMK AO2 SLP163 T01440117 58001=
202207020753 METAR KBFI 020753Z VRB03KT 10SM CLR 16/12 A3002 RMK AO2 SLP164 T01560117 402440144=
202207020653 METAR KBFI 020653Z VRB04KT 10SM CLR 16/12 A3002 RMK AO2 SLP165 T01610117=
202207020553 METAR KBFI 020553Z VRB03KT 10SM CLR 17/11 A3002 RMK AO2 SLP164 T01720111 10244 20172 53005=
202207020453 METAR KBFI 020453Z VRB03KT 10SM CLR 18/12 A3001 RMK AO2 SLP163 T01830117=
202207020353 METAR KBFI 020353Z 30006KT 10SM CLR 19/12 A3000 RMK AO2 SLP158 T01890122=
202207020253 METAR KBFI 020253Z 31004KT 10SM CLR 21/13 A3000 RMK AO2 SLP158 T02110128 55007=
202207020153 METAR KBFI 020153Z VRB04KT 10SM CLR 23/13 A2999 RMK AO2 SLP156 T02330133=
202207020053 METAR KBFI 020053Z 30007KT 10SM CLR 24/14 A3000 RMK AO2 SLP159 T02390139=
202207012353 METAR KBFI 012353Z 00000KT 10SM CLR 24/13 A3002 RMK AO2 SLP165 T02390128 10244 20194 56016=
202207012253 METAR KBFI 012253Z VRB04G14KT 10SM CLR 24/13 A3003 RMK AO2 SLP170 T02440128=
202207012153 METAR KBFI 012153Z 31008KT 280V350 10SM CLR 23/13 A3005 RMK AO2 SLP175 T02330133=
202207012053 METAR KBFI 012053Z 00000KT 10SM CLR 22/12 A3007 RMK AO2 SLP181 T02220122 58008=
202207011953 METAR KBFI 011953Z VRB05KT 10SM CLR 22/14 A3007 RMK AO2 SLP184 T02170139=
202207011853 METAR KBFI 011853Z 25006KT 10SM FEW015 21/13 A3008 RMK AO2 SLP187 T02060133=
202207011753 METAR KBFI 011753Z 27005KT 10SM SCT029 20/13 A3009 RMK AO2 SLP189 T02000133 10200 20144 58004=
202207011653 METAR KBFI 011653Z 00000KT 10SM CLR 19/13 A3009 RMK AO2 SLP190 T01940128=
202207011553 METAR KBFI 011553Z 00000KT 10SM CLR 18/12 A3010 RMK AO2 SLP192 T01780122=
202207011453 METAR KBFI 011453Z 00000KT 10SM CLR 17/12 A3010 RMK AO2 SLP192 T01670117 53008=
202207011353 METAR KBFI 011353Z 34003KT 10SM CLR 16/12 A3009 RMK AO2 SLP189 T01560117=
202207011253 METAR KBFI 011253Z 00000KT 10SM CLR 15/11 A3009 RMK AO2 SLP187 T01500111=
202207011153 METAR KBFI 011153Z 00000KT 10SM CLR 15/11 A3008 RMK AO2 SLP185 T01500111 10183 20144 51000=
202207011053 METAR KBFI 011053Z 00000KT 10SM CLR 15/11 A3008 RMK AO2 SLP185 T01500111=
202207010953 METAR KBFI 010953Z 00000KT 10SM CLR 16/11 A3008 RMK AO2 SLP185 T01560111=
202207010853 METAR KBFI 010853Z VRB03KT 10SM CLR 16/11 A3008 RMK AO2 SLP184 T01610111 51003=
202207010753 METAR KBFI 010753Z 00000KT 10SM CLR 17/11 A3007 RMK AO2 SLP184 T01670106 402330122=
202207010653 METAR KBFI 010653Z 00000KT 10SM CLR 17/11 A3007 RMK AO2 SLP182 T01720111=
202207010553 METAR KBFI 010553Z 00000KT 10SM CLR 18/12 A3007 RMK AO2 SLP181 T01830117 10233 20178 53005=
202207010453 METAR KBFI 010453Z 30004KT 10SM FEW040 18/12 A3006 RMK AO2 SLP180 T01830117=
202207010353 METAR KBFI 010353Z 31004KT 10SM FEW045 21/11 A3005 RMK AO2 SLP176 T02060106=
202207010253 METAR KBFI 010253Z VRB06KT 10SM CLR 22/09 A3005 RMK AO2 SLP176 T02220094 56008=
202207010153 METAR KBFI 010153Z 30007KT 10SM CLR 23/09 A3005 RMK AO2 SLP176 T02280094=
202207010053 METAR KBFI 010053Z 31008KT 10SM CLR 23/10 A3006 RMK AO2 SLP179 T02280100=

# No short TAF reports from KBFI in databse.

###################################
#  large TAF from KBFI
###################################
202207312330 TAF KBFI 312330Z 0100/0124 30006KT P6SM SKC FM011000 19006KT P6SM
                       SCT150 FM012000 23007KT P6SM SCT150=
202207311734 TAF KBFI 311734Z 3118/0118 30006KT P6SM SKC FM011000 19006KT P6SM
                       SCT150=
202207311126 TAF KBFI 311126Z 3112/0112 VRB03KT P6SM SKC FM311700 30006KT P6SM
                       SKC FM011000 19006KT P6SM SKC=
202207310538 TAF KBFI 310538Z 3106/0106 VRB03KT P6SM SKC FM311700 30006KT P6SM
                       SKC=
202207302325 TAF KBFI 302325Z 3100/3124 30006KT P6SM SKC FM310600 VRB03KT P6SM
                       SKC FM311700 30006KT P6SM SKC=
202207301733 TAF KBFI 301733Z 3018/3118 30006KT P6SM SKC FM310600 VRB03KT P6SM
                       SKC FM311700 30006KT P6SM SKC=
202207301125 TAF KBFI 301125Z 3012/3112 VRB03KT P6SM SKC FM301700 30006KT P6SM
                       SKC FM310600 VRB03KT P6SM SKC=
202207300539 TAF KBFI 300539Z 3006/3106 VRB03KT P6SM SKC FM301700 30006KT P6SM
                       SKC=
202207292331 TAF KBFI 292331Z 3000/3024 32006KT P6SM SKC FM300600 VRB03KT P6SM
                       SKC FM301700 30006KT P6SM SKC=
202207291737 TAF KBFI 291737Z 2918/3018 32006KT P6SM SKC FM300600 VRB03KT P6SM
                       SKC FM301700 30006KT P6SM SKC=
202207291126 TAF KBFI 291126Z 2912/3012 VRB03KT P6SM SKC FM291700 32006KT P6SM
                       SKC FM300600 VRB03KT P6SM SKC=
202207290538 TAF KBFI 290538Z 2906/3006 VRB03KT P6SM SKC FM291700 32006KT P6SM
                       SKC=
202207282320 TAF KBFI 282320Z 2900/2924 31008KT P6SM SKC FM290400 VRB03KT P6SM
                       SKC FM291700 30006KT P6SM SKC=
202207281720 TAF KBFI 281720Z 2818/2918 VRB03KT P6SM SKC FM282000 32007KT P6SM
                       SKC FM290300 03004KT P6SM SKC FM291000 VRB03KT
                       P6SM SKC FM291500 34006KT P6SM SKC=
202207281121 TAF KBFI 281121Z 2812/2912 VRB03KT P6SM SKC FM282000 32007KT P6SM
                       SKC FM290600 VRB03KT P6SM SKC=
202207280534 TAF KBFI 280534Z 2806/2906 VRB03KT P6SM SKC FM282000 32007KT P6SM
                       SKC=
202207272322 TAF KBFI 272322Z 2800/2824 30006KT P6SM SCT250 FM280400 VRB03KT
                       P6SM SKC FM282000 32007KT P6SM SKC=
202207271743 TAF KBFI 271743Z 2718/2818 21004KT P6SM SCT200 FM272200 30005KT
                       P6SM FEW150 FM280500 VRB03KT P6SM SKC=
202207271120 TAF KBFI 271120Z 2712/2812 16007KT P6SM SKC FM271800 27006KT P6SM
                       FEW150 FM272200 30005KT P6SM FEW150 FM280500
                       VRB03KT P6SM SKC=
202207270849 KBFI 270849Z 2709/2806 00000KT P6SM SKC FM271800 27006KT P6SM FEW150
                       FM272200 30005KT P6SM FEW150 FM280500 VRB03KT
                       P6SM SKC=
202207270520 TAF KBFI 270520Z 2706/2806 32003KT P6SM SKC FM270800 22004KT P6SM
                       SKC FM271200 23005KT P6SM SKC FM271800 27006KT
                       P6SM FEW150 FM272200 30005KT P6SM FEW150=
202207262348 TAF KBFI 262348Z 2700/2724 VRB03KT P6SM SKC FM270800 22004KT P6SM
                       SKC FM271200 23005KT P6SM SKC FM271800 VRB03KT
                       P6SM FEW150 FM272200 30005KT P6SM FEW150=
202207262041 KBFI 262041Z 2621/2718 31006KT P6SM SKC FM270500 VRB02KT P6SM SKC
                       FM271200 23005KT P6SM SKC=
202207261720 TAF KBFI 261720Z 2618/2718 31003KT P6SM SKC FM262100 29006KT P6SM
                       SKC FM270500 VRB02KT P6SM SKC FM271200 23005KT
                       P6SM SKC=
202207261120 TAF KBFI 261120Z 2612/2712 00000KT P6SM SKC FM261600 31003KT P6SM
                       SKC FM262100 29006KT P6SM SKC=
202207260856 KBFI 260856Z 2609/2706 00000KT P6SM SKC FM261600 31003KT P6SM SKC
                       FM262100 29006KT P6SM SKC=
202207260520 TAF KBFI 260520Z 2606/2706 00000KT P6SM SKC FM261600 31003KT P6SM
                       SKC FM262100 29006KT P6SM SKC=
202207252320 TAF KBFI 252320Z 2600/2624 31008KT P6SM SKC FM260600 00000KT P6SM
                       SKC FM261600 31005KT P6SM SKC=
202207251720 TAF KBFI 251720Z 2518/2618 32004KT P6SM SKC FM252100 32008KT P6SM
                       SKC FM260600 00000KT P6SM SKC=
202207251120 TAF KBFI 251120Z 2512/2612 32004KT P6SM SKC FM252100 32007KT P6SM
                       SKC FM260600 00000KT P6SM SKC=
202207250905 KBFI 250905Z 2509/2606 32004KT P6SM SKC FM252100 32007KT P6SM SKC=
202207250520 TAF KBFI 250520Z 2506/2606 30005KT P6SM BKN200 FM250900 VRB02KT
                       P6SM SKC FM252100 32007KT P6SM SKC=
202207250301 KBFI 250301Z 2503/2524 30005KT P6SM SCT200 FM250900 VRB02KT P6SM
                       SKC FM251700 32004KT P6SM SKC=
202207242320 TAF KBFI 242320Z 2500/2524 32009G17KT P6SM SKC FM250300 32003KT
                       P6SM SKC FM251900 32007KT P6SM SKC=
202207241720 TAF KBFI 241720Z 2418/2518 33007KT P6SM SKC FM250300 32003KT P6SM
                       SKC=
202207241422 KBFI 241422Z 2414/2512 31002KT P6SM FEW020
                      TEMPO 2414/2416 BKN008 FM241800 31006KT P6SM
                       SKC FM250000 30004KT P6SM SKC=
202207241120 TAF KBFI 241120Z 2412/2512 32004KT P6SM SKC FM241400 31002KT P6SM
                       FEW020 FM241800 31006KT P6SM SKC FM250000
                       30004KT P6SM SKC=
202207240901 KBFI 240901Z 2409/2506 32004KT P6SM SKC FM241300 31002KT P6SM FEW020
                       FM241800 31006KT P6SM SKC=
202207240520 TAF KBFI 240520Z 2406/2506 32004KT P6SM SKC FM241300 31002KT P6SM
                       FEW020 FM241800 31006KT P6SM SKC=
202207232320 TAF KBFI 232320Z 2400/2424 32005KT P6SM SCT035 FM240200 32004KT
                       P6SM SKC FM241500 31002KT P6SM FEW015 FM241800
                       31006KT P6SM SKC=
202207232050 KBFI 232050Z 2321/2418 33005KT P6SM BKN030 FM232200 33006KT P6SM
                       SCT050 FM241500 31002KT P6SM SCT025=
202207231941 KBFI 231941Z 2320/2418 32005KT P6SM SCT025 BKN030 FM232100 33005KT
                       P6SM SKC FM241500 31002KT P6SM SCT025=
202207231720 TAF KBFI 231720Z 2318/2418 29004KT P6SM BKN030 FM232000 32005KT
                       P6SM SCT035 FM232200 33005KT P6SM SKC FM241500
                       31002KT P6SM SCT025=
202207231120 TAF KBFI 231120Z 2312/2412 VRB03KT P6SM OVC015 FM231800 23004KT
                       P6SM BKN030 FM232000 27006KT P6SM SCT035
                       FM232300 30005KT P6SM SKC=
202207230852 KBFI 230852Z 2309/2406 VRB03KT P6SM OVC015 FM231800 23005KT P6SM
                       BKN030 FM232000 25006KT P6SM SCT035 FM232300
                       30005KT P6SM SKC=
202207230732 KBFI 230732Z 2308/2406 VRB04KT P6SM BKN015 FM231100 VRB03KT P6SM
                       OVC015 FM231800 23005KT P6SM BKN030 FM232000
                       25006KT P6SM SCT035 FM232300 30005KT P6SM
                       SKC=
202207230520 TAF KBFI 230520Z 2306/2406 VRB04KT P6SM FEW250 FM231300 VRB03KT
                       P6SM OVC025 FM231800 23005KT P6SM BKN030
                       FM232000 25006KT P6SM SCT035 FM232300 30005KT
                       P6SM SKC=
202207222320 TAF KBFI 222320Z 2300/2324 27006KT P6SM SCT050 FM231100 VRB03KT
                       P6SM OVC025 FM231800 25005KT P6SM BKN030
                       FM232000 27006KT P6SM SCT035=
202207221720 TAF KBFI 221720Z 2218/2318 20006KT P6SM BKN025 FM222000 22007KT
                       P6SM SCT030 BKN045 FM222200 27006KT P6SM
                       SCT050 FM231100 VRB03KT P6SM OVC025=
202207221120 TAF KBFI 221120Z 2212/2312 18007KT P6SM OVC015 FM221800 18006KT
                       P6SM BKN025 FM222000 22007KT P6SM SCT030
                       BKN045 FM222200 27006KT P6SM SCT050 FM231100
                       VRB03KT P6SM OVC030=
202207221010 KBFI 221010Z 2210/2306 18006KT P6SM BKN018 FM221300 19005KT P6SM
                       OVC015 FM221800 19005KT P6SM BKN030 FM222000
                       22005KT P6SM BKN050 FM222200 27005KT P6SM
                       SCT050=
202207220520 TAF KBFI 220520Z 2206/2306 30005KT P6SM SCT250 FM221100 18006KT
                       P6SM BKN018 FM221300 19005KT P6SM OVC015
                       FM221800 19005KT P6SM BKN030 FM222000 22005KT
                       P6SM BKN050 FM222200 27005KT P6SM SCT050=
202207212321 TAF KBFI 212321Z 2200/2224 23004KT P6SM SCT250 FM221100 18006KT
                       P6SM OVC025 FM221800 19005KT P6SM BKN030
                       FM222000 22005KT P6SM BKN050 FM222200 24005KT
                       P6SM SCT050=
202207211728 TAF KBFI 211728Z 2118/2218 23005KT P6SM FEW120 SCT250 FM221100
                       18006KT P6SM OVC025=
202207211123 TAF KBFI 211123Z 2112/2212 VRB03KT P6SM SCT007 SCT250
                      TEMPO 2113/2117 BKN007 FM211800 25007KT P6SM
                       SCT250 FM221100 18006KT P6SM BKN025=
202207210520 TAF KBFI 210520Z 2106/2206 31005KT P6SM SCT250 FM211300 19004KT
                       P6SM SCT015 SCT250
                      TEMPO 2113/2117 BKN012 FM211800 24005KT P6SM
                       SCT250=
202207202320 TAF KBFI 202320Z 2100/2124 31005KT P6SM SKC FM210500 00000KT P6SM
                       SKC FM211400 19004KT P6SM SCT015 FM211800
                       24005KT P6SM SCT250=
202207201720 TAF KBFI 201720Z 2018/2118 31006KT P6SM SKC FM210500 00000KT P6SM
                       SKC FM211400 20004KT P6SM SCT015=
202207201120 TAF KBFI 201120Z 2012/2112 00000KT P6SM SKC FM201400 00000KT P6SM
                       FEW012 FM201800 27004KT P6SM SKC FM202300
                       29006KT P6SM SKC=
202207200520 TAF KBFI 200520Z 2006/2106 31004KT P6SM SKC FM201400 00000KT P6SM
                       FEW012 FM201800 24004KT P6SM SKC FM202300
                       28006KT P6SM SKC=
202207200059 KBFI 200059Z 2001/2024 32010KT P6SM SKC FM200500 VRB03KT P6SM SKC
                       FM201400 20003KT P6SM FEW012 FM201800 24004KT
                       P6SM SKC FM202300 27006KT P6SM SKC=
202207192328 TAF KBFI 192328Z 2000/2024 32008KT P6SM SKC FM200500 VRB03KT P6SM
                       SKC FM201400 20003KT P6SM FEW012 FM201800
                       24004KT P6SM SKC FM202300 27006KT P6SM SKC=
202207191720 TAF KBFI 191720Z 1918/2018 30006KT P6SM SKC FM200500 VRB03KT P6SM
                       SKC=
202207191120 TAF KBFI 191120Z 1912/2012 30005KT P6SM SKC=
202207190520 TAF KBFI 190520Z 1906/2006 30005KT P6SM SKC=
202207190243 KBFI 190243Z 1903/1924 31007KT P6SM SKC FM190400 00000KT P6SM FEW050
                       FM191800 30005KT P6SM SKC=
202207182320 TAF KBFI 182320Z 1900/1924 33004KT P6SM FEW040 FM190400 00000KT
                       P6SM FEW050=
202207182017 KBFI 182017Z 1820/1918 19004KT P6SM SCT025 BKN040
                      TEMPO 1820/1822 BKN025 OVC040 FM182200 22005KT
                       P6SM FEW025 SCT050 FM190000 30005KT P6SM
                       FEW050 FEW250 FM190300 36005KT P6SM FEW250=
202207181720 TAF KBFI 181720Z 1818/1918 16007KT P6SM SCT022 BKN035
                      TEMPO 1818/1820 BKN022 OVC035 FM182000 22005KT
                       P6SM FEW025 SCT050 FM190000 30005KT P6SM
                       FEW050 FEW250 FM190300 36005KT P6SM FEW250=
202207181204 KBFI 181204Z 1812/1912 20005KT P6SM VCSH OVC020
                      TEMPO 1812/1814 -RA BKN014 FM181400 20006KT
                       P6SM OVC020 FM181900 22005KT P6SM SCT050
                       FM190000 30005KT P6SM FEW050 FEW250 FM190300
                       36005KT P6SM FEW250=
202207181120 TAF KBFI 181120Z 1812/1912 20005KT P6SM OVC020 FM181300 20006KT
                       P6SM OVC020 FM181900 22005KT P6SM SCT050
                       FM190000 30005KT P6SM FEW050 FEW250 FM190300
                       36005KT P6SM FEW250=
202207180904 KBFI 180904Z 1809/1906 VRB03KT P6SM VCSH SCT060 OVC110 FM181200
                       18004KT P6SM OVC025 FM181900 22005KT P6SM
                       SCT050 FM182300 33005KT P6SM FEW050 FEW150=
202207180521 TAF KBFI 180521Z 1806/1906 34003KT P6SM VCSH SCT050 OVC060 FM180800
                       22005KT P6SM OVC050 FM181200 18004KT P6SM
                       OVC025 FM181900 22005KT P6SM SCT050 FM182300
                       33005KT P6SM FEW050 FEW150=
202207172339 TAF KBFI 172339Z 1800/1824 31006KT P6SM BKN060 FM180900 18008KT
                       P6SM OVC050 FM181500 16006KT P6SM OVC025
                       FM181800 16004KT P6SM BKN050=
202207171727 TAF KBFI 171727Z 1718/1818 VRB04KT P6SM BKN060
                      TEMPO 1718/1720 BKN025 FM172100 31006KT P6SM
                       BKN050 FM180900 18008KT P6SM OVC050 FM181500
                       16006KT P6SM OVC025=
202207171120 TAF KBFI 171120Z 1712/1812 VRB04KT P6SM OVC050 FM171500 21005KT
                       P6SM OVC040 FM172100 31006KT P6SM BKN050
                       FM180900 18008KT P6SM OVC050=
202207170520 TAF KBFI 170520Z 1706/1806 34005KT P6SM BKN040 OVC060 FM171000
                       05005KT P6SM OVC040 FM171500 21005KT P6SM
                       OVC040 FM172100 31006KT P6SM BKN050=
202207162324 TAF KBFI 162324Z 1700/1724 23005KT P6SM OVC050 FM170300 35006KT
                       P6SM SCT040 FM171100 VRB05KT P6SM BKN035
                       FM171800 27004KT P6SM BKN050=
202207161732 TAF KBFI 161732Z 1618/1718 25005KT P6SM OVC050
                      TEMPO 1618/1619 BKN030 FM170300 35006KT P6SM
                       SCT040 FM171100 VRB05KT P6SM BKN035=
202207161317 KBFI 161317Z 1613/1712 19006KT P6SM FEW015 OVC035
                      TEMPO 1613/1617 BKN020 FM161800 25005KT P6SM
                       BKN045 FM162000 26006KT P6SM BKN070=
202207161122 TAF KBFI 161122Z 1612/1712 19006KT P6SM BKN015 OVC025 FM161800
                       25005KT P6SM BKN035 FM162000 26006KT P6SM
                       BKN070=
202207160520 TAF KBFI 160520Z 1606/1706 21005KT P6SM BKN070 FM161200 19003KT
                       P6SM OVC025 FM161900 25005KT P6SM BKN050
                       FM162200 27008KT P6SM SCT070=
202207152321 TAF KBFI 152321Z 1600/1624 22007G15KT P6SM SKC FM160400 18003KT
                       P6SM BKN040 FM161200 VRB03KT P6SM OVC040
                       FM161400 VRB03KT P6SM SCT030 OVC040 FM162000
                       27005KT P6SM BKN050=
202207151731 TAF KBFI 151731Z 1518/1618 17010KT P6SM SKC FM152100 23007KT P6SM
                       SCT040 SCT250 FM160400 18003KT P6SM BKN040
                       FM161200 VRB03KT P6SM OVC040 FM161400 VRB03KT
                       P6SM SCT030 OVC040=
202207151453 KBFI 151453Z 1515/1612 18007KT P6SM SKC FM151800 18005KT P6SM SCT250
                       FM152100 23007KT P6SM SCT040 SCT250 FM160400
                       VRB03KT P6SM BKN040=
202207151120 TAF KBFI 151120Z 1512/1612 VRB03KT P6SM SKC FM151800 18005KT P6SM
                       SCT250 FM152100 23007KT P6SM SCT040 SCT250
                       FM160400 VRB03KT P6SM BKN040=
202207150520 TAF KBFI 150520Z 1506/1606 VRB03KT P6SM SKC FM151800 18005KT P6SM
                       SCT250 FM152100 23007KT P6SM SCT040 FM160400
                       26004KT P6SM BKN040=
202207142320 TAF KBFI 142320Z 1500/1524 29005KT P6SM SCT250 FM150700 22002KT
                       P6SM SKC FM151800 20005KT P6SM SCT250=
202207141732 TAF KBFI 141732Z 1418/1518 29005KT P6SM SCT250 FM150700 22002KT
                       P6SM SKC=
202207141120 TAF KBFI 141120Z 1412/1512 VRB03KT P6SM SCT200 FM141800 25005KT
                       P6SM SCT200 FM142100 29006KT P6SM SKC FM150300
                       VRB03KT P6SM SKC=
202207140520 TAF KBFI 140520Z 1406/1506 VRB03KT P6SM SCT200 FM141200 VRB03KT
                       P6SM SCT015 SCT200 FM141800 25005KT P6SM
                       SCT200 FM142100 29006KT P6SM SCT200=
202207132320 TAF KBFI 132320Z 1400/1424 32006KT P6SM SCT200 FM140500 VRB03KT
                       P6SM SCT200 FM141200 VRB03KT P6SM SCT015
                       SCT200 FM141800 25005KT P6SM SCT200=
202207131721 TAF KBFI 131721Z 1318/1418 VRB03KT P6SM SCT030 SCT200 FM132000
                       29005KT P6SM SCT200 FM140500 VRB03KT P6SM
                       SCT200 FM141200 VRB03KT P6SM SCT015 SCT200=
202207131120 TAF KBFI 131120Z 1312/1412 VRB03KT P6SM SKC FM131800 27006KT P6SM
                       SCT250 FM140500 VRB03KT P6SM SKC=
202207130523 TAF KBFI 130523Z 1306/1406 VRB03KT P6SM SKC FM131800 27006KT P6SM
                       SCT250=
202207122333 TAF KBFI 122333Z 1300/1324 29008KT P6SM SKC FM130500 VRB03KT P6SM
                       SKC=
202207121720 TAF KBFI 121720Z 1218/1318 29008KT P6SM SKC FM130500 VRB03KT P6SM
                       SKC=
202207121120 TAF KBFI 121120Z 1212/1312 VRB03KT P6SM SKC FM121700 29008KT P6SM
                       SCT250 FM130500 VRB03KT P6SM SKC=
202207120520 TAF KBFI 120520Z 1206/1306 VRB03KT P6SM SKC FM121300 32004KT P6SM
                       SKC FM121700 29008KT P6SM SKC=
202207120307 KBFI 120307Z 1203/1224 32007KT P6SM SKC FM120800 02007KT P6SM SKC
                       FM121300 02003KT P6SM SKC FM121700 29006KT
                       P6SM SKC=
202207112329 TAF KBFI 112329Z 1200/1224 32007KT P6SM SKC FM120800 02007KT P6SM
                       SCT080 FM121300 02003KT P6SM SKC FM121700
                       29003KT P6SM SKC=
202207111723 TAF KBFI 111723Z 1118/1218 32007KT P6SM SKC FM120400 VRB03KT P6SM
                       SKC FM120800 02007KT P6SM SCT080 FM121300
                       02003KT P6SM SKC=
202207111121 TAF KBFI 111121Z 1112/1212 00000KT P6SM SKC FM111800 32007KT P6SM
                       SKC FM120400 VRB03KT P6SM SKC=
202207110537 TAF KBFI 110537Z 1106/1206 00000KT P6SM SKC FM111800 32007KT P6SM
                       SKC FM120400 33004KT P6SM SKC=
202207110300 KBFI 110300Z 1103/1124 32005KT P6SM FEW040 FM110400 34005KT P6SM
                       SKC FM111200 00000KT P6SM FEW250=
202207102321 TAF KBFI 102321Z 1100/1124 24007KT P6SM SCT080 FM110400 34005KT
                       P6SM SKC=
202207101736 TAF KBFI 101736Z 1018/1118 22005KT P6SM BKN045
                      TEMPO 1018/1019 OVC015 FM102200 24007KT P6SM
                       SCT080 FM110400 36005KT P6SM SKC=
202207101511 KBFI 101511Z 1015/1112 15005KT P6SM OVC040
                      TEMPO 1015/1017 OVC015 FM101800 22006KT P6SM
                       BKN050 FM102200 29007KT P6SM SCT080 FM110400
                       00000KT P6SM SKC=
202207101225 KBFI 101225Z 1012/1112 16005KT P6SM SCT030 OVC040
                      TEMPO 1012/1016 BKN030 OVC040 FM101800 22006KT
                       P6SM BKN050 FM102200 29007KT P6SM SCT080
                       FM110400 00000KT P6SM SKC=
202207101131 TAF KBFI 101131Z 1012/1112 19004KT P6SM OVC025 FM101800 22006KT
                       P6SM BKN050 FM102200 29007KT P6SM SCT080
                       FM110400 00000KT P6SM SKC=
202207101048 KBFI 101048Z 1011/1106 18005KT P6SM OVC028 FM101900 22006KT P6SM
                       SCT045 BKN080 FM102200 29007KT P6SM SCT080=
202207100523 TAF KBFI 100523Z 1006/1106 00000KT P6SM SCT060 SCT120 FM100800
                       18005KT P6SM BKN120 FM101200 VRB04KT P6SM
                       OVC022 FM101900 22006KT P6SM SCT045 BKN080
                       FM102200 29007KT P6SM SCT080=
202207100254 KBFI 100254Z 1003/1024 VRB05KT P6SM FEW050 BKN150 FM100800 18005KT
                       P6SM BKN120 FM101200 VRB04KT P6SM OVC022
                       FM101900 22006KT P6SM SCT045 BKN080 FM102200
                       29007KT P6SM SCT080=
202207092322 TAF KBFI 092322Z 1000/1024 25008KT P6SM SCT050 BKN200 FM100600
                       18005KT P6SM BKN080 FM101200 18005KT P6SM
                       BKN015 BKN060 FM101900 22006KT P6SM BKN050=
202207091739 TAF KBFI 091739Z 0918/1018 22005KT P6SM SCT060 BKN200 FM092200
                       25008KT P6SM SCT080 BKN250 FM100600 18005KT
                       P6SM BKN080 FM101200 18005KT P6SM BKN010
                       BKN060=
202207091120 TAF KBFI 091120Z 0912/1012 00000KT P6SM BKN060 FM091800 22005KT
                       P6SM SCT070 BKN200 FM092200 25008KT P6SM
                       BKN080 FM100300 22005KT P6SM SCT080=
202207090523 TAF KBFI 090523Z 0906/1006 00000KT P6SM FEW060 FM091200 20003KT
                       P6SM FEW018 BKN070 FM091800 22005KT P6SM
                       SCT070 BKN200 FM092200 25008KT P6SM BKN080
                       FM100300 22005KT P6SM SCT080=
202207090240 KBFI 090240Z 0903/0924 31005KT P6SM FEW070 FM091200 20003KT P6SM
                       FEW018 BKN070 FM091800 22005KT P6SM BKN200=
202207082320 TAF KBFI 082320Z 0900/0924 17006KT P6SM BKN060 FM090200 31005KT
                       P6SM SCT120 SCT200 FM091200 20003KT P6SM
                       FEW018 BKN070 FM091800 22005KT P6SM BKN200=
202207081722 TAF KBFI 081722Z 0818/0918 20004KT P6SM BKN060 OVC080 FM082200
                       27006KT P6SM BKN100 BKN200 FM090200 31005KT
                       P6SM SCT120 SCT200 FM091200 00000KT P6SM
                       FEW018 BKN070=
202207081120 TAF KBFI 081120Z 0812/0912 00000KT P6SM BKN060 OVC080 FM082200
                       27006KT P6SM SCT120 BKN200 FM090600 00000KT
                       P6SM SCT200=
202207080522 TAF KBFI 080522Z 0806/0906 31004KT P6SM FEW050 SCT090 FM081000
                       00000KT P6SM OVC050 FM081800 23005KT P6SM
                       BKN070 BKN120 FM082200 27006KT P6SM SCT120
                       BKN200=
202207080254 KBFI 080254Z 0803/0824 30005KT P6SM SCT060 BKN100 FM081000 00000KT
                       P6SM OVC050 FM081800 23005KT P6SM BKN070
                       BKN120 FM082200 27006KT P6SM SCT120 BKN200=
202207072321 TAF KBFI 072321Z 0800/0824 26004KT P6SM SCT050 BKN120 FM080200
                       28004KT P6SM SCT050 BKN120 FM081000 00000KT
                       P6SM OVC050 FM081800 23005KT P6SM BKN070
                       BKN120 FM082200 27006KT P6SM SCT120 BKN200=
202207071725 TAF KBFI 071725Z 0718/0818 20004KT P6SM SCT030 BKN070 BKN120 FM072200
                       24006KT P6SM SCT050 BKN120 FM080100 30005KT
                       P6SM SCT050 BKN120 FM081000 00000KT P6SM
                       OVC050=
202207071339 KBFI 071339Z 0714/0812 VRB03KT P6SM FEW018 BKN050 OVC080
                      TEMPO 0714/0718 BKN018 OVC050 FM072100 24005KT
                       P6SM SCT050 BKN100 FM080000 34003KT P6SM
                       SCT050 BKN100 FM081000 00000KT P6SM OVC050=
202207071127 TAF KBFI 071127Z 0712/0812 16003KT P6SM SCT018 BKN050
                      TEMPO 0712/0714 OVC018 FM071400 18003KT P6SM
                       OVC018 FM071800 21004KT P6SM OVC050 FM072100
                       24005KT P6SM SCT050 BKN100 FM080000 34003KT
                       P6SM SCT050 BKN100 FM081000 00000KT P6SM
                       OVC050=
202207070522 TAF KBFI 070522Z 0706/0806 VRB03KT P6SM BKN050 OVC100 FM071200
                       00000KT P6SM OVC025 FM071800 21004KT P6SM
                       OVC050 FM072100 24005KT P6SM SCT050 BKN100
                       FM080000 34003KT P6SM SCT050 BKN100=
202207062322 TAF KBFI 062322Z 0700/0724 22009KT P6SM SCT050 OVC070 FM070500
                       19003KT P6SM OVC050 FM071300 18004KT P6SM
                       OVC025=
202207061727 TAF KBFI 061727Z 0618/0718 24005KT P6SM VCSH BKN060 OVC090 FM062300
                       25005KT P6SM BKN070 FM070500 27003KT P6SM
                       OVC050=
202207061415 KBFI 061415Z 0614/0712 00000KT P6SM VCSH SCT040 OVC060
                      TEMPO 0614/0616 VRB03KT 6SM RA OVC030 FM061700
                       27005KT P6SM VCSH OVC040 FM070700 27003KT
                       P6SM OVC050=
202207061139 TAF KBFI 061139Z 0612/0712 00000KT P6SM VCSH SCT040 OVC060 FM061400
                       VRB03KT P6SM VCSH OVC030 FM061700 27005KT
                       P6SM VCSH OVC040 FM070700 27003KT P6SM OVC050=
202207060535 TAF KBFI 060535Z 0606/0706 20003KT P6SM VCSH SCT060 OVC080 FM061000
                       00000KT P6SM OVC050 FM061400 33003KT P6SM
                       OVC030=
202207052321 TAF KBFI 052321Z 0600/0624 31004KT P6SM VCSH OVC100 FM060500 VRB02KT
                       P6SM OVC080 FM061000 00000KT P6SM OVC050
                       FM061400 33003KT P6SM OVC030=
202207051720 TAF KBFI 051720Z 0518/0618 31004KT P6SM BKN060 BKN250 FM060100
                       00000KT P6SM OVC120 FM060500 VRB02KT P6SM
                       OVC100 FM061000 00000KT P6SM OVC050=
202207051459 KBFI 051459Z 0515/0612 33003KT 6SM BR SCT040 BKN100
                      TEMPO 0515/0516 BKN008 FM051700 31004KT P6SM
                       BKN250 FM060400 00000KT P6SM OVC100 FM061000
                       00000KT P6SM OVC050=
202207051138 TAF KBFI 051138Z 0512/0612 33003KT 6SM BR SCT040 BKN100 FM051900
                       31004KT P6SM BKN250 FM060400 00000KT P6SM
                       OVC100 FM061000 00000KT P6SM OVC050=
202207050520 TAF KBFI 050520Z 0506/0606 33003KT P6SM SCT040 BKN100 FM051000
                       35003KT P6SM BKN250 FM051900 31004KT P6SM
                       BKN250=
202207050306 KBFI 050306Z 0503/0524 30004KT P6SM FEW040 SCT160 FM050600 33003KT
                       P6SM SCT040 BKN100 FM051000 35003KT P6SM
                       BKN250 FM051900 31004KT P6SM BKN250=
202207042329 TAF KBFI 042329Z 0500/0524 25005KT P6SM SCT035 BKN100 FM050200
                       29004KT P6SM VCSH BKN070 FM050600 33003KT
                       P6SM SCT040 BKN100 FM051000 35003KT P6SM
                       BKN250 FM051900 31004KT P6SM BKN250=
202207041740 TAF KBFI 041740Z 0418/0518 18005KT P6SM BKN035 FM041900 18005KT
                       P6SM SCT040 BKN050 FM050200 26004KT P6SM
                       VCSH BKN050 FM050600 35003KT P6SM SCT040
                       BKN100 FM051000 02003KT P6SM BKN250=
202207041304 KBFI 041304Z 0413/0512 16006KT P6SM SCT020 BKN035 OVC040 FM042100
                       25005KT P6SM SCT025 BKN060 FM050200 32004KT
                       P6SM -SHRA BKN030 OVC040=
202207041137 TAF KBFI 041137Z 0412/0512 15004KT P6SM VCSH SCT030 BKN040 FM041300
                       18004KT P6SM OVC025 FM042100 25005KT P6SM
                       SCT025 BKN060 FM050200 32004KT P6SM -SHRA
                       BKN030 OVC040=
202207040900 KBFI 040900Z 0409/0506 15004KT P6SM VCSH SCT030 BKN040 FM041100
                       18004KT P6SM OVC025 FM042100 25005KT P6SM
                       SCT025 BKN060 FM050200 32004KT P6SM -SHRA
                       BKN030 OVC040=
202207040535 TAF KBFI 040535Z 0406/0506 15004KT P6SM VCSH SCT030 BKN040 FM041000
                       20004KT P6SM OVC025 FM042100 25005KT P6SM
                       SCT025 BKN060 FM050200 32004KT P6SM -SHRA
                       BKN030 OVC040=
202207040257 KBFI 040257Z 0403/0424 12005KT P6SM VCSH BKN040
                      TEMPO 0403/0404 -SHRA BKN030 FM040600 15004KT
                       P6SM VCSH SCT030 BKN040 FM041300 20004KT
                       P6SM OVC025 FM042100 25005KT P6SM SCT025
                       BKN060=
202207032320 TAF KBFI 032320Z 0400/0424 16006KT P6SM -SHRA SCT010 OVC025 FM040200
                       23005KT P6SM BKN040 FM040600 17004KT P6SM
                       OVC025 FM041600 20004KT P6SM OVC025 FM042100
                       25005KT P6SM SCT025 BKN060=
202207031720 TAF KBFI 031720Z 0318/0418 17006KT P6SM VCSH BKN007 OVC015 FM032000
                       18006KT P6SM -SHRA OVC020 FM040200 23005KT
                       P6SM BKN040 FM040600 18004KT P6SM OVC025
                       FM041600 20004KT P6SM OVC025=
202207031139 TAF KBFI 031139Z 0312/0412 17005KT P6SM VCSH OVC018 FM031400 17006KT
                       P6SM VCSH OVC010 FM031900 20006KT P6SM -SHRA
                       OVC022 FM040200 23005KT P6SM BKN040 FM040600
                       18004KT P6SM OVC025=
202207030905 KBFI 030905Z 0309/0406 22005KT P6SM OVC035 FM031100 18005KT P6SM
                       VCSH OVC018 FM031400 17006KT P6SM VCSH OVC010
                       FM031900 20006KT P6SM -SHRA OVC022 FM040400
                       18004KT P6SM OVC025=
202207030540 TAF KBFI 030540Z 0306/0406 22005KT P6SM SCT030 SCT200 FM030900
                       18005KT P6SM VCSH OVC018 FM031400 17006KT
                       P6SM VCSH OVC010 FM031900 20006KT P6SM -SHRA
                       OVC022=
202207030256 KBFI 030256Z 0303/0324 22005KT P6SM SCT030 SCT200 FM030900 18005KT
                       P6SM VCSH OVC018 FM031400 17006KT P6SM VCSH
                       OVC010 FM031900 20006KT P6SM -SHRA OVC022=
202207022320 TAF KBFI 022320Z 0300/0324 25005KT P6SM SCT020 BKN030 FM030900
                       18005KT P6SM VCSH OVC020 FM032000 20006KT
                       P6SM -SHRA OVC030=
202207021722 TAF KBFI 021722Z 0218/0318 VRB02KT P6SM OVC010 FM022100 28005KT
                       P6SM SCT015 BKN050 FM022300 29006KT P6SM
                       SCT050 BKN250 FM030900 18005KT P6SM VCSH
                       OVC030=
202207021120 TAF KBFI 021120Z 0212/0312 VRB02KT P6SM OVC010 FM021800 28005KT
                       P6SM SCT015 BKN050 FM022000 29006KT P6SM
                       SCT050 BKN250 FM030900 19005KT P6SM VCSH
                       OVC030=
202207020520 TAF KBFI 020520Z 0206/0306 33005KT P6SM SCT250 FM021100 VRB03KT
                       P6SM OVC015 FM021800 28005KT P6SM SCT018
                       BKN050 FM022000 27006KT P6SM SCT050 BKN250
                       FM030300 29005KT P6SM OVC080=
202207020253 KBFI 020253Z 0203/0224 29005KT P6SM SCT250 FM021100 VRB03KT P6SM
                       OVC005 FM021800 28005KT P6SM SCT018 BKN050
                       FM022000 27006KT P6SM SCT050 BKN250=
202207012320 TAF KBFI 012320Z 0200/0224 29007KT P6SM SCT250 FM021100 VRB03KT
                       P6SM OVC020 FM021800 28005KT P6SM SCT020
                       BKN050 FM022000 27006KT P6SM SCT050 BKN250=
202207011731 TAF KBFI 011731Z 0118/0218 24005KT P6SM SCT040 SCT250 FM012300
                       29007KT P6SM SCT250 FM021100 VRB03KT P6SM
                       OVC020=
202207011141 TAF KBFI 011141Z 0112/0212 20003KT P6SM FEW020 FM011700 24005KT
                       P6SM SCT040 SCT250 FM012300 29007KT P6SM
                       SCT250 FM021100 19004KT P6SM OVC019=
202207010541 TAF KBFI 010541Z 0106/0206 VRB03KT P6SM SKC FM011200 20003KT P6SM
                       FEW020 FM011700 24005KT P6SM SCT040 SCT250
                       FM012300 29007KT P6SM SCT250=
202207010254 KBFI 010254Z 0103/0124 31007KT P6SM SKC FM010600 VRB03KT P6SM SKC
                       FM011200 20003KT P6SM FEW020 FM011700 24005KT
                       P6SM SCT040 SCT250=