##########################################################
# Query made at 02/17/2025 07:20:11 UTC
# Time interval: from 03/01/2023 00:00  to 03/31/2023 23:59  UTC
##########################################################

##########################################################
# KBFI, Seattle, Seattle Boeing Field (United States)
# WMO index: -----. WIGOS ID: Unknown
# Latitude 47-32-45N. Longitude 122-18-49W. Altitude 5 m.
##########################################################

###################################
#  METAR/SPECI from KBFI
###################################
202303312353 METAR KBFI 312353Z 18010G18KT 10SM -RA BKN028 BKN035 OVC060 08/05 A2991 RMK AO2 SLP127 P0000 60000 T00830050 10094 20078 56015=
202303312253 METAR KBFI 312253Z 18010G20KT 10SM -RA BKN028 BKN033 OVC042 08/04 A2992 RMK AO2 RAE2159B46 SLP130 P0000 T00830039=
202303312207 SPECI KBFI 312207Z 17011G23KT 10SM SCT026 BKN028 OVC055 08/04 A2993 RMK AO2 RAE2159 P0000 T00830039=
202303312153 METAR KBFI 312153Z 17013KT 10SM -RA SCT026 BKN048 OVC055 08/04 A2993 RMK AO2 RAB01 SLP134 P0000 T00830044=
202303312053 METAR KBFI 312053Z 20008G18KT 10SM BKN020 OVC043 08/04 A2995 RMK AO2 PK WND 22026/1959 RAB1958E17B33E49 SLP142 P0000 60000 T00830039 53003=
202303311953 METAR KBFI 311953Z 20009G15KT 7SM BKN020 BKN037 OVC045 09/04 A2994 RMK AO2 PK WND 16027/1939 RAE05B41E53 SLP137 P0000 T00890039=
202303311900 SPECI KBFI 311900Z 20008G20KT 8SM -RA BKN020 BKN037 OVC045 08/04 A2995 RMK AO2 P0000 T00780039=
202303311853 METAR KBFI 311853Z 18012G25KT 5SM -RA BKN027 OVC042 08/03 A2994 RMK AO2 RAB48 SLP139 P0000 T00780033=
202303311753 METAR KBFI 311753Z 18007KT 10SM BKN027 OVC042 08/04 A2994 RMK AO2 RAB18E34 SLP139 P0000 60000 T00830039 10083 20061 51001=
202303311712 SPECI KBFI 311712Z 18008KT 10SM BKN017 OVC027 08/03 A2994 RMK AO2 T00780028=
202303311700 SPECI KBFI 311700Z 17011KT 10SM BKN036 BKN047 OVC080 08/03 A2994 RMK AO2 T00780028=
202303311653 METAR KBFI 311653Z 17011KT 10SM BKN017 OVC027 08/03 A2994 RMK AO2 SLP138 T00780028=
202303311553 METAR KBFI 311553Z 18009KT 10SM BKN017 OVC027 07/03 A2995 RMK AO2 SLP140 T00720028=
202303311453 METAR KBFI 311453Z 17005KT 10SM OVC037 06/03 A2994 RMK AO2 RAB12E25 SLP138 P0000 60000 T00610033 52002=
202303311353 METAR KBFI 311353Z 19008KT 10SM BKN019 OVC025 07/03 A2994 RMK AO2 SLP138 T00670028=
202303311315 SPECI KBFI 311315Z 18008KT 10SM BKN025 OVC038 06/03 A2994 RMK AO2 T00610028=
202303311253 METAR KBFI 311253Z 18007KT 10SM OVC037 06/03 A2994 RMK AO2 RAB22E48 SLP137 P0000 T00610033=
202303311153 METAR KBFI 311153Z 17008KT 10SM SCT026 BKN034 OVC047 06/03 A2994 RMK AO2 RAB21E30B43E44 SLP137 P0000 60000 T00610033 10072 20056 58002=
202303311053 METAR KBFI 311053Z 19008G16KT 10SM BKN038 OVC048 06/03 A2994 RMK AO2 RAB12E30 SLP139 P0000 T00610028=
202303310953 METAR KBFI 310953Z 18009KT 10SM SCT040 OVC065 07/02 A2994 RMK AO2 SLP139 T00670022=
202303310853 METAR KBFI 310853Z 17006KT 10SM FEW031 OVC060 07/02 A2994 RMK AO2 SLP139 T00670017 51005=
202303310753 METAR KBFI 310753Z 20008KT 10SM OVC060 07/02 A2994 RMK AO2 SLP138 T00720017=
202303310653 METAR KBFI 310653Z 18008KT 10SM OVC060 07/02 A2993 RMK AO2 SLP136 T00720017 401280061=
202303310553 METAR KBFI 310553Z 20008KT 10SM OVC065 07/02 A2993 RMK AO2 SLP134 T00720017 10111 20072 51015=
202303310453 METAR KBFI 310453Z 20008KT 10SM OVC065 08/02 A2992 RMK AO2 SLP132 T00780017=
202303310353 METAR KBFI 310353Z 21008G17KT 10SM OVC065 08/01 A2991 RMK AO2 SLP127 T00780011=
202303310253 METAR KBFI 310253Z 21007KT 10SM OVC055 08/01 A2988 RMK AO2 SLP119 T00830011 53012=
202303310153 METAR KBFI 310153Z 23007KT 10SM BKN055 10/M01 A2987 RMK AO2 SLP113 T01001006=
202303310053 METAR KBFI 310053Z 20011G22KT 180V250 10SM BKN060 11/M01 A2986 RMK AO2 SLP110 T01111006=
202303302353 METAR KBFI 302353Z 20008KT 140V240 10SM BKN055 12/01 A2985 RMK AO2 SLP107 T01170006 10128 20083 55002=
202303302253 METAR KBFI 302253Z 22009G18KT 180V240 10SM BKN055 12/01 A2985 RMK AO2 SLP106 T01170006=
202303302153 METAR KBFI 302153Z 17012G19KT 10SM BKN047 11/02 A2985 RMK AO2 SLP107 T01110017=
202303302053 METAR KBFI 302053Z 20013G19KT 10SM BKN037 12/02 A2985 RMK AO2 SLP109 T01170022 51002=
202303301953 METAR KBFI 301953Z 21011KT 10SM OVC037 11/02 A2985 RMK AO2 SLP109 T01060022=
202303301853 METAR KBFI 301853Z 21008G17KT 10SM BKN030 BKN070 09/02 A2985 RMK AO2 SLP109 T00890022=
202303301840 SPECI KBFI 301840Z 17010G16KT 10SM OVC030 09/03 A2986 RMK AO2 T00940028=
202303301753 METAR KBFI 301753Z 19007KT 10SM OVC027 08/03 A2985 RMK AO2 SLP107 T00830033 10089 20061 51010=
202303301653 METAR KBFI 301653Z 18008G19KT 120V220 10SM BKN016 OVC020 08/03 A2984 RMK AO2 SLP105 T00780028=
202303301553 METAR KBFI 301553Z 20007KT 10SM OVC019 07/03 A2983 RMK AO2 SLP101 T00670028=
202303301453 METAR KBFI 301453Z 22007KT 10SM OVC017 07/03 A2982 RMK AO2 SLP097 T00670028 51009=
202303301353 METAR KBFI 301353Z 18007KT 10SM BKN016 07/03 A2981 RMK AO2 SLP093 T00670033=
202303301253 METAR KBFI 301253Z 17006KT 10SM OVC095 07/02 A2980 RMK AO2 SLP091 T00720022=
202303301153 METAR KBFI 301153Z 16007KT 10SM OVC095 08/02 A2979 RMK AO2 SLP087 T00780017 10089 20061 58005=
202303301053 METAR KBFI 301053Z 15006KT 10SM OVC090 07/02 A2980 RMK AO2 SLP090 T00720017=
202303300953 METAR KBFI 300953Z 14006KT 10SM BKN080 OVC090 07/01 A2980 RMK AO2 SLP091 T00720006=
202303300853 METAR KBFI 300853Z 15004KT 10SM BKN080 OVC090 07/00 A2980 RMK AO2 SLP092 T00720000 51005=
202303300753 METAR KBFI 300753Z 14004KT 10SM BKN085 07/M01 A2980 RMK AO2 SLP092 T00721011=
202303300653 METAR KBFI 300653Z 00000KT 10SM FEW095 07/M04 A2980 RMK AO2 SLP089 T00721039 401610039=
202303300553 METAR KBFI 300553Z 14003KT 10SM CLR 08/M03 A2979 RMK AO2 SLP088 T00781033 10156 20078 51009=
202303300453 METAR KBFI 300453Z 00000KT 10SM BKN075 11/M06 A2978 RMK AO2 SLP085 T01061056=
202303300353 METAR KBFI 300353Z 00000KT 10SM CLR 11/M06 A2978 RMK AO2 SLP082 T01111056=
202303300253 METAR KBFI 300253Z 00000KT 10SM FEW050 13/M07 A2976 RMK AO2 SLP079 T01281067 56003=
202303300153 METAR KBFI 300153Z 33004KT 10SM FEW060 14/M06 A2977 RMK AO2 SLP079 T01391061=
202303300053 METAR KBFI 300053Z 33006KT 10SM BKN250 15/M06 A2977 RMK AO2 SLP079 T01501056=
202303292353 METAR KBFI 292353Z 10SM CLR 16/M04 A2977 RMK AO2 SLP082 T01561044 10161 20111 56018=
202303292253 METAR KBFI 292253Z VRB03KT 10SM BKN090 16/M01 A2979 RMK AO2 SLP086 T01561006=
202303292153 METAR KBFI 292153Z VRB04KT 10SM BKN090 14/M01 A2981 RMK AO2 SLP094 T01441011=
202303292053 METAR KBFI 292053Z 30004KT 10SM OVC090 13/M01 A2983 RMK AO2 SLP100 T01331011 56003=
202303291953 METAR KBFI 291953Z 32008KT 10SM OVC085 13/M02 A2983 RMK AO2 SLP101 T01281017=
202303291853 METAR KBFI 291853Z 10SM OVC090 12/M02 A2983 RMK AO2 SLP102 T01221017=
202303291753 METAR KBFI 291753Z 36005KT 10SM BKN095 12/00 A2984 RMK AO2 SLP103 T01170000 10122 20039 58003=
202303291653 METAR KBFI 291653Z 05004KT 10SM BKN095 11/01 A2984 RMK AO2 SLP103 T01110011=
202303291553 METAR KBFI 291553Z VRB03KT 10SM BKN090 OVC100 08/01 A2985 RMK AO2 SLP107 T00780011=
202303291453 METAR KBFI 291453Z 00000KT 10SM SCT040 BKN080 BKN200 04/00 A2985 RMK AO2 SLP106 T00440000 53015=
202303291353 METAR KBFI 291353Z 00000KT 10SM CLR 05/M01 A2983 RMK AO2 SLP100 T00501006=
202303291253 METAR KBFI 291253Z 00000KT 10SM CLR 04/M01 A2981 RMK AO2 SLP094 T00441006=
202303291153 METAR KBFI 291153Z 00000KT 10SM CLR 04/M01 A2980 RMK AO2 SLP091 7//// T00441006 10111 20044 55005=
202303291053 METAR KBFI 291053Z 00000KT 10SM CLR 06/M01 A2980 RMK AO2 SLP090 T00561006=
202303290953 METAR KBFI 290953Z 00000KT 10SM CLR 07/M01 A2981 RMK AO2 SLP094 T00721006=
202303290853 METAR KBFI 290853Z 00000KT 10SM BKN110 09/M01 A2982 RMK AO2 SLP096 T00891006 56003=
202303290753 METAR KBFI 290753Z 08003KT 10SM BKN100 10/M01 A2982 RMK AO2 SLP098 T01001006=
202303290653 METAR KBFI 290653Z 08003KT 10SM OVC100 11/M01 A2982 RMK AO2 SLP098 T01061011 401560078=
202303290553 METAR KBFI 290553Z 15005KT 10SM FEW075 OVC095 10/M01 A2983 RMK AO2 SLP100 T01001011 10144 20100 51009=
202303290453 METAR KBFI 290453Z 13010KT 10SM OVC065 13/M03 A2983 RMK AO2 SLP099 T01281028=
202303290353 METAR KBFI 290353Z 00000KT 10SM OVC090 13/M03 A2981 RMK AO2 SLP095 T01281033=
202303290253 METAR KBFI 290253Z 00000KT 10SM BKN080 OVC100 13/M03 A2980 RMK AO2 SLP091 T01281033 51012=
202303290153 METAR KBFI 290153Z 00000KT 10SM OVC095 13/M04 A2979 RMK AO2 SLP088 T01331039=
202303290053 METAR KBFI 290053Z 02004KT 10SM BKN090 14/M04 A2978 RMK AO2 SLP085 T01391039=
202303282353 METAR KBFI 282353Z 05004KT 10SM BKN110 14/M06 A2977 RMK AO2 SLP079 T01441056 10156 20122 58002=
202303282253 METAR KBFI 282253Z 14007KT 10SM SCT110 14/M04 A2977 RMK AO2 SLP081 T01391044=
202303282153 METAR KBFI 282153Z 15009KT 10SM FEW030 SCT120 BKN220 14/M04 A2977 RMK AO2 SLP081 T01441044=
202303282053 METAR KBFI 282053Z 00000KT 10SM CLR 15/M06 A2977 RMK AO2 SLP081 T01501056 56015=
202303281953 METAR KBFI 281953Z VRB06KT 10SM CLR 14/M06 A2979 RMK AO2 SLP086 T01441056 $=
202303281853 METAR KBFI 281853Z 35006KT 10SM BKN160 BKN200 13/M04 A2980 RMK AO2 SLP091 T01331044 $=
202303281753 METAR KBFI 281753Z 06004KT 10SM BKN160 BKN200 13/M03 A2982 RMK AO2 SLP096 6//// T01281033 10128 20078 56010 $=
202303281653 METAR KBFI 281653Z 03004KT 10SM CLR 11/M03 A2982 RMK AO2 SLP098 T01111033 PNO $=
202303281553 METAR KBFI 281553Z 05005KT 10SM CLR 10/M03 A2982 RMK AO2 SLP097 T01001033=
202303281453 METAR KBFI 281453Z 02003KT 10SM BKN110 BKN200 08/M03 A2985 RMK AO2 SLP107 T00831033 58002=
202303281353 METAR KBFI 281353Z 00000KT 10SM BKN110 BKN200 08/M04 A2986 RMK AO2 SLP110 T00831039=
202303281253 METAR KBFI 281253Z 06004KT 10SM OVC100 09/M04 A2986 RMK AO2 SLP110 T00891039=
202303281153 METAR KBFI 281153Z 02004KT 10SM OVC100 10/M06 A2985 RMK AO2 SLP109 T01001056 10111 20089 58016=
202303281053 METAR KBFI 281053Z 05006KT 10SM OVC110 10/M05 A2988 RMK AO2 SLP116 T01001050=
202303280953 METAR KBFI 280953Z 09005KT 10SM OVC110 11/M07 A2989 RMK AO2 SLP121 T01111067=
202303280853 METAR KBFI 280853Z 02004KT 10SM CLR 09/M04 A2990 RMK AO2 SLP124 T00891039 58021=
202303280753 METAR KBFI 280753Z 04006KT 10SM CLR 09/M06 A2992 RMK AO2 SLP133 T00891056=
202303280653 METAR KBFI 280653Z 04008KT 10SM CLR 09/M07 A2994 RMK AO2 SLP139 T00941067 401500000=
202303280553 METAR KBFI 280553Z 03004KT 10SM CLR 09/M06 A2996 RMK AO2 SLP145 T00941056 10150 20089 56021=
202303280453 METAR KBFI 280453Z VRB03KT 10SM CLR 10/M05 A2998 RMK AO2 SLP152 T01001050=
202303280353 METAR KBFI 280353Z 06004KT 10SM CLR 11/M06 A3000 RMK AO2 SLP159 T01061061=
202303280253 METAR KBFI 280253Z 10009G15KT 10SM FEW110 12/M06 A3002 RMK AO2 SLP166 T01171061 58012=
202303280153 METAR KBFI 280153Z 10007KT 10SM BKN110 BKN200 13/M06 A3004 RMK AO2 SLP171 T01281056=
202303280053 METAR KBFI 280053Z 10007KT 10SM BKN095 14/M06 A3005 RMK AO2 SLP175 T01391061=
202303272353 METAR KBFI 272353Z 13009G17KT 10SM SCT100 BKN120 14/M06 A3006 RMK AO2 SLP178 T01441061 10150 20072 56031=
202303272253 METAR KBFI 272253Z 12008KT 10SM BKN100 14/M06 A3009 RMK AO2 SLP188 T01391061=
202303272153 METAR KBFI 272153Z 32008KT 10SM CLR 13/02 A3012 RMK AO2 SLP198 T01280017=
202303272053 METAR KBFI 272053Z 33008KT 10SM BKN045 BKN200 13/00 A3015 RMK AO2 SLP210 T01280000 58030=
202303271953 METAR KBFI 271953Z 35006KT 10SM CLR 12/M01 A3020 RMK AO2 SLP224 T01171006=
202303271853 METAR KBFI 271853Z VRB04KT 10SM CLR 09/M01 A3022 RMK AO2 SLP234 T00941006=
202303271753 METAR KBFI 271753Z 34006KT 10SM CLR 08/01 A3024 RMK AO2 SLP240 T00780006 10078 20000 57015=
202303271653 METAR KBFI 271653Z VRB03KT 10SM CLR 06/01 A3026 RMK AO2 SLP245 T00560006=
202303271553 METAR KBFI 271553Z 00000KT 10SM FEW005 04/01 A3027 RMK AO2 SLP250 T00390011=
202303271500 SPECI KBFI 271500Z 00000KT 10SM FEW006 01/00 A3029 RMK AO2 T00110000=
202303271453 METAR KBFI 271453Z 00000KT 10SM CLR 01/M01 A3029 RMK AO2 SLP255 T00111006 56010=
202303271353 METAR KBFI 271353Z 00000KT 7SM CLR 01/M01 A3029 RMK AO2 SLP257 T00111006 $=
202303271253 METAR KBFI 271253Z 00000KT 10SM CLR 01/M01 A3031 RMK AO2 SLP261 T00111006=
202303271153 METAR KBFI 271153Z 00000KT 10SM CLR 01/M01 A3032 RMK AO2 SLP265 T00061006 10039 20000 58006=
202303271053 METAR KBFI 271053Z 15004KT 10SM CLR 01/M01 A3033 RMK AO2 SLP269 T00061011=
202303270953 METAR KBFI 270953Z 00000KT 10SM CLR 02/00 A3033 RMK AO2 SLP271 T00170000=
202303270853 METAR KBFI 270853Z 00000KT 10SM FEW048 03/00 A3033 RMK AO2 SLP271 T00280000 51002=
202303270753 METAR KBFI 270753Z 11003KT 10SM CLR 03/01 A3033 RMK AO2 SLP271 T00330006=
202303270653 METAR KBFI 270653Z 10004KT 10SM CLR 04/01 A3033 RMK AO2 SLP271 T00390006 401000028=
202303270553 METAR KBFI 270553Z 15007KT 10SM CLR 03/01 A3033 RMK AO2 SLP269 T00330006 10100 20033 51010=
202303270453 METAR KBFI 270453Z 15008KT 10SM CLR 04/01 A3032 RMK AO2 SLP268 T00440006=
202303270353 METAR KBFI 270353Z 17007KT 10SM CLR 06/02 A3031 RMK AO2 SLP264 T00560017=
202303270253 METAR KBFI 270253Z 17010KT 10SM CLR 06/01 A3030 RMK AO2 SLP260 T00610011 53006=
202303270153 METAR KBFI 270153Z 20006G15KT 10SM BKN037 08/02 A3029 RMK AO2 SLP257 T00780017=
202303270053 METAR KBFI 270053Z 18010G14KT 110V200 10SM CLR 09/01 A3028 RMK AO2 SLP254 T00940006=
202303262353 METAR KBFI 262353Z VRB06KT 10SM BKN044 10/02 A3028 RMK AO2 SLP253 T01000017 10100 20061 56007=
202303262253 METAR KBFI 262253Z 19009KT 10SM SCT040 10/01 A3028 RMK AO2 SLP254 T01000006=
202303262153 METAR KBFI 262153Z 22006KT 10SM SCT040 09/01 A3029 RMK AO2 SLP255 T00940011=
202303262053 METAR KBFI 262053Z 20006KT 10SM FEW036 BKN060 08/02 A3030 RMK AO2 SLP261 T00830017 56004=
202303261953 METAR KBFI 261953Z AUTO 20007KT 10SM BKN035 09/02 A3030 RMK AO2 SLP261 T00940022=
202303261853 METAR KBFI 261853Z 21006KT 10SM 08/01 A3031 RMK AO2 SLP263 T00780006 $=
202303261753 METAR KBFI 261753Z 23004KT 10SM SCT026 SCT036 BKN055 06/01 A3031 RMK AO2 SLP265 T00610011 10067 20028 53005=
202303261653 METAR KBFI 261653Z 00000KT 10SM FEW026 SCT036 OVC055 06/01 A3031 RMK AO2 SLP262 T00560011=
202303261553 METAR KBFI 261553Z 00000KT 10SM FEW015 BKN045 04/01 A3030 RMK AO2 SLP261 T00440011=
202303261453 METAR KBFI 261453Z 12003KT 10SM BKN039 OVC048 04/01 A3030 RMK AO2 SLP259 T00390006 53003=
202303261353 METAR KBFI 261353Z 15005KT 10SM SCT016 OVC037 03/01 A3029 RMK AO2 SLP256 T00330006=
202303261253 METAR KBFI 261253Z 15006KT 10SM OVC035 03/01 A3029 RMK AO2 SLP257 T00330011=
202303261153 METAR KBFI 261153Z 15006KT 10SM BKN017 BKN026 03/01 A3029 RMK AO2 SLP257 T00330006 10050 20028 53005=
202303261053 METAR KBFI 261053Z 17009KT 10SM OVC016 04/01 A3028 RMK AO2 SLP252 T00390011=
202303260953 METAR KBFI 260953Z 17009KT 10SM OVC027 04/01 A3028 RMK AO2 SLP252 T00440011=
202303260938 SPECI KBFI 260938Z 18007KT 10SM OVC029 04/01 A3028 RMK AO2 T00440011=
202303260903 SPECI KBFI 260903Z 18004KT 10SM BKN030 OVC040 04/01 A3028 RMK AO2 T00440011=
202303260853 METAR KBFI 260853Z 18007KT 10SM OVC029 04/02 A3028 RMK AO2 SLP252 T00440017 53004=
202303260824 SPECI KBFI 260824Z 17007KT 10SM OVC029 04/02 A3028 RMK AO2 T00440017=
202303260753 METAR KBFI 260753Z 17006KT 10SM OVC032 05/02 A3027 RMK AO2 SLP251 T00500017=
202303260713 SPECI KBFI 260713Z 14005KT 10SM OVC031 04/01 A3027 RMK AO2 T00440011=
202303260653 METAR KBFI 260653Z 15007KT 10SM OVC029 04/01 A3027 RMK AO2 SLP249 T00390011 400940028=
202303260614 SPECI KBFI 260614Z 15008KT 10SM BKN025 04/01 A3027 RMK AO2 T00440011=
202303260553 METAR KBFI 260553Z 15009KT 10SM CLR 04/01 A3027 RMK AO2 SLP248 T00390006 10089 20039 51011=
202303260453 METAR KBFI 260453Z 17005KT 10SM CLR 05/01 A3026 RMK AO2 SLP246 T00500011=
202303260353 METAR KBFI 260353Z 19003KT 10SM CLR 06/01 A3025 RMK AO2 SLP242 T00560006=
202303260253 METAR KBFI 260253Z 23003KT 10SM CLR 07/M02 A3023 RMK AO2 SLP237 T00671017 55001=
202303260153 METAR KBFI 260153Z 00000KT 10SM FEW035 08/M06 A3023 RMK AO2 SLP235 T00831056=
202303260053 METAR KBFI 260053Z 20005KT 10SM CLR 08/M03 A3023 RMK AO2 SLP237 T00831028=
202303252353 METAR KBFI 252353Z 22006KT 10SM FEW050 09/M02 A3024 RMK AO2 SLP238 T00891022 10094 20044 56012=
202303252253 METAR KBFI 252253Z 19008KT 10SM BKN046 09/M02 A3025 RMK AO2 SLP241 T00891022=
202303252153 METAR KBFI 252153Z 23009KT 180V280 10SM SCT043 09/M01 A3026 RMK AO2 SLP245 T00891011=
202303252053 METAR KBFI 252053Z VRB06KT 10SM SCT040 08/01 A3027 RMK AO2 SLP250 T00830006 58008=
202303252000 SPECI KBFI 252000Z VRB06G14KT 10SM SCT032 07/00 A3028 RMK AO2 T00670000=
202303251953 METAR KBFI 251953Z AUTO 25008KT 10SM BKN026 07/01 A3028 RMK AO2 SLP254 T00720006=
202303251900 SPECI KBFI 251900Z 23005KT 10SM BKN026 06/01 A3029 RMK AO2 T00560006=
202303251853 METAR KBFI 251853Z 26008KT 10SM SCT026 06/01 A3029 RMK AO2 SLP257 T00610006=
202303251839 SPECI KBFI 251839Z 21008KT 10SM SCT024 06/01 A3029 RMK AO2 T00560006=
202303251753 METAR KBFI 251753Z 17009KT 10SM OVC021 04/01 A3029 RMK AO2 SLP258 T00440006 10044 20028 51005=
202303251653 METAR KBFI 251653Z 20005KT 10SM BKN016 OVC025 04/01 A3029 RMK AO2 SLP256 T00390006=
202303251553 METAR KBFI 251553Z 20006KT 10SM OVC015 03/01 A3029 RMK AO2 SLP255 T00330006=
202303251506 SPECI KBFI 251506Z 17005KT 10SM OVC013 03/00 A3028 RMK AO2 T00280000=
202303251453 METAR KBFI 251453Z 20004KT 10SM OVC015 03/01 A3028 RMK AO2 SLP252 T00280006 53009=
202303251353 METAR KBFI 251353Z 16008KT 10SM OVC015 03/00 A3027 RMK AO2 SLP248 T00280000=
202303251253 METAR KBFI 251253Z 16009KT 10SM OVC020 03/00 A3026 RMK AO2 SLP245 T00280000=
202303251153 METAR KBFI 251153Z 17006KT 10SM OVC023 03/01 A3025 RMK AO2 SLP243 70004 T00280006 10044 20028 53002=
202303251053 METAR KBFI 251053Z 17006KT 10SM OVC023 03/01 A3024 RMK AO2 SLP241 T00330006=
202303250953 METAR KBFI 250953Z 16007KT 10SM BKN024 OVC031 03/01 A3025 RMK AO2 SLP243 T00330006=
202303250853 METAR KBFI 250853Z 17008KT 10SM OVC031 03/01 A3025 RMK AO2 SLP241 T00330006 50004=
202303250815 SPECI KBFI 250815Z 17007KT 10SM OVC032 04/01 A3025 RMK AO2 T00390006=
202303250753 METAR KBFI 250753Z 16009KT 10SM FEW019 OVC029 04/01 A3025 RMK AO2 SLP242 T00390011=
202303250653 METAR KBFI 250653Z 17005KT 10SM OVC022 04/01 A3024 RMK AO2 SLP239 T00440011 400890033=
202303250608 SPECI KBFI 250608Z 16006KT 10SM BKN024 BKN060 04/01 A3023 RMK AO2 T00440006=
202303250553 METAR KBFI 250553Z 15005KT 10SM FEW022 SCT047 BKN060 04/01 A3023 RMK AO2 RAE10 SLP237 P0000 60004 T00440006 10067 20044 53018=
202303250453 METAR KBFI 250453Z 20011G19KT 7SM -RA OVC037 05/02 A3021 RMK AO2 RAB36 SLP230 P0001 T00500017=
202303250353 METAR KBFI 250353Z VRB04KT 10SM BKN030 OVC044 05/02 A3019 RMK AO2 RAE39 SLP224 P0001 T00500022=
202303250330 SPECI KBFI 250330Z 19007KT 10SM -RA FEW022 OVC032 05/02 A3019 RMK AO2 P0001 T00500022=
202303250253 METAR KBFI 250253Z 00000KT 10SM -RA BKN024 OVC030 05/03 A3018 RMK AO2 SLP218 P0001 60002 T00500028 53006=
202303250233 SPECI KBFI 250233Z 00000KT 10SM -RA BKN027 OVC034 05/02 A3017 RMK AO2 P0001 T00500022=
202303250219 SPECI KBFI 250219Z 00000KT 9SM -RA FEW022 BKN030 OVC035 05/02 A3017 RMK AO2 P0001 T00500022=
202303250153 METAR KBFI 250153Z 31005KT 10SM -RA BKN018 BKN100 05/02 A3016 RMK AO2 RAB02 SLP213 P0001 T00500022=
202303250053 METAR KBFI 250053Z 17011G16KT 10SM BKN018 BKN100 07/02 A3016 RMK AO2 SLP211 T00670017=
202303242353 METAR KBFI 242353Z 17013G20KT 10SM BKN025 BKN100 07/02 A3016 RMK AO2 PK WND 20028/2257 SLP212 T00670017 10089 20050 53002=
202303242253 METAR KBFI 242253Z 18015G26KT 10SM BKN025 BKN100 07/02 A3015 RMK AO2 PK WND 16026/2250 SLP209 T00720017=
202303242153 METAR KBFI 242153Z 20009G23KT 160V240 10SM BKN021 BKN036 08/02 A3015 RMK AO2 PK WND 18026/2115 SLP208 T00830017=
202303242053 METAR KBFI 242053Z 18012G19KT 10SM BKN021 BKN110 08/02 A3015 RMK AO2 SLP210 T00830017 58002=
202303241953 METAR KBFI 241953Z 20011G25KT 10SM BKN021 BKN100 07/01 A3015 RMK AO2 SLP210 T00670011=
202303241853 METAR KBFI 241853Z 19012G19KT 10SM BKN026 OVC032 06/01 A3016 RMK AO2 SLP214 T00610011=
202303241753 METAR KBFI 241753Z 20011G17KT 10SM OVC021 05/01 A3016 RMK AO2 SLP212 60000 T00500011 10056 20033 53018=
202303241653 METAR KBFI 241653Z 19012G16KT 10SM SCT017 BKN019 04/01 A3014 RMK AO2 SLP205 T00440011=
202303241553 METAR KBFI 241553Z 17008KT 10SM SCT013 BKN015 BKN017 04/01 A3012 RMK AO2 RAB1456E18 SLP200 P0000 T00390011=
202303241453 METAR KBFI 241453Z 17011G17KT 10SM BKN012 OVC017 04/01 A3011 RMK AO2 SLP194 T00390011 53011=
202303241403 SPECI KBFI 241403Z VRB06KT 10SM OVC014 04/01 A3009 RMK AO2 T00390011=
202303241353 METAR KBFI 241353Z 19010G16KT 10SM BKN015 OVC022 04/01 A3009 RMK AO2 SLP189 T00390011=
202303241253 METAR KBFI 241253Z 18008KT 10SM BKN015 OVC022 04/02 A3008 RMK AO2 SLP186 T00390017=
202303241153 METAR KBFI 241153Z 17007KT 10SM BKN015 OVC022 03/02 A3007 RMK AO2 SLP183 70004 T00330017 10044 20033 55004=
202303241145 SPECI KBFI 241145Z 18006G16KT 8SM BKN013 OVC022 03/01 A3007 RMK AO2 T00330011=
202303241124 SPECI KBFI 241124Z 18009G21KT 10SM BKN015 BKN075 OVC100 04/01 A3007 RMK AO2 T00390011=
202303241053 METAR KBFI 241053Z 19011G21KT 10SM SCT016 BKN048 OVC070 04/01 A3007 RMK AO2 SLP183 T00390011=
202303240953 METAR KBFI 240953Z 19009G17KT 10SM OVC016 04/01 A3008 RMK AO2 SLP185 T00390011=
202303240853 METAR KBFI 240853Z 19009G18KT 10SM BKN020 OVC025 04/01 A3009 RMK AO2 SLP188 T00440011 53009=
202303240753 METAR KBFI 240753Z 17010G20KT 10SM BKN025 04/01 A3008 RMK AO2 SLP184 T00390006=
202303240653 METAR KBFI 240653Z 18008KT 10SM BKN024 04/01 A3006 RMK AO2 SLP179 T00390006 401060039=
202303240553 METAR KBFI 240553Z 17014G19KT 10SM BKN025 04/01 A3006 RMK AO2 SLP179 60001 T00390011 10078 20039 51023=
202303240453 METAR KBFI 240453Z 18014G21KT 10SM BKN025 04/01 A3005 RMK AO2 SLP175 T00440011=
202303240353 METAR KBFI 240353Z 20016G31KT 10SM BKN025 05/01 A3002 RMK AO2 PK WND 20034/0310 SLP164 T00500011=
202303240303 SPECI KBFI 240303Z 19015G26KT 10SM BKN025 05/02 A3000 RMK AO2 PK WND 18026/0300 T00500017=
202303240253 METAR KBFI 240253Z AUTO 20015G26KT 10SM SCT120 05/01 A2999 RMK AO2 PK WND 18029/0230 SLP156 60001 T00500011 51020=
202303240219 SPECI KBFI 240219Z 19012G29KT 10SM FEW025 05/01 A2999 RMK AO2 PK WND 20029/0211 T00500011=
202303240153 METAR KBFI 240153Z 20013G28KT 10SM BKN015 BKN022 06/02 A2998 RMK AO2 PK WND 19028/0152 SLP150 T00560017=
202303240053 METAR KBFI 240053Z 17014G31KT 10SM SCT019 BKN035 07/03 A2995 RMK AO2 PK WND 19031/0049 RAE37 SLP143 P0001 T00670033=
202303232353 METAR KBFI 232353Z 18014G26KT 10SM -RA OVC035 08/02 A2994 RMK AO2 PK WND 20026/2345 RAB27 SLP137 P0000 60003 T00780022 10106 20061 53009=
202303232300 SPECI KBFI 232300Z 18009G19KT 10SM FEW025 BKN038 OVC049 08/02 A2993 RMK AO2 T00780022=
202303232253 METAR KBFI 232253Z 17011G20KT 10SM BKN022 BKN075 BKN090 07/03 A2993 RMK AO2 SLP135 T00720028=
202303232153 METAR KBFI 232153Z 19011G20KT 10SM BKN022 BKN036 OVC043 07/03 A2991 RMK AO2 RAE16 SLP127 P0001 T00670033=
202303232053 METAR KBFI 232053Z 23012G23KT 7SM -RA BKN017 BKN036 OVC043 06/03 A2991 RMK AO2 WSHFT 2027 RAB05E18B34 SLP127 P0002 60002 T00610033 55002=
202303232042 SPECI KBFI 232042Z 24013G24KT 3SM -RA SCT028 BKN036 OVC043 06/03 A2990 RMK AO2 WSHFT 2027 RAB05E18B34 P0001 T00610033=
202303231953 METAR KBFI 231953Z 18009KT 10SM OVC040 09/03 A2989 RMK AO2 RAB1857E43 SLP120 P0000 T00940033=
202303231853 METAR KBFI 231853Z 19009KT 10SM SCT025 BKN040 OVC070 09/03 A2990 RMK AO2 SLP125 T00940028=
202303231753 METAR KBFI 231753Z 19012G21KT 10SM SCT027 BKN032 BKN060 09/03 A2991 RMK AO2 RAB17E28 SLP129 P0000 60000 T00940033 10094 20067 58008=
202303231700 SPECI KBFI 231700Z 17010KT 10SM SCT025 OVC036 08/04 A2993 RMK AO2 T00830039=
202303231653 METAR KBFI 231653Z 17012KT 10SM BKN017 BKN034 BKN044 08/04 A2993 RMK AO2 SLP134 T00830039=
202303231553 METAR KBFI 231553Z 17008KT 10SM BKN017 BKN034 BKN044 07/04 A2993 RMK AO2 RAB40E49 SLP136 P0000 T00720044=
202303231453 METAR KBFI 231453Z VRB05KT 10SM BKN017 BKN021 BKN037 07/03 A2994 RMK AO2 SLP137 T00720033 51005=
202303231353 METAR KBFI 231353Z 19008G16KT 10SM FEW025 BKN045 OVC070 07/04 A2993 RMK AO2 SLP136 T00720039=
202303231253 METAR KBFI 231253Z 20006KT 10SM FEW025 BKN045 BKN070 07/04 A2992 RMK AO2 SLP133 T00720039=
202303231153 METAR KBFI 231153Z 19008KT 10SM SCT045 BKN065 BKN100 07/04 A2992 RMK AO2 SLP131 60000 T00720039 10089 20072 52004=
202303231053 METAR KBFI 231053Z 19007KT 10SM BKN085 BKN100 08/04 A2991 RMK AO2 SLP129 T00780039=
202303230953 METAR KBFI 230953Z 19008G20KT 10SM FEW060 OVC080 08/04 A2991 RMK AO2 RAB32E41 SLP129 P0000 T00780039=
202303230853 METAR KBFI 230853Z 16010G17KT 10SM BKN017 OVC022 08/04 A2991 RMK AO2 SLP127 T00780039 50005=
202303230753 METAR KBFI 230753Z 18007G21KT 130V210 10SM OVC019 08/04 A2991 RMK AO2 SLP128 T00830039=
202303230653 METAR KBFI 230653Z 19010G19KT 10SM BKN020 BKN095 08/04 A2989 RMK AO2 SLP123 T00830044 401670033=
202303230649 SPECI KBFI 230649Z 17012G17KT 10SM BKN020 BKN095 08/04 A2989 RMK AO2=
202303230553 METAR KBFI 230553Z 21008G17KT 10SM BKN110 09/05 A2988 RMK AO2 SLP118 T00890050 10167 20089 53031=
202303230453 METAR KBFI 230453Z 19005KT 10SM OVC085 12/04 A2984 RMK AO2 SLP105 T01170044=
202303230353 METAR KBFI 230353Z 33004KT 10SM BKN080 OVC110 12/04 A2981 RMK AO2 SLP095 T01220044=
202303230253 METAR KBFI 230253Z 34006KT 10SM BKN100 13/04 A2979 RMK AO2 SLP087 T01280039 53004=
202303230153 METAR KBFI 230153Z 21004KT 10SM SCT110 16/02 A2978 RMK AO2 SLP083 T01560017=
202303230053 METAR KBFI 230053Z 21005KT 10SM FEW050 16/04 A2977 RMK AO2 SLP082 T01610044=
202303222353 METAR KBFI 222353Z VRB03KT 10SM CLR 17/02 A2978 RMK AO2 SLP083 T01670022 10167 20100 56008=
202303222253 METAR KBFI 222253Z 00000KT 10SM CLR 16/03 A2978 RMK AO2 SLP084 T01610033=
202303222153 METAR KBFI 222153Z 34005KT 10SM CLR 15/05 A2979 RMK AO2 SLP087 T01500050=
202303222053 METAR KBFI 222053Z 30005KT 10SM CLR 14/05 A2980 RMK AO2 SLP091 T01390050 57008=
202303221953 METAR KBFI 221953Z 32005KT 10SM CLR 12/06 A2981 RMK AO2 SLP095 T01170056=
202303221853 METAR KBFI 221853Z 29006KT 10SM CLR 11/05 A2982 RMK AO2 SLP096 T01110050=
202303221753 METAR KBFI 221753Z 00000KT 10SM SCT004 BKN100 09/04 A2983 RMK AO2 SLP099 T00940039 10100 20033 51006=
202303221653 METAR KBFI 221653Z 00000KT 10SM SCT004 BKN100 07/05 A2982 RMK AO2 SLP098 T00670050=
202303221639 SPECI KBFI 221639Z 15003KT 10SM SCT004 BKN100 06/04 A2982 RMK AO2 T00610044=
202303221553 METAR KBFI 221553Z 16003KT 3SM BR OVC003 05/04 A2982 RMK AO2 SLP096 T00500044=
202303221453 METAR KBFI 221453Z 15003KT 1/4SM BR OVC003 04/04 A2981 RMK AO2 SLP093 T00390039 53009=
202303221430 SPECI KBFI 221430Z 16004KT 1/4SM BR OVC003 03/03 A2980 RMK AO2 T00330028=
202303221400 SPECI KBFI 221400Z 07004KT 2SM BR OVC003 05/04 A2980 RMK AO2 T00500044=
202303221353 METAR KBFI 221353Z 00000KT 3SM BR BKN005 05/04 A2980 RMK AO2 SLP090 BCFG SE T00500044=
202303221253 METAR KBFI 221253Z 00000KT 6SM BR BKN005 03/02 A2979 RMK AO2 SLP086 BCFG SE T00330022 $=
202303221153 METAR KBFI 221153Z 14003KT 10SM SCT010 04/03 A2978 RMK AO2 SLP084 T00390033 10083 20039 51004=
202303221053 METAR KBFI 221053Z 00000KT 10SM SCT018 OVC050 07/06 A2978 RMK AO2 SLP083 T00720056=
202303220953 METAR KBFI 220953Z 04003KT 10SM OVC018 07/05 A2978 RMK AO2 SLP082 T00720050=
202303220929 SPECI KBFI 220929Z VRB03KT 10SM BKN019 07/05 A2977 RMK AO2 T00720050=
202303220853 METAR KBFI 220853Z 06003KT 10SM FEW020 07/05 A2977 RMK AO2 SLP080 T00720050 55000=
202303220753 METAR KBFI 220753Z VRB03KT 10SM CLR 08/05 A2976 RMK AO2 SLP079 T00780050=
202303220653 METAR KBFI 220653Z 35003KT 10SM CLR 08/06 A2976 RMK AO2 SLP079 T00830056 401330067=
202303220553 METAR KBFI 220553Z 00000KT 10SM CLR 08/06 A2977 RMK AO2 SLP080 T00830056 10122 20083 53010=
202303220453 METAR KBFI 220453Z 36003KT 10SM CLR 09/06 A2976 RMK AO2 SLP077 T00890056=
202303220353 METAR KBFI 220353Z VRB04KT 10SM CLR 10/06 A2975 RMK AO2 SLP074 T01000056=
202303220253 METAR KBFI 220253Z 31006KT 10SM FEW050 SCT200 10/06 A2974 RMK AO2 SLP071 T01000061 53000=
202303220153 METAR KBFI 220153Z 30007KT 10SM CLR 11/06 A2973 RMK AO2 SLP068 T01060061=
202303220053 METAR KBFI 220053Z 32008G18KT 10SM CLR 12/07 A2973 RMK AO2 SLP067 T01170067=
202303212353 METAR KBFI 212353Z 31010G19KT 10SM FEW030 SCT200 12/07 A2974 RMK AO2 SLP070 T01220067 10133 20094 56019=
202303212253 METAR KBFI 212253Z 31008G17KT 10SM FEW030 SCT250 13/06 A2975 RMK AO2 SLP073 T01280061=
202303212153 METAR KBFI 212153Z VRB06KT 10SM SCT023 13/06 A2977 RMK AO2 SLP079 T01330061=
202303212100 SPECI KBFI 212100Z 05007KT 10SM SCT023 13/06 A2979 RMK AO2 T01280056=
202303212053 METAR KBFI 212053Z VRB05KT 10SM BKN023 12/06 A2980 RMK AO2 SLP089 T01220056 58018=
202303211953 METAR KBFI 211953Z 10SM BKN023 11/06 A2982 RMK AO2 SLP097 T01110056=
202303211853 METAR KBFI 211853Z 04007KT 10SM OVC021 10/06 A2984 RMK AO2 SLP103 T01000056=
202303211753 METAR KBFI 211753Z 04005KT 10SM OVC016 10/06 A2985 RMK AO2 SLP108 T01000061 10100 20067 50000=
202303211653 METAR KBFI 211653Z 34004KT 3SM BR FEW008 BKN010 OVC025 08/07 A2986 RMK AO2 SLP109 T00830067=
202303211647 SPECI KBFI 211647Z VRB03KT 3SM BR FEW008 BKN010 OVC025 08/07 A2986 RMK AO2=
202303211636 SPECI KBFI 211636Z VRB04KT 2 1/2SM BR BKN008 OVC018 08/07 A2986 RMK AO2 VIS 1 1/2V4 T00780067 $=
202303211553 METAR KBFI 211553Z 10SM SCT015 OVC039 08/06 A2986 RMK AO2 SLP109 T00830056 $=
202303211453 METAR KBFI 211453Z 00000KT 10SM SCT010 BKN030 08/04 A2985 RMK AO2 SLP108 T00780044 58002=
202303211353 METAR KBFI 211353Z 22003KT 10SM OVC023 07/04 A2985 RMK AO2 SLP109 T00720044=
202303211253 METAR KBFI 211253Z 21003KT 10SM OVC015 07/04 A2986 RMK AO2 SLP111 T00720044=
202303211153 METAR KBFI 211153Z 00000KT 10SM OVC015 08/05 A2986 RMK AO2 SLP110 T00780050 10094 20078 50000=
202303211053 METAR KBFI 211053Z 18007KT 10SM BKN018 OVC037 08/05 A2986 RMK AO2 SLP110 T00780050=
202303210953 METAR KBFI 210953Z 19006KT 10SM OVC016 08/05 A2986 RMK AO2 SLP111 T00830050=
202303210853 METAR KBFI 210853Z 20006KT 10SM OVC017 08/06 A2986 RMK AO2 SLP109 T00830056 53010=
202303210824 SPECI KBFI 210824Z 19003KT 10SM BKN014 OVC021 08/06 A2985 RMK AO2 T00830061=
202303210753 METAR KBFI 210753Z 19006KT 10SM OVC018 09/06 A2984 RMK AO2 SLP104 T00890061=
202303210736 SPECI KBFI 210736Z 21004KT 10SM BKN020 OVC037 08/06 A2984 RMK AO2 T00830061=
202303210653 METAR KBFI 210653Z 17006KT 10SM FEW024 SCT030 OVC036 09/06 A2984 RMK AO2 SLP103 T00890056 401330083=
202303210646 SPECI KBFI 210646Z 19007KT 10SM SCT024 BKN030 OVC036 09/06 A2983 RMK AO2 T00890056=
202303210553 METAR KBFI 210553Z 21005KT 10SM BKN020 BKN032 OVC065 09/06 A2983 RMK AO2 SLP100 T00940056 10128 20094 51016=
202303210453 METAR KBFI 210453Z 19003KT 10SM SCT027 OVC050 10/05 A2981 RMK AO2 SLP095 T01000050=
202303210353 METAR KBFI 210353Z 10SM OVC060 10/06 A2979 RMK AO2 SLP089 T01000056=
202303210253 METAR KBFI 210253Z 23005KT 10SM BKN048 BKN055 10/06 A2978 RMK AO2 SLP084 T01000056 53014=
202303210153 METAR KBFI 210153Z 23007KT 10SM FEW030 OVC070 11/06 A2976 RMK AO2 SLP077 T01110061=
202303210053 METAR KBFI 210053Z 21007KT 10SM SCT025 BKN035 BKN060 12/06 A2975 RMK AO2 SLP073 T01170061=
202303210000 METAR KBFI 182353Z 30004KT 10SM CLR 18/M01 A2993 RMK AO2 SLP136 T01781011 10178 20111 56019=
202303202353 METAR KBFI 202353Z 22006G15KT 10SM BKN025 BKN060 12/07 A2974 RMK AO2 SLP070 T01220067 10133 20094 53003=
202303202303 SPECI KBFI 202303Z 22008G15KT 10SM BKN025 BKN070 13/07 A2974 RMK AO2 T01330072=
202303202253 METAR KBFI 202253Z 23007G19KT 10SM BKN030 BKN065 13/07 A2974 RMK AO2 SLP069 T01280067=
202303202153 METAR KBFI 202153Z 22007G15KT 180V250 10SM SCT020 BKN045 13/07 A2973 RMK AO2 SLP067 T01280072=
202303202053 METAR KBFI 202053Z VRB05KT 10SM SCT020 BKN026 OVC042 11/07 A2973 RMK AO2 SLP067 T01060072 50003=
202303201953 METAR KBFI 201953Z 19007KT 170V230 10SM SCT015 OVC034 11/08 A2973 RMK AO2 SLP066 T01110078=
202303201853 METAR KBFI 201853Z 20006KT 10SM SCT015 OVC035 11/08 A2972 RMK AO2 SLP065 T01060078=
202303201753 METAR KBFI 201753Z 18007KT 8SM SCT010 BKN012 OVC030 09/08 A2971 RMK AO2 RAB01E24 SLP062 P0000 60000 T00940078 10094 20083 53017=
202303201653 METAR KBFI 201653Z 17007KT 10SM FEW009 BKN026 OVC041 09/07 A2970 RMK AO2 SLP056 T00940072=
202303201553 METAR KBFI 201553Z 15006KT 7SM FEW009 BKN019 OVC038 09/08 A2968 RMK AO2 SLP050 T00890078=
202303201453 METAR KBFI 201453Z 00000KT 7SM SCT015 OVC035 08/07 A2966 RMK AO2 SLP045 60000 T00830072 53011=
202303201353 METAR KBFI 201353Z 00000KT 8SM OVC033 08/07 A2965 RMK AO2 RAE09 SLP040 P0000 T00830072=
202303201253 METAR KBFI 201253Z 00000KT 6SM -RA BR OVC037 08/08 A2964 RMK AO2 SLP037 P0000 T00830078=
202303201153 METAR KBFI 201153Z 00000KT 5SM -RA BR SCT005 OVC047 08/08 A2963 RMK AO2 SLP034 P0002 60003 70003 T00830078 10106 20083 50000=
202303201053 METAR KBFI 201053Z 00000KT 5SM -RA BR FEW009 OVC040 08/08 A2963 RMK AO2 SLP034 P0001 T00830078=
202303200953 METAR KBFI 200953Z 00000KT 9SM -RA OVC047 08/07 A2963 RMK AO2 SLP035 P0000 T00830072=
202303200853 METAR KBFI 200853Z 00000KT 8SM -RA OVC050 09/07 A2963 RMK AO2 SLP033 P0000 60000 T00890067 53002=
202303200753 METAR KBFI 200753Z 27003KT 8SM -RA OVC060 09/07 A2962 RMK AO2 RAB06 SLP031 P0000 T00890067=
202303200653 METAR KBFI 200653Z 00000KT 10SM OVC065 10/06 A2963 RMK AO2 SLP032 T01000061 401500061=
202303200553 METAR KBFI 200553Z 00000KT 10SM FEW050 OVC075 11/06 A2962 RMK AO2 SLP031 T01060056 10144 20106 58001=
202303200453 METAR KBFI 200453Z VRB03KT 10SM OVC085 11/05 A2963 RMK AO2 SLP033 T01060050=
202303200353 METAR KBFI 200353Z 18003KT 10SM OVC100 12/04 A2963 RMK AO2 SLP035 T01170039=
202303200253 METAR KBFI 200253Z 15004KT 10SM OVC100 12/04 A2963 RMK AO2 SLP032 T01220039 55001=
202303200153 METAR KBFI 200153Z 00000KT 10SM OVC100 13/04 A2961 RMK AO2 SLP027 T01280039=
202303200053 METAR KBFI 200053Z 23003KT 10SM OVC110 14/03 A2961 RMK AO2 SLP026 T01390028=
202303192353 METAR KBFI 192353Z 00000KT 10SM OVC080 14/03 A2963 RMK AO2 SLP033 T01390028 10150 20106 56018=
202303192253 METAR KBFI 192253Z 30005KT 10SM OVC090 14/02 A2964 RMK AO2 SLP037 T01440022=
202303192153 METAR KBFI 192153Z 34005KT 10SM BKN065 BKN100 OVC200 15/04 A2966 RMK AO2 SLP042 T01500039=
202303192053 METAR KBFI 192053Z 34006KT 10SM CLR 14/04 A2968 RMK AO2 SLP051 T01390039 58024=
202303191953 METAR KBFI 191953Z 33005KT 10SM BKN100 13/04 A2971 RMK AO2 SLP061 T01330039=
202303191853 METAR KBFI 191853Z 32004KT 10SM BKN100 12/04 A2974 RMK AO2 SLP069 T01170039=
202303191753 METAR KBFI 191753Z 32006KT 10SM BKN110 11/04 A2975 RMK AO2 SLP075 T01110039 10111 20061 58015=
202303191653 METAR KBFI 191653Z 30003KT 10SM SCT110 09/04 A2977 RMK AO2 SLP081 T00940044=
202303191553 METAR KBFI 191553Z 32003KT 10SM SCT110 08/04 A2978 RMK AO2 SLP085 T00830044=
202303191453 METAR KBFI 191453Z 00000KT 10SM CLR 07/04 A2980 RMK AO2 SLP090 T00670039 58016=
202303191353 METAR KBFI 191353Z 00000KT 10SM CLR 07/03 A2981 RMK AO2 SLP095 T00720033=
202303191253 METAR KBFI 191253Z 00000KT 10SM CLR 07/03 A2983 RMK AO2 SLP102 T00670028=
202303191153 METAR KBFI 191153Z 00000KT 10SM CLR 07/03 A2984 RMK AO2 SLP106 T00720028 10111 20067 58015=
202303191053 METAR KBFI 191053Z 00000KT 10SM CLR 07/03 A2986 RMK AO2 SLP112 T00720028=
202303190953 METAR KBFI 190953Z AUTO 00000KT 10SM BKN110 08/02 A2988 RMK AO2 SLP119 T00830022=
202303190853 METAR KBFI 190853Z 00000KT 10SM CLR 09/03 A2989 RMK AO2 SLP121 T00940033 58007=
202303190753 METAR KBFI 190753Z 32003KT 10SM CLR 09/03 A2990 RMK AO2 SLP124 T00940028=
202303190653 METAR KBFI 190653Z 00000KT 10SM CLR 10/03 A2990 RMK AO2 SLP126 T01000028 401830033=
202303190553 METAR KBFI 190553Z 00000KT 10SM CLR 11/03 A2991 RMK AO2 SLP129 T01060028 10183 20106 50002=
202303190453 METAR KBFI 190453Z 00000KT 10SM CLR 12/01 A2992 RMK AO2 SLP130 T01170011=
202303190353 METAR KBFI 190353Z 00000KT 10SM CLR 12/01 A2992 RMK AO2 SLP131 T01220006=
202303190253 METAR KBFI 190253Z 00000KT 10SM CLR 14/M01 A2991 RMK AO2 SLP127 T01441006 55009=
202303190153 METAR KBFI 190153Z 00000KT 10SM CLR 16/M01 A2991 RMK AO2 SLP127 T01611011=
202303190053 METAR KBFI 190053Z 33005KT 10SM CLR 18/M02 A2992 RMK AO2 SLP131 T01781017=
202303182353 METAR KBFI 182353Z 30004KT 10SM CLR 18/M01 A2993 RMK AO2 SLP136 T01781011 10178 20111 56019=
202303182253 METAR KBFI 182253Z 33006KT 10SM CLR 17/M01 A2994 RMK AO2 SLP139 T01721006=
202303182153 METAR KBFI 182153Z VRB05KT 10SM CLR 17/01 A2996 RMK AO2 SLP144 T01720011=
202303182053 METAR KBFI 182053Z VRB03KT 10SM CLR 16/02 A2999 RMK AO2 SLP155 T01560017 58022=
202303181953 METAR KBFI 181953Z VRB03KT 10SM CLR 14/02 A3002 RMK AO2 SLP166 T01390022=
202303181853 METAR KBFI 181853Z 33004KT 10SM CLR 13/03 A3004 RMK AO2 SLP173 T01280028=
202303181753 METAR KBFI 181753Z 00000KT 10SM CLR 12/03 A3005 RMK AO2 SLP177 T01170028 10117 20033 58011=
202303181653 METAR KBFI 181653Z 00000KT 10SM CLR 09/04 A3007 RMK AO2 SLP182 T00890039=
202303181553 METAR KBFI 181553Z 00000KT 10SM CLR 06/03 A3008 RMK AO2 SLP184 T00610028=
202303181453 METAR KBFI 181453Z 00000KT 10SM CLR 04/01 A3009 RMK AO2 SLP188 T00390011 58002=
202303181353 METAR KBFI 181353Z 00000KT 10SM CLR 05/01 A3009 RMK AO2 SLP189 T00500011=
202303181253 METAR KBFI 181253Z 00000KT 10SM CLR 07/02 A3009 RMK AO2 SLP189 T00670017=
202303181153 METAR KBFI 181153Z 00000KT 10SM CLR 06/02 A3009 RMK AO2 SLP190 T00560017 10106 20056 58002=
202303181053 METAR KBFI 181053Z 00000KT 10SM CLR 06/01 A3010 RMK AO2 SLP192 T00610011=
202303180953 METAR KBFI 180953Z 00000KT 10SM CLR 07/01 A3010 RMK AO2 SLP193 T00720011=
202303180853 METAR KBFI 180853Z 00000KT 9SM CLR 08/03 A3010 RMK AO2 SLP192 T00780028 58000=
202303180753 METAR KBFI 180753Z 35003KT 10SM CLR 09/03 A3010 RMK AO2 SLP193 T00890033=
202303180653 METAR KBFI 180653Z 00000KT 10SM CLR 09/02 A3010 RMK AO2 SLP193 T00940022 401670000=
202303180553 METAR KBFI 180553Z 00000KT 10SM CLR 11/01 A3010 RMK AO2 SLP193 T01110011 10167 20106 51007=
202303180453 METAR KBFI 180453Z 00000KT 10SM CLR 11/M01 A3010 RMK AO2 SLP192 T01111006=
202303180353 METAR KBFI 180353Z 00000KT 10SM CLR 12/M01 A3009 RMK AO2 SLP189 T01171006=
202303180253 METAR KBFI 180253Z 00000KT 10SM CLR 14/M02 A3008 RMK AO2 SLP186 T01391017 53001=
202303180153 METAR KBFI 180153Z 00000KT 10SM BKN250 14/M03 A3007 RMK AO2 SLP183 T01441033=
202303180053 METAR KBFI 180053Z 32005KT 10SM BKN200 16/M03 A3007 RMK AO2 SLP183 T01561033=
202303172353 METAR KBFI 172353Z 32004KT 10SM CLR 17/M02 A3008 RMK AO2 SLP185 T01671022 10167 20100 56015=
202303172253 METAR KBFI 172253Z VRB04KT 10SM CLR 16/M02 A3009 RMK AO2 SLP187 T01611022=
202303172153 METAR KBFI 172153Z 33006KT 10SM CLR 16/M01 A3010 RMK AO2 SLP194 T01561011=
202303172053 METAR KBFI 172053Z VRB04KT 10SM CLR 15/M01 A3012 RMK AO2 SLP200 T01501006 58012=
202303171953 METAR KBFI 171953Z VRB06KT 10SM BKN200 13/M01 A3014 RMK AO2 SLP204 T01331011=
202303171853 METAR KBFI 171853Z 34005KT 10SM CLR 12/01 A3015 RMK AO2 SLP208 T01170006=
202303171753 METAR KBFI 171753Z 32004KT 10SM CLR 11/01 A3016 RMK AO2 SLP211 T01060011 10106 20000 58002=
202303171653 METAR KBFI 171653Z 33004KT 10SM CLR 08/02 A3016 RMK AO2 SLP213 T00830022=
202303171553 METAR KBFI 171553Z 00000KT 10SM CLR 06/02 A3016 RMK AO2 SLP213 T00560022=
202303171453 METAR KBFI 171453Z 00000KT 10SM CLR 01/M01 A3016 RMK AO2 SLP213 T00111006 51003=
202303171353 METAR KBFI 171353Z 00000KT 10SM CLR 01/M01 A3016 RMK AO2 SLP212 T00111006=
202303171253 METAR KBFI 171253Z 00000KT 10SM CLR 01/00 A3016 RMK AO2 SLP212 T00110000=
202303171153 METAR KBFI 171153Z 00000KT 10SM CLR 02/00 A3015 RMK AO2 SLP210 T00170000 10067 20011 56005=
202303171053 METAR KBFI 171053Z 00000KT 10SM CLR 01/M01 A3015 RMK AO2 SLP210 T00111006=
202303170953 METAR KBFI 170953Z AUTO 00000KT 10SM CLR 02/01 A3017 RMK AO2 SLP215 T00220006=
202303170853 METAR KBFI 170853Z AUTO 00000KT 9SM CLR 04/01 A3017 RMK AO2 SLP215 T00390011 51005=
202303170753 METAR KBFI 170753Z AUTO 00000KT 10SM CLR 05/02 A3017 RMK AO2 SLP214 T00500017=
202303170653 METAR KBFI 170653Z VRB03KT 10SM CLR 06/02 A3016 RMK AO2 SLP212 T00610017 401170011=
202303170553 METAR KBFI 170553Z 00000KT 10SM CLR 06/02 A3015 RMK AO2 SLP210 T00560017 10117 20050 51005=
202303170453 METAR KBFI 170453Z 00000KT 10SM CLR 07/02 A3015 RMK AO2 SLP208 T00670017=
202303170353 METAR KBFI 170353Z 30004KT 10SM CLR 08/02 A3014 RMK AO2 SLP207 T00780017=
202303170253 METAR KBFI 170253Z 31005KT 10SM CLR 08/02 A3014 RMK AO2 SLP205 T00830017 55006=
202303170153 METAR KBFI 170153Z 32007KT 10SM CLR 10/02 A3013 RMK AO2 SLP202 T01000017=
202303170053 METAR KBFI 170053Z 31006KT 10SM CLR 11/01 A3014 RMK AO2 SLP205 T01110011=
202303162353 METAR KBFI 162353Z 30008KT 10SM CLR 12/01 A3016 RMK AO2 SLP211 T01170006 10117 20072 56022=
202303162253 METAR KBFI 162253Z 31009G16KT 10SM CLR 11/01 A3018 RMK AO2 SLP217 T01110006=
202303162153 METAR KBFI 162153Z 31009G19KT 10SM CLR 11/01 A3020 RMK AO2 SLP225 T01060006=
202303162053 METAR KBFI 162053Z 31010KT 10SM CLR 10/02 A3022 RMK AO2 SLP233 T01000017 57020=
202303161953 METAR KBFI 161953Z 31008KT 10SM CLR 09/01 A3024 RMK AO2 SLP240 T00940011=
202303161853 METAR KBFI 161853Z 35006KT 10SM CLR 08/M02 A3026 RMK AO2 SLP246 T00831017=
202303161753 METAR KBFI 161753Z VRB03KT 10SM CLR 07/M01 A3028 RMK AO2 SLP253 T00721006 10072 20011 58005=
202303161653 METAR KBFI 161653Z VRB04KT 10SM CLR 05/M01 A3029 RMK AO2 SLP256 T00501011=
202303161553 METAR KBFI 161553Z 00000KT 10SM CLR 03/00 A3029 RMK AO2 SLP257 T00280000=
202303161453 METAR KBFI 161453Z 00000KT 10SM CLR 02/M01 A3029 RMK AO2 SLP258 T00171006 55001=
202303161353 METAR KBFI 161353Z 00000KT 10SM CLR 02/M01 A3029 RMK AO2 SLP258 T00171006=
202303161253 METAR KBFI 161253Z 32003KT 10SM CLR 02/00 A3030 RMK AO2 SLP259 T00220000=
202303161153 METAR KBFI 161153Z 00000KT 10SM CLR 02/00 A3030 RMK AO2 SLP259 T00220000 10061 20022 58003=
202303161053 METAR KBFI 161053Z 00000KT 10SM CLR 02/01 A3030 RMK AO2 SLP260 T00220006=
202303160953 METAR KBFI 160953Z 00000KT 10SM CLR 03/01 A3031 RMK AO2 SLP263 T00330006=
202303160853 METAR KBFI 160853Z 00000KT 10SM CLR 04/01 A3031 RMK AO2 SLP262 T00390011 51001=
202303160753 METAR KBFI 160753Z 00000KT 10SM CLR 04/01 A3031 RMK AO2 SLP262 T00440011=
202303160653 METAR KBFI 160653Z 00000KT 10SM OVC065 06/02 A3031 RMK AO2 SLP263 T00560017 401060039=
202303160553 METAR KBFI 160553Z 00000KT 10SM BKN070 06/01 A3030 RMK AO2 SLP261 T00610006 10100 20061 51012=
202303160453 METAR KBFI 160453Z 00000KT 10SM BKN070 07/01 A3030 RMK AO2 SLP259 T00670011=
202303160353 METAR KBFI 160353Z 00000KT 10SM CLR 07/01 A3029 RMK AO2 SLP255 T00720011=
202303160253 METAR KBFI 160253Z VRB03KT 10SM CLR 08/01 A3027 RMK AO2 SLP250 T00780006 51010=
202303160153 METAR KBFI 160153Z 04003KT 10SM OVC090 09/00 A3026 RMK AO2 SLP246 T00940000=
202303160053 METAR KBFI 160053Z 36007KT 10SM OVC090 10/01 A3025 RMK AO2 SLP244 T01000006=
202303152353 METAR KBFI 152353Z 04007KT 10SM BKN070 OVC090 09/00 A3024 RMK AO2 SLP240 T00940000 10106 20067 53006=
202303152253 METAR KBFI 152253Z 15004KT 10SM BKN090 10/M01 A3023 RMK AO2 SLP237 T01001006=
202303152153 METAR KBFI 152153Z 27003KT 10SM CLR 09/M01 A3022 RMK AO2 SLP234 T00891006=
202303152053 METAR KBFI 152053Z 00000KT 10SM BKN037 09/01 A3022 RMK AO2 SLP234 T00890006 51015=
202303151953 METAR KBFI 151953Z VRB03KT 10SM BKN037 BKN065 08/01 A3022 RMK AO2 SLP232 T00830006=
202303151853 METAR KBFI 151853Z 16008KT 10SM SCT035 SCT042 07/01 A3020 RMK AO2 SLP227 T00720011=
202303151753 METAR KBFI 151753Z 14007KT 090V170 10SM SCT021 BKN050 08/02 A3018 RMK AO2 SLP219 60000 T00780022 10078 20039 51032=
202303151653 METAR KBFI 151653Z 16007KT 10SM SCT025 06/02 A3016 RMK AO2 SLP212 T00610022=
202303151553 METAR KBFI 151553Z 13006KT 10SM FEW034 OVC047 05/02 A3013 RMK AO2 SLP201 T00500022=
202303151453 METAR KBFI 151453Z 17005KT 10SM BKN042 04/02 A3009 RMK AO2 RAB04E27 SLP187 P0000 60000 T00390017 51044=
202303151353 METAR KBFI 151353Z 30003KT 10SM OVC020 05/02 A3005 RMK AO2 SLP176 T00500017=
202303151253 METAR KBFI 151253Z 25006KT 10SM OVC019 05/02 A3001 RMK AO2 SLP160 T00500017=
202303151200 SPECI KBFI 151200Z 22005KT 10SM OVC020 06/02 A2996 RMK AO2 T00560022=
202303151153 METAR KBFI 151153Z 10SM SCT026 BKN036 OVC055 06/02 A2996 RMK AO2 RAB29E38 SLP143 P0000 60000 T00560022 10072 20044 51029=
202303151053 METAR KBFI 151053Z 17006KT 10SM SCT026 BKN036 OVC055 06/02 A2993 RMK AO2 SLP134 T00560022=
202303150953 METAR KBFI 150953Z 16008KT 10SM FEW024 BKN060 OVC085 06/02 A2991 RMK AO2 SLP126 T00560022=
202303150853 METAR KBFI 150853Z 19004KT 10SM OVC085 05/01 A2987 RMK AO2 SLP114 T00500011 53030=
202303150753 METAR KBFI 150753Z 21005KT 10SM CLR 06/01 A2983 RMK AO2 SLP100 T00560011=
202303150653 METAR KBFI 150653Z 21005KT 10SM FEW080 BKN110 06/00 A2981 RMK AO2 SLP092 T00610000 401060006=
202303150553 METAR KBFI 150553Z 00000KT 10SM BKN090 OVC110 07/02 A2978 RMK AO2 SLP084 T00670022 10106 20067 53030=
202303150453 METAR KBFI 150453Z 00000KT 10SM OVC090 07/01 A2975 RMK AO2 SLP073 T00720011=
202303150353 METAR KBFI 150353Z 00000KT 10SM BKN085 08/M01 A2971 RMK AO2 SLP062 T00781011=
202303150253 METAR KBFI 150253Z 00000KT 10SM SCT080 09/M03 A2969 RMK AO2 SLP054 T00891028 53001=
202303150153 METAR KBFI 150153Z 24003KT 10SM CLR 09/M03 A2968 RMK AO2 SLP049 T00941028=
202303150053 METAR KBFI 150053Z 29005KT 10SM FEW030 10/M02 A2968 RMK AO2 SLP050 T01001017=
202303142353 METAR KBFI 142353Z VRB03KT 10SM FEW030 11/M02 A2969 RMK AO2 SLP052 T01061022 10106 20072 56026=
202303142253 METAR KBFI 142253Z 31006KT 10SM FEW030 BKN050 10/M01 A2971 RMK AO2 SLP060 T01001011=
202303142153 METAR KBFI 142153Z VRB05KT 10SM FEW020 10/M01 A2973 RMK AO2 SLP068 T01001011=
202303142053 METAR KBFI 142053Z VRB03KT 10SM FEW020 10/M01 A2976 RMK AO2 SLP078 T01001011 58029=
202303141953 METAR KBFI 141953Z VRB03KT 10SM FEW030 BKN200 10/00 A2980 RMK AO2 SLP091 T01000000=
202303141853 METAR KBFI 141853Z 11006KT 10SM FEW030 09/M01 A2983 RMK AO2 SLP100 T00891006=
202303141753 METAR KBFI 141753Z 13004KT 10SM FEW030 07/00 A2985 RMK AO2 SLP107 T00720000 10072 20006 58016=
202303141653 METAR KBFI 141653Z 14006KT 10SM FEW025 SCT070 06/01 A2987 RMK AO2 SLP115 T00560006=
202303141553 METAR KBFI 141553Z 15007KT 10SM FEW025 SCT070 BKN170 04/01 A2989 RMK AO2 SLP120 T00390006=
202303141453 METAR KBFI 141453Z 12003KT 10SM SCT045 BKN075 BKN200 02/00 A2990 RMK AO2 SLP123 T00170000 58003=
202303141353 METAR KBFI 141353Z 16007KT 10SM BKN045 BKN065 02/00 A2990 RMK AO2 SLP124 T00220000=
202303141253 METAR KBFI 141253Z 13007KT 10SM CLR 03/01 A2990 RMK AO2 SLP126 T00330006=
202303141153 METAR KBFI 141153Z 17006KT 10SM CLR 03/01 A2991 RMK AO2 SLP126 70022 T00330011 10044 20022 58002=
202303141053 METAR KBFI 141053Z 15008KT 10SM CLR 02/01 A2992 RMK AO2 SLP130 T00220006=
202303140953 METAR KBFI 140953Z 19008G18KT 10SM CLR 04/02 A2992 RMK AO2 SLP132 T00390017=
202303140853 METAR KBFI 140853Z 19012G19KT 10SM SCT026 04/01 A2991 RMK AO2 SLP129 T00390011 51020=
202303140753 METAR KBFI 140753Z 15008KT 10SM BKN023 03/01 A2990 RMK AO2 SLP124 T00280011 400890022=
202303140653 METAR KBFI 140653Z 14005KT 10SM FEW037 02/01 A2988 RMK AO2 SLP119 T00220006=
202303140553 METAR KBFI 140553Z 18008KT 10SM CLR 04/01 A2985 RMK AO2 SLP109 T00440011 10083 20044 51026=
202303140453 METAR KBFI 140453Z 18007KT 10SM FEW023 05/01 A2984 RMK AO2 SLP103 T00500006=
202303140353 METAR KBFI 140353Z 20008KT 10SM CLR 06/01 A2980 RMK AO2 SLP091 T00560011=
202303140253 METAR KBFI 140253Z 22009G17KT 10SM FEW025 06/00 A2978 RMK AO2 SLP083 T00610000 53017=
202303140153 METAR KBFI 140153Z 22011G17KT 10SM FEW025 BKN070 08/01 A2975 RMK AO2 SLP075 T00780006=
202303140053 METAR KBFI 140053Z 19008G20KT 10SM SCT025 08/03 A2974 RMK AO2 SLP069 T00780033=
202303132353 METAR KBFI 132353Z 19010G21KT 150V210 10SM FEW025 BKN100 08/03 A2973 RMK AO2 SLP066 60000 T00830028 10089 20056 51004=
202303132253 METAR KBFI 132253Z 18011G19KT 10SM BKN021 BKN045 BKN090 07/03 A2973 RMK AO2 SLP066 T00720033=
202303132153 METAR KBFI 132153Z 17014KT 10SM SCT012 BKN060 07/04 A2973 RMK AO2 SLP066 T00720044=
202303132053 METAR KBFI 132053Z 17013G22KT 10SM BKN015 BKN025 OVC070 07/04 A2972 RMK AO2 SLP062 60000 T00670044 50004=
202303131953 METAR KBFI 131953Z 17012G19KT 130V200 10SM BKN010 OVC015 06/04 A2972 RMK AO2 RAE26 SLP063 P0000 T00610044=
202303131853 METAR KBFI 131853Z 15010KT 10SM -RA SCT008 OVC015 06/04 A2971 RMK AO2 RAB09 SLP061 P0000 T00560044=
202303131753 METAR KBFI 131753Z 15012KT 10SM SCT010 BKN012 OVC023 06/04 A2970 RMK AO2 SLP058 60022 T00560039 10078 20050 51009=
202303131653 METAR KBFI 131653Z 15013KT 10SM SCT010 BKN012 OVC023 06/04 A2969 RMK AO2 RAB11E20 SLP055 P0000 T00560039=
202303131553 METAR KBFI 131553Z 14009KT 10SM BKN015 OVC021 06/04 A2970 RMK AO2 RAE53 SLP056 P0000 T00560039=
202303131453 METAR KBFI 131453Z 16008KT 5SM -RA BR OVC042 06/04 A2968 RMK AO2 SLP049 P0016 60022 T00560044 53015=
202303131353 METAR KBFI 131353Z 19006KT 3SM RA BR OVC042 06/04 A2966 RMK AO2 SLP044 P0006 T00610044=
202303131253 METAR KBFI 131253Z 20007G16KT 170V270 9SM -RA SCT047 BKN060 OVC085 07/04 A2964 RMK AO2 RAB1158 SLP035 P0000 T00670044 $=
202303131153 METAR KBFI 131153Z 22007KT 10SM OVC040 08/06 A2963 RMK AO2 RAE27 SLP034 P0003 60010 70033 T00780061 10083 20072 55001 $=
202303131108 SPECI KBFI 131108Z 23006KT 4SM -RA BR OVC035 08/07 A2962 RMK AO2 P0002 T00830072 $=
202303131101 SPECI KBFI 131101Z 17005KT 7SM -RA BKN025 BKN038 OVC055 08/07 A2961 RMK AO2 P0001 T00780067 $=
202303131053 METAR KBFI 131053Z 15007KT 10SM -RA OVC035 08/07 A2961 RMK AO2 RAE03B20 SLP025 P0000 T00780067 $=
202303130953 METAR KBFI 130953Z 14004KT 8SM -RA OVC030 07/07 A2962 RMK AO2 SLP031 P0002 T00720067 $=
202303130853 METAR KBFI 130853Z 10005KT 8SM -RA BKN030 OVC036 08/06 A2963 RMK AO2 SLP035 P0003 60005 T00780061 56014 $=
202303130753 METAR KBFI 130753Z 12005KT 9SM -RA OVC035 07/06 A2964 RMK AO2 RAB14 SLP035 P0000 T00720061 400891017 $=
202303130653 METAR KBFI 130653Z 17003KT 10SM SCT027 BKN032 OVC040 07/07 A2965 RMK AO2 RAE40 SLP041 P0002 T00720067 $=
202303130553 METAR KBFI 130553Z 15003KT 4SM -RA BR SCT027 BKN034 OVC043 07/07 A2968 RMK AO2 SLP049 P0007 60020 T00720067 10078 20067 58002 $=
202303130453 METAR KBFI 130453Z 11003KT 5SM -RA BR OVC032 08/07 A2968 RMK AO2 SLP051 P0003 T00780067 $=
202303130353 METAR KBFI 130353Z 15006KT 7SM -RA BKN023 OVC037 07/07 A2968 RMK AO2 RAE17B51 SLP049 P0000 T00720067 $=
202303130253 METAR KBFI 130253Z 12004KT 7SM -RA BKN023 OVC037 07/06 A2968 RMK AO2 SLP051 P0006 60010 T00670061 57009 $=
202303130153 METAR KBFI 130153Z 00000KT 7SM -RA BKN023 OVC037 07/06 A2970 RMK AO2 RAB05 SLP056 P0004 T00670056 $=
202303130053 METAR KBFI 130053Z 32003KT 10SM OVC036 07/06 A2969 RMK AO2 RAB04E37 SLP055 P0000 T00670056 $=
202303122353 METAR KBFI 122353Z 29003KT 9SM OVC035 08/06 A2971 RMK AO2 RAE38 SLP060 P0003 60003 T00780061 10089 20050 58022 $=
202303122253 METAR KBFI 122253Z VRB03KT 6SM -RA OVC037 08/05 A2974 RMK AO2 SLP070 P0000 T00830050 $=
202303122153 METAR KBFI 122153Z 00000KT 10SM -RA OVC040 08/04 A2975 RMK AO2 RAE02B39 SLP073 P0000 T00830039 $=
202303122053 METAR KBFI 122053Z 00000KT 8SM -RA OVC049 08/04 A2978 RMK AO2 RAB07 SLP082 P0000 60000 T00780039 56018 $=
202303121953 METAR KBFI 121953Z 13004KT 10SM OVC065 08/03 A2980 RMK AO2 SLP090 T00830028 $=
202303121853 METAR KBFI 121853Z 31005KT 10SM FEW055 SCT070 OVC090 07/03 A2981 RMK AO2 SLP092 T00720033 $=
202303121753 METAR KBFI 121753Z 00000KT 10SM BKN065 OVC080 05/03 A2983 RMK AO2 SLP101 T00500028 10050 21017 55010 $=
202303121653 METAR KBFI 121653Z 00000KT 10SM OVC100 03/02 A2982 RMK AO2 SLP099 T00280017 $=
202303121553 METAR KBFI 121553Z 00000KT 10SM CLR 01/01 A2984 RMK AO2 SLP105 T00110006 $=
202303121453 METAR KBFI 121453Z 00000KT 10SM FEW003 M01/M01 A2986 RMK AO2 SLP111 T10061011 56015 $=
202303121353 METAR KBFI 121353Z 00000KT 10SM CLR M01/M02 A2987 RMK AO2 SLP114 T10111017 $=
202303121253 METAR KBFI 121253Z 00000KT 10SM CLR 01/M01 A2989 RMK AO2 SLP121 T00061006 $=
202303121153 METAR KBFI 121153Z 00000KT 10SM CLR 01/00 A2990 RMK AO2 SLP125 T00110000 10044 20000 58013 $=
202303121053 METAR KBFI 121053Z 00000KT 10SM CLR 01/01 A2992 RMK AO2 SLP131 T00110006 $=
202303120953 METAR KBFI 120953Z AUTO 00000KT 10SM CLR 02/00 A2994 RMK AO2 SLP136 T00170000 $=
202303120853 METAR KBFI 120853Z 16004KT 10SM CLR 01/00 A2994 RMK AO2 SLP138 T00110000 56003 $=
202303120753 METAR KBFI 120753Z 00000KT 10SM CLR 03/01 A2994 RMK AO2 SLP139 T00330011 401110028 $=
202303120653 METAR KBFI 120653Z 00000KT 10SM CLR 04/02 A2994 RMK AO2 SLP139 T00440017 $=
202303120553 METAR KBFI 120553Z 00000KT 10SM CLR 04/01 A2995 RMK AO2 SLP141 T00390011 10089 20039 53004 $=
202303120453 METAR KBFI 120453Z 00000KT 10SM SCT095 06/02 A2994 RMK AO2 SLP139 T00610017 $=
202303120353 METAR KBFI 120353Z 00000KT 10SM OVC095 07/02 A2994 RMK AO2 SLP139 T00720022 $=
202303120253 METAR KBFI 120253Z 00000KT 10SM BKN100 07/02 A2994 RMK AO2 SLP137 T00720022 53004 $=
202303120153 METAR KBFI 120153Z 31004KT 10SM OVC100 08/02 A2994 RMK AO2 SLP136 T00780022 $=
202303120053 METAR KBFI 120053Z 30005KT 10SM BKN070 OVC100 08/03 A2992 RMK AO2 SLP133 T00830028 $=
202303112353 METAR KBFI 112353Z 29007KT 10SM SCT060 BKN100 09/03 A2993 RMK AO2 SLP133 T00890033 10111 20067 56006 $=
202303112253 METAR KBFI 112253Z 25007KT 10SM FEW049 SCT070 BKN110 11/01 A2993 RMK AO2 SLP134 T01060006 $=
202303112153 METAR KBFI 112153Z 23005KT 10SM FEW047 BKN070 OVC100 10/01 A2993 RMK AO2 SLP134 T01000006 $=
202303112053 METAR KBFI 112053Z 15009KT 10SM BKN037 BKN110 10/01 A2994 RMK AO2 SLP139 T01000011 57001 $=
202303111953 METAR KBFI 111953Z 20009KT 10SM FEW037 SCT044 OVC110 09/02 A2995 RMK AO2 SLP140 T00890022 $=
202303111853 METAR KBFI 111853Z 17006KT 10SM BKN034 BKN110 08/03 A2994 RMK AO2 SLP139 T00830028 $=
202303111753 METAR KBFI 111753Z 22006KT 10SM BKN030 OVC075 07/03 A2995 RMK AO2 SLP140 T00670028 10072 20039 51010 $=
202303111653 METAR KBFI 111653Z 16006KT 10SM BKN049 BKN080 OVC110 06/03 A2994 RMK AO2 SLP137 T00610028 $=
202303111553 METAR KBFI 111553Z 15004KT 10SM BKN065 OVC100 04/03 A2993 RMK AO2 SLP133 T00440028 $=
202303111453 METAR KBFI 111453Z 16005KT 10SM FEW045 OVC055 04/03 A2991 RMK AO2 SLP129 T00390028 51008 $=
202303111353 METAR KBFI 111353Z 15006KT 10SM BKN065 OVC080 04/02 A2991 RMK AO2 SLP127 T00440022 $=
202303111253 METAR KBFI 111253Z 14006KT 10SM FEW021 04/02 A2990 RMK AO2 SLP125 T00390022 $=
202303111153 METAR KBFI 111153Z 16006KT 10SM SCT021 04/03 A2989 RMK AO2 SLP122 60004 70006 T00440028 10061 20039 51014 $=
202303111053 METAR KBFI 111053Z 18005KT 10SM FEW025 SCT031 05/03 A2989 RMK AO2 RAB09E36 SLP120 P0004 T00500028 $=
202303110953 METAR KBFI 110953Z 17006KT 10SM FEW025 SCT031 05/03 A2987 RMK AO2 SLP115 T00500028 $=
202303110853 METAR KBFI 110853Z 17009KT 10SM SCT018 SCT023 OVC090 06/03 A2985 RMK AO2 SLP108 T00560033 51025 $=
202303110753 METAR KBFI 110753Z 17010KT 10SM BKN023 BKN034 BKN110 06/03 A2983 RMK AO2 SLP102 T00610033 401000033 $=
202303110653 METAR KBFI 110653Z 16006KT 10SM BKN017 BKN022 OVC035 06/04 A2980 RMK AO2 SLP091 T00560039 $=
202303110553 METAR KBFI 110553Z 18009KT 10SM FEW025 SCT030 OVC036 06/03 A2978 RMK AO2 RAE40 SLP083 P0001 60002 T00560033 10083 20056 51025 $=
202303110453 METAR KBFI 110453Z 19009G17KT 7SM -RA FEW031 BKN043 OVC060 06/03 A2976 RMK AO2 RAB27 SLP076 P0000 T00610028 $=
202303110353 METAR KBFI 110353Z 18004KT 10SM SCT036 BKN045 06/03 A2973 RMK AO2 SLP067 T00610028 $=
202303110253 METAR KBFI 110253Z 19004KT 10SM SCT049 BKN060 07/03 A2971 RMK AO2 SLP059 60001 T00720033 53030 $=
202303110153 METAR KBFI 110153Z 17003KT 10SM FEW037 OVC060 07/04 A2968 RMK AO2 RAE36 SLP048 P0001 T00670039 $=
202303110053 METAR KBFI 110053Z 18006KT 9SM -RA BKN025 OVC120 08/03 A2964 RMK AO2 RAB36 SLP038 P0000 T00780028 $=
202303110008 SPECI KBFI 110008Z 17011KT 10SM BKN025 OVC120 08/02 A2963 RMK AO2 T00830022 $=
202303110000 SPECI KBFI 110000Z 18009G18KT 10SM SCT041 BKN050 BKN120 08/02 A2962 RMK AO2 T00830017 $=
202303102353 METAR KBFI 102353Z 20009G18KT 10SM BKN025 OVC120 08/02 A2962 RMK AO2 SLP029 T00830017 10100 20067 53030 $=
202303102253 METAR KBFI 102253Z 22008KT 180V250 10SM BKN022 OVC120 09/01 A2959 RMK AO2 SLP018 T00890006=
202303102153 METAR KBFI 102153Z 23008KT 10SM BKN022 OVC120 09/02 A2956 RMK AO2 SLP008 T00940017=
202303102053 METAR KBFI 102053Z 25007KT 10SM BKN018 BKN026 BKN032 09/02 A2953 RMK AO2 SLP999 T00890017 53027=
202303101953 METAR KBFI 101953Z 21008G16KT 10SM BKN018 BKN026 BKN032 08/02 A2950 RMK AO2 SLP989 T00780022=
202303101853 METAR KBFI 101853Z VRB06G15KT 10SM BKN015 BKN023 08/03 A2947 RMK AO2 SLP980 T00780028=
202303101753 METAR KBFI 101753Z 21007KT 170V230 10SM BKN015 BKN023 07/03 A2945 RMK AO2 SLP972 60000 T00670028 10067 20033 53025=
202303101653 METAR KBFI 101653Z VRB06KT 10SM SCT013 BKN017 OVC023 06/02 A2942 RMK AO2 SLP963 T00560022=
202303101553 METAR KBFI 101553Z 15005KT 10SM OVC015 05/03 A2940 RMK AO2 SLP954 T00500033=
202303101453 METAR KBFI 101453Z 14003KT 10SM BKN029 BKN075 03/02 A2937 RMK AO2 RAB1356E38 SLP947 P0000 60000 T00330022 51012=
202303101353 METAR KBFI 101353Z 00000KT 10SM SCT050 BKN075 OVC085 04/02 A2936 RMK AO2 RAE12 SLP941 P0000 T00390022=
202303101253 METAR KBFI 101253Z 00000KT 10SM -RA BKN042 OVC055 04/02 A2936 RMK AO2 RAE18B45 SLP941 P0000 T00440022=
202303101200 SPECI KBFI 101200Z 35003KT 10SM -RA OVC037 05/02 A2934 RMK AO2 P0000 T00500022=
202303101153 METAR KBFI 101153Z 36003KT 10SM -RA FEW020 BKN027 OVC038 05/02 A2934 RMK AO2 SLP934 P0001 60003 70003 T00500022 10094 20050 58000=
202303101053 METAR KBFI 101053Z 08005KT 8SM -RA FEW020 BKN027 OVC038 06/01 A2934 RMK AO2 SLP935 P0002 T00610011=
202303100953 METAR KBFI 100953Z 10008G19KT 070V160 10SM -RA OVC037 08/M02 A2934 RMK AO2 RAB39 SLP935 P0000 T00831017=
202303100853 METAR KBFI 100853Z 10SM OVC050 09/M03 A2934 RMK AO2 SLP935 T00891033 56036=
202303100753 METAR KBFI 100753Z VRB06KT 10SM OVC075 08/M03 A2936 RMK AO2 SLP942 T00831033 401001006=
202303100653 METAR KBFI 100653Z VRB04KT 10SM OVC085 08/M03 A2939 RMK AO2 SLP952 T00831033=
202303100553 METAR KBFI 100553Z 08007KT 050V120 10SM OVC095 09/M04 A2944 RMK AO2 SLP970 T00941039 10094 20083 56046=
202303100453 METAR KBFI 100453Z 09006KT 10SM OVC100 09/M03 A2949 RMK AO2 SLP984 T00891033=
202303100353 METAR KBFI 100353Z 10008G17KT 10SM OVC095 09/M04 A2953 RMK AO2 SLP001 T00891039=
202303100253 METAR KBFI 100253Z 10009KT 10SM OVC080 09/M04 A2958 RMK AO2 SLP016 T00891039 58040=
202303100153 METAR KBFI 100153Z 12008KT 10SM OVC050 08/M04 A2962 RMK AO2 SLP030 T00831039=
202303100053 METAR KBFI 100053Z 12008KT 10SM OVC065 09/M04 A2966 RMK AO2 SLP042 T00891039=
202303092353 METAR KBFI 092353Z 12007KT 10SM OVC080 09/M03 A2970 RMK AO2 PK WND 13027/2255 SLP056 T00891033 10100 20044 58036=
202303092253 METAR KBFI 092253Z 13014G23KT 10SM OVC085 09/M03 A2974 RMK AO2 PK WND 14029/2210 SLP069 T00941033=
202303092153 METAR KBFI 092153Z 13014G21KT 10SM FEW090 10/M03 A2977 RMK AO2 SLP081 T01001028=
202303092053 METAR KBFI 092053Z 29003KT 10SM SCT075 OVC200 08/02 A2980 RMK AO2 SLP091 T00830022 58037=
202303091953 METAR KBFI 091953Z 29003KT 10SM BKN070 07/02 A2985 RMK AO2 SLP106 T00720017=
202303091853 METAR KBFI 091853Z VRB03KT 10SM OVC070 06/01 A2989 RMK AO2 SLP119 T00560011=
202303091753 METAR KBFI 091753Z 00000KT 10SM OVC070 04/01 A2991 RMK AO2 SLP128 T00440006 10044 21006 56012=
202303091653 METAR KBFI 091653Z 00000KT 10SM OVC080 03/00 A2991 RMK AO2 SLP128 T00330000=
202303091553 METAR KBFI 091553Z 00000KT 10SM BKN060 OVC075 03/01 A2993 RMK AO2 SLP134 T00280006=
202303091453 METAR KBFI 091453Z 00000KT 10SM FEW070 BKN090 OVC120 01/01 A2994 RMK AO2 SLP139 T00110006 56010=
202303091353 METAR KBFI 091353Z 00000KT 10SM OVC080 01/01 A2995 RMK AO2 SLP143 T00060006=
202303091253 METAR KBFI 091253Z 23003KT 10SM SCT060 BKN070 01/M01 A2996 RMK AO2 SLP145 T00061006=
202303091153 METAR KBFI 091153Z 00000KT 8SM SCT060 BKN080 00/M01 A2997 RMK AO2 SLP149 T00001006 10022 21006 58008=
202303091053 METAR KBFI 091053Z 21003KT 8SM OVC060 01/00 A2998 RMK AO2 SLP153 T00060000=
202303090953 METAR KBFI 090953Z 00000KT 10SM SCT150 00/M01 A3000 RMK AO2 SLP157 T00001006=
202303090853 METAR KBFI 090853Z 00000KT 6SM BR CLR 01/M01 A3000 RMK AO2 SLP157 T00061006 58003=
202303090753 METAR KBFI 090753Z 00000KT 10SM SCT080 01/00 A3000 RMK AO2 SLP158 T00110000 400830006=
202303090653 METAR KBFI 090653Z 12003KT 10SM SCT090 02/01 A3001 RMK AO2 SLP162 T00220011=
202303090553 METAR KBFI 090553Z 14004KT 10SM CLR 02/01 A3001 RMK AO2 SLP161 60000 T00220011 10067 20017 51002=
202303090453 METAR KBFI 090453Z 15005KT 10SM FEW070 BKN090 03/01 A3000 RMK AO2 SLP159 T00280011=
202303090353 METAR KBFI 090353Z 14007KT 10SM BKN055 OVC065 03/02 A3001 RMK AO2 RAE08B27E37 SLP160 P0000 T00330017=
202303090253 METAR KBFI 090253Z 15006KT 8SM -RA BKN028 OVC037 04/02 A3000 RMK AO2 RAB17 SLP158 P0000 60000 T00390022 53011=
202303090153 METAR KBFI 090153Z 15009KT 10SM OVC047 04/02 A2999 RMK AO2 SLP154 T00440022=
202303090053 METAR KBFI 090053Z 15010KT 10SM FEW026 BKN060 05/02 A2997 RMK AO2 SLP150 T00500017=
202303082353 METAR KBFI 082353Z 00000KT 10SM BKN018 BKN043 OVC065 06/01 A2997 RMK AO2 RAB2258E38 SLP147 P0000 60000 T00610011 10083 20050 50001=
202303082314 SPECI KBFI 082314Z 00000KT 10SM -RA OVC018 06/01 A2998 RMK AO2 RAB2258 P0000 T00610006=
202303082253 METAR KBFI 082253Z 19003KT 7SM BKN035 BKN049 OVC060 06/00 A2997 RMK AO2 RAE30B42E53 SLP149 P0000 T00610000=
202303082230 SPECI KBFI 082230Z 00000KT 7SM OVC029 06/00 A2997 RMK AO2 RAE30 P0000 T00610000=
202303082153 METAR KBFI 082153Z 10005KT 10SM -RA BKN041 OVC060 07/01 A2996 RMK AO2 RAB48 SLP146 P0000 T00670006=
202303082053 METAR KBFI 082053Z 17006KT 10SM SCT027 BKN070 07/01 A2996 RMK AO2 SLP144 T00720011 53001=
202303081953 METAR KBFI 081953Z 21005KT 10SM SCT027 BKN080 08/02 A2996 RMK AO2 SLP143 T00780022=
202303081853 METAR KBFI 081853Z 14004KT 10SM SCT015 BKN060 06/02 A2995 RMK AO2 SLP143 T00610022=
202303081753 METAR KBFI 081753Z 00000KT 10SM BKN013 BKN065 05/02 A2996 RMK AO2 SLP143 T00500022 10050 20006 50003=
202303081653 METAR KBFI 081653Z 15003KT 7SM BKN013 03/02 A2996 RMK AO2 SLP145 T00330017=
202303081624 SPECI KBFI 081624Z 15005KT 5SM BR SCT008 BKN013 BKN080 02/02 A2996 RMK AO2 T00220017=
202303081553 METAR KBFI 081553Z 14008KT 3SM BR SCT008 OVC015 02/01 A2996 RMK AO2 SLP146 T00170011=
202303081500 SPECI KBFI 081500Z 14008KT 3SM BR FEW006 BKN015 01/01 A2995 RMK AO2 T00110011=
202303081453 METAR KBFI 081453Z 14008KT 2SM BR BKN005 BKN010 01/01 A2995 RMK AO2 SLP140 T00110011 51005=
202303081353 METAR KBFI 081353Z 16007KT 2SM BR BKN005 BKN010 01/01 A2994 RMK AO2 SLP139 T00060006=
202303081310 SPECI KBFI 081310Z 15008KT 1/2SM FG VV004 01/00 A2994 RMK AO2 T00060000=
202303081253 METAR KBFI 081253Z 00000KT 5SM BR BKN004 OVC007 01/01 A2994 RMK AO2 SLP137 T00110011=
202303081249 SPECI KBFI 081249Z 00000KT 3SM BR BKN004 OVC100 01/01 A2994 RMK AO2 CIG 002V007=
202303081235 SPECI KBFI 081235Z 14007KT 3/4SM BR OVC004 01/01 A2994 RMK AO2 T00060006=
202303081153 METAR KBFI 081153Z 00000KT 9SM SCT006 BKN009 01/01 A2993 RMK AO2 SLP135 T00060006 10039 20006 56009=
202303081115 SPECI KBFI 081115Z VRB03KT 8SM FEW007 BKN100 01/01 A2994 RMK AO2 T00110006=
202303081053 METAR KBFI 081053Z 00000KT 7SM BKN100 BKN120 01/01 A2994 RMK AO2 SLP137 T00110011=
202303080953 METAR KBFI 080953Z 00000KT 10SM BKN110 02/02 A2995 RMK AO2 SLP140 T00220017=
202303080853 METAR KBFI 080853Z 15004KT 10SM FEW100 01/01 A2996 RMK AO2 SLP144 T00110011 56010=
202303080753 METAR KBFI 080753Z 00000KT 10SM BKN095 03/02 A2997 RMK AO2 SLP148 T00330017 401110028=
202303080653 METAR KBFI 080653Z 00000KT 10SM OVC100 04/02 A2997 RMK AO2 SLP150 T00390022=
202303080553 METAR KBFI 080553Z 00000KT 10SM CLR 04/02 A2999 RMK AO2 SLP155 60000 T00390017 10094 20039 50001=
202303080453 METAR KBFI 080453Z 30003KT 10SM CLR 04/02 A2999 RMK AO2 SLP156 T00440022=
202303080353 METAR KBFI 080353Z AUTO 31003KT 10SM FEW065 06/02 A2999 RMK AO2 SLP155 T00560017=
202303080253 METAR KBFI 080253Z 33004KT 10SM SCT110 06/02 A2999 RMK AO2 RAB09E27 SLP153 P0000 60000 T00610022 50002=
202303080153 METAR KBFI 080153Z 23005KT 10SM BKN035 BKN080 OVC090 07/01 A3000 RMK AO2 RAE29 SLP157 P0000 T00720006=
202303080053 METAR KBFI 080053Z 23003KT 10SM -RA BKN048 OVC065 08/01 A2999 RMK AO2 RAB47 SLP154 P0000 T00780006=
202303072353 METAR KBFI 072353Z 19004KT 10SM FEW030 BKN075 OVC100 09/M02 A2998 RMK AO2 SLP151 T00941017 10111 20067 56013=
202303072253 METAR KBFI 072253Z VRB05KT 10SM BKN100 11/M01 A2998 RMK AO2 SLP152 T01061011=
202303072153 METAR KBFI 072153Z VRB04KT 10SM FEW070 10/M01 A3000 RMK AO2 SLP158 T01001006=
202303072053 METAR KBFI 072053Z VRB05KT 10SM CLR 09/01 A3002 RMK AO2 SLP163 T00940011 58010=
202303071953 METAR KBFI 071953Z 34007KT 10SM CLR 09/02 A3003 RMK AO2 SLP169 T00940017=
202303071853 METAR KBFI 071853Z 26003KT 10SM CLR 08/02 A3005 RMK AO2 SLP174 T00830022=
202303071753 METAR KBFI 071753Z 03004KT 10SM CLR 07/02 A3005 RMK AO2 SLP174 T00670022 10067 20033 58001=
202303071653 METAR KBFI 071653Z 00000KT 10SM CLR 06/02 A3005 RMK AO2 SLP175 T00560022=
202303071553 METAR KBFI 071553Z 00000KT 10SM SCT060 04/02 A3005 RMK AO2 SLP176 T00440022=
202303071453 METAR KBFI 071453Z 00000KT 10SM BKN060 BKN095 03/02 A3005 RMK AO2 SLP175 T00330017 58003=
202303071353 METAR KBFI 071353Z 00000KT 10SM BKN070 OVC095 03/02 A3005 RMK AO2 SLP177 T00330022=
202303071253 METAR KBFI 071253Z 00000KT 10SM SCT026 BKN065 OVC075 04/02 A3006 RMK AO2 SLP178 T00390017=
202303071153 METAR KBFI 071153Z 28003KT 10SM FEW012 BKN050 OVC095 04/02 A3006 RMK AO2 SLP178 60000 T00390017 10061 20039 51003=
202303071053 METAR KBFI 071053Z 24004KT 10SM BKN015 BKN026 OVC085 04/02 A3006 RMK AO2 RAB28E41 SLP178 P0000 T00440022=
202303070953 METAR KBFI 070953Z 00000KT 10SM OVC055 04/02 A3006 RMK AO2 SLP178 T00440022=
202303070853 METAR KBFI 070853Z 00000KT 10SM SCT050 OVC085 04/02 A3005 RMK AO2 SLP175 60000 T00440022 53001=
202303070753 METAR KBFI 070753Z 16004KT 10SM FEW055 OVC080 04/02 A3005 RMK AO2 RAE05 SLP175 P0000 T00440017 401001006=
202303070653 METAR KBFI 070653Z VRB03KT 10SM -RA FEW028 OVC037 06/02 A3005 RMK AO2 RAB33 SLP174 P0000 T00560022=
202303070353 METAR KBFI 070353Z 11004KT 10SM BKN070 BKN150 06/01 A3002 RMK AO2 SLP165 T00610006=
202303070253 METAR KBFI 070253Z 12008KT 10SM FEW090 07/01 A3002 RMK AO2 SLP164 T00670006 53006=
202303070153 METAR KBFI 070153Z 17008KT 10SM FEW050 SCT120 BKN200 07/00 A3000 RMK AO2 SLP159 T00720000=
202303070053 METAR KBFI 070053Z 18007KT 10SM FEW050 SCT120 OVC200 08/01 A3000 RMK AO2 SLP157 T00830006=
202303062353 METAR KBFI 062353Z 18008KT 10SM FEW042 SCT090 10/01 A3000 RMK AO2 SLP158 T01000011 10100 20050 55000=
202303062253 METAR KBFI 062253Z 20007KT 10SM OVC070 09/01 A2999 RMK AO2 SLP156 T00940006=
202303062153 METAR KBFI 062153Z 22005G15KT 10SM SCT032 BKN042 BKN065 09/01 A2999 RMK AO2 SLP155 T00940011=
202303062053 METAR KBFI 062053Z 17008G18KT 10SM SCT042 09/01 A3000 RMK AO2 SLP158 T00940011 58003=
202303061953 METAR KBFI 061953Z 16008KT 10SM SCT080 08/02 A3001 RMK AO2 SLP163 T00830017=
202303061853 METAR KBFI 061853Z 14006KT 10SM OVC044 06/02 A3001 RMK AO2 SLP163 T00560022=
202303061753 METAR KBFI 061753Z 16008KT 10SM BKN050 05/02 A3001 RMK AO2 SLP161 T00500022 10050 21006 51013=
202303061653 METAR KBFI 061653Z 13003KT 7SM SCT008 BKN050 BKN075 02/01 A3000 RMK AO2 SLP159 T00170011=
202303061615 SPECI KBFI 061615Z 00000KT 3SM BR VV002 01/01 A2999 RMK AO2 T00110011=
202303061610 SPECI KBFI 061610Z 00000KT 1 3/4SM BR VV002 01/01 A2999 RMK AO2 T00060006=
202303061555 SPECI KBFI 061555Z 00000KT 1/2SM FG VV002 00/00 A2998 RMK AO2 T00000000=
202303061553 METAR KBFI 061553Z 00000KT 1/4SM FG VV002 00/00 A2998 RMK AO2 SLP153 T00000000=
202303061546 SPECI KBFI 061546Z 14003KT 1/4SM FG BKN002 OVC055 00/00 A2999 RMK AO2 T00000000=
202303061453 METAR KBFI 061453Z 15004KT M1/4SM FG VV002 00/00 A2997 RMK AO2 SLP148 T00000000 53006=
202303061357 SPECI KBFI 061357Z 00000KT 1/4SM FG VV002 01/01 A2996 RMK AO2 T00060006=
202303061353 METAR KBFI 061353Z 00000KT 1 1/2SM BR BKN002 01/01 A2996 RMK AO2 SLP144 T00060006=
202303061309 SPECI KBFI 061309Z 00000KT 1 1/2SM BR BKN004 01/01 A2996 RMK AO2 T00060006=
202303061253 METAR KBFI 061253Z 00000KT 3SM BR SCT004 00/00 A2995 RMK AO2 SLP142 T00000000=
202303061153 METAR KBFI 061153Z 00000KT 8SM FEW002 01/01 A2995 RMK AO2 SLP142 60000 70013 T00060006 10033 20000 51005=
202303061144 SPECI KBFI 061144Z 00000KT 8SM BKN080 00/00 A2995 RMK AO2 T00000000=
202303061136 SPECI KBFI 061136Z 00000KT 2 1/2SM BR BKN080 01/00 A2995 RMK AO2 VIS 1 1/4V5 T00060000=
202303061053 METAR KBFI 061053Z 00000KT 8SM BKN080 02/01 A2995 RMK AO2 SLP142 T00170011=
202303060953 METAR KBFI 060953Z 00000KT 10SM BKN060 OVC075 01/01 A2995 RMK AO2 SLP141 T00110011=
202303060853 METAR KBFI 060853Z 00000KT 10SM BKN065 02/02 A2994 RMK AO2 SLP137 60000 T00220017 53014=
202303060800 SPECI KBFI 060800Z 14004KT 10SM BKN040 02/02 A2993 RMK AO2 T00220017=
202303060753 METAR KBFI 060753Z 16003KT 10SM OVC028 02/02 A2992 RMK AO2 RAE09 SLP133 P0000 T00220017 400941028=
202303060653 METAR KBFI 060653Z 10003KT 8SM -RA FEW020 OVC028 03/02 A2991 RMK AO2 RAB35 SLP127 P0000 T00330022=
202303060553 METAR KBFI 060553Z 11004KT 10SM OVC049 03/02 A2990 RMK AO2 RAE35 SLP123 P0000 60013 T00330017 10083 20028 51015=
202303060453 METAR KBFI 060453Z 10004KT 8SM -RA BKN017 BKN028 OVC035 03/02 A2989 RMK AO2 SLP121 P0002 T00330022=
202303060353 METAR KBFI 060353Z 14006KT 5SM -RA BR FEW018 OVC023 03/02 A2987 RMK AO2 SLP115 P0009 T00330022=
202303060253 METAR KBFI 060253Z 17010KT 10SM -RA BKN025 BKN038 OVC050 05/02 A2985 RMK AO2 SLP108 P0002 60002 T00500022 53035=
202303060153 METAR KBFI 060153Z 16012G19KT 9SM -RA BKN025 BKN038 OVC050 06/00 A2982 RMK AO2 RAB48 SLP096 P0000 T00610000=
202303060053 METAR KBFI 060053Z 30005KT 10SM BKN060 BKN080 OVC170 08/00 A2976 RMK AO2 SLP078 T00780000=
202303052353 METAR KBFI 052353Z 30008KT 10SM FEW020 SCT060 08/M01 A2975 RMK AO2 SLP073 T00831011 10094 20050 53009=
202303052253 METAR KBFI 052253Z 31007KT 10SM FEW020 SCT060 BKN100 08/01 A2974 RMK AO2 SLP070 T00830006=
202303052153 METAR KBFI 052153Z 32007KT 10SM CLR 09/01 A2973 RMK AO2 SLP066 T00890011=
202303052053 METAR KBFI 052053Z 33006KT 10SM CLR 08/01 A2972 RMK AO2 SLP064 T00780006 57004=
202303051953 METAR KBFI 051953Z 29005KT 10SM FEW070 08/01 A2973 RMK AO2 SLP066 T00780011=
202303051853 METAR KBFI 051853Z VRB04KT 10SM CLR 07/01 A2973 RMK AO2 SLP066 T00670011=
202303051753 METAR KBFI 051753Z 00000KT 10SM FEW030 05/01 A2973 RMK AO2 SLP068 T00500011 10050 21028 51012=
202303051653 METAR KBFI 051653Z 00000KT 10SM CLR 02/M01 A2973 RMK AO2 SLP067 T00171006=
202303051553 METAR KBFI 051553Z 18004KT 10SM SCT016 M01/M01 A2972 RMK AO2 SLP062 T10061011=
202303051453 METAR KBFI 051453Z 14005KT 6SM BR SCT009 BKN070 M02/M03 A2970 RMK AO2 SLP056 T10171028 53010=
202303051440 SPECI KBFI 051440Z 16004KT 7SM SCT004 M02/M03 A2969 RMK AO2 T10221028=
202303051353 METAR KBFI 051353Z 15003KT 10SM BKN065 M02/M02 A2969 RMK AO2 SLP052 T10171017=
202303051253 METAR KBFI 051253Z 00000KT 9SM CLR M01/M02 A2968 RMK AO2 SLP050 T10111017=
202303051153 METAR KBFI 051153Z 00000KT 6SM BR CLR M02/M02 A2967 RMK AO2 SLP046 70013 T10171022 10033 21017 51006=
202303051053 METAR KBFI 051053Z 00000KT 10SM CLR 00/M01 A2966 RMK AO2 SLP045 T00001011=
202303050953 METAR KBFI 050953Z 00000KT 10SM CLR 00/M01 A2966 RMK AO2 SLP044 T00001006=
202303050853 METAR KBFI 050853Z 00000KT 10SM CLR 00/M01 A2965 RMK AO2 SLP040 T00001011 51012=
202303050753 METAR KBFI 050753Z 00000KT 10SM CLR 01/00 A2964 RMK AO2 SLP038 T00110000 400720011=
202303050653 METAR KBFI 050653Z 00000KT 10SM CLR 02/01 A2963 RMK AO2 SLP034 T00220006=
202303050553 METAR KBFI 050553Z 00000KT 10SM FEW075 03/01 A2962 RMK AO2 SLP028 60000 T00330006 10072 20028 51020=
202303050453 METAR KBFI 050453Z 13005KT 10SM BKN075 OVC090 04/01 A2961 RMK AO2 SLP025 T00440006=
202303050353 METAR KBFI 050353Z 15005KT 10SM BKN080 04/01 A2958 RMK AO2 RAB0255E06 SLP016 P0000 T00440006=
202303050253 METAR KBFI 050253Z 17014G20KT 10SM FEW050 BKN080 07/M01 A2956 RMK AO2 SLP008 T00671006 53027=
202303050153 METAR KBFI 050153Z 15010KT 10SM OVC060 07/00 A2952 RMK AO2 SLP995 T00670000=
202303050053 METAR KBFI 050053Z 13006KT 10SM OVC070 07/01 A2949 RMK AO2 SLP985 T00670006=
202303042353 METAR KBFI 042353Z 14007KT 10SM OVC060 07/01 A2947 RMK AO2 SLP981 60001 T00670011 10067 20033 51008=
202303042253 METAR KBFI 042253Z 11009KT 10SM OVC070 07/01 A2947 RMK AO2 RAE03 SLP978 P0000 T00670011=
202303042153 METAR KBFI 042153Z 09004KT 4SM -RA OVC019 06/02 A2946 RMK AO2 RAB21 SLP977 P0000 T00560017=
202303042053 METAR KBFI 042053Z 31003KT 10SM OVC060 07/02 A2945 RMK AO2 SLP972 60001 T00670017 56010=
202303041953 METAR KBFI 041953Z 35004KT 10SM OVC040 06/03 A2945 RMK AO2 SLP974 T00560033=
202303041853 METAR KBFI 041853Z 05003KT 10SM BKN035 04/02 A2946 RMK AO2 RAE17 SLP975 P0001 T00440022=
202303041802 SPECI KBFI 041802Z VRB03KT 6SM -RA BR BKN014 OVC031 03/03 A2947 RMK AO2 P0001 T00330033=
202303041753 METAR KBFI 041753Z 13005KT 8SM -RA FEW016 BKN026 OVC031 03/03 A2948 RMK AO2 SLP982 P0003 60012 T00330033 10039 20028 56015=
202303041653 METAR KBFI 041653Z 11006KT 6SM -RA BR OVC021 03/02 A2949 RMK AO2 SLP986 P0005 T00330017=
202303041553 METAR KBFI 041553Z 00000KT 10SM -RA OVC027 03/02 A2950 RMK AO2 SLP989 P0000 T00330017=
202303041516 SPECI KBFI 041516Z 00000KT 10SM -RA OVC031 03/02 A2951 RMK AO2 P0000 T00330017=
202303041501 SPECI KBFI 041501Z 05003KT 10SM -RA OVC029 03/01 A2952 RMK AO2 P0000 T00330011=
202303041453 METAR KBFI 041453Z 09004KT 10SM -RA OVC030 03/01 A2952 RMK AO2 SLP997 P0000 60004 T00330011 56016=
202303041450 SPECI KBFI 041450Z 09004KT 9SM -RA OVC030 03/01 A2953 RMK AO2 P0000=
202303041353 METAR KBFI 041353Z 7SM -RA OVC026 03/02 A2955 RMK AO2 RAB49 SLP006 P0004 T00330017=
202303041253 METAR KBFI 041253Z 13004KT 10SM FEW038 OVC046 03/02 A2957 RMK AO2 SLP013 T00280017=
202303041153 METAR KBFI 041153Z 16005KT 10SM FEW042 OVC050 03/02 A2959 RMK AO2 SLP018 60024 70030 T00280017 10033 20022 58030=
202303041053 METAR KBFI 041053Z 13005KT 10SM FEW021 BKN045 OVC055 03/02 A2962 RMK AO2 SLP029 T00280017=
202303040953 METAR KBFI 040953Z 14007KT 5SM BR OVC017 03/02 A2965 RMK AO2 SLP041 P0005 T00280017=
202303040853 METAR KBFI 040853Z 13007KT 6SM BR SCT017 OVC020 03/03 A2967 RMK AO2 SLP048 P0008 60019 T00280028 58014=
202303040817 SPECI KBFI 040817Z 12005KT 4SM BR OVC016 03/02 A2969 RMK AO2 P0005 T00280017=
202303040753 METAR KBFI 040753Z 14008KT 4SM BR BKN014 OVC019 02/01 A2970 RMK AO2 SLP055 P0011 T00220011 400670017=
202303040750 SPECI KBFI 040750Z 15009KT 4SM BR BKN014 OVC019 02/01 A2970 RMK AO2 P0011=
202303040702 SPECI KBFI 040702Z 16006KT 4SM BR FEW018 OVC026 03/02 A2971 RMK AO2 P0001 T00330022=
202303040653 METAR KBFI 040653Z 16005KT 5SM BR FEW025 OVC030 03/02 A2972 RMK AO2 SLP062 T00330022=
202303040553 METAR KBFI 040553Z 15005KT 10SM FEW038 OVC050 03/02 A2973 RMK AO2 UPB48E52 SLP067 P0000 60004 T00280017 10039 20017 56023=
202303040453 METAR KBFI 040453Z 13005KT 10SM FEW033 BKN070 03/02 A2975 RMK AO2 RAB00E10 SLP074 P0000 T00280017=
202303040353 METAR KBFI 040353Z 14009KT 10SM OVC016 03/02 A2978 RMK AO2 RAB21E37 SLP083 P0000 T00330017=
202303040253 METAR KBFI 040253Z 13011KT 10SM FEW013 BKN020 BKN032 04/02 A2980 RMK AO2 RAE13 SLP091 P0001 60004 T00390022 56024=
202303040153 METAR KBFI 040153Z 16008KT 4SM -RA BR BKN015 OVC030 04/02 A2982 RMK AO2 SLP098 P0000 T00390022=
202303040053 METAR KBFI 040053Z 14008KT 5SM -RA BR FEW023 OVC034 03/02 A2984 RMK AO2 SLP105 P0003 T00330022=
202303032353 METAR KBFI 032353Z 15011KT 4SM -RA BR FEW013 SCT023 BKN047 04/02 A2987 RMK AO2 RAB07 SLP115 P0000 60002 T00390022 10067 20039 58021=
202303032253 METAR KBFI 032253Z 15010KT 10SM FEW013 SCT022 BKN049 05/02 A2989 RMK AO2 RAB2159E34 SLP122 P0002 T00500022=
202303032153 METAR KBFI 032153Z 18009G18KT 10SM SCT025 OVC040 06/01 A2992 RMK AO2 SLP130 T00560011=
202303032053 METAR KBFI 032053Z 18011G21KT 10SM SCT025 OVC040 06/01 A2993 RMK AO2 SLP136 T00610011 58021=
202303031953 METAR KBFI 031953Z 20008G21KT 10SM BKN018 BKN036 BKN080 06/02 A2996 RMK AO2 PK WND 19027/1934 SLP145 T00610017=
202303031853 METAR KBFI 031853Z 19014G22KT 10SM BKN018 BKN022 07/02 A2998 RMK AO2 SLP152 T00670017=
202303031753 METAR KBFI 031753Z 21009G19KT 10SM BKN017 OVC024 04/01 A3000 RMK AO2 SLP157 T00440011 10044 20033 56005=
202303031653 METAR KBFI 031653Z 18010G19KT 10SM BKN015 OVC022 04/01 A3000 RMK AO2 SLP158 T00390011=
202303031553 METAR KBFI 031553Z 18011G22KT 10SM BKN014 OVC030 03/01 A3000 RMK AO2 SLP159 T00330006=
202303031453 METAR KBFI 031453Z 22009G21KT 10SM BKN014 OVC022 03/01 A3001 RMK AO2 SLP162 T00330006 58002=
202303031353 METAR KBFI 031353Z VRB05G19KT 10SM OVC019 03/01 A3001 RMK AO2 SLP163 T00330006=
202303031253 METAR KBFI 031253Z 20006G15KT 10SM OVC017 04/01 A3002 RMK AO2 SLP166 T00390006=
202303031153 METAR KBFI 031153Z 19010G16KT 10SM BKN020 04/01 A3002 RMK AO2 SLP164 70007 T00390006 10039 20033 58004=
202303031146 SPECI KBFI 031146Z 21006G16KT 10SM BKN020 04/01 A3002 RMK AO2 T00390006=
202303031053 METAR KBFI 031053Z AUTO 21010G21KT 10SM BKN120 04/01 A3002 RMK AO2 SLP166 T00390006=
202303030953 METAR KBFI 030953Z 21008G20KT 10SM SCT019 BKN120 04/01 A3003 RMK AO2 SLP167 T00390006=
202303030853 METAR KBFI 030853Z 19008G17KT 10SM OVC023 04/01 A3003 RMK AO2 SLP168 T00390006 58001=
202303030753 METAR KBFI 030753Z 16008KT 10SM BKN021 03/00 A3003 RMK AO2 SLP168 T00330000 401060028=
202303030700 SPECI KBFI 030700Z 17006KT 10SM BKN021 04/01 A3004 RMK AO2 T00390006=
202303030653 METAR KBFI 030653Z 18005KT 10SM SCT023 04/00 A3004 RMK AO2 SLP171 T00390000=
202303030553 METAR KBFI 030553Z 21008KT 10SM SCT024 04/00 A3003 RMK AO2 SLP169 T00390000 10094 20039 51013=
202303030453 METAR KBFI 030453Z VRB04KT 10SM BKN030 04/00 A3002 RMK AO2 SLP166 T00390000=
202303030410 SPECI KBFI 030410Z 23006KT 10SM BKN024 04/00 A3002 RMK AO2 T00440000=
202303030353 METAR KBFI 030353Z 21004KT 10SM FEW024 BKN032 04/00 A3001 RMK AO2 SLP162 T00440000=
202303030253 METAR KBFI 030253Z 23008KT 10SM BKN030 05/00 A2999 RMK AO2 SLP156 T00500000 53018=
202303030153 METAR KBFI 030153Z 25008G17KT 210V280 10SM BKN042 07/M01 A2997 RMK AO2 SLP149 T00671011=
202303030053 METAR KBFI 030053Z 23007G22KT 10SM FEW030 BKN070 08/M02 A2995 RMK AO2 SLP142 T00831022=
202303022353 METAR KBFI 022353Z 21007KT 170V240 10SM BKN065 09/M01 A2994 RMK AO2 SLP138 60000 T00891006 10106 20061 53008=
202303022253 METAR KBFI 022253Z 19007KT 10SM BKN043 OVC055 10/02 A2992 RMK AO2 SLP132 T01000017=
202303022153 METAR KBFI 022153Z 27006KT 10SM FEW042 SCT070 10/02 A2991 RMK AO2 SLP128 T01000017=
202303022053 METAR KBFI 022053Z 20009G15KT 10SM SCT042 BKN050 09/03 A2992 RMK AO2 RAE05 SLP130 P0000 60000 T00940033=
202303021953 METAR KBFI 021953Z 18006KT 9SM -RA BKN022 BKN028 OVC039 07/04 A2992 RMK AO2 RAB49 SLP131 P0000 T00720039=
202303021853 METAR KBFI 021853Z 20007KT 180V260 10SM SCT014 OVC017 07/03 A2993 RMK AO2 SLP133 T00670033 $=
202303021812 SPECI KBFI 021812Z 21008G18KT 10SM BKN017 06/03 A2991 RMK AO2 T00610028 $=
202303021753 METAR KBFI 021753Z 20007G21KT 10SM OVC017 06/03 A2990 RMK AO2 SLP125 60007 T00610033 10061 20028 53007=
202303021653 METAR KBFI 021653Z 20012G26KT 10SM BKN018 OVC024 04/02 A2988 RMK AO2 PK WND 19039/1619 RAE01 SLP117 P0000 T00440022=
202303021553 METAR KBFI 021553Z 19016G28KT 10SM -RA BKN021 OVC028 04/02 A2986 RMK AO2 PK WND 20028/1548 RAB12 SLP110 P0000 T00440022=
202303021453 METAR KBFI 021453Z 14006KT 3SM BR BKN018 OVC023 03/02 A2988 RMK AO2 RAE40UPB40E53 SLP118 P0003 60007 T00280022 56022=
202303021353 METAR KBFI 021353Z 16008KT 5SM -RA BR OVC014 03/02 A2990 RMK AO2 SLP124 P0003 T00330017=
202303021253 METAR KBFI 021253Z 16009KT 8SM -RA FEW021 OVC027 03/02 A2992 RMK AO2 SLP132 P0001 T00330017=
202303021153 METAR KBFI 021153Z 15013KT 10SM -RA BKN015 BKN037 OVC080 03/01 A2994 RMK AO2 UPB36E53RAB53 SLP140 P0000 60003 70003 T00280011 10044 20028 58035=
202303021053 METAR KBFI 021053Z 16009G19KT 10SM BKN015 03/02 A2998 RMK AO2 SLP153 T00280017=
202303020953 METAR KBFI 020953Z 16013G22KT 10SM OVC015 03/02 A3001 RMK AO2 RAE45 SLP163 P0000 T00330017=
202303020853 METAR KBFI 020853Z 18009G17KT 10SM -RA SCT018 BKN022 OVC029 04/02 A3005 RMK AO2 SLP174 P0000 60003 T00390017 56013=
202303020753 METAR KBFI 020753Z 17011G18KT 10SM -RA SCT019 BKN025 OVC038 04/02 A3006 RMK AO2 RAE02B48 SLP178 P0000 T00390017 400721022=
202303020653 METAR KBFI 020653Z 21007G19KT 5SM -RA BR OVC017 04/02 A3007 RMK AO2 SLP182 P0003 T00390022=
202303020553 METAR KBFI 020553Z 20011G23KT 9SM -RA SCT014 BKN032 OVC080 04/01 A3009 RMK AO2 RAE15B52 SLP187 P0000 60000 T00440006 10072 20044 58004=
202303020453 METAR KBFI 020453Z 19008G17KT 10SM -RA SCT026 OVC036 05/01 A3009 RMK AO2 RAB21 SLP190 P0000 T00500006=
202303020353 METAR KBFI 020353Z 17009KT 10SM SCT050 BKN060 OVC085 05/01 A3010 RMK AO2 SLP193 T00500006=
202303020253 METAR KBFI 020253Z VRB06G16KT 10SM OVC095 06/00 A3010 RMK AO2 SLP192 T00610000 55007=
202303020153 METAR KBFI 020153Z VRB06KT 10SM BKN075 OVC090 07/M01 A3010 RMK AO2 SLP192 T00671006=
202303020053 METAR KBFI 020053Z 20006KT 10SM SCT038 OVC100 07/00 A3010 RMK AO2 SLP192 T00670000=
202303012353 METAR KBFI 012353Z 21005KT 10SM BKN040 OVC110 07/M01 A3012 RMK AO2 SLP199 T00721006 10072 20017 53002=
202303012253 METAR KBFI 012253Z 18007KT 10SM BKN037 OVC100 07/M01 A3012 RMK AO2 SLP197 T00671006=
202303012153 METAR KBFI 012153Z 21004KT 10SM BKN037 06/M01 A3012 RMK AO2 SLP198 T00611006=
202303012053 METAR KBFI 012053Z 22007KT 10SM BKN040 06/00 A3012 RMK AO2 SLP197 T00610000 50005=
202303012051 SPECI KBFI 012051Z 19007KT 10SM BKN040 07/00 A3012 RMK AO2=
202303011953 METAR KBFI 011953Z 00000KT 10SM SCT012 BKN017 BKN065 05/01 A3011 RMK AO2 SLP195 T00500011=
202303011906 SPECI KBFI 011906Z VRB06KT 9SM SCT013 03/01 A3010 RMK AO2 T00330006=
202303011853 METAR KBFI 011853Z 16006KT 9SM BKN013 03/01 A3010 RMK AO2 SLP192 T00330006=
202303011753 METAR KBFI 011753Z 13007KT 7SM OVC009 02/00 A3010 RMK AO2 SLP192 T00170000 10017 21022 53018=
202303011653 METAR KBFI 011653Z 15007KT 5SM BR OVC008 01/M01 A3008 RMK AO2 SLP185 T00061006=
202303011553 METAR KBFI 011553Z 14008KT 7SM OVC009 M01/M01 A3006 RMK AO2 SLP179 T10061011=
202303011453 METAR KBFI 011453Z 17006KT 10SM BKN009 OVC011 M01/M02 A3005 RMK AO2 SLP174 T10111017 51027=
202303011353 METAR KBFI 011353Z 14005KT 3SM BR BKN005 BKN011 M02/M02 A3003 RMK AO2 SLP167 T10171017=
202303011333 SPECI KBFI 011333Z 17004KT 2SM BR BKN002 M01/M02 A3002 RMK AO2 T10111017=
202303011253 METAR KBFI 011253Z 15005KT 1SM BR OVC002 M02/M02 A3001 RMK AO2 SLP161 T10171017=
202303011244 SPECI KBFI 011244Z 15003KT 3SM BR OVC002 M01/M01 A3000 RMK AO2 T10061006=
202303011228 SPECI KBFI 011228Z 15003KT 2SM BR OVC002 M01/M01 A3000 RMK AO2 T10061006=
202303011219 SPECI KBFI 011219Z 12003KT 1 1/2SM BR OVC002 M01/M01 A3000 RMK AO2 VIS 1V2 1/2 T10061006=
202303011200 SPECI KBFI 011200Z 15004KT 1/2SM FZFG VV002 M01/M01 A2998 RMK AO2 PRESRR T10061006=
202303011153 METAR KBFI 011153Z 16004KT 1/4SM FZFG VV002 M01/M01 A2997 RMK AO2 SLP147 70001 T10061006 10000 21017 51028=
202303011053 METAR KBFI 011053Z 00000KT 1/4SM FG VV002 00/00 A2995 RMK AO2 SLP143 T00000000=
202303010953 METAR KBFI 010953Z 00000KT 1/4SM FG VV002 00/00 A2991 RMK AO2 SLP128 T00000000=
202303010853 METAR KBFI 010853Z 00000KT 1/4SM FG VV002 00/00 A2989 RMK AO2 SLP119 T00000000 51027=
202303010841 SPECI KBFI 010841Z 00000KT 1/4SM FG VV002 00/00 A2988 RMK AO2 T00000000=
202303010816 SPECI KBFI 010816Z 00000KT 3/4SM BR VV002 00/00 A2987 RMK AO2 T00000000=
202303010806 SPECI KBFI 010806Z 00000KT 2 1/2SM BR BKN003 00/M01 A2988 RMK AO2 T00001011=
202303010803 SPECI KBFI 010803Z 00000KT 4SM BR SCT003 M01/M01 A2988 RMK AO2 T10061011=
202303010753 METAR KBFI 010753Z 00000KT 8SM CLR M01/M02 A2987 RMK AO2 SLP114 T10111017 400611011=
202303010653 METAR KBFI 010653Z 00000KT 10SM CLR 00/M01 A2984 RMK AO2 SLP104 T00001011=
202303010553 METAR KBFI 010553Z 00000KT 10SM CLR 00/M01 A2981 RMK AO2 SLP092 T00001011 10050 20000 53026=
202303010453 METAR KBFI 010453Z 00000KT 10SM CLR 02/M01 A2977 RMK AO2 SLP081 T00171006=
202303010353 METAR KBFI 010353Z 00000KT 10SM CLR 02/M01 A2975 RMK AO2 SLP073 T00221006=
202303010253 METAR KBFI 010253Z 00000KT 10SM CLR 03/M01 A2973 RMK AO2 SLP066 T00331006 52030=
202303010153 METAR KBFI 010153Z 01003KT 10SM BKN100 04/M01 A2970 RMK AO2 SLP056 T00391006=
202303010053 METAR KBFI 010053Z 01004KT 10SM SCT024 BKN029 04/01 A2967 RMK AO2 SLP045 T00440006=

# No short TAF reports from KBFI in databse.

###################################
#  large TAF from KBFI
###################################
202303312346 TAF KBFI 312346Z 0100/0124 19012G19KT P6SM -RA OVC025 FM010400
                       19010G20KT P6SM -SHRA OVC030 FM011900 22014G22KT
                       P6SM -SHRA BKN050=
202303311737 TAF KBFI 311737Z 3118/0118 17010G18KT P6SM -SHRA SCT025 OVC030
                       FM312100 19014G22KT P6SM -RA BKN030 OVC040
                       FM010000 21012G19KT P6SM -RA OVC025 FM010700
                       20010G20KT P6SM VCSH OVC030=
202303311136 TAF KBFI 311136Z 3112/0112 19008G16KT P6SM -RA BKN030 OVC050 FM311500
                       19012G18KT P6SM -RA SCT025 OVC030 FM312100
                       19014G22KT P6SM -RA BKN030 OVC040 FM010000
                       21012G19KT P6SM -RA OVC025 FM010700 20010G20KT
                       P6SM VCSH OVC030=
202303310908 KBFI 310908Z 3109/0106 17006KT P6SM VCSH FEW030 OVC060 FM311500
                       17006KT P6SM VCSH BKN025 OVC035 FM312100
                       18012G19KT 6SM -RA BR BKN030 OVC035=
202303310531 TAF KBFI 310531Z 3106/0106 21009KT P6SM BKN050 FM310900 18007KT
                       P6SM SCT025 OVC030 FM311500 17006KT P6SM
                       VCSH BKN025 OVC035 FM312100 18012G19KT 6SM
                       -RA BR BKN030 OVC035=
202303310305 KBFI 310305Z 3103/3124 21009KT P6SM BKN050 FM310900 18007KT P6SM
                       SCT025 OVC030 FM311500 17006KT P6SM VCSH
                       BKN025 OVC035 FM312100 18012G19KT 6SM -RA
                       BR BKN030 OVC035=
202303302331 TAF KBFI 302331Z 3100/3124 21011G19KT P6SM BKN050 FM310900 18007KT
                       P6SM SCT025 OVC030 FM311500 17006KT P6SM
                       VCSH BKN025 OVC035 FM312100 18012G19KT 6SM
                       -RA BR BKN030 OVC035=
202303301721 TAF KBFI 301721Z 3018/3118 19009G17KT P6SM SCT020 BKN250
                      TEMPO 3018/3019 BKN025 FM302100 20011G20KT
                       P6SM BKN050 BKN250 FM310300 17008KT P6SM
                       SCT040 OVC050 FM310900 18008KT P6SM SCT025
                       OVC030=
202303301351 KBFI 301351Z 3014/3112 18005KT P6SM SCT020 OVC090
                      TEMPO 3014/3017 BKN020 FM302000 20011G20KT
                       P6SM BKN050 FM310300 22010KT P6SM OVC040
                       FM310900 18008KT P6SM OVC030=
202303301139 TAF KBFI 301139Z 3012/3112 15006KT P6SM OVC090 FM301400 18005KT
                       P6SM FEW025 OVC090
                      TEMPO 3014/3017 BKN025 FM302000 20011G20KT
                       P6SM BKN050 FM310300 22010KT P6SM OVC040
                       FM310900 18008KT P6SM OVC030=
202303300525 TAF KBFI 300525Z 3006/3106 17003KT P6SM BKN100 BKN200 FM301400
                       15003KT P6SM OVC045 FM302000 20009KT P6SM
                       BKN060=
202303292323 TAF KBFI 292323Z 3000/3024 25005KT P6SM BKN080 BKN200 FM300600
                       17003KT P6SM BKN100 BKN200 FM301400 15003KT
                       P6SM OVC045 FM302000 20009KT P6SM BKN060=
202303292053 KBFI 292053Z 2921/3018 31008KT P6SM BKN080 FM300100 25005KT P6SM
                       BKN080 BKN200 FM300900 17003KT P6SM BKN100
                       BKN200 FM301400 15003KT P6SM OVC030=
202303291720 TAF KBFI 291720Z 2918/3018 31004KT P6SM SCT120 FM300100 25005KT
                       P6SM FEW100 BKN200 FM300900 17003KT P6SM
                       BKN100 BKN200 FM301400 15003KT P6SM OVC030=
202303291120 TAF KBFI 291120Z 2912/3012 02004KT P6SM SCT110 FM291800 31004KT
                       P6SM SCT120 BKN200 FM300100 25005KT P6SM
                       SCT120 BKN200 FM300900 20005KT P6SM SCT120
                       BKN200=
202303290521 TAF KBFI 290521Z 2906/3006 VRB04KT P6SM BKN150 FM290900 VRB03KT
                       P6SM SCT120 BKN200 FM291800 31004KT P6SM
                       SCT120 BKN200=
202303282320 TAF KBFI 282320Z 2900/2924 14007KT P6SM SCT120 BKN200 FM290300
                       VRB04KT P6SM BKN150 FM290900 VRB03KT P6SM
                       SCT120 BKN200 FM291800 31004KT P6SM SCT120
                       BKN200=
202303282220 KBFI 282220Z 2822/2918 14010KT P6SM BKN100 FM290500 VRB03KT P6SM
                       BKN100 OVC150 FM291700 31004KT P6SM SCT120
                       BKN200=
202303281723 TAF KBFI 281723Z 2818/2918 04006KT P6SM BKN100 BKN200 FM282200
                       36010KT P6SM BKN100 FM290500 VRB03KT P6SM
                       BKN100 OVC150 FM291700 31004KT P6SM SCT120
                       BKN200=
202303281120 TAF KBFI 281120Z 2812/2912 05006KT P6SM OVC110 FM290100 07005KT
                       P6SM BKN100 OVC150 FM290800 VRB03KT P6SM
                       BKN150=
202303280521 TAF KBFI 280521Z 2806/2906 VRB04KT P6SM BKN200 FM281000 VRB03KT
                       P6SM BKN120 OVC200 FM281500 03006KT P6SM
                       BKN120 FM281900 34010G18KT P6SM BKN120 OVC200
                       FM290100 03005KT P6SM BKN090 OVC200=
202303272338 TAF KBFI 272338Z 2800/2824 11006KT P6SM SCT070 BKN200 FM280500
                       VRB04KT P6SM BKN200 FM281000 VRB03KT P6SM
                       BKN120 OVC200 FM281500 03006KT P6SM BKN120
                       FM281900 34010G16KT P6SM BKN120 OVC200=
202303271740 TAF KBFI 271740Z 2718/2818 35006KT P6SM SCT200 FM280300 VRB03KT
                       P6SM SCT200 FM281000 VRB03KT P6SM SCT120
                       BKN200 FM281500 06002KT P6SM BKN120=
202303271149 TAF KBFI 271149Z 2712/2812 15004KT P6SM SCT250 FM271500 09003KT
                       P6SM SCT035 FM271700 06002KT P6SM SCT035
                       FM272000 35008KT P6SM SCT250 FM280200 10004KT
                       P6SM SCT150 FM280600 06002KT P6SM BKN150=
202303270549 TAF KBFI 270549Z 2706/2806 15006KT P6SM SKC FM271200 VRB02KT P6SM
                       SCT035 FM271900 35008KT P6SM SCT250=
202303262320 TAF KBFI 262320Z 2700/2724 19008KT P6SM VCSH SCT030 BKN050 FM270600
                       15006KT P6SM SCT025 BKN040 FM271200 VRB02KT
                       P6SM SCT050 BKN120 FM271900 33008KT P6SM
                       SCT250=
202303261848 KBFI 261848Z 2619/2718 22005KT P6SM SCT035 BKN050
                      TEMPO 2619/2621 -RA BKN030 OVC050 FM262300
                       19008KT P6SM VCSH BKN050 FM270600 15006KT
                       P6SM BKN060 FM271200 VRB02KT P6SM SCT050
                       BKN120=
202303261720 TAF KBFI 261720Z 2618/2718 19005KT P6SM SCT035 BKN050 FM262300
                       19008KT P6SM VCSH BKN050 FM270600 15006KT
                       P6SM BKN060 FM271200 VRB02KT P6SM SCT050
                       BKN120=
202303261442 KBFI 261442Z 2615/2712 16006KT P6SM BKN015 OVC035
                      TEMPO 2615/2619 SCT015 OVC035 FM261900 18006KT
                       P6SM SCT035 BKN050 FM270300 15006KT P6SM
                       SCT050=
202303261136 TAF KBFI 261136Z 2612/2712 17009KT P6SM OVC015 FM261900 18006KT
                       P6SM SCT035 BKN050 FM270300 15006KT P6SM
                       SCT050=
202303260538 TAF KBFI 260538Z 2606/2706 17006KT P6SM SCT045 FM261200 17006KT
                       P6SM BKN025 FM261800 17006KT P6SM SCT035
                       BKN050 FM270300 14006KT P6SM SCT050=
202303252338 TAF KBFI 252338Z 2600/2624 20008KT P6SM BKN040 FM261000 17004KT
                       P6SM SCT015 BKN025 OVC035 FM262000 19006KT
                       P6SM SCT035 BKN050=
202303251737 TAF KBFI 251737Z 2518/2618 19008KT P6SM SCT015 BKN025 FM252000
                       20010KT P6SM VCSH SCT030 BKN050 FM260700
                       15004KT P6SM VCSH SCT015 BKN020 OVC030=
202303251148 TAF KBFI 251148Z 2512/2612 17006KT P6SM OVC025 FM251700 17008KT
                       P6SM FEW025 OVC035 FM252200 20010KT P6SM
                       VCSH SCT035 BKN050 FM260300 15004KT P6SM
                       SCT035 BKN050=
202303250535 TAF KBFI 250535Z 2506/2606 19010KT P6SM -SHRA SCT020 OVC035 FM250800
                       19010KT P6SM BKN020 OVC030 FM251100 17008KT
                       P6SM BKN011 OVC020 FM251800 17008KT P6SM
                       VCSH SCT015 BKN025 OVC035 FM252200 17008KT
                       P6SM SCT035 BKN050=
202303250300 KBFI 250300Z 2503/2524 19006KT P6SM -SHRA BKN024 OVC035 FM250900
                       16007KT P6SM OVC020 FM251800 18006KT P6SM
                       VCSH BKN030 OVC045 FM252300 20009KT P6SM
                       VCSH BKN035 OVC050=
202303242336 TAF KBFI 242336Z 2500/2524 20013G22KT P6SM VCSH BKN027 OVC045 FM250400
                       19010KT P6SM VCSH BKN027 OVC040 FM251000
                       16007KT P6SM OVC020 FM251800 18006KT P6SM
                       VCSH BKN030 OVC045 FM252300 20009KT P6SM
                       VCSH BKN035 OVC050=
202303241958 KBFI 241958Z 2420/2518 19012G20KT P6SM VCSH BKN022 OVC040 FM242100
                       20012G20KT P6SM -SHRA BKN030 OVC045 FM250400
                       19010KT P6SM VCSH BKN027 OVC040 FM251000
                       16008KT P6SM OVC020=
202303241720 TAF KBFI 241720Z 2418/2518 19011KT P6SM VCSH BKN022 OVC040 FM242100
                       19012KT P6SM -SHRA BKN030 OVC045 FM250400
                       19010KT P6SM VCSH BKN027 OVC040 FM251000
                       16008KT P6SM OVC020=
202303241141 TAF KBFI 241141Z 2412/2512 19010G20KT P6SM VCSH OVC025 FM241700
                       19010G20KT P6SM -SHRA BKN025 OVC040 FM250100
                       21010G18KT P6SM -SHRA OVC040 FM251000 16008KT
                       P6SM BKN025=
202303240538 TAF KBFI 240538Z 2406/2506 19012KT P6SM BKN025 BKN100 FM241200
                       19010KT P6SM VCSH OVC025 FM241700 19010KT
                       P6SM -SHRA SCT025 BKN040 OVC060 FM242100
                       21012G20KT P6SM -SHRA BKN020 OVC040=
202303232320 TAF KBFI 232320Z 2400/2424 19011KT P6SM -SHRA SCT015 BKN030 OVC045
                       FM240400 17008KT P6SM -SHRA BKN035 FM240900
                       17007KT P6SM VCSH OVC027 FM241900 18011KT
                       P6SM -SHRA BKN030 OVC050=
202303232057 KBFI 232057Z 2321/2418 23013G22KT P6SM -SHRA SCT015 BKN030 OVC045
                       FM240100 18014G22KT P6SM -SHRA BKN035 FM240900
                       17007KT P6SM VCSH OVC030=
202303231736 TAF KBFI 231736Z 2318/2418 17010G18KT P6SM VCSH SCT018 OVC035
                      TEMPO 2318/2320 -RA BKN018 OVC030 FM232000
                       18013G22KT P6SM -RA OVC022 FM240100 18014G22KT
                       P6SM -SHRA BKN035 FM240900 17007KT P6SM
                       VCSH OVC030=
202303231140 TAF KBFI 231140Z 2312/2412 19010KT P6SM SCT060 BKN080 FM231600
                       17010G18KT P6SM OVC030 FM231900 18015G25KT
                       P6SM -RA OVC025 FM232300 18014G22KT P6SM
                       -SHRA OVC045 FM241100 17007KT P6SM -SHRA
                       OVC025=
202303230539 TAF KBFI 230539Z 2306/2406 19004KT P6SM OVC080 FM231000 20015KT
                       P6SM OVC030 FM231700 18015G25KT P6SM -RA
                       OVC035 FM232300 18014G21KT P6SM -SHRA OVC045=
202303222334 TAF KBFI 222334Z 2300/2324 25007KT P6SM BKN120 FM230600 19004KT
                       P6SM OVC050 FM231000 20015KT P6SM OVC020
                       FM231700 18015G25KT P6SM -RA OVC035=
202303221731 TAF KBFI 221731Z 2218/2318 00000KT P6SM SCT004 SCT100 FM221900
                       VRB03KT P6SM SKC FM230000 25007KT P6SM BKN120
                       FM230600 19004KT P6SM OVC050 FM231200 17008KT
                       P6SM OVC015=
202303221508 KBFI 221508Z 2215/2312 15003KT 1/4SM FG OVC003 FM221700 VRB03KT
                       P6SM SCT010 FM221900 VRB03KT P6SM SKC FM230000
                       25007KT P6SM BKN120 FM230600 19004KT P6SM
                       OVC050=
202303221335 KBFI 221335Z 2214/2312 00000KT 6SM BR BKN005 FM221500 VRB03KT P6SM
                       SCT010 FM221700 VRB03KT P6SM SKC FM230000
                       25007KT P6SM BKN120 FM230600 19004KT P6SM
                       OVC050=
202303221126 TAF KBFI 221126Z 2212/2312 04003KT P6SM SCT018 FM221300 00000KT
                       P6SM SCT010 FM221700 VRB03KT P6SM SKC FM230000
                       25007KT P6SM BKN120 FM230600 19004KT P6SM
                       OVC050=
202303220523 TAF KBFI 220523Z 2206/2306 34003KT P6SM SCT150 FM221300 00000KT
                       P6SM SCT010 FM221700 VRB03KT P6SM SKC FM230000
                       25007KT P6SM BKN250=
202303212336 TAF KBFI 212336Z 2200/2224 32011KT P6SM SCT035 SCT150 FM220200
                       33003KT P6SM SCT150 FM221300 00000KT P6SM
                       SCT010 FM221700 VRB03KT P6SM SKC=
202303211735 TAF KBFI 211735Z 2118/2218 34004KT 4SM BR SCT008 BKN012 OVC025
                       FM212000 33004KT P6SM BKN030 FM212200 33005KT
                       P6SM SCT035 BKN050 FM220200 33003KT P6SM
                       SCT150=
202303211137 TAF KBFI 211137Z 2112/2212 18006KT P6SM BKN018 OVC035 FM211500
                       VRB03KT P6SM OVC020 FM211900 33004KT P6SM
                       BKN030 FM212100 33005KT P6SM SCT035 BKN050
                       FM220200 33003KT P6SM FEW250=
202303210529 TAF KBFI 210529Z 2106/2206 21005KT P6SM SCT025 BKN050 FM210900
                       16005KT P6SM OVC030 FM211000 15004KT P6SM
                       OVC025 FM211900 33004KT P6SM OVC050=
202303202323 TAF KBFI 202323Z 2100/2124 22010KT P6SM VCSH BKN025 OVC045 FM210900
                       16005KT P6SM OVC030 FM211000 15004KT P6SM
                       OVC025 FM211900 33004KT P6SM OVC050=
202303201740 TAF KBFI 201740Z 2018/2118 17007KT P6SM -SHRA BKN025 OVC040 FM202100
                       20007KT P6SM VCSH OVC045 FM210900 16005KT
                       P6SM OVC030=
202303201131 TAF KBFI 201131Z 2012/2112 00000KT 6SM -RA SCT009 OVC030 FM201600
                       17004KT P6SM -SHRA OVC025 FM202100 20006KT
                       P6SM VCSH OVC045 FM210900 16005KT P6SM OVC030=
202303200520 TAF KBFI 200520Z 2006/2106 18004KT P6SM OVC090 FM200700 19005KT
                       P6SM -RA OVC045 FM201000 15005KT P6SM -RA
                       OVC020 FM201600 17007KT P6SM VCSH OVC025
                       FM202100 19006KT P6SM VCSH OVC040 FM210200
                       16005KT P6SM OVC025=
202303192324 TAF KBFI 192324Z 2000/2024 30005KT P6SM SCT050 OVC090 FM200400
                       16005KT P6SM -RA OVC040 FM201000 VRB03KT
                       P6SM -RA OVC020 FM201600 15007KT P6SM VCSH
                       OVC025 FM202100 20007KT P6SM VCSH OVC025=
202303191735 TAF KBFI 191735Z 1918/2018 30003KT P6SM FEW050 OVC100 FM191900
                       VRB04KT P6SM OVC100 FM192300 17006KT P6SM
                       BKN050 OVC100 FM200400 16005KT P6SM -RA
                       OVC040 FM201000 VRB03KT P6SM -RA OVC020
                       FM201600 18007KT P6SM VCSH OVC025=
202303191125 TAF KBFI 191125Z 1912/2012 VRB03KT P6SM BKN100 OVC250 FM191900
                       VRB04KT P6SM OVC100 FM192300 17006KT P6SM
                       BKN050 OVC100 FM200400 16005KT P6SM -RA
                       OVC040 FM201000 VRB03KT P6SM -RA OVC025=
202303190852 KBFI 190852Z 1909/2006 VRB03KT P6SM BKN100 BKN250 FM191200 08005KT
                       P6SM BKN100 OVC150 FM191800 01003KT P6SM
                       BKN100 OVC150 FM192300 19005KT P6SM BKN050
                       OVC100 FM200500 16005KT P6SM -RA OVC030=
202303190520 TAF KBFI 190520Z 1906/2006 03004KT P6SM SCT200 FM191200 08005KT
                       P6SM BKN100 OVC150 FM191800 01003KT P6SM
                       BKN100 OVC150 FM192300 19005KT P6SM BKN050
                       OVC100 FM200500 16005KT P6SM -RA OVC030=
202303182320 TAF KBFI 182320Z 1900/1924 33006KT P6SM FEW250 FM190300 03005KT
                       P6SM SCT250 FM191200 05005KT P6SM BKN100
                       OVC150 FM192100 13005KT P6SM OVC100=
202303181727 TAF KBFI 181727Z 1818/1918 30004KT P6SM SKC FM190200 VRB03KT P6SM
                       SCT250 FM191200 05003KT P6SM BKN100 OVC150=
202303181120 TAF KBFI 181120Z 1812/1912 VRB03KT P6SM SKC FM181900 31005KT P6SM
                       SKC FM190200 VRB03KT P6SM BKN250=
202303180520 TAF KBFI 180520Z 1806/1906 VRB04KT P6SM BKN200 FM180900 VRB03KT
                       P6SM SCT100 OVC200 FM181200 VRB03KT P6SM
                       BKN100 OVC200 FM181800 33005KT P6SM SCT250
                       FM190200 VRB03KT P6SM SCT250=
202303172320 TAF KBFI 172320Z 1800/1824 VRB04KT P6SM BKN250 FM180900 00000KT
                       P6SM SCT100 OVC200 FM181200 03004KT P6SM
                       BKN100 OVC200 FM181800 03005KT P6SM SCT250=
202303171720 TAF KBFI 171720Z 1718/1818 33004KT P6SM SCT250 FM180300 03004KT
                       P6SM OVC200 FM180900 00000KT P6SM SCT150
                       OVC200 FM181500 03004KT P6SM BKN100 OVC200=
202303171120 TAF KBFI 171120Z 1712/1812 VRB02KT P6SM SCT250 FM171900 29005KT
                       P6SM BKN200 FM180100 VRB03KT P6SM OVC200
                       FM180600 00000KT P6SM SCT150 BKN200=
202303170530 TAF KBFI 170530Z 1706/1806 VRB03KT P6SM SCT250 FM171900 30005KT
                       P6SM BKN200 FM180000 VRB03KT P6SM BKN250=
202303162321 TAF KBFI 162321Z 1700/1724 33009KT P6SM SCT200 FM170500 VRB03KT
                       P6SM SCT200 FM172000 32005KT P6SM BKN200=
202303161720 TAF KBFI 161720Z 1618/1718 35006KT P6SM SCT200 FM170500 VRB03KT
                       P6SM SCT200=
202303161120 TAF KBFI 161120Z 1612/1712 00000KT P6SM SCT250 FM161800 35006KT
                       P6SM BKN250 FM170500 00000KT P6SM SCT250=
202303160853 KBFI 160853Z 1609/1706 00000KT P6SM FEW060 FEW250 FM161200 VRB03KT
                       P6SM BKN250 FM161800 34004KT P6SM BKN250
                       FM162300 32005KT P6SM SKC=
202303160521 TAF KBFI 160521Z 1606/1706 03005KT P6SM BKN050 FM161200 VRB03KT
                       P6SM BKN250 FM161800 34004KT P6SM BKN250
                       FM162300 32005KT P6SM SKC=
202303152320 TAF KBFI 152320Z 1600/1624 VRB04KT P6SM SCT070 FM160300 35003KT
                       P6SM BKN070 FM160600 03005KT P6SM SCT070
                       BKN120 FM161200 VRB03KT P6SM BKN250=
202303151745 TAF KBFI 151745Z 1518/1618 22007KT P6SM SCT030 FM152100 VRB04KT
                       P6SM SCT070 FM160200 35004KT P6SM BKN070
                       FM160600 01005KT P6SM SCT070 BKN120 FM161200
                       VRB04KT P6SM BKN250=
202303151510 KBFI 151510Z 1515/1612 17005KT P6SM VCSH BKN040 FM151800 22007KT
                       P6SM BKN060 FM152100 27005KT P6SM SCT070
                       FM160200 35004KT P6SM SCT070=
202303151125 TAF KBFI 151125Z 1512/1612 17008KT P6SM VCSH SCT025 OVC050
                      TEMPO 1512/1514 -RA BKN025 FM151400 32006KT
                       P6SM VCSH BKN030 OVC060 FM151800 22007KT
                       P6SM BKN060 FM152100 27005KT P6SM BKN070
                       FM160200 35004KT P6SM SCT070=
202303150854 KBFI 150854Z 1509/1606 21005KT P6SM VCSH BKN060 OVC100
                      TEMPO 1509/1513 -SHRA SCT030 FM151400 16005KT
                       P6SM BKN045 FM151800 22007KT P6SM BKN060
                       FM152100 27005KT P6SM BKN050 FM160200 01004KT
                       P6SM BKN060=
202303150538 TAF KBFI 150538Z 1506/1606 VRB03KT P6SM OVC080 FM151100 18004KT
                       P6SM VCSH BKN030 BKN100 FM151500 16005KT
                       P6SM BKN045 FM151800 22007KT P6SM BKN060
                       FM152100 27005KT P6SM BKN050 FM160200 01004KT
                       P6SM BKN060=
202303142330 TAF KBFI 142330Z 1500/1524 25005KT P6SM SCT030 SCT150 FM151100
                       VRB03KT P6SM VCSH BKN030 BKN100 FM151500
                       VRB02KT P6SM BKN045 FM151800 20005KT P6SM
                       BKN050=
202303141743 TAF KBFI 141743Z 1418/1518 16005KT P6SM SCT080 BKN200 FM142100
                       25005KT P6SM SCT070 SCT200 FM151100 VRB03KT
                       P6SM VCSH BKN030 BKN100 FM151500 VRB02KT
                       P6SM BKN040=
202303141125 TAF KBFI 141125Z 1412/1512 16008KT P6SM VCSH SCT025 SCT070 FM141500
                       17005KT P6SM FEW030 SCT070 FM142100 25005KT
                       P6SM SCT070 SCT200 FM150800 VRB03KT P6SM
                       -RA BKN035 BKN100=
202303140853 KBFI 140853Z 1409/1506 16008KT P6SM VCSH SCT025 BKN040
                      TEMPO 1409/1413 -SHRA BKN025 FM141400 19005KT
                       P6SM BKN060 FM141900 23005KT P6SM BKN100
                       FM150000 VRB03KT P6SM SCT100=
202303140544 TAF KBFI 140544Z 1406/1506 18007KT P6SM FEW025 FM141400 19005KT
                       P6SM BKN060 FM141900 23005KT P6SM BKN100
                       FM150000 VRB03KT P6SM SCT100=
202303140216 KBFI 140216Z 1402/1424 20011G17KT P6SM FEW025 BKN070 FM140600 17008KT
                       P6SM BKN070 FM141400 15005KT P6SM BKN050
                       FM142000 22005KT P6SM BKN100=
202303132327 TAF KBFI 132327Z 1400/1424 18008KT P6SM VCSH SCT020 BKN040 FM140100
                       16006KT P6SM VCSH BKN050 BKN070 FM141400
                       15005KT P6SM BKN050 FM142000 22005KT P6SM
                       BKN100=
202303131723 TAF KBFI 131723Z 1318/1418 17007KT P6SM -RA SCT015 OVC030 FM132000
                       18008KT P6SM -SHRA SCT022 OVC040 FM140100
                       16006KT P6SM VCSH BKN050 BKN070 FM141400
                       15005KT P6SM BKN050=
202303131124 TAF KBFI 131124Z 1312/1412 23007KT 5SM -RA SCT015 OVC035 FM132000
                       18008KT P6SM -SHRA SCT022 OVC040 FM140100
                       16006KT P6SM VCSH BKN050 BKN070=
202303130853 KBFI 130853Z 1309/1406 14006KT 6SM -RA OVC030 FM131200 18008KT
                       5SM -RA SCT010 OVC017 FM132000 18006KT P6SM
                       -SHRA SCT018 OVC035 FM140100 16006KT P6SM
                       VCSH BKN040 BKN070=
202303130524 TAF KBFI 130524Z 1306/1406 15005KT P6SM -RA SCT022 OVC035
                      TEMPO 1306/1309 6SM -RA BR OVC022 FM130900
                       16008KT 6SM -RA OVC022 FM131200 18008KT
                       5SM -RA SCT010 OVC017 FM132000 18006KT P6SM
                       -SHRA SCT018 OVC035 FM140100 16006KT P6SM
                       VCSH BKN040 BKN070=
202303122330 TAF KBFI 122330Z 1300/1324 VRB02KT P6SM -RA OVC040 FM130100 17006KT
                       6SM -RA OVC030 FM130900 16008KT 6SM -RA
                       OVC025 FM131600 19011KT 6SM -SHRA OVC015
                       FM132000 20006KT P6SM -SHRA OVC050=
202303121731 TAF KBFI 121731Z 1218/1318 VRB02KT P6SM -RA BKN050 BKN150 FM130000
                       17006KT 6SM -RA OVC030 FM130900 16008KT
                       6SM -RA OVC025 FM131600 19011KT 6SM -SHRA
                       OVC015=
202303121122 TAF KBFI 121122Z 1212/1312 VRB03KT P6SM SCT050 SCT090 FM122000
                       13005KT P6SM -RA OVC050 FM130000 15006KT
                       6SM -RA OVC030 FM130900 16008KT 6SM -RA
                       OVC025=
202303120851 KBFI 120851Z 1209/1306 VRB03KT P6SM SCT050 SCT090 FM122200 13005KT
                       P6SM -RA OVC050 FM130200 15006KT P6SM -RA
                       OVC030=
202303120522 TAF KBFI 120522Z 1206/1306 VRB03KT P6SM SCT090 FM120900 VRB04KT
                       P6SM SCT050 BKN100 FM122200 13005KT P6SM
                       -RA OVC050 FM130200 15006KT P6SM -RA OVC030=
202303120025 KBFI 120025Z 1200/1224 VRB06KT P6SM VCSH SCT035 BKN060 OVC100 FM120300
                       VRB03KT P6SM BKN080 OVC120 FM121200 13002KT
                       P6SM BKN060 FM122200 21006KT P6SM -RA OVC050=
202303112339 TAF KBFI 112339Z 1200/1224 23006KT P6SM VCSH SCT030 BKN050 OVC100
                       FM120300 VRB03KT P6SM BKN080 OVC120 FM121200
                       13002KT P6SM BKN060 FM122200 21006KT P6SM
                       -RA OVC050=
202303111733 TAF KBFI 111733Z 1118/1218 17006KT P6SM VCSH SCT030 BKN050 OVC100
                       FM120300 VRB03KT P6SM BKN080 OVC120=
202303111121 TAF KBFI 111121Z 1112/1212 18005KT P6SM VCSH SCT025 OVC050 FM111400
                       16007KT P6SM VCSH OVC050 FM111800 18006KT
                       P6SM VCSH SCT030 BKN050 FM120300 VRB03KT
                       P6SM BKN080 OVC120=
202303110526 TAF KBFI 110526Z 1106/1206 19008KT P6SM VCSH OVC027 FM111800 18006KT
                       P6SM VCSH SCT030 BKN050 FM120300 VRB03KT
                       P6SM BKN080 OVC120=
202303102321 TAF KBFI 102321Z 1100/1124 20008KT P6SM BKN040 BKN120 FM110600
                       16005KT P6SM OVC030 FM111800 18006KT P6SM
                       SCT030 BKN050=
202303101721 TAF KBFI 101721Z 1018/1118 VRB06KT P6SM SCT015 BKN023 FM102000
                       19006KT P6SM SCT030 BKN045 FM110800 16005KT
                       P6SM SCT025 OVC030=
202303101216 KBFI 101216Z 1012/1112 35005KT P6SM VCSH SCT025 OVC035
                      TEMPO 1012/1016 VRB05KT -SHRA OVC025 FM101600
                       17007KT P6SM VCSH SCT020 BKN030 FM102000
                       19006KT P6SM VCSH SCT030 BKN045 FM110800
                       16005KT P6SM SCT025 OVC030=
202303101120 TAF KBFI 101120Z 1012/1112 11005KT P6SM -RA SCT020 OVC025
                      TEMPO 1012/1016 VRB05KT 5SM -RA BR SCT010
                       OVC020 FM101600 17007KT P6SM VCSH SCT020
                       OVC030 FM102000 19006KT P6SM VCSH SCT030
                       BKN045 FM110800 16005KT P6SM SCT025 OVC030=
202303100520 TAF KBFI 100520Z 1006/1106 09008KT P6SM OVC080 FM100900 04004KT
                       P6SM VCSH BKN050 OVC080 FM101200 12005KT
                       P6SM -RA OVC025 FM102000 19006KT P6SM VCSH
                       SCT030 BKN045=
202303092327 TAF KBFI 092327Z 1000/1024 13013G21KT P6SM BKN070 OVC100 FM100300
                       06006KT P6SM BKN070 OVC100 FM100900 05004KT
                       P6SM BKN050 OVC080 FM101200 12005KT P6SM
                       -RA OVC025 FM101800 19006KT P6SM SCT030
                       BKN050=
202303092200 KBFI 092200Z 0922/1018 13013G23KT P6SM SCT100 BKN200 FM100600 05005KT
                       P6SM BKN050 OVC080 FM101200 12005KT 6SM
                       -RA BR BKN030 OVC050=
202303091722 TAF KBFI 091722Z 0918/1018 00000KT P6SM OVC080 FM092100 07006KT
                       P6SM BKN100 BKN150 FM100600 05005KT P6SM
                       BKN050 OVC080 FM101200 12005KT 6SM -RA BR
                       BKN030 OVC050=
202303091123 TAF KBFI 091123Z 0912/1012 12003KT P6SM SCT050 BKN060 FM091900
                       07009KT P6SM BKN100 BKN150 FM100600 05005KT
                       P6SM BKN050 OVC080 FM101100 12005KT 6SM
                       -RA BR BKN035 OVC050=
202303090542 TAF KBFI 090542Z 0906/1006 12003KT P6SM SCT050 BKN090 FM091800
                       04010KT P6SM BKN100 BKN150 FM092100 07010KT
                       P6SM BKN100 BKN200 FM100300 07008KT P6SM
                       BKN080 OVC200=
202303090259 KBFI 090259Z 0903/0924 15008KT P6SM SCT035 OVC050
                      TEMPO 0903/0905 -SHRA BKN025 OVC035 FM090500
                       12003KT P6SM SCT050 BKN100 FM091800 04010KT
                       P6SM BKN100 BKN150=
202303082320 TAF KBFI 082320Z 0900/0924 19004KT P6SM SCT035 BKN050 BKN120
                      TEMPO 0900/0904 -SHRA BKN025 OVC050 FM090500
                       12003KT P6SM SCT050 BKN100 FM091800 04010KT
                       P6SM BKN100 BKN150=
202303081724 TAF KBFI 081724Z 0818/0918 15003KT P6SM BKN010 OVC050 FM081900
                       18005KT P6SM VCSH BKN050 BKN100 FM090500
                       12004KT P6SM SCT080 BKN100=
202303081423 KBFI 081423Z 0814/0912 16005KT 6SM BR SCT005 BKN070 BKN100
                      TEMPO 0814/0816 2SM BR BKN005 FM081600 16006KT
                       6SM BR BKN025 OVC050 FM081900 18005KT P6SM
                       VCSH BKN050 BKN100 FM090500 12004KT P6SM
                       SCT080 BKN100=
202303081242 KBFI 081242Z 0813/0912 VRB05KT 6SM BR SCT005 BKN070 BKN100
                      TEMPO 0813/0815 1/2SM FG BKN004 FM081600
                       16006KT 6SM BR BKN025 OVC050 FM081900 18005KT
                       P6SM VCSH BKN050 BKN100 FM090500 12004KT
                       P6SM SCT080 BKN100=
202303081207 KBFI 081207Z 0812/0912 VRB03KT P6SM SCT010 BKN070 BKN100
                      TEMPO 0812/0816 3SM BR BKN009 FM081900 18005KT
                       P6SM VCSH BKN050 BKN100 FM090500 12004KT
                       P6SM SCT080 BKN100=
202303081120 TAF KBFI 081120Z 0812/0912 VRB03KT P6SM SCT050 BKN100
                      TEMPO 0815/0818 SCT020 BKN030 FM081900 18005KT
                       P6SM VCSH BKN050 BKN100 FM090500 12004KT
                       P6SM SCT080 BKN100=
202303080520 TAF KBFI 080520Z 0806/0906 VRB03KT P6SM SCT050 BKN120 FM081000
                       VRB03KT P6SM SCT050 BKN100 FM082000 18005KT
                       P6SM VCSH BKN050 BKN100 FM090200 VRB04KT
                       P6SM BKN050=
202303072320 TAF KBFI 072320Z 0800/0824 VRB03KT P6SM FEW025 SCT050 BKN120
                      TEMPO 0800/0804 -SHRA SCT025 BKN035 BKN050
                       FM082000 18005KT P6SM VCSH BKN050 BKN100=
202303071733 TAF KBFI 071733Z 0718/0818 VRB03KT P6SM SCT050 BKN100=
202303071400 KBFI 071400Z 0714/0812 12005KT P6SM VCSH SCT040 BKN070 BKN100 FM072000
                       25005KT P6SM VCSH BKN050 BKN100 FM080300
                       13003KT P6SM SCT050 BKN100=
202303071120 TAF KBFI 071120Z 0712/0812 12006KT P6SM VCSH SCT040 BKN050 BKN100
                       TEMPO 0712/0716 -SHRA BKN015 OVC030 FM072000
                       25005KT P6SM VCSH BKN050 BKN100 FM080300
                       13003KT P6SM SCT050 BKN100=
202303070523 TAF KBFI 070523Z 0706/0806 12006KT P6SM VCSH BKN050 BKN100
                      TEMPO 0706/0708 -RA FM071300 15003KT P6SM
                       VCSH BKN050 BKN100
                      TEMPO 0714/0718 -SHRA OVC050 FM072000 19006KT
                       P6SM VCSH BKN050 BKN100 FM080300 13003KT
                       P6SM SCT050 BKN100=
202303070428 KBFI 070428Z 0704/0724 12005KT P6SM VCSH BKN070 BKN250
                      TEMPO 0704/0706 -RA BKN050 FM070600 00000KT
                       P6SM BKN050 BKN100 FM072000 19006KT P6SM
                       SCT050 BKN100=
202303062322 TAF KBFI 062322Z 0700/0724 20007KT P6SM BKN070 BKN250 FM070600
                       00000KT P6SM BKN050 BKN100 FM072000 19006KT
                       P6SM SCT050 BKN100=
202303061725 TAF KBFI 061725Z 0618/0718 13003KT P6SM SCT008 BKN050 BKN080 FM062000
                       19008KT P6SM BKN050 BKN100 FM070600 00000KT
                       P6SM BKN050 BKN100=
202303061612 KBFI 061612Z 0616/0712 00000KT 3SM BR SCT004
                      TEMPO 0616/0618 1/2SM FG VV002 FM061800 14004KT
                       P6SM BKN100 FM062000 19009KT P6SM BKN050
                       BKN100 FM070400 15007KT P6SM VCSH OVC050=
202303061445 KBFI 061445Z 0615/0712 00000KT P6SM BKN080
                      TEMPO 0615/0616 1/4SM BCFG VV002 FM061600
                       14004KT P6SM BKN100 FM062000 19009KT P6SM
                       BKN050 BKN100 FM070400 15007KT P6SM VCSH
                       OVC050=
202303061400 KBFI 061400Z 0614/0712 00000KT P6SM BKN080
                      TEMPO 0614/0615 1/4SM BCFG VV002 FM061500
                       14004KT P6SM BKN100 FM062000 19009KT P6SM
                       BKN050 BKN100 FM070400 15007KT P6SM VCSH
                       OVC050=
202303061357 KBFI 061357Z 0614/0712 00000KT P6SM BKN080
                      TEMPO 0614/0615 1 1/2SM BR BKN002 FM061500
                       14004KT P6SM BKN100 FM062000 19009KT P6SM
                       BKN050 BKN100 FM070400 15007KT P6SM VCSH
                       OVC050=
202303061313 KBFI 061313Z 0613/0712 00000KT P6SM BKN080
                      TEMPO 0613/0614 1 1/2SM BR BKN003 FM061500
                       14004KT P6SM BKN100 FM062000 19009KT P6SM
                       BKN050 BKN100 FM070400 15007KT P6SM VCSH
                       OVC050=
202303061127 TAF KBFI 061127Z 0612/0712 00000KT P6SM BKN080 FM061500 14004KT
                       P6SM BKN100 FM062000 19009KT P6SM BKN050
                       BKN100 FM070400 15007KT P6SM VCSH OVC050=
202303060536 TAF KBFI 060536Z 0606/0706 12005KT 6SM -SHRA BKN017 OVC045 FM060800
                       14003KT P6SM BKN040 OVC080 FM061100 15003KT
                       6SM BR BKN100 FM062000 19008KT P6SM BKN100=
202303060530 TAF KBFI 060530Z 0606/0706 15010KT P6SM -SHRA BKN025 OVC045 FM060800
                       14003KT P6SM BKN040 OVC080 FM061100 15003KT
                       6SM BR BKN100 FM062000 19008KT P6SM BKN100=
202303060238 KBFI 060238Z 0603/0624 15010KT P6SM -SHRA BKN025 OVC045 FM060800
                       14003KT P6SM BKN040 OVC080 FM061100 15003KT
                       6SM BR BKN100 FM062000 19008KT P6SM BKN100=
202303052331 TAF KBFI 052331Z 0600/0624 34006KT P6SM VCSH SCT060 BKN100
                      TEMPO 0600/0604 -SHRA BKN060 FM060400 15004KT
                       P6SM -SHRA BKN030 OVC045 FM060800 14003KT
                       P6SM BKN040 OVC080 FM061100 15003KT 6SM
                       BR BKN100 FM062000 19008KT P6SM BKN100=
202303052057 KBFI 052057Z 0521/0618 34005KT P6SM FEW020 BKN200 FM060400 15004KT
                       P6SM VCSH OVC050 FM060800 14003KT P6SM VCSH
                       OVC020 FM061700 15003KT P6SM SCT025 BKN040=
202303051724 TAF KBFI 051724Z 0518/0618 VRB04KT P6SM FEW020 BKN150 FM052200
                       34004KT P6SM BKN100 FM060400 15004KT P6SM
                       VCSH OVC050 FM060800 14003KT P6SM VCSH OVC020
                       FM061700 15003KT P6SM SCT025 BKN040=
202303051129 TAF KBFI 051129Z 0512/0612 VRB02KT P6SM FEW070 SCT200 FM051500
                       VRB03KT P6SM SCT030 SCT200 FM051900 35004KT
                       P6SM BKN060 FM060100 31003KT P6SM BKN100=
202303050536 TAF KBFI 050536Z 0506/0606 15004KT P6SM VCSH OVC070 FM050900 14003KT
                       P6SM SCT030 OVC060 FM051900 35004KT P6SM
                       BKN060=
202303042328 TAF KBFI 042328Z 0500/0524 10007KT P6SM VCSH OVC060 FM050400 15004KT
                       P6SM VCSH OVC070 FM050900 14003KT P6SM SCT030
                       OVC060 FM051900 35004KT P6SM BKN060=
202303042052 KBFI 042052Z 0421/0518 VRB05KT P6SM VCSH OVC040
                      TEMPO 0421/0422 -RA FM050400 15004KT P6SM
                       OVC050 FM050900 14003KT P6SM VCSH BKN025
                       OVC040
                      PROB30 0512/0518 -RA=
202303041728 TAF KBFI 041728Z 0418/0518 11007KT P6SM -RA BKN025 OVC035 FM042300
                       14008KT P6SM VCSH BKN030 OVC040 FM050400
                       15004KT P6SM OVC050 FM050900 14003KT P6SM
                       VCSH BKN025 OVC040
                      PROB30 0512/0518 -RA=
202303041125 TAF KBFI 041125Z 0412/0512 13005KT P6SM -RA BKN027 OVC040 FM041900
                       09004KT P6SM VCSH BKN040 OVC050 FM042200
                       13007KT P6SM VCSH SCT035 BKN050 OVC090 FM050400
                       14004KT P6SM OVC050 FM051100 14003KT P6SM
                       VCSH BKN025 OVC040=
202303040714 KBFI 040714Z 0407/0506 15005KT P6SM VCSH BKN025 OVC080 FM040900
                       13004KT 6SM -SHRASN BR SCT015 OVC022 FM041600
                       09004KT P6SM VCSH BKN040 OVC050 FM042200
                       15006KT P6SM VCSH SCT035 BKN050 OVC090=
202303040521 TAF KBFI 040521Z 0406/0506 13005KT P6SM VCSH SCT025 OVC080 FM040900
                       13004KT 6SM -SHRASN BR SCT015 OVC022 FM041600
                       09004KT P6SM VCSH BKN040 OVC050 FM042200
                       15006KT P6SM VCSH SCT035 BKN050 OVC090=
202303032323 TAF KBFI 032323Z 0400/0424 19011KT P6SM -SHRA BKN035 OVC045
                      TEMPO 0400/0402 6SM -SHRA BR BKN022 OVC035
                       FM040200 16006KT 6SM -SHRA BKN020 OVC025
                       FM040900 13004KT 6SM -SHRASN BR SCT015 OVC022
                       FM041600 09004KT P6SM VCSH BKN040 OVC050
                       FM042200 15006KT P6SM VCSH SCT035 BKN050
                       OVC090=
202303032137 KBFI 032137Z 0322/0418 19011KT P6SM -SHRA BKN035 OVC045
                      TEMPO 0322/0401 5SM -SHRA BR BKN022 OVC030
                       FM040200 16006KT P6SM -SHRA BKN025 OVC040
                       FM040900 13004KT 6SM -SHRASN BR SCT010 OVC022
                       FM041600 12004KT P6SM VCSH BKN040 OVC050=
202303031727 TAF KBFI 031727Z 0318/0418 19010G16KT P6SM VCSH BKN020 OVC025 FM032000
                       19011KT P6SM -SHRA BKN030 OVC045 FM040200
                       16006KT P6SM -SHRA BKN025 OVC040 FM040900
                       13004KT 6SM -SHRASN BR SCT010 OVC022 FM041600
                       12004KT P6SM VCSH BKN040 OVC050=
202303031128 TAF KBFI 031128Z 0312/0412 19010G16KT P6SM VCSH BKN020 BKN035 BKN100
                       TEMPO 0312/0316 SCT025 BKN100 FM032000 19011KT
                       P6SM -SHRA BKN030 OVC045 FM040200 16006KT
                       P6SM -SHRA BKN025 OVC040 FM040900 13004KT
                       P6SM -SHRA OVC022=
202303030526 TAF KBFI 030526Z 0306/0406 22005KT P6SM VCSH BKN030 FM031200 18009KT
                       P6SM -SHRA BKN025 OVC035 FM032000 19011KT
                       P6SM -SHRA BKN040 OVC050=
202303022320 TAF KBFI 022320Z 0300/0324 20009G17KT P6SM VCSH BKN040 BKN060 FM030200
                       21009G17KT P6SM BKN040 FM031200 18009KT
                       P6SM -SHRA BKN025 OVC035 FM032000 19011KT
                       P6SM -SHRA BKN040 OVC050=
202303022051 KBFI 022051Z 0221/0318 18009KT P6SM -SHRA BKN030 OVC040 FM022200
                       20009G17KT P6SM SCT030 OVC040 FM030200 21009G17KT
                       P6SM VCSH BKN040 FM031200 18009KT P6SM VCSH
                       BKN025 OVC050=
202303021732 TAF KBFI 021732Z 0218/0318 20014G23KT P6SM -SHRA SCT020 BKN025
                       OVC035 FM022100 21014G25KT P6SM -SHRA BKN040
                       OVC080 FM030200 21009G17KT P6SM VCSH BKN040
                       FM031200 18009KT P6SM VCSH BKN025 OVC050=
202303021358 KBFI 021358Z 0214/0312 17010G16KT P6SM -RA OVC015 FM021800 20014G22KT
                       P6SM -SHRA BKN025 OVC035 FM022100 21010G16KT
                       P6SM VCSH BKN045 BKN100 FM030400 18008KT
                       P6SM VCSH BKN040=
202303021129 TAF KBFI 021129Z 0212/0312 17012G20KT P6SM -RA OVC015 FM021800
                       20014G22KT P6SM -SHRA BKN025 OVC035 FM022100
                       21010G16KT P6SM VCSH BKN045 BKN100 FM030400
                       18008KT P6SM VCSH BKN040=
202303020526 TAF KBFI 020526Z 0206/0306 16010G18KT P6SM -RA BKN030 OVC050 FM021000
                       17014G23KT 5SM -RA BR SCT010 OVC020 FM021800
                       20015G23KT P6SM -SHRA BKN025 OVC035 FM022100
                       19010KT P6SM VCSH BKN050=
202303020258 KBFI 020258Z 0203/0224 19007G15KT P6SM -RA BKN035 OVC050 FM020500
                       16010G20KT P6SM -RA OVC030 FM020800 17014G23KT
                       5SM -RA BR SCT010 OVC020 FM021800 20015G23KT
                       P6SM -SHRA SCT025 OVC035=
202303012324 TAF KBFI 012324Z 0200/0224 19007KT P6SM BKN035 OVC050 FM020500
                       16010G20KT P6SM -RA OVC030 FM020800 17014G23KT
                       5SM -RA BR SCT010 OVC020 FM021800 20015G23KT
                       P6SM -SHRA SCT025 OVC035=
202303011734 TAF KBFI 011734Z 0118/0218 16005KT P6SM BKN009 OVC030
                      TEMPO 0118/0119 5SM BR SCT009 FM011900 19007KT
                       P6SM OVC070 FM020300 17008KT P6SM OVC050
                       FM020600 16010G20KT 6SM -RA BR OVC020 FM021200
                       17012G25KT 5SM -RA BR OVC015=
202303011539 KBFI 011539Z 0116/0212 17005KT 6SM BR BKN010 OVC020
                      TEMPO 0116/0118 3SM BR SCT005 BKN009 FM011800
                       16005KT P6SM SCT010 BKN050 FM012000 19007KT
                       P6SM OVC100 FM020300 17008KT P6SM OVC050
                       FM020900 16010KT P6SM VCSH OVC030=
202303011131 TAF KBFI 011131Z 0112/0212 00000KT 4SM BR SCT004 BKN014 OVC030
                       TEMPO 0112/0116 1/4SM FG VV001 FM011700
                       16005KT P6SM SCT010 BKN050 FM012000 19007KT
                       P6SM OVC100 FM020300 17008KT P6SM OVC050
                       FM020900 16010KT P6SM VCSH OVC030=
202303010813 KBFI 010813Z 0108/0206 00000KT 3SM BR BKN003
                      TEMPO 0109/0113 1/2SM FG VV002 FM011700 17007KT
                       P6SM FEW005 BKN060 FM020400 17008KT P6SM
                       OVC050=
202303010528 TAF KBFI 010528Z 0106/0206 00000KT P6SM SCT025 BKN050 FM011100
                       12003KT P6SM BKN030 OVC050
                      TEMPO 0113/0116 4SM BR FM011800 17007KT P6SM
                       BKN060 FM020400 17008KT P6SM OVC050=