##########################################################
# Query made at 02/17/2025 07:33:19 UTC
# Time interval: from 11/01/2023 00:00  to 11/30/2023 23:59  UTC
##########################################################

##########################################################
# KBFI, Seattle, Seattle Boeing Field (United States)
# WMO index: -----. WIGOS ID: Unknown
# Latitude 47-32-45N. Longitude 122-18-49W. Altitude 5 m.
##########################################################

###################################
#  METAR/SPECI from KBFI
###################################
202311302353 METAR KBFI 302353Z 00000KT 5SM -RA OVC036 06/03 A2980 RMK AO2 RAB2259 SLP090 6//// T00610033 10078 20033 55005 PNO $=
202311302253 METAR KBFI 302253Z 00000KT 7SM OVC046 07/02 A2979 RMK AO2 SLP089 T00720022 PNO $=
202311302153 METAR KBFI 302153Z 00000KT 10SM OVC075 07/01 A2980 RMK AO2 SLP091 T00720011 PNO $=
202311302053 METAR KBFI 302053Z 00000KT 10SM OVC070 07/01 A2982 RMK AO2 SLP096 6//// T00720006 58017 PNO $=
202311301953 METAR KBFI 301953Z 00000KT 10SM SCT047 SCT060 BKN080 07/01 A2983 RMK AO2 SLP102 T00670011 PNO $=
202311301853 METAR KBFI 301853Z 00000KT 5SM HZ OVC075 06/01 A2985 RMK AO2 SLP109 T00560006 PNO $=
202311301753 METAR KBFI 301753Z 00000KT 6SM BR OVC085 03/02 A2987 RMK AO2 SLP113 6//// T00330017 10033 20006 56017 PNO $=
202311301653 METAR KBFI 301653Z 15004KT 6SM BR SCT055 OVC080 03/01 A2988 RMK AO2 SLP116 T00280011=
202311301553 METAR KBFI 301553Z 00000KT 6SM BR SCT075 BKN120 02/01 A2990 RMK AO2 SLP124 T00170006=
202311301453 METAR KBFI 301453Z 00000KT 8SM OVC070 02/01 A2992 RMK AO2 UPB26E36 SLP130 P0000 60000 T00220006 56014=
202311301353 METAR KBFI 301353Z 14005KT 6SM BR OVC070 01/01 A2993 RMK AO2 SLP133 T00110006=
202311301253 METAR KBFI 301253Z 15003KT 10SM FEW002 SCT075 OVC110 01/00 A2994 RMK AO2 SLP139 T00060000=
202311301153 METAR KBFI 301153Z 13003KT 6SM BR OVC110 01/01 A2996 RMK AO2 SLP143 T00110006 10028 20011 56018=
202311301053 METAR KBFI 301053Z 14004KT 5SM BR OVC095 02/01 A2997 RMK AO2 SLP149 T00170006=
202311300953 METAR KBFI 300953Z 14003KT 7SM OVC100 02/01 A2999 RMK AO2 SLP155 T00170006=
202311300853 METAR KBFI 300853Z 00000KT 7SM OVC110 02/01 A3001 RMK AO2 SLP161 T00220006 58014=
202311300753 METAR KBFI 300753Z 11003KT 7SM OVC110 02/01 A3002 RMK AO2 SLP166 T00220006=
202311300653 METAR KBFI 300653Z 15004KT 7SM OVC100 02/01 A3004 RMK AO2 SLP171 T00220006 400391022=
202311300553 METAR KBFI 300553Z 00000KT 8SM OVC100 03/01 A3005 RMK AO2 SLP175 T00280006 10033 20022 58008=
202311300453 METAR KBFI 300453Z 14003KT 9SM OVC080 03/01 A3006 RMK AO2 SLP179 T00280006=
202311300353 METAR KBFI 300353Z 16004KT 10SM FEW070 OVC085 02/01 A3006 RMK AO2 SLP180 T00220006=
202311300253 METAR KBFI 300253Z 00000KT 9SM FEW075 OVC100 02/01 A3007 RMK AO2 SLP183 T00220006 58008=
202311300153 METAR KBFI 300153Z 16005KT 9SM OVC090 02/01 A3009 RMK AO2 SLP188 T00220006=
202311300053 METAR KBFI 300053Z 00000KT 10SM OVC100 03/01 A3009 RMK AO2 SLP189 T00330006=
202311292353 METAR KBFI 292353Z 17003KT 10SM OVC095 03/00 A3010 RMK AO2 SLP191 T00280000 10039 20011 56009=
202311292253 METAR KBFI 292253Z 15003KT 8SM OVC095 03/01 A3011 RMK AO2 SLP194 T00330011=
202311292153 METAR KBFI 292153Z 16003KT 7SM FEW007 OVC090 03/01 A3011 RMK AO2 SLP196 T00330011=
202311292053 METAR KBFI 292053Z 15003KT 7SM FEW007 OVC090 03/02 A3012 RMK AO2 SLP200 T00330017 58012=
202311291953 METAR KBFI 291953Z 00000KT 5SM BR FEW005 OVC080 03/02 A3015 RMK AO2 SLP208 T00280017=
202311291900 SPECI KBFI 291900Z 00000KT 4SM BR FEW003 OVC090 02/02 A3016 RMK AO2 T00220017=
202311291853 METAR KBFI 291853Z 2 1/2SM BR BKN003 OVC090 02/01 A3016 RMK AO2 SLP212 T00170011=
202311291753 METAR KBFI 291753Z 00000KT 2 1/2SM BR BKN003 BKN090 01/01 A3016 RMK AO2 SLP212 T00110011 10011 21006 50002=
202311291653 METAR KBFI 291653Z 17003KT 1/4SM FG VV002 01/01 A3016 RMK AO2 SLP213 T00060006=
202311291553 METAR KBFI 291553Z 14004KT M1/4SM FG VV002 00/00 A3016 RMK AO2 SLP211 T00000000=
202311291453 METAR KBFI 291453Z 14004KT 1/4SM FG VV002 00/00 A3016 RMK AO2 SLP212 T00000000 52002=
202311291353 METAR KBFI 291353Z 00000KT 1/4SM FG VV002 00/00 A3015 RMK AO2 SLP211 T00000000=
202311291253 METAR KBFI 291253Z 00000KT 1/4SM FZFG VV002 M01/M01 A3015 RMK AO2 SLP211 T10061006=
202311291227 SPECI KBFI 291227Z 00000KT 1/4SM FZFG VV002 M01/M01 A3015 RMK AO2 T10061006=
202311291153 METAR KBFI 291153Z 00000KT M1/4SM FZFG VV002 M01/M01 A3015 RMK AO2 SLP210 T10061006 10006 21022 58004=
202311291053 METAR KBFI 291053Z 14003KT M1/4SM FZFG VV002 M01/M01 A3016 RMK AO2 SLP212 T10111011=
202311290953 METAR KBFI 290953Z 14003KT M1/4SM FZFG VV002 M02/M03 A3016 RMK AO2 SLP213 T10171028=
202311290853 METAR KBFI 290853Z 13004KT M1/4SM FZFG VV002 M01/M02 A3016 RMK AO2 SLP213 T10111017 50003=
202311290829 SPECI KBFI 290829Z 14006KT M1/4SM FZFG VV002 M01/M02 A3017 RMK AO2 T10111017=
202311290753 METAR KBFI 290753Z 15003KT 2 1/2SM BR SCT002 M01/M01 A3017 RMK AO2 SLP216 T10061011=
202311290653 METAR KBFI 290653Z 15003KT 3SM BR SCT002 00/M01 A3017 RMK AO2 SLP214 T00001006 400561033=
202311290553 METAR KBFI 290553Z 13003KT 3SM BR SCT002 01/00 A3016 RMK AO2 SLP211 T00060000 10044 20000 55001=
202311290453 METAR KBFI 290453Z 17004KT 3SM BR SCT002 BKN150 00/00 A3015 RMK AO2 SLP209 T00000000=
202311290353 METAR KBFI 290353Z 00000KT 3SM BR SCT002 BKN150 01/00 A3015 RMK AO2 SLP209 T00060000=
202311290253 METAR KBFI 290253Z 00000KT 3SM BR CLR 01/00 A3016 RMK AO2 SLP212 T00060000 57003=
202311290153 METAR KBFI 290153Z 16004KT 3SM BR CLR 01/01 A3016 RMK AO2 SLP213 T00110011=
202311290053 METAR KBFI 290053Z 15004KT 5SM BR SCT001 03/02 A3016 RMK AO2 SLP214 T00280017=
202311282353 METAR KBFI 282353Z 15004KT 4SM BR FEW002 SCT010 BKN250 04/02 A3017 RMK AO2 SLP215 T00390017 10056 20000 56009=
202311282253 METAR KBFI 282253Z 00000KT 6SM HZ FEW002 06/02 A3017 RMK AO2 SLP216 T00560022=
202311282200 SPECI KBFI 282200Z 00000KT 4SM BR SCT002 04/02 A3018 RMK AO2 T00390022=
202311282153 METAR KBFI 282153Z 00000KT 2SM BR SCT002 04/02 A3018 RMK AO2 SLP220 T00390022=
202311282144 SPECI KBFI 282144Z 00000KT 2SM BR SCT002 04/02 A3018 RMK AO2 T00390022=
202311282100 SPECI KBFI 282100Z 16004KT 2SM BR BKN002 03/03 A3019 RMK AO2 T00330028=
202311282053 METAR KBFI 282053Z 17003KT 1SM BR VV003 03/02 A3019 RMK AO2 SLP224 T00280022 58013=
202311282027 SPECI KBFI 282027Z 16003KT 1SM BR OVC002 02/02 A3020 RMK AO2 T00170017=
202311282019 SPECI KBFI 282019Z 00000KT 3/4SM BR VV002 02/02 A3021 RMK AO2 T00170017=
202311281953 METAR KBFI 281953Z 00000KT 1/4SM FG VV002 01/01 A3022 RMK AO2 SLP231 T00060006=
202311281853 METAR KBFI 281853Z 16003KT 1/4SM FG VV002 00/00 A3023 RMK AO2 SLP235 T00000000=
202311281824 SPECI KBFI 281824Z 18003KT 1/4SM FG VV002 00/00 A3023 RMK AO2 T00000000=
202311281753 METAR KBFI 281753Z 00000KT M1/4SM FG VV002 00/M01 A3023 RMK AO2 SLP237 T00001006 10000 21022 51001=
202311281653 METAR KBFI 281653Z 18003KT M1/4SM FZFG VV002 M01/M01 A3023 RMK AO2 SLP237 T10061006=
202311281553 METAR KBFI 281553Z 14004KT M1/4SM FZFG VV002 M01/M01 A3023 RMK AO2 SLP236 T10061006=
202311281549 SPECI KBFI 281549Z 14003KT M1/4SM FZFG VV002 M01/M01 A3023 RMK AO2=
202311281453 METAR KBFI 281453Z 15003KT 1/4SM FZFG VV002 M01/M01 A3022 RMK AO2 SLP232 T10061011 55000=
202311281353 METAR KBFI 281353Z 13003KT 1/4SM FZFG VV002 M02/M02 A3021 RMK AO2 SLP231 T10171017=
202311281341 SPECI KBFI 281341Z 00000KT 1/4SM FZFG VV002 M02/M02 A3022 RMK AO2 T10171017=
202311281253 METAR KBFI 281253Z 13003KT M1/4SM FZFG VV002 M02/M02 A3022 RMK AO2 SLP231 T10171022=
202311281153 METAR KBFI 281153Z 00000KT M1/4SM FZFG VV002 M02/M02 A3022 RMK AO2 SLP232 T10171017 11006 21033 58001=
202311281053 METAR KBFI 281053Z 00000KT M1/4SM FZFG VV002 M01/M01 A3023 RMK AO2 SLP235 T10111011=
202311280953 METAR KBFI 280953Z 00000KT 1/4SM FZFG VV002 M02/M02 A3022 RMK AO2 SLP234 T10221022=
202311280924 SPECI KBFI 280924Z 14004KT 1/4SM FZFG VV002 M02/M02 A3023 RMK AO2 T10221022=
202311280853 METAR KBFI 280853Z 14004KT 1/4SM FZFG VV001 M03/M03 A3022 RMK AO2 SLP234 T10281028 51001=
202311280851 SPECI KBFI 280851Z 13004KT 1/4SM FZFG VV001 M03/M03 A3022 RMK AO2=
202311280842 SPECI KBFI 280842Z 14004KT 1/2SM FZFG VV001 M02/M03 A3022 RMK AO2 T10221028=
202311280753 METAR KBFI 280753Z 13005KT 1/2SM FZFG VV002 M02/M02 A3022 RMK AO2 SLP233 T10221022=
202311280653 METAR KBFI 280653Z 16004KT 6SM BR CLR M03/M03 A3022 RMK AO2 SLP233 T10281033 400831028=
202311280553 METAR KBFI 280553Z 14005KT 7SM CLR M02/M02 A3022 RMK AO2 SLP232 T10171022 10050 21017 53004=
202311280453 METAR KBFI 280453Z 00000KT 6SM BR CLR 01/M01 A3021 RMK AO2 SLP230 T00061006=
202311280353 METAR KBFI 280353Z 13003KT 5SM BR CLR 01/00 A3020 RMK AO2 SLP227 T00060000=
202311280253 METAR KBFI 280253Z 14004KT 3SM BR CLR 00/00 A3021 RMK AO2 SLP228 T00000000 50004=
202311280153 METAR KBFI 280153Z 14004KT 7SM CLR 02/01 A3021 RMK AO2 SLP230 BCFG SE-SW T00170011=
202311280053 METAR KBFI 280053Z 15005KT 7SM CLR 02/02 A3020 RMK AO2 SLP227 T00220017=
202311272353 METAR KBFI 272353Z 15004KT 5SM HZ CLR 06/03 A3020 RMK AO2 SLP224 T00560028 10083 20033 55007=
202311272253 METAR KBFI 272253Z 00000KT 10SM FEW008 07/03 A3019 RMK AO2 SLP224 T00720033=
202311272153 METAR KBFI 272153Z 14005KT 6SM HZ FEW008 07/03 A3020 RMK AO2 SLP227 T00670033=
202311272053 METAR KBFI 272053Z 15005KT 9SM SCT008 07/04 A3022 RMK AO2 SLP232 T00720039 58006=
202311271953 METAR KBFI 271953Z VRB03KT 10SM SCT008 07/04 A3022 RMK AO2 SLP234 T00720039=
202311271929 SPECI KBFI 271929Z VRB04KT 10SM SCT008 07/04 A3023 RMK AO2 T00670039=
202311271853 METAR KBFI 271853Z 35004KT 9SM BKN008 06/03 A3023 RMK AO2 SLP237 T00610033=
202311271753 METAR KBFI 271753Z 00000KT 4SM BR SCT002 BKN008 03/03 A3024 RMK AO2 SLP238 T00330033 10033 21011 53007=
202311271653 METAR KBFI 271653Z 00000KT 4SM BR BKN004 02/02 A3023 RMK AO2 SLP236 T00220022=
202311271553 METAR KBFI 271553Z 13003KT 1/4SM FG VV003 01/01 A3022 RMK AO2 SLP233 T00060006=
202311271453 METAR KBFI 271453Z 00000KT 1/4SM FG VV003 00/00 A3022 RMK AO2 SLP231 T00000000 53002=
202311271353 METAR KBFI 271353Z 00000KT 1/4SM FZFG VV002 M01/M01 A3021 RMK AO2 SLP230 T10061006=
202311271253 METAR KBFI 271253Z 14005KT 1/4SM FZFG OVC002 M01/M01 A3021 RMK AO2 SLP230 T10061011=
202311271207 SPECI KBFI 271207Z 00000KT 1/4SM FZFG OVC002 M01/M01 A3021 RMK AO2 T10111011=
202311271200 SPECI KBFI 271200Z 00000KT 1/2SM FZFG OVC005 M01/M01 A3021 RMK AO2 T10061011=
202311271153 METAR KBFI 271153Z 15003KT 1/4SM FZFG VV002 M01/M01 A3021 RMK AO2 SLP229 T10111011 10022 21011 58002=
202311271148 SPECI KBFI 271148Z 00000KT 1/2SM FZFG VV005 M01/M01 A3021 RMK AO2=
202311271120 SPECI KBFI 271120Z 00000KT 1/4SM FZFG VV002 M01/M01 A3022 RMK AO2 T10061006=
202311271100 SPECI KBFI 271100Z 00000KT M1/4SM FG VV002 00/00 A3022 RMK AO2 T00000000=
202311271053 METAR KBFI 271053Z 00000KT 1/4SM FG VV001 00/00 A3022 RMK AO2 SLP232 T00000000=
202311271022 SPECI KBFI 271022Z 15005KT 1/4SM FZFG VV001 M01/M01 A3022 RMK AO2 T10061011=
202311271007 SPECI KBFI 271007Z 14004KT 1 1/4SM BR VV001 M01/M01 A3022 RMK AO2 T10061011=
202311270953 METAR KBFI 270953Z 00000KT 3SM BR OVC003 M01/M01 A3022 RMK AO2 SLP231 T10061006=
202311270932 SPECI KBFI 270932Z 00000KT 1/4SM FZFG VV003 M01/M01 A3022 RMK AO2 T10111011=
202311270853 METAR KBFI 270853Z 00000KT 10SM FEW002 M01/M01 A3022 RMK AO2 SLP231 T10061011 58000=
202311270753 METAR KBFI 270753Z 00000KT 10SM CLR M01/M01 A3022 RMK AO2 SLP232 T10061006=
202311270730 SPECI KBFI 270730Z 00000KT 10SM CLR 01/00 A3022 RMK AO2 T00060000=
202311270723 SPECI KBFI 270723Z 00000KT 1 3/4SM BR CLR 00/M01 A3022 RMK AO2 T00001006=
202311270653 METAR KBFI 270653Z 00000KT 10SM CLR 01/00 A3022 RMK AO2 SLP232 T00110000 400891022=
202311270553 METAR KBFI 270553Z 00000KT 10SM CLR 02/01 A3022 RMK AO2 SLP232 T00170006 10083 20006 53002=
202311270453 METAR KBFI 270453Z 00000KT 10SM CLR 02/01 A3021 RMK AO2 SLP229 T00220011=
202311270353 METAR KBFI 270353Z 00000KT 10SM CLR 03/02 A3020 RMK AO2 SLP227 T00330022=
202311270253 METAR KBFI 270253Z 00000KT 10SM CLR 04/03 A3021 RMK AO2 SLP230 T00390028 50005=
202311270153 METAR KBFI 270153Z 00000KT 10SM CLR 06/03 A3021 RMK AO2 SLP230 T00560033=
202311270053 METAR KBFI 270053Z 00000KT 10SM CLR 07/03 A3019 RMK AO2 SLP224 T00670033=
202311262353 METAR KBFI 262353Z 31003KT 10SM CLR 08/03 A3019 RMK AO2 SLP224 T00830028 10089 20017 56018=
202311262253 METAR KBFI 262253Z 32003KT 10SM CLR 09/03 A3021 RMK AO2 SLP229 T00890028=
202311262153 METAR KBFI 262153Z 24004KT 10SM CLR 08/03 A3023 RMK AO2 SLP235 T00830033=
202311262053 METAR KBFI 262053Z 00000KT 10SM CLR 07/04 A3025 RMK AO2 SLP242 T00720039 58019=
202311261953 METAR KBFI 261953Z 00000KT 8SM FEW002 06/03 A3027 RMK AO2 SLP251 T00560033=
202311261935 SPECI KBFI 261935Z 00000KT 6SM BR FEW002 04/03 A3028 RMK AO2 T00390033=
202311261853 METAR KBFI 261853Z 00000KT 3/4SM BR OVC002 02/02 A3029 RMK AO2 SLP257 T00220022=
202311261801 SPECI KBFI 261801Z 00000KT 1/4SM FG VV002 02/02 A3031 RMK AO2 T00170017=
202311261753 METAR KBFI 261753Z 00000KT M1/4SM FG VV002 02/02 A3031 RMK AO2 SLP261 T00170017 10017 21011 51001=
202311261653 METAR KBFI 261653Z AUTO 00000KT M1/4SM FG VV002 01/01 A3030 RMK AO2 SLP261 T00060006=
202311261553 METAR KBFI 261553Z 14003KT 1/8SM FG VV002 01/01 A3031 RMK AO2 SLP261 T00060006=
202311261507 SPECI KBFI 261507Z 13003KT 1/8SM FG VV002 01/01 A3031 RMK AO2 T00060006=
202311261500 SPECI KBFI 261500Z 00000KT 1/4SM FG VV002 01/01 A3031 RMK AO2 T00060006=
202311261453 METAR KBFI 261453Z 15003KT 1/8SM FG VV001 00/00 A3030 RMK AO2 SLP261 T00000000 55005=
202311261353 METAR KBFI 261353Z 13003KT 1/8SM FG VV001 00/00 A3030 RMK AO2 SLP260 T00000000=
202311261253 METAR KBFI 261253Z 15005KT 1/8SM FZFG VV001 M01/M01 A3031 RMK AO2 SLP263 T10061006=
202311261153 METAR KBFI 261153Z 14005KT 1/8SM FZFG VV001 M01/M02 A3032 RMK AO2 SLP266 T10111017 10022 21022 58002=
202311261053 METAR KBFI 261053Z 14004KT 2SM BR BKN001 M02/M02 A3032 RMK AO2 SLP267 T10171022=
202311261010 SPECI KBFI 261010Z 14003KT 7SM BKN003 M02/M03 A3032 RMK AO2 T10221028=
202311260953 METAR KBFI 260953Z 00000KT 8SM SCT018 M01/M01 A3032 RMK AO2 SLP267 T10061011=
202311260853 METAR KBFI 260853Z 00000KT 8SM CLR M02/M02 A3032 RMK AO2 SLP268 T10171022 56007=
202311260753 METAR KBFI 260753Z 00000KT 8SM CLR 01/00 A3033 RMK AO2 SLP270 T00060000=
202311260653 METAR KBFI 260653Z 00000KT 9SM CLR 01/00 A3033 RMK AO2 SLP271 T00060000 400831033=
202311260553 METAR KBFI 260553Z 00000KT 10SM CLR 02/01 A3035 RMK AO2 SLP275 T00220006 10083 20006 51001=
202311260453 METAR KBFI 260453Z 00000KT 10SM CLR 02/M01 A3035 RMK AO2 SLP275 T00171006=
202311260353 METAR KBFI 260353Z 00000KT 10SM CLR 05/01 A3035 RMK AO2 SLP278 T00500011=
202311260253 METAR KBFI 260253Z 00000KT 10SM CLR 03/00 A3034 RMK AO2 SLP275 T00280000 53002=
202311260153 METAR KBFI 260153Z 00000KT 10SM CLR 04/00 A3034 RMK AO2 SLP274 T00390000=
202311260053 METAR KBFI 260053Z 00000KT 10SM CLR 06/00 A3033 RMK AO2 SLP271 T00560000=
202311252353 METAR KBFI 252353Z 00000KT 10SM CLR 08/M01 A3034 RMK AO2 SLP273 T00831006 10083 21006 56013=
202311252253 METAR KBFI 252253Z AUTO 02004KT 10SM CLR 08/00 A3034 RMK AO2 SLP275 T00830000=
202311252153 METAR KBFI 252153Z 00000KT 10SM CLR 07/02 A3036 RMK AO2 SLP279 T00720022=
202311252053 METAR KBFI 252053Z 00000KT 10SM CLR 07/02 A3038 RMK AO2 SLP285 T00670022 58013=
202311251953 METAR KBFI 251953Z 00000KT 10SM CLR 04/02 A3039 RMK AO2 SLP291 T00440017=
202311251905 SPECI KBFI 251905Z 00000KT 7SM SCT004 02/01 A3041 RMK AO2 T00170011=
202311251853 METAR KBFI 251853Z 00000KT 4SM BR BKN002 01/01 A3041 RMK AO2 SLP298 T00110011=
202311251849 SPECI KBFI 251849Z 00000KT 3SM BR BKN002 01/01 A3041 RMK AO2=
202311251836 SPECI KBFI 251836Z 00000KT 1SM BR VV002 01/01 A3041 RMK AO2 T00060006=
202311251800 SPECI KBFI 251800Z 16004KT 1/4SM FZFG VV002 M01/M01 A3041 RMK AO2 T10061006=
202311251753 METAR KBFI 251753Z 15003KT 1SM BR VV002 M01/M01 A3041 RMK AO2 SLP298 T10061006 11006 21033 51005=
202311251653 METAR KBFI 251653Z 15003KT 1SM BR OVC003 M01/M01 A3041 RMK AO2 SLP297 T10111011=
202311251553 METAR KBFI 251553Z 00000KT 1SM BR VV002 M01/M01 A3040 RMK AO2 SLP294 T10111011=
202311251453 METAR KBFI 251453Z 14003KT 1/4SM FZFG VV002 M01/M01 A3040 RMK AO2 SLP293 T10061011 50002=
202311251353 METAR KBFI 251353Z 00000KT 2SM BR BKN002 OVC004 M02/M02 A3040 RMK AO2 SLP293 T10171017=
202311251334 SPECI KBFI 251334Z 2SM BR BKN004 M02/M03 A3040 RMK AO2 T10171028=
202311251328 SPECI KBFI 251328Z 15004KT 8SM SCT004 M03/M03 A3040 RMK AO2 T10331033=
202311251253 METAR KBFI 251253Z 00000KT 8SM FEW017 M02/M03 A3040 RMK AO2 SLP292 T10221033=
202311251153 METAR KBFI 251153Z 14003KT 8SM CLR M02/M03 A3039 RMK AO2 SLP291 T10221033 10006 21022 53003=
202311251053 METAR KBFI 251053Z 12003KT 10SM CLR M02/M03 A3039 RMK AO2 SLP289 T10171028=
202311250953 METAR KBFI 250953Z 16004KT 8SM CLR M02/M03 A3038 RMK AO2 SLP288 T10221028=
202311250853 METAR KBFI 250853Z 14005KT 10SM CLR M02/M03 A3039 RMK AO2 SLP289 T10171028 51002=
202311250753 METAR KBFI 250753Z 00000KT 10SM CLR M01/M02 A3038 RMK AO2 SLP288 T10061017=
202311250653 METAR KBFI 250653Z 00000KT 10SM CLR 01/M01 A3038 RMK AO2 SLP288 T00061011 400831011=
202311250553 METAR KBFI 250553Z 17003KT 10SM CLR 00/M02 A3038 RMK AO2 SLP286 T00001017 10078 21006 51003=
202311250453 METAR KBFI 250453Z 00000KT 10SM CLR 01/M01 A3038 RMK AO2 SLP285 T00111011=
202311250353 METAR KBFI 250353Z 00000KT 10SM CLR 02/M01 A3037 RMK AO2 SLP285 T00171011=
202311250253 METAR KBFI 250253Z 00000KT 10SM CLR 03/M01 A3037 RMK AO2 SLP283 T00281011 51005=
202311250153 METAR KBFI 250153Z 00000KT 10SM CLR 04/M01 A3037 RMK AO2 SLP282 T00391011=
202311250053 METAR KBFI 250053Z 00000KT 10SM FEW015 06/M01 A3036 RMK AO2 SLP281 T00611011=
202311242353 METAR KBFI 242353Z 03004KT 10SM CLR 08/M02 A3035 RMK AO2 SLP278 T00781017 10083 20011 56006=
202311242253 METAR KBFI 242253Z 00000KT 10SM CLR 08/M01 A3035 RMK AO2 SLP278 T00831006=
202311242153 METAR KBFI 242153Z VRB03KT 10SM CLR 08/01 A3036 RMK AO2 SLP282 T00780006=
202311242053 METAR KBFI 242053Z VRB04KT 10SM CLR 08/01 A3037 RMK AO2 SLP285 T00780006 58019=
202311241953 METAR KBFI 241953Z 05005KT 10SM CLR 07/01 A3039 RMK AO2 SLP290 T00670006=
202311241853 METAR KBFI 241853Z 18004KT 10SM CLR 03/02 A3042 RMK AO2 SLP299 T00280017=
202311241836 SPECI KBFI 241836Z 15005KT 10SM FEW002 02/02 A3042 RMK AO2 T00220017=
202311241805 SPECI KBFI 241805Z 18003KT 2SM BR BKN002 01/01 A3043 RMK AO2 T00110011=
202311241753 METAR KBFI 241753Z 17004KT 1/2SM FG VV001 01/01 A3043 RMK AO2 SLP304 T00110011 10022 21011 50005=
202311241653 METAR KBFI 241653Z 14005KT 1/8SM FG VV001 00/00 A3043 RMK AO2 SLP304 T00000000=
202311241608 SPECI KBFI 241608Z 15004KT 1/8SM FZFG VV001 M01/M01 A3042 RMK AO2 T10111011=
202311241605 SPECI KBFI 241605Z 16005KT 10SM VV001 M01/M01 A3042 RMK AO2 T10111011=
202311241553 METAR KBFI 241553Z 00000KT 10SM SCT003 00/M01 A3042 RMK AO2 SLP300 T00001006=
202311241453 METAR KBFI 241453Z 00000KT 10SM CLR 01/00 A3042 RMK AO2 SLP299 T00110000 55001=
202311241353 METAR KBFI 241353Z 10SM SCT003 02/01 A3041 RMK AO2 SLP298 T00170011 $=
202311241253 METAR KBFI 241253Z VRB04KT 10SM BKN004 02/02 A3042 RMK AO2 SLP299 T00220017 $=
202311241246 SPECI KBFI 241246Z 03004KT 10SM BKN004 02/02 A3041 RMK AO2 T00220017 $=
202311241153 METAR KBFI 241153Z 00000KT 10SM CLR 02/02 A3042 RMK AO2 SLP300 7//// T00220017 10044 20011 58002 $=
202311241053 METAR KBFI 241053Z 00000KT 10SM CLR 03/02 A3043 RMK AO2 SLP302 T00280022 $=
202311240953 METAR KBFI 240953Z 00000KT 10SM CLR 03/02 A3042 RMK AO2 SLP300 T00330022 $=
202311240853 METAR KBFI 240853Z 00000KT 10SM CLR 03/02 A3042 RMK AO2 SLP301 T00280017 53000 $=
202311240753 METAR KBFI 240753Z 00000KT 10SM CLR 04/03 A3042 RMK AO2 SLP301 T00390028 $=
202311240653 METAR KBFI 240653Z 00000KT 10SM CLR 03/02 A3042 RMK AO2 SLP300 T00330022 401000022 $=
202311240553 METAR KBFI 240553Z 00000KT 10SM CLR 03/01 A3042 RMK AO2 SLP301 T00280011 10089 20022 51005 $=
202311240453 METAR KBFI 240453Z 00000KT 10SM CLR 03/02 A3042 RMK AO2 SLP300 T00330017 $=
202311240353 METAR KBFI 240353Z 06003KT 10SM CLR 05/02 A3041 RMK AO2 SLP298 T00500022 $=
202311240253 METAR KBFI 240253Z 04003KT 10SM FEW030 05/03 A3041 RMK AO2 SLP296 T00500028 51004 $=
202311240153 METAR KBFI 240153Z 04003KT 10SM CLR 06/03 A3040 RMK AO2 SLP295 T00560028 $=
202311240053 METAR KBFI 240053Z 07005KT 10SM SCT027 06/03 A3040 RMK AO2 SLP295 T00610028 $=
202311232353 METAR KBFI 232353Z 01007KT 330V040 10SM FEW027 09/03 A3039 RMK AO2 SLP292 T00890028 10100 20072 55004 $=
202311232253 METAR KBFI 232253Z VRB03KT 10SM FEW035 09/02 A3039 RMK AO2 SLP291 T00940022 $=
202311232153 METAR KBFI 232153Z VRB05KT 10SM CLR 09/02 A3039 RMK AO2 SLP291 T00890022 $=
202311232053 METAR KBFI 232053Z 05007KT 360V080 10SM SCT018 SCT023 08/03 A3041 RMK AO2 SLP296 T00830028 56010 $=
202311232048 SPECI KBFI 232048Z 05007KT 10SM SCT018 SCT023 09/03 A3041 RMK AO2 $=
202311231953 METAR KBFI 231953Z VRB03KT 10SM SCT018 BKN023 08/03 A3042 RMK AO2 SLP302 T00830033 $=
202311231853 METAR KBFI 231853Z 05007KT 10SM SCT018 BKN023 08/03 A3044 RMK AO2 SLP306 T00780033 $=
202311231800 SPECI KBFI 231800Z VRB04KT 10SM SCT018 BKN023 07/03 A3044 RMK AO2 T00720033 $=
202311231753 METAR KBFI 231753Z VRB04KT 10SM SCT018 BKN030 OVC035 07/03 A3044 RMK AO2 SLP308 6//// T00720033 10072 20067 51011 $=
202311231653 METAR KBFI 231653Z 06007KT 10SM SCT018 BKN030 OVC035 07/04 A3044 RMK AO2 SLP306 T00670039 $=
202311231608 SPECI KBFI 231608Z VRB04KT 10SM SCT018 BKN030 OVC035 07/04 A3042 RMK AO2 T00670039 $=
202311231601 SPECI KBFI 231601Z 03004KT 10SM BKN020 OVC030 07/04 A3042 RMK AO2 T00670039 $=
202311231553 METAR KBFI 231553Z 05005KT 9SM SCT018 BKN030 OVC035 07/04 A3042 RMK AO2 SLP300 T00670044 $=
202311231453 METAR KBFI 231453Z 04004KT 10SM FEW014 BKN021 07/04 A3041 RMK AO2 SLP297 6//// T00670044 53001 $=
202311231416 SPECI KBFI 231416Z 05004KT 10SM SCT019 BKN028 OVC036 07/04 A3041 RMK AO2 T00670044 $=
202311231353 METAR KBFI 231353Z 04004KT 10SM SCT016 SCT026 OVC032 07/05 A3040 RMK AO2 SLP295 T00720050 $=
202311231336 SPECI KBFI 231336Z 00000KT 10SM SCT016 OVC032 07/05 A3040 RMK AO2 T00720050 $=
202311231253 METAR KBFI 231253Z VRB03KT 10SM BKN022 OVC043 07/04 A3041 RMK AO2 SLP296 T00720044 $=
202311231232 SPECI KBFI 231232Z 00000KT 10SM BKN022 OVC042 07/05 A3041 RMK AO2 T00720050 $=
202311231153 METAR KBFI 231153Z 00000KT 10SM BKN018 BKN042 06/04 A3041 RMK AO2 SLP297 T00610044 10072 20050 56000=
202311231053 METAR KBFI 231053Z 00000KT 10SM SCT013 SCT018 BKN042 06/04 A3041 RMK AO2 SLP297 T00610044=
202311230953 METAR KBFI 230953Z 07004KT 10SM BKN046 06/04 A3040 RMK AO2 SLP294 T00610044=
202311230853 METAR KBFI 230853Z 00000KT 10SM SCT019 OVC043 07/05 A3041 RMK AO2 SLP297 T00670050 58000=
202311230753 METAR KBFI 230753Z 05003KT 10SM SCT020 OVC045 07/04 A3042 RMK AO2 SLP301 T00670044=
202311230653 METAR KBFI 230653Z VRB03KT 10SM FEW022 OVC042 07/04 A3042 RMK AO2 SLP302 T00720044 401060050=
202311230553 METAR KBFI 230553Z 00000KT 10SM CLR 06/03 A3041 RMK AO2 SLP297 T00560033 10094 20050 53003=
202311230453 METAR KBFI 230453Z 00000KT 10SM CLR 06/03 A3041 RMK AO2 SLP296 T00560033=
202311230353 METAR KBFI 230353Z 00000KT 10SM CLR 07/03 A3040 RMK AO2 SLP295 T00670033=
202311230253 METAR KBFI 230253Z 00000KT 10SM CLR 07/03 A3040 RMK AO2 SLP294 T00720033 56001=
202311230153 METAR KBFI 230153Z 35004KT 10SM CLR 07/03 A3040 RMK AO2 SLP294 T00720028=
202311230053 METAR KBFI 230053Z VRB05KT 10SM CLR 08/02 A3040 RMK AO2 SLP295 T00830022=
202311222353 METAR KBFI 222353Z VRB05KT 10SM BKN031 09/03 A3040 RMK AO2 SLP295 T00940033 10106 20089 53003=
202311222253 METAR KBFI 222253Z 35006KT 10SM BKN032 09/03 A3040 RMK AO2 SLP292 T00940033=
202311222153 METAR KBFI 222153Z VRB03KT 10SM SCT026 BKN031 10/04 A3040 RMK AO2 SLP292 T01000044=
202311222053 METAR KBFI 222053Z VRB03KT 10SM BKN027 BKN032 OVC050 10/06 A3040 RMK AO2 SLP292 T01000056 55001=
202311221953 METAR KBFI 221953Z VRB03KT 10SM SCT016 BKN023 BKN050 09/06 A3039 RMK AO2 SLP291 T00940056=
202311221853 METAR KBFI 221853Z VRB03KT 10SM SCT013 BKN016 OVC024 09/06 A3040 RMK AO2 SLP294 T00940061=
202311221753 METAR KBFI 221753Z 04005KT 10SM BKN019 OVC060 09/06 A3040 RMK AO2 SLP293 T00890061 10089 20083 51013=
202311221653 METAR KBFI 221653Z 02003KT 10SM SCT010 BKN016 BKN030 BKN200 09/07 A3039 RMK AO2 SLP291 T00890067=
202311221553 METAR KBFI 221553Z VRB04KT 10SM SCT010 BKN016 BKN030 BKN200 08/07 A3038 RMK AO2 SLP286 T00830067=
202311221453 METAR KBFI 221453Z VRB03KT 10SM BKN017 BKN023 OVC060 09/08 A3036 RMK AO2 SLP281 T00890078 52013=
202311221353 METAR KBFI 221353Z 00000KT 9SM SCT005 OVC017 09/08 A3035 RMK AO2 SLP276 T00890078=
202311221253 METAR KBFI 221253Z 2 1/2SM BR BKN007 BKN016 OVC022 08/08 A3034 RMK AO2 CIG 004V012 SLP272 T00830078=
202311221153 METAR KBFI 221153Z 00000KT 2 1/2SM BR OVC004 08/08 A3032 RMK AO2 SLP268 60003 70004 T00830083 10089 20083 53013=
202311221131 SPECI KBFI 221131Z 00000KT 2 1/2SM BR OVC004 08/08 A3031 RMK AO2 CIG 002V008 T00830083=
202311221053 METAR KBFI 221053Z 00000KT 2 1/2SM BR BKN009 OVC018 08/08 A3030 RMK AO2 RAB08E24 SLP261 P0000 T00830083=
202311221046 SPECI KBFI 221046Z 00000KT 3SM BR BKN011 OVC018 08/08 A3030 RMK AO2 RAB08E24 P0000 T00830083=
202311221039 SPECI KBFI 221039Z 00000KT 2 1/2SM BR SCT011 OVC018 08/08 A3030 RMK AO2 RAB08E24 P0000 T00830083=
202311221034 SPECI KBFI 221034Z 00000KT 2 1/2SM BR FEW005 BKN009 OVC018 08/08 A3030 RMK AO2 RAB08E24 P0000 T00830083=
202311221009 SPECI KBFI 221009Z 00000KT 2 1/2SM -RA BR FEW006 BKN027 OVC035 08/08 A3029 RMK AO2 RAB08 P0000 T00830078=
202311221005 SPECI KBFI 221005Z 00000KT 2 1/2SM BR FEW013 SCT027 OVC035 08/08 A3029 RMK AO2 T00830078=
202311220955 SPECI KBFI 220955Z 00000KT 2SM BR FEW008 BKN016 OVC035 08/08 A3029 RMK AO2 T00830083=
202311220953 METAR KBFI 220953Z 00000KT 1 3/4SM BR FEW008 BKN014 OVC035 08/08 A3029 RMK AO2 RAE0859B02E50 SLP257 P0000 T00830083=
202311220924 SPECI KBFI 220924Z 00000KT 1 1/2SM -RA BR BKN008 OVC014 08/08 A3029 RMK AO2 RAE0859B02 P0000 T00830083=
202311220906 SPECI KBFI 220906Z 00000KT 1 1/2SM -RA BR OVC010 08/08 A3029 RMK AO2 RAE0859B02 P0000 T00830078=
202311220900 SPECI KBFI 220900Z 00000KT 2SM BR BKN007 OVC012 08/08 A3029 RMK AO2 RAE0859 P0000 T00830078=
202311220853 METAR KBFI 220853Z 00000KT 2 1/2SM -RA BR FEW015 OVC025 08/08 A3029 RMK AO2 SLP255 P0001 60003 T00830083 53003=
202311220753 METAR KBFI 220753Z 00000KT 2 1/2SM -RA BR FEW015 OVC025 08/08 A3027 RMK AO2 SLP251 P0002 T00830078=
202311220715 SPECI KBFI 220715Z 14005KT 2 1/2SM -RA BR FEW019 OVC029 08/08 A3027 RMK AO2 P0000 T00830078=
202311220653 METAR KBFI 220653Z 15004KT 3SM -RA BR FEW019 BKN026 OVC033 08/08 A3028 RMK AO2 SLP251 P0000 T00830078 401280011=
202311220553 METAR KBFI 220553Z 14005KT 4SM -RA BR OVC038 09/07 A3027 RMK AO2 RAB0457 SLP248 P0000 60001 T00890072 10117 20083 51019=
202311220453 METAR KBFI 220453Z 14003KT 10SM OVC045 09/07 A3026 RMK AO2 RAE23 SLP246 P0001 T00890072=
202311220353 METAR KBFI 220353Z 30004KT 8SM -RA OVC060 10/06 A3024 RMK AO2 RAB41 SLP239 P0000 T01000056=
202311220253 METAR KBFI 220253Z 17005KT 10SM OVC075 10/06 A3021 RMK AO2 RAE0155 SLP229 P0000 60000 T01000056 50000=
202311220153 METAR KBFI 220153Z AUTO 16004KT 10SM -RA OVC085 10/06 A3021 RMK AO2 RAB18 SLP231 P0000 T01000056=
202311220053 METAR KBFI 220053Z AUTO 18005KT 10SM OVC110 12/04 A3023 RMK AO2 SLP236 T01170039=
202311212353 METAR KBFI 212353Z 16008KT 10SM SCT120 12/04 A3021 RMK AO2 SLP229 T01170039 10128 20072 58002=
202311212253 METAR KBFI 212253Z 16008KT 10SM CLR 12/04 A3021 RMK AO2 SLP230 T01220039=
202311212153 METAR KBFI 212153Z 17009KT 10SM CLR 13/03 A3022 RMK AO2 SLP232 T01280033=
202311212053 METAR KBFI 212053Z 19004KT 10SM CLR 13/03 A3021 RMK AO2 SLP230 T01280028 57007=
202311211953 METAR KBFI 211953Z 18003KT 10SM CLR 13/03 A3022 RMK AO2 SLP231 T01280033=
202311211853 METAR KBFI 211853Z 09004KT 10SM FEW150 BKN200 BKN250 08/04 A3023 RMK AO2 SLP237 T00830039=
202311211753 METAR KBFI 211753Z 14006KT 10SM CLR 07/04 A3024 RMK AO2 SLP238 T00720044 10072 20011 56000=
202311211653 METAR KBFI 211653Z 00000KT 10SM CLR 04/03 A3024 RMK AO2 SLP239 T00440033=
202311211553 METAR KBFI 211553Z 00000KT 10SM CLR 03/02 A3023 RMK AO2 SLP236 T00330022=
202311211453 METAR KBFI 211453Z 17003KT 10SM CLR 03/02 A3024 RMK AO2 SLP238 T00330022 58004=
202311211353 METAR KBFI 211353Z 15005KT 10SM CLR 02/02 A3024 RMK AO2 SLP241 T00170017=
202311211253 METAR KBFI 211253Z 00000KT 10SM CLR 03/02 A3025 RMK AO2 SLP242 T00280017=
202311211153 METAR KBFI 211153Z 14005KT 10SM CLR 01/01 A3025 RMK AO2 SLP242 T00110006 10044 20011 58004=
202311211053 METAR KBFI 211053Z 08003KT 10SM CLR 03/02 A3026 RMK AO2 SLP246 T00280017=
202311210953 METAR KBFI 210953Z 00000KT 10SM CLR 03/02 A3026 RMK AO2 SLP247 T00280022=
202311210853 METAR KBFI 210853Z 00000KT 10SM CLR 03/02 A3026 RMK AO2 SLP246 T00280017 58026=
202311210753 METAR KBFI 210753Z 00000KT 10SM CLR 04/03 A3029 RMK AO2 SLP257 T00390033=
202311210653 METAR KBFI 210653Z 00000KT 10SM CLR 03/03 A3031 RMK AO2 SLP263 T00330028 401060011=
202311210553 METAR KBFI 210553Z 00000KT 10SM CLR 04/03 A3034 RMK AO2 SLP272 T00390028 10089 20028 58016=
202311210453 METAR KBFI 210453Z 00000KT 10SM CLR 04/02 A3035 RMK AO2 SLP277 T00390022=
202311210353 METAR KBFI 210353Z 00000KT 10SM CLR 05/03 A3037 RMK AO2 SLP284 T00500033=
202311210253 METAR KBFI 210253Z 00000KT 10SM CLR 06/03 A3038 RMK AO2 SLP288 T00560033 58010=
202311210153 METAR KBFI 210153Z 00000KT 10SM CLR 07/04 A3039 RMK AO2 SLP292 T00720039=
202311210053 METAR KBFI 210053Z 31003KT 10SM CLR 08/04 A3040 RMK AO2 SLP295 T00830039=
202311202353 METAR KBFI 202353Z 30004KT 10SM CLR 09/04 A3041 RMK AO2 SLP298 T00940044 10106 20061 58012=
202311202253 METAR KBFI 202253Z 35003KT 10SM CLR 11/02 A3042 RMK AO2 SLP301 T01060022=
202311202153 METAR KBFI 202153Z AUTO VRB04KT 10SM CLR 10/03 A3044 RMK AO2 SLP306 T01000033=
202311202053 METAR KBFI 202053Z AUTO 00000KT 10SM CLR 09/03 A3045 RMK AO2 SLP310 T00890033 58020=
202311201953 METAR KBFI 201953Z AUTO 00000KT 10SM CLR 08/03 A3048 RMK AO2 SLP320 T00780033=
202311201853 METAR KBFI 201853Z 32005KT 10SM FEW005 07/03 A3051 RMK AO2 SLP331 T00720033=
202311201753 METAR KBFI 201753Z 07003KT 10SM SCT005 06/04 A3051 RMK AO2 SLP329 T00610044 10061 20011 58004=
202311201721 SPECI KBFI 201721Z 00000KT 10SM SCT005 04/04 A3052 RMK AO2 T00440039=
202311201653 METAR KBFI 201653Z 00000KT 9SM BKN005 03/02 A3053 RMK AO2 SLP338 T00330022=
202311201600 SPECI KBFI 201600Z 00000KT 10SM BKN005 02/01 A3051 RMK AO2 T00170011=
202311201553 METAR KBFI 201553Z 00000KT 9SM SCT005 02/01 A3051 RMK AO2 SLP331 T00170011=
202311201539 SPECI KBFI 201539Z 00000KT 10SM SCT006 02/02 A3052 RMK AO2 T00220017=
202311201453 METAR KBFI 201453Z 00000KT 10SM CLR 02/01 A3052 RMK AO2 SLP333 T00220011 55009=
202311201353 METAR KBFI 201353Z 00000KT 10SM CLR 02/01 A3051 RMK AO2 SLP332 T00170011=
202311201253 METAR KBFI 201253Z 00000KT 10SM CLR 02/01 A3054 RMK AO2 SLP340 T00220011=
202311201153 METAR KBFI 201153Z 00000KT 10SM CLR 02/01 A3055 RMK AO2 SLP343 T00220011 10072 20022 58003=
202311201053 METAR KBFI 201053Z 00000KT 10SM CLR 03/02 A3056 RMK AO2 SLP347 T00280017=
202311200953 METAR KBFI 200953Z AUTO 00000KT 10SM CLR 04/02 A3055 RMK AO2 SLP345 T00390022=
202311200853 METAR KBFI 200853Z 16003KT 10SM CLR 03/02 A3055 RMK AO2 SLP346 T00330017 51008=
202311200753 METAR KBFI 200753Z 14006KT 10SM CLR 05/03 A3055 RMK AO2 SLP345 T00500028=
202311200653 METAR KBFI 200653Z 16007KT 10SM BKN043 07/03 A3055 RMK AO2 SLP343 T00720033 401170067=
202311200553 METAR KBFI 200553Z 15008KT 10SM BKN040 BKN055 07/04 A3053 RMK AO2 SLP338 T00670039 10089 20067 51016=
202311200453 METAR KBFI 200453Z 15006KT 10SM BKN035 OVC060 07/04 A3053 RMK AO2 SLP338 T00720044=
202311200353 METAR KBFI 200353Z 09007KT 10SM OVC025 08/04 A3051 RMK AO2 SLP331 T00780039=
202311200253 METAR KBFI 200253Z 12005KT 10SM BKN027 08/03 A3048 RMK AO2 SLP322 T00830033 52027=
202311200153 METAR KBFI 200153Z 08008KT 10SM BKN030 BKN038 08/04 A3046 RMK AO2 SLP312 T00780039=
202311200053 METAR KBFI 200053Z 06009KT 10SM BKN041 07/04 A3043 RMK AO2 SLP305 T00720044=
202311192353 METAR KBFI 192353Z 04007KT 10SM BKN036 BKN045 09/05 A3040 RMK AO2 SLP295 60000 T00890050 10117 20089 53030=
202311192253 METAR KBFI 192253Z VRB03KT 10SM FEW034 BKN046 BKN080 11/05 A3037 RMK AO2 RAB22E31 SLP283 P0000 T01060050=
202311192153 METAR KBFI 192153Z 20010G16KT 10SM FEW030 SCT037 OVC049 12/05 A3033 RMK AO2 SLP271 T01170050=
202311192053 METAR KBFI 192053Z 22003KT 10SM OVC028 11/05 A3031 RMK AO2 SLP265 T01060050 51016=
202311191953 METAR KBFI 191953Z 17004KT 10SM OVC034 10/05 A3029 RMK AO2 SLP257 T01000050=
202311191951 SPECI KBFI 191951Z VRB03KT 10SM OVC034 10/05 A3029 RMK AO2=
202311191853 METAR KBFI 191853Z 20005KT 10SM BKN027 OVC034 09/04 A3027 RMK AO2 SLP249 T00940044=
202311191753 METAR KBFI 191753Z 18006KT 10SM OVC020 09/05 A3022 RMK AO2 SLP233 T00890050 10089 20072 51033=
202311191653 METAR KBFI 191653Z 13005KT 10SM BKN023 08/04 A3018 RMK AO2 SLP218 T00830044=
202311191649 SPECI KBFI 191649Z 13006KT 10SM BKN023 BKN049 08/04 A3017 RMK AO2=
202311191553 METAR KBFI 191553Z VRB06KT 10SM FEW020 SCT040 08/05 A3012 RMK AO2 SLP200 T00780050=
202311191453 METAR KBFI 191453Z VRB03KT 10SM SCT020 08/05 A3009 RMK AO2 SLP188 T00780050 52041=
202311191353 METAR KBFI 191353Z 23008KT 10SM OVC020 08/05 A3006 RMK AO2 SLP178 T00830050=
202311191320 SPECI KBFI 191320Z 22009G18KT 10SM BKN023 08/05 A3003 RMK AO2 PRESRR T00830050=
202311191253 METAR KBFI 191253Z 19011G22KT 10SM CLR 09/05 A3000 RMK AO2 SLP157 T00890050=
202311191153 METAR KBFI 191153Z 20009G17KT 10SM FEW022 SCT080 09/06 A2997 RMK AO2 SLP147 60001 70008 T00890056 10100 20078 51067=
202311191053 METAR KBFI 191053Z 21008G22KT 170V250 10SM FEW023 09/06 A2992 RMK AO2 SLP130 T00940056=
202311191000 SPECI KBFI 191000Z 22009G19KT 10SM SCT021 BKN075 OVC095 09/07 A2986 RMK AO2 T00940067=
202311190953 METAR KBFI 190953Z 22012G26KT 10SM SCT008 OVC015 09/07 A2985 RMK AO2 PK WND 19028/0919 PRESRR SLP108 T00940067=
202311190853 METAR KBFI 190853Z 19013G27KT 160V220 10SM SCT008 OVC015 10/07 A2977 RMK AO2 PK WND 19027/0846 RAE03 PRESRR SLP081 P0000 60001 T01000072 53034=
202311190804 SPECI KBFI 190804Z 19010G21KT 10SM SCT008 OVC015 09/08 A2973 RMK AO2 RAE03 P0000 T00940078=
202311190753 METAR KBFI 190753Z 16011G24KT 10SM -RA OVC015 09/08 A2972 RMK AO2 SLP064 P0000 T00890078=
202311190653 METAR KBFI 190653Z 14008KT 4SM -RA BR FEW010 OVC015 08/07 A2970 RMK AO2 SLP056 P0001 T00780072 401110000=
202311190636 SPECI KBFI 190636Z 13007KT 4SM -RA BR BKN015 BKN026 OVC036 08/07 A2968 RMK AO2 P0000 T00780072=
202311190553 METAR KBFI 190553Z 14009KT 4SM -RA BR FEW013 SCT027 OVC035 08/07 A2967 RMK AO2 SLP047 P0005 60007 T00780072 10100 20078 51028=
202311190453 METAR KBFI 190453Z 13007KT 6SM -RA BR OVC035 08/07 A2965 RMK AO2 RAB14 SLP040 P0002 T00830067=
202311190353 METAR KBFI 190353Z 18006KT 10SM OVC060 09/06 A2962 RMK AO2 SLP030 T00890061=
202311190253 METAR KBFI 190253Z 00000KT 10SM FEW090 08/05 A2959 RMK AO2 SLP019 T00780050 55006=
202311190153 METAR KBFI 190153Z 00000KT 10SM SCT120 09/06 A2958 RMK AO2 SLP015 T00890056=
202311190053 METAR KBFI 190053Z 00000KT 10SM SCT100 09/05 A2959 RMK AO2 SLP020 T00940050=
202311182353 METAR KBFI 182353Z 15004KT 10SM CLR 09/05 A2960 RMK AO2 SLP025 T00890050 10111 20061 56024=
202311182253 METAR KBFI 182253Z 00000KT 10SM SCT100 11/06 A2963 RMK AO2 SLP032 T01110061=
202311182153 METAR KBFI 182153Z 00000KT 10SM FEW100 11/07 A2965 RMK AO2 SLP041 T01110067=
202311182053 METAR KBFI 182053Z 00000KT 10SM CLR 11/07 A2968 RMK AO2 SLP049 T01060067 58029=
202311181953 METAR KBFI 181953Z 00000KT 8SM CLR 09/06 A2971 RMK AO2 SLP059 T00940056=
202311181853 METAR KBFI 181853Z 00000KT 9SM CLR 07/04 A2974 RMK AO2 SLP069 T00720044=
202311181753 METAR KBFI 181753Z 00000KT 10SM CLR 06/03 A2976 RMK AO2 SLP078 T00610033 10061 20000 58012=
202311181700 SPECI KBFI 181700Z 00000KT 8SM SCT005 SCT095 03/03 A2978 RMK AO2 T00330028=
202311181653 METAR KBFI 181653Z 00000KT 6SM BR FEW095 03/02 A2978 RMK AO2 SLP084 T00330022=
202311181553 METAR KBFI 181553Z 00000KT 4SM BR CLR 01/01 A2979 RMK AO2 SLP089 T00110006=
202311181453 METAR KBFI 181453Z 00000KT 3SM BR SCT003 00/00 A2980 RMK AO2 SLP090 T00000000 56009=
202311181419 SPECI KBFI 181419Z 00000KT 2SM BR BKN003 02/01 A2980 RMK AO2 T00170011=
202311181353 METAR KBFI 181353Z 00000KT 6SM BR SCT003 01/01 A2980 RMK AO2 SLP092 T00110011=
202311181351 SPECI KBFI 181351Z 00000KT 6SM BR SCT003 02/01 A2980 RMK AO2=
202311181350 SPECI KBFI 181350Z 00000KT 7SM BKN003 02/01 A2980 RMK AO2=
202311181253 METAR KBFI 181253Z 00000KT 5SM BR CLR 02/01 A2982 RMK AO2 SLP099 T00170006=
202311181153 METAR KBFI 181153Z 00000KT 7SM CLR 02/02 A2984 RMK AO2 SLP105 T00220017 10039 20022 58018=
202311181053 METAR KBFI 181053Z 00000KT 9SM CLR 03/02 A2986 RMK AO2 SLP112 T00280017=
202311180953 METAR KBFI 180953Z 00000KT 8SM CLR 03/02 A2988 RMK AO2 SLP118 T00280017=
202311180853 METAR KBFI 180853Z 00000KT 10SM CLR 03/02 A2990 RMK AO2 SLP123 T00280017 58008=
202311180753 METAR KBFI 180753Z 14003KT 10SM CLR 02/02 A2991 RMK AO2 SLP128 T00220017=
202311180653 METAR KBFI 180653Z 00000KT 10SM CLR 03/02 A2991 RMK AO2 SLP128 T00330017 401061006=
202311180553 METAR KBFI 180553Z 00000KT 10SM CLR 04/02 A2992 RMK AO2 SLP130 T00390022 10100 20033 56009=
202311180453 METAR KBFI 180453Z 00000KT 10SM CLR 04/02 A2992 RMK AO2 SLP132 T00440022=
202311180353 METAR KBFI 180353Z 00000KT 10SM CLR 05/03 A2994 RMK AO2 SLP136 T00500028=
202311180253 METAR KBFI 180253Z 00000KT 10SM CLR 07/03 A2994 RMK AO2 SLP139 T00670028 56008=
202311180153 METAR KBFI 180153Z 00000KT 10SM CLR 08/02 A2995 RMK AO2 SLP142 T00780022=
202311180053 METAR KBFI 180053Z 00000KT 10SM CLR 08/02 A2996 RMK AO2 SLP144 T00830022=
202311172353 METAR KBFI 172353Z 30003KT 10SM FEW200 10/02 A2997 RMK AO2 SLP147 T01000017 10106 20061 58018=
202311172253 METAR KBFI 172253Z 32005KT 10SM CLR 10/01 A2998 RMK AO2 SLP153 T01000006=
202311172153 METAR KBFI 172153Z 30003KT 10SM CLR 11/02 A3000 RMK AO2 SLP160 T01060022=
202311172053 METAR KBFI 172053Z 30004KT 10SM CLR 10/02 A3002 RMK AO2 SLP165 T01000017 58021=
202311171953 METAR KBFI 171953Z AUTO 00000KT 10SM CLR 09/02 A3005 RMK AO2 SLP174 T00890022=
202311171853 METAR KBFI 171853Z 00000KT 10SM CLR 08/02 A3007 RMK AO2 SLP183 T00780022=
202311171753 METAR KBFI 171753Z 07004KT 10SM CLR 06/03 A3008 RMK AO2 SLP187 T00610028 10061 21006 58004=
202311171653 METAR KBFI 171653Z 00000KT 7SM CLR 03/02 A3009 RMK AO2 SLP188 T00280022=
202311171553 METAR KBFI 171553Z 00000KT 10SM SCT004 02/01 A3009 RMK AO2 SLP190 T00170011=
202311171453 METAR KBFI 171453Z 00000KT 10SM BKN004 01/01 A3010 RMK AO2 SLP191 T00060006 58003=
202311171439 SPECI KBFI 171439Z 00000KT 10SM BKN004 01/00 A3010 RMK AO2 T00060000=
202311171353 METAR KBFI 171353Z 00000KT 10SM CLR 01/00 A3011 RMK AO2 SLP194 T00060000=
202311171253 METAR KBFI 171253Z 15003KT 7SM CLR 00/M01 A3011 RMK AO2 SLP195 T00001006=
202311171153 METAR KBFI 171153Z 00000KT 8SM CLR 01/M01 A3011 RMK AO2 SLP194 T00061006 10039 20000 58009=
202311171053 METAR KBFI 171053Z 00000KT 9SM CLR 00/M01 A3012 RMK AO2 SLP198 T00001006=
202311170953 METAR KBFI 170953Z 00000KT 10SM CLR 01/00 A3013 RMK AO2 SLP201 T00110000=
202311170853 METAR KBFI 170853Z 00000KT 10SM CLR 02/01 A3013 RMK AO2 SLP203 T00220011 56002=
202311170753 METAR KBFI 170753Z 00000KT 10SM CLR 03/01 A3013 RMK AO2 SLP204 T00280011=
202311170653 METAR KBFI 170653Z 00000KT 10SM CLR 03/01 A3013 RMK AO2 SLP203 T00280011 400940017=
202311170553 METAR KBFI 170553Z 00000KT 10SM CLR 03/01 A3014 RMK AO2 SLP205 T00330011 10083 20033 58004=
202311170453 METAR KBFI 170453Z 00000KT 10SM CLR 04/01 A3014 RMK AO2 SLP206 T00440011=
202311170353 METAR KBFI 170353Z 00000KT 10SM CLR 05/01 A3015 RMK AO2 SLP209 T00500006=
202311170253 METAR KBFI 170253Z 36003KT 10SM CLR 06/01 A3015 RMK AO2 SLP209 T00610006 53011=
202311170153 METAR KBFI 170153Z 34003KT 10SM CLR 07/01 A3014 RMK AO2 SLP206 T00670006=
202311170053 METAR KBFI 170053Z 00000KT 10SM CLR 08/02 A3013 RMK AO2 SLP201 T00780017=
202311162353 METAR KBFI 162353Z VRB03KT 10SM CLR 08/02 A3012 RMK AO2 SLP198 T00830022 10094 20044 55002=
202311162253 METAR KBFI 162253Z 05004KT 10SM CLR 09/03 A3011 RMK AO2 SLP196 T00890033=
202311162153 METAR KBFI 162153Z 06004KT 10SM CLR 09/03 A3012 RMK AO2 SLP199 T00890028=
202311162053 METAR KBFI 162053Z VRB04KT 10SM CLR 08/02 A3012 RMK AO2 SLP200 T00780022 58007=
202311161953 METAR KBFI 161953Z 08006KT 10SM CLR 07/02 A3014 RMK AO2 SLP205 T00720022=
202311161853 METAR KBFI 161853Z VRB04KT 10SM CLR 07/02 A3015 RMK AO2 SLP208 T00670017=
202311161753 METAR KBFI 161753Z 05006KT 10SM CLR 04/01 A3015 RMK AO2 SLP207 T00390011 10039 20017 51009=
202311161653 METAR KBFI 161653Z 00000KT 10SM FEW004 03/02 A3014 RMK AO2 SLP207 T00330017=
202311161553 METAR KBFI 161553Z 00000KT 10SM SCT004 02/02 A3013 RMK AO2 SLP202 T00220017=
202311161453 METAR KBFI 161453Z VRB03KT 10SM SCT006 02/01 A3012 RMK AO2 SLP198 T00220011 53007=
202311161353 METAR KBFI 161353Z 00000KT 10SM SCT004 02/01 A3010 RMK AO2 SLP193 T00220011=
202311161253 METAR KBFI 161253Z VRB03KT 6SM BR SCT005 03/02 A3010 RMK AO2 SLP192 T00280017=
202311161153 METAR KBFI 161153Z 05004KT 9SM SCT005 03/02 A3010 RMK AO2 SLP191 T00280017 10044 20017 53011=
202311161053 METAR KBFI 161053Z 00000KT 9SM CLR 03/02 A3008 RMK AO2 SLP184 T00330022=
202311160953 METAR KBFI 160953Z 00000KT 10SM CLR 03/02 A3006 RMK AO2 SLP180 T00330022=
202311160853 METAR KBFI 160853Z 00000KT 8SM CLR 02/01 A3007 RMK AO2 SLP180 T00220011 50003=
202311160753 METAR KBFI 160753Z 00000KT 10SM CLR 04/03 A3007 RMK AO2 SLP181 T00440028=
202311160653 METAR KBFI 160653Z 00000KT 10SM CLR 04/03 A3007 RMK AO2 SLP181 T00440028 400940011=
202311160553 METAR KBFI 160553Z 00000KT 9SM CLR 04/02 A3006 RMK AO2 SLP177 T00390022 10083 20033 51013=
202311160453 METAR KBFI 160453Z 10004KT 10SM CLR 05/03 A3005 RMK AO2 SLP174 T00500028=
202311160353 METAR KBFI 160353Z 00000KT 10SM CLR 06/02 A3004 RMK AO2 SLP170 T00560022=
202311160253 METAR KBFI 160253Z 01003KT 10SM FEW100 06/02 A3002 RMK AO2 SLP164 T00610022 53018=
202311160153 METAR KBFI 160153Z VRB03KT 10SM SCT047 07/02 A2999 RMK AO2 SLP156 T00670017=
202311160053 METAR KBFI 160053Z 00000KT 10SM FEW047 07/02 A2998 RMK AO2 SLP153 T00720017=
202311152353 METAR KBFI 152353Z 01004KT 10SM FEW015 08/02 A2997 RMK AO2 SLP147 T00830022 10094 20056 53000=
202311152253 METAR KBFI 152253Z 35004KT 10SM CLR 09/02 A2996 RMK AO2 SLP144 T00890022=
202311152153 METAR KBFI 152153Z 31008KT 10SM CLR 08/03 A2995 RMK AO2 SLP142 T00830028=
202311152053 METAR KBFI 152053Z 10SM CLR 08/02 A2996 RMK AO2 SLP146 T00780022 56007=
202311151953 METAR KBFI 151953Z 00000KT 10SM BKN045 BKN120 BKN170 07/02 A2997 RMK AO2 SLP147 T00720022=
202311151853 METAR KBFI 151853Z 00000KT 10SM BKN035 BKN045 BKN170 07/02 A2997 RMK AO2 SLP150 T00670022=
202311151753 METAR KBFI 151753Z 36003KT 10SM SCT039 06/02 A2999 RMK AO2 SLP153 T00610022 10061 20033 51006=
202311151653 METAR KBFI 151653Z 00000KT 10SM BKN130 05/03 A2998 RMK AO2 SLP152 T00500028=
202311151553 METAR KBFI 151553Z 00000KT 6SM BR FEW037 03/03 A2998 RMK AO2 SLP151 T00330028=
202311151453 METAR KBFI 151453Z 15004KT 10SM FEW030 OVC120 04/03 A2997 RMK AO2 SLP148 T00390028 53002=
202311151353 METAR KBFI 151353Z 00000KT 10SM BKN041 04/03 A2997 RMK AO2 SLP148 T00440033=
202311151300 SPECI KBFI 151300Z 00000KT 10SM BKN040 04/03 A2997 RMK AO2 T00440033=
202311151253 METAR KBFI 151253Z 00000KT 10SM OVC006 04/03 A2996 RMK AO2 SLP145 T00440033=
202311151203 SPECI KBFI 151203Z 00000KT 10SM OVC006 04/03 A2995 RMK AO2 T00440033=
202311151153 METAR KBFI 151153Z 00000KT 10SM FEW011 OVC043 04/03 A2996 RMK AO2 SLP146 T00440033 10044 20011 58005=
202311151100 SPECI KBFI 151100Z 00000KT 10SM OVC048 03/03 A2997 RMK AO2 T00330028=
202311151053 METAR KBFI 151053Z 00000KT 10SM OVC004 03/02 A2997 RMK AO2 SLP149 T00280022=
202311150953 METAR KBFI 150953Z 15003KT 10SM OVC004 02/02 A2998 RMK AO2 SLP152 T00220017=
202311150853 METAR KBFI 150853Z 00000KT 10SM OVC004 02/01 A2998 RMK AO2 SLP151 T00220011 56008=
202311150824 SPECI KBFI 150824Z 00000KT 9SM OVC004 02/01 A2998 RMK AO2 T00170011=
202311150809 SPECI KBFI 150809Z 00000KT 9SM BKN005 02/02 A2998 RMK AO2 T00220017=
202311150753 METAR KBFI 150753Z 00000KT 9SM SCT006 02/01 A2998 RMK AO2 SLP152 T00170011=
202311150732 SPECI KBFI 150732Z 00000KT 4SM BR SCT006 02/01 A2999 RMK AO2 T00170011=
202311150653 METAR KBFI 150653Z 00000KT 8SM CLR 02/01 A2999 RMK AO2 SLP156 T00170011 400940011=
202311150553 METAR KBFI 150553Z 00000KT 10SM CLR 03/02 A3000 RMK AO2 SLP159 T00280022 10083 20017 55001=
202311150453 METAR KBFI 150453Z 00000KT 10SM CLR 04/03 A3000 RMK AO2 SLP158 T00440028=
202311150353 METAR KBFI 150353Z 00000KT 10SM CLR 04/02 A3001 RMK AO2 SLP160 T00390017=
202311150253 METAR KBFI 150253Z 00000KT 10SM CLR 06/02 A3001 RMK AO2 SLP160 T00560022 55006=
202311150153 METAR KBFI 150153Z VRB03KT 10SM CLR 07/02 A3000 RMK AO2 SLP157 T00670017=
202311150053 METAR KBFI 150053Z 00000KT 10SM CLR 08/02 A3001 RMK AO2 SLP160 T00780017=
202311142353 METAR KBFI 142353Z 30003KT 10SM CLR 08/03 A3002 RMK AO2 SLP166 T00830028 10094 20061 55004=
202311142253 METAR KBFI 142253Z 31006KT 10SM CLR 09/01 A3001 RMK AO2 SLP163 T00940006=
202311142153 METAR KBFI 142153Z 30006KT 10SM CLR 09/01 A3002 RMK AO2 SLP165 T00890011=
202311142053 METAR KBFI 142053Z VRB05KT 10SM CLR 09/03 A3003 RMK AO2 SLP170 T00890033 56022=
202311141953 METAR KBFI 141953Z VRB03KT 10SM CLR 08/04 A3005 RMK AO2 SLP176 T00830039=
202311141900 SPECI KBFI 141900Z 00000KT 10SM CLR 08/04 A3008 RMK AO2 T00780039=
202311141853 METAR KBFI 141853Z 28003KT 10SM BKN014 07/04 A3008 RMK AO2 SLP184 T00720039=
202311141753 METAR KBFI 141753Z 00000KT 10SM BKN014 06/03 A3010 RMK AO2 SLP192 T00610033 10061 20017 58002=
202311141653 METAR KBFI 141653Z 00000KT 10SM CLR 03/02 A3011 RMK AO2 SLP196 T00330022=
202311141553 METAR KBFI 141553Z 00000KT 10SM SCT015 03/02 A3011 RMK AO2 SLP197 T00280017=
202311141453 METAR KBFI 141453Z 00000KT 10SM CLR 03/02 A3011 RMK AO2 SLP194 T00280017 58006=
202311141353 METAR KBFI 141353Z 00000KT 10SM SCT006 03/02 A3012 RMK AO2 SLP199 T00280022=
202311141253 METAR KBFI 141253Z 00000KT 10SM SCT006 02/01 A3013 RMK AO2 SLP201 T00170011=
202311141153 METAR KBFI 141153Z 00000KT 10SM SCT006 02/02 A3013 RMK AO2 SLP201 T00220022 10050 20011 56016=
202311141150 SPECI KBFI 141150Z 00000KT 10SM BKN006 03/02 A3013 RMK AO2=
202311141053 METAR KBFI 141053Z 00000KT 10SM SCT006 03/02 A3013 RMK AO2 SLP204 T00280022=
202311141002 SPECI KBFI 141002Z 00000KT 10SM BKN010 03/02 A3017 RMK AO2 T00280022=
202311141000 SPECI KBFI 141000Z 00000KT 10SM CLR 02/02 A3017 RMK AO2 T00220022=
202311140953 METAR KBFI 140953Z 14003KT 10SM BKN010 02/02 A3017 RMK AO2 SLP216 T00170017=
202311140853 METAR KBFI 140853Z 00000KT 10SM SCT007 04/03 A3016 RMK AO2 SLP214 T00390033 58004=
202311140828 SPECI KBFI 140828Z 00000KT 10SM SCT007 04/04 A3017 RMK AO2 T00440039=
202311140800 SPECI KBFI 140800Z 18003KT 10SM OVC006 03/03 A3017 RMK AO2 T00330033=
202311140753 METAR KBFI 140753Z 14004KT 10SM CLR 03/03 A3018 RMK AO2 SLP219 T00330033=
202311140653 METAR KBFI 140653Z 00000KT 10SM CLR 04/04 A3017 RMK AO2 SLP216 T00440039 401170022=
202311140553 METAR KBFI 140553Z 00000KT 10SM CLR 05/04 A3018 RMK AO2 SLP218 T00500039 10106 20044 53013=
202311140453 METAR KBFI 140453Z 00000KT 10SM CLR 06/04 A3015 RMK AO2 SLP210 T00610044=
202311140353 METAR KBFI 140353Z 00000KT 10SM CLR 06/04 A3014 RMK AO2 SLP207 T00560039=
202311140253 METAR KBFI 140253Z 00000KT 10SM CLR 08/04 A3014 RMK AO2 SLP205 T00780044 51004=
202311140153 METAR KBFI 140153Z 00000KT 10SM CLR 09/04 A3013 RMK AO2 SLP204 T00890039=
202311140053 METAR KBFI 140053Z VRB03KT 10SM SCT060 BKN090 09/04 A3013 RMK AO2 SLP202 T00940044=
202311132353 METAR KBFI 132353Z 06006KT 10SM CLR 11/04 A3012 RMK AO2 SLP200 T01060039 10117 20094 51007=
202311132253 METAR KBFI 132253Z 01003KT 10SM CLR 11/04 A3012 RMK AO2 SLP199 T01060039=
202311132153 METAR KBFI 132153Z VRB04KT 10SM FEW050 11/05 A3011 RMK AO2 SLP197 T01110050=
202311132053 METAR KBFI 132053Z AUTO 06004KT 10SM FEW027 BKN032 OVC040 11/05 A3010 RMK AO2 SLP193 T01060050 51010=
202311131953 METAR KBFI 131953Z 06005KT 10SM FEW027 BKN032 OVC048 09/06 A3010 RMK AO2 SLP191 T00940056=
202311131853 METAR KBFI 131853Z 00000KT 10SM BKN020 BKN027 10/05 A3009 RMK AO2 SLP188 T01000050=
202311131753 METAR KBFI 131753Z 00000KT 10SM BKN020 BKN027 10/07 A3007 RMK AO2 SLP182 T01000067 10100 20078 51021=
202311131751 SPECI KBFI 131751Z 00000KT 10SM BKN020 BKN027 10/07 A3007 RMK AO2=
202311131653 METAR KBFI 131653Z 16005KT 10SM FEW026 09/06 A3004 RMK AO2 SLP171 T00890061=
202311131616 SPECI KBFI 131616Z 20004KT 10SM BKN023 09/07 A3003 RMK AO2 T00890067=
202311131553 METAR KBFI 131553Z 18003KT 10SM SCT020 08/07 A3001 RMK AO2 SLP161 T00780067=
202311131549 SPECI KBFI 131549Z 16003KT 10SM SCT020 08/07 A3001 RMK AO2=
202311131453 METAR KBFI 131453Z 17004KT 10SM BKN022 BKN027 OVC110 08/07 A2997 RMK AO2 SLP149 T00830067 53026=
202311131353 METAR KBFI 131353Z 11005KT 10SM SCT025 BKN100 09/07 A2995 RMK AO2 SLP140 T00890067=
202311131253 METAR KBFI 131253Z 15007KT 10SM BKN015 08/08 A2991 RMK AO2 SLP129 T00830078=
202311131153 METAR KBFI 131153Z 15010KT 10SM BKN015 09/08 A2990 RMK AO2 SLP123 60002 70012 T00890083 10094 20083 53019=
202311131053 METAR KBFI 131053Z 15007KT 10SM BKN015 08/08 A2988 RMK AO2 RAB0959E25 SLP117 P0000 T00830083=
202311130953 METAR KBFI 130953Z 15007KT 10SM SCT017 BKN055 OVC065 09/08 A2986 RMK AO2 RAB21E35 SLP110 P0000 T00890083=
202311130903 SPECI KBFI 130903Z 14007KT 10SM SCT029 BKN041 OVC085 09/08 A2984 RMK AO2 T00890083=
202311130853 METAR KBFI 130853Z 14009KT 10SM BKN029 BKN041 OVC085 09/08 A2984 RMK AO2 RAB27E52 SLP104 P0000 60002 T00890083 53016=
202311130753 METAR KBFI 130753Z 14009KT 9SM FEW036 SCT042 OVC050 09/08 A2982 RMK AO2 RAE0656 SLP097 P0000 T00890083=
202311130653 METAR KBFI 130653Z 14006KT 10SM -RA OVC060 09/08 A2979 RMK AO2 SLP086 P0002 T00940083 401110067=
202311130553 METAR KBFI 130553Z 15012KT 5SM -RA BR OVC050 09/09 A2979 RMK AO2 SLP089 P0004 60010 T00940089 10100 20089 51031=
202311130453 METAR KBFI 130453Z 15010KT 7SM -RA OVC055 09/08 A2976 RMK AO2 SLP076 P0004 T00940083=
202311130353 METAR KBFI 130353Z 00000KT 6SM -RA BR OVC055 09/09 A2974 RMK AO2 SLP070 P0001 T00940089=
202311130253 METAR KBFI 130253Z 30003KT 10SM -RA OVC065 09/08 A2970 RMK AO2 RAB01 SLP057 P0001 60001 T00940083 56018=
202311130153 METAR KBFI 130153Z VRB03KT 10SM OVC070 10/08 A2971 RMK AO2 RAB34E43 SLP061 P0000 T01000078=
202311130053 METAR KBFI 130053Z 00000KT 10SM OVC070 10/08 A2973 RMK AO2 SLP068 T01000078=
202311122353 METAR KBFI 122353Z 32003KT 10SM BKN065 OVC075 10/08 A2975 RMK AO2 SLP075 60000 T01000078 10111 20100 56032=
202311122253 METAR KBFI 122253Z 00000KT 10SM OVC065 11/07 A2977 RMK AO2 RAE05 SLP081 P0000 T01060072=
202311122153 METAR KBFI 122153Z 00000KT 10SM -RA OVC065 11/07 A2981 RMK AO2 RAE12B29 SLP092 P0000 T01110067=
202311122053 METAR KBFI 122053Z 00000KT 8SM -RA FEW049 OVC060 11/06 A2985 RMK AO2 RAB01 SLP107 P0000 60000 T01060056 58022=
202311121953 METAR KBFI 121953Z 00000KT 10SM BKN085 11/06 A2987 RMK AO2 SLP114 T01060061=
202311121853 METAR KBFI 121853Z 00000KT 10SM SCT070 10/06 A2989 RMK AO2 SLP122 T01000056=
202311121753 METAR KBFI 121753Z 00000KT 10SM CLR 10/06 A2991 RMK AO2 SLP129 T01000061 10100 20067 58018=
202311121653 METAR KBFI 121653Z 00000KT 10SM BKN150 08/06 A2994 RMK AO2 SLP137 T00780061=
202311121553 METAR KBFI 121553Z 00000KT 10SM BKN150 07/06 A2995 RMK AO2 SLP141 T00720061=
202311121453 METAR KBFI 121453Z 00000KT 10SM CLR 07/06 A2997 RMK AO2 SLP147 T00670056 58035=
202311121353 METAR KBFI 121353Z 12003KT 10SM CLR 07/06 A3002 RMK AO2 SLP163 T00720056=
202311121253 METAR KBFI 121253Z 16003KT 10SM CLR 07/06 A3005 RMK AO2 SLP175 T00720061=
202311121153 METAR KBFI 121153Z 14003KT 10SM FEW060 OVC110 07/06 A3007 RMK AO2 SLP182 70017 T00720061 10094 20072 56016=
202311121053 METAR KBFI 121053Z 00000KT 10SM BKN045 OVC120 08/06 A3009 RMK AO2 SLP188 T00780061=
202311120953 METAR KBFI 120953Z 15003KT 10SM SCT033 08/07 A3009 RMK AO2 SLP190 T00780067=
202311120853 METAR KBFI 120853Z 16004KT 10SM SCT035 BKN065 OVC075 08/07 A3012 RMK AO2 SLP198 T00780067 50004=
202311120753 METAR KBFI 120753Z 14006KT 10SM BKN038 08/07 A3013 RMK AO2 SLP201 T00780067=
202311120653 METAR KBFI 120653Z 15011KT 10SM CLR 08/06 A3012 RMK AO2 SLP199 T00780061 401220078=
202311120553 METAR KBFI 120553Z 18007KT 10SM CLR 09/06 A3011 RMK AO2 SLP194 60000 T00940061 10111 20094 51018=
202311120453 METAR KBFI 120453Z 20008KT 10SM FEW100 09/07 A3009 RMK AO2 SLP189 T00940067=
202311120353 METAR KBFI 120353Z 20008G15KT 10SM FEW030 10/07 A3007 RMK AO2 SLP181 T01000067=
202311120253 METAR KBFI 120253Z 19010G19KT 10SM SCT026 BKN032 BKN042 10/06 A3005 RMK AO2 SLP176 60000 T01000061 51021=
202311120153 METAR KBFI 120153Z 19009G21KT 10SM SCT026 BKN032 BKN042 11/07 A3004 RMK AO2 RAB08E18 SLP171 P0000 T01110072=
202311120057 SPECI KBFI 120057Z 19010G21KT 10SM BKN026 OVC034 11/08 A3001 RMK AO2 T01060078=
202311120053 METAR KBFI 120053Z 19012G21KT 10SM SCT026 BKN032 11/08 A3001 RMK AO2 SLP161 T01060078=
202311112353 METAR KBFI 112353Z 18009G22KT 10SM SCT030 BKN070 11/07 A2999 RMK AO2 RAE01 SLP155 P0000 60002 T01110067 10122 20100 53016=
202311112253 METAR KBFI 112253Z VRB04KT 3SM -RA OVC032 11/08 A2997 RMK AO2 SLP149 P0002 T01060078=
202311112153 METAR KBFI 112153Z 19010G18KT 9SM -RA SCT033 BKN042 OVC055 12/07 A2995 RMK AO2 PK WND 20026/2106 RAB44 SLP142 P0000 T01170072=
202311112053 METAR KBFI 112053Z 19010G26KT 10SM FEW029 SCT085 12/07 A2994 RMK AO2 PK WND 19030/2024 SLP139 T01220067 53027=
202311111953 METAR KBFI 111953Z 18013G21KT 10SM SCT020 BKN100 11/07 A2991 RMK AO2 SLP128 T01060067=
202311111853 METAR KBFI 111853Z 20010G20KT 170V250 10SM SCT021 BKN120 11/08 A2989 RMK AO2 SLP121 T01060078=
202311111834 SPECI KBFI 111834Z 18009G16KT 10SM BKN021 BKN120 11/08 A2988 RMK AO2 T01060078=
202311111753 METAR KBFI 111753Z 18011G19KT 10SM BKN100 10/07 A2986 RMK AO2 RAE1659 SLP111 P0000 60015 T01000072 10122 20089 51028=
202311111653 METAR KBFI 111653Z 18010G21KT 10SM -RA SCT020 BKN075 09/07 A2983 RMK AO2 RAE18B47 SLP102 P0000 T00940072=
202311111553 METAR KBFI 111553Z 19011G19KT 4SM -RA BR SCT027 SCT034 OVC046 09/07 A2983 RMK AO2 SLP100 P0002 T00940072=
202311111453 METAR KBFI 111453Z 18012G19KT 7SM -RA OVC060 09/07 A2978 RMK AO2 SLP083 P0002 60013 T00890072 53005=
202311111353 METAR KBFI 111353Z 21011G23KT 5SM -RA BR FEW019 BKN028 OVC049 11/09 A2977 RMK AO2 PK WND 16037/1254 RAB03 SLP081 P0011 T01060089=
202311111253 METAR KBFI 111253Z 17018G37KT 10SM OVC029 12/08 A2974 RMK AO2 PK WND 17037/1248 SLP071 T01220078=
202311111237 SPECI KBFI 111237Z 17015G29KT 10SM OVC029 12/08 A2975 RMK AO2 PK WND 18029/1231 T01220078=
202311111153 METAR KBFI 111153Z 15007KT 10SM OVC031 10/08 A2976 RMK AO2 RAE46 SLP079 P0003 60003 70005 T01000078 10117 20089 58032=
202311111053 METAR KBFI 111053Z 15013KT 7SM -RA OVC032 11/07 A2980 RMK AO2 PK WND 17026/0956 RAB25 SLP091 P0000 T01060067=
202311110953 METAR KBFI 110953Z 16013G22KT 10SM OVC035 12/06 A2984 RMK AO2 PK WND 17031/0915 RAE0855 SLP103 P0000 T01170061=
202311110853 METAR KBFI 110853Z 17018G30KT 7SM -RA OVC039 11/06 A2986 RMK AO2 PK WND 17031/0820 RAB45 SLP110 P0000 60000 T01060056 56032=
202311110753 METAR KBFI 110753Z 17015G30KT 10SM BKN042 OVC055 10/05 A2989 RMK AO2 PK WND 16030/0745 RAB09E22 SLP121 P0000 T01000050=
202311110653 METAR KBFI 110653Z 16012G21KT 10SM OVC040 09/06 A2992 RMK AO2 RAB24E35 SLP130 P0000 T00890056 401060061=
202311110553 METAR KBFI 110553Z 15012KT 10SM BKN048 OVC110 09/06 A2995 RMK AO2 SLP142 60000 T00890056 10100 20089 56026=
202311110453 METAR KBFI 110453Z 16010KT 10SM SCT046 BKN075 OVC110 09/06 A2998 RMK AO2 RAB33E49 SLP152 P0000 T00890056=
202311110353 METAR KBFI 110353Z 16013KT 10SM FEW045 OVC075 09/05 A3000 RMK AO2 SLP157 T00940050=
202311110253 METAR KBFI 110253Z 16010KT 10SM FEW044 BKN055 OVC070 09/06 A3003 RMK AO2 SLP169 T00940056 56020=
202311110153 METAR KBFI 110153Z 15010KT 10SM OVC050 09/06 A3005 RMK AO2 SLP175 T00940056=
202311110053 METAR KBFI 110053Z 16009KT 10SM FEW020 OVC060 10/07 A3007 RMK AO2 SLP180 T01000067=
202311102353 METAR KBFI 102353Z 16007KT 10SM BKN032 BKN041 10/07 A3009 RMK AO2 RAB2258E11 SLP188 P0000 60002 T01000072 10106 20089 56018=
202311102253 METAR KBFI 102253Z 15012KT 10SM FEW042 BKN055 OVC085 10/07 A3010 RMK AO2 SLP192 T01000072=
202311102153 METAR KBFI 102153Z 17009KT 10SM FEW020 BKN080 10/07 A3011 RMK AO2 SLP196 T01000072=
202311102100 SPECI KBFI 102100Z 20007KT 10SM FEW015 SCT040 OVC080 09/07 A3014 RMK AO2 T00940072=
202311102053 METAR KBFI 102053Z 20006KT 10SM BKN025 BKN060 09/07 A3014 RMK AO2 RAE38 SLP206 P0002 60002 T00940072 50000=
202311101953 METAR KBFI 101953Z 16009KT 6SM -RA BR BKN025 BKN060 09/07 A3015 RMK AO2 RAB13 SLP209 P0000 T00890067=
202311101853 METAR KBFI 101853Z 19006G16KT 10SM SCT019 BKN085 10/06 A3015 RMK AO2 SLP210 T01000061=
202311101800 SPECI KBFI 101800Z 19010KT 10SM SCT019 BKN085 09/06 A3015 RMK AO2 T00940061=
202311101753 METAR KBFI 101753Z 17010KT 10SM BKN019 BKN035 OVC090 09/07 A3014 RMK AO2 RAE07 SLP206 P0000 60000 T00940067 10094 20067 50005=
202311101653 METAR KBFI 101653Z 18006KT 4SM -RA BR BKN019 BKN035 OVC090 08/07 A3014 RMK AO2 RAB45 SLP207 P0000 T00830067=
202311101553 METAR KBFI 101553Z 14007KT 10SM BKN016 07/06 A3014 RMK AO2 SLP205 T00720056=
202311101453 METAR KBFI 101453Z 14004KT 10SM BKN014 07/06 A3013 RMK AO2 SLP201 T00670056 50009=
202311101353 METAR KBFI 101353Z 18005KT 10SM BKN014 08/07 A3013 RMK AO2 SLP202 T00830067=
202311101253 METAR KBFI 101253Z 16005KT 10SM OVC014 08/07 A3011 RMK AO2 SLP197 T00830067=
202311101153 METAR KBFI 101153Z 17007KT 10SM BKN014 OVC021 08/07 A3010 RMK AO2 SLP192 70005 T00830067 10089 20061 50003=
202311101053 METAR KBFI 101053Z 16004KT 10SM OVC014 08/07 A3010 RMK AO2 SLP192 T00780067=
202311101049 SPECI KBFI 101049Z 16005KT 10SM BKN014 OVC019 08/06 A3010 RMK AO2=
202311100953 METAR KBFI 100953Z 17003KT 10SM BKN015 08/06 A3009 RMK AO2 SLP189 T00780061=
202311100946 SPECI KBFI 100946Z 13006KT 10SM BKN015 08/06 A3009 RMK AO2 T00780061=
202311100853 METAR KBFI 100853Z 13006KT 10SM FEW016 08/06 A3007 RMK AO2 SLP183 T00780061 52004=
202311100810 SPECI KBFI 100810Z 17011G24KT 10SM SCT023 BKN070 OVC090 08/06 A3007 RMK AO2 T00830061=
202311100753 METAR KBFI 100753Z 16007KT 10SM BKN024 OVC080 09/06 A3007 RMK AO2 SLP182 T00890061=
202311100741 SPECI KBFI 100741Z 18006G16KT 10SM BKN024 OVC110 08/06 A3007 RMK AO2 T00830061=
202311100653 METAR KBFI 100653Z 18005KT 10SM FEW065 SCT080 OVC100 08/06 A3006 RMK AO2 SLP180 T00830061 401000022=
202311100553 METAR KBFI 100553Z 16006KT 10SM BKN044 BKN075 OVC110 08/07 A3006 RMK AO2 SLP179 60005 T00830067 10089 20078 53012=
202311100453 METAR KBFI 100453Z 17009KT 10SM FEW034 BKN055 OVC110 08/07 A3005 RMK AO2 SLP174 T00830067=
202311100353 METAR KBFI 100353Z 17006KT 8SM BKN020 BKN032 OVC039 08/07 A3002 RMK AO2 RAE36 SLP166 P0001 T00830072=
202311100345 SPECI KBFI 100345Z 15007KT 8SM BKN020 BKN032 OVC039 08/07 A3002 RMK AO2 RAE36 P0001 T00780072=
202311100253 METAR KBFI 100253Z 13004KT 9SM -RA BKN034 OVC041 08/07 A3002 RMK AO2 SLP167 P0000 60004 T00830067 53004=
202311100153 METAR KBFI 100153Z 00000KT 5SM -RA BR OVC042 08/07 A3003 RMK AO2 SLP167 P0003 T00830067=
202311100053 METAR KBFI 100053Z 14007KT 5SM -RA OVC045 08/06 A2999 RMK AO2 RAB03 SLP156 P0001 T00830056=
202311092353 METAR KBFI 092353Z 14004KT 10SM BKN055 OVC075 09/05 A3001 RMK AO2 RAB40E50 SLP163 P0000 60000 T00890050 10100 20061 58012=
202311092253 METAR KBFI 092253Z 15004KT 10SM SCT055 BKN070 OVC090 09/04 A3004 RMK AO2 SLP171 T00890044=
202311092153 METAR KBFI 092153Z 00000KT 10SM OVC110 09/05 A3004 RMK AO2 SLP172 T00940050=
202311092053 METAR KBFI 092053Z 17004KT 10SM CLR 10/06 A3005 RMK AO2 SLP175 T01000056 58018=
202311091953 METAR KBFI 091953Z 16006KT 10SM OVC120 08/06 A3007 RMK AO2 SLP181 T00830061=
202311091853 METAR KBFI 091853Z 00000KT 10SM SCT005 BKN030 08/06 A3009 RMK AO2 SLP188 T00780056=
202311091753 METAR KBFI 091753Z 00000KT 8SM SCT005 06/05 A3010 RMK AO2 SLP193 T00610050 10061 20022 58017=
202311091653 METAR KBFI 091653Z 16005KT 4SM BR BKN005 04/04 A3013 RMK AO2 SLP203 T00440039=
202311091553 METAR KBFI 091553Z 00000KT 4SM BR OVC007 03/03 A3015 RMK AO2 SLP208 T00280028=
202311091453 METAR KBFI 091453Z 16005KT 4SM BR OVC007 03/03 A3015 RMK AO2 SLP210 T00280028 58017=
202311091353 METAR KBFI 091353Z 15003KT 2SM BR OVC002 03/03 A3017 RMK AO2 SLP216 T00280028=
202311091253 METAR KBFI 091253Z 16004KT 1/4SM FG VV002 03/03 A3019 RMK AO2 SLP222 T00280028=
202311091153 METAR KBFI 091153Z 00000KT 1/4SM FG VV002 03/03 A3020 RMK AO2 SLP227 T00280028 10056 20022 58017=
202311091139 SPECI KBFI 091139Z 00000KT 1/4SM FG VV002 03/03 A3021 RMK AO2 T00330033=
202311091120 SPECI KBFI 091120Z 00000KT 3/4SM BR VV002 03/03 A3021 RMK AO2 T00280028=
202311091103 SPECI KBFI 091103Z 00000KT 2SM BR BKN003 03/03 A3022 RMK AO2 T00330028=
202311091053 METAR KBFI 091053Z 00000KT 7SM SCT008 03/02 A3022 RMK AO2 SLP233 BCFG NW-E T00280022=
202311090953 METAR KBFI 090953Z 00000KT 7SM CLR 04/03 A3024 RMK AO2 SLP240 T00390033=
202311090853 METAR KBFI 090853Z 14003KT 10SM CLR 03/03 A3025 RMK AO2 SLP244 T00330028 58020=
202311090753 METAR KBFI 090753Z 00000KT 7SM CLR 04/04 A3028 RMK AO2 SLP254 T00440044=
202311090653 METAR KBFI 090653Z 00000KT 5SM BR CLR 05/04 A3030 RMK AO2 SLP260 T00500044 401220044=
202311090553 METAR KBFI 090553Z 14004KT 10SM CLR 04/04 A3031 RMK AO2 SLP265 T00440039 10111 20044 56015=
202311090453 METAR KBFI 090453Z 00000KT 10SM CLR 06/05 A3032 RMK AO2 SLP268 T00610050=
202311090353 METAR KBFI 090353Z 00000KT 10SM CLR 07/04 A3033 RMK AO2 SLP271 T00670044=
202311090253 METAR KBFI 090253Z 00000KT 10SM CLR 08/05 A3036 RMK AO2 SLP280 T00830050 55014=
202311090153 METAR KBFI 090153Z 00000KT 10SM CLR 09/06 A3036 RMK AO2 SLP279 T00940056=
202311090053 METAR KBFI 090053Z 00000KT 10SM CLR 11/05 A3038 RMK AO2 SLP287 T01060050=
202311082353 METAR KBFI 082353Z 28003KT 10SM CLR 11/06 A3040 RMK AO2 SLP293 T01110056 10122 20094 56010=
202311082253 METAR KBFI 082253Z VRB03KT 10SM CLR 12/06 A3041 RMK AO2 SLP296 T01220056=
202311082153 METAR KBFI 082153Z VRB03KT 10SM CLR 12/06 A3042 RMK AO2 SLP300 T01220056=
202311082053 METAR KBFI 082053Z 21005KT 10SM FEW030 12/06 A3043 RMK AO2 SLP304 T01170056 58012=
202311081953 METAR KBFI 081953Z 18007KT 10SM CLR 11/06 A3046 RMK AO2 SLP313 T01110056=
202311081853 METAR KBFI 081853Z 13003KT 10SM SCT035 11/06 A3047 RMK AO2 SLP318 T01060056=
202311081753 METAR KBFI 081753Z 14005KT 10SM CLR 09/06 A3047 RMK AO2 SLP316 T00940056 10094 20044 50010=
202311081653 METAR KBFI 081653Z 15004KT 10SM SCT014 07/05 A3048 RMK AO2 SLP319 T00720050=
202311081553 METAR KBFI 081553Z 15005KT 10SM SCT020 BKN150 05/04 A3046 RMK AO2 SLP313 T00500044=
202311081453 METAR KBFI 081453Z 14006KT 10SM CLR 05/04 A3044 RMK AO2 SLP306 T00500044 50010=
202311081429 SPECI KBFI 081429Z 15005KT 10SM SCT026 05/04 A3044 RMK AO2 T00500044=
202311081353 METAR KBFI 081353Z 15005KT 10SM BKN017 07/05 A3044 RMK AO2 SLP306 T00670050=
202311081253 METAR KBFI 081253Z 15006KT 10SM OVC016 07/05 A3042 RMK AO2 SLP301 T00720050=
202311081153 METAR KBFI 081153Z 13003KT 10SM OVC015 07/06 A3041 RMK AO2 SLP297 T00720061 10094 20072 55000=
202311081131 SPECI KBFI 081131Z 00000KT 10SM BKN018 BKN047 07/06 A3041 RMK AO2 T00720056=
202311081053 METAR KBFI 081053Z 11003KT 10SM FEW017 SCT031 BKN047 08/06 A3041 RMK AO2 SLP296 T00780056=
202311081041 SPECI KBFI 081041Z VRB03KT 10SM BKN031 OVC060 08/06 A3041 RMK AO2 T00780056=
202311081024 SPECI KBFI 081024Z 14004KT 10SM BKN029 BKN047 OVC060 08/06 A3041 RMK AO2 T00780056=
202311081003 SPECI KBFI 081003Z 15009KT 10SM FEW019 BKN047 OVC060 08/06 A3040 RMK AO2 T00780056=
202311080953 METAR KBFI 080953Z 15008KT 10SM FEW021 BKN026 BKN060 07/06 A3040 RMK AO2 SLP293 T00720056=
202311080853 METAR KBFI 080853Z 14004KT 10SM OVC024 08/06 A3041 RMK AO2 SLP296 T00780061 53020=
202311080839 SPECI KBFI 080839Z 14004KT 10SM BKN024 BKN033 OVC070 08/06 A3040 RMK AO2 T00780056=
202311080753 METAR KBFI 080753Z 13006KT 10SM BKN070 08/06 A3039 RMK AO2 SLP290 T00830056=
202311080653 METAR KBFI 080653Z 13003KT 10SM SCT050 OVC065 08/06 A3037 RMK AO2 SLP283 T00830061 401110083=
202311080553 METAR KBFI 080553Z 10006KT 10SM SCT030 BKN035 OVC049 09/07 A3035 RMK AO2 SLP277 60000 T00940067 10106 20089 53024=
202311080453 METAR KBFI 080453Z 12004KT 10SM FEW030 OVC038 09/08 A3032 RMK AO2 SLP268 T00940078=
202311080353 METAR KBFI 080353Z 13003KT 10SM BKN044 OVC056 09/07 A3030 RMK AO2 RAB00E28 SLP259 P0000 T00890072=
202311080253 METAR KBFI 080253Z 00000KT 10SM OVC035 10/07 A3028 RMK AO2 SLP253 T01000067 53030=
202311080153 METAR KBFI 080153Z 16003KT 10SM OVC037 09/07 A3025 RMK AO2 SLP242 T00940067=
202311080053 METAR KBFI 080053Z 14003KT 10SM OVC036 10/06 A3021 RMK AO2 SLP230 T01000061=
202311072353 METAR KBFI 072353Z 12004KT 10SM FEW040 OVC070 11/07 A3019 RMK AO2 SLP223 60000 T01060067 10111 20094 51022=
202311072253 METAR KBFI 072253Z 11005KT 10SM OVC060 10/07 A3017 RMK AO2 SLP216 T01000067=
202311072212 SPECI KBFI 072212Z 11004KT 10SM BKN029 OVC035 10/06 A3016 RMK AO2 T01000061=
202311072200 SPECI KBFI 072200Z VRB03KT 10SM OVC033 09/06 A3016 RMK AO2 T00940061=
202311072153 METAR KBFI 072153Z 08004KT 10SM BKN013 OVC029 09/06 A3016 RMK AO2 SLP211 T00940061=
202311072053 METAR KBFI 072053Z 05009KT 9SM BKN013 OVC029 09/07 A3013 RMK AO2 RAE06 SLP201 P0000 60000 T00940072 53022=
202311071953 METAR KBFI 071953Z 12003KT 8SM -RA BKN013 OVC029 11/08 A3010 RMK AO2 RAB37 SLP191 P0000 T01060078=
202311071853 METAR KBFI 071853Z VRB06KT 10SM OVC029 11/08 A3006 RMK AO2 SLP179 T01060078=
202311071753 METAR KBFI 071753Z 17007KT 10SM BKN015 OVC021 11/08 A3003 RMK AO2 SLP169 60000 T01060083 10111 20100 51039=
202311071742 SPECI KBFI 071742Z 20006KT 10SM BKN013 OVC019 11/08 A3003 RMK AO2 T01060083=
202311071653 METAR KBFI 071653Z 19003KT 10SM BKN009 BKN013 11/09 A3000 RMK AO2 RAE1557 SLP159 P0000 T01060094=
202311071644 SPECI KBFI 071644Z 16003KT 10SM BKN009 BKN013 BKN075 11/09 A3000 RMK AO2 RAE1557 P0000 T01060089=
202311071553 METAR KBFI 071553Z 21005KT 10SM -RA FEW009 BKN041 OVC080 10/09 A2997 RMK AO2 RAB31 SLP148 P0000 T01000089=
202311071538 SPECI KBFI 071538Z 22003KT 4SM -RA BR SCT018 BKN033 OVC050 10/09 A2996 RMK AO2 RAB31 P0000 T01000089=
202311071453 METAR KBFI 071453Z 17003KT 10SM FEW013 BKN029 OVC034 10/09 A2992 RMK AO2 SLP131 60000 T01000089 53037=
202311071353 METAR KBFI 071353Z 18006KT 10SM FEW015 OVC025 11/09 A2988 RMK AO2 SLP117 T01060089=
202311071253 METAR KBFI 071253Z 15004KT 10SM OVC013 10/09 A2984 RMK AO2 RAB33E45 SLP105 P0000 T01000089=
202311071153 METAR KBFI 071153Z 16005KT 10SM OVC010 10/09 A2981 RMK AO2 RAE1056 SLP094 P0000 60004 70029 T01000089 10106 20100 52025=
202311071053 METAR KBFI 071053Z 18007KT 10SM -RA OVC013 10/09 A2978 RMK AO2 SLP085 P0000 T01000089=
202311070953 METAR KBFI 070953Z 17006KT 10SM -RA BKN013 OVC019 10/09 A2976 RMK AO2 RAB46 SLP079 P0000 T01000089=
202311070853 METAR KBFI 070853Z 19009G17KT 10SM OVC011 11/09 A2974 RMK AO2 SLP070 60004 T01060094 53021=
202311070753 METAR KBFI 070753Z 20007G17KT 10SM OVC011 11/09 A2971 RMK AO2 RAE33 SLP062 P0000 T01060094=
202311070653 METAR KBFI 070653Z 20008KT 10SM -RA BKN014 OVC050 11/09 A2969 RMK AO2 SLP053 P0004 T01060094 401110083=
202311070603 SPECI KBFI 070603Z 16009KT 4SM RA BR BKN014 OVC050 11/09 A2967 RMK AO2 P0003 T01060094=
202311070555 SPECI KBFI 070555Z 17009KT 3SM RA BR SCT010 BKN018 OVC055 11/10 A2968 RMK AO2 P0001 T01060100=
202311070553 METAR KBFI 070553Z 16010KT 2 1/2SM RA BR BKN014 OVC055 11/10 A2968 RMK AO2 SLP049 P0012 60022 T01060100 10106 20100 53017=
202311070551 SPECI KBFI 070551Z 15009KT 2 1/2SM RA BR FEW012 BKN019 OVC055 11/10 A2968 RMK AO2 P0012=
202311070500 SPECI KBFI 070500Z 16007KT 8SM -RA BKN055 11/09 A2966 RMK AO2 P0000 T01060094=
202311070453 METAR KBFI 070453Z 15006KT 6SM -RA BR SCT008 BKN023 OVC045 11/09 A2966 RMK AO2 RAB42 SLP042 P0001 T01060094=
202311070353 METAR KBFI 070353Z 16007KT 10SM SCT008 BKN023 OVC045 10/09 A2964 RMK AO2 SLP038 T01000094=
202311070253 METAR KBFI 070253Z 16006KT 8SM SCT008 BKN023 OVC045 11/10 A2963 RMK AO2 RAB00E32 SLP032 P0008 60009 T01060100 51019=
202311070207 SPECI KBFI 070207Z 15003KT 3SM RA BR SCT005 BKN013 OVC028 11/11 A2961 RMK AO2 RAB00 P0006 T01060106=
202311070153 METAR KBFI 070153Z 14003KT 10SM SCT010 BKN024 OVC050 11/10 A2961 RMK AO2 RAE45 SLP026 P0000 T01060100=
202311070053 METAR KBFI 070053Z 00000KT 7SM -RA FEW008 BKN013 11/10 A2959 RMK AO2 RAB33 SLP019 P0001 T01060100=
202311062353 METAR KBFI 062353Z 06003KT 10SM BKN025 BKN030 OVC050 11/10 A2957 RMK AO2 RAB05E26 SLP013 P0000 60002 T01060100 10111 20100 53007=
202311062253 METAR KBFI 062253Z 00000KT 10SM BKN016 BKN036 OVC050 11/09 A2955 RMK AO2 RAE17 SLP007 P0000 T01110094=
202311062153 METAR KBFI 062153Z 00000KT 4SM -RA BR SCT020 BKN034 OVC050 11/09 A2955 RMK AO2 SLP006 P0002 T01060094=
202311062101 SPECI KBFI 062101Z 16003KT 3SM -RA BR SCT020 BKN034 OVC050 11/09 A2955 RMK AO2 P0000 T01060089=
202311062053 METAR KBFI 062053Z 18004KT 7SM -RA BKN029 OVC034 11/09 A2955 RMK AO2 SLP006 P0000 60000 T01060094 50003=
202311061953 METAR KBFI 061953Z 15009KT 10SM -RA OVC042 11/09 A2956 RMK AO2 SLP008 P0000 T01060094=
202311061853 METAR KBFI 061853Z 15009KT 9SM -RA FEW035 BKN050 OVC070 11/09 A2955 RMK AO2 SLP007 P0000 T01060094=
202311061753 METAR KBFI 061753Z 13005KT 4SM -RA BR OVC055 10/09 A2954 RMK AO2 SLP003 P0001 60001 T01000094 10100 20083 53006=
202311061653 METAR KBFI 061653Z 15005KT 5SM -RA BR BKN060 OVC075 10/09 A2953 RMK AO2 RAB35 SLP000 P0000 T01000089=
202311061553 METAR KBFI 061553Z 00000KT 9SM OVC055 09/09 A2953 RMK AO2 RAE29 SLP998 P0000 T00940094=
202311061453 METAR KBFI 061453Z 00000KT 7SM -RA SCT043 OVC055 09/09 A2952 RMK AO2 RAB45 SLP996 P0000 60000 T00940089 56012=
202311061410 SPECI KBFI 061410Z 00000KT 7SM SCT002 BKN075 09/09 A2952 RMK AO2 T00890089=
202311061353 METAR KBFI 061353Z 00000KT 8SM BKN002 BKN080 09/09 A2953 RMK AO2 SLP999 T00890089=
202311061340 SPECI KBFI 061340Z 00000KT 8SM FEW002 BKN080 08/08 A2953 RMK AO2 T00830083=
202311061253 METAR KBFI 061253Z 00000KT 8SM CLR 09/09 A2954 RMK AO2 SLP003 T00940089=
202311061153 METAR KBFI 061153Z 00000KT 10SM FEW060 SCT075 09/09 A2956 RMK AO2 SLP009 60000 70009 T00940089 10106 20089 58021=
202311061053 METAR KBFI 061053Z 00000KT 10SM BKN047 OVC055 10/10 A2959 RMK AO2 SLP018 T01000100=
202311060953 METAR KBFI 060953Z 00000KT 10SM BKN050 OVC060 10/10 A2960 RMK AO2 SLP025 T01000100=
202311060853 METAR KBFI 060853Z 00000KT 10SM OVC060 10/10 A2962 RMK AO2 SLP030 60000 T01000100 56015=
202311060753 METAR KBFI 060753Z 00000KT 10SM OVC040 11/09 A2963 RMK AO2 SLP032 T01060094=
202311060653 METAR KBFI 060653Z 00000KT 10SM OVC042 11/10 A2964 RMK AO2 RAB03E13B43E52 SLP038 P0000 T01060100 401560072=
202311060553 METAR KBFI 060553Z 00000KT 10SM SCT047 OVC070 11/09 A2966 RMK AO2 RAE42 SLP045 P0000 60009 T01060094 10144 20106 56016=
202311060453 METAR KBFI 060453Z 14007KT 9SM -RA BKN045 BKN055 OVC070 11/10 A2968 RMK AO2 SLP049 P0000 T01060100=
202311060353 METAR KBFI 060353Z 13008KT 8SM -RA SCT047 BKN055 OVC070 11/10 A2969 RMK AO2 SLP054 P0000 T01110100=
202311060253 METAR KBFI 060253Z 12005KT 7SM -RA OVC055 11/10 A2971 RMK AO2 SLP060 P0006 60009 T01110100 57003=
202311060153 METAR KBFI 060153Z 00000KT 4SM -RA BR BKN042 OVC060 12/10 A2973 RMK AO2 SLP065 P0003 T01220100=
202311060053 METAR KBFI 060053Z 27003KT 10SM -RA BKN060 OVC075 13/09 A2970 RMK AO2 RAB20E30B53 SLP058 P0000 T01330094=
202311052353 METAR KBFI 052353Z 13006KT 10SM FEW070 SCT080 BKN100 14/08 A2972 RMK AO2 SLP063 T01440078 10156 20106 56026=
202311052253 METAR KBFI 052253Z 12007KT 10SM BKN090 16/08 A2973 RMK AO2 SLP068 T01560083=
202311052153 METAR KBFI 052153Z 13007KT 10SM BKN100 16/09 A2976 RMK AO2 SLP077 T01560094=
202311052053 METAR KBFI 052053Z VRB04KT 10SM CLR 16/09 A2979 RMK AO2 SLP089 T01560094 58019=
202311051953 METAR KBFI 051953Z 00000KT 10SM CLR 13/08 A2983 RMK AO2 SLP100 T01280083=
202311051853 METAR KBFI 051853Z 14003KT 10SM SCT040 12/08 A2984 RMK AO2 SLP103 T01220078=
202311051753 METAR KBFI 051753Z 15005KT 10SM SCT040 OVC170 11/08 A2985 RMK AO2 SLP108 T01060083 10106 20072 58004=
202311051653 METAR KBFI 051653Z 15005KT 10SM FEW060 BKN180 09/08 A2986 RMK AO2 SLP111 T00940083=
202311051553 METAR KBFI 051553Z 16005KT 10SM CLR 08/08 A2987 RMK AO2 SLP115 T00830078=
202311051453 METAR KBFI 051453Z 16003KT 10SM BKN070 09/07 A2986 RMK AO2 SLP112 T00890072 58002=
202311051353 METAR KBFI 051353Z 14004KT 10SM BKN100 07/07 A2986 RMK AO2 SLP112 T00720072=
202311051253 METAR KBFI 051253Z 15004KT 10SM SCT100 08/08 A2987 RMK AO2 SLP116 T00830083=
202311051153 METAR KBFI 051153Z 15006KT 10SM SCT110 09/08 A2987 RMK AO2 SLP113 70063 T00890083 10117 20089 50001=
202311051053 METAR KBFI 051053Z 15008KT 10SM BKN110 10/09 A2988 RMK AO2 SLP117 T01000094=
202311050953 METAR KBFI 050953Z 14006KT 10SM FEW035 10/09 A2987 RMK AO2 SLP113 T01000094=
202311050853 METAR KBFI 050853Z 17008KT 10SM CLR 11/09 A2986 RMK AO2 SLP113 T01060094 51007=
202311050753 METAR KBFI 050753Z 14007KT 10SM FEW023 10/09 A2986 RMK AO2 SLP112 T01000094=
202311050653 METAR KBFI 050653Z 13005KT 10SM FEW020 11/10 A2986 RMK AO2 SLP110 T01110100 401670111=
202311050553 METAR KBFI 050553Z 17008KT 10SM FEW020 12/10 A2984 RMK AO2 SLP106 60000 T01170100 10156 20117 53010=
202311050453 METAR KBFI 050453Z 18006KT 10SM FEW021 FEW090 12/11 A2983 RMK AO2 RAB02E12 SLP101 P0000 T01220106=
202311050353 METAR KBFI 050353Z 17007KT 10SM BKN090 13/11 A2982 RMK AO2 SLP099 T01280111=
202311050253 METAR KBFI 050253Z 16005KT 10SM CLR 13/11 A2982 RMK AO2 SLP096 T01280106 51017=
202311050153 METAR KBFI 050153Z 17005KT 10SM CLR 13/11 A2982 RMK AO2 SLP096 T01330106=
202311050053 METAR KBFI 050053Z 19009G14KT 10SM FEW031 SCT050 14/11 A2980 RMK AO2 SLP089 T01440106=
202311042353 METAR KBFI 042353Z 20010G20KT 10SM CLR 15/11 A2977 RMK AO2 SLP079 60000 T01500106 10167 20150 51004=
202311042253 METAR KBFI 042253Z 19011G19KT 10SM CLR 16/11 A2977 RMK AO2 RAB05E15 SLP079 P0000 T01610111=
202311042153 METAR KBFI 042153Z 20012G22KT 10SM BKN030 OVC036 16/12 A2976 RMK AO2 SLP076 T01610122=
202311042053 METAR KBFI 042053Z 20006G15KT 10SM SCT033 BKN050 16/13 A2975 RMK AO2 PK WND 19027/2023 SLP075 60000 T01610128 50015=
202311041953 METAR KBFI 041953Z 19015G26KT 10SM FEW040 17/13 A2976 RMK AO2 PK WND 18026/1953 SLP077 T01670133=
202311041853 METAR KBFI 041853Z 20010G23KT 10SM FEW015 SCT023 BKN055 16/14 A2973 RMK AO2 LTG DSNT NE AND SE RAE13 SLP067 P0000 T01610139=
202311041753 METAR KBFI 041753Z 22007KT 5SM +RA BR FEW011 BKN019 OVC040 15/15 A2971 RMK AO2 TSB24E39 SLP061 P0038 60063 T01500150 10161 20128 51003=
202311041743 SPECI KBFI 041743Z VRB04KT 5SM -RA BR FEW019 BKN041 OVC090 15/15 A2969 RMK AO2 LTG DSNT N TSB24E39 P0004 T01500150=
202311041724 SPECI KBFI 041724Z 15014KT 4SM -TSRA BR FEW035 BKN075 OVC090 15/14 A2969 RMK AO2 LTG DSNT N AND NW TSB24 P0002 T01500144=
202311041718 SPECI KBFI 041718Z 15013KT 2 1/2SM VCTS -RA BR SCT042 SCT060 OVC080 15/14 A2969 RMK AO2 VIS 1V5 LTG DSNT N AND NW P0002 T01500144=
202311041653 METAR KBFI 041653Z 14014KT 8SM -RA BKN030 BKN060 OVC080 15/14 A2970 RMK AO2 RAE07B39 SLP058 P0000 T01500144=
202311041621 SPECI KBFI 041621Z 15013KT 10SM BKN026 BKN042 OVC070 15/14 A2971 RMK AO2 LTG DSNT SE RAE07 P0000 T01500144=
202311041600 SPECI KBFI 041600Z 14011KT 8SM VCTS -RA BKN026 BKN042 OVC070 16/14 A2972 RMK AO2 P0000 T01560144=
202311041553 METAR KBFI 041553Z 17011G18KT 5SM -RA BR BKN026 BKN042 OVC070 16/14 A2973 RMK AO2 SLP065 P0018 T01610144=
202311041543 SPECI KBFI 041543Z 20010G19KT 4SM RA BR FEW024 BKN040 OVC070 16/14 A2972 RMK AO2 P0017 T01560144=
202311041453 METAR KBFI 041453Z 15010KT 6SM -RA BR OVC050 14/13 A2970 RMK AO2 SLP058 P0003 60007 T01390133 58010=
202311041353 METAR KBFI 041353Z 16010KT 7SM -RA OVC060 13/13 A2971 RMK AO2 RAB1255 SLP059 P0004 T01280128=
202311041253 METAR KBFI 041253Z 16013G20KT 10SM FEW075 SCT090 BKN110 13/13 A2974 RMK AO2 SLP069 T01280128=
202311041153 METAR KBFI 041153Z 14012KT 10SM SCT040 OVC055 13/12 A2973 RMK AO2 SLP068 60009 70023 T01280122 10133 20117 56028=
202311041053 METAR KBFI 041053Z 15010KT 10SM OVC100 13/12 A2975 RMK AO2 RAE45 SLP075 P0000 T01280122=
202311040953 METAR KBFI 040953Z 13013KT 3SM -RA BR FEW048 OVC090 13/12 A2977 RMK AO2 PRESFR SLP080 P0008 T01280122=
202311040853 METAR KBFI 040853Z 14007KT 6SM -RA BR SCT040 BKN055 OVC095 12/12 A2982 RMK AO2 SLP096 P0000 60001 T01170117 58005=
202311040753 METAR KBFI 040753Z 13005KT 5SM -RA BR FEW017 BKN034 OVC070 12/12 A2984 RMK AO2 SLP103 P0001 T01170117=
202311040653 METAR KBFI 040653Z VRB04KT 5SM -RA BR BKN031 OVC041 12/12 A2983 RMK AO2 SLP100 P0000 T01170117 401440072=
202311040553 METAR KBFI 040553Z 14005KT 3SM -RA BR BKN031 OVC041 12/11 A2983 RMK AO2 SLP101 P0008 60014 T01170111 10139 20111 56023=
202311040520 SPECI KBFI 040520Z 00000KT 2SM RA BR BKN036 OVC042 12/11 A2983 RMK AO2 P0005 T01170111=
202311040453 METAR KBFI 040453Z 00000KT 3SM RA BR BKN044 BKN050 OVC070 12/11 A2983 RMK AO2 RAB09 SLP102 P0006 T01170111=
202311040353 METAR KBFI 040353Z 00000KT 10SM BKN048 OVC085 12/11 A2986 RMK AO2 RAE39 SLP112 P0000 T01170106=
202311040253 METAR KBFI 040253Z 00000KT 10SM -RA FEW055 OVC100 12/09 A2990 RMK AO2 RAB49 SLP125 P0000 60000 T01220094 56042=
202311040153 METAR KBFI 040153Z 00000KT 10SM SCT060 BKN120 13/09 A2994 RMK AO2 SLP139 T01330089=
202311040053 METAR KBFI 040053Z 00000KT 10SM SCT060 BKN120 14/09 A2998 RMK AO2 SLP150 T01390089=
202311032353 METAR KBFI 032353Z 00000KT 10SM SCT060 SCT075 BKN110 13/09 A3002 RMK AO2 SLP166 T01330094 10144 20117 58024=
202311032253 METAR KBFI 032253Z 00000KT 10SM BKN200 14/09 A3005 RMK AO2 SLP174 T01440089=
202311032153 METAR KBFI 032153Z 00000KT 10SM OVC210 14/09 A3007 RMK AO2 SLP183 T01440089=
202311032053 METAR KBFI 032053Z 00000KT 10SM CLR 14/09 A3009 RMK AO2 SLP190 T01440089 58027=
202311031953 METAR KBFI 031953Z 00000KT 10SM CLR 13/08 A3012 RMK AO2 SLP199 T01330083=
202311031853 METAR KBFI 031853Z 00000KT 10SM CLR 13/10 A3015 RMK AO2 SLP209 T01280100=
202311031753 METAR KBFI 031753Z 00000KT 10SM CLR 12/09 A3017 RMK AO2 SLP217 T01170094 10117 20072 50009=
202311031653 METAR KBFI 031653Z 00000KT 10SM FEW022 BKN200 11/09 A3018 RMK AO2 SLP220 T01060089=
202311031600 SPECI KBFI 031600Z 00000KT 9SM CLR 09/09 A3016 RMK AO2 T00890089=
202311031553 METAR KBFI 031553Z 00000KT 8SM BKN021 08/08 A3016 RMK AO2 SLP212 T00830083=
202311031453 METAR KBFI 031453Z 17003KT 7SM BKN021 08/08 A3015 RMK AO2 SLP208 T00780078 58005=
202311031353 METAR KBFI 031353Z 17003KT 9SM FEW027 09/08 A3016 RMK AO2 SLP212 T00890083=
202311031253 METAR KBFI 031253Z 15003KT 10SM BKN015 OVC027 08/08 A3017 RMK AO2 SLP214 T00780078=
202311031153 METAR KBFI 031153Z 16006KT 10SM BKN015 09/09 A3016 RMK AO2 SLP213 70022 T00940089 10122 20083 51010=
202311031109 SPECI KBFI 031109Z 17006KT 10SM BKN015 09/08 A3015 RMK AO2 T00940083=
202311031053 METAR KBFI 031053Z 00000KT 10SM CLR 09/08 A3015 RMK AO2 SLP209 T00890083=
202311030953 METAR KBFI 030953Z 12006KT 10SM FEW019 10/09 A3015 RMK AO2 SLP209 T01000089=
202311030853 METAR KBFI 030853Z 15004KT 10SM FEW040 09/09 A3013 RMK AO2 SLP202 T00940089 53007=
202311030753 METAR KBFI 030753Z VRB05KT 10SM FEW050 11/09 A3012 RMK AO2 SLP200 T01110089=
202311030653 METAR KBFI 030653Z 17009G18KT 10SM FEW055 FEW100 12/09 A3011 RMK AO2 SLP196 T01170094 401610089=
202311030553 METAR KBFI 030553Z 19007KT 10SM SCT055 12/10 A3011 RMK AO2 SLP195 60000 T01220100 10144 20117 53014=
202311030453 METAR KBFI 030453Z 15008KT 10SM FEW015 12/11 A3009 RMK AO2 SLP188 T01170106=
202311030353 METAR KBFI 030353Z 20009G20KT 10SM FEW047 BKN055 OVC070 13/11 A3008 RMK AO2 RAB23E32 SLP185 P0000 T01280111=
202311030253 METAR KBFI 030253Z 18008KT 10SM SCT070 13/11 A3007 RMK AO2 SLP181 T01280111 53029=
202311030153 METAR KBFI 030153Z 20008KT 10SM BKN070 13/11 A3004 RMK AO2 SLP172 T01330111=
202311030053 METAR KBFI 030053Z 19009G16KT 10SM FEW055 SCT070 13/11 A3001 RMK AO2 SLP160 T01330111=
202311022353 METAR KBFI 022353Z 19014G23KT 10SM SCT023 14/11 A2998 RMK AO2 PK WND 20027/2256 SLP152 T01440106 10161 20144 51026=
202311022253 METAR KBFI 022253Z 20013G26KT 10SM CLR 15/11 A2997 RMK AO2 PK WND 21027/2206 SLP147 T01500111=
202311022153 METAR KBFI 022153Z 20017G28KT 10SM SCT020 16/12 A2993 RMK AO2 PK WND 19036/2128 SLP134 T01560117=
202311022100 SPECI KBFI 022100Z 20018G33KT 10SM FEW017 16/12 A2991 RMK AO2 PK WND 19033/2058 T01560122=
202311022053 METAR KBFI 022053Z 20017G33KT 10SM BKN015 15/12 A2990 RMK AO2 PK WND 18033/2052 SLP126 T01500122 53032=
202311021953 METAR KBFI 021953Z 20017G30KT 10SM BKN015 OVC024 16/14 A2987 RMK AO2 PK WND 20030/1947 SLP115 T01560139=
202311021853 METAR KBFI 021853Z 19014G28KT 9SM SCT015 BKN021 OVC025 15/14 A2984 RMK AO2 PK WND 17028/1851 SLP103 T01500139=
202311021753 METAR KBFI 021753Z 19014G23KT 5SM BR SCT011 BKN015 16/14 A2981 RMK AO2 SLP094 60022 T01560144 10156 20106 53033=
202311021744 SPECI KBFI 021744Z 18012G24KT 5SM BR SCT011 BKN015 15/14 A2979 RMK AO2 T01500139=
202311021731 SPECI KBFI 021731Z 18011G22KT 4SM BR BKN009 OVC021 15/14 A2979 RMK AO2 T01500144=
202311021653 METAR KBFI 021653Z 19012G24KT 2SM BR SCT007 BKN015 OVC030 14/14 A2977 RMK AO2 RAE43 SLP081 P0001 T01440139=
202311021553 METAR KBFI 021553Z 14007KT 2SM -RA BR SCT007 BKN015 OVC030 11/11 A2973 RMK AO2 SLP068 P0002 T01110111=
202311021453 METAR KBFI 021453Z 00000KT 2SM -RA BR BKN007 BKN016 OVC024 11/11 A2971 RMK AO2 SLP060 P0009 60019 T01110111 56010=
202311021353 METAR KBFI 021353Z 00000KT 1 1/2SM RA BR BKN007 BKN016 OVC024 11/11 A2971 RMK AO2 SLP061 P0007 T01110111=
202311021349 SPECI KBFI 021349Z 00000KT 1 1/2SM RA BR BKN007 BKN016 OVC024 11/11 A2971 RMK AO2 P0007=
202311021253 METAR KBFI 021253Z 00000KT 3SM -RA BR SCT007 BKN024 OVC030 11/11 A2971 RMK AO2 SLP060 P0003 T01110111=
202311021153 METAR KBFI 021153Z 13003KT 3SM -RA BR SCT007 BKN024 OVC030 11/11 A2974 RMK AO2 SLP071 P0007 60044 70052 T01060106 10106 20089 56027=
202311021053 METAR KBFI 021053Z 00000KT 3SM -RA BR SCT009 BKN024 OVC034 10/10 A2975 RMK AO2 SLP073 P0001 T01000100=
202311020953 METAR KBFI 020953Z 16008KT 5SM -RA BR FEW017 BKN028 OVC040 10/10 A2978 RMK AO2 SLP083 P0010 T01000100=
202311020853 METAR KBFI 020853Z 00000KT 2 1/2SM RA BR BKN005 BKN023 OVC036 10/09 A2982 RMK AO2 SLP098 P0018 60026 T01000094 56027=
202311020753 METAR KBFI 020753Z 14005KT 3SM RA BR FEW032 BKN049 OVC055 09/09 A2983 RMK AO2 PRESFR SLP099 P0006 T00940094=
202311020653 METAR KBFI 020653Z 16003KT 7SM -RA SCT017 BKN032 OVC045 09/09 A2988 RMK AO2 SLP117 P0002 T00940094 401220028=
202311020553 METAR KBFI 020553Z 15005KT 7SM -RA SCT017 BKN037 OVC047 09/09 A2990 RMK AO2 SLP124 P0005 60008 T00890089 10106 20089 58022=
202311020453 METAR KBFI 020453Z 00000KT 4SM -RA BR FEW023 BKN031 OVC050 09/09 A2993 RMK AO2 RAB23 SLP134 P0002 T00940089=
202311020353 METAR KBFI 020353Z 15004KT 7SM BKN037 BKN065 OVC085 09/09 A2994 RMK AO2 RAE32 SLP138 P0000 T00940089=
202311020253 METAR KBFI 020253Z 13004KT 6SM -RA BR FEW050 BKN080 OVC100 09/09 A2997 RMK AO2 SLP147 P0001 60001 T00940089 58014=
202311020153 METAR KBFI 020153Z 14005KT 6SM -RA BR BKN050 BKN070 OVC090 10/09 A3000 RMK AO2 RAE0055B14 SLP158 P0000 T01000094=
202311020053 METAR KBFI 020053Z 00000KT 8SM -RA BKN048 OVC095 11/09 A2999 RMK AO2 SLP156 P0000 T01060089=
202311012353 METAR KBFI 012353Z 00000KT 7SM -RA BKN055 OVC070 11/08 A3001 RMK AO2 RAB2259 SLP161 P0000 60000 T01060078 10122 20083 56019=
202311012253 METAR KBFI 012253Z 27003KT 10SM FEW049 BKN060 OVC075 12/06 A3002 RMK AO2 SLP165 T01170061=
202311012153 METAR KBFI 012153Z 11003KT 10SM FEW060 BKN070 OVC090 12/06 A3003 RMK AO2 RAB19E32 SLP168 P0000 T01220056=
202311012053 METAR KBFI 012053Z 15003KT 10SM FEW047 BKN055 OVC075 12/05 A3006 RMK AO2 SLP180 T01170050 58023=
202311011953 METAR KBFI 011953Z 18003KT 9SM BKN055 OVC080 10/06 A3010 RMK AO2 SLP192 T01000061=
202311011853 METAR KBFI 011853Z 15005KT 8SM BKN070 09/06 A3012 RMK AO2 SLP198 T00890056=
202311011753 METAR KBFI 011753Z 16005KT 9SM OVC080 08/06 A3013 RMK AO2 RAE1654 SLP203 P0000 60000 T00830056 10083 20039 50005=
202311011653 METAR KBFI 011653Z 00000KT 10SM -RA SCT075 OVC100 08/06 A3014 RMK AO2 RAB38 SLP205 P0000 T00780056=
202311011553 METAR KBFI 011553Z 00000KT 10SM BKN080 OVC090 07/04 A3013 RMK AO2 SLP203 T00720044=
202311011453 METAR KBFI 011453Z 28003KT 9SM BKN075 OVC100 06/04 A3012 RMK AO2 SLP197 T00560044 58005=
202311011353 METAR KBFI 011353Z 14003KT 10SM BKN100 05/04 A3014 RMK AO2 SLP205 T00500039 $=
202311011253 METAR KBFI 011253Z 00000KT 10SM BKN100 05/03 A3013 RMK AO2 SLP202 T00500033 $=
202311011153 METAR KBFI 011153Z 00000KT 6SM BR CLR 04/03 A3013 RMK AO2 SLP202 T00390033 10050 20028 58004 $=
202311011053 METAR KBFI 011053Z 00000KT 7SM CLR 04/03 A3014 RMK AO2 SLP206 T00390033=
202311010953 METAR KBFI 010953Z 00000KT 7SM CLR 05/04 A3014 RMK AO2 SLP207 T00500039=
202311010853 METAR KBFI 010853Z 15004KT 6SM BR CLR 04/03 A3014 RMK AO2 SLP206 T00390033 56002=
202311010753 METAR KBFI 010753Z 14003KT 6SM BR CLR 03/03 A3014 RMK AO2 SLP207 T00330028=
202311010653 METAR KBFI 010653Z 00000KT 6SM BR CLR 04/03 A3015 RMK AO2 SLP207 T00390033 401171006=
202311010553 METAR KBFI 010553Z 00000KT 6SM BR CLR 05/04 A3015 RMK AO2 SLP208 T00500039 10111 20039 53000=
202311010453 METAR KBFI 010453Z 00000KT 6SM BR CLR 05/04 A3015 RMK AO2 SLP208 T00500044=
202311010353 METAR KBFI 010353Z 15003KT 6SM BR CLR 05/04 A3015 RMK AO2 SLP208 T00500044=
202311010253 METAR KBFI 010253Z 00000KT 7SM CLR 06/05 A3015 RMK AO2 SLP208 T00610050 53004=
202311010153 METAR KBFI 010153Z 00000KT 9SM CLR 08/05 A3013 RMK AO2 SLP203 T00780050=
202311010053 METAR KBFI 010053Z 00000KT 10SM CLR 10/05 A3013 RMK AO2 SLP201 T01000050=

# No short TAF reports from KBFI in databse.

###################################
#  large TAF from KBFI
###################################
202311302326 TAF KBFI 302326Z 0100/0124 15005KT 6SM -RA OVC040 FM010300 17009KT
                       P6SM -RA OVC025 FM011200 16010KT P6SM VCSH
                       OVC020 FM011500 18010G18KT 6SM -RA BR OVC015
                       FM012300 21012G20KT P6SM VCSH OVC035=
202311302057 KBFI 302057Z 3021/0118 15004KT P6SM SCT040 OVC070 FM302200 15005KT
                       P6SM -RA OVC035 FM010200 15008KT P6SM -RA
                       OVC025 FM011200 16008KT P6SM VCSH OVC020
                       FM011500 18010G18KT 6SM -RA BR OVC015=
202311301728 TAF KBFI 301728Z 3018/0118 15004KT 6SM BR SCT060 OVC080 FM302200
                       15005KT P6SM -RA OVC035 FM010200 15008KT
                       P6SM -RA OVC025 FM011200 16008KT P6SM VCSH
                       OVC020 FM011500 18010G18KT 6SM -RA BR OVC015=
202311301530 KBFI 301530Z 3015/0112 14004KT 6SM BR OVC080 FM301700 13004KT P6SM
                       OVC060 FM302300 15005KT P6SM -RA OVC030
                       FM010300 15008KT P6SM -RA OVC022=
202311301130 TAF KBFI 301130Z 3012/0112 14004KT 6SM BR OVC080 FM301700 13004KT
                       P6SM OVC060 FM302300 15005KT P6SM -RA OVC030
                       FM010300 15008KT P6SM -RA OVC022=
202311300523 TAF KBFI 300523Z 3006/0106 14003KT P6SM OVC080 FM301200 14004KT
                       P6SM VCSH OVC040 FM301600 14004KT P6SM -RA
                       OVC030 FM302100 15005KT P6SM -RA OVC025=
202311292320 TAF KBFI 292320Z 3000/3024 VRB03KT P6SM OVC100 FM300600 14003KT
                       P6SM BKN060 FM301200 14004KT P6SM VCSH OVC040
                       FM301600 14004KT P6SM -RA OVC030=
202311292100 KBFI 292100Z 2921/3018 VRB03KT P6SM FEW007 OVC090 FM300600 15003KT
                       P6SM BKN060 FM301600 14004KT P6SM -RA OVC025=
202311291913 KBFI 291913Z 2919/3018 VRB03KT 4SM BR FEW004 OVC090 FM292000 VRB03KT
                       P6SM BKN100 FM300600 15003KT P6SM BKN060
                       FM301600 14004KT P6SM -RA OVC025=
202311291759 KBFI 291759Z 2918/3018 VRB03KT 3SM BR SCT004 BKN090
                      TEMPO 2918/2920 2SM BR BKN003 FM292000 VRB03KT
                       P6SM BKN100 FM300600 15003KT P6SM BKN060
                       FM301600 14004KT P6SM -RA OVC025=
202311291721 TAF KBFI 291721Z 2918/3018 VRB03KT 3SM BR SCT004
                      TEMPO 2918/2920 1/4SM FG VV002 FM292000 VRB03KT
                       P6SM BKN100 FM300600 15003KT P6SM BKN060
                       FM301600 14004KT P6SM -RA OVC025=
202311291131 TAF KBFI 291131Z 2912/3012 00000KT 1/4SM FG VV001 FM291800 VRB02KT
                       3SM BR SCT004 FM292000 VRB03KT P6SM BKN100
                       FM300600 15003KT P6SM BKN060=
202311290816 KBFI 290816Z 2908/3006 00000KT 3SM BR SCT002
                      TEMPO 2909/2911 1/2SM FG VV002 FM291100 00000KT
                       1/2SM FG VV002 FM291900 VRB02KT 3SM BCFG
                       SCT003 FM292100 16004KT P6SM BKN100=
202311290520 TAF KBFI 290520Z 2906/3006 00000KT 3SM BR SCT002 FM290800 00000KT
                       1/2SM FG BKN003 FM291900 VRB02KT 3SM BCFG
                       SCT003 FM292100 16004KT P6SM BKN100=
202311282333 TAF KBFI 282333Z 2900/2924 00000KT 6SM BR FEW002 SCT200 FM290300
                       00000KT 5SM BR SCT002 FM290700 00000KT 1/2SM
                       FG BKN003 FM291900 VRB02KT 3SM BCFG SCT003
                       FM292100 20004KT P6SM BKN100=
202311282110 KBFI 282110Z 2821/2918 VRB03KT P6SM SCT200
                      TEMPO 2821/2823 2SM BR BKN003 FM290500 00000KT
                       6SM BR SCT008 FM290900 00000KT 5SM BR OVC006
                       FM291700 20004KT P6SM BKN100=
202311282059 KBFI 282059Z 2821/2918 VRB03KT P6SM SCT200
                      TEMPO 2821/2823 1SM BR VV003 FM290500 00000KT
                       6SM BR SCT008 FM290900 00000KT 5SM BR OVC006
                       FM291700 20004KT P6SM BKN100=
202311281720 TAF KBFI 281720Z 2818/2918 VRB03KT 3SM BR SCT006
                      TEMPO 2818/2821 1/4SM FZFG VV002 FM282100
                       VRB03KT P6SM SCT200 FM290500 00000KT 6SM
                       BR SCT008 FM290900 00000KT 5SM BR OVC006
                       FM291700 20004KT P6SM BKN100=
202311281121 TAF KBFI 281121Z 2812/2912 VRB02KT 1/4SM FG VV001 FM281800 VRB03KT
                       3SM BR BKN006 FM281900 VRB03KT P6SM FEW010
                       SCT200 FM290500 00000KT 6SM BR SCT008 FM290900
                       00000KT 5SM BR OVC006=
202311280527 TAF KBFI 280527Z 2806/2906 VRB03KT 5SM BR SKC FM280700 VRB02KT
                       1/2SM FG VV001 FM281900 VRB04KT P6SM FEW250
                       FM290400 VRB02KT 6SM BR SCT001=
202311280336 KBFI 280336Z 2804/2824 VRB02KT 3SM BR SCT003 FM280500 VRB03KT 1/2SM
                       FG BKN001 FM281900 VRB04KT P6SM FEW250=
202311272329 TAF KBFI 272329Z 2800/2824 VRB02KT P6SM FEW008 FM281000 VRB03KT
                       3SM BR SCT003 FM281200 VRB03KT 1/2SM FG
                       BKN001 FM281900 VRB04KT P6SM FEW250=
202311271720 TAF KBFI 271720Z 2718/2818 VRB03KT 4SM BR BKN004
                      TEMPO 2718/2719 1/4SM FG VV001 FM271900 33003KT
                       P6SM SCT100 SCT250 FM281000 VRB03KT 3SM
                       BR SCT003=
202311271155 TAF KBFI 271155Z 2712/2812 00000KT 1/4SM FZFG VV001 FM271800 VRB03KT
                       3SM BR SCT001 FM271900 33003KT P6SM SCT100
                       SCT250 FM281000 VRB03KT 3SM BR SCT003=
202311271015 KBFI 271015Z 2710/2806 00000KT 1SM BR VV001 FM271100 00000KT 1/4SM
                       FG VV001 FM271900 33003KT P6SM SCT100 SCT250=
202311270853 KBFI 270853Z 2709/2806 00000KT P6SM SKC
                      TEMPO 2709/2711 2SM BR SKC FM271100 00000KT
                       1/4SM FG OVC002 FM271900 33003KT P6SM SCT100
                       SCT250=
202311270529 TAF KBFI 270529Z 2706/2806 00000KT P6SM SKC FM270700 00000KT 2SM
                       BR SKC FM271000 00000KT 1/4SM FG OVC002
                       FM271900 33003KT P6SM SCT100 SCT250=
202311270305 KBFI 270305Z 2703/2724 00000KT P6SM SKC FM270700 00000KT 2SM BR
                       SKC FM271000 00000KT 1/4SM FG OVC002 FM271900
                       33003KT P6SM SCT100 SCT250=
202311262320 TAF KBFI 262320Z 2700/2724 35004KT P6SM FEW250 FM270300 00000KT
                       P6SM SKC FM270700 00000KT 2SM BR SKC FM271000
                       00000KT 1/4SM FG OVC002 FM271900 33003KT
                       P6SM SCT100 SCT250=
202311261903 KBFI 261903Z 2619/2718 35004KT P6SM FEW250
                      TEMPO 2619/2620 1SM BR OVC002 FM270300 00000KT
                       P6SM SKC FM270700 00000KT 2SM BR SKC FM271000
                       00000KT 1/4SM FG OVC002=
202311261720 TAF KBFI 261720Z 2618/2718 13002KT 1/4SM FG VV002
                      TEMPO 2618/2619 2SM BR OVC002 FM261900 35004KT
                       P6SM FEW250 FM270300 00000KT P6SM SKC FM270700
                       00000KT 2SM BR SKC FM271000 00000KT 1/4SM
                       FG OVC002=
202311261234 KBFI 261234Z 2613/2712 13002KT 1/4SM FG OVC001
                      TEMPO 2615/2618 2SM BR OVC002 FM261800 35004KT
                       P6SM FEW250 FM270300 00000KT P6SM SKC FM270700
                       00000KT 2SM BR SKC=
202311261133 TAF KBFI 261133Z 2612/2712 12002KT 2SM BR BKN002
                      TEMPO 2613/2617 1/2SM FG OVC002 FM261800
                       35004KT P6SM FEW250 FM270300 00000KT P6SM
                       SKC FM270700 00000KT 2SM BR SKC=
202311261019 KBFI 261019Z 2610/2706 00000KT 5SM BR FEW003
                      TEMPO 2610/2612 2SM BR BKN003 FM261200 00000KT
                       2SM BR FEW003 FM261800 01004KT P6SM SKC=
202311260804 KBFI 260804Z 2608/2706 00000KT P6SM SKC FM260900 00000KT 5SM BR
                       SKC FM261200 00000KT 2SM BR FEW003 FM261800
                       01004KT P6SM SKC=
202311260533 TAF KBFI 260533Z 2606/2706 00000KT P6SM SKC FM260900 00000KT 1/2SM
                       FG OVC003 FM261800 01004KT P6SM SKC=
202311252320 TAF KBFI 252320Z 2600/2624 01005KT P6SM SKC FM260300 00000KT P6SM
                       SKC FM260900 00000KT 1/2SM FG OVC003 FM261800
                       01004KT P6SM SCT250=
202311251720 TAF KBFI 251720Z 2518/2618 VRB03KT 5SM BR FEW005 SCT250
                      TEMPO 2518/2519 1SM BR OVC003 FM252000 36005KT
                       P6SM SKC FM260300 00000KT P6SM SKC FM260900
                       00000KT 1/2SM FG OVC003=
202311251427 KBFI 251427Z 2514/2612 12003KT 5SM BR FEW005 SCT250
                      TEMPO 2514/2517 1SM BR BKN002 OVC005 FM251800
                       36005KT P6SM SKC FM260300 00000KT P6SM SKC
                       FM260900 00000KT 5SM BR FEW007=
202311251123 TAF KBFI 251123Z 2512/2612 12003KT 5SM BR FEW005 SCT250
                      TEMPO 2513/2517 1SM BR BKN005 FM251800 36005KT
                       P6SM SKC FM260300 00000KT P6SM SKC FM260900
                       00000KT 5SM BR FEW007=
202311250529 TAF KBFI 250529Z 2506/2606 00000KT P6SM FEW250 FM251200 00000KT
                       4SM BR FEW010 SCT250 FM251800 36005KT P6SM
                       SKC FM260300 00000KT P6SM SKC=
202311242320 TAF KBFI 242320Z 2500/2524 VRB02KT P6SM SKC FM251200 00000KT 4SM
                       BR FEW010 SCT250 FM251800 32004KT P6SM SKC=
202311242055 KBFI 242055Z 2421/2518 08005KT P6SM SKC FM242200 VRB02KT P6SM SKC
                       FM250900 00000KT 5SM BR FEW010 FEW250 FM251700
                       32004KT P6SM SKC=
202311241855 KBFI 241855Z 2419/2518 15005KT P6SM FEW002 FM242200 VRB02KT P6SM
                       SKC FM250900 00000KT 5SM BR FEW010 FEW250
                       FM251700 32004KT P6SM SKC=
202311241851 KBFI 241851Z 2419/2518 VRB02KT P6SM FEW002
                      TEMPO 2418/2420 2SM BR BKN002 FM242000 35005KT
                       P6SM SCT005 FM242200 VRB02KT P6SM SKC FM250900
                       00000KT 5SM BR FEW010 FEW250 FM251700 32004KT
                       P6SM SKC=
202311241810 KBFI 241810Z 2418/2518 VRB02KT P6SM SCT005
                      TEMPO 2418/2420 2SM BR BKN002 FM242000 35005KT
                       P6SM SCT005 FM242200 VRB02KT P6SM SKC FM250900
                       00000KT 5SM BR FEW010 FEW250 FM251700 32004KT
                       P6SM SKC=
202311241722 TAF KBFI 241722Z 2418/2518 VRB02KT P6SM SCT005
                      TEMPO 2418/2420 1/2SM FG VV001 FM242000 35005KT
                       P6SM SCT005 FM242200 VRB02KT P6SM SKC FM250900
                       00000KT 5SM BR FEW010 FEW250 FM251700 32004KT
                       P6SM SKC=
202311241612 KBFI 241612Z 2416/2512 VRB02KT P6SM SCT005
                      TEMPO 2416/2418 1/2SM FG VV001 FM241800 35005KT
                       P6SM SKC FM250300 00000KT P6SM SKC FM250900
                       00000KT 5SM BR FEW010 FEW250=
202311241611 KBFI 241611Z 2416/2512 VRB02KT P6SM SCT005
                      TEMPO 2416/2418 VV001 FM241800 35005KT P6SM
                       SKC FM250300 00000KT P6SM SKC FM250900 00000KT
                       5SM BR FEW010 FEW250=
202311241554 KBFI 241554Z 2416/2512 VRB02KT P6SM SCT005 FM241800 35005KT P6SM
                       SKC FM250300 00000KT P6SM SKC FM250900 00000KT
                       5SM BR FEW010 FEW250=
202311241251 KBFI 241251Z 2413/2512 VRB02KT P6SM SCT005
                      TEMPO 2413/2416 5SM BR BKN004 FM241800 35005KT
                       P6SM SKC FM250300 00000KT P6SM SKC FM250900
                       00000KT 5SM BR FEW010 FEW250=
202311241124 TAF KBFI 241124Z 2412/2512 00000KT P6SM SKC FM241300 VRB02KT P6SM
                       FEW010 FM241800 35005KT P6SM SKC FM250300
                       00000KT P6SM SKC FM250900 00000KT 5SM BR
                       FEW010 FEW250=
202311240520 TAF KBFI 240520Z 2406/2506 06004KT P6SM SKC FM241300 VRB02KT P6SM
                       SCT010 FM242000 35005KT P6SM SKC FM250300
                       VRB02KT P6SM SKC=
202311232320 TAF KBFI 232320Z 2400/2424 03004KT P6SM FEW035 FM241500 00000KT
                       P6SM SCT010 FM242100 33004KT P6SM SKC=
202311232108 KBFI 232108Z 2321/2418 04006KT P6SM SCT020 FM232200 35010KT P6SM
                       SKC FM240400 VRB03KT P6SM SKC FM240800 00000KT
                       P6SM SCT010 FM241600 VRB04KT P6SM SKC=
202311232021 KBFI 232021Z 2320/2418 33006KT P6SM SCT020 BKN025 FM232200 35010KT
                       P6SM SKC FM240400 VRB03KT P6SM SKC FM240800
                       00000KT P6SM SCT010 FM241600 VRB04KT P6SM
                       SKC=
202311231720 TAF KBFI 231720Z 2318/2418 04006KT P6SM BKN022 OVC045 FM232000
                       33006KT P6SM SCT020 BKN050 FM232200 35010KT
                       P6SM SKC FM240400 VRB03KT P6SM SKC FM240800
                       00000KT P6SM SCT010 FM241600 VRB04KT P6SM
                       SKC=
202311231542 KBFI 231542Z 2316/2412 VRB03KT P6SM BKN022 OVC045 FM231800 33006KT
                       P6SM SCT020 BKN050 FM232000 33010KT P6SM
                       SKC FM240400 VRB03KT P6SM SKC=
202311231327 KBFI 231327Z 2313/2412 VRB03KT P6SM BKN022 OVC045 FM231700 33006KT
                       P6SM SCT020 FM231900 33010KT P6SM SKC FM240400
                       VRB03KT P6SM SKC=
202311231120 TAF KBFI 231120Z 2312/2412 35003KT P6SM SCT013 SCT018 BKN040 FM231700
                       33006KT P6SM SCT020 FM231900 33010KT P6SM
                       SKC FM240400 VRB03KT P6SM SKC=
202311230902 KBFI 230902Z 2309/2406 00000KT P6SM SCT019 OVC045 FM231100 35003KT
                       P6SM OVC019 FM231700 33006KT P6SM SCT020
                       FM231900 33010KT P6SM SKC FM240400 VRB03KT
                       P6SM SKC=
202311230531 TAF KBFI 230531Z 2306/2406 00000KT P6SM SCT200 FM230700 00000KT
                       P6SM OVC018 FM231700 33006KT P6SM SCT020
                       FM231900 33010KT P6SM SKC FM240400 VRB03KT
                       P6SM SKC=
202311222323 TAF KBFI 222323Z 2300/2324 34006KT P6SM BKN035 FM230600 VRB02KT
                       P6SM SCT100 FM231100 VRB02KT P6SM BKN015
                       BKN050 FM231700 34006KT P6SM SCT100=
202311222054 KBFI 222054Z 2221/2318 34004KT P6SM SCT015 BKN025 BKN050 FM222300
                       34005KT P6SM SCT060 FM231100 VRB02KT P6SM
                       BKN015 BKN050 FM231700 34006KT P6SM SCT100=
202311221725 TAF KBFI 221725Z 2218/2318 34004KT P6SM SCT010 BKN015 BKN030 FM222100
                       34005KT P6SM SCT060 FM231100 VRB02KT P6SM
                       BKN015 BKN050 FM231700 34006KT P6SM SCT100=
202311221536 KBFI 221536Z 2216/2312 36003KT P6SM SCT007 BKN020 OVC060 FM221700
                       36008KT P6SM SCT012 BKN015 OVC025 FM222100
                       36008KT P6SM BKN050 FM231100 04007KT P6SM
                       OVC015=
202311221402 KBFI 221402Z 2214/2312 36003KT P6SM SCT007 BKN017 OVC022
                      TEMPO 2214/2216 3SM BR BKN007 FM221700 36008KT
                       P6SM SCT012 BKN015 OVC025 FM222100 36008KT
                       P6SM BKN050 FM231100 04007KT P6SM OVC015=
202311221303 KBFI 221303Z 2213/2312 36003KT 2SM BR BKN007 BKN016 OVC022 FM221500
                       36006KT 5SM BR BKN012 OVC015 FM221700 36008KT
                       P6SM SCT012 BKN015 OVC025 FM222100 36008KT
                       P6SM BKN050 FM231100 04007KT P6SM OVC015=
202311221135 KBFI 221135Z 2212/2312 00000KT 2SM BR BKN004 OVC018 FM221500 36006KT
                       5SM BR BKN012 OVC015 FM221700 36008KT P6SM
                       SCT012 BKN015 OVC025 FM222100 36008KT P6SM
                       BKN050 FM231100 04007KT P6SM OVC015=
202311221120 TAF KBFI 221120Z 2212/2312 00000KT 2SM BR BKN009 OVC018 FM221500
                       36006KT 5SM BR BKN012 OVC015 FM221700 36008KT
                       P6SM SCT012 BKN015 OVC025 FM222100 36008KT
                       P6SM BKN050 FM231100 04007KT P6SM OVC015=
202311221003 KBFI 221003Z 2210/2306 00000KT 2SM BR FEW008 BKN016 OVC035 FM221200
                       31006KT P6SM BKN009 OVC015 FM221900 33006KT
                       P6SM SCT012 BKN020 OVC030 FM222200 33006KT
                       P6SM BKN045=
202311220805 KBFI 220805Z 2208/2306 00000KT 2SM -RA BR FEW015 OVC025 FM221000
                       31006KT P6SM SCT012 BKN022 OVC040 FM221200
                       31006KT P6SM BKN009 OVC015 FM221900 33006KT
                       P6SM SCT012 BKN020 OVC030 FM222200 33006KT
                       P6SM BKN045=
202311220543 TAF KBFI 220543Z 2206/2306 17006KT P6SM -RA OVC045 FM221000 31006KT
                       P6SM SCT012 BKN022 OVC040 FM221200 31006KT
                       P6SM BKN009 OVC015 FM221900 33006KT P6SM
                       SCT012 BKN020 OVC030 FM222200 33006KT P6SM
                       BKN045=
202311220358 KBFI 220358Z 2204/2224 VRB03KT P6SM -RA OVC050 FM221100 33004KT
                       4SM -RA BR OVC015 FM221700 36005KT P6SM
                       OVC020=
202311212328 TAF KBFI 212328Z 2200/2224 19007KT P6SM OVC100 FM220300 18006KT
                       P6SM -RA OVC050 FM220600 18005KT P6SM -RA
                       OVC020 FM221100 33004KT 4SM -RA BR OVC015
                       FM221700 36005KT P6SM OVC020=
202311211728 TAF KBFI 211728Z 2118/2218 VRB03KT P6SM BKN250 FM212100 19007KT
                       P6SM OVC250 FM220300 18006KT P6SM -RA OVC050
                       FM220600 18005KT P6SM -RA OVC020 FM221100
                       33004KT 4SM -RA BR OVC015=
202311211124 TAF KBFI 211124Z 2112/2212 08005KT P6SM BKN250 FM212100 19007KT
                       P6SM OVC250 FM220300 18006KT P6SM -RA OVC050
                       FM220600 18005KT P6SM -RA OVC020=
202311210529 TAF KBFI 210529Z 2106/2206 00000KT P6SM BKN250 FM211500 17005KT
                       P6SM OVC200 FM220200 18006KT P6SM -RA OVC050
                       FM220500 36005KT P6SM -RA OVC025=
202311202320 TAF KBFI 202320Z 2100/2124 33003KT P6SM BKN250 FM210400 18004KT
                       P6SM BKN250 FM211700 21004KT P6SM OVC200=
202311201737 TAF KBFI 201737Z 2018/2118 VRB02KT P6SM FEW005 SCT250
                      TEMPO 2018/2019 BKN005 FM202200 33003KT P6SM
                       SCT250 FM210400 18004KT P6SM SCT250 FM211700
                       21004KT P6SM SCT250=
202311201120 TAF KBFI 201120Z 2012/2112 15004KT P6SM FEW025 BKN250 FM201800
                       36006KT P6SM SCT250 FM210300 07005KT P6SM
                       SCT250 FM210900 14006KT P6SM SCT250=
202311200528 TAF KBFI 200528Z 2006/2106 15006KT P6SM SCT030 BKN040 FM201200
                       13003KT P6SM SCT015 BKN050 FM202100 36004KT
                       P6SM SCT100 FM210300 11003KT P6SM SCT100=
202311200253 KBFI 200253Z 2003/2024 08008KT P6SM BKN030 BKN040 FM201200 13003KT
                       P6SM SCT015 BKN050 FM202100 36004KT P6SM
                       SCT100=
202311192321 TAF KBFI 192321Z 2000/2024 18007KT P6SM FEW035 BKN045 BKN080 FM200300
                       16004KT P6SM BKN050 FM201200 13003KT P6SM
                       SCT015 BKN050 FM202100 36004KT P6SM SCT100=
202311192201 KBFI 192201Z 1922/2018 17010KT P6SM FEW030 SCT040 OVC050 FM200300
                       16005KT P6SM OVC050 FM201200 13003KT P6SM
                       SCT015=
202311192056 KBFI 192056Z 1921/2018 17004KT P6SM OVC030 FM200300 16005KT P6SM
                       OVC050 FM201200 13003KT P6SM SCT015=
202311192053 KBFI 192053Z 1921/2018 17004KT P6SM OVC035 FM200300 16005KT P6SM
                       OVC050 FM201200 13003KT P6SM SCT015=
202311191720 TAF KBFI 191720Z 1918/2018 21012KT P6SM BKN025 BKN050 BKN120 FM192100
                       23010KT P6SM BKN050 FM200300 16005KT P6SM
                       OVC050 FM201200 13003KT P6SM SCT015=
202311191121 TAF KBFI 191121Z 1912/2012 21012G22KT P6SM VCSH BKN020 BKN120 FM191800
                       21010G18KT P6SM OVC050 FM192100 23010KT
                       P6SM BKN050 FM200300 16005KT P6SM OVC050=
202311190538 TAF KBFI 190538Z 1906/2006 13007KT 6SM -RA BR OVC035 FM190700 16008KT
                       5SM -RA BKN015 OVC035 FM190900 18014G24KT
                       6SM SHRA BKN025 BKN045 FM191200 20012G22KT
                       P6SM -SHRA BKN045 FM191800 20011KT P6SM
                       OVC040 FM200200 14004KT P6SM BKN050=
202311182322 TAF KBFI 182322Z 1900/1924 VRB04KT P6SM SCT100 FM190200 15006KT
                       P6SM -SHRA OVC045 FM190600 17008KT P6SM
                       -RA BKN025 OVC040 FM191100 18014G24KT P6SM
                       SHRA BKN030 BKN045 FM191800 20011KT P6SM
                       OVC040=
202311182059 KBFI 182059Z 1821/1918 VRB04KT P6SM BKN220 FM190200 15006KT P6SM
                       -RA OVC045 FM191100 18014G24KT P6SM SHRA
                       BKN030 BKN045 FM191700 20011KT P6SM -SHRA
                       OVC040=
202311181727 TAF KBFI 181727Z 1818/1918 00000KT P6SM FEW005 SCT100 FM182000
                       VRB04KT P6SM BKN120 FM190200 15006KT P6SM
                       -RA OVC045 FM191100 18014G24KT P6SM SHRA
                       BKN030 BKN045 FM191700 20011KT P6SM -SHRA
                       OVC040=
202311181545 KBFI 181545Z 1816/1912 00000KT 6SM BR SCT002
                      TEMPO 1815/1817 2SM BR BKN002 FM181700 00000KT
                       P6SM BKN200 FM182000 VRB03KT P6SM BKN120
                       FM190200 15006KT P6SM -RA OVC045 FM191100
                       18014G24KT P6SM -SHRA BKN030 BKN045=
202311181440 KBFI 181440Z 1815/1912 00000KT 2SM BR BKN002
                      TEMPO 1816/1817 4SM BR SCT002 FM181700 00000KT
                       P6SM BKN200 FM182000 VRB03KT P6SM BKN120
                       FM190200 15006KT P6SM -RA OVC045 FM191100
                       18014G24KT P6SM -SHRA BKN030 BKN045=
202311181140 TAF KBFI 181140Z 1812/1912 VRB03KT P6SM BKN200 FM182000 VRB03KT
                       P6SM BKN120 FM190200 15006KT P6SM -RA OVC045
                       FM191100 18014G24KT P6SM -SHRA BKN030 BKN045=
202311180533 TAF KBFI 180533Z 1806/1906 00000KT P6SM SCT250 FM181500 15004KT
                       P6SM SCT250 FM182000 20005KT P6SM SCT100
                       FM190200 15006KT P6SM SHRA OVC050=
202311172320 TAF KBFI 172320Z 1800/1824 32005KT P6SM SKC FM180600 VRB04KT P6SM
                       SCT250 FM181500 15004KT P6SM SCT250 FM182000
                       20005KT P6SM SCT250=
202311172054 KBFI 172054Z 1721/1818 00000KT P6SM SKC FM180600 VRB04KT P6SM SCT250
                       FM181500 15004KT P6SM SCT250=
202311171720 TAF KBFI 171720Z 1718/1818 00000KT P6SM SKC FM172200 33004KT P6SM
                       FEW250 FM180600 VRB04KT P6SM SCT250 FM181500
                       00000KT P6SM SCT250=
202311171528 KBFI 171528Z 1715/1812 00000KT P6SM BKN004 FM171700 01003KT P6SM
                       FEW250 FM180600 11001KT P6SM SCT250=
202311171121 TAF KBFI 171121Z 1712/1812 00000KT P6SM SKC
                      TEMPO 1712/1715 3SM BCFG BKN004 FM171700
                       01003KT P6SM FEW250 FM180600 11001KT P6SM
                       SCT250=
202311170527 TAF KBFI 170527Z 1706/1806 00000KT P6SM SKC FM171000 VRB03KT P6SM
                       FEW250=
202311162320 TAF KBFI 162320Z 1700/1724 05004KT P6SM SKC FM170600 00000KT P6SM
                       SKC FM171000 VRB04KT P6SM FEW250=
202311162108 KBFI 162108Z 1621/1718 34004KT P6SM SKC FM170600 00000KT P6SM SKC
                       FM171000 VRB04KT P6SM FEW250=
202311161720 TAF KBFI 161720Z 1618/1718 00000KT P6SM FEW004 FM162000 34004KT
                       P6SM FEW010 SCT200 FM170600 00000KT P6SM
                       SKC=
202311161457 KBFI 161457Z 1615/1712 VRB03KT P6SM SCT006
                      TEMPO 1615/1617 6SM BR BKN006 FM161800 32004KT
                       P6SM FEW010 SCT200 FM170600 00000KT P6SM
                       SKC=
202311161125 TAF KBFI 161125Z 1612/1712 00000KT P6SM SKC
                      TEMPO 1612/1615 6SM BR BKN006 FM161800 32004KT
                       P6SM FEW010 SCT200 FM170600 00000KT P6SM
                       SKC=
202311160529 TAF KBFI 160529Z 1606/1706 VRB03KT P6SM SCT025 FM160900 00000KT
                       P6SM FEW006
                      TEMPO 1609/1612 6SM BR BKN006 FM161200 00000KT
                       P6SM SCT006 FM161800 32004KT P6SM FEW010
                       SCT200=
202311152332 TAF KBFI 152332Z 1600/1624 35004KT P6SM SKC FM160400 VRB03KT P6SM
                       SCT070 BKN200 FM160900 00000KT 6SM BR FEW200
                       FM161700 01004KT P6SM BKN250=
202311152102 KBFI 152102Z 1521/1618 VRB03KT P6SM BKN050 FM152300 33004KT P6SM
                       BKN100 OVC200 FM160400 VRB03KT P6SM SCT070
                       BKN200 FM161700 01004KT P6SM BKN250=
202311151720 TAF KBFI 151720Z 1518/1618 VRB03KT P6SM BKN130 FM152300 33004KT
                       P6SM BKN100 OVC200 FM160400 VRB03KT P6SM
                       SCT070 BKN200=
202311151141 TAF KBFI 151141Z 1512/1612 00000KT P6SM SCT005 OVC050
                      TEMPO 1512/1514 P6SM BKN005 FM151800 VRB03KT
                       P6SM BKN080 OVC120 FM152300 33004KT P6SM
                       BKN100 OVC200 FM160400 VRB03KT P6SM SCT070
                       BKN200=
202311150831 KBFI 150831Z 1509/1606 00000KT P6SM SCT005 BKN200
                      TEMPO 1509/1512 5SM BR BKN005 FM151800 VRB03KT
                       P6SM BKN080 OVC120 FM152300 33004KT P6SM
                       BKN100 OVC200 FM160400 VRB03KT P6SM SCT070
                       BKN200=
202311150521 TAF KBFI 150521Z 1506/1606 VRB03KT P6SM SCT200 FM150800 00000KT
                       P6SM FEW006 BKN200
                      TEMPO 1511/1515 5SM BR BKN006 FM151800 VRB03KT
                       P6SM BKN080 OVC120 FM152300 33004KT P6SM
                       BKN100 OVC200 FM160400 VRB03KT P6SM SCT070
                       BKN200=
202311142338 TAF KBFI 142338Z 1500/1524 31006KT P6SM SCT200 FM150500 VRB03KT
                       P6SM BKN200 FM150800 00000KT P6SM FEW006
                       BKN200
                      TEMPO 1511/1515 5SM BR BKN006 FM151800 VRB03KT
                       P6SM BKN120 OVC200 FM152300 33004KT P6SM
                       BKN100 OVC200=
202311141730 TAF KBFI 141730Z 1418/1518 VRB03KT P6SM SCT018 FM141900 33004KT
                       P6SM SCT200 FM150300 VRB03KT P6SM BKN200
                       FM150800 04004KT 6SM BR BKN006=
202311141143 TAF KBFI 141143Z 1412/1512 VRB03KT P6SM SCT006 SCT200
                      TEMPO 1412/1416 BKN006 FM141800 33004KT P6SM
                       SCT200 FM150300 VRB03KT P6SM BKN200 FM150800
                       04004KT 6SM BR BKN006=
202311140958 KBFI 140958Z 1410/1506 VRB03KT P6SM SCT007 SCT200
                      TEMPO 1410/1412 BKN007 FM141800 33004KT P6SM
                       SCT200 FM150300 VRB03KT P6SM BKN200=
202311140524 TAF KBFI 140524Z 1406/1506 VRB03KT P6SM SCT200 FM141100 VRB03KT
                       P6SM FEW008 SCT200 FM141800 33004KT P6SM
                       SCT200 FM150300 VRB03KT P6SM BKN200=
202311132320 TAF KBFI 132320Z 1400/1424 02003KT P6SM FEW050 SCT250 FM140300
                       VRB03KT P6SM SCT250 FM141100 VRB04KT 5SM
                       BR SCT010 FM141800 34004KT P6SM SCT250=
202311131936 KBFI 131936Z 1320/1418 VRB05KT P6SM SCT020 BKN035
                      TEMPO 1320/1322 BKN025 FM132200 VRB03KT P6SM
                       SCT050 SCT250 FM140200 03003KT P6SM SCT250
                       FM141100 VRB03KT 5SM BR SCT010=
202311131726 TAF KBFI 131726Z 1318/1418 19005KT P6SM SCT020 BKN035 FM132100
                       VRB03KT P6SM SCT050 SCT250 FM140200 03003KT
                       P6SM SCT250 FM141100 VRB03KT 5SM BR SCT010=
202311131120 TAF KBFI 131120Z 1312/1412 17007KT P6SM VCSH SCT020 OVC035
                      TEMPO 1312/1316 BKN015 FM132100 21006KT P6SM
                       SCT050 SCT250 FM140300 VRB03KT P6SM SCT250=
202311130534 TAF KBFI 130534Z 1306/1406 16010KT P6SM -RA OVC035 FM130800 18010KT
                       P6SM VCSH BKN030 BKN045 FM131200 20007KT
                       P6SM VCSH OVC028 FM132100 23006KT P6SM BKN050
                       FM140300 VRB03KT P6SM FEW050 FEW200=
202311122327 TAF KBFI 122327Z 1300/1324 VRB03KT P6SM -RA OVC070 FM130400 14010KT
                       P6SM -RA OVC050 FM130800 18010KT 6SM -RA
                       BR OVC025 FM131300 20007KT P6SM OVC028 FM132100
                       23006KT P6SM BKN050=
202311121942 KBFI 121942Z 1220/1318 12004KT P6SM VCSH SCT070 BKN150 FM130000
                       10008KT P6SM -RA BKN070 OVC100 FM130400
                       14010KT P6SM -RA OVC050 FM130800 18010KT
                       6SM -RA BR OVC025 FM131300 18007KT P6SM
                       OVC028=
202311121740 TAF KBFI 121740Z 1218/1318 12004KT P6SM BKN150 FM130000 10008KT
                       P6SM -RA BKN070 OVC100 FM130400 14010KT
                       P6SM -RA OVC050 FM130800 18010KT 6SM -RA
                       BR OVC025 FM131300 18007KT P6SM OVC028=
202311121120 TAF KBFI 121120Z 1212/1312 VRB04KT P6SM BKN045 OVC120 FM121800
                       10004KT P6SM BKN100 OVC200 FM130000 13005KT
                       P6SM OVC090 FM130400 14007KT P6SM -RA OVC040
                       FM130800 16008KT 6SM -RA BR OVC025=
202311120520 TAF KBFI 120520Z 1206/1306 17008KT P6SM BKN040 BKN080 FM121200
                       13004KT P6SM BKN050 OVC100 FM121800 10004KT
                       P6SM BKN100 OVC200 FM130000 13005KT P6SM
                       OVC090 FM130400 14007KT P6SM -RA OVC040=
202311112327 TAF KBFI 112327Z 1200/1224 19015G22KT P6SM VCSH SCT035 BKN045 OVC060
                       FM120300 18011KT P6SM BKN050 OVC080 FM120800
                       15005KT P6SM OVC040 FM121200 11004KT P6SM
                       FEW020 OVC100 FM121800 07003KT P6SM OVC100=
202311112053 KBFI 112053Z 1121/1218 20010G18KT P6SM VCSH FEW030 BKN100 FM120300
                       20008KT P6SM BKN050 OVC080 FM120800 17004KT
                       P6SM OVC040 FM121200 11004KT P6SM OVC100=
202311111720 TAF KBFI 111720Z 1118/1218 18010G21KT P6SM VCSH SCT020 BKN080 FM112100
                       20010G18KT P6SM VCSH FEW030 OVC050 FM120300
                       20008KT P6SM BKN050 OVC080 FM120800 17004KT
                       P6SM OVC040 FM121200 11004KT P6SM OVC100=
202311111120 TAF KBFI 111120Z 1112/1212 20015G25KT P6SM -RA OVC030 FM111800
                       20015KT P6SM VCSH OVC035 FM112100 20012KT
                       P6SM OVC050 FM120300 19006KT P6SM BKN050
                       OVC080 FM120800 14004KT P6SM OVC050=
202311110536 TAF KBFI 110536Z 1106/1206 17012KT P6SM BKN050 OVC080 FM111000
                       18025G35KT P6SM -RA OVC045 FM111300 20015G25KT
                       P6SM -SHRA OVC030 FM111800 20015KT P6SM
                       OVC035 FM112100 20012KT P6SM OVC050 FM120300
                       19006KT P6SM BKN050 OVC080=
202311102326 TAF KBFI 102326Z 1100/1124 15012KT P6SM VCSH FEW040 BKN060 OVC090
                       FM110400 18012G20KT P6SM -RA OVC050 FM110900
                       19025G35KT P6SM -RA OVC045 FM111300 20015G25KT
                       P6SM -SHRA OVC030 FM111800 20015KT P6SM
                       OVC035 FM112100 20012KT P6SM OVC050=
202311102101 KBFI 102101Z 1021/1118 20006KT P6SM BKN025 BKN060 FM110400 18012G20KT
                       P6SM -RA OVC050 FM110900 19020G30KT P6SM
                       -RA OVC045 FM111300 20015G25KT P6SM -SHRA
                       OVC025=
202311101737 TAF KBFI 101737Z 1018/1118 18006KT P6SM VCSH SCT022 BKN030 OVC040
                       TEMPO 1018/1020 -SHRA BKN020 FM102100 19010KT
                       P6SM OVC050 FM110400 18012G20KT P6SM -RA
                       OVC050 FM110900 19020G30KT P6SM -RA OVC045
                       FM111300 20015G25KT P6SM -SHRA OVC025=
202311101120 TAF KBFI 101120Z 1012/1112 15004KT P6SM OVC015 FM101400 17007KT
                       P6SM BKN020 FM101700 18007KT P6SM SCT035
                       OVC050 FM102300 19008KT P6SM -RA OVC045
                       FM110400 16013G22KT P6SM OVC040=
202311100527 TAF KBFI 100527Z 1006/1106 17009KT P6SM FEW035 BKN050 FM101000
                       16008KT P6SM SCT020 OVC030 FM101700 18007KT
                       P6SM SCT035 OVC050 FM102300 19008KT P6SM
                       OVC045=
202311100309 KBFI 100309Z 1003/1024 13006KT P6SM -RA SCT020 BKN030 OVC040 FM100800
                       16008KT P6SM SCT020 OVC030 FM101700 18007KT
                       P6SM SCT035 OVC050=
202311092323 TAF KBFI 092323Z 1000/1024 15006KT P6SM -RA OVC050 FM100300 16008KT
                       P6SM -RA SCT020 BKN030 OVC045 FM100800 16008KT
                       P6SM SCT020 OVC030 FM101700 18007KT P6SM
                       SCT035 OVC050=
202311092052 KBFI 092052Z 0921/1018 18006KT P6SM FEW006 OVC150 FM092200 15006KT
                       P6SM -RA OVC050 FM100300 15008KT P6SM -RA
                       SCT020 BKN030 OVC045 FM100800 15008KT P6SM
                       SCT020 OVC030 FM101700 16007KT P6SM SCT030
                       OVC050=
202311091841 KBFI 091841Z 0919/1018 15006KT P6SM SCT006 OVC140 FM092000 18006KT
                       P6SM FEW006 OVC150 FM092200 15006KT P6SM
                       -RA OVC050 FM100300 15008KT P6SM -RA SCT020
                       BKN030 OVC045 FM100800 15008KT P6SM SCT020
                       OVC030 FM101700 16007KT P6SM SCT030 OVC050=
202311091840 KBFI 091840Z 0919/1018 15006KT P6SM SCT006 OVC014 FM092000 18006KT
                       P6SM FEW006 OVC015 FM092200 15006KT P6SM
                       -RA OVC050 FM100300 15008KT P6SM -RA SCT020
                       BKN030 OVC045 FM100800 15008KT P6SM SCT020
                       OVC030 FM101700 16007KT P6SM SCT030 OVC050=
202311091759 KBFI 091759Z 0918/1018 15006KT P6SM SCT006 FM092200 15006KT P6SM
                       -RA OVC050 FM100300 15008KT P6SM -RA SCT020
                       BKN030 OVC045 FM100800 15008KT P6SM SCT020
                       OVC030 FM101700 16007KT P6SM SCT030 OVC050=
202311091726 TAF KBFI 091726Z 0918/1018 15006KT 4SM BR OVC006 FM092200 15006KT
                       P6SM -RA OVC050 FM100300 15008KT P6SM -RA
                       SCT020 BKN030 OVC045 FM100800 15008KT P6SM
                       SCT020 OVC030 FM101700 16007KT P6SM SCT030
                       OVC050=
202311091501 KBFI 091501Z 0915/1012 15006KT 4SM BR OVC006 FM091800 15006KT P6SM
                       OVC200 FM092200 15006KT P6SM -RA OVC050
                       FM100300 15008KT P6SM -RA SCT020 BKN030
                       OVC045 FM100800 15008KT P6SM SCT020 OVC030=
202311091141 TAF KBFI 091141Z 0912/1012 00000KT 1/4SM FG VV002 FM091500 00000KT
                       1/2SM FG OVC002 FM091800 00000KT 2SM BR
                       OVC004 FM091900 14004KT P6SM OVC200 FM092200
                       16006KT P6SM -RA OVC050 FM100300 16008KT
                       P6SM -RA SCT020 BKN030 OVC045 FM100800 16008KT
                       P6SM SCT020 OVC030=
202311090553 TAF KBFI 090553Z 0906/1006 00000KT P6SM SKC FM090900 VRB03KT P6SM
                       BKN200 FM091400 15003KT P6SM BKN250 FM092200
                       24007KT P6SM -RA OVC060 FM100100 23010KT
                       P6SM -RA OVC035=
202311082320 TAF KBFI 082320Z 0900/0924 VRB03KT P6SM SKC FM090400 06003KT P6SM
                       SCT060 FM090900 VRB03KT P6SM BKN200 FM091400
                       15003KT P6SM BKN250=
202311081721 TAF KBFI 081721Z 0818/0918 16004KT P6SM BKN045 FM090000 32006KT
                       P6SM BKN045 FM090400 06003KT P6SM SCT060
                       FM090900 VRB03KT P6SM BKN200 FM091400 15003KT
                       P6SM BKN250=
202311081338 KBFI 081338Z 0814/0912 16006KT P6SM BKN015 OVC045 FM081700 16006KT
                       P6SM BKN045 FM090000 32006KT P6SM BKN045
                       FM090400 VRB03KT P6SM SCT060 FM090900 VRB03KT
                       P6SM BKN200=
202311081126 TAF KBFI 081126Z 0812/0912 16006KT P6SM BKN045 FM090000 32006KT
                       P6SM BKN045 FM090400 VRB03KT P6SM SCT060
                       FM090900 VRB03KT P6SM BKN200=
202311080541 TAF KBFI 080541Z 0806/0906 VRB04KT P6SM OVC035 FM081800 22003KT
                       P6SM BKN030 FM082200 23004KT P6SM BKN050
                       FM090200 VRB03KT P6SM SCT060=
202311072343 TAF KBFI 072343Z 0800/0824 11004KT P6SM FEW030 OVC060 FM080200
                       14006KT P6SM SCT020 OVC050 FM082200 23004KT
                       P6SM BKN050=
202311071735 TAF KBFI 071735Z 0718/0818 19003KT P6SM BKN009 OVC015 FM071900
                       33004KT P6SM SCT006 BKN035 FM072100 31004KT
                       6SM -SHRA SCT006 BKN015 OVC030 FM080200
                       19006KT P6SM SCT020 BKN035 OVC050 FM080600
                       16006KT P6SM SCT035 OVC050 FM081100 14004KT
                       P6SM OVC040=
202311071140 TAF KBFI 071140Z 0712/0812 18006KT 6SM -SHRA BKN011 OVC020 FM071600
                       24006KT 3SM -SHRA SCT005 BKN009 OVC015 FM072100
                       24006KT P6SM SCT006 BKN015 OVC030 FM080200
                       19006KT P6SM SCT020 BKN035 OVC050 FM080600
                       16006KT P6SM SCT035 OVC050=
202311070522 TAF KBFI 070522Z 0706/0806 16007KT P6SM -RA BKN020 OVC050 FM070800
                       16006KT P6SM -SHRA BKN015 OVC025 FM071200
                       20006KT 6SM -SHRA BR BKN015 OVC025 FM071700
                       19007KT P6SM -SHRA OVC025 FM072000 VRB04KT
                       P6SM BKN040 FM080300 16005KT P6SM BKN060=
202311062339 TAF KBFI 062339Z 0700/0724 14006KT P6SM -RA BKN015 BKN035 OVC050
                       FM070800 16006KT P6SM -SHRA BKN015 OVC025
                       FM071400 20012KT 6SM -SHRA BR BKN015 OVC025
                       FM071700 19008KT P6SM -SHRA OVC025 FM072100
                       17007KT P6SM BKN040=
202311061739 TAF KBFI 061739Z 0618/0718 14006KT P6SM -RA SCT030 BKN045 OVC050
                       FM070800 16006KT P6SM -SHRA SCT015 OVC025
                       FM071100 20012KT 6SM -RA BR SCT015 OVC025
                       FM071700 19008KT P6SM OVC025=
202311061129 TAF KBFI 061129Z 0612/0712 12004KT P6SM SCT040 BKN060 FM061800
                       14006KT P6SM -SHRA SCT030 BKN045 OVC060
                       FM070800 16006KT P6SM -SHRA SCT015 OVC025
                       FM071100 20012KT P6SM SCT015 OVC025=
202311060527 TAF KBFI 060527Z 0606/0706 13005KT P6SM -RA SCT035 OVC050 FM061000
                       14005KT P6SM VCSH BKN035 OVC040 FM061300
                       14005KT P6SM -SHRA BKN020 OVC030 FM061800
                       15005KT P6SM -SHRA BKN025 OVC040=
202311060324 KBFI 060324Z 0603/0624 13005KT P6SM -RA SCT035 OVC045 FM060900
                       14005KT P6SM -RA OVC020 FM061800 15004KT
                       6SM -RA BR OVC050=
202311052320 TAF KBFI 052320Z 0600/0624 12007KT P6SM BKN090 FM060200 15005KT
                       P6SM -RA OVC030 FM060900 14005KT P6SM -RA
                       OVC020 FM061800 15004KT 6SM -RA BR OVC050=
202311052052 KBFI 052052Z 0521/0618 VRB03KT P6SM SCT050 FM052200 15005KT P6SM
                       OVC045 FM060200 15005KT P6SM -RA OVC030
                       FM060900 14005KT P6SM -RA OVC020=
202311051720 TAF KBFI 051720Z 0518/0618 16006KT P6SM FEW060 FM052200 15005KT
                       P6SM OVC045 FM060200 15005KT P6SM -RA OVC030
                       FM060900 14005KT P6SM -RA OVC020=
202311051139 TAF KBFI 051139Z 0512/0612 15007KT P6SM SCT035 BKN100 FM051600
                       16006KT P6SM BKN060 FM052200 15005KT P6SM
                       -RA OVC045 FM060200 15005KT P6SM -RA OVC030
                       FM060900 14005KT P6SM -RA OVC020=
202311050538 TAF KBFI 050538Z 0506/0606 16005KT P6SM SKC FM051000 16005KT P6SM
                       BKN035 BKN100 FM051600 16004KT P6SM BKN070
                       FM052200 13004KT P6SM -RA OVC050=
202311042320 TAF KBFI 042320Z 0500/0524 19010G20KT P6SM BKN050 FM050200 17007KT
                       P6SM BKN045 FM050900 16005KT P6SM OVC030
                       FM051800 16004KT P6SM OVC100=
202311042034 KBFI 042034Z 0421/0518 19015G26KT P6SM FEW040 FM050200 17007KT
                       P6SM VCSH BKN045 FM050900 16005KT P6SM OVC030=
202311041729 KBFI 041729Z 0417/0518 14015KT 6SM -TSRA BKN030 BKN060CB
                      TEMPO 0417/0419 +RA BKN010 BKN030 FM042000
                       20010G22KT P6SM -SHRA OVC040 FM050200 17007KT
                       P6SM VCSH BKN045 FM050900 16005KT P6SM OVC030=
202311041720 TAF KBFI 041720Z 0418/0518 14015KT 6SM -RA VCTS BKN030 BKN060CB
                       TEMPO 0418/0419 +RA BKN010 BKN030 FM042000
                       20010G22KT P6SM -SHRA OVC040 FM050200 17007KT
                       P6SM VCSH BKN045 FM050900 16005KT P6SM OVC030=
202311041447 KBFI 041447Z 0415/0512 17010G16KT 6SM -RA OVC060 WS020/18050KT
                       FM041600 16015G25KT P6SM -SHRA OVC050 WS020/18045KT
                       FM041800 18012G21KT 6SM -SHRA OVC040 FM050200
                       17007KT P6SM VCSH BKN045 FM050900 16005KT
                       P6SM OVC030=
202311041132 TAF KBFI 041132Z 0412/0512 15011KT 6SM -RA BR SCT022 OVC040 FM041400
                       17010G16KT 5SM -RA BR OVC024 FM041800 18012G21KT
                       6SM -SHRA OVC040 FM050200 17007KT P6SM VCSH
                       BKN045 FM050900 16005KT P6SM OVC030=
202311041008 KBFI 041008Z 0410/0506 14010KT 4SM -RA BR OVC035 FM041200 17011KT
                       6SM -RA OVC030 FM041800 18012G21KT P6SM
                       -RA OVC040 FM050300 17007KT P6SM BKN050=
202311040636 KBFI 040636Z 0407/0506 12005KT 4SM -RA BR OVC035 FM040800 14008KT
                       4SM -RA BR OVC030 FM041200 17011KT 6SM -RA
                       OVC030 FM041800 18012G21KT P6SM -RA OVC040
                       FM050300 17007KT P6SM BKN050=
202311040536 TAF KBFI 040536Z 0406/0506 12005KT P6SM -RA OVC040 FM040800 14010KT
                       P6SM -RA OVC025 FM041200 17012G22KT 6SM
                       -RA OVC030 FM041900 18012G21KT P6SM -RA
                       OVC040 FM050300 17007KT P6SM BKN050=
202311032333 TAF KBFI 032333Z 0400/0424 VRB03KT P6SM OVC100 FM040300 12005KT
                       P6SM -RA OVC050 FM040700 14010KT P6SM -RA
                       OVC025 FM041200 17012G22KT 6SM -RA OVC030
                       FM041900 18012G21KT P6SM -RA OVC040=
202311031731 TAF KBFI 031731Z 0318/0418 16003KT P6SM FEW035 BKN200 FM032200
                       12003KT P6SM OVC250 FM040400 12005KT P6SM
                       -RA OVC050 FM040800 14010KT P6SM -RA OVC025
                       FM041400 17012G22KT 6SM -RA OVC020=
202311031457 KBFI 031457Z 0315/0412 17003KT P6SM BKN020 FM031700 16003KT P6SM
                       OVC035 FM032200 12003KT P6SM OVC250 FM040400
                       12005KT P6SM -RA OVC050 FM040800 14010KT
                       P6SM -RA OVC030=
202311031133 TAF KBFI 031133Z 0312/0412 17006KT P6SM BKN015 FM031700 16003KT
                       P6SM OVC035 FM032200 12003KT P6SM OVC250
                       FM040400 12005KT P6SM -RA OVC050 FM040800
                       14010KT P6SM -RA OVC030=
202311030536 TAF KBFI 030536Z 0306/0406 17008KT P6SM VCSH SCT018 BKN050 FM031100
                       15005KT P6SM OVC020 FM031700 16003KT P6SM
                       OVC035 FM032300 12003KT P6SM OVC250 FM040400
                       12005KT P6SM -RA OVC050=
202311022327 TAF KBFI 022327Z 0300/0324 19010G24KT P6SM SCT040 FM030300 17009KT
                       P6SM BKN050 FM031000 16005KT P6SM BKN040
                       FM031400 15005KT 6SM BR BKN015=
202311022059 KBFI 022059Z 0221/0318 18015G24KT P6SM BKN020 OVC035 FM022300 19008KT
                       P6SM BKN050 FM031000 16005KT 6SM BR OVC025
                       FM031400 15005KT 6SM BR BKN015=
202311021726 TAF KBFI 021726Z 0218/0318 16010G22KT 5SM -SHRA BKN015 OVC025
                      TEMPO 0218/0219 2SM -RA BR SCT007 FM021900
                       18010G20KT P6SM BKN020 OVC035 FM022300 19008KT
                       P6SM BKN050 FM031000 16005KT 6SM BR OVC025
                       FM031400 15005KT 6SM BR BKN015=
202311021509 KBFI 021509Z 0215/0312 16010G22KT 5SM -SHRA BKN015 OVC025
                      TEMPO 0215/0217 2SM -RA BR BKN007 FM021900
                       18010G20KT P6SM VCSH BKN020 OVC035 FM030000
                       19009KT P6SM BKN050 FM031100 16005KT 6SM
                       BR OVC025=
202311021140 TAF KBFI 021140Z 0212/0312 16008KT 3SM -RA SCT009 BKN020 OVC035
                       FM021500 16010G22KT 5SM -SHRA BKN015 OVC025
                       FM021900 18010G20KT P6SM VCSH BKN020 OVC035
                       FM030000 19009KT P6SM BKN050 FM031100 16005KT
                       6SM BR OVC025=
202311020901 KBFI 020901Z 0209/0306 VRB04KT 3SM RA BR BKN005 BKN025 OVC030 FM021000
                       15008KT 3SM RA BKN005 OVC015 FM021500 16011G22KT
                       6SM -SHRA OVC015 FM021900 18009KT P6SM VCSH
                       BKN020 OVC035 FM030000 19009KT P6SM BKN050=
202311020523 TAF KBFI 020523Z 0206/0306 VRB04KT 4SM -RA BR OVC030 FM021000 15008KT
                       6SM -SHRA OVC015 FM021500 16011G22KT 6SM
                       -SHRA OVC015 FM021900 18009KT P6SM VCSH
                       BKN020 OVC035 FM030000 19009KT P6SM BKN050=
202311020323 KBFI 020323Z 0203/0224 13004KT 6SM -RA OVC035 FM020430 15008KT
                       4SM -RA BR OVC015 FM021000 15008KT 6SM -SHRA
                       OVC015 FM021500 16011G22KT 6SM -SHRA OVC015
                       FM021900 18009KT P6SM VCSH BKN020 OVC035=
202311012330 TAF KBFI 012330Z 0200/0224 VRB05KT P6SM -RA OVC050 FM020300 13004KT
                       6SM -RA OVC025 FM020600 15008KT 4SM -RA
                       BR OVC015 FM021000 15008KT 6SM -SHRA OVC015
                       FM021500 16011G22KT 6SM -SHRA OVC015 FM021900
                       18009KT P6SM VCSH BKN020 OVC035=
202311011727 TAF KBFI 011727Z 0118/0218 VRB04KT P6SM VCSH BKN080 FM012300 20003KT
                       P6SM -RA OVC050 FM020400 13002KT 6SM -RA
                       OVC025 FM020600 15008KT 4SM -RA BR OVC015
                       FM021100 15008KT 6SM -SHRA OVC015 FM021500
                       16011G22KT 6SM -SHRA OVC015=
202311011136 TAF KBFI 011136Z 0112/0212 16004KT P6SM BKN150 FM011500 VRB04KT
                       P6SM BKN080 FM012300 20003KT P6SM -RA OVC050
                       FM020400 13002KT P6SM -RA OVC025 FM020600
                       15008KT 4SM -RA BR OVC015 FM021100 15008KT
                       P6SM -SHRA OVC020=
202311010539 TAF KBFI 010539Z 0106/0206 16004KT P6SM BKN150 FM011600 VRB04KT
                       P6SM BKN080 FM012300 20003KT P6SM -RA OVC050
                       FM020400 13002KT P6SM -RA OVC025=