##########################################################
# Query made at 02/17/2025 07:36:40 UTC
# Time interval: from 01/01/2024 00:00  to 01/31/2024 23:59  UTC
##########################################################

##########################################################
# KBFI, Seattle, Seattle Boeing Field (United States)
# WMO index: -----. WIGOS ID: Unknown
# Latitude 47-32-45N. Longitude 122-18-49W. Altitude 5 m.
##########################################################

###################################
#  METAR/SPECI from KBFI
###################################
202401312353 METAR KBFI 312353Z 00000KT 10SM SCT075 OVC090 12/11 A2946 RMK AO2 RAB09E47 SLP975 P0000 60000 T01220106 10139 20122 58004=
202401312253 METAR KBFI 312253Z 00000KT 10SM OVC070 12/10 A2947 RMK AO2 RAE42 SLP978 P0000 T01220100=
202401312153 METAR KBFI 312153Z 00000KT 9SM -RA OVC070 12/10 A2947 RMK AO2 RAE21B47 SLP979 P0000 T01220100=
202401312053 METAR KBFI 312053Z 32004KT 10SM -RA OVC070 12/10 A2947 RMK AO2 SLP979 P0000 60000 T01220100 58002=
202401311953 METAR KBFI 311953Z 31003KT 10SM -RA OVC080 13/11 A2947 RMK AO2 SLP980 P0000 T01330106=
202401311853 METAR KBFI 311853Z 00000KT 10SM -RA OVC080 13/09 A2948 RMK AO2 RAB07 SLP982 P0000 T01330094=
202401311753 METAR KBFI 311753Z 11003KT 10SM SCT065 BKN080 OVC100 13/09 A2948 RMK AO2 RAB15E27 SLP981 P0000 60002 T01330089 10139 20111 58003=
202401311653 METAR KBFI 311653Z 13008KT 10SM SCT080 OVC095 13/08 A2949 RMK AO2 RAE01 SLP986 P0000 T01330083=
202401311553 METAR KBFI 311553Z 12006KT 10SM -RA OVC080 12/09 A2949 RMK AO2 SLP985 P0000 T01220094=
202401311453 METAR KBFI 311453Z 12007KT 10SM -RA OVC075 13/09 A2949 RMK AO2 SLP984 P0001 60002 T01280094 56009=
202401311353 METAR KBFI 311353Z 13003KT 10SM -RA OVC080 12/10 A2949 RMK AO2 SLP986 P0001 T01170100=
202401311253 METAR KBFI 311253Z 00000KT 9SM -RA OVC080 12/09 A2950 RMK AO2 SLP991 P0000 T01220094=
202401311153 METAR KBFI 311153Z 11007G18KT 10SM -RA OVC080 12/09 A2951 RMK AO2 SLP994 P0002 60007 70008 T01220094 10128 20106 58017=
202401311053 METAR KBFI 311053Z 15004KT 7SM -RA OVC080 11/10 A2954 RMK AO2 SLP004 P0003 T01060100=
202401310953 METAR KBFI 310953Z 00000KT 8SM -RA OVC080 11/10 A2955 RMK AO2 RAB00 SLP007 P0001 T01110100=
202401310853 METAR KBFI 310853Z 31006KT 10SM FEW060 OVC085 12/09 A2956 RMK AO2 RAE0757B43E53 SLP011 P0000 60001 T01170094 55005=
202401310753 METAR KBFI 310753Z 00000KT 10SM -RA OVC085 11/10 A2955 RMK AO2 SLP007 P0000 T01110100 401440106=
202401310653 METAR KBFI 310653Z 00000KT 9SM -RA OVC085 12/10 A2957 RMK AO2 RAB23 SLP014 P0001 T01170100=
202401310553 METAR KBFI 310553Z 00000KT 10SM SCT055 SCT070 OVC100 12/10 A2958 RMK AO2 SLP016 T01220100 10133 20111 56036=
202401310453 METAR KBFI 310453Z 00000KT 10SM SCT095 BKN120 11/09 A2961 RMK AO2 SLP027 T01110094=
202401310353 METAR KBFI 310353Z 32005KT 10SM FEW070 BKN090 OVC110 12/10 A2965 RMK AO2 SLP039 T01220100=
202401310253 METAR KBFI 310253Z 00000KT 10SM BKN080 12/09 A2969 RMK AO2 SLP052 T01170094 58028=
202401310153 METAR KBFI 310153Z 00000KT 10SM OVC080 12/09 A2972 RMK AO2 SLP064 T01220094=
202401310053 METAR KBFI 310053Z 00000KT 10SM BKN085 13/10 A2975 RMK AO2 SLP074 T01330100=
202401302353 METAR KBFI 302353Z 32003KT 10SM BKN085 13/10 A2977 RMK AO2 SLP080 60000 T01330100 10144 20117 56031=
202401302316 METAR KBFI 302316Z 32004KT 10SM BKN085 14/10 A2979 RMK AO2 SLP087 T01440100=
202401302253 METAR KBFI 302253Z 32004KT 10SM OVC095 14/10 A2979 RMK AO2 SLP087 T01440100=
202401302153 METAR KBFI 302153Z 32006KT 10SM OVC095 14/10 A2983 RMK AO2 SLP100 T01390100=
202401302053 METAR KBFI 302053Z 00000KT 10SM BKN075 OVC090 13/10 A2986 RMK AO2 SLP111 60000 T01330100 58039=
202401301953 METAR KBFI 301953Z 15004KT 10SM OVC080 12/10 A2992 RMK AO2 RAB07E31 SLP132 P0000 T01220100=
202401301853 METAR KBFI 301853Z 17004KT 10SM OVC080 12/09 A2996 RMK AO2 RAE10 SLP146 P0000 T01170094=
202401301753 METAR KBFI 301753Z 00000KT 6SM -RA BR OVC080 12/09 A2998 RMK AO2 RAB24 SLP150 P0001 60001 T01170094 10128 20106 56003=
202401301653 METAR KBFI 301653Z 00000KT 10SM OVC075 11/09 A2998 RMK AO2 SLP151 T01110094=
202401301553 METAR KBFI 301553Z 00000KT 10SM OVC080 12/09 A2998 RMK AO2 SLP152 T01220089=
202401301453 METAR KBFI 301453Z 00000KT 10SM OVC090 11/10 A2999 RMK AO2 SLP153 T01110100 58010=
202401301353 METAR KBFI 301353Z 15006KT 10SM OVC110 11/09 A2999 RMK AO2 SLP156 T01060094=
202401301253 METAR KBFI 301253Z 15003KT 10SM OVC100 12/10 A3001 RMK AO2 SLP162 T01170100=
202401301153 METAR KBFI 301153Z 13003KT 10SM OVC095 12/10 A3001 RMK AO2 SLP163 60000 T01220100 10156 20117 53006=
202401301053 METAR KBFI 301053Z 00000KT 10SM OVC080 12/10 A3001 RMK AO2 SLP160 T01220100=
202401300953 METAR KBFI 300953Z 00000KT 10SM OVC090 12/10 A2999 RMK AO2 SLP156 T01220100=
202401300853 METAR KBFI 300853Z 14004KT 10SM SCT080 OVC095 13/10 A3000 RMK AO2 SLP157 60000 T01330100 51005=
202401300753 METAR KBFI 300753Z 00000KT 10SM FEW060 BKN080 OVC095 13/11 A2998 RMK AO2 RAE0658 SLP153 P0000 T01330106 401560089=
202401300653 METAR KBFI 300653Z 13006KT 10SM -RA OVC075 13/11 A3000 RMK AO2 RAB34 SLP159 P0000 T01330111=
202401300553 METAR KBFI 300553Z 14005KT 10SM SCT090 BKN120 13/11 A2998 RMK AO2 SLP152 T01280111 10144 20128 51026=
202401300453 METAR KBFI 300453Z 14006KT 10SM BKN120 13/11 A2997 RMK AO2 SLP147 T01280106=
202401300353 METAR KBFI 300353Z 16008KT 10SM BKN110 14/11 A2995 RMK AO2 SLP140 T01440111=
202401300253 METAR KBFI 300253Z 12003KT 10SM BKN150 OVC200 14/11 A2991 RMK AO2 SLP126 T01390106 53003=
202401300153 METAR KBFI 300153Z 00000KT 10SM BKN150 OVC200 14/11 A2988 RMK AO2 SLP118 T01390111=
202401300053 METAR KBFI 300053Z 13003KT 10SM BKN150 OVC200 14/12 A2988 RMK AO2 SLP117 T01390117=
202401292353 METAR KBFI 292353Z 15007KT 10SM CLR 14/11 A2990 RMK AO2 SLP123 T01440111 10150 20117 56015=
202401292253 METAR KBFI 292253Z 15004KT 10SM SCT120 14/12 A2992 RMK AO2 SLP130 T01440117=
202401292153 METAR KBFI 292153Z 16005KT 10SM BKN100 15/12 A2992 RMK AO2 SLP131 T01500122=
202401292053 METAR KBFI 292053Z 19003KT 10SM SCT160 14/11 A2994 RMK AO2 SLP138 T01440111 58020=
202401291953 METAR KBFI 291953Z VRB03KT 10SM SCT140 BKN200 14/11 A2996 RMK AO2 SLP144 T01390111=
202401291853 METAR KBFI 291853Z 00000KT 10SM SCT080 13/11 A2998 RMK AO2 SLP153 T01280111=
202401291753 METAR KBFI 291753Z 00000KT 10SM SCT090 12/11 A3000 RMK AO2 SLP158 T01170106 10117 20089 56006=
202401291653 METAR KBFI 291653Z 00000KT 10SM SCT080 10/09 A3001 RMK AO2 SLP160 T01000094=
202401291553 METAR KBFI 291553Z 15003KT 10SM BKN250 09/09 A3001 RMK AO2 SLP161 T00890089=
202401291453 METAR KBFI 291453Z 00000KT 10SM CLR 10/09 A3002 RMK AO2 SLP164 T01000094 56016=
202401291353 METAR KBFI 291353Z 14003KT 10SM CLR 10/09 A3003 RMK AO2 SLP168 T01000094=
202401291253 METAR KBFI 291253Z 14003KT 10SM BKN080 11/10 A3004 RMK AO2 SLP173 T01060100=
202401291153 METAR KBFI 291153Z 14006KT 10SM BKN080 10/10 A3006 RMK AO2 SLP180 70015 T01000100 10139 20089 50001=
202401291053 METAR KBFI 291053Z 00000KT 10SM CLR 10/10 A3007 RMK AO2 SLP182 T01000100=
202401291022 SPECI KBFI 291022Z 00000KT 4SM BR CLR 11/10 A3007 RMK AO2 T01060100=
202401291013 SPECI KBFI 291013Z VRB03KT 1 3/4SM BR CLR 10/10 A3007 RMK AO2 VIS 3/4V5 T01000100=
202401290953 METAR KBFI 290953Z 00000KT 10SM CLR 11/10 A3006 RMK AO2 SLP180 T01060100=
202401290853 METAR KBFI 290853Z 00000KT 10SM FEW110 12/11 A3006 RMK AO2 SLP178 T01220111 50000=
202401290753 METAR KBFI 290753Z 00000KT 10SM OVC110 12/11 A3007 RMK AO2 SLP181 T01220111 401610106=
202401290653 METAR KBFI 290653Z 00000KT 10SM OVC110 13/12 A3007 RMK AO2 SLP181 T01330117=
202401290553 METAR KBFI 290553Z 00000KT 10SM BKN120 14/11 A3006 RMK AO2 SLP178 60000 T01390111 10156 20128 56006=
202401290453 METAR KBFI 290453Z 15004KT 10SM OVC110 13/12 A3007 RMK AO2 SLP181 T01330117=
202401290353 METAR KBFI 290353Z 16006KT 10SM BKN110 13/12 A3007 RMK AO2 SLP182 T01330117=
202401290253 METAR KBFI 290253Z 10003KT 10SM SCT080 BKN100 OVC110 14/12 A3008 RMK AO2 SLP185 60000 T01390122 56008=
202401290153 METAR KBFI 290153Z 16008KT 10SM FEW090 OVC110 14/13 A3008 RMK AO2 RAB24E34 SLP186 P0000 T01440128=
202401290053 METAR KBFI 290053Z 12004KT 10SM BKN065 OVC100 16/14 A3010 RMK AO2 SLP191 T01560139=
202401282353 METAR KBFI 282353Z 15003KT 10SM BKN060 16/14 A3010 RMK AO2 SLP193 T01560139 10161 20139 58008=
202401282253 METAR KBFI 282253Z 12003KT 8SM SCT037 OVC047 16/14 A3011 RMK AO2 SLP194 T01560139=
202401282153 METAR KBFI 282153Z 15004KT 10SM FEW012 BKN050 OVC060 16/13 A3013 RMK AO2 SLP201 T01560133=
202401282148 SPECI KBFI 282148Z 16004KT 10SM SCT012 BKN049 OVC060 16/14 A3013 RMK AO2=
202401282053 METAR KBFI 282053Z 15007KT 10SM BKN012 OVC020 15/13 A3013 RMK AO2 SLP204 T01500133 58001=
202401281953 METAR KBFI 281953Z 17006KT 10SM BKN012 OVC020 15/13 A3015 RMK AO2 SLP208 T01500128=
202401281853 METAR KBFI 281853Z 17004KT 10SM BKN014 BKN020 OVC045 14/13 A3015 RMK AO2 SLP208 T01440128=
202401281753 METAR KBFI 281753Z 16004KT 10SM SCT010 BKN020 14/13 A3014 RMK AO2 SLP204 60015 T01390128 10144 20106 51019=
202401281653 METAR KBFI 281653Z 15005KT 10SM BKN010 OVC020 13/12 A3013 RMK AO2 SLP202 T01280122=
202401281553 METAR KBFI 281553Z 18007KT 10SM SCT018 BKN027 OVC035 13/12 A3011 RMK AO2 SLP194 T01330122=
202401281453 METAR KBFI 281453Z 19006G17KT 9SM FEW013 BKN030 OVC037 13/12 A3008 RMK AO2 SLP185 60015 T01330122 53017=
202401281353 METAR KBFI 281353Z 16004KT 3SM BR BKN010 BKN016 OVC025 12/12 A3005 RMK AO2 RAE41 SLP176 P0009 T01170117=
202401281349 SPECI KBFI 281349Z 16003KT 3SM BR SCT008 BKN013 OVC023 12/12 A3005 RMK AO2 RAE41 P0009=
202401281309 SPECI KBFI 281309Z 00000KT 3SM RA BR OVC014 11/11 A3004 RMK AO2 P0007 T01110111=
202401281303 SPECI KBFI 281303Z 16004KT 1 1/2SM RA BR OVC015 11/11 A3004 RMK AO2 P0005 T01110111=
202401281253 METAR KBFI 281253Z 16004KT 2SM -RA BR BKN017 OVC027 11/11 A3003 RMK AO2 SLP169 P0006 T01060106=
202401281243 SPECI KBFI 281243Z 13006KT 1 3/4SM RA BR SCT014 BKN020 OVC029 11/11 A3003 RMK AO2 P0004 T01060106=
202401281217 SPECI KBFI 281217Z 17008KT 6SM -RA BR SCT015 OVC027 11/11 A3003 RMK AO2 P0001 T01060106=
202401281153 METAR KBFI 281153Z 15007KT 6SM -RA BR FEW015 BKN046 OVC070 11/11 A3003 RMK AO2 SLP169 P0006 60026 70058 T01110106 10122 20106 51006=
202401281053 METAR KBFI 281053Z 14008KT 5SM -RA BR FEW026 OVC033 11/11 A3003 RMK AO2 SLP168 P0009 T01110106=
202401280953 METAR KBFI 280953Z 15006KT 5SM -RA BR BKN038 OVC070 11/11 A3001 RMK AO2 SLP163 P0008 T01060106=
202401280853 METAR KBFI 280853Z 15005KT 7SM -RA OVC048 11/11 A3001 RMK AO2 SLP163 P0002 60003 T01110106 58010=
202401280753 METAR KBFI 280753Z 13005KT 5SM -RA BR FEW049 BKN065 OVC085 12/11 A3004 RMK AO2 RAB23 SLP172 P0001 T01170106 401280089=
202401280653 METAR KBFI 280653Z 15005KT 10SM BKN046 OVC100 12/11 A3003 RMK AO2 RAE0558 SLP170 P0000 T01220111=
202401280553 METAR KBFI 280553Z 16009KT 9SM -RA BKN036 OVC044 12/11 A3004 RMK AO2 SLP173 P0001 60005 T01170111 10128 20117 51005=
202401280453 METAR KBFI 280453Z 16007KT 10SM -RA FEW040 SCT065 OVC090 12/11 A3004 RMK AO2 RAB27 SLP171 P0000 T01170106=
202401280353 METAR KBFI 280353Z 15006KT 10SM SCT015 BKN030 OVC040 12/11 A3004 RMK AO2 RAE0258B34E43 SLP172 P0000 T01170111=
202401280253 METAR KBFI 280253Z 13005KT 9SM -RA SCT015 BKN030 OVC040 12/11 A3003 RMK AO2 SLP168 P0003 60004 T01220111 56006=
202401280153 METAR KBFI 280153Z 18004KT 8SM -RA SCT015 BKN030 OVC043 12/12 A3004 RMK AO2 RAB13 SLP171 P0001 T01220117=
202401280053 METAR KBFI 280053Z 15006KT 10SM SCT015 BKN025 OVC043 13/12 A3004 RMK AO2 SLP170 T01280122=
202401272353 METAR KBFI 272353Z 16006KT 3SM BR FEW008 BKN023 OVC041 13/13 A3005 RMK AO2 RAB2257E32 SLP175 P0000 60008 T01280128 10128 20100 58001=
202401272253 METAR KBFI 272253Z 15007KT 4SM BR FEW008 BKN038 OVC065 13/12 A3006 RMK AO2 RAE13 SLP177 P0000 T01280117=
202401272211 SPECI KBFI 272211Z 15008KT 6SM -RA BR FEW008 BKN038 OVC065 12/12 A3005 RMK AO2 P0000 T01220122=
202401272153 METAR KBFI 272153Z 15011KT 2SM -RA BR BKN008 BKN013 OVC018 12/12 A3005 RMK AO2 RAE2058B34 SLP176 P0000 T01220122=
202401272136 SPECI KBFI 272136Z 15010KT 2 1/2SM -RA BR BKN008 BKN013 OVC018 12/12 A3005 RMK AO2 RAE2058B34 P0000 T01220117=
202401272058 SPECI KBFI 272058Z 15009KT 4SM BR BKN008 BKN013 OVC018 12/12 A3005 RMK AO2 RAE58 P0000 T01170117=
202401272056 SPECI KBFI 272056Z 15008KT 2SM -RA BR BKN013 OVC021 12/12 A3005 RMK AO2 P0000 T01170117=
202401272053 METAR KBFI 272053Z 16007KT 1 1/4SM -RA BR BKN008 BKN013 OVC018 12/12 A3005 RMK AO2 SLP176 P0004 60008 T01170117 51019=
202401272049 SPECI KBFI 272049Z AUTO 16007KT 1SM -RA BR FEW009 BKN013 OVC030 12/12 A3005 RMK AO2 P0004=
202401271953 METAR KBFI 271953Z 15007KT 4SM -RA BR BKN013 OVC030 11/11 A3004 RMK AO2 SLP173 P0002 T01110106=
202401271925 SPECI KBFI 271925Z 14007KT 4SM -RA BR BKN029 OVC036 11/10 A3004 RMK AO2 P0002 T01060100=
202401271853 METAR KBFI 271853Z 16007KT 3SM -RA BR FEW028 BKN040 OVC070 11/10 A3003 RMK AO2 SLP167 P0002 T01110100=
202401271753 METAR KBFI 271753Z 17004KT 3SM -RA BR FEW028 BKN040 OVC070 10/09 A3000 RMK AO2 SLP157 P0002 60019 T01000094 10100 20089 55002=
202401271653 METAR KBFI 271653Z 16005KT 3SM -RA BR BKN038 BKN050 OVC080 10/09 A2999 RMK AO2 SLP154 P0002 T01000094=
202401271553 METAR KBFI 271553Z 15006KT 5SM -RA BR OVC039 10/09 A3000 RMK AO2 SLP157 P0008 T01000089=
202401271453 METAR KBFI 271453Z 14003KT 7SM -RA FEW034 BKN044 OVC075 09/08 A3000 RMK AO2 SLP159 P0006 60007 T00890083 56014=
202401271353 METAR KBFI 271353Z 16005KT 6SM -RA BR BKN047 OVC075 09/08 A3002 RMK AO2 SLP165 P0001 T00940078=
202401271253 METAR KBFI 271253Z 15005KT 7SM -RA FEW038 BKN055 OVC075 09/08 A3003 RMK AO2 RAB28 SLP168 P0000 T00890078=
202401271153 METAR KBFI 271153Z 13005KT 10SM SCT034 OVC049 09/08 A3005 RMK AO2 SLP174 70022 T00890078 10094 20089 58008=
202401271053 METAR KBFI 271053Z 15004KT 10SM OVC031 09/08 A3006 RMK AO2 SLP178 T00940083=
202401270953 METAR KBFI 270953Z 17003KT 10SM OVC032 09/08 A3006 RMK AO2 SLP180 T00940083=
202401270902 SPECI KBFI 270902Z 15004KT 10SM SCT026 BKN036 OVC070 09/08 A3006 RMK AO2 T00890083=
202401270853 METAR KBFI 270853Z 15004KT 10SM BKN026 BKN031 OVC040 09/08 A3007 RMK AO2 SLP182 T00940083 50002=
202401270753 METAR KBFI 270753Z 00000KT 10SM OVC024 09/08 A3007 RMK AO2 SLP182 T00940083 401220061=
202401270653 METAR KBFI 270653Z 15005KT 10SM OVC014 09/08 A3007 RMK AO2 SLP182 T00890083=
202401270553 METAR KBFI 270553Z 17005KT 4SM BR OVC014 09/08 A3006 RMK AO2 RAE0457 SLP179 P0000 60022 T00890083 10117 20083 53016=
202401270526 SPECI KBFI 270526Z 17007KT 3SM BR FEW007 OVC014 09/08 A3006 RMK AO2 RAE0457 P0000 T00890083=
202401270453 METAR KBFI 270453Z 15006KT 3SM -RA BR OVC020 09/08 A3005 RMK AO2 SLP175 P0000 T00890083=
202401270353 METAR KBFI 270353Z 14007KT 7SM -RA OVC034 09/08 A3003 RMK AO2 SLP167 P0010 T00890078=
202401270253 METAR KBFI 270253Z 15003KT 5SM RA BR OVC031 09/08 A3002 RMK AO2 SLP164 P0009 60012 T00890078 55008=
202401270153 METAR KBFI 270153Z 15004KT 6SM -RA BR OVC050 09/08 A3000 RMK AO2 SLP160 P0003 T00940078=
202401270053 METAR KBFI 270053Z 00000KT 8SM -RA BKN050 OVC070 10/08 A3002 RMK AO2 RAB05 SLP164 P0000 T01000078=
202401262353 METAR KBFI 262353Z 28003KT 10SM OVC042 12/07 A3004 RMK AO2 SLP173 T01170067 10122 20089 56008=
202401262253 METAR KBFI 262253Z 00000KT 10SM OVC045 12/07 A3004 RMK AO2 SLP172 T01220067=
202401262153 METAR KBFI 262153Z VRB04KT 10SM OVC050 12/05 A3005 RMK AO2 SLP177 T01220050=
202401262053 METAR KBFI 262053Z 16004KT 10SM OVC050 12/05 A3007 RMK AO2 SLP181 T01170050 58019=
202401261953 METAR KBFI 261953Z 16004KT 10SM BKN060 OVC120 11/06 A3010 RMK AO2 SLP190 T01110056=
202401261853 METAR KBFI 261853Z 00000KT 10SM OVC060 10/06 A3012 RMK AO2 SLP200 T01000056=
202401261753 METAR KBFI 261753Z 22004KT 10SM OVC070 09/06 A3012 RMK AO2 SLP200 T00890056 10089 20061 56006=
202401261653 METAR KBFI 261653Z 13004KT 10SM OVC080 08/06 A3013 RMK AO2 SLP201 T00780056=
202401261553 METAR KBFI 261553Z 00000KT 10SM FEW055 OVC090 07/06 A3013 RMK AO2 SLP203 T00720056=
202401261453 METAR KBFI 261453Z 00000KT 10SM SCT055 OVC100 07/06 A3014 RMK AO2 SLP206 T00670056 58002=
202401261353 METAR KBFI 261353Z 00000KT 10SM SCT055 OVC100 07/06 A3015 RMK AO2 SLP208 T00670056=
202401261253 METAR KBFI 261253Z 14003KT 10SM FEW050 BKN085 07/06 A3014 RMK AO2 SLP206 T00670056=
202401261153 METAR KBFI 261153Z 13003KT 10SM FEW050 BKN085 07/06 A3014 RMK AO2 SLP207 70005 T00670056 10089 20061 58012=
202401261053 METAR KBFI 261053Z 16006KT 10SM FEW045 SCT060 BKN070 07/06 A3015 RMK AO2 SLP210 T00670056=
202401260953 METAR KBFI 260953Z 11003KT 10SM SCT030 SCT050 BKN065 08/06 A3017 RMK AO2 SLP217 T00780061=
202401260853 METAR KBFI 260853Z 15005KT 10SM SCT030 BKN055 OVC075 08/07 A3018 RMK AO2 SLP219 T00780067 53001=
202401260753 METAR KBFI 260753Z 12003KT 10SM FEW037 OVC060 08/07 A3018 RMK AO2 SLP220 T00830072 401110056=
202401260653 METAR KBFI 260653Z 15004KT 10SM SCT030 BKN070 OVC090 08/07 A3017 RMK AO2 SLP215 T00830072=
202401260553 METAR KBFI 260553Z 14005KT 8SM BKN027 BKN037 OVC070 09/08 A3018 RMK AO2 RAB11E20 SLP218 P0000 60001 T00890078 10111 20089 52012=
202401260453 METAR KBFI 260453Z 16005KT 10SM BKN027 OVC043 09/08 A3017 RMK AO2 RAE28 SLP214 P0000 T00890078=
202401260353 METAR KBFI 260353Z 16004KT 4SM -RA BR SCT027 OVC036 09/08 A3015 RMK AO2 RAB15 SLP210 P0001 T00940078=
202401260253 METAR KBFI 260253Z 17009KT 10SM FEW033 BKN041 OVC075 11/07 A3014 RMK AO2 SLP206 T01060067 51013=
202401260153 METAR KBFI 260153Z 17007KT 10SM OVC029 11/07 A3013 RMK AO2 SLP202 T01060067=
202401260053 METAR KBFI 260053Z 17007KT 10SM SCT029 OVC041 11/07 A3012 RMK AO2 SLP198 T01060067=
202401252353 METAR KBFI 252353Z 14008KT 10SM SCT029 OVC041 11/08 A3010 RMK AO2 RAB20E29 SLP193 P0000 60000 T01060078 10111 20083 53009=
202401252253 METAR KBFI 252253Z 15009KT 10SM SCT031 BKN039 OVC046 11/08 A3009 RMK AO2 SLP188 T01060078=
202401252153 METAR KBFI 252153Z 14009KT 10SM BKN043 OVC060 11/07 A3008 RMK AO2 SLP184 T01060072=
202401252053 METAR KBFI 252053Z 15009KT 10SM SCT041 BKN048 OVC080 10/07 A3008 RMK AO2 RAB12E52 SLP184 P0000 60000 T01000072 51010=
202401251953 METAR KBFI 251953Z 15009KT 10SM BKN030 BKN046 OVC070 10/07 A3007 RMK AO2 SLP183 T01000067=
202401251853 METAR KBFI 251853Z 15008KT 10SM FEW014 BKN030 OVC055 09/07 A3007 RMK AO2 SLP180 T00890067=
202401251753 METAR KBFI 251753Z 15009KT 10SM SCT023 OVC044 08/06 A3004 RMK AO2 SLP173 60004 T00830061 10083 20056 53022=
202401251653 METAR KBFI 251653Z 14008KT 10SM BKN024 OVC042 07/06 A3002 RMK AO2 SLP164 T00720061=
202401251553 METAR KBFI 251553Z 16007KT 10SM SCT024 OVC033 07/06 A2999 RMK AO2 RAB05E27 SLP156 P0000 T00670056=
202401251453 METAR KBFI 251453Z 14009KT 10SM SCT028 BKN050 OVC070 06/06 A2998 RMK AO2 RAE50 SLP151 P0002 60004 T00610056 51014=
202401251446 SPECI KBFI 251446Z 14007KT 8SM -RA SCT028 BKN048 OVC065 06/06 A2998 RMK AO2 P0002 T00610056=
202401251431 SPECI KBFI 251431Z 16008KT 9SM -RA BKN029 OVC036 06/06 A2998 RMK AO2 P0002 T00610056=
202401251353 METAR KBFI 251353Z 15007KT 5SM -RA BR FEW038 OVC046 06/05 A2997 RMK AO2 RAB19 SLP148 P0002 T00610050=
202401251253 METAR KBFI 251253Z 16007KT 10SM BKN043 OVC055 07/05 A2995 RMK AO2 RAB1158E41 SLP142 P0000 T00670050=
202401251153 METAR KBFI 251153Z 14006KT 10SM FEW045 OVC070 06/04 A2994 RMK AO2 SLP137 60000 70022 T00560044 10078 20056 53013=
202401251053 METAR KBFI 251053Z 15006KT 10SM OVC043 06/04 A2993 RMK AO2 RAB06E38 SLP134 P0000 T00610044=
202401250953 METAR KBFI 250953Z 15006KT 10SM BKN050 BKN070 OVC090 06/04 A2991 RMK AO2 SLP127 T00610044=
202401250853 METAR KBFI 250853Z 12003KT 10SM OVC046 07/05 A2990 RMK AO2 SLP124 60000 T00670050 53013=
202401250753 METAR KBFI 250753Z 16005KT 10SM SCT042 BKN095 06/05 A2988 RMK AO2 SLP119 T00610050 401110044=
202401250653 METAR KBFI 250653Z 13007KT 10SM FEW050 SCT070 OVC090 08/06 A2986 RMK AO2 RAB01E40 SLP112 P0000 T00780061=
202401250553 METAR KBFI 250553Z 15010KT 10SM FEW049 SCT060 BKN075 07/06 A2986 RMK AO2 SLP111 60008 T00720056 10106 20061 51016=
202401250453 METAR KBFI 250453Z 14009KT 10SM SCT065 08/06 A2984 RMK AO2 SLP106 T00780056=
202401250353 METAR KBFI 250353Z 15011KT 10SM SCT034 BKN090 08/06 A2983 RMK AO2 RAE04 SLP101 P0000 T00780056=
202401250253 METAR KBFI 250253Z 14010KT 7SM -RA FEW027 SCT034 SCT055 09/07 A2982 RMK AO2 RAB52 SLP096 P0000 60008 T00890067 51019=
202401250153 METAR KBFI 250153Z 16007KT 10SM FEW080 09/08 A2980 RMK AO2 RAE22 SLP090 P0006 T00890078=
202401250053 METAR KBFI 250053Z 17006KT 6SM -RA BR BKN022 OVC047 10/09 A2978 RMK AO2 SLP085 P0002 T01000089=
202401242353 METAR KBFI 242353Z 16005KT 6SM -RA BR BKN022 OVC047 11/09 A2976 RMK AO2 RAB22 SLP076 P0000 60001 T01060089 10111 20078 53004=
202401242253 METAR KBFI 242253Z 13007KT 080V150 6SM BR BKN022 OVC047 11/09 A2975 RMK AO2 RAB23E43 SLP072 P0001 T01060089=
202401242245 SPECI KBFI 242245Z 15006KT 4SM BR BKN022 11/09 A2975 RMK AO2 RAB23E43 P0001 T01060089=
202401242231 SPECI KBFI 242231Z 15007KT 1 3/4SM -RA BR BKN022 11/08 A2974 RMK AO2 VIS 3/4V5 RAB23 P0001 T01060083=
202401242153 METAR KBFI 242153Z 15012KT 10SM BKN022 11/09 A2975 RMK AO2 SLP073 T01110089=
202401242109 SPECI KBFI 242109Z 15012KT 10SM BKN022 10/08 A2975 RMK AO2 T01000078=
202401242053 METAR KBFI 242053Z 15011KT 6SM BR SCT032 SCT049 BKN060 09/08 A2974 RMK AO2 SLP072 60000 T00940078 51006=
202401241953 METAR KBFI 241953Z 14008KT 10SM BKN030 OVC037 09/07 A2974 RMK AO2 RAE52 SLP072 P0000 T00890072=
202401241853 METAR KBFI 241853Z 17004KT 6SM -RA BR OVC040 08/07 A2974 RMK AO2 RAB48 SLP070 P0000 T00780067=
202401241753 METAR KBFI 241753Z 00000KT 10SM SCT024 OVC043 08/07 A2973 RMK AO2 RAB14E26 SLP066 P0000 60013 T00780067 10078 20056 53004=
202401241653 METAR KBFI 241653Z 04003KT 10SM SCT039 OVC047 07/07 A2972 RMK AO2 RAE48 SLP063 P0002 T00720067=
202401241553 METAR KBFI 241553Z 00000KT 5SM -RA BR OVC043 07/06 A2973 RMK AO2 SLP065 P0004 T00670061=
202401241453 METAR KBFI 241453Z 19003KT 5SM -RA BR OVC047 06/06 A2972 RMK AO2 SLP062 P0003 60007 T00610056 58025=
202401241353 METAR KBFI 241353Z 19006KT 10SM -RA OVC055 06/05 A2974 RMK AO2 SLP070 P0002 T00610050=
202401241253 METAR KBFI 241253Z 00000KT 6SM -RA BR OVC046 06/06 A2978 RMK AO2 SLP083 P0002 T00610056=
202401241153 METAR KBFI 241153Z 00000KT 9SM -RA OVC055 06/05 A2979 RMK AO2 RAB51 SLP087 P0000 60000 T00610050 10067 20039 56017=
202401241053 METAR KBFI 241053Z 00000KT 10SM BKN095 OVC110 06/05 A2981 RMK AO2 SLP092 T00560050=
202401240953 METAR KBFI 240953Z 00000KT 10SM SCT080 BKN110 05/05 A2982 RMK AO2 SLP098 T00500050=
202401240853 METAR KBFI 240853Z 00000KT 10SM FEW080 06/04 A2984 RMK AO2 SLP105 T00560044 58025=
202401240753 METAR KBFI 240753Z 00000KT 10SM CLR 05/04 A2987 RMK AO2 SLP114 T00500039 401220039=
202401240653 METAR KBFI 240653Z 00000KT 10SM CLR 05/04 A2990 RMK AO2 SLP123 T00500044=
202401240553 METAR KBFI 240553Z 00000KT 10SM CLR 06/05 A2992 RMK AO2 SLP130 T00560050 10106 20050 56012=
202401240453 METAR KBFI 240453Z 17003KT 10SM CLR 06/04 A2992 RMK AO2 SLP132 T00560044=
202401240353 METAR KBFI 240353Z 14003KT 10SM OVC060 08/06 A2994 RMK AO2 SLP137 T00830061=
202401240253 METAR KBFI 240253Z 00000KT 10SM SCT027 BKN043 08/06 A2995 RMK AO2 SLP141 T00830061 50003=
202401240208 SPECI KBFI 240208Z VRB04KT 10SM SCT027 BKN043 09/06 A2995 RMK AO2 T00940061=
202401240153 METAR KBFI 240153Z 14003KT 10SM BKN023 BKN029 09/07 A2995 RMK AO2 SLP141 T00890067=
202401240053 METAR KBFI 240053Z 15005KT 10SM CLR 09/07 A2994 RMK AO2 SLP139 T00940067=
202401232353 METAR KBFI 232353Z 19007KT 10SM FEW025 BKN120 11/07 A2994 RMK AO2 SLP137 T01110067 10122 20106 53004=
202401232253 METAR KBFI 232253Z VRB06KT 10SM SCT035 BKN050 12/08 A2993 RMK AO2 SLP135 T01170078=
202401232153 METAR KBFI 232153Z 20009KT 10SM FEW021 SCT028 BKN041 11/07 A2992 RMK AO2 SLP131 T01110072=
202401232053 METAR KBFI 232053Z 19009G16KT 10SM SCT015 SCT040 12/08 A2993 RMK AO2 SLP133 T01220078 51010=
202401231953 METAR KBFI 231953Z 19008KT 140V230 10SM FEW042 12/08 A2992 RMK AO2 SLP133 T01170078=
202401231853 METAR KBFI 231853Z 18007KT 10SM SCT009 SCT013 11/08 A2991 RMK AO2 SLP129 T01110083=
202401231753 METAR KBFI 231753Z 18008KT 10SM SCT009 SCT013 10/08 A2990 RMK AO2 SLP123 T01000083 10100 20078 53019=
202401231653 METAR KBFI 231653Z 18007KT 10SM BKN009 BKN020 09/08 A2988 RMK AO2 SLP117 T00940083=
202401231553 METAR KBFI 231553Z 15007KT 10SM BKN009 BKN015 OVC110 08/07 A2985 RMK AO2 SLP108 T00780072=
202401231453 METAR KBFI 231453Z 15009KT 10SM OVC013 08/07 A2984 RMK AO2 SLP104 T00830072 53016=
202401231353 METAR KBFI 231353Z 15007KT 4SM BR BKN013 OVC029 08/07 A2982 RMK AO2 SLP098 T00780072=
202401231307 SPECI KBFI 231307Z 15010KT 10SM BKN013 OVC029 08/07 A2981 RMK AO2 T00830072=
202401231300 SPECI KBFI 231300Z 15008KT 10SM SCT017 BKN026 BKN046 08/07 A2980 RMK AO2 T00780072=
202401231253 METAR KBFI 231253Z 14007KT 10SM BKN013 OVC029 08/07 A2980 RMK AO2 SLP091 T00780067=
202401231153 METAR KBFI 231153Z 15006KT 10SM BKN015 OVC029 08/07 A2979 RMK AO2 SLP088 60000 70002 T00780067 10094 20078 51009=
202401231053 METAR KBFI 231053Z 14005KT 10SM BKN017 OVC033 08/07 A2978 RMK AO2 SLP084 T00780067=
202401231000 SPECI KBFI 231000Z 13003KT 10SM OVC027 08/07 A2978 RMK AO2 T00830072=
202401230953 METAR KBFI 230953Z 12003KT 5SM BR BKN011 OVC021 08/07 A2978 RMK AO2 RAE10 SLP082 P0000 T00830067=
202401230853 METAR KBFI 230853Z 15008KT 4SM -RA BR BKN011 OVC035 08/07 A2976 RMK AO2 RAB53 SLP078 P0000 60000 T00780067 51013=
202401230753 METAR KBFI 230753Z 15008KT 10SM OVC015 08/07 A2975 RMK AO2 SLP074 T00830067 401110061=
202401230653 METAR KBFI 230653Z 15005KT 10SM BKN011 OVC015 09/07 A2974 RMK AO2 SLP071 T00890072=
202401230553 METAR KBFI 230553Z 12004KT 10SM OVC013 09/08 A2973 RMK AO2 SLP065 T00890078 10111 20089 51014=
202401230453 METAR KBFI 230453Z 14003KT 10SM BKN015 BKN025 OVC037 09/08 A2971 RMK AO2 SLP061 T00940083=
202401230353 METAR KBFI 230353Z 00000KT 10SM BKN031 BKN038 OVC047 11/09 A2970 RMK AO2 SLP057 T01060089=
202401230253 METAR KBFI 230253Z 17003KT 10SM SCT028 BKN036 10/08 A2968 RMK AO2 SLP051 T01000083 53021=
202401230153 METAR KBFI 230153Z 16006KT 10SM BKN027 BKN036 OVC110 10/08 A2966 RMK AO2 SLP044 T01000083=
202401230053 METAR KBFI 230053Z 16007KT 10SM BKN025 BKN034 OVC041 11/09 A2964 RMK AO2 SLP037 T01060089=
202401222353 METAR KBFI 222353Z 20008KT 6SM BR SCT015 SCT025 OVC060 11/09 A2962 RMK AO2 SLP030 60000 T01110089 10111 20078 53023=
202401222253 METAR KBFI 222253Z 18007G16KT 10SM SCT015 BKN025 OVC060 11/09 A2960 RMK AO2 RAE09 SLP022 P0000 T01110094=
202401222232 SPECI KBFI 222232Z 19010G17KT 10SM SCT016 BKN025 OVC060 11/09 A2959 RMK AO2 RAE09 P0000 T01060094=
202401222153 METAR KBFI 222153Z 18009KT 8SM -RA BKN009 OVC018 10/09 A2957 RMK AO2 RAB01 SLP013 P0000 T01000089=
202401222053 METAR KBFI 222053Z 14009KT 1 1/2SM BR BKN006 OVC015 09/09 A2955 RMK AO2 RAE50 SLP008 P0000 60000 T00890089 51018=
202401222000 SPECI KBFI 222000Z 14009KT 1 1/2SM -RA BR BKN006 OVC015 08/08 A2954 RMK AO2 P0000 T00830078=
202401221953 METAR KBFI 221953Z 14009KT 2SM -RA BR BKN007 BKN031 OVC049 08/08 A2954 RMK AO2 RAB03 SLP004 P0000 T00830078=
202401221853 METAR KBFI 221853Z 15007KT 2SM BR BKN007 BKN031 OVC049 08/07 A2953 RMK AO2 RAE48 SLP000 P0000 T00830067=
202401221753 METAR KBFI 221753Z 15003KT 4SM -RA BR OVC023 08/07 A2950 RMK AO2 SLP990 P0001 60002 T00780072 10078 20067 53025=
202401221653 METAR KBFI 221653Z 14003KT 3SM -RA BR OVC046 07/07 A2948 RMK AO2 SLP981 P0001 T00720067=
202401221553 METAR KBFI 221553Z 00000KT 5SM -RA BR OVC055 07/06 A2945 RMK AO2 RAB19 SLP971 P0000 T00670061=
202401221453 METAR KBFI 221453Z 00000KT 10SM BKN055 OVC070 07/06 A2943 RMK AO2 SLP965 60000 T00670061 52000=
202401221353 METAR KBFI 221353Z 00000KT 10SM BKN050 OVC075 07/06 A2943 RMK AO2 RAE29 SLP964 P0000 T00670061=
202401221253 METAR KBFI 221253Z VRB03KT 10SM -RA OVC041 07/06 A2943 RMK AO2 RAE24B48 SLP965 P0000 T00670061=
202401221153 METAR KBFI 221153Z 00000KT 5SM -RA BR OVC048 07/06 A2943 RMK AO2 SLP964 P0000 60003 70016 T00670061 10072 20061 56006=
202401221053 METAR KBFI 221053Z 00000KT 5SM -RA BR OVC055 07/06 A2943 RMK AO2 SLP966 P0001 T00670061=
202401220953 METAR KBFI 220953Z 00000KT 5SM -RA BR OVC055 07/06 A2944 RMK AO2 SLP969 P0001 T00670061=
202401220853 METAR KBFI 220853Z 00000KT 8SM -RA OVC060 07/06 A2944 RMK AO2 RAE0759B15 SLP970 P0000 60001 T00670061 58016=
202401220753 METAR KBFI 220753Z 00000KT 10SM -RA FEW007 OVC060 07/06 A2946 RMK AO2 SLP975 P0000 T00720061 400940056=
202401220653 METAR KBFI 220653Z 16005KT 7SM -RA OVC055 07/06 A2949 RMK AO2 SLP984 P0001 T00720056=
202401220553 METAR KBFI 220553Z 15003KT 10SM -RA OVC055 07/06 A2949 RMK AO2 SLP986 P0000 60005 T00670061 10089 20067 55001=
202401220453 METAR KBFI 220453Z 17003KT 10SM -RA OVC060 07/07 A2948 RMK AO2 SLP984 P0000 T00720067=
202401220353 METAR KBFI 220353Z 32003KT 6SM -RA BR OVC050 07/07 A2949 RMK AO2 RAB0258 SLP985 P0000 T00720067=
202401220253 METAR KBFI 220253Z 16006KT 10SM OVC060 08/06 A2949 RMK AO2 RAE20 SLP987 P0001 60005 T00780061 50001=
202401220153 METAR KBFI 220153Z 13004KT 6SM -RA BR OVC055 07/07 A2951 RMK AO2 SLP993 P0004 T00720067=
202401220053 METAR KBFI 220053Z 14005KT 10SM -RA BKN046 BKN060 OVC080 08/06 A2950 RMK AO2 SLP991 P0000 T00780061=
202401212353 METAR KBFI 212353Z 12004KT 9SM -RA FEW041 OVC065 08/07 A2949 RMK AO2 RAB33 SLP986 P0000 60006 T00830067 10094 20072 55003=
202401212253 METAR KBFI 212253Z 00000KT 10SM OVC043 09/07 A2948 RMK AO2 SLP983 T00890067=
202401212153 METAR KBFI 212153Z VRB03KT 10SM BKN046 OVC055 08/06 A2948 RMK AO2 RAE20 SLP982 P0000 T00830061=
202401212053 METAR KBFI 212053Z 14007KT 10SM -RA OVC050 08/06 A2950 RMK AO2 SLP989 P0004 60006 T00780056 50001=
202401211953 METAR KBFI 211953Z 11003KT 4SM -RA BR OVC047 08/06 A2951 RMK AO2 RAB1854 SLP993 P0002 T00780061=
202401211853 METAR KBFI 211853Z 00000KT 10SM BKN050 OVC070 08/06 A2951 RMK AO2 RAB15E38 SLP992 P0000 T00830056=
202401211753 METAR KBFI 211753Z 00000KT 10SM OVC045 08/05 A2950 RMK AO2 SLP989 60002 T00780050 10078 20056 58006=
202401211653 METAR KBFI 211653Z 16004KT 10SM OVC042 07/05 A2951 RMK AO2 SLP992 T00670050=
202401211553 METAR KBFI 211553Z 13003KT 10SM OVC038 06/05 A2952 RMK AO2 RAE1458 SLP994 P0000 T00610050=
202401211453 METAR KBFI 211453Z AUTO 18003KT 10SM -RA OVC038 06/05 A2952 RMK AO2 RAB1355 SLP994 P0000 60002 T00610050 58000=
202401211353 METAR KBFI 211353Z 15004KT 10SM OVC043 06/05 A2952 RMK AO2 RAE39 SLP997 P0001 T00560050=
202401211253 METAR KBFI 211253Z 17003KT 6SM -RA BR OVC039 06/04 A2952 RMK AO2 RAB02 SLP998 P0001 T00560044=
202401211153 METAR KBFI 211153Z 00000KT 10SM OVC033 06/05 A2952 RMK AO2 RAB32E41 SLP995 P0000 60014 70017 T00560050 10067 20056 53003=
202401211053 METAR KBFI 211053Z 00000KT 10SM OVC040 06/04 A2951 RMK AO2 SLP992 T00560044=
202401210953 METAR KBFI 210953Z 14003KT 10SM OVC042 06/04 A2951 RMK AO2 RAE32 SLP992 P0000 T00560044=
202401210853 METAR KBFI 210853Z 00000KT 7SM -RA OVC042 06/04 A2951 RMK AO2 SLP992 P0003 60014 T00560044 55001=
202401210753 METAR KBFI 210753Z 00000KT 7SM -RA OVC050 06/04 A2950 RMK AO2 SLP990 P0006 T00610044 400940011=
202401210653 METAR KBFI 210653Z 13010G16KT 7SM -RA OVC050 07/04 A2951 RMK AO2 SLP991 P0005 T00670039=
202401210553 METAR KBFI 210553Z 15003KT 7SM -RA OVC050 06/04 A2951 RMK AO2 RAB12 SLP993 P0002 60003 T00610044 10083 20056 53008=
202401210453 METAR KBFI 210453Z 13005KT 10SM OVC055 07/04 A2950 RMK AO2 RAE45 SLP988 P0001 T00670039=
202401210353 METAR KBFI 210353Z 00000KT 8SM -RA OVC070 07/04 A2948 RMK AO2 RAB01 SLP984 P0000 T00670044=
202401210253 METAR KBFI 210253Z 00000KT 10SM BKN065 OVC080 06/04 A2949 RMK AO2 RAB37E46 SLP984 P0000 60000 T00610039 50000=
202401210153 METAR KBFI 210153Z 00000KT 10SM OVC070 07/04 A2949 RMK AO2 SLP986 T00720039=
202401210053 METAR KBFI 210053Z 30003KT 10SM BKN075 OVC095 08/03 A2949 RMK AO2 SLP986 T00780033=
202401202353 METAR KBFI 202353Z 31003KT 10SM SCT060 BKN110 08/03 A2949 RMK AO2 SLP985 T00830033 10094 20039 56014=
202401202253 METAR KBFI 202253Z 31005KT 10SM FEW110 09/04 A2949 RMK AO2 SLP986 T00890039=
202401202153 METAR KBFI 202153Z 31004KT 10SM FEW110 08/03 A2950 RMK AO2 SLP989 T00780033=
202401202053 METAR KBFI 202053Z 30003KT 10SM FEW060 SCT110 08/03 A2953 RMK AO2 SLP998 T00780033 58031=
202401201953 METAR KBFI 201953Z AUTO 00000KT 10SM SCT060 BKN110 07/03 A2956 RMK AO2 SLP009 T00720033=
202401201853 METAR KBFI 201853Z 27003KT 10SM SCT080 07/03 A2959 RMK AO2 SLP021 T00720033=
202401201753 METAR KBFI 201753Z 19003KT 10SM FEW014 BKN120 04/03 A2962 RMK AO2 SLP029 T00390028 10044 20011 58006=
202401201702 SPECI KBFI 201702Z 14005KT 7SM FEW009 BKN120 02/02 A2963 RMK AO2 T00220017=
202401201653 METAR KBFI 201653Z 13004KT 7SM BKN120 02/02 A2963 RMK AO2 SLP035 T00220017=
202401201553 METAR KBFI 201553Z 16003KT 9SM CLR 02/02 A2963 RMK AO2 SLP035 T00220017=
202401201453 METAR KBFI 201453Z 00000KT 8SM CLR 02/02 A2964 RMK AO2 SLP035 T00170017 56018=
202401201353 METAR KBFI 201353Z 00000KT 10SM CLR 03/02 A2965 RMK AO2 SLP041 T00280022=
202401201253 METAR KBFI 201253Z 00000KT 10SM CLR 03/02 A2966 RMK AO2 SLP044 T00280022=
202401201153 METAR KBFI 201153Z 00000KT 10SM CLR 03/02 A2969 RMK AO2 SLP053 T00280022 10044 20022 58016=
202401201053 METAR KBFI 201053Z 00000KT 10SM OVC120 03/02 A2971 RMK AO2 SLP061 T00280022=
202401200953 METAR KBFI 200953Z 00000KT 10SM OVC110 03/02 A2972 RMK AO2 SLP063 T00330022=
202401200853 METAR KBFI 200853Z 00000KT 10SM CLR 03/02 A2974 RMK AO2 SLP069 T00330022 58013=
202401200753 METAR KBFI 200753Z 00000KT 10SM CLR 02/01 A2975 RMK AO2 SLP074 T00220011 400830022=
202401200653 METAR KBFI 200653Z 00000KT 10SM CLR 04/02 A2977 RMK AO2 SLP080 T00390022=
202401200553 METAR KBFI 200553Z 00000KT 10SM CLR 04/02 A2978 RMK AO2 SLP082 T00390022 10083 20028 58010=
202401200453 METAR KBFI 200453Z 00000KT 10SM CLR 04/03 A2978 RMK AO2 SLP085 T00440028=
202401200353 METAR KBFI 200353Z 00000KT 10SM CLR 05/03 A2980 RMK AO2 SLP091 T00500028=
202401200253 METAR KBFI 200253Z 00000KT 10SM BKN150 06/02 A2981 RMK AO2 SLP093 T00560022 56017=
202401200153 METAR KBFI 200153Z 00000KT 10SM CLR 06/01 A2981 RMK AO2 SLP095 T00610011=
202401200053 METAR KBFI 200053Z 00000KT 10SM BKN180 07/02 A2983 RMK AO2 SLP101 T00720017=
202401192353 METAR KBFI 192353Z 09003KT 10SM BKN180 08/02 A2986 RMK AO2 SLP110 60000 T00830017 10083 20056 56024=
202401192253 METAR KBFI 192253Z 12007KT 10SM SCT090 OVC120 07/02 A2988 RMK AO2 SLP118 T00720017=
202401192153 METAR KBFI 192153Z 13007KT 10SM OVC080 08/01 A2990 RMK AO2 RAB2058E28 SLP125 P0000 T00780011=
202401192053 METAR KBFI 192053Z 15007KT 10SM OVC080 07/01 A2993 RMK AO2 SLP134 T00720011 56010=
202401191953 METAR KBFI 191953Z 13005KT 10SM OVC095 07/01 A2994 RMK AO2 SLP137 T00670011=
202401191853 METAR KBFI 191853Z 00000KT 10SM SCT070 OVC080 07/01 A2995 RMK AO2 SLP140 T00670006=
202401191753 METAR KBFI 191753Z 00000KT 10SM OVC075 06/01 A2996 RMK AO2 SLP144 T00610006 10061 20028 55000=
202401191653 METAR KBFI 191653Z 14003KT 10SM BKN065 BKN080 BKN095 05/M01 A2994 RMK AO2 SLP139 T00501006=
202401191553 METAR KBFI 191553Z 11004KT 10SM BKN100 04/01 A2996 RMK AO2 SLP145 T00390006=
202401191453 METAR KBFI 191453Z 00000KT 10SM FEW120 04/02 A2996 RMK AO2 SLP145 T00390022 55015=
202401191353 METAR KBFI 191353Z 00000KT 10SM FEW080 BKN090 OVC110 04/02 A2995 RMK AO2 SLP143 T00390022 $=
202401191253 METAR KBFI 191253Z 30003KT 10SM OVC110 04/02 A2998 RMK AO2 SLP150 T00390022 $=
202401191153 METAR KBFI 191153Z 10SM FEW120 03/02 A3000 RMK AO2 SLP160 60000 70005 T00330022 10039 20022 56016 $=
202401191053 METAR KBFI 191053Z 00000KT 10SM SCT090 OVC110 03/02 A3001 RMK AO2 RAE47UPB11E13 SLP161 P0000 T00280022 $=
202401190953 METAR KBFI 190953Z 00000KT 10SM -RA OVC070 03/02 A3004 RMK AO2 RAB33 SLP172 P0000 T00330022 $=
202401190853 METAR KBFI 190853Z 00000KT 10SM BKN070 OVC100 03/02 A3005 RMK AO2 SLP176 60000 T00330022 56009 $=
202401190753 METAR KBFI 190753Z 00000KT 10SM SCT060 BKN075 OVC095 03/01 A3005 RMK AO2 RAB21E33UPB33E48 SLP177 P0000 T00280011 400330011 $=
202401190653 METAR KBFI 190653Z 34004KT 10SM OVC075 03/01 A3007 RMK AO2 SLP181 T00280011 $=
202401190553 METAR KBFI 190553Z 00000KT 10SM BKN060 OVC070 03/01 A3008 RMK AO2 RAE28 SLP185 P0000 60000 T00280011 10033 20022 58009 $=
202401190453 METAR KBFI 190453Z 14006KT 10SM -RA BKN055 OVC080 03/01 A3010 RMK AO2 RAB50 SLP192 P0000 T00280006 $=
202401190353 METAR KBFI 190353Z 00000KT 10SM SCT011 BKN035 03/01 A3011 RMK AO2 RAE49 SLP195 P0000 T00280011 $=
202401190253 METAR KBFI 190253Z 00000KT 6SM -RA FEW008 BKN035 OVC065 03/01 A3010 RMK AO2 UPE0158B39E51RAB0158 SLP194 P0000 60000 T00280011 56005 $=
202401190156 SPECI KBFI 190156Z 00000KT 6SM UP BR FEW008 BKN035 OVC065 03/01 A3011 RMK AO2 P0000 T00280011 $=
202401190153 METAR KBFI 190153Z 00000KT 3SM UP BR BKN008 OVC065 03/01 A3011 RMK AO2 RAE51UPB51 SLP194 P0000 T00280011 $=
202401190053 METAR KBFI 190053Z 00000KT 3SM -RA BR BKN008 BKN050 OVC070 03/01 A3011 RMK AO2 UPB30E36 SLP195 P0000 T00280011 $=
202401182353 METAR KBFI 182353Z 16004KT 4SM -RA BR BKN006 BKN015 OVC032 03/01 A3012 RMK AO2 SLP198 P0000 60001 T00280011 10033 20022 56005=
202401182253 METAR KBFI 182253Z 00000KT 4SM -RA BR BKN006 BKN015 OVC032 03/02 A3012 RMK AO2 SLP199 P0001 T00280017=
202401182153 METAR KBFI 182153Z 00000KT 5SM -RA BR BKN006 BKN015 BKN032 03/01 A3011 RMK AO2 UPB46E48 SLP196 P0000 T00280011=
202401182053 METAR KBFI 182053Z 00000KT 4SM -RA BR BKN006 BKN015 OVC032 03/01 A3013 RMK AO2 UPE08RAB08 SLP203 P0000 60000 T00280011 50008=
202401181953 METAR KBFI 181953Z 14003KT 6SM UP BR SCT009 BKN015 OVC032 03/01 A3014 RMK AO2 RAE42UPB42 SLP205 P0000 T00280011=
202401181853 METAR KBFI 181853Z 00000KT 4SM -RA BR SCT006 BKN009 OVC041 03/02 A3014 RMK AO2 SLP204 P0000 T00280017=
202401181753 METAR KBFI 181753Z 14003KT 3SM -RA BR SCT007 BKN010 OVC041 03/02 A3011 RMK AO2 SLP195 P0003 60004 T00280017 10028 20017 51016=
202401181653 METAR KBFI 181653Z 00000KT 3SM -RA BR BKN015 OVC038 03/02 A3011 RMK AO2 SLP194 P0000 T00280017=
202401181553 METAR KBFI 181553Z 00000KT 6SM -RA BR OVC038 03/02 A3009 RMK AO2 SLP188 P0001 T00280017=
202401181453 METAR KBFI 181453Z 00000KT 6SM -RA BR OVC037 03/02 A3006 RMK AO2 RAB26 SLP179 P0000 60000 T00280017 53001=
202401181353 METAR KBFI 181353Z 33003KT 10SM SCT006 BKN039 03/02 A3005 RMK AO2 SLP174 T00280017=
202401181344 SPECI KBFI 181344Z 35003KT 10SM SCT007 OVC039 03/02 A3005 RMK AO2 T00280017=
202401181253 METAR KBFI 181253Z 00000KT 10SM OVC041 02/02 A3004 RMK AO2 SLP173 T00220017=
202401181153 METAR KBFI 181153Z 00000KT 6SM BR SCT004 BKN011 OVC045 02/01 A3006 RMK AO2 SLP178 70008 T00170011 10028 20011 53008=
202401181053 METAR KBFI 181053Z 34003KT 6SM BR SCT004 BKN019 BKN050 02/02 A3005 RMK AO2 SLP174 T00220017=
202401180953 METAR KBFI 180953Z 00000KT 4SM BR FEW019 SCT050 02/02 A3004 RMK AO2 SLP171 T00220017=
202401180853 METAR KBFI 180853Z 00000KT 7SM OVC017 02/02 A3005 RMK AO2 SLP174 T00220017 51029=
202401180753 METAR KBFI 180753Z 00000KT 5SM BR BKN017 OVC050 02/02 A3002 RMK AO2 SLP166 T00170017 400281006=
202401180653 METAR KBFI 180653Z 00000KT 7SM BKN020 OVC050 02/01 A2999 RMK AO2 SLP156 T00170011=
202401180553 METAR KBFI 180553Z 00000KT 9SM OVC026 02/01 A2996 RMK AO2 SLP146 60000 T00170011 10022 20011 51045=
202401180519 SPECI KBFI 180519Z 14004KT 10SM BKN028 OVC032 02/01 A2994 RMK AO2 T00170011=
202401180507 SPECI KBFI 180507Z 14003KT 10SM OVC030 01/01 A2993 RMK AO2 T00110011=
202401180453 METAR KBFI 180453Z 00000KT 10SM OVC022 02/01 A2993 RMK AO2 SLP133 T00170011=
202401180353 METAR KBFI 180353Z 00000KT 10SM OVC022 02/01 A2988 RMK AO2 SLP117 T00170011=
202401180253 METAR KBFI 180253Z 00000KT 10SM BKN024 OVC029 02/01 A2983 RMK AO2 SLP101 60000 T00170011 53031=
202401180153 METAR KBFI 180153Z 00000KT 10SM OVC025 02/01 A2980 RMK AO2 SLP089 T00170011=
202401180053 METAR KBFI 180053Z 17003KT 6SM BR SCT009 BKN020 OVC024 02/01 A2977 RMK AO2 RAE00UPB00E18 SLP080 P0000 T00220011=
202401180013 SPECI KBFI 180013Z 19004KT 6SM UP BR SCT009 BKN020 OVC024 02/01 A2975 RMK AO2 RAE00UPB00 P0000 T00170006=
202401172353 METAR KBFI 172353Z 15004KT 6SM -RA BR BKN009 OVC024 02/01 A2974 RMK AO2 UPB15E19RAB19 SLP070 P0000 60007 T00170006 10028 20011 51058=
202401172253 METAR KBFI 172253Z 14004KT 2SM BR BKN020 OVC035 02/01 A2968 RMK AO2 RAE38UPB18E21B38E41 PRESRR SLP051 P0000 T00170011=
202401172153 METAR KBFI 172153Z VRB03KT 1 1/2SM -RA BR BKN009 BKN021 OVC025 02/01 A2962 RMK AO2 UPB2055E2058 SLP031 P0000 T00220011=
202401172100 SPECI KBFI 172100Z VRB03KT 1 3/4SM -RA BR BKN009 BKN021 OVC025 02/01 A2957 RMK AO2 UPB2055E2058 P0000 T00220011=
202401172053 METAR KBFI 172053Z VRB03KT 3SM -RA BR BKN007 OVC009 03/02 A2957 RMK AO2 RAB43UPB44E45 SLP012 P0000 60007 T00280017 53050=
202401171953 METAR KBFI 171953Z VRB03KT 3SM BR BKN007 OVC009 03/02 A2950 RMK AO2 RAE41 PRESRR SLP989 P0003 T00280017=
202401171929 SPECI KBFI 171929Z 00000KT 2 1/2SM -RA BR BKN007 OVC014 03/02 A2947 RMK AO2 P0003 T00280022=
202401171853 METAR KBFI 171853Z 00000KT 1SM -RA BR OVC006 02/02 A2945 RMK AO2 CIG 004V009 SLP972 P0004 T00170017=
202401171753 METAR KBFI 171753Z 14004KT 1 1/2SM -RA BR OVC005 01/01 A2942 RMK AO2 RAB14UPB24E35 SLP962 P0001 60001 T00060006 10006 20000 55013=
202401171653 METAR KBFI 171653Z 15006KT 1 1/2SM BR BKN008 OVC013 01/00 A2941 RMK AO2 SLP959 T00060000=
202401171553 METAR KBFI 171553Z 16007KT 2 1/2SM BR BKN008 BKN013 00/00 A2943 RMK AO2 SLP965 T00000000=
202401171453 METAR KBFI 171453Z 17009KT 2 1/2SM BR BKN008 BKN013 00/00 A2946 RMK AO2 SLP974 T00000000 56032=
202401171353 METAR KBFI 171353Z 13004KT 2 1/2SM BR BKN008 OVC013 00/00 A2949 RMK AO2 SLP986 T00000000=
202401171253 METAR KBFI 171253Z 00000KT 8SM BKN013 OVC021 00/M01 A2951 RMK AO2 SLP994 T00001006=
202401171153 METAR KBFI 171153Z 00000KT 9SM BKN013 OVC021 00/M01 A2955 RMK AO2 SLP006 60008 70009 T00001006 10000 21006 58024=
202401171053 METAR KBFI 171053Z 16005KT 6SM BR BKN013 BKN021 OVC029 00/M01 A2957 RMK AO2 UPE18 SLP014 P0001 T00001006=
202401170955 SPECI KBFI 170955Z 16006KT 1 1/2SM UP BR SCT006 OVC010 00/M01 A2960 RMK AO2 P0001 T00001006=
202401170953 METAR KBFI 170953Z 15005KT 2SM UP BR SCT006 OVC015 00/M01 A2960 RMK AO2 SLP023 P0002 T00001006=
202401170853 METAR KBFI 170853Z 13003KT 2SM UP BR SCT006 OVC015 M01/M01 A2962 RMK AO2 SLP030 P0000 60005 T10061006 56017=
202401170850 SPECI KBFI 170850Z 14003KT 2SM UP BR SCT006 OVC015 M01/M01 A2962 RMK AO2 P0000=
202401170839 SPECI KBFI 170839Z 14003KT 2SM UP BR SCT006 BKN013 OVC020 M01/M01 A2963 RMK AO2 P0000 T10061011=
202401170753 METAR KBFI 170753Z 00000KT 3SM UP BR FEW008 SCT020 OVC028 M01/M01 A2965 RMK AO2 SLP040 P0004 T10061006 400281067=
202401170653 METAR KBFI 170653Z 00000KT 3SM UP BR OVC028 00/M01 A2967 RMK AO2 SLP047 P0001 T00001011=
202401170553 METAR KBFI 170553Z 00000KT 5SM UP BR OVC023 00/M02 A2969 RMK AO2 SLP054 P0001 60001 T00001017 10022 20000 58024=
202401170453 METAR KBFI 170453Z 13003KT 9SM UP OVC027 00/M03 A2972 RMK AO2 RAE01B33E41UPB41 SLP062 P0000 T00001028=
202401170353 METAR KBFI 170353Z 14007KT 8SM -RA OVC027 01/M06 A2974 RMK AO2 RAB49 SLP071 P0000 T00111061=
202401170329 SPECI KBFI 170329Z 17006KT 10SM BKN026 BKN031 OVC043 02/M07 A2975 RMK AO2 T00171072=
202401170253 METAR KBFI 170253Z 00000KT 10SM OVC055 02/M08 A2976 RMK AO2 SLP078 T00171078 56026=
202401170153 METAR KBFI 170153Z 10SM OVC039 02/M08 A2977 RMK AO2 SLP082 T00171078=
202401170053 METAR KBFI 170053Z 00000KT 10SM OVC043 02/M08 A2981 RMK AO2 SLP094 T00221083=
202401162353 METAR KBFI 162353Z 00000KT 10SM BKN220 02/M08 A2984 RMK AO2 SLP105 T00221083 10028 21011 56032=
202401162253 METAR KBFI 162253Z 00000KT 10SM BKN220 03/M10 A2987 RMK AO2 SLP114 T00281100=
202401162153 METAR KBFI 162153Z AUTO 00000KT 10SM CLR 02/M11 A2991 RMK AO2 SLP127 T00221106=
202401162053 METAR KBFI 162053Z AUTO 15003KT 10SM CLR 02/M12 A2994 RMK AO2 SLP137 T00171117=
202401161953 METAR KBFI 161953Z AUTO 17003KT 10SM CLR 01/M12 A2999 RMK AO2 SLP155 T00111122=
202401161853 METAR KBFI 161853Z AUTO 00000KT 10SM CLR 00/M11 A3002 RMK AO2 SLP164 T00001106 $=
202401161753 METAR KBFI 161753Z 00000KT 10SM CLR M01/M09 A3004 RMK AO2 SLP173 T10111094 11011 21067 56017=
202401161653 METAR KBFI 161653Z 00000KT 10SM CLR M02/M11 A3006 RMK AO2 SLP177 T10171106=
202401161553 METAR KBFI 161553Z 00000KT 10SM CLR M04/M12 A3007 RMK AO2 SLP183 T10391122=
202401161453 METAR KBFI 161453Z 14003KT 10SM CLR M05/M11 A3010 RMK AO2 SLP190 T10501111 56028=
202401161353 METAR KBFI 161353Z 00000KT 10SM CLR M06/M11 A3012 RMK AO2 SLP198 T10561106=
202401161253 METAR KBFI 161253Z 00000KT 10SM CLR M05/M11 A3015 RMK AO2 SLP209 T10501106=
202401161153 METAR KBFI 161153Z 00000KT 10SM CLR M05/M10 A3018 RMK AO2 SLP218 T10501100 11028 21061 58020=
202401161053 METAR KBFI 161053Z 00000KT 10SM CLR M05/M12 A3020 RMK AO2 SLP226 T10501117=
202401160953 METAR KBFI 160953Z 00000KT 10SM CLR M04/M12 A3021 RMK AO2 SLP230 T10441117=
202401160853 METAR KBFI 160853Z 00000KT 10SM CLR M04/M11 A3024 RMK AO2 SLP238 T10441111 56015=
202401160753 METAR KBFI 160753Z 00000KT 10SM CLR M04/M11 A3024 RMK AO2 PRESFR SLP240 T10391111 400221078=
202401160653 METAR KBFI 160653Z 00000KT 10SM CLR M04/M11 A3027 RMK AO2 SLP250 T10391106=
202401160553 METAR KBFI 160553Z 00000KT 10SM CLR M03/M12 A3028 RMK AO2 SLP253 T10281122 10022 21033 58009=
202401160453 METAR KBFI 160453Z 00000KT 10SM CLR M03/M11 A3030 RMK AO2 SLP260 T10281106=
202401160353 METAR KBFI 160353Z 00000KT 10SM CLR M01/M12 A3031 RMK AO2 SLP262 T10111122=
202401160253 METAR KBFI 160253Z 16003KT 10SM CLR M02/M13 A3031 RMK AO2 SLP262 T10171128 55015=
202401160153 METAR KBFI 160153Z 15006KT 10SM CLR M01/M12 A3030 RMK AO2 SLP261 T10111122=
202401160053 METAR KBFI 160053Z 12004KT 10SM BKN200 01/M09 A3033 RMK AO2 SLP269 T00111094=
202401152353 METAR KBFI 152353Z 00000KT 10SM BKN250 02/M09 A3035 RMK AO2 SLP277 T00221094 10022 21028 58014=
202401152253 METAR KBFI 152253Z 32004KT 10SM BKN220 02/M11 A3037 RMK AO2 SLP283 T00221111=
202401152153 METAR KBFI 152153Z 28003KT 10SM CLR 02/M11 A3038 RMK AO2 SLP286 T00221111=
202401152053 METAR KBFI 152053Z 33004KT 10SM BKN220 02/M11 A3039 RMK AO2 SLP291 T00221111 58006=
202401151953 METAR KBFI 151953Z 00000KT 10SM BKN220 01/M11 A3041 RMK AO2 SLP296 T00111111=
202401151853 METAR KBFI 151853Z 00000KT 10SM CLR 00/M11 A3042 RMK AO2 SLP299 T00001111=
202401151753 METAR KBFI 151753Z 00000KT 10SM BKN200 M03/M08 A3041 RMK AO2 SLP297 T10281078 11028 21072 53004=
202401151653 METAR KBFI 151653Z 00000KT 10SM CLR M04/M08 A3040 RMK AO2 SLP295 T10391078=
202401151553 METAR KBFI 151553Z 00000KT 10SM CLR M07/M11 A3040 RMK AO2 SLP295 T10721111=
202401151453 METAR KBFI 151453Z 00000KT 10SM CLR M06/M11 A3040 RMK AO2 SLP293 T10561106 55001=
202401151353 METAR KBFI 151353Z 00000KT 10SM CLR M07/M11 A3039 RMK AO2 SLP292 T10671106=
202401151253 METAR KBFI 151253Z 00000KT 10SM CLR M07/M11 A3039 RMK AO2 SLP289 T10671111=
202401151153 METAR KBFI 151153Z 00000KT 10SM CLR M07/M11 A3040 RMK AO2 SLP294 T10671111 11033 21078 50008=
202401151053 METAR KBFI 151053Z 00000KT 10SM CLR M07/M12 A3041 RMK AO2 SLP296 T10671117=
202401150953 METAR KBFI 150953Z 00000KT 10SM CLR M06/M12 A3040 RMK AO2 SLP292 T10561117=
202401150853 METAR KBFI 150853Z 00000KT 10SM CLR M06/M12 A3038 RMK AO2 SLP285 T10561117 50013=
202401150753 METAR KBFI 150753Z 00000KT 10SM CLR M05/M11 A3038 RMK AO2 SLP286 T10501106 410061100=
202401150653 METAR KBFI 150653Z 00000KT 10SM CLR M06/M11 A3036 RMK AO2 SLP281 T10561106=
202401150553 METAR KBFI 150553Z 00000KT 10SM CLR M04/M12 A3034 RMK AO2 SLP273 T10391117 11006 21044 50006=
202401150453 METAR KBFI 150453Z 10003KT 10SM CLR M03/M10 A3034 RMK AO2 SLP274 T10331100=
202401150353 METAR KBFI 150353Z 00000KT 10SM CLR M02/M11 A3034 RMK AO2 SLP273 T10221106=
202401150253 METAR KBFI 150253Z 05003KT 10SM CLR M02/M11 A3032 RMK AO2 SLP266 T10171111 51020=
202401150153 METAR KBFI 150153Z 00000KT 10SM BKN200 M02/M11 A3030 RMK AO2 SLP260 T10171111=
202401150053 METAR KBFI 150053Z 02003KT 10SM CLR M01/M12 A3028 RMK AO2 SLP254 T10111117=
202401142353 METAR KBFI 142353Z 05003KT 10SM BKN240 M01/M11 A3026 RMK AO2 SLP246 T10061111 11006 21056 53005=
202401142253 METAR KBFI 142253Z 32003KT 10SM BKN240 M01/M11 A3024 RMK AO2 SLP241 T10061106=
202401142153 METAR KBFI 142153Z 05004KT 10SM CLR M01/M09 A3025 RMK AO2 SLP242 T10111094=
202401142053 METAR KBFI 142053Z VRB03KT 10SM BKN240 M02/M11 A3024 RMK AO2 SLP241 T10171111 50003=
202401141953 METAR KBFI 141953Z 00000KT 10SM CLR M03/M13 A3026 RMK AO2 SLP247 T10281133=
202401141853 METAR KBFI 141853Z 18003KT 10SM BKN240 M04/M14 A3026 RMK AO2 SLP245 T10391139=
202401141753 METAR KBFI 141753Z 17003KT 10SM CLR M06/M13 A3024 RMK AO2 SLP238 T10561128 11056 21100 53025=
202401141653 METAR KBFI 141653Z 00000KT 10SM CLR M07/M12 A3021 RMK AO2 SLP228 T10721117=
202401141553 METAR KBFI 141553Z 12003KT 10SM CLR M09/M13 A3018 RMK AO2 SLP218 T10891128=
202401141453 METAR KBFI 141453Z 00000KT 10SM CLR M08/M13 A3016 RMK AO2 SLP213 T10831128 53033=
202401141353 METAR KBFI 141353Z 00000KT 10SM CLR M08/M12 A3012 RMK AO2 SLP199 T10831122=
202401141253 METAR KBFI 141253Z 00000KT 10SM CLR M08/M13 A3010 RMK AO2 SLP191 T10831128=
202401141153 METAR KBFI 141153Z 15004KT 10SM CLR M09/M12 A3007 RMK AO2 SLP180 T10891122 11067 21089 51019=
202401141053 METAR KBFI 141053Z 00000KT 10SM CLR M08/M13 A3006 RMK AO2 SLP177 T10831128=
202401140953 METAR KBFI 140953Z 00000KT 10SM CLR M08/M13 A3003 RMK AO2 SLP168 T10831133=
202401140853 METAR KBFI 140853Z 00000KT 10SM CLR M08/M13 A3001 RMK AO2 SLP161 T10781133 53026=
202401140753 METAR KBFI 140753Z 00000KT 10SM CLR M07/M14 A2998 RMK AO2 SLP151 T10721139 410391100=
202401140653 METAR KBFI 140653Z 00000KT 10SM CLR M07/M14 A2995 RMK AO2 SLP139 T10721144=
202401140553 METAR KBFI 140553Z 00000KT 10SM CLR M07/M16 A2993 RMK AO2 SLP136 T10721156 11044 21078 51016=
202401140453 METAR KBFI 140453Z 09004KT 10SM CLR M06/M17 A2992 RMK AO2 SLP130 T10611167=
202401140353 METAR KBFI 140353Z 00000KT 10SM CLR M06/M14 A2991 RMK AO2 SLP127 T10611144=
202401140253 METAR KBFI 140253Z VRB05KT 10SM CLR M05/M14 A2989 RMK AO2 SLP120 T10501144 51024=
202401140153 METAR KBFI 140153Z 36004KT 10SM CLR M04/M14 A2986 RMK AO2 SLP112 T10441144=
202401140053 METAR KBFI 140053Z VRB03KT 10SM BKN220 M04/M14 A2984 RMK AO2 SLP104 T10441144=
202401132353 METAR KBFI 132353Z 36005KT 10SM BKN240 M04/M15 A2982 RMK AO2 SLP096 T10441150 11039 21078 55013=
202401132253 METAR KBFI 132253Z 10SM BKN240 M05/M15 A2980 RMK AO2 SLP090 T10501150=
202401132153 METAR KBFI 132153Z 20003KT 10SM BKN220 M06/M16 A2982 RMK AO2 SLP096 T10561156=
202401132053 METAR KBFI 132053Z 00000KT 10SM OVC140 M06/M17 A2985 RMK AO2 SLP108 T10611167 56048=
202401131953 METAR KBFI 131953Z 00000KT 10SM BKN220 M07/M15 A2989 RMK AO2 SLP121 T10671150=
202401131853 METAR KBFI 131853Z 00000KT 10SM BKN220 M07/M14 A2995 RMK AO2 SLP141 T10671139=
202401131753 METAR KBFI 131753Z 28003KT 10SM BKN220 M08/M16 A3000 RMK AO2 SLP156 T10781161 11078 21100 56024=
202401131653 METAR KBFI 131653Z 00000KT 10SM CLR M08/M16 A3002 RMK AO2 SLP164 T10831161=
202401131553 METAR KBFI 131553Z 00000KT 10SM CLR M09/M16 A3003 RMK AO2 SLP167 T10941161=
202401131453 METAR KBFI 131453Z 00000KT 10SM CLR M09/M16 A3007 RMK AO2 SLP180 T10941161 58034=
202401131353 METAR KBFI 131353Z 00000KT 10SM CLR M09/M16 A3010 RMK AO2 SLP193 T10941156=
202401131253 METAR KBFI 131253Z 00000KT 10SM CLR M10/M15 A3014 RMK AO2 SLP205 T11001150=
202401131153 METAR KBFI 131153Z 00000KT 10SM CLR M09/M15 A3017 RMK AO2 SLP214 T10941150 11078 21100 58021=
202401131053 METAR KBFI 131053Z 00000KT 10SM CLR M10/M17 A3019 RMK AO2 SLP221 T11001167=
202401130953 METAR KBFI 130953Z 00000KT 10SM CLR M09/M15 A3021 RMK AO2 SLP229 T10891150=
202401130853 METAR KBFI 130853Z 00000KT 10SM CLR M09/M14 A3023 RMK AO2 SLP235 T10891144 58020=
202401130753 METAR KBFI 130753Z 00000KT 10SM CLR M09/M15 A3025 RMK AO2 SLP242 T10891150 410281089=
202401130653 METAR KBFI 130653Z 05004KT 10SM CLR M08/M16 A3027 RMK AO2 SLP249 T10781161=
202401130553 METAR KBFI 130553Z 02004KT 10SM CLR M08/M16 A3029 RMK AO2 SLP255 T10781156 11067 21078 58008=
202401130453 METAR KBFI 130453Z VRB03KT 10SM CLR M08/M13 A3030 RMK AO2 SLP260 T10781133=
202401130353 METAR KBFI 130353Z 35004KT 10SM FEW020 M08/M14 A3031 RMK AO2 SLP263 T10781139=
202401130253 METAR KBFI 130253Z 34005KT 10SM FEW029 M08/M14 A3031 RMK AO2 SLP263 T10781144 50003=
202401130153 METAR KBFI 130153Z 34005KT 10SM FEW029 M08/M15 A3032 RMK AO2 SLP265 T10781150=
202401130053 METAR KBFI 130053Z 34006KT 10SM FEW029 M07/M14 A3031 RMK AO2 SLP263 T10721144=
202401122353 METAR KBFI 122353Z 35005KT 10SM FEW030 M07/M14 A3030 RMK AO2 SLP260 T10671139 11061 21072 53005=
202401122253 METAR KBFI 122253Z 34011G20KT 10SM CLR M07/M14 A3029 RMK AO2 SLP255 T10671144=
202401122153 METAR KBFI 122153Z 33007G18KT 10SM FEW029 OVC060 M07/M14 A3029 RMK AO2 SLP255 T10671144=
202401122053 METAR KBFI 122053Z 01007KT 340V050 10SM FEW034 OVC060 M06/M14 A3029 RMK AO2 SLP255 T10611144 51014=
202401121953 METAR KBFI 121953Z VRB05G15KT 10SM OVC060 M07/M16 A3027 RMK AO2 SLP251 T10671156=
202401121853 METAR KBFI 121853Z 36007KT 10SM OVC060 M07/M15 A3027 RMK AO2 SLP249 T10671150=
202401121753 METAR KBFI 121753Z 34008KT 10SM BKN060 M07/M14 A3025 RMK AO2 SLP242 T10671139 11044 21067 52025=
202401121653 METAR KBFI 121653Z 01005KT 10SM SCT011 BKN060 M07/M16 A3022 RMK AO2 SLP234 T10671156=
202401121553 METAR KBFI 121553Z VRB06KT 10SM OVC060 M06/M16 A3020 RMK AO2 SLP225 T10611156=
202401121453 METAR KBFI 121453Z 36007KT 10SM OVC060 M06/M14 A3017 RMK AO2 SLP217 T10561139 53023=
202401121353 METAR KBFI 121353Z 36007KT 320V030 10SM FEW010 OVC060 M05/M12 A3015 RMK AO2 SLP207 T10501117=
202401121253 METAR KBFI 121253Z 34010G20KT 10SM OVC065 M04/M13 A3012 RMK AO2 SLP199 T10441128=
202401121153 METAR KBFI 121153Z 34008G17KT 310V010 10SM OVC065 M04/M12 A3011 RMK AO2 SLP194 T10441117 11022 21044 53028=
202401121053 METAR KBFI 121053Z 33009G21KT 10SM OVC065 M04/M10 A3007 RMK AO2 SLP183 T10391100=
202401120953 METAR KBFI 120953Z 33008G19KT 10SM OVC065 M03/M09 A3004 RMK AO2 SLP171 T10331089=
202401120853 METAR KBFI 120853Z 34006G21KT 10SM OVC065 M03/M09 A3002 RMK AO2 SLP166 T10331089 53025=
202401120753 METAR KBFI 120753Z 32011G18KT 10SM FEW025 OVC065 M03/M08 A2999 RMK AO2 SLP156 T10281078 400671028=
202401120653 METAR KBFI 120653Z 33011G19KT 10SM OVC060 M03/M08 A2997 RMK AO2 SLP147 T10281083=
202401120553 METAR KBFI 120553Z 33009G18KT 10SM OVC060 M02/M08 A2995 RMK AO2 SLP141 60000 T10221078 10033 21022 51023=
202401120453 METAR KBFI 120453Z 31006G16KT 10SM FEW012 OVC055 M02/M07 A2993 RMK AO2 SNE10 SLP134 P0000 T10171067=
202401120402 SPECI KBFI 120402Z VRB05G17KT 3SM -SN FEW015 SCT027 OVC050 M02/M05 A2991 RMK AO2 P0000 T10221050=
202401120353 METAR KBFI 120353Z 33011G17KT 2SM -SN FEW015 BKN025 OVC050 M02/M04 A2991 RMK AO2 SLP127 P0000 T10171044=
202401120318 SPECI KBFI 120318Z 34008KT 2SM -SN BR BKN008 BKN030 OVC036 M01/M03 A2989 RMK AO2 P0000 T10111033=
202401120253 METAR KBFI 120253Z 33004KT 5SM -SN OVC035 M01/M04 A2988 RMK AO2 SNB05 SLP117 P0000 60000 T10061039 51031=
202401120225 SPECI KBFI 120225Z VRB04G15KT 6SM -SN SCT028 OVC046 M01/M05 A2987 RMK AO2 SNB05 P0000 T10061050=
202401120153 METAR KBFI 120153Z 36005KT 10SM BKN024 OVC045 00/M04 A2986 RMK AO2 SLP109 T00001044=
202401120053 METAR KBFI 120053Z VRB06KT 10SM FEW033 BKN045 BKN095 01/M03 A2983 RMK AO2 SNE51 SLP100 P0000 T00061033=
202401120000 SPECI KBFI 120000Z 35007G16KT 8SM -SN FEW033 BKN045 BKN095 03/M03 A2979 RMK AO2 P0000 T00281028=
202401112353 METAR KBFI 112353Z VRB04G14KT 9SM -SN BKN028 BKN090 03/M03 A2979 RMK AO2 SNB52 PRESRR SLP086 P0000 60000 T00331028 10067 20033 53010=
202401112253 METAR KBFI 112253Z 34006KT 10SM BKN028 BKN090 06/01 A2973 RMK AO2 SLP068 T00610006=
202401112153 METAR KBFI 112153Z 27007KT 10SM BKN025 06/01 A2974 RMK AO2 SLP070 T00610006=
202401112053 METAR KBFI 112053Z 21007KT 10SM BKN025 05/01 A2976 RMK AO2 SLP076 T00500006 58023=
202401111953 METAR KBFI 111953Z VRB05KT 10SM BKN027 BKN055 06/01 A2978 RMK AO2 SLP085 T00610011=
202401111853 METAR KBFI 111853Z 20003KT 10SM BKN027 BKN055 05/00 A2981 RMK AO2 SLP094 T00500000=
202401111753 METAR KBFI 111753Z 16007KT 10SM BKN027 OVC055 04/01 A2983 RMK AO2 SLP099 T00390006 10039 20011 50000=
202401111653 METAR KBFI 111653Z 16007KT 10SM BKN027 OVC055 03/00 A2983 RMK AO2 SLP102 T00330000=
202401111553 METAR KBFI 111553Z VRB03KT 10SM SCT015 BKN065 OVC090 03/01 A2983 RMK AO2 SLP101 T00280006=
202401111453 METAR KBFI 111453Z 20003KT 10SM OVC070 02/00 A2983 RMK AO2 SLP099 T00220000 51004=
202401111353 METAR KBFI 111353Z 00000KT 10SM SCT070 02/00 A2983 RMK AO2 SLP099 T00220000=
202401111253 METAR KBFI 111253Z 00000KT 10SM SCT020 BKN070 03/00 A2982 RMK AO2 SLP098 T00280000=
202401111153 METAR KBFI 111153Z VRB03KT 10SM OVC014 04/01 A2981 RMK AO2 SLP095 T00390011 10039 20028 55003=
202401111053 METAR KBFI 111053Z 16006KT 10SM OVC014 04/02 A2980 RMK AO2 SLP091 T00390017=
202401110953 METAR KBFI 110953Z 16007KT 10SM OVC013 03/01 A2981 RMK AO2 SLP094 T00330011=
202401110853 METAR KBFI 110853Z 17006KT 10SM SCT016 OVC040 03/01 A2982 RMK AO2 SLP098 T00330011 58006=
202401110753 METAR KBFI 110753Z 17007KT 10SM SCT020 BKN044 03/02 A2983 RMK AO2 SLP102 T00330017 400610022=
202401110707 SPECI KBFI 110707Z 17012KT 10SM BKN013 BKN030 OVC050 04/02 A2983 RMK AO2 T00390022=
202401110700 SPECI KBFI 110700Z 17009KT 10SM SCT030 OVC050 04/02 A2984 RMK AO2 T00390022=
202401110653 METAR KBFI 110653Z 16007KT 10SM BKN013 BKN030 OVC050 04/03 A2984 RMK AO2 SLP103 T00390028=
202401110553 METAR KBFI 110553Z 14007KT 7SM BKN010 BKN020 OVC055 03/02 A2984 RMK AO2 RAE18 SLP104 P0000 60000 T00330022 10056 20028 50011=
202401110453 METAR KBFI 110453Z 13006KT 7SM -RA OVC017 04/03 A2984 RMK AO2 SLP104 P0000 T00390028=
202401110353 METAR KBFI 110353Z 14005KT 5SM -RA BR BKN017 BKN040 04/03 A2983 RMK AO2 RAB30 SLP101 P0000 T00390028=
202401110253 METAR KBFI 110253Z 15005KT 10SM BKN025 03/02 A2981 RMK AO2 SLP093 T00330017 51020=
202401110153 METAR KBFI 110153Z 13005KT 10SM SCT015 BKN040 04/02 A2979 RMK AO2 SLP087 T00440022=
202401110053 METAR KBFI 110053Z 31003KT 10SM BKN020 05/02 A2977 RMK AO2 SLP082 T00500017=
202401102353 METAR KBFI 102353Z 31004KT 10SM BKN020 06/01 A2975 RMK AO2 SLP073 T00560011 10061 20033 53019=
202401102253 METAR KBFI 102253Z 12003KT 10SM BKN020 06/01 A2972 RMK AO2 SLP064 T00610011=
202401102153 METAR KBFI 102153Z 14007KT 10SM BKN022 06/02 A2970 RMK AO2 SLP057 T00560017=
202401102053 METAR KBFI 102053Z 15010G17KT 10SM SCT011 BKN022 06/02 A2969 RMK AO2 SLP054 T00560017 50005=
202401102000 SPECI KBFI 102000Z 16004KT 10SM SCT011 BKN022 06/02 A2969 RMK AO2 T00560017=
202401101953 METAR KBFI 101953Z 16007KT 10SM SCT009 BKN011 BKN022 06/02 A2969 RMK AO2 SLP055 T00560022=
202401101853 METAR KBFI 101853Z 16007KT 10SM SCT009 BKN011 BKN022 04/02 A2969 RMK AO2 SLP053 T00390022=
202401101753 METAR KBFI 101753Z 15009KT 10SM BKN009 BKN011 OVC029 03/02 A2968 RMK AO2 SLP049 60000 T00330017 10033 20022 53021=
202401101714 SPECI KBFI 101714Z 15009KT 10SM BKN008 OVC014 03/02 A2966 RMK AO2 T00280017=
202401101653 METAR KBFI 101653Z 15011KT 10SM SCT008 OVC014 03/02 A2965 RMK AO2 SLP041 T00280017=
202401101553 METAR KBFI 101553Z 15011KT 9SM OVC007 03/02 A2963 RMK AO2 SLP034 T00280017=
202401101453 METAR KBFI 101453Z 14009KT 7SM BKN008 OVC010 03/02 A2962 RMK AO2 SLP028 60000 T00280017 53004=
202401101353 METAR KBFI 101353Z 14010KT 7SM BKN006 OVC010 02/02 A2961 RMK AO2 UPB13E22 SLP025 P0000 T00220017=
202401101253 METAR KBFI 101253Z 15009KT 9SM OVC011 03/01 A2960 RMK AO2 SLP023 T00280011=
202401101153 METAR KBFI 101153Z 15007KT 10SM OVC013 03/01 A2960 RMK AO2 SLP024 70006 T00280011 10050 20028 51005=
202401101116 SPECI KBFI 101116Z 15009KT 10SM BKN011 OVC017 03/01 A2960 RMK AO2 T00280011=
202401101053 METAR KBFI 101053Z 16008KT 10SM OVC016 03/01 A2960 RMK AO2 SLP024 T00330011=
202401100953 METAR KBFI 100953Z 18006KT 10SM OVC016 03/01 A2960 RMK AO2 SLP022 T00330006=
202401100853 METAR KBFI 100853Z 20008KT 10SM OVC017 04/01 A2959 RMK AO2 SLP020 T00390006 53001=
202401100753 METAR KBFI 100753Z 18009G18KT 10SM BKN018 OVC023 04/01 A2959 RMK AO2 SLP018 T00390011 401000039=
202401100653 METAR KBFI 100653Z 19009G16KT 10SM BKN020 OVC030 05/02 A2958 RMK AO2 SLP015 T00500017=
202401100553 METAR KBFI 100553Z 16007KT 10SM BKN022 OVC028 05/02 A2959 RMK AO2 SLP019 T00500017 10072 20044 58032=
202401100513 SPECI KBFI 100513Z 18009G17KT 10SM BKN025 05/02 A2961 RMK AO2 T00500017=
202401100453 METAR KBFI 100453Z 18012G24KT 10SM FEW023 05/01 A2963 RMK AO2 SLP032 T00500011=
202401100353 METAR KBFI 100353Z 20013G23KT 10SM SCT025 05/01 A2966 RMK AO2 PK WND 19027/0309 SLP042 T00500011=
202401100300 SPECI KBFI 100300Z 20012G25KT 10SM FEW021 06/02 A2968 RMK AO2 T00560022=
202401100300 METAR KBFI 100300Z 20012G25KT 10SM FEW021 06/02 A2968 RMK AO2 T00560022=
202401100253 METAR KBFI 100253Z 20010G24KT 170V230 10SM BKN025 06/02 A2968 RMK AO2 SLP051 T00560017 51011=
202401100153 METAR KBFI 100153Z 22011G21KT 10SM BKN025 06/02 A2967 RMK AO2 PK WND 23027/0128 SLP047 T00610017=
202401100053 METAR KBFI 100053Z 23014G24KT 180V260 10SM BKN025 07/02 A2967 RMK AO2 PK WND 21027/0041 SLP046 T00670022=
202401092353 METAR KBFI 092353Z 22011G21KT 10SM SCT026 BKN100 07/03 A2965 RMK AO2 SLP039 T00720033 10078 20067 53014=
202401092313 SPECI KBFI 092313Z 21008G21KT 170V230 10SM BKN020 07/03 A2964 RMK AO2 T00720033=
202401092300 SPECI KBFI 092300Z 21011G22KT 10SM CLR 07/03 A2964 RMK AO2 T00720033=
202401092253 METAR KBFI 092253Z 23015G26KT 10SM BKN020 07/03 A2964 RMK AO2 PK WND 23026/2237 SLP035 T00720033=
202401092153 METAR KBFI 092153Z 22009G25KT 10SM BKN020 07/03 A2961 RMK AO2 PK WND 23030/2132 SLP026 T00720033=
202401092053 METAR KBFI 092053Z 22015G29KT 10SM BKN020 07/03 A2961 RMK AO2 PK WND 20029/2051 SLP025 T00720033 51008=
202401091953 METAR KBFI 091953Z 20012G26KT 10SM BKN020 07/03 A2960 RMK AO2 PK WND 21030/1943 SLP022 T00720033=
202401091853 METAR KBFI 091853Z 20012G33KT 10SM BKN024 07/04 A2959 RMK AO2 PK WND 20035/1831 SLP021 T00720039=
202401091753 METAR KBFI 091753Z 20013G31KT 10SM BKN023 OVC031 07/04 A2958 RMK AO2 PK WND 18032/1727 RAB1656E52 SLP017 P0001 60006 T00670039 10072 20056 56009=
202401091653 METAR KBFI 091653Z 19014G29KT 10SM BKN020 OVC028 07/03 A2959 RMK AO2 PK WND 16037/1600 RAE05 SLP018 P0000 T00670033=
202401091553 METAR KBFI 091553Z 19017G32KT 9SM -RA BKN023 BKN028 OVC041 06/03 A2958 RMK AO2 PK WND 20032/1553 RAB42 SLP017 P0000 T00610033=
202401091453 METAR KBFI 091453Z 17014KT 10SM FEW027 BKN031 06/03 A2961 RMK AO2 PK WND 18026/1422 RAB32E41 SLP026 P0000 60005 T00610033 53006=
202401091353 METAR KBFI 091353Z 19013G26KT 10SM FEW027 BKN031 06/03 A2958 RMK AO2 PK WND 19035/1254 RAB1257E32 SLP016 P0004 T00610028=
202401091253 METAR KBFI 091253Z 21016G32KT 10SM FEW027 BKN031 07/03 A2958 RMK AO2 PK WND 20032/1250 RAE11 SLP016 P0001 T00670033=
202401091153 METAR KBFI 091153Z 21014G30KT 9SM -RA FEW023 BKN031 07/04 A2959 RMK AO2 PK WND 20031/1115 RAE27B48 SLP020 P0000 60024 70028 T00720039 10100 20067 50011=
202401091053 METAR KBFI 091053Z 21010G23KT 8SM -RA SCT055 BKN070 OVC090 07/03 A2960 RMK AO2 PK WND 19037/1031 RAB32 SLP023 P0000 T00720033=
202401090953 METAR KBFI 090953Z 19012G22KT 10SM SCT028 08/04 A2960 RMK AO2 PK WND 18026/0909 SLP023 T00830044=
202401090853 METAR KBFI 090853Z 19009G21KT 160V230 10SM FEW060 BKN090 OVC110 08/05 A2956 RMK AO2 PK WND 23043/0810 RAE32 SLP009 P0008 60024 T00830050 55021=
202401090753 METAR KBFI 090753Z 18022G32KT 5SM -RA BR FEW023 OVC050 10/08 A2949 RMK AO2 PK WND 18033/0730 SLP986 P0008 T01000078 401000033=
202401090714 SPECI KBFI 090714Z 16015G23KT 5SM -RA BR FEW017 SCT024 OVC045 09/08 A2954 RMK AO2 PK WND 17027/0701 PRESFR P0003 T00940083=
202401090653 METAR KBFI 090653Z 16014G25KT 6SM -RA BR BKN015 OVC025 09/08 A2957 RMK AO2 PK WND 16027/0557 PRESFR SLP013 P0008 T00940083=
202401090553 METAR KBFI 090553Z 17013G25KT 3SM -RA BR SCT019 OVC029 10/08 A2962 RMK AO2 SLP030 P0001 60003 T01000083 10100 20044 56053=
202401090453 METAR KBFI 090453Z 15012KT 3SM -RA BR SCT017 BKN026 OVC031 08/07 A2966 RMK AO2 RAB02 SLP044 P0001 T00780072=
202401090353 METAR KBFI 090353Z 15011KT 3SM BR SCT017 BKN026 OVC031 06/06 A2973 RMK AO2 RAB40E50 SLP065 P0000 T00610056=
202401090253 METAR KBFI 090253Z 14009KT 3SM BR BKN008 OVC024 06/05 A2978 RMK AO2 RAB02E43 SLP083 P0001 60001 T00560050 58047=
202401090153 METAR KBFI 090153Z 16006KT 2SM BR BKN004 BKN011 OVC025 05/04 A2984 RMK AO2 RAB03E37 SLP102 P0000 T00500044=
202401090053 METAR KBFI 090053Z 15009KT 1 1/2SM BR BKN005 OVC010 04/04 A2988 RMK AO2 SLP117 T00440044=
202401082353 METAR KBFI 082353Z 15007KT 1 1/2SM BR BKN005 OVC010 04/04 A2992 RMK AO2 SLP130 60000 T00440039 10044 20039 56028=
202401082256 SPECI KBFI 082256Z 14006KT 1 3/4SM BR FEW004 BKN008 OVC016 04/04 A2994 RMK AO2 T00440039=
202401082253 METAR KBFI 082253Z 14006KT 2SM BR OVC004 04/04 A2994 RMK AO2 SLP139 T00440039=
202401082200 SPECI KBFI 082200Z 15006KT 2SM BR OVC004 04/04 A2997 RMK AO2 T00440039=
202401082153 METAR KBFI 082153Z 16005KT 3SM BR OVC007 04/04 A2997 RMK AO2 CIG 005V009 SLP147 T00440039=
202401082126 SPECI KBFI 082126Z 16005KT 2SM BR BKN007 OVC032 04/04 A2997 RMK AO2 T00440039=
202401082109 SPECI KBFI 082109Z 16004KT 1 3/4SM BR BKN007 OVC032 04/04 A2999 RMK AO2 T00440039=
202401082053 METAR KBFI 082053Z 16004KT 4SM BR BKN007 BKN032 OVC042 04/04 A3000 RMK AO2 SLP158 60000 T00440039 58026=
202401082040 SPECI KBFI 082040Z 16003KT 6SM BR BKN007 OVC020 04/03 A3001 RMK AO2 T00440033=
202401081953 METAR KBFI 081953Z 16003KT 5SM BR BKN020 OVC027 04/03 A3004 RMK AO2 RAE47 SLP170 P0000 T00440033=
202401081853 METAR KBFI 081853Z 16003KT 10SM -RA FEW020 OVC029 04/03 A3006 RMK AO2 SLP180 P0000 T00390028=
202401081753 METAR KBFI 081753Z 11006KT 6SM -RA BR BKN037 OVC049 04/03 A3008 RMK AO2 SLP185 P0000 60001 T00390028 10039 20033 58017=
202401081700 SPECI KBFI 081700Z 11008KT 4SM -RA BR BKN014 OVC028 04/02 A3010 RMK AO2 P0000 T00390022=
202401081653 METAR KBFI 081653Z 11007KT 5SM -RA BR BKN016 OVC031 04/03 A3010 RMK AO2 SLP193 P0000 T00390028=
202401081553 METAR KBFI 081553Z AUTO 14009KT 9SM -RA BKN016 OVC031 04/02 A3012 RMK AO2 SLP197 P0000 T00390022=
202401081453 METAR KBFI 081453Z 14008KT 8SM -RA OVC016 03/03 A3013 RMK AO2 SLP202 P0001 60001 T00330028 58005=
202401081353 METAR KBFI 081353Z 15006KT 6SM -RA BR OVC016 03/03 A3014 RMK AO2 SLP204 P0000 T00330028=
202401081253 METAR KBFI 081253Z 15006KT 8SM -RA FEW020 SCT027 OVC038 03/02 A3014 RMK AO2 RAB04 SLP206 P0000 T00330022=
202401081249 SPECI KBFI 081249Z 14006KT 7SM -RA SCT020 SCT030 OVC038 03/02 A3014 RMK AO2 RAB04 P0000=
202401081153 METAR KBFI 081153Z 13004KT 10SM OVC021 03/03 A3015 RMK AO2 SLP208 60000 T00330028 10044 20028 50005=
202401081053 METAR KBFI 081053Z 13003KT 10SM OVC023 03/03 A3015 RMK AO2 SLP208 T00330028=
202401080953 METAR KBFI 080953Z 13004KT 10SM FEW019 BKN024 03/02 A3014 RMK AO2 RAB04E17 SLP207 P0000 T00330022=
202401080853 METAR KBFI 080853Z 14004KT 10SM BKN024 03/02 A3013 RMK AO2 SLP203 60000 T00330022 58005=
202401080753 METAR KBFI 080753Z 12003KT 10SM BKN024 04/02 A3014 RMK AO2 SLP207 T00390022 400610028=
202401080653 METAR KBFI 080653Z 12004KT 10SM SCT010 BKN031 04/03 A3014 RMK AO2 RAE34 SLP207 P0000 T00390028=
202401080553 METAR KBFI 080553Z 00000KT 7SM -RA SCT010 BKN031 04/03 A3015 RMK AO2 RAB46 SLP208 P0000 60000 T00440028 10056 20039 53007=
202401080453 METAR KBFI 080453Z 00000KT 10SM BKN039 BKN050 04/02 A3012 RMK AO2 SLP200 T00440022=
202401080353 METAR KBFI 080353Z 05003KT 10SM FEW029 SCT039 OVC050 04/03 A3013 RMK AO2 RAB07E36 SLP201 P0000 T00440028=
202401080253 METAR KBFI 080253Z 00000KT 10SM OVC029 05/03 A3013 RMK AO2 SLP201 T00500028 53012=
202401080153 METAR KBFI 080153Z 00000KT 10SM OVC060 04/02 A3011 RMK AO2 SLP196 T00440022=
202401080053 METAR KBFI 080053Z 00000KT 10SM BKN030 BKN060 05/02 A3010 RMK AO2 SLP193 T00500017=
202401072353 METAR KBFI 072353Z 00000KT 10SM OVC060 06/02 A3009 RMK AO2 SLP190 60000 T00560017 10061 20044 53004=
202401072253 METAR KBFI 072253Z 07004KT 10SM SCT020 BKN040 OVC060 06/02 A3009 RMK AO2 SLP187 T00560017=
202401072234 SPECI KBFI 072234Z 03003KT 10SM SCT020 BKN029 OVC049 05/01 A3009 RMK AO2 T00500011=
202401072153 METAR KBFI 072153Z 35004KT 10SM FEW020 FEW037 BKN050 05/02 A3008 RMK AO2 SLP185 T00500022=
202401072053 METAR KBFI 072053Z 13003KT 10SM FEW014 SCT023 BKN055 06/02 A3008 RMK AO2 SLP186 60000 T00560022 51004=
202401071953 METAR KBFI 071953Z 18003KT 10SM SCT014 BKN050 06/03 A3008 RMK AO2 RAB1859E08 SLP185 P0000 T00560028=
202401071853 METAR KBFI 071853Z 16003KT 10SM FEW009 OVC025 05/03 A3008 RMK AO2 RAE23 SLP187 P0000 T00500028=
202401071849 SPECI KBFI 071849Z 16003KT 10SM FEW009 OVC025 05/03 A3008 RMK AO2 RAE23 P0000=
202401071753 METAR KBFI 071753Z 16004KT 8SM -RA SCT023 BKN033 BKN048 04/03 A3007 RMK AO2 RAB45 SLP182 P0000 60000 T00440028 10044 20028 53015=
202401071653 METAR KBFI 071653Z 12003KT 6SM BR FEW005 BKN020 OVC050 03/03 A3006 RMK AO2 RAE05 SLP178 P0000 T00330028=
202401071553 METAR KBFI 071553Z 13003KT 6SM -RA BR FEW005 SCT020 OVC050 03/03 A3004 RMK AO2 RAE1457B38 SLP171 P0000 T00330028=
202401071453 METAR KBFI 071453Z 00000KT 5SM -RA BR FEW013 BKN032 OVC055 03/03 A3003 RMK AO2 RAB41 SLP167 P0000 60000 T00330028 53013=
202401071353 METAR KBFI 071353Z 14005KT 5SM BR FEW021 BKN031 OVC050 03/03 A3001 RMK AO2 RAB29E40 SLP162 P0000 T00330028=
202401071253 METAR KBFI 071253Z 18003KT 6SM BR SCT014 BKN020 OVC049 03/03 A3000 RMK AO2 SLP158 T00330028=
202401071153 METAR KBFI 071153Z 00000KT 4SM BR SCT016 BKN025 OVC034 03/03 A2999 RMK AO2 SLP155 60000 70024 T00330033 10039 20028 51017=
202401071135 SPECI KBFI 071135Z 14004KT 4SM BR BKN025 BKN039 OVC060 03/03 A2998 RMK AO2 T00330028=
202401071053 METAR KBFI 071053Z 17003KT 4SM BR SCT015 OVC050 03/03 A2998 RMK AO2 SLP151 T00280028=
202401070953 METAR KBFI 070953Z 14004KT 4SM BR SCT020 BKN050 OVC070 03/03 A2996 RMK AO2 SLP144 T00330028=
202401070853 METAR KBFI 070853Z 15004KT 5SM BR BKN025 BKN045 OVC065 03/03 A2994 RMK AO2 RAB14E23 SLP138 P0000 60000 T00330028 51012=
202401070753 METAR KBFI 070753Z 13004KT 5SM BR FEW039 BKN050 OVC070 04/03 A2994 RMK AO2 SLP137 T00390028 400720033=
202401070653 METAR KBFI 070653Z 17005KT 7SM FEW017 BKN041 OVC065 04/03 A2993 RMK AO2 SLP133 T00390028=
202401070645 SPECI KBFI 070645Z 17003KT 6SM BR SCT017 BKN041 OVC065 04/03 A2993 RMK AO2 T00390033=
202401070624 SPECI KBFI 070624Z 00000KT 7SM BKN017 OVC041 04/03 A2992 RMK AO2 T00390033=
202401070553 METAR KBFI 070553Z 00000KT 7SM OVC041 04/03 A2990 RMK AO2 RAE03 SLP126 P0000 60014 T00390033 10067 20033 51021=
202401070529 SPECI KBFI 070529Z 15004KT 8SM FEW006 SCT039 OVC075 03/03 A2990 RMK AO2 RAE03 P0000 T00330028=
202401070453 METAR KBFI 070453Z 00000KT 7SM -RA BKN030 OVC038 04/03 A2989 RMK AO2 RAB53 SLP120 P0000 T00390033=
202401070353 METAR KBFI 070353Z 15003KT 10SM OVC039 03/02 A2986 RMK AO2 RAE17 SLP112 P0000 T00330022=
202401070253 METAR KBFI 070253Z 00000KT 10SM -RA SCT007 SCT043 BKN050 04/03 A2984 RMK AO2 RAB50 SLP105 P0000 60014 T00390028 51011=
202401070153 METAR KBFI 070153Z 00000KT 8SM FEW024 FEW029 04/02 A2982 RMK AO2 RAE33 TSB0058E13 SLP097 P0013 T00390022=
202401070113 SPECI KBFI 070113Z VRB03KT 2SM RA BR OVC018 04/02 A2982 RMK AO2 TSB0058E13 P0011 T00390022=
202401070103 SPECI KBFI 070103Z 34007G19KT 1 1/4SM TSRA BR BKN016 BKN023 OVC037 04/02 A2982 RMK AO2 TSB0058 P0007 T00390022=
202401070057 SPECI KBFI 070057Z AUTO 1 3/4SM +RA BR BKN016 BKN023 OVC037 04/03 A2981 RMK AO2 P0004 T00440028=
202401070055 SPECI KBFI 070055Z AUTO 2 1/2SM RA BR FEW016 SCT023 OVC037 05/03 A2981 RMK AO2 P0002 T00500028=
202401070053 METAR KBFI 070053Z AUTO 36004KT 3SM RA BR BKN018 BKN039 OVC075 06/03 A2981 RMK AO2 RAB46 SLP094 P0001 T00560033=
202401062353 METAR KBFI 062353Z 16006KT 10SM FEW042 OVC080 06/03 A2977 RMK AO2 SLP081 T00610033 10072 20056 58002=
202401062253 METAR KBFI 062253Z 15009KT 10SM FEW020 SCT036 OVC090 07/03 A2977 RMK AO2 SLP081 T00670033=
202401062153 METAR KBFI 062153Z 14008KT 10SM SCT016 BKN025 06/03 A2978 RMK AO2 SLP083 T00610033=
202401062053 METAR KBFI 062053Z 15013G20KT 10SM BKN014 BKN035 06/03 A2978 RMK AO2 SLP083 T00560033 50003=
202401062043 SPECI KBFI 062043Z 16012KT 10SM BKN014 BKN035 06/04 A2978 RMK AO2 T00610039=
202401061953 METAR KBFI 061953Z 14007KT 10SM SCT014 OVC021 06/04 A2978 RMK AO2 SLP085 T00560039=
202401061853 METAR KBFI 061853Z 15008KT 10SM OVC021 06/03 A2978 RMK AO2 SLP083 T00560033=
202401061753 METAR KBFI 061753Z 13004KT 10SM OVC019 06/03 A2977 RMK AO2 SLP080 60010 T00560033 10056 20050 53012=
202401061653 METAR KBFI 061653Z 00000KT 10SM OVC021 05/03 A2976 RMK AO2 SLP076 T00500033=
202401061553 METAR KBFI 061553Z 12003KT 10SM SCT014 BKN020 OVC035 05/03 A2974 RMK AO2 SLP072 T00500033=
202401061500 SPECI KBFI 061500Z 00000KT 10SM SCT014 BKN022 OVC035 06/04 A2974 RMK AO2 T00560044=
202401061453 METAR KBFI 061453Z 00000KT 10SM BKN011 OVC028 05/04 A2973 RMK AO2 SLP068 60010 T00500044 53011=
202401061353 METAR KBFI 061353Z 00000KT 10SM BKN011 OVC028 06/04 A2972 RMK AO2 RAE42 SLP063 P0000 T00560039=
202401061253 METAR KBFI 061253Z 00000KT 5SM -RA BR BKN016 OVC025 06/04 A2970 RMK AO2 SLP058 P0010 T00560039=
202401061153 METAR KBFI 061153Z VRB04G14KT 5SM -RA BKN019 OVC025 06/03 A2970 RMK AO2 RAB12 SLP057 P0004 60015 70028 T00610033 10078 20056 56021=
202401061053 METAR KBFI 061053Z 20009G23KT 10SM SCT021 OVC065 06/03 A2971 RMK AO2 PK WND 18026/1019 RAE09 SLP060 P0000 T00610033=
202401060953 METAR KBFI 060953Z 19008G16KT 5SM -RA BR FEW014 BKN025 OVC035 07/04 A2973 RMK AO2 PK WND 18026/0915 SLP068 P0004 T00670044=
202401060945 SPECI KBFI 060945Z 18010G16KT 8SM -RA FEW019 BKN024 OVC035 07/04 A2974 RMK AO2 PK WND 18026/0915 P0004 T00670044=
202401060934 SPECI KBFI 060934Z 19010G21KT 7SM -RA FEW017 BKN030 OVC035 07/04 A2974 RMK AO2 PK WND 18026/0915 P0004 T00670044=
202401060853 METAR KBFI 060853Z 18006KT 4SM -RA BR BKN020 OVC034 07/06 A2976 RMK AO2 SLP078 P0005 60007 T00670056 56045=
202401060753 METAR KBFI 060753Z 16005KT 6SM -RA BR BKN020 OVC034 07/05 A2980 RMK AO2 SLP092 P0000 T00670050 400890044=
202401060653 METAR KBFI 060653Z 17008KT 6SM -RA BR BKN020 OVC036 07/05 A2986 RMK AO2 SLP109 P0002 T00720050=
202401060553 METAR KBFI 060553Z 17012KT 10SM -RA BKN020 OVC035 08/05 A2990 RMK AO2 PK WND 17026/0504 SLP123 P0003 60005 T00780050 10083 20078 58044=
202401060453 METAR KBFI 060453Z 18009G20KT 8SM -RA BKN020 OVC035 08/05 A2994 RMK AO2 RAB05 SLP139 P0001 T00830050=
202401060353 METAR KBFI 060353Z 17012G21KT 10SM BKN020 OVC035 08/05 A2999 RMK AO2 RAB0255E50 SLP155 P0000 T00830050=
202401060253 METAR KBFI 060253Z 17011G21KT 10SM FEW009 BKN025 OVC032 08/05 A3003 RMK AO2 RAB0157E27 SLP167 P0001 60001 T00830050 58038=
202401060153 METAR KBFI 060153Z 16012G28KT 10SM FEW009 BKN025 OVC032 08/05 A3007 RMK AO2 PK WND 18028/0146 RAB0059E51 SLP180 P0000 T00780050=
202401060053 METAR KBFI 060053Z 17016G25KT 10SM FEW009 BKN025 OVC032 08/05 A3011 RMK AO2 RAE52 SLP194 P0000 T00830050=
202401052353 METAR KBFI 052353Z 17012G23KT 5SM -RA SCT009 BKN025 OVC035 08/06 A3014 RMK AO2 SLP205 P0004 60008 T00830056 10089 20072 58028=
202401052319 SPECI KBFI 052319Z 16008KT 5SM -RA SCT009 BKN021 OVC033 08/06 A3015 RMK AO2 PRESFR P0003 T00780056=
202401052255 SPECI KBFI 052255Z 17013G18KT 5SM -RA BKN021 BKN026 OVC033 08/06 A3017 RMK AO2 P0000 T00780056=
202401052253 METAR KBFI 052253Z 17009G15KT 5SM -RA SCT030 OVC037 08/06 A3018 RMK AO2 SLP218 P0003 T00780056=
202401052153 METAR KBFI 052153Z 17014G20KT 6SM -RA SCT030 OVC037 08/04 A3021 RMK AO2 RAB29 SLP228 P0001 T00830044=
202401052053 METAR KBFI 052053Z 17010G18KT 10SM SCT045 BKN055 OVC070 08/04 A3022 RMK AO2 RAB38E50 SLP234 P0000 60000 T00830039 58031=
202401051957 SPECI KBFI 051957Z 17011G18KT 10SM BKN065 08/04 A3026 RMK AO2 T00830039=
202401051953 METAR KBFI 051953Z 18010G18KT 10SM BKN019 OVC120 08/04 A3026 RMK AO2 SLP246 T00830039=
202401051853 METAR KBFI 051853Z 18009G19KT 10SM BKN019 OVC120 08/04 A3029 RMK AO2 SLP258 T00780039=
202401051753 METAR KBFI 051753Z 17008G20KT 10SM BKN015 BKN043 OVC110 07/04 A3032 RMK AO2 SLP265 60000 T00720039 10072 20056 51009=
202401051703 SPECI KBFI 051703Z 17010G17KT 10SM OVC013 07/04 A3031 RMK AO2 T00720044=
202401051653 METAR KBFI 051653Z 17009G19KT 10SM OVC022 07/04 A3031 RMK AO2 SLP262 T00720044=
202401051553 METAR KBFI 051553Z 17008KT 10SM OVC017 07/04 A3031 RMK AO2 SLP262 T00670044=
202401051453 METAR KBFI 051453Z 17004KT 8SM OVC010 06/05 A3029 RMK AO2 SLP257 60000 T00610050 51009=
202401051353 METAR KBFI 051353Z 16004KT 6SM BR OVC011 06/04 A3029 RMK AO2 SLP256 T00560044 $=
202401051350 SPECI KBFI 051350Z 15004KT 6SM BR OVC011 06/04 A3029 RMK AO2 $=
202401051253 METAR KBFI 051253Z 17007KT 10SM FEW055 06/04 A3026 RMK AO2 RAE05 SLP248 P0000 T00560039=
202401051153 METAR KBFI 051153Z 20009KT 8SM -RA OVC075 07/03 A3026 RMK AO2 RAB41 SLP247 P0000 60000 70001 T00670033 10072 20044 51009=
202401051053 METAR KBFI 051053Z 17008G16KT 10SM OVC100 07/04 A3026 RMK AO2 SLP245 T00670039=
202401050953 METAR KBFI 050953Z 15008KT 9SM SCT017 SCT022 05/03 A3025 RMK AO2 SLP244 T00500033=
202401050853 METAR KBFI 050853Z 15011KT 9SM FEW120 05/04 A3024 RMK AO2 SLP239 T00500039 50002=
202401050832 SPECI KBFI 050832Z 14009KT 9SM FEW016 SCT022 05/04 A3024 RMK AO2 T00500039=
202401050813 SPECI KBFI 050813Z 14009KT 9SM SCT016 BKN024 06/04 A3025 RMK AO2 T00560044=
202401050753 METAR KBFI 050753Z 13005KT 10SM SCT028 BKN045 06/04 A3025 RMK AO2 SLP244 T00610044 400830050=
202401050725 SPECI KBFI 050725Z 15006KT 10SM SCT012 BKN045 06/05 A3025 RMK AO2 T00610050=
202401050718 SPECI KBFI 050718Z 13007KT 10SM SCT013 BKN018 06/05 A3025 RMK AO2 T00610050=
202401050711 SPECI KBFI 050711Z 12006KT 10SM SCT015 06/05 A3025 RMK AO2 T00610050=
202401050700 SPECI KBFI 050700Z 11005KT 10SM BKN013 06/05 A3024 RMK AO2 T00610050=
202401050653 METAR KBFI 050653Z 13006KT 10SM FEW010 OVC040 07/05 A3024 RMK AO2 SLP241 T00670050=
202401050553 METAR KBFI 050553Z 14004KT 10SM FEW010 OVC040 05/04 A3023 RMK AO2 SLP237 60000 T00500044 10083 20050 51012=
202401050453 METAR KBFI 050453Z 15004KT 10SM FEW010 OVC040 07/06 A3023 RMK AO2 SLP235 T00670061=
202401050353 METAR KBFI 050353Z 16004KT 8SM SCT040 OVC060 06/06 A3022 RMK AO2 SLP231 T00610056=
202401050253 METAR KBFI 050253Z 00000KT 7SM FEW032 BKN070 07/06 A3020 RMK AO2 SLP226 60000 T00670061 52015=
202401050200 SPECI KBFI 050200Z 14003KT 10SM OVC070 08/07 A3019 RMK AO2 T00780067=
202401050153 METAR KBFI 050153Z 19004KT 10SM FEW008 SCT010 BKN020 08/07 A3018 RMK AO2 RAE0055 SLP220 P0000 T00780067=
202401050053 METAR KBFI 050053Z 00000KT 10SM -RA FEW008 SCT010 BKN020 08/07 A3017 RMK AO2 SLP217 P0000 T00830072=
202401042353 METAR KBFI 042353Z 32004KT 10SM -RA BKN010 OVC020 08/07 A3016 RMK AO2 RAB44 SLP211 P0001 60001 T00830067 10083 20067 53011=
202401042253 METAR KBFI 042253Z 00000KT 6SM BR BKN009 OVC014 08/07 A3014 RMK AO2 SLP204 T00830067=
202401042153 METAR KBFI 042153Z 15003KT 1 3/4SM BR OVC004 08/07 A3013 RMK AO2 SLP202 T00780072=
202401042119 SPECI KBFI 042119Z 00000KT 1 3/4SM BR OVC004 08/07 A3013 RMK AO2 T00780072=
202401042105 SPECI KBFI 042105Z 23003KT 1 3/4SM BR OVC008 08/07 A3013 RMK AO2 T00780067=
202401042053 METAR KBFI 042053Z 00000KT 5SM BR BKN008 OVC013 08/07 A3012 RMK AO2 SLP200 T00780067 51002=
202401042022 SPECI KBFI 042022Z 16005KT 8SM OVC009 08/07 A3012 RMK AO2 T00780067=
202401041953 METAR KBFI 041953Z 19004KT 3SM BR SCT007 OVC010 08/07 A3012 RMK AO2 SLP199 T00780067=
202401041853 METAR KBFI 041853Z 15006KT 3SM BR SCT008 BKN013 OVC020 07/07 A3013 RMK AO2 SLP202 T00720067=
202401041801 SPECI KBFI 041801Z 13006KT 3SM BR SCT008 BKN013 OVC020 07/06 A3012 RMK AO2 T00670061=
202401041753 METAR KBFI 041753Z 14006KT 2 1/2SM BR SCT008 BKN013 OVC020 07/06 A3012 RMK AO2 SLP198 60000 T00670061 10072 20061 53005=
202401041653 METAR KBFI 041653Z 15005KT 10SM OVC020 07/06 A3010 RMK AO2 SLP193 T00670056=
202401041553 METAR KBFI 041553Z 16004KT 10SM BKN020 OVC055 06/06 A3010 RMK AO2 RAB09E35 SLP191 P0000 T00610056=
202401041453 METAR KBFI 041453Z 18003KT 10SM SCT022 BKN032 OVC055 07/05 A3010 RMK AO2 SLP193 60000 T00670050 58006=
202401041353 METAR KBFI 041353Z 15006KT 10SM OVC060 07/06 A3011 RMK AO2 RAB11E34 SLP196 P0000 T00670056 $=
202401041253 METAR KBFI 041253Z 13005KT 10SM FEW045 BKN060 OVC070 07/06 A3011 RMK AO2 RAB1158E11 SLP197 P0000 T00720056 $=
202401041153 METAR KBFI 041153Z 13006KT 10SM SCT029 BKN037 OVC055 07/06 A3012 RMK AO2 RAB06E39 SLP199 P0000 60001 70002 T00720056 10083 20067 50002 $=
202401041053 METAR KBFI 041053Z 15009KT 10SM OVC046 08/05 A3013 RMK AO2 RAB10E40 SLP201 P0000 T00780050 $=
202401040953 METAR KBFI 040953Z 18007KT 10SM OVC110 08/06 A3012 RMK AO2 SLP199 T00780061 $=
202401040853 METAR KBFI 040853Z 15009KT 10SM BKN055 OVC070 07/06 A3012 RMK AO2 RAB0757E42 SLP197 P0001 60001 T00720061 50006 $=
202401040753 METAR KBFI 040753Z 17009KT 10SM FEW016 BKN041 OVC065 08/06 A3012 RMK AO2 SLP198 T00830061 401000039 $=
202401040653 METAR KBFI 040653Z 17011KT 10SM BKN032 OVC080 08/06 A3010 RMK AO2 SLP192 T00830061 $=
202401040553 METAR KBFI 040553Z 17007KT 10SM FEW017 BKN050 OVC070 08/06 A3010 RMK AO2 RAE14B37E49 SLP191 P0000 60000 T00830061 10083 20078 51009 $=
202401040453 METAR KBFI 040453Z 17008KT 10SM -RA SCT015 BKN055 OVC070 08/06 A3009 RMK AO2 RAB07 SLP190 P0000 T00830061 $=
202401040353 METAR KBFI 040353Z 18008KT 10SM SCT015 BKN019 OVC060 08/07 A3009 RMK AO2 RAB0255E19 SLP188 P0000 T00830067 $=
202401040253 METAR KBFI 040253Z 17008KT 10SM FEW017 FEW043 OVC065 08/07 A3007 RMK AO2 RAB43E52 SLP182 P0000 60000 T00830067 51013 $=
202401040200 SPECI KBFI 040200Z 17011KT 10SM SCT017 OVC080 08/07 A3006 RMK AO2 T00830067 $=
202401040153 METAR KBFI 040153Z 16010KT 10SM SCT010 BKN019 08/07 A3006 RMK AO2 SLP178 T00830067 $=
202401040100 SPECI KBFI 040100Z 15008KT 10SM SCT010 BKN019 08/07 A3005 RMK AO2 T00780067 $=
202401040100 METAR KBFI 040100Z 15008KT 10SM SCT010 BKN019 08/07 A3005 RMK AO2 T00780067=
202401040053 METAR KBFI 040053Z 15009KT 6SM BR BKN004 OVC012 08/07 A3005 RMK AO2 SLP175 T00780072 $=
202401040002 SPECI KBFI 040002Z 15011KT 6SM BR BKN004 OVC012 08/07 A3004 RMK AO2 T00830072 $=
202401032355 SPECI KBFI 032355Z 15010KT 10SM OVC016 08/07 A3003 RMK AO2 T00780072 $=
202401032353 METAR KBFI 032353Z 15010KT 6SM BR BKN004 OVC012 08/07 A3003 RMK AO2 RAE11 SLP169 P0000 60001 T00780072 10100 20067 $=
202401032307 SPECI KBFI 032307Z 15009KT 1SM -RA BR BKN009 BKN014 OVC021 08/07 A3003 RMK AO2 P0000 T00780072 $=
202401032253 METAR KBFI 032253Z 14009KT 2 1/2SM -RA BR BKN009 BKN017 OVC037 08/07 A3002 RMK AO2 RAB04 SLP166 P0001 T00830072 $=
202401032244 SPECI KBFI 032244Z 17008KT 3SM RA BR BKN009 OVC023 08/07 A3002 RMK AO2 RAB04 P0001 T00830067 $=
202401032216 SPECI KBFI 032216Z 16006KT 3SM RA BR BKN010 OVC023 08/07 A3001 RMK AO2 RAB04 P0000 T00830067 $=
202401032200 SPECI KBFI 032200Z 17009KT 3SM RA BR BKN010 OVC023 08/06 A3001 RMK AO2 P0000 T00830061=
202401032153 METAR KBFI 032153Z 17007KT 5SM RA BR FEW016 BKN023 OVC030 08/06 A3001 RMK AO2 RAB26 SLP162 P0000 T00830061=
202401032150 SPECI KBFI 032150Z VRB06KT 5SM RA FEW016 BKN023 OVC030 09/06 A3001 RMK AO2 RAB26 P0000=
202401032053 METAR KBFI 032053Z 23004KT 10SM OVC050 10/04 A2999 RMK AO2 SLP156 T01000044 53006=
202401031953 METAR KBFI 031953Z 00000KT 10SM FEW050 OVC060 09/06 A2998 RMK AO2 SLP153 T00940061=
202401031853 METAR KBFI 031853Z 00000KT 10SM FEW050 BKN060 09/04 A2998 RMK AO2 SLP152 T00940044=
202401031753 METAR KBFI 031753Z 00000KT 10SM BKN055 OVC075 07/06 A2998 RMK AO2 SLP150 T00670056 10067 20039 53011=
202401031653 METAR KBFI 031653Z 00000KT 10SM BKN060 06/04 A2997 RMK AO2 SLP147 T00560044=
202401031553 METAR KBFI 031553Z 12004KT 10SM SCT070 BKN110 04/03 A2995 RMK AO2 SLP141 T00390033=
202401031453 METAR KBFI 031453Z 00000KT 10SM CLR 05/04 A2994 RMK AO2 SLP139 T00500044 53006=
202401031353 METAR KBFI 031353Z 00000KT 10SM BKN055 05/04 A2993 RMK AO2 SLP136 T00500044=
202401031253 METAR KBFI 031253Z 00000KT 10SM FEW055 OVC090 06/05 A2993 RMK AO2 SLP133 T00560050=
202401031153 METAR KBFI 031153Z 00000KT 10SM BKN055 OVC090 05/04 A2992 RMK AO2 SLP133 60000 70005 T00500044 10078 20050 55000=
202401031053 METAR KBFI 031053Z 00000KT 10SM FEW060 OVC090 06/05 A2992 RMK AO2 SLP131 T00560050=
202401030953 METAR KBFI 030953Z 00000KT 10SM FEW060 FEW070 OVC090 06/05 A2992 RMK AO2 SLP131 T00610050=
202401030853 METAR KBFI 030853Z 00000KT 10SM SCT075 OVC095 06/04 A2992 RMK AO2 SLP133 60000 T00560044 51009=
202401030753 METAR KBFI 030753Z 00000KT 10SM BKN060 07/04 A2992 RMK AO2 SLP132 T00720044 400780022=
202401030653 METAR KBFI 030653Z 00000KT 10SM OVC055 07/05 A2991 RMK AO2 RAB20E45 SLP129 P0000 T00670050=
202401030553 METAR KBFI 030553Z 00000KT 10SM BKN065 OVC080 07/06 A2990 RMK AO2 SLP124 60002 T00670056 10072 20067 53002=
202401030453 METAR KBFI 030453Z 00000KT 10SM BKN065 OVC075 07/06 A2988 RMK AO2 SLP119 T00720061=
202401030353 METAR KBFI 030353Z 33003KT 10SM FEW090 SCT110 07/06 A2988 RMK AO2 SLP118 T00720061=
202401030253 METAR KBFI 030253Z 00000KT 10SM BKN065 OVC080 07/06 A2989 RMK AO2 RAB35E46 SLP121 P0000 60002 T00720061 55009=
202401030153 METAR KBFI 030153Z 00000KT 10SM FEW025 OVC060 07/06 A2988 RMK AO2 SLP119 T00720056=
202401030053 METAR KBFI 030053Z 11004KT 10SM OVC055 07/06 A2990 RMK AO2 RAE49 SLP126 P0002 T00720056=
202401022353 METAR KBFI 022353Z 00000KT 5SM -RA BR SCT020 OVC055 07/06 A2992 RMK AO2 RAE2258B44 SLP131 P0000 60003 T00720056 10072 20056 55013=
202401022253 METAR KBFI 022253Z 05003KT 6SM -RA BR SCT020 OVC048 07/06 A2991 RMK AO2 SLP127 P0000 T00670056=
202401022157 SPECI KBFI 022157Z 00000KT 5SM -RA BR SCT020 OVC048 07/05 A2993 RMK AO2 P0000 T00720050=
202401022153 METAR KBFI 022153Z 00000KT 5SM -RA BR OVC048 07/06 A2993 RMK AO2 SLP136 P0000 T00720056=
202401022053 METAR KBFI 022053Z 00000KT 4SM -RA BR SCT020 OVC049 07/06 A2996 RMK AO2 SLP143 P0001 60003 T00670056 58023=
202401021953 METAR KBFI 021953Z 00000KT 4SM -RA BR BKN020 BKN049 OVC060 06/05 A2998 RMK AO2 SLP153 P0001 T00560050=
202401021853 METAR KBFI 021853Z 15005KT 5SM -RA BR SCT025 OVC055 06/05 A3001 RMK AO2 RAB1757 SLP161 P0001 T00560050=
202401021753 METAR KBFI 021753Z 00000KT 5SM BR BKN070 OVC085 06/05 A3002 RMK AO2 RAE22 SLP166 P0000 60000 T00610050 10061 20022 53013=
202401021653 METAR KBFI 021653Z 00000KT 5SM -RA BR BKN060 BKN075 OVC085 05/04 A3000 RMK AO2 RAB52 SLP159 P0000 T00500039=
202401021553 METAR KBFI 021553Z 00000KT 6SM BR OVC110 04/04 A2998 RMK AO2 SLP152 T00440039=
202401021453 METAR KBFI 021453Z 00000KT 8SM SCT120 04/03 A2999 RMK AO2 SLP153 T00390033 56018=
202401021353 METAR KBFI 021353Z 00000KT 5SM BR CLR 04/03 A2999 RMK AO2 SLP155 T00390033=
202401021253 METAR KBFI 021253Z 00000KT 4SM BR SCT003 SCT005 04/03 A3001 RMK AO2 SLP163 T00390033=
202401021153 METAR KBFI 021153Z 00000KT 4SM BR BKN003 03/03 A3004 RMK AO2 SLP171 T00330028 10044 20028 58020=
202401021059 SPECI KBFI 021059Z 00000KT 5SM BR OVC003 04/03 A3006 RMK AO2 T00390033=
202401021053 METAR KBFI 021053Z 00000KT 5SM BR BKN005 04/03 A3006 RMK AO2 SLP180 T00390033=
202401021003 SPECI KBFI 021003Z 00000KT 4SM BR OVC010 03/03 A3008 RMK AO2 T00330028=
202401020953 METAR KBFI 020953Z 00000KT 5SM BR FEW110 03/03 A3008 RMK AO2 SLP184 T00330033=
202401020853 METAR KBFI 020853Z 00000KT 5SM BR CLR 04/03 A3010 RMK AO2 SLP192 T00390033 58010=
202401020753 METAR KBFI 020753Z 00000KT 10SM CLR 04/03 A3011 RMK AO2 SLP196 T00390028 400830006=
202401020653 METAR KBFI 020653Z 00000KT 5SM BR CLR 04/03 A3012 RMK AO2 SLP199 T00390033=
202401020553 METAR KBFI 020553Z 00000KT 6SM BR CLR 04/03 A3013 RMK AO2 SLP202 T00440033 10078 20039 58015=
202401020453 METAR KBFI 020453Z 00000KT 6SM BR CLR 05/04 A3014 RMK AO2 SLP207 T00500039=
202401020353 METAR KBFI 020353Z 00000KT 10SM CLR 05/04 A3016 RMK AO2 SLP212 T00500039=
202401020253 METAR KBFI 020253Z 15003KT 7SM CLR 04/03 A3017 RMK AO2 SLP217 T00440033 58005=
202401020153 METAR KBFI 020153Z 00000KT 10SM CLR 06/04 A3019 RMK AO2 SLP221 T00560039=
202401020053 METAR KBFI 020053Z 00000KT 10SM CLR 07/04 A3019 RMK AO2 SLP223 T00670039=
202401012353 METAR KBFI 012353Z 00000KT 10SM CLR 08/04 A3019 RMK AO2 SLP222 T00780044 10083 20028 56006=
202401012253 METAR KBFI 012253Z 00000KT 10SM BKN120 08/04 A3019 RMK AO2 SLP222 T00780039=
202401012153 METAR KBFI 012153Z 00000KT 10SM BKN055 08/04 A3019 RMK AO2 SLP224 T00780044=
202401012053 METAR KBFI 012053Z 00000KT 9SM BKN065 07/05 A3021 RMK AO2 SLP228 T00670050 58013=
202401011953 METAR KBFI 011953Z 19003KT 5SM BR SCT002 OVC065 06/04 A3023 RMK AO2 SLP238 T00560039=
202401011935 SPECI KBFI 011935Z 18003KT 5SM BR SCT002 OVC065 05/03 A3024 RMK AO2 T00500033=
202401011853 METAR KBFI 011853Z 18003KT 4SM BR SCT002 BKN009 OVC065 04/04 A3025 RMK AO2 SLP243 T00390039=
202401011841 SPECI KBFI 011841Z 17003KT 5SM BR SCT002 BKN005 OVC065 04/04 A3025 RMK AO2 T00390039=
202401011829 SPECI KBFI 011829Z 17003KT 4SM BR BKN002 OVC065 03/03 A3025 RMK AO2 T00330033=
202401011756 SPECI KBFI 011756Z 00000KT 2SM BR BKN002 OVC065 03/03 A3024 RMK AO2 T00280028=
202401011753 METAR KBFI 011753Z 16003KT 1 1/2SM BR VV005 03/03 A3024 RMK AO2 SLP241 T00280028 10033 20022 51011=
202401011750 SPECI KBFI 011750Z 00000KT 3/4SM BR VV005 03/03 A3024 RMK AO2=
202401011737 SPECI KBFI 011737Z 00000KT 1/4SM FG VV005 03/03 A3024 RMK AO2 T00280028=
202401011703 SPECI KBFI 011703Z 13004KT M1/4SM FG VV005 03/03 A3023 RMK AO2 T00330033=
202401011653 METAR KBFI 011653Z 00000KT M1/4SM FG VV002 03/03 A3022 RMK AO2 SLP234 T00330033=
202401011615 SPECI KBFI 011615Z 13003KT M1/4SM FG VV002 03/03 A3021 RMK AO2 T00330033=
202401011600 SPECI KBFI 011600Z 17003KT 1/4SM FG VV002 03/03 A3021 RMK AO2 T00330033=
202401011553 METAR KBFI 011553Z 00000KT 1/2SM FG VV002 03/03 A3021 RMK AO2 SLP230 T00330033=
202401011453 METAR KBFI 011453Z 00000KT 1/2SM FG VV002 03/03 A3022 RMK AO2 SLP231 T00330033 55004=
202401011353 METAR KBFI 011353Z 00000KT 1/2SM FG VV003 03/03 A3021 RMK AO2 SLP230 T00280028=
202401011253 METAR KBFI 011253Z 00000KT 1/4SM FG VV002 02/02 A3022 RMK AO2 SLP231 T00220022=
202401011153 METAR KBFI 011153Z 00000KT 1/4SM FG VV002 02/02 A3023 RMK AO2 SLP236 T00220022 10039 20006 50004=
202401011053 METAR KBFI 011053Z 00000KT 1/4SM FG VV002 01/01 A3024 RMK AO2 SLP240 T00060006=
202401010955 METAR KBFI 010955Z 00000KT 1/4SM FG VV003 01/01 A3023 RMK AO2 T00110011=
202401010955 SPECI KBFI 010955Z 00000KT 1/4SM FG VV003 01/01 A3023 RMK AO2 T00110011=
202401010953 METAR KBFI 010953Z 00000KT 1/2SM FG VV002 02/01 A3023 RMK AO2 SLP237 T00170011=
202401010937 SPECI KBFI 010937Z 00000KT 1/2SM FG VV002 02/02 A3022 RMK AO2 T00220017=
202401010853 METAR KBFI 010853Z 00000KT 10SM SCT005 02/02 A3022 RMK AO2 SLP232 T00220017 51001=
202401010753 METAR KBFI 010753Z 00000KT 10SM FEW005 03/03 A3022 RMK AO2 SLP232 T00280028 401060028=
202401010653 METAR KBFI 010653Z 00000KT 10SM FEW005 03/03 A3022 RMK AO2 SLP233 T00330028=
202401010649 SPECI KBFI 010649Z 00000KT 10SM FEW005 04/03 A3022 RMK AO2=
202401010553 METAR KBFI 010553Z 00000KT 7SM CLR 04/03 A3021 RMK AO2 SLP230 T00390033 10089 20028 53001=
202401010453 METAR KBFI 010453Z 00000KT 7SM CLR 04/04 A3021 RMK AO2 SLP229 T00440039=
202401010402 SPECI KBFI 010402Z 00000KT 7SM SCT007 04/04 A3021 RMK AO2 T00440039=
202401010353 METAR KBFI 010353Z 00000KT 7SM CLR 05/04 A3021 RMK AO2 SLP230 T00500044=
202401010253 METAR KBFI 010253Z 00000KT 10SM CLR 06/05 A3021 RMK AO2 SLP229 T00610050 51010=
202401010153 METAR KBFI 010153Z 00000KT 7SM CLR 07/05 A3020 RMK AO2 SLP227 T00670050=
202401010053 METAR KBFI 010053Z 00000KT 10SM CLR 08/04 A3019 RMK AO2 SLP223 T00780044=

# No short TAF reports from KBFI in databse.

###################################
#  large TAF from KBFI
###################################
202401312321 TAF KBFI 312321Z 0100/0124 VRB02KT P6SM -RA OVC070 FM010300 13004KT
                       P6SM -SHRA OVC050 FM011100 14003KT P6SM
                       VCSH BKN025 OVC040 FM011500 15003KT 6SM
                       BR VCSH OVC030 FM011800 16006KT P6SM OVC050=
202401311721 TAF KBFI 311721Z 3118/0118 13008KT P6SM -RA SCT080 OVC100 FM312100
                       13005KT P6SM -RA OVC060 FM010300 13004KT
                       P6SM -SHRA OVC050 FM010900 13003KT P6SM
                       VCSH BKN025 OVC040 FM011500 13003KT 6SM
                       BR VCSH OVC030=
202401311200 KBFI 311200Z 3112/0112 11010KT P6SM -RA OVC050 FM311800 13005KT
                       P6SM -RA SCT030 OVC045 FM312100 13004KT
                       P6SM -RA OVC040 FM010400 13004KT P6SM -SHRA
                       BKN030 OVC050 FM011100 13003KT P6SM VCSH
                       BKN025 OVC040=
202401311135 TAF KBFI 311135Z 3112/0112 15005KT P6SM -RA OVC050 FM311800 13005KT
                       P6SM -RA SCT030 OVC045 FM312100 13004KT
                       P6SM -RA OVC040 FM010400 13004KT P6SM -SHRA
                       BKN030 OVC050 FM011100 13003KT P6SM VCSH
                       BKN025 OVC040=
202401310520 TAF KBFI 310520Z 3106/0106 06003KT P6SM SCT090 BKN120 FM310900
                       09006KT P6SM -RA OVC060 FM311200 10008KT
                       P6SM -RA OVC050 FM312100 13005KT 6SM -RA
                       OVC045=
202401302331 TAF KBFI 302331Z 3100/3124 32005KT P6SM OVC090 FM310300 06003KT
                       P6SM OVC070 FM310900 09006KT P6SM -RA OVC060
                       FM311200 10008KT P6SM -RA OVC050 FM312100
                       13005KT 6SM -RA OVC045=
202401302242 KBFI 302242Z 3023/3118 32005KT P6SM OVC090 FM310300 06003KT P6SM
                       OVC070 FM310900 09006KT P6SM -RA OVC060
                       FM311200 09008KT P6SM -RA OVC050=
202401301733 TAF KBFI 301733Z 3018/3118 VRB03KT P6SM -RA OVC080 FM302000 08003KT
                       P6SM BKN060 FM310900 09006KT P6SM -RA OVC060
                       FM311200 09008KT P6SM -RA OVC050=
202401301123 TAF KBFI 301123Z 3012/3112 VRB04KT P6SM OVC080 FM301700 09008KT
                       P6SM SCT060 BKN100 OVC200 FM310900 09010KT
                       P6SM -RA OVC060=
202401300831 KBFI 300831Z 3009/3106 16004KT P6SM FEW060 BKN080 OVC100 FM301300
                       14006KT P6SM BKN060 OVC100 FM301700 11006KT
                       P6SM SCT060 BKN100 OVC200=
202401300539 TAF KBFI 300539Z 3006/3106 16006KT P6SM BKN100 OVC200 FM300800
                       16006KT P6SM -SHRA BKN060 OVC100 FM301300
                       14006KT P6SM BKN060 OVC100 FM301700 11006KT
                       P6SM SCT060 BKN100 OVC200=
202401292320 TAF KBFI 292320Z 3000/3024 18005KT P6SM BKN100 FM300100 16006KT
                       P6SM VCSH BKN060 OVC100 FM300600 18009KT
                       P6SM -RA SCT020 BKN035 FM301000 18008KT
                       P6SM VCSH SCT015 OVC025 FM301900 09008KT
                       P6SM -SHRA BKN040=
202401292111 KBFI 292111Z 2921/3018 19004KT P6SM SCT150 OVC250 FM300200 16006KT
                       P6SM VCSH BKN060 OVC100 FM300600 18008KT
                       P6SM -RA SCT020 BKN035 OVC050 FM301000 18008KT
                       P6SM VCSH SCT015 OVC025=
202401291736 TAF KBFI 291736Z 2918/3018 12004KT P6SM SCT080 OVC250 FM300200
                       16006KT P6SM VCSH BKN060 OVC100 FM300600
                       18008KT P6SM -RA SCT020 BKN035 OVC050 FM301000
                       18008KT P6SM VCSH SCT015 OVC025=
202401291135 TAF KBFI 291135Z 2912/3012 12004KT P6SM SCT140 OVC250 FM300200
                       16006KT P6SM BKN060 OVC100 FM300600 18008KT
                       P6SM -RA SCT020 BKN035 OVC050 FM301100 18008KT
                       P6SM -RA BKN020 OVC025=
202401290535 TAF KBFI 290535Z 2906/3006 13004KT P6SM SCT060 BKN100 OVC200 FM300200
                       15006KT P6SM BKN060 OVC100=
202401282341 TAF KBFI 282341Z 2900/2924 13004KT P6SM SCT030 BKN045 OVC070 FM290900
                       VRB03KT P6SM SCT070 BKN120 OVC200=
202401282033 KBFI 282033Z 2821/2918 17004KT P6SM BKN012 OVC020 FM290000 13004KT
                       P6SM SCT035 BKN050 OVC070 FM290400 13004KT
                       P6SM SCT070 BKN120 FM291200 00000KT P6SM
                       OVC050=
202401281720 TAF KBFI 281720Z 2818/2918 15004KT P6SM BKN010 OVC020 FM282000
                       15004KT P6SM SCT020 BKN030 OVC045 FM290000
                       13004KT P6SM SCT035 BKN050 OVC070 FM290400
                       13004KT P6SM SCT070 BKN120 FM291200 00000KT
                       P6SM OVC050=
202401281301 KBFI 281301Z 2813/2912 16004KT 2SM -RA BR BKN017 OVC027 FM281400
                       15004KT 4SM BR SCT010 BKN018 OVC025 FM282000
                       15004KT P6SM SCT020 BKN030 OVC045 FM290000
                       13004KT P6SM SCT035 BKN050 OVC070 FM290400
                       13004KT P6SM SCT070 BKN120=
202401281120 TAF KBFI 281120Z 2812/2912 14008KT 5SM -RA BR FEW025 OVC035 FM281400
                       15004KT 4SM BR SCT010 BKN018 OVC025 FM282000
                       15004KT P6SM SCT020 BKN030 OVC045 FM290000
                       13004KT P6SM SCT035 BKN050 OVC070 FM290400
                       13004KT P6SM SCT070 BKN120=
202401280542 TAF KBFI 280542Z 2806/2906 15008KT P6SM -RA SCT035 BKN050 OVC070
                       FM280900 15008KT 5SM -RA SCT025 OVC040 FM281400
                       15004KT 4SM BR SCT010 BKN016 OVC025 FM282000
                       15004KT P6SM SCT020 BKN030 OVC045 FM282300
                       13004KT P6SM SCT035 BKN050 OVC070 FM290400
                       13004KT P6SM SCT060 BKN120=
202401272320 TAF KBFI 272320Z 2800/2824 16008KT 4SM BR FEW008 BKN040 OVC060
                       TEMPO 2800/2802 2SM -RA BR FM280300 15008KT
                       6SM -RA OVC020 FM280900 17006KT 3SM -RA
                       BR OVC010 FM281200 15005KT 6SM BR OVC015
                       FM282000 17005KT 6SM BR OVC025=
202401272038 KBFI 272038Z 2721/2818 16008KT 4SM -RA BR BKN015 OVC030 FM280300
                       15008KT 6SM -RA OVC020 FM280900 17006KT
                       3SM -RA BR OVC010 FM281200 15005KT 6SM BR
                       OVC015=
202401271720 TAF KBFI 271720Z 2718/2818 16005KT 4SM -RA BR BKN040 OVC080 FM272100
                       16008KT 5SM -RA BR OVC030 FM280300 15008KT
                       6SM -RA OVC015 FM280900 17006KT 3SM -RA
                       BR OVC010 FM281200 15005KT 6SM BR OVC015=
202401271518 KBFI 271518Z 2715/2812 12004KT P6SM -RA FEW035 BKN040 OVC070 FM272100
                       16008KT 5SM BR OVC016 FM280300 15008KT 4SM
                       -RA BKN009 OVC015 FM280900 17006KT 3SM -RA
                       BR OVC008=
202401271335 KBFI 271335Z 2714/2812 15004KT P6SM OVC050 FM271500 12004KT 5SM
                       -RA OVC025 FM272100 16008KT 5SM BR OVC016
                       FM280300 15008KT 4SM -RA BKN009 OVC015 FM280900
                       17006KT 3SM -RA BR OVC008=
202401271131 TAF KBFI 271131Z 2712/2812 15004KT P6SM OVC030 FM271400 12004KT
                       5SM -RA OVC025 FM272100 16008KT 5SM BR OVC016
                       FM280300 15008KT 4SM -RA BKN009 OVC015 FM280900
                       17006KT 3SM -RA BR OVC008=
202401270540 TAF KBFI 270540Z 2706/2806 15008KT 3SM -RA OVC018 FM270800 15008KT
                       4SM BR SCT012 OVC018 FM271400 12006KT 5SM
                       -RA OVC025 FM272100 15008KT 5SM BR OVC016
                       FM280300 15008KT 4SM -RA BKN009 OVC015=
202401262331 TAF KBFI 262331Z 2700/2724 VRB04KT P6SM -SHRA OVC045 FM270300 14004KT
                       6SM -RA OVC025 FM270800 14003KT P6SM OVC015
                       FM271200 12003KT 5SM -RA OVC020 FM272000
                       15006KT 5SM BR OVC013=
202401262101 KBFI 262101Z 2621/2718 15004KT P6SM OVC050 FM262200 12006KT P6SM
                       -SHRA OVC050 FM270200 11007KT 6SM -RA OVC025
                       FM270600 13006KT P6SM OVC015 FM271500 11006KT
                       5SM -RA OVC015=
202401261739 TAF KBFI 261739Z 2618/2718 14004KT P6SM OVC080 FM262200 12006KT
                       P6SM -SHRA OVC050 FM270200 11007KT 6SM -RA
                       OVC025 FM270600 13006KT P6SM OVC015 FM271500
                       11006KT 5SM -RA OVC015=
202401261403 KBFI 261403Z 2614/2712 14004KT P6SM OVC100 FM261600 14004KT P6SM
                       -SHRA OVC060 FM262200 14004KT P6SM -SHRA
                       OVC040 FM270000 13003KT 5SM -RA OVC035 FM270600
                       12004KT 6SM -RA BR OVC020 FM270900 13003KT
                       6SM -RA BR OVC015=
202401261120 TAF KBFI 261120Z 2612/2712 14004KT P6SM OVC035 FM261600 14004KT
                       P6SM -SHRA OVC045 FM270000 13003KT 5SM -RA
                       OVC035 FM270600 12004KT 6SM -RA BR OVC020
                       FM270900 13003KT 6SM -RA BR OVC015=
202401260857 KBFI 260857Z 2609/2706 15005KT P6SM SCT030 BKN060 FM261200 14003KT
                       P6SM -SHRA OVC045 FM262100 13004KT P6SM
                       -SHRA OVC035 FM270400 13003KT 4SM -RA BR
                       OVC050=
202401260521 TAF KBFI 260521Z 2606/2706 15005KT P6SM OVC030 FM261200 14003KT
                       P6SM -SHRA OVC045 FM262100 13004KT P6SM
                       -SHRA OVC035 FM270400 13003KT 4SM -RA BR
                       OVC050=
202401252326 TAF KBFI 252326Z 2600/2624 16010KT P6SM -SHRA BKN030 BKN040 OVC045
                       FM260300 16007KT P6SM VCSH OVC025 FM260600
                       15005KT P6SM OVC035 FM261200 14003KT P6SM
                       -SHRA OVC045 FM262100 13004KT P6SM -SHRA
                       OVC035=
202401252051 KBFI 252051Z 2521/2618 16010KT P6SM -SHRA BKN025 OVC040 FM260000
                       17008KT P6SM -SHRA OVC025 FM260600 15005KT
                       P6SM OVC035 FM261200 13003KT P6SM OVC035=
202401251729 TAF KBFI 251729Z 2518/2618 16010G16KT P6SM -SHRA BKN025 OVC040
                       FM260000 17008KT P6SM -SHRA OVC025 FM260600
                       15005KT P6SM OVC035 FM261200 13003KT P6SM
                       OVC035=
202401251120 TAF KBFI 251120Z 2512/2612 15006KT P6SM -SHRA OVC045 FM251500 15007KT
                       P6SM -RA OVC035 FM251800 17008KT P6SM -SHRA
                       OVC025 FM260000 17007KT P6SM -SHRA OVC030
                       FM260600 15004KT 6SM BR OVC025=
202401250852 KBFI 250852Z 2509/2606 14005KT P6SM VCSH OVC035 FM251100 15008KT
                       P6SM -SHRA OVC040 FM251500 15007KT P6SM
                       -RA OVC025 FM260000 17007KT P6SM OVC025=
202401250539 TAF KBFI 250539Z 2506/2606 17008KT P6SM VCSH OVC035 FM251200 15008KT
                       P6SM -SHRA OVC040 FM251500 15007KT P6SM
                       -RA OVC025 FM260000 17007KT P6SM OVC025=
202401242331 TAF KBFI 242331Z 2500/2524 16007KT P6SM VCSH BKN020 OVC050 FM250300
                       17008KT P6SM VCSH OVC035 FM251200 15008KT
                       P6SM -RA OVC025 FM251800 16008KT P6SM -SHRA
                       OVC025=
202401242000 KBFI 242000Z 2420/2518 15008KT P6SM VCSH BKN025 OVC030 FM242300
                       16006KT P6SM VCSH OVC030 FM250300 17008KT
                       P6SM VCSH OVC035 FM251200 15008KT P6SM -RA
                       OVC025=
202401241725 TAF KBFI 241725Z 2418/2518 VRB04KT P6SM -RA OVC050 FM242000 15008KT
                       P6SM -SHRA BKN035 OVC040 FM242300 16006KT
                       P6SM -SHRA OVC030 FM250600 17008KT P6SM
                       VCSH OVC040 FM251200 15008KT P6SM -RA OVC025=
202401241444 KBFI 241444Z 2415/2512 15005KT P6SM -RA OVC050 FM242000 15008KT
                       P6SM -SHRA BKN025 OVC030 FM242300 16006KT
                       P6SM -SHRA OVC030 FM250600 17008KT P6SM
                       VCSH OVC040=
202401241120 TAF KBFI 241120Z 2412/2512 13008KT P6SM -RA BKN100 OVC110 FM241500
                       13008KT P6SM -RA OVC028 FM242000 15008KT
                       P6SM -SHRA BKN018 OVC030 FM242300 16006KT
                       P6SM -SHRA OVC030 FM250600 17008KT P6SM
                       VCSH OVC040=
202401241009 KBFI 241009Z 2410/2506 12003KT P6SM VCSH SCT080 BKN110 FM241200
                       13008KT P6SM -RA OVC040 FM241500 13008KT
                       P6SM -RA OVC028 FM242000 15008KT P6SM -SHRA
                       BKN018 OVC030 FM242300 16006KT P6SM -SHRA
                       OVC030=
202401240521 TAF KBFI 240521Z 2406/2506 17003KT P6SM SCT060 BKN200 FM241000
                       12003KT P6SM VCSH BKN020 OVC040 FM241200
                       13008KT P6SM -RA OVC028 FM242000 15008KT
                       P6SM -SHRA BKN018 OVC030 FM242300 16006KT
                       P6SM -SHRA OVC030=
202401232324 TAF KBFI 232324Z 2400/2424 17009KT P6SM SCT025 OVC050 FM240300
                       15004KT P6SM BKN040 OVC070 FM241000 12003KT
                       P6SM VCSH BKN020 OVC040 FM241400 14005KT
                       4SM -RA BR OVC025 FM242000 17007KT 4SM -RA
                       BR BKN015 OVC030=
202401232122 KBFI 232122Z 2321/2418 18007G17KT P6SM SCT015 BKN040 FM232300 17006KT
                       P6SM BKN035 OVC050 FM241000 12003KT P6SM
                       VCSH BKN020 OVC040 FM241400 14005KT 4SM
                       -RA BR OVC025=
202401231931 KBFI 231931Z 2320/2418 18007KT P6SM SCT015 BKN040 FM232300 17006KT
                       P6SM BKN035 OVC050 FM241000 12003KT P6SM
                       VCSH BKN020 OVC040 FM241400 14005KT 4SM
                       -RA BR OVC025=
202401231729 TAF KBFI 231729Z 2318/2418 16007KT P6SM BKN012 OVC030 FM231900
                       18007KT P6SM BKN020 OVC025 FM232300 17006KT
                       P6SM BKN035 OVC050 FM241000 12003KT P6SM
                       VCSH BKN020 OVC040 FM241400 14005KT 4SM
                       -RA BR OVC025=
202401231451 KBFI 231451Z 2315/2412 15005KT 4SM -SHRA BR BKN012 OVC030 FM231900
                       18007KT P6SM VCSH BKN020 OVC025 FM232300
                       17006KT P6SM BKN035 OVC050 FM241000 12003KT
                       P6SM VCSH OVC035=
202401231134 TAF KBFI 231134Z 2312/2412 14005KT P6SM -SHRA BKN020 OVC030 FM231500
                       15005KT P6SM -SHRA BKN012 OVC020 FM231900
                       18007KT P6SM VCSH BKN020 OVC025 FM232300
                       17006KT P6SM BKN035 OVC050 FM241000 12003KT
                       P6SM VCSH OVC035=
202401230855 KBFI 230855Z 2309/2406 15007KT P6SM VCSH BKN015 OVC025 FM231200
                       16005KT P6SM -RA BKN012 OVC020 FM231900
                       18007KT P6SM VCSH BKN020 OVC025 FM232300
                       17006KT P6SM BKN035 OVC050=
202401230521 TAF KBFI 230521Z 2306/2406 14004KT P6SM VCSH BKN015 OVC025 FM231200
                       16005KT P6SM -RA BKN012 OVC020 FM231900
                       18007KT P6SM VCSH BKN020 OVC025 FM232300
                       17006KT P6SM BKN035 OVC050=
202401222333 TAF KBFI 222333Z 2300/2324 16010KT P6SM VCSH FEW010 FM230400 14004KT
                       P6SM VCSH OVC019 FM230800 15004KT P6SM VCSH
                       FEW015 OVC020 FM231400 16005KT P6SM VCSH
                       OVC020 FM231900 18007KT P6SM BKN015 OVC020=
202401222003 KBFI 222003Z 2220/2318 16009KT 5SM -RA BR SCT015 OVC020
                      TEMPO 2220/2221 2SM -RA BR BKN007 FM222300
                       16007KT 6SM BR VCSH BKN020 OVC025 FM230800
                       15004KT 5SM -RA BR FEW015 OVC020 FM231400
                       16005KT 6SM -RA BR OVC025=
202401221902 KBFI 221902Z 2219/2318 14005KT 4SM -RA OVC040
                      TEMPO 2219/2220 2SM -RA BR BKN007 FM222000
                       16009KT 5SM -RA BR SCT015 OVC020 FM222300
                       16007KT 6SM BR VCSH BKN020 OVC025 FM230800
                       15004KT 5SM -RA BR FEW015 OVC020 FM231400
                       16005KT 6SM -RA BR OVC025=
202401221722 TAF KBFI 221722Z 2218/2318 14005KT 4SM -RA OVC040 FM222000 16009KT
                       5SM -RA BR SCT015 OVC020 FM222300 16007KT
                       6SM BR VCSH BKN020 OVC025 FM230800 15004KT
                       5SM -RA BR FEW015 OVC020 FM231400 16005KT
                       6SM -RA BR OVC025=
202401221123 TAF KBFI 221123Z 2212/2312 13003KT P6SM -RA BKN040 OVC050 FM221600
                       14005KT P6SM -RA SCT025 OVC030 FM222000
                       16009KT 5SM -RA BR SCT015 OVC020 FM222300
                       16007KT 6SM BR VCSH BKN020 OVC025 FM230800
                       15004KT 5SM -RA BR FEW015 OVC020=
202401220528 TAF KBFI 220528Z 2206/2306 13003KT P6SM -RA BKN040 OVC050 FM221400
                       14005KT P6SM -RA SCT025 OVC030 FM221900
                       16009KT 5SM -RA BR SCT015 OVC020 FM222300
                       16007KT 6SM BR VCSH BKN020 OVC025=
202401220255 KBFI 220255Z 2203/2224 12006KT P6SM -RA BKN040 OVC050 FM221500
                       16007KT P6SM -RA BKN025 OVC030 FM222100
                       16009KT P6SM -RA OVC020=
202401212320 TAF KBFI 212320Z 2200/2224 13004KT P6SM -RA OVC045 FM220300 11006KT
                       P6SM -RA OVC030 FM220700 09007KT P6SM -RA
                       OVC020 FM221500 14009KT P6SM -RA OVC020=
202401211727 TAF KBFI 211727Z 2118/2218 16004KT P6SM -RA OVC040 FM212000 13005KT
                       P6SM -RA OVC035 FM220300 10005KT P6SM -RA
                       SCT020 OVC030 FM220700 09007KT P6SM -RA
                       OVC025 FM221500 12010KT P6SM -RA OVC025=
202401211122 TAF KBFI 211122Z 2112/2212 VRB03KT P6SM -RA OVC040 FM211600 12005KT
                       P6SM -RA FEW015 OVC025 FM212000 13005KT
                       6SM -RA BR OVC025 FM220300 10005KT P6SM
                       -RA OVC030 FM220700 VRB03KT P6SM -SHRA SCT020
                       OVC030=
202401210524 TAF KBFI 210524Z 2106/2206 13005KT P6SM -RA BKN040 OVC050 FM210900
                       12005KT 6SM -RA BR FEW020 OVC030 FM211800
                       13005KT P6SM -RA OVC025 FM212100 13005KT
                       P6SM -RA OVC025=
202401202320 TAF KBFI 202320Z 2100/2124 31004KT P6SM FEW060 SCT110 BKN200
                      TEMPO 2100/2102 10005KT FM210200 11005KT
                       P6SM BKN060 OVC100 FM210500 11005KT P6SM
                       -RA OVC050 FM210700 11005KT P6SM -RA OVC025
                       FM212000 11005KT 5SM -RA BR OVC020=
202401201720 TAF KBFI 201720Z 2018/2118 13004KT P6SM FEW009 BKN120 FM202000
                       04006KT P6SM OVC120 FM202200 10005KT P6SM
                       SCT070 OVC120 FM210200 11005KT P6SM OVC050
                       FM210500 14005KT P6SM -RA OVC050 FM210700
                       15007KT P6SM -RA OVC020=
202401201120 TAF KBFI 201120Z 2012/2112 VRB03KT P6SM BKN130 FM201400 14005KT
                       P6SM OVC080 FM201900 03006KT P6SM OVC060
                       FM210100 12006KT P6SM OVC035 FM210700 VRB03KT
                       P6SM -RA OVC025=
202401200534 TAF KBFI 200534Z 2006/2106 00000KT P6SM BKN180 FM201200 13004KT
                       P6SM OVC090 FM201400 16005KT P6SM OVC080
                       FM201900 03006KT P6SM OVC060 FM210100 12006KT
                       P6SM OVC035 FM210400 12005KT P6SM OVC025=
202401200257 KBFI 200257Z 2003/2024 VRB03KT P6SM BKN150 FM201000 17003KT P6SM
                       OVC050 FM201600 13004KT P6SM OVC070=
202401192321 TAF KBFI 192321Z 2000/2024 13007KT P6SM VCSH BKN080 OVC100 FM200200
                       VRB03KT P6SM OVC070 FM201000 17003KT P6SM
                       OVC050 FM201600 13004KT P6SM OVC070=
202401191725 TAF KBFI 191725Z 1918/2018 15004KT P6SM OVC070 FM192100 VRB03KT
                       P6SM VCSH BKN080 OVC100 FM200200 VRB03KT
                       P6SM OVC070 FM201000 17003KT P6SM OVC050=
202401191621 KBFI 191621Z 1916/2012 15004KT P6SM OVC070 FM192100 VRB03KT P6SM
                       VCSH OVC050 FM200200 VRB03KT P6SM OVC050=
202401191120 TAF KBFI 191120Z 1912/2012 VRB03KT P6SM VCSH OVC070 FM191600 15004KT
                       P6SM OVC040 FM192100 VRB03KT P6SM VCSH OVC035
                       FM200200 VRB03KT P6SM OVC040=
202401190539 TAF KBFI 190539Z 1906/2006 VRB04KT 6SM -RA BKN050 OVC080 FM191000
                       VRB04KT 5SM BR VCSH OVC025 FM191600 10005KT
                       P6SM VCSH OVC025 FM200200 VRB03KT P6SM OVC030=
202401190303 KBFI 190303Z 1903/1924 VRB03KT P6SM -RA BKN035 OVC070
                      TEMPO 1903/1904 6SM -RA BR BKN008 FM190400
                       VRB03KT 5SM -RA BR OVC015 FM191000 13004KT
                       5SM -RA BR OVC020 FM191600 10003KT 6SM -RA
                       BR OVC015=
202401190143 KBFI 190143Z 1902/1924 VRB04KT 4SM -RA BR BKN010 OVC070
                      TEMPO 1902/1904 3SM -RA BR BKN008 FM190400
                       VRB03KT 5SM -RA BR OVC015 FM191000 13004KT
                       5SM -RA BR OVC020 FM191600 10003KT 6SM -RA
                       BR OVC015=
202401182336 TAF KBFI 182336Z 1900/1924 09005KT 4SM -RA BR BKN006 BKN015 OVC025
                       FM190400 VRB03KT 5SM -RA BR OVC015 FM191000
                       13004KT 5SM -RA BR OVC020 FM191600 10003KT
                       6SM -RA BR OVC015=
202401181737 TAF KBFI 181737Z 1818/1918 05004KT 5SM -RA BR BKN015 OVC030 FM182100
                       10007KT 4SM -RA BR OVC025 FM190000 09005KT
                       4SM -RA BR OVC020 FM190300 VRB03KT 4SM -RA
                       BR OVC015 FM191000 13004KT 5SM -RA BR OVC020=
202401181125 TAF KBFI 181125Z 1812/1912 VRB03KT P6SM SCT004 OVC020 FM181500
                       05004KT P6SM -RA OVC020 FM182100 10007KT
                       5SM -RA BR OVC020 FM190300 VRB03KT 4SM -RA
                       BR OVC015=
202401180534 TAF KBFI 180534Z 1806/1906 15004KT P6SM SCT025 OVC030 FM181000
                       04004KT P6SM OVC020 FM181500 04004KT P6SM
                       -RA OVC020 FM182100 07007KT 5SM -RA BR OVC020=
202401180119 KBFI 180119Z 1801/1824 17003KT 6SM BR VCSH SCT009 BKN020 OVC024
                       FM180500 06004KT P6SM OVC020 FM181100 08004KT
                       5SM BR VCSH OVC015 FM181700 04006KT 6SM
                       -SHRA OVC020=
202401172329 TAF KBFI 172329Z 1800/1824 VRB05KT 2SM -RA BR BKN020 OVC030 FM180300
                       06004KT 2SM BR VCSH BKN010 OVC025 FM181100
                       08004KT 5SM BR VCSH OVC015 FM181700 04006KT
                       6SM -SHRA OVC020=
202401171735 TAF KBFI 171735Z 1718/1818 16006KT 2SM -RA BR BKN008 OVC012 FM172000
                       17008KT 3SM -RA BR OVC007 FM172200 19007KT
                       5SM -RA BR OVC011 FM180300 VRB04KT P6SM
                       VCSH BKN014 FM181100 08004KT P6SM VCSH OVC015=
202401171620 KBFI 171620Z 1716/1812 16006KT 5SM -RA BR OVC012
                      TEMPO 1716/1717 2SM BR BKN008 FM172100 19007KT
                       5SM -RA BR OVC011 FM180500 VRB04KT P6SM
                       VCSH BKN014=
202401171358 KBFI 171358Z 1714/1812 13005KT 4SM BR VCSH BKN009 OVC025 FM171600
                       16006KT 5SM -RA BR OVC012 FM172100 19007KT
                       5SM -RA BR OVC011 FM180500 VRB04KT P6SM
                       VCSH BKN014=
202401171132 TAF KBFI 171132Z 1712/1812 15005KT 6SM BR VCSH SCT007 BKN015 OVC028
                       FM171800 16006KT 6SM -RA BR OVC014 FM172100
                       19007KT 5SM -RA BR OVC011 FM180500 VRB04KT
                       P6SM VCSH BKN014=
202401170900 KBFI 170900Z 1709/1806 14004KT 6SM -RA BR OVC012 FM171200 13008KT
                       P6SM VCSH OVC012 FM171800 13011KT P6SM OVC017
                       FM172100 19010KT 6SM -RA BR OVC012=
202401170530 TAF KBFI 170530Z 1706/1806 13003KT P6SM -RA OVC025
                      TEMPO 1706/1709 6SM -FZRA BR OVC020 FM170900
                       16006KT 6SM -RA BR OVC015 FM171200 13008KT
                       P6SM VCSH OVC020 FM171800 13011KT P6SM OVC020
                       FM172100 19010KT P6SM OVC020=
202401170307 KBFI 170307Z 1703/1724 13004KT P6SM OVC060 FM170400 15004KT 5SM
                       -RASN OVC025
                      TEMPO 1704/1708 -FZRA BR OVC015 FM171000
                       16006KT 6SM -RA BR OVC013 FM171300 14007KT
                       5SM -RA BR OVC009 FM171700 15010KT 5SM -RA
                       BR OVC015=
202401162340 TAF KBFI 162340Z 1700/1724 13004KT P6SM OVC100 FM170300 15004KT
                       5SM -RASN OVC025
                      TEMPO 1704/1708 -FZRA BR OVC015 FM171000
                       16006KT 6SM -RA BR OVC013 FM171300 14007KT
                       5SM -RA BR OVC009 FM171700 15010KT 5SM -RA
                       BR OVC015=
202401161838 KBFI 161838Z 1619/1718 12004KT P6SM BKN200 FM162000 13004KT P6SM
                       OVC100 FM170300 15004KT 5SM -RASN OVC025
                       TEMPO 1704/1708 -FZRA BR OVC015 FM171000
                       16003KT 6SM -RA BR OVC013 FM171300 14007KT
                       5SM -RA BR OVC009=
202401161735 TAF KBFI 161735Z 1618/1718 12004KT P6SM BKN200 FM162000 13004KT
                       P6SM OVC100 FM170300 15004KT P6SM -RASN
                       OVC025 FM171000 16003KT 6SM -RA BR OVC013
                       FM171300 14007KT 5SM -RA BR OVC009=
202401161133 TAF KBFI 161133Z 1612/1712 VRB03KT P6SM SCT200 FM161600 12004KT
                       P6SM BKN200 FM162000 13004KT P6SM OVC100
                       FM170300 15004KT P6SM -RASN OVC030 FM170600
                       15003KT 6SM -RA BR OVC013=
202401160531 TAF KBFI 160531Z 1606/1706 VRB03KT P6SM SCT250 FM161500 15005KT
                       P6SM BKN250 FM162000 18005KT P6SM OVC150
                       FM170300 15004KT P6SM RASN OVC025
                      PROB30 1703/1705 FZRASN=
202401160319 KBFI 160319Z 1603/1624 VRB03KT P6SM BKN250 FM161200 14003KT P6SM
                       BKN200 FM161800 16004KT P6SM OVC200 FM162300
                       VRB02KT P6SM OVC050=
202401152322 TAF KBFI 152322Z 1600/1624 VRB03KT P6SM BKN200 FM161200 14003KT
                       P6SM BKN200 FM161800 16004KT P6SM OVC200
                       FM162300 VRB02KT P6SM OVC050=
202401151727 TAF KBFI 151727Z 1518/1618 13005KT P6SM BKN200 FM160600 VRB03KT
                       P6SM BKN200 FM161200 14003KT P6SM BKN200=
202401151132 TAF KBFI 151132Z 1512/1612 VRB03KT P6SM SCT200 FM151800 13005KT
                       P6SM SCT200 FM160600 VRB03KT P6SM SCT200=
202401150536 TAF KBFI 150536Z 1506/1606 VRB03KT P6SM BKN250 FM151500 06005KT
                       P6SM SCT200 FM160200 VRB03KT P6SM SCT150=
202401150309 KBFI 150309Z 1503/1524 VRB03KT P6SM BKN250 FM151500 06005KT P6SM
                       SCT200=
202401142334 TAF KBFI 142334Z 1500/1524 32003KT P6SM SCT060 BKN200 FM150200
                       03005KT P6SM SCT030 BKN200=
202401142100 KBFI 142100Z 1421/1518 32003KT P6SM SCT060 BKN200 FM150300 VRB03KT
                       P6SM SCT050 BKN200 FM151100 01007KT P6SM
                       SCT030 BKN200=
202401141730 TAF KBFI 141730Z 1418/1518 14004KT P6SM BKN200 FM142100 32003KT
                       P6SM SCT060 BKN200 FM150300 VRB03KT P6SM
                       SCT050 BKN200 FM151100 01005KT P6SM SCT030
                       BKN200=
202401141126 TAF KBFI 141126Z 1412/1512 VRB03KT P6SM SCT200 FM141800 14004KT
                       P6SM BKN200 FM142100 32003KT P6SM SCT060
                       BKN200 FM150300 VRB03KT P6SM SCT050 BKN200
                       FM150900 00000KT P6SM SCT030 BKN200=
202401140520 TAF KBFI 140520Z 1406/1506 VRB03KT P6SM BKN200 FM141500 14005KT
                       P6SM SCT070 BKN250 FM142100 34004KT P6SM
                       BKN250 FM150300 08004KT P6SM BKN250=
202401140307 KBFI 140307Z 1403/1424 VRB04KT P6SM BKN220 FM141600 13004KT P6SM
                       SCT250 FM142100 32004KT P6SM BKN250=
202401132320 TAF KBFI 132320Z 1400/1424 00000KT P6SM BKN240 FM140700 VRB04KT
                       P6SM BKN070 FM142100 32003KT P6SM BKN250=
202401132057 KBFI 132057Z 1321/1418 00000KT P6SM BKN220 FM140000 03005KT P6SM
                       BKN200 FM140700 VRB04KT P6SM BKN070=
202401131730 TAF KBFI 131730Z 1318/1418 00000KT P6SM SKC FM140000 03007KT P6SM
                       BKN090 OVC120 FM140700 13004KT P6SM BKN070=
202401131137 TAF KBFI 131137Z 1312/1412 VRB03KT P6SM SCT200 FM131600 05005KT
                       P6SM SCT150 BKN200 FM140000 03007KT P6SM
                       BKN090 OVC120 FM140700 13004KT P6SM BKN070=
202401130542 TAF KBFI 130542Z 1306/1406 02004KT P6SM SCT250 FM130800 VRB03KT
                       P6SM SCT200 FM131500 05005KT P6SM SCT050
                       SCT250 FM140000 04006KT P6SM BKN060 BKN250=
202401130337 KBFI 130337Z 1304/1324 01005KT P6SM FEW030 FM130500 09007KT P6SM
                       SCT250 FM131000 VRB03KT P6SM BKN050 FM131700
                       02005KT P6SM SCT045 SCT250 FM132100 35006KT
                       P6SM SCT045 SCT090=
202401122320 TAF KBFI 122320Z 1300/1324 01010KT P6SM SCT060 SCT200 FM130200
                       03008KT P6SM SCT100 SCT250 FM130500 09007KT
                       P6SM SCT250 FM131000 VRB03KT P6SM BKN050
                       FM131700 02005KT P6SM SCT045 SCT250 FM132100
                       35006KT P6SM SCT045 SCT090=
202401121727 TAF KBFI 121727Z 1218/1318 01008KT P6SM SCT020 OVC060 FM122000
                       02010KT P6SM SCT060 BKN150 FM130200 03008KT
                       P6SM SCT100 SCT250 FM130500 09007KT P6SM
                       SCT250 FM131000 VRB03KT P6SM BKN050=
202401121121 TAF KBFI 121121Z 1212/1312 36006G22KT P6SM OVC060 FM121500 01008KT
                       P6SM OVC050 FM122000 02010KT P6SM BKN040
                       FM130200 03008KT P6SM BKN040 OVC100 FM130500
                       09007KT P6SM SCT250=
202401120541 TAF KBFI 120541Z 1206/1306 32012KT P6SM FEW015 OVC050 FM121000
                       36006KT P6SM OVC025 FM121500 01008KT P6SM
                       OVC030 FM121800 01010KT P6SM BKN040 FM130100
                       03008KT P6SM BKN040 OVC100=
202401120149 KBFI 120149Z 1202/1224 35009G16KT P6SM BKN035 BKN090 FM120300 35012KT
                       P6SM VCSH BKN015 OVC025 FM121000 01008KT
                       P6SM OVC025 FM121500 01008KT P6SM BKN020
                       OVC030 FM121800 01007KT P6SM BKN035=
202401112337 TAF KBFI 112337Z 1200/1224 34013G18KT P6SM BKN025 OVC035
                      TEMPO 1200/1203 -SNRA BKN015 OVC020 FM120300
                       35012KT P6SM VCSH BKN015 OVC025 FM121000
                       01008KT P6SM BKN010 OVC020 FM121500 01008KT
                       P6SM BKN020 OVC030 FM121800 01007KT P6SM
                       BKN035=
202401112124 KBFI 112124Z 1121/1218 21008KT P6SM BKN025 BKN050 FM112300 34013G20KT
                       P6SM OVC035
                      TEMPO 1123/1203 -SNRA BKN015 OVC025 FM120300
                       34012KT P6SM VCSH BKN015 OVC025 FM121000
                       01008KT P6SM BKN010 OVC020 FM121500 01008KT
                       P6SM BKN020 OVC030=
202401111935 KBFI 111935Z 1120/1218 VRB04KT P6SM BKN025 BKN050 FM112200 34013G20KT
                       P6SM OVC035
                      TEMPO 1122/1202 -SNRA BKN015 OVC025 FM120200
                       34012KT P6SM VCSH BKN015 OVC025 FM121000
                       01008KT P6SM BKN010 OVC020 FM121500 01008KT
                       P6SM BKN020 OVC030=
202401111759 TAF KBFI 111759Z 1118/1218 VRB04KT P6SM BKN030 OVC050
                      TEMPO 1118/1120 -RASN BKN020 OVC030 FM112000
                       34013G20KT P6SM OVC030
                      TEMPO 1122/1202 -RASN BKN015 OVC025 FM120200
                       34012KT P6SM VCSH BKN015 OVC025 FM121000
                       01008KT P6SM BKN010 OVC020 FM121500 01008KT
                       P6SM BKN020 OVC030=
202401111654 KBFI 111654Z 1117/1212 VRB03KT P6SM SCT015 BKN030 OVC060
                      TEMPO 1117/1119 -RASN BKN020 OVC030 FM112000
                       34013G20KT P6SM OVC030
                      TEMPO 1122/1202 -RASN BKN015 OVC025 FM120200
                       34012KT P6SM VCSH BKN015 OVC025=
202401111338 KBFI 111338Z 1114/1212 VRB05KT P6SM FEW020 OVC050 FM111500 27008KT
                       P6SM BKN030 OVC040 FM111900 26009G15KT P6SM
                       -RASN BKN030 OVC040 FM112200 32013G20KT
                       P6SM -RASN OVC030 FM120200 34012KT P6SM
                       VCSH BKN015 OVC025=
202401111135 TAF KBFI 111135Z 1112/1212 18010KT P6SM OVC015 FM111600 19008KT
                       P6SM SCT030 BKN040 FM111900 26009G15KT P6SM
                       -RASN BKN030 OVC040 FM112200 32013G20KT
                       P6SM -RASN OVC030 FM120200 34012KT P6SM
                       VCSH BKN015 OVC025=
202401111011 KBFI 111011Z 1110/1206 17008KT P6SM OVC015 FM111200 18010KT P6SM
                       SCT030 BKN040 FM111900 26009G15KT P6SM -RASN
                       BKN030 OVC040 FM112200 32013G20KT P6SM -RASN
                       OVC030 FM120100 34012KT P6SM BKN015 OVC025=
202401110859 KBFI 110859Z 1109/1206 17008KT P6SM SCT015 OVC035 FM111200 18010KT
                       P6SM SCT030 BKN040 FM111900 26009G15KT P6SM
                       -RASN BKN030 OVC040 FM112200 32013G20KT
                       P6SM -RASN OVC030 FM120100 34012KT P6SM
                       BKN015 OVC025=
202401110536 TAF KBFI 110536Z 1106/1206 17008KT P6SM OVC015
                      TEMPO 1106/1109 5SM BR BKN007 FM111200 18010KT
                       P6SM SCT030 BKN040 FM111900 26009G15KT P6SM
                       -RASN BKN030 OVC040 FM112200 32013G20KT
                       P6SM -RASN OVC030 FM120100 34012KT P6SM
                       BKN015 OVC025=
202401102340 TAF KBFI 102340Z 1100/1124 29005KT P6SM -SHRA BKN020 FM110300 17008KT
                       P6SM OVC025 FM111200 20013G20KT P6SM BKN035
                       FM111700 22015G22KT P6SM -SHRA OVC030 FM112200
                       25018G26KT P6SM -SNRA OVC025=
202401102159 KBFI 102159Z 1022/1118 15010KT P6SM VCSH BKN022 FM102300 31004KT
                       P6SM -SHRA SCT015 OVC020 FM110400 15005KT
                       P6SM OVC025 FM111700 22013G20KT P6SM VCSH
                       OVC030=
202401102059 KBFI 102059Z 1021/1118 15010KT P6SM VCSH SCT011 BKN022 FM102200
                       31004KT P6SM -SHRA SCT015 OVC020 FM110400
                       15005KT P6SM OVC025 FM111700 22013G20KT
                       P6SM VCSH OVC030=
202401102057 KBFI 102057Z 1021/1118 16005KT P6SM VCSH SCT011 BKN022 FM102200
                       31004KT P6SM -SHRA SCT015 OVC020 FM110400
                       15005KT P6SM OVC025 FM111700 22013G20KT
                       P6SM VCSH OVC030=
202401101742 TAF KBFI 101742Z 1018/1118 15011KT P6SM VCSH BKN008 OVC015 FM101900
                       20006KT P6SM VCSH BKN010 OVC015 FM102200
                       31004KT P6SM -SHRA SCT015 OVC020 FM110400
                       15005KT P6SM OVC025 FM111700 22013G20KT
                       P6SM VCSH OVC030=
202401101539 KBFI 101539Z 1016/1112 18008KT P6SM VCSH BKN010 OVC015
                      TEMPO 1015/1017 6SM BR BKN006 FM101700 17006KT
                       5SM -SHRA BR OVC025 FM102200 31004KT P6SM
                       -SHRA SCT015 OVC020 FM110400 15005KT P6SM
                       OVC020=
202401101359 KBFI 101359Z 1014/1112 18008KT P6SM VCSH BKN010 OVC015
                      TEMPO 1014/1015 6SM BR BKN006 FM101500 17006KT
                       5SM -SHRA BR OVC025 FM102200 31004KT P6SM
                       -SHRA SCT015 OVC020 FM110400 15005KT P6SM
                       OVC020=
202401101129 TAF KBFI 101129Z 1012/1112 18008KT P6SM VCSH BKN010 OVC015 FM101500
                       17006KT 5SM -SHRA BR OVC025 FM102200 31004KT
                       P6SM -SHRA SCT015 OVC020 FM110400 15005KT
                       P6SM OVC020=
202401100905 TAF AMD KBFI 100905Z 1009/1106 19012G20KT P6SM VCSH OVC019 FM101000
                       19008KT P6SM VCSH BKN015 OVC020 FM101500
                       17006KT 5SM -SHRA BR OVC025 FM102200 31004KT
                       P6SM -SHRA SCT015 OVC020 FM110400 15005KT
                       P6SM OVC020=
202401100527 TAF KBFI 100527Z 1006/1106 19012G20KT P6SM VCSH OVC025
                      TEMPO 1006/1008 SCT020 FM101000 19008KT P6SM
                       VCSH BKN015 OVC020 FM101500 17006KT 5SM
                       -SHRA BR OVC025 FM102200 31004KT P6SM -SHRA
                       SCT015 OVC020 FM110400 15005KT P6SM OVC020=
202401092328 TAF KBFI 092328Z 1000/1024 21015G24KT P6SM VCSH OVC020 FM100300
                       19013G20KT P6SM VCSH SCT035 OVC050 FM101000
                       19008KT P6SM VCSH OVC030 FM101700 17005KT
                       5SM -SHRA BR OVC025 FM102100 VRB04KT P6SM
                       -SHRA OVC020=
202401092059 TAF AMD KBFI 092059Z 0921/1018 21015G30KT P6SM -SHRA OVC020 FM100300
                       19015G23KT P6SM VCSH BKN035 OVC050 FM101000
                       16008KT P6SM VCSH OVC030 FM101700 17005KT
                       5SM -SHRA BR OVC025=
202401091725 TAF KBFI 091725Z 0918/1018 20018G30KT P6SM VCSH BKN020 OVC028 FM092200
                       21024G32KT P6SM -SHRA OVC030 FM100300 19015G23KT
                       P6SM VCSH BKN035 OVC050 FM101000 16008KT
                       P6SM VCSH OVC030 FM101700 17005KT 5SM -SHRA
                       BR OVC025=
202401091447 KBFI 091447Z 0915/1012 21022G31KT P6SM VCSH FEW025 OVC035 FM092200
                       21024G30KT 6SM -SHRA OVC030 FM100300 19012G23KT
                       P6SM VCSH BKN035 OVC050 FM101000 16008KT
                       P6SM VCSH OVC030=
202401091141 TAF KBFI 091141Z 0912/1012 19017G27KT P6SM -SHRA BKN025 OVC030
                       FM091500 21025G35KT P6SM -SHRA BKN020 OVC030
                       FM092200 21024G30KT 6SM -SHRA OVC030 FM100300
                       19012G23KT P6SM VCSH BKN035 OVC050 FM101000
                       16008KT P6SM VCSH OVC030=
202401090533 TAF KBFI 090533Z 0906/1006 17012G20KT 4SM RA BR BKN020 OVC025 WS020/21040KT
                       FM090900 19017G27KT P6SM -RA BKN025 OVC030
                       FM091500 21025G35KT P6SM -SHRA BKN020 OVC030
                       FM092200 21025G35KT P6SM VCSH OVC030 FM100300
                       19012G19KT P6SM VCSH BKN035 OVC050=
202401090258 KBFI 090258Z 0903/0924 15009KT 5SM -RA BR BKN008 OVC020 FM090400
                       17012G20KT 6SM -RA BR SCT015 OVC020 WS020/21040KT
                       FM090900 19017G27KT P6SM -RA OVC022 FM091500
                       21025G35KT P6SM -SHRA BKN025 OVC040 FM092200
                       21025G35KT P6SM VCSH OVC030=
202401082320 TAF KBFI 082320Z 0900/0924 14006KT 2SM -RA BR FEW004 BKN008 OVC016
                       TEMPO 0900/0904 1 1/2SM -RA BR FM090400
                       17012G20KT 6SM -RA BR OVC015 WS020/21040KT
                       FM090900 19017G27KT P6SM -RA OVC022 FM091500
                       21025G35KT P6SM -SHRA BKN025 OVC040 FM092200
                       21025G35KT P6SM VCSH OVC030=
202401082110 KBFI 082110Z 0821/0918 16004KT P6SM -RA SCT007 BKN030 OVC040
                      TEMPO 0821/0824 4SM -RA BR BKN007 FM090400
                       17012G20KT 6SM -RA BR OVC015 WS020/21040KT
                       FM090900 19017G27KT 6SM -RA BR OVC022 FM091500
                       21025G35KT P6SM -SHRA BKN025 OVC040=
202401081930 KBFI 081930Z 0820/0918 16003KT P6SM -RA FEW020 OVC029 FM090400
                       17012G20KT 6SM -RA BR OVC015 WS020/21040KT
                       FM090900 19017G27KT 6SM -RA BR OVC022 FM091500
                       21025G35KT P6SM -SHRA BKN025 OVC040=
202401081722 TAF KBFI 081722Z 0818/0918 11008KT 4SM -RA BR BKN014 OVC028 FM081900
                       15006KT 6SM -RA BR OVC015 FM090400 17012G20KT
                       6SM -RA BR OVC015 WS020/21040KT FM090900
                       19017G27KT 6SM -RA BR OVC022 FM091500 21025G35KT
                       P6SM -SHRA BKN025 OVC040=
202401081138 TAF KBFI 081138Z 0812/0912 14004KT P6SM BKN020 OVC035 FM081300
                       13006KT 6SM -RA BR BKN017 OVC030 FM081900
                       15006KT 6SM -RA BR OVC015 FM090400 17012G20KT
                       6SM -RA BR OVC015 WS020/21040KT FM090900
                       19017G27KT 6SM -RA BR OVC022=
202401080525 TAF KBFI 080525Z 0806/0906 13003KT P6SM SCT030 OVC040 FM080900
                       15004KT P6SM BKN020 OVC025 FM081300 13006KT
                       6SM -RA BR OVC015 FM090400 17012G22KT 6SM
                       -RA BR OVC015=
202401072334 TAF KBFI 072334Z 0800/0824 16004KT P6SM BKN040 BKN050 FM080900
                       15005KT P6SM OVC027 FM081500 13004KT P6SM
                       -RA OVC015 FM081900 12005KT 6SM -RA BR OVC018=
202401071908 KBFI 071908Z 0719/0818 15004KT 6SM -SHRA BR SCT010 BKN025 OVC050
                       FM072100 16004KT P6SM BKN040 BKN050 FM080900
                       15005KT P6SM OVC027 FM081500 13004KT P6SM
                       -RA OVC015=
202401071732 TAF KBFI 071732Z 0718/0818 15004KT 6SM -SHRA BR SCT010 BKN020 OVC050
                       FM071900 16004KT P6SM BKN040 BKN050 FM080900
                       15005KT P6SM OVC027 FM081500 13004KT P6SM
                       -RA OVC015=
202401071121 TAF KBFI 071121Z 0712/0812 15004KT P6SM VCSH SCT017 BKN030 OVC045
                       TEMPO 0712/0716 4SM BR FM072000 16004KT
                       P6SM BKN040 BKN050 FM080900 15005KT P6SM
                       OVC027=
202401070902 TAF AMD KBFI 070902Z 0709/0806 15004KT 6SM BR VCSH SCT018 BKN025
                       OVC040 FM071200 VRB04KT P6SM BKN018 OVC030
                       FM072000 13004KT P6SM BKN040 OVC050=
202401070526 TAF KBFI 070526Z 0706/0806 VRB04KT 5SM -SHRA BR BKN030 OVC035 FM070800
                       VRB02KT P6SM BKN015 OVC020 FM072000 13004KT
                       P6SM BKN040 OVC050=
202401070234 KBFI 070234Z 0703/0724 VRB04KT P6SM VCSH SCT025 BKN040 FM070900
                       VRB03KT P6SM BKN014 OVC025=
202401070105 KBFI 070105Z 0701/0724 35007KT P6SM VCTS BKN020 OVC040CB
                      TEMPO 0701/0702 2SM RA BR BKN015 BKN020 FM070300
                       VRB04KT P6SM SCT025 BKN030 FM070900 VRB03KT
                       P6SM BKN014 OVC025=
202401062336 TAF KBFI 062336Z 0700/0724 15009KT P6SM VCSH SCT025 OVC045 FM070300
                       VRB04KT P6SM SCT025 BKN030 FM070900 VRB03KT
                       P6SM BKN014 OVC025=
202401061729 TAF KBFI 061729Z 0618/0718 VRB03KT P6SM VCSH SCT015 OVC025 FM070300
                       VRB04KT P6SM SCT025 BKN030 FM070900 VRB03KT
                       P6SM BKN014 OVC025=
202401061424 KBFI 061424Z 0614/0712 VRB04KT P6SM VCSH SCT010 BKN025 BKN035
                      TEMPO 0614/0616 BKN012 OVC024 FM061800 20006KT
                       P6SM VCSH BKN025 BKN040 FM070300 VRB04KT
                       P6SM BKN030 FM070900 VRB03KT P6SM BKN014
                       OVC025=
202401061134 TAF KBFI 061134Z 0612/0712 19009KT P6SM -SHRA SCT017 OVC027 FM061330
                       30006KT P6SM VCSH BKN022 BKN035 FM061800
                       20006KT P6SM VCSH BKN025 BKN040 FM070300
                       VRB04KT P6SM BKN030 FM070900 VRB03KT P6SM
                       BKN014 OVC025=
202401060812 KBFI 060812Z 0608/0706 17008KT P6SM -RA BKN020 OVC035 FM061200
                       30006KT P6SM VCSH OVC015 FM061800 20005KT
                       P6SM SCT015 OVC030 FM070300 VRB04KT P6SM
                       OVC035=
202401060520 TAF KBFI 060520Z 0606/0706 17010KT P6SM -RA BKN020 OVC035 FM060800
                       17012G21KT P6SM -RA OVC020 FM061200 30007KT
                       P6SM VCSH OVC015 FM061800 20005KT P6SM SCT015
                       OVC030 FM070300 VRB04KT P6SM OVC035=
202401052330 TAF KBFI 052330Z 0600/0624 17012G20KT P6SM -RA SCT020 OVC030 FM060300
                       17015G24KT P6SM -RA SCT020 OVC030 FM060800
                       17012G21KT P6SM -RA OVC020 FM061200 20007KT
                       6SM BR OVC015 FM061800 23005KT P6SM SCT015
                       OVC030=
202401052058 KBFI 052058Z 0521/0618 17010G20KT P6SM SCT045 BKN050 OVC070 FM052300
                       17012G20KT P6SM -RA OVC030 FM060300 17015G24KT
                       P6SM -RA SCT020 OVC030 FM060800 17012G20KT
                       6SM -RA BR OVC020 FM061200 20009KT P6SM
                       OVC025=
202401051725 TAF KBFI 051725Z 0518/0618 17010G20KT P6SM BKN015 OVC040 FM052300
                       17012G20KT P6SM -RA OVC030 FM060300 17015G24KT
                       P6SM -RA SCT020 OVC030 FM060800 17012G20KT
                       6SM -RA BR OVC020 FM061200 20009KT P6SM
                       OVC025=
202401051400 KBFI 051400Z 0514/0612 17007KT P6SM VCSH BKN013 BKN027 FM051700
                       17010KT P6SM BKN020 BKN035 FM052300 17012G20KT
                       P6SM -RA OVC035 FM060300 17013G21KT P6SM
                       -RA SCT020 OVC030 FM060800 17012G20KT 6SM
                       -RA BR OVC020=
202401051135 TAF KBFI 051135Z 0512/0612 17009KT P6SM VCSH SCT027 BKN040
                      TEMPO 0512/0514 -SHRA BKN027 FM051700 17010G16KT
                       P6SM SCT025 OVC035 FM052300 17012G20KT P6SM
                       -RA OVC035 FM060300 17013G21KT P6SM -RA
                       SCT020 OVC030 FM060800 17012G20KT 6SM -RA
                       BR OVC020=
202401050910 KBFI 050910Z 0509/0606 14009KT P6SM SCT022 BKN045 FM051800 17010G18KT
                       P6SM SCT025 OVC035 FM052200 17013G20KT P6SM
                       -RA BKN020 OVC030 FM060300 18010KT P6SM
                       -RA SCT020 OVC035=
202401050705 KBFI 050705Z 0507/0606 13006KT P6SM BKN012 OVC025 FM051800 17010G18KT
                       P6SM SCT025 OVC035 FM052200 17013G20KT P6SM
                       -RA BKN020 OVC030 FM060300 18010KT P6SM
                       -RA SCT020 OVC035=
202401050539 TAF KBFI 050539Z 0506/0606 15005KT P6SM SCT010 OVC040 FM051000
                       17008KT P6SM BKN010 OVC020 FM051800 17010G18KT
                       P6SM SCT025 OVC035 FM052200 17013G20KT P6SM
                       -RA BKN020 OVC030 FM060300 18010KT P6SM
                       -RA SCT020 OVC035=
202401042336 TAF KBFI 042336Z 0500/0524 VRB05KT 5SM BR VCSH BKN009 OVC015 FM050200
                       18004KT 6SM BR VCSH BKN021 OVC025 FM050500
                       18008KT P6SM BKN025 OVC040 FM051000 17008KT
                       6SM -RA BR BKN015 OVC020 FM051800 17010G18KT
                       P6SM SCT025 OVC035 FM052300 17013G20KT P6SM
                       BKN020 OVC030=
202401042230 KBFI 042230Z 0423/0518 VRB05KT 2SM BR OVC004 FM050200 18007KT 6SM
                       BR VCSH BKN021 OVC030 FM050500 17006KT P6SM
                       BKN025 OVC040 FM051500 17008KT P6SM -RA
                       OVC020=
202401042129 KBFI 042129Z 0421/0518 VRB05KT 2SM BR OVC004 FM050000 18007KT 6SM
                       BR VCSH BKN021 OVC030 FM050300 17006KT P6SM
                       BKN025 OVC040 FM051500 17008KT P6SM -RA
                       OVC020=
202401042103 KBFI 042103Z 0421/0518 VRB05KT 6SM BR BKN008 OVC015 FM042300 18007KT
                       6SM BR VCSH BKN021 OVC030 FM050300 17006KT
                       P6SM BKN025 OVC040 FM051500 17008KT P6SM
                       -RA OVC020=
202401041728 TAF KBFI 041728Z 0418/0518 16007KT P6SM OVC020 FM042200 18007KT
                       P6SM VCSH BKN021 OVC030 FM050300 17006KT
                       P6SM BKN025 OVC040 FM051500 17008KT P6SM
                       -RA OVC020=
202401041134 TAF KBFI 041134Z 0412/0512 15008KT P6SM -RA SCT025 OVC035 FM041700
                       16007KT P6SM -RA SCT012 OVC020 FM042200
                       18007KT P6SM VCSH BKN021 OVC030 FM050300
                       17006KT P6SM BKN025 OVC040=
202401040523 TAF KBFI 040523Z 0406/0506 17008KT P6SM SCT010 OVC050 FM041200
                       15007KT P6SM -RA OVC025 FM041700 15005KT
                       6SM BR SCT008 OVC015 FM042300 18006KT P6SM
                       OVC015=
202401032351 KBFI 032351Z 0400/0424 17008KT P6SM SCT010 OVC020 FM041200 15007KT
                       P6SM -RA OVC025 FM041700 15005KT 6SM BR
                       SCT008 OVC015 FM042300 18006KT P6SM OVC015=
202401032332 TAF KBFI 032332Z 0400/0424 19010KT 2SM -RA BR BKN009 BKN015 OVC020
                       FM040200 17008KT P6SM SCT020 OVC030 FM041200
                       15007KT P6SM -RA OVC025 FM041700 15005KT
                       6SM BR SCT008 OVC015 FM042300 18006KT P6SM
                       OVC015=
202401032250 KBFI 032250Z 0323/0418 19010KT 3SM RA BR BKN009 OVC025 FM040100
                       16008KT P6SM SCT020 OVC030 FM041200 15007KT
                       P6SM -RA SCT030 OVC060 FM041700 15005KT
                       P6SM OVC025=
202401032157 KBFI 032157Z 0322/0418 19010KT 5SM -RA BR FEW015 BKN025 OVC030
                       FM040100 16008KT P6SM SCT020 OVC030 FM041200
                       15007KT P6SM -RA SCT030 OVC060 FM041700
                       15005KT P6SM OVC025=
202401032058 KBFI 032058Z 0321/0418 19010KT 5SM -SHRA OVC045 FM040000 16008KT
                       P6SM SCT020 OVC030 FM041200 15007KT P6SM
                       -RA SCT030 OVC060 FM041700 15005KT P6SM
                       OVC025=
202401031738 TAF KBFI 031738Z 0318/0418 14004KT P6SM OVC060 FM032100 17007KT
                       5SM -SHRA OVC040 FM040200 16008KT P6SM SCT020
                       OVC030 FM041200 15007KT P6SM -RA SCT030
                       OVC060 FM041700 15005KT P6SM OVC025=
202401031140 TAF KBFI 031140Z 0312/0412 00000KT P6SM SCT060 OVC090 FM031600
                       14004KT P6SM OVC060 FM032000 14004KT 5SM
                       -RA OVC040 FM040200 17006KT P6SM SCT020
                       OVC030=
202401030919 KBFI 030919Z 0309/0406 00000KT P6SM -SHRA BKN070 OVC100 FM031100
                       15004KT P6SM SCT030 BKN070 OVC100
                      TEMPO 0314/0318 BKN030 OVC070 FM031800 18008KT
                       P6SM -RA OVC025=
202401030532 TAF KBFI 030532Z 0306/0406 00000KT 6SM -RA BR SCT020 OVC050 FM030700
                       10003KT P6SM SCT020 OVC035 FM030900 13004KT
                       P6SM OVC020 FM031400 15004KT 5SM BR OVC020
                       FM031900 18007KT P6SM OVC025=
202401022336 TAF KBFI 022336Z 0300/0324 00000KT 6SM -RA BR SCT020 OVC050 FM030300
                       10003KT P6SM SCT020 OVC035 FM030800 13004KT
                       P6SM OVC020 FM031400 15004KT 5SM BR OVC020
                       FM031900 18007KT P6SM OVC025=
202401022158 KBFI 022158Z 0222/0318 VRB02KT 5SM -RA BR OVC045 FM030300 10003KT
                       P6SM SCT020 OVC035 FM030800 13004KT P6SM
                       OVC020=
202401022101 KBFI 022101Z 0221/0318 VRB02KT 4SM -RA BR SCT020 OVC050 FM022300
                       VRB02KT 5SM -RA BR OVC045 FM030300 10003KT
                       P6SM SCT020 OVC035 FM030800 13004KT P6SM
                       OVC020=
202401022000 KBFI 022000Z 0220/0318 00000KT 4SM -RA BR BKN020 BKN050 OVC060
                       FM022200 VRB02KT 5SM -RA BR OVC045 FM030300
                       10003KT P6SM SCT020 OVC035 FM030800 13004KT
                       P6SM OVC020=
202401021729 TAF KBFI 021729Z 0218/0318 00000KT 5SM -RA BR BKN060 BKN080 OVC090
                       FM022000 VRB02KT 5SM -RA BR OVC045 FM030300
                       10003KT P6SM SCT020 OVC035 FM030800 13004KT
                       P6SM OVC020=
202401021539 KBFI 021539Z 0216/0312 00000KT P6SM SCT003 SCT120 FM021700 00000KT
                       P6SM OVC070 FM022000 05004KT P6SM -RA OVC045
                       FM030600 13004KT P6SM SCT025 OVC040 FM031000
                       13004KT P6SM OVC015=
202401021430 KBFI 021430Z 0215/0312 00000KT 4SM BR SCT003 FM021700 00000KT P6SM
                       OVC070 FM022000 05004KT P6SM -RA OVC045
                       FM030600 13004KT P6SM SCT025 OVC040 FM031000
                       13004KT P6SM OVC015=
202401021135 TAF KBFI 021135Z 0212/0312 00000KT 3SM BR OVC002 FM021800 00000KT
                       3SM BR OVC005 FM022000 05004KT P6SM -RA
                       OVC045 FM030600 13004KT P6SM SCT025 OVC040
                       FM031000 13004KT P6SM OVC015=
202401020529 TAF KBFI 020529Z 0206/0306 00000KT P6SM SKC FM020800 VRB03KT 6SM
                       BR BKN035 OVC250 FM022200 07003KT P6SM -SHRA
                       OVC025 FM022300 04003KT P6SM -RA OVC045
                       FM030300 00000KT P6SM OVC050=
202401020305 KBFI 020305Z 0203/0224 15003KT P6SM SKC FM020800 VRB03KT 6SM BR
                       BKN035 FM022200 07003KT P6SM -SHRA OVC025
                       FM022300 04003KT P6SM -RA OVC045=
202401012329 TAF KBFI 012329Z 0200/0224 VRB02KT P6SM BKN120 FM020300 00000KT
                       P6SM BKN250 FM020800 VRB03KT 6SM BR BKN035
                       FM022200 07003KT P6SM -SHRA OVC025=
202401012053 KBFI 012053Z 0121/0218 18004KT 5SM BR SCT002 BKN060 FM020000 10004KT
                       P6SM BKN250 FM020800 VRB03KT 4SM BR BKN035=
202401011946 KBFI 011946Z 0120/0218 16004KT P6SM SCT002 BKN060 FM020000 10004KT
                       P6SM BKN250 FM020800 VRB03KT 4SM BR BKN035=
202401011904 KBFI 011904Z 0119/0218 17003KT 5SM BR SCT002 BKN009 OVC060 FM012000
                       15004KT P6SM SCT050 BKN250 FM020000 10004KT
                       P6SM BKN250 FM020800 VRB03KT 4SM BR BKN035=
202401011847 KBFI 011847Z 0119/0218 14003KT 5SM BR SCT002 BKN005 OVC060 FM012000
                       13004KT P6SM SCT050 BKN250 FM020000 10004KT
                       P6SM BKN250 FM020800 VRB03KT 4SM BR BKN035=
202401011834 KBFI 011834Z 0119/0218 14003KT 4SM BR BKN002 OVC060 FM012000 13004KT
                       P6SM SCT050 BKN250 FM020000 10004KT P6SM
                       BKN250 FM020800 VRB03KT 4SM BR BKN035=
202401011800 KBFI 011800Z 0118/0218 14003KT 2SM BR BKN002 OVC060 FM012000 13004KT
                       P6SM SCT050 BKN250 FM020000 10004KT P6SM
                       BKN250 FM020800 VRB03KT 4SM BR BKN035=
202401011729 TAF KBFI 011729Z 0118/0218 14003KT 1/4SM FG VV004 FM012000 13004KT
                       P6SM SCT050 BKN250 FM020000 10004KT P6SM
                       BKN250 FM020800 VRB03KT 4SM BR BKN035=
202401011620 KBFI 011620Z 0116/0212 00000KT 1/4SM FG VV002 FM011800 VRB03KT
                       6SM BR BKN010 FM012000 13004KT P6SM SCT030
                       BKN250 FM020800 VRB03KT 4SM BR SCT015 OVC150=
202401011559 KBFI 011559Z 0116/0212 00000KT 1/2SM FG VV002 FM011800 VRB03KT
                       6SM BR BKN010 FM012000 13004KT P6SM SCT030
                       BKN250 FM020800 VRB03KT 4SM BR SCT015 OVC150=
202401011309 KBFI 011309Z 0113/0212 00000KT 1/4SM FG VV003 FM011800 VRB03KT
                       6SM BR BKN010 FM012000 13004KT P6SM SCT030
                       BKN250 FM020800 VRB03KT 4SM BR SCT015 OVC150=
202401011143 TAF KBFI 011143Z 0112/0212 00000KT 1/4SM FG VV003 FM011800 VRB03KT
                       P6SM BKN010 FM011900 VRB04KT P6SM BKN250
                       FM020800 VRB03KT 4SM BR SCT015 OVC150=
202401011046 KBFI 011046Z 0111/0206 00000KT 1/4SM FG VV003 FM011500 00000KT
                       1/2SM FG OVC004 FM011900 12004KT P6SM BKN070=
202401010859 KBFI 010859Z 0109/0206 00000KT P6SM SCT005 BKN200 FM011400 14002KT
                       5SM BR OVC004 FM011500 00000KT 1/2SM FG
                       OVC004 FM011900 12004KT P6SM BKN070=
202401010520 TAF KBFI 010520Z 0106/0206 00000KT P6SM BKN200 FM010800 14002KT
                       P6SM SCT007 SCT250 FM011400 14002KT 5SM
                       BR OVC004 FM011500 00000KT 1/2SM FG OVC004
                       FM011900 12004KT P6SM BKN070=
202401010259 KBFI 010259Z 0103/0124 00000KT P6SM SKC FM010600 00000KT P6SM BKN200
                       FM011000 14002KT P6SM SCT007 SCT250 FM011400
                       14002KT 5SM BR OVC004 FM011900 12004KT P6SM
                       BKN070=