##########################################################
# Query made at 02/17/2025 07:43:13 UTC
# Time interval: from 05/01/2024 00:00  to 05/31/2024 23:59  UTC
##########################################################

##########################################################
# KBFI, Seattle, Seattle Boeing Field (United States)
# WMO index: -----. WIGOS ID: Unknown
# Latitude 47-32-45N. Longitude 122-18-49W. Altitude 5 m.
##########################################################

###################################
#  METAR/SPECI from KBFI
###################################
202405312353 METAR KBFI 312353Z AUTO VRB06KT 10SM CLR 22/03 A3004 RMK AO2 SLP170 T02170033 10217 20156 56026=
202405312253 METAR KBFI 312253Z 30009G14KT 10SM CLR 21/04 A3006 RMK AO2 SLP178 T02110044=
202405312153 METAR KBFI 312153Z 29008KT 10SM CLR 21/05 A3008 RMK AO2 SLP187 T02060050=
202405312053 METAR KBFI 312053Z 28008KT 10SM CLR 21/06 A3011 RMK AO2 SLP197 T02060061 58026=
202405311953 METAR KBFI 311953Z 30009G16KT 10SM SCT200 18/05 A3014 RMK AO2 SLP207 T01830050=
202405311853 METAR KBFI 311853Z VRB04KT 10SM CLR 18/07 A3016 RMK AO2 SLP214 T01780072=
202405311753 METAR KBFI 311753Z VRB04KT 10SM CLR 16/08 A3019 RMK AO2 SLP223 T01560078 10161 20083 58014=
202405311653 METAR KBFI 311653Z 32005KT 10SM CLR 14/08 A3021 RMK AO2 SLP228 T01440078=
202405311553 METAR KBFI 311553Z 31005KT 10SM CLR 13/08 A3022 RMK AO2 SLP233 T01330078=
202405311453 METAR KBFI 311453Z 31004KT 10SM CLR 12/07 A3023 RMK AO2 SLP237 T01220072 56007=
202405311353 METAR KBFI 311353Z 00000KT 10SM CLR 11/07 A3024 RMK AO2 SLP239 T01060072=
202405311253 METAR KBFI 311253Z 00000KT 10SM CLR 09/06 A3024 RMK AO2 SLP241 T00890061=
202405311153 METAR KBFI 311153Z 00000KT 10SM CLR 08/06 A3025 RMK AO2 SLP244 T00830056 10128 20083 58009=
202405311053 METAR KBFI 311053Z 00000KT 10SM CLR 08/06 A3027 RMK AO2 SLP249 T00830056=
202405310953 METAR KBFI 310953Z 00000KT 10SM CLR 09/06 A3028 RMK AO2 SLP252 T00940056=
202405310853 METAR KBFI 310853Z 00000KT 10SM CLR 10/06 A3028 RMK AO2 SLP254 T01000056 58007=
202405310753 METAR KBFI 310753Z 00000KT 10SM CLR 11/04 A3029 RMK AO2 SLP256 T01110044 401720100=
202405310653 METAR KBFI 310653Z 00000KT 10SM CLR 12/04 A3030 RMK AO2 SLP259 T01170044=
202405310553 METAR KBFI 310553Z 00000KT 10SM CLR 13/04 A3030 RMK AO2 SLP261 T01280039 10172 20128 56001=
202405310453 METAR KBFI 310453Z 00000KT 10SM CLR 14/02 A3031 RMK AO2 SLP262 T01390022=
202405310353 METAR KBFI 310353Z 30005KT 10SM BKN075 14/03 A3030 RMK AO2 SLP260 T01440033=
202405310253 METAR KBFI 310253Z 32005KT 10SM OVC065 15/04 A3031 RMK AO2 SLP262 T01500039 58013=
202405310153 METAR KBFI 310153Z 29006KT 10SM FEW075 16/04 A3032 RMK AO2 SLP268 T01560044=
202405310053 METAR KBFI 310053Z 30007KT 10SM SCT050 17/04 A3034 RMK AO2 SLP272 T01670044=
202405302353 METAR KBFI 302353Z VRB06G14KT 10SM CLR 17/04 A3034 RMK AO2 SLP275 T01670044 10172 20122 56014=
202405302253 METAR KBFI 302253Z VRB04KT 10SM CLR 17/05 A3036 RMK AO2 SLP278 T01670050=
202405302153 METAR KBFI 302153Z VRB05KT 10SM SCT060 16/06 A3037 RMK AO2 SLP285 T01610056=
202405302053 METAR KBFI 302053Z VRB05KT 10SM BKN038 16/06 A3039 RMK AO2 SLP289 T01610056 58009=
202405301953 METAR KBFI 301953Z VRB03KT 10SM SCT025 BKN045 15/07 A3040 RMK AO2 SLP293 T01500072=
202405301853 METAR KBFI 301853Z VRB03KT 10SM SCT025 BKN045 13/08 A3040 RMK AO2 SLP295 T01330078=
202405301753 METAR KBFI 301753Z 30007KT 10SM BKN026 OVC050 12/07 A3041 RMK AO2 SLP297 T01220067 10139 20100 58004=
202405301653 METAR KBFI 301653Z VRB04KT 10SM BKN026 BKN030 BKN050 13/06 A3042 RMK AO2 SLP301 T01280061=
202405301553 METAR KBFI 301553Z 06003KT 10SM BKN036 11/06 A3043 RMK AO2 SLP303 T01110061=
202405301453 METAR KBFI 301453Z 00000KT 10SM SCT025 BKN050 11/07 A3042 RMK AO2 SLP301 T01060067 53003=
202405301353 METAR KBFI 301353Z 00000KT 10SM FEW036 OVC050 10/06 A3042 RMK AO2 SLP300 T01000061=
202405301253 METAR KBFI 301253Z 08003KT 10SM BKN034 OVC050 10/07 A3042 RMK AO2 SLP299 T01000067=
202405301153 METAR KBFI 301153Z 10003KT 10SM BKN013 BKN031 OVC050 10/07 A3041 RMK AO2 SLP298 70013 T01000067 10117 20100 53005=
202405301113 SPECI KBFI 301113Z 00000KT 10SM BKN031 10/07 A3041 RMK AO2 T01000067=
202405301053 METAR KBFI 301053Z 00000KT 10SM BKN029 OVC070 10/07 A3041 RMK AO2 SLP296 T01000067=
202405300953 METAR KBFI 300953Z 11003KT 10SM OVC050 10/07 A3040 RMK AO2 SLP295 T01000072=
202405300853 METAR KBFI 300853Z 09004KT 10SM BKN032 OVC065 11/07 A3040 RMK AO2 SLP294 T01060072 51008=
202405300753 METAR KBFI 300753Z 15005KT 10SM OVC050 11/08 A3040 RMK AO2 SLP292 T01060083 401610089=
202405300653 METAR KBFI 300653Z 14004KT 10SM OVC050 11/08 A3039 RMK AO2 SLP291 T01060083=
202405300553 METAR KBFI 300553Z 00000KT 10SM SCT010 OVC048 11/09 A3037 RMK AO2 RAE03 SLP285 P0000 60005 T01110089 10144 20111 53008=
202405300453 METAR KBFI 300453Z 00000KT 7SM -RA OVC050 12/08 A3037 RMK AO2 RAB24 SLP283 P0005 T01170083=
202405300353 METAR KBFI 300353Z 00000KT 10SM OVC050 12/07 A3035 RMK AO2 RAE13B38E48 SLP278 P0000 T01220072=
202405300253 METAR KBFI 300253Z VRB03KT 10SM -RA OVC050 12/07 A3035 RMK AO2 RAB23 SLP277 P0000 60000 T01220072 53013=
202405300153 METAR KBFI 300153Z 10SM BKN049 OVC060 13/07 A3034 RMK AO2 SLP272 T01330072=
202405300053 METAR KBFI 300053Z 07004KT 10SM OVC045 14/07 A3033 RMK AO2 SLP269 T01440067=
202405292353 METAR KBFI 292353Z 06006KT 10SM SCT040 BKN050 OVC065 14/07 A3031 RMK AO2 SLP264 60008 T01440067 10161 20117 53007=
202405292253 METAR KBFI 292253Z VRB05KT 10SM SCT034 BKN046 14/08 A3030 RMK AO2 SLP261 T01440078=
202405292153 METAR KBFI 292153Z VRB03KT 10SM SCT023 BKN047 OVC055 14/09 A3030 RMK AO2 LTG DSNT E RAE19 SLP259 P0000 T01440089=
202405292053 METAR KBFI 292053Z 10005KT 10SM -RA BKN047 OVC055 13/09 A3029 RMK AO2 SLP258 P0008 60008 T01280089 53009=
202405291953 METAR KBFI 291953Z VRB05KT 10SM VCTS -RA BKN011 BKN048 OVC070 14/06 A3028 RMK AO2 RAB51 SLP253 P0000 T01440061=
202405291909 SPECI KBFI 291909Z 20007G17KT 10SM VCTS BKN028 BKN085 BKN110 14/07 A3028 RMK AO2 T01440067=
202405291853 METAR KBFI 291853Z 18011G16KT 10SM BKN028 BKN085 BKN110 15/07 A3028 RMK AO2 SLP252 T01500072=
202405291753 METAR KBFI 291753Z 17012G17KT 10SM SCT020 BKN075 14/07 A3027 RMK AO2 SLP249 60000 T01390067 10139 20094 51004=
202405291653 METAR KBFI 291653Z 18007G17KT 130V210 10SM SCT039 BKN070 BKN090 13/07 A3027 RMK AO2 RAB26E46 SLP249 P0000 T01280067=
202405291553 METAR KBFI 291553Z 20009G16KT 10SM SCT020 BKN060 BKN100 12/07 A3027 RMK AO2 SLP248 T01220072=
202405291453 METAR KBFI 291453Z 16007KT 10SM BKN015 12/08 A3026 RMK AO2 SLP245 T01170078 53005=
202405291353 METAR KBFI 291353Z 17006KT 10SM OVC015 11/08 A3025 RMK AO2 SLP243 T01110078=
202405291253 METAR KBFI 291253Z 17005KT 10SM BKN013 BKN024 BKN095 11/07 A3025 RMK AO2 SLP242 T01060072=
202405291153 METAR KBFI 291153Z 16005KT 10SM OVC011 10/07 A3024 RMK AO2 SLP240 T01000072 10111 20089 51007=
202405291100 SPECI KBFI 291100Z 00000KT 10SM BKN012 10/07 A3024 RMK AO2 T01000072=
202405291053 METAR KBFI 291053Z VRB03KT 10SM BKN020 10/07 A3024 RMK AO2 SLP239 T01000072=
202405290953 METAR KBFI 290953Z 19004KT 10SM BKN020 10/07 A3023 RMK AO2 SLP235 T01000067=
202405290853 METAR KBFI 290853Z 00000KT 10SM BKN020 10/07 A3022 RMK AO2 SLP233 T01000067 51006=
202405290753 METAR KBFI 290753Z 16004KT 10SM CLR 09/06 A3022 RMK AO2 SLP232 T00890061 401670089=
202405290653 METAR KBFI 290653Z 00000KT 10SM FEW024 11/07 A3022 RMK AO2 SLP231 T01060067=
202405290553 METAR KBFI 290553Z 00000KT 10SM FEW028 11/07 A3020 RMK AO2 SLP227 T01110072 10139 20100 51011=
202405290453 METAR KBFI 290453Z 00000KT 10SM BKN040 11/07 A3019 RMK AO2 SLP224 T01110072=
202405290353 METAR KBFI 290353Z 05007KT 10SM BKN040 12/07 A3018 RMK AO2 SLP219 T01220072=
202405290253 METAR KBFI 290253Z VRB06G16KT 10SM FEW026 FEW045 13/08 A3017 RMK AO2 SLP216 T01280078 51013=
202405290153 METAR KBFI 290153Z 01011KT 10SM BKN040 14/08 A3016 RMK AO2 WSHFT 0127 SLP214 T01390078=
202405290053 METAR KBFI 290053Z VRB06G17KT 10SM BKN040 13/08 A3015 RMK AO2 SLP209 T01330083=
202405282353 METAR KBFI 282353Z 10SM BKN039 14/08 A3013 RMK AO2 SLP204 60000 T01390083 10167 20122 53009=
202405282253 METAR KBFI 282253Z 19008G17KT 10SM BKN034 BKN042 16/09 A3012 RMK AO2 SLP198 T01610094=
202405282153 METAR KBFI 282153Z 17007G14KT 10SM SCT022 OVC090 14/09 A3011 RMK AO2 RAE2057 SLP195 P0000 T01440094=
202405282053 METAR KBFI 282053Z 17008KT 10SM -RA SCT020 BKN060 OVC070 14/11 A3011 RMK AO2 RAB35 SLP194 P0000 60000 T01390106 51004=
202405281953 METAR KBFI 281953Z 16010KT 10SM BKN019 BKN024 OVC070 14/10 A3010 RMK AO2 SLP194 T01390100=
202405281853 METAR KBFI 281853Z 18010G19KT 10SM BKN014 OVC055 13/09 A3011 RMK AO2 RAE24 SLP195 P0000 T01280094=
202405281753 METAR KBFI 281753Z 19007G14KT 9SM -RA BKN014 OVC060 13/09 A3010 RMK AO2 RAB1656 SLP191 P0000 60000 T01280094 10133 20111 53007=
202405281720 SPECI KBFI 281720Z 16006KT 9SM -RA BKN018 OVC050 13/09 A3009 RMK AO2 RAB1656 P0000 T01280089=
202405281653 METAR KBFI 281653Z 19004KT 10SM SCT030 BKN035 OVC060 13/08 A3009 RMK AO2 SLP188 T01280083=
202405281553 METAR KBFI 281553Z 20006KT 10SM SCT036 BKN055 OVC080 13/07 A3008 RMK AO2 SLP186 T01280072=
202405281453 METAR KBFI 281453Z 19006KT 10SM OVC030 13/07 A3007 RMK AO2 SLP184 T01280067 51008=
202405281353 METAR KBFI 281353Z 15005KT 10SM SCT039 BKN055 12/09 A3007 RMK AO2 SLP182 T01220089=
202405281253 METAR KBFI 281253Z 13006KT 10SM FEW025 BKN045 BKN055 12/08 A3006 RMK AO2 SLP180 T01220083 $=
202405281153 METAR KBFI 281153Z 11003KT 10SM BKN049 BKN060 12/08 A3005 RMK AO2 SLP175 T01220078 10139 20117 53001 $=
202405281053 METAR KBFI 281053Z 00000KT 10SM BKN046 12/08 A3004 RMK AO2 SLP173 T01220078 $=
202405280953 METAR KBFI 280953Z AUTO 00000KT 10SM CLR 12/08 A3005 RMK AO2 SLP174 T01220078 $=
202405280853 METAR KBFI 280853Z 00000KT 10SM CLR 12/07 A3005 RMK AO2 SLP174 T01220072 58012 $=
202405280753 METAR KBFI 280753Z 00000KT 10SM CLR 13/08 A3006 RMK AO2 SLP177 T01330078 402000117 $=
202405280653 METAR KBFI 280653Z 00000KT 10SM CLR 13/07 A3007 RMK AO2 SLP183 T01330072 $=
202405280553 METAR KBFI 280553Z 00000KT 10SM CLR 14/07 A3008 RMK AO2 SLP186 T01390072 10183 20139 58004 $=
202405280453 METAR KBFI 280453Z 34004KT 10SM BKN200 14/07 A3009 RMK AO2 SLP188 T01440072 $=
202405280353 METAR KBFI 280353Z 31006KT 10SM SCT080 BKN250 15/07 A3009 RMK AO2 SLP188 T01500072 $=
202405280253 METAR KBFI 280253Z VRB06KT 10SM CLR 15/08 A3009 RMK AO2 SLP189 T01500078 56009 $=
202405280153 METAR KBFI 280153Z 32006KT 10SM CLR 17/08 A3009 RMK AO2 SLP190 T01670083 $=
202405280053 METAR KBFI 280053Z 30008KT 10SM BKN070 BKN130 BKN200 18/08 A3010 RMK AO2 SLP192 T01780083 $=
202405272353 METAR KBFI 272353Z 31006KT 10SM SCT045 BKN120 18/09 A3012 RMK AO2 SLP199 T01830089 10200 20161 56006 $=
202405272253 METAR KBFI 272253Z 00000KT 10SM SCT030 BKN150 19/08 A3012 RMK AO2 SLP199 T01940083 $=
202405272153 METAR KBFI 272153Z VRB04KT 10SM SCT030 BKN100 19/08 A3013 RMK AO2 SLP203 T01940083 $=
202405272053 METAR KBFI 272053Z 25010KT 10SM CLR 19/09 A3014 RMK AO2 SLP205 T01890089 58008 $=
202405271953 METAR KBFI 271953Z 24008KT 10SM SCT030 BKN100 18/09 A3015 RMK AO2 SLP208 T01830089 $=
202405271853 METAR KBFI 271853Z 22009KT 10SM SCT030 17/09 A3016 RMK AO2 SLP211 T01670089 $=
202405271753 METAR KBFI 271753Z 20008KT 10SM SCT030 BKN100 17/09 A3016 RMK AO2 SLP213 T01670089 10167 20117 55000 $=
202405271700 SPECI KBFI 271700Z 20007KT 10SM FEW015 SCT030 16/09 A3016 RMK AO2 T01560089 $=
202405271653 METAR KBFI 271653Z 17009KT 10SM BKN025 16/09 A3016 RMK AO2 SLP213 T01560089 $=
202405271553 METAR KBFI 271553Z 16007KT 10SM BKN023 14/09 A3016 RMK AO2 SLP212 T01440094 $=
202405271453 METAR KBFI 271453Z 15005KT 10SM OVC030 13/08 A3016 RMK AO2 SLP213 T01330083 51009 $=
202405271353 METAR KBFI 271353Z 16004KT 10SM OVC030 12/08 A3015 RMK AO2 SLP209 T01220083 $=
202405271253 METAR KBFI 271253Z 17003KT 10SM OVC031 12/08 A3015 RMK AO2 SLP208 T01170083 $=
202405271153 METAR KBFI 271153Z 15004KT 10SM BKN031 12/08 A3013 RMK AO2 SLP203 70004 T01220083 10128 20122 58000 $=
202405271053 METAR KBFI 271053Z 15005KT 10SM BKN032 12/08 A3014 RMK AO2 SLP205 T01220083 $=
202405270953 METAR KBFI 270953Z 16004KT 10SM OVC032 12/08 A3013 RMK AO2 SLP204 T01220083 $=
202405270853 METAR KBFI 270853Z 16004KT 10SM OVC034 13/09 A3013 RMK AO2 SLP203 T01280089 58003 $=
202405270753 METAR KBFI 270753Z 16005KT 10SM OVC036 13/09 A3014 RMK AO2 SLP204 T01280089 401560100 $=
202405270653 METAR KBFI 270653Z 15006KT 10SM BKN038 13/09 A3014 RMK AO2 SLP206 T01280089 $=
202405270553 METAR KBFI 270553Z 16005KT 10SM BKN039 13/09 A3014 RMK AO2 SLP206 60000 T01280089 10150 20128 50001 $=
202405270453 METAR KBFI 270453Z 15006KT 10SM BKN042 13/09 A3015 RMK AO2 SLP210 T01280089 $=
202405270353 METAR KBFI 270353Z 16005KT 10SM SCT031 OVC045 13/09 A3014 RMK AO2 SLP205 T01330089 $=
202405270253 METAR KBFI 270253Z 19006KT 10SM SCT031 OVC075 13/09 A3014 RMK AO2 RAB0154E08 SLP205 P0000 60000 T01330089 53001 $=
202405270153 METAR KBFI 270153Z 20006KT 10SM OVC070 14/09 A3014 RMK AO2 SLP205 T01390089 $=
202405270053 METAR KBFI 270053Z 17008KT 10SM OVC070 14/08 A3014 RMK AO2 SLP204 T01440083 $=
202405262353 METAR KBFI 262353Z VRB06G16KT 10SM BKN030 BKN038 BKN090 14/08 A3014 RMK AO2 SLP205 T01440078 10156 20122 52001 $=
202405262253 METAR KBFI 262253Z 17009G17KT 130V200 10SM SCT060 BKN075 OVC100 15/08 A3014 RMK AO2 SLP204 T01500083 $=
202405262153 METAR KBFI 262153Z 19009KT 10SM FEW026 OVC055 14/08 A3014 RMK AO2 SLP204 T01390078 $=
202405262053 METAR KBFI 262053Z VRB05KT 10SM SCT040 OVC050 14/08 A3013 RMK AO2 SLP204 T01390083 51005 $=
202405261953 METAR KBFI 261953Z 20007KT 10SM BKN023 BKN038 OVC060 14/08 A3013 RMK AO2 SLP203 T01390083 $=
202405261900 SPECI KBFI 261900Z 17008G17KT 10SM FEW019 BKN024 OVC060 13/09 A3013 RMK AO2 T01330089 $=
202405261853 METAR KBFI 261853Z 19010G17KT 10SM SCT019 OVC065 13/09 A3013 RMK AO2 SLP201 T01330089 $=
202405261753 METAR KBFI 261753Z 17011G16KT 10SM SCT017 OVC025 12/09 A3012 RMK AO2 RAE40 SLP199 P0000 60004 T01220089 10122 20100 51005 $=
202405261653 METAR KBFI 261653Z 15009KT 10SM -RA OVC017 11/09 A3012 RMK AO2 RAE00B41 SLP198 P0000 T01110089 $=
202405261553 METAR KBFI 261553Z 17006KT 10SM -RA OVC020 11/08 A3012 RMK AO2 SLP198 P0000 T01060083 $=
202405261453 METAR KBFI 261453Z 15007KT 9SM -RA OVC014 11/08 A3011 RMK AO2 SLP195 P0001 60004 T01060083 51007 $=
202405261418 SPECI KBFI 261418Z 15007KT 9SM -RA BKN020 OVC033 10/08 A3010 RMK AO2 P0000 T01000083 $=
202405261353 METAR KBFI 261353Z 16006KT 7SM -RA FEW019 OVC033 10/08 A3010 RMK AO2 SLP192 P0003 T01000078 $=
202405261253 METAR KBFI 261253Z 17008KT 10SM -RA FEW026 BKN035 OVC049 11/07 A3010 RMK AO2 RAB53 SLP191 P0000 T01110067 $=
202405261246 SPECI KBFI 261246Z 17006KT 10SM SCT026 BKN035 OVC049 11/07 A3010 RMK AO2 T01110067 $=
202405261230 SPECI KBFI 261230Z 18005KT 10SM BKN026 OVC032 11/07 A3009 RMK AO2 T01060067 $=
202405261221 SPECI KBFI 261221Z 17006KT 10SM FEW022 BKN030 OVC039 11/07 A3009 RMK AO2 T01110067 $=
202405261153 METAR KBFI 261153Z 16007KT 10SM BKN022 OVC026 11/07 A3009 RMK AO2 SLP188 T01110067 10111 20106 51001 $=
202405261053 METAR KBFI 261053Z 17008KT 10SM SCT023 BKN028 OVC065 11/06 A3008 RMK AO2 SLP187 T01060061 $=
202405260953 METAR KBFI 260953Z 18007KT 10SM OVC026 11/06 A3009 RMK AO2 SLP188 T01110061 $=
202405260853 METAR KBFI 260853Z 18007KT 10SM OVC023 11/06 A3008 RMK AO2 SLP187 T01110061 53003 $=
202405260753 METAR KBFI 260753Z 20008KT 170V230 10SM OVC023 11/06 A3008 RMK AO2 SLP185 T01110061 401560100 $=
202405260724 SPECI KBFI 260724Z 19007KT 10SM BKN023 OVC044 11/06 A3008 RMK AO2 T01110061 $=
202405260653 METAR KBFI 260653Z 18008KT 10SM SCT023 OVC075 11/06 A3008 RMK AO2 SLP184 T01110061 $=
202405260553 METAR KBFI 260553Z 19006KT 10SM FEW024 SCT047 OVC055 11/06 A3008 RMK AO2 SLP184 T01110061 10133 20111 52010 $=
202405260453 METAR KBFI 260453Z 19006G14KT 10SM OVC041 12/06 A3007 RMK AO2 SLP181 T01170061 $=
202405260353 METAR KBFI 260353Z 18009KT 10SM FEW032 BKN055 OVC085 12/06 A3005 RMK AO2 SLP176 T01170061 $=
202405260253 METAR KBFI 260253Z 18007KT 10SM BKN036 OVC047 12/06 A3004 RMK AO2 SLP173 T01220056 51008 $=
202405260153 METAR KBFI 260153Z 19006KT 10SM BKN039 OVC048 13/06 A3004 RMK AO2 SLP172 T01280056=
202405260053 METAR KBFI 260053Z 18013G20KT 10SM OVC039 13/06 A3003 RMK AO2 SLP169 T01330056=
202405252353 METAR KBFI 252353Z 20009G18KT 10SM BKN045 OVC075 13/05 A3002 RMK AO2 SLP165 T01330050 10156 20128 52018=
202405252253 METAR KBFI 252253Z VRB05G16KT 10SM OVC060 14/04 A3000 RMK AO2 PK WND 18026/2206 SLP160 T01390044=
202405252153 METAR KBFI 252153Z 20009G19KT 160V220 10SM OVC055 14/04 A2998 RMK AO2 SLP152 T01440044=
202405252053 METAR KBFI 252053Z 18014G23KT 10SM BKN045 14/04 A2997 RMK AO2 SLP147 T01440039 53011=
202405251953 METAR KBFI 251953Z 20009G24KT 10SM CLR 15/04 A2995 RMK AO2 SLP143 T01500039=
202405251853 METAR KBFI 251853Z 20013G25KT 10SM BKN045 14/04 A2994 RMK AO2 SLP139 T01390039=
202405251753 METAR KBFI 251753Z 19007G19KT 10SM BKN035 BKN044 13/05 A2993 RMK AO2 SLP136 T01280050 10128 20100 51014=
202405251712 SPECI KBFI 251712Z 19007G20KT 170V240 10SM SCT030 OVC050 12/06 A2992 RMK AO2 T01220056=
202405251653 METAR KBFI 251653Z 18010G20KT 10SM BKN029 OVC043 12/06 A2992 RMK AO2 SLP132 T01170056=
202405251553 METAR KBFI 251553Z 17009G16KT 10SM OVC023 11/06 A2991 RMK AO2 SLP127 T01110056=
202405251453 METAR KBFI 251453Z 19008KT 10SM OVC016 10/06 A2989 RMK AO2 SLP122 T01000061 53013=
202405251438 SPECI KBFI 251438Z 17005KT 10SM OVC016 10/06 A2989 RMK AO2 T01000061=
202405251353 METAR KBFI 251353Z 19007KT 10SM OVC012 10/07 A2987 RMK AO2 SLP116 T01000067=
202405251324 SPECI KBFI 251324Z 18007KT 10SM OVC014 10/07 A2987 RMK AO2 T01000067=
202405251253 METAR KBFI 251253Z 18005KT 10SM OVC015 10/07 A2986 RMK AO2 SLP111 T01000072=
202405251153 METAR KBFI 251153Z 15005KT 10SM BKN016 OVC026 10/08 A2986 RMK AO2 SLP109 70003 T01000078 10111 20100 53003=
202405251053 METAR KBFI 251053Z 18005KT 10SM BKN013 10/08 A2985 RMK AO2 SLP107 T01000078=
202405251029 SPECI KBFI 251029Z 15010KT 10SM FEW014 SCT018 SCT048 10/08 A2985 RMK AO2 T01000078=
202405250953 METAR KBFI 250953Z 16007KT 7SM BKN018 BKN028 OVC036 10/08 A2985 RMK AO2 SLP107 T01000078=
202405250946 SPECI KBFI 250946Z 16006KT 9SM BKN018 BKN025 OVC034 10/07 A2985 RMK AO2 T01000072=
202405250906 SPECI KBFI 250906Z 16008KT 9SM SCT020 OVC031 10/07 A2985 RMK AO2 T01000072=
202405250853 METAR KBFI 250853Z 17009KT 10SM OVC020 11/07 A2985 RMK AO2 SLP106 T01060067 51004=
202405250753 METAR KBFI 250753Z 17009KT 10SM OVC023 11/07 A2985 RMK AO2 SLP106 T01110067 401440100=
202405250718 SPECI KBFI 250718Z 16006KT 10SM BKN025 11/06 A2984 RMK AO2 T01110061=
202405250653 METAR KBFI 250653Z 17006KT 10SM CLR 10/06 A2984 RMK AO2 SLP105 T01000061=
202405250553 METAR KBFI 250553Z 19007KT 10SM CLR 11/06 A2983 RMK AO2 SLP102 T01110061 10144 20111 53007=
202405250453 METAR KBFI 250453Z 19005KT 10SM SCT025 BKN060 12/08 A2982 RMK AO2 SLP099 T01170083=
202405250353 METAR KBFI 250353Z 19008KT 10SM BKN060 BKN080 13/09 A2982 RMK AO2 SLP097 T01280089=
202405250253 METAR KBFI 250253Z 18009KT 150V210 10SM BKN035 OVC039 13/09 A2981 RMK AO2 SLP095 T01330094 55010=
202405250153 METAR KBFI 250153Z 19007KT 10SM BKN035 14/07 A2981 RMK AO2 SLP095 T01440072=
202405250053 METAR KBFI 250053Z VRB06KT 10SM OVC031 14/09 A2983 RMK AO2 SLP100 T01440094=
202405242353 METAR KBFI 242353Z 16006KT 10SM OVC030 13/09 A2984 RMK AO2 SLP105 60003 T01330089 10133 20111 58018=
202405242253 METAR KBFI 242253Z 15008KT 10SM OVC030 13/09 A2986 RMK AO2 SLP112 T01330089=
202405242153 METAR KBFI 242153Z 16006KT 10SM OVC036 13/07 A2988 RMK AO2 SLP119 T01280072=
202405242053 METAR KBFI 242053Z 19007KT 9SM BKN026 OVC036 12/07 A2990 RMK AO2 RAE00 SLP123 P0000 60003 T01220072 58001=
202405241953 METAR KBFI 241953Z 16005KT 10SM -RA FEW020 OVC040 11/08 A2990 RMK AO2 SLP125 P0003 T01110083=
202405241853 METAR KBFI 241853Z 20005KT 8SM -RA BKN050 OVC075 12/07 A2990 RMK AO2 RAB09 SLP125 P0000 T01170072=
202405241753 METAR KBFI 241753Z 16008G16KT 10SM OVC060 13/06 A2990 RMK AO2 SLP125 T01280056 10128 20100 58008=
202405241653 METAR KBFI 241653Z 18008KT 10SM BKN060 OVC080 12/07 A2991 RMK AO2 SLP128 T01170067=
202405241553 METAR KBFI 241553Z 18006KT 10SM FEW040 OVC075 12/06 A2992 RMK AO2 SLP131 T01170061=
202405241453 METAR KBFI 241453Z 18007KT 10SM OVC090 11/07 A2992 RMK AO2 SLP132 T01110067 56008=
202405241353 METAR KBFI 241353Z 17004KT 10SM SCT038 BKN070 11/07 A2993 RMK AO2 SLP134 T01110072=
202405241253 METAR KBFI 241253Z 15005KT 10SM SCT038 BKN090 11/07 A2993 RMK AO2 SLP136 T01060067=
202405241153 METAR KBFI 241153Z 18004KT 10SM BKN039 BKN110 11/06 A2995 RMK AO2 SLP140 T01060061 10144 20106 56012=
202405241053 METAR KBFI 241053Z 17004KT 10SM BKN040 11/06 A2996 RMK AO2 SLP143 T01110056=
202405240953 METAR KBFI 240953Z 16006KT 10SM BKN045 11/05 A2997 RMK AO2 SLP147 T01110050=
202405240853 METAR KBFI 240853Z 24004KT 10SM BKN045 12/06 A2998 RMK AO2 SLP153 T01220056 58015=
202405240753 METAR KBFI 240753Z VRB04KT 10SM OVC044 13/06 A3000 RMK AO2 SLP158 T01330061 401720100=
202405240653 METAR KBFI 240653Z 00000KT 10SM SCT043 BKN050 13/06 A3001 RMK AO2 SLP162 T01330061=
202405240553 METAR KBFI 240553Z VRB03KT 10SM OVC050 14/07 A3003 RMK AO2 SLP167 T01390067 10172 20139 56006=
202405240453 METAR KBFI 240453Z 17004KT 10SM OVC050 14/07 A3003 RMK AO2 SLP169 T01440072=
202405240353 METAR KBFI 240353Z 20004KT 10SM BKN046 15/07 A3003 RMK AO2 SLP170 T01500072=
202405240253 METAR KBFI 240253Z 19004KT 10SM CLR 16/07 A3004 RMK AO2 SLP173 T01560072 56013=
202405240153 METAR KBFI 240153Z AUTO 21006KT 10SM BKN041 17/08 A3005 RMK AO2 SLP175 T01670078=
202405240053 METAR KBFI 240053Z 24004KT 10SM FEW041 17/08 A3006 RMK AO2 SLP179 T01670078=
202405232353 METAR KBFI 232353Z 20007KT 10SM CLR 17/08 A3008 RMK AO2 SLP186 T01720078 10172 20133 58017=
202405232253 METAR KBFI 232253Z 22008KT 10SM CLR 17/07 A3010 RMK AO2 SLP193 T01670072=
202405232153 METAR KBFI 232153Z 19009G18KT 10SM BKN038 16/07 A3012 RMK AO2 SLP199 T01610072=
202405232053 METAR KBFI 232053Z 18008KT 10SM BKN032 16/08 A3013 RMK AO2 SLP203 T01610078 58008=
202405231953 METAR KBFI 231953Z VRB04G15KT 10SM OVC035 15/07 A3014 RMK AO2 SLP207 T01500067=
202405231853 METAR KBFI 231853Z 21010G15KT 10SM OVC032 14/06 A3015 RMK AO2 SLP210 T01390061=
202405231753 METAR KBFI 231753Z 19008KT 10SM OVC030 13/06 A3016 RMK AO2 SLP212 T01330061 10133 20100 50000=
202405231653 METAR KBFI 231653Z 18009G14KT 10SM OVC025 13/06 A3016 RMK AO2 SLP214 T01280061=
202405231553 METAR KBFI 231553Z 17010KT 10SM OVC026 12/06 A3016 RMK AO2 SLP213 T01220061=
202405231453 METAR KBFI 231453Z 18007KT 10SM OVC030 12/07 A3016 RMK AO2 SLP212 T01170067 53005=
202405231353 METAR KBFI 231353Z 15009KT 10SM SCT020 OVC075 11/07 A3015 RMK AO2 SLP208 T01110067=
202405231348 SPECI KBFI 231348Z 15008KT 10SM SCT026 OVC075 11/07 A3015 RMK AO2=
202405231253 METAR KBFI 231253Z 15008KT 10SM OVC025 10/06 A3014 RMK AO2 SLP207 T01000061=
202405231153 METAR KBFI 231153Z 16010KT 10SM OVC024 10/06 A3014 RMK AO2 SLP205 T01000061 10139 20100 51005=
202405231053 METAR KBFI 231053Z 15009KT 10SM BKN020 BKN080 11/07 A3014 RMK AO2 SLP204 T01060067=
202405230953 METAR KBFI 230953Z 17006KT 10SM BKN018 11/07 A3013 RMK AO2 SLP203 T01110067=
202405230914 SPECI KBFI 230914Z 20006G15KT 10SM BKN019 11/07 A3013 RMK AO2 T01060067=
202405230853 METAR KBFI 230853Z 17008KT 10SM CLR 11/06 A3012 RMK AO2 SLP199 T01060061 53011=
202405230753 METAR KBFI 230753Z 18005KT 10SM SCT090 11/06 A3011 RMK AO2 SLP196 T01110061 401610089=
202405230653 METAR KBFI 230653Z 20004KT 10SM FEW095 12/06 A3009 RMK AO2 SLP189 T01220061=
202405230553 METAR KBFI 230553Z 12005KT 10SM SCT042 OVC095 14/07 A3009 RMK AO2 SLP189 T01390067 10161 20139 51016=
202405230453 METAR KBFI 230453Z 12005KT 10SM BKN080 OVC090 14/07 A3008 RMK AO2 SLP185 T01440067=
202405230353 METAR KBFI 230353Z 00000KT 10SM SCT046 BKN080 15/06 A3006 RMK AO2 SLP178 T01500056=
202405230253 METAR KBFI 230253Z 00000KT 10SM OVC075 16/06 A3004 RMK AO2 SLP173 T01560056 51013=
202405230153 METAR KBFI 230153Z 00000KT 10SM BKN070 16/05 A3003 RMK AO2 SLP170 T01610050=
202405230053 METAR KBFI 230053Z 31005KT 10SM SCT070 16/04 A3002 RMK AO2 SLP165 T01560044=
202405222353 METAR KBFI 222353Z 27007KT 10SM FEW043 FEW060 16/04 A3001 RMK AO2 SLP160 T01610044 10161 20122 51010=
202405222253 METAR KBFI 222253Z 28007KT 10SM SCT090 15/06 A3000 RMK AO2 SLP159 T01500056=
202405222153 METAR KBFI 222153Z VRB06KT 10SM FEW040 OVC080 14/06 A2999 RMK AO2 SLP156 T01440061=
202405222053 METAR KBFI 222053Z 29004G14KT 10SM SCT032 BKN080 OVC090 14/06 A2998 RMK AO2 SLP150 T01390056 51017=
202405221953 METAR KBFI 221953Z 31005KT 10SM SCT035 BKN045 13/05 A2996 RMK AO2 SLP146 T01330050=
202405221853 METAR KBFI 221853Z VRB05KT 10SM SCT025 BKN035 BKN046 13/06 A2994 RMK AO2 SLP139 T01280056=
202405221753 METAR KBFI 221753Z 05004KT 10SM SCT027 BKN034 BKN100 12/06 A2993 RMK AO2 SLP133 60000 T01220056 10122 20089 51016=
202405221653 METAR KBFI 221653Z VRB03KT 10SM BKN027 BKN065 11/06 A2991 RMK AO2 SLP129 T01110056=
202405221553 METAR KBFI 221553Z 00000KT 10SM SCT016 BKN024 BKN060 10/06 A2990 RMK AO2 SLP126 T01000056=
202405221453 METAR KBFI 221453Z 19004KT 10SM FEW017 BKN024 OVC085 09/06 A2988 RMK AO2 SLP118 60000 T00940056 53005=
202405221353 METAR KBFI 221353Z VRB03KT 10SM SCT020 BKN026 BKN095 09/05 A2987 RMK AO2 SLP113 T00890050=
202405221253 METAR KBFI 221253Z VRB03KT 10SM FEW038 BKN050 OVC060 09/05 A2985 RMK AO2 RAE00 SLP109 P0000 T00890050=
202405221153 METAR KBFI 221153Z 19006KT 10SM -RA BKN036 OVC044 09/05 A2987 RMK AO2 SLP113 P0001 60001 70049 T00890050 10122 20089 51009=
202405221119 SPECI KBFI 221119Z 19008KT 6SM -RA FEW024 OVC036 09/05 A2987 RMK AO2 P0001 T00890050=
202405221106 SPECI KBFI 221106Z VRB03KT 6SM -RA FEW024 BKN028 OVC043 09/05 A2987 RMK AO2 P0000 T00890050=
202405221053 METAR KBFI 221053Z 20006KT 9SM -RA OVC055 09/05 A2987 RMK AO2 RAB37 SLP113 P0000 T00940050=
202405220953 METAR KBFI 220953Z 18007G17KT 10SM BKN046 OVC055 09/04 A2984 RMK AO2 SLP105 T00940039=
202405220853 METAR KBFI 220853Z 17010G19KT 10SM OVC036 10/05 A2984 RMK AO2 PK WND 17026/0812 SLP104 T01000050 56002=
202405220753 METAR KBFI 220753Z 18011G24KT 10SM OVC013 10/07 A2984 RMK AO2 SLP104 T01000067 401220094=
202405220653 METAR KBFI 220653Z 21009G23KT 10SM OVC013 11/08 A2983 RMK AO2 SLP101 T01110078=
202405220553 METAR KBFI 220553Z 19008KT 150V210 10SM OVC013 12/09 A2984 RMK AO2 SLP106 60012 T01220094 10122 20117 58020=
202405220453 METAR KBFI 220453Z 10SM OVC013 12/10 A2987 RMK AO2 SLP114 T01220100=
202405220353 METAR KBFI 220353Z 16007KT 4SM BR BKN009 OVC013 12/10 A2988 RMK AO2 SLP118 T01170100=
202405220253 METAR KBFI 220253Z 17009G15KT 9SM OVC013 12/10 A2990 RMK AO2 RAE04 SLP125 P0000 60012 T01220100 56018=
202405220153 METAR KBFI 220153Z 17011G18KT 10SM -RA BKN009 BKN024 OVC048 12/10 A2991 RMK AO2 SLP129 P0002 T01220100=
202405220053 METAR KBFI 220053Z 17012KT 5SM -RA BR BKN009 BKN039 OVC065 12/10 A2993 RMK AO2 PK WND 17029/0034 SLP136 P0010 T01170100=
202405212353 METAR KBFI 212353Z 16011KT 4SM -RA BR BKN009 BKN015 OVC020 12/10 A2996 RMK AO2 SLP143 P0007 60023 T01220100 10122 20106 58022=
202405212253 METAR KBFI 212253Z 16012G18KT 2SM -RA BR BKN007 BKN016 OVC021 12/10 A2998 RMK AO2 SLP150 P0004 T01220100=
202405212153 METAR KBFI 212153Z 17011G18KT 2 1/2SM -RA BR BKN007 BKN016 OVC021 12/10 A3000 RMK AO2 RAB43 SLP159 P0000 T01170100=
202405212138 SPECI KBFI 212138Z 17011G19KT 2 1/2SM BR BKN007 BKN060 OVC075 12/10 A3001 RMK AO2 T01170100=
202405212053 METAR KBFI 212053Z 17013G19KT 6SM BR BKN009 BKN060 OVC075 12/10 A3002 RMK AO2 RAE34 SLP166 P0001 60012 T01170100 58018=
202405211953 METAR KBFI 211953Z 17013G24KT 6SM -RA BR BKN009 BKN016 OVC075 11/09 A3004 RMK AO2 SLP173 P0003 T01110094=
202405211853 METAR KBFI 211853Z 17012G21KT 5SM -RA BR BKN009 BKN012 OVC055 11/09 A3006 RMK AO2 SLP179 P0008 T01110094=
202405211753 METAR KBFI 211753Z 17014G21KT 110V190 4SM -RA BR OVC009 11/09 A3008 RMK AO2 SLP184 P0007 60013 T01060089 10106 20094 58017=
202405211655 SPECI KBFI 211655Z 18010KT 5SM -RA BR OVC009 11/09 A3010 RMK AO2 P0001 T01060089=
202405211653 METAR KBFI 211653Z 16008KT 5SM -RA BR OVC090 11/09 A3010 RMK AO2 SLP191 P0002 T01060089=
202405211553 METAR KBFI 211553Z 15010KT 5SM -RA BR OVC008 11/09 A3011 RMK AO2 SLP195 P0002 T01060089=
202405211512 SPECI KBFI 211512Z 15010KT 5SM -RA BR OVC008 10/08 A3012 RMK AO2 P0000 T01000083=
202405211453 METAR KBFI 211453Z AUTO 15012KT 6SM -RA BR OVC012 10/08 A3013 RMK AO2 SLP201 P0002 60002 T01000078 58013=
202405211445 SPECI KBFI 211445Z 15010KT 6SM -RA BR OVC013 10/08 A3013 RMK AO2 P0002 T01000078=
202405211353 METAR KBFI 211353Z 15010KT 6SM -RA OVC017 10/07 A3014 RMK AO2 RAB34 SLP207 P0000 T01000067=
202405211253 METAR KBFI 211253Z 15010KT 10SM OVC024 10/06 A3015 RMK AO2 SLP210 T01000056=
202405211153 METAR KBFI 211153Z 15008KT 10SM OVC024 09/06 A3017 RMK AO2 SLP214 T00940056 10128 20094 58013=
202405211053 METAR KBFI 211053Z 14009KT 10SM BKN029 BKN110 09/06 A3018 RMK AO2 SLP219 T00940056=
202405210953 METAR KBFI 210953Z 15009KT 10SM CLR 09/05 A3020 RMK AO2 SLP225 T00940050=
202405210853 METAR KBFI 210853Z 20003KT 10SM CLR 10/06 A3020 RMK AO2 SLP227 T01000056 58001=
202405210753 METAR KBFI 210753Z 19004KT 10SM CLR 11/06 A3021 RMK AO2 SLP229 T01060056 401940083=
202405210653 METAR KBFI 210653Z 22004KT 10SM CLR 12/06 A3021 RMK AO2 SLP229 T01220061=
202405210553 METAR KBFI 210553Z 28003KT 10SM CLR 13/08 A3021 RMK AO2 SLP228 T01280078 10189 20128 53006=
202405210453 METAR KBFI 210453Z 30005KT 10SM SCT060 14/07 A3020 RMK AO2 SLP225 T01390072=
202405210353 METAR KBFI 210353Z 27005KT 10SM SCT060 16/06 A3019 RMK AO2 SLP223 T01610061=
202405210253 METAR KBFI 210253Z VRB04KT 10SM BKN060 17/07 A3019 RMK AO2 SLP222 T01720067 56005=
202405210153 METAR KBFI 210153Z 21004KT 10SM BKN065 18/06 A3019 RMK AO2 SLP222 T01780056=
202405210053 METAR KBFI 210053Z 24007KT 10SM SCT050 19/06 A3019 RMK AO2 SLP224 T01890061=
202405202353 METAR KBFI 202353Z 00000KT 10SM SCT050 18/06 A3020 RMK AO2 SLP227 T01830061 10194 20133 58018=
202405202253 METAR KBFI 202253Z 00000KT 10SM CLR 18/05 A3023 RMK AO2 SLP235 T01830050=
202405202153 METAR KBFI 202153Z 10SM SCT035 18/07 A3024 RMK AO2 SLP240 T01830072=
202405202053 METAR KBFI 202053Z VRB05KT 10SM SCT036 17/08 A3026 RMK AO2 SLP245 T01720078 58007=
202405201953 METAR KBFI 201953Z VRB06KT 10SM SCT025 16/07 A3027 RMK AO2 SLP248 T01610067=
202405201853 METAR KBFI 201853Z VRB05KT 10SM SCT035 15/07 A3027 RMK AO2 SLP251 T01500072=
202405201753 METAR KBFI 201753Z 00000KT 10SM SCT038 14/07 A3028 RMK AO2 SLP253 T01390072 10144 20083 58005=
202405201700 SPECI KBFI 201700Z 25005KT 10SM SCT023 13/07 A3029 RMK AO2 T01280072=
202405201653 METAR KBFI 201653Z VRB06KT 10SM FEW014 BKN020 13/07 A3029 RMK AO2 SLP256 T01330067=
202405201553 METAR KBFI 201553Z 15006KT 10SM SCT014 BKN020 12/06 A3029 RMK AO2 SLP257 T01170061=
202405201453 METAR KBFI 201453Z 13006KT 10SM SCT014 BKN020 11/06 A3029 RMK AO2 SLP258 T01060061 51008=
202405201353 METAR KBFI 201353Z 14006KT 10SM SCT014 BKN065 09/06 A3029 RMK AO2 SLP256 T00890056=
202405201253 METAR KBFI 201253Z 14004KT 10SM SCT014 BKN065 09/06 A3028 RMK AO2 SLP253 T00940061=
202405201153 METAR KBFI 201153Z 15005KT 10SM OVC065 09/06 A3027 RMK AO2 SLP250 T00890061 10128 20083 50002=
202405201053 METAR KBFI 201053Z 14005KT 10SM FEW065 08/05 A3027 RMK AO2 SLP251 T00830050=
202405200953 METAR KBFI 200953Z 13004KT 10SM CLR 09/06 A3027 RMK AO2 SLP249 T00940061=
202405200853 METAR KBFI 200853Z 00000KT 10SM CLR 09/06 A3027 RMK AO2 SLP248 T00940061 51005=
202405200753 METAR KBFI 200753Z 00000KT 10SM CLR 11/06 A3026 RMK AO2 SLP247 T01110061 401780078=
202405200653 METAR KBFI 200653Z 00000KT 10SM CLR 12/06 A3025 RMK AO2 SLP244 T01170056=
202405200553 METAR KBFI 200553Z 00000KT 10SM CLR 13/06 A3025 RMK AO2 SLP243 T01280056 10172 20128 52008=
202405200453 METAR KBFI 200453Z 00000KT 10SM FEW040 14/06 A3024 RMK AO2 SLP240 T01390061=
202405200353 METAR KBFI 200353Z 27004KT 10SM SCT040 14/06 A3023 RMK AO2 SLP237 T01390056=
202405200253 METAR KBFI 200253Z 30004KT 10SM SCT030 16/04 A3022 RMK AO2 SLP234 T01560039 55001=
202405200153 METAR KBFI 200153Z 29004KT 10SM SCT040 BKN050 17/04 A3022 RMK AO2 SLP233 T01670039=
202405200053 METAR KBFI 200053Z 31005KT 10SM SCT030 17/04 A3022 RMK AO2 SLP233 T01670039=
202405192353 METAR KBFI 192353Z VRB03KT 10SM CLR 17/04 A3023 RMK AO2 SLP236 T01670039 10178 20117 58008=
202405192253 METAR KBFI 192253Z VRB06KT 10SM SCT030 17/04 A3024 RMK AO2 SLP239 T01670039=
202405192153 METAR KBFI 192153Z VRB05KT 10SM SCT030 17/05 A3025 RMK AO2 SLP242 T01670050=
202405192053 METAR KBFI 192053Z VRB06KT 10SM BKN030 16/04 A3025 RMK AO2 SLP244 T01560044 58002=
202405191953 METAR KBFI 191953Z 10SM FEW030 SCT044 14/06 A3026 RMK AO2 SLP248 T01440061=
202405191900 SPECI KBFI 191900Z 27005KT 10SM BKN038 13/06 A3027 RMK AO2 T01280061=
202405191853 METAR KBFI 191853Z VRB04KT 10SM BKN025 12/06 A3027 RMK AO2 SLP249 T01220061=
202405191753 METAR KBFI 191753Z 19005KT 10SM BKN022 12/06 A3026 RMK AO2 SLP246 T01220056 10133 20078 51007=
202405191653 METAR KBFI 191653Z 10SM BKN022 12/06 A3026 RMK AO2 SLP245 T01170061 $=
202405191553 METAR KBFI 191553Z 16007KT 10SM BKN015 11/07 A3025 RMK AO2 SLP242 T01060067 $=
202405191532 SPECI KBFI 191532Z 14008KT 10SM BKN015 10/06 A3024 RMK AO2 T01000061 $=
202405191500 SPECI KBFI 191500Z 15007KT 10SM CLR 10/07 A3024 RMK AO2 T01000067 $=
202405191453 METAR KBFI 191453Z 15006KT 10SM BKN014 BKN075 09/07 A3024 RMK AO2 SLP239 T00940067 53017 $=
202405191353 METAR KBFI 191353Z 13003KT 10SM BKN014 BKN075 08/06 A3022 RMK AO2 SLP233 T00830061 $=
202405191253 METAR KBFI 191253Z 15006KT 10SM BKN014 BKN075 08/06 A3020 RMK AO2 SLP225 T00830061 $=
202405191153 METAR KBFI 191153Z AUTO 10003KT 10SM BKN014 BKN019 OVC075 09/07 A3019 RMK AO2 SLP222 60000 70001 T00890067 10100 20078 51009 $=
202405191150 SPECI KBFI 191150Z AUTO 10003KT 10SM BKN016 OVC085 09/07 A3019 RMK AO2 $=
202405191118 SPECI KBFI 191118Z AUTO 15004KT 10SM SCT021 BKN049 08/06 A3018 RMK AO2 T00780061 $=
202405191053 METAR KBFI 191053Z AUTO 15005KT 10SM OVC021 08/07 A3018 RMK AO2 SLP218 T00830067 $=
202405190953 METAR KBFI 190953Z 14005KT 10SM OVC017 09/07 A3016 RMK AO2 SLP212 T00890072 $=
202405190942 SPECI KBFI 190942Z 14005KT 10SM BKN019 BKN050 09/07 A3016 RMK AO2 T00890072 $=
202405190853 METAR KBFI 190853Z 13006KT 10SM BKN055 09/07 A3015 RMK AO2 SLP210 60000 T00890072 53005 $=
202405190753 METAR KBFI 190753Z 15005KT 10SM FEW017 BKN037 OVC055 09/07 A3015 RMK AO2 SLP208 T00940067 401390094 $=
202405190700 SPECI KBFI 190700Z 12004KT 10SM FEW035 OVC060 10/07 A3014 RMK AO2 T01000072 $=
202405190653 METAR KBFI 190653Z 14006KT 10SM BKN018 OVC026 09/07 A3013 RMK AO2 RAB0558E10 SLP204 P0000 T00940072 $=
202405190553 METAR KBFI 190553Z 12004KT 10SM BKN018 OVC026 10/07 A3014 RMK AO2 SLP205 60000 T01000072 10122 20100 51015 $=
202405190500 SPECI KBFI 190500Z 09006KT 10SM BKN018 OVC026 10/08 A3013 RMK AO2 T01000078 $=
202405190453 METAR KBFI 190453Z 09006KT 10SM FEW030 FEW045 OVC060 10/08 A3013 RMK AO2 RAB04E50 SLP201 P0000 T01000078 $=
202405190353 METAR KBFI 190353Z 00000KT 10SM FEW030 FEW045 OVC060 11/07 A3010 RMK AO2 SLP194 T01060072 $=
202405190253 METAR KBFI 190253Z 00000KT 10SM FEW042 BKN055 11/07 A3009 RMK AO2 SLP189 60000 T01110072 53006 $=
202405190153 METAR KBFI 190153Z 00000KT 10SM FEW048 FEW075 OVC100 12/07 A3008 RMK AO2 RAE27 SLP186 P0000 T01170072 $=
202405190053 METAR KBFI 190053Z 00000KT 10SM -RA BKN050 OVC060 11/07 A3008 RMK AO2 RAB21 SLP184 P0000 T01110067 $=
202405182353 METAR KBFI 182353Z VRB05KT 10SM SCT026 OVC050 12/07 A3007 RMK AO2 LTG DSNT S SLP183 60001 T01220067 10139 20117 53001 $=
202405182253 METAR KBFI 182253Z 12004KT 10SM SCT026 OVC050 12/07 A3007 RMK AO2 RAB2156E35 SLP182 P0001 T01220067 $=
202405182205 SPECI KBFI 182205Z 00000KT 10SM -RA SCT022 BKN047 OVC055 12/07 A3007 RMK AO2 RAB2156 P0000 T01220067 $=
202405182153 METAR KBFI 182153Z 00000KT 10SM SCT022 BKN047 OVC055 13/06 A3007 RMK AO2 RAB2058E16 SLP182 P0000 T01330061 $=
202405182100 SPECI KBFI 182100Z VRB04KT 10SM -RA FEW023 SCT045 OVC060 13/06 A3007 RMK AO2 RAB2058 P0000 T01280061 $=
202405182053 METAR KBFI 182053Z VRB04KT 10SM BKN028 OVC038 13/06 A3007 RMK AO2 SLP182 T01280061 58005 $=
202405181953 METAR KBFI 181953Z 00000KT 10SM BKN028 OVC038 12/07 A3008 RMK AO2 SLP185 T01220067 $=
202405181938 SPECI KBFI 181938Z 08004KT 10SM SCT028 BKN038 OVC050 12/06 A3008 RMK AO2 T01170061 $=
202405181853 METAR KBFI 181853Z VRB03KT 10SM BKN017 OVC038 12/07 A3009 RMK AO2 SLP187 T01220072 $=
202405181849 SPECI KBFI 181849Z 00000KT 10SM BKN017 BKN025 OVC039 12/07 A3009 RMK AO2 $=
202405181840 SPECI KBFI 181840Z 00000KT 10SM FEW017 SCT023 OVC039 12/07 A3009 RMK AO2 T01170067 $=
202405181753 METAR KBFI 181753Z 03004KT 10SM OVC018 10/07 A3010 RMK AO2 SLP191 T01000067 10106 20094 51002 $=
202405181653 METAR KBFI 181653Z 00000KT 10SM FEW012 OVC015 10/06 A3009 RMK AO2 SLP190 T01000061 $=
202405181553 METAR KBFI 181553Z 21005KT 10SM OVC020 10/06 A3010 RMK AO2 SLP192 T01000056 $=
202405181453 METAR KBFI 181453Z 13006KT 10SM BKN020 OVC027 10/05 A3009 RMK AO2 SLP189 T01000050 58006 $=
202405181353 METAR KBFI 181353Z 14007KT 10SM FEW022 BKN031 OVC037 09/05 A3010 RMK AO2 SLP193 T00940050 $=
202405181253 METAR KBFI 181253Z 14005KT 10SM SCT020 OVC037 10/05 A3010 RMK AO2 SLP193 T01000050=
202405181153 METAR KBFI 181153Z 11005KT 10SM OVC036 10/04 A3011 RMK AO2 SLP195 T01000044 10122 20100 57005=
202405181053 METAR KBFI 181053Z 14006KT 10SM OVC033 10/05 A3012 RMK AO2 SLP197 T01000050=
202405180953 METAR KBFI 180953Z 15006KT 10SM OVC032 10/05 A3012 RMK AO2 SLP199 T01000050=
202405180853 METAR KBFI 180853Z 15007KT 10SM OVC031 10/04 A3012 RMK AO2 SLP200 T01000044 58003=
202405180753 METAR KBFI 180753Z 17005KT 10SM FEW045 SCT055 OVC070 11/05 A3013 RMK AO2 SLP202 T01060050 401720083=
202405180653 METAR KBFI 180653Z 18004KT 10SM BKN039 OVC065 11/05 A3013 RMK AO2 SLP202 T01110050=
202405180553 METAR KBFI 180553Z 13003KT 10SM BKN040 OVC070 13/06 A3013 RMK AO2 SLP203 T01280056 10161 20117 53006=
202405180453 METAR KBFI 180453Z 16004KT 10SM SCT050 12/06 A3013 RMK AO2 SLP201 T01170056=
202405180353 METAR KBFI 180353Z 24004KT 10SM SCT050 13/04 A3012 RMK AO2 SLP198 T01330044=
202405180253 METAR KBFI 180253Z 21004KT 10SM BKN065 14/04 A3012 RMK AO2 SLP197 T01440039 58003=
202405180153 METAR KBFI 180153Z 25010G17KT 10SM OVC060 16/04 A3012 RMK AO2 SLP200 T01560039=
202405180053 METAR KBFI 180053Z 19005KT 10SM OVC060 16/04 A3012 RMK AO2 SLP199 T01610039=
202405172353 METAR KBFI 172353Z 20007KT 10SM OVC060 16/03 A3013 RMK AO2 SLP201 T01610033 10172 20133 56006=
202405172253 METAR KBFI 172253Z 19007KT 10SM BKN065 OVC075 16/04 A3013 RMK AO2 SLP202 T01610039=
202405172153 METAR KBFI 172153Z 23009G18KT 10SM FEW055 OVC080 16/03 A3014 RMK AO2 SLP205 T01610033=
202405172053 METAR KBFI 172053Z 18010G19KT 10SM BKN050 17/03 A3014 RMK AO2 SLP207 T01670028 58002=
202405171953 METAR KBFI 171953Z 10SM FEW055 BKN075 16/03 A3015 RMK AO2 SLP209 T01560028=
202405171853 METAR KBFI 171853Z 17011G20KT 10SM SCT029 15/04 A3015 RMK AO2 SLP210 T01500039=
202405171753 METAR KBFI 171753Z 20007G16KT 10SM FEW039 13/03 A3015 RMK AO2 SLP210 T01280033 10139 20083 51011=
202405171653 METAR KBFI 171653Z 17011KT 10SM SCT030 13/04 A3015 RMK AO2 SLP208 T01280044=
202405171553 METAR KBFI 171553Z 18009KT 10SM SCT024 BKN049 11/05 A3014 RMK AO2 SLP205 T01110050=
202405171453 METAR KBFI 171453Z 17011KT 10SM SCT024 BKN049 10/04 A3012 RMK AO2 SLP199 T01000044 53030=
202405171353 METAR KBFI 171353Z 16007KT 10SM BKN024 09/04 A3009 RMK AO2 SLP187 T00890044=
202405171253 METAR KBFI 171253Z 14009KT 10SM BKN024 09/04 A3006 RMK AO2 SLP178 T00890044=
202405171153 METAR KBFI 171153Z 16008KT 10SM SCT029 09/04 A3003 RMK AO2 SLP169 60003 70003 T00940039 10122 20089 53015=
202405171116 SPECI KBFI 171116Z 15008KT 10SM BKN030 OVC047 09/04 A3003 RMK AO2 T00940039=
202405171053 METAR KBFI 171053Z 17008KT 10SM OVC029 09/04 A3002 RMK AO2 SLP164 T00940044=
202405170953 METAR KBFI 170953Z 18007KT 10SM OVC026 10/05 A3000 RMK AO2 SLP157 T01000050=
202405170853 METAR KBFI 170853Z 08007KT 10SM OVC023 11/06 A2999 RMK AO2 RAE25 SLP154 P0000 60003 T01060061 51017=
202405170753 METAR KBFI 170753Z 07004KT 5SM -RA FEW015 OVC020 11/07 A2997 RMK AO2 RAB35 SLP149 P0003 T01060072 401890106=
202405170653 METAR KBFI 170653Z VRB03KT 10SM BKN023 OVC033 12/07 A2996 RMK AO2 SLP144 T01220067=
202405170553 METAR KBFI 170553Z 19008KT 10SM BKN026 12/07 A2994 RMK AO2 SLP137 T01220067 10167 20122 51020=
202405170453 METAR KBFI 170453Z VRB06G14KT 10SM FEW045 13/06 A2992 RMK AO2 SLP133 T01330061=
202405170353 METAR KBFI 170353Z 20008KT 10SM FEW039 FEW070 14/06 A2991 RMK AO2 SLP127 T01440061=
202405170253 METAR KBFI 170253Z 22008KT 190V260 10SM SCT025 15/08 A2988 RMK AO2 SLP117 T01500083 57010=
202405170153 METAR KBFI 170153Z 24009KT 10SM SCT030 SCT095 16/08 A2989 RMK AO2 SLP121 T01610083=
202405170053 METAR KBFI 170053Z 25008G21KT 210V280 10SM BKN034 17/09 A2990 RMK AO2 SLP124 T01670094=
202405162353 METAR KBFI 162353Z 22012G19KT 200V260 10SM BKN032 17/09 A2991 RMK AO2 PK WND 18028/2300 SLP127 T01670094 10189 20133 55004=
202405162253 METAR KBFI 162253Z 19013G23KT 10SM FEW033 17/09 A2990 RMK AO2 SLP124 T01720094=
202405162153 METAR KBFI 162153Z 21011G24KT 10SM BKN033 BKN110 19/11 A2991 RMK AO2 PK WND 20028/2136 SLP128 T01890106=
202405162053 METAR KBFI 162053Z 18014G20KT 10SM OVC016 18/11 A2992 RMK AO2 SLP132 T01830106 58024=
202405161953 METAR KBFI 161953Z 15012KT 10SM OVC016 16/10 A2995 RMK AO2 SLP143 T01560100=
202405161928 SPECI KBFI 161928Z 16011G25KT 10SM SCT016 BKN029 BKN044 16/10 A2996 RMK AO2 T01560100=
202405161918 SPECI KBFI 161918Z 17011KT 10SM FEW021 SCT029 BKN044 16/10 A2997 RMK AO2 T01560100=
202405161853 METAR KBFI 161853Z 17013G21KT 10SM BKN019 OVC025 16/10 A2998 RMK AO2 SLP150 T01560100=
202405161753 METAR KBFI 161753Z 17011KT 10SM OVC015 13/09 A2999 RMK AO2 SLP155 T01330094 10139 20111 58002=
202405161653 METAR KBFI 161653Z 19007KT 8SM OVC010 12/09 A3001 RMK AO2 SLP163 T01220094=
202405161553 METAR KBFI 161553Z VRB04KT 10SM BKN011 OVC019 12/09 A3001 RMK AO2 SLP162 T01220089=
202405161502 SPECI KBFI 161502Z 17008KT 10SM BKN008 OVC012 12/09 A3000 RMK AO2 T01170094=
202405161453 METAR KBFI 161453Z 17007KT 10SM SCT009 OVC012 12/09 A3000 RMK AO2 SLP158 T01170094 58002=
202405161423 SPECI KBFI 161423Z 18004KT 4SM BR BKN008 OVC014 11/09 A3000 RMK AO2 T01110094=
202405161353 METAR KBFI 161353Z 20006KT 10SM BKN012 OVC024 11/09 A3001 RMK AO2 SLP161 T01110089=
202405161253 METAR KBFI 161253Z 19006KT 9SM OVC012 12/09 A3001 RMK AO2 SLP161 T01170094=
202405161153 METAR KBFI 161153Z 19006KT 10SM OVC010 12/09 A3000 RMK AO2 SLP159 T01220094 10167 20122 50002=
202405161053 METAR KBFI 161053Z 22005KT 10SM BKN012 OVC018 12/09 A3001 RMK AO2 SLP161 T01220094=
202405161019 SPECI KBFI 161019Z VRB03KT 10SM BKN013 OVC018 13/09 A3000 RMK AO2 T01280094=
202405160953 METAR KBFI 160953Z 21003KT 10SM OVC018 13/09 A3000 RMK AO2 SLP160 T01280094=
202405160853 METAR KBFI 160853Z 26003KT 10SM SCT033 BKN200 13/09 A3000 RMK AO2 SLP157 T01280094 50001=
202405160753 METAR KBFI 160753Z 05003KT 10SM CLR 15/09 A3001 RMK AO2 SLP162 T01500094 402440122=
202405160653 METAR KBFI 160653Z 00000KT 10SM CLR 16/09 A3001 RMK AO2 SLP160 T01560094=
202405160553 METAR KBFI 160553Z VRB03KT 10SM CLR 17/09 A2999 RMK AO2 SLP157 T01670094 10244 20167 52003=
202405160453 METAR KBFI 160453Z AUTO VRB03KT 10SM CLR 18/10 A3000 RMK AO2 SLP157 T01780100=
202405160353 METAR KBFI 160353Z AUTO 30005KT 10SM CLR 18/10 A2999 RMK AO2 SLP154 T01830100=
202405160253 METAR KBFI 160253Z 30006KT 10SM BKN250 21/09 A2999 RMK AO2 SLP154 T02060094 56018=
202405160153 METAR KBFI 160153Z 32005KT 10SM CLR 24/10 A3000 RMK AO2 SLP158 T02390100=
202405160053 METAR KBFI 160053Z VRB03KT 10SM CLR 24/09 A3002 RMK AO2 SLP164 T02440094=
202405152353 METAR KBFI 152353Z VRB04KT 10SM CLR 24/09 A3004 RMK AO2 SLP172 T02390094 10244 20183 57019=
202405152253 METAR KBFI 152253Z VRB04KT 10SM CLR 24/09 A3006 RMK AO2 SLP179 T02390089=
202405152153 METAR KBFI 152153Z VRB05KT 10SM BKN250 23/09 A3007 RMK AO2 SLP183 T02280089=
202405152053 METAR KBFI 152053Z 31004KT 10SM BKN250 22/09 A3010 RMK AO2 SLP191 T02170089 58018=
202405151953 METAR KBFI 151953Z 02004KT 10SM BKN150 20/09 A3011 RMK AO2 SLP197 T02000089=
202405151853 METAR KBFI 151853Z 10SM BKN150 19/10 A3014 RMK AO2 SLP205 T01940100=
202405151753 METAR KBFI 151753Z 30005KT 10SM CLR 18/10 A3015 RMK AO2 SLP208 T01830100 10183 20122 58007=
202405151653 METAR KBFI 151653Z 00000KT 10SM BKN250 17/09 A3016 RMK AO2 SLP211 T01720094=
202405151553 METAR KBFI 151553Z 33004KT 10SM SCT150 16/09 A3017 RMK AO2 SLP217 T01560094=
202405151453 METAR KBFI 151453Z 36004KT 10SM CLR 14/08 A3017 RMK AO2 SLP215 T01440083 55001=
202405151353 METAR KBFI 151353Z 00000KT 10SM BKN250 13/08 A3016 RMK AO2 SLP213 T01330083=
202405151253 METAR KBFI 151253Z 00000KT 10SM CLR 13/08 A3016 RMK AO2 SLP214 T01280078=
202405151153 METAR KBFI 151153Z 00000KT 10SM CLR 13/08 A3017 RMK AO2 SLP217 T01330078 10167 20128 51004=
202405151053 METAR KBFI 151053Z 00000KT 10SM CLR 14/08 A3017 RMK AO2 SLP217 T01390078=
202405150953 METAR KBFI 150953Z 00000KT 10SM CLR 14/08 A3016 RMK AO2 SLP214 T01390078=
202405150853 METAR KBFI 150853Z 00000KT 10SM CLR 14/08 A3016 RMK AO2 SLP213 T01390078 58006=
202405150753 METAR KBFI 150753Z 00000KT 10SM CLR 14/08 A3017 RMK AO2 SLP217 T01440078 402280111=
202405150653 METAR KBFI 150653Z 00000KT 10SM CLR 16/08 A3018 RMK AO2 SLP219 T01560078=
202405150553 METAR KBFI 150553Z 00000KT 10SM CLR 17/08 A3018 RMK AO2 SLP219 T01670078 10228 20167 50004=
202405150453 METAR KBFI 150453Z 03003KT 10SM CLR 17/07 A3018 RMK AO2 SLP220 T01720072=
202405150353 METAR KBFI 150353Z VRB04KT 10SM CLR 18/07 A3017 RMK AO2 SLP217 T01830067=
202405150253 METAR KBFI 150253Z VRB04KT 10SM CLR 20/07 A3017 RMK AO2 SLP214 T02000072 55002=
202405150153 METAR KBFI 150153Z 04007KT 10SM CLR 21/07 A3016 RMK AO2 SLP213 T02110067=
202405150053 METAR KBFI 150053Z VRB05KT 10SM BKN250 22/07 A3017 RMK AO2 SLP214 T02170067=
202405142353 METAR KBFI 142353Z 36008G15KT 10SM FEW050 BKN250 22/06 A3017 RMK AO2 SLP216 T02220061 10222 20161 57008=
202405142253 METAR KBFI 142253Z 29010KT 10SM FEW050 21/08 A3018 RMK AO2 SLP218 T02060078=
202405142153 METAR KBFI 142153Z 30011G18KT 10SM FEW050 21/07 A3019 RMK AO2 SLP223 T02060072=
202405142053 METAR KBFI 142053Z 30011G19KT 10SM CLR 19/08 A3020 RMK AO2 SLP224 T01940078 58005=
202405141953 METAR KBFI 141953Z 32008KT 10SM CLR 19/08 A3020 RMK AO2 SLP226 T01890083=
202405141853 METAR KBFI 141853Z 29007KT 10SM CLR 18/08 A3021 RMK AO2 SLP231 T01780078=
202405141753 METAR KBFI 141753Z 31005KT 10SM CLR 17/08 A3021 RMK AO2 SLP230 T01670083 10167 20111 50002=
202405141653 METAR KBFI 141653Z 29006KT 10SM SCT220 15/08 A3021 RMK AO2 SLP231 T01500078=
202405141553 METAR KBFI 141553Z 00000KT 10SM FEW050 14/08 A3021 RMK AO2 SLP230 T01440078=
202405141453 METAR KBFI 141453Z 07005KT 10SM CLR 13/07 A3021 RMK AO2 SLP228 T01330072 51007=
202405141353 METAR KBFI 141353Z 00000KT 10SM CLR 12/07 A3020 RMK AO2 SLP226 T01170072=
202405141253 METAR KBFI 141253Z 00000KT 10SM BKN050 12/07 A3019 RMK AO2 SLP223 T01170067=
202405141153 METAR KBFI 141153Z 00000KT 10SM OVC055 12/07 A3018 RMK AO2 SLP220 T01170067 10133 20111 51010=
202405141053 METAR KBFI 141053Z AUTO 00000KT 10SM FEW049 OVC060 12/07 A3018 RMK AO2 SLP219 T01170067=
202405140953 METAR KBFI 140953Z 00000KT 10SM BKN050 12/06 A3016 RMK AO2 SLP213 T01170061=
202405140853 METAR KBFI 140853Z 00000KT 10SM FEW036 12/06 A3015 RMK AO2 SLP211 T01170061 50006=
202405140753 METAR KBFI 140753Z 00000KT 10SM CLR 12/06 A3016 RMK AO2 SLP212 T01220061 401830117=
202405140653 METAR KBFI 140653Z VRB04KT 10SM CLR 12/07 A3015 RMK AO2 SLP210 T01220067=
202405140553 METAR KBFI 140553Z VRB05KT 10SM FEW048 13/07 A3014 RMK AO2 SLP205 T01330067 10183 20133 51014=
202405140453 METAR KBFI 140453Z VRB04KT 10SM BKN047 14/08 A3013 RMK AO2 SLP202 T01440078=
202405140353 METAR KBFI 140353Z 01005KT 10SM BKN050 OVC070 15/08 A3011 RMK AO2 SLP196 T01500083=
202405140253 METAR KBFI 140253Z VRB04KT 10SM BKN046 OVC060 17/09 A3010 RMK AO2 SLP191 T01670089 53006=
202405140153 METAR KBFI 140153Z VRB04KT 10SM OVC050 18/09 A3008 RMK AO2 SLP185 T01780094=
202405140053 METAR KBFI 140053Z 31004KT 10SM BKN038 17/09 A3008 RMK AO2 SLP184 T01720089=
202405132353 METAR KBFI 132353Z 00000KT 10SM SCT047 18/09 A3008 RMK AO2 SLP185 T01780089 10183 20139 58008=
202405132259 METAR KBFI 132259Z 24003KT 10SM SCT120 20/03 A2995=
202405132253 METAR KBFI 132253Z 34004KT 10SM FEW030 17/09 A3009 RMK AO2 SLP190 T01720094=
202405132153 METAR KBFI 132153Z VRB06KT 10SM OVC032 16/09 A3011 RMK AO2 SLP195 T01610094=
202405132053 METAR KBFI 132053Z 23006KT 10SM OVC030 17/09 A3010 RMK AO2 SLP193 T01670094 56003=
202405132000 SPECI KBFI 132000Z 25006KT 10SM OVC022 16/09 A3010 RMK AO2 T01560094=
202405131953 METAR KBFI 131953Z 24005KT 10SM OVC012 16/09 A3010 RMK AO2 SLP192 T01560094=
202405131853 METAR KBFI 131853Z 22005KT 10SM OVC012 15/09 A3010 RMK AO2 SLP193 T01500094=
202405131753 METAR KBFI 131753Z 22005KT 10SM OVC012 14/10 A3011 RMK AO2 SLP196 T01390100 10144 20133 52009=
202405131653 METAR KBFI 131653Z 26004KT 10SM OVC012 14/09 A3010 RMK AO2 SLP192 T01390094=
202405131553 METAR KBFI 131553Z 00000KT 10SM OVC012 14/09 A3010 RMK AO2 SLP191 T01390089=
202405131453 METAR KBFI 131453Z VRB03KT 10SM BKN022 OVC060 13/09 A3008 RMK AO2 SLP187 T01330089 53019=
202405131353 METAR KBFI 131353Z 05006KT 10SM BKN022 OVC060 13/09 A3007 RMK AO2 SLP181 T01330089=
202405131253 METAR KBFI 131253Z 05006KT 10SM OVC060 13/10 A3005=
202405131153 METAR KBFI 131153Z 04006KT 10SM BKN060 15/08 A3001=
202405130853 METAR KBFI 130853Z VRB03KT 10SM CLR 15/08 A3001 RMK AO2 SLP163 T01500083 53009=
202405130753 METAR KBFI 130753Z 00000KT 10SM SCT070 SCT090 16/09 A2999 RMK AO2 SLP156 T01610089 402440128=
202405130653 METAR KBFI 130653Z VRB04KT 10SM BKN075 BKN090 16/09 A2999 RMK AO2 SLP155 T01610089=
202405130553 METAR KBFI 130553Z VRB03KT 10SM FEW080 SCT110 17/08 A2999 RMK AO2 SLP154 T01670083 10244 20167 51012=
202405130453 METAR KBFI 130453Z 35007KT 10SM OVC080 18/08 A2998 RMK AO2 SLP152 T01780078=
202405130353 METAR KBFI 130353Z 00000KT 10SM SCT080 18/07 A2997 RMK AO2 SLP147 T01830072=
202405130253 METAR KBFI 130253Z 03006KT 10SM SCT075 BKN110 21/07 A2995 RMK AO2 SLP142 T02060072 53006=
202405130153 METAR KBFI 130153Z VRB06KT 10SM CLR 23/06 A2994 RMK AO2 SLP137 T02280061=
202405130053 METAR KBFI 130053Z 31005G15KT 10SM CLR 23/08 A2993 RMK AO2 SLP136 T02330083=
202405122353 METAR KBFI 122353Z 31005KT 10SM CLR 24/08 A2993 RMK AO2 SLP136 T02390078 10244 20194 56008=
202405122253 METAR KBFI 122253Z 32007KT 290V360 10SM CLR 24/10 A2994 RMK AO2 SLP138 T02440100=
202405122153 METAR KBFI 122153Z VRB04KT 10SM CLR 23/09 A2995 RMK AO2 SLP140 T02330089=
202405122053 METAR KBFI 122053Z 00000KT 10SM CLR 23/09 A2996 RMK AO2 SLP143 T02280089 58008=
202405121953 METAR KBFI 121953Z VRB05KT 10SM FEW100 22/08 A2996 RMK AO2 SLP146 T02220078=
202405121853 METAR KBFI 121853Z 27005KT 10SM CLR 21/08 A2998 RMK AO2 SLP151 T02060083=
202405121753 METAR KBFI 121753Z VRB04KT 10SM CLR 19/09 A2998 RMK AO2 SLP152 T01940089 10200 20128 51001 $=
202405121653 METAR KBFI 121653Z 10SM CLR 18/09 A2998 RMK AO2 SLP150 T01830094 $=
202405121553 METAR KBFI 121553Z 00000KT 10SM CLR 17/09 A2999 RMK AO2 SLP153 T01720094 $=
202405121453 METAR KBFI 121453Z 00000KT 10SM CLR 16/09 A2998 RMK AO2 SLP151 T01560089 51009 $=
202405121353 METAR KBFI 121353Z 00000KT 10SM CLR 14/08 A2997 RMK AO2 SLP149 T01440083 $=
202405121253 METAR KBFI 121253Z 00000KT 10SM CLR 13/08 A2996 RMK AO2 SLP145 T01280078 $=
202405121153 METAR KBFI 121153Z AUTO 30003KT 10SM CLR 14/08 A2995 RMK AO2 SLP141 T01390083 10200 20139 51010 $=
202405121053 METAR KBFI 121053Z AUTO 00000KT 10SM CLR 14/08 A2994 RMK AO2 SLP140 T01440078 $=
202405120953 METAR KBFI 120953Z AUTO 05003KT 10SM CLR 16/07 A2993 RMK AO2 SLP134 T01610072 $=
202405120853 METAR KBFI 120853Z AUTO VRB03KT 10SM CLR 17/07 A2992 RMK AO2 SLP132 T01720072 53009 $=
202405120753 METAR KBFI 120753Z AUTO 00000KT 10SM CLR 18/07 A2991 RMK AO2 SLP128 T01830072 402940122 $=
202405120653 METAR KBFI 120653Z AUTO 00000KT 10SM CLR 19/07 A2990 RMK AO2 SLP125 T01890072 $=
202405120553 METAR KBFI 120553Z AUTO 00000KT 10SM CLR 21/08 A2989 RMK AO2 SLP122 T02060078 10294 20206 51013 $=
202405120453 METAR KBFI 120453Z 00000KT 10SM CLR 22/08 A2989 RMK AO2 SLP120 T02220083 $=
202405120353 METAR KBFI 120353Z VRB03KT 10SM CLR 22/08 A2987 RMK AO2 SLP114 T02220078 $=
202405120253 METAR KBFI 120253Z 31007KT 10SM CLR 26/05 A2986 RMK AO2 SLP109 T02560050 55004 $=
202405120153 METAR KBFI 120153Z 31007KT 10SM CLR 27/06 A2985 RMK AO2 SLP108 T02720056 $=
202405120053 METAR KBFI 120053Z 30006KT 10SM CLR 28/04 A2986 RMK AO2 SLP111 T02830044 $=
202405112353 METAR KBFI 112353Z 28004KT 10SM CLR 29/04 A2987 RMK AO2 SLP114 T02890044 10289 20217 56017 $=
202405112253 METAR KBFI 112253Z VRB03KT 10SM CLR 28/06 A2988 RMK AO2 SLP118 T02830056 $=
202405112153 METAR KBFI 112153Z 31004KT 10SM CLR 28/07 A2990 RMK AO2 SLP125 T02780072 $=
202405112053 METAR KBFI 112053Z VRB05KT 10SM CLR 26/09 A2992 RMK AO2 SLP131 T02560089 58009 $=
202405111953 METAR KBFI 111953Z AUTO 31006KT 10SM CLR 24/09 A2993 RMK AO2 SLP136 T02440094 $=
202405111853 METAR KBFI 111853Z VRB03KT 10SM CLR 23/10 A2994 RMK AO2 SLP140 T02280100 $=
202405111753 METAR KBFI 111753Z VRB03KT 10SM CLR 22/10 A2994 RMK AO2 SLP140 T02170100 10217 20122 58002 $=
202405111653 METAR KBFI 111653Z 31004KT 10SM CLR 21/11 A2995 RMK AO2 SLP141 T02060106 $=
202405111553 METAR KBFI 111553Z 33004KT 10SM CLR 18/11 A2995 RMK AO2 SLP142 T01780106 $=
202405111453 METAR KBFI 111453Z 00000KT 10SM CLR 17/12 A2995 RMK AO2 SLP142 T01670117 53001 $=
202405111353 METAR KBFI 111353Z 00000KT 10SM CLR 14/11 A2995 RMK AO2 SLP142 T01440111 $=
202405111253 METAR KBFI 111253Z 13003KT 10SM CLR 13/10 A2995 RMK AO2 SLP141 T01330100 $=
202405111153 METAR KBFI 111153Z 00000KT 10SM CLR 14/10 A2995 RMK AO2 SLP141 T01390100 10194 20139 57001 $=
202405111053 METAR KBFI 111053Z 00000KT 10SM CLR 14/10 A2995 RMK AO2 SLP142 T01440100 $=
202405110953 METAR KBFI 110953Z 00000KT 10SM CLR 16/10 A2995 RMK AO2 SLP143 T01560100 $=
202405110853 METAR KBFI 110853Z 00000KT 10SM CLR 16/10 A2995 RMK AO2 SLP143 T01610100 51002 $=
202405110753 METAR KBFI 110753Z 00000KT 10SM CLR 17/10 A2995 RMK AO2 SLP142 T01720100 402830106 $=
202405110653 METAR KBFI 110653Z 00000KT 10SM CLR 18/10 A2995 RMK AO2 SLP141 T01830100 $=
202405110553 METAR KBFI 110553Z 00000KT 10SM CLR 19/10 A2995 RMK AO2 SLP141 T01940100 10283 20194 50002 $=
202405110453 METAR KBFI 110453Z 00000KT 10SM CLR 22/09 A2995 RMK AO2 SLP142 T02170094 $=
202405110353 METAR KBFI 110353Z 00000KT 10SM FEW250 23/10 A2994 RMK AO2 SLP140 T02280100 $=
202405110253 METAR KBFI 110253Z 31005KT 10SM CLR 24/11 A2994 RMK AO2 SLP139 T02440106 56015 $=
202405110153 METAR KBFI 110153Z 32005KT 10SM CLR 26/10 A2995 RMK AO2 SLP141 T02610100 $=
202405110053 METAR KBFI 110053Z 32006KT 10SM CLR 28/08 A2997 RMK AO2 SLP147 T02780078 $=
202405102353 METAR KBFI 102353Z 31006KT 10SM CLR 28/08 A2999 RMK AO2 SLP154 T02780078 10283 20222 58025=
202405102253 METAR KBFI 102253Z VRB05KT 10SM CLR 28/06 A3001 RMK AO2 SLP163 T02780061=
202405102153 METAR KBFI 102153Z 29008KT 10SM FEW250 27/06 A3004 RMK AO2 SLP171 T02670061=
202405102053 METAR KBFI 102053Z VRB05KT 10SM CLR 26/07 A3006 RMK AO2 SLP179 T02560067 58024=
202405101953 METAR KBFI 101953Z 32007KT 10SM FEW250 24/07 A3009 RMK AO2 SLP190 T02440072=
202405101853 METAR KBFI 101853Z 31006KT 10SM CLR 23/07 A3012 RMK AO2 SLP198 T02330072=
202405101753 METAR KBFI 101753Z VRB04KT 10SM CLR 22/09 A3013 RMK AO2 SLP203 T02220089 10222 20106 58013=
202405101653 METAR KBFI 101653Z 30004KT 10SM CLR 21/09 A3015 RMK AO2 SLP209 T02060089=
202405101553 METAR KBFI 101553Z 07005KT 10SM CLR 18/08 A3017 RMK AO2 SLP215 T01830083=
202405101453 METAR KBFI 101453Z VRB03KT 10SM CLR 16/09 A3017 RMK AO2 SLP216 T01560089 56004=
202405101353 METAR KBFI 101353Z 00000KT 10SM CLR 13/09 A3018 RMK AO2 SLP218 T01280089=
202405101253 METAR KBFI 101253Z 00000KT 10SM CLR 12/08 A3017 RMK AO2 SLP217 T01170078=
202405101153 METAR KBFI 101153Z 00000KT 10SM CLR 12/08 A3018 RMK AO2 SLP220 T01170078 10194 20117 55003=
202405101053 METAR KBFI 101053Z 00000KT 10SM CLR 13/08 A3018 RMK AO2 SLP219 T01330083=
202405100953 METAR KBFI 100953Z 00000KT 10SM CLR 14/08 A3019 RMK AO2 SLP221 T01390083=
202405100853 METAR KBFI 100853Z 00000KT 10SM CLR 14/07 A3019 RMK AO2 SLP223 T01390072 57004=
202405100753 METAR KBFI 100753Z 00000KT 10SM CLR 16/07 A3019 RMK AO2 SLP224 T01610072 402390089=
202405100653 METAR KBFI 100653Z 00000KT 10SM CLR 17/07 A3020 RMK AO2 SLP226 T01720067=
202405100553 METAR KBFI 100553Z 00000KT 10SM CLR 19/06 A3020 RMK AO2 SLP227 T01940061 10239 20189 50005=
202405100453 METAR KBFI 100453Z 00000KT 10SM CLR 19/08 A3021 RMK AO2 SLP229 T01890083=
202405100353 METAR KBFI 100353Z 29003KT 10SM CLR 19/09 A3020 RMK AO2 SLP225 T01890089=
202405100253 METAR KBFI 100253Z 33003KT 10SM CLR 23/08 A3019 RMK AO2 SLP222 T02280083 56013=
202405100153 METAR KBFI 100153Z VRB05KT 10SM CLR 23/09 A3020 RMK AO2 SLP225 T02330089=
202405100053 METAR KBFI 100053Z 32007KT 10SM CLR 23/09 A3021 RMK AO2 SLP228 T02330089=
202405092353 METAR KBFI 092353Z 31007G16KT 10SM CLR 22/09 A3023 RMK AO2 SLP235 T02220089 10222 20178 56022=
202405092253 METAR KBFI 092253Z 31007G16KT 10SM CLR 22/08 A3025 RMK AO2 SLP242 T02220083=
202405092153 METAR KBFI 092153Z 31010G18KT 10SM CLR 21/08 A3027 RMK AO2 SLP250 T02110078=
202405092053 METAR KBFI 092053Z 32010G19KT 10SM CLR 20/08 A3029 RMK AO2 SLP257 T02000078 58022=
202405091953 METAR KBFI 091953Z 31006KT 10SM CLR 20/08 A3032 RMK AO2 SLP267 T02000083=
202405091853 METAR KBFI 091853Z 00000KT 10SM CLR 19/08 A3035 RMK AO2 SLP276 T01890083=
202405091753 METAR KBFI 091753Z 30007KT 10SM CLR 18/08 A3036 RMK AO2 SLP279 T01780078 10183 20089 58012=
202405091653 METAR KBFI 091653Z 00000KT 10SM CLR 16/07 A3037 RMK AO2 SLP284 T01560072=
202405091553 METAR KBFI 091553Z VRB03KT 10SM CLR 14/07 A3039 RMK AO2 SLP292 T01440072=
202405091453 METAR KBFI 091453Z 01004KT 10SM CLR 12/07 A3039 RMK AO2 SLP291 T01220067 53006=
202405091353 METAR KBFI 091353Z 31003KT 10SM CLR 10/06 A3038 RMK AO2 SLP288 T01000061=
202405091253 METAR KBFI 091253Z 00000KT 10SM CLR 09/06 A3038 RMK AO2 SLP286 T00940061=
202405091153 METAR KBFI 091153Z 00000KT 10SM CLR 10/06 A3037 RMK AO2 SLP285 T01000056 10133 20094 56002=
202405091053 METAR KBFI 091053Z VRB03KT 10SM CLR 11/06 A3037 RMK AO2 SLP285 T01060056=
202405090953 METAR KBFI 090953Z 00000KT 10SM CLR 11/06 A3038 RMK AO2 SLP285 T01060056=
202405090853 METAR KBFI 090853Z 00000KT 10SM CLR 11/04 A3038 RMK AO2 SLP286 T01110044 56001=
202405090753 METAR KBFI 090753Z 00000KT 10SM CLR 12/05 A3038 RMK AO2 SLP287 T01170050 401890067=
202405090653 METAR KBFI 090653Z 04005KT 10SM CLR 12/04 A3038 RMK AO2 SLP286 T01220044=
202405090553 METAR KBFI 090553Z VRB05KT 10SM CLR 13/04 A3038 RMK AO2 SLP287 T01330039 10183 20133 52002=
202405090453 METAR KBFI 090453Z 00000KT 10SM CLR 14/03 A3038 RMK AO2 SLP287 T01390033=
202405090353 METAR KBFI 090353Z VRB03KT 10SM CLR 15/03 A3038 RMK AO2 SLP286 T01500028=
202405090253 METAR KBFI 090253Z VRB04KT 10SM CLR 17/03 A3037 RMK AO2 SLP285 T01670028 56007=
202405090153 METAR KBFI 090153Z VRB06KT 10SM CLR 17/03 A3038 RMK AO2 SLP288 T01720028=
202405090053 METAR KBFI 090053Z 31009KT 10SM CLR 18/03 A3038 RMK AO2 SLP288 T01780028=
202405082353 METAR KBFI 082353Z 31009G22KT 10SM CLR 18/02 A3040 RMK AO2 SLP292 T01830022 10189 20128 58014=
202405082253 METAR KBFI 082253Z 34008G18KT 10SM CLR 18/02 A3041 RMK AO2 SLP296 T01830022=
202405082153 METAR KBFI 082153Z 30009G18KT 10SM SCT035 17/04 A3043 RMK AO2 SLP303 T01670044=
202405082053 METAR KBFI 082053Z 31008KT 10SM SCT050 17/04 A3044 RMK AO2 SLP306 T01670039 58004=
202405081953 METAR KBFI 081953Z 30005KT 10SM SCT040 15/06 A3044 RMK AO2 SLP309 T01500056=
202405081853 METAR KBFI 081853Z VRB05KT 10SM SCT033 14/05 A3045 RMK AO2 SLP309 T01390050=
202405081753 METAR KBFI 081753Z 10SM SCT029 14/05 A3045 RMK AO2 SLP310 T01390050 10139 20067 58002=
202405081737 SPECI KBFI 081737Z 00000KT 10SM BKN029 13/05 A3045 RMK AO2 T01330050=
202405081653 METAR KBFI 081653Z 32004KT 10SM SCT025 12/05 A3046 RMK AO2 SLP314 T01220050=
202405081553 METAR KBFI 081553Z 05006KT 10SM CLR 11/04 A3046 RMK AO2 SLP315 T01060044=
202405081453 METAR KBFI 081453Z 00000KT 10SM FEW200 10/04 A3046 RMK AO2 SLP313 T01000044 51011=
202405081353 METAR KBFI 081353Z 00000KT 10SM CLR 08/04 A3045 RMK AO2 SLP309 T00830044=
202405081253 METAR KBFI 081253Z 00000KT 10SM CLR 07/03 A3044 RMK AO2 SLP306 T00670033=
202405081153 METAR KBFI 081153Z 00000KT 10SM CLR 07/04 A3042 RMK AO2 SLP302 T00720039 10100 20067 51012=
202405081053 METAR KBFI 081053Z 00000KT 10SM CLR 07/04 A3041 RMK AO2 SLP298 T00720039=
202405080953 METAR KBFI 080953Z 00000KT 10SM CLR 08/04 A3040 RMK AO2 SLP295 T00780039=
202405080853 METAR KBFI 080853Z 00000KT 10SM CLR 08/04 A3039 RMK AO2 SLP291 T00830039 51010=
202405080753 METAR KBFI 080753Z 00000KT 10SM CLR 09/04 A3038 RMK AO2 SLP288 T00940039 401610067=
202405080653 METAR KBFI 080653Z VRB03KT 10SM CLR 10/04 A3038 RMK AO2 SLP285 T01000039=
202405080553 METAR KBFI 080553Z 17003KT 10SM CLR 10/04 A3036 RMK AO2 SLP280 T01000039 10150 20100 51021=
202405080453 METAR KBFI 080453Z VRB04KT 10SM CLR 11/04 A3034 RMK AO2 SLP275 T01110044=
202405080353 METAR KBFI 080353Z 00000KT 10SM CLR 13/04 A3032 RMK AO2 SLP266 T01280044=
202405080253 METAR KBFI 080253Z 00000KT 10SM BKN080 13/04 A3030 RMK AO2 SLP259 T01330044 51005=
202405080153 METAR KBFI 080153Z 30004KT 10SM SCT070 OVC085 14/03 A3030 RMK AO2 SLP259 T01390028=
202405080053 METAR KBFI 080053Z VRB04KT 10SM BKN070 BKN090 14/02 A3029 RMK AO2 SLP257 T01440017=
202405072353 METAR KBFI 072353Z 10SM SCT050 BKN095 16/03 A3028 RMK AO2 SLP254 T01560028 10161 20111 53004=
202405072253 METAR KBFI 072253Z 05007KT 010V070 10SM BKN046 14/04 A3027 RMK AO2 SLP251 T01440039=
202405072153 METAR KBFI 072153Z 27005KT 10SM CLR 14/03 A3027 RMK AO2 SLP250 T01440028=
202405072053 METAR KBFI 072053Z 29004KT 10SM BKN065 BKN085 14/03 A3027 RMK AO2 SLP249 T01390028 53004=
202405071953 METAR KBFI 071953Z 32004KT 10SM BKN038 BKN043 BKN055 13/03 A3025 RMK AO2 SLP244 T01280033=
202405071853 METAR KBFI 071853Z 15004KT 10SM SCT038 BKN047 BKN070 13/05 A3026 RMK AO2 SLP246 T01330050=
202405071753 METAR KBFI 071753Z VRB05KT 10SM SCT024 BKN065 12/05 A3026 RMK AO2 SLP245 T01170050 10117 20067 51016=
202405071653 METAR KBFI 071653Z 14008KT 10SM BKN013 OVC045 11/05 A3024 RMK AO2 SLP241 T01060050=
202405071553 METAR KBFI 071553Z 14009KT 10SM BKN014 09/05 A3023 RMK AO2 SLP235 T00890050=
202405071453 METAR KBFI 071453Z 18005KT 10SM BKN014 08/04 A3021 RMK AO2 SLP229 T00780044 53021=
202405071353 METAR KBFI 071353Z 14007KT 10SM SCT025 07/04 A3019 RMK AO2 SLP223 T00670044=
202405071253 METAR KBFI 071253Z 14006KT 10SM FEW055 FEW080 07/04 A3017 RMK AO2 SLP214 T00670044=
202405071153 METAR KBFI 071153Z 15004KT 10SM SCT024 08/05 A3015 RMK AO2 SLP208 60010 70017 T00780050 10094 20067 53024=
202405071053 METAR KBFI 071053Z 00000KT 10SM OVC020 08/06 A3012 RMK AO2 SLP200 T00780056=
202405070953 METAR KBFI 070953Z 07006KT 10SM OVC017 07/05 A3010 RMK AO2 RAE0859 SLP193 P0000 T00720050=
202405070853 METAR KBFI 070853Z 14003KT 9SM -RA BKN017 BKN023 OVC034 08/06 A3008 RMK AO2 SLP184 P0008 60010 T00780056 53021=
202405070816 SPECI KBFI 070816Z 00000KT 3SM -RA FEW017 BKN030 OVC050 08/05 A3006 RMK AO2 P0004 T00780050=
202405070753 METAR KBFI 070753Z VRB03KT 6SM -RA OVC023 08/04 A3005 RMK AO2 RAB31 SLP176 P0002 T00830044 401390083=
202405070725 SPECI KBFI 070725Z 18005KT 10SM BKN024 OVC050 08/04 A3004 RMK AO2 T00830044=
202405070653 METAR KBFI 070653Z VRB04KT 10SM SCT036 BKN050 09/04 A3003 RMK AO2 SLP168 T00890044=
202405070611 SPECI KBFI 070611Z 19008KT 10SM SCT025 OVC032 09/04 A3002 RMK AO2 T00890044=
202405070553 METAR KBFI 070553Z 19007KT 10SM OVC023 09/05 A3001 RMK AO2 SLP163 60007 T00940050 10128 20089 51019=
202405070453 METAR KBFI 070453Z VRB03KT 10SM BKN023 OVC032 09/06 A3000 RMK AO2 SLP160 T00940056=
202405070353 METAR KBFI 070353Z 06005KT 10SM BKN022 OVC034 10/06 A2999 RMK AO2 SLP154 T01000061=
202405070253 METAR KBFI 070253Z 00000KT 10SM SCT030 BKN050 BKN060 11/07 A2996 RMK AO2 RAE31 SLP145 P0006 60007 T01060067 52014=
202405070153 METAR KBFI 070153Z 31006KT 6SM -RA BKN030 BKN042 11/07 A2995 RMK AO2 RAB30 SLP140 P0001 T01110067=
202405070053 METAR KBFI 070053Z 29003KT 10SM SCT050 BKN100 12/06 A2993 RMK AO2 RAB2356E12 SLP135 P0000 T01170061=
202405062353 METAR KBFI 062353Z 28007KT 250V310 10SM BKN030 BKN044 12/06 A2992 RMK AO2 SLP131 T01220056 10139 20111 50001=
202405062253 METAR KBFI 062253Z 20006G16KT 10SM BKN085 14/06 A2992 RMK AO2 SLP132 T01390056=
202405062153 METAR KBFI 062153Z 21013G20KT 10SM SCT025 BKN095 13/06 A2992 RMK AO2 SLP131 T01330056=
202405062053 METAR KBFI 062053Z 20011G26KT 10SM SCT025 BKN085 BKN120 13/05 A2992 RMK AO2 PK WND 26026/2048 SLP130 T01280050 53007=
202405061953 METAR KBFI 061953Z 19011G22KT 10SM SCT030 BKN100 12/04 A2990 RMK AO2 SLP126 T01220044=
202405061853 METAR KBFI 061853Z 19010G17KT 10SM SCT020 BKN030 12/05 A2991 RMK AO2 SLP126 T01220050=
202405061753 METAR KBFI 061753Z 20007G15KT 10SM SCT020 BKN025 12/06 A2989 RMK AO2 SLP123 60000 T01170056 10122 20089 53011=
202405061700 SPECI KBFI 061700Z 20009G22KT 170V240 10SM SCT028 12/06 A2989 RMK AO2 T01170056=
202405061653 METAR KBFI 061653Z 19015G23KT 10SM BKN022 11/05 A2989 RMK AO2 SLP121 T01110050=
202405061553 METAR KBFI 061553Z 19011G23KT 150V220 10SM BKN022 11/05 A2987 RMK AO2 SLP113 T01060050=
202405061453 METAR KBFI 061453Z 18011G17KT 10SM SCT017 BKN022 10/06 A2986 RMK AO2 SLP112 60000 T01000061 53010=
202405061353 METAR KBFI 061353Z 17010KT 10SM FEW010 SCT040 09/06 A2984 RMK AO2 RAB12E21 SLP105 P0000 T00940061=
202405061253 METAR KBFI 061253Z 17009KT 10SM FEW012 SCT046 09/07 A2984 RMK AO2 RAB21E30 SLP104 P0000 T00890067=
202405061153 METAR KBFI 061153Z 18011KT 10SM FEW048 09/06 A2983 RMK AO2 SLP102 60000 70004 T00940061 10100 20089 53001=
202405061100 SPECI KBFI 061100Z 18007KT 10SM FEW015 BKN055 OVC085 09/06 A2982 RMK AO2 T00940061=
202405061053 METAR KBFI 061053Z 19008KT 10SM SCT018 BKN025 OVC090 09/06 A2982 RMK AO2 RAB25E37 SLP098 P0000 T00940061=
202405060953 METAR KBFI 060953Z 15007KT 7SM BKN020 OVC035 09/07 A2982 RMK AO2 SLP097 T00940072=
202405060853 METAR KBFI 060853Z 15009KT 10SM SCT028 OVC035 09/07 A2983 RMK AO2 SLP101 T00890067 58011=
202405060753 METAR KBFI 060753Z 15010KT 10SM SCT026 OVC046 09/07 A2985 RMK AO2 SLP109 T00940067 401220094=
202405060653 METAR KBFI 060653Z 17008KT 8SM FEW019 SCT026 OVC034 09/07 A2986 RMK AO2 SLP113 T00940067=
202405060553 METAR KBFI 060553Z 19009G17KT 10SM SCT080 OVC100 10/06 A2986 RMK AO2 SLP112 T01000061 10117 20100 51009=
202405060453 METAR KBFI 060453Z 17010KT 10SM SCT030 BKN034 BKN080 10/07 A2986 RMK AO2 SLP112 T01000067=
202405060353 METAR KBFI 060353Z 19009G17KT 10SM BKN042 BKN055 10/07 A2985 RMK AO2 SLP106 T01000067=
202405060253 METAR KBFI 060253Z 18009G18KT 10SM SCT015 BKN040 BKN080 11/07 A2984 RMK AO2 PK WND 21029/0157 SLP103 T01060067 53018=
202405060153 METAR KBFI 060153Z 21016G29KT 10SM BKN040 OVC090 11/06 A2981 RMK AO2 PK WND 20034/0121 SLP095 T01110061=
202405060053 METAR KBFI 060053Z 20010G30KT 10SM BKN021 OVC070 12/07 A2979 RMK AO2 PK WND 21030/0046 SLP086 T01170072=
202405052353 METAR KBFI 052353Z 19014G24KT 10SM BKN021 OVC070 12/08 A2978 RMK AO2 SLP085 60000 T01170078 10122 20100 53001=
202405052253 METAR KBFI 052253Z 18013G22KT 10SM FEW026 OVC070 12/08 A2978 RMK AO2 PK WND 18026/2228 SLP084 T01170078=
202405052153 METAR KBFI 052153Z 18011G18KT 10SM BKN016 OVC023 12/08 A2978 RMK AO2 SLP084 T01170078=
202405052116 SPECI KBFI 052116Z 17013G18KT 10SM BKN013 OVC023 11/08 A2978 RMK AO2 T01110083=
202405052053 METAR KBFI 052053Z 16015G20KT 10SM BKN017 OVC025 11/08 A2978 RMK AO2 SLP084 60000 T01110083 51007=
202405052000 SPECI KBFI 052000Z 16013G22KT 10SM BKN017 OVC025 11/08 A2978 RMK AO2 T01110083=
202405051953 METAR KBFI 051953Z 17013G20KT 8SM OVC012 11/08 A2978 RMK AO2 SLP083 T01110078=
202405051853 METAR KBFI 051853Z 17011G21KT 8SM OVC012 10/08 A2977 RMK AO2 RAE14 SLP081 P0000 T01000083=
202405051753 METAR KBFI 051753Z 16010KT 6SM -RA BR SCT008 OVC011 10/08 A2976 RMK AO2 RAB02 SLP077 P0004 60004 T01000083 10100 20100 53014=
202405051653 METAR KBFI 051653Z 16009G16KT 6SM BR SCT008 OVC011 10/08 A2975 RMK AO2 SLP072 T01000083=
202405051553 METAR KBFI 051553Z 15010KT 10SM SCT008 OVC011 10/08 A2973 RMK AO2 SLP068 T01000083=
202405051537 SPECI KBFI 051537Z 15009G17KT 10SM OVC011 10/08 A2973 RMK AO2 T01000083=
202405051453 METAR KBFI 051453Z 15010G18KT 10SM OVC006 10/08 A2972 RMK AO2 SLP064 T01000083 51014=
202405051353 METAR KBFI 051353Z 16009KT 7SM OVC006 10/09 A2971 RMK AO2 SLP059 T01000089=
202405051253 METAR KBFI 051253Z 14009KT 10SM OVC007 10/09 A2969 RMK AO2 SLP054 T01000089=
202405051153 METAR KBFI 051153Z 14007KT 5SM BR OVC007 10/09 A2968 RMK AO2 SLP050 70004 T01000089 10117 20100 53009=
202405051053 METAR KBFI 051053Z 16005KT 9SM OVC006 11/09 A2966 RMK AO2 SLP044 T01060089=
202405050953 METAR KBFI 050953Z 17007KT 10SM OVC006 11/09 A2965 RMK AO2 SLP041 T01060089=
202405050853 METAR KBFI 050853Z 16007KT 10SM OVC007 11/09 A2965 RMK AO2 SLP040 T01060089 53008=
202405050753 METAR KBFI 050753Z 17008KT 10SM OVC007 11/09 A2964 RMK AO2 CIG 006V010 SLP037 T01110094 401440111=
202405050653 METAR KBFI 050653Z 17009KT 10SM OVC007 11/09 A2963 RMK AO2 SLP034 T01110094=
202405050553 METAR KBFI 050553Z 16006KT 10SM OVC007 11/10 A2963 RMK AO2 SLP033 60000 T01110100 10139 20111 51010=
202405050453 METAR KBFI 050453Z 17005KT 10SM BKN008 BKN017 OVC050 11/10 A2963 RMK AO2 SLP032 T01110100=
202405050410 SPECI KBFI 050410Z 15007KT 10SM BKN008 BKN017 OVC050 12/09 A2962 RMK AO2 T01170094=
202405050353 METAR KBFI 050353Z 15006KT 10SM SCT008 BKN017 OVC050 12/09 A2961 RMK AO2 RAE04 SLP028 P0000 T01170094=
202405050253 METAR KBFI 050253Z 17005KT 10SM -RA FEW008 BKN017 OVC050 12/11 A2960 RMK AO2 RAB45 SLP023 P0000 60000 T01220106 53015=
202405050242 SPECI KBFI 050242Z 00000KT 10SM FEW008 BKN015 OVC055 12/11 A2959 RMK AO2 T01220106=
202405050215 SPECI KBFI 050215Z 22006KT 10SM BKN010 OVC060 13/11 A2958 RMK AO2 T01330106=
202405050153 METAR KBFI 050153Z 30004KT 10SM FEW013 BKN060 OVC070 13/10 A2958 RMK AO2 RAE04 SLP015 P0000 T01330100=
202405050053 METAR KBFI 050053Z 00000KT 10SM -RA BKN050 OVC070 13/11 A2956 RMK AO2 SLP010 P0000 T01330106=
202405042353 METAR KBFI 042353Z 00000KT 9SM -RA OVC070 13/10 A2956 RMK AO2 SLP008 P0000 60002 T01330100 10144 20128 51013=
202405042253 METAR KBFI 042253Z 31003KT 6SM -RA OVC070 13/10 A2955 RMK AO2 SLP006 P0002 T01280100=
202405042153 METAR KBFI 042153Z 31006KT 9SM -RA OVC070 13/09 A2954 RMK AO2 SLP001 P0000 T01330094=
202405042053 METAR KBFI 042053Z 32007KT 8SM -RA OVC070 13/09 A2952 RMK AO2 RAB04 SLP995 P0000 60000 T01280094 56002=
202405041953 METAR KBFI 041953Z 30006KT 10SM OVC070 14/09 A2952 RMK AO2 SLP995 T01390089=
202405041853 METAR KBFI 041853Z AUTO 34006KT 10SM FEW020 BKN050 OVC100 14/08 A2952 RMK AO2 SLP996 T01390083=
202405041753 METAR KBFI 041753Z VRB04KT 10SM OVC085 13/09 A2952 RMK AO2 SLP997 60002 T01280089 10128 20117 58004=
202405041653 METAR KBFI 041653Z VRB04KT 10SM OVC090 12/09 A2953 RMK AO2 SLP000 T01220089=
202405041553 METAR KBFI 041553Z VRB04KT 10SM BKN080 OVC090 12/09 A2953 RMK AO2 RAB03E24 SLP001 P0000 T01220094=
202405041453 METAR KBFI 041453Z VRB04KT 10SM OVC075 12/09 A2954 RMK AO2 RAE48 SLP002 P0002 60002 T01170094 56012=
202405041353 METAR KBFI 041353Z 00000KT 8SM -RA OVC075 12/09 A2955 RMK AO2 RAB28 SLP005 P0000 T01170094=
202405041253 METAR KBFI 041253Z VRB04KT 10SM FEW050 BKN085 OVC100 12/08 A2955 RMK AO2 SLP005 T01220083=
202405041153 METAR KBFI 041153Z 00000KT 10SM FEW027 FEW035 OVC110 12/08 A2957 RMK AO2 SLP014 T01220083 10133 20122 56021=
202405041053 METAR KBFI 041053Z 00000KT 10SM OVC100 12/09 A2959 RMK AO2 SLP019 T01220089=
202405040953 METAR KBFI 040953Z 00000KT 10SM OVC095 12/09 A2961 RMK AO2 SLP025 T01220089=
202405040853 METAR KBFI 040853Z 00000KT 10SM OVC100 12/09 A2964 RMK AO2 SLP035 T01220089 58021=
202405040753 METAR KBFI 040753Z 00000KT 10SM OVC090 12/09 A2966 RMK AO2 SLP045 T01220089 402000072=
202405040653 METAR KBFI 040653Z 20004KT 10SM BKN065 OVC085 13/08 A2967 RMK AO2 SLP048 T01280083=
202405040553 METAR KBFI 040553Z 00000KT 10SM FEW055 FEW070 OVC085 13/07 A2970 RMK AO2 SLP056 T01330072 10183 20133 58010=
202405040453 METAR KBFI 040453Z 00000KT 10SM OVC095 14/07 A2971 RMK AO2 SLP061 T01390072=
202405040353 METAR KBFI 040353Z 00000KT 10SM OVC110 14/07 A2972 RMK AO2 SLP065 T01390067=
202405040253 METAR KBFI 040253Z 25010G20KT 10SM OVC100 15/06 A2973 RMK AO2 SLP066 T01500056 58012=
202405040153 METAR KBFI 040153Z AUTO 23004KT 10SM OVC090 18/05 A2974 RMK AO2 SLP071 T01780050=
202405040053 METAR KBFI 040053Z 00000KT 10SM FEW055 BKN075 OVC090 18/06 A2975 RMK AO2 SLP075 T01780056=
202405032353 METAR KBFI 032353Z 28006KT 10SM OVC100 18/05 A2976 RMK AO2 SLP078 T01830050 10200 20161 56023=
202405032253 METAR KBFI 032253Z 22007KT 10SM CLR 19/04 A2978 RMK AO2 SLP083 T01940039=
202405032153 METAR KBFI 032153Z 10SM FEW060 OVC200 20/04 A2980 RMK AO2 SLP092 T02000039=
202405032053 METAR KBFI 032053Z 26005KT 10SM FEW060 OVC200 19/03 A2983 RMK AO2 SLP101 T01890033 56035=
202405031953 METAR KBFI 031953Z 28006KT 10SM FEW060 BKN190 19/05 A2986 RMK AO2 SLP111 T01940050=
202405031853 METAR KBFI 031853Z VRB03KT 10SM CLR 18/06 A2989 RMK AO2 SLP121 T01780056=
202405031753 METAR KBFI 031753Z VRB04KT 10SM CLR 17/06 A2993 RMK AO2 SLP136 T01670056 10167 20072 58014=
202405031653 METAR KBFI 031653Z 14004KT 10SM SCT250 14/06 A2995 RMK AO2 SLP142 T01440056=
202405031553 METAR KBFI 031553Z 15003KT 10SM CLR 12/04 A2996 RMK AO2 SLP146 T01220044=
202405031453 METAR KBFI 031453Z 00000KT 10SM CLR 11/04 A2998 RMK AO2 SLP150 T01060044 57016=
202405031353 METAR KBFI 031353Z 00000KT 10SM CLR 08/04 A3000 RMK AO2 SLP157 T00830044=
202405031253 METAR KBFI 031253Z 13003KT 10SM CLR 08/03 A3000 RMK AO2 SLP159 T00780033=
202405031153 METAR KBFI 031153Z 00000KT 10SM CLR 09/03 A3002 RMK AO2 SLP166 T00890033 10128 20072 58009=
202405031053 METAR KBFI 031053Z 12005KT 10SM CLR 08/03 A3003 RMK AO2 SLP169 T00830033=
202405030953 METAR KBFI 030953Z 14006KT 10SM CLR 08/04 A3005 RMK AO2 SLP174 T00830039=
202405030853 METAR KBFI 030853Z 14006KT 10SM CLR 09/04 A3005 RMK AO2 SLP176 T00940039 51007=
202405030753 METAR KBFI 030753Z 13006KT 10SM CLR 11/04 A3005 RMK AO2 SLP175 T01110039 401940067=
202405030653 METAR KBFI 030653Z 15006KT 10SM CLR 10/04 A3004 RMK AO2 SLP172 T01000039=
202405030553 METAR KBFI 030553Z 00000KT 10SM CLR 11/04 A3003 RMK AO2 SLP169 T01060039 10194 20100 51006=
202405030453 METAR KBFI 030453Z 00000KT 10SM CLR 14/04 A3003 RMK AO2 SLP168 T01390044=
202405030353 METAR KBFI 030353Z 00000KT 10SM CLR 16/04 A3002 RMK AO2 SLP164 T01560039=
202405030253 METAR KBFI 030253Z AUTO 30003KT 10SM CLR 17/02 A3001 RMK AO2 SLP163 T01720022 51001=
202405030153 METAR KBFI 030153Z 29005KT 10SM CLR 18/M01 A3001 RMK AO2 SLP163 T01831006=
202405030053 METAR KBFI 030053Z 30007KT 270V330 10SM CLR 19/M02 A3001 RMK AO2 SLP163 T01891017=
202405022353 METAR KBFI 022353Z VRB06KT 10SM CLR 19/M01 A3001 RMK AO2 SLP162 T01891006 10194 20128 58009=
202405022253 METAR KBFI 022253Z 31008G14KT 10SM CLR 18/01 A3002 RMK AO2 SLP166 T01830011=
202405022153 METAR KBFI 022153Z 31006G17KT 10SM SCT060 17/04 A3003 RMK AO2 SLP170 T01670039=
202405022053 METAR KBFI 022053Z 30007G17KT 290V360 10SM CLR 16/06 A3004 RMK AO2 SLP171 T01610056 56005=
202405021953 METAR KBFI 021953Z 31009G17KT 10SM CLR 15/06 A3004 RMK AO2 SLP173 T01500061=
202405021853 METAR KBFI 021853Z 31010G18KT 10SM CLR 14/06 A3004 RMK AO2 SLP173 T01440056=
202405021753 METAR KBFI 021753Z 32007KT 10SM FEW026 13/06 A3005 RMK AO2 SLP176 T01280056 10133 20067 58002=
202405021653 METAR KBFI 021653Z VRB05KT 10SM SCT024 12/06 A3006 RMK AO2 SLP178 T01170056=
202405021553 METAR KBFI 021553Z VRB04KT 10SM SCT016 10/05 A3006 RMK AO2 SLP179 T01000050=
202405021453 METAR KBFI 021453Z 10SM SCT016 09/06 A3006 RMK AO2 SLP178 T00940056 53011=
202405021353 METAR KBFI 021353Z 02003KT 10SM SCT020 08/05 A3004 RMK AO2 SLP173 T00830050=
202405021253 METAR KBFI 021253Z 00000KT 10SM FEW020 07/03 A3003 RMK AO2 SLP168 T00670033=
202405021153 METAR KBFI 021153Z 00000KT 10SM SCT170 07/03 A3002 RMK AO2 SLP167 T00720033 10111 20072 55002=
202405021053 METAR KBFI 021053Z 33003KT 10SM CLR 08/04 A3002 RMK AO2 SLP164 T00830044=
202405020953 METAR KBFI 020953Z 00000KT 10SM CLR 08/04 A3003 RMK AO2 SLP168 T00830044=
202405020853 METAR KBFI 020853Z 00000KT 10SM BKN200 09/04 A3003 RMK AO2 SLP169 T00890039 57009=
202405020753 METAR KBFI 020753Z 00000KT 10SM CLR 10/04 A3004 RMK AO2 SLP173 T01000044 401560044=
202405020653 METAR KBFI 020653Z 00000KT 10SM BKN160 11/05 A3005 RMK AO2 SLP175 T01060050=
202405020553 METAR KBFI 020553Z 31005KT 10SM BKN160 11/04 A3006 RMK AO2 SLP178 T01110044 10156 20111 58002=
202405020453 METAR KBFI 020453Z 30004KT 10SM CLR 12/03 A3007 RMK AO2 SLP182 T01220028=
202405020353 METAR KBFI 020353Z 27004KT 10SM BKN250 13/02 A3006 RMK AO2 SLP180 T01280017=
202405020253 METAR KBFI 020253Z 25004KT 10SM CLR 14/M01 A3006 RMK AO2 SLP180 T01391006 56014=
202405020153 METAR KBFI 020153Z 00000KT 10SM SCT040 15/M02 A3007 RMK AO2 SLP183 T01501022=
202405020053 METAR KBFI 020053Z 10SM SCT040 15/M01 A3009 RMK AO2 SLP190 T01501006=
202405012353 METAR KBFI 012353Z 10SM SCT035 16/00 A3011 RMK AO2 SLP194 T01560000 10156 20106 56023=
202405012253 METAR KBFI 012253Z VRB05KT 10SM CLR 15/01 A3013 RMK AO2 SLP201 T01500011=
202405012153 METAR KBFI 012153Z 21005KT 10SM SCT025 14/02 A3015 RMK AO2 SLP209 T01440017=
202405012053 METAR KBFI 012053Z 20006KT 10SM SCT025 14/02 A3017 RMK AO2 SLP217 T01390022 58017=
202405011953 METAR KBFI 011953Z 21006KT 10SM SCT025 13/03 A3020 RMK AO2 SLP226 T01330028=
202405011853 METAR KBFI 011853Z 19008KT 10SM SCT035 12/04 A3022 RMK AO2 SLP232 T01220044=
202405011753 METAR KBFI 011753Z 20007KT 170V240 10SM BKN022 12/05 A3023 RMK AO2 SLP235 T01170050 10117 20044 58006=
202405011653 METAR KBFI 011653Z 19008KT 160V220 10SM BKN020 11/05 A3024 RMK AO2 SLP239 T01060050=
202405011553 METAR KBFI 011553Z 21005KT 10SM BKN019 09/05 A3025 RMK AO2 SLP242 T00890050=
202405011453 METAR KBFI 011453Z 14004KT 10SM BKN021 08/04 A3024 RMK AO2 SLP241 T00830044 50000=
202405011353 METAR KBFI 011353Z 13003KT 10SM BKN017 BKN050 07/04 A3025 RMK AO2 SLP241 T00670044=
202405011253 METAR KBFI 011253Z 12003KT 10SM BKN012 BKN017 BKN020 05/03 A3024 RMK AO2 SLP241 T00500028=
202405011153 METAR KBFI 011153Z 14005KT 10SM CLR 05/03 A3024 RMK AO2 SLP241 T00500028 10094 20044 51005=
202405011053 METAR KBFI 011053Z 15007KT 10SM CLR 04/03 A3024 RMK AO2 SLP240 T00440028=
202405010953 METAR KBFI 010953Z 15006KT 10SM CLR 05/03 A3024 RMK AO2 SLP238 T00500033=
202405010853 METAR KBFI 010853Z 15007KT 10SM CLR 05/03 A3023 RMK AO2 SLP236 T00500028 52009=
202405010753 METAR KBFI 010753Z 16004KT 10SM CLR 07/03 A3022 RMK AO2 SLP233 T00670028 401330061=
202405010653 METAR KBFI 010653Z 15005KT 10SM CLR 07/03 A3021 RMK AO2 SLP230 T00670028=
202405010553 METAR KBFI 010553Z 00000KT 10SM CLR 09/02 A3020 RMK AO2 SLP227 T00940017 10133 20094 51022=
202405010453 METAR KBFI 010453Z 00000KT 10SM CLR 10/M01 A3019 RMK AO2 SLP224 T01001006=
202405010353 METAR KBFI 010353Z 00000KT 10SM CLR 11/M02 A3017 RMK AO2 SLP215 T01111017=
202405010253 METAR KBFI 010253Z VRB03KT 10SM CLR 12/00 A3014 RMK AO2 SLP205 T01220000 53013=
202405010153 METAR KBFI 010153Z 30007KT 10SM SCT050 13/02 A3012 RMK AO2 SLP200 T01280017=
202405010053 METAR KBFI 010053Z 30009G15KT 290V350 10SM SCT050 13/01 A3011 RMK AO2 SLP196 T01330011=

# No short TAF reports from KBFI in databse.

###################################
#  large TAF from KBFI
###################################
202405312320 TAF KBFI 312320Z 0100/0124 30008KT P6SM SCT250 FM010300 31004KT
                       P6SM SCT120 BKN200 FM010900 VRB03KT P6SM
                       BKN080 OVC120 FM011400 18003KT P6SM -RA
                       OVC030 FM012000 20007KT P6SM OVC030=
202405311720 TAF KBFI 311720Z 3118/0118 32005KT P6SM SCT250 FM010300 31004KT
                       P6SM SCT120 BKN200 FM010900 16004KT P6SM
                       BKN080 OVC120 FM011400 18003KT P6SM -RA
                       OVC030=
202405311122 TAF KBFI 311122Z 3112/0112 VRB03KT P6SM SCT250 FM311800 32005KT
                       P6SM SCT250 FM010300 31004KT P6SM SCT120
                       BKN200 FM010900 16004KT P6SM BKN080 OVC120=
202405310524 TAF KBFI 310524Z 3106/0106 33005KT P6SM SCT070 SCT250 FM310700
                       VRB03KT P6SM SCT250 FM311800 32007KT P6SM
                       SCT250=
202405302320 TAF KBFI 302320Z 3100/3124 VRB04KT P6SM SCT045 SCT250 FM310400
                       33005KT P6SM SCT070 SCT250 FM310700 VRB03KT
                       P6SM SCT250 FM311800 32007KT P6SM SCT250=
202405301720 TAF KBFI 301720Z 3018/3118 VRB03KT P6SM BKN025 BKN045 FM302000
                       30005KT P6SM SCT030 BKN050 FM302300 21007KT
                       P6SM BKN070 FM310400 33005KT P6SM SCT070
                       SCT200 FM310700 VRB03KT P6SM SCT200=
202405301120 TAF KBFI 301120Z 3012/3112 16004KT P6SM BKN030 OVC045 FM301700
                       VRB03KT P6SM FEW030 BKN045 FM301900 30005KT
                       P6SM BKN060 FM310300 33005KT P6SM SCT070
                       SCT200 FM310700 VRB03KT P6SM FEW200=
202405300859 KBFI 300859Z 3009/3106 VRB04KT P6SM VCSH SCT030 BKN045 FM301100
                       16005KT P6SM OVC035 FM301600 VRB03KT P6SM
                       FEW030 BKN045 FM301900 30005KT P6SM BKN060
                       FM310300 33005KT P6SM SCT070 SCT200=
202405300536 TAF KBFI 300536Z 3006/3106 VRB04KT P6SM VCSH SCT030 BKN045 FM301100
                       16005KT P6SM OVC030 FM301600 VRB03KT P6SM
                       FEW030 BKN045 FM301900 30005KT P6SM BKN060
                       FM310300 33005KT P6SM SCT070 SCT200=
202405292320 TAF KBFI 292320Z 3000/3024 VRB05KT P6SM VCSH SCT040 OVC050 FM300100
                       36007KT P6SM VCSH SCT030 BKN045 FM300900
                       18005KT P6SM OVC025 FM301700 22005KT P6SM
                       BKN035=
202405292057 KBFI 292057Z 2921/3018 36008KT P6SM VCSH SCT040 OVC050 FM300100
                       36007KT P6SM VCSH SCT030 BKN045 FM300900
                       18005KT P6SM OVC025 FM301700 22005KT P6SM
                       BKN035=
202405292013 KBFI 292013Z 2920/3018 VRB05KT P6SM -RA VCTS BKN011 BKN050CB OVC070
                       FM292100 33008KT P6SM VCSH SCT035 OVC045
                       FM300100 36007KT P6SM VCSH SCT030 BKN045
                       FM300900 18005KT P6SM OVC025 FM301700 22005KT
                       P6SM BKN035=
202405291957 KBFI 291957Z 2920/3018 VRB05KT P6SM VCTS BKN011 BKN050CB OVC070
                       FM292100 33008KT P6SM VCSH SCT035 OVC045
                       FM300100 36007KT P6SM VCSH SCT030 BKN045
                       FM300900 18005KT P6SM OVC025 FM301700 22005KT
                       P6SM BKN035=
202405291955 KBFI 291955Z 2920/3018 20009G18KT P6SM VCTS BKN025 BKN070 BKN090CB
                       FM292100 33008KT P6SM VCSH SCT035 OVC045
                       FM300100 36007KT P6SM VCSH SCT030 BKN045
                       FM300900 18005KT P6SM OVC025 FM301700 22005KT
                       P6SM BKN035=
202405291907 KBFI 291907Z 2919/3018 20009G18KT P6SM VCTS BKN025 BKN070 BKN090CB
                       FM292000 33008KT P6SM VCSH SCT035 OVC045
                       FM300100 36007KT P6SM VCSH SCT030 BKN045
                       FM300900 18005KT P6SM OVC025 FM301700 22005KT
                       P6SM BKN035=
202405291902 KBFI 291902Z 2919/3018 20009G18KT P6SM -SHRA BKN025 BKN070 BKN090
                       FM292000 33008KT P6SM VCSH SCT035 OVC045
                       FM300100 36007KT P6SM VCSH SCT030 BKN045
                       FM300900 18005KT P6SM OVC025 FM301700 22005KT
                       P6SM BKN035=
202405291849 KBFI 291849Z 2919/3018 20009G18KT P6SM VCSH SCT040 BKN070 BKN090
                       FM292000 33008KT P6SM VCSH SCT035 OVC045
                       FM300100 36007KT P6SM VCSH SCT030 BKN045
                       FM300900 18005KT P6SM OVC025 FM301700 22005KT
                       P6SM BKN035=
202405291727 TAF KBFI 291727Z 2918/3018 20009G18KT P6SM VCSH SCT040 BKN070 BKN090
                       FM292100 33008KT P6SM VCSH SCT035 OVC045
                       FM300100 36007KT P6SM VCSH SCT030 BKN045
                       FM300900 18005KT P6SM OVC025 FM301700 22005KT
                       P6SM BKN035=
202405291609 KBFI 291609Z 2916/3012 19009G16KT P6SM VCSH SCT020 BKN060 FM291900
                       21009KT P6SM -SHRA SCT020 OVC035 FM292100
                       29008KT P6SM -SHRA SCT030 OVC045 FM300100
                       36007KT P6SM VCSH SCT030 BKN045 FM300900
                       18005KT P6SM OVC030=
202405291457 KBFI 291457Z 2915/3012 17006KT P6SM VCSH BKN015 OVC035 FM291900
                       21009KT P6SM -SHRA SCT020 OVC035 FM292100
                       29008KT P6SM -SHRA SCT030 OVC045 FM300100
                       36007KT P6SM VCSH SCT030 BKN045 FM300900
                       18005KT P6SM OVC030=
202405291454 KBFI 291454Z 2915/3012 17006KT P6SM VCSH BKN015 OVC035 FM291900
                       21009KT P6SM -SHRA SCT020 OVC035 FM292100
                       29008KT P6SM -SHRA SCT030 OVC045 FM300100
                       36007KT P6SM VCSH SCT030 BKN045 FM300900
                       18005KT P6SM OVC030=
202405291127 TAF KBFI 291127Z 2912/3012 17004KT P6SM BKN015 FM291500 17006KT
                       P6SM VCSH BKN020 OVC035 FM291900 21009KT
                       P6SM -SHRA SCT020 OVC035 FM292100 29008KT
                       P6SM -SHRA SCT030 OVC045 FM300100 36007KT
                       P6SM VCSH SCT030 BKN045 FM300900 18005KT
                       P6SM OVC030=
202405290919 KBFI 290919Z 2909/3006 17004KT P6SM BKN020 FM291300 17004KT P6SM
                       OVC020 FM292000 21010KT P6SM -SHRA SCT030
                       OVC040 FM300400 18008KT P6SM SCT030 BKN045=
202405290538 TAF KBFI 290538Z 2906/3006 17004KT P6SM BKN050 FM291300 17004KT
                       P6SM OVC030 FM292000 21010KT P6SM -SHRA
                       SCT030 OVC040 FM300400 18008KT P6SM SCT030
                       BKN045=
202405290204 KBFI 290204Z 2902/2924 35010KT P6SM BKN040 FM290600 17008KT P6SM
                       BKN040 FM291400 16006KT P6SM OVC025 FM292000
                       23010KT P6SM -SHRA OVC030=
202405282329 TAF KBFI 282329Z 2900/2924 35010G20KT P6SM FEW020 BKN035 OVC040
                       FM290300 17008KT P6SM BKN040 FM291400 16006KT
                       P6SM OVC025 FM292000 23010KT P6SM -SHRA
                       OVC030=
202405282059 KBFI 282059Z 2821/2918 18011KT P6SM VCSH SCT020 BKN060 OVC070 FM282300
                       35010KT P6SM BKN045 FM290400 17008KT P6SM
                       BKN050 FM291000 16006KT P6SM OVC035 FM291500
                       16008KT P6SM OVC030=
202405281741 KBFI 281741Z 2818/2918 18011KT P6SM VCSH BKN018 OVC050 FM282300
                       VRB05KT P6SM BKN045 FM290400 17008KT P6SM
                       BKN050 FM291000 16006KT P6SM OVC035 FM291500
                       16008KT P6SM OVC030=
202405281735 KBFI 281735Z 2818/2918 20011KT P6SM VCSH BKN020 OVC050 FM282300
                       VRB05KT P6SM BKN045 FM290400 17008KT P6SM
                       BKN050 FM291000 16006KT P6SM OVC035 FM291500
                       16008KT P6SM OVC030=
202405281733 TAF KBFI 281733Z 2818/2918 20011KT P6SM VCSH SCT030 BKN035 OVC060
                       FM282300 VRB05KT P6SM BKN045 FM290400 17008KT
                       P6SM BKN050 FM291000 16006KT P6SM OVC035
                       FM291500 16008KT P6SM OVC030=
202405281605 KBFI 281605Z 2816/2912 19006KT P6SM -RA SCT030 BKN050 OVC080 FM281900
                       20011KT P6SM VCSH BKN035 BKN045 FM282300
                       22009KT P6SM SCT030 BKN050 FM290300 17008KT
                       P6SM BKN050 FM291000 16006KT P6SM OVC030=
202405281457 KBFI 281457Z 2815/2912 19006KT P6SM -RA SCT015 OVC025 FM281900
                       20011KT P6SM VCSH BKN030 BKN045 FM282300
                       22009KT P6SM SCT030 BKN050 FM290300 17008KT
                       P6SM BKN050 FM291000 16006KT P6SM OVC030=
202405281125 TAF KBFI 281125Z 2812/2912 18006KT P6SM SCT030 OVC045 FM281400
                       18006KT P6SM -RA SCT015 OVC025 FM281900
                       20011KT P6SM VCSH BKN030 BKN045 FM282300
                       22009KT P6SM SCT030 BKN050 FM290300 17008KT
                       P6SM BKN050 FM291000 16006KT P6SM OVC030=
202405280538 TAF KBFI 280538Z 2806/2906 33006KT P6SM BKN150 FM281100 18006KT
                       P6SM SCT030 OVC050 FM281400 18006KT P6SM
                       -RA SCT015 OVC025 FM281900 19010KT P6SM
                       SCT030 BKN045 FM290300 16008KT P6SM BKN050=
202405272333 TAF KBFI 272333Z 2800/2824 00000KT P6SM SCT030 BKN150 FM280500
                       33005KT P6SM SCT050 BKN100 FM281100 21006KT
                       P6SM SCT025 BKN045 FM281300 20006KT P6SM
                       OVC025 FM281800 20008KT P6SM VCSH OVC025
                       FM282100 20011KT P6SM -RA OVC025=
202405271736 TAF KBFI 271736Z 2718/2818 20007KT P6SM FEW015 SCT030 BKN200 FM272000
                       24006KT P6SM SCT050 BKN150 FM280000 34006KT
                       P6SM BKN150 FM280500 33005KT P6SM SCT050
                       BKN100 FM281100 21006KT P6SM SCT025 BKN045
                       FM281300 20006KT P6SM OVC025=
202405271354 KBFI 271354Z 2714/2812 17004KT P6SM OVC035
                      TEMPO 2714/2716 BKN025 OVC040 FM271700 18005KT
                       P6SM BKN050 FM272000 21006KT P6SM SCT050
                       BKN150 FM280100 33006KT P6SM BKN150 FM280500
                       02005KT P6SM BKN100 FM281000 VRB04KT P6SM
                       SCT025 BKN050=
202405271145 TAF KBFI 271145Z 2712/2812 15004KT P6SM BKN035
                      TEMPO 2712/2715 BKN025 OVC040 FM271700 18005KT
                       P6SM BKN050 FM272000 21006KT P6SM SCT050
                       BKN150 FM280100 33006KT P6SM BKN150 FM280500
                       02005KT P6SM BKN100 FM281000 VRB04KT P6SM
                       SCT025 BKN050=
202405270901 KBFI 270901Z 2709/2806 16004KT P6SM SCT025 OVC035
                      TEMPO 2711/2715 BKN025 OVC040 FM271800 17004KT
                       P6SM BKN050 FM272000 21006KT P6SM SCT050
                       BKN150 FM280000 31006KT P6SM BKN150=
202405270536 TAF KBFI 270536Z 2706/2806 17004KT P6SM SCT025 OVC040
                      TEMPO 2711/2715 BKN025 OVC040 FM271800 17004KT
                       P6SM BKN050 FM272000 21006KT P6SM SCT050
                       BKN150 FM280000 31006KT P6SM BKN150=
202405262326 TAF KBFI 262326Z 2700/2724 17009G17KT P6SM VCSH SCT060 BKN080 OVC100
                       FM270200 20008KT P6SM SCT060 BKN080 OVC100
                       FM270800 18005KT P6SM OVC050 FM271800 18004KT
                       P6SM SCT050 SCT250 FM272100 23007KT P6SM
                       BKN250=
202405262011 KBFI 262011Z 2620/2718 20007KT P6SM -SHRA BKN023 BKN040 OVC060
                       FM262100 20012G20KT P6SM VCSH SCT025 BKN040
                       OVC060 FM270200 20008KT P6SM SCT025 BKN035
                       OVC050 FM270800 18005KT P6SM SCT020 OVC050
                       FM271500 18004KT P6SM BKN100=
202405261728 TAF KBFI 261728Z 2618/2718 15009KT P6SM -SHRA OVC017 FM262100 20012G20KT
                       P6SM VCSH SCT020 BKN030 OVC035 FM270200
                       20008KT P6SM SCT025 BKN035 OVC050 FM270800
                       18005KT P6SM SCT020 OVC050 FM271500 18004KT
                       P6SM BKN100=
202405261140 TAF KBFI 261140Z 2612/2712 17008KT P6SM SCT020 OVC025 FM261400
                       17008KT P6SM -SHRA SCT010 BKN015 OVC025
                       FM262100 19010KT P6SM VCSH SCT015 BKN025
                       OVC040 FM270200 16008KT P6SM SCT025 BKN040
                       OVC060=
202405260538 TAF KBFI 260538Z 2606/2706 19010KT P6SM SCT025 OVC040
                      TEMPO 2608/2610 BKN025 OVC040 FM261000 19010KT
                       P6SM OVC025 FM261400 17008KT P6SM -SHRA
                       SCT010 BKN015 OVC025 FM262100 19010KT P6SM
                       SCT015 BKN025 OVC040 FM270200 16008KT P6SM
                       SCT025 BKN040 OVC060=
202405252333 TAF KBFI 252333Z 2600/2624 20010G20KT P6SM OVC060 FM260600 21010KT
                       P6SM OVC050 FM260900 21010KT P6SM VCSH OVC030
                       FM261200 17010KT P6SM VCSH OVC015 FM262100
                       21010G20KT P6SM OVC030=
202405251735 TAF KBFI 251735Z 2518/2618 19007G20KT P6SM VCSH SCT030 OVC050 FM251900
                       21010G20KT P6SM SCT050 BKN070 FM260000 23010KT
                       P6SM OVC050 FM260900 21010KT P6SM VCSH OVC030
                       FM261200 17007KT P6SM VCSH OVC020=
202405251137 TAF KBFI 251137Z 2512/2612 18005KT P6SM VCSH BKN013 OVC025 FM251600
                       21012KT P6SM OVC025 FM251900 21008G20KT
                       P6SM OVC050 FM260000 23009KT P6SM OVC050=
202405250529 TAF KBFI 250529Z 2506/2606 19008KT P6SM BKN060 BKN250 FM250800
                       21013KT P6SM -SHRA SCT020 OVC025 FM251600
                       21012KT P6SM OVC025 FM251900 21008G20KT
                       P6SM OVC050 FM260000 23009KT P6SM OVC050=
202405250343 KBFI 250343Z 2504/2524 19009KT P6SM VCSH OVC035 FM250800 21013KT
                       P6SM -SHRA SCT020 OVC025 FM251600 21012KT
                       P6SM OVC030 FM252100 21008G18KT P6SM OVC050=
202405242320 TAF KBFI 242320Z 2500/2524 15008KT P6SM VCSH SCT020 OVC030 FM250300
                       20009KT P6SM VCSH OVC025 FM250800 21013KT
                       P6SM -SHRA SCT020 OVC025 FM251600 21012KT
                       P6SM OVC030 FM252100 21008G18KT P6SM OVC050=
202405241735 TAF KBFI 241735Z 2418/2518 18008KT P6SM VCSH FEW015 BKN060 OVC080
                       TEMPO 2419/2421 -SHRA BKN025 FM242100 21008KT
                       6SM -SHRA OVC025 FM250100 20009KT P6SM VCSH
                       OVC035 FM250800 21013KT P6SM -SHRA OVC025=
202405241508 KBFI 241508Z 2415/2512 18007KT P6SM VCSH SCT040 OVC090
                      TEMPO 2415/2418 OVC030 FM241800 20007KT P6SM
                       VCSH OVC025 FM242000 21008KT 6SM -RA OVC025
                       FM250200 20008KT P6SM VCSH OVC035=
202405241257 KBFI 241257Z 2413/2512 17005KT P6SM BKN040 BKN250 FM241500 18005KT
                       P6SM OVC025 FM241800 20007KT P6SM VCSH OVC025
                       FM242000 21008KT 6SM -RA OVC025 FM250200
                       20008KT P6SM VCSH OVC035=
202405241139 TAF KBFI 241139Z 2412/2512 17005KT P6SM BKN040 BKN250 FM241300
                       18005KT P6SM OVC025 FM241600 20007KT P6SM
                       VCSH OVC025 FM241900 21008KT 6SM -RA OVC025
                       FM250200 20008KT P6SM VCSH OVC035=
202405240550 TAF KBFI 240550Z 2406/2506 17005KT P6SM BKN040 BKN250 FM241300
                       18005KT P6SM OVC025 FM241600 20007KT P6SM
                       VCSH OVC025
                      PROB30 2416/2419 6SM -RA OVC025 FM241900
                       21008KT 6SM -RA OVC025 FM250200 20008KT
                       P6SM VCSH OVC035=
202405240301 KBFI 240301Z 2403/2424 20005KT P6SM FEW040 SCT250 FM240800 18006KT
                       P6SM SCT050 BKN100 FM241400 20005KT P6SM
                       OVC025 FM241800 20007KT P6SM VCSH OVC025=
202405232323 TAF KBFI 232323Z 2400/2424 22008KT P6SM SCT035 SCT250 FM240800
                       20006KT P6SM SCT050 BKN100 FM241400 20005KT
                       P6SM OVC025 FM241800 20007KT P6SM VCSH OVC025=
202405231920 KBFI 231920Z 2319/2418 21010G15KT P6SM OVC030 FM232100 21009KT
                       P6SM BKN030 BKN060 FM232300 25007KT P6SM
                       SCT030 BKN100 FM240800 20006KT P6SM BKN100
                       FM241600 20005KT P6SM OVC050=
202405231720 TAF KBFI 231720Z 2318/2418 18009G14KT P6SM OVC025 FM232000 21009KT
                       P6SM SCT025 BKN060 FM232200 25007KT P6SM
                       BKN100 FM240800 20006KT P6SM BKN100 FM241600
                       20005KT P6SM OVC050=
202405231133 TAF KBFI 231133Z 2312/2412 16008KT P6SM BKN020 FM231700 18008KT
                       P6SM SCT020 BKN050 FM232200 21006KT P6SM
                       BKN100 FM240300 25005KT P6SM BKN100 FM240800
                       17005KT P6SM BKN100=
202405230919 KBFI 230919Z 2309/2406 20008KT P6SM BKN015 FM231800 19008KT P6SM
                       SCT015 BKN050 FM232200 21005KT P6SM BKN050
                       FM240300 27004KT P6SM BKN100=
202405230853 KBFI 230853Z 2309/2406 VRB05KT P6SM SCT015 BKN070 FM231100 17009KT
                       P6SM BKN020 FM231800 19008KT P6SM SCT025
                       BKN050 FM232200 21005KT P6SM BKN050 FM240300
                       27004KT P6SM BKN100=
202405230540 TAF KBFI 230540Z 2306/2406 VRB04KT P6SM BKN080 FM231100 17009KT
                       P6SM BKN025 FM231800 19008KT P6SM SCT025
                       BKN050 FM232200 21005KT P6SM BKN050 FM240300
                       27004KT P6SM BKN100=
202405230259 KBFI 230259Z 2303/2324 VRB03KT P6SM BKN070 BKN250 FM230600 18005KT
                       P6SM BKN070 FM231000 17008KT P6SM BKN025
                       FM231800 18008KT P6SM SCT025 BKN050 FM232200
                       21005KT P6SM BKN050=
202405222326 TAF KBFI 222326Z 2300/2324 30008KT P6SM SCT030 BKN060 FM230200
                       VRB04KT P6SM BKN060 FM230600 18005KT P6SM
                       BKN070 FM231000 17008KT P6SM BKN025 FM231800
                       18008KT P6SM SCT025 BKN050 FM232200 21005KT
                       P6SM BKN050=
202405221948 KBFI 221948Z 2220/2318 30008KT P6SM SCT025 BKN035 FM230200 VRB04KT
                       P6SM BKN060 FM230600 18005KT P6SM BKN070
                       FM231000 17008KT P6SM BKN025 FM231700 18008KT
                       P6SM SCT025 BKN050=
202405221734 TAF KBFI 221734Z 2218/2318 VRB05KT P6SM BKN025 BKN060 FM221900
                       30005KT P6SM SCT025 BKN060 FM222000 30008KT
                       P6SM BKN060 FM230600 18005KT P6SM BKN070
                       FM231000 17008KT P6SM BKN025 FM231700 18008KT
                       P6SM SCT025 BKN050=
202405221338 KBFI 221338Z 2214/2312 VRB05KT P6SM -SHRA SCT025 BKN040 FM221700
                       VRB05KT P6SM SCT015 OVC025 FM222000 19007KT
                       P6SM BKN060
                      TEMPO 2220/2223 30008KT=
202405221133 TAF KBFI 221133Z 2212/2312 18010KT P6SM -SHRA OVC025 FM221700 VRB05KT
                       P6SM SCT015 OVC025 FM222000 19007KT P6SM
                       BKN060
                      TEMPO 2220/2223 30008KT=
202405220856 KBFI 220856Z 2209/2306 19010G18KT P6SM VCSH OVC015 FM221300 17005KT
                       P6SM -SHRA OVC015 FM221800 VRB05KT P6SM
                       SCT015 OVC025 FM222000 29005KT P6SM BKN050
                       FM222300 24005KT P6SM BKN070=
202405220659 KBFI 220659Z 2207/2306 19010KT P6SM VCSH OVC015
                      TEMPO 2207/2210 21015G25KT FM221200 17005KT
                       P6SM -SHRA OVC015 FM221800 VRB05KT P6SM
                       SCT015 OVC025 FM222000 29005KT P6SM BKN050
                       FM222300 24005KT P6SM BKN070=
202405220532 TAF KBFI 220532Z 2206/2306 19010KT P6SM VCSH OVC015 FM221200 17005KT
                       P6SM -SHRA OVC015 FM221800 VRB05KT P6SM
                       SCT015 OVC025 FM222000 29005KT P6SM BKN050
                       FM222300 24005KT P6SM BKN070=
202405220301 KBFI 220301Z 2203/2224 18011G18KT P6SM VCSH OVC015 FM220600 19011KT
                       P6SM VCSH OVC009 FM220900 19010KT P6SM VCSH
                       SCT025 OVC035 FM221400 17005KT P6SM VCSH
                       OVC020 FM221800 19005KT P6SM SCT025 OVC030
                       FM222000 27005KT P6SM BKN050=
202405212326 TAF KBFI 212326Z 2200/2224 17013G23KT 2SM -RA BR BKN007 BKN015
                       OVC020 FM220300 18011G18KT P6SM VCSH BKN020
                       FM220900 22008KT P6SM VCSH BKN030
                      PROB30 2212/2218 -RA OVC020 FM221800 27005KT
                       P6SM BKN040=
202405211909 KBFI 211909Z 2119/2218 17014G22KT 5SM -RA BR BKN009 OVC015 FM212100
                       19013G23KT 5SM -RA BKN015 FM220300 20011KT
                       P6SM VCSH BKN025 FM220900 22008KT P6SM VCSH
                       BKN040
                      PROB30 2212/2218 -RA OVC025=
202405211828 TAF KBFI 211828Z 2118/2218 17014KT 5SM -RA BR OVC009 FM212000 19013G23KT
                       5SM -RA BKN015 FM220300 20011KT P6SM VCSH
                       BKN025=
202405211534 KBFI 211534Z 2116/2212 18009KT 5SM -RA BR OVC008 FM211800 17011G21KT
                       6SM -RA SCT015 OVC025 FM212000 19013G23KT
                       5SM -RA BKN015 FM220300 20011KT P6SM VCSH
                       BKN025=
202405211124 TAF KBFI 211124Z 2112/2212 18009KT P6SM -SHRA BKN025 FM211600 17011G21KT
                       6SM -RA SCT015 OVC025 FM212000 19013G23KT
                       5SM -RA BKN015 FM220300 20011KT P6SM VCSH
                       BKN025=
202405210858 KBFI 210858Z 2109/2206 19006KT P6SM OVC050 FM211300 20008KT P6SM
                       -SHRA OVC030 FM211500 17011G20KT 6SM -RA
                       SCT015 OVC025 FM212100 18013G22KT 5SM -RA
                       BKN015 FM220300 20011KT P6SM VCSH BKN025=
202405210520 TAF KBFI 210520Z 2106/2206 24005KT P6SM BKN050 FM210900 19006KT
                       P6SM OVC050 FM211200 20008KT P6SM -RA OVC030
                       FM211500 17011G20KT 6SM -RA SCT015 OVC025
                       FM212100 18013G22KT 5SM -RA BKN015=
202405202327 TAF KBFI 202327Z 2100/2124 VRB05KT P6SM FEW035 FM210400 24005KT
                       P6SM OVC100 FM210900 19006KT P6SM OVC050
                       FM211200 20008KT P6SM -RA OVC030 FM211800
                       17011G20KT P6SM -RA SCT015 OVC025=
202405201744 TAF KBFI 201744Z 2018/2118 25005KT P6SM BKN250 FM202100 25006KT
                       P6SM BKN100 FM210400 24005KT P6SM OVC100
                       FM210700 19006KT P6SM OVC050 FM211200 20008KT
                       P6SM -RA OVC035=
202405201500 KBFI 201500Z 2015/2112 14006KT P6SM BKN020 FM201700 VRB04KT P6SM
                       BKN060 BKN250 FM202100 27006KT P6SM BKN100
                       FM210400 25005KT P6SM OVC100 FM210700 19006KT
                       P6SM OVC050=
202405201120 TAF KBFI 201120Z 2012/2112 14005KT P6SM BKN070 FM202100 27006KT
                       P6SM BKN100 FM210400 25005KT P6SM OVC100
                       FM210700 19006KT P6SM OVC050=
202405200525 TAF KBFI 200525Z 2006/2106 VRB03KT P6SM FEW050 FM201200 17003KT
                       P6SM FEW015 SCT020 BKN030 FM201800 24005KT
                       P6SM BKN050 FM202100 28005KT P6SM SCT050
                       SCT250=
202405192320 TAF KBFI 192320Z 2000/2024 VRB05KT P6SM SCT030 FM200700 18004KT
                       P6SM SCT050 FM201200 17003KT P6SM SCT030
                       BKN050 FM201800 24005KT P6SM BKN050=
202405191720 TAF KBFI 191720Z 1918/2018 15007KT P6SM BKN022 FM191900 19003KT
                       P6SM BKN035 FM192100 30006KT P6SM BKN050
                       FM200000 33005KT P6SM SCT050 FM200600 18004KT
                       P6SM BKN050 FM201200 17003KT P6SM SCT030
                       BKN050=
202405191120 TAF KBFI 191120Z 1912/2012 15005KT P6SM -SHRA OVC021
                      TEMPO 1912/1915 -SHRA OVC015 FM191500 VRB05KT
                       P6SM OVC015 FM191800 22006KT P6SM BKN035
                       FM192100 30006KT P6SM BKN050 FM200000 33005KT
                       P6SM SCT050 FM200600 18004KT P6SM BKN050=
202405190906 KBFI 190906Z 1909/2006 13006KT P6SM VCSH SCT020 BKN060 FM191000
                       16005KT P6SM SCT010 BKN020 FM191800 29005KT
                       P6SM BKN040 FM200300 29003KT P6SM SCT050=
202405190613 KBFI 190613Z 1906/2006 12004KT P6SM -SHRA BKN018 OVC026 FM190800
                       16004KT P6SM BKN020 FM191000 16005KT P6SM
                       SCT010 BKN020 FM191800 29005KT P6SM BKN040
                       FM200300 29003KT P6SM SCT050=
202405190538 TAF KBFI 190538Z 1906/2006 14004KT P6SM SCT020 BKN030 OVC050
                      TEMPO 1906/1910 BKN020 FM191000 16005KT P6SM
                       SCT010 BKN020 FM191800 29005KT P6SM BKN040
                       FM200300 29003KT P6SM SCT050=
202405182332 TAF KBFI 182332Z 1900/1924 VRB04KT P6SM -SHRA SCT025 OVC050 FM190400
                       15004KT P6SM SCT040 BKN050 FM191200 16005KT
                       P6SM SCT025 OVC035 FM191800 29005KT P6SM
                       BKN050=
202405181724 TAF KBFI 181724Z 1818/1918 VRB04KT P6SM VCSH OVC015 FM182000 31008KT
                       P6SM -SHRA BKN030 OVC040 FM190400 18005KT
                       P6SM SCT040 BKN050 FM191200 19006KT P6SM
                       OVC025=
202405181120 TAF KBFI 181120Z 1812/1912 14006KT P6SM FEW025 OVC035 FM182000
                       31006KT P6SM -SHRA SCT030 BKN035 OVC040
                       FM190400 18005KT P6SM SCT040 BKN050 FM191100
                       19006KT P6SM OVC025=
202405180532 TAF KBFI 180532Z 1806/1906 17010KT P6SM FEW035 BKN050 FM181000
                       22009KT P6SM BKN025 OVC035 FM182000 31006KT
                       P6SM -SHRA SCT030 BKN035 OVC040 FM190400
                       18005KT P6SM SCT040 BKN050=
202405172331 TAF KBFI 172331Z 1800/1824 17010KT P6SM FEW040 OVC070 FM180900
                       22009KT P6SM SCT025 BKN030 OVC050 FM182000
                       31006KT P6SM -RA SCT030 BKN035 OVC050=
202405171740 TAF KBFI 171740Z 1718/1818 17010KT P6SM SCT030 BKN070 FM180900
                       22009KT P6SM BKN030 OVC050 FM181700 18006KT
                       P6SM BKN050=
202405171120 TAF KBFI 171120Z 1712/1812 17008KT P6SM OVC029 FM171500 16008KT
                       P6SM FEW035 BKN060 FM171800 21008KT P6SM
                       BKN080 FM180900 22009KT P6SM BKN030 OVC050=
202405170802 KBFI 170802Z 1708/1806 VRB05KT P6SM -SHRA FEW015 OVC020 FM171000
                       17008KT P6SM BKN050 FM171500 16008KT P6SM
                       FEW035 BKN060 FM171800 21008KT P6SM BKN080=
202405170612 KBFI 170612Z 1706/1806 19008KT P6SM VCSH BKN026 FM170900 17008KT
                       P6SM BKN050 FM171500 16008KT P6SM FEW035
                       BKN060 FM171800 21008KT P6SM BKN080=
202405170521 TAF KBFI 170521Z 1706/1806 21009KT P6SM VCSH SCT035 BKN050
                      TEMPO 1706/1708 VRB05KT BKN035 FM170900 17008KT
                       P6SM BKN050 FM171500 16008KT P6SM FEW035
                       BKN060 FM171800 21008KT P6SM BKN080=
202405170218 KBFI 170218Z 1702/1724 23009KT P6SM VCSH SCT025 BKN040
                      TEMPO 1705/1708 VRB05KT BKN035 FM170800 19008KT
                       P6SM SCT035 BKN050 FM171500 16008KT P6SM
                       BKN025 FM171800 17005KT P6SM BKN050=
202405162340 TAF KBFI 162340Z 1700/1724 19012G25KT P6SM VCSH FEW035 BKN040 FM170200
                       21015G25KT P6SM VCSH SCT025 BKN030 FM170600
                       18010KT P6SM BKN035 FM171500 16008KT P6SM
                       BKN025 FM171800 17005KT P6SM BKN050=
202405161740 TAF KBFI 161740Z 1618/1718 19008G20KT P6SM OVC010 FM162000 20016G25KT
                       P6SM SCT015 OVC025 FM170000 21012G21KT P6SM
                       VCSH SCT025 BKN035 FM170400 18008KT P6SM
                       BKN035 FM171600 16008KT P6SM BKN025=
202405161121 TAF KBFI 161121Z 1612/1712 21005KT P6SM OVC012 FM161600 19010KT
                       P6SM OVC015 FM161900 20016G25KT P6SM SCT015
                       OVC025 FM170000 21012G21KT P6SM VCSH SCT025
                       BKN035
                      PROB30 1700/1704 -RA OVC025 FM170400 18008KT
                       P6SM BKN035=
202405160520 TAF KBFI 160520Z 1606/1706 VRB04KT P6SM BKN250 FM160800 VRB04KT
                       P6SM SCT020 BKN060 FM161100 18004KT P6SM
                       OVC015 FM161700 19010G18KT P6SM OVC025 FM162100
                       21012G20KT P6SM BKN050
                      PROB30 1702/1706 -RA OVC025=
202405160305 KBFI 160305Z 1603/1624 30006KT P6SM BKN250 FM160800 VRB04KT P6SM
                       SCT020 BKN060 FM161100 18004KT P6SM OVC015
                       FM161700 19010G18KT P6SM OVC025 FM162100
                       21012G20KT P6SM BKN050=
202405152338 TAF KBFI 152338Z 1600/1624 VRB05KT P6SM SCT250 FM160500 03005KT
                       P6SM BKN100 FM160800 16005KT P6SM BKN060
                       FM161100 17004KT P6SM OVC030 FM161700 18010G18KT
                       P6SM OVC025=
202405151738 TAF KBFI 151738Z 1518/1618 34006KT P6SM SCT250 FM160500 03005KT
                       P6SM BKN100 FM160800 16005KT P6SM BKN060
                       FM161100 17004KT P6SM OVC030 FM161700 18010G18KT
                       P6SM OVC025=
202405151122 TAF KBFI 151122Z 1512/1612 VRB03KT P6SM FEW045 SCT250 FM151800
                       29006KT P6SM SCT200 FM160500 03005KT P6SM
                       BKN100 FM160800 16005KT P6SM BKN060=
202405150520 TAF KBFI 150520Z 1506/1606 03004KT P6SM SCT250 FM151100 VRB03KT
                       P6SM FEW045 FM151800 32007KT P6SM SCT200
                       FM160300 03005KT P6SM BKN100=
202405150256 KBFI 150256Z 1503/1524 03006KT P6SM SCT250 FM151100 VRB03KT P6SM
                       FEW045 FM151800 32007KT P6SM SCT250=
202405142320 TAF KBFI 142320Z 1500/1524 32010KT P6SM FEW050 BKN250 FM150600
                       02004KT P6SM SCT250 FM151200 VRB03KT P6SM
                       FEW045 FM151800 32007KT P6SM SCT250=
202405142056 KBFI 142056Z 1421/1518 32010G18KT P6SM SCT220 FM150300 02003KT
                       P6SM SCT250 FM151200 VRB03KT P6SM SCT035=
202405142053 KBFI 142053Z 1421/1518 32008KT P6SM SCT220 FM150300 02003KT P6SM
                       SCT250 FM151200 VRB03KT P6SM SCT035=
202405141720 TAF KBFI 141720Z 1418/1518 32008KT P6SM SCT220 FM150300 02003KT
                       P6SM SCT250 FM151200 VRB03KT P6SM SCT035=
202405141454 KBFI 141454Z 1415/1512 03004KT P6SM FEW040 BKN250 FM141800 32008KT
                       P6SM SCT060 SCT250 FM150300 VRB03KT P6SM
                       SCT250=
202405141120 TAF KBFI 141120Z 1412/1512 VRB03KT P6SM SCT040 OVC060 FM141600
                       32008KT P6SM SCT060 SCT250 FM150300 VRB03KT
                       P6SM SCT250=
202405140526 TAF KBFI 140526Z 1406/1506 04005KT P6SM BKN045 FM141000 VRB03KT
                       P6SM BKN025 FM141600 34008KT P6SM FEW030
                       FEW250 FM150400 03005KT P6SM SCT250=
202405140257 KBFI 140257Z 1403/1424 04005KT P6SM BKN045 FM141000 VRB03KT P6SM
                       BKN025 FM141600 33007KT P6SM FEW030 FEW250=
202405132324 TAF KBFI 132324Z 1400/1424 VRB05KT P6SM SCT045 FM140200 05006KT
                       P6SM BKN045 FM141500 VRB03KT P6SM BKN025
                       FM142000 30006KT P6SM FEW250=
202405132056 KBFI 132056Z 1321/1418 VRB05KT P6SM VCSH OVC030 FM140100 31007KT
                       P6SM BKN035 FM141200 04003KT P6SM BKN025=
202405131725 TAF KBFI 131725Z 1318/1418 19005KT P6SM OVC012 FM132100 VRB05KT
                       P6SM VCSH SCT025 BKN060 FM140100 31007KT
                       P6SM BKN035 FM141200 04003KT P6SM BKN025=
202405131559 KBFI 131559Z 1316/1412 19005KT P6SM BKN012 BKN060 FM132100 21007KT
                       P6SM BKN060 FM140000 31005KT P6SM BKN050
                       FM140900 VRB03KT P6SM BKN040=
202405131433 KBFI 131433Z 1315/1412 19005KT P6SM BKN022 BKN060 FM132100 21007KT
                       P6SM BKN060 FM140000 31005KT P6SM BKN050
                       FM140900 VRB03KT P6SM BKN040=
202405131130 TAF KBFI 131130Z 1312/1412 VRB03KT P6SM FEW014 BKN060 BKN200 FM131600
                       18005KT P6SM SCT015 BKN050 FM132100 21006KT
                       P6SM BKN050 FM140300 31004KT P6SM BKN050
                       FM140900 VRB03KT P6SM BKN040=
202405130529 TAF KBFI 130529Z 1306/1406 VRB06KT P6SM BKN080 FM131100 17006KT
                       P6SM OVC020 FM132200 29007KT P6SM OVC050=
202405130259 KBFI 130259Z 1303/1324 30006KT P6SM SCT120 BKN200 FM130700 VRB04KT
                       P6SM BKN070 OVC120 FM131100 17006KT P6SM
                       OVC030 FM132300 29007KT P6SM OVC050=
202405122337 TAF KBFI 122337Z 1300/1324 27005KT P6SM SCT200 FM130300 30006KT
                       P6SM SCT120 BKN200 FM130700 VRB04KT P6SM
                       BKN070 OVC120 FM131100 17006KT P6SM OVC030
                       FM131900 21004KT P6SM OVC050=
202405122107 KBFI 122107Z 1221/1318 27005KT P6SM SCT200 FM130300 30006KT P6SM
                       SCT120 BKN200 FM130700 VRB04KT P6SM BKN070
                       OVC120 FM131100 17006KT P6SM OVC030=
202405121720 TAF KBFI 121720Z 1218/1318 27005KT P6SM SCT200 FM130300 30006KT
                       P6SM SCT120 BKN200 FM130700 VRB04KT P6SM
                       BKN070 OVC120 FM131100 17006KT P6SM OVC030=
202405121509 KBFI 121509Z 1215/1312 VRB03KT P6SM FEW200 FM121800 27006KT P6SM
                       SCT200 FM130300 30006KT P6SM SCT120 BKN200
                       FM130700 VRB04KT P6SM BKN070 OVC120 FM131100
                       17006KT P6SM OVC030=
202405121135 TAF KBFI 121135Z 1212/1312 VRB03KT P6SM FEW200 FM121800 27006KT
                       P6SM SCT200 FM130300 30006KT P6SM SCT120
                       BKN200 FM130700 VRB04KT P6SM BKN070 OVC120
                       FM131100 17006KT P6SM OVC030=
202405120520 TAF KBFI 120520Z 1206/1306 02006KT P6SM SCT200 FM121200 28006KT
                       P6SM SCT200 FM130100 30006KT P6SM FEW120
                       BKN200 FM130500 VRB03KT P6SM SCT100 BKN200=
202405120257 KBFI 120257Z 1203/1224 31007KT P6SM FEW200 FM120600 02006KT P6SM
                       SCT200 FM121200 28006KT P6SM SCT200=
202405112321 TAF KBFI 112321Z 1200/1224 29007KT P6SM FEW200 FM120600 00000KT
                       P6SM SCT200 FM121700 28006KT P6SM SCT200=
202405112110 KBFI 112110Z 1121/1218 29004KT P6SM FEW200 FM112300 29007KT P6SM
                       FEW200 FM120600 00000KT P6SM SCT200 FM121700
                       28006KT P6SM SCT200=
202405111737 TAF KBFI 111737Z 1118/1218 29004KT P6SM FEW200 FM112300 29007KT
                       P6SM FEW200 FM120900 21003KT P6SM SCT200=
202405111127 TAF KBFI 111127Z 1112/1212 00000KT P6SM SKC FM111800 29004KT P6SM
                       FEW200 FM112300 29007KT P6SM FEW200 FM120900
                       21003KT P6SM SCT200=
202405110527 TAF KBFI 110527Z 1106/1206 VRB02KT P6SM SKC FM110700 00000KT P6SM
                       SKC FM111800 32006KT P6SM SKC FM112300 29007KT
                       P6SM SKC=
202405102320 TAF KBFI 102320Z 1100/1124 30005KT P6SM SKC FM110300 VRB02KT P6SM
                       SKC FM111800 32006KT P6SM SKC=
202405101720 TAF KBFI 101720Z 1018/1118 30005KT P6SM SKC FM110300 VRB02KT P6SM
                       SKC FM111700 32004KT P6SM SKC=
202405101120 TAF KBFI 101120Z 1012/1112 VRB03KT P6SM SKC FM101800 31008KT P6SM
                       SKC FM110300 VRB02KT P6SM SKC=
202405100851 KBFI 100851Z 1009/1106 VRB03KT P6SM SKC FM101800 31008KT P6SM SKC
                       FM110300 VRB02KT P6SM SKC=
202405100653 KBFI 100653Z 1007/1106 VRB03KT P6SM SKC FM101800 31008KT P6SM SKC
                       FM110300 VRB02KT P6SM SKC=
202405100234 KBFI 100234Z 1003/1024 VRB03KT P6SM SKC FM101800 31008KT P6SM SKC=
202405092320 TAF KBFI 092320Z 1000/1024 33009G16KT P6SM SKC FM100300 VRB03KT
                       P6SM SKC FM101800 31008KT P6SM SKC=
202405091720 TAF KBFI 091720Z 0918/1018 32007KT P6SM SKC FM092100 33009G16KT
                       P6SM SKC FM100300 VRB03KT P6SM SKC=
202405091120 TAF KBFI 091120Z 0912/1012 VRB03KT P6SM SKC FM091800 33007KT P6SM
                       SKC FM092100 33010G17KT P6SM SKC FM100300
                       VRB03KT P6SM SKC=
202405090852 KBFI 090852Z 0909/1006 VRB03KT P6SM SKC FM091800 33007KT P6SM SKC
                       FM092100 33010G17KT P6SM SKC FM100300 35008KT
                       P6SM SKC=
202405090537 TAF KBFI 090537Z 0906/1006 VRB03KT P6SM SKC FM091800 33007KT P6SM
                       SKC FM092100 33010G17KT P6SM SKC FM100300
                       35008KT P6SM SKC=
202405082320 TAF KBFI 082320Z 0900/0924 33009G17KT P6SM SKC FM090300 VRB03KT
                       P6SM SKC FM091800 33007KT P6SM SKC FM092100
                       33010G17KT P6SM SKC=
202405082051 KBFI 082051Z 0821/0918 32009KT P6SM FEW250 FM090300 VRB02KT P6SM
                       SKC=
202405081720 TAF KBFI 081720Z 0818/0918 33005KT P6SM FEW025 FEW250 FM082100
                       32009G15KT P6SM FEW250 FM090300 VRB02KT
                       P6SM SKC=
202405081120 TAF KBFI 081120Z 0812/0912 VRB03KT P6SM FEW250 FM081400 33005KT
                       P6SM FEW040 FEW250 FM082100 32013KT P6SM
                       FEW250 FM090300 VRB02KT P6SM SKC=
202405080858 KBFI 080858Z 0809/0906 VRB03KT P6SM SCT070 FM081400 VRB03KT P6SM
                       FEW025 BKN040 FM081800 33008KT P6SM SCT040
                       FM082100 32013KT P6SM FEW250 FM090300 03008KT
                       P6SM FEW250=
202405080520 TAF KBFI 080520Z 0806/0906 VRB03KT P6SM SCT070 FM081400 VRB03KT
                       P6SM SCT025 BKN035 FM081800 33008KT P6SM
                       SCT035 FM082100 32013KT P6SM FEW250 FM090300
                       03008KT P6SM FEW250=
202405080255 KBFI 080255Z 0803/0824 30004KT P6SM SCT060 OVC090 FM080500 VRB03KT
                       P6SM SCT050 FM081400 VRB03KT P6SM BKN030
                       FM081800 33008KT P6SM FEW250=
202405072320 TAF KBFI 072320Z 0800/0824 30006KT P6SM VCSH BKN050 FM080500 VRB03KT
                       P6SM SCT050 FM081400 VRB03KT P6SM BKN030
                       FM081800 33008KT P6SM FEW250=
202405071910 KBFI 071910Z 0719/0818 12005KT P6SM SCT035 BKN060 FM072100 30006KT
                       P6SM VCSH SCT035 BKN060 FM080500 VRB04KT
                       P6SM SCT050 FM081400 VRB03KT P6SM BKN025=
202405071727 TAF KBFI 071727Z 0718/0818 12005KT P6SM SCT015 BKN050
                      TEMPO 0718/0720 BKN020 FM072000 30006KT P6SM
                       VCSH SCT035 BKN060 FM080500 VRB04KT P6SM
                       SCT050 FM081400 VRB03KT P6SM BKN025=
202405071457 KBFI 071457Z 0715/0812 16005KT P6SM VCSH BKN015 OVC020 FM071800
                       VRB04KT P6SM SCT025 BKN040 FM072000 30006KT
                       P6SM VCSH SCT035 BKN060 FM080900 15006KT
                       P6SM SCT050=
202405071130 TAF KBFI 071130Z 0712/0812 18006KT P6SM VCSH OVC020 FM071600 17006KT
                       P6SM SCT025 BKN040 FM072200 30006KT P6SM
                       VCSH SCT040 BKN060 FM080900 15006KT P6SM
                       SCT050=
202405070909 KBFI 070909Z 0709/0806 VRB04KT P6SM VCSH BKN016 OVC025 FM071200
                       16006KT P6SM SCT018 BKN028 OVC040 FM071800
                       34005KT P6SM SCT025 BKN040
                      PROB30 0720/0724 -SHRA BKN030 FM080000 VRB04KT
                       P6SM BKN050=
202405070534 TAF KBFI 070534Z 0706/0806 VRB04KT P6SM VCSH SCT025 OVC050
                      TEMPO 0706/0709 BKN025 FM071200 16006KT P6SM
                       SCT025 BKN050 FM071800 34005KT P6SM SCT025
                       BKN040
                      PROB30 0720/0724 -SHRA BKN030 FM080000 VRB04KT
                       P6SM BKN050=
202405070313 KBFI 070313Z 0703/0724 26005KT P6SM VCSH SCT030 BKN050
                      TEMPO 0703/0705 33005KT P6SM BKN035 FM070600
                       VRB05KT P6SM VCSH SCT015 OVC035 FM071000
                       18006KT P6SM SCT025 BKN050 FM071900 35006KT
                       P6SM SCT025 BKN040
                      PROB30 0720/0724 -SHRA=
202405070101 KBFI 070101Z 0701/0724 21010KT P6SM VCSH SCT025 BKN050 BKN090
                      TEMPO 0701/0705 36007KT P6SM BKN035 FM070600
                       VRB05KT P6SM VCSH SCT015 OVC035 FM071000
                       18006KT P6SM SCT025 BKN050 FM071900 35006KT
                       P6SM SCT025 BKN040
                      PROB30 0720/0724 -SHRA=
202405062320 TAF KBFI 062320Z 0700/0724 21010KT P6SM -SHRA SCT025 BKN080
                      TEMPO 0701/0705 35007KT 4SM -RA BR OVC025
                       FM070600 VRB05KT P6SM VCSH SCT015 OVC035
                       FM071000 18006KT P6SM SCT025 BKN050 FM071900
                       35006KT P6SM SCT025 BKN040
                      PROB30 0720/0724 -SHRA=
202405062104 KBFI 062104Z 0621/0718 20010G20KT P6SM VCSH SCT025 BKN080 FM070000
                       25010KT P6SM -SHRA SCT025 BKN050
                      TEMPO 0701/0705 35007KT 4SM -RA BR OVC025
                       FM070600 VRB05KT P6SM VCSH SCT015 OVC035
                       FM071000 18008KT P6SM SCT025 BKN050=
202405061728 TAF KBFI 061728Z 0618/0718 19010G20KT P6SM VCSH SCT025 BKN070 FM070000
                       20010KT P6SM VCSH SCT025 BKN050
                      TEMPO 0701/0705 35006KT 4SM -RA BR OVC025
                       FM070500 VRB04KT P6SM -SHRA SCT015 OVC035
                       FM071000 18008KT P6SM SCT025 BKN050=
202405061139 TAF KBFI 061139Z 0612/0712 18012G18KT P6SM VCSH SCT015 BKN025 OVC040
                       FM061400 18012G18KT P6SM SCT025 BKN040 OVC060
                       FM070000 20010KT P6SM SCT030 BKN045 OVC060
                       FM070500 VRB04KT P6SM -SHRA SCT010 BKN015
                       OVC030 FM070900 18008KT P6SM SCT025 BKN040=
202405060522 TAF KBFI 060522Z 0606/0706 17010KT P6SM VCSH BKN035 BKN080 FM060900
                       17011G20KT P6SM OVC020 FM061500 19011KT
                       P6SM BKN035 OVC040 FM061800 19012G21KT P6SM
                       -SHRA OVC050 FM070400 16006G17KT P6SM OVC050=
202405060259 KBFI 060259Z 0603/0624 18010G20KT P6SM VCSH SCT020 BKN040 BKN080
                       FM060500 18014G23KT P6SM VCSH OVC010 FM061100
                       17012KT P6SM BKN015 OVC030 FM061800 19011KT
                       P6SM -SHRA BKN030 OVC050=
202405052334 TAF KBFI 052334Z 0600/0624 18012G22KT P6SM VCSH SCT012 BKN018 OVC035
                       FM060300 21015G23KT P6SM VCSH OVC010 FM061100
                       17012KT P6SM BKN015 OVC030 FM061800 19011KT
                       P6SM -SHRA BKN030 OVC050=
202405051724 TAF KBFI 051724Z 0518/0618 18010KT 6SM BR SCT006 OVC011 FM051900
                       19011G19KT P6SM VCSH BKN015 OVC030 FM052200
                       18012G22KT P6SM VCSH SCT012 BKN018 OVC035
                       FM060300 21015G23KT P6SM VCSH OVC010 FM061100
                       17012KT P6SM BKN015 OVC030=
202405051140 TAF KBFI 051140Z 0512/0612 18006KT P6SM OVC006 FM051800 18010KT
                       P6SM SCT006 OVC011 FM052100 18012G18KT P6SM
                       VCSH SCT012 BKN018 OVC035=
202405050528 TAF KBFI 050528Z 0506/0606 17005KT P6SM VCSH BKN008 BKN017 OVC050
                       FM051800 19009G17KT 6SM -SHRA SCT008 OVC015
                       FM060000 19012G20KT P6SM VCSH SCT020 OVC025=
202405042329 TAF KBFI 042329Z 0500/0524 26005KT P6SM -RA BKN035 OVC050 FM050100
                       23005KT P6SM BKN025 OVC040 FM050300 18007KT
                       P6SM VCSH SCT010 OVC015 FM050900 18008KT
                       P6SM -RA SCT008 OVC015 FM052000 19011G18KT
                       P6SM VCSH SCT020 OVC025=
202405041725 TAF KBFI 041725Z 0418/0518 35004KT P6SM SCT040 OVC060 FM050000
                       24005KT P6SM -RA BKN035 OVC040 FM050300
                       18009KT P6SM VCSH SCT015 OVC020 FM050900
                       18008G17KT P6SM -RA OVC015=
202405041135 TAF KBFI 041135Z 0412/0512 VRB03KT P6SM BKN035 OVC080 FM041500
                       VRB03KT P6SM SCT040 OVC060 FM042200 21004KT
                       P6SM -SHRA OVC040 FM050300 18006KT P6SM
                       SCT018 OVC028 FM050900 18006KT P6SM OVC018=
202405040906 KBFI 040906Z 0409/0506 00000KT P6SM OVC050 FM042000 18006KT P6SM
                       -RA OVC040 FM050300 18006KT P6SM -DZ SCT020
                       OVC030=
202405040531 KBFI 040531Z 0406/0506 VRB02KT P6SM OVC100 FM040800 03003KT P6SM
                       OVC050 FM041300 01003KT P6SM -SHRA OVC035
                       FM041800 20007KT 6SM -RA BR OVC025 FM050300
                       18006KT P6SM -DZ SCT020 OVC030=
202405040530 KBFI 040530Z 0406/0506 VRB02KT P6SM OVC100 FM040800 03003KT P6SM
                       OVC050 FM041300 01003KT P6SM -SHRA OVC035
                       FM041800 20007KT 6SM -RA BR OVC025 FM050300
                       18006KT P6SM -DZ SCT020 OVC030=
202405040258 KBFI 040258Z 0403/0424 25010G20KT P6SM OVC100 FM040800 03003KT
                       P6SM OVC050 FM041300 01003KT P6SM -SHRA
                       OVC035 FM041800 20007KT 6SM -RA BR OVC025=
202405032321 TAF KBFI 032321Z 0400/0424 21007KT P6SM VCSH FEW050 OVC100 FM040300
                       20009KT P6SM -SHRA OVC060 FM040800 03003KT
                       P6SM -SHRA OVC050 FM041300 01003KT P6SM
                       -SHRA OVC035 FM041800 20007KT 6SM -RA BR
                       OVC025=
202405031721 TAF KBFI 031721Z 0318/0418 22004KT P6SM OVC200 FM040000 21007KT
                       P6SM VCSH OVC100
                      PROB30 0403/0406 -SHRA OVC060 FM040800 03003KT
                       P6SM -SHRA OVC050 FM041300 01003KT P6SM
                       -SHRA OVC035=
202405031134 TAF KBFI 031134Z 0312/0412 14006KT P6SM SKC FM031500 15005KT P6SM
                       BKN200 FM031800 22006KT P6SM OVC200 FM040000
                       21007KT P6SM VCSH OVC100
                      PROB30 0403/0406 -SHRA OVC060 FM040800 03003KT
                       P6SM OVC050=
202405030520 TAF KBFI 030520Z 0306/0406 VRB03KT P6SM SKC FM031500 15005KT P6SM
                       BKN200 FM031800 22006KT P6SM OVC200 FM040000
                       21007KT P6SM VCSH OVC100
                      PROB30 0403/0406 -SHRA OVC060=
202405022339 TAF KBFI 022339Z 0300/0324 32009KT P6SM FEW050 FM030300 30004KT
                       P6SM SKC FM030600 VRB03KT P6SM SKC FM031500
                       15005KT P6SM BKN200 FM031800 22006KT P6SM
                       OVC200 FM032300 22008KT P6SM BKN120 OVC200=
202405022102 KBFI 022102Z 0221/0318 30007G18KT P6SM SKC FM030300 30003KT P6SM
                       SKC FM030600 17002KT P6SM SKC FM031500 14003KT
                       P6SM BKN250 FM031700 25004KT P6SM BKN250=
202405021720 TAF KBFI 021720Z 0218/0318 VRB05KT P6SM SCT025 FM021900 35007KT
                       P6SM SKC FM030300 30003KT P6SM SKC FM030600
                       17002KT P6SM SKC FM031500 14003KT P6SM BKN250=
202405021459 KBFI 021459Z 0215/0312 02004KT P6SM SCT015 FM021700 36008KT P6SM
                       SKC FM030300 30003KT P6SM SKC FM030600 17002KT
                       P6SM SKC=
202405021350 KBFI 021350Z 0214/0312 33005KT P6SM FEW020 SCT200 FM021600 36008KT
                       P6SM SKC FM030300 30003KT P6SM SKC FM030600
                       17002KT P6SM SKC=
202405021131 TAF KBFI 021131Z 0212/0312 33003KT P6SM SCT200 FM021600 36008KT
                       P6SM SKC FM030300 30003KT P6SM SKC FM030600
                       17002KT P6SM SKC=
202405020539 TAF KBFI 020539Z 0206/0306 30004KT P6SM SCT100 FM020700 34003KT
                       P6SM SCT100 FM021200 04002KT P6SM SKC FM030000
                       30007KT P6SM BKN250=
202405012320 TAF KBFI 012320Z 0200/0224 21008KT P6SM SCT025 BKN100 FM020400
                       34004KT P6SM BKN100 FM020700 34003KT P6SM
                       SCT100 FM021200 VRB02KT P6SM SKC=
202405011721 TAF KBFI 011721Z 0118/0218 18008KT P6SM BKN040 BKN100 FM020100
                       22009KT P6SM BKN100 FM020400 34004KT P6SM
                       BKN100 FM020700 34003KT P6SM SCT100 FM021200
                       VRB02KT P6SM SKC=
202405011356 KBFI 011356Z 0114/0212 13005KT P6SM BKN050
                      TEMPO 0114/0118 BKN010 FM011800 18006KT P6SM
                       BKN050 BKN100 FM020100 22009KT P6SM BKN100
                       FM020400 34004KT P6SM BKN100 FM020700 34003KT
                       P6SM SCT100=
202405011222 KBFI 011222Z 0112/0212 15007KT P6SM SCT050
                      TEMPO 0112/0116 BKN020 FM011600 18006KT P6SM
                       BKN050 BKN100 FM020100 22009KT P6SM BKN100
                       FM020400 34004KT P6SM BKN100 FM020700 34003KT
                       P6SM SCT100=
202405011130 TAF KBFI 011130Z 0112/0212 15007KT P6SM SCT050 FM011600 18006KT
                       P6SM BKN050 BKN100 FM020100 22009KT P6SM
                       BKN100 FM020400 34004KT P6SM BKN100 FM020700
                       34003KT P6SM SCT100=
202405010537 TAF KBFI 010537Z 0106/0206 VRB03KT P6SM SCT050 FM011600 18006KT
                       P6SM SCT050 BKN100 FM020100 22009KT P6SM
                       BKN100=