##########################################################
# Query made at 02/17/2025 07:54:36 UTC
# Time interval: from 12/01/2024 00:00  to 12/31/2024 23:59  UTC
##########################################################

##########################################################
# KBFI, Seattle, Seattle Boeing Field (United States)
# WMO index: -----. WIGOS ID: Unknown
# Latitude 47-32-45N. Longitude 122-18-49W. Altitude 5 m.
##########################################################

###################################
#  METAR/SPECI from KBFI
###################################
202412312353 METAR KBFI 312353Z 32004KT 10SM SCT160 07/02 A3011 RMK AO2 SLP194 T00720022 10078 20039 56027=
202412312253 METAR KBFI 312253Z 00000KT 10SM BKN150 07/03 A3012 RMK AO2 SLP198 T00720028=
202412312153 METAR KBFI 312153Z 05005KT 10SM CLR 07/03 A3015 RMK AO2 SLP208 T00670028=
202412312053 METAR KBFI 312053Z 00000KT 10SM BKN170 07/03 A3019 RMK AO2 SLP221 T00670028 58030=
202412311953 METAR KBFI 311953Z 00000KT 10SM FEW010 SCT060 BKN160 06/02 A3023 RMK AO2 SLP235 T00560022=
202412311853 METAR KBFI 311853Z 00000KT 10SM SCT060 BKN160 05/02 A3026 RMK AO2 SLP246 T00500017=
202412311753 METAR KBFI 311753Z 15003KT 10SM FEW003 SCT060 04/03 A3027 RMK AO2 SLP251 T00390028 10056 20011 55002=
202412311653 METAR KBFI 311653Z 14004KT 6SM BR FEW002 SCT060 02/02 A3027 RMK AO2 SLP251 T00220017=
202412311644 SPECI KBFI 311644Z 16003KT 6SM BR FEW002 SCT060 02/02 A3028 RMK AO2 T00170017=
202412311637 SPECI KBFI 311637Z 00000KT 2 1/2SM BR FEW002 SCT060 02/02 A3028 RMK AO2 T00220017=
202412311553 METAR KBFI 311553Z 16004KT 10SM FEW200 02/01 A3027 RMK AO2 SLP250 T00220011=
202412311453 METAR KBFI 311453Z 00000KT 10SM CLR 04/02 A3028 RMK AO2 SLP253 T00390022 56012=
202412311353 METAR KBFI 311353Z 00000KT 10SM FEW027 SCT038 05/03 A3029 RMK AO2 SLP256 T00500028=
202412311253 METAR KBFI 311253Z 14003KT 10SM BKN017 OVC033 06/03 A3030 RMK AO2 SLP260 T00560033=
202412311153 METAR KBFI 311153Z 15004KT 10SM BKN019 BKN023 OVC037 06/03 A3032 RMK AO2 SLP265 T00560033 10061 20050 58009=
202412311134 SPECI KBFI 311134Z 13005KT 10SM OVC017 06/03 A3032 RMK AO2 T00560033=
202412311053 METAR KBFI 311053Z 16005KT 10SM BKN012 OVC018 06/03 A3033 RMK AO2 SLP270 T00560033=
202412311017 SPECI KBFI 311017Z 15004KT 10SM BKN012 OVC017 06/03 A3033 RMK AO2 T00560033=
202412310953 METAR KBFI 310953Z 14004KT 10SM SCT013 BKN018 OVC034 06/03 A3033 RMK AO2 SLP271 T00560033=
202412310853 METAR KBFI 310853Z 13003KT 10SM OVC014 06/04 A3034 RMK AO2 SLP274 T00610039 58004=
202412310753 METAR KBFI 310753Z 16003KT 10SM BKN014 OVC027 06/04 A3035 RMK AO2 SLP278 T00610039 400830033=
202412310713 SPECI KBFI 310713Z 16004KT 10SM BKN013 BKN031 06/04 A3036 RMK AO2 T00610039=
202412310700 SPECI KBFI 310700Z 00000KT 10SM SCT013 BKN031 06/03 A3036 RMK AO2 T00560033=
202412310653 METAR KBFI 310653Z 00000KT 10SM BKN026 06/03 A3036 RMK AO2 SLP280 T00560033=
202412310553 METAR KBFI 310553Z 17005KT 10SM BKN026 06/03 A3035 RMK AO2 SLP277 T00610033 10083 20061 53004=
202412310453 METAR KBFI 310453Z 17007KT 10SM BKN028 07/04 A3035 RMK AO2 SLP276 T00670039=
202412310353 METAR KBFI 310353Z 17008KT 10SM SCT020 BKN027 BKN041 07/03 A3035 RMK AO2 SLP275 T00720033=
202412310253 METAR KBFI 310253Z 17008KT 10SM SCT020 BKN027 BKN041 07/03 A3034 RMK AO2 SLP274 T00720033 51005=
202412310153 METAR KBFI 310153Z 16006KT 10SM SCT020 BKN027 BKN041 07/04 A3034 RMK AO2 SLP273 T00720039=
202412310053 METAR KBFI 310053Z 17006KT 10SM SCT020 OVC031 07/04 A3033 RMK AO2 SLP271 T00720039=
202412302353 METAR KBFI 302353Z 18008KT 10SM BKN020 OVC031 08/04 A3033 RMK AO2 SLP269 T00780044 10083 20067 53008=
202412302253 METAR KBFI 302253Z 18009G15KT 10SM BKN025 BKN080 08/04 A3031 RMK AO2 SLP264 T00830039=
202412302153 METAR KBFI 302153Z 18007G15KT 10SM SCT017 BKN080 OVC110 08/04 A3031 RMK AO2 SLP262 T00830044=
202412302053 METAR KBFI 302053Z 17010KT 10SM SCT020 BKN095 08/04 A3030 RMK AO2 SLP261 T00780044 58001=
202412301953 METAR KBFI 301953Z 17009G19KT 10SM SCT020 BKN080 08/04 A3031 RMK AO2 SLP263 T00780039=
202412301853 METAR KBFI 301853Z 18011G21KT 10SM SCT015 BKN028 BKN090 07/04 A3031 RMK AO2 SLP264 T00720039=
202412301753 METAR KBFI 301753Z 17008KT 10SM BKN028 BKN065 07/03 A3031 RMK AO2 SLP262 60000 T00670033 10067 20033 51017=
202412301653 METAR KBFI 301653Z 17008KT 10SM SCT048 OVC070 07/03 A3030 RMK AO2 SLP259 T00670033=
202412301553 METAR KBFI 301553Z 18012G18KT 10SM SCT050 OVC070 06/03 A3028 RMK AO2 RAB38E48 SLP253 P0000 T00610033=
202412301453 METAR KBFI 301453Z 18008KT 10SM BKN110 06/03 A3026 RMK AO2 SLP246 T00610028 53012=
202412301403 SPECI KBFI 301403Z 14008KT 10SM SCT026 SCT090 04/02 A3024 RMK AO2 T00440022 $=
202412301353 METAR KBFI 301353Z 14007KT 10SM BKN016 04/02 A3024 RMK AO2 SLP240 T00440022 $=
202412301332 SPECI KBFI 301332Z 13006KT 10SM BKN016 05/03 A3023 RMK AO2 T00500028 $=
202412301253 METAR KBFI 301253Z 14007KT 10SM FEW016 03/02 A3022 RMK AO2 SLP234 T00330017 $=
202412301246 SPECI KBFI 301246Z 15006KT 10SM SCT016 04/02 A3023 RMK AO2 T00390022 $=
202412301153 METAR KBFI 301153Z 14009KT 10SM BKN018 BKN042 04/02 A3022 RMK AO2 SLP234 70013 T00440022 10061 20044 51019 $=
202412301145 SPECI KBFI 301145Z 14007KT 10SM BKN018 BKN041 05/03 A3022 RMK AO2 T00500028 $=
202412301053 METAR KBFI 301053Z 15007KT 10SM SCT019 05/03 A3021 RMK AO2 SLP229 T00500028 $=
202412300953 METAR KBFI 300953Z 18006G15KT 10SM BKN075 06/03 A3018 RMK AO2 SLP221 T00610033 $=
202412300908 SPECI KBFI 300908Z 16007KT 10SM SCT019 BKN050 BKN070 06/03 A3017 RMK AO2 T00560033 $=
202412300853 METAR KBFI 300853Z 16007KT 10SM BKN019 BKN055 OVC070 06/03 A3017 RMK AO2 SLP215 T00610033 51025 $=
202412300815 SPECI KBFI 300815Z 14008KT 10SM BKN020 06/03 A3016 RMK AO2 T00560033 $=
202412300753 METAR KBFI 300753Z 14007KT 10SM SCT018 06/03 A3015 RMK AO2 SLP210 T00560028 400830044 $=
202412300704 SPECI KBFI 300704Z 15007KT 10SM SCT020 BKN095 04/02 A3013 RMK AO2 T00440022 $=
202412300653 METAR KBFI 300653Z 12004KT 10SM BKN019 06/03 A3013 RMK AO2 SLP201 T00560028 $=
202412300553 METAR KBFI 300553Z 13006KT 10SM OVC019 06/03 A3010 RMK AO2 SLP191 T00610033 10078 20056 51028 $=
202412300453 METAR KBFI 300453Z 16008KT 10SM BKN021 06/03 A3007 RMK AO2 SLP183 T00610033 $=
202412300353 METAR KBFI 300353Z 17005KT 10SM BKN023 06/03 A3004 RMK AO2 SLP173 T00560028 $=
202412300253 METAR KBFI 300253Z 18005KT 10SM SCT025 BKN040 07/03 A3001 RMK AO2 SLP163 T00720033 51037 $=
202412300200 SPECI KBFI 300200Z 16007KT 10SM SCT020 BKN045 08/04 A2998 RMK AO2 T00780044 $=
202412300153 METAR KBFI 300153Z 16005KT 10SM BKN020 BKN040 08/04 A2998 RMK AO2 SLP152 T00780044 $=
202412300053 METAR KBFI 300053Z 13004KT 10SM BKN020 BKN040 08/04 A2995 RMK AO2 SLP141 T00780044 $=
202412292353 METAR KBFI 292353Z VRB03KT 10SM BKN016 OVC024 08/05 A2990 RMK AO2 RAE2256 SLP126 P0000 60005 T00780050 10083 20072 53040 $=
202412292253 METAR KBFI 292253Z 20005KT 10SM -RA BKN015 OVC036 08/05 A2986 RMK AO2 RAB37 SLP110 P0000 T00780050 $=
202412292153 METAR KBFI 292153Z 19009G19KT 10SM BKN013 BKN023 OVC070 08/05 A2981 RMK AO2 RAE2057 SLP094 P0000 T00780050 $=
202412292053 METAR KBFI 292053Z 19009G16KT 8SM -RA BKN013 BKN023 OVC070 08/06 A2979 RMK AO2 RAB24 SLP086 P0002 60005 T00780056 51012 $=
202412291953 METAR KBFI 291953Z 20004KT 10SM BKN015 OVC040 08/06 A2978 RMK AO2 RAE05 SLP082 P0000 T00830061 $=
202412291853 METAR KBFI 291853Z 15006KT 5SM -RA BR FEW009 BKN014 OVC037 08/07 A2977 RMK AO2 SLP080 P0003 T00780067 $=
202412291753 METAR KBFI 291753Z 13005KT 5SM -RA BR FEW009 BKN014 OVC037 07/06 A2975 RMK AO2 SLP074 P0007 60008 T00720061 10078 20067 53021 $=
202412291745 SPECI KBFI 291745Z 14004KT 5SM -RA BR SCT006 BKN016 OVC037 07/06 A2975 RMK AO2 P0007 T00720061 $=
202412291653 METAR KBFI 291653Z 17004KT 5SM -RA BR OVC008 07/07 A2972 RMK AO2 SLP065 P0000 T00720067 $=
202412291553 METAR KBFI 291553Z 00000KT 10SM -RA SCT012 OVC060 07/06 A2970 RMK AO2 RAB49 SLP058 P0000 T00720061 $=
202412291453 METAR KBFI 291453Z 00000KT 10SM FEW012 BKN060 OVC085 08/07 A2969 RMK AO2 RAE32 SLP054 P0000 60001 T00780067 51006 $=
202412291353 METAR KBFI 291353Z 33003KT 8SM -RA OVC045 08/07 A2969 RMK AO2 RAB19 SLP053 P0001 T00780067 $=
202412291253 METAR KBFI 291253Z 00000KT 10SM BKN075 OVC090 07/06 A2968 RMK AO2 RAB08E17 SLP051 P0000 T00670056 $=
202412291153 METAR KBFI 291153Z 28003KT 10SM BKN048 OVC055 07/06 A2967 RMK AO2 SLP048 70012 T00720061 10083 20067 58022 $=
202412291053 METAR KBFI 291053Z AUTO 00000KT 10SM OVC100 08/06 A2970 RMK AO2 SLP057 T00780061 $=
202412290953 METAR KBFI 290953Z AUTO 00000KT 10SM BKN110 07/06 A2973 RMK AO2 SLP067 T00720061 $=
202412290853 METAR KBFI 290853Z 00000KT 10SM FEW045 08/06 A2974 RMK AO2 SLP069 T00780061 56032 $=
202412290800 SPECI KBFI 290800Z 00000KT 10SM SCT026 BKN031 OVC046 08/06 A2977 RMK AO2 T00780061=
202412290753 METAR KBFI 290753Z 00000KT 10SM BKN028 07/06 A2977 RMK AO2 SLP081 T00720061 401060072=
202412290653 METAR KBFI 290653Z 00000KT 10SM BKN028 07/06 A2979 RMK AO2 SLP087 T00720061=
202412290553 METAR KBFI 290553Z 13004KT 10SM BKN028 08/07 A2983 RMK AO2 SLP101 T00780067 10100 20072 56023=
202412290453 METAR KBFI 290453Z 15008KT 10SM FEW010 08/07 A2984 RMK AO2 SLP105 T00830067=
202412290353 METAR KBFI 290353Z 17008KT 10SM SCT014 BKN085 09/07 A2988 RMK AO2 SLP116 T00890072=
202412290253 METAR KBFI 290253Z 19008G18KT 10SM SCT018 09/07 A2990 RMK AO2 SLP125 T00940067 51010=
202412290153 METAR KBFI 290153Z 18013G22KT 10SM BKN018 09/07 A2990 RMK AO2 SLP124 T00940067=
202412290053 METAR KBFI 290053Z 17011G20KT 140V200 10SM BKN016 OVC022 10/07 A2989 RMK AO2 SLP121 T01000072=
202412282353 METAR KBFI 282353Z 19010G23KT 10SM SCT017 SCT021 BKN027 10/07 A2987 RMK AO2 PK WND 18028/2316 SLP115 60000 T01000067 10106 20100 51029=
202412282253 METAR KBFI 282253Z 21011G27KT 10SM SCT017 OVC025 11/07 A2985 RMK AO2 PK WND 20027/2250 RAB29E39 SLP107 P0000 T01060072=
202412282153 METAR KBFI 282153Z 19012G22KT 10SM BKN021 OVC031 11/08 A2982 RMK AO2 PK WND 20027/2142 RAB24E33 SLP097 P0000 T01060078=
202412282053 METAR KBFI 282053Z 19012G22KT 10SM OVC021 11/08 A2978 RMK AO2 SLP085 60000 T01060083 51025=
202412281953 METAR KBFI 281953Z 18010G24KT 8SM BKN018 OVC024 11/08 A2977 RMK AO2 PK WND 20029/1908 RAE1855 SLP082 P0000 T01060083=
202412281853 METAR KBFI 281853Z 19011G24KT 5SM -RA SCT018 OVC023 11/08 A2974 RMK AO2 PK WND 16026/1833 RAB09E19B45 SLP070 P0000 T01060078=
202412281753 METAR KBFI 281753Z 19013G25KT 10SM BKN017 OVC024 10/08 A2971 RMK AO2 RAE02B32E38 SLP060 P0000 60012 T01000078 10100 20089 51025=
202412281653 METAR KBFI 281653Z 18010G17KT 6SM -RA BR OVC015 09/08 A2969 RMK AO2 SLP052 P0002 T00940078=
202412281553 METAR KBFI 281553Z 17010G21KT 7SM -RA BKN018 BKN025 OVC033 09/07 A2967 RMK AO2 PK WND 17028/1514 RAE1455B28 SLP047 P0000 T00940072=
202412281453 METAR KBFI 281453Z 17016G25KT 10SM -RA BKN018 BKN026 OVC041 09/07 A2964 RMK AO2 SLP035 P0001 60010 T00940072 53011=
202412281435 SPECI KBFI 281435Z 17018G24KT 9SM -RA OVC018 09/07 A2963 RMK AO2 P0000 T00940072=
202412281410 SPECI KBFI 281410Z 17015KT 2SM -RA BR BKN018 OVC024 09/07 A2964 RMK AO2 P0000 T00890072=
202412281353 METAR KBFI 281353Z 17012G25KT 10SM -RA BKN020 OVC024 09/07 A2963 RMK AO2 PK WND 18028/1312 RAE04B45 SLP034 P0000 T00940067=
202412281253 METAR KBFI 281253Z 17013G19KT 10SM -RA SCT018 BKN026 OVC035 09/07 A2960 RMK AO2 SLP022 P0009 T00890072=
202412281249 SPECI KBFI 281249Z 19008KT 4SM -RA BR SCT018 BKN026 OVC037 09/07 A2960 RMK AO2 P0009=
202412281153 METAR KBFI 281153Z 17013G19KT 8SM -RA SCT036 OVC046 09/06 A2961 RMK AO2 RAB32 SLP025 P0001 60005 70015 T00940061 10100 20072 53012=
202412281053 METAR KBFI 281053Z 16012KT 10SM FEW035 BKN050 OVC065 09/06 A2960 RMK AO2 SLP022 T00940061=
202412281001 SPECI KBFI 281001Z 16011KT 10SM SCT023 BKN036 BKN047 09/07 A2957 RMK AO2 T00890067=
202412280953 METAR KBFI 280953Z 16011KT 10SM FEW021 BKN027 OVC055 09/07 A2957 RMK AO2 SLP014 T00890067=
202412280853 METAR KBFI 280853Z 17009G19KT 10SM OVC022 08/06 A2957 RMK AO2 RAB0757E04 SLP013 P0000 60004 T00830061 57007=
202412280753 METAR KBFI 280753Z 14008KT 3SM BR OVC028 07/06 A2958 RMK AO2 RAE53 SLP016 P0001 T00720061 400940061=
202412280701 SPECI KBFI 280701Z 16003KT 3SM -RA BR BKN009 OVC011 07/07 A2958 RMK AO2 P0001 T00720067=
202412280653 METAR KBFI 280653Z 00000KT 3SM -RA BR FEW021 SCT025 OVC031 07/07 A2959 RMK AO2 SLP018 P0003 T00720067=
202412280553 METAR KBFI 280553Z 12004KT 5SM RA BR OVC040 08/07 A2959 RMK AO2 SLP021 P0005 60008 T00780067 10094 20078 58013=
202412280453 METAR KBFI 280453Z 11006KT 6SM -RA BR OVC040 08/07 A2961 RMK AO2 SLP026 P0002 T00780067=
202412280353 METAR KBFI 280353Z 14005KT 5SM -RA BR OVC042 08/07 A2963 RMK AO2 SLP033 P0000 T00830067=
202412280351 SPECI KBFI 280351Z 14006KT 5SM -RA BR OVC042 08/07 A2963 RMK AO2 P0000=
202412280253 METAR KBFI 280253Z 14009KT 9SM -RA FEW014 BKN029 OVC046 08/07 A2966 RMK AO2 RAB10 SLP045 P0000 60001 T00830072 58014=
202412280153 METAR KBFI 280153Z 17008KT 10SM FEW017 OVC070 09/07 A2968 RMK AO2 RAE0059 SLP050 P0000 T00940072=
202412280053 METAR KBFI 280053Z 20010KT 160V220 10SM -RA BKN020 OVC050 09/07 A2969 RMK AO2 RAB2356 SLP054 P0001 T00940072=
202412272353 METAR KBFI 272353Z 16010KT 2SM BR BKN008 BKN025 OVC060 09/08 A2970 RMK AO2 RAB04E34 SLP058 P0000 60000 T00940078 10094 20067 51012=
202412272318 SPECI KBFI 272318Z 15005KT 2SM -RA BR BKN008 BKN025 OVC060 08/07 A2969 RMK AO2 RAB04 P0000 T00830072=
202412272309 SPECI KBFI 272309Z 18004KT 1 3/4SM -RA BR BKN008 BKN025 OVC060 09/07 A2969 RMK AO2 RAB04 P0000 T00890072=
202412272253 METAR KBFI 272253Z 19007KT 150V210 6SM BR BKN008 BKN025 OVC046 09/07 A2969 RMK AO2 SLP053 T00890067=
202412272153 METAR KBFI 272153Z 19009KT 10SM BKN013 BKN032 09/07 A2969 RMK AO2 SLP052 T00890067=
202412272111 SPECI KBFI 272111Z 17007KT 10SM BKN007 OVC009 08/07 A2968 RMK AO2 T00780072=
202412272100 SPECI KBFI 272100Z 15008KT 4SM BR OVC011 08/07 A2967 RMK AO2 T00780067=
202412272053 METAR KBFI 272053Z 13006KT 2SM BR OVC005 07/07 A2967 RMK AO2 SLP046 T00720067 53012=
202412271953 METAR KBFI 271953Z 16007KT 2SM BR OVC007 08/07 A2965 RMK AO2 SLP039 T00780067=
202412271853 METAR KBFI 271853Z 16006KT 2SM BR OVC007 07/06 A2964 RMK AO2 SLP037 T00720061=
202412271755 SPECI KBFI 271755Z 16005KT 2SM BR OVC007 07/06 A2964 RMK AO2 T00670061=
202412271753 METAR KBFI 271753Z 16004KT 1 3/4SM BR OVC022 07/06 A2963 RMK AO2 RAB38E49 SLP034 P0000 60002 T00670061 10072 20061 53028=
202412271734 SPECI KBFI 271734Z 17004KT 1 3/4SM BR OVC024 07/06 A2963 RMK AO2 T00670056=
202412271721 SPECI KBFI 271721Z 18004KT 1 3/4SM BR FEW027 OVC035 07/06 A2962 RMK AO2 T00720056=
202412271653 METAR KBFI 271653Z 00000KT 9SM OVC049 07/06 A2960 RMK AO2 RAB1557E47 SLP022 P0001 T00720061=
202412271553 METAR KBFI 271553Z 00000KT 10SM OVC060 06/06 A2958 RMK AO2 RAE50 SLP017 P0000 T00610056=
202412271453 METAR KBFI 271453Z AUTO 00000KT 8SM -RA OVC050 07/06 A2955 RMK AO2 SLP006 P0001 60001 T00720061 53014=
202412271353 METAR KBFI 271353Z 00000KT 10SM -RA OVC050 07/06 A2952 RMK AO2 RAE12B32 SLP995 P0000 T00670056 $=
202412271253 METAR KBFI 271253Z 00000KT 9SM -RA OVC040 07/06 A2951 RMK AO2 SLP991 P0000 T00720056 $=
202412271153 METAR KBFI 271153Z 00000KT 8SM -RA OVC042 07/06 A2951 RMK AO2 RAB1056 SLP993 P0000 60000 70018 T00720061 10083 20067 56011 $=
202412271053 METAR KBFI 271053Z 19006KT 10SM FEW047 OVC055 07/06 A2952 RMK AO2 RAB23E37 SLP996 P0000 T00670056 $=
202412270953 METAR KBFI 270953Z 14005KT 10SM OVC060 07/05 A2952 RMK AO2 SLP997 T00670050 $=
202412270853 METAR KBFI 270853Z 00000KT 10SM OVC065 08/05 A2954 RMK AO2 SLP004 T00780050 56034 $=
202412270753 METAR KBFI 270753Z 00000KT OVC044 08/05 A2958 RMK AO2 SLP015 T00780050 401110067 $=
202412270653 METAR KBFI 270653Z 16003KT 10SM BKN043 OVC060 07/05 A2961 RMK AO2 SLP027 T00720050=
202412270553 METAR KBFI 270553Z 20003KT 10SM FEW040 OVC055 08/05 A2964 RMK AO2 SLP038 60003 T00780050 10100 20072 58022=
202412270453 METAR KBFI 270453Z AUTO 12003KT 10SM SCT038 OVC049 09/05 A2966 RMK AO2 SLP045 T00890050=
202412270353 METAR KBFI 270353Z 14007KT 10SM SCT034 BKN045 OVC055 08/06 A2970 RMK AO2 SLP056 T00830056=
202412270253 METAR KBFI 270253Z 15009KT 10SM SCT036 SCT049 08/05 A2971 RMK AO2 RAE22 SLP060 P0000 60003 T00830050 58002=
202412270153 METAR KBFI 270153Z 18005KT 7SM -RA BKN021 BKN027 OVC055 09/07 A2972 RMK AO2 RAB20 SLP064 P0003 T00890067=
202412270151 SPECI KBFI 270151Z 18005KT 5SM -RA BR BKN021 BKN027 OVC035 09/07 A2972 RMK AO2 RAB20 P0003=
202412270141 SPECI KBFI 270141Z 23005KT 2 1/2SM -RA BR SCT021 BKN029 OVC035 09/07 A2972 RMK AO2 VIS 2V4 RAB20 P0002 T00890067=
202412270053 METAR KBFI 270053Z 19008G17KT 10SM BKN032 10/05 A2972 RMK AO2 SLP062 T01000050=
202412262353 METAR KBFI 262353Z 19012G20KT 10SM FEW024 10/05 A2970 RMK AO2 SLP058 T01000050 10111 20100 51026=
202412262253 METAR KBFI 262253Z 20013G23KT 180V240 10SM SCT030 11/06 A2968 RMK AO2 PK WND 19026/2203 SLP050 T01060056=
202412262200 SPECI KBFI 262200Z 20010G26KT 10SM SCT028 11/06 A2966 RMK AO2 PK WND 22026/2158 T01060056=
202412262153 METAR KBFI 262153Z 20009G26KT 10SM BKN023 BKN040 11/06 A2965 RMK AO2 PK WND 19027/2136 SLP041 T01060056=
202412262053 METAR KBFI 262053Z 23016G28KT 10SM BKN023 BKN040 11/06 A2963 RMK AO2 PK WND 20028/2051 SLP032 T01060061 51049=
202412262000 SPECI KBFI 262000Z 21017G28KT 10SM BKN040 BKN100 11/06 A2959 RMK AO2 PK WND 21028/1959 T01060061=
202412261953 METAR KBFI 261953Z 21016G32KT 10SM BKN017 BKN110 10/06 A2958 RMK AO2 PK WND 20032/1949 SLP018 T01000056=
202412261853 METAR KBFI 261853Z 20010G24KT 10SM BKN017 BKN110 10/06 A2955 RMK AO2 PK WND 18027/1804 SLP006 T01000061=
202412261753 METAR KBFI 261753Z 20010G29KT 10SM BKN017 BKN110 10/06 A2948 RMK AO2 PK WND 21034/1654 PRESRR SLP983 60015 T01000061 10100 20072 53081=
202412261653 METAR KBFI 261653Z 21017G34KT 10SM SCT011 BKN018 OVC100 09/06 A2939 RMK AO2 PK WND 20034/1638 PRESRR SLP952 T00940061=
202412261612 SPECI KBFI 261612Z 21014G26KT 10SM SCT011 BKN018 OVC100 09/06 A2933 RMK AO2 PK WND 23026/1612 T00940061=
202412261553 METAR KBFI 261553Z 21014G24KT 5SM BR BKN010 OVC018 09/07 A2930 RMK AO2 PK WND 17026/1505 RAB1459E24 PRESRR SLP922 P0000 T00940072=
202412261453 METAR KBFI 261453Z 15010KT 2SM BR BKN015 BKN024 OVC029 08/06 A2924 RMK AO2 RAE53 SLP902 P0006 60015 T00780061 53015=
202412261422 SPECI KBFI 261422Z 14011KT 2SM -RA BR SCT013 BKN024 OVC029 07/05 A2923 RMK AO2 P0003 T00720050=
202412261353 METAR KBFI 261353Z 13008KT 6SM -RA OVC041 08/05 A2921 RMK AO2 SLP891 P0009 T00780050=
202412261253 METAR KBFI 261253Z 14009KT 10SM -RA OVC049 08/03 A2918 RMK AO2 RAB20E30B32 SLP880 P0000 T00830033=
202412261153 METAR KBFI 261153Z 12010KT 10SM BKN048 OVC055 09/05 A2920 RMK AO2 RAB05E30 SLP886 P0000 60019 70074 T00940050 10094 20061 58027=
202412261053 METAR KBFI 261053Z 14008KT 10SM FEW043 BKN060 07/05 A2922 RMK AO2 RAE25 SLP895 P0000 T00720050=
202412260953 METAR KBFI 260953Z 14008KT 10SM -RA OVC045 07/05 A2925 RMK AO2 RAE34B50 SLP906 P0000 T00670050=
202412260853 METAR KBFI 260853Z 14007KT 10SM -RA OVC047 07/04 A2928 RMK AO2 SLP913 P0000 60019 T00720044 56063=
202412260753 METAR KBFI 260753Z 14005KT 7SM -RA OVC047 07/04 A2933 RMK AO2 SLP930 P0008 T00670044 400720022=
202412260653 METAR KBFI 260653Z 14011KT 7SM -RA OVC044 07/04 A2939 RMK AO2 PRESFR SLP953 P0011 T00670039=
202412260553 METAR KBFI 260553Z 13009G16KT 5SM -RA BR OVC044 06/04 A2946 RMK AO2 SLP976 P0010 60016 T00610039 10061 20056 58060=
202412260453 METAR KBFI 260453Z 14007KT 5SM -RA BR OVC045 06/04 A2953 RMK AO2 SLP000 P0005 T00610039=
202412260353 METAR KBFI 260353Z 00000KT 6SM -RA BR OVC040 06/04 A2959 RMK AO2 RAB26 SLP021 P0001 T00560044=
202412260253 METAR KBFI 260253Z 00000KT 10SM OVC040 06/04 A2964 RMK AO2 SLP037 60000 T00560044 56036=
202412260153 METAR KBFI 260153Z 00000KT 10SM OVC041 06/04 A2968 RMK AO2 SLP050 T00560044=
202412260053 METAR KBFI 260053Z 15004KT 10SM OVC041 06/04 A2971 RMK AO2 RAE17 SLP059 P0000 T00560044=
202412252353 METAR KBFI 252353Z 14006KT 10SM -RA OVC044 06/04 A2975 RMK AO2 RAE28B38 SLP073 P0001 60038 T00560039 10072 20056 58028=
202412252328 SPECI KBFI 252328Z 14007KT 10SM SCT027 OVC042 06/04 A2975 RMK AO2 RAE28 P0001 T00560039=
202412252301 SPECI KBFI 252301Z 13006KT 5SM -RA BR FEW021 BKN027 OVC033 06/04 A2977 RMK AO2 P0001 T00560039=
202412252253 METAR KBFI 252253Z 12006KT 4SM -RA BR SCT024 OVC031 06/04 A2978 RMK AO2 SLP085 P0006 T00560039=
202412252153 METAR KBFI 252153Z 17004KT 5SM -RA BR OVC028 06/04 A2980 RMK AO2 SLP092 P0016 T00610044=
202412252056 SPECI KBFI 252056Z 15006KT 5SM RA BR OVC027 06/04 A2983 RMK AO2 P0001 T00610044=
202412252053 METAR KBFI 252053Z 15006KT 10SM RA OVC031 06/04 A2983 RMK AO2 SLP101 P0013 60015 T00610039 56034=
202412251953 METAR KBFI 251953Z 00000KT 10SM -RA OVC031 06/04 A2986 RMK AO2 SLP111 P0002 T00610039=
202412251853 METAR KBFI 251853Z 16005KT 10SM -RA BKN041 OVC050 06/03 A2988 RMK AO2 SLP117 P0000 T00610033 $=
202412251753 METAR KBFI 251753Z 13008KT 10SM -RA OVC038 06/03 A2993 RMK AO2 SLP135 P0001 60001 T00610028 10061 20039 56016=
202412251653 METAR KBFI 251653Z 16006KT 10SM -RA OVC046 05/02 A2994 RMK AO2 RAB26 SLP140 P0000 T00500017=
202412251553 METAR KBFI 251553Z 14007KT 10SM FEW060 BKN110 05/01 A2995 RMK AO2 PRESFR SLP141 T00500011=
202412251453 METAR KBFI 251453Z 14006KT 10SM OVC085 05/01 A2998 RMK AO2 SLP151 T00500011 56025=
202412251353 METAR KBFI 251353Z 15005KT 10SM OVC080 05/01 A2999 RMK AO2 SLP156 T00500011=
202412251253 METAR KBFI 251253Z 14005KT SCT070 04/01 A3002 RMK AO2 SLP166 T00390011=
202412251153 METAR KBFI 251153Z 13004KT 10SM FEW065 BKN080 04/02 A3005 RMK AO2 SLP176 60000 T00440017 10078 20022 58011=
202412251053 METAR KBFI 251053Z 14003KT 10SM SCT055 BKN070 04/01 A3007 RMK AO2 SLP182 T00390011=
202412250953 METAR KBFI 250953Z 16004KT 10SM FEW037 03/01 A3007 RMK AO2 SLP182 T00330011=
202412250853 METAR KBFI 250853Z 12004KT 10SM CLR 05/02 A3009 RMK AO2 SLP187 60000 T00500022 50006=
202412250753 METAR KBFI 250753Z 17007KT 10SM CLR 06/03 A3011 RMK AO2 SLP194 T00610028 401110061=
202412250653 METAR KBFI 250653Z 17007KT 10SM FEW035 BKN047 07/03 A3009 RMK AO2 RAE00 SLP189 P0000 T00720033=
202412250553 METAR KBFI 250553Z 17009KT 9SM -RA BKN050 08/04 A3007 RMK AO2 RAB47 SLP181 P0000 60000 T00780039 10100 20067 53012=
202412250453 METAR KBFI 250453Z 15010KT 10SM FEW033 07/04 A3005 RMK AO2 SLP174 T00670039 $=
202412250353 METAR KBFI 250353Z 17007KT 10SM CLR 07/04 A3004 RMK AO2 SLP173 T00720039 $=
202412250253 METAR KBFI 250253Z 15009KT 10SM CLR 07/03 A3003 RMK AO2 SLP169 T00670033 51026 $=
202412250153 METAR KBFI 250153Z 16009KT 10SM CLR 08/04 A3001 RMK AO2 SLP161 T00830039 $=
202412250053 METAR KBFI 250053Z 16010KT 130V190 10SM FEW110 09/04 A2998 RMK AO2 SLP153 T00940039 $=
202412242353 METAR KBFI 242353Z 19009G18KT 10SM CLR 10/04 A2995 RMK AO2 SLP143 T01000039 10111 20094 52014 $=
202412242253 METAR KBFI 242253Z 20009G17KT 10SM CLR 11/04 A2994 RMK AO2 SLP138 T01060039 $=
202412242153 METAR KBFI 242153Z 23011G19KT 200V260 CLR 11/04 A2993 RMK AO2 SLP133 T01110039 $=
202412242053 METAR KBFI 242053Z 20009G15KT 10SM SCT026 SCT080 11/06 A2991 RMK AO2 SLP129 T01110061 50009 $=
202412241953 METAR KBFI 241953Z 20007G15KT 10SM SCT030 BKN060 11/06 A2991 RMK AO2 SLP129 T01060061 $=
202412241853 METAR KBFI 241853Z 19007G22KT 10SM SCT030 BKN050 10/06 A2991 RMK AO2 SLP127 T01000061 $=
202412241753 METAR KBFI 241753Z 17009KT 10SM SCT036 BKN120 09/06 A2989 RMK AO2 SLP119 T00940061 10111 20094 53024 $=
202412241653 METAR KBFI 241653Z 17012KT 10SM SCT029 BKN035 10/06 A2986 RMK AO2 SLP112 T01000056 $=
202412241553 METAR KBFI 241553Z 17007KT 10SM BKN035 BKN045 10/06 A2983 RMK AO2 SLP101 T01000061 $=
202412241453 METAR KBFI 241453Z 17010G19KT 10SM FEW032 SCT120 10/07 A2981 RMK AO2 SLP095 T01000067 53008 $=
202412241353 METAR KBFI 241353Z 17009KT 10SM CLR 10/07 A2982 RMK AO2 SLP097 T01000072 $=
202412241253 METAR KBFI 241253Z 18007KT CLR 11/07 A2978 RMK AO2 SLP085 T01060072 $=
202412241153 METAR KBFI 241153Z 20010G18KT 6SM HZ FEW038 11/08 A2979 RMK AO2 SLP087 60012 70014 T01110083 10117 20089 52031 $=
202412241053 METAR KBFI 241053Z 17008G17KT 6SM BR BKN038 OVC047 11/09 A2975 RMK AO2 RAE28 SLP075 P0000 T01060089 $=
202412240953 METAR KBFI 240953Z 16004KT 6SM RA BR BKN037 OVC047 09/08 A2973 RMK AO2 RAE29B45 SLP068 P0006 T00940078 $=
202412240853 METAR KBFI 240853Z VRB03KT 6SM -RA BR BKN028 OVC045 09/07 A2970 RMK AO2 SLP056 P0003 60006 T00940072 53015 $=
202412240753 METAR KBFI 240753Z 15008KT 6SM -RA OVC050 11/06 A2965 RMK AO2 RAB09E19B52 SLP039 P0000 T01110056 401390061 $=
202412240653 METAR KBFI 240653Z 13003KT 10SM OVC055 11/07 A2965 RMK AO2 RAE50 SLP041 P0003 T01060072 $=
202412240553 METAR KBFI 240553Z 11003KT 10SM -RA OVC065 11/06 A2964 RMK AO2 RAB35 SLP035 P0002 60002 T01110061 10139 20094 58021 $=
202412240453 METAR KBFI 240453Z 11012G19KT 10SM BKN055 OVC070 13/03 A2965 RMK AO2 RAE45 PRESFR SLP039 P0000 T01330028=
202412240353 METAR KBFI 240353Z 11009G28KT 10SM -RA SCT055 BKN070 OVC095 13/02 A2969 RMK AO2 PK WND 12028/0344 RAB49 SLP054 P0000 T01330022=
202412240253 METAR KBFI 240253Z 09004KT 10SM BKN110 11/04 A2970 RMK AO2 PRESFR SLP057 T01060039 58074=
202412240153 METAR KBFI 240153Z 04003KT 10SM BKN095 BKN110 09/06 A2985 RMK AO2 SLP108 T00940056=
202412240053 METAR KBFI 240053Z 09004KT 10SM BKN120 OVC200 11/06 A2985 RMK AO2 SLP108 T01060056=
202412232353 METAR KBFI 232353Z 07003KT 10SM BKN120 OVC200 11/06 A2992 RMK AO2 SLP131 T01110056 10122 20089 58049=
202412232253 METAR KBFI 232253Z 05005KT 10SM SCT120 OVC200 11/07 A2997 RMK AO2 SLP148 T01110067=
202412232153 METAR KBFI 232153Z 02003KT 10SM FEW080 12/07 A3001 RMK AO2 PRESFR SLP163 T01170067=
202412232053 METAR KBFI 232053Z 12004KT 10SM CLR 12/06 A3006 RMK AO2 SLP180 T01220061 58020=
202412231953 METAR KBFI 231953Z VRB03KT 10SM CLR 12/07 A3009 RMK AO2 SLP190 T01170067=
202412231853 METAR KBFI 231853Z 12004KT 10SM FEW200 11/07 A3012 RMK AO2 SLP199 T01060067=
202412231753 METAR KBFI 231753Z 21003KT 8SM CLR 09/07 A3012 RMK AO2 PRESRR SLP199 T00890067 10100 20061 55008=
202412231653 METAR KBFI 231653Z 17004KT 9SM SCT160 08/06 A3010 RMK AO2 SLP192 T00780056=
202412231553 METAR KBFI 231553Z 14007KT 9SM CLR 07/06 A3014 RMK AO2 SLP207 T00670056=
202412231453 METAR KBFI 231453Z 15003KT 10SM FEW050 07/06 A3014 RMK AO2 SLP207 T00670056 53019=
202412231353 METAR KBFI 231353Z 17008KT 9SM CLR 09/07 A3012 RMK AO2 SLP197 T00940072=
202412231253 METAR KBFI 231253Z 17011KT 9SM SCT075 09/07 A3010 RMK AO2 SLP193 T00940072=
202412231153 METAR KBFI 231153Z 19010G19KT 10SM CLR 10/07 A3009 RMK AO2 SLP189 60015 70025 T01000072 10117 20094 53036=
202412231053 METAR KBFI 231053Z 18013G21KT 10SM CLR 10/08 A3005 RMK AO2 SLP176 T01000078=
202412230953 METAR KBFI 230953Z 17014G20KT 10SM FEW018 10/08 A3002 RMK AO2 RAE26 SLP163 P0000 T01000083=
202412230902 SPECI KBFI 230902Z 17014G21KT 8SM -RA FEW036 BKN047 OVC100 10/08 A2999 RMK AO2 P0000 T01000083=
202412230853 METAR KBFI 230853Z 17013KT 2 1/2SM RA BR FEW036 OVC043 10/08 A2999 RMK AO2 SLP153 P0006 60015 T01000083 51029=
202412230753 METAR KBFI 230753Z 16012G19KT 10SM RA FEW035 FEW042 OVC055 11/09 A2996 RMK AO2 SLP144 P0007 T01060089 401170056=
202412230653 METAR KBFI 230653Z 18010G20KT 10SM -RA FEW039 BKN055 OVC075 11/08 A2993 RMK AO2 RAB23 SLP135 P0002 T01110083=
202412230553 METAR KBFI 230553Z 15008KT 10SM FEW028 SCT035 BKN042 09/08 A2990 RMK AO2 RAE14 SLP124 P0000 60001 T00940078 10100 20089 53029=
202412230453 METAR KBFI 230453Z 17005KT 8SM -RA FEW030 BKN038 OVC047 09/08 A2987 RMK AO2 RAE0355B37 SLP115 P0001 T00890078=
202412230353 METAR KBFI 230353Z 12007KT 10SM -RA FEW039 BKN047 OVC060 09/07 A2984 RMK AO2 RAB03 SLP103 P0000 T00940067=
202412230253 METAR KBFI 230253Z 16006KT 10SM OVC046 09/07 A2981 RMK AO2 RAE25 SLP095 P0000 60000 T00890067 52005=
202412230153 METAR KBFI 230153Z 16008KT 9SM -RA OVC043 09/07 A2981 RMK AO2 RAB25 SLP093 P0000 T00890067=
202412230053 METAR KBFI 230053Z 16007KT 10SM OVC055 09/07 A2980 RMK AO2 RAE02 SLP092 P0000 T00940067=
202412222353 METAR KBFI 222353Z 16006KT 9SM -RA BKN049 OVC060 09/07 A2980 RMK AO2 RAB52 SLP090 P0000 60009 T00890072 10094 20078 55015=
202412222253 METAR KBFI 222253Z 13008KT 10SM OVC049 09/07 A2980 RMK AO2 RAE38 SLP089 P0001 T00940067=
202412222153 METAR KBFI 222153Z 13006KT 6SM -RA BR OVC055 09/07 A2982 RMK AO2 SLP097 P0002 T00890067=
202412222053 METAR KBFI 222053Z 14006KT 10SM -RA OVC055 09/06 A2984 RMK AO2 RAB1954 SLP105 P0002 60006 T00890061 58036=
202412221953 METAR KBFI 221953Z 12006KT 9SM SCT060 OVC075 09/07 A2987 RMK AO2 RAE40 SLP114 P0000 T00890067=
202412221853 METAR KBFI 221853Z 19003KT 5SM -RA BR BKN050 OVC060 08/06 A2994 RMK AO2 SLP138 P0004 T00780061=
202412221753 METAR KBFI 221753Z 15007KT 6SM -RA BR BKN055 OVC070 08/06 A2995 RMK AO2 RAE14B41 SLP141 P0000 60000 T00780056 10078 20061 56002=
202412221653 METAR KBFI 221653Z 00000KT 7SM -RA BKN060 OVC075 07/06 A2996 RMK AO2 RAB30 SLP143 P0000 T00720061=
202412221553 METAR KBFI 221553Z 00000KT 10SM BKN070 OVC095 07/06 A2994 RMK AO2 SLP139 T00670056=
202412221453 METAR KBFI 221453Z 00000KT 10SM CLR 07/05 A2995 RMK AO2 SLP143 T00720050 58032=
202412221353 METAR KBFI 221353Z 13003KT 10SM FEW120 07/05 A2999 RMK AO2 SLP156 T00720050=
202412221253 METAR KBFI 221253Z 00000KT 10SM FEW060 SCT090 07/06 A3003 RMK AO2 SLP167 T00670056=
202412221153 METAR KBFI 221153Z 00000KT 10SM CLR 07/06 A3005 RMK AO2 SLP175 60006 70031 T00670056 10083 20056 58008=
202412221053 METAR KBFI 221053Z 15004KT 10SM SCT050 07/06 A3007 RMK AO2 RAB21E30 SLP181 P0000 T00720056=
202412220953 METAR KBFI 220953Z 12003KT 10SM BKN048 BKN080 07/06 A3007 RMK AO2 SLP182 T00670056=
202412220853 METAR KBFI 220853Z 14004KT 10SM OVC050 07/06 A3007 RMK AO2 SLP183 60006 T00670061 55001=
202412220753 METAR KBFI 220753Z 00000KT 10SM SCT043 BKN060 OVC090 07/06 A3007 RMK AO2 SLP182 T00670061 401220050=
202412220653 METAR KBFI 220653Z 16005KT 10SM SCT049 OVC060 07/06 A3007 RMK AO2 RAE33 SLP182 P0006 T00720061=
202412220553 METAR KBFI 220553Z 15006KT 9SM -RA BKN043 BKN055 OVC120 08/06 A3008 RMK AO2 RAB15E31B53 SLP184 P0000 60000 T00780056 10100 20067 53018=
202412220453 METAR KBFI 220453Z 12006KT 10SM BKN050 07/06 A3005 RMK AO2 SLP176 T00720056=
202412220353 METAR KBFI 220353Z 14008KT 10SM SCT029 BKN037 08/06 A3003 RMK AO2 SLP168 T00780061=
202412220253 METAR KBFI 220253Z 15007KT 10SM SCT029 BKN037 08/07 A3002 RMK AO2 SLP166 T00830067 51020=
202412220153 METAR KBFI 220153Z 15008KT 10SM FEW035 BKN100 08/07 A3000 RMK AO2 SLP160 T00830067=
202412220053 METAR KBFI 220053Z 14007KT 10SM SCT031 BKN060 09/07 A2999 RMK AO2 SLP156 T00940067=
202412212353 METAR KBFI 212353Z 17007KT 10SM BKN045 10/07 A2996 RMK AO2 RAE2254 SLP146 P0000 60025 T01000067 10111 20089 51021=
202412212253 METAR KBFI 212253Z 24008G21KT 10SM -RA FEW015 BKN037 09/06 A2995 RMK AO2 RAE22B42 SLP140 P0005 T00940061=
202412212245 SPECI KBFI 212245Z 23013G21KT 200V260 1 3/4SM RA FEW017 BKN035 BKN044 10/07 A2995 RMK AO2 RAE22B42 P0004 T01000067=
202412212153 METAR KBFI 212153Z 20010G14KT 9SM -RA FEW025 BKN039 OVC049 11/08 A2992 RMK AO2 SLP133 P0001 T01060078=
202412212053 METAR KBFI 212053Z 18007KT 5SM -RA BR FEW036 FEW043 OVC049 10/08 A2990 RMK AO2 SLP125 P0010 60019 T01000083 53016=
202412211953 METAR KBFI 211953Z 21003KT 5SM -RA BR SCT043 OVC055 10/08 A2988 RMK AO2 SLP118 P0003 T01000078=
202412211853 METAR KBFI 211853Z 14007KT 3SM -RA BR FEW033 FEW044 OVC055 09/07 A2987 RMK AO2 SLP115 P0006 T00890072=
202412211753 METAR KBFI 211753Z 16005KT 10SM -RA OVC070 11/07 A2986 RMK AO2 SLP109 P0000 60000 T01060072 10122 20067 51048=
202412211653 METAR KBFI 211653Z 16006KT 10SM -RA FEW045 OVC075 12/07 A2983 RMK AO2 RAB39 SLP099 P0000 T01220072=
202412211553 METAR KBFI 211553Z VRB05G14KT 10SM OVC110 08/06 A2977 RMK AO2 PRESRR SLP079 T00830061=
202412211453 METAR KBFI 211453Z 00000KT 10SM FEW055 BKN090 OVC110 08/07 A2971 RMK AO2 SLP062 T00780067 53005=
202412211353 METAR KBFI 211353Z 00000KT 10SM SCT120 09/07 A2968 RMK AO2 SLP051 T00890067=
202412211253 METAR KBFI 211253Z 34005KT 10SM CLR 09/06 A2969 RMK AO2 SLP053 T00890061=
202412211153 METAR KBFI 211153Z VRB04KT 9SM CLR 08/06 A2970 RMK AO2 PRESFR SLP056 T00780061 10078 20050 58052=
202412211053 METAR KBFI 211053Z 00000KT 8SM CLR 07/06 A2977 RMK AO2 SLP081 T00720056=
202412210953 METAR KBFI 210953Z 00000KT 7SM CLR 06/06 A2979 RMK AO2 PRESFR SLP088 T00610056=
202412210853 METAR KBFI 210853Z 00000KT 7SM CLR 06/05 A2985 RMK AO2 SLP109 T00610050 58040=
202412210753 METAR KBFI 210753Z 00000KT 10SM CLR 06/04 A2991 RMK AO2 SLP127 T00560044 401280050=
202412210653 METAR KBFI 210653Z 00000KT 10SM SCT075 07/06 A2995 RMK AO2 SLP141 T00670056=
202412210553 METAR KBFI 210553Z 00000KT 10SM FEW080 07/06 A2997 RMK AO2 SLP149 T00670056 10122 20067 58019=
202412210453 METAR KBFI 210453Z 00000KT 10SM SCT080 07/06 A3000 RMK AO2 SLP157 T00720061=
202412210353 METAR KBFI 210353Z 00000KT 10SM BKN080 08/07 A3001 RMK AO2 SLP163 T00830072=
202412210253 METAR KBFI 210253Z 00000KT 10SM SCT090 09/08 A3003 RMK AO2 SLP168 T00940078 55005=
202412210153 METAR KBFI 210153Z 00000KT 10SM BKN095 09/08 A3003 RMK AO2 SLP168 T00940078=
202412210053 METAR KBFI 210053Z 00000KT 10SM FEW075 BKN095 10/08 A3003 RMK AO2 SLP169 T01000078=
202412202353 METAR KBFI 202353Z 00000KT 10SM BKN070 12/08 A3004 RMK AO2 RAB07E25 SLP173 P0000 60000 T01220083 10128 20100 53017=
202412202253 METAR KBFI 202253Z 25003KT 10SM OVC080 12/08 A3002 RMK AO2 SLP165 T01170078=
202412202153 METAR KBFI 202153Z 13006KT 10SM FEW065 OVC090 12/08 A3001 RMK AO2 RAB35E46 SLP162 P0000 T01170078=
202412202053 METAR KBFI 202053Z AUTO 13004KT 10SM OVC110 12/08 A2999 RMK AO2 SLP156 T01220083 53003=
202412201953 METAR KBFI 201953Z 00000KT 10SM SCT100 12/09 A2994 RMK AO2 SLP137 T01170089=
202412201853 METAR KBFI 201853Z 00000KT 7SM SCT120 11/08 A2997 RMK AO2 SLP147 T01110078=
202412201753 METAR KBFI 201753Z 24003KT 9SM BKN110 10/08 A2999 RMK AO2 SLP154 60000 T01000083 10100 20078 58003=
202412201653 METAR KBFI 201653Z 00000KT 10SM FEW060 BKN070 OVC110 09/08 A3000 RMK AO2 RAE03 SLP158 P0000 T00890078=
202412201553 METAR KBFI 201553Z 00000KT 7SM -RA FEW060 FEW080 OVC095 08/07 A3001 RMK AO2 RAB19 SLP160 P0000 T00830072=
202412201453 METAR KBFI 201453Z 00000KT 10SM SCT060 BKN100 08/07 A3000 RMK AO2 SLP157 T00830072 56009=
202412201353 METAR KBFI 201353Z 10SM OVC055 08/07 A3000 RMK AO2 SLP158 T00830072=
202412201253 METAR KBFI 201253Z 00000KT 10SM OVC043 08/07 A3002 RMK AO2 SLP165 T00830072=
202412201153 METAR KBFI 201153Z 00000KT 10SM BKN045 08/07 A3002 RMK AO2 SLP166 60001 70010 T00830072 10117 20067 58007=
202412201053 METAR KBFI 201053Z 00000KT 10SM SCT050 08/06 A3004 RMK AO2 SLP171 T00780061=
202412200953 METAR KBFI 200953Z 15003KT 10SM CLR 08/06 A3003 RMK AO2 SLP169 T00780061=
202412200853 METAR KBFI 200853Z 09003KT 10SM CLR 09/08 A3004 RMK AO2 SLP173 60001 T00890083 58008=
202412200800 SPECI KBFI 200800Z 00000KT 10SM FEW047 BKN060 11/09 A3005 RMK AO2 T01110094=
202412200753 METAR KBFI 200753Z 11005KT 9SM SCT026 BKN029 OVC036 11/10 A3005 RMK AO2 RAB0656E37 SLP175 P0001 T01110100 401220072=
202412200700 SPECI KBFI 200700Z 11005KT 9SM -RA BKN024 BKN029 OVC036 12/09 A3007 RMK AO2 RAB0656 P0000 T01170094=
202412200653 METAR KBFI 200653Z 12005KT 10SM OVC032 12/09 A3007 RMK AO2 RAB20E38 SLP181 P0000 T01170094=
202412200553 METAR KBFI 200553Z 12005KT 10SM OVC032 11/09 A3007 RMK AO2 RAE10B42E53 SLP182 P0001 60009 T01110094 10117 20094 53021=
202412200453 METAR KBFI 200453Z 13003KT 8SM -RA OVC050 10/09 A3004 RMK AO2 RAB34 SLP172 P0000 T01000089=
202412200353 METAR KBFI 200353Z 00000KT 10SM OVC050 11/09 A3003 RMK AO2 RAB0254E49 SLP168 P0000 T01060094=
202412200253 METAR KBFI 200253Z 00000KT 9SM FEW050 OVC070 10/08 A3001 RMK AO2 RAE51 SLP161 P0003 60008 T01000083 51011=
202412200153 METAR KBFI 200153Z 13005KT 7SM -RA OVC065 10/08 A3000 RMK AO2 SLP158 P0004 T01000083=
202412200053 METAR KBFI 200053Z 15006G15KT 6SM -RA OVC070 11/07 A3001 RMK AO2 RAB2354 SLP161 P0001 T01060067=
202412192353 METAR KBFI 192353Z 16007KT 10SM BKN065 OVC080 11/06 A2997 RMK AO2 SLP150 60000 T01110061 10122 20094 55007=
202412192253 METAR KBFI 192253Z 00000KT 10SM OVC110 12/06 A2996 RMK AO2 SLP144 T01220056=
202412192153 METAR KBFI 192153Z 31004KT 10SM FEW060 FEW120 12/05 A2997 RMK AO2 SLP148 T01220050=
202412192053 METAR KBFI 192053Z VRB03KT 10SM BKN055 BKN070 12/04 A3000 RMK AO2 SLP157 60000 T01220044 58023=
202412191953 METAR KBFI 191953Z 32003KT 10SM OVC047 11/05 A3003 RMK AO2 RAB08E18 SLP170 P0000 T01110050=
202412191853 METAR KBFI 191853Z 31004KT 10SM BKN046 OVC060 10/05 A3005 RMK AO2 SLP176 T01000050=
202412191753 METAR KBFI 191753Z 00000KT 10SM OVC043 10/05 A3007 RMK AO2 SLP180 T01000050 10100 20072 56015=
202412191653 METAR KBFI 191653Z 00000KT 10SM BKN047 OVC060 09/06 A3008 RMK AO2 SLP185 T00890061=
202412191553 METAR KBFI 191553Z 00000KT 10SM OVC050 09/04 A3009 RMK AO2 SLP188 T00890044=
202412191153 METAR KBFI 191153Z 00000KT 10SM SCT060 BKN110 08/05 A3017 RMK AO2 SLP216 7//// T00780050 10089 20072 58016=
202412191053 METAR KBFI 191053Z 00000KT 10SM SCT060 07/05 A3019 RMK AO2 SLP224 T00720050=
202412190953 METAR KBFI 190953Z 00000KT 10SM FEW049 BKN060 08/05 A3022 RMK AO2 SLP231 T00830050=
202412190853 METAR KBFI 190853Z 00000KT 10SM BKN045 BKN060 08/04 A3022 RMK AO2 SLP232 T00780044 58016=
202412190753 METAR KBFI 190753Z 20004KT 10SM OVC055 08/04 A3023 RMK AO2 SLP238 T00830039 401390072=
202412190653 METAR KBFI 190653Z 00000KT 10SM FEW038 OVC060 09/04 A3025 RMK AO2 SLP244 T00890044=
202412190553 METAR KBFI 190553Z 00000KT 10SM BKN043 OVC055 08/05 A3027 RMK AO2 SLP248 T00830050 10111 20072 50002=
202412190453 METAR KBFI 190453Z 11003KT 10SM BKN047 08/06 A3029 RMK AO2 SLP255 T00830056=
202412190353 METAR KBFI 190353Z 00000KT 10SM CLR 08/06 A3028 RMK AO2 SLP254 T00830061=
202412190253 METAR KBFI 190253Z 00000KT 10SM BKN027 08/06 A3026 RMK AO2 SLP246 T00830061 55005=
202412190153 METAR KBFI 190153Z 00000KT 10SM BKN027 10/06 A3025 RMK AO2 SLP242 T01000056=
202412190101 SPECI KBFI 190101Z 14005KT 10SM BKN027 11/06 A3026 RMK AO2 T01060061=
202412190053 METAR KBFI 190053Z VRB06KT 10SM CLR 11/06 A3026 RMK AO2 SLP246 T01110061=
202412182353 METAR KBFI 182353Z 18007KT 10SM FEW030 BKN220 11/06 A3027 RMK AO2 SLP251 6//// T01110061 10122 20111 53012=
202412182253 METAR KBFI 182253Z 17009G15KT 10SM SCT023 BKN036 11/06 A3025 RMK AO2 SLP243 T01110061=
202412182153 METAR KBFI 182153Z 17012G24KT 10SM BKN023 BKN036 12/06 A3024 RMK AO2 SLP239 T01170061=
202412182053 METAR KBFI 182053Z 19009G19KT 140V220 10SM BKN023 BKN036 11/06 A3024 RMK AO2 SLP239 6//// T01110061 51025=
202412181953 METAR KBFI 181953Z 18011G19KT 10SM BKN022 BKN032 11/08 A3022 RMK AO2 SLP233 T01110083=
202412181853 METAR KBFI 181853Z 18011G19KT 10SM BKN018 11/08 A3019 RMK AO2 SLP222 T01110083 PNO $=
202412181753 METAR KBFI 181753Z 17007G14KT 10SM BKN020 11/06 A3016 RMK AO2 PRESRR SLP213 60000 T01110061 10133 20106 51084=
202412181653 METAR KBFI 181653Z VRB06G14KT 10SM BKN020 BKN040 11/06 A3010 RMK AO2 SLP192 T01060056=
202412181600 SPECI KBFI 181600Z 23009G21KT 10SM BKN015 BKN040 11/07 A3002 RMK AO2 PRESRR T01060067=
202412181553 METAR KBFI 181553Z 20011G21KT 10SM CLR 11/07 A3001 RMK AO2 PK WND 21026/1501 PRESRR SLP161 T01060067=
202412181453 METAR KBFI 181453Z 21011G24KT 190V250 10SM CLR 11/07 A2992 RMK AO2 RAE05 SLP130 P0000 60000 T01110072 53056=
202412181353 METAR KBFI 181353Z 24015G28KT 9SM -RA SCT027 BKN032 OVC100 12/08 A2985 RMK AO2 PK WND 19048/1312 LTG DSNT NE RAB05E14B51 PRESRR SLP107 P0000 T01170078=
202412181253 METAR KBFI 181253Z 16019G29KT 10SM SCT027 BKN032 OVC100 13/09 A2975 RMK AO2 PK WND 17031/1208 RAE14 SLP074 P0000 T01330094=
202412181249 SPECI KBFI 181249Z 17019G29KT 10SM BKN029 BKN040 BKN100 13/09 A2975 RMK AO2 PK WND 17031/1208 RAE14 P0000=
202412181153 METAR KBFI 181153Z 17017G27KT 4SM -RA SCT029 OVC035 13/10 A2974 RMK AO2 PK WND 16033/1126 RAB23 SLP070 P0001 60028 70091 T01280100 10139 20100 57008=
202412181053 METAR KBFI 181053Z 17011KT 8SM FEW027 OVC036 13/11 A2975 RMK AO2 RAE50 SLP072 P0002 T01280106=
202412180953 METAR KBFI 180953Z 17012G20KT 3SM -RA BR OVC037 13/11 A2975 RMK AO2 SLP075 P0015 T01280106=
202412180853 METAR KBFI 180853Z 17012G19KT 4SM -RA OVC070 13/11 A2976 RMK AO2 SLP078 P0008 60010 T01330106 56022=
202412180753 METAR KBFI 180753Z 16009KT 9SM -RA OVC050 12/10 A2977 RMK AO2 RAE14B40 SLP082 P0000 T01220100 401330061=
202412180653 METAR KBFI 180653Z 15008KT 10SM -RA BKN060 OVC090 12/10 A2980 RMK AO2 RAB08 SLP090 P0002 T01220100=
202412180553 METAR KBFI 180553Z 15010KT 10SM FEW030 BKN040 11/09 A2983 RMK AO2 RAE53 SLP099 P0005 60031 T01110089 10111 20078 58026=
202412180453 METAR KBFI 180453Z 14006KT 4SM -RA BR OVC024 09/08 A2986 RMK AO2 SLP112 P0002 T00890078=
202412180353 METAR KBFI 180353Z AUTO 15004KT 3SM -RA BR OVC027 08/08 A2988 RMK AO2 SLP119 P0008 T00830078=
202412180328 SPECI KBFI 180328Z 14005KT 2 1/2SM -RA BR BKN022 OVC030 08/07 A2989 RMK AO2 P0005 T00830072=
202412180256 SPECI KBFI 180256Z 16003KT 1 3/4SM -RA BR BKN022 OVC030 08/07 A2990 RMK AO2 P0001 T00830067=
202412180253 METAR KBFI 180253Z 17003KT 2SM -RA BR OVC030 08/07 A2990 RMK AO2 SLP125 P0004 60016 T00830067 56009=
202412180153 METAR KBFI 180153Z 15006KT 4SM -RA BR OVC030 08/07 A2992 RMK AO2 SLP130 P0003 T00830067=
202412180127 SPECI KBFI 180127Z 15007KT 4SM -RA BR OVC030 08/06 A2992 RMK AO2 P0003 T00830061=
202412180120 SPECI KBFI 180120Z 14007KT 5SM -RA BR OVC029 08/06 A2993 RMK AO2 P0002 T00830061=
202412180053 METAR KBFI 180053Z 13006KT 4SM -RA BR OVC030 08/06 A2993 RMK AO2 SLP134 P0009 T00830061=
202412180000 SPECI KBFI 180000Z 12009KT 3SM -RA BR OVC031 08/06 A2993 RMK AO2 P0001 T00780056=
202412172353 METAR KBFI 172353Z 13008KT 4SM -RA BR OVC025 08/06 A2993 RMK AO2 SLP136 P0008 60018 T00780056 10083 20067 56018=
202412172253 METAR KBFI 172253Z 14009KT 4SM -RA BR OVC025 08/06 A2995 RMK AO2 SLP140 P0004 T00780056=
202412172153 METAR KBFI 172153Z 13009KT 5SM -RA OVC014 08/06 A2997 RMK AO2 SLP147 P0000 T00830056=
202412172106 SPECI KBFI 172106Z 14008KT 4SM -RA OVC014 08/06 A2998 RMK AO2 P0000 T00830056=
202412172053 METAR KBFI 172053Z 14005KT 5SM -RA OVC024 08/06 A2999 RMK AO2 SLP154 P0001 60006 T00830056 56029=
202412171953 METAR KBFI 171953Z 18004KT 6SM -RA BR OVC024 08/06 A3001 RMK AO2 SLP162 P0004 T00780056=
202412171853 METAR KBFI 171853Z 00000KT 4SM -RA BR OVC024 07/05 A3004 RMK AO2 SLP171 P0001 T00720050=
202412171753 METAR KBFI 171753Z 13009KT 4SM -RA BKN024 OVC040 07/04 A3007 RMK AO2 SLP183 P0007 60014 T00670039 10072 20061 50001=
202412171653 METAR KBFI 171653Z 13006KT 6SM -RA BR BKN030 OVC040 07/04 A3009 RMK AO2 SLP188 P0004 T00670044=
202412171553 METAR KBFI 171553Z 15004KT 6SM -RA BR FEW039 OVC046 06/04 A3009 RMK AO2 SLP190 P0003 T00610044=
202412171453 METAR KBFI 171453Z 16005KT 9SM -RA OVC035 07/04 A3007 RMK AO2 RAB45 SLP182 P0000 60000 T00670039 50003=
202412171353 METAR KBFI 171353Z 16005KT 10SM OVC034 07/04 A3008 RMK AO2 SLP186 T00670039=
202412171253 METAR KBFI 171253Z 16004KT 10SM OVC036 07/04 A3007 RMK AO2 RAE47 SLP183 P0000 T00670039=
202412171153 METAR KBFI 171153Z 15005KT 8SM -RA OVC038 06/04 A3006 RMK AO2 RAB50 SLP178 P0000 60000 70010 T00610039 10072 20050 50013=
202412171053 METAR KBFI 171053Z 14003KT 10SM BKN038 OVC048 07/03 A3006 RMK AO2 RAE01 SLP179 P0000 T00670033=
202412170953 METAR KBFI 170953Z AUTO 16003KT 10SM -RA FEW046 OVC055 06/03 A3005 RMK AO2 RAB28 SLP175 P0000 T00610033=
202412170853 METAR KBFI 170853Z 17004KT 10SM OVC041 06/03 A3002 RMK AO2 RAB06E33 SLP165 P0000 60000 T00610033 51023=
202412170753 METAR KBFI 170753Z 14004KT 10SM OVC048 06/03 A3001 RMK AO2 RAB0657E24 SLP162 P0000 T00610028 401060050=
202412170653 METAR KBFI 170653Z 16004KT 10SM BKN060 OVC070 06/03 A2998 RMK AO2 SLP152 T00560028=
202412170553 METAR KBFI 170553Z 00000KT 10SM BKN085 OVC110 06/03 A2995 RMK AO2 SLP142 T00560033 10100 20050 53012=
202412170453 METAR KBFI 170453Z 00000KT 10SM OVC095 07/04 A2993 RMK AO2 SLP135 T00670039=
202412170353 METAR KBFI 170353Z 00000KT 10SM SCT110 06/03 A2992 RMK AO2 SLP132 T00560028=
202412170253 METAR KBFI 170253Z 00000KT 10SM CLR 07/03 A2992 RMK AO2 SLP130 T00670028 51005=
202412170153 METAR KBFI 170153Z 14004KT 10SM SCT080 08/03 A2992 RMK AO2 SLP130 T00830028=
202412170053 METAR KBFI 170053Z 10003KT 10SM FEW032 SCT100 09/03 A2991 RMK AO2 SLP129 T00890033=
202412162353 METAR KBFI 162353Z 09004KT 10SM FEW032 SCT100 10/04 A2990 RMK AO2 SLP125 T01000039 10106 20072 53002=
202412162253 METAR KBFI 162253Z 14003KT 10SM SCT050 11/06 A2989 RMK AO2 SLP121 T01060056=
202412162153 METAR KBFI 162153Z 15005KT 10SM FEW050 BKN100 09/05 A2989 RMK AO2 SLP122 T00940050=
202412162053 METAR KBFI 162053Z 16009KT 10SM FEW055 BKN110 09/05 A2990 RMK AO2 SLP123 T00940050 56006=
202412161953 METAR KBFI 161953Z 16007KT 10SM SCT038 BKN055 09/05 A2990 RMK AO2 SLP124 T00890050=
202412161853 METAR KBFI 161853Z 15009KT 10SM BKN032 08/05 A2991 RMK AO2 SLP126 T00830050=
202412161753 METAR KBFI 161753Z 15005KT 10SM BKN035 07/04 A2991 RMK AO2 SLP129 60010 T00720044 10072 20056 50014=
202412161653 METAR KBFI 161653Z 15003KT 10SM BKN033 07/04 A2991 RMK AO2 SLP129 T00670044=
202412161553 METAR KBFI 161553Z 00000KT 10SM OVC033 06/04 A2989 RMK AO2 RAE03 SLP122 P0000 T00610044=
202412161453 METAR KBFI 161453Z 00000KT 6SM -RA BR OVC034 06/04 A2987 RMK AO2 SLP115 P0000 60010 T00560044 55009=
202412161353 METAR KBFI 161353Z 13003KT 5SM -RA BR OVC032 06/04 A2987 RMK AO2 SLP114 P0006 T00560039=
202412161253 METAR KBFI 161253Z 07003KT 3SM -RA BR OVC034 06/04 A2988 RMK AO2 SLP118 P0004 T00560039=
202412161153 METAR KBFI 161153Z 00000KT 5SM -RA BR OVC038 06/04 A2990 RMK AO2 SLP124 P0002 60002 70002 T00560039 10061 20050 55018=
202412161053 METAR KBFI 161053Z 00000KT 8SM -RA OVC046 06/03 A2990 RMK AO2 RAB0956 SLP123 P0000 T00560028=
202412160953 METAR KBFI 160953Z 00000KT 10SM OVC055 06/03 A2993 RMK AO2 SLP134 T00560028=
202412160853 METAR KBFI 160853Z 00000KT 10SM OVC080 06/03 A2995 RMK AO2 SLP142 60000 T00560028 58036=
202412160753 METAR KBFI 160753Z 00000KT 10SM OVC085 06/03 A3000 RMK AO2 PRESFR SLP157 T00610028 400940044=
202412160653 METAR KBFI 160653Z 27003KT 10SM OVC060 06/02 A3004 RMK AO2 RAE0554 SLP171 P0000 T00610022=
202412160553 METAR KBFI 160553Z 00000KT 10SM -RA OVC055 06/03 A3006 RMK AO2 RAB39 SLP178 P0000 60000 T00610028 10083 20050 56025=
202412160453 METAR KBFI 160453Z 00000KT 10SM BKN060 BKN075 06/03 A3009 RMK AO2 SLP188 T00610033=
202412160353 METAR KBFI 160353Z 00000KT 10SM SCT080 OVC095 06/03 A3010 RMK AO2 SLP192 T00560028=
202412160253 METAR KBFI 160253Z 00000KT 10SM SCT085 BKN110 06/03 A3013 RMK AO2 SLP203 T00560028 57015=
202412160153 METAR KBFI 160153Z 10SM FEW020 07/03 A3014 RMK AO2 SLP207 T00670028=
202412160053 METAR KBFI 160053Z 00000KT 10SM BKN100 07/03 A3017 RMK AO2 SLP215 T00670028=
202412152353 METAR KBFI 152353Z 00000KT 10SM FEW020 SCT040 08/03 A3018 RMK AO2 SLP218 T00780028 10094 20061 56005=
202412152253 METAR KBFI 152253Z 00000KT 10SM SCT029 08/03 A3018 RMK AO2 SLP220 T00830028=
202412152153 METAR KBFI 152153Z VRB04KT 10SM FEW027 09/03 A3018 RMK AO2 SLP220 T00940028=
202412152053 METAR KBFI 152053Z 18006KT 10SM CLR 09/03 A3019 RMK AO2 SLP224 T00890033 58009=
202412151953 METAR KBFI 151953Z 20006KT 10SM CLR 08/03 A3021 RMK AO2 SLP228 T00780028=
202412151853 METAR KBFI 151853Z 18006G18KT 10SM FEW022 08/03 A3022 RMK AO2 SLP231 T00780028=
202412151753 METAR KBFI 151753Z 14007KT 10SM SCT019 06/02 A3022 RMK AO2 SLP233 T00610022 10061 20044 51021=
202412151653 METAR KBFI 151653Z 13006KT 10SM SCT019 06/02 A3021 RMK AO2 SLP228 T00610017=
202412151553 METAR KBFI 151553Z 09003KT 10SM SCT014 05/02 A3018 RMK AO2 SLP221 T00500022=
202412151453 METAR KBFI 151453Z 13008KT 10SM BKN014 06/02 A3016 RMK AO2 SLP211 T00560022 53012=
202412151353 METAR KBFI 151353Z 14008KT 10SM BKN017 05/03 A3015 RMK AO2 SLP207 T00500028=
202412151253 METAR KBFI 151253Z 19006G20KT 10SM SCT017 BKN022 OVC100 06/03 A3012 RMK AO2 SLP199 T00610028=
202412151249 SPECI KBFI 151249Z 18008G20KT 10SM SCT017 BKN021 BKN100 06/03 A3012 RMK AO2=
202412151153 METAR KBFI 151153Z 18006KT 10SM FEW017 06/03 A3010 RMK AO2 SLP191 60000 70010 T00560028 10067 20056 53024=
202412151053 METAR KBFI 151053Z 18009G19KT 150V220 10SM FEW075 BKN095 BKN110 06/03 A3007 RMK AO2 SLP181 T00610028=
202412150953 METAR KBFI 150953Z 18008G18KT 10SM FEW017 SCT120 06/03 A3004 RMK AO2 SLP172 T00560028=
202412150942 SPECI KBFI 150942Z 17011G18KT 10SM SCT017 06/03 A3004 RMK AO2 T00560028=
202412150912 SPECI KBFI 150912Z 17013G23KT 10SM BKN023 OVC090 06/03 A3003 RMK AO2 T00610028=
202412150853 METAR KBFI 150853Z 17010KT 10SM BKN095 OVC110 06/03 A3002 RMK AO2 SLP166 60000 T00610033 51026=
202412150833 SPECI KBFI 150833Z 18010KT 10SM FEW021 SCT031 OVC110 06/03 A3002 RMK AO2 T00610033=
202412150753 METAR KBFI 150753Z 18007KT 10SM OVC021 06/03 A3001 RMK AO2 SLP163 T00610033 401060056=
202412150731 SPECI KBFI 150731Z 18007G17KT 10SM BKN019 07/03 A3000 RMK AO2 T00670033=
202412150653 METAR KBFI 150653Z 18009KT 10SM CLR 06/03 A2997 RMK AO2 RAE0559 SLP150 P0000 T00610028=
202412150600 SPECI KBFI 150600Z 18011G20KT 10SM BKN044 OVC075 06/03 A2995 RMK AO2 RAE0559 P0000 T00610033=
202412150553 METAR KBFI 150553Z 17011G20KT 4SM -RA BKN028 BKN039 OVC048 06/03 A2995 RMK AO2 SLP140 P0006 60007 T00610028 10094 20061 51024=
202412150453 METAR KBFI 150453Z 16005KT 4SM -RA BKN028 BKN039 BKN048 07/04 A2992 RMK AO2 RAB45 SLP132 P0001 T00720044=
202412150353 METAR KBFI 150353Z 16008KT 10SM FEW025 OVC035 07/04 A2991 RMK AO2 SLP126 T00720039=
202412150253 METAR KBFI 150253Z 18010G20KT 10SM FEW027 FEW065 08/04 A2988 RMK AO2 SLP116 60000 T00780039 53033=
202412150153 METAR KBFI 150153Z 20006G20KT 10SM FEW048 SCT060 08/03 A2984 RMK AO2 SLP103 T00830033=
202412150053 METAR KBFI 150053Z 21010G19KT 10SM FEW028 BKN040 BKN048 09/04 A2981 RMK AO2 RAB2356E05B24E33 SLP095 P0000 T00890044=
202412142353 METAR KBFI 142353Z VRB04G15KT 10SM BKN025 BKN030 BKN036 09/05 A2978 RMK AO2 RAB00E26 SLP084 P0002 60003 T00940050 10106 20089 51027=
202412142350 SPECI KBFI 142350Z 20007G20KT 170V260 10SM SCT025 BKN030 BKN038 09/05 A2978 RMK AO2 RAB00E26 P0002=
202412142253 METAR KBFI 142253Z 18015G23KT 10SM BKN028 BKN034 10/04 A2973 RMK AO2 PK WND 17029/2212 RAE33 SLP067 P0000 T01000044=
202412142153 METAR KBFI 142153Z 18015G24KT 7SM -RA SCT025 BKN031 10/06 A2970 RMK AO2 PK WND 17030/2056 RAB48 SLP056 P0000 T01000056=
202412142053 METAR KBFI 142053Z 17015G29KT 10SM SCT029 BKN037 BKN050 10/04 A2967 RMK AO2 PK WND 18035/2004 SLP048 60001 T01000044 51028=
202412141953 METAR KBFI 141953Z 17022G32KT 10SM BKN038 BKN055 10/05 A2965 RMK AO2 PK WND 17033/1902 RAE52 SLP040 P0001 T01000050=
202412141853 METAR KBFI 141853Z 18021G31KT 10SM -RA BKN040 BKN047 OVC055 11/04 A2963 RMK AO2 PK WND 17038/1821 RAB49 SLP032 P0000 T01060044=
202412141753 METAR KBFI 141753Z 17018G30KT 10SM OVC043 11/05 A2959 RMK AO2 PK WND 20034/1708 RAE27 SLP020 P0000 60000 T01060050 10106 20056 53025=
202412141653 METAR KBFI 141653Z 16013G28KT 10SM -RA SCT039 OVC047 10/04 A2956 RMK AO2 PK WND 17039/1621 RAB45 SLP010 P0000 T01000044=
202412141553 METAR KBFI 141553Z 15016G29KT 10SM BKN050 BKN060 10/04 A2953 RMK AO2 PK WND 16036/1527 RAE01 SLP001 P0000 T01000044=
202412141453 METAR KBFI 141453Z 17017G29KT 7SM -RA OVC048 10/04 A2952 RMK AO2 PK WND 15029/1450 RAB07 SLP995 P0000 60000 T01000039 53002=
202412141353 METAR KBFI 141353Z 15014KT 10SM BKN060 OVC080 08/03 A2949 RMK AO2 SLP986 T00780033=
202412141253 METAR KBFI 141253Z 15008KT 10SM FEW060 SCT075 07/03 A2950 RMK AO2 SLP991 T00670033=
202412141153 METAR KBFI 141153Z 14007KT 10SM FEW050 BKN070 06/03 A2951 RMK AO2 SLP993 60002 70041 T00610033 10072 20061 58005=
202412141053 METAR KBFI 141053Z 15005KT 10SM BKN065 OVC075 06/04 A2953 RMK AO2 SLP998 T00610039=
202412140953 METAR KBFI 140953Z 13006KT 10SM OVC050 07/04 A2953 RMK AO2 SLP998 T00670044=
202412140853 METAR KBFI 140853Z 14003KT 10SM OVC046 07/04 A2953 RMK AO2 SLP998 60002 T00670044 58005=
202412140753 METAR KBFI 140753Z 00000KT 10SM BKN048 07/04 A2954 RMK AO2 RAE0654B15E26 SLP004 P0000 T00670044 400830044=
202412140653 METAR KBFI 140653Z 10003KT 10SM -RA OVC050 07/04 A2955 RMK AO2 SLP005 P0002 T00670044=
202412140553 METAR KBFI 140553Z 15004KT 10SM -RA OVC050 07/04 A2954 RMK AO2 SLP004 P0000 60027 T00670044 10072 20067 58008=
202412140453 METAR KBFI 140453Z 12006KT 6SM -RA BR OVC045 07/04 A2956 RMK AO2 SLP010 P0006 T00670044=
202412140353 METAR KBFI 140353Z 13008KT 6SM -RA OVC045 07/04 A2956 RMK AO2 SLP009 P0007 T00720044=
202412140253 METAR KBFI 140253Z 15010KT 5SM -RA BR OVC040 07/04 A2957 RMK AO2 SLP011 P0007 60014 T00670044 56014=
202412140153 METAR KBFI 140153Z 13009G16KT 6SM -RA OVC045 07/04 A2957 RMK AO2 SLP011 P0004 T00720039=
202412140053 METAR KBFI 140053Z 13007KT 6SM -RA OVC044 07/04 A2958 RMK AO2 SLP018 P0003 T00720044=
202412132353 METAR KBFI 132353Z 15008KT 5SM -RA OVC044 07/04 A2961 RMK AO2 SLP026 P0004 60012 T00720044 10083 20067 56023=
202412132253 METAR KBFI 132253Z 16004KT 3SM -RA OVC044 08/04 A2963 RMK AO2 SLP032 P0004 T00780044=
202412132153 METAR KBFI 132153Z 10003KT 4SM -RA OVC044 08/05 A2965 RMK AO2 SLP040 P0003 T00780050=
202412132053 METAR KBFI 132053Z 16004KT 7SM -RA BKN050 OVC060 08/05 A2968 RMK AO2 SLP049 P0001 60001 T00830050 58032=
202412131953 METAR KBFI 131953Z 00000KT 9SM -RA SCT025 SCT047 OVC060 08/04 A2972 RMK AO2 RAB1859 SLP062 P0000 T00830044=
202412131853 METAR KBFI 131853Z 15005KT 10SM BKN046 OVC070 07/04 A2975 RMK AO2 RAE43 SLP074 P0000 T00720044=
202412131753 METAR KBFI 131753Z 14006KT 10SM -RA OVC032 07/03 A2977 RMK AO2 SLP080 P0000 60000 T00720033 10072 20044 53003=
202412131653 METAR KBFI 131653Z 36003KT 7SM -RA OVC047 07/04 A2976 RMK AO2 RAB45 SLP076 P0000 T00670039=
202412131553 METAR KBFI 131553Z 17003KT 10SM OVC095 05/03 A2973 RMK AO2 SLP068 T00500033=
202412131453 METAR KBFI 131453Z 00000KT 10SM BKN060 OVC090 06/03 A2976 RMK AO2 SLP077 T00560033 56010=
202412131353 METAR KBFI 131353Z 15003KT 10SM OVC110 06/03 A2977 RMK AO2 SLP079 T00560033=
202412131253 METAR KBFI 131253Z 17004KT 10SM FEW060 OVC100 06/03 A2977 RMK AO2 SLP082 T00560033=
202412131153 METAR KBFI 131153Z 00000KT 10SM SCT100 05/04 A2979 RMK AO2 SLP087 T00500039 10072 20050 57012=
202412131053 METAR KBFI 131053Z 16003KT 10SM SCT015 BKN040 05/04 A2981 RMK AO2 SLP092 T00500039=
202412130953 METAR KBFI 130953Z 12005KT 9SM BKN015 OVC040 07/05 A2981 RMK AO2 SLP094 T00720050=
202412130853 METAR KBFI 130853Z 13004KT 10SM BKN015 OVC037 07/04 A2982 RMK AO2 SLP099 T00720044 53006=
202412130753 METAR KBFI 130753Z 15006KT 10SM BKN029 OVC035 07/05 A2981 RMK AO2 SLP092 T00670050 400940011=
202412130653 METAR KBFI 130653Z 14005KT 9SM BKN029 OVC040 07/05 A2981 RMK AO2 SLP093 T00670050=
202412130553 METAR KBFI 130553Z 14004KT 9SM SCT008 OVC021 07/05 A2981 RMK AO2 SLP093 T00670050 10078 20067 56004=
202412130523 SPECI KBFI 130523Z 14005KT 9SM BKN008 OVC023 07/05 A2981 RMK AO2 T00670050=
202412130500 SPECI KBFI 130500Z 14005KT 9SM BKN017 OVC023 07/05 A2981 RMK AO2 T00670050=
202412130453 METAR KBFI 130453Z 16004KT 3SM BR BKN009 OVC015 07/05 A2981 RMK AO2 SLP095 T00670050=
202412130353 METAR KBFI 130353Z 15006KT 6SM BR SCT002 OVC009 07/06 A2981 RMK AO2 SLP095 T00670056=
202412130307 SPECI KBFI 130307Z 14007KT 3SM BR SCT002 OVC009 07/06 A2982 RMK AO2 T00670056=
202412130253 METAR KBFI 130253Z 15006KT 2SM BR SCT002 OVC009 07/06 A2982 RMK AO2 SLP097 T00670056 50003=
202412130200 SPECI KBFI 130200Z 15007KT 2 1/2SM BR BKN009 OVC022 07/06 A2982 RMK AO2 T00670056=
202412130153 METAR KBFI 130153Z 14006KT 3SM BR BKN009 OVC022 07/06 A2982 RMK AO2 SLP098 T00670056=
202412130132 SPECI KBFI 130132Z 16005KT 5SM BR BKN009 OVC022 07/05 A2982 RMK AO2 T00720050=
202412130053 METAR KBFI 130053Z VRB05KT 10SM OVC019 08/05 A2982 RMK AO2 SLP097 T00780050=
202412122353 METAR KBFI 122353Z 15004KT 10SM OVC025 08/04 A2981 RMK AO2 SLP094 T00780044 10094 20072 53002=
202412122346 SPECI KBFI 122346Z 00000KT 10SM OVC029 08/04 A2981 RMK AO2 T00780044=
202412122253 METAR KBFI 122253Z 15004KT 10SM BKN031 OVC040 08/04 A2980 RMK AO2 SLP091 T00780039=
202412122153 METAR KBFI 122153Z 21005KT 10SM OVC042 09/03 A2980 RMK AO2 SLP091 T00890033=
202412122053 METAR KBFI 122053Z 14003KT 10SM OVC040 09/04 A2981 RMK AO2 SLP092 T00890039 58003=
202412121953 METAR KBFI 121953Z 15003KT 10SM OVC050 08/03 A2981 RMK AO2 SLP093 T00830033=
202412121853 METAR KBFI 121853Z 00000KT 10SM BKN047 OVC070 08/03 A2982 RMK AO2 SLP096 T00830028=
202412121753 METAR KBFI 121753Z 00000KT 9SM OVC060 07/04 A2981 RMK AO2 RAE17 SLP095 P0000 60000 T00720044 10072 20022 51013=
202412121653 METAR KBFI 121653Z 00000KT 6SM -RA BR OVC060 06/03 A2981 RMK AO2 RAB38 SLP093 P0000 T00560033=
202412121553 METAR KBFI 121553Z 00000KT 10SM BKN050 OVC070 05/02 A2979 RMK AO2 SLP086 T00500022=
202412121453 METAR KBFI 121453Z 00000KT 9SM BKN060 OVC080 04/02 A2978 RMK AO2 SLP082 T00440017 56002=
202412121353 METAR KBFI 121353Z 00000KT 10SM OVC080 04/02 A2978 RMK AO2 SLP082 T00390017 $=
202412121253 METAR KBFI 121253Z 00000KT 10SM BKN110 03/02 A2978 RMK AO2 SLP082 T00330017 $=
202412121153 METAR KBFI 121153Z 00000KT 10SM OVC100 03/01 A2978 RMK AO2 SLP084 T00280011 10033 20006 58001 $=
202412121053 METAR KBFI 121053Z 00000KT 8SM BKN090 02/01 A2980 RMK AO2 SLP089 T00220011 $=
202412120953 METAR KBFI 120953Z 00000KT 10SM BKN090 BKN120 02/01 A2978 RMK AO2 SLP085 T00170006 $=
202412120853 METAR KBFI 120853Z 00000KT 9SM CLR 02/01 A2978 RMK AO2 SLP085 T00220006 58015 $=
202412120753 METAR KBFI 120753Z 19005KT 10SM CLR 01/M01 A2981 RMK AO2 SLP094 T00061006 401060006 $=
202412120653 METAR KBFI 120653Z 00000KT 10SM CLR 02/01 A2981 RMK AO2 SLP095 T00220006 $=
202412120553 METAR KBFI 120553Z 00000KT 10SM CLR 02/00 A2983 RMK AO2 SLP100 T00220000 10100 20022 56011 $=
202412120453 METAR KBFI 120453Z 00000KT 10SM CLR 03/01 A2984 RMK AO2 SLP103 T00330006 $=
202412120353 METAR KBFI 120353Z 00000KT 8SM CLR 04/02 A2985 RMK AO2 SLP107 T00390017 $=
202412120253 METAR KBFI 120253Z VRB03KT 9SM CLR 05/02 A2986 RMK AO2 SLP111 T00500022 56019 $=
202412120153 METAR KBFI 120153Z 00000KT 9SM CLR 06/02 A2988 RMK AO2 SLP117 T00560022=
202412120053 METAR KBFI 120053Z 00000KT 10SM CLR 07/03 A2989 RMK AO2 SLP122 T00720028=
202412112353 METAR KBFI 112353Z 00000KT 10SM CLR 10/03 A2992 RMK AO2 SLP130 T01000033 10106 20050 56031=
202412112253 METAR KBFI 112253Z 00000KT 10SM CLR 11/03 A2993 RMK AO2 SLP135 T01060028=
202412112153 METAR KBFI 112153Z 15004KT 10SM CLR 09/04 A2997 RMK AO2 SLP149 T00940039=
202412112053 METAR KBFI 112053Z 14004KT 10SM FEW090 BKN160 08/04 A3001 RMK AO2 SLP162 T00830039 58022=
202412111953 METAR KBFI 111953Z 00000KT 8SM FEW090 BKN150 08/04 A3003 RMK AO2 SLP169 T00780039=
202412111853 METAR KBFI 111853Z 00000KT 10SM SCT090 OVC120 07/03 A3006 RMK AO2 SLP179 T00670033=
202412111753 METAR KBFI 111753Z 00000KT 9SM BKN150 05/02 A3007 RMK AO2 SLP184 T00500022 10050 20028 56020=
202412111653 METAR KBFI 111653Z 00000KT 10SM BKN150 04/02 A3008 RMK AO2 SLP186 T00390017=
202412111553 METAR KBFI 111553Z AUTO 11004KT 9SM CLR 04/02 A3011 RMK AO2 SLP194 T00390017=
202412111453 METAR KBFI 111453Z 14006KT 9SM CLR 03/01 A3013 RMK AO2 SLP203 T00280011 56009=
202412111353 METAR KBFI 111353Z 14006KT 9SM OVC120 03/01 A3015 RMK AO2 SLP208 T00330011=
202412111253 METAR KBFI 111253Z 10SM CLR 03/02 A3015 RMK AO2 SLP208 T00330017=
202412111153 METAR KBFI 111153Z 21003KT 10SM CLR 04/02 A3016 RMK AO2 SLP213 T00390017 10044 20028 58020=
202412111053 METAR KBFI 111053Z 16004KT 9SM CLR 03/02 A3019 RMK AO2 SLP221 T00330017=
202412110953 METAR KBFI 110953Z 15006KT 9SM CLR 03/01 A3021 RMK AO2 SLP228 T00330011=
202412110853 METAR KBFI 110853Z 14005KT 7SM CLR 03/02 A3022 RMK AO2 SLP233 T00330017 58014=
202412110753 METAR KBFI 110753Z 14005KT 9SM CLR 03/01 A3024 RMK AO2 SLP239 T00280011 400830017=
202412110653 METAR KBFI 110653Z 14005KT 10SM CLR 03/02 A3025 RMK AO2 SLP243 T00330017=
202412110553 METAR KBFI 110553Z 15003KT 10SM CLR 04/02 A3026 RMK AO2 SLP246 T00440017 10067 20033 58002=
202412110453 METAR KBFI 110453Z 00000KT 10SM CLR 05/02 A3027 RMK AO2 SLP248 T00500017=
202412110353 METAR KBFI 110353Z 00000KT 10SM CLR 06/02 A3026 RMK AO2 SLP248 T00560017=
202412110253 METAR KBFI 110253Z 34003KT 10SM CLR 06/02 A3027 RMK AO2 SLP249 T00560017 56013=
202412110153 METAR KBFI 110153Z 02003KT 10SM CLR 06/02 A3027 RMK AO2 SLP251 T00560017=
202412110053 METAR KBFI 110053Z VRB03KT 10SM CLR 07/02 A3029 RMK AO2 SLP255 T00670017=
202412102353 METAR KBFI 102353Z 31004KT 10SM CLR 07/03 A3031 RMK AO2 SLP262 T00670028 10083 20050 56024=
202412102253 METAR KBFI 102253Z VRB03KT 10SM CLR 08/01 A3032 RMK AO2 SLP267 T00780011=
202412102153 METAR KBFI 102153Z VRB03KT 10SM CLR 08/02 A3035 RMK AO2 SLP276 T00780017=
202412102053 METAR KBFI 102053Z VRB03KT 10SM CLR 08/02 A3038 RMK AO2 SLP286 T00780022 58022=
202412101953 METAR KBFI 101953Z 07005KT 10SM CLR 07/02 A3040 RMK AO2 SLP292 T00670022=
202412101853 METAR KBFI 101853Z 05003KT 10SM CLR 06/02 A3043 RMK AO2 SLP302 T00610017=
202412101753 METAR KBFI 101753Z VRB04KT 10SM CLR 05/01 A3044 RMK AO2 SLP308 T00500011 10050 20017 55006=
202412101653 METAR KBFI 101653Z 00000KT 10SM FEW003 SCT020 03/01 A3044 RMK AO2 SLP308 T00330011=
202412101553 METAR KBFI 101553Z 00000KT 5SM BR BKN003 OVC020 02/01 A3045 RMK AO2 SLP311 T00220011=
202412101453 METAR KBFI 101453Z 29003KT 5SM BR BKN003 03/01 A3046 RMK AO2 SLP315 T00280011 55002=
202412101353 METAR KBFI 101353Z 00000KT 10SM OVC004 03/02 A3046 RMK AO2 SLP313 T00280017=
202412101253 METAR KBFI 101253Z 00000KT 10SM OVC004 02/01 A3047 RMK AO2 SLP316 T00220006=
202412101206 SPECI KBFI 101206Z 00000KT 3SM BR OVC002 03/02 A3047 RMK AO2 T00280022=
202412101153 METAR KBFI 101153Z VRB03KT 1 1/2SM BR OVC002 03/02 A3047 RMK AO2 SLP317 T00280022 10050 20028 58009=
202412101146 SPECI KBFI 101146Z 35003KT 1 1/4SM BR OVC002 03/02 A3047 RMK AO2 T00280022=
202412101053 METAR KBFI 101053Z 00000KT 1/2SM FG VV002 03/03 A3049 RMK AO2 SLP324 T00330028=
202412100953 METAR KBFI 100953Z 00000KT 1/2SM FG OVC003 03/03 A3049 RMK AO2 SLP325 T00330028=
202412100853 METAR KBFI 100853Z 17004KT 1/2SM FG OVC005 03/02 A3050 RMK AO2 SLP326 T00330022 58001=
202412100831 SPECI KBFI 100831Z 14005KT 1SM BR OVC005 03/02 A3051 RMK AO2 T00330022=
202412100753 METAR KBFI 100753Z 13004KT 6SM BR OVC005 03/02 A3051 RMK AO2 SLP330 T00330022 401060033=
202412100653 METAR KBFI 100653Z 00000KT 10SM SCT008 04/02 A3051 RMK AO2 SLP330 T00440022=
202412100553 METAR KBFI 100553Z 00000KT 10SM CLR 04/02 A3050 RMK AO2 SLP328 T00390022 10094 20033 58002=
202412100453 METAR KBFI 100453Z 00000KT 10SM CLR 04/02 A3051 RMK AO2 SLP330 T00440022=
202412100353 METAR KBFI 100353Z 00000KT 10SM CLR 06/03 A3051 RMK AO2 SLP330 T00560028=
202412100253 METAR KBFI 100253Z 00000KT 10SM CLR 06/03 A3051 RMK AO2 SLP329 T00610028 58002=
202412100153 METAR KBFI 100153Z 00000KT 10SM CLR 07/03 A3051 RMK AO2 SLP332 T00670028=
202412100053 METAR KBFI 100053Z 07003KT 10SM FEW018 08/03 A3051 RMK AO2 SLP332 T00830033=
202412092353 METAR KBFI 092353Z VRB03KT 10SM FEW018 09/04 A3051 RMK AO2 SLP331 T00940039 10106 20072 51004=
202412092253 METAR KBFI 092253Z VRB04KT 10SM FEW038 09/04 A3051 RMK AO2 SLP329 T00890044=
202412092153 METAR KBFI 092153Z VRB04KT 10SM SCT022 SCT030 BKN039 10/05 A3050 RMK AO2 SLP329 T01000050=
202412092053 METAR KBFI 092053Z 01003KT 10SM BKN039 09/04 A3050 RMK AO2 SLP327 T00890044 55002=
202412092050 SPECI KBFI 092050Z 00000KT 10SM BKN039 09/04 A3050 RMK AO2=
202412091953 METAR KBFI 091953Z 00000KT 10SM BKN022 BKN028 10/05 A3050 RMK AO2 SLP326 T01000050=
202412091853 METAR KBFI 091853Z 16003KT 10SM BKN017 09/04 A3050 RMK AO2 SLP329 T00890044=
202412091753 METAR KBFI 091753Z 16005KT 10SM BKN017 07/04 A3051 RMK AO2 SLP330 T00720039 10072 20056 53008=
202412091653 METAR KBFI 091653Z 14004KT 10SM SCT023 OVC040 07/03 A3049 RMK AO2 SLP325 T00670033=
202412091553 METAR KBFI 091553Z 13003KT 10SM BKN018 OVC046 06/03 A3048 RMK AO2 SLP322 T00560028=
202412091453 METAR KBFI 091453Z 15005KT 10SM BKN020 06/03 A3048 RMK AO2 SLP322 T00560033 53004=
202412091353 METAR KBFI 091353Z 15005KT 10SM SCT014 OVC019 06/04 A3047 RMK AO2 SLP319 T00610039=
202412091253 METAR KBFI 091253Z 16004KT 10SM OVC014 07/04 A3047 RMK AO2 SLP318 T00670044=
202412091249 SPECI KBFI 091249Z 16004KT 10SM OVC014 07/04 A3047 RMK AO2=
202412091153 METAR KBFI 091153Z 14003KT 10SM SCT018 BKN026 07/04 A3046 RMK AO2 SLP315 T00670039 10072 20061 51017=
202412091053 METAR KBFI 091053Z 14003KT 10SM SCT018 BKN026 OVC048 07/04 A3046 RMK AO2 SLP314 T00670039=
202412090953 METAR KBFI 090953Z 13005KT 10SM OVC016 07/04 A3044 RMK AO2 SLP308 T00670039=
202412090929 SPECI KBFI 090929Z 14004KT 10SM BKN021 OVC048 07/04 A3043 RMK AO2 T00670039=
202412090853 METAR KBFI 090853Z 14007KT 10SM SCT027 OVC046 07/04 A3041 RMK AO2 SLP298 T00670044 50006=
202412090840 SPECI KBFI 090840Z 14006KT 10SM SCT025 OVC046 07/04 A3042 RMK AO2 T00670044=
202412090753 METAR KBFI 090753Z 14006KT 10SM BKN024 OVC050 07/04 A3042 RMK AO2 SLP299 T00670044 401000067=
202412090653 METAR KBFI 090653Z 16004KT 10SM BKN022 OVC045 07/06 A3041 RMK AO2 SLP297 T00720056=
202412090553 METAR KBFI 090553Z 14005KT 10SM BKN014 BKN020 OVC040 07/06 A3040 RMK AO2 SLP292 T00720056 10094 20067 53017=
202412090453 METAR KBFI 090453Z 16005KT 10SM SCT014 BKN019 OVC040 08/06 A3037 RMK AO2 SLP284 T00780056=
202412090353 METAR KBFI 090353Z 17005KT 10SM OVC043 07/06 A3035 RMK AO2 SLP278 T00720056=
202412090253 METAR KBFI 090253Z 00000KT 10SM OVC043 08/05 A3035 RMK AO2 SLP275 T00780050 51021=
202412090153 METAR KBFI 090153Z 00000KT 10SM BKN020 OVC041 08/05 A3033 RMK AO2 SLP269 T00830050=
202412090053 METAR KBFI 090053Z 00000KT 10SM SCT018 BKN036 08/04 A3031 RMK AO2 SLP263 T00830044=
202412082353 METAR KBFI 082353Z 21005KT 10SM FEW018 BKN023 BKN075 09/05 A3029 RMK AO2 SLP255 T00890050 10100 20083 53019=
202412082253 METAR KBFI 082253Z VRB03KT 10SM FEW018 BKN023 BKN075 09/06 A3026 RMK AO2 SLP248 T00940056=
202412082153 METAR KBFI 082153Z 18004KT 10SM SCT025 OVC027 09/06 A3024 RMK AO2 SLP241 T00940056=
202412082053 METAR KBFI 082053Z 16007KT 10SM FEW020 OVC027 09/06 A3023 RMK AO2 SLP236 T00940056 51006=
202412081953 METAR KBFI 081953Z 17006KT 10SM OVC017 09/05 A3023 RMK AO2 SLP235 T00890050=
202412081853 METAR KBFI 081853Z 16006KT 10SM BKN018 OVC023 09/05 A3022 RMK AO2 SLP234 T00890050=
202412081753 METAR KBFI 081753Z 21004KT 10SM OVC019 08/05 A3021 RMK AO2 SLP230 T00830050 10083 20078 53016=
202412081653 METAR KBFI 081653Z 20008KT 10SM OVC019 08/04 A3019 RMK AO2 SLP221 T00830044=
202412081553 METAR KBFI 081553Z 20007KT 10SM OVC019 08/04 A3017 RMK AO2 SLP216 T00830044=
202412081453 METAR KBFI 081453Z 16009KT 10SM OVC021 08/04 A3016 RMK AO2 SLP214 T00830044 53008=
202412081414 SPECI KBFI 081414Z 17005KT 10SM BKN021 BKN027 OVC110 08/05 A3016 RMK AO2 T00780050=
202412081353 METAR KBFI 081353Z 17004KT 10SM FEW020 BKN120 08/05 A3015 RMK AO2 SLP209 T00830050=
202412081333 SPECI KBFI 081333Z 19006KT 10SM SCT019 SCT047 BKN120 08/05 A3014 RMK AO2 T00830050=
202412081253 METAR KBFI 081253Z 21005G16KT 10SM OVC019 08/05 A3015 RMK AO2 SLP209 T00830050=
202412081153 METAR KBFI 081153Z 21007G17KT 10SM BKN019 BKN024 OVC120 08/05 A3014 RMK AO2 SLP205 60001 70048 T00830050 10089 20078 55004=
202412081053 METAR KBFI 081053Z 18014G22KT 10SM BKN020 OVC025 08/05 A3014 RMK AO2 SLP205 T00830050=
202412081002 SPECI KBFI 081002Z 20008G20KT 10SM OVC017 08/06 A3014 RMK AO2 T00830056=
202412080953 METAR KBFI 080953Z 19007G17KT 7SM BKN014 OVC022 08/06 A3013 RMK AO2 RAE33 SLP204 P0000 T00830056=
202412080853 METAR KBFI 080853Z 17013G20KT 5SM -RA BR FEW015 BKN023 OVC041 08/06 A3015 RMK AO2 RAB09 SLP209 P0001 60001 T00780056 50005=
202412080824 SPECI KBFI 080824Z 18013G21KT 10SM -RA BKN026 BKN041 OVC048 08/05 A3016 RMK AO2 RAB09 P0000 T00830050=
202412080753 METAR KBFI 080753Z 17011KT 10SM SCT039 BKN055 OVC075 08/04 A3016 RMK AO2 SLP212 T00830044 401170083=
202412080653 METAR KBFI 080653Z 17009KT 10SM SCT020 SCT048 BKN075 08/05 A3015 RMK AO2 SLP208 T00830050=
202412080553 METAR KBFI 080553Z 19010G20KT 10SM SCT017 BKN020 09/05 A3013 RMK AO2 SLP204 T00890050 10100 20083 51015=
202412080453 METAR KBFI 080453Z 20009KT 10SM SCT017 BKN020 09/05 A3013 RMK AO2 SLP201 T00940050=
202412080353 METAR KBFI 080353Z 18005G18KT 10SM SCT017 BKN020 09/06 A3012 RMK AO2 SLP199 T00940056=
202412080253 METAR KBFI 080253Z 20006KT 10SM SCT017 BKN020 09/06 A3009 RMK AO2 SLP188 T00940056 51018=
202412080153 METAR KBFI 080153Z 19009G20KT 10SM FEW020 09/06 A3008 RMK AO2 SLP186 T00940056=
202412080053 METAR KBFI 080053Z 19013G24KT 10SM CLR 10/06 A3004 RMK AO2 PK WND 19027/0033 SLP173 T01000061=
202412072353 METAR KBFI 072353Z 19012G25KT 10SM SCT060 BKN100 10/06 A3003 RMK AO2 SLP170 60001 T01000061 10111 20100 53018=
202412072253 METAR KBFI 072253Z 21009G21KT 170V230 10SM SCT010 SCT016 OVC060 10/06 A3000 RMK AO2 RAE29 SLP157 P0000 T01000061=
202412072153 METAR KBFI 072153Z 19010G19KT 10SM -RA SCT016 OVC060 11/08 A2999 RMK AO2 PK WND 20027/2056 RAB06 SLP154 P0000 T01060083=
202412072126 SPECI KBFI 072126Z 19013G21KT 5SM -RA BR BKN011 BKN030 OVC043 11/09 A2999 RMK AO2 PK WND 20027/2056 RAB06 P0000 T01110089=
202412072053 METAR KBFI 072053Z 19015G25KT 10SM FEW010 BKN030 OVC043 11/09 A2998 RMK AO2 SLP152 60001 T01110089 58011=
202412071953 METAR KBFI 071953Z 18011KT 10SM FEW060 OVC070 11/08 A3000 RMK AO2 RAE50 SLP158 P0000 T01110083=
202412071853 METAR KBFI 071853Z 17013G21KT 7SM -RA OVC065 11/09 A3002 RMK AO2 SLP164 P0001 T01110089=
202412071800 SPECI KBFI 071800Z 16008KT 5SM -RA BR FEW047 BKN055 OVC070 11/09 A3001 RMK AO2 P0000 T01110094=
202412071753 METAR KBFI 071753Z 14008KT 4SM -RA BR BKN008 BKN013 OVC050 11/09 A3001 RMK AO2 SLP163 P0018 60046 T01110094 10117 20083 53013=
202412071653 METAR KBFI 071653Z 20005KT 4SM -RA BR BKN008 OVC013 11/09 A3001 RMK AO2 SLP162 P0006 T01110094=
202412071623 SPECI KBFI 071623Z 21012G20KT 4SM -RA BR BKN008 OVC013 12/09 A3000 RMK AO2 PRESRR P0002 T01170094=
202412071614 SPECI KBFI 071614Z 20011G19KT 5SM -RA BR OVC010 12/10 A2999 RMK AO2 P0001 T01170100=
202412071553 METAR KBFI 071553Z 16010KT 6SM -RA BR BKN009 BKN013 OVC080 12/10 A2998 RMK AO2 SLP150 P0006 T01170100=
202412071548 SPECI KBFI 071548Z 15008KT 6SM -RA BR BKN009 BKN013 OVC080 12/10 A2998 RMK AO2 P0006=
202412071453 METAR KBFI 071453Z 20010G22KT 5SM -RA BR SCT008 BKN015 OVC060 12/09 A2999 RMK AO2 SLP155 P0006 60016 T01170094 55005=
202412071432 SPECI KBFI 071432Z 16011G21KT 5SM -RA BR SCT008 BKN015 OVC060 11/09 A2999 RMK AO2 P0004 T01110094=
202412071353 METAR KBFI 071353Z 18008G16KT 150V210 6SM -RA BR BKN015 OVC065 11/09 A2998 RMK AO2 SLP152 P0009 T01110094=
202412071253 METAR KBFI 071253Z 19013G26KT 5SM -RA BR BKN015 OVC065 11/09 A2999 RMK AO2 PK WND 22026/1249 RAB1159 SLP153 P0001 T01110089=
202412071153 METAR KBFI 071153Z 15004KT 2SM BR SCT008 BKN015 OVC032 08/07 A3001 RMK AO2 SLP160 60002 70002 T00830072 10100 20083 56012=
202412071104 SPECI KBFI 071104Z 12003KT 3SM BR SCT027 OVC034 08/07 A3002 RMK AO2 T00830072=
202412071056 SPECI KBFI 071056Z 00000KT 2 1/2SM BR SCT028 OVC034 08/07 A3002 RMK AO2 T00830072=
202412071053 METAR KBFI 071053Z 00000KT 3SM BR BKN028 OVC032 08/07 A3002 RMK AO2 RAE42 SLP165 P0002 T00830072=
202412070953 METAR KBFI 070953Z 08003KT 3SM -RA BR OVC027 09/07 A3002 RMK AO2 RAE36B52 SLP165 P0000 T00890067=
202412070853 METAR KBFI 070853Z 09003KT 4SM -RA OVC028 09/06 A3004 RMK AO2 RAE0759B48 SLP172 P0000 60000 T00890061 56009=
202412070753 METAR KBFI 070753Z 12004KT 5SM -RA BKN032 OVC040 09/06 A3006 RMK AO2 RAB45 SLP180 P0000 T00940056 401060022=
202412070653 METAR KBFI 070653Z 14006KT 10SM BKN036 OVC046 10/04 A3007 RMK AO2 SLP181 T01000044=
202412070553 METAR KBFI 070553Z 13008KT 10SM BKN060 10/04 A3007 RMK AO2 SLP183 T01000044 10106 20083 56016=
202412070453 METAR KBFI 070453Z 13007KT 10SM BKN060 10/04 A3009 RMK AO2 SLP187 T01000039=
202412070353 METAR KBFI 070353Z 13009KT 10SM FEW070 FEW090 09/04 A3009 RMK AO2 SLP189 T00940044=
202412070253 METAR KBFI 070253Z 15010KT 10SM SCT100 09/04 A3012 RMK AO2 SLP198 T00890044 58014=
202412070153 METAR KBFI 070153Z 15009KT 10SM CLR 09/04 A3015 RMK AO2 SLP208 T00890044=
202412070053 METAR KBFI 070053Z 12005KT 10SM FEW100 11/04 A3017 RMK AO2 SLP216 T01060039=
202412062353 METAR KBFI 062353Z 14007KT 10SM BKN100 10/04 A3016 RMK AO2 SLP212 T01000044 10106 20056 58020=
202412062253 METAR KBFI 062253Z 14005KT 10SM BKN100 09/04 A3019 RMK AO2 SLP222 T00940044=
202412062153 METAR KBFI 062153Z 14006KT 10SM CLR 10/04 A3019 RMK AO2 SLP224 T01000044=
202412062053 METAR KBFI 062053Z 15006KT 10SM FEW110 09/04 A3022 RMK AO2 SLP233 T00940044 58024=
202412061953 METAR KBFI 061953Z 17005KT 10SM CLR 09/04 A3024 RMK AO2 SLP239 T00890039=
202412061853 METAR KBFI 061853Z 18004KT 10SM FEW120 07/03 A3027 RMK AO2 SLP250 T00670028=
202412061753 METAR KBFI 061753Z 15004KT 10SM SCT120 06/02 A3029 RMK AO2 SLP257 T00560017 10056 20022 55007=
202412061653 METAR KBFI 061653Z 13004KT 8SM BKN140 04/02 A3029 RMK AO2 SLP256 T00390017=
202412061553 METAR KBFI 061553Z 16004KT 8SM CLR 02/01 A3030 RMK AO2 PRESFR SLP259 T00220006=
202412061453 METAR KBFI 061453Z 00000KT 9SM CLR 03/01 A3031 RMK AO2 SLP263 T00280006 58013=
202412061353 METAR KBFI 061353Z 00000KT 9SM CLR 03/01 A3032 RMK AO2 SLP268 T00280006=
202412061253 METAR KBFI 061253Z 00000KT 10SM CLR 03/01 A3035 RMK AO2 SLP277 T00280006=
202412061153 METAR KBFI 061153Z 00000KT 10SM CLR 04/02 A3035 RMK AO2 SLP277 T00390017 10072 20028 51001=
202412061053 METAR KBFI 061053Z 00000KT 10SM CLR 04/02 A3035 RMK AO2 SLP277 T00390017=
202412060953 METAR KBFI 060953Z 14003KT 10SM CLR 03/01 A3036 RMK AO2 SLP279 T00330011=
202412060853 METAR KBFI 060853Z 00000KT 8SM CLR 04/01 A3035 RMK AO2 SLP275 T00390011 55003=
202412060753 METAR KBFI 060753Z 00000KT 10SM CLR 06/02 A3034 RMK AO2 SLP272 T00560017 401221011=
202412060653 METAR KBFI 060653Z 00000KT 10SM CLR 06/02 A3034 RMK AO2 SLP273 T00610017=
202412060553 METAR KBFI 060553Z 16003KT 10SM BKN060 07/03 A3035 RMK AO2 SLP278 T00720028 10111 20072 50003=
202412060453 METAR KBFI 060453Z 15006KT 10SM BKN070 07/02 A3037 RMK AO2 SLP283 T00720022=
202412060353 METAR KBFI 060353Z 15005KT 10SM BKN075 OVC090 08/02 A3036 RMK AO2 SLP279 T00830017=
202412060253 METAR KBFI 060253Z 12005KT 10SM OVC085 09/04 A3034 RMK AO2 SLP274 T00940039 51009=
202412060153 METAR KBFI 060153Z 12005KT 10SM OVC075 09/04 A3034 RMK AO2 SLP274 T00940039=
202412060053 METAR KBFI 060053Z 32003KT 9SM OVC090 10/03 A3033 RMK AO2 SLP270 T01000033=
202412052353 METAR KBFI 052353Z 00000KT 10SM SCT085 11/02 A3032 RMK AO2 SLP266 T01110022 10122 20039 50003=
202412052253 METAR KBFI 052253Z 00000KT 10SM BKN090 BKN110 12/02 A3033 RMK AO2 SLP270 T01170017=
202412052153 METAR KBFI 052153Z 00000KT 10SM OVC095 10/02 A3032 RMK AO2 SLP266 T01000022=
202412052053 METAR KBFI 052053Z 16003KT 10SM SCT100 BKN200 10/02 A3031 RMK AO2 SLP263 T01000017 58019=
202412051953 METAR KBFI 051953Z 00000KT 10SM FEW120 BKN150 08/01 A3033 RMK AO2 SLP270 T00780011=
202412051853 METAR KBFI 051853Z 00000KT 10SM SCT180 BKN240 06/01 A3035 RMK AO2 SLP277 T00610011=
202412051753 METAR KBFI 051753Z 00000KT 9SM BKN200 04/01 A3037 RMK AO2 SLP282 T00390011 10039 21011 51015=
202412051653 METAR KBFI 051653Z 14007KT 8SM CLR 01/M01 A3036 RMK AO2 SLP279 T00111006=
202412051553 METAR KBFI 051553Z 15007KT 10SM BKN120 00/M02 A3034 RMK AO2 SLP274 T00001017=
202412051453 METAR KBFI 051453Z 14004KT 6SM BR SCT220 00/M02 A3032 RMK AO2 SLP267 T00001017 53013=
202412051353 METAR KBFI 051353Z 15007KT 6SM BR CLR M01/M02 A3030 RMK AO2 SLP260 T10061017=
202412051253 METAR KBFI 051253Z 00000KT 6SM BR CLR M01/M02 A3030 RMK AO2 SLP260 T10061017=
202412051153 METAR KBFI 051153Z 00000KT 10SM CLR 00/M02 A3028 RMK AO2 SLP254 T00001017 10011 21006 50005=
202412051053 METAR KBFI 051053Z 00000KT 10SM CLR 01/M01 A3029 RMK AO2 SLP256 T00061011=
202412050953 METAR KBFI 050953Z 14006KT 6SM BR CLR 00/M01 A3028 RMK AO2 SLP253 T00001011=
202412050853 METAR KBFI 050853Z 15006KT 10SM CLR M01/M02 A3027 RMK AO2 SLP249 T10061017 53001=
202412050753 METAR KBFI 050753Z 00000KT 5SM BR CLR 01/M01 A3027 RMK AO2 SLP249 T00111006 400440000=
202412050653 METAR KBFI 050653Z 00000KT 6SM BR CLR 01/M01 A3025 RMK AO2 SLP244 T00111006=
202412050600 SPECI KBFI 050600Z 15004KT 5SM BR CLR 01/M01 A3026 RMK AO2 T00061006=
202412050553 METAR KBFI 050553Z 16005KT 5SM BR OVC003 01/00 A3027 RMK AO2 SLP248 T00110000 10033 20006 50004=
202412050523 SPECI KBFI 050523Z 13007KT 3SM BR BKN002 01/01 A3027 RMK AO2 T00110006=
202412050515 SPECI KBFI 050515Z 15006KT 2 1/2SM BR OVC002 02/01 A3028 RMK AO2 T00170011=
202412050501 SPECI KBFI 050501Z 16008KT 1 1/4SM BR OVC002 02/01 A3027 RMK AO2 T00170011=
202412050453 METAR KBFI 050453Z 16008KT 3/4SM BR VV002 02/01 A3027 RMK AO2 SLP249 T00220011=
202412050448 SPECI KBFI 050448Z 14009KT 1/2SM FG VV002 02/01 A3027 RMK AO2=
202412050438 SPECI KBFI 050438Z 16009KT 1/4SM FG VV002 02/01 A3027 RMK AO2 T00170011=
202412050353 METAR KBFI 050353Z 14009KT 1/4SM FG VV001 02/01 A3025 RMK AO2 SLP244 T00170006=
202412050340 SPECI KBFI 050340Z 14008KT 3/4SM BR VV001 01/01 A3025 RMK AO2 T00110006=
202412050325 SPECI KBFI 050325Z 14007KT 1 3/4SM BR VV001 01/M01 A3024 RMK AO2 T00111006=
202412050321 SPECI KBFI 050321Z 14007KT 2 1/2SM BR VV003 01/00 A3024 RMK AO2 T00110000=
202412050253 METAR KBFI 050253Z 16005KT 4SM BR CLR 01/00 A3022 RMK AO2 SLP234 T00110000 55003=
202412050153 METAR KBFI 050153Z 00000KT 4SM BR CLR 03/01 A3021 RMK AO2 SLP228 T00280006=
202412050053 METAR KBFI 050053Z 00000KT 5SM BR CLR 03/01 A3022 RMK AO2 SLP233 T00280006=
202412042353 METAR KBFI 042353Z 15005KT 5SM BR CLR 03/01 A3023 RMK AO2 SLP236 T00280006 10044 20006 58019=
202412042253 METAR KBFI 042253Z VRB04KT 5SM BR SCT012 04/02 A3027 RMK AO2 SLP248 T00390017=
202412042153 METAR KBFI 042153Z 14004KT 3SM BR OVC008 03/02 A3029 RMK AO2 SLP255 T00330017=
202412042134 SPECI KBFI 042134Z 14003KT 3SM BR OVC007 03/02 A3029 RMK AO2 T00280017=
202412042053 METAR KBFI 042053Z 15003KT 1 1/2SM BR OVC003 02/01 A3029 RMK AO2 SLP256 T00220011 56008=
202412041953 METAR KBFI 041953Z 16004KT 3/4SM BR VV003 02/01 A3029 RMK AO2 SLP257 T00170011=
202412041853 METAR KBFI 041853Z 15004KT 1/8SM FG VV002 02/01 A3031 RMK AO2 SLP262 T00170006=
202412041753 METAR KBFI 041753Z 15004KT 1/4SM FG VV002 01/00 A3031 RMK AO2 SLP264 T00060000 10006 20000 53001=
202412041653 METAR KBFI 041653Z 16003KT 1/4SM FG VV002 00/M01 A3031 RMK AO2 SLP262 T00001006=
202412041553 METAR KBFI 041553Z 15003KT 1/4SM FG VV002 00/M01 A3031 RMK AO2 SLP262 T00001006=
202412041453 METAR KBFI 041453Z 11004KT 1/4SM FG VV002 01/00 A3031 RMK AO2 SLP263 T00060000 58004=
202412041353 METAR KBFI 041353Z 16005KT 1/4SM FG VV002 00/00 A3032 RMK AO2 SLP266 T00000000=
202412041351 SPECI KBFI 041351Z 15005KT 1/4SM FG VV002 00/00 A3032 RMK AO2=
202412041338 SPECI KBFI 041338Z 15005KT M1/4SM FG VV002 00/M01 A3032 RMK AO2 T00001006=
202412041253 METAR KBFI 041253Z 16003KT 1/4SM FG VV002 00/M01 A3032 RMK AO2 SLP267 T00001006=
202412041153 METAR KBFI 041153Z 14004KT 1/4SM FG VV002 01/00 A3033 RMK AO2 SLP269 T00060000 10006 20000 58004=
202412041053 METAR KBFI 041053Z 16005KT 1/4SM FG VV002 01/00 A3034 RMK AO2 SLP273 T00060000=
202412040953 METAR KBFI 040953Z 15004KT 1/4SM FG VV002 00/M01 A3034 RMK AO2 SLP273 T00001006=
202412040900 SPECI KBFI 040900Z 16004KT 1/2SM FG VV003 00/M01 A3034 RMK AO2 T00001006=
202412040853 METAR KBFI 040853Z 15004KT 1/4SM FG VV002 00/M01 A3034 RMK AO2 SLP273 T00001006 58002=
202412040753 METAR KBFI 040753Z 00000KT 1/4SM FG VV002 00/00 A3035 RMK AO2 SLP277 T00000000 400720000=
202412040653 METAR KBFI 040653Z 08004KT 1/4SM FG VV002 01/00 A3035 RMK AO2 SLP275 T00060000=
202412040600 SPECI KBFI 040600Z 14003KT 1/4SM FG VV002 01/00 A3035 RMK AO2 T00060000=
202412040553 METAR KBFI 040553Z 15005KT 1/2SM FG VV002 01/01 A3035 RMK AO2 SLP275 T00060006 10061 20006 53007=
202412040453 METAR KBFI 040453Z 15005KT 1/2SM FG OVC002 01/00 A3034 RMK AO2 SLP272 T00110000=
202412040445 SPECI KBFI 040445Z 14005KT 1SM BR OVC003 01/00 A3033 RMK AO2 T00110000=
202412040353 METAR KBFI 040353Z 15006KT 10SM BKN006 01/M01 A3033 RMK AO2 SLP270 T00111006=
202412040327 SPECI KBFI 040327Z 16005KT 10SM BKN006 02/M01 A3033 RMK AO2 T00171006=
202412040253 METAR KBFI 040253Z 12003KT 10SM CLR 02/M01 A3033 RMK AO2 SLP268 T00171006 53002=
202412040153 METAR KBFI 040153Z 15004KT 8SM CLR 03/00 A3032 RMK AO2 SLP267 T00280000=
202412040053 METAR KBFI 040053Z 00000KT 9SM CLR 05/02 A3032 RMK AO2 SLP267 T00500017=
202412032353 METAR KBFI 032353Z 00000KT 9SM FEW250 06/02 A3032 RMK AO2 SLP267 T00610017 10072 20022 55001=
202412032300 SPECI KBFI 032300Z VRB04KT 7SM BKN013 06/03 A3032 RMK AO2 T00610028=
202412032253 METAR KBFI 032253Z 30005KT 7SM SCT013 06/03 A3032 RMK AO2 SLP265 T00610028=
202412032153 METAR KBFI 032153Z 00000KT 8SM FEW014 BKN150 07/02 A3032 RMK AO2 SLP265 T00670022=
202412032053 METAR KBFI 032053Z 30005KT 8SM SCT011 06/02 A3032 RMK AO2 SLP268 T00610017 58012=
202412032009 SPECI KBFI 032009Z 17003KT 9SM SCT010 04/01 A3033 RMK AO2 T00440011=
202412031953 METAR KBFI 031953Z VRB03KT 7SM BKN009 04/01 A3034 RMK AO2 SLP273 T00390011=
202412031853 METAR KBFI 031853Z 00000KT 6SM HZ OVC008 04/01 A3035 RMK AO2 SLP277 T00390011=
202412031753 METAR KBFI 031753Z 00000KT 4SM BR OVC004 02/01 A3036 RMK AO2 SLP280 T00220006 10033 20017 53003=
202412031653 METAR KBFI 031653Z 01003KT 4SM BR OVC004 02/00 A3036 RMK AO2 SLP278 T00170000=
202412031553 METAR KBFI 031553Z 04004KT 4SM BR OVC005 02/00 A3034 RMK AO2 SLP275 T00170000=
202412031512 SPECI KBFI 031512Z VRB03KT 4SM BR OVC005 02/01 A3035 RMK AO2 T00220006=
202412031453 METAR KBFI 031453Z 35004KT 4SM BR OVC004 02/01 A3035 RMK AO2 SLP277 T00220011 53002=
202412031448 SPECI KBFI 031448Z VRB04KT 7SM OVC004 03/01 A3035 RMK AO2=
202412031353 METAR KBFI 031353Z 33003KT 3SM BR OVC005 03/02 A3034 RMK AO2 SLP274 T00330017=
202412031253 METAR KBFI 031253Z 00000KT 3SM BR OVC005 02/01 A3035 RMK AO2 SLP275 T00220006=
202412031153 METAR KBFI 031153Z 00000KT 3SM BR OVC005 02/00 A3035 RMK AO2 SLP277 T00170000 10044 20011 56003=
202412031053 METAR KBFI 031053Z 08003KT 9SM OVC006 02/00 A3035 RMK AO2 SLP277 T00170000=
202412030953 METAR KBFI 030953Z 02003KT 8SM OVC006 02/00 A3035 RMK AO2 SLP277 T00220000=
202412030853 METAR KBFI 030853Z VRB03KT 6SM BR OVC006 03/01 A3036 RMK AO2 SLP280 T00280006 50002=
202412030753 METAR KBFI 030753Z 05006KT 6SM BR OVC008 03/01 A3036 RMK AO2 SLP282 T00280011 400610000=
202412030653 METAR KBFI 030653Z VRB03KT 4SM BR OVC009 04/02 A3036 RMK AO2 CIG 007V011 SLP280 T00390017=
202412030553 METAR KBFI 030553Z 06004KT 8SM OVC012 04/02 A3035 RMK AO2 SLP278 T00440017 10050 20028 53004=
202412030453 METAR KBFI 030453Z 06003KT 8SM OVC011 04/02 A3035 RMK AO2 SLP276 T00440017=
202412030353 METAR KBFI 030353Z 07003KT 8SM OVC012 05/02 A3034 RMK AO2 SLP275 T00500022=
202412030253 METAR KBFI 030253Z 00000KT 8SM OVC012 04/02 A3034 RMK AO2 SLP274 T00440017 55001=
202412030153 METAR KBFI 030153Z 7SM OVC017 04/02 A3034 RMK AO2 SLP273 T00390017=
202412030053 METAR KBFI 030053Z 16004KT 6SM BR BKN013 03/01 A3034 RMK AO2 SLP274 T00330011=
202412030028 SPECI KBFI 030028Z 16004KT 4SM BR BKN013 04/02 A3034 RMK AO2 T00390017=
202412022353 METAR KBFI 022353Z 17005KT 5SM BR SCT015 03/01 A3035 RMK AO2 SLP275 T00330011 10061 20017 53004=
202412022300 SPECI KBFI 022300Z 17004KT 7SM SCT006 06/02 A3034 RMK AO2 T00560017=
202412022253 METAR KBFI 022253Z 15005KT 7SM CLR 06/02 A3034 RMK AO2 SLP273 T00560017=
202412022153 METAR KBFI 022153Z 17004KT 7SM SCT006 06/02 A3033 RMK AO2 SLP271 T00560022=
202412022053 METAR KBFI 022053Z 00000KT 4SM BR BKN006 04/02 A3033 RMK AO2 SLP271 T00440022 58002=
202412021949 METAR KBFI 021949Z 13003KT 4SM BR OVC005 03/02 A3033 RMK AO2 SLP271 T00280017=
202412021948 SPECI KBFI 021948Z 13003KT 4SM BR OVC005 03/02 A3033 RMK AO2=
202412021853 METAR KBFI 021853Z 00000KT 2SM BR OVC002 02/01 A3034 RMK AO2 SLP274 T00220011=
202412021753 METAR KBFI 021753Z 19003KT 1/2SM FG VV002 02/02 A3034 RMK AO2 SLP273 T00170017 10028 20017 50001=
202412021751 SPECI KBFI 021751Z 18004KT 1/2SM FG VV002 02/02 A3034 RMK AO2=
202412021653 METAR KBFI 021653Z 17004KT 1/4SM FG VV002 02/02 A3034 RMK AO2 SLP273 T00170017=
202412021632 SPECI KBFI 021632Z 17005KT 1/4SM FG VV002 02/01 A3034 RMK AO2 T00170011=
202412021553 METAR KBFI 021553Z 16005KT 3/4SM BR VV002 02/01 A3034 RMK AO2 SLP272 T00170011=
202412021453 METAR KBFI 021453Z 13005KT 1/4SM FG VV002 02/01 A3032 RMK AO2 SLP267 T00170011 53007=
202412021353 METAR KBFI 021353Z 15005KT 1/4SM FG VV002 02/02 A3031 RMK AO2 SLP263 T00220017=
202412021253 METAR KBFI 021253Z 15003KT 1/4SM FG VV002 02/02 A3030 RMK AO2 SLP261 T00220017=
202412021201 SPECI KBFI 021201Z 14003KT 1/4SM FG VV002 02/01 A3030 RMK AO2 T00170011=
202412021153 METAR KBFI 021153Z 14004KT M1/4SM FG VV002 02/01 A3030 RMK AO2 SLP260 T00170011 10028 20000 50002=
202412021053 METAR KBFI 021053Z 00000KT M1/4SM FG VV002 02/01 A3031 RMK AO2 SLP262 T00170011=
202412021000 SPECI KBFI 021000Z 00000KT 1/4SM FG VV002 01/00 A3030 RMK AO2 T00110000=
202412020953 METAR KBFI 020953Z 00000KT 1/2SM FG VV002 01/00 A3030 RMK AO2 SLP260 T00060000=
202412020916 SPECI KBFI 020916Z 00000KT 1SM BR VV005 01/M01 A3030 RMK AO2 T00061006=
202412020909 SPECI KBFI 020909Z 00000KT 4SM BR FEW004 01/00 A3030 RMK AO2 T00110000=
202412020853 METAR KBFI 020853Z 00000KT 3SM BR CLR 01/M01 A3029 RMK AO2 SLP258 T00061006 51005=
202412020753 METAR KBFI 020753Z 15004KT 5SM BR CLR 00/M01 A3029 RMK AO2 SLP255 T00001006 401060000=
202412020659 SPECI KBFI 020659Z 00000KT 4SM BR FEW003 02/01 A3029 RMK AO2 T00170006=
202412020653 METAR KBFI 020653Z 00000KT 4SM BR CLR 02/01 A3029 RMK AO2 SLP256 T00170006=
202412020553 METAR KBFI 020553Z 00000KT 7SM CLR 02/01 A3028 RMK AO2 SLP253 T00220006 10094 20011 51009=
202412020453 METAR KBFI 020453Z 00000KT 7SM CLR 03/01 A3027 RMK AO2 SLP251 T00280011=
202412020353 METAR KBFI 020353Z 00000KT 8SM CLR 04/02 A3026 RMK AO2 SLP247 T00390022=
202412020253 METAR KBFI 020253Z 00000KT 10SM CLR 05/03 A3025 RMK AO2 SLP243 T00500028 51005=
202412020153 METAR KBFI 020153Z 00000KT 10SM CLR 06/03 A3025 RMK AO2 SLP242 T00610033=
202412020053 METAR KBFI 020053Z 00000KT 10SM CLR 08/04 A3024 RMK AO2 SLP240 T00780039=
202412012353 METAR KBFI 012353Z 32003KT 10SM CLR 09/04 A3024 RMK AO2 SLP238 T00940044 10106 20044 53000=
202412012253 METAR KBFI 012253Z 00000KT 10SM SCT230 10/04 A3023 RMK AO2 SLP235 T01000039=
202412012153 METAR KBFI 012153Z 14005KT 10SM CLR 09/04 A3023 RMK AO2 SLP237 T00940039=
202412012053 METAR KBFI 012053Z 30004KT 10SM CLR 09/04 A3024 RMK AO2 SLP238 T00940044 58013=
202412011953 METAR KBFI 011953Z 31005KT 10SM CLR 09/04 A3025 RMK AO2 SLP243 T00890044=
202412011853 METAR KBFI 011853Z 00000KT 10SM CLR 07/04 A3027 RMK AO2 SLP249 T00720039=
202412011753 METAR KBFI 011753Z 00000KT 6SM BR SCT004 04/03 A3028 RMK AO2 SLP251 T00440033 10044 20000 52004=
202412011746 SPECI KBFI 011746Z 00000KT 6SM BR SCT004 04/03 A3027 RMK AO2 T00390033=
202412011736 SPECI KBFI 011736Z 00000KT 4SM BR BKN003 04/03 A3028 RMK AO2 T00390033=
202412011729 SPECI KBFI 011729Z 00000KT 1 1/4SM BR BKN003 03/03 A3027 RMK AO2 T00330028=
202412011721 SPECI KBFI 011721Z 00000KT 1/2SM FG VV002 03/02 A3027 RMK AO2 T00280022=
202412011653 METAR KBFI 011653Z 00000KT 1/4SM FG VV003 02/01 A3028 RMK AO2 SLP252 T00170011=
202412011637 SPECI KBFI 011637Z 00000KT M1/4SM FG VV003 02/01 A3027 RMK AO2 T00170011=
202412011630 SPECI KBFI 011630Z 00000KT 1/4SM FG VV004 02/01 A3027 RMK AO2 T00170011=
202412011553 METAR KBFI 011553Z 00000KT M1/4SM FG VV003 01/01 A3026 RMK AO2 SLP247 T00110006=
202412011453 METAR KBFI 011453Z 00000KT 1SM BR VV004 01/00 A3026 RMK AO2 SLP248 T00060000 53003=
202412011353 METAR KBFI 011353Z 14003KT 1SM BR VV003 01/M01 A3026 RMK AO2 SLP246 T00061006=
202412011342 SPECI KBFI 011342Z 15003KT 1SM BR VV003 00/M01 A3026 RMK AO2 T00001011=
202412011331 SPECI KBFI 011331Z 00000KT 3/4SM BR VV004 01/M01 A3026 RMK AO2 T00061006=
202412011328 SPECI KBFI 011328Z 00000KT 1 1/2SM BR BKN005 01/M01 A3026 RMK AO2 T00061006=
202412011326 SPECI KBFI 011326Z 00000KT 4SM BR SCT005 01/M01 A3025 RMK AO2 T00061006=
202412011300 SPECI KBFI 011300Z 00000KT 5SM BR CLR 01/00 A3026 RMK AO2 T00110000=
202412011253 METAR KBFI 011253Z 00000KT 2SM BR BKN004 01/00 A3026 RMK AO2 SLP245 T00110000=
202412011251 SPECI KBFI 011251Z 00000KT 2SM BR BKN004 01/00 A3026 RMK AO2=
202412011219 SPECI KBFI 011219Z 12003KT 6SM BR SCT005 01/00 A3025 RMK AO2 T00110000=
202412011153 METAR KBFI 011153Z 00000KT 10SM BKN005 01/M01 A3025 RMK AO2 SLP244 T00111006 10044 20006 56002=
202412011146 SPECI KBFI 011146Z 14004KT 10SM BKN005 01/M01 A3025 RMK AO2 T00061006=
202412011138 SPECI KBFI 011138Z 15003KT 10SM BKN004 02/00 A3026 RMK AO2 T00170000=
202412011131 SPECI KBFI 011131Z 00000KT 10SM SCT004 02/00 A3026 RMK AO2 T00170000=
202412011124 SPECI KBFI 011124Z 20003KT 10SM BKN005 02/01 A3026 RMK AO2 T00170006=
202412011100 SPECI KBFI 011100Z 00000KT 10SM FEW004 01/00 A3026 RMK AO2 T00110000=
202412011053 METAR KBFI 011053Z 00000KT 2SM BR CLR 01/00 A3026 RMK AO2 VIS 3/4V5 SLP245 T00110000=
202412010953 METAR KBFI 010953Z 00000KT 10SM CLR 02/00 A3026 RMK AO2 SLP245 T00170000=
202412010853 METAR KBFI 010853Z 00000KT 10SM CLR 02/01 A3026 RMK AO2 SLP246 T00220006 58003=
202412010753 METAR KBFI 010753Z 00000KT 9SM CLR 03/01 A3027 RMK AO2 SLP248 T00330011 400890011=
202412010653 METAR KBFI 010653Z 00000KT 9SM CLR 03/02 A3027 RMK AO2 SLP250 T00330017=
202412010553 METAR KBFI 010553Z 00000KT 10SM CLR 04/02 A3027 RMK AO2 SLP250 T00390017 10083 20039 58003=
202412010453 METAR KBFI 010453Z 00000KT 10SM CLR 05/02 A3027 RMK AO2 SLP251 T00500022=
202412010353 METAR KBFI 010353Z 00000KT 10SM OVC110 06/03 A3028 RMK AO2 SLP254 T00610028=
202412010253 METAR KBFI 010253Z 00000KT 10SM SCT120 06/02 A3028 RMK AO2 SLP253 T00610022 50000=
202412010153 METAR KBFI 010153Z 00000KT 10SM SCT075 06/02 A3028 RMK AO2 SLP254 T00610022=
202412010053 METAR KBFI 010053Z 00000KT 10SM OVC075 08/02 A3028 RMK AO2 SLP253 T00780022=

# No short TAF reports from KBFI in databse.

###################################
#  large TAF from KBFI
###################################
202412312320 TAF KBFI 312320Z 0100/0124 12030KT P6SM BKN200 FM010600 11004KT
                       P6SM -RA OVC050 FM011200 16006KT P6SM -RA
                       OVC030 FM011300 12006KT P6SM OVC025 FM012300
                       14005KT P6SM OVC040=
202412312056 KBFI 312056Z 3121/0118 12030KT P6SM BKN200 FM010300 11004KT P6SM
                       -RA OVC035 FM010900 16006KT P6SM -RA OVC030
                       FM011300 15006KT P6SM -SHRA OVC025=
202412311723 TAF KBFI 311723Z 3118/0118 VRB02KT P6SM FEW200 FM311900 12003KT
                       P6SM SCT030 BKN070 FM010300 11004KT P6SM
                       -RA OVC035 FM010900 16006KT P6SM -RA OVC030
                       FM011300 15006KT P6SM -SHRA OVC025=
202412311521 KBFI 311521Z 3115/0112 VRB02KT P6SM FEW200 FM311900 12003KT P6SM
                       SCT030 BKN070 FM010300 11004KT P6SM -RA
                       OVC035 FM010900 16006KT P6SM -RA OVC025=
202412311359 KBFI 311359Z 3114/0112 VRB03KT P6SM SCT025 OVC040 FM311500 08005KT
                       P6SM BKN025 FM311900 12003KT P6SM SCT030
                       BKN070 FM010300 11004KT P6SM -RA OVC035
                       FM010900 16006KT P6SM -RA OVC025=
202412311120 TAF KBFI 311120Z 3112/0112 15004KT P6SM OVC015 FM311500 08005KT
                       P6SM BKN025 FM311900 12003KT P6SM SCT030
                       BKN070 FM010300 11004KT P6SM -RA OVC035
                       FM010900 16006KT P6SM -RA OVC025=
202412310520 TAF KBFI 310520Z 3106/0106 17008KT P6SM SCT020 BKN027 FM310900
                       15002KT P6SM OVC015 FM311500 08005KT P6SM
                       BKN050 FM010300 11004KT P6SM -RA OVC035=
202412302324 TAF KBFI 302324Z 3100/3124 18009KT P6SM -SHRA BKN025 BKN080 FM310200
                       15004KT P6SM OVC025 FM310500 12005KT P6SM
                       OVC015 FM311900 13003KT P6SM BKN035 FM312100
                       08003KT P6SM BKN050=
202412301933 KBFI 301933Z 3020/3118 18009KT P6SM -SHRA SCT025 BKN035 FM302100
                       18005KT P6SM -SHRA OVC035 FM310200 15004KT
                       P6SM OVC025 FM310500 12005KT P6SM OVC015=
202412301724 TAF KBFI 301724Z 3018/3118 20005KT P6SM -SHRA SCT025 BKN035 FM302100
                       18005KT P6SM -SHRA OVC035 FM310200 15004KT
                       P6SM OVC025 FM310500 12005KT P6SM OVC015=
202412301352 KBFI 301352Z 3014/3112 15006KT P6SM BKN020 FM301600 20005KT P6SM
                       OVC025 FM302100 18005KT P6SM OVC035 FM310200
                       15004KT P6SM OVC025=
202412301141 TAF KBFI 301141Z 3012/3112 15006KT P6SM SCT020 FM301600 20005KT
                       P6SM OVC025 FM302100 18005KT P6SM OVC035
                       FM310200 15004KT P6SM OVC025=
202412300858 KBFI 300858Z 3009/3106 17008KT P6SM BKN020 BKN050 OVC070 FM301000
                       15006KT P6SM OVC030 FM301600 20005KT P6SM
                       OVC025=
202412300520 TAF KBFI 300520Z 3006/3106 17008KT P6SM BKN020 FM301000 15006KT
                       P6SM OVC030 FM301600 20005KT P6SM OVC025=
202412292335 TAF KBFI 292335Z 3000/3024 20005KT 6SM -RA BR BKN015 OVC035 FM300300
                       17006KT P6SM OVC050 FM301600 20005KT P6SM
                       OVC025=
202412291737 TAF KBFI 291737Z 2918/3018 17004KT 5SM -RA BR OVC008 FM291900 19005KT
                       P6SM -SHRA OVC020 FM300000 18010G20KT 6SM
                       -RA OVC040 FM301600 20005KT P6SM OVC025=
202412291357 KBFI 291357Z 2914/3012 33003KT P6SM -RA OVC045 FM291600 06011KT
                       6SM -SHRA OVC025 FM291800 19005KT P6SM -SHRA
                       OVC020 FM300000 18010G20KT 6SM -RA OVC040=
202412291120 TAF KBFI 291120Z 2912/3012 00000KT P6SM OVC100 FM291400 06006KT
                       P6SM OVC050 FM291600 06011KT 6SM -SHRA OVC025
                       FM291800 19005KT P6SM -SHRA OVC020 FM300000
                       18010G20KT 6SM -RA OVC040=
202412290906 KBFI 290906Z 2909/3006 00000KT P6SM FEW045 FM291400 06006KT P6SM
                       -SHRA OVC030 FM291600 06011KT 6SM -SHRA
                       OVC025 FM291800 19005KT P6SM -SHRA OVC020=
202412290520 TAF KBFI 290520Z 2906/3006 16007KT P6SM BKN070 FM290900 15002KT
                       P6SM OVC035 FM291600 06006KT P6SM -SHRA
                       OVC030 FM291900 19005KT P6SM -SHRA OVC020=
202412282333 TAF KBFI 282333Z 2900/2924 21010G20KT P6SM -SHRA BKN015 OVC025
                       FM290300 18010KT P6SM OVC020 FM290500 11002KT
                       P6SM OVC030 FM291600 06002KT P6SM -SHRA
                       OVC020=
202412281724 TAF KBFI 281724Z 2818/2918 18010G20KT P6SM -SHRA BKN015 OVC030
                       FM282300 18010KT P6SM OVC020 FM290500 11002KT
                       P6SM OVC030 FM291600 06002KT P6SM -SHRA
                       OVC020=
202412281351 KBFI 281351Z 2814/2912 18010G22KT 6SM -RA BR BKN030 OVC040 FM281600
                       18010G20KT P6SM -SHRA OVC015 FM282300 18010KT
                       P6SM -SHRA OVC020 FM290200 17007KT P6SM
                       OVC020
                      PROB30 2902/2905 P6SM -SHRA=
202412281123 TAF KBFI 281123Z 2812/2912 16010KT P6SM FEW035 BKN050 OVC060 FM281300
                       18010G22KT 6SM -RA BR BKN030 OVC040 FM281600
                       18010G20KT P6SM -SHRA OVC015 FM282300 18010KT
                       P6SM -SHRA OVC020 FM290200 17007KT P6SM
                       OVC020
                      PROB30 2902/2905 P6SM -SHRA=
202412280857 KBFI 280857Z 2809/2906 17012KT P6SM OVC022 FM281200 16010KT 5SM
                       -RA BR OVC025 FM281600 18010G20KT P6SM -SHRA
                       OVC015 FM282300 18010KT P6SM -SHRA OVC020
                       FM290200 17007KT P6SM OVC020
                      PROB30 2902/2905 P6SM -SHRA=
202412280856 KBFI 280856Z 2809/2906 14008KT 3SM BR OVC028 FM281200 16010KT 5SM
                       -RA BR OVC025 FM281600 18010G20KT P6SM -SHRA
                       OVC015 FM282300 18010KT P6SM -SHRA OVC020
                       FM290200 17007KT P6SM OVC020
                      PROB30 2902/2905 P6SM -SHRA=
202412280520 TAF KBFI 280520Z 2806/2906 16005KT 5SM -RA BR OVC030 FM280800 17015G24KT
                       4SM -RA BR OVC025 FM281600 18010G20KT P6SM
                       -SHRA OVC015 FM282300 18010KT P6SM -SHRA
                       OVC020=
202412272323 KBFI 272323Z 2723/2824 18007KT P6SM -RA BKN013 OVC030
                      TEMPO 2800/2803 2SM BR BKN008 FM280300 16010KT
                       P6SM -RA OVC025 FM280800 17015G24KT 4SM
                       -RA BR OVC025 FM281700 18010G20KT P6SM -SHRA
                       OVC015 FM282300 18010KT P6SM -SHRA OVC020=
202412272320 TAF KBFI 272320Z 2800/2824 18007KT P6SM -RA BKN013 OVC030 FM280300
                       16010KT P6SM -RA OVC025 FM280800 17015G24KT
                       4SM -RA BR OVC025 FM281700 18010G20KT P6SM
                       -SHRA OVC015 FM282300 18010KT P6SM -SHRA
                       OVC020=
202412272145 KBFI 272145Z 2722/2818 16007KT 4SM -RA BR BKN007 OVC009 FM280000
                       18007KT P6SM OVC020 FM280300 16010KT P6SM
                       OVC025 FM280800 17015G24KT P6SM -RA OVC025
                       FM281700 18010G20KT P6SM -SHRA OVC015=
202412272106 KBFI 272106Z 2721/2818 16007KT 4SM -RA BR OVC011 FM280000 18007KT
                       P6SM OVC020 FM280300 16010KT P6SM OVC025
                       FM280800 17015G24KT P6SM -RA OVC025 FM281700
                       18010G20KT P6SM -SHRA OVC015=
202412272052 KBFI 272052Z 2721/2818 16007KT 2SM -RA BR OVC007 FM280000 18007KT
                       P6SM OVC020 FM280300 16010KT P6SM OVC025
                       FM280800 17015G24KT P6SM -RA OVC025 FM281700
                       18010G20KT P6SM -SHRA OVC015=
202412271801 KBFI 271801Z 2718/2818 13004KT 4SM -RA BR OVC024
                      TEMPO 2718/2721 2SM BR OVC007 FM272100 16007KT
                       4SM -RA BR OVC025 FM272300 18007KT P6SM
                       OVC020 FM280300 16010KT P6SM OVC025 FM280800
                       17015G24KT P6SM -RA OVC025 FM281700 18010G20KT
                       P6SM -SHRA OVC015=
202412271750 KBFI 271750Z 2718/2818 13004KT 1 1/2SM -RA BR OVC024 FM272100 16007KT
                       4SM -RA BR OVC025 FM272300 18007KT P6SM
                       OVC020 FM280300 16010KT P6SM OVC025 FM280800
                       17015G24KT P6SM -RA OVC025 FM281700 18010G20KT
                       P6SM -SHRA OVC015=
202412271725 KBFI 271725Z 2717/2818 13004KT 2SM -RA BR SCT027 OVC035 FM272100
                       16007KT 4SM -RA BR OVC025 FM272300 18007KT
                       P6SM OVC020 FM280300 16010KT P6SM OVC025
                       FM280800 17015G24KT P6SM -RA OVC025 FM281700
                       18010G20KT P6SM -SHRA OVC015=
202412271720 TAF KBFI 271720Z 2718/2818 13004KT 3SM -RA SCT017 OVC025 FM272100
                       16007KT 4SM -RA BR OVC025 FM272300 18007KT
                       P6SM OVC020 FM280300 16010KT P6SM OVC025
                       FM280800 17015G24KT P6SM -RA OVC025 FM281700
                       18010G20KT P6SM -SHRA OVC015=
202412271131 TAF KBFI 271131Z 2712/2812 VRB04KT P6SM OVC045 FM271400 13005KT
                       P6SM -SHRA OVC035 FM271700 16007KT 4SM -RA
                       BR OVC025 FM272300 18007KT P6SM OVC020 FM280300
                       16008KT P6SM OVC025 FM280800 17012G21KT
                       P6SM -RA OVC025=
202412270520 TAF KBFI 270520Z 2706/2806 16005KT P6SM SCT030 BKN110 FM270800
                       10010KT P6SM -SHRA OVC025 FM271500 16008KT
                       4SM -RA BR OVC015 FM272300 21007KT P6SM
                       OVC013=
202412270258 KBFI 270258Z 2703/2724 16010KT P6SM SCT030 BKN110 FM270800 10010KT
                       P6SM -SHRA OVC025 FM271500 16008KT 4SM -RA
                       BR OVC015 FM272300 21009G18KT P6SM OVC013=
202412262322 TAF KBFI 262322Z 2700/2724 21015G25KT P6SM SCT030 BKN110 FM270800
                       10010KT P6SM -SHRA OVC025 FM271500 16008KT
                       4SM -RA BR OVC015 FM272300 21009G18KT P6SM
                       OVC013=
202412262057 KBFI 262057Z 2621/2718 21015G28KT P6SM BKN023 BKN040 FM270100 16006KT
                       P6SM OVC040 FM270700 10010KT P6SM -SHRA
                       OVC025 FM271500 16008KT P6SM -RA OVC015=
202412262054 KBFI 262054Z 2621/2718 21015G28KT P6SM BKN040 BKN100 FM270100 16006KT
                       P6SM OVC040 FM270700 10010KT P6SM -SHRA
                       OVC025 FM271500 16008KT P6SM -RA OVC015=
202412261734 TAF KBFI 261734Z 2618/2718 19015G30KT 6SM -SHRA BR SCT011 BKN015
                       OVC030 WS020/20045KT FM262200 19010G25KT
                       P6SM -SHRA OVC040 FM270100 16006KT P6SM
                       OVC040 FM270700 10010KT P6SM -SHRA OVC025
                       FM271500 16008KT P6SM -RA OVC015=
202412261613 KBFI 261613Z 2616/2712 14017G27KT 6SM -RA BR OVC030 WS020/20045KT
                       TEMPO 2616/2618 5SM BR BKN010 FM261800 19015G24KT
                       6SM -RA BR OVC030 FM262200 19010KT P6SM
                       -SHRA OVC040 FM270100 16006KT P6SM OVC040
                       FM270600 12003KT P6SM OVC030=
202412261557 KBFI 261557Z 2616/2712 14017G27KT 6SM -RA BR OVC030
                      TEMPO 2616/2618 5SM BR BKN010 FM261800 19015G24KT
                       6SM -RA BR OVC030 FM262200 19010KT P6SM
                       -SHRA OVC040 FM270100 16006KT P6SM OVC040
                       FM270600 12003KT P6SM OVC030=
202412261533 KBFI 261533Z 2616/2712 14017G27KT 6SM -RA BR OVC030
                      TEMPO 2616/2618 2SM BR BKN015 FM261800 19015G24KT
                       6SM -RA BR OVC030 FM262200 19010KT P6SM
                       -SHRA OVC040 FM270100 16006KT P6SM OVC040
                       FM270600 12003KT P6SM OVC030=
202412261130 TAF KBFI 261130Z 2612/2712 14013KT 5SM -RA BR OVC040 WS020/20050KT
                       FM261400 14017G27KT 6SM -RA BR OVC030 FM261800
                       19015G24KT 6SM -RA BR OVC030 FM262200 19010KT
                       P6SM -SHRA OVC040 FM270100 16006KT P6SM
                       OVC040 FM270600 12003KT P6SM OVC030=
202412260525 TAF KBFI 260525Z 2606/2706 14013KT 5SM -RA BR OVC040 WS020/20050KT
                       FM260800 14017G27KT 6SM -RA BR OVC019 WS020/20050KT
                       FM261200 18017G30KT P6SM -RA OVC015 FM261800
                       19015G24KT 6SM -RA BR OVC012=
202412252329 TAF KBFI 252329Z 2600/2624 15009G19KT 5SM -RA BR BKN025 OVC030
                       FM260400 14010G21KT 5SM -RA BR OVC015 WS020/20050KT
                       FM260800 14017G27KT 6SM -RA BR OVC019 WS020/20050KT
                       FM261200 18017G30KT P6SM -RA OVC015 FM261800
                       19015G24KT 6SM -RA BR OVC012=
202412251725 TAF KBFI 251725Z 2518/2618 16009G17KT P6SM -RA OVC045 FM252100
                       15009G19KT 5SM -RA BR BKN025 OVC030 FM260700
                       14010KT 5SM -RA BR OVC020 FM261200 18017G29KT
                       P6SM -RA OVC015=
202412251120 TAF KBFI 251120Z 2512/2612 15006KT P6SM OVC060 FM251900 16009G17KT
                       P6SM -RA OVC040 FM252100 15007KT 6SM -RA
                       BR BKN025 OVC030 FM260500 14010KT 5SM -RA
                       BR OVC020 FM260900 16012G21KT P6SM -RA OVC015=
202412250520 TAF KBFI 250520Z 2506/2606 18008KT P6SM SCT060 FM251200 15006KT
                       P6SM OVC060 FM251900 16009G17KT P6SM -RA
                       OVC040 FM252100 15009KT 6SM -RA BR BKN025
                       OVC030=
202412242330 TAF KBFI 242330Z 2500/2524 18008KT P6SM BKN150 FM251200 15006KT
                       P6SM OVC060 FM251900 16009G17KT P6SM -RA
                       OVC040 FM252100 15009KT 6SM -RA BR BKN025
                       OVC030=
202412241739 TAF KBFI 241739Z 2418/2518 18010KT P6SM VCSH BKN035 BKN150 FM241900
                       17008KT P6SM FEW040 BKN150 FM251000 15006KT
                       P6SM OVC060=
202412241127 TAF KBFI 241127Z 2412/2512 16009G16KT P6SM VCSH OVC035
                      TEMPO 2412/2416 5SM BR BKN028 FM241800 17008KT
                       P6SM VCSH BKN035 BKN050 FM242300 17007KT
                       P6SM BKN050 FM250500 15006KT P6SM OVC045=
202412240530 TAF KBFI 240530Z 2406/2506 13010G16KT P6SM -RA OVC050 FM240900
                       15010G16KT P6SM -RA OVC035 FM241300 16009G16KT
                       P6SM -SHRA OVC035 FM241800 17008KT P6SM
                       VCSH BKN035 BKN050 FM242300 17007KT P6SM
                       BKN050=
202412232324 TAF KBFI 232324Z 2400/2424 06005KT P6SM OVC100 FM240400 13008KT
                       P6SM -RA OVC050 FM240900 15009KT P6SM -RA
                       OVC027 FM241300 16009G16KT P6SM -SHRA OVC020
                       FM241800 17008KT P6SM VCSH BKN035 BKN050
                       FM242300 17007KT P6SM BKN050=
202412231724 TAF KBFI 231724Z 2318/2418 13006KT P6SM BKN040 FM232300 08005KT
                       P6SM BKN100 BKN200 FM240300 13008KT P6SM
                       -RA OVC025 FM241400 20009G16KT P6SM BKN050=
202412231403 KBFI 231403Z 2314/2412 17008KT P6SM BKN050 FM231800 13006KT P6SM
                       BKN040 FM232300 08005KT P6SM BKN100 BKN200
                       FM240300 13008KT P6SM -RA OVC025=
202412231120 TAF KBFI 231120Z 2312/2412 18012G20KT P6SM FEW020 BKN050 FM231800
                       13006KT P6SM BKN040 FM232300 08005KT P6SM
                       BKN100 BKN200 FM240300 13008KT P6SM -RA
                       OVC025=
202412230916 KBFI 230916Z 2309/2406 17008KT P6SM BKN050
                      TEMPO 2309/2312 17014G24KT FM231800 13005KT
                       P6SM BKN040 FM232300 08004KT P6SM BKN100
                       BKN200 FM240500 13005KT P6SM BKN050 OVC090=
202412230528 TAF KBFI 230528Z 2306/2406 17009KT P6SM -SHRA SCT022 OVC035 FM231000
                       17008KT P6SM BKN030 FM231800 13005KT P6SM
                       BKN040 FM232300 08004KT P6SM BKN100 BKN200
                       FM240500 13005KT P6SM BKN050 OVC090=
202412230317 KBFI 230317Z 2303/2324 15008KT P6SM -RA OVC040 FM230400 16011KT
                       P6SM -SHRA SCT022 OVC035 FM230800 20008KT
                       P6SM BKN040 FM231500 16007KT P6SM OVC035=
202412222330 TAF KBFI 222330Z 2300/2324 13008KT P6SM -RA SCT035 OVC050 FM230300
                       15011KT P6SM -SHRA SCT020 OVC030 FM230900
                       20008KT P6SM BKN050 FM231500 16007KT P6SM
                       OVC035=
202412221726 TAF KBFI 221726Z 2218/2318 10005KT P6SM -RA SCT035 OVC050 FM230300
                       15009KT P6SM -SHRA SCT020 OVC030 FM230900
                       20008KT P6SM BKN050 FM231500 16007KT P6SM
                       OVC025=
202412221401 KBFI 221401Z 2214/2312 13005KT P6SM VCSH BKN060 FM221700 10005KT
                       P6SM -RA SCT035 OVC050 FM230300 15009KT
                       P6SM -SHRA SCT020 OVC030 FM230900 20008KT
                       P6SM BKN050=
202412221124 TAF KBFI 221124Z 2212/2312 15005KT P6SM BKN050 FM221400 13005KT
                       P6SM VCSH BKN050 FM221800 10005KT P6SM -RA
                       SCT035 OVC050 FM230300 15009KT P6SM -SHRA
                       SCT020 OVC030 FM230900 20008KT P6SM BKN050=
202412220857 KBFI 220857Z 2209/2306 14005KT P6SM OVC050 FM221400 13005KT P6SM
                       VCSH OVC050 FM221800 10005KT P6SM -RA SCT035
                       OVC050 FM230300 15009KT P6SM -SHRA OVC030=
202412220520 TAF KBFI 220520Z 2206/2306 14006KT P6SM SCT030 OVC040 FM221400
                       13005KT P6SM VCSH BKN050 FM221800 10005KT
                       P6SM -RA SCT035 OVC050 FM230300 15009KT
                       P6SM -SHRA OVC030=
202412220301 KBFI 220301Z 2203/2224 15007KT P6SM SCT030 OVC040 FM221200 13005KT
                       P6SM VCSH BKN050 FM221800 10005KT P6SM -RA
                       SCT035 OVC050=
202412212328 TAF KBFI 212328Z 2200/2224 24008G21KT P6SM -SHRA FEW015 BKN035
                       FM220200 14006KT P6SM OVC040 FM221200 13005KT
                       P6SM BKN050 FM221800 10005KT P6SM -RA SCT035
                       OVC050 FM222100 12005KT P6SM -RA OVC030=
202412211739 TAF KBFI 211739Z 2118/2218 16006KT P6SM -RA FEW045 OVC080 FM212100
                       17010G17KT P6SM -RA OVC030 FM220200 14006KT
                       P6SM OVC040 FM221200 13006KT P6SM BKN050=
202412211359 KBFI 211359Z 2114/2212 VRB03KT P6SM VCSH BKN150 FM211600 13006G14KT
                       P6SM -RA OVC040 FM212100 17010G17KT P6SM
                       -SHRA OVC030 FM220400 14006KT P6SM OVC040=
202412211120 TAF KBFI 211120Z 2112/2212 VRB03KT P6SM VCSH SCT080 BKN150 FM211600
                       13006KT P6SM -RA OVC040 FM212100 17010G17KT
                       P6SM -SHRA OVC030 FM220400 14006KT P6SM
                       OVC040=
202412210903 KBFI 210903Z 2109/2206 VRB03KT P6SM SCT080 FM211200 00000KT P6SM
                       -SHRA SCT080 BKN150 FM211600 13006KT P6SM
                       -RA OVC050 FM212100 17010G17KT P6SM -SHRA
                       OVC035 FM220400 14006KT P6SM OVC040=
202412210535 TAF KBFI 210535Z 2106/2206 00000KT P6SM SCT080 FM211000 00000KT
                       P6SM SCT080 BKN150 FM211600 13006KT P6SM
                       -RA OVC050 FM212200 17010KT P6SM OVC035=
202412202320 TAF KBFI 202320Z 2100/2124 VRB03KT P6SM OVC080 FM210300 VRB04KT
                       P6SM OVC050 FM211200 13003KT P6SM OVC040
                       FM211700 16010KT P6SM -SHRA OVC050=
202412201720 TAF KBFI 201720Z 2018/2118 VRB03KT P6SM OVC100 FM202200 13006KT
                       P6SM -SHRA OVC040 FM210300 VRB04KT P6SM
                       OVC045 FM211200 13003KT P6SM OVC040=
202412201120 TAF KBFI 201120Z 2012/2112 VRB03KT P6SM BKN050 FM201700 13005KT
                       P6SM VCSH SCT050 OVC100 FM202200 13006KT
                       P6SM -SHRA OVC040 FM210300 VRB04KT P6SM
                       OVC045=
202412200858 KBFI 200858Z 2009/2106 VRB03KT P6SM OVC050 FM201700 12005KT P6SM
                       VCSH SCT050 OVC100 FM202200 12006KT P6SM
                       -SHRA OVC040 FM210300 VRB03KT P6SM OVC045=
202412200539 TAF KBFI 200539Z 2006/2106 14006KT P6SM OVC040 FM201100 VRB03KT
                       P6SM OVC050 FM201800 13004KT P6SM SCT050
                       OVC100 FM210000 13004KT P6SM OVC045=
202412200303 KBFI 200303Z 2003/2024 13004KT P6SM -RA OVC050 FM200900 13004KT
                       P6SM OVC022 FM201400 VRB02KT P6SM OVC035
                       FM201900 14003KT P6SM OVC050=
202412192320 TAF KBFI 192320Z 2000/2024 VRB02KT P6SM -RA OVC070 FM200400 15006KT
                       P6SM -RA OVC030 FM200900 13003KT P6SM OVC015
                       FM201400 VRB02KT P6SM OVC035 FM201900 14003KT
                       P6SM OVC050=
202412191727 TAF KBFI 191727Z 1918/2018 VRB05KT P6SM OVC040 FM192300 12004KT
                       P6SM -RA OVC040 FM200400 15006KT P6SM -RA
                       OVC015 FM200900 13003KT P6SM OVC015 FM201400
                       VRB02KT P6SM OVC040=
202412191408 KBFI 191408Z 1914/2012 VRB02KT P6SM SCT050 OVC060 FM192300 12004KT
                       P6SM -RA OVC040 FM200400 15006KT P6SM -RA
                       OVC015=
202412191120 TAF KBFI 191120Z 1912/2012 VRB02KT P6SM SCT050 OVC060 FM192300
                       12004KT P6SM -RA OVC040 FM200400 15006KT
                       P6SM -RA OVC015=
202412190853 KBFI 190853Z 1909/2006 24004KT P6SM BKN045 OVC060 FM192100 12004KT
                       P6SM -RA OVC040 FM200300 15006KT P6SM -RA
                       OVC040=
202412190538 TAF KBFI 190538Z 1906/2006 12004KT P6SM BKN045 OVC150 FM192100
                       12004KT P6SM -RA OVC040 FM200300 15006KT
                       P6SM -RA OVC040=
202412190316 KBFI 190316Z 1903/1924 VRB03KT P6SM SCT028 BKN200
                      TEMPO 1903/1905 BKN028 BKN200 FM190800 14004KT
                       P6SM BKN070 FM191900 14004KT P6SM OVC050=
202412182320 TAF KBFI 182320Z 1900/1924 19008G18KT P6SM BKN035 FM190500 14005KT
                       P6SM BKN070 FM191100 12003KT P6SM OVC100
                       FM191500 VRB02KT P6SM OVC050 FM191900 09003KT
                       P6SM OVC040=
202412182019 KBFI 182019Z 1820/1918 19008G18KT P6SM BKN030 FM190500 14005KT
                       P6SM BKN070 FM191100 12005KT P6SM OVC100
                       FM191500 VRB02KT P6SM OVC050=
202412181723 TAF KBFI 181723Z 1818/1918 21013G16KT P6SM BKN020 FM182000 19008KT
                       P6SM BKN050 FM190500 14005KT P6SM BKN070
                       FM191100 12005KT P6SM OVC100 FM191500 VRB02KT
                       P6SM OVC050=
202412181435 KBFI 181435Z 1815/1912 19013G23KT 6SM -SHRA BR OVC050 WS020/18040KT
                       FM181700 18013G20KT P6SM OVC030 FM182100
                       19008KT P6SM BKN050 FM190500 14005KT P6SM
                       BKN070 FM191100 12005KT P6SM OVC045=
202412181350 KBFI 181350Z 1814/1912 19013G23KT 6SM -SHRA BR OVC050 WS020/18040KT
                       TEMPO 1814/1815 28008KT 1SM +TSRA BKN015CB
                       FM181700 18013G20KT P6SM OVC030 FM182100
                       19008KT P6SM BKN050 FM190500 14005KT P6SM
                       BKN070 FM191100 12005KT P6SM OVC045=
202412181343 KBFI 181343Z 1814/1912 19013G23KT 6SM -SHRA BR OVC050 WS020/18040KT
                       TEMPO 1814/1815 1SM +TSRA BKN015CB FM181700
                       18013G20KT P6SM OVC030 FM182100 19008KT
                       P6SM BKN050 FM190500 14005KT P6SM BKN070
                       FM191100 12005KT P6SM OVC045=
202412181337 KBFI 181337Z 1814/1912 19013G23KT 6SM -SHRA BR OVC050 WS020/18040KT
                       TEMPO 1814/1815 1SM +RA FEW008 FM181700
                       18013G20KT P6SM OVC030 FM182100 19008KT
                       P6SM BKN050 FM190500 14005KT P6SM BKN070
                       FM191100 12005KT P6SM OVC045=
202412181120 TAF KBFI 181120Z 1812/1912 19013G23KT 6SM -SHRA BR OVC050 WS020/18040KT
                       FM181700 18013G20KT P6SM OVC030 FM182100
                       19008KT P6SM BKN050 FM190500 14005KT P6SM
                       BKN070 FM191100 12005KT P6SM OVC045=
202412180857 KBFI 180857Z 1809/1906 17017G26KT 4SM -RA OVC035 WS020/18040KT
                       FM181200 19013G23KT 6SM -SHRA BR OVC050
                       FM181700 18013G20KT P6SM OVC030 FM182100
                       19008KT P6SM BKN050=
202412180856 KBFI 180856Z 1809/1906 17017G26KT P6SM -RA OVC035 WS020/18040KT
                       FM181200 19013G23KT 6SM -SHRA BR OVC050
                       FM181700 18013G20KT P6SM OVC030 FM182100
                       19008KT P6SM BKN050=
202412180522 KBFI 180522Z 1805/1906 18005KT 4SM -RA BR OVC020 WS020/18040KT
                       FM180900 17017G26KT 2SM RA BR OVC007 WS020/18040KT
                       FM181200 19013G23KT 6SM -SHRA BR OVC050
                       FM181700 18013G20KT P6SM OVC030 FM182100
                       19008KT P6SM BKN050=
202412180520 TAF KBFI 180520Z 1806/1906 18005KT 4SM RA BR OVC004 WS020/18040KT
                       FM180900 17017G26KT 2SM RA BR OVC007 WS020/18040KT
                       FM181200 19013G23KT 6SM -SHRA BR OVC050
                       FM181700 18013G20KT P6SM OVC030 FM182100
                       19008KT P6SM BKN050=
202412180021 KBFI 180021Z 1800/1824 16009KT 3SM -RA BR OVC030 FM180300 14012G22KT
                       5SM RA BR OVC015 WS020/18040KT FM180600
                       18015G25KT 5SM RA BR OVC020 WS020/18040KT
                       FM181200 19013G23KT 6SM -SHRA BR OVC050
                       FM181700 18013G20KT P6SM OVC030=
202412172327 TAF KBFI 172327Z 1800/1824 16009KT 4SM -RA BR OVC017 FM180300 14012G22KT
                       5SM RA BR OVC015 WS020/18040KT FM180600
                       18015G25KT 5SM RA BR OVC020 WS020/18040KT
                       FM181200 19013G23KT 6SM -SHRA BR OVC050
                       FM181700 18013G20KT P6SM OVC030=
202412171727 TAF KBFI 171727Z 1718/1818 13008KT 6SM -RA BKN030 OVC040 FM172000
                       15008KT 5SM RA BR OVC014 FM172300 16012KT
                       5SM RA BR OVC017 WS020/18040KT FM180600
                       18015G25KT 5SM RA BR OVC020 FM181200 19013G23KT
                       6SM -SHRA BR OVC050=
202412171402 KBFI 171402Z 1714/1812 14005KT P6SM VCSH OVC035 FM171700 13006KT
                       P6SM -RA OVC025 FM172300 15008KT 5SM RA
                       BR OVC014 FM180300 16012KT 5SM RA BR OVC017
                       WS020/18040KT FM180900 18015G25KT 5SM RA
                       BR OVC022=
202412171122 TAF KBFI 171122Z 1712/1812 14005KT P6SM VCSH OVC035 FM171700 13006KT
                       P6SM -RA OVC025 FM172300 15008KT 5SM RA
                       BR OVC014 FM180300 16012KT 5SM RA BR OVC017
                       WS020/18040KT FM180900 18015G25KT 5SM RA
                       BR OVC022=
202412170853 KBFI 170853Z 1709/1806 13003KT P6SM -RA OVC050 FM171100 14005KT
                       P6SM VCSH OVC030 FM171700 13006KT P6SM -RA
                       OVC025 FM172300 15008KT 5SM RA BR OVC014
                       FM180300 16012KT 5SM RA BR OVC017 WS020/18040KT=
202412170521 TAF KBFI 170521Z 1706/1806 13003KT P6SM -RA BKN035 OVC060 FM171100
                       14005KT P6SM VCSH OVC030 FM171700 13006KT
                       P6SM -RA OVC025 FM172300 15008KT 5SM RA
                       BR OVC014 FM180300 16012KT 5SM RA BR OVC017
                       WS020/18040KT=
202412170356 KBFI 170356Z 1704/1724 13005KT P6SM BKN060 BKN120 OVC200 FM170500
                       13003KT P6SM -RA BKN035 OVC060 FM171100
                       14005KT P6SM -RA OVC025 FM171700 13006KT
                       P6SM -RA OVC020 FM172300 15008KT 6SM RA
                       BR OVC012=
202412162331 TAF KBFI 162331Z 1700/1724 13005KT P6SM BKN060 BKN120 OVC200 FM170700
                       13003KT P6SM -RA BKN035 OVC060 FM171100
                       14005KT P6SM -RA OVC025 FM171700 13006KT
                       P6SM -RA OVC020 FM172300 15008KT 6SM RA
                       BR OVC012=
202412161723 TAF KBFI 161723Z 1618/1718 VRB03KT P6SM OVC035 FM162200 13005KT
                       P6SM BKN050 FM170100 08003KT P6SM BKN045
                       FM170600 11003KT P6SM -RA BKN035 FM171100
                       14004KT P6SM -RA OVC025=
202412161412 KBFI 161412Z 1614/1712 00000KT 5SM -RA BR OVC030 FM162200 13005KT
                       P6SM BKN035 FM170100 08003KT P6SM BKN040
                       FM170600 11003KT P6SM -RA BKN025=
202412161306 KBFI 161306Z 1613/1712 00000KT 4SM -RA OVC030 FM161400 14007KT
                       P6SM -RA OVC022 FM162200 13005KT P6SM VCSH
                       BKN030 BKN040 FM170100 11003KT P6SM OVC100
                       FM170400 13003KT P6SM BKN030 OVC050=
202412161127 TAF KBFI 161127Z 1612/1712 00000KT P6SM -RA BKN060 OVC080 FM161400
                       14007KT P6SM -RA OVC022 FM162200 13005KT
                       P6SM VCSH BKN030 BKN040 FM170100 11003KT
                       P6SM OVC100 FM170400 13003KT P6SM BKN030
                       OVC050=
202412160521 TAF KBFI 160521Z 1606/1706 00000KT P6SM BKN060 OVC080 FM160900
                       VRB03KT P6SM -RA OVC030 FM161300 14007KT
                       P6SM -RA OVC022 FM162200 13005KT P6SM VCSH
                       BKN030 BKN040 FM170100 11003KT P6SM OVC100
                       FM170400 13003KT P6SM BKN030 OVC050=
202412152326 TAF KBFI 152326Z 1600/1624 VRB03KT P6SM FEW030 BKN100 BKN200 FM160200
                       VRB03KT P6SM BKN080 OVC120 FM160900 VRB03KT
                       P6SM -RA OVC030 FM161300 14007KT P6SM -RA
                       OVC022 FM162200 13005KT P6SM VCSH BKN030
                       BKN040=
202412151727 TAF KBFI 151727Z 1518/1618 15009KT P6SM SCT020 BKN070 FM152100
                       17008KT P6SM FEW030 SCT120 BKN200 FM160100
                       13004KT P6SM BKN080 OVC120 FM160900 VRB03KT
                       P6SM -RA OVC030 FM161600 15007KT P6SM -RA
                       OVC025=
202412151705 KBFI 151705Z 1517/1612 15009KT P6SM SCT020 BKN070 FM152000 17008KT
                       P6SM BKN045 BKN070 FM160200 11002KT P6SM
                       OVC050 FM160800 06002KT P6SM -RA OVC025=
202412151125 TAF KBFI 151125Z 1512/1612 18009G20KT P6SM VCSH BKN028 BKN040 FM151500
                       17011KT P6SM OVC025 FM152000 17008KT P6SM
                       BKN045 BKN070 FM160200 11002KT P6SM OVC050
                       FM160800 06002KT P6SM -RA OVC025=
202412150800 KBFI 150800Z 1508/1606 16006KT P6SM VCSH BKN028 BKN040 FM151200
                       17008KT P6SM VCSH OVC025 FM152000 17008KT
                       P6SM BKN045 BKN070 FM160000 14005KT P6SM
                       OVC100 FM160500 06002KT P6SM OVC050=
202412150530 TAF KBFI 150530Z 1506/1606 16006KT P6SM VCSH BKN028 BKN040
                      TEMPO 1506/1508 4SM -RA FM151200 17008KT
                       P6SM VCSH OVC025 FM152000 17008KT P6SM BKN045
                       BKN070 FM160000 14005KT P6SM OVC100 FM160500
                       06002KT P6SM OVC050=
202412142324 TAF KBFI 142324Z 1500/1524 18014G22KT P6SM -SHRA SCT025 BKN035
                       BKN050 FM150300 17011KT P6SM VCSH OVC035
                       FM151200 17008KT P6SM VCSH OVC025 FM152000
                       17008KT P6SM BKN045 BKN070=
202412141731 TAF KBFI 141731Z 1418/1518 16018G28KT P6SM -SHRA OVC040 FM142100
                       18015G24KT P6SM -SHRA OVC035 FM150100 17012KT
                       P6SM VCSH OVC035 FM150700 17010KT P6SM VCSH
                       OVC030 FM151300 17008KT P6SM OVC025=
202412141134 TAF KBFI 141134Z 1412/1512 16009KT 6SM -SHRA OVC050 FM141500 16018G28KT
                       P6SM -SHRA OVC040 FM142100 18014G23KT P6SM
                       -SHRA BKN025 OVC050 FM150100 17010KT P6SM
                       VCSH OVC035 FM150700 17010KT P6SM -RA OVC025=
202412140520 TAF KBFI 140520Z 1406/1506 13008KT 6SM -RA BR OVC045 FM140900 16009KT
                       6SM -SHRA SCT030 OVC040 FM141500 16018G28KT
                       P6SM -SHRA OVC040 FM142100 18014G23KT P6SM
                       -SHRA BKN025 OVC050 FM150100 17010KT P6SM
                       VCSH OVC035=
202412132325 TAF KBFI 132325Z 1400/1424 13005KT 4SM -RA OVC045 FM140300 13008KT
                       6SM -RA BR OVC045 FM140900 16009KT 6SM -SHRA
                       SCT030 OVC040 FM141500 16018G28KT P6SM -SHRA
                       OVC040 FM142100 18014G23KT P6SM -SHRA BKN025
                       OVC050=
202412132202 KBFI 132202Z 1322/1418 12005KT 4SM -RA OVC045 FM140300 13008KT
                       6SM -RA BR OVC045 FM140900 16009KT 6SM -SHRA
                       SCT030 OVC040 FM141500 16015G25KT P6SM -SHRA
                       OVC040=
202412131720 TAF KBFI 131720Z 1318/1418 VRB03KT P6SM OVC040 FM132200 12005KT
                       P6SM -RA OVC035 FM140300 13008KT 6SM -RA
                       BR OVC045 FM140900 16009KT 6SM -SHRA SCT030
                       OVC040 FM141500 16015G25KT P6SM -SHRA OVC040=
202412131141 TAF KBFI 131141Z 1312/1412 VRB03KT P6SM OVC040 FM132200 12005KT
                       P6SM -RA OVC035 FM140300 13008KT 6SM -RA
                       BR OVC045 FM140900 16009KT 6SM -RA OVC040=
202412130523 TAF KBFI 130523Z 1306/1406 15004KT 4SM BR OVC010 FM130900 VRB03KT
                       6SM BR OVC015 FM131400 13004KT 6SM BR OVC020
                       FM132200 12005KT P6SM -RA OVC030 FM140300
                       14008KT 6SM -RA BR OVC030=
202412130407 KBFI 130407Z 1304/1324 15004KT 6SM BR BKN010 OVC020
                      TEMPO 1304/1306 2SM -SHRA BR SCT002 OVC009
                       FM130600 VRB03KT P6SM VCSH OVC020 FM131400
                       14004KT P6SM OVC050=
202412130210 KBFI 130210Z 1302/1324 15004KT 2SM -SHRA BR BKN010 OVC020 FM130600
                       VRB03KT P6SM VCSH OVC020 FM131400 14004KT
                       P6SM OVC050=
202412130100 KBFI 130100Z 1301/1324 VRB02KT P6SM -RA OVC020 FM130200 15004KT
                       5SM -SHRA BR BKN020 OVC030 FM130600 VRB03KT
                       P6SM VCSH OVC030 FM131400 14004KT P6SM OVC050=
202412122338 TAF KBFI 122338Z 1300/1324 VRB02KT P6SM -RA OVC060 FM130200 15004KT
                       5SM -SHRA BR BKN030 OVC040 FM130600 VRB03KT
                       P6SM VCSH OVC030 FM131400 14004KT P6SM OVC050=
202412121720 TAF KBFI 121720Z 1218/1318 VRB02KT P6SM -RA OVC060 FM121900 16003KT
                       P6SM OVC050 FM122300 14003KT 5SM -SHRA BR
                       OVC020 FM130300 VRB03KT P6SM VCSH OVC030
                       FM131400 14004KT P6SM OVC050=
202412121357 KBFI 121357Z 1214/1312 00000KT P6SM OVC050 FM121800 VRB02KT P6SM
                       -SHRA OVC050 FM122300 14003KT 5SM -SHRA
                       BR OVC020 FM130300 VRB03KT P6SM VCSH OVC040=
202412121137 TAF KBFI 121137Z 1212/1312 10002KT P6SM OVC050 FM121800 VRB02KT
                       P6SM -SHRA OVC050 FM122300 14003KT 5SM -SHRA
                       BR OVC020 FM130300 VRB03KT P6SM VCSH OVC040=
202412120913 KBFI 120913Z 1209/1306 VRB03KT P6SM OVC060 FM121200 10002KT P6SM
                       OVC050 FM121800 VRB02KT P6SM -SHRA OVC025
                       FM122300 14003KT 5SM -SHRA BR OVC020 FM130300
                       VRB03KT P6SM VCSH OVC020=
202412120520 TAF KBFI 120520Z 1206/1306 VRB03KT P6SM SCT100 BKN200 FM120900
                       VRB03KT P6SM OVC060 FM121200 10002KT P6SM
                       OVC050 FM121800 VRB02KT P6SM -SHRA OVC025
                       FM122300 14003KT 5SM -SHRA BR OVC020 FM130300
                       VRB03KT P6SM VCSH OVC020=
202412112329 TAF KBFI 112329Z 1200/1224 15004KT P6SM SCT200 FM120100 VRB03KT
                       P6SM SCT100 BKN200 FM120900 VRB03KT P6SM
                       OVC060 FM121200 10002KT P6SM OVC050 FM121800
                       VRB02KT P6SM -SHRA OVC025=
202412111720 TAF KBFI 111720Z 1118/1218 VRB02KT P6SM OVC150 FM112100 15004KT
                       P6SM SCT200 FM120100 VRB03KT P6SM SCT100
                       BKN200 FM120900 VRB03KT P6SM OVC060 FM121200
                       10002KT P6SM OVC050=
202412111138 TAF KBFI 111138Z 1112/1212 15004KT P6SM OVC150 FM112100 15004KT
                       P6SM SCT200 FM120100 VRB03KT P6SM SCT100
                       BKN200 FM120900 VRB03KT P6SM OVC060=
202412110520 TAF KBFI 110520Z 1106/1206 VRB03KT P6SM SCT250 FM111100 15003KT
                       P6SM OVC200 FM111900 16003KT P6SM SCT250
                       FM120100 VRB03KT P6SM SCT100 SCT250=
202412102320 TAF KBFI 102320Z 1100/1124 34004KT P6SM BKN200 FM110400 VRB02KT
                       P6SM OVC120 FM111100 15003KT P6SM OVC200
                       FM111900 16003KT P6SM FEW250=
202412101720 TAF KBFI 101720Z 1018/1118 34004KT P6SM SCT012 BKN200 FM102100
                       34004KT P6SM BKN200 FM110400 VRB02KT P6SM
                       OVC120 FM111100 15003KT P6SM OVC200=
202412101459 KBFI 101459Z 1015/1112 00000KT 4SM BR OVC003 FM101800 34004KT P6SM
                       SCT012 BKN200 FM102100 34004KT P6SM BKN200=
202412101138 TAF KBFI 101138Z 1012/1112 00000KT 1/2SM FG VV002 FM101700 00000KT
                       3SM BR BKN004 FM101800 34004KT P6SM SCT012
                       BKN200 FM102100 34004KT P6SM BKN200=
202412100520 TAF KBFI 100520Z 1006/1106 VRB03KT P6SM FEW005 SCT200 FM100900
                       00000KT 1/2SM FG VV002 FM101700 36003KT
                       5SM BR BKN007 FM102000 36004KT P6SM FEW012
                       BKN200 FM110200 VRB03KT P6SM SCT012 OVC200=
202412092323 TAF KBFI 092323Z 1000/1024 34004KT P6SM SCT035 FM100600 VRB03KT
                       P6SM FEW005 SCT200 FM100900 00000KT 1/2SM
                       FG VV002 FM101700 36003KT 5SM BR BKN007
                       FM102000 36004KT P6SM FEW012 BKN200=
202412091720 TAF KBFI 091720Z 0918/1018 VRB03KT P6SM SCT015 BKN024 BKN045 FM092100
                       VRB03KT P6SM SCT030 BKN050 FM100100 VRB03KT
                       P6SM SCT050 FM100800 VRB03KT 1/2SM FG VV002
                       FM101700 36003KT 5SM BR BKN007=
202412091138 TAF KBFI 091138Z 0912/1012 14004KT P6SM SCT011 BKN025 OVC040 FM091500
                       14004KT P6SM BKN011 OVC020 FM091800 VRB03KT
                       P6SM SCT011 BKN020 OVC035 FM092100 VRB03KT
                       P6SM SCT030 BKN050 FM100100 VRB03KT P6SM
                       SCT050 FM100900 VRB03KT 1/2SM FG VV001=
202412090520 TAF KBFI 090520Z 0906/1006 VRB04KT P6SM OVC040 FM090800 VRB03KT
                       P6SM SCT012 OVC022 FM091700 VRB03KT P6SM
                       BKN030 FM092100 33004KT P6SM SCT027 BKN050=
202412090304 KBFI 090304Z 0903/0924 VRB04KT P6SM OVC040 FM090700 VRB03KT P6SM
                       SCT012 OVC022 FM091700 VRB03KT P6SM SCT025
                       BKN040 FM092100 33004KT P6SM SCT027 BKN050=
202412082333 TAF KBFI 082333Z 0900/0924 VRB04KT P6SM BKN025 BKN040
                      TEMPO 0900/0904 SCT028 BKN050 FM090700 VRB03KT
                       P6SM SCT012 OVC022 FM091700 VRB03KT P6SM
                       SCT025 BKN040 FM092100 33004KT P6SM SCT027
                       BKN050=
202412081727 TAF KBFI 081727Z 0818/0918 19009KT P6SM -SHRA OVC016 FM082100 18008KT
                       P6SM SCT015 BKN025 OVC040 FM090200 VRB03KT
                       P6SM SCT025 BKN040 FM090700 VRB03KT P6SM
                       SCT010 OVC018 FM091700 VRB03KT P6SM BKN022
                       OVC035=
202412081601 KBFI 081601Z 0816/0912 19009KT P6SM -SHRA OVC016 FM082100 18008KT
                       P6SM SCT015 BKN025 OVC040 FM090200 VRB03KT
                       P6SM SCT025 BKN040 FM090700 VRB03KT P6SM
                       SCT010 OVC018=
202412081137 TAF KBFI 081137Z 0812/0912 18012G20KT P6SM -SHRA OVC016 FM082100
                       18008KT P6SM SCT015 BKN025 OVC040 FM090200
                       VRB03KT P6SM SCT025 BKN040 FM090700 VRB03KT
                       P6SM SCT010 OVC018=
202412080520 TAF KBFI 080520Z 0806/0906 18012G18KT P6SM SCT017 BKN020 FM080800
                       19012G22KT P6SM -SHRA SCT015 OVC025 FM081200
                       18011KT 6SM -RA BR BKN015 OVC022 FM081800
                       18008KT P6SM -RA BKN019 OVC030 FM082200
                       16004KT P6SM OVC030=
202412080259 KBFI 080259Z 0803/0824 20012G18KT P6SM SCT017 BKN020 FM080800 19012G22KT
                       P6SM -SHRA SCT015 OVC025 FM081200 18011KT
                       6SM -RA BR BKN015 OVC022 FM081800 18008KT
                       P6SM -RA BKN019 OVC030=
202412072322 TAF KBFI 072322Z 0800/0824 20012G18KT P6SM VCSH SCT024 BKN040 FM080600
                       19012G18KT P6SM -RA SCT015 OVC025 FM081200
                       18011KT 6SM -RA BR BKN015 OVC022 FM081800
                       18008KT P6SM -RA BKN019 OVC030=
202412072138 KBFI 072138Z 0722/0818 18010G16KT P6SM -SHRA SCT018 OVC040
                      TEMPO 0722/0723 BKN011 OVC018 FM080100 19012G18KT
                       P6SM VCSH BKN040 FM080600 19012G18KT P6SM
                       -RA SCT015 OVC025 FM081200 18011KT 6SM -RA
                       BR BKN015 OVC022=
202412071948 KBFI 071948Z 0720/0818 18010G16KT P6SM -SHRA SCT018 OVC040 FM080100
                       19012G18KT P6SM VCSH BKN040 FM080600 19012G18KT
                       P6SM -RA SCT015 OVC025 FM081200 18011KT
                       6SM -RA BR BKN015 OVC022=
202412071739 TAF KBFI 071739Z 0718/0818 19011KT 6SM -RA BR BKN009 BKN017 OVC040
                       FM072000 19011KT P6SM -SHRA BKN018 OVC035
                       FM080100 19012G18KT P6SM VCSH BKN040 FM080600
                       19012G18KT P6SM -RA SCT015 OVC025 FM081200
                       18011KT 6SM -RA BR BKN015 OVC022=
202412071601 KBFI 071601Z 0716/0812 19011KT 6SM -RA BR SCT009 BKN017 OVC040
                       TEMPO 0716/0718 BKN009 FM080100 19012G18KT
                       P6SM VCSH BKN040 FM080800 19012G18KT P6SM
                       -RA SCT015 OVC025=
202412071140 TAF KBFI 071140Z 0712/0812 16004KT P6SM OVC026
                      TEMPO 0712/0714 3SM -RA FM071400 16004KT
                       3SM -RA SCT016 OVC026 FM071600 19012KT 3SM
                       -RA BKN015 OVC025 FM080100 19012G18KT P6SM
                       VCSH BKN040 FM080800 19012G18KT P6SM -RA
                       SCT015 OVC025=
202412070908 KBFI 070908Z 0709/0806 15004KT 5SM -RA OVC028 WS020/19040KT FM071200
                       16008KT 5SM -RA BR OVC016 FM072000 19012G18KT
                       5SM RA BR OVC014 FM080100 21013G22KT P6SM
                       VCSH BKN035=
202412070520 TAF KBFI 070520Z 0706/0806 16007KT P6SM OVC070 FM070700 16008KT
                       P6SM -RA OVC035 WS020/19040KT FM071200 16008KT
                       6SM -RA BR OVC021 FM072000 19012G18KT 5SM
                       RA BR OVC014 FM080200 21013G22KT P6SM VCSH
                       BKN035=
202412062320 TAF KBFI 062320Z 0700/0724 14006KT P6SM OVC100 FM070600 16005KT
                       P6SM OVC060 WS020/19040KT FM070900 16008KT
                       P6SM -RA OVC035 FM071200 16008KT 6SM -RA
                       BR OVC021 FM072000 19012G18KT 5SM RA BR
                       OVC014=
202412061728 TAF KBFI 061728Z 0618/0718 14004KT P6SM BKN120 BKN200 FM070000
                       18006KT P6SM OVC100 FM070600 16005KT P6SM
                       OVC060 FM070900 16008KT P6SM -RA OVC035
                       FM071200 16008KT 6SM -RA BR OVC021=
202412061140 TAF KBFI 061140Z 0612/0712 14003KT P6SM FEW080 FM062000 16003KT
                       P6SM BKN140 FM070000 18005KT P6SM OVC100
                       FM070600 16005KT P6SM OVC050 FM070900 16008KT
                       5SM -RA OVC025=
202412060906 KBFI 060906Z 0609/0706 14002KT P6SM FEW080 FM062000 16003KT P6SM
                       BKN250 FM070000 18005KT P6SM OVC100=
202412060520 TAF KBFI 060520Z 0606/0706 15004KT P6SM OVC050 FM060900 14002KT
                       P6SM BKN035 FM061500 14002KT P6SM BKN025
                       FM062000 16003KT P6SM BKN250 FM070000 18005KT
                       P6SM OVC100=
202412052341 TAF KBFI 052341Z 0600/0624 00000KT P6SM BKN120 FM060300 15004KT
                       P6SM OVC050 FM060900 14002KT P6SM BKN035
                       FM061500 14002KT P6SM BKN025 FM062100 16003KT
                       P6SM BKN250=
202412051740 TAF KBFI 051740Z 0518/0618 14006KT P6SM BKN120 FM052200 15004KT
                       P6SM VCSH BKN050 BKN100 FM060300 15004KT
                       P6SM OVC050 FM060900 14002KT P6SM BKN035
                       FM061500 14002KT P6SM BKN025=
202412051139 TAF KBFI 051139Z 0512/0612 14006KT P6SM FEW001 FM052200 15004KT
                       P6SM VCSH BKN050 BKN100 FM060300 15004KT
                       P6SM OVC050 FM060900 14002KT P6SM BKN035=
202412050853 KBFI 050853Z 0509/0606 16003KT 5SM BR FEW001 FM051200 14003KT 3SM
                       BR FEW001 FM052100 16004KT P6SM SCT004 BKN100
                       FM060300 15003KT P6SM OVC050=
202412050609 KBFI 050609Z 0506/0606 15007KT 6SM BR SKC FM050800 16003KT 1/4SM
                       FG OVC001 FM052100 16004KT P6SM SCT004 BKN100
                       FM060300 15003KT P6SM OVC050=
202412050526 TAF KBFI 050526Z 0506/0606 15007KT 3SM BR BKN002 FM050800 16003KT
                       1/4SM FG OVC001 FM052100 16004KT P6SM SCT004
                       BKN100 FM060300 15003KT P6SM OVC050=
202412050350 KBFI 050350Z 0504/0524 15002KT 1/2SM FG OVC003 FM052100 16004KT
                       P6SM SCT004 BKN100=
202412050019 KBFI 050019Z 0500/0524 VRB03KT 5SM BR SCT007 FM050400 15002KT 1/2SM
                       FG OVC003 FM052100 16004KT P6SM SCT004 BKN100=
202412042327 TAF KBFI 042327Z 0500/0524 VRB03KT P6SM SCT006 FM050300 15002KT
                       6SM BR SKC FM050800 15003KT 1/2SM FG OVC003
                       FM052100 16004KT P6SM SCT004 BKN100=
202412042155 KBFI 042155Z 0422/0518 14003KT 3SM BR OVC007 FM042300 29002KT P6SM
                       SCT006 FM050300 15002KT 6SM BR SKC FM050500
                       15003KT 1/2SM FG SCT003 SCT250=
202412041721 TAF KBFI 041721Z 0418/0518 VRB02KT 1/4SM FG VV002 FM042000 15002KT
                       1/4SM FG OVC004 FM042200 29002KT P6SM SCT006
                       FM050300 15002KT 6SM BR SKC FM050500 15003KT
                       1/2SM FG SCT003 SCT250=
202412041130 TAF KBFI 041130Z 0412/0512 VRB02KT 1/4SM FG VV002 FM041800 15002KT
                       1/4SM BCFG OVC004 FM042100 29002KT P6SM
                       SCT006 FM050300 15002KT 6SM BR SKC FM050500
                       15003KT 1/2SM FG SCT003 SCT250=
202412040906 KBFI 040906Z 0409/0506 VRB02KT 1/2SM FG OVC002 FM041800 15002KT
                       1/4SM BCFG OVC004 FM042100 29002KT P6SM
                       SCT006 FM050300 15002KT 6SM BR SKC=
202412040643 KBFI 040643Z 0407/0506 15003KT 1/4SM FG VV002 FM040800 VRB02KT
                       1/4SM FG OVC002 FM041800 15002KT 1/4SM BCFG
                       OVC004 FM042100 29002KT P6SM SCT006 FM050300
                       15002KT 6SM BR SKC=
202412040520 TAF KBFI 040520Z 0406/0506 15005KT 1/2SM FG OVC002 FM040800 VRB02KT
                       1/4SM FG OVC002 FM041800 15002KT 1/4SM BCFG
                       OVC004 FM042100 29002KT P6SM SCT006 FM050300
                       15002KT 6SM BR SKC=
202412040403 KBFI 040403Z 0404/0424 15005KT P6SM BKN006 FM040800 VRB02KT 1/4SM
                       FG OVC002 FM041700 15002KT 1/4SM BCFG OVC004
                       FM042100 29002KT P6SM SKC=
202412040302 KBFI 040302Z 0403/0424 00000KT P6SM FEW014 FM040400 00000KT 1/4SM
                       FG OVC003 FM042100 29002KT P6SM SKC=
202412032336 TAF KBFI 032336Z 0400/0424 00000KT P6SM FEW014 BKN150 FM040300
                       00000KT 4SM BR BKN008 FM040700 00000KT 1/4SM
                       FG OVC003 FM042100 29002KT P6SM SKC=
202412031734 TAF KBFI 031734Z 0318/0418 00000KT 4SM BR OVC005 FM032100 33002KT
                       P6SM SCT008 FM040600 00000KT 4SM BR SCT008
                       FM041100 00000KT 3SM BR OVC003=
202412031430 KBFI 031430Z 0315/0412 00000KT 3SM BR OVC005 FM032100 33002KT P6SM
                       SCT008 FM040000 VRB03KT P6SM SKC FM040600
                       00000KT 4SM BR SCT008 FM041100 00000KT 3SM
                       BR OVC003=
202412031310 KBFI 031310Z 0313/0412 06003KT 3SM BR OVC005 FM031400 00000KT 1/4SM
                       FG OVC002 FM032100 33002KT P6SM SCT008 FM040000
                       VRB03KT P6SM SKC FM040600 00000KT 4SM BR
                       SCT008 FM041100 00000KT 3SM BR OVC003=
202412031128 TAF KBFI 031128Z 0312/0412 06003KT 6SM BR OVC006 FM031400 00000KT
                       1/4SM FG OVC002 FM032100 33002KT P6SM SCT008
                       FM040000 VRB03KT P6SM SKC FM040600 00000KT
                       4SM BR SCT008 FM041100 00000KT 3SM BR OVC003=
202412030813 KBFI 030813Z 0308/0406 VRB05KT 6SM BR OVC008 FM031100 00000KT 1/4SM
                       FG OVC002 FM032100 33002KT P6SM SCT008 FM040200
                       VRB03KT P6SM SKC=
202412030520 TAF KBFI 030520Z 0306/0406 VRB03KT P6SM OVC010 FM030800 00000KT
                       1/4SM FG OVC002 FM032100 33002KT P6SM SCT008
                       FM040200 VRB03KT P6SM SKC=
202412030300 KBFI 030300Z 0303/0324 32003KT P6SM OVC010 FM030600 00000KT 1/4SM
                       FG OVC002 FM032100 36002KT P6SM SKC=
202412022337 TAF KBFI 022337Z 0300/0324 32003KT P6SM SCT006 FM030300 00000KT
                       1/4SM FG BKN002 FM032100 36002KT P6SM SKC=
202412022110 KBFI 022110Z 0221/0318 VRB03KT 5SM BR SCT006 FM022300 32003KT P6SM
                       BKN009 FM030300 00000KT 1/4SM FG BKN002=
202412021943 KBFI 021943Z 0220/0318 VRB03KT 2SM BR BKN003 FM022200 32003KT P6SM
                       BKN009 FM030300 00000KT 1/4SM FG BKN002=
202412021739 TAF KBFI 021739Z 0218/0318 VRB03KT 3SM BR BKN005 FM021900 VRB03KT
                       P6SM SCT008 SCT200 FM022200 32003KT P6SM
                       SCT200 FM030300 00000KT 1/4SM FG BKN002=
202412021120 TAF KBFI 021120Z 0212/0312 00000KT 1/4SM FG VV001 FM021800 VRB03KT
                       3SM BR BKN005 FM021900 VRB03KT P6SM SCT008
                       SCT200 FM022200 32003KT P6SM SCT200 FM030300
                       00000KT P6SM SCT200 FM030800 00000KT 5SM
                       BR BKN008=
202412020859 KBFI 020859Z 0209/0306 00000KT 3SM BR SCT004
                      TEMPO 0209/0211 1/2SM FG VV002 FM021100 00000KT
                       1/2SM FG VV002 FM021900 15003KT P6SM SCT010
                       SCT250 FM022200 30003KT P6SM SCT250 FM030200
                       VRB03KT P6SM FEW250=
202412020520 TAF KBFI 020520Z 0206/0306 00000KT P6SM SCT200 FM020900 VRB03KT
                       1/2SM FG OVC006 FM021900 15003KT P6SM SCT010
                       SCT250 FM022200 30003KT P6SM SCT250 FM030200
                       VRB03KT P6SM FEW250=
202412012331 KBFI 012331Z 0200/0224 VRB03KT P6SM SCT250 FM020400 00000KT P6SM
                       SCT200 FM020900 08003KT 1/2SM FG OVC001
                       FM021900 20003KT 6SM BCFG FEW005 FM022200
                       30003KT P6SM SCT250=
202412012320 TAF KBFI 012320Z 0200/0224 32005KT P6SM SCT250 FM020400 00000KT
                       P6SM SCT200 FM020900 08003KT 1/2SM FG OVC001
                       FM021900 20003KT 6SM BCFG FEW005 FM022200
                       30003KT P6SM SCT250=
202412012052 KBFI 012052Z 0121/0218 32005KT P6SM SCT250 FM020400 00000KT P6SM
                       SCT200 FM020900 08003KT 1/2SM FG OVC001
                       FM021700 20003KT P6SM FEW005=
202412011750 KBFI 011750Z 0118/0218 00000KT 6SM BR SCT004 FM011900 VRB03KT P6SM
                       SCT006 SCT200 FM012000 32004KT P6SM SCT200
                       FM020400 00000KT P6SM SCT200 FM020900 08003KT
                       1/2SM FG OVC001 FM021700 20003KT P6SM FEW005=
202412011735 KBFI 011735Z 0118/0218 00000KT 1SM BR BKN003 FM011900 VRB03KT P6SM
                       SCT006 SCT200 FM012000 32004KT P6SM SCT200
                       FM020400 00000KT P6SM SCT200 FM020900 08003KT
                       1/2SM FG OVC001 FM021700 20003KT P6SM FEW005=
202412011720 TAF KBFI 011720Z 0118/0218 00000KT 1/4SM FG VV003 FM011900 VRB03KT
                       P6SM SCT006 SCT200 FM012000 32004KT P6SM
                       SCT200 FM020400 00000KT P6SM SCT200 FM020900
                       08003KT 1/2SM FG OVC001 FM021700 20003KT
                       P6SM FEW005=
202412011647 KBFI 011647Z 0117/0212 00000KT 1/4SM FG VV003 FM011900 VRB03KT
                       P6SM SCT006 SCT200 FM012000 32004KT P6SM
                       SCT200 FM020400 00000KT P6SM SCT200=
202412011618 KBFI 011618Z 0116/0212 00000KT 6SM BR SCT004
                      TEMPO 0116/0118 1/4SM FG VV003 FM011800 VRB03KT
                       P6SM SCT006 SCT200 FM012000 32004KT P6SM
                       SCT200 FM020400 00000KT P6SM SCT200=
202412011523 KBFI 011523Z 0115/0212 00000KT 6SM BR SCT004
                      TEMPO 0115/0118 1SM BR VV004 FM011800 VRB03KT
                       P6SM SCT006 SCT200 FM012000 32004KT P6SM
                       SCT200 FM020400 00000KT P6SM SCT200=
202412011333 KBFI 011333Z 0114/0212 00000KT 6SM BR SCT004
                      TEMPO 0114/0116 1 1/2SM BR BKN004 FM011800
                       VRB03KT P6SM SCT006 SCT200 FM012000 32004KT
                       P6SM SCT200 FM020400 00000KT P6SM SCT200=
202412011258 KBFI 011258Z 0113/0212 00000KT 3SM BR BKN004 FM011800 VRB03KT 6SM
                       BR SCT006 SCT200 FM012000 32004KT P6SM SCT200
                       FM020400 00000KT P6SM SCT200=
202412011131 TAF KBFI 011131Z 0112/0212 00000KT 6SM BR BKN005
                      TEMPO 0112/0116 3SM BR OVC004 FM011800 VRB03KT
                       6SM BR SCT006 SCT200 FM012000 32004KT P6SM
                       SCT200 FM020400 00000KT P6SM SCT200=
202412010913 KBFI 010913Z 0109/0206 00000KT P6SM SCT200 FM011200 00000KT 6SM
                       BR SCT005 SCT200
                      TEMPO 0113/0116 3SM BR BKN005 FM011700 34005KT
                       P6SM SCT200 FM012100 33002KT P6SM SCT100
                       FM020300 VRB03KT P6SM SCT250=
202412010520 TAF KBFI 010520Z 0106/0206 00000KT P6SM SCT080 SCT100 SCT200 FM011100
                       00000KT 6SM BR BKN008 OVC015 FM011700 34005KT
                       P6SM FEW010 SCT020 FM012100 33002KT P6SM
                       SCT100 FM020300 VRB03KT P6SM SCT250=