##########################################################
# Query made at 02/18/2025 17:36:31 UTC
# Time interval: from 09/01/2006 00:00  to 09/30/2006 23:59  UTC
##########################################################

##########################################################
# KPAE, Everett, Snohomish County Airport (United States)
# WMO index: -----. WIGOS ID: Unknown
# Latitude 47-55-23N. Longitude 122-16-57W. Altitude 184 m.
##########################################################

###################################
#  METAR/SPECI from KPAE
###################################
200609302353 METAR KPAE 302353Z AUTO 36003KT 10SM OVC049 14/07 A3000 RMK AO2 SLP188 T01390067 10139 20117 56004=
200609302300 METAR KPAE NIL=
200609302253 METAR KPAE 302253Z VRB03KT 10SM OVC047 14/07 A3001 RMK AO2 SLP191 T01390067=
200609302153 METAR KPAE 302153Z VRB04KT 10SM OVC043 14/08 A3000 RMK AO2 SLP189 T01390078=
200609302053 METAR KPAE 302053Z 00000KT 10SM FEW018 OVC033 13/09 A3001 RMK AO2 SLP192 T01280089 50001=
200609301953 METAR KPAE 301953Z VRB03KT 10SM OVC033 13/07 A3002 RMK AO2 SLP194 T01330072=
200609301853 METAR KPAE 301853Z 00000KT 10SM OVC033 12/08 A3002 RMK AO2 SLP194 T01220083=
200609301753 METAR KPAE 301753Z 30003KT 10SM OVC033 12/08 A3001 RMK AO2 SLP192 T01170078 10122 20100 53014=
200609301653 METAR KPAE 301653Z VRB03KT 10SM OVC035 12/08 A2999 RMK AO2 SLP185 T01170078=
200609301553 METAR KPAE 301553Z 36003KT 10SM OVC041 12/08 A2998 RMK AO2 SLP181 T01170083=
200609301453 METAR KPAE 301453Z 01004KT 10SM BKN032 11/08 A2997 RMK AO2 SLP177 T01060083 53007=
200609301353 METAR KPAE 301353Z AUTO 36004KT 10SM OVC048 11/08 A2996 RMK AO2 SLP172 T01060083=
200609301300 METAR KPAE NIL=
200609301253 METAR KPAE 301253Z AUTO 36005KT 10SM BKN046 11/09 A2995 RMK AO2 SLP170 T01060089=
200609301153 METAR KPAE 301153Z AUTO 01007KT 10SM BKN041 OVC050 11/08 A2995 RMK AO2 SLP168 70001 T01060083 10106 20100 58004=
200609301053 METAR KPAE 301053Z AUTO 01007KT 340V040 10SM BKN044 10/08 A2995 RMK AO2 SLP171 T01000083=
200609300953 METAR KPAE 300953Z AUTO 01006KT 10SM CLR 11/08 A2996 RMK AO2 SLP171 T01060078=
200609300853 METAR KPAE 300853Z AUTO 01006KT 10SM CLR 11/08 A2996 RMK AO2 SLP172 T01060078 57001=
200609300753 METAR KPAE 300753Z AUTO VRB05KT 10SM CLR 11/08 A2996 RMK AO2 SLP173 T01060083 402060100=
200609300653 METAR KPAE 300653Z AUTO 01008KT 10SM CLR 11/08 A2996 RMK AO2 SLP174 T01060083=
200609300601 SPECI KPAE 300601Z AUTO VRB06KT 9SM FEW002 10/09 A2996 RMK AO2=
200609300601 SPECI KPAE 300601Z AUTO VRB06KT 9SM FEW002 10/09 A2996 RMK AO2=
200609300553 METAR KPAE 300553Z AUTO 35007KT 9SM BKN002 10/09 A2996 RMK AO2 SLP175 T01000094 10206 20100 51001=
200609300534 SPECI KPAE 300534Z AUTO 35007KT 8SM BKN002 11/09 A2996 RMK AO2=
200609300534 SPECI KPAE 300534Z AUTO 35007KT 8SM BKN002 11/09 A2996 RMK AO2=
200609300523 SPECI KPAE 300523Z AUTO 35008KT 10SM SCT002 11/09 A2996 RMK AO2=
200609300523 SPECI KPAE 300523Z AUTO 35008KT 10SM SCT002 11/09 A2996 RMK AO2=
200609300453 METAR KPAE 300453Z AUTO 36006KT 10SM CLR 12/11 A2996 RMK AO2 SLP175 T01170106=
200609300353 METAR KPAE 300353Z AUTO VRB03KT 10SM CLR 12/11 A2996 RMK AO2 SLP175 T01220111=
200609300253 METAR KPAE 300253Z 35004KT 10SM CLR 14/11 A2996 RMK AO2 SLP173 T01440106 56005=
200609300153 METAR KPAE 300153Z VRB03KT 10SM CLR 17/11 A2996 RMK AO2 SLP173 T01670111=
200609300053 METAR KPAE 300053Z AUTO 00000KT 10SM CLR 20/12 A2997 RMK AO2 SLP175 T02000122 TSNO=
200609292353 METAR KPAE 292353Z AUTO VRB04KT 10SM CLR 21/12 A2997 RMK AO2 SLP177 T02060117 10206 20156 56015 TSNO=
200609292253 METAR KPAE 292253Z AUTO 29004KT 10SM CLR 20/12 A2999 RMK AO2 SLP181 T02000117 TSNO=
200609292153 METAR KPAE 292153Z 29005KT 10SM CLR 20/12 A3000 RMK AO2 SLP187 T02000122=
200609292053 METAR KPAE 292053Z VRB03KT 10SM CLR 21/11 A3002 RMK AO2 SLP192 T02060111 58016=
200609291953 METAR KPAE 291953Z VRB04KT 10SM CLR 19/12 A3004 RMK AO2 SLP201 T01940117=
200609291853 METAR KPAE 291853Z 34005KT 10SM CLR 17/12 A3006 RMK AO2 SLP207 T01720117=
200609291753 METAR KPAE 291753Z VRB04KT 10SM CLR 16/12 A3006 RMK AO2 SLP209 60001 T01560122 10156 20111 58002=
200609291718 SPECI KPAE 291718Z VRB05KT 10SM SCT002 14/12 A3007 RMK AO2=
200609291718 SPECI KPAE 291718Z VRB05KT 10SM SCT002 14/12 A3007 RMK AO2=
200609291710 SPECI KPAE 291710Z 33004KT 10SM CLR 13/12 A3007 RMK AO2=
200609291710 SPECI KPAE 291710Z 33004KT 10SM CLR 13/12 A3007 RMK AO2=
200609291702 SPECI KPAE 291702Z 32004KT 6SM BR BKN001 13/12 A3007 RMK AO2=
200609291702 SPECI KPAE 291702Z 32004KT 6SM BR BKN001 13/12 A3007 RMK AO2=
200609291655 SPECI KPAE 291655Z VRB04KT 2 1/2SM BR OVC001 13/12 A3007 RMK AO2=
200609291655 SPECI KPAE 291655Z VRB04KT 2 1/2SM BR OVC001 13/12 A3007 RMK AO2=
200609291653 METAR KPAE 291653Z VRB03KT 3/4SM BR OVC001 13/12 A3007 RMK AO2 SLP212 T01280122=
200609291553 METAR KPAE 291553Z 00000KT M1/4SM FG VV001 12/12 A3007 RMK AO2 SLP212 P0001 T01220117=
200609291453 METAR KPAE 291453Z VRB04KT M1/4SM FG VV001 12/11 A3007 RMK AO2 SLP212 T01170111 55003=
200609291353 METAR KPAE 291353Z VRB03KT M1/4SM FG VV001 12/12 A3007 RMK AO2 SLP210 T01170117=
200609291308 SPECI KPAE 291308Z AUTO 36005KT 1/4SM FG VV001 12/12 A3007 RMK AO2=
200609291308 SPECI KPAE 291308Z AUTO 36005KT 1/4SM FG VV001 12/12 A3007 RMK AO2=
200609291304 SPECI KPAE 291304Z AUTO 36005KT 1SM BR VV001 12/12 A3007 RMK AO2=
200609291304 SPECI KPAE 291304Z AUTO 36005KT 1SM BR VV001 12/12 A3007 RMK AO2=
200609291258 SPECI KPAE 291258Z AUTO 36004KT 2 1/2SM BR FEW001 12/12 A3007 RMK AO2=
200609291258 SPECI KPAE 291258Z AUTO 36004KT 2 1/2SM BR FEW001 12/12 A3007 RMK AO2=
200609291253 METAR KPAE 291253Z AUTO 01004KT 4SM BR CLR 12/11 A3007 RMK AO2 SLP212 T01220111=
200609291153 METAR KPAE 291153Z AUTO 01003KT 7SM CLR 12/11 A3008 RMK AO2 SLP214 T01220111 10139 20111 58007=
200609291053 METAR KPAE 291053Z AUTO 35003KT 7SM CLR 11/11 A3009 RMK AO2 SLP217 T01110106=
200609290953 METAR KPAE 290953Z AUTO 00000KT 4SM BR CLR 12/11 A3010 RMK AO2 SLP219 T01220111=
200609290853 METAR KPAE 290853Z AUTO 35003KT 10SM CLR 12/11 A3010 RMK AO2 SLP221 T01220111 58002=
200609290753 METAR KPAE 290753Z AUTO 00000KT 10SM CLR 13/11 A3010 RMK AO2 SLP220 T01330111 402330117=
200609290653 METAR KPAE 290653Z AUTO 00000KT 10SM CLR 13/12 A3011 RMK AO2 SLP222 T01330117=
200609290553 METAR KPAE 290553Z AUTO 00000KT 10SM CLR 14/12 A3011 RMK AO2 SLP223 T01390117 10228 20139 52002=
200609290453 METAR KPAE 290453Z 00000KT 10SM CLR 15/12 A3011 RMK AO2 SLP223 T01500122=
200609290353 METAR KPAE 290353Z 00000KT 10SM CLR 17/12 A3010 RMK AO2 SLP221 T01670122=
200609290253 METAR KPAE 290253Z 00000KT 10SM CLR 18/12 A3010 RMK AO2 SLP221 T01780122 55002=
200609290153 METAR KPAE 290153Z VRB03KT 10SM CLR 19/13 A3010 RMK AO2 SLP221 T01940128=
200609290053 METAR KPAE 290053Z VRB04KT 10SM CLR 22/13 A3010 RMK AO2 SLP220 T02170128=
200609282353 METAR KPAE 282353Z AUTO 32006KT 10SM CLR 22/13 A3011 RMK AO2 SLP222 T02220128 10233 20189 56013 TSNO=
200609282253 METAR KPAE 282253Z AUTO 35007KT 10SM CLR 23/12 A3011 RMK AO2 SLP224 T02280122 TSNO=
200609282153 METAR KPAE 282153Z VRB06KT 10SM CLR 22/13 A3013 RMK AO2 SLP229 T02220128=
200609282053 METAR KPAE 282053Z 31007KT 10SM CLR 21/12 A3014 RMK AO2 SLP235 T02110122 56011=
200609281953 METAR KPAE 281953Z VRB04KT 10SM CLR 22/13 A3015 RMK AO2 SLP237 T02170128=
200609281853 METAR KPAE 281853Z VRB05KT 10SM CLR 20/12 A3016 RMK AO2 SLP241 T02000122=
200609281753 METAR KPAE 281753Z VRB05KT 10SM CLR 19/12 A3018 RMK AO2 SLP247 T01890122 10189 20117 50007=
200609281653 METAR KPAE 281653Z 36004KT 10SM CLR 17/12 A3018 RMK AO2 SLP247 T01670122=
200609281553 METAR KPAE 281553Z VRB05KT 8SM CLR 16/13 A3017 RMK AO2 SLP243 T01560128=
200609281453 METAR KPAE 281453Z 00000KT 7SM CLR 14/12 A3016 RMK AO2 SLP239 T01390117 53005=
200609281353 METAR KPAE 281353Z 00000KT 7SM CLR 12/11 A3015 RMK AO2 SLP236 T01220111=
200609281253 METAR KPAE 281253Z AUTO 33003KT 9SM CLR 12/11 A3014 RMK AO2 SLP233 T01220111=
200609281153 METAR KPAE 281153Z AUTO 00000KT 10SM CLR 14/11 A3014 RMK AO2 SLP233 T01390111 10167 20133 56004=
200609281053 METAR KPAE 281053Z AUTO 00000KT 10SM CLR 14/11 A3014 RMK AO2 SLP233 T01440106=
200609280953 METAR KPAE 280953Z AUTO 00000KT 10SM CLR 16/11 A3014 RMK AO2 SLP232 T01610111=
200609280853 METAR KPAE 280853Z AUTO VRB03KT 10SM CLR 16/11 A3015 RMK AO2 SLP237 T01560111 51008=
200609280753 METAR KPAE 280753Z AUTO 01006KT 10SM CLR 17/11 A3015 RMK AO2 SLP237 T01670111 402440128=
200609280653 METAR KPAE 280653Z AUTO VRB03KT 10SM CLR 16/11 A3014 RMK AO2 SLP235 T01610111=
200609280553 METAR KPAE 280553Z AUTO 34004KT 10SM CLR 16/12 A3013 RMK AO2 SLP229 T01560117 10239 20156 53009=
200609280453 METAR KPAE 280453Z AUTO 34003KT 10SM CLR 18/12 A3012 RMK AO2 SLP225 T01780117=
200609280353 METAR KPAE 280353Z 00000KT 10SM CLR 19/12 A3011 RMK AO2 SLP222 T01940117=
200609280253 METAR KPAE 280253Z 35003KT 10SM CLR 20/12 A3010 RMK AO2 SLP220 T02000122 56006=
200609280153 METAR KPAE 280153Z AUTO 00000KT 10SM CLR 21/12 A3010 RMK AO2 SLP221 T02060122 TSNO=
200609280053 METAR KPAE 280053Z AUTO VRB03KT 10SM CLR 23/12 A3011 RMK AO2 SLP223 T02280117 TSNO=
200609272353 METAR KPAE 272353Z AUTO VRB03KT 10SM CLR 24/12 A3012 RMK AO2 SLP225 T02390122 10244 20200 56014 TSNO=
200609272253 METAR KPAE 272253Z 31004KT 10SM CLR 24/13 A3013 RMK AO2 SLP230 T02390128=
200609272153 METAR KPAE 272153Z 26005KT 10SM CLR 23/12 A3014 RMK AO2 SLP235 T02330122=
200609272053 METAR KPAE 272053Z VRB03KT 10SM CLR 22/12 A3016 RMK AO2 SLP240 T02220122 56004=
200609271953 METAR KPAE 271953Z 32005KT 10SM CLR 22/13 A3016 RMK AO2 SLP241 T02170128=
200609271853 METAR KPAE 271853Z VRB03KT 10SM CLR 21/13 A3017 RMK AO2 SLP243 T02060128=
200609271753 METAR KPAE 271753Z 01004KT 10SM CLR 20/12 A3017 RMK AO2 SLP244 T02000117 10200 20128 51008=
200609271653 METAR KPAE 271653Z 00000KT 10SM CLR 18/12 A3017 RMK AO2 SLP243 T01830122=
200609271553 METAR KPAE 271553Z 00000KT 10SM CLR 17/12 A3016 RMK AO2 SLP241 T01670122=
200609271453 METAR KPAE 271453Z 00000KT 9SM CLR 14/12 A3015 RMK AO2 SLP237 T01390117 53006=
200609271353 METAR KPAE 271353Z 00000KT 9SM CLR 13/11 A3014 RMK AO2 SLP233 T01330111=
200609271253 METAR KPAE 271253Z 00000KT 10SM CLR 13/11 A3013 RMK AO2 SLP231 T01330111=
200609271153 METAR KPAE 271153Z 00000KT 10SM CLR 14/12 A3013 RMK AO2 SLP230 T01390117 10156 20139 53001=
200609271053 METAR KPAE 271053Z 00000KT 10SM CLR 15/12 A3013 RMK AO2 SLP230 T01500117=
200609270953 METAR KPAE 270953Z 00000KT 10SM CLR 15/11 A3013 RMK AO2 SLP229 T01500106=
200609270853 METAR KPAE 270853Z 03006KT 10SM CLR 16/11 A3013 RMK AO2 SLP229 T01560111 51005=
200609270753 METAR KPAE 270753Z 36003KT 10SM CLR 14/11 A3012 RMK AO2 SLP229 T01440111 402170117=
200609270653 METAR KPAE 270653Z 00000KT 10SM CLR 14/12 A3012 RMK AO2 SLP228 T01440117=
200609270553 METAR KPAE 270553Z VRB03KT 10SM CLR 16/12 A3011 RMK AO2 SLP225 T01560117 10217 20156 53003=
200609270453 METAR KPAE 270453Z 01006KT 10SM CLR 17/12 A3011 RMK AO2 SLP223 T01670122=
200609270353 METAR KPAE 270353Z AUTO 35004KT 10SM CLR 17/12 A3010 RMK AO2 SLP221 T01670122 TSNO=
200609270253 METAR KPAE 270253Z AUTO 34004KT 10SM CLR 17/12 A3010 RMK AO2 SLP222 T01720117 58001 TSNO=
200609270153 METAR KPAE 270153Z AUTO 33004KT 10SM CLR 18/12 A3011 RMK AO2 SLP223 T01830122 TSNO=
200609270053 METAR KPAE 270053Z AUTO VRB04KT 10SM CLR 21/12 A3011 RMK AO2 SLP223 T02060117 TSNO=
200609262353 METAR KPAE 262353Z AUTO 34005KT 10SM CLR 22/12 A3011 RMK AO2 SLP223 T02170117 10217 20178 56009 TSNO=
200609262253 METAR KPAE 262253Z AUTO VRB04KT 10SM CLR 21/12 A3011 RMK AO2 SLP225 T02110122 TSNO=
200609262153 METAR KPAE 262153Z 32006KT 10SM CLR 22/12 A3013 RMK AO2 SLP229 T02170122=
200609262053 METAR KPAE 262053Z VRB05KT 10SM CLR 21/12 A3014 RMK AO2 SLP233 T02060117 58005=
200609261953 METAR KPAE 261953Z VRB06KT 10SM CLR 20/11 A3015 RMK AO2 SLP237 T02000111=
200609261853 METAR KPAE 261853Z 36006KT 10SM CLR 19/11 A3015 RMK AO2 SLP239 T01890111=
200609261753 METAR KPAE 261753Z VRB05KT 10SM CLR 18/11 A3015 RMK AO2 SLP238 T01830111 10183 20117 51006=
200609261653 METAR KPAE 261653Z VRB03KT 10SM CLR 17/11 A3015 RMK AO2 SLP237 T01720106=
200609261553 METAR KPAE 261553Z 35004KT 10SM CLR 15/11 A3014 RMK AO2 SLP235 T01500111=
200609261453 METAR KPAE 261453Z 00000KT 10SM CLR 13/11 A3014 RMK AO2 SLP233 T01330111 53004=
200609261353 METAR KPAE 261353Z 00000KT 5SM BR CLR 12/11 A3013 RMK AO2 SLP231 T01220111=
200609261253 METAR KPAE 261253Z 00000KT 7SM CLR 12/11 A3012 RMK AO2 SLP228 T01220111=
200609261153 METAR KPAE 261153Z 00000KT 6SM BR CLR 12/11 A3012 RMK AO2 SLP229 T01220111 10156 20117 53002=
200609261053 METAR KPAE 261053Z 00000KT 6SM BR CLR 12/11 A3012 RMK AO2 SLP226 T01220111=
200609260953 METAR KPAE 260953Z 00000KT 9SM CLR 13/12 A3012 RMK AO2 SLP226 T01280117=
200609260853 METAR KPAE 260853Z 00000KT 9SM CLR 13/11 A3012 RMK AO2 SLP227 T01280111 50003=
200609260753 METAR KPAE 260753Z 35003KT 10SM CLR 13/11 A3012 RMK AO2 SLP226 T01330111 402280111=
200609260653 METAR KPAE 260653Z 00000KT 10SM CLR 14/12 A3012 RMK AO2 SLP227 T01440117=
200609260553 METAR KPAE 260553Z 36003KT 10SM CLR 16/12 A3011 RMK AO2 SLP224 T01560117 10222 20150 51008=
200609260453 METAR KPAE 260453Z 36003KT 10SM CLR 16/12 A3010 RMK AO2 SLP222 T01610117=
200609260353 METAR KPAE 260353Z 00000KT 10SM CLR 18/12 A3010 RMK AO2 SLP219 T01780117=
200609260253 METAR KPAE 260253Z 00000KT 10SM CLR 17/12 A3008 RMK AO2 SLP216 T01720117 55002=
200609260153 METAR KPAE 260153Z 34004KT 10SM CLR 19/12 A3008 RMK AO2 SLP214 T01940122=
200609260053 METAR KPAE 260053Z 33005KT 10SM CLR 21/12 A3008 RMK AO2 SLP215 T02110122=
200609252353 METAR KPAE 252353Z 35006KT 10SM CLR 22/12 A3009 RMK AO2 SLP217 T02170117 10228 20178 56005=
200609252253 METAR KPAE 252253Z 35006KT 10SM CLR 23/11 A3010 RMK AO2 SLP218 T02280111=
200609252153 METAR KPAE 252153Z 36004KT 10SM CLR 23/11 A3010 RMK AO2 SLP218 T02280111=
200609252053 METAR KPAE 252053Z 29007KT 10SM CLR 22/12 A3011 RMK AO2 SLP221 T02170117 58012=
200609251953 METAR KPAE 251953Z 31004KT 10SM CLR 22/10 A3012 RMK AO2 SLP225 T02170100=
200609251853 METAR KPAE 251853Z 00000KT 10SM CLR 20/11 A3013 RMK AO2 SLP231 T02000106=
200609251753 METAR KPAE 251753Z 34004KT 10SM CLR 18/12 A3014 RMK AO2 SLP234 T01830122 10183 20111 53005=
200609251653 METAR KPAE 251653Z 35004KT 10SM CLR 17/12 A3014 RMK AO2 SLP233 T01670117=
200609251553 METAR KPAE 251553Z 00000KT 10SM CLR 15/12 A3013 RMK AO2 SLP230 T01500117=
200609251453 METAR KPAE 251453Z 36003KT 3SM BR CLR 12/11 A3013 RMK AO2 SLP230 T01220111 53005=
200609251353 METAR KPAE 251353Z VRB03KT 5SM BR CLR 12/11 A3011 RMK AO2 SLP226 T01170106=
200609251253 METAR KPAE 251253Z AUTO 00000KT 6SM BR CLR 12/11 A3011 RMK AO2 SLP225 T01170106=
200609251153 METAR KPAE 251153Z AUTO 01003KT 8SM CLR 12/11 A3011 RMK AO2 SLP224 T01220106 10144 20122 55002=
200609251053 METAR KPAE 251053Z AUTO 00000KT 10SM CLR 13/11 A3011 RMK AO2 SLP223 T01280106=
200609250953 METAR KPAE 250953Z AUTO 00000KT 10SM CLR 13/11 A3012 RMK AO2 SLP226 T01330106=
200609250853 METAR KPAE 250853Z AUTO 00000KT 10SM CLR 14/11 A3012 RMK AO2 SLP226 T01390106 53002=
200609250753 METAR KPAE 250753Z AUTO 01004KT 10SM CLR 13/11 A3011 RMK AO2 SLP225 T01330106 402220100=
200609250653 METAR KPAE 250653Z AUTO 36003KT 10SM CLR 14/11 A3011 RMK AO2 SLP224 T01390106=
200609250553 METAR KPAE 250553Z AUTO 34004KT 10SM CLR 14/11 A3011 RMK AO2 SLP224 T01390111 10211 20139 53004=
200609250453 METAR KPAE 250453Z AUTO 35003KT 10SM CLR 16/12 A3011 RMK AO2 SLP222 T01560117=
200609250353 METAR KPAE 250353Z AUTO 35003KT 10SM CLR 16/12 A3010 RMK AO2 SLP221 T01610117=
200609250253 METAR KPAE 250253Z 34003KT 10SM CLR 17/12 A3010 RMK AO2 SLP221 T01670117 55003=
200609250153 METAR KPAE 250153Z 35004KT 10SM CLR 18/12 A3009 RMK AO2 SLP219 T01830117=
200609250053 METAR KPAE 250053Z 34007KT 10SM CLR 20/12 A3010 RMK AO2 SLP221 T02000117=
200609242353 METAR KPAE 242353Z 35006KT 10SM CLR 21/12 A3011 RMK AO2 SLP223 T02110117 10222 20167 56015=
200609242253 METAR KPAE 242253Z VRB04KT 10SM CLR 22/11 A3012 RMK AO2 SLP228 T02170111=
200609242153 METAR KPAE 242153Z 35006KT 10SM CLR 21/11 A3014 RMK AO2 SLP232 T02060111=
200609242053 METAR KPAE 242053Z 34005KT 10SM CLR 21/12 A3015 RMK AO2 SLP239 T02060117 58014=
200609241953 METAR KPAE 241953Z VRB04KT 10SM CLR 19/12 A3017 RMK AO2 SLP246 T01940117=
200609241853 METAR KPAE 241853Z VRB04KT 10SM CLR 18/11 A3019 RMK AO2 SLP251 T01830111=
200609241753 METAR KPAE 241753Z 34005KT 10SM CLR 17/11 A3020 RMK AO2 SLP254 T01670111 10167 20100 58001=
200609241653 METAR KPAE 241653Z 36005KT 10SM CLR 15/11 A3020 RMK AO2 SLP256 T01500106=
200609241553 METAR KPAE 241553Z VRB03KT 10SM CLR 13/11 A3020 RMK AO2 SLP256 T01330111=
200609241453 METAR KPAE 241453Z 00000KT 10SM CLR 12/11 A3020 RMK AO2 SLP256 T01170106 53003=
200609241353 METAR KPAE 241353Z 01003KT 7SM CLR 10/09 A3019 RMK AO2 SLP254 T01000094=
200609241253 METAR KPAE 241253Z 01003KT 7SM CLR 11/09 A3019 RMK AO2 SLP253 T01060094=
200609241153 METAR KPAE 241153Z VRB03KT 8SM CLR 11/09 A3019 RMK AO2 SLP253 T01060094 10133 20106 58004=
200609241053 METAR KPAE 241053Z 05003KT 10SM CLR 12/09 A3020 RMK AO2 SLP253 T01170094=
200609240953 METAR KPAE 240953Z 00000KT 10SM CLR 11/09 A3020 RMK AO2 SLP257 T01110094=
200609240853 METAR KPAE 240853Z 01004KT 10SM CLR 12/09 A3021 RMK AO2 SLP257 T01170094 50002=
200609240753 METAR KPAE 240753Z 35003KT 10SM CLR 12/09 A3021 RMK AO2 SLP258 T01170094 401890089=
200609240653 METAR KPAE 240653Z 33003KT 10SM CLR 13/08 A3020 RMK AO2 SLP257 T01280083=
200609240553 METAR KPAE 240553Z 34003KT 10SM CLR 13/09 A3020 RMK AO2 SLP255 T01330089 10183 20117 50001=
200609240453 METAR KPAE 240453Z 33003KT 10SM CLR 13/09 A3020 RMK AO2 SLP256 T01330094=
200609240353 METAR KPAE 240353Z 34003KT 10SM CLR 14/09 A3020 RMK AO2 SLP257 T01390094=
200609240253 METAR KPAE 240253Z VRB03KT 10SM CLR 14/10 A3020 RMK AO2 SLP256 T01440100 55006=
200609240153 METAR KPAE 240153Z 33005KT 10SM CLR 15/10 A3019 RMK AO2 SLP255 T01500100=
200609240053 METAR KPAE 240053Z 32005KT 10SM CLR 17/10 A3020 RMK AO2 SLP256 T01720100=
200609232353 METAR KPAE 232353Z VRB05KT 10SM CLR 18/09 A3021 RMK AO2 SLP261 T01830089 10189 20144 56020=
200609232253 METAR KPAE 232253Z 34005KT 10SM CLR 19/10 A3024 RMK AO2 SLP268 T01890100=
200609232153 METAR KPAE 232153Z VRB06KT 10SM CLR 18/09 A3025 RMK AO2 SLP273 T01830094=
200609232053 METAR KPAE 232053Z VRB04KT 10SM CLR 17/09 A3028 RMK AO2 SLP281 T01720089 58012=
200609231953 METAR KPAE 231953Z VRB04KT 10SM CLR 17/09 A3029 RMK AO2 SLP287 T01670089=
200609231853 METAR KPAE 231853Z 35006KT 10SM CLR 15/09 A3030 RMK AO2 SLP289 T01500094=
200609231753 METAR KPAE 231753Z 02004KT 10SM CLR 14/08 A3031 RMK AO2 SLP294 T01440078 10144 20089 58002=
200609231653 METAR KPAE 231653Z 36004KT 10SM CLR 14/09 A3031 RMK AO2 SLP295 T01390094=
200609231553 METAR KPAE 231553Z 02005KT 10SM CLR 12/09 A3032 RMK AO2 SLP297 T01170094=
200609231453 METAR KPAE 231453Z 00000KT 10SM CLR 09/08 A3032 RMK AO2 SLP297 T00940083 51005=
200609231353 METAR KPAE 231353Z 00000KT 9SM CLR 09/08 A3031 RMK AO2 SLP295 T00940078=
200609231253 METAR KPAE 231253Z AUTO 00000KT 8SM CLR 09/08 A3031 RMK AO2 SLP294 T00940083=
200609231153 METAR KPAE 231153Z AUTO 00000KT 10SM CLR 10/08 A3030 RMK AO2 SLP292 T01000083 10128 20094 52001=
200609231053 METAR KPAE 231053Z AUTO 00000KT 10SM CLR 10/08 A3030 RMK AO2 SLP291 T01000083=
200609230953 METAR KPAE 230953Z AUTO 00000KT 10SM CLR 10/09 A3030 RMK AO2 SLP292 T01000089=
200609230853 METAR KPAE 230853Z AUTO 00000KT 10SM CLR 11/09 A3030 RMK AO2 SLP291 T01060089 51003=
200609230753 METAR KPAE 230753Z AUTO 10004KT 10SM CLR 11/09 A3030 RMK AO2 SLP290 T01110089 401610072=
200609230653 METAR KPAE 230653Z AUTO 11003KT 10SM CLR 12/09 A3030 RMK AO2 SLP290 T01220089=
200609230553 METAR KPAE 230553Z AUTO 00000KT 10SM CLR 12/08 A3029 RMK AO2 SLP288 T01170083 10156 20111 51005=
200609230453 METAR KPAE 230453Z AUTO 00000KT 10SM CLR 12/08 A3029 RMK AO2 SLP289 T01170078=
200609230353 METAR KPAE 230353Z AUTO 00000KT 10SM CLR 12/08 A3028 RMK AO2 SLP286 T01220083=
200609230253 METAR KPAE 230253Z AUTO 00000KT 10SM CLR 13/09 A3028 RMK AO2 SLP284 T01280089 58002=
200609230153 METAR KPAE 230153Z 00000KT 10SM CLR 15/08 A3028 RMK AO2 SLP284 T01500083=
200609230053 METAR KPAE 230053Z VRB03KT 10SM CLR 16/08 A3029 RMK AO2 SLP286 T01560083=
200609222353 METAR KPAE 222353Z 31005KT 10SM CLR 15/08 A3028 RMK AO2 SLP285 T01500078 10161 20122 56013=
200609222253 METAR KPAE 222253Z AUTO VRB05KT 10SM CLR 16/08 A3029 RMK AO2 SLP288 T01560078 TSNO=
200609222153 METAR KPAE 222153Z VRB06KT 10SM FEW020 16/08 A3031 RMK AO2 SLP293 T01560078=
200609222053 METAR KPAE 222053Z 31007KT 10SM CLR 14/08 A3032 RMK AO2 SLP298 T01440078 51006=
200609221953 METAR KPAE 221953Z VRB04KT 10SM FEW018 13/07 A3031 RMK AO2 SLP296 T01280072=
200609221853 METAR KPAE 221853Z VRB04KT 10SM OVC016 13/08 A3031 RMK AO2 SLP296 T01280078=
200609221753 METAR KPAE 221753Z 35005KT 10SM OVC018 12/08 A3030 RMK AO2 SLP293 T01170083 10117 20072 51011=
200609221730 SPECI KPAE 221730Z 36003KT 10SM SCT005 OVC020 11/09 A3030 RMK AO2=
200609221730 SPECI KPAE 221730Z 36003KT 10SM SCT005 OVC020 11/09 A3030 RMK AO2=
200609221653 METAR KPAE 221653Z VRB03KT 9SM OVC005 11/08 A3030 RMK AO2 SLP292 T01060083=
200609221553 METAR KPAE 221553Z 01005KT 3SM BR OVC005 09/08 A3029 RMK AO2 SLP287 T00890083=
200609221503 SPECI KPAE 221503Z 00000KT 3SM BR BKN005 OVC027 08/08 A3028 RMK AO2=
200609221503 SPECI KPAE 221503Z 00000KT 3SM BR BKN005 OVC027 08/08 A3028 RMK AO2=
200609221456 SPECI KPAE 221456Z 00000KT 1/4SM FG BKN005 OVC025 08/08 A3027 RMK AO2=
200609221456 SPECI KPAE 221456Z 00000KT 1/4SM FG BKN005 OVC025 08/08 A3027 RMK AO2=
200609221453 METAR KPAE 221453Z 35004KT 1 3/4SM BR BKN005 OVC025 08/08 A3027 RMK AO2 SLP282 T00830083 53016=
200609221353 METAR KPAE 221353Z 00000KT 4SM BR BKN007 08/07 A3025 RMK AO2 SLP275 T00780067=
200609221346 SPECI KPAE 221346Z AUTO 33003KT 4SM BR FEW001 BKN007 08/07 A3025 RMK AO2=
200609221346 SPECI KPAE 221346Z AUTO 33003KT 4SM BR FEW001 BKN007 08/07 A3025 RMK AO2=
200609221338 SPECI KPAE 221338Z AUTO 00000KT 2SM BR SCT001 BKN007 08/07 A3024 RMK AO2=
200609221338 SPECI KPAE 221338Z AUTO 00000KT 2SM BR SCT001 BKN007 08/07 A3024 RMK AO2=
200609221333 SPECI KPAE 221333Z AUTO 00000KT 3/4SM BR BKN001 BKN009 08/07 A3024 RMK AO2=
200609221333 SPECI KPAE 221333Z AUTO 00000KT 3/4SM BR BKN001 BKN009 08/07 A3024 RMK AO2=
200609221253 METAR KPAE 221253Z AUTO 00000KT M1/4SM FG VV001 09/08 A3023 RMK AO2 SLP268 T00890083=
200609221157 SPECI KPAE 221157Z AUTO 00000KT 1/4SM FG OVC001 08/08 A3023 RMK AO2=
200609221157 SPECI KPAE 221157Z AUTO 00000KT 1/4SM FG OVC001 08/08 A3023 RMK AO2=
200609221153 METAR KPAE 221153Z AUTO 00000KT 1 1/2SM BR OVC001 08/07 A3023 RMK AO2 SLP266 70003 T00780072 10106 20072 51012=
200609221142 SPECI KPAE 221142Z AUTO 00000KT 2SM BR OVC001 09/08 A3022 RMK AO2=
200609221142 SPECI KPAE 221142Z AUTO 00000KT 2SM BR OVC001 09/08 A3022 RMK AO2=
200609221118 SPECI KPAE 221118Z AUTO 00000KT 8SM BKN001 BKN026 08/07 A3022 RMK AO2=
200609221118 SPECI KPAE 221118Z AUTO 00000KT 8SM BKN001 BKN026 08/07 A3022 RMK AO2=
200609221109 SPECI KPAE 221109Z AUTO 00000KT 4SM BR SCT001 SCT026 08/07 A3022 RMK AO2=
200609221109 SPECI KPAE 221109Z AUTO 00000KT 4SM BR SCT001 SCT026 08/07 A3022 RMK AO2=
200609221107 SPECI KPAE 221107Z AUTO 00000KT 2SM BR SCT001 BKN026 08/07 A3022 RMK AO2=
200609221107 SPECI KPAE 221107Z AUTO 00000KT 2SM BR SCT001 BKN026 08/07 A3022 RMK AO2=
200609221102 SPECI KPAE 221102Z AUTO 00000KT 1/2SM FG BKN001 BKN026 08/07 A3022 RMK AO2=
200609221102 SPECI KPAE 221102Z AUTO 00000KT 1/2SM FG BKN001 BKN026 08/07 A3022 RMK AO2=
200609221053 METAR KPAE 221053Z AUTO 00000KT 1/4SM FG BKN001 BKN026 08/08 A3022 RMK AO2 SLP262 T00830078=
200609221042 SPECI KPAE 221042Z AUTO 00000KT 1/4SM FG BKN001 BKN011 08/07 A3021 RMK AO2=
200609221042 SPECI KPAE 221042Z AUTO 00000KT 1/4SM FG BKN001 BKN011 08/07 A3021 RMK AO2=
200609221039 SPECI KPAE 221039Z AUTO 00000KT 1/4SM FG SCT001 BKN026 08/07 A3021 RMK AO2=
200609221039 SPECI KPAE 221039Z AUTO 00000KT 1/4SM FG SCT001 BKN026 08/07 A3021 RMK AO2=
200609221035 SPECI KPAE 221035Z AUTO 00000KT 3/4SM BR SCT001 SCT026 08/07 A3021 RMK AO2=
200609221035 SPECI KPAE 221035Z AUTO 00000KT 3/4SM BR SCT001 SCT026 08/07 A3021 RMK AO2=
200609221032 SPECI KPAE 221032Z AUTO 00000KT 2SM BR FEW001 08/07 A3021 RMK AO2=
200609221032 SPECI KPAE 221032Z AUTO 00000KT 2SM BR FEW001 08/07 A3021 RMK AO2=
200609220953 METAR KPAE 220953Z AUTO 31003KT 10SM CLR 09/08 A3021 RMK AO2 SLP259 T00940078=
200609220853 METAR KPAE 220853Z AUTO 00000KT 10SM CLR 09/07 A3019 RMK AO2 SLP254 T00940072 51016=
200609220753 METAR KPAE 220753Z AUTO 00000KT 10SM CLR 09/07 A3018 RMK AO2 SLP250 T00890072 401560089=
200609220653 METAR KPAE 220653Z AUTO 00000KT 10SM CLR 09/07 A3016 RMK AO2 SLP244 T00940067=
200609220553 METAR KPAE 220553Z AUTO 00000KT 10SM CLR 10/07 A3014 RMK AO2 SLP237 T01000072 10150 20094 53015=
200609220453 METAR KPAE 220453Z 00000KT 10SM CLR 10/07 A3012 RMK AO2 SLP231 T01000067=
200609220353 METAR KPAE 220353Z 00000KT 10SM CLR 11/07 A3010 RMK AO2 SLP224 T01060067=
200609220253 METAR KPAE 220253Z 00000KT 10SM CLR 11/07 A3009 RMK AO2 SLP221 T01060072 53019=
200609220153 METAR KPAE 220153Z AUTO 00000KT 10SM CLR 12/07 A3007 RMK AO2 SLP212 T01220072 TSNO=
200609220053 METAR KPAE 220053Z AUTO 35003KT 10SM FEW023 13/07 A3005 RMK AO2 SLP205 T01330072 TSNO=
200609212353 METAR KPAE 212353Z AUTO 00000KT 10SM FEW025 14/08 A3004 RMK AO2 SLP201 60001 T01440078 10156 20117 53007 TSNO=
200609212318 SPECI KPAE 212318Z AUTO 31004KT 10SM FEW020 BKN085 13/08 A3002 RMK AO2 TSNO=
200609212318 SPECI KPAE 212318Z AUTO 31004KT 10SM FEW020 BKN085 13/08 A3002 RMK AO2 TSNO=
200609212253 METAR KPAE 212253Z AUTO VRB06KT 10SM BKN022 BKN080 14/08 A3002 RMK AO2 SLP196 T01440083 TSNO=
200609212217 SPECI KPAE 212217Z VRB03KT 10SM SCT021 BKN070 15/09 A3001 RMK AO2=
200609212217 SPECI KPAE 212217Z VRB03KT 10SM SCT021 BKN070 15/09 A3001 RMK AO2=
200609212201 SPECI KPAE 212201Z VRB04KT 10SM BKN021 BKN060 OVC070 14/08 A3001 RMK AO2=
200609212201 SPECI KPAE 212201Z VRB04KT 10SM BKN021 BKN060 OVC070 14/08 A3001 RMK AO2=
200609212153 METAR KPAE 212153Z 00000KT 10SM SCT023 BKN060 BKN075 14/08 A3002 RMK AO2 SLP194 T01390083=
200609212053 METAR KPAE 212053Z 25003KT 10SM BKN034 BKN044 OVC065 12/09 A3002 RMK AO2 SLP194 60001 T01220089 51003=
200609211953 METAR KPAE 211953Z 00000KT 10SM FEW021 BKN046 OVC060 13/08 A3001 RMK AO2 SLP192 T01280083=
200609211918 SPECI KPAE 211918Z 00000KT 10SM FEW019 BKN039 OVC055 13/08 A3001 RMK AO2=
200609211918 SPECI KPAE 211918Z 00000KT 10SM FEW019 BKN039 OVC055 13/08 A3001 RMK AO2=
200609211903 SPECI KPAE 211903Z VRB03KT 10SM FEW015 BKN023 OVC033 12/08 A3001 RMK AO2=
200609211903 SPECI KPAE 211903Z VRB03KT 10SM FEW015 BKN023 OVC033 12/08 A3001 RMK AO2=
200609211853 METAR KPAE 211853Z 27003KT 10SM SCT023 BKN035 OVC055 12/09 A3001 RMK AO2 RAB02E26 SLP192 P0001 T01220089=
200609211827 SPECI KPAE 211827Z 18003KT 10SM SCT011 BKN040 OVC055 12/09 A3001 RMK AO2 RAB02E26 P0001=
200609211827 SPECI KPAE 211827Z 18003KT 10SM SCT011 BKN040 OVC055 12/09 A3001 RMK AO2 RAB02E26 P0001=
200609211807 SPECI KPAE 211807Z VRB03KT 10SM -RA BKN013 OVC048 12/09 A3001 RMK AO2 RAB02 P0000=
200609211807 SPECI KPAE 211807Z VRB03KT 10SM -RA BKN013 OVC048 12/09 A3001 RMK AO2 RAB02 P0000=
200609211753 METAR KPAE 211753Z 25004KT 10SM FEW013 BKN048 OVC060 12/09 A3001 RMK AO2 SLP190 60002 T01170089 10117 20100 53014=
200609211653 METAR KPAE 211653Z 34003KT 10SM SCT047 OVC070 12/08 A2999 RMK AO2 SLP186 T01170083=
200609211553 METAR KPAE 211553Z 32006KT 10SM BKN049 OVC070 11/09 A2997 RMK AO2 RAE28 SLP181 P0000 T01060089=
200609211453 METAR KPAE 211453Z 34004KT 8SM -RA OVC039 11/09 A2996 RMK AO2 RAE32B49 SLP177 P0001 60002 T01060089 53010=
200609211405 SPECI KPAE 211405Z 31005KT 2SM -RA BR BKN002 OVC075 11/09 A2996 RMK AO2 P0000=
200609211405 SPECI KPAE 211405Z 31005KT 2SM -RA BR BKN002 OVC075 11/09 A2996 RMK AO2 P0000=
200609211356 SPECI KPAE 211356Z 31007KT 1SM -RA BR BKN002 OVC075 11/10 A2995 RMK AO2 P0000=
200609211356 SPECI KPAE 211356Z 31007KT 1SM -RA BR BKN002 OVC075 11/10 A2995 RMK AO2 P0000=
200609211353 METAR KPAE 211353Z 30004KT 4SM -RA BR BKN060 OVC075 11/10 A2995 RMK AO2 RAB42 SLP172 P0001 T01110100=
200609211253 METAR KPAE 211253Z AUTO VRB04KT 9SM FEW060 OVC080 11/10 A2994 RMK AO2 RAE26 SLP167 P0000 T01110100=
200609211229 SPECI KPAE 211229Z AUTO 33005KT 10SM SCT005 BKN055 OVC080 11/10 A2994 RMK AO2 RAE26 P0000=
200609211229 SPECI KPAE 211229Z AUTO 33005KT 10SM SCT005 BKN055 OVC080 11/10 A2994 RMK AO2 RAE26 P0000=
200609211153 METAR KPAE 211153Z AUTO 30005KT 8SM -RA BKN005 BKN027 OVC033 11/10 A2994 RMK AO2 RAB20 CIG 002V008 SLP166 P0000 60001 70013 T01110100 10122 20111 50004=
200609211118 SPECI KPAE 211118Z AUTO 27006KT 10SM OVC003 11/10 A2994 RMK AO2=
200609211118 SPECI KPAE 211118Z AUTO 27006KT 10SM OVC003 11/10 A2994 RMK AO2=
200609211053 METAR KPAE 211053Z AUTO 28006KT 10SM BKN005 OVC014 11/10 A2994 RMK AO2 RAB10E22 CIG 003V009 SLP167 P0001 T01110100=
200609211040 SPECI KPAE 211040Z AUTO 27006KT 10SM BKN005 OVC016 11/10 A2994 RMK AO2 RAB10E22 CIG 002V009 P0001=
200609211040 SPECI KPAE 211040Z AUTO 27006KT 10SM BKN005 OVC016 11/10 A2994 RMK AO2 RAB10E22 CIG 002V009 P0001=
200609211023 SPECI KPAE 211023Z AUTO 28007KT 10SM OVC003 11/10 A2994 RMK AO2 RAB10E22 CIG 002V007 P0001=
200609211023 SPECI KPAE 211023Z AUTO 28007KT 10SM OVC003 11/10 A2994 RMK AO2 RAB10E22 CIG 002V007 P0001=
200609210953 METAR KPAE 210953Z AUTO 31009G14KT 6SM BR FEW002 BKN008 OVC013 12/11 A2993 RMK AO2 CIG 003V010 SLP165 T01170106=
200609210919 SPECI KPAE 210919Z AUTO 00000KT 10SM FEW007 OVC014 12/11 A2993 RMK AO2=
200609210919 SPECI KPAE 210919Z AUTO 00000KT 10SM FEW007 OVC014 12/11 A2993 RMK AO2=
200609210914 SPECI KPAE 210914Z AUTO VRB03KT 10SM SCT011 OVC016 12/11 A2992 RMK AO2=
200609210914 SPECI KPAE 210914Z AUTO VRB03KT 10SM SCT011 OVC016 12/11 A2992 RMK AO2=
200609210907 SPECI KPAE 210907Z AUTO 26003KT 10SM BKN009 BKN015 OVC022 12/11 A2992 RMK AO2 CIG 007V012=
200609210907 SPECI KPAE 210907Z AUTO 26003KT 10SM BKN009 BKN015 OVC022 12/11 A2992 RMK AO2 CIG 007V012=
200609210858 SPECI KPAE 210858Z AUTO 28005KT 10SM SCT010 BKN015 OVC022 12/11 A2992 RMK AO2=
200609210858 SPECI KPAE 210858Z AUTO 28005KT 10SM SCT010 BKN015 OVC022 12/11 A2992 RMK AO2=
200609210853 METAR KPAE 210853Z AUTO VRB03KT 10SM BKN013 BKN017 OVC022 12/10 A2992 RMK AO2 SLP162 60000 T01220100 50004=
200609210811 SPECI KPAE 210811Z AUTO 00000KT 6SM BR SCT002 SCT014 OVC021 12/11 A2992 RMK AO2=
200609210811 SPECI KPAE 210811Z AUTO 00000KT 6SM BR SCT002 SCT014 OVC021 12/11 A2992 RMK AO2=
200609210803 SPECI KPAE 210803Z AUTO 25003KT 4SM BR FEW002 BKN005 OVC023 12/11 A2992 RMK AO2 CIG 003V009=
200609210803 SPECI KPAE 210803Z AUTO 25003KT 4SM BR FEW002 BKN005 OVC023 12/11 A2992 RMK AO2 CIG 003V009=
200609210753 METAR KPAE 210753Z AUTO VRB05KT 4SM BR BKN002 BKN007 OVC012 12/11 A2992 RMK AO2 SLP162 T01170111 401220106=
200609210653 METAR KPAE 210653Z AUTO 22006KT 9SM OVC002 12/11 A2991 RMK AO2 RAB0554E05 SLP159 P0000 T01170111=
200609210622 SPECI KPAE 210622Z AUTO 20007KT 10SM OVC004 12/11 A2992 RMK AO2 RAB0554E05 P0000=
200609210622 SPECI KPAE 210622Z AUTO 20007KT 10SM OVC004 12/11 A2992 RMK AO2 RAB0554E05 P0000=
200609210553 METAR KPAE 210553Z AUTO 19009KT 10SM BKN006 BKN010 OVC024 12/11 A2991 RMK AO2 RAE01 CIG 004V008 SLP157 P0000 60001 T01220111 10122 20117 50002=
200609210453 METAR KPAE 210453Z AUTO 18009KT 5SM -RA BR OVC006 12/11 A2991 RMK AO2 CIG 005V009 SLP157 P0001 T01170111=
200609210401 SPECI KPAE 210401Z AUTO 18010KT 7SM -RA OVC008 12/11 A2991 RMK AO2 CIG 006V011 P0000=
200609210401 SPECI KPAE 210401Z AUTO 18010KT 7SM -RA OVC008 12/11 A2991 RMK AO2 CIG 006V011 P0000=
200609210353 METAR KPAE 210353Z AUTO 18009KT 6SM -RA BR OVC010 12/11 A2990 RMK AO2 RAB13 CIG 006V013 SLP156 P0000 T01170106=
200609210253 METAR KPAE 210253Z 16010KT 10SM OVC010 12/11 A2990 RMK AO2 SLP156 T01170106 56007=
200609210153 METAR KPAE 210153Z 15011KT 10SM OVC012 12/10 A2991 RMK AO2 SLP158 T01220100=
200609210053 METAR KPAE 210053Z 15014G21KT 10SM BKN012 OVC065 12/10 A2991 RMK AO2 SLP157 T01220100=
200609202353 METAR KPAE 202353Z 15016G21KT 10SM BKN010 OVC016 12/11 A2992 RMK AO2 PK WND 15026/2330 RAE46 SLP162 P0001 60009 T01220106 10122 20117 56028=
200609202253 METAR KPAE 202253Z 16017G23KT 10SM -RA BKN010 BKN014 OVC023 12/11 A2995 RMK AO2 PK WND 16026/2233 SLP170 P0002 T01220106=
200609202216 SPECI KPAE 202216Z 15018G25KT 5SM -RA BR BKN009 BKN014 OVC023 12/11 A2996 RMK AO2 PK WND 16026/2159 P0002=
200609202216 SPECI KPAE 202216Z 15018G25KT 5SM -RA BR BKN009 BKN014 OVC023 12/11 A2996 RMK AO2 PK WND 16026/2159 P0002=
200609202153 METAR KPAE 202153Z 15016G22KT 10SM -RA SCT009 BKN012 OVC018 12/11 A2997 RMK AO2 RAE2055B37 SLP178 P0000 T01170106=
200609202053 METAR KPAE 202053Z 15016KT 10SM -RA BKN009 BKN014 OVC060 12/10 A3001 RMK AO2 RAB1956 SLP191 P0004 60006 T01170100 56029=
200609201953 METAR KPAE 201953Z 17017G22KT 10SM BKN009 BKN013 OVC018 12/10 A3004 RMK AO2 RAE47 SLP201 P0002 T01170100=
200609201944 SPECI KPAE 201944Z 16015G22KT 10SM -RA BKN009 BKN013 OVC018 12/10 A3004 RMK AO2 CIG 007V012 P0002=
200609201944 SPECI KPAE 201944Z 16015G22KT 10SM -RA BKN009 BKN013 OVC018 12/10 A3004 RMK AO2 CIG 007V012 P0002=
200609201928 SPECI KPAE 201928Z 16014KT 9SM -RA FEW009 OVC015 12/10 A3004 RMK AO2 P0001=
200609201928 SPECI KPAE 201928Z 16014KT 9SM -RA FEW009 OVC015 12/10 A3004 RMK AO2 P0001=
200609201853 METAR KPAE 201853Z 17015G19KT 10SM -RA BKN014 OVC020 12/10 A3006 RMK AO2 RAE23B43 SLP210 P0000 T01170100=
200609201846 SPECI KPAE 201846Z 16011KT 10SM -RA FEW007 OVC012 12/10 A3007 RMK AO2 RAE23B43 P0000=
200609201846 SPECI KPAE 201846Z 16011KT 10SM -RA FEW007 OVC012 12/10 A3007 RMK AO2 RAE23B43 P0000=
200609201753 METAR KPAE 201753Z 16010KT 8SM -RA BKN006 OVC011 12/10 A3010 RMK AO2 SLP222 P0001 60002 T01170100 10117 20106 58010=
200609201703 SPECI KPAE 201703Z 17013KT 7SM -RA BKN006 OVC011 11/09 A3011 RMK AO2 P0000=
200609201703 SPECI KPAE 201703Z 17013KT 7SM -RA BKN006 OVC011 11/09 A3011 RMK AO2 P0000=
200609201653 METAR KPAE 201653Z 17014KT 7SM -RA BKN011 OVC014 11/09 A3011 RMK AO2 RAE1559B15 CIG 008V012 SLP228 P0001 T01110094=
200609201553 METAR KPAE 201553Z 17013KT 10SM -RA OVC009 11/09 A3012 RMK AO2 CIG 006V011 SLP229 P0000 T01060089=
200609201453 METAR KPAE 201453Z 17007KT 10SM -RA OVC009 11/09 A3013 RMK AO2 RAB34 CIG 007V012 SLP232 P0000 60000 T01060089 56007=
200609201401 SPECI KPAE 201401Z 19008KT 10SM BKN009 OVC095 11/09 A3014 RMK AO2 CIG 007V012=
200609201401 SPECI KPAE 201401Z 19008KT 10SM BKN009 OVC095 11/09 A3014 RMK AO2 CIG 007V012=
200609201353 METAR KPAE 201353Z 18010KT 10SM SCT009 OVC095 11/09 A3014 RMK AO2 SLP236 T01060089=
200609201303 SPECI KPAE 201303Z AUTO 17008KT 10SM SCT009 OVC100 11/09 A3014 RMK AO2=
200609201303 SPECI KPAE 201303Z AUTO 17008KT 10SM SCT009 OVC100 11/09 A3014 RMK AO2=
200609201253 METAR KPAE 201253Z AUTO 17008KT 10SM BKN009 BKN044 BKN100 11/09 A3013 RMK AO2 SLP234 T01060089=
200609201153 METAR KPAE 201153Z AUTO 15005KT 10SM FEW005 SCT009 OVC055 11/10 A3015 RMK AO2 SLP238 70006 T01110100 10122 20106 55006=
200609201118 SPECI KPAE 201118Z AUTO 15005KT 10SM SCT007 OVC065 11/10 A3014 RMK AO2=
200609201118 SPECI KPAE 201118Z AUTO 15005KT 10SM SCT007 OVC065 11/10 A3014 RMK AO2=
200609201053 METAR KPAE 201053Z AUTO 14006KT 10SM OVC060 11/09 A3015 RMK AO2 SLP237 T01110094=
200609200953 METAR KPAE 200953Z AUTO 10005KT 10SM BKN065 11/09 A3016 RMK AO2 SLP241 T01060089=
200609200853 METAR KPAE 200853Z AUTO 09005KT 10SM OVC050 12/09 A3017 RMK AO2 SLP245 T01170089 53004=
200609200753 METAR KPAE 200753Z AUTO 00000KT 10SM OVC050 12/09 A3016 RMK AO2 SLP243 T01170089 401610100=
200609200653 METAR KPAE 200653Z AUTO 00000KT 10SM OVC050 12/09 A3016 RMK AO2 SLP241 T01170089=
200609200553 METAR KPAE 200553Z AUTO 00000KT 10SM SCT041 BKN050 11/08 A3015 RMK AO2 SLP241 T01060083 10161 20100 51010=
200609200453 METAR KPAE 200453Z AUTO 01003KT 10SM CLR 11/09 A3015 RMK AO2 SLP239 T01110094=
200609200353 METAR KPAE 200353Z AUTO 00000KT 10SM CLR 13/09 A3014 RMK AO2 SLP237 T01280094=
200609200253 METAR KPAE 200253Z 00000KT 10SM SCT065 13/09 A3012 RMK AO2 SLP231 T01280094 50008=
200609200153 METAR KPAE 200153Z 33003KT 10SM FEW040 SCT060 13/09 A3012 RMK AO2 SLP231 T01330094=
200609200115 SPECI KPAE 200115Z 00000KT 10SM FEW029 BKN060 14/09 A3012 RMK AO2=
200609200115 SPECI KPAE 200115Z 00000KT 10SM FEW029 BKN060 14/09 A3012 RMK AO2=
200609200053 METAR KPAE 200053Z 00000KT 10SM BKN026 OVC065 14/10 A3011 RMK AO2 SLP227 T01390100=
200609200044 SPECI KPAE 200044Z 33004KT 10SM BKN026 OVC065 14/10 A3011 RMK AO2=
200609200044 SPECI KPAE 200044Z 33004KT 10SM BKN026 OVC065 14/10 A3011 RMK AO2=
200609192353 METAR KPAE 192353Z VRB04KT 10SM FEW020 BKN065 16/10 A3010 RMK AO2 SLP221 T01560100 10161 20122 50006=
200609192253 METAR KPAE 192253Z AUTO VRB04KT 10SM BKN070 15/09 A3010 RMK AO2 SLP221 T01500089 TSNO=
200609192153 METAR KPAE 192153Z 00000KT 10SM FEW012 SCT037 OVC070 14/11 A3009 RMK AO2 SLP217 T01390106=
200609192128 SPECI KPAE 192128Z 34005KT 10SM SCT007 BKN037 OVC070 13/10 A3009 RMK AO2=
200609192128 SPECI KPAE 192128Z 34005KT 10SM SCT007 BKN037 OVC070 13/10 A3009 RMK AO2=
200609192053 METAR KPAE 192053Z VRB04KT 10SM BKN007 OVC060 13/11 A3008 RMK AO2 SLP216 T01280106 51009=
200609192019 SPECI KPAE 192019Z 34004KT 10SM SCT007 BKN014 OVC020 12/11 A3008 RMK AO2=
200609192019 SPECI KPAE 192019Z 34004KT 10SM SCT007 BKN014 OVC020 12/11 A3008 RMK AO2=
200609192012 SPECI KPAE 192012Z 35005KT 10SM SCT007 BKN016 OVC027 12/11 A3008 RMK AO2=
200609192012 SPECI KPAE 192012Z 35005KT 10SM SCT007 BKN016 OVC027 12/11 A3008 RMK AO2=
200609192004 SPECI KPAE 192004Z VRB05KT 10SM SCT010 BKN016 OVC027 13/11 A3007 RMK AO2=
200609192004 SPECI KPAE 192004Z VRB05KT 10SM SCT010 BKN016 OVC027 13/11 A3007 RMK AO2=
200609191953 METAR KPAE 191953Z VRB04KT 10SM SCT010 BKN014 OVC040 13/11 A3007 RMK AO2 SLP213 T01280106=
200609191912 SPECI KPAE 191912Z 29004KT 10SM BKN012 BKN019 OVC060 13/10 A3006 RMK AO2=
200609191912 SPECI KPAE 191912Z 29004KT 10SM BKN012 BKN019 OVC060 13/10 A3006 RMK AO2=
200609191856 SPECI KPAE 191856Z 30006KT 10SM SCT014 BKN021 OVC060 13/10 A3006 RMK AO2=
200609191856 SPECI KPAE 191856Z 30006KT 10SM SCT014 BKN021 OVC060 13/10 A3006 RMK AO2=
200609191853 METAR KPAE 191853Z VRB06KT 10SM BKN009 OVC055 13/11 A3006 RMK AO2 SLP208 T01330106=
200609191800 METAR KPAE NIL=
200609191753 METAR KPAE 191753Z VRB05KT 10SM BKN009 BKN013 OVC055 13/11 A3005 RMK AO2 SLP205 60006 T01280106 10128 20111 53009=
200609191747 SPECI KPAE 191747Z 32005KT 10SM BKN009 BKN013 OVC055 12/10 A3005 RMK AO2=
200609191747 SPECI KPAE 191747Z 32005KT 10SM BKN009 BKN013 OVC055 12/10 A3005 RMK AO2=
200609191653 METAR KPAE 191653Z 29006KT 10SM OVC055 13/10 A3004 RMK AO2 SLP200 T01280100=
200609191623 SPECI KPAE 191623Z 28003KT 10SM SCT017 OVC055 12/11 A3003 RMK AO2=
200609191623 SPECI KPAE 191623Z 28003KT 10SM SCT017 OVC055 12/11 A3003 RMK AO2=
200609191553 METAR KPAE 191553Z 00000KT 10SM BKN019 BKN028 OVC050 12/09 A3003 RMK AO2 SLP198 T01170094=
200609191453 METAR KPAE 191453Z 00000KT 10SM OVC032 11/10 A3002 RMK AO2 RAE40 SLP197 P0001 60006 T01110100 53014=
200609191439 SPECI KPAE 191439Z 00000KT 10SM -RA OVC030 12/10 A3002 RMK AO2 P0001=
200609191439 SPECI KPAE 191439Z 00000KT 10SM -RA OVC030 12/10 A3002 RMK AO2 P0001=
200609191412 SPECI KPAE 191412Z 04004KT 10SM -RA BKN026 BKN030 OVC055 11/10 A3001 RMK AO2 P0001=
200609191412 SPECI KPAE 191412Z 04004KT 10SM -RA BKN026 BKN030 OVC055 11/10 A3001 RMK AO2 P0001=
200609191353 METAR KPAE 191353Z VRB03KT 10SM -RA FEW024 OVC055 11/09 A3001 RMK AO2 SLP190 P0001 T01110094=
200609191253 METAR KPAE 191253Z AUTO 01005KT 7SM -RA SCT004 OVC050 11/10 A3000 RMK AO2 SLP186 P0004 T01110100=
200609191153 METAR KPAE 191153Z AUTO 33003KT 7SM -RA SCT002 BKN037 OVC046 12/11 A2998 RMK AO2 SLP181 P0003 60004 70010 T01170106 10139 20117 53008=
200609191108 SPECI KPAE 191108Z AUTO 22006KT 6SM -RA BR BKN004 OVC011 12/11 A2997 RMK AO2 CIG 002V008 P0001=
200609191108 SPECI KPAE 191108Z AUTO 22006KT 6SM -RA BR BKN004 OVC011 12/11 A2997 RMK AO2 CIG 002V008 P0001=
200609191053 METAR KPAE 191053Z AUTO 22005KT 9SM -RA BKN006 BKN012 OVC020 12/11 A2997 RMK AO2 RAB00 CIG 004V009 SLP175 P0001 T01220111=
200609191013 SPECI KPAE 191013Z AUTO 21004KT 10SM -RA BKN008 BKN015 OVC080 12/11 A2996 RMK AO2 RAB00 CIG 006V012 P0000=
200609191013 SPECI KPAE 191013Z AUTO 21004KT 10SM -RA BKN008 BKN015 OVC080 12/11 A2996 RMK AO2 RAB00 CIG 006V012 P0000=
200609190953 METAR KPAE 190953Z AUTO 20006KT 10SM SCT010 BKN015 OVC075 13/11 A2996 RMK AO2 SLP173 T01280106=
200609190943 SPECI KPAE 190943Z AUTO 20005KT 10SM SCT013 BKN020 OVC075 13/11 A2996 RMK AO2=
200609190943 SPECI KPAE 190943Z AUTO 20005KT 10SM SCT013 BKN020 OVC075 13/11 A2996 RMK AO2=
200609190905 SPECI KPAE 190905Z AUTO 00000KT 10SM BKN013 BKN019 OVC070 13/12 A2996 RMK AO2=
200609190905 SPECI KPAE 190905Z AUTO 00000KT 10SM BKN013 BKN019 OVC070 13/12 A2996 RMK AO2=
200609190853 METAR KPAE 190853Z AUTO 15005KT 10SM SCT016 BKN021 OVC070 13/11 A2996 RMK AO2 RAE19 SLP171 P0000 60000 T01280111 51005=
200609190753 METAR KPAE 190753Z AUTO 19007KT 10SM -RA SCT019 OVC060 13/11 A2995 RMK AO2 RAB05 SLP172 P0000 T01280106 401940128=
200609190653 METAR KPAE 190653Z AUTO 16010KT 10SM BKN065 OVC080 14/10 A2995 RMK AO2 SLP171 T01390100=
200609190553 METAR KPAE 190553Z AUTO 16007KT 10SM SCT090 SCT120 13/10 A2994 RMK AO2 SLP168 60001 T01330100 10178 20133 51005=
200609190453 METAR KPAE 190453Z AUTO 16010KT 10SM CLR 14/09 A2994 RMK AO2 SLP167 T01390094=
200609190353 METAR KPAE 190353Z AUTO 17014G19KT 10SM CLR 14/09 A2994 RMK AO2 SLP166 T01440094=
200609190253 METAR KPAE 190253Z 17012KT 10SM BKN120 14/10 A2993 RMK AO2 SLP162 60001 T01440100 58001=
200609190153 METAR KPAE 190153Z 19011KT 10SM BKN049 BKN090 16/10 A2994 RMK AO2 RAB0057E24 SLP167 P0000 T01560100=
200609190053 METAR KPAE 190053Z 18008KT 10SM BKN100 16/11 A2993 RMK AO2 RAB09E33 SLP164 P0001 T01560111=
200609182353 METAR KPAE 182353Z 18012KT 10SM BKN034 BKN042 OVC080 18/10 A2993 RMK AO2 SLP163 T01780100 10194 20139 55003=
200609182253 METAR KPAE 182253Z 16013KT 10SM SCT085 18/09 A2993 RMK AO2 SLP161 T01830094=
200609182153 METAR KPAE 182153Z 16013KT 10SM SCT027 18/11 A2993 RMK AO2 SLP164 T01830111=
200609182053 METAR KPAE 182053Z 15013KT 10SM FEW018 18/12 A2994 RMK AO2 SLP166 T01780117 58004=
200609182000 SPECI KPAE 182000Z 16011KT 10SM FEW015 17/12 A2994 RMK AO2=
200609182000 SPECI KPAE 182000Z 16011KT 10SM FEW015 17/12 A2994 RMK AO2=
200609181953 METAR KPAE 181953Z 15013KT 10SM SCT006 OVC016 16/12 A2994 RMK AO2 SLP167 T01610122=
200609181917 SPECI KPAE 181917Z 17010KT 10SM SCT006 OVC016 16/13 A2995 RMK AO2=
200609181917 SPECI KPAE 181917Z 17010KT 10SM SCT006 OVC016 16/13 A2995 RMK AO2=
200609181853 METAR KPAE 181853Z 18010KT 10SM BKN006 OVC016 14/13 A2996 RMK AO2 SLP172 T01440128=
200609181806 SPECI KPAE 181806Z 15007KT 10SM BKN009 OVC016 14/13 A2995 RMK AO2 CIG 005V013=
200609181806 SPECI KPAE 181806Z 15007KT 10SM BKN009 OVC016 14/13 A2995 RMK AO2 CIG 005V013=
200609181759 SPECI KPAE 181759Z 15008KT 10SM SCT007 BKN010 OVC015 14/12 A2995 RMK AO2 CIG 009V013=
200609181759 SPECI KPAE 181759Z 15008KT 10SM SCT007 BKN010 OVC015 14/12 A2995 RMK AO2 CIG 009V013=
200609181753 METAR KPAE 181753Z 15009KT 10SM OVC004 14/12 A2995 RMK AO2 SLP171 60005 T01390122 10139 20128 55000=
200609181653 METAR KPAE 181653Z 13007KT 7SM OVC004 13/12 A2995 RMK AO2 RAB02E24 CIG 003V009 SLP169 P0000 T01330122=
200609181650 SPECI KPAE 181650Z 14007KT 8SM OVC004 13/12 A2995 RMK AO2 RAB02E24 CIG 003V009 P0000=
200609181650 SPECI KPAE 181650Z 14007KT 8SM OVC004 13/12 A2995 RMK AO2 RAB02E24 CIG 003V009 P0000=
200609181619 SPECI KPAE 181619Z 15006KT 5SM -RA BR OVC006 13/12 A2995 RMK AO2 RAB02 CIG 003V009 P0000=
200609181619 SPECI KPAE 181619Z 15006KT 5SM -RA BR OVC006 13/12 A2995 RMK AO2 RAB02 CIG 003V009 P0000=
200609181553 METAR KPAE 181553Z 15006KT 10SM BKN004 OVC014 13/12 A2995 RMK AO2 SLP171 T01330122=
200609181453 METAR KPAE 181453Z 15007KT 10SM BKN004 OVC014 13/12 A2996 RMK AO2 SLP172 60005 T01330122 58002=
200609181353 METAR KPAE 181353Z 17007KT 5SM BR BKN004 BKN023 OVC042 13/12 A2996 RMK AO2 RAE49 SLP173 P0003 T01330122=
200609181318 SPECI KPAE 181318Z 16007KT 6SM -RA BR SCT003 BKN025 OVC044 13/12 A2996 RMK AO2 P0001=
200609181318 SPECI KPAE 181318Z 16007KT 6SM -RA BR SCT003 BKN025 OVC044 13/12 A2996 RMK AO2 P0001=
200609181310 SPECI KPAE 181310Z 15008KT 9SM -RA BKN005 BKN044 OVC070 13/12 A2995 RMK AO2 CIG 003V007 P0001=
200609181310 SPECI KPAE 181310Z 15008KT 9SM -RA BKN005 BKN044 OVC070 13/12 A2995 RMK AO2 CIG 003V007 P0001=
200609181302 SPECI KPAE 181302Z 14009KT 8SM -RA SCT005 OVC044 13/12 A2995 RMK AO2 P0000=
200609181302 SPECI KPAE 181302Z 14009KT 8SM -RA SCT005 OVC044 13/12 A2995 RMK AO2 P0000=
200609181253 METAR KPAE 181253Z 14012KT 7SM -RA BKN005 OVC046 13/12 A2996 RMK AO2 CIG 003V007 SLP172 P0002 T01330122=
200609181153 METAR KPAE 181153Z 15011KT 9SM -RA BKN005 BKN047 OVC055 13/12 A2997 RMK AO2 SLP176 P0002 60019 70020 T01280122 10161 20128 56009=
200609181053 METAR KPAE 181053Z 15011KT 6SM -RA BR FEW030 OVC055 13/12 A2997 RMK AO2 SLP178 P0009 T01280117=
200609180953 METAR KPAE 180953Z 18010KT 5SM -RA BR BKN035 BKN042 OVC050 13/12 A2999 RMK AO2 SLP183 P0003 T01280117=
200609180853 METAR KPAE 180853Z 19008KT 8SM -RA FEW045 OVC055 13/12 A2999 RMK AO2 RAB0754 SLP184 P0005 60005 T01330117 56001=
200609180753 METAR KPAE 180753Z 20010KT 10SM SCT055 BKN100 OVC110 16/09 A2999 RMK AO2 SLP185 T01560089 401780100=
200609180653 METAR KPAE 180653Z 14012KT 10SM CLR 16/10 A2998 RMK AO2 SLP180 T01560100=
200609180553 METAR KPAE 180553Z 14012KT 10SM BKN080 BKN100 16/10 A3000 RMK AO2 SLP186 60000 T01560100 10178 20150 58015=
200609180453 METAR KPAE 180453Z 14010KT 10SM BKN055 BKN100 15/11 A3002 RMK AO2 RAB0358E42 SLP194 P0000 T01500106=
200609180353 METAR KPAE 180353Z 15007KT 10SM OVC050 16/10 A3003 RMK AO2 RAB37E52 SLP197 P0000 T01610100=
200609180253 METAR KPAE 180253Z 14008KT 10SM OVC048 17/08 A3004 RMK AO2 SLP202 T01670083 56013=
200609180153 METAR KPAE 180153Z 13008KT 10SM OVC038 17/08 A3005 RMK AO2 SLP204 T01720083=
200609180053 METAR KPAE 180053Z 13009KT 10SM BKN038 BKN055 BKN070 17/08 A3007 RMK AO2 SLP212 T01720083=
200609172353 METAR KPAE 172353Z 14008KT 10SM SCT029 BKN034 OVC100 17/08 A3008 RMK AO2 RAB02E20 SLP215 P0001 60001 T01720083 10172 20144 56018=
200609172253 METAR KPAE 172253Z 17009KT 10SM BKN030 OVC055 17/08 A3010 RMK AO2 RAE31 SLP223 P0000 T01670083=
200609172153 METAR KPAE 172153Z 15012KT 8SM -RA SCT028 BKN035 OVC043 16/09 A3011 RMK AO2 RAB2056 SLP225 P0000 T01560089=
200609172053 METAR KPAE 172053Z 15012KT 10SM OVC045 17/06 A3014 RMK AO2 RAE05 SLP234 P0000 60000 T01720061 56008=
200609171953 METAR KPAE 171953Z 14010KT 10SM -RA FEW048 OVC065 16/08 A3014 RMK AO2 RAB29 SLP235 P0000 T01610078=
200609171853 METAR KPAE 171853Z 15010KT 10SM FEW044 SCT055 OVC070 16/07 A3015 RMK AO2 SLP240 T01560067=
200609171753 METAR KPAE 171753Z 14008KT 10SM OVC046 14/07 A3016 RMK AO2 RAB06E18 SLP242 P0000 60000 T01440072 10144 20106 56003=
200609171653 METAR KPAE 171653Z 13008KT 10SM OVC050 13/07 A3016 RMK AO2 SLP243 T01330072=
200609171553 METAR KPAE 171553Z 12008KT 10SM OVC060 12/07 A3016 RMK AO2 SLP242 T01220072=
200609171453 METAR KPAE 171453Z 12007KT 10SM OVC060 12/07 A3017 RMK AO2 SLP245 T01170072 55003=
200609171353 METAR KPAE 171353Z 11008KT 10SM OVC075 11/07 A3017 RMK AO2 SLP245 T01060072=
200609171253 METAR KPAE 171253Z AUTO 12009KT 10SM OVC085 11/07 A3017 RMK AO2 SLP246 T01110072=
200609171153 METAR KPAE 171153Z AUTO 11007KT 10SM FEW090 OVC110 11/08 A3018 RMK AO2 SLP248 70003 T01060078 10133 20100 58008=
200609171053 METAR KPAE 171053Z AUTO 11008KT 10SM BKN100 11/08 A3018 RMK AO2 SLP250 T01060078=
200609170953 METAR KPAE 170953Z AUTO 12006KT 10SM CLR 11/08 A3019 RMK AO2 SLP253 T01060078=
200609170853 METAR KPAE 170853Z AUTO 13007KT 10SM CLR 12/08 A3020 RMK AO2 SLP256 T01170078 58002=
200609170753 METAR KPAE 170753Z AUTO 13009KT 10SM CLR 12/07 A3021 RMK AO2 SLP259 T01220072 401830089=
200609170653 METAR KPAE 170653Z AUTO 13008KT 10SM OVC110 13/07 A3021 RMK AO2 SLP261 T01280072=
200609170553 METAR KPAE 170553Z AUTO 14009KT 10SM CLR 13/08 A3021 RMK AO2 SLP259 T01330078 10183 20133 51009=
200609170453 METAR KPAE 170453Z AUTO 14009KT 10SM CLR 13/08 A3021 RMK AO2 SLP259 T01330078=
200609170353 METAR KPAE 170353Z AUTO 14006KT 10SM CLR 14/07 A3020 RMK AO2 SLP256 T01390072=
200609170253 METAR KPAE 170253Z 17007KT 10SM BKN050 OVC065 14/07 A3018 RMK AO2 SLP250 T01440072 52005=
200609170153 METAR KPAE 170153Z 23007KT 10SM BKN046 BKN060 16/07 A3018 RMK AO2 SLP250 T01560072=
200609170053 METAR KPAE 170053Z VRB04KT 10SM FEW046 BKN095 17/06 A3017 RMK AO2 SLP245 T01720056=
200609162353 METAR KPAE 162353Z 24005KT 10SM CLR 17/07 A3017 RMK AO2 SLP244 T01720067 10172 20117 53002=
200609162253 METAR KPAE 162253Z 23007KT 10SM CLR 17/07 A3016 RMK AO2 SLP242 T01720072=
200609162153 METAR KPAE 162153Z 25005KT 10SM CLR 16/08 A3016 RMK AO2 SLP242 T01610083=
200609162053 METAR KPAE 162053Z 26006KT 10SM CLR 16/09 A3016 RMK AO2 SLP243 T01560089 51004=
200609162018 SPECI KPAE 162018Z 24005KT 10SM SCT023 14/09 A3016 RMK AO2=
200609162018 SPECI KPAE 162018Z 24005KT 10SM SCT023 14/09 A3016 RMK AO2=
200609161953 METAR KPAE 161953Z 18008KT 10SM OVC023 15/08 A3016 RMK AO2 SLP243 T01500078=
200609161853 METAR KPAE 161853Z 23005KT 10SM OVC019 12/09 A3016 RMK AO2 SLP243 T01170089=
200609161753 METAR KPAE 161753Z 15008KT 10SM OVC017 13/08 A3015 RMK AO2 SLP239 60003 T01280083 10128 20094 53018=
200609161653 METAR KPAE 161653Z 15007KT 10SM OVC015 12/09 A3013 RMK AO2 SLP233 T01170089=
200609161619 SPECI KPAE 161619Z 16006KT 10SM BKN017 11/09 A3012 RMK AO2=
200609161619 SPECI KPAE 161619Z 16006KT 10SM BKN017 11/09 A3012 RMK AO2=
200609161608 SPECI KPAE 161608Z 14006KT 10SM SCT017 11/09 A3012 RMK AO2=
200609161608 SPECI KPAE 161608Z 14006KT 10SM SCT017 11/09 A3012 RMK AO2=
200609161553 METAR KPAE 161553Z 14006KT 10SM BKN017 10/09 A3011 RMK AO2 SLP228 T01000089=
200609161541 SPECI KPAE 161541Z 14006KT 10SM BKN017 BKN085 10/09 A3011 RMK AO2=
200609161541 SPECI KPAE 161541Z 14006KT 10SM BKN017 BKN085 10/09 A3011 RMK AO2=
200609161527 SPECI KPAE 161527Z 14005KT 10SM FEW009 SCT015 BKN085 10/09 A3011 RMK AO2=
200609161527 SPECI KPAE 161527Z 14005KT 10SM FEW009 SCT015 BKN085 10/09 A3011 RMK AO2=
200609161520 SPECI KPAE 161520Z 14005KT 10SM FEW005 BKN015 BKN085 10/08 A3010 RMK AO2=
200609161520 SPECI KPAE 161520Z 14005KT 10SM FEW005 BKN015 BKN085 10/08 A3010 RMK AO2=
200609161511 SPECI KPAE 161511Z 14005KT 10SM SCT005 BKN010 OVC085 10/08 A3010 RMK AO2=
200609161511 SPECI KPAE 161511Z 14005KT 10SM SCT005 BKN010 OVC085 10/08 A3010 RMK AO2=
200609161453 METAR KPAE 161453Z 16005KT 10SM BKN005 BKN010 OVC085 10/09 A3010 RMK AO2 RAB04E35 SLP222 P0001 60003 T01000089 53019=
200609161445 SPECI KPAE 161445Z 15004KT 10SM BKN007 OVC085 10/09 A3009 RMK AO2 RAB04E35 CIG 004V011 P0001=
200609161445 SPECI KPAE 161445Z 15004KT 10SM BKN007 OVC085 10/09 A3009 RMK AO2 RAB04E35 CIG 004V011 P0001=
200609161423 SPECI KPAE 161423Z 14007KT 6SM -RA BR FEW007 BKN044 OVC085 10/09 A3008 RMK AO2 RAB04 P0001=
200609161423 SPECI KPAE 161423Z 14007KT 6SM -RA BR FEW007 BKN044 OVC085 10/09 A3008 RMK AO2 RAB04 P0001=
200609161353 METAR KPAE 161353Z AUTO 16004KT 10SM SCT055 BKN070 OVC090 10/09 A3007 RMK AO2 RAE24 SLP213 P0002 T01000089=
200609161314 SPECI KPAE 161314Z AUTO 22003KT 7SM -RA FEW009 BKN049 OVC080 10/08 A3006 RMK AO2 P0002=
200609161314 SPECI KPAE 161314Z AUTO 22003KT 7SM -RA FEW009 BKN049 OVC080 10/08 A3006 RMK AO2 P0002=
200609161253 METAR KPAE 161253Z AUTO 17006KT 9SM -RA SCT036 OVC065 10/08 A3005 RMK AO2 RAB35 SLP206 P0000 T01000083=
200609161153 METAR KPAE 161153Z AUTO 16005KT 10SM OVC034 10/08 A3004 RMK AO2 SLP201 T01000078 10111 20089 51014=
200609161053 METAR KPAE 161053Z AUTO 16003KT 10SM BKN038 BKN048 OVC080 09/08 A3002 RMK AO2 SLP196 T00940078=
200609160953 METAR KPAE 160953Z AUTO 14004KT 10SM BKN038 BKN047 09/08 A3001 RMK AO2 SLP192 T00940078=
200609160853 METAR KPAE 160853Z AUTO 16004KT 10SM BKN044 OVC085 09/07 A3000 RMK AO2 SLP187 T00940072 53018=
200609160753 METAR KPAE 160753Z AUTO 00000KT 10SM CLR 10/07 A2997 RMK AO2 SLP180 T01000072 401560083=
200609160653 METAR KPAE 160653Z AUTO 10005KT 10SM CLR 10/07 A2995 RMK AO2 SLP172 T01000072=
200609160553 METAR KPAE 160553Z AUTO 12003KT 10SM CLR 11/07 A2994 RMK AO2 SLP168 T01110072 10156 20111 51017=
200609160453 METAR KPAE 160453Z AUTO 18003KT 10SM SCT065 11/07 A2993 RMK AO2 SLP165 T01110072=
200609160353 METAR KPAE 160353Z AUTO 07004KT 10SM CLR 12/07 A2991 RMK AO2 SLP159 T01220067=
200609160253 METAR KPAE 160253Z 30004KT 10SM FEW065 12/08 A2989 RMK AO2 SLP152 T01170078 51018=
200609160153 METAR KPAE 160153Z 32003KT 10SM CLR 13/07 A2987 RMK AO2 SLP145 T01330067=
200609160053 METAR KPAE 160053Z VRB04KT 10SM CLR 15/07 A2985 RMK AO2 SLP139 T01500067=
200609152353 METAR KPAE 152353Z VRB06KT 10SM CLR 16/08 A2984 RMK AO2 SLP133 T01560078 10156 20117 53009=
200609152253 METAR KPAE 152253Z 31008KT 10SM CLR 14/08 A2982 RMK AO2 SLP127 T01440078=
200609152153 METAR KPAE 152153Z VRB05KT 10SM CLR 14/08 A2981 RMK AO2 SLP124 T01440078=
200609152053 METAR KPAE 152053Z 26006KT 10SM FEW019 BKN060 14/08 A2981 RMK AO2 SLP123 T01440078 51007=
200609151953 METAR KPAE 151953Z 28005KT 10SM FEW017 OVC060 13/08 A2981 RMK AO2 SLP123 T01280078=
200609151853 METAR KPAE 151853Z VRB04KT 10SM FEW016 BKN060 13/07 A2979 RMK AO2 SLP118 T01330072=
200609151830 SPECI KPAE 151830Z 36004KT 10SM FEW016 BKN060 13/07 A2979 RMK AO2=
200609151830 SPECI KPAE 151830Z 36004KT 10SM FEW016 BKN060 13/07 A2979 RMK AO2=
200609151753 METAR KPAE 151753Z 04004KT 10SM OVC020 12/07 A2979 RMK AO2 SLP117 T01170072 10117 20089 53012=
200609151744 SPECI KPAE 151744Z VRB04KT 10SM FEW014 OVC020 12/07 A2978 RMK AO2=
200609151744 SPECI KPAE 151744Z VRB04KT 10SM FEW014 OVC020 12/07 A2978 RMK AO2=
200609151653 METAR KPAE 151653Z VRB03KT 10SM SCT003 OVC012 11/08 A2977 RMK AO2 SLP112 T01060078=
200609151640 SPECI KPAE 151640Z 00000KT 10SM SCT003 OVC012 09/08 A2977 RMK AO2=
200609151640 SPECI KPAE 151640Z 00000KT 10SM SCT003 OVC012 09/08 A2977 RMK AO2=
200609151632 SPECI KPAE 151632Z 36004KT 10SM BKN003 OVC012 09/08 A2977 RMK AO2=
200609151632 SPECI KPAE 151632Z 36004KT 10SM BKN003 OVC012 09/08 A2977 RMK AO2=
200609151553 METAR KPAE 151553Z 35004KT 10SM BKN005 OVC065 10/08 A2976 RMK AO2 SLP107 T01000078=
200609151543 SPECI KPAE 151543Z VRB03KT 10SM SCT005 OVC070 09/08 A2976 RMK AO2=
200609151543 SPECI KPAE 151543Z VRB03KT 10SM SCT005 OVC070 09/08 A2976 RMK AO2=
200609151511 SPECI KPAE 151511Z 35004KT 10SM SCT010 OVC065 09/08 A2976 RMK AO2=
200609151511 SPECI KPAE 151511Z 35004KT 10SM SCT010 OVC065 09/08 A2976 RMK AO2=
200609151453 METAR KPAE 151453Z 35003KT 10SM OVC010 09/08 A2975 RMK AO2 SLP105 T00940078 53008=
200609151438 SPECI KPAE 151438Z 00000KT 10SM BKN010 BKN065 09/07 A2975 RMK AO2=
200609151438 SPECI KPAE 151438Z 00000KT 10SM BKN010 BKN065 09/07 A2975 RMK AO2=
200609151400 SPECI KPAE 151400Z VRB03KT 10SM FEW006 SCT027 OVC070 09/07 A2974 RMK AO2=
200609151400 SPECI KPAE 151400Z VRB03KT 10SM FEW006 SCT027 OVC070 09/07 A2974 RMK AO2=
200609151353 METAR KPAE 151353Z 00000KT 10SM FEW006 BKN027 OVC070 09/07 A2974 RMK AO2 SLP101 T00940072=
200609151338 SPECI KPAE 151338Z 00000KT 10SM FEW006 OVC027 09/08 A2974 RMK AO2=
200609151338 SPECI KPAE 151338Z 00000KT 10SM FEW006 OVC027 09/08 A2974 RMK AO2=
200609151253 METAR KPAE 151253Z 00000KT 10SM OVC023 09/08 A2973 RMK AO2 SLP095 T00940083=
200609151218 SPECI KPAE 151218Z 00000KT 10SM SCT010 OVC021 09/08 A2973 RMK AO2=
200609151218 SPECI KPAE 151218Z 00000KT 10SM SCT010 OVC021 09/08 A2973 RMK AO2=
200609151153 METAR KPAE 151153Z 00000KT 10SM OVC008 09/08 A2973 RMK AO2 CIG 005V010 SLP096 70038 T00940078 10100 20083 53004=
200609151134 SPECI KPAE 151134Z 00000KT 10SM OVC008 09/07 A2973 RMK AO2 CIG 005V011=
200609151134 SPECI KPAE 151134Z 00000KT 10SM OVC008 09/07 A2973 RMK AO2 CIG 005V011=
200609151107 SPECI KPAE 151107Z 11004KT 10SM BKN010 OVC100 09/07 A2972 RMK AO2=
200609151107 SPECI KPAE 151107Z 11004KT 10SM BKN010 OVC100 09/07 A2972 RMK AO2=
200609151053 METAR KPAE 151053Z 11004KT 10SM FEW010 BKN100 08/07 A2972 RMK AO2 SLP093 T00830072=
200609150953 METAR KPAE 150953Z 15004KT 10SM SCT023 09/07 A2972 RMK AO2 SLP092 T00940072=
200609150853 METAR KPAE 150853Z 14005KT 10SM BKN017 OVC041 10/08 A2971 RMK AO2 SLP091 T01000078 53002=
200609150753 METAR KPAE 150753Z 11005KT 10SM FEW015 BKN037 09/08 A2971 RMK AO2 SLP090 T00940078 401390094=
200609150653 METAR KPAE 150653Z 00000KT 10SM BKN042 10/07 A2971 RMK AO2 SLP090 T01000072=
200609150553 METAR KPAE 150553Z 12006KT 10SM SCT036 BKN060 10/07 A2971 RMK AO2 SLP090 T01000072 10133 20100 50001=
200609150453 METAR KPAE 150453Z 10003KT 10SM CLR 10/07 A2971 RMK AO2 SLP090 T01000072=
200609150353 METAR KPAE 150353Z 09004KT 10SM CLR 11/08 A2971 RMK AO2 SLP090 T01060078=
200609150253 METAR KPAE 150253Z 09004KT 10SM CLR 12/07 A2970 RMK AO2 SLP088 T01170072 56005=
200609150153 METAR KPAE 150153Z 10007KT 10SM CLR 12/08 A2971 RMK AO2 SLP090 T01220078=
200609150053 METAR KPAE 150053Z 08008KT 10SM CLR 13/09 A2971 RMK AO2 SLP090 T01330089=
200609142353 METAR KPAE 142353Z 09006KT 10SM FEW025 SCT039 13/10 A2972 RMK AO2 RAE27 SLP092 P0004 60028 T01280100 10139 20106 56007=
200609142304 SPECI KPAE 142304Z 09007KT 5SM -RA BR FEW006 BKN025 OVC037 11/10 A2972 RMK AO2 P0003=
200609142304 SPECI KPAE 142304Z 09007KT 5SM -RA BR FEW006 BKN025 OVC037 11/10 A2972 RMK AO2 P0003=
200609142253 METAR KPAE 142253Z 08005KT 5SM +RA BR BKN025 BKN030 OVC044 11/10 A2972 RMK AO2 SLP095 P0023 T01110100=
200609142230 SPECI KPAE 142230Z VRB04KT 5SM +RA BR FEW006 BKN021 OVC050 11/10 A2972 RMK AO2 P0011=
200609142230 SPECI KPAE 142230Z VRB04KT 5SM +RA BR FEW006 BKN021 OVC050 11/10 A2972 RMK AO2 P0011=
200609142228 SPECI KPAE 142228Z 00000KT 1 1/4SM +RA BR FEW006 BKN032 OVC043 11/10 A2973 RMK AO2 P0009=
200609142228 SPECI KPAE 142228Z 00000KT 1 1/4SM +RA BR FEW006 BKN032 OVC043 11/10 A2973 RMK AO2 P0009=
200609142209 SPECI KPAE 142209Z 09006KT 10SM -RA FEW015 BKN043 OVC050 11/10 A2973 RMK AO2 P0001=
200609142209 SPECI KPAE 142209Z 09006KT 10SM -RA FEW015 BKN043 OVC050 11/10 A2973 RMK AO2 P0001=
200609142153 METAR KPAE 142153Z 10008KT 10SM -RA FEW004 SCT010 BKN018 11/09 A2973 RMK AO2 RAB44 SLP097 P0001 T01110094=
200609142111 SPECI KPAE 142111Z VRB06KT 10SM FEW004 SCT010 BKN018 12/09 A2974 RMK AO2=
200609142111 SPECI KPAE 142111Z VRB06KT 10SM FEW004 SCT010 BKN018 12/09 A2974 RMK AO2=
200609142053 METAR KPAE 142053Z 31006KT 10SM BKN020 BKN026 OVC031 13/09 A2974 RMK AO2 SLP099 T01330089 58006=
200609142021 SPECI KPAE 142021Z 20008KT 10SM SCT016 BKN028 OVC070 14/09 A2974 RMK AO2=
200609142021 SPECI KPAE 142021Z 20008KT 10SM SCT016 BKN028 OVC070 14/09 A2974 RMK AO2=
200609142011 SPECI KPAE 142011Z 18007KT 10SM FEW014 BKN030 OVC070 13/09 A2975 RMK AO2=
200609142011 SPECI KPAE 142011Z 18007KT 10SM FEW014 BKN030 OVC070 13/09 A2975 RMK AO2=
200609141953 METAR KPAE 141953Z 19006KT 10SM SCT014 OVC021 12/09 A2975 RMK AO2 SLP103 T01220089=
200609141934 SPECI KPAE 141934Z 18007KT 10SM SCT010 SCT014 OVC021 12/08 A2976 RMK AO2=
200609141934 SPECI KPAE 141934Z 18007KT 10SM SCT010 SCT014 OVC021 12/08 A2976 RMK AO2=
200609141918 SPECI KPAE 141918Z 17007KT 10SM BKN010 OVC019 12/09 A2976 RMK AO2 CIG 008V013=
200609141918 SPECI KPAE 141918Z 17007KT 10SM BKN010 OVC019 12/09 A2976 RMK AO2 CIG 008V013=
200609141853 METAR KPAE 141853Z 19007KT 10SM FEW005 BKN019 OVC038 12/09 A2976 RMK AO2 SLP106 T01170094=
200609141753 METAR KPAE 141753Z 21006KT 10SM FEW003 BKN017 OVC023 11/09 A2976 RMK AO2 SLP107 60010 T01060089 10106 20094 56004=
200609141653 METAR KPAE 141653Z 20006KT 10SM SCT003 OVC013 10/09 A2976 RMK AO2 SLP108 T01000089=
200609141638 SPECI KPAE 141638Z 19006KT 9SM OVC013 10/09 A2976 RMK AO2=
200609141638 SPECI KPAE 141638Z 19006KT 9SM OVC013 10/09 A2976 RMK AO2=
200609141553 METAR KPAE 141553Z 19004KT 8SM BKN005 OVC012 10/09 A2977 RMK AO2 RAE49 SLP110 P0001 T01000089=
200609141453 METAR KPAE 141453Z 18005KT 4SM -RA BR BKN005 OVC012 09/08 A2977 RMK AO2 RAB04 SLP112 P0008 60009 T00940083 56009=
200609141442 SPECI KPAE 141442Z 19006KT 2 1/2SM -RA BR BKN005 OVC012 09/09 A2978 RMK AO2 VIS 1 3/4V5 RAB04 P0007=
200609141442 SPECI KPAE 141442Z 19006KT 2 1/2SM -RA BR BKN005 OVC012 09/09 A2978 RMK AO2 VIS 1 3/4V5 RAB04 P0007=
200609141421 SPECI KPAE 141421Z 20008KT 7SM -RA SCT002 BKN010 OVC017 10/09 A2978 RMK AO2 RAB04 CIG 007V011 P0001=
200609141421 SPECI KPAE 141421Z 20008KT 7SM -RA SCT002 BKN010 OVC017 10/09 A2978 RMK AO2 RAB04 CIG 007V011 P0001=
200609141353 METAR KPAE 141353Z AUTO 21003KT 9SM BKN004 OVC008 10/09 A2978 RMK AO2 RAE36 SLP116 P0000 T01000089=
200609141322 SPECI KPAE 141322Z AUTO 20005KT 8SM -RA BKN004 OVC011 10/09 A2979 RMK AO2 P0000=
200609141322 SPECI KPAE 141322Z AUTO 20005KT 8SM -RA BKN004 OVC011 10/09 A2979 RMK AO2 P0000=
200609141253 METAR KPAE 141253Z AUTO 18008KT 9SM -RA FEW004 OVC011 10/09 A2979 RMK AO2 RAB08 SLP117 P0001 T01000089=
200609141214 SPECI KPAE 141214Z AUTO 17006KT 7SM -RA FEW004 OVC013 10/09 A2979 RMK AO2 RAB08 P0000=
200609141214 SPECI KPAE 141214Z AUTO 17006KT 7SM -RA FEW004 OVC013 10/09 A2979 RMK AO2 RAB08 P0000=
200609141153 METAR KPAE 141153Z AUTO 17007KT 7SM BKN017 OVC023 10/09 A2980 RMK AO2 RAE52 SLP121 P0001 60024 70029 T01000089 10111 20100 56016=
200609141101 SPECI KPAE 141101Z AUTO 18007KT 3SM -RA BR FEW004 SCT022 OVC029 10/09 A2981 RMK AO2 P0000=
200609141101 SPECI KPAE 141101Z AUTO 18007KT 3SM -RA BR FEW004 SCT022 OVC029 10/09 A2981 RMK AO2 P0000=
200609141053 METAR KPAE 141053Z AUTO 18007KT 2SM RA BR FEW004 BKN033 OVC043 10/09 A2982 RMK AO2 RAE14B41 SLP126 P0002 T01000089=
200609141042 SPECI KPAE 141042Z AUTO 19006KT 9SM -RA FEW004 SCT027 OVC043 10/09 A2982 RMK AO2 RAE14B41 P0000=
200609141042 SPECI KPAE 141042Z AUTO 19006KT 9SM -RA FEW004 SCT027 OVC043 10/09 A2982 RMK AO2 RAE14B41 P0000=
200609140953 METAR KPAE 140953Z AUTO 15006KT 10SM -RA OVC047 11/09 A2983 RMK AO2 SLP129 P0001 T01060089=
200609140853 METAR KPAE 140853Z AUTO 16004KT 7SM -RA FEW029 BKN046 OVC060 11/09 A2985 RMK AO2 SLP137 P0016 60020 T01060094 58003=
200609140824 SPECI KPAE 140824Z AUTO 00000KT 6SM -RA BR FEW007 BKN034 OVC042 10/09 A2986 RMK AO2 P0014=
200609140824 SPECI KPAE 140824Z AUTO 00000KT 6SM -RA BR FEW007 BKN034 OVC042 10/09 A2986 RMK AO2 P0014=
200609140814 SPECI KPAE 140814Z AUTO 00000KT 3SM -RA BR FEW006 OVC009 10/09 A2986 RMK AO2 CIG 008V015 P0014=
200609140814 SPECI KPAE 140814Z AUTO 00000KT 3SM -RA BR FEW006 OVC009 10/09 A2986 RMK AO2 CIG 008V015 P0014=
200609140803 SPECI KPAE 140803Z AUTO VRB03KT 1SM +RA BR OVC009 10/09 A2986 RMK AO2 CIG 005V014 P0011=
200609140803 SPECI KPAE 140803Z AUTO VRB03KT 1SM +RA BR OVC009 10/09 A2986 RMK AO2 CIG 005V014 P0011=
200609140755 SPECI KPAE 140755Z AUTO VRB04KT 2 1/2SM +RA BR BKN009 OVC030 11/09 A2986 RMK AO2 CIG 005V011 P0002=
200609140755 SPECI KPAE 140755Z AUTO VRB04KT 2 1/2SM +RA BR BKN009 OVC030 11/09 A2986 RMK AO2 CIG 005V011 P0002=
200609140753 METAR KPAE 140753Z AUTO VRB04KT 3SM +RA BR BKN011 BKN030 OVC038 11/09 A2986 RMK AO2 RAB30 SLP142 P0004 T01060089 401330106=
200609140748 SPECI KPAE 140748Z AUTO 31006KT 6SM -RA BR BKN011 BKN030 OVC041 11/09 A2986 RMK AO2 RAB30 P0001 401330106=
200609140748 SPECI KPAE 140748Z AUTO 31006KT 6SM -RA BR BKN011 BKN030 OVC041 11/09 A2986 RMK AO2 RAB30 P0001 401330106=
200609140653 METAR KPAE 140653Z AUTO 13007KT 10SM BKN055 OVC070 11/08 A2986 RMK AO2 SLP140 T01110083=
200609140553 METAR KPAE 140553Z AUTO 10006KT 10SM BKN065 OVC100 11/08 A2988 RMK AO2 SLP146 60000 T01110083 10128 20111 58014=
200609140453 METAR KPAE 140453Z AUTO 00000KT 10SM BKN065 12/08 A2989 RMK AO2 SLP152 T01170083=
200609140353 METAR KPAE 140353Z AUTO 11006KT 10SM BKN049 OVC065 12/08 A2990 RMK AO2 SLP156 T01220078=
200609140253 METAR KPAE 140253Z 11003KT 10SM OVC045 13/07 A2992 RMK AO2 RAB03E19 SLP160 P0000 60000 T01280067 58016=
200609140153 METAR KPAE 140153Z VRB05KT 10SM OVC031 12/09 A2994 RMK AO2 RAB26E44 SLP169 P0000 T01220089=
200609140053 METAR KPAE 140053Z 35006KT 9SM OVC039 12/10 A2995 RMK AO2 SLP172 T01220100=
200609132353 METAR KPAE 132353Z 34006KT 10SM OVC037 12/09 A2997 RMK AO2 SLP177 60000 T01220094 10133 20117 56019=
200609132253 METAR KPAE 132253Z 00000KT 10SM OVC031 13/09 A2998 RMK AO2 SLP183 T01330089=
200609132244 SPECI KPAE 132244Z 00000KT 10SM OVC031 13/09 A2999 RMK AO2=
200609132244 SPECI KPAE 132244Z 00000KT 10SM OVC031 13/09 A2999 RMK AO2=
200609132153 METAR KPAE 132153Z 12005KT 10SM SCT017 OVC024 13/09 A3001 RMK AO2 SLP190 T01280094=
200609132053 METAR KPAE 132053Z 17006KT 10SM OVC016 13/09 A3002 RMK AO2 SLP197 60000 T01280094 58012=
200609132013 SPECI KPAE 132013Z 18008KT 10SM FEW011 OVC016 12/09 A3003 RMK AO2=
200609132013 SPECI KPAE 132013Z 18008KT 10SM FEW011 OVC016 12/09 A3003 RMK AO2=
200609131953 METAR KPAE 131953Z 18010KT 9SM OVC013 12/10 A3004 RMK AO2 CIG 008V018 SLP203 T01220100=
200609131900 SPECI KPAE 131900Z 18009KT 8SM FEW008 OVC013 12/10 A3006 RMK AO2=
200609131900 SPECI KPAE 131900Z 18009KT 8SM FEW008 OVC013 12/10 A3006 RMK AO2=
200609131853 METAR KPAE 131853Z 18010KT 7SM SCT002 OVC008 12/10 A3006 RMK AO2 RAE07 SLP208 P0000 T01170100=
200609131830 SPECI KPAE 131830Z 18008KT 3SM BR SCT002 OVC008 12/11 A3006 RMK AO2 RAE07 P0000=
200609131830 SPECI KPAE 131830Z 18008KT 3SM BR SCT002 OVC008 12/11 A3006 RMK AO2 RAE07 P0000=
200609131817 SPECI KPAE 131817Z 19008KT 1 3/4SM BR SCT002 BKN006 OVC010 12/11 A3006 RMK AO2 RAE07 P0000=
200609131817 SPECI KPAE 131817Z 19008KT 1 3/4SM BR SCT002 BKN006 OVC010 12/11 A3006 RMK AO2 RAE07 P0000=
200609131808 SPECI KPAE 131808Z 19008KT 2SM BR OVC006 12/11 A3006 RMK AO2 RAE07 CIG 002V009 P0000=
200609131808 SPECI KPAE 131808Z 19008KT 2SM BR OVC006 12/11 A3006 RMK AO2 RAE07 CIG 002V009 P0000=
200609131753 METAR KPAE 131753Z 16007KT 1 1/4SM -RA BR BKN002 OVC006 12/11 A3006 RMK AO2 SLP208 P0003 60005 T01170106 10122 20111 58008=
200609131731 SPECI KPAE 131731Z 00000KT 1SM -RA BR BKN001 OVC006 11/11 A3007 RMK AO2 P0002=
200609131731 SPECI KPAE 131731Z 00000KT 1SM -RA BR BKN001 OVC006 11/11 A3007 RMK AO2 P0002=
200609131709 SPECI KPAE 131709Z VRB03KT 1 1/4SM -RA BR BKN003 OVC007 11/11 A3007 RMK AO2 CIG 001V005 P0001=
200609131709 SPECI KPAE 131709Z VRB03KT 1 1/4SM -RA BR BKN003 OVC007 11/11 A3007 RMK AO2 CIG 001V005 P0001=
200609131653 METAR KPAE 131653Z 29003KT 3/4SM -RA BR OVC003 12/11 A3007 RMK AO2 RAB37 CIG 001V005 SLP213 P0002 T01170106=
200609131632 SPECI KPAE 131632Z 31004KT 1 1/4SM BR OVC003 12/11 A3008 RMK AO2 CIG 001V006=
200609131632 SPECI KPAE 131632Z 31004KT 1 1/4SM BR OVC003 12/11 A3008 RMK AO2 CIG 001V006=
200609131601 SPECI KPAE 131601Z 00000KT 1 3/4SM BR OVC005 12/11 A3008 RMK AO2 CIG 003V007=
200609131601 SPECI KPAE 131601Z 00000KT 1 3/4SM BR OVC005 12/11 A3008 RMK AO2 CIG 003V007=
200609131553 METAR KPAE 131553Z 00000KT 2SM BR OVC005 12/10 A3008 RMK AO2 CIG 004V007 SLP216 T01170100=
200609131542 SPECI KPAE 131542Z 00000KT 2SM BR OVC007 12/11 A3008 RMK AO2=
200609131542 SPECI KPAE 131542Z 00000KT 2SM BR OVC007 12/11 A3008 RMK AO2=
200609131521 SPECI KPAE 131521Z 00000KT 5SM BR BKN009 OVC012 12/10 A3008 RMK AO2 CIG 007V010=
200609131521 SPECI KPAE 131521Z 00000KT 5SM BR BKN009 OVC012 12/10 A3008 RMK AO2 CIG 007V010=
200609131453 METAR KPAE 131453Z 00000KT 6SM HZ OVC011 12/09 A3008 RMK AO2 SLP216 T01220094 56008=
200609131353 METAR KPAE 131353Z VRB03KT 10SM OVC011 12/09 A3009 RMK AO2 SLP217 T01170094=
200609131309 SPECI KPAE 131309Z AUTO VRB03KT 10SM OVC013 12/10 A3010 RMK AO2 TSNO=
200609131309 SPECI KPAE 131309Z AUTO VRB03KT 10SM OVC013 12/10 A3010 RMK AO2 TSNO=
200609131253 METAR KPAE 131253Z AUTO 35005KT 9SM BKN005 BKN010 OVC017 12/10 A3010 RMK AO2 CIG 005V009 SLP221 T01170100 TSNO=
200609131236 SPECI KPAE 131236Z AUTO VRB04KT 8SM OVC005 12/10 A3010 RMK AO2 TSNO=
200609131236 SPECI KPAE 131236Z AUTO VRB04KT 8SM OVC005 12/10 A3010 RMK AO2 TSNO=
200609131153 METAR KPAE 131153Z AUTO 33004KT 6SM BR OVC003 11/10 A3011 RMK AO2 SLP223 T01110100 10133 20111 55003 TSNO=
200609131110 SPECI KPAE 131110Z AUTO 36005KT 7SM BKN003 OVC042 11/10 A3011 RMK AO2 TSNO=
200609131110 SPECI KPAE 131110Z AUTO 36005KT 7SM BKN003 OVC042 11/10 A3011 RMK AO2 TSNO=
200609131053 METAR KPAE 131053Z AUTO 36005KT 7SM SCT003 OVC042 11/10 A3010 RMK AO2 SLP222 T01110100 TSNO=
200609131043 SPECI KPAE 131043Z AUTO 35006KT 8SM FEW005 OVC042 11/10 A3011 RMK AO2 TSNO=
200609131043 SPECI KPAE 131043Z AUTO 35006KT 8SM FEW005 OVC042 11/10 A3011 RMK AO2 TSNO=
200609130953 METAR KPAE 130953Z AUTO VRB05KT 10SM BKN045 OVC055 12/10 A3012 RMK AO2 SLP226 T01170100 TSNO=
200609130853 METAR KPAE 130853Z AUTO 01005KT 10SM FEW038 12/10 A3012 RMK AO2 SLP226 T01220100 58003 TSNO=
200609130753 METAR KPAE 130753Z AUTO 01006KT 10SM CLR 13/10 A3012 RMK AO2 SLP229 T01280100 402110111 TSNO=
200609130653 METAR KPAE 130653Z AUTO VRB05KT 10SM CLR 13/10 A3013 RMK AO2 SLP232 T01330100 TSNO=
200609130553 METAR KPAE 130553Z AUTO 01008KT 10SM CLR 13/11 A3013 RMK AO2 SLP231 T01280106 10206 20128 58002 TSNO=
200609130453 METAR KPAE 130453Z AUTO 36007KT 10SM CLR 13/11 A3013 RMK AO2 SLP231 T01330106 TSNO=
200609130353 METAR KPAE 130353Z AUTO 01006KT 10SM CLR 14/11 A3014 RMK AO2 SLP233 T01390106 TSNO=
200609130253 METAR KPAE 130253Z AUTO VRB05KT 10SM CLR 14/12 A3013 RMK AO2 SLP234 T01390117 57005 TSNO=
200609130153 METAR KPAE 130153Z AUTO 36006KT 10SM CLR 16/12 A3014 RMK AO2 SLP236 T01560122 TSNO=
200609130053 METAR KPAE 130053Z AUTO 33008KT 10SM CLR 18/12 A3014 RMK AO2 SLP236 T01830122 TSNO=
200609122353 METAR KPAE 122353Z AUTO VRB04KT 10SM CLR 20/12 A3015 RMK AO2 SLP238 T02000122 10211 20139 56010 TSNO=
200609122253 METAR KPAE 122253Z AUTO VRB05KT 10SM CLR 20/12 A3016 RMK AO2 SLP240 T02000122 TSNO=
200609122153 METAR KPAE 122153Z 29006KT 10SM CLR 20/12 A3017 RMK AO2 SLP245 T02000117=
200609122053 METAR KPAE 122053Z VRB05KT 10SM CLR 20/12 A3018 RMK AO2 SLP248 T02000117 58007=
200609121953 METAR KPAE 121953Z VRB03KT 10SM SCT002 17/12 A3019 RMK AO2 SLP251 T01720122=
200609121919 SPECI KPAE 121919Z 36005KT 10SM SCT002 16/12 A3021 RMK AO2=
200609121919 SPECI KPAE 121919Z 36005KT 10SM SCT002 16/12 A3021 RMK AO2=
200609121906 SPECI KPAE 121906Z 36006KT 3SM HZ OVC002 15/12 A3021 RMK AO2=
200609121906 SPECI KPAE 121906Z 36006KT 3SM HZ OVC002 15/12 A3021 RMK AO2=
200609121858 SPECI KPAE 121858Z VRB06KT 1 3/4SM BR BKN002 14/12 A3021 RMK AO2 VIS 3/4V5=
200609121858 SPECI KPAE 121858Z VRB06KT 1 3/4SM BR BKN002 14/12 A3021 RMK AO2 VIS 3/4V5=
200609121853 METAR KPAE 121853Z 36007KT 320V030 3SM BR BKN002 14/12 A3021 RMK AO2 SLP260 T01390117=
200609121753 METAR KPAE 121753Z VRB03KT 10SM FEW001 16/12 A3020 RMK AO2 SLP256 T01560117 10156 20111 53004=
200609121716 SPECI KPAE 121716Z VRB05KT 10SM FEW001 14/12 A3020 RMK AO2=
200609121716 SPECI KPAE 121716Z VRB05KT 10SM FEW001 14/12 A3020 RMK AO2=
200609121700 SPECI KPAE 121700Z 36004KT 3SM BR BKN001 13/12 A3020 RMK AO2 FOGBANK N-SE=
200609121700 SPECI KPAE 121700Z 36004KT 3SM BR BKN001 13/12 A3020 RMK AO2 FOGBANK N-SE=
200609121653 METAR KPAE 121653Z 34005KT 1/2SM FG OVC001 13/12 A3019 RMK AO2 SLP253 T01280117=
200609121640 SPECI KPAE 121640Z 34005KT 3/4SM BR OVC001 13/12 A3019 RMK AO2=
200609121640 SPECI KPAE 121640Z 34005KT 3/4SM BR OVC001 13/12 A3019 RMK AO2=
200609121628 SPECI KPAE 121628Z 35004KT 1 3/4SM BR BKN001 13/12 A3019 RMK AO2=
200609121628 SPECI KPAE 121628Z 35004KT 1 3/4SM BR BKN001 13/12 A3019 RMK AO2=
200609121624 SPECI KPAE 121624Z 36005KT 3SM BR BKN001 13/12 A3018 RMK AO2=
200609121624 SPECI KPAE 121624Z 36005KT 3SM BR BKN001 13/12 A3018 RMK AO2=
200609121608 SPECI KPAE 121608Z 33006KT 10SM FEW001 13/12 A3019 RMK AO2=
200609121608 SPECI KPAE 121608Z 33006KT 10SM FEW001 13/12 A3019 RMK AO2=
200609121600 SPECI KPAE 121600Z VRB04KT 10SM BKN001 13/12 A3019 RMK AO2=
200609121600 SPECI KPAE 121600Z VRB04KT 10SM BKN001 13/12 A3019 RMK AO2=
200609121553 METAR KPAE 121553Z VRB04KT 10SM FEW001 13/12 A3019 RMK AO2 SLP252 T01280117=
200609121538 SPECI KPAE 121538Z VRB03KT 10SM FEW001 13/12 A3019 RMK AO2=
200609121538 SPECI KPAE 121538Z VRB03KT 10SM FEW001 13/12 A3019 RMK AO2=
200609121535 SPECI KPAE 121535Z VRB03KT 1SM BR VV001 13/12 A3019 RMK AO2=
200609121535 SPECI KPAE 121535Z VRB03KT 1SM BR VV001 13/12 A3019 RMK AO2=
200609121453 METAR KPAE 121453Z VRB03KT M1/4SM FG VV001 12/12 A3019 RMK AO2 SLP252 T01170117 53003=
200609121353 METAR KPAE 121353Z 33005KT 1/4SM FG VV001 12/11 A3018 RMK AO2 SLP248 T01170111=
200609121258 SPECI KPAE 121258Z VRB06KT 1/4SM FG VV001 12/12 A3018 RMK AO2=
200609121258 SPECI KPAE 121258Z VRB06KT 1/4SM FG VV001 12/12 A3018 RMK AO2=
200609121253 METAR KPAE 121253Z VRB06KT 3/4SM BR OVC002 12/12 A3018 RMK AO2 SLP248 T01220117=
200609121247 SPECI KPAE 121247Z 34006KT 1 1/2SM BR OVC002 12/12 A3018 RMK AO2=
200609121247 SPECI KPAE 121247Z 34006KT 1 1/2SM BR OVC002 12/12 A3018 RMK AO2=
200609121223 SPECI KPAE 121223Z VRB03KT 8SM BKN002 12/12 A3018 RMK AO2=
200609121223 SPECI KPAE 121223Z VRB03KT 8SM BKN002 12/12 A3018 RMK AO2=
200609121213 SPECI KPAE 121213Z VRB05KT 9SM SCT002 12/12 A3018 RMK AO2=
200609121213 SPECI KPAE 121213Z VRB05KT 9SM SCT002 12/12 A3018 RMK AO2=
200609121153 METAR KPAE 121153Z VRB04KT 10SM CLR 13/12 A3018 RMK AO2 SLP246 T01280117 10150 20122 53003=
200609121053 METAR KPAE 121053Z 35004KT 10SM CLR 13/12 A3017 RMK AO2 SLP245 T01280117=
200609120953 METAR KPAE 120953Z 34005KT 10SM CLR 13/12 A3017 RMK AO2 SLP245 T01330117=
200609120853 METAR KPAE 120853Z VRB03KT 10SM CLR 13/12 A3017 RMK AO2 SLP244 T01280117 53003=
200609120753 METAR KPAE 120753Z 34008KT 10SM CLR 13/12 A3017 RMK AO2 SLP243 T01330117 402220100=
200609120653 METAR KPAE 120653Z 35005KT 10SM CLR 14/12 A3016 RMK AO2 SLP241 T01390117=
200609120553 METAR KPAE 120553Z VRB05KT 10SM CLR 15/11 A3016 RMK AO2 SLP241 T01500106 10222 20144 51005=
200609120453 METAR KPAE 120453Z 35005KT 10SM CLR 15/11 A3016 RMK AO2 SLP242 T01500106=
200609120353 METAR KPAE 120353Z 36006KT 10SM CLR 15/10 A3016 RMK AO2 SLP240 T01500100=
200609120253 METAR KPAE 120253Z VRB04KT 10SM CLR 16/08 A3014 RMK AO2 SLP237 T01610078 53001=
200609120153 METAR KPAE 120153Z 33005KT 10SM CLR 19/09 A3014 RMK AO2 SLP235 T01890094=
200609120053 METAR KPAE 120053Z 34006KT 10SM CLR 21/09 A3014 RMK AO2 SLP234 T02110094=
200609112353 METAR KPAE 112353Z VRB05KT 10SM CLR 22/10 A3014 RMK AO2 SLP234 T02220100 10222 20156 58010=
200609112253 METAR KPAE 112253Z 31006KT 10SM CLR 22/11 A3015 RMK AO2 SLP239 T02170106=
200609112153 METAR KPAE 112153Z 36005KT 10SM CLR 21/09 A3016 RMK AO2 SLP242 T02110094=
200609112053 METAR KPAE 112053Z 36005KT 10SM CLR 20/09 A3017 RMK AO2 SLP245 T02000094 58005=
200609111953 METAR KPAE 111953Z 34006KT 10SM CLR 19/09 A3018 RMK AO2 SLP248 T01890094=
200609111853 METAR KPAE 111853Z VRB05KT 10SM CLR 18/10 A3018 RMK AO2 SLP249 T01780100=
200609111753 METAR KPAE 111753Z VRB06KT 10SM CLR 16/11 A3018 RMK AO2 SLP250 T01560106 10161 20100 51006=
200609111653 METAR KPAE 111653Z 35005KT 10SM CLR 15/11 A3018 RMK AO2 SLP248 T01500111=
200609111553 METAR KPAE 111553Z VRB04KT 10SM CLR 14/11 A3018 RMK AO2 SLP247 T01390106=
200609111453 METAR KPAE 111453Z 36005KT 5SM BR SCT002 11/10 A3017 RMK AO2 SLP244 T01110100 53012=
200609111443 SPECI KPAE 111443Z 36004KT 5SM BR SCT002 11/10 A3016 RMK AO2=
200609111443 SPECI KPAE 111443Z 36004KT 5SM BR SCT002 11/10 A3016 RMK AO2=
200609111413 SPECI KPAE 111413Z 34004KT 5SM BR BKN002 10/09 A3016 RMK AO2=
200609111413 SPECI KPAE 111413Z 34004KT 5SM BR BKN002 10/09 A3016 RMK AO2=
200609111404 SPECI KPAE 111404Z 34003KT 6SM BR SCT002 10/09 A3015 RMK AO2=
200609111404 SPECI KPAE 111404Z 34003KT 6SM BR SCT002 10/09 A3015 RMK AO2=
200609111353 METAR KPAE 111353Z 35003KT 6SM BR CLR 10/09 A3015 RMK AO2 SLP239 T01000089=
200609111253 METAR KPAE 111253Z 33003KT 10SM CLR 10/08 A3014 RMK AO2 SLP236 T01000083=
200609111153 METAR KPAE 111153Z 34003KT 10SM CLR 10/09 A3013 RMK AO2 SLP231 T01000089 10122 20100 51003=
200609111053 METAR KPAE 111053Z 32005KT 10SM CLR 11/08 A3013 RMK AO2 SLP230 T01060083=
200609110953 METAR KPAE 110953Z 35003KT 10SM CLR 11/08 A3012 RMK AO2 SLP229 T01110078=
200609110853 METAR KPAE 110853Z 34004KT 10SM CLR 12/08 A3012 RMK AO2 SLP228 T01170078 58001=
200609110753 METAR KPAE 110753Z 34004KT 10SM CLR 12/08 A3012 RMK AO2 SLP229 T01220078 402000100=
200609110653 METAR KPAE 110653Z 00000KT 10SM CLR 12/08 A3012 RMK AO2 SLP228 T01220078=
200609110553 METAR KPAE 110553Z 35005KT 10SM CLR 12/08 A3012 RMK AO2 SLP229 T01220078 10189 20122 50003=
200609110453 METAR KPAE 110453Z 01006KT 10SM CLR 12/08 A3013 RMK AO2 SLP230 T01220083=
200609110353 METAR KPAE 110353Z 34006KT 10SM CLR 14/07 A3012 RMK AO2 SLP228 T01390067=
200609110253 METAR KPAE 110253Z 32004KT 10SM CLR 15/07 A3012 RMK AO2 SLP227 T01500067 53001=
200609110153 METAR KPAE 110153Z VRB04KT 10SM CLR 17/09 A3011 RMK AO2 SLP223 T01720089=
200609110053 METAR KPAE 110053Z VRB05KT 10SM CLR 18/08 A3010 RMK AO2 SLP223 T01830083=
200609102353 METAR KPAE 102353Z 35007KT 10SM CLR 18/09 A3011 RMK AO2 SLP225 T01830089 10200 20156 58008=
200609102253 METAR KPAE 102253Z AUTO 36004KT 10SM CLR 20/09 A3012 RMK AO2 SLP227 T02000089 TSNO=
200609102153 METAR KPAE 102153Z VRB06KT 10SM CLR 19/09 A3013 RMK AO2 SLP231 T01890094=
200609102053 METAR KPAE 102053Z 28006KT 10SM CLR 18/09 A3013 RMK AO2 SLP233 T01780094 56005=
200609101953 METAR KPAE 101953Z VRB04KT 10SM CLR 18/08 A3014 RMK AO2 SLP233 T01830083=
200609101853 METAR KPAE 101853Z 00000KT 10SM CLR 18/09 A3014 RMK AO2 SLP236 T01780089=
200609101753 METAR KPAE 101753Z 36005KT 10SM CLR 16/08 A3015 RMK AO2 SLP238 T01560083 10161 20100 50003=
200609101653 METAR KPAE 101653Z VRB03KT 10SM CLR 15/09 A3015 RMK AO2 SLP239 T01500089=
200609101553 METAR KPAE 101553Z 01005KT 10SM CLR 13/08 A3015 RMK AO2 SLP240 T01330083=
200609101453 METAR KPAE 101453Z 01004KT 10SM CLR 12/08 A3014 RMK AO2 SLP236 T01220083 53006=
200609101353 METAR KPAE 101353Z 00000KT 10SM CLR 11/08 A3013 RMK AO2 SLP233 T01060078=
200609101253 METAR KPAE 101253Z AUTO 00000KT 10SM CLR 11/08 A3012 RMK AO2 SLP230 T01060083=
200609101153 METAR KPAE 101153Z AUTO 32003KT 10SM CLR 11/09 A3012 RMK AO2 SLP229 70021 T01060089 10128 20106 51004=
200609101053 METAR KPAE 101053Z AUTO 01004KT 10SM OVC031 12/09 A3011 RMK AO2 SLP225 T01170089=
200609100953 METAR KPAE 100953Z AUTO VRB03KT 10SM OVC031 12/09 A3012 RMK AO2 SLP228 T01220089=
200609100853 METAR KPAE 100853Z AUTO 00000KT 10SM BKN031 12/09 A3011 RMK AO2 SLP224 T01220089 50004=
200609100753 METAR KPAE 100753Z AUTO 33005KT 10SM OVC049 12/09 A3011 RMK AO2 SLP225 T01220094 401610122=
200609100653 METAR KPAE 100653Z AUTO VRB06KT 10SM OVC041 12/09 A3010 RMK AO2 SLP221 T01220089=
200609100553 METAR KPAE 100553Z AUTO VRB05KT 10SM OVC037 13/08 A3009 RMK AO2 SLP219 T01280083 10150 20122 51007=
200609100453 METAR KPAE 100453Z AUTO VRB05KT 10SM OVC033 12/08 A3009 RMK AO2 SLP219 T01220078=
200609100353 METAR KPAE 100353Z VRB05KT 10SM OVC038 12/07 A3008 RMK AO2 SLP215 T01220072=
200609100253 METAR KPAE 100253Z VRB06KT 10SM FEW030 BKN036 OVC075 13/07 A3007 RMK AO2 SLP213 T01280072 53009=
200609100153 METAR KPAE 100153Z VRB06KT 10SM FEW036 SCT048 OVC075 13/08 A3006 RMK AO2 SLP208 T01330083=
200609100053 METAR KPAE 100053Z AUTO 01008KT 10SM FEW014 BKN048 OVC075 14/10 A3005 RMK AO2 SLP204 T01390100 TSNO=
200609100026 SPECI KPAE 100026Z AUTO 35010KT 10SM SCT014 BKN041 OVC080 14/10 A3004 RMK AO2 TSNO=
200609100026 SPECI KPAE 100026Z AUTO 35010KT 10SM SCT014 BKN041 OVC080 14/10 A3004 RMK AO2 TSNO=
200609092353 METAR KPAE 092353Z COR 35008KT 10SM SCT010 BKN015 OVC080 15/11 A3004 RMK AO2 SLP202 60002 T01500106 10161 20133 51008=
200609092342 SPECI KPAE 092342Z 34005KT 10SM SCT008 SCT031 OVC080 16/12 A3004 RMK AO2=
200609092342 SPECI KPAE 092342Z 34005KT 10SM SCT008 SCT031 OVC080 16/12 A3004 RMK AO2=
200609092253 METAR KPAE 092253Z 35007KT 10SM FEW055 BKN080 16/12 A3004 RMK AO2 SLP201 T01560122=
200609092153 METAR KPAE 092153Z VRB05KT 10SM FEW004 OVC046 14/13 A3003 RMK AO2 SLP197 T01440128=
200609092053 METAR KPAE 092053Z 00000KT 10SM SCT034 OVC043 15/13 A3002 RMK AO2 RAE07 SLP194 P0000 60002 T01500128 51010=
200609092037 SPECI KPAE 092037Z 00000KT 10SM BKN030 OVC034 15/12 A3002 RMK AO2 RAE07 P0000=
200609092037 SPECI KPAE 092037Z 00000KT 10SM BKN030 OVC034 15/12 A3002 RMK AO2 RAE07 P0000=
200609092016 SPECI KPAE 092016Z VRB03KT 10SM SCT012 BKN021 OVC032 14/12 A3002 RMK AO2 RAE07 P0000=
200609092016 SPECI KPAE 092016Z VRB03KT 10SM SCT012 BKN021 OVC032 14/12 A3002 RMK AO2 RAE07 P0000=
200609092003 SPECI KPAE 092003Z 00000KT 5SM -RA BR BKN013 OVC021 14/12 A3002 RMK AO2 P0000=
200609092003 SPECI KPAE 092003Z 00000KT 5SM -RA BR BKN013 OVC021 14/12 A3002 RMK AO2 P0000=
200609091953 METAR KPAE 091953Z 00000KT 2 1/2SM -RA BR BKN011 OVC016 13/12 A3001 RMK AO2 RAB03 SLP192 P0002 T01330122=
200609091853 METAR KPAE 091853Z 18005KT 10SM SCT007 BKN010 OVC018 14/12 A3000 RMK AO2 SLP188 T01390122=
200609091843 SPECI KPAE 091843Z 20004KT 10SM SCT007 BKN010 OVC018 14/12 A3000 RMK AO2=
200609091843 SPECI KPAE 091843Z 20004KT 10SM SCT007 BKN010 OVC018 14/12 A3000 RMK AO2=
200609091833 SPECI KPAE 091833Z 18006KT 10SM BKN007 OVC018 14/12 A3000 RMK AO2=
200609091833 SPECI KPAE 091833Z 18006KT 10SM BKN007 OVC018 14/12 A3000 RMK AO2=
200609091818 SPECI KPAE 091818Z 17008KT 10SM SCT007 OVC018 14/12 A3000 RMK AO2=
200609091818 SPECI KPAE 091818Z 17008KT 10SM SCT007 OVC018 14/12 A3000 RMK AO2=
200609091808 SPECI KPAE 091808Z 17007KT 10SM SCT004 BKN010 OVC018 14/12 A2999 RMK AO2=
200609091808 SPECI KPAE 091808Z 17007KT 10SM SCT004 BKN010 OVC018 14/12 A2999 RMK AO2=
200609091753 METAR KPAE 091753Z 18008KT 9SM BKN008 OVC012 13/12 A2999 RMK AO2 RAE35 SLP184 P0001 60019 T01330122 10139 20128 53019=
200609091728 SPECI KPAE 091728Z 17006KT 4SM -RA BR BKN008 OVC012 13/12 A2998 RMK AO2 P0001=
200609091728 SPECI KPAE 091728Z 17006KT 4SM -RA BR BKN008 OVC012 13/12 A2998 RMK AO2 P0001=
200609091720 SPECI KPAE 091720Z 17007KT 2 1/2SM -RA BR FEW004 OVC012 13/12 A2998 RMK AO2 P0001=
200609091720 SPECI KPAE 091720Z 17007KT 2 1/2SM -RA BR FEW004 OVC012 13/12 A2998 RMK AO2 P0001=
200609091705 SPECI KPAE 091705Z 15004KT 2SM -RA BR OVC014 13/12 A2998 RMK AO2 P0001=
200609091705 SPECI KPAE 091705Z 15004KT 2SM -RA BR OVC014 13/12 A2998 RMK AO2 P0001=
200609091653 METAR KPAE 091653Z 00000KT 1 1/2SM -RA BR OVC014 13/12 A2997 RMK AO2 SLP176 P0004 T01330117=
200609091642 SPECI KPAE 091642Z 19003KT 2SM -RA BR BKN012 OVC018 13/12 A2996 RMK AO2 P0003=
200609091642 SPECI KPAE 091642Z 19003KT 2SM -RA BR BKN012 OVC018 13/12 A2996 RMK AO2 P0003=
200609091605 SPECI KPAE 091605Z 16003KT 1 3/4SM -RA BR FEW004 BKN014 OVC025 13/12 A2995 RMK AO2 P0001=
200609091605 SPECI KPAE 091605Z 16003KT 1 3/4SM -RA BR FEW004 BKN014 OVC025 13/12 A2995 RMK AO2 P0001=
200609091600 SPECI KPAE 091600Z 15004KT 2SM -RA BR FEW004 BKN016 OVC024 13/12 A2995 RMK AO2 P0000=
200609091600 SPECI KPAE 091600Z 15004KT 2SM -RA BR FEW004 BKN016 OVC024 13/12 A2995 RMK AO2 P0000=
200609091553 METAR KPAE 091553Z 15004KT 1 3/4SM -RA BR BKN016 OVC023 13/12 A2995 RMK AO2 SLP170 P0008 T01330122=
200609091550 SPECI KPAE 091550Z 16004KT 1 1/2SM -RA BR BKN016 OVC023 13/12 A2995 RMK AO2 P0008=
200609091550 SPECI KPAE 091550Z 16004KT 1 1/2SM -RA BR BKN016 OVC023 13/12 A2995 RMK AO2 P0008=
200609091544 SPECI KPAE 091544Z 14004KT 1 3/4SM -RA BR BKN005 BKN013 OVC024 13/12 A2995 RMK AO2 P0008=
200609091544 SPECI KPAE 091544Z 14004KT 1 3/4SM -RA BR BKN005 BKN013 OVC024 13/12 A2995 RMK AO2 P0008=
200609091531 SPECI KPAE 091531Z 15006KT 3SM -RA BR BKN005 OVC024 13/12 A2995 RMK AO2 P0007=
200609091531 SPECI KPAE 091531Z 15006KT 3SM -RA BR BKN005 OVC024 13/12 A2995 RMK AO2 P0007=
200609091527 SPECI KPAE 091527Z 18006KT 1 3/4SM -RA BR SCT005 OVC024 13/12 A2995 RMK AO2 P0007=
200609091527 SPECI KPAE 091527Z 18006KT 1 3/4SM -RA BR SCT005 OVC024 13/12 A2995 RMK AO2 P0007=
200609091522 SPECI KPAE 091522Z 21005KT 3/4SM -RA BR BKN005 OVC024 13/12 A2995 RMK AO2 CIG 002V008 P0007=
200609091522 SPECI KPAE 091522Z 21005KT 3/4SM -RA BR BKN005 OVC024 13/12 A2995 RMK AO2 CIG 002V008 P0007=
200609091511 SPECI KPAE 091511Z 28007KT 1 3/4SM -RA BR OVC005 13/12 A2994 RMK AO2 CIG 003V008 P0001=
200609091511 SPECI KPAE 091511Z 28007KT 1 3/4SM -RA BR OVC005 13/12 A2994 RMK AO2 CIG 003V008 P0001=
200609091501 SPECI KPAE 091501Z 19005KT 2SM -RA BR BKN005 BKN010 OVC019 13/12 A2994 RMK AO2 CIG 003V008 P0000=
200609091501 SPECI KPAE 091501Z 19005KT 2SM -RA BR BKN005 BKN010 OVC019 13/12 A2994 RMK AO2 CIG 003V008 P0000=
200609091453 METAR KPAE 091453Z 18007KT 1 3/4SM -RA BR BKN005 BKN010 OVC019 13/12 A2993 RMK AO2 SLP164 P0006 60006 T01280122 53016=
200609091443 SPECI KPAE 091443Z 17007KT 1 3/4SM -RA BR BKN005 BKN011 OVC018 13/12 A2993 RMK AO2 CIG 004V008 P0005=
200609091443 SPECI KPAE 091443Z 17007KT 1 3/4SM -RA BR BKN005 BKN011 OVC018 13/12 A2993 RMK AO2 CIG 004V008 P0005=
200609091438 SPECI KPAE 091438Z AUTO 17008KT 2SM -RA BR SCT005 BKN011 OVC018 13/12 A2993 RMK AO2 P0005=
200609091438 SPECI KPAE 091438Z AUTO 17008KT 2SM -RA BR SCT005 BKN011 OVC018 13/12 A2993 RMK AO2 P0005=
200609091425 SPECI KPAE 091425Z AUTO 17008KT 1 1/2SM -RA BR BKN007 OVC014 13/12 A2992 RMK AO2 CIG 004V010 P0004=
200609091425 SPECI KPAE 091425Z AUTO 17008KT 1 1/2SM -RA BR BKN007 OVC014 13/12 A2992 RMK AO2 CIG 004V010 P0004=
200609091404 SPECI KPAE 091404Z AUTO 18008KT 2SM RA BR OVC005 13/12 A2992 RMK AO2 CIG 004V009 P0003=
200609091404 SPECI KPAE 091404Z AUTO 18008KT 2SM RA BR OVC005 13/12 A2992 RMK AO2 CIG 004V009 P0003=
200609091353 METAR KPAE 091353Z AUTO 18009KT 6SM -RA BR OVC005 13/12 A2991 RMK AO2 RAE03B49 SLP156 P0000 T01330117=
200609091253 METAR KPAE 091253Z AUTO 17009KT 3SM -RA BR BKN007 OVC011 13/12 A2990 RMK AO2 RAB52 CIG 003V010 SLP152 P0000 T01330122=
200609091153 METAR KPAE 091153Z AUTO 17009KT 10SM OVC005 14/13 A2988 RMK AO2 RAB1056E19 CIG 003V009 SLP147 P0001 60009 70009 T01390128 10156 20133 53005=
200609091114 SPECI KPAE 091114Z AUTO 18009KT 6SM -RA BR OVC005 14/13 A2988 RMK AO2 RAB1056 CIG 002V008 P0001=
200609091114 SPECI KPAE 091114Z AUTO 18009KT 6SM -RA BR OVC005 14/13 A2988 RMK AO2 RAB1056 CIG 002V008 P0001=
200609091101 SPECI KPAE 091101Z AUTO 18009KT 2 1/2SM -RA BR BKN005 OVC010 14/13 A2987 RMK AO2 RAB1056 CIG 002V009 P0000=
200609091101 SPECI KPAE 091101Z AUTO 18009KT 2 1/2SM -RA BR BKN005 OVC010 14/13 A2987 RMK AO2 RAB1056 CIG 002V009 P0000=
200609091053 METAR KPAE 091053Z AUTO 20007KT 3SM BR BKN007 OVC010 14/13 A2987 RMK AO2 RAE40 CIG 003V009 SLP143 P0004 T01390133=
200609091039 SPECI KPAE 091039Z AUTO 19006KT 3SM -RA BR BKN007 OVC010 14/13 A2987 RMK AO2 CIG 003V009 P0004=
200609091039 SPECI KPAE 091039Z AUTO 19006KT 3SM -RA BR BKN007 OVC010 14/13 A2987 RMK AO2 CIG 003V009 P0004=
200609091021 SPECI KPAE 091021Z AUTO 19008KT 2SM -RA BR FEW003 BKN007 OVC017 14/13 A2987 RMK AO2 P0004=
200609091021 SPECI KPAE 091021Z AUTO 19008KT 2SM -RA BR FEW003 BKN007 OVC017 14/13 A2987 RMK AO2 P0004=
200609091008 SPECI KPAE 091008Z AUTO 15007KT 4SM -RA BR BKN005 BKN010 OVC017 14/13 A2987 RMK AO2 P0002=
200609091008 SPECI KPAE 091008Z AUTO 15007KT 4SM -RA BR BKN005 BKN010 OVC017 14/13 A2987 RMK AO2 P0002=
200609090958 SPECI KPAE 090958Z AUTO 16005KT 3SM RA BR FEW005 BKN010 OVC017 14/13 A2987 RMK AO2 P0001=
200609090958 SPECI KPAE 090958Z AUTO 16005KT 3SM RA BR FEW005 BKN010 OVC017 14/13 A2987 RMK AO2 P0001=
200609090953 METAR KPAE 090953Z AUTO 17006KT 2 1/2SM RA BR BKN008 OVC017 14/13 A2987 RMK AO2 RAB0856 SLP141 P0004 T01440133=
200609090948 SPECI KPAE 090948Z AUTO 17004KT 2 1/2SM RA BR OVC008 14/13 A2987 RMK AO2 RAB0856 CIG 004V012 P0003=
200609090948 SPECI KPAE 090948Z AUTO 17004KT 2 1/2SM RA BR OVC008 14/13 A2987 RMK AO2 RAB0856 CIG 004V012 P0003=
200609090853 METAR KPAE 090853Z AUTO 17006KT 10SM OVC012 15/12 A2987 RMK AO2 RAB12E39 SLP140 P0000 60000 T01500122 50009=
200609090753 METAR KPAE 090753Z AUTO 21003KT 10SM OVC014 15/12 A2987 RMK AO2 SLP143 T01500117 402060100=
200609090733 SPECI KPAE 090733Z AUTO 17007KT 10SM OVC014 16/12 A2987 RMK AO2=
200609090733 SPECI KPAE 090733Z AUTO 17007KT 10SM OVC014 16/12 A2987 RMK AO2=
200609090726 SPECI KPAE 090726Z AUTO 18006KT 10SM BKN017 OVC075 16/12 A2987 RMK AO2=
200609090726 SPECI KPAE 090726Z AUTO 18006KT 10SM BKN017 OVC075 16/12 A2987 RMK AO2=
200609090653 METAR KPAE 090653Z AUTO 12005KT 10SM FEW044 OVC060 16/12 A2985 RMK AO2 SLP137 T01560117=
200609090553 METAR KPAE 090553Z AUTO VRB04KT 10SM CLR 14/12 A2984 RMK AO2 SLP133 T01440117 10206 20144 51008=
200609090453 METAR KPAE 090453Z AUTO VRB04KT 10SM BKN070 16/11 A2984 RMK AO2 SLP132 T01560111=
200609090353 METAR KPAE 090353Z 00000KT 10SM CLR 17/11 A2983 RMK AO2 SLP130 T01670111=
200609090253 METAR KPAE 090253Z 01003KT 10SM CLR 16/11 A2981 RMK AO2 SLP124 T01610111 53003=
200609090153 METAR KPAE 090153Z 33004KT 10SM CLR 18/09 A2981 RMK AO2 SLP123 T01830094=
200609090053 METAR KPAE 090053Z AUTO 00000KT 10SM CLR 20/09 A2980 RMK AO2 SLP120 T02000089 TSNO=
200609082353 METAR KPAE 082353Z AUTO 27006KT 10SM CLR 21/10 A2981 RMK AO2 SLP120 T02060100 10206 20111 56012 TSNO=
200609082253 METAR KPAE 082253Z 24007KT 10SM CLR 20/11 A2981 RMK AO2 SLP122 T02000106=
200609082153 METAR KPAE 082153Z 25008KT 10SM CLR 19/11 A2983 RMK AO2 SLP129 T01890106=
200609082053 METAR KPAE 082053Z 22006KT 10SM CLR 17/11 A2984 RMK AO2 SLP133 T01670106 58005=
200609081953 METAR KPAE 081953Z VRB04KT 10SM SCT003 15/11 A2985 RMK AO2 SLP136 T01500106=
200609081910 SPECI KPAE 081910Z 23006KT 7SM SCT003 14/11 A2986 RMK AO2=
200609081910 SPECI KPAE 081910Z 23006KT 7SM SCT003 14/11 A2986 RMK AO2=
200609081901 SPECI KPAE 081901Z 26006KT 6SM HZ BKN005 13/10 A2985 RMK AO2 CIG 002V007=
200609081901 SPECI KPAE 081901Z 26006KT 6SM HZ BKN005 13/10 A2985 RMK AO2 CIG 002V007=
200609081853 METAR KPAE 081853Z 23006KT 5SM HZ OVC003 13/10 A2985 RMK AO2 CIG 002V007 SLP139 T01280100=
200609081848 SPECI KPAE 081848Z 23008KT 5SM HZ OVC003 13/10 A2986 RMK AO2 CIG 001V007=
200609081848 SPECI KPAE 081848Z 23008KT 5SM HZ OVC003 13/10 A2986 RMK AO2 CIG 001V007=
200609081831 SPECI KPAE 081831Z 24005KT 1 1/2SM BR OVC001 12/10 A2986 RMK AO2=
200609081831 SPECI KPAE 081831Z 24005KT 1 1/2SM BR OVC001 12/10 A2986 RMK AO2=
200609081823 SPECI KPAE 081823Z 22006KT 2SM BR OVC001 12/10 A2986 RMK AO2=
200609081823 SPECI KPAE 081823Z 22006KT 2SM BR OVC001 12/10 A2986 RMK AO2=
200609081815 SPECI KPAE 081815Z 22005KT 3/4SM BR OVC001 11/11 A2987 RMK AO2=
200609081815 SPECI KPAE 081815Z 22005KT 3/4SM BR OVC001 11/11 A2987 RMK AO2=
200609081753 METAR KPAE 081753Z 23009KT 1/4SM FG OVC003 11/10 A2987 RMK AO2 SLP143 T01110100 10128 20100 58001=
200609081733 SPECI KPAE 081733Z 18007KT 1 3/4SM BR OVC005 12/10 A2987 RMK AO2=
200609081733 SPECI KPAE 081733Z 18007KT 1 3/4SM BR OVC005 12/10 A2987 RMK AO2=
200609081653 METAR KPAE 081653Z 16003KT 1 3/4SM BR OVC003 12/10 A2987 RMK AO2 SLP143 T01170100=
200609081555 SPECI KPAE 081555Z 17005KT 1 3/4SM BR OVC003 12/10 A2987 RMK AO2=
200609081555 SPECI KPAE 081555Z 17005KT 1 3/4SM BR OVC003 12/10 A2987 RMK AO2=
200609081553 METAR KPAE 081553Z 18007KT 2SM BR OVC001 12/11 A2987 RMK AO2 SLP144 T01170106=
200609081540 SPECI KPAE 081540Z 18007KT 1 3/4SM BR OVC001 11/11 A2987 RMK AO2=
200609081540 SPECI KPAE 081540Z 18007KT 1 3/4SM BR OVC001 11/11 A2987 RMK AO2=
200609081524 SPECI KPAE 081524Z 14006KT 2 1/2SM BR OVC001 11/11 A2987 RMK AO2=
200609081524 SPECI KPAE 081524Z 14006KT 2 1/2SM BR OVC001 11/11 A2987 RMK AO2=
200609081500 SPECI KPAE 081500Z 12006KT 1 1/4SM BR OVC001 11/10 A2987 RMK AO2=
200609081500 SPECI KPAE 081500Z 12006KT 1 1/4SM BR OVC001 11/10 A2987 RMK AO2=
200609081453 METAR KPAE 081453Z 15006KT 1/2SM FG OVC001 11/10 A2987 RMK AO2 SLP144 T01110100 51004=
200609081353 METAR KPAE 081353Z 00000KT 1/2SM FG OVC001 10/10 A2987 RMK AO2 SLP143 T01000100=
200609081253 METAR KPAE 081253Z VRB04KT 1/2SM FG VV001 10/10 A2987 RMK AO2 SLP141 T01000100=
200609081216 SPECI KPAE 081216Z VRB05KT 3/4SM BR VV001 10/10 A2986 RMK AO2=
200609081216 SPECI KPAE 081216Z VRB05KT 3/4SM BR VV001 10/10 A2986 RMK AO2=
200609081206 SPECI KPAE 081206Z 35005KT 1/4SM FG VV001 10/10 A2986 RMK AO2=
200609081206 SPECI KPAE 081206Z 35005KT 1/4SM FG VV001 10/10 A2986 RMK AO2=
200609081153 METAR KPAE 081153Z 35005KT 1/2SM FG VV001 11/10 A2986 RMK AO2 SLP139 T01060100 10133 20100 58002=
200609081053 METAR KPAE 081053Z 01004KT 1/4SM FG VV001 11/10 A2986 RMK AO2 SLP140 T01060100=
200609081042 SPECI KPAE 081042Z VRB03KT 1/4SM FG VV001 11/10 A2986 RMK AO2=
200609081042 SPECI KPAE 081042Z VRB03KT 1/4SM FG VV001 11/10 A2986 RMK AO2=
200609081031 SPECI KPAE 081031Z 35005KT 3/4SM BR VV001 11/10 A2986 RMK AO2=
200609081031 SPECI KPAE 081031Z 35005KT 3/4SM BR VV001 11/10 A2986 RMK AO2=
200609081028 SPECI KPAE 081028Z 35005KT 2 1/2SM BR FEW002 11/09 A2986 RMK AO2=
200609081028 SPECI KPAE 081028Z 35005KT 2 1/2SM BR FEW002 11/09 A2986 RMK AO2=
200609080953 METAR KPAE 080953Z 00000KT 6SM BR CLR 11/10 A2986 RMK AO2 SLP140 T01110100=
200609080853 METAR KPAE 080853Z 00000KT 10SM CLR 12/11 A2987 RMK AO2 SLP141 T01220106 56005=
200609080753 METAR KPAE 080753Z 02003KT 10SM CLR 13/11 A2987 RMK AO2 SLP142 T01280106 402170094=
200609080653 METAR KPAE 080653Z 35004KT 10SM CLR 12/11 A2988 RMK AO2 SLP146 T01220106=
200609080553 METAR KPAE 080553Z 36003KT 10SM CLR 13/10 A2988 RMK AO2 SLP147 T01330100 10217 20133 58003=
200609080453 METAR KPAE 080453Z 35004KT 10SM CLR 14/10 A2989 RMK AO2 SLP148 T01390100=
200609080353 METAR KPAE 080353Z VRB03KT 10SM CLR 16/11 A2989 RMK AO2 SLP151 T01560111=
200609080253 METAR KPAE 080253Z 35003KT 10SM CLR 16/11 A2989 RMK AO2 SLP150 T01610111 56016=
200609080153 METAR KPAE 080153Z 28004KT 10SM CLR 21/09 A2990 RMK AO2 SLP152 T02060089=
200609080053 METAR KPAE 080053Z 28004KT 10SM CLR 21/09 A2992 RMK AO2 SLP158 T02110089=
200609072353 METAR KPAE 072353Z VRB03KT 10SM CLR 21/09 A2994 RMK AO2 SLP166 T02060089 10206 20128 58024=
200609072253 METAR KPAE 072253Z 23006KT 10SM CLR 20/09 A2997 RMK AO2 SLP175 T02000089=
200609072153 METAR KPAE 072153Z 25008KT 10SM CLR 19/11 A2999 RMK AO2 SLP183 T01940106=
200609072053 METAR KPAE 072053Z 25005KT 10SM BCFG CLR 19/11 A3001 RMK AO2 SLP191 T01890111 58020=
200609071953 METAR KPAE 071953Z 22005KT 9SM BCFG SCT001 16/11 A3004 RMK AO2 SLP200 T01610111=
200609071853 METAR KPAE 071853Z 26006KT 3SM BCFG SCT001 13/11 A3006 RMK AO2 SLP209 T01330106=
200609071753 METAR KPAE 071753Z 26008KT 6SM BCFG FEW001 14/11 A3007 RMK AO2 SLP212 T01440111 10150 20094 58007=
200609071700 METAR KPAE NIL=
200609071653 METAR KPAE 071653Z 22004KT 3SM BCFG SCT001 13/11 A3008 RMK AO2 SLP215 T01280111=
200609071553 METAR KPAE 071553Z 25003KT 3SM BCFG SCT001 12/11 A3009 RMK AO2 SLP219 T01170106=
200609071547 SPECI KPAE 071547Z 24003KT 2SM BR BKN001 12/11 A3009 RMK AO2=
200609071547 SPECI KPAE 071547Z 24003KT 2SM BR BKN001 12/11 A3009 RMK AO2=
200609071543 SPECI KPAE 071543Z 23003KT 1 3/4SM BR SCT001 12/11 A3009 RMK AO2 VIS 3/4V3=
200609071543 SPECI KPAE 071543Z 23003KT 1 3/4SM BR SCT001 12/11 A3009 RMK AO2 VIS 3/4V3=
200609071527 SPECI KPAE 071527Z 24005KT 2 1/2SM BR FEW001 12/11 A3010 RMK AO2 VIS 1 1/2V5=
200609071527 SPECI KPAE 071527Z 24005KT 2 1/2SM BR FEW001 12/11 A3010 RMK AO2 VIS 1 1/2V5=
200609071453 METAR KPAE 071453Z 20003KT 9SM CLR 12/10 A3009 RMK AO2 SLP219 T01220100 55001=
200609071353 METAR KPAE 071353Z 09003KT 9SM CLR 11/09 A3009 RMK AO2 SLP217 T01110094=
200609071253 METAR KPAE 071253Z 00000KT 7SM CLR 11/09 A3009 RMK AO2 SLP218 T01060094=
200609071218 SPECI KPAE 071218Z 10004KT 5SM BR FEW001 SCT006 11/10 A3009 RMK AO2=
200609071218 SPECI KPAE 071218Z 10004KT 5SM BR FEW001 SCT006 11/10 A3009 RMK AO2=
200609071209 SPECI KPAE 071209Z 09003KT 2SM BR SCT001 BKN006 11/10 A3009 RMK AO2=
200609071209 SPECI KPAE 071209Z 09003KT 2SM BR SCT001 BKN006 11/10 A3009 RMK AO2=
200609071153 METAR KPAE 071153Z 10005KT 1/2SM FG BKN001 OVC006 10/10 A3010 RMK AO2 SLP219 T01000100 10144 20100 58002=
200609071151 SPECI KPAE 071151Z 11005KT 3/4SM BR BKN001 BKN006 10/10 A3010 RMK AO2=
200609071151 SPECI KPAE 071151Z 11005KT 3/4SM BR BKN001 BKN006 10/10 A3010 RMK AO2=
200609071143 SPECI KPAE 071143Z 12004KT 2SM BR BKN001 11/10 A3009 RMK AO2=
200609071143 SPECI KPAE 071143Z 12004KT 2SM BR BKN001 11/10 A3009 RMK AO2=
200609071135 SPECI KPAE 071135Z 12005KT 3/4SM BR VV001 11/10 A3010 RMK AO2=
200609071135 SPECI KPAE 071135Z 12005KT 3/4SM BR VV001 11/10 A3010 RMK AO2=
200609071126 SPECI KPAE 071126Z 14004KT 1SM BR VV001 11/10 A3010 RMK AO2 VIS 3/4V2 1/2=
200609071126 SPECI KPAE 071126Z 14004KT 1SM BR VV001 11/10 A3010 RMK AO2 VIS 3/4V2 1/2=
200609071119 SPECI KPAE 071119Z 11003KT 2 1/2SM BR SCT001 11/10 A3010 RMK AO2=
200609071119 SPECI KPAE 071119Z 11003KT 2 1/2SM BR SCT001 11/10 A3010 RMK AO2=
200609071114 SPECI KPAE 071114Z 00000KT 3SM BR BKN001 11/10 A3010 RMK AO2=
200609071114 SPECI KPAE 071114Z 00000KT 3SM BR BKN001 11/10 A3010 RMK AO2=
200609071107 SPECI KPAE 071107Z 00000KT 1SM BR VV001 11/10 A3010 RMK AO2=
200609071107 SPECI KPAE 071107Z 00000KT 1SM BR VV001 11/10 A3010 RMK AO2=
200609071053 METAR KPAE 071053Z 00000KT 1/4SM FG VV001 11/11 A3010 RMK AO2 SLP221 T01060106=
200609071002 SPECI KPAE 071002Z VRB04KT 1/4SM FG VV001 11/11 A3010 RMK AO2=
200609071002 SPECI KPAE 071002Z VRB04KT 1/4SM FG VV001 11/11 A3010 RMK AO2=
200609070953 METAR KPAE 070953Z VRB04KT 1 1/2SM BR BKN001 11/11 A3010 RMK AO2 VIS 1/2V5 SLP221 T01110106=
200609070949 SPECI KPAE 070949Z VRB03KT 5SM BR SCT001 11/11 A3010 RMK AO2=
200609070949 SPECI KPAE 070949Z VRB03KT 5SM BR SCT001 11/11 A3010 RMK AO2=
200609070853 METAR KPAE 070853Z 00000KT 10SM CLR 14/09 A3010 RMK AO2 SLP220 T01390094 58002=
200609070753 METAR KPAE 070753Z VRB04KT 10SM CLR 14/10 A3011 RMK AO2 SLP222 T01390100 402500122=
200609070653 METAR KPAE 070653Z VRB06KT 10SM CLR 14/10 A3011 RMK AO2 SLP223 T01390100=
200609070553 METAR KPAE 070553Z 35005KT 10SM CLR 14/10 A3011 RMK AO2 SLP224 T01390100 10244 20139 50002=
200609070453 METAR KPAE 070453Z 36004KT 10SM CLR 16/10 A3011 RMK AO2 SLP224 T01610100=
200609070353 METAR KPAE 070353Z 36005KT 10SM CLR 17/10 A3011 RMK AO2 SLP225 T01670100=
200609070253 METAR KPAE 070253Z 34004KT 10SM CLR 18/10 A3010 RMK AO2 SLP222 T01780100 56005=
200609070153 METAR KPAE 070153Z 33006KT 10SM CLR 21/09 A3010 RMK AO2 SLP222 T02060089=
200609070053 METAR KPAE 070053Z AUTO 35006KT 10SM CLR 22/09 A3011 RMK AO2 SLP223 T02220094 TSNO=
200609062353 METAR KPAE 062353Z AUTO 35005KT 10SM CLR 24/09 A3012 RMK AO2 SLP226 T02390094 10250 20189 58015 TSNO=
200609062253 METAR KPAE 062253Z 31004KT 10SM CLR 24/10 A3014 RMK AO2 SLP232 T02390100=
200609062153 METAR KPAE 062153Z VRB06KT 10SM CLR 24/11 A3015 RMK AO2 SLP237 T02390106=
200609062053 METAR KPAE 062053Z VRB03KT 10SM CLR 23/10 A3016 RMK AO2 SLP241 T02280100 58013=
200609061953 METAR KPAE 061953Z 26005KT 10SM CLR 21/10 A3018 RMK AO2 SLP245 T02110100=
200609061853 METAR KPAE 061853Z VRB05KT 10SM CLR 20/10 A3019 RMK AO2 SLP250 T02000100=
200609061753 METAR KPAE 061753Z VRB03KT 10SM CLR 19/09 A3020 RMK AO2 SLP254 T01890094 10194 20122 50003=
200609061653 METAR KPAE 061653Z 24004KT 10SM CLR 18/10 A3020 RMK AO2 SLP254 T01830100=
200609061553 METAR KPAE 061553Z 00000KT 10SM CLR 18/11 A3020 RMK AO2 SLP253 T01780106=
200609061453 METAR KPAE 061453Z 00000KT 10SM CLR 16/11 A3019 RMK AO2 SLP251 T01560111 53006=
200609061353 METAR KPAE 061353Z 00000KT 10SM CLR 12/10 A3018 RMK AO2 SLP249 T01220100=
200609061253 METAR KPAE 061253Z 01004KT 10SM CLR 13/10 A3018 RMK AO2 SLP245 T01330100=
200609061153 METAR KPAE 061153Z 35003KT 10SM CLR 13/09 A3017 RMK AO2 SLP245 70006 T01330094 10167 20133 55000=
200609061053 METAR KPAE 061053Z 00000KT 10SM CLR 14/09 A3017 RMK AO2 SLP245 T01390094=
200609060953 METAR KPAE 060953Z 00000KT 10SM CLR 14/09 A3017 RMK AO2 SLP244 T01390094=
200609060853 METAR KPAE 060853Z VRB03KT 10SM CLR 15/10 A3017 RMK AO2 SLP245 T01500100 50001=
200609060753 METAR KPAE 060753Z 00000KT 10SM CLR 16/10 A3018 RMK AO2 SLP246 T01560100 402440117=
200609060653 METAR KPAE 060653Z 36003KT 10SM CLR 15/11 A3017 RMK AO2 SLP245 T01500106=
200609060553 METAR KPAE 060553Z 34004KT 10SM CLR 16/10 A3017 RMK AO2 SLP245 T01610100 10244 20161 50002=
200609060500 METAR KPAE NIL=
200609060453 METAR KPAE 060453Z 35005KT 10SM CLR 17/10 A3017 RMK AO2 SLP245 T01670100=
200609060353 METAR KPAE 060353Z 34008KT 10SM CLR 18/10 A3017 RMK AO2 SLP244 T01780100=
200609060253 METAR KPAE 060253Z 32007KT 10SM CLR 19/11 A3016 RMK AO2 SLP242 T01940106 53001=
200609060153 METAR KPAE 060153Z 34007KT 10SM CLR 22/12 A3015 RMK AO2 SLP238 T02170117=
200609060053 METAR KPAE 060053Z 33007KT 310V010 10SM CLR 23/11 A3015 RMK AO2 SLP238 T02330111=
200609052353 METAR KPAE 052353Z 31010KT 10SM CLR 24/11 A3016 RMK AO2 SLP241 T02390111 10244 20161 56013=
200609052253 METAR KPAE 052253Z VRB06KT 10SM CLR 24/11 A3017 RMK AO2 SLP244 T02390106=
200609052153 METAR KPAE 052153Z VRB05KT 10SM CLR 23/10 A3019 RMK AO2 SLP249 T02280100=
200609052053 METAR KPAE 052053Z 33005KT 10SM CLR 22/10 A3020 RMK AO2 SLP254 T02220100 58010=
200609051953 METAR KPAE 051953Z 32006KT 10SM CLR 19/12 A3021 RMK AO2 SLP258 T01940117 $=
200609051853 METAR KPAE 051853Z VRB04KT 10SM CLR 18/12 A3022 RMK AO2 SLP262 T01830117 $=
200609051800 SPECI KPAE 051800Z 29005KT 10SM FEW002 17/12 A3023 RMK AO2 $=
200609051800 SPECI KPAE 051800Z 29005KT 10SM FEW002 17/12 A3023 RMK AO2 $=
200609051753 METAR KPAE 051753Z 28006KT 17/12 A3023 RMK AO2 SLP265 60006 T01670117 10167 20117 51000 $=
200609051653 METAR KPAE 051653Z AUTO VRB03KT 14/11 A3023 RMK AO2 SLP266 T01440111 PWINO $=
200609051628 SPECI KPAE 051628Z AUTO VRB03KT 10SM OVC003 A3023 RMK AO2 PWINO FZRANO $=
200609051628 SPECI KPAE 051628Z AUTO VRB03KT 10SM OVC003 A3023 RMK AO2 PWINO FZRANO $=
200609051553 METAR KPAE 051553Z AUTO VRB04KT 6SM BR OVC001 12/11 A3023 RMK AO2 SLP266 P0006 T01220111=
200609051550 SPECI KPAE 051550Z AUTO 31005KT 5SM BR OVC001 12/11 A3023 RMK AO2 P0003=
200609051522 SPECI KPAE 051522Z AUTO 34006KT 2SM BR OVC001 12/11 A3022 RMK AO2=
200609051522 SPECI KPAE 051522Z AUTO 34006KT 2SM BR OVC001 12/11 A3022 RMK AO2=
200609051453 METAR KPAE 051453Z AUTO VRB04KT 3/4SM BR VV001 12/12 A3022 RMK AO2 SLP263 T01170117 53015=
200609051410 SPECI KPAE 051410Z AUTO 36008KT 1/4SM FG OVC001 12/11 A3021 RMK AO2=
200609051410 SPECI KPAE 051410Z AUTO 36008KT 1/4SM FG OVC001 12/11 A3021 RMK AO2=
200609051401 SPECI KPAE 051401Z AUTO 36005KT 1 1/2SM BR OVC001 12/12 A3021 RMK AO2 VIS 1/2V5=
200609051401 SPECI KPAE 051401Z AUTO 36005KT 1 1/2SM BR OVC001 12/12 A3021 RMK AO2 VIS 1/2V5=
200609051353 METAR KPAE 051353Z AUTO VRB05KT 5SM BR OVC001 12/12 A3020 RMK AO2 SLP256 T01220117=
200609051341 SPECI KPAE 051341Z AUTO VRB04KT 4SM BR OVC001 12/12 A3020 RMK AO2=
200609051341 SPECI KPAE 051341Z AUTO VRB04KT 4SM BR OVC001 12/12 A3020 RMK AO2=
200609051330 SPECI KPAE 051330Z AUTO 01007KT 1 3/4SM BR OVC001 12/12 A3020 RMK AO2 VIS 1V4=
200609051330 SPECI KPAE 051330Z AUTO 01007KT 1 3/4SM BR OVC001 12/12 A3020 RMK AO2 VIS 1V4=
200609051321 SPECI KPAE 051321Z AUTO 36006KT 3SM BR OVC001 12/12 A3020 RMK AO2=
200609051321 SPECI KPAE 051321Z AUTO 36006KT 3SM BR OVC001 12/12 A3020 RMK AO2=
200609051312 SPECI KPAE 051312Z AUTO 01007KT 1 3/4SM BR OVC001 12/12 A3019 RMK AO2 VIS 1 1/4V5=
200609051312 SPECI KPAE 051312Z AUTO 01007KT 1 3/4SM BR OVC001 12/12 A3019 RMK AO2 VIS 1 1/4V5=
200609051259 SPECI KPAE 051259Z AUTO 01008KT 3SM BR OVC001 12/12 A3019 RMK AO2=
200609051259 SPECI KPAE 051259Z AUTO 01008KT 3SM BR OVC001 12/12 A3019 RMK AO2=
200609051253 METAR KPAE 051253Z AUTO 01007KT 1 3/4SM BR OVC001 12/12 A3019 RMK AO2 SLP251 T01220117=
200609051245 SPECI KPAE 051245Z AUTO 01009KT 1 3/4SM BR OVC001 12/12 A3018 RMK AO2 VIS 1V3=
200609051245 SPECI KPAE 051245Z AUTO 01009KT 1 3/4SM BR OVC001 12/12 A3018 RMK AO2 VIS 1V3=
200609051153 METAR KPAE 051153Z AUTO 01009KT 7SM OVC001 12/12 A3018 RMK AO2 SLP247 T01220117 10150 20117 53006=
200609051053 METAR KPAE 051053Z AUTO 36006KT 9SM BKN001 12/12 A3017 RMK AO2 SLP243 T01220117=
200609050953 METAR KPAE 050953Z AUTO 03007KT 4SM BR OVC001 12/11 A3016 RMK AO2 SLP241 T01220111=
200609050948 SPECI KPAE 050948Z AUTO 02006KT 3SM BR OVC001 12/11 A3016 RMK AO2=
200609050948 SPECI KPAE 050948Z AUTO 02006KT 3SM BR OVC001 12/11 A3016 RMK AO2=
200609050938 SPECI KPAE 050938Z AUTO VRB05KT 2 1/2SM BR OVC001 12/11 A3016 RMK AO2 VIS 1 1/4V4=
200609050938 SPECI KPAE 050938Z AUTO VRB05KT 2 1/2SM BR OVC001 12/11 A3016 RMK AO2 VIS 1 1/4V4=
200609050928 SPECI KPAE 050928Z AUTO VRB05KT 3SM BR OVC001 12/11 A3015 RMK AO2=
200609050928 SPECI KPAE 050928Z AUTO VRB05KT 3SM BR OVC001 12/11 A3015 RMK AO2=
200609050915 SPECI KPAE 050915Z AUTO 36008KT 1 3/4SM BR OVC001 12/11 A3015 RMK AO2=
200609050915 SPECI KPAE 050915Z AUTO 36008KT 1 3/4SM BR OVC001 12/11 A3015 RMK AO2=
200609050910 SPECI KPAE 050910Z AUTO 36007KT 4SM BR OVC001 12/11 A3015 RMK AO2=
200609050910 SPECI KPAE 050910Z AUTO 36007KT 4SM BR OVC001 12/11 A3015 RMK AO2=
200609050853 METAR KPAE 050853Z AUTO 01007KT 9SM BKN003 12/11 A3015 RMK AO2 SLP237 T01220111 51014=
200609050845 SPECI KPAE 050845Z AUTO 01007KT 10SM BKN003 12/11 A3015 RMK AO2=
200609050845 SPECI KPAE 050845Z AUTO 01007KT 10SM BKN003 12/11 A3015 RMK AO2=
200609050837 SPECI KPAE 050837Z AUTO 01007KT 10SM SCT003 12/11 A3015 RMK AO2=
200609050837 SPECI KPAE 050837Z AUTO 01007KT 10SM SCT003 12/11 A3015 RMK AO2=
200609050753 METAR KPAE 050753Z AUTO 01005KT 10SM CLR 13/11 A3014 RMK AO2 SLP235 T01280111 402220122=
200609050653 METAR KPAE 050653Z AUTO 03006KT 10SM CLR 14/10 A3012 RMK AO2 SLP229 T01390100=
200609050553 METAR KPAE 050553Z AUTO 03008KT 10SM CLR 14/10 A3011 RMK AO2 SLP223 T01440100 10200 20144 51018=
200609050453 METAR KPAE 050453Z 02006KT 10SM CLR 16/09 A3010 RMK AO2 SLP219 T01560094=
200609050353 METAR KPAE 050353Z 04006KT 10SM CLR 17/10 A3008 RMK AO2 SLP213 T01720100=
200609050253 METAR KPAE 050253Z VRB04KT 10SM CLR 18/07 A3005 RMK AO2 SLP205 T01830072 53008=
200609050153 METAR KPAE 050153Z VRB04KT 10SM CLR 18/11 A3005 RMK AO2 SLP202 T01830106=
200609050053 METAR KPAE 050053Z 33005KT 10SM CLR 19/10 A3004 RMK AO2 SLP199 T01940100=
200609042353 METAR KPAE 042353Z 34005KT 10SM CLR 19/11 A3003 RMK AO2 SLP197 T01940106 10222 20161 53003=
200609042253 METAR KPAE 042253Z 34004KT 10SM CLR 21/11 A3003 RMK AO2 SLP194 T02060111=
200609042153 METAR KPAE 042153Z VRB05KT 10SM CLR 22/11 A3003 RMK AO2 SLP193 T02220111=
200609042053 METAR KPAE 042053Z 28006KT 10SM CLR 21/10 A3002 RMK AO2 SLP192 T02110100 53001=
200609041953 METAR KPAE 041953Z VRB04KT 10SM CLR 19/10 A3001 RMK AO2 SLP190 T01940100=
200609041853 METAR KPAE 041853Z VRB04KT 10SM CLR 20/11 A3002 RMK AO2 SLP191 T02000111=
200609041753 METAR KPAE 041753Z 28004KT 10SM CLR 18/11 A3002 RMK AO2 SLP191 T01780111 10183 20122 51017=
200609041653 METAR KPAE 041653Z 00000KT 10SM CLR 16/09 A3000 RMK AO2 SLP186 T01560089=
200609041553 METAR KPAE 041553Z 00000KT 10SM CLR 13/11 A2999 RMK AO2 SLP181 T01330106=
200609041518 SPECI KPAE 041518Z VRB04KT 8SM SCT002 12/11 A2997 RMK AO2=
200609041518 SPECI KPAE 041518Z VRB04KT 8SM SCT002 12/11 A2997 RMK AO2=
200609041453 METAR KPAE 041453Z 36005KT 10SM CLR 13/11 A2997 RMK AO2 SLP174 T01280111 51011=
200609041353 METAR KPAE 041353Z 34003KT 10SM CLR 13/11 A2996 RMK AO2 SLP172 T01280106=
200609041253 METAR KPAE 041253Z AUTO 00000KT 10SM CLR 14/08 A2995 RMK AO2 SLP166 T01440083=
200609041153 METAR KPAE 041153Z AUTO 00000KT 10SM CLR 14/08 A2993 RMK AO2 SLP163 T01440083 10200 20144 53008=
200609041053 METAR KPAE 041053Z AUTO VRB04KT 10SM CLR 16/07 A2992 RMK AO2 SLP157 T01610072=
200609040953 METAR KPAE 040953Z AUTO VRB04KT 10SM CLR 17/07 A2991 RMK AO2 SLP154 T01720072=
200609040853 METAR KPAE 040853Z AUTO 04005KT 10SM CLR 17/09 A2991 RMK AO2 SLP153 T01720089 51011=
200609040753 METAR KPAE 040753Z AUTO VRB03KT 10SM CLR 17/09 A2990 RMK AO2 SLP149 T01670094 402610150=
200609040653 METAR KPAE 040653Z AUTO 00000KT 10SM CLR 19/09 A2989 RMK AO2 SLP147 T01890094=
200609040553 METAR KPAE 040553Z AUTO 00000KT 10SM CLR 18/09 A2988 RMK AO2 SLP143 T01780089 10256 20178 50008=
200609040453 METAR KPAE 040453Z AUTO 04003KT 10SM CLR 20/09 A2988 RMK AO2 SLP144 T02000089=
200609040353 METAR KPAE 040353Z 00000KT 10SM CLR 20/09 A2987 RMK AO2 SLP142 T02000094=
200609040253 METAR KPAE 040253Z 32003KT 10SM CLR 22/09 A2985 RMK AO2 SLP134 T02220094 53002=
200609040153 METAR KPAE 040153Z VRB03KT 10SM FEW085 24/09 A2984 RMK AO2 SLP130 T02390094=
200609040053 METAR KPAE 040053Z 33005KT 10SM CLR 25/09 A2984 RMK AO2 SLP130 T02500094=
200609032353 METAR KPAE 032353Z VRB03KT 10SM CLR 24/09 A2985 RMK AO2 SLP132 T02440094 10261 20206 57007=
200609032253 METAR KPAE 032253Z 32006KT 10SM CLR 26/09 A2985 RMK AO2 SLP132 T02610094=
200609032153 METAR KPAE 032153Z VRB05KT 10SM CLR 25/09 A2986 RMK AO2 SLP138 T02500089=
200609032053 METAR KPAE 032053Z 28004KT 10SM CLR 24/10 A2987 RMK AO2 SLP139 T02440100 58013=
200609031953 METAR KPAE 031953Z 27006KT 10SM CLR 23/10 A2988 RMK AO2 SLP143 T02330100=
200609031853 METAR KPAE 031853Z 26005KT 10SM CLR 22/08 A2990 RMK AO2 SLP149 T02220083=
200609031753 METAR KPAE 031753Z 00000KT 10SM CLR 21/08 A2991 RMK AO2 SLP152 T02110083 10211 20161 51003=
200609031653 METAR KPAE 031653Z VRB03KT 10SM CLR 20/08 A2991 RMK AO2 SLP152 T02000078=
200609031553 METAR KPAE 031553Z 31004KT 10SM CLR 18/08 A2991 RMK AO2 SLP152 T01780078=
200609031453 METAR KPAE 031453Z 35003KT 10SM CLR 18/08 A2990 RMK AO2 SLP149 T01780078 53002=
200609031353 METAR KPAE 031353Z 34003KT 10SM CLR 17/05 A2989 RMK AO2 SLP148 T01670050=
200609031253 METAR KPAE 031253Z AUTO 00000KT 10SM CLR 17/05 A2989 RMK AO2 SLP145 T01720050=
200609031153 METAR KPAE 031153Z AUTO 00000KT 10SM CLR 17/05 A2989 RMK AO2 SLP146 T01670050 10206 20150 51001=
200609031053 METAR KPAE 031053Z AUTO 33003KT 10SM CLR 15/07 A2989 RMK AO2 SLP147 T01500072=
200609030953 METAR KPAE 030953Z AUTO 00000KT 10SM CLR 16/08 A2989 RMK AO2 SLP145 T01610078=
200609030853 METAR KPAE 030853Z AUTO 00000KT 10SM CLR 18/08 A2989 RMK AO2 SLP146 T01780078 53008=
200609030753 METAR KPAE 030753Z AUTO 17003KT 10SM CLR 17/07 A2988 RMK AO2 SLP143 T01670072 402890144=
200609030653 METAR KPAE 030653Z AUTO 00000KT 10SM CLR 19/07 A2986 RMK AO2 SLP138 T01940067=
200609030553 METAR KPAE 030553Z AUTO 00000KT 10SM CLR 19/06 A2986 RMK AO2 SLP138 T01940061 10272 20194 51009=
200609030453 METAR KPAE 030453Z AUTO 34004KT 10SM CLR 21/06 A2986 RMK AO2 SLP135 T02060061=
200609030353 METAR KPAE 030353Z 33005KT 10SM CLR 22/07 A2985 RMK AO2 SLP134 T02170067=
200609030253 METAR KPAE 030253Z VRB04KT 10SM CLR 22/07 A2984 RMK AO2 SLP130 T02170072 55004=
200609030153 METAR KPAE 030153Z 35006KT 10SM CLR 25/08 A2983 RMK AO2 SLP125 T02500078=
200609030053 METAR KPAE 030053Z 33006KT 10SM CLR 26/08 A2984 RMK AO2 SLP129 T02560078=
200609022353 METAR KPAE 022353Z VRB06KT 10SM CLR 27/05 A2985 RMK AO2 SLP133 T02720050 10289 20222 56017=
200609022253 METAR KPAE 022253Z 34006KT 10SM CLR 28/05 A2986 RMK AO2 SLP137 T02830050 TSNO=
200609022153 METAR KPAE 022153Z 36006KT 10SM CLR 28/05 A2988 RMK AO2 SLP143 T02780050=
200609022053 METAR KPAE 022053Z 31006KT 10SM CLR 26/07 A2990 RMK AO2 SLP149 T02560067 56012=
200609021953 METAR KPAE 021953Z 34005KT 10SM CLR 25/07 A2991 RMK AO2 SLP153 T02500067=
200609021853 METAR KPAE 021853Z 34004KT 10SM CLR 23/05 A2993 RMK AO2 SLP159 T02330050=
200609021753 METAR KPAE 021753Z 01004KT 10SM CLR 22/06 A2993 RMK AO2 SLP162 T02220061 10222 20144 58000=
200609021653 METAR KPAE 021653Z 34005KT 10SM CLR 19/05 A2994 RMK AO2 SLP163 T01940050=
200609021553 METAR KPAE 021553Z 35005KT 10SM CLR 17/07 A2993 RMK AO2 SLP163 T01720072=
200609021453 METAR KPAE 021453Z 32003KT 10SM CLR 17/05 A2994 RMK AO2 SLP162 T01670050 55001=
200609021353 METAR KPAE 021353Z VRB03KT 10SM CLR 15/04 A2993 RMK AO2 SLP162 T01500039=
200609021253 METAR KPAE 021253Z AUTO 00000KT 10SM CLR 14/05 A2993 RMK AO2 SLP161 T01440050=
200609021153 METAR KPAE 021153Z AUTO 00000KT 10SM CLR 16/05 A2994 RMK AO2 SLP163 T01560050 10194 20156 57005=
200609021053 METAR KPAE 021053Z AUTO 00000KT 10SM CLR 17/06 A2994 RMK AO2 SLP165 T01670056=
200609020953 METAR KPAE 020953Z AUTO 00000KT 10SM CLR 19/04 A2995 RMK AO2 SLP166 T01890044=
200609020853 METAR KPAE 020853Z AUTO 00000KT 10SM CLR 19/04 A2995 RMK AO2 SLP169 T01940044 58004=
200609020753 METAR KPAE 020753Z AUTO 00000KT 10SM CLR 17/08 A2996 RMK AO2 SLP172 T01670078 402670106=
200609020653 METAR KPAE 020653Z AUTO 01004KT 10SM CLR 18/08 A2996 RMK AO2 SLP173 T01780083=
200609020553 METAR KPAE 020553Z AUTO 01003KT 10SM CLR 18/09 A2997 RMK AO2 SLP174 T01830094 10261 20172 51002=
200609020453 METAR KPAE 020453Z AUTO 00000KT 10SM CLR 19/09 A2997 RMK AO2 SLP175 T01890089=
200609020353 METAR KPAE 020353Z AUTO 02004KT 10SM CLR 22/08 A2997 RMK AO2 SLP174 T02170083=
200609020253 METAR KPAE 020253Z 01005KT 10SM CLR 23/07 A2996 RMK AO2 SLP172 T02330067 56013=
200609020153 METAR KPAE 020153Z 36004KT 10SM CLR 24/07 A2997 RMK AO2 SLP176 T02440067=
200609020053 METAR KPAE 020053Z 33006KT 10SM CLR 26/06 A2999 RMK AO2 SLP180 T02560056=
200609012353 METAR KPAE 012353Z 34007KT 10SM CLR 26/07 A3000 RMK AO2 SLP185 T02560072 10267 20183 56020=
200609012253 METAR KPAE 012253Z AUTO 34007KT 260V010 10SM CLR 26/06 A3002 RMK AO2 SLP192 T02610056 TSNO=
200609012153 METAR KPAE 012153Z 35008KT 10SM CLR 25/05 A3004 RMK AO2 SLP199 T02500050=
200609012053 METAR KPAE 012053Z 35005KT 10SM CLR 24/07 A3006 RMK AO2 SLP206 T02390072 58020=
200609011953 METAR KPAE 011953Z VRB05KT 10SM CLR 23/09 A3008 RMK AO2 SLP213 T02280089=
200609011853 METAR KPAE 011853Z 35005KT 10SM CLR 21/08 A3010 RMK AO2 SLP222 T02060078=
200609011753 METAR KPAE 011753Z 35003KT 10SM CLR 18/09 A3012 RMK AO2 SLP228 T01830089 10183 20106 58007=
200609011653 METAR KPAE 011653Z VRB03KT 10SM CLR 16/09 A3013 RMK AO2 SLP232 T01560094=
200609011553 METAR KPAE 011553Z VRB04KT 10SM CLR 14/10 A3013 RMK AO2 SLP233 T01390100=
200609011453 METAR KPAE 011453Z 36006KT 10SM CLR 12/09 A3014 RMK AO2 SLP236 T01220094 56007=
200609011353 METAR KPAE 011353Z VRB03KT 10SM CLR 11/09 A3015 RMK AO2 SLP239 T01060094=
200609011253 METAR KPAE 011253Z AUTO 35004KT 10SM CLR 11/09 A3015 RMK AO2 SLP239 T01060094=
200609011153 METAR KPAE 011153Z AUTO 33003KT 10SM CLR 11/09 A3016 RMK AO2 SLP243 T01110094 10133 20111 58008=
200609011053 METAR KPAE 011053Z AUTO VRB03KT 10SM CLR 12/09 A3017 RMK AO2 SLP245 T01170094=
200609010953 METAR KPAE 010953Z AUTO 00000KT 10SM CLR 12/09 A3018 RMK AO2 SLP247 T01170089=
200609010853 METAR KPAE 010853Z AUTO 34003KT 10SM CLR 12/08 A3019 RMK AO2 SLP250 T01170083 51001=
200609010753 METAR KPAE 010753Z AUTO 34005KT 10SM CLR 13/09 A3018 RMK AO2 SLP250 T01280089 401940100=
200609010653 METAR KPAE 010653Z AUTO 35003KT 10SM CLR 13/08 A3018 RMK AO2 SLP250 T01280078=
200609010553 METAR KPAE 010553Z AUTO 34005KT 10SM CLR 13/08 A3018 RMK AO2 SLP249 T01330083 10194 20133 50003=
200609010453 METAR KPAE 010453Z AUTO 33006KT 10SM CLR 14/07 A3019 RMK AO2 SLP251 T01440072=
200609010353 METAR KPAE 010353Z 33006KT 10SM CLR 15/07 A3018 RMK AO2 SLP249 T01500072=
200609010253 METAR KPAE 010253Z 32005KT 10SM CLR 16/08 A3017 RMK AO2 SLP246 T01560078 56004=
200609010153 METAR KPAE 010153Z AUTO 32007KT 10SM CLR 18/08 A3018 RMK AO2 SLP248 T01780083 TSNO=
200609010053 METAR KPAE 010053Z AUTO 33007KT 10SM CLR 19/08 A3018 RMK AO2 SLP248 T01890078 TSNO=

# No short TAF reports from KPAE in databse.

###################################
#  large TAF from KPAE
###################################
200609302323 TAF KPAE 302323Z 010024 30005KT P6SM BKN040 FM0700 VRB03KT P6SM
                       BKN040 OVC100
                      PROB30 0913 -SHRA FM1500 32004KT P6SM BKN035
                       FM2200 35007KT P6SM SCT040=
200609301740 TAF KPAE 301740Z 301818 34004KT P6SM OVC035 FM2300 29005KT P6SM
                       BKN040 FM0400 VRB03KT P6SM BKN040 OVC100
                       PROB30 0712 -RA FM1500 32004KT P6SM BKN035=
200609301136 TAF KPAE 301136Z 301212 VRB05KT P6SM SCT015 BKN040
                      TEMPO 1216 5SM BR BKN012 OVC030 FM1600 VRB04KT
                       P6SM BKN015 OVC040 FM2000 29005KT P6SM SCT012
                       SCT200 FM0200 34006KT P6SM SCT050 BKN200=
200609300954 KPAE 300954Z 301006 VRB05KT P6SM SKC
                      TEMPO 1115 5SM BR BKN008 FM1500 VRB04KT 4SM
                       BR BKN007 FM2000 29005KT P6SM SCT012 SCT200
                       FM0300 34006KT P6SM SCT120 BKN200=
200609300521 TAF KPAE 300521Z 300606 VRB04KT P6SM FEW004
                      TEMPO 0610 3SM BR BKN003 FM1000 VRB04KT 3SM
                       BR OVC002 FM1700 VRB03KT 5SM BR BKN005 FM2000
                       29005KT P6SM SCT015 BKN200 FM0300 34006KT
                       P6SM SCT120 BKN200=
200609292333 TAF KPAE 292333Z 300024 30006KT P6SM SKC FM0500 VRB03KT P6SM SKC
                       FM1100 VRB04KT 5SM BR BKN005 FM1700 VRB03KT
                       P6SM BKN010 FM2000 29005KT P6SM SCT015 BKN200=
200609291733 TAF KPAE 291733Z 291818 32006KT P6SM SKC FM0500 VRB03KT P6SM SKC
                       FM1400 18005KT 5SM BR BKN005 FM1700 VRB03KT
                       P6SM BKN010=
200609291626 KPAE 291626Z 291612 VRB03KT 3SM BR BKN004
                      TEMPO 1617 1/2SM FG VV001 FM1800 32007KT
                       P6SM SKC FM0600 VRB03KT P6SM SCT200=
200609291233 KPAE 291233Z 291312 VRB03KT P6SM VCFG SKC
                      TEMPO 1316 1/2SM FG VV001 FM1700 32007KT
                       P6SM SKC FM0600 VRB03KT P6SM SCT200=
200609291128 TAF KPAE 291128Z 291212 VRB03KT 4SM BR SKC
                      TEMPO 1216 1/2SM FG VV001 FM1700 32007KT
                       P6SM SKC FM0600 VRB03KT P6SM SCT200=
200609291002 KPAE 291002Z 291006 VRB03KT 4SM BR SKC
                      TEMPO 1014 1/2SM FG VV001 FM1400 VRB03KT
                       3SM BR SCT001
                      TEMPO 1416 1/2SM FG VV001 FM1800 32007KT
                       P6SM SKC=
200609290525 TAF KPAE 290525Z 290606 VRB03KT P6SM SKC
                      TEMPO 1316 3SM BR SCT001 FM1800 32007KT P6SM
                       SKC=
200609282320 TAF KPAE 282320Z 290024 35008KT P6SM SKC FM0400 VRB04KT P6SM SKC
                       TEMPO 1316 3SM BR SCT001=
200609281720 TAF KPAE 281720Z 281818 34006KT P6SM SKC=
200609281120 TAF KPAE 281120Z 281212 VRB04KT P6SM SKC
                      TEMPO 1416 2SM BR SCT001 FM1900 33006KT P6SM
                       SKC=
200609280525 TAF KPAE 280525Z 280606 VRB04KT P6SM SKC
                      TEMPO 1416 1SM BR SCT001 FM1900 33006KT P6SM
                       SKC=
200609272320 TAF KPAE 272320Z 280024 VRB04KT P6SM SKC
                      TEMPO 1416 1SM BR SCT001=
200609271720 TAF KPAE 271720Z 271818 VRB04KT P6SM SKC
                      TEMPO 1416 1SM BR SCT001=
200609271127 TAF KPAE 271127Z 271212 00000KT P6SM SKC=
200609270522 TAF KPAE 270522Z 270606 01006KT P6SM SKC=
200609262320 TAF KPAE 262320Z 270024 VRB04KT P6SM SKC=
200609261720 TAF KPAE 261720Z 261818 VRB04KT P6SM SCT250
                      TEMPO 2101 34008KT=
200609261120 TAF KPAE 261120Z 261212 00000KT P6SM SCT250
                      TEMPO 1216 3SM BR FM2100 31005KT P6SM SCT250=
200609260543 TAF KPAE 260543Z 260606 36003KT P6SM SCT250=
200609252320 TAF KPAE 252320Z 260024 35006KT P6SM SKC FM0600 00000KT P6SM SCT250=
200609251720 TAF KPAE 251720Z 251818 34006KT P6SM SKC FM0600 00000KT P6SM SKC=
200609251120 TAF KPAE 251120Z 251212 00000KT P6SM SKC FM1700 34005KT P6SM SKC
                       FM0600 00000KT P6SM SKC=
200609250524 TAF KPAE 250524Z 250606 35003KT P6SM SKC FM1700 34005KT P6SM SKC=
200609242320 TAF KPAE 242320Z 250024 35005KT P6SM SKC FM0400 VRB03KT P6SM SKC
                       FM1700 34005KT P6SM SKC=
200609241720 TAF KPAE 241720Z 241818 34005KT P6SM SKC FM0400 VRB03KT P6SM SKC
                       FM1700 34005KT P6SM SKC=
200609241120 TAF KPAE 241120Z 241212 05003KT P6SM SKC FM1700 36005KT P6SM SKC
                       FM0400 VRB03KT P6SM SKC=
200609240536 TAF KPAE 240536Z 240606 33003KT P6SM SKC FM1700 36005KT P6SM SKC=
200609232320 TAF KPAE 232320Z 240024 34006KT P6SM SKC FM0300 04004KT P6SM SKC
                       FM1700 36005KT P6SM SKC=
200609231720 TAF KPAE 231720Z 231818 34008KT P6SM SKC FM0300 04004KT P6SM SKC=
200609231126 TAF KPAE 231126Z 231212 00000KT P6SM SCT005
                      TEMPO 1216 2SM BR VV001 FM1700 33005KT P6SM
                       SKC FM0200 04003KT P6SM SKC=
200609230530 TAF KPAE 230530Z 230606 00000KT P6SM SKC FM1000 00000KT P6SM SKC
                       TEMPO 1216 1/2SM FG VV001 FM1700 33005KT
                       P6SM SKC=
200609222327 TAF KPAE 222327Z 230024 35005KT P6SM SKC FM0500 02004KT P6SM SKC
                       FM1000 00000KT P6SM SKC
                      TEMPO 1216 1/2SM FG VV001 FM1700 33005KT
                       P6SM SKC=
200609221729 TAF KPAE 221729Z 221818 01005KT P6SM BKN005 OVC027
                      TEMPO 1920 SCT005 BKN027 FM2000 34007KT P6SM
                       SCT030
                      TEMPO 2021 BKN030 FM2100 35008KT P6SM SKC
                       FM0200 01003KT P6SM SKC FM1000 00000KT 2SM
                       BR SCT001
                      TEMPO 1012 1/2SM FG VV001=
200609221122 TAF KPAE 221122Z 221212 00000KT 4SM BR SCT001 SCT026
                      TEMPO 1216 1/2SM FG VV001 FM1600 00000KT
                       2SM BR BKN002
                      TEMPO 1618 1/2SM FG VV001 FM1800 VRB03KT
                       P6SM SCT015 FM2000 32005KT P6SM SKC FM0200
                       01003KT P6SM SKC FM1000 00000KT 2SM BR SCT001
                       TEMPO 1012 1/2SM FG VV001=
200609221041 KPAE 221041Z 221106 00000KT 2SM BR SCT001
                      TEMPO 1115 1/2SM FG VV001 FM1500 00000KT
                       1/2SM FG VV001
                      TEMPO 1718 3SM BR BKN005 FM1800 VRB03KT P6SM
                       SCT015 FM2000 32005KT P6SM SKC FM0200 01003KT
                       P6SM SKC=
200609220524 TAF KPAE 220524Z 220606 00000KT P6SM SKC FM1000 VRB03KT P6SM VCFG
                       SCT005
                      TEMPO 1418 1/2SM FG VV001 FM1800 VRB03KT
                       P6SM SCT015 FM2000 32005KT P6SM SKC FM0200
                       01003KT P6SM SKC=
200609220253 TAF AMD KPAE 220253Z 220324 00000KT P6SM SKC FM1000 VRB03KT P6SM
                       BKN010
                      TEMPO 1216 3SM BR FM1800 33006KT P6SM SCT030=
200609212320 TAF KPAE 212320Z 220024 VRB05KT P6SM SCT030 SCT060
                      TEMPO 0004 BKN030 BKN060 FM1000 VRB03KT P6SM
                       BKN010
                      TEMPO 1216 3SM BR FM1800 33006KT P6SM SCT030=
200609212300 KPAE 220253Z 220324 00000KT P6SM SKC FM1000 VRB03KT P6SM BKN010
                       TEMPO 1216 3SM BR FM1800 33006KT P6SM SCT030=
200609211751 TAF KPAE 211751Z 211818 34007KT P6SM VCSH SCT020 BKN050 BKN100
                       TEMPO 1822 -SHRA BKN015 OVC040 FM1000 VRB03KT
                       P6SM BKN010
                      TEMPO 1216 3SM BR=
200609211720 TAF KPAE 211720Z 211818 34007KT P6SM SCT020 BKN050 BKN100 FM1000
                       VRB03KT P6SM BKN010
                      TEMPO 1216 3SM BR=
200609211501 KPAE 211501Z 211512 33006KT P6SM VCSH SCT015 BKN050
                      TEMPO 1518 -SHRA BKN015 OVC040 FM0200 35004KT
                       P6SM SCT030 FM0400 01005KT P6SM SKC FM1000
                       02003KT 1/2SM FG VV001=
200609211125 TAF KPAE 211125Z 211212 28006KT P6SM BKN005 OVC014
                      TEMPO 1216 3SM -DZ BR FM2000 32008KT P6SM
                       VCSH SCT015 BKN030 FM0200 35004KT P6SM SCT030
                       FM0400 01005KT P6SM SKC FM1000 02003KT 1/2SM
                       FG VV001=
200609210903 KPAE 210903Z 210906 VRB03KT P6SM BKN011 OVC022
                      TEMPO 0913 3SM -DZ BR BKN005 OVC011 FM1300
                       VRB03KT P6SM BKN011 OVC022
                      TEMPO 1317 3SM -DZ BR BKN005 OVC011 FM2000
                       32005KT P6SM VCSH BKN020 BKN040 FM0300 VRB03KT
                       P6SM BKN010 OVC020=
200609210646 KPAE 210646Z 210706 20007KT P6SM OVC004
                      TEMPO 0710 3SM -DZ BR FM1000 VRB04KT 3SM
                       -DZ BR OVC005 FM2000 32005KT P6SM VCSH BKN020
                       BKN040 FM0300 VRB03KT P6SM BKN010 OVC020=
200609210520 TAF KPAE 210520Z 210606 18009KT 5SM -DZ BR OVC006 FM1000 VRB04KT
                       3SM -DZ BR OVC005 FM2000 32005KT P6SM VCSH
                       BKN020 BKN040 FM0300 VRB03KT P6SM BKN010
                       OVC020=
200609210217 TAF AMD KPAE 210217Z 210224 15011KT P6SM VCSH OVC012 FM0600 27010KT
                       P6SM -SHRA BKN020 BKN050 FM1500 30007KT
                       P6SM VCSH BKN030=
200609202320 TAF KPAE 202320Z 210024 18012G22KT P6SM SCT012 BKN030 OVC060
                      TEMPO 0004 -RA BKN012 OVC030 FM0600 27010KT
                       P6SM -SHRA BKN020 BKN050 FM1500 30007KT
                       P6SM VCSH BKN030=
200609202300 KPAE 210217Z 210224 15011KT P6SM VCSH OVC012 FM0600 27010KT P6SM
                       -SHRA BKN020 BKN050 FM1500 30007KT P6SM
                       VCSH BKN030=
200609201720 TAF KPAE 201720Z 201818 18015G25KT 5SM -RA BR OVC015
                      TEMPO 1822 3SM RA BR OVC006 FM0300 24012KT
                       P6SM -SHRA BKN010 OVC030 FM0900 30010KT
                       P6SM VCSH BKN025=
200609201303 KPAE 201303Z 201312 14006KT P6SM SCT011 BKN050
                      TEMPO 1317 BKN009 OVC040 FM1700 16013KT P6SM
                       -RA OVC025 FM2000 17015KT 5SM -RA BR BKN011
                       OVC025 FM0300 29005KT 3SM -SHRA BKN005 BKN015=
200609201130 TAF KPAE 201130Z 201212 14006KT P6SM OVC060 FM1700 16013KT P6SM
                       -RA OVC050 FM2000 17015KT 5SM -RA BR BKN011
                       OVC025 FM0300 29005KT 3SM -SHRA BKN005 BKN015=
200609200534 TAF KPAE 200534Z 200606 01003KT P6SM BKN200 FM1400 16010KT P6SM
                       OVC070 FM1600 16013KT P6SM -RA OVC050 FM2000
                       17015KT 5SM -RA BR BKN007 OVC015 FM0300
                       29005KT 3SM -SHRA BKN005 BKN015=
200609192321 TAF KPAE 192321Z 200024 33007KT P6SM SCT030 BKN070 FM0600 VRB03KT
                       P6SM SCT030 SCT070 BKN200 FM1500 20008KT
                       P6SM BKN030 OVC080 FM2000 20012KT P6SM -RA
                       OVC025=
200609191805 KPAE 191805Z 191818 32005KT P6SM BKN012 BKN050 FM2000 32007KT P6SM
                       VCSH SCT020 BKN050
                      TEMPO 2022 BKN020 BKN050 FM0800 VRB04KT P6SM
                       BKN030 FM1500 20008KT P6SM BKN030 OVC080=
200609191723 TAF KPAE 191723Z 191818 VRB04KT P6SM SCT025 BKN050 FM0800 VRB04KT
                       P6SM BKN030 FM1500 20008KT P6SM BKN030 OVC080=
200609191606 KPAE 191606Z 191612 VRB04KT P6SM VCSH BKN020 BKN040 FM2200 32008KT
                       P6SM SCT030 BKN050 FM0500 34003KT P6SM BKN025=
200609191240 KPAE 191240Z 191312 VRB03KT P6SM -RA SCT003 SCT012 OVC035
                      TEMPO 1315 5SM -RA BR BKN003 OVC012 FM1800
                       32005KT P6SM VCSH BKN025 BKN040 FM2200 32008KT
                       P6SM VCSH BKN040 BKN060 FM0500 34003KT P6SM
                       BKN025=
200609191120 TAF KPAE 191120Z 191212 22005KT P6SM -RA BKN006 BKN012 OVC020
                      TEMPO 1215 5SM -SHRA FM1800 32005KT P6SM
                       VCSH BKN025 BKN040 FM2200 32008KT P6SM VCSH
                       BKN040 BKN060 FM0500 34003KT P6SM BKN025=
200609190914 KPAE 190914Z 190906 00000KT P6SM -SHRA BKN013 BKN019 OVC070
                      TEMPO 1115 5SM -SHRA BKN007 OVC015 FM1800
                       32005KT P6SM VCSH BKN025 BKN040 FM2200 32008KT
                       P6SM VCSH BKN040 BKN060=
200609190523 TAF KPAE 190523Z 190606 16010KT P6SM VCSH SCT040 BKN060 BKN120
                       FM0900 16010KT P6SM VCSH SCT020 BKN035 OVC060
                       FM1100 18010KT P6SM -SHRA BKN015 OVC030
                       TEMPO 1216 5SM -SHRA BKN007 OVC015 FM1800
                       32005KT P6SM VCSH BKN025 BKN040 FM2200 32008KT
                       P6SM VCSH BKN040 BKN060=
200609182324 TAF KPAE 182324Z 190024 18012KT P6SM VCSH SCT025 BKN040 FM0800
                       16006KT P6SM BKN020 FM1800 21007KT P6SM
                       BKN040
                      TEMPO 2224 SCT040=
200609182019 KPAE 182019Z 182018 18010KT P6SM SCT020 BKN040
                      TEMPO 2024 SCT040 FM1000 16006KT P6SM BKN020=
200609181731 TAF KPAE 181731Z 181818 20007KT P6SM SCT008 BKN015 BKN040
                      TEMPO 1820 4SM BR BKN008 OVC015 FM1000 16006KT
                       P6SM BKN020=
200609181301 KPAE 181301Z 181312 16012KT P6SM -RA SCT005 OVC040
                      TEMPO 1316 5SM -RA BR BKN005 OVC020 FM1600
                       17010KT P6SM SCT008 BKN018 OVC040 FM1800
                       17006KT P6SM SCT030 BKN045 FM2000 17006KT
                       P6SM SCT060 FM0400 12008KT P6SM -SHRA BKN030
                       BKN050=
200609181235 KPAE 181235Z 181312 17010KT P6SM -RA SCT005 OVC040
                      TEMPO 1316 5SM -RA BR BKN005 OVC020 FM1600
                       17010KT P6SM SCT008 BKN018 OVC040 FM1800
                       17006KT P6SM SCT030 BKN045 FM2000 17006KT
                       P6SM SCT060 FM0400 12008KT P6SM -SHRA BKN030
                       BKN050=
200609181127 TAF KPAE 181127Z 181212 15010KT P6SM SCT008 OVC035 FM1300 17010KT
                       5SM -RA BKN008 OVC015 FM1600 17010KT P6SM
                       SCT008 BKN018 OVC040 FM1800 17006KT P6SM
                       SCT030 BKN045 FM2000 17006KT P6SM SCT060
                       FM0400 12008KT P6SM -SHRA BKN030 BKN050=
200609180534 TAF KPAE 180534Z 180606 14010KT P6SM BKN060 OVC100 FM1000 16010KT
                       P6SM SCT020 BKN040 OVC060
                      TEMPO 1014 -RA BKN020 OVC040 FM1700 19008KT
                       P6SM SCT030 BKN050 FM1900 19008KT P6SM SCT060
                       FM0400 13008KT P6SM -SHRA BKN035 BKN050=
200609180135 TAF AMD KPAE 180135Z 180224 14010KT P6SM BKN035 OVC050
                      TEMPO 0205 -RA FM0500 15008KT P6SM SCT025
                       OVC030
                      TEMPO 0507 -RA FM1000 16010KT P6SM SCT010
                       BKN020 OVC030 FM2100 16010KT P6SM SCT020
                       BKN035=
200609172326 TAF KPAE 172326Z 180024 14012KT P6SM -RA BKN035 OVC050
                      TEMPO 0103 5SM SHRA BKN020 OVC035 FM0300
                       15012KT P6SM SCT025 OVC030
                      TEMPO 0307 -RA FM0700 15010KT P6SM -RA SCT010
                       OVC025 FM1300 16010KT P6SM SCT010 BKN020
                       OVC030=
200609172300 KPAE 180135Z 180224 14010KT P6SM BKN035 OVC050
                      TEMPO 0205 -RA FM0500 15008KT P6SM SCT025
                       OVC030
                      TEMPO 0507 -RA FM1000 16010KT P6SM SCT010
                       BKN020 OVC030 FM2100 16010KT P6SM SCT020
                       BKN035=
200609171720 TAF KPAE 171720Z 171818 12010KT P6SM BKN050 OVC090 FM0400 12012KT
                       P6SM SCT030 OVC045
                      TEMPO 0407 -RA FM0700 14012KT P6SM -RA OVC035
                       FM1000 15010KT P6SM -RA SCT010 OVC025 FM1400
                       16010KT P6SM SCT010 BKN020 OVC030=
200609171259 KPAE 171259Z 171312 12008KT P6SM SCT060 BKN100 OVC200 FM1900 12008KT
                       P6SM BKN060 OVC100
                      PROB30 2204 -RA FM0400 12010KT P6SM SCT028
                       OVC050
                      PROB30 0410 -RA BKN028 OVC050 FM1000 16014KT
                       P6SM -RA SCT010 OVC020=
200609171143 TAF KPAE 171143Z 171212 12008KT P6SM SCT060 BKN100 OVC200 FM1900
                       12008KT P6SM BKN060 OVC100 FM1000 16014KT
                       P6SM -RA SCT010 OVC020=
200609170530 TAF KPAE 170530Z 170606 14008KT P6SM SCT080 BKN200 FM1000 14008KT
                       P6SM SCT060 BKN100 OVC200 FM1900 14012KT
                       P6SM -RA OVC045=
200609162325 TAF KPAE 162325Z 170024 23006KT P6SM FEW070 FM0300 16006KT P6SM
                       SCT150 FM0700 15008KT P6SM BKN130 FM1200
                       14010KT P6SM BKN100 FM1500 15012KT P6SM
                       BKN050 OVC080
                      PROB30 1723 -RA=
200609161741 TAF KPAE 161741Z 161818 15007KT P6SM SCT015 BKN060
                      TEMPO 1819 BKN015 BKN060 FM2000 21007KT P6SM
                       SCT035 SCT060 FM0300 15006KT P6SM BKN130
                       FM0900 13006KT P6SM OVC080 FM1200 13008KT
                       P6SM OVC050=
200609161455 KPAE 161455Z 161512 14006KT P6SM SCT007 BKN045 OVC080
                      TEMPO 1517 BKN007 BKN045 OVC080 FM1700 14006KT
                       P6SM SCT045 BKN080 FM1900 14006KT P6SM SCT045
                       FM1100 14006KT P6SM SCT060 BKN150=
200609161133 TAF KPAE 161133Z 161212 14006KT P6SM BKN035 OVC060 FM1400 14006KT
                       P6SM SCT035 BKN060 FM1900 14006KT P6SM SCT060
                       FM1100 14006KT P6SM SCT060 BKN150=
200609160531 TAF KPAE 160531Z 160606 VRB03KT P6SM SCT070 FM1300 VRB03KT P6SM
                       BCFG SCT001 FM1600 16006KT P6SM SCT060=
200609152329 TAF KPAE 152329Z 160024 33007KT P6SM FEW070 FM0300 VRB03KT P6SM
                       SCT070 FM0600 13003KT P6SM BKN070 FM1200
                       VRB03KT P6SM BKN012 FM1800 19005KT P6SM
                       BKN040=
200609151740 TAF KPAE 151740Z 151818 VRB03KT P6SM BKN012 BKN060
                      TEMPO 1819 SCT012 BKN060 FM1900 30005KT P6SM
                       VCSH SCT020 BKN060
                      TEMPO 1920 BKN020 BKN060 FM2100 31005KT P6SM
                       VCSH SCT030 BKN060 FM0300 VRB03KT P6SM SCT060
                       FM1000 VRB03KT P6SM BKN011=
200609151502 KPAE 151502Z 151512 35003KT P6SM BKN010 OVC030 FM1700 35004KT P6SM
                       SCT015 OVC030 FM1900 34006KT P6SM SCT030
                       BKN050 FM0300 VRB03KT P6SM SCT060 FM1000
                       VRB03KT P6SM BKN011=
200609151127 TAF KPAE 151127Z 151212 00000KT P6SM SCT011 BKN050
                      TEMPO 1215 BKN011 BKN050 FM1700 34006KT P6SM
                       SCT040 BKN060 FM0300 VRB03KT P6SM SCT060
                       FM1000 VRB03KT P6SM BKN011=
200609150540 TAF KPAE 150540Z 150606 VRB03KT P6SM SCT040 BKN060
                      TEMPO 0812 BKN040 BKN060 FM1800 34006KT P6SM
                       SCT040 BKN060=
200609150342 TAF AMD KPAE 150342Z 150424 09004KT P6SM SCT060 FM0600 13004KT
                       P6SM SCT030 BKN050=
200609142325 TAF KPAE 142325Z 150024 VRB06KT P6SM SCT015 BKN025 OVC040
                      TEMPO 0003 6SM -SHRA BKN015 BKN025 OVC040
                       FM0600 13004KT P6SM SCT012 BKN020 OVC035
                       FM0900 00000KT P6SM BKN007 OVC012 FM1800
                       30004KT P6SM SCT010 BKN025 BKN040=
200609142300 KPAE 150342Z 150424 09004KT P6SM SCT060 FM0600 13004KT P6SM SCT030
                       BKN050=
200609141732 TAF KPAE 141732Z 141818 19006KT P6SM SCT005 BKN012 OVC025 FM2000
                       19005KT P6SM VCSH SCT012 BKN025 OVC040 FM2300
                       19005KT P6SM VCSH SCT025 BKN040 OVC060 FM0600
                       15006KT P6SM SCT012 BKN022 OVC035=
200609141452 KPAE 141452Z 141512 18006KT P6SM -SHRA BKN005 OVC012
                      TEMPO 1516 2SM -SHRA BR SCT005 OVC012 FM1700
                       17008KT P6SM -SHRA SCT012 BKN020 OVC040
                       FM2100 17008KT P6SM -SHRA SCT025 BKN040
                       BKN060 FM0600 17008KT P6SM SCT012 BKN022
                       OVC035=
200609141138 TAF KPAE 141138Z 141212 17006KT P6SM -SHRA SCT011 OVC025
                      TEMPO 1215 3SM -SHRA BKN011 OVC025 FM1600
                       17008KT P6SM -SHRA SCT012 BKN020 OVC040
                       FM2100 17008KT P6SM -SHRA SCT025 BKN040
                       BKN060 FM0600 17008KT P6SM SCT012 BKN022
                       OVC035=
200609140536 TAF KPAE 140536Z 140606 00000KT P6SM SCT045 BKN070 FM0900 17006KT
                       P6SM SCT025 BKN040 OVC060
                      TEMPO 0913 -SHRA FM1300 17006KT P6SM BKN020
                       OVC035 FM2000 17006KT P6SM -SHRA SCT020
                       BKN035 BKN050=
200609132328 TAF KPAE 132328Z 140024 14006KT P6SM SCT015 OVC030 FM0300 14006KT
                       P6SM VCSH SCT015 OVC025 FM0900 17006KT P6SM
                       BKN015 OVC025
                      TEMPO 0913 -SHRA FM1300 18006KT P6SM -SHRA
                       BKN015 OVC025 FM2000 20006KT P6SM -SHRA
                       BKN025 OVC040=
200609131744 TAF KPAE 131744Z 131818 VRB03KT 5SM BR SCT003 OVC008
                      TEMPO 1819 1SM -DZ BR BKN003 OVC008 FM1900
                       VRB03KT P6SM OVC010 FM2100 18005KT P6SM
                       OVC016 FM2200 29008KT P6SM BKN030 OVC045
                       FM0200 21007KT P6SM SCT030 OVC045
                      PROB30 0609 -SHRA FM0900 16005KT P6SM BKN020
                       OVC045
                      PROB30 0915 -SHRA=
200609131644 KPAE 131644Z 131712 VRB03KT 5SM BR SCT003 OVC008
                      TEMPO 1719 1SM -DZ BR BKN003 OVC008 FM1900
                       VRB03KT P6SM OVC010 FM2100 18005KT P6SM
                       OVC016 FM2200 29008KT P6SM SCT020 BKN050
                       FM0300 30007KT P6SM BKN030
                      PROB30 0612 -SHRA=
200609131509 KPAE 131509Z 131512 17005KT P6SM OVC012 FM1700 18005KT P6SM OVC016
                       FM1900 23005KT P6SM SCT016 OVC020 FM2100
                       29008KT P6SM SCT020 BKN050 FM0300 30007KT
                       P6SM BKN030
                      PROB30 0612 -SHRA=
200609131121 TAF KPAE 131121Z 131212 VRB05KT P6SM BKN006 BKN040
                      TEMPO 1215 3SM BR OVC003 FM1500 17005KT 5SM
                       BR BKN004 BKN040
                      TEMPO 1720 SCT007 BKN040 FM2000 22008KT P6SM
                       SCT020 BKN050 FM0300 30007KT P6SM BKN030
                       PROB30 0612 -SHRA=
200609130520 TAF KPAE 130520Z 130606 36006KT P6SM SCT040 BKN200
                      TEMPO 0710 BKN022 FM1000 20007KT P6SM BKN020
                       BKN040 FM2000 22008KT P6SM SCT025 BKN050
                       FM0000 30007KT P6SM SCT025 BKN050
                      PROB30 0006 -SHRA BKN025=
200609122320 TAF KPAE 122320Z 130024 32008KT P6SM FEW050 FM0900 27007KT P6SM
                       BKN015 BKN050 FM1900 27010KT P6SM SCT025
                       BKN050=
200609121916 KPAE 121916Z 121918 VRB04KT 3SM BR VCFG BKN002 FM2000 VRB04KT P6SM
                       SCT250 FM0000 29010KT P6SM SCT250 FM0900
                       29006KT P6SM BKN015 FM1200 32006KT P6SM
                       OVC012=
200609121722 TAF KPAE 121722Z 121818 VRB04KT P6SM SCT250 FM0000 29010KT P6SM
                       SCT250 FM0900 29006KT P6SM BKN015 FM1200
                       32006KT P6SM OVC012=
200609121120 TAF KPAE 121120Z 121212 35004KT P6SM FEW002
                      TEMPO 1216 1/2SM FG VV001 FM1800 29007KT
                       P6SM SKC FM0200 36005KT P6SM SKC=
200609120531 TAF KPAE 120531Z 120606 01004KT P6SM SKC FM1200 VRB03KT P6SM SCT002
                       TEMPO 1216 1SM BR BKN002 FM1800 29007KT
                       P6SM SKC=
200609112320 TAF KPAE 112320Z 120024 36007KT P6SM SCT250=
200609111720 TAF KPAE 111720Z 111818 36006KT P6SM SCT250=
200609111126 TAF KPAE 111126Z 111212 34004KT P6SM SKC FM1800 32008KT P6SM SKC
                       FM0100 36005KT P6SM SCT250=
200609110533 TAF KPAE 110533Z 110606 01006KT P6SM SKC FM1800 32006KT P6SM SCT140=
200609102324 TAF KPAE 102324Z 110024 36004KT P6SM SCT140 FM1800 32006KT P6SM
                       SCT140=
200609101720 TAF KPAE 101720Z 101818 35005KT P6SM SCT140 FM1900 32007KT P6SM
                       SCT140 FM0300 01004KT P6SM SCT140=
200609101122 TAF KPAE 101122Z 101212 VRB04KT P6SM OVC030
                      TEMPO 1216 SCT030 SCT250 FM1600 VRB04KT P6SM
                       SCT035 SCT250
                      TEMPO 1618 BKN035 BKN250 FM1900 33006KT P6SM
                       FEW040 SCT250 FM0400 01004KT P6SM SKC=
200609100526 TAF KPAE 100526Z 100606 01005KT P6SM SCT030 BKN070
                      TEMPO 0609 OVC030 FM1000 VRB04KT P6SM SCT070
                       FM1400 VRB03KT P6SM BKN006 FM1800 VRB03KT
                       P6SM BKN010 FM1900 33006KT P6SM SKC=
200609100000 TAF AMD KPAE 100000Z 100024 35006KT P6SM SCT010 BKN050
                      TEMPO 0002 BKN010 BKN050 FM0200 01006KT P6SM
                       SCT050 FM0800 VRB03KT 5SM BR BKN005 FM1100
                       VRB03KT 2SM BR OVC005
                      TEMPO 1216 3/4SM BR VV002 FM1700 VRB03KT
                       5SM BR OVC005 FM1800 VRB03KT P6SM BKN010
                       FM1900 33006KT P6SM SKC=
200609092330 TAF KPAE 092330Z 100024 35006KT P6SM BKN050 FM0200 01006KT P6SM
                       SCT050 FM0800 VRB03KT 5SM BR BKN005 FM1100
                       VRB03KT 2SM BR OVC005
                      TEMPO 1216 3/4SM BR VV002 FM1700 VRB03KT
                       5SM BR OVC005 FM1800 VRB03KT P6SM BKN010
                       FM1900 33006KT P6SM SKC=
200609092300 KPAE 100000Z 100024 35006KT P6SM SCT010 BKN050
                      TEMPO 0002 BKN010 BKN050 FM0200 01006KT P6SM
                       SCT050 FM0800 VRB03KT 5SM BR BKN005 FM1100
                       VRB03KT 2SM BR OVC005
                      TEMPO 1216 3/4SM BR VV002 FM1700 VRB03KT
                       5SM BR OVC005 FM1800 VRB03KT P6SM BKN010
                       FM1900 33006KT P6SM SKC=
200609091742 TAF KPAE 091742Z 091818 VRB03KT 6SM SHRA BKN015 OVC030
                      TEMPO 1820 2SM SHRA BR FM2000 31006KT P6SM
                       SCT025 BKN040
                      TEMPO 2022 -SHRA BKN025 OVC040 FM2200 31006KT
                       P6SM BKN040 FM0300 VRB03KT P6SM SCT040 FM0800
                       VRB03KT 5SM BR BKN005 FM1100 VRB03KT 2SM
                       BR OVC005
                      TEMPO 1216 3/4SM BR VV002=
200609091628 KPAE 091628Z 091612 VRB03KT 5SM SHRA SCT004 OVC020
                      TEMPO 1618 1 1/2SM SHRA BR BKN004 OVC015
                       FM1800 24008KT P6SM BKN020 OVC040
                      TEMPO 1820 -SHRA FM2000 29006KT P6SM SCT040
                       SCT100
                      TEMPO 2024 BKN040 BKN100 FM0100 32005KT P6SM
                       SCT060=
200609091430 KPAE 091430Z 091512 18008KT P6SM -SHRA BKN005 OVC015
                      TEMPO 1517 2SM SHRA FM1700 24008KT P6SM SCT020
                       BKN050 OVC090
                      TEMPO 1720 -SHRA BKN020 OVC050 FM2000 29006KT
                       P6SM SCT040 SCT100
                      TEMPO 2024 BKN040 BKN100 FM0100 32005KT P6SM
                       SCT060=
200609091131 TAF KPAE 091131Z 091212 18008KT P6SM BKN005 OVC015
                      TEMPO 1216 4SM -SHRA BR SCT005 BKN015 OVC050
                       FM1600 24008KT P6SM SCT020 BKN050 OVC090
                       TEMPO 1620 -SHRA BKN020 OVC050 FM2000 29006KT
                       P6SM SCT040 SCT100
                      TEMPO 2024 BKN040 BKN100 FM0100 32005KT P6SM
                       SCT060=
200609091035 KPAE 091035Z 091106 19008KT 3SM -RA BR SCT003 BKN007 OVC017 FM1100
                       20006KT P6SM SCT005 BKN010 OVC025
                      TEMPO 1115 4SM -SHRA BR BKN005 OVC010 FM1600
                       24008KT P6SM SCT020 BKN050 OVC090
                      TEMPO 1620 -SHRA BKN020 OVC050 FM2000 29006KT
                       P6SM SCT040 SCT100
                      TEMPO 2024 BKN040 BKN100 FM0100 32005KT P6SM
                       SCT060=
200609090733 KPAE 090733Z 090806 17005KT P6SM BKN017 BKN050 OVC250
                      TEMPO 0809 SCT017 SCT050 BKN250 FM0900 18006KT
                       P6SM BKN020 OVC050
                      TEMPO 0913 -SHRA FM1300 20006KT P6SM -SHRA
                       BKN015 OVC050 FM1700 24008KT P6SM SCT020
                       BKN050 OVC090
                      TEMPO 1721 -SHRA BKN020 OVC050 FM2100 29006KT
                       P6SM SCT040 SCT100
                      TEMPO 2101 BKN040 BKN100 FM0100 32005KT P6SM
                       SCT060=
200609090530 TAF KPAE 090530Z 090606 VRB04KT P6SM SCT050 BKN250 FM0900 17005KT
                       P6SM SCT015 BKN050 OVC250
                      TEMPO 0913 -SHRA BKN015 OVC050 FM1300 20006KT
                       P6SM -SHRA BKN015 OVC050 FM1700 24008KT
                       P6SM SCT020 BKN050 OVC090
                      TEMPO 1721 -SHRA BKN020 OVC050 FM2100 29006KT
                       P6SM SCT040 SCT100
                      TEMPO 2101 BKN040 BKN100 FM0100 32005KT P6SM
                       SCT060=
200609082324 TAF KPAE 082324Z 090024 21008KT P6SM SCT120 BKN200 FM0300 18011KT
                       P6SM SCT050 OVC120 FM0600 23009KT P6SM SCT020
                       OVC050
                      TEMPO 0610 -SHRA FM1000 33006KT P6SM OVC015
                       PROB30 1016 2SM -DZ BR OVC008 FM1600 VRB03KT
                       P6SM OVC015
                      PROB30 1618 -DZ FM1800 VRB03KT P6SM BKN020
                       OVC040
                      PROB30 1820 -SHRA FM2000 33007KT P6SM BKN040
                       PROB30 2024 -SHRA=
200609081920 KPAE 081920Z 081918 23006KT P6SM SCT007 SCT200 FM2000 23008KT P6SM
                       SCT200 FM0000 23008KT P6SM SCT120 BKN200
                       FM0600 33006KT P6SM SCT050 OVC120 FM1000
                       VRB03KT P6SM OVC015
                      PROB30 1016 2SM -DZ BR OVC008 FM1600 VRB03KT
                       P6SM OVC015
                      PROB30 1618 -SHRA=
200609081818 KPAE 081818Z 081818 22009KT 2SM BR OVC006
                      TEMPO 1819 1/2SM FG OVC003 FM1900 18006KT
                       6SM HZ BKN010 BKN200 FM2000 21008KT P6SM
                       SCT200 FM0000 21008KT P6SM SCT120 BKN200
                       FM0600 33006KT P6SM SCT050 OVC120 FM1000
                       VRB03KT P6SM OVC015
                      PROB30 1016 2SM -DZ BR OVC008 FM1600 VRB03KT
                       P6SM OVC015
                      PROB30 1618 -SHRA=
200609081743 TAF KPAE 081743Z 081818 18006KT 5SM BR OVC006 FM1900 18006KT 6SM
                       HZ BKN010 BKN200 FM2000 21008KT P6SM SCT200
                       FM0000 21008KT P6SM SCT120 BKN200 FM0600
                       33006KT P6SM SCT050 OVC120 FM1000 VRB03KT
                       P6SM OVC015
                      PROB30 1016 2SM -DZ BR OVC008 FM1600 VRB03KT
                       P6SM OVC015
                      PROB30 1618 -SHRA=
200609081532 KPAE 081532Z 081612 15006KT 4SM BR OVC003
                      TEMPO 1618 1 1/2SM BR VV001 FM1800 21008KT
                       6SM HZ BKN006 FM1900 24008KT P6SM FEW120
                       BKN200 FM0700 16007KT P6SM -SHRA BKN022
                       OVC050=
200609081502 KPAE 081502Z 081512 15006KT 1/2SM FG VV001 FM1700 17006KT 3SM BR
                       OVC004 FM1800 21008KT 6SM HZ BKN006 FM1900
                       24008KT P6SM FEW120 BKN200 FM0700 16007KT
                       P6SM -SHRA BKN022 OVC050=
200609081130 TAF KPAE 081130Z 081212 01004KT 3SM BR OVC003
                      TEMPO 1216 1/4SM FG VV001 FM1600 17006KT
                       5SM BR OVC005 FM1700 21008KT P6SM BKN008
                       FM1900 24008KT P6SM FEW120 BKN200 FM0700
                       16007KT P6SM -SHRA BKN022 OVC050=
200609080538 TAF KPAE 080538Z 080606 35004KT P6SM SKC FM1000 VRB03KT 6SM BR
                       SCT003
                      TEMPO 1012 2SM BR OVC003 FM1200 17006KT 2SM
                       BR OVC002 FM1600 17006KT 5SM BR OVC005 FM1700
                       21008KT P6SM BKN008 FM1900 24008KT P6SM
                       FEW120 BKN200=
200609072322 TAF KPAE 072322Z 080024 28006KT P6SM SKC FM0200 33006KT P6SM SKC
                       FM1000 VRB03KT 6SM BR SCT002
                      TEMPO 1012 2SM BR OVC002 FM1200 17006KT 2SM
                       BR OVC002 FM1600 17006KT 5SM BR OVC005 FM1800
                       21008KT 6SM HZ BKN008 FM1900 24008KT P6SM
                       FEW120 BKN200=
200609071740 TAF KPAE 071740Z 071818 25006KT 6SM HZ SCT003 FM1900 30006KT P6SM
                       SKC FM0400 02003KT P6SM SKC FM1000 VRB03KT
                       6SM BR SCT002
                      TEMPO 1012 2SM BR OVC002 FM1200 VRB03KT 2SM
                       BR OVC002 FM1600 VRB03KT 5SM BR OVC005=
200609071421 KPAE 071421Z 071412 VRB03KT 6SM BR SCT006
                      TEMPO 1416 2SM BR BKN001 BKN006 FM1800 30006KT
                       P6SM SKC FM0400 02003KT P6SM SKC=
200609071131 TAF KPAE 071131Z 071212 00000KT 1/2SM FG VV001
                      TEMPO 1216 4SM BR SCT001 FM1600 VRB03KT 5SM
                       BR BKN006 FM1800 30006KT P6SM SKC FM0400
                       02003KT P6SM SKC=
200609071042 KPAE 071042Z 071106 VRB03KT 3SM BR BKN002
                      TEMPO 1115 1/4SM FG VV001 FM1600 VRB03KT
                       5SM BR BKN006 FM1700 30006KT P6SM SKC FM0400
                       02003KT P6SM SKC=
200609070520 TAF KPAE 070520Z 070606 36004KT P6SM SKC FM1200 VRB03KT P6SM SCT003
                       TEMPO 1316 5SM BR BKN003 FM1700 30006KT
                       P6SM SKC=
200609062321 TAF KPAE 062321Z 070024 31006KT P6SM SKC FM0600 02004KT P6SM SKC
                       FM1200 VRB03KT 5SM BR SCT003 FM1700 30006KT
                       P6SM SKC=
200609061721 TAF KPAE 061721Z 061818 VRB04KT P6SM SKC FM2100 34006KT P6SM SKC
                       FM0700 02004KT P6SM SKC=
200609061122 TAF KPAE 061122Z 061212 00000KT P6SM SKC
                      TEMPO 1316 SCT002 FM1700 31007KT P6SM SKC
                       FM0700 36004KT P6SM SKC=
200609060538 TAF KPAE 060538Z 060606 35005KT P6SM SKC FM1100 VRB04KT 3SM BR
                       SCT002 FM1800 31007KT P6SM SKC=
200609052324 TAF KPAE 052324Z 060024 33006KT P6SM SKC FM0400 36005KT P6SM SKC
                       FM1100 VRB04KT 3SM BR SCT002 FM1800 31007KT
                       P6SM SKC=
200609051721 TAF KPAE 051721Z 051818 VRB05KT P6SM BKN005
                      TEMPO 1819 SCT006 FM1900 34008KT P6SM SKC
                       FM0400 36005KT P6SM SKC FM1100 36004KT 3SM
                       BR BKN002=
200609051416 KPAE 051416Z 051412 36006KT 5SM BR BKN002
                      TEMPO 1417 1/2SM FG OVC001 FM1700 31006KT
                       P6SM BKN005 FM1900 33008KT P6SM SKC FM0400
                       36005KT P6SM SKC=
200609051129 TAF KPAE 051129Z 051212 36006KT P6SM BKN001
                      TEMPO 1216 2SM BR OVC001 FM1700 31006KT P6SM
                       BKN007 FM1900 33008KT P6SM SKC FM0400 36005KT
                       P6SM SKC=
200609050921 KPAE 050921Z 050906 36007KT P6SM OVC003
                      TEMPO 0913 3SM BR OVC001 FM1800 31006KT P6SM
                       SKC=
200609050520 TAF KPAE 050520Z 050606 02006KT P6SM SKC FM1200 VRB04KT P6SM BKN006
                       TEMPO 1317 3SM BR OVC004 FM1800 31006KT
                       P6SM SKC=
200609042325 TAF KPAE 042325Z 050024 31007KT P6SM SKC FM0500 36004KT P6SM SKC
                       FM1200 VRB04KT P6SM BKN006 FM1800 31006KT
                       P6SM SKC=
200609041720 TAF KPAE 041720Z 041818 VRB04KT P6SM SCT150 FM2100 31007KT P6SM
                       SKC FM0500 36004KT P6SM SKC FM1200 VRB04KT
                       P6SM SCT005=
200609041154 TAF KPAE 041154Z 041212 33006KT P6SM SCT200 FM1800 29007KT P6SM
                       SCT200 FM2300 33008KT P6SM SKC FM0500 36004KT
                       P6SM SKC=
200609040525 TAF KPAE 040525Z 040606 VRB03KT P6SM SCT200 FM1800 29007KT P6SM
                       SCT200 FM2300 33006KT P6SM SKC=
200609032324 TAF KPAE 032324Z 040024 30006KT P6SM FEW080 SCT150 FM0500 VRB04KT
                       P6SM SCT150 FM1200 17004KT 3SM BR BKN005
                       FM1800 29007KT P6SM SCT200=
200609031720 TAF KPAE 031720Z 031818 33006KT P6SM SCT150 FM0500 VRB04KT P6SM
                       SKC FM1200 17004KT 3SM BR SCT005=
200609031120 TAF KPAE 031120Z 031212 VRB03KT P6SM SKC FM2000 32007KT P6SM SKC
                       FM0400 VRB03KT P6SM SKC=
200609030525 TAF KPAE 030525Z 030606 34004KT P6SM SKC FM2000 32007KT P6SM SKC=
200609022320 TAF KPAE 022320Z 030024 34006KT P6SM SKC FM0400 VRB02KT P6SM SKC
                       FM2000 32007KT P6SM SKC=
200609021720 TAF KPAE 021720Z 021818 34007KT P6SM SKC FM0400 VRB02KT P6SM SKC=
200609021121 TAF KPAE 021121Z 021212 00000KT P6SM SKC FM2000 34007KT P6SM SKC
                       FM0400 VRB02KT P6SM SKC=
200609020527 TAF KPAE 020527Z 020606 01003KT P6SM SKC FM2000 34007KT P6SM SKC
                       FM0400 VRB02KT P6SM SKC=
200609012320 TAF KPAE 012320Z 020024 34007KT P6SM SKC FM0500 VRB03KT P6SM SKC
                       FM2000 34007KT P6SM SKC=
200609011720 TAF KPAE 011720Z 011818 32008KT P6SM SKC FM0500 VRB03KT P6SM SKC=
200609011137 TAF KPAE 011137Z 011212 VRB03KT P6SM SKC FM1800 34008KT P6SM SKC
                       FM0500 VRB03KT P6SM SKC=
200609010520 TAF KPAE 010520Z 010606 34004KT P6SM SKC FM1800 34008KT P6SM SKC=