##########################################################
# Query made at 02/18/2025 18:48:12 UTC
# Time interval: from 11/01/2006 00:00  to 11/30/2006 23:59  UTC
##########################################################

##########################################################
# KPAE, Everett, Snohomish County Airport (United States)
# WMO index: -----. WIGOS ID: Unknown
# Latitude 47-55-23N. Longitude 122-16-57W. Altitude 184 m.
##########################################################

###################################
#  METAR/SPECI from KPAE
###################################
200611302353 METAR KPAE 302353Z 17005KT 8SM OVC070 03/02 A3038 RMK AO2 SLP292 60000 T00330022 10044 20022 53008=
200611302253 METAR KPAE 302253Z 14007KT 10SM SCT060 BKN080 OVC100 04/02 A3036 RMK AO2 SLP284 T00390022=
200611302229 SPECI KPAE 302229Z 14009KT 9SM SCT008 OVC070 04/02 A3036 RMK AO2=
200611302229 SPECI KPAE 302229Z 14009KT 9SM SCT008 OVC070 04/02 A3036 RMK AO2=
200611302153 METAR KPAE 302153Z 15008KT 10SM OVC008 04/02 A3036 RMK AO2 SLP286 T00390022=
200611302053 METAR KPAE 302053Z 16003KT 8SM OVC008 04/03 A3035 RMK AO2 SLP283 60000 T00440028 51006=
200611301953 METAR KPAE 301953Z 18005KT 6SM BR BKN005 BKN038 03/02 A3035 RMK AO2 UPE1856RAB28E41 SLP282 P0000 T00330022=
200611301907 SPECI KPAE 301907Z 18006KT 5SM BR BKN005 BKN038 03/03 A3035 RMK AO2 UPE1856 P0000=
200611301907 SPECI KPAE 301907Z 18006KT 5SM BR BKN005 BKN038 03/03 A3035 RMK AO2 UPE1856 P0000=
200611301853 METAR KPAE 301853Z COR 18006KT 5SM UP BR BKN005 BKN038 03/03 A3034 RMK AO2 RAB22E48UPB48 SLP281 P0000 T00330028=
200611301841 SPECI KPAE 301841Z 17007KT 5SM -RA BR FEW007 BKN031 OVC043 03/02 A3034 RMK AO2 RAB22 P0000=
200611301841 SPECI KPAE 301841Z 17007KT 5SM -RA BR FEW007 BKN031 OVC043 03/02 A3034 RMK AO2 RAB22 P0000=
200611301832 SPECI KPAE 301832Z 17006KT 4SM -RA BR SCT007 OVC029 03/02 A3034 RMK AO2 RAB22 P0000=
200611301832 SPECI KPAE 301832Z 17006KT 4SM -RA BR SCT007 OVC029 03/02 A3034 RMK AO2 RAB22 P0000=
200611301805 SPECI KPAE 301805Z 18007KT 5SM BR OVC005 03/02 A3033 RMK AO2 CIG 003V009=
200611301805 SPECI KPAE 301805Z 18007KT 5SM BR OVC005 03/02 A3033 RMK AO2 CIG 003V009=
200611301753 METAR KPAE 301753Z 19007KT 4SM BR OVC003 03/02 A3033 RMK AO2 SLP278 P0001 60001 T00280022 10028 20017 53014=
200611301710 SPECI KPAE 301710Z 18006KT 3SM BR BKN003 BKN065 02/02 A3033 RMK AO2 P0001=
200611301710 SPECI KPAE 301710Z 18006KT 3SM BR BKN003 BKN065 02/02 A3033 RMK AO2 P0001=
200611301653 METAR KPAE 301653Z 15006KT 5SM BR FEW003 BKN065 03/02 A3031 RMK AO2 SLP271 T00280022=
200611301640 SPECI KPAE 301640Z 14007KT 6SM BR SCT001 BKN038 OVC065 03/02 A3031 RMK AO2=
200611301640 SPECI KPAE 301640Z 14007KT 6SM BR SCT001 BKN038 OVC065 03/02 A3031 RMK AO2=
200611301627 SPECI KPAE 301627Z VRB03KT 3SM BR BKN001 OVC022 03/03 A3031 RMK AO2=
200611301627 SPECI KPAE 301627Z VRB03KT 3SM BR BKN001 OVC022 03/03 A3031 RMK AO2=
200611301553 METAR KPAE 301553Z 15007KT 1 1/4SM BR BKN001 OVC026 03/02 A3029 RMK AO2 SLP264 T00280022=
200611301551 SPECI KPAE 301551Z 15008KT 1SM BR BKN001 OVC026 03/02 A3029 RMK AO2=
200611301551 SPECI KPAE 301551Z 15008KT 1SM BR BKN001 OVC026 03/02 A3029 RMK AO2=
200611301507 SPECI KPAE 301507Z 14005KT 1/4SM FG BKN001 OVC026 02/02 A3027 RMK AO2=
200611301507 SPECI KPAE 301507Z 14005KT 1/4SM FG BKN001 OVC026 02/02 A3027 RMK AO2=
200611301453 METAR KPAE 301453Z 13006KT 1/2SM FG FEW001 BKN026 BKN033 02/02 A3026 RMK AO2 SLP254 T00220017 52028=
200611301443 SPECI KPAE 301443Z 15007KT 3/4SM BR FEW003 BKN026 BKN033 02/01 A3026 RMK AO2=
200611301443 SPECI KPAE 301443Z 15007KT 3/4SM BR FEW003 BKN026 BKN033 02/01 A3026 RMK AO2=
200611301435 SPECI KPAE 301435Z AUTO 14006KT 2 1/2SM BR BKN026 BKN031 BKN070 02/01 A3026 RMK AO2=
200611301435 SPECI KPAE 301435Z AUTO 14006KT 2 1/2SM BR BKN026 BKN031 BKN070 02/01 A3026 RMK AO2=
200611301404 SPECI KPAE 301404Z AUTO 15006KT 8SM SCT024 SCT070 02/01 A3023 RMK AO2=
200611301404 SPECI KPAE 301404Z AUTO 15006KT 8SM SCT024 SCT070 02/01 A3023 RMK AO2=
200611301353 METAR KPAE 301353Z AUTO 15007KT 7SM BKN024 BKN031 BKN070 02/01 A3023 RMK AO2 SLP242 T00220011=
200611301253 METAR KPAE 301253Z AUTO 12009KT 6SM BR FEW002 BKN018 OVC023 02/01 A3021 RMK AO2 SLP237 T00220011=
200611301153 METAR KPAE 301153Z 15005KT 9SM FEW003 OVC020 02/01 A3018 RMK AO2 SLP225 60000 70001 T00220011 10022 21011 51033=
200611301103 SPECI KPAE 301103Z 18008KT 10SM SCT004 BKN018 OVC023 02/01 A3016 RMK AO2=
200611301103 SPECI KPAE 301103Z 18008KT 10SM SCT004 BKN018 OVC023 02/01 A3016 RMK AO2=
200611301053 METAR KPAE 301053Z 16010KT 10SM BKN006 BKN013 OVC020 02/01 A3017 RMK AO2 RAE18 CIG 003V008 SLP221 P0000 T00170011=
200611301012 SPECI KPAE 301012Z 19008KT 10SM -RA OVC008 02/01 A3015 RMK AO2 CIG 006V010 P0000=
200611301012 SPECI KPAE 301012Z 19008KT 10SM -RA OVC008 02/01 A3015 RMK AO2 CIG 006V010 P0000=
200611300953 METAR KPAE 300953Z 19012G16KT 10SM -RA SCT010 BKN014 OVC045 02/01 A3014 RMK AO2 RAB51 PRESRR SLP212 P0000 T00220006=
200611300944 SPECI KPAE 300944Z 19013KT 10SM FEW010 BKN014 OVC049 02/01 A3012 RMK AO2=
200611300944 SPECI KPAE 300944Z 19013KT 10SM FEW010 BKN014 OVC049 02/01 A3012 RMK AO2=
200611300853 METAR KPAE 300853Z 18016KT 10SM BKN060 OVC080 02/01 A3008 RMK AO2 PK WND 17034/0819 UPB0759E36SNB05E20 PRESRR SLP191 P0000 60000 T00170006 56019=
200611300824 SPECI KPAE 300824Z 17027G34KT 4SM UP BR FEW020 BKN075 OVC090 02/01 A3004 RMK AO2 PK WND 17034/0819 UPB0759SNB05E20 P0000=
200611300824 SPECI KPAE 300824Z 17027G34KT 4SM UP BR FEW020 BKN075 OVC090 02/01 A3004 RMK AO2 PK WND 17034/0819 UPB0759SNB05E20 P0000=
200611300810 SPECI KPAE 300810Z 17024KT 2 1/2SM -SN BR FEW008 BKN020 OVC047 02/01 A3005 RMK AO2 PK WND 18028/0804 UPB0759E05SNB05 PRESFR P0000=
200611300810 SPECI KPAE 300810Z 17024KT 2 1/2SM -SN BR FEW008 BKN020 OVC047 02/01 A3005 RMK AO2 PK WND 18028/0804 UPB0759E05SNB05 PRESFR P0000=
200611300804 SPECI KPAE 300804Z 17026KT 4SM UP BR SCT010 BKN019 OVC048 02/00 A3007 RMK AO2 PK WND 18028/0804 UPB0759 P0000=
200611300804 SPECI KPAE 300804Z 17026KT 4SM UP BR SCT010 BKN019 OVC048 02/00 A3007 RMK AO2 PK WND 18028/0804 UPB0759 P0000=
200611300753 METAR KPAE 300753Z 17014KT 6SM BR FEW004 BKN010 OVC019 01/M01 A3009 RMK AO2 UPB0654E0657SNE0654 CIG 007V015 SLP195 P0000 T00061006 400061089=
200611300748 SPECI KPAE 300748Z 17014KT 8SM SCT004 OVC010 01/M01 A3008 RMK AO2 UPB0654E0657SNE0654 CIG 007V015 P0000 400061089=
200611300748 SPECI KPAE 300748Z 17014KT 8SM SCT004 OVC010 01/M01 A3008 RMK AO2 UPB0654E0657SNE0654 CIG 007V015 P0000 400061089=
200611300653 METAR KPAE 300653Z 13009KT 5SM -SN BR OVC004 M01/M02 A3009 RMK AO2 UPB10E25SNE10B25 SLP196 P0000 T10061017=
200611300645 SPECI KPAE 300645Z 14013KT 3SM -SN BR OVC004 M01/M02 A3009 RMK AO2 UPB10E25SNE10B25 CIG 003V008 PRESFR P0000=
200611300645 SPECI KPAE 300645Z 14013KT 3SM -SN BR OVC004 M01/M02 A3009 RMK AO2 UPB10E25SNE10B25 CIG 003V008 PRESFR P0000=
200611300635 SPECI KPAE 300635Z 14012KT 2 1/2SM -SN BR OVC004 M01/M02 A3010 RMK AO2 UPB10E25SNE10B25 CIG 003V008 P0000=
200611300635 SPECI KPAE 300635Z 14012KT 2 1/2SM -SN BR OVC004 M01/M02 A3010 RMK AO2 UPB10E25SNE10B25 CIG 003V008 P0000=
200611300610 SPECI KPAE 300610Z 14017G21KT 4SM UP BR OVC007 M01/M02 A3012 RMK AO2 UPB10SNE10 CIG 005V011 P0000=
200611300610 SPECI KPAE 300610Z 14017G21KT 4SM UP BR OVC007 M01/M02 A3012 RMK AO2 UPB10SNE10 CIG 005V011 P0000=
200611300600 SPECI KPAE 300600Z 15016G24KT 2 1/2SM -SN BR BKN007 OVC010 M01/M02 A3013 RMK AO2 CIG 005V009 P0000=
200611300600 SPECI KPAE 300600Z 15016G24KT 2 1/2SM -SN BR BKN007 OVC010 M01/M02 A3013 RMK AO2 CIG 005V009 P0000=
200611300553 METAR KPAE 300553Z 15015KT 1 3/4SM -SN BR OVC010 M01/M02 A3013 RMK AO2 UPB05E15B38E44FZRAB15E38SNE05B44 CIG 007V012 SLP212 P0001 60001 T10111022 11006 21011 58024=
200611300544 SPECI KPAE 300544Z 15016KT 6SM -SN BR OVC012 M01/M03 A3015 RMK AO2 UPB05E15B38E44FZRAB15E38SNE05B44 PRESFR P0000=
200611300544 SPECI KPAE 300544Z 15016KT 6SM -SN BR OVC012 M01/M03 A3015 RMK AO2 UPB05E15B38E44FZRAB15E38SNE05B44 PRESFR P0000=
200611300521 SPECI KPAE 300521Z 14014KT 7SM -FZRA BKN014 OVC024 M01/M03 A3017 RMK AO2 UPB05E15FZRAB15SNE05 P0000=
200611300521 SPECI KPAE 300521Z 14014KT 7SM -FZRA BKN014 OVC024 M01/M03 A3017 RMK AO2 UPB05E15FZRAB15SNE05 P0000=
200611300503 SPECI KPAE 300503Z 13013KT 4SM -SN BR OVC024 M01/M03 A3017 RMK AO2 P0000=
200611300503 SPECI KPAE 300503Z 13013KT 4SM -SN BR OVC024 M01/M03 A3017 RMK AO2 P0000=
200611300453 METAR KPAE 300453Z 14015KT 2 1/2SM -SN BR BKN024 OVC035 M01/M03 A3017 RMK AO2 UPB12E22SNB22 SLP226 P0000 T10111028=
200611300426 SPECI KPAE 300426Z 15013KT 2 1/2SM -SN OVC029 M01/M04 A3019 RMK AO2 UPB12E22SNB22 P0000=
200611300426 SPECI KPAE 300426Z 15013KT 2 1/2SM -SN OVC029 M01/M04 A3019 RMK AO2 UPB12E22SNB22 P0000=
200611300353 METAR KPAE 300353Z 15008KT 10SM OVC033 M01/M05 A3023 RMK AO2 SLP244 T10061050=
200611300253 METAR KPAE 300253Z 15015KT 10SM OVC039 M01/M05 A3021 RMK AO2 SLP237 T10061050 58046=
200611300153 METAR KPAE 300153Z 14015KT 10SM BKN039 M01/M06 A3025 RMK AO2 SLP251 T10111056=
200611300053 METAR KPAE 300053Z AUTO 13013KT 10SM BKN036 OVC080 M01/M05 A3031 RMK AO2 SLP272 T10111050 TSNO=
200611292353 METAR KPAE 292353Z AUTO 12009KT 10SM OVC043 M01/M05 A3034 RMK AO2 SLP284 60000 T10111050 11011 21039 58029 TSNO=
200611292253 METAR KPAE 292253Z 11009KT 10SM SCT038 BKN047 BKN085 M01/M05 A3038 RMK AO2 SNE24 SLP296 P0000 T10111050=
200611292231 SPECI KPAE 292231Z 11011KT 10SM BKN034 M01/M04 A3039 RMK AO2 SNE24 P0000=
200611292231 SPECI KPAE 292231Z 11011KT 10SM BKN034 M01/M04 A3039 RMK AO2 SNE24 P0000=
200611292203 SPECI KPAE 292203Z 11010KT 3SM -SN OVC020 M02/M05 A3041 RMK AO2 P0000=
200611292203 SPECI KPAE 292203Z 11010KT 3SM -SN OVC020 M02/M05 A3041 RMK AO2 P0000=
200611292153 METAR KPAE 292153Z 11011KT 1 1/2SM -SN OVC018 M02/M05 A3042 RMK AO2 SNE13B36 SLP308 P0000 T10171050=
200611292146 SPECI KPAE 292146Z 11009KT 1 3/4SM -SN OVC018 M02/M06 A3042 RMK AO2 SNE13B36 P0000=
200611292146 SPECI KPAE 292146Z 11009KT 1 3/4SM -SN OVC018 M02/M06 A3042 RMK AO2 SNE13B36 P0000=
200611292053 METAR KPAE 292053Z 11010KT 4SM -SN OVC022 M02/M06 A3043 RMK AO2 SNB44 SLP315 P0000 60000 T10221061 58011=
200611292045 SPECI KPAE 292045Z 13008KT 6SM -SN OVC026 M02/M06 A3044 RMK AO2 SNB44 P0000=
200611292045 SPECI KPAE 292045Z 13008KT 6SM -SN OVC026 M02/M06 A3044 RMK AO2 SNB44 P0000=
200611291953 METAR KPAE 291953Z 13010KT 10SM FEW055 OVC100 M03/M07 A3045 RMK AO2 SLP320 T10281067=
200611291853 METAR KPAE 291853Z 12010KT 10SM FEW055 M03/M07 A3046 RMK AO2 SLP326 T10331072=
200611291753 METAR KPAE 291753Z 12008KT 10SM CLR M04/M08 A3047 RMK AO2 SLP326 T10391078 11039 21067 56002=
200611291653 METAR KPAE 291653Z 10SM CLR M05/M08 A3047 RMK AO2 SLP326 T10501078 $=
200611291600 METAR KPAE NIL=
200611291553 METAR KPAE 291553Z 10SM BKN090 M06/M08 A3047 RMK AO2 SLP327 T10561078 $=
200611291453 METAR KPAE 291453Z 10SM BKN100 M06/M08 A3047 RMK AO2 SLP329 T10611078 51004 $=
200611291353 METAR KPAE 291353Z 33004KT 10SM SCT110 M06/M07 A3047 RMK AO2 SLP328 T10561072=
200611291253 METAR KPAE 291253Z 33004KT 10SM CLR M07/M08 A3046 RMK AO2 SLP326 T10671083=
200611291153 METAR KPAE 291153Z 33003KT 9SM CLR M07/M08 A3046 RMK AO2 SLP325 T10671078 11061 21094 58002=
200611291053 METAR KPAE 291053Z 33003KT 10SM CLR M07/M08 A3047 RMK AO2 SLP328 T10671083=
200611290953 METAR KPAE 290953Z 33003KT 10SM CLR M07/M08 A3047 RMK AO2 SLP328 T10671083=
200611290853 METAR KPAE 290853Z 00000KT 10SM CLR M09/M11 A3047 RMK AO2 SLP327 T10891111 53012=
200611290753 METAR KPAE 290753Z 00000KT 10SM CLR M08/M11 A3045 RMK AO2 SLP321 T10781106 410441094=
200611290653 METAR KPAE 290653Z 00000KT 10SM CLR M09/M11 A3045 RMK AO2 SLP321 T10941111=
200611290553 METAR KPAE 290553Z 00000KT 10SM CLR M07/M11 A3043 RMK AO2 SLP315 T10671106 11056 21083 53014=
200611290453 METAR KPAE 290453Z 00000KT 10SM FEW013 M07/M09 A3042 RMK AO2 SLP310 T10671094=
200611290429 SPECI KPAE 290429Z 00000KT 10SM SCT013 M07/M09 A3041 RMK AO2=
200611290429 SPECI KPAE 290429Z 00000KT 10SM SCT013 M07/M09 A3041 RMK AO2=
200611290420 SPECI KPAE 290420Z 00000KT 10SM BKN013 M07/M09 A3041 RMK AO2=
200611290420 SPECI KPAE 290420Z 00000KT 10SM BKN013 M07/M09 A3041 RMK AO2=
200611290353 METAR KPAE 290353Z 00000KT 10SM FEW015 M07/M10 A3040 RMK AO2 SLP306 T10721100=
200611290253 METAR KPAE 290253Z 00000KT 10SM FEW017 M07/M10 A3039 RMK AO2 SLP301 T10671100 52020=
200611290153 METAR KPAE 290153Z 00000KT 10SM CLR M07/M09 A3037 RMK AO2 SLP295 T10671094=
200611290125 SPECI KPAE 290125Z 33003KT 10SM SCT017 M06/M09 A3036 RMK AO2=
200611290125 SPECI KPAE 290125Z 33003KT 10SM SCT017 M06/M09 A3036 RMK AO2=
200611290053 METAR KPAE 290053Z 00000KT 10SM BKN017 M06/M09 A3035 RMK AO2 SLP287 T10611094=
200611290028 SPECI KPAE 290028Z 32005KT 10SM OVC015 M06/M09 A3034 RMK AO2=
200611290028 SPECI KPAE 290028Z 32005KT 10SM OVC015 M06/M09 A3034 RMK AO2=
200611290006 SPECI KPAE 290006Z 32007KT 10SM BKN013 M06/M08 A3033 RMK AO2=
200611290006 SPECI KPAE 290006Z 32007KT 10SM BKN013 M06/M08 A3033 RMK AO2=
200611282353 METAR KPAE 282353Z 33007KT 10SM SCT011 M06/M08 A3033 RMK AO2 SLP281 T10561083 11044 21061 53023=
200611282253 METAR KPAE 282253Z 32008KT 10SM SCT011 M05/M08 A3031 RMK AO2 SLP272 T10501083=
200611282204 SPECI KPAE 282204Z 10SM SCT011 M05/M08 A3028 RMK AO2 $=
200611282204 SPECI KPAE 282204Z 10SM SCT011 M05/M08 A3028 RMK AO2 $=
200611282200 SPECI KPAE 282200Z 34007KT 10SM BKN011 M05/M08 A3028 RMK AO2 $=
200611282200 SPECI KPAE 282200Z 34007KT 10SM BKN011 M05/M08 A3028 RMK AO2 $=
200611282153 METAR KPAE 282153Z 32009KT 10SM SCT011 M05/M08 A3028 RMK AO2 SLP262 T10501078 $=
200611282053 METAR KPAE 282053Z 33006KT 10SM BKN013 M05/M08 A3026 RMK AO2 SLP256 T10501083 51025 $=
200611282011 SPECI KPAE 282011Z 32008KT 10SM BKN011 M05/M08 A3024 RMK AO2 $=
200611282011 SPECI KPAE 282011Z 32008KT 10SM BKN011 M05/M08 A3024 RMK AO2 $=
200611281953 METAR KPAE 281953Z 33009KT 10SM FEW011 M06/M09 A3023 RMK AO2 SLP246 T10561089 $=
200611281900 METAR KPAE NIL=
200611281856 SPECI KPAE 281856Z 33009KT 10SM SCT011 M06/M09 A3022 RMK AO2 $=
200611281856 SPECI KPAE 281856Z 33009KT 10SM SCT011 M06/M09 A3022 RMK AO2 $=
200611281853 METAR KPAE 281853Z 10SM BKN011 M06/M09 A3022 RMK AO2 SLP242 T10611089 $=
200611281800 METAR KPAE NIL=
200611281753 METAR KPAE 281753Z 34006KT 10SM SCT011 M06/M09 A3019 RMK AO2 SLP231 T10611094 11056 21072 53028 $=
200611281709 SPECI KPAE 281709Z 31010KT 10SM SCT009 M07/M09 A3017 RMK AO2 $=
200611281709 SPECI KPAE 281709Z 31010KT 10SM SCT009 M07/M09 A3017 RMK AO2 $=
200611281700 SPECI KPAE 281700Z 10SM BKN009 M07/M09 A3017 RMK AO2 CIG 008V012 $=
200611281700 SPECI KPAE 281700Z 10SM BKN009 M07/M09 A3017 RMK AO2 CIG 008V012 $=
200611281653 METAR KPAE 281653Z 32010KT 10SM SCT009 M07/M09 A3017 RMK AO2 SLP224 T10721094 $=
200611281600 METAR KPAE NIL=
200611281553 METAR KPAE 281553Z 31008KT 10SM SCT009 M07/M09 A3012 RMK AO2 SLP209 T10671089 $=
200611281534 SPECI KPAE 281534Z 10SM SCT009 M07/M09 A3011 RMK AO2 $=
200611281534 SPECI KPAE 281534Z 10SM SCT009 M07/M09 A3011 RMK AO2 $=
200611281521 SPECI KPAE 281521Z 10SM BKN011 M07/M09 A3011 RMK AO2 $=
200611281521 SPECI KPAE 281521Z 10SM BKN011 M07/M09 A3011 RMK AO2 $=
200611281500 METAR KPAE NIL=
200611281453 METAR KPAE 281453Z 10SM FEW055 M07/M09 A3010 RMK AO2 SLP202 T10671094 51029 $=
200611281353 METAR KPAE 281353Z AUTO 32009KT 10SM OVC050 M07/M09 A3007 RMK AO2 SLP192 T10671094=
200611281253 METAR KPAE 281253Z AUTO 31011G17KT 10SM OVC050 M07/M10 A3004 RMK AO2 SLP182 T10671100=
200611281153 METAR KPAE 281153Z AUTO 31013G18KT 10SM OVC050 M07/M09 A3001 RMK AO2 SLP171 70001 T10671094 11039 21067 51028=
200611281053 METAR KPAE 281053Z AUTO 31010G17KT 10SM OVC048 M06/M09 A2999 RMK AO2 SLP163 T10611094=
200611281000 SPECI KPAE 281000Z AUTO 31010KT 10SM SCT009 OVC048 M06/M09 A2996 RMK AO2=
200611281000 SPECI KPAE 281000Z AUTO 31010KT 10SM SCT009 OVC048 M06/M09 A2996 RMK AO2=
200611280953 METAR KPAE 280953Z AUTO 31009KT 10SM BKN009 BKN048 M06/M08 A2996 RMK AO2 SLP152 T10611083=
200611280853 METAR KPAE 280853Z AUTO 31009KT 10SM OVC007 M06/M07 A2993 RMK AO2 SLP143 T10561072 53025=
200611280753 METAR KPAE 280753Z AUTO 31010G15KT 10SM OVC009 M05/M07 A2991 RMK AO2 SLP134 T10501067 400061050=
200611280742 SPECI KPAE 280742Z AUTO 32009KT 10SM BKN009 OVC046 M05/M07 A2990 RMK AO2=
200611280742 SPECI KPAE 280742Z AUTO 32009KT 10SM BKN009 OVC046 M05/M07 A2990 RMK AO2=
200611280731 SPECI KPAE 280731Z AUTO 32008KT 10SM SCT009 BKN046 OVC055 M05/M07 A2989 RMK AO2=
200611280731 SPECI KPAE 280731Z AUTO 32008KT 10SM SCT009 BKN046 OVC055 M05/M07 A2989 RMK AO2=
200611280653 METAR KPAE 280653Z AUTO 31007KT 10SM FEW013 SCT065 BKN085 M05/M08 A2988 RMK AO2 SLP125 T10501078=
200611280553 METAR KPAE 280553Z AUTO 32008KT 10SM FEW010 OVC030 M04/M07 A2985 RMK AO2 SLP116 T10391067 11006 21039 53027=
200611280542 SPECI KPAE 280542Z AUTO 33008KT 10SM SCT010 OVC030 M03/M06 A2985 RMK AO2=
200611280542 SPECI KPAE 280542Z AUTO 33008KT 10SM SCT010 OVC030 M03/M06 A2985 RMK AO2=
200611280522 SPECI KPAE 280522Z AUTO 34007KT 10SM BKN010 BKN014 OVC028 M03/M07 A2984 RMK AO2 CIG 008V012=
200611280522 SPECI KPAE 280522Z AUTO 34007KT 10SM BKN010 BKN014 OVC028 M03/M07 A2984 RMK AO2 CIG 008V012=
200611280453 METAR KPAE 280453Z AUTO 33008KT 10SM BKN007 OVC011 M03/M05 A2982 RMK AO2 CIG 004V010 SLP106 T10331050=
200611280353 METAR KPAE 280353Z 30010KT 10SM BKN007 OVC011 M03/M04 A2980 RMK AO2 CIG 004V010 SLP097 T10281039=
200611280338 SPECI KPAE 280338Z 31010KT 10SM SCT004 OVC009 M03/M04 A2979 RMK AO2 CIG 006V012=
200611280338 SPECI KPAE 280338Z 31010KT 10SM SCT004 OVC009 M03/M04 A2979 RMK AO2 CIG 006V012=
200611280253 METAR KPAE 280253Z 33006KT 10SM OVC004 M02/M03 A2977 RMK AO2 CIG 003V008 SLP088 T10221033 53022=
200611280153 METAR KPAE 280153Z 33006KT 10SM OVC004 M02/M03 A2975 RMK AO2 CIG 002V007 SLP081 T10221033=
200611280111 SPECI KPAE 280111Z 33008KT 10SM OVC002 M02/M03 A2974 RMK AO2 CIG 001V006=
200611280111 SPECI KPAE 280111Z 33008KT 10SM OVC002 M02/M03 A2974 RMK AO2 CIG 001V006=
200611280053 METAR KPAE 280053Z 34008G15KT 1SM BR OVC002 M02/M03 A2972 RMK AO2 SLP071 T10221028=
200611280041 SPECI KPAE 280041Z 33010KT 1SM BR OVC002 M02/M03 A2972 RMK AO2=
200611280041 SPECI KPAE 280041Z 33010KT 1SM BR OVC002 M02/M03 A2972 RMK AO2=
200611280033 SPECI KPAE 280033Z 35010KT 1/4SM FZFG OVC002 M02/M03 A2972 RMK AO2=
200611280033 SPECI KPAE 280033Z 35010KT 1/4SM FZFG OVC002 M02/M03 A2972 RMK AO2=
200611280013 SPECI KPAE 280013Z 35009KT 1SM BR BKN002 BKN006 OVC032 M01/M02 A2971 RMK AO2 CIG 001V005=
200611280013 SPECI KPAE 280013Z 35009KT 1SM BR BKN002 BKN006 OVC032 M01/M02 A2971 RMK AO2 CIG 001V005=
200611272353 METAR KPAE 272353Z AUTO 35008KT 10SM OVC006 M01/M02 A2971 RMK AO2 SLP064 60001 T10061022 10006 21006 53012 TSNO=
200611272324 SPECI KPAE 272324Z 36005KT 10SM OVC006 M01/M02 A2970 RMK AO2=
200611272324 SPECI KPAE 272324Z 36005KT 10SM OVC006 M01/M02 A2970 RMK AO2=
200611272317 SPECI KPAE 272317Z 35005KT 10SM OVC004 M01/M02 A2969 RMK AO2 CIG 002V008=
200611272317 SPECI KPAE 272317Z 35005KT 10SM OVC004 M01/M02 A2969 RMK AO2 CIG 002V008=
200611272303 SPECI KPAE 272303Z 34007KT 10SM BKN006 OVC031 00/M02 A2969 RMK AO2 CIG 002V008=
200611272303 SPECI KPAE 272303Z 34007KT 10SM BKN006 OVC031 00/M02 A2969 RMK AO2 CIG 002V008=
200611272253 METAR KPAE 272253Z 34006KT 10SM BKN004 OVC029 00/M01 A2969 RMK AO2 CIG 001V008 SLP058 T00001011=
200611272236 SPECI KPAE 272236Z 34006KT 7SM BKN003 BKN010 OVC029 00/M01 A2968 RMK AO2 CIG 001V006=
200611272236 SPECI KPAE 272236Z 34006KT 7SM BKN003 BKN010 OVC029 00/M01 A2968 RMK AO2 CIG 001V006=
200611272219 SPECI KPAE 272219Z 34003KT 10SM BKN005 00/M01 A2968 RMK AO2 CIG 002V009=
200611272219 SPECI KPAE 272219Z 34003KT 10SM BKN005 00/M01 A2968 RMK AO2 CIG 002V009=
200611272153 METAR KPAE 272153Z VRB04KT 10SM FEW003 SCT027 01/M02 A2968 RMK AO2 SLP055 T00061017=
200611272128 SPECI KPAE 272128Z 34004KT 10SM FEW003 SCT024 01/M02 A2968 RMK AO2=
200611272128 SPECI KPAE 272128Z 34004KT 10SM FEW003 SCT024 01/M02 A2968 RMK AO2=
200611272053 METAR KPAE 272053Z 32005KT 10SM SCT009 BKN019 BKN024 M01/M02 A2967 RMK AO2 SLP053 P0001 60001 T10061017 51006=
200611272028 SPECI KPAE 272028Z 30005KT 10SM SCT009 BKN017 OVC027 00/M02 A2967 RMK AO2 P0001=
200611272028 SPECI KPAE 272028Z 30005KT 10SM SCT009 BKN017 OVC027 00/M02 A2967 RMK AO2 P0001=
200611272022 SPECI KPAE 272022Z 29005KT 10SM FEW005 BKN013 OVC027 00/M02 A2967 RMK AO2=
200611272022 SPECI KPAE 272022Z 29005KT 10SM FEW005 BKN013 OVC027 00/M02 A2967 RMK AO2=
200611271953 METAR KPAE 271953Z 19008KT 10SM BKN022 OVC026 01/M03 A2967 RMK AO2 SLP052 T00061028=
200611271924 SPECI KPAE 271924Z 18007KT 10SM SCT019 BKN028 BKN034 01/M02 A2966 RMK AO2=
200611271924 SPECI KPAE 271924Z 18007KT 10SM SCT019 BKN028 BKN034 01/M02 A2966 RMK AO2=
200611271914 SPECI KPAE 271914Z 19004KT 10SM FEW025 BKN033 OVC100 01/M02 A2966 RMK AO2=
200611271914 SPECI KPAE 271914Z 19004KT 10SM FEW025 BKN033 OVC100 01/M02 A2966 RMK AO2=
200611271853 METAR KPAE 271853Z 17004KT 10SM BKN024 OVC031 00/M02 A2966 RMK AO2 SLP050 T00001017=
200611271753 METAR KPAE 271753Z 18007KT 10SM BKN016 BKN024 00/M02 A2965 RMK AO2 SLP047 60000 T00001022 10000 21011 52014=
200611271707 SPECI KPAE 271707Z 19010KT 10SM BKN012 M01/M03 A2964 RMK AO2=
200611271707 SPECI KPAE 271707Z 19010KT 10SM BKN012 M01/M03 A2964 RMK AO2=
200611271653 METAR KPAE 271653Z 20008KT 10SM CLR M01/M03 A2964 RMK AO2 SLP043 T10111028=
200611271625 SPECI KPAE 271625Z 20008KT 10SM FEW021 M01/M03 A2964 RMK AO2=
200611271625 SPECI KPAE 271625Z 20008KT 10SM FEW021 M01/M03 A2964 RMK AO2=
200611271553 METAR KPAE 271553Z 19008KT 10SM OVC024 M01/M02 A2962 RMK AO2 SLP038 T10061022=
200611271453 METAR KPAE 271453Z 19006KT 10SM OVC016 00/M02 A2961 RMK AO2 SNB00E20 SLP032 P0000 60000 T00001017 51016=
200611271418 SPECI KPAE 271418Z 20006KT 6SM -SN BR FEW014 BKN026 OVC031 00/M02 A2960 RMK AO2 SNB00 P0000=
200611271418 SPECI KPAE 271418Z 20006KT 6SM -SN BR FEW014 BKN026 OVC031 00/M02 A2960 RMK AO2 SNB00 P0000=
200611271411 SPECI KPAE 271411Z 19007KT 2 1/2SM -SN BR FEW014 BKN024 OVC031 00/M02 A2960 RMK AO2 SNB00 P0000=
200611271411 SPECI KPAE 271411Z 19007KT 2 1/2SM -SN BR FEW014 BKN024 OVC031 00/M02 A2960 RMK AO2 SNB00 P0000=
200611271353 METAR KPAE 271353Z 18008KT 9SM BKN020 BKN026 OVC031 00/M02 A2960 RMK AO2 SLP027 T00001017=
200611271253 METAR KPAE 271253Z 18010KT 10SM OVC016 00/M02 A2958 RMK AO2 SLP023 T00001017=
200611271153 METAR KPAE 271153Z 18009KT 10SM FEW014 OVC020 00/M02 A2956 RMK AO2 SLP016 60012 70081 T00001017 10006 20000 51014=
200611271053 METAR KPAE 271053Z 18009KT 10SM OVC016 01/M01 A2956 RMK AO2 SLP015 T00061011=
200611270953 METAR KPAE 270953Z 19009KT 10SM OVC018 01/M02 A2955 RMK AO2 SLP010 P0004 T00061017=
200611270904 SPECI KPAE 270904Z 19012KT 10SM BKN020 BKN065 OVC090 01/M01 A2952 RMK AO2 P0002=
200611270904 SPECI KPAE 270904Z 19012KT 10SM BKN020 BKN065 OVC090 01/M01 A2952 RMK AO2 P0002=
200611270853 METAR KPAE 270853Z 18011KT 10SM SCT018 BKN070 OVC085 01/M01 A2952 RMK AO2 SNE13 SLP002 P0008 60008 T00061011 53014=
200611270842 SPECI KPAE 270842Z 18012KT 10SM SCT016 BKN070 OVC090 01/M01 A2951 RMK AO2 SNE13 P0006=
200611270842 SPECI KPAE 270842Z 18012KT 10SM SCT016 BKN070 OVC090 01/M01 A2951 RMK AO2 SNE13 P0006=
200611270814 SPECI KPAE 270814Z 18011KT 9SM SCT007 OVC015 01/M01 A2951 RMK AO2 SNE13 P0001=
200611270814 SPECI KPAE 270814Z 18011KT 9SM SCT007 OVC015 01/M01 A2951 RMK AO2 SNE13 P0001=
200611270753 METAR KPAE 270753Z 17009KT 6SM -SN BR BKN005 OVC014 01/M01 A2950 RMK AO2 UPB37E44SNE37B44 CIG 002V008 SLP995 P0000 T00061006 400331006=
200611270719 SPECI KPAE 270719Z 13003KT 3SM -SN BR BKN005 BKN012 OVC024 00/M01 A2949 RMK AO2 CIG 002V010 P0000=
200611270719 SPECI KPAE 270719Z 13003KT 3SM -SN BR BKN005 BKN012 OVC024 00/M01 A2949 RMK AO2 CIG 002V010 P0000=
200611270714 SPECI KPAE 270714Z 13003KT 1 3/4SM -SN BR FEW003 BKN008 OVC024 00/M01 A2949 RMK AO2 CIG 006V012 P0000=
200611270714 SPECI KPAE 270714Z 13003KT 1 3/4SM -SN BR FEW003 BKN008 OVC024 00/M01 A2949 RMK AO2 CIG 006V012 P0000=
200611270706 SPECI KPAE 270706Z 13003KT 1 1/4SM -SN BR FEW012 BKN024 OVC031 00/M01 A2949 RMK AO2 P0000=
200611270706 SPECI KPAE 270706Z 13003KT 1 1/4SM -SN BR FEW012 BKN024 OVC031 00/M01 A2949 RMK AO2 P0000=
200611270653 METAR KPAE 270653Z 11003KT 1 3/4SM -SN BR FEW004 SCT024 OVC031 00/M01 A2949 RMK AO2 SNB44 SLP991 P0000 T00001006=
200611270650 SPECI KPAE 270650Z 13004KT 2SM -SN BR FEW004 OVC031 00/M01 A2949 RMK AO2 SNB44 P0000=
200611270650 SPECI KPAE 270650Z 13004KT 2SM -SN BR FEW004 OVC031 00/M01 A2949 RMK AO2 SNB44 P0000=
200611270640 SPECI KPAE 270640Z 12004KT 4SM BR SCT025 OVC031 00/M01 A2949 RMK AO2=
200611270640 SPECI KPAE 270640Z 12004KT 4SM BR SCT025 OVC031 00/M01 A2949 RMK AO2=
200611270553 METAR KPAE 270553Z 15004KT 5SM BR BKN022 OVC039 00/M01 A2948 RMK AO2 SLP988 60019 T00001011 10000 21006 51015=
200611270453 METAR KPAE 270453Z 00000KT 6SM BR SCT003 OVC018 M01/M01 A2946 RMK AO2 SNE0357 SLP982 P0001 T10061011=
200611270353 METAR KPAE 270353Z 10005KT 4SM -SN BR BKN003 OVC025 M01/M02 A2946 RMK AO2 SLP980 P0000 T10061017=
200611270339 SPECI KPAE 270339Z 10004KT 2 1/2SM -SN BR BKN003 BKN011 OVC025 M01/M01 A2945 RMK AO2 P0000=
200611270339 SPECI KPAE 270339Z 10004KT 2 1/2SM -SN BR BKN003 BKN011 OVC025 M01/M01 A2945 RMK AO2 P0000=
200611270334 SPECI KPAE 270334Z 10004KT 2SM -SN BR SCT003 SCT011 OVC025 M01/M02 A2945 RMK AO2 P0000=
200611270334 SPECI KPAE 270334Z 10004KT 2SM -SN BR SCT003 SCT011 OVC025 M01/M02 A2945 RMK AO2 P0000=
200611270322 SPECI KPAE 270322Z 11004KT 1 3/4SM -SN BR SCT005 BKN011 OVC025 M01/M01 A2945 RMK AO2 P0000=
200611270322 SPECI KPAE 270322Z 11004KT 1 3/4SM -SN BR SCT005 BKN011 OVC025 M01/M01 A2945 RMK AO2 P0000=
200611270300 SPECI KPAE 270300Z 07003KT 1 1/4SM -SN BR BKN005 OVC011 M01/M01 A2944 RMK AO2 P0000=
200611270300 SPECI KPAE 270300Z 07003KT 1 1/4SM -SN BR BKN005 OVC011 M01/M01 A2944 RMK AO2 P0000=
200611270253 METAR KPAE 270253Z 07003KT 1 1/4SM -SN BR OVC003 M01/M01 A2943 RMK AO2 CIG 001V008 SLP972 P0003 60018 T10061011 51047=
200611270230 SPECI KPAE 270230Z 36003KT 1SM -SN BR OVC003 M01/M01 A2942 RMK AO2 P0002=
200611270230 SPECI KPAE 270230Z 36003KT 1SM -SN BR OVC003 M01/M01 A2942 RMK AO2 P0002=
200611270153 METAR KPAE 270153Z 35005KT 1/2SM SN FZFG BKN003 OVC008 M01/M01 A2940 RMK AO2 SLP961 P0007 T10061011=
200611270139 SPECI KPAE 270139Z 33005KT 1/2SM SN FZFG OVC003 M01/M01 A2939 RMK AO2 P0005=
200611270139 SPECI KPAE 270139Z 33005KT 1/2SM SN FZFG OVC003 M01/M01 A2939 RMK AO2 P0005=
200611270100 SPECI KPAE 270100Z 25004KT 1/2SM SN FG OVC001 00/M01 A2938 RMK AO2 P0001=
200611270100 SPECI KPAE 270100Z 25004KT 1/2SM SN FG OVC001 00/M01 A2938 RMK AO2 P0001=
200611270053 METAR KPAE 270053Z 24004KT 1/4SM +SN FG OVC001 00/M01 A2937 RMK AO2 PRESRR SLP950 P0008 T00001006=
200611270018 SPECI KPAE 270018Z 29006KT 1/4SM SN FG OVC001 00/M01 A2933 RMK AO2 P0003=
200611270018 SPECI KPAE 270018Z 29006KT 1/4SM SN FG OVC001 00/M01 A2933 RMK AO2 P0003=
200611270005 SPECI KPAE 270005Z 30005KT 1/2SM -SN FG OVC001 00/M01 A2931 RMK AO2 PRESRR P0001=
200611270005 SPECI KPAE 270005Z 30005KT 1/2SM -SN FG OVC001 00/M01 A2931 RMK AO2 PRESRR P0001=
200611262353 METAR KPAE 262353Z 33004KT 3/4SM -SN BR OVC003 00/M01 A2929 RMK AO2 PRESRR SLP924 P0011 60040 T00001006 10022 20000 53028=
200611262253 METAR KPAE 262253Z 34006KT 1/4SM SN FG OVC003 00/M01 A2923 RMK AO2 RAE16SNB16 SLP902 P0015 T00001006=
200611262236 SPECI KPAE 262236Z 32007KT 1/4SM +SN FG BKN003 OVC010 00/M01 A2922 RMK AO2 RAE16SNB16 P0011=
200611262236 SPECI KPAE 262236Z 32007KT 1/4SM +SN FG BKN003 OVC010 00/M01 A2922 RMK AO2 RAE16SNB16 P0011=
200611262227 SPECI KPAE 262227Z 31006KT 1/2SM SN FG BKN003 OVC009 01/00 A2922 RMK AO2 RAE16SNB16 CIG 001V007 P0010=
200611262227 SPECI KPAE 262227Z 31006KT 1/2SM SN FG BKN003 OVC009 01/00 A2922 RMK AO2 RAE16SNB16 CIG 001V007 P0010=
200611262153 METAR KPAE 262153Z 30005KT 3SM RA BR BKN007 OVC026 02/01 A2920 RMK AO2 CIG 006V010 SLP892 P0004 T00220006=
200611262146 SPECI KPAE 262146Z 31005KT 4SM -RA BR SCT007 OVC028 02/01 A2920 RMK AO2 P0003=
200611262146 SPECI KPAE 262146Z 31005KT 4SM -RA BR SCT007 OVC028 02/01 A2920 RMK AO2 P0003=
200611262132 SPECI KPAE 262132Z 12005KT 5SM -RA BR OVC028 02/01 A2919 RMK AO2 P0002=
200611262132 SPECI KPAE 262132Z 12005KT 5SM -RA BR OVC028 02/01 A2919 RMK AO2 P0002=
200611262053 METAR KPAE 262053Z 10008KT 8SM -RA OVC030 02/01 A2921 RMK AO2 RAB1959SNE1959 SLP894 P0001 60010 T00220011 58039=
200611261953 METAR KPAE 261953Z 11010KT 4SM -SN BR FEW023 OVC030 01/00 A2928 RMK AO2 RAB25E50UPB38E45SNE25B50 SLP917 P0003 T00110000=
200611261930 SPECI KPAE 261930Z 10009KT 3SM -RA BR FEW003 SCT022 OVC032 01/00 A2928 RMK AO2 RAB25SNE25 P0002=
200611261930 SPECI KPAE 261930Z 10009KT 3SM -RA BR FEW003 SCT022 OVC032 01/00 A2928 RMK AO2 RAB25SNE25 P0002=
200611261920 SPECI KPAE 261920Z 10010KT 2 1/2SM -SN BR FEW003 BKN015 OVC032 01/00 A2929 RMK AO2 P0002=
200611261920 SPECI KPAE 261920Z 10010KT 2 1/2SM -SN BR FEW003 BKN015 OVC032 01/00 A2929 RMK AO2 P0002=
200611261911 SPECI KPAE 261911Z 10012KT 1 1/4SM -SN BR SCT003 BKN015 OVC025 01/00 A2930 RMK AO2 P0001=
200611261911 SPECI KPAE 261911Z 10012KT 1 1/4SM -SN BR SCT003 BKN015 OVC025 01/00 A2930 RMK AO2 P0001=
200611261900 SPECI KPAE 261900Z 11011KT 3/4SM -SN BR SCT003 OVC011 01/00 A2931 RMK AO2 P0001=
200611261900 SPECI KPAE 261900Z 11011KT 3/4SM -SN BR SCT003 OVC011 01/00 A2931 RMK AO2 P0001=
200611261853 METAR KPAE 261853Z 10011KT 1SM -SN BR SCT003 OVC011 01/M01 A2932 RMK AO2 SLP932 P0006 T00061006=
200611261848 SPECI KPAE 261848Z 10011KT 1SM -SN BR SCT003 OVC011 01/M01 A2933 RMK AO2 P0005=
200611261848 SPECI KPAE 261848Z 10011KT 1SM -SN BR SCT003 OVC011 01/M01 A2933 RMK AO2 P0005=
200611261835 SPECI KPAE 261835Z 10010KT 1SM -SN BR FEW003 OVC009 01/00 A2933 RMK AO2 P0004=
200611261835 SPECI KPAE 261835Z 10010KT 1SM -SN BR FEW003 OVC009 01/00 A2933 RMK AO2 P0004=
200611261808 SPECI KPAE 261808Z 11011KT 1/2SM SN FG VV009 01/M01 A2935 RMK AO2 P0002=
200611261808 SPECI KPAE 261808Z 11011KT 1/2SM SN FG VV009 01/M01 A2935 RMK AO2 P0002=
200611261753 METAR KPAE 261753Z 11011KT 1 1/2SM -SN BR OVC011 01/00 A2935 RMK AO2 SLP945 P0004 60010 T00060000 10028 20006 56036=
200611261725 SPECI KPAE 261725Z 11011KT 1SM -SN BR SCT004 OVC011 01/M01 A2936 RMK AO2 P0002=
200611261725 SPECI KPAE 261725Z 11011KT 1SM -SN BR SCT004 OVC011 01/M01 A2936 RMK AO2 P0002=
200611261653 METAR KPAE 261653Z 11012KT 3/4SM -SN BR BKN004 OVC007 01/M01 A2938 RMK AO2 SLP953 P0002 T00061006=
200611261629 SPECI KPAE 261629Z 11015KT 3/4SM -SN BR SCT004 OVC007 01/M01 A2940 RMK AO2 P0001=
200611261629 SPECI KPAE 261629Z 11015KT 3/4SM -SN BR SCT004 OVC007 01/M01 A2940 RMK AO2 P0001=
200611261622 SPECI KPAE 261622Z 10015KT 3/4SM -SN BR BKN004 OVC007 01/M01 A2940 RMK AO2 P0001=
200611261622 SPECI KPAE 261622Z 10015KT 3/4SM -SN BR BKN004 OVC007 01/M01 A2940 RMK AO2 P0001=
200611261553 METAR KPAE 261553Z 11014G21KT 1 1/2SM -SN BR OVC004 01/M01 A2941 RMK AO2 SLP963 P0003 T00061006=
200611261538 SPECI KPAE 261538Z 10016G21KT 1 1/4SM -SN BR OVC004 01/M01 A2941 RMK AO2 P0002=
200611261538 SPECI KPAE 261538Z 10016G21KT 1 1/4SM -SN BR OVC004 01/M01 A2941 RMK AO2 P0002=
200611261519 SPECI KPAE 261519Z 11013G18KT 3/4SM -SN BR VV004 01/M01 A2943 RMK AO2 PRESFR P0001=
200611261519 SPECI KPAE 261519Z 11013G18KT 3/4SM -SN BR VV004 01/M01 A2943 RMK AO2 PRESFR P0001=
200611261505 SPECI KPAE 261505Z 11012KT 1SM -SN BR FEW003 OVC008 01/M01 A2945 RMK AO2 P0001=
200611261505 SPECI KPAE 261505Z 11012KT 1SM -SN BR FEW003 OVC008 01/M01 A2945 RMK AO2 P0001=
200611261453 METAR KPAE 261453Z AUTO 11013KT 1 1/4SM -SN BR OVC010 01/M01 A2946 RMK AO2 UPE1354SNB1354 SLP980 P0001 60001 T00061006 56055 TSNO=
200611261437 SPECI KPAE 261437Z AUTO 11013KT 2 1/2SM -SN BR OVC014 01/M01 A2947 RMK AO2 UPE1354SNB1354 P0000 TSNO=
200611261437 SPECI KPAE 261437Z AUTO 11013KT 2 1/2SM -SN BR OVC014 01/M01 A2947 RMK AO2 UPE1354SNB1354 P0000 TSNO=
200611261353 METAR KPAE 261353Z AUTO 12014KT 9SM UP OVC022 02/M01 A2951 RMK AO2 RAB27E46UPB28 PRESFR SLP998 P0000 T00221011=
200611261336 SPECI KPAE 261336Z AUTO 12011KT 10SM -RA OVC024 03/M02 A2953 RMK AO2 RAB27UPB28E32 P0000=
200611261336 SPECI KPAE 261336Z AUTO 12011KT 10SM -RA OVC024 03/M02 A2953 RMK AO2 RAB27UPB28E32 P0000=
200611261253 METAR KPAE 261253Z AUTO 10009KT 10SM OVC055 02/M02 A2957 RMK AO2 SLP018 T00221017=
200611261153 METAR KPAE 261153Z AUTO 10012KT 10SM OVC055 03/M02 A2962 RMK AO2 SLP036 70001 T00281022 10033 20028 58044=
200611261053 METAR KPAE 261053Z AUTO 10014KT 10SM FEW050 03/M02 A2968 RMK AO2 SLP055 T00281022=
200611260953 METAR KPAE 260953Z AUTO 11007KT 10SM OVC060 03/M03 A2973 RMK AO2 SLP071 T00281028=
200611260853 METAR KPAE 260853Z AUTO 12009KT 10SM SCT060 OVC070 03/M03 A2976 RMK AO2 SLP080 T00281033 58034=
200611260753 METAR KPAE 260753Z AUTO 11011KT 10SM OVC060 03/M04 A2979 RMK AO2 SLP093 T00281039 400390011=
200611260653 METAR KPAE 260653Z AUTO 13012KT 10SM SCT070 OVC110 03/M04 A2983 RMK AO2 SLP106 T00331044=
200611260553 METAR KPAE 260553Z AUTO 13012KT 10SM OVC110 03/M04 A2986 RMK AO2 SLP116 60001 T00281039 10039 20028 58015=
200611260453 METAR KPAE 260453Z 13010KT 10SM SCT080 OVC100 03/M04 A2988 RMK AO2 SLP123 T00331039=
200611260353 METAR KPAE 260353Z 15012KT 10SM FEW055 BKN070 OVC110 03/M03 A2989 RMK AO2 SLP127 T00331028=
200611260253 METAR KPAE 260253Z 16010KT 10SM FEW040 BKN070 OVC100 03/M02 A2990 RMK AO2 RAE11 SLP131 P0000 60001 T00331017 58019=
200611260212 SPECI KPAE 260212Z 13011KT 10SM FEW012 BKN039 OVC055 03/M01 A2993 RMK AO2 RAE11 P0000=
200611260212 SPECI KPAE 260212Z 13011KT 10SM FEW012 BKN039 OVC055 03/M01 A2993 RMK AO2 RAE11 P0000=
200611260153 METAR KPAE 260153Z 15014G19KT 4SM -RA SCT016 BKN029 OVC039 03/M01 A2994 RMK AO2 RAB37 SLP142 P0001 T00281011=
200611260053 METAR KPAE 260053Z 13010KT 10SM BKN047 BKN080 OVC110 03/M01 A2994 RMK AO2 SLP143 T00331006=
200611252353 METAR KPAE 252353Z AUTO 13012KT 10SM BKN090 04/M01 A2996 RMK AO2 SLP150 T00391006 10039 20028 58013 TSNO=
200611252253 METAR KPAE 252253Z 13007KT 10SM FEW027 SCT037 OVC080 04/M02 A2997 RMK AO2 SLP155 T00391022=
200611252153 METAR KPAE 252153Z 13009KT 10SM FEW025 BKN037 OVC080 04/M02 A2999 RMK AO2 SLP162 T00391017=
200611252053 METAR KPAE 252053Z 15006KT 10SM SCT080 OVC150 04/M02 A3000 RMK AO2 SLP163 T00391017 58003=
200611252007 SPECI KPAE 252007Z 15007KT 10SM BKN018 BKN075 04/M01 A3001 RMK AO2=
200611252007 SPECI KPAE 252007Z 15007KT 10SM BKN018 BKN075 04/M01 A3001 RMK AO2=
200611252000 SPECI KPAE 252000Z 14005KT 10SM CLR 04/M01 A3001 RMK AO2=
200611252000 SPECI KPAE 252000Z 14005KT 10SM CLR 04/M01 A3001 RMK AO2=
200611251953 METAR KPAE 251953Z 15006KT 10SM BKN018 OVC075 04/M01 A3001 RMK AO2 SLP167 T00391011=
200611251853 METAR KPAE 251853Z 18007KT 10SM FEW016 BKN023 OVC030 03/00 A3002 RMK AO2 SLP171 T00330000=
200611251823 SPECI KPAE 251823Z 17006KT 10SM SCT009 BKN017 OVC028 03/00 A3002 RMK AO2=
200611251823 SPECI KPAE 251823Z 17006KT 10SM SCT009 BKN017 OVC028 03/00 A3002 RMK AO2=
200611251753 METAR KPAE 251753Z 15005KT 10SM BKN013 BKN019 BKN027 03/01 A3001 RMK AO2 SLP167 60000 T00280006 10028 20017 51017=
200611251735 SPECI KPAE 251735Z 15004KT 10SM BKN013 BKN019 BKN027 03/01 A3001 RMK AO2=
200611251735 SPECI KPAE 251735Z 15004KT 10SM BKN013 BKN019 BKN027 03/01 A3001 RMK AO2=
200611251728 SPECI KPAE 251728Z 15005KT 10SM SCT013 BKN019 BKN027 03/01 A3001 RMK AO2=
200611251728 SPECI KPAE 251728Z 15005KT 10SM SCT013 BKN019 BKN027 03/01 A3001 RMK AO2=
200611251653 METAR KPAE 251653Z 17003KT 10SM FEW013 SCT075 02/00 A3000 RMK AO2 SLP162 T00220000=
200611251553 METAR KPAE 251553Z 00000KT 10SM BKN013 OVC021 02/00 A2999 RMK AO2 RAE1459 SLP161 P0000 T00170000=
200611251537 SPECI KPAE 251537Z 36003KT 10SM OVC013 02/00 A2998 RMK AO2 RAE1459 P0000=
200611251537 SPECI KPAE 251537Z 36003KT 10SM OVC013 02/00 A2998 RMK AO2 RAE1459 P0000=
200611251515 SPECI KPAE 251515Z 33006KT 10SM FEW008 BKN015 OVC060 02/01 A2997 RMK AO2 RAE1459 P0000=
200611251515 SPECI KPAE 251515Z 33006KT 10SM FEW008 BKN015 OVC060 02/01 A2997 RMK AO2 RAE1459 P0000=
200611251508 SPECI KPAE 251508Z 31006KT 10SM SCT013 BKN023 OVC060 02/01 A2996 RMK AO2 RAE1459 P0000=
200611251508 SPECI KPAE 251508Z 31006KT 10SM SCT013 BKN023 OVC060 02/01 A2996 RMK AO2 RAE1459 P0000=
200611251453 METAR KPAE 251453Z 32006KT 10SM -RA FEW012 BKN060 OVC070 02/00 A2996 RMK AO2 RAB50 SLP149 P0000 60000 T00220000 53011=
200611251440 SPECI KPAE 251440Z AUTO 31004KT 10SM SCT014 BKN037 OVC060 02/00 A2996 RMK AO2=
200611251440 SPECI KPAE 251440Z AUTO 31004KT 10SM SCT014 BKN037 OVC060 02/00 A2996 RMK AO2=
200611251353 METAR KPAE 251353Z AUTO 32005KT 10SM SCT011 OVC016 03/01 A2994 RMK AO2 UPB04E06RAB06E17 SLP145 P0000 T00280006=
200611251343 SPECI KPAE 251343Z AUTO 27003KT 10SM FEW009 BKN015 OVC048 03/01 A2994 RMK AO2 UPB04E06RAB06E17 P0000=
200611251343 SPECI KPAE 251343Z AUTO 27003KT 10SM FEW009 BKN015 OVC048 03/01 A2994 RMK AO2 UPB04E06RAB06E17 P0000=
200611251322 SPECI KPAE 251322Z AUTO 28003KT 10SM BKN010 BKN017 OVC046 02/01 A2994 RMK AO2 UPB04E06RAB06E17 P0000=
200611251322 SPECI KPAE 251322Z AUTO 28003KT 10SM BKN010 BKN017 OVC046 02/01 A2994 RMK AO2 UPB04E06RAB06E17 P0000=
200611251313 SPECI KPAE 251313Z AUTO 26004KT 10SM -RA SCT010 SCT019 OVC044 02/01 A2994 RMK AO2 UPB04E06RAB06 P0000=
200611251313 SPECI KPAE 251313Z AUTO 26004KT 10SM -RA SCT010 SCT019 OVC044 02/01 A2994 RMK AO2 UPB04E06RAB06 P0000=
200611251306 SPECI KPAE 251306Z AUTO VRB03KT 10SM -RA BKN010 BKN015 OVC044 02/01 A2994 RMK AO2 UPB04E06RAB06 CIG 004V012 P0000=
200611251306 SPECI KPAE 251306Z AUTO VRB03KT 10SM -RA BKN010 BKN015 OVC044 02/01 A2994 RMK AO2 UPB04E06RAB06 CIG 004V012 P0000=
200611251253 METAR KPAE 251253Z AUTO 20003KT 10SM SCT010 BKN015 OVC065 02/01 A2993 RMK AO2 SLP141 T00220011=
200611251202 SPECI KPAE 251202Z AUTO 24004KT 10SM FEW003 OVC014 02/01 A2993 RMK AO2=
200611251202 SPECI KPAE 251202Z AUTO 24004KT 10SM FEW003 OVC014 02/01 A2993 RMK AO2=
200611251153 METAR KPAE 251153Z AUTO 23003KT 10SM BKN003 OVC014 02/01 A2993 RMK AO2 SLP138 T00220011 10028 20006 53004=
200611251053 METAR KPAE 251053Z AUTO 21005KT 8SM OVC003 02/02 A2992 RMK AO2 SLP135 T00220017=
200611251043 SPECI KPAE 251043Z AUTO 20006KT 8SM OVC003 02/02 A2991 RMK AO2 CIG 001V005=
200611251043 SPECI KPAE 251043Z AUTO 20006KT 8SM OVC003 02/02 A2991 RMK AO2 CIG 001V005=
200611251004 SPECI KPAE 251004Z AUTO 19006KT 10SM BKN009 OVC040 02/01 A2991 RMK AO2=
200611251004 SPECI KPAE 251004Z AUTO 19006KT 10SM BKN009 OVC040 02/01 A2991 RMK AO2=
200611250953 METAR KPAE 250953Z AUTO 20006KT 10SM SCT009 OVC040 02/01 A2991 RMK AO2 SLP134 T00220006=
200611250853 METAR KPAE 250853Z AUTO 22004KT 10SM FEW009 BKN047 OVC090 02/01 A2991 RMK AO2 SLP135 T00220006 56001=
200611250840 SPECI KPAE 250840Z AUTO 20005KT 10SM SCT020 BKN047 OVC090 02/01 A2992 RMK AO2=
200611250840 SPECI KPAE 250840Z AUTO 20005KT 10SM SCT020 BKN047 OVC090 02/01 A2992 RMK AO2=
200611250753 METAR KPAE 250753Z AUTO 18005KT 8SM SCT013 OVC018 02/01 A2992 RMK AO2 SLP136 T00170011 400560006=
200611250716 SPECI KPAE 250716Z AUTO 17006KT 10SM BKN011 01/00 A2992 RMK AO2 LTG DSNT N=
200611250716 SPECI KPAE 250716Z AUTO 17006KT 10SM BKN011 01/00 A2992 RMK AO2 LTG DSNT N=
200611250702 SPECI KPAE 250702Z AUTO 16004KT 10SM SCT011 01/00 A2992 RMK AO2=
200611250702 SPECI KPAE 250702Z AUTO 16004KT 10SM SCT011 01/00 A2992 RMK AO2=
200611250653 METAR KPAE 250653Z AUTO 18004KT 10SM BKN011 01/00 A2992 RMK AO2 SLP136 T00060000=
200611250553 METAR KPAE 250553Z AUTO 20005KT 10SM CLR 02/01 A2992 RMK AO2 SLP137 T00170006 10050 20011 55004=
200611250453 METAR KPAE 250453Z AUTO 19008KT 10SM CLR 02/01 A2992 RMK AO2 SLP136 T00220006=
200611250353 METAR KPAE 250353Z 17007KT 10SM FEW070 02/00 A2993 RMK AO2 SLP139 T00170000=
200611250253 METAR KPAE 250253Z 18006KT 10SM FEW110 03/01 A2993 RMK AO2 SLP140 T00330011 58000=
200611250153 METAR KPAE 250153Z 18005KT 10SM BKN120 03/01 A2994 RMK AO2 SLP143 T00280006=
200611250053 METAR KPAE 250053Z 19006KT 10SM FEW024 SCT110 04/01 A2994 RMK AO2 SLP142 T00440011=
200611242353 METAR KPAE 242353Z 18009KT 10SM OVC035 05/01 A2993 RMK AO2 SLP141 T00500011 10056 20044 58002=
200611242300 SPECI KPAE 242300Z 19009KT 10SM FEW020 BKN033 06/01 A2993 RMK AO2=
200611242300 SPECI KPAE 242300Z 19009KT 10SM FEW020 BKN033 06/01 A2993 RMK AO2=
200611242253 METAR KPAE 242253Z 19012KT 10SM BKN020 OVC030 06/01 A2994 RMK AO2 SLP141 T00560011=
200611242153 METAR KPAE 242153Z 18012KT 10SM BKN020 OVC026 05/01 A2994 RMK AO2 SLP142 T00500011=
200611242053 METAR KPAE 242053Z 18013KT 10SM BKN017 BKN024 OVC029 06/02 A2994 RMK AO2 SLP142 T00560017 58005=
200611241953 METAR KPAE 241953Z 18012KT 10SM BKN016 BKN024 OVC030 05/01 A2995 RMK AO2 SLP145 T00500011=
200611241853 METAR KPAE 241853Z 20011KT 10SM OVC016 04/02 A2995 RMK AO2 SLP147 T00440017=
200611241753 METAR KPAE 241753Z 19014KT 10SM BKN014 BKN021 04/02 A2995 RMK AO2 SLP147 T00440017 10044 20028 51004=
200611241653 METAR KPAE 241653Z 18009KT 10SM BKN016 BKN100 04/02 A2995 RMK AO2 SLP146 T00390017=
200611241553 METAR KPAE 241553Z 18013KT 10SM BKN014 BKN021 03/01 A2995 RMK AO2 SLP146 T00330011=
200611241453 METAR KPAE 241453Z 17011KT 10SM BKN019 OVC023 04/01 A2994 RMK AO2 SLP143 T00390011 51009=
200611241353 METAR KPAE 241353Z AUTO 18011KT 10SM BKN016 OVC110 03/01 A2993 RMK AO2 SLP140 T00330011=
200611241301 SPECI KPAE 241301Z AUTO 17011KT 10SM OVC016 03/01 A2993 RMK AO2=
200611241301 SPECI KPAE 241301Z AUTO 17011KT 10SM OVC016 03/01 A2993 RMK AO2=
200611241253 METAR KPAE 241253Z AUTO 17010KT 10SM OVC014 03/01 A2993 RMK AO2 SLP138 T00330011=
200611241203 SPECI KPAE 241203Z AUTO 19006KT 10SM BKN014 BKN020 03/01 A2992 RMK AO2=
200611241203 SPECI KPAE 241203Z AUTO 19006KT 10SM BKN014 BKN020 03/01 A2992 RMK AO2=
200611241153 METAR KPAE 241153Z AUTO 19008KT 10SM BKN016 03/01 A2992 RMK AO2 SLP135 70009 T00280006 10039 20028 50006=
200611241110 SPECI KPAE 241110Z AUTO 18012KT 10SM FEW013 SCT018 SCT110 03/01 A2992 RMK AO2=
200611241110 SPECI KPAE 241110Z AUTO 18012KT 10SM FEW013 SCT018 SCT110 03/01 A2992 RMK AO2=
200611241053 METAR KPAE 241053Z AUTO 18009KT 10SM BKN018 03/01 A2992 RMK AO2 SLP135 T00280006=
200611240953 METAR KPAE 240953Z AUTO 17008KT 10SM BKN016 OVC090 03/01 A2990 RMK AO2 SLP130 T00330011=
200611240853 METAR KPAE 240853Z AUTO 18010KT 10SM BKN016 OVC021 03/01 A2990 RMK AO2 SLP129 T00330011 51009=
200611240753 METAR KPAE 240753Z AUTO 18014KT 10SM OVC016 03/01 A2989 RMK AO2 SLP125 T00330011 400560028=
200611240653 METAR KPAE 240653Z AUTO 19009KT 10SM OVC016 04/02 A2988 RMK AO2 SLP124 T00390017=
200611240603 SPECI KPAE 240603Z AUTO 18012KT 10SM BKN016 BKN020 04/02 A2987 RMK AO2=
200611240603 SPECI KPAE 240603Z AUTO 18012KT 10SM BKN016 BKN020 04/02 A2987 RMK AO2=
200611240553 METAR KPAE 240553Z AUTO 18013KT 10SM BKN014 04/02 A2987 RMK AO2 SLP119 T00390017 10056 20039 53002=
200611240500 SPECI KPAE 240500Z AUTO 18015KT 10SM BKN014 OVC021 04/02 A2986 RMK AO2=
200611240500 SPECI KPAE 240500Z AUTO 18015KT 10SM BKN014 OVC021 04/02 A2986 RMK AO2=
200611240453 METAR KPAE 240453Z AUTO 17015KT 10SM SCT012 OVC019 04/02 A2987 RMK AO2 SLP117 T00440017=
200611240400 SPECI KPAE 240400Z 18012KT 10SM BKN018 BKN024 04/02 A2986 RMK AO2=
200611240400 SPECI KPAE 240400Z 18012KT 10SM BKN018 BKN024 04/02 A2986 RMK AO2=
200611240353 METAR KPAE 240353Z 18012KT 10SM BKN014 BKN020 04/02 A2986 RMK AO2 SLP115 T00440022=
200611240253 METAR KPAE 240253Z 19015KT 10SM BKN014 BKN020 OVC033 05/02 A2986 RMK AO2 SLP116 T00500022 51005=
200611240153 METAR KPAE 240153Z 19014KT 10SM BKN014 BKN020 OVC090 06/03 A2986 RMK AO2 SLP116 T00560028=
200611240053 METAR KPAE 240053Z 20014KT 10SM BKN014 BKN020 OVC090 05/03 A2986 RMK AO2 SLP113 T00500028=
200611232353 METAR KPAE 232353Z 16016G22KT 10SM OVC012 04/03 A2985 RMK AO2 SLP111 60008 T00440028 10050 20028 55003=
200611232253 METAR KPAE 232253Z 17014KT 10SM OVC012 05/03 A2985 RMK AO2 RAE09 SLP110 P0000 T00500028=
200611232200 SPECI KPAE 232200Z 16017G22KT 9SM -RA OVC012 04/03 A2984 RMK AO2 P0000=
200611232200 SPECI KPAE 232200Z 16017G22KT 9SM -RA OVC012 04/03 A2984 RMK AO2 P0000=
200611232153 METAR KPAE 232153Z 16018G22KT 9SM -RA BKN008 OVC014 04/03 A2984 RMK AO2 SLP109 P0002 T00440028=
200611232053 METAR KPAE 232053Z 17015KT 4SM -RA BR BKN008 OVC014 04/03 A2986 RMK AO2 RAB12 SLP114 P0002 60006 T00390028 56012=
200611232020 SPECI KPAE 232020Z 16014KT 10SM -RA BKN008 OVC014 04/02 A2986 RMK AO2 RAB12 P0000=
200611232020 SPECI KPAE 232020Z 16014KT 10SM -RA BKN008 OVC014 04/02 A2986 RMK AO2 RAB12 P0000=
200611232013 SPECI KPAE 232013Z 16014G19KT 10SM -RA SCT008 OVC012 04/02 A2986 RMK AO2 RAB12 P0000=
200611232013 SPECI KPAE 232013Z 16014G19KT 10SM -RA SCT008 OVC012 04/02 A2986 RMK AO2 RAB12 P0000=
200611231953 METAR KPAE 231953Z 15013KT 10SM BKN008 OVC024 03/02 A2986 RMK AO2 PK WND 15027/1930 RAE49 SLP116 P0002 T00330022=
200611231943 SPECI KPAE 231943Z 15015G23KT 9SM -RA SCT008 BKN012 OVC022 03/02 A2986 RMK AO2 PK WND 15027/1930 P0002=
200611231943 SPECI KPAE 231943Z 15015G23KT 9SM -RA SCT008 BKN012 OVC022 03/02 A2986 RMK AO2 PK WND 15027/1930 P0002=
200611231922 SPECI KPAE 231922Z 16019G26KT 6SM -RA BR SCT010 OVC016 03/01 A2987 RMK AO2 PK WND 15026/1920 P0001=
200611231922 SPECI KPAE 231922Z 16019G26KT 6SM -RA BR SCT010 OVC016 03/01 A2987 RMK AO2 PK WND 15026/1920 P0001=
200611231853 METAR KPAE 231853Z 16019KT 5SM -RA BR BKN010 OVC016 04/02 A2989 RMK AO2 CIG 007V013 SLP126 P0002 T00390022=
200611231829 SPECI KPAE 231829Z 16018G23KT 5SM -RA BR BKN013 OVC021 04/02 A2989 RMK AO2 P0001=
200611231829 SPECI KPAE 231829Z 16018G23KT 5SM -RA BR BKN013 OVC021 04/02 A2989 RMK AO2 P0001=
200611231803 SPECI KPAE 231803Z 16018G23KT 7SM -RA SCT013 BKN024 OVC042 04/02 A2991 RMK AO2 P0000=
200611231803 SPECI KPAE 231803Z 16018G23KT 7SM -RA SCT013 BKN024 OVC042 04/02 A2991 RMK AO2 P0000=
200611231753 METAR KPAE 231753Z 17016KT 8SM -RA SCT015 BKN042 OVC095 04/02 A2991 RMK AO2 PK WND 17026/1715 RAB42 SLP130 P0000 60001 T00440022 10050 20028 50000=
200611231653 METAR KPAE 231653Z 16015G23KT 10SM SCT017 BKN090 05/02 A2991 RMK AO2 PK WND 16026/1643 SLP134 T00500022=
200611231633 SPECI KPAE 231633Z 16016G22KT 10SM SCT017 BKN100 BKN120 05/02 A2992 RMK AO2=
200611231633 SPECI KPAE 231633Z 16016G22KT 10SM SCT017 BKN100 BKN120 05/02 A2992 RMK AO2=
200611231619 SPECI KPAE 231619Z 16012G17KT 10SM BKN017 BKN100 04/02 A2992 RMK AO2=
200611231619 SPECI KPAE 231619Z 16012G17KT 10SM BKN017 BKN100 04/02 A2992 RMK AO2=
200611231553 METAR KPAE 231553Z 14010KT 10SM SCT015 04/02 A2992 RMK AO2 SLP136 T00390022=
200611231453 METAR KPAE 231453Z 15009KT 10SM FEW035 SCT120 03/02 A2990 RMK AO2 SLP130 60001 T00330017 53034=
200611231353 METAR KPAE 231353Z AUTO 16006KT 10SM FEW035 BKN120 04/02 A2987 RMK AO2 RAB03E38 SLP117 P0001 T00390022=
200611231335 SPECI KPAE 231335Z AUTO 18012KT 10SM -RA SCT012 OVC034 04/02 A2987 RMK AO2 RAB03 P0001=
200611231335 SPECI KPAE 231335Z AUTO 18012KT 10SM -RA SCT012 OVC034 04/02 A2987 RMK AO2 RAB03 P0001=
200611231322 SPECI KPAE 231322Z AUTO 23007KT 8SM -RA BKN012 BKN020 OVC033 04/02 A2987 RMK AO2 RAB03 P0001=
200611231322 SPECI KPAE 231322Z AUTO 23007KT 8SM -RA BKN012 BKN020 OVC033 04/02 A2987 RMK AO2 RAB03 P0001=
200611231310 SPECI KPAE 231310Z AUTO 22010KT 10SM -RA FEW009 BKN020 OVC036 04/03 A2986 RMK AO2 RAB03 PRESRR P0000=
200611231310 SPECI KPAE 231310Z AUTO 22010KT 10SM -RA FEW009 BKN020 OVC036 04/03 A2986 RMK AO2 RAB03 PRESRR P0000=
200611231253 METAR KPAE 231253Z AUTO 19013KT 10SM FEW015 OVC038 04/03 A2984 RMK AO2 RAB41E53 PRESRR SLP108 P0000 T00440028=
200611231239 SPECI KPAE 231239Z AUTO 18013KT 10SM SCT015 OVC044 04/03 A2982 RMK AO2=
200611231239 SPECI KPAE 231239Z AUTO 18013KT 10SM SCT015 OVC044 04/03 A2982 RMK AO2=
200611231218 SPECI KPAE 231218Z AUTO 19016KT 10SM SCT015 BKN020 OVC065 04/03 A2981 RMK AO2=
200611231218 SPECI KPAE 231218Z AUTO 19016KT 10SM SCT015 BKN020 OVC065 04/03 A2981 RMK AO2=
200611231211 SPECI KPAE 231211Z AUTO 19016G21KT 10SM BKN013 BKN020 OVC080 04/02 A2981 RMK AO2=
200611231211 SPECI KPAE 231211Z AUTO 19016G21KT 10SM BKN013 BKN020 OVC080 04/02 A2981 RMK AO2=
200611231153 METAR KPAE 231153Z AUTO 18016G21KT 10SM BKN015 BKN020 OVC100 04/02 A2980 RMK AO2 SLP096 60001 70029 T00440022 10050 20033 53024=
200611231119 SPECI KPAE 231119Z AUTO 18011KT 10SM SCT013 OVC020 04/03 A2980 RMK AO2=
200611231119 SPECI KPAE 231119Z AUTO 18011KT 10SM SCT013 OVC020 04/03 A2980 RMK AO2=
200611231100 SPECI KPAE 231100Z AUTO 16008KT 10SM SCT008 BKN014 OVC019 04/03 A2979 RMK AO2=
200611231100 SPECI KPAE 231100Z AUTO 16008KT 10SM SCT008 BKN014 OVC019 04/03 A2979 RMK AO2=
200611231053 METAR KPAE 231053Z AUTO 15010KT 10SM BKN008 BKN016 OVC024 04/03 A2978 RMK AO2 CIG 005V012 SLP088 T00390028=
200611231019 SPECI KPAE 231019Z AUTO 14007KT 10SM BKN008 OVC012 04/02 A2977 RMK AO2 CIG 007V011=
200611231019 SPECI KPAE 231019Z AUTO 14007KT 10SM BKN008 OVC012 04/02 A2977 RMK AO2 CIG 007V011=
200611230953 METAR KPAE 230953Z AUTO 16012KT 10SM OVC012 04/02 A2975 RMK AO2 SLP078 T00390022=
200611230935 SPECI KPAE 230935Z AUTO 17008KT 10SM BKN014 BKN018 03/02 A2975 RMK AO2=
200611230935 SPECI KPAE 230935Z AUTO 17008KT 10SM BKN014 BKN018 03/02 A2975 RMK AO2=
200611230928 SPECI KPAE 230928Z AUTO 16010KT 10SM FEW007 BKN016 03/02 A2974 RMK AO2=
200611230928 SPECI KPAE 230928Z AUTO 16010KT 10SM FEW007 BKN016 03/02 A2974 RMK AO2=
200611230911 SPECI KPAE 230911Z AUTO 16016KT 10SM SCT009 03/02 A2973 RMK AO2=
200611230911 SPECI KPAE 230911Z AUTO 16016KT 10SM SCT009 03/02 A2973 RMK AO2=
200611230900 SPECI KPAE 230900Z AUTO 17012KT 10SM BKN009 BKN015 OVC026 04/02 A2973 RMK AO2=
200611230900 SPECI KPAE 230900Z AUTO 17012KT 10SM BKN009 BKN015 OVC026 04/02 A2973 RMK AO2=
200611230853 METAR KPAE 230853Z AUTO 17012KT 10SM SCT012 BKN020 BKN027 04/02 A2973 RMK AO2 RAB20E51 SLP071 P0001 60001 T00390017 52007=
200611230835 SPECI KPAE 230835Z AUTO 17012KT 10SM -RA FEW008 BKN021 OVC026 04/02 A2974 RMK AO2 RAB20 P0001=
200611230835 SPECI KPAE 230835Z AUTO 17012KT 10SM -RA FEW008 BKN021 OVC026 04/02 A2974 RMK AO2 RAB20 P0001=
200611230825 SPECI KPAE 230825Z AUTO 17012KT 10SM -RA SCT010 BKN014 OVC033 04/02 A2973 RMK AO2 RAB20 P0000=
200611230825 SPECI KPAE 230825Z AUTO 17012KT 10SM -RA SCT010 BKN014 OVC033 04/02 A2973 RMK AO2 RAB20 P0000=
200611230818 SPECI KPAE 230818Z AUTO 16011KT 10SM BKN008 OVC014 04/03 A2973 RMK AO2 CIG 007V011=
200611230818 SPECI KPAE 230818Z AUTO 16011KT 10SM BKN008 OVC014 04/03 A2973 RMK AO2 CIG 007V011=
200611230804 SPECI KPAE 230804Z AUTO 18012KT 10SM BKN012 BKN019 OVC034 04/03 A2973 RMK AO2=
200611230804 SPECI KPAE 230804Z AUTO 18012KT 10SM BKN012 BKN019 OVC034 04/03 A2973 RMK AO2=
200611230753 METAR KPAE 230753Z AUTO 17010KT 10SM SCT014 BKN019 BKN028 04/03 A2973 RMK AO2 SLP070 T00440028 400780039=
200611230653 METAR KPAE 230653Z AUTO 18017G24KT 10SM SCT015 04/02 A2971 RMK AO2 SLP062 T00440022=
200611230650 SPECI KPAE 230650Z AUTO 18017G24KT 10SM SCT015 04/02 A2970 RMK AO2=
200611230650 SPECI KPAE 230650Z AUTO 18017G24KT 10SM SCT015 04/02 A2970 RMK AO2=
200611230625 SPECI KPAE 230625Z AUTO 17020G25KT 10SM BKN013 BKN019 OVC030 05/03 A2970 RMK AO2=
200611230625 SPECI KPAE 230625Z AUTO 17020G25KT 10SM BKN013 BKN019 OVC030 05/03 A2970 RMK AO2=
200611230553 METAR KPAE 230553Z AUTO 18018G25KT 10SM BKN015 04/02 A2971 RMK AO2 PK WND 17031/0454 RAB13E40 SLP063 P0000 60002 T00440022 10061 20044 53003=
200611230453 METAR KPAE 230453Z AUTO 17020G25KT 10SM BKN018 BKN025 OVC037 05/02 A2970 RMK AO2 SLP061 T00500022=
200611230353 METAR KPAE 230353Z 18018G23KT 10SM SCT019 BKN026 BKN034 06/03 A2970 RMK AO2 SLP062 T00560033=
200611230253 METAR KPAE 230253Z 16013KT 10SM FEW025 06/03 A2970 RMK AO2 SLP060 60002 T00560033 55001=
200611230153 METAR KPAE 230153Z 16015G21KT 10SM BKN065 06/03 A2968 RMK AO2 RAE52 SLP052 P0001 T00560033=
200611230053 METAR KPAE 230053Z 15012KT 9SM -RA FEW029 OVC039 06/04 A2970 RMK AO2 SLP060 P0001 T00560039=
200611230002 SPECI KPAE 230002Z 14011KT 7SM -RA FEW025 OVC030 06/04 A2969 RMK AO2 P0000=
200611230002 SPECI KPAE 230002Z 14011KT 7SM -RA FEW025 OVC030 06/04 A2969 RMK AO2 P0000=
200611222353 METAR KPAE 222353Z 14009KT 5SM -RA BR BKN025 OVC030 06/04 A2970 RMK AO2 SLP061 P0004 60017 T00560039 10078 20056 55014=
200611222326 SPECI KPAE 222326Z 17008KT 7SM -RA OVC028 06/04 A2970 RMK AO2 P0002=
200611222326 SPECI KPAE 222326Z 17008KT 7SM -RA OVC028 06/04 A2970 RMK AO2 P0002=
200611222253 METAR KPAE 222253Z 13012KT 6SM -RA BR BKN030 OVC036 06/04 A2970 RMK AO2 SLP059 P0004 T00560039=
200611222201 SPECI KPAE 222201Z 14010KT 9SM -RA OVC032 06/04 A2972 RMK AO2 P0000=
200611222201 SPECI KPAE 222201Z 14010KT 9SM -RA OVC032 06/04 A2972 RMK AO2 P0000=
200611222153 METAR KPAE 222153Z 13010KT 5SM -RA BR BKN028 OVC037 06/04 A2972 RMK AO2 SLP067 P0004 T00610039=
200611222053 METAR KPAE 222053Z 14009KT 4SM -RA BR OVC026 06/04 A2974 RMK AO2 SLP075 P0005 60005 T00610039 58023=
200611222032 SPECI KPAE 222032Z 15011KT 5SM -RA OVC028 07/04 A2975 RMK AO2 P0002=
200611222032 SPECI KPAE 222032Z 15011KT 5SM -RA OVC028 07/04 A2975 RMK AO2 P0002=
200611221953 METAR KPAE 221953Z 14009KT 10SM -RA BKN040 OVC055 08/03 A2977 RMK AO2 RAB51 SLP082 P0000 T00780033=
200611221853 METAR KPAE 221853Z 12007KT 10SM SCT070 BKN080 07/03 A2980 RMK AO2 SLP093 T00720033=
200611221753 METAR KPAE 221753Z 13009KT 10SM FEW095 07/04 A2981 RMK AO2 SLP099 60009 T00670039 10067 20039 50000=
200611221653 METAR KPAE 221653Z 14011KT 10SM FEW036 06/03 A2982 RMK AO2 SLP102 T00560033=
200611221553 METAR KPAE 221553Z 14011KT 10SM FEW036 SCT047 SCT085 05/03 A2982 RMK AO2 RAB19E36 SLP101 P0001 T00500033=
200611221453 METAR KPAE 221453Z 14011KT 10SM FEW034 04/03 A2981 RMK AO2 RAE04 SLP099 P0000 60008 T00440033 50005=
200611221440 SPECI KPAE 221440Z 14010KT 10SM SCT015 BKN035 04/03 A2981 RMK AO2 RAE04 P0000=
200611221440 SPECI KPAE 221440Z 14010KT 10SM SCT015 BKN035 04/03 A2981 RMK AO2 RAE04 P0000=
200611221353 METAR KPAE 221353Z AUTO 14010KT 6SM -RA BR OVC019 04/03 A2981 RMK AO2 SLP099 P0002 T00440033=
200611221253 METAR KPAE 221253Z AUTO 14013KT 6SM -RA BR SCT018 BKN025 OVC034 04/02 A2981 RMK AO2 SLP098 P0006 T00390022=
200611221228 SPECI KPAE 221228Z AUTO 15011KT 7SM -RA FEW010 BKN016 OVC022 04/02 A2980 RMK AO2 P0004=
200611221228 SPECI KPAE 221228Z AUTO 15011KT 7SM -RA FEW010 BKN016 OVC022 04/02 A2980 RMK AO2 P0004=
200611221212 SPECI KPAE 221212Z AUTO 16011KT 7SM -RA SCT008 BKN014 OVC033 04/03 A2980 RMK AO2 P0002=
200611221212 SPECI KPAE 221212Z AUTO 16011KT 7SM -RA SCT008 BKN014 OVC033 04/03 A2980 RMK AO2 P0002=
200611221201 SPECI KPAE 221201Z AUTO 16010KT 6SM -RA BR SCT008 BKN015 OVC025 04/03 A2980 RMK AO2 P0001=
200611221201 SPECI KPAE 221201Z AUTO 16010KT 6SM -RA BR SCT008 BKN015 OVC025 04/03 A2980 RMK AO2 P0001=
200611221153 METAR KPAE 221153Z AUTO 17012KT 6SM -RA BR FEW010 BKN016 OVC026 04/03 A2980 RMK AO2 SLP094 P0006 60015 70069 T00440033 10050 20044 53006=
200611221053 METAR KPAE 221053Z AUTO 15009KT 6SM -RA BR SCT020 BKN026 OVC038 04/03 A2980 RMK AO2 RAB0957 SLP093 P0003 T00440033=
200611220953 METAR KPAE 220953Z AUTO 14010KT 10SM BKN028 OVC041 05/03 A2978 RMK AO2 SLP088 T00500033=
200611220928 SPECI KPAE 220928Z AUTO 12008KT 10SM BKN028 OVC038 05/03 A2978 RMK AO2=
200611220928 SPECI KPAE 220928Z AUTO 12008KT 10SM BKN028 OVC038 05/03 A2978 RMK AO2=
200611220853 METAR KPAE 220853Z AUTO 14009KT 10SM FEW003 SCT026 OVC033 04/04 A2978 RMK AO2 RAE14 SLP087 P0001 60006 T00440039 55000=
200611220838 SPECI KPAE 220838Z AUTO 12009KT 10SM FEW003 OVC033 04/03 A2978 RMK AO2 RAE14 P0001=
200611220838 SPECI KPAE 220838Z AUTO 12009KT 10SM FEW003 OVC033 04/03 A2978 RMK AO2 RAE14 P0001=
200611220753 METAR KPAE 220753Z 17010KT 8SM -RA FEW010 BKN035 OVC044 05/03 A2978 RMK AO2 SLP086 P0001 T00500033 400890044=
200611220751 SPECI KPAE 220751Z 18011KT 9SM -RA FEW010 BKN037 OVC046 05/03 A2978 RMK AO2 P0001 400890044=
200611220751 SPECI KPAE 220751Z 18011KT 9SM -RA FEW010 BKN037 OVC046 05/03 A2978 RMK AO2 P0001 400890044=
200611220740 SPECI KPAE 220740Z 16010KT 8SM -RA FEW010 BKN026 OVC032 05/03 A2978 RMK AO2 P0001=
200611220740 SPECI KPAE 220740Z 16010KT 8SM -RA FEW010 BKN026 OVC032 05/03 A2978 RMK AO2 P0001=
200611220704 SPECI KPAE 220704Z 15012KT 7SM -RA FEW022 OVC032 05/03 A2978 RMK AO2 P0000=
200611220704 SPECI KPAE 220704Z 15012KT 7SM -RA FEW022 OVC032 05/03 A2978 RMK AO2 P0000=
200611220653 METAR KPAE 220653Z 14011KT 5SM -RA BR SCT024 OVC028 05/03 A2978 RMK AO2 SLP087 P0004 T00500033=
200611220646 SPECI KPAE 220646Z 15009KT 6SM -RA BR BKN024 OVC030 04/03 A2978 RMK AO2 P0003=
200611220646 SPECI KPAE 220646Z 15009KT 6SM -RA BR BKN024 OVC030 04/03 A2978 RMK AO2 P0003=
200611220630 SPECI KPAE 220630Z 13009KT 10SM -RA SCT026 OVC030 04/03 A2978 RMK AO2 P0002=
200611220630 SPECI KPAE 220630Z 13009KT 10SM -RA SCT026 OVC030 04/03 A2978 RMK AO2 P0002=
200611220553 METAR KPAE 220553Z 12009KT 6SM -RA BR OVC023 04/03 A2978 RMK AO2 SLP087 P0004 60006 T00440033 10067 20044 50004=
200611220525 SPECI KPAE 220525Z AUTO 13010KT 7SM -RA FEW008 BKN026 OVC034 04/03 A2979 RMK AO2 P0002 TSNO=
200611220525 SPECI KPAE 220525Z AUTO 13010KT 7SM -RA FEW008 BKN026 OVC034 04/03 A2979 RMK AO2 P0002 TSNO=
200611220517 SPECI KPAE 220517Z AUTO 13009KT 7SM -RA FEW005 BKN032 OVC044 04/03 A2979 RMK AO2 P0001 TSNO=
200611220517 SPECI KPAE 220517Z AUTO 13009KT 7SM -RA FEW005 BKN032 OVC044 04/03 A2979 RMK AO2 P0001 TSNO=
200611220453 METAR KPAE 220453Z 14010KT 5SM -RA BR SCT004 BKN011 OVC050 04/03 A2980 RMK AO2 RAE25B45 SLP092 P0001 T00440033=
200611220431 SPECI KPAE 220431Z 14010KT 10SM FEW009 SCT037 OVC055 04/03 A2979 RMK AO2 RAE25 P0000=
200611220431 SPECI KPAE 220431Z 14010KT 10SM FEW009 SCT037 OVC055 04/03 A2979 RMK AO2 RAE25 P0000=
200611220419 SPECI KPAE 220419Z 14011KT 8SM -RA FEW007 BKN021 OVC042 04/03 A2978 RMK AO2 P0000=
200611220419 SPECI KPAE 220419Z 14011KT 8SM -RA FEW007 BKN021 OVC042 04/03 A2978 RMK AO2 P0000=
200611220353 METAR KPAE 220353Z 16011KT 9SM -RA SCT011 BKN018 OVC030 05/03 A2979 RMK AO2 RAB48 SLP090 P0000 T00500033=
200611220340 SPECI KPAE 220340Z 16010KT 10SM FEW011 BKN024 OVC035 05/03 A2979 RMK AO2=
200611220340 SPECI KPAE 220340Z 16010KT 10SM FEW011 BKN024 OVC035 05/03 A2979 RMK AO2=
200611220253 METAR KPAE 220253Z 15014G20KT 10SM FEW013 05/03 A2977 RMK AO2 SLP082 60001 T00500028 51017=
200611220153 METAR KPAE 220153Z 16015KT 10SM FEW017 05/02 A2976 RMK AO2 PK WND 16029/0115 RAE10 SLP079 P0001 T00500022=
200611220053 METAR KPAE 220053Z 18020G26KT 10SM -RA SCT026 BKN039 BKN047 06/03 A2974 RMK AO2 PK WND 19026/0052 RAB42 SLP074 P0000 T00560028=
200611212353 METAR KPAE 212353Z 17021KT 10SM SCT036 06/03 A2972 RMK AO2 PK WND 18033/2319 SLP065 60015 T00560033 10089 20044 51032=
200611212253 METAR KPAE 212253Z 17020G29KT 10SM FEW085 06/03 A2968 RMK AO2 PK WND 17029/2247 RAE23 SLP051 P0005 T00560028=
200611212219 SPECI KPAE 212219Z 17019KT 3SM -RA BR FEW015 BKN038 BKN080 04/03 A2966 RMK AO2 P0005=
200611212219 SPECI KPAE 212219Z 17019KT 3SM -RA BR FEW015 BKN038 BKN080 04/03 A2966 RMK AO2 P0005=
200611212153 METAR KPAE 212153Z 19013KT 3SM RA BR FEW011 BKN021 OVC032 06/04 A2968 RMK AO2 PK WND 17029/2120 RAB00 PRESRR SLP053 P0005 T00610044=
200611212131 SPECI KPAE 212131Z 17020G26KT 10SM -RA SCT020 BKN026 BKN033 07/03 A2965 RMK AO2 PK WND 17029/2120 RAB00 PRESRR P0001=
200611212131 SPECI KPAE 212131Z 17020G26KT 10SM -RA SCT020 BKN026 BKN033 07/03 A2965 RMK AO2 PK WND 17029/2120 RAB00 PRESRR P0001=
200611212108 SPECI KPAE 212108Z 17018G26KT 10SM -RA SCT028 BKN034 07/03 A2963 RMK AO2 PK WND 16026/2104 RAB00 P0000=
200611212108 SPECI KPAE 212108Z 17018G26KT 10SM -RA SCT028 BKN034 07/03 A2963 RMK AO2 PK WND 16026/2104 RAB00 P0000=
200611212059 SPECI KPAE 212059Z 17020G24KT 10SM BKN028 OVC034 08/03 A2962 RMK AO2=
200611212059 SPECI KPAE 212059Z 17020G24KT 10SM BKN028 OVC034 08/03 A2962 RMK AO2=
200611212053 METAR KPAE 212053Z 17020G24KT 10SM SCT028 BKN033 OVC070 08/03 A2962 RMK AO2 PK WND 17033/1954 RAE1955B38E53 SLP032 P0000 60005 T00780028 51030=
200611211953 METAR KPAE 211953Z 17028G35KT 10SM -RA SCT028 BKN036 08/03 A2959 RMK AO2 PK WND 18038/1907 RAB1859 SLP022 P0005 T00830033=
200611211943 SPECI KPAE 211943Z 18017G28KT 10SM -RA BKN030 OVC038 08/04 A2959 RMK AO2 PK WND 18038/1907 RAB1859 P0005=
200611211943 SPECI KPAE 211943Z 18017G28KT 10SM -RA BKN030 OVC038 08/04 A2959 RMK AO2 PK WND 18038/1907 RAB1859 P0005=
200611211918 SPECI KPAE 211918Z 18020G30KT 3SM RA BKN026 BKN032 07/04 A2959 RMK AO2 PK WND 18038/1907 RAB1859 P0003=
200611211918 SPECI KPAE 211918Z 18020G30KT 3SM RA BKN026 BKN032 07/04 A2959 RMK AO2 PK WND 18038/1907 RAB1859 P0003=
200611211910 SPECI KPAE 211910Z 17024G38KT 2 1/2SM RA BKN026 BKN033 OVC050 07/04 A2959 RMK AO2 PK WND 18038/1907 RAB1859 P0002=
200611211910 SPECI KPAE 211910Z 17024G38KT 2 1/2SM RA BKN026 BKN033 OVC050 07/04 A2959 RMK AO2 PK WND 18038/1907 RAB1859 P0002=
200611211853 METAR KPAE 211853Z 18024G35KT 10SM FEW024 BKN034 BKN046 08/04 A2958 RMK AO2 PK WND 17035/1844 SLP018 T00830039=
200611211835 SPECI KPAE 211835Z 17024G30KT 10SM FEW022 SCT027 BKN036 08/04 A2956 RMK AO2 PK WND 16032/1809 PRESRR=
200611211835 SPECI KPAE 211835Z 17024G30KT 10SM FEW022 SCT027 BKN036 08/04 A2956 RMK AO2 PK WND 16032/1809 PRESRR=
200611211801 SPECI KPAE 211801Z 16022G30KT 10SM SCT024 BKN029 OVC042 08/05 A2953 RMK AO2 PK WND 16030/1759=
200611211801 SPECI KPAE 211801Z 16022G30KT 10SM SCT024 BKN029 OVC042 08/05 A2953 RMK AO2 PK WND 16030/1759=
200611211753 METAR KPAE 211753Z 17018G29KT 10SM SCT026 BKN031 OVC038 08/06 A2953 RMK AO2 PK WND 17036/1741 RAE52 SLP002 P0001 60033 T00780056 10078 20067 53008=
200611211729 SPECI KPAE 211729Z 16023G27KT 10SM SCT030 OVC038 08/05 A2952 RMK AO2 PK WND 17027/1729 RAE27 P0000=
200611211729 SPECI KPAE 211729Z 16023G27KT 10SM SCT030 OVC038 08/05 A2952 RMK AO2 PK WND 17027/1729 RAE27 P0000=
200611211653 METAR KPAE 211653Z 16019G25KT 9SM -RA FEW018 BKN023 OVC037 08/06 A2951 RMK AO2 SLP995 P0004 T00780056=
200611211553 METAR KPAE 211553Z 14017KT 9SM -RA OVC045 08/06 A2948 RMK AO2 PK WND 15029/1514 SLP986 P0005 T00780061=
200611211532 SPECI KPAE 211532Z 14018G28KT 10SM -RA FEW015 SCT029 OVC048 08/06 A2948 RMK AO2 PK WND 15029/1514 P0004=
200611211532 SPECI KPAE 211532Z 14018G28KT 10SM -RA FEW015 SCT029 OVC048 08/06 A2948 RMK AO2 PK WND 15029/1514 P0004=
200611211517 SPECI KPAE 211517Z 14018G29KT 6SM -RA BR FEW017 BKN027 OVC034 08/06 A2948 RMK AO2 PK WND 15029/1514 PRESFR P0004=
200611211517 SPECI KPAE 211517Z 14018G29KT 6SM -RA BR FEW017 BKN027 OVC034 08/06 A2948 RMK AO2 PK WND 15029/1514 PRESFR P0004=
200611211453 METAR KPAE 211453Z AUTO 14014G20KT 4SM RA BR SCT028 OVC035 07/06 A2951 RMK AO2 SLP994 P0009 60023 T00720061 55023=
200611211353 METAR KPAE 211353Z AUTO 16013G20KT 8SM -RA OVC042 07/06 A2950 RMK AO2 PK WND 15033/1327 SLP991 P0006 T00720056=
200611211253 METAR KPAE 211253Z AUTO 14017G22KT 6SM RA BR OVC038 07/05 A2953 RMK AO2 SLP002 P0008 T00720050=
200611211153 METAR KPAE 211153Z AUTO 13014KT 8SM -RA OVC045 07/04 A2958 RMK AO2 RAB16 SLP018 P0003 60038 70051 T00670044 10072 20061 56042=
200611211053 METAR KPAE 211053Z AUTO 13017G23KT 10SM OVC045 07/05 A2960 RMK AO2 RAE30 PRESFR SLP025 P0000 T00720050=
200611211002 SPECI KPAE 211002Z AUTO 13014G19KT 10SM -RA FEW023 BKN036 OVC045 07/05 A2966 RMK AO2 P0000=
200611211002 SPECI KPAE 211002Z AUTO 13014G19KT 10SM -RA FEW023 BKN036 OVC045 07/05 A2966 RMK AO2 P0000=
200611210953 METAR KPAE 210953Z AUTO 12012KT 6SM -RA BR SCT023 BKN029 OVC034 07/06 A2966 RMK AO2 SLP043 P0008 T00670056=
200611210853 METAR KPAE 210853Z AUTO 13010KT 4SM -RA BR OVC033 07/06 A2970 RMK AO2 SLP060 P0010 60027 T00670056 58029=
200611210753 METAR KPAE 210753Z AUTO 13009KT 4SM RA BR OVC033 06/05 A2974 RMK AO2 SLP072 P0011 T00610050 401060061=
200611210653 METAR KPAE 210653Z AUTO 11009KT 4SM RA BR FEW028 BKN036 OVC044 07/05 A2976 RMK AO2 RAB18 SLP078 P0006 T00670050=
200611210553 METAR KPAE 210553Z AUTO 11007KT 10SM OVC050 07/05 A2979 RMK AO2 SLP091 60009 T00720050 10083 20072 56018=
200611210517 SPECI KPAE 210517Z AUTO 12010KT 10SM SCT029 SCT037 BKN050 07/05 A2980 RMK AO2=
200611210517 SPECI KPAE 210517Z AUTO 12010KT 10SM SCT029 SCT037 BKN050 07/05 A2980 RMK AO2=
200611210504 SPECI KPAE 210504Z 12008KT 10SM BKN029 BKN036 BKN050 07/05 A2981 RMK AO2=
200611210504 SPECI KPAE 210504Z 12008KT 10SM BKN029 BKN036 BKN050 07/05 A2981 RMK AO2=
200611210453 METAR KPAE 210453Z 11010KT 10SM SCT029 BKN038 BKN050 07/05 A2981 RMK AO2 RAE00 SLP098 P0000 T00720050=
200611210448 SPECI KPAE 210448Z 11010KT 10SM FEW027 SCT031 BKN050 07/05 A2981 RMK AO2 RAE00 P0000=
200611210448 SPECI KPAE 210448Z 11010KT 10SM FEW027 SCT031 BKN050 07/05 A2981 RMK AO2 RAE00 P0000=
200611210353 METAR KPAE 210353Z 11011KT 10SM -RA FEW012 BKN025 OVC031 07/06 A2985 RMK AO2 SLP109 P0001 T00720061=
200611210253 METAR KPAE 210253Z 15012KT 10SM -RA FEW040 BKN050 OVC110 07/05 A2985 RMK AO2 RAB34 SLP112 P0000 60008 T00720050 55007=
200611210153 METAR KPAE 210153Z 16015KT 10SM BKN075 BKN110 07/05 A2985 RMK AO2 RAE25 SLP110 P0001 T00720050=
200611210053 METAR KPAE 210053Z 19019G24KT 10SM -RA FEW015 SCT022 OVC037 08/06 A2987 RMK AO2 SLP119 P0007 T00780056=
200611210048 SPECI KPAE 210048Z 20016KT 10SM -RA SCT015 BKN028 OVC035 08/06 A2988 RMK AO2 P0006=
200611210048 SPECI KPAE 210048Z 20016KT 10SM -RA SCT015 BKN028 OVC035 08/06 A2988 RMK AO2 P0006=
200611202353 METAR KPAE 202353Z 17019G29KT 5SM -RA SCT033 OVC048 08/05 A2986 RMK AO2 PK WND 18029/2349 RAE07B34 SLP112 P0001 60001 T00830050 10106 20083 55007=
200611202253 METAR KPAE 202253Z 18012KT 10SM -RA OVC044 10/02 A2985 RMK AO2 RAB06E20B52 SLP110 P0000 T01000022=
200611202153 METAR KPAE 202153Z 16017G20KT 10SM SCT050 OVC085 11/02 A2987 RMK AO2 PK WND 15030/2104 SLP115 T01060017=
200611202053 METAR KPAE 202053Z 17021G26KT 10SM FEW039 SCT049 10/03 A2988 RMK AO2 PK WND 16026/2053 SLP120 T01000028 58019=
200611201953 METAR KPAE 201953Z 17020G27KT 10SM BKN033 10/03 A2990 RMK AO2 PK WND 16029/1943 SLP127 T01000033=
200611201853 METAR KPAE 201853Z 16013G21KT 10SM FEW028 SCT034 09/04 A2993 RMK AO2 SLP138 T00940044=
200611201753 METAR KPAE 201753Z 15016KT 10SM FEW021 08/06 A2994 RMK AO2 SLP140 60003 T00830056 10083 20067 50014=
200611201732 SPECI KPAE 201732Z 16014KT 10SM FEW019 SCT027 08/06 A2994 RMK AO2=
200611201732 SPECI KPAE 201732Z 16014KT 10SM FEW019 SCT027 08/06 A2994 RMK AO2=
200611201714 SPECI KPAE 201714Z 16013G21KT 10SM SCT017 BKN027 08/06 A2995 RMK AO2=
200611201714 SPECI KPAE 201714Z 16013G21KT 10SM SCT017 BKN027 08/06 A2995 RMK AO2=
200611201653 METAR KPAE 201653Z 16013G19KT 10SM FEW014 07/06 A2994 RMK AO2 SLP141 T00720056=
200611201630 SPECI KPAE 201630Z 16011KT 10SM FEW017 SCT022 07/06 A2993 RMK AO2=
200611201630 SPECI KPAE 201630Z 16011KT 10SM FEW017 SCT022 07/06 A2993 RMK AO2=
200611201620 SPECI KPAE 201620Z 15013KT 10SM SCT017 BKN022 07/05 A2993 RMK AO2=
200611201620 SPECI KPAE 201620Z 15013KT 10SM SCT017 BKN022 07/05 A2993 RMK AO2=
200611201553 METAR KPAE 201553Z 15012KT 10SM FEW018 07/05 A2992 RMK AO2 SLP136 T00670050=
200611201453 METAR KPAE 201453Z 17016KT 10SM CLR 07/04 A2990 RMK AO2 SLP126 60003 T00670044 53007=
200611201353 METAR KPAE 201353Z 16018KT 10SM CLR 07/04 A2989 RMK AO2 SLP123 T00670044=
200611201253 METAR KPAE 201253Z 17014KT 10SM BKN100 OVC120 07/06 A2988 RMK AO2 RAE16 SLP119 P0003 T00720056=
200611201216 SPECI KPAE 201216Z 17011KT 10SM SCT008 BKN046 OVC090 07/06 A2987 RMK AO2 RAE16 P0003=
200611201216 SPECI KPAE 201216Z 17011KT 10SM SCT008 BKN046 OVC090 07/06 A2987 RMK AO2 RAE16 P0003=
200611201205 SPECI KPAE 201205Z 19011G22KT 3SM RA BR BKN008 OVC014 08/06 A2987 RMK AO2 CIG 005V011 P0003=
200611201205 SPECI KPAE 201205Z 19011G22KT 3SM RA BR BKN008 OVC014 08/06 A2987 RMK AO2 CIG 005V011 P0003=
200611201157 SPECI KPAE 201157Z 17010KT 3SM RA BR SCT006 OVC012 08/07 A2987 RMK AO2 P0001=
200611201157 SPECI KPAE 201157Z 17010KT 3SM RA BR SCT006 OVC012 08/07 A2987 RMK AO2 P0001=
200611201155 SPECI KPAE 201155Z 17009KT 2 1/2SM RA BR BKN008 OVC014 08/07 A2987 RMK AO2 CIG 004V011 P0000=
200611201155 SPECI KPAE 201155Z 17009KT 2 1/2SM RA BR BKN008 OVC014 08/07 A2987 RMK AO2 CIG 004V011 P0000=
200611201153 METAR KPAE 201153Z 17008KT 3SM RA BR SCT006 BKN012 OVC017 08/07 A2987 RMK AO2 SLP118 P0015 60018 70053 T00780067 10083 20072 50006=
200611201136 SPECI KPAE 201136Z 16011KT 4SM -RA BR SCT006 OVC013 08/07 A2987 RMK AO2 P0011=
200611201136 SPECI KPAE 201136Z 16011KT 4SM -RA BR SCT006 OVC013 08/07 A2987 RMK AO2 P0011=
200611201119 SPECI KPAE 201119Z 17011KT 4SM RA BR SCT008 BKN016 OVC026 08/07 A2987 RMK AO2 P0008=
200611201119 SPECI KPAE 201119Z 17011KT 4SM RA BR SCT008 BKN016 OVC026 08/07 A2987 RMK AO2 P0008=
200611201107 SPECI KPAE 201107Z 17009KT 2 1/2SM +RA BR FEW008 BKN017 OVC035 08/07 A2987 RMK AO2 P0006=
200611201107 SPECI KPAE 201107Z 17009KT 2 1/2SM +RA BR FEW008 BKN017 OVC035 08/07 A2987 RMK AO2 P0006=
200611201053 METAR KPAE 201053Z 17010KT 6SM -RA BR FEW010 OVC037 08/07 A2988 RMK AO2 RAE06B22 SLP119 P0003 T00780067=
200611201003 SPECI KPAE 201003Z 16012KT 10SM -RA FEW009 BKN042 OVC075 08/07 A2986 RMK AO2 P0000=
200611201003 SPECI KPAE 201003Z 16012KT 10SM -RA FEW009 BKN042 OVC075 08/07 A2986 RMK AO2 P0000=
200611200953 METAR KPAE 200953Z 16013KT 9SM -RA SCT038 BKN050 OVC085 08/07 A2986 RMK AO2 RAB27 SLP112 P0000 T00780067=
200611200853 METAR KPAE 200853Z 16014KT 10SM FEW005 08/06 A2986 RMK AO2 SLP112 T00780061 58010=
200611200840 SPECI KPAE 200840Z 15013KT 10SM SCT005 07/06 A2985 RMK AO2=
200611200840 SPECI KPAE 200840Z 15013KT 10SM SCT005 07/06 A2985 RMK AO2=
200611200803 SPECI KPAE 200803Z 15013KT 9SM BKN005 08/07 A2987 RMK AO2=
200611200803 SPECI KPAE 200803Z 15013KT 9SM BKN005 08/07 A2987 RMK AO2=
200611200753 METAR KPAE 200753Z 16011KT 9SM SCT005 08/07 A2987 RMK AO2 SLP116 T00780067 401280072=
200611200653 METAR KPAE 200653Z 15010KT 9SM SCT006 BKN120 08/06 A2988 RMK AO2 SLP121 T00780061=
200611200634 SPECI KPAE 200634Z 15009KT 9SM BKN006 BKN120 08/06 A2989 RMK AO2 CIG 005V010=
200611200634 SPECI KPAE 200634Z 15009KT 9SM BKN006 BKN120 08/06 A2989 RMK AO2 CIG 005V010=
200611200625 SPECI KPAE 200625Z 15008KT 9SM SCT006 BKN120 08/06 A2989 RMK AO2=
200611200625 SPECI KPAE 200625Z 15008KT 9SM SCT006 BKN120 08/06 A2989 RMK AO2=
200611200553 METAR KPAE 200553Z 15011KT 10SM CLR 07/06 A2989 RMK AO2 SLP122 T00720061 10100 20072 55003=
200611200536 SPECI KPAE 200536Z 17009KT 9SM SCT007 07/06 A2989 RMK AO2=
200611200536 SPECI KPAE 200536Z 17009KT 9SM SCT007 07/06 A2989 RMK AO2=
200611200529 SPECI KPAE 200529Z 17008KT 10SM BKN007 BKN050 07/06 A2989 RMK AO2 CIG 006V010=
200611200529 SPECI KPAE 200529Z 17008KT 10SM BKN007 BKN050 07/06 A2989 RMK AO2 CIG 006V010=
200611200510 SPECI KPAE 200510Z 15008KT 10SM SCT007 08/06 A2988 RMK AO2=
200611200510 SPECI KPAE 200510Z 15008KT 10SM SCT007 08/06 A2988 RMK AO2=
200611200453 METAR KPAE 200453Z 14009KT 10SM CLR 08/06 A2987 RMK AO2 SLP117 T00780061=
200611200353 METAR KPAE 200353Z 15009KT 10SM CLR 08/06 A2989 RMK AO2 SLP124 T00830061=
200611200253 METAR KPAE 200253Z 11006KT 10SM CLR 08/07 A2990 RMK AO2 SLP124 T00780067 51006=
200611200153 METAR KPAE 200153Z 14008KT 10SM FEW023 BKN033 09/07 A2989 RMK AO2 SLP123 T00890067=
200611200053 METAR KPAE 200053Z 16006KT 10SM SCT022 BKN034 09/07 A2990 RMK AO2 SLP125 T00940072=
200611192353 METAR KPAE 192353Z 15005KT 10SM SCT017 BKN022 OVC100 10/07 A2988 RMK AO2 SLP118 60009 T01000072 10106 20094 53023=
200611192318 SPECI KPAE 192318Z 16009KT 10SM FEW013 BKN018 OVC090 10/07 A2987 RMK AO2=
200611192318 SPECI KPAE 192318Z 16009KT 10SM FEW013 BKN018 OVC090 10/07 A2987 RMK AO2=
200611192253 METAR KPAE 192253Z 19007KT 10SM OVC085 10/07 A2986 RMK AO2 PK WND 17027/2212 PRESRR SLP112 T01000072=
200611192153 METAR KPAE 192153Z 17020G24KT 10SM OVC075 10/07 A2981 RMK AO2 PK WND 17027/2131 SLP096 T01000072=
200611192053 METAR KPAE 192053Z 19020G28KT 10SM OVC060 10/07 A2981 RMK AO2 PK WND 19028/2052 RAE51 SLP095 P0001 60009 T01000072 53015=
200611192018 SPECI KPAE 192018Z 16016G27KT 10SM FEW004 BKN047 OVC055 11/09 A2979 RMK AO2 PK WND 17027/2010 RAE12 P0001=
200611192018 SPECI KPAE 192018Z 16016G27KT 10SM FEW004 BKN047 OVC055 11/09 A2979 RMK AO2 PK WND 17027/2010 RAE12 P0001=
200611191953 METAR KPAE 191953Z 18012G18KT 4SM -RA BR OVC006 10/09 A2980 RMK AO2 CIG 003V008 SLP091 P0002 T01000089=
200611191930 SPECI KPAE 191930Z 14015G23KT 6SM -RA BR BKN008 OVC014 09/08 A2978 RMK AO2 CIG 005V012 P0001=
200611191930 SPECI KPAE 191930Z 14015G23KT 6SM -RA BR BKN008 OVC014 09/08 A2978 RMK AO2 CIG 005V012 P0001=
200611191914 SPECI KPAE 191914Z 12013KT 4SM -RA BR FEW006 BKN014 OVC021 09/08 A2977 RMK AO2 P0001=
200611191914 SPECI KPAE 191914Z 12013KT 4SM -RA BR FEW006 BKN014 OVC021 09/08 A2977 RMK AO2 P0001=
200611191853 METAR KPAE 191853Z 13012KT 3SM -RA BR SCT016 OVC023 09/08 A2977 RMK AO2 SLP081 P0006 T00940078=
200611191848 SPECI KPAE 191848Z 13013KT 2 1/2SM -RA BR FEW016 BKN026 OVC033 09/08 A2976 RMK AO2 P0005=
200611191848 SPECI KPAE 191848Z 13013KT 2 1/2SM -RA BR FEW016 BKN026 OVC033 09/08 A2976 RMK AO2 P0005=
200611191825 SPECI KPAE 191825Z 12015KT 3SM -RA BR FEW018 OVC028 09/08 A2976 RMK AO2 P0004=
200611191825 SPECI KPAE 191825Z 12015KT 3SM -RA BR FEW018 OVC028 09/08 A2976 RMK AO2 P0004=
200611191816 SPECI KPAE 191816Z 13016G22KT 2 1/2SM -RA BR FEW020 OVC030 09/08 A2976 RMK AO2 P0003=
200611191816 SPECI KPAE 191816Z 13016G22KT 2 1/2SM -RA BR FEW020 OVC030 09/08 A2976 RMK AO2 P0003=
200611191753 METAR KPAE 191753Z 12013KT 3SM -RA BR FEW027 BKN036 OVC046 09/07 A2976 RMK AO2 SLP078 P0009 60026 T00940072 10128 20089 53005=
200611191653 METAR KPAE 191653Z 14014KT 3SM RA FEW041 OVC060 09/06 A2974 RMK AO2 SLP073 P0014 T00940061=
200611191553 METAR KPAE 191553Z 14008KT 9SM -RA OVC065 11/04 A2974 RMK AO2 RAB09 SLP071 P0003 T01060044=
200611191453 METAR KPAE 191453Z AUTO 14016G21KT 10SM FEW060 SCT095 13/02 A2974 RMK AO2 SLP071 60000 T01280017 56032=
200611191353 METAR KPAE 191353Z AUTO 13016KT 10SM BKN065 13/02 A2976 RMK AO2 SLP078 T01280017=
200611191253 METAR KPAE 191253Z AUTO 14013KT 10SM FEW050 BKN065 12/01 A2980 RMK AO2 RAB03E16 SLP090 P0000 T01220011=
200611191153 METAR KPAE 191153Z AUTO 14012KT 10SM BKN050 OVC085 11/01 A2984 RMK AO2 SLP104 60000 T01110011 10117 20094 56023=
200611191053 METAR KPAE 191053Z AUTO 11012KT 10SM OVC055 10/02 A2985 RMK AO2 RAE37 SLP107 P0000 T01000017=
200611190953 METAR KPAE 190953Z AUTO 13014KT 10SM -RA SCT049 BKN060 OVC090 11/01 A2988 RMK AO2 RAB19 PRESFR SLP119 P0000 T01110011=
200611190853 METAR KPAE 190853Z AUTO 13010KT 10SM CLR 10/00 A2991 RMK AO2 SLP128 T01000000 58017=
200611190753 METAR KPAE 190753Z AUTO 13012KT 10SM OVC070 10/00 A2994 RMK AO2 SLP138 T01000000 401170067=
200611190653 METAR KPAE 190653Z AUTO 14010KT 10SM FEW080 09/00 A2997 RMK AO2 SLP149 T00940000=
200611190553 METAR KPAE 190553Z AUTO 12014KT 10SM CLR 10/M01 A2996 RMK AO2 SLP146 T01001006 10111 20094 58033=
200611190453 METAR KPAE 190453Z AUTO 11012KT 10SM CLR 10/M01 A2999 RMK AO2 SLP158 T01001011=
200611190353 METAR KPAE 190353Z 11010KT 10SM BKN095 09/M01 A3003 RMK AO2 SLP172 T00941011=
200611190253 METAR KPAE 190253Z 10009KT 10SM FEW075 09/M01 A3006 RMK AO2 SLP179 T00941006 56017=
200611190153 METAR KPAE 190153Z 11009KT 10SM CLR 09/00 A3007 RMK AO2 SLP186 T00940000=
200611190053 METAR KPAE 190053Z 13008KT 10SM CLR 11/M01 A3008 RMK AO2 SLP187 T01061011=
200611182353 METAR KPAE 182353Z 14006KT 10SM CLR 11/01 A3011 RMK AO2 SLP197 T01110006 10117 20089 55005=
200611182253 METAR KPAE 182253Z 14006KT 10SM CLR 12/01 A3010 RMK AO2 SLP194 T01170011=
200611182153 METAR KPAE 182153Z 12007KT 10SM CLR 12/01 A3010 RMK AO2 SLP194 T01170011=
200611182053 METAR KPAE 182053Z 12006KT 10SM CLR 11/01 A3012 RMK AO2 PRESFR SLP202 T01110011 58031=
200611181953 METAR KPAE 181953Z 14007KT 10SM CLR 11/01 A3017 RMK AO2 SLP218 T01060011=
200611181853 METAR KPAE 181853Z 14009KT 10SM CLR 10/02 A3021 RMK AO2 SLP230 T01000017=
200611181753 METAR KPAE 181753Z AUTO 14006KT 10SM CLR 09/02 A3022 RMK AO2 SLP234 T00940017 10094 20067 53007 TSNO=
200611181653 METAR KPAE 181653Z AUTO 13007KT 10SM CLR 07/02 A3021 RMK AO2 SLP232 T00720022 TSNO=
200611181553 METAR KPAE 181553Z AUTO 14008KT 10SM CLR 07/02 A3020 RMK AO2 SLP231 T00720017 TSNO=
200611181453 METAR KPAE 181453Z AUTO 10007KT 10SM SCT043 07/01 A3020 RMK AO2 SLP228 T00670011 50000 TSNO=
200611181353 METAR KPAE 181353Z AUTO 14008KT 10SM SCT038 07/01 A3019 RMK AO2 SLP226 T00720011 TSNO=
200611181253 METAR KPAE 181253Z AUTO 15006KT 10SM FEW033 BKN040 BKN090 07/01 A3020 RMK AO2 SLP229 T00720011 TSNO=
200611181153 METAR KPAE 181153Z AUTO 14007KT 10SM BKN090 08/01 A3020 RMK AO2 SLP227 T00780011 10089 20078 51004 TSNO=
200611181053 METAR KPAE 181053Z AUTO 14011KT 10SM BKN034 OVC050 08/01 A3019 RMK AO2 SLP227 T00830011 TSNO=
200611180953 METAR KPAE 180953Z AUTO 14010KT 10SM SCT048 OVC100 08/01 A3019 RMK AO2 SLP225 T00780011 TSNO=
200611180853 METAR KPAE 180853Z AUTO 15011KT 10SM BKN050 OVC090 08/01 A3018 RMK AO2 SLP223 T00830011 51011 TSNO=
200611180753 METAR KPAE 180753Z AUTO 13010KT 10SM OVC090 08/02 A3017 RMK AO2 SLP219 T00780017 401170039 TSNO=
200611180653 METAR KPAE 180653Z AUTO 14011KT 10SM OVC038 08/02 A3017 RMK AO2 SLP218 T00830017 TSNO=
200611180553 METAR KPAE 180553Z AUTO 14011KT 10SM OVC038 09/02 A3015 RMK AO2 SLP212 T00890017 10100 20083 53007 TSNO=
200611180453 METAR KPAE 180453Z AUTO 15011KT 10SM FEW037 OVC060 08/02 A3013 RMK AO2 SLP205 T00830017 TSNO=
200611180353 METAR KPAE 180353Z 13011KT 10SM FEW042 SCT060 BKN075 08/03 A3013 RMK AO2 SLP205 T00830028=
200611180253 METAR KPAE 180253Z 14011KT 10SM FEW090 09/03 A3013 RMK AO2 SLP205 T00890028 53010=
200611180153 METAR KPAE 180153Z 16011KT 10SM CLR 09/03 A3011 RMK AO2 SLP200 T00890028=
200611180053 METAR KPAE 180053Z AUTO 15010KT 10SM SCT055 10/02 A3010 RMK AO2 SLP196 T01000022 TSNO=
200611172353 METAR KPAE 172353Z 15010KT 10SM CLR 10/02 A3010 RMK AO2 SLP194 T01000017 10117 20078 50000=
200611172253 METAR KPAE 172253Z 16014KT 10SM BKN060 BKN075 11/02 A3010 RMK AO2 SLP195 T01060017=
200611172153 METAR KPAE 172153Z 16013G23KT 130V190 10SM SCT075 BKN150 11/01 A3010 RMK AO2 SLP196 T01060006=
200611172053 METAR KPAE 172053Z 16014KT 10SM CLR 11/01 A3010 RMK AO2 SLP193 T01110006 58006=
200611171953 METAR KPAE 171953Z 17015KT 10SM CLR 11/00 A3010 RMK AO2 SLP196 T01110000=
200611171853 METAR KPAE 171853Z 15011KT 10SM SCT100 09/00 A3011 RMK AO2 SLP198 T00940000=
200611171753 METAR KPAE 171753Z 14010KT 10SM SCT039 OVC100 08/M01 A3011 RMK AO2 SLP200 T00781006 10078 20039 51013=
200611171653 METAR KPAE 171653Z 11008KT 10SM OVC035 07/M01 A3011 RMK AO2 SLP198 T00671006=
200611171553 METAR KPAE 171553Z 12012KT 10SM OVC038 06/M01 A3009 RMK AO2 SLP190 T00561006=
200611171453 METAR KPAE 171453Z 13009KT 10SM BKN050 BKN110 06/M01 A3008 RMK AO2 SLP187 T00561011 53002=
200611171353 METAR KPAE 171353Z AUTO 11011KT 10SM FEW044 04/M01 A3007 RMK AO2 SLP185 T00391006=
200611171253 METAR KPAE 171253Z AUTO 13012KT 10SM BKN110 06/M01 A3006 RMK AO2 SLP183 T00561011=
200611171153 METAR KPAE 171153Z AUTO 13011KT 10SM BKN120 06/M01 A3007 RMK AO2 SLP186 T00561011 10072 20044 50002=
200611171053 METAR KPAE 171053Z AUTO 12010KT 10SM OVC100 06/M01 A3008 RMK AO2 SLP188 T00561006=
200611170953 METAR KPAE 170953Z AUTO 11009KT 10SM BKN120 05/00 A3007 RMK AO2 SLP186 T00500000=
200611170853 METAR KPAE 170853Z AUTO 12009KT 10SM CLR 06/M01 A3007 RMK AO2 SLP184 T00561006 51007=
200611170753 METAR KPAE 170753Z AUTO 14010KT 10SM CLR 06/00 A3006 RMK AO2 SLP182 T00610000 401000039=
200611170653 METAR KPAE 170653Z AUTO 14012KT 10SM FEW050 06/00 A3006 RMK AO2 SLP181 T00610000=
200611170553 METAR KPAE 170553Z AUTO 14012KT 10SM CLR 07/00 A3005 RMK AO2 SLP177 T00720000 10089 20067 51007=
200611170453 METAR KPAE 170453Z 12009KT 10SM SCT060 07/01 A3004 RMK AO2 SLP175 T00720011=
200611170353 METAR KPAE 170353Z 13013KT 10SM FEW070 SCT120 08/01 A3004 RMK AO2 SLP174 T00780011=
200611170253 METAR KPAE 170253Z 13011KT 10SM BKN060 07/02 A3002 RMK AO2 SLP170 T00720017 51008=
200611170153 METAR KPAE 170153Z 14010KT 10SM CLR 08/02 A3002 RMK AO2 SLP168 T00780017=
200611170053 METAR KPAE 170053Z 15012KT 10SM CLR 08/02 A3001 RMK AO2 SLP166 T00780017=
200611162353 METAR KPAE 162353Z 18013KT 10SM FEW100 09/00 A3000 RMK AO2 SLP161 T00890000 10100 20061 53003=
200611162253 METAR KPAE 162253Z 17016KT 10SM SCT085 09/01 A3000 RMK AO2 SLP160 T00940006=
200611162153 METAR KPAE 162153Z 17017KT 10SM FEW080 09/02 A2998 RMK AO2 SLP156 T00890017=
200611162053 METAR KPAE 162053Z 16013KT 10SM FEW033 09/02 A2999 RMK AO2 SLP158 T00890022 50000=
200611161953 METAR KPAE 161953Z 16016KT 10SM CLR 09/03 A3000 RMK AO2 SLP160 T00890028=
200611161853 METAR KPAE 161853Z 14012KT 10SM FEW024 07/03 A3001 RMK AO2 SLP164 T00720033=
200611161753 METAR KPAE 161753Z 13008KT 10SM CLR 06/03 A2999 RMK AO2 SLP158 T00610028 10061 20039 52025=
200611161653 METAR KPAE 161653Z 13009KT 10SM CLR 05/02 A2997 RMK AO2 SLP150 T00500022=
200611161553 METAR KPAE 161553Z 14009KT 10SM CLR 04/02 A2994 RMK AO2 SLP142 T00390022=
200611161532 SPECI KPAE 161532Z 13009KT 10SM FEW013 04/02 A2993 RMK AO2=
200611161532 SPECI KPAE 161532Z 13009KT 10SM FEW013 04/02 A2993 RMK AO2=
200611161522 SPECI KPAE 161522Z 12009KT 10SM BKN013 04/02 A2993 RMK AO2=
200611161522 SPECI KPAE 161522Z 12009KT 10SM BKN013 04/02 A2993 RMK AO2=
200611161505 SPECI KPAE 161505Z 12007KT 10SM BKN015 04/02 A2992 RMK AO2=
200611161505 SPECI KPAE 161505Z 12007KT 10SM BKN015 04/02 A2992 RMK AO2=
200611161453 METAR KPAE 161453Z 13009KT 10SM FEW015 04/02 A2991 RMK AO2 SLP133 T00440017 51021=
200611161353 METAR KPAE 161353Z AUTO 13008KT 10SM SCT038 BKN048 OVC055 05/02 A2990 RMK AO2 SLP126 T00500022=
200611161253 METAR KPAE 161253Z AUTO 14009KT 10SM SCT033 SCT049 BKN060 04/02 A2987 RMK AO2 SLP118 T00440022=
200611161153 METAR KPAE 161153Z AUTO 13008KT 10SM BKN033 OVC055 04/02 A2985 RMK AO2 SLP111 60001 70106 T00440022 10067 20044 51036=
200611161053 METAR KPAE 161053Z AUTO 13007KT 10SM FEW031 BKN049 04/02 A2983 RMK AO2 SLP102 T00440022=
200611160953 METAR KPAE 160953Z AUTO 11008KT 10SM BKN047 OVC065 05/03 A2979 RMK AO2 RAB02E23 SLP089 P0000 T00500033=
200611160853 METAR KPAE 160853Z AUTO 10008KT 10SM OVC044 05/03 A2974 RMK AO2 PRESRR SLP074 60001 T00500033 51052=
200611160753 METAR KPAE 160753Z AUTO 10011KT 10SM BKN040 OVC050 06/04 A2969 RMK AO2 SLP056 T00560039 401170056=
200611160653 METAR KPAE 160653Z AUTO 09006KT 10SM BKN045 OVC100 06/04 A2964 RMK AO2 RAE32 SLP040 P0001 T00560039=
200611160553 METAR KPAE 160553Z AUTO 00000KT 5SM -RA BKN040 OVC049 06/03 A2959 RMK AO2 PRESRR SLP021 P0002 60046 T00610028 10111 20061 51100=
200611160513 SPECI KPAE 160513Z AUTO 32007KT 280V020 4SM -RA FEW021 OVC030 06/03 A2954 RMK AO2 P0000=
200611160513 SPECI KPAE 160513Z AUTO 32007KT 280V020 4SM -RA FEW021 OVC030 06/03 A2954 RMK AO2 P0000=
200611160453 METAR KPAE 160453Z VRB06KT 7SM -RA SCT013 SCT021 OVC028 07/04 A2950 RMK AO2 PRESRR SLP992 P0005 T00670044=
200611160422 SPECI KPAE 160422Z 33005KT 3SM -RA BR FEW005 SCT011 OVC024 06/05 A2944 RMK AO2 P0004=
200611160422 SPECI KPAE 160422Z 33005KT 3SM -RA BR FEW005 SCT011 OVC024 06/05 A2944 RMK AO2 P0004=
200611160416 SPECI KPAE 160416Z 34009G15KT 2 1/2SM -RA BR FEW005 BKN011 OVC022 06/05 A2944 RMK AO2 PRESRR P0003=
200611160416 SPECI KPAE 160416Z 34009G15KT 2 1/2SM -RA BR FEW005 BKN011 OVC022 06/05 A2944 RMK AO2 PRESRR P0003=
200611160353 METAR KPAE 160353Z 34010G15KT 2 1/2SM RA BR BKN005 BKN009 OVC015 07/06 A2939 RMK AO2 WSHFT 0247 RAB01 SLP954 P0017 T00670061=
200611160316 SPECI KPAE 160316Z 35009G15KT 2SM RA BR BKN004 OVC009 07/07 A2934 RMK AO2 WSHFT 0247 RAB01 CIG 001V007 P0007=
200611160316 SPECI KPAE 160316Z 35009G15KT 2SM RA BR BKN004 OVC009 07/07 A2934 RMK AO2 WSHFT 0247 RAB01 CIG 001V007 P0007=
200611160309 SPECI KPAE 160309Z 35011G17KT 2 1/2SM +RA BR BKN005 OVC013 08/07 A2933 RMK AO2 WSHFT 0247 RAB01 CIG 003V010 PRESRR P0005=
200611160309 SPECI KPAE 160309Z 35011G17KT 2 1/2SM +RA BR BKN005 OVC013 08/07 A2933 RMK AO2 WSHFT 0247 RAB01 CIG 003V010 PRESRR P0005=
200611160306 SPECI KPAE 160306Z 34012G17KT 4SM RA BR SCT005 OVC011 08/07 A2932 RMK AO2 WSHFT 0247 RAB01 PRESRR P0003=
200611160306 SPECI KPAE 160306Z 34012G17KT 4SM RA BR SCT005 OVC011 08/07 A2932 RMK AO2 WSHFT 0247 RAB01 PRESRR P0003=
200611160253 METAR KPAE 160253Z 19017G31KT 10SM BKN011 OVC015 11/09 A2929 RMK AO2 PK WND 18039/0219 RAE36 SLP918 P0000 60022 T01110094 53015=
200611160153 METAR KPAE 160153Z 17024G31KT 8SM -RA SCT008 BKN016 OVC055 11/09 A2922 RMK AO2 PK WND 17036/0123 SLP895 P0020 T01060094=
200611160053 METAR KPAE 160053Z 17024G33KT 3SM RA BR BKN006 OVC037 11/08 A2924 RMK AO2 PK WND 17034/0037 SLP902 P0002 T01060083=
200611152353 METAR KPAE 152353Z 16015G27KT 3SM -RA BR BKN006 OVC015 11/09 A2923 RMK AO2 PK WND 19028/2319 SLP899 P0011 60029 T01060089 10117 20083 58051=
200611152346 SPECI KPAE 152346Z 16014G20KT 3SM -RA BR BKN010 BKN013 OVC018 11/09 A2924 RMK AO2 PK WND 19028/2319 CIG 008V011 P0011=
200611152346 SPECI KPAE 152346Z 16014G20KT 3SM -RA BR BKN010 BKN013 OVC018 11/09 A2924 RMK AO2 PK WND 19028/2319 CIG 008V011 P0011=
200611152325 SPECI KPAE 152325Z 17018G28KT 3SM -RA BR FEW019 BKN026 OVC032 11/09 A2925 RMK AO2 PK WND 19028/2319 P0009=
200611152325 SPECI KPAE 152325Z 17018G28KT 3SM -RA BR FEW019 BKN026 OVC032 11/09 A2925 RMK AO2 PK WND 19028/2319 P0009=
200611152253 METAR KPAE 152253Z 18016G27KT 4SM RA BKN035 OVC044 12/08 A2930 RMK AO2 PK WND 17030/2203 SLP922 P0003 T01170083=
200611152153 METAR KPAE 152153Z 15019G28KT 7SM -RA OVC041 11/08 A2933 RMK AO2 PK WND 15035/2104 PRESFR SLP933 P0007 T01060083=
200611152053 METAR KPAE 152053Z 16022G31KT 4SM RA BR FEW028 BKN034 OVC050 11/08 A2938 RMK AO2 PK WND 17039/1955 PRESFR SLP951 P0002 60008 T01060083 56055=
200611152019 SPECI KPAE 152019Z 15019G30KT 7SM -RA SCT023 BKN039 BKN050 11/08 A2941 RMK AO2 PK WND 17039/1955 PRESRR P0000=
200611152019 SPECI KPAE 152019Z 15019G30KT 7SM -RA SCT023 BKN039 BKN050 11/08 A2941 RMK AO2 PK WND 17039/1955 PRESRR P0000=
200611151953 METAR KPAE 151953Z 17023G31KT 5SM -RA BR FEW020 BKN025 OVC041 11/09 A2940 RMK AO2 PK WND 18033/1943 PRESFR SLP955 P0005 T01110089=
200611151853 METAR KPAE 151853Z 17013G18KT 10SM -RA SCT007 OVC031 10/08 A2947 RMK AO2 SLP981 P0001 T01000083=
200611151830 SPECI KPAE 151830Z 11011KT 10SM -RA BKN005 BKN011 OVC019 09/08 A2948 RMK AO2 PRESFR P0001=
200611151830 SPECI KPAE 151830Z 11011KT 10SM -RA BKN005 BKN011 OVC019 09/08 A2948 RMK AO2 PRESFR P0001=
200611151818 SPECI KPAE 151818Z 12010G19KT 6SM -RA BR FEW008 BKN013 OVC027 08/07 A2950 RMK AO2 PRESFR P0001=
200611151818 SPECI KPAE 151818Z 12010G19KT 6SM -RA BR FEW008 BKN013 OVC027 08/07 A2950 RMK AO2 PRESFR P0001=
200611151753 METAR KPAE 151753Z 11011KT 5SM -RA BR BKN015 OVC021 08/07 A2955 RMK AO2 PRESFR SLP008 P0015 60030 T00830072 10083 20061 58048=
200611151653 METAR KPAE 151653Z 11011KT 2 1/2SM -RA BR BKN023 OVC030 08/07 A2961 RMK AO2 SLP028 P0007 T00830072=
200611151644 SPECI KPAE 151644Z 13010KT 1 1/4SM RA BR BKN021 OVC026 08/07 A2961 RMK AO2 P0005=
200611151644 SPECI KPAE 151644Z 13010KT 1 1/4SM RA BR BKN021 OVC026 08/07 A2961 RMK AO2 P0005=
200611151636 SPECI KPAE 151636Z 13010KT 2 1/2SM -RA BR FEW016 BKN023 OVC029 08/07 A2962 RMK AO2 P0003=
200611151636 SPECI KPAE 151636Z 13010KT 2 1/2SM -RA BR FEW016 BKN023 OVC029 08/07 A2962 RMK AO2 P0003=
200611151611 SPECI KPAE 151611Z 13013G18KT 3SM -RA BR BKN018 OVC023 08/07 A2964 RMK AO2 P0002=
200611151611 SPECI KPAE 151611Z 13013G18KT 3SM -RA BR BKN018 OVC023 08/07 A2964 RMK AO2 P0002=
200611151601 SPECI KPAE 151601Z 14013KT 1 3/4SM RA BR BKN018 OVC023 08/07 A2964 RMK AO2 P0001=
200611151601 SPECI KPAE 151601Z 14013KT 1 3/4SM RA BR BKN018 OVC023 08/07 A2964 RMK AO2 P0001=
200611151553 METAR KPAE 151553Z 15010KT 3SM -RA BR OVC019 08/07 A2965 RMK AO2 SLP042 P0003 T00780067=
200611151453 METAR KPAE 151453Z 16011KT 4SM RA BR FEW006 BKN027 OVC042 07/06 A2969 RMK AO2 SLP057 P0002 60005 T00670056 56027=
200611151439 SPECI KPAE 151439Z AUTO 15012KT 8SM -RA SCT006 BKN026 OVC042 07/06 A2969 RMK AO2 P0001=
200611151439 SPECI KPAE 151439Z AUTO 15012KT 8SM -RA SCT006 BKN026 OVC042 07/06 A2969 RMK AO2 P0001=
200611151432 SPECI KPAE 151432Z AUTO 15011KT 7SM SCT004 BKN009 OVC034 07/06 A2969 RMK AO2 RAE29 P0001=
200611151432 SPECI KPAE 151432Z AUTO 15011KT 7SM SCT004 BKN009 OVC034 07/06 A2969 RMK AO2 RAE29 P0001=
200611151353 METAR KPAE 151353Z AUTO 15012KT 8SM -RA BKN004 OVC015 06/05 A2971 RMK AO2 SLP063 P0001 T00610050=
200611151347 SPECI KPAE 151347Z AUTO 15013KT 5SM -RA BR BKN004 BKN010 OVC015 06/05 A2970 RMK AO2 P0001=
200611151347 SPECI KPAE 151347Z AUTO 15013KT 5SM -RA BR BKN004 BKN010 OVC015 06/05 A2970 RMK AO2 P0001=
200611151311 SPECI KPAE 151311Z AUTO 14017G21KT 5SM -RA BR FEW008 BKN019 OVC050 06/04 A2974 RMK AO2 P0000=
200611151311 SPECI KPAE 151311Z AUTO 14017G21KT 5SM -RA BR FEW008 BKN019 OVC050 06/04 A2974 RMK AO2 P0000=
200611151253 METAR KPAE 151253Z AUTO 15013KT 4SM -RA BR FEW013 BKN031 OVC050 06/04 A2975 RMK AO2 RAB20 SLP075 P0002 T00610044=
200611151226 SPECI KPAE 151226Z AUTO 16015G21KT 5SM RA BKN015 OVC028 07/04 A2976 RMK AO2 RAB20 P0001=
200611151226 SPECI KPAE 151226Z AUTO 16015G21KT 5SM RA BKN015 OVC028 07/04 A2976 RMK AO2 RAB20 P0001=
200611151153 METAR KPAE 151153Z AUTO 17016G21KT 10SM BKN037 OVC050 07/03 A2977 RMK AO2 RAB38E52 SLP084 P0001 60001 70001 T00720028 10083 20061 56030=
200611151053 METAR KPAE 151053Z AUTO 13012KT 10SM BKN049 OVC060 08/M01 A2978 RMK AO2 SLP087 T00781011=
200611150953 METAR KPAE 150953Z AUTO 14013KT 10SM BKN070 07/00 A2982 RMK AO2 SLP099 T00720000=
200611150853 METAR KPAE 150853Z AUTO 13011KT 10SM OVC080 07/00 A2986 RMK AO2 SLP115 T00720000 58042=
200611150753 METAR KPAE 150753Z AUTO 14009KT 10SM OVC090 07/01 A2992 RMK AO2 SLP135 T00670011 400830033=
200611150653 METAR KPAE 150653Z AUTO 10007KT 10SM FEW050 BKN090 OVC100 06/02 A2996 RMK AO2 SLP149 T00610022=
200611150553 METAR KPAE 150553Z AUTO 12010KT 10SM FEW050 OVC095 07/01 A2999 RMK AO2 SLP158 60000 T00720011 10078 20061 56037=
200611150453 METAR KPAE 150453Z 14011KT 10SM BKN100 07/02 A3002 RMK AO2 SLP168 T00720017=
200611150353 METAR KPAE 150353Z 12012KT 10SM BKN050 07/02 A3005 RMK AO2 RAE0257 SLP180 P0000 T00670022=
200611150253 METAR KPAE 150253Z 13010KT 10SM -RA BKN042 OVC065 07/04 A3010 RMK AO2 RAE09B29 SLP197 P0000 60000 T00670039 58015=
200611150153 METAR KPAE 150153Z 13009KT 10SM -RA OVC036 07/04 A3013 RMK AO2 RAB52 SLP207 P0000 T00670044=
200611150053 METAR KPAE 150053Z 14011KT 10SM BKN045 OVC060 07/04 A3014 RMK AO2 SLP211 T00720044=
200611142353 METAR KPAE 142353Z AUTO 17018G22KT 10SM FEW015 OVC041 08/04 A3015 RMK AO2 SLP211 T00780044 10083 20061 55002 TSNO=
200611142253 METAR KPAE 142253Z 15012KT 10SM CLR 08/04 A3014 RMK AO2 SLP209 T00830039=
200611142153 METAR KPAE 142153Z 16015KT 10SM FEW022 BKN065 08/04 A3014 RMK AO2 SLP209 T00780039=
200611142053 METAR KPAE 142053Z 15012KT 10SM FEW036 SCT065 08/03 A3015 RMK AO2 SLP213 T00830028 50006=
200611142020 SPECI KPAE 142020Z 16008KT 10SM SCT026 OVC034 08/03 A3016 RMK AO2=
200611142020 SPECI KPAE 142020Z 16008KT 10SM SCT026 OVC034 08/03 A3016 RMK AO2=
200611141953 METAR KPAE 141953Z 16009KT 10SM OVC027 08/03 A3017 RMK AO2 SLP219 T00780028=
200611141853 METAR KPAE 141853Z 15011KT 10SM BKN021 OVC029 07/03 A3016 RMK AO2 SLP216 T00670028=
200611141815 SPECI KPAE 141815Z 15012KT 10SM BKN023 07/03 A3015 RMK AO2=
200611141815 SPECI KPAE 141815Z 15012KT 10SM BKN023 07/03 A3015 RMK AO2=
200611141753 METAR KPAE 141753Z 15013KT 10SM CLR 06/03 A3013 RMK AO2 SLP207 T00610028 10061 20033 51019=
200611141653 METAR KPAE 141653Z 14010KT 10SM SCT011 05/02 A3013 RMK AO2 SLP206 T00500022=
200611141613 SPECI KPAE 141613Z 14008KT 10SM SCT011 04/02 A3012 RMK AO2=
200611141613 SPECI KPAE 141613Z 14008KT 10SM SCT011 04/02 A3012 RMK AO2=
200611141606 SPECI KPAE 141606Z 14007KT 10SM OVC011 04/02 A3012 RMK AO2=
200611141606 SPECI KPAE 141606Z 14007KT 10SM OVC011 04/02 A3012 RMK AO2=
200611141553 METAR KPAE 141553Z 14008KT 10SM OVC009 04/02 A3011 RMK AO2 CIG 006V013 SLP202 T00390022=
200611141540 SPECI KPAE 141540Z 14008KT 10SM BKN007 04/02 A3011 RMK AO2 CIG 006V011=
200611141540 SPECI KPAE 141540Z 14008KT 10SM BKN007 04/02 A3011 RMK AO2 CIG 006V011=
200611141453 METAR KPAE 141453Z 12007KT 10SM FEW007 03/02 A3008 RMK AO2 SLP188 T00330022 51029=
200611141353 METAR KPAE 141353Z 15007KT 10SM CLR 04/02 A3006 RMK AO2 SLP183 T00390022=
200611141253 METAR KPAE 141253Z 15010KT 10SM CLR 04/02 A3003 RMK AO2 SLP173 T00390022=
200611141153 METAR KPAE 141153Z 14008KT 10SM FEW005 04/03 A2999 RMK AO2 SLP159 60000 T00390028 10067 20033 53028=
200611141143 SPECI KPAE 141143Z 14008KT 10SM SCT005 04/03 A2998 RMK AO2=
200611141143 SPECI KPAE 141143Z 14008KT 10SM SCT005 04/03 A2998 RMK AO2=
200611141113 SPECI KPAE 141113Z 15008KT 8SM BKN005 04/03 A2996 RMK AO2=
200611141113 SPECI KPAE 141113Z 15008KT 8SM BKN005 04/03 A2996 RMK AO2=
200611141053 METAR KPAE 141053Z 15005KT 8SM FEW003 04/03 A2995 RMK AO2 SLP145 T00390033=
200611140953 METAR KPAE 140953Z 18003KT 7SM BKN003 04/03 A2990 RMK AO2 SLP129 T00440033=
200611140936 SPECI KPAE 140936Z 14004KT 8SM FEW003 04/03 A2989 RMK AO2=
200611140936 SPECI KPAE 140936Z 14004KT 8SM FEW003 04/03 A2989 RMK AO2=
200611140853 METAR KPAE 140853Z 21006KT 10SM FEW050 05/03 A2985 RMK AO2 SLP111 60000 T00500028 53048=
200611140753 METAR KPAE 140753Z 00000KT 10SM FEW027 OVC055 06/02 A2980 RMK AO2 RAB07E17 SLP095 P0000 T00610022 400720044=
200611140653 METAR KPAE 140653Z 00000KT 10SM FEW055 BKN070 06/02 A2975 RMK AO2 RAB23E34 SLP075 P0000 T00610017=
200611140553 METAR KPAE 140553Z 26006KT 10SM FEW023 OVC055 07/03 A2971 RMK AO2 PRESRR SLP062 T00670028 10067 20044 53050=
200611140527 SPECI KPAE 140527Z 24007KT 10SM SCT027 BKN035 OVC060 07/03 A2968 RMK AO2 PRESRR=
200611140527 SPECI KPAE 140527Z 24007KT 10SM SCT027 BKN035 OVC060 07/03 A2968 RMK AO2 PRESRR=
200611140519 SPECI KPAE 140519Z 24005KT 10SM FEW021 BKN029 OVC060 07/03 A2967 RMK AO2=
200611140519 SPECI KPAE 140519Z 24005KT 10SM FEW021 BKN029 OVC060 07/03 A2967 RMK AO2=
200611140453 METAR KPAE 140453Z 19006KT 10SM FEW026 BKN033 OVC055 06/04 A2964 RMK AO2 SLP040 T00610039=
200611140353 METAR KPAE 140353Z VRB03KT 10SM SCT034 BKN043 OVC050 06/04 A2959 RMK AO2 SLP021 T00610044=
200611140253 METAR KPAE 140253Z 19005KT 10SM FEW013 SCT050 SCT075 05/03 A2956 RMK AO2 SLP011 T00500033 53014=
200611140153 METAR KPAE 140153Z 18007KT 10SM BKN055 OVC080 06/04 A2953 RMK AO2 SLP003 T00610044=
200611140112 SPECI KPAE 140112Z 18010KT 10SM SCT026 BKN034 OVC075 06/04 A2952 RMK AO2=
200611140112 SPECI KPAE 140112Z 18010KT 10SM SCT026 BKN034 OVC075 06/04 A2952 RMK AO2=
200611140053 METAR KPAE 140053Z 18008KT 10SM FEW019 BKN027 OVC033 07/04 A2952 RMK AO2 SLP997 T00670039=
200611132353 METAR KPAE 132353Z 17012KT 10SM OVC017 07/04 A2951 RMK AO2 SLP996 T00670044 10072 20067 55008=
200611132330 SPECI KPAE 132330Z 17013KT 10SM BKN015 OVC021 07/04 A2951 RMK AO2=
200611132330 SPECI KPAE 132330Z 17013KT 10SM BKN015 OVC021 07/04 A2951 RMK AO2=
200611132253 METAR KPAE 132253Z 17016KT 10SM BKN014 BKN019 07/04 A2950 RMK AO2 SLP991 T00670039=
200611132245 SPECI KPAE 132245Z 17015KT 10SM BKN014 BKN021 07/04 A2950 RMK AO2=
200611132245 SPECI KPAE 132245Z 17015KT 10SM BKN014 BKN021 07/04 A2950 RMK AO2=
200611132153 METAR KPAE 132153Z 17018KT 10SM CLR 07/04 A2950 RMK AO2 SLP991 T00720044=
200611132130 SPECI KPAE 132130Z 16018KT 10SM FEW014 SCT019 SCT090 07/04 A2951 RMK AO2=
200611132130 SPECI KPAE 132130Z 16018KT 10SM FEW014 SCT019 SCT090 07/04 A2951 RMK AO2=
200611132100 SPECI KPAE 132100Z 17011KT 10SM FEW017 BKN024 OVC031 07/04 A2953 RMK AO2=
200611132100 SPECI KPAE 132100Z 17011KT 10SM FEW017 BKN024 OVC031 07/04 A2953 RMK AO2=
200611132053 METAR KPAE 132053Z 16013KT 10SM SCT019 BKN070 07/04 A2954 RMK AO2 SLP004 T00720044 58016=
200611131953 METAR KPAE 131953Z 18014KT 10SM SCT019 BKN070 07/04 A2956 RMK AO2 SLP013 T00670039=
200611131853 METAR KPAE 131853Z 21015G20KT 10SM FEW017 SCT090 07/04 A2959 RMK AO2 SLP022 T00720039=
200611131841 SPECI KPAE 131841Z 20014KT 10SM SCT015 SCT022 BKN090 07/04 A2959 RMK AO2=
200611131841 SPECI KPAE 131841Z 20014KT 10SM SCT015 SCT022 BKN090 07/04 A2959 RMK AO2=
200611131753 METAR KPAE 131753Z 18012KT 10SM BKN019 BKN024 07/04 A2958 RMK AO2 SLP020 T00670044 10067 20056 51022=
200611131659 SPECI KPAE 131659Z 19009KT 10SM BKN024 06/04 A2958 RMK AO2=
200611131659 SPECI KPAE 131659Z 19009KT 10SM BKN024 06/04 A2958 RMK AO2=
200611131653 METAR KPAE 131653Z 19008KT 10SM SCT024 06/04 A2958 RMK AO2 SLP019 T00610044=
200611131553 METAR KPAE 131553Z 17007KT 10SM SCT020 BKN055 OVC150 06/05 A2955 RMK AO2 SLP010 T00560050=
200611131453 METAR KPAE 131453Z 16005KT 10SM SCT020 OVC150 06/05 A2952 RMK AO2 SLP998 T00560050 51034=
200611131410 SPECI KPAE 131410Z 16009KT 10SM SCT022 06/05 A2950 RMK AO2=
200611131410 SPECI KPAE 131410Z 16009KT 10SM SCT022 06/05 A2950 RMK AO2=
200611131353 METAR KPAE 131353Z 14007KT 10SM BKN023 06/05 A2950 RMK AO2 SLP992 T00560050=
200611131253 METAR KPAE 131253Z 14006KT 10SM OVC016 06/05 A2945 RMK AO2 SLP973 T00610050=
200611131213 SPECI KPAE 131213Z 18004KT 10SM SCT012 SCT017 OVC024 06/05 A2943 RMK AO2=
200611131213 SPECI KPAE 131213Z 18004KT 10SM SCT012 SCT017 OVC024 06/05 A2943 RMK AO2=
200611131153 METAR KPAE 131153Z 25006KT 10SM OVC014 06/05 A2942 RMK AO2 PRESRR SLP963 60031 70093 T00610050 10061 20050 51101=
200611131053 METAR KPAE 131053Z 31010G18KT 10SM FEW010 BKN014 BKN065 06/04 A2933 RMK AO2 PRESRR SLP935 T00560044=
200611131001 SPECI KPAE 131001Z 32009KT 10SM SCT003 BKN012 OVC023 06/05 A2926 RMK AO2 PRESRR=
200611131001 SPECI KPAE 131001Z 32009KT 10SM SCT003 BKN012 OVC023 06/05 A2926 RMK AO2 PRESRR=
200611130953 METAR KPAE 130953Z 30009KT 270V330 10SM SCT003 BKN007 OVC013 06/05 A2924 RMK AO2 RAE47 PRESRR SLP904 P0003 T00560050=
200611130946 SPECI KPAE 130946Z 29010KT 10SM -RA BKN003 BKN011 OVC055 06/05 A2922 RMK AO2 PRESRR P0003=
200611130946 SPECI KPAE 130946Z 29010KT 10SM -RA BKN003 BKN011 OVC055 06/05 A2922 RMK AO2 PRESRR P0003=
200611130938 SPECI KPAE 130938Z VRB03KT 10SM SCT005 BKN017 OVC050 06/06 A2920 RMK AO2 RAE38 P0003=
200611130938 SPECI KPAE 130938Z VRB03KT 10SM SCT005 BKN017 OVC050 06/06 A2920 RMK AO2 RAE38 P0003=
200611130926 SPECI KPAE 130926Z VRB03KT 8SM -RA FEW009 BKN038 OVC050 06/05 A2918 RMK AO2 PRESRR P0003=
200611130926 SPECI KPAE 130926Z VRB03KT 8SM -RA FEW009 BKN038 OVC050 06/05 A2918 RMK AO2 PRESRR P0003=
200611130918 SPECI KPAE 130918Z 09005KT 3SM -RA BR FEW003 BKN022 OVC050 06/05 A2915 RMK AO2 P0003=
200611130918 SPECI KPAE 130918Z 09005KT 3SM -RA BR FEW003 BKN022 OVC050 06/05 A2915 RMK AO2 P0003=
200611130913 SPECI KPAE 130913Z 04003KT 1 3/4SM -RA BR FEW003 BKN017 OVC025 05/05 A2915 RMK AO2 PRESRR P0003=
200611130913 SPECI KPAE 130913Z 04003KT 1 3/4SM -RA BR FEW003 BKN017 OVC025 05/05 A2915 RMK AO2 PRESRR P0003=
200611130905 SPECI KPAE 130905Z VRB03KT 2SM RA BR FEW003 SCT010 OVC015 05/05 A2914 RMK AO2 PRESRR P0001=
200611130905 SPECI KPAE 130905Z VRB03KT 2SM RA BR FEW003 SCT010 OVC015 05/05 A2914 RMK AO2 PRESRR P0001=
200611130859 SPECI KPAE 130859Z 35005KT 4SM -RA BR FEW003 BKN010 OVC015 05/05 A2913 RMK AO2 PRESRR P0000=
200611130859 SPECI KPAE 130859Z 35005KT 4SM -RA BR FEW003 BKN010 OVC015 05/05 A2913 RMK AO2 PRESRR P0000=
200611130853 METAR KPAE 130853Z 33005KT 2 1/2SM RA BR FEW003 OVC015 06/05 A2911 RMK AO2 PRESRR SLP860 P0018 60028 T00560050 55009=
200611130846 SPECI KPAE 130846Z 32005KT 2 1/2SM RA BR FEW006 OVC017 06/06 A2910 RMK AO2 P0015=
200611130846 SPECI KPAE 130846Z 32005KT 2 1/2SM RA BR FEW006 OVC017 06/06 A2910 RMK AO2 P0015=
200611130838 SPECI KPAE 130838Z 00000KT 3SM RA BR SCT006 OVC017 06/06 A2909 RMK AO2 P0012=
200611130838 SPECI KPAE 130838Z 00000KT 3SM RA BR SCT006 OVC017 06/06 A2909 RMK AO2 P0012=
200611130817 SPECI KPAE 130817Z 00000KT 3SM -RA BR SCT006 BKN009 OVC024 06/06 A2908 RMK AO2 PRESRR P0004=
200611130817 SPECI KPAE 130817Z 00000KT 3SM -RA BR SCT006 BKN009 OVC024 06/06 A2908 RMK AO2 PRESRR P0004=
200611130753 METAR KPAE 130753Z 13008KT 4SM -RA BR FEW006 BKN018 OVC029 06/05 A2906 RMK AO2 SLP841 P0004 T00560050 400890056=
200611130700 SPECI KPAE 130700Z 12013KT 3SM -RA BR FEW006 BKN023 OVC029 06/05 A2908 RMK AO2 P0001=
200611130700 SPECI KPAE 130700Z 12013KT 3SM -RA BR FEW006 BKN023 OVC029 06/05 A2908 RMK AO2 P0001=
200611130653 METAR KPAE 130653Z 12011KT 3SM -RA BR BKN023 OVC029 06/05 A2908 RMK AO2 PRESFR SLP850 P0006 T00560050=
200611130553 METAR KPAE 130553Z 11013KT 5SM RA BR OVC025 06/04 A2914 RMK AO2 SLP869 P0022 60057 T00560044 10078 20056 56077=
200611130453 METAR KPAE 130453Z 12010KT 3SM RA BR OVC025 06/04 A2920 RMK AO2 PRESFR SLP891 P0010 T00610044=
200611130434 SPECI KPAE 130434Z 13009KT 4SM -RA BR OVC029 06/04 A2923 RMK AO2 PRESFR P0005=
200611130434 SPECI KPAE 130434Z 13009KT 4SM -RA BR OVC029 06/04 A2923 RMK AO2 PRESFR P0005=
200611130412 SPECI KPAE 130412Z 13011KT 9SM -RA FEW027 OVC032 06/04 A2925 RMK AO2 P0001=
200611130412 SPECI KPAE 130412Z 13011KT 9SM -RA FEW027 OVC032 06/04 A2925 RMK AO2 P0001=
200611130353 METAR KPAE 130353Z 14013G21KT 3SM -RA BR OVC025 06/04 A2928 RMK AO2 PRESFR SLP917 P0014 T00610044=
200611130253 METAR KPAE 130253Z 14014KT 4SM RA BR OVC028 07/05 A2937 RMK AO2 PRESFR SLP948 P0009 60011 T00670050 58079=
200611130153 METAR KPAE 130153Z 14010KT 6SM -RA BR BKN032 OVC044 07/04 A2946 RMK AO2 PK WND 16027/0058 RAB0057 SLP979 P0001 T00670044=
200611130053 METAR KPAE 130053Z 17017G25KT 10SM BKN039 BKN048 OVC075 07/04 A2953 RMK AO2 RAE44 SLP003 P0001 T00720039=
200611122353 METAR KPAE 122353Z 15011KT 9SM -RA OVC031 08/05 A2961 RMK AO2 RAB27 SLP028 P0000 60005 T00780050 10089 20067 56053=
200611122253 METAR KPAE 122253Z 14012G22KT 8SM FEW029 SCT039 08/06 A2966 RMK AO2 RAE26 SLP046 P0000 T00780056=
200611122201 SPECI KPAE 122201Z 15014KT 8SM -RA FEW018 BKN039 OVC048 08/06 A2970 RMK AO2 P0000=
200611122201 SPECI KPAE 122201Z 15014KT 8SM -RA FEW018 BKN039 OVC048 08/06 A2970 RMK AO2 P0000=
200611122153 METAR KPAE 122153Z 15015G22KT 7SM -RA SCT018 BKN025 OVC041 08/06 A2971 RMK AO2 SLP064 P0000 T00830056=
200611122133 SPECI KPAE 122133Z 15012G21KT 9SM -RA BKN020 OVC030 09/06 A2973 RMK AO2 PRESFR P0000=
200611122133 SPECI KPAE 122133Z 15012G21KT 9SM -RA BKN020 OVC030 09/06 A2973 RMK AO2 PRESFR P0000=
200611122100 SPECI KPAE 122100Z 16012KT 7SM -RA SCT022 OVC038 08/06 A2976 RMK AO2 P0000=
200611122100 SPECI KPAE 122100Z 16012KT 7SM -RA SCT022 OVC038 08/06 A2976 RMK AO2 P0000=
200611122053 METAR KPAE 122053Z 16013KT 7SM -RA BKN012 OVC036 08/06 A2977 RMK AO2 SLP082 P0001 60005 T00830061 58036=
200611121953 METAR KPAE 121953Z 15014G22KT 5SM -RA BR BKN012 BKN016 OVC034 08/06 A2981 RMK AO2 PK WND 16026/1940 SLP096 P0001 T00780061=
200611121907 SPECI KPAE 121907Z 16018G23KT 5SM -RA BR BKN012 BKN016 OVC034 07/06 A2984 RMK AO2 P0000=
200611121907 SPECI KPAE 121907Z 16018G23KT 5SM -RA BR BKN012 BKN016 OVC034 07/06 A2984 RMK AO2 P0000=
200611121858 SPECI KPAE 121858Z 16015KT 5SM -RA BR FEW009 BKN015 OVC027 07/06 A2985 RMK AO2 P0000=
200611121858 SPECI KPAE 121858Z 16015KT 5SM -RA BR FEW009 BKN015 OVC027 07/06 A2985 RMK AO2 P0000=
200611121853 METAR KPAE 121853Z 16014G20KT 6SM -RA BR SCT012 BKN020 OVC037 07/06 A2985 RMK AO2 SLP111 P0003 T00720056=
200611121811 SPECI KPAE 121811Z 16015G23KT 6SM -RA BR SCT012 BKN020 OVC037 07/06 A2988 RMK AO2 P0001=
200611121811 SPECI KPAE 121811Z 16015G23KT 6SM -RA BR SCT012 BKN020 OVC037 07/06 A2988 RMK AO2 P0001=
200611121804 SPECI KPAE 121804Z 16016G23KT 9SM -RA FEW008 BKN014 OVC037 07/06 A2987 RMK AO2 P0001=
200611121804 SPECI KPAE 121804Z 16016G23KT 9SM -RA FEW008 BKN014 OVC037 07/06 A2987 RMK AO2 P0001=
200611121800 SPECI KPAE 121800Z 17019KT 8SM -RA SCT012 BKN020 OVC037 07/06 A2987 RMK AO2 P0001=
200611121800 SPECI KPAE 121800Z 17019KT 8SM -RA SCT012 BKN020 OVC037 07/06 A2987 RMK AO2 P0001=
200611121753 METAR KPAE 121753Z 17019G24KT 8SM -RA FEW017 SCT029 OVC065 07/06 A2987 RMK AO2 PK WND 17031/1706 RAB24 SLP119 P0000 60000 T00720056 10078 20072 55002=
200611121653 METAR KPAE 121653Z 17026G32KT 10SM FEW017 BKN080 08/04 A2987 RMK AO2 PK WND 17033/1554 SLP118 T00780044=
200611121650 SPECI KPAE 121650Z 17026G32KT 10SM SCT017 BKN080 08/04 A2987 RMK AO2 PK WND 17033/1554=
200611121650 SPECI KPAE 121650Z 17026G32KT 10SM SCT017 BKN080 08/04 A2987 RMK AO2 PK WND 17033/1554=
200611121629 SPECI KPAE 121629Z 17022KT 10SM BKN017 BKN120 07/04 A2987 RMK AO2 PK WND 17033/1554=
200611121629 SPECI KPAE 121629Z 17022KT 10SM BKN017 BKN120 07/04 A2987 RMK AO2 PK WND 17033/1554=
200611121612 SPECI KPAE 121612Z 17021G30KT 10SM SCT017 SCT110 07/04 A2988 RMK AO2 PK WND 17033/1554=
200611121612 SPECI KPAE 121612Z 17021G30KT 10SM SCT017 SCT110 07/04 A2988 RMK AO2 PK WND 17033/1554=
200611121553 METAR KPAE 121553Z 17025G33KT 10SM BKN017 07/04 A2988 RMK AO2 PK WND 17033/1552 SLP121 T00720044=
200611121546 SPECI KPAE 121546Z 17023G29KT 10SM BKN017 BKN110 07/04 A2988 RMK AO2 PK WND 18033/1526=
200611121546 SPECI KPAE 121546Z 17023G29KT 10SM BKN017 BKN110 07/04 A2988 RMK AO2 PK WND 18033/1526=
200611121530 SPECI KPAE 121530Z 18025G33KT 10SM SCT015 BKN110 08/04 A2987 RMK AO2 PK WND 18033/1526=
200611121530 SPECI KPAE 121530Z 18025G33KT 10SM SCT015 BKN110 08/04 A2987 RMK AO2 PK WND 18033/1526=
200611121518 SPECI KPAE 121518Z 18021G27KT 10SM BKN015 BKN110 08/05 A2987 RMK AO2 PK WND 18027/1511=
200611121518 SPECI KPAE 121518Z 18021G27KT 10SM BKN015 BKN110 08/05 A2987 RMK AO2 PK WND 18027/1511=
200611121453 METAR KPAE 121453Z 18020G25KT 10SM OVC013 08/05 A2989 RMK AO2 PK WND 17029/1424 SLP123 T00780050 56022=
200611121353 METAR KPAE 121353Z AUTO 17020G25KT 10SM BKN011 OVC016 08/06 A2991 RMK AO2 PK WND 17026/1312 SLP129 T00780056=
200611121253 METAR KPAE 121253Z AUTO 17017KT 10SM OVC014 08/06 A2993 RMK AO2 SLP138 T00780056=
200611121202 SPECI KPAE 121202Z AUTO 18019G23KT 10SM BKN012 BKN029 OVC049 07/05 A2995 RMK AO2=
200611121202 SPECI KPAE 121202Z AUTO 18019G23KT 10SM BKN012 BKN029 OVC049 07/05 A2995 RMK AO2=
200611121153 METAR KPAE 121153Z AUTO 18015KT 10SM SCT012 BKN027 OVC049 07/05 A2995 RMK AO2 SLP145 T00720050 10072 20067 58013=
200611121115 SPECI KPAE 121115Z AUTO 16013G19KT 10SM BKN012 OVC070 07/05 A2996 RMK AO2=
200611121115 SPECI KPAE 121115Z AUTO 16013G19KT 10SM BKN012 OVC070 07/05 A2996 RMK AO2=
200611121053 METAR KPAE 121053Z AUTO 17016KT 10SM SCT016 BKN075 OVC110 07/04 A2998 RMK AO2 SLP153 T00720044=
200611121048 SPECI KPAE 121048Z AUTO 17013KT 10SM SCT014 BKN080 OVC110 07/04 A2997 RMK AO2=
200611121048 SPECI KPAE 121048Z AUTO 17013KT 10SM SCT014 BKN080 OVC110 07/04 A2997 RMK AO2=
200611121036 SPECI KPAE 121036Z AUTO 17016KT 10SM SCT014 BKN019 BKN085 07/04 A2998 RMK AO2=
200611121036 SPECI KPAE 121036Z AUTO 17016KT 10SM SCT014 BKN019 BKN085 07/04 A2998 RMK AO2=
200611121008 SPECI KPAE 121008Z AUTO 17013KT 10SM OVC014 07/04 A2999 RMK AO2=
200611121008 SPECI KPAE 121008Z AUTO 17013KT 10SM OVC014 07/04 A2999 RMK AO2=
200611120953 METAR KPAE 120953Z AUTO 17015KT 10SM BKN015 BKN095 07/04 A2999 RMK AO2 SLP158 T00720044=
200611120853 METAR KPAE 120853Z AUTO 18015KT 10SM OVC014 07/04 A2999 RMK AO2 SLP158 T00720044 58006=
200611120830 SPECI KPAE 120830Z AUTO 18015KT 10SM BKN014 07/04 A2999 RMK AO2=
200611120830 SPECI KPAE 120830Z AUTO 18015KT 10SM BKN014 07/04 A2999 RMK AO2=
200611120808 SPECI KPAE 120808Z AUTO 17016G22KT 10SM SCT012 SCT019 BKN120 07/04 A2999 RMK AO2=
200611120808 SPECI KPAE 120808Z AUTO 17016G22KT 10SM SCT012 SCT019 BKN120 07/04 A2999 RMK AO2=
200611120801 SPECI KPAE 120801Z AUTO 18018G22KT 10SM BKN012 BKN019 BKN120 07/04 A3000 RMK AO2=
200611120801 SPECI KPAE 120801Z AUTO 18018G22KT 10SM BKN012 BKN019 BKN120 07/04 A3000 RMK AO2=
200611120753 METAR KPAE 120753Z AUTO 18018G23KT 10SM SCT012 BKN019 BKN120 07/04 A3000 RMK AO2 SLP160 T00720039 400940033=
200611120740 SPECI KPAE 120740Z AUTO 17018G22KT 10SM BKN012 OVC019 07/04 A3000 RMK AO2=
200611120740 SPECI KPAE 120740Z AUTO 17018G22KT 10SM BKN012 OVC019 07/04 A3000 RMK AO2=
200611120726 SPECI KPAE 120726Z AUTO 17019G24KT 10SM OVC016 07/04 A2999 RMK AO2=
200611120726 SPECI KPAE 120726Z AUTO 17019G24KT 10SM OVC016 07/04 A2999 RMK AO2=
200611120715 SPECI KPAE 120715Z AUTO 17015G23KT 10SM OVC014 07/04 A3000 RMK AO2=
200611120715 SPECI KPAE 120715Z AUTO 17015G23KT 10SM OVC014 07/04 A3000 RMK AO2=
200611120653 METAR KPAE 120653Z AUTO 18013KT 10SM BKN016 OVC090 07/04 A3001 RMK AO2 SLP163 T00720039=
200611120638 SPECI KPAE 120638Z AUTO 18012KT 10SM BKN016 OVC100 07/04 A3000 RMK AO2=
200611120638 SPECI KPAE 120638Z AUTO 18012KT 10SM BKN016 OVC100 07/04 A3000 RMK AO2=
200611120605 SPECI KPAE 120605Z AUTO 18014KT 10SM OVC014 07/04 A3000 RMK AO2=
200611120605 SPECI KPAE 120605Z AUTO 18014KT 10SM OVC014 07/04 A3000 RMK AO2=
200611120553 METAR KPAE 120553Z AUTO 18016G19KT 10SM OVC016 07/04 A3001 RMK AO2 SLP165 T00720044 10083 20061 56002=
200611120520 SPECI KPAE 120520Z AUTO 17014KT 10SM BKN018 BKN095 BKN120 07/04 A3001 RMK AO2=
200611120520 SPECI KPAE 120520Z AUTO 17014KT 10SM BKN018 BKN095 BKN120 07/04 A3001 RMK AO2=
200611120453 METAR KPAE 120453Z AUTO 17013KT 10SM SCT090 BKN120 07/04 A3001 RMK AO2 SLP165 T00670039=
200611120353 METAR KPAE 120353Z AUTO 17011KT 10SM SCT110 06/04 A3001 RMK AO2 SLP166 T00610039=
200611120341 SPECI KPAE 120341Z 17010KT 10SM SCT013 OVC110 07/04 A3001 RMK AO2=
200611120341 SPECI KPAE 120341Z 17010KT 10SM SCT013 OVC110 07/04 A3001 RMK AO2=
200611120253 METAR KPAE 120253Z 17008KT 10SM SCT017 OVC024 07/04 A3002 RMK AO2 SLP167 T00670039 53003=
200611120236 SPECI KPAE 120236Z 17008KT 10SM BKN024 BKN120 07/03 A3001 RMK AO2=
200611120236 SPECI KPAE 120236Z 17008KT 10SM BKN024 BKN120 07/03 A3001 RMK AO2=
200611120153 METAR KPAE 120153Z 20011KT 10SM OVC110 07/03 A3000 RMK AO2 SLP161 T00720028=
200611120053 METAR KPAE 120053Z 19011KT 10SM OVC065 08/04 A3001 RMK AO2 SLP164 T00830039=
200611112353 METAR KPAE 112353Z 18010KT 10SM SCT028 OVC075 08/03 A3001 RMK AO2 SLP164 T00830033 10094 20061 53004=
200611112253 METAR KPAE 112253Z 18010KT 10SM SCT028 OVC075 08/04 A3000 RMK AO2 SLP161 T00830039=
200611112219 SPECI KPAE 112219Z 17009KT 10SM SCT022 BKN030 BKN036 09/04 A3000 RMK AO2=
200611112219 SPECI KPAE 112219Z 17009KT 10SM SCT022 BKN030 BKN036 09/04 A3000 RMK AO2=
200611112202 SPECI KPAE 112202Z 14008KT 10SM SCT020 BKN029 09/04 A2999 RMK AO2=
200611112202 SPECI KPAE 112202Z 14008KT 10SM SCT020 BKN029 09/04 A2999 RMK AO2=
200611112153 METAR KPAE 112153Z 17011KT 10SM FEW020 SCT029 09/04 A2999 RMK AO2 SLP159 T00890039=
200611112131 SPECI KPAE 112131Z 18008KT 10SM FEW029 08/04 A2999 RMK AO2=
200611112131 SPECI KPAE 112131Z 18008KT 10SM FEW029 08/04 A2999 RMK AO2=
200611112053 METAR KPAE 112053Z 18013KT 10SM BKN020 08/04 A2999 RMK AO2 SLP159 T00830039 53010=
200611111953 METAR KPAE 111953Z 18010KT 10SM BKN018 OVC075 08/03 A2998 RMK AO2 SLP155 T00780033=
200611111916 SPECI KPAE 111916Z 18013KT 10SM BKN016 OVC080 07/04 A2998 RMK AO2=
200611111916 SPECI KPAE 111916Z 18013KT 10SM BKN016 OVC080 07/04 A2998 RMK AO2=
200611111853 METAR KPAE 111853Z 17009KT 10SM FEW014 BKN080 07/04 A2997 RMK AO2 SLP153 T00670039=
200611111839 SPECI KPAE 111839Z 17009KT 150V210 10SM SCT016 SCT080 07/04 A2997 RMK AO2=
200611111839 SPECI KPAE 111839Z 17009KT 150V210 10SM SCT016 SCT080 07/04 A2997 RMK AO2=
200611111753 METAR KPAE 111753Z 18010KT 10SM OVC016 06/03 A2996 RMK AO2 SLP149 T00610033 10067 20033 51025=
200611111743 SPECI KPAE 111743Z 19010KT 10SM OVC016 06/03 A2996 RMK AO2=
200611111743 SPECI KPAE 111743Z 19010KT 10SM OVC016 06/03 A2996 RMK AO2=
200611111731 SPECI KPAE 111731Z 18009KT 10SM BKN014 OVC080 06/04 A2995 RMK AO2=
200611111731 SPECI KPAE 111731Z 18009KT 10SM BKN014 OVC080 06/04 A2995 RMK AO2=
200611111653 METAR KPAE 111653Z 19009KT 10SM OVC090 07/04 A2994 RMK AO2 SLP142 T00670039=
200611111553 METAR KPAE 111553Z 19005KT 10SM FEW022 OVC090 06/03 A2992 RMK AO2 SLP135 T00560033=
200611111453 METAR KPAE 111453Z 18008KT 10SM SCT090 05/03 A2989 RMK AO2 SLP124 T00500033 53012=
200611111353 METAR KPAE 111353Z AUTO 17008KT 10SM BKN065 OVC090 05/03 A2986 RMK AO2 SLP115 T00500033=
200611111324 SPECI KPAE 111324Z AUTO 17007KT 10SM FEW012 SCT090 BKN120 04/03 A2986 RMK AO2=
200611111324 SPECI KPAE 111324Z AUTO 17007KT 10SM FEW012 SCT090 BKN120 04/03 A2986 RMK AO2=
200611111316 SPECI KPAE 111316Z AUTO 18008KT 10SM BKN014 04/03 A2986 RMK AO2=
200611111316 SPECI KPAE 111316Z AUTO 18008KT 10SM BKN014 04/03 A2986 RMK AO2=
200611111253 METAR KPAE 111253Z AUTO 17006KT 10SM BKN016 05/03 A2985 RMK AO2 SLP111 T00500033=
200611111153 METAR KPAE 111153Z AUTO 17007KT 10SM CLR 05/03 A2983 RMK AO2 SLP104 70092 T00500033 10061 20044 51016=
200611111053 METAR KPAE 111053Z AUTO 17006KT 10SM SCT050 05/04 A2982 RMK AO2 SLP099 T00500039=
200611110953 METAR KPAE 110953Z AUTO 18008KT 10SM FEW015 OVC050 06/04 A2981 RMK AO2 SLP096 T00560039=
200611110902 SPECI KPAE 110902Z AUTO 18009KT 10SM FEW014 BKN050 OVC070 06/04 A2979 RMK AO2=
200611110902 SPECI KPAE 110902Z AUTO 18009KT 10SM FEW014 BKN050 OVC070 06/04 A2979 RMK AO2=
200611110853 METAR KPAE 110853Z AUTO 18010KT 10SM SCT014 BKN020 OVC070 06/04 A2978 RMK AO2 SLP088 T00610039 51019=
200611110818 SPECI KPAE 110818Z AUTO 19010KT 10SM BKN010 OVC017 06/04 A2978 RMK AO2=
200611110818 SPECI KPAE 110818Z AUTO 19010KT 10SM BKN010 OVC017 06/04 A2978 RMK AO2=
200611110753 METAR KPAE 110753Z AUTO 20009KT 10SM BKN008 OVC015 06/04 A2977 RMK AO2 SLP083 T00610044 400830056=
200611110730 SPECI KPAE 110730Z AUTO 20008KT 10SM OVC008 06/04 A2976 RMK AO2=
200611110730 SPECI KPAE 110730Z AUTO 20008KT 10SM OVC008 06/04 A2976 RMK AO2=
200611110653 METAR KPAE 110653Z AUTO 18012KT 10SM OVC010 06/04 A2974 RMK AO2 CIG 009V013 SLP075 T00610044=
200611110602 SPECI KPAE 110602Z AUTO 16008KT 10SM OVC010 06/04 A2973 RMK AO2 CIG 007V013=
200611110602 SPECI KPAE 110602Z AUTO 16008KT 10SM OVC010 06/04 A2973 RMK AO2 CIG 007V013=
200611110553 METAR KPAE 110553Z AUTO 15007KT 10SM BKN008 OVC014 06/04 A2973 RMK AO2 CIG 006V012 SLP068 60002 T00560044 10067 20056 53010=
200611110453 METAR KPAE 110453Z 16012KT 10SM OVC008 06/04 A2970 RMK AO2 CIG 005V011 SLP061 T00560044=
200611110407 SPECI KPAE 110407Z 15013KT 10SM BKN006 BKN013 OVC022 06/04 A2970 RMK AO2 CIG 005V009=
200611110407 SPECI KPAE 110407Z 15013KT 10SM BKN006 BKN013 OVC022 06/04 A2970 RMK AO2 CIG 005V009=
200611110353 METAR KPAE 110353Z 15013KT 10SM FEW008 SCT012 OVC022 06/04 A2970 RMK AO2 RAB0257E08B29E36 SLP059 P0000 T00560044=
200611110336 SPECI KPAE 110336Z 16013KT 10SM FEW009 BKN024 OVC042 06/04 A2970 RMK AO2 RAB0257E08B29E36 P0000=
200611110336 SPECI KPAE 110336Z 16013KT 10SM FEW009 BKN024 OVC042 06/04 A2970 RMK AO2 RAB0257E08B29E36 P0000=
200611110329 SPECI KPAE 110329Z 16011KT 10SM -RA SCT011 BKN024 OVC042 06/04 A2970 RMK AO2 RAB0257E08B29 P0000=
200611110329 SPECI KPAE 110329Z 16011KT 10SM -RA SCT011 BKN024 OVC042 06/04 A2970 RMK AO2 RAB0257E08B29 P0000=
200611110253 METAR KPAE 110253Z 16012KT 10SM BKN011 OVC029 06/04 A2970 RMK AO2 RAE19 SLP058 P0000 60002 T00610044 50013=
200611110249 SPECI KPAE 110249Z 16012KT 10SM BKN011 BKN029 OVC100 06/04 A2970 RMK AO2 RAE19 P0000=
200611110249 SPECI KPAE 110249Z 16012KT 10SM BKN011 BKN029 OVC100 06/04 A2970 RMK AO2 RAE19 P0000=
200611110228 SPECI KPAE 110228Z 17017KT 10SM BKN015 BKN029 OVC050 06/05 A2970 RMK AO2 RAE19 P0000=
200611110228 SPECI KPAE 110228Z 17017KT 10SM BKN015 BKN029 OVC050 06/05 A2970 RMK AO2 RAE19 P0000=
200611110153 METAR KPAE 110153Z 18012KT 10SM -RA BKN010 OVC017 07/06 A2968 RMK AO2 RAB43 SLP054 P0000 T00670056=
200611110122 SPECI KPAE 110122Z 17014KT 10SM BKN012 OVC075 07/06 A2968 RMK AO2=
200611110122 SPECI KPAE 110122Z 17014KT 10SM BKN012 OVC075 07/06 A2968 RMK AO2=
200611110053 METAR KPAE 110053Z 16015KT 10SM FEW010 OVC080 07/06 A2966 RMK AO2 RAE37 SLP045 P0002 T00670056=
200611110014 SPECI KPAE 110014Z 16016KT 8SM -RA FEW008 OVC038 07/06 A2965 RMK AO2 P0001=
200611110014 SPECI KPAE 110014Z 16016KT 8SM -RA FEW008 OVC038 07/06 A2965 RMK AO2 P0001=
200611110000 SPECI KPAE 110000Z 16017KT 9SM -RA SCT010 OVC040 07/06 A2966 RMK AO2 P0001=
200611110000 SPECI KPAE 110000Z 16017KT 9SM -RA SCT010 OVC040 07/06 A2966 RMK AO2 P0001=
200611102353 METAR KPAE 102353Z 17014KT 10SM -RA BKN010 OVC016 07/06 A2966 RMK AO2 SLP045 P0001 60025 T00670061 10072 20061 53001=
200611102303 SPECI KPAE 102303Z 17019KT 9SM -RA BKN010 OVC016 07/06 A2964 RMK AO2 P0000=
200611102303 SPECI KPAE 102303Z 17019KT 9SM -RA BKN010 OVC016 07/06 A2964 RMK AO2 P0000=
200611102253 SPECI KPAE 102253Z COR 18018KT 9SM -RA BKN010 OVC014 07/06 A2964 RMK AO2 PK WND 18027/2210 SLP038 P0002 T00720061=
200611102153 METAR KPAE 102153Z 18015KT 10SM -RA BKN012 BKN017 OVC025 07/06 A2965 RMK AO2 SLP041 P0001 T00720061=
200611102142 SPECI KPAE 102142Z 17015KT 10SM SCT010 BKN016 OVC030 07/06 A2965 RMK AO2 RAE41 P0001=
200611102142 SPECI KPAE 102142Z 17015KT 10SM SCT010 BKN016 OVC030 07/06 A2965 RMK AO2 RAE41 P0001=
200611102100 SPECI KPAE 102100Z 17015KT 5SM -RA BR FEW009 BKN014 OVC021 07/06 A2965 RMK AO2 P0000=
200611102100 SPECI KPAE 102100Z 17015KT 5SM -RA BR FEW009 BKN014 OVC021 07/06 A2965 RMK AO2 P0000=
200611102053 METAR KPAE 102053Z 17015KT 6SM -RA BR FEW010 BKN016 OVC023 07/06 A2966 RMK AO2 SLP045 P0005 60021 T00720061 56010=
200611101953 METAR KPAE 101953Z 16010KT 4SM -RA BR FEW013 BKN021 OVC027 07/06 A2967 RMK AO2 SLP050 P0006 T00720061=
200611101853 METAR KPAE 101853Z 12008KT 4SM -RA BR SCT005 BKN018 OVC025 06/05 A2967 RMK AO2 SLP048 P0010 T00610050=
200611101753 METAR KPAE 101753Z 14007KT 3SM RA BR FEW009 BKN023 OVC028 06/05 A2969 RMK AO2 SLP055 P0013 60065 T00610050 10083 20056 56017=
200611101749 SPECI KPAE 101749Z 14008KT 2 1/2SM RA BR FEW014 BKN023 OVC027 06/04 A2969 RMK AO2 P0012=
200611101749 SPECI KPAE 101749Z 14008KT 2 1/2SM RA BR FEW014 BKN023 OVC027 06/04 A2969 RMK AO2 P0012=
200611101712 SPECI KPAE 101712Z 15007KT 3SM RA BR FEW008 OVC028 06/04 A2970 RMK AO2 P0004=
200611101712 SPECI KPAE 101712Z 15007KT 3SM RA BR FEW008 OVC028 06/04 A2970 RMK AO2 P0004=
200611101653 METAR KPAE 101653Z 12009KT 4SM RA BR OVC030 06/04 A2970 RMK AO2 SLP058 P0012 T00610044=
200611101639 SPECI KPAE 101639Z 12012KT 3SM RA BR OVC030 06/04 A2970 RMK AO2 P0009=
200611101639 SPECI KPAE 101639Z 12012KT 3SM RA BR OVC030 06/04 A2970 RMK AO2 P0009=
200611101553 METAR KPAE 101553Z 14012G17KT 5SM RA BR OVC025 06/04 A2974 RMK AO2 SLP073 P0014 T00560039=
200611101453 METAR KPAE 101453Z 14015KT 4SM RA BR OVC023 06/04 A2977 RMK AO2 SLP083 P0018 60026 T00560039 58035=
200611101353 METAR KPAE 101353Z AUTO 14014G21KT 5SM -RA BR BKN027 OVC037 06/04 A2982 RMK AO2 SLP099 P0007 T00610039=
200611101339 SPECI KPAE 101339Z AUTO 13015G22KT 4SM -RA BR OVC027 06/04 A2981 RMK AO2 PRESFR P0006=
200611101339 SPECI KPAE 101339Z AUTO 13015G22KT 4SM -RA BR OVC027 06/04 A2981 RMK AO2 PRESFR P0006=
200611101253 METAR KPAE 101253Z AUTO 15015G23KT 8SM -RA BKN037 OVC043 07/03 A2984 RMK AO2 SLP108 P0001 T00720033=
200611101153 METAR KPAE 101153Z AUTO 16019G28KT 10SM -RA OVC039 08/02 A2987 RMK AO2 PK WND 16031/1129 SLP119 P0000 60000 70013 T00830022 10083 20061 58034=
200611101053 METAR KPAE 101053Z AUTO 14014KT 10SM -RA OVC044 08/02 A2991 RMK AO2 RAB40 SLP131 P0000 T00780022=
200611100953 METAR KPAE 100953Z AUTO 15010KT 10SM BKN048 OVC060 07/02 A2994 RMK AO2 PRESFR SLP142 T00720022=
200611100853 METAR KPAE 100853Z AUTO 14011KT 10SM SCT080 07/02 A2998 RMK AO2 SLP153 T00720022 58026=
200611100753 METAR KPAE 100753Z AUTO 12013KT 10SM BKN065 BKN080 07/03 A3000 RMK AO2 SLP163 T00720028 400720056=
200611100653 METAR KPAE 100653Z AUTO 13013KT 10SM BKN060 OVC100 07/03 A3004 RMK AO2 SLP176 T00670033=
200611100553 METAR KPAE 100553Z AUTO 14008KT 10SM OVC050 07/03 A3005 RMK AO2 SLP180 60002 T00670033 10072 20056 58015=
200611100453 METAR KPAE 100453Z 13012KT 10SM FEW047 SCT090 06/04 A3007 RMK AO2 SLP185 T00560039=
200611100353 METAR KPAE 100353Z 13011KT 10SM SCT031 BKN045 BKN090 06/04 A3009 RMK AO2 RAB26E53 SLP193 P0002 T00610039=
200611100253 METAR KPAE 100253Z 12009KT 10SM FEW065 SCT080 06/04 A3010 RMK AO2 SLP195 60000 T00610039 50002=
200611100200 SPECI KPAE 100200Z 13008KT 10SM CLR 07/04 A3010 RMK AO2=
200611100200 SPECI KPAE 100200Z 13008KT 10SM CLR 07/04 A3010 RMK AO2=
200611100153 METAR KPAE 100153Z 14009KT 10SM SCT002 BKN027 OVC065 07/04 A3010 RMK AO2 SLP196 T00670039=
200611100053 METAR KPAE 100053Z 13007KT 10SM SCT002 BKN027 OVC065 07/05 A3010 RMK AO2 RAB10E20 SLP194 P0000 T00670050=
200611100017 SPECI KPAE 100017Z 11006KT 10SM -RA SCT002 BKN027 OVC065 07/06 A3010 RMK AO2 RAB10 P0000=
200611100017 SPECI KPAE 100017Z 11006KT 10SM -RA SCT002 BKN027 OVC065 07/06 A3010 RMK AO2 RAB10 P0000=
200611092353 METAR KPAE 092353Z AUTO 11009KT 8SM BKN003 OVC030 07/06 A3009 RMK AO2 SLP193 60004 T00670056 10072 20056 53005 TSNO=
200611092345 SPECI KPAE 092345Z 11007KT 8SM BKN003 OVC030 07/06 A3009 RMK AO2=
200611092345 SPECI KPAE 092345Z 11007KT 8SM BKN003 OVC030 07/06 A3009 RMK AO2=
200611092300 SPECI KPAE 092300Z 11006KT 10SM SCT021 SCT033 07/05 A3008 RMK AO2=
200611092300 SPECI KPAE 092300Z 11006KT 10SM SCT021 SCT033 07/05 A3008 RMK AO2=
200611092253 METAR KPAE 092253Z 11007KT 10SM FEW003 BKN024 BKN044 07/05 A3008 RMK AO2 SLP188 T00670050=
200611092215 SPECI KPAE 092215Z 09008KT 6SM BR FEW003 BKN024 BKN044 07/06 A3008 RMK AO2=
200611092215 SPECI KPAE 092215Z 09008KT 6SM BR FEW003 BKN024 BKN044 07/06 A3008 RMK AO2=
200611092208 SPECI KPAE 092208Z 10009KT 5SM BR FEW003 SCT020 BKN044 07/05 A3008 RMK AO2=
200611092208 SPECI KPAE 092208Z 10009KT 5SM BR FEW003 SCT020 BKN044 07/05 A3008 RMK AO2=
200611092153 METAR KPAE 092153Z COR 10008KT 5SM BR SCT007 BKN027 OVC043 07/05 A3008 RMK AO2 RAB31E41 SLP190 P0000 T00670050=
200611092100 SPECI KPAE 092100Z 10006KT 9SM SCT007 BKN027 OVC043 07/05 A3008 RMK AO2=
200611092100 SPECI KPAE 092100Z 10006KT 9SM SCT007 BKN027 OVC043 07/05 A3008 RMK AO2=
200611092053 METAR KPAE 092053Z 10006KT 10SM SCT007 BKN033 OVC043 07/05 A3008 RMK AO2 SLP188 60004 T00670050 51014=
200611092000 SPECI KPAE 092000Z 16003KT 10SM FEW007 OVC013 07/05 A3007 RMK AO2=
200611092000 SPECI KPAE 092000Z 16003KT 10SM FEW007 OVC013 07/05 A3007 RMK AO2=
200611091953 METAR KPAE 091953Z 16003KT 10SM SCT004 SCT022 OVC030 07/04 A3007 RMK AO2 RAE50 SLP185 P0001 T00670044=
200611091900 SPECI KPAE 091900Z 28003KT 10SM SCT004 SCT022 OVC030 06/05 A3005 RMK AO2 RAE1859 P0000=
200611091900 SPECI KPAE 091900Z 28003KT 10SM SCT004 SCT022 OVC030 06/05 A3005 RMK AO2 RAE1859 P0000=
200611091853 METAR KPAE 091853Z 27003KT 4SM -RA BR BKN006 BKN025 OVC037 06/05 A3005 RMK AO2 SLP179 P0003 T00610050=
200611091844 SPECI KPAE 091844Z 29004KT 2 1/2SM -RA BR BKN006 BKN025 OVC037 06/04 A3005 RMK AO2 P0002=
200611091844 SPECI KPAE 091844Z 29004KT 2 1/2SM -RA BR BKN006 BKN025 OVC037 06/04 A3005 RMK AO2 P0002=
200611091841 SPECI KPAE 091841Z 28003KT 4SM -RA BR FEW012 SCT025 OVC037 06/04 A3005 RMK AO2 P0002=
200611091841 SPECI KPAE 091841Z 28003KT 4SM -RA BR FEW012 SCT025 OVC037 06/04 A3005 RMK AO2 P0002=
200611091827 SPECI KPAE 091827Z 28005KT 3SM -RA BR FEW010 BKN027 OVC037 06/04 A3005 RMK AO2 P0001=
200611091827 SPECI KPAE 091827Z 28005KT 3SM -RA BR FEW010 BKN027 OVC037 06/04 A3005 RMK AO2 P0001=
200611091820 SPECI KPAE 091820Z 27005KT 5SM -RA BR FEW005 BKN013 OVC037 06/04 A3005 RMK AO2 P0001=
200611091820 SPECI KPAE 091820Z 27005KT 5SM -RA BR FEW005 BKN013 OVC037 06/04 A3005 RMK AO2 P0001=
200611091811 SPECI KPAE 091811Z 25005KT 10SM SCT009 BKN018 OVC036 06/05 A3004 RMK AO2 RAE07 P0000=
200611091811 SPECI KPAE 091811Z 25005KT 10SM SCT009 BKN018 OVC036 06/05 A3004 RMK AO2 RAE07 P0000=
200611091753 METAR KPAE 091753Z 24006KT 10SM -RA SCT004 BKN007 OVC018 06/05 A3004 RMK AO2 CIG 005V011 SLP174 P0000 60007 T00610050 10061 20056 51021=
200611091706 SPECI KPAE 091706Z 25003KT 7SM -RA SCT004 BKN007 OVC016 06/06 A3002 RMK AO2 P0000=
200611091706 SPECI KPAE 091706Z 25003KT 7SM -RA SCT004 BKN007 OVC016 06/06 A3002 RMK AO2 P0000=
200611091653 METAR KPAE 091653Z 25003KT 5SM -RA BR BKN004 BKN012 OVC023 06/05 A3002 RMK AO2 SLP168 P0002 T00610050=
200611091609 SPECI KPAE 091609Z 27003KT 5SM -RA BR BKN004 BKN012 OVC023 06/05 A3001 RMK AO2 P0000=
200611091609 SPECI KPAE 091609Z 27003KT 5SM -RA BR BKN004 BKN012 OVC023 06/05 A3001 RMK AO2 P0000=
200611091559 SPECI KPAE 091559Z 27005KT 4SM -RA BR SCT004 SCT012 OVC023 06/05 A3001 RMK AO2 P0000=
200611091559 SPECI KPAE 091559Z 27005KT 4SM -RA BR SCT004 SCT012 OVC023 06/05 A3001 RMK AO2 P0000=
200611091553 METAR KPAE 091553Z 27004KT 3SM -RA BR BKN002 BKN006 OVC033 06/05 A3000 RMK AO2 SLP163 P0002 T00610050=
200611091503 SPECI KPAE 091503Z 29003KT 5SM -RA BR BKN002 BKN006 OVC033 06/06 A2997 RMK AO2 P0001=
200611091503 SPECI KPAE 091503Z 29003KT 5SM -RA BR BKN002 BKN006 OVC033 06/06 A2997 RMK AO2 P0001=
200611091453 METAR KPAE 091453Z 31004KT 6SM -RA BR SCT002 BKN007 OVC033 06/06 A2997 RMK AO2 CIG 005V009 SLP152 P0000 60003 T00610056 53022=
200611091445 SPECI KPAE 091445Z AUTO 30004KT 6SM -RA BR FEW002 BKN007 OVC033 06/06 A2997 RMK AO2 CIG 004V009 P0000=
200611091445 SPECI KPAE 091445Z AUTO 30004KT 6SM -RA BR FEW002 BKN007 OVC033 06/06 A2997 RMK AO2 CIG 004V009 P0000=
200611091408 SPECI KPAE 091408Z AUTO 30005KT 10SM -RA BKN004 BKN008 OVC012 06/05 A2995 RMK AO2 CIG 002V006 P0000=
200611091408 SPECI KPAE 091408Z AUTO 30005KT 10SM -RA BKN004 BKN008 OVC012 06/05 A2995 RMK AO2 CIG 002V006 P0000=
200611091353 METAR KPAE 091353Z AUTO 31004KT 8SM -RA SCT004 BKN009 OVC012 06/05 A2995 RMK AO2 RAB12 CIG 007V010 SLP144 P0003 T00610050=
200611091318 SPECI KPAE 091318Z AUTO 33003KT 6SM -RA BR BKN004 OVC038 06/05 A2994 RMK AO2 RAB12 P0000=
200611091318 SPECI KPAE 091318Z AUTO 33003KT 6SM -RA BR BKN004 OVC038 06/05 A2994 RMK AO2 RAB12 P0000=
200611091253 METAR KPAE 091253Z AUTO 32003KT 7SM FEW004 SCT007 OVC038 06/05 A2993 RMK AO2 SLP136 T00610050=
200611091231 SPECI KPAE 091231Z AUTO 00000KT 8SM FEW004 BKN007 OVC042 06/05 A2992 RMK AO2 CIG 007V010=
200611091231 SPECI KPAE 091231Z AUTO 00000KT 8SM FEW004 BKN007 OVC042 06/05 A2992 RMK AO2 CIG 007V010=
200611091210 SPECI KPAE 091210Z AUTO 00000KT 10SM FEW007 BKN017 OVC042 06/04 A2991 RMK AO2=
200611091210 SPECI KPAE 091210Z AUTO 00000KT 10SM FEW007 BKN017 OVC042 06/04 A2991 RMK AO2=
200611091203 SPECI KPAE 091203Z AUTO 00000KT 10SM FEW006 BKN033 OVC040 06/04 A2991 RMK AO2=
200611091203 SPECI KPAE 091203Z AUTO 00000KT 10SM FEW006 BKN033 OVC040 06/04 A2991 RMK AO2=
200611091153 METAR KPAE 091153Z AUTO 00000KT 10SM FEW008 BKN016 OVC036 06/05 A2990 RMK AO2 RAE01 SLP128 P0000 60023 70035 T00610050 10061 20056 51014=
200611091143 SPECI KPAE 091143Z AUTO 00000KT 10SM SCT008 BKN016 OVC035 06/05 A2990 RMK AO2 RAE01 P0000=
200611091143 SPECI KPAE 091143Z AUTO 00000KT 10SM SCT008 BKN016 OVC035 06/05 A2990 RMK AO2 RAE01 P0000=
200611091134 SPECI KPAE 091134Z AUTO 27003KT 10SM FEW008 BKN014 OVC033 06/04 A2990 RMK AO2 RAE01 P0000=
200611091134 SPECI KPAE 091134Z AUTO 27003KT 10SM FEW008 BKN014 OVC033 06/04 A2990 RMK AO2 RAE01 P0000=
200611091053 METAR KPAE 091053Z AUTO 00000KT 10SM -RA BKN026 BKN033 OVC070 06/05 A2989 RMK AO2 RAE07B52 SLP125 P0000 T00560050=
200611091024 SPECI KPAE 091024Z AUTO 00000KT 10SM FEW024 BKN037 OVC065 06/04 A2989 RMK AO2 RAE07 P0000=
200611091024 SPECI KPAE 091024Z AUTO 00000KT 10SM FEW024 BKN037 OVC065 06/04 A2989 RMK AO2 RAE07 P0000=
200611091007 SPECI KPAE 091007Z AUTO 31003KT 10SM FEW008 BKN022 OVC029 06/04 A2988 RMK AO2 RAE07 P0000=
200611091007 SPECI KPAE 091007Z AUTO 31003KT 10SM FEW008 BKN022 OVC029 06/04 A2988 RMK AO2 RAE07 P0000=
200611090953 METAR KPAE 090953Z AUTO 00000KT 8SM -RA OVC022 06/04 A2988 RMK AO2 SLP120 P0002 T00560044=
200611090853 METAR KPAE 090853Z AUTO 00000KT 8SM -RA BKN023 OVC032 06/03 A2986 RMK AO2 SLP113 P0004 60021 T00610033 53005=
200611090818 SPECI KPAE 090818Z AUTO 00000KT 10SM -RA SCT024 SCT030 OVC043 06/04 A2986 RMK AO2 P0003=
200611090818 SPECI KPAE 090818Z AUTO 00000KT 10SM -RA SCT024 SCT030 OVC043 06/04 A2986 RMK AO2 P0003=
200611090753 METAR KPAE 090753Z AUTO 00000KT 6SM -RA BR SCT015 BKN020 OVC024 06/04 A2985 RMK AO2 SLP110 P0011 T00610039 401170061=
200611090653 METAR KPAE 090653Z AUTO 20007KT 4SM -RA BR FEW002 BKN028 OVC037 06/05 A2985 RMK AO2 SLP109 P0006 T00610050=
200611090633 SPECI KPAE 090633Z AUTO 22003KT 4SM -RA BR FEW003 BKN030 OVC036 07/06 A2984 RMK AO2 P0003=
200611090633 SPECI KPAE 090633Z AUTO 22003KT 4SM -RA BR FEW003 BKN030 OVC036 07/06 A2984 RMK AO2 P0003=
200611090553 METAR KPAE 090553Z AUTO 23003KT 5SM -RA BR BKN031 OVC042 07/06 A2984 RMK AO2 SLP107 P0006 60012 T00720061 10100 20067 51008=
200611090530 SPECI KPAE 090530Z AUTO 00000KT 3SM RA BR BKN029 OVC036 07/06 A2984 RMK AO2 P0004=
200611090530 SPECI KPAE 090530Z AUTO 00000KT 3SM RA BR BKN029 OVC036 07/06 A2984 RMK AO2 P0004=
200611090453 METAR KPAE 090453Z 00000KT 6SM -RA BR OVC033 07/06 A2983 RMK AO2 SLP104 P0005 T00720056=
200611090353 METAR KPAE 090353Z 31003KT 8SM -RA BKN037 OVC047 07/06 A2983 RMK AO2 RAB26 SLP103 P0001 T00720056=
200611090253 METAR KPAE 090253Z 00000KT 10SM OVC060 09/04 A2982 RMK AO2 SLP098 T00890044 56005=
200611090153 METAR KPAE 090153Z 03003KT 10SM OVC055 09/04 A2982 RMK AO2 SLP098 T00940039=
200611090053 METAR KPAE 090053Z 07004KT 10SM BKN080 09/04 A2982 RMK AO2 SLP100 T00940039=
200611082353 METAR KPAE 082353Z 08004KT 10SM FEW032 10/04 A2983 RMK AO2 SLP103 T01000039 10117 20083 58018=
200611082253 METAR KPAE 082253Z 12003KT 10SM BKN049 10/04 A2985 RMK AO2 SLP109 T01000039=
200611082234 SPECI KPAE 082234Z 10005KT 10SM SCT029 OVC049 10/05 A2986 RMK AO2=
200611082234 SPECI KPAE 082234Z 10005KT 10SM SCT029 OVC049 10/05 A2986 RMK AO2=
200611082213 SPECI KPAE 082213Z 11006KT 10SM BKN029 OVC050 10/05 A2986 RMK AO2=
200611082213 SPECI KPAE 082213Z 11006KT 10SM BKN029 OVC050 10/05 A2986 RMK AO2=
200611082153 METAR KPAE 082153Z 10006KT 10SM FEW025 BKN031 OVC050 10/05 A2987 RMK AO2 SLP115 T01000050=
200611082053 METAR KPAE 082053Z 00000KT 10SM BKN030 BKN038 OVC080 11/03 A2988 RMK AO2 SLP121 T01060033 58014=
200611081953 METAR KPAE 081953Z 16008KT 10SM SCT023 SCT033 BKN040 10/04 A2991 RMK AO2 SLP130 T01000039=
200611081944 SPECI KPAE 081944Z 11006KT 10SM SCT023 BKN034 BKN080 09/04 A2991 RMK AO2=
200611081944 SPECI KPAE 081944Z 11006KT 10SM SCT023 BKN034 BKN080 09/04 A2991 RMK AO2=
200611081912 SPECI KPAE 081912Z 10006KT 10SM SCT015 BKN024 BKN031 09/05 A2992 RMK AO2=
200611081912 SPECI KPAE 081912Z 10006KT 10SM SCT015 BKN024 BKN031 09/05 A2992 RMK AO2=
200611081853 METAR KPAE 081853Z 12007KT 10SM SCT015 SCT020 09/05 A2992 RMK AO2 SLP133 T00890050=
200611081753 METAR KPAE 081753Z 13007KT 10SM FEW026 BKN038 OVC048 08/06 A2993 RMK AO2 SLP136 60000 T00830056 10083 20072 51010=
200611081653 METAR KPAE 081653Z 16007KT 10SM SCT025 BKN043 OVC070 08/06 A2992 RMK AO2 SLP135 T00830056=
200611081636 SPECI KPAE 081636Z 15006KT 10SM SCT023 BKN037 BKN044 08/06 A2992 RMK AO2=
200611081636 SPECI KPAE 081636Z 15006KT 10SM SCT023 BKN037 BKN044 08/06 A2992 RMK AO2=
200611081553 METAR KPAE 081553Z 14007KT 10SM BKN021 OVC037 07/06 A2991 RMK AO2 SLP131 T00720056=
200611081542 SPECI KPAE 081542Z 14006KT 10SM BKN019 BKN046 07/06 A2991 RMK AO2=
200611081542 SPECI KPAE 081542Z 14006KT 10SM BKN019 BKN046 07/06 A2991 RMK AO2=
200611081514 SPECI KPAE 081514Z 14005KT 10SM FEW016 BKN031 OVC049 08/06 A2990 RMK AO2=
200611081514 SPECI KPAE 081514Z 14005KT 10SM FEW016 BKN031 OVC049 08/06 A2990 RMK AO2=
200611081500 SPECI KPAE 081500Z AUTO 15003KT 10SM FEW012 BKN018 OVC040 08/06 A2990 RMK AO2=
200611081500 SPECI KPAE 081500Z AUTO 15003KT 10SM FEW012 BKN018 OVC040 08/06 A2990 RMK AO2=
200611081453 METAR KPAE 081453Z AUTO 14004KT 10SM BKN014 BKN021 OVC040 08/06 A2990 RMK AO2 SLP126 60000 T00780056 51009=
200611081449 SPECI KPAE 081449Z AUTO 16003KT 10SM BKN014 BKN021 OVC040 08/06 A2990 RMK AO2=
200611081449 SPECI KPAE 081449Z AUTO 16003KT 10SM BKN014 BKN021 OVC040 08/06 A2990 RMK AO2=
200611081446 SPECI KPAE 081446Z AUTO 16003KT 10SM SCT012 OVC040 08/06 A2989 RMK AO2=
200611081446 SPECI KPAE 081446Z AUTO 16003KT 10SM SCT012 OVC040 08/06 A2989 RMK AO2=
200611081439 SPECI KPAE 081439Z AUTO 17004KT 10SM BKN012 OVC036 08/06 A2989 RMK AO2=
200611081439 SPECI KPAE 081439Z AUTO 17004KT 10SM BKN012 OVC036 08/06 A2989 RMK AO2=
200611081430 SPECI KPAE 081430Z AUTO 17004KT 10SM SCT012 BKN030 OVC036 08/06 A2989 RMK AO2=
200611081430 SPECI KPAE 081430Z AUTO 17004KT 10SM SCT012 BKN030 OVC036 08/06 A2989 RMK AO2=
200611081353 METAR KPAE 081353Z AUTO 00000KT 10SM OVC026 08/06 A2989 RMK AO2 RAB01E34 SLP124 P0000 T00780056=
200611081315 SPECI KPAE 081315Z AUTO 30003KT 10SM -RA FEW008 BKN019 OVC026 08/06 A2989 RMK AO2 RAB01 P0000=
200611081315 SPECI KPAE 081315Z AUTO 30003KT 10SM -RA FEW008 BKN019 OVC026 08/06 A2989 RMK AO2 RAB01 P0000=
200611081253 METAR KPAE 081253Z AUTO 00000KT 10SM BKN008 OVC028 08/06 A2988 RMK AO2 CIG 006V012 SLP121 T00780061=
200611081205 SPECI KPAE 081205Z AUTO 00000KT 10SM BKN008 OVC012 08/06 A2987 RMK AO2=
200611081205 SPECI KPAE 081205Z AUTO 00000KT 10SM BKN008 OVC012 08/06 A2987 RMK AO2=
200611081153 METAR KPAE 081153Z AUTO 20004KT 10SM BKN010 BKN013 OVC019 08/06 A2987 RMK AO2 CIG 008V013 SLP116 70094 T00780061 10094 20078 53006=
200611081146 SPECI KPAE 081146Z AUTO 18004KT 10SM BKN013 OVC019 08/06 A2987 RMK AO2=
200611081146 SPECI KPAE 081146Z AUTO 18004KT 10SM BKN013 OVC019 08/06 A2987 RMK AO2=
200611081137 SPECI KPAE 081137Z AUTO 20006KT 10SM FEW010 BKN017 OVC022 08/06 A2987 RMK AO2=
200611081137 SPECI KPAE 081137Z AUTO 20006KT 10SM FEW010 BKN017 OVC022 08/06 A2987 RMK AO2=
200611081120 SPECI KPAE 081120Z AUTO 19005KT 10SM BKN014 OVC020 08/06 A2986 RMK AO2=
200611081120 SPECI KPAE 081120Z AUTO 19005KT 10SM BKN014 OVC020 08/06 A2986 RMK AO2=
200611081053 METAR KPAE 081053Z AUTO 19009KT 10SM OVC015 08/06 A2986 RMK AO2 SLP113 T00830061=
200611081014 SPECI KPAE 081014Z AUTO 18007KT 10SM OVC013 08/06 A2986 RMK AO2=
200611081014 SPECI KPAE 081014Z AUTO 18007KT 10SM OVC013 08/06 A2986 RMK AO2=
200611080953 METAR KPAE 080953Z AUTO 19007KT 10SM OVC015 08/06 A2986 RMK AO2 SLP112 T00830061=
200611080901 SPECI KPAE 080901Z AUTO 18009KT 10SM FEW011 BKN017 OVC021 08/07 A2985 RMK AO2=
200611080901 SPECI KPAE 080901Z AUTO 18009KT 10SM FEW011 BKN017 OVC021 08/07 A2985 RMK AO2=
200611080853 METAR KPAE 080853Z AUTO 18010KT 10SM BKN014 OVC021 09/07 A2985 RMK AO2 SLP110 T00890067 53005=
200611080843 SPECI KPAE 080843Z AUTO 19008KT 10SM BKN015 OVC021 09/07 A2985 RMK AO2=
200611080843 SPECI KPAE 080843Z AUTO 19008KT 10SM BKN015 OVC021 09/07 A2985 RMK AO2=
200611080836 SPECI KPAE 080836Z AUTO 18011KT 10SM FEW010 BKN013 OVC021 09/07 A2985 RMK AO2=
200611080836 SPECI KPAE 080836Z AUTO 18011KT 10SM FEW010 BKN013 OVC021 09/07 A2985 RMK AO2=
200611080826 SPECI KPAE 080826Z AUTO 19010KT 10SM BKN015 OVC021 09/07 A2985 RMK AO2=
200611080826 SPECI KPAE 080826Z AUTO 19010KT 10SM BKN015 OVC021 09/07 A2985 RMK AO2=
200611080810 SPECI KPAE 080810Z AUTO 18008KT 10SM BKN013 OVC021 09/07 A2985 RMK AO2=
200611080810 SPECI KPAE 080810Z AUTO 18008KT 10SM BKN013 OVC021 09/07 A2985 RMK AO2=
200611080753 METAR KPAE 080753Z AUTO 19011KT 10SM BKN016 OVC021 09/07 A2984 RMK AO2 SLP108 T00890067 401330089=
200611080653 METAR KPAE 080653Z AUTO 19007KT 10SM FEW013 BKN021 OVC027 09/07 A2984 RMK AO2 SLP107 T00940072=
200611080553 METAR KPAE 080553Z AUTO 19008KT 10SM OVC024 09/07 A2984 RMK AO2 SLP105 T00940072 10100 20089 53022=
200611080506 SPECI KPAE 080506Z AUTO 20006KT 10SM SCT017 BKN024 BKN029 09/07 A2982 RMK AO2=
200611080506 SPECI KPAE 080506Z AUTO 20006KT 10SM SCT017 BKN024 BKN029 09/07 A2982 RMK AO2=
200611080453 METAR KPAE 080453Z AUTO 19011KT 10SM FEW017 09/07 A2982 RMK AO2 SLP098 T00890072=
200611080353 METAR KPAE 080353Z 18012KT 10SM CLR 09/07 A2979 RMK AO2 LTG DSNT N SLP088 T00890072=
200611080253 METAR KPAE 080253Z 17013KT 10SM FEW030 OVC070 09/08 A2977 RMK AO2 LTG DSNT NW SLP081 T00940078 53012=
200611080205 SPECI KPAE 080205Z 14008KT 10SM FEW006 OVC032 10/09 A2975 RMK AO2=
200611080205 SPECI KPAE 080205Z 14008KT 10SM FEW006 OVC032 10/09 A2975 RMK AO2=
200611080153 METAR KPAE 080153Z 12006KT 9SM SCT026 BKN034 10/09 A2975 RMK AO2 LTG DSNT N SLP075 T01000089=
200611080053 METAR KPAE 080053Z 12006KT 10SM SCT005 BKN025 OVC032 10/08 A2975 RMK AO2 SLP073 T01000083=
200611080017 SPECI KPAE 080017Z 14009KT 10SM SCT005 BKN025 OVC037 09/08 A2975 RMK AO2=
200611080017 SPECI KPAE 080017Z 14009KT 10SM SCT005 BKN025 OVC037 09/08 A2975 RMK AO2=
200611072353 METAR KPAE 072353Z 12008KT 10SM BKN005 BKN025 OVC039 10/09 A2973 RMK AO2 RAE49 SLP069 P0009 60062 T01000089 10106 20094 51015=
200611072351 SPECI KPAE 072351Z 12007KT 3SM BR BKN005 BKN025 OVC039 10/09 A2973 RMK AO2 RAE49 P0009=
200611072351 SPECI KPAE 072351Z 12007KT 3SM BR BKN005 BKN025 OVC039 10/09 A2973 RMK AO2 RAE49 P0009=
200611072337 SPECI KPAE 072337Z 13009KT 3SM -RA BR SCT005 BKN025 OVC049 10/09 A2972 RMK AO2 P0009=
200611072337 SPECI KPAE 072337Z 13009KT 3SM -RA BR SCT005 BKN025 OVC049 10/09 A2972 RMK AO2 P0009=
200611072303 SPECI KPAE 072303Z 15008KT 4SM -RA BR BKN019 BKN023 OVC040 10/09 A2973 RMK AO2 P0000=
200611072303 SPECI KPAE 072303Z 15008KT 4SM -RA BR BKN019 BKN023 OVC040 10/09 A2973 RMK AO2 P0000=
200611072253 METAR KPAE 072253Z 15009KT 5SM -RA BR SCT005 BKN033 BKN040 10/09 A2973 RMK AO2 SLP067 P0005 T01000089=
200611072153 METAR KPAE 072153Z VRB03KT 10SM -RA SCT005 BKN033 OVC040 10/09 A2969 RMK AO2 SLP054 P0005 T01000089=
200611072120 SPECI KPAE 072120Z VRB05KT 4SM -RA BR SCT005 BKN038 OVC050 10/08 A2968 RMK AO2 P0004=
200611072120 SPECI KPAE 072120Z VRB05KT 4SM -RA BR SCT005 BKN038 OVC050 10/08 A2968 RMK AO2 P0004=
200611072100 SPECI KPAE 072100Z 01003KT 2 1/2SM RA BR FEW005 OVC031 10/09 A2967 RMK AO2 P0001=
200611072100 SPECI KPAE 072100Z 01003KT 2 1/2SM RA BR FEW005 OVC031 10/09 A2967 RMK AO2 P0001=
200611072053 METAR KPAE 072053Z 00000KT 2SM RA BR BKN003 OVC031 10/09 A2967 RMK AO2 SLP046 P0009 60043 T01000089 53008=
200611072050 SPECI KPAE 072050Z 00000KT 2 1/2SM RA BR BKN003 OVC031 10/09 A2967 RMK AO2 P0008=
200611072050 SPECI KPAE 072050Z 00000KT 2 1/2SM RA BR BKN003 OVC031 10/09 A2967 RMK AO2 P0008=
200611072010 SPECI KPAE 072010Z 36005KT 3SM -RA BR BKN003 OVC031 09/09 A2964 RMK AO2 P0003=
200611072010 SPECI KPAE 072010Z 36005KT 3SM -RA BR BKN003 OVC031 09/09 A2964 RMK AO2 P0003=
200611071953 METAR KPAE 071953Z 35006KT 2 1/2SM RA BR BKN003 OVC006 09/09 A2964 RMK AO2 SLP037 P0018 T00940089=
200611071903 SPECI KPAE 071903Z 36006KT 1 1/4SM RA BR BKN003 BKN011 OVC017 10/09 A2963 RMK AO2 P0003=
200611071903 SPECI KPAE 071903Z 36006KT 1 1/4SM RA BR BKN003 BKN011 OVC017 10/09 A2963 RMK AO2 P0003=
200611071853 METAR KPAE 071853Z 36008KT 1 1/4SM RA BR SCT003 BKN011 OVC017 10/09 A2964 RMK AO2 SLP038 P0016 T01000094=
200611071835 SPECI KPAE 071835Z 03004KT 1 1/4SM RA BR BKN003 OVC009 11/09 A2964 RMK AO2 P0008=
200611071835 SPECI KPAE 071835Z 03004KT 1 1/4SM RA BR BKN003 OVC009 11/09 A2964 RMK AO2 P0008=
200611071828 SPECI KPAE 071828Z 01006KT 2SM RA BR BKN003 OVC007 11/09 A2964 RMK AO2 P0006=
200611071828 SPECI KPAE 071828Z 01006KT 2SM RA BR BKN003 OVC007 11/09 A2964 RMK AO2 P0006=
200611071800 METAR KPAE NIL=
200611071753 METAR KPAE 071753Z 07004KT 2 1/2SM RA BR OVC007 11/09 A2964 RMK AO2 CIG 003V008 SLP038 P0007 60032 T01060094 10133 20100 56014=
200611071749 SPECI KPAE 071749Z 06004KT 2 1/2SM -RA BR OVC007 11/09 A2965 RMK AO2 CIG 003V008 P0006=
200611071749 SPECI KPAE 071749Z 06004KT 2 1/2SM -RA BR OVC007 11/09 A2965 RMK AO2 CIG 003V008 P0006=
200611071739 SPECI KPAE 071739Z 00000KT 1 3/4SM RA BR OVC007 11/09 A2965 RMK AO2 CIG 003V008 P0004=
200611071739 SPECI KPAE 071739Z 00000KT 1 3/4SM RA BR OVC007 11/09 A2965 RMK AO2 CIG 003V008 P0004=
200611071724 SPECI KPAE 071724Z VRB03KT 2SM -RA BR OVC007 11/09 A2966 RMK AO2 CIG 003V009 P0001=
200611071724 SPECI KPAE 071724Z VRB03KT 2SM -RA BR OVC007 11/09 A2966 RMK AO2 CIG 003V009 P0001=
200611071714 SPECI KPAE 071714Z 05006KT 1 1/2SM -RA BR SCT003 OVC009 11/09 A2966 RMK AO2 CIG 006V012 P0000=
200611071714 SPECI KPAE 071714Z 05006KT 1 1/2SM -RA BR SCT003 OVC009 11/09 A2966 RMK AO2 CIG 006V012 P0000=
200611071707 SPECI KPAE 071707Z 06006KT 1 1/4SM -RA BR SCT003 OVC011 11/09 A2965 RMK AO2 CIG 008V013 P0000=
200611071707 SPECI KPAE 071707Z 06006KT 1 1/4SM -RA BR SCT003 OVC011 11/09 A2965 RMK AO2 CIG 008V013 P0000=
200611071653 METAR KPAE 071653Z 04006KT 1SM -RA BR OVC013 11/09 A2966 RMK AO2 SLP044 P0005 T01060094=
200611071643 SPECI KPAE 071643Z 00000KT 1SM -RA BR OVC013 11/09 A2967 RMK AO2 P0004=
200611071643 SPECI KPAE 071643Z 00000KT 1SM -RA BR OVC013 11/09 A2967 RMK AO2 P0004=
200611071610 SPECI KPAE 071610Z 35003KT 1 3/4SM -RA BR OVC015 11/09 A2968 RMK AO2 P0002=
200611071610 SPECI KPAE 071610Z 35003KT 1 3/4SM -RA BR OVC015 11/09 A2968 RMK AO2 P0002=
200611071557 SPECI KPAE 071557Z 00000KT 3SM -RA BR OVC017 10/09 A2968 RMK AO2 P0001=
200611071557 SPECI KPAE 071557Z 00000KT 3SM -RA BR OVC017 10/09 A2968 RMK AO2 P0001=
200611071553 METAR KPAE 071553Z 00000KT 2SM -RA BR BKN006 BKN014 OVC020 10/09 A2968 RMK AO2 SLP051 P0010 T01000094=
200611071516 SPECI KPAE 071516Z VRB05KT 2SM RA BR BKN006 BKN014 OVC020 11/09 A2970 RMK AO2 CIG 002V009 P0005=
200611071516 SPECI KPAE 071516Z VRB05KT 2SM RA BR BKN006 BKN014 OVC020 11/09 A2970 RMK AO2 CIG 002V009 P0005=
200611071507 SPECI KPAE 071507Z VRB04KT 1 3/4SM RA BR BKN006 OVC011 11/10 A2970 RMK AO2 CIG 002V008 P0004=
200611071507 SPECI KPAE 071507Z VRB04KT 1 3/4SM RA BR BKN006 OVC011 11/10 A2970 RMK AO2 CIG 002V008 P0004=
200611071500 SPECI KPAE 071500Z 29005KT 2SM RA BR BKN006 OVC011 11/10 A2969 RMK AO2 CIG 003V008 P0002=
200611071500 SPECI KPAE 071500Z 29005KT 2SM RA BR BKN006 OVC011 11/10 A2969 RMK AO2 CIG 003V008 P0002=
200611071453 METAR KPAE 071453Z 29007KT 1 3/4SM RA BR BKN008 OVC013 11/10 A2969 RMK AO2 CIG 003V009 SLP052 P0008 60010 T01110100 53001=
200611071448 SPECI KPAE 071448Z 29009KT 1 3/4SM +RA BR OVC008 11/10 A2969 RMK AO2 CIG 003V011 P0007=
200611071448 SPECI KPAE 071448Z 29009KT 1 3/4SM +RA BR OVC008 11/10 A2969 RMK AO2 CIG 003V011 P0007=
200611071434 SPECI KPAE 071434Z 20011KT 10SM -RA OVC008 13/12 A2968 RMK AO2 CIG 006V013 P0001=
200611071434 SPECI KPAE 071434Z 20011KT 10SM -RA OVC008 13/12 A2968 RMK AO2 CIG 006V013 P0001=
200611071353 METAR KPAE 071353Z 18013G21KT 10SM -RA FEW009 OVC014 13/12 A2968 RMK AO2 SLP049 P0001 T01280117=
200611071311 SPECI KPAE 071311Z 17015KT 10SM -RA SCT009 BKN014 OVC090 13/11 A2967 RMK AO2 P0001=
200611071311 SPECI KPAE 071311Z 17015KT 10SM -RA SCT009 BKN014 OVC090 13/11 A2967 RMK AO2 P0001=
200611071253 METAR KPAE 071253Z 17010KT 10SM -RA BKN009 OVC014 13/11 A2967 RMK AO2 RAB1156 CIG 008V011 SLP046 P0001 T01280111=
200611071153 METAR KPAE 071153Z 17011KT 10SM BKN010 BKN016 OVC095 13/12 A2968 RMK AO2 RAE44 SLP051 P0000 60003 70040 T01330117 10133 20128 55013=
200611071144 SPECI KPAE 071144Z 17011KT 10SM FEW010 BKN014 OVC100 13/12 A2967 RMK AO2 RAE44 P0000=
200611071144 SPECI KPAE 071144Z 17011KT 10SM FEW010 BKN014 OVC100 13/12 A2967 RMK AO2 RAE44 P0000=
200611071053 METAR KPAE 071053Z 17016KT 10SM -RA OVC085 13/12 A2968 RMK AO2 RAE18B53 SLP049 P0000 T01330117=
200611070953 METAR KPAE 070953Z 18013KT 10SM -RA OVC090 13/12 A2970 RMK AO2 RAB00E12B38 SLP055 P0000 T01330117=
200611070853 METAR KPAE 070853Z 17013KT 10SM SCT009 OVC085 13/12 A2972 RMK AO2 RAE51 SLP064 P0001 60003 T01280117 58008=
200611070835 SPECI KPAE 070835Z 16012KT 10SM -RA BKN009 BKN014 OVC080 13/12 A2971 RMK AO2 CIG 007V012 P0001=
200611070835 SPECI KPAE 070835Z 16012KT 10SM -RA BKN009 BKN014 OVC080 13/12 A2971 RMK AO2 CIG 007V012 P0001=
200611070753 METAR KPAE 070753Z 15012KT 10SM -RA FEW009 BKN014 OVC085 13/12 A2974 RMK AO2 SLP071 P0002 T01280117 401560128=
200611070748 SPECI KPAE 070748Z 16013KT 10SM -RA FEW009 SCT016 OVC085 13/11 A2974 RMK AO2 P0002 401560128=
200611070748 SPECI KPAE 070748Z 16013KT 10SM -RA FEW009 SCT016 OVC085 13/11 A2974 RMK AO2 P0002 401560128=
200611070653 METAR KPAE 070653Z 15013KT 10SM -RA OVC085 13/11 A2975 RMK AO2 RAB04E27B43 SLP073 P0000 T01330111=
200611070633 SPECI KPAE 070633Z 14014KT 10SM SCT018 OVC085 13/11 A2976 RMK AO2 RAB04E27 P0000=
200611070633 SPECI KPAE 070633Z 14014KT 10SM SCT018 OVC085 13/11 A2976 RMK AO2 RAB04E27 P0000=
200611070617 SPECI KPAE 070617Z 14012KT 10SM -RA FEW010 BKN018 OVC090 13/11 A2977 RMK AO2 RAB04 P0000=
200611070617 SPECI KPAE 070617Z 14012KT 10SM -RA FEW010 BKN018 OVC090 13/11 A2977 RMK AO2 RAB04 P0000=
200611070553 METAR KPAE 070553Z 15010KT 10SM BKN010 BKN014 OVC090 13/11 A2977 RMK AO2 CIG 008V012 SLP079 60002 T01280111 10156 20128 53000=
200611070510 SPECI KPAE 070510Z 16014KT 10SM BKN010 OVC095 13/11 A2976 RMK AO2=
200611070510 SPECI KPAE 070510Z 16014KT 10SM BKN010 OVC095 13/11 A2976 RMK AO2=
200611070453 METAR KPAE 070453Z 16013KT 10SM FEW012 OVC100 13/11 A2974 RMK AO2 RAB02E13B31E42 SLP072 P0000 T01330111=
200611070434 SPECI KPAE 070434Z 17014KT 10SM -RA SCT010 OVC100 13/11 A2975 RMK AO2 RAB02E13B31 P0000=
200611070434 SPECI KPAE 070434Z 17014KT 10SM -RA SCT010 OVC100 13/11 A2975 RMK AO2 RAB02E13B31 P0000=
200611070353 METAR KPAE 070353Z 17015KT 10SM BKN010 BKN075 OVC110 14/12 A2975 RMK AO2 RAB0257E46 SLP074 P0002 T01390122=
200611070351 SPECI KPAE 070351Z 17017KT 10SM SCT008 BKN012 OVC110 14/12 A2975 RMK AO2 RAB0257E46 P0002=
200611070351 SPECI KPAE 070351Z 17017KT 10SM SCT008 BKN012 OVC110 14/12 A2975 RMK AO2 RAB0257E46 P0002=
200611070253 METAR KPAE 070253Z 19016G20KT 10SM OVC100 15/12 A2976 RMK AO2 PK WND 20029/0200 PRESRR SLP078 60000 T01500122 53029=
200611070153 METAR KPAE 070153Z 19021G32KT 10SM FEW012 OVC110 15/13 A2971 RMK AO2 PK WND 17035/0119 RAB13E47 SLP061 P0000 T01500133=
200611070112 SPECI KPAE 070112Z 18028G32KT 10SM FEW012 OVC100 16/13 A2969 RMK AO2 PK WND 18032/0111=
200611070112 SPECI KPAE 070112Z 18028G32KT 10SM FEW012 OVC100 16/13 A2969 RMK AO2 PK WND 18032/0111=
200611070053 METAR KPAE 070053Z 18023G29KT 10SM BKN012 OVC110 16/13 A2971 RMK AO2 PK WND 18033/0032 RAB2357E13 SLP057 P0000 T01560133=
200611070018 SPECI KPAE 070018Z 18023G31KT 10SM BKN012 OVC110 16/13 A2971 RMK AO2 PK WND 18032/0004 RAB2357E13 P0000=
200611070018 SPECI KPAE 070018Z 18023G31KT 10SM BKN012 OVC110 16/13 A2971 RMK AO2 PK WND 18032/0004 RAB2357E13 P0000=
200611062353 METAR KPAE 062353Z 18026G33KT 10SM SCT014 BKN110 16/13 A2968 RMK AO2 PK WND 18040/2321 RAB34E50 SLP048 P0000 60017 T01560133 10156 20150 56011=
200611062339 SPECI KPAE 062339Z 18024G36KT 10SM -RA SCT014 BKN110 16/13 A2970 RMK AO2 PK WND 18040/2321 RAB34 P0000=
200611062339 SPECI KPAE 062339Z 18024G36KT 10SM -RA SCT014 BKN110 16/13 A2970 RMK AO2 PK WND 18040/2321 RAB34 P0000=
200611062259 SPECI KPAE 062259Z 18024G36KT 10SM BKN013 OVC018 16/14 A2969 RMK AO2 PK WND 19032/2258=
200611062259 SPECI KPAE 062259Z 18024G36KT 10SM BKN013 OVC018 16/14 A2969 RMK AO2 PK WND 19032/2258=
200611062255 SPECI KPAE 062255Z 18023G36KT 10SM SCT011 OVC017 16/14 A2969 RMK AO2 PK WND 18030/2255=
200611062255 SPECI KPAE 062255Z 18023G36KT 10SM SCT011 OVC017 16/14 A2969 RMK AO2 PK WND 18030/2255=
200611062253 METAR KPAE 062253Z 18023G36KT 10SM BKN013 OVC017 16/14 A2969 RMK AO2 PK WND 18037/2240 SLP051 T01560139=
200611062247 SPECI KPAE 062247Z 18026G37KT 10SM SCT008 BKN017 16/14 A2969 RMK AO2 PK WND 18037/2240=
200611062247 SPECI KPAE 062247Z 18026G37KT 10SM SCT008 BKN017 16/14 A2969 RMK AO2 PK WND 18037/2240=
200611062215 SPECI KPAE 062215Z 17027G34KT 10SM BKN008 OVC012 15/14 A2966 RMK AO2 PK WND 18034/2210=
200611062215 SPECI KPAE 062215Z 17027G34KT 10SM BKN008 OVC012 15/14 A2966 RMK AO2 PK WND 18034/2210=
200611062153 METAR KPAE 062153Z 17024G29KT 10SM SCT008 BKN011 OVC017 16/14 A2969 RMK AO2 PK WND 17029/2150 RAE51 SLP052 P0001 T01560139=
200611062129 SPECI KPAE 062129Z 16020KT 10SM -RA BKN008 BKN019 OVC100 15/14 A2970 RMK AO2 PK WND 17027/2114 P0001=
200611062129 SPECI KPAE 062129Z 16020KT 10SM -RA BKN008 BKN019 OVC100 15/14 A2970 RMK AO2 PK WND 17027/2114 P0001=
200611062053 METAR KPAE 062053Z 17018G24KT 10SM -RA SCT012 BKN040 OVC110 15/14 A2971 RMK AO2 PK WND 17029/2042 SLP059 P0003 60016 T01500139 58007=
200611062000 SPECI KPAE 062000Z 18021G26KT 10SM -RA FEW014 BKN022 BKN080 16/13 A2974 RMK AO2 PK WND 18026/2000 P0000=
200611062000 SPECI KPAE 062000Z 18021G26KT 10SM -RA FEW014 BKN022 BKN080 16/13 A2974 RMK AO2 PK WND 18026/2000 P0000=
200611061953 METAR KPAE 061953Z 19017G25KT 10SM -RA BKN009 OVC026 16/13 A2975 RMK AO2 PK WND 20027/1901 SLP074 P0005 T01560133=
200611061853 METAR KPAE 061853Z 18019G29KT 6SM -RA BR BKN009 OVC026 16/14 A2975 RMK AO2 PK WND 18036/1756 SLP073 P0008 T01560139=
200611061824 SPECI KPAE 061824Z 18018G28KT 4SM RA BR BKN009 BKN013 OVC065 16/14 A2975 RMK AO2 PK WND 18036/1756 P0005=
200611061824 SPECI KPAE 061824Z 18018G28KT 4SM RA BR BKN009 BKN013 OVC065 16/14 A2975 RMK AO2 PK WND 18036/1756 P0005=
200611061813 SPECI KPAE 061813Z 18021G26KT 3SM RA BR SCT009 BKN013 OVC070 16/14 A2973 RMK AO2 PK WND 18036/1756 P0002=
200611061813 SPECI KPAE 061813Z 18021G26KT 3SM RA BR SCT009 BKN013 OVC070 16/14 A2973 RMK AO2 PK WND 18036/1756 P0002=
200611061753 METAR KPAE 061753Z 18026G32KT 9SM -RA SCT009 OVC070 16/14 A2973 RMK AO2 PK WND 18036/1733 SLP068 P0001 60018 T01560144 10156 20150 50003=
200611061712 SPECI KPAE 061712Z 18027G31KT 10SM -RA BKN009 OVC013 16/14 A2974 RMK AO2 PK WND 18031/1706 P0001=
200611061712 SPECI KPAE 061712Z 18027G31KT 10SM -RA BKN009 OVC013 16/14 A2974 RMK AO2 PK WND 18031/1706 P0001=
200611061705 SPECI KPAE 061705Z 17025G30KT 10SM -RA SCT009 OVC013 16/14 A2974 RMK AO2 PK WND 17030/1700 P0001=
200611061705 SPECI KPAE 061705Z 17025G30KT 10SM -RA SCT009 OVC013 16/14 A2974 RMK AO2 PK WND 17030/1700 P0001=
200611061653 METAR KPAE 061653Z 18026G30KT 10SM -RA BKN009 OVC013 16/14 A2974 RMK AO2 PK WND 20033/1559 SLP070 P0009 T01560139=
200611061605 SPECI KPAE 061605Z 18026G33KT 7SM RA BKN009 BKN013 OVC024 15/14 A2975 RMK AO2 PK WND 20033/1559 P0002=
200611061605 SPECI KPAE 061605Z 18026G33KT 7SM RA BKN009 BKN013 OVC024 15/14 A2975 RMK AO2 PK WND 20033/1559 P0002=
200611061553 METAR KPAE 061553Z 18022G32KT 9SM -RA FEW007 BKN011 OVC026 15/14 A2975 RMK AO2 PK WND 17034/1500 RAB1455 PRESRR SLP074 P0002 T01500139=
200611061453 METAR KPAE 061453Z 17024G32KT 6SM BR BKN009 BKN085 OVC110 15/14 A2972 RMK AO2 PK WND 17036/1416 RAB07E32 SLP065 P0000 60006 T01500139 55000=
200611061441 SPECI KPAE 061441Z AUTO 17022G29KT 6SM BR BKN009 BKN075 OVC110 15/14 A2972 RMK AO2 PK WND 17036/1416 RAB07E32 P0000=
200611061441 SPECI KPAE 061441Z AUTO 17022G29KT 6SM BR BKN009 BKN075 OVC110 15/14 A2972 RMK AO2 PK WND 17036/1416 RAB07E32 P0000=
200611061431 SPECI KPAE 061431Z AUTO 17024G34KT 10SM -RA SCT009 BKN075 OVC110 15/14 A2972 RMK AO2 PK WND 17036/1416 RAB07 PRESRR P0000=
200611061431 SPECI KPAE 061431Z AUTO 17024G34KT 10SM -RA SCT009 BKN075 OVC110 15/14 A2972 RMK AO2 PK WND 17036/1416 RAB07 PRESRR P0000=
200611061402 SPECI KPAE 061402Z AUTO 17028G34KT 6SM BR BKN009 BKN090 OVC110 15/13 A2970 RMK AO2 PK WND 17034/1359=
200611061402 SPECI KPAE 061402Z AUTO 17028G34KT 6SM BR BKN009 BKN090 OVC110 15/13 A2970 RMK AO2 PK WND 17034/1359=
200611061353 METAR KPAE 061353Z AUTO 18026G34KT 10SM BKN012 OVC090 15/13 A2972 RMK AO2 PK WND 18037/1337 RAE21 SLP063 P0000 T01500133=
200611061343 SPECI KPAE 061343Z AUTO 18026G37KT 10SM SCT008 BKN012 OVC110 15/13 A2972 RMK AO2 PK WND 18037/1337 RAE21 P0000=
200611061343 SPECI KPAE 061343Z AUTO 18026G37KT 10SM SCT008 BKN012 OVC110 15/13 A2972 RMK AO2 PK WND 18037/1337 RAE21 P0000=
200611061317 SPECI KPAE 061317Z AUTO 17024G34KT 10SM -RA OVC010 15/13 A2972 RMK AO2 PK WND 18034/1312 CIG 007V017 P0000=
200611061317 SPECI KPAE 061317Z AUTO 17024G34KT 10SM -RA OVC010 15/13 A2972 RMK AO2 PK WND 18034/1312 CIG 007V017 P0000=
200611061309 SPECI KPAE 061309Z AUTO 17025G33KT 10SM BKN008 BKN016 OVC095 15/13 A2972 RMK AO2 PK WND 17034/1258 RAE06 CIG 007V013 P0000=
200611061309 SPECI KPAE 061309Z AUTO 17025G33KT 10SM BKN008 BKN016 OVC095 15/13 A2972 RMK AO2 PK WND 17034/1258 RAE06 CIG 007V013 P0000=
200611061253 METAR KPAE 061253Z AUTO 17028G35KT 10SM -RA BKN010 BKN025 OVC100 15/13 A2971 RMK AO2 PK WND 17038/1236 SLP061 P0006 T01500133=
200611061228 SPECI KPAE 061228Z AUTO 17027G35KT 5SM RA BR SCT008 BKN027 OVC075 15/13 A2971 RMK AO2 PK WND 18037/1213 P0002=
200611061228 SPECI KPAE 061228Z AUTO 17027G35KT 5SM RA BR SCT008 BKN027 OVC075 15/13 A2971 RMK AO2 PK WND 18037/1213 P0002=
200611061221 SPECI KPAE 061221Z AUTO 17028G37KT 9SM -RA SCT008 BKN012 OVC075 15/13 A2971 RMK AO2 PK WND 18037/1213 P0001=
200611061221 SPECI KPAE 061221Z AUTO 17028G37KT 9SM -RA SCT008 BKN012 OVC075 15/13 A2971 RMK AO2 PK WND 18037/1213 P0001=
200611061201 SPECI KPAE 061201Z AUTO 17023G31KT 10SM -RA BKN008 BKN014 OVC075 15/14 A2972 RMK AO2 PK WND 17031/1200 CIG 006V011 P0000=
200611061201 SPECI KPAE 061201Z AUTO 17023G31KT 10SM -RA BKN008 BKN014 OVC075 15/14 A2972 RMK AO2 PK WND 17031/1200 CIG 006V011 P0000=
200611061153 METAR KPAE 061153Z AUTO 17024G30KT 10SM -RA BKN010 OVC080 15/14 A2973 RMK AO2 PK WND 17035/1132 RAB1055 CIG 007V017 SLP065 P0001 60001 70019 T01500139 10150 20128 55007=
200611061136 SPECI KPAE 061136Z AUTO 17029G35KT 10SM -RA SCT007 BKN010 OVC100 15/13 A2973 RMK AO2 PK WND 17035/1132 RAB1055 P0001=
200611061136 SPECI KPAE 061136Z AUTO 17029G35KT 10SM -RA SCT007 BKN010 OVC100 15/13 A2973 RMK AO2 PK WND 17035/1132 RAB1055 P0001=
200611061124 SPECI KPAE 061124Z AUTO 17029G35KT 10SM -RA BKN008 OVC015 15/13 A2973 RMK AO2 PK WND 17035/1122 RAB1055 P0001=
200611061124 SPECI KPAE 061124Z AUTO 17029G35KT 10SM -RA BKN008 OVC015 15/13 A2973 RMK AO2 PK WND 17035/1122 RAB1055 P0001=
200611061107 SPECI KPAE 061107Z AUTO 17024G31KT 10SM OVC010 15/13 A2971 RMK AO2 PK WND 17032/1055 RAB1055E06 P0000=
200611061107 SPECI KPAE 061107Z AUTO 17024G31KT 10SM OVC010 15/13 A2971 RMK AO2 PK WND 17032/1055 RAB1055E06 P0000=
200611061100 METAR KPAE NIL=
200611061053 METAR KPAE 061053Z AUTO 17027G32KT 10SM OVC008 15/13 A2972 RMK AO2 PK WND 17036/1008 CIG 007V013 SLP064 T01500133=
200611060953 METAR KPAE 060953Z AUTO 17021G29KT 10SM BKN008 BKN013 OVC110 15/13 A2974 RMK AO2 PK WND 17038/0906 CIG 007V012 SLP069 T01500133=
200611060941 SPECI KPAE 060941Z AUTO 17026G35KT 10SM BKN008 OVC110 15/13 A2974 RMK AO2 PK WND 17038/0906 CIG 007V016=
200611060941 SPECI KPAE 060941Z AUTO 17026G35KT 10SM BKN008 OVC110 15/13 A2974 RMK AO2 PK WND 17038/0906 CIG 007V016=
200611060912 SPECI KPAE 060912Z AUTO 17027G38KT 10SM BKN010 OVC015 15/13 A2975 RMK AO2 PK WND 17038/0906 CIG 006V013=
200611060912 SPECI KPAE 060912Z AUTO 17027G38KT 10SM BKN010 OVC015 15/13 A2975 RMK AO2 PK WND 17038/0906 CIG 006V013=
200611060853 METAR KPAE 060853Z AUTO 18030G40KT 10SM OVC008 14/13 A2975 RMK AO2 PK WND 19040/0852 CIG 006V013 PRESRR SLP072 60000 T01440133 55005=
200611060753 METAR KPAE 060753Z AUTO 17024G30KT 10SM OVC006 14/13 A2973 RMK AO2 PK WND 17034/0713 RAE0657B16E25 CIG 004V010 SLP067 P0000 T01390128 401390106=
200611060653 METAR KPAE 060653Z AUTO 17021G29KT 10SM -RA BKN005 OVC009 13/12 A2973 RMK AO2 PK WND 18030/0643 CIG 004V008 PRESFR SLP068 P0000 T01330122=
200611060603 SPECI KPAE 060603Z AUTO 17020KT 10SM -RA BKN005 OVC008 13/12 A2974 RMK AO2 CIG 002V008 PRESFR P0000 TSNO=
200611060603 SPECI KPAE 060603Z AUTO 17020KT 10SM -RA BKN005 OVC008 13/12 A2974 RMK AO2 CIG 002V008 PRESFR P0000 TSNO=
200611060553 METAR KPAE 060553Z AUTO 17019G24KT 10SM -RA BKN003 OVC010 13/12 A2976 RMK AO2 RAB06 CIG 002V006 SLP077 P0001 60011 T01280117 10128 20106 58017=
200611060453 METAR KPAE 060453Z AUTO 15015KT 10SM OVC003 12/11 A2980 RMK AO2 RAE29 SLP091 P0000 T01170106=
200611060446 SPECI KPAE 060446Z AUTO 14012KT 10SM OVC003 12/11 A2980 RMK AO2 RAE29 P0000=
200611060446 SPECI KPAE 060446Z AUTO 14012KT 10SM OVC003 12/11 A2980 RMK AO2 RAE29 P0000=
200611060405 SPECI KPAE 060405Z AUTO 14009KT 5SM -RA BR BKN005 BKN009 OVC016 11/11 A2983 RMK AO2 CIG 003V007 P0000=
200611060405 SPECI KPAE 060405Z AUTO 14009KT 5SM -RA BR BKN005 BKN009 OVC016 11/11 A2983 RMK AO2 CIG 003V007 P0000=
200611060353 METAR KPAE 060353Z 13011KT 2 1/2SM -RA BR FEW004 SCT009 OVC016 11/10 A2981 RMK AO2 RAB27 SLP096 P0001 T01110100=
200611060343 SPECI KPAE 060343Z 12013KT 2 1/2SM -RA BR BKN018 OVC023 11/10 A2982 RMK AO2 RAB27 PRESFR P0000=
200611060343 SPECI KPAE 060343Z 12013KT 2 1/2SM -RA BR BKN018 OVC023 11/10 A2982 RMK AO2 RAB27 PRESFR P0000=
200611060305 SPECI KPAE 060305Z 12013KT 7SM BKN026 OVC033 11/09 A2983 RMK AO2=
200611060305 SPECI KPAE 060305Z 12013KT 7SM BKN026 OVC033 11/09 A2983 RMK AO2=
200611060253 METAR KPAE 060253Z 13011KT 10SM FEW028 BKN033 OVC110 11/09 A2984 RMK AO2 RAE38 SLP106 P0000 60009 T01060094 58020=
200611060153 METAR KPAE 060153Z 16006KT 10SM -RA BKN036 OVC043 11/09 A2988 RMK AO2 SLP120 P0002 T01060089=
200611060103 SPECI KPAE 060103Z 14011KT 7SM -RA BKN004 BKN020 OVC036 11/09 A2990 RMK AO2 P0001=
200611060103 SPECI KPAE 060103Z 14011KT 7SM -RA BKN004 BKN020 OVC036 11/09 A2990 RMK AO2 P0001=
200611060100 SPECI KPAE 060100Z 14011KT 7SM -RA FEW020 SCT036 OVC045 11/09 A2990 RMK AO2 P0001=
200611060100 SPECI KPAE 060100Z 14011KT 7SM -RA FEW020 SCT036 OVC045 11/09 A2990 RMK AO2 P0001=
200611060053 METAR KPAE 060053Z 14009KT 5SM -RA BR BKN006 BKN022 OVC065 11/10 A2990 RMK AO2 SLP126 P0007 T01110100=
200611060018 SPECI KPAE 060018Z 15011KT 5SM -RA BR BKN006 BKN022 OVC065 11/10 A2992 RMK AO2 P0003=
200611060018 SPECI KPAE 060018Z 15011KT 5SM -RA BR BKN006 BKN022 OVC065 11/10 A2992 RMK AO2 P0003=
200611060010 SPECI KPAE 060010Z 15011KT 2SM -RA BR BKN006 BKN022 OVC065 11/10 A2993 RMK AO2 P0002=
200611060010 SPECI KPAE 060010Z 15011KT 2SM -RA BR BKN006 BKN022 OVC065 11/10 A2993 RMK AO2 P0002=
200611052353 METAR KPAE 052353Z 15009KT 3SM -RA BR BKN006 BKN024 OVC065 12/10 A2994 RMK AO2 SLP140 P0005 60006 T01170100 10139 20117 56013=
200611052348 SPECI KPAE 052348Z 17010KT 4SM -RA BR BKN019 BKN024 OVC065 12/10 A2995 RMK AO2 P0004=
200611052348 SPECI KPAE 052348Z 17010KT 4SM -RA BR BKN019 BKN024 OVC065 12/10 A2995 RMK AO2 P0004=
200611052253 METAR KPAE 052253Z 16009KT 6SM -RA BR BKN039 BKN080 12/10 A2997 RMK AO2 RAB05 SLP151 P0001 T01220100=
200611052153 METAR KPAE 052153Z 15011KT 10SM FEW080 13/09 A2998 RMK AO2 SLP152 T01330094=
200611052053 METAR KPAE 052053Z 16011G19KT 10SM FEW018 SCT023 SCT060 13/09 A3001 RMK AO2 SLP162 T01330094 58006=
200611051953 METAR KPAE 051953Z 16012KT 10SM FEW016 OVC055 14/09 A3002 RMK AO2 SLP165 T01390094=
200611051853 METAR KPAE 051853Z 15009KT 10SM OVC018 13/10 A3003 RMK AO2 SLP168 T01280100=
200611051753 METAR KPAE 051753Z 16007KT 10SM OVC016 12/09 A3003 RMK AO2 SLP170 60001 T01220094 10122 20106 51005=
200611051653 METAR KPAE 051653Z 17011KT 10SM SCT016 OVC023 12/09 A3003 RMK AO2 SLP169 T01170094=
200611051553 METAR KPAE 051553Z 18008KT 10SM FEW016 OVC023 11/09 A3002 RMK AO2 SLP166 T01110089=
200611051453 METAR KPAE 051453Z 17008KT 10SM BKN028 OVC034 11/09 A3002 RMK AO2 RAE15 SLP165 P0001 60001 T01110094 51024=
200611051431 SPECI KPAE 051431Z AUTO 17007KT 10SM FEW026 BKN036 OVC046 11/09 A3001 RMK AO2 RAE15 P0001=
200611051431 SPECI KPAE 051431Z AUTO 17007KT 10SM FEW026 BKN036 OVC046 11/09 A3001 RMK AO2 RAE15 P0001=
200611051353 METAR KPAE 051353Z AUTO 19007KT 8SM -RA FEW018 BKN024 OVC032 11/09 A3001 RMK AO2 RAB38 SLP163 P0000 T01110094=
200611051253 METAR KPAE 051253Z AUTO 19010KT 10SM BKN015 OVC020 11/09 A2999 RMK AO2 SLP156 T01110094=
200611051153 METAR KPAE 051153Z AUTO 18012KT 10SM BKN015 BKN085 11/09 A2994 RMK AO2 SLP140 60012 70054 T01110094 10122 20111 51031=
200611051140 SPECI KPAE 051140Z AUTO 18013KT 10SM BKN015 BKN085 11/09 A2993 RMK AO2=
200611051140 SPECI KPAE 051140Z AUTO 18013KT 10SM BKN015 BKN085 11/09 A2993 RMK AO2=
200611051130 SPECI KPAE 051130Z AUTO 18015KT 10SM SCT015 BKN085 11/09 A2993 RMK AO2=
200611051130 SPECI KPAE 051130Z AUTO 18015KT 10SM SCT015 BKN085 11/09 A2993 RMK AO2=
200611051111 SPECI KPAE 051111Z AUTO 17017KT 10SM BKN015 OVC085 12/09 A2992 RMK AO2=
200611051111 SPECI KPAE 051111Z AUTO 17017KT 10SM BKN015 OVC085 12/09 A2992 RMK AO2=
200611051053 METAR KPAE 051053Z AUTO 18014KT 10SM BKN011 11/09 A2991 RMK AO2 SLP128 T01110094=
200611050953 METAR KPAE 050953Z AUTO 17014KT 10SM OVC013 12/10 A2989 RMK AO2 SLP121 T01170100=
200611050938 SPECI KPAE 050938Z AUTO 17016KT 10SM BKN013 12/10 A2988 RMK AO2=
200611050938 SPECI KPAE 050938Z AUTO 17016KT 10SM BKN013 12/10 A2988 RMK AO2=
200611050903 SPECI KPAE 050903Z AUTO 17018G22KT 10SM FEW011 SCT017 12/09 A2985 RMK AO2=
200611050903 SPECI KPAE 050903Z AUTO 17018G22KT 10SM FEW011 SCT017 12/09 A2985 RMK AO2=
200611050853 METAR KPAE 050853Z AUTO 16012KT 10SM FEW010 BKN014 12/10 A2985 RMK AO2 SLP109 60012 T01170100 53011=
200611050835 SPECI KPAE 050835Z AUTO 17014G18KT 10SM BKN014 OVC019 12/10 A2985 RMK AO2=
200611050835 SPECI KPAE 050835Z AUTO 17014G18KT 10SM BKN014 OVC019 12/10 A2985 RMK AO2=
200611050818 SPECI KPAE 050818Z AUTO 17015G20KT 10SM BKN015 BKN022 12/10 A2984 RMK AO2=
200611050818 SPECI KPAE 050818Z AUTO 17015G20KT 10SM BKN015 BKN022 12/10 A2984 RMK AO2=
200611050753 METAR KPAE 050753Z AUTO 18015KT 10SM SCT034 BKN060 12/09 A2984 RMK AO2 PK WND 19028/0738 RAE50 SLP106 P0012 T01170094 401330111=
200611050653 METAR KPAE 050653Z AUTO 17020G26KT 9SM -RA FEW013 SCT029 12/11 A2982 RMK AO2 PK WND 17028/0637 RAB49 SLP099 P0000 T01220106=
200611050553 METAR KPAE 050553Z AUTO 16019G28KT 10SM BKN080 BKN110 12/10 A2982 RMK AO2 PK WND 16028/0546 SLP097 60002 T01220100 10128 20111 53013=
200611050459 SPECI KPAE 050459Z AUTO 17018G25KT 10SM SCT013 12/10 A2980 RMK AO2=
200611050459 SPECI KPAE 050459Z AUTO 17018G25KT 10SM SCT013 12/10 A2980 RMK AO2=
200611050453 METAR KPAE 050453Z 16019G25KT 10SM BKN009 BKN016 12/10 A2980 RMK AO2 SLP092 T01220100=
200611050353 METAR KPAE 050353Z 18017KT 10SM BKN009 BKN016 12/10 A2979 RMK AO2 PK WND 17026/0311 SLP087 T01220100=
200611050259 SPECI KPAE 050259Z 16017G23KT 10SM BKN009 BKN014 12/11 A2978 RMK AO2 CIG 007V011=
200611050259 SPECI KPAE 050259Z 16017G23KT 10SM BKN009 BKN014 12/11 A2978 RMK AO2 CIG 007V011=
200611050253 METAR KPAE 050253Z 17017G23KT 10SM BKN011 BKN016 12/11 A2978 RMK AO2 CIG 007V014 SLP083 60002 T01220106 50007=
200611050153 METAR KPAE 050153Z 16012KT 10SM BKN013 OVC065 12/10 A2978 RMK AO2 SLP084 T01170100=
200611050053 METAR KPAE 050053Z 17013KT 10SM BKN013 OVC065 12/09 A2977 RMK AO2 PK WND 19027/2357 RAE30 SLP080 P0002 T01170094=
200611050012 SPECI KPAE 050012Z 18015G22KT 7SM -RA BKN013 BKN050 OVC065 12/11 A2976 RMK AO2 PK WND 19027/2357 P0002=
200611050012 SPECI KPAE 050012Z 18015G22KT 7SM -RA BKN013 BKN050 OVC065 12/11 A2976 RMK AO2 PK WND 19027/2357 P0002=
200611042353 METAR KPAE 042353Z AUTO 19021G29KT 5SM -RA BR SCT013 BKN020 OVC028 13/11 A2976 RMK AO2 PK WND 16033/2332 SLP075 P0008 60037 T01280111 10133 20122 53001 TSNO=
200611042253 METAR KPAE 042253Z 16014G27KT 5SM RA BR SCT013 BKN023 OVC047 13/12 A2974 RMK AO2 PK WND 16027/2244 SLP071 P0014 T01330117=
200611042241 SPECI KPAE 042241Z 16019G27KT 2 1/2SM RA BR SCT011 BKN017 OVC039 13/12 A2975 RMK AO2 PK WND 17027/2233 P0010=
200611042241 SPECI KPAE 042241Z 16019G27KT 2 1/2SM RA BR SCT011 BKN017 OVC039 13/12 A2975 RMK AO2 PK WND 17027/2233 P0010=
200611042206 SPECI KPAE 042206Z 15018G24KT 4SM RA BR SCT017 BKN024 OVC043 13/12 A2975 RMK AO2 P0002=
200611042206 SPECI KPAE 042206Z 15018G24KT 4SM RA BR SCT017 BKN024 OVC043 13/12 A2975 RMK AO2 P0002=
200611042153 METAR KPAE 042153Z 15018G26KT 6SM -RA BR FEW016 BKN034 OVC043 13/11 A2975 RMK AO2 PK WND 15026/2151 SLP074 P0004 T01330111=
200611042053 METAR KPAE 042053Z 14014KT 6SM -RA BR FEW028 BKN039 OVC049 12/11 A2977 RMK AO2 SLP080 P0004 60011 T01220106 56030=
200611041953 METAR KPAE 041953Z 13018G24KT 8SM -RA SCT034 BKN047 OVC055 12/11 A2980 RMK AO2 SLP091 P0005 T01220106=
200611041853 METAR KPAE 041853Z 14020G28KT 6SM -RA BR BKN032 BKN046 OVC060 12/11 A2982 RMK AO2 PK WND 14028/1849 SLP099 P0002 T01220106=
200611041800 SPECI KPAE 041800Z 15019G23KT 5SM -RA BR BKN032 OVC055 12/10 A2985 RMK AO2 P0000=
200611041800 SPECI KPAE 041800Z 15019G23KT 5SM -RA BR BKN032 OVC055 12/10 A2985 RMK AO2 P0000=
200611041753 METAR KPAE 041753Z 15017G24KT 6SM -RA BR BKN028 BKN040 OVC055 12/11 A2986 RMK AO2 SLP111 P0002 60003 T01220106 10128 20122 58011=
200611041748 SPECI KPAE 041748Z 15017G25KT 6SM -RA BR BKN028 BKN045 OVC060 12/10 A2987 RMK AO2 P0001=
200611041748 SPECI KPAE 041748Z 15017G25KT 6SM -RA BR BKN028 BKN045 OVC060 12/10 A2987 RMK AO2 P0001=
200611041653 METAR KPAE 041653Z 15014G23KT 5SM -RA BKN040 BKN048 BKN060 13/10 A2989 RMK AO2 RAB08E21B41 SLP121 P0001 T01280100=
200611041553 METAR KPAE 041553Z 16015KT 10SM SCT065 BKN080 13/10 A2989 RMK AO2 SLP122 T01280100=
200611041453 METAR KPAE 041453Z 17019G27KT 10SM FEW015 13/10 A2990 RMK AO2 PK WND 18030/1413 SLP125 T01280100 53011=
200611041359 SPECI KPAE 041359Z AUTO 17024G29KT 10SM FEW009 SCT014 OVC110 12/11 A2989 RMK AO2 PK WND 18029/1359=
200611041359 SPECI KPAE 041359Z AUTO 17024G29KT 10SM FEW009 SCT014 OVC110 12/11 A2989 RMK AO2 PK WND 18029/1359=
200611041353 METAR KPAE 041353Z AUTO 17024G31KT 10SM BKN011 OVC120 13/11 A2988 RMK AO2 PK WND 17033/1328 SLP119 T01280106=
200611041301 SPECI KPAE 041301Z AUTO 17023G28KT 10SM SCT010 BKN014 OVC100 13/11 A2986 RMK AO2 PK WND 17028/1301=
200611041301 SPECI KPAE 041301Z AUTO 17023G28KT 10SM SCT010 BKN014 OVC100 13/11 A2986 RMK AO2 PK WND 17028/1301=
200611041253 METAR KPAE 041253Z AUTO 17019G26KT 10SM SCT010 BKN016 OVC100 13/11 A2987 RMK AO2 PK WND 17028/1238 SLP115 T01280106=
200611041203 SPECI KPAE 041203Z AUTO 17021G27KT 10SM BKN014 BKN023 OVC100 13/11 A2987 RMK AO2 PK WND 16027/1202=
200611041203 SPECI KPAE 041203Z AUTO 17021G27KT 10SM BKN014 BKN023 OVC100 13/11 A2987 RMK AO2 PK WND 16027/1202=
200611041153 METAR KPAE 041153Z AUTO 17021G25KT 10SM SCT011 BKN016 OVC100 13/11 A2987 RMK AO2 PK WND 17026/1140 SLP113 70020 T01280106 10128 20122 51005=
200611041120 SPECI KPAE 041120Z AUTO 17020G25KT 10SM SCT014 OVC100 13/11 A2986 RMK AO2=
200611041120 SPECI KPAE 041120Z AUTO 17020G25KT 10SM SCT014 OVC100 13/11 A2986 RMK AO2=
200611041104 SPECI KPAE 041104Z AUTO 17018G23KT 10SM FEW009 BKN016 OVC110 13/11 A2986 RMK AO2=
200611041104 SPECI KPAE 041104Z AUTO 17018G23KT 10SM FEW009 BKN016 OVC110 13/11 A2986 RMK AO2=
200611041053 METAR KPAE 041053Z AUTO 17015G21KT 10SM BKN010 BKN016 OVC023 13/11 A2986 RMK AO2 CIG 007V014 SLP111 T01280106=
200611041048 SPECI KPAE 041048Z AUTO 16014KT 10SM BKN010 BKN016 OVC024 13/11 A2986 RMK AO2 CIG 007V012=
200611041048 SPECI KPAE 041048Z AUTO 16014KT 10SM BKN010 BKN016 OVC024 13/11 A2986 RMK AO2 CIG 007V012=
200611041038 SPECI KPAE 041038Z AUTO 17017G22KT 10SM BKN008 BKN012 OVC020 13/11 A2986 RMK AO2=
200611041038 SPECI KPAE 041038Z AUTO 17017G22KT 10SM BKN008 BKN012 OVC020 13/11 A2986 RMK AO2=
200611041018 SPECI KPAE 041018Z AUTO 17020G24KT 10SM FEW008 BKN012 BKN022 12/11 A2986 RMK AO2=
200611041018 SPECI KPAE 041018Z AUTO 17020G24KT 10SM FEW008 BKN012 BKN022 12/11 A2986 RMK AO2=
200611041000 SPECI KPAE 041000Z AUTO 17018G25KT 10SM SCT012 SCT019 BKN023 12/11 A2986 RMK AO2=
200611041000 SPECI KPAE 041000Z AUTO 17018G25KT 10SM SCT012 SCT019 BKN023 12/11 A2986 RMK AO2=
200611040953 METAR KPAE 040953Z AUTO 16019G26KT 10SM SCT012 SCT025 BKN080 13/11 A2985 RMK AO2 PK WND 17026/0948 SLP108 T01280106=
200611040922 SPECI KPAE 040922Z AUTO 17018KT 10SM SCT014 BKN023 OVC120 12/11 A2984 RMK AO2=
200611040922 SPECI KPAE 040922Z AUTO 17018KT 10SM SCT014 BKN023 OVC120 12/11 A2984 RMK AO2=
200611040906 SPECI KPAE 040906Z AUTO 16016KT 10SM BKN014 BKN023 12/11 A2984 RMK AO2=
200611040906 SPECI KPAE 040906Z AUTO 16016KT 10SM BKN014 BKN023 12/11 A2984 RMK AO2=
200611040853 METAR KPAE 040853Z AUTO 16016KT 10SM FEW012 SCT110 12/11 A2984 RMK AO2 SLP103 T01220106 51010=
200611040834 SPECI KPAE 040834Z AUTO 16016KT 10SM FEW012 BKN070 OVC110 12/11 A2984 RMK AO2=
200611040834 SPECI KPAE 040834Z AUTO 16016KT 10SM FEW012 BKN070 OVC110 12/11 A2984 RMK AO2=
200611040753 METAR KPAE 040753Z AUTO 16016KT 10SM FEW012 SCT021 BKN028 12/11 A2983 RMK AO2 SLP101 T01220106 401440083=
200611040744 SPECI KPAE 040744Z AUTO 16015KT 10SM FEW012 BKN023 BKN032 12/11 A2983 RMK AO2=
200611040744 SPECI KPAE 040744Z AUTO 16015KT 10SM FEW012 BKN023 BKN032 12/11 A2983 RMK AO2=
200611040729 SPECI KPAE 040729Z AUTO 16016KT 10SM SCT012 BKN032 OVC070 12/11 A2983 RMK AO2=
200611040729 SPECI KPAE 040729Z AUTO 16016KT 10SM SCT012 BKN032 OVC070 12/11 A2983 RMK AO2=
200611040721 SPECI KPAE 040721Z AUTO 16015KT 10SM SCT012 BKN024 OVC110 12/11 A2983 RMK AO2=
200611040721 SPECI KPAE 040721Z AUTO 16015KT 10SM SCT012 BKN024 OVC110 12/11 A2983 RMK AO2=
200611040653 METAR KPAE 040653Z AUTO 16017KT 10SM FEW024 BKN070 OVC100 12/11 A2983 RMK AO2 SLP099 T01220106=
200611040553 METAR KPAE 040553Z AUTO 17019G23KT 10SM BKN090 OVC110 13/11 A2981 RMK AO2 PK WND 18026/0501 RAE20 SLP093 P0001 60004 T01280106 10139 20122 53020=
200611040525 SPECI KPAE 040525Z AUTO 16020KT 10SM FEW010 OVC080 13/11 A2980 RMK AO2 PK WND 18026/0501 RAE20 P0001=
200611040525 SPECI KPAE 040525Z AUTO 16020KT 10SM FEW010 OVC080 13/11 A2980 RMK AO2 PK WND 18026/0501 RAE20 P0001=
200611040453 METAR KPAE 040453Z AUTO 17023G28KT 10SM -RA BKN010 BKN015 OVC070 13/11 A2978 RMK AO2 PK WND 17028/0444 SLP084 P0001 T01280111=
200611040353 METAR KPAE 040353Z 18018G27KT 10SM -RA BKN010 BKN013 OVC060 13/12 A2977 RMK AO2 PK WND 18029/0324 RAB0258 SLP079 P0001 T01280117=
200611040340 SPECI KPAE 040340Z 19018G24KT 9SM -RA BKN010 BKN013 OVC070 13/12 A2977 RMK AO2 PK WND 18029/0324 RAB0258 P0001=
200611040340 SPECI KPAE 040340Z 19018G24KT 9SM -RA BKN010 BKN013 OVC070 13/12 A2977 RMK AO2 PK WND 18029/0324 RAB0258 P0001=
200611040333 SPECI KPAE 040333Z 18015G29KT 10SM -RA BKN009 BKN013 OVC070 13/12 A2977 RMK AO2 PK WND 18029/0324 RAB0258 P0000=
200611040333 SPECI KPAE 040333Z 18015G29KT 10SM -RA BKN009 BKN013 OVC070 13/12 A2977 RMK AO2 PK WND 18029/0324 RAB0258 P0000=
200611040253 METAR KPAE 040253Z 18020G27KT 10SM BKN010 OVC017 13/12 A2975 RMK AO2 PK WND 17028/0207 RAE25 SLP072 P0001 60001 T01330117 53014=
200611040153 METAR KPAE 040153Z 17016G25KT 10SM -RA BKN010 OVC055 13/12 A2973 RMK AO2 PK WND 18028/0056 RAB29 SLP065 P0000 T01330117=
200611040112 SPECI KPAE 040112Z 18022G27KT 10SM BKN010 BKN014 OVC085 14/12 A2972 RMK AO2 PK WND 18028/0056 CIG 007V012=
200611040112 SPECI KPAE 040112Z 18022G27KT 10SM BKN010 BKN014 OVC085 14/12 A2972 RMK AO2 PK WND 18028/0056 CIG 007V012=
200611040053 METAR KPAE 040053Z 17021G27KT 10SM BKN008 OVC017 13/12 A2971 RMK AO2 PK WND 16027/0053 SLP058 T01330117=
200611032353 METAR KPAE 032353Z 17018G25KT 10SM OVC008 14/12 A2971 RMK AO2 SLP058 60008 T01390117 10144 20133 53017=
200611032253 METAR KPAE 032253Z 17021G26KT 10SM BKN008 OVC018 14/12 A2969 RMK AO2 PK WND 18031/2208 SLP054 T01390117=
200611032153 METAR KPAE 032153Z 17022G29KT 10SM OVC010 14/12 A2967 RMK AO2 PK WND 18033/2121 RAB00E23 CIG 007V014 SLP046 P0000 T01390122=
200611032101 SPECI KPAE 032101Z 17025G32KT 9SM -RA BKN012 OVC017 14/12 A2965 RMK AO2 PK WND 16032/2058 RAB00 P0000=
200611032101 SPECI KPAE 032101Z 17025G32KT 9SM -RA BKN012 OVC017 14/12 A2965 RMK AO2 PK WND 16032/2058 RAB00 P0000=
200611032053 METAR KPAE 032053Z 17023G36KT 10SM BKN016 OVC025 14/12 A2966 RMK AO2 PK WND 18036/2047 RAE12 SLP042 P0001 60008 T01440122 55004=
200611031953 METAR KPAE 031953Z 16021G32KT 5SM -RA BR FEW022 BKN027 OVC038 14/12 A2965 RMK AO2 PK WND 16032/1947 SLP040 P0002 T01390122=
200611031904 SPECI KPAE 031904Z 15021G26KT 5SM -RA BR FEW026 BKN044 OVC055 14/12 A2965 RMK AO2 PK WND 16026/1902 P0001=
200611031904 SPECI KPAE 031904Z 15021G26KT 5SM -RA BR FEW026 BKN044 OVC055 14/12 A2965 RMK AO2 PK WND 16026/1902 P0001=
200611031855 SPECI KPAE 031855Z 14017G27KT 5SM RA BR BKN026 BKN036 OVC055 13/11 A2965 RMK AO2 P0000=
200611031855 SPECI KPAE 031855Z 14017G27KT 5SM RA BR BKN026 BKN036 OVC055 13/11 A2965 RMK AO2 P0000=
200611031853 METAR KPAE 031853Z 15018G27KT 2 1/2SM RA BR SCT024 BKN030 OVC050 13/11 A2965 RMK AO2 PK WND 14027/1847 VIS 1 1/2V4 SLP042 P0005 T01330111=
200611031753 METAR KPAE 031753Z 14015G25KT 10SM -RA BKN055 BKN070 BKN090 13/10 A2967 RMK AO2 RAB00 SLP046 P0001 60008 T01330100 10133 20117 58012=
200611031653 METAR KPAE 031653Z 14016KT 10SM OVC050 13/10 A2969 RMK AO2 SLP054 T01330100=
200611031553 METAR KPAE 031553Z 14014KT 10SM FEW043 BKN055 13/12 A2970 RMK AO2 RAB40E51 SLP058 P0000 T01280117=
200611031453 METAR KPAE 031453Z AUTO 15014KT 10SM FEW026 OVC033 12/12 A2970 RMK AO2 RAE29 SLP059 P0002 60007 T01220117 58001=
200611031353 METAR KPAE 031353Z AUTO 15013KT 5SM RA BR SCT033 BKN050 OVC070 12/12 A2971 RMK AO2 SLP062 P0004 T01220117=
200611031325 SPECI KPAE 031325Z AUTO 15016KT 6SM -RA BR SCT028 BKN038 OVC080 12/11 A2970 RMK AO2 P0002=
200611031325 SPECI KPAE 031325Z AUTO 15016KT 6SM -RA BR SCT028 BKN038 OVC080 12/11 A2970 RMK AO2 P0002=
200611031318 SPECI KPAE 031318Z AUTO 15017G22KT 7SM RA BKN028 BKN041 OVC075 12/11 A2970 RMK AO2 P0001=
200611031318 SPECI KPAE 031318Z AUTO 15017G22KT 7SM RA BKN028 BKN041 OVC075 12/11 A2970 RMK AO2 P0001=
200611031253 METAR KPAE 031253Z AUTO 15015G20KT 10SM -RA SCT028 BKN060 OVC100 12/11 A2971 RMK AO2 SLP062 P0001 T01170111=
200611031229 SPECI KPAE 031229Z AUTO 15015KT 10SM SCT027 BKN065 OVC095 12/11 A2971 RMK AO2 RAE29 P0000=
200611031229 SPECI KPAE 031229Z AUTO 15015KT 10SM SCT027 BKN065 OVC095 12/11 A2971 RMK AO2 RAE29 P0000=
200611031221 SPECI KPAE 031221Z AUTO 15014KT 10SM -RA BKN027 BKN043 OVC090 12/11 A2971 RMK AO2 P0000=
200611031221 SPECI KPAE 031221Z AUTO 15014KT 10SM -RA BKN027 BKN043 OVC090 12/11 A2971 RMK AO2 P0000=
200611031210 SPECI KPAE 031210Z AUTO 15014KT 10SM -RA FEW007 BKN060 OVC075 12/11 A2971 RMK AO2 P0000=
200611031210 SPECI KPAE 031210Z AUTO 15014KT 10SM -RA FEW007 BKN060 OVC075 12/11 A2971 RMK AO2 P0000=
200611031153 METAR KPAE 031153Z AUTO 15014KT 6SM -RA BR SCT009 BKN026 OVC070 12/11 A2970 RMK AO2 SLP060 P0003 60006 70053 T01170106 10117 20078 50001=
200611031053 METAR KPAE 031053Z AUTO 15014G22KT 6SM -RA BR SCT006 BKN070 OVC090 11/10 A2971 RMK AO2 RAB14E25B45 SLP061 P0000 T01060100=
200611031050 SPECI KPAE 031050Z AUTO 14016G22KT 7SM -RA SCT004 BKN060 OVC070 11/10 A2971 RMK AO2 RAB14E25B45 P0000=
200611031050 SPECI KPAE 031050Z AUTO 14016G22KT 7SM -RA SCT004 BKN060 OVC070 11/10 A2971 RMK AO2 RAB14E25B45 P0000=
200611030953 METAR KPAE 030953Z AUTO 14015KT 6SM BR BKN002 OVC011 10/09 A2970 RMK AO2 RAB0857E08 CIG 001V006 SLP060 P0000 T01000089=
200611030936 SPECI KPAE 030936Z AUTO 14015KT 5SM BR BKN004 OVC011 09/09 A2970 RMK AO2 RAB0857E08 CIG 001V006 P0000=
200611030936 SPECI KPAE 030936Z AUTO 14015KT 5SM BR BKN004 OVC011 09/09 A2970 RMK AO2 RAB0857E08 CIG 001V006 P0000=
200611030918 SPECI KPAE 030918Z AUTO 14017KT 4SM BR SCT004 BKN011 OVC080 10/09 A2970 RMK AO2 RAB0857E08 P0000=
200611030918 SPECI KPAE 030918Z AUTO 14017KT 4SM BR SCT004 BKN011 OVC080 10/09 A2970 RMK AO2 RAB0857E08 P0000=
200611030853 METAR KPAE 030853Z AUTO 14017KT 5SM BR OVC002 09/08 A2970 RMK AO2 RAE43 CIG 002V009 SLP059 P0001 60003 T00890083 50006=
200611030827 SPECI KPAE 030827Z AUTO 13016KT 10SM -RA BKN002 BKN065 OVC080 08/08 A2970 RMK AO2 CIG 002V007 P0001=
200611030827 SPECI KPAE 030827Z AUTO 13016KT 10SM -RA BKN002 BKN065 OVC080 08/08 A2970 RMK AO2 CIG 002V007 P0001=
200611030803 SPECI KPAE 030803Z AUTO 13015KT 10SM FEW004 BKN025 OVC080 08/08 A2970 RMK AO2 RAE0755 P0001=
200611030803 SPECI KPAE 030803Z AUTO 13015KT 10SM FEW004 BKN025 OVC080 08/08 A2970 RMK AO2 RAE0755 P0001=
200611030753 METAR KPAE 030753Z AUTO 14014KT 10SM -RA FEW013 BKN055 OVC080 08/07 A2970 RMK AO2 RAB16 SLP061 P0002 T00830072 400830050=
200611030653 METAR KPAE 030653Z AUTO 14014KT 10SM SCT085 BKN110 08/07 A2969 RMK AO2 SLP057 T00830067=
200611030553 METAR KPAE 030553Z AUTO 13014KT 10SM FEW014 SCT024 BKN032 08/07 A2968 RMK AO2 RAE0458 SLP054 P0000 60011 T00830067 10083 20067 51007=
200611030505 SPECI KPAE 030505Z AUTO 13014KT 7SM FEW007 BKN018 OVC030 08/07 A2968 RMK AO2 RAE0458 P0000=
200611030505 SPECI KPAE 030505Z AUTO 13014KT 7SM FEW007 BKN018 OVC030 08/07 A2968 RMK AO2 RAE0458 P0000=
200611030453 METAR KPAE 030453Z 14013KT 4SM -RA BR FEW010 BKN020 OVC024 08/07 A2968 RMK AO2 RAE00B31 SLP052 P0000 T00780067=
200611030353 METAR KPAE 030353Z 12013KT 4SM -RA BR FEW015 BKN021 OVC027 07/06 A2967 RMK AO2 RAE03B51 SLP049 P0000 T00720061=
200611030312 SPECI KPAE 030312Z 13013KT 8SM BKN028 OVC032 07/06 A2967 RMK AO2 RAE03 P0000=
200611030312 SPECI KPAE 030312Z 13013KT 8SM BKN028 OVC032 07/06 A2967 RMK AO2 RAE03 P0000=
200611030253 METAR KPAE 030253Z 13012KT 9SM -RA FEW024 OVC033 07/06 A2966 RMK AO2 SLP046 P0005 60011 T00720056 55001=
200611030242 SPECI KPAE 030242Z 13011KT 5SM -RA BR SCT022 BKN034 OVC065 07/06 A2967 RMK AO2 P0005=
200611030242 SPECI KPAE 030242Z 13011KT 5SM -RA BR SCT022 BKN034 OVC065 07/06 A2967 RMK AO2 P0005=
200611030153 METAR KPAE 030153Z 12010KT 7SM -RA BKN024 BKN032 OVC043 07/06 A2966 RMK AO2 SLP045 P0003 T00720056=
200611030053 METAR KPAE 030053Z 12008KT 8SM -RA BKN025 OVC035 07/06 A2966 RMK AO2 SLP045 P0003 T00720056=
200611030043 SPECI KPAE 030043Z 12009KT 7SM -RA BKN027 OVC035 07/06 A2965 RMK AO2 P0002=
200611030043 SPECI KPAE 030043Z 12009KT 7SM -RA BKN027 OVC035 07/06 A2965 RMK AO2 P0002=
200611030032 SPECI KPAE 030032Z 12009KT 4SM -RA BR SCT027 OVC036 07/06 A2966 RMK AO2 P0002=
200611030032 SPECI KPAE 030032Z 12009KT 4SM -RA BR SCT027 OVC036 07/06 A2966 RMK AO2 P0002=
200611030023 SPECI KPAE 030023Z 12010KT 5SM -RA BR BKN029 OVC038 07/06 A2966 RMK AO2 P0002=
200611030023 SPECI KPAE 030023Z 12010KT 5SM -RA BR BKN029 OVC038 07/06 A2966 RMK AO2 P0002=
200611022353 METAR KPAE 022353Z AUTO 14007KT 2 1/2SM -RA BR BKN027 OVC037 07/06 A2966 RMK AO2 SLP047 P0005 60014 T00720061 10072 20056 55007 TSNO=
200611022347 SPECI KPAE 022347Z 16007KT 2 1/2SM -RA BR BKN029 OVC037 07/06 A2967 RMK AO2 P0004=
200611022347 SPECI KPAE 022347Z 16007KT 2 1/2SM -RA BR BKN029 OVC037 07/06 A2967 RMK AO2 P0004=
200611022343 SPECI KPAE 022343Z 14007KT 4SM -RA BR SCT027 OVC037 07/06 A2966 RMK AO2 P0004=
200611022343 SPECI KPAE 022343Z 14007KT 4SM -RA BR SCT027 OVC037 07/06 A2966 RMK AO2 P0004=
200611022330 SPECI KPAE 022330Z 13009KT 2 1/2SM -RA BR SCT027 OVC039 07/06 A2965 RMK AO2 P0003=
200611022330 SPECI KPAE 022330Z 13009KT 2 1/2SM -RA BR SCT027 OVC039 07/06 A2965 RMK AO2 P0003=
200611022322 SPECI KPAE 022322Z 11009KT 1 3/4SM -RA BR SCT027 BKN032 OVC041 07/06 A2966 RMK AO2 P0002=
200611022322 SPECI KPAE 022322Z 11009KT 1 3/4SM -RA BR SCT027 BKN032 OVC041 07/06 A2966 RMK AO2 P0002=
200611022314 SPECI KPAE 022314Z 13008KT 2 1/2SM -RA BR BKN027 OVC034 07/06 A2967 RMK AO2 P0001=
200611022314 SPECI KPAE 022314Z 13008KT 2 1/2SM -RA BR BKN027 OVC034 07/06 A2967 RMK AO2 P0001=
200611022253 METAR KPAE 022253Z 12010KT 6SM -RA BR OVC036 07/06 A2966 RMK AO2 SLP045 P0003 T00720061=
200611022153 METAR KPAE 022153Z 13008KT 4SM -RA BR OVC034 07/06 A2968 RMK AO2 SLP054 P0001 T00720056=
200611022053 METAR KPAE 022053Z 12012KT 6SM -RA BR OVC040 07/05 A2969 RMK AO2 SLP055 P0004 60005 T00720050 58022=
200611021953 METAR KPAE 021953Z 13008KT 10SM -RA FEW004 OVC035 07/06 A2973 RMK AO2 RAE06B41 SLP068 P0000 T00720056=
200611021941 SPECI KPAE 021941Z 14007KT 10SM -RA FEW004 OVC035 07/05 A2973 RMK AO2 RAE06B41 P0000=
200611021941 SPECI KPAE 021941Z 14007KT 10SM -RA FEW004 OVC035 07/05 A2973 RMK AO2 RAE06B41 P0000=
200611021853 METAR KPAE 021853Z 12010KT 3SM -RA BR BKN004 OVC030 06/04 A2973 RMK AO2 SLP071 P0001 T00610044=
200611021823 SPECI KPAE 021823Z 12011KT 3SM -RA BR BKN004 OVC030 06/04 A2974 RMK AO2 P0001=
200611021823 SPECI KPAE 021823Z 12011KT 3SM -RA BR BKN004 OVC030 06/04 A2974 RMK AO2 P0001=
200611021753 METAR KPAE 021753Z 12005KT 3SM -RA BR FEW004 OVC032 06/04 A2975 RMK AO2 SLP078 P0002 60022 T00560044 10078 20050 56011=
200611021653 METAR KPAE 021653Z 12010KT 3SM -RA BR BKN039 BKN048 OVC060 05/04 A2975 RMK AO2 SLP078 P0010 T00500039=
200611021553 METAR KPAE 021553Z 11007KT 4SM -RA BR BKN046 OVC060 05/03 A2977 RMK AO2 SLP082 P0007 T00500033=
200611021453 METAR KPAE 021453Z 11007KT 6SM -RA OVC038 05/02 A2979 RMK AO2 RAB1354 SLP089 P0003 60003 T00500017 56023=
200611021353 METAR KPAE 021353Z AUTO 11007KT 10SM OVC040 08/M03 A2980 RMK AO2 RAB39E52 SLP095 P0000 T00781028=
200611021253 METAR KPAE 021253Z AUTO 13007KT 10SM BKN040 BKN048 OVC065 08/M05 A2982 RMK AO2 SLP101 T00781050=
200611021153 METAR KPAE 021153Z AUTO 11008KT 10SM OVC044 07/M07 A2986 RMK AO2 SLP112 60000 T00721067 10078 20067 58023=
200611021053 METAR KPAE 021053Z AUTO 11008KT 10SM OVC044 08/M07 A2988 RMK AO2 SLP121 T00781072=
200611020953 METAR KPAE 020953Z AUTO 12009KT 10SM OVC044 08/M08 A2991 RMK AO2 SLP132 T00781078=
200611020853 METAR KPAE 020853Z AUTO 11010KT 10SM OVC040 07/M07 A2993 RMK AO2 RAB33E52 SLP136 P0000 60000 T00721067 58014=
200611020753 METAR KPAE 020753Z AUTO 12009KT 10SM OVC065 07/M07 A2995 RMK AO2 SLP144 T00721072 401171006=
200611020653 METAR KPAE 020653Z AUTO 13009KT 10SM BKN075 OVC090 07/M08 A2996 RMK AO2 SLP148 T00721078=
200611020553 METAR KPAE 020553Z AUTO 14007KT 10SM BKN110 07/M08 A2997 RMK AO2 SLP151 T00721078 10111 20061 56001=
200611020453 METAR KPAE 020453Z AUTO 11006KT 10SM OVC110 07/M08 A2997 RMK AO2 SLP151 T00721078=
200611020400 METAR KPAE NIL=
200611020253 METAR KPAE 020253Z 13007KT 10SM SCT120 07/M05 A2997 RMK AO2 SLP154 T00721050 56008=
200611020153 METAR KPAE 020153Z 10004KT 10SM CLR 08/M03 A2998 RMK AO2 SLP154 T00781033=
200611020053 METAR KPAE 020053Z 36003KT 10SM CLR 06/M01 A2998 RMK AO2 SLP158 T00611006=
200611012353 METAR KPAE 012353Z AUTO 12004KT 10SM CLR 11/M08 A3000 RMK AO2 SLP161 T01111078 10117 20078 56016 TSNO=
200611012253 METAR KPAE 012253Z 00000KT 10SM CLR 12/M07 A3002 RMK AO2 SLP167 T01171067=
200611012153 METAR KPAE 012153Z 09006KT 10SM CLR 11/M07 A3003 RMK AO2 SLP171 T01111067=
200611012053 METAR KPAE 012053Z 10005KT 10SM CLR 11/M08 A3005 RMK AO2 SLP177 T01061083 58016=
200611011953 METAR KPAE 011953Z VRB05KT 10SM CLR 10/M08 A3007 RMK AO2 SLP184 T01001083=
200611011853 METAR KPAE 011853Z 00000KT 10SM CLR 09/M09 A3009 RMK AO2 SLP193 T00891094=
200611011753 METAR KPAE 011753Z 00000KT 10SM CLR 07/M09 A3009 RMK AO2 SLP194 T00721089 10078 21006 56006=
200611011653 METAR KPAE 011653Z 10005KT 10SM CLR 05/M07 A3010 RMK AO2 SLP198 T00501072=
200611011553 METAR KPAE 011553Z 00000KT 10SM CLR 03/M08 A3010 RMK AO2 SLP198 T00331083=
200611011453 METAR KPAE 011453Z 10003KT 10SM CLR 02/M07 A3011 RMK AO2 SLP202 T00171072 58006=
200611011353 METAR KPAE 011353Z AUTO 11005KT 10SM CLR 01/M06 A3012 RMK AO2 SLP205 T00061061=
200611011253 METAR KPAE 011253Z AUTO 00000KT 10SM CLR 02/M08 A3013 RMK AO2 SLP206 T00171078=
200611011153 METAR KPAE 011153Z AUTO 06004KT 10SM CLR 03/M08 A3013 RMK AO2 SLP207 T00281078 10039 20000 58015=
200611011053 METAR KPAE 011053Z AUTO 04005KT 10SM CLR 02/M06 A3015 RMK AO2 SLP214 T00171061=
200611010953 METAR KPAE 010953Z AUTO 00000KT 10SM CLR 00/M05 A3016 RMK AO2 SLP219 T00001050=
200611010853 METAR KPAE 010853Z AUTO 06005KT 10SM CLR 04/M08 A3018 RMK AO2 SLP223 T00391083 58009=
200611010753 METAR KPAE 010753Z AUTO VRB05KT 10SM CLR 03/M07 A3019 RMK AO2 SLP227 T00281067 400671017=
200611010653 METAR KPAE 010653Z AUTO 00000KT 10SM CLR 02/M04 A3020 RMK AO2 SLP232 T00171044=
200611010553 METAR KPAE 010553Z AUTO 00000KT 10SM CLR 03/M04 A3020 RMK AO2 SLP233 T00331044 10056 20017 56005=
200611010453 METAR KPAE 010453Z AUTO 03003KT 10SM CLR 03/M03 A3021 RMK AO2 SLP235 T00281028=
200611010353 METAR KPAE 010353Z 02005KT 10SM CLR 03/M03 A3021 RMK AO2 SLP237 T00331028=
200611010253 METAR KPAE 010253Z 01006KT 10SM CLR 04/M03 A3022 RMK AO2 SLP240 T00391033 56005=
200611010153 METAR KPAE 010153Z 02006KT 10SM CLR 04/M03 A3022 RMK AO2 SLP240 T00441033=
200611010053 METAR KPAE 010053Z 34005KT 10SM CLR 04/M03 A3022 RMK AO2 SLP240 T00441028=

# No short TAF reports from KPAE in databse.

###################################
#  large TAF from KPAE
###################################
200611302320 TAF KPAE 302320Z 010024 14007KT P6SM SCT008 BKN070
                      TEMPO 0004 BKN008 BKN040 FM0400 VRB03KT P6SM
                       BKN008 FM0800 VRB03KT 3SM BR OVC010 FM1200
                       VRB03KT 1SM BR OVC005
                      TEMPO 1216 1/2SM FG VV001 FM1800 VRB03KT
                       P6SM BKN010 FM2200 VRB03KT P6SM SCT015=
200611302300 KPAE 010403Z 010424 00000KT P6SM SCT010 BKN060
                      TEMPO 0408 5SM BR BKN010 OVC060 FM0800 VRB03KT
                       3SM BR OVC010 FM1200 VRB03KT 1SM BR OVC005
                       TEMPO 1216 1/2SM FG VV001 FM1800 VRB03KT
                       P6SM BKN010 FM2200 VRB03KT P6SM SCT015=
200611302229 KPAE 302229Z 302218 15008KT P6SM VCSH OVC008 FM0000 15005KT P6SM
                       SCT015 BKN040
                      TEMPO 0004 BKN015 BKN040 FM0400 VRB03KT P6SM
                       BKN015 FM0800 VRB03KT 3SM BR OVC010 FM1200
                       VRB03KT 1SM BR BKN008
                      TEMPO 1216 1/2SM FG VV001=
200611302006 KPAE 302006Z 302018 18005KT P6SM VCSH SCT005 BKN035
                      TEMPO 2024 4SM -SHRA BKN005 OVC035 FM0000
                       VRB03KT P6SM VCSH SCT015 BKN035 FM0800 VRB03KT
                       3SM BR BKN015 FM1200 VRB03KT 1SM BR BKN008
                       TEMPO 1216 1/2SM FG VV001=
200611301720 TAF KPAE 301720Z 301818 15006KT 5SM BR FEW003 BKN050
                      TEMPO 1820 1SM BR BKN003 OVC050 FM2000 VRB05KT
                       P6SM VCSH SCT020 BKN040
                      TEMPO 2022 1SM BR FM0800 VRB03KT 3SM BR BKN015
                       FM1200 VRB03KT 1SM BR BKN008
                      TEMPO 1216 1/2SM FG VV001=
200611301706 KPAE 301706Z 301712 15006KT 5SM BR FEW003 BKN050
                      TEMPO 1720 1SM BR BKN003 OVC050 FM2000 VRB05KT
                       P6SM VCSH SCT020 BKN040
                      TEMPO 2022 1SM BR FM0800 18006KT P6SM BKN015=
200611301551 KPAE 301551Z 301612 14005KT 1/4SM FG BKN001 OVC026 FM1800 VRB05KT
                       P6SM VCSH SCT020 BKN040
                      TEMPO 1822 1SM BR FM0800 18006KT P6SM BKN015=
200611301451 KPAE 301451Z 301512 15007KT 3/4SM BR FEW003 BKN026 BKN035
                      TEMPO 1518 4SM BR BKN003 OVC015 FM1800 27008KT
                       P6SM VCSH SCT020 BKN040 FM0800 18006KT P6SM
                       BKN020=
200611301234 KPAE 301234Z 301312 VRB05KT P6SM SCT005 BKN020
                      TEMPO 1316 4SM BR FM1800 27008KT P6SM VCSH
                       SCT020 BKN040 FM0800 18006KT P6SM BKN020=
200611301123 TAF KPAE 301123Z 301212 18010KT P6SM VCSH BKN015 OVC025
                      TEMPO 1216 4SM BR OVC012 FM1800 27008KT P6SM
                       VCSH SCT020 BKN040 FM0800 18006KT P6SM BKN020=
200611301059 KPAE 301059Z 301106 VRB06KT P6SM BKN006 OVC015 FM1600 24012KT P6SM
                       VCSH BKN014 BKN040=
200611300841 KPAE 300841Z 300906 17020G32KT P6SM -RA SCT020 BKN040
                      TEMPO 0912 4SM -RA BKN020 OVC040 FM1200 24012G22KT
                       P6SM -SHRA BKN020 BKN040 FM1800 27010KT
                       P6SM VCSH SCT020 BKN040=
200611300800 KPAE 300800Z 300806 17015G25KT 5SM -RA BKN010 OVC020 FM1000 22012G22KT
                       P6SM -SHRA BKN015 BKN030 FM1800 27010KT
                       P6SM VCSH SCT020 BKN040=
200611300520 TAF KPAE 300520Z 300606 15015KT 1SM -FZRASN OVC009 WS020/20045KT
                       FM1000 22012G22KT P6SM -SHRA BKN015 BKN030
                       FM1800 27010KT P6SM VCSH SCT020 BKN040=
200611300245 KPAE 300245Z 300324 14014KT P6SM SCT020 OVC040
                      TEMPO 0306 3SM -FZRASN OVC020 FM0600 14012KT
                       1SM -FZRAPLSN BR OVC007 WS020/19040KT FM1000
                       30008KT 3SM -SHRA OVC008 FM1800 VRB04KT
                       P6SM VCSH BKN010 OVC030=
200611292344 TAF KPAE 292344Z 300024 11009KT P6SM SCT040 BKN045 BKN090
                      TEMPO 0103 -SN FM0300 14012KT 3SM -SN BR
                       OVC010 FM0600 14012KT 1SM -FZRAPLSN BR OVC007
                       WS020/19040KT FM1000 30008KT 3SM -SHRA OVC008
                       FM1800 VRB04KT P6SM VCSH BKN010 OVC030=
200611292300 KPAE 300245Z 300324 14014KT P6SM SCT020 OVC040
                      TEMPO 0306 3SM -FZRASN OVC020 FM0600 14012KT
                       1SM -FZRAPLSN BR OVC007 WS020/19040KT FM1000
                       30008KT 3SM -SHRA OVC008 FM1800 VRB04KT
                       P6SM VCSH BKN010 OVC030=
200611292101 KPAE 292101Z 292118 13008KT 6SM -SN OVC025 FM2300 14008KT P6SM
                       OVC040
                      TEMPO 0103 -SN FM0300 14012KT 3SM -SN BR
                       OVC010 FM0600 14012KT 1SM -SN BR OVC007
                       WS020/19040KT FM1100 30008KT 3SM -SHSNRA
                       OVC008=
200611291744 TAF KPAE 291744Z 291818 15005KT P6SM OVC090 FM0000 14008KT P6SM
                       OVC040
                      TEMPO 0103 -SN FM0300 14012KT 3SM -SN BR
                       OVC010 FM0600 14012KT 1SM -SN BR OVC007
                       WS020/19040KT FM1100 30008KT 3SM -SHSNRA
                       OVC008=
200611291120 TAF KPAE 291120Z 291212 VRB04KT P6SM SCT150 FM1600 09006KT P6SM
                       BKN120 FM2000 12012KT P6SM OVC080 FM0000
                       14015KT P6SM OVC040
                      TEMPO 0206 4SM -SN FM0600 14015G25KT 2SM
                       -SN OVC020 FM0900 18017G27KT 3SM RA BR OVC010=
200611290520 TAF KPAE 290520Z 290606 02005KT P6SM SCT200 FM1500 10006KT P6SM
                       BKN150 FM2000 12008KT P6SM OVC080 FM0000
                       16012KT 3SM -SN OVC040=
200611290045 TAF AMD KPAE 290045Z 290124 32008KT P6SM SCT015
                      TEMPO 0103 BKN015 FM0600 02008KT P6SM SKC
                       FM1500 11005KT P6SM BKN200 FM2000 11008KT
                       P6SM OVC060=
200611282340 TAF KPAE 282340Z 290024 32008KT P6SM SCT011 FM0600 02008KT P6SM
                       SKC FM1500 11005KT P6SM BKN200 FM2000 11008KT
                       P6SM OVC060=
200611282300 KPAE 290045Z 290124 32008KT P6SM SCT015
                      TEMPO 0103 BKN015 FM0600 02008KT P6SM SKC
                       FM1500 11005KT P6SM BKN200 FM2000 11008KT
                       P6SM OVC060=
200611282034 KPAE 282034Z 282118 32011KT P6SM SCT010
                      TEMPO 2123 BKN010 FM0600 02008KT P6SM SKC=
200611281735 TAF KPAE 281735Z 281818 32011KT P6SM SCT010 FM0600 02008KT P6SM
                       SKC=
200611281130 TAF KPAE 281130Z 281212 32014KT P6SM SCT020 BKN050
                      TEMPO 1215 BKN020 BKN050 FM2000 36014KT P6SM
                       SCT060 FM0600 04008KT P6SM SKC=
200611281003 KPAE 281003Z 281006 32014KT P6SM SCT008 BKN050
                      TEMPO 1013 BKN008 BKN050 FM1900 36015KT P6SM
                       SCT030 BKN060 FM2200 02010KT P6SM SCT060=
200611280701 KPAE 280701Z 280706 34010KT P6SM SCT012 BKN050
                      TEMPO 0710 BKN012 FM1000 36012KT P6SM SCT020
                       BKN050 FM1500 02012KT P6SM SCT030=
200611280520 TAF KPAE 280520Z 280606 34010KT P6SM SCT005 BKN012 BKN030
                      TEMPO 0610 BKN005 OVC012 FM1000 36012KT P6SM
                       SCT020 BKN030 FM1500 02012KT P6SM SCT030=
200611280136 KPAE 280136Z 280224 33012KT P6SM -SHSN OVC002 FM1000 36012KT P6SM
                       -SHSN BKN008 OVC030 FM1400 36012KT P6SM
                       SCT015=
200611272320 TAF KPAE 272320Z 280024 35006KT P6SM VCSH BKN005 OVC015 FM0100
                       35010KT 1SM -SHSN BKN003 OVC010 FM0600 36012KT
                       P6SM -SHSN BKN015 OVC030 FM1400 36012KT
                       P6SM SCT015=
200611272300 KPAE 280136Z 280224 33012KT P6SM -SHSN OVC002 FM1000 36012KT P6SM
                       -SHSN BKN008 OVC030 FM1400 36012KT P6SM
                       SCT015=
200611272054 KPAE 272054Z 272118 30005KT P6SM SCT009 BKN017 OVC027 FM2300 33006KT
                       1SM -SHSN BKN005 OVC015 FM0700 34011KT P6SM
                       VCSH BKN020 OVC030=
200611271736 TAF KPAE 271736Z 271818 20008KT P6SM VCSH SCT010 BKN030 FM1900
                       VRB05KT 1SM -SHSN BR OVC004 FM2300 33006KT
                       1SM -SHSN BKN005 OVC015 FM0400 34011KT P6SM
                       VCSH BKN020 OVC030=
200611271516 KPAE 271516Z 271512 19006KT P6SM OVC016
                      TEMPO 1519 1SM -SHSN BR OVC004 FM1900 VRB05KT
                       1SM -SHSN BR OVC004 FM2200 33006KT P6SM
                       -SHSN BKN012 OVC020 FM0000 34011KT P6SM
                       VCSH BKN020 OVC030=
200611271152 TAF KPAE 271152Z 271212 18007KT P6SM -SHSN SCT005 OVC015 FM1400
                       VRB05KT 5SM -SHSN BR BKN005 OVC012
                      TEMPO 1619 1SM -SHSN BR OVC004 FM2100 33006KT
                       P6SM -SHSN BKN012 OVC020 FM0000 34011KT
                       P6SM VCSH BKN020 OVC030=
200611270702 KPAE 270702Z 270706 VRB03KT 6SM BR SCT020 OVC030
                      TEMPO 0711 2SM -SHSN BKN015 OVC025 FM1100
                       VRB03KT 6SM -SHSN BKN012 OVC020 FM1800 VRB03KT
                       3SM -SHSN OVC007=
200611270535 TAF KPAE 270535Z 270606 VRB03KT 6SM BR SCT003 OVC015
                      TEMPO 0608 2SM -SHSN OVC003 FM0800 VRB03KT
                       4SM -SHSN BKN003 OVC015 FM1800 36011KT 5SM
                       -SHSN BKN020=
200611262330 TAF KPAE 262330Z 270024 35009KT 3/4SM -SN BKN003 OVC010
                      TEMPO 0004 1/4SM +SN VV001 FM0800 01006KT
                       2SM -SN BKN010 OVC020 FM1800 36011KT 5SM
                       -SHSN BKN020=
200611262300 KPAE 262300Z 262318 35012KT 3/4SM -SN BKN006 OVC012
                      TEMPO 2302 1/4SM +SN VV001 FM0200 36009KT
                       1SM -SN OVC006 FM0600 36009KT 4SM -SHSN
                       OVC012
                      TEMPO 0812 3/4SM -SHSN VV002=
200611262120 KPAE 262120Z 262118 10007KT P6SM -RASN SCT010 OVC030
                      TEMPO 2123 2SM -SN SCT003 OVC010 FM2300 02008KT
                       3SM -SN SCT006 OVC015
                      TEMPO 2324 1 1/2SM -SN BKN006 OVC015 FM0000
                       02008KT 3SM -SN SCT006 OVC015 FM0100 36009KT
                       1SM -SN OVC006 FM0600 36009KT 4SM -SHSN
                       OVC012
                      TEMPO 0812 3/4SM -SHSN VV002=
200611261944 KPAE 261944Z 262018 10009KT 4SM -SN SCT005 SCT018 OVC030
                      TEMPO 2022 2SM -SN SCT005 OVC015 FM2200 07008KT
                       3SM -SN SCT006 OVC015
                      TEMPO 2224 1 1/2SM -SN BKN006 OVC015 FM0000
                       02008KT 3SM -SN SCT006 OVC015 FM0100 36009KT
                       1SM -SN OVC006 FM0600 36009KT 4SM -SHSN
                       OVC012
                      TEMPO 0812 3/4SM -SHSN VV002=
200611261802 TAF KPAE 261802Z 261818 10012KT 1 1/2SM -SN SCT003 OVC010
                      TEMPO 1821 3/4SM -SN VV003 FM2100 07008KT
                       3SM -SN SCT006 OVC015
                      TEMPO 2123 1 1/2SM -SN BKN006 OVC015 FM2300
                       02008KT 3SM -SN SCT006 OVC015 FM0000 36009KT
                       1SM -SN OVC006 FM0600 36009KT 4SM -SHSN
                       OVC012
                      TEMPO 0812 3/4SM -SHSN VV002=
200611261508 KPAE 261508Z 261512 10013KT 2SM -SN OVC010
                      TEMPO 1519 3/4SM -SN VV003 FM1900 11011KT
                       5SM -SN BKN010 OVC020 FM2100 16015KT P6SM
                       -RASN BKN008 OVC015 FM2300 21014G25KT P6SM
                       -SHRA BKN015 OVC030=
200611261152 TAF KPAE 261152Z 261212 10015KT P6SM -RA OVC050 FM1300 11010KT
                       P6SM -RA BKN022 OVC035 FM1400 09010KT P6SM
                       -RASN BKN012 OVC025
                      TEMPO 1416 4SM -SN BR OVC008 FM1700 11011KT
                       P6SM -RA BKN010 OVC020 FM2000 16015KT P6SM
                       -RA BKN008 OVC015 FM2300 21014G25KT P6SM
                       -SHRA BKN015 OVC030=
200611260551 TAF KPAE 260551Z 260606 13012KT P6SM BKN070 OVC100
                      TEMPO 0609 -RA FM0900 13012KT P6SM -RA SCT020
                       OVC040 FM1300 11015KT P6SM -RASN SCT007
                       OVC015
                      TEMPO 1315 2SM -SN BR BKN007 OVC015 FM1800
                       15012KT 5SM -RASN BKN007 OVC020 FM0000 19010KT
                       P6SM -SHRA BKN020 OVC040=
200611260112 TAF AMD KPAE 260112Z 260124 13009KT P6SM BKN050 OVC100 FM0200 12009KT
                       P6SM SCT020 OVC035
                      TEMPO 0206 -RASN BKN020 OVC035 FM0800 10013KT
                       P6SM -RASN SCT020 OVC035
                      PROB30 1014 4SM -SN OVC015 FM1400 10011KT
                       P6SM -RASN SCT007 OVC020
                      PROB30 1418 2SM -SN OVC007 FM1800 07006KT
                       3SM RASN BKN007 OVC020
                      PROB30 1822 1SM -SN OVC003 FM2200 33009G15KT
                       5SM SHRASN BKN007 OVC020
                      PROB30 2224 3/4SM -SHSN VV003=
200611252344 TAF KPAE 252344Z 260024 15008KT P6SM SCT050 BKN100 OVC140 FM0200
                       13008KT P6SM OVC050 FM0800 12013KT P6SM
                       -RA SCT020 OVC050
                      PROB30 1014 -RASN OVC020 FM1400 10011KT P6SM
                       -RASN SCT007 OVC020
                      PROB30 1418 2SM -SN OVC007 FM1800 07006KT
                       3SM RASN BKN007 OVC020
                      PROB30 1822 1SM -SN OVC003 FM2200 33009G15KT
                       5SM SHRASN BKN007 OVC020
                      PROB30 2224 3/4SM -SHSN VV003=
200611252300 KPAE 260112Z 260124 13009KT P6SM BKN050 OVC100 FM0200 12009KT P6SM
                       SCT020 OVC035
                      TEMPO 0206 -RASN BKN020 OVC035 FM0800 10013KT
                       P6SM -RASN SCT020 OVC035
                      PROB30 1014 4SM -SN OVC015 FM1400 10011KT
                       P6SM -RASN SCT007 OVC020
                      PROB30 1418 2SM -SN OVC007 FM1800 07006KT
                       3SM RASN BKN007 OVC020
                      PROB30 1822 1SM -SN OVC003 FM2200 33009G15KT
                       5SM SHRASN BKN007 OVC020
                      PROB30 2224 3/4SM -SHSN VV003=
200611252019 KPAE 252019Z 252018 16006KT P6SM SCT018 SCT050 BKN140
                      TEMPO 2022 BKN018 BKN050 OVC140 FM0000 16008KT
                       P6SM SCT050 OVC100
                      PROB30 0508 -RA OVC050 FM0800 14012KT P6SM
                       -RA SCT020 OVC050
                      PROB30 1014 -RASN OVC020 FM1400 11012KT P6SM
                       -RASN SCT007 OVC020
                      PROB30 1418 2SM -SN OVC007=
200611251747 TAF KPAE 251747Z 251818 VRB03KT P6SM SCT015 BKN030 OVC200
                      TEMPO 1820 BKN015 OVC030 FM2000 18006KT P6SM
                       SCT050 BKN140 FM0000 16008KT P6SM SCT050
                       OVC100
                      PROB30 0508 -RA OVC050 FM0800 14012KT P6SM
                       -RA SCT020 OVC050
                      PROB30 1014 -RASN OVC020 FM1400 11012KT P6SM
                       -RASN SCT007 OVC020
                      PROB30 1418 2SM -SN OVC007=
200611251508 KPAE 251508Z 251512 31005KT P6SM SCT012 OVC060
                      TEMPO 1518 -SHRASN BKN012 OVC035 FM1900 20006KT
                       P6SM BKN015 OVC025 FM2000 15008KT P6SM SCT025
                       BKN200 FM0200 14009KT P6SM BKN080 OVC150
                       FM0500 14012KT P6SM -RA BKN045 OVC060=
200611251219 KPAE 251219Z 251212 21005KT P6SM SCT004 BKN012 OVC040
                      TEMPO 1215 BKN004 BKN012 OVC040 FM1500 21005KT
                       P6SM BKN008 OVC016 FM1900 20006KT P6SM BKN015
                       OVC025 FM2000 15008KT P6SM SCT025 BKN200
                       FM0200 14009KT P6SM BKN080 OVC150 FM0500
                       14012KT P6SM -RA BKN045 OVC060=
200611251144 TAF KPAE 251144Z 251212 21005KT P6SM BKN004 BKN012 OVC040 FM1500
                       21005KT P6SM BKN008 OVC016 FM1900 20006KT
                       P6SM BKN015 OVC025 FM2000 15008KT P6SM SCT025
                       BKN200 FM0200 14009KT P6SM BKN080 OVC150
                       FM0500 14012KT P6SM -RA BKN045 OVC060=
200611250702 KPAE 250702Z 250706 17005KT P6SM SCT011 SCT060
                      TEMPO 0711 BKN011 BKN060 FM1100 17005KT P6SM
                       BKN012 BKN060 FM1600 15006KT P6SM SCT015
                       SCT060
                      TEMPO 1618 BKN015 BKN060 FM2000 15008KT P6SM
                       SCT025 BKN200 FM0100 14009KT P6SM BKN080
                       OVC150 FM0500 14012KT P6SM -RA BKN040 OVC060=
200611250544 TAF KPAE 250544Z 250606 18007KT P6SM SCT060 FM0900 17005KT P6SM
                       SCT012 SCT060
                      TEMPO 1012 BKN012 BKN060 FM1200 17005KT P6SM
                       BKN012 BKN060 FM1600 15006KT P6SM SCT015
                       SCT060
                      TEMPO 1618 BKN015 BKN060 FM2000 15008KT P6SM
                       SCT025 BKN200 FM0100 14009KT P6SM BKN080
                       OVC150 FM0500 14012KT P6SM -RA BKN040 OVC060=
200611242340 TAF KPAE 242340Z 250024 19009KT P6SM VCSH SCT020 BKN040 BKN080
                       TEMPO 0002 BKN020 OVC040 FM0200 19006KT
                       P6SM SCT020 BKN050
                      TEMPO 0206 BKN020 BKN050 FM0600 17006KT P6SM
                       BKN012 BKN040 FM1800 17008KT P6SM BKN020
                       BKN040
                      PROB30 1821 -RA FM2100 15010KT P6SM BKN020
                       OVC040
                      TEMPO 2124 -RA=
200611242037 KPAE 242037Z 242118 18010KT P6SM VCSH SCT015 BKN025 BKN060
                      TEMPO 2123 BKN015 OVC030 FM2300 18007KT P6SM
                       VCSH BKN030 BKN060=
200611241740 TAF KPAE 241740Z 241818 18010KT P6SM BKN018 BKN090 FM2000 18010KT
                       P6SM VCSH BKN022 BKN060 FM2300 18007KT P6SM
                       VCSH BKN030 BKN060=
200611241602 KPAE 241602Z 241612 18011KT P6SM BKN015 BKN030 FM1800 18011KT P6SM
                       SCT022 SCT040 FM2200 20008KT P6SM -SHRA
                       BKN030 FM0500 20006KT P6SM VCSH BKN030=
200611241133 TAF KPAE 241133Z 241212 18012KT P6SM SCT015 BKN070
                      TEMPO 1216 -SHRA BKN016 FM1600 19009KT P6SM
                       -SHRA BKN022 FM2200 20008KT P6SM -SHRA BKN030
                       FM0500 20006KT P6SM VCSH BKN030=
200611240521 TAF KPAE 240521Z 240606 17014KT P6SM -SHRA BKN015 BKN030
                      TEMPO 0610 SCT017 BKN035 FM1000 17012KT P6SM
                       -SHRA BKN012 FM1500 16008KT P6SM -SHRA BKN018
                       FM2200 17008KT P6SM -SHRA BKN020=
200611232336 TAF KPAE 232336Z 240024 17014KT P6SM -SHRA OVC012
                      TEMPO 0002 4SM -SHRA BR OVC010 FM0900 17010KT
                       P6SM -SHRA OVC007 FM1200 16008KT P6SM -SHRA
                       OVC015=
200611231738 TAF KPAE 231738Z 231818 16015G23KT P6SM -RA SCT015 BKN020 OVC040
                       FM2100 16013KT 4SM -RA BR OVC015 FM0900
                       16009KT P6SM SHRA OVC050=
200611231136 TAF KPAE 231136Z 231212 16009KT P6SM SCT014 BKN030
                      TEMPO 1216 -SHRA BKN014 OVC025 FM1600 16009KT
                       P6SM VCSH SCT020 BKN040 FM2000 16009KT P6SM
                       -RA SCT020 OVC040=
200611231053 KPAE 231053Z 231106 16009KT P6SM SCT008 BKN018
                      TEMPO 1113 -SHRA BKN008 OVC018 FM1300 16009KT
                       P6SM -SHRA OVC025 FM2000 16009KT P6SM -RA
                       OVC040=
200611230536 TAF KPAE 230536Z 230606 17018G25KT P6SM SCT018 BKN040
                      TEMPO 0610 -SHRA BKN018 OVC030 FM1000 17014G24KT
                       P6SM -SHRA OVC025 FM2000 16011KT P6SM -RA
                       OVC040=
200611222336 TAF KPAE 222336Z 230024 13012KT P6SM -RA BKN030 OVC035 FM0600 16011KT
                       5SM -SHRA BR OVC015 FM1000 17015G25KT P6SM
                       -SHRA OVC025 FM1600 16011KT P6SM -SHRA OVC040=
200611221723 TAF KPAE 221723Z 221818 14011KT P6SM SCT035 BKN090 BKN200 FM2100
                       15012G18KT P6SM -SHRA VCTS SCT025CB OVC040
                       TEMPO 2202 5SM -SHRA OVC025 FM0400 15008KT
                       P6SM -SHRA SCT020 OVC035=
200611221139 TAF KPAE 221139Z 221212 15008KT P6SM -SHRA SCT012 BKN022 OVC035
                       TEMPO 1215 5SM -SHRA FM1500 15008KT P6SM
                       SCT030 BKN050 BKN070
                      TEMPO 1518 -SHRA BKN030 OVC050 FM2200 15012G18KT
                       P6SM -RA VCTS SCT025CB OVC040
                      TEMPO 2202 5SM -RA OVC025 FM0400 15008KT
                       P6SM -RA SCT020 OVC035=
200611220546 TAF KPAE 220546Z 220606 15010KT P6SM -SHRA SCT025 OVC040
                      TEMPO 0610 5SM -SHRA BKN025 OVC040 FM1300
                       15010KT P6SM -SHRA SCT030 BKN050 BKN070
                       FM2100 15010KT P6SM -SHRA SCT030 OVC045
                       TEMPO 2101 5SM -SHRA OVC030=
200611212340 TAF KPAE 212340Z 220024 17020G29KT P6SM -SHRA SCT040 BKN090 FM0600
                       15012KT P6SM VCSH OVC050 FM1500 14008KT
                       P6SM OVC025 FM2100 15009KT P6SM -SHRA OVC015=
200611212159 KPAE 212159Z 212218 19013KT 3SM -TSRA FEW011CB BKN021 OVC030 FM2300
                       16012KT P6SM SHRA OVC045 FM0600 14008KT
                       P6SM RA OVC045 FM1500 15009KT P6SM RA OVC020=
200611211736 TAF KPAE 211736Z 211818 16020G30KT P6SM -RA SCT020 BKN025 OVC035
                       TEMPO 1821 4SM -RA SCT025 OVC045 FM2100
                       17018KT P6SM SHRA OVC045 FM0000 16012KT
                       P6SM SHRA OVC045 FM0600 14008KT P6SM RA
                       OVC045 FM1500 15009KT P6SM RA OVC020=
200611211141 TAF KPAE 211141Z 211212 15015G25KT P6SM -RA SCT025 OVC040
                      TEMPO 1418 4SM -RA BKN025 FM2100 18012KT
                       P6SM -RA SCT025 BKN040 OVC060 FM0300 VRB03KT
                       5SM -RA SCT012 OVC020 FM0900 13008KT P6SM
                       -RA SCT025 OVC040=
200611210532 TAF KPAE 210532Z 210606 13010KT P6SM SCT025 BKN040 OVC070 FM0800
                       15010KT P6SM -RA SCT020 OVC035
                      TEMPO 1012 5SM -RA BKN020 OVC035 FM1200 15010KT
                       P6SM SCT025 BKN050 BKN080 FM1800 17012G20KT
                       P6SM -RA OVC040=
200611202359 KPAE 202359Z 210024 17019G29KT 5SM -RA SCT035 OVC050 FM0100 20014G24KT
                       P6SM -RA OVC040 FM0400 20010KT P6SM -SHRA
                       OVC035 FM1200 15010G20KT P6SM -RA OVC045
                       FM1800 16015G25KT P6SM -RA OVC045=
200611202342 TAF KPAE 202342Z 210024 18012KT P6SM -RA OVC045 FM0100 20014G24KT
                       P6SM -RA OVC040 FM0400 20010KT P6SM -SHRA
                       OVC035 FM1200 15010G20KT P6SM -RA OVC045
                       FM1800 16015G25KT P6SM -RA OVC045=
200611202300 KPAE 202300Z 202318 18012KT P6SM -RA OVC045 FM0100 20014G24KT P6SM
                       -RA OVC040 FM0400 20010KT P6SM -SHRA OVC035=
200611201733 TAF KPAE 201733Z 201818 16013G21KT P6SM SCT017 BKN027 FM2100 16012G22KT
                       P6SM BKN030 OVC090 FM0100 14015KT P6SM -RA
                       OVC040=
200611201136 TAF KPAE 201136Z 201212 14010KT P6SM -SHRA SCT018 OVC035
                      TEMPO 1214 4SM -SHRA BKN018 OVC035 FM1700
                       14010KT P6SM SCT050 BKN090 FM0100 14015KT
                       P6SM -RA OVC040=
200611200535 TAF KPAE 200535Z 200606 14008KT P6SM SCT008 BKN200
                      TEMPO 0608 BKN008 FM0900 14008KT P6SM BKN050
                       OVC080 FM1400 14012KT P6SM SCT050 BKN090
                       FM0100 14015KT P6SM -RA OVC040=
200611192341 TAF KPAE 192341Z 200024 19007KT P6SM SCT018 BKN040 OVC090
                      TEMPO 0003 -SHRA BKN018 OVC040 FM0300 16005KT
                       P6SM SCT030 BKN060 OVC200 FM0800 14009KT
                       P6SM BKN050 OVC080
                      PROB30 0912 -SHRA FM1200 15010KT P6SM -SHRA
                       BKN045 OVC080 FM1600 16012KT P6SM SCT050
                       BKN090 FM2300 16015KT P6SM -RA OVC045=
200611192233 KPAE 192233Z 192318 17017G24KT P6SM SCT022 OVC080 FM0000 18010KT
                       P6SM -SHRA SCT012 BKN020 BKN040 FM0400 14009KT
                       P6SM SCT030 BKN045 FM1200 14011KT P6SM -RA
                       BKN035 OVC080=
200611191935 KPAE 191935Z 192018 15013G23KT 6SM RA SCT008 OVC020
                      TEMPO 2021 3SM +RA BR BKN008 OVC015 FM2100
                       16015G28KT 6SM RA SCT010 BKN018 OVC040 FM0000
                       18015KT P6SM -SHRA SCT012 BKN020 BKN040
                       FM0400 14009KT P6SM SCT030 BKN045 FM1200
                       14011KT P6SM -RA BKN035 OVC080=
200611191735 TAF KPAE 191735Z 191818 15013G23KT 6SM RA SCT030 OVC060
                      TEMPO 1820 3SM +RA BR OVC030 FM2000 16015G28KT
                       6SM RA BKN019 OVC040
                      TEMPO 2022 3SM +RA FM0000 18015KT P6SM -SHRA
                       SCT012 BKN020 BKN040 FM0400 14009KT P6SM
                       SCT030 BKN045 FM1200 14011KT P6SM -RA BKN035
                       OVC080=
200611191132 TAF KPAE 191132Z 191212 12012KT P6SM OVC050 FM1600 15012G20KT P6SM
                       -RA OVC040 FM2200 18012KT P6SM -RA BKN012
                       OVC020 FM0100 18012KT P6SM -SHRA SCT012
                       BKN020 BKN040 FM0400 14010KT P6SM SCT030
                       BKN045=
200611190537 TAF KPAE 190537Z 190606 12012KT P6SM SCT050 BKN100 OVC150 FM1300
                       12012KT P6SM SCT040 OVC070 FM1600 15012G20KT
                       P6SM -RA BKN040 OVC070 FM2200 18012KT P6SM
                       -RA BKN012 OVC020 FM0100 18012KT P6SM -SHRA
                       SCT012 BKN020 BKN040=
200611182327 TAF KPAE 182327Z 190024 13007KT P6SM BKN120 OVC200 FM0800 15012KT
                       P6SM BKN080 OVC120 FM1400 15014G25KT P6SM
                       -RA OVC045 FM2100 18012G20KT P6SM -RA BKN020
                       OVC045=
200611181740 TAF KPAE 181740Z 181818 13008KT P6SM BKN250 FM0200 15009KT P6SM
                       BKN120 OVC200 FM0800 15013KT P6SM BKN080
                       OVC120 FM1500 15014G22KT P6SM -RA OVC060=
200611181132 TAF KPAE 181132Z 181212 15012KT P6SM BKN035 OVC050 FM1600 15008KT
                       P6SM SCT035 BKN050 BKN100 FM2100 15008KT
                       P6SM BKN070 BKN150=
200611180538 TAF KPAE 180538Z 180606 15012KT P6SM BKN060 OVC100 FM1400 15008KT
                       P6SM SCT120 BKN200 FM0200 15012KT P6SM SCT070
                       BKN120 OVC200=
200611172330 TAF KPAE 172330Z 180024 16014KT P6SM BKN060 BKN080
                      TEMPO 0104 -SHRA BKN040 OVC080 FM0800 15008KT
                       P6SM SCT050 BKN120 FM1600 14006KT P6SM BKN120=
200611171725 TAF KPAE 171725Z 171818 12008KT P6SM BKN035 BKN120 FM2300 15006KT
                       P6SM BKN050 BKN120 FM0800 14005KT P6SM SCT050
                       BKN120=
200611171120 TAF KPAE 171120Z 171212 12010KT P6SM SCT060 SCT120 FM1500 14008KT
                       P6SM VCSH SCT040 BKN070 FM1800 16008KT P6SM
                       -SHRA BKN035 OVC050=
200611170520 TAF KPAE 170520Z 170606 12010KT P6SM SCT060 SCT120 FM1000 14008KT
                       P6SM VCSH SCT040 BKN070 FM1800 16008KT P6SM
                       -SHRA BKN035 OVC050=
200611162337 TAF KPAE 162337Z 170024 17016KT P6SM BKN060 FM0200 14012KT P6SM
                       SCT040 BKN120 FM1000 14008KT P6SM VCSH SCT040
                       BKN070 FM2000 16008KT P6SM -SHRA BKN020
                       OVC050=
200611161730 TAF KPAE 161730Z 161818 13010KT P6SM SCT080 FM2000 16011KT P6SM
                       SCT045 BKN120
                      TEMPO 2101 BKN045 FM0200 14012KT P6SM SCT040
                       BKN120 FM0800 17006KT P6SM VCSH BKN050 OVC110=
200611161518 KPAE 161518Z 161512 12007KT P6SM SCT015
                      TEMPO 1518 BKN015 FM1800 15011KT P6SM SCT030
                       BKN050
                      TEMPO 2024 -SHRA BKN030=
200611161120 TAF KPAE 161120Z 161212 13008KT P6SM SCT030 BKN050
                      TEMPO 1214 VRB10KT 5SM SHRA BR BKN025 FM1800
                       15011KT P6SM SCT030 BKN050
                      TEMPO 2024 -SHRA BKN030=
200611160842 KPAE 160842Z 160906 10010KT P6SM -SHRA SCT025 BKN040
                      TEMPO 0911 4SM SHRA SCT012 OVC025 FM1100
                       27010KT P6SM -SHRA SCT025 BKN035 FM1300
                       20006KT P6SM SCT035 BKN070=
200611160520 TAF KPAE 160520Z 160606 33012KT P6SM -SHRA SCT012 OVC025
                      TEMPO 0610 2SM SHRA SCT006 BKN012 OVC025
                       FM1000 33011KT P6SM -SHRA SCT025 BKN035
                       TEMPO 1012 4SM SHRA OVC025 FM1300 20006KT
                       P6SM SCT035 BKN070=
200611160331 TAF AMD KPAE 160331Z 160424 35010G15KT P6SM -SHRA SCT009 SCT030
                       BKN050 WS010/27040KT
                      TEMPO 0405 2SM RA BR OVC004 FM0600 30008KT
                       P6SM -SHRA BKN025 OVC040 FM1200 17006KT
                       P6SM VCSH SCT035 BKN070=
200611152335 TAF KPAE 152335Z 160024 17024G36KT 5SM -RA BR SCT014 BKN035 OVC050
                       WS010/19050KT
                      TEMPO 0004 2SM RA BR BKN014 OVC030 FM0400
                       18020G30KT 5SM -SHRA BKN030 BKN060 FM0800
                       30008KT P6SM -SHRA BKN025 OVC040 FM1200
                       17006KT P6SM VCSH SCT035 BKN070=
200611152300 KPAE 160331Z 160424 35010G15KT P6SM -SHRA SCT009 SCT030 BKN050
                       WS010/27040KT
                      TEMPO 0405 2SM RA BR OVC004 FM0600 30008KT
                       P6SM -SHRA BKN025 OVC040 FM1200 17006KT
                       P6SM VCSH SCT035 BKN070=
200611151738 TAF KPAE 151738Z 151818 11014G22KT P6SM -RA SCT014 BKN023 OVC030
                       WS010/19050KT
                      TEMPO 1821 2SM -RA BR FM2100 14026G40KT 3SM
                       RA BR OVC016 WS010/19050KT FM0200 18020G30KT
                       5SM -SHRA BKN030 BKN060 FM0400 30008KT P6SM
                       -SHRA BKN025 OVC040 FM1000 17006KT P6SM
                       -SHRA BKN035 BKN070=
200611151359 KPAE 151359Z 151412 16018G28KT 4SM -RA BR BKN004 OVC020 WS010/19040KT
                       FM1600 16025G38KT 4SM RA BR OVC020 WS010/19050KT
                       FM0100 23020G30KT 5SM -SHRA BKN030 BKN060
                       FM0600 20010KT P6SM -SHRA BKN035 BKN060=
200611151132 TAF KPAE 151132Z 151212 14013G22KT P6SM -RA OVC030 FM1400 16020G28KT
                       P6SM -RA OVC020 WS010/19040KT FM1900 16025G38KT
                       4SM RA BR OVC020 WS010/19050KT FM0100 23020G30KT
                       5SM -SHRA BKN030 BKN060 FM0600 20010KT P6SM
                       -SHRA BKN035 BKN060=
200611150537 TAF KPAE 150537Z 150606 14010KT P6SM VCSH BKN040 OVC100 FM0900
                       15013KT P6SM -RA OVC030 FM1300 16020G28KT
                       P6SM -RA OVC020 WS010/19040KT FM1900 16025G38KT
                       4SM RA BR OVC020 WS010/19050KT FM0100 23020G30KT
                       5SM -SHRA BKN030 BKN060 FM0400 20015KT P6SM
                       -SHRA BKN035 BKN060=
200611142323 TAF KPAE 142323Z 150024 15014KT P6SM VCSH BKN040 OVC100 FM0900
                       15020G30KT P6SM -RA OVC030 FM1500 15025G35KT
                       4SM RA BR OVC020 WS010/19050KT FM2200 23015G25KT
                       5SM -SHRA BKN030 BKN060=
200611141720 TAF KPAE 141720Z 141818 14008KT P6SM SCT011 BKN200 FM2000 16010KT
                       P6SM SCT040 OVC120 FM0400 14014G22KT P6SM
                       -RA BKN040 OVC070 FM1000 14020G30KT P6SM
                       -RA OVC030=
200611141404 KPAE 141404Z 141412 15007KT P6SM SCT010 FM1800 15010KT P6SM SCT040
                       OVC120 FM0400 14014G22KT P6SM -RA BKN040
                       OVC070 FM1000 14020G30KT P6SM -RA OVC030=
200611141238 KPAE 141238Z 141312 18005KT P6SM SCT012 SCT045
                      TEMPO 1315 BKN012 FM1800 15010KT P6SM SCT040
                       OVC120 FM0400 14014G22KT P6SM -RA BKN040
                       OVC070 FM1000 14020G30KT P6SM -RA OVC030=
200611141120 TAF KPAE 141120Z 141212 18005KT P6SM OVC003 FM1500 16005KT P6SM
                       BKN006 BKN012 FM1700 16006KT P6SM SCT015
                       SCT050 FM1900 15010KT P6SM SCT040 OVC120
                       FM0400 14014G22KT P6SM -RA BKN040 OVC070
                       FM1000 14020G30KT P6SM -RA OVC030=
200611141007 KPAE 141007Z 141006 18005KT P6SM OVC003 FM1500 16005KT P6SM BKN006
                       BKN012 FM1700 16006KT P6SM SCT015 SCT050
                       FM1900 15012KT P6SM SCT040 OVC120 FM0400
                       14014G22KT P6SM -RA OVC040=
200611140527 TAF KPAE 140527Z 140606 17012KT P6SM VCSH SCT025 BKN035 OVC050
                       TEMPO 0609 -SHRA SCT012 BKN022 OVC040 FM0900
                       15006KT P6SM BKN035 BKN080 FM2000 15012KT
                       P6SM SCT040 OVC120 FM0400 14014G22KT P6SM
                       -RA OVC040=
200611140142 TAF AMD KPAE 140142Z 140224 17012KT P6SM VCSH SCT025 OVC045
                      TEMPO 0408 -SHRA SCT012 BKN022 OVC040 FM0800
                       15006KT P6SM BKN035 BKN080 FM2000 15012KT
                       P6SM SCT040 OVC130=
200611132337 TAF KPAE 132337Z 140024 17016G24KT P6SM SCT008 BKN014 OVC025
                      TEMPO 0004 -SHRA BKN008 OVC013 FM0400 17012KT
                       P6SM VCSH SCT012 BKN022 OVC040 FM0800 15006KT
                       P6SM BKN035 BKN080 FM2000 15012KT P6SM SCT040
                       OVC130=
200611132300 KPAE 140142Z 140224 17012KT P6SM VCSH SCT025 OVC045
                      TEMPO 0408 -SHRA SCT012 BKN022 OVC040 FM0800
                       15006KT P6SM BKN035 BKN080 FM2000 15012KT
                       P6SM SCT040 OVC130=
200611131728 TAF KPAE 131728Z 131818 18014KT P6SM SCT006 BKN024 OVC040
                      TEMPO 1822 -SHRA BKN006 OVC024 FM2200 21010KT
                       P6SM -SHRA SCT025 BKN045 BKN060 FM0800 20006KT
                       P6SM SCT035 BKN080=
200611131230 KPAE 131230Z 131312 21010KT P6SM SCT015 OVC025
                      TEMPO 1316 -SHRA SCT015 BKN025 OVC050 FM1600
                       21014KT P6SM -SHRA SCT015 BKN030 OVC050
                       FM2200 21010KT P6SM -SHRA SCT025 BKN045
                       BKN060 FM0500 20006KT P6SM SCT035 BKN080=
200611131131 TAF KPAE 131131Z 131212 30015G25KT P6SM BKN014 OVC025
                      TEMPO 1216 -SHRA SCT014 BKN025 OVC050 FM1600
                       21014KT P6SM -SHRA SCT015 BKN030 OVC050
                       FM2200 21010KT P6SM -SHRA SCT025 BKN045
                       BKN060 FM0500 20006KT P6SM SCT035 BKN080=
200611130952 KPAE 130952Z 131006 30008KT 6SM -RA SCT004 BKN014 OVC030
                      TEMPO 1011 2SM RA BR BKN004 OVC008 FM1100
                       24020G30KT 5SM -SHRA SCT005 BKN020 OVC050
                       TEMPO 1114 2SM SHRA BKN005 OVC020 FM1400
                       22015G23KT P6SM -SHRA SCT010 BKN030 OVC050
                       TEMPO 1418 4SM -SHRA BKN010 OVC030 FM1800
                       22014KT P6SM SCT030 BKN050
                      TEMPO 1822 -SHRA FM2200 21010KT P6SM SCT035
                       BKN060
                      PROB30 2204 -SHRA=
200611130532 TAF KPAE 130532Z 130606 13014G22KT P6SM -RA FEW010 BKN030 OVC040
                       TEMPO 0610 4SM RA BR BKN010 OVC030 FM1200
                       20020G30KT 5SM SHRA BKN020 BKN050 FM1800
                       22014G22KT P6SM SCT030 BKN050
                      TEMPO 1822 -SHRA FM2200 21010KT P6SM SCT035
                       BKN060
                      PROB30 2204 -SHRA=
200611122320 TAF KPAE 122320Z 130024 14012G22KT P6SM -RA OVC040
                      TEMPO 0004 5SM -RA BR OVC030 FM0400 14017G27KT
                       5SM RA BR OVC025 FM1200 20020G30KT 5SM SHRA
                       BKN020 BKN050 FM1800 27015G25KT P6SM VCSH
                       SCT030 BKN050
                      TEMPO 1822 4SM SHRA BKN020=
200611122034 KPAE 122034Z 122118 15014G22KT P6SM SCT015 OVC040
                      TEMPO 2101 5SM -SHRA BR BKN015 OVC030 FM0100
                       14014KT P6SM -RA BKN030 OVC060 FM0600 14015G25KT
                       P6SM -RA OVC030
                      TEMPO 0812 4SM RA BR OVC020 FM1300 21020G30KT
                       5SM SHRA BKN015 OVC030=
200611121743 TAF KPAE 121743Z 121818 18020G30KT P6SM -SHRA BKN030 OVC060 FM2100
                       18014KT P6SM VCSH BKN040 OVC060 FM0300 14015KT
                       P6SM -RA SCT020 OVC040 FM0600 12012KT P6SM
                       -RA BKN020 OVC035 FM1000 18015KT P6SM RA
                       BKN015 OVC030 FM1300 24018G28KT 5SM RA BKN015
                       OVC030=
200611121402 KPAE 121402Z 121412 17020G25KT P6SM BKN011 OVC025
                      TEMPO 1418 -SHRA SCT015 BKN040 OVC070 FM1800
                       16015KT P6SM SCT030 OVC060
                      TEMPO 1822 -SHRA OVC030 FM0300 14015KT P6SM
                       -RA SCT020 OVC040 FM0600 12012KT P6SM -RA
                       BKN020 OVC035 FM1000 18012KT P6SM RA BKN015
                       OVC030=
200611121135 TAF KPAE 121135Z 121212 16015KT P6SM BKN014 OVC070
                      TEMPO 1216 -SHRA SCT014 OVC070 FM1800 16015KT
                       P6SM SCT030 OVC060
                      TEMPO 1822 -SHRA OVC030 FM0300 14015KT P6SM
                       -RA SCT020 OVC040 FM0600 12012KT P6SM -RA
                       BKN020 OVC035 FM1000 18012KT P6SM RA BKN015
                       OVC030=
200611121004 TAF KPAE 121004Z 121006 18013KT P6SM SCT015 OVC100
                      TEMPO 1014 OVC015 FM1800 16014KT P6SM SCT030
                       OVC080 FM0000 15016KT P6SM SCT020 OVC060
                       PROB30 0006 -SHRA OVC020=
200611121003 KPAE 121003Z 121006 18013KT P6SM SCT015 OVC100
                      TEMPO 1014 OVC150 FM1800 16014KT P6SM SCT030
                       OVC080 FM0000 15016KT P6SM SCT020 OVC060
                       PROB30 0006 -SHRA OVC020=
200611120532 TAF KPAE 120532Z 120606 18012KT P6SM SCT030 OVC100
                      TEMPO 0610 BKN020 OVC090 FM1800 16014KT P6SM
                       SCT030 OVC080 FM0000 15016KT P6SM SCT020
                       OVC060
                      PROB30 0006 -SHRA OVC020=
200611112320 TAF KPAE 112320Z 120024 18014KT P6SM VCSH BKN030 OVC070
                      TEMPO 0003 SCT030 BKN100 FM0300 18010KT P6SM
                       -SHRA BKN025 BKN060 FM1800 16012KT P6SM
                       SCT030 OVC060 FM2200 16016KT P6SM -RA BKN030
                       OVC060=
200611111726 TAF KPAE 111726Z 111818 18010KT P6SM VCSH BKN030 BKN080
                      TEMPO 2024 SCT030 BKN080 FM0500 18012KT P6SM
                       -SHRA BKN025 BKN060=
200611111127 TAF KPAE 111127Z 111212 17008KT P6SM SCT015 SCT050 SCT090
                      TEMPO 1216 SCT015 BKN050 OVC090 FM1600 18010KT
                       P6SM SCT025 SCT100
                      TEMPO 1620 -SHRA BKN025 BKN100 FM2000 18010KT
                       P6SM -SHRA SCT025 BKN050 OVC090 FM0100 16008KT
                       P6SM SCT020 SCT060 BKN100
                      TEMPO 0105 -SHRA BKN020 OVC060 FM0500 16012KT
                       P6SM -SHRA BKN025 OVC060=
200611110540 TAF KPAE 110540Z 110606 16011KT P6SM SCT008 SCT020 OVC040
                      TEMPO 0610 -SHRA BKN008 OVC020 FM1000 16008KT
                       P6SM SCT012 SCT025 OVC040
                      TEMPO 1014 -SHRA BKN012 OVC025 FM1400 16008KT
                       P6SM SCT020 OVC040
                      TEMPO 1418 -SHRA OVC020 FM1800 18010KT P6SM
                       -SHRA SCT020 OVC050=
200611110453 TAF AMD KPAE 110453Z 110524 16012KT P6SM SCT006 SCT022 OVC045
                      TEMPO 0507 -SHRA BKN006 OVC022 FM0700 20010KT
                       P6SM -SHRA SCT020 BKN035
                      TEMPO 1115 -SHRA BKN009 OVC020=
200611102325 TAF KPAE 102325Z 110024 18015KT P6SM -SHRA SCT012 BKN025 OVC035
                       TEMPO 0001 5SM -RA BR SCT009 BKN015 OVC035
                       FM0400 20010KT P6SM -SHRA SCT020 BKN035
                       TEMPO 1115 -SHRA BKN009 OVC020=
200611102300 KPAE 110453Z 110524 16012KT P6SM SCT006 SCT022 OVC045
                      TEMPO 0507 -SHRA BKN006 OVC022 FM0700 20010KT
                       P6SM -SHRA SCT020 BKN035
                      TEMPO 1115 -SHRA BKN009 OVC020=
200611101741 TAF KPAE 101741Z 101818 15013KT 5SM -RA BR SCT015 OVC025
                      TEMPO 1923 3SM RA BR SCT009 OVC015 FM0200
                       17010KT P6SM -SHRA BKN025 OVC040=
200611101134 TAF KPAE 101134Z 101212 14014G22KT P6SM -RA BKN045 OVC060
                      TEMPO 1417 6SM -RA BR BKN025 OVC045 FM1700
                       15018KT 5SM -RA BR SCT015 OVC035
                      TEMPO 1923 3SM RA BR SCT009 OVC015 FM0200
                       17010KT P6SM -SHRA BKN025 OVC040=
200611100536 TAF KPAE 100536Z 100606 13012KT P6SM BKN060 OVC150 FM1400 14015KT
                       P6SM -RA SCT040 OVC070 FM1700 15018KT 5SM
                       -RA BR SCT015 OVC035 FM2000 16012KT 4SM
                       RA BR SCT008 OVC015=
200611092344 TAF KPAE 092344Z 100024 17006KT P6SM VCSH SCT025 BKN040 OVC200
                       FM0200 14009KT P6SM SCT035 SCT060 FM0500
                       14010KT P6SM SCT080 BKN150 FM1400 14015KT
                       P6SM -RA SCT040 OVC070 FM1700 15018KT 5SM
                       -RA BR SCT015 OVC035 FM2000 16012KT 4SM
                       RA BR SCT008 OVC015=
200611091749 TAF KPAE 091749Z 091818 24003KT P6SM -SHRA SCT006 BKN015 OVC025
                       TEMPO 1820 5SM -SHRA BR BKN006 OVC015 FM2100
                       21005KT P6SM VCSH SCT010 BKN020 OVC040 FM0000
                       17006KT P6SM SCT020 BKN040 FM0200 14009KT
                       P6SM SCT030 SCT070 FM0500 14010KT P6SM SCT080
                       BKN200 FM1400 14015KT P6SM -RA SCT040 OVC070
                       FM1700 15018KT 5SM -RA BR SCT015 OVC035=
200611091432 KPAE 091432Z 091512 30005KT P6SM SCT004 BKN012 OVC035
                      TEMPO 1517 -SHRA BKN004 BKN008 OVC012 FM1700
                       VRB04KT P6SM SCT030 BKN060 FM2000 16007KT
                       P6SM SCT050 BKN090 FM0900 14010KT P6SM -RA
                       SCT030 OVC060=
200611091135 TAF KPAE 091135Z 091212 00000KT P6SM SCT028 BKN050
                      TEMPO 1215 -SHRA BKN028 OVC040 FM1600 VRB04KT
                       P6SM SCT030 BKN060 FM2000 16007KT P6SM SCT050
                       BKN090 FM0900 14010KT P6SM -RA SCT030 OVC060=
200611090539 TAF KPAE 090539Z 090606 00000KT P6SM SCT025 BKN045
                      TEMPO 0609 4SM -SHRA BR BKN025 OVC040 FM1000
                       05005KT P6SM VCSH SCT020 BKN040 FM1500 VRB04KT
                       P6SM SCT030 BKN060 FM1900 16007KT P6SM SCT050
                       BKN080=
200611082342 TAF KPAE 082342Z 090024 12003KT P6SM SCT045 BKN100 FM0300 VRB03KT
                       P6SM SCT035 BKN060
                      TEMPO 0307 -SHRA SCT025 BKN035 FM1000 06003KT
                       P6SM SCT015 BKN050 FM1800 16007KT P6SM SCT050
                       BKN070=
200611081750 TAF KPAE 081750Z 081818 17004KT P6SM VCSH SCT025 BKN045 FM0000
                       01003KT P6SM VCSH SCT040 BKN060 FM1500 15004KT
                       P6SM VCSH SCT012 BKN025 OVC040=
200611081120 TAF KPAE 081120Z 081212 19007KT P6SM VCSH BKN015 OVC025 FM1800
                       16004KT P6SM VCSH SCT025 BKN040 FM0000 30005KT
                       P6SM SCT040=
200611080830 KPAE 080830Z 080906 19010KT P6SM VCSH BKN015 OVC025 FM1800 16004KT
                       P6SM VCSH SCT025 BKN035=
200611080523 TAF KPAE 080523Z 080524 20006KT P6SM VCSH SCT017 BKN025 BKN035
                       FM0900 18006KT P6SM VCSH BKN015 BKN030 FM1800
                       16004KT P6SM VCSH SCT025 BKN035=
200611080522 TAF KPAE 080522Z 080606 19011KT P6SM VCSH SCT017 FM0900 18006KT
                       P6SM VCSH BKN015 BKN030 FM1800 16004KT P6SM
                       VCSH SCT025 BKN035=
200611080403 TAF AMD KPAE 080403Z 080424 18012KT P6SM VCSH SCT020 SCT060 FM0900
                       18004KT P6SM VCSH BKN020 BKN060 FM1800 16006KT
                       P6SM VCSH SCT025 OVC040=
200611072342 TAF KPAE 072342Z 080024 15008KT 4SM -SHRA BR SCT007 BKN015 OVC030
                       FM0200 18009KT P6SM VCSH SCT012 BKN025 FM1800
                       16006KT P6SM VCSH SCT025 OVC040=
200611072300 KPAE 080403Z 080424 18012KT P6SM VCSH SCT020 SCT060 FM0900 18004KT
                       P6SM VCSH BKN020 BKN060 FM1800 16006KT P6SM
                       VCSH SCT025 OVC040=
200611071739 TAF KPAE 071739Z 071818 VRB03KT 3SM -RA BR BKN007 OVC012 FM2000
                       18009KT P6SM -SHRA SCT007 BKN015 OVC025
                       FM0200 17009KT 5SM -SHRA BR SCT006 BKN012
                       OVC022 FM0800 16007KT P6SM VCSH SCT010 BKN020=
200611071545 KPAE 071545Z 071612 29005KT 3SM -RA BR BKN006 OVC015 FM1900 20009KT
                       P6SM -SHRA SCT006 BKN015 OVC030 FM0000 19010KT
                       P6SM VCSH BKN015 BKN030 FM0600 18005KT P6SM
                       BKN015 BKN030=
200611071120 TAF KPAE 071120Z 071212 18013KT P6SM -RA SCT009 BKN070
                      TEMPO 1215 BKN009 OVC070 FM1500 19015G25KT
                       P6SM -SHRA BKN012 BKN025 FM0000 19010KT
                       P6SM VCSH BKN015 BKN030 FM0600 18005KT P6SM
                       BKN015 BKN030=
200611070931 KPAE 070931Z 071006 17013KT P6SM SCT009 OVC090
                      TEMPO 1014 -RA BKN009 OVC090 FM1400 19015G28KT
                       P6SM -SHRA BKN015 BKN030 FM0000 19010KT
                       P6SM VCSH BKN015 BKN030=
200611070534 TAF KPAE 070534Z 070606 16014KT P6SM BKN010 OVC100 FM1500 19017G30KT
                       P6SM -SHRA BKN015 BKN030 FM0000 19010KT
                       P6SM VCSH BKN015 BKN030=
200611070212 TAF AMD KPAE 070212Z 070224 19022G32KT P6SM SCT012 BKN050 OVC100
                       TEMPO 0206 4SM -RA BR BKN012 OVC040 FM0600
                       19020G30KT P6SM -RA BKN012 OVC030
                      TEMPO 0610 4SM -RA BR OVC012 FM1200 22015G25KT
                       P6SM -SHRA BKN015 BKN030 FM1700 22020G30KT
                       P6SM -SHRA BKN015 BKN030=
200611062320 TAF KPAE 062320Z 070024 18025G35KT P6SM -RA BKN012 OVC020
                      TEMPO 0307 3SM RA BR OVC008 FM1200 22017G27KT
                       P6SM -SHRA BKN015 BKN030=
200611062300 KPAE 070212Z 070224 19022G32KT P6SM SCT012 BKN050 OVC100
                      TEMPO 0206 4SM -RA BR BKN012 OVC040 FM0600
                       19020G30KT P6SM -RA BKN012 OVC030
                      TEMPO 0610 4SM -RA BR OVC012 FM1200 22015G25KT
                       P6SM -SHRA BKN015 BKN030 FM1700 22020G30KT
                       P6SM -SHRA BKN015 BKN030=
200611062131 KPAE 062131Z 062218 18020G30KT P6SM -RA SCT012 OVC030
                      TEMPO 2202 4SM RA BR OVC012 FM0200 20012G22KT
                       P6SM -SHRA BKN009 OVC015 FM1600 22020G30KT
                       P6SM -SHRA BKN015 BKN030=
200611061726 TAF KPAE 061726Z 061818 20025G35KT 5SM -RA BR OVC012
                      TEMPO 2024 3SM RA BR OVC008 FM0600 20012G22KT
                       P6SM -SHRA BKN009 OVC015 FM1600 22020G30KT
                       P6SM -SHRA BKN015 BKN030=
200611061442 KPAE 061442Z 061512 17025G35KT P6SM -RA SCT008 OVC070
                      TEMPO 1517 6SM -RA BR BKN008 OVC020 FM1700
                       18025G35KT 5SM -RA BR OVC006 FM0400 18015KT
                       5SM -RA BR OVC006=
200611061120 TAF KPAE 061120Z 061212 17025G35KT P6SM OVC008
                      TEMPO 1216 5SM -RA FM1600 18025G35KT 5SM
                       -RA BR OVC006 FM0400 18015KT 5SM -RA BR
                       OVC006=
200611060831 KPAE 060831Z 060906 17024G30KT P6SM OVC006
                      TEMPO 0913 5SM -RA FM1300 17024G34KT 5SM
                       -RA BR OVC005=
200611060524 TAF KPAE 060524Z 060606 15015KT P6SM OVC003
                      TEMPO 0610 5SM -RA FM1000 17022G34KT 4SM
                       RA BR OVC005=
200611060420 TAF AMD KPAE 060420Z 060424 14009KT 5SM -RA BR BKN005 BKN009 OVC016
                       FM0900 17020G30KT 3SM RA BR OVC009=
200611060005 TAF AMD KPAE 060005Z 060024 15012G22KT P6SM -RA SCT012 BKN025 BKN050
                       TEMPO 0004 3SM RA BR BKN009 OVC020 FM0400
                       15015G25KT 3SM RA BR BKN010 OVC025 FM0900
                       17020G30KT 3SM RA BR OVC015=
200611052320 TAF KPAE 052320Z 060024 15012G22KT P6SM -RA SCT020 BKN035
                      TEMPO 0206 3SM RA BR BKN017 OVC030 FM0600
                       15020G30KT 3SM RA BR BKN012 OVC025 FM1400
                       17020G30KT 3SM RA BR OVC015=
200611052300 KPAE 060420Z 060424 14009KT 5SM -RA BR BKN005 BKN009 OVC016 FM0900
                       17020G30KT 3SM RA BR OVC009=
200611051830 KPAE 051830Z 051818 16010KT P6SM SCT022 BKN040 OVC140
                      TEMPO 1922 BKN018 OVC040 FM2200 14012KT P6SM
                       SCT040 BKN070 OVC120 FM0000 15015G25KT 5SM
                       -RA BR BKN020 BKN040 OVC070 FM0500 15020G30KT
                       3SM RA BR BKN010 OVC025=
200611051724 TAF KPAE 051724Z 051818 16010KT P6SM SCT022 BKN040 OVC140 FM2200
                       14012KT P6SM SCT040 BKN070 OVC120 FM0000
                       15015G25KT 5SM -RA BR BKN020 BKN040 OVC070
                       FM0500 15020G30KT 3SM RA BR BKN010 OVC025=
200611051410 KPAE 051410Z 051412 19008KT P6SM VCSH FEW018 BKN025 OVC040 FM1500
                       16010KT P6SM SCT025 BKN040 OVC140 FM1900
                       14012KT P6SM SCT040 BKN070 OVC120 FM0000
                       15015G25KT 5SM -RA BR BKN025 BKN040 OVC070
                       FM0400 15020G30KT 3SM RA BR BKN010 OVC025=
200611051120 TAF KPAE 051120Z 051212 17017KT P6SM BKN015 OVC090 FM1500 16012KT
                       P6SM SCT020 BKN035 FM1900 14012KT P6SM SCT040
                       BKN070 OVC120 FM0000 15015G25KT 5SM -RA
                       BR BKN025 BKN040 OVC070 FM0400 15020G30KT
                       3SM RA BR BKN010 OVC025=
200611051102 KPAE 051102Z 051106 18014KT P6SM BKN013 BKN035 FM1500 16012KT P6SM
                       SCT020 BKN035 FM1900 14012KT P6SM SCT040
                       BKN070 OVC120 FM0000 15015G25KT 5SM -RA
                       BR BKN025 BKN040 OVC070 FM0400 15020G30KT
                       3SM RA BR BKN010 OVC025=
200611050847 TAF AMD KPAE 050847Z 050906 17015G25KT P6SM SCT013 SCT035
                      TEMPO 0913 BKN013 BKN035 FM1300 17008KT P6SM
                       SCT020 BKN035 FM1900 14012KT P6SM SCT040
                       BKN070 OVC120 FM0000 15015G25KT 5SM -RA
                       BR BKN025 BKN040 OVC070 FM0400 15020G30KT
                       3SM RA BR BKN010 OVC025=
200611050538 TAF KPAE 050538Z 050606 17018G25KT P6SM SCT013 SCT035 FM1100 17008KT
                       P6SM SCT020 BKN035 FM1900 14012KT P6SM SCT040
                       BKN070 OVC120 FM0000 15015G25KT 5SM -RA
                       BR BKN025 BKN040 OVC070 FM0400 15020G30KT
                       3SM RA BR BKN010 OVC025=
200611042341 TAF KPAE 042341Z 050024 16015G25KT 4SM -RA SCT008 OVC022 WS020/19045KT
                       TEMPO 0003 1SM RA OVC008 FM0300 20012G18KT
                       P6SM -SHRA SCT008 BKN012 OVC020 FM0700 20008KT
                       P6SM VCSH SCT012 BKN020 OVC040 FM1100 17008KT
                       P6SM SCT020 BKN040 FM1900 14012KT P6SM SCT040
                       BKN070 OVC120=
200611042208 TAF AMD KPAE 042208Z 042218 15020G30KT 5SM -RA SCT015 OVC035 WS020/19045KT
                       TEMPO 2301 3SM -RA OVC015 FM0100 15020G30KT
                       5SM -RA OVC015 WS020/19045KT FM0300 18015KT
                       P6SM -SHRA BKN015 BKN050 FM0700 19012KT
                       P6SM VCSH SCT015 BKN040=
200611041740 TAF KPAE 041740Z 041818 15020G30KT P6SM -RA SCT030 OVC045
                      TEMPO 2024 4SM -RA FM0100 15020G30KT 5SM
                       -RA OVC015 WS020/20045KT FM0300 18015KT
                       P6SM -SHRA BKN015 BKN050 FM0700 19012KT
                       P6SM VCSH SCT015 BKN040=
200611041407 TAF AMD KPAE 041407Z 041412 17020G28KT P6SM SCT015 SCT040 OVC120
                       FM1800 16020KT P6SM -RA BKN015 BKN025 OVC050
                       FM2100 16028G35KT 4SM -RA BR OVC010 FM0300
                       18025G35KT P6SM -SHRA BKN010 BKN050 FM0900
                       19015KT P6SM VCSH SCT015 BKN040=
200611041123 TAF KPAE 041123Z 041212 17018G23KT P6SM FEW009 BKN016 OVC110 FM1800
                       16020KT P6SM -RA BKN015 BKN025 OVC050 FM2100
                       16028G35KT 4SM -RA BR OVC010 FM0300 18025G35KT
                       P6SM -SHRA BKN010 BKN050 FM0900 19015KT
                       P6SM VCSH SCT015 BKN040=
200611040913 KPAE 040913Z 040906 16016KT P6SM BKN014 BKN023 FM1800 16020KT P6SM
                       -RA BKN025 OVC050 FM2100 16028G35KT 4SM
                       -RA BR OVC010 FM0300 18025G35KT P6SM -SHRA
                       BKN010 BKN050=
200611040651 KPAE 040651Z 040706 17019G23KT P6SM VCSH SCT010 OVC090 FM0800 17015KT
                       P6SM SCT015 BKN070 FM1200 14012KT P6SM SCT025
                       OVC050 FM1800 16020KT P6SM -RA BKN025 OVC050
                       FM2100 16028G35KT 4SM -RA BR OVC010 FM0300
                       18025G35KT P6SM -SHRA BKN010 BKN050=
200611040532 TAF KPAE 040532Z 040606 17023G28KT P6SM -SHRA BKN010 BKN015 OVC070
                       FM0800 17015KT P6SM SCT015 BKN070 FM1200
                       14012KT P6SM SCT025 OVC050 FM1800 16020KT
                       P6SM -RA BKN025 OVC050 FM2100 16028G35KT
                       4SM -RA BR OVC010 FM0300 18025G35KT P6SM
                       -SHRA BKN010 BKN050=
200611032340 TAF KPAE 032340Z 040024 16020G30KT P6SM SCT010 OVC025
                      TEMPO 0004 4SM -RA BR OVC008 FM0400 17014KT
                       P6SM SCT015 OVC025
                      TEMPO 0408 5SM -RA BR OVC015 FM0800 17012KT
                       P6SM SCT015 OVC025
                      TEMPO 0812 -RA OVC015 FM1200 17012KT P6SM
                       SCT025 OVC040 FM2000 16014G25KT P6SM -RA
                       SCT020 OVC035=
200611032310 KPAE 032310Z 032318 16022G34KT P6SM SCT010 OVC025
                      TEMPO 2303 4SM -RA BR OVC008 FM0300 17014G25KT
                       P6SM -RA OVC025 FM0800 15012KT P6SM -RA
                       OVC025=
200611031955 KPAE 031955Z 032018 16022G34KT P6SM SCT020 OVC040
                      TEMPO 2024 4SM -RA BR OVC020 FM0000 16022G34KT
                       P6SM SCT020 OVC040
                      TEMPO 0004 4SM -RA BR OVC018 FM0400 17014G25KT
                       P6SM -RA OVC025 FM0800 15012KT P6SM -RA
                       OVC025=
200611031744 TAF KPAE 031744Z 031818 15014G22KT P6SM -RA SCT006 BKN035 OVC050
                       FM1900 16014G22KT P6SM -RA BKN025 OVC045
                       FM0600 15012KT P6SM -RA OVC025=
200611031129 TAF KPAE 031129Z 031212 15014G22KT P6SM -RA SCT006 BKN040 OVC060
                       TEMPO 1216 4SM -RA BR BKN004 OVC012 FM1900
                       16014G22KT P6SM -RA BKN025 OVC045 FM0600
                       15012KT P6SM -RA OVC025=
200611031002 KPAE 031002Z 031006 13014KT P6SM -RA BKN018 OVC030
                      TEMPO 1014 5SM -RA BR BKN002 OVC012 FM1900
                       16014G22KT P6SM -RA BKN026 OVC045=
200611030534 TAF KPAE 030534Z 030606 13014KT P6SM -RA BKN018 OVC030 FM1900 16014G22KT
                       P6SM -RA BKN026 OVC045=
200611022340 TAF KPAE 022340Z 030024 13010KT 6SM -SHRA BR OVC035
                      TEMPO 0003 2SM -SHRA BKN025 OVC035 FM0300
                       16013KT 6SM -SHRA BKN024 OVC035 FM1900 16014G22KT
                       P6SM -SHRA BKN026 OVC045=
200611021900 KPAE 021900Z 021918 12012KT P6SM -RA SCT004 OVC030
                      TEMPO 1921 3SM -RA BR BKN004 OVC035 FM2100
                       15013KT P6SM SCT030 OVC050
                      TEMPO 2124 -SHRA BKN030 FM0000 15012KT P6SM
                       -SHRA BKN027 OVC040=
200611021735 TAF KPAE 021735Z 021818 12012KT P6SM -RA BKN040 OVC060
                      TEMPO 1820 3SM -RA BR BKN030 OVC050 FM2000
                       15013KT P6SM SCT030 OVC050
                      TEMPO 2024 -SHRA BKN030 FM0000 15012KT P6SM
                       -SHRA BKN027 OVC040=
200611021131 TAF KPAE 021131Z 021212 11008KT P6SM -RA BKN045 OVC060 FM2200 15013KT
                       P6SM -RA BKN040 OVC070=
200611020532 TAF KPAE 020532Z 020606 11006KT P6SM SCT120 OVC220 FM1400 14010KT
                       P6SM BKN050 OVC100 FM1800 15012KT P6SM -RA
                       BKN040 OVC070=
200611012332 TAF KPAE 012332Z 020024 10006KT P6SM BKN200 FM0800 13008KT P6SM
                       BKN090 OVC150 FM1400 14010KT P6SM BKN050
                       OVC100
                      PROB30 1418 -RA FM1800 15012KT P6SM -RA BKN040
                       OVC070=
200611011727 TAF KPAE 011727Z 011818 10005KT P6SM BKN250 FM2300 15006KT P6SM
                       SCT120 BKN200 FM1000 16008KT P6SM BKN090
                       OVC150 FM1600 15010KT P6SM BKN050 OVC100
                       PROB30 1618 -RA=
200611011142 TAF KPAE 011142Z 011212 04005KT P6SM SKC FM1700 VRB03KT P6SM SCT250
                       FM2300 15006KT P6SM SCT120 BKN200 FM1000
                       16008KT P6SM BKN090 OVC150=
200611010547 TAF KPAE 010547Z 010606 03003KT P6SM SKC FM1100 VRB02KT P6SM SKC
                       FM1700 VRB04KT P6SM SCT250 FM2300 15006KT
                       P6SM SCT120 BKN200=