##########################################################
# Query made at 02/18/2025 17:34:50 UTC
# Time interval: from 08/01/2006 00:00  to 08/31/2006 23:59  UTC
##########################################################

##########################################################
# KPAE, Everett, Snohomish County Airport (United States)
# WMO index: -----. WIGOS ID: Unknown
# Latitude 47-55-23N. Longitude 122-16-57W. Altitude 184 m.
##########################################################

###################################
#  METAR/SPECI from KPAE
###################################
200608312353 METAR KPAE 312353Z AUTO 32009G17KT 10SM CLR 19/08 A3018 RMK AO2 SLP250 T01890078 10194 20150 58016 TSNO=
200608312253 METAR KPAE 312253Z AUTO 33010G16KT 10SM CLR 19/08 A3020 RMK AO2 SLP256 T01890078 TSNO=
200608312153 METAR KPAE 312153Z 34008KT 280V020 10SM CLR 19/08 A3022 RMK AO2 SLP262 T01890083=
200608312053 METAR KPAE 312053Z 32011KT 10SM CLR 18/07 A3023 RMK AO2 SLP266 T01830072 57008=
200608311953 METAR KPAE 311953Z 36005KT 10SM CLR 17/08 A3024 RMK AO2 SLP269 T01720083=
200608311853 METAR KPAE 311853Z VRB06KT 10SM CLR 17/07 A3025 RMK AO2 SLP272 T01670072=
200608311753 METAR KPAE 311753Z 29006KT 10SM CLR 15/08 A3026 RMK AO2 SLP274 T01500083 10150 20100 52002=
200608311653 METAR KPAE 311653Z 30004KT 10SM FEW009 13/09 A3025 RMK AO2 SLP273 T01330094=
200608311637 SPECI KPAE 311637Z VRB03KT 10SM FEW009 13/09 A3025 RMK AO2=
200608311637 SPECI KPAE 311637Z VRB03KT 10SM FEW009 13/09 A3025 RMK AO2=
200608311630 SPECI KPAE 311630Z VRB05KT 10SM BKN009 13/09 A3025 RMK AO2=
200608311630 SPECI KPAE 311630Z VRB05KT 10SM BKN009 13/09 A3025 RMK AO2=
200608311553 METAR KPAE 311553Z VRB05KT 10SM FEW009 12/09 A3025 RMK AO2 SLP273 T01220089=
200608311541 SPECI KPAE 311541Z 34006KT 10SM FEW009 12/09 A3025 RMK AO2=
200608311541 SPECI KPAE 311541Z 34006KT 10SM FEW009 12/09 A3025 RMK AO2=
200608311453 METAR KPAE 311453Z 01005KT 10SM CLR 12/08 A3025 RMK AO2 SLP272 T01170083 53007=
200608311353 METAR KPAE 311353Z VRB04KT 10SM CLR 11/08 A3024 RMK AO2 SLP268 T01060083=
200608311253 METAR KPAE 311253Z AUTO VRB05KT 10SM CLR 11/08 A3023 RMK AO2 SLP265 T01060083=
200608311153 METAR KPAE 311153Z AUTO VRB03KT 10SM CLR 11/08 A3023 RMK AO2 SLP265 70001 T01060083 10122 20100 53000=
200608311053 METAR KPAE 311053Z AUTO 01007KT 10SM SCT043 11/08 A3022 RMK AO2 SLP263 T01110083=
200608310953 METAR KPAE 310953Z AUTO 01005KT 10SM CLR 11/09 A3022 RMK AO2 SLP261 T01110089=
200608310853 METAR KPAE 310853Z AUTO 36005KT 10SM CLR 11/09 A3023 RMK AO2 SLP264 T01110089 51009=
200608310753 METAR KPAE 310753Z AUTO 01007KT 10SM CLR 12/09 A3022 RMK AO2 SLP262 T01170089 401780106=
200608310653 METAR KPAE 310653Z AUTO 35006KT 10SM BKN042 12/09 A3021 RMK AO2 SLP259 T01220089=
200608310553 METAR KPAE 310553Z AUTO 35005KT 10SM BKN044 12/09 A3020 RMK AO2 SLP255 T01220089 10172 20122 51008=
200608310453 METAR KPAE 310453Z AUTO 01006KT 10SM OVC041 13/09 A3020 RMK AO2 SLP254 T01330094=
200608310353 METAR KPAE 310353Z AUTO 01006KT 10SM BKN045 14/08 A3019 RMK AO2 SLP253 T01390083=
200608310253 METAR KPAE 310253Z VRB03KT 10SM BKN070 15/09 A3017 RMK AO2 SLP246 T01500089 53002=
200608310153 METAR KPAE 310153Z 04006KT 10SM SCT050 BKN080 17/09 A3016 RMK AO2 SLP243 T01670089=
200608310053 METAR KPAE 310053Z VRB04KT 10SM BKN049 OVC070 17/09 A3017 RMK AO2 SLP244 T01670094=
200608302353 METAR KPAE 302353Z 36006KT 10SM FEW029 BKN033 OVC065 16/10 A3017 RMK AO2 RAB2255E07 SLP244 P0000 60000 T01610100 10178 20133 51009=
200608302253 METAR KPAE 302253Z 11004KT 10SM OVC070 16/08 A3016 RMK AO2 SLP242 T01610083=
200608302153 METAR KPAE 302153Z VRB06KT 10SM FEW039 BKN060 OVC080 16/09 A3015 RMK AO2 SLP239 T01610094=
200608302100 SPECI KPAE 302100Z 29003KT 10SM SCT023 OVC065 16/09 A3014 RMK AO2=
200608302100 SPECI KPAE 302100Z 29003KT 10SM SCT023 OVC065 16/09 A3014 RMK AO2=
200608302053 METAR KPAE 302053Z 28004KT 10SM BKN023 BKN036 BKN070 16/09 A3014 RMK AO2 SLP235 T01560094 51009=
200608302040 SPECI KPAE 302040Z VRB04KT 10SM BKN023 BKN036 BKN070 16/09 A3013 RMK AO2=
200608302040 SPECI KPAE 302040Z VRB04KT 10SM BKN023 BKN036 BKN070 16/09 A3013 RMK AO2=
200608301953 METAR KPAE 301953Z 23005KT 10SM FEW018 15/10 A3013 RMK AO2 SLP231 T01500100=
200608301853 METAR KPAE 301853Z VRB04KT 10SM FEW015 BKN055 BKN070 14/09 A3012 RMK AO2 SLP231 T01440094=
200608301753 METAR KPAE 301753Z 25005KT 10SM FEW055 OVC070 14/09 A3011 RMK AO2 SLP226 60001 T01390094 10139 20111 53020=
200608301653 METAR KPAE 301653Z 28004KT 10SM BKN014 BKN022 13/09 A3009 RMK AO2 SLP218 T01280094=
200608301628 SPECI KPAE 301628Z 25005KT 10SM FEW012 BKN018 BKN075 13/09 A3008 RMK AO2=
200608301628 SPECI KPAE 301628Z 25005KT 10SM FEW012 BKN018 BKN075 13/09 A3008 RMK AO2=
200608301604 SPECI KPAE 301604Z 23003KT 10SM BKN013 BKN075 12/09 A3007 RMK AO2=
200608301604 SPECI KPAE 301604Z 23003KT 10SM BKN013 BKN075 12/09 A3007 RMK AO2=
200608301553 METAR KPAE 301553Z 22004KT 10SM BKN015 13/11 A3007 RMK AO2 SLP211 T01280106=
200608301453 METAR KPAE 301453Z AUTO 26003KT 10SM BKN019 OVC023 12/10 A3005 RMK AO2 RAE32 SLP206 P0000 60001 T01170100 53017=
200608301353 METAR KPAE 301353Z AUTO 19003KT 10SM -RA OVC019 11/10 A3003 RMK AO2 SLP198 P0001 T01110100=
200608301253 METAR KPAE 301253Z AUTO 20004KT 10SM -RA FEW024 BKN029 OVC070 11/10 A3001 RMK AO2 RAB18 SLP192 P0000 T01110100=
200608301153 METAR KPAE 301153Z AUTO 20007KT 10SM FEW029 OVC065 11/10 A3000 RMK AO2 SLP188 60006 7//// T01110100 10117 20106 51010=
200608301053 METAR KPAE 301053Z AUTO 16005KT 10SM BKN080 11/10 A2999 RMK AO2 SLP186 T01060100=
200608300953 METAR KPAE 300953Z AUTO 14007KT 10SM FEW026 OVC070 11/10 A2998 RMK AO2 RAB07E36 SLP181 P0003 T01110100=
200608300918 SPECI KPAE 300918Z AUTO 10004KT 4SM RA BR BKN026 BKN045 OVC060 12/09 A2998 RMK AO2 RAB07 P0002=
200608300918 SPECI KPAE 300918Z AUTO 10004KT 4SM RA BR BKN026 BKN045 OVC060 12/09 A2998 RMK AO2 RAB07 P0002=
200608300853 METAR KPAE 300853Z AUTO 15007KT 10SM FEW047 OVC065 11/09 A2997 RMK AO2 RAB05E28 SLP178 P0000 60003 T01110094 58001=
200608300821 SPECI KPAE 300821Z AUTO 13006KT 10SM -RA SCT028 OVC065 11/09 A2997 RMK AO2 RAB05 P0000=
200608300821 SPECI KPAE 300821Z AUTO 13006KT 10SM -RA SCT028 OVC065 11/09 A2997 RMK AO2 RAB05 P0000=
200608300753 METAR KPAE 300753Z AUTO 14006KT 10SM BKN024 OVC030 11/10 A2998 RMK AO2 RAE38 SLP182 P0000 T01110100 401390111=
200608300719 SPECI KPAE 300719Z AUTO 16005KT 9SM -RA FEW003 OVC020 11/10 A2998 RMK AO2 P0000=
200608300719 SPECI KPAE 300719Z AUTO 16005KT 9SM -RA FEW003 OVC020 11/10 A2998 RMK AO2 P0000=
200608300653 METAR KPAE 300653Z AUTO 14005KT 10SM -RA BKN022 OVC026 11/10 A2997 RMK AO2 RAB30 SLP178 P0003 T01110100=
200608300645 SPECI KPAE 300645Z AUTO 14004KT 9SM -RA SCT020 BKN025 OVC048 11/10 A2997 RMK AO2 RAB30 P0003=
200608300645 SPECI KPAE 300645Z AUTO 14004KT 9SM -RA SCT020 BKN025 OVC048 11/10 A2997 RMK AO2 RAB30 P0003=
200608300624 SPECI KPAE 300624Z AUTO 14003KT 10SM SCT020 BKN032 OVC050 11/10 A2997 RMK AO2=
200608300624 SPECI KPAE 300624Z AUTO 14003KT 10SM SCT020 BKN032 OVC050 11/10 A2997 RMK AO2=
200608300605 SPECI KPAE 300605Z AUTO 14004KT 10SM BKN020 BKN032 11/10 A2997 RMK AO2=
200608300605 SPECI KPAE 300605Z AUTO 14004KT 10SM BKN020 BKN032 11/10 A2997 RMK AO2=
200608300553 METAR KPAE 300553Z AUTO 00000KT 10SM SCT020 BKN032 11/10 A2997 RMK AO2 SLP180 60009 T01110100 10122 20111 51004=
200608300536 SPECI KPAE 300536Z AUTO 12004KT 10SM SCT020 SCT080 11/10 A2997 RMK AO2=
200608300536 SPECI KPAE 300536Z AUTO 12004KT 10SM SCT020 SCT080 11/10 A2997 RMK AO2=
200608300527 SPECI KPAE 300527Z AUTO 11005KT 10SM BKN020 BKN048 BKN080 11/10 A2997 RMK AO2=
200608300527 SPECI KPAE 300527Z AUTO 11005KT 10SM BKN020 BKN048 BKN080 11/10 A2997 RMK AO2=
200608300517 SPECI KPAE 300517Z AUTO 12004KT 10SM SCT020 BKN048 11/10 A2997 RMK AO2=
200608300517 SPECI KPAE 300517Z AUTO 12004KT 10SM SCT020 BKN048 11/10 A2997 RMK AO2=
200608300453 METAR KPAE 300453Z AUTO 11003KT 10SM BKN020 BKN049 OVC055 11/10 A2997 RMK AO2 RAB09E27 SLP179 P0000 T01110100=
200608300446 SPECI KPAE 300446Z AUTO 14004KT 10SM BKN020 OVC055 11/10 A2997 RMK AO2 RAB09E27 P0000=
200608300446 SPECI KPAE 300446Z AUTO 14004KT 10SM BKN020 OVC055 11/10 A2997 RMK AO2 RAB09E27 P0000=
200608300353 METAR KPAE 300353Z AUTO 10004KT 10SM OVC055 12/10 A2997 RMK AO2 RAB35E49 SLP177 P0001 T01170100=
200608300253 METAR KPAE 300253Z 11004KT 10SM OVC060 12/10 A2996 RMK AO2 RAE19 SLP175 P0000 60008 T01170100 56005=
200608300153 METAR KPAE 300153Z 05005KT 6SM -RA BR BKN040 OVC050 12/10 A2996 RMK AO2 SLP174 P0008 T01220100=
200608300130 SPECI KPAE 300130Z 04005KT 6SM RA BR BKN037 OVC065 12/10 A2997 RMK AO2 P0007=
200608300130 SPECI KPAE 300130Z 04005KT 6SM RA BR BKN037 OVC065 12/10 A2997 RMK AO2 P0007=
200608300117 SPECI KPAE 300117Z 03004KT 2 1/2SM RA BR OVC037 12/10 A2997 RMK AO2 P0004=
200608300117 SPECI KPAE 300117Z 03004KT 2 1/2SM RA BR OVC037 12/10 A2997 RMK AO2 P0004=
200608300053 METAR KPAE 300053Z VRB04KT 9SM -RA OVC037 12/09 A2997 RMK AO2 SLP178 P0000 T01220094=
200608292353 METAR KPAE 292353Z 02005KT 9SM -RA OVC046 12/09 A2997 RMK AO2 SLP179 P0004 60010 T01220094 10128 20111 50000=
200608292253 METAR KPAE 292253Z VRB06KT 5SM RA BKN034 OVC055 12/09 A2998 RMK AO2 SLP181 P0005 T01220089=
200608292153 METAR KPAE 292153Z 36005KT 5SM -RA BR OVC032 13/11 A2998 RMK AO2 RAB42 SLP182 P0000 T01280106=
200608292140 SPECI KPAE 292140Z VRB05KT 10SM OVC030 13/10 A2998 RMK AO2=
200608292140 SPECI KPAE 292140Z VRB05KT 10SM OVC030 13/10 A2998 RMK AO2=
200608292122 SPECI KPAE 292122Z VRB04KT 10SM OVC028 13/10 A2998 RMK AO2=
200608292122 SPECI KPAE 292122Z VRB04KT 10SM OVC028 13/10 A2998 RMK AO2=
200608292053 METAR KPAE 292053Z AUTO 06005KT 13/09 A2997 RMK AO2 SLP178 60001 T01280094 TSNO $=
200608291953 METAR KPAE 291953Z 05006KT 10SM OVC025 12/10 A2997 RMK AO2 RAE15 SLP178 P0001 T01220100 $=
200608291853 METAR KPAE 291853Z 00000KT 2SM -RA BR BKN007 BKN014 OVC020 12/10 A2998 RMK AO2 RAB23 CIG 005V011 SLP181 P0001 T01170100 $=
200608291832 SPECI KPAE 291832Z VRB03KT 2SM -RA BR BKN005 OVC010 12/10 A2998 RMK AO2 RAB23 P0001 $=
200608291832 SPECI KPAE 291832Z VRB03KT 2SM -RA BR BKN005 OVC010 12/10 A2998 RMK AO2 RAB23 P0001 $=
200608291812 SPECI KPAE 291812Z VRB04KT 3SM BR BKN005 OVC011 11/10 A2997 RMK AO2 CIG 002V007 $=
200608291812 SPECI KPAE 291812Z VRB04KT 3SM BR BKN005 OVC011 11/10 A2997 RMK AO2 CIG 002V007 $=
200608291753 METAR KPAE 291753Z VRB03KT 2SM BR BKN003 OVC011 11/10 A2997 RMK AO2 SLP177 P0001 6//// T01110100 10139 20111 $=
200608291741 SPECI KPAE 291741Z VRB05KT 2SM BR BKN003 OVC029 11/10 A2996 RMK AO2 CIG 002V006 P0001 $=
200608291741 SPECI KPAE 291741Z VRB05KT 2SM BR BKN003 OVC029 11/10 A2996 RMK AO2 CIG 002V006 P0001 $=
200608291731 SPECI KPAE 291731Z VRB04KT 2 1/2SM BR 11/11 A2996 RMK AO2 P0001 $=
200608291731 SPECI KPAE 291731Z VRB04KT 2 1/2SM BR 11/11 A2996 RMK AO2 P0001 $=
200608291720 SPECI KPAE 291720Z VRB05KT 1 3/4SM BR 11/11 A2995 RMK AO2 P0001 $=
200608291720 SPECI KPAE 291720Z VRB05KT 1 3/4SM BR 11/11 A2995 RMK AO2 P0001 $=
200608291711 SPECI KPAE 291711Z VRB04KT 11/10 A2996 RMK AO2 P0001 $=
200608291711 SPECI KPAE 291711Z VRB04KT 11/10 A2996 RMK AO2 P0001 $=
200608291700 SPECI KPAE 291700Z VRB04KT 1 1/2SM BR 11/10 A2995 RMK AO2 P0001=
200608291700 SPECI KPAE 291700Z VRB04KT 1 1/2SM BR 11/10 A2995 RMK AO2 P0001=
200608291653 METAR KPAE 291653Z 1SM BR OVC003 11/10 A2995 RMK AO2 SLP172 T01110100 $=
200608291638 SPECI KPAE 291638Z 35005KT A2995 RMK AO2 $=
200608291638 SPECI KPAE 291638Z 35005KT A2995 RMK AO2 $=
200608291620 SPECI KPAE 291620Z AUTO 36006KT 3/4SM -RA BR OVC009 11/10 A2994 RMK AO2 P0001 TSNO $=
200608291620 SPECI KPAE 291620Z AUTO 36006KT 3/4SM -RA BR OVC009 11/10 A2994 RMK AO2 P0001 TSNO $=
200608291608 SPECI KPAE 291608Z AUTO VRB06KT 1SM -RA BR OVC009 12/10 A2994 RMK AO2 P0000 TSNO $=
200608291608 SPECI KPAE 291608Z AUTO VRB06KT 1SM -RA BR OVC009 12/10 A2994 RMK AO2 P0000 TSNO $=
200608291558 SPECI KPAE 291558Z 01006KT 2 1/2SM -RA BR OVC014 12/10 A2994 RMK AO2 P0000=
200608291558 SPECI KPAE 291558Z 01006KT 2 1/2SM -RA BR OVC014 12/10 A2994 RMK AO2 P0000=
200608291553 METAR KPAE 291553Z VRB05KT 4SM -RA OVC009 13/09 A2994 RMK AO2 RAB52 SLP165 P0000 T01280094=
200608291544 SPECI KPAE 291544Z 03006KT 6SM HZ OVC009 13/09 A2993 RMK AO2=
200608291544 SPECI KPAE 291544Z 03006KT 6SM HZ OVC009 13/09 A2993 RMK AO2=
200608291453 METAR KPAE 291453Z VRB04KT 10SM OVC014 14/09 A2993 RMK AO2 SLP163 T01390094 53005=
200608291436 SPECI KPAE 291436Z VRB04KT 10SM OVC014 14/09 A2993 RMK AO2=
200608291436 SPECI KPAE 291436Z VRB04KT 10SM OVC014 14/09 A2993 RMK AO2=
200608291353 METAR KPAE 291353Z 10006KT 10SM OVC016 13/09 A2992 RMK AO2 SLP159 T01330094=
200608291253 METAR KPAE 291253Z 09004KT 10SM OVC014 13/10 A2991 RMK AO2 SLP157 T01330100 $=
200608291205 SPECI KPAE 291205Z 00000KT 10SM OVC014 13/10 A2991 RMK AO2 $=
200608291205 SPECI KPAE 291205Z 00000KT 10SM OVC014 13/10 A2991 RMK AO2 $=
200608291153 METAR KPAE 291153Z VRB03KT 10SM OVC016 13/10 A2991 RMK AO2 SLP155 T01330100 10139 20133 51008 $=
200608291127 SPECI KPAE 291127Z 02005KT 10SM BKN020 13/10 A2991 RMK AO2 $=
200608291127 SPECI KPAE 291127Z 02005KT 10SM BKN020 13/10 A2991 RMK AO2 $=
200608291100 SPECI KPAE 291100Z 04006KT 10SM SCT016 13/11 A2990 RMK AO2 $=
200608291100 SPECI KPAE 291100Z 04006KT 10SM SCT016 13/11 A2990 RMK AO2 $=
200608291053 METAR KPAE 291053Z 06007KT 10SM BKN014 13/11 A2990 RMK AO2 SLP150 T01330106 $=
200608291027 SPECI KPAE 291027Z 07005KT 10SM OVC014 13/11 A2991 RMK AO2 $=
200608291027 SPECI KPAE 291027Z 07005KT 10SM OVC014 13/11 A2991 RMK AO2 $=
200608291001 SPECI KPAE 291001Z 07004KT 10SM BKN016 13/11 A2990 RMK AO2 $=
200608291001 SPECI KPAE 291001Z 07004KT 10SM BKN016 13/11 A2990 RMK AO2 $=
200608290953 METAR KPAE 290953Z VRB05KT 10SM SCT016 13/11 A2990 RMK AO2 SLP151 T01330106 $=
200608290853 METAR KPAE 290853Z 01005KT 10SM CLR 13/11 A2988 RMK AO2 SLP146 T01330111 53006 $=
200608290753 METAR KPAE 290753Z 36006KT 10SM CLR 13/11 A2988 RMK AO2 SLP144 T01330111 402560133 $=
200608290653 METAR KPAE 290653Z 36007KT 10SM CLR 13/11 A2987 RMK AO2 SLP140 T01330106 $=
200608290553 METAR KPAE 290553Z 35007KT 10SM CLR 14/11 A2986 RMK AO2 SLP139 T01390106 10200 20139 51006 $=
200608290453 METAR KPAE 290453Z 35008G16KT 10SM CLR 14/10 A2986 RMK AO2 SLP139 T01440100 $=
200608290353 METAR KPAE 290353Z 34009G14KT 310V020 10SM CLR 14/11 A2986 RMK AO2 SLP138 T01440106 $=
200608290253 METAR KPAE 290253Z 35010KT 10SM CLR 16/10 A2985 RMK AO2 SLP134 T01610100 58002 $=
200608290153 METAR KPAE 290153Z 35008G15KT 310V050 10SM CLR 17/10 A2985 RMK AO2 SLP134 T01720100 $=
200608290053 METAR KPAE 290053Z 35009KT 10SM CLR 18/10 A2985 RMK AO2 SLP135 T01780100 $=
200608282353 METAR KPAE 282353Z AUTO 36010G14KT 10SM CLR 19/09 A2985 RMK AO2 SLP136 T01940094 10256 20194 58004 TSNO $=
200608282253 METAR KPAE 282253Z 34011G17KT 10SM CLR 22/10 A2986 RMK AO2 SLP137 T02170100 $=
200608282153 METAR KPAE 282153Z 34007KT 10SM CLR 24/10 A2986 RMK AO2 SLP138 T02390100 $=
200608282053 METAR KPAE 282053Z VRB06KT 10SM CLR 24/11 A2986 RMK AO2 SLP137 T02440111 56010 $=
200608281953 METAR KPAE 281953Z 28007KT 250V320 10SM CLR 24/11 A2987 RMK AO2 SLP140 T02390106 $=
200608281853 METAR KPAE 281853Z VRB04KT 10SM CLR 22/11 A2988 RMK AO2 SLP146 T02220111 $=
200608281753 METAR KPAE 281753Z VRB05KT 10SM CLR 21/11 A2989 RMK AO2 SLP149 T02110111 10217 20133 58005 $=
200608281653 METAR KPAE 281653Z 00000KT 10SM CLR 20/11 A2990 RMK AO2 SLP150 T02000111 $=
200608281553 METAR KPAE 281553Z VRB03KT 10SM CLR 17/12 A2991 RMK AO2 SLP153 T01670117 $=
200608281453 METAR KPAE 281453Z 00000KT 10SM CLR 15/11 A2991 RMK AO2 SLP154 T01500106 55000 $=
200608281353 METAR KPAE 281353Z AUTO 34004KT 10SM CLR 13/10 A2990 RMK AO2 SLP152 T01330100 $=
200608281253 METAR KPAE 281253Z AUTO 35003KT 10SM CLR 13/10 A2990 RMK AO2 SLP150 T01330100 $=
200608281153 METAR KPAE 281153Z AUTO 35004KT 10SM CLR 14/10 A2991 RMK AO2 SLP153 T01440100 10172 20139 56010 $=
200608281053 METAR KPAE 281053Z AUTO 00000KT 10SM CLR 15/09 A2991 RMK AO2 SLP155 T01500094 $=
200608280953 METAR KPAE 280953Z AUTO 00000KT 10SM CLR 15/10 A2992 RMK AO2 SLP158 T01500100 $=
200608280853 METAR KPAE 280853Z AUTO 01003KT 10SM CLR 15/10 A2994 RMK AO2 SLP164 T01500100 58006 $=
200608280753 METAR KPAE 280753Z AUTO VRB03KT 10SM CLR 14/11 A2995 RMK AO2 SLP168 T01440106 402720117 $=
200608280653 METAR KPAE 280653Z AUTO 00000KT 10SM CLR 16/11 A2995 RMK AO2 SLP169 T01560106 $=
200608280553 METAR KPAE 280553Z AUTO 35005KT 10SM CLR 17/11 A2996 RMK AO2 SLP171 T01720106 10272 20172 50001 $=
200608280453 METAR KPAE 280453Z AUTO 33004KT 10SM CLR 18/11 A2996 RMK AO2 SLP173 T01830106 $=
200608280353 METAR KPAE 280353Z 34003KT 10SM CLR 21/10 A2996 RMK AO2 SLP173 T02060100 $=
200608280253 METAR KPAE 280253Z 33004KT 10SM CLR 22/11 A2996 RMK AO2 SLP170 T02170106 56007 $=
200608280153 METAR KPAE 280153Z 33006KT 10SM CLR 24/11 A2996 RMK AO2 SLP171 T02440111 $=
200608280053 METAR KPAE 280053Z VRB06KT 10SM CLR 26/11 A2997 RMK AO2 SLP174 T02610111 $=
200608272353 METAR KPAE 272353Z AUTO 35006KT 10SM CLR 27/11 A2998 RMK AO2 SLP176 T02720106 10272 20206 56017 TSNO $=
200608272253 METAR KPAE 272253Z AUTO VRB06KT 10SM CLR 27/09 A2999 RMK AO2 SLP181 T02670094 TSNO $=
200608272153 METAR KPAE 272153Z VRB05KT 10SM CLR 26/11 A3001 RMK AO2 SLP187 T02610106 $=
200608272053 METAR KPAE 272053Z 31006KT 10SM CLR 25/12 A3003 RMK AO2 SLP193 T02500122 58008 $=
200608271953 METAR KPAE 271953Z VRB05KT 10SM CLR 24/12 A3004 RMK AO2 SLP197 T02390117 $=
200608271853 METAR KPAE 271853Z 34005KT 10SM CLR 22/10 A3005 RMK AO2 SLP200 T02220100 $=
200608271753 METAR KPAE 271753Z VRB03KT 10SM CLR 21/12 A3005 RMK AO2 SLP202 T02060122 10211 20117 53001 $=
200608271653 METAR KPAE 271653Z 36004KT 10SM CLR 19/11 A3004 RMK AO2 SLP199 T01940111 $=
200608271553 METAR KPAE 271553Z VRB03KT 10SM CLR 18/12 A3005 RMK AO2 SLP203 T01780117 $=
200608271453 METAR KPAE 271453Z 36004KT 10SM CLR 14/12 A3005 RMK AO2 SLP202 T01440122 53009 $=
200608271353 METAR KPAE 271353Z 01005KT 7SM CLR 12/12 A3004 RMK AO2 SLP199 T01220117 $=
200608271253 METAR KPAE 271253Z AUTO 00000KT 10SM CLR 12/11 A3003 RMK AO2 SLP195 T01170106 $=
200608271153 METAR KPAE 271153Z AUTO 00000KT 10SM CLR 12/11 A3002 RMK AO2 SLP192 T01220111 10178 20122 52002 $=
200608271053 METAR KPAE 271053Z AUTO 00000KT 10SM CLR 14/11 A3002 RMK AO2 SLP191 T01390106 $=
200608270953 METAR KPAE 270953Z AUTO 33003KT 10SM CLR 15/10 A3002 RMK AO2 SLP190 T01500100 $=
200608270853 METAR KPAE 270853Z AUTO 34004KT 10SM CLR 16/10 A3002 RMK AO2 SLP190 T01560100 51004 $=
200608270753 METAR KPAE 270753Z AUTO 32005KT 10SM CLR 16/11 A3001 RMK AO2 SLP189 T01610106 402670128 $=
200608270653 METAR KPAE 270653Z AUTO 35005KT 10SM CLR 17/11 A3001 RMK AO2 SLP187 T01720106 $=
200608270553 METAR KPAE 270553Z AUTO 35003KT 10SM CLR 17/11 A3000 RMK AO2 SLP186 T01720111 10267 20172 51007 $=
200608270453 METAR KPAE 270453Z AUTO VRB03KT 10SM CLR 21/10 A3000 RMK AO2 SLP184 T02060100 $=
200608270353 METAR KPAE 270353Z AUTO 32006KT 10SM CLR 21/09 A2999 RMK AO2 SLP182 T02110094 $=
200608270253 METAR KPAE 270253Z VRB04KT 10SM CLR 23/10 A2998 RMK AO2 SLP179 T02280100 56004 $=
200608270153 METAR KPAE 270153Z VRB05KT 10SM CLR 25/11 A2998 RMK AO2 SLP179 T02500106 $=
200608270053 METAR KPAE 270053Z 32005KT 10SM CLR 26/11 A2998 RMK AO2 SLP179 T02610111 $=
200608262353 METAR KPAE 262353Z AUTO VRB06KT 10SM CLR 26/10 A2999 RMK AO2 SLP182 T02610100 10267 20206 56011 TSNO $=
200608262253 METAR KPAE 262253Z AUTO 30004KT 10SM CLR 27/11 A3000 RMK AO2 SLP185 T02670106 TSNO $=
200608262153 METAR KPAE 262153Z 27006KT 10SM CLR 26/11 A3001 RMK AO2 SLP189 T02560106 $=
200608262053 METAR KPAE 262053Z VRB04KT 10SM CLR 24/12 A3002 RMK AO2 SLP193 T02390122 57009 $=
200608261953 METAR KPAE 261953Z 30005KT 10SM CLR 23/11 A3003 RMK AO2 SLP196 T02330111 $=
200608261853 METAR KPAE 261853Z VRB04KT 10SM CLR 23/12 A3004 RMK AO2 SLP199 T02280122 $=
200608261753 METAR KPAE 261753Z VRB03KT 10SM CLR 21/12 A3005 RMK AO2 SLP203 T02060117 10206 20128 50004 $=
200608261653 METAR KPAE 261653Z VRB03KT 10SM CLR 18/12 A3005 RMK AO2 SLP203 T01830117 $=
200608261553 METAR KPAE 261553Z VRB05KT 10SM CLR 16/12 A3005 RMK AO2 SLP204 T01610117 $=
200608261453 METAR KPAE 261453Z VRB03KT 10SM CLR 16/11 A3004 RMK AO2 SLP199 T01560106 51007 $=
200608261353 METAR KPAE 261353Z 00000KT 10SM CLR 13/11 A3003 RMK AO2 SLP196 T01330111 $=
200608261253 METAR KPAE 261253Z AUTO 35003KT 10SM CLR 13/11 A3003 RMK AO2 SLP195 T01330106=
200608261153 METAR KPAE 261153Z AUTO 00000KT 10SM CLR 14/10 A3002 RMK AO2 SLP192 7//// T01440100 10172 20144 50000=
200608261053 METAR KPAE 261053Z AUTO 00000KT 10SM CLR 15/10 A3002 RMK AO2 SLP192 T01500100=
200608260953 METAR KPAE 260953Z AUTO VRB03KT 10SM CLR 16/10 A3002 RMK AO2 SLP192 T01560100=
200608260853 METAR KPAE 260853Z AUTO 02003KT 10SM CLR 17/10 A3002 RMK AO2 SLP192 T01670100 56002=
200608260753 METAR KPAE 260753Z AUTO VRB04KT 10SM CLR 17/11 A3002 RMK AO2 SLP192 T01670106 402330122=
200608260653 METAR KPAE 260653Z AUTO 02004KT 10SM CLR 17/10 A3002 RMK AO2 SLP192 T01670100=
200608260553 METAR KPAE 260553Z AUTO 00000KT 10SM CLR 16/09 A3002 RMK AO2 SLP195 T01560094 10233 20156 51006=
200608260453 METAR KPAE 260453Z AUTO 01004KT 10SM CLR 17/10 A3002 RMK AO2 SLP195 T01670100=
200608260353 METAR KPAE 260353Z AUTO 36003KT 10SM CLR 18/12 A3002 RMK AO2 SLP194 T01780117=
200608260253 METAR KPAE 260253Z 00000KT 10SM CLR 20/12 A3001 RMK AO2 SLP188 T02000117 57004=
200608260153 METAR KPAE 260153Z VRB05KT 10SM CLR 22/12 A3001 RMK AO2 SLPNO T02220117=
200608260053 METAR KPAE 260053Z 34006KT 10SM CLR 23/12 A3001 RMK AO2 SLPNO T02280117=
200608252353 METAR KPAE 252353Z VRB06KT 10SM CLR 23/12 A3002 RMK AO2 SLPNO 6//// T02330117 10233 20178=
200608252253 METAR KPAE 252253Z 35007KT 10SM CLR 23/12 A3003 RMK AO2 SLPNO T02280117=
200608252153 METAR KPAE 252153Z 32007KT 10SM CLR 23/11 A3005 RMK AO2 SLPNO T02280111=
200608252053 METAR KPAE 252053Z 31007KT 10SM CLR 21/12 A3007 RMK AO2 SLP210 6//// T02060117 56006=
200608251953 METAR KPAE 251953Z VRB05KT 10SM CLR 19/12 A3008 RMK AO2 SLP212 T01940117=
200608251853 METAR KPAE 251853Z 35008KT 10SM CLR 19/11 A3008 RMK AO2 SLP214 T01890111=
200608251753 METAR KPAE 251753Z 36007KT 10SM CLR 18/11 A3009 RMK AO2 SLP217 6//// T01780106 50001=
200608251653 METAR KPAE 251653Z VRB04KT 10SM CLR 14/11 A3009 RMK AO2 SLP219 T01400110=
200608251553 METAR KPAE 251553Z 35007KT 10SM CLR 14/11 A3009 RMK AO2 SLP219 T01400110 PNO $=
200608251453 METAR KPAE 251453Z 32005KT 10SM BCFG SCT001 12/10 A3009 RMK AO2 SLP217 FG NW-NE 6//// T01200100 52003 PNO $=
200608251353 METAR KPAE 251353Z 10SM BCFG SCT001 A3008 RMK AO2 SLPNO FG NW-NE PNO $=
200608251253 METAR KPAE 251253Z A3007 RMK AO2 SLPNO PWINO FZRANO PNO $=
200608251153 METAR KPAE 251153Z A3007 RMK AO2 SLPNO 6//// 7//// 51000 PWINO FZRANO $=
200608251053 METAR KPAE 251053Z A3007 RMK AO2 SLPNO PWINO FZRANO $=
200608250953 METAR KPAE 250953Z A3007 RMK AO2 SLPNO PWINO FZRANO $=
200608250853 METAR KPAE 250853Z 05004KT 10SM CLR 13/11 A3007 RMK AO2 SLP213 T01330106 53002=
200608250753 METAR KPAE 250753Z 01003KT 10SM CLR 13/11 A3007 RMK AO2 SLP211 T01330106 401940122=
200608250653 METAR KPAE 250653Z 35005KT 10SM CLR 13/11 A3007 RMK AO2 SLP211 T01280106=
200608250553 METAR KPAE 250553Z 36003KT 10SM CLR 14/11 A3007 RMK AO2 SLP211 T01390111 10194 20133 51002=
200608250453 METAR KPAE 250453Z 00000KT 10SM CLR 15/11 A3007 RMK AO2 SLP210 T01500106=
200608250353 METAR KPAE 250353Z 30003KT 10SM CLR 15/09 A3007 RMK AO2 SLP211 T01500094=
200608250253 METAR KPAE 250253Z 32003KT 10SM CLR 17/10 A3006 RMK AO2 SLP209 T01670100 55002=
200608250153 METAR KPAE 250153Z 31005KT 10SM CLR 18/10 A3006 RMK AO2 SLP207 T01780100=
200608250053 METAR KPAE 250053Z 01004KT 10SM CLR 19/10 A3006 RMK AO2 SLP208 T01890100=
200608250027 SPECI KPAE 250027Z 00000KT 10SM SCT029 18/10 A3007 RMK AO2=
200608250027 SPECI KPAE 250027Z 00000KT 10SM SCT029 18/10 A3007 RMK AO2=
200608242353 METAR KPAE 242353Z 31005KT 10SM OVC025 19/11 A3007 RMK AO2 SLP210 T01890106 10189 20144 58013=
200608242346 SPECI KPAE 242346Z VRB04KT 10SM BKN025 19/10 A3007 RMK AO2=
200608242346 SPECI KPAE 242346Z VRB04KT 10SM BKN025 19/10 A3007 RMK AO2=
200608242253 METAR KPAE 242253Z 25008KT 10SM BKN032 18/11 A3009 RMK AO2 SLP216 T01830106=
200608242153 METAR KPAE 242153Z VRB05KT 10SM CLR 17/11 A3010 RMK AO2 SLP221 T01720106=
200608242053 METAR KPAE 242053Z 28005KT 10SM FEW020 OVC039 16/10 A3011 RMK AO2 SLP224 T01610100 58008=
200608242042 SPECI KPAE 242042Z 29005KT 10SM SCT020 OVC039 17/10 A3011 RMK AO2=
200608242042 SPECI KPAE 242042Z 29005KT 10SM SCT020 OVC039 17/10 A3011 RMK AO2=
200608241953 METAR KPAE 241953Z 00000KT 10SM OVC018 16/10 A3012 RMK AO2 SLP227 T01560100=
200608241853 METAR KPAE 241853Z VRB03KT 10SM OVC016 16/10 A3013 RMK AO2 SLP231 T01560100=
200608241810 SPECI KPAE 241810Z 00000KT 10SM OVC016 14/10 A3014 RMK AO2=
200608241810 SPECI KPAE 241810Z 00000KT 10SM OVC016 14/10 A3014 RMK AO2=
200608241753 METAR KPAE 241753Z VRB03KT 10SM 14/09 A3013 RMK AO2 SLP233 6//// T01440094 10144 20122 53003 $=
200608241653 METAR KPAE 241653Z VRB04KT 10SM OVC030 14/10 A3013 RMK AO2 SLP231 T01390100 $=
200608241553 METAR KPAE 241553Z VRB04KT 10SM SCT008 OVC030 14/09 A3013 RMK AO2 SLP231 T01440094 $=
200608241500 SPECI KPAE 241500Z 33005KT 10SM 13/10 A3013 RMK AO2 $=
200608241500 SPECI KPAE 241500Z 33005KT 10SM 13/10 A3013 RMK AO2 $=
200608241453 METAR KPAE 241453Z VRB04KT 10SM BKN020 12/10 A3012 RMK AO2 SLP230 T01220100 53000 $=
200608241404 SPECI KPAE 241404Z 33005KT 10SM OVC016 13/09 A3012 RMK AO2 $=
200608241404 SPECI KPAE 241404Z 33005KT 10SM OVC016 13/09 A3012 RMK AO2 $=
200608241353 METAR KPAE 241353Z 34005KT 10SM 13/09 A3012 RMK AO2 SLP228 T01280094 $=
200608241253 METAR KPAE 241253Z VRB04KT 10SM 12/09 A3012 RMK AO2 SLP228 T01220094 $=
200608241153 METAR KPAE 241153Z VRB04KT 10SM 12/09 A3012 RMK AO2 SLP229 7//// T01220094 10128 20122 56009 $=
200608241053 METAR KPAE 241053Z VRB03KT 10SM 13/09 A3013 RMK AO2 SLPNO T01280094 $=
200608240953 METAR KPAE 240953Z 35005KT 10SM 12/09 A3014 RMK AO2 SLP235 T01220094 $=
200608240853 METAR KPAE 240853Z VRB04KT 10SM 13/10 A3015 RMK AO2 SLP239 T01280100 58001 $=
200608240753 METAR KPAE 240753Z 35006KT 10SM 12/10 A3016 RMK AO2 SLP240 T01220100 401780111 $=
200608240653 METAR KPAE 240653Z 35006KT 10SM 13/11 A3015 RMK AO2 SLP240 T01280106 $=
200608240553 METAR KPAE 240553Z 36005KT 10SM 13/11 A3015 RMK AO2 SLP240 6//// T01280106 10178 20122 58002 $=
200608240453 METAR KPAE 240453Z 35005KT 10SM 13/11 A3016 RMK AO2 SLP242 T01280111 $=
200608240353 METAR KPAE 240353Z 20004KT 10SM 15/11 A3016 RMK AO2 SLP243 T01500111 $=
200608240253 METAR KPAE 240253Z 22007KT 10SM 16/11 A3016 RMK AO2 SLP241 6//// T01560111 55005 $=
200608240153 METAR KPAE 240153Z 23008KT 10SM 17/11 A3016 RMK AO2 SLP240 T01670111 $=
200608240053 METAR KPAE 240053Z 23007KT 10SM BKN040 17/11 A3017 RMK AO2 SLP244 T01670106 $=
200608232353 METAR KPAE 232353Z 10SM BKN030 18/11 A3017 RMK AO2 SLP247 6//// T01800110 58005 $=
200608232253 METAR KPAE 232253Z 10SM BKN030 A3018 RMK AO2 SLPNO $=
200608232200 SPECI KPAE 232200Z 10SM BKN030 A3019 RMK AO2 $=
200608232200 SPECI KPAE 232200Z 10SM BKN030 A3019 RMK AO2 $=
200608232153 METAR KPAE 232153Z SCT016 BKN025 17/11 A3019 RMK AO2 SLP251 T01720111 $=
200608232053 METAR KPAE 232053Z 24010KT 10SM SCT006 BKN016 17/11 A3019 RMK AO2 SLP252 T01670106 51001 $=
200608231953 METAR KPAE 231953Z 24007KT 10SM SCT006 BKN016 16/11 A3019 RMK AO2 SLP252 T01560106 $=
200608231900 SPECI KPAE 231900Z 25008KT 10SM SCT006 BKN016 15/11 A3019 RMK AO2 $=
200608231900 SPECI KPAE 231900Z 25008KT 10SM SCT006 BKN016 15/11 A3019 RMK AO2 $=
200608231853 METAR KPAE 231853Z 24008KT 10SM SCT004 BKN012 15/11 A3019 RMK AO2 SLP253 T01500106 $=
200608231807 SPECI KPAE 231807Z 24009KT 10SM SCT004 BKN012 15/11 A3019 RMK AO2 $=
200608231807 SPECI KPAE 231807Z 24009KT 10SM SCT004 BKN012 15/11 A3019 RMK AO2 $=
200608231800 SPECI KPAE 231800Z 24009KT 10SM 14/11 A3019 RMK AO2 $=
200608231800 SPECI KPAE 231800Z 24009KT 10SM 14/11 A3019 RMK AO2 $=
200608231753 METAR KPAE 231753Z 24008KT 10SM SCT004 BKN012 13/11 A3019 RMK AO2 SLP251 T01330106 10139 20122 51006 $=
200608231653 METAR KPAE 231653Z 22006KT 10SM FEW001 OVC008 13/11 A3018 RMK AO2 SLP249 T01330106 $=
200608231648 SPECI KPAE 231648Z 20007KT 10SM FEW001 OVC008 13/11 A3018 RMK AO2 $=
200608231648 SPECI KPAE 231648Z 20007KT 10SM FEW001 OVC008 13/11 A3018 RMK AO2 $=
200608231553 METAR KPAE 231553Z 18008KT 10SM FEW001 BKN010 OVC025 13/11 A3017 RMK AO2 SLP245 T01330106 $=
200608231500 METAR KPAE NIL=
200608231453 METAR KPAE 231453Z 15006KT 9SM FEW001 BKN010 OVC025 13/11 A3016 RMK AO2 SLP240 T01280106 53010 $=
200608231353 METAR KPAE 231353Z 11005KT 5SM BR 12/11 A3014 RMK AO2 SLP236 T01220106 $=
200608231253 METAR KPAE 231253Z 11005KT 6SM BR SCT006 OVC010 12/11 A3013 RMK AO2 SLP232 T01220111 $=
200608231237 SPECI KPAE 231237Z 10004KT 7SM OVC006 13/11 A3013 RMK AO2 CIG 001V011 $=
200608231237 SPECI KPAE 231237Z 10004KT 7SM OVC006 13/11 A3013 RMK AO2 CIG 001V011 $=
200608231153 METAR KPAE 231153Z 00000KT 8SM OVC004 12/11 A3013 RMK AO2 SLP230 7//// T01220111 10128 20111 53005 $=
200608231053 METAR KPAE 231053Z VRB04KT 7SM OVC002 11/11 A3012 RMK AO2 SLP228 T01110106 $=
200608230953 METAR KPAE 230953Z VRB04KT 7SM OVC002 11/11 A3011 RMK AO2 SLP226 T01110106 $=
200608230853 METAR KPAE 230853Z VRB04KT 7SM OVC002 12/11 A3011 RMK AO2 SLP225 T01170106 58001 $=
200608230841 SPECI KPAE 230841Z VRB03KT 8SM BKN002 12/11 A3011 RMK AO2 $=
200608230841 SPECI KPAE 230841Z VRB03KT 8SM BKN002 12/11 A3011 RMK AO2 $=
200608230833 SPECI KPAE 230833Z 35004KT 8SM SCT002 12/11 A3011 RMK AO2 $=
200608230833 SPECI KPAE 230833Z 35004KT 8SM SCT002 12/11 A3011 RMK AO2 $=
200608230753 METAR KPAE 230753Z 36004KT 9SM CLR 12/11 A3011 RMK AO2 SLP226 T01170106 401940117 $=
200608230653 METAR KPAE 230653Z 01004KT 10SM CLR 12/11 A3012 RMK AO2 SLP227 T01220111 $=
200608230553 METAR KPAE 230553Z VRB03KT 10SM CLR 13/11 A3011 RMK AO2 SLP226 T01280111 10194 20128 51007 $=
200608230453 METAR KPAE 230453Z 36004KT 10SM CLR 13/11 A3011 RMK AO2 SLP224 T01330111=
200608230353 METAR KPAE 230353Z 34004KT 10SM CLR 14/11 A3010 RMK AO2 SLP222 T01440111=
200608230253 METAR KPAE 230253Z 00000KT 10SM CLR 18/10 A3009 RMK AO2 SLP218 T01780100 55002=
200608230153 METAR KPAE 230153Z 28003KT 10SM CLR 18/11 A3009 RMK AO2 SLP217 T01830106=
200608230053 METAR KPAE 230053Z 16007KT 10SM CLR 19/10 A3009 RMK AO2 SLP216 T01890100=
200608230000 SPECI KPAE 230000Z 18006KT 10SM CLR 18/10 A3010 RMK AO2=
200608230000 SPECI KPAE 230000Z 18006KT 10SM CLR 18/10 A3010 RMK AO2=
200608222353 METAR KPAE 222353Z 16008KT 10SM BKN021 18/10 A3010 RMK AO2 SLP221 T01830100 10183 20139 58006=
200608222253 METAR KPAE 222253Z 16009KT 10SM BKN021 17/10 A3011 RMK AO2 SLP226 T01720100=
200608222153 METAR KPAE 222153Z 15007KT 10SM OVC019 17/10 A3011 RMK AO2 SLP226 T01670100=
200608222053 METAR KPAE 222053Z 17010KT 10SM OVC017 15/10 A3012 RMK AO2 SLP227 T01500100 50000=
200608221953 METAR KPAE 221953Z 19011KT 10SM OVC015 15/09 A3012 RMK AO2 SLP228 T01500094=
200608221853 METAR KPAE 221853Z 18010KT 10SM OVC015 14/09 A3012 RMK AO2 SLP228 T01440094=
200608221827 SPECI KPAE 221827Z 17010KT 10SM OVC015 14/09 A3012 RMK AO2=
200608221827 SPECI KPAE 221827Z 17010KT 10SM OVC015 14/09 A3012 RMK AO2=
200608221753 METAR KPAE 221753Z AUTO 19009KT 10SM OVC011 14/09 A3012 RMK AO2 SLP226 6//// T01390094 10150 20117 53009 TSNO=
200608221716 SPECI KPAE 221716Z 18009KT 10SM OVC011 13/10 A3010 RMK AO2=
200608221716 SPECI KPAE 221716Z 18009KT 10SM OVC011 13/10 A3010 RMK AO2=
200608221709 SPECI KPAE 221709Z 18008KT 1/2SM HZ OVC011 13/10 A3010 RMK AO2=
200608221709 SPECI KPAE 221709Z 18008KT 1/2SM HZ OVC011 13/10 A3010 RMK AO2=
200608221653 METAR KPAE 221653Z 17009KT 10SM OVC011 13/10 A3010 RMK AO2 SLP220 T01330100=
200608221651 SPECI KPAE 221651Z 17010KT 10SM OVC011 13/10 A3010 RMK AO2=
200608221651 SPECI KPAE 221651Z 17010KT 10SM OVC011 13/10 A3010 RMK AO2=
200608221553 METAR KPAE 221553Z 21006KT 10SM OVC008 13/10 A3009 RMK AO2 SLP216 T01280100=
200608221453 METAR KPAE 221453Z 18010KT 10SM OVC008 13/10 A3008 RMK AO2 SLP212 T01330100 52010=
200608221422 SPECI KPAE 221422Z 17008KT 10SM OVC008 13/10 A3007 RMK AO2=
200608221353 METAR KPAE 221353Z 18006KT 10SM OVC010 13/10 A3006 RMK AO2 SLP208 T01280100=
200608221253 METAR KPAE 221253Z 19007KT 10SM OVC010 12/09 A3005 RMK AO2 SLP205 T01220094=
200608221235 SPECI KPAE 221235Z 19006KT 10SM BKN010 12/09 A3005 RMK AO2=
200608221235 SPECI KPAE 221235Z 19006KT 10SM BKN010 12/09 A3005 RMK AO2=
200608221153 METAR KPAE 221153Z 18007KT 10SM CLR 12/09 A3004 RMK AO2 SLP201 T01170094 10183 20117 53005=
200608221053 METAR KPAE 221053Z 18009KT 10SM CLR 12/09 A3003 RMK AO2 SLP196 T01220094=
200608220953 METAR KPAE 220953Z 17007KT 10SM CLR 13/09 A3003 RMK AO2 SLP196 T01280094=
200608220853 METAR KPAE 220853Z 18010KT 10SM CLR 14/10 A3003 RMK AO2 SLP196 T01390100 53004=
200608220753 METAR KPAE 220753Z 16010KT 10SM CLR 16/11 A3002 RMK AO2 SLP194 T01560106 402330128=
200608220653 METAR KPAE 220653Z 16007KT 10SM CLR 16/11 A3002 RMK AO2 SLP192 T01610111=
200608220553 METAR KPAE 220553Z 00000KT 10SM CLR 18/10 A3002 RMK AO2 SLP191 T01830100 10233 20172 51010=
200608220453 METAR KPAE 220453Z 00000KT 10SM CLR 18/11 A3001 RMK AO2 SLP188 T01830106=
200608220353 METAR KPAE 220353Z VRB03KT 10SM CLR 18/09 A3000 RMK AO2 SLP185 T01780094=
200608220253 METAR KPAE 220253Z VRB05KT 10SM CLR 18/10 A2998 RMK AO2 SLP181 T01780100 53006=
200608220153 METAR KPAE 220153Z 23004KT 10SM CLR 21/11 A2998 RMK AO2 SLP179 T02110106=
200608220053 METAR KPAE 220053Z 26005KT 10SM CLR 22/10 A2997 RMK AO2 SLP174 T02170100=
200608212353 METAR KPAE 212353Z 22006KT 10SM CLR 23/10 A2997 RMK AO2 SLP174 T02280100 10233 20178 56005=
200608212253 METAR KPAE 212253Z AUTO 26007KT 10SM CLR 23/09 A2997 RMK AO2 SLP175 T02280094 TSNO=
200608212153 METAR KPAE 212153Z 26008KT 10SM CLR 23/10 A2998 RMK AO2 SLP178 T02280100=
200608212053 METAR KPAE 212053Z 24005KT 10SM CLR 21/11 A2998 RMK AO2 SLP179 T02060106 57005=
200608211953 METAR KPAE 211953Z 25008KT 10SM CLR 20/11 A2999 RMK AO2 SLP181 T02000106=
200608211853 METAR KPAE 211853Z VRB06KT 10SM CLR 19/11 A2999 RMK AO2 SLP184 T01890106=
200608211753 METAR KPAE 211753Z 24005KT 10SM CLR 18/11 A3000 RMK AO2 SLP185 T01830106 10183 20128 58003=
200608211653 METAR KPAE 211653Z 24005KT 10SM CLR 17/11 A3000 RMK AO2 SLP186 T01720111=
200608211553 METAR KPAE 211553Z 00000KT 10SM CLR 16/10 A3001 RMK AO2 SLP187 T01610100=
200608211453 METAR KPAE 211453Z VRB03KT 10SM CLR 14/11 A3001 RMK AO2 SLP187 T01440106 52011=
200608211353 METAR KPAE 211353Z 34003KT 10SM CLR 13/10 A2999 RMK AO2 SLP183 T01280100 $=
200608211253 METAR KPAE 211253Z AUTO VRB03KT 10SM CLR 13/10 A2998 RMK AO2 SLP180 T01330100 $=
200608211153 METAR KPAE 211153Z AUTO 35003KT 10SM CLR 13/09 A2997 RMK AO2 SLP175 T01280094 10167 20128 51005 $=
200608211053 METAR KPAE 211053Z AUTO VRB03KT 10SM CLR 13/09 A2997 RMK AO2 SLP173 T01330094 $=
200608210953 METAR KPAE 210953Z AUTO VRB03KT 10SM CLR 14/09 A2996 RMK AO2 SLP172 T01440089 $=
200608210853 METAR KPAE 210853Z AUTO 34003KT 10SM CLR 16/09 A2996 RMK AO2 SLP170 T01560089 51008 $=
200608210753 METAR KPAE 210753Z AUTO 01005KT 10SM CLR 16/09 A2995 RMK AO2 SLP166 T01560089 402720128 $=
200608210653 METAR KPAE 210653Z AUTO 35004KT 10SM CLR 16/10 A2995 RMK AO2 SLP167 T01560100 $=
200608210553 METAR KPAE 210553Z AUTO 33006KT 10SM CLR 16/11 A2993 RMK AO2 SLP162 T01560106 10267 20156 51007 $=
200608210453 METAR KPAE 210453Z AUTO VRB04KT 10SM CLR 17/11 A2993 RMK AO2 SLP160 T01670106 $=
200608210353 METAR KPAE 210353Z AUTO 33005KT 10SM CLR 19/11 A2992 RMK AO2 SLP160 T01890106 $=
200608210253 METAR KPAE 210253Z AUTO 34005KT 10SM CLR 21/11 A2991 RMK AO2 SLP155 T02060111 56009 $=
200608210153 METAR KPAE 210153Z 33006KT 10SM CLR 24/11 A2992 RMK AO2 SLP157 T02390106 $=
200608210053 METAR KPAE 210053Z 35007KT 10SM CLR 26/10 A2993 RMK AO2 SLP161 T02560100 $=
200608202353 METAR KPAE 202353Z 32005KT 10SM CLR 27/07 A2994 RMK AO2 SLP164 T02670072 10272 20200 57013 $=
200608202253 METAR KPAE 202253Z 35007KT 10SM CLR 26/09 A2995 RMK AO2 SLP167 T02610089 $=
200608202153 METAR KPAE 202153Z 28005KT 10SM CLR 25/12 A2997 RMK AO2 SLP173 T02500117 $=
200608202053 METAR KPAE 202053Z VRB05KT 10SM CLR 24/12 A2998 RMK AO2 SLP177 T02440122 58005 $=
200608201953 METAR KPAE 201953Z 36005KT 10SM CLR 24/12 A2998 RMK AO2 SLP178 T02390122 $=
200608201853 METAR KPAE 201853Z 29005KT 10SM CLR 22/12 A2999 RMK AO2 SLP182 T02170117 $=
200608201753 METAR KPAE 201753Z VRB04KT 10SM CLR 20/11 A2999 RMK AO2 SLP182 T02000111 10206 20128 51001 $=
200608201653 METAR KPAE 201653Z VRB03KT 10SM CLR 19/11 A2999 RMK AO2 SLP182 T01890111 $=
200608201553 METAR KPAE 201553Z 34003KT 10SM CLR 18/12 A2999 RMK AO2 SLP182 T01780117 $=
200608201453 METAR KPAE 201453Z 01003KT 10SM CLR 16/11 A2999 RMK AO2 SLP181 T01610111 53010 $=
200608201353 METAR KPAE 201353Z 00000KT 10SM CLR 14/11 A2998 RMK AO2 SLP178 T01390111 $=
200608201253 METAR KPAE 201253Z AUTO 00000KT 10SM CLR 13/11 A2997 RMK AO2 SLP174 T01280106 $=
200608201153 METAR KPAE 201153Z AUTO 35003KT 10SM CLR 13/11 A2996 RMK AO2 SLP171 T01330106 10172 20128 56001 $=
200608201053 METAR KPAE 201053Z AUTO 00000KT 10SM CLR 13/11 A2996 RMK AO2 SLP171 T01330106 $=
200608200953 METAR KPAE 200953Z AUTO 00000KT 10SM CLR 14/10 A2995 RMK AO2 SLP170 T01440100 $=
200608200853 METAR KPAE 200853Z AUTO 35003KT 10SM CLR 14/10 A2996 RMK AO2 SLP172 T01440100 50002 $=
200608200753 METAR KPAE 200753Z AUTO 00000KT 10SM CLR 14/11 A2996 RMK AO2 SLP172 T01440106 402500128 $=
200608200653 METAR KPAE 200653Z AUTO VRB05KT 10SM CLR 16/11 A2996 RMK AO2 SLP171 T01560111 $=
200608200553 METAR KPAE 200553Z AUTO 00000KT 10SM CLR 17/12 A2995 RMK AO2 SLP170 T01720117 10244 20172 51005 $=
200608200453 METAR KPAE 200453Z AUTO 01004KT 10SM CLR 19/11 A2995 RMK AO2 SLP169 T01890111 $=
200608200353 METAR KPAE 200353Z AUTO 00000KT 10SM CLR 19/11 A2995 RMK AO2 SLP167 T01940111 $=
200608200253 METAR KPAE 200253Z AUTO 33005KT 10SM CLR 21/12 A2994 RMK AO2 SLP164 T02060117 56007 $=
200608200153 METAR KPAE 200153Z VRB06KT 10SM CLR 23/11 A2994 RMK AO2 SLP165 T02280111 $=
200608200053 METAR KPAE 200053Z VRB05KT 10SM CLR 24/11 A2995 RMK AO2 SLP168 T02390111 $=
200608192353 METAR KPAE 192353Z 34007KT 10SM CLR 24/12 A2996 RMK AO2 SLP172 T02390122 10250 20194 56014 $=
200608192253 METAR KPAE 192253Z VRB06KT 10SM CLR 24/12 A2997 RMK AO2 SLP176 T02390122 $=
200608192153 METAR KPAE 192153Z 30007KT 10SM CLR 24/12 A2999 RMK AO2 SLP181 T02440122 $=
200608192053 METAR KPAE 192053Z VRB06KT 10SM CLR 24/12 A3000 RMK AO2 SLP186 T02440122 58009 $=
200608191953 METAR KPAE 191953Z VRB06KT 10SM CLR 22/12 A3002 RMK AO2 SLP191 T02220122 $=
200608191853 METAR KPAE 191853Z VRB06KT 10SM CLR 21/12 A3003 RMK AO2 SLP195 T02060122 $=
200608191753 METAR KPAE 191753Z 34008KT 10SM CLR 19/12 A3003 RMK AO2 SLP196 T01940117 10194 20133 58004 $=
200608191653 METAR KPAE 191653Z 36005KT 10SM CLR 18/12 A3004 RMK AO2 SLP198 T01780122 $=
200608191553 METAR KPAE 191553Z VRB05KT 10SM CLR 16/13 A3004 RMK AO2 SLP200 T01610128 $=
200608191453 METAR KPAE 191453Z VRB06KT 10SM CLR 15/13 A3004 RMK AO2 SLP200 T01500128 53006 $=
200608191353 METAR KPAE 191353Z 33004KT 10SM CLR 13/12 A3004 RMK AO2 SLP198 T01330122 $=
200608191253 METAR KPAE 191253Z AUTO 35005KT 10SM CLR 13/12 A3003 RMK AO2 SLP195 T01330117 $=
200608191153 METAR KPAE 191153Z AUTO 35004KT 10SM CLR 13/12 A3003 RMK AO2 SLP195 T01330117 10172 20128 57002 $=
200608191053 METAR KPAE 191053Z AUTO 34004KT 10SM CLR 13/11 A3003 RMK AO2 SLP196 T01330106 $=
200608190953 METAR KPAE 190953Z AUTO VRB04KT 10SM CLR 13/11 A3003 RMK AO2 SLP196 T01330111 $=
200608190853 METAR KPAE 190853Z AUTO VRB04KT 10SM CLR 14/12 A3003 RMK AO2 SLP197 T01390117 56005 $=
200608190753 METAR KPAE 190753Z AUTO 35005KT 10SM CLR 14/12 A3004 RMK AO2 SLP198 T01440117 402440111 $=
200608190653 METAR KPAE 190653Z AUTO 35003KT 10SM CLR 16/12 A3005 RMK AO2 SLP201 T01560122=
200608190553 METAR KPAE 190553Z AUTO 00000KT 10SM CLR 16/12 A3005 RMK AO2 SLP204 T01610117 10239 20161 50001=
200608190453 METAR KPAE 190453Z AUTO VRB03KT 10SM CLR 17/11 A3006 RMK AO2 SLP206 T01720111=
200608190353 METAR KPAE 190353Z 32005KT 10SM CLR 18/12 A3005 RMK AO2 SLP204 T01830117=
200608190253 METAR KPAE 190253Z 34005KT 10SM CLR 21/12 A3005 RMK AO2 SLP202 T02060117 56011=
200608190153 METAR KPAE 190153Z VRB05KT 10SM CLR 22/12 A3005 RMK AO2 SLP205 T02220117=
200608190053 METAR KPAE 190053Z 35007KT 10SM CLR 23/12 A3006 RMK AO2 SLP207 T02330117=
200608182353 METAR KPAE 182353Z 32008KT 10SM CLR 24/12 A3008 RMK AO2 SLP213 T02390117 10244 20172 56021=
200608182253 METAR KPAE 182253Z 34008KT 10SM CLR 23/12 A3010 RMK AO2 SLP219 T02330117=
200608182153 METAR KPAE 182153Z 32010KT 10SM CLR 23/12 A3012 RMK AO2 SLP228 T02280117=
200608182053 METAR KPAE 182053Z VRB06KT 10SM CLR 22/12 A3014 RMK AO2 SLP234 T02220117 58014=
200608181953 METAR KPAE 181953Z VRB06KT 10SM CLR 21/11 A3016 RMK AO2 SLP242 T02110111=
200608181853 METAR KPAE 181853Z 34007KT 310V020 10SM CLR 19/11 A3018 RMK AO2 SLP247 T01940106=
200608181753 METAR KPAE 181753Z 34006KT 10SM CLR 17/11 A3019 RMK AO2 SLP250 T01720111 10172 20111 58001=
200608181653 METAR KPAE 181653Z VRB03KT 10SM CLR 16/11 A3019 RMK AO2 SLP252 T01560111=
200608181553 METAR KPAE 181553Z VRB05KT 10SM CLR 14/11 A3019 RMK AO2 SLP252 T01390111=
200608181453 METAR KPAE 181453Z VRB04KT 7SM SCT001 12/11 A3019 RMK AO2 SLP251 T01220111 53003=
200608181403 SPECI KPAE 181403Z VRB04KT 5SM BR SCT001 12/11 A3018 RMK AO2=
200608181403 SPECI KPAE 181403Z VRB04KT 5SM BR SCT001 12/11 A3018 RMK AO2=
200608181353 METAR KPAE 181353Z VRB03KT 5SM BR BKN001 11/11 A3018 RMK AO2 SLP250 T01110106=
200608181301 SPECI KPAE 181301Z 35005KT 6SM BR OVC001 11/11 A3018 RMK AO2=
200608181301 SPECI KPAE 181301Z 35005KT 6SM BR OVC001 11/11 A3018 RMK AO2=
200608181253 METAR KPAE 181253Z VRB05KT 6SM BR OVC003 11/11 A3018 RMK AO2 SLP247 T01110106=
200608181204 SPECI KPAE 181204Z VRB05KT 8SM BKN003 11/11 A3018 RMK AO2=
200608181204 SPECI KPAE 181204Z VRB05KT 8SM BKN003 11/11 A3018 RMK AO2=
200608181153 METAR KPAE 181153Z VRB05KT 8SM SCT003 11/11 A3018 RMK AO2 SLP248 T01110106 10139 20111 56003=
200608181126 SPECI KPAE 181126Z 34005KT 9SM FEW003 11/11 A3018 RMK AO2=
200608181126 SPECI KPAE 181126Z 34005KT 9SM FEW003 11/11 A3018 RMK AO2=
200608181053 METAR KPAE 181053Z 35005KT 10SM CLR 12/11 A3018 RMK AO2 SLP250 T01170106=
200608180953 METAR KPAE 180953Z 35005KT 10SM CLR 12/11 A3018 RMK AO2 SLP250 T01170106=
200608180853 METAR KPAE 180853Z 01005KT 10SM CLR 13/11 A3019 RMK AO2 SLP252 T01280111 58006=
200608180753 METAR KPAE 180753Z 01003KT 10SM CLR 13/11 A3020 RMK AO2 SLP255 T01280111 402000122=
200608180653 METAR KPAE 180653Z 36004KT 10SM CLR 13/11 A3021 RMK AO2 SLP257 T01330111=
200608180553 METAR KPAE 180553Z 01004KT 10SM CLR 13/11 A3021 RMK AO2 SLP259 T01330111 10200 20133 50005=
200608180453 METAR KPAE 180453Z 36003KT 10SM CLR 14/11 A3021 RMK AO2 SLP260 T01390106=
200608180353 METAR KPAE 180353Z 34004KT 10SM CLR 15/11 A3021 RMK AO2 SLP257 T01500106=
200608180253 METAR KPAE 180253Z VRB04KT 10SM CLR 17/11 A3020 RMK AO2 SLP254 T01670106 56004=
200608180153 METAR KPAE 180153Z VRB04KT 10SM CLR 17/12 A3020 RMK AO2 SLP255 T01720117=
200608180053 METAR KPAE 180053Z VRB04KT 10SM CLR 19/11 A3020 RMK AO2 SLP255 T01940111=
200608172353 METAR KPAE 172353Z AUTO 24005KT 10SM CLR 19/11 A3021 RMK AO2 SLP257 T01940111 10194 20139 58008=
200608172253 METAR KPAE 172253Z VRB06KT 10SM CLR 18/11 A3022 RMK AO2 SLP260 T01830111=
200608172153 METAR KPAE 172153Z 26007KT 10SM CLR 17/11 A3023 RMK AO2 SLP265 T01670111=
200608172053 METAR KPAE 172053Z 25009KT 10SM CLR 16/11 A3023 RMK AO2 SLP267 T01610111 58003=
200608172015 SPECI KPAE 172015Z 24007KT 10SM SCT014 16/11 A3024 RMK AO2=
200608172015 SPECI KPAE 172015Z 24007KT 10SM SCT014 16/11 A3024 RMK AO2=
200608171953 METAR KPAE 171953Z VRB06KT 10SM OVC014 16/11 A3024 RMK AO2 SLP270 T01560106=
200608171853 METAR KPAE 171853Z 24007KT 10SM OVC012 14/11 A3025 RMK AO2 SLP270 T01440106=
200608171753 METAR KPAE 171753Z 25008KT 10SM OVC010 14/11 A3024 RMK AO2 SLP269 T01390106 10139 20122 51006=
200608171653 METAR KPAE 171653Z 25004KT 10SM OVC010 13/11 A3024 RMK AO2 SLP267 T01330106=
200608171637 SPECI KPAE 171637Z 22005KT 10SM OVC010 13/11 A3023 RMK AO2=
200608171637 SPECI KPAE 171637Z 22005KT 10SM OVC010 13/11 A3023 RMK AO2=
200608171553 METAR KPAE 171553Z 17004KT 10SM OVC008 13/11 A3023 RMK AO2 SLP266 T01280106=
200608171453 METAR KPAE 171453Z 18006KT 10SM OVC006 13/11 A3022 RMK AO2 SLP262 T01280106 52015=
200608171353 METAR KPAE 171353Z AUTO 20007KT 10SM OVC006 12/10 A3021 RMK AO2 SLP257 T01220100=
200608171253 METAR KPAE 171253Z AUTO 19008KT 10SM OVC006 12/11 A3019 RMK AO2 SLP251 T01220106=
200608171153 METAR KPAE 171153Z AUTO 21005KT 10SM OVC006 12/11 A3018 RMK AO2 SLP247 T01220106 10172 20122 53007=
200608171053 METAR KPAE 171053Z AUTO 22003KT 10SM OVC008 12/11 A3016 RMK AO2 SLP242 T01220106=
200608171027 SPECI KPAE 171027Z AUTO 19005KT 10SM BKN010 12/11 A3016 RMK AO2=
200608171027 SPECI KPAE 171027Z AUTO 19005KT 10SM BKN010 12/11 A3016 RMK AO2=
200608170953 METAR KPAE 170953Z AUTO 22003KT 10SM CLR 12/11 A3015 RMK AO2 SLP239 T01220106=
200608170853 METAR KPAE 170853Z AUTO 00000KT 10SM CLR 13/11 A3014 RMK AO2 SLP235 T01330106 53012=
200608170753 METAR KPAE 170753Z AUTO 21004KT 10SM CLR 14/11 A3013 RMK AO2 SLP230 T01440106 402110117=
200608170653 METAR KPAE 170653Z AUTO 20004KT 10SM CLR 16/11 A3012 RMK AO2 SLP226 T01610106=
200608170553 METAR KPAE 170553Z AUTO 14005KT 10SM CLR 17/11 A3011 RMK AO2 SLP223 T01720106 10206 20167 51015=
200608170453 METAR KPAE 170453Z AUTO 14006KT 10SM CLR 18/11 A3010 RMK AO2 SLP219 T01780106=
200608170353 METAR KPAE 170353Z 10005KT 10SM CLR 19/10 A3008 RMK AO2 SLP214 T01890100=
200608170253 METAR KPAE 170253Z 00000KT 10SM CLR 19/11 A3006 RMK AO2 SLP207 T01940106 55000=
200608170153 METAR KPAE 170153Z 19003KT 10SM CLR 20/10 A3006 RMK AO2 SLP206 T02000100=
200608170053 METAR KPAE 170053Z 23007KT 10SM CLR 21/09 A3006 RMK AO2 SLP206 T02060094=
200608162353 METAR KPAE 162353Z 24007KT 10SM CLR 20/10 A3006 RMK AO2 SLP208 T02000100 10211 20156 57004 TSNO=
200608162253 METAR KPAE 162253Z AUTO 25009KT 10SM CLR 20/10 A3007 RMK AO2 SLP209 T02000100 TSNO=
200608162153 METAR KPAE 162153Z 23007KT 10SM CLR 19/09 A3007 RMK AO2 SLP210 T01940094=
200608162053 METAR KPAE 162053Z 22008KT 10SM CLR 19/09 A3007 RMK AO2 SLP212 T01940094 56003=
200608161953 METAR KPAE 161953Z 24008KT 10SM CLR 18/09 A3007 RMK AO2 SLP212 T01830094=
200608161853 METAR KPAE 161853Z 21007KT 10SM CLR 17/09 A3008 RMK AO2 SLP215 T01670094=
200608161753 METAR KPAE 161753Z 22006KT 10SM OVC055 15/09 A3008 RMK AO2 SLP216 T01500094 10161 20122 53002=
200608161653 METAR KPAE 161653Z VRB04KT 10SM SCT016 SCT065 BKN250 16/09 A3008 RMK AO2 SLP214 T01610094=
200608161600 SPECI KPAE 161600Z VRB04KT 10SM SCT016 SCT065 BKN250 14/09 A3008 RMK AO2=
200608161600 SPECI KPAE 161600Z VRB04KT 10SM SCT016 SCT065 BKN250 14/09 A3008 RMK AO2=
200608161553 METAR KPAE 161553Z VRB06KT 10SM BKN016 14/09 A3008 RMK AO2 SLP213 T01440089=
200608161551 SPECI KPAE 161551Z VRB03KT 10SM BKN016 14/09 A3008 RMK AO2=
200608161551 SPECI KPAE 161551Z VRB03KT 10SM BKN016 14/09 A3008 RMK AO2=
200608161453 METAR KPAE 161453Z 17008KT 10SM SCT025 SCT065 13/09 A3007 RMK AO2 SLP211 T01280089 53011=
200608161353 METAR KPAE 161353Z 18007KT 10SM SCT041 OVC065 12/09 A3006 RMK AO2 SLP205 T01220094=
200608161253 METAR KPAE 161253Z AUTO 18006KT 10SM OVC041 12/09 A3004 RMK AO2 SLP201 T01220094=
200608161153 METAR KPAE 161153Z AUTO 16005KT 10SM OVC041 12/09 A3004 RMK AO2 SLP199 T01220094 10150 20117 52003=
200608161053 METAR KPAE 161053Z AUTO 17005KT 10SM BKN080 12/09 A3004 RMK AO2 SLP200 T01170094=
200608160953 METAR KPAE 160953Z AUTO 35003KT 10SM SCT075 12/10 A3003 RMK AO2 SLP197 T01220100=
200608160853 METAR KPAE 160853Z AUTO 00000KT 10SM BKN075 13/10 A3003 RMK AO2 SLP197 T01280100 53005=
200608160753 METAR KPAE 160753Z AUTO 00000KT 10SM CLR 12/10 A3002 RMK AO2 SLP195 T01220100 402060106=
200608160653 METAR KPAE 160653Z AUTO 00000KT 10SM CLR 13/11 A3002 RMK AO2 SLP194 T01330106=
200608160553 METAR KPAE 160553Z AUTO 21005KT 10SM CLR 15/10 A3001 RMK AO2 SLP191 T01500100 10206 20150 51004=
200608160453 METAR KPAE 160453Z AUTO 20005KT 10SM BKN040 18/09 A3001 RMK AO2 SLP190 T01780089=
200608160353 METAR KPAE 160353Z AUTO 22003KT 10SM OVC040 18/09 A3001 RMK AO2 SLP188 T01830094=
200608160253 METAR KPAE 160253Z 23004KT 10SM SCT250 19/09 A3000 RMK AO2 SLP187 T01890094 56007=
200608160153 METAR KPAE 160153Z 24005KT 10SM SCT250 19/09 A3000 RMK AO2 SLP187 T01940089=
200608160053 METAR KPAE 160053Z 23007KT 10SM CLR 20/09 A3001 RMK AO2 SLP189 T02000094=
200608152353 METAR KPAE 152353Z 24008KT 10SM SCT250 21/10 A3002 RMK AO2 SLP194 T02060100 10206 20150 56010=
200608152253 METAR KPAE 152253Z AUTO 24009KT 10SM CLR 18/10 A3003 RMK AO2 SLP197 T01830100 TSNO=
200608152153 METAR KPAE 152153Z 23011KT 10SM CLR 18/10 A3005 RMK AO2 SLP202 T01830100=
200608152053 METAR KPAE 152053Z 24010KT 10SM CLR 17/10 A3006 RMK AO2 SLP206 T01720100 58006=
200608151953 METAR KPAE 151953Z 24013KT 10SM CLR 17/10 A3006 RMK AO2 SLP209 T01670100=
200608151853 METAR KPAE 151853Z 23013KT 10SM CLR 16/10 A3007 RMK AO2 SLP211 T01610100=
200608151806 SPECI KPAE 151806Z 23012KT 10SM SCT018 15/10 A3007 RMK AO2=
200608151806 SPECI KPAE 151806Z 23012KT 10SM SCT018 15/10 A3007 RMK AO2=
200608151753 METAR KPAE 151753Z 23010KT 10SM BKN018 16/10 A3007 RMK AO2 SLP212 T01560100 10167 20106 51006=
200608151705 SPECI KPAE 151705Z 18009KT 10SM BKN015 15/09 A3007 RMK AO2=
200608151705 SPECI KPAE 151705Z 18009KT 10SM BKN015 15/09 A3007 RMK AO2=
200608151653 METAR KPAE 151653Z 18010KT 10SM OVC014 16/10 A3007 RMK AO2 SLP210 T01560100=
200608151553 METAR KPAE 151553Z 19013KT 10SM BKN010 14/10 A3006 RMK AO2 SLP209 T01390100=
200608151505 SPECI KPAE 151505Z 18010KT 10SM BKN010 13/10 A3006 RMK AO2=
200608151505 SPECI KPAE 151505Z 18010KT 10SM BKN010 13/10 A3006 RMK AO2=
200608151453 METAR KPAE 151453Z 19008KT 10SM CLR 13/10 A3006 RMK AO2 SLP205 T01330100 53009=
200608151353 METAR KPAE 151353Z 17008KT 10SM CLR 13/10 A3004 RMK AO2 SLP201 T01280100=
200608151253 METAR KPAE 151253Z 17005KT 10SM SCT070 12/09 A3003 RMK AO2 SLP196 T01170089=
200608151153 METAR KPAE 151153Z 00000KT 10SM CLR 12/09 A3003 RMK AO2 SLP195 T01220094 10144 20122 53008=
200608151053 METAR KPAE 151053Z 07003KT 10SM FEW065 12/10 A3001 RMK AO2 SLP190 T01220100=
200608150953 METAR KPAE 150953Z VRB03KT 10SM CLR 12/10 A3001 RMK AO2 SLP190 T01220100=
200608150853 METAR KPAE 150853Z 01006KT 10SM SCT065 BKN080 13/10 A3001 RMK AO2 SLP187 T01280100 51008=
200608150753 METAR KPAE 150753Z 01006KT 10SM FEW075 13/11 A3000 RMK AO2 SLP185 T01280106 402610128=
200608150653 METAR KPAE 150653Z 32009KT 10SM OVC075 14/09 A3000 RMK AO2 SLP184 T01390094=
200608150553 METAR KPAE 150553Z 35010G15KT 10SM FEW090 14/09 A2998 RMK AO2 SLP179 T01440089 10256 20144 51009=
200608150453 METAR KPAE 150453Z 36008KT 10SM SCT085 16/09 A2998 RMK AO2 SLP178 T01560089=
200608150353 METAR KPAE 150353Z 36008KT 10SM BKN085 16/09 A2997 RMK AO2 SLP176 T01560094=
200608150253 METAR KPAE 150253Z 34009KT 10SM CLR 17/11 A2995 RMK AO2 SLP171 T01720111 53000=
200608150153 METAR KPAE 150153Z 34008KT 10SM CLR 21/11 A2995 RMK AO2 SLP170 T02060111=
200608150053 METAR KPAE 150053Z 33008KT 10SM SCT200 24/09 A2994 RMK AO2 SLP166 T02440094=
200608142353 METAR KPAE 142353Z 35006KT 10SM CLR 26/11 A2995 RMK AO2 SLP170 T02560111 10261 20206 58008=
200608142253 METAR KPAE 142253Z VRB06KT 10SM CLR 26/12 A2996 RMK AO2 SLP172 T02560117 TSNO=
200608142153 METAR KPAE 142153Z 31005KT 10SM CLR 25/12 A2998 RMK AO2 SLP176 T02500117=
200608142053 METAR KPAE 142053Z VRB04KT 10SM CLR 24/11 A2998 RMK AO2 SLP178 T02440111 56007=
200608141953 METAR KPAE 141953Z 31006KT 10SM CLR 23/11 A2998 RMK AO2 SLP180 T02330106=
200608141853 METAR KPAE 141853Z 31006KT 10SM CLR 22/12 A2999 RMK AO2 SLP183 T02220117=
200608141753 METAR KPAE 141753Z VRB06KT 10SM CLR 21/12 A3000 RMK AO2 SLP186 T02060117 10206 20133 50002=
200608141653 METAR KPAE 141653Z VRB03KT 10SM CLR 18/12 A3000 RMK AO2 SLP186 T01830117=
200608141553 METAR KPAE 141553Z 32004KT 10SM CLR 17/11 A3000 RMK AO2 SLP184 T01670111=
200608141453 METAR KPAE 141453Z VRB03KT 10SM CLR 16/11 A2999 RMK AO2 SLP184 T01610111 53005=
200608141353 METAR KPAE 141353Z 35003KT 10SM CLR 14/11 A2998 RMK AO2 SLP180 T01440106=
200608141253 METAR KPAE 141253Z AUTO 00000KT 10SM CLR 14/11 A2998 RMK AO2 SLP179 T01390106=
200608141153 METAR KPAE 141153Z AUTO 33003KT 10SM CLR 13/11 A2998 RMK AO2 SLP178 T01330106 10161 20133 55002=
200608141053 METAR KPAE 141053Z AUTO 00000KT 10SM CLR 14/11 A2998 RMK AO2 SLP178 T01440111=
200608140953 METAR KPAE 140953Z AUTO VRB03KT 10SM CLR 15/11 A2998 RMK AO2 SLP178 T01500106=
200608140853 METAR KPAE 140853Z AUTO 01004KT 10SM CLR 14/11 A2999 RMK AO2 SLP181 T01440111 58006=
200608140753 METAR KPAE 140753Z AUTO 00000KT 10SM CLR 14/11 A3000 RMK AO2 SLP184 T01440106 402440111=
200608140653 METAR KPAE 140653Z AUTO VRB03KT 10SM CLR 14/11 A3000 RMK AO2 SLP185 T01440106=
200608140553 METAR KPAE 140553Z AUTO 00000KT 10SM CLR 16/11 A3000 RMK AO2 SLP187 T01610111 10239 20161 51007=
200608140453 METAR KPAE 140453Z AUTO VRB04KT 10SM CLR 18/11 A3000 RMK AO2 SLP186 T01830106=
200608140353 METAR KPAE 140353Z AUTO 35004KT 10SM CLR 19/11 A2999 RMK AO2 SLP182 T01940111=
200608140253 METAR KPAE 140253Z 33006KT 10SM CLR 21/12 A2998 RMK AO2 SLP180 T02060117 56007=
200608140153 METAR KPAE 140153Z 35006KT 10SM CLR 23/11 A2999 RMK AO2 SLP182 T02280111=
200608140053 METAR KPAE 140053Z 34009KT 10SM CLR 23/11 A3000 RMK AO2 SLP184 T02330111=
200608132353 METAR KPAE 132353Z 34008KT 10SM CLR 24/11 A3000 RMK AO2 SLP187 T02390111 10244 20194 58019=
200608132253 METAR KPAE 132253Z VRB06KT 10SM CLR 24/12 A3003 RMK AO2 SLP194 T02390117=
200608132153 METAR KPAE 132153Z 33007KT 10SM CLR 23/12 A3004 RMK AO2 SLP200 T02330117=
200608132053 METAR KPAE 132053Z VRB06KT 10SM CLR 22/11 A3006 RMK AO2 SLP208 T02220111 58013=
200608131953 METAR KPAE 131953Z 33009KT 10SM CLR 21/11 A3008 RMK AO2 SLP212 T02110111=
200608131853 METAR KPAE 131853Z VRB06KT 10SM CLR 21/11 A3009 RMK AO2 SLP218 T02110111=
200608131753 METAR KPAE 131753Z VRB05KT 10SM CLR 20/11 A3010 RMK AO2 SLP220 T02000106 10200 20111 58004=
200608131653 METAR KPAE 131653Z VRB04KT 10SM CLR 18/11 A3011 RMK AO2 SLP223 T01780111=
200608131553 METAR KPAE 131553Z 01003KT 10SM CLR 16/11 A3011 RMK AO2 SLP225 T01560111=
200608131453 METAR KPAE 131453Z 34003KT 10SM CLR 13/11 A3011 RMK AO2 SLP224 T01280111 53005=
200608131353 METAR KPAE 131353Z 32004KT 7SM CLR 12/11 A3010 RMK AO2 SLP222 T01170106=
200608131253 METAR KPAE 131253Z AUTO VRB03KT 10SM CLR 12/10 A3010 RMK AO2 SLP220 T01170100=
200608131153 METAR KPAE 131153Z AUTO 00000KT 10SM CLR 13/10 A3010 RMK AO2 SLP219 T01280100 10133 20111 58003=
200608131053 METAR KPAE 131053Z AUTO 01004KT 10SM CLR 12/11 A3010 RMK AO2 SLP219 T01220106=
200608130953 METAR KPAE 130953Z AUTO 00000KT 8SM CLR 12/11 A3011 RMK AO2 SLP222 T01170106=
200608130853 METAR KPAE 130853Z AUTO 00000KT 10SM CLR 12/11 A3011 RMK AO2 SLP222 T01170106 50002=
200608130753 METAR KPAE 130753Z AUTO 33004KT 10SM CLR 12/11 A3011 RMK AO2 SLP224 T01170106 402170100=
200608130653 METAR KPAE 130653Z AUTO 01005KT 10SM CLR 13/11 A3011 RMK AO2 SLP222 T01280106=
200608130553 METAR KPAE 130553Z AUTO VRB05KT 10SM CLR 13/10 A3010 RMK AO2 SLP221 T01330100 10217 20133 51004=
200608130453 METAR KPAE 130453Z AUTO VRB04KT 10SM CLR 16/11 A3010 RMK AO2 SLP220 T01560106=
200608130353 METAR KPAE 130353Z AUTO 32003KT 10SM CLR 17/10 A3009 RMK AO2 SLP218 T01720100=
200608130253 METAR KPAE 130253Z 33005KT 10SM CLR 19/10 A3009 RMK AO2 SLP216 T01940100 56005=
200608130153 METAR KPAE 130153Z 32005KT 10SM CLR 21/09 A3009 RMK AO2 SLP218 T02060094=
200608130053 METAR KPAE 130053Z VRB05KT 10SM CLR 22/10 A3009 RMK AO2 SLP219 T02170100=
200608122353 METAR KPAE 122353Z AUTO 35008KT 10SM CLR 21/10 A3010 RMK AO2 SLP222 T02110100 10217 20161 57012 TSNO=
200608122253 METAR KPAE 122253Z AUTO 35008KT 10SM CLR 21/10 A3011 RMK AO2 SLP225 T02110100 TSNO=
200608122153 METAR KPAE 122153Z VRB06KT 10SM CLR 21/09 A3013 RMK AO2 SLP231 T02110089=
200608122053 METAR KPAE 122053Z VRB04KT 10SM CLR 21/09 A3014 RMK AO2 SLP234 T02060094 57007=
200608121953 METAR KPAE 121953Z 30007KT 10SM CLR 19/10 A3015 RMK AO2 SLP236 T01940100=
200608121853 METAR KPAE 121853Z 35005KT 10SM CLR 18/10 A3015 RMK AO2 SLP239 T01830100=
200608121753 METAR KPAE 121753Z 29006KT 10SM CLR 16/09 A3016 RMK AO2 SLP242 T01610094 10167 20100 50002=
200608121653 METAR KPAE 121653Z VRB04KT 10SM CLR 16/09 A3016 RMK AO2 SLP243 T01560094=
200608121553 METAR KPAE 121553Z 01004KT 10SM CLR 14/09 A3016 RMK AO2 SLP242 T01390094=
200608121453 METAR KPAE 121453Z VRB05KT 10SM FEW003 12/09 A3015 RMK AO2 SLP240 T01220094 53009=
200608121426 SPECI KPAE 121426Z VRB04KT 10SM SCT003 12/10 A3015 RMK AO2=
200608121426 SPECI KPAE 121426Z VRB04KT 10SM SCT003 12/10 A3015 RMK AO2=
200608121418 SPECI KPAE 121418Z VRB03KT 10SM BKN003 12/10 A3015 RMK AO2=
200608121418 SPECI KPAE 121418Z VRB03KT 10SM BKN003 12/10 A3015 RMK AO2=
200608121409 SPECI KPAE 121409Z VRB04KT 10SM SCT003 11/10 A3014 RMK AO2=
200608121409 SPECI KPAE 121409Z VRB04KT 10SM SCT003 11/10 A3014 RMK AO2=
200608121353 METAR KPAE 121353Z 00000KT 10SM CLR 11/09 A3014 RMK AO2 SLP236 T01110094=
200608121253 METAR KPAE 121253Z AUTO 33003KT 10SM CLR 10/09 A3014 RMK AO2 SLP233 T01000089=
200608121153 METAR KPAE 121153Z AUTO 00000KT 10SM CLR 11/09 A3013 RMK AO2 SLP231 T01060089 10128 20100 53001=
200608121053 METAR KPAE 121053Z AUTO 34003KT 10SM CLR 11/09 A3013 RMK AO2 SLP231 T01060089=
200608120953 METAR KPAE 120953Z AUTO 01004KT 10SM CLR 12/09 A3012 RMK AO2 SLP229 T01170094=
200608120853 METAR KPAE 120853Z AUTO VRB04KT 10SM CLR 12/09 A3012 RMK AO2 SLP230 T01170089 53002=
200608120753 METAR KPAE 120753Z AUTO VRB05KT 10SM CLR 12/09 A3012 RMK AO2 SLP228 T01220089 401830117=
200608120653 METAR KPAE 120653Z AUTO 35006KT 10SM CLR 12/09 A3012 RMK AO2 SLP228 T01220094=
200608120553 METAR KPAE 120553Z AUTO VRB04KT 10SM CLR 13/09 A3012 RMK AO2 SLP228 T01280094 10183 20128 50001=
200608120453 METAR KPAE 120453Z AUTO 34006KT 10SM CLR 13/10 A3012 RMK AO2 SLP229 T01330100=
200608120353 METAR KPAE 120353Z 00000KT 10SM CLR 15/09 A3012 RMK AO2 SLP227 T01500094=
200608120253 METAR KPAE 120253Z 00000KT 10SM CLR 16/09 A3012 RMK AO2 SLP227 T01610094 56007=
200608120153 METAR KPAE 120153Z 25006KT 10SM CLR 17/09 A3012 RMK AO2 SLP227 T01720089=
200608120053 METAR KPAE 120053Z 25006KT 10SM CLR 18/09 A3013 RMK AO2 SLP230 T01780089=
200608112353 METAR KPAE 112353Z 23007KT 10SM FEW027 18/09 A3014 RMK AO2 SLP233 T01780094 10183 20139 57009=
200608112314 SPECI KPAE 112314Z 25008KT 10SM SCT027 17/09 A3014 RMK AO2=
200608112314 SPECI KPAE 112314Z 25008KT 10SM SCT027 17/09 A3014 RMK AO2=
200608112253 METAR KPAE 112253Z 24006KT 10SM BKN027 17/09 A3014 RMK AO2 SLP236 T01720094=
200608112153 METAR KPAE 112153Z 24008KT 10SM OVC025 16/09 A3016 RMK AO2 SLP240 T01610094=
200608112053 METAR KPAE 112053Z 22009KT 10SM OVC023 16/09 A3016 RMK AO2 SLP243 T01560094 50002=
200608111953 METAR KPAE 111953Z 25007KT 10SM OVC019 15/10 A3017 RMK AO2 SLP245 T01500100=
200608111853 METAR KPAE 111853Z 24007KT 10SM OVC017 14/10 A3016 RMK AO2 SLP242 T01440100=
200608111753 METAR KPAE 111753Z 24007KT 10SM OVC015 14/10 A3016 RMK AO2 SLP242 T01390100 10139 20122 53004=
200608111734 SPECI KPAE 111734Z 25006KT 10SM OVC015 13/10 A3016 RMK AO2=
200608111734 SPECI KPAE 111734Z 25006KT 10SM OVC015 13/10 A3016 RMK AO2=
200608111653 METAR KPAE 111653Z 24005KT 10SM OVC013 13/10 A3015 RMK AO2 SLP240 T01280100=
200608111602 SPECI KPAE 111602Z 24005KT 10SM OVC013 13/10 A3015 RMK AO2=
200608111602 SPECI KPAE 111602Z 24005KT 10SM OVC013 13/10 A3015 RMK AO2=
200608111553 METAR KPAE 111553Z 23005KT 10SM FEW010 OVC015 13/10 A3015 RMK AO2 SLP239 T01280100=
200608111539 SPECI KPAE 111539Z VRB05KT 10SM OVC015 13/10 A3015 RMK AO2=
200608111539 SPECI KPAE 111539Z VRB05KT 10SM OVC015 13/10 A3015 RMK AO2=
200608111513 SPECI KPAE 111513Z 24005KT 10SM OVC011 13/10 A3015 RMK AO2=
200608111513 SPECI KPAE 111513Z 24005KT 10SM OVC011 13/10 A3015 RMK AO2=
200608111453 METAR KPAE 111453Z 21005KT 10SM OVC009 13/09 A3015 RMK AO2 SLP237 T01280094 51009=
200608111353 METAR KPAE 111353Z 21006KT 10SM OVC009 12/09 A3014 RMK AO2 SLP235 T01220094=
200608111336 SPECI KPAE 111336Z AUTO 19008KT 10SM OVC009 12/09 A3014 RMK AO2 TSNO=
200608111336 SPECI KPAE 111336Z AUTO 19008KT 10SM OVC009 12/09 A3014 RMK AO2 TSNO=
200608111301 SPECI KPAE 111301Z AUTO 19010KT 10SM BKN011 OVC022 12/09 A3013 RMK AO2 TSNO=
200608111301 SPECI KPAE 111301Z AUTO 19010KT 10SM BKN011 OVC022 12/09 A3013 RMK AO2 TSNO=
200608111253 METAR KPAE 111253Z AUTO 19009KT 10SM SCT011 OVC022 12/09 A3013 RMK AO2 SLP230 T01220094 TSNO=
200608111233 SPECI KPAE 111233Z AUTO 18006KT 10SM SCT011 OVC022 12/09 A3012 RMK AO2 TSNO=
200608111233 SPECI KPAE 111233Z AUTO 18006KT 10SM SCT011 OVC022 12/09 A3012 RMK AO2 TSNO=
200608111226 SPECI KPAE 111226Z AUTO 19006KT 10SM BKN011 OVC022 12/09 A3012 RMK AO2 TSNO=
200608111226 SPECI KPAE 111226Z AUTO 19006KT 10SM BKN011 OVC022 12/09 A3012 RMK AO2 TSNO=
200608111153 METAR KPAE 111153Z AUTO 18007KT 10SM OVC020 13/10 A3012 RMK AO2 SLP227 70001 T01280100 10144 20128 53007 TSNO=
200608111053 METAR KPAE 111053Z AUTO 19007KT 10SM OVC020 13/10 A3011 RMK AO2 SLP223 T01330100 TSNO=
200608110953 METAR KPAE 110953Z AUTO 17007KT 10SM OVC020 13/11 A3010 RMK AO2 SLP221 T01330106 TSNO=
200608110853 METAR KPAE 110853Z AUTO 16003KT 10SM OVC020 14/10 A3010 RMK AO2 SLP219 T01440100 53004 TSNO=
200608110831 SPECI KPAE 110831Z AUTO 18003KT 10SM BKN023 OVC036 14/10 A3009 RMK AO2 TSNO=
200608110831 SPECI KPAE 110831Z AUTO 18003KT 10SM BKN023 OVC036 14/10 A3009 RMK AO2 TSNO=
200608110753 METAR KPAE 110753Z AUTO 00000KT 10SM SCT032 13/09 A3009 RMK AO2 SLP217 T01280094 401890122 TSNO=
200608110653 METAR KPAE 110653Z AUTO 00000KT 10SM SCT090 13/09 A3008 RMK AO2 SLP216 T01280094 TSNO=
200608110553 METAR KPAE 110553Z AUTO 00000KT 10SM FEW095 13/11 A3008 RMK AO2 SLP216 T01330106 10189 20133 51008 TSNO=
200608110453 METAR KPAE 110453Z AUTO 25003KT 10SM CLR 15/11 A3008 RMK AO2 SLP214 T01500106 TSNO=
200608110353 METAR KPAE 110353Z AUTO 23003KT 10SM CLR 16/10 A3007 RMK AO2 SLP210 T01560100 TSNO=
200608110253 METAR KPAE 110253Z 25003KT 10SM CLR 17/09 A3006 RMK AO2 SLP208 T01720094 55005=
200608110153 METAR KPAE 110153Z 24003KT 10SM CLR 18/10 A3006 RMK AO2 SLP206 T01830100=
200608110053 METAR KPAE 110053Z 24005KT 10SM CLR 19/10 A3007 RMK AO2 SLP209 T01890100=
200608102353 METAR KPAE 102353Z 25005KT 10SM OVC080 18/11 A3008 RMK AO2 SLP213 T01780106 10183 20144 58006=
200608102253 METAR KPAE 102253Z 24005KT 10SM FEW065 OVC080 17/11 A3008 RMK AO2 SLP216 T01720111=
200608102153 METAR KPAE 102153Z VRB04KT 10SM FEW038 OVC080 18/11 A3009 RMK AO2 SLP218 T01830111=
200608102053 METAR KPAE 102053Z VRB03KT 10SM BKN046 OVC060 17/11 A3010 RMK AO2 SLP220 T01670111 53002=
200608101953 METAR KPAE 101953Z 01004KT 10SM OVC055 16/11 A3009 RMK AO2 SLP218 T01610111=
200608101903 SPECI KPAE 101903Z 32003KT 10SM FEW012 SCT031 OVC060 15/11 A3009 RMK AO2=
200608101903 SPECI KPAE 101903Z 32003KT 10SM FEW012 SCT031 OVC060 15/11 A3009 RMK AO2=
200608101853 METAR KPAE 101853Z 31004KT 10SM SCT012 BKN024 OVC060 15/11 A3009 RMK AO2 SLP218 T01500111=
200608101821 SPECI KPAE 101821Z 32005KT 10SM SCT010 BKN024 OVC030 14/11 A3009 RMK AO2=
200608101821 SPECI KPAE 101821Z 32005KT 10SM SCT010 BKN024 OVC030 14/11 A3009 RMK AO2=
200608101753 METAR KPAE 101753Z 00000KT 10SM SCT005 BKN012 OVC022 14/12 A3009 RMK AO2 RAE20 SLP218 P0001 60001 T01440117 10150 20122 53003=
200608101737 SPECI KPAE 101737Z 00000KT 10SM FEW005 BKN012 OVC030 13/12 A3009 RMK AO2 RAE20 P0001=
200608101737 SPECI KPAE 101737Z 00000KT 10SM FEW005 BKN012 OVC030 13/12 A3009 RMK AO2 RAE20 P0001=
200608101653 METAR KPAE 101653Z VRB03KT 10SM -RA FEW009 SCT016 OVC065 13/11 A3008 RMK AO2 RAB51 SLP216 P0000 T01330111=
200608101553 METAR KPAE 101553Z VRB06KT 10SM SCT047 OVC065 13/11 A3008 RMK AO2 SLP214 T01330106=
200608101453 METAR KPAE 101453Z VRB04KT 10SM OVC025 13/11 A3008 RMK AO2 SLP215 T01280106 53003=
200608101420 SPECI KPAE 101420Z 35007KT 10SM BKN025 BKN060 13/11 A3008 RMK AO2=
200608101420 SPECI KPAE 101420Z 35007KT 10SM BKN025 BKN060 13/11 A3008 RMK AO2=
200608101353 METAR KPAE 101353Z 35006KT 10SM SCT021 12/11 A3007 RMK AO2 SLP212 T01220106=
200608101336 SPECI KPAE 101336Z VRB04KT 10SM BKN021 OVC043 12/11 A3007 RMK AO2=
200608101336 SPECI KPAE 101336Z VRB04KT 10SM BKN021 OVC043 12/11 A3007 RMK AO2=
200608101253 METAR KPAE 101253Z VRB04KT 10SM OVC043 12/11 A3007 RMK AO2 SLP210 T01220106=
200608101153 METAR KPAE 101153Z 34006KT 10SM OVC033 13/11 A3007 RMK AO2 SLP212 70003 T01280106 10139 20122 55003=
200608101053 METAR KPAE 101053Z VRB04KT 10SM OVC031 13/09 A3007 RMK AO2 SLP211 T01280094=
200608101004 SPECI KPAE 101004Z 34006KT 10SM OVC031 12/09 A3008 RMK AO2=
200608101004 SPECI KPAE 101004Z 34006KT 10SM OVC031 12/09 A3008 RMK AO2=
200608100953 METAR KPAE 100953Z 34006KT 10SM OVC029 13/09 A3008 RMK AO2 SLP213 T01280094=
200608100927 SPECI KPAE 100927Z 34007KT 310V010 10SM BKN028 OVC032 13/10 A3008 RMK AO2=
200608100927 SPECI KPAE 100927Z 34007KT 310V010 10SM BKN028 OVC032 13/10 A3008 RMK AO2=
200608100853 METAR KPAE 100853Z VRB05KT 10SM OVC032 13/09 A3008 RMK AO2 SLP215 T01280094 58010=
200608100753 METAR KPAE 100753Z 34005KT 10SM OVC034 13/10 A3010 RMK AO2 SLP220 T01330100 402060122=
200608100653 METAR KPAE 100653Z 35006KT 10SM FEW032 OVC048 13/10 A3011 RMK AO2 SLP223 T01330100=
200608100553 METAR KPAE 100553Z VRB06KT 10SM BKN034 OVC046 14/10 A3011 RMK AO2 SLP227 T01390100 10206 20139 58002=
200608100453 METAR KPAE 100453Z 36005KT 10SM BKN034 OVC044 14/11 A3012 RMK AO2 SLP229 T01440106=
200608100353 METAR KPAE 100353Z 34006KT 10SM FEW032 OVC040 16/12 A3012 RMK AO2 SLP228 T01560117=
200608100253 METAR KPAE 100253Z VRB04KT 10SM OVC040 17/12 A3012 RMK AO2 SLP228 T01720117 58009=
200608100153 METAR KPAE 100153Z VRB04KT 10SM OVC040 18/12 A3013 RMK AO2 SLP230 T01780122=
200608100053 METAR KPAE 100053Z 28006KT 10SM FEW040 19/12 A3014 RMK AO2 SLP235 T01890122=
200608092353 METAR KPAE 092353Z VRB05KT 10SM CLR 20/13 A3015 RMK AO2 SLP236 T02000128 10206 20133 58011=
200608092253 METAR KPAE 092253Z 36005KT 10SM SCT031 21/12 A3016 RMK AO2 SLP241 T02060122=
200608092153 METAR KPAE 092153Z 34006KT 10SM SCT031 19/12 A3017 RMK AO2 SLP245 T01890117=
200608092128 SPECI KPAE 092128Z VRB05KT 10SM SCT031 19/12 A3017 RMK AO2=
200608092128 SPECI KPAE 092128Z VRB05KT 10SM SCT031 19/12 A3017 RMK AO2=
200608092053 METAR KPAE 092053Z VRB05KT 10SM SCT015 BKN022 18/11 A3018 RMK AO2 SLP248 T01780111 58003=
200608091953 METAR KPAE 091953Z VRB04KT 10SM OVC015 16/11 A3018 RMK AO2 SLP248 T01610111=
200608091853 METAR KPAE 091853Z 34007KT 10SM SCT005 OVC017 14/12 A3019 RMK AO2 SLP252 T01440117=
200608091825 SPECI KPAE 091825Z 35005KT 4SM BR BKN005 OVC015 13/12 A3019 RMK AO2=
200608091825 SPECI KPAE 091825Z 35005KT 4SM BR BKN005 OVC015 13/12 A3019 RMK AO2=
200608091817 SPECI KPAE 091817Z VRB06KT 2 1/2SM BR BKN005 OVC012 13/12 A3019 RMK AO2=
200608091817 SPECI KPAE 091817Z VRB06KT 2 1/2SM BR BKN005 OVC012 13/12 A3019 RMK AO2=
200608091801 SPECI KPAE 091801Z 35005KT 4SM BR BKN005 OVC012 14/12 A3018 RMK AO2=
200608091801 SPECI KPAE 091801Z 35005KT 4SM BR BKN005 OVC012 14/12 A3018 RMK AO2=
200608091753 METAR KPAE 091753Z 00000KT 6SM BR SCT005 OVC012 14/12 A3019 RMK AO2 SLP251 60003 T01390122 10139 20122 53003=
200608091726 SPECI KPAE 091726Z VRB03KT 10SM SCT005 BKN012 OVC017 13/12 A3018 RMK AO2=
200608091726 SPECI KPAE 091726Z VRB03KT 10SM SCT005 BKN012 OVC017 13/12 A3018 RMK AO2=
200608091653 SPECI KPAE 091653Z 01006KT 10SM FEW003 OVC017 14/12 A3018 RMK AO2 SLP247 T01390122=
200608091558 SPECI KPAE 091558Z VRB05KT 9SM SCT001 OVC017 13/12 A3018 RMK AO2=
200608091558 SPECI KPAE 091558Z VRB05KT 9SM SCT001 OVC017 13/12 A3018 RMK AO2=
200608091553 METAR KPAE 091553Z VRB05KT 7SM BKN001 BKN012 OVC019 13/12 A3018 RMK AO2 RAE24 SLP248 P0000 T01280122=
200608091543 SPECI KPAE 091543Z VRB04KT 3SM BR BKN001 OVC012 13/12 A3018 RMK AO2 RAE24 P0000=
200608091543 SPECI KPAE 091543Z VRB04KT 3SM BR BKN001 OVC012 13/12 A3018 RMK AO2 RAE24 P0000=
200608091538 SPECI KPAE 091538Z VRB04KT 1 1/4SM BR BKN001 OVC012 13/12 A3017 RMK AO2 RAE24 P0000=
200608091538 SPECI KPAE 091538Z VRB04KT 1 1/4SM BR BKN001 OVC012 13/12 A3017 RMK AO2 RAE24 P0000=
200608091453 METAR KPAE 091453Z VRB04KT M1/4SM -RA FG VV001 13/12 A3018 RMK AO2 RAB20 SLP246 P0002 60003 T01280122 53008=
200608091353 METAR KPAE 091353Z 34005KT M1/4SM FG VV001 13/12 A3017 RMK AO2 SLP243 T01280122=
200608091253 METAR KPAE 091253Z AUTO 35005KT 1/4SM FG VV001 13/13 A3015 RMK AO2 SLP238 P0001 T01330128=
200608091153 METAR KPAE 091153Z AUTO VRB04KT 1/4SM FG VV001 13/13 A3015 RMK AO2 RAB1056E06 SLP238 P0000 60000 T01330128 10161 20133 58001=
200608091053 METAR KPAE 091053Z AUTO VRB05KT 1/4SM FG VV001 14/13 A3015 RMK AO2 SLP238 T01390133=
200608091041 SPECI KPAE 091041Z AUTO 35005KT 1/4SM FG VV001 14/13 A3016 RMK AO2=
200608091041 SPECI KPAE 091041Z AUTO 35005KT 1/4SM FG VV001 14/13 A3016 RMK AO2=
200608091028 SPECI KPAE 091028Z AUTO VRB03KT 1/2SM FG VV001 14/14 A3015 RMK AO2=
200608091028 SPECI KPAE 091028Z AUTO VRB03KT 1/2SM FG VV001 14/14 A3015 RMK AO2=
200608091001 SPECI KPAE 091001Z AUTO VRB03KT 1/4SM FG VV001 14/14 A3016 RMK AO2=
200608091001 SPECI KPAE 091001Z AUTO VRB03KT 1/4SM FG VV001 14/14 A3016 RMK AO2=
200608090953 METAR KPAE 090953Z AUTO 34004KT 1/2SM FG VV001 14/14 A3016 RMK AO2 SLP239 T01390139=
200608090944 SPECI KPAE 090944Z AUTO VRB03KT 3/4SM BR OVC001 14/14 A3015 RMK AO2=
200608090944 SPECI KPAE 090944Z AUTO VRB03KT 3/4SM BR OVC001 14/14 A3015 RMK AO2=
200608090936 SPECI KPAE 090936Z AUTO VRB03KT 2 1/2SM BR OVC001 14/14 A3015 RMK AO2=
200608090936 SPECI KPAE 090936Z AUTO VRB03KT 2 1/2SM BR OVC001 14/14 A3015 RMK AO2=
200608090853 METAR KPAE 090853Z AUTO VRB04KT 10SM OVC003 14/13 A3015 RMK AO2 CIG 002V006 SLP239 T01440133 50000=
200608090838 SPECI KPAE 090838Z AUTO 36003KT 10SM BKN003 OVC020 15/13 A3015 RMK AO2=
200608090838 SPECI KPAE 090838Z AUTO 36003KT 10SM BKN003 OVC020 15/13 A3015 RMK AO2=
200608090821 SPECI KPAE 090821Z AUTO VRB03KT 10SM SCT005 OVC022 15/13 A3015 RMK AO2=
200608090821 SPECI KPAE 090821Z AUTO VRB03KT 10SM SCT005 OVC022 15/13 A3015 RMK AO2=
200608090753 METAR KPAE 090753Z AUTO 32004KT 10SM OVC022 16/13 A3015 RMK AO2 SLP238 T01560133 402220122=
200608090653 METAR KPAE 090653Z AUTO 33003KT 10SM BKN026 OVC033 16/13 A3015 RMK AO2 SLP239 T01560133=
200608090645 SPECI KPAE 090645Z AUTO 34003KT 10SM BKN026 OVC033 16/13 A3015 RMK AO2=
200608090645 SPECI KPAE 090645Z AUTO 34003KT 10SM BKN026 OVC033 16/13 A3015 RMK AO2=
200608090553 METAR KPAE 090553Z AUTO 00000KT 10SM OVC050 16/13 A3015 RMK AO2 SLP238 T01560133 10222 20156 51012=
200608090453 METAR KPAE 090453Z AUTO 34004KT 10SM FEW038 OVC060 16/13 A3015 RMK AO2 SLP237 T01560128=
200608090353 METAR KPAE 090353Z 34006KT 10SM OVC044 16/12 A3014 RMK AO2 SLP234 T01610122=
200608090253 METAR KPAE 090253Z VRB05KT 10SM OVC070 18/12 A3012 RMK AO2 SLP226 T01830122 53000=
200608090153 METAR KPAE 090153Z 32005KT 10SM FEW039 SCT060 OVC080 20/12 A3011 RMK AO2 SLP224 T02000122=
200608090053 METAR KPAE 090053Z VRB06KT 10SM SCT038 BKN100 20/12 A3011 RMK AO2 SLP224 T02000117=
200608082353 METAR KPAE 082353Z 28006KT 10SM BKN085 21/12 A3012 RMK AO2 SLP226 T02110122 10222 20172 58004=
200608082253 METAR KPAE 082253Z AUTO 27007KT 10SM SCT028 SCT095 22/12 A3012 RMK AO2 SLP228 T02170117 TSNO=
200608082153 METAR KPAE 082153Z 25007KT 10SM SCT030 BKN095 20/11 A3013 RMK AO2 SLP230 T02000111=
200608082138 SPECI KPAE 082138Z 25009KT 10SM BKN030 BKN095 21/11 A3013 RMK AO2=
200608082138 SPECI KPAE 082138Z 25009KT 10SM BKN030 BKN095 21/11 A3013 RMK AO2=
200608082053 METAR KPAE 082053Z 23009KT 10SM BKN026 19/11 A3013 RMK AO2 SLP230 T01940106 55000=
200608081953 METAR KPAE 081953Z 25011KT 10SM OVC026 18/11 A3012 RMK AO2 SLP228 T01780106=
200608081853 METAR KPAE 081853Z 22010KT 10SM BKN026 18/10 A3012 RMK AO2 SLP228 T01780100=
200608081753 METAR KPAE 081753Z 16010KT 10SM BKN022 OVC028 18/10 A3013 RMK AO2 SLP230 T01780100 10178 20122 51008=
200608081653 METAR KPAE 081653Z 17011KT 10SM BKN020 16/09 A3012 RMK AO2 SLP228 T01560094=
200608081553 METAR KPAE 081553Z 16009KT 10SM OVC016 14/09 A3011 RMK AO2 SLP226 T01440094=
200608081453 METAR KPAE 081453Z 18007KT 10SM OVC014 13/09 A3010 RMK AO2 SLP222 T01330094 51010=
200608081353 METAR KPAE 081353Z 17006KT 10SM OVC012 13/09 A3009 RMK AO2 SLP219 T01280094=
200608081253 METAR KPAE 081253Z 21003KT 10SM OVC012 12/09 A3008 RMK AO2 SLP213 T01220094=
200608081200 SPECI KPAE 081200Z 18007KT 10SM BKN014 12/09 A3007 RMK AO2=
200608081200 SPECI KPAE 081200Z 18007KT 10SM BKN014 12/09 A3007 RMK AO2=
200608081153 METAR KPAE 081153Z 18005KT 10SM SCT014 12/09 A3007 RMK AO2 SLP210 T01220089 10133 20122 53006=
200608081053 METAR KPAE 081053Z 16005KT 10SM CLR 12/09 A3006 RMK AO2 SLP206 T01220094=
200608080953 METAR KPAE 080953Z 10004KT 10SM CLR 12/09 A3005 RMK AO2 SLP202 T01220094=
200608080853 METAR KPAE 080853Z 10003KT 10SM CLR 13/09 A3005 RMK AO2 SLP204 T01280094 51017=
200608080753 METAR KPAE 080753Z 35003KT 10SM CLR 12/09 A3004 RMK AO2 SLP200 T01220094 402280117=
200608080653 METAR KPAE 080653Z 00000KT 10SM CLR 13/09 A3003 RMK AO2 SLP195 T01280094=
200608080553 METAR KPAE 080553Z 33005KT 10SM CLR 13/09 A3000 RMK AO2 SLP188 T01280094 10206 20128 51020=
200608080453 METAR KPAE 080453Z 34009KT 310V030 10SM CLR 13/09 A2999 RMK AO2 SLP185 T01330094=
200608080353 METAR KPAE 080353Z 35008KT 10SM CLR 14/09 A2997 RMK AO2 SLP177 T01390094=
200608080253 METAR KPAE 080253Z 35007KT 10SM CLR 15/10 A2994 RMK AO2 SLP168 T01500100 52004=
200608080153 METAR KPAE 080153Z 34008KT 280V010 10SM CLR 17/11 A2994 RMK AO2 SLP166 T01670106=
200608080053 METAR KPAE 080053Z 34010KT 10SM CLR 19/11 A2994 RMK AO2 SLP165 T01890111=
200608072353 METAR KPAE 072353Z 35009KT 10SM CLR 21/11 A2993 RMK AO2 SLP163 T02110111 10228 20144 58006=
200608072253 METAR KPAE 072253Z 34008KT 10SM CLR 21/12 A2994 RMK AO2 SLP167 T02060117=
200608072153 METAR KPAE 072153Z VRB05KT 10SM CLR 23/12 A2995 RMK AO2 SLP168 T02280122=
200608072053 METAR KPAE 072053Z 26007KT 10SM CLR 21/12 A2995 RMK AO2 SLP170 T02060122 56008=
200608071953 METAR KPAE 071953Z 28007KT 10SM CLR 19/12 A2996 RMK AO2 SLP171 T01940122=
200608071853 METAR KPAE 071853Z VRB05KT 10SM FEW003 18/12 A2996 RMK AO2 SLP174 T01780117=
200608071800 SPECI KPAE 071800Z VRB05KT 10SM FEW003 14/12 A2998 RMK AO2=
200608071800 SPECI KPAE 071800Z VRB05KT 10SM FEW003 14/12 A2998 RMK AO2=
200608071753 METAR KPAE 071753Z VRB05KT 6SM HZ FEW003 BKN010 14/12 A2997 RMK AO2 SLP178 T01440117 10144 20117 53003=
200608071737 SPECI KPAE 071737Z 34006KT 3SM BR OVC001 13/11 A2997 RMK AO2=
200608071737 SPECI KPAE 071737Z 34006KT 3SM BR OVC001 13/11 A2997 RMK AO2=
200608071701 SPECI KPAE 071701Z 32006KT 1 3/4SM BR OVC001 13/12 A2997 RMK AO2 VIS 1V5=
200608071701 SPECI KPAE 071701Z 32006KT 1 3/4SM BR OVC001 13/12 A2997 RMK AO2 VIS 1V5=
200608071653 METAR KPAE 071653Z 33006KT 3/4SM BR OVC001 12/11 A2997 RMK AO2 SLP176 T01220111=
200608071651 SPECI KPAE 071651Z 34007KT 3/4SM BR OVC001 12/12 A2997 RMK AO2=
200608071651 SPECI KPAE 071651Z 34007KT 3/4SM BR OVC001 12/12 A2997 RMK AO2=
200608071603 SPECI KPAE 071603Z 34007KT 1/4SM FG VV001 12/12 A2997 RMK AO2=
200608071603 SPECI KPAE 071603Z 34007KT 1/4SM FG VV001 12/12 A2997 RMK AO2=
200608071553 METAR KPAE 071553Z VRB05KT 3/4SM BR VV001 12/12 A2996 RMK AO2 VIS 1/2V2 1/2 SLP175 T01220117=
200608071453 METAR KPAE 071453Z 36007KT 1/4SM FG VV001 12/12 A2996 RMK AO2 SLP174 T01220117 53005=
200608071353 METAR KPAE 071353Z AUTO 35006KT M1/4SM FG VV001 12/12 A2995 RMK AO2 SLP170 T01170117 TSNO=
200608071315 SPECI KPAE 071315Z AUTO VRB03KT 1/4SM FG VV001 12/12 A2995 RMK AO2=
200608071315 SPECI KPAE 071315Z AUTO VRB03KT 1/4SM FG VV001 12/12 A2995 RMK AO2=
200608071253 METAR KPAE 071253Z AUTO VRB04KT 1/2SM FG VV001 12/12 A2994 RMK AO2 SLP167 T01220117=
200608071251 SPECI KPAE 071251Z AUTO VRB05KT 1/2SM FG OVC002 12/12 A2995 RMK AO2=
200608071251 SPECI KPAE 071251Z AUTO VRB05KT 1/2SM FG OVC002 12/12 A2995 RMK AO2=
200608071240 SPECI KPAE 071240Z AUTO 34004KT 1 3/4SM BR OVC002 12/12 A2994 RMK AO2=
200608071240 SPECI KPAE 071240Z AUTO 34004KT 1 3/4SM BR OVC002 12/12 A2994 RMK AO2=
200608071207 SPECI KPAE 071207Z AUTO VRB03KT 7SM BKN002 12/12 A2994 RMK AO2=
200608071207 SPECI KPAE 071207Z AUTO VRB03KT 7SM BKN002 12/12 A2994 RMK AO2=
200608071153 METAR KPAE 071153Z AUTO VRB04KT 8SM FEW002 12/11 A2994 RMK AO2 SLP165 T01220111 10172 20122 51001=
200608071053 METAR KPAE 071053Z AUTO 36006KT 10SM CLR 13/12 A2994 RMK AO2 SLP164 T01280117=
200608070953 METAR KPAE 070953Z AUTO 36005KT 10SM CLR 13/12 A2994 RMK AO2 SLP164 T01280117=
200608070853 METAR KPAE 070853Z AUTO VRB03KT 10SM CLR 14/12 A2994 RMK AO2 SLP163 T01390117 56000=
200608070753 METAR KPAE 070753Z AUTO 01005KT 10SM CLR 15/12 A2994 RMK AO2 SLP163 T01500117 402500128=
200608070653 METAR KPAE 070653Z AUTO 02005KT 10SM CLR 16/12 A2993 RMK AO2 SLP162 T01610117=
200608070553 METAR KPAE 070553Z AUTO VRB04KT 10SM CLR 17/12 A2994 RMK AO2 SLP163 T01720117 10239 20167 51002=
200608070453 METAR KPAE 070453Z AUTO 02006KT 10SM CLR 17/12 A2993 RMK AO2 SLP163 T01720122=
200608070353 METAR KPAE 070353Z AUTO VRB04KT 10SM CLR 17/12 A2994 RMK AO2 SLP164 T01670122=
200608070253 METAR KPAE 070253Z AUTO 35007G14KT 300V060 10SM CLR 18/12 A2993 RMK AO2 SLP162 T01780122 56009=
200608070153 METAR KPAE 070153Z AUTO 34007KT 10SM CLR 20/12 A2993 RMK AO2 SLP163 T02000117=
200608070053 METAR KPAE 070053Z AUTO 35006KT 10SM CLR 22/10 A2994 RMK AO2 SLP166 T02220100=
200608062353 METAR KPAE 062353Z AUTO 34007KT 10SM CLR 23/11 A2996 RMK AO2 SLP170 T02330106 10250 20206 56010=
200608062253 METAR KPAE 062253Z AUTO 33007KT 310V020 10SM CLR 23/08 A2997 RMK AO2 SLP173 T02330083=
200608062153 METAR KPAE 062153Z 31006KT 10SM CLR 24/11 A2998 RMK AO2 SLP176 T02440106=
200608062053 METAR KPAE 062053Z VRB05KT 10SM CLR 23/11 A2999 RMK AO2 SLP180 T02330106 58008=
200608061953 METAR KPAE 061953Z VRB06KT 10SM CLR 22/11 A3000 RMK AO2 SLP184 T02220106=
200608061853 METAR KPAE 061853Z VRB05KT 10SM CLR 22/11 A3001 RMK AO2 SLP188 T02170111=
200608061753 METAR KPAE 061753Z VRB04KT 10SM CLR 21/09 A3001 RMK AO2 SLP189 T02110094 10211 20128 58001=
200608061653 METAR KPAE 061653Z 04004KT 10SM CLR 20/08 A3001 RMK AO2 SLP189 T02000083=
200608061553 METAR KPAE 061553Z 01004KT 10SM CLR 18/10 A3002 RMK AO2 SLP191 T01830100=
200608061453 METAR KPAE 061453Z VRB03KT 10SM CLR 17/11 A3001 RMK AO2 SLP190 T01670106 53009=
200608061353 METAR KPAE 061353Z 00000KT 10SM CLR 15/11 A3000 RMK AO2 SLP186 T01500106=
200608061253 METAR KPAE 061253Z AUTO 00000KT 10SM CLR 13/09 A2999 RMK AO2 SLP183 T01330089=
200608061153 METAR KPAE 061153Z AUTO 00000KT 10SM CLR 14/08 A2999 RMK AO2 SLP180 T01440078 10172 20144 55002=
200608061053 METAR KPAE 061053Z AUTO VRB03KT 10SM CLR 16/08 A2998 RMK AO2 SLP178 T01610078=
200608060953 METAR KPAE 060953Z AUTO 04005KT 10SM CLR 16/08 A2999 RMK AO2 SLP180 T01560083=
200608060853 METAR KPAE 060853Z AUTO 07004KT 10SM CLR 17/08 A2999 RMK AO2 SLP182 T01670078 50000=
200608060753 METAR KPAE 060753Z AUTO 04004KT 10SM CLR 17/08 A2999 RMK AO2 SLP182 T01720083 402560117=
200608060653 METAR KPAE 060653Z AUTO 36006KT 10SM CLR 16/09 A3000 RMK AO2 SLP184 T01610089=
200608060553 METAR KPAE 060553Z AUTO VRB06KT 10SM CLR 16/09 A2999 RMK AO2 SLP183 T01560089 10256 20156 50003=
200608060453 METAR KPAE 060453Z AUTO 36006KT 10SM CLR 16/09 A2999 RMK AO2 SLP184 T01610089=
200608060353 METAR KPAE 060353Z AUTO VRB03KT 10SM CLR 18/09 A2999 RMK AO2 SLP184 T01780089=
200608060253 METAR KPAE 060253Z 34006KT 10SM CLR 22/10 A2998 RMK AO2 SLP179 T02170100 56007=
200608060153 METAR KPAE 060153Z 32007KT 10SM CLR 24/09 A2998 RMK AO2 SLP180 T02390089=
200608060053 METAR KPAE 060053Z 33007KT 310V020 10SM CLR 24/08 A2999 RMK AO2 SLP184 T02440083=
200608052353 METAR KPAE 052353Z 34007KT 300V010 10SM CLR 25/09 A3001 RMK AO2 SLP187 T02500089 10256 20200 56015=
200608052253 METAR KPAE 052253Z VRB04KT 10SM CLR 25/09 A3002 RMK AO2 SLP192 T02500089=
200608052153 METAR KPAE 052153Z 32009KT 290V360 10SM CLR 25/08 A3004 RMK AO2 SLP198 T02500083=
200608052053 METAR KPAE 052053Z 32006KT 10SM CLR 25/08 A3005 RMK AO2 SLP203 T02500083 58008=
200608051953 METAR KPAE 051953Z VRB06KT 10SM CLR 23/08 A3006 RMK AO2 SLP207 T02330083=
200608051853 METAR KPAE 051853Z VRB06KT 10SM CLR 22/09 A3007 RMK AO2 SLP210 T02170089=
200608051753 METAR KPAE 051753Z 32005KT 10SM CLR 20/10 A3008 RMK AO2 SLP211 T02000100 10206 20122 58001=
200608051653 METAR KPAE 051653Z 35005KT 10SM CLR 18/10 A3008 RMK AO2 SLP214 T01830100=
200608051553 METAR KPAE 051553Z VRB04KT 10SM CLR 17/10 A3008 RMK AO2 SLP213 T01670100=
200608051453 METAR KPAE 051453Z VRB04KT 10SM CLR 16/10 A3008 RMK AO2 SLP213 T01560100 53010=
200608051353 METAR KPAE 051353Z 36003KT 10SM CLR 14/10 A3007 RMK AO2 SLP208 T01390100=
200608051253 METAR KPAE 051253Z AUTO 00000KT 10SM CLR 12/10 A3006 RMK AO2 SLP207 T01220100=
200608051153 METAR KPAE 051153Z AUTO 00000KT 10SM CLR 12/10 A3005 RMK AO2 SLP203 T01220100 10156 20117 55002=
200608051053 METAR KPAE 051053Z AUTO 00000KT 10SM CLR 13/10 A3005 RMK AO2 SLP202 T01330100=
200608050953 METAR KPAE 050953Z AUTO VRB04KT 10SM CLR 13/11 A3004 RMK AO2 SLP201 T01280106=
200608050853 METAR KPAE 050853Z AUTO VRB03KT 10SM CLR 13/10 A3005 RMK AO2 SLP205 T01280100 53003=
200608050753 METAR KPAE 050753Z AUTO 33006KT 10SM CLR 13/10 A3005 RMK AO2 SLP203 T01330100 402220106=
200608050653 METAR KPAE 050653Z AUTO VRB04KT 10SM CLR 14/10 A3005 RMK AO2 SLP202 T01390100=
200608050553 METAR KPAE 050553Z AUTO VRB04KT 10SM CLR 16/10 A3005 RMK AO2 SLP202 T01560100 10222 20150 51007=
200608050453 METAR KPAE 050453Z 35003KT 10SM CLR 17/07 A3004 RMK AO2 SLP201 T01720067=
200608050353 METAR KPAE 050353Z 32003KT 10SM CLR 18/07 A3003 RMK AO2 SLP198 T01830072=
200608050253 METAR KPAE 050253Z VRB04KT 10SM CLR 20/09 A3003 RMK AO2 SLP195 T02000089 55003=
200608050153 METAR KPAE 050153Z VRB04KT 10SM CLR 22/09 A3002 RMK AO2 SLP194 T02170094=
200608050053 METAR KPAE 050053Z 34007KT 10SM CLR 22/08 A3003 RMK AO2 SLP196 T02220083=
200608042353 METAR KPAE 042353Z 34006KT 10SM CLR 22/08 A3003 RMK AO2 SLP198 T02220083 10222 20167 58007=
200608042253 METAR KPAE 042253Z 35007KT 10SM CLR 22/08 A3004 RMK AO2 SLP202 T02170083=
200608042153 METAR KPAE 042153Z 29007KT 10SM CLR 21/09 A3005 RMK AO2 SLP203 T02060089=
200608042053 METAR KPAE 042053Z 29006KT 10SM CLR 20/10 A3005 RMK AO2 SLP205 T02000100 58008=
200608041953 METAR KPAE 041953Z 28005KT 10SM CLR 19/10 A3007 RMK AO2 SLP209 T01890100=
200608041853 METAR KPAE 041853Z VRB05KT 10SM CLR 18/09 A3007 RMK AO2 SLP212 T01780094=
200608041753 METAR KPAE 041753Z 26006KT 10SM CLR 17/09 A3008 RMK AO2 SLP213 T01720089 10172 20111 53004=
200608041653 METAR KPAE 041653Z 25005KT 10SM CLR 16/10 A3006 RMK AO2 SLP209 T01560100=
200608041553 METAR KPAE 041553Z VRB04KT 10SM CLR 15/09 A3007 RMK AO2 SLP210 T01500094=
200608041453 METAR KPAE 041453Z 00000KT 10SM CLR 14/09 A3006 RMK AO2 SLP209 T01390094 53008=
200608041353 METAR KPAE 041353Z AUTO 00000KT 10SM CLR 12/09 A3005 RMK AO2 SLP205 T01170094=
200608041253 METAR KPAE 041253Z AUTO 00000KT 10SM FEW055 12/09 A3005 RMK AO2 SLP202 T01170094=
200608041153 METAR KPAE 041153Z AUTO 35003KT 10SM CLR 11/09 A3004 RMK AO2 SLP200 T01110094 10139 20106 53007=
200608041053 METAR KPAE 041053Z AUTO 00000KT 10SM CLR 11/09 A3003 RMK AO2 SLP195 T01110089=
200608040953 METAR KPAE 040953Z AUTO 35003KT 10SM CLR 12/09 A3002 RMK AO2 SLP193 T01170089=
200608040853 METAR KPAE 040853Z AUTO VRB03KT 10SM CLR 12/09 A3002 RMK AO2 SLP193 T01220089 58003=
200608040753 METAR KPAE 040753Z AUTO 36006KT 10SM CLR 13/09 A3002 RMK AO2 SLP194 T01330089 402220106=
200608040653 METAR KPAE 040653Z AUTO 34006KT 10SM CLR 13/09 A3003 RMK AO2 SLP195 T01330089=
200608040553 METAR KPAE 040553Z AUTO 34005G15KT 10SM CLR 14/09 A3003 RMK AO2 SLP196 T01390089 10217 20139 51002=
200608040453 METAR KPAE 040453Z AUTO 35006KT 10SM CLR 14/09 A3003 RMK AO2 SLP196 T01440089=
200608040353 METAR KPAE 040353Z AUTO 36006KT 10SM CLR 14/09 A3003 RMK AO2 SLP196 T01440094=
200608040253 METAR KPAE 040253Z 34005KT 10SM CLR 16/10 A3002 RMK AO2 SLP195 T01610100 56005=
200608040153 METAR KPAE 040153Z VRB06KT 10SM CLR 19/10 A3002 RMK AO2 SLP195 T01890100=
200608040053 METAR KPAE 040053Z 34008KT 10SM CLR 22/09 A3003 RMK AO2 SLP195 T02170094=
200608032353 METAR KPAE 032353Z VRB05KT 10SM CLR 22/10 A3004 RMK AO2 SLP199 T02170100 10222 20161 58016=
200608032253 METAR KPAE 032253Z VRB04KT 10SM CLR 22/10 A3006 RMK AO2 SLP205 T02170100=
200608032153 METAR KPAE 032153Z VRB05KT 10SM CLR 21/11 A3007 RMK AO2 SLP210 T02060111=
200608032053 METAR KPAE 032053Z 28004KT 10SM CLR 20/11 A3009 RMK AO2 SLP215 T02000111 58010=
200608031953 METAR KPAE 031953Z VRB05KT 10SM CLR 19/11 A3010 RMK AO2 SLP219 T01890111=
200608031853 METAR KPAE 031853Z VRB05KT 10SM FEW040 17/11 A3011 RMK AO2 SLP226 T01720106=
200608031753 METAR KPAE 031753Z VRB04KT 10SM CLR 17/10 A3012 RMK AO2 SLP227 T01670100 10167 20111 58002=
200608031653 METAR KPAE 031653Z 33005KT 10SM CLR 15/09 A3012 RMK AO2 SLP229 T01500094=
200608031553 METAR KPAE 031553Z VRB05KT 10SM CLR 13/10 A3013 RMK AO2 SLP230 T01330100=
200608031453 METAR KPAE 031453Z 32005KT 10SM SCT250 13/10 A3012 RMK AO2 SLP229 T01280100 53005=
200608031353 METAR KPAE 031353Z AUTO VRB03KT 10SM CLR 12/09 A3011 RMK AO2 SLP224 T01170094=
200608031253 METAR KPAE 031253Z AUTO VRB04KT 10SM CLR 11/09 A3011 RMK AO2 SLP223 T01110089=
200608031153 METAR KPAE 031153Z AUTO 33005KT 10SM CLR 11/09 A3011 RMK AO2 SLP223 T01110089 10128 20106 56003=
200608031053 METAR KPAE 031053Z AUTO VRB04KT 10SM CLR 12/08 A3011 RMK AO2 SLP223 T01170083=
200608030953 METAR KPAE 030953Z AUTO VRB04KT 10SM CLR 12/08 A3011 RMK AO2 SLP223 T01220083=
200608030853 METAR KPAE 030853Z AUTO VRB03KT 10SM CLR 12/08 A3012 RMK AO2 SLP226 T01220083 57008=
200608030753 METAR KPAE 030753Z AUTO VRB04KT 10SM CLR 12/09 A3012 RMK AO2 SLP229 T01220089 402060122=
200608030653 METAR KPAE 030653Z AUTO 36006KT 10SM CLR 12/09 A3014 RMK AO2 SLP233 T01220094=
200608030553 METAR KPAE 030553Z AUTO 36006KT 10SM CLR 13/09 A3014 RMK AO2 SLP235 T01280094 10206 20128 50000=
200608030453 METAR KPAE 030453Z AUTO 36007KT 10SM CLR 13/09 A3015 RMK AO2 SLP238 T01330089=
200608030353 METAR KPAE 030353Z AUTO 35006KT 10SM CLR 14/09 A3014 RMK AO2 SLP235 T01440094=
200608030253 METAR KPAE 030253Z 33005KT 10SM CLR 17/09 A3014 RMK AO2 SLP234 T01720094 56010=
200608030153 METAR KPAE 030153Z VRB05KT 10SM CLR 19/09 A3015 RMK AO2 SLP236 T01940094=
200608030053 METAR KPAE 030053Z 34007KT 10SM CLR 19/09 A3016 RMK AO2 SLP240 T01940089=
200608022353 METAR KPAE 022353Z 35007KT 10SM CLR 20/08 A3017 RMK AO2 SLP245 T02000083 10206 20167 58014=
200608022253 METAR KPAE 022253Z VRB06KT 10SM CLR 20/07 A3019 RMK AO2 SLP250 T02000072=
200608022153 METAR KPAE 022153Z VRB05KT 10SM CLR 19/08 A3020 RMK AO2 SLP256 T01940083=
200608022053 METAR KPAE 022053Z VRB04KT 10SM SCT026 19/10 A3021 RMK AO2 SLP259 T01890100 58006=
200608021953 METAR KPAE 021953Z 28008KT 10SM SCT026 18/10 A3022 RMK AO2 SLP262 T01780100=
200608021853 METAR KPAE 021853Z 34006KT 10SM BKN027 18/10 A3023 RMK AO2 SLP264 T01830100=
200608021753 METAR KPAE 021753Z VRB06KT 10SM OVC027 18/11 A3023 RMK AO2 SLP265 T01780106 10178 20122 51006=
200608021715 SPECI KPAE 021715Z 36005KT 10SM BKN027 17/10 A3023 RMK AO2=
200608021715 SPECI KPAE 021715Z 36005KT 10SM BKN027 17/10 A3023 RMK AO2=
200608021653 METAR KPAE 021653Z VRB05KT 10SM FEW020 SCT027 17/10 A3023 RMK AO2 SLP263 T01670100=
200608021600 SPECI KPAE 021600Z VRB03KT 10SM FEW020 SCT027 16/11 A3022 RMK AO2=
200608021600 SPECI KPAE 021600Z VRB03KT 10SM FEW020 SCT027 16/11 A3022 RMK AO2=
200608021553 METAR KPAE 021553Z VRB03KT 10SM FEW020 BKN027 16/11 A3022 RMK AO2 SLP261 T01610106=
200608021453 METAR KPAE 021453Z 34005KT 10SM SCT020 BKN025 14/11 A3021 RMK AO2 SLP258 T01440106 53012=
200608021353 METAR KPAE 021353Z VRB03KT 10SM BKN022 OVC060 14/11 A3020 RMK AO2 SLP253 T01390106=
200608021314 SPECI KPAE 021314Z AUTO VRB03KT 10SM BKN024 OVC060 13/11 A3019 RMK AO2=
200608021314 SPECI KPAE 021314Z AUTO VRB03KT 10SM BKN024 OVC060 13/11 A3019 RMK AO2=
200608021253 METAR KPAE 021253Z AUTO VRB03KT 10SM FEW024 OVC060 13/11 A3019 RMK AO2 SLP250 T01280111=
200608021153 METAR KPAE 021153Z AUTO 34005KT 10SM OVC055 13/11 A3018 RMK AO2 SLP247 T01280106 10144 20122 51004=
200608021053 METAR KPAE 021053Z AUTO 35004KT 10SM CLR 12/11 A3017 RMK AO2 SLP245 T01220106=
200608020953 METAR KPAE 020953Z AUTO VRB05KT 10SM FEW055 13/11 A3017 RMK AO2 SLP244 T01280106=
200608020853 METAR KPAE 020853Z AUTO 34007KT 10SM OVC050 14/11 A3016 RMK AO2 SLP242 T01390106 51006=
200608020753 METAR KPAE 020753Z AUTO 35007KT 310V020 10SM FEW048 BKN060 OVC075 14/11 A3016 RMK AO2 SLP241 T01390106 402170117=
200608020653 METAR KPAE 020653Z AUTO 36006KT 10SM OVC075 14/11 A3015 RMK AO2 SLP239 T01440106=
200608020553 METAR KPAE 020553Z AUTO VRB05KT 10SM CLR 14/11 A3015 RMK AO2 SLP237 T01390111 10211 20139 51011=
200608020453 METAR KPAE 020453Z AUTO VRB05KT 10SM CLR 14/11 A3014 RMK AO2 SLP234 T01440106=
200608020353 METAR KPAE 020353Z AUTO 35007KT 320V040 10SM BKN080 15/10 A3012 RMK AO2 SLP229 T01500100=
200608020253 METAR KPAE 020253Z 34009KT 300V010 10SM OVC080 17/10 A3011 RMK AO2 SLP226 T01670100 55000=
200608020153 METAR KPAE 020153Z 34008KT 10SM BKN080 19/09 A3011 RMK AO2 SLP224 T01890094=
200608020053 METAR KPAE 020053Z 33008KT 10SM SCT085 19/11 A3011 RMK AO2 SLP224 T01890106=
200608012353 METAR KPAE 012353Z VRB06KT 10SM CLR 21/09 A3011 RMK AO2 SLP225 T02110094 10217 20161 50000=
200608012253 METAR KPAE 012253Z 27007KT 10SM CLR 21/09 A3012 RMK AO2 SLP226 T02060094=
200608012153 METAR KPAE 012153Z 26007KT 10SM SCT045 19/10 A3011 RMK AO2 SLP225 T01940100=
200608012053 METAR KPAE 012053Z 30005KT 10SM CLR 19/10 A3011 RMK AO2 SLP225 T01890100 53001=
200608011953 METAR KPAE 011953Z 30005KT 10SM FEW031 18/10 A3011 RMK AO2 SLP224 T01830100=
200608011946 SPECI KPAE 011946Z 31006KT 10SM SCT029 18/10 A3011 RMK AO2=
200608011946 SPECI KPAE 011946Z 31006KT 10SM SCT029 18/10 A3011 RMK AO2=
200608011929 SPECI KPAE 011929Z VRB06KT 10SM BKN029 19/10 A3011 RMK AO2=
200608011929 SPECI KPAE 011929Z VRB06KT 10SM BKN029 19/10 A3011 RMK AO2=
200608011853 METAR KPAE 011853Z 02005KT 10SM CLR 18/09 A3011 RMK AO2 SLP224 T01780094=
200608011753 METAR KPAE 011753Z VRB04KT 10SM CLR 16/09 A3011 RMK AO2 SLP225 T01610094 10161 20117 51008=
200608011653 METAR KPAE 011653Z VRB03KT 10SM CLR 15/09 A3011 RMK AO2 SLP225 T01500094=
200608011553 METAR KPAE 011553Z VRB04KT 10SM CLR 13/09 A3010 RMK AO2 SLP220 T01330094=
200608011453 METAR KPAE 011453Z 01006KT 10SM CLR 13/09 A3008 RMK AO2 SLP216 T01280094 53014=
200608011353 METAR KPAE 011353Z 04005KT 10SM CLR 12/09 A3006 RMK AO2 SLP209 T01220094=
200608011253 METAR KPAE 011253Z VRB05KT 10SM CLR 12/08 A3005 RMK AO2 SLP205 T01170083=
200608011153 METAR KPAE 011153Z 04005KT 10SM CLR 12/09 A3004 RMK AO2 SLP201 T01220089 10128 20122 53003=
200608011053 METAR KPAE 011053Z VRB03KT 10SM CLR 12/08 A3004 RMK AO2 SLP200 T01220083=
200608010953 METAR KPAE 010953Z 04005KT 10SM SCT055 12/09 A3003 RMK AO2 SLP198 T01220089=
200608010853 METAR KPAE 010853Z 05003KT 10SM CLR 12/09 A3004 RMK AO2 SLP198 T01220089 53002=
200608010753 METAR KPAE 010753Z 03006KT 10SM CLR 13/09 A3003 RMK AO2 SLP196 T01280094 402110117=
200608010653 METAR KPAE 010653Z 36007KT 10SM SCT055 13/09 A3003 RMK AO2 SLP195 T01280089=
200608010553 METAR KPAE 010553Z VRB05KT 10SM CLR 13/09 A3003 RMK AO2 SLP198 T01280094 10206 20128 53007=
200608010453 METAR KPAE 010453Z 35007KT 10SM CLR 13/08 A3002 RMK AO2 SLP195 T01330083=
200608010353 METAR KPAE 010353Z VRB03KT 10SM CLR 14/10 A3001 RMK AO2 SLP192 T01390100=
200608010253 METAR KPAE 010253Z 33007KT 10SM CLR 16/10 A3001 RMK AO2 SLP190 T01610100 55000=
200608010153 METAR KPAE 010153Z 33009KT 10SM CLR 18/08 A3000 RMK AO2 SLP186 T01780083=
200608010053 METAR KPAE 010053Z 31006KT 10SM CLR 20/08 A3000 RMK AO2 SLP187 T02000083=

# No short TAF reports from KPAE in databse.

###################################
#  large TAF from KPAE
###################################
200608312320 TAF KPAE 312320Z 010024 34008KT P6SM SKC FM0500 03004KT P6SM SKC
                       FM1800 34008KT P6SM SKC=
200608311722 TAF KPAE 311722Z 311818 34006KT P6SM SKC FM2100 30006KT P6SM SKC
                       FM0500 02004KT P6SM SKC
                      TEMPO 1316 00000KT 1SM BR SCT008=
200608311137 TAF KPAE 311137Z 311212 01007KT P6SM SKC FM2000 34007KT P6SM SKC=
200608310533 TAF KPAE 310533Z 310606 01006KT P6SM BKN045 FM0900 04006KT P6SM
                       SKC FM1200 06004KT P6SM VCFG FEW002
                      TEMPO 1216 00000KT 1/2SM FG VV002 FM1700
                       VRB03KT P6SM SKC FM2000 34007KT P6SM SKC=
200608302320 TAF KPAE 302320Z 310024 30007KT P6SM SCT025 BKN060
                      TEMPO 0003 5SM -SHRA OVC018 FM0600 36008KT
                       P6SM SCT070 FM0900 04006KT P6SM SKC FM1100
                       06004KT P6SM VCFG FEW002
                      TEMPO 1114 00000KT 1/2SM FG VV002 FM1500
                       06005KT P6SM SKC=
200608302105 KPAE 302105Z 302118 26008KT P6SM SCT025 BKN070
                      TEMPO 2123 BKN025 FM0100 34008KT P6SM SCT070
                       FM0600 04006KT P6SM SKC FM1000 06004KT P6SM
                       VCFG FEW002
                      TEMPO 1214 00000KT 1/2SM FG VV002 FM1500
                       06005KT P6SM SKC=
200608301720 TAF KPAE 301720Z 301818 28007KT P6SM FEW018 SCT025 BKN070
                      TEMPO 1820 BKN018 FM2100 26008KT P6SM SCT025
                       BKN070 FM0100 34008KT P6SM SCT070 FM0600
                       04006KT P6SM SKC FM1000 06004KT P6SM VCFG
                       FEW002
                      TEMPO 1214 00000KT 1/2SM FG VV002 FM1500
                       06005KT P6SM SKC=
200608301330 KPAE 301330Z 301412 18007KT P6SM -SHRA BKN024 OVC070 FM1800 18007KT
                       P6SM BKN035 BKN070
                      TEMPO 1821 -SHRA FM2100 24008KT P6SM VCSH
                       SCT035 BKN070 FM0700 04006KT P6SM SKC FM1000
                       VRB03KT P6SM FEW015=
200608301124 TAF KPAE 301124Z 301212 14007KT P6SM BKN020 OVC070 FM1300 17007KT
                       P6SM -SHRA OVC070 FM2000 24010KT P6SM VCSH
                       SCT030 BKN070 FM0700 04006KT P6SM SKC FM1000
                       VRB03KT P6SM FEW015=
200608300524 TAF KPAE 300524Z 300606 02006KT P6SM BKN035 OVC045
                      TEMPO 0609 P6SM -SHRA OVC035 FM0900 20006KT
                       P6SM -SHRA OVC045
                      TEMPO 1216 1SM SHRA OVC006 FM2000 22010KT
                       P6SM -SHRA BKN015 OVC030 FM2200 24012KT
                       P6SM -SHRA BKN030 OVC040=
200608300009 TAF AMD KPAE 300009Z 300024 02006KT P6SM -SHRA SCT015 OVC035
                      TEMPO 0004 3SM SHRA OVC015 FM0900 20006KT
                       P6SM -SHRA OVC015
                      TEMPO 1216 1SM SHRA OVC006 FM2000 22010KT
                       P6SM -SHRA BKN015 OVC030 FM2200 24012KT
                       P6SM -SHRA BKN030 OVC040=
200608292320 TAF KPAE 292320Z 300024 36006KT P6SM -SHRA SCT015 OVC035
                      TEMPO 0004 3SM SHRA OVC015 FM0400 21008KT
                       P6SM OVC030 FM0900 20006KT P6SM -SHRA OVC015
                       TEMPO 1216 1SM SHRA OVC006 FM2000 22010KT
                       P6SM -SHRA BKN015 OVC030 FM2200 24012KT
                       P6SM -SHRA BKN030 OVC040=
200608292300 KPAE 300009Z 300024 02006KT P6SM -SHRA SCT015 OVC035
                      TEMPO 0004 3SM SHRA OVC015 FM0900 20006KT
                       P6SM -SHRA OVC015
                      TEMPO 1216 1SM SHRA OVC006 FM2000 22010KT
                       P6SM -SHRA BKN015 OVC030 FM2200 24012KT
                       P6SM -SHRA BKN030 OVC040=
200608292111 KPAE 292111Z 292118 05006KT P6SM OVC025
                      TEMPO 2123 -SHRA OVC018 FM2300 18006KT P6SM
                       OVC035 FM0900 18006KT P6SM -SHRA OVC018
                       TEMPO 1216 OVC009=
200608291720 TAF KPAE 291720Z 291818 36006KT P6SM SCT009 OVC014
                      TEMPO 1822 1SM -RA BR OVC009 FM2200 22009KT
                       P6SM OVC018
                      TEMPO 2201 -RA FM0100 18006KT P6SM OVC035
                       FM0900 18006KT P6SM -SHRA OVC018
                      TEMPO 1216 OVC009=
200608291602 TAF AMD KPAE 291602Z 291612 01006KT P6SM SCT009 OVC014
                      TEMPO 1618 18006KT 2SM -RA BR OVC009 FM2100
                       22009KT P6SM SCT025 BKN035 FM0600 18006KT
                       P6SM OVC035=
200608291127 TAF KPAE 291127Z 291212 VRB06KT P6SM BKN014 FM1300 18006KT P6SM
                       OVC014 FM2100 22009KT P6SM SCT025 BKN035
                       FM0600 18006KT P6SM OVC035=
200608290523 TAF KPAE 290523Z 290606 34009KT P6SM FEW200 FM0600 VRB04KT P6SM
                       SCT060 FM0800 16006KT P6SM BKN040 FM1200
                       18005KT P6SM OVC007 FM1900 19007KT P6SM
                       SCT012 BKN025
                      TEMPO 1921 -SHRA BKN012 FM2200 22009KT P6SM
                       SCT025 BKN035
                      TEMPO 2224 -SHRA BKN025=
200608282325 TAF KPAE 282325Z 290024 33013G20KT P6SM SCT200 FM0600 30009KT P6SM
                       FEW060 SCT200 FM0800 16006KT P6SM BKN060
                       FM1200 18005KT P6SM OVC007 FM1900 19007KT
                       P6SM SCT012 BKN025
                      TEMPO 1921 -SHRA BKN012 FM2200 22009KT P6SM
                       SCT025 BKN035
                      TEMPO 2224 -SHRA BKN025=
200608281720 TAF KPAE 281720Z 281818 VRB03KT P6SM SCT200 FM1900 29007KT P6SM
                       SCT200 FM2300 29012KT P6SM SCT200 FM0600
                       30009KT P6SM FEW060 SCT200 FM1000 21005KT
                       P6SM BKN060 FM1200 18005KT P6SM OVC007=
200608281135 TAF KPAE 281135Z 281212 00000KT P6SM SKC FM1800 32009KT P6SM SCT250
                       FM0400 35006KT P6SM SCT060 FM1000 29006KT
                       P6SM BKN060 FM1100 25006KT P6SM OVC020=
200608280723 KPAE 280723Z 280706 33006KT P6SM SCT250 FM1400 VRB03KT P6SM FEW250
                       FM1900 32009KT P6SM SKC FM0400 32006KT P6SM
                       BKN050=
200608280531 TAF KPAE 280531Z 280606 33006KT P6SM SCT250 FM1200 VRB03KT P6SM
                       FEW003 SCT250 FM1900 32009KT P6SM SCT050
                       BKN250 FM0400 32006KT P6SM BKN050=
200608272326 TAF KPAE 272326Z 280024 33006KT P6SM SCT250 FM0300 36006KT P6SM
                       SCT250 FM1200 VRB03KT P6SM VCFG FEW001 SCT250
                       FM1400 VRB03KT 2SM BR BKN003 FM1800 VRB03KT
                       P6SM BKN006 FM1900 32009KT P6SM SCT050 BKN250=
200608271728 TAF KPAE 271728Z 271818 33008KT P6SM SCT250 FM0300 36006KT P6SM
                       SCT250 FM1200 VRB03KT 3/4SM BR VV001 FM1500
                       VRB03KT 4SM BR OVC004=
200608271122 TAF KPAE 271122Z 271212 VRB03KT P6SM SKC FM1900 31006KT P6SM SKC
                       FM0500 VRB03KT P6SM SKC=
200608270520 TAF KPAE 270520Z 270606 32006KT P6SM SKC FM0600 02004KT P6SM SKC
                       FM1900 31006KT P6SM SKC=
200608262320 TAF KPAE 262320Z 270024 32007KT P6SM FEW250 FM0200 02004KT P6SM
                       SKC FM1900 31006KT P6SM SKC=
200608261730 TAF KPAE 261730Z 261818 32007KT P6SM SCT250 FM0200 02004KT P6SM
                       SKC=
200608261123 TAF KPAE 261123Z 261212 VRB03KT P6SM SCT250 FM2000 32007KT P6SM
                       SKC FM0700 02005KT P6SM SKC=
200608260521 TAF KPAE 260521Z 260606 01004KT P6SM SCT250 FM1900 32007KT P6SM
                       SKC=
200608252324 TAF KPAE 252324Z 260024 34007KT P6SM SCT250 FM0400 01004KT P6SM
                       SCT250 FM1900 31007KT P6SM SKC=
200608251737 TAF KPAE 251737Z 251818 34008KT P6SM SKC FM0400 01004KT P6SM SKC=
200608251133 TAF KPAE 251133Z 251212 NIL=
200608250533 TAF KPAE 250533Z 250606 00000KT P6SM SKC FM1300 VRB03KT 5SM BR
                       SCT003
                      TEMPO 1416 1SM BR BKN003 FM1700 34008KT P6SM
                       SKC=
200608242335 TAF KPAE 242335Z 250024 25008KT P6SM BKN030
                      TEMPO 0003 P6SM SCT030 FM0300 36003KT P6SM
                       SCT030 FM1200 03004KT P6SM BKN006 FM1700
                       34005KT P6SM SCT010=
200608242102 KPAE 242102Z 242118 28005KT P6SM SCT020 BKN035 FM0000 31007KT P6SM
                       SCT030 FM0400 36003KT P6SM SKC FM1200 03004KT
                       P6SM BKN006=
200608241900 KPAE 241900Z 241918 VRB04KT P6SM BKN016 OVC030
                      TEMPO 2024 SCT016 BKN030 FM0000 31007KT P6SM
                       SCT030 FM0400 36003KT P6SM SKC FM1200 03004KT
                       P6SM BKN006=
200608241733 TAF KPAE 241733Z 241818 VRB04KT P6SM BKN030 FM2300 31007KT P6SM
                       SCT030 FM0400 36003KT P6SM SKC FM1200 03004KT
                       P6SM BKN006=
200608241604 KPAE 241604Z 241612 VRB03KT P6SM SCT010 OVC030
                      TEMPO 1618 BKN010 OVC030 FM2000 34006KT P6SM
                       BKN030 BKN090 FM2300 31007KT P6SM SCT025
                       SCT090 FM0400 36003KT P6SM SCT120=
200608241127 TAF KPAE 241127Z 241212 VRB03KT P6SM OVC012 FM1900 34006KT P6SM
                       BKN020 BKN090 FM2300 31007KT P6SM SCT025
                       SCT090 FM0400 36003KT P6SM SCT120=
200608240540 TAF KPAE 240540Z 240606 35005KT P6SM OVC025 FM1200 VRB03KT P6SM
                       OVC012 FM1900 34006KT P6SM BKN020 BKN090
                       FM2300 31007KT P6SM SCT025 BKN090=
200608232336 TAF KPAE 232336Z 240024 21007KT P6SM BKN030
                      TEMPO 0004 SCT030 FM0700 31004KT P6SM BKN015
                       OVC030 FM1200 VRB03KT P6SM OVC012
                      TEMPO 1216 3SM BR OVC006 FM1900 34006KT P6SM
                       SCT010 BKN020=
200608231735 TAF KPAE 231735Z 231818 22006KT P6SM OVC008
                      TEMPO 1921 SCT008 OVC025 FM2100 21007KT P6SM
                       SCT012 BKN030 FM0700 31004KT P6SM BKN015
                       OVC030 FM1200 VRB03KT P6SM OVC012
                      TEMPO 1216 3SM BR OVC006=
200608231525 TAF AMD KPAE 231525Z 231512 VRB04KT P6SM SCT002 BKN010 OVC025
                      TEMPO 1517 BKN002 FM1700 20006KT P6SM SCT005
                       BKN012 OVC025 FM2300 21007KT P6SM SCT020
                       BKN120 FM0300 31004KT P6SM BKN120=
200608231120 TAF KPAE 231120Z 231212 VRB04KT P6SM OVC002 FM1700 20006KT P6SM
                       SCT005 OVC012 FM2300 21007KT P6SM SCT020
                       BKN120 FM0300 31004KT P6SM BKN120=
200608230854 KPAE 230854Z 230906 VRB03KT P6SM BKN002
                      TEMPO 0911 SCT002 FM1100 16005KT P6SM OVC012
                       FM2300 VRB04KT P6SM SCT020 BKN200=
200608230523 TAF KPAE 230523Z 230606 36004KT P6SM SKC FM1100 16005KT P6SM OVC012
                       FM2300 VRB04KT P6SM SCT020 BKN200=
200608222335 TAF KPAE 222335Z 230024 16006KT P6SM SCT020
                      TEMPO 0001 BKN020 FM0200 VRB04KT P6SM SKC
                       FM1100 16005KT P6SM OVC012 FM2300 VRB04KT
                       P6SM SCT020=
200608222208 KPAE 222208Z 222218 15007KT P6SM OVC020 FM0000 20006KT P6SM SCT020
                       FM0400 VRB04KT P6SM SCT250 FM1100 19005KT
                       P6SM OVC012=
200608221737 TAF KPAE 221737Z 221818 17009KT P6SM OVC011 FM2200 VRB03KT P6SM
                       SCT020 FM0100 34006KT P6SM SCT250 FM1100
                       19005KT P6SM OVC012=
200608221120 TAF KPAE 221120Z 221212 18009KT 5SM BR OVC002
                      TEMPO 1214 P6SM NSW SKC FM1700 VRB03KT P6SM
                       BKN005 OVC010 FM2100 VRB03KT P6SM SCT020
                       FM0100 34006KT P6SM SCT250=
200608220529 TAF KPAE 220529Z 220606 00000KT P6SM BKN250 FM1200 VRB03KT P6SM
                       OVC004
                      TEMPO 1215 2SM BR OVC002 FM1700 VRB03KT P6SM
                       BKN005 OVC010 FM2100 VRB03KT P6SM SCT020
                       FM0100 34006KT P6SM SCT250=
200608212331 TAF KPAE 212331Z 220024 26007KT P6SM BKN250 FM1200 VRB03KT P6SM
                       OVC004
                      TEMPO 1215 2SM BR OVC002 FM1700 VRB03KT P6SM
                       BKN005 OVC010 FM2100 VRB03KT P6SM SCT020=
200608211738 TAF KPAE 211738Z 211818 24005KT P6SM SCT250 FM2000 30006KT P6SM
                       SCT250 FM1200 VRB03KT P6SM OVC004
                      TEMPO 1215 2SM BR OVC002 FM1700 VRB03KT P6SM
                       BKN005 OVC010=
200608211130 TAF KPAE 211130Z 211212 VRB03KT P6SM SCT250 FM2000 32007KT P6SM
                       SCT250 FM1100 VRB03KT P6SM OVC004=
200608210532 TAF KPAE 210532Z 210606 VRB03KT P6SM SCT250 FM1300 VRB03KT P6SM
                       SCT002
                      TEMPO 1315 4SM BR BKN002 FM1600 VRB03KT P6SM
                       SCT250 FM2000 32007KT P6SM SCT250=
200608202322 TAF KPAE 202322Z 210024 33007KT P6SM SKC FM0700 VRB03KT P6SM SCT250
                       FM2000 32007KT P6SM SCT250=
200608201725 TAF KPAE 201725Z 201818 VRB03KT P6SM SKC FM2000 33006KT P6SM SKC
                       FM0700 VRB03KT P6SM SKC=
200608201134 TAF KPAE 201134Z 201212 VRB03KT P6SM SKC FM2000 33006KT P6SM SKC=
200608200526 TAF KPAE 200526Z 200606 VRB03KT P6SM SKC FM2000 33006KT P6SM SKC=
200608192320 TAF KPAE 192320Z 200024 32006KT P6SM SKC FM0500 VRB03KT P6SM SKC
                       FM2000 33006KT P6SM SKC=
200608191733 TAF KPAE 191733Z 191818 36007KT P6SM SKC FM0500 35004KT P6SM SKC=
200608191137 TAF KPAE 191137Z 191212 33008KT P6SM SKC=
200608190524 TAF KPAE 190524Z 190606 VRB03KT P6SM SKC
                      TEMPO 1315 5SM BR FM1800 33008KT P6SM SKC=
200608182327 TAF KPAE 182327Z 190024 34008KT P6SM SKC FM0400 01005KT P6SM SKC
                       FM2000 33008KT P6SM SKC=
200608181720 TAF KPAE 181720Z 181818 VRB03KT P6SM SKC FM2000 33007KT P6SM SKC
                       FM0400 01005KT P6SM SKC=
200608181403 KPAE 181403Z 181412 34003KT P6SM SKC
                      TEMPO 1416 3SM BR BKN001 FM2000 33007KT P6SM
                       SKC=
200608181132 TAF KPAE 181132Z 181212 34008KT P6SM SKC
                      TEMPO 1214 4SM BR SCT002=
200608180526 TAF KPAE 180526Z 180606 36003KT P6SM SKC FM2000 32008KT P6SM SKC=
200608172328 TAF KPAE 172328Z 180024 30006KT P6SM SKC FM0300 34006KT P6SM SKC
                       FM0600 VRB04KT P6SM SKC FM2000 32008KT P6SM
                       SKC=
200608171739 TAF KPAE 171739Z 171818 25004KT P6SM OVC012 FM2000 VRB03KT P6SM
                       SCT017 FM2200 32008KT P6SM SKC FM0300 34006KT
                       P6SM SKC FM0600 VRB04KT P6SM SKC=
200608171643 KPAE 171643Z 171712 21005KT P6SM OVC011 FM2000 VRB03KT P6SM SCT017
                       FM2200 32008KT P6SM SKC=
200608171138 TAF KPAE 171138Z 171212 VRB03KT 4SM BR SCT002 OVC006
                      TEMPO 1316 1/2SM FG OVC002 FM1600 VRB03KT
                       P6SM SCT002 BKN008 FM1700 VRB03KT P6SM SCT015
                       FM2000 32008KT P6SM SKC=
200608170540 TAF KPAE 170540Z 170606 18006KT P6SM SKC FM1400 18006KT P6SM SCT002
                       BKN009 FM1700 18006KT P6SM SCT015 FM1800
                       24004KT P6SM SKC FM2000 32008KT P6SM SKC=
200608162329 TAF KPAE 162329Z 170024 27005KT P6SM SKC FM0600 12004KT P6SM SKC
                       FM1100 12003KT P6SM SCT018
                      TEMPO 1317 BKN018 FM1800 26004KT P6SM SCT030
                       FM2000 30006KT P6SM SKC=
200608161737 TAF KPAE 161737Z 161818 24006KT P6SM SCT018 SCT060 BKN200
                      TEMPO 1820 BKN018 BKN060 OVC200 FM2200 27005KT
                       P6SM SCT050 SCT200 FM0200 29005KT P6SM SKC
                       FM1100 12003KT P6SM SCT018
                      TEMPO 1317 BKN018=
200608161120 TAF KPAE 161120Z 161212 VRB04KT P6SM SCT025 BKN060
                      TEMPO 1216 BKN025 FM1800 24005KT P6SM SCT050
                       TEMPO 1820 BKN050 FM2200 33005KT P6SM SCT050
                       SCT200=
200608161003 KPAE 161003Z 161006 VRB04KT P6SM SCT025 BKN050
                      TEMPO 1216 BKN025 FM1800 24005KT P6SM SCT050
                       TEMPO 1820 BKN050 FM2200 33005KT P6SM SCT050
                       SCT200=
200608160520 TAF KPAE 160520Z 160606 22004KT P6SM SCT040 SCT200
                      TEMPO 0608 BKN040 FM1000 00000KT P6SM OVC012
                       TEMPO 1216 2SM BR BKN007 FM1800 20005KT
                       P6SM SCT012 SCT200
                      TEMPO 1819 BKN012 FM2000 24007KT P6SM SCT200=
200608152331 TAF KPAE 152331Z 160024 24009KT P6SM BKN200 FM0300 30005KT P6SM
                       SCT200 FM0900 00000KT P6SM SCT200
                      TEMPO 1216 4SM BR SCT007 FM1800 20005KT P6SM
                       SCT200=
200608151729 TAF KPAE 151729Z 151818 18009KT P6SM SCT015 SCT200 FM2000 28007KT
                       P6SM SCT200 FM0300 30005KT P6SM SCT200 FM0900
                       00000KT P6SM SCT200
                      TEMPO 1216 4SM BR SCT007=
200608151306 KPAE 151306Z 151312 17005KT P6SM SCT070 FM1400 17005KT P6SM SCT010
                       SCT070
                      TEMPO 1415 BKN010 BKN070 FM1500 17005KT P6SM
                       OVC010 FM1800 25006KT P6SM SCT020 SCT200
                       FM2000 28007KT P6SM SCT200 FM0300 30005KT
                       P6SM SCT200 FM0600 VRB03KT P6SM SCT200=
200608151120 TAF KPAE 151120Z 151212 VRB04KT P6SM SCT012 FM1300 VRB03KT P6SM
                       OVC009 FM1800 25006KT P6SM SCT020 SCT200
                       FM2000 28007KT P6SM SCT200 FM0300 30005KT
                       P6SM SCT200 FM0600 VRB03KT P6SM SCT200=
200608151103 KPAE 151103Z 151106 VRB04KT P6SM FEW018 SCT070 SCT200
                      TEMPO 1213 BKN018 FM1300 VRB04KT P6SM BKN015
                       FM1900 25006KT P6SM SCT020 SCT200 FM2200
                       28007KT P6SM SCT200 FM0300 30007KT P6SM
                       SCT200=
200608150520 TAF KPAE 150520Z 150606 36007KT P6SM SKC FM0800 16006KT P6SM SKC
                       FM1100 21006KT P6SM OVC018 FM1900 25006KT
                       P6SM SCT020 SCT200 FM2200 28007KT P6SM SCT200
                       FM0300 30007KT P6SM SCT200=
200608142322 TAF KPAE 142322Z 150024 VRB06KT P6SM SCT200 FM0200 36005KT P6SM
                       SCT200 FM1100 18004KT P6SM OVC008 FM2100
                       29006KT P6SM SCT015 SCT200=
200608141729 TAF KPAE 141729Z 141818 VRB03KT P6SM SCT200 FM2100 33007KT P6SM
                       SCT200 FM0200 36005KT P6SM SCT200 FM1100
                       18004KT P6SM OVC008=
200608141120 TAF KPAE 141120Z 141212 VRB03KT P6SM SKC FM1700 24004KT P6SM SCT200
                       FM2100 33007KT P6SM SCT200 FM0200 36005KT
                       P6SM SCT200 FM0800 18006KT P6SM SCT010 FM1000
                       18004KT P6SM OVC008
                      TEMPO 1112 00000KT 2SM BR=
200608140520 TAF KPAE 140520Z 140606 VRB03KT P6SM SKC FM1700 24004KT P6SM SCT200
                       FM2100 33007KT P6SM SCT200=
200608132325 TAF KPAE 132325Z 140024 32007KT P6SM SKC FM0500 VRB03KT P6SM SKC
                       FM1400 34004KT P6SM SCT200=
200608131720 TAF KPAE 131720Z 131818 01004KT P6SM SKC FM1900 32007KT P6SM SKC
                       FM0700 VRB03KT P6SM SKC FM1200 34004KT P6SM
                       SCT030=
200608131127 TAF KPAE 131127Z 131212 01004KT P6SM SKC FM1900 32007KT P6SM SKC
                       FM0300 35005KT P6SM SKC FM0700 VRB03KT P6SM
                       SKC=
200608130520 TAF KPAE 130520Z 130606 VRB03KT P6SM SKC FM1900 32007KT P6SM SKC
                       FM0300 35005KT P6SM SKC FM0500 VRB03KT P6SM
                       SKC=
200608122333 TAF KPAE 122333Z 130024 35008KT P6SM SKC FM0600 02006KT P6SM SKC
                       FM1000 VRB03KT P6SM SKC FM1900 34005KT P6SM
                       SKC=
200608121724 TAF KPAE 121724Z 121818 35004KT P6SM SKC FM2100 32008KT P6SM SKC
                       FM0600 01006KT P6SM SKC FM0900 VRB03KT P6SM
                       SKC=
200608121120 TAF KPAE 121120Z 121212 34003KT P6SM FEW035
                      TEMPO 1417 BKN035 FM1800 29006KT P6SM SCT035
                       FM0000 34006KT P6SM SKC=
200608120521 TAF KPAE 120521Z 120606 35005KT P6SM FEW035
                      TEMPO 0913 BKN035 FM1300 VRB03KT P6SM BKN015
                       OVC035 FM1800 29006KT P6SM SCT035 FM0000
                       34006KT P6SM SKC=
200608112333 TAF KPAE 112333Z 120024 25008KT P6SM SCT030 FM0500 32007KT P6SM
                       SKC FM1300 00000KT P6SM SCT012
                      TEMPO 1417 BKN010 FM1800 29006KT P6SM SCT030=
200608112202 KPAE 112202Z 112218 24008KT P6SM OVC025 FM0000 28005KT P6SM SCT030
                       FM0500 32007KT P6SM SKC FM1400 00000KT P6SM
                       SCT007=
200608111726 TAF KPAE 111726Z 111818 24005KT P6SM OVC015 FM2000 26004KT P6SM
                       BKN020 FM2200 26007KT P6SM SCT035 FM0400
                       32007KT P6SM SKC=
200608111507 KPAE 111507Z 111512 21005KT P6SM OVC009 FM1800 23005KT P6SM SCT025
                       BKN040 FM2100 26007KT P6SM SCT040 FM0100
                       32007KT P6SM SCT050=
200608111124 TAF KPAE 111124Z 111212 19007KT P6SM BKN018 OVC035 FM1800 23005KT
                       P6SM SCT025 BKN040 FM2100 26007KT P6SM SCT040
                       FM0100 32007KT P6SM SCT050=
200608110526 TAF KPAE 110526Z 110606 24004KT P6SM SCT035 SCT090 FM1000 19004KT
                       P6SM BKN025 BKN045 FM1200 19004KT P6SM BKN015
                       BKN025 FM1800 23005KT P6SM SCT020 BKN030
                       FM2000 26007KT P6SM SCT040 FM0000 32007KT
                       P6SM SCT050=
200608102320 TAF KPAE 102320Z 110024 34005KT P6SM SCT045
                      TEMPO 0001 BKN045 FM1000 VRB04KT P6SM BKN025
                       BKN045 FM1200 VRB03KT P6SM BKN015 BKN025
                       FM1800 23005KT P6SM SCT020 BKN030 FM2000
                       26007KT P6SM SCT040=
200608101803 KPAE 101803Z 101818 VRB03KT P6SM BKN015 OVC025 FM1900 28006KT P6SM
                       BKN025 BKN045 FM2200 31007KT P6SM SCT045
                       FM0800 VRB03KT P6SM BKN045 FM1200 VRB03KT
                       P6SM BKN025 BKN045=
200608101720 TAF KPAE 101720Z 101818 28006KT P6SM BKN035 FM2200 31007KT P6SM
                       SCT045 FM0800 VRB03KT P6SM BKN045 FM1200
                       VRB03KT P6SM BKN025 BKN045=
200608101603 KPAE 101603Z 101612 35005KT P6SM SCT018 OVC035
                      TEMPO 1618 4SM -RA BR OVC018 FM1800 28006KT
                       P6SM BKN035 BKN200 FM2200 31007KT P6SM SCT050
                       BKN200 FM0800 VRB03KT P6SM BKN050 BKN200=
200608101126 TAF KPAE 101126Z 101212 35005KT P6SM BKN035 OVC050
                      TEMPO 1216 BKN025 OVC035 FM1800 28006KT P6SM
                       BKN040 BKN200 FM2200 31007KT P6SM SCT060
                       BKN200 FM0800 VRB03KT P6SM BKN050 BKN200=
200608100520 TAF KPAE 100520Z 100606 01006KT P6SM BKN035 BKN200 FM1200 VRB04KT
                       P6SM OVC030 FM1800 28006KT P6SM BKN040 BKN200
                       FM2200 31007KT P6SM SCT060 BKN200=
200608092339 TAF KPAE 092339Z 100024 33006KT P6SM SCT030 FM0400 VRB04KT P6SM
                       SCT040 BKN200 FM1200 17006KT P6SM OVC030
                       FM1800 30006KT P6SM BKN030=
200608091826 KPAE 091826Z 091818 35005KT P6SM BKN005 OVC015
                      TEMPO 1820 2SM BR OVC010 FM2000 23005KT P6SM
                       SCT016 OVC030 FM2200 29006KT P6SM SCT025
                       BKN050 FM0200 33005KT P6SM SCT060=
200608091738 TAF KPAE 091738Z 091818 35005KT P6SM BKN005 OVC015 FM2000 23005KT
                       P6SM SCT016 OVC030 FM2200 29006KT P6SM SCT025
                       BKN050 FM0200 33005KT P6SM SCT060=
200608091736 TAF KPAE 091736Z 091818 35005KT P6SM BKN005 OVC012 FM2000 23005KT
                       P6SM SCT016 OVC030 FM2200 29006KT P6SM SCT025
                       BKN050 FM0200 33005KT P6SM SCT060=
200608091346 KPAE 091346Z 091412 35005KT 3SM BR BKN003 OVC006
                      TEMPO 1416 1/4SM -DZ FG VV001 FM1700 VRB03KT
                       P6SM VCSH SCT005 OVC012 FM2000 23005KT P6SM
                       BKN013 OVC020 FM2200 29006KT P6SM SCT025
                       BKN050 FM0200 33005KT P6SM SCT060=
200608091120 TAF KPAE 091120Z 091212 VRB03KT 3SM BR BKN003 OVC012
                      TEMPO 1215 1/2SM -DZ FG VV001 FM1500 VRB03KT
                       P6SM SCT007 BKN012 OVC020
                      TEMPO 1516 3SM BR BKN007 FM1800 23005KT P6SM
                       BKN030 BKN045 FM1900 29006KT P6SM BKN050
                       FM0200 33005KT P6SM SCT060=
200608091003 KPAE 091003Z 091006 VRB03KT 3SM BR BKN003 OVC012
                      TEMPO 1115 1/2SM -DZ FG VV001 FM1500 VRB03KT
                       P6SM SCT007 BKN012 OVC020
                      TEMPO 1516 3SM BR BKN007 FM1800 23005KT P6SM
                       BKN030 BKN045 FM1900 29006KT P6SM BKN050
                       FM0200 33005KT P6SM SCT060=
200608090906 KPAE 090906Z 090906 VRB04KT P6SM SCT003 OVC025
                      TEMPO 0911 5SM -DZ BR BKN003 FM1100 VRB03KT
                       P6SM SCT003 OVC012
                      TEMPO 1115 4SM -DZ BR BKN003 FM1800 23005KT
                       P6SM BKN030 BKN045 FM1900 29006KT P6SM BKN050
                       FM0200 33005KT P6SM SCT060=
200608090520 TAF KPAE 090520Z 090606 34006KT P6SM VCSH SCT035 BKN045 OVC080
                       FM0700 VRB04KT P6SM BKN025 OVC040
                      TEMPO 0711 5SM -RA BR BKN018 FM1100 VRB03KT
                       P6SM OVC018
                      TEMPO 1115 4SM BR BKN008 FM1800 23005KT P6SM
                       BKN030 BKN045 FM1900 29006KT P6SM BKN050
                       FM0200 33005KT P6SM SCT060=
200608082332 TAF KPAE 082332Z 090024 27007KT P6SM SCT035 SCT100
                      TEMPO 0002 BKN035 BKN100 FM0200 34006KT P6SM
                       VCSH BKN035 OVC080 FM0900 VRB04KT P6SM BKN025
                       OVC100 FM1300 VRB03KT P6SM OVC018 FM1900
                       23005KT P6SM BKN025 BKN045 FM2100 29006KT
                       P6SM BKN050=
200608082232 KPAE 082232Z 082318 25007KT P6SM SCT035 BKN100 FM0100 34006KT P6SM
                       VCSH BKN035 OVC080 FM0900 VRB04KT P6SM BKN025
                       OVC100 FM1300 VRB03KT P6SM OVC018=
200608081620 KPAE 081620Z 081612 17006KT P6SM BKN018 BKN100 FM1800 20007KT P6SM
                       BKN035 BKN080 FM2100 23006KT P6SM VCSH BKN040
                       FM0300 34006KT P6SM BKN035 FM0900 VRB04KT
                       P6SM BKN025=
200608081125 TAF KPAE 081125Z 081212 17006KT P6SM SCT012 SCT120 BKN200
                      TEMPO 1216 BKN012 FM1800 21007KT P6SM SCT045
                       BKN120 FM2100 23006KT P6SM VCSH BKN040 FM0300
                       34006KT P6SM BKN035 FM0900 VRB04KT P6SM
                       BKN025=
200608080522 TAF KPAE 080522Z 080606 33008KT P6SM SCT250 FM0900 VRB03KT P6SM
                       SCT150 BKN250 FM1200 17006KT P6SM SCT120
                       BKN200
                      TEMPO 1416 SCT009 FM1800 18008KT P6SM VCSH
                       SCT045 BKN120=
200608072353 TAF KPAE 072353Z 080024 33008KT P6SM SKC FM0400 35006KT P6SM SCT250
                       FM0900 VRB03KT P6SM SCT150 BKN250 FM1200
                       17006KT P6SM SCT120 BKN200 FM1800 18008KT
                       P6SM SCT045 BKN100=
200608071740 TAF KPAE 071740Z 071818 32006KT P6SM SKC
                      TEMPO 1819 2SM BR BKN002 FM0200 36007KT P6SM
                       SCT250 FM0900 VRB03KT P6SM BKN150 BKN200
                       FM1200 16006KT P6SM BKN120 BKN200=
200608071613 KPAE 071613Z 071612 34007KT 1/4SM FG OVC001 FM1700 VRB03KT P6SM
                       SCT250 FM2000 34006KT P6SM SCT250 FM0900
                       VRB03KT P6SM BKN150=
200608071339 KPAE 071339Z 071412 VRB03KT P6SM BKN002
                      TEMPO 1416 1/2SM FG OVC001 FM1700 VRB03KT
                       P6SM SCT250 FM2000 34006KT P6SM SCT250 FM0900
                       VRB03KT P6SM BKN150=
200608071237 KPAE 071237Z 071312 VRB03KT P6SM BKN002
                      TEMPO 1416 1SM BR OVC001 FM1700 VRB03KT P6SM
                       SCT250 FM2000 34006KT P6SM SCT250 FM0900
                       VRB03KT P6SM BKN150=
200608071140 TAF KPAE 071140Z 071212 36006KT P6SM SCT250 FM1400 VRB03KT 4SM
                       BR SCT001
                      TEMPO 1416 1SM BR OVC001 FM1700 VRB03KT P6SM
                       SCT250 FM2000 34006KT P6SM SCT250 FM0900
                       VRB03KT P6SM BKN150=
200608070532 TAF KPAE 070532Z 070606 35006KT P6SM SCT250 FM1300 VRB03KT P6SM
                       SCT002
                      TEMPO 1316 3SM BR FM1700 VRB03KT P6SM SCT250
                       FM2000 34006KT P6SM SCT250=
200608062325 TAF KPAE 062325Z 070024 33007KT P6SM SKC FM0300 36005KT P6SM SKC
                       FM1400 VRB03KT P6SM SCT006 FM1700 27005KT
                       P6SM SCT250=
200608061728 TAF KPAE 061728Z 061818 32008KT P6SM SKC FM0300 36005KT P6SM SKC
                       FM0800 VRB03KT P6SM SKC=
200608061120 TAF KPAE 061120Z 061212 VRB03KT P6SM SKC FM1800 32008KT P6SM SKC
                       FM0300 36005KT P6SM SKC FM0700 VRB03KT P6SM
                       SKC=
200608060521 TAF KPAE 060521Z 060606 01005KT P6SM SKC FM1400 VRB03KT P6SM SKC
                       FM1800 32008KT P6SM SKC FM0300 36005KT P6SM
                       SKC=
200608052320 TAF KPAE 052320Z 060024 36005KT P6SM SKC FM1400 VRB03KT P6SM SKC
                       FM1800 32005KT P6SM SKC=
200608052019 KPAE 052019Z 052018 32006KT P6SM SKC FM0400 36005KT P6SM SKC FM1400
                       VRB03KT P6SM SKC=
200608051720 TAF KPAE 051720Z 051818 02005KT P6SM SKC FM1400 VRB03KT P6SM SCT250=
200608051120 TAF KPAE 051120Z 051212 00000KT P6SM SKC FM1900 33007KT P6SM SCT250
                       FM0300 35003KT P6SM SCT250=
200608050520 TAF KPAE 050520Z 050606 01003KT P6SM FEW250 FM1900 32005KT P6SM
                       SCT250 FM2200 33008KT P6SM SCT250 FM0300
                       35003KT P6SM SCT250=
200608042320 TAF KPAE 042320Z 050024 34006KT P6SM SCT250 FM0400 36005KT P6SM
                       SCT250 FM1700 27005KT P6SM SCT250=
200608041741 TAF KPAE 041741Z 041818 27005KT P6SM SCT250 FM2000 33007KT P6SM
                       SCT250 FM0400 34005KT P6SM SCT250=
200608041121 TAF KPAE 041121Z 041212 00000KT P6SM FEW010 SCT250 FM1800 33007KT
                       P6SM SKC=
200608040522 TAF KPAE 040522Z 040606 35007KT P6SM SCT250 FM1200 VRB03KT P6SM
                       FEW002 SCT250 FM1900 33007KT P6SM SKC=
200608032323 TAF KPAE 032323Z 040024 35009KT P6SM BKN250 FM0400 01006KT P6SM
                       BKN250 FM1200 VRB03KT P6SM FEW002 SCT250
                       FM1700 33007KT P6SM SKC=
200608031725 TAF KPAE 031725Z 031818 32008KT P6SM BKN250 FM0000 35009KT P6SM
                       SCT250 FM0400 01006KT P6SM SCT250 FM1200
                       VRB03KT P6SM FEW002 SCT250=
200608031122 TAF KPAE 031122Z 031212 VRB04KT P6SM SCT250 FM1900 34007KT P6SM
                       SKC=
200608030528 TAF KPAE 030528Z 030606 02006KT P6SM SCT200 FM1200 VRB03KT P6SM
                       SCT025 FM1700 34007KT P6SM SKC=
200608022337 TAF KPAE 022337Z 030024 34006KT P6SM FEW035 FM0700 03006KT P6SM
                       SCT200 FM1200 VRB03KT P6SM SCT025 FM1700
                       34006KT P6SM SKC=
200608021734 TAF KPAE 021734Z 021818 VRB03KT P6SM FEW020 BKN040
                      TEMPO 1819 BKN020 FM2000 35006KT P6SM SCT060
                       FM0700 03006KT P6SM BKN200=
200608021324 KPAE 021324Z 021312 VRB03KT P6SM BKN024 OVC060
                      TEMPO 1517 SCT025 BKN060 FM1700 35006KT P6SM
                       BKN060 FM2100 34007KT P6SM SCT090=
200608021133 TAF KPAE 021133Z 021212 35004KT P6SM FEW060 FM1900 34007KT P6SM
                       SCT090=
200608020531 TAF KPAE 020531Z 020606 35006KT P6SM SCT080 FM1300 VRB04KT P6SM
                       FEW020 SCT080 FM1900 34007KT P6SM SCT100=
200608012327 TAF KPAE 012327Z 020024 26006KT P6SM SCT030 SCT200 FM0600 04006KT
                       P6SM SKC FM1200 VRB03KT P6SM SCT040=
200608011726 TAF KPAE 011726Z 011818 VRB03KT P6SM BKN200 FM2000 33006KT P6SM
                       SCT200 FM1200 VRB03KT P6SM SCT030=
200608011120 TAF KPAE 011120Z 011212 VRB03KT P6SM SCT030 BKN200 FM1800 20006KT
                       P6SM SCT030 BKN200 FM0000 35006KT P6SM SCT200=
200608010530 TAF KPAE 010530Z 010606 35007KT P6SM SCT150 FM1200 VRB04KT P6SM
                       SCT020 BKN200 FM1800 32008KT P6SM SCT030
                       BKN200 FM2100 34008KT P6SM SCT200=