##########################################################
# Query made at 02/18/2025 17:29:11 UTC
# Time interval: from 05/01/2006 00:00  to 05/31/2006 23:59  UTC
##########################################################

##########################################################
# KPAE, Everett, Snohomish County Airport (United States)
# WMO index: -----. WIGOS ID: Unknown
# Latitude 47-55-23N. Longitude 122-16-57W. Altitude 184 m.
##########################################################

###################################
#  METAR/SPECI from KPAE
###################################
200605312353 METAR KPAE 312353Z 04005KT 10SM -RA BKN065 BKN080 BKN100 19/12 A2997 RMK AO2 RAB28 SLP176 P0000 60001 T01940117 10217 20172 50006=
200605312253 METAR KPAE 312253Z AUTO 23006KT 10SM BKN095 19/12 A2998 RMK AO2 SLP179 T01940122 TSNO=
200605312153 METAR KPAE 312153Z 27005KT 10SM CLR 20/12 A2996 RMK AO2 SLP172 T02000117=
200605312053 METAR KPAE 312053Z 28006KT 10SM SCT120 OVC250 19/11 A2995 RMK AO2 SLP170 60001 T01940111 56014=
200605311953 METAR KPAE 311953Z VRB03KT 10SM SCT120 BKN250 19/10 A2997 RMK AO2 SLP175 P0001 T01940100=
200605311853 METAR KPAE 311853Z 36005KT 10SM SCT120 BKN250 19/09 A2998 RMK AO2 SLP179 T01890089=
200605311753 METAR KPAE 311753Z 36006KT 10SM SCT120 BKN250 18/10 A3000 RMK AO2 SLP185 P0001 60003 T01780100 10178 20133 58013=
200605311653 METAR KPAE 311653Z VRB03KT 10SM SCT120 BKN250 15/09 A3001 RMK AO2 SLP192 T01500089=
200605311553 METAR KPAE 311553Z VRB05KT 10SM SCT120 BKN250 15/09 A3002 RMK AO2 SLP195 P0001 T01500089=
200605311453 METAR KPAE 311453Z 32003KT 10SM CLR 14/10 A3003 RMK AO2 SLP198 60001 T01390100 56008=
200605311353 METAR KPAE 311353Z 11003KT 10SM FEW100 14/08 A3004 RMK AO2 SLP200 P0001 T01440078=
200605311253 METAR KPAE 311253Z AUTO 10004KT 10SM SCT100 14/07 A3005 RMK AO2 SLP202 T01390072=
200605311153 METAR KPAE 311153Z AUTO 00000KT 10SM OVC100 13/08 A3006 RMK AO2 SLP206 P0001 60003 70015 T01330078 10139 20111 58011=
200605311053 METAR KPAE 311053Z AUTO 00000KT 10SM CLR 12/08 A3007 RMK AO2 SLP211 T01220083=
200605310953 METAR KPAE 310953Z AUTO 00000KT 10SM CLR 13/08 A3009 RMK AO2 SLP217 T01330078=
200605310853 METAR KPAE 310853Z AUTO 33003KT 10SM CLR 12/07 A3009 RMK AO2 SLP218 P0001 60002 T01220072 55006=
200605310753 METAR KPAE 310753Z AUTO 35003KT 10SM CLR 12/08 A3009 RMK AO2 SLP217 T01220078 402110078=
200605310653 METAR KPAE 310653Z AUTO VRB04KT 10SM CLR 13/08 A3009 RMK AO2 SLP219 P0001 T01330083=
200605310553 METAR KPAE 310553Z AUTO VRB03KT 10SM CLR 14/08 A3011 RMK AO2 SLP224 60004 T01390083 10211 20139 56002=
200605310453 METAR KPAE 310453Z AUTO VRB04KT 10SM CLR 14/09 A3011 RMK AO2 SLP225 P0001 T01440089=
200605310353 METAR KPAE 310353Z AUTO VRB04KT 10SM CLR 16/07 A3011 RMK AO2 SLP225 T01610072=
200605310253 METAR KPAE 310253Z VRB04KT 10SM CLR 18/06 A3012 RMK AO2 SLP227 P0001 60003 T01830056 56009=
200605310153 METAR KPAE 310153Z VRB04KT 10SM CLR 19/06 A3012 RMK AO2 SLP229 P0001 T01940061=
200605310053 METAR KPAE 310053Z VRB05KT 10SM CLR 21/06 A3013 RMK AO2 SLP231 P0001 T02060061=
200605302353 METAR KPAE 302353Z VRB03KT 10SM SCT250 20/06 A3014 RMK AO2 SLP236 60005 T02000061 10211 20150 57014=
200605302253 METAR KPAE 302253Z AUTO VRB04KT 10SM CLR 20/07 A3016 RMK AO2 SLP241 P0001 T02000067 TSNO=
200605302153 METAR KPAE 302153Z VRB06KT 10SM CLR 19/08 A3017 RMK AO2 SLP245 P0001 T01890083=
200605302053 METAR KPAE 302053Z 25004KT 10SM CLR 18/08 A3018 RMK AO2 SLP250 P0001 60003 T01830083 56009=
200605301953 METAR KPAE 301953Z 36004KT 10SM CLR 18/08 A3019 RMK AO2 SLP252 P0001 T01780078=
200605301853 METAR KPAE 301853Z 31004KT 10SM CLR 17/09 A3020 RMK AO2 SLP256 P0001 T01720089=
200605301753 METAR KPAE 301753Z 30005KT 10SM CLR 16/09 A3021 RMK AO2 SLP260 P0001 60003 T01560089 10161 20078 58001=
200605301653 METAR KPAE 301653Z 00000KT 10SM CLR 15/08 A3022 RMK AO2 SLP261 T01500078=
200605301553 METAR KPAE 301553Z 00000KT 10SM CLR 13/08 A3022 RMK AO2 SLP263 P0001 T01330078=
200605301453 METAR KPAE 301453Z 16003KT 10SM CLR 12/07 A3022 RMK AO2 SLP261 P0001 60001 T01170072 53004=
200605301353 METAR KPAE 301353Z 11005KT 10SM CLR 10/06 A3021 RMK AO2 SLP259 T01000061 $=
200605301253 METAR KPAE 301253Z 11005KT 10SM CLR 08/06 A3020 RMK AO2 SLP257 T00830061 $=
200605301153 METAR KPAE 301153Z 10006KT 10SM CLR 08/06 A3020 RMK AO2 SLP258 P0001 60003 70018 T00830056 10117 20083 50002 $=
200605301053 METAR KPAE 301053Z 10007KT 10SM CLR 09/06 A3021 RMK AO2 SLP258 T00890061 $=
200605300953 METAR KPAE 300953Z 10006KT 10SM CLR 09/06 A3020 RMK AO2 SLP258 P0001 T00940061 $=
200605300853 METAR KPAE 300853Z 00000KT 10SM CLR 10/07 A3020 RMK AO2 SLP256 60001 T01000067 58000 $=
200605300753 METAR KPAE 300753Z 00000KT 10SM CLR 11/08 A3020 RMK AO2 SLP256 P0001 T01060083 401720100 $=
200605300653 METAR KPAE 300653Z 00000KT 10SM CLR 11/08 A3020 RMK AO2 SLP257 T01060078 $=
200605300553 METAR KPAE 300553Z 00000KT 10SM FEW060 12/07 A3020 RMK AO2 SLP257 P0001 60005 T01170072 10172 20117 51005 $=
200605300453 METAR KPAE 300453Z 03003KT 10SM OVC060 14/07 A3020 RMK AO2 SLP256 P0001 T01390067 $=
200605300353 METAR KPAE 300353Z 00000KT 10SM OVC060 14/08 A3019 RMK AO2 SLP252 T01390078 $=
200605300253 METAR KPAE 300253Z 00000KT 10SM OVC060 14/06 A3018 RMK AO2 SLP251 P0001 60003 T01440061 57005 $=
200605300153 METAR KPAE 300153Z 25004KT 10SM BKN060 15/06 A3019 RMK AO2 SLP253 P0001 T01500061 $=
200605300053 METAR KPAE 300053Z 27007KT 10SM FEW040 SCT050 16/07 A3019 RMK AO2 SLP255 P0001 T01560067 $=
200605292353 METAR KPAE 292353Z VRB04KT 10SM SCT035 BKN046 OVC060 17/08 A3020 RMK AO2 SLP256 P0001 60005 T01720083 10172 20117 58001 $=
200605292253 METAR KPAE 292253Z 26004KT 10SM FEW034 OVC060 14/07 A3020 RMK AO2 SLP258 P0001 T01440072 $=
200605292153 METAR KPAE 292153Z 00000KT 10SM OVC055 15/07 A3020 RMK AO2 SLP257 P0001 T01500072 $=
200605292110 SPECI KPAE 292110Z VRB03KT 10SM BKN029 OVC055 13/07 A3020 RMK AO2 $=
200605292110 SPECI KPAE 292110Z VRB03KT 10SM BKN029 OVC055 13/07 A3020 RMK AO2 $=
200605292053 METAR KPAE 292053Z VRB04KT 10SM FEW029 SCT046 OVC055 13/07 A3020 RMK AO2 SLP257 P0001 60002 T01330072 51004 $=
200605292000 SPECI KPAE 292000Z 00000KT 10SM SCT027 BKN038 OVC046 13/06 A3020 RMK AO2 $=
200605292000 SPECI KPAE 292000Z 00000KT 10SM SCT027 BKN038 OVC046 13/06 A3020 RMK AO2 $=
200605291953 METAR KPAE 291953Z 17003KT 10SM BKN029 OVC046 13/07 A3020 RMK AO2 SLP256 P0001 T01280067 $=
200605291926 SPECI KPAE 291926Z 22003KT 10SM SCT025 BKN034 OVC042 12/08 A3020 RMK AO2 P0001 $=
200605291926 SPECI KPAE 291926Z 22003KT 10SM SCT025 BKN034 OVC042 12/08 A3020 RMK AO2 P0001 $=
200605291908 SPECI KPAE 291908Z 26004KT 10SM BKN025 BKN031 OVC043 12/08 A3020 RMK AO2 P0001 $=
200605291908 SPECI KPAE 291908Z 26004KT 10SM BKN025 BKN031 OVC043 12/08 A3020 RMK AO2 P0001 $=
200605291853 METAR KPAE 291853Z VRB04KT 10SM SCT025 BKN031 OVC045 13/07 A3020 RMK AO2 SLP255 T01280072 $=
200605291753 METAR KPAE 291753Z 17008KT 10SM FEW018 SCT026 OVC036 12/08 A3019 RMK AO2 SLP254 P0001 60005 T01220078 10122 20100 50002 $=
200605291653 METAR KPAE 291653Z 15008KT 10SM FEW021 SCT027 OVC044 12/08 A3019 RMK AO2 SLP255 P0001 T01170083 $=
200605291553 METAR KPAE 291553Z 15008KT 10SM OVC038 11/08 A3019 RMK AO2 RAB35E45 SLP253 P0001 T01060083 $=
200605291531 SPECI KPAE 291531Z 14008KT 10SM FEW018 SCT024 OVC042 11/08 A3019 RMK AO2 P0001 $=
200605291531 SPECI KPAE 291531Z 14008KT 10SM FEW018 SCT024 OVC042 11/08 A3019 RMK AO2 P0001 $=
200605291453 METAR KPAE 291453Z 14006KT 10SM BKN017 OVC043 11/08 A3018 RMK AO2 SLP251 60002 T01060078 51008 $=
200605291353 METAR KPAE 291353Z 15006KT 10SM OVC017 10/08 A3018 RMK AO2 SLP249 P0001 T01000083 $=
200605291253 METAR KPAE 291253Z AUTO 14006KT 10SM OVC018 10/08 A3017 RMK AO2 SLP247 P0001 T01000078 $=
200605291153 METAR KPAE 291153Z AUTO 14005KT 10SM BKN016 OVC041 10/08 A3016 RMK AO2 SLP244 P0001 60005 7//// T01000078 10106 20100 51003 $=
200605291125 SPECI KPAE 291125Z AUTO 13006KT 10SM SCT016 OVC039 10/08 A3015 RMK AO2 P0001 $=
200605291125 SPECI KPAE 291125Z AUTO 13006KT 10SM SCT016 OVC039 10/08 A3015 RMK AO2 P0001 $=
200605291111 SPECI KPAE 291111Z AUTO 14007KT 10SM BKN018 OVC039 10/08 A3015 RMK AO2 P0001 $=
200605291111 SPECI KPAE 291111Z AUTO 14007KT 10SM BKN018 OVC039 10/08 A3015 RMK AO2 P0001 $=
200605291053 METAR KPAE 291053Z AUTO 13007KT 10SM SCT016 BKN039 OVC055 10/08 A3016 RMK AO2 SLP242 T01000078 $=
200605290953 METAR KPAE 290953Z AUTO 14007KT 10SM FEW016 OVC041 10/08 A3015 RMK AO2 SLP241 P0001 T01000078 $=
200605290853 METAR KPAE 290853Z AUTO 16006KT 10SM FEW040 OVC047 10/08 A3014 RMK AO2 SLP238 P0001 60003 T01000078 51007 $=
200605290753 METAR KPAE 290753Z AUTO 16006KT 10SM SCT019 OVC047 10/08 A3014 RMK AO2 SLP236 P0001 T01000078 401280094 $=
200605290706 SPECI KPAE 290706Z AUTO 15004KT 10SM OVC015 11/09 A3013 RMK AO2 $=
200605290706 SPECI KPAE 290706Z AUTO 15004KT 10SM OVC015 11/09 A3013 RMK AO2 $=
200605290653 METAR KPAE 290653Z AUTO 00000KT 10SM BKN013 OVC020 11/09 A3013 RMK AO2 RAE18 SLP233 P0001 T01060089 $=
200605290553 METAR KPAE 290553Z AUTO 00000KT 6SM -RA BR SCT010 BKN017 OVC022 10/09 A3012 RMK AO2 SLP231 P0001 60005 T01000094 10128 20100 52016 $=
200605290538 SPECI KPAE 290538Z AUTO 00000KT 5SM -RA BR SCT004 BKN010 OVC016 10/09 A3012 RMK AO2 CIG 006V014 P0001 $=
200605290538 SPECI KPAE 290538Z AUTO 00000KT 5SM -RA BR SCT004 BKN010 OVC016 10/09 A3012 RMK AO2 CIG 006V014 P0001 $=
200605290513 SPECI KPAE 290513Z AUTO 00000KT 3SM -RA BR BKN002 BKN008 OVC012 10/09 A3011 RMK AO2 P0001 $=
200605290513 SPECI KPAE 290513Z AUTO 00000KT 3SM -RA BR BKN002 BKN008 OVC012 10/09 A3011 RMK AO2 P0001 $=
200605290453 METAR KPAE 290453Z AUTO 33005KT 3SM RA BR FEW002 BKN008 OVC016 10/09 A3011 RMK AO2 CIG 004V011 SLP226 P0000 T01000094 $=
200605290429 SPECI KPAE 290429Z AUTO VRB03KT 10SM -RA SCT004 BKN009 OVC014 11/09 A3010 RMK AO2 CIG 008V012 P0000 $=
200605290429 SPECI KPAE 290429Z AUTO VRB03KT 10SM -RA SCT004 BKN009 OVC014 11/09 A3010 RMK AO2 CIG 008V012 P0000 $=
200605290414 SPECI KPAE 290414Z AUTO 31003KT 6SM -RA BR BKN004 BKN008 OVC014 11/09 A3009 RMK AO2 CIG 002V005 P0000 $=
200605290414 SPECI KPAE 290414Z AUTO 31003KT 6SM -RA BR BKN004 BKN008 OVC014 11/09 A3009 RMK AO2 CIG 002V005 P0000 $=
200605290353 METAR KPAE 290353Z AUTO VRB03KT 6SM -RA BR SCT002 BKN006 OVC010 11/09 A3009 RMK AO2 RAB23 CIG 005V008 SLP219 P0001 T01060094 $=
200605290337 SPECI KPAE 290337Z 31004KT 8SM -RA SCT002 BKN007 OVC028 11/10 A3008 RMK AO2 RAB23 CIG 004V010 P0000 $=
200605290337 SPECI KPAE 290337Z 31004KT 8SM -RA SCT002 BKN007 OVC028 11/10 A3008 RMK AO2 RAB23 CIG 004V010 P0000 $=
200605290300 SPECI KPAE 290300Z 24005KT 10SM SCT007 OVC030 12/11 A3008 RMK AO2 $=
200605290300 SPECI KPAE 290300Z 24005KT 10SM SCT007 OVC030 12/11 A3008 RMK AO2 $=
200605290253 METAR KPAE 290253Z 21004KT 10SM SCT011 OVC030 12/11 A3007 RMK AO2 SLP214 P0001 60003 T01220106 53008 $=
200605290218 SPECI KPAE 290218Z 20005KT 10SM SCT011 SCT017 OVC030 13/12 A3007 RMK AO2 $=
200605290218 SPECI KPAE 290218Z 20005KT 10SM SCT011 SCT017 OVC030 13/12 A3007 RMK AO2 $=
200605290216 SPECI KPAE 290216Z 20005KT 10SM SCT011 BKN017 OVC030 13/11 A3006 RMK AO2 $=
200605290216 SPECI KPAE 290216Z 20005KT 10SM SCT011 BKN017 OVC030 13/11 A3006 RMK AO2 $=
200605290153 METAR KPAE 290153Z 14005KT 10SM FEW004 OVC030 12/11 A3006 RMK AO2 SLP209 P0001 T01220111 $=
200605290053 METAR KPAE 290053Z 11005KT 10SM SCT004 BKN028 OVC033 12/11 A3005 RMK AO2 RAB09E31 SLP206 P0001 T01220111 $=
200605290049 SPECI KPAE 290049Z 11005KT 10SM SCT004 BKN028 OVC033 12/11 A3005 RMK AO2 RAB09E31 P0000 $=
200605290049 SPECI KPAE 290049Z 11005KT 10SM SCT004 BKN028 OVC033 12/11 A3005 RMK AO2 RAB09E31 P0000 $=
200605290000 SPECI KPAE 290000Z 13005KT 3SM BR SCT006 BKN009 OVC017 12/11 A3005 RMK AO2 CIG 008V011 $=
200605290000 SPECI KPAE 290000Z 13005KT 3SM BR SCT006 BKN009 OVC017 12/11 A3005 RMK AO2 CIG 008V011 $=
200605282353 METAR KPAE 282353Z 12003KT 3SM BR BKN004 BKN013 OVC024 12/11 A3005 RMK AO2 RAE21 SLP206 P0001 60007 T01220106 10122 20106 51009 $=
200605282253 METAR KPAE 282253Z 12003KT 3SM -RA BR OVC006 12/11 A3005 RMK AO2 CIG 003V008 SLP205 P0002 T01170106 $=
200605282204 SPECI KPAE 282204Z 10003KT 2SM -RA BR BKN004 BKN014 OVC021 12/10 A3004 RMK AO2 P0001 $=
200605282204 SPECI KPAE 282204Z 10003KT 2SM -RA BR BKN004 BKN014 OVC021 12/10 A3004 RMK AO2 P0001 $=
200605282158 SPECI KPAE 282158Z 11003KT 2SM -RA BR FEW007 BKN016 OVC021 12/10 A3004 RMK AO2 P0001 $=
200605282158 SPECI KPAE 282158Z 11003KT 2SM -RA BR FEW007 BKN016 OVC021 12/10 A3004 RMK AO2 P0001 $=
200605282155 SPECI KPAE 282155Z 12003KT 1 3/4SM -RA BR FEW007 BKN012 OVC021 12/10 A3004 RMK AO2 P0001 $=
200605282155 SPECI KPAE 282155Z 12003KT 1 3/4SM -RA BR FEW007 BKN012 OVC021 12/10 A3004 RMK AO2 P0001 $=
200605282153 METAR KPAE 282153Z 00000KT 2SM -RA BR BKN009 BKN012 OVC021 12/09 A3004 RMK AO2 RAE2057B49 SLP202 P0001 T01170094 $=
200605282148 SPECI KPAE 282148Z 10004KT 2 1/2SM BR BKN009 BKN012 OVC021 12/10 A3004 RMK AO2 RAE2057 P0001 $=
200605282148 SPECI KPAE 282148Z 10004KT 2 1/2SM BR BKN009 BKN012 OVC021 12/10 A3004 RMK AO2 RAE2057 P0001 $=
200605282140 SPECI KPAE 282140Z 11004KT 7SM BKN009 BKN012 OVC023 12/10 A3003 RMK AO2 RAE2057 CIG 006V010 P0001 $=
200605282140 SPECI KPAE 282140Z 11004KT 7SM BKN009 BKN012 OVC023 12/10 A3003 RMK AO2 RAE2057 CIG 006V010 P0001 $=
200605282117 SPECI KPAE 282117Z 11005KT 10SM FEW007 BKN012 12/10 A3003 RMK AO2 RAE2057 P0001 $=
200605282117 SPECI KPAE 282117Z 11005KT 10SM FEW007 BKN012 12/10 A3003 RMK AO2 RAE2057 P0001 $=
200605282100 SPECI KPAE 282100Z VRB03KT 10SM BKN011 OVC018 12/09 A3002 RMK AO2 RAE2057 CIG 006V014 P0000 $=
200605282100 SPECI KPAE 282100Z VRB03KT 10SM BKN011 OVC018 12/09 A3002 RMK AO2 RAE2057 CIG 006V014 P0000 $=
200605282053 METAR KPAE 282053Z VRB03KT 10SM -RA BKN005 OVC021 11/09 A3002 RMK AO2 SLP197 P0001 60003 T01110094 52012 $=
200605282022 SPECI KPAE 282022Z 05004KT 6SM -RA BR BKN005 BKN009 OVC022 11/09 A3001 RMK AO2 CIG 003V007 P0001 $=
200605282022 SPECI KPAE 282022Z 05004KT 6SM -RA BR BKN005 BKN009 OVC022 11/09 A3001 RMK AO2 CIG 003V007 P0001 $=
200605282000 SPECI KPAE 282000Z VRB03KT 5SM -RA BR OVC003 11/10 A3001 RMK AO2 CIG 002V008 P0000 $=
200605282000 SPECI KPAE 282000Z VRB03KT 5SM -RA BR OVC003 11/10 A3001 RMK AO2 CIG 002V008 P0000 $=
200605281953 METAR KPAE 281953Z 04004KT 4SM RA BR BKN005 OVC013 11/10 A3001 RMK AO2 SLP192 P0001 T01060100 $=
200605281856 SPECI KPAE 281856Z 33003KT 8SM -RA BKN008 OVC016 11/09 A3000 RMK AO2 P0000 $=
200605281856 SPECI KPAE 281856Z 33003KT 8SM -RA BKN008 OVC016 11/09 A3000 RMK AO2 P0000 $=
200605281853 METAR KPAE 281853Z 00000KT 8SM -RA BKN010 OVC016 11/09 A3000 RMK AO2 CIG 005V012 SLP190 P0001 T01110094 $=
200605281753 METAR KPAE 281753Z 00000KT 8SM -RA BKN008 OVC013 11/09 A2999 RMK AO2 CIG 006V010 SLP185 P0001 6//// T01110089 10111 20094 51015 $=
200605281741 SPECI KPAE 281741Z 00000KT 8SM -RA BKN008 OVC013 11/09 A2998 RMK AO2 CIG 006V011 P0001 $=
200605281741 SPECI KPAE 281741Z 00000KT 8SM -RA BKN008 OVC013 11/09 A2998 RMK AO2 CIG 006V011 P0001 $=
200605281723 SPECI KPAE 281723Z 01003KT 6SM -RA BR BKN010 BKN013 OVC021 11/09 A2998 RMK AO2 P0001 $=
200605281723 SPECI KPAE 281723Z 01003KT 6SM -RA BR BKN010 BKN013 OVC021 11/09 A2998 RMK AO2 P0001 $=
200605281703 SPECI KPAE 281703Z VRB04KT 10SM -RA SCT010 OVC021 11/08 A2998 RMK AO2 P0000 $=
200605281703 SPECI KPAE 281703Z VRB04KT 10SM -RA SCT010 OVC021 11/08 A2998 RMK AO2 P0000 $=
200605281653 METAR KPAE 281653Z 00000KT 10SM -RA BKN012 BKN021 OVC055 11/09 A2998 RMK AO2 SLP181 P0001 T01110089 $=
200605281553 METAR KPAE 281553Z 00000KT 10SM -RA OVC008 11/09 A2996 RMK AO2 CIG 005V011 SLP175 T01060089 $=
200605281506 SPECI KPAE 281506Z 03003KT 4SM RA BR BKN008 OVC028 10/08 A2995 RMK AO2 PNO $=
200605281506 SPECI KPAE 281506Z 03003KT 4SM RA BR BKN008 OVC028 10/08 A2995 RMK AO2 PNO $=
200605281453 METAR KPAE 281453Z 00000KT 2SM RA BR BKN008 BKN023 OVC028 10/09 A2994 RMK AO2 SLP169 6//// T01000089 53009 $=
200605281446 SPECI KPAE 281446Z 00000KT 2 1/2SM RA BR BKN008 BKN023 OVC028 09/09 A2994 RMK AO2 VIS 2V3 $=
200605281446 SPECI KPAE 281446Z 00000KT 2 1/2SM RA BR BKN008 BKN023 OVC028 09/09 A2994 RMK AO2 VIS 2V3 $=
200605281353 METAR KPAE 281353Z 02004KT 6SM -RA BR FEW004 SCT013 OVC021 10/09 A2992 RMK AO2 SLP163 T01000089 $=
200605281328 SPECI KPAE 281328Z AUTO 02004KT 3SM RA BR SCT004 BKN010 OVC019 10/09 A2992 RMK AO2 CIG 007V014 $=
200605281328 SPECI KPAE 281328Z AUTO 02004KT 3SM RA BR SCT004 BKN010 OVC019 10/09 A2992 RMK AO2 CIG 007V014 $=
200605281316 SPECI KPAE 281316Z AUTO VRB03KT 2 1/2SM -RA BR SCT004 OVC012 10/09 A2992 RMK AO2 PNO $=
200605281316 SPECI KPAE 281316Z AUTO VRB03KT 2 1/2SM -RA BR SCT004 OVC012 10/09 A2992 RMK AO2 PNO $=
200605281256 SPECI KPAE 281256Z AUTO 00000KT 1 3/4SM -RA BR FEW004 BKN012 OVC017 10/09 A2991 RMK AO2 P0000=
200605281256 SPECI KPAE 281256Z AUTO 00000KT 1 3/4SM -RA BR FEW004 BKN012 OVC017 10/09 A2991 RMK AO2 P0000=
200605281253 METAR KPAE 281253Z AUTO 00000KT 1 3/4SM -RA BR BKN012 OVC017 10/09 A2991 RMK AO2 SLP159 P0001 T01000094=
200605281246 SPECI KPAE 281246Z AUTO 00000KT 1 3/4SM -RA BR FEW009 OVC015 10/09 A2991 RMK AO2 P0001=
200605281246 SPECI KPAE 281246Z AUTO 00000KT 1 3/4SM -RA BR FEW009 OVC015 10/09 A2991 RMK AO2 P0001=
200605281242 SPECI KPAE 281242Z AUTO 00000KT 1 3/4SM -RA BR OVC013 10/09 A2991 RMK AO2 P0001=
200605281242 SPECI KPAE 281242Z AUTO 00000KT 1 3/4SM -RA BR OVC013 10/09 A2991 RMK AO2 P0001=
200605281219 SPECI KPAE 281219Z AUTO 32003KT 10SM -RA BKN011 OVC015 10/09 A2991 RMK AO2 P0001=
200605281219 SPECI KPAE 281219Z AUTO 32003KT 10SM -RA BKN011 OVC015 10/09 A2991 RMK AO2 P0001=
200605281153 METAR KPAE 281153Z AUTO 00000KT 8SM -RA OVC015 10/09 A2991 RMK AO2 SLP157 P0000 60003 70033 T01000089 10111 20100 53008=
200605281125 SPECI KPAE 281125Z AUTO 00000KT 7SM -RA SCT003 OVC015 10/09 A2991 RMK AO2 P0000=
200605281125 SPECI KPAE 281125Z AUTO 00000KT 7SM -RA SCT003 OVC015 10/09 A2991 RMK AO2 P0000=
200605281053 METAR KPAE 281053Z AUTO 00000KT 5SM -RA BR OVC003 11/09 A2990 RMK AO2 CIG 002V006 SLP154 P0001 T01060094=
200605281031 SPECI KPAE 281031Z AUTO 00000KT 5SM -RA BR OVC003 11/09 A2990 RMK AO2 CIG 002V007 P0000=
200605281031 SPECI KPAE 281031Z AUTO 00000KT 5SM -RA BR OVC003 11/09 A2990 RMK AO2 CIG 002V007 P0000=
200605280953 METAR KPAE 280953Z AUTO 00000KT 6SM -RA BR OVC005 11/09 A2989 RMK AO2 SLP152 P0001 T01060094=
200605280853 METAR KPAE 280853Z AUTO 17007KT 10SM -RA OVC007 11/09 A2989 RMK AO2 CIG 004V011 SLP149 P0000 60001 T01060094 53005=
200605280753 METAR KPAE 280753Z AUTO 18007KT 10SM -RA OVC005 11/10 A2988 RMK AO2 RAB11 CIG 005V011 SLP147 P0001 T01110100 401440094=
200605280653 METAR KPAE 280653Z AUTO 13005KT 10SM OVC005 11/11 A2987 RMK AO2 SLP146 T01110106=
200605280636 SPECI KPAE 280636Z AUTO 13006KT 10SM BKN005 OVC034 11/10 A2987 RMK AO2 CIG 003V008=
200605280636 SPECI KPAE 280636Z AUTO 13006KT 10SM BKN005 OVC034 11/10 A2987 RMK AO2 CIG 003V008=
200605280603 SPECI KPAE 280603Z AUTO 13008KT 10SM FEW006 BKN032 OVC048 11/10 A2987 RMK AO2=
200605280603 SPECI KPAE 280603Z AUTO 13008KT 10SM FEW006 BKN032 OVC048 11/10 A2987 RMK AO2=
200605280553 METAR KPAE 280553Z AUTO 13007KT 10SM FEW032 OVC048 11/10 A2987 RMK AO2 SLP144 P0001 60005 T01110100 10139 20111 51009=
200605280453 METAR KPAE 280453Z 11005KT 10SM SCT030 OVC075 11/10 A2986 RMK AO2 RAE30 SLP142 P0000 T01110100=
200605280353 METAR KPAE 280353Z 13007KT 8SM -RA FEW026 OVC055 12/10 A2985 RMK AO2 SLP139 P0001 T01170100=
200605280253 METAR KPAE 280253Z 10007KT 10SM -RA SCT026 SCT031 OVC060 12/10 A2984 RMK AO2 SLP136 P0001 60003 T01170100 51008=
200605280153 METAR KPAE 280153Z 11006KT 10SM -RA FEW006 BKN027 OVC041 12/10 A2983 RMK AO2 RAB41 SLP131 P0001 T01220100=
200605280053 METAR KPAE 280053Z 10004KT 10SM OVC033 13/09 A2982 RMK AO2 SLP127 P0001 T01330089=
200605272353 METAR KPAE 272353Z 20004KT 10SM OVC038 14/07 A2981 RMK AO2 SLP125 P0001 60010 T01390067 10144 20106 53003=
200605272253 METAR KPAE 272253Z 23007KT 10SM BKN043 OVC065 13/07 A2981 RMK AO2 SLP124 P0002 T01330072=
200605272214 SPECI KPAE 272214Z VRB05KT 10SM FEW020 SCT026 OVC065 13/09 A2980 RMK AO2 P0001=
200605272214 SPECI KPAE 272214Z VRB05KT 10SM FEW020 SCT026 OVC065 13/09 A2980 RMK AO2 P0001=
200605272153 METAR KPAE 272153Z 00000KT 10SM SCT018 BKN028 OVC075 14/09 A2980 RMK AO2 SLP121 P0002 T01390089=
200605272128 SPECI KPAE 272128Z 21006KT 10SM FEW013 BKN019 OVC040 13/09 A2980 RMK AO2 P0001=
200605272128 SPECI KPAE 272128Z 21006KT 10SM FEW013 BKN019 OVC040 13/09 A2980 RMK AO2 P0001=
200605272108 SPECI KPAE 272108Z 23004KT 10SM FEW013 BKN033 OVC080 13/09 A2980 RMK AO2 P0001=
200605272108 SPECI KPAE 272108Z 23004KT 10SM FEW013 BKN033 OVC080 13/09 A2980 RMK AO2 P0001=
200605272053 METAR KPAE 272053Z 20005KT 10SM FEW011 BKN018 OVC080 13/10 A2981 RMK AO2 RAE01 SLP122 P0002 60005 T01280100 55002=
200605272042 SPECI KPAE 272042Z 22005KT 10SM SCT009 BKN018 OVC080 13/11 A2980 RMK AO2 RAE01 P0002=
200605272042 SPECI KPAE 272042Z 22005KT 10SM SCT009 BKN018 OVC080 13/11 A2980 RMK AO2 RAE01 P0002=
200605271953 METAR KPAE 271953Z 20005KT 10SM -RA BKN006 OVC040 12/11 A2981 RMK AO2 SLP123 P0001 T01220106=
200605271853 METAR KPAE 271853Z 26003KT 5SM -RA BR BKN006 OVC031 11/09 A2981 RMK AO2 RAE11B33 SLP124 P0002 T01060094=
200605271753 METAR KPAE 271753Z 00000KT 5SM RA BR BKN006 BKN012 OVC026 11/09 A2981 RMK AO2 SLP125 P0002 60015 T01060089 10106 20094 51005=
200605271730 SPECI KPAE 271730Z 00000KT 3SM -RA BR BKN006 BKN012 OVC026 10/09 A2981 RMK AO2 P0002=
200605271730 SPECI KPAE 271730Z 00000KT 3SM -RA BR BKN006 BKN012 OVC026 10/09 A2981 RMK AO2 P0002=
200605271725 SPECI KPAE 271725Z 27003KT 1 1/2SM -RA BR BKN006 BKN012 OVC026 10/09 A2981 RMK AO2 P0002=
200605271725 SPECI KPAE 271725Z 27003KT 1 1/2SM -RA BR BKN006 BKN012 OVC026 10/09 A2981 RMK AO2 P0002=
200605271718 SPECI KPAE 271718Z 00000KT 1 3/4SM RA BR FEW006 BKN012 OVC026 10/09 A2981 RMK AO2 P0001=
200605271718 SPECI KPAE 271718Z 00000KT 1 3/4SM RA BR FEW006 BKN012 OVC026 10/09 A2981 RMK AO2 P0001=
200605271710 SPECI KPAE 271710Z 23003KT 10SM BR FEW006 OVC012 10/09 A2981 RMK AO2 RAE01 P0001=
200605271710 SPECI KPAE 271710Z 23003KT 10SM BR FEW006 OVC012 10/09 A2981 RMK AO2 RAE01 P0001=
200605271653 METAR KPAE 271653Z 23005KT 10SM -RA BR BKN006 BKN010 OVC015 10/09 A2981 RMK AO2 RAB44 CIG 003V007 SLP124 P0002 T01000089=
200605271553 METAR KPAE 271553Z 17005KT 10SM BR BKN008 BKN012 OVC031 10/09 A2981 RMK AO2 RAB33E50 CIG 005V011 SLP123 P0003 T01000089=
200605271453 METAR KPAE 271453Z 20003KT 5SM BR BKN006 OVC010 10/09 A2980 RMK AO2 SLP120 P0003 60008 T01000089 53004=
200605271427 SPECI KPAE 271427Z 19005KT 5SM BR BKN006 OVC010 10/09 A2979 RMK AO2 CIG 004V007 P0001=
200605271427 SPECI KPAE 271427Z 19005KT 5SM BR BKN006 OVC010 10/09 A2979 RMK AO2 CIG 004V007 P0001=
200605271410 SPECI KPAE 271410Z 18007KT 5SM BR BKN004 BKN010 OVC045 10/09 A2979 RMK AO2=
200605271410 SPECI KPAE 271410Z 18007KT 5SM BR BKN004 BKN010 OVC045 10/09 A2979 RMK AO2=
200605271353 METAR KPAE 271353Z 16005KT 10SM SCT004 BKN008 OVC047 10/09 A2979 RMK AO2 SLP117 P0003 T01000089=
200605271342 SPECI KPAE 271342Z AUTO 15007KT 10SM SCT004 SCT008 OVC047 10/08 A2979 RMK AO2 P0002=
200605271342 SPECI KPAE 271342Z AUTO 15007KT 10SM SCT004 SCT008 OVC047 10/08 A2979 RMK AO2 P0002=
200605271253 METAR KPAE 271253Z AUTO 15006KT 10SM OVC004 09/08 A2978 RMK AO2 RAE43 SLP116 P0002 T00940083=
200605271153 METAR KPAE 271153Z AUTO 15005KT 10SM -RA BKN004 OVC046 09/08 A2978 RMK AO2 SLP116 P0001 6//// 7//// T00940083 10100 20094 58003=
200605271143 SPECI KPAE 271143Z AUTO 14004KT 10SM -RA SCT004 SCT013 OVC046 09/08 A2979 RMK AO2 P0001=
200605271143 SPECI KPAE 271143Z AUTO 14004KT 10SM -RA SCT004 SCT013 OVC046 09/08 A2979 RMK AO2 P0001=
200605271113 SPECI KPAE 271113Z AUTO 14005KT 10SM -RA SCT006 OVC011 09/08 A2979 RMK AO2 P0000=
200605271113 SPECI KPAE 271113Z AUTO 14005KT 10SM -RA SCT006 OVC011 09/08 A2979 RMK AO2 P0000=
200605271053 METAR KPAE 271053Z AUTO 15005KT 10SM -RA BKN004 OVC009 10/09 A2979 RMK AO2 SLP118 P0001 T01000089=
200605270953 METAR KPAE 270953Z AUTO 19007KT 10SM -RA OVC007 10/09 A2979 RMK AO2 CIG 005V009 SLP118 T01000089 $=
200605270926 SPECI KPAE 270926Z AUTO 18006KT 10SM -RA BKN005 BKN035 OVC046 10/09 A2980 RMK AO2 $=
200605270926 SPECI KPAE 270926Z AUTO 18006KT 10SM -RA BKN005 BKN035 OVC046 10/09 A2980 RMK AO2 $=
200605270853 METAR KPAE 270853Z AUTO 19006KT 5SM -RA BR SCT005 OVC044 10/09 A2979 RMK AO2 SLP118 P0000 60000 T01000094 55001=
200605270837 SPECI KPAE 270837Z AUTO 18006KT 6SM -RA BR SCT005 OVC042 10/09 A2979 RMK AO2 P0000=
200605270837 SPECI KPAE 270837Z AUTO 18006KT 6SM -RA BR SCT005 OVC042 10/09 A2979 RMK AO2 P0000=
200605270753 METAR KPAE 270753Z AUTO 15005KT 7SM -RA BKN005 OVC027 10/09 A2979 RMK AO2 CIG 003V008 SLP118 P0000 T01000089 401390094=
200605270744 SPECI KPAE 270744Z AUTO 13004KT 8SM -RA BKN005 OVC025 10/09 A2979 RMK AO2 P0000=
200605270744 SPECI KPAE 270744Z AUTO 13004KT 8SM -RA BKN005 OVC025 10/09 A2979 RMK AO2 P0000=
200605270653 METAR KPAE 270653Z AUTO 14006KT 10SM -RA FEW004 BKN025 OVC034 10/09 A2979 RMK AO2 RAB12 SLP119 P0000 T01000089=
200605270641 SPECI KPAE 270641Z AUTO 14006KT 10SM -RA SCT004 BKN027 OVC034 10/09 A2979 RMK AO2 RAB12 P0000=
200605270641 SPECI KPAE 270641Z AUTO 14006KT 10SM -RA SCT004 BKN027 OVC034 10/09 A2979 RMK AO2 RAB12 P0000=
200605270604 SPECI KPAE 270604Z AUTO 14006KT 10SM BKN004 BKN041 OVC060 10/09 A2980 RMK AO2=
200605270604 SPECI KPAE 270604Z AUTO 14006KT 10SM BKN004 BKN041 OVC060 10/09 A2980 RMK AO2=
200605270553 METAR KPAE 270553Z AUTO 13005KT 10SM SCT006 BKN013 OVC060 10/09 A2980 RMK AO2 RAE24 SLP120 P0000 60000 T01000089 10139 20100 51001=
200605270551 SPECI KPAE 270551Z AUTO 14006KT 10SM SCT006 BKN013 OVC055 10/09 A2980 RMK AO2 RAE24 P0000=
200605270551 SPECI KPAE 270551Z AUTO 14006KT 10SM SCT006 BKN013 OVC055 10/09 A2980 RMK AO2 RAE24 P0000=
200605270453 METAR KPAE 270453Z AUTO 10003KT 10SM -RA FEW009 OVC016 11/09 A2980 RMK AO2 RAB00 SLP122 P0000 T01060089=
200605270433 SPECI KPAE 270433Z AUTO 35004KT 8SM -RA SCT009 BKN016 OVC036 11/07 A2980 RMK AO2 RAB00 P0000=
200605270433 SPECI KPAE 270433Z AUTO 35004KT 8SM -RA SCT009 BKN016 OVC036 11/07 A2980 RMK AO2 RAB00 P0000=
200605270353 METAR KPAE 270353Z AUTO 14006KT 10SM FEW015 OVC023 11/08 A2979 RMK AO2 RAB29E46 SLP119 P0000 T01110083=
200605270328 SPECI KPAE 270328Z 18005KT 10SM FEW013 SCT021 BKN026 12/08 A2979 RMK AO2=
200605270328 SPECI KPAE 270328Z 18005KT 10SM FEW013 SCT021 BKN026 12/08 A2979 RMK AO2=
200605270253 METAR KPAE 270253Z 00000KT 10SM FEW050 12/08 A2979 RMK AO2 SLP117 T01170078 53006=
200605270153 METAR KPAE 270153Z 23004KT 10SM OVC060 12/08 A2978 RMK AO2 SLP113 T01220078=
200605270053 METAR KPAE 270053Z 23005KT 10SM OVC055 13/07 A2977 RMK AO2 SLP112 T01280067=
200605262353 METAR KPAE 262353Z 21005KT 10SM CLR 13/06 A2977 RMK AO2 SLP111 60000 T01280061 10139 20117 57003=
200605262253 METAR KPAE 262253Z 24006KT 10SM BKN050 13/06 A2977 RMK AO2 SLP112 T01330056=
200605262153 METAR KPAE 262153Z 25005KT 10SM BKN042 OVC200 13/06 A2978 RMK AO2 SLP113 T01280061=
200605262053 METAR KPAE 262053Z 23007KT 10SM FEW042 13/07 A2978 RMK AO2 SLP113 60000 T01280067 56008=
200605262012 SPECI KPAE 262012Z 24006KT 10SM SCT027 BKN044 13/07 A2978 RMK AO2=
200605262012 SPECI KPAE 262012Z 24006KT 10SM SCT027 BKN044 13/07 A2978 RMK AO2=
200605261953 METAR KPAE 261953Z VRB05KT 10SM BKN023 13/07 A2978 RMK AO2 SLP114 T01280072=
200605261941 SPECI KPAE 261941Z 26004KT 10SM SCT023 13/08 A2978 RMK AO2=
200605261941 SPECI KPAE 261941Z 26004KT 10SM SCT023 13/08 A2978 RMK AO2=
200605261913 SPECI KPAE 261913Z VRB04KT 10SM FEW020 BKN029 12/07 A2979 RMK AO2=
200605261913 SPECI KPAE 261913Z VRB04KT 10SM FEW020 BKN029 12/07 A2979 RMK AO2=
200605261853 METAR KPAE 261853Z 20004KT 10SM SCT020 SCT027 12/07 A2980 RMK AO2 RAB1754E11 SLP120 P0000 T01220072=
200605261753 METAR KPAE 261753Z 19009KT 10SM SCT016 BKN023 OVC028 12/07 A2980 RMK AO2 RAE42 SLP122 P0000 60001 T01170072 10117 20094 56004=
200605261653 METAR KPAE 261653Z 21008KT 10SM -RA SCT015 BKN021 OVC033 11/07 A2981 RMK AO2 RAB17 SLP123 P0000 T01060072=
200605261623 SPECI KPAE 261623Z 24007KT 10SM -RA FEW010 BKN015 OVC022 10/08 A2981 RMK AO2 RAB17 P0000=
200605261623 SPECI KPAE 261623Z 24007KT 10SM -RA FEW010 BKN015 OVC022 10/08 A2981 RMK AO2 RAB17 P0000=
200605261616 SPECI KPAE 261616Z 22006KT 10SM BKN012 OVC022 11/08 A2981 RMK AO2=
200605261616 SPECI KPAE 261616Z 22006KT 10SM BKN012 OVC022 11/08 A2981 RMK AO2=
200605261553 METAR KPAE 261553Z 19007KT 10SM FEW012 BKN024 OVC045 11/08 A2981 RMK AO2 SLP125 T01060078=
200605261530 SPECI KPAE 261530Z 19008KT 10SM SCT010 BKN020 OVC045 10/08 A2981 RMK AO2=
200605261530 SPECI KPAE 261530Z 19008KT 10SM SCT010 BKN020 OVC045 10/08 A2981 RMK AO2=
200605261500 SPECI KPAE 261500Z 19008KT 10SM BKN010 OVC018 10/08 A2981 RMK AO2=
200605261500 SPECI KPAE 261500Z 19008KT 10SM BKN010 OVC018 10/08 A2981 RMK AO2=
200605261453 METAR KPAE 261453Z 19008KT 10SM BKN006 BKN043 OVC065 10/08 A2982 RMK AO2 RAE47 SLP127 P0001 60001 T01000083 57002=
200605261353 METAR KPAE 261353Z 18009KT 10SM -RA BKN006 BKN043 OVC065 09/08 A2982 RMK AO2 SLP128 P0000 T00940078=
200605261349 SPECI KPAE 261349Z 17008KT 10SM BKN006 BKN043 OVC065 09/08 A2982 RMK AO2 RAE46 P0000=
200605261349 SPECI KPAE 261349Z 17008KT 10SM BKN006 BKN043 OVC065 09/08 A2982 RMK AO2 RAE46 P0000=
200605261253 METAR KPAE 261253Z 17009KT 10SM -RA FEW016 BKN042 OVC055 09/08 A2982 RMK AO2 RAB21 SLP128 P0000 T00940078=
200605261201 SPECI KPAE 261201Z 18009KT 10SM FEW011 BKN017 OVC100 09/08 A2983 RMK AO2=
200605261201 SPECI KPAE 261201Z 18009KT 10SM FEW011 BKN017 OVC100 09/08 A2983 RMK AO2=
200605261153 METAR KPAE 261153Z 18010KT 10SM BKN013 BKN021 OVC100 09/08 A2983 RMK AO2 SLP131 60001 70002 T00940078 10100 20094 58011=
200605261137 SPECI KPAE 261137Z 18008KT 10SM BKN011 BKN021 OVC095 09/08 A2983 RMK AO2=
200605261137 SPECI KPAE 261137Z 18008KT 10SM BKN011 BKN021 OVC095 09/08 A2983 RMK AO2=
200605261123 SPECI KPAE 261123Z 18009KT 10SM SCT009 BKN019 OVC095 09/08 A2984 RMK AO2=
200605261123 SPECI KPAE 261123Z 18009KT 10SM SCT009 BKN019 OVC095 09/08 A2984 RMK AO2=
200605261112 SPECI KPAE 261112Z 18009KT 10SM BKN009 BKN019 OVC100 09/08 A2984 RMK AO2=
200605261112 SPECI KPAE 261112Z 18009KT 10SM BKN009 BKN019 OVC100 09/08 A2984 RMK AO2=
200605261053 METAR KPAE 261053Z 19008KT 10SM SCT009 BKN025 OVC095 09/08 A2985 RMK AO2 RAE28 SLP136 P0001 T00940078=
200605261037 SPECI KPAE 261037Z 19009KT 10SM FEW009 BKN037 OVC050 09/08 A2985 RMK AO2 RAE28 P0001=
200605261037 SPECI KPAE 261037Z 19009KT 10SM FEW009 BKN037 OVC050 09/08 A2985 RMK AO2 RAE28 P0001=
200605261021 SPECI KPAE 261021Z 18008KT 10SM -RA FEW011 BKN029 OVC039 09/08 A2985 RMK AO2 P0001=
200605261021 SPECI KPAE 261021Z 18008KT 10SM -RA FEW011 BKN029 OVC039 09/08 A2985 RMK AO2 P0001=
200605261014 SPECI KPAE 261014Z 18010KT 10SM -RA FEW011 BKN031 OVC041 09/08 A2986 RMK AO2 P0001=
200605261014 SPECI KPAE 261014Z 18010KT 10SM -RA FEW011 BKN031 OVC041 09/08 A2986 RMK AO2 P0001=
200605260953 METAR KPAE 260953Z 17011KT 10SM -RA SCT015 BKN024 OVC095 09/08 A2986 RMK AO2 SLP141 P0000 T00940078=
200605260948 SPECI KPAE 260948Z 17010KT 10SM -RA FEW015 BKN022 OVC095 10/08 A2986 RMK AO2 P0000=
200605260948 SPECI KPAE 260948Z 17010KT 10SM -RA FEW015 BKN022 OVC095 10/08 A2986 RMK AO2 P0000=
200605260936 SPECI KPAE 260936Z 18010KT 10SM SCT013 BKN032 OVC095 10/08 A2987 RMK AO2 RAE32 P0000=
200605260936 SPECI KPAE 260936Z 18010KT 10SM SCT013 BKN032 OVC095 10/08 A2987 RMK AO2 RAE32 P0000=
200605260929 SPECI KPAE 260929Z 18010KT 10SM -RA BKN013 BKN021 OVC032 10/08 A2987 RMK AO2 P0000=
200605260929 SPECI KPAE 260929Z 18010KT 10SM -RA BKN013 BKN021 OVC032 10/08 A2987 RMK AO2 P0000=
200605260853 METAR KPAE 260853Z 18010KT 10SM -RA SCT016 BKN023 OVC028 10/08 A2988 RMK AO2 RAB26 SLP146 P0000 60000 T01000078 58012=
200605260753 METAR KPAE 260753Z 16009KT 10SM SCT060 OVC100 10/08 A2989 RMK AO2 RAB19E35 SLP151 P0000 T01000078 401560100=
200605260653 METAR KPAE 260653Z 14008KT 10SM SCT013 OVC070 10/07 A2990 RMK AO2 RAB37E49 SLP154 P0000 T01000072=
200605260629 SPECI KPAE 260629Z 13008KT 10SM FEW016 BKN060 OVC080 10/07 A2991 RMK AO2=
200605260629 SPECI KPAE 260629Z 13008KT 10SM FEW016 BKN060 OVC080 10/07 A2991 RMK AO2=
200605260553 METAR KPAE 260553Z 15006KT 10SM BKN019 OVC055 10/08 A2991 RMK AO2 SLP159 60001 T01000078 10150 20100 58004=
200605260542 SPECI KPAE 260542Z 14007KT 10SM SCT020 BKN055 OVC070 10/07 A2991 RMK AO2=
200605260542 SPECI KPAE 260542Z 14007KT 10SM SCT020 BKN055 OVC070 10/07 A2991 RMK AO2=
200605260453 METAR KPAE 260453Z 15008KT 10SM OVC023 10/08 A2992 RMK AO2 RAE27 SLP162 P0001 T01000078=
200605260353 METAR KPAE 260353Z 15009KT 10SM -RA SCT014 BKN019 OVC070 10/08 A2992 RMK AO2 SLP162 P0000 T01000078=
200605260351 SPECI KPAE 260351Z 15009KT 10SM SCT014 BKN019 OVC065 10/08 A2992 RMK AO2 RAE41 P0000=
200605260351 SPECI KPAE 260351Z 15009KT 10SM SCT014 BKN019 OVC065 10/08 A2992 RMK AO2 RAE41 P0000=
200605260253 METAR KPAE 260253Z 15011KT 10SM -RA BKN050 OVC065 11/08 A2992 RMK AO2 RAB22 SLP163 P0000 60000 T01060078 56006=
200605260153 METAR KPAE 260153Z 17014KT 10SM BKN030 BKN039 OVC150 12/08 A2992 RMK AO2 RAB00E44 SLP163 P0000 T01170078=
200605260053 METAR KPAE 260053Z 18012G16KT 10SM SCT025 OVC150 14/07 A2993 RMK AO2 RAB35E44 SLP164 P0000 T01390067=
200605252353 METAR KPAE 252353Z 21007KT 10SM SCT027 OVC150 15/07 A2994 RMK AO2 SLP168 T01500067 10156 20128 56018=
200605252253 METAR KPAE 252253Z 24007KT 10SM CLR 15/07 A2995 RMK AO2 SLP173 T01500072=
200605252153 METAR KPAE 252153Z 23006KT 10SM SCT027 OVC150 14/08 A2997 RMK AO2 SLP179 T01390083=
200605252053 METAR KPAE 252053Z 24009KT 10SM FEW027 14/08 A2999 RMK AO2 SLP186 T01390078 58019=
200605251953 METAR KPAE 251953Z 23010KT 10SM SCT028 SCT039 OVC200 13/08 A3002 RMK AO2 SLP194 T01280078=
200605251853 METAR KPAE 251853Z 23008KT 10SM SCT029 OVC200 13/08 A3004 RMK AO2 SLP201 T01330078=
200605251753 METAR KPAE 251753Z 19011KT 10SM SCT025 OVC200 14/07 A3005 RMK AO2 SLP206 T01390067 10139 20100 58016=
200605251653 METAR KPAE 251653Z 17012KT 10SM SCT030 OVC200 12/07 A3007 RMK AO2 SLP213 T01220067=
200605251553 METAR KPAE 251553Z 16009KT 10SM FEW010 SCT080 OVC200 13/08 A3009 RMK AO2 SLP218 T01280078=
200605251453 METAR KPAE 251453Z 14007KT 10SM CLR 11/08 A3010 RMK AO2 SLP222 T01110083 56007=
200605251353 METAR KPAE 251353Z AUTO 15009KT 10SM BKN080 11/08 A3010 RMK AO2 SLP223 T01060083=
200605251253 METAR KPAE 251253Z AUTO 14008KT 10SM FEW120 10/08 A3011 RMK AO2 SLP225 T01000083=
200605251153 METAR KPAE 251153Z AUTO 14007KT 10SM BKN080 BKN120 10/08 A3012 RMK AO2 SLP229 70005 T01000083 10111 20100 58007=
200605251053 METAR KPAE 251053Z AUTO 15010KT 10SM SCT095 10/08 A3013 RMK AO2 SLP231 T01000078=
200605250953 METAR KPAE 250953Z AUTO 13010KT 10SM FEW022 BKN100 BKN110 11/08 A3014 RMK AO2 SLP235 T01060078=
200605250853 METAR KPAE 250853Z AUTO 15009KT 10SM OVC110 11/08 A3014 RMK AO2 SLP235 T01060083 56005=
200605250753 METAR KPAE 250753Z AUTO 15013KT 10SM FEW090 11/08 A3014 RMK AO2 SLP236 T01060083 401670106=
200605250653 METAR KPAE 250653Z AUTO 15010KT 10SM CLR 11/08 A3015 RMK AO2 SLP238 T01060083=
200605250553 METAR KPAE 250553Z AUTO 15011KT 10SM FEW075 OVC100 11/09 A3015 RMK AO2 RAB43E53 SLP240 P0000 60001 T01110089 10156 20111 50009=
200605250453 METAR KPAE 250453Z AUTO 15012KT 10SM FEW120 12/09 A3016 RMK AO2 SLP242 T01170089=
200605250353 METAR KPAE 250353Z AUTO 15012KT 10SM CLR 12/09 A3014 RMK AO2 SLP236 P0001 T01220089=
200605250253 METAR KPAE 250253Z 16011KT 10SM FEW032 14/08 A3012 RMK AO2 SLP230 60000 T01440078 51004=
200605250153 METAR KPAE 250153Z 16013KT 10SM FEW080 BKN100 16/07 A3012 RMK AO2 SLP230 T01560072=
200605250053 METAR KPAE 250053Z AUTO 16016G23KT 10SM CLR 16/07 A3012 RMK AO2 RAE24 SLP227 P0000 T01560072 TSNO=
200605242353 METAR KPAE 242353Z AUTO 16016G23KT 10SM -RA FEW060 SCT070 BKN090 14/08 A3011 RMK AO2 RAB00 SLP227 P0000 60000 T01390083 10167 20133 50008 TSNO=
200605242253 METAR KPAE 242253Z 18017G23KT 10SM SCT031 BKN055 BKN090 15/08 A3012 RMK AO2 RAE00 SLP229 P0000 T01500083=
200605242153 METAR KPAE 242153Z 20015G19KT 10SM -RA FEW044 BKN055 14/09 A3010 RMK AO2 PK WND 18029/2113 RAB12 SLP221 P0000 T01440089=
200605242053 METAR KPAE 242053Z 18017G20KT 10SM SCT028 BKN038 OVC050 16/09 A3009 RMK AO2 RAB32E47 SLP217 P0000 60000 T01560089 55001=
200605242005 SPECI KPAE 242005Z 16008G15KT 10SM SCT027 BKN033 OVC050 16/09 A3008 RMK AO2=
200605242005 SPECI KPAE 242005Z 16008G15KT 10SM SCT027 BKN033 OVC050 16/09 A3008 RMK AO2=
200605241953 METAR KPAE 241953Z 18010G17KT 150V230 10SM BKN027 BKN033 OVC042 15/09 A3008 RMK AO2 RAE01 SLP215 P0000 T01500094=
200605241853 METAR KPAE 241853Z 16010KT 10SM -RA SCT024 BKN030 OVC060 14/11 A3009 RMK AO2 RAB43 SLP218 P0000 T01440106=
200605241753 METAR KPAE 241753Z 17009KT 10SM FEW023 BKN048 BKN055 14/09 A3009 RMK AO2 SLP219 60004 T01440094 10150 20117 51003=
200605241734 SPECI KPAE 241734Z 18011KT 10SM SCT025 BKN046 BKN060 14/09 A3009 RMK AO2=
200605241734 SPECI KPAE 241734Z 18011KT 10SM SCT025 BKN046 BKN060 14/09 A3009 RMK AO2=
200605241708 SPECI KPAE 241708Z 19010KT 10SM SCT020 BKN026 BKN065 14/10 A3010 RMK AO2=
200605241708 SPECI KPAE 241708Z 19010KT 10SM SCT020 BKN026 BKN065 14/10 A3010 RMK AO2=
200605241653 METAR KPAE 241653Z 19009KT 10SM SCT018 BKN046 BKN065 14/10 A3009 RMK AO2 RAE1558 SLP218 P0000 T01390100=
200605241553 METAR KPAE 241553Z 17011KT 10SM -RA FEW015 BKN048 OVC065 13/10 A3009 RMK AO2 RAE00B23E33B49 SLP218 P0001 T01280100=
200605241453 METAR KPAE 241453Z 16007KT 10SM -RA SCT055 BKN070 12/11 A3008 RMK AO2 RAE1356B38 SLP215 P0001 60003 T01220106 53005=
200605241353 METAR KPAE 241353Z AUTO 16008KT 10SM -RA FEW060 SCT080 SCT110 12/11 A3007 RMK AO2 SLP213 P0001 T01220106=
200605241320 SPECI KPAE 241320Z AUTO 14007KT 9SM -RA FEW016 BKN055 OVC110 12/11 A3007 RMK AO2 P0001=
200605241320 SPECI KPAE 241320Z AUTO 14007KT 9SM -RA FEW016 BKN055 OVC110 12/11 A3007 RMK AO2 P0001=
200605241253 METAR KPAE 241253Z AUTO 15005KT 8SM -RA BKN016 BKN022 OVC026 12/11 A3007 RMK AO2 SLP212 P0001 T01170111=
200605241207 SPECI KPAE 241207Z AUTO 16005KT 8SM -RA FEW007 BKN019 OVC070 12/11 A3007 RMK AO2 P0000=
200605241207 SPECI KPAE 241207Z AUTO 16005KT 8SM -RA FEW007 BKN019 OVC070 12/11 A3007 RMK AO2 P0000=
200605241153 METAR KPAE 241153Z AUTO 15004KT 10SM -RA FEW055 OVC070 12/11 A3007 RMK AO2 RAB25 SLP210 P0001 60005 7//// T01170111 10133 20117 58001=
200605241106 SPECI KPAE 241106Z AUTO 22005KT 10SM SCT003 BKN044 OVC085 12/11 A3007 RMK AO2=
200605241106 SPECI KPAE 241106Z AUTO 22005KT 10SM SCT003 BKN044 OVC085 12/11 A3007 RMK AO2=
200605241053 METAR KPAE 241053Z AUTO 17003KT 10SM FEW036 BKN055 OVC090 12/11 A3007 RMK AO2 RAE29 SLP211 P0001 T01170106=
200605240953 METAR KPAE 240953Z AUTO 14004KT 9SM -RA FEW022 BKN040 OVC080 12/11 A3007 RMK AO2 RAB01 SLP211 P0001 T01170106=
200605240853 METAR KPAE 240853Z AUTO 18005KT 10SM FEW026 BKN032 OVC070 12/11 A3007 RMK AO2 RAE26 SLP210 P0001 60002 T01220106 57001=
200605240753 METAR KPAE 240753Z AUTO 13006KT 10SM -RA BKN050 OVC075 12/10 A3007 RMK AO2 SLP211 P0001 T01220100 401670094=
200605240653 METAR KPAE 240653Z AUTO 14007KT 10SM -RA OVC065 13/10 A3007 RMK AO2 RAB0557 SLP212 P0000 T01280100=
200605240553 METAR KPAE 240553Z AUTO 17007KT 10SM BKN032 BKN044 OVC080 13/09 A3007 RMK AO2 RAB20E34 SLP212 P0000 60005 T01330094 10161 20128 51013=
200605240453 METAR KPAE 240453Z AUTO 14007KT 10SM SCT035 BKN043 OVC100 14/09 A3006 RMK AO2 SLP208 T01390089=
200605240353 METAR KPAE 240353Z 15006KT 10SM FEW039 BKN065 OVC110 14/10 A3005 RMK AO2 SLP205 T01390100=
200605240253 METAR KPAE 240253Z 15006KT 10SM BKN041 OVC055 14/10 A3003 RMK AO2 SLP198 P0001 60005 T01440100 50005=
200605240153 METAR KPAE 240153Z 17008KT 10SM SCT049 BKN060 OVC090 14/11 A3003 RMK AO2 SLP200 P0002 T01440111=
200605240053 METAR KPAE 240053Z 18005KT 10SM SCT042 BKN050 OVC080 15/12 A3004 RMK AO2 RAB31E50 SLP200 P0002 T01500117=
200605232353 METAR KPAE 232353Z 16004KT 10SM FEW032 OVC050 16/10 A3002 RMK AO2 RAE03 SLP193 P0003 6//// T01610100 10167 20117 58004=
200605232223 SPECI KPAE 232223Z 17009KT 10SM -RA FEW024 BKN032 OVC070 16/11 A3003 RMK AO2 RAB08 P0002=
200605232223 SPECI KPAE 232223Z 17009KT 10SM -RA FEW024 BKN032 OVC070 16/11 A3003 RMK AO2 RAB08 P0002=
200605232153 METAR KPAE 232153Z 24004KT 10SM SCT016 BKN021 OVC080 14/11 A3003 RMK AO2 RAB07E38 SLP198 P0002 T01440111=
200605232148 SPECI KPAE 232148Z 25004KT 10SM BKN016 BKN034 13/11 A3003 RMK AO2 RAB07E38 P0002=
200605232148 SPECI KPAE 232148Z 25004KT 10SM BKN016 BKN034 13/11 A3003 RMK AO2 RAB07E38 P0002=
200605232126 SPECI KPAE 232126Z 10004KT 10SM SCT014 BKN030 BKN042 15/11 A3002 RMK AO2 RAB07E22 P0001=
200605232126 SPECI KPAE 232126Z 10004KT 10SM SCT014 BKN030 BKN042 15/11 A3002 RMK AO2 RAB07E22 P0001=
200605232059 SPECI KPAE 232059Z 17006KT 10SM BKN012 BKN049 OVC060 14/11 A3003 RMK AO2=
200605232059 SPECI KPAE 232059Z 17006KT 10SM BKN012 BKN049 OVC060 14/11 A3003 RMK AO2=
200605232057 SPECI KPAE 232057Z 16007KT 10SM SCT014 OVC055 14/11 A3003 RMK AO2=
200605232057 SPECI KPAE 232057Z 16007KT 10SM SCT014 OVC055 14/11 A3003 RMK AO2=
200605232053 METAR KPAE 232053Z 16006KT 10SM SCT008 BKN014 OVC048 14/11 A3003 RMK AO2 SLP198 P0001 6//// T01440111 53005=
200605232005 SPECI KPAE 232005Z 15008KT 10SM SCT008 BKN014 OVC048 14/11 A3002 RMK AO2=
200605232005 SPECI KPAE 232005Z 15008KT 10SM SCT008 BKN014 OVC048 14/11 A3002 RMK AO2=
200605231953 METAR KPAE 231953Z 13006KT 10SM FEW011 BKN047 BKN055 14/11 A3002 RMK AO2 SLP194 P0002 T01390111=
200605231853 METAR KPAE 231853Z 12007KT 10SM SCT005 BKN070 12/11 A3000 RMK AO2 RAE36 SLP189 T01220106=
200605231813 SPECI KPAE 231813Z 20009KT 4SM RA BR FEW002 BKN027 OVC043 12/10 A3001 RMK AO2 $=
200605231813 SPECI KPAE 231813Z 20009KT 4SM RA BR FEW002 BKN027 OVC043 12/10 A3001 RMK AO2 $=
200605231802 SPECI KPAE 231802Z 19013KT 2 1/2SM +RA BR FEW028 BKN043 OVC055 12/10 A3002 RMK AO2 P0000=
200605231802 SPECI KPAE 231802Z 19013KT 2 1/2SM +RA BR FEW028 BKN043 OVC055 12/10 A3002 RMK AO2 P0000=
200605231753 METAR KPAE 231753Z 19011KT 3SM RA BR BKN043 BKN050 OVC065 12/10 A3001 RMK AO2 RAB23 PRESRR SLP192 P0002 60004 T01170100 10139 20094 53035=
200605231653 METAR KPAE 231653Z 20006KT 10SM SCT038 BKN075 BKN090 12/10 A2995 RMK AO2 RAB04E52 SLP172 P0002 T01170100=
200605231553 METAR KPAE 231553Z 15006KT 10SM BKN080 13/08 A2992 RMK AO2 SLP161 T01330078=
200605231453 METAR KPAE 231453Z 13006KT 10SM FEW080 12/07 A2991 RMK AO2 SLP157 T01170072 51021=
200605231353 METAR KPAE 231353Z AUTO 15008KT 10SM FEW065 BKN080 11/07 A2990 RMK AO2 SLP156 T01060072=
200605231253 METAR KPAE 231253Z AUTO 15006KT 10SM BKN070 OVC085 11/07 A2987 RMK AO2 SLP144 T01110072=
200605231153 METAR KPAE 231153Z AUTO VRB03KT 10SM FEW075 10/07 A2984 RMK AO2 SLP135 70003 T01000072 10128 20100 53007=
200605231053 METAR KPAE 231053Z AUTO 10008KT 10SM FEW120 11/08 A2982 RMK AO2 SLP127 T01060078=
200605230953 METAR KPAE 230953Z AUTO 11008KT 10SM CLR 11/08 A2983 RMK AO2 SLP130 T01060078=
200605230853 METAR KPAE 230853Z AUTO 11007KT 10SM OVC120 11/08 A2982 RMK AO2 SLP127 T01060083 50005=
200605230753 METAR KPAE 230753Z AUTO 10006KT 10SM CLR 11/09 A2983 RMK AO2 SLP129 T01060089 401500106=
200605230653 METAR KPAE 230653Z AUTO 10006KT 10SM SCT060 12/09 A2982 RMK AO2 SLP127 T01170089=
200605230553 METAR KPAE 230553Z AUTO 13008KT 10SM FEW065 OVC100 13/08 A2981 RMK AO2 SLP122 T01280083 10150 20122 53020=
200605230453 METAR KPAE 230453Z AUTO 14009KT 10SM SCT120 12/08 A2978 RMK AO2 SLP115 T01220083=
200605230353 METAR KPAE 230353Z AUTO 13012KT 10SM OVC080 13/08 A2977 RMK AO2 SLP108 T01330083=
200605230253 METAR KPAE 230253Z 14013KT 10SM CLR 13/09 A2975 RMK AO2 SLP101 T01330094 51010=
200605230153 METAR KPAE 230153Z 14011KT 10SM FEW060 SCT100 14/08 A2974 RMK AO2 SLP099 T01440078=
200605230053 METAR KPAE 230053Z 17011KT 10SM SCT023 OVC100 15/06 A2972 RMK AO2 SLP092 T01500061=
200605222353 METAR KPAE 222353Z 18011KT 10SM SCT026 OVC080 14/09 A2971 RMK AO2 RAB22E31 SLP090 P0000 60000 T01440089 10150 20122 52018=
200605222253 METAR KPAE 222253Z 18011G20KT 10SM OVC075 14/08 A2970 RMK AO2 SLP084 T01440083=
200605222153 METAR KPAE 222153Z 17011KT 10SM OVC070 14/09 A2968 RMK AO2 RAB16E37 SLP078 P0000 T01440089=
200605222053 METAR KPAE 222053Z 17010KT 10SM FEW043 OVC055 14/10 A2966 RMK AO2 SLP072 60000 T01390100 53023=
200605222031 SPECI KPAE 222031Z 17010KT 10SM SCT012 BKN045 OVC050 14/11 A2965 RMK AO2=
200605222031 SPECI KPAE 222031Z 17010KT 10SM SCT012 BKN045 OVC050 14/11 A2965 RMK AO2=
200605222015 SPECI KPAE 222015Z 17010KT 10SM BKN012 OVC048 14/11 A2964 RMK AO2=
200605222015 SPECI KPAE 222015Z 17010KT 10SM BKN012 OVC048 14/11 A2964 RMK AO2=
200605221953 METAR KPAE 221953Z 19009KT 10SM SCT012 OVC055 14/11 A2963 RMK AO2 SLP063 T01390111=
200605221853 METAR KPAE 221853Z 20008KT 10SM SCT003 OVC048 13/11 A2961 RMK AO2 RAE1758 SLP055 P0000 T01330111=
200605221800 SPECI KPAE 221800Z 17005KT 10SM SCT003 OVC048 13/11 A2959 RMK AO2 RAE1758 P0000=
200605221800 SPECI KPAE 221800Z 17005KT 10SM SCT003 OVC048 13/11 A2959 RMK AO2 RAE1758 P0000=
200605221753 METAR KPAE 221753Z 17006KT 9SM -RA OVC048 12/11 A2959 RMK AO2 RAE07B45 SLP049 P0000 60003 T01220111 10133 20122 53005=
200605221653 METAR KPAE 221653Z 19007KT 8SM -RA FEW004 OVC042 13/11 A2959 RMK AO2 RAB50 SLP047 P0000 T01280111=
200605221624 SPECI KPAE 221624Z 21006KT 10SM FEW004 OVC038 13/12 A2959 RMK AO2=
200605221624 SPECI KPAE 221624Z 21006KT 10SM FEW004 OVC038 13/12 A2959 RMK AO2=
200605221553 METAR KPAE 221553Z 21006KT 10SM OVC036 13/12 A2958 RMK AO2 RAE1459 SLP044 P0000 T01330117=
200605221453 METAR KPAE 221453Z 00000KT 9SM -RA FEW008 OVC036 13/12 A2958 RMK AO2 SLP044 P0002 60003 T01280117 58002=
200605221353 METAR KPAE 221353Z 18004KT 6SM -RA BR SCT003 BKN038 OVC045 13/12 A2958 RMK AO2 RAB10 SLP045 P0001 T01280122=
200605221253 METAR KPAE 221253Z 11005KT 10SM BKN047 OVC060 13/12 A2958 RMK AO2 RAE04 SLP044 P0000 T01330117=
200605221153 METAR KPAE 221153Z 20005KT 6SM -RA BR BKN049 OVC070 12/12 A2958 RMK AO2 RAE06B23 SLP045 P0002 60004 70011 T01220117 10139 20117 56012=
200605221132 SPECI KPAE 221132Z 00000KT 4SM -RA BR SCT002 BKN049 OVC065 12/12 A2959 RMK AO2 RAE06B23 P0001=
200605221132 SPECI KPAE 221132Z 00000KT 4SM -RA BR SCT002 BKN049 OVC065 12/12 A2959 RMK AO2 RAE06B23 P0001=
200605221121 SPECI KPAE 221121Z 20004KT 2SM BR SCT002 OVC070 12/11 A2959 RMK AO2 RAE06 P0001=
200605221121 SPECI KPAE 221121Z 20004KT 2SM BR SCT002 OVC070 12/11 A2959 RMK AO2 RAE06 P0001=
200605221112 SPECI KPAE 221112Z 23005KT 1 1/2SM BR BKN002 OVC075 12/11 A2959 RMK AO2 RAE06 P0001=
200605221112 SPECI KPAE 221112Z 23005KT 1 1/2SM BR BKN002 OVC075 12/11 A2959 RMK AO2 RAE06 P0001=
200605221106 SPECI KPAE 221106Z 25004KT 2 1/2SM BR FEW002 OVC075 12/12 A2958 RMK AO2 RAE06 P0000=
200605221106 SPECI KPAE 221106Z 25004KT 2 1/2SM BR FEW002 OVC075 12/12 A2958 RMK AO2 RAE06 P0000=
200605221053 METAR KPAE 221053Z 24004KT 4SM -RA BR OVC075 13/12 A2958 RMK AO2 SLP045 P0001 T01280117=
200605220953 METAR KPAE 220953Z 13004KT 10SM -RA BKN075 OVC095 13/12 A2960 RMK AO2 RAB0856 SLP048 P0001 T01330122=
200605220853 METAR KPAE 220853Z 14005KT 10SM BKN090 BKN110 14/12 A2962 RMK AO2 SLP056 T01390117 56005=
200605220753 METAR KPAE 220753Z 11004KT 10SM SCT085 14/12 A2962 RMK AO2 SLP057 T01390117 401940078=
200605220653 METAR KPAE 220653Z 10004KT 10SM SCT090 13/12 A2962 RMK AO2 SLP058 T01330117=
200605220553 METAR KPAE 220553Z 10006KT 10SM CLR 13/12 A2963 RMK AO2 SLP063 60007 T01330117 10161 20117 56013=
200605220453 METAR KPAE 220453Z 07005KT 10SM CLR 12/11 A2965 RMK AO2 SLP068 T01220106=
200605220400 SPECI KPAE 220400Z 04006KT 10SM SCT014 OVC075 12/10 A2964 RMK AO2=
200605220400 SPECI KPAE 220400Z 04006KT 10SM SCT014 OVC075 12/10 A2964 RMK AO2=
200605220353 METAR KPAE 220353Z VRB05KT 10SM BKN014 OVC080 12/09 A2965 RMK AO2 RAE41 SLP068 P0003 T01170094=
200605220327 SPECI KPAE 220327Z VRB05KT 10SM -RA BKN014 BKN033 OVC100 12/10 A2967 RMK AO2 P0001=
200605220327 SPECI KPAE 220327Z VRB05KT 10SM -RA BKN014 BKN033 OVC100 12/10 A2967 RMK AO2 P0001=
200605220314 SPECI KPAE 220314Z VRB05KT 9SM -RA SCT014 BKN035 OVC080 12/10 A2966 RMK AO2 P0000=
200605220314 SPECI KPAE 220314Z VRB05KT 9SM -RA SCT014 BKN035 OVC080 12/10 A2966 RMK AO2 P0000=
200605220258 SPECI KPAE 220258Z 31005KT 10SM -RA BKN013 BKN047 OVC055 12/09 A2967 RMK AO2 P0000=
200605220258 SPECI KPAE 220258Z 31005KT 10SM -RA BKN013 BKN047 OVC055 12/09 A2967 RMK AO2 P0000=
200605220253 METAR KPAE 220253Z VRB05KT 10SM -RA SCT011 BKN048 OVC060 12/09 A2967 RMK AO2 RAB41 PRESRR SLP078 P0001 60004 T01220094 53027=
200605220153 METAR KPAE 220153Z 25004KT 10SM BKN060 OVC110 16/12 A2963 RMK AO2 RAE03 SLP062 P0002 T01610122=
200605220100 SPECI KPAE 220100Z 20006KT 10SM -RA FEW035 OVC065 15/13 A2961 RMK AO2 P0000=
200605220100 SPECI KPAE 220100Z 20006KT 10SM -RA FEW035 OVC065 15/13 A2961 RMK AO2 P0000=
200605220053 METAR KPAE 220053Z 19007KT 2 1/2SM -RA BR SCT034 OVC065 15/13 A2962 RMK AO2 VIS 1 1/2V5 SLP059 P0001 T01500128=
200605212353 METAR KPAE 212353Z 25007KT 10SM -RA FEW021 OVC070 15/09 A2959 RMK AO2 RAB51 SLP049 P0000 60000 T01500094 10194 20144 58007=
200605212253 METAR KPAE 212253Z 26007KT 10SM BKN080 18/11 A2960 RMK AO2 SLP052 T01830106=
200605212153 METAR KPAE 212153Z 10004KT 10SM BKN080 OVC100 18/09 A2961 RMK AO2 SLP055 T01830094=
200605212053 METAR KPAE 212053Z 02003KT 10SM BKN080 BKN100 18/11 A2961 RMK AO2 SLP056 T01780106 56026=
200605211953 METAR KPAE 211953Z VRB03KT 10SM SCT085 BKN100 18/09 A2964 RMK AO2 SLP063 T01780094=
200605211853 METAR KPAE 211853Z 28005KT 10SM CLR 16/09 A2966 RMK AO2 SLP074 T01560094=
200605211753 METAR KPAE 211753Z VRB03KT 10SM CLR 15/09 A2969=
200605211553 METAR KPAE 211553Z VRB03KT 10SM CLR 12/07 A2974 RMK AO2 SLP101 T01170072=
200605211453 METAR KPAE 211453Z VRB05KT 10SM CLR 10/07 A2976 RMK AO2 SLP106 T01000072 56011=
200605211353 METAR KPAE 211353Z VRB03KT 10SM CLR 09/07 A2977 RMK AO2 SLP110 T00890072=
200605211253 METAR KPAE 211253Z AUTO 35004KT 10SM CLR 08/07 A2978 RMK AO2 SLP113 T00780067=
200605211153 METAR KPAE 211153Z AUTO 35003KT 10SM CLR 08/07 A2979 RMK AO2 SLP117 70001 T00780067 10100 20078 58020=
200605211053 METAR KPAE 211053Z AUTO VRB03KT 10SM CLR 08/07 A2982 RMK AO2 SLP125 T00830067=
200605210953 METAR KPAE 210953Z AUTO 00000KT 10SM CLR 08/07 A2984 RMK AO2 SLP134 T00830067=
200605210853 METAR KPAE 210853Z AUTO 01005KT 10SM CLR 09/07 A2985 RMK AO2 SLP138 T00890072 58017=
200605210753 METAR KPAE 210753Z AUTO 00000KT 10SM FEW042 09/07 A2987 RMK AO2 SLP145 T00890072 401830089=
200605210653 METAR KPAE 210653Z AUTO 35005KT 10SM CLR 09/07 A2989 RMK AO2 SLP151 T00940072=
200605210553 METAR KPAE 210553Z AUTO 35005KT 10SM CLR 10/07 A2990 RMK AO2 SLP155 T01000072 10161 20100 56007=
200605210453 METAR KPAE 210453Z AUTO 35007KT 320V030 10SM CLR 10/08 A2991 RMK AO2 SLP158 T01000078=
200605210353 METAR KPAE 210353Z AUTO 35007KT 10SM CLR 11/08 A2992 RMK AO2 SLPNO T01060078=
200605210253 METAR KPAE 210253Z 34007KT 10SM CLR 12/08 A2992 RMK AO2 SLP162 T01170083 56008=
200605210153 METAR KPAE 210153Z 34007KT 10SM FEW110 13/09 A2993 RMK AO2 SLP163 T01280089=
200605210053 METAR KPAE 210053Z 34007KT 10SM FEW047 13/09 A2994 RMK AO2 SLP167 T01330089=
200605202353 METAR KPAE 202353Z VRB05KT 10SM BKN042 BKN150 16/09 A2995 RMK AO2 SLP169 T01560094 10183 20128 58000=
200605202253 METAR KPAE 202253Z AUTO 22010KT 10SM BKN040 18/08 A2995 RMK AO2 SLP171 T01780083 TSNO=
200605202153 METAR KPAE 202153Z 24010KT 10SM BKN037 16/08 A2995 RMK AO2 SLP171 T01610083=
200605202053 METAR KPAE 202053Z 18014G18KT 10SM BKN037 16/07 A2995 RMK AO2 SLP170 T01610072 52001=
200605201953 METAR KPAE 201953Z 18011G18KT 10SM BKN033 16/08 A2995 RMK AO2 SLP170 T01610078=
200605201919 SPECI KPAE 201919Z 18015G21KT 10SM BKN031 16/07 A2995 RMK AO2=
200605201919 SPECI KPAE 201919Z 18015G21KT 10SM BKN031 16/07 A2995 RMK AO2=
200605201853 METAR KPAE 201853Z 17015KT 10SM BKN027 BKN031 15/08 A2995 RMK AO2 SLP169 T01500078=
200605201753 METAR KPAE 201753Z 20011KT 10SM BKN020 OVC026 13/08 A2995 RMK AO2 SLP169 60001 T01280078 51018=
200605201653 METAR KPAE 201653Z 20010KT 10SM OVC016 12/09 A2993 RMK AO2 SLP165 T01220089 $=
200605201627 SPECI KPAE 201627Z 19010KT 10SM BKN013 OVC090 12/09 A2992 RMK AO2 $=
200605201627 SPECI KPAE 201627Z 19010KT 10SM BKN013 OVC090 12/09 A2992 RMK AO2 $=
200605201600 SPECI KPAE 201600Z 19009KT 10SM FEW010 OVC085 A2991 RMK AO2 $=
200605201600 SPECI KPAE 201600Z 19009KT 10SM FEW010 OVC085 A2991 RMK AO2 $=
200605201553 METAR KPAE 201553Z 17011KT 10SM BKN010 OVC085 A2991 RMK AO2 RAE29 SLPNO P0000 $=
200605201453 METAR KPAE 201453Z 17007KT 10SM -RA OVC007 12/10 A2989 RMK AO2 RAE14B50 SLP151 P0001 60001 T01170100 51008=
200605201353 METAR KPAE 201353Z 18007KT 10SM -RA OVC007 11/10 A2989 RMK AO2 RAB37 CIG 005V010 SLP149 P0000 T01110100=
200605201253 METAR KPAE 201253Z AUTO 24004KT 4SM BR OVC007 11/11 A2988 RMK AO2 CIG 004V010 SLP145 T01110106=
200605201231 SPECI KPAE 201231Z AUTO 22004KT 5SM BR BKN009 OVC027 11/11 A2987 RMK AO2 CIG 006V012=
200605201231 SPECI KPAE 201231Z AUTO 22004KT 5SM BR BKN009 OVC027 11/11 A2987 RMK AO2 CIG 006V012=
200605201222 SPECI KPAE 201222Z AUTO 23004KT 4SM BR FEW007 BKN012 OVC027 12/11 A2987 RMK AO2=
200605201222 SPECI KPAE 201222Z AUTO 23004KT 4SM BR FEW007 BKN012 OVC027 12/11 A2987 RMK AO2=
200605201153 METAR KPAE 201153Z AUTO 00000KT 6SM BR BKN025 BKN034 OVC060 11/10 A2987 RMK AO2 RAB21E52 SLP143 P0000 60001 70003 T01110100 10156 20106 53004=
200605201120 SPECI KPAE 201120Z AUTO 00000KT 5SM BR FEW002 OVC030 11/11 A2987 RMK AO2=
200605201120 SPECI KPAE 201120Z AUTO 00000KT 5SM BR FEW002 OVC030 11/11 A2987 RMK AO2=
200605201106 SPECI KPAE 201106Z AUTO 00000KT 4SM BR SCT002 OVC028 11/10 A2986 RMK AO2=
200605201106 SPECI KPAE 201106Z AUTO 00000KT 4SM BR SCT002 OVC028 11/10 A2986 RMK AO2=
200605201053 METAR KPAE 201053Z AUTO 34003KT 5SM BR OVC004 11/10 A2986 RMK AO2 CIG 001V005 SLP139 T01110100=
200605201034 SPECI KPAE 201034Z AUTO VRB05KT 5SM BR BKN004 OVC008 11/10 A2986 RMK AO2 CIG 001V006=
200605201034 SPECI KPAE 201034Z AUTO VRB05KT 5SM BR BKN004 OVC008 11/10 A2986 RMK AO2 CIG 001V006=
200605201007 SPECI KPAE 201007Z AUTO 36003KT 6SM BR BKN009 OVC049 11/11 A2985 RMK AO2 CIG 006V011=
200605201007 SPECI KPAE 201007Z AUTO 36003KT 6SM BR BKN009 OVC049 11/11 A2985 RMK AO2 CIG 006V011=
200605200953 METAR KPAE 200953Z AUTO 01003KT 7SM FEW009 OVC049 11/11 A2986 RMK AO2 RAB30E46 SLP140 P0001 T01110106=
200605200853 METAR KPAE 200853Z AUTO 36004KT 6SM BR FEW007 OVC043 11/11 A2986 RMK AO2 SLP139 60000 T01110106 58008=
200605200753 METAR KPAE 200753Z AUTO 36003KT 9SM OVC041 12/11 A2987 RMK AO2 RAB0659E49 SLP143 P0000 T01220111 401830094=
200605200653 METAR KPAE 200653Z AUTO 00000KT 10SM OVC039 14/12 A2988 RMK AO2 RAB00E45 SLP146 P0000 T01440122=
200605200553 METAR KPAE 200553Z AUTO 18006KT 10SM OVC043 16/12 A2988 RMK AO2 RAE0458 SLP147 P0000 60002 T01560117 10178 20156 53004=
200605200453 METAR KPAE 200453Z AUTO 15006KT 10SM -RA BKN043 BKN050 OVC070 16/12 A2988 RMK AO2 SLP145 P0000 T01610117=
200605200353 METAR KPAE 200353Z AUTO 15006KT 10SM -RA BKN075 BKN095 OVC110 16/11 A2987 RMK AO2 RAE05B46 SLP144 P0001 T01610111=
200605200253 METAR KPAE 200253Z 14008KT 10SM -RA BKN045 BKN065 BKN095 17/13 A2987 RMK AO2 RAB0157 SLP143 P0000 60001 T01670128 55002=
200605200153 METAR KPAE 200153Z 12006KT 10SM FEW100 SCT110 17/12 A2986 RMK AO2 SLP141 T01720122=
200605200053 METAR KPAE 200053Z AUTO 14008KT 10SM SCT090 17/12 A2987 RMK AO2 RAE36 SLP145 P0001 T01720122 TSNO=
200605200024 SPECI KPAE 200024Z 11009KT 10SM -RA FEW015 SCT100 17/13 A2987 RMK AO2 P0000=
200605200024 SPECI KPAE 200024Z 11009KT 10SM -RA FEW015 SCT100 17/13 A2987 RMK AO2 P0000=
200605200002 SPECI KPAE 200002Z 15007KT 10SM -RA BKN024 BKN090 18/12 A2987 RMK AO2 P0000=
200605200002 SPECI KPAE 200002Z 15007KT 10SM -RA BKN024 BKN090 18/12 A2987 RMK AO2 P0000=
200605192353 METAR KPAE 192353Z 14008KT 10SM -RA OVC100 18/12 A2988 RMK AO2 RAE2258B45 SLP145 P0000 60000 T01780117 10183 20122 53008=
200605192253 METAR KPAE 192253Z 22003KT 10SM -RA CLR 17/11 A2986 RMK AO2 RAB25 SLP140 P0000 T01670111=
200605192153 METAR KPAE 192153Z 00000KT 10SM BKN100 17/11 A2985 RMK AO2 SLP137 T01720106=
200605192053 METAR KPAE 192053Z VRB04KT 10SM BKN095 17/11 A2985 RMK AO2 RAB29E38 SLP137 P0000 60000 T01670106 58009=
200605191953 METAR KPAE 191953Z 26004KT 10SM OVC095 13/10 A2988 RMK AO2 SLP148 T01330100=
200605191853 METAR KPAE 191853Z 15003KT 10SM BKN100 14/10 A2987 RMK AO2 RAE1754 SLP144 T01440100=
200605191753 METAR KPAE 191753Z VRB04KT 10SM -RA FEW046 SCT065 SCT100 13/10 A2988 RMK AO2 RAB39 SLP147 P0000 60000 T01280100 10128 20094 50006=
200605191653 METAR KPAE 191653Z 00000KT 10SM CLR 13/09 A2989 RMK AO2 PRESRR SLP149 T01280094=
200605191553 METAR KPAE 191553Z 02003KT 10SM CLR OVC150 12/09 A2987 RMK AO2 SLP144 T01220094=
200605191453 METAR KPAE 191453Z VRB03KT 9SM SCT004 11/09 A2986 RMK AO2 SLP140 T01060089 53002=
200605191353 METAR KPAE 191353Z VRB04KT 9SM SCT004 BKN150 10/09 A2986 RMK AO2 SLP141 T01000089=
200605191253 METAR KPAE 191253Z AUTO 01006KT 7SM OVC004 10/09 A2985 RMK AO2 SLP135 T01000089=
200605191219 SPECI KPAE 191219Z AUTO VRB04KT 9SM BKN004 10/09 A2985 RMK AO2=
200605191219 SPECI KPAE 191219Z AUTO VRB04KT 9SM BKN004 10/09 A2985 RMK AO2=
200605191153 METAR KPAE 191153Z AUTO 33004KT 9SM SCT004 10/08 A2985 RMK AO2 SLP137 T01000083 10128 20100 53002=
200605191119 SPECI KPAE 191119Z AUTO VRB03KT 10SM BKN004 10/09 A2985 RMK AO2=
200605191119 SPECI KPAE 191119Z AUTO VRB03KT 10SM BKN004 10/09 A2985 RMK AO2=
200605191053 METAR KPAE 191053Z AUTO 34005KT 10SM SCT004 SCT110 10/08 A2985 RMK AO2 SLP134 T01000083=
200605191037 SPECI KPAE 191037Z AUTO VRB04KT 10SM SCT004 11/09 A2984 RMK AO2=
200605191037 SPECI KPAE 191037Z AUTO VRB04KT 10SM SCT004 11/09 A2984 RMK AO2=
200605190953 METAR KPAE 190953Z AUTO 33006KT 10SM CLR 10/08 A2985 RMK AO2 SLP136 T01000083=
200605190853 METAR KPAE 190853Z AUTO 35005KT 10SM CLR 11/08 A2985 RMK AO2 SLP136 T01060083 58008=
200605190753 METAR KPAE 190753Z AUTO 01007KT 10SM CLR 12/07 A2986 RMK AO2 SLP138 T01170067 402170100=
200605190653 METAR KPAE 190653Z AUTO 01007KT 10SM CLR 12/06 A2987 RMK AO2 SLP142 T01220061=
200605190553 METAR KPAE 190553Z AUTO 01005KT 10SM CLR 12/07 A2987 RMK AO2 SLP144 T01220072 10217 20122 53012=
200605190453 METAR KPAE 190453Z AUTO 36009KT 10SM CLR 12/08 A2986 RMK AO2 SLP138 T01220078=
200605190353 METAR KPAE 190353Z AUTO 36009KT 10SM CLR 13/06 A2984 RMK AO2 SLP133 T01330061=
200605190253 METAR KPAE 190253Z VRB06KT 10SM CLR 16/08 A2984 RMK AO2 SLP131 T01560083 55003=
200605190153 METAR KPAE 190153Z 34006KT 10SM CLR 19/08 A2983 RMK AO2 SLP131 T01890083=
200605190053 METAR KPAE 190053Z 35007KT 10SM CLR 21/09 A2983 RMK AO2 SLP130 T02060094=
200605182353 METAR KPAE 182353Z VRB06KT 10SM CLR 21/09 A2985 RMK AO2 SLP134 T02110089 10217 20161 56024=
200605182253 METAR KPAE 182253Z 35006KT 10SM CLR 21/09 A2987 RMK AO2 SLP141 T02110094=
200605182153 METAR KPAE 182153Z VRB05KT 10SM CLR 21/09 A2989 RMK AO2 SLP150 T02110094=
200605182053 METAR KPAE 182053Z 29006KT 10SM CLR 19/09 A2992 RMK AO2 SLP158 T01940094 58015=
200605181953 METAR KPAE 181953Z 32006KT 10SM CLR 18/08 A2994 RMK AO2 SLP164 T01830083=
200605181853 METAR KPAE 181853Z 29006KT 10SM CLR 17/09 A2995 RMK AO2 SLP169 T01720089=
200605181753 METAR KPAE 181753Z 23005KT 10SM CLR 16/08 A2996 RMK AO2 SLP175 T01610078 10167 20100 58006=
200605181653 METAR KPAE 181653Z 26005KT 10SM FEW250 15/07 A2997 RMK AO2 SLP179 T01500067=
200605181553 METAR KPAE 181553Z 00000KT 10SM FEW250 15/07 A2998 RMK AO2 SLP182 T01500067=
200605181453 METAR KPAE 181453Z VRB03KT 10SM CLR 12/07 A2998 RMK AO2 SLP180 T01220072 56002=
200605181353 METAR KPAE 181353Z 01005KT 10SM CLR 11/07 A2998 RMK AO2 SLP181 T01060072=
200605181253 METAR KPAE 181253Z 01004KT 10SM CLR 10/07 A2998 RMK AO2 SLP182 T01000072=
200605181153 METAR KPAE 181153Z VRB05KT 10SM CLR 11/07 A2999 RMK AO2 SLP182 T01060067 10139 20106 58000=
200605181053 METAR KPAE 181053Z 01003KT 10SM CLR 12/03 A2999 RMK AO2 SLP183 T01220033=
200605180953 METAR KPAE 180953Z VRB04KT 10SM CLR 12/03 A2999 RMK AO2 SLP182 T01220033=
200605180853 METAR KPAE 180853Z 05005KT 10SM CLR 13/03 A2999 RMK AO2 SLP182 T01280028 50003=
200605180753 METAR KPAE 180753Z 01006KT 10SM CLR 13/04 A2999 RMK AO2 SLP184 T01280039 402170117=
200605180653 METAR KPAE 180653Z 01007KT 10SM CLR 13/04 A2999 RMK AO2 SLP182 T01330044=
200605180553 METAR KPAE 180553Z 01007KT 10SM CLR 14/04 A2998 RMK AO2 SLP180 T01390039 10206 20133 53009=
200605180453 METAR KPAE 180453Z 35008KT 10SM CLR 13/04 A2997 RMK AO2 SLP177 T01330044=
200605180353 METAR KPAE 180353Z 36009G14KT 10SM CLR 13/06 A2996 RMK AO2 SLP173 T01330061=
200605180253 METAR KPAE 180253Z 35006KT 10SM CLR 15/07 A2995 RMK AO2 SLP172 T01500072 58009=
200605180153 METAR KPAE 180153Z 33007KT 10SM CLR 17/09 A2996 RMK AO2 SLP174 T01720089=
200605180053 METAR KPAE 180053Z VRB05KT 10SM CLR 19/09 A2997 RMK AO2 SLP178 T01940094=
200605172353 METAR KPAE 172353Z 35006KT 10SM CLR 21/11 A2998 RMK AO2 SLP180 T02060106 10217 20167 56015=
200605172253 METAR KPAE 172253Z AUTO 31005KT 10SM CLR 21/11 A3000 RMK AO2 SLP185 T02110111 TSNO=
200605172153 METAR KPAE 172153Z VRB06KT 10SM CLR 21/11 A3001 RMK AO2 SLP189 T02060106=
200605172053 METAR KPAE 172053Z 36006KT 10SM CLR 19/10 A3003 RMK AO2 SLP195 T01890100 58012=
200605171953 METAR KPAE 171953Z 32007KT 280V350 10SM CLR 18/09 A3004 RMK AO2 SLP201 T01780094=
200605171853 METAR KPAE 171853Z 35007KT 300V030 10SM CLR 18/09 A3005 RMK AO2 SLP204 T01780089=
200605171753 METAR KPAE 171753Z 33006KT 10SM CLR 17/08 A3006 RMK AO2 SLP208 T01670083 10172 20117 58012=
200605171653 METAR KPAE 171653Z 34008KT 10SM CLR 16/08 A3008 RMK AO2 SLP214 T01560083=
200605171553 METAR KPAE 171553Z 35009KT 10SM CLR 13/08 A3009 RMK AO2 SLP218 T01330083=
200605171453 METAR KPAE 171453Z 35007KT 340V040 10SM FEW250 12/08 A3010 RMK AO2 SLP221 T01170083 58005=
200605171353 METAR KPAE 171353Z 36005KT 10SM FEW250 12/07 A3010 RMK AO2 SLP222 T01220072=
200605171253 METAR KPAE 171253Z AUTO VRB04KT 10SM CLR 12/06 A3011 RMK AO2 SLP226 T01170061=
200605171153 METAR KPAE 171153Z AUTO VRB03KT 10SM CLR 12/06 A3012 RMK AO2 SLP226 T01170061 10139 20117 58001=
200605171053 METAR KPAE 171053Z AUTO 02005KT 10SM CLR 13/04 A3012 RMK AO2 SLP227 T01280044=
200605170953 METAR KPAE 170953Z AUTO 03005KT 10SM CLR 13/05 A3012 RMK AO2 SLP228 T01280050=
200605170853 METAR KPAE 170853Z AUTO 02006KT 10SM CLR 13/06 A3012 RMK AO2 SLP226 T01330056 53001=
200605170753 METAR KPAE 170753Z AUTO 03007KT 10SM CLR 13/07 A3012 RMK AO2 SLP225 T01330072 402440133=
200605170653 METAR KPAE 170653Z AUTO VRB04KT 10SM CLR 14/08 A3012 RMK AO2 SLP225 T01390078=
200605170553 METAR KPAE 170553Z AUTO 01007KT 10SM CLR 14/08 A3012 RMK AO2 SLP227 T01390083 10200 20139 53008=
200605170453 METAR KPAE 170453Z AUTO 36007KT 10SM CLR 14/08 A3011 RMK AO2 SLP223 T01440083=
200605170353 METAR KPAE 170353Z AUTO 36007KT 10SM CLR 15/08 A3010 RMK AO2 SLP220 T01500083=
200605170253 METAR KPAE 170253Z 35014G19KT 10SM CLR 15/08 A3010 RMK AO2 SLP219 T01500078 58004=
200605170153 METAR KPAE 170153Z 35010G15KT 10SM CLR 17/08 A3010 RMK AO2 SLP220 T01670078=
200605170053 METAR KPAE 170053Z 36008KT 10SM CLR 17/09 A3011 RMK AO2 SLP222 T01720089=
200605162353 METAR KPAE 162353Z AUTO 35006KT 10SM CLR 20/09 A3011 RMK AO2 SLP222 T02000089 10244 20200 57009 TSNO=
200605162253 METAR KPAE 162253Z AUTO 34011KT 10SM CLR 22/10 A3012 RMK AO2 SLP225 T02170100 TSNO=
200605162153 METAR KPAE 162153Z VRB06KT 10SM CLR 24/08 A3013 RMK AO2 SLP227 T02440083=
200605162053 METAR KPAE 162053Z 35007KT 10SM CLR 24/10 A3013 RMK AO2 SLP230 T02390100 58004=
200605161953 METAR KPAE 161953Z VRB06KT 10SM CLR 23/10 A3015 RMK AO2 SLP235 T02280100=
200605161853 METAR KPAE 161853Z VRB04KT 10SM CLR 23/08 A3015 RMK AO2 SLP235 T02280083=
200605161753 METAR KPAE 161753Z 25006KT 10SM CLR 21/09 A3015 RMK AO2 SLP236 T02060094 10211 20156 53012=
200605161653 METAR KPAE 161653Z 26005KT 10SM CLR 21/10 A3013 RMK AO2 SLP231 T02060100=
200605161553 METAR KPAE 161553Z 16008KT 10SM CLR 19/09 A3012 RMK AO2 SLP226 T01940094=
200605161453 METAR KPAE 161453Z 15008KT 10SM CLR 18/09 A3011 RMK AO2 SLP224 T01830089 53031=
200605161353 METAR KPAE 161353Z 14007KT 10SM CLR 17/09 A3008 RMK AO2 SLP213 T01720089=
200605161253 METAR KPAE 161253Z AUTO 16009KT 10SM CLR 17/08 A3005 RMK AO2 SLP202 T01720083=
200605161153 METAR KPAE 161153Z AUTO 16005KT 10SM CLR 17/08 A3002 RMK AO2 SLP192 T01670083 10189 20150 51012=
200605161053 METAR KPAE 161053Z AUTO 12009KT 10SM CLR 17/08 A3000 RMK AO2 SLP187 T01720078=
200605160953 METAR KPAE 160953Z AUTO 16007KT 10SM CLR 17/07 A3001 RMK AO2 SLP187 T01670072=
200605160853 METAR KPAE 160853Z AUTO 15007KT 10SM CLR 17/07 A2998 RMK AO2 SLP180 T01670072 51017=
200605160753 METAR KPAE 160753Z AUTO 17006KT 10SM CLR 16/07 A2998 RMK AO2 SLP177 T01560067 402220100=
200605160653 METAR KPAE 160653Z AUTO 00000KT 10SM CLR 19/05 A2995 RMK AO2 SLP167 T01890050=
200605160553 METAR KPAE 160553Z AUTO 32003KT 10SM CLR 18/05 A2993 RMK AO2 SLP163 T01780050 10222 20167 53020=
200605160453 METAR KPAE 160453Z AUTO 32004KT 10SM CLR 17/06 A2991 RMK AO2 SLP155 T01670056=
200605160353 METAR KPAE 160353Z 34006KT 10SM CLR 18/06 A2988 RMK AO2 SLP147 T01830056=
200605160253 METAR KPAE 160253Z 33005KT 10SM CLR 19/07 A2987 RMK AO2 SLP143 T01890067 56007=
200605160153 METAR KPAE 160153Z VRB05KT 10SM CLR 19/07 A2988 RMK AO2 SLP144 T01940072=
200605160053 METAR KPAE 160053Z 34007KT 10SM CLR 20/07 A2988 RMK AO2 SLP146 T02000072=
200605152353 METAR KPAE 152353Z 33008KT 10SM CLR 22/08 A2989 RMK AO2 SLP150 T02220083 10222 20172 58023=
200605152253 METAR KPAE 152253Z AUTO 34009KT 10SM CLR 22/08 A2992 RMK AO2 SLP159 T02170083 TSNO=
200605152153 METAR KPAE 152153Z 35008KT 320V030 10SM CLR 22/08 A2994 RMK AO2 SLP167 T02220083=
200605152053 METAR KPAE 152053Z VRB05KT 10SM CLR 21/08 A2996 RMK AO2 SLP174 T02110078 56019=
200605151953 METAR KPAE 151953Z 34008KT 10SM CLR 19/08 A2998 RMK AO2 SLP181 T01940078=
200605151853 METAR KPAE 151853Z 34007KT 310V020 10SM CLR 18/08 A3000 RMK AO2 SLP187 T01830078=
200605151753 METAR KPAE 151753Z 33008KT 10SM CLR 17/08 A3002 RMK AO2 SLP195 T01720078 10172 20106 58016=
200605151653 METAR KPAE 151653Z 34007KT 320V030 10SM CLR 15/07 A3004 RMK AO2 SLP200 T01500072=
200605151553 METAR KPAE 151553Z VRB06KT 10SM CLR 13/06 A3005 RMK AO2 SLP205 T01280056=
200605151453 METAR KPAE 151453Z 34006KT 10SM CLR 12/06 A3007 RMK AO2 SLP211 T01220056 56011=
200605151353 METAR KPAE 151353Z 32005KT 10SM CLR 11/07 A3008 RMK AO2 SLP216 T01110067=
200605151253 METAR KPAE 151253Z AUTO 01004KT 10SM CLR 11/07 A3008 RMK AO2 SLP215 T01110067=
200605151153 METAR KPAE 151153Z AUTO VRB05KT 10SM CLR 11/06 A3010 RMK AO2 SLP222 T01060061 10128 20100 56008=
200605151053 METAR KPAE 151053Z AUTO VRB04KT 10SM CLR 11/06 A3011 RMK AO2 SLP224 T01110056=
200605150953 METAR KPAE 150953Z AUTO 35003KT 10SM CLR 11/04 A3012 RMK AO2 SLP227 T01110044=
200605150853 METAR KPAE 150853Z AUTO 35004KT 10SM CLR 12/04 A3013 RMK AO2 SLP230 T01170044 56012=
200605150753 METAR KPAE 150753Z AUTO 35004KT 10SM CLR 12/04 A3014 RMK AO2 SLP234 T01220039 401830056=
200605150653 METAR KPAE 150653Z AUTO 36003KT 10SM CLR 12/03 A3015 RMK AO2 SLP237 T01220028=
200605150553 METAR KPAE 150553Z AUTO 36003KT 10SM CLR 12/04 A3016 RMK AO2 SLP243 T01170039 10183 20117 51004=
200605150453 METAR KPAE 150453Z AUTO 35004KT 10SM CLR 13/03 A3016 RMK AO2 SLP243 T01330033=
200605150353 METAR KPAE 150353Z VRB04KT 10SM CLR 15/04 A3016 RMK AO2 SLP240 T01500039=
200605150253 METAR KPAE 150253Z 33004KT 10SM CLR 16/05 A3015 RMK AO2 SLP239 T01610050 56007=
200605150153 METAR KPAE 150153Z 32006KT 10SM CLR 18/05 A3015 RMK AO2 SLP240 T01780050=
200605150053 METAR KPAE 150053Z 34008KT 10SM CLR 18/05 A3016 RMK AO2 SLP243 T01780050=
200605142353 METAR KPAE 142353Z 34007KT 300V360 10SM CLR 18/06 A3017 RMK AO2 SLP246 T01830061 10183 20133 56017=
200605142253 METAR KPAE 142253Z AUTO 35008KT 10SM CLR 18/06 A3018 RMK AO2 SLP250 T01780056 TSNO=
200605142153 METAR KPAE 142153Z 31008KT 10SM CLR 17/06 A3020 RMK AO2 SLP258 T01720056=
200605142053 METAR KPAE 142053Z 35007KT 320V020 10SM CLR 16/06 A3022 RMK AO2 SLP263 T01610056 58011=
200605141953 METAR KPAE 141953Z 35006KT 10SM CLR 16/06 A3023 RMK AO2 SLP268 T01560056=
200605141853 METAR KPAE 141853Z 30006KT 10SM CLR 14/05 A3025 RMK AO2 SLP272 T01440050=
200605141753 METAR KPAE 141753Z VRB04KT 10SM CLR 14/04 A3025 RMK AO2 SLP275 T01390044 10139 20056 58000=
200605141653 METAR KPAE 141653Z VRB06KT 10SM CLR 12/05 A3026 RMK AO2 SLP278 T01220050=
200605141553 METAR KPAE 141553Z 35006KT 10SM CLR 11/04 A3027 RMK AO2 SLP280 T01110039=
200605141453 METAR KPAE 141453Z 34006KT 10SM CLR 09/05 A3025 RMK AO2 SLP276 T00890050 52004=
200605141353 METAR KPAE 141353Z 01003KT 10SM CLR 08/04 A3025 RMK AO2 SLP273 T00830044=
200605141253 METAR KPAE 141253Z AUTO 00000KT 10SM CLR 06/03 A3025 RMK AO2 SLP273 T00610028=
200605141153 METAR KPAE 141153Z AUTO 00000KT 10SM CLR 07/03 A3024 RMK AO2 SLP272 T00670033 10094 20061 53004=
200605141053 METAR KPAE 141053Z AUTO 00000KT 10SM CLR 07/04 A3024 RMK AO2 SLP270 T00720039=
200605140953 METAR KPAE 140953Z AUTO VRB03KT 10SM CLR 07/04 A3023 RMK AO2 SLP268 T00720039=
200605140900 METAR KPAE NIL=
200605140853 METAR KPAE 140853Z AUTO 33004KT 10SM CLR 07/03 A3023 RMK AO2 SLP267 T00720033 50002=
200605140753 METAR KPAE 140753Z AUTO 35004KT 10SM CLR 08/04 A3023 RMK AO2 SLP268 T00830039 401560044=
200605140653 METAR KPAE 140653Z AUTO 33004KT 10SM CLR 08/03 A3023 RMK AO2 SLP267 T00830033=
200605140553 METAR KPAE 140553Z AUTO 34005KT 10SM CLR 09/03 A3022 RMK AO2 SLP265 T00940028 10150 20094 50006=
200605140453 METAR KPAE 140453Z VRB03KT 10SM CLR 10/02 A3022 RMK AO2 SLP265 T01000017=
200605140353 METAR KPAE 140353Z 33004KT 10SM CLR 11/01 A3021 RMK AO2 SLP261 T01110011=
200605140253 METAR KPAE 140253Z 33005KT 10SM CLR 13/M01 A3020 RMK AO2 SLP258 T01281011 53004=
200605140153 METAR KPAE 140153Z 33006KT 10SM CLR 14/M02 A3019 RMK AO2 SLP255 T01441017=
200605140053 METAR KPAE 140053Z 33009KT 10SM CLR 14/02 A3019 RMK AO2 SLP255 T01440022=
200605132353 METAR KPAE 132353Z 35008KT 10SM CLR 15/02 A3019 RMK AO2 SLP254 T01500017 10156 20106 58003=
200605132253 METAR KPAE 132253Z 33008KT 290V030 10SM CLR 15/02 A3019 RMK AO2 SLP256 T01500022=
200605132153 METAR KPAE 132153Z 33009KT 10SM CLR 14/03 A3020 RMK AO2 SLP257 T01440028=
200605132053 METAR KPAE 132053Z 33009KT 10SM CLR 13/02 A3020 RMK AO2 SLP257 T01330017 50001=
200605131953 METAR KPAE 131953Z 33007KT 270V010 10SM CLR 13/04 A3020 RMK AO2 SLP259 T01280039=
200605131853 METAR KPAE 131853Z 34008KT 300V010 10SM CLR 12/04 A3020 RMK AO2 SLP258 T01170039=
200605131753 METAR KPAE 131753Z 35007KT 300V020 10SM CLR 11/03 A3020 RMK AO2 SLP257 T01060033 10111 20044 51006=
200605131653 METAR KPAE 131653Z VRB06KT 10SM CLR 10/03 A3019 RMK AO2 SLP256 T01000033=
200605131553 METAR KPAE 131553Z 34006KT 10SM CLR 08/03 A3018 RMK AO2 SLP253 T00830033=
200605131453 METAR KPAE 131453Z 36004KT 10SM CLR 07/02 A3018 RMK AO2 SLP251 T00670022 53003=
200605131353 METAR KPAE 131353Z 01004KT 10SM CLR 06/02 A3017 RMK AO2 SLP247 T00560022=
200605131314 SPECI KPAE 131314Z VRB03KT 10SM SCT004 04/02 A3017 RMK AO2=
200605131314 SPECI KPAE 131314Z VRB03KT 10SM SCT004 04/02 A3017 RMK AO2=
200605131253 METAR KPAE 131253Z 00000KT 10SM CLR 04/02 A3016 RMK AO2 SLP246 T00440022=
200605131153 METAR KPAE 131153Z 36004KT 10SM CLR 06/03 A3017 RMK AO2 SLP247 70015 T00560033 10072 20056 58002=
200605131115 SPECI KPAE 131115Z 34006KT 10SM SCT009 06/04 A3017 RMK AO2=
200605131115 SPECI KPAE 131115Z 34006KT 10SM SCT009 06/04 A3017 RMK AO2=
200605131053 METAR KPAE 131053Z 35004KT 10SM OVC009 07/04 A3017 RMK AO2 SLP249 T00670044=
200605131006 SPECI KPAE 131006Z VRB06KT 10SM BKN011 07/04 A3018 RMK AO2=
200605131006 SPECI KPAE 131006Z VRB06KT 10SM BKN011 07/04 A3018 RMK AO2=
200605130953 METAR KPAE 130953Z 33005KT 10SM FEW011 07/04 A3017 RMK AO2 SLP250 T00670039=
200605130853 METAR KPAE 130853Z VRB06G14KT 10SM CLR 07/03 A3017 RMK AO2 SLP248 T00670028 58011=
200605130753 METAR KPAE 130753Z VRB04KT 10SM CLR 06/03 A3018 RMK AO2 SLP253 T00610028 401170050=
200605130653 METAR KPAE 130653Z VRB03KT 10SM CLR 06/03 A3020 RMK AO2 SLP258 T00610033=
200605130553 METAR KPAE 130553Z 01005KT 10SM CLR 07/03 A3020 RMK AO2 SLP260 T00720033 10111 20072 58005=
200605130453 METAR KPAE 130453Z 34004KT 10SM CLR 08/04 A3022 RMK AO2 SLP265 T00780039=
200605130353 METAR KPAE 130353Z 34004KT 10SM CLR 08/03 A3022 RMK AO2 SLP265 T00780033=
200605130253 METAR KPAE 130253Z 34005KT 10SM CLR 09/02 A3022 RMK AO2 SLP265 T00890022 55002=
200605130153 METAR KPAE 130153Z 33006KT 10SM FEW070 09/02 A3021 RMK AO2 SLP263 T00940022=
200605130053 METAR KPAE 130053Z 34007KT 10SM BKN070 11/02 A3022 RMK AO2 SLP266 T01110017=
200605122353 METAR KPAE 122353Z 33009KT 10SM FEW085 11/03 A3022 RMK AO2 SLP267 P0002 60006 T01060033 10117 20078 50000=
200605122253 METAR KPAE 122253Z 01006KT 10SM BKN080 12/03 A3024 RMK AO2 SLP271 P0001 T01170033=
200605122153 METAR KPAE 122153Z VRB05KT 10SM BKN037 BKN050 OVC075 11/01 A3023 RMK AO2 SLP267 P0001 T01110006=
200605122053 METAR KPAE 122053Z VRB03KT 10SM SCT035 11/02 A3022 RMK AO2 SLP266 P0001 60002 T01110022 50001=
200605121953 METAR KPAE 121953Z VRB04KT 10SM BKN040 09/02 A3023 RMK AO2 SLP269 P0001 T00940022=
200605121853 METAR KPAE 121853Z VRB03KT 10SM OVC033 09/02 A3023 RMK AO2 SLP269 T00890022=
200605121753 METAR KPAE 121753Z 02004KT 10SM OVC031 08/02 A3022 RMK AO2 SLP266 60009 T00780022 10078 20050 51008=
200605121750 SPECI KPAE 121750Z VRB03KT 10SM OVC031 08/02 A3022 RMK AO2=
200605121750 SPECI KPAE 121750Z VRB03KT 10SM OVC031 08/02 A3022 RMK AO2=
200605121653 METAR KPAE 121653Z 33003KT 10SM OVC025 06/03 A3021 RMK AO2 RAE02 SLP262 P0001 T00610028=
200605121553 METAR KPAE 121553Z VRB03KT 10SM -RA OVC025 06/03 A3020 RMK AO2 RAE06B46 SLP259 P0002 T00610033=
200605121530 SPECI KPAE 121530Z 00000KT 10SM BKN025 OVC038 06/03 A3019 RMK AO2 RAE06 P0001=
200605121530 SPECI KPAE 121530Z 00000KT 10SM BKN025 OVC038 06/03 A3019 RMK AO2 RAE06 P0001=
200605121453 METAR KPAE 121453Z 00000KT 10SM -RA FEW025 OVC032 06/03 A3018 RMK AO2 SLP253 P0002 60006 T00610028 53003=
200605121451 SPECI KPAE 121451Z 00000KT 10SM -RA FEW025 OVC032 06/03 A3018 RMK AO2 P0002=
200605121451 SPECI KPAE 121451Z 00000KT 10SM -RA FEW025 OVC032 06/03 A3018 RMK AO2 P0002=
200605121353 METAR KPAE 121353Z 11005KT 4SM -RA BR OVC016 05/03 A3017 RMK AO2 RAE01B17 SLP251 P0002 T00500033=
200605121351 SPECI KPAE 121351Z 12003KT 3SM RA BR OVC016 05/04 A3017 RMK AO2 RAE01B17 P0002=
200605121351 SPECI KPAE 121351Z 12003KT 3SM RA BR OVC016 05/04 A3017 RMK AO2 RAE01B17 P0002=
200605121340 SPECI KPAE 121340Z AUTO 14006KT 2SM -RA BR FEW010 OVC016 06/04 A3017 RMK AO2 RAE01B17 P0001=
200605121340 SPECI KPAE 121340Z AUTO 14006KT 2SM -RA BR FEW010 OVC016 06/04 A3017 RMK AO2 RAE01B17 P0001=
200605121253 METAR KPAE 121253Z AUTO 11007KT 9SM -RA SCT016 BKN022 OVC030 06/04 A3017 RMK AO2 RAB00E20B38 SLP248 P0002 T00610044=
200605121153 METAR KPAE 121153Z AUTO VRB03KT 10SM FEW029 BKN037 OVC045 06/04 A3015 RMK AO2 RAE45 SLP243 P0002 60003 70005 T00610044 10083 20061 53003=
200605121053 METAR KPAE 121053Z AUTO 34006KT 5SM -RA BR BKN039 OVC049 06/04 A3015 RMK AO2 RAB03 SLP241 P0001 T00610044=
200605121039 SPECI KPAE 121039Z AUTO 36007KT 6SM -RA BR FEW019 SCT024 OVC039 07/04 A3014 RMK AO2 RAB03 P0001=
200605121039 SPECI KPAE 121039Z AUTO 36007KT 6SM -RA BR FEW019 SCT024 OVC039 07/04 A3014 RMK AO2 RAB03 P0001=
200605120953 METAR KPAE 120953Z AUTO 35006KT 10SM BKN021 OVC029 08/03 A3015 RMK AO2 SLP239 T00780028=
200605120949 SPECI KPAE 120949Z AUTO VRB05KT 10SM BKN021 OVC031 08/03 A3015 RMK AO2=
200605120949 SPECI KPAE 120949Z AUTO VRB05KT 10SM BKN021 OVC031 08/03 A3015 RMK AO2=
200605120924 SPECI KPAE 120924Z AUTO 36005KT 10SM BKN031 OVC035 08/03 A3014 RMK AO2=
200605120924 SPECI KPAE 120924Z AUTO 36005KT 10SM BKN031 OVC035 08/03 A3014 RMK AO2=
200605120853 METAR KPAE 120853Z AUTO VRB05KT 10SM FEW021 BKN027 OVC032 08/03 A3014 RMK AO2 SLP237 T00780028 53001=
200605120811 SPECI KPAE 120811Z AUTO VRB04KT 10SM BKN024 OVC032 08/03 A3014 RMK AO2=
200605120811 SPECI KPAE 120811Z AUTO VRB04KT 10SM BKN024 OVC032 08/03 A3014 RMK AO2=
200605120753 METAR KPAE 120753Z AUTO 01005KT 10SM OVC032 08/03 A3013 RMK AO2 SLP235 T00830028 401220078=
200605120653 METAR KPAE 120653Z AUTO 36007KT 300V040 10SM FEW019 OVC032 08/04 A3013 RMK AO2 SLP234 T00830039=
200605120553 METAR KPAE 120553Z AUTO 35006KT 10SM OVC032 08/03 A3014 RMK AO2 SLP235 60001 T00830033 10100 20083 51010=
200605120453 METAR KPAE 120453Z AUTO VRB03KT 10SM BKN032 OVC041 08/04 A3013 RMK AO2 SLP232 T00830039=
200605120353 METAR KPAE 120353Z AUTO 34006KT 10SM OVC033 08/05 A3012 RMK AO2 SLP230 T00830050=
200605120253 METAR KPAE 120253Z 33004KT 10SM BKN035 OVC060 09/06 A3010 RMK AO2 SLP225 60001 T00890056 55000=
200605120153 METAR KPAE 120153Z VRB04KT 10SM SCT031 BKN038 BKN055 09/06 A3010 RMK AO2 SLP223 T00940061=
200605120053 METAR KPAE 120053Z 35009KT 10SM FEW022 BKN038 OVC049 09/07 A3009 RMK AO2 RAE2358B25E39 SLP221 P0001 T00940072=
200605112353 METAR KPAE 112353Z 35008KT 6SM -RA BR BKN028 OVC037 09/08 A3010 RMK AO2 RAB11 SLP225 P0000 60001 T00940078 10122 20094 56004=
200605112346 SPECI KPAE 112346Z 33006KT 4SM -RA BR BKN030 OVC037 09/08 A3011 RMK AO2 RAB11 P0000=
200605112346 SPECI KPAE 112346Z 33006KT 4SM -RA BR BKN030 OVC037 09/08 A3011 RMK AO2 RAB11 P0000=
200605112253 METAR KPAE 112253Z 33008KT 10SM OVC029 11/06 A3011 RMK AO2 SLP226 T01060061=
200605112242 SPECI KPAE 112242Z 34007KT 310V020 10SM OVC029 11/06 A3011 RMK AO2=
200605112242 SPECI KPAE 112242Z 34007KT 310V020 10SM OVC029 11/06 A3011 RMK AO2=
200605112153 METAR KPAE 112153Z 29005KT 10SM BKN035 OVC045 12/07 A3011 RMK AO2 SLP228 T01170067=
200605112129 SPECI KPAE 112129Z 26007KT 10SM SCT018 BKN037 BKN100 12/07 A3012 RMK AO2=
200605112129 SPECI KPAE 112129Z 26007KT 10SM SCT018 BKN037 BKN100 12/07 A3012 RMK AO2=
200605112053 METAR KPAE 112053Z VRB03KT 10SM BKN018 OVC025 11/07 A3012 RMK AO2 SLP229 60001 T01110072 53000=
200605112013 SPECI KPAE 112013Z 34005KT 10SM SCT012 BKN023 OVC031 11/08 A3011 RMK AO2=
200605112013 SPECI KPAE 112013Z 34005KT 10SM SCT012 BKN023 OVC031 11/08 A3011 RMK AO2=
200605111958 SPECI KPAE 111958Z VRB03KT 10SM BKN014 BKN020 OVC025 12/08 A3011 RMK AO2=
200605111958 SPECI KPAE 111958Z VRB03KT 10SM BKN014 BKN020 OVC025 12/08 A3011 RMK AO2=
200605111953 METAR KPAE 111953Z 00000KT 10SM SCT013 SCT019 OVC032 11/08 A3011 RMK AO2 RAE09 SLP226 P0000 T01110083=
200605111916 SPECI KPAE 111916Z 00000KT 10SM SCT013 SCT019 OVC032 11/08 A3012 RMK AO2 RAE09 P0000=
200605111916 SPECI KPAE 111916Z 00000KT 10SM SCT013 SCT019 OVC032 11/08 A3012 RMK AO2 RAE09 P0000=
200605111910 SPECI KPAE 111910Z 00000KT 10SM BKN013 BKN019 OVC032 11/08 A3012 RMK AO2 RAE09 P0000=
200605111910 SPECI KPAE 111910Z 00000KT 10SM BKN013 BKN019 OVC032 11/08 A3012 RMK AO2 RAE09 P0000=
200605111853 METAR KPAE 111853Z 09005KT 8SM -RA FEW013 BKN036 OVC045 11/08 A3011 RMK AO2 SLP226 P0001 T01060078=
200605111753 METAR KPAE 111753Z 36004KT 10SM -RA BKN060 10/07 A3012 RMK AO2 RAB25 SLP229 P0000 60000 T01000067 10106 20089 51015=
200605111653 METAR KPAE 111653Z VRB04KT 10SM FEW085 10/06 A3011 RMK AO2 SLP226 T01000061=
200605111553 METAR KPAE 111553Z VRB05KT 10SM FEW065 BKN080 09/06 A3009 RMK AO2 SLP219 T00940056=
200605111453 METAR KPAE 111453Z VRB04KT 10SM FEW100 09/06 A3007 RMK AO2 SLP213 T00940061 53004=
200605111353 METAR KPAE 111353Z 34003KT 10SM FEW110 09/06 A3006 RMK AO2 SLP209 T00890056=
200605111253 METAR KPAE 111253Z AUTO VRB04KT 10SM OVC100 09/03 A3004 RMK AO2 SLP204 T00940028=
200605111153 METAR KPAE 111153Z AUTO 35004KT 10SM OVC120 09/02 A3006 RMK AO2 SLP208 T00940022 10094 20089 56008=
200605111053 METAR KPAE 111053Z AUTO 36004KT 10SM BKN110 09/02 A3007 RMK AO2 SLP211 T00940022=
200605110953 METAR KPAE 110953Z AUTO VRB05KT 10SM BKN120 09/02 A3007 RMK AO2 SLP213 T00940022=
200605110853 METAR KPAE 110853Z AUTO VRB05KT 10SM CLR 09/03 A3008 RMK AO2 SLP217 T00890028 58006=
200605110753 METAR KPAE 110753Z AUTO 35005KT 10SM CLR 09/03 A3010 RMK AO2 SLP223 T00890033 401560061=
200605110653 METAR KPAE 110653Z AUTO 35005KT 10SM CLR 09/04 A3010 RMK AO2 SLP222 T00940044=
200605110553 METAR KPAE 110553Z AUTO 34004KT 10SM CLR 09/04 A3010 RMK AO2 SLP223 T00940039 10150 20094 56004=
200605110453 METAR KPAE 110453Z AUTO 33003KT 10SM CLR 11/02 A3011 RMK AO2 SLP226 T01060022=
200605110353 METAR KPAE 110353Z AUTO 34005KT 10SM CLR 12/04 A3011 RMK AO2 SLP226 T01170039=
200605110253 METAR KPAE 110253Z AUTO 33005KT 10SM CLR 13/04 A3011 RMK AO2 SLP228 T01330044 56016 TSNO=
200605110153 METAR KPAE 110153Z AUTO VRB06KT 10SM CLR 14/04 A3012 RMK AO2 SLP232 T01440044 TSNO=
200605110053 METAR KPAE 110053Z AUTO 32006KT 10SM CLR 14/06 A3014 RMK AO2 SLP237 T01440056 TSNO=
200605102353 METAR KPAE 102353Z AUTO 33007KT 10SM CLR 15/06 A3016 RMK AO2 SLP244 T01500061 10156 20133 58018 TSNO=
200605102253 METAR KPAE 102253Z AUTO VRB06KT 10SM CLR 14/06 A3018 RMK AO2 SLP249 T01440056 TSNO=
200605102153 METAR KPAE 102153Z 33008KT 10SM CLR 15/05 A3020 RMK AO2 SLP258 T01500050=
200605102053 METAR KPAE 102053Z VRB04KT 10SM OVC250 16/06 A3022 RMK AO2 SLP262 T01560056=
200605101953 METAR KPAE 101953Z VRB06KT 10SM CLR 14/05 A3024 RMK AO2 SLP270 T01440050=
200605101853 METAR KPAE 101853Z VRB06KT 10SM CLR 14/05 A3025 RMK AO2 SLP274 T01390050=
200605101753 METAR KPAE 101753Z VRB04KT 10SM CLR 14/04 RMK AO2 SLPNO T01390039 10139 20061 $=
200605101653 METAR KPAE 101653Z 33004KT 10SM CLR 12/04 A3028 RMK AO2 SLP315 T01170044 $=
200605101553 METAR KPAE 101553Z 34004KT 10SM CLR 09/06 A3029 RMK AO2 SLP318 T00940056 $=
200605101453 METAR KPAE 101453Z 34006KT 10SM CLR 09/06 A3028 RMK AO2 SLP315 T00890056 $=
200605101353 METAR KPAE 101353Z 00000KT 10SM SCT250 08/06 A3028 RMK AO2 SLP315 T00780056 $=
200605101253 METAR KPAE 101253Z AUTO 36003KT 10SM CLR 07/05 RMK AO2 SLPNO T00670050 $=
200605101153 METAR KPAE 101153Z AUTO VRB03KT 10SM CLR 06/05 RMK AO2 SLPNO T00610050 10083 20061 $=
200605101053 METAR KPAE 101053Z AUTO 33004KT 10SM CLR 06/05 RMK AO2 SLPNO T00610050 $=
200605100953 METAR KPAE 100953Z AUTO 34003KT 10SM CLR 06/04 RMK AO2 SLPNO T00610044 $=
200605100853 METAR KPAE 100853Z AUTO VRB03KT 10SM CLR 08/04 RMK AO2 SLPNO T00780039 $=
200605100753 METAR KPAE 100753Z AUTO 05005KT 10SM CLR 08/05 RMK AO2 SLPNO T00780050 401440039 $=
200605100653 METAR KPAE 100653Z AUTO 34004KT 10SM CLR 08/06 RMK AO2 SLPNO T00780056 $=
200605100553 METAR KPAE 100553Z AUTO 36004KT 10SM CLR 08/06 RMK AO2 SLPNO T00830056 10144 20083 $=
200605100453 METAR KPAE 100453Z AUTO 35006KT 10SM CLR 09/03 RMK AO2 SLPNO T00890033 $=
200605100353 METAR KPAE 100353Z VRB04KT 10SM CLR 10/03 RMK AO2 SLPNO T01000033 $=
200605100253 METAR KPAE 100253Z VRB05KT 10SM CLR 12/02 A3030 RMK AO2 SLP291 T01220022 55003=
200605100153 METAR KPAE 100153Z 33007KT 300V010 10SM CLR 13/02 A3029 RMK AO2 SLP290 T01330022=
200605100053 METAR KPAE 100053Z 34007KT 10SM CLR 14/02 A3030 RMK AO2 SLP293 T01390022=
200605092353 METAR KPAE 092353Z 35007KT 10SM CLR 14/01 A3031 RMK AO2 SLP294 T01390006 10144 20100 56013=
200605092253 METAR KPAE 092253Z AUTO 32007KT 10SM CLR 14/01 A3032 RMK AO2 SLP299 T01390006 TSNO=
200605092153 METAR KPAE 092153Z VRB05KT 10SM CLR 13/03 A3033 RMK AO2 SLP302 T01330028=
200605092053 METAR KPAE 092053Z 33008KT 10SM CLR 13/00 A3035 RMK AO2 SLP307 T01280000 58010=
200605091953 METAR KPAE 091953Z VRB04KT 10SM CLR 12/02 A3035 RMK AO2 SLP309 T01220022=
200605091853 METAR KPAE 091853Z 27007KT 260V330 10SM FEW045 11/05 A3038 RMK AO2 SLP319 T01110050=
200605091753 METAR KPAE 091753Z 01005KT 10SM CLR 10/04 A3037 RMK AO2 SLP318 T01000044 10100 20039 56002=
200605091653 METAR KPAE 091653Z VRB05KT 10SM CLR 09/04 A3037 RMK AO2 SLP318 T00890039=
200605091607 SPECI KPAE 091607Z 33005KT 10SM SCT014 08/03 A3037 RMK AO2=
200605091607 SPECI KPAE 091607Z 33005KT 10SM SCT014 08/03 A3037 RMK AO2=
200605091553 METAR KPAE 091553Z VRB06KT 10SM BKN014 08/03 A3037 RMK AO2 SLP317 T00780033=
200605091500 SPECI KPAE 091500Z 01004KT 10SM OVC014 06/03 A3038 RMK AO2=
200605091500 SPECI KPAE 091500Z 01004KT 10SM OVC014 06/03 A3038 RMK AO2=
200605091453 METAR KPAE 091453Z VRB03KT 10SM OVC016 06/02 A3038 RMK AO2 SLP320 T00610022 53011=
200605091428 SPECI KPAE 091428Z 36004KT 10SM BKN016 06/02 A3038 RMK AO2=
200605091428 SPECI KPAE 091428Z 36004KT 10SM BKN016 06/02 A3038 RMK AO2=
200605091353 METAR KPAE 091353Z 11003KT 10SM CLR 04/02 A3036 RMK AO2 SLP315 T00440017=
200605091253 METAR KPAE 091253Z AUTO 10004KT 10SM CLR 04/02 A3035 RMK AO2 SLP311 T00390017=
200605091153 METAR KPAE 091153Z AUTO 02003KT 10SM CLR 04/02 A3035 RMK AO2 SLP309 T00440017 10067 20039 58002=
200605091053 METAR KPAE 091053Z AUTO 35003KT 10SM CLR 04/02 A3036 RMK AO2 SLP313 T00440022=
200605090953 METAR KPAE 090953Z AUTO 00000KT 10SM CLR 06/02 A3036 RMK AO2 SLP314 T00560022=
200605090853 METAR KPAE 090853Z AUTO 00000KT 10SM CLR 06/03 A3035 RMK AO2 SLP311 T00610028 51003=
200605090753 METAR KPAE 090753Z AUTO 01005KT 10SM CLR 07/02 A3035 RMK AO2 SLP311 T00670022 401220039=
200605090653 METAR KPAE 090653Z AUTO VRB05KT 10SM CLR 06/02 A3035 RMK AO2 SLP309 T00610022=
200605090553 METAR KPAE 090553Z AUTO 30006KT 10SM CLR 07/03 A3034 RMK AO2 SLP308 T00670028 10117 20061 53010=
200605090453 METAR KPAE 090453Z AUTO 31006KT 10SM CLR 07/02 A3033 RMK AO2 SLP305 T00720022=
200605090353 METAR KPAE 090353Z AUTO 29009KT 10SM CLR 08/01 A3032 RMK AO2 SLP301 T00780011=
200605090253 METAR KPAE 090253Z 31007KT 10SM CLR 09/00 A3031 RMK AO2 SLP297 T00940000 53002=
200605090153 METAR KPAE 090153Z 32005KT 10SM CLR 11/00 A3031 RMK AO2 SLP294 T01110000=
200605090053 METAR KPAE 090053Z 35008KT 10SM CLR 11/M01 A3030 RMK AO2 SLP294 T01111006=
200605082353 METAR KPAE 082353Z 33008KT 280V350 10SM FEW080 11/M01 A3031 RMK AO2 SLP295 T01111006 10122 20078 53004=
200605082253 METAR KPAE 082253Z AUTO 36007KT 320V040 10SM FEW050 12/00 A3030 RMK AO2 SLP293 T01170000 TSNO=
200605082153 METAR KPAE 082153Z VRB06KT 10SM SCT047 12/01 A3029 RMK AO2 SLP291 T01170006=
200605082053 METAR KPAE 082053Z VRB06KT 10SM FEW047 11/02 A3029 RMK AO2 SLP291 T01110017 51006=
200605081953 METAR KPAE 081953Z 31009KT 10SM SCT026 BKN032 BKN050 10/00 A3029 RMK AO2 SLP289 T01000000=
200605081853 METAR KPAE 081853Z 26007KT 10SM FEW024 SCT030 BKN039 09/03 A3029 RMK AO2 SLP288 T00890028=
200605081753 METAR KPAE 081753Z 26004KT 10SM FEW031 SCT049 BKN060 08/03 A3028 RMK AO2 RAE1656 SLP285 P0000 60000 T00830028 10089 20050 51008=
200605081653 METAR KPAE 081653Z 23007KT 10SM -RA FEW048 BKN060 BKN075 07/03 A3027 RMK AO2 RAB33 SLP282 P0000 T00720033=
200605081553 METAR KPAE 081553Z 25007KT 10SM SCT046 SCT055 07/03 A3027 RMK AO2 SLP283 T00670033=
200605081511 SPECI KPAE 081511Z 26005KT 10SM FEW011 BKN037 OVC050 07/04 A3026 RMK AO2=
200605081511 SPECI KPAE 081511Z 26005KT 10SM FEW011 BKN037 OVC050 07/04 A3026 RMK AO2=
200605081501 SPECI KPAE 081501Z 25007KT 10SM FEW009 BKN029 OVC041 07/04 A3026 RMK AO2=
200605081501 SPECI KPAE 081501Z 25007KT 10SM FEW009 BKN029 OVC041 07/04 A3026 RMK AO2=
200605081453 METAR KPAE 081453Z 27006KT 10SM FEW015 BKN032 OVC041 07/04 A3025 RMK AO2 SLP278 T00670044 53018=
200605081353 METAR KPAE 081353Z 00000KT 10SM FEW015 SCT095 05/01 A3023 RMK AO2 SLP271 T00500011=
200605081253 METAR KPAE 081253Z AUTO 31005KT 10SM CLR 05/01 A3021 RMK AO2 SLP264 T00500006=
200605081153 METAR KPAE 081153Z AUTO 00000KT 10SM CLR 04/01 A3020 RMK AO2 SLP259 60006 70037 T00390011 10072 20039 53018=
200605081053 METAR KPAE 081053Z AUTO 33007KT 280V350 10SM FEW085 06/01 A3017 RMK AO2 SLP251 T00560011=
200605080953 METAR KPAE 080953Z AUTO 00000KT 10SM OVC085 06/01 A3016 RMK AO2 SLP245 P0001 T00610011=
200605080853 METAR KPAE 080853Z AUTO 00000KT 10SM BKN050 OVC080 07/03 A3014 RMK AO2 SLP238 P0001 60005 T00670028 51011=
200605080753 METAR KPAE 080753Z AUTO VRB03KT 10SM BKN030 OVC035 06/04 A3014 RMK AO2 RAE51 SLP238 P0002 T00610039 401170061=
200605080728 SPECI KPAE 080728Z AUTO VRB03KT 5SM -RA FEW019 OVC032 07/04 A3014 RMK AO2 P0001=
200605080728 SPECI KPAE 080728Z AUTO VRB03KT 5SM -RA FEW019 OVC032 07/04 A3014 RMK AO2 P0001=
200605080653 METAR KPAE 080653Z AUTO 36003KT 8SM -RA BKN023 OVC029 07/04 A3012 RMK AO2 SLP233 P0002 T00670044=
200605080553 METAR KPAE 080553Z AUTO 07004KT 8SM -RA FEW014 BKN021 OVC029 07/05 A3011 RMK AO2 RAB12 SLP227 P0002 60014 T00720050 10089 20072 51019=
200605080453 METAR KPAE 080453Z AUTO VRB03KT 10SM OVC016 07/05 A3010 RMK AO2 RAE25 SLP223 P0004 T00720050=
200605080353 METAR KPAE 080353Z VRB05KT 9SM -RA BKN015 OVC026 07/06 A3007 RMK AO2 SLP215 P0002 T00720056=
200605080332 SPECI KPAE 080332Z AUTO VRB03KT 10SM -RA FEW015 BKN026 OVC033 07/06 A3007 RMK AO2 P0001=
200605080332 SPECI KPAE 080332Z AUTO VRB03KT 10SM -RA FEW015 BKN026 OVC033 07/06 A3007 RMK AO2 P0001=
200605080310 SPECI KPAE 080310Z 00000KT 4SM -RA BR FEW013 SCT026 OVC033 07/06 A3006 RMK AO2 P0000=
200605080310 SPECI KPAE 080310Z 00000KT 4SM -RA BR FEW013 SCT026 OVC033 07/06 A3006 RMK AO2 P0000=
200605080253 METAR KPAE 080253Z VRB04KT 8SM -RA SCT013 OVC024 07/06 A3005 RMK AO2 SLP209 P0001 60006 T00720061 51013=
200605080244 SPECI KPAE 080244Z 32004KT 8SM -RA FEW008 SCT013 OVC024 07/06 A3006 RMK AO2 P0001=
200605080244 SPECI KPAE 080244Z 32004KT 8SM -RA FEW008 SCT013 OVC024 07/06 A3006 RMK AO2 P0001=
200605080216 SPECI KPAE 080216Z 34005KT 8SM -RA BKN011 BKN020 OVC026 08/06 A3005 RMK AO2 P0000=
200605080216 SPECI KPAE 080216Z 34005KT 8SM -RA BKN011 BKN020 OVC026 08/06 A3005 RMK AO2 P0000=
200605080153 METAR KPAE 080153Z 35007KT 6SM -RA BR BKN017 OVC026 08/06 A3004 RMK AO2 RAB23 SLP205 P0001 T00780061=
200605080053 METAR KPAE 080053Z 01006KT 10SM BKN028 OVC038 09/06 A3003 RMK AO2 SLP202 P0004 T00890061=
200605080033 SPECI KPAE 080033Z 01007KT 10SM FEW020 OVC028 09/07 A3003 RMK AO2 P0003=
200605080033 SPECI KPAE 080033Z 01007KT 10SM FEW020 OVC028 09/07 A3003 RMK AO2 P0003=
200605072353 METAR KPAE 072353Z 04005KT 10SM BKN032 OVC042 09/07 A3002 RMK AO2 RAE31 SLP196 P0004 60017 T00890067 10117 20083 51020=
200605072304 SPECI KPAE 072304Z VRB04KT 5SM -RA BR FEW015 BKN030 OVC034 08/07 A3001 RMK AO2 P0001=
200605072304 SPECI KPAE 072304Z VRB04KT 5SM -RA BR FEW015 BKN030 OVC034 08/07 A3001 RMK AO2 P0001=
200605072253 METAR KPAE 072253Z 00000KT 2 1/2SM -RA BR BKN030 OVC035 08/07 A3000 RMK AO2 SLP192 P0006 T00830072=
200605072153 METAR KPAE 072153Z VRB05KT 7SM -RA FEW006 OVC030 08/07 A2999 RMK AO2 RAB05 SLP187 P0007 T00830072=
200605072140 SPECI KPAE 072140Z 33005KT 4SM -RA BR SCT006 SCT013 OVC030 08/07 A2998 RMK AO2 RAB05 P0005=
200605072140 SPECI KPAE 072140Z 33005KT 4SM -RA BR SCT006 SCT013 OVC030 08/07 A2998 RMK AO2 RAB05 P0005=
200605072136 SPECI KPAE 072136Z 33007KT 4SM -RA BR SCT006 BKN013 OVC030 08/07 A2998 RMK AO2 RAB05 P0005=
200605072136 SPECI KPAE 072136Z 33007KT 4SM -RA BR SCT006 BKN013 OVC030 08/07 A2998 RMK AO2 RAB05 P0005=
200605072127 SPECI KPAE 072127Z 31007KT 2SM RA BR SCT006 BKN010 OVC015 08/07 A2998 RMK AO2 RAB05 CIG 007V011 P0003=
200605072127 SPECI KPAE 072127Z 31007KT 2SM RA BR SCT006 BKN010 OVC015 08/07 A2998 RMK AO2 RAB05 CIG 007V011 P0003=
200605072121 SPECI KPAE 072121Z 32007KT 1 1/4SM +RA BR SCT006 OVC015 08/07 A2996 RMK AO2 RAB05 P0002=
200605072121 SPECI KPAE 072121Z 32007KT 1 1/4SM +RA BR SCT006 OVC015 08/07 A2996 RMK AO2 RAB05 P0002=
200605072112 SPECI KPAE 072112Z 33010KT 2 1/2SM +RA BR FEW006 OVC015 10/08 A2997 RMK AO2 RAB05 P0001=
200605072112 SPECI KPAE 072112Z 33010KT 2 1/2SM +RA BR FEW006 OVC015 10/08 A2997 RMK AO2 RAB05 P0001=
200605072053 METAR KPAE 072053Z 20013KT 10SM BKN015 OVC019 12/08 A2996 RMK AO2 SLP175 T01170078 51011=
200605072043 SPECI KPAE 072043Z 19012KT 10SM OVC015 12/08 A2996 RMK AO2=
200605072043 SPECI KPAE 072043Z 19012KT 10SM OVC015 12/08 A2996 RMK AO2=
200605072029 SPECI KPAE 072029Z 20013G21KT 10SM OVC013 11/08 A2996 RMK AO2=
200605072029 SPECI KPAE 072029Z 20013G21KT 10SM OVC013 11/08 A2996 RMK AO2=
200605071953 METAR KPAE 071953Z 19019G24KT 10SM OVC015 12/07 A2995 RMK AO2 PK WND 19026/1931 SLP173 T01170072=
200605071853 METAR KPAE 071853Z 17016KT 10SM OVC017 11/07 A2994 RMK AO2 PK WND 18026/1756 SLP168 T01110072=
200605071753 METAR KPAE 071753Z 17022G27KT 10SM BKN015 BKN070 OVC085 11/07 A2992 RMK AO2 PK WND 18029/1718 SLP164 T01110067 10111 20072 55000=
200605071710 SPECI KPAE 071710Z 17019G26KT 10SM BKN015 BKN070 OVC085 10/06 A2991 RMK AO2 PK WND 18026/1709=
200605071710 SPECI KPAE 071710Z 17019G26KT 10SM BKN015 BKN070 OVC085 10/06 A2991 RMK AO2 PK WND 18026/1709=
200605071653 METAR KPAE 071653Z 17020G27KT 10SM FEW015 SCT070 OVC085 10/06 A2990 RMK AO2 PK WND 17029/1559 SLP156 T01000061=
200605071553 METAR KPAE 071553Z 17022G26KT 10SM BKN090 09/06 A2990 RMK AO2 PK WND 16026/1553 SLP156 T00940056=
200605071531 SPECI KPAE 071531Z 17018G25KT 10SM SCT015 OVC085 09/06 A2992 RMK AO2=
200605071531 SPECI KPAE 071531Z 17018G25KT 10SM SCT015 OVC085 09/06 A2992 RMK AO2=
200605071453 METAR KPAE 071453Z 16014G20KT 10SM OVC015 08/05 A2992 RMK AO2 SLP163 T00830050 56019=
200605071353 METAR KPAE 071353Z AUTO 15012G19KT 10SM OVC015 08/05 A2994 RMK AO2 SLP170 T00780050=
200605071325 SPECI KPAE 071325Z AUTO 15016G21KT 10SM OVC015 08/05 A2995 RMK AO2=
200605071325 SPECI KPAE 071325Z AUTO 15016G21KT 10SM OVC015 08/05 A2995 RMK AO2=
200605071253 METAR KPAE 071253Z AUTO 14012KT 10SM OVC013 08/06 A2996 RMK AO2 SLP176 T00780056=
200605071153 METAR KPAE 071153Z AUTO 15009KT 10SM BKN013 OVC021 08/06 A2998 RMK AO2 SLP184 60007 70008 T00780056 10094 20072 58004=
200605071111 SPECI KPAE 071111Z AUTO 16013G18KT 10SM SCT013 OVC020 08/06 A2999 RMK AO2=
200605071111 SPECI KPAE 071111Z AUTO 16013G18KT 10SM SCT013 OVC020 08/06 A2999 RMK AO2=
200605071053 METAR KPAE 071053Z AUTO 17014KT 10SM BKN010 OVC016 08/06 A3000 RMK AO2 RAB07E19 SLP189 P0000 T00780056=
200605071051 SPECI KPAE 071051Z AUTO 17014KT 10SM BKN010 OVC016 08/06 A2999 RMK AO2 RAB07E19 P0000=
200605071051 SPECI KPAE 071051Z AUTO 17014KT 10SM BKN010 OVC016 08/06 A2999 RMK AO2 RAB07E19 P0000=
200605071042 SPECI KPAE 071042Z AUTO 17013KT 10SM SCT010 BKN016 OVC075 07/06 A2999 RMK AO2 RAB07E19 P0000=
200605071042 SPECI KPAE 071042Z AUTO 17013KT 10SM SCT010 BKN016 OVC075 07/06 A2999 RMK AO2 RAB07E19 P0000=
200605071035 SPECI KPAE 071035Z AUTO 17012KT 10SM SCT010 BKN014 OVC075 07/06 A2999 RMK AO2 RAB07E19 P0000=
200605071035 SPECI KPAE 071035Z AUTO 17012KT 10SM SCT010 BKN014 OVC075 07/06 A2999 RMK AO2 RAB07E19 P0000=
200605070953 METAR KPAE 070953Z AUTO 17017G22KT 10SM SCT070 OVC085 07/05 A2999 RMK AO2 SLP185 T00720050=
200605070853 METAR KPAE 070853Z AUTO 17016KT 10SM OVC090 07/05 A3001 RMK AO2 RAE30 SLP192 P0002 60007 T00720050 58010=
200605070753 METAR KPAE 070753Z AUTO 17014G20KT 10SM -RA OVC037 07/05 A3003 RMK AO2 SLP199 P0002 T00720050 401170072=
200605070653 METAR KPAE 070653Z AUTO 17013KT 10SM -RA BKN037 OVC050 08/06 A3002 RMK AO2 SLP197 P0003 T00830056=
200605070553 METAR KPAE 070553Z AUTO 19010KT 9SM -RA BKN036 OVC048 09/06 A3004 RMK AO2 RAB0455 SLP202 P0001 60001 T00940061 10100 20089 58001=
200605070453 METAR KPAE 070453Z 35004KT 10SM OVC060 09/06 A3004 RMK AO2 RAB38E53 SLP204 P0000 T00890061=
200605070353 METAR KPAE 070353Z 00000KT 10SM OVC055 09/06 A3005 RMK AO2 SLP206 T00940061=
200605070253 METAR KPAE 070253Z 01004KT 10SM OVC049 10/07 A3004 RMK AO2 SLP202 T01000067 56010=
200605070153 METAR KPAE 070153Z 00000KT 10SM OVC049 10/06 A3005 RMK AO2 SLP206 T01000061=
200605070053 METAR KPAE 070053Z 36005KT 10SM OVC039 10/06 A3005 RMK AO2 SLP207 T01000061=
200605062353 METAR KPAE 062353Z 36006KT 10SM OVC041 10/06 A3007 RMK AO2 SLP213 60000 T01000061 10117 20083 58005=
200605062253 METAR KPAE 062253Z VRB05KT 10SM BKN033 OVC048 10/07 A3009 RMK AO2 SLP220 T01000067=
200605062153 METAR KPAE 062153Z 01007KT 10SM FEW025 BKN047 OVC075 11/07 A3009 RMK AO2 SLP219 T01110067=
200605062115 SPECI KPAE 062115Z VRB04KT 10SM FEW015 BKN055 OVC080 11/06 A3008 RMK AO2=
200605062115 SPECI KPAE 062115Z VRB04KT 10SM FEW015 BKN055 OVC080 11/06 A3008 RMK AO2=
200605062053 METAR KPAE 062053Z VRB03KT 10SM OVC015 11/07 A3008 RMK AO2 SLP218 60000 T01060067 57000=
200605062031 SPECI KPAE 062031Z 00000KT 10SM FEW008 BKN015 OVC046 10/07 A3009 RMK AO2=
200605062031 SPECI KPAE 062031Z 00000KT 10SM FEW008 BKN015 OVC046 10/07 A3009 RMK AO2=
200605062011 SPECI KPAE 062011Z VRB03KT 10SM SCT008 BKN031 OVC040 10/07 A3009 RMK AO2=
200605062011 SPECI KPAE 062011Z VRB03KT 10SM SCT008 BKN031 OVC040 10/07 A3009 RMK AO2=
200605061953 METAR KPAE 061953Z VRB03KT 8SM SCT008 BKN022 OVC030 09/07 A3008 RMK AO2 RAB1857E36 SLP217 P0000 T00940072=
200605061901 SPECI KPAE 061901Z 35004KT 10SM -RA SCT008 BKN012 OVC019 09/07 A3009 RMK AO2 RAB1857 P0000=
200605061901 SPECI KPAE 061901Z 35004KT 10SM -RA SCT008 BKN012 OVC019 09/07 A3009 RMK AO2 RAB1857 P0000=
200605061853 METAR KPAE 061853Z VRB04KT 10SM SCT008 SCT012 OVC019 09/06 A3009 RMK AO2 SLP220 T00890061=
200605061753 METAR KPAE 061753Z 33004KT 10SM BKN010 OVC019 09/06 A3009 RMK AO2 SLP219 T00890061 10089 20078 51006=
200605061751 SPECI KPAE 061751Z 34005KT 10SM BKN010 OVC019 09/06 A3009 RMK AO2=
200605061722 SPECI KPAE 061722Z VRB04KT 10SM FEW008 SCT012 OVC029 09/06 A3008 RMK AO2=
200605061722 SPECI KPAE 061722Z VRB04KT 10SM FEW008 SCT012 OVC029 09/06 A3008 RMK AO2=
200605061700 SPECI KPAE 061700Z 29004KT 10SM SCT011 BKN020 OVC025 09/06 A3007 RMK AO2=
200605061700 SPECI KPAE 061700Z 29004KT 10SM SCT011 BKN020 OVC025 09/06 A3007 RMK AO2=
200605061653 METAR KPAE 061653Z VRB03KT 10SM SCT009 BKN014 OVC022 09/06 A3007 RMK AO2 SLP215 T00890056=
200605061553 METAR KPAE 061553Z 00000KT 10SM OVC009 08/06 A3007 RMK AO2 CIG 007V012 SLP212 T00830061=
200605061543 SPECI KPAE 061543Z 14003KT 10SM OVC009 08/06 A3006 RMK AO2 CIG 007V012=
200605061543 SPECI KPAE 061543Z 14003KT 10SM OVC009 08/06 A3006 RMK AO2 CIG 007V012=
200605061512 SPECI KPAE 061512Z 13004KT 10SM FEW007 BKN013 OVC025 08/06 A3006 RMK AO2=
200605061512 SPECI KPAE 061512Z 13004KT 10SM FEW007 BKN013 OVC025 08/06 A3006 RMK AO2=
200605061505 SPECI KPAE 061505Z 12004KT 10SM BKN009 BKN013 OVC025 08/06 A3006 RMK AO2 CIG 008V012=
200605061505 SPECI KPAE 061505Z 12004KT 10SM BKN009 BKN013 OVC025 08/06 A3006 RMK AO2 CIG 008V012=
200605061453 METAR KPAE 061453Z 13004KT 10SM FEW007 BKN013 OVC025 08/06 A3006 RMK AO2 SLP209 T00830061 50002=
200605061353 METAR KPAE 061353Z 13008KT 10SM BKN029 OVC036 08/06 A3006 RMK AO2 SLP210 T00830056=
200605061348 SPECI KPAE 061348Z AUTO 13007KT 10SM BKN029 OVC038 08/06 A3006 RMK AO2=
200605061348 SPECI KPAE 061348Z AUTO 13007KT 10SM BKN029 OVC038 08/06 A3006 RMK AO2=
200605061338 SPECI KPAE 061338Z AUTO 13007KT 10SM SCT029 BKN038 OVC049 08/06 A3006 RMK AO2=
200605061338 SPECI KPAE 061338Z AUTO 13007KT 10SM SCT029 BKN038 OVC049 08/06 A3006 RMK AO2=
200605061331 SPECI KPAE 061331Z AUTO 13007KT 10SM BKN029 OVC040 08/06 A3006 RMK AO2=
200605061331 SPECI KPAE 061331Z AUTO 13007KT 10SM BKN029 OVC040 08/06 A3006 RMK AO2=
200605061253 METAR KPAE 061253Z AUTO 13007KT 10SM FEW035 OVC045 08/05 A3005 RMK AO2 SLP206 T00830050=
200605061233 SPECI KPAE 061233Z AUTO 13006KT 10SM SCT026 OVC045 08/04 A3005 RMK AO2=
200605061233 SPECI KPAE 061233Z AUTO 13006KT 10SM SCT026 OVC045 08/04 A3005 RMK AO2=
200605061153 METAR KPAE 061153Z AUTO 13009KT 10SM BKN028 OVC038 09/04 A3004 RMK AO2 SLP203 T00890044 10094 20083 53009=
200605061053 METAR KPAE 061053Z AUTO 13004KT 10SM OVC040 09/04 A3003 RMK AO2 SLP198 T00890039=
200605060953 METAR KPAE 060953Z AUTO 16006KT 10SM SCT024 OVC032 09/04 A3002 RMK AO2 SLP195 T00890044=
200605060924 SPECI KPAE 060924Z AUTO 10003KT 10SM BKN028 09/06 A3002 RMK AO2=
200605060924 SPECI KPAE 060924Z AUTO 10003KT 10SM BKN028 09/06 A3002 RMK AO2=
200605060853 METAR KPAE 060853Z AUTO 10004KT 10SM FEW024 09/06 A3001 RMK AO2 SLP192 T00890056 58001=
200605060801 SPECI KPAE 060801Z AUTO 12006KT 10SM FEW012 09/07 A3002 RMK AO2=
200605060801 SPECI KPAE 060801Z AUTO 12006KT 10SM FEW012 09/07 A3002 RMK AO2=
200605060753 METAR KPAE 060753Z AUTO VRB03KT 10SM FEW012 BKN020 09/07 A3002 RMK AO2 SLP194 T00890067 401890089=
200605060751 SPECI KPAE 060751Z AUTO 10005KT 10SM FEW012 BKN020 09/07 A3002 RMK AO2 401890089=
200605060751 SPECI KPAE 060751Z AUTO 10005KT 10SM FEW012 BKN020 09/07 A3002 RMK AO2 401890089=
200605060731 SPECI KPAE 060731Z AUTO VRB06KT 10SM FEW008 BKN012 BKN019 09/07 A3002 RMK AO2=
200605060731 SPECI KPAE 060731Z AUTO VRB06KT 10SM FEW008 BKN012 BKN019 09/07 A3002 RMK AO2=
200605060653 METAR KPAE 060653Z AUTO VRB06KT 10SM BKN008 09/07 A3002 RMK AO2 CIG 007V013 SLP193 T00940067=
200605060650 SPECI KPAE 060650Z AUTO 05006KT 10SM BKN010 09/07 A3002 RMK AO2 CIG 007V013=
200605060650 SPECI KPAE 060650Z AUTO 05006KT 10SM BKN010 09/07 A3002 RMK AO2 CIG 007V013=
200605060553 METAR KPAE 060553Z AUTO 01008KT 10SM CLR 09/06 A3000 RMK AO2 SLP188 T00940061 10161 20094 51024=
200605060453 METAR KPAE 060453Z AUTO 01007KT 10SM CLR 09/06 A3000 RMK AO2 SLP187 T00940061=
200605060353 METAR KPAE 060353Z AUTO 36006KT 10SM CLR 11/06 A2996 RMK AO2 SLP176 T01060056=
200605060253 METAR KPAE 060253Z 35007KT 310V020 10SM SCT110 12/04 A2993 RMK AO2 SLP164 T01170044 53004=
200605060153 METAR KPAE 060153Z 35008KT 10SM CLR 13/05 A2992 RMK AO2 SLP161 T01330050=
200605060053 METAR KPAE 060053Z 35009G15KT 10SM CLR 14/07 A2991 RMK AO2 SLP159 T01440067=
200605052353 METAR KPAE 052353Z 35010KT 10SM CLR 16/06 A2992 RMK AO2 SLP159 T01610061 10189 20161 58013=
200605052253 METAR KPAE 052253Z AUTO 34009G15KT 10SM CLR 17/03 A2993 RMK AO2 SLP164 T01720028 TSNO=
200605052153 METAR KPAE 052153Z 35007KT 10SM CLR 18/04 A2995 RMK AO2 SLP169 T01830044=
200605052053 METAR KPAE 052053Z 28005KT 10SM CLR 18/04 A2995 RMK AO2 SLP171 T01830044 58004=
200605051953 METAR KPAE 051953Z 24005KT 10SM CLR 17/04 A2996 RMK AO2 SLP174 T01720039=
200605051853 METAR KPAE 051853Z 30005KT 10SM CLR 17/03 A2997 RMK AO2 SLP176 T01670033=
200605051753 METAR KPAE 051753Z VRB05KT 10SM CLR 17/05 A2997 RMK AO2 SLP175 T01670050 10172 20100 56002=
200605051653 METAR KPAE 051653Z 23005KT 10SM CLR 16/04 A2997 RMK AO2 SLP176 T01560039=
200605051553 METAR KPAE 051553Z 24004KT 10SM CLR 15/04 A2997 RMK AO2 SLP176 T01500044=
200605051453 METAR KPAE 051453Z 14004KT 10SM CLR 14/03 A2997 RMK AO2 SLP177 T01390033 53001=
200605051353 METAR KPAE 051353Z 13003KT 10SM CLR 11/02 A2996 RMK AO2 SLP174 T01110022=
200605051253 METAR KPAE 051253Z AUTO 00000KT 10SM CLR 10/02 A2997 RMK AO2 SLP175 T01000017=
200605051153 METAR KPAE 051153Z AUTO 11006KT 10SM CLR 11/02 A2997 RMK AO2 SLP176 T01110022 10144 20111 56007=
200605051053 METAR KPAE 051053Z AUTO 11007KT 10SM CLR 12/03 A2998 RMK AO2 SLP178 T01170033=
200605050953 METAR KPAE 050953Z AUTO 03005KT 10SM CLR 12/03 A2998 RMK AO2 SLP180 T01220033=
200605050853 METAR KPAE 050853Z AUTO 00000KT 10SM CLR 13/03 A2999 RMK AO2 SLP184 T01280028 58008=
200605050753 METAR KPAE 050753Z AUTO 36003KT 10SM CLR 12/04 A3000 RMK AO2 SLP187 T01170044 402000072=
200605050653 METAR KPAE 050653Z AUTO 35003KT 10SM CLR 12/03 A3001 RMK AO2 SLP191 T01220033=
200605050553 METAR KPAE 050553Z AUTO 36003KT 10SM CLR 14/03 A3001 RMK AO2 SLP191 T01440028 10200 20144 50000=
200605050453 METAR KPAE 050453Z AUTO 00000KT 10SM CLR 15/03 A3002 RMK AO2 SLP193 T01500033=
200605050353 METAR KPAE 050353Z AUTO 00000KT 10SM CLR 16/03 A3001 RMK AO2 SLP192 T01610028=
200605050253 METAR KPAE 050253Z 35004KT 10SM CLR 18/02 A3001 RMK AO2 SLP192 T01780017 56014=
200605050153 METAR KPAE 050153Z 34006KT 10SM CLR 19/01 A3002 RMK AO2 SLP195 T01940006=
200605050053 METAR KPAE 050053Z 34007KT 10SM CLR 19/03 A3004 RMK AO2 SLP202 T01940028=
200605042353 METAR KPAE 042353Z 35008KT 310V030 10SM CLR 19/02 A3006 RMK AO2 SLP206 T01940017 10200 20167 58022=
200605042253 METAR KPAE 042253Z 34008KT 10SM CLR 19/02 A3008 RMK AO2 SLP214 T01940022=
200605042153 METAR KPAE 042153Z 34007KT 320V070 10SM CLR 19/04 A3010 RMK AO2 SLP221 T01890044=
200605042053 METAR KPAE 042053Z 34007KT 10SM CLR 18/04 A3012 RMK AO2 SLP229 T01830039 58016=
200605041953 METAR KPAE 041953Z 28006KT 10SM CLR 18/04 A3014 RMK AO2 SLP236 T01830039=
200605041853 METAR KPAE 041853Z 27007KT 10SM SCT250 17/03 A3016 RMK AO2 SLP241 T01720028=
200605041753 METAR KPAE 041753Z VRB04KT 10SM CLR 17/01 A3017 RMK AO2 SLP246 T01670011 10167 20078 58009=
200605041653 METAR KPAE 041653Z VRB03KT 10SM SCT250 16/02 A3018 RMK AO2 SLP250 T01560017=
200605041553 METAR KPAE 041553Z 34003KT 10SM SCT250 13/02 A3019 RMK AO2 SLP253 T01330017=
200605041453 METAR KPAE 041453Z 35004KT 10SM SCT250 11/02 A3020 RMK AO2 SLP256 T01060022 51005=
200605041353 METAR KPAE 041353Z 03005KT 10SM SCT250 09/02 A3019 RMK AO2 SLP255 T00940017=
200605041300 METAR KPAE NIL=
200605041253 METAR KPAE 041253Z 00000KT 10SM CLR 08/02 A3019 RMK AO2 SLP253 T00780022=
200605041153 METAR KPAE 041153Z 01003KT 10SM CLR 08/02 A3018 RMK AO2 SLP251 T00830022 10117 20072 53001=
200605041053 METAR KPAE 041053Z 01003KT 10SM CLR 08/02 A3017 RMK AO2 SLP248 T00830022=
200605040953 METAR KPAE 040953Z 02003KT 10SM CLR 09/02 A3017 RMK AO2 SLP247 T00890017=
200605040853 METAR KPAE 040853Z 36004KT 10SM CLR 10/02 A3018 RMK AO2 SLP249 T01000017 56004=
200605040753 METAR KPAE 040753Z 36003KT 10SM CLR 10/01 A3019 RMK AO2 SLP252 T01000011 401720050=
200605040653 METAR KPAE 040653Z 36003KT 10SM CLR 10/01 A3018 RMK AO2 SLP250 T01000006=
200605040553 METAR KPAE 040553Z 34004KT 10SM CLR 11/01 A3019 RMK AO2 SLP253 T01110006 10172 20111 51006=
200605040453 METAR KPAE 040453Z 33005KT 10SM CLR 12/01 A3019 RMK AO2 SLP253 T01170006=
200605040353 METAR KPAE 040353Z 35006KT 10SM CLR 13/02 A3018 RMK AO2 SLP250 T01280017=
200605040253 METAR KPAE 040253Z 33006KT 10SM CLR 14/02 A3017 RMK AO2 SLP248 T01440017 56006=
200605040153 METAR KPAE 040153Z 33007KT 10SM CLR 16/01 A3018 RMK AO2 SLP250 T01560011=
200605040053 METAR KPAE 040053Z 32010KT 10SM CLR 17/01 A3019 RMK AO2 SLP253 T01670006=
200605032353 METAR KPAE 032353Z 33009KT 10SM CLR 17/03 A3019 RMK AO2 SLP255 T01670028 10167 20117 58011=
200605032253 METAR KPAE 032253Z 32010KT 10SM CLR 16/03 A3020 RMK AO2 SLP258 T01610028=
200605032153 METAR KPAE 032153Z 33008KT 10SM CLR 16/04 A3022 RMK AO2 SLP264 T01560039=
200605032053 METAR KPAE 032053Z 34008G15KT 310V020 10SM CLR 15/04 A3023 RMK AO2 SLP266 T01500044 56012=
200605031953 METAR KPAE 031953Z 33008KT 310V010 10SM CLR 14/04 A3023 RMK AO2 SLP269 T01440044=
200605031853 METAR KPAE 031853Z 35008KT 10SM CLR 13/04 A3025 RMK AO2 SLP276 T01280044=
200605031753 METAR KPAE 031753Z 33008KT 10SM CLR 12/04 A3026 RMK AO2 SLP278 T01170044 10117 20056 58005=
200605031653 METAR KPAE 031653Z VRB06KT 10SM CLR 11/04 A3027 RMK AO2 SLP281 T01060044=
200605031553 METAR KPAE 031553Z 32009KT 10SM CLR 09/03 A3028 RMK AO2 SLP285 T00890033=
200605031453 METAR KPAE 031453Z VRB06KT 10SM CLR 07/04 A3028 RMK AO2 SLP284 T00720039 51002=
200605031353 METAR KPAE 031353Z VRB03KT 10SM CLR 07/03 A3028 RMK AO2 SLP284 T00670028=
200605031253 METAR KPAE 031253Z 34004KT 10SM CLR 06/03 A3027 RMK AO2 SLP282 T00560028=
200605031153 METAR KPAE 031153Z 35004KT 10SM CLR 06/03 A3027 RMK AO2 SLP282 T00560028 10083 20050 53001=
200605031053 METAR KPAE 031053Z 35004KT 10SM CLR 06/02 A3027 RMK AO2 SLP281 T00610022=
200605030953 METAR KPAE 030953Z VRB03KT 10SM CLR 06/02 A3027 RMK AO2 SLP281 T00610017=
200605030853 METAR KPAE 030853Z 00000KT 10SM CLR 07/02 A3027 RMK AO2 SLP280 T00670022 56003=
200605030753 METAR KPAE 030753Z 34006KT 10SM CLR 08/03 A3027 RMK AO2 SLP281 T00780028 401390028=
200605030653 METAR KPAE 030653Z 33006KT 10SM CLR 08/01 A3027 RMK AO2 SLP283 T00780006=
200605030553 METAR KPAE 030553Z 33006KT 10SM CLR 08/01 A3028 RMK AO2 SLP284 T00830011 10139 20078 58003=
200605030453 METAR KPAE 030453Z 33006KT 10SM CLR 08/03 A3028 RMK AO2 SLP287 T00830028=
200605030353 METAR KPAE 030353Z 33008KT 10SM CLR 09/02 A3028 RMK AO2 SLP287 T00940022=
200605030253 METAR KPAE 030253Z 32008KT 10SM CLR 11/01 A3029 RMK AO2 SLP288 T01110006 56011=
200605030153 METAR KPAE 030153Z 33008KT 10SM CLR 13/01 A3029 RMK AO2 SLP288 T01280011=
200605030053 METAR KPAE 030053Z 33008KT 300V360 10SM CLR 13/02 A3030 RMK AO2 SLP293 T01280022=
200605022353 METAR KPAE 022353Z 34007KT 300V010 10SM CLR 14/04 A3032 RMK AO2 SLP299 T01390039 10139 20094 58012=
200605022253 METAR KPAE 022253Z AUTO 35009G14KT 10SM CLR 13/03 A3033 RMK AO2 SLP301 T01330033 TSNO=
200605022153 METAR KPAE 022153Z VRB05KT 10SM CLR 13/03 A3034 RMK AO2 SLP306 T01330033=
200605022053 METAR KPAE 022053Z 35007KT 10SM CLR 12/03 A3035 RMK AO2 SLP309 T01220033 58015=
200605021953 METAR KPAE 021953Z 35007KT 310V030 10SM CLR 12/04 A3036 RMK AO2 SLP314 T01170039=
200605021853 METAR KPAE 021853Z 33011KT 10SM CLR 10/03 A3039 RMK AO2 SLP323 T01000028=
200605021753 METAR KPAE 021753Z VRB06KT 10SM CLR 10/03 A3040 RMK AO2 SLP325 T01000028 10100 20028 58007=
200605021653 METAR KPAE 021653Z 35007KT 10SM CLR 08/02 A3041 RMK AO2 SLP331 T00830017=
200605021553 METAR KPAE 021553Z 35004KT 10SM CLR 07/01 A3042 RMK AO2 SLP333 T00720006=
200605021453 METAR KPAE 021453Z VRB04KT 10SM CLR 07/01 A3042 RMK AO2 SLP333 T00670006 53003=
200605021353 METAR KPAE 021353Z 00000KT 10SM CLR 05/01 A3041 RMK AO2 SLP330 T00500006=
200605021253 METAR KPAE 021253Z AUTO 00000KT 10SM CLR 04/01 A3040 RMK AO2 SLP328 T00390006=
200605021153 METAR KPAE 021153Z AUTO 00000KT 10SM CLR 04/01 A3041 RMK AO2 SLP330 T00390011 10072 20039 50003=
200605021053 METAR KPAE 021053Z AUTO 00000KT 10SM CLR 05/02 A3041 RMK AO2 SLP330 T00500022=
200605020953 METAR KPAE 020953Z AUTO VRB04KT 10SM FEW080 06/03 A3040 RMK AO2 SLP327 T00610028=
200605020853 METAR KPAE 020853Z AUTO 36003KT 10SM FEW070 07/03 A3040 RMK AO2 SLP327 T00670028 50007=
200605020753 METAR KPAE 020753Z AUTO 33004KT 10SM OVC080 07/03 A3040 RMK AO2 SLP328 T00720033 401220056=
200605020653 METAR KPAE 020653Z AUTO 35005KT 10SM BKN085 07/02 A3039 RMK AO2 SLP322 T00670022=
200605020553 METAR KPAE 020553Z AUTO 32007KT 10SM BKN090 07/02 A3038 RMK AO2 SLP320 T00670017 10117 20067 51011=
200605020453 METAR KPAE 020453Z AUTO 32006KT 10SM CLR 07/02 A3037 RMK AO2 SLP318 T00720017=
200605020353 METAR KPAE 020353Z AUTO VRB04KT 10SM CLR 08/01 A3036 RMK AO2 SLP313 T00780011=
200605020253 METAR KPAE 020253Z 33007KT 310V010 10SM CLR 08/01 A3035 RMK AO2 SLP308 T00830011 51005=
200605020153 METAR KPAE 020153Z 31009KT 10SM CLR 10/01 A3034 RMK AO2 SLP306 T01000011=
200605020053 METAR KPAE 020053Z 31010KT 10SM CLR 11/01 A3034 RMK AO2 SLP306 T01110006=
200605012353 METAR KPAE 012353Z 32007KT 10SM FEW100 11/01 A3033 RMK AO2 SLP303 T01110011 10122 20083 53007=
200605012253 METAR KPAE 012253Z 35009G16KT 320V040 10SM CLR 12/M01 A3032 RMK AO2 SLP298 T01171011=
200605012153 METAR KPAE 012153Z 34011KT 310V010 10SM CLR 12/M01 A3031 RMK AO2 SLP295 T01221011=
200605012053 METAR KPAE 012053Z 34008G17KT 10SM CLR 11/M02 A3031 RMK AO2 SLP296 T01111017 51003=
200605011953 METAR KPAE 011953Z 33010G14KT 10SM CLR 11/01 A3031 RMK AO2 SLP294 T01060011=
200605011853 METAR KPAE 011853Z 30011G18KT 10SM FEW044 10/M01 A3031 RMK AO2 SLP296 T01001006=
200605011753 METAR KPAE 011753Z 27010G16KT 10SM SCT024 BKN032 OVC039 08/02 A3030 RMK AO2 SLP294 T00830022 10089 20056 51005=
200605011751 SPECI KPAE 011751Z 25012G16KT 230V290 10SM SCT024 BKN032 OVC039 08/03 A3030 RMK AO2=
200605011751 SPECI KPAE 011751Z 25012G16KT 230V290 10SM SCT024 BKN032 OVC039 08/03 A3030 RMK AO2=
200605011653 METAR KPAE 011653Z 23006KT 10SM BKN026 OVC036 07/03 A3029 RMK AO2 SLP291 T00720028=
200605011630 SPECI KPAE 011630Z 23006KT 10SM FEW022 BKN028 OVC036 07/03 A3029 RMK AO2=
200605011630 SPECI KPAE 011630Z 23006KT 10SM FEW022 BKN028 OVC036 07/03 A3029 RMK AO2=
200605011553 METAR KPAE 011553Z 26006KT 10SM FEW018 SCT029 BKN036 08/03 A3028 RMK AO2 SLP287 T00780033=
200605011535 SPECI KPAE 011535Z 25007KT 10SM BKN030 BKN049 08/04 A3028 RMK AO2=
200605011535 SPECI KPAE 011535Z 25007KT 10SM BKN030 BKN049 08/04 A3028 RMK AO2=
200605011527 SPECI KPAE 011527Z 26008KT 10SM BKN028 BKN034 BKN050 08/03 A3028 RMK AO2=
200605011527 SPECI KPAE 011527Z 26008KT 10SM BKN028 BKN034 BKN050 08/03 A3028 RMK AO2=
200605011453 METAR KPAE 011453Z 26005KT 10SM FEW022 SCT029 OVC050 07/04 A3027 RMK AO2 SLP284 T00670039 53009=
200605011353 METAR KPAE 011353Z VRB03KT 10SM FEW026 SCT032 06/03 A3026 RMK AO2 SLP278 T00610033=
200605011253 METAR KPAE 011253Z 33003KT 10SM FEW014 BKN065 06/01 A3025 RMK AO2 SLP275 T00560006=
200605011153 METAR KPAE 011153Z 33006KT 10SM OVC055 07/01 A3025 RMK AO2 SLP275 T00670011 10067 20056 56001=
200605011053 METAR KPAE 011053Z 34006KT 10SM FEW048 SCT060 OVC075 07/02 A3025 RMK AO2 SLP275 T00670017=
200605010953 METAR KPAE 010953Z 34007KT 10SM SCT048 OVC060 07/02 A3024 RMK AO2 SLP274 T00670017=
200605010853 METAR KPAE 010853Z VRB04KT 10SM SCT070 06/02 A3025 RMK AO2 SLP276 T00610017 56002=
200605010753 METAR KPAE 010753Z VRB05KT 10SM SCT060 06/02 A3025 RMK AO2 SLP276 T00610022 401170028=
200605010653 METAR KPAE 010653Z VRB05KT 10SM CLR 06/03 A3025 RMK AO2 SLP276 T00610033=
200605010553 METAR KPAE 010553Z 34005KT 10SM CLR 06/03 A3026 RMK AO2 SLP279 T00610028 10111 20061 56008=
200605010453 METAR KPAE 010453Z 35004KT 10SM CLR 06/02 A3026 RMK AO2 SLP280 T00610017=
200605010353 METAR KPAE 010353Z 33004KT 10SM CLR 07/02 A3026 RMK AO2 SLP282 T00720017=
200605010253 METAR KPAE 010253Z 34005KT 10SM FEW060 08/03 A3028 RMK AO2 SLP287 T00830028 56016=
200605010153 METAR KPAE 010153Z 31008KT 10SM CLR 10/01 A3029 RMK AO2 SLP291 T01000006=
200605010053 METAR KPAE 010053Z 29007KT 10SM CLR 11/02 A3031 RMK AO2 SLP297 T01060017=

# No short TAF reports from KPAE in databse.

###################################
#  large TAF from KPAE
###################################
200605312340 TAF KPAE 312340Z 010024 23006KT P6SM SCT060 BKN100 OVC150 FM0200
                       20008KT P6SM SCT060 BKN100 OVC150 FM0500
                       17008KT P6SM -RA SCT030 OVC050 FM0800 17008KT
                       P6SM SCT025 BKN045 BKN070
                      TEMPO 0811 BKN025 FM1900 17010KT P6SM -RA
                       OVC030=
200605311740 TAF KPAE 311740Z 311818 33004KT P6SM BKN150 OVC250 FM0300 VRB03KT
                       P6SM BKN100 OVC150 FM0800 12008KT P6SM -RA
                       SCT030 OVC050 FM1200 15008KT P6SM VCSH SCT020
                       BKN045 BKN070=
200605311120 TAF KPAE 311120Z 311212 04003KT P6SM SCT120 BKN200 FM1400 VRB03KT
                       P6SM SCT080 BKN120 OVC200 FM2200 21008KT
                       P6SM SCT060 OVC090 FM0300 16010KT P6SM -RA
                       SCT045 OVC060 FM0800 13006KT P6SM VCSH SCT020
                       BKN040=
200605310520 TAF KPAE 310520Z 310606 04003KT P6SM SCT120 BKN250 FM1400 VRB03KT
                       P6SM SCT080 BKN120 OVC200 FM2200 21008KT
                       P6SM SCT060 OVC090 FM0300 16010KT P6SM -RA
                       SCT045 OVC060=
200605302352 TAF KPAE 302352Z 310024 VRB03KT P6SM BKN250 FM1300 16006KT P6SM
                       BKN150 OVC250 FM2200 13008KT P6SM OVC070
                       PROB30 2224 -RA=
200605301727 TAF KPAE 301727Z 301818 VRB03KT P6SM BKN250 FM2100 35006KT P6SM
                       BKN250 FM1300 16006KT P6SM BKN150 OVC250=
200605301124 TAF KPAE 301124Z 301212 VRB05KT P6SM SKC FM1800 35006KT P6SM SCT060
                       BKN250=
200605300522 TAF KPAE 300522Z 300606 01005KT P6SM OVC060 FM0800 01005KT P6SM
                       SCT060
                      TEMPO 0810 BKN060 FM1600 VRB04KT P6SM SCT060
                       BKN250=
200605292332 TAF KPAE 292332Z 300024 33004KT P6SM SCT035 BKN060 FM0500 33004KT
                       P6SM SCT060 FM1300 VRB04KT P6SM SCT060 BKN250=
200605291738 TAF KPAE 291738Z 291818 15008KT P6SM SCT025 OVC045 FM2200 34006KT
                       P6SM SCT030 BKN050 FM0100 34006KT P6SM SCT050=
200605291120 TAF KPAE 291120Z 291212 16006KT P6SM SCT015 OVC045
                      TEMPO 1216 BKN015 OVC040 FM1900 VRB04KT P6SM
                       SCT030 BKN050 FM0000 34006KT P6SM SCT050
                       FM1000 00000KT P6SM SCT030 BKN100=
200605290904 KPAE 290904Z 290906 16006KT P6SM SCT030 OVC050
                      TEMPO 1014 BKN030 OVC050 FM1400 16006KT P6SM
                       OVC025 FM2000 VRB04KT P6SM SCT030 BKN050
                       FM0000 34006KT P6SM SCT050=
200605290520 TAF KPAE 290520Z 290606 VRB03KT P6SM -SHRA SCT003 OVC012
                      TEMPO 0609 3SM -SHRA BR BKN003 OVC008 FM0900
                       18006KT P6SM BKN010 OVC030 FM1200 18008KT
                       P6SM OVC015 FM2000 VRB04KT P6SM SCT030 BKN050
                       FM0000 34006KT P6SM SCT050=
200605290421 TAF AMD KPAE 290421Z 290424 VRB05KT P6SM -SHRA SCT004 OVC012
                      TEMPO 0408 4SM -SHRA BR BKN004 OVC008 FM0800
                       18008KT P6SM BKN010 OVC030 FM1200 18008KT
                       P6SM OVC015 FM2000 VRB04KT P6SM SCT030 BKN060=
200605290345 KPAE 290345Z 290424 VRB05KT P6SM VCSH SCT010 OVC030
                      TEMPO 0408 5SM -SHRA BKN010 OVC030 FM0800
                       18008KT P6SM OVC015 FM2000 VRB04KT P6SM
                       SCT030 BKN060=
200605282333 TAF KPAE 282333Z 290024 12003KT 3SM -RA BR OVC006
                      TEMPO 0002 P6SM NSW SCT015 OVC025 FM0200
                       18007KT P6SM BKN020 BKN050 FM1000 18007KT
                       P6SM OVC015 FM2000 19005KT P6SM BKN050=
200605282300 KPAE 290421Z 290424 VRB05KT P6SM -SHRA SCT004 OVC012
                      TEMPO 0408 4SM -SHRA BR BKN004 OVC008 FM0800
                       18008KT P6SM BKN010 OVC030 FM1200 18008KT
                       P6SM OVC015 FM2000 VRB04KT P6SM SCT030 BKN060=
200605281729 TAF KPAE 281729Z 281818 01003KT P6SM -RA BKN010 BKN013 OVC021
                      TEMPO 2202 5SM -RA BR SCT015 OVC025 FM0200
                       18007KT P6SM BKN020 BKN050 FM1000 18007KT
                       P6SM OVC015=
200605281250 KPAE 281250Z 281312 VRB03KT P6SM -SHRA SCT005 BKN012 OVC020
                      TEMPO 1315 2SM SHRA BR OVC005 FM1500 VRB03KT
                       P6SM -SHRA SCT005 BKN018 OVC025
                      TEMPO 1518 BKN005 OVC018 FM1800 21006KT P6SM
                       VCSH BKN025 BKN060
                      TEMPO 2202 SCT030 BKN080 FM0600 18007KT P6SM
                       BKN020 BKN050 FM1000 18007KT P6SM OVC015=
200605281125 TAF KPAE 281125Z 281212 21006KT P6SM VCSH BKN005 OVC020
                      TEMPO 1216 4SM -SHRA BR OVC003 FM1800 21006KT
                       P6SM VCSH BKN025 BKN060
                      TEMPO 2202 SCT030 BKN080 FM0600 18007KT P6SM
                       BKN020 BKN050 FM1000 18007KT P6SM OVC015=
200605280702 KPAE 280702Z 280706 13005KT P6SM VCSH OVC005
                      TEMPO 0812 BKN010 OVC030 FM1200 21007KT P6SM
                       BKN012 OVC025
                      TEMPO 1620 SCT015 BKN030 BKN060 FM2000 18008KT
                       P6SM SCT030 BKN060=
200605280520 TAF KPAE 280520Z 280606 11005KT P6SM SCT030 BKN050 BKN100
                      TEMPO 0610 -SHRA BKN030 OVC050 FM1000 21007KT
                       P6SM BKN012 OVC025
                      TEMPO 1620 SCT015 BKN030 BKN060 FM2000 18008KT
                       P6SM SCT030 BKN060=
200605280426 TAF AMD KPAE 280426Z 280424 VRB06KT P6SM -SHRA SCT015 OVC030
                      TEMPO 0407 2SM SHRA OVC015 FM0900 21007KT
                       P6SM BKN012 OVC025 FM2000 18008KT P6SM SCT025
                       BKN050=
200605272336 TAF KPAE 272336Z 280024 23007KT P6SM BKN045 OVC070 FM0900 21007KT
                       P6SM BKN012 OVC025 FM2000 18008KT P6SM SCT025
                       BKN050=
200605272300 KPAE 280426Z 280424 VRB06KT P6SM -SHRA SCT015 OVC030
                      TEMPO 0407 2SM SHRA OVC015 FM0900 21007KT
                       P6SM BKN012 OVC025 FM2000 18008KT P6SM SCT025
                       BKN050=
200605271735 TAF KPAE 271735Z 271818 00000KT P6SM -SHRA FEW006 BKN012 OVC026
                       TEMPO 1822 2SM -SHRA BKN006 OVC012 FM2200
                       24007KT P6SM BKN030 BKN060 OVC100 FM0900
                       VRB03KT P6SM BKN012 OVC025=
200605271120 TAF KPAE 271120Z 271212 16006KT P6SM -RA SCT004 OVC012
                      TEMPO 1216 5SM -RA BR BKN004 OVC010 FM1800
                       18007KT P6SM VCSH BKN020 OVC060 FM2200 24007KT
                       P6SM SCT030 BKN060 BKN100 FM0900 VRB03KT
                       P6SM BKN020=
200605270801 KPAE 270801Z 270806 15005KT P6SM -RA SCT005 OVC025
                      TEMPO 0812 4SM -RA BR BKN005 OVC020 FM1600
                       VRB05KT P6SM -SHRA BKN025 OVC050 FM1800
                       27007KT P6SM VCSH SCT030 BKN050 BKN100=
200605270520 TAF KPAE 270520Z 270606 VRB03KT P6SM -SHRA BKN015 OVC040 FM1800
                       27007KT P6SM VCSH SCT030 BKN100=
200605262324 TAF KPAE 262324Z 270024 24006KT P6SM BKN050 OVC200
                      TEMPO 0004 -SHRA BKN020 OVC045 FM0400 VRB04KT
                       P6SM VCSH OVC025 FM1800 18009KT P6SM -SHRA
                       BKN035 OVC045=
200605261721 TAF KPAE 261721Z 261818 21008KT P6SM SCT015 BKN035 OVC050
                      TEMPO 1822 -SHRA BKN015 OVC035 FM2200 21008KT
                       P6SM SCT020 BKN045 OVC060
                      TEMPO 2202 -SHRA BKN020 OVC045 FM0200 18005KT
                       P6SM SCT025 BKN050 OVC080
                      TEMPO 0206 -SHRA BKN025 OVC050 FM0600 VRB04KT
                       P6SM -SHRA OVC030=
200605261122 TAF KPAE 261122Z 261212 18008KT P6SM SCT010 BKN020 OVC080
                      TEMPO 1317 5SM -SHRA BR BKN010 OVC020 FM1900
                       22010KT P6SM -SHRA BKN025 OVC050
                      TEMPO 2202 SCT025 BKN050 OVC080=
200605260525 TAF KPAE 260525Z 260606 15008KT P6SM OVC025 FM1900 22010KT P6SM
                       -SHRA BKN030 OVC050=
200605260419 KPAE 260419Z 260424 16008KT P6SM -SHRA BKN020 OVC050 FM1900 22010KT
                       P6SM -SHRA BKN030 OVC050=
200605252320 TAF KPAE 252320Z 260024 24007KT P6SM SCT030 BKN070 OVC120 FM0200
                       20008KT P6SM -SHRA SCT020 BKN035 OVC060
                       FM1000 17008KT P6SM -SHRA SCT011 BKN025
                       OVC045 FM1900 22010KT P6SM -SHRA BKN030
                       OVC045=
200605252300 KPAE 260419Z 260424 16008KT P6SM -SHRA BKN020 OVC050 FM1900 22010KT
                       P6SM -SHRA BKN030 OVC050=
200605251722 TAF KPAE 251722Z 251818 17012KT P6SM -SHRA SCT025 BKN050 OVC090
                       FM1000 17008KT P6SM -SHRA SCT011 BKN025
                       OVC045=
200605251120 TAF KPAE 251120Z 251212 18010KT P6SM VCSH BKN050 OVC100
                      TEMPO 2024 20015KT 5SM SHRA OVC040=
200605250520 TAF KPAE 250520Z 250606 16012KT P6SM VCSH BKN050 BKN100=
200605242329 TAF KPAE 242329Z 250024 18017G23KT P6SM VCSH SCT030 BKN060 BKN090
                       FM0200 17010KT P6SM VCSH SCT030 BKN060 BKN090
                       FM1000 17008KT P6SM VCSH SCT015 BKN030 OVC050
                       FM2200 18012KT P6SM -SHRA SCT020 BKN040
                       BKN070=
200605242001 KPAE 242001Z 242018 18010G17KT P6SM VCSH SCT025 BKN040
                      TEMPO 2024 BKN025 OVC040 FM0000 19008KT P6SM
                       VCSH SCT030 BKN050 FM1000 17008KT P6SM VCSH
                       SCT015 BKN030 OVC050=
200605241720 TAF KPAE 241720Z 241818 19009KT P6SM -SHRA SCT015 BKN045 BKN070
                       FM2100 17011KT P6SM VCSH SCT045 BKN070
                      TEMPO 2101 SCT015 BKN040 BKN070 FM0300 16008KT
                       P6SM VCSH SCT030 BKN060 FM1000 16008KT P6SM
                       VCSH SCT015 BKN035 OVC060=
200605241516 KPAE 241516Z 241512 16007KT P6SM -SHRA SCT025 BKN050 BKN070 FM1800
                       17010KT P6SM -SHRA SCT025 BKN050 BKN070=
200605241315 KPAE 241315Z 241312 15005KT P6SM -RA BKN016 BKN022 OVC026 FM1800
                       17010KT P6SM -SHRA SCT020 BKN040 OVC070
                       FM0000 18010KT P6SM -SHRA SCT035 BKN050
                       OVC080=
200605241120 TAF KPAE 241120Z 241212 15007KT P6SM -SHRA SCT025 BKN045 OVC070
                       FM1800 17010KT P6SM -SHRA SCT020 BKN040
                       OVC070 FM0000 18010KT P6SM -SHRA SCT035
                       BKN050 OVC080=
200605240520 TAF KPAE 240520Z 240606 15007KT P6SM -SHRA SCT035 BKN050 OVC080
                       TEMPO 0609 SHRA BKN035 OVC050 FM0900 15007KT
                       P6SM -SHRA SCT020 BKN045 OVC070 FM1800 17010KT
                       P6SM -SHRA SCT030 BKN050 OVC070 FM0000 18010KT
                       P6SM SCT035 BKN060 OVC080=
200605240241 TAF AMD KPAE 240241Z 240324 17008KT P6SM SCT035 BKN060 OVC090
                      TEMPO 0405 -SHRA FM0500 16008KT P6SM -SHRA
                       BKN035 OVC050
                      TEMPO 0608 5SM SHRA BKN025 OVC035 FM1000
                       16006KT P6SM SCT020 BKN045 OVC090
                      TEMPO 1014 -SHRA FM2000 21010KT P6SM -SHRA
                       SCT025 BKN050 OVC080=
200605232324 TAF KPAE 232324Z 240024 16008KT P6SM -SHRA SCT020 BKN035 OVC080
                       TEMPO 0004 3SM -SHRA BR BKN010 OVC020 FM0900
                       15006KT P6SM SCT015 BKN040 OVC090
                      PROB30 0915 -SHRA BKN015 OVC050 FM2000 19012KT
                       P6SM -SHRA SCT025 BKN050 OVC080=
200605232300 KPAE 240241Z 240324 17008KT P6SM SCT035 BKN060 OVC090
                      TEMPO 0405 -SHRA FM0500 16008KT P6SM -SHRA
                       BKN035 OVC050
                      TEMPO 0608 5SM SHRA BKN025 OVC035 FM1000
                       16006KT P6SM SCT020 BKN045 OVC090
                      TEMPO 1014 -SHRA FM2000 21010KT P6SM -SHRA
                       SCT025 BKN050 OVC080=
200605231724 TAF KPAE 231724Z 231818 21006KT P6SM -SHRA SCT005 SCT040 OVC070
                       TEMPO 1822 2SM SHRA BR BKN005 OVC040 FM2200
                       21008KT P6SM SCT010 BKN040 OVC070
                      TEMPO 2202 -SHRA BKN010 OVC040 FM0200 18008KT
                       P6SM SCT020 BKN050 OVC090
                      TEMPO 0206 -SHRA BKN020 OVC050=
200605231120 TAF KPAE 231120Z 231212 12010KT P6SM BKN070 FM1400 12010KT P6SM
                       SCT040 BKN050 OVC070
                      TEMPO 1417 -SHRA FM1700 17014KT P6SM -SHRA
                       BKN035 OVC050
                      TEMPO 1921 SHRA BKN025 OVC050 FM2200 17014KT
                       P6SM VCSH BKN040 OVC060 FM0100 18012KT P6SM
                       VCSH SCT040 BKN070=
200605230539 TAF KPAE 230539Z 230606 14010KT P6SM SCT050 BKN080 FM0800 15010KT
                       P6SM BKN050 OVC080
                      TEMPO 0812 -SHRA FM1200 15010KT P6SM BKN045
                       OVC060
                      TEMPO 1216 -SHRA FM1600 17012KT P6SM -SHRA
                       BKN035 OVC050
                      TEMPO 1820 SHRA BKN025 OVC050 FM2200 17015KT
                       P6SM BKN040 OVC060=
200605230219 TAF AMD KPAE 230219Z 230224 16008KT P6SM SCT090 BKN200 FM1000 12005KT
                       P6SM SCT040 BKN080
                      TEMPO 1215 -RA BKN040 OVC080 FM1500 19010KT
                       P6SM -RA BKN030 OVC060=
200605222325 TAF KPAE 222325Z 230024 17008G18KT P6SM SCT020 BKN070
                      TEMPO 0004 -SHRA BKN020 OVC040 FM0400 12006KT
                       P6SM SCT040 BKN080
                      TEMPO 1215 -RA BKN040 OVC080 FM1500 19010KT
                       P6SM -RA BKN030 OVC060=
200605222300 KPAE 230219Z 230224 16008KT P6SM SCT090 BKN200 FM1000 12005KT P6SM
                       SCT040 BKN080
                      TEMPO 1215 -RA BKN040 OVC080 FM1500 19010KT
                       P6SM -RA BKN030 OVC060=
200605221728 TAF KPAE 221728Z 221818 20006KT P6SM -SHRA FEW006 BKN040 OVC060
                       TEMPO 1822 4SM -SHRA BKN025 OVC040 FM2200
                       19008KT P6SM -SHRA SCT030 BKN050 OVC090
                       TEMPO 2202 -SHRA BKN030 OVC050 FM0200 16008KT
                       P6SM SCT035 BKN060 BKN090
                      TEMPO 0206 -SHRA BKN035 OVC060 FM0600 15010KT
                       P6SM -SHRA BKN040 OVC080=
200605221125 KPAE 221125Z 221106 21005KT P6SM -SHRA SCT002 BKN040 OVC060
                      TEMPO 1216 2SM RA BKN002 FM1600 16005KT P6SM
                       VCSH SCT040 BKN050 BKN080 FM2000 22006KT
                       P6SM SCT050 BKN100=
200605221120 TAF KPAE 221120Z 221212 25005KT P6SM -SHRA SCT012 BKN040 OVC060
                       TEMPO 1216 4SM RA BR SCT001 BKN012 FM1600
                       16005KT P6SM VCSH SCT040 BKN050 BKN080 FM2000
                       22006KT P6SM SCT050 BKN100 FM1000 10004KT
                       P6SM -SHRA BKN045 BKN080=
200605220801 KPAE 220801Z 220806 12005KT P6SM SCT040 BKN060 BKN100
                      TEMPO 0809 -SHRA FM0900 14005KT P6SM -SHRA
                       SCT015 BKN040 OVC060
                      TEMPO 1014 -SHRA BKN015 FM1500 16006KT P6SM
                       SCT040 BKN050 BKN080 FM2000 18007KT P6SM
                       SCT050 BKN080=
200605220520 TAF KPAE 220520Z 220606 14005KT P6SM SCT040 SCT080 BKN100 FM1000
                       16005KT P6SM -SHRA SCT015 BKN040 OVC060
                       TEMPO 1216 -SHRA BKN015 FM1700 16006KT P6SM
                       SCT040 BKN050 BKN080 FM2000 18007KT P6SM
                       SCT050 BKN080=
200605220315 TAF AMD KPAE 220315Z 220324 26007KT P6SM SCT015 BKN050 OVC200
                      TEMPO 0304 -SHRA BKN015 BKN050 OVC080 FM0500
                       14007KT P6SM -SHRA BKN050 OVC090=
200605212328 TAF KPAE 212328Z 220024 26007KT P6SM SCT050 BKN080 OVC200
                      TEMPO 0004 -SHRA BKN050 OVC080 FM0500 14007KT
                       P6SM -SHRA BKN050 OVC090=
200605212300 KPAE 220315Z 220324 26007KT P6SM SCT015 BKN050 OVC200
                      TEMPO 0304 -SHRA BKN015 BKN050 OVC080 FM0500
                       14007KT P6SM -SHRA BKN050 OVC090=
200605211727 TAF KPAE 211727Z 211818 VRB04KT P6SM SCT250 FM2100 22005KT P6SM
                       SCT100 BKN250
                      TEMPO 2101 BKN100 BKN250 FM0100 21006KT P6SM
                       SCT060 BKN100
                      TEMPO 0105 -SHRA BKN060 OVC100 FM0500 14007KT
                       P6SM -SHRA BKN050 OVC090=
200605211120 TAF KPAE 211120Z 211212 02003KT P6SM SCT250 FM1900 20006KT P6SM
                       SCT040 BKN090 FM0300 18010KT P6SM BKN050
                       OVC100
                      TEMPO 0307 -SHRA=
200605210520 TAF KPAE 210520Z 210606 36006KT P6SM SCT250 FM1200 02003KT P6SM
                       SCT008
                      TEMPO 1215 BKN008 FM1800 18008KT P6SM SCT040
                       BKN080 FM0300 18010KT P6SM BKN050 OVC100
                       PROB30 0306 -SHRA=
200605202339 TAF KPAE 202339Z 210024 22010KT P6SM BKN040
                      TEMPO 0002 SCT040 FM0200 34007KT P6SM SCT040
                       BKN250 FM0600 36004KT P6SM SCT070 BKN250
                       FM1200 VRB03KT P6SM SCT008
                      TEMPO 1216 BKN008 FM1800 30008KT P6SM SCT040
                       BKN150=
200605201732 TAF KPAE 201732Z 201818 20010KT P6SM SCT020 BKN090 BKN200
                      TEMPO 1822 BKN020 BKN090 FM0100 34007KT P6SM
                       SCT040 BKN120 BKN200 FM0600 VRB03KT P6SM
                       SCT060 SCT200=
200605201414 KPAE 201414Z 201412 19005KT P6SM SCT008 BKN025 OVC050
                      TEMPO 1416 -SHRA BKN008 OVC025 FM1600 15003KT
                       P6SM BKN025 OVC050
                      TEMPO 1618 -SHRA FM1900 18005KT P6SM SCT020
                       BKN040 BKN100 FM2100 24005KT P6SM SCT035
                       BKN120 FM0200 34005KT P6SM SCT050 BKN200=
200605201145 KPAE 201145Z 201212 VRB03KT P6SM SCT008 BKN025 OVC050
                      TEMPO 1214 5SM -SHRA BKN008 OVC025 FM1400
                       15003KT P6SM BKN025 OVC050
                      TEMPO 1417 -SHRA FM1900 18005KT P6SM SCT020
                       BKN040 BKN100 FM2100 24005KT P6SM SCT035
                       BKN120 FM0200 34005KT P6SM SCT050 BKN200=
200605201120 TAF KPAE 201120Z 201212 VRB03KT P6SM BKN008 BKN020 OVC050
                      TEMPO 1214 5SM -SHRA BR BKN004 OVC008 FM1400
                       15003KT P6SM BKN008 BKN020 OVC050
                      TEMPO 1417 -SHRA FM1900 18005KT P6SM SCT020
                       BKN035 BKN100 FM2100 24005KT P6SM SCT035
                       BKN120 FM0200 34005KT P6SM SCT050 BKN200=
200605201050 KPAE 201050Z 201106 15005KT P6SM BKN008 BKN020 OVC050
                      TEMPO 1113 5SM -SHRA BR BKN004 OVC008 FM1300
                       15003KT P6SM BKN008 BKN020 OVC050
                      TEMPO 1316 -SHRA FM1900 18005KT P6SM SCT020
                       BKN035 BKN100 FM2100 24005KT P6SM SCT035
                       BKN120=
200605200530 TAF KPAE 200530Z 200606 15005KT P6SM BKN060 OVC110
                      TEMPO 0607 -SHRA BKN040 OVC110 FM1100 15003KT
                       P6SM BKN015 BKN040 OVC100 FM1900 21006KT
                       P6SM SCT030 BKN120=
200605192355 TAF KPAE 192355Z 200024 VRB05KT P6SM FEW014 SCT025 OVC130
                      TEMPO 0004 4SM -SHRA BR BKN014 BKN025 OVC130
                       FM0600 VRB03KT P6SM -SHRA BKN040 OVC070
                       FM1200 16007KT P6SM -SHRA OVC009 FM1900
                       32006KT P6SM SCT030 BKN130=
200605192342 TAF KPAE 192342Z 200024 VRB05KT P6SM FEW016 SCT027 OVC130
                      TEMPO 0004 4SM -SHRA BR SCT016 BKN028 OVC130
                       FM0600 VRB03KT P6SM -SHRA BKN040 OVC070
                       FM1200 16007KT P6SM -SHRA OVC009 FM1900
                       32006KT P6SM SCT030 BKN130=
200605191726 TAF KPAE 191726Z 191818 00000KT P6SM VCSH BKN060 OVC150 FM2100
                       VRB03KT P6SM SCT060 SCT150 FM0600 VRB03KT
                       P6SM -SHRA BKN040 OVC070 FM1200 VRB03KT
                       P6SM BKN012=
200605191139 TAF KPAE 191139Z 191212 34006KT P6SM BKN004 BKN150
                      TEMPO 1416 SCT004 BKN150 FM1700 34006KT P6SM
                       BKN150 FM0500 34006KT P6SM SCT060 OVC100
                       FM1000 34006KT P6SM -SHRA BKN040 OVC070=
200605190538 TAF KPAE 190538Z 190606 36008KT P6SM SCT250 FM1100 VRB03KT P6SM
                       SCT250 FM1400 VRB03KT P6SM SCT004 BKN150
                       FM1700 32006KT P6SM BKN150=
200605182333 TAF KPAE 182333Z 190024 33008KT P6SM SCT200 FM0600 VRB03KT P6SM
                       SCT200 FM1200 VRB03KT P6SM OVC012 FM1800
                       VRB03KT P6SM BKN020 BKN130 FM1900 24006KT
                       P6SM SCT060 BKN130=
200605181722 TAF KPAE 181722Z 181818 30007KT P6SM SCT200 FM0000 33009KT P6SM
                       SCT200 FM1000 01005KT P6SM FEW012 BKN200
                       FM1200 VRB03KT P6SM OVC012=
200605181140 TAF KPAE 181140Z 181212 VRB03KT P6SM SKC FM1900 34008KT P6SM SCT250
                       FM0900 VRB03KT P6SM BKN250=
200605180534 TAF KPAE 180534Z 180606 34008KT P6SM SCT250=
200605172338 TAF KPAE 172338Z 180024 32008KT P6SM SCT200 FM0300 36005KT P6SM
                       SCT200 FM1200 VRB03KT 6SM BR SCT007 SCT200
                       TEMPO 1216 BKN007 BKN200 FM1600 VRB03KT
                       P6SM SCT012 SCT200
                      TEMPO 1618 BKN012 BKN200 FM1800 33007KT P6SM
                       SCT200=
200605171744 TAF KPAE 171744Z 171818 33009KT P6SM BKN200 FM0300 36005KT P6SM
                       SCT200 FM1400 VRB03KT P6SM SCT007=
200605171123 TAF KPAE 171123Z 171212 02006KT P6SM SKC FM2000 34011KT P6SM SCT250=
200605170527 TAF KPAE 170527Z 170606 36008KT P6SM SKC FM2000 34011KT P6SM SKC=
200605162321 TAF KPAE 162321Z 170024 34011KT P6SM SKC FM0400 01004KT P6SM SKC
                       FM2000 34011KT P6SM SKC=
200605161720 TAF KPAE 161720Z 161818 26005KT P6SM SKC FM2100 31008KT P6SM SKC
                       FM0400 01004KT P6SM SKC=
200605161124 TAF KPAE 161124Z 161212 13007KT P6SM SCT250 FM2000 31006KT P6SM
                       SCT250 FM0400 01004KT P6SM SCT250=
200605160523 TAF KPAE 160523Z 160606 VRB03KT P6SM BKN200 FM1200 16006KT P6SM
                       SCT200 FM2000 31006KT P6SM SKC=
200605152320 TAF KPAE 152320Z 160024 34007KT P6SM BKN200 FM1100 16006KT P6SM
                       SCT200 FM1400 18011KT 4SM BR SCT005
                      TEMPO 1416 BKN005 FM1600 18011KT P6SM OVC010
                       FM1800 21011KT P6SM BKN020 FM1900 26006KT
                       P6SM FEW050=
200605151736 TAF KPAE 151736Z 151818 34008KT P6SM FEW110 BKN200 FM0300 VRB04KT
                       P6SM SCT070 SCT110 BKN200 FM1100 16006KT
                       P6SM SCT070 SCT200 FM1400 18011KT 4SM BR
                       SCT005
                      TEMPO 1416 BKN005 FM1600 18011KT P6SM OVC010=
200605151120 TAF KPAE 151120Z 151212 35004KT P6SM BKN200 FM2100 34009KT P6SM
                       BKN200 FM0300 31006KT P6SM BKN120 FM0900
                       18004KT P6SM SCT015 SCT120=
200605150520 TAF KPAE 150520Z 150606 36004KT P6SM SKC FM2100 34009KT P6SM SCT200=
200605142325 TAF KPAE 142325Z 150024 32007KT P6SM SKC FM0600 36004KT P6SM SKC
                       FM2100 34009KT P6SM SCT200=
200605141722 TAF KPAE 141722Z 141818 34005KT P6SM SKC FM2000 32006KT P6SM SKC
                       FM0600 36004KT P6SM SKC=
200605141120 TAF KPAE 141120Z 141212 34005KT P6SM SKC FM2000 32006KT P6SM SKC
                       FM0600 36004KT P6SM SKC=
200605140520 TAF KPAE 140520Z 140606 36005KT P6SM SKC FM2000 33006KT P6SM SKC=
200605132320 TAF KPAE 132320Z 140024 33008KT P6SM SCT250 FM0400 36005KT P6SM
                       SKC FM2000 33006KT P6SM SKC=
200605131736 TAF KPAE 131736Z 131818 VRB06KT P6SM SKC FM1900 31006KT P6SM SCT200
                       FM0300 36005KT P6SM SCT200=
200605131120 TAF KPAE 131120Z 131212 36005KT P6SM BKN200
                      TEMPO 1214 BKN009 FM1900 31006KT P6SM SCT200
                       FM0300 36005KT P6SM SCT200=
200605130520 TAF KPAE 130520Z 130606 35004KT P6SM FEW100 SCT200 FM1000 VRB03KT
                       P6SM SCT200 FM1900 31006KT P6SM SCT200 FM0300
                       35005KT P6SM SCT200=
200605122330 TAF KPAE 122330Z 130024 01006KT P6SM SCT070
                      TEMPO 0004 BKN070 FM0400 36004KT P6SM SKC
                       FM1900 31006KT P6SM FEW060=
200605121723 TAF KPAE 121723Z 121818 33003KT P6SM VCSH OVC025 FM2100 34009KT
                       P6SM VCSH SCT030 BKN045
                      TEMPO 2124 -SHRA BKN030 FM0400 36004KT P6SM
                       FEW080=
200605121344 KPAE 121344Z 121412 14006KT P6SM VCSH SCT015 BKN025 BKN035
                      TEMPO 1417 2SM SHRA SCT010 OVC015 FM1900
                       24006KT P6SM VCSH SCT030 BKN045 FM2200 34009KT
                       P6SM VCSH SCT030 BKN045
                      TEMPO 2224 -SHRA BKN030 FM0400 36004KT P6SM
                       FEW080=
200605121120 TAF KPAE 121120Z 121212 16005KT P6SM VCSH SCT015 BKN030
                      TEMPO 1216 6SM -SHRA BR BKN015 FM1900 24006KT
                       P6SM VCSH SCT030 BKN045 FM2200 34009KT P6SM
                       VCSH SCT030 BKN045
                      TEMPO 2224 -SHRA BKN030 FM0400 36004KT P6SM
                       FEW080=
200605120520 TAF KPAE 120520Z 120606 35006KT P6SM VCSH OVC030 FM1200 16005KT
                       P6SM SCT015 BKN030 FM1900 24006KT P6SM VCSH
                       SCT030 BKN045 FM2300 34009KT P6SM VCSH SCT045
                       BKN060=
200605112335 TAF KPAE 112335Z 120024 34007KT 6SM -SHRA SCT025 BKN030 OVC045
                       FM0600 36006KT P6SM VCSH SCT012 BKN018 OVC030
                       FM1200 06004KT P6SM VCSH SCT015 BKN030 FM1900
                       27005KT P6SM VCSH SCT030 BKN045 FM2300 34005KT
                       P6SM SCT045 BKN060=
200605111917 KPAE 111917Z 111918 34004KT P6SM SCT015 BKN035 OVC045
                      TEMPO 1923 6SM -SHRA BKN015 OVC035 FM0100
                       36005KT P6SM VCSH SCT030 BKN050 FM1200 06004KT
                       P6SM VCSH SCT015 BKN030=
200605111740 TAF KPAE 111740Z 111818 22005KT P6SM SCT060 BKN080 OVC120
                      TEMPO 1821 -RA SCT040 BKN060 OVC080 FM2100
                       34005KT 6SM -SHRA SCT020 BKN030 FM0100 36005KT
                       P6SM VCSH SCT035 BKN050 FM1200 06004KT P6SM
                       VCSH SCT015 BKN030=
200605111120 TAF KPAE 111120Z 111212 35004KT P6SM BKN100 OVC200 FM1500 VRB03KT
                       P6SM SCT025 BKN050 OVC100 FM2000 31008KT
                       P6SM VCSH SCT035 OVC070
                      TEMPO 2202 -SHRA OVC030 FM0500 27008KT P6SM
                       SCT030 FM1000 17008KT P6SM BKN030=
200605110520 TAF KPAE 110520Z 110606 35004KT P6SM SCT150 OVC200 FM1500 VRB03KT
                       P6SM SCT025 BKN050 OVC080 FM2000 31008KT
                       P6SM VCSH SCT035 BKN045 OVC070
                      TEMPO 2202 -SHRA OVC030=
200605102341 TAF KPAE 102341Z 110024 35004KT P6SM SCT150 OVC200 FM1500 VRB03KT
                       P6SM SCT025 BKN050 OVC080 FM2000 31008KT
                       P6SM VCSH SCT035 BKN045 OVC070=
200605101732 TAF KPAE 101732Z 101818 33004KT P6SM BKN200 FM2100 31008KT P6SM
                       BKN200 FM0400 34004KT P6SM BKN200 FM1400
                       21007KT P6SM SCT030 BKN080 OVC200=
200605101120 TAF KPAE 101120Z 101212 33004KT P6SM BKN200 FM1900 31008KT P6SM
                       BKN200 FM0400 34004KT P6SM BKN200=
200605100520 TAF KPAE 100520Z 100606 01005KT P6SM BKN250 FM1900 31008KT P6SM
                       BKN200=
200605092324 TAF KPAE 092324Z 100024 32007KT P6SM SCT200 FM0300 36005KT P6SM
                       BKN200 FM1400 36005KT P6SM SCT012 BKN200
                       FM1900 31008KT P6SM FEW040 BKN200=
200605091730 TAF KPAE 091730Z 091818 33008KT P6SM SKC FM0300 36005KT P6SM SCT200=
200605091436 KPAE 091436Z 091512 02004KT P6SM SCT015
                      TEMPO 1517 BKN015 FM2000 33006KT P6SM SCT250
                       FM0600 VRB04KT P6SM SCT250=
200605091120 TAF KPAE 091120Z 091212 02004KT P6SM SCT250 FM2000 33006KT P6SM
                       SCT250 FM0600 VRB04KT P6SM SCT250=
200605090520 TAF KPAE 090520Z 090606 33006KT P6SM SCT080 SCT200 FM0800 01004KT
                       P6SM SCT200 FM2000 34007KT P6SM SCT250=
200605082324 TAF KPAE 082324Z 090024 36007KT P6SM SCT050
                      TEMPO 0003 BKN050 FM0600 VRB04KT P6SM SCT250
                       FM2000 34007KT P6SM SCT250=
200605081732 TAF KPAE 081732Z 081818 23007KT P6SM SCT025 BKN060
                      TEMPO 1822 -SHRA BKN025 BKN060 FM2200 33008KT
                       P6SM SCT035 SCT050 FM0400 36004KT P6SM SCT250=
200605081120 TAF KPAE 081120Z 081212 33007KT P6SM SCT030 BKN060
                      TEMPO 1215 BKN030 BKN060 FM1800 31006KT P6SM
                       BKN070 FM2200 33008KT P6SM SCT070 FM0400
                       36004KT P6SM FEW060=
200605080529 TAF KPAE 080529Z 080606 VRB04KT P6SM OVC015
                      TEMPO 0610 -SHRA SCT015 OVC035 FM1000 VRB05KT
                       P6SM BKN025 BKN040 FM1200 16005KT P6SM BKN035
                       BKN060 FM1800 31006KT P6SM SCT040 BKN070
                       FM2200 33008KT P6SM SCT060 SCT200=
200605080401 TAF AMD KPAE 080401Z 080424 VRB05KT P6SM SCT020 BKN035 OVC050
                      TEMPO 0408 -SHRA BKN015 OVC035 FM0800 VRB05KT
                       P6SM VCSH BKN025 BKN040 FM1200 16005KT P6SM
                       VCSH BKN040 BKN060=
200605072322 TAF KPAE 072322Z 080024 VRB05KT P6SM SCT020 BKN030 BKN050
                      TEMPO 0004 -SHRA BKN015 OVC030 FM0400 31006KT
                       P6SM SCT020 BKN035 BKN050
                      TEMPO 0408 -SHRA FM0800 VRB05KT P6SM VCSH
                       BKN025 BKN040 FM1200 16005KT P6SM VCSH BKN040
                       BKN060=
200605072300 KPAE 080401Z 080424 VRB05KT P6SM SCT020 BKN035 OVC050
                      TEMPO 0408 -SHRA BKN015 OVC035 FM0800 VRB05KT
                       P6SM VCSH BKN025 BKN040 FM1200 16005KT P6SM
                       VCSH BKN040 BKN060=
200605071740 TAF KPAE 071740Z 071818 18014KT P6SM VCSH BKN015 OVC035 FM2000
                       20010KT P6SM BKN015 OVC030 FM2100 34006KT
                       P6SM -SHRA SCT007 BKN015 OVC025
                      TEMPO 2124 5SM -SHRA BR BKN007 OVC015 FM0000
                       VRB05KT P6SM -SHRA BKN020 OVC035 FM0600
                       31006KT P6SM BKN040 BKN060=
200605071129 TAF KPAE 071129Z 071212 16014G20KT P6SM SCT015 OVC070
                      TEMPO 1216 -RA BKN015 OVC070 FM1600 18016G24KT
                       P6SM -SHRA BKN035 OVC080 FM0100 31006KT
                       P6SM BKN040 BKN080 FM0600 15006KT P6SM BKN050
                       BKN090=
200605070520 TAF KPAE 070520Z 070606 VRB04KT P6SM SCT040 OVC060
                      TEMPO 0608 -RA OVC040 FM0800 15010KT P6SM
                       -RA BKN020 OVC035 FM1500 16014KT P6SM -RA
                       BKN015 OVC035 FM1900 18012KT P6SM -SHRA
                       SCT009 BKN020 OVC035 FM0100 31006KT P6SM
                       BKN040 BKN070=
200605062320 TAF KPAE 062320Z 070024 34006KT P6SM SCT030 BKN045 OVC070 FM0600
                       15008KT P6SM -RA BKN035 OVC050 FM0800 15010KT
                       P6SM -RA BKN020 OVC035 FM1500 16014KT P6SM
                       -RA BKN015 OVC035 FM1900 31008KT P6SM -SHRA
                       SCT009 BKN020 OVC035=
200605062228 KPAE 062228Z 062218 34006KT P6SM SCT030 BKN045 OVC070 FM0800 15010KT
                       P6SM -RA BKN015 OVC030=
200605061722 TAF KPAE 061722Z 061818 30004KT P6SM BKN020 OVC040 FM2000 VRB05KT
                       P6SM BKN025 OVC045 FM2200 VRB05KT P6SM BKN030
                       OVC045 FM0800 15010KT P6SM -RA BKN015 OVC030=
200605061514 KPAE 061514Z 061512 15004KT P6SM BKN015 OVC030
                      TEMPO 1517 BKN009 OVC025 FM1800 19008KT P6SM
                       SCT025 OVC045 FM2100 21008KT P6SM BKN045
                       FM0800 15010KT P6SM -RA BKN025 OVC040=
200605061128 TAF KPAE 061128Z 061212 15004KT P6SM SCT020 OVC040
                      TEMPO 1317 -RA OVC020 FM1800 19008KT P6SM
                       SCT025 OVC045 FM2100 21008KT P6SM BKN045
                       FM0800 15010KT P6SM -RA BKN025 OVC040=
200605060657 KPAE 060657Z 060706 VRB05KT P6SM SCT010 BKN250
                      TEMPO 0711 BKN010 BKN250 FM1100 17007KT P6SM
                       OVC012 FM1800 18006KT P6SM OVC020 FM2100
                       20007KT P6SM OVC030=
200605060527 TAF KPAE 060527Z 060606 01006KT P6SM BKN250 FM1200 17007KT P6SM
                       OVC012 FM1800 18006KT P6SM OVC020 FM2100
                       20007KT P6SM OVC030=
200605052320 TAF KPAE 052320Z 060024 35006KT P6SM BKN200 FM1100 17007KT P6SM
                       OVC012 FM1800 18006KT P6SM OVC020 FM2100
                       20007KT P6SM OVC030=
200605051731 TAF KPAE 051731Z 051818 24008KT P6SM OVC250 FM0000 30006KT P6SM
                       OVC200 FM0300 35006KT P6SM OVC200 FM1100
                       20005KT P6SM BKN012 FM1300 18006KT P6SM
                       OVC012 FM1700 18005KT P6SM OVC020=
200605051120 TAF KPAE 051120Z 051212 11007KT P6SM SKC FM1800 26005KT P6SM BKN250
                       FM0000 33012KT P6SM BKN250 FM1100 VRB03KT
                       P6SM BKN015=
200605050527 TAF KPAE 050527Z 050606 00000KT P6SM SKC FM1800 26005KT P6SM BKN250
                       FM0000 33012KT P6SM BKN250=
200605042320 TAF KPAE 042320Z 050024 34007KT P6SM BKN250 FM0500 02004KT P6SM
                       BKN250 FM0800 05003KT P6SM BKN250 FM1800
                       26005KT P6SM BKN250=
200605041720 TAF KPAE 041720Z 041818 33008KT P6SM BKN250 FM0400 36004KT P6SM
                       BKN250 FM0800 03003KT P6SM BKN250=
200605041120 TAF KPAE 041120Z 041212 01003KT P6SM SKC FM1800 33008KT P6SM SCT250
                       FM0400 36005KT P6SM SCT250 FM0800 03003KT
                       P6SM SCT250=
200605040523 TAF KPAE 040523Z 040606 33005KT P6SM FEW250 FM0800 36005KT P6SM
                       SCT250 FM1800 33008KT P6SM SCT250 FM0400
                       36005KT P6SM SCT250=
200605032332 TAF KPAE 032332Z 040024 35009KT P6SM SKC FM0600 04003KT P6SM SKC
                       FM1800 33006KT P6SM SCT250=
200605031728 TAF KPAE 031728Z 031818 34012KT P6SM SKC FM0400 04003KT P6SM SKC=
200605031120 TAF KPAE 031120Z 031212 35004KT P6SM SKC FM1800 33007KT P6SM SKC
                       FM2200 35012KT P6SM SKC FM0400 36005KT P6SM
                       SKC=
200605030520 TAF KPAE 030520Z 030606 35006KT P6SM SKC FM0900 03003KT P6SM SKC
                       FM1800 33007KT P6SM SKC FM2200 35012KT P6SM
                       SKC FM0400 36005KT P6SM SKC=
200605022322 TAF KPAE 022322Z 030024 35012KT P6SM SCT200 FM0500 VRB05KT P6SM
                       SKC FM1800 33007KT P6SM SKC=
200605021726 TAF KPAE 021726Z 021818 34008KT P6SM SCT200 FM2200 35012KT P6SM
                       SCT200 FM0400 36008KT P6SM SKC FM0800 02003KT
                       P6SM SKC=
200605020520 TAF KPAE 020520Z 020606 32006KT P6SM SKC FM1000 02003KT P6SM SKC
                       FM1800 34008KT P6SM SKC FM2200 35012KT P6SM
                       SKC FM0400 36008KT P6SM SKC=
200605020201 TAF AMD KPAE 020201Z 020224 31009KT P6SM SKC FM0600 03008KT P6SM
                       SKC FM1400 VRB04KT P6SM SCT010 FM1800 34008KT
                       P6SM SKC=
200605012321 TAF KPAE 012321Z 020024 35012KT P6SM SCT060 FM0600 03008KT P6SM
                       SKC FM1400 VRB04KT P6SM SCT010 FM1800 34008KT
                       P6SM SKC=
200605012300 KPAE 020201Z 020224 31009KT P6SM SKC FM0600 03008KT P6SM SKC FM1400
                       VRB04KT P6SM SCT010 FM1800 34008KT P6SM
                       SKC=
200605011926 KPAE 011926Z 011918 30015KT P6SM SCT040 FM2200 33012KT P6SM SCT040
                       FM0400 04006KT P6SM SKC=
200605011725 TAF KPAE 011725Z 011818 27008KT P6SM VCSH SCT025 BKN040
                      TEMPO 1822 BKN025 FM2200 33012KT P6SM SCT040
                       FM0400 04006KT P6SM SKC=
200605011120 TAF KPAE 011120Z 011212 36005KT P6SM VCSH SCT045 BKN060 FM1300
                       32006KT P6SM VCSH SCT030 BKN045
                      TEMPO 1418 -SHRA BKN030 OVC045 FM1900 34008KT
                       P6SM SCT040 BKN060 FM2200 34009KT P6SM SCT060
                       FM0300 36005KT P6SM SKC=
200605010540 TAF KPAE 010540Z 010606 35005KT P6SM SCT250 FM0900 36005KT P6SM
                       SCT060 BKN150 FM1300 32006KT P6SM SCT030
                       BKN045
                      TEMPO 1418 SCT020 BKN030 OVC045 FM1900 34008KT
                       P6SM SCT040 BKN060 FM2200 34009KT P6SM SCT060
                       FM0100 33006KT P6SM SKC=