##########################################################
# Query made at 02/18/2025 18:55:04 UTC
# Time interval: from 03/01/2007 00:00  to 03/31/2007 23:59  UTC
##########################################################

##########################################################
# KPAE, Everett, Snohomish County Airport (United States)
# WMO index: -----. WIGOS ID: Unknown
# Latitude 47-55-23N. Longitude 122-16-57W. Altitude 184 m.
##########################################################

###################################
#  METAR/SPECI from KPAE
###################################
200703312353 METAR KPAE 312353Z AUTO 35004KT 10SM CLR 09/00 A3007 RMK AO2 SLP184 T00890000 10094 20061 58003 TSNO=
200703312253 METAR KPAE 312253Z 35004KT 10SM BKN037 08/01 A3008 RMK AO2 SLP188 T00830011=
200703312153 METAR KPAE 312153Z 34007KT 310V020 10SM OVC039 08/01 A3008 RMK AO2 SLP188 T00780006=
200703312053 METAR KPAE 312053Z 34008KT 10SM FEW025 BKN044 BKN060 08/M01 A3008 RMK AO2 SLP187 T00781011 58003=
200703311953 METAR KPAE 311953Z COR 36009KT 10SM FEW020 BKN044 08/02 A3009 RMK AO2 SLP191 T00780022=
200703311900 SPECI KPAE 311900Z 33007KT 10SM BKN048 OVC060 07/03 A3009 RMK AO2=
200703311900 SPECI KPAE 311900Z 33007KT 10SM BKN048 OVC060 07/03 A3009 RMK AO2=
200703311853 METAR KPAE 311853Z 35006KT 10SM BKN011 BKN034 OVC050 07/03 A3008 RMK AO2 SLP190 T00670028=
200703311753 METAR KPAE 311753Z 35007KT 10SM BKN011 OVC050 06/03 A3009 RMK AO2 RAE00 SLP191 P0000 60003 T00610033 10061 20050 53003=
200703311700 SPECI KPAE 311700Z 35006KT 10SM BKN011 OVC050 06/03 A3008 RMK AO2 RAE00 P0000=
200703311700 SPECI KPAE 311700Z 35006KT 10SM BKN011 OVC050 06/03 A3008 RMK AO2 RAE00 P0000=
200703311653 METAR KPAE 311653Z 35007KT 10SM -RA SCT011 OVC050 06/03 A3008 RMK AO2 SLP188 P0002 T00560028=
200703311645 SPECI KPAE 311645Z 34006KT 10SM -RA SCT011 OVC050 06/03 A3008 RMK AO2 P0002=
200703311645 SPECI KPAE 311645Z 34006KT 10SM -RA SCT011 OVC050 06/03 A3008 RMK AO2 P0002=
200703311600 SPECI KPAE 311600Z 36007KT 10SM -RA FEW011 OVC046 05/03 A3007 RMK AO2 P0000=
200703311600 SPECI KPAE 311600Z 36007KT 10SM -RA FEW011 OVC046 05/03 A3007 RMK AO2 P0000=
200703311553 METAR KPAE 311553Z 36008KT 10SM -RA BKN010 OVC043 05/03 A3007 RMK AO2 SLP186 P0000 T00500028=
200703311502 SPECI KPAE 311502Z 36006KT 10SM -RA BKN010 OVC043 05/03 A3007 RMK AO2 P0000=
200703311502 SPECI KPAE 311502Z 36006KT 10SM -RA BKN010 OVC043 05/03 A3007 RMK AO2 P0000=
200703311453 METAR KPAE 311453Z 36008KT 10SM -RA SCT010 OVC041 05/03 A3008 RMK AO2 RAE00B23 SLP188 P0000 60001 T00500033 53001=
200703311401 SPECI KPAE 311401Z 36005KT 10SM FEW008 SCT016 OVC039 05/04 A3007=
200703311353 METAR KPAE 311353Z AUTO 35005KT 9SM -RA FEW008 BKN016 OVC039 05/04 A3007 RMK AO2 RAB35 SLP186 P0001 T00500039=
200703311333 SPECI KPAE 311333Z AUTO 35005KT 10SM FEW006 OVC016 05/04 A3007 RMK AO2=
200703311333 SPECI KPAE 311333Z AUTO 35005KT 10SM FEW006 OVC016 05/04 A3007 RMK AO2=
200703311253 METAR KPAE 311253Z AUTO 36006KT 8SM FEW008 OVC014 05/03 A3007 RMK AO2 SLP185 T00500033=
200703311236 SPECI KPAE 311236Z AUTO 36007KT 9SM SCT008 OVC014 05/04 A3007 RMK AO2=
200703311236 SPECI KPAE 311236Z AUTO 36007KT 9SM SCT008 OVC014 05/04 A3007 RMK AO2=
200703311153 METAR KPAE 311153Z AUTO 35005KT 9SM BKN006 OVC030 05/04 A3007 RMK AO2 CIG 003V010 SLP186 60005 70006 T00500044 10083 20050 58005=
200703311121 SPECI KPAE 311121Z AUTO 36009KT 10SM SCT003 SCT010 OVC030 05/04 A3007 RMK AO2=
200703311053 METAR KPAE 311053Z AUTO 36007KT 6SM BR OVC003 06/04 A3008 RMK AO2 RAE38 CIG 001V006 SLP187 P0001 T00560044=
200703311036 SPECI KPAE 311036Z AUTO 35008KT 4SM -RA BR OVC001 06/04 A3008 RMK AO2 P0001=
200703311036 SPECI KPAE 311036Z AUTO 35008KT 4SM -RA BR OVC001 06/04 A3008 RMK AO2 P0001=
200703311014 SPECI KPAE 311014Z AUTO 35006KT 2SM -RA BR OVC001 06/05 A3008=
200703311004 SPECI KPAE 311004Z AUTO 35008KT 1 3/4SM -RA BR OVC001 06/05 A3009 RMK AO2 P0000=
200703311004 SPECI KPAE 311004Z AUTO 35008KT 1 3/4SM -RA BR OVC001 06/05 A3009 RMK AO2 P0000=
200703310953 METAR KPAE 310953Z AUTO 35007KT 2SM -RA BR BKN001 OVC005 06/05 A3009 RMK AO2 SLP190 P0001 T00560050=
200703310936 SPECI KPAE 310936Z AUTO 35006KT 2SM -RA BR BKN001 OVC007 06/05 A3008 RMK AO2 CIG 001V004 P0001=
200703310936 SPECI KPAE 310936Z AUTO 35006KT 2SM -RA BR BKN001 OVC007 06/05 A3008 RMK AO2 CIG 001V004 P0001=
200703310910 SPECI KPAE 310910Z AUTO 34006KT 2 1/2SM -RA BR BKN004 OVC011 06/05 A3009 RMK AO2 CIG 002V008 P0000=
200703310910 SPECI KPAE 310910Z AUTO 34006KT 2 1/2SM -RA BR BKN004 OVC011 06/05 A3009 RMK AO2 CIG 002V008 P0000=
200703310853 METAR KPAE 310853Z AUTO 36005KT 4SM -RA BR FEW004 OVC011 06/06 A3009 RMK AO2 RAB46 SLP190 P0000 60003 T00610056 55003=
200703310800 SPECI KPAE 310800Z AUTO 34005KT 9SM OVC005 07/06 A3009 RMK AO2 CIG 002V008=
200703310800 SPECI KPAE 310800Z AUTO 34005KT 9SM OVC005 07/06 A3009 RMK AO2 CIG 002V008=
200703310753 METAR KPAE 310753Z AUTO 34004KT 9SM BKN003 OVC020 07/06 A3009 RMK AO2 RAE30 CIG 001V007 SLP190 P0001 T00670056 401220067=
200703310734 SPECI KPAE 310734Z AUTO 36005KT 7SM BKN003 OVC027 07/06 A3009 RMK AO2 RAE30 CIG 001V005 P0001=
200703310722 SPECI KPAE 310722Z AUTO 34005KT 7SM -RA FEW003 BKN027 OVC049 07/06 A3009 RMK AO2 P0000=
200703310722 SPECI KPAE 310722Z AUTO 34005KT 7SM -RA FEW003 BKN027 OVC049 07/06 A3009 RMK AO2 P0000=
200703310653 METAR KPAE 310653Z AUTO 35004KT 6SM -RA BR FEW025 BKN035 OVC049 07/06 A3010 RMK AO2 SLP193 P0002 T00720061=
200703310650 SPECI KPAE 310650Z AUTO 35004KT 6SM -RA BR SCT023 BKN035 OVC049 07/06 A3010 RMK AO2 P0001=
200703310650 SPECI KPAE 310650Z AUTO 35004KT 6SM -RA BR SCT023 BKN035 OVC049 07/06 A3010 RMK AO2 P0001=
200703310553 METAR KPAE 310553Z AUTO 00000KT 9SM -RA OVC021 08/06 A3010 RMK AO2 RAB10 SLP193 P0001 60001 T00830061 10117 20083 58002=
200703310537 SPECI KPAE 310537Z AUTO 00000KT 9SM -RA FEW008 OVC021 08/06 A3010 RMK AO2 RAB10 P0000=
200703310537 SPECI KPAE 310537Z AUTO 00000KT 9SM -RA FEW008 OVC021 08/06 A3010 RMK AO2 RAB10 P0000=
200703310453 METAR KPAE 310453Z AUTO 00000KT 10SM OVC019 09/06 A3010 RMK AO2 RAB0355E20 SLP195 P0000 T00890061=
200703310427 SPECI KPAE 310427Z 00000KT 10SM BKN019 BKN050 OVC060 09/06 A3010 RMK AO2 RAB0355E20 P0000=
200703310427 SPECI KPAE 310427Z 00000KT 10SM BKN019 BKN050 OVC060 09/06 A3010 RMK AO2 RAB0355E20 P0000=
200703310411 SPECI KPAE 310411Z 00000KT 8SM -RA SCT019 BKN050 OVC060 09/07 A3011 RMK AO2 RAB0355 P0000=
200703310411 SPECI KPAE 310411Z 00000KT 8SM -RA SCT019 BKN050 OVC060 09/07 A3011 RMK AO2 RAB0355 P0000=
200703310353 METAR KPAE 310353Z 26003KT 10SM BKN022 OVC055 09/06 A3011 RMK AO2 RAB36E48 SLP197 P0000 T00890061=
200703310345 SPECI KPAE 310345Z 31003KT 10SM -RA FEW020 BKN024 OVC055 09/06 A3011 RMK AO2 RAB36 P0000=
200703310345 SPECI KPAE 310345Z 31003KT 10SM -RA FEW020 BKN024 OVC055 09/06 A3011 RMK AO2 RAB36 P0000=
200703310253 METAR KPAE 310253Z 26004KT 10SM FEW022 BKN065 OVC080 09/07 A3010 RMK AO2 SLP195 T00890067 56007=
200703310232 SPECI KPAE 310232Z 28006KT 10SM SCT022 OVC080 09/06 A3011 RMK AO2=
200703310232 SPECI KPAE 310232Z 28006KT 10SM SCT022 OVC080 09/06 A3011 RMK AO2=
200703310153 METAR KPAE 310153Z 24005KT 10SM BKN024 OVC065 10/04 A3011 RMK AO2 SLP198 T01000044=
200703310141 SPECI KPAE 310141Z 26006KT 10SM SCT022 BKN029 OVC065 10/04 A3011 RMK AO2=
200703310141 SPECI KPAE 310141Z 26006KT 10SM SCT022 BKN029 OVC065 10/04 A3011 RMK AO2=
200703310053 METAR KPAE 310053Z 15004KT 10SM SCT034 OVC065 11/04 A3011 RMK AO2 SLP198 T01110044=
200703302353 METAR KPAE 302353Z AUTO 26004KT 10SM FEW034 OVC090 12/04 A3012 RMK AO2 SLP203 T01170039 10122 20100 56004 TSNO=
200703302253 METAR KPAE 302253Z 28004KT 10SM OVC110 12/03 A3013 RMK AO2 SLP203 T01170028=
200703302153 METAR KPAE 302153Z 26004KT 10SM BKN110 12/03 A3013 RMK AO2 SLP202 T01170028=
200703302053 METAR KPAE 302053Z 32003KT 10SM SCT050 BKN065 BKN095 12/03 A3014 RMK AO2 SLP207 T01170033 58003=
200703301953 METAR KPAE 301953Z 26006KT 10SM OVC070 11/02 A3014 RMK AO2 SLP210 T01060017=
200703301853 METAR KPAE 301853Z 34004KT 10SM OVC080 10/04 A3015 RMK AO2 SLP211 T01000039=
200703301753 METAR KPAE 301753Z 36003KT 10SM FEW060 SCT095 BKN110 10/04 A3015 RMK AO2 SLP210 T01000039 10100 20067 53003=
200703301653 METAR KPAE 301653Z 35004KT 10SM BKN075 09/04 A3014 RMK AO2 SLP208 T00890044=
200703301553 METAR KPAE 301553Z 19006KT 10SM BKN100 09/03 A3013 RMK AO2 SLP206 T00890033=
200703301453 METAR KPAE 301453Z 00000KT 10SM OVC110 08/05 A3014 RMK AO2 SLP207 T00780050 56002=
200703301353 METAR KPAE 301353Z 00000KT 10SM BKN110 07/04 A3014 RMK AO2 SLP209 T00720044=
200703301253 METAR KPAE 301253Z AUTO 14006KT 10SM CLR 07/04 A3013 RMK AO2 SLP202 T00720039=
200703301153 METAR KPAE 301153Z AUTO 28004KT 10SM CLR 07/04 A3014 RMK AO2 SLP208 T00670039 10106 20067 55001=
200703301053 METAR KPAE 301053Z AUTO 25006KT 10SM CLR 07/04 A3014 RMK AO2 SLP206 T00720039=
200703300953 METAR KPAE 300953Z AUTO 15007KT 10SM CLR 10/03 A3013 RMK AO2 SLP203 T01000028=
200703300853 METAR KPAE 300853Z AUTO 00000KT 10SM CLR 08/03 A3015 RMK AO2 SLP210 T00830033 57011=
200703300753 METAR KPAE 300753Z AUTO 00000KT 10SM CLR 09/03 A3016 RMK AO2 SLP214 T00890028 401560033=
200703300653 METAR KPAE 300653Z AUTO 00000KT 10SM CLR 08/03 A3017 RMK AO2 SLP218 T00830033=
200703300553 METAR KPAE 300553Z AUTO 00000KT 10SM CLR 09/03 A3018 RMK AO2 SLP222 T00940028 10156 20083 58012=
200703300453 METAR KPAE 300453Z AUTO 03005KT 10SM CLR 09/03 A3020 RMK AO2 SLP228 T00890028=
200703300353 METAR KPAE 300353Z AUTO 02003KT 10SM CLR 10/03 A3021 RMK AO2 SLP233 T01000033=
200703300253 METAR KPAE 300253Z 01004KT 10SM CLR 09/04 A3022 RMK AO2 SLP235 T00940044 56016=
200703300153 METAR KPAE 300153Z 00000KT 10SM CLR 13/02 A3023 RMK AO2 SLP238 T01330017=
200703300053 METAR KPAE 300053Z 22005KT 10SM CLR 15/00 A3024 RMK AO2 SLP242 T01500000=
200703292353 METAR KPAE 292353Z 24003KT 10SM CLR 14/01 A3026 RMK AO2 SLP250 T01440006 10150 20089 56026=
200703292253 METAR KPAE 292253Z 26004KT 10SM CLR 14/M01 A3028 RMK AO2 SLP257 T01441006=
200703292153 METAR KPAE 292153Z 26004KT 10SM CLR 14/00 A3031 RMK AO2 SLP265 T01440000=
200703292053 METAR KPAE 292053Z 23003KT 10SM CLR 14/02 A3034 RMK AO2 SLP276 T01390022 58023=
200703291953 METAR KPAE 291953Z 30004KT 10SM CLR 11/03 A3037 RMK AO2 SLP285 T01110028=
200703291853 METAR KPAE 291853Z 30005KT 10SM CLR 12/02 A3039=
200703291753 METAR KPAE 291753Z 10SM CLR 09/02 A3041 RMK AO2 SLP299 T00890022 10089 20033 56011 $=
200703291653 METAR KPAE 291653Z 10SM CLR 08/02 A3042=
200703291553 METAR KPAE 291553Z 10SM CLR 06/00 A3043 RMK AO2 SLP307 T00610000 $=
200703291453 METAR KPAE 291453Z 12004KT 10SM CLR 04/00 A3044=
200703291353 METAR KPAE 291353Z 10007KT 10SM CLR 03/00 A3044 RMK AO2 SLP313 T00330000=
200703291253 METAR KPAE 291253Z AUTO 00000KT 10SM CLR 03/00 A3046 RMK AO2 SLP318 T00330000=
200703291153 METAR KPAE 291153Z AUTO 11003KT 10SM CLR 03/01 A3047 RMK AO2 SLP320 T00330006 10072 20033 56011=
200703291053 METAR KPAE 291053Z AUTO 12007KT 10SM CLR 05/01 A3047 RMK AO2 SLP323 T00500006=
200703290953 METAR KPAE 290953Z AUTO 12005KT 10SM CLR 05/01 A3049 RMK AO2 SLP328 T00500006=
200703290853 METAR KPAE 290853Z AUTO 11007KT 10SM CLR 05/01 A3050 RMK AO2 SLP331 T00500006 58013=
200703290753 METAR KPAE 290753Z AUTO 05004KT 10SM CLR 06/M01 A3051 RMK AO2 SLP336 T00561006 401060011=
200703290653 METAR KPAE 290653Z AUTO 02003KT 10SM CLR 07/M01 A3053 RMK AO2 SLP341 T00671006=
200703290553 METAR KPAE 290553Z AUTO 04004KT 10SM CLR 07/M01 A3054 RMK AO2 SLP344 T00721006 10106 20056 50001=
200703290453 METAR KPAE 290453Z 01004KT 10SM CLR 07/M01 A3054 RMK AO2 SLP345 T00671011=
200703290353 METAR KPAE 290353Z 00000KT 10SM CLR 08/M02 A3053 RMK AO2 SLP343 T00781017=
200703290253 METAR KPAE 290253Z 00000KT 10SM SCT110 08/M02 A3054 RMK AO2 SLP344 T00831017 58006=
200703290153 METAR KPAE 290153Z 00000KT 10SM CLR 09/M01 A3054 RMK AO2 SLP348 T00891011=
200703290053 METAR KPAE 290053Z 35004KT 10SM CLR 10/M01 A3056 RMK AO2 SLP352 T01001011=
200703282353 METAR KPAE 282353Z VRB05KT 10SM FEW070 10/M01 A3055 RMK AO2 SLP350 T01001006 10106 20067 55002=
200703282253 METAR KPAE 282253Z VRB04KT 10SM SCT070 11/M01 A3055 RMK AO2 SLP347 T01061006=
200703282153 METAR KPAE 282153Z VRB06KT 10SM SCT070 11/M02 A3055 RMK AO2 SLP348 T01061022=
200703282053 METAR KPAE 282053Z VRB05KT 10SM CLR 09/00 A3056 RMK AO2 SLP352 T00940000 50000=
200703281953 METAR KPAE 281953Z VRB03KT 10SM CLR 08/01 A3056 RMK AO2 SLP353 T00830011=
200703281853 METAR KPAE 281853Z 25006KT 10SM SCT029 07/03 A3057 RMK AO2 SLP355 T00720033=
200703281753 METAR KPAE 281753Z VRB03KT 10SM FEW029 07/01 A3056 RMK AO2 SLP352 T00720006 10072 20011 51012=
200703281653 METAR KPAE 281653Z 00000KT 10SM CLR 06/01 A3056 RMK AO2 SLP352 T00560011=
200703281553 METAR KPAE 281553Z 21005KT 10SM CLR 04/01 A3055 RMK AO2 SLP348 T00440011=
200703281453 METAR KPAE 281453Z 17007KT 10SM CLR 03/01 A3052 RMK AO2 SLP341 T00330006 51019=
200703281353 METAR KPAE 281353Z 19003KT 10SM CLR 02/00 A3051 RMK AO2 SLP335 T00220000=
200703281253 METAR KPAE 281253Z 18003KT 10SM BKN036 03/01 A3049 RMK AO2 SLP328 T00280006=
200703281153 METAR KPAE 281153Z 20006KT 10SM FEW060 03/01 A3047 RMK AO2 RAE1054 SLP320 60000 T00330006 10061 20028 53014=
200703281053 METAR KPAE 281053Z 19007KT 10SM -RA FEW047 OVC055 04/01 A3045 RMK AO2 RAB44 SLP315 P0000 T00390011=
200703280953 METAR KPAE 280953Z 17009KT 10SM SCT018 BKN039 BKN055 04/01 A3043 RMK AO2 SLP306 T00390011=
200703280948 SPECI KPAE 280948Z 18008KT 10SM BKN018 BKN034 BKN055 04/01 A3042 RMK AO2=
200703280948 SPECI KPAE 280948Z 18008KT 10SM BKN018 BKN034 BKN055 04/01 A3042 RMK AO2=
200703280853 METAR KPAE 280853Z 32003KT 10SM FEW029 SCT041 BKN050 05/M01 A3041 RMK AO2 SLP302 T00501011 51024=
200703280838 SPECI KPAE 280838Z 33007KT 10SM FEW027 SCT033 BKN055 05/M02 A3041 RMK AO2=
200703280838 SPECI KPAE 280838Z 33007KT 10SM FEW027 SCT033 BKN055 05/M02 A3041 RMK AO2=
200703280753 METAR KPAE 280753Z 33005KT 10SM OVC029 06/M02 A3039 RMK AO2 SLP293 T00561022 400940044=
200703280738 SPECI KPAE 280738Z 00000KT 10SM OVC029 06/M02 A3039 RMK AO2=
200703280738 SPECI KPAE 280738Z 00000KT 10SM OVC029 06/M02 A3039 RMK AO2=
200703280653 METAR KPAE 280653Z VRB04KT 10SM BKN049 06/M02 A3037 RMK AO2 SLP286 T00561017=
200703280553 METAR KPAE 280553Z 36004KT 10SM OVC035 06/M01 A3034 RMK AO2 SLP277 T00611006 10089 20056 53021=
200703280453 METAR KPAE 280453Z 36007G14KT 10SM CLR 06/M01 A3031 RMK AO2 SLP268 T00561006=
200703280353 METAR KPAE 280353Z 35008KT 10SM BKN065 BKN080 06/01 A3029 RMK AO2 SLP259 T00610011=
200703280253 METAR KPAE 280253Z 33007KT 10SM BKN042 BKN050 BKN070 07/01 A3028 RMK AO2 SLP256 T00670011 53024=
200703280153 METAR KPAE 280153Z 33011G15KT 10SM BKN075 07/01 A3025 RMK AO2 SLP246 T00720006=
200703280053 METAR KPAE 280053Z 34009KT 10SM BKN036 BKN050 OVC080 08/00 A3021 RMK AO2 SLP234 T00830000=
200703272353 METAR KPAE 272353Z 28005KT 10SM FEW019 OVC060 08/01 A3020 RMK AO2 SLP231 T00830011 10094 20067 53022=
200703272253 METAR KPAE 272253Z AUTO 33005KT 10SM OVC039 08/00 A3018 RMK AO2 SLP222 T00830000 TSNO=
200703272153 METAR KPAE 272153Z VRB04KT 10SM OVC043 09/01 A3016 RMK AO2 SLP216 T00890011=
200703272053 METAR KPAE 272053Z VRB03KT 10SM BKN033 OVC045 09/02 A3014 RMK AO2 SLP207 T00890017 53013=
200703271953 METAR KPAE 271953Z VRB04KT 10SM BKN022 OVC045 08/02 A3012 RMK AO2 SLP202 T00830022=
200703271853 METAR KPAE 271853Z VRB03KT 10SM BKN024 OVC043 07/02 A3010 RMK AO2 SLP196 T00720017=
200703271850 SPECI KPAE 271850Z 00000KT 10SM BKN024 OVC043 08/02 A3010 RMK AO2=
200703271850 SPECI KPAE 271850Z 00000KT 10SM BKN024 OVC043 08/02 A3010 RMK AO2=
200703271753 METAR KPAE 271753Z 00000KT 10SM BKN034 BKN045 07/01 A3008 RMK AO2 SLP189 T00670011 10072 20044 53027=
200703271653 METAR KPAE 271653Z 05007KT 10SM BKN039 OVC045 07/02 A3005 RMK AO2 SLP178 T00670017=
200703271553 METAR KPAE 271553Z 34005KT 10SM FEW025 OVC034 06/03 A3003 RMK AO2 SLP170 T00610028=
200703271540 SPECI KPAE 271540Z 34004KT 10SM SCT012 BKN025 OVC034 06/03 A3002 RMK AO2=
200703271540 SPECI KPAE 271540Z 34004KT 10SM SCT012 BKN025 OVC034 06/03 A3002 RMK AO2=
200703271510 SPECI KPAE 271510Z 00000KT 10SM BKN012 OVC020 06/03 A3000 RMK AO2=
200703271510 SPECI KPAE 271510Z 00000KT 10SM BKN012 OVC020 06/03 A3000 RMK AO2=
200703271453 METAR KPAE 271453Z 20003KT 10SM SCT008 BKN018 OVC038 06/03 A3000 RMK AO2 SLP162 T00560033 53028=
200703271353 METAR KPAE 271353Z 00000KT 10SM SCT006 BKN018 OVC028 06/03 A2997 RMK AO2 SLP151 T00560033=
200703271339 SPECI KPAE 271339Z 14003KT 10SM BKN006 BKN019 OVC024 06/03 A2996 RMK AO2 CIG 005V009=
200703271339 SPECI KPAE 271339Z 14003KT 10SM BKN006 BKN019 OVC024 06/03 A2996 RMK AO2 CIG 005V009=
200703271331 SPECI KPAE 271331Z AUTO 00000KT 10SM SCT006 BKN019 OVC024 06/03 A2996 RMK AO2=
200703271316 SPECI KPAE 271316Z AUTO 17005KT 10SM BKN021 05/03 A2995 RMK AO2=
200703271316 SPECI KPAE 271316Z AUTO 17005KT 10SM BKN021 05/03 A2995 RMK AO2=
200703271253 METAR KPAE 271253Z AUTO 17005KT 10SM CLR 04/03 A2994=
200703271153 METAR KPAE 271153Z AUTO 17007KT 10SM FEW007 BKN043 OVC075 06/04 A2992 RMK AO2 SLP132 T00560039 10083 20056 51014=
200703271150 SPECI KPAE 271150Z AUTO 17006KT 10SM FEW007 BKN043 OVC075 06/04 A2991 RMK AO2=
200703271150 SPECI KPAE 271150Z AUTO 17006KT 10SM FEW007 BKN043 OVC075 06/04 A2991 RMK AO2=
200703271123 SPECI KPAE 271123Z AUTO 16006KT 10SM FEW007 BKN020 OVC075 06/04 A2991 RMK AO2=
200703271123 SPECI KPAE 271123Z AUTO 16006KT 10SM FEW007 BKN020 OVC075 06/04 A2991 RMK AO2=
200703271053 METAR KPAE 271053Z AUTO 18008KT 10SM FEW010 OVC075 06/04 A2989 RMK AO2 SLP125 T00610039=
200703270953 METAR KPAE 270953Z AUTO 21008KT 10SM OVC060 07/04 A2987 RMK AO2 SLP118 T00670039=
200703270853 METAR KPAE 270853Z AUTO 20006KT 10SM OVC046 07/04 A2985 RMK AO2 SLP111 T00720044 51022=
200703270753 METAR KPAE 270753Z AUTO 22004KT 10SM OVC060 07/05 A2983 RMK AO2 SLP103 T00720050 401500033=
200703270653 METAR KPAE 270653Z AUTO 29004KT 10SM OVC095 08/02 A2981 RMK AO2 SLP096 T00780022=
200703270553 METAR KPAE 270553Z AUTO 00000KT 10SM OVC110 08/02 A2979 RMK AO2 SLP089 T00830017 10133 20078 53020=
200703270353 METAR KPAE 270353Z 25006KT 10SM BKN100 09/03 A2975 RMK AO2 SLP076 T00940028=
200703270253 METAR KPAE 270253Z 28005KT 10SM SCT065 OVC080 10/02 A2973 RMK AO2 SLP069 T01000022 53009=
200703270153 METAR KPAE 270153Z 35003KT 10SM SCT055 OVC120 11/02 A2971 RMK AO2 SLP062 T01110017=
200703270053 METAR KPAE 270053Z 35006KT 10SM SCT110 12/01 A2970 RMK AO2 SLP058 T01170011=
200703262353 METAR KPAE 262353Z 34007KT 10SM CLR 13/01 A2970 RMK AO2 SLP058 T01330011 10150 20094 56033=
200703262253 METAR KPAE 262253Z 35006KT 10SM CLR 14/M01 A2972 RMK AO2 SLP064 T01391006=
200703262153 METAR KPAE 262153Z 33009KT 10SM CLR 13/01 A2975 RMK AO2 PRESFR SLP075 T01330011=
200703262053 METAR KPAE 262053Z VRB04KT 10SM CLR 13/M02 A2980 RMK AO2 SLP092 T01281017 58028=
200703261953 METAR KPAE 261953Z 11008KT 10SM OVC080 11/M03 A2983 RMK AO2 SLP102 T01111028=
200703261853 METAR KPAE 261853Z 11007KT 10SM SCT090 11/M03 A2986 RMK AO2 SLP112 T01061033=
200703261753 METAR KPAE 261753Z 10004KT 10SM CLR 09/M02 A2988 RMK AO2 SLP122 T00941022 10094 20033 57015=
200703261653 METAR KPAE 261653Z 10005KT 10SM CLR 07/M01 A2990 RMK AO2 SLP127 T00671011=
200703261553 METAR KPAE 261553Z VRB04KT 10SM CLR 06/M01 A2991 RMK AO2 SLP132 T00561006=
200703261453 METAR KPAE 261453Z 07005KT 10SM CLR 04/M01 A2993 RMK AO2 SLP137 T00441006 58021=
200703261353 METAR KPAE 261353Z 06006KT 10SM CLR 04/M01 A2995 RMK AO2 SLP145 T00391006=
200703261253 METAR KPAE 261253Z AUTO 10005KT 10SM CLR 03/00 A2997 RMK AO2 SLP152 T00330000=
200703261153 METAR KPAE 261153Z AUTO 10007KT 10SM CLR 03/01 A2999 RMK AO2 SLP158 70011 T00330006 10056 20033 58032=
200703261053 METAR KPAE 261053Z AUTO 10007KT 10SM CLR 04/01 A3002 RMK AO2 SLP170 T00390006=
200703260953 METAR KPAE 260953Z AUTO 10010KT 10SM CLR 05/01 A3005 RMK AO2 SLP180 T00500011=
200703260853 METAR KPAE 260853Z AUTO 10008KT 10SM CLR 05/02 A3009 RMK AO2 SLP191 T00500017 58015=
200703260753 METAR KPAE 260753Z AUTO 10007KT 10SM CLR 05/02 A3011=
200703260653 METAR KPAE 260653Z AUTO 12006KT 10SM CLR 06/03 A3012 RMK AO2 SLP203 T00560028=
200703260553 METAR KPAE 260553Z AUTO 10006KT 10SM CLR 06/03 A3013 RMK AO2 SLP206 T00560028 10094 20056 50000=
200703260453 METAR KPAE 260453Z AUTO 08003KT 10SM CLR 07/03 A3014 RMK AO2 SLP208 T00670028=
200703260353 METAR KPAE 260353Z AUTO 05005KT 10SM SCT037 SCT046 07/02 A3014 RMK AO2 SLP209 T00720022=
200703260253 METAR KPAE 260253Z 05006KT 10SM BKN050 07/02 A3013 RMK AO2 SLP206 T00720022 51009=
200703260153 METAR KPAE 260153Z 02006KT 10SM SCT065 BKN085 07/03 A3012=
200703260053 METAR KPAE 260053Z 01009KT 10SM BKN048 08/04 A3011 RMK AO2 SLP200 T00830039=
200703252353 METAR KPAE 252353Z 36006KT 10SM FEW080 09/05 A3010 RMK AO2 SLP196 60007 T00940050 10100 20056 51001=
200703252253 METAR KPAE 252253Z 03008KT 10SM SCT050 BKN060 OVC080 09/05 A3010 RMK AO2 SLP196 T00890050=
200703252153 METAR KPAE 252153Z 01007KT 10SM SCT025 BKN050 08/04 A3011 RMK AO2 SLP197 T00780044=
200703252053 METAR KPAE 252053Z COR 01006KT 10SM FEW027 BKN060 08/04 A3010 RMK AO2 RAB04E40 SLP195 P0004 60007 T00780039 51012=
200703252036 SPECI KPAE 252036Z 34006KT 9SM -RA FEW013 SCT023 BKN030 07/05 A3010 RMK AO2 RAB04 P0004=
200703252036 SPECI KPAE 252036Z 34006KT 9SM -RA FEW013 SCT023 BKN030 07/05 A3010 RMK AO2 RAB04 P0004=
200703252028 SPECI KPAE 252028Z 34005KT 2SM RA BR SCT013 BKN021 OVC026 07/04 A3010 RMK AO2 RAB04 P0004=
200703252028 SPECI KPAE 252028Z 34005KT 2SM RA BR SCT013 BKN021 OVC026 07/04 A3010 RMK AO2 RAB04 P0004=
200703251953 METAR KPAE 251953Z 34005KT 10SM FEW011 BKN018 OVC026 07/04 A3009 RMK AO2 RAE45 SLP193 P0002 T00670039=
200703251941 SPECI KPAE 251941Z 33004KT 8SM -RA FEW010 BKN020 OVC025 06/04 A3009 RMK AO2 P0002=
200703251941 SPECI KPAE 251941Z 33004KT 8SM -RA FEW010 BKN020 OVC025 06/04 A3009 RMK AO2 P0002=
200703251908 SPECI KPAE 251908Z 00000KT 6SM -RA BKN008 OVC023 06/03 A3009 RMK AO2 P0001=
200703251908 SPECI KPAE 251908Z 00000KT 6SM -RA BKN008 OVC023 06/03 A3009 RMK AO2 P0001=
200703251853 METAR KPAE 251853Z 10006KT 2 1/2SM -RA BR BKN008 OVC023 06/04 A3008 RMK AO2 SLP190 P0001 T00610039=
200703251847 SPECI KPAE 251847Z 10004KT 2 1/2SM -RA BR BKN014 BKN020 OVC025 06/04 A3008 RMK AO2 P0001=
200703251847 SPECI KPAE 251847Z 10004KT 2 1/2SM -RA BR BKN014 BKN020 OVC025 06/04 A3008 RMK AO2 P0001=
200703251753 METAR KPAE 251753Z 11003KT 3SM -RA BR FEW010 OVC019 06/04 A3006 RMK AO2 SLP183 P0001 60004 T00610039 10067 20061 51024=
200703251653 METAR KPAE 251653Z 13004KT 4SM -RA BKN008 OVC022 06/03 A3004 RMK AO2 RAB12 SLP176 P0002 T00610033=
200703251643 SPECI KPAE 251643Z 00000KT 3SM -RA BKN008 OVC019 06/03 A3004 RMK AO2 RAB12 P0002=
200703251643 SPECI KPAE 251643Z 00000KT 3SM -RA BKN008 OVC019 06/03 A3004 RMK AO2 RAB12 P0002=
200703251553 METAR KPAE 251553Z 00000KT 10SM OVC023 07/03 A3002 RMK AO2 RAE23 SLP168 P0000 T00670028=
200703251521 SPECI KPAE 251521Z 00000KT 10SM -RA BKN022 BKN028 OVC036 07/03 A3000=
200703251521 SPECI KPAE 251521Z 00000KT 10SM -RA BKN022 BKN028 OVC036 07/03 A3000 RMK AO2 P0000=
200703251453 METAR KPAE 251453Z 36003KT 6SM -RA FEW028 OVC034 07/03 A2999 RMK AO2 RAB40 SLP157 P0001 60001 T00670028 53020=
200703251353 METAR KPAE 251353Z AUTO VRB03KT 10SM FEW015 OVC030 06/03 A2997 RMK AO2 SLP151 T00610033=
200703251346 SPECI KPAE 251346Z AUTO 00000KT 10SM OVC030 06/03 A2997 RMK AO2=
200703251346 SPECI KPAE 251346Z AUTO 00000KT 10SM OVC030 06/03 A2997 RMK AO2=
200703251253 METAR KPAE 251253Z AUTO 00000KT 10SM BKN016 OVC028 06/04 A2995 RMK AO2 SLP142 T00610044=
200703251153 METAR KPAE 251153Z AUTO 01004KT 10SM BKN016 OVC026 06/04 A2993 RMK AO2 SLP137 60007 70014 T00610039 10078 20061 53002=
200703251053 METAR KPAE 251053Z AUTO 05003KT 10SM SCT018 OVC027 06/04 A2993 RMK AO2 SLP136 T00610044=
200703250953 METAR KPAE 250953Z AUTO 05004KT 10SM FEW005 BKN023 OVC027 06/04 A2993 RMK AO2 RAE15 SLP136 P0001 T00610044=
200703250950 SPECI KPAE 250950Z AUTO 04003KT 10SM FEW005 BKN023 OVC027 06/04 A2993 RMK AO2 RAE15 P0001=
200703250950 SPECI KPAE 250950Z AUTO 04003KT 10SM FEW005 BKN023 OVC027 06/04 A2993 RMK AO2 RAE15 P0001=
200703250941 SPECI KPAE 250941Z AUTO VRB03KT 5SM BR SCT005 BKN012 OVC023 06/05 A2993 RMK AO2 RAE15 P0001=
200703250914 SPECI KPAE 250914Z AUTO VRB03KT 3SM -RA BR BKN003 BKN013 OVC022 06/05 A2992 RMK AO2 CIG 002V008 P0001=
200703250914 SPECI KPAE 250914Z AUTO VRB03KT 3SM -RA BR BKN003 BKN013 OVC022 06/05 A2992 RMK AO2 CIG 002V008 P0001=
200703250905 SPECI KPAE 250905Z AUTO 02004KT 2 1/2SM -RA BR SCT003 BKN008 OVC022 06/05 A2992=
200703250853 METAR KPAE 250853Z AUTO 36006KT 2 1/2SM -RA BR SCT005 SCT010 OVC022 06/05 A2991 RMK AO2 SLP131 P0004 60006 T00610050 51012=
200703250834 SPECI KPAE 250834Z AUTO 01005KT 2 1/2SM -RA BR FEW003 SCT010 OVC018 06/05 A2992 RMK AO2 P0003=
200703250834 SPECI KPAE 250834Z AUTO 01005KT 2 1/2SM -RA BR FEW003 SCT010 OVC018 06/05 A2992 RMK AO2 P0003=
200703250829 SPECI KPAE 250829Z AUTO 02005KT 3SM -RA BR FEW003 SCT008 OVC018 06/05 A2992 RMK AO2 P0003=
200703250829 SPECI KPAE 250829Z AUTO 02005KT 3SM -RA BR FEW003 SCT008 OVC018 06/05 A2992 RMK AO2 P0003=
200703250814 SPECI KPAE 250814Z AUTO 01006KT 4SM -RA BR SCT003 BKN010 OVC018 06/05 A2991 RMK AO2 CIG 008V012 P0003=
200703250814 SPECI KPAE 250814Z AUTO 01006KT 4SM -RA BR SCT003 BKN010 OVC018 06/05 A2991 RMK AO2 CIG 008V012 P0003=
200703250804 SPECI KPAE 250804Z AUTO 02005KT 3SM -RA BR SCT005 OVC015 07/06 A2991 RMK AO2 P0002=
200703250804 SPECI KPAE 250804Z AUTO 02005KT 3SM -RA BR SCT005 OVC015 07/06 A2991 RMK AO2 P0002=
200703250759 SPECI KPAE 250759Z AUTO 02006KT 2 1/2SM RA BR SCT005 BKN011 OVC015 06/06 A2991 RMK AO2 CIG 007V013 P0001=
200703250759 SPECI KPAE 250759Z AUTO 02006KT 2 1/2SM RA BR SCT005 BKN011 OVC015 06/06 A2991 RMK AO2 CIG 007V013 P0001=
200703250753 METAR KPAE 250753Z AUTO 01005KT 3SM RA BR BKN003 OVC011 06/06 A2991 RMK AO2 RAB00 CIG 002V007 SLP131 P0002 T00610056 401170061=
200703250703 SPECI KPAE 250703Z AUTO 03004KT 7SM -RA BKN003 OVC011 07/06 A2989 RMK AO2 RAB00 CIG 002V007 P0000=
200703250703 SPECI KPAE 250703Z AUTO 03004KT 7SM -RA BKN003 OVC011 07/06 A2989 RMK AO2 RAB00 CIG 002V007 P0000=
200703250653 METAR KPAE 250653Z AUTO VRB04KT 10SM SCT003 OVC011 07/06 A2989 RMK AO2 SLP124 T00670056=
200703250629 SPECI KPAE 250629Z AUTO 35007KT 10SM FEW009 BKN013 OVC019 07/06 A2988 RMK AO2=
200703250629 SPECI KPAE 250629Z AUTO 35007KT 10SM FEW009 BKN013 OVC019 07/06 A2988 RMK AO2=
200703250621 SPECI KPAE 250621Z AUTO 35007KT 10SM SCT008 BKN015 OVC021 07/06 A2988 RMK AO2=
200703250553 METAR KPAE 250553Z AUTO 00000KT 10SM BKN025 OVC036 08/05 A2988 RMK AO2 SLP119 60001 T00780050 10111 20078 53008=
200703250546 SPECI KPAE 250546Z AUTO 19006KT 10SM BKN025 OVC036 08/05 A2988 RMK AO2=
200703250546 SPECI KPAE 250546Z AUTO 19006KT 10SM BKN025 OVC036 08/05 A2988 RMK AO2=
200703250523 SPECI KPAE 250523Z AUTO 18004KT 10SM FEW017 SCT027 BKN036 08/06 A2987=
200703250453 METAR KPAE 250453Z 20009KT 10SM SCT016 BKN022 OVC028 08/06 A2987 RMK AO2 SLP117 T00830056=
200703250421 SPECI KPAE 250421Z 20009KT 10SM SCT017 BKN022 BKN028 09/06 A2987 RMK AO2=
200703250421 SPECI KPAE 250421Z 20009KT 10SM SCT017 BKN022 BKN028 09/06 A2987 RMK AO2=
200703250400 SPECI KPAE 250400Z 19007KT 10SM FEW015 SCT024 SCT090 09/06 A2985 RMK AO2=
200703250400 SPECI KPAE 250400Z 19007KT 10SM FEW015 SCT024 SCT090 09/06 A2985 RMK AO2=
200703250353 METAR KPAE 250353Z 16008KT 10SM FEW015 BKN026 BKN090 09/06 A2984 RMK AO2 SLP108 T00890061=
200703250307 SPECI KPAE 250307Z 18009KT 10SM SCT020 BKN026 OVC100 09/06 A2986 RMK AO2=
200703250307 SPECI KPAE 250307Z 18009KT 10SM SCT020 BKN026 OVC100 09/06 A2986 RMK AO2=
200703250253 METAR KPAE 250253Z 19009KT 10SM FEW020 BKN075 OVC100 09/07 A2985 RMK AO2 RAE09B36E48 SLP110 P0000 60001 T00940067 53015=
200703250200 SPECI KPAE 250200Z 19008KT 10SM -RA OVC050 09/07 A2981 RMK AO2 P0000=
200703250200 SPECI KPAE 250200Z 19008KT 10SM -RA OVC050 09/07 A2981 RMK AO2 P0000=
200703250153 METAR KPAE 250153Z 20009KT 10SM -RA BKN013 BKN023 OVC080 09/08 A2982 RMK AO2 RAE0058B41 SLP098 P0000 T00940078=
200703250053 METAR KPAE 250053Z 19014G21KT 10SM -RA BKN013 BKN017 OVC042 10/08 A2983 RMK AO2 RAB14 SLP102 P0001 T01000083=
200703242353 METAR KPAE 242353Z 20010KT 10SM BKN013 OVC019 11/09 A2981 RMK AO2 SLP094 60004 T01110089 10117 20106 50012=
200703242253 METAR KPAE 242253Z 20012G20KT 10SM BKN014 OVC018 11/09 A2982 RMK AO2 RAE53 SLP097 P0001 T01110089=
200703242200 SPECI KPAE 242200Z 19015G20KT 10SM -RA SCT008 OVC033 11/09 A2978 RMK AO2 P0000=
200703242153 METAR KPAE 242153Z 19014G22KT 10SM -RA SCT008 OVC015 11/09 A2978 RMK AO2 SLP084 P0002 T01060089=
200703242100 SPECI KPAE 242100Z 19015G22KT 10SM -RA SCT008 OVC015 11/09 A2978=
200703242053 METAR KPAE 242053Z 18018G22KT 10SM -RA OVC015 12/09 A2977 RMK AO2 PK WND 17028/2000 RAB27 SLP082 P0001 60001 T01170089 50003=
200703242031 SPECI KPAE 242031Z 19018G23KT 10SM -RA BKN015 BKN075 12/09 A2978 RMK AO2 PK WND 17028/2000 RAB27 P0001=
200703242031 SPECI KPAE 242031Z 19018G23KT 10SM -RA BKN015 BKN075 12/09 A2978 RMK AO2 PK WND 17028/2000 RAB27 P0001=
200703241953 METAR KPAE 241953Z 18020G26KT 10SM OVC075 12/09 A2977 RMK AO2 PK WND 18031/1900 RAE47 SLP083 P0000 T01170094=
200703241853 METAR KPAE 241853Z 18021G30KT 10SM -RA SCT008 BKN033 11/09 A2978 RMK AO2 PK WND 17033/1823 RAB30 SLP085 P0000 T01110089=
200703241753 METAR KPAE 241753Z 18024G34KT 10SM SCT008 BKN014 12/09 A2976 RMK AO2 PK WND 18034/1749 SLP079 P0001 60002 T01170089 10117 20106 56006=
200703241715 SPECI KPAE 241715Z 17028G34KT 10SM SCT013 BKN090 12/09 A2976 RMK AO2 PK WND 19034/1715=
200703241715 SPECI KPAE 241715Z 17028G34KT 10SM SCT013 BKN090 12/09 A2976 RMK AO2 PK WND 19034/1715=
200703241653 METAR KPAE 241653Z 17027G33KT 10SM SCT008 BKN013 11/09 A2977 RMK AO2 PK WND 17034/1610 SLP081 T01110089=
200703241600 SPECI KPAE 241600Z 18025G33KT 10SM BKN013 BKN070 OVC120 11/09 A2977 RMK AO2 PK WND 18033/1556=
200703241600 SPECI KPAE 241600Z 18025G33KT 10SM BKN013 BKN070 OVC120 11/09 A2977 RMK AO2 PK WND 18033/1556=
200703241553 METAR KPAE 241553Z 19024G33KT 10SM BKN005 OVC060 11/09 A2977 RMK AO2 PK WND 18034/1508 RAE47 SLP083 P0000 T01110089=
200703241526 SPECI KPAE 241526Z 18023G28KT 10SM -RA BKN005 OVC060 11/09 A2978 RMK AO2 PK WND 18034/1508 P0000=
200703241526 SPECI KPAE 241526Z 18023G28KT 10SM -RA BKN005 OVC060 11/09 A2978 RMK AO2 PK WND 18034/1508 P0000=
200703241453 METAR KPAE 241453Z 17023G31KT 10SM -RA FEW043 OVC090 11/09 A2978 RMK AO2 PK WND 16034/1355 RAB02E26B53 SLP085 P0001 60001 T01110089 58008=
200703241353 METAR KPAE 241353Z 17025G33KT 10SM FEW070 OVC085 11/09 A2979 RMK AO2 PK WND 17033/1350 SLP087 T01110089=
200703241253 METAR KPAE 241253Z AUTO 17021KT 10SM OVC080 11/09 A2981 RMK AO2 PK WND 17033/1210 RAB16E51 SLP094 P0000 T01060094=
200703241153 METAR KPAE 241153Z AUTO 17024G30KT 10SM FEW009 OVC085 11/09 A2981 RMK AO2 PK WND 17031/1054 SLP093 60001 70010 T01060094 10111 20106 56014=
200703241142 SPECI KPAE 241142Z AUTO 17020KT 10SM SCT009 OVC090 11/09 A2981 RMK AO2 PK WND 17031/1054=
200703241142 SPECI KPAE 241142Z AUTO 17020KT 10SM SCT009 OVC090 11/09 A2981 RMK AO2 PK WND 17031/1054=
200703241053 METAR KPAE 241053Z AUTO 17025G29KT 10SM BKN007 BKN011 OVC085 11/09 A2981 RMK AO2 PK WND 17030/1032 RAE51 SLP095 P0000 T01060094=
200703240953 METAR KPAE 240953Z AUTO 17021G27KT 9SM -RA BKN007 OVC013 11/09 A2984=
200703240930 SPECI KPAE 240930Z AUTO 17022G28KT 5SM -RA BR BKN009 BKN015 OVC085 11/09 A2984 RMK AO2 PK WND 17029/0905 CIG 006V012 P0000=
200703240930 SPECI KPAE 240930Z AUTO 17022G28KT 5SM -RA BR BKN009 BKN015 OVC085 11/09 A2984 RMK AO2 PK WND 17029/0905 CIG 006V012 P0000=
200703240913 SPECI KPAE 240913Z AUTO 17020G29KT 7SM SCT007 BKN011 OVC034 11/09 A2985 RMK AO2 PK WND 17029/0905 RAE08 P0000=
200703240913 SPECI KPAE 240913Z AUTO 17020G29KT 7SM SCT007 BKN011 OVC034 11/09 A2985 RMK AO2 PK WND 17029/0905 RAE08 P0000=
200703240853 METAR KPAE 240853Z AUTO 16021G28KT 7SM -RA BKN007 BKN012 OVC110 11/09 A2985 RMK AO2 PK WND 16030/0806 RAB52 SLP109 P0000 60001 T01060094 56015=
200703240753 METAR KPAE 240753Z AUTO 16024G32KT 10SM FEW008 OVC060 11/09 A2985 RMK AO2 PK WND 17032/0746 SLP110 T01060089 401060078=
200703240730 SPECI KPAE 240730Z AUTO 17023G30KT 10SM SCT010 OVC070 11/09 A2986 RMK AO2 PK WND 18030/0729=
200703240730 SPECI KPAE 240730Z AUTO 17023G30KT 10SM SCT010 OVC070 11/09 A2986 RMK AO2 PK WND 18030/0729=
200703240653 METAR KPAE 240653Z AUTO 17019KT 10SM OVC012 11/08 A2989 RMK AO2 PK WND 15030/0601 RAB01E26 SLP123 P0001 T01060083=
200703240553 METAR KPAE 240553Z AUTO 17022G28KT 10SM OVC012 10/08 A2990 RMK AO2 PK WND 18033/0538 RAE19 SLP125 P0000 60007 T01000083 10106 20100 58011=
200703240510 SPECI KPAE 240510Z AUTO 18023G31KT 10SM -RA FEW009 BKN014 OVC060 10/08 A2992 RMK AO2 PK WND 18031/0506 P0000=
200703240510 SPECI KPAE 240510Z AUTO 18023G31KT 10SM -RA FEW009 BKN014 OVC060 10/08 A2992 RMK AO2 PK WND 18031/0506 P0000=
200703240453 METAR KPAE 240453Z 17024G33KT 10SM -RA SCT011 OVC060 10/08 A2990 RMK AO2 PK WND 17035/0431 SLP127 P0004 T01000083=
200703240446 SPECI KPAE 240446Z 17025G34KT 10SM -RA SCT011 OVC060 10/08 A2991 RMK AO2 PK WND 17035/0431 P0003=
200703240446 SPECI KPAE 240446Z 17025G34KT 10SM -RA SCT011 OVC060 10/08 A2991 RMK AO2 PK WND 17035/0431 P0003=
200703240435 SPECI KPAE 240435Z 17026G35KT 10SM -RA SCT009 BKN013 OVC060 10/08 A2991 RMK AO2 PK WND 17035/0431 P0003=
200703240435 SPECI KPAE 240435Z 17026G35KT 10SM -RA SCT009 BKN013 OVC060 10/08 A2991 RMK AO2 PK WND 17035/0431 P0003=
200703240428 SPECI KPAE 240428Z 17024G31KT 9SM -RA BKN009 OVC045 10/08 A2990 RMK AO2 PK WND 17032/0417 P0003=
200703240428 SPECI KPAE 240428Z 17024G31KT 9SM -RA BKN009 OVC045 10/08 A2990 RMK AO2 PK WND 17032/0417 P0003=
200703240353 METAR KPAE 240353Z 17018G25KT 10SM -RA OVC013 10/08 A2993 RMK AO2 RAB05 SLP136 P0003 T01000083=
200703240253 METAR KPAE 240253Z 17017G22KT 10SM OVC012 10/08 A2993 RMK AO2 PK WND 18027/0213 RAB37E46 SLP136 P0000 60000 T01000078 55004=
200703240153 METAR KPAE 240153Z 16016KT 10SM BKN012 OVC100 10/08 A2992 RMK AO2 PK WND 16026/0117 SLP133 T01000078=
200703240053 METAR KPAE 240053Z 17017G26KT 10SM SCT006 OVC012 11/08 A2995 RMK AO2 PK WND 16028/0041 SLP142 T01060078=
200703232353 METAR KPAE 232353Z 17022KT 10SM SCT006 OVC012 10/08 A2994 RMK AO2 SLP141 60002 T01000078 10100 20089 57023=
200703232330 SPECI KPAE 232330Z 16017KT 10SM BKN012 OVC018 10/08 A2995 RMK AO2=
200703232330 SPECI KPAE 232330Z 16017KT 10SM BKN012 OVC018 10/08 A2995 RMK AO2=
200703232323 SPECI KPAE 232323Z 16014G21KT 10SM OVC016 10/08 A2995 RMK AO2=
200703232323 SPECI KPAE 232323Z 16014G21KT 10SM OVC016 10/08 A2995 RMK AO2=
200703232259 SPECI KPAE 232259Z 15016KT 10SM BKN013 OVC018 10/08 A2996 RMK AO2=
200703232253 METAR KPAE 232253Z 14014G20KT 10SM FEW009 SCT022 OVC032 09/08 A2995 RMK AO2 RAB36E50 SLP142 P0000 T00940078=
200703232153 METAR KPAE 232153Z 14015KT 8SM FEW009 SCT022 OVC032 09/08 A3000 RMK AO2 SLP162 T00940078=
200703232131 SPECI KPAE 232131Z 14015KT 10SM FEW009 SCT022 OVC032 09/07 A2999=
200703232053 METAR KPAE 232053Z 14016G22KT 10SM BKN009 BKN035 OVC090 09/07 A3001 RMK AO2 RAE15 SLP164 P0000 60002 T00890072 56009=
200703232045 SPECI KPAE 232045Z 15017KT 10SM FEW009 BKN035 OVC085 09/07 A3001 RMK AO2 RAE15 P0000=
200703232045 SPECI KPAE 232045Z 15017KT 10SM FEW009 BKN035 OVC085 09/07 A3001 RMK AO2 RAE15 P0000=
200703231953 METAR KPAE 231953Z 15017KT 10SM -RA FEW015 SCT028 OVC070 09/07 A3002 RMK AO2 RAB13 SLP167 P0001 T00890067=
200703231853 METAR KPAE 231853Z 15013KT 10SM BKN028 OVC034 09/06 A3004=
200703231753 METAR KPAE 231753Z 17013KT 10SM SCT028 BKN050 OVC080 09/06 A3004 RMK AO2 RAE01 SLP175 P0000 60000 T00940061 10094 20078 56004=
200703231712 SPECI KPAE 231712Z 16014KT 10SM FEW027 BKN036 OVC085 09/07 A3005 RMK AO2 RAE01 P0000=
200703231712 SPECI KPAE 231712Z 16014KT 10SM FEW027 BKN036 OVC085 09/07 A3005 RMK AO2 RAE01 P0000=
200703231653 METAR KPAE 231653Z 15014G19KT 10SM -RA BKN027 OVC055 09/06 A3005=
200703231553 METAR KPAE 231553Z 15015G20KT 10SM FEW006 BKN019 OVC065 08/07 A3005 RMK AO2 SLP177 T00830067=
200703231502 SPECI KPAE 231502Z 14017G22KT 10SM BKN008 OVC075 08/06 A3005 RMK AO2=
200703231502 SPECI KPAE 231502Z 14017G22KT 10SM BKN008 OVC075 08/06 A3005 RMK AO2=
200703231453 METAR KPAE 231453Z 14018KT 10SM SCT010 OVC075 08/06 A3005 RMK AO2 SLP179 60000 T00830061 56015=
200703231436 SPECI KPAE 231436Z 14018G22KT 10SM FEW022 SCT029 OVC070 08/06 A3006 RMK AO2=
200703231436 SPECI KPAE 231436Z 14018G22KT 10SM FEW022 SCT029 OVC070 08/06 A3006 RMK AO2=
200703231353 METAR KPAE 231353Z 14013KT 10SM BKN017 BKN024 OVC080 08/06 A3007 RMK AO2 SLP186 T00780061=
200703231253 METAR KPAE 231253Z AUTO 13013KT 10SM FEW006 BKN020 OVC085 08/06 A3007 RMK AO2 RAB00E12 SLP187 P0000 T00780061=
200703231215 SPECI KPAE 231215Z AUTO 13011KT 4SM BR FEW007 OVC016 08/06 A3009 RMK AO2 RAB00E12 P0000=
200703231215 SPECI KPAE 231215Z AUTO 13011KT 4SM BR FEW007 OVC016 08/06 A3009 RMK AO2 RAB00E12 P0000=
200703231202 SPECI KPAE 231202Z AUTO 13011KT 2 1/2SM -RA BR OVC016 08/06 A3009 RMK AO2 RAB00 P0000=
200703231202 SPECI KPAE 231202Z AUTO 13011KT 2 1/2SM -RA BR OVC016 08/06 A3009 RMK AO2 RAB00 P0000=
200703231153 METAR KPAE 231153Z AUTO 14011KT 9SM OVC014 08/06 A3010 RMK AO2 SLP194 60000 70019 T00780061 10083 20078 58004=
200703231053 METAR KPAE 231053Z AUTO 13011KT 10SM OVC014 08/06 A3010 RMK AO2 SLP194 T00830056=
200703230953 METAR KPAE 230953Z AUTO 14009KT 10SM OVC014 08/06 A3013 RMK AO2 SLP205 T00830061=
200703230853 METAR KPAE 230853Z AUTO 14010KT 10SM OVC014 08/06 A3011 RMK AO2 RAE05 SLP198 P0000 60000 T00780061 51003=
200703230753 METAR KPAE 230753Z AUTO 13010KT 10SM -RA OVC012 08/06 A3010 RMK AO2 RAB47 SLP196 P0000 T00780061 400940061=
200703230653 METAR KPAE 230653Z AUTO 15010KT 10SM OVC010 08/06 A3011 RMK AO2 CIG 008V016 SLP199 T00780061=
200703230631 SPECI KPAE 230631Z AUTO 14010KT 10SM OVC010 08/06 A3011 RMK AO2 CIG 007V012=
200703230631 SPECI KPAE 230631Z AUTO 14010KT 10SM OVC010 08/06 A3011 RMK AO2 CIG 007V012=
200703230553 METAR KPAE 230553Z AUTO 14010KT 10SM OVC008 08/06 A3010 RMK AO2 CIG 005V011 SLP196 60002 T00780061 10083 20078 53010=
200703230453 METAR KPAE 230453Z AUTO 14009KT 10SM BKN006 OVC011 08/07 A3009 RMK AO2 CIG 005V010 SLP191 T00780067=
200703230421 SPECI KPAE 230421Z AUTO 15008KT 10SM BKN008 OVC014 08/07 A3009 RMK AO2 CIG 005V012=
200703230421 SPECI KPAE 230421Z AUTO 15008KT 10SM BKN008 OVC014 08/07 A3009 RMK AO2 CIG 005V012=
200703230353 METAR KPAE 230353Z 14008KT 10SM FEW007 OVC012 08/07 A3008 RMK AO2 SLP190 T00780067=
200703230328 SPECI KPAE 230328Z 14008KT 10SM BKN009 OVC015 08/06 A3007 RMK AO2 CIG 006V014=
200703230328 SPECI KPAE 230328Z 14008KT 10SM BKN009 OVC015 08/06 A3007 RMK AO2 CIG 006V014=
200703230321 SPECI KPAE 230321Z 15009KT 10SM SCT009 OVC015 08/06 A3007 RMK AO2=
200703230321 SPECI KPAE 230321Z 15009KT 10SM SCT009 OVC015 08/06 A3007 RMK AO2=
200703230311 SPECI KPAE 230311Z 15009KT 10SM BKN009 OVC017 08/06 A3007 RMK AO2 CIG 007V013=
200703230311 SPECI KPAE 230311Z 15009KT 10SM BKN009 OVC017 08/06 A3007 RMK AO2 CIG 007V013=
200703230253 METAR KPAE 230253Z 15008KT 10SM BKN013 OVC019 08/07 A3007 RMK AO2 RAB0155E28 SLP186 P0001 60002 T00780067 53003=
200703230237 SPECI KPAE 230237Z 16008KT 10SM OVC013 08/06 A3007=
200703230222 SPECI KPAE 230222Z 16010KT 9SM -RA FEW009 BKN015 OVC021 08/06 A3007 RMK AO2 RAB0155 P0001=
200703230222 SPECI KPAE 230222Z 16010KT 9SM -RA FEW009 BKN015 OVC021 08/06 A3007 RMK AO2 RAB0155 P0001=
200703230209 SPECI KPAE 230209Z 16010KT 9SM -RA SCT013 OVC019 08/06 A3006 RMK AO2 RAB0155 P0000=
200703230209 SPECI KPAE 230209Z 16010KT 9SM -RA SCT013 OVC019 08/06 A3006 RMK AO2 RAB0155 P0000=
200703230200 SPECI KPAE 230200Z 17011KT 10SM -RA BKN012 OVC021 08/06 A3006 RMK AO2 RAB0155 P0000=
200703230200 SPECI KPAE 230200Z 17011KT 10SM -RA BKN012 OVC021 08/06 A3006 RMK AO2 RAB0155 P0000=
200703230153 METAR KPAE 230153Z 17014KT 10SM BKN008 OVC014 08/06 A3007 RMK AO2 RAE23 SLP184 P0000 T00780061=
200703230140 SPECI KPAE 230140Z 17008KT 10SM BKN008 OVC014 08/06 A3007 RMK AO2 RAE23 P0000=
200703230140 SPECI KPAE 230140Z 17008KT 10SM BKN008 OVC014 08/06 A3007 RMK AO2 RAE23 P0000=
200703230053 METAR KPAE 230053Z 15010KT 10SM -RA BKN014 OVC022 08/06 A3005 RMK AO2 RAB12 SLP180 P0001 T00780061=
200703222353 METAR KPAE 222353Z 15011KT 10SM FEW018 OVC025 08/06 A3006 RMK AO2 RAE44 SLP182 P0001 60009 T00830061 10094 20078 53006=
200703222335 SPECI KPAE 222335Z 16011KT 10SM -RA FEW021 BKN027 OVC055 08/06 A3006 RMK AO2 P0001=
200703222335 SPECI KPAE 222335Z 16011KT 10SM -RA FEW021 BKN027 OVC055 08/06 A3006 RMK AO2 P0001=
200703222259 SPECI KPAE 222259Z 16012KT 10SM -RA FEW019 BKN036 OVC055 08/06 A3004 RMK AO2 P0000=
200703222259 SPECI KPAE 222259Z 16012KT 10SM -RA FEW019 BKN036 OVC055 08/06 A3004 RMK AO2 P0000=
200703222253 METAR KPAE 222253Z AUTO 14013KT 10SM -RA SCT021 BKN028 OVC050 08/06 A3004 RMK AO2 SLP175 P0003 T00830061 TSNO=
200703222251 SPECI KPAE 222251Z AUTO 15011KT 10SM -RA SCT021 BKN025 OVC050 08/06 A3004 RMK AO2 P0003 TSNO=
200703222251 SPECI KPAE 222251Z AUTO 15011KT 10SM -RA SCT021 BKN025 OVC050 08/06 A3004 RMK AO2 P0003 TSNO=
200703222153 METAR KPAE 222153Z 16012KT 9SM -RA SCT022 OVC040 08/06 A3004 RMK AO2 SLP176 P0005 T00830056=
200703222053 METAR KPAE 222053Z 17016KT 10SM -RA SCT020 BKN070 OVC200 09/04 A3004 RMK AO2 RAB36 SLP177 P0000 60000 T00890044 58016=
200703222000 SPECI KPAE 222000Z 15015G20KT 10SM SCT020 BKN070 OVC200 09/04 A3006 RMK AO2=
200703222000 SPECI KPAE 222000Z 15015G20KT 10SM SCT020 BKN070 OVC200 09/04 A3006 RMK AO2=
200703221853 METAR KPAE 221853Z 16012KT 10SM BKN014 BKN019 OVC070 09/06 A3009 RMK AO2 SLP192 T00890056=
200703221851 SPECI KPAE 221851Z 16013KT 10SM BKN014 BKN019 OVC070 09/06 A3009 RMK AO2=
200703221851 SPECI KPAE 221851Z 16013KT 10SM BKN014 BKN019 OVC070 09/06 A3009 RMK AO2=
200703221842 SPECI KPAE 221842Z 15012KT 10SM SCT014 BKN019 OVC070 08/06 A3009 RMK AO2=
200703221842 SPECI KPAE 221842Z 15012KT 10SM SCT014 BKN019 OVC070 08/06 A3009 RMK AO2=
200703221811 SPECI KPAE 221811Z 16011KT 10SM SCT008 BKN012 OVC017 08/06 A3011 RMK AO2=
200703221753 METAR KPAE 221753Z 16009KT 10SM BKN008 OVC016 08/06 A3012 RMK AO2 CIG 006V013 SLP201 60008 T00780056 10078 20061 56012=
200703221725 SPECI KPAE 221725Z 14010KT 10SM SCT005 BKN008 07/05 A3011 RMK AO2=
200703221653 METAR KPAE 221653Z 14008KT 10SM SCT005 BKN010 07/05 A3012 RMK AO2 RAE40 SLP203 P0001 T00670050=
200703221644 SPECI KPAE 221644Z 12008KT 10SM SCT005 BKN010 07/05 A3013 RMK AO2 RAE40 P0001=
200703221644 SPECI KPAE 221644Z 12008KT 10SM SCT005 BKN010 07/05 A3013 RMK AO2 RAE40 P0001=
200703221607 SPECI KPAE 221607Z 13010KT 7SM -RA BKN016 OVC047 06/05 A3013 RMK AO2 P0000=
200703221607 SPECI KPAE 221607Z 13010KT 7SM -RA BKN016 OVC047 06/05 A3013 RMK AO2 P0000=
200703221600 SPECI KPAE 221600Z 14010KT 6SM -RA BR BKN034 OVC047 06/05 A3014 RMK AO2 P0000=
200703221600 SPECI KPAE 221600Z 14010KT 6SM -RA BR BKN034 OVC047 06/05 A3014 RMK AO2 P0000=
200703221553 METAR KPAE 221553Z 14012KT 5SM -RA BR BKN014 OVC030 06/05 A3014 RMK AO2 SLP208 P0004 T00610050=
200703221453 METAR KPAE 221453Z 15008KT 7SM -RA BKN014 BKN020 OVC028 07/04 A3015 RMK AO2 SLP214 P0001 60003 T00670044 57008=
200703221353 METAR KPAE 221353Z 16011KT 10SM -RA BKN014 OVC020 07/04 A3016 RMK AO2 SLP215 P0001 T00670039=
200703221253 METAR KPAE 221253Z AUTO 14008KT 8SM -RA OVC012 06/05 A3018 RMK AO2 RAB1157 SLP221 P0001 T00610050=
200703221153 METAR KPAE 221153Z AUTO 15007KT 6SM BR OVC010 06/05 A3018 RMK AO2 RAE36 CIG 007V013 SLP222 P0000 60000 T00610050 10072 20061 56007=
200703221053 METAR KPAE 221053Z AUTO 14009KT 6SM -RA BR OVC010 07/04 A3018 RMK AO2 RAB52 SLP224 P0000 T00670044=
200703220953 METAR KPAE 220953Z AUTO 15010KT 10SM OVC010 07/04 A3019 RMK AO2 SLP226 T00670039=
200703220853 METAR KPAE 220853Z AUTO 15011KT 10SM OVC012 07/04 A3020 RMK AO2 SLP230 T00670039 56015=
200703220830 SPECI KPAE 220830Z AUTO 16011G17KT 10SM OVC014 07/03 A3020 RMK AO2=
200703220830 SPECI KPAE 220830Z AUTO 16011G17KT 10SM OVC014 07/03 A3020 RMK AO2=
200703220753 METAR KPAE 220753Z AUTO 16012KT 10SM OVC018 07/03 A3021 RMK AO2 SLP231 T00720028 400830006=
200703220653 METAR KPAE 220653Z AUTO 15010KT 10SM OVC020 07/03 A3022 RMK AO2 SLP238 T00670028=
200703220553 METAR KPAE 220553Z AUTO 15010KT 10SM OVC024 07/02 A3025 RMK AO2 SLP246 T00670022 10083 20067 50003=
200703220504 SPECI KPAE 220504Z AUTO 14010KT 10SM OVC028 07/02 A3024 RMK AO2=
200703220504 SPECI KPAE 220504Z AUTO 14010KT 10SM OVC028 07/02 A3024 RMK AO2=
200703220453 METAR KPAE 220453Z AUTO 15008KT 10SM OVC030 07/02 A3025 RMK AO2 SLP248 T00670022=
200703220353 METAR KPAE 220353Z AUTO 14007KT 10SM OVC034 07/02 A3026=
200703220253 METAR KPAE 220253Z AUTO 15011KT 10SM OVC036 07/02 A3024 RMK AO2 SLP243 T00720017 56012 TSNO=
200703220153 METAR KPAE 220153Z AUTO 15006KT 10SM OVC038 08/01 A3024 RMK AO2 SLP245 T00780011 TSNO=
200703220053 METAR KPAE 220053Z AUTO 16010KT 10SM OVC038 08/00 A3026 RMK AO2 SLP251 T00780000 TSNO=
200703212353 METAR KPAE 212353Z AUTO 18013KT 10SM OVC038 08/00 A3027 RMK AO2 SLP255 T00830000 10083 20044 56012 TSNO=
200703212253 METAR KPAE 212253Z AUTO 15011KT 10SM SCT036 OVC070 08/00 A3028 RMK AO2 SLP258 T00830000 TSNO=
200703212153 METAR KPAE 212153Z 18013KT 10SM BKN036 OVC065 08/00 A3030 RMK AO2 SLP264 T00780000=
200703212053 METAR KPAE 212053Z 15012KT 10SM SCT040 07/M01 A3031 RMK AO2 SLP267 T00721006 58009=
200703211953 METAR KPAE 211953Z 15011KT 10SM SCT030 07/M01 A3032 RMK AO2 SLP273 T00671006 $=
200703211853 METAR KPAE 211853Z 15010KT 10SM FEW030 06/01 A3033 RMK AO2 SLP276 T00560006=
200703211753 METAR KPAE 211753Z 17011KT 10SM FEW030 05/01 A3034 RMK AO2 SLP277 T00500006 10050 20006 51005 $=
200703211653 METAR KPAE 211653Z 15009KT 10SM CLR 04/M01 A3033 RMK AO2 SLP277 T00391006 $=
200703211553 METAR KPAE 211553Z 15006KT 10SM CLR 02/M01 A3033=
200703211453 METAR KPAE 211453Z 14006KT 10SM 01/M01 A3032 RMK AO2 SLP273 T00111006 51016 $=
200703211353 METAR KPAE 211353Z 15005KT 10SM 01/M01 A3031 RMK AO2 SLP269 T00061006 $=
200703211253 METAR KPAE 211253Z 14007KT 10SM 01/M01 A3029 RMK AO2 SLP261 T00111006 $=
200703211153 METAR KPAE 211153Z 15008KT 10SM CLR 02/M01 A3027 RMK AO2 SLP257 60001 70030 T00171006 10039 20006 50010=
200703211053 METAR KPAE 211053Z 14008KT 10SM BKN055 02/00 A3028 RMK AO2 RAB03E32 SLP257 P0001 T00220000=
200703210953 METAR KPAE 210953Z 00000KT 10SM BKN039 OVC050 02/00 A3028 RMK AO2 SLP259 T00170000=
200703210853 METAR KPAE 210853Z 12005KT 10SM FEW041 01/00 A3024 RMK AO2 SLP246 T00110000 53009=
200703210753 METAR KPAE 210753Z 13004KT 10SM CLR 01/M01 A3023 RMK AO2 SLP243 T00111006 400720006=
200703210653 METAR KPAE 210653Z 16004KT 10SM FEW065 02/M02 A3022 RMK AO2 SLP238 T00171022=
200703210553 METAR KPAE 210553Z 00000KT 10SM BKN060 04/M03 A3021 RMK AO2 SLP236 T00391028 10061 20028 51027=
200703210453 METAR KPAE 210453Z 00000KT 10SM CLR 03/M02 A3019 RMK AO2 SLP229 T00281022=
200703210353 METAR KPAE 210353Z 00000KT 10SM CLR 04/M03 A3017 RMK AO2 SLP220 T00391028=
200703210253 METAR KPAE 210253Z 33003KT 10SM SCT080 04/M03 A3013 RMK AO2 SLP207 T00441033 53021=
200703210153 METAR KPAE 210153Z 31004KT 10SM FEW041 BKN085 06/M02 A3010 RMK AO2 SLP195 T00561022=
200703210053 METAR KPAE 210053Z 28010G15KT 250V310 10SM FEW035 OVC080 06/M01 A3008 RMK AO2 SLP191 T00561011=
200703210000 SPECI KPAE 210000Z 26004KT 10SM OVC060 06/M02 A3007 RMK AO2=
200703210000 SPECI KPAE 210000Z 26004KT 10SM OVC060 06/M02 A3007 RMK AO2=
200703202353 METAR KPAE 202353Z 27007KT 240V310 10SM BKN018 OVC050 06/M02 A3007 RMK AO2 RAE00 SLP186 P0000 60014 T00561017 10061 20022 53013=
200703202253 METAR KPAE 202253Z AUTO 36004KT 10SM -RA BKN026 OVC050 06/00 A3005 RMK AO2 RAB2155E06B50 SLP178 P0000 T00560000 TSNO=
200703202153 METAR KPAE 202153Z 30007KT 10SM BKN018 OVC024 06/02 A3003 RMK AO2 RAB2058E20 SLP173 P0000 T00560017=
200703202100 SPECI KPAE 202100Z 34005KT 9SM -RA FEW018 OVC024 04/01 A3003=
200703202053 METAR KPAE 202053Z 36004KT 10SM BKN008 04/01 A3003 RMK AO2 RAE45UPB38E44 SLP173 P0005 60014 T00390006 51017=
200703202013 SPECI KPAE 202013Z VRB06KT 2SM RA BR BKN008 03/02 A3003 RMK AO2 P0003=
200703202013 SPECI KPAE 202013Z VRB06KT 2SM RA BR BKN008 03/02 A3003 RMK AO2 P0003=
200703201953 METAR KPAE 201953Z 11004KT 5SM -RA BR BKN008 OVC012 03/02 A3002 RMK AO2 RAE22B46 SLP170 P0001 T00330022=
200703201853 METAR KPAE 201853Z 00000KT 4SM -RA BR BKN008 OVC014 03/02 A3001 RMK AO2 SLP166 P0008 T00280017=
200703201835 SPECI KPAE 201835Z 11004KT 3SM RA BR BKN006 OVC013 02/01 A3001 RMK AO2 CIG 005V010 P0006=
200703201827 SPECI KPAE 201827Z 10005KT 5SM -RA BR SCT006 OVC011 03/02 A3000 RMK AO2 P0004=
200703201827 SPECI KPAE 201827Z 10005KT 5SM -RA BR SCT006 OVC011 03/02 A3000 RMK AO2 P0004=
200703201809 SPECI KPAE 201809Z 00000KT 5SM -RA BR OVC013 03/01 A2999 RMK AO2 P0001=
200703201809 SPECI KPAE 201809Z 00000KT 5SM -RA BR OVC013 03/01 A2999 RMK AO2 P0001=
200703201801 SPECI KPAE 201801Z 14003KT 5SM -RA BR SCT010 OVC018 03/01 A2998 RMK AO2 P0000=
200703201753 METAR KPAE 201753Z 00000KT 5SM -RA BR BKN014 OVC020 03/02 A2998 RMK AO2 SLP156 P0004 60015 T00330017 10050 20033 53029=
200703201745 SPECI KPAE 201745Z 00000KT 5SM -RA BR BKN014 OVC020 04/02 A2998 RMK AO2 P0003=
200703201745 SPECI KPAE 201745Z 00000KT 5SM -RA BR BKN014 OVC020 04/02 A2998 RMK AO2 P0003=
200703201732 SPECI KPAE 201732Z VRB04KT 2 1/2SM -RA BR OVC014 03/02 A2997 RMK AO2 P0002=
200703201732 SPECI KPAE 201732Z VRB04KT 2 1/2SM -RA BR OVC014 03/02 A2997 RMK AO2 P0002=
200703201653 METAR KPAE 201653Z 31006KT 9SM -RA OVC017 04/02 A2995 RMK AO2 RAE01B19 SLP145 P0001 T00390017=
200703201553 METAR KPAE 201553Z VRB06KT 10SM -RA BKN016 OVC025 03/01 A2992 RMK AO2 SLP135 P0001 T00330011=
200703201539 SPECI KPAE 201539Z 31005KT 10SM -RA BKN016 OVC023 03/01 A2992 RMK AO2 P0001=
200703201539 SPECI KPAE 201539Z 31005KT 10SM -RA BKN016 OVC023 03/01 A2992 RMK AO2 P0001=
200703201517 SPECI KPAE 201517Z VRB04KT 5SM -RA BR BKN014 OVC019 03/01 A2991 RMK AO2 P0001=
200703201517 SPECI KPAE 201517Z VRB04KT 5SM -RA BR BKN014 OVC019 03/01 A2991 RMK AO2 P0001=
200703201453 METAR KPAE 201453Z 30006G15KT 9SM -RA BKN016 OVC021 04/01 A2989 RMK AO2 SLP125 P0003 60009 T00390011 53035=
200703201353 METAR KPAE 201353Z 35007KT 5SM -RA BKN023 OVC034 04/02 A2986 RMK AO2 SLP112 P0003 T00440017=
200703201253 METAR KPAE 201253Z AUTO 35006KT 5SM -RA BR FEW009 BKN016 OVC023 05/03 A2982=
200703201240 SPECI KPAE 201240Z AUTO 34004KT 5SM -RA BR FEW005 SCT009 OVC021 04/03 A2981 RMK AO2 P0003=
200703201240 SPECI KPAE 201240Z AUTO 34004KT 5SM -RA BR FEW005 SCT009 OVC021 04/03 A2981 RMK AO2 P0003=
200703201231 SPECI KPAE 201231Z AUTO 35004KT 5SM -RA BR FEW005 BKN011 OVC019 05/04 A2981 RMK AO2 P0003=
200703201231 SPECI KPAE 201231Z AUTO 35004KT 5SM -RA BR FEW005 BKN011 OVC019 05/04 A2981 RMK AO2 P0003=
200703201153 METAR KPAE 201153Z AUTO 34006KT 2 1/2SM -RA BR SCT004 OVC009 05/04 A2979=
200703201150 SPECI KPAE 201150Z AUTO 33005KT 2 1/2SM -RA BR FEW004 BKN009 OVC014 05/04 A2979 RMK AO2 RAB28 P0004=
200703201150 SPECI KPAE 201150Z AUTO 33005KT 2 1/2SM -RA BR FEW004 BKN009 OVC014 05/04 A2979 RMK AO2 RAB28 P0004=
200703201123 SPECI KPAE 201123Z AUTO 21006G15KT 10SM BKN009 OVC014 07/04 A2978 RMK AO2=
200703201123 SPECI KPAE 201123Z AUTO 21006G15KT 10SM BKN009 OVC014 07/04 A2978 RMK AO2=
200703201053 METAR KPAE 201053Z AUTO 20013KT 10SM OVC013 07/04 A2976 RMK AO2 SLP080 T00670044=
200703201049 SPECI KPAE 201049Z AUTO 20014KT 10SM BKN013 OVC019 07/04 A2976 RMK AO2=
200703201049 SPECI KPAE 201049Z AUTO 20014KT 10SM BKN013 OVC019 07/04 A2976 RMK AO2=
200703201015 SPECI KPAE 201015Z AUTO 20012G21KT 10SM FEW012 BKN018 OVC090 07/04 A2974 RMK AO2=
200703201015 SPECI KPAE 201015Z AUTO 20012G21KT 10SM FEW012 BKN018 OVC090 07/04 A2974 RMK AO2=
200703200953 METAR KPAE 200953Z AUTO 18016G21KT 10SM BKN012 OVC019 07/05 A2972 RMK AO2 PK WND 19026/0855 SLP066 T00720050=
200703200922 SPECI KPAE 200922Z AUTO 17018G24KT 10SM FEW016 BKN022 OVC100 07/04 A2973 RMK AO2 PK WND 19026/0855=
200703200922 SPECI KPAE 200922Z AUTO 17018G24KT 10SM FEW016 BKN022 OVC100 07/04 A2973 RMK AO2 PK WND 19026/0855=
200703200901 SPECI KPAE 200901Z AUTO 17019G26KT 10SM SCT016 BKN080 OVC100 07/04 A2973 RMK AO2 PK WND 19026/0855=
200703200901 SPECI KPAE 200901Z AUTO 17019G26KT 10SM SCT016 BKN080 OVC100 07/04 A2973 RMK AO2 PK WND 19026/0855=
200703200853 METAR KPAE 200853Z AUTO 18020G27KT 10SM BKN016 BKN048 OVC090 07/04 A2974 RMK AO2 PK WND 18027/0851 CIG 010V031 SLP071 T00720044 55001=
200703200805 SPECI KPAE 200805Z AUTO 17018G26KT 10SM BKN013 BKN025 BKN031 07/05 A2973 RMK AO2 PK WND 17026/0756=
200703200805 SPECI KPAE 200805Z AUTO 17018G26KT 10SM BKN013 BKN025 BKN031 07/05 A2973 RMK AO2 PK WND 17026/0756=
200703200753 METAR KPAE 200753Z AUTO 17019KT 10SM SCT013 BKN031 07/05 A2973 RMK AO2 SLP068 T00720050 401110072=
200703200749 SPECI KPAE 200749Z AUTO 17016G23KT 10SM SCT013 BKN031 07/05 A2973 RMK AO2 401110072=
200703200749 SPECI KPAE 200749Z AUTO 17016G23KT 10SM SCT013 BKN031 07/05 A2973 RMK AO2 401110072=
200703200732 SPECI KPAE 200732Z AUTO 16017G25KT 10SM BKN013 BKN019 OVC060 07/05 A2974 RMK AO2=
200703200732 SPECI KPAE 200732Z AUTO 16017G25KT 10SM BKN013 BKN019 OVC060 07/05 A2974 RMK AO2=
200703200653 METAR KPAE 200653Z AUTO 17017G22KT 10SM SCT013 BKN019 OVC028 07/05 A2974 RMK AO2 PK WND 16026/0627 SLP071 T00720050=
200703200553 METAR KPAE 200553Z AUTO 17019G22KT 10SM SCT009 BKN015 BKN020 07/06 A2975 RMK AO2 RAE01 SLP075 P0000 60001 T00720056 10100 20072 58002=
200703200549 SPECI KPAE 200549Z AUTO 17015G22KT 10SM FEW009 BKN015 OVC020 07/06 A2975 RMK AO2 RAE01 P0000=
200703200549 SPECI KPAE 200549Z AUTO 17015G22KT 10SM FEW009 BKN015 OVC020 07/06 A2975 RMK AO2 RAE01 P0000=
200703200540 SPECI KPAE 200540Z AUTO 17016KT 10SM SCT013 BKN020 07/06 A2975 RMK AO2 RAE01 P0000=
200703200540 SPECI KPAE 200540Z AUTO 17016KT 10SM SCT013 BKN020 07/06 A2975 RMK AO2 RAE01 P0000=
200703200453 METAR KPAE 200453Z AUTO 16016G23KT 10SM -RA BKN040 BKN048 OVC060 07/05 A2976 RMK AO2 RAE03B21 SLP080 P0001 T00720050=
200703200433 SPECI KPAE 200433Z AUTO 16015KT 6SM -RA BR FEW009 BKN045 OVC110 08/06 A2976 RMK AO2 RAE03B21 P0001=
200703200433 SPECI KPAE 200433Z AUTO 16015KT 6SM -RA BR FEW009 BKN045 OVC110 08/06 A2976 RMK AO2 RAE03B21 P0001=
200703200412 SPECI KPAE 200412Z AUTO 15018G25KT 10SM BKN013 BKN047 OVC100 08/06 A2976 RMK AO2 RAE03 P0000=
200703200353 METAR KPAE 200353Z 15017G24KT 10SM -RA FEW018 BKN085 OVC110 08/06 A2976 RMK AO2 PK WND 15027/0317 RAB15 SLP077 P0000 T00780061=
200703200327 SPECI KPAE 200327Z 16016G26KT 10SM -RA SCT017 BKN055 OVC085 08/06 A2975 RMK AO2 PK WND 15027/0317 RAB15 P0000=
200703200327 SPECI KPAE 200327Z 16016G26KT 10SM -RA SCT017 BKN055 OVC085 08/06 A2975 RMK AO2 PK WND 15027/0317 RAB15 P0000=
200703200253 METAR KPAE 200253Z 16018G24KT 10SM SCT014 BKN020 OVC085 09/06 A2977 RMK AO2 PK WND 14026/0218 SLP081 T00890056 51005=
200703200153 METAR KPAE 200153Z 16013KT 10SM SCT014 BKN020 OVC090 09/06 A2976 RMK AO2 SLP080 T00890061=
200703200151 SPECI KPAE 200151Z 15013KT 10SM SCT014 BKN020 OVC090 09/06 A2976 RMK AO2=
200703200151 SPECI KPAE 200151Z 15013KT 10SM SCT014 BKN020 OVC090 09/06 A2976 RMK AO2=
200703200053 METAR KPAE 200053Z 16013G20KT 10SM SCT020 BKN075 OVC150 09/06 A2975 RMK AO2 SLP075 T00940061=
200703192353 METAR KPAE 192353Z 17016KT 10SM SCT020 OVC070 10/06 A2975 RMK AO2 SLP075 60007 T01000061 10106 20100 56011=
200703192253 METAR KPAE 192253Z AUTO 18020G25KT 10SM BKN060 OVC070 10/06 A2975 RMK AO2 PK WND 18027/2218 SLP076 T01000061 TSNO=
200703192153 METAR KPAE 192153Z 19017G24KT 10SM SCT008 BKN032 OVC041 10/07 A2977 RMK AO2 PK WND 17027/2143 RAE50 SLP082 P0001 T01000067=
200703192100 SPECI KPAE 192100Z 18020G25KT 10SM -RA SCT008 BKN032 OVC041 10/08 A2979 RMK AO2 P0000=
200703192100 SPECI KPAE 192100Z 18020G25KT 10SM -RA SCT008 BKN032 OVC041 10/08 A2979 RMK AO2 P0000=
200703192053 METAR KPAE 192053Z 18017G23KT 10SM -RA SCT008 BKN017 OVC035 10/08 A2978 RMK AO2 SLP086 P0001 60006 T01000083 50005=
200703191953 METAR KPAE 191953Z 16014KT 6SM -RA BR SCT008 BKN017 OVC035 10/08 A2978 RMK AO2 SLP086 P0003 T01000083=
200703191853 METAR KPAE 191853Z 17014G20KT 6SM -RA BR FEW008 BKN040 OVC050 10/08 A2978 RMK AO2 SLP085 P0002 T01000078=
200703191753 METAR KPAE 191753Z 16014KT 10SM -RA 10/08 A2977 RMK AO2 SLP081 P0000 60003 T01000078 10106 20094 57006=
200703191653 METAR KPAE 191653Z 15013KT 10SM -RA SCT011 BKN050 OVC100 10/08 A2977 RMK AO2 RAB00 SLP082 P0003 T01000078 $=
200703191602 SPECI KPAE 191602Z 16008KT 1 3/4SM -RA BR SCT011 10/08 A2978 RMK AO2 RAB00 P0000 $=
200703191602 SPECI KPAE 191602Z 16008KT 1 3/4SM -RA BR SCT011 10/08 A2978 RMK AO2 RAB00 P0000 $=
200703191553 METAR KPAE 191553Z 16012KT 10SM SCT011 10/08 A2978 RMK AO2 SLP085 T01000078 $=
200703191500 SPECI KPAE 191500Z 14011KT 10SM SCT011 10/08 A2978=
200703191453 METAR KPAE 191453Z 14010KT 10SM BKN011 10/08 A2978 RMK AO2 SLP086 T01000078 56012 $=
200703191427 SPECI KPAE 191427Z 16012KT 10SM BKN011 10/08 A2979 RMK AO2 $=
200703191427 SPECI KPAE 191427Z 16012KT 10SM BKN011 10/08 A2979 RMK AO2 $=
200703191353 METAR KPAE 191353Z 15011KT 10SM SCT010 09/08 A2980 RMK AO2 SLP090 T00940078 $=
200703191253 METAR KPAE 191253Z AUTO 15015KT 10SM 09/08 A2981 RMK AO2 SLP094 T00940078 $=
200703191153 METAR KPAE 191153Z AUTO 15011KT 10SM FEW022 SCT029 BKN038 10/08 A2982 RMK AO2 SLP098 T01000078 10122 20100 56012=
200703191053 METAR KPAE 191053Z AUTO 16012KT 10SM FEW022 SCT036 10/07 A2983 RMK AO2 SLP101 T01000072=
200703190953 METAR KPAE 190953Z AUTO 17011KT 10SM CLR 10/07 A2985=
200703190853 METAR KPAE 190853Z AUTO 17011KT 10SM FEW060 11/07 A2986 RMK AO2 SLP111 T01060072 56011=
200703190753 METAR KPAE 190753Z AUTO 15007KT 10SM CLR 11/07 A2987 RMK AO2 SLP114 T01110072 401500083=
200703190653 METAR KPAE 190653Z AUTO 17008KT 10SM FEW028 12/07 A2988=
200703190645 SPECI KPAE 190645Z AUTO 17010KT 10SM SCT028 SCT036 12/07 A2988 RMK AO2=
200703190645 SPECI KPAE 190645Z AUTO 17010KT 10SM SCT028 SCT036 12/07 A2988 RMK AO2=
200703190638 SPECI KPAE 190638Z AUTO 17010KT 10SM BKN028 BKN041 12/07 A2988 RMK AO2=
200703190638 SPECI KPAE 190638Z AUTO 17010KT 10SM BKN028 BKN041 12/07 A2988 RMK AO2=
200703190605 SPECI KPAE 190605Z AUTO 16010KT 10SM SCT026 BKN037 BKN060 12/08 A2989 RMK AO2=
200703190605 SPECI KPAE 190605Z AUTO 16010KT 10SM SCT026 BKN037 BKN060 12/08 A2989 RMK AO2=
200703190553 METAR KPAE 190553Z AUTO 17009KT 10SM BKN026 OVC036 12/08 A2989 RMK AO2 SLP122 T01220078 10144 20122 58007=
200703190525 SPECI KPAE 190525Z AUTO 17007KT 10SM BKN024 BKN033 OVC050 12/08 A2990 RMK AO2=
200703190525 SPECI KPAE 190525Z AUTO 17007KT 10SM BKN024 BKN033 OVC050 12/08 A2990 RMK AO2=
200703190453 METAR KPAE 190453Z 18008KT 10SM FEW039 SCT048 BKN070 12/08 A2990 RMK AO2 SLP126 T01220083=
200703190353 METAR KPAE 190353Z 14007KT 10SM CLR 13/09 A2990 RMK AO2 SLP127 T01280089=
200703190253 METAR KPAE 190253Z 13008KT 10SM FEW049 13/09 A2991 RMK AO2 SLP129 T01280089 57014=
200703190153 METAR KPAE 190153Z 14006KT 10SM SCT070 OVC150 13/09 A2992 RMK AO2 SLP133 T01330089=
200703190053 METAR KPAE 190053Z 16007KT 10SM BKN070 14/08 A2994 RMK AO2 SLP139 T01390078=
200703182353 METAR KPAE 182353Z 14009KT 10SM FEW030 OVC070 14/07 A2995 RMK AO2 SLP143 T01440072 10150 20106 58016=
200703182253 METAR KPAE 182253Z 16010KT 10SM SCT027 BKN150 15/08 A2997 RMK AO2 SLP150 T01500078=
200703182211 SPECI KPAE 182211Z 18011KT 10SM SCT025 15/08 A2998 RMK AO2=
200703182211 SPECI KPAE 182211Z 18011KT 10SM SCT025 15/08 A2998 RMK AO2=
200703182153 METAR KPAE 182153Z 15009KT 10SM BKN025 OVC031 15/09 A2998 RMK AO2 SLP154 T01500089=
200703182053 METAR KPAE 182053Z 14010KT 10SM OVC020 13/08 A3000 RMK AO2 SLP159 T01280083 58007=
200703181953 METAR KPAE 181953Z 14010KT 10SM BKN016 BKN024 OVC029 12/08 A3001 RMK AO2 SLP164 T01220083=
200703181853 METAR KPAE 181853Z 16009KT 10SM BKN015 OVC020 12/08 A3002 RMK AO2 SLP166 T01220083=
200703181826 SPECI KPAE 181826Z 13008KT 10SM SCT011 SCT017 OVC024 11/08 A3002=
200703181753 METAR KPAE 181753Z 16009KT 10SM BKN011 BKN018 OVC024 11/08 A3002 RMK AO2 SLP168 T01060083 10106 20083 52004=
200703181750 SPECI KPAE 181750Z 17008KT 10SM BKN011 BKN018 OVC026 11/08 A3002 RMK AO2 CIG 008V013=
200703181750 SPECI KPAE 181750Z 17008KT 10SM BKN011 BKN018 OVC026 11/08 A3002 RMK AO2 CIG 008V013=
200703181653 METAR KPAE 181653Z 15007KT 10SM BKN006 OVC012 09/08 A3001 RMK AO2 CIG 004V009 SLP164 T00940083=
200703181646 SPECI KPAE 181646Z 15007KT 10SM OVC006 09/08 A3001 RMK AO2 CIG 004V010=
200703181646 SPECI KPAE 181646Z 15007KT 10SM OVC006 09/08 A3001 RMK AO2 CIG 004V010=
200703181557 SPECI KPAE 181557Z 16006KT 10SM OVC003 09/08 A3001 RMK AO2=
200703181557 SPECI KPAE 181557Z 16006KT 10SM OVC003 09/08 A3001 RMK AO2=
200703181553 METAR KPAE 181553Z 15006KT 1 1/2SM BR BKN002 OVC019 09/08 A3001 RMK AO2 SLP163 T00890078=
200703181522 SPECI KPAE 181522Z 14007KT 1 1/2SM BR BKN002 OVC019 09/08 A3000 RMK AO2=
200703181522 SPECI KPAE 181522Z 14007KT 1 1/2SM BR BKN002 OVC019 09/08 A3000 RMK AO2=
200703181453 METAR KPAE 181453Z 15006KT 9SM FEW005 OVC021 09/08 A3001 RMK AO2 SLP164 T00890078 55000 $=
200703181434 SPECI KPAE 181434Z 14006KT 9SM FEW005 OVC021 09/08 A3001 RMK AO2 $=
200703181434 SPECI KPAE 181434Z 14006KT 9SM FEW005 OVC021 09/08 A3001 RMK AO2 $=
200703181421 SPECI KPAE 181421Z 15003KT 10SM SCT005 BKN010 OVC019 08/08 A3001 RMK AO2 CIG 009V014 $=
200703181421 SPECI KPAE 181421Z 15003KT 10SM SCT005 BKN010 OVC019 08/08 A3001 RMK AO2 CIG 009V014 $=
200703181353 METAR KPAE 181353Z 19003KT 7SM OVC006 08/08 A3001 RMK AO2 CIG 003V009 SLP164 T00830078=
200703181341 SPECI KPAE 181341Z 19004KT 7SM OVC006 08/08 A3001 RMK AO2 CIG 003V009=
200703181341 SPECI KPAE 181341Z 19004KT 7SM OVC006 08/08 A3001 RMK AO2 CIG 003V009=
200703181253 METAR KPAE 181253Z 19004KT 10SM OVC002 08/08 A3001 RMK AO2 SLP163 T00830078=
200703181153 METAR KPAE 181153Z 19005KT 4SM BR OVC002 08/08 A3001=
200703181104 SPECI KPAE 181104Z 19005KT 3SM BR OVC002 08/08 A3000 RMK AO2=
200703181053 METAR KPAE 181053Z 19005KT 2 1/2SM BR OVC002 08/08 A3000 RMK AO2 SLP162 P0001 T00830078=
200703180953 METAR KPAE 180953Z 20007KT 5SM BR OVC004 08/08 A3001 RMK AO2 CIG 002V008 SLP163 T00830078=
200703180912 SPECI KPAE 180912Z 20008KT 4SM BR OVC004 08/08 A3000 RMK AO2=
200703180912 SPECI KPAE 180912Z 20008KT 4SM BR OVC004 08/08 A3000 RMK AO2=
200703180853 METAR KPAE 180853Z 19008KT 8SM OVC006 09/08 A3000 RMK AO2 CIG 004V009 SLP160 T00890078 51002=
200703180840 SPECI KPAE 180840Z 19008KT 10SM BKN008 OVC014 09/08 A3000 RMK AO2 CIG 006V009=
200703180840 SPECI KPAE 180840Z 19008KT 10SM BKN008 OVC014 09/08 A3000 RMK AO2 CIG 006V009=
200703180811 SPECI KPAE 180811Z 18009KT 10SM FEW008 OVC014 09/07 A2999 RMK AO2=
200703180811 SPECI KPAE 180811Z 18009KT 10SM FEW008 OVC014 09/07 A2999 RMK AO2=
200703180753 METAR KPAE 180753Z 18009KT 10SM FEW008 BKN016 BKN070 08/07 A3000 RMK AO2 SLP160 T00830072 401060067=
200703180745 SPECI KPAE 180745Z 18008KT 10SM FEW008 SCT016 BKN070 08/07 A3000 RMK AO2=
200703180745 SPECI KPAE 180745Z 18008KT 10SM FEW008 SCT016 BKN070 08/07 A3000 RMK AO2=
200703180653 METAR KPAE 180653Z 18010KT 10SM OVC075 09/08 A3000 RMK AO2 SLP159 T00890078=
200703180553 METAR KPAE 180553Z 18014KT 10SM BKN070 09/08 A2999 RMK AO2 SLP158 60013 T00890078 10106 20089 53004=
200703180453 METAR KPAE 180453Z 16012KT 10SM SCT070 BKN100 BKN120 09/08 A2998 RMK AO2 RAE34 SLP155 P0003 T00940078=
200703180353 METAR KPAE 180353Z 17011KT 7SM -RA BKN047 OVC060 09/08 A2999 RMK AO2 SLP157 P0003 T00940083=
200703180300 SPECI KPAE 180300Z 17009KT 10SM -RA OVC060 10/08 A2998 RMK AO2 P0000=
200703180300 SPECI KPAE 180300Z 17009KT 10SM -RA OVC060 10/08 A2998 RMK AO2 P0000=
200703180253 METAR KPAE 180253Z 18008KT 10SM -RA BKN010 BKN025 OVC075 10/08 A2998 RMK AO2 SLP154 P0001 60007 T01000083 53003=
200703180153 METAR KPAE 180153Z 18013KT 10SM -RA BKN010 BKN025 OVC040 10/09 A2996 RMK AO2 SLP147 P0006 T01000089=
200703180053 METAR KPAE 180053Z 17014KT 10SM -RA BKN010 OVC016 11/09 A2997 RMK AO2 RAB46 CIG 006V013 SLP150 P0000 T01060089=
200703180010 SPECI KPAE 180010Z 15011KT 10SM BKN008 OVC013 11/09 A2997 RMK AO2 CIG 006V011=
200703180010 SPECI KPAE 180010Z 15011KT 10SM BKN008 OVC013 11/09 A2997 RMK AO2 CIG 006V011=
200703172353 METAR KPAE 172353Z 16011KT 10SM BKN011 OVC100 11/09 A2997 RMK AO2 RAE2259 SLP150 P0000 60016 T01060089 10106 20094 57008=
200703172300 SPECI KPAE 172300Z 15014G18KT 10SM FEW008 SCT065 OVC095 11/09 A2997 RMK AO2 RAE2259 P0000=
200703172300 SPECI KPAE 172300Z 15014G18KT 10SM FEW008 SCT065 OVC095 11/09 A2997 RMK AO2 RAE2259 P0000=
200703172253 METAR KPAE 172253Z AUTO 14012G18KT 10SM -RA BKN006 BKN041 OVC055 11/09 A2997 RMK AO2 RAE17B46 SLP151 P0001 T01060089 TSNO=
200703172153 METAR KPAE 172153Z 15011KT 6SM -RA BR BKN006 BKN013 OVC037 11/09 A2999 RMK AO2 SLP158 P0008 T01060089=
200703172149 SPECI KPAE 172149Z 15011G17KT 4SM -RA BR BKN006 BKN013 OVC037 10/09 A2999 RMK AO2 P0008=
200703172149 SPECI KPAE 172149Z 15011G17KT 4SM -RA BR BKN006 BKN013 OVC037 10/09 A2999 RMK AO2 P0008=
200703172141 SPECI KPAE 172141Z 14014KT 2 1/2SM RA BR BKN006 BKN013 OVC037 10/09 A2999 RMK AO2 P0007=
200703172141 SPECI KPAE 172141Z 14014KT 2 1/2SM RA BR BKN006 BKN013 OVC037 10/09 A2999 RMK AO2 P0007=
200703172053 METAR KPAE 172053Z 14012KT 4SM -RA BR BKN009 OVC037 10/09 A3001 RMK AO2 SLP165 P0002 60007 T01000089 56007=
200703172050 SPECI KPAE 172050Z 15012KT 6SM -RA BR BKN009 OVC037 10/09 A3002 RMK AO2 P0002=
200703172050 SPECI KPAE 172050Z 15012KT 6SM -RA BR BKN009 OVC037 10/09 A3002 RMK AO2 P0002=
200703172033 SPECI KPAE 172033Z 15012KT 6SM -RA BR FEW009 BKN014 OVC030 10/08 A3002 RMK AO2 P0001=
200703172033 SPECI KPAE 172033Z 15012KT 6SM -RA BR FEW009 BKN014 OVC030 10/08 A3002 RMK AO2 P0001=
200703172015 SPECI KPAE 172015Z 14010KT 4SM -RA BR FEW008 BKN025 OVC030 10/08 A3002 RMK AO2 P0001=
200703172015 SPECI KPAE 172015Z 14010KT 4SM -RA BR FEW008 BKN025 OVC030 10/08 A3002 RMK AO2 P0001=
200703172006 SPECI KPAE 172006Z 14011KT 5SM -RA BR SCT018 BKN027 OVC031 10/08 A3003=
200703171953 METAR KPAE 171953Z 14011KT 4SM -RA BR FEW018 OVC030 10/08 A3003 RMK AO2 SLP170 P0003 T01000083=
200703171941 SPECI KPAE 171941Z 15012KT 7SM -RA OVC032 10/08 A3003 RMK AO2 P0002=
200703171941 SPECI KPAE 171941Z 15012KT 7SM -RA OVC032 10/08 A3003 RMK AO2 P0002=
200703171906 SPECI KPAE 171906Z 14011KT 4SM -RA BR BKN010 BKN035 OVC050 09/08 A3003 RMK AO2 P0001=
200703171906 SPECI KPAE 171906Z 14011KT 4SM -RA BR BKN010 BKN035 OVC050 09/08 A3003 RMK AO2 P0001=
200703171853 METAR KPAE 171853Z 15009KT 6SM -RA BR BKN008 BKN047 OVC075 09/08 A3004 RMK AO2 SLP173 P0002 T00940078=
200703171846 SPECI KPAE 171846Z 16009KT 7SM -RA BKN008 BKN047 OVC075 09/08 A3004 RMK AO2 P0001=
200703171846 SPECI KPAE 171846Z 16009KT 7SM -RA BKN008 BKN047 OVC075 09/08 A3004 RMK AO2 P0001=
200703171800 SPECI KPAE 171800Z 15013KT 9SM -RA FEW008 OVC080 09/07 A3003 RMK AO2 P0000=
200703171800 SPECI KPAE 171800Z 15013KT 9SM -RA FEW008 OVC080 09/07 A3003 RMK AO2 P0000=
200703171753 METAR KPAE 171753Z 15013KT 9SM -RA BKN008 OVC080 09/07 A3003 RMK AO2 RAB16 SLP170 P0000 60000 T00940072 10094 20083 51002=
200703171653 METAR KPAE 171653Z 15011KT 10SM OVC008 09/07 A3003 RMK AO2 SLP169 T00890067=
200703171553 METAR KPAE 171553Z 17007KT 10SM OVC008 09/07 A3003 RMK AO2 SLP171 T00890067 $=
200703171453 METAR KPAE 171453Z 18008KT 10SM OVC005 08/07 A3003 RMK AO2 SLP168 T00830067 55002 $=
200703171406 SPECI KPAE 171406Z 19010KT 10SM BKN005 08/07 A3001=
200703171353 METAR KPAE 171353Z AUTO 14012KT 10SM 09/07 A3001 RMK AO2 SLP161 T00890067 $=
200703171253 METAR KPAE 171253Z AUTO 16011KT 10SM 08/07 A3002 RMK AO2 SLP167 T00830072 $=
200703171153 METAR KPAE 171153Z AUTO 16007KT 10SM 09/07 A3003 RMK AO2 SLP169 T00890072 10122 20067 58010 $=
200703171053 METAR KPAE 171053Z AUTO 00000KT 9SM 08/07 A3004 RMK AO2 SLP174 T00780067 $=
200703170953 METAR KPAE 170953Z AUTO 36004KT 8SM 07/06 A3006 RMK AO2 SLP180 T00720061 $=
200703170942 SPECI KPAE 170942Z AUTO 00000KT 6SM BR 07/06 A3006 RMK AO2 $=
200703170942 SPECI KPAE 170942Z AUTO 00000KT 6SM BR 07/06 A3006 RMK AO2 $=
200703170934 SPECI KPAE 170934Z AUTO 36003KT 2SM BR 07/06 A3006 RMK AO2 $=
200703170934 SPECI KPAE 170934Z AUTO 36003KT 2SM BR 07/06 A3006 RMK AO2 $=
200703170926 SPECI KPAE 170926Z AUTO 36004KT 1/2SM FG 07/06 A3007 RMK AO2 $=
200703170926 SPECI KPAE 170926Z AUTO 36004KT 1/2SM FG 07/06 A3007 RMK AO2 $=
200703170853 METAR KPAE 170853Z AUTO 32004KT 1/4SM FG 07/06 A3006 RMK AO2 SLP180 T00670061 53008 $=
200703170841 SPECI KPAE 170841Z AUTO 35003KT 1/4SM FG 07/06 A3006 RMK AO2 $=
200703170841 SPECI KPAE 170841Z AUTO 35003KT 1/4SM FG 07/06 A3006 RMK AO2 $=
200703170833 SPECI KPAE 170833Z AUTO 36004KT 1 1/2SM BR 07/06 A3006 RMK AO2 $=
200703170833 SPECI KPAE 170833Z AUTO 36004KT 1 1/2SM BR 07/06 A3006 RMK AO2 $=
200703170753 METAR KPAE 170753Z AUTO 01005KT 6SM BR 07/06 A3005 RMK AO2 SLP177 T00720061 401670056 $=
200703170653 METAR KPAE 170653Z AUTO 02003KT 10SM 08/07 A3004=
200703170553 METAR KPAE 170553Z AUTO 12005KT 10SM CLR 12/08 A3004 RMK AO2 SLP172 T01220078 10167 20122 55001=
200703170453 METAR KPAE 170453Z AUTO 14007KT 10SM CLR 14/07 A3003 RMK AO2 SLP171 T01390072=
200703170353 METAR KPAE 170353Z 14005KT 10SM CLR 14/07 A3004 RMK AO2 SLP173 T01440067=
200703170253 METAR KPAE 170253Z 15006KT 10SM CLR 15/07 A3004 RMK AO2 SLP172 T01500072 56015=
200703170153 METAR KPAE 170153Z 14006KT 10SM FEW100 16/07 A3005 RMK AO2 SLP177 T01610067=
200703170053 METAR KPAE 170053Z 14007KT 10SM OVC100 17/06 A3006 RMK AO2 SLP181 T01670061=
200703162353 METAR KPAE 162353Z 15007KT 10SM OVC095 17/07 A3008 RMK AO2 SLP188 T01670067 10167 20106 58012=
200703162253 METAR KPAE 162253Z 15008KT 10SM BKN100 16/06 A3010 RMK AO2 SLP193 T01610061=
200703162153 METAR KPAE 162153Z 16010KT 10SM OVC100 16/06 A3011 RMK AO2 SLP197 T01610061=
200703162053 METAR KPAE 162053Z 15010KT 10SM BKN100 15/06 A3012 RMK AO2 SLP200 T01500056 58011=
200703161953 METAR KPAE 161953Z 15012KT 10SM SCT110 14/06 A3013 RMK AO2 SLP203 T01440056 $=
200703161853 METAR KPAE 161853Z 14008KT 10SM 13/06 A3015 RMK AO2 SLP210 T01280056 $=
200703161753 METAR KPAE 161753Z 13009KT 10SM SCT024 11/04 A3015 RMK AO2 SLP212 T01060044 10106 20067 50004=
200703161715 SPECI KPAE 161715Z 13011KT 10SM SCT024 09/04 A3015 RMK AO2=
200703161715 SPECI KPAE 161715Z 13011KT 10SM SCT024 09/04 A3015 RMK AO2=
200703161653 METAR KPAE 161653Z 14016KT 10SM OVC024 09/04 A3016 RMK AO2 SLP215 T00890039=
200703161553 METAR KPAE 161553Z 13009KT 10SM OVC022 08/03 A3015 RMK AO2 SLP212 T00830033=
200703161453 METAR KPAE 161453Z 13008KT 10SM OVC024 08/03 A3014 RMK AO2 SLP210 T00830033 53001=
200703161353 METAR KPAE 161353Z 14009KT 10SM OVC024 08/04 A3013 RMK AO2 SLP207 T00780039=
200703161253 METAR KPAE 161253Z AUTO 14009KT 10SM OVC026 08/04 A3013 RMK AO2 SLP205 T00780044=
200703161242 SPECI KPAE 161242Z AUTO 14008KT 10SM OVC028 07/04 A3013 RMK AO2=
200703161242 SPECI KPAE 161242Z AUTO 14008KT 10SM OVC028 07/04 A3013 RMK AO2=
200703161153 METAR KPAE 161153Z AUTO 13004KT 10SM OVC030 07/05 A3014 RMK AO2 SLP208 70011 T00670050 10067 20056 55013=
200703161053 METAR KPAE 161053Z AUTO 13011KT 10SM OVC030 07/05 A3013 RMK AO2 SLP207 T00670050=
200703161043 SPECI KPAE 161043Z AUTO 13012KT 10SM OVC030 07/05 A3014 RMK AO2=
200703161043 SPECI KPAE 161043Z AUTO 13012KT 10SM OVC030 07/05 A3014 RMK AO2=
200703161007 SPECI KPAE 161007Z AUTO 13012KT 10SM BKN028 OVC035 06/04 A3015 RMK AO2=
200703160953 METAR KPAE 160953Z AUTO 12011KT 10SM SCT028 OVC035 07/04 A3015 RMK AO2 SLP214 T00670044=
200703160853 METAR KPAE 160853Z AUTO 12008KT 10SM OVC033 06/04 A3018 RMK AO2 SLP221 T00610044 56010=
200703160753 METAR KPAE 160753Z AUTO 12010KT 10SM OVC035 06/04 A3018 RMK AO2 SLP222 T00610039 400780017=
200703160653 METAR KPAE 160653Z AUTO 10012KT 10SM OVC035 06/04 A3019 RMK AO2 SLP227 T00560039=
200703160610 SPECI KPAE 160610Z AUTO 10009KT 8SM FEW003 OVC037 06/04 A3020 RMK AO2=
200703160610 SPECI KPAE 160610Z AUTO 10009KT 8SM FEW003 OVC037 06/04 A3020 RMK AO2=
200703160553 METAR KPAE 160553Z AUTO 11004KT 8SM OVC037 06/05 A3020 RMK AO2 RAE02 SLP232 P0000 60011 T00560050 10072 20056 58017=
200703160453 METAR KPAE 160453Z AUTO 13005KT 9SM -RA OVC037 06/05 A3023 RMK AO2 SLP242 P0005 T00610050=
200703160353 METAR KPAE 160353Z AUTO 11007KT 7SM -RA OVC041 06/04 A3024 RMK AO2 SLP244 P0002 T00560044=
200703160253 METAR KPAE 160253Z 11008KT 10SM -RA OVC049 06/04 A3026 RMK AO2 SLP249 P0003 60004 T00610039 58011=
200703160153 METAR KPAE 160153Z 12006KT 8SM -RA OVC049 07/04 A3027 RMK AO2 SLP256 P0001 T00670039=
200703160053 METAR KPAE 160053Z 11008KT 10SM -RA FEW055 BKN080 07/03 A3027 RMK AO2 SLP255 P0000 T00720028=
200703152353 METAR KPAE 152353Z AUTO 11009KT 10SM -RA FEW037 OVC055 07/01 A3029 RMK AO2 SLP260 P0000 60000 T00720011 10078 20044 58018 TSNO=
200703152253 METAR KPAE 152253Z AUTO 14007KT 10SM -RA SCT036 OVC045 07/01 A3031 RMK AO2 RAB18 SLP268 P0000 T00720006 TSNO=
200703152153 METAR KPAE 152153Z 12007KT 10SM BKN037 08/M02 A3033 RMK AO2 SLP273 T00781017=
200703152053 METAR KPAE 152053Z 16007KT 10SM OVC080 08/M01 A3034 RMK AO2 SLP278 T00781011 58009=
200703151953 METAR KPAE 151953Z 12007KT 10SM BKN085 07/M02 A3035 RMK AO2 SLP282 T00671017=
200703151853 METAR KPAE 151853Z 11005KT 10SM FEW085 06/M01 A3036 RMK AO2 SLP286 T00561006=
200703151753 METAR KPAE 151753Z 10007KT 10SM OVC085 04/M01 A3037 RMK AO2 SLP288 T00391011 10044 20017 50005=
200703151653 METAR KPAE 151653Z 14004KT 10SM OVC090 03/M02 A3037 RMK AO2 SLP289 T00331017=
200703151553 METAR KPAE 151553Z 00000KT 10SM OVC100 03/M02 A3037 RMK AO2 SLP290 T00281022 $=
200703151453 METAR KPAE 151453Z 10007KT 10SM 02/M02 A3035 RMK AO2 SLP284 T00221022 56008 $=
200703151353 METAR KPAE 151353Z 10006KT 10SM BKN200 02/M02 A3036 RMK AO2 SLP286 T00171022 $=
200703151253 METAR KPAE 151253Z AUTO 09006KT 10SM 02/M02 A3036 RMK AO2 SLP286 T00221017 TSNO $=
200703151153 METAR KPAE 151153Z AUTO 10004KT 10SM 02/M02 A3038 RMK AO2 SLP291 70004 T00221017 10044 20022 58009 TSNO $=
200703151053 METAR KPAE 151053Z AUTO 08005KT 10SM 03/M02 A3039 RMK AO2 SLP294 T00281017 TSNO $=
200703150953 METAR KPAE 150953Z AUTO 04004KT 10SM FEW045 SCT060 03/M01 A3040 RMK AO2 SLP299 T00281006 TSNO=
200703150853 METAR KPAE 150853Z AUTO 00000KT 10SM OVC055 03/M01 A3041 RMK AO2 SLP301 T00331011 50003 TSNO=
200703150753 METAR KPAE 150753Z AUTO 11004KT 10SM FEW048 OVC060 03/M01 A3041 RMK AO2 SLP301 T00331006 400720028 TSNO=
200703150653 METAR KPAE 150653Z AUTO 10005KT 10SM OVC060 03/M01 A3040 RMK AO2 SLP301 T00331006 TSNO=
200703150553 METAR KPAE 150553Z AUTO 06005KT 10SM SCT065 04/M02 A3040 RMK AO2 SLP298 T00441017 10072 20033 50002 TSNO=
200703150453 METAR KPAE 150453Z AUTO 35003KT 10SM OVC065 04/M02 A3041 RMK AO2 SLP302 T00391017 TSNO=
200703150353 METAR KPAE 150353Z AUTO 00000KT 10SM OVC060 04/M02 A3039 RMK AO2 SLP296 T00441022 TSNO=
200703150253 METAR KPAE 150253Z 00000KT 10SM FEW070 03/M01 A3039 RMK AO2 SLP297 T00331011 55003=
200703150153 METAR KPAE 150153Z 00000KT 10SM OVC070 06/M02 A3039=
200703150053 METAR KPAE 150053Z 35004KT 10SM SCT070 06/M03 A3039 RMK AO2 SLP297 T00611028=
200703142353 METAR KPAE 142353Z 34004KT 10SM BKN050 BKN060 07/M03 A3040 RMK AO2 SLP299 60000 T00671033 10072 20039 53004=
200703142253 METAR KPAE 142253Z 34006KT 10SM BKN055 06/M03 A3039 RMK AO2 SLP297 T00611028=
200703142153 METAR KPAE 142153Z VRB03KT 10SM FEW043 BKN055 07/M01 A3039 RMK AO2 SLP296 T00671011=
200703142053 METAR KPAE 142053Z VRB05KT 10SM BKN046 BKN060 05/M01 A3039 RMK AO2 SLP295 60000 T00501006 51009=
200703141953 METAR KPAE 141953Z VRB06KT 10SM FEW024 OVC060 06/M01 A3038 RMK AO2 RAE01 SLP292 P0000 T00561006=
200703141853 METAR KPAE 141853Z 00000KT 10SM -RA FEW020 SCT028 OVC035 04/M01 A3038 RMK AO2 RAB50 SLP291 P0000 T00441006=
200703141753 METAR KPAE 141753Z 18003KT 10SM BKN041 OVC060 04/00 A3036 RMK AO2 RAB20E35 SLP286 P0000 60004 T00390000 10039 20028 51035=
200703141737 SPECI KPAE 141737Z 26003KT 10SM FEW026 BKN032 OVC060 03/M01 A3035 RMK AO2 RAB20E35 P0000=
200703141737 SPECI KPAE 141737Z 26003KT 10SM FEW026 BKN032 OVC060 03/M01 A3035 RMK AO2 RAB20E35 P0000=
200703141728 SPECI KPAE 141728Z 28004KT 10SM -RA BKN029 BKN039 OVC055 03/M01 A3035 RMK AO2 RAB20 P0000=
200703141728 SPECI KPAE 141728Z 28004KT 10SM -RA BKN029 BKN039 OVC055 03/M01 A3035 RMK AO2 RAB20 P0000=
200703141712 SPECI KPAE 141712Z 25004KT 10SM SCT026 BKN033 OVC055 03/M01 A3034 RMK AO2=
200703141712 SPECI KPAE 141712Z 25004KT 10SM SCT026 BKN033 OVC055 03/M01 A3034 RMK AO2=
200703141653 METAR KPAE 141653Z 23003KT 10SM OVC028 03/M01 A3033 RMK AO2 RAB1555E51UPB48E50SNE1555 SLP274 P0001 T00331006=
200703141632 SPECI KPAE 141632Z 23005KT 10SM -RA BKN026 OVC036 03/M01 A3032 RMK AO2 RAB1555SNE1555 P0000=
200703141632 SPECI KPAE 141632Z 23005KT 10SM -RA BKN026 OVC036 03/M01 A3032 RMK AO2 RAB1555SNE1555 P0000=
200703141553 METAR KPAE 141553Z 28006KT 9SM -SN BKN034 OVC060 03/M02 A3029 RMK AO2 RAE45SNB45 SLP263 P0000 T00331017=
200703141453 METAR KPAE 141453Z 30008KT 10SM -RA FEW016 OVC050 03/00 A3026 RMK AO2 RAB13 SLP250 P0000 60003 T00330000 51026=
200703141445 SPECI KPAE 141445Z 25007KT 10SM -RA FEW016 BKN048 OVC060 03/01 A3025 RMK AO2 RAB13 P0000=
200703141445 SPECI KPAE 141445Z 25007KT 10SM -RA FEW016 BKN048 OVC060 03/01 A3025 RMK AO2 RAB13 P0000=
200703141353 METAR KPAE 141353Z 31004KT 10SM BKN019 OVC024 03/01 A3024 RMK AO2 RAE1254 SLP243 T00330006=
200703141253 METAR KPAE 141253Z 32007KT 290V350 10SM -RA BKN015 BKN022 OVC028 03/01 A3021 RMK AO2 SLP233 P0003 T00330011=
200703141153 METAR KPAE 141153Z 00000KT 7SM -RA BKN016 OVC024 03/01 A3018 RMK AO2 RAB17 SLP224 P0004 60004 70004 T00280011 10061 20028 51015=
200703141140 SPECI KPAE 141140Z 00000KT 4SM RA BR SCT010 OVC016 03/01 A3018 RMK AO2 RAB17 P0002=
200703141140 SPECI KPAE 141140Z 00000KT 4SM RA BR SCT010 OVC016 03/01 A3018 RMK AO2 RAB17 P0002=
200703141126 SPECI KPAE 141126Z 31006KT 7SM -RA FEW008 BKN012 OVC025 03/01 A3018 RMK AO2 RAB17 P0000=
200703141126 SPECI KPAE 141126Z 31006KT 7SM -RA FEW008 BKN012 OVC025 03/01 A3018 RMK AO2 RAB17 P0000=
200703141115 SPECI KPAE 141115Z 31011G16KT 10SM BKN008 OVC025 04/01 A3017 RMK AO2=
200703141115 SPECI KPAE 141115Z 31011G16KT 10SM BKN008 OVC025 04/01 A3017 RMK AO2=
200703141053 METAR KPAE 141053Z 20004KT 10SM BKN025 OVC065 04/02 A3016 RMK AO2 SLP216 T00440017=
200703141000 SPECI KPAE 141000Z 21008KT 10SM FEW022 BKN027 OVC085 04/02 A3016 RMK AO2=
200703141000 SPECI KPAE 141000Z 21008KT 10SM FEW022 BKN027 OVC085 04/02 A3016 RMK AO2=
200703140953 METAR KPAE 140953Z 20007KT 10SM SCT027 OVC085 04/02 A3016 RMK AO2 SLP216 T00440017=
200703140933 SPECI KPAE 140933Z 20008KT 10SM FEW014 SCT022 BKN085 04/02 A3015 RMK AO2=
200703140933 SPECI KPAE 140933Z 20008KT 10SM FEW014 SCT022 BKN085 04/02 A3015 RMK AO2=
200703140908 SPECI KPAE 140908Z 20009KT 10SM BKN016 BKN021 04/02 A3014 RMK AO2=
200703140908 SPECI KPAE 140908Z 20009KT 10SM BKN016 BKN021 04/02 A3014 RMK AO2=
200703140853 METAR KPAE 140853Z 18013G18KT 10SM OVC014 05/02 A3014 RMK AO2 SLP208 T00500017 53008=
200703140753 METAR KPAE 140753Z 19009G17KT 10SM OVC014 06/02 A3012 RMK AO2 SLP203 T00560022 400890022=
200703140708 SPECI KPAE 140708Z 19014KT 10SM OVC014 06/02 A3011 RMK AO2=
200703140708 SPECI KPAE 140708Z 19014KT 10SM OVC014 06/02 A3011 RMK AO2=
200703140653 METAR KPAE 140653Z 18013KT 10SM OVC016 06/02 A3011 RMK AO2 SLP199 T00560022=
200703140553 METAR KPAE 140553Z 19012KT 10SM SCT020 BKN024 OVC085 06/02 A3011 RMK AO2 SLP200 T00610017 10072 20056 55001=
200703140453 METAR KPAE 140453Z 17015KT 10SM OVC020 06/02 A3011 RMK AO2 SLP200 T00610017=
200703140414 SPECI KPAE 140414Z 18015KT 10SM BKN022 OVC080 06/02 A3010 RMK AO2=
200703140414 SPECI KPAE 140414Z 18015KT 10SM BKN022 OVC080 06/02 A3010 RMK AO2=
200703140353 METAR KPAE 140353Z AUTO 18014KT 10SM FEW024 BKN080 06/02 A3011 RMK AO2 SLP200 T00610017 TSNO=
200703140253 METAR KPAE 140253Z AUTO 18013KT 10SM BKN024 OVC090 07/02 A3012 RMK AO2 SLP202 T00670022 55006 TSNO=
200703140220 SPECI KPAE 140220Z AUTO 19017KT 10SM FEW021 SCT027 BKN033 07/02 A3011 RMK AO2 TSNO=
200703140220 SPECI KPAE 140220Z AUTO 19017KT 10SM FEW021 SCT027 BKN033 07/02 A3011 RMK AO2 TSNO=
200703140153 METAR KPAE 140153Z AUTO 18014KT 10SM BKN021 BKN027 OVC031 07/02 A3012 RMK AO2 SLP204 T00720022 TSNO=
200703140121 SPECI KPAE 140121Z AUTO 19014KT 10SM BKN023 OVC033 07/02 A3013 RMK AO2 TSNO=
200703140121 SPECI KPAE 140121Z AUTO 19014KT 10SM BKN023 OVC033 07/02 A3013 RMK AO2 TSNO=
200703140053 METAR KPAE 140053Z AUTO 18015KT 10SM FEW025 BKN031 07/02 A3013 RMK AO2 SLP208 T00720017 TSNO=
200703132353 METAR KPAE 132353Z AUTO 18017KT 10SM OVC027 08/02 A3015 RMK AO2 SLP213 T00780017 10089 20056 56009 TSNO=
200703132336 SPECI KPAE 132336Z AUTO 16015KT 10SM BKN029 OVC070 08/01 A3016 RMK AO2 TSNO=
200703132336 SPECI KPAE 132336Z AUTO 16015KT 10SM BKN029 OVC070 08/01 A3016 RMK AO2 TSNO=
200703132253 METAR KPAE 132253Z AUTO 17017G25KT 10SM FEW032 SCT039 OVC075 08/01 A3015 RMK AO2 SLP214 T00780011 TSNO=
200703132153 METAR KPAE 132153Z 18017KT 10SM FEW034 BKN080 09/01 A3016 RMK AO2 SLP215 T00890006=
200703132053 METAR KPAE 132053Z 17016G19KT 10SM SCT034 BKN065 09/01 A3017 RMK AO2 SLP220 T00890011 58010=
200703132000 SPECI KPAE 132000Z 17016G21KT 10SM FEW029 BKN034 OVC085 08/01 A3019 RMK AO2=
200703132000 SPECI KPAE 132000Z 17016G21KT 10SM FEW029 BKN034 OVC085 08/01 A3019 RMK AO2=
200703131953 METAR KPAE 131953Z 17018G21KT 10SM BKN019 08/01 A3018 RMK AO2 SLP224 T00830011=
200703131916 SPECI KPAE 131916Z 17016KT 10SM BKN019 08/01 A3019 RMK AO2=
200703131916 SPECI KPAE 131916Z 17016KT 10SM BKN019 08/01 A3019 RMK AO2=
200703131853 METAR KPAE 131853Z 15012KT 10SM BKN020 08/01 A3020 RMK AO2 SLP228 T00780011=
200703131753 METAR KPAE 131753Z 16011KT 10SM FEW020 SCT050 BKN250 06/01 A3020 RMK AO2 SLP232 T00560006 10056 20022 51003=
200703131653 METAR KPAE 131653Z 16012KT 10SM SCT012 BKN050 04/01 A3020 RMK AO2 SLP231 T00440006=
200703131553 METAR KPAE 131553Z 16006KT 10SM BKN012 03/01 A3020 RMK AO2 SLP231 T00330006=
200703131453 METAR KPAE 131453Z COR 14008KT 10SM SCT015 02/00 A3019 RMK AO2 SLP229 T00220000 57003 $=
200703131353 METAR KPAE 131353Z 15006KT 10SM CLR 03/00 A3020 RMK AO2 SLP229 T00280000=
200703131253 METAR KPAE 131253Z AUTO 15006KT 10SM CLR 03/00 A3020 RMK AO2 SLP229 T00280000 TSNO=
200703131153 METAR KPAE 131153Z AUTO 13003KT 10SM BKN050 03/00 A3020 RMK AO2 SLP231 60000 70014 T00330000 10050 20033 58001 TSNO=
200703131053 METAR KPAE 131053Z AUTO 10003KT 10SM BKN041 BKN049 OVC070 04/00 A3020 RMK AO2 SLP230 T00390000 TSNO=
200703130953 METAR KPAE 130953Z AUTO 00000KT 10SM BKN047 OVC070 04/00 A3021=
200703130853 METAR KPAE 130853Z AUTO 04003KT 10SM BKN036 OVC045 04/00 A3020 RMK AO2 SLP232 60000 T00440000 51005 TSNO=
200703130753 METAR KPAE 130753Z AUTO 01004KT 10SM OVC037 04/01 A3019 RMK AO2 RAB15E28 SLP229 P0000 T00440006 401170044 TSNO=
200703130653 METAR KPAE 130653Z AUTO 32004KT 10SM OVC035 04/01 A3020 RMK AO2 SLP230 T00440006 TSNO=
200703130553 METAR KPAE 130553Z AUTO 00000KT 10SM OVC035 05/01 A3019=
200703130453 METAR KPAE 130453Z 33004KT 10SM OVC037 04/01 A3020 RMK AO2 SLP230 T00440006=
200703130353 METAR KPAE 130353Z 34004KT 10SM OVC034 05/01 A3019 RMK AO2 SLP226 T00500006=
200703130253 METAR KPAE 130253Z 33005KT 10SM FEW022 OVC034 05/01 A3018 RMK AO2 SLP223 T00500006 56007=
200703130153 METAR KPAE 130153Z 34005KT 10SM OVC040 06/01 A3019 RMK AO2 SLP226 T00560006=
200703130053 METAR KPAE 130053Z 36004KT 10SM BKN036 OVC070 06/01 A3019 RMK AO2 SLP226 T00560006=
200703122353 METAR KPAE 122353Z 36006KT 10SM OVC034 05/01 A3020 RMK AO2 SLP231 60002 T00500006 10067 20050 56004=
200703122338 SPECI KPAE 122338Z 01007KT 10SM OVC032 05/01 A3020 RMK AO2=
200703122338 SPECI KPAE 122338Z 01007KT 10SM OVC032 05/01 A3020 RMK AO2=
200703122312 SPECI KPAE 122312Z 34008KT 10SM OVC028 05/01 A3021 RMK AO2=
200703122312 SPECI KPAE 122312Z 34008KT 10SM OVC028 05/01 A3021 RMK AO2=
200703122253 METAR KPAE 122253Z 35007KT 10SM FEW022 OVC030 06/02 A3021 RMK AO2 SLP233 T00560017=
200703122244 SPECI KPAE 122244Z 34005KT 10SM FEW017 OVC026 05/01 A3021=
200703122153 METAR KPAE 122153Z 35006KT 10SM OVC030 06/02 A3020 RMK AO2 RAE01 SLP230 P0000 T00560017=
200703122053 METAR KPAE 122053Z 33008KT 10SM -RA OVC034 06/02 A3022 RMK AO2 SLP234 P0001 60002 T00610017 50004=
200703121953 METAR KPAE 121953Z 33005KT 10SM -RA BKN022 OVC028 06/02 A3022 RMK AO2 SLP236 P0001 T00560022=
200703121853 METAR KPAE 121853Z 34009G14KT 10SM -RA OVC022 06/02 A3021 RMK AO2 SLP233 P0000 T00560022=
200703121753 METAR KPAE 121753Z 33007KT 7SM -RA BKN018 OVC023 06/03 A3020 RMK AO2 SLP229 P0001 60012 T00560028 10100 20050 51033=
200703121653 METAR KPAE 121653Z 35010KT 3SM -RA BR FEW002 BKN006 OVC016 05/04 A3018 RMK AO2 SLP221 P0003 T00500039=
200703121553 METAR KPAE 121553Z 33009KT 3SM -RA BR FEW002 BKN006 OVC016 06/04 A3013 RMK AO2 SLP206 P0007 T00560039=
200703121522 SPECI KPAE 121522Z 34009KT 3SM -RA BR FEW002 BKN006 OVC016 06/05 A3012 RMK AO2 P0004=
200703121522 SPECI KPAE 121522Z 34009KT 3SM -RA BR FEW002 BKN006 OVC016 06/05 A3012 RMK AO2 P0004=
200703121509 SPECI KPAE 121509Z 33008KT 290V010 3SM -RA BR FEW002 SCT006 OVC014 06/06 A3011 RMK AO2 P0003=
200703121509 SPECI KPAE 121509Z 33008KT 290V010 3SM -RA BR FEW002 SCT006 OVC014 06/06 A3011 RMK AO2 P0003=
200703121501 SPECI KPAE 121501Z 34009KT 1 3/4SM RA BR FEW004 SCT010 OVC016 07/06 A3011 RMK AO2 P0002=
200703121501 SPECI KPAE 121501Z 34009KT 1 3/4SM RA BR FEW004 SCT010 OVC016 07/06 A3011 RMK AO2 P0002=
200703121455 SPECI KPAE 121455Z 35009KT 2 1/2SM RA BR FEW004 BKN010 OVC023 07/06 A3010 RMK AO2 P0001=
200703121455 SPECI KPAE 121455Z 35009KT 2 1/2SM RA BR FEW004 BKN010 OVC023 07/06 A3010 RMK AO2 P0001=
200703121453 METAR KPAE 121453Z 34010KT 4SM RA BR BKN004 BKN010 OVC023 07/06 A3010 RMK AO2 RAB47 SLP195 P0001 60001 T00670056 53038=
200703121353 METAR KPAE 121353Z 20008KT 10SM BKN019 BKN031 09/06 A3005 RMK AO2 PRESRR SLP175 T00940061=
200703121316 SPECI KPAE 121316Z AUTO 18013KT 10SM SCT015 10/07 A3000 RMK AO2=
200703121316 SPECI KPAE 121316Z AUTO 18013KT 10SM SCT015 10/07 A3000 RMK AO2=
200703121300 SPECI KPAE 121300Z AUTO 18014KT 10SM BKN015 10/07 A2999 RMK AO2=
200703121300 SPECI KPAE 121300Z AUTO 18014KT 10SM BKN015 10/07 A2999 RMK AO2=
200703121253 METAR KPAE 121253Z AUTO 18014KT 10SM BKN013 10/07 A2999 RMK AO2 SLP155 T01000072=
200703121153 METAR KPAE 121153Z AUTO 18017KT 10SM OVC011 11/08 A2996 RMK AO2 PK WND 19029/1129 SLP146 60001 70006 T01060083 10122 20106 53005=
200703121103 SPECI KPAE 121103Z AUTO 18022G27KT 10SM BKN011 BKN014 11/08 A2995 RMK AO2 PK WND 18027/1059=
200703121103 SPECI KPAE 121103Z AUTO 18022G27KT 10SM BKN011 BKN014 11/08 A2995 RMK AO2 PK WND 18027/1059=
200703121053 METAR KPAE 121053Z AUTO 18022KT 10SM SCT011 11/08 A2995 RMK AO2 PK WND 18036/1013 SLP143 T01060083=
200703121016 SPECI KPAE 121016Z AUTO 18025G36KT 10SM FEW011 11/09 A2995 RMK AO2 PK WND 18036/1013=
200703121016 SPECI KPAE 121016Z AUTO 18025G36KT 10SM FEW011 11/09 A2995 RMK AO2 PK WND 18036/1013=
200703121004 SPECI KPAE 121004Z AUTO 18028G33KT 10SM BKN013 11/09 A2995 RMK AO2 PK WND 18033/1004=
200703121004 SPECI KPAE 121004Z AUTO 18028G33KT 10SM BKN013 11/09 A2995 RMK AO2 PK WND 18033/1004=
200703120953 METAR KPAE 120953Z AUTO 18025G33KT 10SM BKN015 11/09 A2995 RMK AO2 PK WND 18033/0950 SLP142 T01110089=
200703120911 SPECI KPAE 120911Z AUTO 19020G30KT 10SM OVC015 11/09 A2996 RMK AO2 PK WND 19030/0902=
200703120911 SPECI KPAE 120911Z AUTO 19020G30KT 10SM OVC015 11/09 A2996 RMK AO2 PK WND 19030/0902=
200703120853 METAR KPAE 120853Z AUTO 18023G28KT 10SM BKN013 OVC018 12/09 A2995 RMK AO2 PK WND 18033/0826 RAB01E14 SLP141 P0000 60001 T01170094 50003=
200703120806 SPECI KPAE 120806Z AUTO 19024G32KT 10SM -RA BKN013 OVC019 12/10 A2997=
200703120753 METAR KPAE 120753Z AUTO 18021G25KT 10SM SCT009 BKN017 OVC055 12/10 A2996 RMK AO2 PK WND 17031/0654 SLP146 T01170100 401560100=
200703120749 SPECI KPAE 120749Z AUTO 18020G25KT 10SM FEW009 BKN017 OVC055 12/10 A2997 RMK AO2 PK WND 17031/0654 401560100=
200703120749 SPECI KPAE 120749Z AUTO 18020G25KT 10SM FEW009 BKN017 OVC055 12/10 A2997 RMK AO2 PK WND 17031/0654 401560100=
200703120723 SPECI KPAE 120723Z AUTO 18023G28KT 10SM BKN009 BKN014 OVC110 12/10 A2995 RMK AO2 PK WND 17031/0654=
200703120723 SPECI KPAE 120723Z AUTO 18023G28KT 10SM BKN009 BKN014 OVC110 12/10 A2995 RMK AO2 PK WND 17031/0654=
200703120653 METAR KPAE 120653Z AUTO 17025G31KT 10SM FEW009 BKN100 OVC120 12/10 A2994 RMK AO2 PK WND 17032/0622 RAB09E45 SLP138 P0001 T01170100=
200703120628 SPECI KPAE 120628Z AUTO 18021G32KT 10SM -RA SCT009 BKN055 OVC090 12/11 A2994=
200703120618 SPECI KPAE 120618Z AUTO 18022G31KT 10SM -RA BKN009 BKN060 OVC090 12/11 A2995 RMK AO2 PK WND 18031/0613 RAB09 P0000=
200703120618 SPECI KPAE 120618Z AUTO 18022G31KT 10SM -RA BKN009 BKN060 OVC090 12/11 A2995 RMK AO2 PK WND 18031/0613 RAB09 P0000=
200703120553 METAR KPAE 120553Z AUTO 19024G30KT 10SM BKN011 BKN039 OVC100 12/11 A2995 RMK AO2 PK WND 19033/0508 RAE51 SLP141 P0001 60001 T01220106 10156 20122 50015=
200703120512 SPECI KPAE 120512Z AUTO 18021G33KT 10SM -RA BKN011 BKN055 OVC085 12/11 A2993 RMK AO2 PK WND 19033/0508 PRESFR P0001=
200703120512 SPECI KPAE 120512Z AUTO 18021G33KT 10SM -RA BKN011 BKN055 OVC085 12/11 A2993 RMK AO2 PK WND 19033/0508 PRESFR P0001=
200703120453 METAR KPAE 120453Z AUTO 19020G31KT 9SM -RA SCT011 BKN055 OVC090 12/11 A2995 RMK AO2 PK WND 18036/0426 RAB03 SLP143 P0000 T01220106=
200703120436 SPECI KPAE 120436Z AUTO 19027G34KT 10SM -RA SCT016 BKN050 OVC095 13/10 A2995 RMK AO2 PK WND 18036/0426 RAB03 P0000=
200703120436 SPECI KPAE 120436Z AUTO 19027G34KT 10SM -RA SCT016 BKN050 OVC095 13/10 A2995 RMK AO2 PK WND 18036/0426 RAB03 P0000=
200703120353 METAR KPAE 120353Z AUTO 19020G29KT 10SM BKN020 OVC027 14/10 A2993 RMK AO2 PK WND 22039/0330 RAB35E53 SLP135 P0000 T01390100=
200703120305 SPECI KPAE 120305Z AUTO 18021G27KT 10SM FEW018 BKN027 OVC037 14/11 A2992 RMK AO2 PK WND 18030/0255=
200703120305 SPECI KPAE 120305Z AUTO 18021G27KT 10SM FEW018 BKN027 OVC037 14/11 A2992 RMK AO2 PK WND 18030/0255=
200703120253 METAR KPAE 120253Z 18020G28KT 10SM SCT025 BKN060 OVC075 14/11 A2991 RMK AO2 PK WND 19033/0213 SLP127 T01440111 56014=
200703120153 METAR KPAE 120153Z 18022G31KT 10SM BKN021 15/12 A2992 RMK AO2 PK WND 19037/0111 SLP130 T01500117=
200703120145 SPECI KPAE 120145Z 19025G35KT 10SM BKN021 BKN029 15/12 A2991 RMK AO2 PK WND 19037/0111=
200703120145 SPECI KPAE 120145Z 19025G35KT 10SM BKN021 BKN029 15/12 A2991 RMK AO2 PK WND 19037/0111=
200703120121 SPECI KPAE 120121Z 18028G34KT 10SM SCT017 15/12 A2989 RMK AO2 PK WND 19037/0111=
200703120121 SPECI KPAE 120121Z 18028G34KT 10SM SCT017 15/12 A2989 RMK AO2 PK WND 19037/0111=
200703120053 METAR KPAE 120053Z 17026G35KT 10SM BKN017 OVC025 15/12 A2990 RMK AO2 PK WND 17035/0051 SLP124 T01500117=
200703112353 METAR KPAE 112353Z 17018G27KT 10SM BKN019 OVC024 16/12 A2995 RMK AO2 PK WND 18034/2319 SLP141 60002 T01560117 10156 20133 56021=
200703112309 SPECI KPAE 112309Z 16018G29KT 10SM FEW016 BKN023 OVC037 16/12 A2997 RMK AO2 PK WND 17029/2303=
200703112309 SPECI KPAE 112309Z 16018G29KT 10SM FEW016 BKN023 OVC037 16/12 A2997 RMK AO2 PK WND 17029/2303=
200703112253 METAR KPAE 112253Z 17017G23KT 10SM SCT014 BKN037 OVC045 15/12 A2997 RMK AO2 PK WND 17031/2210 RAE06 SLP149 P0001 T01500122=
200703112153 METAR KPAE 112153Z 17020G29KT 10SM -RA SCT008 BKN017 OVC037 15/12 A2999 RMK AO2 PK WND 17029/2148 RAE05B44 SLP153 P0000 T01500122=
200703112053 METAR KPAE 112053Z 18021G33KT 3SM -RA BR BKN008 BKN021 OVC029 14/12 A3001 RMK AO2 PK WND 18033/2045 RAB1957 SLP163 P0000 60001 T01390122 50011=
200703112034 SPECI KPAE 112034Z 18023G28KT 6SM -RA BR BKN008 BKN021 OVC029 14/13 A3000 RMK AO2 PK WND 18032/2021 RAB1957 P0000=
200703112034 SPECI KPAE 112034Z 18023G28KT 6SM -RA BR BKN008 BKN021 OVC029 14/13 A3000 RMK AO2 PK WND 18032/2021 RAB1957 P0000=
200703112027 SPECI KPAE 112027Z 18023G32KT 7SM FEW008 BKN021 OVC029 14/13 A3001 RMK AO2 PK WND 18032/2021 RAB1957E25 P0000=
200703112027 SPECI KPAE 112027Z 18023G32KT 7SM FEW008 BKN021 OVC029 14/13 A3001 RMK AO2 PK WND 18032/2021 RAB1957E25 P0000=
200703112020 SPECI KPAE 112020Z 18024G30KT 5SM -RA BR SCT009 BKN012 OVC028 14/13 A3001 RMK AO2 PK WND 18030/2020 RAB1957 P0000=
200703112005 SPECI KPAE 112005Z 17021KT 3SM -RA BR SCT007 BKN012 OVC021 14/13 A3001 RMK AO2 PK WND 18028/1956 RAB1957 P0000=
200703112005 SPECI KPAE 112005Z 17021KT 3SM -RA BR SCT007 BKN012 OVC021 14/13 A3001 RMK AO2 PK WND 18028/1956 RAB1957 P0000=
200703111953 METAR KPAE 111953Z 17022G29KT 10SM BKN009 BKN017 OVC025 14/13 A3002 RMK AO2 PK WND 17033/1920 RAE16B42E52 CIG 006V012 SLP165 P0001 T01390128=
200703111951 SPECI KPAE 111951Z 18023G26KT 10SM -RA BKN009 BKN017 OVC025 14/13 A3002 RMK AO2 PK WND 17033/1920 RAE16B42 CIG 006V012 P0001=
200703111951 SPECI KPAE 111951Z 18023G26KT 10SM -RA BKN009 BKN017 OVC025 14/13 A3002 RMK AO2 PK WND 17033/1920 RAE16B42 CIG 006V012 P0001=
200703111943 SPECI KPAE 111943Z 18023G26KT 3SM -RA BR BKN010 BKN017 OVC024 14/12 A3001 RMK AO2 PK WND 17033/1920 RAE16B42 P0001=
200703111943 SPECI KPAE 111943Z 18023G26KT 3SM -RA BR BKN010 BKN017 OVC024 14/12 A3001 RMK AO2 PK WND 17033/1920 RAE16B42 P0001=
200703111920 SPECI KPAE 111920Z 17024G33KT 2SM BR FEW008 BKN019 OVC024 14/13 A3000 RMK AO2 PK WND 17033/1920 RAE16 P0000=
200703111920 SPECI KPAE 111920Z 17024G33KT 2SM BR FEW008 BKN019 OVC024 14/13 A3000 RMK AO2 PK WND 17033/1920 RAE16 P0000=
200703111900 SPECI KPAE 111900Z 17025G32KT 3SM -RA BR FEW008 BKN018 OVC060 14/13 A2999 RMK AO2 PK WND 17032/1856 P0000=
200703111900 SPECI KPAE 111900Z 17025G32KT 3SM -RA BR FEW008 BKN018 OVC060 14/13 A2999 RMK AO2 PK WND 17032/1856 P0000=
200703111853 METAR KPAE 111853Z 17026G37KT 3SM -RA BR BKN008 BKN015 OVC060 14/12 A2999 RMK AO2 PK WND 17038/1814 RAE1754B37 SLP156 P0000 T01390122=
200703111755 SPECI KPAE 111755Z 17026G35KT 7SM BKN008 BKN015 OVC028 13/12 A2998 RMK AO2 PK WND 17035/1754 RAE54=
200703111755 SPECI KPAE 111755Z 17026G35KT 7SM BKN008 BKN015 OVC028 13/12 A2998 RMK AO2 PK WND 17035/1754 RAE54=
200703111753 METAR KPAE 111753Z 16023G32KT 6SM -RA BR SCT008 BKN015 OVC027 13/12 A2998 RMK AO2 PK WND 17032/1751 SLP151 P0001 60002 T01330122 10133 20111 58004=
200703111751 SPECI KPAE 111751Z 17026G32KT 6SM -RA BR SCT008 OVC015 13/12 A2998 RMK AO2 PK WND 17032/1751 P0001=
200703111751 SPECI KPAE 111751Z 17026G32KT 6SM -RA BR SCT008 OVC015 13/12 A2998 RMK AO2 PK WND 17032/1751 P0001=
200703111723 SPECI KPAE 111723Z 16022G30KT 3SM -RA BR BKN008 BKN013 OVC026 13/12 A2998 RMK AO2 PK WND 17030/1714 CIG 005V009 P0001=
200703111653 METAR KPAE 111653Z 16019KT 2 1/2SM -RA BR BKN008 OVC055 13/12 A2999=
200703111553 METAR KPAE 111553Z 16019G29KT 10SM -RA BKN005 BKN011 OVC035 13/11 A2999 RMK AO2 PK WND 16030/1533 RAE05B53 SLP155 P0000 T01280111=
200703111453 METAR KPAE 111453Z 15019G27KT 5SM -RA BR SCT005 BKN009 OVC035 12/11 A2999 RMK AO2 PK WND 15027/1449 SLP156 P0000 60001 T01170106 58008=
200703111353 METAR KPAE 111353Z 15013KT 5SM -RA BR BKN007 OVC014 11/11 A3001 RMK AO2 CIG 004V012 SLP164 P0001 T01110106=
200703111253 METAR KPAE 111253Z AUTO 15016G22KT 7SM -RA BKN005 BKN009 OVC046 11/10 A3001 RMK AO2 RAE1155B44 SLP162 P0000 T01110100=
200703111153 METAR KPAE 111153Z AUTO 16016KT 10SM -RA OVC005 11/10 A3001 RMK AO2 RAB44 CIG 004V009 SLP164 P0000 60008 70018 T01110100 10111 20094 58010=
200703111104 SPECI KPAE 111104Z AUTO 15011KT 10SM OVC005 11/09 A3002 RMK AO2 CIG 003V008=
200703111104 SPECI KPAE 111104Z AUTO 15011KT 10SM OVC005 11/09 A3002 RMK AO2 CIG 003V008=
200703111053 METAR KPAE 111053Z AUTO 15014KT 10SM BKN003 OVC008 11/09 A3002 RMK AO2 RAE37 CIG 003V006 SLP168 P0000 T01060094=
200703111019 SPECI KPAE 111019Z AUTO 15013KT 10SM -RA OVC003 11/09 A3003 RMK AO2 CIG 003V007 P0000=
200703111019 SPECI KPAE 111019Z AUTO 15013KT 10SM -RA OVC003 11/09 A3003 RMK AO2 CIG 003V007 P0000=
200703110953 METAR KPAE 110953Z AUTO 16014G22KT 8SM -RA OVC005 11/09 A3004 RMK AO2 CIG 003V007 SLP173 P0005 T01060094=
200703110853 METAR KPAE 110853Z AUTO 14013G19KT 5SM RA BR OVC005 10/09 A3005 RMK AO2 RAB31 CIG 004V009 SLP175 P0003 60003 T01000089 58007=
200703110753 METAR KPAE 110753Z AUTO 14012KT 10SM OVC007 10/09 A3005 RMK AO2 CIG 004V012 SLP177 T01000089 401170078=
200703110705 SPECI KPAE 110705Z AUTO 13009KT 10SM BKN005 OVC010 10/08 A3007 RMK AO2 CIG 003V008=
200703110705 SPECI KPAE 110705Z AUTO 13009KT 10SM BKN005 OVC010 10/08 A3007 RMK AO2 CIG 003V008=
200703110653 METAR KPAE 110653Z AUTO 13010KT 10SM SCT005 OVC010 09/08 A3007 RMK AO2 RAE27 CIG 008V014 SLP183 P0000 T00940083=
200703110624 SPECI KPAE 110624Z AUTO 15012KT 6SM -RA BR FEW007 OVC013 09/08 A3007 RMK AO2 P0000=
200703110624 SPECI KPAE 110624Z AUTO 15012KT 6SM -RA BR FEW007 OVC013 09/08 A3007 RMK AO2 P0000=
200703110553 METAR KPAE 110553Z AUTO 15014KT 8SM -RA BKN011 OVC016 10/08 A3007 RMK AO2 SLP184 P0005 60009 T01000083 10117 20094 53010=
200703110508 SPECI KPAE 110508Z AUTO 15013KT 7SM -RA BKN013 OVC028 10/08 A3006 RMK AO2 P0001=
200703110508 SPECI KPAE 110508Z AUTO 15013KT 7SM -RA BKN013 OVC028 10/08 A3006 RMK AO2 P0001=
200703110453 METAR KPAE 110453Z 16014KT 7SM -RA SCT013 BKN018 OVC055 10/08 A3005 RMK AO2 RAB0355 SLP179 P0004 T01000083=
200703110353 METAR KPAE 110353Z 14013KT 10SM SCT012 BKN018 OVC022 10/08 A3004 RMK AO2 SLP175 T01000078=
200703110253 METAR KPAE 110253Z 15011KT 10SM SCT021 BKN026 OVC046 10/07 A3004 RMK AO2 SLP174 T01000072 53003=
200703110233 SPECI KPAE 110233Z 15013KT 10SM FEW015 BKN038 OVC047 11/07 A3003 RMK AO2=
200703110233 SPECI KPAE 110233Z 15013KT 10SM FEW015 BKN038 OVC047 11/07 A3003 RMK AO2=
200703110221 SPECI KPAE 110221Z 15010KT 10SM FEW013 BKN027 OVC037 11/07 A3003 RMK AO2=
200703110221 SPECI KPAE 110221Z 15010KT 10SM FEW013 BKN027 OVC037 11/07 A3003 RMK AO2=
200703110153 METAR KPAE 110153Z 16012KT 10SM BKN037 OVC047 11/07 A3004 RMK AO2 SLP173 T01060072=
200703110053 METAR KPAE 110053Z 16017G22KT 10SM SCT025 OVC035 11/07 A3002=
200703102353 METAR KPAE 102353Z 18020G23KT 10SM FEW029 BKN036 OVC043 12/07 A3003 RMK AO2 SLP170 60000 T01170067 10117 20100 55007=
200703102253 METAR KPAE 102253Z 16012KT 10SM SCT042 OVC060 12/08 A3002 RMK AO2 RAB06E15 SLP168 P0000 T01170078=
200703102153 METAR KPAE 102153Z 16013KT 10SM FEW042 BKN070 OVC090 11/07 A3005 RMK AO2 SLP177 T01110072=
200703102053 METAR KPAE 102053Z 16014G20KT 10SM FEW039 BKN048 OVC110 11/07 A3005 RMK AO2 SLP177 60000 T01110067 58017=
200703101953 METAR KPAE 101953Z 16015G22KT 10SM SCT046 SCT070 OVC090 11/06 A3007 RMK AO2 SLP184 T01060061=
200703101853 METAR KPAE 101853Z 14014KT 10SM BKN039 OVC050 11/06 A3009 RMK AO2 RAB29E44 SLP192 P0000 T01060061=
200703101753 METAR KPAE 101753Z 15013KT 10SM SCT020 OVC050 10/06 A3010 RMK AO2 SLP194 60001 T01000061 10100 20083 58005=
200703101653 METAR KPAE 101653Z 14011KT 10SM BKN018 OVC050 09/07 A3010 RMK AO2 SLP196 T00940067 $=
200703101611 SPECI KPAE 101611Z 14010KT 8SM OVC024 09/07 A3011=
200703101553 METAR KPAE 101553Z 14011KT 10SM OVC030 09/06 A3012 RMK AO2 SLP201 T00890061 $=
200703101453 METAR KPAE 101453Z AUTO 14011KT 10SM 08/07 A3011 RMK AO2 RAE28 SLP200 P0000 60001 T00830072 58002 TSNO $=
200703101353 METAR KPAE 101353Z AUTO 14006KT 5SM -RA BR 08/07 A3012 RMK AO2 RAB1255 SLP201 P0001 T00830072 TSNO $=
200703101253 METAR KPAE 101253Z AUTO 15009KT 10SM 08/07 A3013 RMK AO2 SLP204 T00830067 TSNO $=
200703101153 METAR KPAE 101153Z AUTO 15009KT 10SM 08/07 A3012 RMK AO2 SLP201 T00830067 10094 20078 50007 TSNO $=
200703101053 METAR KPAE 101053Z AUTO 17014KT 10SM 08/06 A3012 RMK AO2 SLP202 T00780061 TSNO $=
200703100953 METAR KPAE 100953Z AUTO 17013KT 10SM 08/06 A3011 RMK AO2 SLP198 T00830061 TSNO $=
200703100853 METAR KPAE 100853Z AUTO 16011KT 10SM 09/07 A3010 RMK AO2 SLP194 T00890067 51013 TSNO $=
200703100753 METAR KPAE 100753Z AUTO 14012KT 10SM 09/07 A3009 RMK AO2 SLP190 T00890067 401110056 TSNO $=
200703100653 METAR KPAE 100653Z AUTO 14012KT 10SM 09/07 A3008 RMK AO2 SLP186 T00890072 TSNO $=
200703100553 METAR KPAE 100553Z AUTO 11010KT 10SM 09/07 A3006 RMK AO2 SLP180 T00890072 10106 20089 51006 TSNO $=
200703100453 METAR KPAE 100453Z 15012KT 10SM OVC090 09/07 A3004 RMK AO2 SLP176 T00890067=
200703100353 METAR KPAE 100353Z 16011KT 10SM OVC075 09/06 A3005 RMK AO2 SLP179 T00940061=
200703100338 SPECI KPAE 100338Z 16012KT 10SM FEW025 SCT034 OVC080 09/06 A3004 RMK AO2=
200703100338 SPECI KPAE 100338Z 16012KT 10SM FEW025 SCT034 OVC080 09/06 A3004 RMK AO2=
200703100253 METAR KPAE 100253Z 16011KT 10SM OVC027 09/06 A3004 RMK AO2 SLP174 T00940061 53015=
200703100232 SPECI KPAE 100232Z 17011KT 10SM BKN025 OVC038 09/06 A3003 RMK AO2=
200703100232 SPECI KPAE 100232Z 17011KT 10SM BKN025 OVC038 09/06 A3003 RMK AO2=
200703100153 METAR KPAE 100153Z 14013KT 10SM FEW016 BKN040 09/06 A3000 RMK AO2 SLP161 T00940056=
200703100053 METAR KPAE 100053Z AUTO 15015KT 10SM FEW045 BKN060 10/06 A2999 RMK AO2 SLP159 T01000056=
200703092353 METAR KPAE 092353Z 16011KT 10SM FEW050 11/05 A2999 RMK AO2 SLP158 60000 T01060050 10111 20083 56002=
200703092253 METAR KPAE 092253Z 19012KT 10SM SCT038 BKN060 OVC090 11/04 A3000 RMK AO2 SLP160 T01060039=
200703092153 METAR KPAE 092153Z 16011KT 10SM BKN070 BKN090 11/03 A2999 RMK AO2 RAE10B39E49 SLP157 P0000 T01110033=
200703092053 METAR KPAE 092053Z 20006KT 10SM -RA OVC048 10/04 A3000 RMK AO2 RAB44 SLP160 P0000 60000 T01000044 57004=
200703091953 METAR KPAE 091953Z 20009KT 10SM OVC048 09/03 A3000 RMK AO2 SLP162 T00940028=
200703091853 METAR KPAE 091853Z 16010KT 10SM SCT041 BKN055 OVC070 09/03 A3000 RMK AO2 SLP163 T00940033=
200703091753 METAR KPAE 091753Z 14010KT 10SM OVC048 08/03 A3001 RMK AO2 SLP164 T00830028 10083 20067 51009=
200703091653 METAR KPAE 091653Z 14011KT 10SM OVC045 08/03 A3000 RMK AO2 SLP162 T00780028=
200703091553 METAR KPAE 091553Z 12009KT 10SM OVC039 07/03 A2999 RMK AO2 SLP158 T00670033=
200703091453 METAR KPAE 091453Z AUTO 15009KT 10SM BKN033 OVC042 07/02 A2998 RMK AO2 SLP155 T00670022 56006=
200703091353 METAR KPAE 091353Z AUTO 14011G18KT 10SM OVC033 07/03 A2999 RMK AO2 SLP157 T00670028=
200703091253 METAR KPAE 091253Z AUTO 14010KT 10SM OVC033 07/02 A2999 RMK AO2 SLP159 T00670022=
200703091153 METAR KPAE 091153Z AUTO 13009KT 10SM OVC031 07/02 A3000 RMK AO2 SLP162 60001 70016 T00670022 10067 20056 58002=
200703091117 SPECI KPAE 091117Z AUTO 14010KT 10SM OVC031 07/02 A3000 RMK AO2=
200703091117 SPECI KPAE 091117Z AUTO 14010KT 10SM OVC031 07/02 A3000 RMK AO2=
200703091053 METAR KPAE 091053Z AUTO 14011KT 10SM OVC029 07/03 A3000 RMK AO2 SLP162 T00670028=
200703090953 METAR KPAE 090953Z AUTO 14012KT 10SM BKN033 06/03 A3001 RMK AO2 SLP165 T00610028=
200703090853 METAR KPAE 090853Z AUTO 17014KT 10SM SCT110 06/03 A3001 RMK AO2 SLP164 60001 T00610033 50000=
200703090753 METAR KPAE 090753Z AUTO 13010KT 10SM BKN042 BKN120 06/04 A3002 RMK AO2 RAE0658B36E51 SLP167 P0000 T00610039 400780044=
200703090653 METAR KPAE 090653Z AUTO 16014G20KT 10SM -RA SCT038 SCT048 OVC100 06/04 A3001 RMK AO2 SLP164 P0001 T00610039=
200703090627 SPECI KPAE 090627Z AUTO 16015KT 10SM -RA SCT023 SCT032 OVC090 06/04 A3001 RMK AO2 P0001=
200703090627 SPECI KPAE 090627Z AUTO 16015KT 10SM -RA SCT023 SCT032 OVC090 06/04 A3001 RMK AO2 P0001=
200703090600 SPECI KPAE 090600Z AUTO 15014KT 8SM -RA BKN022 OVC031 06/04 A3001 RMK AO2 P0000=
200703090600 SPECI KPAE 090600Z AUTO 15014KT 8SM -RA BKN022 OVC031 06/04 A3001 RMK AO2 P0000=
200703090553 METAR KPAE 090553Z AUTO 16017G23KT 8SM -RA SCT022 BKN030 OVC060 07/04 A3001 RMK AO2 SLP163 P0002 60005 T00670039 10067 20061 53005=
200703090453 METAR KPAE 090453Z 16014G22KT 9SM -RA OVC070 06/04 A2999 RMK AO2 RAE0355B23 SLP156 P0000 T00610039=
200703090353 METAR KPAE 090353Z 16013G20KT 10SM -RA FEW009 BKN075 OVC100 06/04 A2998 RMK AO2 RAB30 SLP155 P0000 T00610044=
200703090338 SPECI KPAE 090338Z 14013KT 10SM -RA SCT009 SCT023 OVC100 06/04 A2998 RMK AO2 RAB30 P0000=
200703090338 SPECI KPAE 090338Z 14013KT 10SM -RA SCT009 SCT023 OVC100 06/04 A2998 RMK AO2 RAB30 P0000=
200703090258 SPECI KPAE 090258Z 13010KT 10SM BKN009 OVC016 06/04 A2999 RMK AO2 CIG 007V014=
200703090258 SPECI KPAE 090258Z 13010KT 10SM BKN009 OVC016 06/04 A2999 RMK AO2 CIG 007V014=
200703090253 METAR KPAE 090253Z 15011KT 10SM SCT009 OVC014 06/04 A2999 RMK AO2 RAE11 SLP159 P0001 60003 T00610044 51005=
200703090226 SPECI KPAE 090226Z 15015KT 10SM BKN009 OVC012 07/04 A2998 RMK AO2 RAE11 P0001=
200703090226 SPECI KPAE 090226Z 15015KT 10SM BKN009 OVC012 07/04 A2998 RMK AO2 RAE11 P0001=
200703090200 SPECI KPAE 090200Z 15015G21KT 10SM -RA FEW008 BKN014 OVC021 07/04 A2998 RMK AO2 P0000=
200703090200 SPECI KPAE 090200Z 15015G21KT 10SM -RA FEW008 BKN014 OVC021 07/04 A2998 RMK AO2 P0000=
200703090153 METAR KPAE 090153Z 15017G22KT 9SM -RA SCT012 BKN021 BKN028 07/04 A2998 RMK AO2 RAE0058B29 SLP156 P0000 T00670044=
200703090055 SPECI KPAE 090055Z 16015KT 10SM -RA SCT012 BKN021 BKN028 07/04 A2998 RMK AO2 P0000=
200703090055 SPECI KPAE 090055Z 16015KT 10SM -RA SCT012 BKN021 BKN028 07/04 A2998 RMK AO2 P0000=
200703090053 METAR KPAE 090053Z 16016KT 10SM -RA SCT014 OVC032 07/04 A2998 RMK AO2 SLP153 P0002 T00670044=
200703082353 METAR KPAE 082353Z 17015KT 10SM -RA SCT014 OVC032 07/04 A2999 RMK AO2 SLP159 P0000 60008 T00670044 10078 20067 56014=
200703082331 SPECI KPAE 082331Z 17015G22KT 10SM -RA BKN013 BKN029 OVC036 07/05 A3001 RMK AO2 P0000=
200703082331 SPECI KPAE 082331Z 17015G22KT 10SM -RA BKN013 BKN029 OVC036 07/05 A3001 RMK AO2 P0000=
200703082311 SPECI KPAE 082311Z 17016G24KT 10SM -RA SCT013 SCT021 BKN029 07/05 A3000 RMK AO2 P0000=
200703082311 SPECI KPAE 082311Z 17016G24KT 10SM -RA SCT013 SCT021 BKN029 07/05 A3000 RMK AO2 P0000=
200703082253 METAR KPAE 082253Z 17017KT 7SM -RA BKN031 OVC047 07/04 A3001 RMK AO2 PK WND 18029/2241 SLP164 P0002 T00670044=
200703082208 SPECI KPAE 082208Z 17019KT 10SM -RA FEW021 BKN025 OVC042 08/04 A3001=
200703082153 METAR KPAE 082153Z 18017G20KT 10SM -RA SCT025 OVC034 08/04 A3001 RMK AO2 SLP165 P0001 T00780044=
200703082142 SPECI KPAE 082142Z 20013G24KT 9SM -RA BKN025 OVC034 07/04 A3002 RMK AO2 P0001=
200703082142 SPECI KPAE 082142Z 20013G24KT 9SM -RA BKN025 OVC034 07/04 A3002 RMK AO2 P0001=
200703082053 METAR KPAE 082053Z 13008KT 8SM -RA OVC030 07/04 A3004 RMK AO2 SLP174 P0004 60005 T00720044 58009=
200703081953 METAR KPAE 081953Z 15014KT 8SM -RA SCT035 BKN065 OVC085 07/04 A3005 RMK AO2 RAB27 SLP179 P0000 T00720039=
200703081853 METAR KPAE 081853Z 15016G22KT 10SM FEW027 BKN039 BKN047 07/04 A3006 RMK AO2 RAB00E37 SLP183 P0001 T00720039=
200703081753 METAR KPAE 081753Z 14013G21KT 10SM FEW030 BKN050 OVC070 07/04 A3006 RMK AO2 RAE35 SLP183 P0000 60002 T00670039 10067 20044 51009=
200703081653 METAR KPAE 081653Z 14018KT 10SM -RA FEW013 BKN033 OVC045 06/03 A3006 RMK AO2 RAE1557B15 SLP183 P0001 T00560033=
200703081645 SPECI KPAE 081645Z 14016G21KT 10SM -RA FEW013 BKN028 OVC095 06/03 A3006 RMK AO2 RAE1557B15 P0001=
200703081645 SPECI KPAE 081645Z 14016G21KT 10SM -RA FEW013 BKN028 OVC095 06/03 A3006 RMK AO2 RAE1557B15 P0001=
200703081553 METAR KPAE 081553Z 16013G22KT 9SM -RA FEW006 SCT012 05/03 A3006 RMK AO2 PK WND 17027/1522 RAB21 SLP183 P0001 T00500033=
200703081453 METAR KPAE 081453Z 16020G26KT 10SM FEW006 SCT012 05/03 A3004 RMK AO2 PK WND 16026/1447 SLP173 T00500028 51010=
200703081450 SPECI KPAE 081450Z 16018G26KT 10SM FEW006 SCT012 05/03 A3003 RMK AO2 PK WND 16026/1447 $=
200703081450 SPECI KPAE 081450Z 16018G26KT 10SM FEW006 SCT012 05/03 A3003 RMK AO2 PK WND 16026/1447 $=
200703081353 METAR KPAE 081353Z 16016G23KT 10SM 04/02 A3002 RMK AO2 PK WND 17027/1311 SLP168 T00440022 $=
200703081253 METAR KPAE 081253Z 16016G26KT 10SM 05/02 A3001 RMK AO2 PK WND 16026/1244 SLP164 T00500022 $=
200703081153 METAR KPAE 081153Z 16019G23KT 10SM 05/03 A2999 RMK AO2 SLP159 60001 70021 T00500028 10061 20050 50003 $=
200703081053 METAR KPAE 081053Z 17018KT 10SM 05/03 A2999 RMK AO2 RAB20E35 SLP159 P0001 T00500028 $=
200703080953 METAR KPAE 080953Z 16014KT 10SM 05/03 A3000 RMK AO2 SLP161 T00500033 $=
200703080853 METAR KPAE 080853Z 17020G24KT 10SM 06/03 A2998 RMK AO2 SLP156 T00560028 51010 $=
200703080753 METAR KPAE 080753Z 17015G22KT 10SM 06/02 A2998 RMK AO2 SLP152 T00610022 401280056 $=
200703080653 METAR KPAE 080653Z 18014KT 10SM 06/03 A2997 RMK AO2 SLP152 T00560028 $=
200703080553 METAR KPAE 080553Z 17019G23KT 10SM CLR 06/03 A2995 RMK AO2 PK WND 17026/0456 SLP145 60001 T00610028 10106 20061 51007=
200703080453 METAR KPAE 080453Z AUTO 17021KT 10SM FEW090 06/03 A2994 RMK AO2 PK WND 18029/0436 RAE06 SLP142 P0000 T00610028 TSNO=
200703080353 METAR KPAE 080353Z AUTO 17016KT 10SM -RA OVC040 07/04 A2994 RMK AO2 PK WND 19027/0336 RAB33 SLP141 P0001 T00670039 TSNO=
200703080253 METAR KPAE 080253Z 18014KT 10SM OVC100 09/02 A2993 RMK AO2 SLP137 T00890017 53007=
200703080153 METAR KPAE 080153Z 18007KT 10SM SCT110 09/05 A2992 RMK AO2 SLP132 T00890050=
200703080053 METAR KPAE 080053Z 09009KT 10SM SCT020 09/04 A2991 RMK AO2 SLP128 T00940039=
200703080048 SPECI KPAE 080048Z 07007KT 10SM SCT020 09/03 A2991 RMK AO2=
200703080004 SPECI KPAE 080004Z 05008KT 10SM BKN022 10/04 A2992 RMK AO2=
200703080004 SPECI KPAE 080004Z 05008KT 10SM BKN022 10/04 A2992 RMK AO2=
200703072353 METAR KPAE 072353Z 01006KT 10SM SCT024 10/03 A2992 RMK AO2 SLP132 60001 T01000033 10111 20072 51014=
200703072253 METAR KPAE 072253Z 36008KT 10SM FEW029 SCT033 OVC100 09/02 A2991 RMK AO2 RAE2154 SLP129 T00890022=
200703072153 METAR KPAE 072153Z 36009KT 10SM -RA FEW017 BKN070 OVC090 08/03 A2989 RMK AO2 RAE07B25 SLP125 P0000 T00830033=
200703072142 SPECI KPAE 072142Z 35007KT 10SM -RA SCT014 BKN020 OVC085 08/04 A2989 RMK AO2 RAE07B25 P0000=
200703072142 SPECI KPAE 072142Z 35007KT 10SM -RA SCT014 BKN020 OVC085 08/04 A2989 RMK AO2 RAE07B25 P0000=
200703072131 SPECI KPAE 072131Z 34008KT 10SM BKN014 OVC021 08/04 A2990 RMK AO2 RAE07B25E26 P0000=
200703072131 SPECI KPAE 072131Z 34008KT 10SM BKN014 OVC021 08/04 A2990 RMK AO2 RAE07B25E26 P0000=
200703072118 SPECI KPAE 072118Z 34007KT 10SM FEW011 BKN017 OVC050 08/05 A2990 RMK AO2 RAE07 P0000=
200703072118 SPECI KPAE 072118Z 34007KT 10SM FEW011 BKN017 OVC050 08/05 A2990 RMK AO2 RAE07 P0000=
200703072053 METAR KPAE 072053Z 26010G15KT 220V280 10SM -RA OVC048 10/06 A2987 RMK AO2 RAB44 SLP116 P0000 60001 T01000056=
200703071953 METAR KPAE 071953Z 18013KT 10SM FEW007 SCT030 BKN090 11/07 A2987 RMK AO2 SLP114 T01110072=
200703071853 METAR KPAE 071853Z 16012KT 6SM BR SCT007 OVC025 10/08 A2986 RMK AO2 RAB42E50 SLP111 P0001 T01000083=
200703071823 SPECI KPAE 071823Z 15011KT 5SM -RA BR BKN024 OVC035 10/08 A2987 RMK AO2 RAB12 P0000=
200703071823 SPECI KPAE 071823Z 15011KT 5SM -RA BR BKN024 OVC035 10/08 A2987 RMK AO2 RAB12 P0000=
200703071753 METAR KPAE 071753Z 14012KT 10SM OVC040 10/07 A2987 RMK AO2 RAE07 SLP114 P0000 60018 T01000072 10106 20089 58002=
200703071653 METAR KPAE 071653Z 15012KT 6SM -RA BR OVC045 09/08 A2987 RMK AO2 SLP116 P0004 T00940078=
200703071553 METAR KPAE 071553Z 16013KT 4SM -RA BR BKN037 OVC045 09/08 A2987 RMK AO2 SLP116 P0005 T00940078=
200703071453 METAR KPAE 071453Z 17015KT 6SM -RA BR OVC045 09/08 A2987 RMK AO2 SLP115 P0007 60009 T00940078 55001=
200703071353 METAR KPAE 071353Z AUTO 15008KT 9SM -RA OVC055 09/07 A2987 RMK AO2 SLP114 P0002 T00940067=
200703071253 METAR KPAE 071253Z AUTO 14007KT 10SM -RA OVC060 11/06 A2986 RMK AO2 RAE00B39 SLP113 P0000 T01060056=
200703071153 METAR KPAE 071153Z AUTO 19005KT 10SM -RA OVC065 10/06 A2988=
200703071053 METAR KPAE 071053Z AUTO 19009KT 10SM OVC085 12/04 A2988 RMK AO2 SLP118 T01170039=
200703070953 METAR KPAE 070953Z AUTO 15008KT 10SM BKN095 OVC120 12/04 A2990 RMK AO2 SLP123 T01170039=
200703070853 METAR KPAE 070853Z AUTO 14008KT 10SM OVC090 12/04 A2992 RMK AO2 SLP130 T01220039 58012=
200703070753 METAR KPAE 070753Z AUTO 15009KT 10SM OVC085 13/04 A2994 RMK AO2 SLP137 T01280039 402060078=
200703070653 METAR KPAE 070653Z AUTO 16008KT 10SM OVC070 14/04 A2995 RMK AO2 SLP141 T01390044=
200703070553 METAR KPAE 070553Z AUTO 18009KT 10SM OVC090 14/04 A2995 RMK AO2 SLP143 T01390044 10189 20139 53003=
200703070453 METAR KPAE 070453Z 16012KT 10SM OVC100 15/03 A2995 RMK AO2 SLP141 T01500033=
200703070353 METAR KPAE 070353Z 16012KT 10SM BKN110 16/03 A2995 RMK AO2 SLP141 T01560033=
200703070300 METAR KPAE NIL=
200703070153 METAR KPAE 070153Z 16008KT 10SM CLR 16/04 A2995 RMK AO2 SLP142 T01610044=
200703070053 METAR KPAE 070053Z 19010KT 10SM SCT100 18/04 A2996 RMK AO2 SLP145 T01780039=
200703062353 METAR KPAE 062353Z 21012KT 10SM CLR 18/04 A2997 RMK AO2 SLP149 T01830039 10206 20128 56014=
200703062253 METAR KPAE 062253Z 23010KT 10SM CLR 18/04 A2998 RMK AO2 SLP152 T01780044=
200703062153 METAR KPAE 062153Z 20010KT 10SM 19/04 A2999 RMK AO2 SLP154 T01940044=
200703062053 METAR KPAE 062053Z 16008KT 19/04 A3001 RMK AO2 SLP163 T01890044 58022 $=
200703061953 METAR KPAE 061953Z 15007KT 10SM 17/05 A3004 RMK AO2 SLP172 T01670050 $=
200703061853 METAR KPAE 061853Z 15007KT 10SM CLR 14/04 A3007 RMK AO2 SLP183 T01390039=
200703061753 METAR KPAE 061753Z 17010KT 10SM CLR 13/04 A3008 RMK AO2 SLP187 T01330039 10133 20078 57002=
200703061653 METAR KPAE 061653Z 12007KT 10SM CLR 11/03 A3008 RMK AO2 SLP187 T01110033=
200703061553 METAR KPAE 061553Z 11009KT 10SM CLR 09/03 A3009 RMK AO2 SLP190 T00890028=
200703061453 METAR KPAE 061453Z 11008KT 10SM CLR 08/03 A3009 RMK AO2 SLP190 T00780028 50001 $=
200703061353 METAR KPAE 061353Z AUTO 10006KT 10SM CLR 08/03 A3009 RMK AO2 SLP189 T00780028 $=
200703061253 METAR KPAE 061253Z AUTO 11006KT 10SM CLR 08/03 A3009 RMK AO2 SLP189 T00830033 $=
200703061153 METAR KPAE 061153Z AUTO 10009KT 10SM CLR 08/03 A3008 RMK AO2 SLP188 T00780033 10094 20078 58011 $=
200703061053 METAR KPAE 061053Z AUTO 10009KT 10SM CLR 08/04 A3010 RMK AO2 SLP192 T00780039 $=
200703060953 METAR KPAE 060953Z AUTO 11008KT 10SM CLR 08/04 A3011 RMK AO2 SLP198 T00830044 $=
200703060853 METAR KPAE 060853Z AUTO 10008KT 10SM CLR 08/04 A3012 RMK AO2 SLP199 T00830044 55001 $=
200703060753 METAR KPAE 060753Z AUTO 12010KT 10SM CLR 09/06 A3011 RMK AO2 SLP198 T00940056 401500083 $=
200703060653 METAR KPAE 060653Z AUTO 11007KT 10SM CLR 09/06 A3012 RMK AO2 SLP200 T00890056 $=
200703060553 METAR KPAE 060553Z AUTO 10006KT 10SM CLR 09/06 A3012 RMK AO2 SLP201 T00890056 10139 20089 51004 $=
200703060453 METAR KPAE 060453Z AUTO 10006KT 10SM CLR 11/06 A3012 RMK AO2 SLP201 T01060056 $=
200703060353 METAR KPAE 060353Z 15004KT 10SM CLR 11/05 A3012 RMK AO2 SLP200 T01060050 $=
200703060253 METAR KPAE 060253Z 12005KT 10SM SCT080 12/05 A3011 RMK AO2 SLP196 T01220050 55003 $=
200703060153 METAR KPAE 060153Z 15004KT 10SM SCT080 13/05 A3010 RMK AO2 SLP194 T01280050 $=
200703060053 METAR KPAE 060053Z 17005KT 10SM BKN080 14/05 A3011=
200703052353 METAR KPAE 052353Z 15008KT 10SM BKN080 14/04 A3012 RMK AO2 SLP199 60000 T01390044 10150 20100 56005 $=
200703052253 METAR KPAE 052253Z 18010KT 10SM BKN085 14/04 A3012 RMK AO2 SLP200 T01440044=
200703052153 METAR KPAE 052153Z 18010KT 10SM FEW065 14/04 A3012 RMK AO2 SLP199 T01390044=
200703052053 METAR KPAE 052053Z 16011KT 10SM OVC065 13/05 A3013 RMK AO2 SLP205 60000 T01280050 58005=
200703051953 METAR KPAE 051953Z 16011KT 10SM OVC044 12/06 A3014 RMK AO2 SLP209 T01170056=
200703051853 METAR KPAE 051853Z 16009KT 10SM OVC046 11/07 A3015 RMK AO2 RAE03 SLP211 P0000 T01060067=
200703051753 METAR KPAE 051753Z 17012KT 10SM -RA BKN055 OVC070 10/07 A3015 RMK AO2 RAB50 SLP211 P0000 60000 T01000067 10100 20083 53012=
200703051653 METAR KPAE 051653Z 15011KT 10SM OVC050 09/07 A3013 RMK AO2 SLP205 T00940067=
200703051553 METAR KPAE 051553Z 14010KT 10SM OVC055 09/07 A3012 RMK AO2 SLP200 T00890067=
200703051453 METAR KPAE 051453Z 13008KT 10SM OVC060 08/06 A3011 RMK AO2 SLP198 60000 T00830061 53001=
200703051353 METAR KPAE 051353Z AUTO 12006KT 10SM FEW049 OVC060 09/06 A3009 RMK AO2 SLP192 T00890061=
200703051253 METAR KPAE 051253Z AUTO 11011KT 10SM FEW060 BKN090 08/06 A3010 RMK AO2 RAB1159E12 SLP195 P0000 T00830061=
200703051153 METAR KPAE 051153Z AUTO 12011KT 10SM SCT060 OVC080 08/06 A3011 RMK AO2 RAE35 SLP196 P0000 60000 70001 T00830056 10100 20083 50002=
200703051053 METAR KPAE 051053Z AUTO 15011KT 10SM -RA OVC050 09/05 A3011 RMK AO2 RAE00B17 SLP197 P0000 T00890050=
200703050953 METAR KPAE 050953Z AUTO VRB04KT 10SM -RA OVC060 09/05 A3012 RMK AO2 RAB38 SLP200 P0000 T00890050=
200703050853 METAR KPAE 050853Z AUTO 12008KT 10SM OVC075 09/04 A3010 RMK AO2 SLP195 T00940044 56008=
200703050753 METAR KPAE 050753Z AUTO 11007KT 10SM BKN095 09/04 A3011 RMK AO2 SLP198 T00940044 401220039=
200703050653 METAR KPAE 050653Z AUTO 11008KT 10SM FEW100 09/05 A3012 RMK AO2 SLP200 T00940050=
200703050553 METAR KPAE 050553Z AUTO 11008KT 10SM FEW080 OVC095 10/05 A3013 RMK AO2 SLP205 T01000050 10117 20083 58001=
200703050453 METAR KPAE 050453Z AUTO 11009KT 10SM BKN100 10/06 A3013 RMK AO2 SLP206 T01000056=
200703050353 METAR KPAE 050353Z 14009KT 10SM BKN070 OVC085 11/07 A3013 RMK AO2 SLP207 T01110067=
200703050253 METAR KPAE 050253Z 11005KT 10SM BKN120 OVC200 10/07 A3013 RMK AO2 SLP206 T01000067 56008=
200703050153 METAR KPAE 050153Z 27003KT 10SM OVC200 09/06 A3014 RMK AO2 SLP208 T00940056=
200703050053 METAR KPAE 050053Z 13004KT 10SM FEW100 12/07 A3014 RMK AO2 SLP210 T01170067=
200703042353 METAR KPAE 042353Z 14008KT 10SM CLR 12/06 A3016 RMK AO2 SLP213 T01220056 10122 20056 56012=
200703042253 METAR KPAE 042253Z 14008KT 10SM CLR 12/06 A3016 RMK AO2 SLP216 T01170061=
200703042153 METAR KPAE 042153Z 00000KT 10SM CLR 09/06 A3017 RMK AO2 SLP220 T00940061=
200703042053 METAR KPAE 042053Z 00000KT 10SM OVC200 08/06 A3019 RMK AO2 SLP227 T00830056 58013=
200703041953 METAR KPAE 041953Z 00000KT 10SM CLR 08/06 A3021 RMK AO2 SLP232 T00830056=
200703041853 METAR KPAE 041853Z 00000KT 10SM SCT002 07/04 A3022 RMK AO2 SLP238 T00670044=
200703041753 METAR KPAE 041753Z 00000KT 10SM SCT002 06/04 A3023 RMK AO2 SLP240 60001 T00560044 10056 20039 58003=
200703041743 SPECI KPAE 041743Z 00000KT 10SM SCT002 05/04 A3023 RMK AO2=
200703041743 SPECI KPAE 041743Z 00000KT 10SM SCT002 05/04 A3023 RMK AO2=
200703041653 METAR KPAE 041653Z 35004KT 10SM BKN002 04/04 A3024 RMK AO2 SLP243 T00440039=
200703041644 SPECI KPAE 041644Z 34005KT 10SM SCT002 04/04 A3024 RMK AO2=
200703041644 SPECI KPAE 041644Z 34005KT 10SM SCT002 04/04 A3024 RMK AO2=
200703041635 SPECI KPAE 041635Z 35005KT 9SM BKN002 04/04 A3024 RMK AO2=
200703041635 SPECI KPAE 041635Z 35005KT 9SM BKN002 04/04 A3024 RMK AO2=
200703041553 METAR KPAE 041553Z 01005KT 8SM FEW001 SCT110 04/03 A3024 RMK AO2 SLP243 P0001 T00440033=
200703041543 SPECI KPAE 041543Z 35004KT 9SM FEW001 SCT007 BKN110 04/03 A3024 RMK AO2=
200703041543 SPECI KPAE 041543Z 35004KT 9SM FEW001 SCT007 BKN110 04/03 A3024 RMK AO2=
200703041535 SPECI KPAE 041535Z 35004KT 9SM BKN003 04/03 A3024 RMK AO2=
200703041535 SPECI KPAE 041535Z 35004KT 9SM BKN003 04/03 A3024 RMK AO2=
200703041529 SPECI KPAE 041529Z 36004KT 2SM BR FEW001 BKN005 04/03 A3024 RMK AO2=
200703041529 SPECI KPAE 041529Z 36004KT 2SM BR FEW001 BKN005 04/03 A3024 RMK AO2=
200703041527 SPECI KPAE 041527Z 36003KT 3/4SM BR FEW001 BKN005 04/03 A3024 RMK AO2=
200703041527 SPECI KPAE 041527Z 36003KT 3/4SM BR FEW001 BKN005 04/03 A3024 RMK AO2=
200703041508 SPECI KPAE 041508Z 36004KT 1/4SM FG SCT001 OVC110 04/03 A3024 RMK AO2=
200703041508 SPECI KPAE 041508Z 36004KT 1/4SM FG SCT001 OVC110 04/03 A3024 RMK AO2=
200703041456 SPECI KPAE 041456Z 01005KT 1/2SM FG SCT001 OVC110 04/03 A3024 RMK AO2=
200703041456 SPECI KPAE 041456Z 01005KT 1/2SM FG SCT001 OVC110 04/03 A3024 RMK AO2=
200703041453 METAR KPAE 041453Z 36004KT 1/4SM FG BKN001 OVC110 04/03 A3024 RMK AO2 SLP243 T00390033 55009=
200703041448 SPECI KPAE 041448Z 01004KT 1/4SM FG BKN001 OVC110 04/03 A3024 RMK AO2=
200703041448 SPECI KPAE 041448Z 01004KT 1/4SM FG BKN001 OVC110 04/03 A3024 RMK AO2=
200703041441 SPECI KPAE 041441Z 35004KT 1/2SM FG BKN001 OVC110 04/03 A3024 RMK AO2=
200703041441 SPECI KPAE 041441Z 35004KT 1/2SM FG BKN001 OVC110 04/03 A3024 RMK AO2=
200703041436 SPECI KPAE 041436Z 35004KT 1 3/4SM BR FEW001 OVC110 04/03 A3024 RMK AO2=
200703041436 SPECI KPAE 041436Z 35004KT 1 3/4SM BR FEW001 OVC110 04/03 A3024 RMK AO2=
200703041320 SPECI KPAE 041320Z 36003KT 7SM OVC110 04/03 A3025 RMK AO2=
200703041320 SPECI KPAE 041320Z 36003KT 7SM OVC110 04/03 A3025 RMK AO2=
200703041312 SPECI KPAE 041312Z 00000KT 1 1/4SM BR OVC110 04/03 A3026 RMK AO2=
200703041312 SPECI KPAE 041312Z 00000KT 1 1/4SM BR OVC110 04/03 A3026 RMK AO2=
200703041253 METAR KPAE 041253Z 34003KT 1/4SM FG FEW018 OVC110 04/03 A3027 RMK AO2 SLP253 T00390033=
200703041229 SPECI KPAE 041229Z 36004KT 1/4SM FG FEW001 OVC110 04/03 A3027 RMK AO2=
200703041229 SPECI KPAE 041229Z 36004KT 1/4SM FG FEW001 OVC110 04/03 A3027 RMK AO2=
200703041222 SPECI KPAE 041222Z 36004KT 1 1/4SM BR FEW001 OVC110 04/03 A3028 RMK AO2=
200703041222 SPECI KPAE 041222Z 36004KT 1 1/4SM BR FEW001 OVC110 04/03 A3028 RMK AO2=
200703041219 SPECI KPAE 041219Z 36004KT 5SM BR FEW001 OVC110 04/04 A3027 RMK AO2=
200703041219 SPECI KPAE 041219Z 36004KT 5SM BR FEW001 OVC110 04/04 A3027 RMK AO2=
200703041153 METAR KPAE 041153Z 02003KT 8SM OVC110 04/04 A3028 RMK AO2 SLP258 70002 T00440039 10072 20044 57022=
200703041053 METAR KPAE 041053Z 04003KT 8SM CLR 04/04 A3031 RMK AO2 SLP265 T00440039=
200703041039 SPECI KPAE 041039Z 00000KT 4SM BR SCT001 04/04 A3031 RMK AO2=
200703041039 SPECI KPAE 041039Z 00000KT 4SM BR SCT001 04/04 A3031 RMK AO2=
200703041031 SPECI KPAE 041031Z 06003KT 3SM BR BKN001 04/04 A3031 RMK AO2=
200703041031 SPECI KPAE 041031Z 06003KT 3SM BR BKN001 04/04 A3031 RMK AO2=
200703041026 SPECI KPAE 041026Z 00000KT 1 3/4SM BR BKN001 04/04 A3031 RMK AO2=
200703041013 SPECI KPAE 041013Z 05003KT 1/2SM FG OVC001 04/04 A3032 RMK AO2=
200703041004 SPECI KPAE 041004Z 00000KT 1 1/2SM BR OVC001 05/04 A3032 RMK AO2=
200703041004 SPECI KPAE 041004Z 00000KT 1 1/2SM BR OVC001 05/04 A3032 RMK AO2=
200703040957 SPECI KPAE 040957Z 00000KT 5SM BR BKN001 OVC006 05/04 A3032 RMK AO2=
200703040957 SPECI KPAE 040957Z 00000KT 5SM BR BKN001 OVC006 05/04 A3032 RMK AO2=
200703040950 METAR KPAE 040950Z 00000KT 2 1/2SM BR BKN001 BKN006 05/04 A3032 RMK AO2 SLP272 T00500044=
200703040949 SPECI KPAE 040949Z 00000KT 2SM BR BKN001 BKN006 05/04 A3033 RMK AO2=
200703040949 SPECI KPAE 040949Z 00000KT 2SM BR BKN001 BKN006 05/04 A3033 RMK AO2=
200703040922 SPECI KPAE 040922Z 03003KT 1SM BR SCT001 BKN006 05/04 A3034 RMK AO2=
200703040918 SPECI KPAE 040918Z 02004KT 1/2SM FG BKN001 BKN006 05/04 A3034 RMK AO2=
200703040918 SPECI KPAE 040918Z 02004KT 1/2SM FG BKN001 BKN006 05/04 A3034 RMK AO2=
200703040853 METAR KPAE 040853Z 03003KT 1/4SM FG BKN001 OVC006 05/04 A3035 RMK AO2 SLP280 T00500044 56016=
200703040851 SPECI KPAE 040851Z 02003KT 1/4SM FG BKN001 BKN006 05/04 A3035 RMK AO2=
200703040851 SPECI KPAE 040851Z 02003KT 1/4SM FG BKN001 BKN006 05/04 A3035 RMK AO2=
200703040840 SPECI KPAE 040840Z 00000KT 3/4SM BR VV001 05/04 A3035 RMK AO2=
200703040840 SPECI KPAE 040840Z 00000KT 3/4SM BR VV001 05/04 A3035 RMK AO2=
200703040837 SPECI KPAE 040837Z 00000KT 2SM BR BKN001 05/04 A3035 RMK AO2=
200703040837 SPECI KPAE 040837Z 00000KT 2SM BR BKN001 05/04 A3035 RMK AO2=
200703040835 SPECI KPAE 040835Z 00000KT 3SM BR SCT001 06/04 A3035 RMK AO2=
200703040835 SPECI KPAE 040835Z 00000KT 3SM BR SCT001 06/04 A3035 RMK AO2=
200703040753 METAR KPAE 040753Z 00000KT 10SM CLR 05/04 A3037 RMK AO2 SLP287 T00500039 401060028=
200703040728 SPECI KPAE 040728Z 10004KT 10SM CLR 05/04 A3038 RMK AO2=
200703040728 SPECI KPAE 040728Z 10004KT 10SM CLR 05/04 A3038 RMK AO2=
200703040719 SPECI KPAE 040719Z 00000KT 2SM BR CLR 06/04 A3038 RMK AO2=
200703040719 SPECI KPAE 040719Z 00000KT 2SM BR CLR 06/04 A3038 RMK AO2=
200703040712 SPECI KPAE 040712Z 00000KT 3/4SM BR VV001 05/04 A3039 RMK AO2=
200703040712 SPECI KPAE 040712Z 00000KT 3/4SM BR VV001 05/04 A3039 RMK AO2=
200703040707 SPECI KPAE 040707Z 00000KT 1 1/2SM BR FEW001 05/04 A3039 RMK AO2=
200703040707 SPECI KPAE 040707Z 00000KT 1 1/2SM BR FEW001 05/04 A3039 RMK AO2=
200703040702 SPECI KPAE 040702Z 00000KT 4SM BR FEW001 06/04 A3039 RMK AO2=
200703040702 SPECI KPAE 040702Z 00000KT 4SM BR FEW001 06/04 A3039 RMK AO2=
200703040653 METAR KPAE 040653Z 00000KT 1 1/4SM BR FEW001 05/04 A3040 RMK AO2 VIS 1/2V5 SLP296 T00500044=
200703040645 SPECI KPAE 040645Z 00000KT 1/2SM FG VV001 06/04 A3040 RMK AO2=
200703040637 SPECI KPAE 040637Z 00000KT 3/4SM BR CLR 06/05 A3040 RMK AO2=
200703040637 SPECI KPAE 040637Z 00000KT 3/4SM BR CLR 06/05 A3040 RMK AO2=
200703040626 SPECI KPAE 040626Z 00000KT 2 1/2SM BR CLR 06/05 A3040 RMK AO2=
200703040626 SPECI KPAE 040626Z 00000KT 2 1/2SM BR CLR 06/05 A3040 RMK AO2=
200703040621 SPECI KPAE 040621Z 00000KT 3/4SM BR FEW033 06/06 A3039 RMK AO2=
200703040621 SPECI KPAE 040621Z 00000KT 3/4SM BR FEW033 06/06 A3039 RMK AO2=
200703040612 SPECI KPAE 040612Z 00000KT 1 3/4SM BR SCT033 07/06 A3040 RMK AO2=
200703040612 SPECI KPAE 040612Z 00000KT 1 3/4SM BR SCT033 07/06 A3040 RMK AO2=
200703040553 METAR KPAE 040553Z 00000KT 9SM OVC033 07/06 A3040 RMK AO2 SLP297 T00720061 10106 20067 56005=
200703040522 SPECI KPAE 040522Z 08003KT 3SM BR BKN035 07/06 A3040 RMK AO2=
200703040522 SPECI KPAE 040522Z 08003KT 3SM BR BKN035 07/06 A3040 RMK AO2=
200703040503 SPECI KPAE 040503Z 00000KT 1 3/4SM BR CLR 07/06 A3040 RMK AO2=
200703040503 SPECI KPAE 040503Z 00000KT 1 3/4SM BR CLR 07/06 A3040 RMK AO2=
200703040453 METAR KPAE 040453Z 00000KT 9SM CLR 08/06 A3040 RMK AO2 SLP299 T00780061=
200703040353 METAR KPAE 040353Z 00000KT 8SM CLR 08/07 A3041 RMK AO2 SLP300 T00830072=
200703040253 METAR KPAE 040253Z 09003KT 10SM BKN031 09/07 A3041 RMK AO2 SLP302 T00890072 58011=
200703040153 METAR KPAE 040153Z 10003KT 10SM OVC031 09/07 A3042 RMK AO2 SLP306 T00890072=
200703040053 METAR KPAE 040053Z 00000KT 10SM SCT011 BKN031 10/08 A3044 RMK AO2 SLP310 T01000078=
200703032353 METAR KPAE 032353Z AUTO 13005KT 10SM FEW007 SCT025 10/08 A3045 RMK AO2 SLP313 T01000078 10100 20056 58006 TSNO=
200703032341 SPECI KPAE 032341Z 12005KT 10SM SCT007 SCT023 10/08 A3045 RMK AO2=
200703032341 SPECI KPAE 032341Z 12005KT 10SM SCT007 SCT023 10/08 A3045 RMK AO2=
200703032253 METAR KPAE 032253Z 15004KT 8SM FEW007 OVC015 09/08 A3046 RMK AO2 SLP317 T00890078=
200703032219 SPECI KPAE 032219Z 14007KT 8SM OVC007 08/07 A3046 RMK AO2 CIG 004V010=
200703032219 SPECI KPAE 032219Z 14007KT 8SM OVC007 08/07 A3046 RMK AO2 CIG 004V010=
200703032153 METAR KPAE 032153Z 16005KT 5SM BR BKN002 OVC007 08/07 A3046 RMK AO2 CIG 001V005 SLP320 T00830072=
200703032149 SPECI KPAE 032149Z 14005KT 5SM BR OVC002 08/07 A3046 RMK AO2 CIG 001V005=
200703032149 SPECI KPAE 032149Z 14005KT 5SM BR OVC002 08/07 A3046 RMK AO2 CIG 001V005=
200703032139 SPECI KPAE 032139Z 14005KT 2SM BR OVC002 08/07 A3046 RMK AO2=
200703032139 SPECI KPAE 032139Z 14005KT 2SM BR OVC002 08/07 A3046 RMK AO2=
200703032053 METAR KPAE 032053Z 13006KT 1/4SM FG OVC002 07/07 A3047 RMK AO2 SLP323 T00720067 58003=
200703032009 SPECI KPAE 032009Z 11005KT 1/4SM FG OVC002 07/06 A3048 RMK AO2=
200703032009 SPECI KPAE 032009Z 11005KT 1/4SM FG OVC002 07/06 A3048 RMK AO2=
200703032000 SPECI KPAE 032000Z 11005KT 1SM BR OVC002 07/06 A3048 RMK AO2=
200703032000 SPECI KPAE 032000Z 11005KT 1SM BR OVC002 07/06 A3048 RMK AO2=
200703031953 METAR KPAE 031953Z 11006KT 1/4SM FG OVC002 07/06 A3049 RMK AO2 SLP327 T00670061=
200703031913 SPECI KPAE 031913Z 12004KT 1/4SM FG OVC002 07/06 A3048 RMK AO2=
200703031913 SPECI KPAE 031913Z 12004KT 1/4SM FG OVC002 07/06 A3048 RMK AO2=
200703031901 SPECI KPAE 031901Z 12006KT 1 1/2SM BR OVC002 07/06 A3048 RMK AO2=
200703031901 SPECI KPAE 031901Z 12006KT 1 1/2SM BR OVC002 07/06 A3048 RMK AO2=
200703031853 METAR KPAE 031853Z 12005KT 2 1/2SM BR OVC002 07/06 A3049 RMK AO2 SLP328 T00670061=
200703031753 METAR KPAE 031753Z 12006KT 1 1/4SM BR OVC002 06/05 A3048 RMK AO2 SLP326 60002 T00560050 10056 20033 53019=
200703031653 METAR KPAE 031653Z 11006KT 1SM BR OVC002 05/04 A3046 RMK AO2 SLP321 T00500044=
200703031603 SPECI KPAE 031603Z 11006KT 1 1/2SM BR OVC004 05/04 A3044 RMK AO2=
200703031603 SPECI KPAE 031603Z 11006KT 1 1/2SM BR OVC004 05/04 A3044 RMK AO2=
200703031553 METAR KPAE 031553Z 12006KT 2 1/2SM BR OVC004 05/04 A3044 RMK AO2 SLP312 T00500044=
200703031503 SPECI KPAE 031503Z 11008KT 2SM BR OVC004 04/04 A3043 RMK AO2=
200703031503 SPECI KPAE 031503Z 11008KT 2SM BR OVC004 04/04 A3043 RMK AO2=
200703031453 METAR KPAE 031453Z 10008KT 1 3/4SM BR OVC004 04/04 A3042 RMK AO2 SLP307 60002 T00440039 51011=
200703031451 SPECI KPAE 031451Z 10007KT 1 3/4SM BR OVC004 04/04 A3042 RMK AO2=
200703031451 SPECI KPAE 031451Z 10007KT 1 3/4SM BR OVC004 04/04 A3042 RMK AO2=
200703031437 SPECI KPAE 031437Z 11008KT 2 1/2SM BR OVC006 04/04 A3042 RMK AO2=
200703031437 SPECI KPAE 031437Z 11008KT 2 1/2SM BR OVC006 04/04 A3042 RMK AO2=
200703031413 SPECI KPAE 031413Z 11008KT 3SM BR OVC006 04/04 A3041 RMK AO2=
200703031413 SPECI KPAE 031413Z 11008KT 3SM BR OVC006 04/04 A3041 RMK AO2=
200703031353 METAR KPAE 031353Z 10008KT 2SM BR BKN006 OVC009 04/03 A3041 RMK AO2 RAE13 SLP303 P0001 T00390033=
200703031313 SPECI KPAE 031313Z 11008KT 2 1/2SM BR BKN009 OVC015 03/03 A3041 RMK AO2 RAE13 P0001=
200703031313 SPECI KPAE 031313Z 11008KT 2 1/2SM BR BKN009 OVC015 03/03 A3041 RMK AO2 RAE13 P0001=
200703031304 SPECI KPAE 031304Z 11008KT 2SM -RA BR SCT009 OVC015 03/03 A3041 RMK AO2 P0001=
200703031304 SPECI KPAE 031304Z 11008KT 2SM -RA BR SCT009 OVC015 03/03 A3041 RMK AO2 P0001=
200703031253 METAR KPAE 031253Z 11009KT 2 1/2SM -RA BR OVC015 03/03 A3041 RMK AO2 SLP302 P0001 T00330028=
200703031231 SPECI KPAE 031231Z 11009KT 2SM -RA BR OVC015 03/03 A3040 RMK AO2 P0001=
200703031231 SPECI KPAE 031231Z 11009KT 2SM -RA BR OVC015 03/03 A3040 RMK AO2 P0001=
200703031213 SPECI KPAE 031213Z 11009KT 3SM -RA BR FEW009 OVC013 03/03 A3040 RMK AO2 P0001=
200703031213 SPECI KPAE 031213Z 11009KT 3SM -RA BR FEW009 OVC013 03/03 A3040 RMK AO2 P0001=
200703031206 SPECI KPAE 031206Z 11009KT 2 1/2SM -RA BR OVC013 03/03 A3039 RMK AO2 P0001=
200703031206 SPECI KPAE 031206Z 11009KT 2 1/2SM -RA BR OVC013 03/03 A3039 RMK AO2 P0001=
200703031153 METAR KPAE 031153Z 11008KT 2SM -RA BR SCT010 OVC015 03/03 A3039 RMK AO2 SLP296 P0001 60005 70023 T00330028 10033 20028 51011=
200703031148 SPECI KPAE 031148Z 11008KT 2 1/2SM -RA BR SCT010 OVC015 03/03 A3039 RMK AO2 P0001=
200703031148 SPECI KPAE 031148Z 11008KT 2 1/2SM -RA BR SCT010 OVC015 03/03 A3039 RMK AO2 P0001=
200703031053 METAR KPAE 031053Z 11009KT 3SM -RA BR OVC015 03/03 A3038 RMK AO2 SLP291 P0002 T00330028=
200703031049 SPECI KPAE 031049Z 11009KT 3SM -RA BR FEW010 OVC015 03/03 A3037 RMK AO2 P0002=
200703031049 SPECI KPAE 031049Z 11009KT 3SM -RA BR FEW010 OVC015 03/03 A3037 RMK AO2 P0002=
200703030953 METAR KPAE 030953Z 11009KT 2 1/2SM -RA BR OVC012 03/02 A3036 RMK AO2 SLP285 P0001 T00280022=
200703030853 METAR KPAE 030853Z 11009KT 2SM -RA BR FEW001 OVC012 03/02 A3034 RMK AO2 UPB30E36RAB36 SLP281 P0001 60001 T00280022 51010=
200703030849 SPECI KPAE 030849Z 11010KT 2SM -RA BR FEW001 OVC014 03/02 A3034 RMK AO2 UPB30E36RAB36 P0001=
200703030849 SPECI KPAE 030849Z 11010KT 2SM -RA BR FEW001 OVC014 03/02 A3034 RMK AO2 UPB30E36RAB36 P0001=
200703030753 METAR KPAE 030753Z 11010KT 1 3/4SM BR SCT002 OVC014 03/02 A3033 RMK AO2 RAE03UPB03E12 SLP275 P0000 T00280022 400441017=
200703030735 SPECI KPAE 030735Z 11008KT 1 3/4SM BR SCT002 OVC014 03/02 A3032 RMK AO2 RAE03UPB03E12 P0000=
200703030735 SPECI KPAE 030735Z 11008KT 1 3/4SM BR SCT002 OVC014 03/02 A3032 RMK AO2 RAE03UPB03E12 P0000=
200703030725 SPECI KPAE 030725Z 11011KT 1 3/4SM BR FEW002 OVC016 03/02 A3032 RMK AO2 RAE03UPB03E12 P0000=
200703030725 SPECI KPAE 030725Z 11011KT 1 3/4SM BR FEW002 OVC016 03/02 A3032 RMK AO2 RAE03UPB03E12 P0000=
200703030711 SPECI KPAE 030711Z 11010KT 1 3/4SM UP BR OVC016 03/02 A3032 RMK AO2 RAE03UPB03 P0000=
200703030711 SPECI KPAE 030711Z 11010KT 1 3/4SM UP BR OVC016 03/02 A3032 RMK AO2 RAE03UPB03 P0000=
200703030653 METAR KPAE 030653Z 11011KT 2SM -RA BR OVC016 03/02 A3031 RMK AO2 SLP270 P0000 T00280022=
200703030624 SPECI KPAE 030624Z 11011KT 2 1/2SM -RA BR OVC018 03/02 A3031 RMK AO2 P0000=
200703030624 SPECI KPAE 030624Z 11011KT 2 1/2SM -RA BR OVC018 03/02 A3031 RMK AO2 P0000=
200703030602 SPECI KPAE 030602Z 11011KT 3SM -RA BR OVC018 03/02 A3030 RMK AO2 P0000=
200703030602 SPECI KPAE 030602Z 11011KT 3SM -RA BR OVC018 03/02 A3030 RMK AO2 P0000=
200703030553 METAR KPAE 030553Z 11010KT 2 1/2SM -RA BR OVC018 03/02 A3029 RMK AO2 SLP263 P0003 60012 T00280017 10044 20028 53029=
200703030543 SPECI KPAE 030543Z 11009KT 2 1/2SM -RA BR OVC018 03/02 A3029 RMK AO2 P0003=
200703030543 SPECI KPAE 030543Z 11009KT 2 1/2SM -RA BR OVC018 03/02 A3029 RMK AO2 P0003=
200703030453 METAR KPAE 030453Z 10010KT 4SM -RA BR OVC018 03/02 A3026 RMK AO2 SLP253 P0004 T00280017=
200703030353 METAR KPAE 030353Z 11011KT 6SM -RA BR BKN018 OVC024 03/02 A3023 RMK AO2 SLP242 P0002 T00330022=
200703030323 SPECI KPAE 030323Z 11010KT 6SM -RA BR SCT020 OVC028 03/02 A3022 RMK AO2 P0001=
200703030323 SPECI KPAE 030323Z 11010KT 6SM -RA BR SCT020 OVC028 03/02 A3022 RMK AO2 P0001=
200703030253 METAR KPAE 030253Z 11011KT 7SM -RA SCT025 OVC032 04/02 A3021 RMK AO2 SLP233 P0003 60003 T00390022 53014=
200703030201 SPECI KPAE 030201Z 13011KT 6SM -RA BR BKN029 OVC036 04/02 A3018=
200703030153 METAR KPAE 030153Z 13011KT 5SM -RA OVC034 04/02 A3018 RMK AO2 SLP225 P0000 T00440017=
200703030053 METAR KPAE 030053Z 13011KT 10SM -RA OVC037 04/02 A3017 RMK AO2 RAB53 SLP223 P0000 T00440022=
200703022353 METAR KPAE 022353Z 11010KT 10SM BKN035 OVC043 04/02 A3016 RMK AO2 RAE37 SLP220 P0001 60005 T00440022 10044 20011 53003=
200703022253 METAR KPAE 022253Z 11012G17KT 10SM -RA FEW036 OVC046 04/02 A3015 RMK AO2 SLP216 P0000 T00390017=
200703022153 METAR KPAE 022153Z 11011KT 10SM -RA OVC044 03/01 A3015 RMK AO2 SLP215 P0001 T00330011=
200703022053 METAR KPAE 022053Z 11013KT 9SM -RA OVC039 03/00 A3015 RMK AO2 SLP217 P0001 60003 T00280000 58009=
200703021953 METAR KPAE 021953Z 11011KT 10SM -RA BKN035 02/M01 A3017 RMK AO2 SLP224 P0001 T00221006=
200703021941 SPECI KPAE 021941Z 11011KT 9SM -RA OVC035 02/M01 A3017 RMK AO2 P0001=
200703021941 SPECI KPAE 021941Z 11011KT 9SM -RA OVC035 02/M01 A3017 RMK AO2 P0001=
200703021853 METAR KPAE 021853Z 11010KT 7SM -RA OVC028 02/M01 A3018 RMK AO2 RAB13SNE13 SLP226 P0001 T00171011=
200703021753 METAR KPAE 021753Z 11010KT 3SM -SN BKN018 OVC027 01/M02 A3018 RMK AO2 SNB09 SLP227 P0001 60001 T00111022 10011 21011 53011=
200703021746 SPECI KPAE 021746Z 11010KT 3SM -SN BKN018 OVC029 01/M02 A3018 RMK AO2 SNB09 P0000=
200703021746 SPECI KPAE 021746Z 11010KT 3SM -SN BKN018 OVC029 01/M02 A3018 RMK AO2 SNB09 P0000=
200703021733 SPECI KPAE 021733Z 10008KT 1 1/2SM -SN BKN018 OVC031 01/M03 A3018 RMK AO2 SNB09 P0000=
200703021733 SPECI KPAE 021733Z 10008KT 1 1/2SM -SN BKN018 OVC031 01/M03 A3018 RMK AO2 SNB09 P0000=
200703021726 SPECI KPAE 021726Z 10007KT 2SM -SN BKN018 OVC031 01/M03 A3018 RMK AO2 SNB09 P0000=
200703021726 SPECI KPAE 021726Z 10007KT 2SM -SN BKN018 OVC031 01/M03 A3018 RMK AO2 SNB09 P0000=
200703021653 METAR KPAE 021653Z 11009KT 10SM OVC033 01/M05 A3017 RMK AO2 SLP224 T00111050=
200703021553 METAR KPAE 021553Z 11009KT 10SM OVC033 01/M05 A3015 RMK AO2 SLP216 T00061050=
200703021453 METAR KPAE 021453Z 11011KT 10SM SCT038 OVC049 00/M05 A3015 RMK AO2 SLP216 T00001050 57009=
200703021353 METAR KPAE 021353Z AUTO 11011KT 10SM OVC050 M01/M06 A3016 RMK AO2 SLP220 T10061061=
200703021253 METAR KPAE 021253Z AUTO 11010KT 10SM OVC085 M01/M06 A3017 RMK AO2 SLP221 T10111061=
200703021153 METAR KPAE 021153Z AUTO 10008KT 10SM FEW120 M01/M06 A3018 RMK AO2 SLP225 70014 T10111061 10000 21017 53003=
200703021053 METAR KPAE 021053Z AUTO 10006KT 10SM CLR M01/M06 A3017 RMK AO2 SLP224 T10111056=
200703020953 METAR KPAE 020953Z AUTO 11010KT 10SM CLR M01/M06 A3017 RMK AO2 SLP223 T10111056=
200703020853 METAR KPAE 020853Z AUTO 10008KT 10SM CLR M01/M05 A3017 RMK AO2 SLP223 T10111050 51003=
200703020753 METAR KPAE 020753Z AUTO 11008KT 10SM FEW038 M01/M05 A3017 RMK AO2 SLP222 T10111050 400331044=
200703020653 METAR KPAE 020653Z AUTO 10009KT 10SM FEW040 OVC050 M01/M04 A3017 RMK AO2 SLP223 T10061044=
200703020553 METAR KPAE 020553Z AUTO 11008KT 10SM OVC055 00/M04 A3016 RMK AO2 SLP220 T00001039 10028 20000 53007=
200703020453 METAR KPAE 020453Z AUTO 10006KT 10SM OVC060 01/M03 A3015 RMK AO2 SLP218 T00061033=
200703020353 METAR KPAE 020353Z 10005KT 10SM FEW042 OVC060 01/M04 A3015 RMK AO2 SLP215 T00111039=
200703020253 METAR KPAE 020253Z 09004KT 10SM OVC060 01/M04 A3014 RMK AO2 SLP212 T00111039 53002=
200703020153 METAR KPAE 020153Z 10005KT 10SM BKN060 02/M04 A3013 RMK AO2 SLP210 T00171039=
200703020053 METAR KPAE 020053Z 09005KT 10SM OVC065 02/M04 A3013 RMK AO2 SLP210 T00221044=
200703012353 METAR KPAE 012353Z 07003KT 10SM BKN065 02/M06 A3013 RMK AO2 SLP210 60013 T00221056 10033 20000 53010=
200703012253 METAR KPAE 012253Z VRB04KT 10SM BKN055 BKN070 03/M06 A3012 RMK AO2 SLP206 T00281061=
200703012153 METAR KPAE 012153Z 09003KT 10SM SCT028 SCT033 03/M04 A3011 RMK AO2 SLP203 T00281044=
200703012053 METAR KPAE 012053Z 00000KT 10SM FEW023 SCT027 SCT033 02/M04 A3010 RMK AO2 SLP200 60013 T00221044 51009=
200703012039 SPECI KPAE 012039Z 00000KT 10SM FEW023 SCT027 SCT033 02/M04 A3010 RMK AO2=
200703012039 SPECI KPAE 012039Z 00000KT 10SM FEW023 SCT027 SCT033 02/M04 A3010 RMK AO2=
200703011953 METAR KPAE 011953Z 11003KT 10SM BKN020 OVC032 02/M03 A3010 RMK AO2 SLP197 P0001 T00171033=
200703011946 SPECI KPAE 011946Z 12003KT 10SM SCT018 BKN025 BKN032 02/M03 A3010 RMK AO2 P0001=
200703011946 SPECI KPAE 011946Z 12003KT 10SM SCT018 BKN025 BKN032 02/M03 A3010 RMK AO2 P0001=
200703011853 METAR KPAE 011853Z 00000KT 10SM CLR 01/M04 A3009 RMK AO2 SLP194 P0012 T00111044=
200703011753 METAR KPAE 011753Z 00000KT 10SM SCT030 00/M02 A3008 RMK AO2 SLP191 P0001 60001 T00001022 10006 21044 52025=
200703011653 METAR KPAE 011653Z 00000KT 10SM SCT022 SCT045 M03/M03 A3005 RMK AO2 SLP184 T10281033=
200703011611 SPECI KPAE 011611Z 11003KT 10SM SCT022 SCT045 M03/M04 A3003 RMK AO2=
200703011601 SPECI KPAE 011601Z 00000KT 3/4SM BR CLR M03/M04 A3002 RMK AO2=
200703011601 SPECI KPAE 011601Z 00000KT 3/4SM BR CLR M03/M04 A3002 RMK AO2=
200703011553 METAR KPAE 011553Z 00000KT 6SM BR SCT006 SCT024 M04/M04 A3002 RMK AO2 SLP174 T10391044=
200703011453 METAR KPAE 011453Z 00000KT 10SM FEW017 SCT024 BKN045 M02/M03 A3000 RMK AO2 SLP166 T10171028 53017=
200703011431 SPECI KPAE 011431Z 00000KT 10SM FEW009 SCT016 OVC040 M02/M03 A2999 RMK AO2=
200703011431 SPECI KPAE 011431Z 00000KT 10SM FEW009 SCT016 OVC040 M02/M03 A2999 RMK AO2=
200703011414 SPECI KPAE 011414Z 00000KT 10SM FEW009 BKN014 OVC034 M02/M03 A2998 RMK AO2=
200703011414 SPECI KPAE 011414Z 00000KT 10SM FEW009 BKN014 OVC034 M02/M03 A2998 RMK AO2=
200703011353 METAR KPAE 011353Z 28003KT 10SM FEW021 BKN029 OVC034 M01/M04 A2998 RMK AO2 SLP157 T10111039=
200703011349 SPECI KPAE 011349Z 00000KT 10SM BKN031 OVC070 M01/M04 A2997 RMK AO2=
200703011349 SPECI KPAE 011349Z 00000KT 10SM BKN031 OVC070 M01/M04 A2997 RMK AO2=
200703011332 SPECI KPAE 011332Z 24003KT 10SM BKN029 OVC085 M02/M04 A2997 RMK AO2=
200703011332 SPECI KPAE 011332Z 24003KT 10SM BKN029 OVC085 M02/M04 A2997 RMK AO2=
200703011253 METAR KPAE 011253Z 00000KT 10SM BKN060 OVC080 M02/M03 A2995 RMK AO2 SLP149 T10171033=
200703011153 METAR KPAE 011153Z 20004KT 10SM FEW023 SCT030 OVC035 M01/M04 A2993 RMK AO2 SNE45 SLP140 P0000 60005 70041 T10111039 11006 21017 51012=
200703011122 SPECI KPAE 011122Z 23007KT 3SM -SN BKN017 OVC025 M01/M04 A2992 RMK AO2 P0000=
200703011122 SPECI KPAE 011122Z 23007KT 3SM -SN BKN017 OVC025 M01/M04 A2992 RMK AO2 P0000=
200703011110 SPECI KPAE 011110Z 22007KT 190V260 2SM -SN BKN013 OVC019 M01/M05 A2992=
200703011053 METAR KPAE 011053Z 28010KT 1 1/4SM -SN BR BKN007 OVC019 M01/M03 A2992 RMK AO2 SLP138 P0003 T10111033=
200703011046 SPECI KPAE 011046Z 25007KT 210V300 1SM -SN BR BKN005 OVC017 M01/M03 A2992 RMK AO2 P0003=
200703011046 SPECI KPAE 011046Z 25007KT 210V300 1SM -SN BR BKN005 OVC017 M01/M03 A2992 RMK AO2 P0003=
200703011011 SPECI KPAE 011011Z 21003KT 1/2SM SN FZFG VV003 M02/M02 A2991 RMK AO2 P0002=
200703011011 SPECI KPAE 011011Z 21003KT 1/2SM SN FZFG VV003 M02/M02 A2991 RMK AO2 P0002=
200703011002 SPECI KPAE 011002Z 00000KT 1/4SM +SN FZFG FEW002 OVC008 M02/M02 A2991 RMK AO2 P0001=
200703011002 SPECI KPAE 011002Z 00000KT 1/4SM +SN FZFG FEW002 OVC008 M02/M02 A2991 RMK AO2 P0001=
200703011000 SPECI KPAE 011000Z VRB03KT 1/2SM SN FZFG FEW002 OVC010 M02/M02 A2991 RMK AO2 P0001=
200703011000 SPECI KPAE 011000Z VRB03KT 1/2SM SN FZFG FEW002 OVC010 M02/M02 A2991 RMK AO2 P0001=
200703010953 METAR KPAE 010953Z 17003KT 3/4SM -SN BR FEW002 OVC016 M02/M03 A2990 RMK AO2 SLP132 P0001 T10171028=
200703010930 SPECI KPAE 010930Z 00000KT 2SM -SN BR FEW009 BKN022 OVC030 M01/M03 A2990 RMK AO2 P0001=
200703010930 SPECI KPAE 010930Z 00000KT 2SM -SN BR FEW009 BKN022 OVC030 M01/M03 A2990 RMK AO2 P0001=
200703010923 SPECI KPAE 010923Z 00000KT 2SM -SN BR FEW009 BKN014 OVC031 M01/M03 A2990 RMK AO2 P0001=
200703010923 SPECI KPAE 010923Z 00000KT 2SM -SN BR FEW009 BKN014 OVC031 M01/M03 A2990 RMK AO2 P0001=
200703010914 SPECI KPAE 010914Z 00000KT 1 1/4SM -SN BR OVC009 M01/M03 A2989 RMK AO2 P0001=
200703010914 SPECI KPAE 010914Z 00000KT 1 1/4SM -SN BR OVC009 M01/M03 A2989 RMK AO2 P0001=
200703010855 SPECI KPAE 010855Z 11003KT 3/4SM -SN BR BKN009 BKN014 OVC027 M01/M02 A2989 RMK AO2 P0000=
200703010855 SPECI KPAE 010855Z 11003KT 3/4SM -SN BR BKN009 BKN014 OVC027 M01/M02 A2989 RMK AO2 P0000=
200703010853 METAR KPAE 010853Z 00000KT 3/4SM -SN BR BKN010 BKN014 OVC027 M01/M02 A2989 RMK AO2 SNB28 SLP127 P0001 60001 T10111022 51021=
200703010845 SPECI KPAE 010845Z 08003KT 1 1/4SM -SN BR BKN014 BKN025 OVC043 M01/M02 A2988 RMK AO2 SNB28 P0001=
200703010845 SPECI KPAE 010845Z 08003KT 1 1/4SM -SN BR BKN014 BKN025 OVC043 M01/M02 A2988 RMK AO2 SNB28 P0001=
200703010842 SPECI KPAE 010842Z 08003KT 1 3/4SM -SN BR FEW014 BKN030 OVC043 M01/M02 A2988=
200703010842 SPECI KPAE 010842Z 08003KT 1 3/4SM -SN BR FEW014 BKN030 OVC043 M01/M02 A2988 RMK AO2 SNB28 P0001=
200703010753 METAR KPAE 010753Z 15003KT 10SM OVC047 M01/M03 A2987 RMK AO2 SLP119 T10111033 400281017=
200703010653 METAR KPAE 010653Z 31006KT 9SM FEW013 BKN036 OVC042 M01/M02 A2985 RMK AO2 SNB41E50 SLP114 P0000 T10061022=
200703010553 METAR KPAE 010553Z 00000KT 10SM BKN060 OVC080 M01/M04 A2983 RMK AO2 SNE0454 SLP106 60025 T10061039 10000 21017 53017=
200703010509 SPECI KPAE 010509Z 28005KT 10SM BKN037 OVC060 M01/M03 A2980 RMK AO2 SNE0454=
200703010509 SPECI KPAE 010509Z 28005KT 10SM BKN037 OVC060 M01/M03 A2980 RMK AO2 SNE0454=
200703010453 METAR KPAE 010453Z 21006KT 8SM -SN OVC022 M01/M03 A2981 RMK AO2 SLP099 P0002 T10111028=
200703010447 SPECI KPAE 010447Z 22004KT 3SM -SN BR OVC016 M01/M03 A2981 RMK AO2 P0002=
200703010447 SPECI KPAE 010447Z 22004KT 3SM -SN BR OVC016 M01/M03 A2981 RMK AO2 P0002=
200703010444 SPECI KPAE 010444Z 26005KT 1 3/4SM -SN BR FEW005 OVC016 M02/M03 A2981 RMK AO2 P0002=
200703010444 SPECI KPAE 010444Z 26005KT 1 3/4SM -SN BR FEW005 OVC016 M02/M03 A2981 RMK AO2 P0002=
200703010439 SPECI KPAE 010439Z 29005KT 1SM -SN BR VV007 M02/M03 A2981 RMK AO2 P0002=
200703010439 SPECI KPAE 010439Z 29005KT 1SM -SN BR VV007 M02/M03 A2981 RMK AO2 P0002=
200703010416 SPECI KPAE 010416Z VRB03KT 1/2SM SN FZFG BKN002 OVC007 M01/M02 A2981 RMK AO2 P0001=
200703010402 SPECI KPAE 010402Z 30009G15KT 280V340 1/4SM +SN FZFG BKN004 OVC009 M01/M02 A2980 RMK AO2 P0001=
200703010402 SPECI KPAE 010402Z 30009G15KT 280V340 1/4SM +SN FZFG BKN004 OVC009 M01/M02 A2980 RMK AO2 P0001=
200703010353 METAR KPAE 010353Z 31008KT 270V010 1/2SM SN FZFG BKN004 OVC009 M01/M01 A2980 RMK AO2 SLP095 P0006 T10061011=
200703010316 SPECI KPAE 010316Z 12003KT 1/2SM SN FZFG VV002 M01/M01 A2978 RMK AO2 P0003=
200703010316 SPECI KPAE 010316Z 12003KT 1/2SM SN FZFG VV002 M01/M01 A2978 RMK AO2 P0003=
200703010307 SPECI KPAE 010307Z 00000KT 1/4SM +SN FZFG VV003 M01/M01 A2978 RMK AO2 P0003=
200703010300 SPECI KPAE 010300Z 13003KT 1/2SM SN FZFG VV004 M01/M01 A2978 RMK AO2 P0002=
200703010300 SPECI KPAE 010300Z 13003KT 1/2SM SN FZFG VV004 M01/M01 A2978 RMK AO2 P0002=
200703010253 METAR KPAE 010253Z 14004KT 2SM -SN BR BKN002 BKN033 OVC055 M01/M01 A2978 RMK AO2 SNE09B27 SLP089 P0001 60017 T10061011 53007=

# No short TAF reports from KPAE in databse.

###################################
#  large TAF from KPAE
###################################
200703312320 TAF KPAE 312320Z 010024 34007KT P6SM SCT040 FM1200 22007KT P6SM
                       VCSH BKN025 FM1600 VRB05KT P6SM -SHRA OVC020=
200703311734 TAF KPAE 311734Z 311818 35007KT P6SM SCT012 OVC050
                      TEMPO 1821 -SHRA BKN012 OVC040 FM2100 36008KT
                       P6SM SCT020 BKN050 BKN150 FM0500 VRB05KT
                       P6SM SCT050 FM1000 22008KT P6SM BKN020 FM1500
                       27008KT P6SM -SHRA OVC025=
200703311612 TAF AMD KPAE 311612Z 311612 36007KT P6SM VCSH SCT015 BKN040
                      TEMPO 1619 -SHRA BKN012 OVC040 FM2200 VRB06KT
                       P6SM SCT035 BKN060 FM0500 16007KT P6SM SCT045=
200703311121 TAF KPAE 311121Z 311212 35007KT P6SM SCT005 OVC015
                      TEMPO 1216 4SM -RA BR BKN003 OVC010 FM1800
                       31006KT P6SM VCSH BKN022 FM2200 VRB06KT
                       P6SM SCT035 BKN060 FM0500 16007KT P6SM SCT045=
200703311016 KPAE 311016Z 311006 35007KT 5SM -RA BR SCT005 OVC015
                      TEMPO 1014 2SM -RA BR BKN003 OVC012 FM1400
                       34005KT 5SM -SHRA BR BKN008 OVC022 FM1800
                       31006KT P6SM VCSH BKN030 FM2100 33008KT
                       P6SM SCT040=
200703310747 KPAE 310747Z 310806 35005KT P6SM -RA SCT010 OVC027
                      TEMPO 0812 -RA BKN005 OVC018 FM1200 34005KT
                       P6SM -SHRA BKN015 OVC030 FM1800 31006KT
                       P6SM VCSH BKN030 FM2100 33008KT P6SM SCT040=
200703310520 TAF KPAE 310520Z 310606 VRB05KT P6SM -RA SCT015 OVC030
                      TEMPO 0610 -RA BKN012 OVC025 FM1000 VRB05KT
                       P6SM -SHRA BKN020 BKN045 FM1800 31006KT
                       P6SM VCSH BKN030 FM2100 33008KT P6SM SCT040=
200703302320 TAF KPAE 302320Z 310024 VRB05KT P6SM VCSH BKN040 BKN070 FM0600
                       VRB05KT P6SM -RA OVC040 FM1200 VRB05KT P6SM
                       -SHRA BKN025 BKN050 FM1900 30008KT P6SM
                       SCT040=
200703301720 TAF KPAE 301720Z 301818 VRB05KT P6SM SCT040 BKN080 FM0400 VRB05KT
                       P6SM -RA OVC040 FM1200 VRB05KT P6SM -SHRA
                       BKN025 BKN050=
200703301120 TAF KPAE 301120Z 301212 14007KT P6SM SCT120 BKN200 FM1700 15008KT
                       P6SM SCT060 OVC100 FM2100 20009KT P6SM BKN060
                       OVC080
                      PROB30 0004 -RA FM0400 16007KT P6SM -RA OVC040=
200703300521 TAF KPAE 300521Z 300606 VRB05KT P6SM SCT120 BKN200 FM1300 13007KT
                       P6SM SCT060 OVC100 FM2100 20009KT P6SM BKN060
                       OVC080
                      PROB30 2202 -RA FM0200 16007KT P6SM -RA OVC045=
200703292325 TAF KPAE 292325Z 300024 28006KT P6SM BKN200 FM0400 11006KT P6SM
                       SCT120 BKN200 FM1500 17008KT P6SM SCT060
                       BKN150 FM2000 20010KT P6SM BKN040 OVC060=
200703291720 TAF KPAE 291720Z 291818 14005KT P6SM BKN200 FM2000 28006KT P6SM
                       BKN200 FM0600 14007KT P6SM SCT120 BKN200
                       FM1500 17010KT P6SM SCT060 BKN150=
200703291124 TAF KPAE 291124Z 291212 11006KT P6SM SCT200 FM1900 14005KT P6SM
                       BKN200 FM0600 14007KT P6SM SCT120 BKN200=
200703290520 TAF KPAE 290520Z 290606 VRB05KT P6SM SCT200 FM1300 10005KT P6SM
                       BKN200 FM2100 17009KT P6SM BKN200=
200703282323 TAF KPAE 282323Z 290024 VRB06KT P6SM BKN250 FM0400 10005KT P6SM
                       BKN250 FM1200 13006KT P6SM BKN250 FM1800
                       18009KT P6SM BKN200=
200703281736 TAF KPAE 281736Z 281818 21004KT P6SM BKN250 FM2000 28005KT P6SM
                       SCT060 BKN250 FM0400 11005KT P6SM BKN250=
200703281120 TAF KPAE 281120Z 281212 19007KT P6SM VCSH BKN045 BKN070 FM1400
                       15007KT P6SM SCT045 BKN070 FM2200 32005KT
                       P6SM SCT060 FM0400 11005KT P6SM SKC=
200703280756 KPAE 280756Z 280806 00000KT P6SM OVC029 FM1500 VRB03KT P6SM SCT025
                       BKN045 FM1800 18004KT P6SM SCT030 BKN060
                       FM2200 32005KT P6SM SCT060=
200703280527 TAF KPAE 280527Z 280606 36007G14KT P6SM SCT060 FM1000 VRB03KT P6SM
                       SCT020 BKN045 FM1800 18004KT P6SM SCT030
                       BKN060 FM2200 32005KT P6SM SCT060=
200703272345 TAF KPAE 272345Z 280024 33007KT P6SM VCSH BKN040 OVC090 FM0500
                       34005KT P6SM BKN045 FM1000 VRB03KT P6SM
                       SCT020 BKN045 FM1800 18004KT P6SM SCT030
                       BKN080=
200703271741 TAF KPAE 271741Z 271818 36007KT P6SM SCT025 BKN045 OVC090
                      TEMPO 1821 -SHRA FM2100 34011KT P6SM VCSH
                       BKN050 BKN070 FM1000 VRB03KT P6SM BKN030=
200703271527 KPAE 271527Z 271512 VRB03KT P6SM VCSH BKN012 OVC020 FM1700 30006KT
                       P6SM SCT008 BKN012 OVC020
                      TEMPO 1719 -SHRA FM1900 32012KT P6SM SCT020
                       BKN040 FM0300 35005KT P6SM SCT040 SCT060
                       FM1000 VRB03KT P6SM BKN030=
200703271132 TAF AMD KPAE 271132Z 271212 16006KT P6SM FEW007 SCT020 OVC080
                      TEMPO 1215 BKN020 OVC080 FM1700 32012KT P6SM
                       SCT040 BKN060 FM0300 35005KT P6SM SCT040
                       SCT060 FM1000 VRB03KT P6SM BKN030=
200703271120 TAF KPAE 271120Z 271212 18008KT P6SM SCT040 BKN080 FM1700 32012KT
                       P6SM SCT040 BKN060 FM0300 35005KT P6SM SCT040
                       SCT060 FM1000 VRB03KT P6SM BKN030=
200703270801 TAF AMD KPAE 270801Z 270806 22004KT P6SM SCT035 OVC060
                      TEMPO 0912 -RA BKN030 OVC050 FM1200 32008KT
                       P6SM VCSH BKN040 OVC060 FM2000 32012KT P6SM
                       SCT040 BKN060=
200703270521 TAF KPAE 270521Z 270606 27007KT P6SM OVC090 FM0900 30006KT P6SM
                       BKN045 BKN060 FM1200 32008KT P6SM VCSH BKN040
                       OVC060 FM2000 32012KT P6SM SCT040 BKN060=
200703262326 TAF KPAE 262326Z 270024 33008KT P6SM SCT090 BKN200 FM0200 35006KT
                       P6SM SCT050 BKN090 BKN200 FM0900 30006KT
                       P6SM BKN050 BKN080 FM1200 30008KT P6SM VCSH
                       BKN040 OVC070 FM1500 33008KT P6SM VCSH BKN035
                       OVC060=
200703261736 TAF KPAE 261736Z 261818 10005KT P6SM SCT060 BKN090 BKN200 FM2100
                       06005KT P6SM VCSH SCT050 BKN080 FM0300 VRB03KT
                       P6SM SCT035 BKN060 FM1000 18005KT P6SM SCT025
                       BKN045=
200703261120 TAF KPAE 261120Z 261212 10007KT P6SM SKC FM2000 34010KT P6SM BKN050
                       FM0300 32005KT P6SM BKN035 FM0900 35005KT
                       P6SM BKN020=
200703260520 TAF KPAE 260520Z 260606 08003KT P6SM SCT250 FM2000 34010KT P6SM
                       BKN050 FM0300 32005KT P6SM BKN035=
200703252322 TAF KPAE 252322Z 260024 02006KT P6SM SCT050 BKN060 FM0400 VRB03KT
                       P6SM SCT045 FM0800 11005KT P6SM SCT009 SCT050
                       FM1600 03007KT P6SM SCT200 FM2000 34010KT
                       P6SM SCT250=
200703251731 TAF KPAE 251731Z 251818 VRB05KT P6SM SCT011 OVC029
                      TEMPO 1820 3SM -SHRA BKN011 OVC029 FM2200
                       30004KT P6SM SCT025 BKN040 FM0400 VRB03KT
                       P6SM SCT045 FM0800 11005KT P6SM SCT009 SCT050
                       FM1700 03007KT P6SM SCT200=
200703251615 KPAE 251615Z 251612 VRB05KT P6SM SCT015 OVC027 FM1700 VRB04KT P6SM
                       SCT025 BKN035 FM2200 30004KT P6SM SCT025
                       SCT045 FM0400 VRB03KT P6SM SCT045=
200703251120 TAF KPAE 251120Z 251212 05003KT P6SM SCT015 OVC027 FM1500 VRB04KT
                       P6SM SCT025 BKN040 FM2200 30004KT P6SM SCT025
                       SCT045 FM0400 VRB03KT P6SM SCT045=
200703250923 KPAE 250923Z 250906 VRB04KT P6SM -SHRA SCT003 OVC011
                      TEMPO 0913 3SM -RA BR OVC003 FM1300 VRB04KT
                       P6SM BKN015 BKN045 FM1700 VRB04KT P6SM SCT025
                       BKN045 FM2200 30004KT P6SM SCT025 SCT045
                       FM0400 VRB03KT P6SM SCT045=
200703250733 KPAE 250733Z 250806 VRB04KT P6SM -SHRA BKN003 OVC011 FM1300 VRB04KT
                       P6SM BKN020 BKN045 FM1700 VRB04KT P6SM SCT025
                       BKN045 FM2200 30004KT P6SM SCT025 SCT045
                       FM0400 VRB03KT P6SM SCT045=
200703250642 KPAE 250642Z 250706 35007KT P6SM FEW009 BKN013 OVC019 FM1600 VRB04KT
                       P6SM SCT020 BKN045 FM2200 30004KT P6SM SCT025
                       SCT045 FM0400 VRB03KT P6SM SCT045=
200703250530 TAF KPAE 250530Z 250606 20009KT P6SM SCT015 BKN020 OVC035 FM1600
                       18008KT P6SM SCT020 BKN045 FM2200 30004KT
                       P6SM SCT025 SCT045 FM0400 VRB03KT P6SM SCT045=
200703242342 TAF KPAE 242342Z 250024 18012G18KT P6SM -RA SCT015 OVC035
                      TEMPO 0004 BKN015 OVC035 FM0400 18010KT P6SM
                       -SHRA BKN015 OVC035 FM0700 VRB04KT P6SM
                       -SHRA SCT008 BKN015 OVC030
                      TEMPO 0711 BKN008 OVC015 FM1100 VRB04KT P6SM
                       SCT020 BKN040 FM1600 18008KT P6SM SCT020
                       BKN030 OVC045 FM1900 15006KT P6SM SCT025
                       BKN045=
200703241739 TAF KPAE 241739Z 241818 15028G38KT P6SM -RA BKN015 OVC035 WS020/21045KT
                       TEMPO 1822 4SM -RA SCT015 OVC035 FM0400
                       18020KT P6SM -SHRA BKN015 OVC035 FM0700
                       VRB04KT P6SM -SHRA SCT008 BKN015 OVC030
                       TEMPO 0711 BKN008 OVC015 FM1100 VRB04KT
                       P6SM SCT020 BKN040 FM1600 18008KT P6SM SCT020
                       BKN030 OVC045=
200703241222 TAF AMD KPAE 241222Z 241212 17024G30KT P6SM -RA BKN007 BKN011 OVC090
                       TEMPO 1216 SCT010 BKN080 FM1600 15028G38KT
                       P6SM -RA BKN020 OVC035 FM0400 18020KT P6SM
                       -SHRA BKN015 OVC035 FM0700 VRB04KT P6SM
                       -SHRA BKN008 OVC020=
200703241125 TAF KPAE 241125Z 241212 17024G30KT P6SM -RA BKN007 BKN011 OVC090
                       FM1600 15028G38KT P6SM -RA BKN020 OVC035
                       FM0400 18020KT P6SM -SHRA BKN015 OVC035
                       FM0700 VRB04KT P6SM -SHRA BKN008 OVC020=
200703240940 KPAE 240940Z 241006 17022G28KT 5SM -RA BR BKN009 BKN015 OVC090
                       FM1500 15028G38KT P6SM -RA BKN020 OVC035
                       FM0400 18020KT P6SM -SHRA BKN015 OVC035=
200703240527 TAF KPAE 240527Z 240606 17022G30KT P6SM SCT011 OVC050
                      TEMPO 0610 -RA BKN011 OVC050 FM1400 16015KT
                       P6SM VCSH SCT015 OVC040 FM1800 15025G35KT
                       P6SM -RA BKN020 OVC045 FM0400 18020KT P6SM
                       -SHRA BKN015 OVC035=
200703240422 KPAE 240422Z 240424 17018G25KT P6SM -RA OVC013 FM0900 18011KT P6SM
                       -SHRA OVC015 FM1400 16015KT P6SM VCSH SCT015
                       OVC040 FM1900 15022G35KT P6SM -RA OVC020=
200703232320 TAF KPAE 232320Z 240024 16012KT P6SM -RA SCT018 BKN028 OVC035
                      TEMPO 0004 6SM -RA BKN015 OVC020 FM0900 18011KT
                       P6SM -SHRA OVC020 FM1400 16015KT P6SM VCSH
                       OVC020=
200703232300 KPAE 240422Z 240424 17018G25KT P6SM -RA OVC013 FM0900 18011KT P6SM
                       -SHRA OVC015 FM1400 16015KT P6SM VCSH SCT015
                       OVC040 FM1900 15022G35KT P6SM -RA OVC020=
200703231737 TAF KPAE 231737Z 231818 16015KT P6SM SCT025 BKN035 OVC080
                      TEMPO 1821 6SM -RA BR SCT018 BKN028 OVC035
                       FM2100 20012KT 6SM -RA SCT015 BKN020 OVC045
                       FM0900 18011KT P6SM -SHRA OVC020 FM1400
                       16015KT P6SM VCSH OVC020=
200703231508 KPAE 231508Z 231512 13015G25KT 6SM -RA FEW007 OVC025
                      TEMPO 1519 5SM -RA BR OVC007 FM1900 20012KT
                       P6SM -RA BKN020 OVC045 FM0500 18011KT P6SM
                       VCSH OVC020=
200703231243 KPAE 231243Z 231312 13011KT 5SM BR FEW007 OVC014
                      TEMPO 1317 3SM -RA BR FM1700 20010KT P6SM
                       -RA BKN020 OVC045 FM0500 18011KT P6SM VCSH
                       OVC020=
200703231124 TAF KPAE 231124Z 231212 13011KT P6SM VCSH OVC014 FM1700 20010KT
                       P6SM -RA BKN020 OVC045 FM0500 18011KT P6SM
                       VCSH OVC020=
200703230531 TAF KPAE 230531Z 230606 14009KT P6SM VCSH BKN006 OVC011 FM1700
                       20010KT P6SM -RA BKN020 OVC045=
200703222320 TAF KPAE 222320Z 230024 16012KT P6SM -RA SCT025 OVC040
                      TEMPO 0004 -RA OVC025 FM0900 20010KT P6SM
                       VCSH SCT015 BKN040 BKN080=
200703221720 TAF KPAE 221720Z 221818 16010KT P6SM -RA BKN012 OVC040 FM0300 20010KT
                       P6SM VCSH SCT015 BKN040 BKN080=
200703221120 TAF KPAE 221120Z 221212 14009KT 6SM -RA BR OVC010 FM0300 14008KT
                       P6SM VCSH BKN015 OVC025=
200703220523 TAF KPAE 220523Z 220606 14010KT P6SM OVC028 FM0900 16007KT 6SM
                       -RA BR BKN020 OVC030 FM0000 14008KT P6SM
                       VCSH BKN015 OVC025=
200703212333 TAF KPAE 212333Z 220024 15010KT P6SM SCT035 BKN045 OVC120 FM0200
                       16009KT P6SM -RA BKN030 OVC050 FM0900 16007KT
                       6SM -RA BR BKN020 OVC030 FM1400 14008KT
                       P6SM VCSH BKN015 OVC025=
200703211728 TAF KPAE 211728Z 211818 14008KT P6SM BKN060 FM2100 17007KT P6SM
                       BKN050 OVC120 FM0200 16009KT P6SM -RA BKN030
                       OVC050 FM0900 16007KT 6SM -RA BR BKN020
                       OVC030=
200703211120 TAF KPAE 211120Z 211212 14008KT P6SM BKN060 FM1800 17007KT P6SM
                       BKN050 OVC120 FM2300 16009KT P6SM -RA BKN030
                       OVC050=
200703210544 TAF KPAE 210544Z 210606 00000KT P6SM SCT060 BKN200 FM0800 17004KT
                       P6SM SCT025 BKN060
                      TEMPO 1014 BKN008 OVC025 FM1500 15008KT P6SM
                       BKN025 OVC050 FM1900 17010KT P6SM SCT025
                       BKN050 OVC080=
200703202327 TAF KPAE 202327Z 210024 31005KT P6SM SCT025 BKN045
                      TEMPO 0004 -SHRA BKN025 OVC045 FM0800 17004KT
                       P6SM SCT025 BKN060
                      TEMPO 1014 BKN008 OVC025 FM1500 15008KT P6SM
                       BKN025 OVC050 FM1900 17010KT P6SM SCT025
                       BKN050 OVC080
                      PROB30 1924 -RA=
200703201739 TAF KPAE 201739Z 201818 31006KT P6SM -SHRA BKN015 OVC025
                      TEMPO 1820 3SM SHRA BR BKN009 OVC015 FM2100
                       33010KT P6SM BKN025 OVC045
                      TEMPO 2123 -SHRA FM2300 34009KT P6SM VCSH
                       SCT030 BKN045 FM0100 36006KT P6SM SCT045
                       BKN120 FM0600 17006KT P6SM BKN060 BKN140=
200703201301 KPAE 201301Z 201312 33010KT P6SM -SHRA SCT009 BKN016 OVC023
                      TEMPO 1317 4SM -SHRA BR BKN009 OVC016 FM2000
                       33010KT P6SM -SHRA BKN025 OVC045 FM0800
                       17006KT P6SM SCT050 BKN200=
200703201120 TAF KPAE 201120Z 201212 20013KT P6SM -SHRA OVC013 FM2000 20012KT
                       P6SM -SHRA BKN025 OVC045 FM0800 17006KT
                       P6SM SCT050 BKN200=
200703200532 TAF KPAE 200532Z 200606 16016G23KT P6SM -SHRA BKN040 BKN050 OVC060
                       FM1100 18005KT P6SM -SHRA BKN010 OVC025
                       FM1800 20012KT P6SM -SHRA BKN025 OVC045=
200703192334 TAF KPAE 192334Z 200024 18015G25KT P6SM SCT035 BKN060
                      TEMPO 0003 -RA SCT015 BKN035 OVC060 FM0300
                       16012G22KT P6SM SCT015 BKN040 BKN060 FM0700
                       18015G25KT P6SM -SHRA SCT015 BKN025 OVC040
                       FM1100 22005KT P6SM -SHRA BKN010 OVC025=
200703192022 KPAE 192022Z 192018 18015G25KT P6SM BKN020 OVC040
                      TEMPO 2124 5SM -RA BR BKN012 OVC025 FM0000
                       19012G22KT P6SM BKN035 BKN060 FM0500 18012KT
                       P6SM -SHRA BKN025 OVC040=
200703191735 TAF KPAE 191735Z 191818 16012KT P6SM -RA SCT011 OVC040
                      TEMPO 1820 5SM -RA BR FM2100 18015G25KT P6SM
                       SCT025 OVC045
                      TEMPO 2124 -RA BKN025 OVC040 FM0000 19012G22KT
                       P6SM BKN035 BKN060 FM0500 18012KT P6SM -SHRA
                       BKN025 OVC040=
200703191507 KPAE 191507Z 191512 15013KT P6SM SCT011 BKN150
                      TEMPO 1518 BKN011 BKN150 FM1800 17012KT P6SM
                       -RA BKN012 OVC025 FM2100 21015G25KT P6SM
                       -RA BKN010 OVC040 FM0000 20012G22KT P6SM
                       BKN015 BKN040 FM0500 20012KT P6SM -SHRA
                       BKN025 OVC040=
200703191120 TAF KPAE 191120Z 191212 16013KT P6SM SCT020 BKN050 OVC130
                      TEMPO 1215 BKN020 OVC050 FM1500 16013KT P6SM
                       OVC015
                      TEMPO 1518 -RA FM1800 16015G23KT 5SM -RA
                       BR OVC015 FM2300 18015G23KT 5SM -RA BR OVC015
                       FM0500 19013G20KT P6SM -SHRA BKN025 OVC040=
200703190540 TAF KPAE 190540Z 190606 16010KT P6SM BKN050 OVC150 FM0900 15013KT
                       P6SM SCT025 BKN050 OVC100
                      TEMPO 0912 BKN025 OVC050 FM1200 15013KT P6SM
                       BKN025 OVC050 FM1500 15015G25KT P6SM OVC025
                       TEMPO 1518 -RA FM1800 17015G25KT 5SM -RA
                       BR OVC015=
200703182320 TAF KPAE 182320Z 190024 16008KT P6SM SCT030 BKN150 FM0900 16008KT
                       P6SM BKN030 OVC120 FM1800 16015KT P6SM -RA
                       OVC030=
200703182133 KPAE 182133Z 182218 16010KT P6SM SCT022 BKN200
                      TEMPO 2202 BKN022 FM0800 16012KT P6SM BKN030
                       OVC150 FM1000 16012KT P6SM BKN040 OVC150
                       FM1700 16016KT P6SM -RA OVC040=
200703181721 TAF KPAE 181721Z 181818 18007KT P6SM SCT020 BKN050
                      TEMPO 1821 BKN015 FM0300 16007KT P6SM SCT040
                       BKN200 FM1000 16010KT P6SM BKN040 OVC150
                       FM1700 16014KT P6SM -RA OVC040=
200703181438 KPAE 181438Z 181512 16006KT P6SM SCT005 OVC020
                      TEMPO 1517 5SM BR BKN005 FM2100 16006KT P6SM
                       BKN025 BKN060 OVC130 FM0000 16006KT P6SM
                       BKN060 OVC130=
200703181134 TAF KPAE 181134Z 181212 19006KT 4SM BR OVC004 FM1800 19006KT P6SM
                       OVC015 FM2100 19006KT P6SM BKN025 BKN060
                       OVC130 FM0000 16006KT P6SM BKN060 OVC130=
200703181010 KPAE 181010Z 181006 19006KT 5SM BR OVC004
                      TEMPO 1014 1 1/2SM -DZ BR OVC002 FM1400 17006KT
                       3SM BR OVC005 FM1800 19008KT P6SM OVC012
                       FM2100 19008KT P6SM BKN025 BKN060 OVC130
                       FM0000 16008KT P6SM BKN060 OVC130=
200703180538 TAF KPAE 180538Z 180606 17011KT P6SM SCT010 OVC060
                      TEMPO 0610 4SM -DZ BR OVC010 FM1000 17006KT
                       1SM BR OVC002
                      TEMPO 1014 1/4SM -DZ FG FM1400 17006KT 3SM
                       BR OVC005 FM1800 19008KT P6SM OVC012 FM2100
                       19008KT P6SM BKN025 BKN060 OVC130 FM0000
                       16008KT P6SM BKN060 OVC130=
200703180311 KPAE 180311Z 180324 18013KT P6SM -RA SCT012 OVC060
                      TEMPO 0306 4SM -RA BR BKN012 OVC060 FM0600
                       VRB05KT P6SM VCSH BKN010 BKN030 FM1600 VRB03KT
                       P6SM SCT015 BKN030 FM2000 21005KT P6SM SCT030
                       BKN050=
200703180201 KPAE 180201Z 180224 18013KT P6SM -RA BKN010 BKN025 OVC040 FM0400
                       VRB05KT P6SM VCSH BKN010 BKN030 FM1600 VRB03KT
                       P6SM SCT015 BKN030 FM2000 21005KT P6SM SCT030
                       BKN050=
200703172321 TAF KPAE 172321Z 180024 16014KT P6SM -RA SCT015 OVC035
                      TEMPO 0004 5SM -RA BR BKN015 OVC030 FM0400
                       VRB05KT P6SM VCSH BKN015 BKN030 FM1600 VRB03KT
                       P6SM SCT015 BKN030 FM2000 21005KT P6SM SCT030
                       BKN050=
200703172300 KPAE 180311Z 180324 18013KT P6SM -RA SCT012 OVC060
                      TEMPO 0306 4SM -RA BR BKN012 OVC060 FM0600
                       VRB05KT P6SM VCSH BKN010 BKN030 FM1600 VRB03KT
                       P6SM SCT015 BKN030 FM2000 21005KT P6SM SCT030
                       BKN050=
200703171818 KPAE 171818Z 171818 15012KT P6SM -RA SCT010 OVC040
                      TEMPO 1821 4SM -RA BR BKN010 OVC040 FM2100
                       18012KT 4SM -RA BR OVC010 FM0200 VRB07KT
                       P6SM -SHRA BKN015 BKN030 FM1600 VRB05KT
                       P6SM SCT015 BKN030=
200703171720 TAF KPAE 171720Z 171818 15012KT P6SM -RA OVC010
                      TEMPO 2024 4SM -RA BR OVC008 FM0200 VRB07KT
                       P6SM -SHRA BKN015 BKN030 FM1600 VRB05KT
                       P6SM SCT015 BKN030=
200703171140 TAF KPAE 171140Z 171212 VRB03KT P6SM FEW005 OVC050 FM1400 17006KT
                       P6SM BKN008 OVC050 FM1600 17009KT P6SM BKN015
                       OVC050
                      TEMPO 1619 -RA FM1900 17011KT 6SM -RA BR
                       OVC015 FM0500 20008KT P6SM OVC015
                      PROB30 0511 -RA NIL AMD=
200703171011 KPAE 171011Z 171006 VRB03KT 2SM BR SCT200
                      TEMPO 1012 1/4SM FG VV001 FM1200 14006KT
                       P6SM VCFG SCT130 BKN200 FM1800 14011KT P6SM
                       OVC070
                      PROB30 1921 -RA FM2100 14011KT P6SM -RA SCT020
                       OVC040 FM0000 17011KT P6SM -RA BKN020 OVC040
                       NIL AMD=
200703170844 KPAE 170844Z 170906 VRB03KT 2SM BR SCT200
                      TEMPO 0912 1/4SM FG VV001 FM1200 14006KT
                       P6SM VCFG SCT130 BKN200 FM1800 14011KT P6SM
                       OVC070
                      PROB30 1821 -RA FM2100 14011KT P6SM -RA SCT020
                       OVC040 FM0000 17011KT P6SM -RA BKN020 OVC040=
200703170521 TAF KPAE 170521Z 170606 14006KT P6SM SCT200 FM0900 14006KT P6SM
                       VCFG SCT200 FM1200 14006KT P6SM VCFG SCT130
                       BKN200 FM1800 14011KT P6SM OVC070
                      PROB30 1821 -RA FM2100 14011KT P6SM -RA SCT020
                       OVC040 FM0000 17011KT P6SM -RA BKN020 OVC040=
200703170248 TAF AMD KPAE 170248Z 170324 14006KT P6SM SCT100 BKN200 FM1200 16012KT
                       P6SM BKN040 OVC080 FM1600 18010KT P6SM -RA
                       OVC030=
200703162323 TAF KPAE 162323Z 170024 18010KT P6SM SCT040 BKN080 BKN200 FM0800
                       16012KT P6SM BKN040 OVC080 FM1600 18010KT
                       P6SM -RA OVC030=
200703162300 KPAE 170248Z 170324 14006KT P6SM SCT100 BKN200 FM1200 16012KT P6SM
                       BKN040 OVC080 FM1600 18010KT P6SM -RA OVC030=
200703161720 TAF KPAE 161720Z 161818 16012KT P6SM SCT025 BKN050 BKN100
                      TEMPO 1821 BKN025 FM0000 16012KT P6SM SCT025
                       BKN050 BKN100 FM1000 16012KT P6SM BKN025
                       OVC050
                      TEMPO 1418 5SM -RA BR OVC020=
200703161139 TAF KPAE 161139Z 161212 14012KT P6SM OVC030
                      TEMPO 1418 BKN020 OVC030 FM1800 17013KT P6SM
                       BKN030 OVC050 FM2200 18011KT P6SM BKN050
                       OVC130 FM0800 17009KT P6SM OVC040=
200703160903 KPAE 160903Z 160906 13011KT P6SM OVC035
                      TEMPO 0912 -RA FM1200 17013KT P6SM OVC025
                       FM1600 19013KT P6SM OVC015 FM2200 19013KT
                       P6SM BKN025 OVC070=
200703160708 TAF KPAE 160708Z 160706 10010KT P6SM OVC035
                      TEMPO 0709 -RA FM0900 13011KT P6SM OVC025
                       TEMPO 0912 -RA FM1200 17013KT P6SM OVC015
                       FM1600 19013KT P6SM OVC015 FM2200 19013KT
                       P6SM BKN025 OVC070=
200703160706 KPAE 160706Z 160706 10010KT P6SM OVC035 FM0900 13011KT P6SM OVC025
                       FM1200 17013KT P6SM OVC015 FM1600 19013KT
                       P6SM OVC015 FM2200 19013KT P6SM BKN025 OVC070=
200703160546 TAF KPAE 160546Z 160606 14006KT P6SM -RA OVC035 FM0900 14011KT
                       P6SM OVC025
                      TEMPO 0911 -RA FM1200 17013KT P6SM OVC015
                       FM1600 19013KT P6SM OVC015 FM2200 19013KT
                       P6SM BKN025 OVC070=
200703152320 TAF KPAE 152320Z 160024 14007KT P6SM -RA SCT035 OVC045 FM0800 14007KT
                       P6SM -RA OVC030 FM1200 14007KT P6SM -RA
                       OVC020 FM2000 16012KT P6SM BKN030 BKN050=
200703152225 KPAE 152225Z 152218 13007KT P6SM BKN040 OVC070
                      TEMPO 2201 -RA FM0100 14007KT P6SM BKN070
                       OVC100 FM0600 14008KT P6SM -RA BKN040 OVC070
                       FM1200 14007KT P6SM -RA BKN025 OVC050=
200703151740 TAF KPAE 151740Z 151818 14005KT P6SM BKN090 OVC150 FM0200 15006KT
                       P6SM BKN050 OVC080 FM0600 12007KT P6SM BKN045
                       OVC070=
200703151122 TAF KPAE 151122Z 151212 VRB04KT P6SM FEW070 SCT130 OVC200 FM1800
                       VRB04KT P6SM FEW070 BKN130 OVC200 FM0000
                       VRB04KT P6SM BKN070 OVC130
                      PROB30 0006 -RA FM0600 11008KT P6SM OVC070
                       PROB30 0612 -RA OVC040=
200703150540 TAF KPAE 150540Z 150606 01005KT P6SM BKN070 BKN200 FM1200 01005KT
                       P6SM BKN040 BKN200 FM1800 VRB03KT P6SM SCT040
                       BKN100 OVC200 FM0000 VRB03KT P6SM BKN070
                       OVC130
                      PROB30 0306 -RA OVC040=
200703150310 TAF AMD KPAE 150310Z 150324 36003KT P6SM FEW060 BKN200 FM0600 07003KT
                       P6SM FEW060 BKN200 FM1800 35003KT P6SM SCT030
                       BKN150=
200703142320 TAF KPAE 142320Z 150024 36003KT P6SM BKN050 FM0600 07003KT P6SM
                       SCT060 FM1800 35003KT P6SM SCT030 BKN150=
200703142300 KPAE 150310Z 150324 36003KT P6SM FEW060 BKN200 FM0600 07003KT P6SM
                       FEW060 BKN200 FM1800 35003KT P6SM SCT030
                       BKN150=
200703141732 TAF KPAE 141732Z 141818 VRB03KT P6SM VCSH SCT030 OVC050 FM2100
                       33006KT P6SM SCT040 BKN080 FM0400 04004KT
                       P6SM SCT080=
200703141518 KPAE 141518Z 141512 30008KT P6SM -RA FEW016 OVC050
                      TEMPO 1517 -SHRA BKN020 OVC050 FM1800 VRB03KT
                       P6SM VCSH SCT030 OVC050 FM2000 33006KT P6SM
                       BKN040 BKN080 FM0400 04004KT P6SM SCT080=
200703141144 TAF KPAE 141144Z 141212 31011G16KT P6SM -SHRA SCT008 OVC025
                      TEMPO 1216 -SHRA BKN008 OVC020 FM1800 VRB03KT
                       P6SM VCSH SCT030 OVC050 FM2000 33006KT P6SM
                       BKN040 BKN080 FM0400 04004KT P6SM SCT080=
200703140537 TAF KPAE 140537Z 140606 17015G22KT P6SM -SHRA OVC020 FM1000 29008KT
                       P6SM VCSH SCT020 BKN040 OVC060
                      TEMPO 1014 BKN020 OVC040 FM1600 33006KT P6SM
                       VCSH SCT030 OVC050 FM2000 33006KT P6SM SCT040
                       BKN150=
200703132340 TAF KPAE 132340Z 140024 16012KT P6SM VCSH SCT030 BKN050 OVC070
                       TEMPO 0004 -SHRA BKN030 BKN050 OVC070 FM0600
                       16012KT P6SM VCSH SCT030 BKN050 OVC070
                      TEMPO 0610 -SHRA BKN030 OVC050 FM1100 29008KT
                       P6SM -SHRA BKN020 OVC040 FM1600 33006KT
                       P6SM VCSH SCT030 BKN045=
200703131739 TAF KPAE 131739Z 131818 16012KT P6SM SCT015 SCT050 FM2000 18012KT
                       P6SM VCSH SCT050 FM0300 16012KT P6SM SCT050
                       FM0600 16012KT P6SM VCSH SCT030 BKN050 OVC100=
200703131641 KPAE 131641Z 131712 16008KT P6SM SCT015
                      TEMPO 1719 BKN012 FM2000 18010KT P6SM VCSH
                       SCT040=
200703131140 TAF KPAE 131140Z 131212 10003KT P6SM VCSH BKN035 OVC050 FM1600
                       17008KT P6SM -SHRA BKN035 OVC050 FM0200
                       16012KT P6SM -SHRA BKN035 OVC050 FM0800
                       32008KT P6SM -SHRA BKN025 OVC040=
200703130534 TAF KPAE 130534Z 130606 33004KT P6SM OVC035 FM0800 VRB03KT P6SM
                       BKN035 OVC200
                      TEMPO 0812 SCT035 OVC200 FM1200 16004KT P6SM
                       VCSH BKN040 OVC060 FM1600 19005KT P6SM -SHRA
                       BKN030 OVC050
                      TEMPO 1822 SCT030 OVC050=
200703122335 TAF KPAE 122335Z 130024 34005KT P6SM VCSH SCT025 OVC040
                      TEMPO 0003 -SHRA BKN025 OVC040 FM0400 35005KT
                       P6SM BKN050 OVC150 FM0700 VRB03KT P6SM SCT060
                       BKN150 FM0900 16004KT P6SM VCSH BKN040 OVC060
                       FM1200 19005KT P6SM -SHRA BKN025 OVC040=
200703122255 KPAE 122255Z 122318 34005KT P6SM VCSH SCT025 OVC040
                      TEMPO 2303 -SHRA BKN025 OVC040 FM0400 35005KT
                       P6SM BKN050 OVC150 FM0700 VRB03KT P6SM SCT060
                       BKN150=
200703121739 TAF KPAE 121739Z 121818 33009KT P6SM VCSH BKN020 BKN040
                      TEMPO 1819 5SM -SHRA BR BKN010 OVC020 FM2000
                       33008KT P6SM VCSH SCT020 BKN040 FM2300 31005KT
                       P6SM BKN060 FM0200 36003KT P6SM SCT060=
200703121608 KPAE 121608Z 121612 33009KT P6SM VCSH BKN020 BKN040
                      TEMPO 1618 3SM -SHRA BR BKN006 OVC015 FM1800
                       33008KT P6SM VCSH SCT020 BKN040 FM2300 31005KT
                       P6SM BKN060 FM0100 36003KT P6SM SCT150=
200703121125 TAF KPAE 121125Z 121212 18022G30KT P6SM BKN012 BKN045
                      TEMPO 1215 SCT012 BKN045 FM1500 19009KT P6SM
                       VCSH SCT015 BKN030 FM2100 31005KT P6SM BKN045
                       FM0300 16006KT P6SM SCT150=
200703121020 KPAE 121020Z 121006 18025G35KT P6SM -RA SCT005 OVC015 FM1100 19010KT
                       P6SM BKN015 BKN030 FM1600 VRB04KT P6SM VCSH
                       SCT015 BKN030 FM2100 31005KT P6SM BKN040=
200703120525 TAF KPAE 120525Z 120606 19018G28KT P6SM -RA BKN010 OVC035 FM0700
                       18010KT 4SM -RA BR SCT005 OVC015
                      TEMPO 0709 2SM +RA BR OVC005 FM1100 VRB04KT
                       5SM -SHRA BR BKN015 OVC025 FM1600 VRB04KT
                       P6SM VCSH SCT015 BKN030 FM2100 31005KT P6SM
                       BKN040=
200703112333 TAF KPAE 112333Z 120024 16018G29KT P6SM FEW016 BKN023 OVC035 FM0100
                       18018G28KT 5SM -RA BR SCT005 OVC015 FM0700
                       18010KT 5SM -RA BR SCT005 OVC015 FM0900
                       VRB04KT 5SM -SHRA BR BKN015 OVC025 FM1700
                       VRB04KT P6SM VCSH SCT015 BKN030 FM2100 31005KT
                       P6SM BKN040=
200703112255 KPAE 112255Z 112318 17020G29KT P6SM -RA SCT008 BKN017 OVC035 FM0100
                       18018G28KT 3SM -RA BR SCT005 OVC015 FM0500
                       18012KT 5SM -RA BR SCT005 OVC015 FM0800
                       VRB04KT 5SM -SHRA BR BKN015 OVC025 FM1700
                       VRB04KT P6SM VCSH SCT015 BKN030=
200703111857 KPAE 111857Z 111918 17026G37KT 4SM -RA BR BKN008 BKN015 OVC060
                       FM0200 18018KT 4SM -RA BR SCT005 OVC020
                       FM0600 18016KT P6SM -SHRA SCT010 OVC020
                       FM0900 VRB04KT 5SM -SHRA BR BKN008 OVC020
                       FM1700 VRB04KT P6SM VCSH SCT015 BKN030=
200703111800 KPAE 111800Z 111818 17026G37KT P6SM -RA BKN008 BKN015 OVC028 FM0200
                       18018KT 4SM -RA BR SCT005 OVC020 FM0600
                       18016KT P6SM -SHRA SCT010 OVC020 FM0900
                       VRB04KT 5SM -SHRA BR BKN008 OVC020 FM1700
                       VRB04KT P6SM VCSH SCT015 BKN030=
200703111733 TAF KPAE 111733Z 111818 16019G30KT 2SM -RA BR BKN008 OVC060 FM2000
                       16022G37KT 4SM -RA BR BKN012 OVC040 FM0200
                       18018KT 4SM -RA BR SCT005 OVC020 FM0600
                       18016KT P6SM -SHRA SCT010 OVC020 FM0900
                       VRB04KT 5SM -SHRA BR BKN008 OVC020 FM1700
                       VRB04KT P6SM VCSH SCT015 BKN030=
200703111359 KPAE 111359Z 111412 15013G22KT P6SM -RA BKN007 OVC014
                      TEMPO 1418 4SM -RA BR FM1800 17022G35KT P6SM
                       -RA SCT010 OVC025 FM0000 18018KT 4SM -RA
                       BR SCT005 OVC020 FM0600 18012KT P6SM -SHRA
                       SCT010 OVC020=
200703111129 TAF KPAE 111129Z 111212 15013G25KT P6SM BKN004 OVC010
                      TEMPO 1418 SCT004 BKN010 OVC025 FM1800 17022G35KT
                       P6SM -RA SCT010 OVC025 FM0000 18018KT 4SM
                       -RA BR SCT005 OVC020 FM0600 18012KT P6SM
                       -SHRA SCT010 OVC020=
200703110724 TAF AMD KPAE 110724Z 110706 17012G25KT P6SM SCT005 BKN015 OVC030
                       TEMPO 0711 P6SM -RA BKN005 OVC015=
200703110527 TAF KPAE 110527Z 110606 17015G28KT P6SM -RA SCT015 OVC030
                      TEMPO 0610 BKN015=
200703110030 TAF AMD KPAE 110030Z 110124 17020G28KT P6SM -RA FEW029 BKN035 OVC045=
200703102331 TAF KPAE 102331Z 110024 16012KT P6SM SCT040 OVC060 FM0300 15014G25KT
                       P6SM -RA SCT020 OVC045 FM0600 15020G30KT
                       P6SM -RA SCT020 OVC045=
200703102300 KPAE 110030Z 110124 17020G28KT P6SM -RA FEW029 BKN035 OVC045=
200703101856 TAF AMD KPAE 101856Z 101918 15013KT P6SM SCT020 OVC050 FM2200 15015G23KT
                       P6SM -RA BKN025 OVC045 FM0200 15014G25KT
                       5SM -RA BR BKN014 OVC025=
200703101724 TAF KPAE 101724Z 101818 14011KT P6SM BKN018 OVC050 FM2000 15012KT
                       P6SM BKN050 OVC120 FM0000 15015G23KT P6SM
                       -RA BKN025 OVC045 FM0400 15014G25KT 5SM
                       -RA BR BKN014 OVC025=
200703101120 TAF KPAE 101120Z 101212 16010KT P6SM SCT012 OVC025
                      TEMPO 1214 BKN012 OVC025 FM1400 16008KT P6SM
                       SCT012 OVC025
                      TEMPO 1418 BKN012 OVC025 FM1800 15012KT P6SM
                       SCT025 OVC040 FM2200 15015G23KT P6SM -RA
                       BKN025 OVC045 FM0400 15014G25KT 5SM -RA
                       BR BKN014 OVC025 NIL AMD=
200703100531 TAF KPAE 100531Z 100606 15010KT P6SM VCSH SCT014 OVC040 FM1000
                       16008KT P6SM SCT012 OVC025
                      TEMPO 1014 BKN012 OVC025 FM1400 16008KT P6SM
                       SCT012 OVC025
                      TEMPO 1418 BKN012 OVC025 FM1800 15012KT P6SM
                       SCT025 OVC040 FM2200 15015G23KT P6SM -RA
                       BKN025 OVC045 FM0400 15014G25KT 5SM -RA
                       BR BKN014 OVC025=
200703092324 TAF KPAE 092324Z 100024 19012KT P6SM -SHRA SCT030 BKN045 OVC060
                       FM0300 VRB04KT P6SM VCSH BKN025 OVC050 FM0600
                       15006KT P6SM BKN010 OVC020 FM1800 15012KT
                       P6SM SCT025 OVC040 FM2200 15015G23KT P6SM
                       -RA BKN025 OVC045=
200703092309 KPAE 092309Z 092318 19012KT P6SM -SHRA SCT040 BKN060 OVC090 FM0100
                       18005KT P6SM VCSH BKN035 BKN050 FM0600 VRB03KT
                       P6SM BKN010 OVC020 FM1600 15008KT P6SM BKN015
                       OVC025=
200703091720 TAF KPAE 091720Z 091818 14011KT P6SM -SHRA OVC045 FM0100 18005KT
                       P6SM VCSH BKN035 BKN050 FM0600 VRB03KT P6SM
                       BKN010 OVC020 FM1600 15008KT P6SM BKN015
                       OVC025=
200703091128 TAF KPAE 091128Z 091212 15012KT P6SM VCSH BKN030 BKN080 FM1600
                       15015G25KT P6SM -SHRA BKN025 OVC050
                      TEMPO 1822 5SM -SHRA BR OVC020 FM2200 25012KT
                       P6SM VCSH BKN030=
200703090522 TAF KPAE 090522Z 090606 15015G22KT P6SM -SHRA BKN035 BKN050
                      TEMPO 0812 BKN025 OVC050 FM1200 15015KT P6SM
                       VCSH BKN025 BKN050 FM1800 15015G25KT P6SM
                       -RA BKN025 OVC050
                      TEMPO 2024 5SM -RA BR OVC020 FM0000 25012KT
                       P6SM VCSH BKN030=
200703090340 KPAE 090340Z 090424 14010KT P6SM VCSH BKN008 OVC015
                      TEMPO 0610 SCT008 BKN020 BKN050 FM1000 14012KT
                       P6SM -SHRA BKN020 OVC040=
200703082348 TAF KPAE 082348Z 090024 17015G22KT P6SM -RA SCT012 BKN025 OVC040
                       FM0300 15012KT P6SM -RA SCT010 BKN020 OVC035
                       FM0800 16010KT P6SM -RA BKN025 OVC040 FM1600
                       18007KT P6SM -RA BKN015 OVC030=
200703082300 KPAE 090340Z 090424 14010KT P6SM VCSH BKN008 OVC015
                      TEMPO 0610 SCT008 BKN020 BKN050 FM1000 14012KT
                       P6SM -SHRA BKN020 OVC040=
200703081747 TAF KPAE 081747Z 081818 14015G25KT P6SM VCSH SCT030 BKN045 BKN080
                       TEMPO 1822 -SHRA BKN030 OVC045 FM0200 19012KT
                       P6SM -RA BKN035 OVC050 FM1200 16008KT P6SM
                       -RA BKN025 OVC040=
200703081126 TAF KPAE 081126Z 081212 18015G25KT P6SM VCSH BKN045 BKN120
                      TEMPO 1216 -SHRA BKN030 OVC045 FM0600 19012G22KT
                       P6SM -SHRA BKN030 OVC080=
200703080526 TAF KPAE 080526Z 080606 18018KT P6SM VCSH BKN040 BKN100
                      TEMPO 0812 5SM -SHRA BR BKN030 OVC060=
200703080153 TAF AMD KPAE 080153Z 080224 11008KT P6SM SCT020 SCT050 SCT100 FM0230
                       16010KT P6SM VCSH SCT020 BKN050 BKN100
                      TEMPO 0305 4SM -SHRA BR BKN020 OVC050 FM0500
                       16011G17KT P6SM VCSH SCT030 BKN050
                      TEMPO 0509 5SM -SHRA BR SCT020 BKN030=
200703072340 TAF KPAE 072340Z 080024 02004KT P6SM VCSH SCT035 FM0130 16008KT
                       4SM -SHRA BR SCT020 BKN030 OVC060 FM0300
                       16010KT P6SM VCSH SCT045 BKN080 FM0500 16011G17KT
                       P6SM VCSH SCT030 BKN050
                      TEMPO 0509 5SM -SHRA BR SCT020 BKN030=
200703072300 KPAE 080153Z 080224 11008KT P6SM SCT020 SCT050 SCT100 FM0230 16010KT
                       P6SM VCSH SCT020 BKN050 BKN100
                      TEMPO 0305 4SM -SHRA BR BKN020 OVC050 FM0500
                       16011G17KT P6SM VCSH SCT030 BKN050
                      TEMPO 0509 5SM -SHRA BR SCT020 BKN030=
200703071913 KPAE 071913Z 071918 17011KT P6SM SCT025 BKN040
                      TEMPO 1922 5SM -SHRA SCT012 BKN025 OVC040
                       FM2300 19010KT P6SM FEW040 SCT100 FM0300
                       16011KT P6SM VCSH SCT050 BKN070
                      TEMPO 0408 -SHRA SCT035 BKN050=
200703071737 TAF KPAE 071737Z 071818 17011KT P6SM BKN040 OVC060
                      TEMPO 1822 -SHRA FM2300 19010KT P6SM FEW040
                       SCT100 FM0300 16011KT P6SM VCSH SCT050 BKN070
                       TEMPO 0408 -SHRA SCT035 BKN050=
200703071124 TAF KPAE 071124Z 071212 18011KT P6SM -RA SCT040 BKN060
                      TEMPO 1317 BKN030 FM1700 15011KT P6SM -RA
                       SCT022 BKN035 FM2100 18011KT P6SM VCSH BKN045
                       FM0400 15012KT P6SM -SHRA BKN040=
200703070535 TAF KPAE 070535Z 070606 16012KT P6SM BKN100 OVC200 FM0800 15011KT
                       P6SM BKN060 OVC090
                      TEMPO 0913 -RA BKN045 OVC070 FM1300 15010KT
                       P6SM -RA SCT020 BKN035 OVC045 FM1500 15011KT
                       P6SM -RA SCT015 BKN025 OVC035 FM2100 18012KT
                       P6SM VCSH SCT030 BKN045 FM0300 17011KT P6SM
                       -SHRA BKN050=
200703062343 TAF KPAE 062343Z 070024 21009KT P6SM BKN120 BKN200 FM0300 16008KT
                       P6SM BKN100 OVC200 FM0800 15010KT P6SM BKN040
                       OVC090 FM1300 15010KT P6SM -RA SCT020 BKN035
                       OVC045 FM1500 15011KT P6SM SCT015 BKN025
                       OVC035
                      TEMPO 1519 -RA FM2000 18012KT P6SM VCSH SCT030
                       BKN050=
200703061727 TAF KPAE 061727Z 061818 13007KT P6SM SCT100 BKN200 FM0600 15010KT
                       P6SM SCT040 OVC100 FM1000 14010KT P6SM -RA
                       SCT020 BKN030 OVC040
                      TEMPO 1114 SCT012 BKN020 OVC030 FM1600 14010KT
                       P6SM SCT018 BKN030=
200703061134 TAF KPAE 061134Z 061212 11009KT P6SM SCT120 BKN200 FM2000 13010KT
                       P6SM BKN120 OVC200 FM0200 15011KT P6SM SCT050
                       OVC080 FM0600 15010KT P6SM OVC050
                      PROB30 0612 -RA=
200703060536 TAF KPAE 060536Z 060606 11006KT P6SM SCT100 BKN200 FM1800 13010KT
                       P6SM SCT070 BKN100 FM2300 15012KT P6SM SCT050
                       BKN080 FM0300 15010KT P6SM OVC060
                      PROB30 0306 -RA=
200703052338 TAF KPAE 052338Z 060024 16008KT P6SM FEW050 BKN080 FM0300 13006KT
                       P6SM SCT080 FM1800 15010KT P6SM SCT070 BKN100
                       FM2300 16013KT P6SM VCSH SCT045 OVC060=
200703051741 TAF KPAE 051741Z 051818 15009KT P6SM BKN045 OVC070
                      TEMPO 1821 -SHRA FM0100 16006KT P6SM SCT050
                       BKN120 FM0400 13006KT P6SM SCT120
                      TEMPO 1316 3SM BR=
200703051120 TAF KPAE 051120Z 051212 14008KT P6SM -RA OVC050 FM1800 18008KT
                       P6SM SCT050 BKN120 FM0600 VRB04KT P6SM BKN200=
200703050532 TAF KPAE 050532Z 050606 11010KT P6SM OVC080 FM0900 14008KT P6SM
                       -RA OVC050 FM1500 20008KT P6SM BKN030 BKN080
                       FM2000 20008KT P6SM SCT040 BKN120=
200703042340 TAF KPAE 042340Z 050024 14006KT P6SM SCT120 OVC200 FM0200 14006KT
                       P6SM SCT050 BKN100 OVC200 FM0500 13006KT
                       P6SM -RA SCT030 OVC050 FM0800 14008KT 4SM
                       -RA BR SCT010 BKN018 OVC030 FM1500 15008KT
                       P6SM -RA SCT009 BKN015 OVC025 FM1800 15009KT
                       P6SM SCT014 BKN025 OVC050 FM2100 16010KT
                       P6SM SCT030 BKN060=
200703041745 TAF KPAE 041745Z 041818 35004KT P6SM SCT005 SCT120 OVC200 FM2000
                       13004KT P6SM SCT070 OVC120 FM0200 14006KT
                       P6SM VCSH SCT035 BKN050 OVC090 FM0500 14008KT
                       4SM -RA BR SCT020 OVC035 FM1500 15011KT
                       P6SM -RA SCT012 BKN020 OVC035=
200703041413 KPAE 041413Z 041412 VRB03KT P6SM VCFG BKN110 FM2100 16007KT P6SM
                       SCT060 OVC100 FM0400 16007KT P6SM -RA OVC050
                       FM0800 16007KT 4SM -RA BR OVC030=
200703041257 KPAE 041257Z 041312 VRB03KT 5SM BR SCT002 BKN150
                      TEMPO 1316 1/2SM FG BKN002 FM2100 16007KT
                       P6SM SCT060 OVC100 FM0400 16007KT P6SM -RA
                       OVC050 FM0800 16007KT 4SM -RA BR OVC030=
200703041227 KPAE 041227Z 041212 VRB03KT 5SM BR SCT002 BKN150
                      TEMPO 1215 1SM BR BKN002 FM2100 16007KT P6SM
                       SCT060 OVC100 FM0400 16007KT P6SM -RA OVC050
                       FM0800 16007KT 4SM -RA BR OVC030=
200703041120 TAF KPAE 041120Z 041212 VRB03KT P6SM BKN150 FM2100 16007KT P6SM
                       SCT060 OVC100 FM0400 16007KT P6SM -RA OVC050
                       FM0800 16007KT 4SM -RA BR OVC030=
200703040715 KPAE 040715Z 040706 00000KT 2SM BR SCT040 BKN200
                      TEMPO 0710 1/2SM FG VV001 FM1100 05005KT
                       2SM BR SCT008 BKN150
                      TEMPO 1115 1SM BR BKN008 FM1700 09005KT P6SM
                       BKN150 FM2100 16008KT P6SM SCT060 OVC100
                       FM0400 16012KT P6SM -RA OVC050=
200703040524 TAF KPAE 040524Z 040606 00000KT 4SM BR SCT040 BKN200
                      TEMPO 0610 2SM BR BKN040 FM1000 05005KT 2SM
                       BR SCT008 BKN150
                      TEMPO 1115 1SM BR BKN008 FM1700 09005KT P6SM
                       BKN150 FM2100 16008KT P6SM SCT060 OVC100
                       FM0400 16012KT P6SM -RA OVC050=
200703032340 TAF KPAE 032340Z 040024 13005KT P6SM SCT015 BKN030 OVC200
                      TEMPO 0206 SCT030 BKN200 FM1000 07003KT P6SM
                       SCT025 BKN150 FM1400 04003KT 5SM BR SCT004
                       BKN150 FM1700 09005KT P6SM SCT120 BKN200
                       FM2200 16006KT P6SM SCT045 OVC100=
200703031743 TAF KPAE 031743Z 031818 18006KT 3SM BR OVC005
                      TEMPO 1820 1SM -DZ BR OVC002 FM2300 14005KT
                       6SM BR BKN010 FM0900 06003KT 1 1/2SM -DZ
                       BR SCT003 OVC008 FM1400 04003KT 5SM BR BKN009
                       FM1700 09005KT P6SM SCT010 OVC070=
200703031403 KPAE 031403Z 031412 14007KT 5SM -DZ BR BKN006 OVC010
                      TEMPO 1418 2SM -DZ BR BKN003 OVC007 FM1800
                       18006KT P6SM BKN020 FM0000 16003KT P6SM
                       BKN045 FM0600 00000KT 3SM BR BKN010=
200703031126 TAF KPAE 031126Z 031212 14007KT 5SM -DZ BR OVC015
                      TEMPO 1216 3SM -DZ BR OVC010 FM1800 18006KT
                       P6SM BKN020 FM0600 00000KT 3SM BR BKN010=
200703031006 KPAE 031006Z 031006 12010KT 4SM -RA BR OVC015
                      TEMPO 1014 1SM -DZ BR OVC008 FM1600 16008KT
                       5SM -DZ BR OVC010 FM2100 18006KT P6SM BKN015=
200703030526 TAF KPAE 030526Z 030606 12010KT 5SM -RA BR OVC020
                      TEMPO 0610 3SM -RA BR OVC015 FM1000 18010KT
                       P6SM -SHRA OVC015 FM1800 18006KT P6SM BKN020=
200703022330 TAF KPAE 022330Z 030024 11012G17KT P6SM -RA FEW035 OVC045 FM0200
                       15012G22KT 5SM -RA BR OVC025 FM0500 18010KT
                       P6SM VCSH BKN012 OVC030 FM2000 16005KT P6SM
                       SCT025 BKN045=
200703022012 KPAE 022012Z 022018 11011KT P6SM -RA OVC035 FM2300 14014KT 5SM
                       -RA BR OVC030 FM0300 17012G22KT P6SM -SHRA
                       BKN025 OVC040 FM0700 18010KT P6SM VCSH BKN012
                       OVC030=
200703021734 TAF KPAE 021734Z 021818 11009KT 2SM -SN BR OVC010 FM1900 12014KT
                       5SM -RA BR OVC025 FM0300 17012G22KT P6SM
                       -SHRA BKN025 OVC040 FM0700 18010KT P6SM
                       VCSH BKN012 OVC030=
200703021533 KPAE 021533Z 021612 11012KT P6SM OVC025 FM1900 12012KT P6SM -RA
                       OVC025 FM0200 16015KT 5SM -RA BR OVC025
                       FM0900 18012G22KT 5SM -RA BR BKN015 OVC040=
200703021126 TAF KPAE 021126Z 021212 10008KT P6SM OVC100 FM1600 12010KT P6SM
                       OVC070 FM1900 14012KT P6SM -RA OVC040 FM0200
                       16015KT 5SM -RA BR OVC025 FM0900 18012G22KT
                       5SM -RA BR BKN015 OVC040=
200703020529 TAF KPAE 020529Z 020606 14008KT P6SM OVC050 FM1800 16015KT P6SM
                       -RA SCT015 OVC030 FM0200 16015KT 5SM -RA
                       BR OVC015=
200703012320 TAF KPAE 012320Z 020024 VRB04KT P6SM BKN045 BKN070 FM1000 18010KT
                       P6SM OVC050 FM1800 16015KT P6SM -RA SCT012
                       OVC030=
200703011727 TAF KPAE 011727Z 011818 00000KT P6SM VCSH SCT022 SCT045 FM2200
                       22007KT P6SM SCT030 BKN050 BKN100 FM1000
                       18010KT P6SM OVC050 FM1500 17012KT P6SM
                       -RA OVC030=
200703011516 KPAE 011516Z 011512 VRB03KT P6SM VCSH SCT006 SCT025 BKN045 FM2000
                       22007KT P6SM SCT030 BKN050 BKN100 FM1000
                       18010KT P6SM OVC050=
200703011120 TAF KPAE 011120Z 011212 27007KT 5SM -SHSN BKN015 OVC030
                      TEMPO 1216 1SM -SHSN OVC008 FM1600 27007KT
                       P6SM VCSH BKN020 BKN050 FM2000 22007KT P6SM
                       SCT030 BKN050 BKN100 FM1000 18010KT P6SM
                       OVC050=
200703010520 TAF KPAE 010520Z 010606 VRB08KT 5SM -SHSN OVC015
                      TEMPO 0610 1/2SM SN OVC005 FM1400 22010KT
                       P6SM VCSH BKN020 BKN050 FM1800 18008KT P6SM
                       SCT030 BKN050=
200703010432 TAF AMD KPAE 010432Z 010524 VRB06KT 1/2SM SN OVC002 FM0800 30008KT
                       P6SM VCSH BKN010
                      TEMPO 0812 3SM -SHSN FM1800 18008KT P6SM
                       BKN030=
200703010146 TAF AMD KPAE 010146Z 010224 01006KT 2SM -SN BR BKN002 OVC030
                      TEMPO 0204 1/2SM SN VV001 FM0400 VRB03KT
                       P6SM VCSH SCT012 BKN030 FM1200 VRB03KT 4SM
                       -SHSN BR SCT005 OVC020
                      TEMPO 1216 2SM -SHSN BR BKN005 OVC015 FM1800
                       16008KT P6SM SCT030 BKN060=