##########################################################
# Query made at 02/18/2025 19:01:46 UTC
# Time interval: from 07/01/2007 00:00  to 07/31/2007 23:59  UTC
##########################################################

##########################################################
# KPAE, Everett, Snohomish County Airport (United States)
# WMO index: -----. WIGOS ID: Unknown
# Latitude 47-55-23N. Longitude 122-16-57W. Altitude 184 m.
##########################################################

###################################
#  METAR/SPECI from KPAE
###################################
200707312353 METAR KPAE 312353Z 35006KT 10SM CLR 23/08 A3011 RMK AO2 SLP195 T02280078 10228 20178 58010=
200707312253 METAR KPAE 312253Z AUTO 35010G14KT 10SM CLR 22/09 A3012 RMK AO2 SLP199 T02220094 TSNO=
200707312153 METAR KPAE 312153Z 35008KT 10SM CLR 22/10 A3013 RMK AO2 SLP203 T02170100=
200707312053 METAR KPAE 312053Z VRB06KT 10SM CLR 21/11 A3014 RMK AO2 SLP205 T02060106 58004=
200707311953 METAR KPAE 311953Z 35009KT 10SM CLR 19/11 A3015 RMK AO2 SLP208 T01940106=
200707311853 METAR KPAE 311853Z 36004KT 10SM CLR 19/11 A3015 RMK AO2 SLP209 T01890106=
200707311753 METAR KPAE 311753Z VRB05KT 10SM CLR 18/11 A3015 RMK AO2 SLP209 T01830106 10183 20111 50003=
200707311653 METAR KPAE 311653Z 29004KT 10SM CLR 16/10 A3016 RMK AO2 SLP210 T01610100=
200707311553 METAR KPAE 311553Z 01003KT 10SM CLR 14/10 A3015 RMK AO2 SLP211 T01440100=
200707311453 METAR KPAE 311453Z 36003KT 10SM CLR 13/11 A3014 RMK AO2 SLP207 T01330106 53005=
200707311353 METAR KPAE 311353Z 00000KT 10SM CLR 12/09 A3014 RMK AO2 SLP204 T01220094=
200707311253 METAR KPAE 311253Z AUTO 00000KT 10SM CLR 12/09 A3013 RMK AO2 SLP203 T01170089=
200707311153 METAR KPAE 311153Z AUTO 02003KT 10SM CLR 12/09 A3013 RMK AO2 SLP201 T01170089 10128 20111 50002=
200707311053 METAR KPAE 311053Z AUTO 00000KT 10SM CLR 12/09 A3013 RMK AO2 SLP202 T01170089=
200707310953 METAR KPAE 310953Z AUTO 00000KT 10SM CLR 12/09 A3013 RMK AO2 SLP200 T01170089=
200707310853 METAR KPAE 310853Z AUTO 00000KT 10SM CLR 12/08 A3012 RMK AO2 SLP199 T01220083 57003=
200707310753 METAR KPAE 310753Z AUTO 03004KT 10SM CLR 13/09 A3013 RMK AO2 SLP200 T01280089 402110117=
200707310653 METAR KPAE 310653Z AUTO VRB05KT 10SM CLR 12/09 A3013 RMK AO2 SLP201 T01220094=
200707310553 METAR KPAE 310553Z AUTO 01005KT 10SM CLR 13/09 A3013 RMK AO2 SLP202 T01280094 10206 20128 51006=
200707310453 METAR KPAE 310453Z AUTO 03006KT 10SM CLR 13/09 A3013 RMK AO2 SLP203 T01330089=
200707310353 METAR KPAE 310353Z AUTO 01005KT 10SM CLR 14/08 A3012 RMK AO2 SLP198 T01440083=
200707310253 METAR KPAE 310253Z VRB05KT 10SM CLR 16/08 A3011 RMK AO2 SLP196 T01560083 53001=
200707310153 METAR KPAE 310153Z 35006KT 10SM CLR 18/08 A3011 RMK AO2 SLP193 T01780083=
200707310053 METAR KPAE 310053Z 36006KT 10SM CLR 19/08 A3011 RMK AO2 SLP193 T01940083=
200707302353 METAR KPAE 302353Z 34006KT 10SM CLR 21/09 A3011 RMK AO2 SLP195 T02060089 10211 20167 58008=
200707302253 METAR KPAE 302253Z AUTO 34008KT 10SM CLR 21/09 A3012 RMK AO2 SLP198 T02060089 TSNO=
200707302153 METAR KPAE 302153Z VRB06KT 10SM CLR 20/08 A3013 RMK AO2 SLP201 T02000078=
200707302053 METAR KPAE 302053Z 34007KT 310V040 10SM CLR 19/09 A3013 RMK AO2 SLP203 T01940089 56005=
200707301953 METAR KPAE 301953Z 35005KT 10SM CLR 18/09 A3014 RMK AO2 SLP205 T01830089=
200707301853 METAR KPAE 301853Z 01005KT 10SM CLR 18/10 A3015 RMK AO2 SLP207 T01780100=
200707301753 METAR KPAE 301753Z 36005KT 10SM CLR 17/10 A3015 RMK AO2 SLP209 T01670100 10167 20117 50002=
200707301653 METAR KPAE 301653Z 01006KT 10SM CLR 16/09 A3015 RMK AO2 SLP209 T01560094=
200707301553 METAR KPAE 301553Z 36006KT 10SM CLR 14/09 A3015 RMK AO2 SLP210 T01390094=
200707301453 METAR KPAE 301453Z 36006KT 10SM CLR 13/09 A3014 RMK AO2 SLP207 T01330094 53011=
200707301353 METAR KPAE 301353Z 36005KT 10SM CLR 12/09 A3013 RMK AO2 SLP201 T01220094=
200707301253 METAR KPAE 301253Z 35005KT 10SM SCT060 12/09 A3012 RMK AO2 SLP199 T01170094=
200707301153 METAR KPAE 301153Z 35006KT 10SM OVC060 12/08 A3011 RMK AO2 SLP196 T01220083 10139 20122 52001=
200707301053 METAR KPAE 301053Z 35006KT 10SM BKN060 12/09 A3011 RMK AO2 SLP194 T01220094=
200707300953 METAR KPAE 300953Z 35005KT 10SM FEW060 12/09 A3011 RMK AO2 SLP195 T01220089=
200707300853 METAR KPAE 300853Z 36004KT 10SM CLR 12/09 A3011 RMK AO2 SLP194 T01220089 53000=
200707300753 METAR KPAE 300753Z 01005KT 10SM FEW065 13/09 A3011 RMK AO2 SLP195 T01280089 401830128=
200707300653 METAR KPAE 300653Z 36005KT 10SM OVC065 13/08 A3011 RMK AO2 SLP195 T01330083=
200707300553 METAR KPAE 300553Z 36005KT 10SM OVC065 14/08 A3011 RMK AO2 SLP195 T01390078 10183 20139 58001=
200707300453 METAR KPAE 300453Z 01004KT 10SM SCT050 OVC060 15/08 A3011 RMK AO2 SLP197 T01500078=
200707300353 METAR KPAE 300353Z 02005KT 10SM OVC046 15/07 A3011 RMK AO2 SLP196 T01500072=
200707300253 METAR KPAE 300253Z 02004KT 10SM OVC046 16/08 A3011 RMK AO2 SLP196 T01560078 55002=
200707300153 METAR KPAE 300153Z 36005KT 10SM BKN055 17/09 A3011 RMK AO2 SLP195 T01720089=
200707300053 METAR KPAE 300053Z AUTO VRB06KT 10SM OVC043 17/08 A3011 RMK AO2 SLP195 T01670078 TSNO=
200707292353 METAR KPAE 292353Z AUTO 36006KT 10SM OVC041 17/09 A3012 RMK AO2 SLP197 T01670094 10172 20150 50003 TSNO=
200707292253 METAR KPAE 292253Z AUTO 36005KT 10SM BKN038 OVC045 17/09 A3012 RMK AO2 SLP199 T01720094 TSNO=
200707292153 METAR KPAE 292153Z 01006KT 10SM OVC036 17/09 A3012 RMK AO2 SLP198 T01720094=
200707292053 METAR KPAE 292053Z 01005KT 10SM OVC030 17/09 A3011 RMK AO2 SLP194 T01720089 51005=
200707292000 METAR KPAE NIL=
200707291900 METAR KPAE NIL=
200707291800 METAR KPAE NIL=
200707291700 METAR KPAE NIL=
200707291600 METAR KPAE NIL=
200707291500 METAR KPAE NIL=
200707291400 METAR KPAE NIL=
200707291300 METAR KPAE NIL=
200707291200 METAR KPAE NIL=
200707291100 METAR KPAE NIL=
200707291000 METAR KPAE NIL=
200707290900 METAR KPAE NIL=
200707290800 METAR KPAE NIL=
200707290700 METAR KPAE NIL=
200707290600 METAR KPAE NIL=
200707290500 METAR KPAE NIL=
200707290400 METAR KPAE NIL=
200707290300 METAR KPAE NIL=
200707290200 METAR KPAE NIL=
200707290100 METAR KPAE NIL=
200707290000 METAR KPAE NIL=
200707282300 METAR KPAE NIL=
200707282200 METAR KPAE NIL=
200707282100 METAR KPAE NIL=
200707282000 METAR KPAE NIL=
200707281900 METAR KPAE NIL=
200707281800 METAR KPAE NIL=
200707281700 METAR KPAE NIL=
200707281600 METAR KPAE NIL=
200707281500 METAR KPAE NIL=
200707281400 METAR KPAE NIL=
200707281300 METAR KPAE NIL=
200707281200 METAR KPAE NIL=
200707281100 METAR KPAE NIL=
200707281000 METAR KPAE NIL=
200707280900 METAR KPAE NIL=
200707280800 METAR KPAE NIL=
200707280700 METAR KPAE NIL=
200707280600 METAR KPAE NIL=
200707280500 METAR KPAE NIL=
200707280400 METAR KPAE NIL=
200707280300 METAR KPAE NIL=
200707280200 METAR KPAE NIL=
200707280100 METAR KPAE NIL=
200707280000 METAR KPAE NIL=
200707272300 METAR KPAE NIL=
200707272200 METAR KPAE NIL=
200707272100 METAR KPAE NIL=
200707272000 METAR KPAE NIL=
200707271900 METAR KPAE NIL=
200707271800 METAR KPAE NIL=
200707271700 METAR KPAE NIL=
200707271600 METAR KPAE NIL=
200707271500 METAR KPAE NIL=
200707271400 METAR KPAE NIL=
200707271300 METAR KPAE NIL=
200707271200 METAR KPAE NIL=
200707271100 METAR KPAE NIL=
200707271000 METAR KPAE NIL=
200707270900 METAR KPAE NIL=
200707270800 METAR KPAE NIL=
200707270700 METAR KPAE NIL=
200707270600 METAR KPAE NIL=
200707270500 METAR KPAE NIL=
200707270400 METAR KPAE NIL=
200707270300 METAR KPAE NIL=
200707270200 METAR KPAE NIL=
200707270100 METAR KPAE NIL=
200707270000 METAR KPAE NIL=
200707262300 METAR KPAE NIL=
200707262200 METAR KPAE NIL=
200707262100 METAR KPAE NIL=
200707262000 METAR KPAE NIL=
200707261900 METAR KPAE NIL=
200707261800 METAR KPAE NIL=
200707261700 METAR KPAE NIL=
200707261600 METAR KPAE NIL=
200707261500 METAR KPAE NIL=
200707261400 METAR KPAE NIL=
200707261300 METAR KPAE NIL=
200707261200 METAR KPAE NIL=
200707261100 METAR KPAE NIL=
200707261000 METAR KPAE NIL=
200707260900 METAR KPAE NIL=
200707260800 METAR KPAE NIL=
200707260700 METAR KPAE NIL=
200707260600 METAR KPAE NIL=
200707260500 METAR KPAE NIL=
200707260400 METAR KPAE NIL=
200707260300 METAR KPAE NIL=
200707260200 METAR KPAE NIL=
200707260100 METAR KPAE NIL=
200707260000 METAR KPAE NIL=
200707252253 METAR KPAE 252253Z 35008KT 310V030 10SM CLR 22/12 A2999 RMK AO2 SLP153 T02170122=
200707252153 METAR KPAE 252153Z 36007KT 10SM CLR 21/12 A3001 RMK AO2 SLP159 T02060117=
200707252053 METAR KPAE 252053Z 35007KT 330V040 10SM CLR 20/12 A3002 RMK AO2 SLP163 T02000117 56010=
200707251953 METAR KPAE 251953Z 36005KT 10SM CLR 21/09 A3003 RMK AO2 SLP167 T02060094=
200707251853 METAR KPAE 251853Z VRB04KT 10SM CLR 19/12 A3004 RMK AO2 SLP170 T01890117=
200707251753 METAR KPAE 251753Z VRB05KT 10SM CLR 18/12 A3005 RMK AO2 SLP173 T01780117 10178 20117 58004=
200707251653 METAR KPAE 251653Z 32005KT 10SM CLR 16/12 A3005 RMK AO2 SLP176 T01610122=
200707251553 METAR KPAE 251553Z 32004KT 10SM SCT006 14/11 A3006 RMK AO2 SLP177 T01440111=
200707251530 SPECI KPAE 251530Z 35004KT 10SM SCT006 14/11 A3006 RMK AO2=
200707251530 SPECI KPAE 251530Z 35004KT 10SM SCT006 14/11 A3006 RMK AO2=
200707251509 SPECI KPAE 251509Z 33003KT 10SM BKN006 13/11 A3006 RMK AO2=
200707251509 SPECI KPAE 251509Z 33003KT 10SM BKN006 13/11 A3006 RMK AO2=
200707251453 METAR KPAE 251453Z 01003KT 10SM SCT006 13/11 A3006 RMK AO2 SLP178 T01330106 53002=
200707251412 SPECI KPAE 251412Z VRB03KT 10SM SCT004 13/11 A3006 RMK AO2=
200707251412 SPECI KPAE 251412Z VRB03KT 10SM SCT004 13/11 A3006 RMK AO2=
200707251353 METAR KPAE 251353Z 35004KT 10SM BKN004 12/11 A3006 RMK AO2 SLP178 T01220106=
200707251253 METAR KPAE 251253Z AUTO 01004KT 10SM OVC004 12/11 A3005 RMK AO2 SLP175 T01220106=
200707251239 SPECI KPAE 251239Z AUTO VRB04KT 10SM BKN004 12/11 A3005 RMK AO2=
200707251239 SPECI KPAE 251239Z AUTO VRB04KT 10SM BKN004 12/11 A3005 RMK AO2=
200707251224 SPECI KPAE 251224Z AUTO 02003KT 10SM SCT004 12/11 A3005 RMK AO2=
200707251224 SPECI KPAE 251224Z AUTO 02003KT 10SM SCT004 12/11 A3005 RMK AO2=
200707251153 METAR KPAE 251153Z AUTO 00000KT 10SM OVC004 12/11 A3005 RMK AO2 SLP176 T01170106 10133 20111 50002=
200707251150 SPECI KPAE 251150Z AUTO 00000KT 10SM OVC004 12/11 A3005 RMK AO2=
200707251150 SPECI KPAE 251150Z AUTO 00000KT 10SM OVC004 12/11 A3005 RMK AO2=
200707251137 SPECI KPAE 251137Z AUTO 35003KT 10SM BKN006 12/10 A3006 RMK AO2=
200707251137 SPECI KPAE 251137Z AUTO 35003KT 10SM BKN006 12/10 A3006 RMK AO2=
200707251128 SPECI KPAE 251128Z AUTO 00000KT 10SM SCT006 12/09 A3005 RMK AO2=
200707251128 SPECI KPAE 251128Z AUTO 00000KT 10SM SCT006 12/09 A3005 RMK AO2=
200707251053 METAR KPAE 251053Z AUTO 00000KT 10SM CLR 12/09 A3005 RMK AO2 SLP175 T01170094=
200707250953 METAR KPAE 250953Z AUTO 00000KT 10SM CLR 12/09 A3005 RMK AO2 SLP174 T01220094=
200707250853 METAR KPAE 250853Z AUTO 06004KT 10SM CLR 13/10 A3006 RMK AO2 SLP177 T01280100 58002=
200707250753 METAR KPAE 250753Z AUTO 36008KT 10SM CLR 13/11 A3006 RMK AO2 SLP177 T01280106 402000117=
200707250653 METAR KPAE 250653Z AUTO 36006KT 10SM CLR 13/11 A3007 RMK AO2 SLP181 T01280106=
200707250553 METAR KPAE 250553Z AUTO 01003KT 10SM CLR 13/11 A3006 RMK AO2 SLP180 T01280106 10200 20122 56003=
200707250453 METAR KPAE 250453Z AUTO 35006KT 10SM CLR 12/10 A3007 RMK AO2 SLP182 T01220100=
200707250353 METAR KPAE 250353Z 36005KT 10SM CLR 14/10 A3006 RMK AO2 SLP179 T01390100=
200707250253 METAR KPAE 250253Z 36006KT 10SM CLR 16/10 A3007 RMK AO2 SLP183 T01610100 56013=
200707250153 METAR KPAE 250153Z 35006KT 10SM CLR 18/09 A3008 RMK AO2 SLP186 T01830094=
200707250053 METAR KPAE 250053Z VRB06KT 10SM CLR 19/10 A3009 RMK AO2 SLP189 T01890100=
200707242353 METAR KPAE 242353Z 34009KT 10SM CLR 19/10 A3011 RMK AO2 SLP194 T01890100 10200 20156 56011=
200707242253 METAR KPAE 242253Z 33011G15KT 10SM CLR 19/11 A3012 RMK AO2 SLP198 T01940106=
200707242153 METAR KPAE 242153Z VRB04KT 10SM CLR 19/11 A3013 RMK AO2 SLP202 T01940106=
200707242053 METAR KPAE 242053Z VRB05KT 10SM CLR 18/10 A3014 RMK AO2 SLP206 T01830100 56008=
200707241953 METAR KPAE 241953Z VRB04KT 10SM CLR 18/09 A3015 RMK AO2 SLP208 T01780094=
200707241853 METAR KPAE 241853Z 36007KT 10SM SCT030 17/09 A3016 RMK AO2 SLP212 T01720094=
200707241808 SPECI KPAE 241808Z VRB05KT 10SM BKN030 16/10 A3016 RMK AO2=
200707241808 SPECI KPAE 241808Z VRB05KT 10SM BKN030 16/10 A3016 RMK AO2=
200707241753 METAR KPAE 241753Z 36007KT 10SM BKN028 16/10 A3017 RMK AO2 SLP215 T01560100 10161 20117 53003=
200707241730 SPECI KPAE 241730Z VRB06G14KT 10SM BKN026 16/09 A3016 RMK AO2=
200707241730 SPECI KPAE 241730Z VRB06G14KT 10SM BKN026 16/09 A3016 RMK AO2=
200707241653 METAR KPAE 241653Z 36007G14KT 10SM FEW026 14/09 A3016 RMK AO2 SLP214 T01440094=
200707241553 METAR KPAE 241553Z 36008KT 10SM CLR 14/09 A3016 RMK AO2 SLP213 T01390094=
200707241453 METAR KPAE 241453Z VRB04KT 10SM SCT060 13/09 A3016 RMK AO2 SLP212 T01280089 52004=
200707241353 METAR KPAE 241353Z AUTO 34004KT 10SM SCT050 12/09 A3016 RMK AO2 SLP211 T01220089=
200707241253 METAR KPAE 241253Z AUTO 34004KT 10SM CLR 12/08 A3015 RMK AO2 SLP209 T01170083=
200707241153 METAR KPAE 241153Z AUTO 36005KT 10SM SCT049 BKN070 12/09 A3015 RMK AO2 SLP208 60000 70007 T01220089 10133 20122 53004=
200707241053 METAR KPAE 241053Z AUTO 01006KT 10SM SCT045 BKN055 OVC070 12/09 A3014 RMK AO2 RAB42E51 SLP204 P0000 T01220089=
200707240953 METAR KPAE 240953Z AUTO 36005KT 10SM OVC049 13/09 A3014 RMK AO2 SLP206 T01280094=
200707240853 METAR KPAE 240853Z AUTO 36008KT 10SM OVC040 13/10 A3013 RMK AO2 SLP203 60000 T01280100 51005=
200707240753 METAR KPAE 240753Z AUTO 36006KT 10SM OVC036 13/10 A3013 RMK AO2 RAE0657 SLP202 P0000 T01330100 401780128=
200707240653 METAR KPAE 240653Z AUTO 01006KT 10SM -RA OVC036 13/10 A3013 RMK AO2 RAB48 SLP201 P0000 T01280100=
200707240553 METAR KPAE 240553Z AUTO 01004KT 10SM OVC032 13/10 A3012 RMK AO2 SLP198 60003 T01330100 10156 20133 53011=
200707240453 METAR KPAE 240453Z AUTO 36006KT 10SM OVC030 13/11 A3011 RMK AO2 SLP195 T01330106=
200707240353 METAR KPAE 240353Z AUTO 36003KT 10SM OVC026 14/12 A3009 RMK AO2 SLP188 T01390117=
200707240253 METAR KPAE 240253Z 02006KT 10SM OVC020 14/12 A3009 RMK AO2 SLP187 60003 T01390122 50001=
200707240153 METAR KPAE 240153Z 35003KT 10SM FEW002 OVC016 14/13 A3009 RMK AO2 RAE51 SLP187 P0002 T01440128=
200707240124 SPECI KPAE 240124Z 33004KT 2 1/2SM -RA BR BKN002 OVC013 14/13 A3009 RMK AO2 CIG 001V007 P0001=
200707240124 SPECI KPAE 240124Z 33004KT 2 1/2SM -RA BR BKN002 OVC013 14/13 A3009 RMK AO2 CIG 001V007 P0001=
200707240053 METAR KPAE 240053Z 34007KT 1 3/4SM -RA BR BKN002 OVC005 14/13 A3009 RMK AO2 RAB11 SLP187 P0001 T01440133=
200707240023 SPECI KPAE 240023Z 35005KT 1 1/2SM -RA BR BKN002 OVC006 15/14 A3008 RMK AO2 RAB11 P0001=
200707240023 SPECI KPAE 240023Z 35005KT 1 1/2SM -RA BR BKN002 OVC006 15/14 A3008 RMK AO2 RAB11 P0001=
200707240013 SPECI KPAE 240013Z 35005KT 2 1/2SM -RA BR BKN002 OVC006 15/14 A3008 RMK AO2 RAB11 CIG 001V005 P0000=
200707240013 SPECI KPAE 240013Z 35005KT 2 1/2SM -RA BR BKN002 OVC006 15/14 A3008 RMK AO2 RAB11 CIG 001V005 P0000=
200707232353 METAR KPAE 232353Z VRB04KT 5SM BR FEW003 OVC009 16/14 A3008 RMK AO2 CIG 006V013 SLP185 60001 T01560139 10178 20156 51000=
200707232331 SPECI KPAE 232331Z 35005KT 10SM FEW004 BKN011 OVC029 16/14 A3008 RMK AO2 CIG 008V012=
200707232331 SPECI KPAE 232331Z 35005KT 10SM FEW004 BKN011 OVC029 16/14 A3008 RMK AO2 CIG 008V012=
200707232314 SPECI KPAE 232314Z 35007KT 10SM FEW004 SCT008 OVC027 16/14 A3007 RMK AO2=
200707232314 SPECI KPAE 232314Z 35007KT 10SM FEW004 SCT008 OVC027 16/14 A3007 RMK AO2=
200707232253 METAR KPAE 232253Z 35006KT 10SM BKN007 OVC027 17/14 A3008 RMK AO2 CIG 005V009 SLP185 T01720144=
200707232243 SPECI KPAE 232243Z 35006KT 10SM OVC005 17/14 A3008 RMK AO2=
200707232243 SPECI KPAE 232243Z 35006KT 10SM OVC005 17/14 A3008 RMK AO2=
200707232153 METAR KPAE 232153Z 34005KT 5SM BR OVC003 16/14 A3008 RMK AO2 SLP185 T01610144=
200707232100 SPECI KPAE 232100Z 36004KT 5SM BR OVC001 17/15 A3008 RMK AO2=
200707232100 SPECI KPAE 232100Z 36004KT 5SM BR OVC001 17/15 A3008 RMK AO2=
200707232053 METAR KPAE 232053Z VRB03KT 2SM BR OVC001 17/15 A3008 RMK AO2 SLP185 60001 T01670150 53001=
200707232023 SPECI KPAE 232023Z 32004KT 2SM BR BKN003 OVC026 17/15 A3008 RMK AO2=
200707232023 SPECI KPAE 232023Z 32004KT 2SM BR BKN003 OVC026 17/15 A3008 RMK AO2=
200707232015 SPECI KPAE 232015Z 29004KT 1/4SM FG BKN003 OVC024 17/16 A3008 RMK AO2=
200707232015 SPECI KPAE 232015Z 29004KT 1/4SM FG BKN003 OVC024 17/16 A3008 RMK AO2=
200707232003 SPECI KPAE 232003Z 28006KT 5SM BR BKN007 BKN023 OVC029 17/16 A3008 RMK AO2=
200707232003 SPECI KPAE 232003Z 28006KT 5SM BR BKN007 BKN023 OVC029 17/16 A3008 RMK AO2=
200707231953 METAR KPAE 231953Z 27005KT 10SM FEW009 BKN016 OVC049 18/16 A3008 RMK AO2 RAB10E39 SLP182 P0000 T01780161=
200707231941 SPECI KPAE 231941Z 26004KT 7SM FEW005 BKN016 OVC049 17/16 A3007 RMK AO2 RAB10E39 P0000=
200707231941 SPECI KPAE 231941Z 26004KT 7SM FEW005 BKN016 OVC049 17/16 A3007 RMK AO2 RAB10E39 P0000=
200707231853 METAR KPAE 231853Z 21004KT 8SM OVC005 17/16 A3008 RMK AO2 RAB1756E31 SLP184 P0001 T01720156=
200707231833 SPECI KPAE 231833Z 25005KT 6SM BR OVC005 17/16 A3008 RMK AO2 RAB1756E31 CIG 002V009 P0001=
200707231833 SPECI KPAE 231833Z 25005KT 6SM BR OVC005 17/16 A3008 RMK AO2 RAB1756E31 CIG 002V009 P0001=
200707231826 SPECI KPAE 231826Z 24006KT 3SM -RA BR BKN003 OVC007 17/16 A3008 RMK AO2 RAB1756 P0001=
200707231826 SPECI KPAE 231826Z 24006KT 3SM -RA BR BKN003 OVC007 17/16 A3008 RMK AO2 RAB1756 P0001=
200707231823 SPECI KPAE 231823Z 25005KT 2 1/2SM -RA BR OVC005 17/16 A3008 RMK AO2 RAB1756 CIG 002V010 P0001=
200707231823 SPECI KPAE 231823Z 25005KT 2 1/2SM -RA BR OVC005 17/16 A3008 RMK AO2 RAB1756 CIG 002V010 P0001=
200707231753 METAR KPAE 231753Z 29005KT 3SM BR BKN005 BKN010 OVC013 17/16 A3007 RMK AO2 SLP182 60003 T01720156 10178 20156 53003=
200707231717 SPECI KPAE 231717Z 24005KT 3SM BR BKN005 BKN010 OVC013 17/16 A3007 RMK AO2=
200707231717 SPECI KPAE 231717Z 24005KT 3SM BR BKN005 BKN010 OVC013 17/16 A3007 RMK AO2=
200707231700 SPECI KPAE 231700Z 27004KT 10SM FEW005 BKN010 OVC013 17/16 A3007 RMK AO2=
200707231700 SPECI KPAE 231700Z 27004KT 10SM FEW005 BKN010 OVC013 17/16 A3007 RMK AO2=
200707231653 METAR KPAE 231653Z 25005KT 3SM BR BKN001 OVC009 17/16 A3007 RMK AO2 SLP181 T01720156=
200707231607 SPECI KPAE 231607Z 28004KT 3SM BR BKN001 OVC009 17/16 A3007 RMK AO2 $=
200707231607 SPECI KPAE 231607Z 28004KT 3SM BR BKN001 OVC009 17/16 A3007 RMK AO2 $=
200707231600 SPECI KPAE 231600Z 27005KT 7SM SCT001 OVC009 17/16 A3007 RMK AO2 CIG 006V012 $=
200707231600 SPECI KPAE 231600Z 27005KT 7SM SCT001 OVC009 17/16 A3007 RMK AO2 CIG 006V012 $=
200707231553 METAR KPAE 231553Z 21006KT 1SM BR BKN001 BKN009 OVC012 17/16 A3007 RMK AO2 RAB12E34 SLP179 P0000 T01670156 $=
200707231520 SPECI KPAE 231520Z 00000KT 1SM -RA BR BKN001 BKN009 OVC012 16/16 A3006 RMK AO2 RAB12 P0000 $=
200707231520 SPECI KPAE 231520Z 00000KT 1SM -RA BR BKN001 BKN009 OVC012 16/16 A3006 RMK AO2 RAB12 P0000 $=
200707231511 SPECI KPAE 231511Z 00000KT 1SM BR BKN003 OVC009 17/16 A3006 RMK AO2 $=
200707231511 SPECI KPAE 231511Z 00000KT 1SM BR BKN003 OVC009 17/16 A3006 RMK AO2 $=
200707231507 SPECI KPAE 231507Z 00000KT 1SM BR BKN001 OVC006 17/16 A3007 RMK AO2 $=
200707231507 SPECI KPAE 231507Z 00000KT 1SM BR BKN001 OVC006 17/16 A3007 RMK AO2 $=
200707231453 METAR KPAE 231453Z 00000KT 1/4SM FG VV001 16/15 A3007 RMK AO2 SLP179 60003 T01610150 51004 $=
200707231353 METAR KPAE 231353Z 00000KT M1/4SM FG VV001 16/15 A3006 RMK AO2 SLP178 T01560150 $=
200707231310 SPECI KPAE 231310Z AUTO 00000KT 1/4SM FG VV001 16/15 A3006 RMK AO2 $=
200707231310 SPECI KPAE 231310Z AUTO 00000KT 1/4SM FG VV001 16/15 A3006 RMK AO2 $=
200707231303 SPECI KPAE 231303Z AUTO 00000KT 1/2SM FG VV001 16/15 A3006 RMK AO2 $=
200707231303 SPECI KPAE 231303Z AUTO 00000KT 1/2SM FG VV001 16/15 A3006 RMK AO2 $=
200707231255 SPECI KPAE 231255Z AUTO 00000KT 1 1/2SM BR OVC002 16/16 A3006 RMK AO2 $=
200707231255 SPECI KPAE 231255Z AUTO 00000KT 1 1/2SM BR OVC002 16/16 A3006 RMK AO2 $=
200707231253 METAR KPAE 231253Z AUTO 00000KT 3SM BR OVC002 17/16 A3006 RMK AO2 SLP177 P0003 T01670156 $=
200707231217 SPECI KPAE 231217Z AUTO 18003KT 6SM BR BKN002 BKN033 OVC044 17/16 A3006 RMK AO2 P0002 $=
200707231217 SPECI KPAE 231217Z AUTO 18003KT 6SM BR BKN002 BKN033 OVC044 17/16 A3006 RMK AO2 P0002 $=
200707231207 SPECI KPAE 231207Z AUTO 16004KT 6SM BR SCT002 BKN033 OVC046 17/16 A3006 RMK AO2 P0001 $=
200707231207 SPECI KPAE 231207Z AUTO 16004KT 6SM BR SCT002 BKN033 OVC046 17/16 A3006 RMK AO2 P0001 $=
200707231153 METAR KPAE 231153Z AUTO 15004KT 5SM BR BKN002 BKN014 OVC030 17/16 A3005 RMK AO2 RAE1054B14E53 SLP174 P0002 60003 70023 T01720161 10178 20161 58002 $=
200707231142 SPECI KPAE 231142Z AUTO 15003KT 3SM -RA BR BKN002 BKN011 OVC016 17/16 A3005 RMK AO2 RAE1054B14 P0002 $=
200707231142 SPECI KPAE 231142Z AUTO 15003KT 3SM -RA BR BKN002 BKN011 OVC016 17/16 A3005 RMK AO2 RAE1054B14 P0002 $=
200707231126 SPECI KPAE 231126Z AUTO 00000KT 2SM -RA BR FEW002 BKN011 OVC016 17/16 A3006 RMK AO2 RAE1054B14 P0001 $=
200707231126 SPECI KPAE 231126Z AUTO 00000KT 2SM -RA BR FEW002 BKN011 OVC016 17/16 A3006 RMK AO2 RAE1054B14 P0001 $=
200707231119 SPECI KPAE 231119Z AUTO 00000KT 2 1/2SM -RA BR FEW002 BKN008 OVC013 17/16 A3006 RMK AO2 RAE1054B14 P0001 $=
200707231119 SPECI KPAE 231119Z AUTO 00000KT 2 1/2SM -RA BR FEW002 BKN008 OVC013 17/16 A3006 RMK AO2 RAE1054B14 P0001 $=
200707231115 SPECI KPAE 231115Z AUTO 00000KT 3SM -RA BR SCT002 SCT006 OVC013 16/16 A3006 RMK AO2 RAE1054B14 P0000 $=
200707231115 SPECI KPAE 231115Z AUTO 00000KT 3SM -RA BR SCT002 SCT006 OVC013 16/16 A3006 RMK AO2 RAE1054B14 P0000 $=
200707231105 SPECI KPAE 231105Z AUTO 00000KT 3SM BR BKN002 BKN006 OVC013 16/15 A3006 RMK AO2 RAE1054 $=
200707231105 SPECI KPAE 231105Z AUTO 00000KT 3SM BR BKN002 BKN006 OVC013 16/15 A3006 RMK AO2 RAE1054 $=
200707231053 METAR KPAE 231053Z AUTO 00000KT 2 1/2SM -RA BR BKN002 OVC013 16/15 A3006 RMK AO2 RAB0959 SLP176 P0001 T01610150 $=
200707231040 SPECI KPAE 231040Z AUTO 00000KT 2SM -RA BR BKN002 OVC013 16/15 A3006 RMK AO2 RAB0959 P0001 $=
200707231040 SPECI KPAE 231040Z AUTO 00000KT 2SM -RA BR BKN002 OVC013 16/15 A3006 RMK AO2 RAB0959 P0001 $=
200707231008 SPECI KPAE 231008Z AUTO 00000KT 1 3/4SM -RA BR OVC002 17/16 A3006 RMK AO2 RAB0959 P0000 $=
200707231008 SPECI KPAE 231008Z AUTO 00000KT 1 3/4SM -RA BR OVC002 17/16 A3006 RMK AO2 RAB0959 P0000 $=
200707230953 METAR KPAE 230953Z AUTO 00000KT 5SM BR BKN004 OVC031 17/16 A3006 RMK AO2 CIG 002V006 SLP176 T01670156 $=
200707230943 SPECI KPAE 230943Z AUTO 28003KT 7SM BKN004 BKN029 OVC043 17/16 A3006 RMK AO2 CIG 002V006 $=
200707230943 SPECI KPAE 230943Z AUTO 28003KT 7SM BKN004 BKN029 OVC043 17/16 A3006 RMK AO2 CIG 002V006 $=
200707230936 SPECI KPAE 230936Z AUTO 00000KT 7SM SCT004 BKN029 OVC043 17/16 A3006 RMK AO2 $=
200707230936 SPECI KPAE 230936Z AUTO 00000KT 7SM SCT004 BKN029 OVC043 17/16 A3006 RMK AO2 $=
200707230853 METAR KPAE 230853Z AUTO 00000KT 10SM OVC039 17/16 A3005 RMK AO2 SLP175 T01720161 57004 $=
200707230753 METAR KPAE 230753Z AUTO 00000KT 10SM FEW017 OVC046 17/16 A3006 RMK AO2 SLP175 T01720161 402110172 $=
200707230653 METAR KPAE 230653Z AUTO 00000KT 10SM SCT046 BKN055 OVC100 17/16 A3006 RMK AO2 SLP178 T01720161 $=
200707230553 METAR KPAE 230553Z AUTO 00000KT 10SM FEW041 OVC049 18/16 A3007 RMK AO2 SLP179 60000 T01780161 10211 20178 58005 $=
200707230453 METAR KPAE 230453Z AUTO 00000KT 10SM BKN045 BKN055 OVC095 18/17 A3008 RMK AO2 RAE41 SLP183 P0000 T01830167 $=
200707230353 METAR KPAE 230353Z 00000KT 10SM -RA OVC050 20/17 A3008 RMK AO2 RAB51 SLP182 P0000 T02000172 $=
200707230253 METAR KPAE 230253Z 13005KT 10SM OVC060 21/17 A3008 RMK AO2 RAB0157E17 SLP184 P0000 60000 T02060172 56009 $=
200707230153 METAR KPAE 230153Z 17004KT 10SM BKN070 OVC085 21/16 A3009 RMK AO2 RAB27E37 SLP186 P0000 T02060161 $=
200707230053 METAR KPAE 230053Z 15007KT 10SM SCT017 OVC090 21/16 A3009 RMK AO2 SLP188 T02060161 $=
200707222353 METAR KPAE 222353Z 16006KT 10SM SCT017 OVC090 21/17 A3011 RMK AO2 SLP193 T02110167 10211 20189 51003 $=
200707222253 METAR KPAE 222253Z 15008KT 10SM FEW044 OVC095 21/16 A3010 RMK AO2 SLP191 T02060161 $=
200707222153 METAR KPAE 222153Z 17009KT 10SM SCT036 SCT045 OVC100 21/16 A3011 RMK AO2 SLP192 T02060161 $=
200707222125 SPECI KPAE 222125Z 16008KT 10SM SCT018 SCT027 OVC036 21/16 A3010 RMK AO2 $=
200707222125 SPECI KPAE 222125Z 16008KT 10SM SCT018 SCT027 OVC036 21/16 A3010 RMK AO2 $=
200707222053 METAR KPAE 222053Z 18009KT 10SM BKN018 BKN023 OVC090 21/16 A3010 RMK AO2 SLP190 T02060161 51004 $=
200707222017 SPECI KPAE 222017Z 16010KT 10SM BKN018 OVC090 21/17 A3009 RMK AO2 $=
200707222017 SPECI KPAE 222017Z 16010KT 10SM BKN018 OVC090 21/17 A3009 RMK AO2 $=
200707221953 METAR KPAE 221953Z 17010KT 10SM FEW016 BKN090 21/17 A3010 RMK AO2 SLP190 T02060167 $=
200707221853 METAR KPAE 221853Z 16011G19KT 10SM FEW014 BKN055 OVC095 19/16 A3009 RMK AO2 SLP187 T01940161 $=
200707221828 SPECI KPAE 221828Z 16012KT 10SM SCT012 OVC055 19/17 A3009 RMK AO2 $=
200707221828 SPECI KPAE 221828Z 16012KT 10SM SCT012 OVC055 19/17 A3009 RMK AO2 $=
200707221753 METAR KPAE 221753Z 18010KT 10SM BKN014 OVC060 19/17 A3009 RMK AO2 SLP186 60020 T01890167 10189 20172 51010 $=
200707221712 SPECI KPAE 221712Z 16012G17KT 10SM FEW008 BKN014 OVC075 19/17 A3008 RMK AO2 $=
200707221712 SPECI KPAE 221712Z 16012G17KT 10SM FEW008 BKN014 OVC075 19/17 A3008 RMK AO2 $=
200707221700 SPECI KPAE 221700Z 17011KT 10SM FEW006 SCT011 OVC070 19/17 A3008 RMK AO2 $=
200707221700 SPECI KPAE 221700Z 17011KT 10SM FEW006 SCT011 OVC070 19/17 A3008 RMK AO2 $=
200707221653 METAR KPAE 221653Z 17010KT 7SM BKN009 BKN013 OVC070 18/17 A3008 RMK AO2 RAE18 SLP183 P0001 T01830167 $=
200707221600 SPECI KPAE 221600Z 15010KT 3SM -RA BR SCT006 BKN009 OVC028 18/17 A3007 RMK AO2 P0000 $=
200707221600 SPECI KPAE 221600Z 15010KT 3SM -RA BR SCT006 BKN009 OVC028 18/17 A3007 RMK AO2 P0000 $=
200707221553 METAR KPAE 221553Z COR 16011KT 3SM -RA BR SCT006 BKN009 OVC028 18/17 A3007 RMK AO2 SLP180 P0001 T01780167 $=
200707221544 SPECI KPAE 221544Z 16010KT 3SM -RA BR BKN004 BKN017 OVC036 18/17 A3007 RMK AO2 P0001 $=
200707221544 SPECI KPAE 221544Z 16010KT 3SM -RA BR BKN004 BKN017 OVC036 18/17 A3007 RMK AO2 P0001 $=
200707221527 SPECI KPAE 221527Z 16009KT 2SM -RA BR BKN004 BKN017 OVC036 18/17 A3007 RMK AO2 P0001 $=
200707221527 SPECI KPAE 221527Z 16009KT 2SM -RA BR BKN004 BKN017 OVC036 18/17 A3007 RMK AO2 P0001 $=
200707221518 SPECI KPAE 221518Z 16010KT 3SM -RA BR BKN004 BKN017 OVC036 18/16 A3006 RMK AO2 P0001 $=
200707221518 SPECI KPAE 221518Z 16010KT 3SM -RA BR BKN004 BKN017 OVC036 18/16 A3006 RMK AO2 P0001 $=
200707221502 SPECI KPAE 221502Z 15010KT 2 1/2SM -RA BR BKN004 BKN017 OVC036 18/16 A3006 RMK AO2 P0000 $=
200707221502 SPECI KPAE 221502Z 15010KT 2 1/2SM -RA BR BKN004 BKN017 OVC036 18/16 A3006 RMK AO2 P0000 $=
200707221455 SPECI KPAE 221455Z 15010KT 2 1/2SM -RA BR FEW004 BKN019 OVC030 17/16 A3006 RMK AO2 P0000 $=
200707221455 SPECI KPAE 221455Z 15010KT 2 1/2SM -RA BR FEW004 BKN019 OVC030 17/16 A3006 RMK AO2 P0000 $=
200707221453 METAR KPAE 221453Z 15009KT 3SM -RA BR BKN004 BKN017 OVC038 18/16 A3006 RMK AO2 SLP175 P0003 60018 T01780161 53018 $=
200707221426 SPECI KPAE 221426Z 15009KT 2SM -RA BR FEW004 BKN009 OVC015 17/16 A3005 RMK AO2 P0003 $=
200707221426 SPECI KPAE 221426Z 15009KT 2SM -RA BR FEW004 BKN009 OVC015 17/16 A3005 RMK AO2 P0003 $=
200707221423 SPECI KPAE 221423Z 15007KT 1 3/4SM -RA BR FEW004 BKN015 OVC020 17/16 A3005 RMK AO2 P0002 $=
200707221423 SPECI KPAE 221423Z 15007KT 1 3/4SM -RA BR FEW004 BKN015 OVC020 17/16 A3005 RMK AO2 P0002 $=
200707221413 SPECI KPAE 221413Z 16008KT 2 1/2SM -RA BR FEW004 BKN015 OVC024 17/16 A3004 RMK AO2 P0002 $=
200707221413 SPECI KPAE 221413Z 16008KT 2 1/2SM -RA BR FEW004 BKN015 OVC024 17/16 A3004 RMK AO2 P0002 $=
200707221353 METAR KPAE 221353Z 16008KT 2 1/2SM -RA BR SCT006 BKN011 OVC020 17/16 A3004 RMK AO2 SLP169 P0008 T01720161 $=
200707221329 SPECI KPAE 221329Z AUTO 15010KT 2 1/2SM -RA BR FEW004 BKN009 OVC021 17/16 A3003 RMK AO2 P0005 $=
200707221329 SPECI KPAE 221329Z AUTO 15010KT 2 1/2SM -RA BR FEW004 BKN009 OVC021 17/16 A3003 RMK AO2 P0005 $=
200707221320 SPECI KPAE 221320Z AUTO 15008KT 3SM -RA BR FEW004 BKN012 OVC023 17/16 A3003 RMK AO2 P0004 $=
200707221320 SPECI KPAE 221320Z AUTO 15008KT 3SM -RA BR FEW004 BKN012 OVC023 17/16 A3003 RMK AO2 P0004 $=
200707221253 METAR KPAE 221253Z AUTO 14008KT 2 1/2SM -RA BR FEW004 BKN016 OVC023 17/16 A3002 RMK AO2 SLP162 P0007 T01720161 $=
200707221246 SPECI KPAE 221246Z AUTO 14009KT 2SM -RA BR SCT004 BKN016 OVC022 17/16 A3001 RMK AO2 P0006 $=
200707221246 SPECI KPAE 221246Z AUTO 14009KT 2SM -RA BR SCT004 BKN016 OVC022 17/16 A3001 RMK AO2 P0006 $=
200707221221 SPECI KPAE 221221Z AUTO 14009KT 2 1/2SM -RA BR FEW006 BKN014 OVC023 17/16 A3001 RMK AO2 P0003 $=
200707221221 SPECI KPAE 221221Z AUTO 14009KT 2 1/2SM -RA BR FEW006 BKN014 OVC023 17/16 A3001 RMK AO2 P0003 $=
200707221153 METAR KPAE 221153Z AUTO 14007KT 4SM -RA BR FEW004 BKN014 OVC022 17/16 A3000 RMK AO2 SLP157 P0007 60023 70028 T01720161 10183 20172 51009 $=
200707221146 SPECI KPAE 221146Z AUTO 15007KT 4SM -RA BR FEW004 BKN014 OVC022 17/16 A3000 RMK AO2 P0007 $=
200707221146 SPECI KPAE 221146Z AUTO 15007KT 4SM -RA BR FEW004 BKN014 OVC022 17/16 A3000 RMK AO2 P0007 $=
200707221116 SPECI KPAE 221116Z AUTO 15008KT 4SM -RA BR FEW008 BKN021 OVC044 17/16 A3000 RMK AO2 P0003 $=
200707221116 SPECI KPAE 221116Z AUTO 15008KT 4SM -RA BR FEW008 BKN021 OVC044 17/16 A3000 RMK AO2 P0003 $=
200707221107 SPECI KPAE 221107Z AUTO 15009KT 2 1/2SM RA BR FEW008 SCT013 OVC019 17/16 A2999 RMK AO2 P0002 $=
200707221107 SPECI KPAE 221107Z AUTO 15009KT 2 1/2SM RA BR FEW008 SCT013 OVC019 17/16 A2999 RMK AO2 P0002 $=
200707221053 METAR KPAE 221053Z AUTO 17009KT 3SM -RA BR FEW006 SCT009 OVC017 17/16 A2999 RMK AO2 SLP155 P0006 T01720161 $=
200707221043 SPECI KPAE 221043Z AUTO 16008KT 2SM -RA BR FEW005 BKN017 OVC022 17/16 A2999 RMK AO2 P0004 $=
200707221043 SPECI KPAE 221043Z AUTO 16008KT 2SM -RA BR FEW005 BKN017 OVC022 17/16 A2999 RMK AO2 P0004 $=
200707221037 SPECI KPAE 221037Z AUTO 16007KT 1 3/4SM RA BR FEW005 BKN013 OVC019 17/16 A3000 RMK AO2 P0004 $=
200707221037 SPECI KPAE 221037Z AUTO 16007KT 1 3/4SM RA BR FEW005 BKN013 OVC019 17/16 A3000 RMK AO2 P0004 $=
200707221032 SPECI KPAE 221032Z AUTO 14008KT 2SM RA BR FEW007 BKN016 OVC022 17/16 A2999 RMK AO2 P0003 $=
200707221032 SPECI KPAE 221032Z AUTO 14008KT 2SM RA BR FEW007 BKN016 OVC022 17/16 A2999 RMK AO2 P0003 $=
200707221018 SPECI KPAE 221018Z AUTO 15009KT 2 1/2SM -RA BR FEW013 BKN026 OVC044 17/16 A2999 RMK AO2 P0002 $=
200707221018 SPECI KPAE 221018Z AUTO 15009KT 2 1/2SM -RA BR FEW013 BKN026 OVC044 17/16 A2999 RMK AO2 P0002 $=
200707221013 SPECI KPAE 221013Z AUTO 15010KT 3SM -RA BR FEW007 SCT015 OVC044 17/16 A2999 RMK AO2 P0002 $=
200707221013 SPECI KPAE 221013Z AUTO 15010KT 3SM -RA BR FEW007 SCT015 OVC044 17/16 A2999 RMK AO2 P0002 $=
200707220953 METAR KPAE 220953Z AUTO 17013KT 3SM -RA BR FEW032 OVC044 17/16 A2999 RMK AO2 SLP152 P0004 T01720156 $=
200707220853 METAR KPAE 220853Z AUTO 16013G21KT 4SM -RA BR OVC040 17/16 A2997 RMK AO2 SLP147 P0003 60006 T01720156 51013 $=
200707220753 METAR KPAE 220753Z AUTO 18019G24KT 5SM -RA FEW017 SCT025 OVC044 18/16 A2997 RMK AO2 SLP144 P0002 T01830156 402220144 $=
200707220653 METAR KPAE 220653Z AUTO 14010KT 9SM -RA FEW035 OVC060 18/16 A2995 RMK AO2 SLP141 P0001 T01830161 $=
200707220553 METAR KPAE 220553Z AUTO 16009KT 10SM -RA FEW038 OVC070 18/16 A2994 RMK AO2 PK WND 15027/0522 SLP134 P0001 60005 T01830161 10217 20183 53007 $=
200707220453 METAR KPAE 220453Z AUTO 15015G21KT 10SM -RA BKN065 OVC080 18/16 A2991 RMK AO2 SLP127 P0002 T01830161 $=
200707220353 METAR KPAE 220353Z 15013KT 10SM -RA SCT070 BKN090 18/16 A2990 RMK AO2 SLP123 P0001 T01830161 $=
200707220253 METAR KPAE 220253Z 17007KT 10SM -RA FEW047 OVC070 19/16 A2991 RMK AO2 SLP127 P0001 60001 T01890161 53003 $=
200707220153 METAR KPAE 220153Z 19008KT 10SM -RA FEW020 BKN080 19/16 A2990 RMK AO2 SLP123 P0000 T01940161 $=
200707220053 METAR KPAE 220053Z 17011G17KT 10SM -RA CLR 21/15 A2989 RMK AO2 SLP119 P0000 T02110150 $=
200707212353 METAR KPAE 212353Z 20013KT 10SM -RA SCT070 BKN095 22/14 A2990 RMK AO2 RAB34 SLP123 P0000 60000 T02170139 10222 20200 58005 $=
200707212253 METAR KPAE 212253Z 17011G17KT 10SM OVC075 22/14 A2991 RMK AO2 SLP127 T02170139 $=
200707212153 METAR KPAE 212153Z 23005KT 10SM SCT040 BKN047 OVC065 22/14 A2992 RMK AO2 SLP129 T02170139 $=
200707212053 METAR KPAE 212053Z 19008KT 10SM SCT037 BKN046 BKN070 22/13 A2992 RMK AO2 SLP128 T02170133 58003 $=
200707211953 METAR KPAE 211953Z 16008KT 10SM BKN030 OVC038 21/13 A2992 RMK AO2 SLP131 T02110133 $=
200707211853 METAR KPAE 211853Z 23007KT 10SM BKN030 20/13 A2993 RMK AO2 SLP134 T02000133 $=
200707211753 METAR KPAE 211753Z 19009KT 10SM SCT028 SCT035 BKN045 21/13 A2993 RMK AO2 SLP131 T02060133 10206 20144 50002 $=
200707211653 METAR KPAE 211653Z 14006KT 10SM BKN034 BKN046 OVC085 19/14 A2993 RMK AO2 SLP135 T01890139 $=
200707211619 SPECI KPAE 211619Z 15004KT 10SM BKN032 BKN038 OVC055 19/14 A2993 RMK AO2 $=
200707211619 SPECI KPAE 211619Z 15004KT 10SM BKN032 BKN038 OVC055 19/14 A2993 RMK AO2 $=
200707211553 METAR KPAE 211553Z 13006KT 10SM BKN027 BKN037 OVC055 18/14 A2993 RMK AO2 SLP133 T01830139 $=
200707211453 METAR KPAE 211453Z 12006KT 10SM OVC032 16/14 A2992 RMK AO2 SLP130 T01610139 51006 $=
200707211353 METAR KPAE 211353Z 14009KT 10SM FEW025 OVC030 16/13 A2992 RMK AO2 SLP129 T01560133 $=
200707211253 METAR KPAE 211253Z AUTO 14009KT 10SM BKN036 BKN045 OVC060 16/13 A2991 RMK AO2 SLP126 T01560128 $=
200707211153 METAR KPAE 211153Z AUTO 11005KT 10SM FEW032 15/13 A2990 RMK AO2 SLP123 60000 7//// T01500128 10161 20150 51003 $=
200707211053 METAR KPAE 211053Z AUTO 13006KT 10SM SCT032 15/13 A2990 RMK AO2 SLP124 T01500128 $=
200707210953 METAR KPAE 210953Z AUTO 15010KT 10SM BKN032 BKN070 16/13 A2990 RMK AO2 SLP123 T01560128 $=
200707210853 METAR KPAE 210853Z AUTO 15009KT 10SM BKN090 16/13 A2989 RMK AO2 SLP120 60000 T01560133 50002 $=
200707210753 METAR KPAE 210753Z AUTO 14007KT 10SM SCT080 OVC100 15/13 A2989 RMK AO2 RAB13E45 SLP121 P0000 T01500133 401830150 $=
200707210720 SPECI KPAE 210720Z AUTO 14009KT 10SM -RA FEW005 BKN085 OVC110 15/14 A2989 RMK AO2 RAB13 P0000 $=
200707210720 SPECI KPAE 210720Z AUTO 14009KT 10SM -RA FEW005 BKN085 OVC110 15/14 A2989 RMK AO2 RAB13 P0000 $=
200707210653 METAR KPAE 210653Z AUTO 16009KT 10SM SCT090 OVC110 15/13 A2989 RMK AO2 RAB23E33 SLP120 P0000 T01500133 $=
200707210628 SPECI KPAE 210628Z AUTO 17011G19KT 10SM -RA FEW007 SCT060 BKN100 15/13 A2989 RMK AO2 RAB23 P0000 $=
200707210628 SPECI KPAE 210628Z AUTO 17011G19KT 10SM -RA FEW007 SCT060 BKN100 15/13 A2989 RMK AO2 RAB23 P0000 $=
200707210553 METAR KPAE 210553Z AUTO 17013KT 10SM BKN090 BKN120 15/13 A2988 RMK AO2 RAB00E39 SLP118 P0001 6//// T01500133 10183 20150 53008 $=
200707210453 METAR KPAE 210453Z AUTO 18014G23KT 10SM OVC090 16/13 A2987 RMK AO2 RAB12E39 SLP115 P0000 T01560128 $=
200707210353 METAR KPAE 210353Z AUTO 16013KT 10SM FEW035 SCT080 OVC100 16/14 A2986 RMK AO2 SLP111 P0001 T01610144 $=
200707210253 METAR KPAE 210253Z 16011KT 10SM FEW018 BKN080 OVC100 16/14 A2986 RMK AO2 RAE09B39E45 SLP110 P0005 6//// T01610144 53004 $=
200707210211 SPECI KPAE 210211Z 16011KT 10SM FEW010 BKN048 OVC070 16/14 A2986 RMK AO2 RAE09 P0001 $=
200707210211 SPECI KPAE 210211Z 16011KT 10SM FEW010 BKN048 OVC070 16/14 A2986 RMK AO2 RAE09 P0001 $=
200707210157 SPECI KPAE 210157Z 17012G20KT 4SM -RA BR BKN008 BKN023 OVC042 16/14 A2986 RMK AO2 P0000 $=
200707210157 SPECI KPAE 210157Z 17012G20KT 4SM -RA BR BKN008 BKN023 OVC042 16/14 A2986 RMK AO2 P0000 $=
200707210153 METAR KPAE 210153Z 18016G20KT 2 1/2SM -RA BR BKN008 BKN023 OVC080 16/14 A2986 RMK AO2 RAB06 SLP110 T01610144 $=
200707210131 SPECI KPAE 210131Z 16016G22KT 2 1/2SM RA BR BKN008 BKN023 OVC080 17/15 A2986 RMK AO2 RAB06 PNO $=
200707210131 SPECI KPAE 210131Z 16016G22KT 2 1/2SM RA BR BKN008 BKN023 OVC080 17/15 A2986 RMK AO2 RAB06 PNO $=
200707210125 SPECI KPAE 210125Z 16010KT 2 1/2SM RA BR BKN009 BKN023 OVC080 17/15 A2986 RMK AO2 RAB06 P0000=
200707210125 SPECI KPAE 210125Z 16010KT 2 1/2SM RA BR BKN009 BKN023 OVC080 17/15 A2986 RMK AO2 RAB06 P0000=
200707210118 SPECI KPAE 210118Z 16009KT 3SM -RA BR FEW008 BKN012 17/14 A2985 RMK AO2 RAB06 P0000=
200707210118 SPECI KPAE 210118Z 16009KT 3SM -RA BR FEW008 BKN012 17/14 A2985 RMK AO2 RAB06 P0000=
200707210053 METAR KPAE 210053Z 14008KT 10SM FEW020 BKN041 18/14 A2985 RMK AO2 SLP105 T01780139=
200707210002 SPECI KPAE 210002Z 16009KT 10SM FEW011 SCT024 BKN035 17/14 A2985 RMK AO2=
200707210002 SPECI KPAE 210002Z 16009KT 10SM FEW011 SCT024 BKN035 17/14 A2985 RMK AO2=
200707202353 METAR KPAE 202353Z 16011KT 10SM SCT014 SCT020 BKN025 17/14 A2985 RMK AO2 SLP105 60028 T01720139 10172 20156 58001=
200707202326 SPECI KPAE 202326Z 15009KT 10SM FEW010 BKN016 BKN020 17/14 A2985 RMK AO2=
200707202326 SPECI KPAE 202326Z 15009KT 10SM FEW010 BKN016 BKN020 17/14 A2985 RMK AO2=
200707202318 SPECI KPAE 202318Z 17008KT 10SM BKN013 BKN023 BKN030 17/14 A2985 RMK AO2=
200707202318 SPECI KPAE 202318Z 17008KT 10SM BKN013 BKN023 BKN030 17/14 A2985 RMK AO2=
200707202253 METAR KPAE 202253Z 15010KT 10SM FEW012 17/14 A2985 RMK AO2 RAE06B22E50 SLP106 P0002 T01670144=
200707202153 METAR KPAE 202153Z 16009KT 10SM -RA FEW007 OVC065 16/14 A2985 RMK AO2 SLP106 P0004 T01610139=
200707202148 SPECI KPAE 202148Z 17009KT 10SM -RA FEW007 OVC060 16/14 A2985 RMK AO2 P0004=
200707202148 SPECI KPAE 202148Z 17009KT 10SM -RA FEW007 OVC060 16/14 A2985 RMK AO2 P0004=
200707202053 METAR KPAE 202053Z 16008KT 6SM RA BR BKN032 OVC044 16/13 A2985 RMK AO2 SLP107 P0005 60022 T01560133 50004=
200707202049 SPECI KPAE 202049Z 17009KT 7SM -RA BKN030 BKN040 OVC047 16/13 A2985 RMK AO2 P0005=
200707202049 SPECI KPAE 202049Z 17009KT 7SM -RA BKN030 BKN040 OVC047 16/13 A2985 RMK AO2 P0005=
200707202024 SPECI KPAE 202024Z 18007KT 6SM -RA FEW012 BKN028 OVC044 16/13 A2985 RMK AO2 P0003=
200707202024 SPECI KPAE 202024Z 18007KT 6SM -RA FEW012 BKN028 OVC044 16/13 A2985 RMK AO2 P0003=
200707201953 METAR KPAE 201953Z 20009KT 5SM -RA BR BKN009 BKN031 OVC060 16/14 A2985 RMK AO2 SLP107 P0009 T01610139=
200707201903 SPECI KPAE 201903Z 17007KT 4SM RA BR BKN009 BKN031 OVC060 16/14 A2984 RMK AO2 P0002=
200707201903 SPECI KPAE 201903Z 17007KT 4SM RA BR BKN009 BKN031 OVC060 16/14 A2984 RMK AO2 P0002=
200707201853 METAR KPAE 201853Z 17008KT 4SM -RA BR FEW029 SCT050 OVC060 16/14 A2984 RMK AO2 SLP103 P0008 T01610139=
200707201753 METAR KPAE 201753Z 14006KT 7SM -RA FEW004 BKN031 OVC060 16/13 A2983 RMK AO2 SLP099 P0001 60004 T01610133 10167 20156 50001=
200707201653 METAR KPAE 201653Z 15005KT 10SM -RA FEW034 SCT049 OVC060 16/14 A2983 RMK AO2 SLP099 P0003 T01610139=
200707201553 METAR KPAE 201553Z 19005KT 10SM -RA SCT060 OVC075 16/13 A2984 RMK AO2 RAB27 SLP100 P0000 T01610133=
200707201453 METAR KPAE 201453Z 13004KT 10SM CLR 16/12 A2982 RMK AO2 SLP097 T01610117 56012=
200707201353 METAR KPAE 201353Z 13003KT 10SM SCT120 16/12 A2983 RMK AO2 SLP098 T01610122=
200707201253 METAR KPAE 201253Z AUTO 14003KT 10SM FEW065 16/12 A2985 RMK AO2 SLP104 T01560122=
200707201153 METAR KPAE 201153Z AUTO 12004KT 10SM BKN100 16/13 A2986 RMK AO2 SLP109 T01560128 10183 20156 56010=
200707201053 METAR KPAE 201053Z AUTO 14005KT 10SM CLR 16/13 A2986 RMK AO2 SLP111 T01610128=
200707200953 METAR KPAE 200953Z AUTO 16005KT 10SM CLR 16/12 A2988 RMK AO2 SLP114 T01610122=
200707200853 METAR KPAE 200853Z AUTO 13005KT 10SM CLR 17/12 A2989 RMK AO2 SLP119 T01670117 56010=
200707200753 METAR KPAE 200753Z AUTO 12005KT 10SM CLR 17/11 A2989 RMK AO2 SLP119 T01670106 402220144=
200707200653 METAR KPAE 200653Z AUTO 16005KT 10SM BKN095 17/11 A2991 RMK AO2 SLP125 T01720111=
200707200553 METAR KPAE 200553Z AUTO 21006KT 10SM SCT100 18/12 A2992 RMK AO2 SLP129 T01780117 10222 20178 58005=
200707200453 METAR KPAE 200453Z AUTO 19007KT 10SM OVC100 20/12 A2993 RMK AO2 SLP134 T02000122=
200707200353 METAR KPAE 200353Z AUTO 21004KT 10SM SCT100 19/12 A2993 RMK AO2 SLP133 T01890117=
200707200253 METAR KPAE 200253Z 22006KT 10SM CLR 20/12 A2994 RMK AO2 SLP135 T02000122 56004=
200707200153 METAR KPAE 200153Z 17008KT 10SM FEW050 21/11 A2994 RMK AO2 SLP135 T02110111=
200707200053 METAR KPAE 200053Z 21006KT 10SM FEW039 SCT110 21/13 A2994 RMK AO2 SLP137 T02060128=
200707192353 METAR KPAE 192353Z AUTO 21012KT 10SM SCT110 22/11 A2995 RMK AO2 SLP139 60000 T02220106 10222 20189 50001 TSNO=
200707192253 METAR KPAE 192253Z AUTO 19013G20KT 10SM BKN090 21/11 A2996 RMK AO2 RAB30E51 SLP142 P0000 T02060111 TSNO=
200707192153 METAR KPAE 192153Z 19013KT 10SM BKN090 21/11 A2995 RMK AO2 SLP139 T02060111=
200707192053 METAR KPAE 192053Z 19014G17KT 10SM BKN039 BKN048 BKN090 21/11 A2994 RMK AO2 SLP138 T02110111 53001=
200707191953 METAR KPAE 191953Z 19011G18KT 10SM BKN035 BKN044 21/11 A2994 RMK AO2 SLP135 T02110111=
200707191853 METAR KPAE 191853Z 20015KT 10SM FEW033 SCT040 BKN049 20/11 A2994 RMK AO2 SLP138 T02000111=
200707191753 METAR KPAE 191753Z 19012KT 10SM SCT028 BKN047 20/11 A2994 RMK AO2 SLP137 T02000111 10200 20144 50000=
200707191744 SPECI KPAE 191744Z 17011KT 10SM BKN025 BKN032 BKN044 20/12 A2994 RMK AO2=
200707191744 SPECI KPAE 191744Z 17011KT 10SM BKN025 BKN032 BKN044 20/12 A2994 RMK AO2=
200707191733 SPECI KPAE 191733Z 18011G16KT 10SM SCT023 SCT029 19/12 A2994 RMK AO2=
200707191733 SPECI KPAE 191733Z 18011G16KT 10SM SCT023 SCT029 19/12 A2994 RMK AO2=
200707191725 SPECI KPAE 191725Z 18010KT 10SM BKN023 18/12 A2995 RMK AO2=
200707191725 SPECI KPAE 191725Z 18010KT 10SM BKN023 18/12 A2995 RMK AO2=
200707191653 METAR KPAE 191653Z 19010KT 10SM SCT021 BKN034 18/12 A2994 RMK AO2 SLP139 T01780117=
200707191553 METAR KPAE 191553Z 18008KT 10SM FEW019 BKN030 17/13 A2994 RMK AO2 SLP137 T01670128=
200707191453 METAR KPAE 191453Z 16008KT 10SM CLR 16/12 A2993 RMK AO2 SLP133 T01610122 52005=
200707191353 METAR KPAE 191353Z 15008KT 10SM FEW015 SCT050 BKN150 15/12 A2992 RMK AO2 SLP131 T01500122=
200707191253 METAR KPAE 191253Z 15007KT 10SM FEW090 14/12 A2992 RMK AO2 SLP130 T01440122=
200707191153 METAR KPAE 191153Z 16006KT 10SM FEW090 14/12 A2991 RMK AO2 SLP128 60000 70031 T01440122 10172 20144 51002=
200707191053 METAR KPAE 191053Z 20009KT 10SM BKN085 14/12 A2991 RMK AO2 SLP127 T01440117=
200707190953 METAR KPAE 190953Z 19011KT 10SM BKN075 BKN100 15/12 A2991 RMK AO2 SLP128 T01500122=
200707190853 METAR KPAE 190853Z 19009KT 10SM BKN038 OVC070 15/13 A2991 RMK AO2 SLP126 60000 T01500128 55001=
200707190753 METAR KPAE 190753Z 18010KT 10SM OVC070 16/13 A2990 RMK AO2 SLP123 T01560133 401890139=
200707190718 SPECI KPAE 190718Z 20011KT 10SM SCT010 BKN031 OVC070 16/13 A2991 RMK AO2=
200707190718 SPECI KPAE 190718Z 20011KT 10SM SCT010 BKN031 OVC070 16/13 A2991 RMK AO2=
200707190706 SPECI KPAE 190706Z 20008KT 10SM BKN010 OVC070 16/14 A2991 RMK AO2 CIG 008V013=
200707190706 SPECI KPAE 190706Z 20008KT 10SM BKN010 OVC070 16/14 A2991 RMK AO2 CIG 008V013=
200707190653 METAR KPAE 190653Z 19009KT 10SM OVC008 17/14 A2991 RMK AO2 RAB37E46 SLP126 P0000 T01670139=
200707190553 METAR KPAE 190553Z 16007KT 10SM BKN012 OVC017 17/14 A2991 RMK AO2 SLP127 T01720144 10189 20167 51009=
200707190540 SPECI KPAE 190540Z 18006KT 10SM BKN012 BKN019 OVC025 17/14 A2991 RMK AO2=
200707190540 SPECI KPAE 190540Z 18006KT 10SM BKN012 BKN019 OVC025 17/14 A2991 RMK AO2=
200707190512 SPECI KPAE 190512Z 19007KT 10SM SCT012 BKN025 OVC041 17/14 A2990 RMK AO2=
200707190512 SPECI KPAE 190512Z 19007KT 10SM SCT012 BKN025 OVC041 17/14 A2990 RMK AO2=
200707190453 METAR KPAE 190453Z 17008KT 10SM BKN012 OVC017 17/14 A2990 RMK AO2 SLP125 T01670144=
200707190353 METAR KPAE 190353Z 17009KT 10SM BKN014 OVC110 17/14 A2990 RMK AO2 SLP125 T01720144=
200707190253 METAR KPAE 190253Z 18010KT 10SM BKN080 BKN110 18/14 A2988 RMK AO2 SLP118 T01780144 53007=
200707190153 METAR KPAE 190153Z 19012KT 10SM SCT016 BKN110 18/14 A2987 RMK AO2 SLP114 T01780144=
200707190121 SPECI KPAE 190121Z 17010KT 10SM SCT014 BKN022 BKN041 18/15 A2987 RMK AO2=
200707190121 SPECI KPAE 190121Z 17010KT 10SM SCT014 BKN022 BKN041 18/15 A2987 RMK AO2=
200707190053 METAR KPAE 190053Z 19013KT 10SM SCT008 BKN014 OVC020 18/15 A2987 RMK AO2 SLP114 T01830150=
200707182353 METAR KPAE 182353Z 18011G17KT 9SM BKN008 BKN013 OVC020 18/15 A2986 RMK AO2 RAE04 CIG 006V012 SLP111 P0000 60020 T01780150 10178 20150 53013=
200707182253 METAR KPAE 182253Z 23004KT 3SM -RA BR FEW001 OVC009 16/16 A2985 RMK AO2 CIG 005V012 SLP105 P0002 T01610156=
200707182214 SPECI KPAE 182214Z 16006KT 3SM -RA BR BKN005 OVC011 16/15 A2983 RMK AO2 CIG 001V008 P0002=
200707182214 SPECI KPAE 182214Z 16006KT 3SM -RA BR BKN005 OVC011 16/15 A2983 RMK AO2 CIG 001V008 P0002=
200707182200 SPECI KPAE 182200Z 17005KT 3SM -RA BR OVC003 16/15 A2984 RMK AO2 CIG 001V008 P0001=
200707182200 SPECI KPAE 182200Z 17005KT 3SM -RA BR OVC003 16/15 A2984 RMK AO2 CIG 001V008 P0001=
200707182153 METAR KPAE 182153Z VRB04KT 2 1/2SM -RA BR OVC003 16/15 A2984 RMK AO2 CIG 001V008 SLP102 P0012 T01610150=
200707182140 SPECI KPAE 182140Z 24004KT 2 1/2SM RA BR OVC003 16/14 A2984 RMK AO2 CIG 002V008 P0010=
200707182140 SPECI KPAE 182140Z 24004KT 2 1/2SM RA BR OVC003 16/14 A2984 RMK AO2 CIG 002V008 P0010=
200707182053 METAR KPAE 182053Z 00000KT 2 1/2SM RA BR BKN005 OVC035 16/14 A2983 RMK AO2 SLP099 P0004 60006 T01610139 55000=
200707182023 SPECI KPAE 182023Z 00000KT 4SM -RA BR BKN005 OVC034 16/14 A2982 RMK AO2 P0002=
200707182023 SPECI KPAE 182023Z 00000KT 4SM -RA BR BKN005 OVC034 16/14 A2982 RMK AO2 P0002=
200707182011 SPECI KPAE 182011Z 00000KT 3SM -RA BR BKN003 BKN029 OVC037 16/14 A2983 RMK AO2 P0001=
200707182011 SPECI KPAE 182011Z 00000KT 3SM -RA BR BKN003 BKN029 OVC037 16/14 A2983 RMK AO2 P0001=
200707181953 METAR KPAE 181953Z 00000KT 2 1/2SM -RA BR BKN003 OVC027 16/14 A2982 RMK AO2 SLP097 P0001 T01560144=
200707181951 SPECI KPAE 181951Z 00000KT 2 1/2SM -RA BR BKN003 OVC030 16/14 A2982 RMK AO2 P0001=
200707181951 SPECI KPAE 181951Z 00000KT 2 1/2SM -RA BR BKN003 OVC030 16/14 A2982 RMK AO2 P0001=
200707181938 SPECI KPAE 181938Z 06003KT 3SM -RA BR BKN003 OVC029 16/14 A2982 RMK AO2 P0000=
200707181938 SPECI KPAE 181938Z 06003KT 3SM -RA BR BKN003 OVC029 16/14 A2982 RMK AO2 P0000=
200707181928 SPECI KPAE 181928Z 00000KT 2 1/2SM -RA BR BKN003 BKN029 OVC055 15/14 A2982 RMK AO2 P0000=
200707181928 SPECI KPAE 181928Z 00000KT 2 1/2SM -RA BR BKN003 BKN029 OVC055 15/14 A2982 RMK AO2 P0000=
200707181920 SPECI KPAE 181920Z 36003KT 2SM -RA BR SCT003 BKN031 OVC055 15/14 A2982 RMK AO2 P0000=
200707181920 SPECI KPAE 181920Z 36003KT 2SM -RA BR SCT003 BKN031 OVC055 15/14 A2982 RMK AO2 P0000=
200707181913 SPECI KPAE 181913Z 00000KT 2SM RA BR BKN003 BKN008 OVC029 15/14 A2982 RMK AO2 P0000=
200707181913 SPECI KPAE 181913Z 00000KT 2SM RA BR BKN003 BKN008 OVC029 15/14 A2982 RMK AO2 P0000=
200707181853 METAR KPAE 181853Z 00000KT 4SM -RA BR BKN003 OVC008 15/14 A2983 RMK AO2 SLP099 P0001 T01500139=
200707181753 METAR KPAE 181753Z 36003KT 4SM -RA BR BKN003 OVC080 15/14 A2982 RMK AO2 SLP096 P0001 60011 T01500139 10156 20139 55008=
200707181731 SPECI KPAE 181731Z 00000KT 4SM -RA BR BKN003 OVC080 15/14 A2982 RMK AO2 P0001=
200707181731 SPECI KPAE 181731Z 00000KT 4SM -RA BR BKN003 OVC080 15/14 A2982 RMK AO2 P0001=
200707181724 SPECI KPAE 181724Z 00000KT 4SM -RA BR FEW003 OVC080 14/13 A2982 RMK AO2 P0001=
200707181724 SPECI KPAE 181724Z 00000KT 4SM -RA BR FEW003 OVC080 14/13 A2982 RMK AO2 P0001=
200707181653 METAR KPAE 181653Z 33003KT 5SM -RA BR OVC003 14/13 A2981 RMK AO2 CIG 001V006 SLP095 P0003 T01440133=
200707181636 SPECI KPAE 181636Z 36004KT 8SM -RA BKN003 BKN019 OVC095 15/13 A2982 RMK AO2 P0003=
200707181636 SPECI KPAE 181636Z 36004KT 8SM -RA BKN003 BKN019 OVC095 15/13 A2982 RMK AO2 P0003=
200707181600 SPECI KPAE 181600Z 35003KT 6SM -RA BR FEW003 BKN100 15/13 A2982 RMK AO2 P0000=
200707181600 SPECI KPAE 181600Z 35003KT 6SM -RA BR FEW003 BKN100 15/13 A2982 RMK AO2 P0000=
200707181553 METAR KPAE 181553Z 33004KT 5SM -RA BR BKN004 BKN011 OVC028 15/13 A2982 RMK AO2 RAB1454 SLP097 P0002 T01500133=
200707181453 METAR KPAE 181453Z 00000KT 9SM BKN004 OVC110 14/13 A2984 RMK AO2 RAE45 SLP104 P0001 60005 T01440133 55001=
200707181353 METAR KPAE 181353Z 00000KT 8SM -RA SCT002 BKN034 OVC050 14/13 A2983 RMK AO2 SLP099 P0001 T01390128=
200707181321 SPECI KPAE 181321Z 34004KT 7SM -RA SCT002 BKN043 OVC110 14/13 A2983 RMK AO2 P0001=
200707181321 SPECI KPAE 181321Z 34004KT 7SM -RA SCT002 BKN043 OVC110 14/13 A2983 RMK AO2 P0001=
200707181253 METAR KPAE 181253Z 34004KT 10SM -RA BKN060 OVC110 14/13 A2983 RMK AO2 RAB05 SLP101 P0003 T01440128=
200707181153 METAR KPAE 181153Z AUTO 00000KT 10SM BKN095 BKN110 16/13 A2984 RMK AO2 SLP104 70004 T01560128 10167 20150 58015=
200707181053 METAR KPAE 181053Z AUTO 00000KT 10SM CLR 15/13 A2986 RMK AO2 SLP110 T01500128=
200707180953 METAR KPAE 180953Z AUTO 02003KT 10SM CLR 15/13 A2987 RMK AO2 SLP115 T01500128=
200707180853 METAR KPAE 180853Z AUTO 35003KT 10SM CLR 15/13 A2989 RMK AO2 SLP120 T01500128 58006=
200707180753 METAR KPAE 180753Z AUTO 01003KT 10SM CLR 16/13 A2990 RMK AO2 SLP125 T01610128 402060144=
200707180712 SPECI KPAE 180712Z AUTO 00000KT 10SM BKN031 17/13 A2991 RMK AO2=
200707180712 SPECI KPAE 180712Z AUTO 00000KT 10SM BKN031 17/13 A2991 RMK AO2=
200707180653 METAR KPAE 180653Z AUTO 30003KT 10SM OVC029 17/13 A2992 RMK AO2 SLP129 T01670133=
200707180626 SPECI KPAE 180626Z AUTO 00000KT 10SM BKN029 16/14 A2991 RMK AO2=
200707180626 SPECI KPAE 180626Z AUTO 00000KT 10SM BKN029 16/14 A2991 RMK AO2=
200707180553 METAR KPAE 180553Z AUTO VRB03KT 10SM CLR 17/14 A2991 RMK AO2 SLP127 T01670139 10206 20167 50001=
200707180510 SPECI KPAE 180510Z AUTO 35003KT 10SM SCT025 17/14 A2991 RMK AO2=
200707180510 SPECI KPAE 180510Z AUTO 35003KT 10SM SCT025 17/14 A2991 RMK AO2=
200707180453 METAR KPAE 180453Z AUTO 36003KT 10SM OVC025 17/14 A2991 RMK AO2 SLP127 T01720139=
200707180400 SPECI KPAE 180400Z AUTO 00000KT 10SM BKN023 BKN028 17/14 A2991 RMK AO2=
200707180400 SPECI KPAE 180400Z AUTO 00000KT 10SM BKN023 BKN028 17/14 A2991 RMK AO2=
200707180353 METAR KPAE 180353Z 00000KT 10SM SCT028 BKN110 17/14 A2991 RMK AO2 SLP128 T01720139=
200707180253 METAR KPAE 180253Z 35003KT 10SM SCT028 BKN110 18/14 A2991 RMK AO2 SLP126 T01830144 53001=
200707180153 METAR KPAE 180153Z VRB03KT 10SM BKN100 19/14 A2990 RMK AO2 SLP124 T01890144=
200707180053 METAR KPAE 180053Z 27004KT 10SM CLR 19/14 A2991 RMK AO2 SLP126 T01890144=
200707172353 METAR KPAE 172353Z 28004KT 10SM FEW026 19/14 A2990 RMK AO2 SLP125 60000 T01940139 10194 20161 58002=
200707172348 SPECI KPAE 172348Z 29004KT 10SM FEW026 19/14 A2991 RMK AO2=
200707172348 SPECI KPAE 172348Z 29004KT 10SM FEW026 19/14 A2991 RMK AO2=
200707172253 METAR KPAE 172253Z 28006KT 9SM BKN022 BKN026 OVC100 18/14 A2991 RMK AO2 RAB31E49 SLP128 P0000 T01830139=
200707172246 SPECI KPAE 172246Z 26008KT 10SM -RA BKN022 OVC100 18/14 A2992 RMK AO2 RAB31 P0000=
200707172246 SPECI KPAE 172246Z 26008KT 10SM -RA BKN022 OVC100 18/14 A2992 RMK AO2 RAB31 P0000=
200707172153 METAR KPAE 172153Z 29003KT 10SM BKN110 18/14 A2991 RMK AO2 RAB31E44 SLP127 P0000 T01780139=
200707172053 METAR KPAE 172053Z 28004KT 10SM SCT024 BKN100 OVC200 17/13 A2992 RMK AO2 SLP130 T01720133 56001=
200707172051 SPECI KPAE 172051Z 28004KT 10SM SCT024 BKN100 OVC200 17/14 A2992 RMK AO2=
200707172051 SPECI KPAE 172051Z 28004KT 10SM SCT024 BKN100 OVC200 17/14 A2992 RMK AO2=
200707171953 METAR KPAE 171953Z 31004KT 10SM SCT110 18/14 A2992 RMK AO2 SLP129 T01780139=
200707171853 METAR KPAE 171853Z 27004KT 10SM SCT110 18/14 A2992 RMK AO2 SLP131 T01780139=
200707171753 METAR KPAE 171753Z 26003KT 10SM FEW012 BKN110 16/14 A2991 RMK AO2 SLP129 60004 T01610139 10167 20144 51002=
200707171653 METAR KPAE 171653Z 00000KT 10SM BKN120 16/13 A2991 RMK AO2 SLP127 T01610133=
200707171641 SPECI KPAE 171641Z 34003KT 10SM FEW008 BKN110 16/14 A2991 RMK AO2=
200707171641 SPECI KPAE 171641Z 34003KT 10SM FEW008 BKN110 16/14 A2991 RMK AO2=
200707171553 METAR KPAE 171553Z 00000KT 10SM FEW080 BKN110 16/13 A2992 RMK AO2 SLP129 T01560133=
200707171453 METAR KPAE 171453Z 00000KT 10SM BKN120 16/13 A2991 RMK AO2 SLP126 60004 T01560128 53007=
200707171353 METAR KPAE 171353Z AUTO 01003KT 10SM OVC110 15/12 A2990 RMK AO2 SLP123 T01500122=
200707171253 METAR KPAE 171253Z AUTO 34003KT 10SM OVC110 15/12 A2989 RMK AO2 RAE38 SLP120 P0004 T01500122=
200707171153 METAR KPAE 171153Z AUTO 00000KT 6SM -RA BR BKN055 OVC110 14/13 A2989 RMK AO2 SLP118 P0005 60005 70005 T01440128 10167 20144 56002=
200707171053 METAR KPAE 171053Z AUTO 00000KT 10SM -RA BKN090 OVC110 16/11 A2989 RMK AO2 RAB11 SLP120 P0000 T01610111=
200707170953 METAR KPAE 170953Z AUTO 02004KT 10SM FEW110 16/11 A2988 RMK AO2 SLP116 T01610111=
200707170853 METAR KPAE 170853Z AUTO 36004KT 10SM FEW110 16/11 A2989 RMK AO2 SLP121 T01560106 50000=
200707170753 METAR KPAE 170753Z AUTO 35003KT 10SM CLR 16/11 A2990 RMK AO2 SLP122 T01560106 402440144=
200707170653 METAR KPAE 170653Z AUTO 01004KT 10SM CLR 16/11 A2989 RMK AO2 SLP120 T01560106=
200707170553 METAR KPAE 170553Z AUTO VRB03KT 10SM CLR 16/11 A2989 RMK AO2 SLP121 T01560106 10228 20156 56001=
200707170453 METAR KPAE 170453Z AUTO 02005KT 10SM CLR 17/12 A2989 RMK AO2 SLP121 T01670117=
200707170353 METAR KPAE 170353Z AUTO 35003KT 10SM CLR 17/11 A2989 RMK AO2 SLP120 T01720111 TSNO=
200707170253 METAR KPAE 170253Z AUTO VRB04KT 10SM CLR 19/12 A2990 RMK AO2 SLP122 T01940122 55006=
200707170153 METAR KPAE 170153Z 35004KT 10SM BKN060 21/12 A2990 RMK AO2 SLP121 T02060122=
200707170053 METAR KPAE 170053Z 36006KT 10SM CLR 21/12 A2990 RMK AO2 SLP124 T02110122=
200707162353 METAR KPAE 162353Z 34004KT 10SM CLR 23/12 A2991 RMK AO2 SLP128 T02280117 10244 20200 56008=
200707162253 METAR KPAE 162253Z 35003KT 10SM CLR 22/12 A2992 RMK AO2 SLP130 T02170117=
200707162153 METAR KPAE 162153Z VRB04KT 10SM CLR 23/12 A2993 RMK AO2 SLP132 T02330117=
200707162053 METAR KPAE 162053Z VRB05KT 10SM CLR 23/12 A2994 RMK AO2 SLP136 T02280117 56012=
200707161953 METAR KPAE 161953Z 28007KT 10SM CLR 22/11 A2995 RMK AO2 SLP140 T02170111=
200707161853 METAR KPAE 161853Z 34004KT 10SM CLR 21/11 A2996 RMK AO2 SLP144 T02110106=
200707161753 METAR KPAE 161753Z 05005KT 10SM CLR 20/11 A2998 RMK AO2 SLP149 T02000106 10206 20144 58007=
200707161653 METAR KPAE 161653Z 02003KT 10SM SCT047 19/11 A2999 RMK AO2 SLP154 T01890111=
200707161553 METAR KPAE 161553Z VRB03KT 10SM BKN038 OVC046 17/11 A3000 RMK AO2 SLP156 T01720111=
200707161453 METAR KPAE 161453Z 01003KT 10SM CLR 17/11 A3000 RMK AO2 SLP156 T01670106 53007=
200707161353 METAR KPAE 161353Z AUTO 01003KT 10SM SCT060 16/11 A2999 RMK AO2 SLP152 T01560106=
200707161253 METAR KPAE 161253Z AUTO 00000KT 10SM FEW048 14/11 A2998 RMK AO2 SLP149 T01440106=
200707161153 METAR KPAE 161153Z AUTO 36003KT 10SM BKN048 BKN060 14/11 A2998 RMK AO2 SLP148 T01440106 10156 20144 56007=
200707161053 METAR KPAE 161053Z AUTO 00000KT 10SM FEW044 14/11 A2998 RMK AO2 SLP148 T01440106=
200707160953 METAR KPAE 160953Z AUTO 36003KT 10SM CLR 14/11 A2998 RMK AO2 SLP150 T01440106=
200707160853 METAR KPAE 160853Z AUTO 35004KT 10SM SCT045 SCT050 15/11 A3000 RMK AO2 SLP156 T01500106 50002=
200707160753 METAR KPAE 160753Z AUTO 35003KT 10SM SCT047 OVC060 16/11 A3000 RMK AO2 SLP157 T01560106 402560150=
200707160653 METAR KPAE 160653Z AUTO 02004KT 10SM OVC060 16/11 A3000 RMK AO2 SLP157 T01560106=
200707160553 METAR KPAE 160553Z AUTO 35003KT 10SM CLR 15/11 A2999 RMK AO2 SLP153 T01500111 10250 20150 58001=
200707160453 METAR KPAE 160453Z AUTO VRB03KT 10SM CLR 16/12 A3000 RMK AO2 SLP156 T01560117=
200707160353 METAR KPAE 160353Z VRB03KT 10SM SCT060 18/12 A2999 RMK AO2 SLP154 T01830122=
200707160253 METAR KPAE 160253Z 36004KT 10SM CLR 20/13 A2999 RMK AO2 SLP155 T02000128 56003=
200707160153 METAR KPAE 160153Z 36004KT 10SM FEW070 21/13 A2999 RMK AO2 SLP155 T02060133=
200707160053 METAR KPAE 160053Z 35005KT 10SM BKN065 22/13 A3000 RMK AO2 SLP155 T02170133=
200707152353 METAR KPAE 152353Z 22006KT 10SM CLR 24/13 A3000 RMK AO2 SLP157 T02440133 10256 20222 58004=
200707152253 METAR KPAE 152253Z 19013G17KT 10SM SCT055 BKN070 26/13 A3001 RMK AO2 SLP159 T02560128=
200707152153 METAR KPAE 152153Z 23008KT 10SM OVC060 24/13 A3002 RMK AO2 SLP162 T02440133=
200707152053 METAR KPAE 152053Z 23009KT 10SM BKN037 BKN046 OVC060 24/14 A3002 RMK AO2 SLP162 T02390139 50000=
200707151953 METAR KPAE 151953Z 21011KT 10SM BKN036 BKN070 24/13 A3002 RMK AO2 SLP161 T02390133=
200707151853 METAR KPAE 151853Z 17008KT 10SM OVC060 23/13 A3002 RMK AO2 SLP163 T02280133=
200707151753 METAR KPAE 151753Z 21012KT 10SM SCT050 OVC080 23/13 A3002 RMK AO2 SLP161 T02330133 10233 20172 50006=
200707151653 METAR KPAE 151653Z 20012KT 10SM OVC048 22/14 A3002 RMK AO2 SLP162 T02170139=
200707151553 METAR KPAE 151553Z 17012KT 10SM OVC048 19/13 A3001 RMK AO2 SLP160 T01940128=
200707151453 METAR KPAE 151453Z 16014KT 10SM OVC050 18/12 A3000 RMK AO2 SLP155 T01830117 53010=
200707151353 METAR KPAE 151353Z 16014KT 10SM OVC060 18/12 A2998 RMK AO2 SLP150 T01830117=
200707151253 METAR KPAE 151253Z AUTO 18008KT 10SM CLR 18/11 A2998 RMK AO2 SLP148 T01780111=
200707151153 METAR KPAE 151153Z AUTO 18006KT 10SM CLR 17/11 A2997 RMK AO2 SLP145 T01720106 10206 20172 53005=
200707151053 METAR KPAE 151053Z AUTO 16005KT 10SM CLR 18/12 A2996 RMK AO2 SLP143 T01830117=
200707150953 METAR KPAE 150953Z AUTO 16008KT 10SM CLR 19/12 A2996 RMK AO2 SLP141 T01890117=
200707150853 METAR KPAE 150853Z AUTO 00000KT 10SM CLR 19/12 A2995 RMK AO2 SLP139 T01890117 51004=
200707150753 METAR KPAE 150753Z AUTO 00000KT 10SM CLR 18/12 A2994 RMK AO2 SLP135 T01830122 402610133=
200707150653 METAR KPAE 150653Z AUTO 25005KT 10SM CLR 19/13 A2995 RMK AO2 SLP140 T01940133=
200707150553 METAR KPAE 150553Z AUTO 03003KT 10SM CLR 21/13 A2994 RMK AO2 SLP135 T02060128 10256 20189 58006=
200707150453 METAR KPAE 150453Z 00000KT 10SM FEW120 20/11 A2996 RMK AO2 SLP143 T02000111=
200707150353 METAR KPAE 150353Z 35004KT 10SM CLR 19/11 A2997 RMK AO2 SLP147 T01940111=
200707150253 METAR KPAE 150253Z 36004KT 10SM CLR 21/12 A2996 RMK AO2 SLP142 T02110122 55003=
200707150153 METAR KPAE 150153Z VRB04KT 10SM CLR 22/13 A2996 RMK AO2 SLP142 T02170133=
200707150053 METAR KPAE 150053Z 36004KT 10SM CLR 24/14 A2996 RMK AO2 SLP144 T02390139=
200707142353 METAR KPAE 142353Z 36004KT 10SM CLR 25/14 A2997 RMK AO2 SLP145 T02500139 10261 20211 58012=
200707142253 METAR KPAE 142253Z VRB04KT 10SM CLR 26/14 A2999 RMK AO2 SLP152 T02560144=
200707142153 METAR KPAE 142153Z 28005KT 10SM CLR 25/14 A3000 RMK AO2 SLP156 T02500139=
200707142053 METAR KPAE 142053Z 31006KT 10SM CLR 24/14 A3000 RMK AO2 SLP158 T02390144 56014=
200707141953 METAR KPAE 141953Z 31007KT 10SM CLR 23/14 A3002 RMK AO2 SLP162 T02330144=
200707141853 METAR KPAE 141853Z 03004KT 10SM CLR 23/14 A3003 RMK AO2 SLP167 T02280144=
200707141753 METAR KPAE 141753Z 30005KT 10SM CLR 21/14 A3005 RMK AO2 SLP172 T02110139 10217 20133 55005=
200707141653 METAR KPAE 141653Z 00000KT 10SM CLR 21/14 A3004 RMK AO2 SLP172 T02110139=
200707141553 METAR KPAE 141553Z 00000KT 10SM CLR 18/12 A3005 RMK AO2 SLP175 T01830122=
200707141453 METAR KPAE 141453Z VRB03KT 10SM CLR 17/12 A3006 RMK AO2 SLP177 T01720122 58003=
200707141353 METAR KPAE 141353Z 00000KT 10SM CLR 16/12 A3007 RMK AO2 SLP179 T01610122=
200707141253 METAR KPAE 141253Z AUTO 00000KT 10SM CLR 14/12 A3008 RMK AO2 SLP183 T01390122=
200707141153 METAR KPAE 141153Z AUTO 00000KT 10SM CLR 14/12 A3007 RMK AO2 SLP181 T01390122 10150 20133 56004=
200707141053 METAR KPAE 141053Z AUTO 35003KT 10SM CLR 13/12 A3008 RMK AO2 SLP183 T01330117=
200707140953 METAR KPAE 140953Z AUTO 35003KT 10SM CLR 14/12 A3007 RMK AO2 SLP182 T01390122=
200707140853 METAR KPAE 140853Z AUTO 00000KT 10SM CLR 14/12 A3008 RMK AO2 SLP185 T01390122 55002=
200707140753 METAR KPAE 140753Z AUTO 01005KT 10SM CLR 14/12 A3008 RMK AO2 SLP183 T01440122 402110144=
200707140653 METAR KPAE 140653Z AUTO 01004KT 10SM CLR 14/12 A3008 RMK AO2 SLP184 T01440122=
200707140553 METAR KPAE 140553Z AUTO 01006KT 10SM CLR 15/12 A3009 RMK AO2 SLP187 T01500122 10211 20150 50002=
200707140453 METAR KPAE 140453Z AUTO VRB03KT 10SM CLR 16/13 A3009 RMK AO2 SLP188 T01610128=
200707140353 METAR KPAE 140353Z AUTO 03003KT 10SM CLR 18/14 A3008 RMK AO2 SLP186 T01780139=
200707140253 METAR KPAE 140253Z VRB03KT 10SM CLR 20/14 A3008 RMK AO2 SLP184 T02000139 55004=
200707140153 METAR KPAE 140153Z 28004KT 10SM CLR 21/14 A3008 RMK AO2 SLP183 T02060139=
200707140053 METAR KPAE 140053Z 25009KT 10SM CLR 21/14 A3008 RMK AO2 SLP185 T02060139=
200707132353 METAR KPAE 132353Z 24007KT 10SM CLR 20/13 A3009 RMK AO2 SLP188 T02000133 10206 20167 58003=
200707132253 METAR KPAE 132253Z 25009KT 10SM CLR 20/13 A3010 RMK AO2 SLP190 T02000133=
200707132226 SPECI KPAE 132226Z 27010KT 10SM FEW023 20/14 A3010 RMK AO2=
200707132226 SPECI KPAE 132226Z 27010KT 10SM FEW023 20/14 A3010 RMK AO2=
200707132153 METAR KPAE 132153Z 29005KT 10SM BKN023 21/14 A3010 RMK AO2 SLP191 T02060139=
200707132144 SPECI KPAE 132144Z 24007KT 10SM SCT021 21/13 A3010 RMK AO2=
200707132144 SPECI KPAE 132144Z 24007KT 10SM SCT021 21/13 A3010 RMK AO2=
200707132053 METAR KPAE 132053Z 24007KT 10SM OVC021 19/13 A3010 RMK AO2 SLP191 T01940133 50010=
200707131953 METAR KPAE 131953Z 25009KT 10SM OVC019 18/13 A3010 RMK AO2 SLP193 T01830128=
200707131926 SPECI KPAE 131926Z 25009KT 10SM OVC015 18/13 A3011 RMK AO2=
200707131926 SPECI KPAE 131926Z 25009KT 10SM OVC015 18/13 A3011 RMK AO2=
200707131853 METAR KPAE 131853Z 26011KT 10SM BKN011 OVC014 18/13 A3010 RMK AO2 SLP192 T01830133=
200707131753 METAR KPAE 131753Z 23004KT 10SM SCT008 OVC014 17/13 A3007 RMK AO2 RAE11 SLP182 P0000 60000 T01670133 10167 20144 58000=
200707131749 SPECI KPAE 131749Z VRB04KT 10SM SCT008 OVC014 16/13 A3008 RMK AO2 RAE11 P0000=
200707131749 SPECI KPAE 131749Z VRB04KT 10SM SCT008 OVC014 16/13 A3008 RMK AO2 RAE11 P0000=
200707131653 METAR KPAE 131653Z 18010KT 10SM -RA OVC010 17/13 A3012 RMK AO2 RAB44 SLP199 P0000 T01670133=
200707131553 METAR KPAE 131553Z VRB04KT 10SM OVC010 17/13 A3007 RMK AO2 SLP181 T01670133=
200707131542 SPECI KPAE 131542Z 25003KT 10SM OVC010 16/13 A3007 RMK AO2 CIG 008V012=
200707131542 SPECI KPAE 131542Z 25003KT 10SM OVC010 16/13 A3007 RMK AO2 CIG 008V012=
200707131512 SPECI KPAE 131512Z 14003KT 10SM OVC008 16/13 A3006 RMK AO2 PRESFR=
200707131512 SPECI KPAE 131512Z 14003KT 10SM OVC008 16/13 A3006 RMK AO2 PRESFR=
200707131453 METAR KPAE 131453Z 18003KT 10SM OVC010 16/13 A3008 RMK AO2 SLP184 T01610133 52010=
200707131420 SPECI KPAE 131420Z 23003KT 10SM BKN010 16/13 A3007 RMK AO2=
200707131420 SPECI KPAE 131420Z 23003KT 10SM BKN010 16/13 A3007 RMK AO2=
200707131353 METAR KPAE 131353Z 00000KT 10SM SCT015 16/13 A3007 RMK AO2 SLP179 T01560133=
200707131334 SPECI KPAE 131334Z 00000KT 10SM SCT014 16/13 A3007 RMK AO2=
200707131334 SPECI KPAE 131334Z 00000KT 10SM SCT014 16/13 A3007 RMK AO2=
200707131319 SPECI KPAE 131319Z AUTO 00000KT 10SM BKN014 15/13 A3006 RMK AO2=
200707131319 SPECI KPAE 131319Z AUTO 00000KT 10SM BKN014 15/13 A3006 RMK AO2=
200707131253 METAR KPAE 131253Z AUTO 22004KT 10SM BKN016 15/13 A3006 RMK AO2 SLP177 T01500128=
200707131214 SPECI KPAE 131214Z AUTO 25003KT 10SM SCT004 BKN016 15/13 A3006 RMK AO2=
200707131214 SPECI KPAE 131214Z AUTO 25003KT 10SM SCT004 BKN016 15/13 A3006 RMK AO2=
200707131153 METAR KPAE 131153Z AUTO VRB04KT 10SM BKN004 BKN080 15/13 A3005 RMK AO2 RAB36E48 SLP173 P0000 60000 T01500133 10161 20150 50002=
200707131149 SPECI KPAE 131149Z AUTO VRB04G15KT 10SM BKN004 BKN085 OVC110 15/13 A3007 RMK AO2 RAB36E48 PRESRR P0000=
200707131149 SPECI KPAE 131149Z AUTO VRB04G15KT 10SM BKN004 BKN085 OVC110 15/13 A3007 RMK AO2 RAB36E48 PRESRR P0000=
200707131129 SPECI KPAE 131129Z AUTO 02006KT 10SM FEW004 SCT100 15/13 A3005 RMK AO2=
200707131129 SPECI KPAE 131129Z AUTO 02006KT 10SM FEW004 SCT100 15/13 A3005 RMK AO2=
200707131053 METAR KPAE 131053Z AUTO 00000KT 10SM CLR 15/13 A3006 RMK AO2 LTG DSNT S SLP178 T01500133=
200707131020 SPECI KPAE 131020Z AUTO 01003KT 9SM FEW003 15/13 A3004 RMK AO2=
200707131020 SPECI KPAE 131020Z AUTO 01003KT 9SM FEW003 15/13 A3004 RMK AO2=
200707130953 METAR KPAE 130953Z AUTO 00000KT 10SM CLR 16/13 A3004 RMK AO2 SLP171 T01560133=
200707130853 METAR KPAE 130853Z AUTO 00000KT 10SM CLR 16/13 A3005 RMK AO2 SLP174 T01560133 51014=
200707130753 METAR KPAE 130753Z AUTO 08003KT 10SM CLR 16/13 A3005 RMK AO2 SLP174 T01560133 402390150=
200707130653 METAR KPAE 130653Z AUTO 01005KT 10SM CLR 15/13 A3003 RMK AO2 SLP168 T01500133=
200707130553 METAR KPAE 130553Z AUTO 01008KT 10SM CLR 16/13 A3001 RMK AO2 SLP160 T01560133 10239 20156 53012=
200707130453 METAR KPAE 130453Z AUTO 36007KT 10SM CLR 17/13 A2999 RMK AO2 SLP153 T01670133=
200707130353 METAR KPAE 130353Z VRB05KT 10SM CLR 19/14 A2998 RMK AO2 SLP148 T01890139=
200707130253 METAR KPAE 130253Z 36004KT 10SM CLR 21/14 A2997 RMK AO2 SLP148 T02060139 55001=
200707130153 METAR KPAE 130153Z 32003KT 10SM CLR 23/14 A2997 RMK AO2 SLP145 T02280144=
200707130053 METAR KPAE 130053Z 00000KT 10SM CLR 24/14 A2997 RMK AO2 SLP144 T02390144=
200707122353 METAR KPAE 122353Z 30005KT 10SM CLR 22/13 A2998 RMK AO2 SLP149 60000 T02220133 10233 20189 56012=
200707122253 METAR KPAE 122253Z VRB04KT 10SM CLR 23/14 A2999 RMK AO2 SLP152 T02280139=
200707122153 METAR KPAE 122153Z 00000KT 10SM CLR 21/13 A3000 RMK AO2 RAB13E22 SLP156 P0000 T02060133=
200707122053 METAR KPAE 122053Z 24009KT 10SM CLR 19/13 A3001 RMK AO2 SLP160 T01940133 56001=
200707121953 METAR KPAE 121953Z 24010KT 10SM CLR 20/13 A3001 RMK AO2 SLP160 T02000128=
200707121853 METAR KPAE 121853Z 23009KT 10SM CLR 21/13 A3001 RMK AO2 SLP159 T02060128=
200707121753 METAR KPAE 121753Z 24009KT 10SM CLR 20/13 A3001 RMK AO2 SLP160 T02000128 10200 20156 50000=
200707121653 METAR KPAE 121653Z 26005KT 10SM CLR 18/13 A3001 RMK AO2 SLP160 T01830128=
200707121553 METAR KPAE 121553Z 26006KT 10SM CLR 18/13 A3002 RMK AO2 SLP161 T01780128=
200707121453 METAR KPAE 121453Z 21003KT 10SM CLR 18/13 A3001 RMK AO2 SLP158 T01830133 51002=
200707121353 METAR KPAE 121353Z 20005KT 10SM CLR 17/13 A3001 RMK AO2 SLP157 T01670128=
200707121253 METAR KPAE 121253Z AUTO 18007KT 10SM CLR 16/13 A3001 RMK AO2 SLP158 T01560128=
200707121153 METAR KPAE 121153Z AUTO 16006KT 10SM CLR 16/13 A3000 RMK AO2 SLP156 T01560128 10239 20156 51015=
200707121053 METAR KPAE 121053Z AUTO 18008KT 10SM CLR 16/13 A2999 RMK AO2 SLP152 T01610128=
200707120953 METAR KPAE 120953Z AUTO 19012KT 10SM CLR 17/13 A2998 RMK AO2 SLP146 T01670128=
200707120853 METAR KPAE 120853Z AUTO 18010KT 10SM CLR 19/13 A2996 RMK AO2 SLP141 T01890133 53020=
200707120753 METAR KPAE 120753Z AUTO 20003KT 10SM CLR 22/11 A2993 RMK AO2 SLP132 T02220106 403220178=
200707120653 METAR KPAE 120653Z AUTO 19004KT 10SM CLR 22/11 A2992 RMK AO2 SLP127 T02220106=
200707120553 METAR KPAE 120553Z AUTO 36003KT 10SM CLR 24/10 A2990 RMK AO2 SLP120 T02390100 10317 20239 53011=
200707120453 METAR KPAE 120453Z AUTO 36003KT 10SM CLR 25/10 A2987 RMK AO2 SLP112 T02500100=
200707120353 METAR KPAE 120353Z 34005KT 10SM CLR 26/11 A2986 RMK AO2 SLP108 T02610106=
200707120253 METAR KPAE 120253Z 34005KT 10SM CLR 28/12 A2986 RMK AO2 SLP108 T02780122 55004=
200707120153 METAR KPAE 120153Z 35005KT 10SM CLR 31/12 A2986 RMK AO2 SLP108 T03060122=
200707120053 METAR KPAE 120053Z 35008KT 10SM CLR 31/12 A2987 RMK AO2 SLP110 T03060122=
200707112353 METAR KPAE 112353Z 34009KT 10SM CLR 32/12 A2988 RMK AO2 SLP112 T03220117 10322 20256 58015=
200707112253 METAR KPAE 112253Z VRB05KT 10SM CLR 32/12 A2989 RMK AO2 SLP118 T03170122=
200707112153 METAR KPAE 112153Z 35007KT 330V050 10SM CLR 31/12 A2991 RMK AO2 SLP122 T03110122=
200707112053 METAR KPAE 112053Z 35008KT 10SM CLR 29/13 A2992 RMK AO2 SLP127 T02940128 58012=
200707111953 METAR KPAE 111953Z 36007KT 10SM CLR 28/12 A2993 RMK AO2 SLP131 T02830122=
200707111853 METAR KPAE 111853Z 36007KT 10SM CLR 27/12 A2994 RMK AO2 SLP136 T02720122=
200707111753 METAR KPAE 111753Z 36008KT 10SM CLR 26/12 A2995 RMK AO2 SLP139 T02560122 10261 20178 58004=
200707111653 METAR KPAE 111653Z VRB05KT 10SM CLR 24/13 A2996 RMK AO2 SLP142 T02390128=
200707111553 METAR KPAE 111553Z 35007KT 10SM CLR 23/13 A2996 RMK AO2 SLP142 T02280128=
200707111453 METAR KPAE 111453Z 36006KT 10SM CLR 21/13 A2997 RMK AO2 SLP143 T02110133 58001=
200707111353 METAR KPAE 111353Z 36005KT 10SM CLR 19/13 A2997 RMK AO2 SLP145 T01940133=
200707111253 METAR KPAE 111253Z AUTO 36004KT 10SM CLR 18/13 A2997 RMK AO2 SLP145 T01830128=
200707111153 METAR KPAE 111153Z AUTO 02003KT 10SM CLR 19/13 A2997 RMK AO2 SLP144 T01890128 10239 20183 53006=
200707111053 METAR KPAE 111053Z AUTO 02004KT 10SM CLR 19/12 A2996 RMK AO2 SLP141 T01940117=
200707110953 METAR KPAE 110953Z AUTO 02004KT 10SM CLR 21/11 A2995 RMK AO2 SLP139 T02110111=
200707110853 METAR KPAE 110853Z AUTO 36004KT 10SM CLR 22/11 A2995 RMK AO2 SLP138 T02170106 50000=
200707110753 METAR KPAE 110753Z AUTO 01004KT 10SM CLR 23/11 A2995 RMK AO2 SLP138 T02280106 402890150=
200707110653 METAR KPAE 110653Z AUTO VRB03KT 10SM CLR 23/10 A2995 RMK AO2 SLP138 T02330100=
200707110553 METAR KPAE 110553Z AUTO 01003KT 10SM CLR 23/10 A2995 RMK AO2 SLP138 T02330100 10289 20222 53001=
200707110453 METAR KPAE 110453Z AUTO 00000KT 10SM CLR 23/11 A2995 RMK AO2 SLP138 T02330106=
200707110353 METAR KPAE 110353Z 35006KT 10SM CLR 25/10 A2994 RMK AO2 SLP136 T02500100=
200707110253 METAR KPAE 110253Z 35007KT 10SM CLR 26/11 A2995 RMK AO2 SLP138 T02560106 56011=
200707110153 METAR KPAE 110153Z 35009G15KT 10SM CLR 27/10 A2995 RMK AO2 SLP139 T02720100=
200707110053 METAR KPAE 110053Z 35008G15KT 10SM CLR 28/09 A2996 RMK AO2 SLP142 T02830094=
200707102353 METAR KPAE 102353Z 34008G14KT 10SM CLR 29/10 A2998 RMK AO2 SLP149 T02890100 10289 20222 58017=
200707102253 METAR KPAE 102253Z 34008G16KT 10SM CLR 28/11 A3000 RMK AO2 SLP156 T02830106=
200707102153 METAR KPAE 102153Z 35008G16KT 320V030 10SM CLR 27/11 A3002 RMK AO2 SLP161 T02720111=
200707102053 METAR KPAE 102053Z 36010G16KT 10SM CLR 26/11 A3003 RMK AO2 SLP166 T02610111 58016=
200707101953 METAR KPAE 101953Z 36007KT 10SM CLR 26/12 A3005 RMK AO2 SLP173 T02560117=
200707101853 METAR KPAE 101853Z 35007KT 10SM CLR 24/11 A3007 RMK AO2 SLP179 T02390111=
200707101753 METAR KPAE 101753Z VRB06KT 10SM CLR 22/12 A3008 RMK AO2 SLP182 T02220117 10222 20150 58000=
200707101653 METAR KPAE 101653Z 33007KT 10SM CLR 21/12 A3009 RMK AO2 SLP185 T02110117=
200707101553 METAR KPAE 101553Z 36007G15KT 320V030 10SM CLR 19/12 A3009 RMK AO2 SLP185 T01940117=
200707101453 METAR KPAE 101453Z 35006KT 10SM CLR 18/12 A3008 RMK AO2 SLP183 T01780122 53005=
200707101353 METAR KPAE 101353Z 36005KT 10SM CLR 17/12 A3007 RMK AO2 SLP181 T01670122=
200707101253 METAR KPAE 101253Z AUTO 35003KT 10SM CLR 16/12 A3007 RMK AO2 SLP179 T01560117=
200707101153 METAR KPAE 101153Z AUTO 36003KT 10SM CLR 15/12 A3006 RMK AO2 SLP178 T01500117 10194 20150 53002=
200707101053 METAR KPAE 101053Z AUTO 35003KT 10SM CLR 16/11 A3005 RMK AO2 SLP174 T01560106=
200707100953 METAR KPAE 100953Z AUTO 36003KT 10SM CLR 16/11 A3005 RMK AO2 SLP174 T01560106=
200707100853 METAR KPAE 100853Z AUTO 00000KT 10SM CLR 17/11 A3006 RMK AO2 SLP176 T01670106 53003=
200707100753 METAR KPAE 100753Z AUTO 36003KT 10SM CLR 18/11 A3005 RMK AO2 SLP174 T01830106 402330117=
200707100653 METAR KPAE 100653Z AUTO 36005KT 10SM CLR 19/10 A3005 RMK AO2 SLP173 T01890100=
200707100553 METAR KPAE 100553Z AUTO 01004KT 10SM CLR 18/10 A3005 RMK AO2 SLP173 T01830100 10233 20178 53001=
200707100453 METAR KPAE 100453Z AUTO 36003KT 10SM CLR 18/11 A3005 RMK AO2 SLP174 T01830111=
200707100353 METAR KPAE 100353Z VRB04KT 10SM CLR 20/11 A3004 RMK AO2 SLP171 T02000106=
200707100253 METAR KPAE 100253Z 34005KT 10SM CLR 21/11 A3004 RMK AO2 SLP172 T02110111 56009=
200707100153 METAR KPAE 100153Z 34009KT 10SM CLR 22/10 A3005 RMK AO2 SLP173 T02170100=
200707100053 METAR KPAE 100053Z 34007KT 10SM CLR 23/11 A3006 RMK AO2 SLP177 T02280106=
200707092353 METAR KPAE 092353Z 33010G16KT 10SM CLR 22/11 A3007 RMK AO2 SLP181 T02220111 10233 20172 58009=
200707092253 METAR KPAE 092253Z VRB06G15KT 10SM CLR 22/12 A3008 RMK AO2 SLP185 T02220117=
200707092153 METAR KPAE 092153Z VRB06G16KT 10SM CLR 22/13 A3009 RMK AO2 SLP190 T02170128=
200707092053 METAR KPAE 092053Z VRB06KT 10SM CLR 22/13 A3010 RMK AO2 SLP192 T02170128 58007=
200707091953 METAR KPAE 091953Z 01008KT 10SM CLR 20/12 A3011 RMK AO2 SLP196 T02000122=
200707091853 METAR KPAE 091853Z VRB04KT 10SM CLR 19/12 A3012 RMK AO2 SLP198 T01890122=
200707091753 METAR KPAE 091753Z 34008KT 10SM FEW014 18/12 A3012 RMK AO2 SLP199 T01780117 10183 20117 50001=
200707091727 SPECI KPAE 091727Z VRB05KT 10SM SCT014 18/12 A3012 RMK AO2=
200707091727 SPECI KPAE 091727Z VRB05KT 10SM SCT014 18/12 A3012 RMK AO2=
200707091653 METAR KPAE 091653Z 35007G14KT 10SM OVC014 16/12 A3013 RMK AO2 SLP201 T01610117=
200707091626 SPECI KPAE 091626Z 36006KT 10SM BKN016 16/12 A3012 RMK AO2=
200707091626 SPECI KPAE 091626Z 36006KT 10SM BKN016 16/12 A3012 RMK AO2=
200707091553 METAR KPAE 091553Z 36007KT 10SM SCT016 16/12 A3012 RMK AO2 SLP198 T01610117=
200707091453 METAR KPAE 091453Z VRB05KT 10SM CLR 15/11 A3012 RMK AO2 SLP198 T01500111 51005=
200707091353 METAR KPAE 091353Z AUTO 02003KT 10SM CLR 13/11 A3012 RMK AO2 SLP197 T01330111=
200707091253 METAR KPAE 091253Z AUTO 35003KT 10SM CLR 12/11 A3011 RMK AO2 SLP194 T01220106=
200707091153 METAR KPAE 091153Z AUTO 35004KT 10SM CLR 13/11 A3010 RMK AO2 SLP192 T01280106 10133 20122 53000=
200707091053 METAR KPAE 091053Z AUTO 36005KT 10SM CLR 13/11 A3010 RMK AO2 SLP191 T01280106=
200707090953 METAR KPAE 090953Z AUTO 01005KT 10SM CLR 13/11 A3010 RMK AO2 SLP191 T01280111=
200707090853 METAR KPAE 090853Z AUTO 35007KT 10SM CLR 13/11 A3010 RMK AO2 SLP192 T01280111 55001=
200707090753 METAR KPAE 090753Z AUTO 36007G16KT 10SM CLR 13/11 A3010 RMK AO2 SLP191 T01280106 402170122=
200707090653 METAR KPAE 090653Z AUTO 35009G15KT 10SM CLR 13/11 A3010 RMK AO2 SLP191 T01280111=
200707090553 METAR KPAE 090553Z AUTO 35008G14KT 10SM CLR 13/11 A3010 RMK AO2 SLP193 T01330111 10211 20133 50004=
200707090453 METAR KPAE 090453Z AUTO 35006KT 10SM CLR 14/12 A3011 RMK AO2 SLP194 T01390117=
200707090353 METAR KPAE 090353Z 36005KT 10SM CLR 16/12 A3009 RMK AO2 SLP189 T01560117=
200707090253 METAR KPAE 090253Z 35009G14KT 10SM CLR 17/12 A3009 RMK AO2 SLP188 T01720117 56010=
200707090153 METAR KPAE 090153Z 35006KT 10SM CLR 19/12 A3010 RMK AO2 SLP191 T01890117=
200707090053 METAR KPAE 090053Z 35008KT 310V020 10SM CLR 20/11 A3010 RMK AO2 SLP193 T02000111=
200707082353 METAR KPAE 082353Z 36006KT 10SM CLR 21/10 A3012 RMK AO2 SLP198 T02060100 10217 20156 58008=
200707082253 METAR KPAE 082253Z AUTO VRB05KT 10SM CLR 21/10 A3013 RMK AO2 SLP202 T02060100 TSNO=
200707082153 METAR KPAE 082153Z 31004KT 10SM SCT080 20/10 A3014 RMK AO2 SLP205 T02000100=
200707082053 METAR KPAE 082053Z 27006KT 10SM OVC080 19/11 A3015 RMK AO2 SLP207 T01890106 50001=
200707081953 METAR KPAE 081953Z 28007KT 10SM OVC075 17/10 A3015 RMK AO2 SLP207 T01670100=
200707081853 METAR KPAE 081853Z 27007KT 10SM BKN080 17/10 A3015 RMK AO2 SLP207 T01670100=
200707081753 METAR KPAE 081753Z 24006KT 10SM BKN046 OVC070 16/10 A3014 RMK AO2 SLP206 T01610100 10167 20122 50000=
200707081653 METAR KPAE 081653Z 26006KT 10SM OVC070 14/10 A3015 RMK AO2 SLP208 T01440100=
200707081553 METAR KPAE 081553Z VRB03KT 10SM OVC070 14/10 A3015 RMK AO2 SLP207 T01440100=
200707081453 METAR KPAE 081453Z 28004KT 10SM SCT009 OVC080 13/10 A3014 RMK AO2 SLP206 T01330100 51009=
200707081439 SPECI KPAE 081439Z 29003KT 10SM SCT009 OVC080 14/11 A3014 RMK AO2=
200707081439 SPECI KPAE 081439Z 29003KT 10SM SCT009 OVC080 14/11 A3014 RMK AO2=
200707081353 METAR KPAE 081353Z 31005KT 10SM OVC080 13/10 A3014 RMK AO2 SLP204 T01280100=
200707081253 METAR KPAE 081253Z AUTO 34003KT 10SM BKN075 13/09 A3013 RMK AO2 SLP201 T01330094=
200707081153 METAR KPAE 081153Z AUTO 10003KT 10SM OVC080 13/09 A3012 RMK AO2 SLP196 T01330089 10144 20122 53003=
200707081053 METAR KPAE 081053Z AUTO 00000KT 10SM OVC080 13/09 A3011 RMK AO2 SLP195 T01330094=
200707080953 METAR KPAE 080953Z AUTO 00000KT 10SM OVC080 13/09 A3011 RMK AO2 SLP194 T01280094=
200707080853 METAR KPAE 080853Z AUTO 00000KT 10SM BKN080 13/09 A3011 RMK AO2 SLP194 T01280089 51002=
200707080753 METAR KPAE 080753Z AUTO 01004KT 10SM CLR 13/09 A3011 RMK AO2 SLP193 T01280089 402330100=
200707080653 METAR KPAE 080653Z AUTO VRB03KT 10SM CLR 13/09 A3010 RMK AO2 SLP193 T01330089=
200707080553 METAR KPAE 080553Z AUTO VRB04KT 10SM FEW070 14/09 A3010 RMK AO2 SLP192 T01440089 10222 20144 53002=
200707080453 METAR KPAE 080453Z 01005KT 10SM CLR 16/09 A3010 RMK AO2 SLP191 T01560089=
200707080353 METAR KPAE 080353Z 01005KT 10SM BKN070 16/11 A3009 RMK AO2 SLP190 T01560106=
200707080253 METAR KPAE 080253Z 36007KT 10SM CLR 17/10 A3009 RMK AO2 SLP190 T01670100 53002=
200707080153 METAR KPAE 080153Z 35008KT 320V020 10SM CLR 17/11 A3008 RMK AO2 SLP187 T01720106=
200707080053 METAR KPAE 080053Z 01007KT 330V050 10SM CLR 20/09 A3008 RMK AO2 SLP186 T02000094=
200707072353 METAR KPAE 072353Z 36004KT 10SM CLR 23/11 A3009 RMK AO2 SLP188 T02280106 10233 20178 56006=
200707072253 METAR KPAE 072253Z VRB06KT 10SM CLR 23/10 A3010 RMK AO2 SLP190 T02280100=
200707072153 METAR KPAE 072153Z 27007KT 10SM CLR 22/09 A3010 RMK AO2 SLP191 T02220094=
200707072053 METAR KPAE 072053Z 25005KT 10SM CLR 22/09 A3011 RMK AO2 SLP194 T02170094 58002=
200707071953 METAR KPAE 071953Z 27004KT 10SM CLR 21/09 A3011 RMK AO2 SLP194 T02060094=
200707071853 METAR KPAE 071853Z 27005KT 10SM CLR 19/10 A3011 RMK AO2 SLP196 T01940100=
200707071753 METAR KPAE 071753Z VRB03KT 10SM CLR 18/09 A3011 RMK AO2 SLP196 T01780094 10178 20100 50003=
200707071653 METAR KPAE 071653Z 25004KT 10SM CLR 16/10 A3011 RMK AO2 SLP198 T01610100=
200707071553 METAR KPAE 071553Z 00000KT 10SM CLR 14/10 A3011 RMK AO2 SLP195 T01440100=
200707071453 METAR KPAE 071453Z 00000KT 10SM CLR 13/10 A3010 RMK AO2 SLP194 T01280100 51007=
200707071427 SPECI KPAE 071427Z 00000KT 8SM SCT001 12/10 A3010 RMK AO2=
200707071427 SPECI KPAE 071427Z 00000KT 8SM SCT001 12/10 A3010 RMK AO2=
200707071415 SPECI KPAE 071415Z 00000KT 6SM BR BKN001 12/10 A3010 RMK AO2=
200707071415 SPECI KPAE 071415Z 00000KT 6SM BR BKN001 12/10 A3010 RMK AO2=
200707071401 SPECI KPAE 071401Z 00000KT 2SM BR OVC001 11/10 A3010 RMK AO2 VIS 1V4=
200707071401 SPECI KPAE 071401Z 00000KT 2SM BR OVC001 11/10 A3010 RMK AO2 VIS 1V4=
200707071353 METAR KPAE 071353Z 00000KT 1 1/4SM BR OVC001 11/10 A3010 RMK AO2 SLP192 T01060100=
200707071312 SPECI KPAE 071312Z AUTO 35004KT 1/4SM FG VV001 10/09 A3010 RMK AO2=
200707071312 SPECI KPAE 071312Z AUTO 35004KT 1/4SM FG VV001 10/09 A3010 RMK AO2=
200707071253 METAR KPAE 071253Z AUTO 00000KT 3/4SM BR OVC001 11/09 A3009 RMK AO2 SLP190 T01060094=
200707071215 SPECI KPAE 071215Z AUTO 32003KT 1/2SM FG VV001 11/10 A3008 RMK AO2=
200707071215 SPECI KPAE 071215Z AUTO 32003KT 1/2SM FG VV001 11/10 A3008 RMK AO2=
200707071153 METAR KPAE 071153Z AUTO 00000KT 1 1/4SM BR BKN001 11/10 A3008 RMK AO2 SLP186 T01060100 10133 20106 55004=
200707071137 SPECI KPAE 071137Z AUTO 34003KT 1SM BR VV001 11/09 A3008 RMK AO2=
200707071137 SPECI KPAE 071137Z AUTO 34003KT 1SM BR VV001 11/09 A3008 RMK AO2=
200707071133 SPECI KPAE 071133Z AUTO 34004KT 2SM BR FEW001 11/09 A3008 RMK AO2=
200707071133 SPECI KPAE 071133Z AUTO 34004KT 2SM BR FEW001 11/09 A3008 RMK AO2=
200707071053 METAR KPAE 071053Z AUTO 00000KT 10SM CLR 12/09 A3008 RMK AO2 SLP184 T01170094=
200707070953 METAR KPAE 070953Z AUTO 02005KT 10SM CLR 12/10 A3008 RMK AO2 SLP186 T01170100=
200707070853 METAR KPAE 070853Z AUTO 36005KT 10SM CLR 12/10 A3009 RMK AO2 SLP189 T01170100 53003=
200707070753 METAR KPAE 070753Z AUTO 02006KT 10SM CLR 13/10 A3009 RMK AO2 SLP187 T01280100 402000122=
200707070653 METAR KPAE 070653Z AUTO 35004KT 10SM CLR 13/09 A3008 RMK AO2 SLP185 T01280094=
200707070553 METAR KPAE 070553Z AUTO 01006KT 10SM CLR 13/10 A3008 RMK AO2 SLP186 T01280100 10178 20122 53010=
200707070453 METAR KPAE 070453Z AUTO VRB06KT 10SM CLR 13/09 A3007 RMK AO2 SLP184 T01280094=
200707070353 METAR KPAE 070353Z AUTO 36008G16KT 10SM CLR 13/10 A3006 RMK AO2 SLP179 T01330100=
200707070253 METAR KPAE 070253Z 36008G18KT 10SM CLR 16/09 A3005 RMK AO2 SLP177 T01560094 56007=
200707070153 METAR KPAE 070153Z VRB06KT 10SM CLR 18/10 A3006 RMK AO2 SLP177 T01780100=
200707070053 METAR KPAE 070053Z 36007KT 10SM CLR 16/11 A3007 RMK AO2 PK WND 21027/0042 SLP183 T01610106=
200707062353 METAR KPAE 062353Z 35008KT 10SM CLR 17/11 A3008 RMK AO2 SLP183 T01720106 10200 20172 57008=
200707062253 METAR KPAE 062253Z 35008G15KT 10SM CLR 19/09 A3008 RMK AO2 SLP186 T01890094=
200707062153 METAR KPAE 062153Z 35009G15KT 10SM CLR 18/10 A3009 RMK AO2 SLP190 T01830100=
200707062053 METAR KPAE 062053Z 35006KT 10SM CLR 19/11 A3010 RMK AO2 SLP192 T01890106 58006=
200707061953 METAR KPAE 061953Z 35004KT 10SM CLR 18/11 A3011 RMK AO2 SLP196 T01830106=
200707061853 METAR KPAE 061853Z VRB04KT 10SM CLR 18/11 A3012 RMK AO2 SLP198 T01780106=
200707061753 METAR KPAE 061753Z 36004KT 10SM CLR 17/10 A3012 RMK AO2 SLP198 T01720100 10172 20122 58001=
200707061653 METAR KPAE 061653Z VRB04KT 10SM CLR 16/10 A3013 RMK AO2 SLP201 T01560100=
200707061553 METAR KPAE 061553Z 01005KT 10SM CLR 14/10 A3013 RMK AO2 SLP201 T01390100=
200707061453 METAR KPAE 061453Z 03006KT 10SM CLR 13/09 A3012 RMK AO2 SLP200 T01330094 52006=
200707061353 METAR KPAE 061353Z 03007KT 10SM CLR 13/09 A3012 RMK AO2 SLP199 T01280089=
200707061253 METAR KPAE 061253Z 02005KT 10SM SCT070 12/09 A3011 RMK AO2 SLP195 T01220089=
200707061153 METAR KPAE 061153Z 02006KT 10SM FEW070 12/09 A3011 RMK AO2 SLP193 T01220089 10150 20122 53007=
200707061053 METAR KPAE 061053Z 02008KT 10SM CLR 13/08 A3009 RMK AO2 SLP189 T01280083=
200707060953 METAR KPAE 060953Z 03006KT 10SM CLR 13/07 A3009 RMK AO2 SLP188 T01330072=
200707060853 METAR KPAE 060853Z 03008G16KT 10SM CLR 14/08 A3008 RMK AO2 SLP185 T01390078 53002=
200707060753 METAR KPAE 060753Z 02007KT 10SM CLR 14/06 A3008 RMK AO2 SLP184 T01390061 402220133=
200707060653 METAR KPAE 060653Z 02007KT 10SM CLR 15/06 A3007 RMK AO2 SLP182 T01500056=
200707060553 METAR KPAE 060553Z 02007KT 10SM CLR 15/06 A3008 RMK AO2 SLP184 T01500056 10200 20150 53004=
200707060453 METAR KPAE 060453Z 01009G16KT 10SM CLR 15/06 A3006 RMK AO2 SLP178 T01500056=
200707060353 METAR KPAE 060353Z 02008KT 10SM CLR 16/06 A3005 RMK AO2 SLP176 T01610056=
200707060253 METAR KPAE 060253Z 02007KT 10SM CLR 17/07 A3006 RMK AO2 SLP179 T01720067 56001=
200707060153 METAR KPAE 060153Z 02007KT 10SM CLR 18/08 A3006 RMK AO2 SLP179 T01830083=
200707060053 METAR KPAE 060053Z 02008KT 10SM CLR 19/11 A3006 RMK AO2 SLP180 T01890106=
200707052353 METAR KPAE 052353Z AUTO 35009G14KT 10SM CLR 20/10 A3007 RMK AO2 SLP180 T02000100 10222 20172 58001 TSNO=
200707052253 METAR KPAE 052253Z VRB06KT 10SM CLR 21/12 A3007 RMK AO2 SLP183 T02110122=
200707052153 METAR KPAE 052153Z 36007KT 330V040 10SM CLR 22/13 A3008 RMK AO2 SLP182 T02170128=
200707052053 METAR KPAE 052053Z 35008KT 10SM CLR 21/12 A3007 RMK AO2 SLP181 T02110122 56009=
200707051953 METAR KPAE 051953Z 36005KT 8SM CLR 21/12 A3007 RMK AO2 SLP182 T02110122=
200707051853 METAR KPAE 051853Z 01005KT 10SM CLR 19/12 A3008 RMK AO2 SLP186 T01940117=
200707051753 METAR KPAE 051753Z 01006KT 10SM CLR 17/11 A3010 RMK AO2 SLP191 T01720111 10172 20133 58013=
200707051653 METAR KPAE 051653Z 36009KT 10SM CLR 16/11 A3011 RMK AO2 SLP195 T01560106=
200707051553 METAR KPAE 051553Z 01006KT 10SM CLR 16/11 A3013 RMK AO2 SLP201 T01560106=
200707051453 METAR KPAE 051453Z 02006KT 10SM CLR 14/10 A3014 RMK AO2 SLP204 T01440100 51003=
200707051353 METAR KPAE 051353Z 02006KT 10SM CLR 14/09 A3014 RMK AO2 SLP204 T01390094=
200707051253 METAR KPAE 051253Z 00000KT 10SM CLR 13/09 A3014 RMK AO2 SLP205 T01330094=
200707051153 METAR KPAE 051153Z VRB05KT 10SM CLR 13/09 A3013 RMK AO2 SLP200 T01330089 10144 20133 58002=
200707051053 METAR KPAE 051053Z 03005KT 10SM CLR 13/09 A3013 RMK AO2 SLP201 T01330094=
200707050953 METAR KPAE 050953Z 02007KT 10SM CLR 13/09 A3013 RMK AO2 SLP202 T01330094=
200707050853 METAR KPAE 050853Z 36005KT 10SM CLR 14/09 A3013 RMK AO2 SLP202 T01390089 51000=
200707050753 METAR KPAE 050753Z 36006KT 10SM CLR 14/09 A3013 RMK AO2 SLP202 T01390089 402280128=
200707050653 METAR KPAE 050653Z 35005KT 10SM CLR 14/09 A3014 RMK AO2 SLP203 T01440089=
200707050553 METAR KPAE 050553Z 36008KT 10SM CLR 14/09 A3013 RMK AO2 SLP202 T01440089 10222 20144 53003=
200707050453 METAR KPAE 050453Z 36008G14KT 10SM CLR 15/09 A3013 RMK AO2 SLP202 T01500089=
200707050353 METAR KPAE 050353Z 36007G15KT 10SM CLR 16/09 A3012 RMK AO2 SLP200 T01610089=
200707050253 METAR KPAE 050253Z 36006KT 10SM CLR 18/09 A3012 RMK AO2 SLP199 T01780094 56008=
200707050153 METAR KPAE 050153Z VRB06KT 10SM CLR 19/12 A3013 RMK AO2 SLP201 T01940117=
200707050053 METAR KPAE 050053Z 36008KT 10SM CLR 21/12 A3013 RMK AO2 SLP203 T02060117=
200707042353 METAR KPAE 042353Z 36009KT 10SM CLR 22/12 A3015 RMK AO2 SLP207 T02170117 10228 20200 58010=
200707042253 METAR KPAE 042253Z 36007KT 10SM CLR 22/12 A3016 RMK AO2 SLP210 T02220122=
200707042153 METAR KPAE 042153Z 36008KT 10SM CLR 23/12 A3017 RMK AO2 SLP213 T02280122=
200707042053 METAR KPAE 042053Z 01006KT 10SM CLR 22/13 A3018 RMK AO2 SLP216 T02220128 58001=
200707041953 METAR KPAE 041953Z VRB06KT 10SM CLR 21/13 A3018 RMK AO2 SLP218 T02110128=
200707041853 METAR KPAE 041853Z VRB05KT 10SM CLR 21/13 A3018 RMK AO2 SLP217 T02110133=
200707041753 METAR KPAE 041753Z VRB04KT 10SM CLR 20/13 A3018 RMK AO2 SLP218 T02000128 10200 20128 56002=
200707041653 METAR KPAE 041653Z VRB05KT 10SM CLR 19/13 A3018 RMK AO2 SLP219 T01890128=
200707041553 METAR KPAE 041553Z VRB04KT 10SM CLR 17/12 A3018 RMK AO2 SLP219 T01720117=
200707041453 METAR KPAE 041453Z 00000KT 10SM CLR 16/12 A3019 RMK AO2 SLP220 T01560117 53003=
200707041353 METAR KPAE 041353Z 36003KT 10SM CLR 14/11 A3018 RMK AO2 SLP218 T01440111=
200707041253 METAR KPAE 041253Z 00000KT 10SM CLR 13/11 A3018 RMK AO2 SLP218 T01330111=
200707041153 METAR KPAE 041153Z 00000KT 10SM CLR 13/11 A3018 RMK AO2 SLP217 T01280111 10156 20128 58005=
200707041053 METAR KPAE 041053Z 00000KT 10SM CLR 13/11 A3019 RMK AO2 SLP220 T01330106=
200707040953 METAR KPAE 040953Z 35005KT 10SM CLR 14/11 A3019 RMK AO2 SLP222 T01390106=
200707040853 METAR KPAE 040853Z 34006KT 10SM CLR 14/10 A3019 RMK AO2 SLP222 T01440100 58007=
200707040753 METAR KPAE 040753Z 35005KT 10SM CLR 15/09 A3021 RMK AO2 SLP227 T01500094 402330139=
200707040653 METAR KPAE 040653Z 36006KT 10SM CLR 15/09 A3021 RMK AO2 SLP228 T01500089=
200707040553 METAR KPAE 040553Z 36004KT 10SM CLR 16/11 A3022 RMK AO2 SLP230 T01560106 10228 20156 50000=
200707040453 METAR KPAE 040453Z 35004KT 10SM CLR 17/11 A3022 RMK AO2 SLP231 T01670111=
200707040353 METAR KPAE 040353Z 35005KT 10SM CLR 18/12 A3021 RMK AO2 SLP229 T01830117=
200707040253 METAR KPAE 040253Z AUTO 01004KT 10SM CLR 21/12 A3021 RMK AO2 SLP230 T02060117 56004 TSNO=
200707040153 METAR KPAE 040153Z 35008KT 10SM CLR 21/11 A3021 RMK AO2 SLP229 T02110111=
200707040053 METAR KPAE 040053Z 36008KT 10SM CLR 22/12 A3022 RMK AO2 SLP231 T02220117=
200707032353 METAR KPAE 032353Z 35007KT 10SM CLR 22/12 A3023 RMK AO2 SLP233 T02220117 10233 20194 58003=
200707032253 METAR KPAE 032253Z 35008G14KT 10SM CLR 22/12 A3023 RMK AO2 SLP236 T02170117=
200707032153 METAR KPAE 032153Z VRB06KT 10SM CLR 22/12 A3024 RMK AO2 SLP237 T02220122=
200707032053 METAR KPAE 032053Z VRB04KT 10SM CLR 22/12 A3024 RMK AO2 SLP237 T02220117 50003=
200707031953 METAR KPAE 031953Z VRB05KT 10SM CLR 21/13 A3024 RMK AO2 SLP237 T02110128=
200707031853 METAR KPAE 031853Z 31006KT 10SM CLR 20/13 A3024 RMK AO2 SLP238 T02000128=
200707031753 METAR KPAE 031753Z 28006KT 10SM FEW120 19/13 A3023 RMK AO2 SLP234 T01940128 10206 20150 51009=
200707031653 METAR KPAE 031653Z 27007KT 10SM CLR 19/13 A3022 RMK AO2 SLP233 T01940128=
200707031553 METAR KPAE 031553Z 22005KT 10SM CLR 19/12 A3021 RMK AO2 SLP227 T01890122=
200707031453 METAR KPAE 031453Z 17007KT 10SM SCT120 18/12 A3020 RMK AO2 SLP224 T01780122 53003=
200707031353 METAR KPAE 031353Z 14005KT 10SM SCT120 16/11 A3020 RMK AO2 SLP222 T01610111=
200707031253 METAR KPAE 031253Z AUTO 17003KT 10SM FEW110 16/11 A3019 RMK AO2 SLP221 T01560111=
200707031153 METAR KPAE 031153Z AUTO 13004KT 10SM CLR 15/11 A3019 RMK AO2 SLP221 T01500111 10161 20139 52002=
200707031053 METAR KPAE 031053Z AUTO 00000KT 10SM FEW060 14/11 A3019 RMK AO2 SLP220 T01440106=
200707030953 METAR KPAE 030953Z AUTO 00000KT 10SM CLR 14/11 A3019 RMK AO2 SLP221 T01440106=
200707030853 METAR KPAE 030853Z AUTO 03003KT 10SM CLR 15/11 A3019 RMK AO2 SLP220 T01500111 51003=
200707030753 METAR KPAE 030753Z AUTO 00000KT 10SM BKN060 15/11 A3018 RMK AO2 SLP219 T01500111 402500128=
200707030653 METAR KPAE 030653Z AUTO 02004KT 10SM SCT065 16/11 A3018 RMK AO2 SLP218 T01560111=
200707030553 METAR KPAE 030553Z AUTO 00000KT 10SM CLR 16/10 A3018 RMK AO2 SLP217 T01610100 10250 20156 51014=
200707030453 METAR KPAE 030453Z AUTO 00000KT 10SM CLR 16/09 A3017 RMK AO2 SLP216 T01610094=
200707030353 METAR KPAE 030353Z AUTO 36003KT 10SM CLR 19/10 A3015 RMK AO2 SLP208 T01890100=
200707030253 METAR KPAE 030253Z 25006KT 10SM CLR 22/10 A3014 RMK AO2 SLP203 T02170100 53010=
200707030153 METAR KPAE 030153Z 22006KT 10SM CLR 24/09 A3012 RMK AO2 SLP198 T02390089=
200707030053 METAR KPAE 030053Z 21008KT 10SM CLR 25/09 A3012 RMK AO2 SLP195 T02500094=
200707022353 METAR KPAE 022353Z 18009G14KT 10SM CLR 24/06 A3011 RMK AO2 SLP193 T02440056 10244 20189 58004=
200707022253 METAR KPAE 022253Z 19011G16KT 10SM CLR 24/07 A3012 RMK AO2 SLP196 T02440067=
200707022153 METAR KPAE 022153Z 20008G15KT 10SM SCT200 23/06 A3012 RMK AO2 WSHFT 2045 SLP197 T02280056=
200707022105 SPECI KPAE 022105Z 21009KT 10SM CLR 22/06 A3012 RMK AO2 WSHFT 2045=
200707022105 SPECI KPAE 022105Z 21009KT 10SM CLR 22/06 A3012 RMK AO2 WSHFT 2045=
200707022053 METAR KPAE 022053Z 21011KT 10SM CLR 23/06 A3012 RMK AO2 SLP197 T02280061 53004=
200707021953 METAR KPAE 021953Z 24006KT 10SM CLR 21/09 A3011 RMK AO2 SLP195 T02060089=
200707021853 METAR KPAE 021853Z 26009KT 10SM CLR 19/09 A3011 RMK AO2 SLP196 T01940094=
200707021753 METAR KPAE 021753Z 17007KT 140V200 10SM FEW035 20/10 A3011 RMK AO2 SLP194 T02000100 10206 20139 52002=
200707021653 METAR KPAE 021653Z 24004KT 10SM CLR 17/09 A3011 RMK AO2 SLP194 T01720089=
200707021553 METAR KPAE 021553Z VRB03KT 10SM CLR 16/09 A3010 RMK AO2 SLP192 T01610089=
200707021453 METAR KPAE 021453Z 18006KT 10SM CLR 15/09 A3010 RMK AO2 SLP192 T01500089 52007=
200707021353 METAR KPAE 021353Z 20006KT 10SM CLR 14/08 A3010 RMK AO2 SLP190 T01440083=
200707021253 METAR KPAE 021253Z AUTO 15005KT 10SM SCT038 BKN060 14/09 A3009 RMK AO2 SLP187 T01440089=
200707021153 METAR KPAE 021153Z AUTO 00000KT 10SM OVC042 14/09 A3008 RMK AO2 SLP184 T01390089 10150 20128 50003=
200707021053 METAR KPAE 021053Z AUTO 00000KT 10SM CLR 14/09 A3008 RMK AO2 SLP185 T01390089=
200707020953 METAR KPAE 020953Z AUTO 00000KT 10SM SCT039 14/08 A3008 RMK AO2 SLP183 T01440083=
200707020853 METAR KPAE 020853Z AUTO 04003KT 10SM CLR 15/09 A3007 RMK AO2 SLP181 T01500089 51002=
200707020753 METAR KPAE 020753Z AUTO 02004KT 10SM BKN060 14/09 A3007 RMK AO2 SLP181 T01440089 402280111=
200707020653 METAR KPAE 020653Z AUTO 00000KT 10SM CLR 14/09 A3008 RMK AO2 SLP184 T01440089=
200707020553 METAR KPAE 020553Z AUTO 00000KT 10SM CLR 14/10 A3007 RMK AO2 SLP181 T01390100 10217 20139 52007=
200707020453 METAR KPAE 020453Z AUTO 02004KT 10SM CLR 15/10 A3006 RMK AO2 SLP177 T01500100=
200707020353 METAR KPAE 020353Z AUTO VRB04KT 10SM CLR 15/10 A3006 RMK AO2 SLP177 T01500100=
200707020253 METAR KPAE 020253Z 34004KT 10SM CLR 17/08 A3005 RMK AO2 SLP174 T01720078 53005=
200707020153 METAR KPAE 020153Z 35005KT 10SM CLR 19/11 A3003 RMK AO2 SLP169 T01890106=
200707020053 METAR KPAE 020053Z 34005KT 10SM CLR 19/09 A3003 RMK AO2 SLP168 T01940094=
200707012353 METAR KPAE 012353Z 34004KT 10SM CLR 22/09 A3003 RMK AO2 SLP169 T02170094 10228 20183 55006=
200707012253 METAR KPAE 012253Z AUTO 26005KT 10SM CLR 22/08 A3003 RMK AO2 SLP168 T02220083 TSNO=
200707012153 METAR KPAE 012153Z 31005KT 10SM CLR 22/09 A3004 RMK AO2 SLP170 T02170089=
200707012053 METAR KPAE 012053Z 31005KT 10SM CLR 21/09 A3005 RMK AO2 SLP174 T02060089 56006=
200707011953 METAR KPAE 011953Z 30005KT 10SM CLR 21/08 A3005 RMK AO2 SLP175 T02060083=
200707011853 METAR KPAE 011853Z 31006KT 10SM CLR 19/10 A3006 RMK AO2 SLP178 T01940100=
200707011753 METAR KPAE 011753Z VRB03KT 10SM CLR 19/09 A3007 RMK AO2 SLP181 T01890094 10189 20111 58003=
200707011653 METAR KPAE 011653Z 00000KT 10SM CLR 17/09 A3008 RMK AO2 SLP186 T01720094=
200707011553 METAR KPAE 011553Z 00000KT 10SM CLR 16/08 A3007 RMK AO2 SLP183 T01610083=
200707011453 METAR KPAE 011453Z 00000KT 10SM CLR 14/08 A3008 RMK AO2 SLP184 T01440083 51004=
200707011353 METAR KPAE 011353Z 00000KT 10SM CLR 13/08 A3007 RMK AO2 SLP183 T01330083=
200707011253 METAR KPAE 011253Z AUTO 00000KT 10SM CLR 12/08 A3007 RMK AO2 SLP182 T01170078=
200707011153 METAR KPAE 011153Z AUTO 00000KT 10SM CLR 12/08 A3006 RMK AO2 SLP179 T01220083 10139 20117 53000=
200707011053 METAR KPAE 011053Z AUTO 00000KT 10SM CLR 12/08 A3007 RMK AO2 SLP180 T01170078=
200707010953 METAR KPAE 010953Z AUTO 35003KT 10SM CLR 12/07 A3006 RMK AO2 SLP178 T01220067=
200707010853 METAR KPAE 010853Z AUTO 33004KT 10SM CLR 12/07 A3006 RMK AO2 SLP179 T01220072 58010=
200707010753 METAR KPAE 010753Z AUTO 36003KT 10SM CLR 13/07 A3007 RMK AO2 SLP182 T01280072 402000100=
200707010653 METAR KPAE 010653Z AUTO 35003KT 10SM CLR 13/07 A3009 RMK AO2 SLP188 T01330067=
200707010553 METAR KPAE 010553Z AUTO 34003KT 10SM CLR 14/06 A3009 RMK AO2 SLP189 T01390056 10194 20139 58005=
200707010453 METAR KPAE 010453Z 34004KT 10SM CLR 15/07 A3010 RMK AO2 SLP191 T01500067=
200707010353 METAR KPAE 010353Z 34004KT 10SM CLR 16/07 A3010 RMK AO2 SLP192 T01610072=
200707010253 METAR KPAE 010253Z 33005KT 10SM CLR 17/07 A3011 RMK AO2 SLP194 T01720072 56013=
200707010153 METAR KPAE 010153Z 34007KT 10SM CLR 18/08 A3011 RMK AO2 SLP196 T01830083=
200707010053 METAR KPAE 010053Z 36005KT 10SM CLR 19/07 A3013 RMK AO2 SLP202 T01940072=

# No short TAF reports from KPAE in databse.

###################################
#  large TAF from KPAE
###################################
200707312320 TAF KPAE 312320Z 010024 34009KT P6SM SKC FM0400 35004KT P6SM SKC
                       FM1700 33007KT P6SM SKC=
200707311730 TAF KPAE 311730Z 311818 34007KT P6SM SKC FM0400 35004KT P6SM SKC
                       FM1700 33007KT P6SM SKC=
200707311127 TAF KPAE 311127Z 311212 00000KT P6SM SKC FM1800 33007KT P6SM SKC
                       FM0400 34005KT P6SM SKC=
200707310535 TAF KPAE 310535Z 310606 03006KT P6SM SKC FM1000 36003KT P6SM SKC
                       FM1800 33007KT P6SM SKC FM0400 34005KT P6SM
                       SKC=
200707302344 TAF KPAE 302344Z 310024 35007KT P6SM SKC FM0500 36004KT P6SM SKC
                       FM1400 36003KT P6SM SCT120 FM1800 32006KT
                       P6SM SCT120=
200707301735 TAF KPAE 301735Z 301818 35006KT P6SM SKC FM2000 33007KT P6SM SKC
                       FM0500 36006KT P6SM SKC=
200707301120 TAF KPAE 301120Z 301212 35005KT P6SM SCT060
                      TEMPO 1216 SCT009 BKN060 FM1800 30007KT P6SM
                       FEW060 FM0400 36006KT P6SM SKC=
200707300532 TAF KPAE 300532Z 300606 01004KT P6SM SCT040 BKN070 FM1100 34005KT
                       P6SM SCT009 BKN040
                      TEMPO 1216 BKN009 BKN040 FM1800 30007KT P6SM
                       FEW060 FM0400 36006KT P6SM SKC=
200707292338 TAF KPAE 292338Z 300024 36006KT P6SM BKN035 OVC050 FM0500 35004KT
                       P6SM FEW035 BKN050
                      TEMPO 1216 FEW015 BKN035 FM1700 35006KT P6SM
                       SCT050 NIL AMD=
200707291726 TAF KPAE 291726Z 291818 36005KT P6SM OVC015 FM2000 30006KT P6SM
                       BKN020 BKN035 FM2300 32008KT P6SM SCT035
                       FM0500 35004KT P6SM SCT030
                      TEMPO 1317 BKN030 NIL AMD=
200707291134 TAF KPAE 291134Z 291212 02006KT P6SM SCT010 OVC060
                      TEMPO 1214 5SM -DZ BR BKN010 OVC060 FM1400
                       VRB04KT 5SM -DZ BR OVC010
                      TEMPO 1418 1SM -RA BR OVC005 FM2000 30006KT
                       P6SM BKN025 BKN040 FM2200 32008KT P6SM SCT040
                       FM0500 32008KT P6SM SKC NIL AMD=
200707290520 TAF KPAE 290520Z 290606 02006KT P6SM BKN060
                      TEMPO 0608 SCT060 FM1000 VRB04KT 5SM -DZ
                       BR OVC010
                      TEMPO 1317 1SM -DZ BR OVC005 FM2000 30006KT
                       P6SM BKN025 BKN040 FM2200 32008KT P6SM SCT040
                       NIL AMD=
200707282321 TAF KPAE 282321Z 290024 32005KT P6SM SCT035 FM0600 02006KT P6SM
                       BKN030 FM1000 VRB04KT 5SM -DZ BR OVC010
                       TEMPO 1317 1SM -DZ BR OVC005 FM2000 30006KT
                       P6SM BKN025 BKN040 FM2200 32008KT P6SM SCT040
                       NIL AMD=
200707281733 TAF KPAE 281733Z 281818 18005KT P6SM OVC020 FM2000 25006KT P6SM
                       BKN030 FM2200 32005KT P6SM SCT035 FM0600
                       02006KT P6SM BKN045 FM1000 VRB04KT 5SM -DZ
                       BR OVC010
                      TEMPO 1317 1SM -DZ BR OVC005 NIL AMD=
200707281135 TAF KPAE 281135Z 281212 VRB04KT P6SM SCT006 OVC022
                      TEMPO 1317 BKN006 OVC022 FM1800 23008KT P6SM
                       SCT035
                      TEMPO 1821 BKN035 FM2200 32005KT P6SM SCT035
                       FM0900 02006KT P6SM BKN045 FM1100 02004KT
                       P6SM SCT006 OVC020 NIL AMD=
200707280525 TAF KPAE 280525Z 280606 32004KT P6SM SKC FM1100 18005KT P6SM SCT008
                       SCT030
                      TEMPO 1417 BKN008 OVC030 FM1800 25005KT P6SM
                       SCT035 FM2200 32005KT P6SM SCT035 NIL AMD=
200707272322 TAF KPAE 272322Z 280024 32004KT P6SM SCT200 FM0600 VRB03KT P6SM
                       SCT200 FM1100 18005KT P6SM SCT008 SCT030
                       TEMPO 1417 BKN008 OVC030 FM1800 25005KT
                       P6SM SCT035 FM2200 32005KT P6SM SCT035 NIL
                       AMD=
200707271720 TAF KPAE 271720Z 271818 19005KT P6SM SCT027 FM2000 32006KT P6SM
                       FEW030 FM0600 VRB03KT P6SM SCT030 FM1300
                       VRB03KT P6SM SCT008 BKN030
                      TEMPO 1417 BKN008 OVC030 NIL AMD=
200707271137 TAF KPAE 271137Z 271212 19005KT P6SM BKN026 FM1800 25008KT P6SM
                       SCT030 FM2000 29005KT P6SM SKC FM0600 VRB03KT
                       P6SM SCT035 NIL AMD=
200707270538 TAF KPAE 270538Z 270606 VRB05KT P6SM SCT030 FM0900 VRB05KT P6SM
                       BKN026 FM1300 VRB05KT P6SM OVC018 FM1800
                       25008KT P6SM SCT030 FM2000 29005KT P6SM
                       SKC NIL AMD=
200707262320 TAF KPAE 262320Z 270024 25006KT P6SM SKC FM0400 36007KT P6SM SKC
                       FM1000 VRB05KT P6SM BKN012 FM1300 VRB05KT
                       P6SM OVC012 FM1900 25008KT P6SM SKC NIL
                       AMD=
200707261726 TAF KPAE 261726Z 261818 22005KT P6SM OVC007 FM2000 29007KT P6SM
                       SCT020 FM2100 29007KT P6SM SKC FM1000 22006KT
                       P6SM SCT012 FM1200 19004KT P6SM BKN012
                      TEMPO 1216 3SM BR OVC012 NIL AMD=
200707261138 TAF KPAE 261138Z 261212 VRB04KT P6SM SKC
                      TEMPO 1417 SCT008 FM2100 31007KT P6SM SKC
                       NIL AMD=
200707260528 TAF KPAE 260528Z 260606 35004KT P6SM SKC FM1100 VRB03KT P6SM SCT010
                       FM1700 28006KT P6SM SKC FM2100 31007KT P6SM
                       SKC NIL AMD=
200707252320 TAF KPAE 252320Z 260024 35007KT P6SM SKC FM1100 VRB03KT P6SM SCT010
                       TEMPO 1115 BKN010 FM1700 28007KT P6SM SKC=
200707251720 TAF KPAE 251720Z 251818 33007KT P6SM SKC FM0900 36004KT P6SM SKC
                       FM1700 26006KT P6SM SKC=
200707251154 KPAE 251154Z 251212 00000KT P6SM SKC
                      TEMPO 1214 BKN004 FM1700 34007KT P6SM SKC
                       FM0400 VRB03KT P6SM SKC=
200707251123 TAF KPAE 251123Z 251212 00000KT P6SM SKC FM1700 34007KT P6SM SKC
                       FM0400 VRB03KT P6SM SKC=
200707250520 TAF KPAE 250520Z 250606 35006KT P6SM SKC FM1000 33004KT P6SM SKC
                       FM1600 32005KT P6SM SKC=
200707242320 TAF KPAE 242320Z 250024 33010KT P6SM FEW040 FM0300 36006KT P6SM
                       SKC FM1000 33004KT P6SM SKC FM1600 32005KT
                       P6SM SCT060=
200707241720 TAF KPAE 241720Z 241818 36011KT P6SM FEW025 BKN050 FM2000 33008KT
                       P6SM SCT030 SCT050 FM0400 36006KT P6SM FEW060
                       FM0700 34004KT P6SM SKC=
200707241306 KPAE 241306Z 241312 36005KT P6SM SCT025 BKN045
                      TEMPO 1417 BKN025 BKN045 FM1700 32006KT P6SM
                       SCT035 FM0400 36006KT P6SM SKC=
200707241140 TAF KPAE 241140Z 241212 01006KT P6SM SCT040 OVC060 FM1300 36005KT
                       P6SM VCFG SCT008 OVC030
                      TEMPO 1316 BKN008 OVC030 FM1700 32006KT P6SM
                       SCT035 FM0400 36006KT P6SM SKC=
200707241015 KPAE 241015Z 241006 36005KT P6SM OVC050 FM1300 36005KT P6SM VCFG
                       SCT008 OVC030
                      TEMPO 1316 BKN008 OVC030 FM1700 32006KT P6SM
                       SCT035 FM0400 36006KT P6SM SKC=
200707240540 TAF KPAE 240540Z 240606 36006KT P6SM OVC030
                      TEMPO 0608 SCT030 BKN080 FM0800 33008KT P6SM
                       SCT040 SCT080 FM1300 31005KT P6SM VCFG SCT008
                       FM1700 31006KT P6SM SCT020 FM2000 33008KT
                       P6SM SKC=
200707240247 TAF AMD KPAE 240247Z 240324 35003KT P6SM SCT005 OVC016
                      TEMPO 0305 SCT016 BKN030 OVC050 FM0500 33008KT
                       P6SM SCT040 SCT080 FM1300 31005KT P6SM VCFG
                       SCT008 FM1700 31006KT P6SM SCT020 FM2000
                       33008KT P6SM SKC=
200707240030 TAF AMD KPAE 240030Z 240124 35006KT 6SM BR FEW002 BKN006 OVC025
                       TEMPO 0103 2SM -RA BR BKN002 OVC006 FM0300
                       33008KT P6SM SCT020 BKN040 BKN080 FM0400
                       33008KT P6SM SCT040 SCT080 FM1300 31005KT
                       P6SM VCFG SCT008 FM1700 31006KT P6SM SCT020
                       FM2000 33008KT P6SM SKC=
200707232320 TAF KPAE 232320Z 240024 33008KT P6SM SCT007 BKN025 OVC040
                      TEMPO 0002 BKN007 OVC020 FM0200 33008KT P6SM
                       SCT020 BKN040 BKN080 FM0400 33008KT P6SM
                       SCT040 SCT080 FM1300 31005KT P6SM VCFG SCT008
                       FM1700 31006KT P6SM SCT020 FM2000 33008KT
                       P6SM SKC=
200707232300 KPAE 240247Z 240324 35003KT P6SM SCT005 OVC016
                      TEMPO 0305 SCT016 BKN030 OVC050 FM0500 33008KT
                       P6SM SCT040 SCT080 FM1300 31005KT P6SM VCFG
                       SCT008 FM1700 31006KT P6SM SCT020 FM2000
                       33008KT P6SM SKC=
200707232029 KPAE 232029Z 232018 29007KT P6SM SCT003 OVC025
                      TEMPO 2022 2SM BR BKN003 OVC020 FM2200 30008KT
                       P6SM SCT030 BKN080
                      TEMPO 2223 BKN025 BKN080 FM0000 32008KT P6SM
                       SCT040 BKN080 FM0600 34008KT P6SM BKN080
                       FM1300 31005KT P6SM VCFG SCT008 SCT080=
200707231809 KPAE 231809Z 231818 28005KT 3SM BR BKN005 BKN010 OVC035
                      TEMPO 1820 P6SM NSW BKN015 BKN035 FM2000
                       29007KT P6SM BKN020 OVC040
                      TEMPO 2022 SCT020 BKN040 FM2200 30008KT P6SM
                       SCT030 BKN080 FM0000 32008KT P6SM SCT040
                       BKN080 FM0600 34008KT P6SM BKN080 FM1300
                       31005KT P6SM VCFG SCT008 SCT080=
200707231720 TAF KPAE 231720Z 231818 28005KT P6SM BKN010 OVC035
                      TEMPO 1820 SCT010 BKN035 FM2000 29007KT P6SM
                       BKN020 OVC040
                      TEMPO 2022 SCT020 BKN040 FM2200 30008KT P6SM
                       SCT030 BKN080 FM0000 32008KT P6SM SCT040
                       BKN080 FM0600 34008KT P6SM BKN080 FM1300
                       31005KT P6SM VCFG SCT008 SCT080=
200707231422 KPAE 231422Z 231412 VRB03KT 1/4SM FG OVC002 FM1500 VRB03KT 3SM
                       BR SCT002 OVC020
                      TEMPO 1517 1SM -DZ BR BKN002 OVC015 FM1700
                       25005KT P6SM BKN010 BKN050 FM1900 27007KT
                       P6SM BKN020 BKN060 FM2100 30008KT P6SM SCT030
                       BKN080 FM0400 34008KT P6SM SCT080=
200707231120 TAF KPAE 231120Z 231212 VRB03KT 5SM BR SCT002 BKN006 OVC015
                      TEMPO 1216 1SM -DZ BR BKN002 OVC006 FM1700
                       25005KT P6SM BKN010 BKN050 FM1900 27007KT
                       P6SM BKN020 BKN060 FM2100 30008KT P6SM SCT030
                       BKN080 FM0400 34008KT P6SM SCT080=
200707231011 KPAE 231011Z 231006 00000KT 5SM BR VCSH BKN005 OVC030
                      TEMPO 1014 2SM BR OVC003 FM1400 VRB03KT P6SM
                       BKN010 OVC040 FM1900 27007KT P6SM SCT030
                       BKN050 FM0000 30008KT P6SM SCT050 BKN080=
200707230520 TAF KPAE 230520Z 230606 VRB04KT P6SM SCT015 OVC070
                      TEMPO 0610 -RA BKN015 OVC050 FM1000 30005KT
                       P6SM VCSH BKN025 BKN050 FM1800 30008KT P6SM
                       SCT030 BKN050 FM0000 30008KT P6SM SCT050=
200707222335 TAF KPAE 222335Z 230024 15008KT P6SM VCSH SCT045 OVC100
                      TEMPO 0004 -RA BKN040 OVC070 FM1000 01005KT
                       P6SM OVC025 FM1800 31006KT P6SM BKN030=
200707221731 TAF KPAE 221731Z 221818 16012G17KT P6SM VCSH SCT014 BKN045 OVC080
                       TEMPO 1822 -RA BKN014 OVC045 FM2200 19010KT
                       P6SM VCSH BKN040 BKN080 FM1000 01005KT P6SM
                       OVC025=
200707221515 KPAE 221515Z 221512 15010KT 5SM -RA BR SCT015 OVC030
                      TEMPO 1518 2SM RA BR BKN004 OVC015 FM2200
                       23010KT P6SM VCSH BKN040 BKN080=
200707221120 TAF KPAE 221120Z 221212 15010KT 5SM -RA BR SCT015 OVC030
                      TEMPO 1216 2SM RA BR OVC015 FM2200 23010KT
                       P6SM VCSH BKN040 BKN080=
200707221021 KPAE 221021Z 221006 15012KT 5SM -RA BR SCT015 BKN025 OVC050
                      TEMPO 1014 2SM RA BR OVC015 FM2200 23010KT
                       P6SM -SHRA BKN040 BKN080=
200707220520 TAF KPAE 220520Z 220606 15015G25KT P6SM -RA BKN040 OVC080
                      TEMPO 0610 5SM RA BR OVC030 FM1000 18015G25KT
                       P6SM -RA BKN025 OVC050 FM2200 23010KT P6SM
                       -SHRA BKN040 BKN080=
200707212320 TAF KPAE 212320Z 220024 17011G18KT P6SM SCT035 BKN060 OVC100
                      TEMPO 0004 -RA BKN035 OVC060 FM0400 15012G18KT
                       P6SM -RA BKN030 OVC060 FM0800 15014G22KT
                       P6SM -RA SCT008 BKN020 OVC035
                      TEMPO 1418 3SM RA BR BKN008 OVC018 FM1800
                       18012KT P6SM -RA BKN014 OVC025=
200707211739 TAF KPAE 211739Z 211818 18010KT P6SM VCSH SCT025 BKN050 OVC090
                       TEMPO 1822 BKN025 OVC050 FM0400 15012KT
                       P6SM -RA BKN030 OVC060 FM0800 15014G22KT
                       P6SM -RA SCT008 BKN020 OVC035
                      TEMPO 1418 3SM RA BR BKN008 OVC018=
200707211201 KPAE 211201Z 211212 16006KT P6SM SCT035 BKN080 BKN120
                      TEMPO 1216 -SHRA BKN035 OVC080 FM0400 16010KT
                       P6SM -RA BKN040 OVC080=
200707211120 TAF KPAE 211120Z 211212 16006KT P6SM SCT040 BKN080 BKN120 FM0400
                       16010KT P6SM -RA BKN040 OVC080=
200707210929 KPAE 210929Z 210906 15008KT P6SM SCT030 BKN070 BKN120 FM0500 16012KT
                       P6SM -RA BKN040 OVC070=
200707210520 TAF KPAE 210520Z 210606 18015KT P6SM SCT025 BKN080
                      TEMPO 0610 4SM -SHRA BR BKN025 OVC050 FM1000
                       18012KT P6SM VCSH BKN025 BKN050 FM1800 VRB03KT
                       P6SM SCT040 BKN120 FM0400 16012KT P6SM -RA
                       BKN040 OVC080=
200707202336 TAF KPAE 202336Z 210024 17008KT P6SM -RA BKN015 BKN025 OVC030
                      TEMPO 0004 SCT020 OVC035 FM0400 20011KT P6SM
                       -SHRA BKN030 FM1200 19005KT P6SM OVC025
                       FM1800 18006KT P6SM VCSH BKN025 BKN050=
200707201916 KPAE 201916Z 201918 17007KT 4SM RA BR BKN009 BKN030 OVC060
                      TEMPO 1922 -RA BKN020 OVC050 FM2200 16012KT
                       P6SM -RA BKN020 OVC040 FM0400 20011KT P6SM
                       -SHRA BKN030=
200707201733 TAF KPAE 201733Z 201818 15005KT P6SM -RA SCT020 BKN050 OVC090
                      TEMPO 1822 -RA BKN020 OVC050 FM2200 16012KT
                       P6SM -RA BKN020 OVC040 FM0400 20011KT P6SM
                       -SHRA BKN030=
200707201120 TAF KPAE 201120Z 201212 15005KT P6SM SCT050 OVC090 FM1700 16010KT
                       P6SM OVC050
                      TEMPO 1721 -RA FM2100 16014KT P6SM -RA OVC040
                       FM0400 21012KT P6SM -SHRA BKN030=
200707200528 TAF KPAE 200528Z 200606 18006KT P6SM SCT040 BKN100 FM1200 16010KT
                       P6SM OVC090 FM1800 16014KT P6SM OVC050 FM2100
                       17015KT 5SM -RA BR OVC015 FM0400 21010KT
                       P6SM -SHRA BKN030=
200707192330 TAF KPAE 192330Z 200024 19013G20KT P6SM VCSH BKN050 BKN090 FM0300
                       17008KT P6SM SCT035 SCT070 FM0800 15010KT
                       P6SM SCT015 BKN120 FM1500 15012KT P6SM OVC090
                       FM1800 16012KT P6SM OVC050 FM2200 17012G22KT
                       P6SM -RA OVC015=
200707192056 KPAE 192056Z 192118 19011G18KT P6SM VCSH BKN035 BKN045
                      TEMPO 2123 2SM TSRA BKN020CB OVC045 FM2300
                       19010KT P6SM -SHRA BKN035 OVC050 FM0300
                       17008KT P6SM SCT035 SCT070 FM0800 15010KT
                       P6SM SCT015 BKN120 FM1500 15012KT P6SM OVC090=
200707191729 TAF KPAE 191729Z 191818 19010KT P6SM SCT020 SCT040 BKN200
                      TEMPO 1922 5SM -SHRA BKN020 OVC035 FM2200
                       19010KT P6SM -SHRA BKN035 OVC050 FM0300
                       17008KT P6SM SCT035 SCT070 FM0800 15010KT
                       P6SM SCT015 BKN120 FM1500 15012KT P6SM OVC090=
200707191120 TAF KPAE 191120Z 191212 18008KT P6SM SCT020 BKN050 BKN100 FM1900
                       18008KT P6SM -SHRA BKN040 BKN080=
200707190520 TAF KPAE 190520Z 190606 18008KT P6SM SCT012 OVC020
                      TEMPO 0610 BKN012 OVC020 FM1000 24003KT P6SM
                       VCSH BKN020 OVC040 FM1800 24008KT P6SM -SHRA
                       BKN035 BKN050=
200707190000 TAF AMD KPAE 190000Z 190024 18011G17KT P6SM SCT008 SCT013 OVC020
                       TEMPO 0004 5SM -SHRA BR BKN008 OVC013 FM0400
                       18005KT P6SM -SHRA BKN015 OVC030 FM0700
                       VRB03KT P6SM VCSH BKN008 OVC025 FM1900 18006KT
                       P6SM -SHRA BKN030 BKN050=
200707182320 TAF KPAE 182320Z 190024 23004KT 3SM -RA BR SCT001 OVC009
                      TEMPO 0004 2SM RA BR FM0400 VRB03KT P6SM
                       -SHRA BKN015 OVC030 FM0700 VRB03KT P6SM
                       VCSH BKN008 OVC025 FM1900 18006KT P6SM -SHRA
                       BKN030 BKN050=
200707182300 KPAE 190000Z 190024 18011G17KT P6SM SCT008 SCT013 OVC020
                      TEMPO 0004 5SM -SHRA BR BKN008 OVC013 FM0400
                       18005KT P6SM -SHRA BKN015 OVC030 FM0700
                       VRB03KT P6SM VCSH BKN008 OVC025 FM1900 18006KT
                       P6SM -SHRA BKN030 BKN050=
200707181723 TAF KPAE 181723Z 181818 33003KT 5SM -RA BR OVC003
                      TEMPO 1923 2SM RA BR FM2300 VRB03KT 5SM -RA
                       BR BKN005 OVC020
                      TEMPO 2303 2SM RA BR FM0300 VRB03KT P6SM
                       -SHRA BKN015 OVC030 FM0700 VRB03KT P6SM
                       VCSH BKN008 OVC025=
200707181350 KPAE 181350Z 181412 34004KT P6SM -SHRA SCT002 BKN045 OVC110
                      TEMPO 1519 5SM -SHRA BR BKN002 OVC020 FM1900
                       36005KT P6SM -SHRA SCT002 BKN025 OVC045
                       TEMPO 2024 3SM SHRA BR BKN005 OVC020 FM0000
                       25004KT P6SM -SHRA BKN025 OVC045 FM0300
                       VRB04KT P6SM SCT040 BKN080=
200707181207 KPAE 181207Z 181212 02004KT P6SM -SHRA SCT060 OVC080
                      TEMPO 1519 BKN060 OVC080 FM1900 36005KT P6SM
                       -SHRA BKN025 OVC045
                      TEMPO 2024 5SM SHRA BR BKN012 OVC020 FM0000
                       25004KT P6SM -SHRA BKN025 OVC045 FM0300
                       VRB04KT P6SM SCT040 BKN080=
200707181120 TAF KPAE 181120Z 181212 02004KT P6SM VCSH FEW030 OVC100 FM1500
                       35005KT P6SM VCSH SCT060 OVC080
                      TEMPO 1719 -SHRA BKN060 OVC080 FM1900 36005KT
                       P6SM -SHRA BKN025 OVC045
                      TEMPO 2024 5SM SHRA BR BKN012 OVC020 FM0000
                       25004KT P6SM -SHRA BKN025 OVC045 FM0300
                       VRB04KT P6SM SCT040 BKN080=
200707180534 TAF KPAE 180534Z 180606 VRB03KT P6SM SCT025 BKN140 BKN200
                      TEMPO 0609 BKN025 OVC140 FM1200 36005KT P6SM
                       VCSH SCT040 OVC100 FM1500 36005KT P6SM VCSH
                       SCT030 BKN060 OVC080
                      TEMPO 1718 -SHRA BKN030 OVC060 FM1800 VRB04KT
                       P6SM -SHRA BKN020 OVC040
                      TEMPO 1923 5SM -SHRA BR BKN009 OVC015 FM0100
                       24006KT P6SM SCT020 BKN060 BKN140=
200707172320 TAF KPAE 172320Z 180024 28006KT P6SM SCT022 BKN100 BKN200
                      TEMPO 0002 -RA BKN025 OVC100 FM0600 VRB03KT
                       P6SM BKN050 BKN100 FM1800 VRB03KT 5SM -RA
                       BR BKN015 OVC040=
200707172249 KPAE 172249Z 172318 29003KT P6SM SCT022 SCT060 BKN110
                      TEMPO 2302 -RA BKN022 BKN060 OVC110 FM0200
                       36005KT P6SM BKN060 BKN110=
200707171720 TAF KPAE 171720Z 171818 VRB03KT P6SM SCT050 OVC090 FM1900 32005KT
                       P6SM -RA SCT020 OVC050
                      TEMPO 2024 5SM -RA BR BKN020 OVC050 FM0000
                       32005KT P6SM -RA SCT020 OVC050
                      TEMPO 0002 5SM -RA BR BKN020 OVC050 FM0600
                       36005KT P6SM BKN050 BKN150=
200707171645 KPAE 171645Z 171712 VRB03KT P6SM SCT050 OVC090 FM1900 32005KT P6SM
                       -RA SCT020 OVC050
                      TEMPO 2024 5SM -RA BR BKN020 OVC050 FM0000
                       32005KT P6SM -RA SCT020 OVC050
                      TEMPO 0002 5SM -RA BR BKN020 OVC050 FM0600
                       36005KT P6SM BKN050 BKN150=
200707171120 TAF KPAE 171120Z 171212 36004KT P6SM SCT050 OVC100
                      TEMPO 1215 -SHRA FM1500 VRB03KT P6SM SCT050
                       OVC090
                      TEMPO 1518 -SHRA FM1800 32005KT P6SM SCT050
                       BKN100 OVC200 FM0000 34005KT P6SM SCT050
                       BKN150 FM0600 36005KT P6SM BKN050 BKN150=
200707170540 TAF KPAE 170540Z 170606 36005KT P6SM FEW050 BKN140 OVC200 FM0900
                       VRB03KT P6SM SCT050 BKN120 FM1500 22005KT
                       P6SM SCT070 BKN120 FM1800 25005KT P6SM VCSH
                       BKN060 OVC100 FM2300 30005KT P6SM BKN040
                       OVC060
                      PROB30 2305 -SHRA=
200707162320 TAF KPAE 162320Z 170024 35007KT P6SM SCT050 SCT120 BKN200 FM1100
                       VRB04KT P6SM SCT020 SCT050 BKN120 FM1500
                       22004KT P6SM BKN050 OVC100 FM2000 33007KT
                       P6SM SCT040 BKN050 OVC120=
200707161723 TAF KPAE 161723Z 161818 26005KT P6SM SCT050 BKN100 BKN200 FM2100
                       33006KT P6SM SCT050 BKN120 BKN200 FM0100
                       35007KT P6SM SCT120 BKN200 FM1100 VRB04KT
                       P6SM SCT020 SCT050 BKN120 FM1500 22004KT
                       P6SM BKN050 OVC100=
200707161120 TAF KPAE 161120Z 161212 36003KT P6SM BKN050 BKN200 FM1500 VRB03KT
                       P6SM BKN045 BKN070 BKN200 FM1900 26005KT
                       P6SM SCT050 BKN120 BKN200 FM2100 33006KT
                       P6SM BKN110 BKN200 FM0100 35007KT P6SM SCT120
                       BKN200=
200707160756 KPAE 160756Z 160806 VRB03KT P6SM BKN050 BKN200 FM1800 24006KT P6SM
                       SCT120 BKN200 FM2100 31006KT P6SM SCT120
                       BKN200=
200707160532 TAF KPAE 160532Z 160606 VRB03KT P6SM BKN200 FM1400 VRB03KT P6SM
                       SCT030 SCT050 BKN200 FM1800 24006KT P6SM
                       SCT120 BKN200 FM2100 31006KT P6SM SCT120
                       BKN200=
200707152335 TAF KPAE 152335Z 160024 19010KT P6SM SCT040 BKN070 BKN200 FM0100
                       31008KT P6SM SCT040 BKN070 BKN200 FM0600
                       02004KT P6SM SCT080 BKN200
                      TEMPO 1115 SCT004 FM1700 31007KT P6SM SCT080
                       BKN200=
200707151734 TAF KPAE 151734Z 151818 20012KT P6SM VCSH SCT035 OVC060
                      TEMPO 1822 BKN035 OVC050 FM2200 30006KT P6SM
                       SCT060 BKN130
                      TEMPO 2224 BKN060 BKN130 FM0600 02004KT P6SM
                       SCT080 BKN200
                      TEMPO 1115 SCT004=
200707151126 TAF KPAE 151126Z 151212 16007KT P6SM SCT060 BKN140 FM1600 18006KT
                       P6SM VCSH BKN060 BKN140 FM1800 19006KT P6SM
                       VCSH SCT030 BKN050 FM2300 30006KT P6SM BKN060
                       BKN200=
200707150531 TAF KPAE 150531Z 150606 VRB03KT P6SM SCT110 BKN160 FM1200 17004KT
                       P6SM SCT050 BKN140 FM1800 19006KT P6SM SCT050
                       BKN120 FM2100 24006KT P6SM SCT050 BKN200
                       FM0000 32006KT P6SM SCT050 BKN200 FM0300
                       34006KT P6SM BKN050 BKN200=
200707142330 TAF KPAE 142330Z 150024 32006KT P6SM SCT070 BKN130 BKN250 FM0400
                       36006KT P6SM SCT070 BKN130 BKN250 FM1000
                       14006KT P6SM BKN080 BKN150
                      TEMPO 1214 SCT006 BKN080 FM2000 32008KT P6SM
                       BKN080 BKN150=
200707141731 TAF KPAE 141731Z 141818 VRB04KT P6SM SCT130 BKN200 FM2100 30006KT
                       P6SM BKN130 BKN200 FM1000 VRB04KT P6SM SCT100
                       TEMPO 1214 SCT006=
200707141120 TAF KPAE 141120Z 141212 VRB03KT P6SM SCT007 SCT180 FM1700 25005KT
                       P6SM FEW015 SCT180 FM1900 30006KT P6SM SCT150
                       FM2300 34006KT P6SM SCT150=
200707140520 TAF KPAE 140520Z 140606 VRB03KT P6SM SCT100 SCT180 FM1200 17004KT
                       P6SM OVC006 FM1700 25005KT P6SM SCT015 SCT100
                       FM1900 30007KT P6SM SCT100=
200707132338 TAF KPAE 132338Z 140024 25009KT P6SM SCT030 SCT180
                      TEMPO 0004 32006KT FM0400 VRB04KT P6SM SKC
                       FM1200 17004KT P6SM OVC005 FM1800 22007KT
                       P6SM BKN009 OVC015 FM2000 30007KT P6SM SCT035=
200707131734 TAF KPAE 131734Z 131818 18010KT P6SM -RA VCTS OVC010 FM1900 VRB03KT
                       P6SM VCTS BKN013 OVC050CB FM2100 32005KT
                       P6SM SCT060 SCT120 FM0500 VRB03KT P6SM SCT060
                       SCT120 FM1200 17004KT P6SM OVC005=
200707131655 KPAE 131655Z 131712 VRB04KT P6SM OVC010
                      TEMPO 1718 TSRAGS BKN012 OVC050CB FM1800
                       VRB03KT P6SM VCTS SCT010 BKN050CB BKN100
                       FM2100 32005KT P6SM SCT060 SCT120 FM0500
                       VRB03KT P6SM SCT060 SCT120=
200707131249 KPAE 131249Z 131312 18008KT P6SM VCTS SCT004 BKN016 BKN050CB FM1800
                       VRB03KT P6SM VCTS SCT010 BKN050CB BKN100
                       FM2100 32005KT P6SM SCT060 SCT120 FM0500
                       VRB03KT P6SM SCT060 SCT120=
200707131153 KPAE 131153Z 131212 18008KT P6SM VCTS BKN004 BKN050CB OVC110 FM1800
                       VRB03KT P6SM VCTS SCT010 BKN050CB BKN100
                       FM2100 32005KT P6SM SCT060 SCT120 FM0500
                       VRB03KT P6SM SCT060 SCT120=
200707131120 TAF KPAE 131120Z 131212 00000KT P6SM -TSRA SCT008 BKN050CB BKN100
                       FM1400 VRB03KT P6SM VCTS BKN008 BKN050CB
                       BKN100 FM1800 VRB03KT P6SM VCTS SCT010 BKN050CB
                       BKN100 FM2100 32005KT P6SM SCT060 SCT120
                       FM0500 VRB03KT P6SM SCT060 SCT120=
200707130520 TAF KPAE 130520Z 130606 36007KT P6SM SKC FM0900 17008KT P6SM VCTS
                       SCT060CB BKN140 FM1300 17008KT P6SM BKN060
                       BKN120 FM2200 32006KT P6SM SCT060 SCT120=
200707122330 TAF KPAE 122330Z 130024 31006KT P6SM FEW090 SCT140 FM0600 VRB03KT
                       P6SM FEW090 SCT140 FM1000 17008KT P6SM SCT006
                       SCT090CB BKN140
                      TEMPO 1014 BKN006 BKN090CB BKN140 FM1400
                       17008KT P6SM BKN006 OVC090CB
                      PROB30 1418 -SHRA FM1800 19008KT P6SM BKN011
                       BKN060 BKN120 FM2000 23008KT P6SM SCT060
                       SCT120=
200707121725 TAF KPAE 121725Z 121818 25006KT P6SM BKN140 OVC250 FM2300 31006KT
                       P6SM FEW090 SCT140 SCT250 FM0600 VRB03KT
                       P6SM FEW090 SCT140 SCT250 FM1400 17006KT
                       P6SM BKN006 BKN090 BKN140=
200707121338 KPAE 121338Z 121412 18008KT P6SM SCT008 BKN200 FM1900 21007KT P6SM
                       BKN140 BKN200 FM2300 32005KT P6SM SCT140
                       BKN200 FM0500 18005KT P6SM SCT140 BKN200
                       FM0900 18005KT P6SM BKN012 BKN080CB
                      PROB30 0912 -TSRA=
200707121120 TAF KPAE 121120Z 121212 18008KT P6SM SCT008 BKN200
                      TEMPO 1317 BKN008 BKN200 FM1800 21007KT P6SM
                       SCT140 BKN200 FM2300 32005KT P6SM SCT140
                       BKN200 FM0500 18005KT P6SM SCT140 BKN200
                       FM0900 18005KT P6SM BKN012 BKN080CB
                      PROB30 0912 -TSRA=
200707120520 TAF KPAE 120520Z 120606 VRB03KT P6SM SCT250 FM1000 17005KT P6SM
                       FEW140 BKN250 FM1200 17005KT P6SM SCT002
                       SCT140 BKN250
                      TEMPO 1317 2SM BR BKN002 BKN140 OVC250 FM1800
                       21007KT P6SM SCT140 BKN250 FM2300 32005KT
                       P6SM SCT140 BKN250=
200707112332 TAF KPAE 112332Z 120024 33007KT P6SM SCT250 FM0500 VRB03KT P6SM
                       BKN250 FM1000 17005KT P6SM FEW140 BKN250
                       FM1200 17005KT P6SM FEW002 FEW140 BKN250
                       FM1800 21007KT P6SM SCT140 BKN250=
200707111736 TAF KPAE 111736Z 111818 33007KT P6SM BKN250 FM0500 VRB03KT P6SM
                       SCT140 BKN250 FM1000 17005KT P6SM SCT140
                       BKN250=
200707111120 TAF KPAE 111120Z 111212 02004KT P6SM SKC FM1800 32006KT P6SM SKC
                       FM2200 VRB03KT P6SM SKC=
200707110520 TAF KPAE 110520Z 110606 00000KT P6SM SKC FM1800 32006KT P6SM SKC
                       FM2200 VRB03KT P6SM SKC=
200707102327 TAF KPAE 102327Z 110024 35011KT P6SM SKC FM0400 02005KT P6SM SKC
                       FM1800 32006KT P6SM SKC=
200707101723 TAF KPAE 101723Z 101818 34012KT P6SM SKC FM0300 01005KT P6SM SKC=
200707101652 KPAE 101652Z 101712 36010KT P6SM SKC FM2000 34012KT P6SM SKC FM0300
                       01005KT P6SM SKC=
200707101120 TAF KPAE 101120Z 101212 35003KT P6SM SKC FM2000 34012KT P6SM SKC
                       FM0300 01005KT P6SM SKC=
200707100520 TAF KPAE 100520Z 100606 36003KT P6SM SKC FM2000 34012KT P6SM SKC
                       FM0300 01005KT P6SM SKC=
200707100326 TAF AMD KPAE 100326Z 100324 34005KT P6SM SKC FM0400 36008KT P6SM
                       SKC FM2000 34012KT P6SM SKC=
200707092356 TAF KPAE 092356Z 100024 33007G15KT P6SM SKC FM0400 35007KT P6SM
                       SKC FM0700 36004KT P6SM SKC FM2000 34008KT
                       P6SM SKC=
200707092300 KPAE 100326Z 100324 34005KT P6SM SKC FM0400 36008KT P6SM SKC FM2000
                       34012KT P6SM SKC=
200707091724 TAF KPAE 091724Z 091818 35007G14KT P6SM SCT015
                      TEMPO 1819 BKN015 FM2000 34012KT P6SM SKC
                       FM0500 02005KT P6SM SKC=
200707091628 KPAE 091628Z 091612 36004KT P6SM SCT015
                      TEMPO 1618 BKN015 FM1800 35010KT P6SM SKC
                       FM0500 02005KT P6SM SKC=
200707091120 TAF KPAE 091120Z 091212 36004KT P6SM SCT015
                      TEMPO 1216 BKN015 FM1800 35010KT P6SM SKC
                       FM0500 02005KT P6SM SKC=
200707090520 TAF KPAE 090520Z 090606 36006KT P6SM SCT250 FM1200 36004KT P6SM
                       SCT015
                      TEMPO 1216 BKN015 FM1800 33008KT P6SM SCT250=
200707082330 TAF KPAE 082330Z 090024 32006KT P6SM SCT080 FM0300 32007KT P6SM
                       SCT250 FM1200 32004KT P6SM SCT015
                      TEMPO 1216 BKN015 FM1800 33008KT P6SM SCT250=
200707081724 TAF KPAE 081724Z 081818 28006KT P6SM BKN070 FM2200 30007KT P6SM
                       SCT060 SCT160 FM0300 34006KT P6SM SCT060
                       SCT160 FM1000 32004KT P6SM BKN015=
200707081305 KPAE 081305Z 081312 VRB04KT P6SM BKN080 FM1700 18005KT P6SM SCT080
                       BKN180 FM2000 23008KT P6SM SCT060 SCT160
                       FM0300 34006KT P6SM SCT060 SCT160 FM1000
                       VRB04KT P6SM BKN015=
200707081120 TAF KPAE 081120Z 081212 16005KT P6SM SCT010 BKN080 BKN200 FM1300
                       17006KT P6SM BKN009 BKN180
                      TEMPO 1316 4SM BR FM1700 18005KT P6SM SCT012
                       BKN180 FM2000 23008KT P6SM SCT060 SCT160
                       FM0300 34006KT P6SM SCT060 SCT160 FM1000
                       VRB04KT P6SM BKN015=
200707080520 TAF KPAE 080520Z 080606 VRB05KT P6SM BKN250 FM1100 16005KT P6SM
                       SCT010 BKN200 FM1300 17006KT P6SM BKN009
                       BKN180 FM1700 18005KT P6SM SCT012 BKN180
                       FM2000 23008KT P6SM SCT060 SCT160 FM0300
                       34006KT P6SM SCT060 SCT160=
200707072326 TAF KPAE 072326Z 080024 29006KT P6SM BKN250 FM0400 VRB05KT P6SM
                       BKN250 FM1100 16005KT P6SM SCT013 BKN200
                       FM1400 17006KT P6SM BKN011 BKN200 FM1700
                       18005KT P6SM SCT012 BKN160=
200707071731 TAF KPAE 071731Z 071818 27005KT P6SM SKC FM2000 31008KT P6SM SKC
                       FM0200 03005KT P6SM SKC FM1100 16005KT P6SM
                       SCT010 FM1400 17006KT P6SM BKN008 FM1700
                       18005KT P6SM SCT012 BKN160=
200707071536 KPAE 071536Z 071612 VRB05KT P6SM VCFG SKC FM2000 31008KT P6SM SKC
                       FM0200 03005KT P6SM SKC FM1000 16005KT P6SM
                       SCT012=
200707071155 KPAE 071155Z 071212 35005KT P6SM SCT001 BKN008
                      TEMPO 1216 1SM BR OVC002 FM1700 34006KT P6SM
                       SKC FM2000 31008KT P6SM SKC FM0200 03005KT
                       P6SM SKC FM1000 16005KT P6SM SCT012=
200707071120 TAF KPAE 071120Z 071212 36005KT P6SM SCT012
                      TEMPO 1216 4SM BR BKN012 FM1700 34006KT P6SM
                       SKC FM2000 31008KT P6SM SKC FM0200 03005KT
                       P6SM SKC FM1000 16005KT P6SM SCT012=
200707070520 TAF KPAE 070520Z 070606 36008KT P6SM SKC FM1100 32005KT P6SM SCT010
                       FM1700 34006KT P6SM SKC FM0200 03004KT P6SM
                       SKC=
200707062320 TAF KPAE 062320Z 070024 35009G15KT P6SM SKC FM0300 36008KT P6SM
                       SKC FM1100 32005KT P6SM SCT010 FM1700 34006KT
                       P6SM SKC=
200707061731 TAF KPAE 061731Z 061818 36006KT P6SM SKC FM2100 32008KT P6SM SKC
                       FM0300 36008KT P6SM SKC FM1100 32005KT P6SM
                       SCT010=
200707061557 KPAE 061557Z 061612 01005KT P6SM SKC FM1900 32008KT P6SM SKC FM0100
                       36008KT P6SM SKC=
200707061120 TAF KPAE 061120Z 061212 VRB04KT P6SM SCT004
                      TEMPO 1215 4SM BR BKN004 FM1500 VRB03KT P6SM
                       OVC004 FM1700 28006KT P6SM SCT009 FM1900
                       32008KT P6SM SKC FM0100 36008KT P6SM SKC=
200707060520 TAF KPAE 060520Z 060606 01008KT P6SM SCT250 FM1200 VRB04KT P6SM
                       SCT004
                      TEMPO 1216 4SM BR BKN004 FM1600 VRB03KT P6SM
                       SCT009 FM1800 28006KT P6SM SKC FM2000 32008KT
                       P6SM SKC FM0100 36008KT P6SM SKC=
200707052320 TAF KPAE 052320Z 060024 36010KT P6SM BKN250
                      TEMPO 0004 36012G22KT FM0600 01006KT P6SM
                       SCT250 FM1200 VRB03KT 4SM BR SCT004
                      TEMPO 1215 BKN004 FM1500 VRB03KT P6SM BKN009
                       FM1800 28006KT P6SM SCT018 FM1900 33008KT
                       P6SM SKC=
200707051739 TAF KPAE 051739Z 051818 35010KT P6SM SKC
                      TEMPO 0004 35012G22KT FM0600 01006KT P6SM
                       SKC FM1200 VRB03KT 6SM BR SCT004
                      TEMPO 1215 BKN004 FM1500 VRB03KT P6SM OVC009=
200707051140 TAF KPAE 051140Z 051212 VRB04KT P6SM SKC FM1600 35006KT P6SM SKC
                       FM1900 33010KT P6SM SKC FM0500 35006KT P6SM
                       SCT200=
200707050520 TAF KPAE 050520Z 050606 36008KT P6SM SKC FM1200 35006KT P6SM SKC
                       FM1600 35006KT P6SM SKC FM1900 33010KT P6SM
                       SKC=
200707042320 TAF KPAE 042320Z 050024 35010KT P6SM SKC FM0400 35006KT P6SM SKC
                       FM1200 35006KT P6SM VCFG FEW001 FM1600 35006KT
                       P6SM SKC FM1900 33010KT P6SM SKC=
200707041725 TAF KPAE 041725Z 041818 32008KT P6SM SKC FM2300 35011KT P6SM SKC
                       FM0400 35006KT P6SM SKC FM1200 35006KT P6SM
                       VCFG FEW001 FM1600 35006KT P6SM SKC=
200707041120 TAF KPAE 041120Z 041212 35007KT P6SM SKC=
200707040520 TAF KPAE 040520Z 040606 35009KT P6SM SKC FM0900 02006KT P6SM SKC
                       FM1900 33008KT P6SM SKC=
200707032326 TAF KPAE 032326Z 040024 35009KT P6SM FEW090 SCT200 FM0600 01006KT
                       P6SM SKC FM1900 32008KT P6SM SKC=
200707031722 TAF KPAE 031722Z 031818 28007KT P6SM FEW090 BKN130 FM2100 32007KT
                       P6SM FEW090 SCT130 FM0600 01005KT P6SM SKC=
200707031431 KPAE 031431Z 031512 VRB04KT P6SM FEW090 BKN130 FM1800 20008KT P6SM
                       FEW070 BKN130 FM2200 25007KT P6SM SCT120
                       SCT200 FM0400 36006KT P6SM FEW200=
200707031124 TAF KPAE 031124Z 031212 VRB04KT P6SM SCT060 FM1800 20008KT P6SM
                       FEW070 SCT150 FM2200 25007KT P6SM SCT120
                       SCT200 FM0400 36006KT P6SM FEW200=
200707030520 TAF KPAE 030520Z 030606 VRB04KT P6SM FEW080 SCT110 BKN200 FM1200
                       14006KT P6SM FEW010 SCT080 BKN110 FM1800
                       20008KT P6SM FEW070 SCT110 BKN200 FM2200
                       25007KT P6SM SCT120 SCT200=
200707022323 TAF KPAE 022323Z 030024 20009KT P6SM SCT070 SCT110 BKN200
                      TEMPO 0206 SCT070 BKN110 OVC200 FM0600 VRB04KT
                       P6SM SCT070 SCT110 BKN200 FM1200 14006KT
                       P6SM FEW004 SCT070 BKN110 FM1800 20008KT
                       P6SM FEW070 SCT110 BKN200=
200707021720 TAF KPAE 021720Z 021818 20008KT P6SM FEW070 SCT110 BKN200 FM0600
                       VRB03KT P6SM SCT110 BKN200 FM1200 VRB03KT
                       P6SM FEW004 SCT110 BKN200=
200707021507 KPAE 021507Z 021512 18006KT P6SM FEW040 SCT110 BKN200 FM1800 19008KT
                       P6SM SCT110 BKN200 FM2200 23009KT P6SM SCT050
                       BKN100 FM0600 VRB05KT P6SM BKN040=
200707021125 TAF KPAE 021125Z 021212 16008KT P6SM BKN040 BKN060 FM1800 19008KT
                       P6SM SCT070 BKN130 FM2200 23009KT P6SM SCT050
                       BKN100 FM0600 VRB05KT P6SM BKN040=
200707020522 TAF KPAE 020522Z 020606 VRB03KT P6SM SCT070 OVC130 FM0900 16008KT
                       P6SM BKN070 OVC130 FM1800 19008KT P6SM SCT070
                       BKN130 FM2200 23009KT P6SM SCT050 BKN100=
200707012322 TAF KPAE 012322Z 020024 31006KT P6SM FEW070 SCT130 BKN250 FM0600
                       VRB03KT P6SM SCT070 OVC130 FM0900 16008KT
                       P6SM BKN070 OVC130 FM1800 19008KT P6SM SCT070
                       BKN130=
200707011741 TAF KPAE 011741Z 011818 VRB03KT P6SM SCT130 BKN250 FM2300 33007KT
                       P6SM SCT130 BKN250 FM0600 VRB04KT P6SM SCT070
                       OVC130 FM0900 16008KT P6SM BKN070 OVC130=
200707011120 TAF KPAE 011120Z 011212 35004KT P6SM BKN250 FM1800 21006KT P6SM
                       SCT120 BKN200 FM2200 26006KT P6SM BKN120
                       BKN200 FM0300 02005KT P6SM SCT060 BKN120
                       FM0600 14009KT P6SM BKN060 BKN120=
200707010524 TAF KPAE 010524Z 010606 35004KT P6SM SCT200 FM1200 14005KT P6SM
                       BKN200 FM1800 21006KT P6SM SCT120 BKN200
                       FM2200 24006KT P6SM BKN120 BKN200=