##########################################################
# Query made at 02/18/2025 19:03:23 UTC
# Time interval: from 08/01/2007 00:00  to 08/31/2007 23:59  UTC
##########################################################

##########################################################
# KPAE, Everett, Snohomish County Airport (United States)
# WMO index: -----. WIGOS ID: Unknown
# Latitude 47-55-23N. Longitude 122-16-57W. Altitude 184 m.
##########################################################

###################################
#  METAR/SPECI from KPAE
###################################
200708312353 METAR KPAE 312353Z 01005KT 10SM SCT041 BKN060 OVC080 14/11 A3008 RMK AO2 RAE13 SLP184 P0000 60001 T01440106 10178 20139 50003=
200708312253 METAR KPAE 312253Z 02005KT 8SM -RA OVC039 14/12 A3008 RMK AO2 SLP185 P0001 T01440117=
200708312153 METAR KPAE 312153Z 02006KT 10SM -RA FEW027 BKN041 14/12 A3007 RMK AO2 SLP182 P0000 T01440117=
200708312053 METAR KPAE 312053Z VRB04KT 10SM -RA SCT055 BKN090 17/10 A3007 RMK AO2 RAB49 SLP180 P0000 60000 T01720100 53008=
200708311953 METAR KPAE 311953Z 00000KT 10SM OVC055 18/10 A3005 RMK AO2 SLP174 T01780100=
200708311853 METAR KPAE 311853Z 01005KT 10SM SCT049 BKN085 17/09 A3004 RMK AO2 SLP172 T01720094=
200708311753 METAR KPAE 311753Z 03005KT 10SM BKN049 BKN080 17/09 A3004 RMK AO2 SLP172 T01720094 10178 20128 51012=
200708311653 METAR KPAE 311653Z 05003KT 10SM BKN045 OVC075 16/09 A3003 RMK AO2 SLP168 T01560094=
200708311553 METAR KPAE 311553Z VRB03KT 10SM BKN043 16/09 A3002 RMK AO2 SLP164 T01610094=
200708311453 METAR KPAE 311453Z 03004KT 10SM CLR 14/09 A3001 RMK AO2 SLP160 T01440094 53002=
200708311353 METAR KPAE 311353Z 00000KT 10SM CLR 14/09 A3000 RMK AO2 SLP156 T01390094=
200708311253 METAR KPAE 311253Z AUTO 00000KT 10SM CLR 13/09 A3000 RMK AO2 SLP157 T01280094=
200708311153 METAR KPAE 311153Z AUTO 01004KT 10SM CLR 13/09 A3000 RMK AO2 SLP157 T01330094 10161 20128 53002=
200708311100 METAR KPAE NIL=
200708310953 METAR KPAE 310953Z AUTO 03004KT 10SM CLR 13/09 A2999 RMK AO2 SLP153 T01330094=
200708310853 METAR KPAE 310853Z AUTO 35004KT 10SM CLR 13/09 A2999 RMK AO2 SLP154 T01330094 53003=
200708310753 METAR KPAE 310753Z AUTO 02006KT 10SM CLR 15/08 A2998 RMK AO2 SLP150 T01500078 402390128=
200708310653 METAR KPAE 310653Z AUTO 02004KT 10SM CLR 16/07 A2998 RMK AO2 SLP150 T01610072=
200708310553 METAR KPAE 310553Z AUTO 04003KT 10SM CLR 16/08 A2998 RMK AO2 SLP151 T01560078 10200 20144 51007=
200708310453 METAR KPAE 310453Z AUTO 02006KT 10SM CLR 15/08 A2998 RMK AO2 SLP151 T01500083=
200708310353 METAR KPAE 310353Z AUTO 02007KT 10SM CLR 14/09 A2997 RMK AO2 SLP148 T01440089=
200708310253 METAR KPAE 310253Z 01006KT 10SM CLR 15/10 A2996 RMK AO2 SLP146 T01500100 53004=
200708310153 METAR KPAE 310153Z 35006KT 10SM CLR 17/12 A2996 RMK AO2 SLP142 T01670117=
200708310053 METAR KPAE 310053Z 01007KT 10SM CLR 18/12 A2995 RMK AO2 SLP142 T01830122=
200708302353 METAR KPAE 302353Z 36008KT 10SM CLR 20/13 A2995 RMK AO2 SLP140 T02000128 10239 20200 56004=
200708302253 METAR KPAE 302253Z 36008KT 10SM CLR 21/12 A2995 RMK AO2 SLP140 T02110122=
200708302153 METAR KPAE 302153Z 33005KT 10SM CLR 23/12 A2995 RMK AO2 SLP140 T02330122=
200708302053 METAR KPAE 302053Z 28005KT 10SM CLR 23/12 A2996 RMK AO2 SLP144 T02280122 56003=
200708301953 METAR KPAE 301953Z 32003KT 10SM CLR 23/12 A2996 RMK AO2 SLP144 T02280117=
200708301853 METAR KPAE 301853Z VRB04KT 10SM CLR 22/12 A2997 RMK AO2 SLP144 T02220122=
200708301753 METAR KPAE 301753Z VRB03KT 10SM CLR 21/12 A2997 RMK AO2 SLP146 T02110117 10211 20128 51004=
200708301653 METAR KPAE 301653Z 00000KT 10SM CLR 20/12 A2997 RMK AO2 SLP145 T02000122=
200708301553 METAR KPAE 301553Z 00000KT 10SM CLR 17/12 A2997 RMK AO2 SLP145 T01720122=
200708301453 METAR KPAE 301453Z 02004KT 10SM SCT001 13/12 A2996 RMK AO2 SLP143 FG NW-NE T01330117 53013=
200708301353 METAR KPAE 301353Z AUTO 02005KT 10SM CLR 13/12 A2995 RMK AO2 SLP139 T01280117=
200708301253 METAR KPAE 301253Z AUTO 02005KT 10SM CLR 13/12 A2993 RMK AO2 SLP131 T01330117=
200708301153 METAR KPAE 301153Z AUTO 02005KT 10SM CLR 14/11 A2992 RMK AO2 SLP129 T01440111 10206 20144 52003=
200708301053 METAR KPAE 301053Z AUTO 02003KT 10SM CLR 16/09 A2992 RMK AO2 SLP128 T01610094=
200708300953 METAR KPAE 300953Z AUTO 02003KT 10SM CLR 16/09 A2991 RMK AO2 SLP127 T01610094=
200708300853 METAR KPAE 300853Z AUTO 00000KT 10SM CLR 16/09 A2991 RMK AO2 SLP126 T01560094 53007=
200708300753 METAR KPAE 300753Z AUTO 01006KT 10SM CLR 17/10 A2991 RMK AO2 SLP124 T01670100 402610122=
200708300653 METAR KPAE 300653Z AUTO 00000KT 10SM CLR 18/11 A2990 RMK AO2 SLP120 T01830106=
200708300553 METAR KPAE 300553Z AUTO 00000KT 10SM CLR 20/10 A2989 RMK AO2 SLP118 T02000100 10261 20194 51006=
200708300453 METAR KPAE 300453Z 36003KT 10SM CLR 21/09 A2988 RMK AO2 SLP116 T02060094=
200708300353 METAR KPAE 300353Z 00000KT 10SM CLR 21/11 A2988 RMK AO2 SLP116 T02110106=
200708300253 METAR KPAE 300253Z 34004KT 10SM CLR 22/11 A2987 RMK AO2 SLP113 T02220106 55005=
200708300153 METAR KPAE 300153Z 34004KT 10SM CLR 23/11 A2987 RMK AO2 SLP113 T02330111=
200708300053 METAR KPAE 300053Z 35007KT 10SM CLR 26/11 A2988 RMK AO2 SLP114 T02560111 TSNO=
200708292353 METAR KPAE 292353Z AUTO 33007KT 10SM CLR 25/11 A2989 RMK AO2 SLP118 T02500111 10261 20200 56022 TSNO=
200708292253 METAR KPAE 292253Z 35006KT 10SM CLR 26/11 A2991 RMK AO2 SLP124 T02560111=
200708292153 METAR KPAE 292153Z 34007KT 10SM CLR 26/11 A2993 RMK AO2 SLP133 T02560111=
200708292053 METAR KPAE 292053Z 34006KT 10SM CLR 24/12 A2995 RMK AO2 SLP141 T02390117 56020=
200708291953 METAR KPAE 291953Z VRB05KT 10SM CLR 23/12 A2997 RMK AO2 SLP146 T02330117=
200708291853 METAR KPAE 291853Z 36004KT 10SM CLR 22/11 A2999 RMK AO2 SLP155 T02220111=
200708291753 METAR KPAE 291753Z 01004KT 10SM CLR 20/11 A3001 RMK AO2 SLP161 T02000111 10200 20128 56005=
200708291653 METAR KPAE 291653Z 36003KT 10SM CLR 19/11 A3002 RMK AO2 SLP162 T01940111=
200708291553 METAR KPAE 291553Z 01003KT 10SM CLR 18/11 A3002 RMK AO2 SLP163 T01780106=
200708291453 METAR KPAE 291453Z 00000KT 10SM CLR 16/11 A3003 RMK AO2 SLP167 T01560106 56005=
200708291353 METAR KPAE 291353Z AUTO 01003KT 10SM CLR 13/09 A3003 RMK AO2 SLP168 T01280094=
200708291253 METAR KPAE 291253Z AUTO 00000KT 10SM CLR 13/08 A3003 RMK AO2 SLP166 T01330083=
200708291153 METAR KPAE 291153Z AUTO 00000KT 10SM CLR 13/08 A3004 RMK AO2 SLP171 T01280083 10161 20122 56004=
200708291053 METAR KPAE 291053Z AUTO 35003KT 10SM CLR 13/08 A3005 RMK AO2 SLP172 T01330083=
200708290953 METAR KPAE 290953Z AUTO 01003KT 10SM CLR 13/09 A3005 RMK AO2 SLP174 T01280089=
200708290853 METAR KPAE 290853Z AUTO 36004KT 10SM CLR 13/08 A3005 RMK AO2 SLP175 T01330083 58003=
200708290753 METAR KPAE 290753Z AUTO 00000KT 10SM CLR 14/08 A3006 RMK AO2 SLP179 T01390078 402280111=
200708290653 METAR KPAE 290653Z AUTO 00000KT 10SM CLR 16/08 A3006 RMK AO2 SLP179 T01560078=
200708290553 METAR KPAE 290553Z AUTO 00000KT 10SM CLR 16/08 A3006 RMK AO2 SLP179 T01610083 10222 20161 50003=
200708290453 METAR KPAE 290453Z AUTO 34003KT 10SM CLR 17/08 A3007 RMK AO2 SLP180 T01670083=
200708290353 METAR KPAE 290353Z AUTO 00000KT 10SM CLR 17/09 A3006 RMK AO2 SLP178 T01720089 TSNO=
200708290253 METAR KPAE 290253Z 35004KT 10SM CLR 19/08 A3005 RMK AO2 SLP176 T01890078 58010=
200708290153 METAR KPAE 290153Z 34006KT 10SM CLR 21/07 A3007 RMK AO2 SLP180 T02110072=
200708290053 METAR KPAE 290053Z 35008KT 10SM CLR 22/09 A3008 RMK AO2 SLP184 T02170089 TSNO=
200708282353 METAR KPAE 282353Z AUTO 34005KT 10SM CLR 22/07 A3008 RMK AO2 SLP186 T02220072 10228 20172 58015 TSNO=
200708282253 METAR KPAE 282253Z 35006KT 10SM CLR 22/08 A3010 RMK AO2 SLP191 T02220078=
200708282153 METAR KPAE 282153Z 35005KT 10SM CLR 22/09 A3012 RMK AO2 SLP196 T02220089=
200708282053 METAR KPAE 282053Z 34006KT 10SM CLR 22/08 A3013 RMK AO2 SLP201 T02170083 58003=
200708281953 METAR KPAE 281953Z 29005KT 10SM CLR 20/08 A3013 RMK AO2 SLP203 T02000083=
200708281853 METAR KPAE 281853Z 30003KT 10SM CLR 18/09 A3014 RMK AO2 SLP205 T01830094=
200708281753 METAR KPAE 281753Z 29005KT 10SM CLR 18/11 A3014 RMK AO2 SLP205 T01780106 10178 20111 58003=
200708281653 METAR KPAE 281653Z 00000KT 10SM CLR 17/09 A3014 RMK AO2 SLP206 T01670094=
200708281553 METAR KPAE 281553Z 07003KT 10SM CLR 15/09 A3015 RMK AO2 SLP208 T01500089=
200708281453 METAR KPAE 281453Z 00000KT 10SM CLR 13/09 A3015 RMK AO2 SLP208 T01330094 53008=
200708281353 METAR KPAE 281353Z 00000KT 10SM CLR 12/09 A3015 RMK AO2 SLP207 T01170089=
200708281253 METAR KPAE 281253Z 00000KT 10SM CLR 12/09 A3012 RMK AO2 SLP200 T01220089=
200708281153 METAR KPAE 281153Z 00000KT 10SM CLR 12/08 A3012 RMK AO2 SLP200 T01220083 10133 20111 56004=
200708281053 METAR KPAE 281053Z 00000KT 10SM CLR 13/08 A3012 RMK AO2 SLP200 T01280078=
200708280953 METAR KPAE 280953Z 04003KT 10SM CLR 13/09 A3013 RMK AO2 SLP202 T01280089=
200708280853 METAR KPAE 280853Z 02003KT 10SM CLR 12/09 A3014 RMK AO2 SLP204 T01220089 53000=
200708280753 METAR KPAE 280753Z 35003KT 10SM CLR 12/08 A3014 RMK AO2 SLP204 T01220083 402000111=
200708280653 METAR KPAE 280653Z 00000KT 10SM CLR 12/09 A3013 RMK AO2 SLP203 T01220089=
200708280553 METAR KPAE 280553Z 00000KT 10SM CLR 13/09 A3013 RMK AO2 SLP204 T01280094 10200 20128 53006=
200708280453 METAR KPAE 280453Z 36006KT 10SM CLR 14/08 A3012 RMK AO2 SLP201 T01390083=
200708280353 METAR KPAE 280353Z 35004KT 10SM CLR 16/08 A3012 RMK AO2 SLP201 T01560083=
200708280253 METAR KPAE 280253Z 33004KT 10SM CLR 16/09 A3012 RMK AO2 SLP198 T01610089 53002=
200708280153 METAR KPAE 280153Z 35003KT 10SM CLR 19/08 A3011 RMK AO2 SLP194 T01890083=
200708280053 METAR KPAE 280053Z 33006KT 10SM CLR 19/08 A3011 RMK AO2 SLP196 T01890083=
200708272353 METAR KPAE 272353Z 35004KT 10SM CLR 19/08 A3011 RMK AO2 SLP195 T01940083 10200 20150 57006=
200708272253 METAR KPAE 272253Z AUTO VRB06KT 10SM CLR 19/09 A3012 RMK AO2 SLP199 T01940089 TSNO=
200708272153 METAR KPAE 272153Z VRB06KT 10SM CLR 19/08 A3012 RMK AO2 SLP199 T01940078=
200708272053 METAR KPAE 272053Z VRB05KT 10SM CLR 18/11 A3013 RMK AO2 SLP202 T01830106 56005=
200708271953 METAR KPAE 271953Z VRB05KT 10SM CLR 17/11 A3013 RMK AO2 SLP203 T01720106=
200708271853 METAR KPAE 271853Z 36005KT 10SM CLR 17/10 A3014 RMK AO2 SLP205 T01670100=
200708271753 METAR KPAE 271753Z VRB03KT 10SM CLR 16/09 A3015 RMK AO2 SLP209 T01560094 10156 20111 51007=
200708271653 METAR KPAE 271653Z VRB03KT 10SM CLR 14/09 A3014 RMK AO2 SLP207 T01390089=
200708271553 METAR KPAE 271553Z 34005KT 10SM CLR 13/08 A3013 RMK AO2 SLP203 T01280083=
200708271453 METAR KPAE 271453Z 04004KT 10SM CLR 12/09 A3012 RMK AO2 SLP201 T01220089 53006=
200708271353 METAR KPAE 271353Z 02004KT 10SM CLR 11/08 A3012 RMK AO2 SLP198 T01110083=
200708271253 METAR KPAE 271253Z AUTO 02004KT 10SM CLR 12/09 A3011 RMK AO2 SLP195 T01170089=
200708271153 METAR KPAE 271153Z AUTO 01003KT 10SM CLR 11/09 A3011 RMK AO2 SLP195 70008 T01110089 10128 20111 53002=
200708271053 METAR KPAE 271053Z AUTO 02004KT 10SM FEW014 12/09 A3010 RMK AO2 SLP193 T01170089=
200708270953 METAR KPAE 270953Z AUTO 03004KT 10SM CLR 12/09 A3010 RMK AO2 SLP194 T01170089=
200708270853 METAR KPAE 270853Z AUTO 03005KT 10SM CLR 12/08 A3010 RMK AO2 SLP193 T01220083 50002=
200708270753 METAR KPAE 270753Z AUTO 04004KT 10SM CLR 12/08 A3010 RMK AO2 SLP193 T01220083 401780122=
200708270653 METAR KPAE 270653Z AUTO 02006KT 10SM FEW065 13/09 A3009 RMK AO2 SLP190 T01280089=
200708270553 METAR KPAE 270553Z AUTO 01006KT 10SM OVC080 13/09 A3009 RMK AO2 SLP191 T01280089 10178 20128 51006=
200708270453 METAR KPAE 270453Z AUTO 36004KT 10SM BKN070 13/08 A3009 RMK AO2 SLP190 T01330083=
200708270353 METAR KPAE 270353Z 01006KT 10SM OVC075 14/09 A3008 RMK AO2 SLP187 T01390089=
200708270253 METAR KPAE 270253Z 36006KT 10SM BKN070 OVC080 14/09 A3008 RMK AO2 SLP185 T01440089 53001=
200708270153 METAR KPAE 270153Z 36004KT 10SM BKN070 BKN095 15/09 A3007 RMK AO2 SLP183 T01500094=
200708270053 METAR KPAE 270053Z 01005KT 10SM BKN065 OVC090 17/07 A3008 RMK AO2 SLP183 T01720067=
200708262353 METAR KPAE 262353Z 32003KT 10SM BKN070 OVC085 17/07 A3007 RMK AO2 SLP182 60000 T01720072 10178 20156 58000=
200708262253 METAR KPAE 262253Z 29003KT 10SM BKN070 17/09 A3007 RMK AO2 RAB16E43 SLP183 P0000 T01670094=
200708262153 METAR KPAE 262153Z 27007KT 10SM BKN080 16/10 A3008 RMK AO2 SLP187 T01610100=
200708262053 METAR KPAE 262053Z 27005KT 10SM BKN080 16/11 A3007 RMK AO2 SLP184 T01610106 51003=
200708261953 METAR KPAE 261953Z VRB05KT 10SM FEW028 SCT035 BKN044 17/11 A3007 RMK AO2 SLP181 T01670106=
200708261903 SPECI KPAE 261903Z 17006KT 10SM SCT025 BKN034 17/09 A3007 RMK AO2=
200708261903 SPECI KPAE 261903Z 17006KT 10SM SCT025 BKN034 17/09 A3007 RMK AO2=
200708261853 METAR KPAE 261853Z 16006KT 10SM SCT023 BKN029 BKN040 17/09 A3007 RMK AO2 SLP181 T01670094=
200708261753 METAR KPAE 261753Z 17005KT 10SM SCT019 SCT026 BKN080 16/10 A3006 RMK AO2 SLP179 60008 T01560100 10161 20122 53015=
200708261735 SPECI KPAE 261735Z VRB04KT 10SM SCT019 SCT026 BKN080 16/10 A3006 RMK AO2=
200708261735 SPECI KPAE 261735Z VRB04KT 10SM SCT019 SCT026 BKN080 16/10 A3006 RMK AO2=
200708261728 SPECI KPAE 261728Z VRB03KT 10SM BKN022 BKN026 BKN080 15/10 A3006 RMK AO2=
200708261728 SPECI KPAE 261728Z VRB03KT 10SM BKN022 BKN026 BKN080 15/10 A3006 RMK AO2=
200708261653 METAR KPAE 261653Z VRB03KT 10SM FEW022 SCT041 BKN075 15/10 A3005 RMK AO2 SLP175 T01500100=
200708261553 METAR KPAE 261553Z 16005KT 10SM FEW033 OVC075 13/11 A3003 RMK AO2 SLP168 T01280106=
200708261453 METAR KPAE 261453Z 13005KT 10SM BKN041 OVC065 12/10 A3002 RMK AO2 RAE47 SLP165 P0001 60008 T01220100 51016=
200708261432 SPECI KPAE 261432Z 11004KT 8SM -RA SCT018 OVC065 12/11 A3001 RMK AO2 P0001=
200708261432 SPECI KPAE 261432Z 11004KT 8SM -RA SCT018 OVC065 12/11 A3001 RMK AO2 P0001=
200708261404 SPECI KPAE 261404Z 12003KT 10SM -RA BKN018 BKN041 OVC055 12/10 A3001 RMK AO2 P0001=
200708261404 SPECI KPAE 261404Z 12003KT 10SM -RA BKN018 BKN041 OVC055 12/10 A3001 RMK AO2 P0001=
200708261353 METAR KPAE 261353Z 00000KT 5SM -RA BR SCT018 BKN041 OVC060 12/10 A3001 RMK AO2 RAB30 SLP161 P0007 T01220100=
200708261332 SPECI KPAE 261332Z AUTO 11003KT 8SM -RA BKN018 OVC036 13/09 A3000 RMK AO2 RAB30 P0001=
200708261332 SPECI KPAE 261332Z AUTO 11003KT 8SM -RA BKN018 OVC036 13/09 A3000 RMK AO2 RAB30 P0001=
200708261320 SPECI KPAE 261320Z AUTO 09003KT 10SM SCT015 OVC036 13/09 A3000 RMK AO2=
200708261320 SPECI KPAE 261320Z AUTO 09003KT 10SM SCT015 OVC036 13/09 A3000 RMK AO2=
200708261253 METAR KPAE 261253Z AUTO VRB03KT 10SM BKN015 OVC042 13/09 A2999 RMK AO2 SLP154 T01280094=
200708261153 METAR KPAE 261153Z AUTO VRB06KT 10SM FEW015 BKN060 OVC080 12/10 A2997 RMK AO2 RAB1059E11 SLP148 P0000 60000 70011 T01220100 10144 20122 52002=
200708261053 METAR KPAE 261053Z AUTO 04004KT 10SM SCT029 BKN042 OVC085 13/11 A2997 RMK AO2 SLP148 T01280106=
200708260953 METAR KPAE 260953Z AUTO 36006KT 10SM BKN034 BKN048 OVC080 13/10 A2997 RMK AO2 SLP146 T01280100=
200708260853 METAR KPAE 260853Z AUTO 34004KT 10SM FEW013 OVC050 13/11 A2997 RMK AO2 SLP146 T01280111 53012=
200708260753 METAR KPAE 260753Z AUTO 36005KT 10SM OVC050 13/11 A2995 RMK AO2 SLP141 T01330111 402000133=
200708260653 METAR KPAE 260653Z AUTO VRB04KT 10SM FEW010 OVC048 14/12 A2994 RMK AO2 SLP137 T01390117=
200708260645 SPECI KPAE 260645Z AUTO 36005KT 10SM FEW008 OVC046 14/12 A2994 RMK AO2=
200708260645 SPECI KPAE 260645Z AUTO 36005KT 10SM FEW008 OVC046 14/12 A2994 RMK AO2=
200708260553 METAR KPAE 260553Z AUTO 34004KT 10SM FEW012 OVC044 14/12 A2993 RMK AO2 SLP134 60011 T01440122 10189 20144 51008=
200708260453 METAR KPAE 260453Z AUTO 36003KT 10SM OVC032 15/13 A2993 RMK AO2 RAB13E23 SLP134 P0000 T01500133=
200708260431 SPECI KPAE 260431Z AUTO 33005KT 10SM SCT023 OVC030 15/13 A2993 RMK AO2 RAB13E23 P0000=
200708260431 SPECI KPAE 260431Z AUTO 33005KT 10SM SCT023 OVC030 15/13 A2993 RMK AO2 RAB13E23 P0000=
200708260353 METAR KPAE 260353Z 02005KT 10SM OVC020 15/13 A2992 RMK AO2 SLP131 T01500133=
200708260340 SPECI KPAE 260340Z 36003KT 10SM FEW002 OVC016 15/13 A2992 RMK AO2=
200708260340 SPECI KPAE 260340Z 36003KT 10SM FEW002 OVC016 15/13 A2992 RMK AO2=
200708260311 SPECI KPAE 260311Z 35005KT 8SM SCT002 SCT007 OVC014 15/14 A2992 RMK AO2=
200708260311 SPECI KPAE 260311Z 35005KT 8SM SCT002 SCT007 OVC014 15/14 A2992 RMK AO2=
200708260253 METAR KPAE 260253Z VRB05KT 6SM BR BKN002 BKN007 OVC012 15/14 A2991 RMK AO2 RAE20 SLP125 P0003 60011 T01500139 55009=
200708260245 SPECI KPAE 260245Z 35005KT 1/4SM FG OVC002 15/14 A2990 RMK AO2 RAE20 P0003=
200708260245 SPECI KPAE 260245Z 35005KT 1/4SM FG OVC002 15/14 A2990 RMK AO2 RAE20 P0003=
200708260237 SPECI KPAE 260237Z 34005KT 2 1/2SM BR BKN002 OVC013 15/14 A2990 RMK AO2 RAE20 P0003=
200708260237 SPECI KPAE 260237Z 34005KT 2 1/2SM BR BKN002 OVC013 15/14 A2990 RMK AO2 RAE20 P0003=
200708260232 SPECI KPAE 260232Z 34007KT 1/2SM FG BKN002 BKN013 OVC019 15/14 A2990 RMK AO2 RAE20 P0003=
200708260232 SPECI KPAE 260232Z 34007KT 1/2SM FG BKN002 BKN013 OVC019 15/14 A2990 RMK AO2 RAE20 P0003=
200708260225 SPECI KPAE 260225Z 34008KT 5SM BR BKN002 BKN007 OVC021 16/14 A2990 RMK AO2 RAE20 P0003=
200708260225 SPECI KPAE 260225Z 34008KT 5SM BR BKN002 BKN007 OVC021 16/14 A2990 RMK AO2 RAE20 P0003=
200708260153 METAR KPAE 260153Z 32006KT 10SM +RA BKN007 BKN022 OVC045 16/15 A2990 RMK AO2 RAB28 SLP124 P0008 T01610150=
200708260143 SPECI KPAE 260143Z 33007KT 10SM -RA BKN007 BKN022 BKN045 16/14 A2989 RMK AO2 RAB28 P0001=
200708260143 SPECI KPAE 260143Z 33007KT 10SM -RA BKN007 BKN022 BKN045 16/14 A2989 RMK AO2 RAB28 P0001=
200708260133 SPECI KPAE 260133Z 20007KT 180V240 8SM -RA BKN024 BKN036 BKN070 18/14 A2989 RMK AO2 RAB28 P0000=
200708260133 SPECI KPAE 260133Z 20007KT 180V240 8SM -RA BKN024 BKN036 BKN070 18/14 A2989 RMK AO2 RAB28 P0000=
200708260115 SPECI KPAE 260115Z 16010KT 10SM FEW024 SCT030 BKN035 19/13 A2990 RMK AO2=
200708260115 SPECI KPAE 260115Z 16010KT 10SM FEW024 SCT030 BKN035 19/13 A2990 RMK AO2=
200708260100 SPECI KPAE 260100Z 14006KT 10SM BKN026 OVC037 19/13 A2991 RMK AO2=
200708260100 SPECI KPAE 260100Z 14006KT 10SM BKN026 OVC037 19/13 A2991 RMK AO2=
200708260053 METAR KPAE 260053Z 16005KT 10SM SCT029 BKN035 OVC046 19/13 A2991 RMK AO2 RAE2359 SLP128 P0000 T01890133=
200708252353 METAR KPAE 252353Z 16007KT 9SM -RA SCT026 BKN033 OVC050 18/13 A2993 RMK AO2 RAB35 SLP134 P0000 60000 T01830133 10200 20156 58010=
200708252331 SPECI KPAE 252331Z 20007KT 10SM BKN028 BKN035 OVC055 19/12 A2994 RMK AO2=
200708252331 SPECI KPAE 252331Z 20007KT 10SM BKN028 BKN035 OVC055 19/12 A2994 RMK AO2=
200708252253 METAR KPAE 252253Z AUTO 19006KT 10SM BKN030 BKN045 OVC060 20/12 A2994 RMK AO2 SLP138 T02000117 TSNO=
200708252153 METAR KPAE 252153Z 18009KT 10SM SCT026 BKN075 19/12 A2996 RMK AO2 SLP144 T01940117=
200708252123 SPECI KPAE 252123Z 15010KT 10SM SCT024 BKN048 OVC075 19/12 A2996 RMK AO2=
200708252123 SPECI KPAE 252123Z 15010KT 10SM SCT024 BKN048 OVC075 19/12 A2996 RMK AO2=
200708252053 METAR KPAE 252053Z 17010KT 10SM BKN022 BKN048 OVC075 19/12 A2996 RMK AO2 SLP145 T01940117 58002=
200708251953 METAR KPAE 251953Z 17010KT 10SM OVC020 17/11 A2997 RMK AO2 SLP148 T01720111=
200708251853 METAR KPAE 251853Z 17011KT 10SM OVC018 16/12 A2997 RMK AO2 SLP149 T01610117=
200708251809 SPECI KPAE 251809Z 18008KT 10SM BKN016 OVC039 16/12 A2997 RMK AO2=
200708251809 SPECI KPAE 251809Z 18008KT 10SM BKN016 OVC039 16/12 A2997 RMK AO2=
200708251757 SPECI KPAE 251757Z 18011KT 10SM FEW009 SCT018 OVC039 16/12 A2997 RMK AO2=
200708251757 SPECI KPAE 251757Z 18011KT 10SM FEW009 SCT018 OVC039 16/12 A2997 RMK AO2=
200708251753 METAR KPAE 251753Z 17011KT 10SM FEW011 BKN018 OVC039 16/12 A2997 RMK AO2 SLP147 60000 T01560117 10156 20144 53004=
200708251653 METAR KPAE 251653Z 16009KT 5SM BR BKN007 BKN011 OVC014 14/13 A2996 RMK AO2 RAE1558 CIG 004V009 SLP145 P0000 T01440128=
200708251631 SPECI KPAE 251631Z 16007KT 5SM BR BKN007 BKN012 OVC035 14/13 A2996 RMK AO2 RAE1558 P0000=
200708251631 SPECI KPAE 251631Z 16007KT 5SM BR BKN007 BKN012 OVC035 14/13 A2996 RMK AO2 RAE1558 P0000=
200708251623 SPECI KPAE 251623Z 15007KT 5SM BR SCT009 BKN027 OVC035 14/13 A2996 RMK AO2 RAE1558 P0000=
200708251623 SPECI KPAE 251623Z 15007KT 5SM BR SCT009 BKN027 OVC035 14/13 A2996 RMK AO2 RAE1558 P0000=
200708251602 SPECI KPAE 251602Z 16006KT 3SM BR FEW012 SCT016 OVC025 14/13 A2996 RMK AO2 RAE1558 P0000=
200708251602 SPECI KPAE 251602Z 16006KT 3SM BR FEW012 SCT016 OVC025 14/13 A2996 RMK AO2 RAE1558 P0000=
200708251553 METAR KPAE 251553Z 15007KT 2SM -RA BR BKN012 BKN017 OVC025 14/13 A2996 RMK AO2 RAB34 SLP144 P0000 T01440128=
200708251541 SPECI KPAE 251541Z 15008KT 1 3/4SM -RA BR BKN012 BKN017 OVC025 14/12 A2996 RMK AO2 RAB34 P0000=
200708251541 SPECI KPAE 251541Z 15008KT 1 3/4SM -RA BR BKN012 BKN017 OVC025 14/12 A2996 RMK AO2 RAB34 P0000=
200708251516 SPECI KPAE 251516Z 13004KT 10SM BKN014 BKN019 OVC032 15/12 A2996 RMK AO2=
200708251516 SPECI KPAE 251516Z 13004KT 10SM BKN014 BKN019 OVC032 15/12 A2996 RMK AO2=
200708251453 METAR KPAE 251453Z 11004KT 10SM OVC019 14/12 A2996 RMK AO2 SLP142 T01440117 53004=
200708251421 SPECI KPAE 251421Z 13006KT 7SM SCT008 BKN018 OVC026 14/12 A2995 RMK AO2=
200708251421 SPECI KPAE 251421Z 13006KT 7SM SCT008 BKN018 OVC026 14/12 A2995 RMK AO2=
200708251353 METAR KPAE 251353Z 11005KT 10SM OVC026 14/12 A2995 RMK AO2 SLP139 T01440117=
200708251333 SPECI KPAE 251333Z AUTO 08003KT 10SM SCT009 OVC026 14/12 A2995 RMK AO2=
200708251333 SPECI KPAE 251333Z AUTO 08003KT 10SM SCT009 OVC026 14/12 A2995 RMK AO2=
200708251253 METAR KPAE 251253Z AUTO 13004KT 10SM OVC009 14/12 A2994 RMK AO2 SLP137 T01440117=
200708251153 METAR KPAE 251153Z AUTO 06005KT 10SM OVC009 14/12 A2994 RMK AO2 SLP137 T01440117 10144 20139 53006=
200708251133 SPECI KPAE 251133Z AUTO 06004KT 10SM OVC009 14/12 A2994 RMK AO2 CIG 007V011=
200708251133 SPECI KPAE 251133Z AUTO 06004KT 10SM OVC009 14/12 A2994 RMK AO2 CIG 007V011=
200708251053 METAR KPAE 251053Z AUTO VRB04KT 10SM OVC011 14/12 A2993 RMK AO2 SLP132 T01440117=
200708251049 SPECI KPAE 251049Z AUTO VRB04KT 10SM OVC011 14/12 A2993 RMK AO2=
200708251049 SPECI KPAE 251049Z AUTO VRB04KT 10SM OVC011 14/12 A2993 RMK AO2=
200708250953 METAR KPAE 250953Z AUTO 05004KT 10SM OVC009 14/12 A2992 RMK AO2 CIG 006V012 SLP131 T01440122=
200708250853 METAR KPAE 250853Z AUTO 02006KT 10SM BKN009 14/12 A2992 RMK AO2 CIG 006V011 SLP129 T01440122 52004=
200708250753 METAR KPAE 250753Z AUTO 02005KT 10SM BKN009 14/12 A2992 RMK AO2 SLP130 T01390117 402280128=
200708250744 SPECI KPAE 250744Z AUTO 02005KT 10SM BKN009 BKN055 14/12 A2991 RMK AO2=
200708250744 SPECI KPAE 250744Z AUTO 02005KT 10SM BKN009 BKN055 14/12 A2991 RMK AO2=
200708250653 METAR KPAE 250653Z AUTO 01004KT 10SM SCT007 OVC055 14/12 A2991 RMK AO2 SLP127 T01440117=
200708250600 SPECI KPAE 250600Z AUTO 01010G16KT 10SM FEW007 BKN055 14/12 A2991 RMK AO2=
200708250600 SPECI KPAE 250600Z AUTO 01010G16KT 10SM FEW007 BKN055 14/12 A2991 RMK AO2=
200708250553 METAR KPAE 250553Z AUTO 01008G16KT 10SM SCT060 14/12 A2991 RMK AO2 SLP127 T01390117 10222 20139 51004=
200708250453 METAR KPAE 250453Z AUTO 01005KT 10SM FEW060 14/12 A2991 RMK AO2 SLP126 T01390117=
200708250353 METAR KPAE 250353Z AUTO 36006KT 10SM CLR 14/12 A2990 RMK AO2 SLP125 T01440122=
200708250253 METAR KPAE 250253Z AUTO 01006G15KT 10SM CLR 16/12 A2990 RMK AO2 SLP124 T01560122 55004=
200708250153 METAR KPAE 250153Z 35006KT 10SM CLR 18/12 A2989 RMK AO2 SLP120 T01830122=
200708250053 METAR KPAE 250053Z 36006KT 10SM CLR 21/12 A2990 RMK AO2 SLP123 T02060122=
200708242353 METAR KPAE 242353Z VRB05KT 10SM CLR 22/12 A2991 RMK AO2 SLP126 T02170122 10228 20178 58011=
200708242253 METAR KPAE 242253Z AUTO 35005KT 10SM CLR 22/13 A2993 RMK AO2 SLP132 T02220128 TSNO=
200708242153 METAR KPAE 242153Z 27004KT 10SM CLR 22/13 A2993 RMK AO2 SLP134 T02170128=
200708242053 METAR KPAE 242053Z 27005KT 10SM CLR 21/12 A2994 RMK AO2 SLP137 T02060122 56008=
200708241953 METAR KPAE 241953Z VRB03KT 10SM CLR 19/12 A2995 RMK AO2 SLP139 T01940122=
200708241853 METAR KPAE 241853Z 28004KT 10SM CLR 19/12 A2996 RMK AO2 SLP143 T01940122=
200708241753 METAR KPAE 241753Z 29005KT 10SM CLR 19/12 A2996 RMK AO2 SLP146 T01890122 10189 20128 50000=
200708241653 METAR KPAE 241653Z 00000KT 10SM CLR 17/12 A2996 RMK AO2 SLP146 FGBNK W-E T01720122=
200708241602 SPECI KPAE 241602Z VRB03KT 9SM CLR 14/12 A2997 RMK AO2 FGBNK W-E=
200708241602 SPECI KPAE 241602Z VRB03KT 9SM CLR 14/12 A2997 RMK AO2 FGBNK W-E=
200708241553 METAR KPAE 241553Z 00000KT 5SM BR BKN001 14/13 A2997 RMK AO2 SLP148 T01390128=
200708241540 SPECI KPAE 241540Z 01003KT 2 1/2SM BR OVC001 13/12 A2997 RMK AO2 VIS 1V5=
200708241540 SPECI KPAE 241540Z 01003KT 2 1/2SM BR OVC001 13/12 A2997 RMK AO2 VIS 1V5=
200708241453 METAR KPAE 241453Z 05005KT 1/2SM FG VV001 13/12 A2997 RMK AO2 SLP146 T01330122 53003=
200708241353 METAR KPAE 241353Z 02005KT 1/2SM FG VV001 13/12 A2996 RMK AO2 SLP144 T01280122=
200708241326 SPECI KPAE 241326Z AUTO 02006KT 1/2SM FG VV001 13/12 A2995 RMK AO2=
200708241326 SPECI KPAE 241326Z AUTO 02006KT 1/2SM FG VV001 13/12 A2995 RMK AO2=
200708241253 METAR KPAE 241253Z AUTO 02003KT 1/4SM FG VV001 13/12 A2995 RMK AO2 SLP140 T01280117=
200708241244 SPECI KPAE 241244Z AUTO 00000KT 3/4SM BR VV001 13/12 A2995 RMK AO2=
200708241244 SPECI KPAE 241244Z AUTO 00000KT 3/4SM BR VV001 13/12 A2995 RMK AO2=
200708241242 SPECI KPAE 241242Z AUTO 00000KT 1 1/2SM BR CLR 13/12 A2995 RMK AO2=
200708241242 SPECI KPAE 241242Z AUTO 00000KT 1 1/2SM BR CLR 13/12 A2995 RMK AO2=
200708241153 METAR KPAE 241153Z AUTO 00000KT 6SM BR FEW001 13/12 A2996 RMK AO2 SLP141 T01330122 10156 20133 51002=
200708241141 SPECI KPAE 241141Z AUTO 00000KT 5SM BR FEW001 13/12 A2996 RMK AO2=
200708241141 SPECI KPAE 241141Z AUTO 00000KT 5SM BR FEW001 13/12 A2996 RMK AO2=
200708241053 METAR KPAE 241053Z AUTO 02003KT 10SM CLR 14/12 A2995 RMK AO2 SLP141 T01390117=
200708240953 METAR KPAE 240953Z AUTO 02005KT 10SM CLR 14/12 A2996 RMK AO2 SLP143 T01440122=
200708240853 METAR KPAE 240853Z AUTO 00000KT 10SM CLR 15/12 A2995 RMK AO2 SLP139 T01500122 58001=
200708240753 METAR KPAE 240753Z AUTO 02005KT 10SM CLR 14/13 A2996 RMK AO2 SLP142 T01440128 402330133=
200708240653 METAR KPAE 240653Z AUTO VRB04KT 10SM CLR 14/13 A2996 RMK AO2 SLP144 T01440128=
200708240553 METAR KPAE 240553Z AUTO 01005KT 10SM CLR 16/13 A2995 RMK AO2 SLP142 T01560128 10233 20156 50002=
200708240453 METAR KPAE 240453Z AUTO 01005KT 10SM CLR 16/12 A2996 RMK AO2 SLP144 T01610122=
200708240353 METAR KPAE 240353Z AUTO 06004KT 10SM CLR 18/12 A2995 RMK AO2 SLP142 T01830117=
200708240253 METAR KPAE 240253Z 34003KT 10SM CLR 19/12 A2995 RMK AO2 SLP140 T01940122 55005=
200708240153 METAR KPAE 240153Z 35005KT 10SM CLR 22/12 A2994 RMK AO2 SLP138 T02220122=
200708240053 METAR KPAE 240053Z 36006KT 10SM CLR 23/12 A2995 RMK AO2 SLP140 T02280117=
200708232353 METAR KPAE 232353Z 33006KT 10SM CLR 23/12 A2996 RMK AO2 SLP144 T02330117 10233 20183 56008=
200708232253 METAR KPAE 232253Z AUTO 35007KT 320V030 10SM CLR 23/12 A2997 RMK AO2 SLP147 T02280117 TSNO=
200708232153 METAR KPAE 232153Z 35006KT 10SM CLR 23/12 A2997 RMK AO2 SLP148 T02280117=
200708232053 METAR KPAE 232053Z 30005KT 10SM CLR 21/13 A2999 RMK AO2 SLP153 T02110133 55004=
200708231953 METAR KPAE 231953Z 27005KT 10SM CLR 21/13 A2998 RMK AO2 SLP151 T02060133=
200708231853 METAR KPAE 231853Z VRB05KT 10SM CLR 19/13 A3000 RMK AO2 SLP157 T01890128=
200708231753 METAR KPAE 231753Z 00000KT 10SM CLR 18/12 A3000 RMK AO2 SLP157 T01830122 10183 20133 58004=
200708231653 METAR KPAE 231653Z 29004KT 10SM CLR 17/12 A3001 RMK AO2 SLP161 T01720122=
200708231553 METAR KPAE 231553Z 33003KT 10SM CLR 16/12 A3001 RMK AO2 SLP161 T01610117=
200708231453 METAR KPAE 231453Z 35003KT 10SM CLR 14/12 A3001 RMK AO2 SLP161 T01440117 53002=
200708231353 METAR KPAE 231353Z 00000KT 8SM CLR 13/12 A3001 RMK AO2 SLP161 T01330117=
200708231253 METAR KPAE 231253Z AUTO 00000KT 10SM CLR 13/11 A3001 RMK AO2 SLP159 T01330111=
200708231153 METAR KPAE 231153Z AUTO 00000KT 10SM CLR 14/11 A3000 RMK AO2 SLP158 70001 T01440111 10156 20139 56004=
200708231053 METAR KPAE 231053Z AUTO 00000KT 10SM FEW060 15/12 A3001 RMK AO2 SLP159 T01500117=
200708230953 METAR KPAE 230953Z AUTO 05003KT 10SM CLR 15/12 A3001 RMK AO2 SLP159 T01500117=
200708230853 METAR KPAE 230853Z AUTO VRB03KT 10SM CLR 15/12 A3002 RMK AO2 SLP162 T01500117 58003=
200708230753 METAR KPAE 230753Z AUTO 02003KT 10SM CLR 15/12 A3002 RMK AO2 SLP164 T01500117 402170133=
200708230653 METAR KPAE 230653Z 36003KT 10SM CLR 14/12 A3003 RMK AO2 SLP167 T01440122=
200708230553 METAR KPAE 230553Z 36003KT 10SM CLR 16/12 A3003 RMK AO2 SLP167 T01560122 10211 20156 57001=
200708230453 METAR KPAE 230453Z 35003KT 10SM CLR 16/12 A3003 RMK AO2 SLP166 T01610117=
200708230353 METAR KPAE 230353Z 00000KT 10SM CLR 17/12 A3003 RMK AO2 SLP168 T01720122=
200708230253 METAR KPAE 230253Z VRB04KT 10SM CLR 18/12 A3003 RMK AO2 SLP167 T01830122 56007=
200708230153 METAR KPAE 230153Z 35005KT 10SM CLR 20/12 A3003 RMK AO2 SLP167 T02000117=
200708230053 METAR KPAE 230053Z 36006KT 10SM CLR 21/12 A3004 RMK AO2 SLP170 T02110122=
200708222353 METAR KPAE 222353Z 35006KT 10SM CLR 21/13 A3005 RMK AO2 SLP173 T02110128 10217 20178 58010=
200708222253 METAR KPAE 222253Z 35007KT 10SM CLR 21/13 A3006 RMK AO2 SLP178 T02110128=
200708222153 METAR KPAE 222153Z VRB05KT 10SM CLR 21/13 A3007 RMK AO2 SLP182 T02110133=
200708222053 METAR KPAE 222053Z 31007KT 10SM CLR 20/13 A3008 RMK AO2 SLP185 T02000128 56006=
200708221953 METAR KPAE 221953Z 28007KT 10SM CLR 19/13 A3009 RMK AO2 SLP187 T01940133=
200708221853 METAR KPAE 221853Z VRB04KT 10SM FEW015 19/13 A3009 RMK AO2 SLP188 T01890133=
200708221753 METAR KPAE 221753Z 30005KT 10SM FEW015 18/13 A3010 RMK AO2 SLP192 60001 T01780133 10183 20133 58002=
200708221653 METAR KPAE 221653Z 00000KT 10SM SCT003 OVC055 16/13 A3011 RMK AO2 SLP193 T01560133=
200708221646 SPECI KPAE 221646Z 00000KT 10SM SCT003 OVC055 16/13 A3010 RMK AO2=
200708221646 SPECI KPAE 221646Z 00000KT 10SM SCT003 OVC055 16/13 A3010 RMK AO2=
200708221553 METAR KPAE 221553Z 35005KT 9SM OVC003 14/13 A3011 RMK AO2 SLP195 T01440128=
200708221453 METAR KPAE 221453Z 36003KT 10SM FEW003 OVC050 14/13 A3011 RMK AO2 SLP193 60001 T01440128 53002=
200708221438 SPECI KPAE 221438Z 36003KT 10SM FEW003 OVC055 14/13 A3011 RMK AO2=
200708221438 SPECI KPAE 221438Z 36003KT 10SM FEW003 OVC055 14/13 A3011 RMK AO2=
200708221353 METAR KPAE 221353Z 34003KT 10SM OVC042 14/13 A3010 RMK AO2 SLP192 P0001 T01390128=
200708221253 METAR KPAE 221253Z AUTO 00000KT 10SM CLR 13/12 A3010 RMK AO2 SLP192 T01330122=
200708221153 METAR KPAE 221153Z AUTO 36003KT 10SM CLR 14/12 A3010 RMK AO2 SLP190 T01390122 10150 20133 56001=
200708221053 METAR KPAE 221053Z AUTO 36003KT 10SM CLR 13/12 A3010 RMK AO2 SLP192 T01330122=
200708220953 METAR KPAE 220953Z AUTO 36003KT 10SM CLR 14/12 A3010 RMK AO2 SLP191 T01390122=
200708220853 METAR KPAE 220853Z AUTO 35004KT 10SM CLR 14/12 A3010 RMK AO2 SLP192 T01390122 56007=
200708220753 METAR KPAE 220753Z AUTO 00000KT 10SM CLR 14/12 A3011 RMK AO2 SLP194 T01390122 402220139=
200708220653 METAR KPAE 220653Z AUTO 00000KT 10SM CLR 14/13 A3011 RMK AO2 SLP196 T01440128=
200708220553 METAR KPAE 220553Z AUTO 34003KT 10SM CLR 15/13 A3012 RMK AO2 SLP199 T01500133 10217 20150 50002=
200708220453 METAR KPAE 220453Z AUTO 00000KT 10SM CLR 16/13 A3013 RMK AO2 SLP201 T01560133=
200708220353 METAR KPAE 220353Z 35003KT 10SM CLR 16/13 A3012 RMK AO2 SLP199 T01610128=
200708220253 METAR KPAE 220253Z 36003KT 10SM CLR 17/13 A3012 RMK AO2 SLP197 T01720133 51000=
200708220153 METAR KPAE 220153Z 34004KT 10SM CLR 19/14 A3012 RMK AO2 SLP197 T01890139=
200708220053 METAR KPAE 220053Z 36006KT 10SM FEW050 20/14 A3012 RMK AO2 SLP197 T02000139=
200708212353 METAR KPAE 212353Z VRB05KT 10SM BKN055 22/14 A3012 RMK AO2 SLP196 T02170139 10222 20183 56008=
200708212253 METAR KPAE 212253Z 26004KT 10SM FEW055 21/14 A3012 RMK AO2 SLP199 T02060139=
200708212153 METAR KPAE 212153Z 28005KT 10SM OVC050 20/14 A3013 RMK AO2 SLP201 T02000139=
200708212053 METAR KPAE 212053Z 24006KT 10SM SCT019 SCT024 OVC050 19/14 A3014 RMK AO2 SLP204 T01940139 51003=
200708212000 SPECI KPAE 212000Z 24003KT 10SM FEW016 BKN046 18/14 A3014 RMK AO2=
200708212000 SPECI KPAE 212000Z 24003KT 10SM FEW016 BKN046 18/14 A3014 RMK AO2=
200708211953 METAR KPAE 211953Z 25004KT 10SM SCT019 BKN028 18/14 A3014 RMK AO2 SLP204 T01830144=
200708211853 METAR KPAE 211853Z 25005KT 10SM SCT017 BKN028 BKN034 18/15 A3014 RMK AO2 SLP204 T01830150=
200708211842 SPECI KPAE 211842Z 24003KT 10SM FEW006 BKN028 OVC034 18/15 A3013 RMK AO2=
200708211842 SPECI KPAE 211842Z 24003KT 10SM FEW006 BKN028 OVC034 18/15 A3013 RMK AO2=
200708211753 METAR KPAE 211753Z 22006KT 10SM SCT008 BKN010 OVC015 17/14 A3013 RMK AO2 SLP202 60000 T01670144 10178 20156 53011=
200708211653 METAR KPAE 211653Z 22004KT 10SM SCT008 BKN010 OVC015 17/15 A3012 RMK AO2 SLP197 T01720150=
200708211646 SPECI KPAE 211646Z VRB05KT 10SM BKN010 OVC015 17/15 A3012 RMK AO2 CIG 007V012=
200708211646 SPECI KPAE 211646Z VRB05KT 10SM BKN010 OVC015 17/15 A3012 RMK AO2 CIG 007V012=
200708211553 METAR KPAE 211553Z 18007KT 10SM OVC005 17/15 A3010 RMK AO2 RAE08 CIG 004V010 SLP193 P0000 T01670150=
200708211521 SPECI KPAE 211521Z 17005KT 10SM OVC007 17/15 A3010 RMK AO2 RAE08 CIG 005V009 P0000=
200708211521 SPECI KPAE 211521Z 17005KT 10SM OVC007 17/15 A3010 RMK AO2 RAE08 CIG 005V009 P0000=
200708211514 SPECI KPAE 211514Z 16005KT 3SM BR OVC010 16/14 A3010 RMK AO2 RAE08 P0000=
200708211514 SPECI KPAE 211514Z 16005KT 3SM BR OVC010 16/14 A3010 RMK AO2 RAE08 P0000=
200708211506 SPECI KPAE 211506Z 16006KT 3SM -RA BR OVC008 16/14 A3010 RMK AO2 CIG 006V012 P0000=
200708211506 SPECI KPAE 211506Z 16006KT 3SM -RA BR OVC008 16/14 A3010 RMK AO2 CIG 006V012 P0000=
200708211457 SPECI KPAE 211457Z 15005KT 1 3/4SM -RA BR OVC010 16/14 A3010 RMK AO2 VIS 1 1/4V5 CIG 007V012 P0000=
200708211457 SPECI KPAE 211457Z 15005KT 1 3/4SM -RA BR OVC010 16/14 A3010 RMK AO2 VIS 1 1/4V5 CIG 007V012 P0000=
200708211453 METAR KPAE 211453Z 16004KT 3SM -RA BR OVC010 16/14 A3010 RMK AO2 RAB51 SLP191 P0000 60000 T01610144 51010=
200708211433 SPECI KPAE 211433Z 15007KT 10SM BKN010 OVC017 16/14 A3009 RMK AO2=
200708211433 SPECI KPAE 211433Z 15007KT 10SM BKN010 OVC017 16/14 A3009 RMK AO2=
200708211353 METAR KPAE 211353Z 14005KT 10SM OVC019 16/14 A3009 RMK AO2 SLP188 T01560144=
200708211304 SPECI KPAE 211304Z AUTO 14006KT 10SM FEW005 SCT010 OVC019 16/14 A3008 RMK AO2=
200708211304 SPECI KPAE 211304Z AUTO 14006KT 10SM FEW005 SCT010 OVC019 16/14 A3008 RMK AO2=
200708211253 METAR KPAE 211253Z AUTO 13005KT 10SM FEW003 BKN008 OVC017 16/14 A3008 RMK AO2 CIG 004V013 SLP184 T01560139=
200708211153 METAR KPAE 211153Z AUTO 13006KT 10SM FEW006 BKN009 OVC017 16/14 A3007 RMK AO2 RAE13 CIG 008V014 SLP181 P0001 60002 70041 T01560144 10161 20156 50002=
200708211112 SPECI KPAE 211112Z AUTO 13005KT 6SM -RA BR OVC005 16/14 A3007 RMK AO2 CIG 003V008 P0001=
200708211112 SPECI KPAE 211112Z AUTO 13005KT 6SM -RA BR OVC005 16/14 A3007 RMK AO2 CIG 003V008 P0001=
200708211053 METAR KPAE 211053Z AUTO 14004KT 2 1/2SM -RA BR OVC005 16/14 A3007 RMK AO2 RAB37 SLP181 P0001 T01560144=
200708211027 SPECI KPAE 211027Z AUTO 13004KT 10SM BKN007 OVC013 16/14 A3007 RMK AO2=
200708211027 SPECI KPAE 211027Z AUTO 13004KT 10SM BKN007 OVC013 16/14 A3007 RMK AO2=
200708211020 SPECI KPAE 211020Z AUTO 15004KT 10SM SCT007 OVC013 16/14 A3007 RMK AO2=
200708211020 SPECI KPAE 211020Z AUTO 15004KT 10SM SCT007 OVC013 16/14 A3007 RMK AO2=
200708210953 METAR KPAE 210953Z AUTO 15005KT 10SM OVC011 16/14 A3006 RMK AO2 RAB30E46 SLP179 P0000 T01560139=
200708210942 SPECI KPAE 210942Z AUTO 13005KT 10SM -RA SCT008 OVC013 16/14 A3006 RMK AO2 RAB30 P0000=
200708210942 SPECI KPAE 210942Z AUTO 13005KT 10SM -RA SCT008 OVC013 16/14 A3006 RMK AO2 RAB30 P0000=
200708210920 SPECI KPAE 210920Z AUTO 13006KT 10SM SCT008 OVC015 16/14 A3006 RMK AO2=
200708210920 SPECI KPAE 210920Z AUTO 13006KT 10SM SCT008 OVC015 16/14 A3006 RMK AO2=
200708210853 METAR KPAE 210853Z AUTO 15006KT 10SM BKN006 OVC010 16/14 A3006 RMK AO2 CIG 004V008 SLP179 T01560139 51006=
200708210820 SPECI KPAE 210820Z AUTO 15005KT 10SM BKN008 OVC015 16/14 A3006 RMK AO2 CIG 005V012=
200708210820 SPECI KPAE 210820Z AUTO 15005KT 10SM BKN008 OVC015 16/14 A3006 RMK AO2 CIG 005V012=
200708210753 METAR KPAE 210753Z AUTO 14005KT 10SM BKN010 OVC021 16/14 A3006 RMK AO2 CIG 006V014 SLP178 T01610139 401720139=
200708210653 METAR KPAE 210653Z AUTO 15005KT 10SM FEW008 BKN020 OVC025 16/14 A3005 RMK AO2 SLP175 T01610139=
200708210628 SPECI KPAE 210628Z AUTO 15005KT 10SM SCT008 OVC020 16/14 A3005 RMK AO2=
200708210628 SPECI KPAE 210628Z AUTO 15005KT 10SM SCT008 OVC020 16/14 A3005 RMK AO2=
200708210621 SPECI KPAE 210621Z AUTO 16006KT 10SM BKN008 BKN014 OVC020 16/14 A3005 RMK AO2 CIG 007V013=
200708210621 SPECI KPAE 210621Z AUTO 16006KT 10SM BKN008 BKN014 OVC020 16/14 A3005 RMK AO2 CIG 007V013=
200708210553 METAR KPAE 210553Z AUTO 15005KT 10SM OVC010 16/14 A3004 RMK AO2 SLP172 60001 T01610139 10172 20161 51005=
200708210532 SPECI KPAE 210532Z AUTO 15006KT 10SM BKN013 OVC021 16/14 A3004 RMK AO2=
200708210532 SPECI KPAE 210532Z AUTO 15006KT 10SM BKN013 OVC021 16/14 A3004 RMK AO2=
200708210513 SPECI KPAE 210513Z AUTO 15006KT 10SM FEW015 BKN023 OVC075 16/14 A3004 RMK AO2=
200708210513 SPECI KPAE 210513Z AUTO 15006KT 10SM FEW015 BKN023 OVC075 16/14 A3004 RMK AO2=
200708210453 METAR KPAE 210453Z AUTO 14005KT 10SM FEW018 OVC075 16/14 A3004 RMK AO2 SLP170 T01610139=
200708210451 SPECI KPAE 210451Z AUTO 14005KT 10SM SCT018 OVC075 16/14 A3004 RMK AO2=
200708210451 SPECI KPAE 210451Z AUTO 14005KT 10SM SCT018 OVC075 16/14 A3004 RMK AO2=
200708210429 SPECI KPAE 210429Z AUTO 15005KT 10SM BKN018 BKN050 OVC075 16/14 A3003 RMK AO2=
200708210429 SPECI KPAE 210429Z AUTO 15005KT 10SM BKN018 BKN050 OVC075 16/14 A3003 RMK AO2=
200708210408 SPECI KPAE 210408Z AUTO 14004KT 10SM FEW018 BKN050 OVC075 16/14 A3003 RMK AO2=
200708210408 SPECI KPAE 210408Z AUTO 14004KT 10SM FEW018 BKN050 OVC075 16/14 A3003 RMK AO2=
200708210353 METAR KPAE 210353Z 14005KT 10SM BKN018 BKN033 OVC050 16/14 A3003 RMK AO2 SLP167 T01610139=
200708210253 METAR KPAE 210253Z 12005KT 10SM BKN022 OVC031 17/14 A3002 RMK AO2 RAB0157E15 SLP164 P0000 60001 T01670144 51007=
200708210153 METAR KPAE 210153Z 10003KT 10SM BKN020 OVC027 17/14 A3001 RMK AO2 RAB03E45 SLP162 P0001 T01670144=
200708210053 METAR KPAE 210053Z 00000KT 10SM BKN016 OVC022 17/13 A3001 RMK AO2 SLP161 T01720133=
200708202353 METAR KPAE 202353Z 17004KT 10SM BKN024 OVC080 17/13 A3000 RMK AO2 SLP156 60014 T01670133 10167 20144 51010=
200708202311 SPECI KPAE 202311Z 24006KT 10SM SCT007 OVC024 16/13 A2999 RMK AO2=
200708202311 SPECI KPAE 202311Z 24006KT 10SM SCT007 OVC024 16/13 A2999 RMK AO2=
200708202253 METAR KPAE 202253Z 23006KT 10SM BKN007 OVC022 16/13 A2999 RMK AO2 SLP153 T01610133=
200708202153 METAR KPAE 202153Z 23005KT 3SM BR SCT002 BKN007 OVC018 16/14 A2998 RMK AO2 SLP151 T01610139=
200708202113 SPECI KPAE 202113Z 23005KT 3SM BR SCT005 BKN009 OVC020 16/14 A2997 RMK AO2=
200708202113 SPECI KPAE 202113Z 23005KT 3SM BR SCT005 BKN009 OVC020 16/14 A2997 RMK AO2=
200708202100 SPECI KPAE 202100Z 25004KT 10SM BR SCT005 BKN009 OVC020 16/14 A2997 RMK AO2 CIG 007V011=
200708202100 SPECI KPAE 202100Z 25004KT 10SM BR SCT005 BKN009 OVC020 16/14 A2997 RMK AO2 CIG 007V011=
200708202053 METAR KPAE 202053Z 00000KT 3SM BR BKN002 OVC004 15/13 A2997 RMK AO2 RAB10E26 SLP146 P0000 60014 T01500133 53007=
200708202026 SPECI KPAE 202026Z 29003KT 3SM BR BKN002 OVC004 16/14 A2996 RMK AO2 RAB10E26 P0000=
200708202026 SPECI KPAE 202026Z 29003KT 3SM BR BKN002 OVC004 16/14 A2996 RMK AO2 RAB10E26 P0000=
200708202000 SPECI KPAE 202000Z 13004KT 10SM BKN008 OVC012 15/13 A2995 RMK AO2 CIG 004V010=
200708202000 SPECI KPAE 202000Z 13004KT 10SM BKN008 OVC012 15/13 A2995 RMK AO2 CIG 004V010=
200708201953 METAR KPAE 201953Z 14003KT 10SM BKN003 BKN026 OVC032 15/13 A2995 RMK AO2 RAE41 SLP141 P0004 T01500133=
200708201937 SPECI KPAE 201937Z 14003KT 5SM -RA BR BKN003 BKN026 OVC032 15/13 A2995 RMK AO2 P0004=
200708201937 SPECI KPAE 201937Z 14003KT 5SM -RA BR BKN003 BKN026 OVC032 15/13 A2995 RMK AO2 P0004=
200708201906 SPECI KPAE 201906Z 00000KT 2 1/2SM -RA BR BKN003 BKN026 OVC032 15/13 A2995 RMK AO2 P0001=
200708201906 SPECI KPAE 201906Z 00000KT 2 1/2SM -RA BR BKN003 BKN026 OVC032 15/13 A2995 RMK AO2 P0001=
200708201853 METAR KPAE 201853Z 16003KT 1 3/4SM RA BR SCT019 BKN025 OVC032 15/13 A2995 RMK AO2 SLP141 P0010 T01500133=
200708201843 SPECI KPAE 201843Z 15004KT 1 3/4SM +RA BR BKN025 OVC031 15/13 A2995 RMK AO2 P0007=
200708201843 SPECI KPAE 201843Z 15004KT 1 3/4SM +RA BR BKN025 OVC031 15/13 A2995 RMK AO2 P0007=
200708201800 SPECI KPAE 201800Z 13004KT 4SM -RA BR FEW006 OVC023 14/13 A2994 RMK AO2 P0000=
200708201800 SPECI KPAE 201800Z 13004KT 4SM -RA BR FEW006 OVC023 14/13 A2994 RMK AO2 P0000=
200708201753 METAR KPAE 201753Z 14005KT 3SM RA BR BKN003 BKN023 OVC042 14/13 A2994 RMK AO2 SLP139 P0009 60024 T01440128 10144 20139 51006=
200708201653 METAR KPAE 201653Z 13004KT 10SM -RA BKN003 OVC033 14/13 A2994 RMK AO2 SLP136 P0009 T01390128=
200708201626 SPECI KPAE 201626Z 14005KT 3SM -RA BR BKN003 OVC033 14/12 A2993 RMK AO2 P0007=
200708201626 SPECI KPAE 201626Z 14005KT 3SM -RA BR BKN003 OVC033 14/12 A2993 RMK AO2 P0007=
200708201614 SPECI KPAE 201614Z 13003KT 2 1/2SM RA BR OVC029 14/13 A2993 RMK AO2 P0004=
200708201614 SPECI KPAE 201614Z 13003KT 2 1/2SM RA BR OVC029 14/13 A2993 RMK AO2 P0004=
200708201607 SPECI KPAE 201607Z 00000KT 3SM RA BR OVC028 14/13 A2993 RMK AO2 P0003=
200708201607 SPECI KPAE 201607Z 00000KT 3SM RA BR OVC028 14/13 A2993 RMK AO2 P0003=
200708201553 METAR KPAE 201553Z 18004KT 3SM RA BR OVC032 14/13 A2994 RMK AO2 SLP136 P0004 T01390128=
200708201453 METAR KPAE 201453Z 17005KT 8SM -RA BKN043 OVC065 14/12 A2993 RMK AO2 RAB1356 SLP132 P0002 60002 T01390117 55001=
200708201353 METAR KPAE 201353Z 14004KT 10SM BKN045 BKN085 OVC110 14/11 A2991 RMK AO2 SLP128 T01440111=
200708201253 METAR KPAE 201253Z AUTO 12003KT 10SM BKN120 14/12 A2991 RMK AO2 SLP128 T01440117=
200708201153 METAR KPAE 201153Z AUTO 10005KT 10SM BKN120 14/12 A2993 RMK AO2 SLP133 70016 T01440117 10156 20144 58010=
200708201053 METAR KPAE 201053Z AUTO 14003KT 10SM FEW100 14/12 A2995 RMK AO2 SLP139 T01440117=
200708200953 METAR KPAE 200953Z AUTO 12007KT 10SM CLR 14/12 A2995 RMK AO2 SLP139 T01440117=
200708200853 METAR KPAE 200853Z AUTO 14007KT 10SM CLR 14/12 A2996 RMK AO2 SLP145 T01440122 58005=
200708200753 METAR KPAE 200753Z AUTO 14007KT 10SM CLR 14/12 A2997 RMK AO2 SLP147 T01440122 401890122=
200708200653 METAR KPAE 200653Z AUTO 14008KT 10SM SCT055 15/12 A2997 RMK AO2 SLP150 T01500122=
200708200553 METAR KPAE 200553Z AUTO 13007KT 10SM SCT042 BKN070 BKN090 16/12 A2997 RMK AO2 SLP150 T01560122 10183 20156 50007=
200708200520 SPECI KPAE 200520Z AUTO 14007KT 10SM SCT029 OVC044 16/12 A2998 RMK AO2=
200708200520 SPECI KPAE 200520Z AUTO 14007KT 10SM SCT029 OVC044 16/12 A2998 RMK AO2=
200708200453 METAR KPAE 200453Z AUTO 15008KT 10SM BKN028 BKN044 OVC085 16/12 A2998 RMK AO2 SLP152 T01560122=
200708200353 METAR KPAE 200353Z 15005KT 10SM BKN035 OVC085 16/12 A2997 RMK AO2 SLP148 T01560122=
200708200253 METAR KPAE 200253Z 16007KT 10SM BKN070 OVC085 16/12 A2995 RMK AO2 SLP143 T01610117 51010=
200708200218 SPECI KPAE 200218Z 16008KT 10SM SCT024 BKN080 17/12 A2995 RMK AO2=
200708200218 SPECI KPAE 200218Z 16008KT 10SM SCT024 BKN080 17/12 A2995 RMK AO2=
200708200204 SPECI KPAE 200204Z VRB04KT 10SM BKN024 17/11 A2995 RMK AO2=
200708200204 SPECI KPAE 200204Z VRB04KT 10SM BKN024 17/11 A2995 RMK AO2=
200708200153 METAR KPAE 200153Z 26003KT 10SM SCT026 17/10 A2995 RMK AO2 SLP140 T01670100=
200708200144 SPECI KPAE 200144Z 13008KT 110V180 10SM BKN026 BKN032 17/11 A2994 RMK AO2=
200708200144 SPECI KPAE 200144Z 13008KT 110V180 10SM BKN026 BKN032 17/11 A2994 RMK AO2=
200708200053 METAR KPAE 200053Z 12003KT 10SM FEW026 18/11 A2993 RMK AO2 SLP135 T01780111=
200708192353 METAR KPAE 192353Z 00000KT 10SM FEW026 18/09 A2992 RMK AO2 SLP131 60002 T01780089 10189 20133 53016=
200708192342 SPECI KPAE 192342Z VRB04KT 10SM SCT026 18/09 A2992 RMK AO2=
200708192342 SPECI KPAE 192342Z VRB04KT 10SM SCT026 18/09 A2992 RMK AO2=
200708192253 METAR KPAE 192253Z 01003KT 10SM BKN020 18/12 A2990 RMK AO2 SLP125 T01830117=
200708192233 SPECI KPAE 192233Z VRB05KT 10SM BKN020 BKN050 17/11 A2990 RMK AO2=
200708192233 SPECI KPAE 192233Z VRB05KT 10SM BKN020 BKN050 17/11 A2990 RMK AO2=
200708192200 SPECI KPAE 192200Z VRB03KT 10SM FEW016 OVC048 16/11 A2989 RMK AO2=
200708192200 SPECI KPAE 192200Z VRB03KT 10SM FEW016 OVC048 16/11 A2989 RMK AO2=
200708192153 METAR KPAE 192153Z 28003KT 10SM SCT006 BKN012 OVC065 16/11 A2989 RMK AO2 SLP122 T01560106=
200708192053 METAR KPAE 192053Z 00000KT 10SM SCT006 BKN012 BKN060 14/11 A2987 RMK AO2 SLP116 60002 T01440111 52005=
200708192048 SPECI KPAE 192048Z 30005KT 10SM SCT006 BKN012 BKN060 14/12 A2987 RMK AO2=
200708192048 SPECI KPAE 192048Z 30005KT 10SM SCT006 BKN012 BKN060 14/12 A2987 RMK AO2=
200708192003 SPECI KPAE 192003Z VRB04KT 10SM BKN005 OVC016 14/12 A2986 RMK AO2=
200708192003 SPECI KPAE 192003Z VRB04KT 10SM BKN005 OVC016 14/12 A2986 RMK AO2=
200708192001 SPECI KPAE 192001Z 28005KT 10SM BKN011 BKN016 14/12 A2986 RMK AO2 CIG 008V013=
200708192001 SPECI KPAE 192001Z 28005KT 10SM BKN011 BKN016 14/12 A2986 RMK AO2 CIG 008V013=
200708191953 METAR KPAE 191953Z 27003KT 10SM BKN009 14/12 A2986 RMK AO2 RAE40 CIG 007V015 SLP111 P0000 T01440117=
200708191950 SPECI KPAE 191950Z 00000KT 10SM BKN009 BKN012 14/12 A2986 RMK AO2 RAE40 CIG 007V011 P0000=
200708191950 SPECI KPAE 191950Z 00000KT 10SM BKN009 BKN012 14/12 A2986 RMK AO2 RAE40 CIG 007V011 P0000=
200708191930 SPECI KPAE 191930Z 31003KT 10SM -RA SCT009 BKN014 BKN019 14/12 A2985 RMK AO2 P0000=
200708191930 SPECI KPAE 191930Z 31003KT 10SM -RA SCT009 BKN014 BKN019 14/12 A2985 RMK AO2 P0000=
200708191900 SPECI KPAE 191900Z 28004KT 10SM -RA FEW007 SCT036 BKN045 13/12 A2985 RMK AO2 P0000=
200708191900 SPECI KPAE 191900Z 28004KT 10SM -RA FEW007 SCT036 BKN045 13/12 A2985 RMK AO2 P0000=
200708191853 METAR KPAE 191853Z 25004KT 10SM -RA BKN016 BKN045 OVC060 13/11 A2985 RMK AO2 SLP107 P0002 T01330111=
200708191819 SPECI KPAE 191819Z 30003KT 8SM -RA FEW008 SCT011 OVC017 13/12 A2984 RMK AO2 P0001=
200708191819 SPECI KPAE 191819Z 30003KT 8SM -RA FEW008 SCT011 OVC017 13/12 A2984 RMK AO2 P0001=
200708191812 SPECI KPAE 191812Z 29004KT 10SM -RA SCT008 BKN012 OVC018 13/12 A2984 RMK AO2 P0001=
200708191812 SPECI KPAE 191812Z 29004KT 10SM -RA SCT008 BKN012 OVC018 13/12 A2984 RMK AO2 P0001=
200708191800 SPECI KPAE 191800Z 00000KT 9SM -RA BKN008 BKN014 BKN060 13/11 A2984 RMK AO2 P0001=
200708191800 SPECI KPAE 191800Z 00000KT 9SM -RA BKN008 BKN014 BKN060 13/11 A2984 RMK AO2 P0001=
200708191753 METAR KPAE 191753Z 29003KT 10SM -RA FEW008 SCT014 BKN049 13/11 A2983 RMK AO2 RAB1657 SLP102 P0001 60014 T01330111 10139 20122 53009=
200708191724 SPECI KPAE 191724Z 00000KT 8SM -RA FEW006 SCT013 BKN033 13/12 A2983 RMK AO2 RAB1657 P0001=
200708191724 SPECI KPAE 191724Z 00000KT 8SM -RA FEW006 SCT013 BKN033 13/12 A2983 RMK AO2 RAB1657 P0001=
200708191721 SPECI KPAE 191721Z 00000KT 7SM -RA FEW006 BKN013 BKN029 13/11 A2983 RMK AO2 RAB1657 P0001=
200708191721 SPECI KPAE 191721Z 00000KT 7SM -RA FEW006 BKN013 BKN029 13/11 A2983 RMK AO2 RAB1657 P0001=
200708191653 METAR KPAE 191653Z 25003KT 10SM SCT005 BKN015 BKN027 13/11 A2982 RMK AO2 RAE53 SLP097 P0002 T01280106=
200708191650 SPECI KPAE 191650Z 25003KT 10SM -RA SCT005 SCT015 BKN027 13/11 A2982 RMK AO2 P0002=
200708191650 SPECI KPAE 191650Z 25003KT 10SM -RA SCT005 SCT015 BKN027 13/11 A2982 RMK AO2 P0002=
200708191633 SPECI KPAE 191633Z 26004KT 8SM -RA BKN005 BKN023 OVC036 13/11 A2982 RMK AO2 P0001=
200708191633 SPECI KPAE 191633Z 26004KT 8SM -RA BKN005 BKN023 OVC036 13/11 A2982 RMK AO2 P0001=
200708191625 SPECI KPAE 191625Z 23003KT 7SM -RA SCT005 BKN018 OVC060 13/11 A2981 RMK AO2 P0001=
200708191625 SPECI KPAE 191625Z 23003KT 7SM -RA SCT005 BKN018 OVC060 13/11 A2981 RMK AO2 P0001=
200708191553 METAR KPAE 191553Z 23003KT 7SM -RA FEW003 BKN033 OVC060 12/11 A2981 RMK AO2 SLP093 P0003 T01220111=
200708191453 METAR KPAE 191453Z 24003KT 7SM -RA BKN003 BKN026 OVC047 12/11 A2980 RMK AO2 SLP090 P0003 60008 T01220111 53003=
200708191425 SPECI KPAE 191425Z 23005KT 5SM -RA BR OVC003 12/11 A2980 RMK AO2 P0002=
200708191425 SPECI KPAE 191425Z 23005KT 5SM -RA BR OVC003 12/11 A2980 RMK AO2 P0002=
200708191353 METAR KPAE 191353Z 22004KT 4SM -RA BR BKN001 OVC005 12/12 A2979 RMK AO2 SLP087 P0003 T01220117=
200708191333 SPECI KPAE 191333Z AUTO 24003KT 7SM -RA BKN003 BKN040 OVC070 12/11 A2979 RMK AO2 P0002=
200708191333 SPECI KPAE 191333Z AUTO 24003KT 7SM -RA BKN003 BKN040 OVC070 12/11 A2979 RMK AO2 P0002=
200708191301 SPECI KPAE 191301Z AUTO 24003KT 6SM -RA BR FEW002 BKN008 OVC047 12/11 A2978 RMK AO2 P0001=
200708191301 SPECI KPAE 191301Z AUTO 24003KT 6SM -RA BR FEW002 BKN008 OVC047 12/11 A2978 RMK AO2 P0001=
200708191253 METAR KPAE 191253Z AUTO 25003KT 6SM -RA BR SCT002 BKN010 OVC045 12/11 A2979 RMK AO2 SLP085 P0002 T01220111=
200708191212 SPECI KPAE 191212Z AUTO 26004KT 3SM -RA BR BKN002 OVC011 13/12 A2979 RMK AO2 P0001=
200708191212 SPECI KPAE 191212Z AUTO 26004KT 3SM -RA BR BKN002 OVC011 13/12 A2979 RMK AO2 P0001=
200708191202 SPECI KPAE 191202Z AUTO 27003KT 6SM -RA BR SCT002 OVC011 13/12 A2979 RMK AO2 P0001=
200708191202 SPECI KPAE 191202Z AUTO 27003KT 6SM -RA BR SCT002 OVC011 13/12 A2979 RMK AO2 P0001=
200708191153 METAR KPAE 191153Z AUTO 26003KT 7SM -RA OVC011 13/12 A2979 RMK AO2 SLP086 P0001 60005 70005 T01280117 10150 20128 56012=
200708191143 SPECI KPAE 191143Z AUTO 00000KT 9SM -RA SCT005 OVC011 13/12 A2979 RMK AO2 P0001=
200708191143 SPECI KPAE 191143Z AUTO 00000KT 9SM -RA SCT005 OVC011 13/12 A2979 RMK AO2 P0001=
200708191114 SPECI KPAE 191114Z AUTO 00000KT 10SM BKN005 OVC070 13/12 A2979 RMK AO2 RAE03 P0000=
200708191114 SPECI KPAE 191114Z AUTO 00000KT 10SM BKN005 OVC070 13/12 A2979 RMK AO2 RAE03 P0000=
200708191053 METAR KPAE 191053Z AUTO 16003KT 10SM -RA FEW005 BKN070 OVC080 13/12 A2980 RMK AO2 RAB09 SLP087 P0001 T01330117=
200708191030 SPECI KPAE 191030Z AUTO 13003KT 10SM -RA FEW005 SCT030 OVC070 13/12 A2980 RMK AO2 RAB09 P0001=
200708191030 SPECI KPAE 191030Z AUTO 13003KT 10SM -RA FEW005 SCT030 OVC070 13/12 A2980 RMK AO2 RAB09 P0001=
200708190953 METAR KPAE 190953Z AUTO 00000KT 10SM FEW038 BKN070 OVC110 13/11 A2980 RMK AO2 RAE52 SLP089 P0000 T01330111=
200708190853 METAR KPAE 190853Z AUTO 19006KT 10SM -RA SCT044 BKN075 OVC085 13/12 A2983 RMK AO2 SLP098 P0002 60003 T01330117 58011=
200708190825 SPECI KPAE 190825Z AUTO 19006KT 10SM -RA FEW005 BKN070 OVC085 13/12 A2983 RMK AO2 P0001=
200708190825 SPECI KPAE 190825Z AUTO 19006KT 10SM -RA FEW005 BKN070 OVC085 13/12 A2983 RMK AO2 P0001=
200708190753 METAR KPAE 190753Z AUTO 20005KT 10SM -RA OVC070 13/12 A2984 RMK AO2 SLP102 P0001 T01330117 402220133=
200708190653 METAR KPAE 190653Z AUTO 21004KT 10SM -RA BKN065 OVC085 14/12 A2985 RMK AO2 SLP106 P0000 T01390117=
200708190553 METAR KPAE 190553Z AUTO 20004KT 10SM -RA OVC070 15/12 A2986 RMK AO2 RAB01 SLP109 P0000 60000 T01500117 10189 20144 50002=
200708190453 METAR KPAE 190453Z AUTO 00000KT 10SM BKN080 OVC095 14/11 A2986 RMK AO2 RAE0355 SLP111 P0000 T01440106=
200708190353 METAR KPAE 190353Z 00000KT 10SM -RA BKN070 OVC085 14/11 A2986 RMK AO2 RAB17 SLP110 P0000 T01440111=
200708190253 METAR KPAE 190253Z 02003KT 10SM OVC055 16/11 A2985 RMK AO2 RAB28E52 SLP107 P0000 60000 T01560111 55002=
200708190153 METAR KPAE 190153Z 34003KT 10SM FEW090 17/11 A2985 RMK AO2 SLP106 T01670111=
200708190053 METAR KPAE 190053Z 29005KT 10SM BKN060 BKN100 18/10 A2986 RMK AO2 SLP110 T01830100=
200708182353 METAR KPAE 182353Z 24009KT 10SM FEW060 BKN100 18/10 A2986 RMK AO2 SLP109 T01830100 10222 20178 55003=
200708182253 METAR KPAE 182253Z 26008KT 10SM FEW085 22/09 A2985 RMK AO2 SLP107 T02170089=
200708182153 METAR KPAE 182153Z 25010KT 10SM CLR 22/09 A2986 RMK AO2 SLP110 T02170089=
200708182053 METAR KPAE 182053Z 23009KT 10SM CLR 21/09 A2987 RMK AO2 SLP111 T02110089 58007=
200708181953 METAR KPAE 181953Z 22008KT 10SM SCT033 21/11 A2988 RMK AO2 SLP114 T02060106=
200708181913 SPECI KPAE 181913Z 19007KT 10SM SCT028 SCT036 BKN048 18/10 A2988 RMK AO2=
200708181913 SPECI KPAE 181913Z 19007KT 10SM SCT028 SCT036 BKN048 18/10 A2988 RMK AO2=
200708181853 METAR KPAE 181853Z 16010G16KT 10SM BKN026 19/11 A2988 RMK AO2 SLP117 T01940106=
200708181841 SPECI KPAE 181841Z 16011KT 10SM BKN026 19/11 A2989 RMK AO2=
200708181841 SPECI KPAE 181841Z 16011KT 10SM BKN026 19/11 A2989 RMK AO2=
200708181753 METAR KPAE 181753Z 19010KT 10SM CLR 18/11 A2989 RMK AO2 SLP119 T01830106 10183 20133 56004=
200708181653 METAR KPAE 181653Z 17009KT 10SM FEW026 BKN070 17/12 A2989 RMK AO2 SLP120 T01720117=
200708181626 SPECI KPAE 181626Z 15007KT 10SM SCT012 BKN026 16/12 A2990 RMK AO2=
200708181626 SPECI KPAE 181626Z 15007KT 10SM SCT012 BKN026 16/12 A2990 RMK AO2=
200708181553 METAR KPAE 181553Z 16008KT 10SM FEW010 BKN055 15/12 A2990 RMK AO2 SLP124 T01500117=
200708181522 SPECI KPAE 181522Z 16009KT 10SM FEW009 SCT055 15/12 A2990 RMK AO2=
200708181522 SPECI KPAE 181522Z 16009KT 10SM FEW009 SCT055 15/12 A2990 RMK AO2=
200708181453 METAR KPAE 181453Z 16008KT 10SM SCT085 14/12 A2990 RMK AO2 SLP125 T01440122 58004=
200708181353 METAR KPAE 181353Z 17003KT 10SM FEW080 14/12 A2991 RMK AO2 SLP128 T01390117=
200708181253 METAR KPAE 181253Z AUTO 19004KT 10SM BKN080 14/11 A2991 RMK AO2 SLP128 T01390111=
200708181153 METAR KPAE 181153Z AUTO 00000KT 10SM BKN080 14/12 A2991 RMK AO2 SLP127 T01440117 10156 20139 56008=
200708181053 METAR KPAE 181053Z AUTO 00000KT 10SM OVC075 14/12 A2992 RMK AO2 SLP130 T01440117=
200708180953 METAR KPAE 180953Z AUTO 00000KT 10SM FEW075 14/11 A2993 RMK AO2 SLP132 T01440106=
200708180853 METAR KPAE 180853Z AUTO 00000KT 10SM FEW095 14/10 A2994 RMK AO2 SLP135 T01440100 56010=
200708180753 METAR KPAE 180753Z AUTO 00000KT 10SM CLR 15/11 A2995 RMK AO2 SLP138 T01500106 402280133=
200708180653 METAR KPAE 180653Z AUTO 00000KT 10SM SCT095 16/11 A2996 RMK AO2 SLP142 T01560106=
200708180553 METAR KPAE 180553Z AUTO 00000KT 10SM FEW100 15/11 A2997 RMK AO2 SLP145 T01500106 10217 20150 50002=
200708180453 METAR KPAE 180453Z AUTO 00000KT 10SM OVC080 16/11 A2997 RMK AO2 SLP149 T01560106=
200708180353 METAR KPAE 180353Z AUTO 02003KT 10SM FEW095 16/11 A2997 RMK AO2 SLP148 T01560106=
200708180253 METAR KPAE 180253Z 26007KT 10SM SCT095 18/09 A2996 RMK AO2 SLP144 T01780094 58006=
200708180153 METAR KPAE 180153Z 22006KT 10SM SCT090 19/09 A2997 RMK AO2 SLP146 T01890089=
200708180053 METAR KPAE 180053Z 23013KT 10SM CLR 21/09 A2998 RMK AO2 SLP149 T02060094=
200708172353 METAR KPAE 172353Z 25008KT 10SM CLR 22/09 A2998 RMK AO2 SLP150 T02170094 10228 20194 56012=
200708172253 METAR KPAE 172253Z 22008G15KT 10SM BKN049 23/08 A2999 RMK AO2 SLP153 T02280083=
200708172153 METAR KPAE 172153Z 16012G17KT 10SM FEW043 22/08 A3000 RMK AO2 SLP157 T02220083=
200708172053 METAR KPAE 172053Z 23013G18KT 10SM CLR 21/09 A3002 RMK AO2 SLP162 T02110089 58002=
200708171953 METAR KPAE 171953Z 20011KT 10SM FEW040 21/09 A3002 RMK AO2 SLP164 T02060094=
200708171853 METAR KPAE 171853Z 22008G17KT 10SM FEW047 21/09 A3002 RMK AO2 SLP164 T02060089=
200708171753 METAR KPAE 171753Z 21013G19KT 10SM CLR 20/09 A3002 RMK AO2 SLP164 T02000089 10200 20133 52003=
200708171653 METAR KPAE 171653Z 17009KT 10SM FEW070 19/09 A3002 RMK AO2 SLP163 T01890094=
200708171553 METAR KPAE 171553Z 17008KT 10SM SCT070 17/11 A3002 RMK AO2 SLP163 T01720106=
200708171453 METAR KPAE 171453Z 16007KT 10SM CLR 16/11 A3001 RMK AO2 SLP161 T01560111 51008=
200708171353 METAR KPAE 171353Z 16007KT 10SM BKN075 14/11 A3001 RMK AO2 SLP161 T01440106=
200708171253 METAR KPAE 171253Z AUTO 17006KT 10SM FEW060 14/10 A3001 RMK AO2 SLP159 T01390100=
200708171153 METAR KPAE 171153Z AUTO 16006KT 10SM CLR 14/10 A2999 RMK AO2 SLP153 T01390100 10161 20139 53001=
200708171053 METAR KPAE 171053Z AUTO 16006KT 10SM CLR 14/09 A2999 RMK AO2 SLP153 T01440094=
200708170953 METAR KPAE 170953Z AUTO 16007KT 10SM CLR 14/09 A2998 RMK AO2 SLP150 T01440089=
200708170853 METAR KPAE 170853Z AUTO 15006KT 10SM CLR 15/09 A2998 RMK AO2 SLP151 T01500089 58001=
200708170753 METAR KPAE 170753Z AUTO 18006KT 10SM CLR 14/08 A2999 RMK AO2 SLP154 T01440083 402330139=
200708170653 METAR KPAE 170653Z AUTO 18006KT 10SM CLR 15/09 A2999 RMK AO2 SLP154 T01500094=
200708170553 METAR KPAE 170553Z AUTO 00000KT 10SM SCT085 15/11 A2999 RMK AO2 SLP153 T01500106 10228 20150 50003=
200708170453 METAR KPAE 170453Z 00000KT 10SM OVC080 16/11 A2999 RMK AO2 SLP155 T01610106=
200708170353 METAR KPAE 170353Z 00000KT 10SM BKN075 OVC090 17/10 A2998 RMK AO2 SLP152 T01720100=
200708170253 METAR KPAE 170253Z 19009KT 10SM BKN055 OVC070 19/09 A2998 RMK AO2 SLP149 T01940089 50000=
200708170153 METAR KPAE 170153Z 20009KT 10SM SCT050 BKN075 OVC090 19/12 A2998 RMK AO2 SLP151 T01940117=
200708170053 METAR KPAE 170053Z 19010KT 10SM BKN036 BKN043 OVC060 21/12 A2998 RMK AO2 SLP150 T02110117=
200708162353 METAR KPAE 162353Z 22013KT 10SM FEW037 SCT046 BKN055 23/12 A2998 RMK AO2 SLP149 T02280117 10233 20178 56001=
200708162253 METAR KPAE 162253Z AUTO 19010KT 10SM BKN035 OVC046 22/12 A2998 RMK AO2 SLP149 T02170122 TSNO=
200708162153 METAR KPAE 162153Z 19012KT 10SM BKN032 BKN039 OVC046 21/12 A2998 RMK AO2 SLP149 T02110122=
200708162053 METAR KPAE 162053Z 16010KT 10SM BKN032 OVC042 21/12 A2998 RMK AO2 SLP150 T02060122 53003=
200708161953 METAR KPAE 161953Z 16009KT 10SM SCT031 OVC040 21/12 A2997 RMK AO2 SLP146 T02060122=
200708161853 METAR KPAE 161853Z 21009KT 10SM OVC028 19/12 A2997 RMK AO2 SLP147 T01890117=
200708161753 METAR KPAE 161753Z 18010KT 10SM SCT022 OVC028 18/12 A2997 RMK AO2 SLP147 T01780122 10178 20150 51014=
200708161653 METAR KPAE 161653Z 17006KT 10SM OVC018 17/12 A2996 RMK AO2 SLP144 T01720122=
200708161553 METAR KPAE 161553Z 17011KT 10SM OVC016 17/12 A2995 RMK AO2 SLP140 T01670122=
200708161526 SPECI KPAE 161526Z 16012KT 10SM OVC016 17/12 A2994 RMK AO2=
200708161526 SPECI KPAE 161526Z 16012KT 10SM OVC016 17/12 A2994 RMK AO2=
200708161453 METAR KPAE 161453Z 17010KT 10SM OVC014 16/12 A2993 RMK AO2 SLP134 T01610117 53016=
200708161353 METAR KPAE 161353Z 18009KT 10SM OVC014 16/12 A2991 RMK AO2 SLP126 T01610117=
200708161253 METAR KPAE 161253Z 19014KT 10SM OVC012 16/12 A2990 RMK AO2 SLP122 T01560117=
200708161224 SPECI KPAE 161224Z 18010KT 10SM BKN012 16/12 A2989 RMK AO2=
200708161224 SPECI KPAE 161224Z 18010KT 10SM BKN012 16/12 A2989 RMK AO2=
200708161153 METAR KPAE 161153Z 17007KT 10SM CLR 15/11 A2989 RMK AO2 SLP117 T01500111 10194 20150 53002=
200708161053 METAR KPAE 161053Z 16005KT 10SM CLR 16/11 A2988 RMK AO2 SLP116 T01610106=
200708160953 METAR KPAE 160953Z 00000KT 10SM CLR 17/10 A2988 RMK AO2 SLP114 T01670100=
200708160853 METAR KPAE 160853Z 15005KT 10SM CLR 18/10 A2988 RMK AO2 SLP114 T01780100 50006=
200708160753 METAR KPAE 160753Z 09003KT 10SM CLR 19/08 A2988 RMK AO2 SLP116 T01940083 402670133=
200708160653 METAR KPAE 160653Z 00000KT 10SM CLR 19/08 A2988 RMK AO2 SLP116 T01940083=
200708160553 METAR KPAE 160553Z 00000KT 10SM CLR 19/08 A2986 RMK AO2 SLP108 T01890083 10267 20178 51004=
200708160453 METAR KPAE 160453Z 02003KT 10SM CLR 19/08 A2986 RMK AO2 SLP107 T01940083=
200708160353 METAR KPAE 160353Z 35005KT 10SM CLR 19/09 A2985 RMK AO2 SLP106 T01890089=
200708160253 METAR KPAE 160253Z 35003KT 10SM CLR 22/11 A2985 RMK AO2 SLP103 T02220106 53002=
200708160153 METAR KPAE 160153Z 34004KT 10SM CLR 24/11 A2984 RMK AO2 SLP101 T02440111=
200708160053 METAR KPAE 160053Z 36004KT 10SM CLR 26/11 A2984 RMK AO2 SLP100 T02610111=
200708152353 METAR KPAE 152353Z 30006KT 10SM CLR 26/11 A2984 RMK AO2 SLP101 T02560111 10267 20222 56014=
200708152253 METAR KPAE 152253Z VRB04KT 10SM CLR 25/11 A2985 RMK AO2 SLP103 T02500106=
200708152153 METAR KPAE 152153Z 34006KT 10SM CLR 26/09 A2986 RMK AO2 SLP107 T02610094=
200708152053 METAR KPAE 152053Z 36005KT 10SM CLR 26/08 A2988 RMK AO2 SLP115 T02610083 56019=
200708151953 METAR KPAE 151953Z 33008KT 10SM CLR 24/12 A2990 RMK AO2 SLP120 T02440117=
200708151853 METAR KPAE 151853Z 01005KT 10SM CLR 24/11 A2992 RMK AO2 SLP127 T02390111=
200708151753 METAR KPAE 151753Z VRB03KT 10SM CLR 22/12 A2994 RMK AO2 SLP134 T02220122 10222 20133 58003=
200708151653 METAR KPAE 151653Z VRB03KT 10SM CLR 20/11 A2994 RMK AO2 SLP137 T02000111=
200708151553 METAR KPAE 151553Z 33003KT 10SM CLR 18/12 A2995 RMK AO2 SLP140 T01780117=
200708151453 METAR KPAE 151453Z 00000KT 10SM CLR 17/11 A2995 RMK AO2 SLP138 T01720106 53004=
200708151353 METAR KPAE 151353Z 00000KT 10SM CLR 15/11 A2994 RMK AO2 SLP136 T01500106=
200708151253 METAR KPAE 151253Z AUTO 00000KT 10SM CLR 14/10 A2994 RMK AO2 SLP135 T01390100 TSNO=
200708151153 METAR KPAE 151153Z AUTO 00000KT 10SM CLR 14/11 A2993 RMK AO2 SLP134 T01440106 10178 20139 58001 TSNO=
200708151053 METAR KPAE 151053Z AUTO 00000KT 10SM CLR 15/11 A2994 RMK AO2 SLP135 T01500106 TSNO=
200708150953 METAR KPAE 150953Z AUTO 00000KT 10SM CLR 16/10 A2994 RMK AO2 SLP134 T01560100 TSNO=
200708150853 METAR KPAE 150853Z AUTO 00000KT 10SM CLR 16/10 A2994 RMK AO2 SLP135 T01560100 58002 TSNO=
200708150753 METAR KPAE 150753Z AUTO 00000KT 10SM CLR 17/10 A2994 RMK AO2 SLP135 T01720100 402440117 TSNO=
200708150653 METAR KPAE 150653Z AUTO 00000KT 10SM CLR 17/11 A2994 RMK AO2 SLP138 T01720106 TSNO=
200708150553 METAR KPAE 150553Z AUTO 00000KT 10SM CLR 18/11 A2994 RMK AO2 SLP137 T01780106 10244 20178 53002 TSNO=
200708150453 METAR KPAE 150453Z AUTO 36003KT 10SM CLR 19/10 A2994 RMK AO2 SLP136 T01890100 TSNO=
200708150353 METAR KPAE 150353Z 34003KT 10SM CLR 21/09 A2994 RMK AO2 SLP135 T02060094=
200708150253 METAR KPAE 150253Z 34003KT 10SM CLR 22/10 A2994 RMK AO2 SLP135 T02170100 56009=
200708150153 METAR KPAE 150153Z 34006KT 10SM CLR 23/09 A2994 RMK AO2 SLP137 T02280094=
200708150053 METAR KPAE 150053Z 35007KT 10SM CLR 23/11 A2995 RMK AO2 SLP140 T02330106=
200708142353 METAR KPAE 142353Z 35008KT 10SM CLR 24/10 A2996 RMK AO2 SLP144 T02390100 10244 20189 57018=
200708142253 METAR KPAE 142253Z 35005KT 10SM CLR 24/10 A2998 RMK AO2 SLP151 T02440100=
200708142153 METAR KPAE 142153Z VRB04KT 10SM CLR 24/11 A3000 RMK AO2 SLP156 T02440106=
200708142053 METAR KPAE 142053Z 01005KT 10SM CLR 23/11 A3002 RMK AO2 SLP163 T02330111 57013=
200708141953 METAR KPAE 141953Z VRB04KT 10SM CLR 22/09 A3003 RMK AO2 SLP167 T02220094=
200708141853 METAR KPAE 141853Z 35005KT 10SM CLR 21/12 A3005 RMK AO2 SLP172 T02060117=
200708141753 METAR KPAE 141753Z 01005KT 10SM CLR 19/11 A3006 RMK AO2 SLP176 T01940106 10194 20117 58006=
200708141653 METAR KPAE 141653Z 36004KT 10SM CLR 18/10 A3007 RMK AO2 SLP180 T01780100=
200708141553 METAR KPAE 141553Z 35003KT 10SM CLR 18/11 A3007 RMK AO2 SLP179 T01780111=
200708141453 METAR KPAE 141453Z 00000KT 10SM CLR 16/11 A3007 RMK AO2 SLP183 T01560106 53003=
200708141353 METAR KPAE 141353Z 00000KT 10SM CLR 14/10 A3007 RMK AO2 SLP181 T01390100=
200708141253 METAR KPAE 141253Z AUTO 00000KT 10SM CLR 12/10 A3007 RMK AO2 SLP181 T01220100=
200708141153 METAR KPAE 141153Z AUTO 00000KT 10SM CLR 12/10 A3007 RMK AO2 SLP180 T01220100 10156 20122 55001=
200708141053 METAR KPAE 141053Z AUTO 00000KT 10SM CLR 12/09 A3006 RMK AO2 SLP179 T01220094=
200708140953 METAR KPAE 140953Z AUTO 00000KT 10SM CLR 12/10 A3007 RMK AO2 SLP181 T01220100=
200708140853 METAR KPAE 140853Z AUTO 35003KT 10SM CLR 13/10 A3007 RMK AO2 SLP181 T01280100 58003=
200708140753 METAR KPAE 140753Z AUTO 00000KT 10SM CLR 13/10 A3007 RMK AO2 SLP182 T01330100 402170111=
200708140653 METAR KPAE 140653Z AUTO 00000KT 10SM CLR 14/09 A3008 RMK AO2 SLP184 T01440094=
200708140553 METAR KPAE 140553Z AUTO 35003KT 10SM CLR 16/09 A3008 RMK AO2 SLP184 T01560094 10206 20150 58001=
200708140453 METAR KPAE 140453Z AUTO 36003KT 10SM CLR 16/09 A3009 RMK AO2 SLP188 T01610094=
200708140353 METAR KPAE 140353Z 00000KT 10SM CLR 17/09 A3009 RMK AO2 SLP188 T01720094=
200708140253 METAR KPAE 140253Z 34005KT 10SM CLR 19/09 A3008 RMK AO2 SLP186 T01890094 55007=
200708140153 METAR KPAE 140153Z 33004KT 10SM CLR 20/10 A3008 RMK AO2 SLP184 T02000100=
200708140053 METAR KPAE 140053Z VRB05KT 10SM CLR 21/11 A3009 RMK AO2 SLP189 T02060106=
200708132353 METAR KPAE 132353Z 36007KT 10SM CLR 21/10 A3010 RMK AO2 SLP193 T02060100 10217 20172 56012=
200708132253 METAR KPAE 132253Z AUTO 33009G16KT 10SM CLR 21/09 A3011 RMK AO2 SLP195 T02110094 TSNO=
200708132153 METAR KPAE 132153Z 32008KT 10SM CLR 21/10 A3013 RMK AO2 SLP201 T02110100=
200708132053 METAR KPAE 132053Z 01008G15KT 10SM CLR 21/11 A3014 RMK AO2 SLP205 T02110106 56009=
200708131953 METAR KPAE 131953Z 33008G14KT 10SM CLR 19/10 A3015 RMK AO2 SLP208 T01890100=
200708131853 METAR KPAE 131853Z VRB05KT 10SM CLR 19/09 A3015 RMK AO2 SLP210 T01890094=
200708131753 METAR KPAE 131753Z 01005KT 10SM CLR 17/10 A3017 RMK AO2 SLP214 T01720100 10178 20111 58004=
200708131653 METAR KPAE 131653Z VRB04KT 10SM CLR 17/10 A3017 RMK AO2 SLP216 T01670100=
200708131553 METAR KPAE 131553Z VRB03KT 10SM CLR 15/09 A3018 RMK AO2 SLP219 T01500094=
200708131453 METAR KPAE 131453Z 01004KT 10SM CLR 13/09 A3018 RMK AO2 SLP218 T01330094 51009=
200708131353 METAR KPAE 131353Z 36003KT 10SM CLR 12/09 A3017 RMK AO2 SLP215 T01220089=
200708131253 METAR KPAE 131253Z AUTO 35003KT 10SM CLR 12/08 A3016 RMK AO2 SLP213 T01170083=
200708131153 METAR KPAE 131153Z AUTO 01003KT 10SM CLR 11/09 A3015 RMK AO2 SLP209 T01110089 10133 20111 53001=
200708131053 METAR KPAE 131053Z AUTO 00000KT 10SM CLR 12/09 A3015 RMK AO2 SLP208 T01170089=
200708130953 METAR KPAE 130953Z AUTO 36003KT 10SM CLR 12/09 A3015 RMK AO2 SLP207 T01170094=
200708130853 METAR KPAE 130853Z AUTO 34005KT 10SM CLR 12/10 A3015 RMK AO2 SLP207 T01220100 53002=
200708130753 METAR KPAE 130753Z AUTO 35004KT 10SM CLR 12/10 A3014 RMK AO2 SLP206 T01220100 402000122=
200708130653 METAR KPAE 130653Z AUTO 36003KT 10SM CLR 13/10 A3014 RMK AO2 SLP204 T01280100=
200708130553 METAR KPAE 130553Z AUTO 00000KT 10SM CLR 13/11 A3014 RMK AO2 SLP206 T01280106 10200 20128 50010=
200708130453 METAR KPAE 130453Z AUTO 35005KT 10SM CLR 13/11 A3014 RMK AO2 SLP207 T01330106=
200708130353 METAR KPAE 130353Z 36005KT 10SM CLR 14/10 A3012 RMK AO2 SLP200 T01440100=
200708130253 METAR KPAE 130253Z VRB04KT 10SM SCT045 BKN065 17/11 A3011 RMK AO2 SLP194 T01670106 55001=
200708130153 METAR KPAE 130153Z 24006KT 10SM SCT039 BKN046 OVC055 18/09 A3011 RMK AO2 SLP193 T01780094=
200708130053 METAR KPAE 130053Z 23007KT 10SM SCT039 BKN048 OVC055 19/09 A3011 RMK AO2 SLP195 T01890094=
200708122353 METAR KPAE 122353Z 22005KT 10SM CLR 19/10 A3011 RMK AO2 SLP195 T01940100 10194 20150 53007=
200708122253 METAR KPAE 122253Z 24007KT 10SM CLR 18/09 A3010 RMK AO2 SLP193 T01830094=
200708122153 METAR KPAE 122153Z 26007KT 10SM SCT100 18/09 A3009 RMK AO2 SLP189 T01830094=
200708122053 METAR KPAE 122053Z 25006KT 10SM SCT030 18/10 A3009 RMK AO2 SLP189 T01780100 50006=
200708122004 SPECI KPAE 122004Z 16006KT 10SM OVC030 18/09 A3009 RMK AO2=
200708122004 SPECI KPAE 122004Z 16006KT 10SM OVC030 18/09 A3009 RMK AO2=
200708121953 METAR KPAE 121953Z VRB04KT 10SM OVC028 17/09 A3009 RMK AO2 SLP189 T01720094=
200708121915 SPECI KPAE 121915Z 00000KT 10SM BKN026 BKN032 OVC110 17/11 A3009 RMK AO2=
200708121915 SPECI KPAE 121915Z 00000KT 10SM BKN026 BKN032 OVC110 17/11 A3009 RMK AO2=
200708121903 SPECI KPAE 121903Z VRB03KT 10SM SCT024 BKN032 BKN110 17/10 A3009 RMK AO2=
200708121903 SPECI KPAE 121903Z VRB03KT 10SM SCT024 BKN032 BKN110 17/10 A3009 RMK AO2=
200708121853 METAR KPAE 121853Z 18006KT 10SM BKN022 OVC032 17/09 A3008 RMK AO2 SLP186 T01670094=
200708121841 SPECI KPAE 121841Z 20007KT 10SM BKN022 BKN030 16/09 A3008 RMK AO2=
200708121841 SPECI KPAE 121841Z 20007KT 10SM BKN022 BKN030 16/09 A3008 RMK AO2=
200708121830 SPECI KPAE 121830Z 13007KT 10SM SCT024 OVC032 16/09 A3008 RMK AO2=
200708121830 SPECI KPAE 121830Z 13007KT 10SM SCT024 OVC032 16/09 A3008 RMK AO2=
200708121753 METAR KPAE 121753Z 15007KT 10SM BKN023 OVC030 16/09 A3007 RMK AO2 SLP183 T01560094 10156 20122 51007=
200708121731 SPECI KPAE 121731Z 17006KT 10SM FEW020 BKN027 15/09 A3007 RMK AO2=
200708121731 SPECI KPAE 121731Z 17006KT 10SM FEW020 BKN027 15/09 A3007 RMK AO2=
200708121653 METAR KPAE 121653Z 17007KT 10SM FEW026 SCT032 BKN095 15/10 A3007 RMK AO2 SLP181 T01500100=
200708121553 METAR KPAE 121553Z 16006KT 10SM FEW015 OVC032 14/11 A3006 RMK AO2 SLP179 T01440106=
200708121453 METAR KPAE 121453Z 22003KT 10SM OVC034 13/10 A3005 RMK AO2 SLP176 T01330100 53012=
200708121353 METAR KPAE 121353Z 00000KT 10SM SCT029 OVC038 13/10 A3004 RMK AO2 SLP170 T01330100=
200708121253 METAR KPAE 121253Z AUTO 00000KT 10SM FEW026 OVC042 12/09 A3002 RMK AO2 SLP165 T01220094=
200708121224 SPECI KPAE 121224Z AUTO 00000KT 10SM SCT026 OVC042 13/10 A3002 RMK AO2=
200708121224 SPECI KPAE 121224Z AUTO 00000KT 10SM SCT026 OVC042 13/10 A3002 RMK AO2=
200708121153 METAR KPAE 121153Z AUTO 00000KT 10SM BKN026 OVC042 13/09 A3002 RMK AO2 SLP163 60002 70002 T01280094 10133 20122 50007=
200708121150 SPECI KPAE 121150Z AUTO 00000KT 10SM BKN026 OVC042 13/10 A3002 RMK AO2=
200708121150 SPECI KPAE 121150Z AUTO 00000KT 10SM BKN026 OVC042 13/10 A3002 RMK AO2=
200708121053 METAR KPAE 121053Z AUTO 00000KT 10SM OVC070 13/09 A3001 RMK AO2 RAB0957E06 SLP160 P0000 T01280094=
200708120953 METAR KPAE 120953Z AUTO 00000KT 10SM FEW065 OVC080 13/09 A3000 RMK AO2 RAE48 SLP156 P0000 T01280094=
200708120853 METAR KPAE 120853Z AUTO 29003KT 10SM -RA SCT045 OVC080 13/09 A2999 RMK AO2 RAE22B52 SLP156 P0001 60002 T01280094 51006=
200708120753 METAR KPAE 120753Z AUTO 00000KT 9SM -RA BKN043 BKN065 OVC080 12/10 A2999 RMK AO2 RAB15 SLP154 P0001 T01220100 401940111=
200708120653 METAR KPAE 120653Z AUTO 33005KT 10SM OVC050 13/09 A2999 RMK AO2 SLP153 T01330089=
200708120553 METAR KPAE 120553Z AUTO 35003KT 10SM FEW050 SCT120 13/08 A2997 RMK AO2 SLP149 T01330083 10167 20133 51006=
200708120453 METAR KPAE 120453Z AUTO 36005KT 10SM FEW044 13/09 A2997 RMK AO2 SLP149 T01330089=
200708120353 METAR KPAE 120353Z 01005KT 10SM CLR 14/09 A2996 RMK AO2 SLP146 T01390089=
200708120253 METAR KPAE 120253Z VRB05KT 10SM SCT050 14/09 A2996 RMK AO2 SLP144 T01440089 51006=
200708120153 METAR KPAE 120153Z 36005KT 10SM CLR 16/09 A2995 RMK AO2 SLP141 T01560089=
200708120053 METAR KPAE 120053Z 36005KT 10SM CLR 16/09 A2995 RMK AO2 SLP143 T01560089=
200708112353 METAR KPAE 112353Z 35007KT 10SM CLR 17/09 A2994 RMK AO2 SLP138 T01670089 10194 20161 55005=
200708112253 METAR KPAE 112253Z 01006KT 10SM CLR 19/09 A2994 RMK AO2 SLP136 T01890089=
200708112153 METAR KPAE 112153Z 36006KT 10SM CLR 18/09 A2994 RMK AO2 SLP138 T01830089=
200708112053 METAR KPAE 112053Z VRB04KT 10SM CLR 18/11 A2995 RMK AO2 SLP142 T01830106 58012=
200708111953 METAR KPAE 111953Z VRB04KT 10SM CLR 18/11 A2996 RMK AO2 SLP145 T01780111=
200708111853 METAR KPAE 111853Z 32006KT 10SM CLR 17/11 A2998 RMK AO2 SLP150 T01720111=
200708111753 METAR KPAE 111753Z VRB03KT 10SM CLR 17/10 A2999 RMK AO2 SLP153 T01670100 10172 20111 58008=
200708111653 METAR KPAE 111653Z 35004KT 10SM CLR 16/11 A3000 RMK AO2 SLP157 T01560106 $=
200708111553 METAR KPAE 111553Z 00000KT 10SM SCT003 13/11 A3001 RMK AO2 SLP161 T01330106=
200708111506 SPECI KPAE 111506Z 00000KT 7SM SCT003 12/11 A3001 RMK AO2=
200708111506 SPECI KPAE 111506Z 00000KT 7SM SCT003 12/11 A3001 RMK AO2=
200708111453 METAR KPAE 111453Z 36003KT 5SM BR OVC003 12/11 A3001 RMK AO2 SLP162 T01220106 56002=
200708111418 SPECI KPAE 111418Z 01003KT 7SM OVC003 12/11 A3001 RMK AO2=
200708111418 SPECI KPAE 111418Z 01003KT 7SM OVC003 12/11 A3001 RMK AO2=
200708111353 METAR KPAE 111353Z 00000KT 10SM BKN005 12/10 A3001 RMK AO2 SLP162 T01170100=
200708111344 SPECI KPAE 111344Z 00000KT 10SM SCT005 11/09 A3002 RMK AO2=
200708111344 SPECI KPAE 111344Z 00000KT 10SM SCT005 11/09 A3002 RMK AO2=
200708111253 METAR KPAE 111253Z AUTO 00000KT 10SM CLR 11/09 A3002 RMK AO2 SLP164 T01110094=
200708111153 METAR KPAE 111153Z AUTO 03003KT 10SM CLR 12/09 A3002 RMK AO2 SLP166 T01170094 10133 20117 58007=
200708111053 METAR KPAE 111053Z AUTO 02004KT 10SM CLR 12/09 A3003 RMK AO2 SLP169 T01220094=
200708110953 METAR KPAE 110953Z AUTO 00000KT 10SM CLR 12/09 A3004 RMK AO2 SLP172 T01220094=
200708110853 METAR KPAE 110853Z AUTO 36004KT 10SM CLR 12/09 A3005 RMK AO2 SLP173 T01220094 58014=
200708110753 METAR KPAE 110753Z AUTO 36003KT 10SM CLR 12/10 A3006 RMK AO2 SLP179 T01220100 402060122=
200708110653 METAR KPAE 110653Z AUTO 35005KT 10SM CLR 12/10 A3008 RMK AO2 SLP185 T01220100=
200708110553 METAR KPAE 110553Z AUTO 35005KT 10SM CLR 13/09 A3009 RMK AO2 SLP188 T01330094 10206 20133 58002=
200708110453 METAR KPAE 110453Z AUTO 36004KT 10SM CLR 14/09 A3010 RMK AO2 SLP192 T01440089=
200708110353 METAR KPAE 110353Z AUTO 35004KT 10SM CLR 15/09 A3010 RMK AO2 SLP192 T01500089=
200708110253 METAR KPAE 110253Z 35004KT 10SM CLR 17/09 A3009 RMK AO2 SLP190 T01720089 58014=
200708110153 METAR KPAE 110153Z VRB03KT 10SM CLR 18/08 A3011 RMK AO2 SLP194 T01830083=
200708110053 METAR KPAE 110053Z VRB03KT 10SM CLR 20/09 A3013 RMK AO2 SLP201 T02000089=
200708102353 METAR KPAE 102353Z 31006KT 10SM CLR 19/08 A3014 RMK AO2 SLP204 T01940083 10200 20150 58010=
200708102253 METAR KPAE 102253Z 33006KT 10SM CLR 19/08 A3015 RMK AO2 SLP209 T01940083=
200708102153 METAR KPAE 102153Z 29006KT 10SM CLR 19/08 A3016 RMK AO2 SLP211 T01940078=
200708102053 METAR KPAE 102053Z 30007KT 10SM CLR 18/08 A3017 RMK AO2 SLP215 T01830078 58004=
200708102031 SPECI KPAE 102031Z 00000KT 10SM FEW027 SCT032 BKN049 18/09 A3017 RMK AO2=
200708102031 SPECI KPAE 102031Z 00000KT 10SM FEW027 SCT032 BKN049 18/09 A3017 RMK AO2=
200708102019 SPECI KPAE 102019Z 00000KT 10SM BKN027 BKN032 OVC049 16/10 A3017 RMK AO2=
200708102019 SPECI KPAE 102019Z 00000KT 10SM BKN027 BKN032 OVC049 16/10 A3017 RMK AO2=
200708102005 SPECI KPAE 102005Z 01006KT 10SM SCT022 OVC030 17/10 A3018 RMK AO2=
200708102005 SPECI KPAE 102005Z 01006KT 10SM SCT022 OVC030 17/10 A3018 RMK AO2=
200708101953 METAR KPAE 101953Z 00000KT 10SM BKN024 OVC031 17/10 A3018 RMK AO2 SLP218 T01720100=
200708101948 SPECI KPAE 101948Z 00000KT 10SM BKN022 BKN031 17/11 A3018 RMK AO2=
200708101948 SPECI KPAE 101948Z 00000KT 10SM BKN022 BKN031 17/11 A3018 RMK AO2=
200708101917 SPECI KPAE 101917Z 00000KT 10SM SCT017 BKN049 16/11 A3018 RMK AO2=
200708101917 SPECI KPAE 101917Z 00000KT 10SM SCT017 BKN049 16/11 A3018 RMK AO2=
200708101904 SPECI KPAE 101904Z 02004KT 10SM BKN017 BKN022 OVC047 16/11 A3018 RMK AO2=
200708101904 SPECI KPAE 101904Z 02004KT 10SM BKN017 BKN022 OVC047 16/11 A3018 RMK AO2=
200708101853 METAR KPAE 101853Z VRB03KT 10SM SCT019 OVC047 16/11 A3018 RMK AO2 SLP219 T01610106=
200708101753 METAR KPAE 101753Z 29004KT 10SM FEW023 OVC047 16/09 A3018 RMK AO2 SLP218 60000 T01610094 10161 20122 53007=
200708101727 SPECI KPAE 101727Z 00000KT 10SM FEW017 OVC047 16/09 A3017 RMK AO2=
200708101727 SPECI KPAE 101727Z 00000KT 10SM FEW017 OVC047 16/09 A3017 RMK AO2=
200708101653 METAR KPAE 101653Z 00000KT 10SM BKN017 14/10 A3017 RMK AO2 SLP215 T01440100=
200708101636 SPECI KPAE 101636Z 05003KT 10SM FEW022 SCT047 SCT075 15/10 A3016 RMK AO2=
200708101636 SPECI KPAE 101636Z 05003KT 10SM FEW022 SCT047 SCT075 15/10 A3016 RMK AO2=
200708101553 METAR KPAE 101553Z 00000KT 10SM OVC015 14/10 A3016 RMK AO2 SLP212 T01390100=
200708101543 SPECI KPAE 101543Z 00000KT 10SM BKN015 OVC070 14/10 A3015 RMK AO2=
200708101543 SPECI KPAE 101543Z 00000KT 10SM BKN015 OVC070 14/10 A3015 RMK AO2=
200708101532 SPECI KPAE 101532Z 00000KT 10SM BKN013 OVC055 14/10 A3015 RMK AO2=
200708101532 SPECI KPAE 101532Z 00000KT 10SM BKN013 OVC055 14/10 A3015 RMK AO2=
200708101453 METAR KPAE 101453Z 00000KT 10SM OVC050 13/09 A3014 RMK AO2 SLP207 60000 T01330094 53008=
200708101353 METAR KPAE 101353Z 00000KT 10SM BKN065 OVC075 13/09 A3013 RMK AO2 SLP204 T01330094=
200708101253 METAR KPAE 101253Z AUTO 00000KT 10SM OVC047 13/09 A3013 RMK AO2 RAE04 SLP201 P0000 T01280094=
200708101153 METAR KPAE 101153Z AUTO 26003KT 8SM -RA OVC038 12/10 A3012 RMK AO2 RAB41 SLP199 P0000 60000 T01220100 10133 20122 53007=
200708101053 METAR KPAE 101053Z AUTO 30005KT 10SM OVC038 13/09 A3011 RMK AO2 RAB0954E04 SLP195 P0000 T01280094=
200708100953 METAR KPAE 100953Z AUTO 35004KT 10SM OVC036 13/09 A3010 RMK AO2 SLP193 T01280094=
200708100853 METAR KPAE 100853Z AUTO 34005KT 10SM OVC038 13/09 A3010 RMK AO2 SLP190 T01280094 52006=
200708100753 METAR KPAE 100753Z AUTO 35004KT 10SM BKN038 BKN060 OVC070 13/09 A3009 RMK AO2 SLP188 T01280094 401940117=
200708100653 METAR KPAE 100653Z AUTO 00000KT 10SM OVC034 13/10 A3008 RMK AO2 SLP187 T01330100=
200708100553 METAR KPAE 100553Z AUTO 00000KT 10SM BKN036 OVC045 13/10 A3008 RMK AO2 RAB42E51 SLP185 P0000 60000 T01330100 10172 20133 51011=
200708100453 METAR KPAE 100453Z AUTO 36005KT 10SM FEW041 OVC050 14/09 A3007 RMK AO2 SLP182 T01390089=
200708100353 METAR KPAE 100353Z AUTO 35006KT 10SM SCT055 OVC070 14/08 A3006 RMK AO2 SLP177 T01390083=
200708100253 METAR KPAE 100253Z 34005KT 10SM OVC065 15/09 A3005 RMK AO2 SLP174 T01500089 55002=
200708100153 METAR KPAE 100153Z 35005KT 10SM OVC065 16/09 A3004 RMK AO2 SLP172 T01560094=
200708100053 METAR KPAE 100053Z 35004KT 10SM OVC070 16/10 A3004 RMK AO2 SLP173 T01610100=
200708092353 METAR KPAE 092353Z 36007KT 10SM OVC060 17/11 A3005 RMK AO2 SLP176 T01670106 10194 20150 53001=
200708092253 METAR KPAE 092253Z 34005KT 10SM FEW060 18/11 A3005 RMK AO2 SLP176 T01830106=
200708092153 METAR KPAE 092153Z 27005KT 10SM OVC060 18/09 A3005 RMK AO2 SLP174 T01780089=
200708092053 METAR KPAE 092053Z VRB03KT 10SM OVC060 17/09 A3005 RMK AO2 SLP176 T01720094 52001=
200708091953 METAR KPAE 091953Z 28004KT 10SM SCT032 OVC050 17/09 A3005 RMK AO2 SLP175 T01670094=
200708091853 METAR KPAE 091853Z 28007KT 10SM OVC060 16/09 A3005 RMK AO2 SLP175 T01560094=
200708091753 METAR KPAE 091753Z 29004KT 10SM SCT032 OVC055 15/09 A3005 RMK AO2 SLP175 T01500094 10150 20122 51005=
200708091653 METAR KPAE 091653Z 27003KT 10SM FEW015 OVC055 14/09 A3004 RMK AO2 SLP174 T01440094=
200708091553 METAR KPAE 091553Z 00000KT 10SM OVC055 14/09 A3004 RMK AO2 SLP173 T01390094=
200708091453 METAR KPAE 091453Z 00000KT 10SM BKN055 13/09 A3003 RMK AO2 SLP170 T01280094 50004=
200708091353 METAR KPAE 091353Z VRB03KT 10SM OVC055 12/09 A3003 RMK AO2 SLP170 T01220089=
200708091253 METAR KPAE 091253Z AUTO 00000KT 10SM BKN038 OVC050 13/09 A3002 RMK AO2 SLP165 T01280089=
200708091153 METAR KPAE 091153Z AUTO 35004KT 10SM OVC038 12/09 A3002 RMK AO2 SLP165 70008 T01220089 10128 20117 56007=
200708091053 METAR KPAE 091053Z AUTO 34003KT 10SM OVC038 12/09 A3003 RMK AO2 SLP168 T01220089=
200708090953 METAR KPAE 090953Z AUTO 36004KT 10SM OVC036 12/09 A3003 RMK AO2 SLP169 T01220089=
200708090853 METAR KPAE 090853Z AUTO VRB05KT 10SM FEW032 12/08 A3004 RMK AO2 SLP172 T01170083 56002=
200708090753 METAR KPAE 090753Z AUTO 36004KT 10SM BKN032 12/08 A3004 RMK AO2 SLP172 T01220083 401670122=
200708090653 METAR KPAE 090653Z AUTO 35003KT 10SM BKN032 13/08 A3004 RMK AO2 SLP173 T01280078=
200708090553 METAR KPAE 090553Z AUTO 35005KT 10SM CLR 13/08 A3005 RMK AO2 SLP174 T01280078 10167 20128 50001=
200708090453 METAR KPAE 090453Z 35005KT 10SM OVC060 14/08 A3005 RMK AO2 SLP175 T01390078=
200708090353 METAR KPAE 090353Z VRB03KT 10SM OVC060 14/08 A3005 RMK AO2 SLP174 T01390083=
200708090253 METAR KPAE 090253Z 36004KT 10SM OVC060 14/08 A3004 RMK AO2 SLP173 T01440083 56005=
200708090153 METAR KPAE 090153Z 36006KT 10SM OVC055 16/09 A3004 RMK AO2 SLP174 T01560089=
200708090053 METAR KPAE 090053Z VRB04KT 10SM OVC060 16/09 A3005 RMK AO2 SLP176 T01610094=
200708082353 METAR KPAE 082353Z 35006KT 10SM OVC060 16/11 A3006 RMK AO2 SLP178 T01560106 10167 20139 53001=
200708082253 METAR KPAE 082253Z 35007KT 10SM SCT035 BKN060 16/12 A3005 RMK AO2 SLP175 T01610117=
200708082200 SPECI KPAE 082200Z 36005KT 10SM FEW040 BKN060 17/12 A3006 RMK AO2=
200708082200 SPECI KPAE 082200Z 36005KT 10SM FEW040 BKN060 17/12 A3006 RMK AO2=
200708082153 METAR KPAE 082153Z 35007KT 10SM BKN024 OVC031 17/12 A3005 RMK AO2 SLP176 T01670117=
200708082053 METAR KPAE 082053Z 36006KT 10SM BKN016 BKN024 OVC031 15/12 A3005 RMK AO2 SLP176 T01500117 51005=
200708081953 METAR KPAE 081953Z 36004KT 10SM BKN016 OVC023 16/12 A3005 RMK AO2 SLP175 T01560122=
200708081943 SPECI KPAE 081943Z VRB04KT 10SM FEW004 BKN023 OVC030 15/12 A3005 RMK AO2=
200708081943 SPECI KPAE 081943Z VRB04KT 10SM FEW004 BKN023 OVC030 15/12 A3005 RMK AO2=
200708081853 METAR KPAE 081853Z VRB03KT 10SM BKN004 BKN019 OVC024 14/13 A3004 RMK AO2 CIG 002V007 SLP173 T01440128=
200708081830 SPECI KPAE 081830Z 36004KT 10SM BKN004 OVC021 14/13 A3004 RMK AO2=
200708081830 SPECI KPAE 081830Z 36004KT 10SM BKN004 OVC021 14/13 A3004 RMK AO2=
200708081753 METAR KPAE 081753Z 02004KT 10SM FEW004 OVC014 14/12 A3004 RMK AO2 RAE39 SLP171 P0001 60008 T01390122 10139 20133 51008=
200708081740 SPECI KPAE 081740Z 02006KT 7SM SCT004 OVC014 14/12 A3004 RMK AO2 RAE39 P0001=
200708081740 SPECI KPAE 081740Z 02006KT 7SM SCT004 OVC014 14/12 A3004 RMK AO2 RAE39 P0001=
200708081726 SPECI KPAE 081726Z 01005KT 2SM -RA BR OVC002 13/12 A3004 RMK AO2 P0000=
200708081726 SPECI KPAE 081726Z 01005KT 2SM -RA BR OVC002 13/12 A3004 RMK AO2 P0000=
200708081701 SPECI KPAE 081701Z 03006KT 3SM -RA BR BKN002 BKN007 OVC015 13/12 A3004 RMK AO2 P0000=
200708081701 SPECI KPAE 081701Z 03006KT 3SM -RA BR BKN002 BKN007 OVC015 13/12 A3004 RMK AO2 P0000=
200708081653 METAR KPAE 081653Z 02004KT 1 3/4SM -RA BR BKN002 BKN007 OVC015 13/12 A3004 RMK AO2 RAB48 CIG 001V007 SLP169 P0001 T01330122=
200708081651 SPECI KPAE 081651Z 02005KT 1 3/4SM -RA BR BKN002 BKN007 OVC015 14/12 A3003 RMK AO2 RAB48 CIG 001V005 P0001=
200708081651 SPECI KPAE 081651Z 02005KT 1 3/4SM -RA BR BKN002 BKN007 OVC015 14/12 A3003 RMK AO2 RAB48 CIG 001V005 P0001=
200708081645 SPECI KPAE 081645Z VRB03KT 3SM BR BKN002 OVC007 14/13 A3003 RMK AO2 CIG 001V006 P0001=
200708081645 SPECI KPAE 081645Z VRB03KT 3SM BR BKN002 OVC007 14/13 A3003 RMK AO2 CIG 001V006 P0001=
200708081638 SPECI KPAE 081638Z 02004KT 2 1/2SM BR OVC002 14/13 A3003 RMK AO2 CIG 001V007 P0001=
200708081638 SPECI KPAE 081638Z 02004KT 2 1/2SM BR OVC002 14/13 A3003 RMK AO2 CIG 001V007 P0001=
200708081622 SPECI KPAE 081622Z 02003KT 1 3/4SM BR OVC002 14/13 A3003 RMK AO2 CIG 001V006 P0001=
200708081622 SPECI KPAE 081622Z 02003KT 1 3/4SM BR OVC002 14/13 A3003 RMK AO2 CIG 001V006 P0001=
200708081553 METAR KPAE 081553Z 03004KT 2 1/2SM BR OVC002 13/12 A3002 RMK AO2 RAE16 SLP165 P0000 T01330122=
200708081507 SPECI KPAE 081507Z 03003KT 3SM -RA BR BKN002 OVC011 13/12 A3002 RMK AO2 CIG 001V006 P0000=
200708081507 SPECI KPAE 081507Z 03003KT 3SM -RA BR BKN002 OVC011 13/12 A3002 RMK AO2 CIG 001V006 P0000=
200708081453 METAR KPAE 081453Z 02003KT 1 3/4SM -RA BR BKN002 OVC011 13/12 A3002 RMK AO2 CIG 001V005 SLP163 P0003 60006 T01330122 53006=
200708081353 METAR KPAE 081353Z 35003KT 1 1/4SM -RA BR BKN002 OVC008 13/12 A3001 RMK AO2 CIG 001V006 SLP161 P0003 T01330122=
200708081341 SPECI KPAE 081341Z 35004KT 1 1/4SM -RA BR BKN002 BKN008 OVC014 13/12 A3001 RMK AO2 P0002=
200708081341 SPECI KPAE 081341Z 35004KT 1 1/4SM -RA BR BKN002 BKN008 OVC014 13/12 A3001 RMK AO2 P0002=
200708081321 SPECI KPAE 081321Z AUTO 36004KT 1 1/4SM -RA BR FEW002 BKN008 OVC014 13/12 A3001 RMK AO2 P0001=
200708081321 SPECI KPAE 081321Z AUTO 36004KT 1 1/4SM -RA BR FEW002 BKN008 OVC014 13/12 A3001 RMK AO2 P0001=
200708081307 SPECI KPAE 081307Z AUTO 35004KT 2 1/2SM -RA BR SCT002 OVC008 13/12 A3001 RMK AO2 P0000=
200708081307 SPECI KPAE 081307Z AUTO 35004KT 2 1/2SM -RA BR SCT002 OVC008 13/12 A3001 RMK AO2 P0000=
200708081253 METAR KPAE 081253Z AUTO 35003KT 3SM -RA BR SCT002 OVC008 13/12 A3000 RMK AO2 RAB51 SLP158 P0000 T01330122=
200708081211 SPECI KPAE 081211Z AUTO 34003KT 4SM BR BKN002 OVC006 13/12 A3000 RMK AO2 CIG 001V005=
200708081211 SPECI KPAE 081211Z AUTO 34003KT 4SM BR BKN002 OVC006 13/12 A3000 RMK AO2 CIG 001V005=
200708081201 SPECI KPAE 081201Z AUTO 36004KT 4SM BR OVC006 13/12 A3000 RMK AO2 CIG 002V009=
200708081201 SPECI KPAE 081201Z AUTO 36004KT 4SM BR OVC006 13/12 A3000 RMK AO2 CIG 002V009=
200708081153 METAR KPAE 081153Z AUTO 35004KT 3SM BR BKN002 OVC008 13/12 A3000 RMK AO2 SLP157 P0001 60002 70003 T01330122 10161 20133 51001=
200708081144 SPECI KPAE 081144Z AUTO 35004KT 3SM BR BKN002 OVC008 13/12 A3000 RMK AO2 P0001=
200708081144 SPECI KPAE 081144Z AUTO 35004KT 3SM BR BKN002 OVC008 13/12 A3000 RMK AO2 P0001=
200708081115 SPECI KPAE 081115Z AUTO 35004KT 2SM BR OVC002 13/12 A3000 RMK AO2 CIG 001V005 P0001=
200708081115 SPECI KPAE 081115Z AUTO 35004KT 2SM BR OVC002 13/12 A3000 RMK AO2 CIG 001V005 P0001=
200708081102 SPECI KPAE 081102Z AUTO 33004KT 1 3/4SM BR OVC002 14/13 A3000 RMK AO2=
200708081102 SPECI KPAE 081102Z AUTO 33004KT 1 3/4SM BR OVC002 14/13 A3000 RMK AO2=
200708081053 METAR KPAE 081053Z AUTO 34003KT 2SM BR OVC002 14/13 A3000 RMK AO2 SLP157 P0001 T01390128=
200708081050 SPECI KPAE 081050Z AUTO 34003KT 2SM BR OVC002 14/13 A3000 RMK AO2 P0001=
200708081050 SPECI KPAE 081050Z AUTO 34003KT 2SM BR OVC002 14/13 A3000 RMK AO2 P0001=
200708080953 METAR KPAE 080953Z AUTO 32004KT 1 3/4SM BR OVC002 14/13 A2999 RMK AO2 CIG 001V006 SLP155 T01390128=
200708080942 SPECI KPAE 080942Z AUTO 00000KT 1 3/4SM BR BKN004 OVC008 14/13 A2999 RMK AO2 CIG 001V005=
200708080942 SPECI KPAE 080942Z AUTO 00000KT 1 3/4SM BR BKN004 OVC008 14/13 A2999 RMK AO2 CIG 001V005=
200708080927 SPECI KPAE 080927Z AUTO 25003KT 2 1/2SM BR BKN004 OVC010 14/13 A2999 RMK AO2 CIG 001V005=
200708080927 SPECI KPAE 080927Z AUTO 25003KT 2 1/2SM BR BKN004 OVC010 14/13 A2999 RMK AO2 CIG 001V005=
200708080917 SPECI KPAE 080917Z AUTO 24003KT 3SM BR BKN004 OVC010 14/13 A2999 RMK AO2 CIG 002V007=
200708080917 SPECI KPAE 080917Z AUTO 24003KT 3SM BR BKN004 OVC010 14/13 A2999 RMK AO2 CIG 002V007=
200708080853 METAR KPAE 080853Z AUTO 23003KT 10SM BKN006 OVC010 15/13 A2999 RMK AO2 SLP153 T01500128 50000=
200708080808 SPECI KPAE 080808Z AUTO 19006KT 10SM OVC008 15/13 A2999 RMK AO2=
200708080808 SPECI KPAE 080808Z AUTO 19006KT 10SM OVC008 15/13 A2999 RMK AO2=
200708080753 METAR KPAE 080753Z AUTO 20006KT 10SM OVC010 15/13 A2999 RMK AO2 SLP153 T01500128 401780133=
200708080709 SPECI KPAE 080709Z AUTO 20003KT 10SM OVC014 16/13 A2999 RMK AO2=
200708080709 SPECI KPAE 080709Z AUTO 20003KT 10SM OVC014 16/13 A2999 RMK AO2=
200708080653 METAR KPAE 080653Z AUTO 21003KT 10SM OVC016 16/13 A2999 RMK AO2 SLP155 T01560128=
200708080553 METAR KPAE 080553Z AUTO 20005KT 10SM OVC022 16/13 A2999 RMK AO2 SLP153 60000 T01610128 10172 20161 50002 TSNO=
200708080453 METAR KPAE 080453Z AUTO 19005KT 10SM OVC022 16/13 A2999 RMK AO2 SLP153 T01610128=
200708080353 METAR KPAE 080353Z 00000KT 10SM OVC020 17/14 A2998 RMK AO2 SLP151 T01670139=
200708080253 METAR KPAE 080253Z 11004KT 8SM OVC020 17/14 A2998 RMK AO2 SLP151 60000 T01670144 58000=
200708080153 METAR KPAE 080153Z 11005KT 10SM OVC022 17/14 A2998 RMK AO2 RAB0058E08B41E51 SLP152 P0000 T01670139=
200708080053 METAR KPAE 080053Z 12006KT 7SM OVC026 17/14 A2998 RMK AO2 SLP151 T01720139=
200708072353 METAR KPAE 072353Z 11006KT 10SM OVC022 17/13 A2998 RMK AO2 SLP151 60001 T01720133 10178 20150 56005=
200708072253 METAR KPAE 072253Z 15007KT 10SM SCT024 OVC030 17/12 A2999 RMK AO2 SLP153 T01720122=
200708072153 METAR KPAE 072153Z 18007KT 10SM SCT020 OVC027 18/12 A2999 RMK AO2 SLP153 T01780122=
200708072053 METAR KPAE 072053Z 15008KT 10SM BKN024 OVC029 16/13 A2999 RMK AO2 SLP156 60001 T01610133 51007=
200708072002 SPECI KPAE 072002Z 19011KT 5SM BR SCT015 OVC021 16/13 A2999 RMK AO2=
200708072002 SPECI KPAE 072002Z 19011KT 5SM BR SCT015 OVC021 16/13 A2999 RMK AO2=
200708071953 METAR KPAE 071953Z 19009KT 5SM BR BKN012 OVC019 16/13 A2999 RMK AO2 RAB06E27 SLP155 P0001 T01610128=
200708071926 SPECI KPAE 071926Z 19007KT 7SM -RA SCT012 BKN017 OVC026 16/13 A2999 RMK AO2 RAB06 P0001=
200708071926 SPECI KPAE 071926Z 19007KT 7SM -RA SCT012 BKN017 OVC026 16/13 A2999 RMK AO2 RAB06 P0001=
200708071913 SPECI KPAE 071913Z 18006KT 4SM -RA BR BKN012 BKN016 OVC023 16/13 A2999 RMK AO2 RAB06 P0000=
200708071913 SPECI KPAE 071913Z 18006KT 4SM -RA BR BKN012 BKN016 OVC023 16/13 A2999 RMK AO2 RAB06 P0000=
200708071853 METAR KPAE 071853Z 19011KT 10SM BKN015 OVC023 16/12 A2998 RMK AO2 RAB25E50 SLP152 P0000 T01560122=
200708071818 SPECI KPAE 071818Z 18008KT 10SM FEW008 BKN019 OVC027 16/13 A2998 RMK AO2=
200708071818 SPECI KPAE 071818Z 18008KT 10SM FEW008 BKN019 OVC027 16/13 A2998 RMK AO2=
200708071753 METAR KPAE 071753Z 15009KT 10SM BKN008 BKN015 OVC023 15/12 A2997 RMK AO2 RAE18 SLP148 P0000 60000 T01500122 10150 20133 53002=
200708071740 SPECI KPAE 071740Z 17010KT 8SM FEW007 BKN010 OVC023 15/13 A2997 RMK AO2 RAE18 P0000=
200708071740 SPECI KPAE 071740Z 17010KT 8SM FEW007 BKN010 OVC023 15/13 A2997 RMK AO2 RAE18 P0000=
200708071721 SPECI KPAE 071721Z 17008KT 10SM BKN006 OVC010 14/13 A2997 RMK AO2 RAE18 CIG 004V009 P0000=
200708071721 SPECI KPAE 071721Z 17008KT 10SM BKN006 OVC010 14/13 A2997 RMK AO2 RAE18 CIG 004V009 P0000=
200708071704 SPECI KPAE 071704Z 16009KT 2 1/2SM BR BKN006 BKN010 OVC027 14/13 A2997 RMK AO2 RAE03 CIG 004V009 P0000=
200708071704 SPECI KPAE 071704Z 16009KT 2 1/2SM BR BKN006 BKN010 OVC027 14/13 A2997 RMK AO2 RAE03 CIG 004V009 P0000=
200708071653 METAR KPAE 071653Z 16008KT 5SM -RA BR SCT008 BKN011 OVC034 14/13 A2997 RMK AO2 RAB04 SLP147 P0000 T01440128=
200708071643 SPECI KPAE 071643Z 18011KT 4SM -RA BR SCT008 BKN013 OVC027 14/13 A2997 RMK AO2 RAB04 P0000=
200708071643 SPECI KPAE 071643Z 18011KT 4SM -RA BR SCT008 BKN013 OVC027 14/13 A2997 RMK AO2 RAB04 P0000=
200708071626 SPECI KPAE 071626Z 19007KT 4SM -RA BR BKN008 OVC014 14/13 A2997 RMK AO2 RAB04 CIG 006V010 P0000=
200708071626 SPECI KPAE 071626Z 19007KT 4SM -RA BR BKN008 OVC014 14/13 A2997 RMK AO2 RAB04 CIG 006V010 P0000=
200708071610 SPECI KPAE 071610Z 17007KT 2 1/2SM -RA BR SCT008 OVC014 14/12 A2997 RMK AO2 VIS 1 3/4V4 RAB04 P0000=
200708071610 SPECI KPAE 071610Z 17007KT 2 1/2SM -RA BR SCT008 OVC014 14/12 A2997 RMK AO2 VIS 1 3/4V4 RAB04 P0000=
200708071553 METAR KPAE 071553Z 15010KT 8SM BKN014 BKN021 OVC027 14/12 A2997 RMK AO2 RAB01E11 SLP147 P0000 T01440117=
200708071518 SPECI KPAE 071518Z 15009KT 4SM BR SCT013 OVC026 14/12 A2997 RMK AO2 RAB01E11 P0000=
200708071518 SPECI KPAE 071518Z 15009KT 4SM BR SCT013 OVC026 14/12 A2997 RMK AO2 RAB01E11 P0000=
200708071509 SPECI KPAE 071509Z 15009KT 2SM -RA BR FEW009 BKN014 OVC024 14/12 A2996 RMK AO2 RAB01 P0000=
200708071509 SPECI KPAE 071509Z 15009KT 2SM -RA BR FEW009 BKN014 OVC024 14/12 A2996 RMK AO2 RAB01 P0000=
200708071506 SPECI KPAE 071506Z 15010KT 1 3/4SM -RA BR BKN014 OVC019 14/12 A2996 RMK AO2 RAB01 P0000=
200708071506 SPECI KPAE 071506Z 15010KT 1 3/4SM -RA BR BKN014 OVC019 14/12 A2996 RMK AO2 RAB01 P0000=
200708071453 METAR KPAE 071453Z 15009KT 2 1/2SM BR BKN016 BKN021 OVC033 14/12 A2997 RMK AO2 SLP146 T01390117 53004=
200708071443 SPECI KPAE 071443Z 16010KT 3SM BR BKN021 OVC031 14/12 A2997 RMK AO2=
200708071443 SPECI KPAE 071443Z 16010KT 3SM BR BKN021 OVC031 14/12 A2997 RMK AO2=
200708071416 SPECI KPAE 071416Z 17008KT 10SM FEW021 OVC031 14/11 A2996 RMK AO2=
200708071416 SPECI KPAE 071416Z 17008KT 10SM FEW021 OVC031 14/11 A2996 RMK AO2=
200708071353 METAR KPAE 071353Z 18012KT 10SM BKN021 OVC029 14/11 A2996 RMK AO2 SLP144 T01440106=
200708071253 METAR KPAE 071253Z AUTO 18008KT 10SM OVC023 14/10 A2996 RMK AO2 SLP143 T01440100=
200708071228 SPECI KPAE 071228Z AUTO 19008KT 10SM BKN023 14/09 A2995 RMK AO2=
200708071228 SPECI KPAE 071228Z AUTO 19008KT 10SM BKN023 14/09 A2995 RMK AO2=
200708071153 METAR KPAE 071153Z AUTO 18006KT 10SM CLR 13/09 A2995 RMK AO2 SLP142 T01330094 10167 20133 52000=
200708071053 METAR KPAE 071053Z AUTO 18006KT 10SM CLR 14/10 A2995 RMK AO2 SLP142 T01390100=
200708070953 METAR KPAE 070953Z AUTO 18010KT 10SM CLR 14/11 A2995 RMK AO2 SLP141 T01390106=
200708070853 METAR KPAE 070853Z AUTO 19009KT 10SM FEW033 14/11 A2995 RMK AO2 SLP142 T01440106 55000=
200708070753 METAR KPAE 070753Z AUTO 19010KT 10SM OVC033 15/11 A2995 RMK AO2 SLP141 T01500111 401940133=
200708070653 METAR KPAE 070653Z AUTO 21006KT 10SM OVC031 17/12 A2995 RMK AO2 SLP141 T01670117=
200708070637 SPECI KPAE 070637Z AUTO 21006KT 10SM OVC031 17/12 A2995 RMK AO2=
200708070637 SPECI KPAE 070637Z AUTO 21006KT 10SM OVC031 17/12 A2995 RMK AO2=
200708070553 METAR KPAE 070553Z AUTO 21006KT 10SM OVC029 17/12 A2995 RMK AO2 SLP142 T01670117 10194 20167 51006=
200708070453 METAR KPAE 070453Z AUTO 16004KT 10SM OVC027 18/12 A2995 RMK AO2 SLP141 T01780122=
200708070427 SPECI KPAE 070427Z AUTO 15005KT 10SM BKN029 18/12 A2995 RMK AO2=
200708070427 SPECI KPAE 070427Z AUTO 15005KT 10SM BKN029 18/12 A2995 RMK AO2=
200708070408 SPECI KPAE 070408Z AUTO 15006KT 10SM SCT025 18/12 A2994 RMK AO2=
200708070408 SPECI KPAE 070408Z AUTO 15006KT 10SM SCT025 18/12 A2994 RMK AO2=
200708070353 METAR KPAE 070353Z AUTO 16005KT 10SM BKN025 18/12 A2994 RMK AO2 SLP138 T01780122=
200708070253 METAR KPAE 070253Z 15008KT 10SM OVC021 18/12 A2994 RMK AO2 SLP136 T01830122 56006=
200708070211 SPECI KPAE 070211Z 17006KT 10SM BKN021 18/12 A2994 RMK AO2=
200708070211 SPECI KPAE 070211Z 17006KT 10SM BKN021 18/12 A2994 RMK AO2=
200708070153 METAR KPAE 070153Z 18009KT 10SM SCT021 18/12 A2994 RMK AO2 SLP137 T01830122=
200708070106 SPECI KPAE 070106Z 17009KT 10SM BKN021 19/12 A2994 RMK AO2=
200708070106 SPECI KPAE 070106Z 17009KT 10SM BKN021 19/12 A2994 RMK AO2=
200708070053 METAR KPAE 070053Z 21007KT 10SM SCT030 18/12 A2994 RMK AO2 SLP139 T01830122=
200708062353 METAR KPAE 062353Z 24012G15KT 10SM CLR 18/12 A2995 RMK AO2 SLP142 T01830122 10189 20156 56006 TSNO=
200708062253 METAR KPAE 062253Z AUTO 23011KT 10SM CLR 19/12 A2996 RMK AO2 SLP144 T01890122 TSNO=
200708062231 SPECI KPAE 062231Z 25012KT 10SM SCT019 18/12 A2996 RMK AO2=
200708062231 SPECI KPAE 062231Z 25012KT 10SM SCT019 18/12 A2996 RMK AO2=
200708062153 METAR KPAE 062153Z 24010KT 10SM BKN019 19/12 A2996 RMK AO2 SLP145 T01890122=
200708062053 METAR KPAE 062053Z 25011KT 10SM BKN017 18/12 A2997 RMK AO2 SLP148 T01780122 56001=
200708061953 METAR KPAE 061953Z 26009KT 10SM OVC015 17/12 A2997 RMK AO2 SLP149 T01670122=
200708061853 METAR KPAE 061853Z 24007KT 10SM OVC013 16/12 A2998 RMK AO2 SLP149 T01560117=
200708061800 SPECI KPAE 061800Z 18006KT 10SM OVC013 16/12 A2998 RMK AO2=
200708061800 SPECI KPAE 061800Z 18006KT 10SM OVC013 16/12 A2998 RMK AO2=
200708061753 METAR KPAE 061753Z 17006KT 10SM OVC009 16/12 A2998 RMK AO2 SLP152 T01560117 10156 20133 51003=
200708061653 METAR KPAE 061653Z 18007KT 10SM OVC009 15/12 A2998 RMK AO2 SLP150 T01500117=
200708061553 METAR KPAE 061553Z 16008KT 10SM OVC007 14/12 A2998 RMK AO2 SLP150 T01440117=
200708061453 METAR KPAE 061453Z 22005KT 10SM OVC005 14/12 A2997 RMK AO2 SLP148 T01390117 51014=
200708061353 METAR KPAE 061353Z 21005KT 10SM OVC005 14/12 A2996 RMK AO2 SLP143 T01390117=
200708061337 SPECI KPAE 061337Z AUTO 21006KT 10SM OVC005 14/12 A2996 RMK AO2=
200708061337 SPECI KPAE 061337Z AUTO 21006KT 10SM OVC005 14/12 A2996 RMK AO2=
200708061253 METAR KPAE 061253Z AUTO 19008KT 9SM OVC003 14/12 A2995 RMK AO2 SLP138 T01390117=
200708061153 METAR KPAE 061153Z AUTO 20011KT 8SM OVC003 14/12 A2993 RMK AO2 SLP133 T01390122 10183 20139 51007=
200708061141 SPECI KPAE 061141Z AUTO 20009KT 8SM OVC003 14/12 A2993 RMK AO2=
200708061141 SPECI KPAE 061141Z AUTO 20009KT 8SM OVC003 14/12 A2993 RMK AO2=
200708061053 METAR KPAE 061053Z AUTO 19008KT 9SM BKN005 14/13 A2992 RMK AO2 SLP130 T01440128=
200708061051 SPECI KPAE 061051Z AUTO 19008KT 9SM BKN005 14/12 A2992 RMK AO2=
200708061051 SPECI KPAE 061051Z AUTO 19008KT 9SM BKN005 14/12 A2992 RMK AO2=
200708061043 SPECI KPAE 061043Z AUTO 20005KT 10SM SCT005 14/12 A2992 RMK AO2=
200708061043 SPECI KPAE 061043Z AUTO 20005KT 10SM SCT005 14/12 A2992 RMK AO2=
200708060953 METAR KPAE 060953Z AUTO 19007KT 10SM CLR 15/13 A2991 RMK AO2 SLP126 T01500128=
200708060853 METAR KPAE 060853Z AUTO 18007KT 10SM CLR 16/13 A2991 RMK AO2 SLP126 T01610128 50000=
200708060753 METAR KPAE 060753Z AUTO 18004KT 10SM CLR 17/13 A2991 RMK AO2 SLP127 T01720128 402280122=
200708060653 METAR KPAE 060653Z AUTO 14003KT 10SM CLR 18/12 A2991 RMK AO2 SLP127 T01780122=
200708060553 METAR KPAE 060553Z AUTO 00000KT 10SM CLR 18/12 A2991 RMK AO2 SLP127 T01830117 10228 20161 51008=
200708060453 METAR KPAE 060453Z 00000KT 10SM CLR 17/12 A2991 RMK AO2 SLP126 T01720122=
200708060353 METAR KPAE 060353Z 26005KT 10SM CLR 18/12 A2990 RMK AO2 SLP122 T01780117=
200708060253 METAR KPAE 060253Z 26004KT 10SM CLR 21/13 A2988 RMK AO2 SLP118 T02060128 53001=
200708060153 METAR KPAE 060153Z 29005KT 10SM CLR 22/13 A2987 RMK AO2 SLP115 T02220128=
200708060053 METAR KPAE 060053Z VRB03KT 10SM CLR 22/12 A2988 RMK AO2 SLP117 T02220122=
200708052353 METAR KPAE 052353Z VRB06KT 10SM CLR 22/12 A2988 RMK AO2 SLP117 T02220122 10228 20161 56015=
200708052253 METAR KPAE 052253Z VRB04KT 10SM CLR 22/13 A2989 RMK AO2 SLP121 T02170133=
200708052153 METAR KPAE 052153Z VRB03KT 10SM CLR 21/13 A2991 RMK AO2 SLP127 T02060133=
200708052053 METAR KPAE 052053Z VRB03KT 10SM CLR 20/13 A2993 RMK AO2 SLP132 T02000128 58016=
200708051953 METAR KPAE 051953Z 36006KT 10SM CLR 19/13 A2994 RMK AO2 SLP138 T01940128=
200708051908 SPECI KPAE 051908Z 35006KT 10SM SCT008 18/13 A2996 RMK AO2=
200708051908 SPECI KPAE 051908Z 35006KT 10SM SCT008 18/13 A2996 RMK AO2=
200708051900 SPECI KPAE 051900Z 01008KT 10SM BKN008 17/13 A2996 RMK AO2=
200708051900 SPECI KPAE 051900Z 01008KT 10SM BKN008 17/13 A2996 RMK AO2=
200708051853 METAR KPAE 051853Z VRB05KT 10SM SCT008 BKN011 17/13 A2996 RMK AO2 SLP145 T01720128=
200708051809 SPECI KPAE 051809Z 36005KT 10SM SCT008 BKN011 17/12 A2997 RMK AO2=
200708051809 SPECI KPAE 051809Z 36005KT 10SM SCT008 BKN011 17/12 A2997 RMK AO2=
200708051753 METAR KPAE 051753Z 01005KT 10SM OVC007 16/12 A2997 RMK AO2 SLP148 T01610117 10167 20122 58004=
200708051653 METAR KPAE 051653Z VRB03KT 10SM OVC005 14/12 A2998 RMK AO2 SLP151 T01440117=
200708051615 SPECI KPAE 051615Z 00000KT 9SM OVC003 13/11 A2999 RMK AO2=
200708051615 SPECI KPAE 051615Z 00000KT 9SM OVC003 13/11 A2999 RMK AO2=
200708051553 METAR KPAE 051553Z 01003KT 9SM FEW001 BKN005 13/11 A2999 RMK AO2 SLP155 VIS N 2 T01330111=
200708051521 SPECI KPAE 051521Z 33003KT 8SM FEW001 BKN005 13/12 A2999 RMK AO2 VIS N 2=
200708051521 SPECI KPAE 051521Z 33003KT 8SM FEW001 BKN005 13/12 A2999 RMK AO2 VIS N 2=
200708051453 METAR KPAE 051453Z 00000KT 2SM BR OVC001 13/11 A2999 RMK AO2 SLP153 VIS NW 3/4 T01280111 58003=
200708051406 SPECI KPAE 051406Z 36004KT 3/4SM BR OVC001 12/11 A2999 RMK AO2=
200708051406 SPECI KPAE 051406Z 36004KT 3/4SM BR OVC001 12/11 A2999 RMK AO2=
200708051353 METAR KPAE 051353Z 36004KT 1SM BR BKN001 OVC050 12/11 A2999 RMK AO2 SLP154 T01220111=
200708051346 SPECI KPAE 051346Z AUTO 01004KT 1 3/4SM BR BKN001 BKN041 OVC050 12/11 A2999 RMK AO2=
200708051346 SPECI KPAE 051346Z AUTO 01004KT 1 3/4SM BR BKN001 BKN041 OVC050 12/11 A2999 RMK AO2=
200708051324 SPECI KPAE 051324Z AUTO 00000KT 4SM BR BKN001 OVC043 12/11 A2999 RMK AO2=
200708051324 SPECI KPAE 051324Z AUTO 00000KT 4SM BR BKN001 OVC043 12/11 A2999 RMK AO2=
200708051314 SPECI KPAE 051314Z AUTO 02003KT 2SM BR BKN001 OVC043 12/11 A2999 RMK AO2=
200708051314 SPECI KPAE 051314Z AUTO 02003KT 2SM BR BKN001 OVC043 12/11 A2999 RMK AO2=
200708051302 SPECI KPAE 051302Z AUTO 36004KT 1 1/2SM BR SCT001 BKN043 OVC050 12/11 A2999 RMK AO2=
200708051302 SPECI KPAE 051302Z AUTO 36004KT 1 1/2SM BR SCT001 BKN043 OVC050 12/11 A2999 RMK AO2=
200708051253 METAR KPAE 051253Z AUTO 00000KT 4SM BR FEW001 BKN043 OVC050 12/11 A2999 RMK AO2 SLP155 T01220111=
200708051208 SPECI KPAE 051208Z AUTO 35005KT 9SM SCT002 BKN045 OVC055 12/11 A2999 RMK AO2=
200708051208 SPECI KPAE 051208Z AUTO 35005KT 9SM SCT002 BKN045 OVC055 12/11 A2999 RMK AO2=
200708051153 METAR KPAE 051153Z AUTO 35004KT 8SM BKN002 BKN043 OVC055 12/11 A2999 RMK AO2 SLP155 T01220111 10144 20122 56003=
200708051108 SPECI KPAE 051108Z AUTO 00000KT 6SM BR BKN002 OVC050 13/12 A2999 RMK AO2=
200708051108 SPECI KPAE 051108Z AUTO 00000KT 6SM BR BKN002 OVC050 13/12 A2999 RMK AO2=
200708051053 METAR KPAE 051053Z AUTO 00000KT 6SM BR SCT002 OVC050 13/12 A3000 RMK AO2 SLP156 T01280117=
200708051037 SPECI KPAE 051037Z AUTO 00000KT 8SM SCT002 OVC050 13/12 A2999 RMK AO2=
200708051037 SPECI KPAE 051037Z AUTO 00000KT 8SM SCT002 OVC050 13/12 A2999 RMK AO2=
200708050953 METAR KPAE 050953Z AUTO VRB03KT 7SM OVC002 13/12 A3000 RMK AO2 SLP156 T01280117=
200708050922 SPECI KPAE 050922Z AUTO 00000KT 7SM BKN002 OVC055 13/12 A3000 RMK AO2=
200708050922 SPECI KPAE 050922Z AUTO 00000KT 7SM BKN002 OVC055 13/12 A3000 RMK AO2=
200708050904 SPECI KPAE 050904Z AUTO 34005KT 9SM FEW002 OVC060 13/12 A3000 RMK AO2=
200708050904 SPECI KPAE 050904Z AUTO 34005KT 9SM FEW002 OVC060 13/12 A3000 RMK AO2=
200708050853 METAR KPAE 050853Z AUTO 34003KT 9SM OVC060 13/12 A3000 RMK AO2 SLP159 T01330122 58002=
200708050753 METAR KPAE 050753Z AUTO 36005KT 9SM FEW002 13/12 A3001 RMK AO2 SLP159 T01330117 402170128=
200708050738 SPECI KPAE 050738Z AUTO 35003KT 9SM FEW004 13/12 A3001 RMK AO2=
200708050738 SPECI KPAE 050738Z AUTO 35003KT 9SM FEW004 13/12 A3001 RMK AO2=
200708050653 METAR KPAE 050653Z AUTO 35005KT 10SM CLR 14/12 A3001 RMK AO2 SLP162 T01390122=
200708050553 METAR KPAE 050553Z AUTO 02005KT 10SM CLR 14/12 A3001 RMK AO2 SLP161 T01440122 10217 20144 58001=
200708050453 METAR KPAE 050453Z AUTO 36003KT 10SM CLR 16/12 A3002 RMK AO2 SLP163 T01560117=
200708050353 METAR KPAE 050353Z AUTO 00000KT 10SM CLR 19/11 A3001 RMK AO2 SLP162 T01890106=
200708050253 METAR KPAE 050253Z 26004KT 10SM CLR 20/11 A3001 RMK AO2 SLP162 T02000106 56007=
200708050153 METAR KPAE 050153Z 28005KT 10SM CLR 21/11 A3002 RMK AO2 SLP163 T02110111=
200708050053 METAR KPAE 050053Z 26005KT 10SM CLR 21/12 A3003 RMK AO2 SLP166 T02110117=
200708042353 METAR KPAE 042353Z 32006KT 10SM CLR 21/12 A3004 RMK AO2 SLP170 T02110117 10211 20156 56016=
200708042253 METAR KPAE 042253Z VRB04KT 10SM CLR 21/12 A3005 RMK AO2 SLP175 T02110122=
200708042053 METAR KPAE 042053Z VRB05KT 10SM FEW022 19/12 A3008 RMK AO2 SLP186 T01940122 58008=
200708042039 SPECI KPAE 042039Z 28005KT 10SM FEW019 19/12 A3009 RMK AO2=
200708042039 SPECI KPAE 042039Z 28005KT 10SM FEW019 19/12 A3009 RMK AO2=
200708041953 METAR KPAE 041953Z 26004KT 10SM BKN019 18/12 A3010 RMK AO2 SLP191 T01780122=
200708041925 SPECI KPAE 041925Z VRB03KT 10SM BKN017 18/12 A3010 RMK AO2=
200708041925 SPECI KPAE 041925Z VRB03KT 10SM BKN017 18/12 A3010 RMK AO2=
200708041902 SPECI KPAE 041902Z 00000KT 10SM SCT017 18/12 A3010 RMK AO2=
200708041902 SPECI KPAE 041902Z 00000KT 10SM SCT017 18/12 A3010 RMK AO2=
200708041853 METAR KPAE 041853Z 26004KT 10SM BKN015 18/12 A3010 RMK AO2 SLP193 T01780122=
200708041834 SPECI KPAE 041834Z 27003KT 10SM OVC015 17/12 A3011 RMK AO2=
200708041834 SPECI KPAE 041834Z 27003KT 10SM OVC015 17/12 A3011 RMK AO2=
200708041753 METAR KPAE 041753Z 26003KT 10SM OVC011 16/12 A3011 RMK AO2 SLP195 T01560117 10161 20133 50000=
200708041728 SPECI KPAE 041728Z 00000KT 10SM OVC011 16/12 A3011 RMK AO2=
200708041728 SPECI KPAE 041728Z 00000KT 10SM OVC011 16/12 A3011 RMK AO2=
200708041653 METAR KPAE 041653Z 30003KT 10SM OVC009 14/11 A3011 RMK AO2 SLP197 T01440111=
200708041553 METAR KPAE 041553Z 00000KT 10SM OVC009 14/11 A3012 RMK AO2 CIG 006V012 SLP198 T01390111=
200708041453 METAR KPAE 041453Z 00000KT 10SM BKN005 14/11 A3011 RMK AO2 SLP194 T01390111 51003=
200708041353 METAR KPAE 041353Z 00000KT 10SM BKN005 13/11 A3010 RMK AO2 CIG 004V007 SLP193 T01330111=
200708041336 SPECI KPAE 041336Z AUTO 07003KT 10SM BKN005 BKN060 13/11 A3010 RMK AO2=
200708041336 SPECI KPAE 041336Z AUTO 07003KT 10SM BKN005 BKN060 13/11 A3010 RMK AO2=
200708041304 SPECI KPAE 041304Z AUTO 00000KT 10SM SCT005 OVC060 13/11 A3010 RMK AO2=
200708041304 SPECI KPAE 041304Z AUTO 00000KT 10SM SCT005 OVC060 13/11 A3010 RMK AO2=
200708041253 METAR KPAE 041253Z AUTO 05004KT 10SM OVC060 13/11 A3010 RMK AO2 SLP192 T01330111=
200708041243 SPECI KPAE 041243Z AUTO 06003KT 10SM FEW005 OVC060 13/12 A3010 RMK AO2=
200708041243 SPECI KPAE 041243Z AUTO 06003KT 10SM FEW005 OVC060 13/12 A3010 RMK AO2=
200708041153 METAR KPAE 041153Z AUTO 02003KT 10SM OVC055 13/11 A3010 RMK AO2 SLP191 70001 T01330111 10133 20128 58002=
200708041053 METAR KPAE 041053Z AUTO 00000KT 10SM OVC049 13/11 A3010 RMK AO2 SLP193 T01330111=
200708040953 METAR KPAE 040953Z AUTO 01003KT 10SM CLR 13/11 A3010 RMK AO2 SLP191 T01330111=
200708040853 METAR KPAE 040853Z AUTO 02004KT 10SM CLR 13/11 A3010 RMK AO2 SLP192 T01330111 56004=
200708040753 METAR KPAE 040753Z AUTO 02004KT 10SM FEW005 13/11 A3010 RMK AO2 SLP192 T01330111 402000128=
200708040653 METAR KPAE 040653Z AUTO 02004KT 10SM CLR 13/11 A3011 RMK AO2 SLP197 T01330106=
200708040553 METAR KPAE 040553Z AUTO 01004KT 10SM CLR 13/11 A3012 RMK AO2 SLP198 T01330106 10194 20133 53004=
200708040453 METAR KPAE 040453Z AUTO 36005KT 10SM CLR 14/10 A3011 RMK AO2 SLP197 T01390100=
200708040353 METAR KPAE 040353Z AUTO 36005KT 10SM CLR 14/10 A3010 RMK AO2 SLP194 T01440100=
200708040253 METAR KPAE 040253Z 36006KT 10SM CLR 16/11 A3010 RMK AO2 SLP192 T01610106 56010=
200708040153 SPECI KPAE 040153Z 36007KT 10SM CLR 18/11 A3011 RMK AO2 SLP194 T01780106=
200708040053 METAR KPAE 040053Z 35005KT 10SM CLR 19/09 A3012 RMK AO2 SLP198 T01890094=
200708032353 METAR KPAE 032353Z 35007KT 10SM CLR 19/09 A3013 RMK AO2 SLP202 60000 T01890094 10200 20139 58004=
200708032253 METAR KPAE 032253Z AUTO 01005KT 10SM CLR 20/10 A3013 RMK AO2 SLP203 T02000100 TSNO=
200708032153 METAR KPAE 032153Z 36006KT 10SM CLR 19/10 A3014 RMK AO2 SLP206 T01890100=
200708032053 METAR KPAE 032053Z 35005KT 10SM SCT020 17/10 A3014 RMK AO2 SLP207 60000 T01720100 50002=
200708031953 METAR KPAE 031953Z 36004KT 10SM OVC018 16/11 A3015 RMK AO2 SLP210 T01610106=
200708031900 SPECI KPAE 031900Z VRB03KT 10SM OVC018 15/11 A3015 RMK AO2=
200708031900 SPECI KPAE 031900Z VRB03KT 10SM OVC018 15/11 A3015 RMK AO2=
200708031853 METAR KPAE 031853Z 01003KT 10SM SCT004 BKN010 OVC018 14/11 A3015 RMK AO2 RAB11E32 SLP209 P0000 T01440111=
200708031845 SPECI KPAE 031845Z 35004KT 10SM SCT004 BKN010 OVC018 14/11 A3015 RMK AO2 RAB11E32 P0000=
200708031845 SPECI KPAE 031845Z 35004KT 10SM SCT004 BKN010 OVC018 14/11 A3015 RMK AO2 RAB11E32 P0000=
200708031806 SPECI KPAE 031806Z VRB05KT 10SM BKN007 BKN011 OVC018 14/12 A3014 RMK AO2=
200708031806 SPECI KPAE 031806Z VRB05KT 10SM BKN007 BKN011 OVC018 14/12 A3014 RMK AO2=
200708031759 SPECI KPAE 031759Z 02005KT 9SM SCT007 OVC018 14/11 A3014 RMK AO2=
200708031759 SPECI KPAE 031759Z 02005KT 9SM SCT007 OVC018 14/11 A3014 RMK AO2=
200708031753 METAR KPAE 031753Z 02004KT 8SM BKN007 BKN011 OVC018 14/11 A3014 RMK AO2 SLP206 60001 T01390111 10150 20128 51012=
200708031653 METAR KPAE 031653Z 03005KT 7SM BKN007 BKN012 OVC018 14/12 A3013 RMK AO2 SLP203 T01440117=
200708031553 METAR KPAE 031553Z 05005KT 6SM BR BKN004 OVC015 13/12 A3011 RMK AO2 SLP198 T01330122=
200708031550 SPECI KPAE 031550Z 05004KT 8SM SCT004 BKN010 OVC015 13/12 A3011 RMK AO2 CIG 008V012=
200708031550 SPECI KPAE 031550Z 05004KT 8SM SCT004 BKN010 OVC015 13/12 A3011 RMK AO2 CIG 008V012=
200708031510 SPECI KPAE 031510Z 02004KT 5SM BR OVC002 13/12 A3011 RMK AO2=
200708031510 SPECI KPAE 031510Z 02004KT 5SM BR OVC002 13/12 A3011 RMK AO2=
200708031503 SPECI KPAE 031503Z 02006KT 2SM BR OVC002 13/12 A3011 RMK AO2=
200708031503 SPECI KPAE 031503Z 02006KT 2SM BR OVC002 13/12 A3011 RMK AO2=
200708031453 METAR KPAE 031453Z VRB03KT 1/2SM FG OVC002 13/12 A3010 RMK AO2 SLP193 60001 T01330122 51007=
200708031447 SPECI KPAE 031447Z 04005KT 3/4SM BR OVC002 13/12 A3010 RMK AO2=
200708031447 SPECI KPAE 031447Z 04005KT 3/4SM BR OVC002 13/12 A3010 RMK AO2=
200708031436 SPECI KPAE 031436Z VRB03KT 2 1/2SM BR OVC002 13/12 A3010 RMK AO2 VIS 1 3/4V3=
200708031436 SPECI KPAE 031436Z VRB03KT 2 1/2SM BR OVC002 13/12 A3010 RMK AO2 VIS 1 3/4V3=
200708031419 SPECI KPAE 031419Z 07005KT 3SM BR BKN002 OVC008 13/12 A3010 RMK AO2=
200708031419 SPECI KPAE 031419Z 07005KT 3SM BR BKN002 OVC008 13/12 A3010 RMK AO2=
200708031408 SPECI KPAE 031408Z 06004KT 2 1/2SM BR BKN002 OVC008 13/12 A3010 RMK AO2=
200708031408 SPECI KPAE 031408Z 06004KT 2 1/2SM BR BKN002 OVC008 13/12 A3010 RMK AO2=
200708031353 METAR KPAE 031353Z 06004KT 2 1/2SM BR SCT004 OVC010 13/12 A3010 RMK AO2 RAE03 CIG 008V012 SLP190 P0001 T01330122=
200708031349 SPECI KPAE 031349Z AUTO 06003KT 2SM BR SCT004 BKN010 OVC016 13/12 A3010 RMK AO2 RAE03 CIG 008V012 P0001=
200708031349 SPECI KPAE 031349Z AUTO 06003KT 2SM BR SCT004 BKN010 OVC016 13/12 A3010 RMK AO2 RAE03 CIG 008V012 P0001=
200708031328 SPECI KPAE 031328Z AUTO 06004KT 1 3/4SM BR SCT004 OVC010 13/12 A3009 RMK AO2 RAE03 CIG 008V012 P0000=
200708031328 SPECI KPAE 031328Z AUTO 06004KT 1 3/4SM BR SCT004 OVC010 13/12 A3009 RMK AO2 RAE03 CIG 008V012 P0000=
200708031253 METAR KPAE 031253Z AUTO 02003KT 2 1/2SM -RA BR OVC008 13/12 A3008 RMK AO2 RAB33 CIG 004V010 SLP186 P0000 T01330117=
200708031246 SPECI KPAE 031246Z AUTO 01003KT 2 1/2SM -RA BR BKN008 OVC013 13/12 A3008 RMK AO2 RAB33 CIG 005V010 P0000=
200708031246 SPECI KPAE 031246Z AUTO 01003KT 2 1/2SM -RA BR BKN008 OVC013 13/12 A3008 RMK AO2 RAB33 CIG 005V010 P0000=
200708031203 SPECI KPAE 031203Z AUTO VRB04KT 10SM BKN009 OVC014 15/12 A3007 RMK AO2 CIG 009V013=
200708031203 SPECI KPAE 031203Z AUTO VRB04KT 10SM BKN009 OVC014 15/12 A3007 RMK AO2 CIG 009V013=
200708031153 METAR KPAE 031153Z AUTO VRB03KT 10SM BKN010 OVC016 15/12 A3007 RMK AO2 SLP180 T01500117 10150 20133 50001=
200708031135 SPECI KPAE 031135Z AUTO 06005KT 10SM OVC010 15/12 A3006 RMK AO2=
200708031135 SPECI KPAE 031135Z AUTO 06005KT 10SM OVC010 15/12 A3006 RMK AO2=
200708031053 METAR KPAE 031053Z AUTO 02003KT 10SM OVC008 14/12 A3007 RMK AO2 CIG 006V010 SLP180 T01440122=
200708031032 SPECI KPAE 031032Z AUTO 07005KT 10SM OVC006 14/12 A3007 RMK AO2=
200708031032 SPECI KPAE 031032Z AUTO 07005KT 10SM OVC006 14/12 A3007 RMK AO2=
200708030953 METAR KPAE 030953Z AUTO 06004KT 10SM OVC004 14/12 A3006 RMK AO2 SLP179 T01440122=
200708030853 METAR KPAE 030853Z AUTO 01004KT 10SM OVC004 14/12 A3006 RMK AO2 SLP178 T01390122 51016=
200708030753 METAR KPAE 030753Z AUTO 02005KT 10SM OVC004 14/12 A3005 RMK AO2 SLP172 T01440122 402390128=
200708030653 METAR KPAE 030653Z AUTO 36006KT 10SM OVC004 14/12 A3004 RMK AO2 SLP169 T01390117=
200708030553 METAR KPAE 030553Z AUTO 01007G17KT 340V040 10SM BKN004 14/12 A3002 RMK AO2 SLP162 T01390117 10222 20139 50007=
200708030548 SPECI KPAE 030548Z AUTO 01009G17KT 10SM BKN004 14/12 A3002 RMK AO2=
200708030548 SPECI KPAE 030548Z AUTO 01009G17KT 10SM BKN004 14/12 A3002 RMK AO2=
200708030531 SPECI KPAE 030531Z AUTO 01007KT 10SM FEW004 14/12 A3001 RMK AO2=
200708030531 SPECI KPAE 030531Z AUTO 01007KT 10SM FEW004 14/12 A3001 RMK AO2=
200708030453 METAR KPAE 030453Z AUTO 36007KT 10SM BKN060 14/12 A3000 RMK AO2 SLP159 T01440117=
200708030353 METAR KPAE 030353Z AUTO 36007KT 10SM FEW055 14/12 A2999 RMK AO2 SLP155 T01440117=
200708030253 METAR KPAE 030253Z 36007G14KT 10SM CLR 16/12 A2999 RMK AO2 SLP154 T01610122 55004=
200708030153 METAR KPAE 030153Z 35006G14KT 10SM CLR 18/12 A2999 RMK AO2 SLP153 T01780122=
200708030053 METAR KPAE 030053Z 36008KT 10SM CLR 21/13 A2999 RMK AO2 SLP155 T02060128=
200708022353 METAR KPAE 022353Z 01005KT 10SM CLR 22/12 A3000 RMK AO2 SLP158 T02170122 10239 20211 58006=
200708022253 METAR KPAE 022253Z AUTO VRB05KT 10SM CLR 23/12 A3001 RMK AO2 SLP160 T02280117 TSNO=
200708022153 METAR KPAE 022153Z AUTO VRB05KT 10SM CLR 23/09 A3002 RMK AO2 SLP162 T02330089 TSNO=
200708022053 METAR KPAE 022053Z AUTO 36006KT 10SM CLR 22/11 A3002 RMK AO2 SLP164 T02220111 56003 TSNO=
200708021953 METAR KPAE 021953Z VRB05KT 10SM CLR 22/12 A3002 RMK AO2 SLP164 T02220117=
200708021853 METAR KPAE 021853Z 30006KT 10SM CLR 22/09 A3003 RMK AO2 SLP165 T02220094=
200708021753 METAR KPAE 021753Z 00000KT 10SM CLR 21/09 A3003 RMK AO2 SLP167 T02110094 10211 20128 58000=
200708021653 METAR KPAE 021653Z VRB03KT 10SM CLR 18/11 A3004 RMK AO2 SLP169 T01830111=
200708021553 METAR KPAE 021553Z 03003KT 10SM CLR 17/11 A3004 RMK AO2 SLP171 T01670111=
200708021453 METAR KPAE 021453Z 02004KT 10SM CLR 16/11 A3003 RMK AO2 SLP167 T01560111 52005=
200708021353 METAR KPAE 021353Z 36004KT 10SM CLR 13/11 A3003 RMK AO2 SLP165 T01330111=
200708021253 METAR KPAE 021253Z 02005KT 10SM CLR 13/11 A3002 RMK AO2 SLP164 T01280106=
200708021153 METAR KPAE 021153Z 02007KT 10SM CLR 13/10 A3002 RMK AO2 SLP162 T01330100 10183 20133 58001=
200708021053 METAR KPAE 021053Z 03007KT 10SM CLR 14/08 A3002 RMK AO2 SLP161 T01390083=
200708020953 METAR KPAE 020953Z 03003KT 10SM CLR 16/07 A3002 RMK AO2 SLP163 T01560067=
200708020853 METAR KPAE 020853Z 05003KT 10SM CLR 16/05 A3002 RMK AO2 SLP162 T01610050 56003=
200708020753 METAR KPAE 020753Z VRB03KT 10SM CLR 17/07 A3002 RMK AO2 SLP164 T01670067 402610133=
200708020653 METAR KPAE 020653Z 03004KT 10SM CLR 18/04 A3002 RMK AO2 SLP163 T01830039=
200708020553 METAR KPAE 020553Z 02006KT 10SM CLR 17/06 A3003 RMK AO2 SLP165 T01670056 10256 20161 50005=
200708020453 METAR KPAE 020453Z VRB05KT 10SM CLR 17/08 A3003 RMK AO2 SLP167 T01670078=
200708020353 METAR KPAE 020353Z 01005KT 10SM CLR 17/09 A3002 RMK AO2 SLP163 T01720094=
200708020253 METAR KPAE 020253Z 36007KT 10SM CLR 20/08 A3001 RMK AO2 SLP160 T02000083 56006=
200708020153 METAR KPAE 020153Z VRB05KT 10SM CLR 24/11 A3001 RMK AO2 SLP161 T02390106=
200708020053 METAR KPAE 020053Z 35007KT 10SM CLR 25/10 A3002 RMK AO2 SLP163 T02500100=
200708012353 METAR KPAE 012353Z 35008KT 330V030 10SM CLR 25/11 A3003 RMK AO2 SLP165 T02500111 10261 20200 58017=
200708012253 METAR KPAE 012253Z VRB06KT 10SM CLR 26/11 A3004 RMK AO2 SLP172 T02560106=
200708012153 METAR KPAE 012153Z 34008KT 10SM CLR 24/11 A3006 RMK AO2 SLP179 T02440106=
200708012053 METAR KPAE 012053Z 36006KT 10SM CLR 23/11 A3008 RMK AO2 SLP183 T02330106 58009=
200708011953 METAR KPAE 011953Z VRB06KT 10SM CLR 22/10 A3008 RMK AO2 SLP185 T02220100=
200708011853 METAR KPAE 011853Z 01005KT 10SM CLR 22/10 A3010 RMK AO2 SLP189 T02170100=
200708011753 METAR KPAE 011753Z 34005KT 10SM CLR 21/09 A3010 RMK AO2 SLP191 T02060094 10206 20133 58005=
200708011653 METAR KPAE 011653Z 35005KT 10SM CLR 18/08 A3011 RMK AO2 SLP195 T01830083=
200708011553 METAR KPAE 011553Z 34004KT 10SM CLR 17/09 A3012 RMK AO2 SLP198 T01670089=
200708011453 METAR KPAE 011453Z 35003KT 10SM CLR 16/07 A3012 RMK AO2 SLP197 T01610072 53006=
200708011353 METAR KPAE 011353Z 36005KT 10SM CLR 15/07 A3011 RMK AO2 SLP193 T01500072=
200708011253 METAR KPAE 011253Z 01003KT 10SM CLR 14/07 A3010 RMK AO2 SLP191 T01390072=
200708011153 METAR KPAE 011153Z AUTO 02005KT 10SM CLR 14/07 A3010 RMK AO2 SLP191 T01440072 10150 20133 55002=
200708011053 METAR KPAE 011053Z AUTO 02004KT 10SM CLR 13/08 A3010 RMK AO2 SLP190 T01330078=
200708010953 METAR KPAE 010953Z AUTO 36003KT 10SM CLR 14/08 A3010 RMK AO2 SLP191 T01390078=
200708010853 METAR KPAE 010853Z AUTO 04004KT 10SM CLR 14/08 A3011 RMK AO2 SLP193 T01440078 55003=
200708010753 METAR KPAE 010753Z AUTO 01003KT 10SM CLR 14/08 A3011 RMK AO2 SLP194 T01440083 402280111=
200708010653 METAR KPAE 010653Z AUTO 36006KT 10SM CLR 15/08 A3010 RMK AO2 SLP192 T01500078=
200708010553 METAR KPAE 010553Z AUTO VRB04KT 10SM CLR 14/09 A3012 RMK AO2 SLP197 T01440089 10228 20144 51007=
200708010453 METAR KPAE 010453Z AUTO 34004KT 10SM CLR 17/09 A3012 RMK AO2 SLP197 T01670089=
200708010353 METAR KPAE 010353Z 34004KT 10SM CLR 17/08 A3010 RMK AO2 SLP193 T01720083=
200708010253 METAR KPAE 010253Z VRB04KT 10SM CLR 21/08 A3010 RMK AO2 SLP190 T02060078 55005=
200708010153 METAR KPAE 010153Z 34007KT 10SM CLR 22/08 A3009 RMK AO2 SLP189 T02170078=
200708010053 METAR KPAE 010053Z 34008KT 310V010 10SM CLR 22/08 A3010 RMK AO2 SLP191 T02220078=

# No short TAF reports from KPAE in databse.

###################################
#  large TAF from KPAE
###################################
200708312325 TAF KPAE 312325Z 010024 36006KT P6SM BKN040 OVC080
                      TEMPO 0002 -RA FM0300 36006KT P6SM BKN050
                       FM0600 02004KT P6SM SCT060
                      TEMPO 0610 BKN060 FM2000 31007KT P6SM FEW060
                       BKN200=
200708311743 TAF KPAE 311743Z 311818 VRB03KT P6SM SCT050 BKN080 OVC150
                      TEMPO 1820 -RA BKN050 OVC080 FM2000 VRB03KT
                       P6SM BKN050 OVC080
                      TEMPO 2024 -RA FM0000 31006KT P6SM OVC050
                       TEMPO 0002 -RA FM0300 34006KT P6SM BKN050
                       FM0600 01004KT P6SM SCT050=
200708311122 TAF KPAE 311122Z 311212 35004KT P6SM SCT050 SCT200 FM1800 33006KT
                       P6SM VCSH BKN050 BKN100 FM2300 36006KT P6SM
                       BKN050 FM0300 01004KT P6SM BKN040=
200708310546 TAF KPAE 310546Z 310606 02006KT P6SM SCT250 FM0900 01005KT P6SM
                       SCT050 SCT250 FM1200 01004KT P6SM SCT020
                       BKN050 FM1800 34008KT P6SM SCT025 BKN050
                       FM2000 34010KT P6SM BKN050 OVC080 FM0300
                       VRB03KT P6SM BKN045=
200708310540 TAF KPAE 310540Z 310606 02006KT P6SM SCT250 FM0900 01005KT P6SM
                       SCT050 SCT250 FM1200 01004KT P6SM SCT020
                       BKN050 FM1800 34008KT P6SM SCT025 BKN050
                       FM2000 34010KT P6SM BKN050 OVC080 FM0300
                       VRB03KT P6SM BKN045=
200708302321 TAF KPAE 302321Z 310024 34008KT P6SM SKC FM0500 33006KT P6SM BKN035
                       FM1400 VRB04KT P6SM BKN008 OVC025 FM1900
                       32005KT P6SM SCT020 BKN035=
200708301729 TAF KPAE 301729Z 301818 00000KT P6SM SKC FM2100 33008KT P6SM SKC
                       FM0400 33006KT P6SM BKN035 FM1400 VRB04KT
                       P6SM BKN008 OVC025=
200708301120 TAF KPAE 301120Z 301212 VRB03KT P6SM SKC FM1800 30006KT P6SM SKC
                       FM2100 33008KT P6SM SCT120 FM0300 36006KT
                       P6SM BKN050=
200708300530 TAF KPAE 300530Z 300606 01004KT P6SM SKC FM1300 VRB03KT P6SM SKC
                       FM1800 29006KT P6SM SKC FM2100 33006KT P6SM
                       SCT120=
200708300337 TAF AMD KPAE 300337Z 300424 35006KT P6SM SKC FM0600 01005KT P6SM
                       SKC FM1300 VRB03KT P6SM SKC FM1800 27006KT
                       P6SM SKC=
200708292320 TAF KPAE 292320Z 300024 35006KT P6SM SKC FM0400 32004KT P6SM SKC
                       FM1300 VRB03KT P6SM SCT002
                      TEMPO 1317 1SM BR BKN002 FM1900 32008KT P6SM
                       SKC=
200708292300 KPAE 300337Z 300424 35006KT P6SM SKC FM0600 01005KT P6SM SKC FM1300
                       VRB03KT P6SM SKC FM1800 27006KT P6SM SKC=
200708291723 TAF KPAE 291723Z 291818 36003KT P6SM SKC FM2000 33006KT P6SM SKC
                       FM2300 36008KT P6SM SKC FM0400 32004KT P6SM
                       SKC FM1300 VRB03KT P6SM SCT002
                      TEMPO 1317 1SM BR BKN002=
200708291120 TAF KPAE 291120Z 291212 VRB03KT P6SM SKC FM2000 33006KT P6SM SKC
                       FM2300 36008KT P6SM SKC FM0500 02004KT P6SM
                       SKC=
200708290520 TAF KPAE 290520Z 290606 VRB03KT P6SM SKC FM2000 33006KT P6SM SKC
                       FM2300 36008KT P6SM SKC FM0500 03004KT P6SM
                       SKC=
200708282320 TAF KPAE 282320Z 290024 35006KT P6SM SKC FM0400 VRB03KT P6SM SKC
                       FM2000 34006KT P6SM SKC FM2300 32010KT P6SM
                       SKC=
200708281720 TAF KPAE 281720Z 281818 34007KT P6SM SCT080 FM0400 VRB03KT P6SM
                       SKC=
200708281135 TAF KPAE 281135Z 281212 00000KT P6SM SKC FM1800 34008KT P6SM SKC=
200708280522 TAF KPAE 280522Z 280606 35006KT P6SM SKC=
200708272320 TAF KPAE 272320Z 280024 34006KT P6SM SKC FM0400 36004KT P6SM SKC
                       FM1900 34007KT P6SM SKC=
200708271725 TAF KPAE 271725Z 271818 VRB03KT P6SM FEW020 SCT150 BKN250 FM2100
                       34008KT P6SM SCT250 FM0400 36004KT P6SM
                       SCT250=
200708271135 TAF KPAE 271135Z 271212 01006KT P6SM SCT150 FM1600 34008KT P6SM
                       BKN150 FM2200 34008KT P6SM SCT250=
200708270532 TAF KPAE 270532Z 270606 36004KT P6SM BKN060 BKN250 FM1000 36004KT
                       P6SM SCT060 SCT250 FM1900 34008KT P6SM SCT250=
200708262326 TAF KPAE 262326Z 270024 32004KT P6SM VCSH SCT050 BKN080 FM0200
                       32004KT P6SM SCT080 BKN250 FM0600 03003KT
                       P6SM SCT025 FM1800 32008KT P6SM FEW050=
200708261739 TAF KPAE 261739Z 261818 18006KT P6SM SCT040 BKN080
                      TEMPO 1820 VRB03KT BKN030 BKN050 FM0000 VRB03KT
                       P6SM SCT050 BKN080 FM0200 34005KT P6SM SCT060
                       FM0700 VRB03KT P6SM SCT030 BKN050 FM1500
                       33007KT P6SM SCT050=
200708261138 TAF KPAE 261138Z 261212 34006KT P6SM SCT025 BKN040 BKN060
                      TEMPO 1214 -SHRA BKN025 OVC040 FM1600 34006KT
                       P6SM SCT040 BKN060 FM0000 34006KT P6SM SCT060=
200708260537 TAF KPAE 260537Z 260606 VRB03KT P6SM OVC030 FM0800 VRB03KT P6SM
                       SCT015 OVC028
                      TEMPO 0812 BKN015 OVC028 FM1800 VRB03KT P6SM
                       SCT025 BKN040 FM2100 33006KT P6SM SCT040
                       BKN060=
200708260313 TAF AMD KPAE 260313Z 260324 VRB03KT P6SM SCT002 BKN008 OVC015
                      TEMPO 0307 3SM -SHRA BKN002 OVC008 FM0700
                       VRB03KT 5SM -SHRA BR SCT002 BKN008 OVC015
                       TEMPO 0711 2SM -SHRA BKN002 OVC008 FM1500
                       VRB04KT P6SM BKN035 BKN050 FM2000 31004KT
                       P6SM SCT040 BKN060=
200708252348 TAF KPAE 252348Z 260024 18008KT P6SM VCSH BKN025 BKN050
                      TEMPO 0004 -SHRA OVC015 FM0400 19005KT P6SM
                       -SHRA BKN020 BKN030 FM0700 19003KT 3SM -SHRA
                       BR BKN009 OVC015 FM1500 VRB04KT P6SM BKN035
                       BKN050 FM2000 31004KT P6SM SCT040 BKN060=
200708252300 KPAE 260313Z 260324 VRB03KT P6SM SCT002 BKN008 OVC015
                      TEMPO 0307 3SM -SHRA BKN002 OVC008 FM0700
                       VRB03KT 5SM -SHRA BR SCT002 BKN008 OVC015
                       TEMPO 0711 2SM -SHRA BKN002 OVC008 FM1500
                       VRB04KT P6SM BKN035 BKN050 FM2000 31004KT
                       P6SM SCT040 BKN060=
200708252129 KPAE 252129Z 252118 16010KT P6SM SCT025 BKN050
                      TEMPO 2124 BKN025 BKN050 FM0300 VRB03KT 2SM
                       -SHRA BR BKN020 BKN030 FM1000 28005KT P6SM
                       VCSH BKN030 BKN050=
200708251753 TAF KPAE 251753Z 251818 16008KT 5SM BR VCSH BKN009 BKN015
                      TEMPO 1822 2SM -SHRA BR FM0300 VRB03KT 2SM
                       -SHRA BR BKN020 BKN030 FM1000 28005KT P6SM
                       VCSH BKN030 BKN050=
200708251521 KPAE 251521Z 251512 18005KT P6SM BKN015
                      TEMPO 1518 3SM BR BKN009 FM1800 18008KT P6SM
                       VCSH BKN040 BKN060 FM2200 21012KT P6SM -SHRA
                       BKN030 BKN060 FM0000 23009KT P6SM -SHRA
                       BKN020 BKN035 FM0400 36005KT P6SM SCT030
                       BKN060=
200708251120 TAF KPAE 251120Z 251212 18005KT P6SM OVC009
                      TEMPO 1216 3SM BR FM1800 18008KT P6SM VCSH
                       BKN040 BKN060 FM2200 21012KT P6SM -SHRA
                       BKN030 BKN060 FM0000 23009KT P6SM -SHRA
                       BKN020 BKN035 FM0400 36005KT P6SM SCT030
                       BKN060=
200708251018 KPAE 251018Z 251006 18005KT P6SM OVC009
                      TEMPO 1216 3SM BR FM1800 18009KT P6SM VCSH
                       BKN040 BKN060 FM2200 23009KT P6SM -SHRA
                       BKN030 BKN060 FM0400 34005KT P6SM SCT030
                       BKN060=
200708250754 KPAE 250754Z 250806 01005KT P6SM SCT009 OVC050
                      TEMPO 0810 BKN009 FM1000 18005KT P6SM BKN015
                       BKN030
                      TEMPO 1216 3SM BR OVC009 FM1800 18009KT P6SM
                       VCSH BKN040 BKN060 FM2200 23009KT P6SM -SHRA
                       BKN030 BKN060 FM0400 34005KT P6SM SCT030
                       BKN060=
200708250520 TAF KPAE 250520Z 250606 36006KT P6SM SCT200 FM0800 34004KT P6SM
                       SCT050 SCT100 FM1000 18005KT P6SM BKN015
                       BKN030
                      TEMPO 1216 3SM BR OVC009 FM1800 18009KT P6SM
                       VCSH BKN040 BKN060 FM2200 23009KT P6SM -SHRA
                       BKN030 BKN060 FM0400 34005KT P6SM SCT030
                       BKN060=
200708242355 TAF KPAE 242355Z 250024 34007KT P6SM FEW200 FM0600 01004KT P6SM
                       SCT040 SCT120 FM1100 18005KT P6SM BKN030
                       BKN050 FM2200 32005KT P6SM VCSH BKN020 BKN040=
200708241751 TAF KPAE 241751Z 241818 VRB04KT P6SM FEW020 FEW200 FM2100 32007KT
                       P6SM SKC FM0600 01004KT P6SM SCT040 SCT120
                       FM1200 20005KT P6SM BKN030 BKN050=
200708241259 KPAE 241259Z 241312 00000KT 4SM BR SCT003
                      TEMPO 1316 1/2SM FG VV001 FM1600 30006KT
                       P6SM SCT005
                      TEMPO 1617 3SM BR BKN002 FM1700 33006KT P6SM
                       SKC FM1000 18005KT P6SM SCT250=
200708241147 KPAE 241147Z 241212 00000KT 5SM BR SCT001 SCT009
                      TEMPO 1214 1SM BR BKN001 FM1500 30006KT P6SM
                       SCT010 FM1700 33006KT P6SM SKC FM1000 18005KT
                       P6SM SCT250=
200708241120 TAF KPAE 241120Z 241212 00000KT P6SM SCT009
                      TEMPO 1215 BKN009 FM1700 30006KT P6SM SKC
                       FM1900 33006KT P6SM SKC FM1000 18005KT P6SM
                       SCT250=
200708240520 TAF KPAE 240520Z 240606 02004KT P6SM FEW050 FM0900 00000KT P6SM
                       SCT012 SCT250
                      TEMPO 1013 BKN012 FM1600 30006KT P6SM SKC=
200708232339 TAF KPAE 232339Z 240024 33008KT P6SM FEW050 FM0600 02004KT P6SM
                       FEW050 FM1000 00000KT P6SM FEW010 SCT040
                       FM1600 30006KT P6SM SKC=
200708231743 TAF KPAE 231743Z 231818 30004KT P6SM FEW200 FM2100 33008KT P6SM
                       FEW200 FM0600 03004KT P6SM SKC FM1600 30006KT
                       P6SM SKC=
200708231120 TAF KPAE 231120Z 231212 04004KT P6SM SCT020 SCT050
                      TEMPO 1315 BKN020 FM1700 30006KT P6SM SCT040
                       SCT250 FM1900 35006KT P6SM FEW050 SCT250
                       FM0500 03004KT P6SM SKC=
200708230520 TAF KPAE 230520Z 230606 01004KT P6SM FEW040 SCT250 FM1000 02003KT
                       P6SM SCT020 BKN040
                      TEMPO 1215 BKN020 FM1700 30006KT P6SM SCT040
                       SCT250 FM1900 35006KT P6SM FEW050 SCT250=
200708222320 TAF KPAE 222320Z 230024 31008KT P6SM FEW060 SCT250 FM1000 02003KT
                       P6SM SCT060 FM1800 30006KT P6SM SKC=
200708221725 TAF KPAE 221725Z 221818 03005KT P6SM FEW003 OVC050 FM1900 31005KT
                       P6SM BKN060 FM2100 31008KT P6SM FEW060 SCT200
                       FM1000 02003KT P6SM SCT060
                      TEMPO 1214 3SM BR OVC003=
200708221227 KPAE 221227Z 221212 36005KT P6SM SCT015 BKN030
                      TEMPO 1216 3SM BR BKN012 OVC025 FM1800 32005KT
                       P6SM SCT030 FM2000 35006KT P6SM FEW060 SCT200
                       FM0600 02004KT P6SM SCT200=
200708221120 TAF KPAE 221120Z 221212 03004KT P6SM SCT020 BKN040
                      TEMPO 1213 3SM BR BKN020 OVC030 FM1800 29005KT
                       P6SM SCT060 FM2000 35006KT P6SM FEW060 SCT200
                       FM0600 02004KT P6SM SCT200=
200708220520 TAF KPAE 220520Z 220606 34004KT P6SM BKN060 FM1000 03004KT P6SM
                       SCT020 BKN040
                      TEMPO 1113 3SM BR BKN020 OVC030 FM1800 29005KT
                       P6SM SCT060 FM2000 35006KT P6SM FEW060 SCT200=
200708212320 TAF KPAE 212320Z 220024 23006KT P6SM SCT035 BKN045 FM0300 34004KT
                       P6SM BKN050 FM1000 02004KT P6SM SCT020 OVC040
                       TEMPO 1113 3SM BR BKN020 OVC030 FM1800 29005KT
                       P6SM SCT060=
200708211720 TAF KPAE 211720Z 211818 18006KT P6SM BKN015 OVC020
                      TEMPO 1820 2SM -RA BR OVC005 FM2000 21006KT
                       P6SM BKN020 OVC035 FM2200 23006KT P6SM SCT035
                       BKN045 FM0100 35004KT P6SM SCT040 BKN070
                       FM1000 02004KT P6SM SCT030 OVC040
                      TEMPO 1113 3SM BR SCT015 OVC035=
200708211509 KPAE 211509Z 211512 16006KT P6SM BKN010 OVC020
                      TEMPO 1518 1SM -RA BR OVC010 FM1800 23006KT
                       P6SM BKN020 OVC030 FM2000 24006KT P6SM BKN025
                       OVC040 FM0300 35004KT P6SM SCT040 BKN070=
200708211122 TAF KPAE 211122Z 211212 14004KT P6SM SCT006 OVC015
                      TEMPO 1215 3SM -SHRA BR OVC005 FM1500 16006KT
                       P6SM SCT012 BKN030
                      TEMPO 1519 BKN012 OVC025 FM2000 20006KT P6SM
                       BKN025 OVC040 FM0000 20006KT P6SM SCT040
                       BKN070=
200708211101 KPAE 211101Z 211106 14004KT P6SM SCT005 OVC015
                      TEMPO 1114 2SM -SHRA BR OVC005 FM1400 16006KT
                       P6SM SCT012 BKN030
                      TEMPO 1418 BKN012 OVC025 FM2000 20006KT P6SM
                       BKN025 OVC040 FM0000 20006KT P6SM SCT040
                       BKN070=
200708210521 TAF KPAE 210521Z 210606 15005KT P6SM SCT018 BKN060
                      TEMPO 0610 -SHRA BKN018 OVC050 FM1000 13005KT
                       P6SM SCT012 BKN025
                      TEMPO 1014 BKN012 OVC025 FM1600 21005KT P6SM
                       BKN025 OVC040 FM2100 22006KT P6SM SCT040
                       BKN070=
200708202320 TAF KPAE 202320Z 210024 21005KT P6SM BKN020 OVC030
                      TEMPO 0003 3SM BR BKN010 OVC020 FM0900 13005KT
                       P6SM BKN015 OVC020
                      TEMPO 1114 BKN008 OVC015 FM1500 21005KT P6SM
                       BKN025 OVC040 FM2100 22006KT P6SM SCT040
                       BKN060=
200708202119 KPAE 202119Z 202118 14005KT P6SM BKN020 OVC030
                      TEMPO 2124 3SM -RA BR BKN010 OVC020 FM0000
                       19007KT P6SM BKN030 OVC040 FM0900 VRB04KT
                       P6SM SCT015 BKN025
                      TEMPO 0912 BKN015 OVC025 FM1500 21005KT P6SM
                       BKN025 OVC040=
200708201720 TAF KPAE 201720Z 201818 14005KT P6SM -RA BKN020 OVC030
                      TEMPO 1821 3SM RA BR BKN005 OVC025 FM2100
                       19007KT P6SM -RA BKN030 OVC040 FM0900 VRB04KT
                       P6SM SCT015 BKN025
                      TEMPO 0912 BKN015 OVC025 FM1500 21005KT P6SM
                       BKN025 OVC040=
200708201130 TAF KPAE 201130Z 201212 14003KT P6SM SCT050 OVC100
                      TEMPO 1416 -RA SCT020 OVC050 FM1600 16005KT
                       P6SM -RA BKN015 OVC060
                      TEMPO 1719 4SM -RA BR OVC015 FM2100 17004KT
                       P6SM OVC020 FM0100 23007KT P6SM SCT025 BKN050
                       TEMPO 1012 BKN020 OVC050=
200708200533 TAF KPAE 200533Z 200606 14007KT P6SM SCT029 OVC045 FM1100 15005KT
                       P6SM BKN015 OVC045
                      TEMPO 1113 -RA FM1300 16005KT 5SM -RA BKN015
                       OVC060 FM1600 17005KT 4SM -RA BR OVC015
                       FM2000 17004KT P6SM OVC020
                      TEMPO 2023 P6SM -SHRA FM2300 23007KT P6SM
                       SCT025 BKN050=
200708192320 TAF KPAE 192320Z 200024 VRB04KT P6SM SCT025 BKN060
                      TEMPO 0004 BKN020 BKN050 FM1500 16008KT P6SM
                       -RA BKN030 OVC060 FM2000 18008KT 5SM -RA
                       BR OVC025=
200708191720 TAF KPAE 191720Z 191818 26006KT P6SM SCT007 BKN015 OVC030
                      TEMPO 1820 4SM -RA BR OVC007 FM2200 26006KT
                       P6SM VCSH SCT020 BKN040 BKN080
                      TEMPO 2202 5SM -SHRA BKN020 OVC040 FM1200
                       VRB03KT 5SM -RA BR OVC020=
200708191129 TAF KPAE 191129Z 191212 VRB03KT P6SM -RA SCT005 BKN050 OVC080
                      TEMPO 1216 4SM -RA BR BKN005 OVC025 FM1800
                       19005KT P6SM -SHRA OVC015 FM2000 28008KT
                       P6SM -SHRA BKN030 OVC050 FM0100 32006KT
                       P6SM SCT030 OVC050=
200708190531 TAF KPAE 190531Z 190606 00000KT P6SM BKN080 OVC100 FM1000 18006KT
                       P6SM -RA BKN025 OVC050 FM1200 VRB03KT 4SM
                       -RA BR OVC010
                      TEMPO 1216 2SM -RA BR BKN005 OVC010 FM1800
                       19005KT P6SM OVC015 FM2000 28008KT P6SM
                       VCSH SCT030 BKN050 BKN100=
200708182320 TAF KPAE 182320Z 190024 22008KT P6SM VCSH SCT025 BKN050 BKN100
                       TEMPO 0004 -SHRA FM1000 18006KT P6SM -SHRA
                       BKN025 OVC050 FM2000 28008KT P6SM VCSH SCT030
                       BKN050 BKN100=
200708181720 TAF KPAE 181720Z 181818 18008KT P6SM SCT025 BKN050 BKN100 FM0600
                       18008KT P6SM -SHRA BKN025 OVC050=
200708181124 TAF KPAE 181124Z 181212 18007KT P6SM SCT030 OVC070
                      TEMPO 1215 BKN025 FM2000 22008KT P6SM BKN040
                       BKN070 FM0200 36005KT P6SM VCSH BKN030 OVC070
                       FM0600 VRB04KT P6SM VCSH OVC030=
200708180521 TAF KPAE 180521Z 180606 VRB05KT P6SM OVC080 FM1000 18007KT P6SM
                       SCT080 SCT200 FM2000 22008KT P6SM BKN050
                       BKN200 FM0300 36005KT P6SM BKN030 BKN100=
200708172320 TAF KPAE 172320Z 180024 21010KT P6SM VCSH BKN050 BKN150 FM1200
                       18007KT P6SM VCSH BKN030 FM2000 22008KT
                       P6SM VCSH BKN050 BKN150=
200708172133 KPAE 172133Z 172218 22012G20KT P6SM SCT040 BKN200
                      TEMPO 2303 BKN040 FM0300 20010KT P6SM BKN040
                       BKN100 FM1200 18007KT P6SM -SHRA BKN030=
200708171720 TAF KPAE 171720Z 171818 18010KT P6SM BKN040
                      TEMPO 1923 SCT040 FM1200 18007KT P6SM -SHRA
                       BKN030=
200708171120 TAF KPAE 171120Z 171212 17008KT P6SM SCT050 FM1400 16007KT P6SM
                       BKN050 FM1900 19011KT P6SM BKN050 FM0200
                       35006KT P6SM SCT050 FM0600 01005KT P6SM
                       BKN040=
200708170721 KPAE 170721Z 170706 16009KT P6SM SKC FM1200 17008KT P6SM SCT060
                       FM1900 19011KT P6SM BKN050 FM0200 34006KT
                       P6SM SCT050=
200708170527 TAF KPAE 170527Z 170606 17008KT P6SM OVC080 FM0800 16009KT P6SM
                       BKN060 FM1900 19011KT P6SM BKN050 FM0200
                       34006KT P6SM SCT050=
200708162346 TAF KPAE 162346Z 170024 19010KT P6SM SCT035 BKN060 FM0200 30005KT
                       P6SM SCT050 SCT100 FM1000 16005KT P6SM BKN035
                       BKN050 FM1900 17008KT P6SM BKN045=
200708161748 TAF KPAE 161748Z 161818 17006KT P6SM SCT020 BKN050
                      TEMPO 1820 BKN020 BKN050 FM2200 18007KT P6SM
                       BKN060 BKN100 FM0200 30006KT P6SM SCT050
                       BKN100 FM1000 16005KT P6SM BKN030 BKN050=
200708161723 KPAE 161723Z 161712 17006KT P6SM OVC018 FM2000 20010KT P6SM BKN060
                       BKN150 FM2300 10008KT P6SM VCSH BKN060 BKN100
                       FM0400 12007KT P6SM SCT050 BKN100=
200708161357 KPAE 161357Z 161412 18009KT P6SM OVC014 FM1700 17007KT P6SM SCT015
                       OVC050 FM2000 20010KT P6SM BKN060 BKN150
                       FM2300 10008KT P6SM VCSH BKN060 BKN100 FM0400
                       12007KT P6SM SCT050 BKN100=
200708161120 TAF KPAE 161120Z 161212 16006KT P6SM SCT200 FM1600 17007KT P6SM
                       SCT060 SCT150 FM2000 20010KT P6SM BKN060
                       BKN150 FM2300 10008KT P6SM VCSH BKN060 BKN100
                       FM0400 12007KT P6SM SCT050 BKN100=
200708160525 TAF KPAE 160525Z 160606 36006KT P6SM SKC FM1200 18008KT P6SM SCT060
                       BKN120 FM2000 20010KT P6SM SCT070 BKN150
                       FM0200 10008KT P6SM BKN060 BKN100=
200708152340 TAF KPAE 152340Z 160024 34008KT P6SM BKN200 FM0600 30008KT P6SM
                       BKN150 FM1200 18008KT P6SM SCT010 BKN120
                       TEMPO 1215 4SM BR BKN010 FM1800 15008KT
                       P6SM BKN060 OVC100=
200708151720 TAF KPAE 151720Z 151818 VRB03KT P6SM SCT250 FM2200 33008KT P6SM
                       BKN200 FM0600 30008KT P6SM BKN150 FM1200
                       18007KT P6SM SCT015 BKN120
                      TEMPO 1215 4SM BR BKN010=
200708151120 TAF KPAE 151120Z 151212 00000KT P6SM SKC FM2000 32007KT P6SM SKC
                       FM0300 33005KT P6SM SCT250 FM0900 19007KT
                       P6SM SCT250=
200708150529 TAF KPAE 150529Z 150606 36003KT P6SM SKC FM2000 32007KT P6SM SKC
                       FM0300 33005KT P6SM SCT250=
200708142325 TAF KPAE 142325Z 150024 34008KT P6SM SKC FM0600 01006KT P6SM SKC
                       FM2000 32007KT P6SM SKC=
200708141730 TAF KPAE 141730Z 141818 00000KT P6SM SKC FM2000 34008KT P6SM SKC
                       FM0600 36004KT P6SM SKC=
200708141120 TAF KPAE 141120Z 141212 00000KT P6SM SKC FM2000 34008KT P6SM SKC
                       FM0600 36004KT P6SM SKC=
200708140529 TAF KPAE 140529Z 140606 36003KT P6SM SKC FM2000 34008KT P6SM SKC=
200708132320 TAF KPAE 132320Z 140024 33009G16KT P6SM SKC FM0400 35005KT P6SM
                       SKC FM2000 34008KT P6SM SKC=
200708131739 TAF KPAE 131739Z 131818 35007KT P6SM SKC FM2200 34009KT P6SM SKC
                       FM0400 35005KT P6SM SKC=
200708131124 TAF KPAE 131124Z 131212 00000KT P6SM SCT060 BKN250 FM1600 32006KT
                       P6SM SCT090 BKN250 FM0400 35004KT P6SM SCT250=
200708130532 TAF KPAE 130532Z 130606 35005KT P6SM SCT050 BKN200 FM1400 36005KT
                       P6SM FEW080 SCT200 FM1800 32008KT P6SM SCT200=
200708122340 TAF KPAE 122340Z 130024 24006KT P6SM SCT080 BKN120 BKN200 FM0400
                       36004KT P6SM SCT045 BKN100 FM1400 36005KT
                       P6SM FEW080 SCT200 FM1800 32008KT P6SM SCT200=
200708121751 TAF KPAE 121751Z 121818 20005KT P6SM VCSH SCT025 OVC040 FM0000
                       VRB04KT P6SM SCT050 BKN060 FM0600 35005KT
                       P6SM SCT050 SCT100 FM1200 36005KT P6SM SCT100
                       SCT250=
200708121126 TAF KPAE 121126Z 121212 00000KT P6SM SCT022 OVC070
                      TEMPO 1214 -SHRA BKN022 OVC070 FM1400 17006KT
                       P6SM BKN022 OVC030
                      TEMPO 1418 -SHRA FM1800 VRB03KT P6SM VCSH
                       SCT025 OVC040 FM2200 24006KT P6SM OVC100
                       FM0200 35005KT P6SM SCT250=
200708120844 KPAE 120844Z 120906 00000KT P6SM SCT025 BKN045 OVC060
                      TEMPO 0911 -SHRA FM1100 17006KT P6SM VCSH
                       BKN035 OVC050 FM1400 17006KT P6SM VCSH BKN022
                       OVC030 FM1900 VRB03KT P6SM VCSH SCT025 OVC040
                       FM2200 24006KT P6SM OVC100 FM0200 35005KT
                       P6SM SCT250=
200708120520 TAF KPAE 120520Z 120606 36005KT P6SM SCT045 OVC120 FM0800 VRB03KT
                       P6SM SCT045 OVC080 FM1100 17006KT P6SM VCSH
                       BKN035 OVC050 FM1400 17006KT P6SM VCSH BKN022
                       OVC030 FM1900 VRB03KT P6SM VCSH SCT025 OVC040
                       FM2200 24006KT P6SM OVC100 FM0200 35005KT
                       P6SM SCT250=
200708112341 TAF KPAE 112341Z 120024 34008KT P6SM BKN200 FM0500 34008KT P6SM
                       BKN120 OVC200 FM0800 VRB03KT P6SM SCT045
                       OVC080 FM1100 17006KT P6SM BKN035 OVC050
                       FM1400 17006KT P6SM BKN022 OVC030 FM1900
                       VRB03KT P6SM SCT025 OVC040=
200708111736 TAF KPAE 111736Z 111818 34008KT P6SM BKN200 FM0300 34008KT P6SM
                       SCT120 BKN200 FM0800 VRB03KT P6SM SCT045
                       OVC080 FM1100 VRB03KT P6SM BKN035 OVC050=
200708111409 KPAE 111409Z 111412 VRB03KT P6SM SCT005
                      TEMPO 1416 BKN005 FM2000 24006KT P6SM BKN200
                       FM0100 30006KT P6SM SCT120 BKN200 FM0500
                       VRB03KT P6SM SCT045 BKN080 FM1000 VRB03KT
                       P6SM BKN035 OVC060=
200708111122 TAF KPAE 111122Z 111212 VRB03KT P6SM SCT200 FM2000 24006KT P6SM
                       BKN200 FM0100 30006KT P6SM SCT120 BKN200
                       FM0500 VRB03KT P6SM SCT045 BKN080 FM1000
                       VRB03KT P6SM BKN035 OVC060=
200708110523 TAF KPAE 110523Z 110606 VRB03KT P6SM SKC FM2000 24006KT P6SM BKN200
                       FM0100 30006KT P6SM SCT120 BKN200=
200708102322 TAF KPAE 102322Z 110024 34008KT P6SM SCT060 FM0500 34008KT P6SM
                       SKC FM1800 VRB03KT P6SM SCT060 BKN200=
200708101730 TAF KPAE 101730Z 101818 VRB03KT P6SM SCT020 BKN040
                      TEMPO 1819 BKN020 FM2100 VRB03KT P6SM SCT025
                       BKN050 FM2200 34008KT P6SM SCT060 FM0500
                       34008KT P6SM SKC=
200708101614 KPAE 101614Z 101612 VRB03KT P6SM OVC015 FM1800 VRB03KT P6SM SCT015
                       BKN035 FM2000 VRB03KT P6SM BKN060 FM2100
                       34008KT P6SM SCT060 FM0300 35005KT P6SM
                       SKC=
200708101123 TAF KPAE 101123Z 101212 30005KT P6SM OVC040 FM1800 VRB03KT P6SM
                       BKN060 FM2100 34008KT P6SM SCT060 FM0300
                       35005KT P6SM SKC=
200708100536 TAF KPAE 100536Z 100606 36005KT P6SM FEW040 OVC050 FM1200 19006KT
                       P6SM BKN035 OVC050 FM1800 VRB03KT P6SM BKN060
                       FM2100 34008KT P6SM SCT060=
200708092343 TAF KPAE 092343Z 100024 34008KT P6SM SCT060 FM0300 34008KT P6SM
                       BKN060 FM1200 19006KT P6SM BKN035 OVC050
                       FM1800 VRB03KT P6SM BKN060 FM2100 34008KT
                       P6SM SCT060=
200708091739 TAF KPAE 091739Z 091818 VRB03KT P6SM BKN050 FM2200 34008KT P6SM
                       SCT050 FM0100 34008KT P6SM BKN060 FM0900
                       19006KT P6SM BKN035 OVC050=
200708091502 KPAE 091502Z 091512 VRB03KT P6SM BKN050 FM2000 24006KT P6SM BKN050
                       FM2200 30007KT P6SM SCT045 BKN120 FM0900
                       20005KT P6SM BKN035 OVC050=
200708091125 TAF KPAE 091125Z 091212 VRB03KT P6SM SCT018 OVC040
                      TEMPO 1214 BKN018 OVC040 FM1400 VRB03KT P6SM
                       BKN018 OVC035
                      TEMPO 1418 SCT018 OVC035 FM1800 24006KT P6SM
                       SCT020 BKN035 FM2000 24006KT P6SM BKN045
                       FM2200 30007KT P6SM SCT045 BKN120 FM0900
                       20005KT P6SM BKN035 OVC050=
200708090520 TAF KPAE 090520Z 090606 34005KT P6SM BKN045 FM1000 VRB03KT P6SM
                       SCT018 BKN045
                      TEMPO 1014 BKN018 OVC045 FM1400 VRB03KT P6SM
                       BKN018 OVC035
                      TEMPO 1418 SCT018 OVC035 FM1800 24006KT P6SM
                       SCT020 BKN035 FM2000 24006KT P6SM BKN045
                       FM2200 30007KT P6SM SCT045=
200708082339 TAF KPAE 082339Z 090024 34007KT P6SM SCT035 BKN050 FM0200 36007KT
                       P6SM BKN035 FM1000 VRB03KT P6SM SCT008 BKN014
                       OVC020 FM1300 17004KT 3SM BR SCT002 BKN008
                       FM1800 24006KT P6SM SCT008 BKN025 FM2200
                       30007KT P6SM SCT030 BKN045=
200708081741 TAF KPAE 081741Z 081818 VRB03KT 3SM -DZ BR BKN003 OVC008 FM2000
                       33004KT 6SM BR SCT008 BKN015 OVC030 FM2200
                       33006KT P6SM SCT015 BKN025 FM0000 32006KT
                       P6SM SCT025 BKN040 FM0200 36005KT P6SM SCT040
                       FM1000 VRB03KT P6SM BKN015 FM1300 17004KT
                       P6SM SCT002 BKN008 FM1700 19006KT P6SM SCT008
                       BKN020=
200708081458 KPAE 081458Z 081512 VRB03KT 2SM -DZ BR BKN002 OVC010 FM1700 VRB03KT
                       P6SM BKN008 OVC015 FM1900 33004KT P6SM BKN015
                       OVC028 FM2200 33006KT P6SM SCT028 BKN040
                       FM0100 35006KT P6SM SCT045 FM0800 01004KT
                       P6SM OVC025=
200708081132 TAF KPAE 081132Z 081212 35004KT 2SM BR OVC002
                      TEMPO 1215 1SM BR BKN004 OVC008 FM1500 VRB03KT
                       P6SM BKN022 OVC035 FM2200 33006KT P6SM SCT028
                       BKN040 FM0100 35006KT P6SM SCT045 FM0800
                       01004KT P6SM OVC025=
200708080948 KPAE 080948Z 081006 00000KT 3SM BR SCT004 OVC008
                      TEMPO 1014 1SM BR BKN004 OVC008 FM1800 VRB03KT
                       P6SM BKN022 OVC035 FM2200 33006KT P6SM SCT028
                       BKN040=
200708080536 TAF KPAE 080536Z 080606 19005KT P6SM OVC022
                      TEMPO 0608 5SM -RADZ BKN020 OVC035 FM0800
                       17005KT P6SM BKN019 OVC030 FM1800 VRB03KT
                       P6SM BKN022 OVC035 FM2200 33006KT P6SM SCT028
                       BKN040=
200708072320 TAF KPAE 072320Z 080024 18007KT P6SM SCT020 OVC030
                      TEMPO 0004 5SM -RADZ BKN019 OVC030 FM0400
                       19008KT P6SM SCT020 OVC035
                      TEMPO 0408 5SM -RADZ BKN020 OVC035 FM0800
                       17005KT P6SM BKN019 OVC030
                      PROB30 0916 -RA FM1800 VRB03KT P6SM BKN022
                       OVC035 FM2200 33006KT P6SM SCT028 BKN040=
200708071748 TAF KPAE 071748Z 071818 16009KT P6SM SCT006 BKN012 OVC027
                      TEMPO 1821 2SM -DZ BR BKN006 OVC012 FM2100
                       18008KT P6SM BKN016 OVC030 FM0000 19006KT
                       P6SM SCT019 BKN035
                      TEMPO 0002 BKN019 FM0500 19008KT P6SM BKN020
                       OVC035
                      PROB30 0510 -RA FM1000 17005KT P6SM OVC014
                       FM1700 VRB03KT P6SM OVC020=
200708071710 KPAE 071710Z 071712 16009KT 5SM BR SCT006 BKN012 OVC027
                      TEMPO 1719 2SM -DZ BR BKN006 OVC012 FM2000
                       18008KT P6SM BKN019 OVC030 FM0300 19008KT
                       P6SM BKN020 OVC040
                      PROB30 0309 -RA=
200708071128 TAF KPAE 071128Z 071212 18010KT P6SM SCT025
                      TEMPO 1215 BKN025 FM1500 18010KT P6SM SCT025
                       BKN040
                      TEMPO 1518 OVC025 FM0300 19008KT P6SM BKN020
                       OVC040
                      PROB30 0309 -RA=
200708071024 KPAE 071024Z 071006 18010KT P6SM SCT030
                      TEMPO 1013 BKN025 FM1300 18010KT P6SM BKN025
                       TEMPO 1418 5SM -DZ OVC020 FM1800 19006KT
                       P6SM BKN015 OVC025 FM2300 19006KT P6SM BKN025
                       OVC045
                      PROB30 2305 -RA=
200708070522 TAF KPAE 070522Z 070606 16006KT P6SM OVC027 FM1000 18006KT P6SM
                       BKN010 OVC020
                      TEMPO 1317 5SM -DZ FM1700 19006KT P6SM BKN015
                       OVC025
                      PROB30 1723 -DZRA FM2300 19006KT P6SM BKN025
                       OVC045=
200708062344 TAF KPAE 062344Z 070024 25011KT P6SM SCT025
                      TEMPO 0004 BKN025 FM0400 23006KT P6SM BKN022
                       FM1000 18006KT P6SM BKN010 OVC020
                      TEMPO 1317 5SM -DZ FM1700 19006KT P6SM BKN015
                       OVC025
                      PROB30 1724 -DZRA=
200708061736 TAF KPAE 061736Z 061818 18007KT P6SM OVC011 FM2100 19006KT P6SM
                       BKN019 FM2200 VRB05KT P6SM SCT025 FM0000
                       VRB06KT P6SM SCT035 FM1000 18006KT P6SM
                       OVC008 FM1700 19006KT P6SM OVC012=
200708061132 TAF KPAE 061132Z 061212 19009KT P6SM OVC005 FM1700 19007KT P6SM
                       OVC009 FM1900 24006KT P6SM BKN015 FM2000
                       30006KT P6SM FEW040 FM1000 18006KT P6SM
                       OVC005=
200708060521 TAF KPAE 060521Z 060606 VRB03KT P6SM SKC FM1000 VRB03KT P6SM VCFG
                       SCT002 SCT250
                      TEMPO 1012 6SM BR BKN002 BKN250 FM1200 17005KT
                       4SM BR OVC002 FM1700 20005KT P6SM OVC006
                       FM1800 25006KT P6SM BKN009 FM1900 33006KT
                       P6SM FEW040=
200708052320 TAF KPAE 052320Z 060024 34006KT P6SM SKC FM0600 VRB03KT P6SM SCT250
                       FM1100 15004KT P6SM SCT014 BKN250 FM1400
                       16005KT P6SM BKN014 OVC250 FM1800 17005KT
                       P6SM SCT020 BKN250 FM2000 18005KT P6SM SCT250=
200708051740 TAF KPAE 051740Z 051818 VRB03KT P6SM BKN006
                      TEMPO 1920 SCT009 FM2000 32006KT P6SM FEW050
                       FM0600 36006KT P6SM SKC FM1000 VRB03KT 4SM
                       BR BKN002 FM1700 VRB04KT P6SM BKN010=
200708051422 KPAE 051422Z 051412 VRB03KT 3SM BR SCT002 BKN040
                      TEMPO 1416 1/2SM FG OVC001 FM1600 25006KT
                       P6SM OVC006 FM1900 29006KT P6SM BKN010 BKN050
                       FM2000 32006KT P6SM SCT050 FM0600 36006KT
                       P6SM SKC FM1000 VRB03KT 4SM BR BKN002=
200708051302 KPAE 051302Z 051312 VRB03KT 6SM BR SCT004 BKN040
                      TEMPO 1316 3SM BR BKN003 OVC040 FM1600 25006KT
                       P6SM OVC006 FM1900 29006KT P6SM BKN010 BKN050
                       FM2000 32006KT P6SM SCT050 FM0600 36006KT
                       P6SM SKC FM1000 VRB03KT 4SM BR BKN002=
200708051122 TAF KPAE 051122Z 051212 VRB03KT 6SM BR OVC003 FM1800 25006KT P6SM
                       OVC007 FM1900 29006KT P6SM BKN010 BKN050
                       FM2000 32006KT P6SM SCT050 FM0600 36006KT
                       P6SM SKC FM1000 VRB03KT 4SM BR BKN002=
200708050844 KPAE 050844Z 050906 36005KT 6SM BR SCT002
                      TEMPO 0911 2SM BR BKN002 FM1100 36005KT 6SM
                       BR OVC004 FM1800 32007KT P6SM BKN009 FM1900
                       32007KT P6SM FEW060=
200708050521 TAF KPAE 050521Z 050606 VRB03KT P6SM SKC FM1000 36005KT P6SM SCT005
                       FM1800 32007KT P6SM SCT010 FM1900 32007KT
                       P6SM FEW060=
200708042321 TAF KPAE 042321Z 050024 30005KT P6SM SCT040 FM0200 34004KT P6SM
                       SKC FM1000 35005KT P6SM BKN030 OVC060 FM2000
                       29007KT P6SM BKN040=
200708042014 KPAE 042014Z 042018 28005KT P6SM BKN020 FM2200 32007KT P6SM BKN040
                       FM0600 36006KT P6SM SCT060=
200708041720 TAF KPAE 041720Z 041818 33005KT P6SM OVC010
                      TEMPO 1820 BKN030 FM2000 32006KT P6SM BKN040
                       FM0600 36006KT P6SM SCT060=
200708041341 KPAE 041341Z 041412 VRB03KT P6SM SCT007 BKN050
                      TEMPO 1418 BKN005 OVC050 FM1800 32006KT P6SM
                       SCT020 BKN050 FM1900 32006KT P6SM FEW060
                       FM0600 36006KT P6SM SKC=
200708041120 TAF KPAE 041120Z 041212 VRB03KT P6SM SCT010 OVC040
                      TEMPO 1418 BKN010 OVC040 FM1800 32006KT P6SM
                       SCT020 BKN050 FM1900 32006KT P6SM FEW060
                       FM0600 36006KT P6SM SKC=
200708041008 KPAE 041008Z 041006 VRB03KT P6SM FEW007 FM1200 VRB03KT P6SM OVC007
                       FM1500 VRB03KT P6SM OVC012 FM1800 32006KT
                       P6SM BKN020 BKN050 FM1900 32006KT P6SM SCT060=
200708040524 TAF KPAE 040524Z 040606 VRB03KT P6SM SKC FM0900 VRB03KT P6SM SCT007
                       TEMPO 0911 BKN007 FM1100 VRB03KT P6SM OVC007
                       FM1500 VRB03KT P6SM OVC012 FM1800 32006KT
                       P6SM BKN020 BKN050 FM1900 32006KT P6SM SCT060=
200708040402 TAF AMD KPAE 040402Z 040424 36006KT P6SM SKC FM0700 36004KT P6SM
                       BKN030 FM1000 VRB04KT P6SM OVC015 FM2000
                       30007KT P6SM SCT020 BKN050=
200708032320 TAF KPAE 032320Z 040024 36006KT P6SM SCT030 FM0500 36004KT P6SM
                       BKN030 FM1000 VRB04KT P6SM OVC015 FM2000
                       30007KT P6SM SCT020 BKN050=
200708032300 KPAE 040402Z 040424 36006KT P6SM SKC FM0700 36004KT P6SM BKN030
                       FM1000 VRB04KT P6SM OVC015 FM2000 30007KT
                       P6SM SCT020 BKN050=
200708032058 KPAE 032058Z 032118 35005KT P6SM SCT020
                      TEMPO 2101 BKN030 FM0100 34007KT P6SM BKN030
                       FM0900 VRB03KT P6SM OVC015=
200708031728 TAF KPAE 031728Z 031818 05005KT P6SM BKN010 OVC020
                      TEMPO 1821 5SM BR BKN005 FM2300 24008KT P6SM
                       OVC030 FM0100 34007KT P6SM BKN030 FM0900
                       VRB03KT P6SM OVC015=
200708031347 KPAE 031347Z 031412 16006KT 3SM BR OVC010
                      TEMPO 1416 1 1/2SM -DZ BR OVC005 FM1800 20007KT
                       P6SM VCSH OVC014 FM2100 24008KT P6SM BKN030
                       FM0100 32007KT P6SM SCT035 BKN060=
200708031121 TAF KPAE 031121Z 031212 16006KT P6SM OVC008
                      TEMPO 1216 4SM -DZ BR OVC005 FM1800 20007KT
                       P6SM VCSH OVC014 FM2100 24008KT P6SM BKN030
                       FM0100 32007KT P6SM SCT035 BKN060=
200708030552 KPAE 030552Z 030606 36008KT P6SM BKN005
                      TEMPO 0608 SCT006 FM0800 VRB05KT P6SM OVC005
                       FM1000 18005KT 5SM BR OVC005
                      TEMPO 1317 3SM -DZ BR FM1800 23007KT P6SM
                       OVC015 FM2100 23008KT P6SM BKN035=
200708030524 TAF KPAE 030524Z 030606 36006KT P6SM FEW012 BKN050 FM0800 VRB05KT
                       P6SM SCT014
                      TEMPO 0810 BKN010 FM1000 18005KT P6SM OVC010
                       TEMPO 1317 3SM -DZ BR OVC006 FM1800 23007KT
                       P6SM OVC015 FM2100 23008KT P6SM BKN035=
200708022349 KPAE 022349Z 030024 34008KT P6SM FEW200 FM0300 33012G18KT P6SM
                       SCT200 FM0600 02007KT P6SM SCT200 FM0800
                       18006KT 5SM -DZ BR OVC009
                      TEMPO 1417 3SM -RA BR OVC004 FM1900 23007KT
                       P6SM OVC018 FM2100 23008KT P6SM OVC030=
200708022320 TAF KPAE 022320Z 030024 34008KT P6SM FEW200 FM0300 36006KT P6SM
                       SCT200 FM0900 24006KT 5SM -DZ BR OVC009
                       TEMPO 1417 3SM -RA BR OVC004 FM1900 23007KT
                       P6SM OVC018 FM2100 23008KT P6SM OVC030=
200708021720 TAF KPAE 021720Z 021818 31007KT P6SM FEW200 FM2100 34008KT P6SM
                       FEW200 FM0300 36006KT P6SM SCT200 FM0900
                       24006KT 5SM -DZ BR OVC009
                      TEMPO 1418 3SM -RA BR OVC004=
200708021137 TAF KPAE 021137Z 021212 03007KT P6SM SKC FM1800 30008KT P6SM SKC
                       FM0900 04006KT P6SM BKN015=
200708020529 TAF KPAE 020529Z 020606 36005KT P6SM SKC FM1800 30008KT P6SM SKC=
200708012330 TAF KPAE 012330Z 020024 34006KT P6SM SKC=
200708011720 TAF KPAE 011720Z 011818 34006KT P6SM SKC=
200708011126 TAF KPAE 011126Z 011212 02004KT P6SM SKC FM1800 33007KT P6SM SKC
                       FM0500 36003KT P6SM SKC=
200708010531 TAF KPAE 010531Z 010606 36004KT P6SM SKC FM1800 33007KT P6SM SKC=