##########################################################
# Query made at 02/18/2025 19:22:01 UTC
# Time interval: from 07/01/2008 00:00  to 07/31/2008 23:59  UTC
##########################################################

##########################################################
# KPAE, Everett, Snohomish County Airport (United States)
# WMO index: -----. WIGOS ID: Unknown
# Latitude 47-55-23N. Longitude 122-16-57W. Altitude 184 m.
##########################################################

###################################
#  METAR/SPECI from KPAE
###################################
200807312353 METAR KPAE 312353Z 00000KT 4SM -RA FEW031 OVC065 15/11 A2989 RMK AO2 RAB14 SLP120 P0003 60003 T01500111 10194 20144 55002=
200807312253 METAR KPAE 312253Z 21003KT 10SM OVC075 18/07 A2988 RMK AO2 SLP118 T01830072=
200807312153 METAR KPAE 312153Z 21005KT 10SM OVC070 19/07 A2988 RMK AO2 SLP116 T01940072=
200807312053 METAR KPAE 312053Z 00000KT 10SM OVC080 18/08 A2989 RMK AO2 SLP122 T01780083 58013=
200807311953 METAR KPAE 311953Z 27006KT 10SM FEW085 17/09 A2990 RMK AO2 SLP125 T01720089=
200807311853 METAR KPAE 311853Z 27006KT 10SM SCT095 16/08 A2992 RMK AO2 SLP132 T01610078=
200807311753 METAR KPAE 311753Z 26003KT 10SM BKN095 14/09 A2993 RMK AO2 SLP134 T01440089 10150 20094 58005=
200807311653 METAR KPAE 311653Z 00000KT 10SM OVC100 14/09 A2993 RMK AO2 SLP136 T01440089=
200807311553 METAR KPAE 311553Z 19003KT 10SM BKN100 13/08 A2995 RMK AO2 SLP141 T01280083=
200807311453 METAR KPAE 311453Z 00000KT 10SM OVC110 12/08 A2994 RMK AO2 SLP139 T01170083 58008=
200807311353 METAR KPAE 311353Z 00000KT 7SM OVC110 11/08 A2996 RMK AO2 SLP144 T01060083=
200807311253 METAR KPAE 311253Z 00000KT 7SM BKN110 10/08 A2996 RMK AO2 SLP145 T01000078=
200807311153 METAR KPAE 311153Z AUTO 00000KT 7SM CLR 09/07 A2997 RMK AO2 SLP147 T00940072 10117 20089 58013=
200807311053 METAR KPAE 311053Z AUTO 00000KT 10SM CLR 10/08 A2998 RMK AO2 SLP153 T01000078=
200807310953 METAR KPAE 310953Z AUTO 00000KT 10SM CLR 11/08 A2999 RMK AO2 SLP156 T01060083=
200807310853 METAR KPAE 310853Z AUTO 00000KT 10SM CLR 11/08 A3001 RMK AO2 SLP161 T01060078 56016=
200807310753 METAR KPAE 310753Z AUTO 35004KT 10SM CLR 11/08 A3002 RMK AO2 SLP167 T01110083 402000111=
200807310653 METAR KPAE 310653Z AUTO VRB03KT 10SM CLR 12/08 A3003 RMK AO2 SLP170 T01170078=
200807310553 METAR KPAE 310553Z AUTO 35004KT 10SM CLR 12/08 A3005 RMK AO2 SLP177 T01170083 10200 20117 58010=
200807310453 METAR KPAE 310453Z AUTO 35003KT 10SM CLR 13/08 A3007 RMK AO2 SLP182 T01330078=
200807310353 METAR KPAE 310353Z AUTO 00000KT 10SM CLR 14/08 A3007 RMK AO2 SLP183 T01440078=
200807310253 METAR KPAE 310253Z 35003KT 9SM CLR 15/06 A3009 RMK AO2 SLP188 T01500061 56019=
200807310153 METAR KPAE 310153Z VRB03KT 10SM CLR 16/06 A3011 RMK AO2 SLP194 T01610061=
200807310053 METAR KPAE 310053Z VRB03KT 10SM FEW060 19/06 A3012 RMK AO2 SLP199 T01890056=
200807302353 METAR KPAE 302353Z 24004KT 10SM SCT065 18/05 A3014 RMK AO2 SLP206 T01830050 10183 20139 58005=
200807302253 METAR KPAE 302253Z 30006KT 10SM OVC065 18/04 A3016 RMK AO2 SLP210 T01830039=
200807302153 METAR KPAE 302153Z VRB04KT 10SM FEW044 OVC060 17/07 A3015 RMK AO2 SLP210 T01670067=
200807302053 METAR KPAE 302053Z 00000KT 10SM BKN041 BKN049 OVC065 17/05 A3016 RMK AO2 SLP212 T01670050 58002=
200807301953 METAR KPAE 301953Z VRB03KT 10SM SCT039 OVC065 16/05 A3017 RMK AO2 SLP216 T01560050=
200807301853 METAR KPAE 301853Z VRB04KT 10SM BKN065 16/05 A3017 RMK AO2 SLP216 T01610050=
200807301753 METAR KPAE 301753Z 11006KT 10SM BKN050 OVC065 14/06 A3016 RMK AO2 SLP214 T01390056 10139 20117 51011=
200807301653 METAR KPAE 301653Z VRB04KT 10SM OVC048 13/07 A3016 RMK AO2 SLP212 T01280067=
200807301553 METAR KPAE 301553Z VRB03KT 10SM BKN042 OVC055 13/08 A3015 RMK AO2 SLP209 T01280078=
200807301453 METAR KPAE 301453Z 00000KT 10SM BKN042 OVC055 12/07 A3013 RMK AO2 SLP203 T01220067 53011=
200807301353 METAR KPAE 301353Z 00000KT 10SM BKN042 OVC050 12/07 A3012 RMK AO2 SLP198 T01220067=
200807301253 METAR KPAE 301253Z 00000KT 10SM OVC038 12/07 A3010 RMK AO2 SLP194 T01220067=
200807301153 METAR KPAE 301153Z AUTO 00000KT 10SM OVC038 12/07 A3010 RMK AO2 SLP192 60000 70003 T01170072 10128 20117 53011=
200807301053 METAR KPAE 301053Z AUTO 04006KT 10SM BKN037 OVC045 12/07 A3008 RMK AO2 SLP187 T01170072=
200807300953 METAR KPAE 300953Z AUTO VRB03KT 10SM BKN030 OVC038 12/07 A3008 RMK AO2 RAB08E16 SLP183 P0000 T01170072=
200807300933 SPECI KPAE 300933Z AUTO 00000KT 10SM BKN030 OVC039 12/07 A3008 RMK AO2 RAB08E16 P0000=
200807300933 SPECI KPAE 300933Z AUTO 00000KT 10SM BKN030 OVC039 12/07 A3008 RMK AO2 RAB08E16 P0000=
200807300853 METAR KPAE 300853Z AUTO 00000KT 10SM OVC024 12/07 A3007 RMK AO2 SLP181 T01170072 53017=
200807300753 METAR KPAE 300753Z AUTO VRB06KT 10SM BKN020 BKN027 OVC045 12/08 A3004 RMK AO2 SLP172 T01170078 401830117=
200807300706 SPECI KPAE 300706Z AUTO 31007KT 10SM FEW008 OVC015 12/09 A3002 RMK AO2=
200807300706 SPECI KPAE 300706Z AUTO 31007KT 10SM FEW008 OVC015 12/09 A3002 RMK AO2=
200807300653 METAR KPAE 300653Z AUTO 04006KT 10SM FEW008 OVC013 12/09 A3002 RMK AO2 SLP165 T01220094=
200807300648 SPECI KPAE 300648Z AUTO 03005KT 10SM SCT006 OVC013 12/09 A3001 RMK AO2=
200807300648 SPECI KPAE 300648Z AUTO 03005KT 10SM SCT006 OVC013 12/09 A3001 RMK AO2=
200807300553 METAR KPAE 300553Z AUTO 00000KT 10SM OVC009 13/11 A3000 RMK AO2 CIG 006V012 SLP158 60000 T01280106 10172 20128 53015=
200807300536 SPECI KPAE 300536Z AUTO 00000KT 10SM BKN007 BKN023 OVC050 13/11 A3000 RMK AO2=
200807300536 SPECI KPAE 300536Z AUTO 00000KT 10SM BKN007 BKN023 OVC050 13/11 A3000 RMK AO2=
200807300527 SPECI KPAE 300527Z AUTO VRB03KT 10SM SCT009 BKN023 OVC055 14/11 A2999 RMK AO2=
200807300527 SPECI KPAE 300527Z AUTO VRB03KT 10SM SCT009 BKN023 OVC055 14/11 A2999 RMK AO2=
200807300512 SPECI KPAE 300512Z AUTO 21007KT 10SM SCT013 SCT023 OVC055 14/12 A2999 RMK AO2=
200807300512 SPECI KPAE 300512Z AUTO 21007KT 10SM SCT013 SCT023 OVC055 14/12 A2999 RMK AO2=
200807300506 SPECI KPAE 300506Z AUTO 22004KT 10SM BKN013 BKN060 OVC085 14/12 A2999 RMK AO2=
200807300506 SPECI KPAE 300506Z AUTO 22004KT 10SM BKN013 BKN060 OVC085 14/12 A2999 RMK AO2=
200807300453 METAR KPAE 300453Z 21010G14KT 10SM OVC015 15/12 A2998 RMK AO2 RAB0354E22 SLP153 P0000 T01500122=
200807300353 METAR KPAE 300353Z 23007KT 9SM OVC015 16/12 A2996 RMK AO2 SLP144 T01560117=
200807300253 METAR KPAE 300253Z 21012G19KT 10SM OVC015 16/12 A2995 RMK AO2 SLP142 60000 T01610117 53006=
200807300212 SPECI KPAE 300212Z 18011G19KT 10SM BKN020 BKN065 OVC095 16/12 A2993 RMK AO2=
200807300212 SPECI KPAE 300212Z 18011G19KT 10SM BKN020 BKN065 OVC095 16/12 A2993 RMK AO2=
200807300153 METAR KPAE 300153Z 18011G20KT 10SM SCT020 BKN080 OVC095 16/11 A2994 RMK AO2 PK WND 17026/0139 SLP136 T01610111=
200807300053 METAR KPAE 300053Z 18015G23KT 10SM CLR 17/11 A2993 RMK AO2 RAB12E23 SLP134 P0000 T01670111=
200807292353 METAR KPAE 292353Z AUTO 17016G25KT 10SM FEW030 SCT080 BKN100 17/11 A2994 RMK AO2 RAB06E16 SLP136 P0000 60000 T01720106 10183 20144 58005 TSNO=
200807292253 METAR KPAE 292253Z 17015G22KT 10SM SCT027 OVC090 17/11 A2995 RMK AO2 PK WND 19027/2206 RAB14E28 SLP140 P0000 T01670106=
200807292153 METAR KPAE 292153Z 18018G26KT 10SM SCT034 BKN075 18/09 A2995 RMK AO2 PK WND 19026/2151 SLP142 T01780094=
200807292053 METAR KPAE 292053Z 17013G21KT 10SM SCT048 BKN095 17/08 A2995 RMK AO2 SLP141 60000 T01670083 58004=
200807291953 METAR KPAE 291953Z 16014KT 10SM FEW028 OVC090 16/09 A2996 RMK AO2 SLP146 T01560089=
200807291853 METAR KPAE 291853Z 16014KT 10SM OVC075 16/09 A2996 RMK AO2 RAB17E36 SLP145 P0000 T01560094=
200807291753 METAR KPAE 291753Z 16015KT 10SM OVC075 14/09 A2996 RMK AO2 SLP147 60003 T01440089 10144 20133 51004=
200807291653 METAR KPAE 291653Z 16014KT 10SM OVC090 14/09 A2996 RMK AO2 RAE40 SLP145 P0002 T01390089=
200807291553 METAR KPAE 291553Z 16014KT 6SM -RA BKN041 BKN050 BKN085 14/09 A2996 RMK AO2 RAB27 SLP145 P0001 T01390094=
200807291453 METAR KPAE 291453Z 16012KT 10SM SCT100 14/08 A2995 RMK AO2 SLP142 T01390078 58000=
200807291353 METAR KPAE 291353Z AUTO 16015KT 10SM FEW060 13/08 A2996 RMK AO2 SLP143 T01330083=
200807291253 METAR KPAE 291253Z AUTO 17010KT 10SM CLR 13/08 A2996 RMK AO2 SLP144 T01330083=
200807291153 METAR KPAE 291153Z AUTO 18007KT 10SM SCT055 14/07 A2995 RMK AO2 SLP141 T01390067 10139 20122 56004=
200807291053 METAR KPAE 291053Z AUTO 20005KT 10SM BKN120 13/07 A2996 RMK AO2 SLP142 T01330067=
200807290953 METAR KPAE 290953Z AUTO 16004KT 10SM CLR 14/08 A2996 RMK AO2 SLP143 T01390078=
200807290853 METAR KPAE 290853Z AUTO 00000KT 10SM CLR 13/08 A2997 RMK AO2 SLP146 T01280083 58005=
200807290753 METAR KPAE 290753Z AUTO 06003KT 10SM CLR 13/08 A2997 RMK AO2 SLP148 T01330083 402440094=
200807290653 METAR KPAE 290653Z AUTO 00000KT 10SM CLR 13/08 A2998 RMK AO2 SLP150 T01330083=
200807290553 METAR KPAE 290553Z AUTO 35003KT 10SM CLR 13/08 A2998 RMK AO2 SLP151 T01330078 10244 20133 53011=
200807290453 METAR KPAE 290453Z 34003KT 10SM CLR 14/08 A2997 RMK AO2 SLP148 T01390078=
200807290353 METAR KPAE 290353Z 00000KT 10SM CLR 16/07 A2995 RMK AO2 SLP140 T01560072=
200807290253 METAR KPAE 290253Z 36003KT 10SM CLR 17/10 A2995 RMK AO2 SLP140 T01670100 55002=
200807290153 METAR KPAE 290153Z VRB04KT 10SM CLR 19/10 A2994 RMK AO2 SLP138 T01940100=
200807290053 METAR KPAE 290053Z 26004KT 10SM CLR 23/03 A2994 RMK AO2 SLP137 T02280033=
200807282353 METAR KPAE 282353Z AUTO 26007KT 10SM CLR 23/05 A2995 RMK AO2 SLP142 T02330050 10233 20156 56014 TSNO=
200807282253 METAR KPAE 282253Z AUTO 28007KT 10SM CLR 22/08 A2996 RMK AO2 SLP145 T02170083 TSNO=
200807282153 METAR KPAE 282153Z VRB04KT 10SM CLR 21/11 A2998 RMK AO2 SLP152 T02060106=
200807282053 METAR KPAE 282053Z VRB04KT 10SM CLR 19/10 A3000 RMK AO2 SLP156 T01940100 58014=
200807281953 METAR KPAE 281953Z VRB03KT 10SM CLR 18/10 A3001 RMK AO2 SLP161 T01830100=
200807281853 METAR KPAE 281853Z 00000KT 10SM CLR 17/09 A3003 RMK AO2 SLP168 T01670089=
200807281753 METAR KPAE 281753Z VRB03KT 10SM CLR 16/09 A3004 RMK AO2 SLP172 T01610089 10161 20094 56006=
200807281653 METAR KPAE 281653Z 00000KT 10SM CLR 15/08 A3004 RMK AO2 SLP174 T01500078=
200807281553 METAR KPAE 281553Z 08003KT 10SM CLR 14/07 A3005 RMK AO2 SLP175 T01390072=
200807281453 METAR KPAE 281453Z 00000KT 10SM CLR 13/07 A3006 RMK AO2 SLP178 T01280072 55000=
200807281353 METAR KPAE 281353Z 00000KT 10SM CLR 11/07 A3005 RMK AO2 SLP178 T01110067=
200807281253 METAR KPAE 281253Z AUTO 00000KT 9SM SCT036 11/07 A3006 RMK AO2 SLP178 T01060067=
200807281153 METAR KPAE 281153Z AUTO 00000KT 10SM CLR 09/07 A3006 RMK AO2 SLP179 70021 T00940067 10117 20094 55003=
200807281053 METAR KPAE 281053Z AUTO 00000KT 10SM CLR 10/07 A3006 RMK AO2 SLP179 T01000067=
200807280953 METAR KPAE 280953Z AUTO 02004KT 10SM CLR 11/07 A3006 RMK AO2 SLP180 T01060072=
200807280853 METAR KPAE 280853Z AUTO VRB04KT 10SM OVC060 11/07 A3007 RMK AO2 SLP182 T01110067 58002=
200807280753 METAR KPAE 280753Z AUTO 36005KT 10SM OVC055 12/07 A3007 RMK AO2 SLP183 T01170067 401560117=
200807280653 METAR KPAE 280653Z AUTO 02008KT 10SM BKN055 OVC070 12/07 A3007 RMK AO2 SLP183 T01170072=
200807280553 METAR KPAE 280553Z AUTO VRB06KT 10SM OVC050 12/07 A3007 RMK AO2 RAE23 SLP183 P0000 60003 T01170072 10133 20117 51005=
200807280453 METAR KPAE 280453Z 36005KT 10SM -RA OVC048 12/08 A3007 RMK AO2 RAB26 SLP182 P0000 T01170078=
200807280353 METAR KPAE 280353Z 02007KT 8SM OVC044 12/09 A3006 RMK AO2 RAB00E37 SLP180 P0000 T01220094=
200807280253 METAR KPAE 280253Z 03006KT 5SM BR BKN042 OVC050 13/11 A3006 RMK AO2 RAB36E47 SLP178 P0000 60003 T01280106 56002=
200807280229 SPECI KPAE 280229Z 02009KT 8SM FEW003 BKN042 OVC060 13/11 A3006 RMK AO2=
200807280229 SPECI KPAE 280229Z 02009KT 8SM FEW003 BKN042 OVC060 13/11 A3006 RMK AO2=
200807280223 SPECI KPAE 280223Z 02009KT 7SM SCT003 BKN008 OVC043 13/11 A3006 RMK AO2 CIG 005V009=
200807280223 SPECI KPAE 280223Z 02009KT 7SM SCT003 BKN008 OVC043 13/11 A3006 RMK AO2 CIG 005V009=
200807280213 SPECI KPAE 280213Z 02008KT 4SM BR BKN003 OVC006 13/12 A3006 RMK AO2 CIG 001V004=
200807280213 SPECI KPAE 280213Z 02008KT 4SM BR BKN003 OVC006 13/12 A3006 RMK AO2 CIG 001V004=
200807280206 SPECI KPAE 280206Z 02007KT 360V060 3SM BR BKN001 OVC006 13/12 A3006 RMK AO2=
200807280206 SPECI KPAE 280206Z 02007KT 360V060 3SM BR BKN001 OVC006 13/12 A3006 RMK AO2=
200807280153 METAR KPAE 280153Z 03004KT 2SM BR OVC001 13/12 A3006 RMK AO2 RAE24 SLP179 P0003 T01330122=
200807280136 SPECI KPAE 280136Z VRB06KT 1 1/4SM BR OVC001 13/12 A3005 RMK AO2 RAE24 P0003=
200807280136 SPECI KPAE 280136Z VRB06KT 1 1/4SM BR OVC001 13/12 A3005 RMK AO2 RAE24 P0003=
200807280053 METAR KPAE 280053Z AUTO 03005KT 2 1/2SM -RA BR BKN001 OVC029 13/12 A3006 RMK AO2 RAB33 SLP179 VSBY NW-NE 2 P0000 T01330122=
200807280000 SPECI KPAE 280000Z 02007KT 5SM BR BKN001 13/12 A3007 RMK AO2=
200807280000 SPECI KPAE 280000Z 02007KT 5SM BR BKN001 13/12 A3007 RMK AO2=
200807272353 METAR KPAE 272353Z 03005KT 5SM BR BKN003 BKN029 BKN034 13/12 A3006 RMK AO2 SLP180 60011 T01330117 10156 20128 50003=
200807272253 METAR KPAE 272253Z 36007G15KT 7SM BKN003 BKN032 BKN110 14/12 A3006 RMK AO2 SLP181 T01440117=
200807272153 METAR KPAE 272153Z 36006KT 5SM BR BKN003 OVC041 13/12 A3006 RMK AO2 CIG 001V006 SLP179 T01330122=
200807272145 SPECI KPAE 272145Z 36007KT 4SM BR OVC003 13/12 A3006 RMK AO2 CIG 001V006=
200807272145 SPECI KPAE 272145Z 36007KT 4SM BR OVC003 13/12 A3006 RMK AO2 CIG 001V006=
200807272133 SPECI KPAE 272133Z 36006KT 3SM BR OVC001 13/12 A3006 RMK AO2=
200807272133 SPECI KPAE 272133Z 36006KT 3SM BR OVC001 13/12 A3006 RMK AO2=
200807272125 SPECI KPAE 272125Z 01006KT 2 1/2SM BR OVC001 13/12 A3006 RMK AO2=
200807272125 SPECI KPAE 272125Z 01006KT 2 1/2SM BR OVC001 13/12 A3006 RMK AO2=
200807272107 SPECI KPAE 272107Z 36007KT 1SM BR OVC001 13/12 A3006 RMK AO2 RVRNO=
200807272107 SPECI KPAE 272107Z 36007KT 1SM BR OVC001 13/12 A3006 RMK AO2 RVRNO=
200807272053 METAR KPAE 272053Z VRB05KT M1/4SM FG VV001 13/12 A3005 RMK AO2 RAB1956E09 SLP177 P0000 60011 T01280122 51008 RVRNO=
200807272005 SPECI KPAE 272005Z 36006KT 1/4SM -RA FG BKN001 BKN005 OVC011 14/13 A3005 RMK AO2 RAB1956 P0000 RVRNO=
200807272005 SPECI KPAE 272005Z 36006KT 1/4SM -RA FG BKN001 BKN005 OVC011 14/13 A3005 RMK AO2 RAB1956 P0000 RVRNO=
200807271959 SPECI KPAE 271959Z 01005KT 1 3/4SM -RA BR FEW001 BKN005 OVC011 14/13 A3005 RMK AO2 RAB56 CIG 004V009 P0000=
200807271959 SPECI KPAE 271959Z 01005KT 1 3/4SM -RA BR FEW001 BKN005 OVC011 14/13 A3005 RMK AO2 RAB56 CIG 004V009 P0000=
200807271957 SPECI KPAE 271957Z VRB03KT 2 1/2SM -RA BR FEW001 SCT005 OVC011 15/14 A3005 RMK AO2 RAB56 P0000=
200807271957 SPECI KPAE 271957Z VRB03KT 2 1/2SM -RA BR FEW001 SCT005 OVC011 15/14 A3005 RMK AO2 RAB56 P0000=
200807271953 METAR KPAE 271953Z 33003KT 5SM BR BKN007 OVC011 16/14 A3005 RMK AO2 RAE46 SLP173 P0011 T01560139=
200807271940 SPECI KPAE 271940Z 00000KT 2 1/2SM -RA BR BKN007 OVC011 15/13 A3004 RMK AO2 P0011=
200807271940 SPECI KPAE 271940Z 00000KT 2 1/2SM -RA BR BKN007 OVC011 15/13 A3004 RMK AO2 P0011=
200807271916 SPECI KPAE 271916Z 21003KT 1/2SM +RA FG BKN007 OVC011 15/14 A3004 RMK AO2 P0005 RVRNO=
200807271916 SPECI KPAE 271916Z 21003KT 1/2SM +RA FG BKN007 OVC011 15/14 A3004 RMK AO2 P0005 RVRNO=
200807271908 SPECI KPAE 271908Z 21004KT 1SM -RA BR BKN009 OVC013 15/13 A3004 RMK AO2 CIG 005V011 P0001 RVRNO=
200807271908 SPECI KPAE 271908Z 21004KT 1SM -RA BR BKN009 OVC013 15/13 A3004 RMK AO2 CIG 005V011 P0001 RVRNO=
200807271853 METAR KPAE 271853Z 19007KT 2 1/2SM -RA BR OVC007 15/13 A3004 RMK AO2 RAE1758B51 CIG 005V011 SLP172 P0000 T01500133=
200807271753 METAR KPAE 271753Z 18008KT 5SM -RA BR OVC005 15/13 A3003 RMK AO2 RAB43 CIG 004V009 SLP168 P0000 60007 T01500133 10150 20144 51008=
200807271653 METAR KPAE 271653Z 19007KT 8SM BKN005 OVC008 14/13 A3003 RMK AO2 SLP167 T01440133=
200807271553 METAR KPAE 271553Z 18006KT 6SM BR BKN005 OVC012 15/13 A3002 RMK AO2 RAE38 CIG 002V009 SLP165 P0002 T01500133=
200807271544 SPECI KPAE 271544Z 19005KT 3SM BR OVC005 14/13 A3002 RMK AO2 RAE38 CIG 002V009 P0002=
200807271544 SPECI KPAE 271544Z 19005KT 3SM BR OVC005 14/13 A3002 RMK AO2 RAE38 CIG 002V009 P0002=
200807271538 SPECI KPAE 271538Z 18006KT 1 3/4SM BR OVC005 14/13 A3002 RMK AO2 RAE38 CIG 002V008 P0002=
200807271538 SPECI KPAE 271538Z 18006KT 1 3/4SM BR OVC005 14/13 A3002 RMK AO2 RAE38 CIG 002V008 P0002=
200807271514 SPECI KPAE 271514Z 21007KT 1SM -RA BR BKN004 OVC007 14/13 A3001 RMK AO2 P0001 RVRNO=
200807271514 SPECI KPAE 271514Z 21007KT 1SM -RA BR BKN004 OVC007 14/13 A3001 RMK AO2 P0001 RVRNO=
200807271501 SPECI KPAE 271501Z 20007KT 3/4SM -RA BR OVC004 14/13 A3001 RMK AO2 CIG 002V007 P0001 RVRNO=
200807271501 SPECI KPAE 271501Z 20007KT 3/4SM -RA BR OVC004 14/13 A3001 RMK AO2 CIG 002V007 P0001 RVRNO=
200807271453 METAR KPAE 271453Z 16006KT 1SM -RA BR OVC004 15/13 A3001 RMK AO2 CIG 002V007 SLP160 P0002 60005 T01500133 53007 RVRNO=
200807271408 SPECI KPAE 271408Z 00000KT 1SM -RA BR OVC004 14/13 A3000 RMK AO2 CIG 002V009 P0000 RVRNO=
200807271408 SPECI KPAE 271408Z 00000KT 1SM -RA BR OVC004 14/13 A3000 RMK AO2 CIG 002V009 P0000 RVRNO=
200807271353 METAR KPAE 271353Z 00000KT 1/2SM -RA FG OVC004 14/13 A2999 RMK AO2 RAB31 CIG 002V008 SLP155 P0003 T01440133 RVRNO=
200807271322 SPECI KPAE 271322Z AUTO 00000KT 1 3/4SM BR BKN004 OVC010 14/13 A2999 RMK AO2 CIG 003V008=
200807271322 SPECI KPAE 271322Z AUTO 00000KT 1 3/4SM BR BKN004 OVC010 14/13 A2999 RMK AO2 CIG 003V008=
200807271308 SPECI KPAE 271308Z AUTO 00000KT 2SM BR FEW004 BKN010 OVC015 14/13 A2999 RMK AO2 CIG 007V012=
200807271308 SPECI KPAE 271308Z AUTO 00000KT 2SM BR FEW004 BKN010 OVC015 14/13 A2999 RMK AO2 CIG 007V012=
200807271300 SPECI KPAE 271300Z AUTO 00000KT 1 3/4SM BR SCT004 OVC013 14/13 A2999 RMK AO2=
200807271300 SPECI KPAE 271300Z AUTO 00000KT 1 3/4SM BR SCT004 OVC013 14/13 A2999 RMK AO2=
200807271253 METAR KPAE 271253Z AUTO 00000KT 1 3/4SM BR BKN004 OVC015 14/13 A2999 RMK AO2 SLP153 T01440128=
200807271239 SPECI KPAE 271239Z AUTO 00000KT 2SM BR OVC004 14/13 A2999 RMK AO2=
200807271239 SPECI KPAE 271239Z AUTO 00000KT 2SM BR OVC004 14/13 A2999 RMK AO2=
200807271153 METAR KPAE 271153Z AUTO 00000KT 9SM OVC004 14/13 A2998 RMK AO2 SLP151 T01440128 10144 20144 53002=
200807271053 METAR KPAE 271053Z AUTO 00000KT 10SM OVC004 14/13 A2998 RMK AO2 SLP150 T01440128=
200807270953 METAR KPAE 270953Z AUTO 00000KT 10SM OVC004 14/13 A2997 RMK AO2 CIG 002V006 SLP148 T01440128=
200807270931 SPECI KPAE 270931Z AUTO 34003KT 10SM BKN004 OVC023 14/13 A2998 RMK AO2 CIG 003V007=
200807270931 SPECI KPAE 270931Z AUTO 34003KT 10SM BKN004 OVC023 14/13 A2998 RMK AO2 CIG 003V007=
200807270853 METAR KPAE 270853Z AUTO 00000KT 10SM FEW004 OVC023 14/13 A2998 RMK AO2 SLP149 T01440128 56001=
200807270753 METAR KPAE 270753Z AUTO 00000KT 10SM FEW004 OVC023 14/13 A2998 RMK AO2 SLP151 T01440128 402170122=
200807270743 SPECI KPAE 270743Z AUTO 36004KT 10SM FEW004 OVC023 14/13 A2998 RMK AO2=
200807270743 SPECI KPAE 270743Z AUTO 36004KT 10SM FEW004 OVC023 14/13 A2998 RMK AO2=
200807270653 METAR KPAE 270653Z AUTO 36004KT 10SM BKN023 BKN065 14/13 A2998 RMK AO2 SLP149 T01440128=
200807270645 SPECI KPAE 270645Z AUTO 01004KT 10SM BKN023 BKN065 14/13 A2998 RMK AO2=
200807270645 SPECI KPAE 270645Z AUTO 01004KT 10SM BKN023 BKN065 14/13 A2998 RMK AO2=
200807270634 SPECI KPAE 270634Z AUTO VRB04KT 10SM SCT023 BKN065 14/12 A2998 RMK AO2=
200807270634 SPECI KPAE 270634Z AUTO VRB04KT 10SM SCT023 BKN065 14/12 A2998 RMK AO2=
200807270621 SPECI KPAE 270621Z AUTO 35004KT 10SM BKN023 14/12 A2998 RMK AO2=
200807270621 SPECI KPAE 270621Z AUTO 35004KT 10SM BKN023 14/12 A2998 RMK AO2=
200807270553 METAR KPAE 270553Z AUTO VRB04KT 10SM CLR 14/12 A2998 RMK AO2 SLP151 T01440122 10211 20139 58004=
200807270453 METAR KPAE 270453Z AUTO VRB03KT 10SM CLR 14/12 A3000 RMK AO2 SLP156 T01440122=
200807270353 METAR KPAE 270353Z AUTO 36004KT 10SM BKN035 16/11 A2999 RMK AO2 SLP155 T01560111=
200807270253 METAR KPAE 270253Z 36005KT 10SM BKN033 17/11 A2999 RMK AO2 SLP155 T01720111 55006=
200807270153 METAR KPAE 270153Z 36006KT 10SM FEW039 OVC085 19/11 A2999 RMK AO2 SLP153 T01890111=
200807270053 METAR KPAE 270053Z 35005KT 10SM SCT034 BKN049 OVC080 19/12 A3000 RMK AO2 SLP158 T01940122=
200807262353 METAR KPAE 262353Z 33004KT 10SM SCT034 OVC070 22/13 A3001 RMK AO2 SLP160 T02170128 10217 20167 58009=
200807262253 METAR KPAE 262253Z 26004KT 10SM BKN034 OVC060 20/13 A3002 RMK AO2 SLP165 T02000128=
200807262153 METAR KPAE 262153Z 26006KT 10SM BKN060 21/12 A3003 RMK AO2 SLP167 T02060122=
200807262053 METAR KPAE 262053Z 23009KT 10SM BKN100 21/12 A3004 RMK AO2 SLP170 T02110122 58003=
200807261953 METAR KPAE 261953Z VRB05KT 10SM FEW021 BKN100 19/11 A3005 RMK AO2 SLP174 T01890106=
200807261853 METAR KPAE 261853Z 21008KT 10SM OVC065 17/10 A3006 RMK AO2 SLP177 T01670100=
200807261753 METAR KPAE 261753Z 17007KT 10SM BKN075 18/09 A3005 RMK AO2 SLP174 T01780089 10183 20128 53001=
200807261653 METAR KPAE 261653Z 19010G15KT 10SM CLR 17/09 A3004 RMK AO2 SLP172 T01670089=
200807261553 METAR KPAE 261553Z 19007KT 10SM CLR 16/08 A3004 RMK AO2 SLP172 T01610083=
200807261453 METAR KPAE 261453Z VRB04KT 10SM BKN110 14/08 A3004 RMK AO2 SLP173 T01390083 53003=
200807261353 METAR KPAE 261353Z 15006KT 10SM OVC110 13/08 A3004 RMK AO2 SLP171 T01330083=
200807261253 METAR KPAE 261253Z AUTO 00000KT 10SM FEW110 13/08 A3003 RMK AO2 SLP169 T01330083=
200807261153 METAR KPAE 261153Z AUTO 12003KT 10SM CLR 13/09 A3003 RMK AO2 SLP168 T01330089 10144 20122 55000=
200807261053 METAR KPAE 261053Z AUTO 12003KT 10SM CLR 13/08 A3003 RMK AO2 SLP168 T01330078=
200807260953 METAR KPAE 260953Z AUTO 00000KT 10SM FEW110 13/07 A3003 RMK AO2 SLP166 T01330072=
200807260853 METAR KPAE 260853Z AUTO 00000KT 10SM CLR 13/07 A3003 RMK AO2 SLP169 T01330072 55001=
200807260753 METAR KPAE 260753Z AUTO 03003KT 10SM CLR 14/08 A3003 RMK AO2 SLP168 T01390078 402330117=
200807260653 METAR KPAE 260653Z AUTO 02003KT 10SM CLR 14/08 A3003 RMK AO2 SLP169 T01390083=
200807260553 METAR KPAE 260553Z AUTO 00000KT 10SM CLR 14/08 A3004 RMK AO2 SLP170 T01390083 10222 20139 53003=
200807260453 METAR KPAE 260453Z AUTO 36003KT 10SM CLR 14/08 A3004 RMK AO2 SLP170 T01440083=
200807260353 METAR KPAE 260353Z 01005KT 10SM FEW120 16/08 A3003 RMK AO2 SLP166 T01610078=
200807260253 METAR KPAE 260253Z 01007KT 340V050 10SM CLR 16/08 A3003 RMK AO2 SLP167 T01560078 58000=
200807260153 METAR KPAE 260153Z 01006KT 10SM CLR 17/08 A3003 RMK AO2 SLP167 T01670083=
200807260053 METAR KPAE 260053Z 36005KT 10SM SCT100 18/09 A3003 RMK AO2 SLP168 T01780089=
200807252353 METAR KPAE 252353Z AUTO VRB04KT 10SM CLR 22/10 A3003 RMK AO2 SLP166 T02170100 10233 20172 57006 TSNO=
200807252253 METAR KPAE 252253Z AUTO 26007KT 10SM CLR 23/09 A3004 RMK AO2 SLP169 T02280089 TSNO=
200807252153 METAR KPAE 252153Z 27007KT 10SM CLR 22/10 A3004 RMK AO2 SLP170 T02170100=
200807252053 METAR KPAE 252053Z 27006KT 10SM CLR 21/10 A3005 RMK AO2 SLP174 T02110100 58005=
200807251953 METAR KPAE 251953Z 24010KT 10SM CLR 20/10 A3006 RMK AO2 SLP176 T02000100=
200807251853 METAR KPAE 251853Z 27007KT 9SM CLR 19/11 A3006 RMK AO2 SLP178 T01890111=
200807251753 METAR KPAE 251753Z 29004KT 10SM CLR 18/11 A3006 RMK AO2 SLP179 T01780106 10183 20117 58000=
200807251653 METAR KPAE 251653Z 25003KT 10SM CLR 17/11 A3007 RMK AO2 SLP180 T01720106=
200807251553 METAR KPAE 251553Z 27003KT 10SM CLR 17/10 A3007 RMK AO2 SLP181 T01670100=
200807251453 METAR KPAE 251453Z 00000KT 10SM CLR 16/09 A3006 RMK AO2 SLP179 T01560089 51009=
200807251353 METAR KPAE 251353Z 00000KT 9SM CLR 14/09 A3006 RMK AO2 SLP177 T01390089=
200807251253 METAR KPAE 251253Z AUTO 00000KT 9SM CLR 12/08 A3005 RMK AO2 SLP174 T01220083=
200807251153 METAR KPAE 251153Z AUTO 00000KT 10SM CLR 13/08 A3004 RMK AO2 SLP170 T01330083 10139 20128 53001=
200807251053 METAR KPAE 251053Z AUTO 00000KT 10SM CLR 14/09 A3004 RMK AO2 SLP170 T01390089=
200807250953 METAR KPAE 250953Z AUTO 00000KT 10SM CLR 13/09 A3003 RMK AO2 SLP168 T01330089=
200807250853 METAR KPAE 250853Z AUTO 36003KT 10SM CLR 13/09 A3003 RMK AO2 SLP169 T01280089 58001=
200807250753 METAR KPAE 250753Z AUTO 36003KT 9SM CLR 13/09 A3004 RMK AO2 SLP171 T01280094 402280100=
200807250653 METAR KPAE 250653Z AUTO 36004KT 10SM CLR 13/09 A3004 RMK AO2 SLP171 T01280094=
200807250553 METAR KPAE 250553Z AUTO 01004KT 10SM CLR 14/09 A3004 RMK AO2 SLP171 T01390094 10228 20139 53001=
200807250453 METAR KPAE 250453Z AUTO 00000KT 10SM CLR 14/09 A3004 RMK AO2 SLP171 T01440094=
200807250353 METAR KPAE 250353Z AUTO VRB04KT 10SM CLR 17/10 A3003 RMK AO2 SLP168 T01670100=
200807250253 METAR KPAE 250253Z 36003KT 10SM CLR 19/11 A3003 RMK AO2 SLP170 T01890106 56010=
200807250153 METAR KPAE 250153Z 34005KT 10SM CLR 21/11 A3004 RMK AO2 SLP171 T02060106=
200807250053 METAR KPAE 250053Z VRB03KT 10SM CLR 21/11 A3005 RMK AO2 SLP175 T02110106=
200807242353 METAR KPAE 242353Z 01006KT 10SM CLR 21/10 A3006 RMK AO2 SLP180 T02110100 10217 20144 58017=
200807242253 METAR KPAE 242253Z VRB04KT 10SM CLR 21/10 A3008 RMK AO2 SLP185 T02060100=
200807242153 METAR KPAE 242153Z AUTO 35005KT 10SM CLR 19/11 A3010 RMK AO2 SLP192 T01940106 TSNO=
200807242053 METAR KPAE 242053Z VRB06KT 10SM CLR 19/10 A3012 RMK AO2 SLP197 T01940100 56014=
200807241953 METAR KPAE 241953Z 35006KT 10SM CLR 18/09 A3013 RMK AO2 SLP201 T01830094=
200807241853 METAR KPAE 241853Z VRB05KT 10SM CLR 17/10 A3014 RMK AO2 SLP207 T01670100=
200807241753 METAR KPAE 241753Z 03006KT 8SM CLR 14/09 A3016 RMK AO2 SLP212 T01440094 10144 20100 58008=
200807241721 SPECI KPAE 241721Z 03005KT 6SM HZ SCT003 13/09 A3017 RMK AO2=
200807241721 SPECI KPAE 241721Z 03005KT 6SM HZ SCT003 13/09 A3017 RMK AO2=
200807241714 SPECI KPAE 241714Z 03005KT 6SM HZ BKN003 13/09 A3017 RMK AO2 CIG 001V006=
200807241714 SPECI KPAE 241714Z 03005KT 6SM HZ BKN003 13/09 A3017 RMK AO2 CIG 001V006=
200807241706 SPECI KPAE 241706Z 02005KT 1SM HZ OVC003 12/09 A3017 RMK AO2 CIG 001V005 RVRNO=
200807241706 SPECI KPAE 241706Z 02005KT 1SM HZ OVC003 12/09 A3017 RMK AO2 CIG 001V005 RVRNO=
200807241653 METAR KPAE 241653Z 03006KT 1SM BR OVC001 12/09 A3018 RMK AO2 SLP219 T01170094 RVRNO=
200807241553 METAR KPAE 241553Z 35004KT 1/2SM FG OVC001 11/09 A3018 RMK AO2 SLP219 T01060089 RVRNO=
200807241453 METAR KPAE 241453Z VRB04KT 1/2SM FG OVC001 10/09 A3018 RMK AO2 SLP220 T01000089 53003 RVRNO=
200807241406 SPECI KPAE 241406Z 36003KT 1/4SM FG OVC001 10/09 A3018 RMK AO2 RVRNO=
200807241406 SPECI KPAE 241406Z 36003KT 1/4SM FG OVC001 10/09 A3018 RMK AO2 RVRNO=
200807241355 SPECI KPAE 241355Z 35003KT 1SM BR OVC001 10/09 A3018 RMK AO2 RVRNO=
200807241355 SPECI KPAE 241355Z 35003KT 1SM BR OVC001 10/09 A3018 RMK AO2 RVRNO=
200807241353 METAR KPAE 241353Z VRB03KT 1/4SM FG OVC001 10/09 A3018 RMK AO2 SLP219 T01000089 RVRNO=
200807241253 METAR KPAE 241253Z 35005KT 1/4SM FG OVC001 10/09 A3017 RMK AO2 SLP217 T01000089 RVRNO=
200807241209 SPECI KPAE 241209Z AUTO 00000KT 2SM BR OVC001 10/09 A3017 RMK AO2=
200807241209 SPECI KPAE 241209Z AUTO 00000KT 2SM BR OVC001 10/09 A3017 RMK AO2=
200807241153 METAR KPAE 241153Z AUTO 36005KT 3SM BR OVC001 10/09 A3017 RMK AO2 SLP217 T01000089 10139 20100 58004=
200807241136 SPECI KPAE 241136Z AUTO 36004KT 4SM BR OVC001 11/09 A3017 RMK AO2=
200807241136 SPECI KPAE 241136Z AUTO 36004KT 4SM BR OVC001 11/09 A3017 RMK AO2=
200807241053 METAR KPAE 241053Z AUTO 00000KT 6SM BR OVC003 11/09 A3018 RMK AO2 SLP219 T01060089=
200807240953 METAR KPAE 240953Z AUTO VRB04KT 5SM BR BKN003 11/09 A3018 RMK AO2 SLP220 T01060089=
200807240939 SPECI KPAE 240939Z AUTO 01004KT 5SM BR BKN003 BKN028 11/09 A3018 RMK AO2=
200807240939 SPECI KPAE 240939Z AUTO 01004KT 5SM BR BKN003 BKN028 11/09 A3018 RMK AO2=
200807240916 SPECI KPAE 240916Z AUTO 01005KT 6SM BR FEW003 11/09 A3018 RMK AO2=
200807240916 SPECI KPAE 240916Z AUTO 01005KT 6SM BR FEW003 11/09 A3018 RMK AO2=
200807240853 METAR KPAE 240853Z AUTO VRB04KT 7SM CLR 11/09 A3018 RMK AO2 SLP221 T01060089 56003=
200807240753 METAR KPAE 240753Z AUTO VRB03KT 8SM CLR 11/09 A3018 RMK AO2 SLP222 T01110089 401610111=
200807240653 METAR KPAE 240653Z AUTO 00000KT 9SM CLR 12/09 A3019 RMK AO2 SLP222 T01220094=
200807240553 METAR KPAE 240553Z AUTO 00000KT 9SM CLR 13/09 A3019 RMK AO2 SLP224 T01280089 10161 20122 54000=
200807240453 METAR KPAE 240453Z AUTO 00000KT 9SM SCT034 13/09 A3019 RMK AO2 SLP225 T01280094=
200807240353 METAR KPAE 240353Z AUTO 00000KT 10SM CLR 14/09 A3019 RMK AO2 SLP224 T01440094=
200807240253 METAR KPAE 240253Z 00000KT 10SM SCT033 16/09 A3019 RMK AO2 SLP224 T01560094 58005=
200807240204 SPECI KPAE 240204Z 22005KT 10SM OVC031 16/09 A3020 RMK AO2=
200807240204 SPECI KPAE 240204Z 22005KT 10SM OVC031 16/09 A3020 RMK AO2=
200807240153 METAR KPAE 240153Z 19004KT 10SM OVC029 16/09 A3020 RMK AO2 SLP227 T01610089=
200807240053 METAR KPAE 240053Z 00000KT 10SM OVC027 16/09 A3021 RMK AO2 SLP229 T01560089=
200807232353 METAR KPAE 232353Z 25003KT 10SM OVC025 15/09 A3021 RMK AO2 SLP229 T01500089 10161 20128 55002=
200807232253 METAR KPAE 232253Z 17003KT 10SM OVC025 16/08 A3021 RMK AO2 SLP229 T01560083=
200807232153 METAR KPAE 232153Z 21005KT 10SM OVC027 15/08 A3021 RMK AO2 SLP230 T01500083=
200807232053 METAR KPAE 232053Z 24007KT 10SM OVC025 14/08 A3021 RMK AO2 SLP231 T01440083 50002=
200807231953 METAR KPAE 231953Z 23005KT 10SM OVC023 13/08 A3021 RMK AO2 SLP231 T01330083=
200807231853 METAR KPAE 231853Z 28005KT 10SM OVC021 14/09 A3021 RMK AO2 SLP231 T01390089=
200807231753 METAR KPAE 231753Z 25005KT 10SM OVC021 13/08 A3021 RMK AO2 SLP229 T01280083 10128 20117 51009=
200807231653 METAR KPAE 231653Z 24006KT 10SM OVC019 12/08 A3020 RMK AO2 SLP227 T01220083=
200807231553 METAR KPAE 231553Z 22006KT 10SM OVC019 13/07 A3019 RMK AO2 SLP223 T01280072=
200807231453 METAR KPAE 231453Z 20006KT 10SM BKN021 OVC060 12/07 A3018 RMK AO2 SLP220 T01220072 53007=
200807231407 SPECI KPAE 231407Z 19005KT 10SM BKN019 OVC060 12/07 A3018 RMK AO2=
200807231407 SPECI KPAE 231407Z 19005KT 10SM BKN019 OVC060 12/07 A3018 RMK AO2=
200807231353 METAR KPAE 231353Z 19007KT 10SM SCT021 BKN060 OVC075 12/07 A3017 RMK AO2 SLP217 T01220072=
200807231253 METAR KPAE 231253Z 19005KT 10SM SCT060 OVC080 12/07 A3016 RMK AO2 SLP214 T01170072=
200807231153 METAR KPAE 231153Z AUTO 21004KT 10SM OVC070 12/07 A3016 RMK AO2 SLP212 T01170072 10150 20117 53005=
200807231053 METAR KPAE 231053Z AUTO 20005KT 10SM OVC070 12/07 A3015 RMK AO2 SLP210 T01220072=
200807230953 METAR KPAE 230953Z AUTO 19006KT 10SM OVC039 12/08 A3015 RMK AO2 SLP210 T01220078=
200807230853 METAR KPAE 230853Z AUTO 21004KT 10SM OVC039 13/08 A3014 RMK AO2 SLP207 T01280078 51005=
200807230753 METAR KPAE 230753Z AUTO 22005KT 10SM OVC039 13/07 A3014 RMK AO2 SLP207 T01280072 401720122=
200807230653 METAR KPAE 230653Z AUTO 23005KT 10SM OVC041 14/08 A3013 RMK AO2 SLP204 T01390078=
200807230553 METAR KPAE 230553Z AUTO 23006KT 10SM OVC039 15/08 A3013 RMK AO2 SLP202 T01500078 10172 20150 51008=
200807230453 METAR KPAE 230453Z AUTO 19005KT 10SM OVC035 16/07 A3013 RMK AO2 SLP201 T01560072=
200807230353 METAR KPAE 230353Z AUTO 16007KT 10SM OVC035 16/09 A3011 RMK AO2 SLP197 T01560089=
200807230253 METAR KPAE 230253Z 16008KT 10SM OVC035 16/08 A3010 RMK AO2 SLP194 T01610078 51002=
200807230153 METAR KPAE 230153Z 16008KT 10SM OVC033 16/08 A3010 RMK AO2 SLP194 T01610083=
200807230053 METAR KPAE 230053Z VRB04KT 10SM OVC031 16/08 A3010 RMK AO2 SLP194 T01610083=
200807230030 SPECI KPAE 230030Z 16005KT 10SM OVC031 17/08 A3010 RMK AO2=
200807230030 SPECI KPAE 230030Z 16005KT 10SM OVC031 17/08 A3010 RMK AO2=
200807222353 METAR KPAE 222353Z 18006KT 10SM OVC029 17/08 A3010 RMK AO2 SLP191 T01670083 10172 20133 56002=
200807222253 METAR KPAE 222253Z 19010KT 10SM OVC025 17/08 A3010 RMK AO2 SLP191 T01670083=
200807222153 METAR KPAE 222153Z 19013KT 10SM OVC023 16/08 A3010 RMK AO2 SLP193 T01560083=
200807222053 METAR KPAE 222053Z 18009KT 10SM OVC019 15/08 A3010 RMK AO2 SLP194 T01500083 53005=
200807221953 METAR KPAE 221953Z 18010KT 10SM OVC017 14/08 A3010 RMK AO2 SLP192 T01440083=
200807221853 METAR KPAE 221853Z 19010KT 10SM OVC015 13/08 A3009 RMK AO2 SLP190 T01330083=
200807221753 METAR KPAE 221753Z 20010KT 10SM OVC015 13/08 A3009 RMK AO2 SLP189 T01330083 10133 20122 51011=
200807221745 SPECI KPAE 221745Z 19008KT 10SM OVC015 13/08 A3009 RMK AO2=
200807221745 SPECI KPAE 221745Z 19008KT 10SM OVC015 13/08 A3009 RMK AO2=
200807221653 METAR KPAE 221653Z 21011KT 10SM OVC013 13/08 A3008 RMK AO2 SLP185 T01280083=
200807221553 METAR KPAE 221553Z 19011KT 10SM OVC013 13/08 A3007 RMK AO2 SLP183 T01280083=
200807221516 SPECI KPAE 221516Z 19009KT 10SM BKN013 OVC028 13/08 A3006 RMK AO2=
200807221516 SPECI KPAE 221516Z 19009KT 10SM BKN013 OVC028 13/08 A3006 RMK AO2=
200807221500 SPECI KPAE 221500Z 19010KT 10SM FEW013 BKN028 OVC034 13/08 A3006 RMK AO2=
200807221500 SPECI KPAE 221500Z 19010KT 10SM FEW013 BKN028 OVC034 13/08 A3006 RMK AO2=
200807221453 METAR KPAE 221453Z 20009KT 10SM SCT007 OVC036 12/08 A3006 RMK AO2 SLP178 T01220083 51011=
200807221402 SPECI KPAE 221402Z 18010KT 10SM SCT007 OVC036 12/08 A3005 RMK AO2=
200807221402 SPECI KPAE 221402Z 18010KT 10SM SCT007 OVC036 12/08 A3005 RMK AO2=
200807221353 METAR KPAE 221353Z 19009KT 10SM OVC036 12/08 A3005 RMK AO2 SLP175 T01220083=
200807221253 METAR KPAE 221253Z AUTO 16007KT 10SM OVC036 13/08 A3004 RMK AO2 SLP169 T01280083=
200807221153 METAR KPAE 221153Z AUTO 18006KT 10SM BKN036 BKN050 OVC060 13/08 A3002 RMK AO2 SLP165 70004 T01280083 10128 20122 51009=
200807221053 METAR KPAE 221053Z AUTO 17003KT 10SM SCT036 SCT047 OVC055 13/08 A3002 RMK AO2 SLP164 T01280083=
200807220953 METAR KPAE 220953Z AUTO 00000KT 10SM SCT036 SCT050 12/08 A3001 RMK AO2 SLP162 T01220083=
200807220853 METAR KPAE 220853Z AUTO 03003KT 10SM OVC060 13/09 A3000 RMK AO2 SLP156 T01280089 53002=
200807220753 METAR KPAE 220753Z AUTO 03004KT 10SM OVC039 13/09 A2999 RMK AO2 SLP153 T01280089 402110122=
200807220653 METAR KPAE 220653Z AUTO 01004KT 10SM CLR 13/09 A2999 RMK AO2 SLP153 T01280089=
200807220553 METAR KPAE 220553Z AUTO VRB04KT 10SM CLR 13/08 A2999 RMK AO2 SLP155 T01280083 10183 20128 53004=
200807220453 METAR KPAE 220453Z 01008KT 10SM CLR 13/08 A2999 RMK AO2 SLP154 T01280083=
200807220353 METAR KPAE 220353Z 35005KT 10SM CLR 13/08 A2998 RMK AO2 SLP152 T01330083=
200807220253 METAR KPAE 220253Z 01008G16KT 10SM CLR 15/09 A2998 RMK AO2 SLP151 T01500089 55006=
200807220153 METAR KPAE 220153Z 36006KT 10SM CLR 16/09 A2998 RMK AO2 SLP151 T01610094=
200807220053 METAR KPAE 220053Z VRB05KT 10SM CLR 18/10 A2999 RMK AO2 SLP154 T01780100=
200807212353 METAR KPAE 212353Z 36007KT 310V030 10SM CLR 19/11 A3000 RMK AO2 SLP156 T01890111 10211 20150 58014=
200807212253 METAR KPAE 212253Z 35005KT 10SM CLR 20/12 A3001 RMK AO2 SLP161 T02000117=
200807212153 METAR KPAE 212153Z VRB03KT 10SM CLR 20/12 A3002 RMK AO2 SLP165 T02000122=
200807212053 METAR KPAE 212053Z 01004KT 10SM CLR 20/12 A3004 RMK AO2 SLP170 T02000122 57006=
200807211953 METAR KPAE 211953Z 31005KT 10SM CLR 19/12 A3004 RMK AO2 SLP172 T01940117=
200807211853 METAR KPAE 211853Z 00000KT 10SM CLR 17/12 A3005 RMK AO2 SLP174 T01720117=
200807211811 SPECI KPAE 211811Z 30003KT 10SM SCT006 16/11 A3005 RMK AO2=
200807211811 SPECI KPAE 211811Z 30003KT 10SM SCT006 16/11 A3005 RMK AO2=
200807211753 METAR KPAE 211753Z 33006KT 10SM OVC008 15/11 A3005 RMK AO2 SLP177 60004 T01500111 10156 20122 50002=
200807211653 METAR KPAE 211653Z VRB03KT OVC008 14/11 A3006 RMK AO2 SLP178 T01440106 RVRNO $=
200807211600 SPECI KPAE 211600Z 36004KT OVC010 14/11 A3005 RMK AO2 RVRNO $=
200807211600 SPECI KPAE 211600Z 36004KT OVC010 14/11 A3005 RMK AO2 RVRNO $=
200807211553 METAR KPAE 211553Z 34003KT OVC006 14/11 A3005 RMK AO2 SLP176 P0004 T01440106 RVRNO $=
200807211531 SPECI KPAE 211531Z 00000KT 10SM OVC006 14/11 A3005 RMK AO2=
200807211531 SPECI KPAE 211531Z 00000KT 10SM OVC006 14/11 A3005 RMK AO2=
200807211513 SPECI KPAE 211513Z VRB03KT 10SM BKN010 14/11 A3005 RMK AO2=
200807211513 SPECI KPAE 211513Z VRB03KT 10SM BKN010 14/11 A3005 RMK AO2=
200807211453 METAR KPAE 211453Z 05003KT 10SM SCT006 14/11 A3005 RMK AO2 SLP174 T01390106 52002=
200807211411 SPECI KPAE 211411Z VRB05KT 10SM BKN006 13/10 A3005 RMK AO2=
200807211411 SPECI KPAE 211411Z VRB05KT 10SM BKN006 13/10 A3005 RMK AO2=
200807211353 METAR KPAE 211353Z AUTO 05005KT 10SM FEW006 12/10 A3004 RMK AO2 SLP172 T01220100=
200807211253 METAR KPAE 211253Z AUTO VRB03KT 10SM CLR 12/10 A3003 RMK AO2 SLP167 T01220100=
200807211153 METAR KPAE 211153Z AUTO VRB04KT 10SM CLR 12/11 A3001 RMK AO2 SLP161 T01220106 10139 20122 51006=
200807211053 METAR KPAE 211053Z AUTO 05006KT 10SM CLR 13/11 A3000 RMK AO2 SLP158 T01280106=
200807210953 METAR KPAE 210953Z AUTO 05004KT 10SM CLR 13/11 A3000 RMK AO2 SLP157 T01280106=
200807210853 METAR KPAE 210853Z AUTO 06005KT 10SM CLR 13/11 A2999 RMK AO2 SLP154 T01280106 51008=
200807210753 METAR KPAE 210753Z AUTO 06005KT 10SM CLR 13/11 A2999 RMK AO2 SLP154 T01280106 402170100=
200807210653 METAR KPAE 210653Z AUTO VRB04KT 10SM CLR 13/11 A2998 RMK AO2 SLP149 T01330111=
200807210553 METAR KPAE 210553Z AUTO 03007KT 10SM CLR 14/11 A2996 RMK AO2 SLP145 T01390111 10206 20139 51005=
200807210453 METAR KPAE 210453Z 03007KT 10SM CLR 14/11 A2996 RMK AO2 SLP144 T01440106=
200807210353 METAR KPAE 210353Z 36004KT 10SM CLR 14/11 A2996 RMK AO2 SLP143 T01390106=
200807210253 METAR KPAE 210253Z 35006KT 10SM CLR 16/11 A2995 RMK AO2 SLP142 T01610106 56005=
200807210153 METAR KPAE 210153Z 36006KT 10SM CLR 18/11 A2995 RMK AO2 SLP142 T01830106=
200807210053 METAR KPAE 210053Z 36007KT 10SM CLR 19/11 A2995 RMK AO2 SLP143 T01890106=
200807202353 METAR KPAE 202353Z 36006KT 10SM CLR 19/09 A2996 RMK AO2 SLP145 T01940094 10217 20161 58010=
200807202253 METAR KPAE 202253Z 36007KT 310V020 10SM CLR 20/10 A2998 RMK AO2 SLP150 T02000100=
200807202153 METAR KPAE 202153Z 36005KT 10SM CLR 20/11 A2999 RMK AO2 SLP154 T02000106=
200807202053 METAR KPAE 202053Z 33004KT 10SM CLR 20/11 A3000 RMK AO2 SLP156 T02000106 56007=
200807201953 METAR KPAE 201953Z 32006KT 10SM CLR 19/11 A3000 RMK AO2 SLP159 T01890106=
200807201853 METAR KPAE 201853Z 34005KT 10SM CLR 17/10 A3001 RMK AO2 SLP162 T01720100=
200807201753 METAR KPAE 201753Z VRB03KT 10SM CLR 17/09 A3002 RMK AO2 SLP165 T01670094 10172 20100 50001=
200807201653 METAR KPAE 201653Z 31004KT 10SM CLR 15/09 A3002 RMK AO2 SLP166 T01500089=
200807201553 METAR KPAE 201553Z 35003KT 10SM SCT003 13/09 A3002 RMK AO2 SLP167 T01330094=
200807201502 SPECI KPAE 201502Z 34004KT 10SM SCT003 12/09 A3002 RMK AO2=
200807201502 SPECI KPAE 201502Z 34004KT 10SM SCT003 12/09 A3002 RMK AO2=
200807201453 METAR KPAE 201453Z VRB03KT 10SM BKN003 11/09 A3002 RMK AO2 SLP164 T01110089 53006=
200807201353 METAR KPAE 201353Z 02005KT 10SM SCT003 11/09 A3001 RMK AO2 SLP161 T01060089=
200807201321 SPECI KPAE 201321Z AUTO 02005KT 8SM BKN003 10/08 A3000 RMK AO2=
200807201321 SPECI KPAE 201321Z AUTO 02005KT 8SM BKN003 10/08 A3000 RMK AO2=
200807201312 SPECI KPAE 201312Z AUTO 03006KT 8SM SCT003 10/08 A3000 RMK AO2=
200807201312 SPECI KPAE 201312Z AUTO 03006KT 8SM SCT003 10/08 A3000 RMK AO2=
200807201253 METAR KPAE 201253Z AUTO 02005KT 10SM CLR 10/08 A3000 RMK AO2 SLP160 T01000083=
200807201153 METAR KPAE 201153Z AUTO 02006KT 10SM CLR 10/08 A3000 RMK AO2 SLP158 T01000078 10122 20100 53004=
200807201053 METAR KPAE 201053Z AUTO VRB03KT 10SM CLR 11/08 A2999 RMK AO2 SLP155 T01060078=
200807200953 METAR KPAE 200953Z AUTO 04004KT 10SM CLR 11/08 A2999 RMK AO2 SLP154 T01060083=
200807200853 METAR KPAE 200853Z AUTO 02005KT 10SM CLR 11/08 A2999 RMK AO2 SLP154 T01060083 53000=
200807200753 METAR KPAE 200753Z AUTO 01003KT 10SM CLR 11/08 A2998 RMK AO2 SLP153 T01110083 401940106=
200807200653 METAR KPAE 200653Z AUTO VRB04KT 10SM CLR 12/08 A2998 RMK AO2 SLP153 T01170083=
200807200553 METAR KPAE 200553Z AUTO 03003KT 10SM CLR 12/09 A2998 RMK AO2 SLP153 T01220089 10194 20117 50002=
200807200453 METAR KPAE 200453Z AUTO 03004KT 10SM CLR 12/08 A2999 RMK AO2 SLP155 T01220083=
200807200353 METAR KPAE 200353Z AUTO 01008KT 340V040 10SM CLR 12/09 A2998 RMK AO2 SLP154 T01220089=
200807200253 METAR KPAE 200253Z 35007KT 10SM CLR 14/09 A2998 RMK AO2 SLP151 T01390094 55007=
200807200153 METAR KPAE 200153Z 35006KT 10SM CLR 16/10 A2998 RMK AO2 SLP151 T01610100=
200807200053 METAR KPAE 200053Z 35007KT 10SM CLR 18/11 A2999 RMK AO2 SLP155 T01780106=
200807192353 METAR KPAE 192353Z 02004KT 10SM CLR 19/10 A3000 RMK AO2 SLP157 T01890100 10189 20139 58019=
200807192253 METAR KPAE 192253Z 36006KT 10SM CLR 18/11 A3002 RMK AO2 SLP166 T01780106=
200807192153 METAR KPAE 192153Z 30006KT 10SM CLR 18/11 A3004 RMK AO2 SLP170 T01830111=
200807192053 METAR KPAE 192053Z 27007KT 10SM CLR 17/11 A3006 RMK AO2 SLP177 T01720111 58007=
200807191953 METAR KPAE 191953Z 32005KT 10SM CLR 16/11 A3006 RMK AO2 SLP180 T01610106=
200807191903 SPECI KPAE 191903Z VRB04KT 10SM SCT012 15/10 A3007 RMK AO2=
200807191903 SPECI KPAE 191903Z VRB04KT 10SM SCT012 15/10 A3007 RMK AO2=
200807191853 METAR KPAE 191853Z VRB04KT 10SM SCT009 BKN012 15/10 A3007 RMK AO2 SLP182 T01500100=
200807191753 METAR KPAE 191753Z 29005KT 10SM SCT009 OVC012 14/10 A3008 RMK AO2 SLP185 T01440100 10144 20106 58001=
200807191653 METAR KPAE 191653Z 01004KT 9SM OVC007 13/10 A3008 RMK AO2 CIG 004V011 SLP187 T01330100=
200807191636 SPECI KPAE 191636Z 00000KT 8SM OVC005 13/10 A3008 RMK AO2=
200807191636 SPECI KPAE 191636Z 00000KT 8SM OVC005 13/10 A3008 RMK AO2=
200807191553 METAR KPAE 191553Z 34004KT 6SM BR OVC003 12/10 A3009 RMK AO2 SLP188 T01220100=
200807191453 METAR KPAE 191453Z 34003KT 6SM BR OVC003 12/09 A3008 RMK AO2 SLP186 T01170094 53001=
200807191353 METAR KPAE 191353Z 04003KT 5SM BR OVC003 11/09 A3007 RMK AO2 SLP184 T01110094=
200807191253 METAR KPAE 191253Z 35004KT 7SM OVC003 11/09 A3007 RMK AO2 SLP183 T01110094=
200807191153 METAR KPAE 191153Z 00000KT 8SM OVC003 12/09 A3008 RMK AO2 SLP184 T01170094 10144 20106 55000=
200807191053 METAR KPAE 191053Z 00000KT 9SM BKN003 11/09 A3007 RMK AO2 SLP183 T01110089=
200807191049 SPECI KPAE 191049Z 36003KT 9SM BKN003 11/09 A3007 RMK AO2=
200807191049 SPECI KPAE 191049Z 36003KT 9SM BKN003 11/09 A3007 RMK AO2=
200807191039 SPECI KPAE 191039Z 00000KT 9SM SCT003 11/09 A3007 RMK AO2=
200807191039 SPECI KPAE 191039Z 00000KT 9SM SCT003 11/09 A3007 RMK AO2=
200807190953 METAR KPAE 190953Z 35005KT 8SM OVC003 11/09 A3008 RMK AO2 SLP185 T01110094=
200807190905 SPECI KPAE 190905Z 01005KT 9SM BKN003 OVC033 11/09 A3008 RMK AO2=
200807190905 SPECI KPAE 190905Z 01005KT 9SM BKN003 OVC033 11/09 A3008 RMK AO2=
200807190853 METAR KPAE 190853Z VRB05KT 9SM SCT003 OVC033 12/09 A3008 RMK AO2 SLP187 T01170094 58001=
200807190819 SPECI KPAE 190819Z 01005KT 9SM BKN003 OVC033 12/10 A3009 RMK AO2=
200807190819 SPECI KPAE 190819Z 01005KT 9SM BKN003 OVC033 12/10 A3009 RMK AO2=
200807190809 SPECI KPAE 190809Z 01006KT 10SM SCT003 OVC033 12/10 A3009 RMK AO2=
200807190809 SPECI KPAE 190809Z 01006KT 10SM SCT003 OVC033 12/10 A3009 RMK AO2=
200807190753 METAR KPAE 190753Z 36004KT 10SM OVC031 12/10 A3009 RMK AO2 SLP188 T01220100 401940111=
200807190729 SPECI KPAE 190729Z 01004KT 10SM OVC031 13/11 A3009 RMK AO2=
200807190729 SPECI KPAE 190729Z 01004KT 10SM OVC031 13/11 A3009 RMK AO2=
200807190653 METAR KPAE 190653Z 25003KT 10SM BKN029 14/10 A3009 RMK AO2 SLP187 T01440100=
200807190553 METAR KPAE 190553Z 20005KT 10SM CLR 14/09 A3009 RMK AO2 SLP188 T01440094 10194 20144 58003=
200807190453 METAR KPAE 190453Z 21005KT 10SM CLR 15/09 A3009 RMK AO2 SLP190 T01500094=
200807190353 METAR KPAE 190353Z 22005KT 10SM OVC060 16/09 A3009 RMK AO2 SLP189 T01610094=
200807190253 METAR KPAE 190253Z 25008KT 10SM CLR 17/09 A3009 RMK AO2 SLP191 T01670094 56009=
200807190153 METAR KPAE 190153Z 25009KT 10SM SCT065 18/09 A3010 RMK AO2 SLP192 T01780094=
200807190053 METAR KPAE 190053Z 25012KT 10SM CLR 18/09 A3011 RMK AO2 SLP195 T01830094=
200807182353 METAR KPAE 182353Z 25010KT 10SM CLR 18/09 A3012 RMK AO2 SLP199 T01780094 10183 20144 58007=
200807182253 METAR KPAE 182253Z 24009KT 10SM FEW026 17/09 A3014 RMK AO2 SLP203 T01720094=
200807182200 SPECI KPAE 182200Z 24009KT 10SM SCT026 18/09 A3014 RMK AO2=
200807182200 SPECI KPAE 182200Z 24009KT 10SM SCT026 18/09 A3014 RMK AO2=
200807182153 METAR KPAE 182153Z 25011KT 10SM BKN026 17/09 A3014 RMK AO2 SLP208 T01720094=
200807182146 SPECI KPAE 182146Z 24012KT 10SM SCT026 17/09 A3014 RMK AO2=
200807182146 SPECI KPAE 182146Z 24012KT 10SM SCT026 17/09 A3014 RMK AO2=
200807182053 METAR KPAE 182053Z AUTO 25010KT 10SM OVC024 16/09 A3015 RMK AO2 SLP208 T01610094 50003 TSNO=
200807181953 METAR KPAE 181953Z 26009KT 10SM OVC022 16/09 A3015 RMK AO2 SLP209 T01610094=
200807181853 METAR KPAE 181853Z 17007KT 10SM OVC018 16/09 A3015 RMK AO2 SLP208 T01560089=
200807181753 METAR KPAE 181753Z 20007KT 10SM SCT008 OVC016 14/09 A3014 RMK AO2 SLP205 T01440089 10150 20122 51007=
200807181653 METAR KPAE 181653Z 20009KT 10SM OVC009 13/09 A3013 RMK AO2 SLP204 T01330089=
200807181553 METAR KPAE 181553Z 20006KT 10SM OVC009 13/09 A3013 RMK AO2 SLP202 T01280094=
200807181453 METAR KPAE 181453Z 21004KT 10SM OVC009 12/09 A3012 RMK AO2 SLP197 T01220094 53005=
200807181353 METAR KPAE 181353Z 22005KT 10SM OVC009 12/09 A3011 RMK AO2 SLP194 T01220094=
200807181253 METAR KPAE 181253Z 18005KT 10SM OVC009 13/09 A3010 RMK AO2 SLP193 T01280094=
200807181202 SPECI KPAE 181202Z 00000KT 10SM OVC009 12/09 A3010 RMK AO2=
200807181202 SPECI KPAE 181202Z 00000KT 10SM OVC009 12/09 A3010 RMK AO2=
200807181153 METAR KPAE 181153Z 00000KT 10SM OVC010 12/09 A3010 RMK AO2 SLP191 T01220094 10128 20111 51004=
200807181053 METAR KPAE 181053Z 00000KT 10SM OVC012 12/09 A3010 RMK AO2 SLP191 T01220094=
200807181037 SPECI KPAE 181037Z 03005KT 10SM SCT005 OVC012 12/09 A3010 RMK AO2=
200807181037 SPECI KPAE 181037Z 03005KT 10SM SCT005 OVC012 12/09 A3010 RMK AO2=
200807181011 SPECI KPAE 181011Z 07003KT 9SM BKN005 OVC031 12/09 A3009 RMK AO2=
200807181011 SPECI KPAE 181011Z 07003KT 9SM BKN005 OVC031 12/09 A3009 RMK AO2=
200807180953 METAR KPAE 180953Z 00000KT 9SM FEW005 OVC031 12/09 A3009 RMK AO2 SLP189 T01170094=
200807180946 SPECI KPAE 180946Z 02004KT 9SM OVC031 12/09 A3009 RMK AO2=
200807180946 SPECI KPAE 180946Z 02004KT 9SM OVC031 12/09 A3009 RMK AO2=
200807180853 METAR KPAE 180853Z 01003KT 9SM BKN029 12/09 A3009 RMK AO2 SLP188 T01170094 53003=
200807180846 SPECI KPAE 180846Z VRB04KT 9SM BKN029 11/09 A3009 RMK AO2=
200807180846 SPECI KPAE 180846Z VRB04KT 9SM BKN029 11/09 A3009 RMK AO2=
200807180753 METAR KPAE 180753Z VRB05KT 10SM CLR 12/09 A3008 RMK AO2 SLP187 T01170094 402110106=
200807180653 METAR KPAE 180653Z VRB03KT 10SM CLR 12/10 A3008 RMK AO2 SLP187 T01220100=
200807180553 METAR KPAE 180553Z 35004KT 8SM SCT080 13/11 A3008 RMK AO2 SLP186 T01280106 10211 20128 51002=
200807180453 METAR KPAE 180453Z 01005KT 10SM CLR 13/11 A3008 RMK AO2 SLP186 T01330106=
200807180353 METAR KPAE 180353Z VRB03KT 10SM CLR 14/11 A3008 RMK AO2 SLP185 T01440106=
200807180253 METAR KPAE 180253Z 35004KT 8SM CLR 17/12 A3007 RMK AO2 SLP184 T01720117 56011=
200807180153 METAR KPAE 180153Z 26004KT 10SM CLR 20/10 A3008 RMK AO2 SLP184 T02000100=
200807180053 METAR KPAE 180053Z 26006KT 10SM CLR 21/10 A3009 RMK AO2 SLP188 T02060100=
200807172353 METAR KPAE 172353Z 26007KT 10SM CLR 21/11 A3011 RMK AO2 SLP194 T02060111 10211 20128 57015=
200807172253 METAR KPAE 172253Z 23006KT 10SM CLR 21/11 A3012 RMK AO2 SLP199 T02060111=
200807172153 METAR KPAE 172153Z 25007KT 10SM CLR 19/11 A3014 RMK AO2 SLP205 T01890111=
200807172053 METAR KPAE 172053Z AUTO 24008KT 10SM FEW040 17/11 A3015 RMK AO2 SLP211 T01720111 58006=
200807171953 METAR KPAE 171953Z 26009KT 8SM FEW011 15/11 A3016 RMK AO2 SLP214 T01500106=
200807171905 SPECI KPAE 171905Z 25006KT 8SM SCT005 BKN011 14/11 A3017 RMK AO2=
200807171905 SPECI KPAE 171905Z 25006KT 8SM SCT005 BKN011 14/11 A3017 RMK AO2=
200807171853 METAR KPAE 171853Z 24008KT 3SM BR BKN005 OVC011 14/11 A3017 RMK AO2 SLP216 T01440106=
200807171831 SPECI KPAE 171831Z 25008KT 3SM BR SCT003 OVC009 14/11 A3017 RMK AO2=
200807171831 SPECI KPAE 171831Z 25008KT 3SM BR SCT003 OVC009 14/11 A3017 RMK AO2=
200807171753 METAR KPAE 171753Z 25005KT 2SM BR BKN001 OVC006 13/11 A3017 RMK AO2 SLP216 T01280111 10128 20106 50000=
200807171712 SPECI KPAE 171712Z 25003KT 1SM BR OVC001 12/11 A3017 RMK AO2 RVRNO=
200807171712 SPECI KPAE 171712Z 25003KT 1SM BR OVC001 12/11 A3017 RMK AO2 RVRNO=
200807171653 METAR KPAE 171653Z 25004KT 1/4SM FG VV001 12/11 A3017 RMK AO2 SLP217 T01220111 RVRNO=
200807171646 SPECI KPAE 171646Z 24005KT 1/4SM FG VV001 12/11 A3017 RMK AO2 RVRNO=
200807171646 SPECI KPAE 171646Z 24005KT 1/4SM FG VV001 12/11 A3017 RMK AO2 RVRNO=
200807171624 SPECI KPAE 171624Z 30003KT 1/2SM FG OVC003 12/11 A3017 RMK AO2 RVRNO=
200807171624 SPECI KPAE 171624Z 30003KT 1/2SM FG OVC003 12/11 A3017 RMK AO2 RVRNO=
200807171600 SPECI KPAE 171600Z 24003KT 1SM BR OVC001 12/11 A3017 RMK AO2 RVRNO=
200807171600 SPECI KPAE 171600Z 24003KT 1SM BR OVC001 12/11 A3017 RMK AO2 RVRNO=
200807171553 METAR KPAE 171553Z 00000KT 1/2SM FG OVC001 12/11 A3017 RMK AO2 SLP216 T01220106 RVRNO=
200807171500 SPECI KPAE 171500Z 20003KT 1/2SM FG OVC001 12/11 A3017 RMK AO2 RVRNO=
200807171500 SPECI KPAE 171500Z 20003KT 1/2SM FG OVC001 12/11 A3017 RMK AO2 RVRNO=
200807171453 METAR KPAE 171453Z 00000KT 1/4SM FG OVC001 12/11 A3017 RMK AO2 SLP216 T01170106 51007 RVRNO=
200807171353 METAR KPAE 171353Z 00000KT 1/4SM FG OVC001 11/10 A3017 RMK AO2 SLP214 T01110100 RVRNO=
200807171253 METAR KPAE 171253Z 00000KT 1/4SM FG VV001 11/10 A3016 RMK AO2 SLP211 T01110100 RVRNO=
200807171153 METAR KPAE 171153Z 00000KT 1/4SM FG VV001 11/10 A3015 RMK AO2 SLP208 T01060100 10133 20106 53001 RVRNO=
200807171053 METAR KPAE 171053Z AUTO 35004KT 1/4SM FG VV001 11/10 A3015 RMK AO2 SLP207 T01060100 RVRNO=
200807171021 SPECI KPAE 171021Z AUTO 35003KT 1/4SM FG VV001 11/10 A3014 RMK AO2 RVRNO=
200807171021 SPECI KPAE 171021Z AUTO 35003KT 1/4SM FG VV001 11/10 A3014 RMK AO2 RVRNO=
200807170953 METAR KPAE 170953Z AUTO 00000KT 1/2SM FG VV001 11/11 A3014 RMK AO2 SLP207 T01110106 RVRNO=
200807170949 SPECI KPAE 170949Z AUTO 34004KT 1/2SM FG OVC002 12/11 A3015 RMK AO2 RVRNO=
200807170949 SPECI KPAE 170949Z AUTO 34004KT 1/2SM FG OVC002 12/11 A3015 RMK AO2 RVRNO=
200807170928 SPECI KPAE 170928Z AUTO 35003KT 1 3/4SM BR OVC002 12/11 A3014 RMK AO2 VIS 1V4=
200807170928 SPECI KPAE 170928Z AUTO 35003KT 1 3/4SM BR OVC002 12/11 A3014 RMK AO2 VIS 1V4=
200807170912 SPECI KPAE 170912Z AUTO 00000KT 5SM BR BKN002 12/11 A3014 RMK AO2=
200807170912 SPECI KPAE 170912Z AUTO 00000KT 5SM BR BKN002 12/11 A3014 RMK AO2=
200807170901 SPECI KPAE 170901Z AUTO 00000KT 8SM SCT002 12/10 A3015 RMK AO2=
200807170901 SPECI KPAE 170901Z AUTO 00000KT 8SM SCT002 12/10 A3015 RMK AO2=
200807170853 METAR KPAE 170853Z AUTO 00000KT 9SM CLR 12/10 A3015 RMK AO2 SLP207 T01170100 57003=
200807170753 METAR KPAE 170753Z AUTO 03004KT 10SM CLR 12/11 A3015 RMK AO2 SLP208 T01220106 402280100=
200807170653 METAR KPAE 170653Z AUTO 02004KT 10SM CLR 13/11 A3015 RMK AO2 SLP209 T01330111=
200807170553 METAR KPAE 170553Z AUTO 02004KT 10SM CLR 13/11 A3015 RMK AO2 SLP210 T01330106 10222 20133 51007=
200807170453 METAR KPAE 170453Z AUTO 02005KT 10SM CLR 13/10 A3015 RMK AO2 SLP210 T01330100=
200807170353 METAR KPAE 170353Z AUTO 36003KT 10SM CLR 14/10 A3014 RMK AO2 SLP207 T01440100=
200807170253 METAR KPAE 170253Z 36006KT 10SM CLR 17/10 A3013 RMK AO2 SLP204 T01670100 56008=
200807170153 METAR KPAE 170153Z 36005KT 10SM CLR 19/11 A3013 RMK AO2 SLP203 T01890106=
200807170053 METAR KPAE 170053Z 01004KT 10SM CLR 20/11 A3015 RMK AO2 SLP207 T02000106=
200807162353 METAR KPAE 162353Z 27004KT 10SM CLR 22/10 A3016 RMK AO2 SLP211 T02220100 10228 20161 58008=
200807162253 METAR KPAE 162253Z VRB06KT 10SM CLR 23/09 A3017 RMK AO2 SLP214 T02280089=
200807162153 METAR KPAE 162153Z 27006KT 10SM CLR 22/08 A3018 RMK AO2 SLP217 T02170083=
200807162053 METAR KPAE 162053Z 27006KT 10SM CLR 21/09 A3018 RMK AO2 SLP219 T02060089 50001=
200807161953 METAR KPAE 161953Z 25007KT 10SM CLR 19/10 A3019 RMK AO2 SLP222 T01890100=
200807161853 METAR KPAE 161853Z 24008KT 10SM CLR 17/11 A3019 RMK AO2 SLP221 T01720106=
200807161753 METAR KPAE 161753Z 26004KT 10SM CLR 16/10 A3018 RMK AO2 SLP218 T01610100 10167 20106 51010=
200807161653 METAR KPAE 161653Z 27005KT 10SM CLR 15/09 A3018 RMK AO2 SLP218 T01500094=
200807161553 METAR KPAE 161553Z 00000KT 10SM CLR 14/10 A3017 RMK AO2 SLP215 T01390100=
200807161453 METAR KPAE 161453Z 01003KT 10SM CLR 12/09 A3015 RMK AO2 SLP208 T01220094 53017=
200807161353 METAR KPAE 161353Z 02005KT 8SM FEW001 11/09 A3013 RMK AO2 SLP203 FG BNK W-NE T01060089=
200807161253 METAR KPAE 161253Z VRB03KT 8SM FEW001 11/09 A3011 RMK AO2 SLP194 T01060089=
200807161218 SPECI KPAE 161218Z 02004KT 7SM BKN001 11/09 A3010 RMK AO2=
200807161218 SPECI KPAE 161218Z 02004KT 7SM BKN001 11/09 A3010 RMK AO2=
200807161207 SPECI KPAE 161207Z 02003KT 8SM SCT001 11/09 A3010 RMK AO2=
200807161207 SPECI KPAE 161207Z 02003KT 8SM SCT001 11/09 A3010 RMK AO2=
200807161153 METAR KPAE 161153Z 02004KT 10SM CLR 11/09 A3010 RMK AO2 SLP191 T01060089 10139 20100 51010=
200807161053 METAR KPAE 161053Z AUTO 03003KT 10SM CLR 11/09 A3009 RMK AO2 SLP189 T01060089=
200807160953 METAR KPAE 160953Z AUTO 35003KT 10SM CLR 11/08 A3008 RMK AO2 SLP185 T01110083=
200807160853 METAR KPAE 160853Z AUTO VRB03KT 10SM CLR 12/08 A3007 RMK AO2 SLP181 T01170083 53010=
200807160753 METAR KPAE 160753Z AUTO 36003KT 10SM CLR 12/08 A3006 RMK AO2 SLP176 T01220078 402280117=
200807160653 METAR KPAE 160653Z AUTO 36006KT 10SM CLR 13/09 A3005 RMK AO2 SLP174 T01280089=
200807160553 METAR KPAE 160553Z AUTO 01006KT 10SM CLR 14/08 A3004 RMK AO2 SLP170 T01390083 10222 20139 53008=
200807160453 METAR KPAE 160453Z AUTO 35009G19KT 10SM CLR 14/08 A3003 RMK AO2 SLP167 T01440083=
200807160353 METAR KPAE 160353Z AUTO 36013G18KT 10SM CLR 15/08 A3002 RMK AO2 SLP163 T01500083=
200807160253 METAR KPAE 160253Z 35007KT 10SM CLR 18/09 A3001 RMK AO2 SLP162 T01830089 55002=
200807160153 METAR KPAE 160153Z 01007KT 10SM CLR 21/08 A3001 RMK AO2 SLP160 T02060078=
200807160053 METAR KPAE 160053Z 34008KT 10SM CLR 22/08 A3001 RMK AO2 SLP162 T02170078=
200807152353 METAR KPAE 152353Z 35007KT 10SM CLR 22/09 A3002 RMK AO2 SLP164 T02220094 10228 20172 58006=
200807152253 METAR KPAE 152253Z 36007KT 10SM CLR 22/08 A3003 RMK AO2 SLP167 T02170083=
200807152153 METAR KPAE 152153Z 34005KT 10SM CLR 21/09 A3003 RMK AO2 SLP169 T02110089=
200807152053 METAR KPAE 152053Z VRB04KT 10SM CLR 22/09 A3004 RMK AO2 SLP171 T02170094 58004=
200807151953 METAR KPAE 151953Z VRB03KT 10SM CLR 21/09 A3004 RMK AO2 SLP173 T02110094=
200807151853 METAR KPAE 151853Z 36003KT 10SM CLR 19/09 A3005 RMK AO2 SLP174 T01940089=
200807151753 METAR KPAE 151753Z 01005KT 10SM CLR 17/08 A3005 RMK AO2 SLP175 T01720078 10183 20122 51005=
200807151653 METAR KPAE 151653Z VRB04KT 10SM CLR 17/07 A3005 RMK AO2 SLP174 T01670067=
200807151553 METAR KPAE 151553Z 36006KT 10SM CLR 16/07 A3004 RMK AO2 SLP172 T01560067=
200807151453 METAR KPAE 151453Z 02003KT 10SM CLR 14/07 A3003 RMK AO2 SLP169 T01440072 53004=
200807151353 METAR KPAE 151353Z VRB03KT 10SM CLR 14/07 A3003 RMK AO2 SLP167 T01390067=
200807151253 METAR KPAE 151253Z 05003KT 10SM CLR 12/07 A3002 RMK AO2 SLP165 T01220067=
200807151153 METAR KPAE 151153Z 05003KT 10SM CLR 12/07 A3002 RMK AO2 SLP165 T01220067 10139 20117 52003=
200807151053 METAR KPAE 151053Z 00000KT 10SM CLR 12/08 A3002 RMK AO2 SLP165 T01220078=
200807150953 METAR KPAE 150953Z 04004KT 10SM CLR 12/08 A3001 RMK AO2 SLP162 T01220083=
200807150853 METAR KPAE 150853Z 04004KT 10SM CLR 13/08 A3001 RMK AO2 SLP162 T01280083 53004=
200807150753 METAR KPAE 150753Z 02005KT 10SM CLR 13/08 A3001 RMK AO2 SLP160 T01280083 402220111=
200807150653 METAR KPAE 150653Z 01005KT 10SM CLR 13/08 A3000 RMK AO2 SLP159 T01330078=
200807150553 METAR KPAE 150553Z 36006KT 10SM CLR 14/08 A3000 RMK AO2 SLP157 T01390083 10222 20139 53007=
200807150453 METAR KPAE 150453Z 01007KT 10SM CLR 15/07 A2999 RMK AO2 SLP155 T01500072=
200807150353 METAR KPAE 150353Z 36006KT 10SM CLR 17/08 A2998 RMK AO2 SLP150 T01720078=
200807150253 METAR KPAE 150253Z VRB03KT 10SM CLR 20/08 A2998 RMK AO2 SLP150 T02000078 56011=
200807150153 METAR KPAE 150153Z 33004KT 10SM CLR 22/04 A2998 RMK AO2 SLP152 T02170044=
200807150053 METAR KPAE 150053Z 36005KT 10SM CLR 19/07 A3000 RMK AO2 SLP157 T01940072=
200807142353 METAR KPAE 142353Z 01005KT 10SM CLR 20/07 A3001 RMK AO2 SLP161 T02000067 10217 20183 58012=
200807142253 METAR KPAE 142253Z 01007KT 10SM CLR 21/06 A3003 RMK AO2 SLP169 T02060061=
200807142153 METAR KPAE 142153Z 35005KT 10SM CLR 21/07 A3004 RMK AO2 SLP172 T02110067=
200807142053 METAR KPAE 142053Z 36007KT 10SM CLR 20/06 A3004 RMK AO2 SLP173 T02000061 55002=
200807141953 METAR KPAE 141953Z 33006KT 10SM CLR 21/11 A3004 RMK AO2 SLP172 T02060111=
200807141853 METAR KPAE 141853Z 29007KT 10SM CLR 19/11 A3005 RMK AO2 SLP174 T01890106=
200807141753 METAR KPAE 141753Z 30006KT 10SM CLR 19/10 A3005 RMK AO2 SLP174 T01890100 10189 20111 58001=
200807141653 METAR KPAE 141653Z 00000KT 10SM CLR 17/09 A3005 RMK AO2 SLP174 T01720094=
200807141553 METAR KPAE 141553Z VRB03KT 10SM CLR 16/09 A3006 RMK AO2 SLP176 T01560089=
200807141453 METAR KPAE 141453Z VRB03KT 10SM CLR 14/08 A3005 RMK AO2 SLP175 T01390083 58000=
200807141353 METAR KPAE 141353Z 02003KT 10SM CLR 12/08 A3006 RMK AO2 SLP177 T01170083=
200807141253 METAR KPAE 141253Z 02006KT 10SM CLR 11/08 A3005 RMK AO2 SLP175 T01110078=
200807141153 METAR KPAE 141153Z 02003KT 10SM CLR 11/08 A3005 RMK AO2 SLP176 T01110078 10144 20111 51005=
200807141053 METAR KPAE 141053Z 04004KT 10SM CLR 12/08 A3005 RMK AO2 SLP174 T01170083=
200807140953 METAR KPAE 140953Z VRB04KT 10SM CLR 12/08 A3005 RMK AO2 SLP173 T01170083=
200807140853 METAR KPAE 140853Z VRB05KT 10SM CLR 12/09 A3004 RMK AO2 SLP171 T01220089 51004=
200807140753 METAR KPAE 140753Z 04006KT 10SM CLR 13/09 A3004 RMK AO2 SLP170 T01330094 402220133=
200807140653 METAR KPAE 140653Z 01007KT 10SM CLR 14/10 A3003 RMK AO2 SLP169 T01390100=
200807140553 METAR KPAE 140553Z 36005KT 10SM CLR 14/10 A3003 RMK AO2 SLP165 T01440100 10217 20144 53001=
200807140453 METAR KPAE 140453Z VRB04KT 10SM CLR 15/10 A3002 RMK AO2 SLP164 T01500100=
200807140353 METAR KPAE 140353Z 36006KT 10SM CLR 16/11 A3002 RMK AO2 SLP164 T01560106=
200807140253 METAR KPAE 140253Z 36008G17KT 330V030 10SM CLR 17/10 A3002 RMK AO2 SLP165 T01670100 55010=
200807140153 METAR KPAE 140153Z 36011G20KT 10SM CLR 18/10 A3002 RMK AO2 SLP164 T01830100=
200807140053 METAR KPAE 140053Z 36007G16KT 10SM CLR 20/10 A3003 RMK AO2 SLP168 T02000100=
200807132353 METAR KPAE 132353Z 36009G16KT 10SM CLR 21/11 A3005 RMK AO2 SLP175 T02110106 10222 20200 58015=
200807132253 METAR KPAE 132253Z 35008KT 10SM CLR 22/11 A3007 RMK AO2 SLP182 T02170111=
200807132153 METAR KPAE 132153Z 35007KT 10SM CLR 22/11 A3008 RMK AO2 SLP185 T02170106=
200807132053 METAR KPAE 132053Z 36007KT 10SM CLR 21/11 A3010 RMK AO2 SLP189 T02060106 58008=
200807131953 METAR KPAE 131953Z 01008KT 10SM CLR 21/11 A3011 RMK AO2 SLP195 T02060106=
200807131853 METAR KPAE 131853Z 36007KT 10SM CLR 21/09 A3012 RMK AO2 SLP198 T02060094=
200807131753 METAR KPAE 131753Z 05005KT 10SM CLR 22/10 A3012 RMK AO2 SLP196 T02170100 10217 20150 56006=
200807131653 METAR KPAE 131653Z 02004KT 10SM CLR 21/09 A3012 RMK AO2 SLP199 T02110089=
200807131553 METAR KPAE 131553Z VRB03KT 10SM CLR 18/10 A3013 RMK AO2 SLP202 T01830100=
200807131453 METAR KPAE 131453Z 00000KT 10SM CLR 18/10 A3014 RMK AO2 SLP203 T01780100 53004=
200807131353 METAR KPAE 131353Z 00000KT 10SM CLR 17/09 A3014 RMK AO2 SLP202 T01670094=
200807131253 METAR KPAE 131253Z AUTO 03003KT 10SM CLR 16/08 A3013 RMK AO2 SLP199 T01560078=
200807131153 METAR KPAE 131153Z AUTO 04003KT 10SM CLR 16/08 A3013 RMK AO2 SLP199 T01610078 10189 20161 58004=
200807131053 METAR KPAE 131053Z AUTO 05004KT 10SM CLR 17/08 A3013 RMK AO2 SLP201 T01670078=
200807130953 METAR KPAE 130953Z AUTO 06004KT 10SM CLR 17/08 A3014 RMK AO2 SLP202 T01670083=
200807130853 METAR KPAE 130853Z AUTO 06003KT 10SM CLR 17/07 A3014 RMK AO2 SLP203 T01720072 55001=
200807130753 METAR KPAE 130753Z AUTO 06004KT 10SM CLR 18/06 A3014 RMK AO2 SLP203 T01780061 402720117=
200807130653 METAR KPAE 130653Z AUTO 06006KT 10SM CLR 18/07 A3014 RMK AO2 SLP203 T01830072=
200807130553 METAR KPAE 130553Z AUTO 05003KT 10SM CLR 18/05 A3014 RMK AO2 SLP204 T01830050 10272 20178 50002=
200807130453 METAR KPAE 130453Z AUTO 03006KT 10SM CLR 18/09 A3014 RMK AO2 SLP205 T01780089=
200807130353 METAR KPAE 130353Z 01004KT 10SM CLR 19/09 A3014 RMK AO2 SLP204 T01940089=
200807130253 METAR KPAE 130253Z 34004KT 10SM CLR 24/09 A3014 RMK AO2 SLP202 T02440089 56011=
200807130153 METAR KPAE 130153Z 33003KT 10SM CLR 26/08 A3014 RMK AO2 SLP203 T02610078=
200807130053 METAR KPAE 130053Z 34006KT 10SM CLR 27/07 A3015 RMK AO2 SLP208 T02670067=
200807122353 METAR KPAE 122353Z 35006KT 10SM CLR 27/07 A3017 RMK AO2 SLP214 T02670067 10272 20211 56010=
200807122253 METAR KPAE 122253Z 34005KT 10SM CLR 27/06 A3018 RMK AO2 SLP216 T02670061=
200807122153 METAR KPAE 122153Z 36007KT 10SM CLR 25/08 A3019 RMK AO2 SLP221 T02500083=
200807122053 METAR KPAE 122053Z VRB04KT 10SM CLR 24/10 A3020 RMK AO2 SLP225 T02440100 50000=
200807121953 METAR KPAE 121953Z 01006KT 10SM CLR 23/07 A3021 RMK AO2 SLP226 T02330072=
200807121853 METAR KPAE 121853Z 36005KT 10SM CLR 22/09 A3020 RMK AO2 SLP225 T02220089=
200807121753 METAR KPAE 121753Z 01004KT 10SM CLR 22/08 A3020 RMK AO2 SLP224 T02170083 10217 20122 58000=
200807121653 METAR KPAE 121653Z 34004KT 10SM CLR 19/08 A3020 RMK AO2 SLP225 T01940083=
200807121553 METAR KPAE 121553Z 35003KT 10SM CLR 18/09 A3021 RMK AO2 SLP226 T01830094=
200807121453 METAR KPAE 121453Z 02004KT 10SM CLR 17/09 A3020 RMK AO2 SLP225 T01670089 50005=
200807121353 METAR KPAE 121353Z 00000KT 10SM CLR 14/09 A3020 RMK AO2 SLP226 T01440089=
200807121253 METAR KPAE 121253Z AUTO 05004KT 10SM CLR 14/08 A3019 RMK AO2 SLP220 T01390078=
200807121153 METAR KPAE 121153Z AUTO 00000KT 10SM CLR 12/09 A3019 RMK AO2 SLP221 T01220089 10167 20117 53002=
200807121053 METAR KPAE 121053Z AUTO 01003KT 10SM CLR 13/09 A3018 RMK AO2 SLP218 T01280089=
200807120953 METAR KPAE 120953Z AUTO 00000KT 10SM CLR 13/09 A3018 RMK AO2 SLP219 T01280094=
200807120853 METAR KPAE 120853Z AUTO 00000KT 10SM CLR 14/09 A3018 RMK AO2 SLP218 T01390089 50001=
200807120753 METAR KPAE 120753Z AUTO 01003KT 10SM CLR 14/09 A3018 RMK AO2 SLP219 T01440089 402330100=
200807120653 METAR KPAE 120653Z AUTO 36004KT 10SM CLR 16/07 A3018 RMK AO2 SLP218 T01610067=
200807120553 METAR KPAE 120553Z AUTO 35003KT 10SM CLR 16/06 A3018 RMK AO2 SLP217 T01610061 10233 20161 53003=
200807120453 METAR KPAE 120453Z AUTO 35004KT 10SM CLR 17/06 A3017 RMK AO2 SLP216 T01720061=
200807120353 METAR KPAE 120353Z 34005KT 10SM CLR 18/07 A3016 RMK AO2 SLP213 T01830072=
200807120253 METAR KPAE 120253Z 35005KT 10SM CLR 21/08 A3017 RMK AO2 SLP215 T02060083 56011=
200807120153 METAR KPAE 120153Z 34008KT 10SM CLR 22/08 A3017 RMK AO2 SLP215 T02170078=
200807120053 METAR KPAE 120053Z 34006G14KT 10SM CLR 22/08 A3018 RMK AO2 SLP218 T02220078=
200807112353 METAR KPAE 112353Z 35006KT 10SM CLR 22/08 A3020 RMK AO2 SLP226 T02170078 10222 20178 56011=
200807112253 METAR KPAE 112253Z 36007KT 310V040 10SM CLR 22/08 A3021 RMK AO2 SLP230 T02170083 TSNO=
200807112153 METAR KPAE 112153Z 01007KT 10SM CLR 22/07 A3022 RMK AO2 SLP232 T02170072=
200807112053 METAR KPAE 112053Z 36008KT 10SM CLR 21/08 A3023 RMK AO2 SLP237 T02060078 58008=
200807111953 METAR KPAE 111953Z 33008KT 10SM CLR 20/07 A3025 RMK AO2 SLP241 T02000072=
200807111853 METAR KPAE 111853Z 36005KT 10SM CLR 19/07 A3025 RMK AO2 SLP242 T01890072=
200807111753 METAR KPAE 111753Z 36004KT 10SM CLR 18/04 A3026 RMK AO2 SLP245 T01780044 10183 20106 51001=
200807111653 METAR KPAE 111653Z VRB04KT 10SM CLR 17/08 A3026 RMK AO2 SLP245 T01720078=
200807111553 METAR KPAE 111553Z 10005KT 10SM CLR 16/04 A3026 RMK AO2 SLP248 T01560039=
200807111453 METAR KPAE 111453Z 11006KT 10SM CLR 14/04 A3026 RMK AO2 SLP244 T01390044 50003=
200807111353 METAR KPAE 111353Z 06004KT 10SM CLR 13/06 A3026 RMK AO2 SLP244 T01280056=
200807111253 METAR KPAE 111253Z AUTO 00000KT 10SM CLR 11/06 A3026 RMK AO2 SLP247 T01110061=
200807111153 METAR KPAE 111153Z AUTO 00000KT 10SM CLR 11/06 A3025 RMK AO2 SLP243 T01060061 10133 20100 51013=
200807111053 METAR KPAE 111053Z AUTO 04004KT 10SM CLR 11/06 A3024 RMK AO2 SLP240 T01110061=
200807110953 METAR KPAE 110953Z AUTO 04006KT 10SM CLR 12/07 A3022 RMK AO2 SLP234 T01170067=
200807110853 METAR KPAE 110853Z AUTO 02003KT 10SM CLR 11/08 A3021 RMK AO2 SLP229 T01110078 53007=
200807110753 METAR KPAE 110753Z AUTO 02006KT 10SM CLR 12/06 A3020 RMK AO2 SLP226 T01220061 401830106=
200807110653 METAR KPAE 110653Z AUTO 04007KT 10SM CLR 13/06 A3019 RMK AO2 SLP224 T01330056=
200807110553 METAR KPAE 110553Z AUTO VRB03KT 10SM CLR 13/07 A3018 RMK AO2 SLP221 T01330072 10183 20133 51010=
200807110453 METAR KPAE 110453Z AUTO 02005KT 10SM CLR 13/08 A3018 RMK AO2 SLP218 T01330078=
200807110353 METAR KPAE 110353Z AUTO 36005KT 10SM CLR 13/08 A3016 RMK AO2 SLP214 T01330078=
200807110253 METAR KPAE 110253Z 02008KT 10SM CLR 16/07 A3015 RMK AO2 SLP211 T01560072 53007=
200807110153 METAR KPAE 110153Z VRB05KT 10SM CLR 17/08 A3014 RMK AO2 SLP208 T01670078=
200807110053 METAR KPAE 110053Z VRB06KT 10SM CLR 18/08 A3014 RMK AO2 SLP205 T01780078=
200807102353 METAR KPAE 102353Z AUTO 35006KT 10SM CLR 18/08 A3013 RMK AO2 SLP203 T01780083 10183 20139 51004 TSNO=
200807102253 METAR KPAE 102253Z 01006KT 10SM CLR 18/09 A3013 RMK AO2 SLP203 T01780094=
200807102153 METAR KPAE 102153Z 28006KT 10SM CLR 18/09 A3012 RMK AO2 SLP199 T01780094=
200807102053 METAR KPAE 102053Z 25008KT 10SM CLR 17/09 A3012 RMK AO2 SLP199 T01670094 51009=
200807101953 METAR KPAE 101953Z VRB05KT 10SM CLR 16/09 A3011 RMK AO2 SLP194 T01610094=
200807101853 METAR KPAE 101853Z 30005KT 10SM SCT019 16/10 A3011 RMK AO2 SLP195 T01560100=
200807101837 SPECI KPAE 101837Z 28007KT 10SM BKN019 BKN025 16/09 A3010 RMK AO2=
200807101837 SPECI KPAE 101837Z 28007KT 10SM BKN019 BKN025 16/09 A3010 RMK AO2=
200807101830 SPECI KPAE 101830Z VRB03KT 10SM FEW019 SCT025 16/09 A3010 RMK AO2=
200807101830 SPECI KPAE 101830Z VRB03KT 10SM FEW019 SCT025 16/09 A3010 RMK AO2=
200807101753 METAR KPAE 101753Z VRB05KT 10SM OVC021 14/09 A3009 RMK AO2 SLP189 T01390089 10156 20106 51005=
200807101700 SPECI KPAE 101700Z 35003KT 10SM OVC015 15/09 A3008 RMK AO2=
200807101700 SPECI KPAE 101700Z 35003KT 10SM OVC015 15/09 A3008 RMK AO2=
200807101653 METAR KPAE 101653Z VRB03KT 10SM SCT008 13/08 A3008 RMK AO2 SLP187 T01330083=
200807101628 SPECI KPAE 101628Z VRB03KT 10SM SCT008 13/09 A3009 RMK AO2=
200807101628 SPECI KPAE 101628Z VRB03KT 10SM SCT008 13/09 A3009 RMK AO2=
200807101600 SPECI KPAE 101600Z 34003KT 10SM BKN008 12/08 A3009 RMK AO2=
200807101600 SPECI KPAE 101600Z 34003KT 10SM BKN008 12/08 A3009 RMK AO2=
200807101553 METAR KPAE 101553Z 02004KT 10SM SCT008 12/08 A3009 RMK AO2 SLP187 T01220083=
200807101453 METAR KPAE 101453Z VRB03KT 10SM SCT008 12/08 A3007 RMK AO2 SLP182 T01170083 51011=
200807101353 METAR KPAE 101353Z AUTO VRB03KT 10SM SCT008 11/08 A3006 RMK AO2 SLP177 T01110083=
200807101349 SPECI KPAE 101349Z AUTO VRB03KT 10SM SCT008 11/08 A3006 RMK AO2=
200807101349 SPECI KPAE 101349Z AUTO VRB03KT 10SM SCT008 11/08 A3006 RMK AO2=
200807101253 METAR KPAE 101253Z AUTO 01006KT 10SM CLR 11/08 A3004 RMK AO2 SLP171 T01060078=
200807101153 METAR KPAE 101153Z AUTO 01006KT 10SM CLR 11/08 A3002 RMK AO2 SLP164 T01110078 10150 20111 51004=
200807101053 METAR KPAE 101053Z AUTO 02005KT 10SM CLR 11/08 A3002 RMK AO2 SLP163 T01110078=
200807100953 METAR KPAE 100953Z AUTO 02006KT 10SM CLR 12/08 A3001 RMK AO2 SLP160 T01170078=
200807100853 METAR KPAE 100853Z AUTO 02007KT 10SM BKN065 12/07 A3001 RMK AO2 SLP160 T01220072 53001=
200807100753 METAR KPAE 100753Z AUTO 02008KT 10SM BKN065 13/07 A3000 RMK AO2 SLP156 T01330072 402330128=
200807100653 METAR KPAE 100653Z AUTO 36008G15KT 10SM BKN070 15/06 A2999 RMK AO2 SLP153 T01500061=
200807100553 METAR KPAE 100553Z AUTO 01007G14KT 10SM BKN070 15/07 A3000 RMK AO2 SLP159 T01500067 10233 20150 55003=
200807100453 METAR KPAE 100453Z AUTO 02010G15KT 10SM SCT060 BKN095 15/06 A3000 RMK AO2 SLP157 T01500061=
200807100353 METAR KPAE 100353Z AUTO 35008G17KT 10SM OVC060 16/06 A3000 RMK AO2 SLP157 T01610061=
200807100253 METAR KPAE 100253Z 36008G16KT 10SM FEW070 18/06 A3001 RMK AO2 SLP162 T01780056 56008=
200807100153 METAR KPAE 100153Z 34004KT 10SM CLR 18/11 A3002 RMK AO2 SLP165 T01830106=
200807100053 METAR KPAE 100053Z 36005KT 10SM CLR 23/11 A3003 RMK AO2 SLP166 T02280106=
200807092353 METAR KPAE 092353Z 34006KT 10SM CLR 22/12 A3004 RMK AO2 SLP170 T02220122 10228 20183 58014=
200807092253 METAR KPAE 092253Z 35007KT 10SM CLR 22/13 A3006 RMK AO2 SLP176 T02220128=
200807092153 METAR KPAE 092153Z 35008KT 10SM CLR 22/13 A3007 RMK AO2 SLP180 T02170133=
200807092053 METAR KPAE 092053Z VRB04KT 10SM CLR 22/13 A3008 RMK AO2 SLP184 T02170128 56008=
200807091953 METAR KPAE 091953Z VRB04KT 10SM CLR 21/12 A3009 RMK AO2 SLP188 T02060117=
200807091853 METAR KPAE 091853Z VRB05KT 10SM CLR 21/12 A3010 RMK AO2 SLP189 T02060117=
200807091753 METAR KPAE 091753Z 01006KT 10SM CLR 18/11 A3011 RMK AO2 SLP194 T01830106 10189 20128 58004=
200807091653 METAR KPAE 091653Z VRB04KT 10SM CLR 16/11 A3011 RMK AO2 SLP195 T01610106=
200807091553 METAR KPAE 091553Z VRB04KT 10SM CLR 15/11 A3012 RMK AO2 SLP197 T01500106=
200807091453 METAR KPAE 091453Z VRB04KT 10SM CLR 14/10 A3012 RMK AO2 SLP198 T01440100 51006=
200807091353 METAR KPAE 091353Z VRB05KT 10SM CLR 14/10 A3012 RMK AO2 SLP197 T01390100=
200807091253 METAR KPAE 091253Z AUTO VRB04KT 10SM CLR 13/10 A3011 RMK AO2 SLP195 T01280100=
200807091153 METAR KPAE 091153Z AUTO 36004KT 10SM CLR 13/10 A3010 RMK AO2 SLP191 T01280100 10161 20128 56006=
200807091053 METAR KPAE 091053Z AUTO VRB05KT 10SM CLR 14/10 A3010 RMK AO2 SLP192 T01390100=
200807090953 METAR KPAE 090953Z AUTO 02004KT 10SM CLR 14/11 A3011 RMK AO2 SLP194 T01390106=
200807090853 METAR KPAE 090853Z AUTO 01005KT 10SM CLR 14/11 A3012 RMK AO2 SLP197 T01390106 58003=
200807090753 METAR KPAE 090753Z AUTO VRB04KT 10SM CLR 14/11 A3013 RMK AO2 SLP203 T01390111 402390117=
200807090653 METAR KPAE 090653Z AUTO 02005KT 10SM CLR 14/11 A3013 RMK AO2 SLP202 T01440111=
200807090553 METAR KPAE 090553Z AUTO 01007G15KT 10SM CLR 16/11 A3013 RMK AO2 SLP201 T01610111 10233 20156 58002=
200807090453 METAR KPAE 090453Z AUTO 02007KT 10SM CLR 16/11 A3014 RMK AO2 SLP204 T01610111=
200807090353 METAR KPAE 090353Z AUTO 02005KT 10SM CLR 17/11 A3013 RMK AO2 SLP203 T01720111=
200807090253 METAR KPAE 090253Z 36008KT 10SM CLR 18/10 A3014 RMK AO2 SLP204 T01830100 57008=
200807090153 METAR KPAE 090153Z 01005KT 8SM CLR 20/10 A3015 RMK AO2 SLP207 T02000100=
200807090053 METAR KPAE 090053Z 01006KT 10SM CLR 21/11 A3015 RMK AO2 SLP209 T02110106=
200807082353 METAR KPAE 082353Z 01005KT 10SM CLR 23/08 A3016 RMK AO2 SLP212 T02330083 10239 20194 58012=
200807082253 METAR KPAE 082253Z VRB06KT 10SM CLR 24/08 A3018 RMK AO2 SLP217 T02390078=
200807082153 METAR KPAE 082153Z 02004KT 10SM CLR 23/11 A3019 RMK AO2 SLP220 T02330111=
200807082053 METAR KPAE 082053Z 36006KT 10SM CLR 22/11 A3020 RMK AO2 SLP224 T02220106 58004=
200807081953 METAR KPAE 081953Z 36006KT 10SM CLR 21/11 A3021 RMK AO2 SLP229 T02060106=
200807081853 METAR KPAE 081853Z 33006KT 10SM CLR 21/11 A3022 RMK AO2 SLP231 T02060111=
200807081753 METAR KPAE 081753Z 00000KT 10SM CLR 20/11 A3021 RMK AO2 SLP229 T02000106 10200 20117 58008=
200807081653 METAR KPAE 081653Z 00000KT 10SM CLR 19/10 A3022 RMK AO2 SLP231 T01890100=
200807081553 METAR KPAE 081553Z VRB03KT 10SM CLR 17/09 A3023 RMK AO2 SLP236 T01670094=
200807081453 METAR KPAE 081453Z 01003KT 10SM CLR 14/09 A3023 RMK AO2 SLP237 T01440094 53006=
200807081353 METAR KPAE 081353Z AUTO VRB03KT 10SM CLR 13/09 A3023 RMK AO2 SLP235 T01280089=
200807081253 METAR KPAE 081253Z AUTO 04004KT 10SM CLR 12/08 A3022 RMK AO2 SLP232 T01220078=
200807081153 METAR KPAE 081153Z AUTO 06003KT 10SM CLR 12/08 A3022 RMK AO2 SLP231 T01220078 10133 20117 58001=
200807081053 METAR KPAE 081053Z AUTO 03003KT 10SM CLR 12/09 A3022 RMK AO2 SLP232 T01170089=
200807080953 METAR KPAE 080953Z AUTO 02005KT 10SM CLR 12/08 A3022 RMK AO2 SLP233 T01220083=
200807080853 METAR KPAE 080853Z AUTO 04005KT 10SM CLR 13/07 A3022 RMK AO2 SLP232 T01280072 58002=
200807080753 METAR KPAE 080753Z AUTO 06005KT 10SM CLR 13/07 A3022 RMK AO2 SLP233 T01330072 402060106=
200807080653 METAR KPAE 080653Z AUTO 06003KT 10SM CLR 13/09 A3022 RMK AO2 SLP234 T01330089=
200807080553 METAR KPAE 080553Z AUTO 04004KT 10SM CLR 13/08 A3023 RMK AO2 SLP234 T01330083 10200 20128 51009=
200807080453 METAR KPAE 080453Z 36007KT 10SM CLR 13/08 A3022 RMK AO2 SLP235 T01280078=
200807080353 METAR KPAE 080353Z 01006KT 10SM CLR 14/08 A3020 RMK AO2 SLP227 T01390083=
200807080253 METAR KPAE 080253Z AUTO 02004KT 10SM CLR 16/09 A3020 RMK AO2 SLP226 T01610094 53001 TSNO=
200807080153 METAR KPAE 080153Z AUTO 01006KT 10SM CLR 18/09 A3020 RMK AO2 SLP224 T01780094 TSNO=
200807080053 METAR KPAE 080053Z AUTO 36006KT 10SM CLR 19/10 A3019 RMK AO2 SLP223 T01890100 TSNO=
200807072353 METAR KPAE 072353Z AUTO 35006KT 10SM CLR 19/11 A3020 RMK AO2 SLP224 T01940106 10206 20161 56005 TSNO=
200807072253 METAR KPAE 072253Z AUTO VRB06KT 10SM CLR 20/11 A3020 RMK AO2 SLP226 T02000111 TSNO=
200807072153 METAR KPAE 072153Z VRB05KT 10SM CLR 20/12 A3020 RMK AO2 SLP227 T02000117=
200807072053 METAR KPAE 072053Z VRB04KT 8SM CLR 19/11 A3021 RMK AO2 SLP229 T01890111 50000=
200807071953 METAR KPAE 071953Z 02004KT 10SM CLR 18/11 A3022 RMK AO2 SLP232 T01830106=
200807071853 METAR KPAE 071853Z 32005KT 10SM CLR 17/11 A3023 RMK AO2 SLP235 T01670106=
200807071753 METAR KPAE 071753Z 30005KT 10SM CLR 16/10 A3021 RMK AO2 SLP230 T01610100 10167 20106 51002=
200807071653 METAR KPAE 071653Z 02003KT 10SM CLR 16/09 A3021 RMK AO2 SLP229 T01560094=
200807071553 METAR KPAE 071553Z VRB03KT 10SM CLR 13/09 A3021 RMK AO2 SLP231 T01330089=
200807071453 METAR KPAE 071453Z VRB04KT 10SM CLR 13/09 A3020 RMK AO2 SLP228 T01280089 53009=
200807071353 METAR KPAE 071353Z VRB03KT 10SM CLR 12/08 A3018 RMK AO2 SLP220 T01170083=
200807071253 METAR KPAE 071253Z AUTO 06003KT 10SM CLR 11/07 A3017 RMK AO2 SLP218 T01110072=
200807071153 METAR KPAE 071153Z AUTO 00000KT 10SM CLR 11/08 A3018 RMK AO2 SLP218 T01060078 10117 20106 51006=
200807071053 METAR KPAE 071053Z AUTO 02003KT 10SM CLR 11/08 A3017 RMK AO2 SLP217 T01060078=
200807070953 METAR KPAE 070953Z AUTO 00000KT 10SM CLR 11/07 A3017 RMK AO2 SLP215 T01110072=
200807070853 METAR KPAE 070853Z AUTO VRB03KT 10SM CLR 12/08 A3016 RMK AO2 SLP212 T01170078 55001=
200807070753 METAR KPAE 070753Z AUTO VRB04KT 10SM CLR 12/08 A3015 RMK AO2 SLP211 T01170078 401890117=
200807070653 METAR KPAE 070653Z AUTO 00000KT 10SM CLR 12/08 A3016 RMK AO2 SLP212 T01170078=
200807070553 METAR KPAE 070553Z AUTO 02006KT 10SM CLR 12/08 A3016 RMK AO2 SLP212 T01170083 10189 20117 53004=
200807070453 METAR KPAE 070453Z 02004KT 10SM CLR 12/09 A3015 RMK AO2 SLP211 T01220089=
200807070353 METAR KPAE 070353Z 36004KT 10SM CLR 13/09 A3014 RMK AO2 SLP207 T01330094=
200807070253 METAR KPAE 070253Z 35004KT 10SM CLR 14/09 A3015 RMK AO2 SLP208 T01440094 56002=
200807070153 METAR KPAE 070153Z 36005KT 10SM CLR 17/09 A3015 RMK AO2 SLP207 T01670094=
200807070053 METAR KPAE 070053Z 36007KT 10SM CLR 18/09 A3015 RMK AO2 SLP208 T01780089=
200807062353 METAR KPAE 062353Z 36006KT 10SM SCT035 18/08 A3015 RMK AO2 SLP210 T01830083 10189 20150 58003=
200807062253 METAR KPAE 062253Z VRB05KT 10SM CLR 18/10 A3016 RMK AO2 SLP212 T01830100=
200807062153 METAR KPAE 062153Z 36006KT 10SM SCT050 18/09 A3017 RMK AO2 SLP214 T01780094=
200807062053 METAR KPAE 062053Z 01004KT 10SM OVC050 17/10 A3016 RMK AO2 SLP213 T01670100 50002=
200807061953 METAR KPAE 061953Z 00000KT 10SM OVC023 17/10 A3016 RMK AO2 SLP213 T01670100=
200807061921 SPECI KPAE 061921Z 34003KT 10SM BKN021 OVC050 16/11 A3017 RMK AO2=
200807061921 SPECI KPAE 061921Z 34003KT 10SM BKN021 OVC050 16/11 A3017 RMK AO2=
200807061908 SPECI KPAE 061908Z 25003KT 10SM SCT019 SCT025 OVC050 16/11 A3017 RMK AO2=
200807061908 SPECI KPAE 061908Z 25003KT 10SM SCT019 SCT025 OVC050 16/11 A3017 RMK AO2=
200807061853 METAR KPAE 061853Z 27004KT 10SM FEW017 BKN023 OVC050 16/11 A3016 RMK AO2 SLP214 T01560106=
200807061753 METAR KPAE 061753Z 30005KT 10SM BKN017 OVC050 15/11 A3016 RMK AO2 SLP211 T01500106 10161 20128 51006=
200807061653 METAR KPAE 061653Z 00000KT 10SM OVC049 15/10 A3016 RMK AO2 SLP211 T01500100=
200807061553 METAR KPAE 061553Z 03003KT 10SM FEW013 OVC047 14/10 A3015 RMK AO2 SLP211 T01390100=
200807061453 METAR KPAE 061453Z 02005KT 10SM FEW013 OVC048 13/10 A3014 RMK AO2 SLP205 T01330100 51010=
200807061353 METAR KPAE 061353Z AUTO 00000KT 10SM SCT016 OVC044 13/09 A3013 RMK AO2 SLP201 T01330094=
200807061253 METAR KPAE 061253Z AUTO 00000KT 10SM BKN018 OVC042 13/09 A3012 RMK AO2 SLP199 T01330094=
200807061153 METAR KPAE 061153Z AUTO 00000KT 10SM BKN020 OVC040 13/09 A3011 RMK AO2 SLP193 60000 T01330094 10139 20128 51005=
200807061053 METAR KPAE 061053Z AUTO 00000KT 10SM OVC038 13/09 A3011 RMK AO2 RAB01E18 SLP193 P0000 T01330089=
200807060953 METAR KPAE 060953Z AUTO 33003KT 10SM BKN030 OVC038 13/09 A3010 RMK AO2 SLP191 T01280089=
200807060912 SPECI KPAE 060912Z AUTO 35004KT 10SM OVC030 13/09 A3010 RMK AO2=
200807060912 SPECI KPAE 060912Z AUTO 35004KT 10SM OVC030 13/09 A3010 RMK AO2=
200807060853 METAR KPAE 060853Z AUTO 31005KT 10SM OVC028 13/09 A3009 RMK AO2 SLP189 T01280094 51010=
200807060753 METAR KPAE 060753Z AUTO 34003KT 10SM OVC026 13/09 A3008 RMK AO2 SLP186 T01280094 402220128=
200807060653 METAR KPAE 060653Z AUTO 02006KT 10SM BKN026 OVC031 13/09 A3007 RMK AO2 SLP183 T01330094=
200807060553 METAR KPAE 060553Z AUTO 02006KT 10SM BKN023 OVC029 13/09 A3006 RMK AO2 SLP178 T01330094 10222 20133 53017=
200807060500 METAR KPAE NIL=
200807060440 SPECI KPAE 060440Z AUTO 02006KT 10SM BKN019 OVC040 14/09 A3005 RMK AO2=
200807060440 SPECI KPAE 060440Z AUTO 02006KT 10SM BKN019 OVC040 14/09 A3005 RMK AO2=
200807060353 METAR KPAE 060353Z AUTO 02005KT 10SM FEW016 SCT024 OVC041 14/10 A3002 RMK AO2 SLP165 T01390100=
200807060253 METAR KPAE 060253Z 01006KT 10SM FEW024 BKN030 BKN060 14/11 A3001 RMK AO2 SLP161 T01440106 53012=
200807060229 SPECI KPAE 060229Z 01006KT 10SM SCT029 BKN036 BKN050 15/11 A3000 RMK AO2=
200807060229 SPECI KPAE 060229Z 01006KT 10SM SCT029 BKN036 BKN050 15/11 A3000 RMK AO2=
200807060153 METAR KPAE 060153Z 26008KT 10SM BKN029 OVC037 20/14 A2999 RMK AO2 SLP154 T02000139=
200807060053 METAR KPAE 060053Z 19015G20KT 10SM BKN029 BKN042 21/14 A2998 RMK AO2 SLP151 T02060139=
200807052353 METAR KPAE 052353Z 20017G23KT 10SM FEW025 SCT070 BKN090 22/14 A2997 RMK AO2 SLP147 T02220139 10222 20189 58003=
200807052253 METAR KPAE 052253Z 19013G23KT 10SM SCT070 SCT100 22/14 A2997 RMK AO2 SLP148 T02170144=
200807052243 SPECI KPAE 052243Z 18018G23KT 10SM SCT027 BKN070 21/14 A2998 RMK AO2=
200807052243 SPECI KPAE 052243Z 18018G23KT 10SM SCT027 BKN070 21/14 A2998 RMK AO2=
200807052153 METAR KPAE 052153Z 20015KT 10SM BKN027 OVC034 21/14 A2999 RMK AO2 SLP152 T02110139=
200807052053 METAR KPAE 052053Z 19013KT 10SM OVC027 21/13 A2998 RMK AO2 SLP150 T02060133 53003=
200807051953 METAR KPAE 051953Z 19015G23KT 10SM FEW020 BKN027 BKN032 21/14 A2997 RMK AO2 SLP147 T02110139=
200807051923 SPECI KPAE 051923Z 17016G22KT 10SM FEW022 BKN100 20/14 A2997 RMK AO2=
200807051923 SPECI KPAE 051923Z 17016G22KT 10SM FEW022 BKN100 20/14 A2997 RMK AO2=
200807051853 METAR KPAE 051853Z 17013G22KT 10SM FEW013 BKN024 OVC029 19/14 A2997 RMK AO2 SLP146 T01890139=
200807051831 SPECI KPAE 051831Z 17012G17KT 10SM BKN011 BKN015 OVC026 19/14 A2997 RMK AO2=
200807051831 SPECI KPAE 051831Z 17012G17KT 10SM BKN011 BKN015 OVC026 19/14 A2997 RMK AO2=
200807051804 SPECI KPAE 051804Z 16011KT 10SM BKN009 OVC015 18/14 A2997 RMK AO2=
200807051804 SPECI KPAE 051804Z 16011KT 10SM BKN009 OVC015 18/14 A2997 RMK AO2=
200807051757 SPECI KPAE 051757Z 16010KT 10SM SCT009 OVC015 18/14 A2997 RMK AO2=
200807051757 SPECI KPAE 051757Z 16010KT 10SM SCT009 OVC015 18/14 A2997 RMK AO2=
200807051753 METAR KPAE 051753Z 17011KT 9SM BKN009 BKN017 OVC090 17/14 A2997 RMK AO2 SLP148 60000 T01720139 10178 20161 53007=
200807051653 METAR KPAE 051653Z 16014KT 10SM BKN009 BKN012 OVC090 17/14 A2996 RMK AO2 RAE1554 SLP144 T01720139=
200807051553 METAR KPAE 051553Z 16014G18KT 5SM -RA OVC009 17/14 A2995 RMK AO2 RAB44 SLP140 P0000 T01720139=
200807051503 SPECI KPAE 051503Z 18010KT 6SM HZ OVC014 17/13 A2995 RMK AO2=
200807051503 SPECI KPAE 051503Z 18010KT 6SM HZ OVC014 17/13 A2995 RMK AO2=
200807051453 METAR KPAE 051453Z 17012KT 4SM HZ OVC016 17/13 A2995 RMK AO2 SLP140 T01670133 51006=
200807051412 SPECI KPAE 051412Z 16009KT 6SM HZ BKN021 OVC038 16/13 A2995 RMK AO2=
200807051412 SPECI KPAE 051412Z 16009KT 6SM HZ BKN021 OVC038 16/13 A2995 RMK AO2=
200807051353 METAR KPAE 051353Z 16011KT 6SM HZ BKN038 OVC055 16/13 A2994 RMK AO2 SLP138 T01610133=
200807051253 METAR KPAE 051253Z AUTO 15008KT 8SM SCT041 OVC060 16/13 A2994 RMK AO2 SLP136 T01610128=
200807051153 METAR KPAE 051153Z AUTO 16010KT 10SM OVC085 16/13 A2993 RMK AO2 SLP133 T01610128 10172 20161 56005=
200807051053 METAR KPAE 051053Z AUTO 15007KT 8SM SCT100 16/13 A2994 RMK AO2 SLP134 T01610128=
200807050953 METAR KPAE 050953Z AUTO 15004KT 8SM CLR 17/12 A2994 RMK AO2 SLP136 T01670122=
200807050853 METAR KPAE 050853Z AUTO 16010KT 8SM OVC060 17/12 A2995 RMK AO2 SLP139 T01720122 58003=
200807050753 METAR KPAE 050753Z AUTO 17008KT 8SM FEW060 17/12 A2996 RMK AO2 SLP142 T01720122 402220133=
200807050653 METAR KPAE 050653Z AUTO 16008KT 6SM HZ CLR 17/12 A2996 RMK AO2 SLP142 T01720117=
200807050553 METAR KPAE 050553Z AUTO 18008KT 9SM CLR 17/11 A2996 RMK AO2 SLP141 T01720111 10222 20172 50001=
200807050453 METAR KPAE 050453Z AUTO 19010KT 10SM CLR 18/11 A2996 RMK AO2 SLP143 T01830111=
200807050353 METAR KPAE 050353Z AUTO 17007KT 10SM FEW036 19/11 A2995 RMK AO2 SLP141 T01940111=
200807050253 METAR KPAE 050253Z 17008KT 10SM FEW040 20/11 A2995 RMK AO2 SLP140 T02000106 55002=
200807050153 METAR KPAE 050153Z 15011KT 10SM FEW060 SCT085 21/11 A2995 RMK AO2 SLP138 T02110106=
200807050053 METAR KPAE 050053Z 19009KT 10SM FEW041 SCT055 21/11 A2995 RMK AO2 SLP141 T02110111=
200807042353 METAR KPAE 042353Z 20012G18KT 10SM FEW036 BKN060 OVC075 21/11 A2996 RMK AO2 SLP142 T02110106 10217 20178 50002=
200807042253 METAR KPAE 042253Z AUTO 19013G18KT 10SM SCT036 BKN047 OVC065 21/11 A2996 RMK AO2 SLP143 T02110111 TSNO=
200807042153 METAR KPAE 042153Z 16013G17KT 10SM BKN070 21/12 A2995 RMK AO2 SLP140 T02110122=
200807042053 METAR KPAE 042053Z 18011G18KT 10SM FEW065 BKN085 21/12 A2995 RMK AO2 SLP141 T02060117 50004=
200807042022 SPECI KPAE 042022Z 17010KT 10SM SCT028 SCT033 OVC080 20/12 A2996 RMK AO2=
200807042022 SPECI KPAE 042022Z 17010KT 10SM SCT028 SCT033 OVC080 20/12 A2996 RMK AO2=
200807041953 METAR KPAE 041953Z 17008G16KT 10SM BKN026 OVC032 19/12 A2996 RMK AO2 SLP144 T01890122=
200807041939 SPECI KPAE 041939Z 19009KT 10SM OVC028 19/12 A2996 RMK AO2=
200807041939 SPECI KPAE 041939Z 19009KT 10SM OVC028 19/12 A2996 RMK AO2=
200807041853 METAR KPAE 041853Z 16010KT 10SM FEW045 SCT070 19/12 A2995 RMK AO2 SLP140 T01940122=
200807041753 METAR KPAE 041753Z 18008KT 10SM FEW045 SCT070 18/12 A2994 RMK AO2 SLP137 T01830122 10183 20144 51006=
200807041653 METAR KPAE 041653Z 19010KT 10SM FEW019 SCT055 17/12 A2994 RMK AO2 SLP136 T01720117=
200807041620 SPECI KPAE 041620Z 20007KT 10SM FEW019 SCT031 BKN038 17/12 A2994 RMK AO2=
200807041620 SPECI KPAE 041620Z 20007KT 10SM FEW019 SCT031 BKN038 17/12 A2994 RMK AO2=
200807041553 METAR KPAE 041553Z 18004KT 10SM OVC027 16/12 A2993 RMK AO2 SLP135 T01610117=
200807041508 SPECI KPAE 041508Z 19008KT 10SM BKN029 OVC041 15/12 A2992 RMK AO2=
200807041508 SPECI KPAE 041508Z 19008KT 10SM BKN029 OVC041 15/12 A2992 RMK AO2=
200807041453 METAR KPAE 041453Z 20008KT 10SM FEW029 BKN041 15/12 A2992 RMK AO2 SLP131 T01500117 53006=
200807041353 METAR KPAE 041353Z 22005KT 10SM SCT009 BKN036 BKN047 14/12 A2992 RMK AO2 SLP130 T01440122=
200807041253 METAR KPAE 041253Z AUTO 20005KT 10SM SCT007 BKN045 15/13 A2991 RMK AO2 SLP126 T01500128=
200807041250 SPECI KPAE 041250Z AUTO 20005KT 10SM SCT007 BKN045 15/13 A2991 RMK AO2=
200807041250 SPECI KPAE 041250Z AUTO 20005KT 10SM SCT007 BKN045 15/13 A2991 RMK AO2=
200807041153 METAR KPAE 041153Z AUTO 16006KT 9SM OVC007 15/13 A2991 RMK AO2 CIG 005V010 SLP126 70025 T01500128 10150 20133 50005=
200807041053 METAR KPAE 041053Z AUTO 00000KT 10SM OVC007 15/12 A2991 RMK AO2 SLP128 T01500117=
200807040953 METAR KPAE 040953Z AUTO 00000KT 10SM OVC007 14/11 A2990 RMK AO2 SLP122 T01390111=
200807040853 METAR KPAE 040853Z AUTO VRB04KT 10SM BKN007 OVC036 13/11 A2989 RMK AO2 SLP121 T01330111 51003=
200807040753 METAR KPAE 040753Z AUTO 01004KT 10SM SCT005 13/11 A2989 RMK AO2 SLP120 T01330111 401940133=
200807040719 SPECI KPAE 040719Z AUTO 02006KT 10SM FEW005 13/11 A2989 RMK AO2=
200807040719 SPECI KPAE 040719Z AUTO 02006KT 10SM FEW005 13/11 A2989 RMK AO2=
200807040653 METAR KPAE 040653Z AUTO 01004KT 10SM OVC003 13/11 A2989 RMK AO2 CIG 003V007 SLP120 T01330111=
200807040615 SPECI KPAE 040615Z AUTO 01005KT 10SM OVC003 14/12 A2988 RMK AO2 CIG 002V005=
200807040615 SPECI KPAE 040615Z AUTO 01005KT 10SM OVC003 14/12 A2988 RMK AO2 CIG 002V005=
200807040553 METAR KPAE 040553Z AUTO 02004KT 7SM OVC001 14/13 A2988 RMK AO2 SLP118 T01440128 10194 20144 57001=
200807040526 SPECI KPAE 040526Z AUTO 01005KT 4SM BR BKN001 14/13 A2989 RMK AO2=
200807040526 SPECI KPAE 040526Z AUTO 01005KT 4SM BR BKN001 14/13 A2989 RMK AO2=
200807040514 SPECI KPAE 040514Z AUTO 01005KT 3SM BR FEW001 14/13 A2988 RMK AO2=
200807040514 SPECI KPAE 040514Z AUTO 01005KT 3SM BR FEW001 14/13 A2988 RMK AO2=
200807040453 METAR KPAE 040453Z AUTO 36004KT 4SM BR CLR 14/13 A2988 RMK AO2 SLP119 T01440133=
200807040353 METAR KPAE 040353Z AUTO 00000KT 6SM BR CLR 17/14 A2988 RMK AO2 SLP118 T01670144=
200807040253 METAR KPAE 040253Z 04003KT 7SM SCT020 19/15 A2988 RMK AO2 SLP118 T01890150 56009=
200807040153 METAR KPAE 040153Z 01003KT 8SM SCT018 19/14 A2989 RMK AO2 SLP119 T01890144=
200807040053 METAR KPAE 040053Z 00000KT 7SM BKN100 17/14 A2990 RMK AO2 SLP124 T01720139=
200807032353 METAR KPAE 032353Z 33004KT 4SM HZ SCT110 17/14 A2991 RMK AO2 SLP127 60001 T01670139 10183 20133 56007=
200807032253 METAR KPAE 032253Z VRB03KT 3SM HZ SCT009 BKN100 18/14 A2991 RMK AO2 SLP128 T01780144=
200807032246 SPECI KPAE 032246Z 00000KT 3SM HZ SCT009 BKN100 18/15 A2991 RMK AO2=
200807032246 SPECI KPAE 032246Z 00000KT 3SM HZ SCT009 BKN100 18/15 A2991 RMK AO2=
200807032224 SPECI KPAE 032224Z 00000KT 3SM BR BKN006 BKN009 17/14 A2992 RMK AO2 CIG 004V008=
200807032224 SPECI KPAE 032224Z 00000KT 3SM BR BKN006 BKN009 17/14 A2992 RMK AO2 CIG 004V008=
200807032200 SPECI KPAE 032200Z 00000KT 5SM BR OVC002 16/14 A2992 RMK AO2=
200807032200 SPECI KPAE 032200Z 00000KT 5SM BR OVC002 16/14 A2992 RMK AO2=
200807032153 METAR KPAE 032153Z 00000KT 2SM BR OVC002 16/14 A2992 RMK AO2 SLP131 T01560139=
200807032130 SPECI KPAE 032130Z 00000KT 1SM BR OVC002 14/13 A2992 RMK AO2 RVRNO $=
200807032130 SPECI KPAE 032130Z 00000KT 1SM BR OVC002 14/13 A2992 RMK AO2 RVRNO $=
200807032056 SPECI KPAE 032056Z 30006KT 1/4SM FG OVC002 15/13 A2993 RMK AO2 LTG DSNT N AND NW CIG 001V006 RVRNO=
200807032056 SPECI KPAE 032056Z 30006KT 1/4SM FG OVC002 15/13 A2993 RMK AO2 LTG DSNT N AND NW CIG 001V006 RVRNO=
200807032053 METAR KPAE 032053Z 30005KT 1SM BR OVC002 16/14 A2993 RMK AO2 LTG DSNT N AND NW CIG 001V006 SLP135 60001 T01560139 51004 RVRNO=
200807032015 SPECI KPAE 032015Z 23004KT 3/4SM BR OVC002 14/13 A2993 RMK AO2 LTG DSNT W-N RVRNO=
200807032015 SPECI KPAE 032015Z 23004KT 3/4SM BR OVC002 14/13 A2993 RMK AO2 LTG DSNT W-N RVRNO=
200807031953 METAR KPAE 031953Z 25005KT 1/4SM FG BKN002 OVC080 14/13 A2993 RMK AO2 LTG DSNT SW-N TSB16E48RAB02E22 SLP133 P0001 T01390128 RVRNO=
200807031948 SPECI KPAE 031948Z 26006KT 1/2SM FG BKN002 OVC080 14/13 A2993 RMK AO2 LTG DSNT SW-NW TSB16E48RAB02E22 P0001 RVRNO=
200807031948 SPECI KPAE 031948Z 26006KT 1/2SM FG BKN002 OVC080 14/13 A2993 RMK AO2 LTG DSNT SW-NW TSB16E48RAB02E22 P0001 RVRNO=
200807031919 SPECI KPAE 031919Z 00000KT 2SM VCTS -RA BR BKN002 14/13 A2992 RMK AO2 LTG DSNT SW AND W TSB16RAB02 P0001=
200807031919 SPECI KPAE 031919Z 00000KT 2SM VCTS -RA BR BKN002 14/13 A2992 RMK AO2 LTG DSNT SW AND W TSB16RAB02 P0001=
200807031915 SPECI KPAE 031915Z 00000KT 1SM -RA BR OVC002 14/13 A2991 RMK AO2 LTG DSNT SW-NW RAB02 P0001 RVRNO=
200807031915 SPECI KPAE 031915Z 00000KT 1SM -RA BR OVC002 14/13 A2991 RMK AO2 LTG DSNT SW-NW RAB02 P0001 RVRNO=
200807031858 SPECI KPAE 031858Z 25005KT 1/4SM FG OVC002 13/12 A2992 RMK AO2 LTG DSNT ALQDS RVRNO=
200807031858 SPECI KPAE 031858Z 25005KT 1/4SM FG OVC002 13/12 A2992 RMK AO2 LTG DSNT ALQDS RVRNO=
200807031853 METAR KPAE 031853Z 24007KT 1SM BR BKN002 OVC011 13/13 A2992 RMK AO2 LTG DSNT ALQDS TSE1754B09E37RAB20E41 SLP131 P0000 T01330128 RVRNO=
200807031843 SPECI KPAE 031843Z 24008KT 1SM BR BKN002 OVC011 13/12 A2993 RMK AO2 LTG DSNT NE AND SE AND W TSE1754B09E37RAB20E41 P0000 RVRNO=
200807031843 SPECI KPAE 031843Z 24008KT 1SM BR BKN002 OVC011 13/12 A2993 RMK AO2 LTG DSNT NE AND SE AND W TSE1754B09E37RAB20E41 P0000 RVRNO=
200807031815 SPECI KPAE 031815Z 26007KT 1SM VCTS BR BKN002 OVC011 14/13 A2992 RMK AO2 LTG DSNT E AND S TSE1754B09 RVRNO=
200807031815 SPECI KPAE 031815Z 26007KT 1SM VCTS BR BKN002 OVC011 14/13 A2992 RMK AO2 LTG DSNT E AND S TSE1754B09 RVRNO=
200807031800 SPECI KPAE 031800Z 19003KT 1SM BR BKN002 OVC011 14/13 A2992 RMK AO2 LTG DSNT NE-SE TSE1754 RVRNO=
200807031800 SPECI KPAE 031800Z 19003KT 1SM BR BKN002 OVC011 14/13 A2992 RMK AO2 LTG DSNT NE-SE TSE1754 RVRNO=
200807031753 METAR KPAE 031753Z 20005KT 1SM VCTS BR BKN002 OVC011 14/13 A2993 RMK AO2 LTG DSNT NE AND SE TSB15RAE1656B18E49 SLP133 P0001 60024 T01390128 10156 20133 53005 RVRNO=
200807031740 SPECI KPAE 031740Z 00000KT 1/4SM -TSRA FG SCT002 OVC011 14/13 A2992 RMK AO2 LTG DSNT SE AND S TSB15RAE1656B18 P0001 RVRNO=
200807031740 SPECI KPAE 031740Z 00000KT 1/4SM -TSRA FG SCT002 OVC011 14/13 A2992 RMK AO2 LTG DSNT SE AND S TSB15RAE1656B18 P0001 RVRNO=
200807031721 SPECI KPAE 031721Z 03003KT 1/4SM VCTS -RA FG BKN002 OVC011 13/12 A2990 RMK AO2 LTG DSNT SE AND S TSB15RAE1656B18 PRESFR P0000 RVRNO=
200807031721 SPECI KPAE 031721Z 03003KT 1/4SM VCTS -RA FG BKN002 OVC011 13/12 A2990 RMK AO2 LTG DSNT SE AND S TSB15RAE1656B18 PRESFR P0000 RVRNO=
200807031708 SPECI KPAE 031708Z 23008KT 1/4SM FG OVC002 13/12 A2994 RMK AO2 RAE1656 P0000 RVRNO=
200807031708 SPECI KPAE 031708Z 23008KT 1/4SM FG OVC002 13/12 A2994 RMK AO2 RAE1656 P0000 RVRNO=
200807031704 SPECI KPAE 031704Z 22007KT 1/4SM FG SCT004 OVC011 13/12 A2994 RMK AO2 RAE1656 P0000 RVRNO=
200807031704 SPECI KPAE 031704Z 22007KT 1/4SM FG SCT004 OVC011 13/12 A2994 RMK AO2 RAE1656 P0000 RVRNO=
200807031656 SPECI KPAE 031656Z 25005KT 1/2SM FG BKN004 BKN008 OVC043 14/13 A2993 RMK AO2 RAE56 P0000 RVRNO=
200807031656 SPECI KPAE 031656Z 25005KT 1/2SM FG BKN004 BKN008 OVC043 14/13 A2993 RMK AO2 RAE56 P0000 RVRNO=
200807031653 METAR KPAE 031653Z 25005KT 3SM -RA BR BKN004 BKN043 OVC110 14/13 A2993 RMK AO2 SLP132 P0004 T01440128=
200807031609 SPECI KPAE 031609Z 21004KT 3SM -RA BR BKN002 BKN041 BKN110 14/13 A2992 RMK AO2 P0001=
200807031609 SPECI KPAE 031609Z 21004KT 3SM -RA BR BKN002 BKN041 BKN110 14/13 A2992 RMK AO2 P0001=
200807031553 METAR KPAE 031553Z 25010KT 1/2SM -RA FG BKN002 BKN018 OVC025 13/12 A2991 RMK AO2 RAB25 SLP128 P0000 T01330122 RVRNO=
200807031550 SPECI KPAE 031550Z 25008KT 4SM -RA BR SCT002 SCT018 BKN025 14/13 A2992 RMK AO2 RAB25 P0000=
200807031550 SPECI KPAE 031550Z 25008KT 4SM -RA BR SCT002 SCT018 BKN025 14/13 A2992 RMK AO2 RAB25 P0000=
200807031535 SPECI KPAE 031535Z 00000KT 4SM -RA BR BKN002 BKN009 OVC025 14/13 A2991 RMK AO2 RAB25 P0000=
200807031535 SPECI KPAE 031535Z 00000KT 4SM -RA BR BKN002 BKN009 OVC025 14/13 A2991 RMK AO2 RAB25 P0000=
200807031524 SPECI KPAE 031524Z 23010KT 1/4SM FG BKN002 OVC015 14/13 A2992 RMK AO2 RVRNO=
200807031524 SPECI KPAE 031524Z 23010KT 1/4SM FG BKN002 OVC015 14/13 A2992 RMK AO2 RVRNO=
200807031502 SPECI KPAE 031502Z 26004KT 1/2SM FG BKN002 BKN017 OVC023 14/13 A2992 RMK AO2 RVRNO=
200807031502 SPECI KPAE 031502Z 26004KT 1/2SM FG BKN002 BKN017 OVC023 14/13 A2992 RMK AO2 RVRNO=
200807031453 METAR KPAE 031453Z 27006KT 5SM BR FEW002 BKN017 OVC041 14/13 A2992 RMK AO2 RAE47 SLP129 P0004 60019 T01440133 58002=
200807031449 SPECI KPAE 031449Z 00000KT 7SM BKN017 BKN021 OVC044 14/13 A2991 RMK AO2 RAE47 P0003=
200807031449 SPECI KPAE 031449Z 00000KT 7SM BKN017 BKN021 OVC044 14/13 A2991 RMK AO2 RAE47 P0003=
200807031427 SPECI KPAE 031427Z VRB05KT 7SM -RA SCT024 BKN050 OVC110 16/13 A2994 RMK AO2 P0002=
200807031427 SPECI KPAE 031427Z VRB05KT 7SM -RA SCT024 BKN050 OVC110 16/13 A2994 RMK AO2 P0002=
200807031353 METAR KPAE 031353Z 18006KT 4SM -RA BR BKN024 OVC040 14/12 A2994 RMK AO2 SLP136 P0014 T01390122=
200807031253 METAR KPAE 031253Z AUTO 18006KT 4SM -RA BR BKN070 OVC110 15/13 A2992 RMK AO2 LTG DSNT S RAB42 SLP131 P0001 T01500128=
200807031153 METAR KPAE 031153Z AUTO VRB03KT 10SM BKN110 15/12 A2990 RMK AO2 SLP123 60016 70019 T01500117 10211 20150 50005=
200807031053 METAR KPAE 031053Z AUTO 24004KT 6SM BR CLR 16/14 A2991 RMK AO2 TSE16RAE23 SLP124 P0008 T01610139=
200807031022 SPECI KPAE 031022Z AUTO 27003KT 5SM -RA BR SCT039 17/15 A2990 RMK AO2 TSE16 P0008=
200807031022 SPECI KPAE 031022Z AUTO 27003KT 5SM -RA BR SCT039 17/15 A2990 RMK AO2 TSE16 P0008=
200807031007 SPECI KPAE 031007Z AUTO 25007KT 3SM VCTS -RA BR BKN041 BKN060 OVC100 17/16 A2991 RMK AO2 P0007=
200807031007 SPECI KPAE 031007Z AUTO 25007KT 3SM VCTS -RA BR BKN041 BKN060 OVC100 17/16 A2991 RMK AO2 P0007=
200807031002 SPECI KPAE 031002Z AUTO 27004KT 1 3/4SM VCTS +RA BR BKN033 BKN047 OVC100 17/15 A2991 RMK AO2 P0007=
200807031002 SPECI KPAE 031002Z AUTO 27004KT 1 3/4SM VCTS +RA BR BKN033 BKN047 OVC100 17/15 A2991 RMK AO2 P0007=
200807030953 METAR KPAE 030953Z AUTO 00000KT 2 1/2SM +TSRA SCT030 SCT046 OVC110 18/15 A2989 RMK AO2 TSE13B44RAB46 SLP117 P0008 T01780150=
200807030950 SPECI KPAE 030950Z AUTO VRB04KT 4SM -TSRA FEW030 SCT065 OVC110 18/14 A2989 RMK AO2 TSE13B44RAB46 P0006=
200807030950 SPECI KPAE 030950Z AUTO VRB04KT 4SM -TSRA FEW030 SCT065 OVC110 18/14 A2989 RMK AO2 TSE13B44RAB46 P0006=
200807030919 SPECI KPAE 030919Z AUTO 00000KT 7SM SCT120 18/15 A2989 RMK AO2 LTG DSNT E-SW TSE13=
200807030919 SPECI KPAE 030919Z AUTO 00000KT 7SM SCT120 18/15 A2989 RMK AO2 LTG DSNT E-SW TSE13=
200807030853 METAR KPAE 030853Z AUTO 16004KT 8SM VCTS FEW120 18/14 A2990 RMK AO2 LTG DSNT SE TSB53 SLP123 T01780144 53006=
200807030753 METAR KPAE 030753Z AUTO 03004KT 10SM CLR 17/13 A2989 RMK AO2 SLP120 T01670133 402390111 TSNO=
200807030653 METAR KPAE 030653Z AUTO 00000KT 8SM CLR 17/15 A2990 RMK AO2 LTG DSNT NE AND E SLP121 T01720150=
200807030553 METAR KPAE 030553Z AUTO 00000KT 8SM CLR 21/14 A2989 RMK AO2 LTG DSNT SE SLP118 60003 T02110144 10239 20200 53003=
200807030453 METAR KPAE 030453Z AUTO 07003KT 8SM CLR 21/16 A2987 RMK AO2 RAE08 SLP111 P0000 T02060156=
200807030353 METAR KPAE 030353Z AUTO 00000KT 4SM -RA FEW026 BKN070 BKN110 21/16 A2987 RMK AO2 LTG DSNT NW TSE14B18E33RAB0259 SLP113 P0003 T02110156=
200807030339 SPECI KPAE 030339Z AUTO 10004KT 8SM -RA BKN080 OVC110 21/15 A2987 RMK AO2 LTG DSNT N AND NW TSE14B18E33RAB0259 P0000=
200807030339 SPECI KPAE 030339Z AUTO 10004KT 8SM -RA BKN080 OVC110 21/15 A2987 RMK AO2 LTG DSNT N AND NW TSE14B18E33RAB0259 P0000=
200807030318 SPECI KPAE 030318Z AUTO 00000KT 8SM VCTS -RA BKN075 BKN110 21/15 A2987 RMK AO2 LTG DSNT NW TSE14B18RAB0259 P0000=
200807030318 SPECI KPAE 030318Z AUTO 00000KT 8SM VCTS -RA BKN075 BKN110 21/15 A2987 RMK AO2 LTG DSNT NW TSE14B18RAB0259 P0000=
200807030253 METAR KPAE 030253Z 18004KT 9SM TS FEW120 22/14 A2988 RMK AO2 LTG DSNT S AND W TSB35 SLP115 T02170144 53010=
200807030241 SPECI KPAE 030241Z 22005KT 9SM VCTS CLR 22/14 A2988 RMK AO2 LTG DSNT S-W TSB35=
200807030241 SPECI KPAE 030241Z 22005KT 9SM VCTS CLR 22/14 A2988 RMK AO2 LTG DSNT S-W TSB35=
200807030153 METAR KPAE 030153Z 27006KT 10SM CLR 22/15 A2984 RMK AO2 SLP101 T02220150=
200807030053 METAR KPAE 030053Z 34004KT 10SM CLR 22/14 A2984 RMK AO2 SLP104 T02220139=
200807022353 METAR KPAE 022353Z 35006KT 10SM CLR 23/14 A2984 RMK AO2 SLP104 T02330144 10239 20178 56012=
200807022253 METAR KPAE 022253Z 33006KT 9SM CLR 23/15 A2985 RMK AO2 SLP104 T02330150=
200807022153 METAR KPAE 022153Z 32008KT 9SM CLR 23/15 A2987 RMK AO2 SLP111 T02280150=
200807022053 METAR KPAE 022053Z VRB06KT 8SM CLR 23/14 A2988 RMK AO2 SLP116 T02280144 58018=
200807021953 METAR KPAE 021953Z 02005KT 9SM CLR 22/14 A2991 RMK AO2 SLP125 T02170144=
200807021853 METAR KPAE 021853Z VRB05KT 7SM CLR 19/14 A2992 RMK AO2 SLP132 T01940139=
200807021753 METAR KPAE 021753Z 36005KT 8SM CLR 18/13 A2993 RMK AO2 SLP135 T01780133 10183 20111 58007=
200807021653 METAR KPAE 021653Z 00000KT 8SM CLR 16/12 A2995 RMK AO2 SLP139 T01610122=
200807021635 SPECI KPAE 021635Z 00000KT 6SM BR SCT001 14/12 A2995 RMK AO2=
200807021635 SPECI KPAE 021635Z 00000KT 6SM BR SCT001 14/12 A2995 RMK AO2=
200807021617 SPECI KPAE 021617Z 00000KT 1SM BR BKN001 13/11 A2996 RMK AO2 RVRNO=
200807021617 SPECI KPAE 021617Z 00000KT 1SM BR BKN001 13/11 A2996 RMK AO2 RVRNO=
200807021553 METAR KPAE 021553Z 02003KT M1/4SM FG VV001 12/11 A2996 RMK AO2 SLP144 T01220111 RVRNO=
200807021453 METAR KPAE 021453Z 02004KT M1/4SM FG VV001 12/11 A2996 RMK AO2 SLP144 T01170106 58004 RVRNO=
200807021353 METAR KPAE 021353Z 00000KT M1/4SM FG VV001 12/11 A2996 RMK AO2 SLP145 T01170106 RVRNO=
200807021253 METAR KPAE 021253Z AUTO 01004KT M1/4SM FG VV001 12/11 A2997 RMK AO2 SLP146 T01170106 RVRNO=
200807021153 METAR KPAE 021153Z AUTO 02005KT M1/4SM FG VV001 12/11 A2997 RMK AO2 SLP147 T01170111 10139 20117 56001 RVRNO=
200807021053 METAR KPAE 021053Z AUTO 01003KT 1/4SM FG VV001 12/11 A2997 RMK AO2 SLP148 T01170111 RVRNO=
200807021027 SPECI KPAE 021027Z AUTO 00000KT 1/4SM FG VV001 12/11 A2997 RMK AO2 RVRNO=
200807021027 SPECI KPAE 021027Z AUTO 00000KT 1/4SM FG VV001 12/11 A2997 RMK AO2 RVRNO=
200807021009 SPECI KPAE 021009Z AUTO 02003KT 1 1/4SM BR BKN001 12/11 A2997 RMK AO2=
200807021009 SPECI KPAE 021009Z AUTO 02003KT 1 1/4SM BR BKN001 12/11 A2997 RMK AO2=
200807021001 SPECI KPAE 021001Z AUTO 02005KT 2 1/2SM BR FEW001 12/11 A2996 RMK AO2=
200807021001 SPECI KPAE 021001Z AUTO 02005KT 2 1/2SM BR FEW001 12/11 A2996 RMK AO2=
200807020953 METAR KPAE 020953Z AUTO 00000KT 5SM BR CLR 12/11 A2996 RMK AO2 SLP144 T01220111=
200807020853 METAR KPAE 020853Z AUTO 02003KT 7SM CLR 12/11 A2997 RMK AO2 SLP148 T01220106 58007=
200807020753 METAR KPAE 020753Z AUTO 36003KT 9SM CLR 13/11 A2998 RMK AO2 SLP151 T01280106 402110128=
200807020653 METAR KPAE 020653Z AUTO 02004KT 10SM CLR 13/11 A2999 RMK AO2 SLP155 T01330111=
200807020553 METAR KPAE 020553Z AUTO 02005KT 10SM CLR 13/11 A2999 RMK AO2 SLP156 T01330111 10211 20133 53010=
200807020453 METAR KPAE 020453Z AUTO 02003KT 10SM CLR 15/11 A2998 RMK AO2 SLP151 T01500111=
200807020353 METAR KPAE 020353Z AUTO 03004KT 10SM CLR 16/12 A2997 RMK AO2 SLP146 T01610117=
200807020253 METAR KPAE 020253Z 36004KT 10SM CLR 17/12 A2996 RMK AO2 SLP145 T01720122 56007=
200807020153 METAR KPAE 020153Z 01004KT 9SM CLR 20/13 A2997 RMK AO2 SLP147 T02000128=
200807020053 METAR KPAE 020053Z 29004KT 10SM CLR 21/12 A2998 RMK AO2 SLP150 T02060117=
200807012353 METAR KPAE 012353Z VRB04KT 10SM CLR 21/12 A2999 RMK AO2 SLP153 T02060117 10211 20150 56015=
200807012253 METAR KPAE 012253Z 26008KT 10SM CLR 21/12 A2999 RMK AO2 SLP155 T02060117=
200807012153 METAR KPAE 012153Z 27007KT 9SM CLR 19/12 A3001 RMK AO2 SLP161 T01940122=
200807012053 METAR KPAE 012053Z 24006KT 8SM CLR 18/12 A3003 RMK AO2 SLP168 T01830122 58012=
200807011953 METAR KPAE 011953Z 25008KT 7SM CLR 17/12 A3005 RMK AO2 SLP175 T01670117=
200807011903 SPECI KPAE 011903Z 26008KT 7SM SCT015 16/12 A3006 RMK AO2=
200807011903 SPECI KPAE 011903Z 26008KT 7SM SCT015 16/12 A3006 RMK AO2=
200807011853 METAR KPAE 011853Z 26008KT 7SM BKN015 16/12 A3006 RMK AO2 SLP178 T01610117=
200807011806 SPECI KPAE 011806Z 22009KT 7SM OVC015 16/11 A3007 RMK AO2=
200807011806 SPECI KPAE 011806Z 22009KT 7SM OVC015 16/11 A3007 RMK AO2=
200807011753 METAR KPAE 011753Z 24008KT 7SM OVC013 16/11 A3007 RMK AO2 SLP180 T01560111 10156 20128 53006=
200807011702 SPECI KPAE 011702Z 25006KT 6SM HZ OVC011 14/11 A3006 RMK AO2=
200807011702 SPECI KPAE 011702Z 25006KT 6SM HZ OVC011 14/11 A3006 RMK AO2=
200807011653 METAR KPAE 011653Z 24006KT 6SM HZ OVC009 14/11 A3006 RMK AO2 SLP177 T01440111=
200807011553 METAR KPAE 011553Z 26005KT 6SM HZ OVC007 14/11 A3005 RMK AO2 CIG 005V010 SLP173 T01390111=
200807011453 METAR KPAE 011453Z 26005KT 5SM BR OVC007 13/11 A3005 RMK AO2 SLP173 T01330111 50001=
200807011400 SPECI KPAE 011400Z 18003KT 5SM HZ OVC007 13/11 A3005 RMK AO2=
200807011400 SPECI KPAE 011400Z 18003KT 5SM HZ OVC007 13/11 A3005 RMK AO2=
200807011353 METAR KPAE 011353Z VRB03KT 5SM HZ OVC010 13/11 A3005 RMK AO2 SLP174 T01330106=
200807011328 SPECI KPAE 011328Z 21006KT 5SM HZ BKN007 13/11 A3005 RMK AO2=
200807011328 SPECI KPAE 011328Z 21006KT 5SM HZ BKN007 13/11 A3005 RMK AO2=
200807011253 METAR KPAE 011253Z 19004KT 5SM BR SCT009 13/11 A3005 RMK AO2 SLP173 T01280106=
200807011235 SPECI KPAE 011235Z 23003KT 4SM BR SCT009 13/11 A3005 RMK AO2=
200807011235 SPECI KPAE 011235Z 23003KT 4SM BR SCT009 13/11 A3005 RMK AO2=
200807011153 METAR KPAE 011153Z 23003KT 6SM BR CLR 13/11 A3004 RMK AO2 SLP172 T01280111 10161 20128 53007=
200807011053 METAR KPAE 011053Z 26003KT 7SM CLR 13/11 A3003 RMK AO2 SLP167 T01330111=
200807010953 METAR KPAE 010953Z 20004KT 8SM CLR 14/11 A3003 RMK AO2 SLP166 T01440111=
200807010853 METAR KPAE 010853Z 22003KT 7SM CLR 14/12 A3002 RMK AO2 SLP163 T01440117 50005=
200807010753 METAR KPAE 010753Z 00000KT 10SM CLR 14/12 A3002 RMK AO2 SLP165 T01440117 402440144=
200807010653 METAR KPAE 010653Z 00000KT 10SM CLR 16/12 A3002 RMK AO2 SLP162 T01560122=
200807010553 METAR KPAE 010553Z 00000KT 10SM CLR 16/13 A3000 RMK AO2 SLP158 T01560128 10222 20156 51016=
200807010453 METAR KPAE 010453Z 02005KT 10SM CLR 17/13 A2999 RMK AO2 SLP154 T01670128=
200807010353 METAR KPAE 010353Z 02005KT 10SM CLR 18/13 A2997 RMK AO2 SLP146 T01780128=
200807010253 METAR KPAE 010253Z 36005KT 10SM CLR 18/13 A2996 RMK AO2 SLP141 T01780128 53001=
200807010153 METAR KPAE 010153Z 35006KT 10SM CLR 19/13 A2995 RMK AO2 SLP140 T01940128=
200807010053 METAR KPAE 010053Z 36005KT 10SM CLR 22/13 A2994 RMK AO2 SLP134 T02170133=

# No short TAF reports from KPAE in databse.

###################################
#  large TAF from KPAE
###################################
200807312357 KPAE 312357Z 010024 21007KT P6SM -RA SCT030 BKN050 OVC070
                      TEMPO 0004 4SM BR FM0600 16012KT P6SM VCSH
                       OVC040 FM1200 18008KT P6SM OVC030 FM2100
                       21010KT P6SM SCT040 BKN050=
200807312333 TAF KPAE 312333Z 010024 21007KT P6SM -RA BKN050 OVC070 FM0600 16012KT
                       P6SM VCSH OVC040 FM1200 18008KT P6SM OVC030
                       FM2100 21010KT P6SM SCT040 BKN050=
200807312300 KPAE 010026Z 010024 VRB04KT P6SM -RA FEW030 OVC050
                      TEMPO 0003 4SM -RA BR FM0300 16008KT P6SM
                       -RA SCT022 OVC040
                      TEMPO 0306 4SM RA BR BKN022 OVC040 FM0600
                       16012KT P6SM VCSH OVC040 FM1200 18008KT
                       P6SM OVC030 FM2100 21010KT P6SM SCT040 BKN050=
200807311737 TAF KPAE 311737Z 311818 VRB05KT P6SM BKN100 BKN180 FM2200 22009KT
                       P6SM BKN080 BKN150 FM0200 18012KT P6SM VCSH
                       BKN050 OVC120 FM0900 17008KT P6SM OVC030=
200807311121 TAF KPAE 311121Z 311212 00000KT P6SM SCT200 FM1600 VRB04KT P6SM
                       SCT120 BKN200 FM2100 22008KT P6SM BKN090
                       OVC150 FM0200 18008KT P6SM BKN060 OVC120
                       PROB30 0206 -RA=
200807310522 TAF KPAE 310522Z 310606 00000KT P6SM SCT120 BKN200 FM1400 01005KT
                       P6SM BKN120 BKN200 FM2000 24009KT P6SM BKN080
                       OVC150 FM0200 20009KT P6SM BKN060 OVC120
                       PROB30 0206 -SHRA=
200807310124 TAF AMD KPAE 310124Z 310124 35006KT P6SM SCT060 SCT200 FM1200 01005KT
                       P6SM BKN150 FM1800 24009KT P6SM BKN100 OVC150=
200807302334 TAF KPAE 302334Z 310024 VRB05KT P6SM BKN060 FM0200 35006KT P6SM
                       SCT060 SCT200 FM1200 01005KT P6SM BKN150
                       FM1800 24009KT P6SM BKN100 OVC150=
200807302300 KPAE 310124Z 310124 35006KT P6SM SCT060 SCT200 FM1200 01005KT P6SM
                       BKN150 FM1800 24009KT P6SM BKN100 OVC150=
200807301730 TAF KPAE 301730Z 301818 VRB03KT P6SM OVC050 FM2000 VRB05KT P6SM
                       BKN050 FM0000 04007KT P6SM SCT050 SCT200
                       FM1200 33004KT P6SM BKN150=
200807301136 TAF KPAE 301136Z 301212 04006KT P6SM SCT020 BKN040
                      TEMPO 1216 BKN020 OVC040 FM1900 VRB03KT P6SM
                       SCT030 BKN050
                      TEMPO 1922 BKN030 OVC050 FM2300 30007KT P6SM
                       SCT050 FM0600 04004KT P6SM BKN200=
200807300801 KPAE 300801Z 300806 VRB06KT P6SM BKN020 OVC040 FM1000 VRB04KT P6SM
                       VCSH BKN015 BKN040 FM1700 23008KT P6SM BKN020
                       BKN050 FM2000 33006KT P6SM SCT030 BKN050=
200807300520 TAF KPAE 300520Z 300606 22008KT P6SM SCT012 BKN040
                      TEMPO 0610 4SM -SHRA BKN010 OVC030 FM1000
                       VRB04KT P6SM VCSH BKN015 BKN040 FM1700 23008KT
                       P6SM BKN020 BKN050 FM2000 33006KT P6SM SCT030
                       BKN050=
200807300357 TAF AMD KPAE 300357Z 300424 23010KT P6SM SCT005 BKN015 OVC030
                      TEMPO 0408 3SM -SHRA BKN005 OVC012 FM0800
                       VRB04KT P6SM VCSH BKN015 BKN040 FM1700 23008KT
                       P6SM BKN020 BKN050 FM2000 33006KT P6SM SCT030
                       BKN050=
200807292321 TAF KPAE 292321Z 300024 18015G28KT 5SM -RA BR OVC025 FM0100 25015G28KT
                       P6SM -SHRA BKN030 FM0400 25010KT P6SM VCSH
                       BKN030 FM1100 18006KT P6SM OVC012
                      TEMPO 1316 4SM BR OVC006 FM1700 23008KT P6SM
                       BKN020 FM2000 33006KT P6SM SCT030 SCT250=
200807292320 TAF KPAE 292320Z 300024 18015G28KT 5SM -RA BR OVC025 FM0100 25015G28KT
                       P6SM -SHRA BKN030 FM0400 25010KT P6SM VCSH
                       BKN030 FM1100 18006KT P6SM OVC012
                      TEMPO 1316 4SM BR OVC006 FM1700 23008KT P6SM
                       BKN020 FM2000 33006KT P6SM SCT030 SCT250=
200807292300 KPAE 300357Z 300424 23010KT P6SM SCT005 BKN015 OVC030
                      TEMPO 0408 3SM -SHRA BKN005 OVC012 FM0800
                       VRB04KT P6SM VCSH BKN015 BKN040 FM1700 23008KT
                       P6SM BKN020 BKN050 FM2000 33006KT P6SM SCT030
                       BKN050=
200807291728 TAF KPAE 291728Z 291818 16014KT P6SM -RA OVC050 FM2000 18015G28KT
                       5SM -RA BR OVC025 FM0100 25015G28KT P6SM
                       -SHRA BKN030 FM0800 25010KT P6SM VCSH BKN030
                       FM1100 18006KT P6SM OVC012
                      TEMPO 1316 4SM BR OVC006=
200807291120 TAF KPAE 291120Z 291212 20007KT P6SM BKN080 OVC120 FM1800 18010KT
                       P6SM -RA OVC050 FM2000 18012G22KT 5SM -RA
                       BR OVC025 FM0100 21012KT P6SM -SHRA BKN020
                       BKN050
                      TEMPO 0206 4SM SHRA BR OVC015 FM0600 30010KT
                       P6SM VCSH BKN015=
200807290520 TAF KPAE 290520Z 290606 VRB04KT P6SM OVC150 FM1200 16010KT P6SM
                       SCT040 OVC080 FM1800 16014KT P6SM -RA OVC040
                       FM2000 16014KT 3SM -RA BR OVC020 FM0000
                       21012KT P6SM -SHRA BKN030
                      TEMPO 0206 5SM -SHRA OVC020=
200807282338 TAF KPAE 282338Z 290024 28007KT P6SM BKN250 FM1000 14008KT P6SM
                       OVC080 FM1400 16010KT P6SM BKN022 OVC045
                       TEMPO 1418 -RA FM1800 17012KT P6SM -RA BKN016
                       OVC026
                      TEMPO 1923 3SM -RA BR OVC013=
200807281739 TAF KPAE 281739Z 281818 00000KT P6SM BKN200 FM0000 15008KT P6SM
                       SCT250 FM1000 14008KT P6SM OVC080 FM1400
                       16010KT P6SM BKN022 OVC045
                      TEMPO 1418 -RA=
200807281135 TAF KPAE 281135Z 281212 VRB04KT P6SM SCT030 FM2100 VRB04KT P6SM
                       BKN200 FM0600 16010KT P6SM OVC120=
200807280520 TAF KPAE 280520Z 280606 36006KT P6SM SCT010 BKN040 FM1100 VRB04KT
                       P6SM BKN010
                      TEMPO 1115 3SM BR BKN005 FM1700 VRB04KT P6SM
                       SCT020 BKN200=
200807280234 TAF AMD KPAE 280234Z 280324 02008KT P6SM SCT003 BKN040
                      TEMPO 0305 3SM BR BKN003 FM1700 22005KT P6SM
                       BKN200=
200807280157 TAF AMD KPAE 280157Z 280224 VRB06KT 3SM BR BKN003 OVC030
                      TEMPO 0205 1SM BR OVC001 FM1700 22005KT P6SM
                       SCT010 BKN200=
200807272320 TAF KPAE 272320Z 280024 36007G15KT P6SM VCSH BKN003 BKN030 FM0200
                       36004KT P6SM BKN030 FM0800 VRB03KT P6SM
                       SCT030 FM1200 22004KT 2SM BR VV002 FM1700
                       22005KT P6SM BKN200=
200807272300 KPAE 280234Z 280324 02008KT P6SM SCT003 BKN040
                      TEMPO 0305 3SM BR BKN003 FM1700 22005KT P6SM
                       BKN200=
200807272022 KPAE 272022Z 272018 01005KT 2SM -RA BR OVC008
                      TEMPO 2022 1/4SM -RA FG BKN001 OVC005 FM2200
                       28006KT P6SM VCSH BKN015 OVC035 FM0000 02004KT
                       P6SM BKN030 BKN050 FM0400 36004KT P6SM BKN035
                       FM0800 VRB03KT P6SM SCT035 FM1200 22004KT
                       4SM BR VV002=
200807272006 KPAE 272006Z 272018 01005KT 3SM -RA BR SCT005 OVC010
                      TEMPO 2022 1 1/2SM -RA BR BKN005 FM2200 28006KT
                       P6SM VCSH BKN015 OVC035 FM0000 02004KT P6SM
                       BKN030 BKN050 FM0400 36004KT P6SM BKN035
                       FM0800 VRB03KT P6SM SCT035 FM1200 22004KT
                       4SM BR VV002=
200807271903 KPAE 271903Z 271918 20007KT 3SM -SHRA OVC008 FM2100 28006KT P6SM
                       VCSH BKN015 OVC035 FM0000 02004KT P6SM BKN030
                       BKN050 FM0400 36004KT P6SM BKN035 FM0800
                       VRB03KT P6SM SCT035 FM1200 22004KT 4SM BR
                       VV002=
200807271730 TAF KPAE 271730Z 271818 20007KT P6SM VCSH BKN005 OVC008 FM2000
                       28006KT P6SM VCSH BKN015 OVC035 FM0000 02004KT
                       P6SM BKN030 BKN050 FM0400 36004KT P6SM BKN035
                       FM0800 VRB03KT P6SM SCT035 FM1200 22004KT
                       4SM BR VV002=
200807271402 KPAE 271402Z 271412 00000KT 2SM BR OVC005
                      TEMPO 1416 1/2SM -DZ FG OVC002 FM1700 18006KT
                       P6SM BKN010 OVC030 FM2000 27007KT P6SM SCT025
                       BKN050=
200807271123 TAF KPAE 271123Z 271212 00000KT P6SM OVC005
                      TEMPO 1216 3SM -DZ BR OVC003 FM1700 18006KT
                       P6SM BKN010 OVC030 FM2000 27007KT P6SM SCT025
                       BKN050=
200807271010 KPAE 271010Z 271006 00000KT P6SM OVC005
                      TEMPO 1014 4SM BR OVC003 FM1700 18006KT P6SM
                       BKN010 OVC030 FM1900 22007KT P6SM SCT025
                       BKN050=
200807270525 TAF KPAE 270525Z 270606 VRB04KT P6SM SCT030 BKN050
                      TEMPO 0812 BKN030 OVC050 FM1200 18006KT P6SM
                       BKN020 OVC040 FM1900 22007KT P6SM SCT025
                       BKN050=
200807262337 TAF KPAE 262337Z 270024 26004KT P6SM BKN035 OVC060 FM0400 28004KT
                       P6SM SCT035 BKN050 FM0800 02004KT P6SM VCSH
                       BKN030 FM1000 VRB04KT P6SM -SHRA OVC008
                       FM2100 20005KT P6SM VCSH BKN020=
200807261904 KPAE 261904Z 261918 21008KT P6SM OVC070 FM2130 20005KT P6SM OVC050
                       FM0200 VRB04KT P6SM OVC025 FM0900 01004KT
                       P6SM -SHRA OVC008 FM1600 20005KT P6SM BKN020=
200807261730 TAF KPAE 261730Z 261818 19007KT P6SM SCT050 BKN080 FM1900 21006KT
                       P6SM BKN030 OVC040 FM0200 VRB04KT P6SM OVC025
                       FM0900 01004KT P6SM -SHRA OVC008 FM1600
                       20005KT P6SM BKN020=
200807261612 KPAE 261612Z 261612 VRB03KT P6SM SCT100 SCT200 FM1900 21005KT P6SM
                       BKN050 BKN100 FM0600 18006KT P6SM BKN020=
200807261120 TAF KPAE 261120Z 261212 VRB03KT P6SM SCT100 SCT200 FM1900 21005KT
                       P6SM SCT050 BKN100 FM0600 18006KT P6SM BKN040=
200807260520 TAF KPAE 260520Z 260606 VRB04KT P6SM SCT050 BKN100 FM1200 21005KT
                       P6SM VCSH BKN030 OVC050 FM1900 24006KT P6SM
                       BKN030 BKN050=
200807252329 TAF KPAE 252329Z 260024 26007KT P6SM SCT200 FM0400 VRB04KT P6SM
                       SCT040 BKN060 OVC100 FM1200 21005KT P6SM
                       VCSH BKN030 OVC050 FM1900 24006KT P6SM BKN030
                       BKN050=
200807251736 TAF KPAE 251736Z 251818 VRB04KT P6SM SCT200 FM2300 35006KT P6SM
                       SCT200 FM0600 VRB04KT P6SM SCT040 BKN060
                       OVC100 FM1700 21006KT P6SM BKN040 OVC060=
200807251451 KPAE 251451Z 251512 00000KT P6SM SKC FM1700 21005KT P6SM SCT250
                       FM2200 22007KT P6SM BKN200 FM0700 16006KT
                       P6SM FEW035 SCT120 OVC200=
200807251125 TAF KPAE 251125Z 251212 VRB03KT P6SM FEW250 FM1300 16006KT P6SM
                       SCT004 SCT250
                      TEMPO 1316 2SM BR BKN003 FM1700 21005KT P6SM
                       SCT250 FM2200 22007KT P6SM BKN200 FM0700
                       16006KT P6SM FEW035 SCT120 OVC200=
200807250523 TAF KPAE 250523Z 250606 VRB04KT P6SM SCT250 FM1300 16006KT P6SM
                       SCT005 SCT250 FM1600 18004KT P6SM SCT250
                       FM2300 22005KT P6SM SCT120 BKN200=
200807242322 TAF KPAE 242322Z 250024 VRB04KT P6SM FEW250 FM1300 19006KT P6SM
                       SCT003 FM1600 18004KT P6SM SKC FM2200 19005KT
                       P6SM BKN200=
200807241727 TAF KPAE 241727Z 241818 03005KT P6SM SCT003 FM1900 36005KT P6SM
                       SKC FM1300 19006KT P6SM SCT003 FM1600 18004KT
                       P6SM SKC=
200807241312 KPAE 241312Z 241312 36004KT 1/4SM FG OVC001 FM1600 36004KT 3SM
                       BR BKN002 FM1700 36004KT P6SM BKN006 FM1800
                       36008KT P6SM FEW050=
200807241133 TAF KPAE 241133Z 241212 00000KT P6SM OVC003
                      TEMPO 1215 5SM BR BKN005 OVC028 FM1500 36004KT
                       P6SM SCT006 BKN030
                      TEMPO 1518 BKN006 BKN025 FM1900 35007KT P6SM
                       FEW035=
200807241000 KPAE 241000Z 241006 01004KT P6SM SCT003 BKN028
                      TEMPO 1014 5SM BR BKN003 OVC028 FM1400 36004KT
                       P6SM SCT005 SCT025
                      TEMPO 1417 SCT005 BKN025 FM1700 35007KT P6SM
                       FEW035=
200807240522 TAF KPAE 240522Z 240606 00000KT P6SM SCT035
                      TEMPO 1014 BKN030 FM1700 35007KT P6SM FEW045=
200807232323 TAF KPAE 232323Z 240024 17003KT P6SM OVC025 FM0300 34004KT P6SM
                       SKC=
200807232131 KPAE 232131Z 232218 24007KT P6SM OVC025 FM2300 21006KT P6SM SCT030
                       BKN050 FM0200 34004KT P6SM SKC=
200807231725 TAF KPAE 231725Z 231818 24006KT P6SM BKN020 OVC050 FM2000 22007KT
                       P6SM SCT030 BKN060 FM2200 24007KT P6SM SCT070
                       FM0200 34004KT P6SM SKC=
200807231630 KPAE 231630Z 231712 22006KT P6SM OVC019 FM1800 21005KT P6SM BKN035
                       FM2100 29006KT P6SM SCT040 FM0000 31006KT
                       P6SM SKC=
200807231120 TAF KPAE 231120Z 231212 18006KT P6SM SCT014 OVC035
                      TEMPO 1216 BKN014 OVC030 FM1800 21005KT P6SM
                       BKN035 FM2100 29006KT P6SM SCT040 FM0000
                       31006KT P6SM SKC=
200807230525 TAF KPAE 230525Z 230606 17006KT P6SM OVC035 FM1100 18006KT P6SM
                       SCT009 OVC030
                      TEMPO 1216 BKN009 OVC030 FM1800 24005KT P6SM
                       BKN030 FM2100 29006KT P6SM SCT035 FM0000
                       31006KT P6SM SKC=
200807230222 KPAE 230222Z 230224 18007KT P6SM OVC035 FM0600 18006KT P6SM OVC025
                       FM1100 VRB03KT P6SM OVC009 FM1800 34005KT
                       P6SM SCT030=
200807222326 TAF KPAE 222326Z 230024 19010KT P6SM OVC025
                      TEMPO 0001 BKN030 FM0100 19009KT P6SM SCT035
                       FM1100 VRB03KT P6SM OVC009 FM1800 34005KT
                       P6SM SCT030=
200807222300 KPAE 230222Z 230224 18007KT P6SM OVC035 FM0600 18006KT P6SM OVC025
                       FM1100 VRB03KT P6SM OVC009 FM1800 34005KT
                       P6SM SCT030=
200807221727 TAF KPAE 221727Z 221818 21011KT P6SM OVC013
                      TEMPO 1820 SCT016 OVC035 FM2000 22006KT P6SM
                       SCT020 BKN035 FM2300 22007KT P6SM SCT040
                       SCT250 FM1100 VRB03KT P6SM BKN009 BKN035=
200807221125 TAF KPAE 221125Z 221212 VRB03KT P6SM SCT011 OVC035
                      TEMPO 1317 BKN011 OVC035 FM1700 19005KT P6SM
                       BKN016 OVC035
                      TEMPO 1720 SCT016 OVC035 FM2000 22006KT P6SM
                       BKN035 FM2300 22007KT P6SM SCT040 SCT250
                       FM1100 VRB03KT P6SM BKN009 BKN035=
200807220906 KPAE 220906Z 220906 VRB03KT P6SM BKN040 FM1200 VRB03KT P6SM SCT009
                       BKN035 FM1300 21006KT P6SM OVC009
                      TEMPO 1317 SCT009 OVC035 FM1700 19005KT P6SM
                       BKN016 OVC035 FM2000 22006KT P6SM BKN035
                       FM2300 22007KT P6SM SCT250=
200807220520 TAF KPAE 220520Z 220606 35005KT P6SM SKC FM1000 VRB03KT P6SM SKC
                       FM1200 VRB03KT P6SM OVC009 FM1700 19005KT
                       P6SM OVC016 FM2000 22006KT P6SM BKN025 FM2300
                       22007KT P6SM SCT250=
200807212333 TAF KPAE 212333Z 220024 35005KT P6SM SKC FM1100 18006KT P6SM OVC009
                       FM2000 18008KT P6SM BKN022 FM2300 19007KT
                       P6SM SCT250=
200807211722 TAF KPAE 211722Z 211818 VRB03KT P6SM SCT008 FM1900 34008KT P6SM
                       SKC FM1100 28006KT P6SM OVC009=
200807211543 KPAE 211543Z 211612 00000KT P6SM OVC006 FM1700 VRB03KT P6SM SKC
                       FM2000 34008KT P6SM SKC FM0900 28006KT P6SM
                       OVC009=
200807211136 TAF KPAE 211136Z 211212 VRB03KT P6SM SKC FM1400 VRB03KT P6SM SCT001
                       TEMPO 1416 3SM BR BKN001 FM1700 VRB03KT
                       P6SM SKC FM2000 34008KT P6SM SKC FM0900
                       28006KT P6SM OVC009=
200807210530 TAF KPAE 210530Z 210606 01004KT P6SM SKC FM1000 VRB03KT P6SM SCT002
                       TEMPO 1012 5SM BR BKN002 FM1200 VRB03KT
                       5SM BR OVC001
                      TEMPO 1315 3/4SM BR FM1600 VRB03KT P6SM BKN002
                       FM1700 34008KT P6SM SKC=
200807202328 TAF KPAE 202328Z 210024 34007KT P6SM SKC FM0500 01004KT P6SM SKC
                       FM1200 34003KT P6SM BKN004
                      TEMPO 1317 SCT004 FM1700 34004KT P6SM SKC
                       FM2100 30009KT P6SM SKC=
200807201727 TAF KPAE 201727Z 201818 31004KT P6SM SKC FM2100 33008KT P6SM SKC
                       FM0500 01004KT P6SM SKC FM1200 34003KT P6SM
                       BKN004
                      TEMPO 1317 SCT004 FM1700 34004KT P6SM SKC=
200807201327 KPAE 201327Z 201312 01004KT P6SM SCT003
                      TEMPO 1316 BKN003 FM1900 33008KT P6SM SKC=
200807201131 TAF KPAE 201131Z 201212 01004KT P6SM SKC
                      TEMPO 1416 SCT003 FM1900 33008KT P6SM SKC=
200807200528 TAF KPAE 200528Z 200606 01006KT P6SM SKC FM1200 01003KT P6SM SCT003
                       FM1700 33006KT P6SM SKC=
200807192327 TAF KPAE 192327Z 200024 36006KT P6SM SKC FM0500 01005KT P6SM SKC
                       FM1200 01003KT P6SM BKN003
                      TEMPO 1317 SCT003 FM1700 30006KT P6SM FEW010=
200807191731 TAF KPAE 191731Z 191818 01004KT P6SM OVC007
                      TEMPO 1820 SCT007 FM2000 32007KT P6SM SCT016
                       FM2100 32008KT P6SM SKC FM0500 01005KT P6SM
                       SKC FM1200 01003KT P6SM SCT003=
200807191614 KPAE 191614Z 191612 34004KT P6SM BKN003 OVC030
                      TEMPO 1618 4SM BR OVC003 FM1800 32005KT P6SM
                       SCT030
                      TEMPO 1820 BKN030 FM2100 34008KT P6SM SKC=
200807191410 KPAE 191410Z 191412 04003KT 3SM BR OVC003
                      TEMPO 1416 6SM BR SCT003 OVC025 FM1600 VRB03KT
                       P6SM SCT040 FM2100 34008KT P6SM SKC=
200807191139 TAF KPAE 191139Z 191212 VRB03KT P6SM SCT003 BKN040
                      TEMPO 1214 BKN003 FM1600 VRB03KT P6SM SCT040
                       FM2100 34008KT P6SM SKC=
200807190536 TAF KPAE 190536Z 190606 22006KT P6SM SKC FM1000 VRB03KT P6SM SCT025
                       TEMPO 1012 BKN025 FM1200 VRB03KT P6SM OVC022
                       FM1800 VRB03KT P6SM SCT030 FM2100 34008KT
                       P6SM SKC=
200807182342 TAF KPAE 182342Z 190024 24009KT P6SM SCT025 FM0200 32010KT P6SM
                       SCT030 FM0700 36006KT P6SM SKC FM1000 36003KT
                       P6SM SCT008 OVC013
                      TEMPO 1115 OVC008 FM1900 30006KT P6SM BKN016
                       OVC025 FM2100 30008KT P6SM SCT025=
200807181723 TAF KPAE 181723Z 181818 20009KT P6SM OVC009
                      TEMPO 1821 SCT009 OVC014 FM2100 25006KT P6SM
                       BKN013 OVC020 FM2300 26006KT P6SM SCT025
                       FM0000 33008KT P6SM SKC FM0900 VRB03KT P6SM
                       OVC009=
200807181630 KPAE 181630Z 181712 20006KT P6SM OVC009
                      TEMPO 1721 SCT009 OVC014 FM2100 25006KT P6SM
                       BKN013 OVC020 FM2300 26006KT P6SM SCT025
                       FM0000 33008KT P6SM SKC FM0900 VRB03KT P6SM
                       OVC009=
200807181136 TAF KPAE 181136Z 181212 VRB05KT P6SM OVC012 FM1900 25006KT P6SM
                       BKN018 FM2100 26006KT P6SM FEW050 FM0000
                       33008KT P6SM SKC
                      TEMPO 0912 P6SM BKN015=
200807180523 TAF KPAE 180523Z 180606 34008KT P6SM SKC
                      TEMPO 0811 BKN008 FM1100 VRB03KT P6SM OVC008
                       FM1900 25006KT P6SM BKN015 FM2000 29006KT
                       P6SM SKC=
200807172321 TAF KPAE 172321Z 180024 28006KT P6SM FEW050 SCT200 FM0200 34008KT
                       P6SM SCT200 FM0800 VRB03KT 4SM BR BKN005
                       FM1100 VRB03KT P6SM OVC010 FM1900 25006KT
                       P6SM BKN015 FM2000 29006KT P6SM FEW050=
200807171924 KPAE 171924Z 171918 25006KT P6SM BKN010 FM2000 28006KT P6SM SCT017
                       FM2100 31006KT P6SM FEW030 SCT200 FM0000
                       34008KT P6SM FEW050 SCT200 FM0900 VRB03KT
                       4SM BR BKN005 BKN200 FM1200 VRB03KT P6SM
                       OVC009=
200807171749 TAF KPAE 171749Z 171818 VRB03KT 3SM BR OVC003
                      TEMPO 1819 1SM BR OVC001 FM1900 VRB03KT P6SM
                       OVC006 FM2000 28006KT P6SM BKN010 FM2100
                       31006KT P6SM SCT028 SCT200 FM0000 34008KT
                       P6SM FEW050 SCT200 FM0900 VRB03KT 4SM BR
                       BKN005 BKN200 FM1200 VRB03KT P6SM OVC009=
200807171626 KPAE 171626Z 171612 VRB03KT 1SM BR VV001
                      TEMPO 1618 1/2SM FG FM1800 VRB03KT 3SM BR
                       OVC003 FM1900 VRB03KT 6SM BR OVC006 FM2000
                       VRB03KT P6SM BKN010 FM2100 31006KT P6SM
                       FEW028 SCT130 FM0000 35006KT P6SM SCT130
                       FM0900 VRB03KT P6SM OVC006=
200807171513 KPAE 171513Z 171512 00000KT 1/2SM FG VV001 FM1700 VRB03KT 1 1/2SM
                       BR OVC003 FM1800 VRB03KT 5SM BR BKN004 FM1900
                       VRB03KT P6SM SKC FM2100 31008KT P6SM SKC
                       FM0900 VRB03KT P6SM OVC006=
200807171130 TAF KPAE 171130Z 171212 00000KT 1/4SM FG VV001
                      TEMPO 1617 1SM BR OVC002 FM1700 VRB03KT 2SM
                       BR OVC002 FM1800 VRB03KT 5SM BR BKN004 FM1900
                       VRB03KT P6SM SKC FM2100 31008KT P6SM SKC
                       FM0900 VRB03KT P6SM OVC006=
200807171009 KPAE 171009Z 171006 00000KT 1/2SM FG VV001
                      TEMPO 1617 1SM BR OVC002 FM1700 VRB03KT 2SM
                       BR OVC002 FM1800 VRB03KT 5SM BR BKN004 FM1900
                       VRB03KT P6SM SKC FM2100 31008KT P6SM SKC=
200807170528 TAF KPAE 170528Z 170606 35006KT P6SM SKC FM1300 VRB03KT P6SM BKN002
                       TEMPO 1316 3SM BR FM1700 VRB03KT P6SM SCT004
                       TEMPO 1718 BKN004 FM1800 VRB03KT P6SM SKC
                       FM2100 31008KT P6SM SKC=
200807162320 TAF KPAE 162320Z 170024 30006KT P6SM SKC FM0300 35006KT P6SM SKC
                       FM1100 VRB03KT P6SM SCT005
                      TEMPO 1114 BKN005 FM1400 19006KT P6SM OVC005
                       FM1800 19008KT P6SM OVC010 FM2000 24008KT
                       P6SM FEW028 FM2200 31008KT P6SM FEW040=
200807161722 TAF KPAE 161722Z 161818 29008KT P6SM SKC FM0100 03008KT P6SM SKC
                       FM0900 16005KT P6SM OVC005=
200807161550 KPAE 161550Z 161612 VRB03KT P6SM FEW003 FM1800 31008KT P6SM SKC
                       FM0100 03008KT P6SM SKC FM0900 16005KT P6SM
                       OVC004=
200807161225 KPAE 161225Z 161212 01006KT P6SM SKC
                      TEMPO 1216 BKN001 FM1600 21006KT P6SM FEW020
                       FM1800 31008KT P6SM SKC FM0100 03008KT P6SM
                       SKC FM0900 16005KT P6SM OVC004=
200807161125 TAF KPAE 161125Z 161212 36009KT P6SM SKC FM1300 VRB04KT P6SM SCT006
                       TEMPO 1316 OVC006 FM1600 21006KT P6SM FEW020
                       FM1800 31008KT P6SM SKC FM0100 03008KT P6SM
                       SKC FM0900 16005KT P6SM OVC004=
200807160523 TAF KPAE 160523Z 160606 36009KT P6SM SKC FM1400 17006KT P6SM SCT006
                       FM1800 21006KT P6SM FEW020 FM2000 31008KT
                       P6SM FEW050=
200807152328 TAF KPAE 152328Z 160024 36006KT P6SM SKC FM1200 VRB03KT P6SM FEW005
                       FM1400 17006KT P6SM OVC005 FM1800 21006KT
                       P6SM BKN010 FM1900 25006KT P6SM FEW050 FM2100
                       31008KT P6SM FEW050=
200807151733 TAF KPAE 151733Z 151818 VRB04KT P6SM SKC FM2000 36007KT P6SM SKC
                       FM1100 16005KT P6SM OVC003
                      TEMPO 1216 1/2SM FG VV001 FM1700 35006KT
                       P6SM SKC=
200807151412 KPAE 151412Z 151412 VRB04KT P6SM SCT200 FM1800 31006KT P6SM SKC
                       FM2200 36007KT P6SM SKC FM0900 16005KT P6SM
                       OVC003
                      TEMPO 1012 1/2SM FG VV001=
200807151120 TAF KPAE 151120Z 151212 03005KT P6SM SCT250 FM1300 VRB04KT P6SM
                       SCT006
                      TEMPO 1316 BKN006 FM1800 31006KT P6SM SKC
                       FM2200 36007KT P6SM SKC FM0900 16005KT P6SM
                       OVC003
                      TEMPO 1012 1/2SM FG VV001=
200807150520 TAF KPAE 150520Z 150606 36005KT P6SM SCT250 FM1300 16005KT P6SM
                       SCT003 OVC009
                      TEMPO 1316 1/2SM FG OVC002 FM1700 24006KT
                       P6SM BKN012 BKN120 FM1800 32007KT P6SM SCT250=
200807150026 TAF KPAE 150026Z 150024 35005KT P6SM SCT250 FM0800 36004KT P6SM
                       SCT250 FM1100 16005KT P6SM SCT003 OVC009
                       TEMPO 1216 1/2SM FG OVC002 FM1800 24006KT
                       P6SM BKN013 BKN120 FM1900 32007KT P6SM SCT250=
200807142300 TAF KPAE 150026Z 150024 35005KT P6SM SCT250 FM0800 36004KT P6SM
                       SCT250 FM1100 16005KT P6SM SCT003 OVC009
                       TEMPO 1216 1/2SM FG OVC002 FM1800 24006KT
                       P6SM BKN013 BKN120 FM1900 32007KT P6SM SCT250=
200807141720 TAF KPAE 141720Z 141818 31006KT P6SM SKC FM2200 34008KT P6SM SCT250
                       FM0800 36004KT P6SM SCT250 FM1100 16005KT
                       P6SM SCT003 OVC009
                      TEMPO 1216 1/2SM FG OVC002=
200807141120 TAF KPAE 141120Z 141212 02004KT P6SM SKC FM1700 27005KT P6SM SCT250
                       FM2000 31008KT P6SM BKN250 FM0200 36005KT
                       P6SM BKN250 FM1000 VRB03KT P6SM SCT250=
200807140520 TAF KPAE 140520Z 140606 35006KT P6SM SKC FM1200 35003KT P6SM BKN006
                       TEMPO 1316 3SM BR OVC003 FM1700 27005KT
                       P6SM SKC=
200807132336 TAF KPAE 132336Z 140024 35008KT P6SM SCT150 FM1200 35003KT P6SM
                       BKN005
                      TEMPO 1316 3SM BR OVC003 FM1700 27005KT P6SM
                       SKC=
200807131729 TAF KPAE 131729Z 131818 31006KT P6SM SCT150 FM0000 35008KT P6SM
                       SKC FM1200 35003KT P6SM BKN005
                      TEMPO 1316 3SM BR OVC003 FM1700 27005KT P6SM
                       SKC=
200807131122 TAF KPAE 131122Z 131212 04004KT P6SM SKC FM1800 32007KT P6SM SKC
                       FM0000 36008KT P6SM SKC=
200807130520 TAF KPAE 130520Z 130606 34006KT P6SM SKC FM1200 VRB03KT P6SM SCT150
                       FM1800 32007KT P6SM SKC=
200807122330 TAF KPAE 122330Z 130024 34006KT P6SM SKC FM1200 VRB03KT P6SM SCT150
                       FM1800 32007KT P6SM SKC=
200807121725 TAF KPAE 121725Z 121818 34006KT P6SM SKC FM1200 VRB03KT P6SM SKC=
200807121120 TAF KPAE 121120Z 121212 02004KT P6SM SKC FM1900 33008KT P6SM SKC
                       FM0300 01006KT P6SM SKC=
200807120520 TAF KPAE 120520Z 120606 35006KT P6SM SKC FM0900 02006KT P6SM SKC
                       FM1900 33008KT P6SM SKC FM0300 01006KT P6SM
                       SKC=
200807112320 TAF KPAE 112320Z 120024 34008KT P6SM SKC=
200807111720 TAF KPAE 111720Z 111818 33008KT P6SM SKC=
200807111123 TAF KPAE 111123Z 111212 01007KT P6SM SKC=
200807110522 TAF KPAE 110522Z 110606 36006KT P6SM SKC=
200807102325 TAF KPAE 102325Z 110024 01006KT P6SM SCT030 FM0400 04006KT P6SM
                       SKC=
200807101733 TAF KPAE 101733Z 101818 35003KT P6SM BKN015 BKN060 FM1900 35007KT
                       P6SM SCT020 SCT060 FM2100 36009KT P6SM SKC
                       FM0400 04006KT P6SM SKC=
200807101605 KPAE 101605Z 101612 34003KT P6SM BKN008 FM1800 32009KT P6SM SKC=
200807101135 TAF KPAE 101135Z 101212 02005KT P6SM FEW060 FM2100 32009KT P6SM
                       SKC=
200807100522 TAF KPAE 100522Z 100606 02010G15KT P6SM SCT060 BKN100 FM1100 34007KT
                       P6SM SCT020
                      TEMPO 1216 BKN010 FM1700 VRB05KT P6SM SCT030
                       FM2000 32009KT P6SM FEW050=
200807092337 TAF KPAE 092337Z 100024 35008KT P6SM SKC FM0400 33008KT P6SM FEW050
                       BKN100 FM0900 34008KT P6SM OVC020
                      TEMPO 1013 P6SM OVC010 FM1800 32008KT P6SM
                       FEW020 OVC030 FM2200 32006KT P6SM SCT040=
200807091739 TAF KPAE 091739Z 091818 32008KT P6SM SKC FM0600 33008KT P6SM FEW250
                       FM1000 34008KT P6SM FEW015 OVC020
                      TEMPO 1013 P6SM BKN002 FM1600 32008KT P6SM
                       FEW020 BKN030=
200807091135 TAF KPAE 091135Z 091212 03006KT P6SM SKC FM1500 35009KT P6SM SKC=
200807090528 TAF KPAE 090528Z 090606 03006KT P6SM SKC FM0900 03005KT P6SM VCFG
                       SKC FM1500 35008KT P6SM SKC=
200807082320 TAF KPAE 082320Z 090024 36007KT P6SM SKC FM0500 03005KT P6SM SKC
                       FM1100 03005KT P6SM VCFG SKC FM1700 36006KT
                       P6SM SKC=
200807081725 TAF KPAE 081725Z 081818 33008KT P6SM SKC FM0500 03005KT P6SM SKC
                       FM1100 03005KT P6SM VCFG SKC FM1700 36006KT
                       P6SM SKC=
200807081423 KPAE 081423Z 081412 VRB03KT P6SM SKC FM1700 35010KT P6SM SKC FM0900
                       03005KT P6SM SKC=
200807081132 TAF KPAE 081132Z 081212 03006KT P6SM SKC
                      TEMPO 1215 BKN010 FM1700 35010KT P6SM SKC
                       FM0900 03005KT P6SM SKC=
200807080520 TAF KPAE 080520Z 080606 36008KT P6SM SKC
                      TEMPO 1115 BKN010=
200807072323 TAF KPAE 072323Z 080024 32006KT P6SM SKC FM0300 36005KT P6SM SKC
                       FM1200 VRB03KT P6SM VCFG FEW003 FM1800 32006KT
                       P6SM SKC=
200807071742 TAF KPAE 071742Z 071818 32007KT P6SM SKC FM0300 36005KT P6SM SKC
                       FM1200 VRB03KT P6SM VCFG FEW003=
200807071120 TAF KPAE 071120Z 071212 02003KT P6SM SKC FM1300 02004KT P6SM SCT004
                       FM1700 32007KT P6SM FEW250 FM0500 01004KT
                       P6SM SKC=
200807070520 TAF KPAE 070520Z 070606 02004KT P6SM SCT200 FM1300 02004KT P6SM
                       SCT004 FM1700 32007KT P6SM FEW250=
200807062320 TAF KPAE 062320Z 070024 36006KT P6SM FEW050 FM0300 01006KT P6SM
                       SKC FM1300 01004KT P6SM SCT004 FM1700 31007KT
                       P6SM FEW250=
200807062109 KPAE 062109Z 062118 35004KT P6SM SCT023 BKN050 FM2300 34006KT P6SM
                       SCT050 FM0300 01006KT P6SM SKC FM1300 01004KT
                       P6SM SCT004 FM1700 31007KT P6SM FEW250=
200807061906 KPAE 061906Z 061918 00000KT P6SM SCT023 BKN050
                      TEMPO 1921 BKN023 BKN050 FM2200 32006KT P6SM
                       SCT060 FM0300 36006KT P6SM SKC FM1000 02005KT
                       P6SM SCT005=
200807061822 TAF KPAE 061822Z 061818 00000KT P6SM SCT020 BKN050
                      TEMPO 1819 BKN020 BKN050 FM2200 32006KT P6SM
                       SCT060 FM0300 36006KT P6SM SKC FM1000 02005KT
                       P6SM SCT005=
200807061820 TAF KPAE 061820Z 061818 00000KT P6SM SCT020 BKN050
                      TEMPO 1819 BKN020 FM2200 32006KT P6SM SCT060
                       FM0300 36006KT P6SM SKC FM1000 02005KT P6SM
                       SCT005=
200807061447 KPAE 061447Z 061512 00000KT P6SM SCT020 OVC045 FM1900 32006KT P6SM
                       SCT035 FM2200 32006KT P6SM FEW040 FM0300
                       36006KT P6SM SKC FM1000 02005KT P6SM SCT005=
200807061157 KPAE 061157Z 061212 00000KT P6SM VCSH BKN020 OVC040 FM1900 32006KT
                       P6SM SCT035 FM2200 32006KT P6SM FEW040 FM0300
                       36006KT P6SM SKC FM1000 02005KT P6SM SCT005=
200807061120 TAF KPAE 061120Z 061212 00000KT P6SM VCSH SCT020 OVC035
                      TEMPO 1317 BKN020 OVC035 FM1900 32006KT P6SM
                       SCT035 FM2200 32006KT P6SM FEW040 FM0300
                       36006KT P6SM SKC FM1000 02005KT P6SM SCT005=
200807060802 KPAE 060802Z 060806 34003KT P6SM OVC025 FM1200 VRB05KT P6SM BKN012
                       OVC025 FM1900 32006KT P6SM SCT035 SCT080
                       FM2200 32006KT P6SM SCT080 FM0300 36006KT
                       P6SM SKC=
200807060524 TAF KPAE 060524Z 060606 02006KT P6SM BKN019 OVC040 FM1100 VRB05KT
                       P6SM BKN009 OVC025 FM1900 32006KT P6SM SCT035
                       SCT080 FM2200 32006KT P6SM SCT080 FM0300
                       36006KT P6SM SKC=
200807060445 TAF AMD KPAE 060445Z 060524 02006KT P6SM BKN019 OVC040 FM1100 VRB05KT
                       P6SM BKN009 OVC025 FM1900 32006KT P6SM SCT020
                       BKN045 FM2200 32006KT P6SM SCT030 SCT060=
200807052333 TAF KPAE 052333Z 060024 19012G22KT P6SM SCT035 SCT070
                      TEMPO 0003 BKN035 BKN070 FM0300 19005KT P6SM
                       VCSH SCT025 BKN040 FM0700 VRB05KT P6SM VCSH
                       BKN025 OVC040 FM1100 VRB05KT P6SM -SHRA
                       BKN012 OVC025 FM2000 32006KT P6SM SCT020
                       BKN045 FM2200 32006KT P6SM SCT030 SCT060=
200807052300 KPAE 060445Z 060524 02006KT P6SM BKN019 OVC040 FM1100 VRB05KT P6SM
                       BKN009 OVC025 FM1900 32006KT P6SM SCT020
                       BKN045 FM2200 32006KT P6SM SCT030 SCT060=
200807051949 KPAE 051949Z 052018 16014G22KT P6SM SCT020 BKN045 BKN100 FM2200
                       18014KT P6SM -RA SCT018 BKN030 OVC045
                      TEMPO 2201 BKN018 OVC030 FM0100 19005KT P6SM
                       VCSH SCT014 BKN020 OVC030 FM0400 VRB03KT
                       P6SM SCT009 BKN016 OVC025
                      TEMPO 0408 -SHRA BKN009 OVC016 FM0900 05005KT
                       P6SM VCSH BKN020 OVC040=
200807051741 TAF KPAE 051741Z 051818 16014G22KT P6SM SCT009 BKN014 OVC030
                      TEMPO 1820 -SHRA BKN009 OVC014 FM2100 18012KT
                       P6SM -RA SCT007 OVC014
                      TEMPO 2201 5SM -RA BR BKN007 OVC014 FM0100
                       19005KT P6SM VCSH SCT014 BKN020 OVC030 FM0400
                       VRB03KT P6SM SCT009 BKN016 OVC025
                      TEMPO 0408 -SHRA BKN009 OVC016 FM0900 05005KT
                       P6SM VCSH BKN020 OVC040=
200807051120 TAF KPAE 051120Z 051212 15007KT P6SM SCT035 OVC060 FM1400 15010KT
                       P6SM SCT020 OVC035
                      TEMPO 1418 BKN020 OVC035 FM1800 17011G20KT
                       P6SM VCSH SCT025 BKN040 FM0000 23005KT P6SM
                       SCT025 BKN040=
200807050529 TAF KPAE 050529Z 050606 19008KT P6SM BKN060 FM1200 16008KT P6SM
                       BKN015 OVC030 FM1800 17011G20KT P6SM VCSH
                       SCT025 BKN040 FM0000 23005KT P6SM SCT025
                       BKN040=
200807042343 TAF KPAE 042343Z 050024 16011KT P6SM SCT035 BKN060 FM0300 15009KT
                       P6SM BKN060 FM1200 15007KT P6SM BKN014 OVC025
                       FM1800 18011KT P6SM BKN020 OVC035
                      PROB30 1821 -RA FM2100 18010KT P6SM BKN022
                       OVC030
                      TEMPO 2124 -RA=
200807042005 KPAE 042005Z 042018 19010KT P6SM SCT026 BKN045
                      TEMPO 2021 BKN026 BKN045 FM0200 15010KT P6SM
                       BKN050 FM1200 16007KT P6SM VCSH BKN012 OVC025=
200807041726 TAF KPAE 041726Z 041818 19010KT P6SM FEW010 SCT028 BKN045 FM2000
                       19010KT P6SM SCT035 BKN050 FM0200 15010KT
                       P6SM BKN050 FM1200 16007KT P6SM VCSH BKN012
                       OVC025=
200807041658 KPAE 041658Z 041712 20006KT P6SM FEW010 SCT028 BKN045 FM2000 21007KT
                       P6SM SCT035 BKN050 FM0200 20006KT P6SM BKN045
                       FM1100 16006KT P6SM BKN020=
200807041311 KPAE 041311Z 041312 VRB03KT P6SM SCT007 BKN045 BKN200
                      TEMPO 1316 BKN007 OVC045 FM1600 20006KT P6SM
                       BKN012 BKN045 FM2000 21007KT P6SM SCT030
                       BKN045 FM0200 20006KT P6SM BKN045 FM1100
                       16006KT P6SM BKN020=
200807041125 TAF KPAE 041125Z 041212 VRB03KT P6SM OVC007
                      TEMPO 1216 3SM BR OVC011 FM1600 20006KT P6SM
                       BKN012 BKN045 FM2000 21007KT P6SM SCT030
                       BKN045 FM0200 20006KT P6SM BKN045 FM1100
                       16006KT P6SM BKN020=
200807040903 KPAE 040903Z 040906 VRB03KT P6SM BKN006 OVC030
                      TEMPO 0912 3SM BR SCT006 BKN035 BKN120 FM1200
                       VRB03KT 3SM BR OVC008 FM1800 20006KT P6SM
                       BKN015 BKN045 FM2000 21007KT P6SM SCT020
                       BKN045 FM0200 20006KT P6SM BKN045=
200807040602 KPAE 040602Z 040606 VRB03KT 5SM BR OVC001
                      TEMPO 0812 1SM BR SCT004 OVC010 FM1200 VRB03KT
                       3SM BR OVC010 FM1800 20006KT P6SM BKN015
                       BKN045 FM2000 21007KT P6SM SCT020 BKN045
                       FM0200 20006KT P6SM BKN045=
200807040520 TAF KPAE 040520Z 040606 VRB03KT 3SM BR SCT015 SCT120
                      TEMPO 0812 1SM BR OVC010 FM1200 VRB03KT 3SM
                       BR OVC010 FM1800 20006KT P6SM BKN015 BKN045
                       FM2000 21007KT P6SM SCT020 BKN045 FM0200
                       20006KT P6SM BKN045=
200807032320 TAF KPAE 032320Z 040024 VRB04KT 5SM HZ SCT010 SCT050 BKN100 FM0600
                       VRB04KT 3SM BR BKN010 BKN050
                      TEMPO 0812 3SM BR OVC010 FM1200 18005KT 3SM
                       BR OVC010 FM1800 21006KT P6SM BKN015 BKN050
                       FM2000 21007KT P6SM SCT020 BKN050=
200807032205 KPAE 032205Z 032218 00000KT 5SM BR BKN003 BKN080 FM2300 VRB04KT
                       P6SM SCT010 BKN080 FM0700 20005KT 4SM BR
                       BKN010 OVC035=
200807032006 KPAE 032006Z 032018 25005KT 2SM BR VCSH SCT002 BKN040 OVC080
                      TEMPO 2022 1/2SM FG BKN002 OVC040 FM2200
                       VRB04KT P6SM VCSH SCT015 BKN045 OVC080
                      TEMPO 2224 BKN015 OVC040 FM0700 20006KT P6SM
                       BKN015 OVC035=
200807031743 TAF KPAE 031743Z 031818 VRB05KT 2SM -SHRA VCTS SCT002 BKN010 OVC030CB
                       TEMPO 1820 1/2SM FG BKN002 OVC010 FM2000
                       VRB04KT P6SM VCSH SCT015 BKN045 OVC080
                      TEMPO 2024 -SHRA BKN015 OVC040 FM0900 20006KT
                       P6SM BKN015 OVC035=
200807031509 KPAE 031509Z 031512 25005KT 4SM -SHRA BR SCT002 BKN020 OVC050
                      TEMPO 1518 1/2SM FG BKN002 OVC017 FM1800
                       VRB04KT P6SM VCSH SCT020 BKN045 OVC080 FM0900
                       20006KT P6SM BKN015 OVC035=
200807031459 KPAE 031459Z 031512 25005KT 4SM -SHRA BR SCT002 BKN020 OVC050 FM1800
                       VRB04KT P6SM VCSH SCT020 BKN045 OVC080 FM0900
                       20006KT P6SM BKN015 OVC035=
200807031307 KPAE 031307Z 031312 18006KT P6SM -SHRA BKN050CB OVC110
                      TEMPO 1315 4SM TSRA FM1500 18006KT P6SM VCTS
                       BKN004 OVC050CB FM1800 VRB04KT P6SM VCSH
                       SCT020 OVC080 FM1000 VRB04KT P6SM BKN010
                       OVC030=
200807031120 TAF KPAE 031120Z 031212 24004KT P6SM VCTS FEW025 BKN050CB FM1400
                       18006KT P6SM VCTS BKN004 OVC050CB FM1800
                       VRB04KT P6SM VCSH SCT020 OVC080 FM1000 VRB04KT
                       P6SM BKN010 OVC030=
200807031008 KPAE 031008Z 031006 27004KT P6SM VCTS BKN035 BKN045CB OVC100
                      TEMPO 1012 2SM +TSRA FM1300 18006KT P6SM
                       VCTS BKN006 OVC050CB FM1800 VRB04KT P6SM
                       VCSH SCT020 OVC080=
200807030944 KPAE 030944Z 031006 00000KT 6SM TSRA BKN080CB OVC120 FM1300 18006KT
                       P6SM VCSH BKN006 OVC050 FM1800 VRB04KT P6SM
                       VCSH SCT020 OVC080=
200807030526 TAF KPAE 030526Z 030606 07003KT P6SM VCTS SCT050 BKN080CB BKN200
                       FM0800 18006KT P6SM VCSH BKN050 OVC080 FM1400
                       18006KT P6SM VCSH BKN006 OVC050 FM1800 VRB04KT
                       P6SM VCSH SCT020 OVC080=
200807030353 TAF AMD KPAE 030353Z 030424 10004KT P6SM VCTS SCT050 BKN080CB OVC110
                       FM0430 18006KT P6SM BKN080 OVC150 FM0600
                       18006KT P6SM VCTS BKN040CB OVC080 FM0900
                       18006KT P6SM VCSH BKN050 OVC080 FM1400 18006KT
                       P6SM BKN006 OVC050 FM1800 VRB04KT P6SM VCSH
                       SCT020 OVC080=
200807030303 TAF AMD KPAE 030303Z 030324 18004KT P6SM TS BKN060CB OVC100 FM0430
                       18008KT P6SM BKN080 OVC150 FM1000 20008KT
                       P6SM VCSH SCT010 BKN080 BKN150 FM1800 22007KT
                       P6SM BKN040 BKN080=
200807022320 TAF KPAE 022320Z 030024 32007KT P6SM SCT150 SCT250 FM0300 30008KT
                       P6SM BKN120 BKN200 FM1000 20008KT P6SM VCSH
                       SCT010 BKN080 BKN150 FM1800 22007KT P6SM
                       BKN040 BKN080=
200807022300 KPAE 030353Z 030424 10004KT P6SM VCTS SCT050 BKN080CB OVC110 FM0430
                       18006KT P6SM BKN080 OVC150 FM0600 18006KT
                       P6SM VCTS BKN040CB OVC080 FM0900 18006KT
                       P6SM VCSH BKN050 OVC080 FM1400 18006KT P6SM
                       BKN006 OVC050 FM1800 VRB04KT P6SM VCSH SCT020
                       OVC080=
200807021720 TAF KPAE 021720Z 021818 32007KT P6SM SCT150 SCT250 FM0300 30008KT
                       P6SM BKN120 BKN200 FM1000 20008KT P6SM VCSH
                       BKN080 BKN150=
200807021120 TAF KPAE 021120Z 021212 01003KT 1/4SM FG VV001 FM1700 VRB05KT P6SM
                       SCT010 SCT200 FM1900 30005KT P6SM BKN200=
200807021013 KPAE 021013Z 021006 02003KT 1SM BR BKN001 FM1700 VRB05KT P6SM SCT010
                       FM1900 30005KT P6SM BKN200=
200807020522 TAF KPAE 020522Z 020606 02003KT P6SM SCT250 FM1100 21005KT 5SM
                       BR SCT005 FM1700 VRB05KT P6SM SCT010 FM1900
                       30005KT P6SM BKN200=
200807012320 TAF KPAE 012320Z 020024 27008KT P6SM SCT250 FM1100 21005KT 5SM
                       BR BKN005 FM1700 VRB05KT P6SM SCT010 FM1900
                       30005KT P6SM BKN200=
200807011729 TAF KPAE 011729Z 011818 22005KT P6SM BKN012 FM1900 VRB05KT P6SM
                       SCT015 FM2200 34005KT P6SM SCT200 FM1100
                       22006KT P6SM BKN012 FM1400 18008KT P6SM
                       OVC010=
200807011257 KPAE 011257Z 011312 26003KT 4SM BR BKN007
                      TEMPO 1315 SCT009 FM1900 21010KT P6SM SCT015
                       SCT200 FM2100 35005KT P6SM SCT200=
200807011122 TAF KPAE 011122Z 011212 26003KT P6SM OVC008 FM1900 21010KT P6SM
                       SCT015 SCT200 FM2100 35005KT P6SM SCT200=
200807010525 TAF KPAE 010525Z 010606 02005KT P6SM SCT250 FM1200 22010KT P6SM
                       BKN015
                      TEMPO 1418 OVC012 FM1900 21010KT P6SM SCT020
                       SCT200 FM2100 35005KT P6SM SCT200=