##########################################################
# Query made at 02/18/2025 19:26:57 UTC
# Time interval: from 10/01/2008 00:00  to 10/31/2008 23:59  UTC
##########################################################

##########################################################
# KPAE, Everett, Snohomish County Airport (United States)
# WMO index: -----. WIGOS ID: Unknown
# Latitude 47-55-23N. Longitude 122-16-57W. Altitude 184 m.
##########################################################

###################################
#  METAR/SPECI from KPAE
###################################
200810312353 METAR KPAE 312353Z 15010G16KT 10SM SCT050 OVC070 14/11 A3006 RMK AO2 SLP179 60006 T01390106 10139 20122 53009=
200810312253 METAR KPAE 312253Z 15011G19KT 10SM SCT085 13/11 A3004 RMK AO2 RAB2155E22 SLP174 P0000 T01330106=
200810312153 METAR KPAE 312153Z VRB06G14KT 9SM FEW004 SCT065 13/11 A3003 RMK AO2 RAE53 SLP171 P0001 T01280106=
200810312134 SPECI KPAE 312134Z VRB05KT 7SM -RA SCT004 BKN043 BKN060 12/11 A3003 RMK AO2 P0001=
200810312134 SPECI KPAE 312134Z VRB05KT 7SM -RA SCT004 BKN043 BKN060 12/11 A3003 RMK AO2 P0001=
200810312053 METAR KPAE 312053Z VRB05KT 4SM -RA BR BKN006 OVC032 12/11 A3003 RMK AO2 SLP169 P0002 60005 T01220106 51016=
200810311953 METAR KPAE 311953Z 15011G16KT 5SM -RA BR FEW006 BKN041 OVC055 12/10 A3002 RMK AO2 SLP166 P0001 T01220100=
200810311853 METAR KPAE 311853Z 18015KT 5SM -RA BR BKN040 OVC049 12/10 A3001 RMK AO2 PK WND 19028/1812 SLP161 P0002 T01220100=
200810311753 METAR KPAE 311753Z 21018G24KT 9SM -RA OVC050 12/09 A2998 RMK AO2 SLP152 P0006 60020 T01220094 10122 20106 53018=
200810311710 SPECI KPAE 311710Z 20015KT 3SM RA BR BKN009 BKN037 OVC050 12/10 A2996 RMK AO2 P0003=
200810311710 SPECI KPAE 311710Z 20015KT 3SM RA BR BKN009 BKN037 OVC050 12/10 A2996 RMK AO2 P0003=
200810311653 METAR KPAE 311653Z 20013KT 2SM RA BR BKN008 OVC034 12/10 A2996 RMK AO2 SLP145 P0009 T01170100=
200810311553 METAR KPAE 311553Z 17007KT 2SM -RA BR BKN009 BKN050 OVC060 11/10 A2993 RMK AO2 SLP134 P0002 T01110100=
200810311550 SPECI KPAE 311550Z 17006KT 2SM -RA BR BKN009 BKN050 OVC060 11/10 A2993 RMK AO2 P0002=
200810311550 SPECI KPAE 311550Z 17006KT 2SM -RA BR BKN009 BKN050 OVC060 11/10 A2993 RMK AO2 P0002=
200810311542 SPECI KPAE 311542Z 17007KT 3SM -RA BR BKN009 BKN040 OVC050 11/10 A2992 RMK AO2 P0001=
200810311542 SPECI KPAE 311542Z 17007KT 3SM -RA BR BKN009 BKN040 OVC050 11/10 A2992 RMK AO2 P0001=
200810311522 SPECI KPAE 311522Z 15007KT 4SM -RA BR SCT014 SCT022 OVC050 11/09 A2992 RMK AO2 P0001=
200810311522 SPECI KPAE 311522Z 15007KT 4SM -RA BR SCT014 SCT022 OVC050 11/09 A2992 RMK AO2 P0001=
200810311513 SPECI KPAE 311513Z 15007KT 4SM -RA BR FEW011 BKN014 OVC050 11/09 A2992 RMK AO2 P0000=
200810311513 SPECI KPAE 311513Z 15007KT 4SM -RA BR FEW011 BKN014 OVC050 11/09 A2992 RMK AO2 P0000=
200810311453 METAR KPAE 311453Z 15008KT 5SM -RA BR SCT011 OVC055 11/09 A2992 RMK AO2 RAB1356 SLP131 P0002 60003 T01110094 51021=
200810311353 METAR KPAE 311353Z 00000KT 6SM BR OVC080 11/09 A2990 RMK AO2 RAE33 SLP127 P0000 T01110089=
200810311253 METAR KPAE 311253Z AUTO 18005KT 6SM -RA BR FEW065 OVC080 11/09 A2990 RMK AO2 SLP124 P0001 T01060089=
200810311153 METAR KPAE 311153Z AUTO 00000KT 8SM -RA OVC080 11/09 A2985 RMK AO2 SLP110 P0001 60001 70003 T01110089 10161 20111 58001=
200810311053 METAR KPAE 311053Z AUTO 00000KT 9SM -RA OVC080 13/09 A2986 RMK AO2 RAB40 SLP112 P0000 T01280089=
200810310953 METAR KPAE 310953Z AUTO 20004KT 10SM OVC080 12/09 A2988 RMK AO2 SLP118 T01170089=
200810310853 METAR KPAE 310853Z AUTO VRB04KT 10SM OVC090 15/07 A2986 RMK AO2 SLP110 T01500072 58008=
200810310753 METAR KPAE 310753Z AUTO 07005KT 10SM OVC085 14/08 A2987 RMK AO2 SLP114 T01440078 401610061=
200810310653 METAR KPAE 310653Z AUTO 00000KT 10SM FEW085 14/08 A2988 RMK AO2 SLP118 T01390083=
200810310553 METAR KPAE 310553Z AUTO 12003KT 10SM OVC085 16/07 A2988 RMK AO2 SLP119 60000 T01610072 10161 20117 55010=
200810310453 METAR KPAE 310453Z AUTO 11005KT 10SM BKN080 16/07 A2988 RMK AO2 RAB0358E33 SLP119 P0000 T01560072=
200810310353 METAR KPAE 310353Z AUTO 11007KT 10SM OVC085 14/08 A2990 RMK AO2 RAB07E20 SLP125 P0000 T01440078=
200810310253 METAR KPAE 310253Z 13003KT 10SM OVC085 13/08 A2991 RMK AO2 SLP130 T01330083 53001=
200810310153 METAR KPAE 310153Z 16004KT 10SM FEW070 OVC095 12/09 A2991 RMK AO2 SLP130 T01220089=
200810310100 METAR KPAE NIL=
200810302353 METAR KPAE 302353Z 00000KT 10SM BKN090 13/08 A2991 RMK AO2 SLP129 60002 T01330083 10133 20106 55006=
200810302253 METAR KPAE 302253Z 00000KT 10SM BKN095 13/09 A2991 RMK AO2 RAB02E16 SLP128 P0000 T01330089=
200810302153 METAR KPAE 302153Z 19005KT 7SM FEW038 SCT095 12/09 A2992 RMK AO2 RAE43 SLP132 P0002 T01220094=
200810302053 METAR KPAE 302053Z 17006KT 8SM -RA SCT048 SCT075 BKN090 12/08 A2993 RMK AO2 RAB45 SLP135 P0000 60000 T01220083 51007=
200810301953 METAR KPAE 301953Z 16005KT 8SM FEW075 SCT095 12/08 A2991 RMK AO2 RAE09 SLP130 P0000 T01170078=
200810301853 METAR KPAE 301853Z COR 16007KT 8SM -RA OVC090 11/08 A2992 RMK AO2 RAB47 SLP134 P0000 T01110078=
200810301753 METAR KPAE 301753Z 17011KT 5SM BR SCT030 BKN120 OVC200 10/08 A2991 RMK AO2 SLP129 T01000078 10100 20061 51017=
200810301703 SPECI KPAE 301703Z 17011G16KT 3SM BR CLR 09/08 A2990 RMK AO2=
200810301703 SPECI KPAE 301703Z 17011G16KT 3SM BR CLR 09/08 A2990 RMK AO2=
200810301653 METAR KPAE 301653Z 17012KT 2 1/2SM BR FEW003 09/07 A2989 RMK AO2 SLP124 T00890072=
200810301640 SPECI KPAE 301640Z 16011KT 2SM BR SCT001 09/07 A2989 RMK AO2=
200810301640 SPECI KPAE 301640Z 16011KT 2SM BR SCT001 09/07 A2989 RMK AO2=
200810301623 SPECI KPAE 301623Z 16011KT 1SM BR OVC001 08/07 A2989 RMK AO2 RVRNO=
200810301623 SPECI KPAE 301623Z 16011KT 1SM BR OVC001 08/07 A2989 RMK AO2 RVRNO=
200810301553 METAR KPAE 301553Z 16006KT M1/4SM FG VV001 08/07 A2987 RMK AO2 SLP117 T00780067 RVRNO=
200810301546 SPECI KPAE 301546Z 18006KT 1/4SM FG VV001 07/06 A2987 RMK AO2 RVRNO=
200810301546 SPECI KPAE 301546Z 18006KT 1/4SM FG VV001 07/06 A2987 RMK AO2 RVRNO=
200810301535 SPECI KPAE 301535Z 17006KT 1SM BR BKN002 07/06 A2986 RMK AO2 RVRNO=
200810301535 SPECI KPAE 301535Z 17006KT 1SM BR BKN002 07/06 A2986 RMK AO2 RVRNO=
200810301518 SPECI KPAE 301518Z 17005KT 2SM BR SCT002 07/06 A2986 RMK AO2=
200810301518 SPECI KPAE 301518Z 17005KT 2SM BR SCT002 07/06 A2986 RMK AO2=
200810301500 SPECI KPAE 301500Z 18005KT 3SM BR SCT002 07/06 A2986 RMK AO2=
200810301500 SPECI KPAE 301500Z 18005KT 3SM BR SCT002 07/06 A2986 RMK AO2=
200810301453 METAR KPAE 301453Z 18005KT 3SM BR CLR 07/06 A2985 RMK AO2 SLP111 T00720061 53009=
200810301353 METAR KPAE 301353Z 00000KT 5SM BR BKN100 07/05 A2984 RMK AO2 SLP106 T00720050=
200810301253 METAR KPAE 301253Z AUTO 00000KT 3SM BR FEW100 07/06 A2983 RMK AO2 SLP104 T00720056=
200810301153 METAR KPAE 301153Z AUTO 00000KT 3SM BR FEW095 08/06 A2983 RMK AO2 SLP100 T00780061 10100 20078 55009=
200810301053 METAR KPAE 301053Z AUTO 00000KT 6SM BR CLR 08/06 A2983 RMK AO2 SLP100 T00830061=
200810300953 METAR KPAE 300953Z AUTO 02003KT 5SM BR CLR 08/07 A2983 RMK AO2 SLP103 T00830067=
200810300853 METAR KPAE 300853Z AUTO 03003KT 6SM BR FEW085 09/07 A2985 RMK AO2 SLP109 T00890067 56016=
200810300753 METAR KPAE 300753Z AUTO 03004KT 6SM BR CLR 09/07 A2987 RMK AO2 SLP114 T00890067 401440083=
200810300653 METAR KPAE 300653Z AUTO VRB03KT 6SM BR CLR 09/07 A2988 RMK AO2 SLP118 T00890067=
200810300553 METAR KPAE 300553Z AUTO 00000KT 7SM CLR 09/06 A2990 RMK AO2 SLP126 T00940061 10133 20089 58012=
200810300453 METAR KPAE 300453Z AUTO 00000KT 7SM CLR 10/06 A2992 RMK AO2 SLP132 T01000061=
200810300353 METAR KPAE 300353Z 00000KT 8SM CLR 11/06 A2993 RMK AO2 SLP136 T01060061=
200810300253 METAR KPAE 300253Z 00000KT 9SM CLR 12/06 A2994 RMK AO2 SLP139 T01170061 58013=
200810300153 METAR KPAE 300153Z 00000KT 9SM CLR 12/06 A2995 RMK AO2 SLP144 T01220061=
200810300053 METAR KPAE 300053Z 17003KT 9SM CLR 13/06 A2996 RMK AO2 SLP147 T01280061=
200810292353 METAR KPAE 292353Z 16005KT 9SM CLR 13/06 A2998 RMK AO2 SLP152 T01330061 10144 20117 58012=
200810292253 METAR KPAE 292253Z 15006KT 10SM BKN150 14/06 A2999 RMK AO2 SLP156 T01390061=
200810292153 METAR KPAE 292153Z 17007KT 7SM CLR 14/07 A3000 RMK AO2 SLP160 T01440067=
200810292053 METAR KPAE 292053Z 17009KT 10SM FEW025 13/07 A3001 RMK AO2 SLP164 T01330067 58015=
200810291953 METAR KPAE 291953Z 17007KT 6SM HZ BKN023 13/07 A3003 RMK AO2 SLP171 T01330072=
200810291945 SPECI KPAE 291945Z 20007KT 7SM BKN025 13/07 A3004 RMK AO2=
200810291945 SPECI KPAE 291945Z 20007KT 7SM BKN025 13/07 A3004 RMK AO2=
200810291936 SPECI KPAE 291936Z 18010KT 7SM SCT025 13/07 A3004 RMK AO2=
200810291936 SPECI KPAE 291936Z 18010KT 7SM SCT025 13/07 A3004 RMK AO2=
200810291909 SPECI KPAE 291909Z 17010KT 8SM BKN027 13/07 A3005 RMK AO2=
200810291909 SPECI KPAE 291909Z 17010KT 8SM BKN027 13/07 A3005 RMK AO2=
200810291853 METAR KPAE 291853Z 18008KT 8SM SCT029 13/07 A3005 RMK AO2 SLP177 T01330072=
200810291753 METAR KPAE 291753Z 16009KT 8SM CLR 12/07 A3006 RMK AO2 SLP179 T01170072 10117 20100 55004=
200810291653 METAR KPAE 291653Z 15008KT 7SM CLR 11/07 A3006 RMK AO2 SLP179 T01060067=
200810291553 METAR KPAE 291553Z 15006KT 8SM OVC035 10/07 A3007 RMK AO2 SLP182 T01000067=
200810291453 METAR KPAE 291453Z 00000KT 9SM OVC037 10/07 A3007 RMK AO2 SLP184 T01000067 56009=
200810291353 METAR KPAE 291353Z 00000KT 9SM OVC039 10/07 A3008 RMK AO2 SLP185 T01000067=
200810291253 METAR KPAE 291253Z AUTO VRB04KT 10SM OVC039 11/07 A3009 RMK AO2 SLP189 T01060072=
200810291153 METAR KPAE 291153Z AUTO 15009KT 10SM OVC039 11/07 A3010 RMK AO2 SLP193 T01060072 10111 20106 58020=
200810291053 METAR KPAE 291053Z AUTO 15005KT 10SM OVC039 11/07 A3012 RMK AO2 SLP200 T01060072=
200810290953 METAR KPAE 290953Z AUTO VRB05KT 9SM OVC037 11/07 A3014 RMK AO2 SLP207 T01060072=
200810290853 METAR KPAE 290853Z AUTO VRB03KT 8SM OVC037 11/07 A3016 RMK AO2 SLP213 T01060072 58005=
200810290753 METAR KPAE 290753Z AUTO VRB04KT 7SM OVC037 11/07 A3017 RMK AO2 SLP218 T01060072 401330050=
200810290653 METAR KPAE 290653Z AUTO 15008KT 8SM OVC035 11/08 A3018 RMK AO2 SLP220 T01110078=
200810290553 METAR KPAE 290553Z AUTO VRB04KT 8SM CLR 11/08 A3018 RMK AO2 SLP220 T01110078 10122 20100 56010=
200810290527 SPECI KPAE 290527Z AUTO 15005KT 9SM SCT031 12/08 A3018 RMK AO2=
200810290527 SPECI KPAE 290527Z AUTO 15005KT 9SM SCT031 12/08 A3018 RMK AO2=
200810290453 METAR KPAE 290453Z AUTO 16006KT 8SM BKN029 11/08 A3019 RMK AO2 SLP224 T01110078=
200810290446 SPECI KPAE 290446Z AUTO 16005KT 7SM BKN029 11/07 A3019 RMK AO2=
200810290446 SPECI KPAE 290446Z AUTO 16005KT 7SM BKN029 11/07 A3019 RMK AO2=
200810290353 METAR KPAE 290353Z AUTO VRB03KT 8SM CLR 12/08 A3018 RMK AO2 SLP222 T01170078=
200810290253 METAR KPAE 290253Z 00000KT 7SM CLR 12/08 A3021 RMK AO2 SLP231 T01220078 58006=
200810290153 METAR KPAE 290153Z 15005KT 7SM SCT023 12/08 A3022 RMK AO2 SLP235 T01170078=
200810290053 METAR KPAE 290053Z 18004KT 5SM HZ CLR 11/08 A3022 RMK AO2 SLP237 T01110078=
200810282353 METAR KPAE 282353Z 22004KT 5SM HZ CLR 12/08 A3023 RMK AO2 SLP237 T01220083 10133 20078 57003=
200810282253 METAR KPAE 282253Z 00000KT 5SM HZ CLR 12/08 A3023 RMK AO2 SLP239 T01220083=
200810282153 METAR KPAE 282153Z 26003KT 4SM HZ CLR 12/08 A3023 RMK AO2 SLP239 T01170078=
200810282053 METAR KPAE 282053Z 00000KT 4SM HZ CLR 11/08 A3024 RMK AO2 SLP241 T01110078 58007=
200810282014 SPECI KPAE 282014Z 28003KT 3SM BR SCT003 09/07 A3024 RMK AO2=
200810282014 SPECI KPAE 282014Z 28003KT 3SM BR SCT003 09/07 A3024 RMK AO2=
200810282000 SPECI KPAE 282000Z 00000KT 3SM HZ BKN003 09/07 A3024 RMK AO2=
200810282000 SPECI KPAE 282000Z 00000KT 3SM HZ BKN003 09/07 A3024 RMK AO2=
200810281953 METAR KPAE 281953Z 00000KT 2SM BR BKN003 09/07 A3024 RMK AO2 CIG 002V007 SLP243 T00890067=
200810281853 METAR KPAE 281853Z 23003KT 2SM BR OVC003 08/07 A3026 RMK AO2 SLP251 T00780067=
200810281842 SPECI KPAE 281842Z 30003KT 1 3/4SM BR OVC003 08/07 A3027 RMK AO2 CIG 002V006=
200810281842 SPECI KPAE 281842Z 30003KT 1 3/4SM BR OVC003 08/07 A3027 RMK AO2 CIG 002V006=
200810281814 SPECI KPAE 281814Z 00000KT 2SM BR OVC003 08/07 A3026 RMK AO2=
200810281814 SPECI KPAE 281814Z 00000KT 2SM BR OVC003 08/07 A3026 RMK AO2=
200810281753 METAR KPAE 281753Z 17005KT 1 1/4SM BR OVC001 08/07 A3026 RMK AO2 SLP249 T00780067 10089 20050 51007=
200810281741 SPECI KPAE 281741Z 17005KT 1 1/4SM BR OVC001 08/06 A3026 RMK AO2=
200810281741 SPECI KPAE 281741Z 17005KT 1 1/4SM BR OVC001 08/06 A3026 RMK AO2=
200810281653 METAR KPAE 281653Z 17004KT M1/4SM FG VV001 07/06 A3025 RMK AO2 SLP247 T00720061 RVRNO=
200810281606 SPECI KPAE 281606Z 19004KT M1/4SM FG VV001 07/06 A3024 RMK AO2 RVRNO=
200810281606 SPECI KPAE 281606Z 19004KT M1/4SM FG VV001 07/06 A3024 RMK AO2 RVRNO=
200810281553 METAR KPAE 281553Z 18005KT 1/4SM FG OVC002 07/06 A3025 RMK AO2 SLP245 T00720061 RVRNO=
200810281526 SPECI KPAE 281526Z 21006KT 1/2SM FG OVC002 07/06 A3024 RMK AO2 RVRNO=
200810281526 SPECI KPAE 281526Z 21006KT 1/2SM FG OVC002 07/06 A3024 RMK AO2 RVRNO=
200810281523 SPECI KPAE 281523Z 19006KT 1 3/4SM BR OVC002 07/06 A3024 RMK AO2=
200810281523 SPECI KPAE 281523Z 19006KT 1 3/4SM BR OVC002 07/06 A3024 RMK AO2=
200810281453 METAR KPAE 281453Z 00000KT 6SM BR OVC002 05/04 A3024 RMK AO2 SLP242 T00500039 53008=
200810281434 SPECI KPAE 281434Z 20004KT 7SM FEW002 06/04 A3023 RMK AO2=
200810281434 SPECI KPAE 281434Z 20004KT 7SM FEW002 06/04 A3023 RMK AO2=
200810281353 METAR KPAE 281353Z 00000KT 10SM CLR 06/03 A3023 RMK AO2 SLP239 T00610028=
200810281253 METAR KPAE 281253Z AUTO 16003KT 10SM CLR 08/04 A3021 RMK AO2 SLP232 T00780044=
200810281153 METAR KPAE 281153Z AUTO 21004KT 10SM CLR 07/04 A3021 RMK AO2 SLP232 T00720039 10106 20056 55004=
200810281053 METAR KPAE 281053Z AUTO 00000KT 10SM CLR 07/04 A3021 RMK AO2 SLP230 T00670044=
200810280953 METAR KPAE 280953Z AUTO 00000KT 10SM CLR 08/04 A3022 RMK AO2 SLP235 T00830044=
200810280853 METAR KPAE 280853Z AUTO 14004KT 10SM CLR 08/04 A3022 RMK AO2 SLP236 T00830039 53001=
200810280753 METAR KPAE 280753Z AUTO 16004KT 10SM CLR 10/03 A3022 RMK AO2 SLP234 T01000033 401500050=
200810280653 METAR KPAE 280653Z AUTO 12003KT 9SM CLR 08/04 A3022 RMK AO2 SLP235 T00780039=
200810280553 METAR KPAE 280553Z AUTO 00000KT 10SM CLR 07/03 A3022 RMK AO2 SLP236 T00720033 10133 20072 51007=
200810280453 METAR KPAE 280453Z AUTO 00000KT 9SM CLR 08/03 A3022 RMK AO2 SLP234 T00830033=
200810280353 METAR KPAE 280353Z AUTO 00000KT 10SM CLR 09/03 A3021 RMK AO2 SLP232 T00890028=
200810280253 METAR KPAE 280253Z 00000KT 10SM CLR 09/03 A3020 RMK AO2 SLP229 T00940033 53003=
200810280153 METAR KPAE 280153Z 01003KT 10SM CLR 10/03 A3020 RMK AO2 SLP228 T01000033=
200810280053 METAR KPAE 280053Z 00000KT 10SM CLR 12/03 A3019 RMK AO2 SLP225 T01170028=
200810272353 METAR KPAE 272353Z 36003KT 10SM CLR 13/02 A3019 RMK AO2 SLP226 T01330017 10150 20089 56007=
200810272253 METAR KPAE 272253Z 35004KT 10SM CLR 14/03 A3020 RMK AO2 SLP226 T01440033=
200810272153 METAR KPAE 272153Z 31004KT 10SM CLR 14/03 A3020 RMK AO2 SLP228 T01390028=
200810272053 METAR KPAE 272053Z 00000KT 10SM CLR 14/02 A3021 RMK AO2 SLP232 T01390017 58009=
200810271953 METAR KPAE 271953Z 01003KT 10SM CLR 12/02 A3023 RMK AO2 SLP239 T01220022=
200810271853 METAR KPAE 271853Z 00000KT 10SM CLR 11/03 A3024 RMK AO2 SLP243 T01060028=
200810271753 METAR KPAE 271753Z 03005KT 10SM CLR 09/04 A3024 RMK AO2 SLP242 T00890039 10089 20050 51007=
200810271653 METAR KPAE 271653Z 02005KT 10SM CLR 08/03 A3024 RMK AO2 SLP241 T00830033=
200810271553 METAR KPAE 271553Z 02004KT 9SM CLR 07/03 A3023 RMK AO2 SLP240 T00670033=
200810271453 METAR KPAE 271453Z 02004KT 8SM CLR 06/03 A3022 RMK AO2 SLP236 T00560033 56004=
200810271353 METAR KPAE 271353Z AUTO 00000KT 8SM CLR 06/03 A3022 RMK AO2 SLP236 T00560033=
200810271253 METAR KPAE 271253Z AUTO 00000KT 8SM CLR 06/04 A3023 RMK AO2 SLP238 T00610039=
200810271153 METAR KPAE 271153Z AUTO 00000KT 8SM CLR 06/04 A3023 RMK AO2 SLP240 70001 T00610044 10072 20061 56005=
200810271053 METAR KPAE 271053Z AUTO 01004KT 8SM CLR 06/04 A3024 RMK AO2 SLP240 T00610044=
200810270953 METAR KPAE 270953Z AUTO 02003KT 7SM CLR 07/04 A3025 RMK AO2 SLP244 T00670044=
200810270853 METAR KPAE 270853Z AUTO 02005KT 10SM CLR 07/04 A3025 RMK AO2 SLP245 T00720044 50003=
200810270753 METAR KPAE 270753Z AUTO 01003KT 8SM CLR 07/04 A3025 RMK AO2 SLP246 T00670044 401170044=
200810270653 METAR KPAE 270653Z AUTO 36003KT 8SM CLR 07/04 A3024 RMK AO2 SLP244 T00670044=
200810270553 METAR KPAE 270553Z AUTO 00000KT 9SM CLR 07/04 A3024 RMK AO2 SLP243 T00720044 10111 20067 56003=
200810270453 METAR KPAE 270453Z AUTO 36004KT 10SM CLR 08/04 A3024 RMK AO2 SLP245 T00780044=
200810270353 METAR KPAE 270353Z AUTO 01004KT 10SM CLR 08/05 A3024 RMK AO2 SLP244 T00780050=
200810270253 METAR KPAE 270253Z 36004KT 10SM CLR 08/05 A3025 RMK AO2 SLP246 T00780050 56008=
200810270153 METAR KPAE 270153Z 36005KT 10SM CLR 09/05 A3025 RMK AO2 SLP246 T00890050=
200810270053 METAR KPAE 270053Z 36006KT 10SM CLR 10/04 A3026 RMK AO2 SLP249 T01000039=
200810262353 METAR KPAE 262353Z 35005KT 10SM CLR 11/03 A3027 RMK AO2 SLP253 T01110033 10117 20072 56020=
200810262253 METAR KPAE 262253Z 01005KT 10SM CLR 12/03 A3029 RMK AO2 SLP260 T01170028=
200810262153 METAR KPAE 262153Z 36007KT 10SM CLR 11/03 A3031 RMK AO2 SLP265 T01110028=
200810262053 METAR KPAE 262053Z VRB06KT 10SM CLR 11/02 A3033 RMK AO2 SLP274 T01110022 58019=
200810261953 METAR KPAE 261953Z 35006KT 10SM CLR 09/03 A3036 RMK AO2 SLP283 T00940028=
200810261853 METAR KPAE 261853Z VRB04KT 10SM CLR 09/02 A3038 RMK AO2 SLP292 T00890022=
200810261753 METAR KPAE 261753Z 02006KT 10SM CLR 08/03 A3039 RMK AO2 SLP294 60001 T00780033 10078 20044 56006=
200810261653 METAR KPAE 261653Z 36005KT 10SM CLR 07/04 A3039 RMK AO2 SLP295 T00670039=
200810261553 METAR KPAE 261553Z 36004KT 10SM CLR 06/04 A3039 RMK AO2 SLP296 T00560039=
200810261453 METAR KPAE 261453Z 35004KT 10SM FEW002 04/03 A3041 RMK AO2 SLP300 P0001 60001 T00440033 56003=
200810261353 METAR KPAE 261353Z AUTO 36004KT 4SM FEW003 04/03 A3041 RMK AO2 SLP300 T00440033=
200810261318 SPECI KPAE 261318Z AUTO VRB04KT 5SM SCT003 04/03 A3041 RMK AO2=
200810261318 SPECI KPAE 261318Z AUTO VRB04KT 5SM SCT003 04/03 A3041 RMK AO2=
200810261253 METAR KPAE 261253Z AUTO 35003KT 4SM BKN003 04/03 A3041 RMK AO2 SLP303 T00440033=
200810261153 METAR KPAE 261153Z AUTO 36007KT 9SM SCT004 05/03 A3042 RMK AO2 SLP303 T00500033 10067 20050 58007=
200810261137 SPECI KPAE 261137Z AUTO 35007KT 10SM SCT006 05/03 A3042 RMK AO2=
200810261137 SPECI KPAE 261137Z AUTO 35007KT 10SM SCT006 05/03 A3042 RMK AO2=
200810261053 METAR KPAE 261053Z AUTO 35004KT 7SM BKN006 06/04 A3044 RMK AO2 SLP309 T00560044=
200810261051 SPECI KPAE 261051Z AUTO 35003KT 7SM BKN006 06/04 A3044 RMK AO2=
200810261051 SPECI KPAE 261051Z AUTO 35003KT 7SM BKN006 06/04 A3044 RMK AO2=
200810260953 METAR KPAE 260953Z AUTO 35006KT 9SM FEW006 06/04 A3044 RMK AO2 SLP310 T00610039=
200810260944 SPECI KPAE 260944Z AUTO 35009G14KT 9SM SCT006 06/04 A3044 RMK AO2=
200810260944 SPECI KPAE 260944Z AUTO 35009G14KT 9SM SCT006 06/04 A3044 RMK AO2=
200810260912 SPECI KPAE 260912Z AUTO 34006KT 6SM BKN006 07/05 A3044 RMK AO2 CIG 003V008=
200810260912 SPECI KPAE 260912Z AUTO 34006KT 6SM BKN006 07/05 A3044 RMK AO2 CIG 003V008=
200810260853 METAR KPAE 260853Z AUTO VRB03KT 7SM FEW006 06/04 A3045 RMK AO2 SLP314 T00560039 58009=
200810260815 SPECI KPAE 260815Z AUTO 36005KT 8SM SCT006 06/04 A3046 RMK AO2=
200810260815 SPECI KPAE 260815Z AUTO 36005KT 8SM SCT006 06/04 A3046 RMK AO2=
200810260808 SPECI KPAE 260808Z AUTO VRB05KT 7SM BKN006 06/04 A3046 RMK AO2=
200810260808 SPECI KPAE 260808Z AUTO VRB05KT 7SM BKN006 06/04 A3046 RMK AO2=
200810260753 METAR KPAE 260753Z AUTO 35005KT 6SM FEW004 06/04 A3046 RMK AO2 SLP317 T00610044 401170061=
200810260653 METAR KPAE 260653Z AUTO 36006KT 7SM FEW006 07/04 A3047 RMK AO2 SLP322 T00670044=
200810260553 METAR KPAE 260553Z AUTO 35005KT 7SM SCT006 07/05 A3048 RMK AO2 SLP324 T00670050 10100 20061 51002=
200810260539 SPECI KPAE 260539Z AUTO 36005KT 8SM FEW006 07/04 A3048 RMK AO2=
200810260539 SPECI KPAE 260539Z AUTO 36005KT 8SM FEW006 07/04 A3048 RMK AO2=
200810260453 METAR KPAE 260453Z 34005KT 8SM CLR 07/04 A3048 RMK AO2 SLP324 T00670044=
200810260353 METAR KPAE 260353Z 35004KT 10SM CLR 07/04 A3048 RMK AO2 SLP325 T00670039=
200810260253 METAR KPAE 260253Z 01004KT 10SM CLR 07/03 A3047 RMK AO2 SLP322 T00720033 53001=
200810260153 METAR KPAE 260153Z 36005KT 10SM CLR 07/03 A3047 RMK AO2 SLP321 T00720033=
200810260053 METAR KPAE 260053Z 34006KT 10SM CLR 09/03 A3047 RMK AO2 SLP321 T00890028=
200810252353 METAR KPAE 252353Z 35006KT 10SM CLR 10/02 A3047 RMK AO2 SLP321 T01000017 10117 20100 51003=
200810252253 METAR KPAE 252253Z AUTO 33006KT 10SM CLR 11/03 A3047 RMK AO2 SLP321 T01110028 TSNO=
200810252153 METAR KPAE 252153Z 33007KT 10SM CLR 11/04 A3047 RMK AO2 SLP321 T01110039=
200810252053 METAR KPAE 252053Z 36007KT 320V050 10SM SCT020 12/06 A3046 RMK AO2 SLP318 T01170056 50004=
200810251953 METAR KPAE 251953Z 36006KT 10SM SCT020 11/06 A3047 RMK AO2 SLP321 T01110056=
200810251853 METAR KPAE 251853Z VRB04KT 10SM CLR 11/06 A3046 RMK AO2 SLP318 T01110061=
200810251753 METAR KPAE 251753Z 34005KT 8SM FEW009 10/06 A3045 RMK AO2 SLP314 60000 T01000061 10100 20083 53019=
200810251745 SPECI KPAE 251745Z 35005KT 8SM SCT009 10/06 A3045 RMK AO2=
200810251745 SPECI KPAE 251745Z 35005KT 8SM SCT009 10/06 A3045 RMK AO2=
200810251725 SPECI KPAE 251725Z VRB03KT 8SM SCT009 BKN024 10/06 A3044 RMK AO2=
200810251725 SPECI KPAE 251725Z VRB03KT 8SM SCT009 BKN024 10/06 A3044 RMK AO2=
200810251653 METAR KPAE 251653Z 00000KT 10SM BKN016 BKN022 OVC029 09/06 A3043 RMK AO2 SLP307 T00890061=
200810251553 METAR KPAE 251553Z 27003KT 6SM HZ SCT016 BKN022 OVC029 09/06 A3041 RMK AO2 RAB29E40 SLP300 P0000 T00890061=
200810251453 METAR KPAE 251453Z 00000KT 9SM OVC020 09/06 A3039 RMK AO2 SLP295 T00890056 53018=
200810251353 METAR KPAE 251353Z 16004KT 9SM OVC022 08/06 A3037 RMK AO2 SLP287 T00830056=
200810251253 METAR KPAE 251253Z AUTO 00000KT 10SM FEW019 OVC024 08/05 A3035 RMK AO2 SLP280 T00830050=
200810251238 SPECI KPAE 251238Z AUTO 00000KT 10SM BKN026 OVC044 08/06 A3035 RMK AO2=
200810251238 SPECI KPAE 251238Z AUTO 00000KT 10SM BKN026 OVC044 08/06 A3035 RMK AO2=
200810251208 SPECI KPAE 251208Z AUTO VRB03KT 10SM FEW015 SCT026 OVC044 08/05 A3034 RMK AO2=
200810251208 SPECI KPAE 251208Z AUTO VRB03KT 10SM FEW015 SCT026 OVC044 08/05 A3034 RMK AO2=
200810251153 METAR KPAE 251153Z AUTO 00000KT 10SM FEW013 BKN027 OVC035 08/05 A3034 RMK AO2 SLP276 T00830050 10089 20083 51009=
200810251132 SPECI KPAE 251132Z AUTO 12003KT 10SM SCT013 OVC029 08/05 A3034 RMK AO2=
200810251132 SPECI KPAE 251132Z AUTO 12003KT 10SM SCT013 OVC029 08/05 A3034 RMK AO2=
200810251114 SPECI KPAE 251114Z AUTO 00000KT 10SM BKN013 OVC029 09/05 A3034 RMK AO2=
200810251114 SPECI KPAE 251114Z AUTO 00000KT 10SM BKN013 OVC029 09/05 A3034 RMK AO2=
200810251053 METAR KPAE 251053Z AUTO 00000KT 10SM FEW015 OVC035 09/05 A3034 RMK AO2 SLP275 T00890050=
200810250953 METAR KPAE 250953Z AUTO 00000KT 10SM BKN039 OVC047 09/04 A3032 RMK AO2 SLP270 T00890044=
200810250853 METAR KPAE 250853Z AUTO 00000KT 10SM SCT041 BKN060 OVC070 08/04 A3031 RMK AO2 SLP267 T00830044 53006=
200810250753 METAR KPAE 250753Z AUTO 15005KT 10SM BKN042 OVC050 09/04 A3030 RMK AO2 SLP262 T00890039 401000039=
200810250653 METAR KPAE 250653Z AUTO 15005KT 10SM BKN040 OVC050 09/03 A3029 RMK AO2 SLP260 T00890033=
200810250553 METAR KPAE 250553Z AUTO 15006KT 10SM BKN040 OVC100 09/03 A3030 RMK AO2 SLP261 T00890028 10100 20089 51002=
200810250453 METAR KPAE 250453Z AUTO VRB03KT 10SM BKN042 BKN070 OVC100 09/03 A3029 RMK AO2 SLP261 T00890028=
200810250353 METAR KPAE 250353Z AUTO 12004KT 10SM OVC048 09/04 A3030 RMK AO2 SLP262 T00890039=
200810250253 METAR KPAE 250253Z AUTO 11005KT 8SM OVC060 09/05 A3029 RMK AO2 SLP261 T00890050 58004=
200810250153 METAR KPAE 250153Z 00000KT 8SM OVC060 09/05 A3030 RMK AO2 SLP264 T00940050=
200810250053 METAR KPAE 250053Z 00000KT 9SM OVC060 10/04 A3030 RMK AO2 SLP264 T01000044=
200810242353 METAR KPAE 242353Z 00000KT 7SM OVC060 09/05 A3030 RMK AO2 SLP265 T00940050 10100 20078 56006=
200810242253 METAR KPAE 242253Z AUTO 00000KT 10SM OVC065 10/04 A3031 RMK AO2 SLP266 T01000044=
200810242153 METAR KPAE 242153Z 00000KT 9SM OVC070 09/04 A3031 RMK AO2 SLP268 T00940044=
200810242053 METAR KPAE 242053Z 33004KT 8SM OVC070 09/06 A3032 RMK AO2 SLP271 T00890056 58001=
200810241953 METAR KPAE 241953Z 00000KT 7SM OVC070 09/06 A3033 RMK AO2 SLP275 T00890056=
200810241853 METAR KPAE 241853Z 00000KT 7SM OVC070 09/06 A3034 RMK AO2 SLP277 T00890056=
200810241820 SPECI KPAE 241820Z 23003KT 6SM HZ FEW007 OVC070 08/06 A3034 RMK AO2=
200810241820 SPECI KPAE 241820Z 23003KT 6SM HZ FEW007 OVC070 08/06 A3034 RMK AO2=
200810241753 METAR KPAE 241753Z 00000KT 7SM OVC070 08/04 A3033 RMK AO2 SLP273 T00780044 10078 20039 58002=
200810241707 SPECI KPAE 241707Z 20004KT 7SM FEW003 OVC070 07/04 A3033 RMK AO2=
200810241707 SPECI KPAE 241707Z 20004KT 7SM FEW003 OVC070 07/04 A3033 RMK AO2=
200810241653 METAR KPAE 241653Z 00000KT 9SM OVC070 07/03 A3033 RMK AO2 SLP275 T00670033=
200810241553 METAR KPAE 241553Z 18005KT 10SM OVC070 06/03 A3033 RMK AO2 SLP274 T00560028=
200810241453 METAR KPAE 241453Z 00000KT 10SM OVC070 05/02 A3033 RMK AO2 SLP274 T00500022 58000=
200810241353 METAR KPAE 241353Z 12004KT 10SM SCT080 05/02 A3033 RMK AO2 SLP274 T00500017=
200810241253 METAR KPAE 241253Z AUTO 00000KT 10SM CLR 05/02 A3034 RMK AO2 SLP279 T00500017=
200810241153 METAR KPAE 241153Z AUTO 16003KT 8SM CLR 05/03 A3033 RMK AO2 SLP274 T00500028 10072 20039 56004=
200810241053 METAR KPAE 241053Z AUTO 00000KT 8SM FEW110 05/03 A3034 RMK AO2 SLP276 T00500028=
200810240953 METAR KPAE 240953Z AUTO 00000KT 6SM BR SCT120 05/03 A3033 RMK AO2 SLP274 T00500033=
200810240853 METAR KPAE 240853Z AUTO 00000KT 6SM BR CLR 05/03 A3035 RMK AO2 SLP278 T00500033 56000=
200810240753 METAR KPAE 240753Z AUTO 22004KT 10SM CLR 06/03 A3035 RMK AO2 SLP281 T00560028 401170050=
200810240653 METAR KPAE 240653Z AUTO 00000KT 10SM CLR 07/03 A3033 RMK AO2 SLP274 T00670033=
200810240553 METAR KPAE 240553Z AUTO 00000KT 10SM CLR 06/03 A3035 RMK AO2 SLP278 T00610028 10111 20056 53007=
200810240453 METAR KPAE 240453Z AUTO 00000KT 10SM CLR 06/02 A3033 RMK AO2 SLP274 T00610022=
200810240353 METAR KPAE 240353Z 00000KT 10SM CLR 07/03 A3032 RMK AO2 SLP269 T00720028=
200810240253 METAR KPAE 240253Z 00000KT 10SM CLR 08/03 A3032 RMK AO2 SLP271 T00780028 50002=
200810240153 METAR KPAE 240153Z 00000KT 10SM CLR 08/03 A3034 RMK AO2 SLP276 T00830028=
200810240053 METAR KPAE 240053Z 00000KT 10SM CLR 09/03 A3034 RMK AO2 SLP275 T00890028=
200810232353 METAR KPAE 232353Z 00000KT 10SM CLR 11/02 A3032 RMK AO2 SLP268 T01110017 10117 20100 53004=
200810232253 METAR KPAE 232253Z 00000KT 10SM CLR 12/02 A3031 RMK AO2 SLP263 T01170022=
200810232153 METAR KPAE 232153Z 36006KT 10SM CLR 11/02 A3032 RMK AO2 SLP267 T01110017=
200810232053 METAR KPAE 232053Z 35005KT 10SM CLR 11/02 A3031 RMK AO2 SLP265 T01110022 50002=
200810231953 METAR KPAE 231953Z 35007KT 10SM CLR 11/02 A3031 RMK AO2 SLP265 T01060022=
200810231853 METAR KPAE 231853Z 35007KT 10SM CLR 10/02 A3032 RMK AO2 SLP268 T01000022=
200810231753 METAR KPAE 231753Z 36008KT 10SM CLR 10/03 A3030 RMK AO2 SLP262 60000 T01000033 10100 20083 51017=
200810231653 METAR KPAE 231653Z 01006KT 10SM SCT060 09/04 A3029 RMK AO2 SLP258 T00940044=
200810231553 METAR KPAE 231553Z 36005KT 9SM FEW008 BKN065 09/06 A3026 RMK AO2 SLP250 T00890061=
200810231519 SPECI KPAE 231519Z 36004KT 6SM BR SCT006 BKN065 08/07 A3025 RMK AO2=
200810231519 SPECI KPAE 231519Z 36004KT 6SM BR SCT006 BKN065 08/07 A3025 RMK AO2=
200810231508 SPECI KPAE 231508Z VRB04KT 5SM BR BKN006 OVC060 08/07 A3025 RMK AO2 CIG 003V011=
200810231508 SPECI KPAE 231508Z VRB04KT 5SM BR BKN006 OVC060 08/07 A3025 RMK AO2 CIG 003V011=
200810231455 SPECI KPAE 231455Z 01004KT 6SM BR SCT004 SCT010 OVC055 08/07 A3025 RMK AO2=
200810231455 SPECI KPAE 231455Z 01004KT 6SM BR SCT004 SCT010 OVC055 08/07 A3025 RMK AO2=
200810231453 METAR KPAE 231453Z 01006KT 6SM BR BKN004 BKN010 OVC050 08/07 A3025 RMK AO2 RAE1356 SLP245 P0000 60000 T00830067 53017=
200810231353 METAR KPAE 231353Z 01007KT 4SM -RA BR OVC005 08/07 A3023 RMK AO2 RAB45 CIG 002V008 SLP238 P0000 T00830072=
200810231336 SPECI KPAE 231336Z AUTO 36004KT 8SM BKN005 OVC023 08/07 A3023 RMK AO2 CIG 003V007=
200810231336 SPECI KPAE 231336Z AUTO 36004KT 8SM BKN005 OVC023 08/07 A3023 RMK AO2 CIG 003V007=
200810231253 METAR KPAE 231253Z AUTO VRB03KT 9SM FEW006 BKN023 OVC030 09/07 A3021 RMK AO2 RAB08E20 SLP232 P0000 T00890067=
200810231243 SPECI KPAE 231243Z AUTO 36005KT 9SM SCT006 BKN023 OVC030 09/07 A3021 RMK AO2 RAB08E20 P0000=
200810231243 SPECI KPAE 231243Z AUTO 36005KT 9SM SCT006 BKN023 OVC030 09/07 A3021 RMK AO2 RAB08E20 P0000=
200810231213 SPECI KPAE 231213Z AUTO 33006KT 10SM -RA BKN008 BKN012 OVC047 09/07 A3021 RMK AO2 RAB08 P0000=
200810231213 SPECI KPAE 231213Z AUTO 33006KT 10SM -RA BKN008 BKN012 OVC047 09/07 A3021 RMK AO2 RAB08 P0000=
200810231204 SPECI KPAE 231204Z AUTO 33006KT 10SM BKN010 OVC047 09/07 A3020 RMK AO2 CIG 008V013=
200810231204 SPECI KPAE 231204Z AUTO 33006KT 10SM BKN010 OVC047 09/07 A3020 RMK AO2 CIG 008V013=
200810231153 METAR KPAE 231153Z AUTO 33004KT 10SM SCT010 OVC047 09/07 A3020 RMK AO2 SLP226 T00940067 10094 20078 51006=
200810231121 SPECI KPAE 231121Z AUTO VRB05KT 10SM SCT010 BKN015 OVC050 09/07 A3019 RMK AO2=
200810231121 SPECI KPAE 231121Z AUTO VRB05KT 10SM SCT010 BKN015 OVC050 09/07 A3019 RMK AO2=
200810231053 METAR KPAE 231053Z AUTO 34003KT 10SM FEW039 OVC050 09/06 A3020 RMK AO2 SLP226 T00940061=
200810230953 METAR KPAE 230953Z AUTO 33004KT 10SM FEW020 SCT085 09/04 A3019 RMK AO2 SLP223 T00940044=
200810230853 METAR KPAE 230853Z AUTO 00000KT 10SM CLR 08/04 A3018 RMK AO2 SLP220 T00830039 53002=
200810230753 METAR KPAE 230753Z AUTO 00000KT 9SM CLR 08/05 A3018 RMK AO2 SLP220 T00830050 401940056=
200810230653 METAR KPAE 230653Z AUTO 00000KT 10SM CLR 08/03 A3017 RMK AO2 SLP218 T00780028=
200810230553 METAR KPAE 230553Z AUTO 00000KT 10SM CLR 09/03 A3018 RMK AO2 SLP219 T00940033 10167 20089 53004=
200810230453 METAR KPAE 230453Z AUTO 00000KT 10SM CLR 11/03 A3017 RMK AO2 SLP219 T01060033=
200810230353 METAR KPAE 230353Z AUTO 12006KT 10SM CLR 11/05 A3017 RMK AO2 SLP217 T01060050=
200810230253 METAR KPAE 230253Z 00000KT 10SM CLR 10/05 A3016 RMK AO2 SLP216 T01000050 53001=
200810230153 METAR KPAE 230153Z 00000KT 10SM CLR 13/02 A3017 RMK AO2 SLP216 T01330022=
200810230053 METAR KPAE 230053Z 00000KT 10SM CLR 13/02 A3015 RMK AO2 SLP213 T01330017=
200810222353 METAR KPAE 222353Z 26005KT 10SM CLR 17/05 A3016 RMK AO2 SLP215 T01670050 10194 20111 56029=
200810222253 METAR KPAE 222253Z 12005KT 10SM CLR 19/03 A3018 RMK AO2 SLP220 T01890033=
200810222153 METAR KPAE 222153Z 12003KT 10SM CLR 18/04 A3022 RMK AO2 SLP233 T01830039=
200810222053 METAR KPAE 222053Z 15005KT 10SM CLR 17/00 A3025 RMK AO2 SLP245 T01720000 58034=
200810221953 METAR KPAE 221953Z 15003KT 10SM CLR 16/01 A3030 RMK AO2 SLP260 T01560006=
200810221853 METAR KPAE 221853Z 00000KT 10SM CLR 14/00 A3033 RMK AO2 SLP272 T01390000=
200810221753 METAR KPAE 221753Z 03003KT 10SM CLR 11/02 A3035 RMK AO2 SLP281 T01110022 10111 20061 58018=
200810221653 METAR KPAE 221653Z 01003KT 10SM CLR 08/01 A3038 RMK AO2 SLP288 T00830011=
200810221553 METAR KPAE 221553Z 02003KT 7SM CLR 07/01 A3040 RMK AO2 SLP296 T00720011=
200810221453 METAR KPAE 221453Z 00000KT 10SM CLR 08/00 A3041 RMK AO2 SLP300 T00780000 56018=
200810221353 METAR KPAE 221353Z 10005KT 10SM CLR 07/01 A3042 RMK AO2 SLP305 T00720006=
200810221253 METAR KPAE 221253Z AUTO 10006KT 10SM CLR 07/01 A3044 RMK AO2 SLP311 T00670011=
200810221153 METAR KPAE 221153Z AUTO 10004KT 10SM CLR 06/02 A3046 RMK AO2 SLP317 T00610017 10083 20056 58017=
200810221053 METAR KPAE 221053Z AUTO 12004KT 10SM CLR 06/02 A3048 RMK AO2 SLP324 T00610022=
200810220953 METAR KPAE 220953Z AUTO 00000KT 10SM CLR 06/02 A3050 RMK AO2 SLP331 T00610022=
200810220853 METAR KPAE 220853Z AUTO 00000KT 10SM CLR 07/02 A3051 RMK AO2 SLP335 T00670022 56004=
200810220753 METAR KPAE 220753Z AUTO 10003KT 10SM CLR 07/03 A3051 RMK AO2 SLP336 T00720028 401220039=
200810220653 METAR KPAE 220653Z AUTO 11006KT 10SM OVC090 08/03 A3052 RMK AO2 SLP336 T00780033=
200810220553 METAR KPAE 220553Z AUTO 00000KT 10SM BKN100 08/03 A3053 RMK AO2 SLP339 T00830033 10100 20067 56004=
200810220453 METAR KPAE 220453Z AUTO 08003KT 9SM OVC100 09/06 A3053 RMK AO2 SLP339 T00890056=
200810220353 METAR KPAE 220353Z AUTO 00000KT 9SM BKN120 08/06 A3053 RMK AO2 SLP342 T00830056=
200810220253 METAR KPAE 220253Z 00000KT 7SM SCT100 08/04 A3054 RMK AO2 SLP345 T00780044 55004=
200810220153 METAR KPAE 220153Z 00000KT 9SM CLR 08/04 A3053 RMK AO2 SLP343 T00830044=
200810220053 METAR KPAE 220053Z 00000KT 10SM FEW120 09/04 A3054 RMK AO2 SLP346 T00890044=
200810212353 METAR KPAE 212353Z 29003KT 9SM BKN120 10/05 A3055 RMK AO2 SLP348 T01000050 10122 20089 56009=
200810212253 METAR KPAE 212253Z 00000KT 10SM CLR 11/06 A3055 RMK AO2 SLP349 T01110056=
200810212153 METAR KPAE 212153Z 00000KT 10SM SCT017 SCT024 12/05 A3057 RMK AO2 SLP354 T01170050=
200810212135 SPECI KPAE 212135Z 01003KT 9SM SCT017 SCT024 12/06 A3057 RMK AO2=
200810212135 SPECI KPAE 212135Z 01003KT 9SM SCT017 SCT024 12/06 A3057 RMK AO2=
200810212128 SPECI KPAE 212128Z 00000KT 9SM BKN017 BKN024 11/07 A3057 RMK AO2=
200810212128 SPECI KPAE 212128Z 00000KT 9SM BKN017 BKN024 11/07 A3057 RMK AO2=
200810212053 METAR KPAE 212053Z 25004KT 8SM FEW025 11/07 A3058 RMK AO2 SLP357 T01060067 50004=
200810212000 SPECI KPAE 212000Z 24003KT 6SM HZ FEW006 SCT022 09/07 A3058 RMK AO2=
200810212000 SPECI KPAE 212000Z 24003KT 6SM HZ FEW006 SCT022 09/07 A3058 RMK AO2=
200810211953 METAR KPAE 211953Z 24005KT 5SM HZ SCT010 09/06 A3059 RMK AO2 SLP360 T00940061=
200810211853 METAR KPAE 211853Z 17006KT 10SM CLR 10/05 A3058 RMK AO2 SLP358 T01000050=
200810211753 METAR KPAE 211753Z 17006KT 10SM CLR 09/06 A3057 RMK AO2 SLP354 T00940056 10094 20039 51016=
200810211653 METAR KPAE 211653Z 17004KT 10SM CLR 08/04 A3056 RMK AO2 SLP353 T00780044=
200810211553 METAR KPAE 211553Z 00000KT 10SM CLR 07/04 A3055 RMK AO2 SLP348 T00670044=
200810211453 METAR KPAE 211453Z 16004KT 8SM CLR 05/03 A3052 RMK AO2 SLP339 T00500033 51021=
200810211353 METAR KPAE 211353Z 00000KT 9SM CLR 04/03 A3050 RMK AO2 SLP333 T00440028=
200810211253 METAR KPAE 211253Z AUTO 00000KT 10SM CLR 05/03 A3048 RMK AO2 SLP325 T00500033=
200810211153 METAR KPAE 211153Z AUTO 16006KT 10SM CLR 06/04 A3046 RMK AO2 SLP316 60001 70014 T00610044 10078 20050 51021=
200810211053 METAR KPAE 211053Z AUTO 17004KT 9SM CLR 06/04 A3044 RMK AO2 SLP311 T00610044=
200810210953 METAR KPAE 210953Z AUTO 16004KT 9SM FEW040 07/05 A3042 RMK AO2 SLP304 T00670050=
200810210853 METAR KPAE 210853Z AUTO 15006KT 8SM BKN045 06/04 A3039 RMK AO2 SLP294 60001 T00560044 53033=
200810210753 METAR KPAE 210753Z AUTO 00000KT 10SM SCT036 07/04 A3036 RMK AO2 SLP282 P0001 T00670044 401110061=
200810210653 METAR KPAE 210653Z AUTO 00000KT 10SM FEW039 08/04 A3032 RMK AO2 SLP268 T00780044=
200810210553 METAR KPAE 210553Z AUTO 00000KT 10SM FEW043 07/04 A3029 RMK AO2 SLP262 60009 T00670039 10100 20061 51034=
200810210453 METAR KPAE 210453Z AUTO 15004KT 10SM BKN080 07/04 A3027 RMK AO2 SLP251 T00670044=
200810210353 METAR KPAE 210353Z AUTO 11005KT 10SM CLR 07/04 A3023 RMK AO2 SLP239 T00670039=
200810210253 METAR KPAE 210253Z 07003KT 10SM FEW017 08/04 A3019 RMK AO2 SLP226 60009 T00780039 51036=
200810210153 METAR KPAE 210153Z 00000KT 10SM SCT030 BKN060 08/04 A3016 RMK AO2 RAE21 SLP215 P0001 T00780044=
200810210117 SPECI KPAE 210117Z 31004KT 3SM -RA FEW030 BKN043 OVC060 08/04 A3014 RMK AO2 P0001=
200810210117 SPECI KPAE 210117Z 31004KT 3SM -RA FEW030 BKN043 OVC060 08/04 A3014 RMK AO2 P0001=
200810210111 SPECI KPAE 210111Z VRB03KT 1 3/4SM RA FEW030 OVC041 08/05 A3014 RMK AO2 P0001=
200810210111 SPECI KPAE 210111Z VRB03KT 1 3/4SM RA FEW030 OVC041 08/05 A3014 RMK AO2 P0001=
200810210053 METAR KPAE 210053Z VRB03KT 10SM -RA SCT034 OVC041 08/05 A3012 RMK AO2 TSE04 SLP202 P0008 T00780050=
200810210018 SPECI KPAE 210018Z 32010G16KT 4SM +RA BR BKN006 BKN022 08/07 A3011 RMK AO2 TSE04 P0005=
200810210018 SPECI KPAE 210018Z 32010G16KT 4SM +RA BR BKN006 BKN022 08/07 A3011 RMK AO2 TSE04 P0005=
200810210005 SPECI KPAE 210005Z 32006KT 2 1/2SM -RA BR SCT006 BKN022 09/07 A3010 RMK AO2 TSE04 P0001=
200810210005 SPECI KPAE 210005Z 32006KT 2 1/2SM -RA BR SCT006 BKN022 09/07 A3010 RMK AO2 TSE04 P0001=
200810202353 METAR KPAE 202353Z 35005KT 10SM VCTS -RA FEW006 BKN022 10/07 A3008 RMK AO2 TSB2257E35B42RAE21B47 SLP188 P0000 60002 T01000072 10111 20089 51012=
200810202348 SPECI KPAE 202348Z 35004KT 10SM VCTS -RA FEW006 BKN022 10/07 A3008 RMK AO2 TSB2257E35B42RAE21B47 P0000=
200810202348 SPECI KPAE 202348Z 35004KT 10SM VCTS -RA FEW006 BKN022 10/07 A3008 RMK AO2 TSB2257E35B42RAE21B47 P0000=
200810202340 SPECI KPAE 202340Z 35005KT 10SM FEW006 OVC050 10/07 A3007 RMK AO2 TSB2257E35RAE21 P0000=
200810202340 SPECI KPAE 202340Z 35005KT 10SM FEW006 OVC050 10/07 A3007 RMK AO2 TSB2257E35RAE21 P0000=
200810202303 SPECI KPAE 202303Z 00000KT 7SM VCTS -RA FEW022 BKN036 OVC049 10/07 A3005 RMK AO2 LTG DSNT E TSB2257 P0000=
200810202303 SPECI KPAE 202303Z 00000KT 7SM VCTS -RA FEW022 BKN036 OVC049 10/07 A3005 RMK AO2 LTG DSNT E TSB2257 P0000=
200810202253 METAR KPAE 202253Z 36003KT 8SM -RA FEW017 BKN036 OVC049 11/07 A3006 RMK AO2 SLP181 P0001 T01060067=
200810202153 METAR KPAE 202153Z 00000KT 4SM -RA FEW026 SCT045 BKN060 11/07 A3005 RMK AO2 LTG DSNT E AND S RAB46 SLP176 P0001 T01110072=
200810202053 METAR KPAE 202053Z 18006KT 10SM BKN038 OVC049 11/07 A3005 RMK AO2 SLP176 T01110072 51030=
200810202011 SPECI KPAE 202011Z 19008KT 10SM FEW008 SCT025 OVC043 11/08 A3003 RMK AO2=
200810202011 SPECI KPAE 202011Z 19008KT 10SM FEW008 SCT025 OVC043 11/08 A3003 RMK AO2=
200810201957 SPECI KPAE 201957Z 18007KT 10SM FEW008 OVC027 10/07 A3002 RMK AO2=
200810201957 SPECI KPAE 201957Z 18007KT 10SM FEW008 OVC027 10/07 A3002 RMK AO2=
200810201953 METAR KPAE 201953Z 19007KT 10SM BKN008 BKN019 OVC027 10/07 A3002 RMK AO2 SLP167 T01000072=
200810201911 SPECI KPAE 201911Z 22007KT 10SM OVC008 09/07 A3001 RMK AO2=
200810201911 SPECI KPAE 201911Z 22007KT 10SM OVC008 09/07 A3001 RMK AO2=
200810201853 METAR KPAE 201853Z 21009KT 10SM OVC010 09/07 A3000 RMK AO2 CIG 009V014 SLP160 T00940067=
200810201816 SPECI KPAE 201816Z 20014KT 10SM BKN014 OVC020 09/06 A2997 RMK AO2=
200810201816 SPECI KPAE 201816Z 20014KT 10SM BKN014 OVC020 09/06 A2997 RMK AO2=
200810201753 METAR KPAE 201753Z 17008KT 10SM SCT006 BKN024 OVC030 09/06 A2996 RMK AO2 RAE29 SLP145 P0000 60002 T00890061 10100 20083 51007=
200810201751 SPECI KPAE 201751Z 17009KT 9SM SCT006 BKN024 OVC030 09/06 A2995 RMK AO2 RAE29 P0000=
200810201751 SPECI KPAE 201751Z 17009KT 9SM SCT006 BKN024 OVC030 09/06 A2995 RMK AO2 RAE29 P0000=
200810201734 SPECI KPAE 201734Z 18011KT 5SM HZ SCT018 BKN023 OVC032 09/06 A2995 RMK AO2 RAE29 P0000=
200810201734 SPECI KPAE 201734Z 18011KT 5SM HZ SCT018 BKN023 OVC032 09/06 A2995 RMK AO2 RAE29 P0000=
200810201653 METAR KPAE 201653Z 18014KT 6SM -RA BKN041 BKN050 OVC065 09/06 A2995 RMK AO2 RAB52 SLP142 P0000 T00940061=
200810201553 METAR KPAE 201553Z 17016KT 10SM BKN047 BKN055 BKN070 09/06 A2994 RMK AO2 PK WND 19026/1513 RAE41 SLP138 P0001 T00890056=
200810201453 METAR KPAE 201453Z 20012KT 8SM -RA FEW050 BKN065 OVC100 10/06 A2995 RMK AO2 RAE18B52 SLP143 P0001 60001 T01000061 53002=
200810201353 METAR KPAE 201353Z 20011KT 8SM -RA SCT050 BKN060 OVC090 10/06 A2992 RMK AO2 RAB50 SLP132 P0000 T01000056=
200810201253 METAR KPAE 201253Z AUTO 18009KT 9SM SCT100 BKN120 10/05 A2994 RMK AO2 SLP139 T01000050=
200810201153 METAR KPAE 201153Z AUTO 16011G17KT 10SM OVC080 09/05 A2994 RMK AO2 SLP142 T00940050 10094 20078 58013=
200810201053 METAR KPAE 201053Z AUTO 16010KT 10SM OVC085 09/06 A2996 RMK AO2 SLP147 T00890056=
200810200953 METAR KPAE 200953Z AUTO 15010G16KT 9SM BKN095 OVC120 09/05 A2999 RMK AO2 SLP159 T00890050=
200810200853 METAR KPAE 200853Z AUTO 15010KT 9SM OVC090 09/05 A2998 RMK AO2 SLP155 T00890050 56012=
200810200753 METAR KPAE 200753Z AUTO 15008KT 8SM OVC100 08/06 A2999 RMK AO2 SLP157 T00830056 401000022=
200810200653 METAR KPAE 200653Z AUTO 17006KT 8SM OVC110 08/05 A3001 RMK AO2 SLP165 T00830050=
200810200553 METAR KPAE 200553Z AUTO 15005KT 7SM BKN110 08/05 A3002 RMK AO2 SLP168 T00830050 10100 20078 58011=
200810200453 METAR KPAE 200453Z AUTO 15003KT 8SM SCT120 09/05 A3003 RMK AO2 SLP172 T00890050=
200810200353 METAR KPAE 200353Z AUTO 12003KT 5SM CLR 08/05 A3004 RMK AO2 SLP174 T00830050=
200810200253 METAR KPAE 200253Z 00000KT 8SM CLR 08/06 A3005 RMK AO2 SLP180 T00830056 56008=
200810200153 METAR KPAE 200153Z 00000KT 7SM CLR 08/06 A3006 RMK AO2 SLP183 T00780056=
200810200053 METAR KPAE 200053Z 00000KT 8SM CLR 08/06 A3006 RMK AO2 SLP184 T00830056=
200810192353 METAR KPAE 192353Z 00000KT 10SM CLR 09/04 A3008 RMK AO2 SLP187 T00940039 10100 20067 58022=
200810192253 METAR KPAE 192253Z 35004KT 10SM CLR 09/04 A3010 RMK AO2 SLP196 T00940039=
200810192153 METAR KPAE 192153Z 00000KT 10SM CLR 10/04 A3012 RMK AO2 SLP203 T01000044=
200810192053 METAR KPAE 192053Z 00000KT 10SM CLR 09/04 A3014 RMK AO2 SLP209 T00940044 58012=
200810191953 METAR KPAE 191953Z VRB03KT 10SM CLR 09/04 A3016 RMK AO2 SLP216 T00890039=
200810191853 METAR KPAE 191853Z 36003KT 10SM CLR 08/04 A3017 RMK AO2 SLP219 T00830039=
200810191753 METAR KPAE 191753Z 00000KT 10SM CLR 07/04 A3018 RMK AO2 SLP222 T00670044 10067 20022 58003=
200810191739 SPECI KPAE 191739Z 00000KT 10SM SCT001 06/04 A3018 RMK AO2=
200810191739 SPECI KPAE 191739Z 00000KT 10SM SCT001 06/04 A3018 RMK AO2=
200810191715 SPECI KPAE 191715Z 06003KT 10SM CLR 05/04 A3018 RMK AO2=
200810191715 SPECI KPAE 191715Z 06003KT 10SM CLR 05/04 A3018 RMK AO2=
200810191653 METAR KPAE 191653Z 02003KT 1/4SM VV001 05/04 A3018 RMK AO2 SLP223 T00500039 RVRNO=
200810191600 SPECI KPAE 191600Z 04003KT M1/4SM VV001 04/03 A3019 RMK AO2 RVRNO=
200810191600 SPECI KPAE 191600Z 04003KT M1/4SM VV001 04/03 A3019 RMK AO2 RVRNO=
200810191553 METAR KPAE 191553Z 02003KT 10SM FEW001 04/03 A3018 RMK AO2 SLP225 T00390028=
200810191453 METAR KPAE 191453Z 00000KT 10SM CLR 03/02 A3018 RMK AO2 SLP225 T00280017 56006=
200810191434 SPECI KPAE 191434Z 00000KT 10SM CLR 03/01 A3018 RMK AO2=
200810191434 SPECI KPAE 191434Z 00000KT 10SM CLR 03/01 A3018 RMK AO2=
200810191427 SPECI KPAE 191427Z 00000KT 1/2SM FG VV001 02/01 A3019 RMK AO2 RVRNO=
200810191427 SPECI KPAE 191427Z 00000KT 1/2SM FG VV001 02/01 A3019 RMK AO2 RVRNO=
200810191408 SPECI KPAE 191408Z 00000KT 1/4SM FG VV001 03/02 A3018 RMK AO2 RVRNO=
200810191408 SPECI KPAE 191408Z 00000KT 1/4SM FG VV001 03/02 A3018 RMK AO2 RVRNO=
200810191402 SPECI KPAE 191402Z 00000KT 1 3/4SM BR SCT001 03/02 A3018 RMK AO2=
200810191402 SPECI KPAE 191402Z 00000KT 1 3/4SM BR SCT001 03/02 A3018 RMK AO2=
200810191357 SPECI KPAE 191357Z 00000KT 3SM BR SCT001 03/02 A3019 RMK AO2=
200810191357 SPECI KPAE 191357Z 00000KT 3SM BR SCT001 03/02 A3019 RMK AO2=
200810191353 METAR KPAE 191353Z AUTO 00000KT 1 1/4SM BR SCT001 03/02 A3019 RMK AO2 SLP226 T00280017=
200810191344 SPECI KPAE 191344Z AUTO 00000KT 1/4SM FG VV001 03/02 A3019 RMK AO2 RVRNO=
200810191344 SPECI KPAE 191344Z AUTO 00000KT 1/4SM FG VV001 03/02 A3019 RMK AO2 RVRNO=
200810191330 SPECI KPAE 191330Z AUTO 00000KT 3/4SM BR VV001 04/03 A3019 RMK AO2 RVRNO=
200810191330 SPECI KPAE 191330Z AUTO 00000KT 3/4SM BR VV001 04/03 A3019 RMK AO2 RVRNO=
200810191326 SPECI KPAE 191326Z AUTO 00000KT 1 3/4SM BR FEW001 04/03 A3019 RMK AO2=
200810191326 SPECI KPAE 191326Z AUTO 00000KT 1 3/4SM BR FEW001 04/03 A3019 RMK AO2=
200810191253 METAR KPAE 191253Z AUTO 00000KT 8SM FEW002 04/02 A3019 RMK AO2 SLP226 T00440022=
200810191245 SPECI KPAE 191245Z AUTO 00000KT 9SM SCT002 04/02 A3019 RMK AO2=
200810191245 SPECI KPAE 191245Z AUTO 00000KT 9SM SCT002 04/02 A3019 RMK AO2=
200810191153 METAR KPAE 191153Z AUTO 00000KT 8SM OVC002 05/04 A3020 RMK AO2 SLP229 T00500039 10061 20044 58001=
200810191143 SPECI KPAE 191143Z AUTO 01003KT 5SM BR BKN002 05/04 A3021 RMK AO2=
200810191143 SPECI KPAE 191143Z AUTO 01003KT 5SM BR BKN002 05/04 A3021 RMK AO2=
200810191105 SPECI KPAE 191105Z AUTO 01003KT 3SM BR FEW002 06/04 A3021 RMK AO2=
200810191105 SPECI KPAE 191105Z AUTO 01003KT 3SM BR FEW002 06/04 A3021 RMK AO2=
200810191053 METAR KPAE 191053Z AUTO 01003KT 3SM BR CLR 05/04 A3020 RMK AO2 SLP230 T00500039=
200810191023 SPECI KPAE 191023Z AUTO 02003KT 5SM BR SCT001 05/03 A3021 RMK AO2=
200810191023 SPECI KPAE 191023Z AUTO 02003KT 5SM BR SCT001 05/03 A3021 RMK AO2=
200810190953 METAR KPAE 190953Z AUTO 00000KT 5SM BR CLR 04/03 A3021 RMK AO2 SLP230 T00440033=
200810190853 METAR KPAE 190853Z AUTO 00000KT 7SM CLR 05/03 A3021 RMK AO2 SLP231 T00500033 58002=
200810190753 METAR KPAE 190753Z AUTO 00000KT 7SM CLR 06/04 A3021 RMK AO2 SLP232 T00560039 401280056=
200810190653 METAR KPAE 190653Z AUTO 00000KT 8SM CLR 06/04 A3021 RMK AO2 SLP234 T00560039=
200810190553 METAR KPAE 190553Z AUTO 00000KT 9SM CLR 06/04 A3021 RMK AO2 SLP233 T00610039 10117 20061 51005=
200810190453 METAR KPAE 190453Z AUTO 00000KT 10SM CLR 07/05 A3021 RMK AO2 SLP232 T00720050=
200810190353 METAR KPAE 190353Z AUTO 00000KT 10SM CLR 07/05 A3021 RMK AO2 SLP231 T00720050=
200810190253 METAR KPAE 190253Z AUTO 01003KT 10SM CLR 08/05 A3020 RMK AO2 SLP228 T00780050 53003 TSNO=
200810190153 METAR KPAE 190153Z AUTO 35004KT 10SM CLR 09/04 A3020 RMK AO2 SLP227 T00890039 TSNO=
200810190053 METAR KPAE 190053Z 34005KT 10SM CLR 10/04 A3019 RMK AO2 SLP225 T01000044=
200810182353 METAR KPAE 182353Z 36006KT 10SM CLR 12/05 A3019 RMK AO2 SLP225 T01170050 10128 20100 56004=
200810182253 METAR KPAE 182253Z 35004KT 10SM SCT025 12/04 A3019 RMK AO2 SLP225 T01220044=
200810182153 METAR KPAE 182153Z VRB04KT 10SM CLR 13/04 A3019 RMK AO2 SLP225 T01280039=
200810182053 METAR KPAE 182053Z 29006KT 10SM CLR 12/05 A3020 RMK AO2 SLP228 T01220050 58003=
200810181953 METAR KPAE 181953Z 34003KT 10SM CLR 12/06 A3021 RMK AO2 SLP232 T01170056=
200810181853 METAR KPAE 181853Z 02005KT 10SM SCT011 11/06 A3021 RMK AO2 SLP232 T01110061=
200810181753 METAR KPAE 181753Z 01003KT 9SM BKN011 10/06 A3021 RMK AO2 SLP233 T01000061 10100 20072 53006=
200810181712 SPECI KPAE 181712Z 36005KT 9SM BKN009 09/06 A3021 RMK AO2=
200810181712 SPECI KPAE 181712Z 36005KT 9SM BKN009 09/06 A3021 RMK AO2=
200810181653 METAR KPAE 181653Z 36005KT 9SM BKN011 09/06 A3020 RMK AO2 SLP230 T00940056=
200810181553 METAR KPAE 181553Z 01003KT 8SM SCT011 09/06 A3019 RMK AO2 SLP227 T00890061=
200810181453 METAR KPAE 181453Z 35004KT 8SM BKN011 08/06 A3018 RMK AO2 SLP222 T00830056 53009=
200810181424 SPECI KPAE 181424Z 04003KT 8SM BKN011 08/06 A3018 RMK AO2=
200810181424 SPECI KPAE 181424Z 04003KT 8SM BKN011 08/06 A3018 RMK AO2=
200810181353 METAR KPAE 181353Z 34004KT 9SM FEW011 08/06 A3017 RMK AO2 SLP218 T00780056=
200810181253 METAR KPAE 181253Z 00000KT 9SM CLR 08/06 A3016 RMK AO2 SLP215 T00780056=
200810181153 METAR KPAE 181153Z 00000KT 10SM SCT026 08/06 A3016 RMK AO2 SLP211 T00830056 10100 20083 51004=
200810181114 SPECI KPAE 181114Z 36003KT 8SM BKN024 OVC060 09/06 A3015 RMK AO2=
200810181114 SPECI KPAE 181114Z 36003KT 8SM BKN024 OVC060 09/06 A3015 RMK AO2=
200810181053 METAR KPAE 181053Z 35005KT 8SM SCT022 OVC060 09/06 A3015 RMK AO2 SLP211 T00890061=
200810180953 METAR KPAE 180953Z VRB04KT 10SM OVC018 09/06 A3015 RMK AO2 SLP209 T00940056=
200810180853 METAR KPAE 180853Z 33005KT 10SM OVC016 09/06 A3014 RMK AO2 SLP207 T00940061 53012=
200810180835 SPECI KPAE 180835Z 34007KT 9SM BKN016 OVC045 09/06 A3013 RMK AO2=
200810180835 SPECI KPAE 180835Z 34007KT 9SM BKN016 OVC045 09/06 A3013 RMK AO2=
200810180753 METAR KPAE 180753Z 35005KT 10SM OVC034 09/05 A3013 RMK AO2 SLP203 T00940050 401830094=
200810180734 SPECI KPAE 180734Z VRB04KT 10SM OVC030 10/05 A3013 RMK AO2=
200810180734 SPECI KPAE 180734Z VRB04KT 10SM OVC030 10/05 A3013 RMK AO2=
200810180653 METAR KPAE 180653Z 33006KT 10SM OVC028 10/06 A3011 RMK AO2 SLP197 T01000056=
200810180553 METAR KPAE 180553Z 36007KT 10SM OVC022 10/06 A3011 RMK AO2 SLP194 T01000056 10167 20100 53005=
200810180453 METAR KPAE 180453Z 34006KT 10SM OVC020 10/05 A3010 RMK AO2 SLP193 T01000050=
200810180353 METAR KPAE 180353Z 01007KT 10SM OVC016 10/06 A3009 RMK AO2 SLP191 T01000056=
200810180253 METAR KPAE 180253Z 01008G14KT 10SM OVC016 10/07 A3009 RMK AO2 SLP190 T01000067 52002=
200810180153 METAR KPAE 180153Z 02006KT 10SM BKN018 OVC023 11/07 A3009 RMK AO2 SLP190 T01060072=
200810180106 SPECI KPAE 180106Z 01005KT 9SM FEW003 OVC022 11/09 A3008 RMK AO2=
200810180106 SPECI KPAE 180106Z 01005KT 9SM FEW003 OVC022 11/09 A3008 RMK AO2=
200810180053 METAR KPAE 180053Z 03005KT 10SM OVC022 12/09 A3008 RMK AO2 SLP188 T01170094=
200810172353 METAR KPAE 172353Z 19009KT 10SM OVC028 17/11 A3008 RMK AO2 SLP186 T01670111 10183 20150 50000=
200810172350 SPECI KPAE 172350Z 20009KT 10SM OVC028 17/11 A3008 RMK AO2=
200810172350 SPECI KPAE 172350Z 20009KT 10SM OVC028 17/11 A3008 RMK AO2=
200810172253 METAR KPAE 172253Z 19011KT 10SM FEW026 SCT041 BKN095 17/11 A3009 RMK AO2 SLP187 T01720106=
200810172153 METAR KPAE 172153Z 17010G19KT 10SM SCT100 17/11 A3008 RMK AO2 SLP185 T01720111=
200810172053 METAR KPAE 172053Z 15011KT 10SM FEW019 SCT025 17/11 A3008 RMK AO2 SLP186 T01670106 58013=
200810171953 METAR KPAE 171953Z 17013KT 10SM BKN031 16/11 A3011 RMK AO2 SLP196 T01610106=
200810171853 METAR KPAE 171853Z 17012KT 10SM FEW031 15/10 A3012 RMK AO2 SLP201 T01500100=
200810171753 METAR KPAE 171753Z 16016G21KT 10SM CLR 15/09 A3012 RMK AO2 SLP200 T01500094 10150 20122 58008=
200810171653 METAR KPAE 171653Z 17012KT 10SM CLR 14/09 A3013 RMK AO2 SLP204 T01390089=
200810171553 METAR KPAE 171553Z 17011G18KT 10SM FEW015 OVC070 13/09 A3015 RMK AO2 SLP209 T01330089=
200810171453 METAR KPAE 171453Z 16012G19KT 10SM FEW070 OVC090 13/09 A3015 RMK AO2 SLP208 T01280089 51001=
200810171353 METAR KPAE 171353Z 17008KT 10SM BKN080 OVC095 13/09 A3015 RMK AO2 SLP208 T01280089=
200810171253 METAR KPAE 171253Z AUTO 16011KT 10SM BKN100 12/09 A3015 RMK AO2 SLP210 T01220089=
200810171153 METAR KPAE 171153Z AUTO 16014G20KT 10SM CLR 13/09 A3014 RMK AO2 SLP208 70001 T01280089 10133 20122 57013=
200810171053 METAR KPAE 171053Z AUTO 16015G22KT 10SM FEW037 13/09 A3015 RMK AO2 SLP210 T01280089=
200810170953 METAR KPAE 170953Z AUTO 16011G15KT 10SM SCT035 12/09 A3017 RMK AO2 SLP218 T01220089=
200810170853 METAR KPAE 170853Z AUTO 15010G15KT 080V180 10SM SCT100 13/09 A3018 RMK AO2 SLP220 T01280089 58010=
200810170753 METAR KPAE 170753Z AUTO 15009KT 10SM FEW016 OVC120 13/09 A3020 RMK AO2 SLP226 T01280089 401330072=
200810170734 SPECI KPAE 170734Z AUTO 15008G17KT 10SM FEW016 BKN034 OVC110 13/09 A3019 RMK AO2 TSNO=
200810170734 SPECI KPAE 170734Z AUTO 15008G17KT 10SM FEW016 BKN034 OVC110 13/09 A3019 RMK AO2 TSNO=
200810170703 SPECI KPAE 170703Z AUTO 16010KT 10SM SCT018 BKN023 OVC100 13/09 A3021 RMK AO2=
200810170703 SPECI KPAE 170703Z AUTO 16010KT 10SM SCT018 BKN023 OVC100 13/09 A3021 RMK AO2=
200810170653 METAR KPAE 170653Z AUTO 15009G16KT 10SM FEW018 SCT023 OVC110 13/09 A3021 RMK AO2 SLP229 T01280094=
200810170553 METAR KPAE 170553Z AUTO 16015KT 10SM SCT018 BKN027 OVC110 13/09 A3021 RMK AO2 SLP232 60000 T01280094 10133 20128 58003=
200810170546 SPECI KPAE 170546Z AUTO 16013KT 10SM FEW018 BKN027 BKN110 13/09 A3021 RMK AO2=
200810170546 SPECI KPAE 170546Z AUTO 16013KT 10SM FEW018 BKN027 BKN110 13/09 A3021 RMK AO2=
200810170453 METAR KPAE 170453Z AUTO 15012KT 10SM OVC110 13/09 A3022 RMK AO2 SLP235 T01280089=
200810170353 METAR KPAE 170353Z AUTO 17009KT 10SM FEW016 OVC090 13/09 A3022 RMK AO2 SLP236 T01280089=
200810170253 METAR KPAE 170253Z 18013G18KT 10SM FEW030 OVC070 13/09 A3022 RMK AO2 SLP235 60000 T01280089 53001=
200810170153 METAR KPAE 170153Z 17013KT 10SM FEW018 OVC070 13/09 A3022 RMK AO2 RAB38E47 SLP234 P0000 T01280089=
200810170053 METAR KPAE 170053Z 18014G22KT 10SM SCT018 OVC080 13/09 A3022 RMK AO2 SLP235 T01330089=
200810162353 METAR KPAE 162353Z 16014G21KT 10SM FEW017 OVC085 13/09 A3022 RMK AO2 SLP235 60001 T01330089 10133 20100 50005=
200810162253 METAR KPAE 162253Z 17015G23KT 10SM FEW011 SCT016 OVC090 13/09 A3022 RMK AO2 SLP235 T01330089=
200810162153 METAR KPAE 162153Z 17016G22KT 10SM SCT012 BKN100 13/09 A3021 RMK AO2 SLP233 T01280089=
200810162053 METAR KPAE 162053Z 17018G26KT 10SM BKN012 OVC110 12/09 A3021 RMK AO2 PK WND 17026/2046 SLP231 P0001 60001 T01220089 50001=
200810161953 METAR KPAE 161953Z 16011G19KT 9SM BKN007 BKN014 OVC025 12/09 A3022 RMK AO2 SLP235 T01170089=
200810161853 METAR KPAE 161853Z 16013G17KT 10SM BKN009 OVC013 11/08 A3020 RMK AO2 CIG 005V011 SLP230 T01060083=
200810161820 SPECI KPAE 161820Z 16011KT 10SM FEW004 BKN007 OVC026 10/08 A3021 RMK AO2 CIG 006V011=
200810161820 SPECI KPAE 161820Z 16011KT 10SM FEW004 BKN007 OVC026 10/08 A3021 RMK AO2 CIG 006V011=
200810161809 SPECI KPAE 161809Z 15012G17KT 10SM FEW007 BKN017 OVC026 10/08 A3021 RMK AO2=
200810161809 SPECI KPAE 161809Z 15012G17KT 10SM FEW007 BKN017 OVC026 10/08 A3021 RMK AO2=
200810161753 METAR KPAE 161753Z 16012KT 10SM BKN017 BKN025 OVC034 10/08 A3020 RMK AO2 RAB13E35 SLP230 P0000 60000 T01000078 10100 20072 51008=
200810161728 SPECI KPAE 161728Z 15009KT 2SM -RA BR BKN019 BKN029 OVC034 09/08 A3021 RMK AO2 RAB13 P0000=
200810161728 SPECI KPAE 161728Z 15009KT 2SM -RA BR BKN019 BKN029 OVC034 09/08 A3021 RMK AO2 RAB13 P0000=
200810161720 SPECI KPAE 161720Z 16008KT 1 3/4SM -RA BR BKN019 OVC029 09/07 A3020 RMK AO2 RAB13 P0000=
200810161720 SPECI KPAE 161720Z 16008KT 1 3/4SM -RA BR BKN019 OVC029 09/07 A3020 RMK AO2 RAB13 P0000=
200810161653 METAR KPAE 161653Z 15005KT 10SM OVC019 09/07 A3019 RMK AO2 SLP226 T00890072=
200810161600 SPECI KPAE 161600Z VRB03KT 10SM OVC017 08/06 A3019 RMK AO2=
200810161600 SPECI KPAE 161600Z VRB03KT 10SM OVC017 08/06 A3019 RMK AO2=
200810161553 METAR KPAE 161553Z VRB04KT 10SM SCT003 OVC012 08/06 A3018 RMK AO2 SLP223 T00830061=
200810161509 SPECI KPAE 161509Z VRB04KT 10SM SCT003 OVC012 08/06 A3017 RMK AO2=
200810161509 SPECI KPAE 161509Z VRB04KT 10SM SCT003 OVC012 08/06 A3017 RMK AO2=
200810161453 METAR KPAE 161453Z VRB04KT 9SM OVC012 08/06 A3018 RMK AO2 SLP221 T00780061 58001=
200810161436 SPECI KPAE 161436Z 13004KT 7SM SCT002 OVC012 08/06 A3017 RMK AO2=
200810161436 SPECI KPAE 161436Z 13004KT 7SM SCT002 OVC012 08/06 A3017 RMK AO2=
200810161353 METAR KPAE 161353Z VRB06KT 3SM BR BKN002 OVC007 07/06 A3018 RMK AO2 SLP222 T00720061=
200810161313 SPECI KPAE 161313Z AUTO 15006KT 5SM BR BKN004 OVC016 08/06 A3018 RMK AO2 CIG 003V008=
200810161313 SPECI KPAE 161313Z AUTO 15006KT 5SM BR BKN004 OVC016 08/06 A3018 RMK AO2 CIG 003V008=
200810161253 METAR KPAE 161253Z AUTO VRB04KT 5SM BR SCT006 OVC018 07/06 A3018 RMK AO2 SLP222 T00720056=
200810161248 SPECI KPAE 161248Z AUTO 14005KT 5SM BR SCT006 OVC018 07/06 A3018 RMK AO2=
200810161248 SPECI KPAE 161248Z AUTO 14005KT 5SM BR SCT006 OVC018 07/06 A3018 RMK AO2=
200810161201 SPECI KPAE 161201Z AUTO 15004KT 7SM BKN006 OVC017 07/06 A3018 RMK AO2 CIG 004V009=
200810161201 SPECI KPAE 161201Z AUTO 15004KT 7SM BKN006 OVC017 07/06 A3018 RMK AO2 CIG 004V009=
200810161153 METAR KPAE 161153Z AUTO 15006KT 8SM SCT008 OVC017 08/06 A3018 RMK AO2 SLP222 60002 70019 T00780056 10078 20072 51003=
200810161143 SPECI KPAE 161143Z AUTO 15004KT 8SM SCT008 OVC019 08/06 A3018 RMK AO2=
200810161143 SPECI KPAE 161143Z AUTO 15004KT 8SM SCT008 OVC019 08/06 A3018 RMK AO2=
200810161053 METAR KPAE 161053Z AUTO 16006KT 10SM BKN019 OVC028 08/06 A3018 RMK AO2 SLP221 T00780056=
200810161044 SPECI KPAE 161044Z AUTO 15007KT 10SM BKN019 OVC032 08/06 A3018 RMK AO2=
200810161044 SPECI KPAE 161044Z AUTO 15007KT 10SM BKN019 OVC032 08/06 A3018 RMK AO2=
200810160953 METAR KPAE 160953Z AUTO 15004KT 10SM OVC038 07/06 A3018 RMK AO2 SLP223 T00720056=
200810160853 METAR KPAE 160853Z AUTO 12006KT 8SM BKN038 OVC085 07/06 A3017 RMK AO2 RAE0755 SLP220 P0000 60002 T00720056 58007=
200810160753 METAR KPAE 160753Z AUTO VRB03KT 7SM -RA FEW060 OVC075 07/06 A3018 RMK AO2 SLP224 P0001 T00720056 400890022=
200810160653 METAR KPAE 160653Z AUTO 12006KT 6SM -RA BR OVC075 07/06 A3019 RMK AO2 SLP226 P0001 T00720056=
200810160553 METAR KPAE 160553Z AUTO 12006KT 7SM -RA BKN075 OVC085 07/05 A3019 RMK AO2 SLP227 P0003 60017 T00720050 10089 20072 58011=
200810160453 METAR KPAE 160453Z AUTO 12006KT 5SM -RA BKN055 OVC070 07/04 A3021 RMK AO2 SLP235 P0003 T00720039=
200810160353 METAR KPAE 160353Z 11005KT 8SM -RA SCT042 OVC055 07/04 A3022 RMK AO2 SLP238 P0005 T00720039=
200810160253 METAR KPAE 160253Z 16009KT 4SM RA SCT034 OVC050 08/03 A3023 RMK AO2 RAB02 SLP240 P0006 60006 T00780033 55005=
200810160153 METAR KPAE 160153Z VRB04KT 8SM OVC060 09/04 A3022 RMK AO2 SLP237 T00890044=
200810160053 METAR KPAE 160053Z 12005KT 5SM HZ BKN080 08/04 A3022 RMK AO2 SLP235 T00830044=
200810152353 METAR KPAE 152353Z 00000KT 7SM FEW100 08/04 A3024 RMK AO2 SLP243 T00830044 10089 20044 58010=
200810152253 METAR KPAE 152253Z 00000KT 8SM CLR 08/04 A3026 RMK AO2 SLP249 T00830039=
200810152153 METAR KPAE 152153Z 27004KT 8SM FEW017 07/04 A3027 RMK AO2 SLP253 T00720039=
200810152145 SPECI KPAE 152145Z 00000KT 9SM FEW015 07/04 A3026 RMK AO2=
200810152145 SPECI KPAE 152145Z 00000KT 9SM FEW015 07/04 A3026 RMK AO2=
200810152106 SPECI KPAE 152106Z 26003KT 8SM BKN015 08/04 A3027 RMK AO2=
200810152106 SPECI KPAE 152106Z 26003KT 8SM BKN015 08/04 A3027 RMK AO2=
200810152053 METAR KPAE 152053Z VRB03KT 9SM BKN013 08/04 A3027 RMK AO2 SLP254 T00830039 58012=
200810151953 METAR KPAE 151953Z 00000KT 7SM SCT005 OVC011 07/04 A3030 RMK AO2 SLP262 T00670039=
200810151907 SPECI KPAE 151907Z 00000KT 2SM HZ BKN003 BKN009 07/04 A3030 RMK AO2=
200810151907 SPECI KPAE 151907Z 00000KT 2SM HZ BKN003 BKN009 07/04 A3030 RMK AO2=
200810151900 SPECI KPAE 151900Z 00000KT 5SM HZ BKN005 BKN009 07/04 A3031 RMK AO2=
200810151900 SPECI KPAE 151900Z 00000KT 5SM HZ BKN005 BKN009 07/04 A3031 RMK AO2=
200810151853 METAR KPAE 151853Z 00000KT 2SM BR BKN003 06/04 A3031 RMK AO2 SLP267 T00610044=
200810151809 SPECI KPAE 151809Z 00000KT 1 1/4SM BR OVC003 05/04 A3031 RMK AO2=
200810151809 SPECI KPAE 151809Z 00000KT 1 1/4SM BR OVC003 05/04 A3031 RMK AO2=
200810151755 SPECI KPAE 151755Z 00000KT 1/4SM FG OVC003 04/03 A3031 RMK AO2 CIG 001V005 RVRNO=
200810151755 SPECI KPAE 151755Z 00000KT 1/4SM FG OVC003 04/03 A3031 RMK AO2 CIG 001V005 RVRNO=
200810151753 METAR KPAE 151753Z 00000KT 1/4SM FG OVC001 04/03 A3031 RMK AO2 CIG 001V005 SLP267 T00440033 10044 20022 58000 RVRNO=
200810151726 SPECI KPAE 151726Z 00000KT 3/4SM BR OVC001 04/03 A3031 RMK AO2 RVRNO=
200810151726 SPECI KPAE 151726Z 00000KT 3/4SM BR OVC001 04/03 A3031 RMK AO2 RVRNO=
200810151653 METAR KPAE 151653Z 00000KT 1/4SM FG VV001 04/03 A3031 RMK AO2 SLP269 T00390028 RVRNO=
200810151611 SPECI KPAE 151611Z 00000KT 1/4SM FG VV001 03/02 A3031 RMK AO2 RVRNO=
200810151611 SPECI KPAE 151611Z 00000KT 1/4SM FG VV001 03/02 A3031 RMK AO2 RVRNO=
200810151609 SPECI KPAE 151609Z 11003KT 1 3/4SM BR CLR 03/02 A3031 RMK AO2=
200810151609 SPECI KPAE 151609Z 11003KT 1 3/4SM BR CLR 03/02 A3031 RMK AO2=
200810151600 SPECI KPAE 151600Z 11004KT 5SM BR CLR 04/03 A3031 RMK AO2=
200810151600 SPECI KPAE 151600Z 11004KT 5SM BR CLR 04/03 A3031 RMK AO2=
200810151553 METAR KPAE 151553Z 00000KT 5SM BR VV001 04/03 A3031 RMK AO2 SLP269 T00440028=
200810151453 METAR KPAE 151453Z 00000KT 10SM FEW001 03/02 A3031 RMK AO2 SLP267 T00280017 55002=
200810151414 SPECI KPAE 151414Z 00000KT 10SM FEW001 03/01 A3030 RMK AO2=
200810151414 SPECI KPAE 151414Z 00000KT 10SM FEW001 03/01 A3030 RMK AO2=
200810151353 METAR KPAE 151353Z 00000KT 1/4SM FG VV001 03/02 A3030 RMK AO2 SLP265 T00280017 RVRNO=
200810151253 METAR KPAE 151253Z AUTO 00000KT 1/4SM FG VV001 03/03 A3031 RMK AO2 SLP266 T00330028 RVRNO=
200810151221 SPECI KPAE 151221Z AUTO 12003KT 1/4SM FG VV001 04/03 A3030 RMK AO2 RVRNO=
200810151221 SPECI KPAE 151221Z AUTO 12003KT 1/4SM FG VV001 04/03 A3030 RMK AO2 RVRNO=
200810151202 SPECI KPAE 151202Z AUTO 00000KT 3/4SM BR VV001 04/03 A3031 RMK AO2 RVRNO=
200810151202 SPECI KPAE 151202Z AUTO 00000KT 3/4SM BR VV001 04/03 A3031 RMK AO2 RVRNO=
200810151153 METAR KPAE 151153Z AUTO 00000KT 1 1/4SM BR BKN001 04/03 A3031 RMK AO2 SLP268 T00440033 10056 20028 58004=
200810151139 SPECI KPAE 151139Z AUTO 00000KT 3/4SM BR VV001 04/04 A3031 RMK AO2 RVRNO=
200810151139 SPECI KPAE 151139Z AUTO 00000KT 3/4SM BR VV001 04/04 A3031 RMK AO2 RVRNO=
200810151102 SPECI KPAE 151102Z AUTO 00000KT 1/4SM FG VV001 04/03 A3032 RMK AO2 RVRNO=
200810151102 SPECI KPAE 151102Z AUTO 00000KT 1/4SM FG VV001 04/03 A3032 RMK AO2 RVRNO=
200810151057 SPECI KPAE 151057Z AUTO 00000KT 1SM BR VV001 04/03 A3032 RMK AO2 RVRNO=
200810151057 SPECI KPAE 151057Z AUTO 00000KT 1SM BR VV001 04/03 A3032 RMK AO2 RVRNO=
200810151053 METAR KPAE 151053Z AUTO 02003KT 2 1/2SM BR FEW001 04/03 A3032 RMK AO2 SLP270 T00440028=
200810150953 METAR KPAE 150953Z AUTO 33003KT 4SM BR CLR 04/03 A3033 RMK AO2 SLP272 T00390028=
200810150853 METAR KPAE 150853Z AUTO 00000KT 7SM CLR 04/03 A3032 RMK AO2 SLP272 T00440028 55005=
200810150753 METAR KPAE 150753Z AUTO 00000KT 5SM BR CLR 05/03 A3032 RMK AO2 SLP269 T00500033 401110039=
200810150653 METAR KPAE 150653Z AUTO 00000KT 5SM BR CLR 05/03 A3034 RMK AO2 SLP276 T00500033=
200810150553 METAR KPAE 150553Z AUTO 00000KT 10SM CLR 05/03 A3034 RMK AO2 SLP277 T00500028 10100 20044 56016=
200810150453 METAR KPAE 150453Z AUTO 00000KT 10SM CLR 06/03 A3035 RMK AO2 SLP282 T00610028=
200810150353 METAR KPAE 150353Z AUTO 00000KT 10SM CLR 06/03 A3037 RMK AO2 SLP288 T00610028=
200810150253 METAR KPAE 150253Z 00000KT 10SM CLR 07/02 A3039 RMK AO2 SLP293 T00670022 58007=
200810150153 METAR KPAE 150153Z 32003KT 10SM CLR 08/02 A3040 RMK AO2 SLP298 T00780017=
200810150053 METAR KPAE 150053Z 33004KT 10SM CLR 09/02 A3040 RMK AO2 SLP297 T00890017=
200810142353 METAR KPAE 142353Z 34005KT 10SM CLR 09/02 A3041 RMK AO2 SLP299 T00940017 10111 20089 56016=
200810142253 METAR KPAE 142253Z 01006KT 10SM BKN200 11/03 A3042 RMK AO2 SLP304 T01060028=
200810142153 METAR KPAE 142153Z 34004KT 10SM CLR 11/03 A3044 RMK AO2 SLP309 T01060028=
200810142053 METAR KPAE 142053Z 35006KT 10SM CLR 11/03 A3046 RMK AO2 SLP315 T01110028 58005=
200810141953 METAR KPAE 141953Z 33005KT 10SM CLR 10/02 A3047 RMK AO2 SLP320 T01000022=
200810141853 METAR KPAE 141853Z 34006KT 10SM FEW050 10/03 A3048 RMK AO2 SLP322 T01000033=
200810141753 METAR KPAE 141753Z 01006KT 10SM BKN050 09/02 A3047 RMK AO2 SLP321 T00940017 10094 20067 50003=
200810141653 METAR KPAE 141653Z 01005KT 10SM CLR 09/03 A3048 RMK AO2 SLP323 T00940028=
200810141553 METAR KPAE 141553Z 02006KT 10SM CLR 08/04 A3047 RMK AO2 SLP320 T00830039=
200810141453 METAR KPAE 141453Z 00000KT 8SM CLR 07/06 A3046 RMK AO2 SLP318 T00720056 53008=
200810141353 METAR KPAE 141353Z 35003KT 7SM CLR 07/05 A3045 RMK AO2 SLP315 T00670050=
200810141253 METAR KPAE 141253Z AUTO VRB04KT 10SM CLR 07/05 A3044 RMK AO2 SLP311 T00720050=
200810141223 SPECI KPAE 141223Z AUTO 34004KT 9SM SCT027 SCT035 08/06 A3044 RMK AO2=
200810141223 SPECI KPAE 141223Z AUTO 34004KT 9SM SCT027 SCT035 08/06 A3044 RMK AO2=
200810141205 SPECI KPAE 141205Z AUTO 34003KT 9SM BKN029 BKN035 08/06 A3044 RMK AO2=
200810141205 SPECI KPAE 141205Z AUTO 34003KT 9SM BKN029 BKN035 08/06 A3044 RMK AO2=
200810141153 METAR KPAE 141153Z AUTO 00000KT 9SM FEW029 08/06 A3044 RMK AO2 SLP310 70036 T00780056 10100 20078 53004=
200810141053 METAR KPAE 141053Z AUTO VRB05KT 10SM BKN041 OVC049 08/05 A3042 RMK AO2 SLP304 T00830050=
200810140953 METAR KPAE 140953Z AUTO VRB04KT 10SM BKN031 08/06 A3043 RMK AO2 SLP307 T00830056=
200810140915 SPECI KPAE 140915Z AUTO 34009G15KT 320V030 10SM SCT021 SCT027 09/06 A3043 RMK AO2=
200810140915 SPECI KPAE 140915Z AUTO 34009G15KT 320V030 10SM SCT021 SCT027 09/06 A3043 RMK AO2=
200810140853 METAR KPAE 140853Z AUTO VRB04KT 10SM BKN022 OVC027 09/07 A3043 RMK AO2 SLP305 T00940067 50012=
200810140753 METAR KPAE 140753Z AUTO 00000KT 10SM BKN020 OVC025 09/08 A3043 RMK AO2 SLP305 T00940078 401440089=
200810140727 SPECI KPAE 140727Z AUTO 00000KT 10SM SCT022 BKN029 OVC044 09/07 A3042 RMK AO2=
200810140727 SPECI KPAE 140727Z AUTO 00000KT 10SM SCT022 BKN029 OVC044 09/07 A3042 RMK AO2=
200810140653 METAR KPAE 140653Z AUTO 17004KT 10SM FEW020 BKN034 09/07 A3041 RMK AO2 SLP300 T00890072=
200810140617 SPECI KPAE 140617Z AUTO 16006KT 8SM BKN020 OVC075 09/08 A3040 RMK AO2=
200810140617 SPECI KPAE 140617Z AUTO 16006KT 8SM BKN020 OVC075 09/08 A3040 RMK AO2=
200810140553 METAR KPAE 140553Z AUTO VRB04KT 10SM OVC075 09/08 A3039 RMK AO2 SLP293 60036 T00940078 10117 20094 53009=
200810140453 METAR KPAE 140453Z AUTO 11003KT 9SM OVC070 10/08 A3038 RMK AO2 RAE20 SLP290 P0000 T01000078=
200810140353 METAR KPAE 140353Z 03004KT 10SM -RA OVC060 10/07 A3035 RMK AO2 SLP281 P0002 T01000067=
200810140253 METAR KPAE 140253Z 34004KT 6SM -RA BKN055 OVC070 10/07 A3036 RMK AO2 SLP284 P0004 60034 T01000072 51009=
200810140153 METAR KPAE 140153Z 32006G15KT 4SM -RA BR FEW024 SCT041 OVC049 10/08 A3035 RMK AO2 SLP281 P0013 T01000078=
200810140144 SPECI KPAE 140144Z 31008G17KT 3SM -RA BR FEW009 BKN041 OVC049 10/08 A3035 RMK AO2 P0012=
200810140144 SPECI KPAE 140144Z 31008G17KT 3SM -RA BR FEW009 BKN041 OVC049 10/08 A3035 RMK AO2 P0012=
200810140141 SPECI KPAE 140141Z 32011G17KT 2 1/2SM -RA BR FEW009 BKN023 OVC049 10/08 A3035 RMK AO2 P0012=
200810140141 SPECI KPAE 140141Z 32011G17KT 2 1/2SM -RA BR FEW009 BKN023 OVC049 10/08 A3035 RMK AO2 P0012=
200810140131 SPECI KPAE 140131Z 30012G20KT 1 3/4SM RA BR SCT009 BKN020 OVC041 10/08 A3035 RMK AO2 P0011=
200810140131 SPECI KPAE 140131Z 30012G20KT 1 3/4SM RA BR SCT009 BKN020 OVC041 10/08 A3035 RMK AO2 P0011=
200810140116 SPECI KPAE 140116Z 30007KT 2SM -RA BR BKN006 BKN010 OVC024 11/09 A3036 RMK AO2 CIG 004V009 P0007=
200810140116 SPECI KPAE 140116Z 30007KT 2SM -RA BR BKN006 BKN010 OVC024 11/09 A3036 RMK AO2 CIG 004V009 P0007=
200810140053 METAR KPAE 140053Z 30006KT 1SM +RA BR BKN006 OVC011 11/09 A3036 RMK AO2 CIG 004V009 SLP280 P0017 T01060089 RVRNO=
200810140036 SPECI KPAE 140036Z 31005KT 1SM -RA BR OVC008 11/09 A3035 RMK AO2 CIG 004V012 P0011 RVRNO=
200810140036 SPECI KPAE 140036Z 31005KT 1SM -RA BR OVC008 11/09 A3035 RMK AO2 CIG 004V012 P0011 RVRNO=
200810140028 SPECI KPAE 140028Z 29004KT 3/4SM RA BR BKN008 OVC014 11/09 A3035 RMK AO2 CIG 004V010 P0009 RVRNO=
200810140028 SPECI KPAE 140028Z 29004KT 3/4SM RA BR BKN008 OVC014 11/09 A3035 RMK AO2 CIG 004V010 P0009 RVRNO=
200810140013 SPECI KPAE 140013Z 27005KT 1 3/4SM RA BR BKN008 OVC014 12/09 A3035 RMK AO2 CIG 006V013 P0004=
200810140013 SPECI KPAE 140013Z 27005KT 1 3/4SM RA BR BKN008 OVC014 12/09 A3035 RMK AO2 CIG 006V013 P0004=
200810132353 METAR KPAE 132353Z 24008KT 10SM -RA BKN008 OVC011 12/09 A3034 RMK AO2 RAB42 CIG 006V009 SLP274 P0000 60000 T01170094 10144 20117 55002=
200810132253 METAR KPAE 132253Z 21015G26KT 10SM OVC013 14/11 A3032 RMK AO2 PK WND 22026/2246 SLP267 T01440106=
200810132153 METAR KPAE 132153Z 19020G24KT 10SM OVC013 14/11 A3032 RMK AO2 SLP269 T01440111=
200810132115 SPECI KPAE 132115Z 19012KT 10SM OVC008 14/11 A3034 RMK AO2=
200810132115 SPECI KPAE 132115Z 19012KT 10SM OVC008 14/11 A3034 RMK AO2=
200810132102 SPECI KPAE 132102Z 18013KT 10SM OVC010 14/11 A3034 RMK AO2=
200810132102 SPECI KPAE 132102Z 18013KT 10SM OVC010 14/11 A3034 RMK AO2=
200810132053 METAR KPAE 132053Z 19014G22KT 10SM OVC008 13/11 A3034 RMK AO2 SLP276 60000 T01330111 58015=
200810131953 METAR KPAE 131953Z 17009KT 10SM OVC006 13/11 A3036 RMK AO2 CIG 005V010 SLP283 T01280111=
200810131900 SPECI KPAE 131900Z 17007KT 7SM OVC006 12/11 A3039 RMK AO2=
200810131900 SPECI KPAE 131900Z 17007KT 7SM OVC006 12/11 A3039 RMK AO2=
200810131853 METAR KPAE 131853Z 16006KT 2 1/2SM BR OVC006 12/10 A3039 RMK AO2 RAB1754E05 SLP293 P0000 T01220100=
200810131753 METAR KPAE 131753Z 16006KT 2 1/2SM BR OVC006 12/10 A3039 RMK AO2 SLP292 T01170100 10117 20094 55001=
200810131748 SPECI KPAE 131748Z 16007KT 3SM BR OVC006 12/10 A3039 RMK AO2=
200810131748 SPECI KPAE 131748Z 16007KT 3SM BR OVC006 12/10 A3039 RMK AO2=
200810131736 SPECI KPAE 131736Z 16007KT 2 1/2SM BR OVC006 12/10 A3039 RMK AO2=
200810131736 SPECI KPAE 131736Z 16007KT 2 1/2SM BR OVC006 12/10 A3039 RMK AO2=
200810131714 SPECI KPAE 131714Z 17010KT 4SM BR OVC006 11/09 A3039 RMK AO2=
200810131714 SPECI KPAE 131714Z 17010KT 4SM BR OVC006 11/09 A3039 RMK AO2=
200810131653 METAR KPAE 131653Z 17010KT 2 1/2SM BR OVC004 11/09 A3039 RMK AO2 CIG 003V007 SLP292 T01110094=
200810131553 METAR KPAE 131553Z 12005KT 1SM BR BKN002 OVC008 10/09 A3039 RMK AO2 CIG 001V006 SLP293 T01000089 RVRNO=
200810131545 SPECI KPAE 131545Z VRB03KT 1SM BR BKN002 OVC010 10/09 A3039 RMK AO2 CIG 001V006 RVRNO=
200810131545 SPECI KPAE 131545Z VRB03KT 1SM BR BKN002 OVC010 10/09 A3039 RMK AO2 CIG 001V006 RVRNO=
200810131502 SPECI KPAE 131502Z 12007KT 1 3/4SM BR FEW004 OVC010 10/08 A3040 RMK AO2=
200810131502 SPECI KPAE 131502Z 12007KT 1 3/4SM BR FEW004 OVC010 10/08 A3040 RMK AO2=
200810131453 METAR KPAE 131453Z 00000KT 2SM BR SCT004 OVC009 09/08 A3040 RMK AO2 CIG 007V013 SLP295 T00940083 51004=
200810131434 SPECI KPAE 131434Z 12003KT 2SM BR FEW004 OVC009 09/08 A3040 RMK AO2 CIG 007V011=
200810131434 SPECI KPAE 131434Z 12003KT 2SM BR FEW004 OVC009 09/08 A3040 RMK AO2 CIG 007V011=
200810131420 SPECI KPAE 131420Z VRB04KT 2 1/2SM BR FEW004 OVC011 09/08 A3040 RMK AO2=
200810131420 SPECI KPAE 131420Z VRB04KT 2 1/2SM BR FEW004 OVC011 09/08 A3040 RMK AO2=
200810131353 METAR KPAE 131353Z VRB05KT 2 1/2SM BR OVC011 09/08 A3039 RMK AO2 SLP293 T00940078=
200810131253 METAR KPAE 131253Z AUTO 15008KT 2 1/2SM BR FEW005 OVC013 10/08 A3040 RMK AO2 SLP294 T01000078=
200810131153 METAR KPAE 131153Z AUTO 16013G17KT 10SM OVC013 11/07 A3039 RMK AO2 SLP291 60000 T01060072 10117 20106 56005=
200810131129 SPECI KPAE 131129Z AUTO 16013G18KT 10SM BKN013 OVC021 11/06 A3039 RMK AO2=
200810131129 SPECI KPAE 131129Z AUTO 16013G18KT 10SM BKN013 OVC021 11/06 A3039 RMK AO2=
200810131053 METAR KPAE 131053Z AUTO 15007KT 120V190 10SM FEW012 OVC023 11/06 A3039 RMK AO2 RAB33E49 SLP293 P0000 T01060061=
200810130953 METAR KPAE 130953Z AUTO 15010KT 10SM OVC028 11/06 A3040 RMK AO2 SLP294 T01060056=
200810130853 METAR KPAE 130853Z AUTO 17010KT 10SM BKN050 OVC065 11/04 A3040 RMK AO2 SLP296 T01110044 52000=
200810130753 METAR KPAE 130753Z AUTO 15010KT 10SM BKN039 OVC050 12/03 A3040 RMK AO2 SLP295 T01170028 401330061=
200810130653 METAR KPAE 130653Z AUTO 15007KT 10SM FEW040 BKN050 OVC060 12/03 A3040 RMK AO2 SLP297 T01170028=
200810130553 METAR KPAE 130553Z AUTO VRB03KT 10SM OVC036 12/02 A3040 RMK AO2 SLP296 T01170022 10133 20117 52003=
200810130453 METAR KPAE 130453Z AUTO 15006KT 10SM BKN034 OVC043 12/02 A3040 RMK AO2 SLP294 T01170017=
200810130353 METAR KPAE 130353Z AUTO VRB04KT 10SM OVC034 12/02 A3040 RMK AO2 SLP296 T01220022=
200810130253 METAR KPAE 130253Z 15005KT 10SM OVC034 13/01 A3039 RMK AO2 SLP294 T01280011 53005=
200810130153 METAR KPAE 130153Z 15004KT 10SM OVC038 13/02 A3039 RMK AO2 SLP292 T01280022=
200810130053 METAR KPAE 130053Z 16004KT 10SM BKN032 OVC060 13/03 A3038 RMK AO2 SLP289 T01330028=
200810122353 METAR KPAE 122353Z 24005KT 10SM BKN032 OVC047 13/02 A3038 RMK AO2 SLP288 T01280017 10133 20106 55002=
200810122253 METAR KPAE 122253Z 26005KT 10SM OVC045 13/01 A3037 RMK AO2 SLP286 T01330006=
200810122153 METAR KPAE 122153Z 26005KT 10SM OVC043 13/02 A3038 RMK AO2 SLP287 T01280022=
200810122053 METAR KPAE 122053Z VRB04KT 10SM OVC044 13/03 A3038 RMK AO2 SLP290 T01280033 51006=
200810121953 METAR KPAE 121953Z 25005KT 10SM CLR 12/03 A3038 RMK AO2 SLP290 T01220028=
200810121853 METAR KPAE 121853Z 26004KT 10SM CLR 12/03 A3037 RMK AO2 SLP286 T01170028=
200810121753 METAR KPAE 121753Z 00000KT 10SM CLR 11/03 A3036 RMK AO2 SLP284 T01110033 10111 20061 51010=
200810121653 METAR KPAE 121653Z 18004KT 8SM CLR 09/06 A3036 RMK AO2 SLP284 T00940056=
200810121553 METAR KPAE 121553Z 00000KT 7SM CLR 08/04 A3036 RMK AO2 SLP282 T00780044=
200810121453 METAR KPAE 121453Z 00000KT 6SM BR FEW110 07/05 A3033 RMK AO2 SLP274 T00720050 53003=
200810121353 METAR KPAE 121353Z AUTO 00000KT 7SM BKN100 07/04 A3033 RMK AO2 SLP273 T00720044=
200810121253 METAR KPAE 121253Z AUTO 00000KT 7SM CLR 08/06 A3032 RMK AO2 SLP269 T00780056=
200810121153 METAR KPAE 121153Z AUTO 00000KT 9SM FEW120 08/06 A3032 RMK AO2 SLP271 60001 70001 T00780056 10089 20072 50001=
200810121053 METAR KPAE 121053Z AUTO 00000KT 10SM CLR 08/06 A3033 RMK AO2 SLP272 T00780056=
200810120953 METAR KPAE 120953Z AUTO 00000KT 10SM OVC095 08/05 A3032 RMK AO2 SLP270 T00830050=
200810120853 METAR KPAE 120853Z AUTO 00000KT 10SM OVC100 08/04 A3032 RMK AO2 SLP270 60001 T00780044 53002=
200810120753 METAR KPAE 120753Z AUTO 00000KT 10SM FEW070 OVC110 08/04 A3032 RMK AO2 RAB04E38 SLP268 P0001 T00830044 401170022=
200810120653 METAR KPAE 120653Z AUTO 00000KT 10SM OVC075 09/03 A3031 RMK AO2 SLP267 T00890033=
200810120553 METAR KPAE 120553Z AUTO 00000KT 10SM OVC110 08/04 A3031 RMK AO2 SLP268 T00830044 10106 20083 53002=
200810120453 METAR KPAE 120453Z AUTO 00000KT 10SM BKN120 09/04 A3031 RMK AO2 SLP266 T00890044=
200810120353 METAR KPAE 120353Z AUTO 00000KT 10SM FEW120 09/04 A3030 RMK AO2 SLP265 T00890039=
200810120253 METAR KPAE 120253Z 00000KT 10SM CLR 09/03 A3031 RMK AO2 SLP266 T00890033 53004=
200810120153 METAR KPAE 120153Z 01003KT 10SM CLR 09/03 A3030 RMK AO2 SLP265 T00890033=
200810120053 METAR KPAE 120053Z 35004KT 10SM CLR 10/02 A3030 RMK AO2 SLP262 T01000022=
200810112353 METAR KPAE 112353Z 35005KT 10SM CLR 11/02 A3030 RMK AO2 SLP262 T01060017 10117 20083 56009=
200810112253 METAR KPAE 112253Z VRB04KT 10SM CLR 11/01 A3030 RMK AO2 SLP264 T01060011=
200810112153 METAR KPAE 112153Z VRB04KT 10SM CLR 12/01 A3031 RMK AO2 SLP266 T01170006=
200810112053 METAR KPAE 112053Z 36006KT 10SM CLR 10/01 A3032 RMK AO2 SLP272 T01000011 58012=
200810111953 METAR KPAE 111953Z 36007KT 10SM CLR 09/02 A3034 RMK AO2 SLP278 T00940017=
200810111853 METAR KPAE 111853Z 01005KT 10SM CLR 09/01 A3035 RMK AO2 SLP282 T00890006=
200810111753 METAR KPAE 111753Z VRB04KT 10SM CLR 08/02 A3036 RMK AO2 SLP284 T00830022 10083 20022 50002=
200810111653 METAR KPAE 111653Z 00000KT 10SM CLR 07/02 A3037 RMK AO2 SLP286 T00720022=
200810111553 METAR KPAE 111553Z 00000KT 10SM CLR 06/02 A3036 RMK AO2 SLP286 T00610017=
200810111453 METAR KPAE 111453Z 11003KT 10SM CLR 04/01 A3036 RMK AO2 SLP282 T00390011 53002=
200810111353 METAR KPAE 111353Z 00000KT 10SM CLR 02/00 A3035 RMK AO2 SLP282 T00220000=
200810111253 METAR KPAE 111253Z AUTO 00000KT 10SM CLR 04/02 A3035 RMK AO2 SLP280 T00440017=
200810111153 METAR KPAE 111153Z AUTO 15003KT 10SM CLR 04/02 A3035 RMK AO2 SLP280 T00390017 10072 20039 58003=
200810111053 METAR KPAE 111053Z AUTO 12003KT 10SM FEW013 04/02 A3035 RMK AO2 SLP280 T00440022=
200810110953 METAR KPAE 110953Z AUTO 12005KT 10SM CLR 05/03 A3036 RMK AO2 SLP283 T00500028=
200810110853 METAR KPAE 110853Z AUTO 05003KT 10SM CLR 06/03 A3036 RMK AO2 SLP283 T00560028 53003=
200810110753 METAR KPAE 110753Z AUTO 36003KT 10SM CLR 06/03 A3035 RMK AO2 SLP282 T00560028 401220039=
200810110653 METAR KPAE 110653Z AUTO 36003KT 10SM CLR 07/03 A3035 RMK AO2 SLP281 T00670033=
200810110553 METAR KPAE 110553Z AUTO 00000KT 10SM CLR 07/02 A3035 RMK AO2 SLP281 T00720022 10117 20072 51005=
200810110453 METAR KPAE 110453Z AUTO 35003KT 10SM CLR 08/02 A3035 RMK AO2 SLP280 T00780022=
200810110353 METAR KPAE 110353Z AUTO 35004KT 10SM CLR 08/03 A3034 RMK AO2 SLP279 T00830028=
200810110253 METAR KPAE 110253Z 34007KT 10SM CLR 08/02 A3034 RMK AO2 SLP276 T00830017 53005=
200810110153 METAR KPAE 110153Z 32003KT 10SM CLR 09/02 A3033 RMK AO2 SLP273 T00890017=
200810110053 METAR KPAE 110053Z 32006KT 10SM CLR 09/02 A3032 RMK AO2 SLP270 T00940022=
200810102353 METAR KPAE 102353Z VRB06KT 10SM CLR 12/03 A3032 RMK AO2 SLP269 T01170033 10122 20078 55003=
200810102253 METAR KPAE 102253Z 32009KT 10SM CLR 12/03 A3032 RMK AO2 SLP269 T01220028=
200810102153 METAR KPAE 102153Z VRB06KT 10SM CLR 11/02 A3032 RMK AO2 SLP268 T01110022=
200810102053 METAR KPAE 102053Z VRB06KT 10SM CLR 11/03 A3033 RMK AO2 SLP272 T01060033 58003=
200810101953 METAR KPAE 101953Z 36007KT 330V040 10SM CLR 09/03 A3034 RMK AO2 SLP275 T00940028=
200810101853 METAR KPAE 101853Z VRB05KT 10SM CLR 09/03 A3034 RMK AO2 SLP279 T00890028=
200810101800 METAR KPAE NIL=
200810101753 METAR KPAE 101753Z 01005KT 10SM CLR 08/03 A3034 RMK AO2 SLP277 T00780028 10078 20039 51015=
200810101653 METAR KPAE 101653Z VRB04KT 10SM SCT010 07/03 A3033 RMK AO2 SLP274 T00670028=
200810101600 SPECI KPAE 101600Z 02004KT 10SM BKN014 06/02 A3032 RMK AO2=
200810101600 SPECI KPAE 101600Z 02004KT 10SM BKN014 06/02 A3032 RMK AO2=
200810101553 METAR KPAE 101553Z 02004KT 10SM FEW002 SCT014 06/02 A3031 RMK AO2 SLP269 T00560022=
200810101543 SPECI KPAE 101543Z VRB03KT 7SM SCT002 BKN016 05/03 A3031 RMK AO2=
200810101543 SPECI KPAE 101543Z VRB03KT 7SM SCT002 BKN016 05/03 A3031 RMK AO2=
200810101453 METAR KPAE 101453Z VRB03KT 4SM BR BKN004 04/03 A3030 RMK AO2 SLP263 T00440028 53014=
200810101353 METAR KPAE 101353Z 01005KT 5SM BR OVC004 05/03 A3028 RMK AO2 SLP256 T00500028=
200810101332 SPECI KPAE 101332Z AUTO 36005KT 5SM BR OVC004 06/03 A3027 RMK AO2=
200810101332 SPECI KPAE 101332Z AUTO 36005KT 5SM BR OVC004 06/03 A3027 RMK AO2=
200810101306 SPECI KPAE 101306Z AUTO VRB04KT 5SM BR OVC008 06/04 A3027 RMK AO2 CIG 005V011=
200810101306 SPECI KPAE 101306Z AUTO VRB04KT 5SM BR OVC008 06/04 A3027 RMK AO2 CIG 005V011=
200810101253 METAR KPAE 101253Z AUTO 01005KT 5SM BR BKN010 BKN013 OVC021 06/04 A3027 RMK AO2 CIG 006V012 SLP253 T00610039=
200810101226 SPECI KPAE 101226Z AUTO 35005KT 7SM SCT006 BKN012 OVC019 06/04 A3026 RMK AO2=
200810101226 SPECI KPAE 101226Z AUTO 35005KT 7SM SCT006 BKN012 OVC019 06/04 A3026 RMK AO2=
200810101153 METAR KPAE 101153Z AUTO 36004KT 8SM BKN006 BKN011 OVC017 06/04 A3025 RMK AO2 CIG 004V009 SLP248 T00610039 10072 20061 51007=
200810101150 SPECI KPAE 101150Z AUTO VRB06KT 8SM BKN004 BKN009 OVC017 06/04 A3025 RMK AO2 CIG 004V008=
200810101150 SPECI KPAE 101150Z AUTO VRB06KT 8SM BKN004 BKN009 OVC017 06/04 A3025 RMK AO2 CIG 004V008=
200810101109 SPECI KPAE 101109Z AUTO 02003KT 10SM BKN008 BKN013 OVC019 07/04 A3024 RMK AO2 CIG 006V011=
200810101109 SPECI KPAE 101109Z AUTO 02003KT 10SM BKN008 BKN013 OVC019 07/04 A3024 RMK AO2 CIG 006V011=
200810101103 SPECI KPAE 101103Z AUTO 00000KT 10SM SCT008 OVC019 07/04 A3024 RMK AO2=
200810101103 SPECI KPAE 101103Z AUTO 00000KT 10SM SCT008 OVC019 07/04 A3024 RMK AO2=
200810101053 METAR KPAE 101053Z AUTO 35003KT 10SM SCT010 BKN013 OVC018 07/04 A3024 RMK AO2 SLP242 T00670044=
200810101037 SPECI KPAE 101037Z AUTO 00000KT 10SM FEW006 BKN010 OVC018 07/04 A3024 RMK AO2=
200810101037 SPECI KPAE 101037Z AUTO 00000KT 10SM FEW006 BKN010 OVC018 07/04 A3024 RMK AO2=
200810101011 SPECI KPAE 101011Z AUTO 36004KT 10SM OVC010 06/04 A3023 RMK AO2=
200810101011 SPECI KPAE 101011Z AUTO 36004KT 10SM OVC010 06/04 A3023 RMK AO2=
200810100953 METAR KPAE 100953Z AUTO 01003KT 10SM BKN008 OVC013 07/04 A3023 RMK AO2 CIG 007V011 SLP240 T00670044=
200810100938 SPECI KPAE 100938Z AUTO VRB03KT 10SM BKN009 OVC016 07/05 A3023 RMK AO2 CIG 007V014=
200810100938 SPECI KPAE 100938Z AUTO VRB03KT 10SM BKN009 OVC016 07/05 A3023 RMK AO2 CIG 007V014=
200810100919 SPECI KPAE 100919Z AUTO 36007KT 10SM BKN013 BKN018 OVC024 07/04 A3023 RMK AO2=
200810100919 SPECI KPAE 100919Z AUTO 36007KT 10SM BKN013 BKN018 OVC024 07/04 A3023 RMK AO2=
200810100853 METAR KPAE 100853Z AUTO VRB04KT 10SM FEW015 OVC021 07/04 A3023 RMK AO2 SLP237 T00720039 53006=
200810100828 SPECI KPAE 100828Z AUTO 35006KT 10SM SCT012 OVC019 07/04 A3022 RMK AO2=
200810100828 SPECI KPAE 100828Z AUTO 35006KT 10SM SCT012 OVC019 07/04 A3022 RMK AO2=
200810100753 METAR KPAE 100753Z AUTO 35007KT 10SM BKN012 OVC019 07/04 A3022 RMK AO2 SLP235 T00670039 401110050=
200810100653 METAR KPAE 100653Z AUTO 34004KT 10SM OVC013 06/04 A3022 RMK AO2 SLP235 T00610039=
200810100604 SPECI KPAE 100604Z AUTO 34005KT 10SM BKN011 OVC090 06/04 A3021 RMK AO2=
200810100604 SPECI KPAE 100604Z AUTO 34005KT 10SM BKN011 OVC090 06/04 A3021 RMK AO2=
200810100553 METAR KPAE 100553Z AUTO 34005KT 10SM SCT011 BKN090 06/04 A3021 RMK AO2 SLP232 60000 T00610039 10083 20056 52004=
200810100527 SPECI KPAE 100527Z AUTO 34004KT 10SM BKN011 BKN090 06/04 A3021 RMK AO2=
200810100527 SPECI KPAE 100527Z AUTO 34004KT 10SM BKN011 BKN090 06/04 A3021 RMK AO2=
200810100453 METAR KPAE 100453Z 33005KT 10SM FEW008 06/04 A3020 RMK AO2 SLP230 T00560039=
200810100428 SPECI KPAE 100428Z 32005KT 10SM SCT008 OVC049 06/04 A3020 RMK AO2=
200810100428 SPECI KPAE 100428Z 32005KT 10SM SCT008 OVC049 06/04 A3020 RMK AO2=
200810100413 SPECI KPAE 100413Z 33007KT 10SM BKN010 BKN022 OVC049 06/04 A3020 RMK AO2 CIG 008V013=
200810100413 SPECI KPAE 100413Z 33007KT 10SM BKN010 BKN022 OVC049 06/04 A3020 RMK AO2 CIG 008V013=
200810100353 METAR KPAE 100353Z 31006KT 10SM FEW010 BKN027 OVC043 06/04 A3020 RMK AO2 SLP230 T00610039=
200810100338 SPECI KPAE 100338Z 33004KT 10SM FEW012 SCT019 OVC030 06/04 A3020 RMK AO2=
200810100338 SPECI KPAE 100338Z 33004KT 10SM FEW012 SCT019 OVC030 06/04 A3020 RMK AO2=
200810100258 SPECI KPAE 100258Z 32004KT 10SM SCT013 BKN019 OVC026 06/04 A3020 RMK AO2=
200810100258 SPECI KPAE 100258Z 32004KT 10SM SCT013 BKN019 OVC026 06/04 A3020 RMK AO2=
200810100253 METAR KPAE 100253Z 32005KT 10SM BKN007 BKN015 OVC028 06/04 A3020 RMK AO2 RAB14E44 SLP228 P0000 60000 T00610039 53004=
200810100224 SPECI KPAE 100224Z 33004KT 8SM -RA BKN007 BKN015 OVC028 07/04 A3019 RMK AO2 RAB14 P0000=
200810100224 SPECI KPAE 100224Z 33004KT 8SM -RA BKN007 BKN015 OVC028 07/04 A3019 RMK AO2 RAB14 P0000=
200810100217 SPECI KPAE 100217Z 33005KT 9SM -RA SCT007 BKN013 OVC028 07/04 A3019 RMK AO2 RAB14 P0000=
200810100217 SPECI KPAE 100217Z 33005KT 9SM -RA SCT007 BKN013 OVC028 07/04 A3019 RMK AO2 RAB14 P0000=
200810100207 SPECI KPAE 100207Z 32008KT 10SM BKN007 BKN017 OVC028 07/04 A3019 RMK AO2 CIG 005V012=
200810100207 SPECI KPAE 100207Z 32008KT 10SM BKN007 BKN017 OVC028 07/04 A3019 RMK AO2 CIG 005V012=
200810100153 METAR KPAE 100153Z 33006KT 10SM SCT009 BKN013 OVC027 07/04 A3019 RMK AO2 SLP226 T00720039=
200810100142 SPECI KPAE 100142Z 36005KT 10SM OVC013 07/04 A3019 RMK AO2=
200810100142 SPECI KPAE 100142Z 36005KT 10SM OVC013 07/04 A3019 RMK AO2=
200810100053 METAR KPAE 100053Z 31006KT 10SM BKN015 BKN070 OVC090 08/04 A3018 RMK AO2 SLP224 T00780039=
200810092353 METAR KPAE 092353Z 33007KT 10SM FEW031 BKN090 08/03 A3018 RMK AO2 SLP224 T00830028 10111 20083 55001=
200810092330 SPECI KPAE 092330Z 30007KT 10SM FEW021 SCT026 OVC090 09/02 A3018 RMK AO2=
200810092330 SPECI KPAE 092330Z 30007KT 10SM FEW021 SCT026 OVC090 09/02 A3018 RMK AO2=
200810092318 SPECI KPAE 092318Z 32005KT 10SM BKN023 BKN034 OVC095 09/02 A3018 RMK AO2=
200810092318 SPECI KPAE 092318Z 32005KT 10SM BKN023 BKN034 OVC095 09/02 A3018 RMK AO2=
200810092253 METAR KPAE 092253Z 27006KT 10SM SCT070 BKN095 09/03 A3018 RMK AO2 SLP223 T00940033=
200810092153 METAR KPAE 092153Z VRB04KT 10SM OVC060 09/03 A3018 RMK AO2 SLP222 T00940033=
200810092053 METAR KPAE 092053Z 34004KT 10SM BKN070 11/03 A3018 RMK AO2 SLP223 T01060028 58009=
200810091953 METAR KPAE 091953Z 34004KT 10SM SCT018 09/03 A3020 RMK AO2 SLP230 T00940033=
200810091949 SPECI KPAE 091949Z 33003KT 10SM SCT018 09/03 A3020 RMK AO2=
200810091949 SPECI KPAE 091949Z 33003KT 10SM SCT018 09/03 A3020 RMK AO2=
200810091924 SPECI KPAE 091924Z 00000KT 10SM BKN018 BKN060 09/04 A3021 RMK AO2=
200810091924 SPECI KPAE 091924Z 00000KT 10SM BKN018 BKN060 09/04 A3021 RMK AO2=
200810091853 METAR KPAE 091853Z 00000KT 10SM FEW022 SCT028 BKN050 08/04 A3021 RMK AO2 SLP233 T00830044=
200810091800 SPECI KPAE 091800Z 00000KT 10SM FEW022 SCT028 BKN050 08/04 A3021 RMK AO2=
200810091800 SPECI KPAE 091800Z 00000KT 10SM FEW022 SCT028 BKN050 08/04 A3021 RMK AO2=
200810091753 METAR KPAE 091753Z 16004KT 10SM FEW008 BKN028 BKN037 08/05 A3021 RMK AO2 SLP234 T00830050 10083 20056 51001=
200810091705 SPECI KPAE 091705Z 00000KT 10SM FEW008 BKN028 BKN037 08/04 A3021 RMK AO2=
200810091705 SPECI KPAE 091705Z 00000KT 10SM FEW008 BKN028 BKN037 08/04 A3021 RMK AO2=
200810091653 METAR KPAE 091653Z 00000KT 10SM FEW008 BKN037 08/04 A3021 RMK AO2 SLP234 T00830044=
200810091600 SPECI KPAE 091600Z 00000KT 9SM FEW012 BKN039 07/04 A3021 RMK AO2=
200810091600 SPECI KPAE 091600Z 00000KT 9SM FEW012 BKN039 07/04 A3021 RMK AO2=
200810091553 METAR KPAE 091553Z 00000KT 8SM SCT008 BKN022 OVC050 07/04 A3022 RMK AO2 SLP235 T00670039=
200810091502 SPECI KPAE 091502Z 00000KT 9SM SCT008 BKN022 OVC050 06/03 A3021 RMK AO2=
200810091502 SPECI KPAE 091502Z 00000KT 9SM SCT008 BKN022 OVC050 06/03 A3021 RMK AO2=
200810091455 SPECI KPAE 091455Z 00000KT 9SM SCT012 SCT022 OVC050 06/03 A3021 RMK AO2=
200810091455 SPECI KPAE 091455Z 00000KT 9SM SCT012 SCT022 OVC050 06/03 A3021 RMK AO2=
200810091453 METAR KPAE 091453Z 15003KT 9SM FEW008 BKN012 OVC050 06/03 A3021 RMK AO2 SLP233 T00560033 51003=
200810091448 SPECI KPAE 091448Z 00000KT 8SM FEW008 SCT012 OVC050 06/03 A3021 RMK AO2=
200810091448 SPECI KPAE 091448Z 00000KT 8SM FEW008 SCT012 OVC050 06/03 A3021 RMK AO2=
200810091441 SPECI KPAE 091441Z 12003KT 8SM FEW008 BKN023 OVC050 06/04 A3021 RMK AO2=
200810091441 SPECI KPAE 091441Z 12003KT 8SM FEW008 BKN023 OVC050 06/04 A3021 RMK AO2=
200810091407 SPECI KPAE 091407Z 00000KT 8SM BKN008 BKN022 BKN038 06/03 A3021 RMK AO2=
200810091407 SPECI KPAE 091407Z 00000KT 8SM BKN008 BKN022 BKN038 06/03 A3021 RMK AO2=
200810091401 SPECI KPAE 091401Z 00000KT 8SM SCT008 SCT022 BKN038 06/04 A3020 RMK AO2=
200810091401 SPECI KPAE 091401Z 00000KT 8SM SCT008 SCT022 BKN038 06/04 A3020 RMK AO2=
200810091353 METAR KPAE 091353Z 00000KT 8SM FEW021 BKN038 06/04 A3020 RMK AO2 SLP231 T00560039=
200810091341 SPECI KPAE 091341Z AUTO 00000KT 9SM SCT021 OVC036 06/04 A3020 RMK AO2 TSNO=
200810091341 SPECI KPAE 091341Z AUTO 00000KT 9SM SCT021 OVC036 06/04 A3020 RMK AO2 TSNO=
200810091305 SPECI KPAE 091305Z AUTO 00000KT 10SM SCT008 OVC021 07/04 A3020 RMK AO2 TSNO=
200810091305 SPECI KPAE 091305Z AUTO 00000KT 10SM SCT008 OVC021 07/04 A3020 RMK AO2 TSNO=
200810091253 METAR KPAE 091253Z AUTO 00000KT 10SM SCT010 OVC019 07/04 A3020 RMK AO2 SLP229 T00670044 TSNO=
200810091243 SPECI KPAE 091243Z AUTO 00000KT 10SM SCT012 OVC019 06/04 A3020 RMK AO2 TSNO=
200810091243 SPECI KPAE 091243Z AUTO 00000KT 10SM SCT012 OVC019 06/04 A3020 RMK AO2 TSNO=
200810091228 SPECI KPAE 091228Z AUTO 00000KT 10SM BKN014 OVC019 06/04 A3020 RMK AO2 TSNO=
200810091228 SPECI KPAE 091228Z AUTO 00000KT 10SM BKN014 OVC019 06/04 A3020 RMK AO2 TSNO=
200810091153 METAR KPAE 091153Z AUTO 00000KT 10SM FEW009 OVC018 06/04 A3021 RMK AO2 SLP231 70002 T00610039 10067 20050 58006 TSNO=
200810091140 SPECI KPAE 091140Z AUTO 12003KT 10SM SCT007 BKN013 OVC019 06/04 A3021 RMK AO2 TSNO=
200810091140 SPECI KPAE 091140Z AUTO 12003KT 10SM SCT007 BKN013 OVC019 06/04 A3021 RMK AO2 TSNO=
200810091053 METAR KPAE 091053Z AUTO 00000KT 10SM BKN009 06/04 A3021 RMK AO2 CIG 007V013 SLP233 T00610039 TSNO=
200810091020 SPECI KPAE 091020Z AUTO 00000KT 8SM BKN009 OVC013 06/04 A3022 RMK AO2 CIG 008V012 TSNO=
200810091020 SPECI KPAE 091020Z AUTO 00000KT 8SM BKN009 OVC013 06/04 A3022 RMK AO2 CIG 008V012 TSNO=
200810091007 SPECI KPAE 091007Z AUTO 00000KT 9SM BKN013 06/03 A3022 RMK AO2 TSNO=
200810091007 SPECI KPAE 091007Z AUTO 00000KT 9SM BKN013 06/03 A3022 RMK AO2 TSNO=
200810090953 METAR KPAE 090953Z AUTO 00000KT 9SM FEW013 06/03 A3022 RMK AO2 SLP235 T00560033 TSNO=
200810090853 METAR KPAE 090853Z AUTO 00000KT 10SM FEW011 OVC100 06/04 A3023 RMK AO2 SLP237 T00560039 56014 TSNO=
200810090753 METAR KPAE 090753Z AUTO 00000KT 10SM CLR 06/04 A3024 RMK AO2 SLP242 T00610039 401220061 TSNO=
200810090653 METAR KPAE 090653Z AUTO 03003KT 10SM CLR 06/04 A3025 RMK AO2 SLP246 T00610039 TSNO=
200810090553 METAR KPAE 090553Z AUTO 00000KT 10SM CLR 07/04 A3027 RMK AO2 SLP251 T00720044 10111 20067 58013 TSNO=
200810090453 METAR KPAE 090453Z AUTO 35003KT 10SM CLR 07/04 A3028 RMK AO2 SLP257 T00720044 TSNO=
200810090353 METAR KPAE 090353Z AUTO 33004KT 10SM CLR 07/03 A3029 RMK AO2 SLP261 T00670028 TSNO=
200810090253 METAR KPAE 090253Z 32004KT 10SM FEW046 08/02 A3030 RMK AO2 SLP265 T00780017 56013=
200810090153 METAR KPAE 090153Z 00000KT 10SM FEW050 09/03 A3031 RMK AO2 SLP267 T00890033=
200810090053 METAR KPAE 090053Z 36003KT 10SM CLR 10/03 A3033 RMK AO2 SLP271 T01000033=
200810082353 SPECI KPAE 082353Z 03005KT 10SM CLR 11/04 A3034 RMK AO2 SLP277 60001 T01110039 10122 20089 56020=
200810082253 METAR KPAE 082253Z 34004KT 10SM CLR 12/05 A3036 RMK AO2 SLP283 T01170050=
200810082153 METAR KPAE 082153Z 30003KT 10SM CLR 12/03 A3038 RMK AO2 SLP289 T01170033=
200810082053 METAR KPAE 082053Z 30004KT 10SM FEW023 BKN055 BKN075 12/05 A3040 RMK AO2 RAE1957 SLP297 P0001 60001 T01170050 58014=
200810081953 METAR KPAE 081953Z 00000KT 10SM -RA BKN050 10/05 A3042 RMK AO2 RAB06 SLP303 P0000 T01000050=
200810081920 SPECI KPAE 081920Z 02003KT 10SM -RA BKN026 BKN034 OVC060 09/06 A3043 RMK AO2 RAB06 P0000=
200810081920 SPECI KPAE 081920Z 02003KT 10SM -RA BKN026 BKN034 OVC060 09/06 A3043 RMK AO2 RAB06 P0000=
200810081853 METAR KPAE 081853Z 00000KT 10SM FEW020 SCT055 SCT070 11/06 A3043 RMK AO2 SLP307 T01060056=
200810081804 SPECI KPAE 081804Z 28003KT 10SM SCT013 BKN021 BKN027 10/07 A3044 RMK AO2=
200810081804 SPECI KPAE 081804Z 28003KT 10SM SCT013 BKN021 BKN027 10/07 A3044 RMK AO2=
200810081756 SPECI KPAE 081756Z 00000KT 10SM FEW009 BKN013 BKN021 11/07 A3044 RMK AO2=
200810081756 SPECI KPAE 081756Z 00000KT 10SM FEW009 BKN013 BKN021 11/07 A3044 RMK AO2=
200810081753 METAR KPAE 081753Z 00000KT 10SM SCT013 BKN021 BKN027 11/07 A3044 RMK AO2 SLP311 60001 T01060072 10106 20061 50001=
200810081726 SPECI KPAE 081726Z 00000KT 10SM BKN028 10/06 A3045 RMK AO2=
200810081726 SPECI KPAE 081726Z 00000KT 10SM BKN028 10/06 A3045 RMK AO2=
200810081653 METAR KPAE 081653Z 00000KT 9SM CLR 09/06 A3045 RMK AO2 SLP312 T00940061=
200810081620 SPECI KPAE 081620Z 16003KT 9SM SCT029 08/06 A3045 RMK AO2=
200810081620 SPECI KPAE 081620Z 16003KT 9SM SCT029 08/06 A3045 RMK AO2=
200810081611 SPECI KPAE 081611Z 00000KT 9SM BKN029 08/06 A3045 RMK AO2=
200810081611 SPECI KPAE 081611Z 00000KT 9SM BKN029 08/06 A3045 RMK AO2=
200810081553 METAR KPAE 081553Z 18003KT 9SM BKN031 08/06 A3045 RMK AO2 SLP314 T00780061=
200810081528 SPECI KPAE 081528Z 17003KT 9SM OVC031 08/06 A3045 RMK AO2=
200810081528 SPECI KPAE 081528Z 17003KT 9SM OVC031 08/06 A3045 RMK AO2=
200810081516 SPECI KPAE 081516Z 19003KT 9SM BKN029 07/06 A3045 RMK AO2=
200810081516 SPECI KPAE 081516Z 19003KT 9SM BKN029 07/06 A3045 RMK AO2=
200810081453 METAR KPAE 081453Z 15003KT 9SM CLR 07/06 A3044 RMK AO2 SLP311 60001 T00720056 52004=
200810081353 METAR KPAE 081353Z AUTO 16003KT 10SM CLR 07/06 A3044 RMK AO2 SLP309 P0001 T00720056=
200810081253 METAR KPAE 081253Z AUTO 00000KT 10SM FEW045 08/06 A3044 RMK AO2 SLP309 T00780056=
200810081153 METAR KPAE 081153Z AUTO 00000KT 10SM FEW049 07/05 A3043 RMK AO2 RAE00 SLP307 P0000 60002 70024 T00670050 10094 20067 53001=
200810081053 METAR KPAE 081053Z AUTO 00000KT 10SM -RA FEW034 BKN045 OVC065 08/06 A3042 RMK AO2 SLP303 P0001 T00830056=
200810080953 METAR KPAE 080953Z AUTO 32003KT 5SM -RA BR FEW023 OVC047 08/06 A3043 RMK AO2 RAB30 SLP304 P0001 T00830061=
200810080935 SPECI KPAE 080935Z AUTO 00000KT 9SM -RA BKN025 OVC038 09/06 A3042 RMK AO2 RAB30 P0001=
200810080935 SPECI KPAE 080935Z AUTO 00000KT 9SM -RA BKN025 OVC038 09/06 A3042 RMK AO2 RAB30 P0001=
200810080853 METAR KPAE 080853Z AUTO 00000KT 9SM BKN040 07/06 A3042 RMK AO2 SLP301 T00720056 51004=
200810080753 METAR KPAE 080753Z AUTO 00000KT 10SM BKN044 08/06 A3042 RMK AO2 SLP301 T00830061 401500083=
200810080734 SPECI KPAE 080734Z AUTO 00000KT 10SM SCT028 OVC044 08/06 A3042 RMK AO2=
200810080734 SPECI KPAE 080734Z AUTO 00000KT 10SM SCT028 OVC044 08/06 A3042 RMK AO2=
200810080653 METAR KPAE 080653Z AUTO 00000KT 10SM OVC024 09/06 A3041 RMK AO2 SLP300 T00890061=
200810080643 SPECI KPAE 080643Z AUTO 00000KT 10SM BKN026 OVC090 09/06 A3041 RMK AO2=
200810080643 SPECI KPAE 080643Z AUTO 00000KT 10SM BKN026 OVC090 09/06 A3041 RMK AO2=
200810080553 METAR KPAE 080553Z AUTO 00000KT 10SM OVC044 09/07 A3041 RMK AO2 SLP297 60015 T00890067 10117 20089 53007=
200810080453 METAR KPAE 080453Z AUTO 00000KT 10SM FEW044 SCT070 BKN085 09/05 A3039 RMK AO2 RAE51 SLP293 P0003 T00940050=
200810080353 METAR KPAE 080353Z AUTO 35003KT 10SM -RA BKN040 BKN050 OVC075 09/07 A3039 RMK AO2 TSE08RAE17B53 SLP294 P0002 T00940067=
200810080314 SPECI KPAE 080314Z 03007KT 9SM -RA FEW041 BKN050 OVC075 09/07 A3038 RMK AO2 TSE08 P0002=
200810080314 SPECI KPAE 080314Z 03007KT 9SM -RA FEW041 BKN050 OVC075 09/07 A3038 RMK AO2 TSE08 P0002=
200810080300 SPECI KPAE 080300Z 01007KT 3SM -TSRA BR SCT033 BKN043 OVC050 09/07 A3038 RMK AO2 P0001=
200810080300 SPECI KPAE 080300Z 01007KT 3SM -TSRA BR SCT033 BKN043 OVC050 09/07 A3038 RMK AO2 P0001=
200810080253 METAR KPAE 080253Z 36006KT 1 1/2SM +TSRA BR SCT023 BKN043 OVC050 09/07 A3038 RMK AO2 TSB53RAB0154 SLP291 P0009 60010 T00940072 53015=
200810080247 SPECI KPAE 080247Z 35006KT 1 3/4SM +RA SCT025 BKN041 OVC055 10/07 A3038 RMK AO2 RAB0154 P0006=
200810080247 SPECI KPAE 080247Z 35006KT 1 3/4SM +RA SCT025 BKN041 OVC055 10/07 A3038 RMK AO2 RAB0154 P0006=
200810080153 METAR KPAE 080153Z 34005KT 10SM BKN047 BKN070 BKN120 11/06 A3036 RMK AO2 RAE0056 SLP283 P0000 T01060056=
200810080053 METAR KPAE 080053Z 36005KT 9SM -RA BKN042 OVC050 11/06 A3036 RMK AO2 RAB42 SLP282 P0001 T01110061=
200810072353 METAR KPAE 072353Z VRB05KT 10SM FEW047 BKN095 12/06 A3034 RMK AO2 SLP275 60001 T01170061 10150 20117 51016=
200810072253 METAR KPAE 072253Z 35006KT 10SM CLR 13/05 A3033 RMK AO2 SLP271 T01280050=
200810072153 METAR KPAE 072153Z 01004KT 10SM FEW045 14/07 A3031 RMK AO2 SLP265 T01390067=
200810072053 METAR KPAE 072053Z 00000KT 10SM SCT032 14/06 A3029 RMK AO2 RAB03E44 SLP258 P0000 60001 T01390061 51018=
200810071953 METAR KPAE 071953Z VRB04KT 10SM BKN032 13/06 A3029 RMK AO2 SLP256 T01330056=
200810071853 METAR KPAE 071853Z 20004KT 10SM FEW080 13/07 A3026 RMK AO2 SLP248 P0001 T01330072=
200810071753 METAR KPAE 071753Z 21004KT 10SM SCT060 OVC090 12/08 A3024 RMK AO2 RAB25E38 SLP240 P0000 60006 T01170078 10117 20100 51037=
200810071653 METAR KPAE 071653Z 21005KT 10SM FEW025 BKN036 OVC050 11/08 A3021 RMK AO2 RAE41 SLP231 P0002 T01060078=
200810071553 METAR KPAE 071553Z 21007KT 10SM -RA FEW021 OVC047 10/07 A3017 RMK AO2 RAB08 SLP219 P0004 T01000072=
200810071453 METAR KPAE 071453Z 23010G15KT 10SM BKN043 OVC100 11/07 A3013 RMK AO2 SLP203 T01060067 53039=
200810071353 METAR KPAE 071353Z 21015G24KT 10SM BKN045 BKN050 BKN100 11/07 A3008 RMK AO2 PK WND 21027/1258 SLP188 T01060067=
200810071253 METAR KPAE 071253Z AUTO 20019G24KT 10SM BKN060 11/07 A3005 RMK AO2 PK WND 19031/1213 SLP176 T01110067=
200810071153 METAR KPAE 071153Z AUTO 19018G26KT 10SM CLR 11/07 A3001 RMK AO2 PK WND 20031/1126 SLP163 60001 70012 T01110067 10133 20111 53034=
200810071053 METAR KPAE 071053Z AUTO 20021G29KT 10SM CLR 12/08 A2996 RMK AO2 PK WND 18032/1029 SLP145 T01170078=
200810070953 METAR KPAE 070953Z AUTO 19024G36KT 10SM CLR 12/08 A2993 RMK AO2 PK WND 19038/0935 SLP135 T01220078=
200810070853 METAR KPAE 070853Z AUTO 19025G32KT 10SM CLR 13/09 A2991 RMK AO2 PK WND 20035/0843 SLP127 60001 T01280089 53009=
200810070815 SPECI KPAE 070815Z AUTO 20022G35KT 10SM FEW017 SCT024 BKN080 13/10 A2988 RMK AO2 PK WND 20035/0808=
200810070815 SPECI KPAE 070815Z AUTO 20022G35KT 10SM FEW017 SCT024 BKN080 13/10 A2988 RMK AO2 PK WND 20035/0808=
200810070753 METAR KPAE 070753Z AUTO 20024G33KT 10SM BKN015 BKN023 OVC029 13/11 A2988 RMK AO2 PK WND 20033/0747 RAB29E39 SLP118 P0000 T01330106 401390100=
200810070709 SPECI KPAE 070709Z AUTO 17019G31KT 10SM OVC013 13/11 A2989 RMK AO2 PK WND 18031/0706=
200810070709 SPECI KPAE 070709Z AUTO 17019G31KT 10SM OVC013 13/11 A2989 RMK AO2 PK WND 18031/0706=
200810070653 METAR KPAE 070653Z AUTO 17014G29KT 8SM OVC015 13/11 A2988 RMK AO2 PK WND 17029/0647 RAE44 SLP118 P0001 T01330106=
200810070553 METAR KPAE 070553Z AUTO 16010G16KT 3SM -RA BR SCT020 BKN028 OVC035 13/11 A2988 RMK AO2 RAB11 SLP117 P0005 60009 T01330111 10133 20128 56010=
200810070544 SPECI KPAE 070544Z AUTO 16011G19KT 4SM -RA BR BKN020 BKN027 OVC035 13/11 A2988 RMK AO2 RAB11 P0004=
200810070544 SPECI KPAE 070544Z AUTO 16011G19KT 4SM -RA BR BKN020 BKN027 OVC035 13/11 A2988 RMK AO2 RAB11 P0004=
200810070537 SPECI KPAE 070537Z AUTO 16010G23KT 3SM -RA BR SCT022 BKN030 OVC038 13/11 A2988 RMK AO2 RAB11 P0004=
200810070537 SPECI KPAE 070537Z AUTO 16010G23KT 3SM -RA BR SCT022 BKN030 OVC038 13/11 A2988 RMK AO2 RAB11 P0004=
200810070531 SPECI KPAE 070531Z AUTO 16014G23KT 2 1/2SM RA SCT023 BKN028 OVC039 13/11 A2987 RMK AO2 RAB11 P0003=
200810070531 SPECI KPAE 070531Z AUTO 16014G23KT 2 1/2SM RA SCT023 BKN028 OVC039 13/11 A2987 RMK AO2 RAB11 P0003=
200810070453 METAR KPAE 070453Z AUTO 15010KT 7SM FEW030 OVC049 13/11 A2988 RMK AO2 SLP118 T01280111=
200810070353 METAR KPAE 070353Z AUTO 16009KT 10SM OVC060 13/11 A2989 RMK AO2 RAE13 SLP123 P0000 T01280111=
200810070303 SPECI KPAE 070303Z 17012KT 6SM -RA BR FEW013 BKN080 OVC095 13/11 A2990 RMK AO2 P0000=
200810070303 SPECI KPAE 070303Z 17012KT 6SM -RA BR FEW013 BKN080 OVC095 13/11 A2990 RMK AO2 P0000=
200810070253 METAR KPAE 070253Z 17014KT 7SM -RA SCT007 BKN013 OVC060 13/11 A2991 RMK AO2 RAB18 SLP128 P0003 60004 T01280111 56023=
200810070200 SPECI KPAE 070200Z 18012KT 10SM SCT007 BKN013 OVC060 13/11 A2993 RMK AO2=
200810070200 SPECI KPAE 070200Z 18012KT 10SM SCT007 BKN013 OVC060 13/11 A2993 RMK AO2=
200810070153 METAR KPAE 070153Z 18010KT 10SM FEW008 BKN055 OVC085 13/11 A2993 RMK AO2 RAE30 SLP135 P0000 T01280111=
200810070100 SPECI KPAE 070100Z 18013KT 9SM -RA FEW008 BKN055 OVC085 13/11 A2994 RMK AO2 P0000=
200810070100 SPECI KPAE 070100Z 18013KT 9SM -RA FEW008 BKN055 OVC085 13/11 A2994 RMK AO2 P0000=
200810070053 METAR KPAE 070053Z 19014KT 9SM -RA FEW008 BKN028 OVC065 13/11 A2994 RMK AO2 RAB2354E24B42 SLP140 P0001 T01280106=
200810070021 SPECI KPAE 070021Z 18013G19KT 9SM -RA SCT008 BKN028 OVC065 13/11 A2995 RMK AO2 RAB2354 P0001=
200810070021 SPECI KPAE 070021Z 18013G19KT 9SM -RA SCT008 BKN028 OVC065 13/11 A2995 RMK AO2 RAB2354 P0001=
200810062353 METAR KPAE 062353Z 17011KT 9SM BKN005 BKN011 OVC034 13/12 A2998 RMK AO2 RAE07B37E50 SLP151 P0000 60002 T01330117 10139 20117 56010=
200810062305 SPECI KPAE 062305Z 16009KT 5SM -RA BR BKN005 BKN011 OVC034 13/12 A2998 RMK AO2 P0000=
200810062305 SPECI KPAE 062305Z 16009KT 5SM -RA BR BKN005 BKN011 OVC034 13/12 A2998 RMK AO2 P0000=
200810062257 SPECI KPAE 062257Z AUTO 15010KT 2 1/2SM -RA BR BKN005 BKN011 OVC034 13/12 A2998 RMK AO2 P0000 TSNO=
200810062257 SPECI KPAE 062257Z AUTO 15010KT 2 1/2SM -RA BR BKN005 BKN011 OVC034 13/12 A2998 RMK AO2 P0000 TSNO=
200810062253 METAR KPAE 062253Z 15009KT 4SM -RA BR BKN007 OVC014 13/12 A2998 RMK AO2 RAB17 SLP152 P0002 T01330117=
200810062242 SPECI KPAE 062242Z 16008KT 3SM -RA BR BKN007 OVC014 13/12 A2998 RMK AO2 RAB17 P0002=
200810062242 SPECI KPAE 062242Z 16008KT 3SM -RA BR BKN007 OVC014 13/12 A2998 RMK AO2 RAB17 P0002=
200810062238 SPECI KPAE 062238Z 16009KT 1 3/4SM -RA BR BKN007 OVC014 13/12 A2998 RMK AO2 RAB17 P0002=
200810062238 SPECI KPAE 062238Z 16009KT 1 3/4SM -RA BR BKN007 OVC014 13/12 A2998 RMK AO2 RAB17 P0002=
200810062228 SPECI KPAE 062228Z 15007KT 2 1/2SM -RA BR BKN007 OVC014 13/12 A2998 RMK AO2 RAB17 P0001=
200810062228 SPECI KPAE 062228Z 15007KT 2 1/2SM -RA BR BKN007 OVC014 13/12 A2998 RMK AO2 RAB17 P0001=
200810062223 SPECI KPAE 062223Z VRB04KT 5SM -RA BR FEW004 SCT007 OVC014 13/12 A2999 RMK AO2 RAB17 P0000=
200810062223 SPECI KPAE 062223Z VRB04KT 5SM -RA BR FEW004 SCT007 OVC014 13/12 A2999 RMK AO2 RAB17 P0000=
200810062153 METAR KPAE 062153Z VRB04KT 8SM OVC014 13/11 A2999 RMK AO2 RAB38E53 SLP157 P0000 T01330111=
200810062141 SPECI KPAE 062141Z VRB05KT 10SM -RA OVC014 14/11 A3000 RMK AO2 RAB38 P0000=
200810062141 SPECI KPAE 062141Z VRB05KT 10SM -RA OVC014 14/11 A3000 RMK AO2 RAB38 P0000=
200810062100 SPECI KPAE 062100Z 15006KT 10SM SCT019 BKN028 OVC042 13/11 A3001 RMK AO2=
200810062100 SPECI KPAE 062100Z 15006KT 10SM SCT019 BKN028 OVC042 13/11 A3001 RMK AO2=
200810062053 METAR KPAE 062053Z 15007KT 10SM SCT011 BKN070 OVC090 13/11 A3001 RMK AO2 SLP162 T01330106 58007=
200810061953 METAR KPAE 061953Z 17010KT 10SM FEW011 SCT070 BKN085 13/11 A3003 RMK AO2 SLP169 T01330106=
200810061935 SPECI KPAE 061935Z 17010KT 10SM SCT008 BKN100 13/11 A3003 RMK AO2=
200810061935 SPECI KPAE 061935Z 17010KT 10SM SCT008 BKN100 13/11 A3003 RMK AO2=
200810061853 METAR KPAE 061853Z 16011KT 10SM OVC008 13/10 A3002 RMK AO2 CIG 006V010 SLP167 T01280100=
200810061846 SPECI KPAE 061846Z 16011G16KT 10SM OVC008 12/10 A3002 RMK AO2 CIG 005V010=
200810061846 SPECI KPAE 061846Z 16011G16KT 10SM OVC008 12/10 A3002 RMK AO2 CIG 005V010=
200810061831 SPECI KPAE 061831Z 16011KT 10SM SCT008 BKN013 OVC032 12/10 A3003 RMK AO2=
200810061831 SPECI KPAE 061831Z 16011KT 10SM SCT008 BKN013 OVC032 12/10 A3003 RMK AO2=
200810061820 SPECI KPAE 061820Z 16012KT 10SM FEW006 SCT015 OVC032 12/09 A3003 RMK AO2=
200810061820 SPECI KPAE 061820Z 16012KT 10SM FEW006 SCT015 OVC032 12/09 A3003 RMK AO2=
200810061809 SPECI KPAE 061809Z 15010G16KT 10SM SCT016 BKN032 12/09 A3003 RMK AO2=
200810061809 SPECI KPAE 061809Z 15010G16KT 10SM SCT016 BKN032 12/09 A3003 RMK AO2=
200810061753 METAR KPAE 061753Z 15010KT 4SM HZ SCT008 OVC018 12/09 A3003 RMK AO2 RAB28E37 SLP170 P0000 60000 T01220089 10122 20100 56007=
200810061737 SPECI KPAE 061737Z 16008KT 4SM BR SCT008 OVC018 12/09 A3004 RMK AO2 RAB28E37 P0000=
200810061737 SPECI KPAE 061737Z 16008KT 4SM BR SCT008 OVC018 12/09 A3004 RMK AO2 RAB28E37 P0000=
200810061653 METAR KPAE 061653Z VRB04KT 9SM SCT014 OVC024 12/08 A3004 RMK AO2 SLP173 T01170078=
200810061610 SPECI KPAE 061610Z 11005KT 10SM BKN025 OVC030 11/08 A3004 RMK AO2=
200810061610 SPECI KPAE 061610Z 11005KT 10SM BKN025 OVC030 11/08 A3004 RMK AO2=
200810061553 METAR KPAE 061553Z 00000KT 10SM BKN030 OVC037 11/08 A3004 RMK AO2 RAB1455E38 SLP174 P0000 T01110078=
200810061453 METAR KPAE 061453Z 00000KT 10SM FEW027 OVC037 10/07 A3005 RMK AO2 SLP177 T01000072 53006=
200810061353 METAR KPAE 061353Z AUTO 10003KT 10SM BKN047 OVC060 11/07 A3004 RMK AO2 SLP173 T01060067=
200810061253 METAR KPAE 061253Z AUTO 00000KT 10SM OVC047 10/07 A3004 RMK AO2 SLP174 T01000067=
200810061153 METAR KPAE 061153Z AUTO 00000KT 10SM BKN045 OVC055 11/07 A3003 RMK AO2 SLP171 60001 70001 T01060067 10111 20106 58005=
200810061053 METAR KPAE 061053Z AUTO 12005KT 10SM BKN048 OVC075 11/07 A3004 RMK AO2 RAB18E53 SLP173 P0000 T01060072=
200810060953 METAR KPAE 060953Z AUTO 12003KT 10SM BKN055 OVC075 11/07 A3004 RMK AO2 SLP174 T01060072=
200810060853 METAR KPAE 060853Z AUTO 00000KT 10SM OVC060 11/08 A3005 RMK AO2 SLP176 60001 T01060078 53007=
200810060822 SPECI KPAE 060822Z AUTO 12005KT 10SM SCT025 BKN065 OVC095 11/08 A3004 RMK AO2=
200810060822 SPECI KPAE 060822Z AUTO 12005KT 10SM SCT025 BKN065 OVC095 11/08 A3004 RMK AO2=
200810060806 SPECI KPAE 060806Z AUTO 00000KT 10SM BKN025 OVC070 11/08 A3004 RMK AO2=
200810060806 SPECI KPAE 060806Z AUTO 00000KT 10SM BKN025 OVC070 11/08 A3004 RMK AO2=
200810060753 METAR KPAE 060753Z AUTO 00000KT 10SM FEW025 OVC070 11/08 A3004 RMK AO2 SLP174 T01060078 401390089=
200810060738 SPECI KPAE 060738Z AUTO 12003KT 10SM SCT025 OVC075 11/08 A3004 RMK AO2=
200810060738 SPECI KPAE 060738Z AUTO 12003KT 10SM SCT025 OVC075 11/08 A3004 RMK AO2=
200810060727 SPECI KPAE 060727Z AUTO 12003KT 10SM BKN025 BKN070 OVC095 11/08 A3004 RMK AO2=
200810060727 SPECI KPAE 060727Z AUTO 12003KT 10SM BKN025 BKN070 OVC095 11/08 A3004 RMK AO2=
200810060653 METAR KPAE 060653Z AUTO 11004KT 10SM BKN080 OVC100 11/08 A3003 RMK AO2 RAB06E38 SLP169 P0001 T01060078=
200810060553 METAR KPAE 060553Z AUTO VRB03KT 10SM BKN042 BKN065 OVC090 11/07 A3003 RMK AO2 SLP169 60000 T01110072 10133 20111 51008=
200810060453 METAR KPAE 060453Z AUTO VRB04KT 10SM OVC043 12/08 A3002 RMK AO2 RAE0357 SLP166 P0000 T01170083=
200810060353 METAR KPAE 060353Z AUTO 00000KT 10SM -RA BKN045 OVC100 12/08 A3001 RMK AO2 RAB13 SLP164 P0000 T01170083=
200810060253 METAR KPAE 060253Z 15005KT 10SM BKN060 OVC075 12/07 A3000 RMK AO2 RAB30E51 SLP161 P0000 60000 T01170072 53013=
200810060153 METAR KPAE 060153Z 18006KT 10SM FEW024 BKN070 OVC120 12/07 A2999 RMK AO2 SLP155 T01220067=
200810060053 METAR KPAE 060053Z 17007KT 10SM CLR 13/07 A2997 RMK AO2 SLP151 T01280067=
200810052353 METAR KPAE 052353Z 19009KT 10SM FEW060 BKN110 13/06 A2996 RMK AO2 SLP147 T01330056 10139 20111 50003=
200810052253 METAR KPAE 052253Z AUTO 20008KT 10SM OVC060 13/07 A2997 RMK AO2 SLP148 T01330067 TSNO=
200810052153 METAR KPAE 052153Z 20009KT 10SM FEW019 13/07 A2996 RMK AO2 SLP147 T01330067=
200810052053 METAR KPAE 052053Z 23007KT 10SM CLR 13/07 A2995 RMK AO2 SLP144 T01280072 53005=
200810051953 METAR KPAE 051953Z 25004KT 10SM FEW019 13/08 A2995 RMK AO2 SLP142 T01280078=
200810051942 SPECI KPAE 051942Z 21005KT 10SM SCT021 13/08 A2995 RMK AO2=
200810051942 SPECI KPAE 051942Z 21005KT 10SM SCT021 13/08 A2995 RMK AO2=
200810051908 SPECI KPAE 051908Z 19011KT 10SM BKN023 13/07 A2994 RMK AO2=
200810051908 SPECI KPAE 051908Z 19011KT 10SM BKN023 13/07 A2994 RMK AO2=
200810051853 METAR KPAE 051853Z 20007KT 10SM FEW019 SCT090 12/07 A2994 RMK AO2 SLP139 T01220072=
200810051844 SPECI KPAE 051844Z 17007KT 10SM FEW016 SCT021 BKN090 12/07 A2994 RMK AO2=
200810051844 SPECI KPAE 051844Z 17007KT 10SM FEW016 SCT021 BKN090 12/07 A2994 RMK AO2=
200810051753 METAR KPAE 051753Z 00000KT 9SM SCT008 BKN022 BKN085 11/08 A2994 RMK AO2 SLP139 T01110083 10111 20089 51010=
200810051653 METAR KPAE 051653Z 00000KT 8SM SCT008 BKN022 BKN085 10/08 A2994 RMK AO2 SLP138 T01000078=
200810051642 SPECI KPAE 051642Z 00000KT 8SM SCT008 BKN022 BKN085 10/08 A2993 RMK AO2=
200810051642 SPECI KPAE 051642Z 00000KT 8SM SCT008 BKN022 BKN085 10/08 A2993 RMK AO2=
200810051553 METAR KPAE 051553Z 00000KT 9SM FEW015 BKN020 OVC026 09/07 A2993 RMK AO2 SLP134 T00940072=
200810051520 SPECI KPAE 051520Z 10004KT 9SM SCT010 OVC017 09/07 A2991 RMK AO2=
200810051520 SPECI KPAE 051520Z 10004KT 9SM SCT010 OVC017 09/07 A2991 RMK AO2=
200810051453 METAR KPAE 051453Z 00000KT 9SM OVC012 09/07 A2991 RMK AO2 SLP129 T00940072 51011=
200810051424 SPECI KPAE 051424Z 10004KT 9SM OVC014 09/07 A2990 RMK AO2=
200810051424 SPECI KPAE 051424Z 10004KT 9SM OVC014 09/07 A2990 RMK AO2=
200810051412 SPECI KPAE 051412Z 00000KT 9SM BKN016 09/07 A2990 RMK AO2=
200810051412 SPECI KPAE 051412Z 00000KT 9SM BKN016 09/07 A2990 RMK AO2=
200810051353 METAR KPAE 051353Z 13003KT 9SM FEW010 09/07 A2990 RMK AO2 SLP125 T00890072=
200810051253 METAR KPAE 051253Z AUTO 15003KT 9SM BKN041 OVC065 09/07 A2989 RMK AO2 SLP123 T00940072 TSNO=
200810051153 METAR KPAE 051153Z AUTO 17004KT 9SM OVC045 09/08 A2988 RMK AO2 SLP117 60049 70062 T00940078 10106 20089 51012 TSNO=
200810051053 METAR KPAE 051053Z AUTO 15004KT 10SM BKN049 OVC085 09/07 A2987 RMK AO2 RAE09 SLP114 P0000 T00940072 TSNO=
200810050953 METAR KPAE 050953Z AUTO 15003KT 6SM -RA BR OVC045 09/07 A2986 RMK AO2 SLP111 P0012 T00940072 TSNO=
200810050915 SPECI KPAE 050915Z AUTO 08005KT 3SM -RA BR FEW002 BKN030 OVC036 09/07 A2985 RMK AO2 P0009 TSNO=
200810050915 SPECI KPAE 050915Z AUTO 08005KT 3SM -RA BR FEW002 BKN030 OVC036 09/07 A2985 RMK AO2 P0009 TSNO=
200810050911 SPECI KPAE 050911Z AUTO 07003KT 1 3/4SM RA BR FEW002 BKN024 OVC034 09/07 A2985 RMK AO2 P0009 TSNO=
200810050911 SPECI KPAE 050911Z AUTO 07003KT 1 3/4SM RA BR FEW002 BKN024 OVC034 09/07 A2985 RMK AO2 P0009 TSNO=
200810050904 SPECI KPAE 050904Z AUTO 03003KT 1 1/2SM +RA BR SCT003 BKN009 OVC033 09/08 A2985 RMK AO2 P0007 TSNO=
200810050904 SPECI KPAE 050904Z AUTO 03003KT 1 1/2SM +RA BR SCT003 BKN009 OVC033 09/08 A2985 RMK AO2 P0007 TSNO=
200810050853 METAR KPAE 050853Z AUTO 36005KT 1 1/4SM +RA BR BKN003 OVC009 09/08 A2984 RMK AO2 CIG 001V005 SLP106 P0028 60037 T00940078 53012 TSNO=
200810050843 SPECI KPAE 050843Z AUTO 34007KT 1SM +RA BR FEW001 OVC009 09/08 A2984 RMK AO2 CIG 005V011 P0021 TSNO RVRNO=
200810050843 SPECI KPAE 050843Z AUTO 34007KT 1SM +RA BR FEW001 OVC009 09/08 A2984 RMK AO2 CIG 005V011 P0021 TSNO RVRNO=
200810050836 SPECI KPAE 050836Z AUTO VRB03KT 2SM +RA BR OVC009 10/08 A2984 RMK AO2 CIG 005V011 P0013 TSNO=
200810050836 SPECI KPAE 050836Z AUTO VRB03KT 2SM +RA BR OVC009 10/08 A2984 RMK AO2 CIG 005V011 P0013 TSNO=
200810050813 SPECI KPAE 050813Z AUTO 00000KT 2 1/2SM RA BR BKN012 OVC017 10/08 A2983 RMK AO2 P0002 TSNO=
200810050813 SPECI KPAE 050813Z AUTO 00000KT 2 1/2SM RA BR BKN012 OVC017 10/08 A2983 RMK AO2 P0002 TSNO=
200810050753 METAR KPAE 050753Z AUTO 17004KT 3SM RA OVC018 11/08 A2982 RMK AO2 RAB32 SLP098 P0009 T01060078 401610100 TSNO=
200810050750 SPECI KPAE 050750Z AUTO 18004KT 3SM RA OVC018 11/08 A2982 RMK AO2 RAB32 P0008 401610100 TSNO=
200810050750 SPECI KPAE 050750Z AUTO 18004KT 3SM RA OVC018 11/08 A2982 RMK AO2 RAB32 P0008 401610100 TSNO=
200810050742 SPECI KPAE 050742Z AUTO 17005KT 2 1/2SM RA SCT014 OVC018 11/08 A2982 RMK AO2 RAB32 P0006 TSNO=
200810050742 SPECI KPAE 050742Z AUTO 17005KT 2 1/2SM RA SCT014 OVC018 11/08 A2982 RMK AO2 RAB32 P0006 TSNO=
200810050653 METAR KPAE 050653Z AUTO 19005KT 10SM SCT015 BKN022 BKN026 11/07 A2981 RMK AO2 SLP092 T01060072 TSNO=
200810050651 SPECI KPAE 050651Z AUTO 19006KT 10SM SCT013 BKN022 BKN026 11/07 A2980 RMK AO2 TSNO=
200810050651 SPECI KPAE 050651Z AUTO 19006KT 10SM SCT013 BKN022 BKN026 11/07 A2980 RMK AO2 TSNO=
200810050553 METAR KPAE 050553Z AUTO 18011KT 10SM FEW016 11/07 A2978 RMK AO2 SLP083 60011 T01060072 10128 20106 51026 TSNO=
200810050453 METAR KPAE 050453Z 17010KT 10SM BKN034 BKN080 11/08 A2975 RMK AO2 SLP075 T01110078=
200810050353 METAR KPAE 050353Z 16010KT 10SM FEW018 SCT029 11/08 A2973 RMK AO2 SLP066 T01110078=
200810050327 SPECI KPAE 050327Z 17010KT 10SM SCT018 BKN065 11/08 A2971 RMK AO2=
200810050327 SPECI KPAE 050327Z 17010KT 10SM SCT018 BKN065 11/08 A2971 RMK AO2=
200810050253 METAR KPAE 050253Z 19008KT 10SM OVC020 12/08 A2970 RMK AO2 SLP056 60011 T01170083 51051=
200810050153 METAR KPAE 050153Z 20015G20KT 10SM OVC022 12/08 A2965 RMK AO2 RAE24 SLP041 P0001 T01220078=
200810050053 METAR KPAE 050053Z 20017G23KT 8SM -RA BKN019 BKN055 OVC090 12/09 A2962 RMK AO2 PK WND 20034/0000 PRESRR SLP029 P0010 T01220089=
200810042353 METAR KPAE 042353Z 20023G35KT 9SM -RA BKN019 BKN080 13/09 A2955 RMK AO2 PK WND 19037/2333 RAB48 SLP005 P0000 60001 T01280089 10161 20128 53048=
200810042253 METAR KPAE 042253Z 19025G40KT 10SM BKN019 BKN026 14/09 A2948 RMK AO2 PK WND 19046/2205 SLP982 T01390089=
200810042153 METAR KPAE 042153Z 18034G43KT 10SM OVC021 14/09 A2944 RMK AO2 PK WND 18043/2150 PRESRR SLP968 T01390094=
200810042053 METAR KPAE 042053Z 18026G35KT 10SM BKN015 OVC020 14/11 A2940 RMK AO2 PK WND 19035/2051 RAB14E34 SLP956 P0000 60001 T01440106 53021=
200810041953 METAR KPAE 041953Z 18018G29KT 10SM OVC016 15/12 A2938 RMK AO2 PK WND 16029/1945 RAE34 SLP948 P0000 T01500117=
200810041853 METAR KPAE 041853Z 18018G25KT 8SM -RA BKN022 BKN032 OVC041 15/12 A2936 RMK AO2 PK WND 18027/1800 RAB04 SLP941 P0001 T01500117=
200810041753 METAR KPAE 041753Z 17009KT 10SM BKN036 OVC046 16/12 A2934 RMK AO2 RAB24E36 SLP934 P0000 60001 T01610117 10161 20139 51016=
200810041653 METAR KPAE 041653Z 16010G16KT 10SM BKN070 OVC090 15/11 A2933 RMK AO2 RAE1554 SLP929 T01500111=
200810041553 METAR KPAE 041553Z VRB06KT 10SM -RA FEW036 BKN055 BKN070 14/11 A2931 RMK AO2 RAE01B32 SLP924 P0000 T01440111=
200810041453 METAR KPAE 041453Z 16009KT 10SM -RA FEW050 BKN070 OVC095 14/11 A2929 RMK AO2 RAB09E28B48 SLP918 P0000 60001 T01440111 53013=
200810041353 METAR KPAE 041353Z 16011KT 10SM OVC075 14/11 A2927 RMK AO2 RAB16E50 SLP912 P0001 T01440111=
200810041253 METAR KPAE 041253Z AUTO 16011KT 10SM SCT070 BKN090 BKN100 14/11 A2927 RMK AO2 RAB21E50 SLP909 P0000 T01440111=
200810041153 METAR KPAE 041153Z AUTO 15009KT 10SM BKN050 BKN070 OVC080 15/11 A2926 RMK AO2 SLP905 60009 70043 T01500111 10150 20139 56009=
200810041053 METAR KPAE 041053Z AUTO 15005KT 10SM BKN060 OVC075 14/12 A2926 RMK AO2 RAB29E52 SLP905 P0001 T01390117=
200810040953 METAR KPAE 040953Z AUTO VRB03KT 10SM SCT060 BKN080 14/12 A2927 RMK AO2 SLP910 T01440117=
200810040853 METAR KPAE 040853Z AUTO 13005KT 10SM SCT065 SCT080 BKN120 14/12 A2928 RMK AO2 RAE00 SLP914 P0000 60008 T01390117 58016=
200810040753 METAR KPAE 040753Z AUTO 12009KT 9SM -RA BKN065 BKN080 OVC090 14/12 A2929 RMK AO2 SLP919 P0004 T01390122 401560139=
200810040653 METAR KPAE 040653Z AUTO VRB03KT 4SM RA BR BKN060 OVC075 14/12 A2933 RMK AO2 SLP931 P0004 T01390122=
200810040553 METAR KPAE 040553Z AUTO 11007KT 10SM -RA OVC085 14/12 A2933 RMK AO2 SLP931 P0001 60017 T01390122 10150 20139 58025=
200810040453 METAR KPAE 040453Z AUTO 11008KT 7SM -RA BKN065 OVC085 14/12 A2936 RMK AO2 SLP941 P0005 T01440122=
200810040353 METAR KPAE 040353Z AUTO 12006KT 4SM -RA BR SCT055 BKN075 OVC085 14/13 A2940 RMK AO2 SLP953 P0003 T01440128=
200810040253 METAR KPAE 040253Z 10003KT 5SM -RA BR BKN060 BKN075 OVC090 14/12 A2941 RMK AO2 SLP957 P0003 60008 T01440122 56025=
200810040153 METAR KPAE 040153Z 15004KT 5SM -RA BR BKN060 OVC070 14/12 A2943 RMK AO2 SLP964 P0004 T01440122=
200810040053 METAR KPAE 040053Z 12006KT 9SM -RA BKN070 OVC090 15/12 A2945 RMK AO2 SLP969 P0001 T01500122=
200810032353 METAR KPAE 032353Z VRB04KT 4SM -RA SCT018 BKN048 OVC060 15/12 A2948 RMK AO2 SLP983 P0004 60015 T01500122 10156 20144 57020=
200810032253 METAR KPAE 032253Z 15005KT 8SM -RA SCT044 BKN055 OVC070 16/12 A2950 RMK AO2 SLP989 P0001 T01560117=
200810032153 METAR KPAE 032153Z 00000KT 6SM -RA SCT033 BKN055 OVC070 16/12 A2953 RMK AO2 SLP996 P0002 T01560117=
200810032146 SPECI KPAE 032146Z 16005KT 6SM -RA BKN028 BKN060 OVC070 16/13 A2953 RMK AO2 P0002=
200810032146 SPECI KPAE 032146Z 16005KT 6SM -RA BKN028 BKN060 OVC070 16/13 A2953 RMK AO2 P0002=
200810032053 METAR KPAE 032053Z 10005KT 8SM -RA BKN070 16/12 A2954 RMK AO2 SLP002 P0001 60008 T01560122 58024=
200810032008 SPECI KPAE 032008Z 12006KT 8SM -RA FEW025 BKN065 BKN080 15/12 A2957 RMK AO2 P0001=
200810032008 SPECI KPAE 032008Z 12006KT 8SM -RA FEW025 BKN065 BKN080 15/12 A2957 RMK AO2 P0001=
200810031953 METAR KPAE 031953Z 00000KT 8SM RA BKN023 OVC065 14/11 A2959 RMK AO2 SLP018 P0007 T01440111=
200810031937 SPECI KPAE 031937Z 16003KT 8SM -RA BKN025 OVC065 14/11 A2960 RMK AO2 P0005=
200810031937 SPECI KPAE 031937Z 16003KT 8SM -RA BKN025 OVC065 14/11 A2960 RMK AO2 P0005=
200810031853 METAR KPAE 031853Z 18005KT 9SM -RA FEW048 OVC070 15/11 A2961 RMK AO2 RAB1758E08B32 SLP024 P0000 T01500106=
200810031753 METAR KPAE 031753Z 00000KT 10SM SCT070 15/11 A2962 RMK AO2 RAB27E37 SLP028 P0000 60002 T01500111 10150 20139 56021=
200810031653 METAR KPAE 031653Z 16004KT 10SM FEW120 14/11 A2964 RMK AO2 SLP035 T01440111=
200810031553 METAR KPAE 031553Z 15006KT 10SM FEW090 14/11 A2966 RMK AO2 RAB14E42 SLP041 P0000 T01390111=
200810031453 METAR KPAE 031453Z VRB03KT 10SM SCT050 OVC080 14/11 A2968 RMK AO2 RAE26 SLP049 P0002 60002 T01390111 58016=
200810031353 METAR KPAE 031353Z 15009KT 9SM -RA BKN070 OVC090 14/11 A2970 RMK AO2 RAB1259 SLP055 P0000 T01390111=
200810031253 METAR KPAE 031253Z AUTO 16009KT 10SM OVC080 14/11 A2972 RMK AO2 SLP062 T01440111=
200810031153 METAR KPAE 031153Z AUTO 00000KT 10SM CLR 14/11 A2973 RMK AO2 SLP066 70001 T01390111 10156 20139 58014=
200810031053 METAR KPAE 031053Z AUTO 17009KT 10SM CLR 14/11 A2975 RMK AO2 SLP071 T01440111=
200810030953 METAR KPAE 030953Z AUTO 18014KT 10SM FEW050 BKN070 15/11 A2976 RMK AO2 SLP076 T01500111=
200810030853 METAR KPAE 030853Z AUTO 18011KT 10SM FEW034 15/12 A2977 RMK AO2 SLP080 T01500117 57005=
200810030753 METAR KPAE 030753Z AUTO 17010KT 10SM SCT034 15/12 A2978 RMK AO2 SLP082 T01500117 402000139=
200810030653 METAR KPAE 030653Z AUTO 17010KT 10SM OVC120 16/12 A2978 RMK AO2 SLP083 T01560122=
200810030553 METAR KPAE 030553Z AUTO 17010KT 10SM FEW035 BKN050 BKN110 16/12 A2979 RMK AO2 SLP085 60000 T01560122 10194 20156 50000=
200810030453 METAR KPAE 030453Z AUTO 17012KT 10SM CLR 16/12 A2979 RMK AO2 SLP086 T01610122=
200810030353 METAR KPAE 030353Z AUTO 18010KT 10SM BKN120 17/12 A2979 RMK AO2 SLP086 T01670122=
200810030253 METAR KPAE 030253Z 16010KT 10SM FEW120 17/13 A2979 RMK AO2 SLP085 60000 T01670128 50003=
200810030153 METAR KPAE 030153Z 19011KT 10SM BKN032 OVC055 17/13 A2979 RMK AO2 SLP087 T01720128=
200810030053 METAR KPAE 030053Z 17012KT 10SM SCT027 SCT032 BKN047 18/13 A2978 RMK AO2 RAB26E52 SLP082 P0000 T01830128=
200810030048 SPECI KPAE 030048Z 17009KT 8SM -RA SCT027 BKN032 OVC060 18/13 A2978 RMK AO2 RAB26 P0000=
200810030048 SPECI KPAE 030048Z 17009KT 8SM -RA SCT027 BKN032 OVC060 18/13 A2978 RMK AO2 RAB26 P0000=
200810030039 SPECI KPAE 030039Z 16012KT 7SM -RA BKN027 BKN032 18/13 A2978 RMK AO2 RAB26 P0000=
200810030039 SPECI KPAE 030039Z 16012KT 7SM -RA BKN027 BKN032 18/13 A2978 RMK AO2 RAB26 P0000=
200810022353 METAR KPAE 022353Z 17012KT 10SM CLR 19/12 A2978 RMK AO2 RAE05 SLP081 P0000 60001 T01940117 10200 20161 56007=
200810022253 METAR KPAE 022253Z 18011KT 10SM -RA FEW041 SCT048 OVC065 19/12 A2979 RMK AO2 RAB42 SLP084 P0000 T01940122=
200810022153 METAR KPAE 022153Z 16009KT 10SM OVC055 19/11 A2979 RMK AO2 SLP085 T01940111=
200810022053 METAR KPAE 022053Z 16009KT 10SM BKN085 19/12 A2980 RMK AO2 SLP089 60001 T01940117 58004=
200810021953 METAR KPAE 021953Z 15008G17KT 10SM CLR 18/12 A2981 RMK AO2 RAE02 SLP092 P0000 T01780122=
200810021853 METAR KPAE 021853Z 16010KT 10SM -RA OVC090 16/13 A2981 RMK AO2 RAB1756 SLP094 P0001 T01610128=
200810021753 METAR KPAE 021753Z 15011KT 10SM OVC085 16/12 A2981 RMK AO2 RAE25 SLP093 P0000 60000 T01610122 10178 20161 50010=
200810021653 METAR KPAE 021653Z 17010KT 10SM -RA OVC080 17/12 A2982 RMK AO2 RAB36 SLP096 P0000 T01670122=
200810021553 METAR KPAE 021553Z 17011KT 10SM OVC095 17/12 A2980 RMK AO2 SLP090 T01720122=
200810021453 METAR KPAE 021453Z 17012KT 10SM CLR 17/12 A2978 RMK AO2 SLP082 T01720117 53002=
200810021353 METAR KPAE 021353Z 18014G23KT 10SM OVC150 17/12 A2977 RMK AO2 SLP079 T01720117=
200810021253 METAR KPAE 021253Z AUTO 15012KT 10SM FEW120 17/11 A2976 RMK AO2 SLP075 T01670111=
200810021153 METAR KPAE 021153Z AUTO 17009KT 10SM CLR 16/11 A2977 RMK AO2 SLP080 T01610111 10172 20139 58010=
200810021053 METAR KPAE 021053Z AUTO VRB06KT 10SM CLR 16/11 A2979 RMK AO2 SLP085 T01610111=
200810020953 METAR KPAE 020953Z AUTO VRB06KT 9SM CLR 16/12 A2981 RMK AO2 SLP091 T01610117=
200810020853 METAR KPAE 020853Z AUTO 12004KT 8SM CLR 16/12 A2981 RMK AO2 SLP091 T01560122 58005=
200810020753 METAR KPAE 020753Z AUTO 00000KT 7SM CLR 15/12 A2982 RMK AO2 SLP096 T01500117 402330100=
200810020653 METAR KPAE 020653Z AUTO 15003KT 7SM CLR 17/12 A2981 RMK AO2 SLP093 T01670122=
200810020553 METAR KPAE 020553Z AUTO 21003KT 5SM HZ CLR 14/12 A2982 RMK AO2 SLP097 T01440117 10206 20144 56015=
200810020453 METAR KPAE 020453Z AUTO 25005KT 6SM HZ CLR 16/12 A2984 RMK AO2 SLP103 T01560122=
200810020353 METAR KPAE 020353Z AUTO 10006KT 8SM CLR 19/13 A2985 RMK AO2 SLP105 T01940128=
200810020253 METAR KPAE 020253Z 00000KT 8SM CLR 20/13 A2987 RMK AO2 SLP112 T02000133 58011=
200810020153 METAR KPAE 020153Z 00000KT 7SM CLR 20/12 A2988 RMK AO2 SLP117 T02000122=
200810020053 METAR KPAE 020053Z 00000KT 7SM CLR 21/12 A2989 RMK AO2 SLP121 T02060122=
200810012353 METAR KPAE 012353Z 30003KT 7SM CLR 19/12 A2990 RMK AO2 SLP124 T01940122 10233 20156 55007=
200810012253 METAR KPAE 012253Z 00000KT 8SM CLR 23/13 A2989 RMK AO2 SLP121 T02280128=
200810012153 METAR KPAE 012153Z 26003KT 7SM CLR 21/12 A2991 RMK AO2 SLP126 T02110122=
200810012053 METAR KPAE 012053Z 16005KT 7SM CLR 21/12 A2992 RMK AO2 SLP131 T02110122 58016=
200810011953 METAR KPAE 011953Z VRB04KT 7SM CLR 20/12 A2994 RMK AO2 SLP138 T02000117=
200810011853 METAR KPAE 011853Z 00000KT 7SM CLR 17/12 A2996 RMK AO2 SLP143 T01670117=
200810011753 METAR KPAE 011753Z VRB03KT 6SM HZ CLR 16/11 A2997 RMK AO2 SLP147 T01560111 10161 20100 58001=
200810011653 METAR KPAE 011653Z 00000KT 4SM BR FEW001 12/11 A2998 RMK AO2 SLP151 T01220106=
200810011625 SPECI KPAE 011625Z 00000KT 4SM BR FEW001 12/11 A2998 RMK AO2=
200810011625 SPECI KPAE 011625Z 00000KT 4SM BR FEW001 12/11 A2998 RMK AO2=
200810011553 METAR KPAE 011553Z 19004KT M1/4SM FG VV001 11/10 A2999 RMK AO2 SLP154 T01060100 RVRNO=
200810011453 METAR KPAE 011453Z 02003KT M1/4SM FG VV001 10/09 A2997 RMK AO2 SLP149 T01000094 56004 RVRNO=
200810011353 METAR KPAE 011353Z 02005KT M1/4SM FG VV001 11/10 A2998 RMK AO2 SLP150 T01060100 RVRNO=
200810011348 SPECI KPAE 011348Z AUTO 01005KT 1/4SM FG VV001 11/10 A2997 RMK AO2 RVRNO=
200810011348 SPECI KPAE 011348Z AUTO 01005KT 1/4SM FG VV001 11/10 A2997 RMK AO2 RVRNO=
200810011339 SPECI KPAE 011339Z AUTO 01004KT 3/4SM BR VV001 11/09 A2997 RMK AO2 RVRNO=
200810011339 SPECI KPAE 011339Z AUTO 01004KT 3/4SM BR VV001 11/09 A2997 RMK AO2 RVRNO=
200810011336 SPECI KPAE 011336Z AUTO 01005KT 2 1/2SM BR FEW001 11/09 A2997 RMK AO2=
200810011336 SPECI KPAE 011336Z AUTO 01005KT 2 1/2SM BR FEW001 11/09 A2997 RMK AO2=
200810011253 METAR KPAE 011253Z AUTO 00000KT 5SM BR CLR 11/09 A2999 RMK AO2 SLP152 T01110089=
200810011153 METAR KPAE 011153Z AUTO 00000KT 5SM BR CLR 12/09 A2999 RMK AO2 SLP156 T01170094 10144 20111 58008=
200810011053 METAR KPAE 011053Z AUTO 00000KT 7SM CLR 12/09 A3001 RMK AO2 SLP159 T01170094=
200810010953 METAR KPAE 010953Z AUTO 02003KT 7SM CLR 12/09 A3001 RMK AO2 SLP162 T01170094=
200810010853 METAR KPAE 010853Z AUTO 00000KT 7SM CLR 12/09 A3002 RMK AO2 SLP164 T01170094 58003=
200810010753 METAR KPAE 010753Z AUTO 00000KT 9SM CLR 12/09 A3003 RMK AO2 SLP168 T01220094 402060094=
200810010653 METAR KPAE 010653Z AUTO 02003KT 10SM CLR 13/09 A3003 RMK AO2 SLP168 T01330094=
200810010553 METAR KPAE 010553Z AUTO 00000KT 10SM CLR 14/09 A3003 RMK AO2 SLP168 T01440089 10194 20139 50002=
200810010453 METAR KPAE 010453Z AUTO 00000KT 10SM CLR 14/09 A3003 RMK AO2 SLP169 T01440089=
200810010353 METAR KPAE 010353Z 00000KT 10SM CLR 16/09 A3002 RMK AO2 SLP165 T01560089=
200810010253 METAR KPAE 010253Z 00000KT 10SM CLR 16/08 A3002 RMK AO2 SLP166 T01610083 53000=
200810010153 METAR KPAE 010153Z 00000KT 10SM CLR 16/11 A3002 RMK AO2 SLP164 T01560111=
200810010053 METAR KPAE 010053Z 31004KT 10SM CLR 18/10 A3003 RMK AO2 SLP166 T01830100=

# No short TAF reports from KPAE in databse.

###################################
#  large TAF from KPAE
###################################
200810312326 TAF KPAE 312326Z 010024 15011G19KT P6SM VCSH SCT050 BKN080 BKN200
                       FM0700 05003KT P6SM OVC070 FM2100 14010KT
                       P6SM -RA OVC040=
200810311731 TAF KPAE 311731Z 311818 20015KT 5SM -RA BR BKN009 BKN035 OVC050
                       TEMPO 1822 3SM RA BR OVC020 FM2200 16008KT
                       P6SM -RA OVC025 FM0100 16005KT P6SM VCSH
                       SCT025 OVC045 FM0700 05003KT P6SM OVC070=
200810311609 KPAE 311609Z 311612 17007KT 2SM -RA BR BKN009 BKN050 OVC060
                      TEMPO 1620 4SM -RA BR OVC030 FM2200 16008KT
                       P6SM SCT040 BKN080 BKN150=
200810311120 TAF KPAE 311120Z 311212 00000KT P6SM -RA SCT050 OVC080
                      TEMPO 1216 5SM -RA BR BKN050 OVC080 FM1600
                       16006KT P6SM -RA BKN040 OVC080
                      TEMPO 1620 4SM -RA BR OVC030 FM2200 16008KT
                       P6SM SCT040 BKN080 BKN150=
200810310520 TAF KPAE 310520Z 310606 11005KT P6SM OVC080 FM0800 VRB03KT P6SM
                       OVC050
                      TEMPO 0812 -RA FM1200 VRB03KT P6SM -RA SCT015
                       OVC035
                      TEMPO 1519 4SM -RA BR FM1900 18009KT P6SM
                       BKN030 OVC050=
200810302350 TAF KPAE 302350Z 310024 00000KT P6SM BKN060 OVC100
                      TEMPO 0004 -RA FM0700 VRB03KT P6SM OVC050
                       TEMPO 0711 -RA FM1100 VRB03KT P6SM -RA SCT015
                       OVC035
                      TEMPO 1519 4SM -RA BR FM1900 18009KT P6SM
                       BKN030 OVC050=
200810301720 TAF KPAE 301720Z 301818 17012KT 2SM BR SCT003 OVC100 FM1900 15005KT
                       P6SM BKN060 OVC100 FM0700 14008KT P6SM OVC050
                       TEMPO 0711 -RA FM1100 16014KT P6SM -RA OVC035=
200810301557 KPAE 301557Z 301612 16006KT 3/4SM BR BKN002
                      TEMPO 1618 1/4SM FG VV001 FM1800 16005KT
                       5SM BR SCT015 BKN080 FM2000 15005KT P6SM
                       BKN060 OVC100 FM0400 14008KT P6SM OVC050
                       TEMPO 0408 -RA FM0800 16014KT P6SM -RA OVC040=
200810301515 KPAE 301515Z 301512 18005KT 3SM BR SCT002 BKN120
                      TEMPO 1518 3/4SM BR OVC002 FM1800 16005KT
                       P6SM SCT015 BKN080 FM2200 12006KT P6SM BKN060
                       OVC100 FM0400 14008KT P6SM OVC050
                      TEMPO 0408 -RA FM0800 16014KT P6SM -RA OVC040=
200810301120 TAF KPAE 301120Z 301212 00000KT P6SM SCT060 OVC100
                      TEMPO 1216 4SM HZ BR FM2200 12006KT P6SM
                       BKN060 OVC100
                      PROB30 2204 -RA OVC050 FM0400 14008KT P6SM
                       OVC050
                      TEMPO 0408 -RA FM0800 16014KT P6SM -RA OVC040=
200810300520 TAF KPAE 300520Z 300606 02004KT P6SM SCT120 BKN200 FM1200 VRB04KT
                       P6SM BKN120 OVC200 FM0000 12008KT P6SM BKN080
                       OVC120
                      PROB30 0306 -RA OVC050=
200810292320 TAF KPAE 292320Z 300024 17007KT P6SM BKN250 FM0400 VRB03KT P6SM
                       SCT030 BKN250 FM1100 VRB03KT P6SM VCFG SCT020
                       BKN080 BKN200 FM1800 12005KT P6SM BKN080=
200810292151 KPAE 292151Z 292218 17008KT P6SM SCT035 BKN120 BKN200 FM0300 VRB03KT
                       P6SM BKN035 OVC060 FM1400 VRB03KT 5SM BR
                       SCT015 BKN250=
200810291938 KPAE 291938Z 292018 15008KT P6SM SCT035 BKN200
                      TEMPO 2022 BKN025 OVC250 FM2200 15006KT P6SM
                       SCT020 BKN040 FM0300 VRB03KT P6SM BKN035
                       OVC060=
200810291720 TAF KPAE 291720Z 291818 15008KT P6SM SCT035 BKN200
                      TEMPO 1822 BKN035 OVC250 FM2200 15006KT P6SM
                       SCT020 BKN040 FM0300 VRB03KT P6SM BKN035
                       OVC060=
200810291120 TAF KPAE 291120Z 291212 15006KT P6SM SCT020 OVC035
                      TEMPO 1822 5SM -RA BR BKN020 OVC035 FM2200
                       VRB04KT P6SM BKN020 BKN040=
200810290833 KPAE 290833Z 290906 15006KT P6SM SCT020 OVC035
                      TEMPO 1822 5SM -RA BR BKN020 OVC035 FM2200
                       VRB04KT P6SM BKN020 BKN040=
200810290520 TAF KPAE 290520Z 290606 16006KT P6SM BKN030 FM0800 15006KT P6SM
                       OVC015 FM1200 15006KT 2SM -DZ BR BKN004
                       OVC018 FM2000 17006KT P6SM SCT015 BKN030
                       OVC070=
200810282320 TAF KPAE 282320Z 290024 00000KT P6SM SCT010 SCT200 FM0300 16005KT
                       P6SM BKN028 BKN150 FM0700 15005KT P6SM OVC015
                       FM1200 15005KT 2SM -DZ BR BKN004 OVC018
                       FM2000 17009KT P6SM SCT015 BKN030 OVC070=
200810282106 KPAE 282106Z 282118 00000KT 4SM HZ SCT200 FM2200 16004KT P6SM SCT200
                       FM0300 16005KT P6SM BKN028 BKN150 FM0700
                       15005KT P6SM OVC015 FM1200 15005KT 2SM -DZ
                       BR BKN004 OVC018=
200810281830 KPAE 281830Z 281918 00000KT 2SM BR OVC003 FM2100 17005KT P6SM FEW015
                       SCT200 FM0300 16005KT P6SM BKN012 BKN150
                       FM0700 15005KT P6SM OVC008 FM1200 15005KT
                       2SM -DZ BR BKN004 OVC018=
200810281720 TAF KPAE 281720Z 281818 17004KT 1/4SM FG VV001 FM1930 17004KT 2SM
                       BR OVC002 FM2100 17005KT P6SM FEW015 SCT200
                       FM0300 16005KT P6SM BKN012 BKN150 FM0700
                       15005KT P6SM OVC008 FM1200 15005KT 2SM -DZ
                       BR BKN004 OVC018=
200810281504 KPAE 281504Z 281512 00000KT 4SM BR OVC002
                      TEMPO 1518 1/4SM FG VV001 FM1900 18005KT
                       P6SM FEW020 BKN200 FM0300 21007KT P6SM BKN015
                       BKN150 FM0700 18008KT P6SM OVC012=
200810281120 TAF KPAE 281120Z 281212 VRB03KT P6SM SCT200
                      TEMPO 1417 3SM BR FM0300 21007KT P6SM BKN015
                       BKN150 FM0700 18008KT P6SM OVC012=
200810280520 TAF KPAE 280520Z 280606 00000KT P6SM SCT200 FM1400 18005KT P6SM
                       VCFG SCT001
                      TEMPO 1417 1/2SM FG VV001 FM1800 18008KT
                       P6SM SCT200=
200810272327 TAF KPAE 272327Z 280024 35004KT P6SM SKC FM0200 17005KT P6SM SCT200
                       FM1400 18005KT P6SM VCFG SCT001 FM1800 18008KT
                       P6SM SCT180=
200810271724 TAF KPAE 271724Z 271818 03006KT P6SM SCT200 FM2100 VRB04KT P6SM
                       SCT200 FM0200 17005KT P6SM SCT200 FM1400
                       18005KT P6SM VCFG SCT001=
200810271126 TAF KPAE 271126Z 271212 03006KT P6SM SCT200 FM2000 VRB04KT P6SM
                       SCT200 FM1000 00000KT 5SM BR SCT002=
200810270520 TAF KPAE 270520Z 270606 36006KT P6SM SKC FM1000 VRB03KT P6SM BCFG
                       SKC FM1800 VRB03KT P6SM SCT200=
200810262320 TAF KPAE 262320Z 270024 VRB04KT P6SM SKC FM1000 VRB03KT P6SM BCFG
                       SKC FM1800 VRB03KT P6SM SCT200=
200810261735 TAF KPAE 261735Z 261818 34007KT P6SM BKN200 FM0200 02004KT P6SM
                       SCT200 FM1200 05004KT P6SM BCFG SKC=
200810261131 TAF KPAE 261131Z 261212 36008KT P6SM SKC
                      TEMPO 1215 4SM BR BKN005=
200810260520 TAF KPAE 260520Z 260606 36008KT P6SM SKC=
200810252348 TAF KPAE 252348Z 260024 36005KT P6SM SKC FM0900 VRB03KT 2SM BR
                       SKC FM1200 VRB03KT 1/2SM FG VV001 FM1600
                       01006KT 3SM BR SCT003 FM1700 01007KT P6SM
                       SKC=
200810251740 TAF KPAE 251740Z 251818 VRB03KT P6SM SCT030 SCT200
                      TEMPO 1820 BKN030 BKN200 FM2000 32007KT P6SM
                       SCT045 SCT200 FM0100 36005KT P6SM SKC FM0900
                       VRB03KT 2SM BR SKC FM1200 VRB03KT 1/2SM
                       FG VV001 FM1600 01006KT 3SM BR BKN003=
200810251412 KPAE 251412Z 251412 VRB03KT P6SM OVC020 FM1800 35005KT P6SM SCT030
                       BKN060 BKN200 FM2200 36008KT P6SM SCT200=
200810251126 TAF KPAE 251126Z 251212 VRB03KT P6SM BKN015 OVC035 FM1800 35005KT
                       P6SM SCT030 BKN060 BKN200 FM2200 36008KT
                       P6SM SCT200=
200810250520 TAF KPAE 250520Z 250606 VRB04KT P6SM SCT030 OVC060 FM0900 VRB04KT
                       P6SM SCT015 OVC040 FM1200 VRB04KT P6SM BKN015
                       OVC030 FM1900 35007KT P6SM SCT020 BKN200=
200810242332 TAF KPAE 242332Z 250024 VRB03KT P6SM OVC060 FM0600 17006KT P6SM
                       OVC035 FM0900 17006KT P6SM SCT011 OVC028
                       PROB30 0912 5SM -DZ BR OVC011 FM1200 17006KT
                       P6SM FEW005 OVC011 FM1800 33006KT P6SM BKN011
                       BKN200 FM2000 33008KT P6SM FEW030 BKN200=
200810241741 TAF KPAE 241741Z 241818 18006KT P6SM BKN070 BKN200 FM0000 18006KT
                       P6SM BKN060 OVC110 FM0600 18009KT P6SM SCT012
                       OVC035
                      PROB30 0612 6SM -DZ BR OVC012 FM1200 VRB03KT
                       P6SM FEW004 OVC012=
200810241120 TAF KPAE 241120Z 241212 00000KT P6SM BCFG SCT120 BKN200
                      TEMPO 1214 2SM BR FM1700 VRB03KT P6SM SCT050
                       OVC080 FM0000 VRB04KT P6SM SCT040 OVC060
                       FM0600 13005KT P6SM OVC050=
200810240539 TAF KPAE 240539Z 240606 00000KT P6SM SCT150 SCT250 FM1200 10003KT
                       P6SM SCT080 BKN120 FM1700 13003KT P6SM SCT050
                       OVC070 FM2200 15005KT P6SM SCT040 OVC060
                       FM0500 13005KT P6SM OVC050=
200810232336 TAF KPAE 232336Z 240024 35005KT P6SM SCT250 FM0600 07003KT P6SM
                       BKN150 FM1200 10003KT P6SM SCT080 BKN120
                       FM1700 13003KT P6SM SCT050 OVC070 FM2200
                       15005KT P6SM SCT040 OVC060=
200810231737 TAF KPAE 231737Z 231818 35005KT P6SM SCT025 SCT060 FM2200 35005KT
                       P6SM SKC FM0600 07003KT P6SM BKN150 FM1200
                       10003KT P6SM SCT070 BKN100 FM1700 13003KT
                       P6SM SCT045 OVC060=
200810231340 KPAE 231340Z 231412 36004KT P6SM BKN005 OVC020
                      TEMPO 1517 SCT005 OVC020 FM1700 36004KT P6SM
                       BKN022 OVC050 FM1900 36004KT P6SM SCT025
                       BKN045 FM2000 34006KT P6SM SCT035 SCT050
                       FM0900 00000KT P6SM BCFG FEW100=
200810231120 TAF KPAE 231120Z 231212 33004KT P6SM SCT020 OVC050
                      TEMPO 1216 BKN020 OVC050 FM2000 34006KT P6SM
                       SCT035 SCT050 FM0900 00000KT P6SM BCFG FEW100=
200810230541 TAF KPAE 230541Z 230606 VRB04KT P6SM SKC FM0800 18004KT P6SM SCT150
                       FM1200 23005KT P6SM SCT030 BKN045
                      TEMPO 1216 BKN030 OVC045 FM2000 34006KT P6SM
                       SCT035 SCT050=
200810222321 TAF KPAE 222321Z 230024 12005KT P6SM FEW250 FM1500 14004KT P6SM
                       SCT120 BKN200 FM2100 VRB03KT P6SM SCT200=
200810221731 TAF KPAE 221731Z 221818 01003KT P6SM SKC FM1500 14004KT P6SM SCT100=
200810221133 TAF KPAE 221133Z 221212 00000KT P6SM BCFG FEW090 FM1800 15005KT
                       P6SM FEW200 FM0900 14004KT P6SM BKN100=
200810220542 TAF KPAE 220542Z 220606 08003KT P6SM BKN100 FM0900 VRB03KT P6SM
                       BCFG SCT100
                      TEMPO 1216 2SM BR SCT001 FM1800 VRB05KT P6SM
                       FEW200=
200810212335 TAF KPAE 212335Z 220024 00000KT P6SM SCT150 BKN250 FM0400 07004KT
                       P6SM BKN120 BKN200
                      TEMPO 1216 2SM BR SCT003 OVC120 FM1700 06004KT
                       P6SM BKN200=
200810211730 TAF KPAE 211730Z 211818 17004KT P6SM SCT200 FM0400 07004KT P6SM
                       BKN100=
200810211138 TAF KPAE 211138Z 211212 17004KT P6SM SCT040 FM1600 VRB03KT P6SM
                       SCT200 FM0400 01006KT P6SM BKN100=
200810210538 TAF KPAE 210538Z 210606 16006KT P6SM BKN060 FM0800 00000KT P6SM
                       SCT060 FM1200 VRB03KT P6SM BKN008
                      TEMPO 1216 4SM BR FM1600 VRB03KT P6SM BKN012
                       FM1700 VRB03KT P6SM SCT200=
200810202336 TAF KPAE 202336Z 210024 00000KT P6SM -SHRA SCT022 BKN035 OVC050
                       TEMPO 0003 BKN020 OVC035 FM1000 VRB03KT
                       2SM BR OVC012 FM1800 14005KT P6SM SCT200=
200810201904 KPAE 201904Z 201918 21009KT P6SM VCSH OVC010 FM2100 19012G18KT
                       P6SM VCSH SCT025 OVC045 FM0000 VRB05KT 5SM
                       -SHRA BKN015 OVC025 FM1000 VRB03KT P6SM
                       OVC012=
200810201800 KPAE 201725Z 201818 18014KT 5SM -RA BKN040 BKN050 OVC070 FM2000
                       19012G18KT P6SM VCSH SCT025 OVC045 FM0000
                       VRB05KT 5SM -SHRA BKN015 OVC025 FM1000 VRB03KT
                       P6SM OVC012=
200810201725 TAF KPAE 201725Z 201818 18014KT 5SM -RA BKN040 BKN050 OVC070 FM2000
                       19012G18KT P6SM VCSH SCT025 OVC045 FM0000
                       VRB05KT 5SM -SHRA BKN015 OVC025 FM1000 VRB03KT
                       P6SM OVC012=
200810201200 KPAE 201120Z 201212 16010KT P6SM OVC060 FM1400 16012G20KT P6SM
                       -RA SCT025 OVC040
                      TEMPO 1517 5SM RA BR BKN025 OVC035 FM1700
                       18015G25KT P6SM -SHRA SCT018 BKN030 OVC040
                       FM2000 19012G18KT P6SM VCSH SCT025=
200810201120 TAF KPAE 201120Z 201212 16010KT P6SM OVC060 FM1400 16012G20KT P6SM
                       -RA SCT025 OVC040
                      TEMPO 1517 5SM RA BR BKN025 OVC035 FM1700
                       18015G25KT P6SM -SHRA SCT018 BKN030 OVC040
                       FM2000 19012G18KT P6SM VCSH SCT025 BKN045
                       FM0000 VRB05KT 5SM -SHRA BKN015 OVC025=
200810200600 KPAE 200520Z 200606 15003KT P6SM BKN120 FM0800 14008KT P6SM SCT040
                       OVC060 FM1200 15012G20KT P6SM -RA SCT030
                       OVC045
                      TEMPO 1519 5SM RA BR BKN025 OVC035 FM1900
                       18015G25KT P6SM -SHRA SCT018 BKN030 OVC040=
200810200520 TAF KPAE 200520Z 200606 15003KT P6SM BKN120 FM0800 14008KT P6SM
                       SCT040 OVC060 FM1200 15012G20KT P6SM -RA
                       SCT030 OVC045
                      TEMPO 1519 5SM RA BR BKN025 OVC035 FM1900
                       18015G25KT P6SM -SHRA SCT018 BKN030 OVC040
                       FM2200 19012G18KT P6SM VCSH SCT025 BKN045
                       FM0000 VRB05KT 5SM -SHRA BKN015 OVC025=
200810200000 KPAE 192331Z 200024 33004KT P6SM BKN150 FM0400 13006KT P6SM SCT070
                       BKN100 FM0700 14006KT P6SM SCT040 OVC060
                       FM0900 15012G20KT P6SM -RA SCT035 OVC045
                       TEMPO 1519 5SM RA BR SCT025 OVC035 FM1900
                       18015G25K=
200810192331 TAF KPAE 192331Z 200024 33004KT P6SM BKN150 FM0400 13006KT P6SM
                       SCT070 BKN100 FM0700 14006KT P6SM SCT040
                       OVC060 FM0900 15012G20KT P6SM -RA SCT035
                       OVC045
                      TEMPO 1519 5SM RA BR SCT025 OVC035 FM1900
                       18015G25KT P6SM -SHRA SCT018 BKN030 OVC040
                       FM2200 19012G18KT P6SM VCSH SCT025 BKN045=
200810191800 KPAE 191741Z 191818 01003KT P6SM VCFG SCT003 FM2000 33004KT P6SM
                       BKN200 FM0400 13006KT P6SM SCT070 BKN120
                       FM0700 14006KT P6SM SCT040 OVC060 FM0900
                       15010KT P6SM -RA SCT035 OVC045 FM1600 16017G26KT
                       P6SM=
200810191741 TAF KPAE 191741Z 191818 01003KT P6SM VCFG SCT003 FM2000 33004KT
                       P6SM BKN200 FM0400 13006KT P6SM SCT070 BKN120
                       FM0700 14006KT P6SM SCT040 OVC060 FM0900
                       15010KT P6SM -RA SCT035 OVC045 FM1600 16017G26KT
                       P6SM -SHRA SCT018 BKN030 OVC040=
200810191428 KPAE 191428Z 191412 03003KT 1/4SM FG VV001
                      TEMPO 1417 1 1/2SM BR SCT001 OVC003 FM1700
                       36003KT 2SM BR BKN003 FM1900 26004KT P6SM
                       BKN200 FM0200 17006KT P6SM OVC100 FM0700
                       16014KT P6SM -RA OVC030=
200810191400 KPAE 191428Z 191412 03003KT 1/4SM FG VV001
                      TEMPO 1417 1 1/2SM BR SCT001 OVC003 FM1700
                       36003KT 2SM BR BKN003 FM1900 26004KT P6SM
                       BKN200 FM0200 17006KT P6SM OVC100 FM0700
                       16014KT P6SM -RA OVC030=
200810191200 KPAE 191121Z 191212 01003KT 3SM BR FEW002 FM1300 01003KT 1SM BR
                       BKN002
                      TEMPO 1317 1/2SM FG VV001 FM1700 36003KT
                       2SM BR BKN003 FM1900 26004KT P6SM BKN200
                       FM0200 17006KT P6SM OVC100 FM0700 16014KT
                       P6SM=
200810191121 TAF KPAE 191121Z 191212 01003KT 3SM BR FEW002 FM1300 01003KT 1SM
                       BR BKN002
                      TEMPO 1317 1/2SM FG VV001 FM1700 36003KT
                       2SM BR BKN003 FM1900 26004KT P6SM BKN200
                       FM0200 17006KT P6SM OVC100 FM0700 16014KT
                       P6SM -RA OVC030=
200810190600 KPAE 190520Z 190606 00000KT P6SM SKC FM1000 05004KT 1/2SM FG VV001
                       FM1700 36003KT 2SM BR BKN003 FM1900 26004KT
                       P6SM BKN200 FM0200 17006KT P6SM OVC100=
200810190520 TAF KPAE 190520Z 190606 00000KT P6SM SKC FM1000 05004KT 1/2SM FG
                       VV001 FM1700 36003KT 2SM BR BKN003 FM1900
                       26004KT P6SM BKN200 FM0200 17006KT P6SM
                       OVC100=
200810190000 KPAE 182332Z 190024 36004KT P6SM SKC FM0500 02004KT P6SM SKC FM1000
                       05004KT 1/2SM FG VV001 FM1700 36003KT 2SM
                       BR BKN003 FM1900 26004KT P6SM BKN200=
200810182332 TAF KPAE 182332Z 190024 36004KT P6SM SKC FM0500 02004KT P6SM SKC
                       FM1000 05004KT 1/2SM FG VV001 FM1700 36003KT
                       2SM BR BKN003 FM1900 26004KT P6SM BKN200=
200810181800 KPAE 181734Z 181818 35005KT P6SM BKN010 FM1900 34005KT P6SM SCT014
                       FM2000 33005KT P6SM SKC FM0500 02004KT P6SM
                       SKC FM1000 05004KT 1/2SM FG VV001 FM1700
                       36003KT 2SM BR BKN003=
200810181734 TAF KPAE 181734Z 181818 35005KT P6SM BKN010 FM1900 34005KT P6SM
                       SCT014 FM2000 33005KT P6SM SKC FM0500 02004KT
                       P6SM SKC FM1000 05004KT 1/2SM FG VV001 FM1700
                       36003KT 2SM BR BKN003=
200810181700 KPAE 181700Z 181712 35005KT P6SM BKN012 FM1900 34005KT P6SM SCT015
                       FM2000 33005KT P6SM SKC FM0300 01004KT P6SM
                       SCT180 FM1000 01004KT 1/2SM FG VV001=
200810181200 KPAE 181120Z 181212 35005KT P6SM SCT020 OVC060
                      TEMPO 1216 BKN017 OVC050 FM1600 34007KT P6SM
                       FEW030 FM0300 01004KT P6SM SCT180 FM1000
                       01004KT 1/2SM FG VV001=
200810181120 TAF KPAE 181120Z 181212 35005KT P6SM SCT020 OVC060
                      TEMPO 1216 BKN017 OVC050 FM1600 34007KT P6SM
                       FEW030 FM0300 01004KT P6SM SCT180 FM1000
                       01004KT 1/2SM FG VV001=
200810180524 TAF KPAE 180524Z 180606 34006KT P6SM OVC020 FM1000 01006KT P6SM
                       SCT004 BKN020
                      TEMPO 1417 2SM BR BKN004 FM1900 34007KT P6SM
                       SKC FM0300 01004KT P6SM SKC=
200810180426 TAF AMD KPAE 180426Z 180424 01007KT P6SM VCSH OVC016 FM1000 01006KT
                       P6SM SCT004 SCT040
                      TEMPO 1417 2SM BR BKN004 FM1900 34007KT P6SM
                       SKC=
200810172335 TAF KPAE 172335Z 180024 17007KT P6SM VCSH SCT015 BKN025 OVC035
                       FM0200 34008KT 6SM -RA SCT008 BKN012 OVC020
                       FM0400 36009KT P6SM VCSH BKN035 FM1100 35008KT
                       P6SM SCT004 SCT040
                      TEMPO 1417 2SM BR BKN004 FM1900 34007KT P6SM
                       SKC=
200810172300 KPAE 180426Z 180424 01007KT P6SM VCSH OVC016 FM1000 01006KT P6SM
                       SCT004 SCT040
                      TEMPO 1417 2SM BR BKN004 FM1900 34007KT P6SM
                       SKC=
200810171743 TAF KPAE 171743Z 171818 17011KT P6SM SCT020 SCT100 FM2100 17009KT
                       P6SM SCT025 BKN040 OVC100 FM2300 17007KT
                       P6SM -RA SCT012 BKN022 OVC035 FM0200 34008KT
                       6SM -RA SCT008 BKN012 OVC020 FM0400 36009KT
                       P6SM VCSH BKN040 FM1100 35008KT P6SM SCT006
                       BKN040
                      TEMPO 1417 2SM BR BKN006=
200810171120 TAF KPAE 171120Z 171212 16010G18KT P6SM SCT015 BKN025 OVC045
                      TEMPO 1215 4SM BR OVC015 FM2100 16012G22KT
                       P6SM -RA BKN020 OVC035 FM2300 20013G22KT
                       4SM -RA BR BKN012 OVC025 FM0300 29010KT
                       P6SM VCSH SCT018 BKN030 FM0600 34005KT P6SM
                       VCSH SCT009 BKN018
                      TEMPO 1012 4SM BR OVC009=
200810170532 TAF KPAE 170532Z 170606 16012KT P6SM BKN045 BKN080 BKN120 FM0800
                       16012KT P6SM BKN030 OVC045
                      TEMPO 0812 -RA FM1200 16012KT 5SM BR SCT009
                       BKN030 OVC045
                      TEMPO 1215 3SM BR OVC009 FM2000 18012KT P6SM
                       -RA BKN018 OVC035=
200810170457 TAF AMD KPAE 170457Z 170524 16012KT P6SM BKN045 BKN080 BKN120 FM0800
                       16012KT P6SM BKN030 OVC045
                      TEMPO 0812 -RA FM1200 16012KT 5SM BR SCT009
                       BKN030 OVC045
                      TEMPO 1215 2SM -RA BR OVC009 FM1900 18012KT
                       P6SM -RA BKN018 OVC035=
200810162329 TAF KPAE 162329Z 170024 17014G22KT P6SM SCT014 OVC090
                      TEMPO 0003 BKN014 OVC028 FM0300 14010KT P6SM
                       -RA OVC025
                      TEMPO 0913 2SM -RA BR BKN008 OVC018 FM1300
                       13008KT 5SM -RA BR SCT004 OVC013
                      TEMPO 1317 1SM -RA BR OVC003 FM2000 16014G22KT
                       P6SM -RA OVC018=
200810162300 KPAE 170457Z 170524 16012KT P6SM BKN045 BKN080 BKN120 FM0800 16012KT
                       P6SM BKN030 OVC045
                      TEMPO 0812 -RA FM1200 16012KT 5SM BR SCT009
                       BKN030 OVC045
                      TEMPO 1215 2SM -RA BR OVC009 FM1900 18012KT
                       P6SM -RA BKN018 OVC035=
200810161746 TAF KPAE 161746Z 161818 15005KT P6SM SCT019 OVC040
                      TEMPO 1822 2SM -RA BR OVC019 FM2200 16011KT
                       P6SM BKN022 OVC045 FM0300 14010KT P6SM -RA
                       OVC025
                      TEMPO 0913 2SM -RA BR BKN008 OVC018 FM1300
                       13008KT 5SM -RA BR SCT004 OVC013
                      TEMPO 1317 1SM -RA BR OVC003=
200810161120 TAF KPAE 161120Z 161212 15006KT P6SM -RA SCT004 BKN018 OVC050
                      TEMPO 1216 2SM -RA BR BKN004 OVC025 FM1800
                       16010KT P6SM BKN025 OVC040 FM0300 18010KT
                       P6SM -RA OVC025
                      TEMPO 1012 4SM -RA BR OVC018=
200810160520 TAF KPAE 160520Z 160606 13006KT P6SM -RA SCT030 BKN050 FM0700 13006KT
                       P6SM -RA SCT006 BKN025 OVC080
                      TEMPO 1115 3SM -RA BR BKN006 OVC025 FM1800
                       16010KT P6SM BKN025 OVC040 FM0000 18010KT
                       P6SM -RA OVC025=
200810160235 TAF AMD KPAE 160235Z 160324 00000KT P6SM FEW030 BKN060 OVC250 FM0400
                       13006KT P6SM -RA SCT030 BKN050 FM0700 13006KT
                       P6SM -RA SCT006 BKN025 OVC080
                      TEMPO 1115 3SM -RA BR BKN006 OVC025 FM1800
                       16012KT P6SM BKN025 OVC040=
200810152340 TAF KPAE 152340Z 160024 00000KT P6SM OVC250 FM0400 13006KT P6SM
                       OVC090 FM0900 13006KT P6SM -RA SCT006 BKN025
                       OVC080
                      TEMPO 1418 3SM -RA BR BKN006 OVC025=
200810152300 KPAE 160235Z 160324 00000KT P6SM FEW030 BKN060 OVC250 FM0400 13006KT
                       P6SM -RA SCT030 BKN050 FM0700 13006KT P6SM
                       -RA SCT006 BKN025 OVC080
                      TEMPO 1115 3SM -RA BR BKN006 OVC025 FM1800
                       16012KT P6SM BKN025 OVC040=
200810152123 KPAE 152123Z 152118 26003KT P6SM SCT015
                      TEMPO 2123 BKN015 FM2300 VRB04KT P6SM OVC250
                       FM0400 13006KT P6SM OVC100 FM0900 13006KT
                       P6SM -RA SCT006 BKN025 OVC100
                      TEMPO 1216 3SM -RA BR BKN006 OVC025=
200810151915 KPAE 151915Z 151918 00000KT 2SM HZ BKN003 BKN009 FM2000 VRB04KT
                       P6SM OVC250 FM0400 13006KT P6SM OVC100 FM0900
                       13006KT P6SM -RA SCT006 BKN025 OVC100
                      TEMPO 1216 3SM -RA BR BKN006 OVC025=
200810151730 TAF KPAE 151730Z 151818 00000KT 5SM BR SCT001
                      TEMPO 1819 1/4SM FG VV001 FM2000 VRB04KT
                       P6SM OVC250 FM0400 13006KT P6SM OVC100 FM0900
                       13006KT P6SM -RA SCT006 BKN025 OVC100
                      TEMPO 1216 3SM -RA BR BKN006 OVC025=
200810151611 KPAE 151611Z 151612 11004KT 5SM BR SKC
                      TEMPO 1618 1SM BR BKN001 FM1800 21006KT P6SM
                       BKN250 FM0000 18006KT P6SM SCT120 OVC250
                       FM0400 15005KT P6SM BKN100 OVC200 FM0800
                       14004KT 6SM -RA BR SCT006 BKN025 OVC100
                       TEMPO 0912 3SM -RA BR BKN006 OVC025=
200810151120 TAF KPAE 151120Z 151212 00000KT 3SM BR SCT001
                      TEMPO 1216 1/4SM FG VV001 FM1600 12002KT
                       P6SM SCT001 SCT250
                      TEMPO 1617 1/2SM FG BKN001 FM1800 21006KT
                       P6SM BKN250 FM0000 18006KT P6SM SCT120 OVC250
                       FM0400 15005KT P6SM BKN100 OVC200 FM0800
                       14004KT 6SM -RA BR SCT006 BKN025 OVC100
                       TEMPO 0912 3SM -RA BR BKN006 OVC025=
200810151115 TAF KPAE 151115Z 151106 00000KT 3SM BR SCT001
                      TEMPO 1115 1/4SM FG VV001 FM1500 12002KT
                       3SM BR SCT001 SCT250
                      TEMPO 1517 1/2SM FG BKN001 FM1700 21006KT
                       P6SM BKN250 FM0000 18006KT P6SM SCT120 OVC250
                       FM0400 15005KT P6SM BKN100 OVC200=
200810151109 KPAE 151109Z 151106 00000KT 3SM BR SCT001
                      TEMPO 1216 1/4SM FG VV001 FM1700 12002KT
                       P6SM SCT003 SCT250
                      TEMPO 1718 4SM BR BKN003 FM2000 21006KT P6SM
                       BKN250 FM0000 18006KT P6SM SCT120 OVC250
                       FM0400 15005KT P6SM BKN100 OVC200=
200810150520 TAF KPAE 150520Z 150606 00000KT P6SM SKC FM1000 06002KT 3SM BR
                       SCT001
                      TEMPO 1216 1/2SM FG VV001 FM1700 12002KT
                       P6SM SCT250 FM2000 21006KT P6SM BKN250 FM0000
                       18006KT P6SM SCT120 OVC250 FM0400 15008KT
                       P6SM BKN100 OVC200=
200810142336 TAF KPAE 142336Z 150024 01006KT P6SM BKN250 FM0400 04004KT P6SM
                       SKC FM1000 06002KT 3SM BR SCT001
                      TEMPO 1216 1/2SM FG VV001 FM1700 12002KT
                       P6SM SCT250 FM2000 21006KT P6SM BKN250=
200810141738 TAF KPAE 141738Z 141818 01005KT P6SM SKC FM2100 33003KT P6SM SKC
                       FM0600 04004KT P6SM SKC FM1000 06002KT 3SM
                       BR SCT001
                      TEMPO 1216 1/2SM FG VV001 FM1700 12002KT
                       P6SM FEW250=
200810141257 KPAE 141257Z 141312 VRB04KT P6SM SCT025 SCT035
                      TEMPO 1416 BKN020 BKN035 FM1700 33005KT P6SM
                       SCT020 SCT200 FM1800 35007KT P6SM FEW100
                       SCT200 FM0400 02005KT P6SM FEW200 FM0900
                       VRB03KT 5SM BR SCT002
                      TEMPO 1012 2SM BR BKN002=
200810141120 TAF KPAE 141120Z 141212 03005KT P6SM SCT006 BKN025
                      TEMPO 1316 1SM BR BKN006 FM1700 33005KT P6SM
                       SCT010 SCT200 FM1800 35007KT P6SM FEW100
                       SCT200 FM0400 02005KT P6SM FEW200 FM0900
                       VRB03KT 5SM BR SCT002
                      TEMPO 1012 2SM BR BKN002=
200810140520 TAF KPAE 140520Z 140606 03005KT P6SM VCSH SCT012 OVC040 FM1000
                       03005KT P6SM SCT008 OVC012
                      TEMPO 1216 1SM BR OVC008 FM1700 33005KT P6SM
                       SCT010 SCT200 FM1800 35007KT P6SM FEW100
                       SCT200 FM0400 02005KT P6SM FEW200=
200810140331 TAF AMD KPAE 140331Z 140424 34008KT 6SM -RA BR SCT020 BKN045 FM0600
                       36005KT P6SM VCSH SCT008 OVC020 FM1100 VRB03KT
                       P6SM OVC008 FM1700 33003KT P6SM SCT010 SCT200=
200810140053 TAF AMD KPAE 140053Z 140124 24010KT 5SM -RA BR SCT006 OVC013
                      TEMPO 0104 1SM RA BR BKN006 OVC010 FM0600
                       20006KT P6SM VCSH OVC020 FM1400 VRB03KT
                       P6SM OVC007 FM1700 33003KT P6SM SCT010 SCT200=
200810140015 TAF AMD KPAE 140015Z 140024 24010KT P6SM -RA SCT006 OVC013
                      TEMPO 0004 3SM RA BR BKN006 OVC010 FM0600
                       20006KT P6SM VCSH OVC020 FM1400 VRB03KT
                       P6SM OVC007 FM1700 33003KT P6SM SCT010 SCT200=
200810132326 TAF KPAE 132326Z 140024 21015G26KT P6SM -RA OVC013 FM0400 20006KT
                       P6SM VCSH OVC020 FM1400 VRB03KT P6SM OVC007
                       FM1700 33003KT P6SM SCT010 SCT200=
200810132300 KPAE 140331Z 140424 34008KT 6SM -RA BR SCT020 BKN045 FM0600 36005KT
                       P6SM VCSH SCT008 OVC020 FM1100 VRB03KT P6SM
                       OVC008 FM1700 33003KT P6SM SCT010 SCT200=
200810131738 TAF KPAE 131738Z 131818 17010KT P6SM BKN006 OVC070 FM2000 17014KT
                       P6SM -RA BKN025 OVC050 FM2200 21010G20KT
                       P6SM -SHRA OVC025 FM0400 20006KT P6SM VCSH
                       OVC020 FM1400 VRB03KT P6SM OVC007=
200810131138 TAF KPAE 131138Z 131212 15012KT P6SM BKN012 OVC020
                      TEMPO 1216 16012G20KT 3SM -RA BKN007 FM1600
                       17015G25KT P6SM -RA OVC025 FM0000 16005KT
                       P6SM -SHRA OVC030
                      TEMPO 0004 VRB05KT 3SM SHRA BKN020 FM0400
                       20006KT P6SM VCSH OVC020=
200810130539 TAF KPAE 130539Z 130606 16006KT P6SM BKN035 OVC040
                      TEMPO 0913 -RA OVC030 FM1300 16012KT P6SM
                       -RA OVC020
                      TEMPO 1317 3SM BR BKN015 FM1700 17012G20KT
                       P6SM -RA OVC020 FM0000 19010KT P6SM -SHRA
                       OVC020=
200810122342 TAF KPAE 122342Z 130024 26005KT P6SM OVC045
                      TEMPO 0004 SCT045 BKN100 FM0400 13005KT P6SM
                       OVC040 FM0900 15006KT P6SM OVC030
                      TEMPO 0913 -RA OVC020 FM1300 16007KT P6SM
                       -RA OVC010 FM2100 19010KT P6SM -RA OVC020=
200810122128 KPAE 122128Z 122118 VRB04KT P6SM BKN045 FM0300 15005KT P6SM OVC045
                       FM0800 14006KT P6SM OVC035 FM1300 15008KT
                       P6SM -RA OVC015=
200810121739 TAF KPAE 121739Z 121818 18004KT P6SM SCT120 FM2200 18006KT P6SM
                       OVC100 FM0300 15005KT P6SM OVC060 FM0800
                       14006KT P6SM OVC040 FM1300 15008KT P6SM
                       -RA OVC015=
200810121138 TAF KPAE 121138Z 121212 VRB03KT P6SM BKN100
                      TEMPO 1216 2SM BR FM1900 18006KT P6SM BKN070
                       OVC100 FM0300 14008KT P6SM OVC060 FM0900
                       13012KT P6SM OVC040=
200810120537 TAF KPAE 120537Z 120606 VRB03KT P6SM BKN120 BKN200 FM1200 VRB03KT
                       P6SM BKN120
                      TEMPO 1216 2SM BR FM1700 20006KT P6SM BKN080
                       OVC120=
200810112320 TAF KPAE 112320Z 120024 34006KT P6SM SCT120 BKN200 FM0600 VRB03KT
                       P6SM BKN120 BKN200 FM1200 VRB03KT P6SM VCFG
                       BKN120 FM2000 20006KT P6SM BKN080 OVC120=
200810111720 TAF KPAE 111720Z 111818 34006KT P6SM SCT250 FM0200 36004KT P6SM
                       BKN200 FM0600 VRB03KT P6SM SCT120 BKN200
                       FM1200 VRB03KT P6SM VCFG BKN120=
200810111521 KPAE 111521Z 111512 VRB03KT P6SM VCFG SKC FM1800 34006KT P6SM SCT250
                       FM0200 36004KT P6SM BKN200 FM0600 VRB03KT
                       P6SM BKN120 OVC200=
200810111322 KPAE 111322Z 111312 00000KT P6SM VCFG SKC
                      TEMPO 1417 1/4SM FG VV001 FM1800 34006KT
                       P6SM SCT250 FM0200 36004KT P6SM BKN200 FM0600
                       VRB03KT P6SM BKN120 OVC200=
200810111135 TAF KPAE 111135Z 111212 VRB04KT P6SM SKC
                      TEMPO 1216 1/2SM FG BKN001 FM1800 34006KT
                       P6SM SCT250 FM0200 36004KT P6SM BKN200 FM0600
                       VRB03KT P6SM BKN120 OVC200=
200810110528 TAF KPAE 110528Z 110606 35005KT P6SM FEW250 FM1000 VRB03KT P6SM
                       SKC
                      TEMPO 1216 1SM BR BKN002 FM1800 35005KT P6SM
                       SCT250=
200810102328 TAF KPAE 102328Z 110024 35009KT P6SM SKC FM0600 01004KT P6SM SCT250
                       FM1200 VRB03KT 2SM BR SCT002 FM1800 35005KT
                       P6SM SCT250=
200810101740 TAF KPAE 101740Z 101818 02005KT P6SM SCT015 FM1900 35008KT P6SM
                       SKC FM0600 01004KT P6SM SCT250 FM1200 VRB03KT
                       5SM BR SCT250=
200810101610 KPAE 101610Z 101612 02005KT P6SM SCT015 BKN020
                      TEMPO 1619 5SM BR BKN014 FM2100 35008KT P6SM
                       SKC FM0600 01004KT P6SM SCT250=
200810101155 KPAE 101155Z 101212 02005KT P6SM BKN010 OVC020
                      TEMPO 1216 3SM BR BKN004 FM1600 33005KT P6SM
                       BKN020 FM1800 35007KT P6SM SCT025 FM2000
                       35008KT P6SM SKC FM0600 01004KT P6SM SCT250=
200810101128 TAF KPAE 101128Z 101212 02005KT P6SM BKN013 OVC020
                      TEMPO 1216 3SM BR BKN008 FM1600 33005KT P6SM
                       BKN020 FM1800 35007KT P6SM SCT025 FM2000
                       35008KT P6SM SKC FM0600 01004KT P6SM SCT250=
200810100942 KPAE 100942Z 101006 35003KT P6SM BKN009 OVC016
                      TEMPO 1216 2SM BR OVC006 FM1600 VRB05KT P6SM
                       BKN020 FM1800 34004KT P6SM SCT025 FM2100
                       35008KT P6SM SKC=
200810100537 TAF KPAE 100537Z 100606 33005KT P6SM FEW008 FM0700 32005KT P6SM
                       SKC FM1200 34004KT P6SM VCFG SCT004
                      TEMPO 1317 1/2SM FG OVC001 FM1800 34004KT
                       P6SM SCT025 FM2100 35008KT P6SM SKC=
200810100213 TAF AMD KPAE 100213Z 100224 32005KT P6SM VCSH SCT020 BKN035 OVC100
                       TEMPO 0204 BKN007 FM0400 30004KT P6SM OVC045
                       FM0600 35004KT P6SM SCT030
                      TEMPO 1317 1/2SM FG OVC001 FM1800 34004KT
                       P6SM SCT200=
200810092328 TAF KPAE 092328Z 100024 32005KT P6SM VCSH SCT023 BKN035 OVC100
                       TEMPO 0002 -TSRA BKN020CB FM0300 30004KT
                       P6SM OVC045 FM0600 35004KT P6SM SCT030
                      TEMPO 1317 1/2SM FG OVC001 FM1800 34004KT
                       P6SM SCT200=
200810092300 KPAE 100213Z 100224 32005KT P6SM VCSH SCT020 BKN035 OVC100
                      TEMPO 0204 BKN007 FM0400 30004KT P6SM OVC045
                       FM0600 35004KT P6SM SCT030
                      TEMPO 1317 1/2SM FG OVC001 FM1800 34004KT
                       P6SM SCT200=
200810091729 TAF KPAE 091729Z 091818 00000KT P6SM BKN025 BKN035 OVC200 FM1900
                       22007KT P6SM VCSH SCT020 BKN030 OVC050
                      TEMPO 1923 -SHRA BKN020 FM0100 30004KT P6SM
                       OVC045 FM0600 35004KT P6SM SCT030
                      TEMPO 1418 1/2SM FG OVC001=
200810091139 TAF KPAE 091139Z 091212 VRB05KT P6SM SCT010 BKN020 OVC100
                      TEMPO 1216 BKN009 FM1900 22007KT P6SM VCSH
                       SCT020 BKN030 OVC050
                      TEMPO 1923 -SHRA BKN020 FM2300 34008KT P6SM
                       OVC045 FM0600 35004KT P6SM BKN030=
200810091024 KPAE 091024Z 091006 VRB05KT P6SM SCT020 BKN080
                      TEMPO 1014 BKN010 FM1400 VRB05KT P6SM BKN040
                       OVC070 FM1800 33007KT P6SM VCSH OVC045 FM0200
                       34008KT P6SM OVC050=
200810090534 TAF KPAE 090534Z 090606 35004KT P6SM SCT250 FM0900 34004KT P6SM
                       SCT090 OVC150 FM1400 VRB05KT P6SM BKN050
                       OVC070 FM1800 33007KT P6SM VCSH OVC045 FM0200
                       34008KT P6SM OVC050=
200810082340 TAF KPAE 082340Z 090024 34004KT P6SM SCT030 BKN200 FM0300 35004KT
                       P6SM BKN200 FM0800 15005KT P6SM BKN090 OVC150
                       FM1400 15005KT P6SM OVC045 FM2100 31004KT
                       P6SM VCSH OVC040=
200810081732 TAF KPAE 081732Z 081818 00000KT P6SM SCT025 SCT050 FM2100 34004KT
                       P6SM SCT025 SCT050 FM0700 15005KT P6SM BKN090
                       FM1400 15005KT P6SM OVC050=
200810081120 TAF KPAE 081120Z 081212 00000KT P6SM VCSH SCT025 OVC045
                      TEMPO 1216 -SHRA BKN025 OVC045 FM1700 32005KT
                       P6SM SCT030 FM0200 15005KT P6SM BKN090 FM1000
                       15005KT P6SM OVC050=
200810080655 KPAE 080655Z 080706 00000KT P6SM VCSH BKN026 OVC090 FM1200 VRB03KT
                       P6SM BKN025 FM1700 VRB30KT P6SM SCT030 FM0200
                       15005KT P6SM BKN090=
200810080520 TAF KPAE 080520Z 080606 00000KT P6SM VCSH SCT045 BKN070
                      TEMPO 0610 -SHRA BKN040 OVC070 FM1200 VRB03KT
                       P6SM BKN025 FM1700 VRB30KT P6SM SCT030 FM0200
                       15005KT P6SM BKN090=
200810072332 TAF KPAE 072332Z 080024 35006KT P6SM VCSH SCT030 SCT250
                      TEMPO 0003 -SHRA BKN030 FM0500 VRB03KT P6SM
                       SCT250 FM1200 19005KT P6SM BKN025 FM1700
                       20006KT P6SM SCT030=
200810071725 TAF KPAE 071725Z 071818 21005KT P6SM -SHRA SCT025 BKN035 OVC050
                       FM2200 18010KT P6SM VCSH SCT025 BKN050 FM0300
                       14004KT P6SM BKN025 OVC035=
200810071120 TAF KPAE 071120Z 071212 20021G29KT P6SM VCSH SCT025 BKN050 FM1600
                       19015KT P6SM VCSH SCT025 BKN050 FM2200 18010KT
                       P6SM VCSH SCT025 BKN050 FM0300 VRB04KT P6SM
                       -SHRA BKN025 OVC035=
200810070823 KPAE 070823Z 070806 20022G35KT P6SM VCSH SCT015 SCT024 BKN080 FM1400
                       VRB05KT P6SM -SHRA BKN025 BKN045 FM2200
                       VRB05KT P6SM VCSH SCT030 BKN050=
200810070701 KPAE 070701Z 070706 17017G32KT P6SM -SHRA OVC015 FM1000 18025G38KT
                       P6SM -SHRA SCT015 BKN025 BKN050 FM1400 VRB05KT
                       P6SM -SHRA BKN025 BKN045 FM2200 VRB05KT
                       P6SM VCSH SCT030 BKN050=
200810070523 TAF KPAE 070523Z 070606 15010KT P6SM -RA SCT030 OVC050 WS020/20040KT
                       FM0800 18025G38KT P6SM -SHRA BKN030 BKN050
                       FM1400 VRB05KT P6SM -SHRA BKN025 BKN045
                       FM2200 VRB05KT P6SM VCSH SCT030 BKN050=
200810070026 TAF AMD KPAE 070026Z 070024 18012G22KT P6SM -RA SCT010 BKN025 OVC050
                       TEMPO 0004 4SM -RA BR BKN008 OVC025 FM0400
                       16015G25KT P6SM -RA SCT010 OVC025
                      TEMPO 0408 4SM -RA BR BKN010 OVC025 FM0800
                       18020G30KT P6SM -SHRA BKN025 BKN040 FM1100
                       VRB05KT 5SM SHRA BKN015 BKN030 FM1700 18012KT
                       P6SM -SHRA BKN020 OVC035=
200810062334 TAF KPAE 062334Z 070024 16009KT 5SM -RA BR BKN005 BKN011 OVC035
                       FM0200 16015KT P6SM -RA SCT025 OVC035
                      TEMPO 0408 4SM -RA BR OVC025 FM0800 18020G30KT
                       P6SM -SHRA BKN025 BKN040 FM1100 VRB05KT
                       5SM SHRA BKN015 BKN030 FM1700 18012KT P6SM
                       -SHRA BKN020 OVC035=
200810062300 KPAE 070026Z 070024 18012G22KT P6SM -RA SCT010 BKN025 OVC050
                      TEMPO 0004 4SM -RA BR BKN008 OVC025 FM0400
                       16015G25KT P6SM -RA SCT010 OVC025
                      TEMPO 0408 4SM -RA BR BKN010 OVC025 FM0800
                       18020G30KT P6SM -SHRA BKN025 BKN040 FM1100
                       VRB05KT 5SM SHRA BKN015 BKN030 FM1700 18012KT
                       P6SM -SHRA BKN020 OVC035=
200810061920 KPAE 061920Z 061918 16011KT P6SM OVC008 FM2200 16009KT P6SM SCT025
                       OVC035 FM0200 16018G28KT P6SM -RA SCT025
                       OVC035
                      TEMPO 0508 4SM -RA BR OVC025 FM0800 18020G30KT
                       P6SM -SHRA BKN025 BKN040 FM1100 VRB05KT
                       5SM SHRA BKN015 BKN030=
200810061731 TAF KPAE 061731Z 061818 16004KT P6SM SCT014 OVC024 FM2200 16009KT
                       P6SM SCT025 OVC035 FM0200 16018G28KT P6SM
                       -RA SCT025 OVC035
                      TEMPO 0508 4SM -RA BR OVC025 FM0800 18020G30KT
                       P6SM -SHRA BKN025 BKN040 FM1100 VRB05KT
                       5SM SHRA BKN015 BKN030=
200810061120 TAF KPAE 061120Z 061212 12005KT P6SM SCT030 BKN050 OVC080 FM1800
                       14007KT P6SM SCT035 OVC060 FM2300 16014KT
                       P6SM -RA SCT025 OVC035 FM0200 16018G28KT
                       P6SM -RA SCT025 OVC035
                      TEMPO 0508 4SM -RA BR OVC025 FM0800 18020G30KT
                       P6SM -SHRA BKN025 BKN040 FM1100 VRB05KT
                       5SM SHRA BKN015 BKN030=
200810060524 TAF KPAE 060524Z 060606 12004KT P6SM SCT025 OVC045
                      TEMPO 0610 -RA FM1000 12005KT P6SM BKN025
                       BKN050 FM1800 14007KT P6SM BKN035 OVC050
                       FM2300 16014KT P6SM -RA SCT025 OVC035 FM0200
                       16015G25KT P6SM -RA SCT025 OVC035
                      TEMPO 0506 4SM -RA BR OVC025=
200810060454 TAF AMD KPAE 060454Z 060524 00000KT P6SM -RA SCT025 BKN045 OVC080
                       TEMPO 0506 -RA BKN025 OVC050 FM1000 VRB03KT
                       P6SM BKN025 BKN050 FM1600 06006KT P6SM SCT030
                       BKN050 FM2000 10012KT P6SM SCT050 OVC100=
200810052320 TAF KPAE 052320Z 060024 21006KT P6SM SCT025 OVC050
                      TEMPO 0206 -RA BKN025 OVC050 FM0600 VRB03KT
                       P6SM BKN025 BKN050 FM1600 06006KT P6SM SCT030
                       BKN050 FM2000 10012KT P6SM SCT050 OVC100=
200810052300 KPAE 060454Z 060524 00000KT P6SM -RA SCT025 BKN045 OVC080
                      TEMPO 0506 -RA BKN025 OVC050 FM1000 VRB03KT
                       P6SM BKN025 BKN050 FM1600 06006KT P6SM SCT030
                       BKN050 FM2000 10012KT P6SM SCT050 OVC100=
200810051858 KPAE 051858Z 051918 18008KT P6SM SCT025 BKN080
                      TEMPO 2124 BKN025 OVC060 FM0000 18008KT P6SM
                       -RA BKN025 OVC050 FM0300 18006KT 5SM -RA
                       BR OVC022 FM1000 VRB03KT P6SM BKN025 BKN050=
200810051743 TAF KPAE 051743Z 051818 VRB03KT P6SM VCSH BKN022 OVC050 FM2100
                       18006KT P6SM -RA BKN025 OVC050 FM0300 18006KT
                       5SM -RA BR OVC022 FM1000 VRB03KT P6SM BKN025
                       BKN050=
200810051416 KPAE 051416Z 051412 VRB04KT P6SM VCSH SCT015 BKN040
                      TEMPO 1417 BKN015 OVC040 FM1700 15007KT P6SM
                       SCT030 BKN060 FM2100 15007KT P6SM BKN030
                       OVC040
                      TEMPO 0004 -RA BKN025 OVC035 FM0400 15007KT
                       P6SM -RA OVC020=
200810051130 TAF KPAE 051130Z 051212 15004KT P6SM VCSH SCT020 OVC040
                      TEMPO 1214 4SM -SHRA BR OVC020 FM1700 15007KT
                       P6SM SCT030 BKN060 FM2100 15007KT P6SM BKN030
                       OVC040
                      TEMPO 0004 -RA BKN025 OVC035 FM0400 15007KT
                       P6SM -RA OVC020=
200810051042 KPAE 051042Z 051106 15003KT 6SM -SHRA BR SCT020 OVC045 FM1400 13006KT
                       P6SM SCT035 BKN060 FM2100 15007KT P6SM BKN030
                       OVC050
                      TEMPO 2124 -RA=
200810050757 KPAE 050757Z 050806 17004KT 3SM SHRA OVC018 FM1000 19005KT P6SM
                       VCSH BKN015 OVC025 FM1600 13006KT P6SM SCT035
                       BKN060 FM2100 15007KT P6SM BKN030 OVC050
                       TEMPO 2124 -RA=
200810050711 KPAE 050711Z 050706 19005KT P6SM VCSH SCT015 BKN022 BKN026 FM1000
                       19005KT P6SM VCSH BKN015 OVC025 FM1600 13006KT
                       P6SM SCT035 BKN060 FM2100 15007KT P6SM BKN030
                       OVC050
                      TEMPO 2124 -RA=
200810050520 TAF KPAE 050520Z 050606 17010KT P6SM VCSH BKN035 BKN080 FM1000
                       19006KT P6SM VCSH BKN015 OVC025 FM1600 13006KT
                       P6SM SCT035 BKN060 FM2100 15007KT P6SM BKN030
                       OVC050
                      TEMPO 2124 -RA=
200810042340 TAF KPAE 042340Z 050024 18022G32KT P6SM -SHRA BKN022 BKN035 FM0400
                       VRB04KT P6SM SCT035 BKN050 FM0800 19006KT
                       P6SM -SHRA SCT008 BKN015 OVC025 FM1600 13006KT
                       P6SM SCT035 BKN060=
200810041738 TAF KPAE 041738Z 041818 16012G18KT P6SM -SHRA SCT035 BKN050 OVC080
                       TEMPO 1821 5SM -SHRA BKN035 OVC050 FM2100
                       18018G28KT P6SM -SHRA BKN035 OVC050 FM0400
                       VRB04KT P6SM SCT035 BKN050 FM0800 19006KT
                       P6SM -SHRA SCT008 BKN015 OVC025 FM1700 13006KT
                       P6SM SCT035 BKN050=
200810041126 TAF KPAE 041126Z 041212 15005KT P6SM -SHRA SCT035 BKN050 OVC080
                       FM1500 17015KT P6SM -SHRA SCT025 BKN035
                       OVC045 FM2100 17018G28KT P6SM -SHRA BKN025
                       OVC040 FM0300 VRB04KT P6SM -SHRA BKN020
                       OVC035 FM0800 VRB04KT P6SM VCSH BKN015 OVC025=
200810040524 TAF KPAE 040524Z 040606 11008KT P6SM -RA BKN050 OVC090
                      TEMPO 0610 4SM -RA BR OVC040 FM1000 16014KT
                       P6SM -SHRA BKN035 OVC050 FM2000 18015G25KT
                       P6SM -SHRA BKN030 OVC050 FM0200 VRB04KT
                       P6SM -SHRA BKN030 OVC050=
200810032341 TAF KPAE 032341Z 040024 16008KT P6SM -RA SCT035 BKN050 OVC080
                      TEMPO 0206 5SM -RA BKN035 FM0800 16008KT
                       P6SM -RA OVC030 FM1300 16014KT P6SM SCT030
                       BKN050 OVC080 FM2000 18014G20KT P6SM -SHRA
                       BKN035 BKN050=
200810031740 TAF KPAE 031740Z 031818 16008KT P6SM SCT045 BKN080 OVC150 FM2000
                       16010KT P6SM -RA SCT035 BKN050 OVC080=
200810031129 TAF KPAE 031129Z 031212 17009KT P6SM BKN080 BKN120
                      TEMPO 1216 4SM BR SCT007 OVC080 FM2000 14009KT
                       P6SM -RA SCT020 OVC045 FM0400 14011KT P6SM
                       -RA SCT020 OVC040=
200810030532 TAF KPAE 030532Z 030606 17012KT P6SM VCSH SCT045 BKN080 FM1000
                       15005KT P6SM SCT020 BKN045 OVC080
                      TEMPO 1216 2SM BR BKN007 OVC020 FM1800 14009KT
                       P6SM -RA SCT020 OVC045=
200810022320 TAF KPAE 022320Z 030024 18010KT P6SM -SHRA SCT035 BKN060 OVC080
                       FM0600 15009KT P6SM VCSH BKN050 OVC080 FM1000
                       15005KT P6SM SCT020 BKN045 OVC080
                      TEMPO 1216 BKN020 OVC045 FM1800 14009KT P6SM
                       -RA SCT020 OVC045=
200810021720 TAF KPAE 021720Z 021818 17010KT P6SM -RA BKN045 OVC080 FM2200 15012KT
                       P6SM -RA SCT025 OVC045 FM0300 16012KT P6SM
                       -SHRA OVC040 FM0600 14008KT P6SM VCSH OVC045=
200810021129 TAF KPAE 021129Z 021212 VRB06KT P6SM BKN120 OVC200 FM1800 16008KT
                       P6SM -RA OVC045 FM2200 16012KT P6SM -RA
                       BKN025 OVC045 FM0300 16012KT P6SM -SHRA
                       OVC040 FM0600 14008KT P6SM VCSH OVC045=
200810020544 TAF KPAE 020544Z 020606 25005KT P6SM BKN250 FM1100 16005KT P6SM
                       SCT050 OVC120 FM1700 16008KT P6SM -RA OVC045
                       FM2100 16012KT P6SM -RA BKN025 OVC045 FM0300
                       16012KT P6SM -SHRA OVC040=
200810012325 TAF KPAE 012325Z 020024 VRB03KT P6SM BKN200 FM0600 00000KT P6SM
                       BKN120 BKN200 FM0900 14005KT P6SM BKN070
                       OVC120 FM1600 15007KT P6SM -RA BKN050 OVC070
                       FM1800 15008KT P6SM -RA BKN025 OVC045=
200810011740 TAF KPAE 011740Z 011818 28003KT P6SM BKN200
                      TEMPO 1819 5SM BR FM0600 00000KT P6SM BKN120
                       BKN200 FM0900 14005KT P6SM BKN070 BKN120
                       FM1300 15007KT P6SM BKN045 OVC070
                      TEMPO 1317 -RA FM1700 15008KT P6SM -RA OVC045=
200810011341 KPAE 011341Z 011412 VRB03KT 4SM BR SCT003 SCT200
                      TEMPO 1417 1/2SM FG BKN001 FM1800 19003KT
                       P6SM SCT200 FM0600 12005KT P6SM BKN200=
200810011126 TAF KPAE 011126Z 011212 00000KT P6SM SCT200 FM1400 00000KT P6SM
                       BCFG SCT200
                      TEMPO 1417 1SM BR BKN001 FM1700 19003KT P6SM
                       SCT200 FM0600 12005KT P6SM BKN200=
200810010525 TAF KPAE 010525Z 010606 00000KT P6SM BKN150 FM1400 00000KT P6SM
                       BCFG SCT200
                      TEMPO 1417 1SM BR BKN001 FM1700 19003KT P6SM
                       SCT200=