##########################################################
# Query made at 02/18/2025 19:25:19 UTC
# Time interval: from 09/01/2008 00:00  to 09/30/2008 23:59  UTC
##########################################################

##########################################################
# KPAE, Everett, Snohomish County Airport (United States)
# WMO index: -----. WIGOS ID: Unknown
# Latitude 47-55-23N. Longitude 122-16-57W. Altitude 184 m.
##########################################################

###################################
#  METAR/SPECI from KPAE
###################################
200809302353 METAR KPAE 302353Z 35003KT 10SM CLR 19/11 A3002 RMK AO2 SLP165 T01890106 10206 20144 56009=
200809302253 METAR KPAE 302253Z AUTO VRB03KT 10SM CLR 19/10 A3003 RMK AO2 SLP168 T01890100 TSNO=
200809302153 METAR KPAE 302153Z 34003KT 10SM CLR 18/09 A3004 RMK AO2 SLP171 T01830089=
200809302053 METAR KPAE 302053Z 00000KT 10SM CLR 20/10 A3005 RMK AO2 SLP174 T02000100 58005=
200809301953 METAR KPAE 301953Z 00000KT 10SM CLR 17/08 A3007 RMK AO2 SLP181 T01670083=
200809301853 METAR KPAE 301853Z 26005KT 10SM CLR 16/09 A3006 RMK AO2 SLP179 T01610094=
200809301753 METAR KPAE 301753Z 23003KT 10SM CLR 15/08 A3006 RMK AO2 SLP180 T01500083 10150 20094 51005=
200809301653 METAR KPAE 301653Z 29003KT 10SM CLR 14/08 A3006 RMK AO2 SLP178 T01440083=
200809301553 METAR KPAE 301553Z 00000KT 10SM CLR 14/08 A3006 RMK AO2 SLP178 T01390078=
200809301453 METAR KPAE 301453Z 23003KT 10SM CLR 12/08 A3005 RMK AO2 SLP175 T01170078 53009=
200809301353 METAR KPAE 301353Z 00000KT 10SM CLR 11/08 A3003 RMK AO2 SLP170 T01110078=
200809301253 METAR KPAE 301253Z 11003KT 10SM CLR 13/08 A3002 RMK AO2 SLP164 T01330083=
200809301153 METAR KPAE 301153Z 00000KT 10SM CLR 13/08 A3002 RMK AO2 SLP165 70001 T01330078 10144 20117 53011=
200809301053 METAR KPAE 301053Z 00000KT 10SM CLR 13/08 A3001 RMK AO2 SLP159 T01330083=
200809300953 METAR KPAE 300953Z 00000KT 8SM CLR 14/08 A3000 RMK AO2 SLP157 T01390083=
200809300853 METAR KPAE 300853Z 00000KT 10SM CLR 13/08 A2999 RMK AO2 SLP154 T01330078 51004=
200809300753 METAR KPAE 300753Z 03005KT 10SM CLR 14/07 A2998 RMK AO2 SLP152 T01390067 402110094=
200809300653 METAR KPAE 300653Z 00000KT 10SM CLR 13/07 A2998 RMK AO2 SLP151 T01330072=
200809300553 METAR KPAE 300553Z 00000KT 10SM CLR 14/08 A2998 RMK AO2 SLP151 T01390078 10206 20139 52006=
200809300453 METAR KPAE 300453Z 03005KT 10SM CLR 16/07 A2997 RMK AO2 SLP148 T01560072=
200809300353 METAR KPAE 300353Z 36004KT 10SM CLR 15/08 A2997 RMK AO2 SLP147 T01500078=
200809300253 METAR KPAE 300253Z 36004KT 10SM CLR 16/08 A2996 RMK AO2 SLP145 T01610083 55003=
200809300153 METAR KPAE 300153Z 01003KT 10SM CLR 17/09 A2995 RMK AO2 SLP142 T01720089=
200809300053 METAR KPAE 300053Z 36004KT 10SM CLR 20/08 A2995 RMK AO2 SLP142 T02000083=
200809292353 METAR KPAE 292353Z 34005KT 10SM CLR 21/08 A2997 RMK AO2 SLP147 T02060078 10211 20144 56015=
200809292253 METAR KPAE 292253Z VRB04KT 10SM CLR 21/08 A2997 RMK AO2 SLP148 T02060083=
200809292153 METAR KPAE 292153Z 36005KT 10SM CLR 20/08 A2999 RMK AO2 SLP156 T02000083=
200809292053 METAR KPAE 292053Z 36005KT 10SM CLR 19/08 A3001 RMK AO2 SLP162 T01940083 58014=
200809291953 METAR KPAE 291953Z 34004KT 10SM CLR 20/08 A3003 RMK AO2 SLP168 T02000078=
200809291853 METAR KPAE 291853Z 02004KT 10SM CLR 17/08 A3005 RMK AO2 SLP174 T01720078=
200809291753 METAR KPAE 291753Z 35005KT 10SM CLR 14/08 A3006 RMK AO2 SLP178 60001 T01440078 10144 20094 58003=
200809291653 METAR KPAE 291653Z 36005KT 10SM CLR 13/08 A3007 RMK AO2 SLP181 T01330083=
200809291553 METAR KPAE 291553Z 36005KT 10SM CLR 12/09 A3007 RMK AO2 SLP183 T01170089=
200809291502 SPECI KPAE 291502Z 36003KT 10SM CLR 10/09 A3007 RMK AO2=
200809291502 SPECI KPAE 291502Z 36003KT 10SM CLR 10/09 A3007 RMK AO2=
200809291453 METAR KPAE 291453Z 02003KT 2 1/2SM BR FEW001 10/09 A3007 RMK AO2 SLP182 FOG BANK OVER RY16R/34L 60001 T01000089 55006=
200809291400 SPECI KPAE 291400Z 01003KT 7SM BCFG FEW001 09/09 A3006 RMK AO2 FOG BANK OVER RY16R/34L=
200809291400 SPECI KPAE 291400Z 01003KT 7SM BCFG FEW001 09/09 A3006 RMK AO2 FOG BANK OVER RY16R/34L=
200809291353 METAR KPAE 291353Z 01004KT 1/4SM FG VV001 10/09 A3006 RMK AO2 SLP181 T01000089 RVRNO=
200809291343 SPECI KPAE 291343Z AUTO 02005KT 1/4SM FG VV001 10/09 A3006 RMK AO2 TSNO RVRNO=
200809291343 SPECI KPAE 291343Z AUTO 02005KT 1/4SM FG VV001 10/09 A3006 RMK AO2 TSNO RVRNO=
200809291339 SPECI KPAE 291339Z AUTO 02006KT 1SM BR VV001 10/09 A3006 RMK AO2 TSNO RVRNO=
200809291339 SPECI KPAE 291339Z AUTO 02006KT 1SM BR VV001 10/09 A3006 RMK AO2 TSNO RVRNO=
200809291330 SPECI KPAE 291330Z AUTO 02006KT 2 1/2SM BR CLR 10/09 A3006 RMK AO2 TSNO=
200809291330 SPECI KPAE 291330Z AUTO 02006KT 2 1/2SM BR CLR 10/09 A3006 RMK AO2 TSNO=
200809291311 SPECI KPAE 291311Z AUTO 02006KT 3SM BR CLR 10/09 A3007 RMK AO2 TSNO=
200809291311 SPECI KPAE 291311Z AUTO 02006KT 3SM BR CLR 10/09 A3007 RMK AO2 TSNO=
200809291253 METAR KPAE 291253Z AUTO 02004KT 2SM BR CLR 10/09 A3007 RMK AO2 SLP182 P0001 T01000089 TSNO=
200809291246 SPECI KPAE 291246Z AUTO 02004KT 1 1/2SM BR CLR 10/09 A3007 RMK AO2 TSNO=
200809291246 SPECI KPAE 291246Z AUTO 02004KT 1 1/2SM BR CLR 10/09 A3007 RMK AO2 TSNO=
200809291237 SPECI KPAE 291237Z AUTO 01003KT 2SM BR CLR 10/09 A3008 RMK AO2 TSNO=
200809291237 SPECI KPAE 291237Z AUTO 01003KT 2SM BR CLR 10/09 A3008 RMK AO2 TSNO=
200809291153 METAR KPAE 291153Z AUTO 02003KT 4SM BR CLR 10/08 A3008 RMK AO2 SLP187 T01000083 10122 20100 58008 TSNO=
200809291053 METAR KPAE 291053Z AUTO 01003KT 6SM BR CLR 10/09 A3009 RMK AO2 SLP190 T01000089 TSNO=
200809290953 METAR KPAE 290953Z AUTO 36003KT 10SM CLR 11/08 A3010 RMK AO2 SLP193 T01060083 TSNO=
200809290853 METAR KPAE 290853Z AUTO 00000KT 9SM CLR 10/08 A3011 RMK AO2 SLP195 T01000083 58002 TSNO=
200809290753 METAR KPAE 290753Z AUTO 01003KT 10SM CLR 11/08 A3011 RMK AO2 SLP196 T01110083 401830094 TSNO=
200809290653 METAR KPAE 290653Z AUTO 01004KT 10SM CLR 11/08 A3012 RMK AO2 SLP199 T01110083 TSNO=
200809290553 METAR KPAE 290553Z AUTO 36004KT 10SM CLR 12/08 A3011 RMK AO2 SLP198 T01170078 10172 20117 50001 TSNO=
200809290453 METAR KPAE 290453Z AUTO 36003KT 10SM CLR 12/08 A3012 RMK AO2 SLP199 T01170083 TSNO=
200809290353 METAR KPAE 290353Z AUTO 36003KT 10SM CLR 12/08 A3012 RMK AO2 SLP200 T01220083 TSNO=
200809290253 METAR KPAE 290253Z 36004KT 10SM CLR 13/08 A3011 RMK AO2 SLP197 T01330083 55005=
200809290153 METAR KPAE 290153Z VRB04KT 10SM CLR 14/08 A3011 RMK AO2 SLP197 T01390083=
200809290053 METAR KPAE 290053Z 35005KT 10SM CLR 17/08 A3011 RMK AO2 SLP197 T01670083=
200809282353 METAR KPAE 282353Z 33006KT 10SM CLR 17/08 A3013 RMK AO2 SLP202 T01720078 10183 20128 56015=
200809282253 METAR KPAE 282253Z 33006KT 10SM CLR 17/08 A3014 RMK AO2 SLP206 T01720078=
200809282153 METAR KPAE 282153Z 35005KT 10SM CLR 18/08 A3015 RMK AO2 SLP211 T01780078=
200809282053 METAR KPAE 282053Z 36005KT 10SM CLR 17/08 A3017 RMK AO2 SLP218 T01670078 58011=
200809281953 METAR KPAE 281953Z 36007KT 10SM CLR 16/08 A3019 RMK AO2 SLP222 T01560078=
200809281853 METAR KPAE 281853Z VRB05KT 10SM CLR 14/08 A3020 RMK AO2 SLP226 T01440083=
200809281753 METAR KPAE 281753Z 36006KT 10SM CLR 13/08 A3021 RMK AO2 SLP230 T01280078 10128 20094 51003=
200809281653 METAR KPAE 281653Z 36005KT 10SM CLR 12/08 A3020 RMK AO2 SLP229 T01170078=
200809281553 METAR KPAE 281553Z 36004KT 9SM FEW002 11/08 A3020 RMK AO2 SLP228 T01060083=
200809281537 SPECI KPAE 281537Z VRB04KT 10SM FEW002 10/08 A3020 RMK AO2=
200809281537 SPECI KPAE 281537Z VRB04KT 10SM FEW002 10/08 A3020 RMK AO2=
200809281508 SPECI KPAE 281508Z VRB04KT 10SM BKN002 10/08 A3020 RMK AO2=
200809281508 SPECI KPAE 281508Z VRB04KT 10SM BKN002 10/08 A3020 RMK AO2=
200809281501 SPECI KPAE 281501Z 36004KT 2 1/2SM BR OVC002 09/08 A3020 RMK AO2=
200809281501 SPECI KPAE 281501Z 36004KT 2 1/2SM BR OVC002 09/08 A3020 RMK AO2=
200809281453 METAR KPAE 281453Z 35004KT 3SM BR BKN002 09/08 A3020 RMK AO2 SLP227 T00940083 53003=
200809281353 METAR KPAE 281353Z 02003KT 3SM BR OVC002 10/09 A3019 RMK AO2 SLP225 T01000089=
200809281336 SPECI KPAE 281336Z AUTO 00000KT 4SM BR BKN002 10/08 A3019 RMK AO2=
200809281336 SPECI KPAE 281336Z AUTO 00000KT 4SM BR BKN002 10/08 A3019 RMK AO2=
200809281307 SPECI KPAE 281307Z AUTO 00000KT 7SM SCT001 09/08 A3019 RMK AO2=
200809281307 SPECI KPAE 281307Z AUTO 00000KT 7SM SCT001 09/08 A3019 RMK AO2=
200809281253 METAR KPAE 281253Z AUTO 02004KT 5SM BR BKN001 10/09 A3019 RMK AO2 SLP223 T01000089=
200809281237 SPECI KPAE 281237Z AUTO 01004KT 4SM BR OVC001 10/09 A3019 RMK AO2=
200809281237 SPECI KPAE 281237Z AUTO 01004KT 4SM BR OVC001 10/09 A3019 RMK AO2=
200809281219 SPECI KPAE 281219Z AUTO 36003KT 2 1/2SM BR OVC001 11/09 A3019 RMK AO2=
200809281219 SPECI KPAE 281219Z AUTO 36003KT 2 1/2SM BR OVC001 11/09 A3019 RMK AO2=
200809281203 SPECI KPAE 281203Z AUTO 36005KT 1SM BR OVC001 11/09 A3019 RMK AO2 RVRNO=
200809281203 SPECI KPAE 281203Z AUTO 36005KT 1SM BR OVC001 11/09 A3019 RMK AO2 RVRNO=
200809281153 METAR KPAE 281153Z AUTO 36004KT 2SM BR OVC001 11/09 A3019 RMK AO2 SLP222 60001 70001 T01060094 10117 20100 56002=
200809281140 SPECI KPAE 281140Z AUTO 01004KT 1 1/2SM BR OVC001 11/09 A3019 RMK AO2=
200809281140 SPECI KPAE 281140Z AUTO 01004KT 1 1/2SM BR OVC001 11/09 A3019 RMK AO2=
200809281110 SPECI KPAE 281110Z AUTO 35004KT 1/2SM FG VV001 11/09 A3019 RMK AO2 RVRNO=
200809281110 SPECI KPAE 281110Z AUTO 35004KT 1/2SM FG VV001 11/09 A3019 RMK AO2 RVRNO=
200809281053 METAR KPAE 281053Z AUTO 01003KT 1/4SM FG VV001 11/09 A3019 RMK AO2 SLP223 T01060094 RVRNO=
200809281043 SPECI KPAE 281043Z AUTO 36004KT 1/4SM FG VV001 11/09 A3019 RMK AO2 RVRNO=
200809281043 SPECI KPAE 281043Z AUTO 36004KT 1/4SM FG VV001 11/09 A3019 RMK AO2 RVRNO=
200809281030 SPECI KPAE 281030Z AUTO 00000KT 3/4SM BR BKN001 11/09 A3019 RMK AO2 RVRNO=
200809281030 SPECI KPAE 281030Z AUTO 00000KT 3/4SM BR BKN001 11/09 A3019 RMK AO2 RVRNO=
200809281021 SPECI KPAE 281021Z AUTO 00000KT 2 1/2SM BR BKN001 11/09 A3019 RMK AO2=
200809281021 SPECI KPAE 281021Z AUTO 00000KT 2 1/2SM BR BKN001 11/09 A3019 RMK AO2=
200809281015 SPECI KPAE 281015Z AUTO 00000KT 3SM BR SCT001 11/09 A3019 RMK AO2=
200809281015 SPECI KPAE 281015Z AUTO 00000KT 3SM BR SCT001 11/09 A3019 RMK AO2=
200809280953 METAR KPAE 280953Z AUTO 00000KT 5SM BR CLR 11/09 A3019 RMK AO2 SLP223 T01060089=
200809280853 METAR KPAE 280853Z AUTO 02003KT 4SM BR CLR 11/09 A3019 RMK AO2 SLP224 60001 T01110094 58002=
200809280753 METAR KPAE 280753Z AUTO 36003KT 5SM BR CLR 11/09 A3020 RMK AO2 SLP225 P0001 T01060094 401890094=
200809280653 METAR KPAE 280653Z AUTO 01003KT 10SM CLR 11/09 A3020 RMK AO2 SLP227 T01110089=
200809280553 METAR KPAE 280553Z AUTO 35003KT 10SM CLR 12/09 A3020 RMK AO2 SLP226 T01170089 10172 20117 58001=
200809280453 METAR KPAE 280453Z AUTO 36003KT 10SM CLR 13/09 A3020 RMK AO2 SLP228 T01280094=
200809280353 METAR KPAE 280353Z AUTO 00000KT 10SM CLR 13/09 A3020 RMK AO2 SLP227 T01280094=
200809280253 METAR KPAE 280253Z 34004KT 10SM CLR 13/09 A3020 RMK AO2 SLP228 T01330094 53007=
200809280153 METAR KPAE 280153Z 34004KT 10SM CLR 14/09 A3019 RMK AO2 SLP224 T01440094=
200809280053 METAR KPAE 280053Z 34004KT 10SM CLR 17/09 A3018 RMK AO2 SLP221 T01670094=
200809272353 METAR KPAE 272353Z 28005KT 10SM CLR 17/09 A3018 RMK AO2 SLP220 T01720094 10189 20150 58012=
200809272253 METAR KPAE 272253Z VRB05KT 10SM CLR 18/09 A3020 RMK AO2 SLP226 T01830094=
200809272153 METAR KPAE 272153Z VRB03KT 10SM CLR 18/09 A3021 RMK AO2 SLP230 T01780094=
200809272053 METAR KPAE 272053Z 27003KT 10SM CLR 16/09 A3022 RMK AO2 SLP232 T01610089 50002=
200809271953 METAR KPAE 271953Z 26007KT 10SM FEW025 15/10 A3022 RMK AO2 SLP233 T01500100=
200809271853 METAR KPAE 271853Z VRB04KT 10SM SCT022 16/08 A3021 RMK AO2 SLP231 T01560083=
200809271753 METAR KPAE 271753Z 17008KT 10SM SCT016 15/09 A3021 RMK AO2 SLP230 T01500089 10156 20094 52012=
200809271653 METAR KPAE 271653Z 16008KT 10SM SCT016 14/09 A3020 RMK AO2 SLP227 T01440089=
200809271553 METAR KPAE 271553Z 16007KT 10SM BKN016 13/09 A3019 RMK AO2 SLP223 T01280094=
200809271519 SPECI KPAE 271519Z 18007KT 10SM SCT012 BKN020 12/09 A3018 RMK AO2=
200809271519 SPECI KPAE 271519Z 18007KT 10SM SCT012 BKN020 12/09 A3018 RMK AO2=
200809271453 METAR KPAE 271453Z 19004KT 10SM CLR 09/08 A3018 RMK AO2 SLP219 T00940078 51009=
200809271353 METAR KPAE 271353Z 00000KT 10SM CLR 10/08 A3016 RMK AO2 SLP214 T01000078=
200809271253 METAR KPAE 271253Z AUTO 20003KT 10SM SCT075 11/08 A3016 RMK AO2 SLP215 T01060083=
200809271219 SPECI KPAE 271219Z AUTO 18004KT 10SM SCT012 11/09 A3015 RMK AO2=
200809271219 SPECI KPAE 271219Z AUTO 18004KT 10SM SCT012 11/09 A3015 RMK AO2=
200809271202 SPECI KPAE 271202Z AUTO 20003KT 10SM BKN012 BKN034 12/09 A3015 RMK AO2=
200809271202 SPECI KPAE 271202Z AUTO 20003KT 10SM BKN012 BKN034 12/09 A3015 RMK AO2=
200809271153 METAR KPAE 271153Z AUTO 00000KT 10SM SCT014 BKN036 12/09 A3015 RMK AO2 SLP209 T01170094 10128 20111 51001=
200809271143 SPECI KPAE 271143Z AUTO 18004KT 10SM BKN014 BKN034 11/09 A3014 RMK AO2=
200809271143 SPECI KPAE 271143Z AUTO 18004KT 10SM BKN014 BKN034 11/09 A3014 RMK AO2=
200809271053 METAR KPAE 271053Z AUTO 00000KT 10SM FEW014 12/09 A3014 RMK AO2 SLP205 T01220089=
200809271017 SPECI KPAE 271017Z AUTO 00000KT 10SM FEW016 SCT025 OVC037 13/09 A3016 RMK AO2=
200809271017 SPECI KPAE 271017Z AUTO 00000KT 10SM FEW016 SCT025 OVC037 13/09 A3016 RMK AO2=
200809270953 METAR KPAE 270953Z AUTO 00000KT 10SM SCT018 BKN023 OVC038 13/09 A3016 RMK AO2 SLP212 T01280094=
200809270853 METAR KPAE 270853Z AUTO 00000KT 10SM FEW018 BKN027 OVC040 12/09 A3015 RMK AO2 SLP209 T01220094 53012=
200809270828 SPECI KPAE 270828Z AUTO 00000KT 10SM BKN027 BKN043 OVC090 12/09 A3013 RMK AO2=
200809270828 SPECI KPAE 270828Z AUTO 00000KT 10SM BKN027 BKN043 OVC090 12/09 A3013 RMK AO2=
200809270803 SPECI KPAE 270803Z AUTO 00000KT 10SM FEW019 BKN043 OVC095 13/09 A3012 RMK AO2=
200809270803 SPECI KPAE 270803Z AUTO 00000KT 10SM FEW019 BKN043 OVC095 13/09 A3012 RMK AO2=
200809270753 METAR KPAE 270753Z AUTO 03003KT 10SM FEW019 BKN029 OVC100 12/09 A3012 RMK AO2 SLP199 T01220094 401940111=
200809270743 SPECI KPAE 270743Z AUTO 00000KT 10SM SCT019 BKN029 OVC042 12/09 A3013 RMK AO2=
200809270743 SPECI KPAE 270743Z AUTO 00000KT 10SM SCT019 BKN029 OVC042 12/09 A3013 RMK AO2=
200809270720 SPECI KPAE 270720Z AUTO 00000KT 10SM FEW019 SCT027 BKN042 12/09 A3011 RMK AO2=
200809270720 SPECI KPAE 270720Z AUTO 00000KT 10SM FEW019 SCT027 BKN042 12/09 A3011 RMK AO2=
200809270653 METAR KPAE 270653Z AUTO 36003KT 10SM BKN019 OVC027 12/09 A3012 RMK AO2 SLP201 T01220094=
200809270621 SPECI KPAE 270621Z AUTO 00000KT 10SM BKN027 BKN035 OVC110 12/09 A3012 RMK AO2=
200809270621 SPECI KPAE 270621Z AUTO 00000KT 10SM BKN027 BKN035 OVC110 12/09 A3012 RMK AO2=
200809270553 METAR KPAE 270553Z AUTO 00000KT 10SM FEW035 BKN120 12/09 A3011 RMK AO2 SLP196 T01170094 10172 20117 53013=
200809270453 METAR KPAE 270453Z AUTO 00000KT 10SM CLR 13/09 A3009 RMK AO2 SLP190 T01330094=
200809270353 METAR KPAE 270353Z AUTO 00000KT 10SM CLR 12/09 A3008 RMK AO2 SLP188 T01170089=
200809270253 METAR KPAE 270253Z 00000KT 10SM CLR 13/09 A3007 RMK AO2 SLP183 T01330089 51009=
200809270153 METAR KPAE 270153Z 35004KT 10SM CLR 13/09 A3007 RMK AO2 SLP183 T01330094=
200809270053 METAR KPAE 270053Z 02004KT 10SM CLR 14/10 A3006 RMK AO2 SLP177 T01440100=
200809262353 METAR KPAE 262353Z 36005KT 10SM CLR 17/11 A3005 RMK AO2 SLP174 T01720106 10194 20144 55002=
200809262253 METAR KPAE 262253Z 28006KT 10SM CLR 17/11 A3004 RMK AO2 SLP170 T01720111=
200809262153 METAR KPAE 262153Z 15005KT 10SM CLR 18/10 A3003 RMK AO2 SLP166 T01830100=
200809262053 METAR KPAE 262053Z 00000KT 10SM CLR 16/11 A3005 RMK AO2 SLP176 T01610111 56017=
200809261953 METAR KPAE 261953Z 00000KT 10SM CLR 17/10 A3006 RMK AO2 SLP178 T01670100=
200809261853 METAR KPAE 261853Z 17003KT 10SM CLR 15/10 A3008 RMK AO2 SLP187 T01500100=
200809261753 METAR KPAE 261753Z 00000KT 10SM CLR 14/10 A3010 RMK AO2 SLP193 T01440100 10144 20111 58002=
200809261653 METAR KPAE 261653Z 12003KT 10SM CLR 13/10 A3011 RMK AO2 SLP196 T01330100=
200809261553 METAR KPAE 261553Z 10003KT 10SM CLR 13/10 A3011 RMK AO2 SLP196 T01280100=
200809261453 METAR KPAE 261453Z 00000KT 3SM BR CLR 12/11 A3011 RMK AO2 SLP196 T01170106 57009=
200809261353 METAR KPAE 261353Z AUTO 00000KT 5SM BR FEW031 11/10 A3012 RMK AO2 SLP200 T01110100=
200809261323 SPECI KPAE 261323Z AUTO 00000KT 10SM BKN031 12/11 A3012 RMK AO2=
200809261323 SPECI KPAE 261323Z AUTO 00000KT 10SM BKN031 12/11 A3012 RMK AO2=
200809261313 SPECI KPAE 261313Z AUTO 11005KT 10SM BKN029 12/11 A3011 RMK AO2=
200809261313 SPECI KPAE 261313Z AUTO 11005KT 10SM BKN029 12/11 A3011 RMK AO2=
200809261253 METAR KPAE 261253Z AUTO 12003KT 8SM OVC031 12/11 A3012 RMK AO2 SLP200 T01220106=
200809261229 SPECI KPAE 261229Z AUTO 11004KT 5SM BR SCT002 OVC031 12/11 A3013 RMK AO2=
200809261229 SPECI KPAE 261229Z AUTO 11004KT 5SM BR SCT002 OVC031 12/11 A3013 RMK AO2=
200809261202 SPECI KPAE 261202Z AUTO 00000KT 3SM BR BKN002 OVC031 12/11 A3013 RMK AO2=
200809261202 SPECI KPAE 261202Z AUTO 00000KT 3SM BR BKN002 OVC031 12/11 A3013 RMK AO2=
200809261153 METAR KPAE 261153Z AUTO 12005KT 1 3/4SM BR BKN002 OVC029 12/11 A3013 RMK AO2 SLP204 60000 70009 T01170106 10133 20117 58008=
200809261144 SPECI KPAE 261144Z AUTO 12004KT 2 1/2SM BR BKN002 OVC029 12/11 A3014 RMK AO2=
200809261144 SPECI KPAE 261144Z AUTO 12004KT 2 1/2SM BR BKN002 OVC029 12/11 A3014 RMK AO2=
200809261120 SPECI KPAE 261120Z AUTO 12005KT 5SM BR BKN002 OVC031 12/11 A3015 RMK AO2=
200809261120 SPECI KPAE 261120Z AUTO 12005KT 5SM BR BKN002 OVC031 12/11 A3015 RMK AO2=
200809261102 SPECI KPAE 261102Z AUTO 12005KT 5SM BR SCT002 SCT006 OVC031 12/11 A3015 RMK AO2=
200809261102 SPECI KPAE 261102Z AUTO 12005KT 5SM BR SCT002 SCT006 OVC031 12/11 A3015 RMK AO2=
200809261053 METAR KPAE 261053Z AUTO 12004KT 6SM BR SCT002 BKN006 OVC031 12/11 A3015 RMK AO2 SLP209 T01220111=
200809261039 SPECI KPAE 261039Z AUTO 00000KT 7SM SCT002 BKN006 OVC031 12/11 A3015 RMK AO2=
200809261039 SPECI KPAE 261039Z AUTO 00000KT 7SM SCT002 BKN006 OVC031 12/11 A3015 RMK AO2=
200809261021 SPECI KPAE 261021Z AUTO 00000KT 9SM FEW002 SCT006 OVC031 13/11 A3015 RMK AO2=
200809261021 SPECI KPAE 261021Z AUTO 00000KT 9SM FEW002 SCT006 OVC031 13/11 A3015 RMK AO2=
200809260953 METAR KPAE 260953Z AUTO 00000KT 10SM OVC033 13/11 A3015 RMK AO2 SLP211 T01280111=
200809260933 SPECI KPAE 260933Z AUTO 15007KT 9SM SCT004 OVC035 13/11 A3016 RMK AO2=
200809260933 SPECI KPAE 260933Z AUTO 15007KT 9SM SCT004 OVC035 13/11 A3016 RMK AO2=
200809260913 SPECI KPAE 260913Z AUTO 15004KT 8SM BKN004 OVC018 13/11 A3016 RMK AO2=
200809260913 SPECI KPAE 260913Z AUTO 15004KT 8SM BKN004 OVC018 13/11 A3016 RMK AO2=
200809260853 METAR KPAE 260853Z AUTO 15005KT 7SM FEW004 OVC016 13/12 A3016 RMK AO2 SLP212 60000 T01280117 50004=
200809260843 SPECI KPAE 260843Z AUTO 15004KT 7SM FEW004 OVC016 13/12 A3016 RMK AO2=
200809260843 SPECI KPAE 260843Z AUTO 15004KT 7SM FEW004 OVC016 13/12 A3016 RMK AO2=
200809260809 SPECI KPAE 260809Z AUTO 16005KT 9SM FEW005 BKN013 OVC022 13/12 A3016 RMK AO2=
200809260809 SPECI KPAE 260809Z AUTO 16005KT 9SM FEW005 BKN013 OVC022 13/12 A3016 RMK AO2=
200809260753 METAR KPAE 260753Z AUTO 16005KT 6SM BR SCT005 OVC022 13/12 A3016 RMK AO2 SLP213 T01330117 401500117=
200809260720 SPECI KPAE 260720Z AUTO 15005KT 5SM BR BKN005 BKN012 OVC024 13/12 A3016 RMK AO2 CIG 003V008=
200809260720 SPECI KPAE 260720Z AUTO 15005KT 5SM BR BKN005 BKN012 OVC024 13/12 A3016 RMK AO2 CIG 003V008=
200809260703 SPECI KPAE 260703Z AUTO 15006KT 9SM FEW005 OVC024 13/12 A3015 RMK AO2=
200809260703 SPECI KPAE 260703Z AUTO 15006KT 9SM FEW005 OVC024 13/12 A3015 RMK AO2=
200809260653 METAR KPAE 260653Z AUTO 15007KT 9SM FEW012 BKN022 OVC027 13/12 A3015 RMK AO2 RAB21E39 SLP211 P0000 T01330117=
200809260645 SPECI KPAE 260645Z AUTO 15008KT 8SM FEW005 SCT011 OVC022 13/12 A3015 RMK AO2 RAB21E39 P0000=
200809260645 SPECI KPAE 260645Z AUTO 15008KT 8SM FEW005 SCT011 OVC022 13/12 A3015 RMK AO2 RAB21E39 P0000=
200809260632 SPECI KPAE 260632Z AUTO 15006KT 4SM -RA BR SCT011 OVC022 13/12 A3016 RMK AO2 RAB21 P0000=
200809260632 SPECI KPAE 260632Z AUTO 15006KT 4SM -RA BR SCT011 OVC022 13/12 A3016 RMK AO2 RAB21 P0000=
200809260610 SPECI KPAE 260610Z AUTO 15008KT 8SM BKN011 BKN015 OVC020 13/12 A3015 RMK AO2 CIG 007V012=
200809260610 SPECI KPAE 260610Z AUTO 15008KT 8SM BKN011 BKN015 OVC020 13/12 A3015 RMK AO2 CIG 007V012=
200809260553 METAR KPAE 260553Z AUTO 15007KT 10SM OVC009 13/12 A3014 RMK AO2 RAB10E34 CIG 006V013 SLP208 P0000 60001 T01330117 10150 20128 51010=
200809260453 METAR KPAE 260453Z AUTO 16008KT 9SM OVC009 13/11 A3013 RMK AO2 RAE0358 CIG 005V012 SLP204 P0000 T01330111=
200809260353 METAR KPAE 260353Z AUTO 15005KT 3SM -RA BR OVC007 13/11 A3013 RMK AO2 SLP202 P0001 T01280111=
200809260309 SPECI KPAE 260309Z 15005KT 4SM -RA BR OVC009 13/11 A3012 RMK AO2 CIG 007V011 P0000=
200809260309 SPECI KPAE 260309Z 15005KT 4SM -RA BR OVC009 13/11 A3012 RMK AO2 CIG 007V011 P0000=
200809260253 METAR KPAE 260253Z VRB06KT 2 1/2SM -RA BR BKN007 OVC021 13/11 A3011 RMK AO2 RAB50 SLP197 P0000 60000 T01280111 53011=
200809260200 SPECI KPAE 260200Z VRB04KT 5SM HZ BKN007 OVC021 13/11 A3010 RMK AO2=
200809260200 SPECI KPAE 260200Z VRB04KT 5SM HZ BKN007 OVC021 13/11 A3010 RMK AO2=
200809260153 METAR KPAE 260153Z 15005KT 10SM BKN014 OVC021 13/11 A3010 RMK AO2 SLP191 T01330106=
200809260053 METAR KPAE 260053Z VRB06KT 10SM FEW014 OVC028 13/11 A3008 RMK AO2 SLP186 T01330106=
200809260048 SPECI KPAE 260048Z VRB05KT 10SM FEW014 OVC028 13/11 A3008 RMK AO2=
200809260048 SPECI KPAE 260048Z VRB05KT 10SM FEW014 OVC028 13/11 A3008 RMK AO2=
200809252353 METAR KPAE 252353Z 15013KT 10SM SCT044 OVC080 14/11 A3007 RMK AO2 RAE00 SLP183 P0000 60005 T01390106 10150 20122 53012=
200809252253 METAR KPAE 252253Z 16014KT 6SM -RA BR BKN042 BKN060 BKN075 13/11 A3006 RMK AO2 SLP177 P0004 T01330111=
200809252153 METAR KPAE 252153Z 16010KT 5SM -RA BKN045 BKN070 BKN095 14/10 A3005 RMK AO2 SLP176 P0001 T01390100=
200809252053 METAR KPAE 252053Z 17016G20KT 10SM -RA FEW024 OVC075 14/09 A3003 RMK AO2 PK WND 18027/2017 RAB10 SLP170 P0000 60000 T01440094 53006=
200809251953 METAR KPAE 251953Z 17018G23KT 10SM SCT021 OVC075 14/09 A3002 RMK AO2 PK WND 20026/1933 RAE16 SLP165 P0000 T01440094=
200809251951 SPECI KPAE 251951Z 17017G23KT 10SM SCT021 OVC075 15/09 A3002 RMK AO2 PK WND 20026/1933 RAE16 P0000=
200809251951 SPECI KPAE 251951Z 17017G23KT 10SM SCT021 OVC075 15/09 A3002 RMK AO2 PK WND 20026/1933 RAE16 P0000=
200809251853 METAR KPAE 251853Z 17013G20KT 10SM -RA BKN021 BKN035 13/11 A3002 RMK AO2 SLP164 P0000 T01330106=
200809251753 METAR KPAE 251753Z 16015G23KT 7SM -RA SCT026 BKN034 OVC055 12/10 A3000 RMK AO2 SLP159 P0001 60003 T01220100 10128 20117 52017=
200809251653 METAR KPAE 251653Z 17017G22KT 3SM -RA FEW027 BKN031 OVC050 13/09 A2999 RMK AO2 SLP154 P0002 T01280094=
200809251553 METAR KPAE 251553Z 17011KT 9SM -RA FEW024 OVC055 13/09 A2996 RMK AO2 RAB52 SLP146 P0000 T01280094=
200809251453 METAR KPAE 251453Z AUTO 16010KT 10SM FEW060 BKN090 12/10 A2995 RMK AO2 SLP141 T01220100 53016=
200809251353 METAR KPAE 251353Z AUTO 18014G21KT 10SM CLR 12/09 A2992 RMK AO2 SLP133 T01170089=
200809251253 METAR KPAE 251253Z AUTO 18015KT 10SM CLR 12/09 A2991 RMK AO2 SLP128 T01170094=
200809251153 METAR KPAE 251153Z AUTO 19013KT 10SM CLR 12/09 A2990 RMK AO2 SLP125 60001 70008 T01170094 10133 20117 53008=
200809251053 METAR KPAE 251053Z AUTO 19014KT 10SM CLR 12/09 A2989 RMK AO2 SLP120 T01220094=
200809250953 METAR KPAE 250953Z AUTO 18013G22KT 10SM CLR 12/10 A2988 RMK AO2 SLP117 T01220100=
200809250853 METAR KPAE 250853Z AUTO 19014KT 10SM FEW012 SCT025 SCT075 13/11 A2988 RMK AO2 SLP117 60001 T01280111 53003=
200809250753 METAR KPAE 250753Z AUTO 17012KT 10SM SCT030 OVC070 13/11 A2987 RMK AO2 RAB0654E03 SLP115 P0000 T01280111 401780100=
200809250719 SPECI KPAE 250719Z AUTO 16010KT 10SM BKN030 BKN037 BKN065 13/11 A2988 RMK AO2 RAB0654E03 P0000=
200809250719 SPECI KPAE 250719Z AUTO 16010KT 10SM BKN030 BKN037 BKN065 13/11 A2988 RMK AO2 RAB0654E03 P0000=
200809250653 METAR KPAE 250653Z AUTO 16009KT 8SM BKN026 BKN034 OVC045 13/11 A2987 RMK AO2 RAB20E45 SLP113 P0001 T01280111=
200809250553 METAR KPAE 250553Z AUTO 15005KT 10SM OVC034 13/11 A2987 RMK AO2 SLP112 60005 T01330106 10139 20117 51003=
200809250453 METAR KPAE 250453Z AUTO 15005KT 10SM BKN030 BKN040 OVC055 13/11 A2987 RMK AO2 RAB0354E15 SLP113 P0000 T01280106=
200809250353 METAR KPAE 250353Z AUTO 17007KT 8SM OVC038 13/10 A2988 RMK AO2 RAB03E39 SLP116 P0000 T01280100=
200809250253 METAR KPAE 250253Z 00000KT 10SM OVC036 13/09 A2986 RMK AO2 SLP110 60005 T01280094 51001=
200809250153 METAR KPAE 250153Z VRB04KT 8SM OVC036 12/10 A2986 RMK AO2 RAE15 SLP111 P0002 T01220100=
200809250053 METAR KPAE 250053Z 17012KT 8SM -RA BKN040 OVC049 12/09 A2987 RMK AO2 SLP116 P0003 T01220094=
200809242353 METAR KPAE 242353Z 19011KT 8SM -RA OVC046 13/09 A2985 RMK AO2 PRESFR SLP109 P0000 60002 T01330089 10178 20133 56012=
200809242253 METAR KPAE 242253Z AUTO 23008KT 8SM -RA OVC055 14/09 A2987 RMK AO2 SLP113 P0000 T01390089 TSNO=
200809242153 METAR KPAE 242153Z 20009KT 10SM -RA OVC065 16/08 A2987 RMK AO2 RAB16 SLP114 P0000 T01610078=
200809242053 METAR KPAE 242053Z 16011KT 10SM BKN075 OVC085 16/08 A2989 RMK AO2 RAE25 SLP121 P0002 60002 T01610078 51003=
200809241953 METAR KPAE 241953Z 18011KT 10SM -RA SCT070 BKN085 16/06 A2989 RMK AO2 RAB37 SLP121 P0000 T01560061=
200809241853 METAR KPAE 241853Z 19008KT 10SM BKN095 17/04 A2989 RMK AO2 SLP122 T01720039=
200809241753 METAR KPAE 241753Z 20007KT 10SM CLR 17/05 A2988 RMK AO2 SLP118 60000 T01720050 10172 20111 55001=
200809241653 METAR KPAE 241653Z 23004KT 10SM FEW110 13/08 A2987 RMK AO2 SLP116 T01330083=
200809241553 METAR KPAE 241553Z VRB04KT 10SM BKN090 14/04 A2986 RMK AO2 SLP110 T01390039=
200809241453 METAR KPAE 241453Z 15007KT 10SM SCT110 12/06 A2988 RMK AO2 SLP120 60000 T01220061 58009=
200809241353 METAR KPAE 241353Z 15006KT 10SM OVC095 12/07 A2990 RMK AO2 RAB35E45 SLP127 P0000 T01170072=
200809241253 METAR KPAE 241253Z AUTO 18007KT 10SM OVC110 12/06 A2991 RMK AO2 SLP128 T01220056=
200809241153 METAR KPAE 241153Z AUTO 16004KT 10SM BKN120 12/05 A2991 RMK AO2 SLP129 T01220050 10128 20100 55016=
200809241053 METAR KPAE 241053Z AUTO 10004KT 10SM CLR 12/04 A2991 RMK AO2 SLP127 T01220044=
200809240953 METAR KPAE 240953Z AUTO 00000KT 10SM CLR 11/08 A2993 RMK AO2 SLP137 T01060078=
200809240853 METAR KPAE 240853Z AUTO 00000KT 10SM BKN110 11/08 A2996 RMK AO2 SLP146 T01060083 58013=
200809240753 METAR KPAE 240753Z AUTO 34003KT 10SM BKN100 11/08 A2998 RMK AO2 SLP154 T01110078 401440067=
200809240653 METAR KPAE 240653Z AUTO 00000KT 10SM SCT110 12/07 A2999 RMK AO2 SLP157 T01170072=
200809240553 METAR KPAE 240553Z AUTO 02005KT 10SM BKN090 12/07 A3000 RMK AO2 SLP160 T01170072 10144 20111 58015=
200809240453 METAR KPAE 240453Z AUTO 00000KT 7SM FEW100 11/07 A3003 RMK AO2 SLP169 T01110067=
200809240353 METAR KPAE 240353Z AUTO 31003KT 10SM FEW110 12/06 A3004 RMK AO2 SLP174 T01170061=
200809240253 METAR KPAE 240253Z 00000KT 10SM OVC100 12/06 A3005 RMK AO2 SLP176 T01220061 56015=
200809240153 METAR KPAE 240153Z 00000KT 10SM FEW095 13/06 A3006 RMK AO2 SLP179 T01280061=
200809240053 METAR KPAE 240053Z 35003KT 10SM CLR 13/06 A3007 RMK AO2 SLP184 T01330061=
200809232353 METAR KPAE 232353Z 35004KT 10SM CLR 14/06 A3009 RMK AO2 SLP191 T01390056 10144 20117 58022=
200809232253 METAR KPAE 232253Z 33003KT 10SM CLR 14/05 A3011 RMK AO2 SLP198 T01390050=
200809232153 METAR KPAE 232153Z 34003KT 10SM CLR 14/05 A3014 RMK AO2 SLP207 T01390050=
200809232053 METAR KPAE 232053Z 35005KT 10SM SCT110 14/05 A3016 RMK AO2 SLP214 T01390050 58019=
200809231953 METAR KPAE 231953Z 33006KT 10SM CLR 13/04 A3018 RMK AO2 SLP220 T01330044=
200809231853 METAR KPAE 231853Z 35003KT 10SM CLR 13/06 A3020 RMK AO2 SLP229 T01280061=
200809231753 METAR KPAE 231753Z 00000KT 10SM CLR 12/06 A3022 RMK AO2 SLP233 T01170061 10122 20067 56013=
200809231653 METAR KPAE 231653Z 00000KT 10SM CLR 10/05 A3023 RMK AO2 SLP237 T01000050=
200809231553 METAR KPAE 231553Z 11005KT 10SM CLR 08/04 A3024 RMK AO2 SLP241 T00780044=
200809231453 METAR KPAE 231453Z 12005KT 10SM CLR 07/04 A3026 RMK AO2 SLP247 T00720044 56000=
200809231353 METAR KPAE 231353Z 10005KT 10SM CLR 07/04 A3026 RMK AO2 SLP247 T00720044=
200809231253 METAR KPAE 231253Z AUTO 00000KT 10SM CLR 07/04 A3025 RMK AO2 SLP245 T00720044 TSNO=
200809231153 METAR KPAE 231153Z AUTO 11005KT 10SM CLR 07/05 A3026 RMK AO2 SLP247 T00720050 10100 20072 58009 TSNO=
200809231053 METAR KPAE 231053Z AUTO 00000KT 10SM CLR 08/06 A3027 RMK AO2 SLP252 T00780056 TSNO=
200809230953 METAR KPAE 230953Z AUTO 11005KT 10SM FEW047 08/05 A3028 RMK AO2 SLP255 T00780050 TSNO=
200809230853 METAR KPAE 230853Z AUTO 08003KT 10SM BKN043 09/04 A3029 RMK AO2 SLP257 T00940044 53005 TSNO=
200809230753 METAR KPAE 230753Z AUTO 05003KT 10SM BKN048 10/04 A3028 RMK AO2 SLP255 T01000044 401500094 TSNO=
200809230653 METAR KPAE 230653Z AUTO 03004KT 10SM SCT047 10/05 A3027 RMK AO2 SLP252 T01000050 TSNO=
200809230553 METAR KPAE 230553Z AUTO 02004KT 10SM FEW043 10/05 A3027 RMK AO2 SLP251 T01000050 10144 20094 53011 TSNO=
200809230453 METAR KPAE 230453Z 01006KT 10SM FEW042 10/06 A3026 RMK AO2 SLP248 T01000056=
200809230353 METAR KPAE 230353Z 01006KT 10SM CLR 11/05 A3024 RMK AO2 SLP243 T01060050=
200809230253 METAR KPAE 230253Z 01005KT 10SM FEW060 11/05 A3024 RMK AO2 SLP240 T01110050 53009=
200809230153 METAR KPAE 230153Z VRB05KT 10SM CLR 12/06 A3022 RMK AO2 SLP236 T01170056=
200809230053 METAR KPAE 230053Z 35003KT 10SM BKN055 BKN070 OVC085 14/05 A3022 RMK AO2 SLP233 T01390050=
200809222353 METAR KPAE 222353Z 02005KT 10SM SCT065 14/04 A3021 RMK AO2 SLP231 T01390044 10150 20117 52001=
200809222253 METAR KPAE 222253Z 02005KT 10SM BKN070 14/05 A3021 RMK AO2 SLP231 T01440050=
200809222153 METAR KPAE 222153Z 36005KT 10SM CLR 14/05 A3021 RMK AO2 SLP228 T01440050=
200809222053 METAR KPAE 222053Z 03006KT 10SM SCT060 14/05 A3021 RMK AO2 SLP229 T01390050 51012=
200809221953 METAR KPAE 221953Z 03006KT 10SM SCT025 BKN031 BKN065 13/06 A3020 RMK AO2 SLP228 T01330056=
200809221918 SPECI KPAE 221918Z 04005KT 10SM SCT027 OVC065 13/06 A3019 RMK AO2=
200809221918 SPECI KPAE 221918Z 04005KT 10SM SCT027 OVC065 13/06 A3019 RMK AO2=
200809221853 METAR KPAE 221853Z 02003KT 10SM FEW018 SCT023 OVC030 13/08 A3019 RMK AO2 SLP223 T01280078=
200809221800 SPECI KPAE 221800Z 00000KT 10SM BKN018 BKN025 BKN065 12/08 A3017 RMK AO2=
200809221800 SPECI KPAE 221800Z 00000KT 10SM BKN018 BKN025 BKN065 12/08 A3017 RMK AO2=
200809221753 METAR KPAE 221753Z 20004KT 10SM FEW017 SCT027 BKN047 12/07 A3017 RMK AO2 SLP218 60000 T01220072 10128 20094 53015=
200809221727 SPECI KPAE 221727Z 20005KT 10SM SCT015 SCT028 BKN047 12/08 A3017 RMK AO2=
200809221727 SPECI KPAE 221727Z 20005KT 10SM SCT015 SCT028 BKN047 12/08 A3017 RMK AO2=
200809221653 METAR KPAE 221653Z 23003KT 10SM SCT016 BKN021 11/08 A3016 RMK AO2 SLP212 T01110078=
200809221637 SPECI KPAE 221637Z 00000KT 10SM BKN011 11/08 A3015 RMK AO2=
200809221637 SPECI KPAE 221637Z 00000KT 10SM BKN011 11/08 A3015 RMK AO2=
200809221553 METAR KPAE 221553Z 19007KT 10SM SCT060 11/08 A3014 RMK AO2 SLP206 T01060078=
200809221453 METAR KPAE 221453Z 18004KT 9SM SCT035 SCT055 09/08 A3013 RMK AO2 SLP203 60000 T00940078 53014=
200809221353 METAR KPAE 221353Z 17005KT 10SM BKN030 OVC035 09/07 A3011 RMK AO2 SLP196 T00940072=
200809221253 METAR KPAE 221253Z AUTO 16004KT 10SM BKN032 BKN045 OVC090 09/08 A3010 RMK AO2 RAE1154B37E47 SLP191 P0000 T00940078=
200809221153 METAR KPAE 221153Z AUTO VRB04KT 10SM -RA OVC055 09/08 A3009 RMK AO2 SLP188 P0007 60017 70023 T00940078 10106 20094 50003=
200809221053 METAR KPAE 221053Z AUTO 09005KT 4SM -RA BKN041 OVC049 10/07 A3009 RMK AO2 RAB12 SLP188 P0003 T01000072=
200809220953 METAR KPAE 220953Z AUTO 07005KT 10SM OVC039 11/07 A3008 RMK AO2 RAB08E14 SLP185 P0000 T01060072=
200809220853 METAR KPAE 220853Z AUTO 05003KT 10SM OVC035 11/08 A3008 RMK AO2 RAE0757 SLP185 P0000 60007 T01060078 53007=
200809220753 METAR KPAE 220753Z AUTO 01006KT 10SM -RA OVC031 11/07 A3006 RMK AO2 RAE25B44 SLP181 P0002 T01060072 401670100=
200809220653 METAR KPAE 220653Z AUTO 02005KT 6SM -RA OVC023 11/08 A3006 RMK AO2 SLP180 P0005 T01060078=
200809220630 SPECI KPAE 220630Z AUTO 01005KT 6SM -RA BR BKN019 OVC023 11/08 A3006 RMK AO2 P0004=
200809220630 SPECI KPAE 220630Z AUTO 01005KT 6SM -RA BR BKN019 OVC023 11/08 A3006 RMK AO2 P0004=
200809220623 SPECI KPAE 220623Z AUTO 01006KT 2 1/2SM -RA BR BKN015 OVC023 11/08 A3006 RMK AO2 P0004=
200809220623 SPECI KPAE 220623Z AUTO 01006KT 2 1/2SM -RA BR BKN015 OVC023 11/08 A3006 RMK AO2 P0004=
200809220615 SPECI KPAE 220615Z AUTO 02008KT 3SM RA BR BKN015 BKN022 OVC040 11/08 A3006 RMK AO2 P0003=
200809220615 SPECI KPAE 220615Z AUTO 02008KT 3SM RA BR BKN015 BKN022 OVC040 11/08 A3006 RMK AO2 P0003=
200809220558 SPECI KPAE 220558Z AUTO 02004KT 4SM -RA BR FEW007 BKN013 OVC055 11/09 A3006 RMK AO2 P0000=
200809220558 SPECI KPAE 220558Z AUTO 02004KT 4SM -RA BR FEW007 BKN013 OVC055 11/09 A3006 RMK AO2 P0000=
200809220553 METAR KPAE 220553Z AUTO 02005KT 2 1/2SM -RA BR FEW007 BKN023 OVC055 11/09 A3006 RMK AO2 SLP178 P0003 60003 T01060089 10167 20106 50002=
200809220545 SPECI KPAE 220545Z AUTO 02007KT 2 1/2SM RA BR SCT005 BKN025 OVC055 11/09 A3005 RMK AO2 P0003=
200809220545 SPECI KPAE 220545Z AUTO 02007KT 2 1/2SM RA BR SCT005 BKN025 OVC055 11/09 A3005 RMK AO2 P0003=
200809220453 METAR KPAE 220453Z AUTO 02007KT 8SM -RA BKN005 OVC055 11/09 A3006 RMK AO2 RAE04B43 CIG 003V008 SLP178 P0000 T01110094=
200809220353 METAR KPAE 220353Z AUTO 02007KT 9SM -RA FEW005 BKN037 OVC065 12/10 A3005 RMK AO2 RAB49 SLP176 P0000 T01220100=
200809220341 SPECI KPAE 220341Z 02008KT 10SM SCT024 BKN037 OVC070 13/11 A3005 RMK AO2=
200809220341 SPECI KPAE 220341Z 02008KT 10SM SCT024 BKN037 OVC070 13/11 A3005 RMK AO2=
200809220305 SPECI KPAE 220305Z 00000KT 10SM BKN026 OVC047 14/10 A3005 RMK AO2=
200809220305 SPECI KPAE 220305Z 00000KT 10SM BKN026 OVC047 14/10 A3005 RMK AO2=
200809220253 METAR KPAE 220253Z 00000KT 10SM SCT024 OVC049 14/10 A3005 RMK AO2 SLP175 T01440100 51003=
200809220153 METAR KPAE 220153Z 11004KT 10SM CLR 15/10 A3005 RMK AO2 SLP174 T01500100=
200809220053 METAR KPAE 220053Z AUTO 00000KT 10SM BKN046 16/09 A3004 RMK AO2 SLP173 T01610094=
200809212353 METAR KPAE 212353Z AUTO 00000KT 10SM CLR 17/09 A3004 RMK AO2 SLP172 60001 T01670094 10167 20128 55001=
200809212253 METAR KPAE 212253Z 22003KT 10SM CLR 16/10 A3004 RMK AO2 SLP171 T01610100=
200809212156 SPECI KPAE 212156Z VRB03KT 10SM FEW016 SCT095 15/10 A3004 RMK AO2=
200809212156 SPECI KPAE 212156Z VRB03KT 10SM FEW016 SCT095 15/10 A3004 RMK AO2=
200809212153 METAR KPAE 212153Z VRB03KT 10SM BKN016 BKN021 OVC090 14/10 A3004 RMK AO2 SLP173 T01440100=
200809212053 METAR KPAE 212053Z VRB05KT 10SM BKN016 BKN028 OVC095 16/11 A3004 RMK AO2 SLP172 60001 T01560111 51005=
200809212022 SPECI KPAE 212022Z 26006KT 10SM BKN016 BKN028 OVC095 14/11 A3004 RMK AO2=
200809212022 SPECI KPAE 212022Z 26006KT 10SM BKN016 BKN028 OVC095 14/11 A3004 RMK AO2=
200809212007 SPECI KPAE 212007Z 23004KT 10SM FEW018 SCT024 BKN070 14/11 A3004 RMK AO2=
200809212007 SPECI KPAE 212007Z 23004KT 10SM FEW018 SCT024 BKN070 14/11 A3004 RMK AO2=
200809211953 METAR KPAE 211953Z 23006KT 10SM SCT006 BKN020 OVC065 13/11 A3004 RMK AO2 RAE34 SLP172 P0000 T01330106=
200809211934 SPECI KPAE 211934Z 23005KT 10SM SCT006 BKN020 OVC065 13/11 A3003 RMK AO2 RAE34 P0000=
200809211934 SPECI KPAE 211934Z 23005KT 10SM SCT006 BKN020 OVC065 13/11 A3003 RMK AO2 RAE34 P0000=
200809211911 SPECI KPAE 211911Z 24007KT 6SM -RA BR BKN004 OVC015 13/11 A3003 RMK AO2 P0000=
200809211911 SPECI KPAE 211911Z 24007KT 6SM -RA BR BKN004 OVC015 13/11 A3003 RMK AO2 P0000=
200809211858 SPECI KPAE 211858Z 25004KT 4SM -RA BR FEW004 BKN017 OVC023 13/11 A3003 RMK AO2 P0000=
200809211858 SPECI KPAE 211858Z 25004KT 4SM -RA BR FEW004 BKN017 OVC023 13/11 A3003 RMK AO2 P0000=
200809211853 METAR KPAE 211853Z 26005KT 4SM -RA BR BKN007 BKN020 OVC028 13/11 A3003 RMK AO2 SLP171 P0001 T01280111=
200809211800 SPECI KPAE 211800Z 24003KT 5SM -RA BR BKN007 BKN020 OVC028 13/11 A3003 RMK AO2 P0000=
200809211800 SPECI KPAE 211800Z 24003KT 5SM -RA BR BKN007 BKN020 OVC028 13/11 A3003 RMK AO2 P0000=
200809211753 METAR KPAE 211753Z 24003KT 7SM -RA BKN003 BKN023 OVC028 13/11 A3003 RMK AO2 RAB10 SLP168 P0000 60002 T01280111 10128 20117 51006=
200809211726 SPECI KPAE 211726Z 22008KT 4SM -RA BR OVC003 12/11 A3002 RMK AO2 RAB10 CIG 001V009 P0000=
200809211726 SPECI KPAE 211726Z 22008KT 4SM -RA BR OVC003 12/11 A3002 RMK AO2 RAB10 CIG 001V009 P0000=
200809211710 SPECI KPAE 211710Z 24007KT 2 1/2SM -RA BR BKN003 OVC008 12/11 A3002 RMK AO2 RAB10 CIG 001V005 P0000=
200809211710 SPECI KPAE 211710Z 24007KT 2 1/2SM -RA BR BKN003 OVC008 12/11 A3002 RMK AO2 RAB10 CIG 001V005 P0000=
200809211653 METAR KPAE 211653Z 23007KT 6SM BR BKN005 OVC029 12/11 A3002 RMK AO2 RAE14 SLP166 P0001 T01220111=
200809211618 SPECI KPAE 211618Z 19006KT 3SM BR BKN005 OVC029 12/11 A3001 RMK AO2 RAE14 CIG 002V008 P0001=
200809211618 SPECI KPAE 211618Z 19006KT 3SM BR BKN005 OVC029 12/11 A3001 RMK AO2 RAE14 CIG 002V008 P0001=
200809211610 SPECI KPAE 211610Z 23006KT 2 1/2SM -RA BR OVC005 12/11 A3001 RMK AO2 CIG 002V008 P0001=
200809211610 SPECI KPAE 211610Z 23006KT 2 1/2SM -RA BR OVC005 12/11 A3001 RMK AO2 CIG 002V008 P0001=
200809211553 METAR KPAE 211553Z 25006KT 1 1/2SM -RA BR BKN003 OVC033 12/11 A3001 RMK AO2 SLP164 P0001 T01220106=
200809211523 SPECI KPAE 211523Z 22003KT 2SM -RA BR BKN003 OVC033 12/11 A3001 RMK AO2 P0000=
200809211523 SPECI KPAE 211523Z 22003KT 2SM -RA BR BKN003 OVC033 12/11 A3001 RMK AO2 P0000=
200809211518 SPECI KPAE 211518Z 21005KT 1 3/4SM -RA BR SCT003 OVC033 12/11 A3001 RMK AO2 P0000=
200809211518 SPECI KPAE 211518Z 21005KT 1 3/4SM -RA BR SCT003 OVC033 12/11 A3001 RMK AO2 P0000=
200809211508 SPECI KPAE 211508Z 21005KT 3SM BR FEW003 OVC033 12/11 A3001 RMK AO2 RAE1459 P0000=
200809211508 SPECI KPAE 211508Z 21005KT 3SM BR FEW003 OVC033 12/11 A3001 RMK AO2 RAE1459 P0000=
200809211456 SPECI KPAE 211456Z 20005KT 3SM -RA BR OVC033 12/11 A3001 RMK AO2 P0000=
200809211456 SPECI KPAE 211456Z 20005KT 3SM -RA BR OVC033 12/11 A3001 RMK AO2 P0000=
200809211453 METAR KPAE 211453Z 21005KT 2 1/2SM -RA BR BKN005 OVC037 12/11 A3001 RMK AO2 RAB25 SLP162 P0000 60000 T01220106 56001=
200809211424 SPECI KPAE 211424Z 20007KT 3SM BR BKN005 OVC037 12/11 A3001 RMK AO2=
200809211424 SPECI KPAE 211424Z 20007KT 3SM BR BKN005 OVC037 12/11 A3001 RMK AO2=
200809211417 SPECI KPAE 211417Z 19006KT 4SM BR SCT005 OVC037 12/11 A3000 RMK AO2=
200809211417 SPECI KPAE 211417Z 19006KT 4SM BR SCT005 OVC037 12/11 A3000 RMK AO2=
200809211353 METAR KPAE 211353Z AUTO 20006KT 4SM BR OVC007 12/11 A3001 RMK AO2 CIG 003V008 SLP162 T01170106=
200809211338 SPECI KPAE 211338Z AUTO 19005KT 4SM BR BKN007 BKN044 OVC080 12/11 A3001 RMK AO2 CIG 003V008=
200809211338 SPECI KPAE 211338Z AUTO 19005KT 4SM BR BKN007 BKN044 OVC080 12/11 A3001 RMK AO2 CIG 003V008=
200809211253 METAR KPAE 211253Z AUTO 18005KT 4SM BR FEW003 OVC034 12/11 A3001 RMK AO2 SLP163 T01170106=
200809211222 SPECI KPAE 211222Z AUTO 18005KT 3SM BR FEW003 BKN036 OVC045 12/11 A3001 RMK AO2=
200809211222 SPECI KPAE 211222Z AUTO 18005KT 3SM BR FEW003 BKN036 OVC045 12/11 A3001 RMK AO2=
200809211153 METAR KPAE 211153Z AUTO 18006KT 3SM BR BKN041 OVC060 12/11 A3001 RMK AO2 RAB06E41 SLP163 P0000 60000 70036 T01170106 10117 20111 56005=
200809211053 METAR KPAE 211053Z AUTO 17003KT 3SM BR FEW010 SCT022 OVC065 12/11 A3001 RMK AO2 RAB23E32 SLP164 P0000 T01170106=
200809211042 SPECI KPAE 211042Z AUTO 19004KT 3SM BR FEW008 BKN049 OVC065 12/11 A3002 RMK AO2 RAB23E32 P0000=
200809211042 SPECI KPAE 211042Z AUTO 19004KT 3SM BR FEW008 BKN049 OVC065 12/11 A3002 RMK AO2 RAB23E32 P0000=
200809211022 SPECI KPAE 211022Z AUTO 00000KT 3SM BR FEW023 OVC055 12/10 A3001 RMK AO2=
200809211022 SPECI KPAE 211022Z AUTO 00000KT 3SM BR FEW023 OVC055 12/10 A3001 RMK AO2=
200809211012 SPECI KPAE 211012Z AUTO 20003KT 4SM BR FEW023 BKN028 OVC050 12/10 A3002 RMK AO2=
200809211012 SPECI KPAE 211012Z AUTO 20003KT 4SM BR FEW023 BKN028 OVC050 12/10 A3002 RMK AO2=
200809211004 SPECI KPAE 211004Z AUTO 00000KT 4SM BR SCT025 BKN037 OVC050 12/10 A3002 RMK AO2=
200809211004 SPECI KPAE 211004Z AUTO 00000KT 4SM BR SCT025 BKN037 OVC050 12/10 A3002 RMK AO2=
200809210953 METAR KPAE 210953Z AUTO 16004KT 5SM BR BKN027 BKN035 OVC065 12/10 A3002 RMK AO2 SLP166 T01170100=
200809210933 SPECI KPAE 210933Z AUTO 00000KT 4SM BR FEW003 BKN026 OVC031 12/10 A3003 RMK AO2=
200809210933 SPECI KPAE 210933Z AUTO 00000KT 4SM BR FEW003 BKN026 OVC031 12/10 A3003 RMK AO2=
200809210853 METAR KPAE 210853Z AUTO 00000KT 5SM BR BKN035 OVC075 12/10 A3002 RMK AO2 SLP168 T01170100 58001=
200809210753 METAR KPAE 210753Z AUTO 19003KT 4SM BR SCT029 SCT044 OVC060 11/10 A3002 RMK AO2 SLP168 T01110100 401330111=
200809210743 SPECI KPAE 210743Z AUTO 22003KT 4SM BR SCT029 OVC060 12/10 A3003 RMK AO2=
200809210743 SPECI KPAE 210743Z AUTO 22003KT 4SM BR SCT029 OVC060 12/10 A3003 RMK AO2=
200809210653 METAR KPAE 210653Z AUTO 17003KT 8SM BKN026 BKN033 OVC060 12/09 A3003 RMK AO2 SLP170 T01170094=
200809210638 SPECI KPAE 210638Z AUTO 00000KT 7SM BKN026 BKN033 OVC055 12/09 A3003 RMK AO2=
200809210638 SPECI KPAE 210638Z AUTO 00000KT 7SM BKN026 BKN033 OVC055 12/09 A3003 RMK AO2=
200809210622 SPECI KPAE 210622Z AUTO 16003KT 6SM BR SCT026 OVC055 12/09 A3003 RMK AO2=
200809210622 SPECI KPAE 210622Z AUTO 16003KT 6SM BR SCT026 OVC055 12/09 A3003 RMK AO2=
200809210613 SPECI KPAE 210613Z AUTO 00000KT 6SM BR BKN026 OVC055 12/09 A3003 RMK AO2=
200809210613 SPECI KPAE 210613Z AUTO 00000KT 6SM BR BKN026 OVC055 12/09 A3003 RMK AO2=
200809210553 METAR KPAE 210553Z AUTO 00000KT 6SM BR SCT029 OVC055 11/09 A3003 RMK AO2 SLP169 60014 T01110094 10117 20111 58006=
200809210526 SPECI KPAE 210526Z AUTO 00000KT 5SM BR BKN029 OVC055 11/10 A3003 RMK AO2=
200809210526 SPECI KPAE 210526Z AUTO 00000KT 5SM BR BKN029 OVC055 11/10 A3003 RMK AO2=
200809210453 METAR KPAE 210453Z AUTO 00000KT 5SM BR FEW031 OVC055 11/10 A3003 RMK AO2 SLP171 P0001 T01110100=
200809210406 SPECI KPAE 210406Z AUTO 00000KT 5SM BR SCT028 OVC055 11/10 A3004 RMK AO2=
200809210406 SPECI KPAE 210406Z AUTO 00000KT 5SM BR SCT028 OVC055 11/10 A3004 RMK AO2=
200809210353 METAR KPAE 210353Z AUTO 00000KT 5SM BR BKN028 OVC055 11/09 A3004 RMK AO2 SLP174 T01110094=
200809210253 METAR KPAE 210253Z 00000KT 5SM BR FEW003 OVC050 11/10 A3005 RMK AO2 RAE17 SLP175 P0000 60013 T01110100 57002=
200809210220 SPECI KPAE 210220Z 00000KT 4SM BR FEW003 OVC048 12/10 A3004 RMK AO2 RAE17 P0000=
200809210220 SPECI KPAE 210220Z 00000KT 4SM BR FEW003 OVC048 12/10 A3004 RMK AO2 RAE17 P0000=
200809210153 METAR KPAE 210153Z 00000KT 3SM -RA BR BKN046 OVC060 12/10 A3005 RMK AO2 SLP175 P0005 T01170100=
200809210109 SPECI KPAE 210109Z 16004KT 3SM -RA BR FEW003 BKN038 OVC070 12/10 A3005 RMK AO2 P0001=
200809210109 SPECI KPAE 210109Z 16004KT 3SM -RA BR FEW003 BKN038 OVC070 12/10 A3005 RMK AO2 P0001=
200809210053 METAR KPAE 210053Z 15004KT 3SM -RA BR BKN038 OVC070 12/10 A3005 RMK AO2 SLP177 P0008 T01170100=
200809202353 METAR KPAE 202353Z 19005KT 3SM -RA BR BKN040 BKN055 OVC075 12/09 A3005 RMK AO2 SLP177 P0004 60011 T01170094 10122 20117 53001=
200809202253 METAR KPAE 202253Z 00000KT 6SM -RA OVC038 12/09 A3005 RMK AO2 SLP177 P0002 T01170089=
200809202153 METAR KPAE 202153Z 00000KT 5SM -RA OVC032 12/09 A3005 RMK AO2 SLP175 P0002 T01170089=
200809202053 METAR KPAE 202053Z 26003KT 8SM -RA OVC030 12/09 A3005 RMK AO2 SLP174 P0002 60003 T01220094 51004=
200809201953 METAR KPAE 201953Z 22004KT 4SM -RA BR FEW001 BKN008 OVC030 12/10 A3004 RMK AO2 SLP174 P0001 T01220100=
200809201853 METAR KPAE 201853Z 00000KT 6SM -RA FEW001 BKN008 OVC032 12/09 A3004 RMK AO2 RAB01 SLP173 P0000 T01220094=
200809201816 SPECI KPAE 201816Z 00000KT 5SM -RA BR FEW001 BKN008 OVC032 12/09 A3004 RMK AO2 RAB01 P0000=
200809201816 SPECI KPAE 201816Z 00000KT 5SM -RA BR FEW001 BKN008 OVC032 12/09 A3004 RMK AO2 RAB01 P0000=
200809201753 METAR KPAE 201753Z 00000KT 5SM BR SCT001 OVC032 12/10 A3003 RMK AO2 RAE1654 SLP170 60011 T01220100 10128 20117 53004=
200809201653 METAR KPAE 201653Z 00000KT 5SM -RA BR OVC032 12/10 A3003 RMK AO2 SLP168 P0000 T01170100=
200809201553 METAR KPAE 201553Z 00000KT 10SM -RA OVC030 12/09 A3002 RMK AO2 SLP166 P0001 T01220094=
200809201522 SPECI KPAE 201522Z 00000KT 5SM -RA BR OVC030 12/10 A3002 RMK AO2 P0001=
200809201522 SPECI KPAE 201522Z 00000KT 5SM -RA BR OVC030 12/10 A3002 RMK AO2 P0001=
200809201453 METAR KPAE 201453Z 11003KT 5SM -RA BR OVC028 12/09 A3002 RMK AO2 SLP166 P0006 60010 T01170094 55002=
200809201414 SPECI KPAE 201414Z 00000KT 5SM -RA SCT032 OVC041 12/09 A3002 RMK AO2 P0004=
200809201414 SPECI KPAE 201414Z 00000KT 5SM -RA SCT032 OVC041 12/09 A3002 RMK AO2 P0004=
200809201402 SPECI KPAE 201402Z 00000KT 2 1/2SM RA BR BKN043 OVC100 12/09 A3002 RMK AO2 P0003=
200809201402 SPECI KPAE 201402Z 00000KT 2 1/2SM RA BR BKN043 OVC100 12/09 A3002 RMK AO2 P0003=
200809201353 METAR KPAE 201353Z 00000KT 3SM RA BR BKN055 OVC100 12/09 A3001 RMK AO2 SLP162 P0003 T01170094=
200809201253 METAR KPAE 201253Z AUTO 00000KT 4SM -RA BR BKN035 OVC095 12/11 A3001 RMK AO2 RAB1157 SLP163 P0001 T01220106=
200809201153 METAR KPAE 201153Z AUTO 00000KT 6SM BR OVC033 13/11 A3003 RMK AO2 SLP168 70001 T01280106 10133 20122 56001=
200809201053 METAR KPAE 201053Z AUTO 00000KT 6SM BR OVC035 13/11 A3003 RMK AO2 SLP168 T01280106=
200809201002 SPECI KPAE 201002Z AUTO 00000KT 9SM OVC031 13/10 A3002 RMK AO2=
200809201002 SPECI KPAE 201002Z AUTO 00000KT 9SM OVC031 13/10 A3002 RMK AO2=
200809200953 METAR KPAE 200953Z AUTO 00000KT 9SM OVC029 13/10 A3002 RMK AO2 SLP167 T01280100=
200809200928 SPECI KPAE 200928Z AUTO 00000KT 9SM OVC031 13/09 A3003 RMK AO2=
200809200928 SPECI KPAE 200928Z AUTO 00000KT 9SM OVC031 13/09 A3003 RMK AO2=
200809200853 METAR KPAE 200853Z AUTO 00000KT 8SM OVC029 13/10 A3003 RMK AO2 SLP169 T01330100 53002=
200809200753 METAR KPAE 200753Z AUTO 05003KT 8SM OVC027 13/10 A3003 RMK AO2 SLP168 T01330100 401390117=
200809200653 METAR KPAE 200653Z AUTO 00000KT 10SM OVC027 13/10 A3002 RMK AO2 SLP167 T01280100=
200809200553 METAR KPAE 200553Z AUTO 00000KT 10SM OVC027 13/10 A3003 RMK AO2 SLP168 T01280100 10139 20128 56004=
200809200453 METAR KPAE 200453Z AUTO 00000KT 10SM OVC021 14/09 A3003 RMK AO2 SLP169 T01390094=
200809200353 METAR KPAE 200353Z AUTO 00000KT 10SM BKN019 OVC024 14/09 A3003 RMK AO2 SLP169 T01390094=
200809200253 METAR KPAE 200253Z 00000KT 10SM OVC019 13/10 A3004 RMK AO2 SLP172 T01330100 53009=
200809200153 METAR KPAE 200153Z 00000KT 10SM OVC019 14/09 A3003 RMK AO2 SLP170 T01390094=
200809200053 METAR KPAE 200053Z 00000KT 10SM OVC017 14/10 A3001 RMK AO2 SLP161 T01390100=
200809192353 METAR KPAE 192353Z 01003KT 10SM OVC017 14/10 A3001 RMK AO2 SLP162 T01390100 10139 20117 55002=
200809192253 METAR KPAE 192253Z 00000KT 8SM OVC015 14/11 A3001 RMK AO2 SLP161 T01390106=
200809192245 SPECI KPAE 192245Z 00000KT 9SM OVC015 14/11 A3001 RMK AO2=
200809192245 SPECI KPAE 192245Z 00000KT 9SM OVC015 14/11 A3001 RMK AO2=
200809192222 SPECI KPAE 192222Z 00000KT 8SM OVC013 14/11 A3001 RMK AO2=
200809192222 SPECI KPAE 192222Z 00000KT 8SM OVC013 14/11 A3001 RMK AO2=
200809192153 METAR KPAE 192153Z 00000KT 8SM BKN008 OVC016 13/11 A3001 RMK AO2 SLP163 T01330106=
200809192053 METAR KPAE 192053Z 28004KT 6SM BR OVC006 13/11 A3002 RMK AO2 SLP165 T01280106 58002=
200809191953 METAR KPAE 191953Z 01004KT 3SM BR OVC008 13/11 A3002 RMK AO2 SLP166 T01280111=
200809191940 SPECI KPAE 191940Z 36004KT 3SM BR OVC008 13/11 A3002 RMK AO2 CIG 003V010=
200809191940 SPECI KPAE 191940Z 36004KT 3SM BR OVC008 13/11 A3002 RMK AO2 CIG 003V010=
200809191918 SPECI KPAE 191918Z 36003KT 2SM BR OVC003 12/11 A3003 RMK AO2 CIG 002V008=
200809191918 SPECI KPAE 191918Z 36003KT 2SM BR OVC003 12/11 A3003 RMK AO2 CIG 002V008=
200809191853 METAR KPAE 191853Z 34004KT 1 3/4SM BR OVC003 12/11 A3003 RMK AO2 SLP168 T01220111=
200809191823 SPECI KPAE 191823Z 01004KT 1 1/2SM BR OVC003 12/11 A3003 RMK AO2 CIG 001V005=
200809191823 SPECI KPAE 191823Z 01004KT 1 1/2SM BR OVC003 12/11 A3003 RMK AO2 CIG 001V005=
200809191802 SPECI KPAE 191802Z VRB04KT 1 1/4SM BR OVC001 12/11 A3003 RMK AO2=
200809191802 SPECI KPAE 191802Z VRB04KT 1 1/4SM BR OVC001 12/11 A3003 RMK AO2=
200809191753 METAR KPAE 191753Z VRB04KT 1/2SM FG OVC001 12/11 A3003 RMK AO2 SLP167 60001 T01170111 10122 20117 52001 RVRNO=
200809191748 SPECI KPAE 191748Z 34004KT 1/2SM FG VV001 12/11 A3002 RMK AO2 RVRNO=
200809191748 SPECI KPAE 191748Z 34004KT 1/2SM FG VV001 12/11 A3002 RMK AO2 RVRNO=
200809191653 METAR KPAE 191653Z 00000KT 1/2SM FG OVC002 12/11 A3002 RMK AO2 RAB00E43 SLP166 P0001 T01220111 RVRNO=
200809191644 SPECI KPAE 191644Z 36004KT 1/4SM FG OVC002 12/11 A3002 RMK AO2 RAB00E43 P0001 RVRNO=
200809191644 SPECI KPAE 191644Z 36004KT 1/4SM FG OVC002 12/11 A3002 RMK AO2 RAB00E43 P0001 RVRNO=
200809191636 SPECI KPAE 191636Z 00000KT 1/2SM -RA FG OVC002 12/11 A3002 RMK AO2 RAB00 P0001 RVRNO=
200809191636 SPECI KPAE 191636Z 00000KT 1/2SM -RA FG OVC002 12/11 A3002 RMK AO2 RAB00 P0001 RVRNO=
200809191553 METAR KPAE 191553Z 00000KT 1 1/2SM BR BKN004 OVC009 12/11 A3002 RMK AO2 CIG 002V005 SLP166 T01220106=
200809191453 METAR KPAE 191453Z 00000KT 2SM BR BKN004 OVC011 12/11 A3003 RMK AO2 CIG 002V008 SLP167 T01220111 51008=
200809191420 SPECI KPAE 191420Z 00000KT 1 3/4SM BR OVC004 12/11 A3003 RMK AO2 CIG 002V006=
200809191420 SPECI KPAE 191420Z 00000KT 1 3/4SM BR OVC004 12/11 A3003 RMK AO2 CIG 002V006=
200809191403 SPECI KPAE 191403Z 00000KT 3SM BR BKN004 OVC007 12/11 A3002 RMK AO2 CIG 002V006=
200809191403 SPECI KPAE 191403Z 00000KT 3SM BR BKN004 OVC007 12/11 A3002 RMK AO2 CIG 002V006=
200809191353 METAR KPAE 191353Z 00000KT 4SM BR SCT004 BKN007 OVC012 12/11 A3002 RMK AO2 SLP166 T01220106=
200809191344 SPECI KPAE 191344Z AUTO 00000KT 2 1/2SM BR FEW002 BKN008 OVC012 12/11 A3002 RMK AO2 CIG 005V011=
200809191344 SPECI KPAE 191344Z AUTO 00000KT 2 1/2SM BR FEW002 BKN008 OVC012 12/11 A3002 RMK AO2 CIG 005V011=
200809191340 SPECI KPAE 191340Z AUTO 00000KT 2 1/2SM BR OVC012 12/11 A3002 RMK AO2=
200809191340 SPECI KPAE 191340Z AUTO 00000KT 2 1/2SM BR OVC012 12/11 A3002 RMK AO2=
200809191318 SPECI KPAE 191318Z AUTO 00000KT 3SM BR FEW003 OVC010 12/11 A3001 RMK AO2 CIG 007V014=
200809191318 SPECI KPAE 191318Z AUTO 00000KT 3SM BR FEW003 OVC010 12/11 A3001 RMK AO2 CIG 007V014=
200809191308 SPECI KPAE 191308Z AUTO 00000KT 2 1/2SM BR SCT003 OVC012 12/11 A3001 RMK AO2=
200809191308 SPECI KPAE 191308Z AUTO 00000KT 2 1/2SM BR SCT003 OVC012 12/11 A3001 RMK AO2=
200809191253 METAR KPAE 191253Z AUTO 34003KT 2 1/2SM BR BKN003 OVC012 12/11 A3001 RMK AO2 CIG 002V008 SLP161 T01220111=
200809191236 SPECI KPAE 191236Z AUTO 00000KT 2 1/2SM BR OVC003 12/11 A3001 RMK AO2 CIG 002V007=
200809191236 SPECI KPAE 191236Z AUTO 00000KT 2 1/2SM BR OVC003 12/11 A3001 RMK AO2 CIG 002V007=
200809191219 SPECI KPAE 191219Z AUTO 34003KT 3SM BR BKN003 OVC013 12/11 A3000 RMK AO2=
200809191219 SPECI KPAE 191219Z AUTO 34003KT 3SM BR BKN003 OVC013 12/11 A3000 RMK AO2=
200809191210 SPECI KPAE 191210Z AUTO 34003KT 4SM BR SCT003 OVC013 12/11 A3000 RMK AO2=
200809191210 SPECI KPAE 191210Z AUTO 34003KT 4SM BR SCT003 OVC013 12/11 A3000 RMK AO2=
200809191153 METAR KPAE 191153Z AUTO 35003KT 6SM BR OVC011 12/11 A3000 RMK AO2 SLP159 T01220106 10133 20122 56007=
200809191053 METAR KPAE 191053Z AUTO 00000KT 4SM BR OVC011 13/11 A3001 RMK AO2 SLP162 T01280106=
200809190953 METAR KPAE 190953Z AUTO 00000KT 7SM OVC013 13/10 A3002 RMK AO2 SLP164 T01280100=
200809190853 METAR KPAE 190853Z AUTO 00000KT 7SM OVC013 13/10 A3002 RMK AO2 SLP167 T01280100 56004=
200809190753 METAR KPAE 190753Z AUTO 25003KT 9SM OVC013 13/10 A3003 RMK AO2 SLP169 T01280100 401390117=
200809190653 METAR KPAE 190653Z AUTO 27003KT 10SM OVC013 13/10 A3003 RMK AO2 SLP170 T01330100=
200809190644 SPECI KPAE 190644Z AUTO 00000KT 9SM OVC013 13/10 A3003 RMK AO2=
200809190644 SPECI KPAE 190644Z AUTO 00000KT 9SM OVC013 13/10 A3003 RMK AO2=
200809190626 SPECI KPAE 190626Z AUTO 27004KT 10SM OVC015 13/10 A3003 RMK AO2=
200809190626 SPECI KPAE 190626Z AUTO 27004KT 10SM OVC015 13/10 A3003 RMK AO2=
200809190553 METAR KPAE 190553Z AUTO 24003KT 10SM OVC013 13/10 A3004 RMK AO2 SLP172 T01330100 10139 20133 50002=
200809190534 SPECI KPAE 190534Z AUTO 25004KT 10SM OVC013 13/10 A3004 RMK AO2=
200809190534 SPECI KPAE 190534Z AUTO 25004KT 10SM OVC013 13/10 A3004 RMK AO2=
200809190453 METAR KPAE 190453Z AUTO 23004KT 10SM OVC015 13/10 A3004 RMK AO2 SLP173 T01330100=
200809190353 METAR KPAE 190353Z AUTO 21003KT 10SM OVC015 13/10 A3004 RMK AO2 SLP173 T01330100=
200809190253 METAR KPAE 190253Z 24003KT 10SM OVC015 13/10 A3003 RMK AO2 SLP169 T01330100 53000=
200809190153 METAR KPAE 190153Z 23004KT 10SM OVC015 13/10 A3003 RMK AO2 SLP168 T01330100=
200809190053 METAR KPAE 190053Z 21003KT 9SM OVC015 14/10 A3003 RMK AO2 SLP167 T01390100=
200809182353 METAR KPAE 182353Z 24006KT 9SM OVC015 14/10 A3003 RMK AO2 SLP169 T01390100 10139 20133 55001=
200809182253 METAR KPAE 182253Z 25006KT 9SM OVC015 14/10 A3003 RMK AO2 SLP168 T01390100=
200809182216 SPECI KPAE 182216Z 25006KT 8SM OVC015 13/09 A3003 RMK AO2=
200809182216 SPECI KPAE 182216Z 25006KT 8SM OVC015 13/09 A3003 RMK AO2=
200809182153 METAR KPAE 182153Z 24006KT 8SM OVC013 13/09 A3003 RMK AO2 SLP168 T01330094=
200809182053 METAR KPAE 182053Z 24007KT 6SM HZ OVC013 13/10 A3003 RMK AO2 SLP170 T01330100 58003=
200809182001 SPECI KPAE 182001Z 25005KT 6SM HZ SCT007 OVC011 13/10 A3004 RMK AO2=
200809182001 SPECI KPAE 182001Z 25005KT 6SM HZ SCT007 OVC011 13/10 A3004 RMK AO2=
200809181953 METAR KPAE 181953Z 23004KT 6SM HZ OVC011 13/10 A3004 RMK AO2 SLP172 T01330100=
200809181853 METAR KPAE 181853Z 00000KT 7SM OVC007 13/11 A3004 RMK AO2 SLP172 T01330106=
200809181753 METAR KPAE 181753Z 24003KT 9SM BKN007 OVC014 13/10 A3004 RMK AO2 SLP173 T01330100 10133 20117 51006=
200809181700 SPECI KPAE 181700Z 20004KT 7SM BKN007 OVC014 13/11 A3004 RMK AO2=
200809181700 SPECI KPAE 181700Z 20004KT 7SM BKN007 OVC014 13/11 A3004 RMK AO2=
200809181653 METAR KPAE 181653Z 18004KT 6SM HZ SCT007 OVC014 13/11 A3004 RMK AO2 SLP171 T01330106=
200809181615 SPECI KPAE 181615Z 20005KT 5SM BR BKN004 OVC007 12/11 A3004 RMK AO2=
200809181615 SPECI KPAE 181615Z 20005KT 5SM BR BKN004 OVC007 12/11 A3004 RMK AO2=
200809181559 SPECI KPAE 181559Z 19004KT 2SM BR BKN004 OVC007 12/11 A3004 RMK AO2=
200809181559 SPECI KPAE 181559Z 19004KT 2SM BR BKN004 OVC007 12/11 A3004 RMK AO2=
200809181553 METAR KPAE 181553Z 19004KT 1 3/4SM BR OVC006 12/11 A3003 RMK AO2 SLP170 T01220106=
200809181537 SPECI KPAE 181537Z 20004KT 2SM BR OVC006 12/11 A3003 RMK AO2 CIG 003V009=
200809181537 SPECI KPAE 181537Z 20004KT 2SM BR OVC006 12/11 A3003 RMK AO2 CIG 003V009=
200809181515 SPECI KPAE 181515Z 21004KT 1 1/2SM BR OVC004 12/10 A3003 RMK AO2=
200809181515 SPECI KPAE 181515Z 21004KT 1 1/2SM BR OVC004 12/10 A3003 RMK AO2=
200809181508 SPECI KPAE 181508Z 22004KT 2SM BR OVC004 12/10 A3003 RMK AO2=
200809181508 SPECI KPAE 181508Z 22004KT 2SM BR OVC004 12/10 A3003 RMK AO2=
200809181453 METAR KPAE 181453Z 21004KT 3SM BR OVC004 12/10 A3002 RMK AO2 SLP166 T01170100 53005=
200809181353 METAR KPAE 181353Z 23005KT 7SM OVC004 12/10 A3001 RMK AO2 SLP160 T01170100=
200809181344 SPECI KPAE 181344Z AUTO 22005KT 7SM OVC004 12/10 A3001 RMK AO2=
200809181344 SPECI KPAE 181344Z AUTO 22005KT 7SM OVC004 12/10 A3001 RMK AO2=
200809181253 METAR KPAE 181253Z AUTO 20006KT 10SM OVC006 12/09 A3000 RMK AO2 SLP158 T01170094=
200809181153 METAR KPAE 181153Z AUTO 21006KT 8SM OVC006 12/09 A3001 RMK AO2 SLP160 T01170094 10128 20117 53003=
200809181053 METAR KPAE 181053Z AUTO 20007KT 6SM BR OVC006 12/10 A3000 RMK AO2 SLP158 T01220100=
200809181010 SPECI KPAE 181010Z AUTO 20006KT 6SM BR OVC006 13/11 A3000 RMK AO2=
200809181010 SPECI KPAE 181010Z AUTO 20006KT 6SM BR OVC006 13/11 A3000 RMK AO2=
200809180953 METAR KPAE 180953Z AUTO 18007KT 6SM BR OVC004 13/11 A3000 RMK AO2 SLP157 T01280106=
200809180853 METAR KPAE 180853Z AUTO 16006KT 5SM BR OVC004 12/11 A3000 RMK AO2 SLP157 T01220106 51014=
200809180812 SPECI KPAE 180812Z AUTO 17003KT 5SM BR OVC004 12/10 A2999 RMK AO2 CIG 003V008=
200809180812 SPECI KPAE 180812Z AUTO 17003KT 5SM BR OVC004 12/10 A2999 RMK AO2 CIG 003V008=
200809180800 SPECI KPAE 180800Z AUTO 18007KT 7SM BKN006 12/10 A2999 RMK AO2=
200809180800 SPECI KPAE 180800Z AUTO 18007KT 7SM BKN006 12/10 A2999 RMK AO2=
200809180753 METAR KPAE 180753Z AUTO 00000KT 8SM SCT008 12/10 A2999 RMK AO2 SLP154 T01170100 402170117=
200809180700 SPECI KPAE 180700Z AUTO 24004KT 6SM BR SCT002 12/11 A2998 RMK AO2=
200809180700 SPECI KPAE 180700Z AUTO 24004KT 6SM BR SCT002 12/11 A2998 RMK AO2=
200809180653 METAR KPAE 180653Z AUTO 22004KT 7SM CLR 12/10 A2998 RMK AO2 SLP150 T01170100=
200809180553 METAR KPAE 180553Z AUTO 00000KT 10SM CLR 13/10 A2996 RMK AO2 SLP143 T01280100 10217 20122 51010=
200809180453 METAR KPAE 180453Z AUTO 00000KT 9SM CLR 12/11 A2995 RMK AO2 SLP142 T01220106=
200809180353 METAR KPAE 180353Z AUTO 01003KT 10SM CLR 13/10 A2994 RMK AO2 SLP138 T01330100=
200809180253 METAR KPAE 180253Z 00000KT 10SM CLR 16/11 A2993 RMK AO2 SLP133 T01560106 53001=
200809180153 METAR KPAE 180153Z 00000KT 10SM CLR 18/10 A2992 RMK AO2 SLP131 T01830100=
200809180053 METAR KPAE 180053Z 00000KT 10SM CLR 21/11 A2992 RMK AO2 SLP130 T02110111=
200809172353 METAR KPAE 172353Z 29003KT 10SM CLR 21/11 A2992 RMK AO2 SLP131 T02110106 10217 20178 56007=
200809172253 METAR KPAE 172253Z 35003KT 10SM CLR 21/11 A2993 RMK AO2 SLP132 T02110106=
200809172153 METAR KPAE 172153Z 30003KT 10SM CLR 21/12 A2993 RMK AO2 SLP133 T02060117=
200809172053 METAR KPAE 172053Z 25003KT 10SM CLR 19/12 A2995 RMK AO2 SLP139 T01890117 58005=
200809171953 METAR KPAE 171953Z 26003KT 9SM CLR 18/11 A2995 RMK AO2 SLP141 T01780111=
200809171853 METAR KPAE 171853Z 00000KT 8SM CLR 19/11 A2996 RMK AO2 SLP142 T01940111=
200809171753 METAR KPAE 171753Z 00000KT 7SM CLR 18/12 A2996 RMK AO2 SLP143 T01830117 10183 20128 53012=
200809171653 METAR KPAE 171653Z 00000KT 6SM HZ CLR 16/12 A2995 RMK AO2 SLP140 T01610122=
200809171553 METAR KPAE 171553Z 00000KT 7SM CLR 16/12 A2994 RMK AO2 SLP136 T01560117=
200809171453 METAR KPAE 171453Z 00000KT 5SM HZ CLR 15/09 A2993 RMK AO2 SLP132 T01500094 55002=
200809171353 METAR KPAE 171353Z 00000KT 7SM CLR 14/09 A2992 RMK AO2 SLP132 T01390094=
200809171253 METAR KPAE 171253Z AUTO 00000KT 9SM CLR 14/09 A2993 RMK AO2 SLP132 T01390094=
200809171153 METAR KPAE 171153Z AUTO 00000KT 8SM CLR 14/09 A2993 RMK AO2 SLP133 T01440094 10172 20133 58003=
200809171053 METAR KPAE 171053Z AUTO 00000KT 10SM CLR 14/09 A2994 RMK AO2 SLP138 T01440094=
200809170953 METAR KPAE 170953Z AUTO 00000KT 10SM CLR 14/09 A2994 RMK AO2 SLP138 T01440089=
200809170853 METAR KPAE 170853Z AUTO 00000KT 10SM CLR 16/09 A2994 RMK AO2 SLP136 T01560094 53007=
200809170753 METAR KPAE 170753Z AUTO 00000KT 10SM CLR 16/09 A2993 RMK AO2 SLP133 T01610094 402330117=
200809170653 METAR KPAE 170653Z AUTO 36003KT 10SM CLR 16/10 A2992 RMK AO2 SLP129 T01610100=
200809170553 METAR KPAE 170553Z AUTO 00000KT 10SM CLR 17/11 A2992 RMK AO2 SLP130 T01670106 10233 20167 51004=
200809170453 METAR KPAE 170453Z AUTO 00000KT 10SM CLR 17/11 A2992 RMK AO2 SLP129 T01720106=
200809170353 METAR KPAE 170353Z 02003KT 10SM CLR 18/10 A2991 RMK AO2 SLP127 T01780100=
200809170253 METAR KPAE 170253Z 00000KT 10SM CLR 18/11 A2991 RMK AO2 SLP126 T01830106 53001=
200809170200 METAR KPAE NIL=
200809170053 METAR KPAE 170053Z 36004KT 10SM CLR 22/11 A2990 RMK AO2 SLP123 T02220106=
200809162353 METAR KPAE 162353Z AUTO 34006KT 10SM CLR 23/11 A2990 RMK AO2 SLP124 T02280106 10233 20178 56015 TSNO=
200809162253 METAR KPAE 162253Z 35006KT 10SM CLR 23/11 A2992 RMK AO2 SLP128 T02280111=
200809162153 METAR KPAE 162153Z VRB06KT 10SM CLR 23/11 A2993 RMK AO2 SLP134 T02280106=
200809162053 METAR KPAE 162053Z 36005KT 10SM CLR 22/11 A2995 RMK AO2 SLP139 T02170111 58016=
200809161953 METAR KPAE 161953Z 01005KT 10SM CLR 22/09 A2996 RMK AO2 SLP144 T02170094=
200809161853 METAR KPAE 161853Z 00000KT 10SM CLR 21/08 A2999 RMK AO2 SLP152 T02060083=
200809161753 METAR KPAE 161753Z 01004KT 10SM CLR 18/10 A3000 RMK AO2 SLP156 T01780100 10178 20117 50001=
200809161653 METAR KPAE 161653Z 35005KT 10SM CLR 16/11 A3000 RMK AO2 SLP156 T01610106=
200809161553 METAR KPAE 161553Z 00000KT 8SM CLR 14/11 A3000 RMK AO2 SLP157 T01440111=
200809161453 METAR KPAE 161453Z 00000KT 5SM BR CLR 13/11 A2999 RMK AO2 SLP155 T01330111 55004=
200809161353 METAR KPAE 161353Z 01003KT 10SM CLR 12/11 A2999 RMK AO2 SLP154 T01220106=
200809161253 METAR KPAE 161253Z AUTO 00000KT 8SM CLR 12/10 A3000 RMK AO2 SLP156 T01220100=
200809161153 METAR KPAE 161153Z AUTO 00000KT 5SM BR CLR 13/11 A3000 RMK AO2 SLP158 T01280106 10167 20122 50000=
200809161053 METAR KPAE 161053Z AUTO 03003KT 6SM BR CLR 13/11 A3001 RMK AO2 SLP160 T01280106=
200809160953 METAR KPAE 160953Z AUTO 00000KT 6SM HZ CLR 14/11 A3001 RMK AO2 SLP159 T01390111=
200809160853 METAR KPAE 160853Z AUTO 00000KT 8SM CLR 15/12 A3000 RMK AO2 SLP158 T01500117 58001=
200809160753 METAR KPAE 160753Z AUTO 00000KT 10SM CLR 16/11 A3001 RMK AO2 SLP159 T01560106 402390122=
200809160653 METAR KPAE 160653Z AUTO 04003KT 9SM CLR 16/11 A3001 RMK AO2 SLP159 T01610111=
200809160553 METAR KPAE 160553Z AUTO 00000KT 10SM CLR 16/11 A3001 RMK AO2 SLP160 T01560106 10233 20156 51005=
200809160453 METAR KPAE 160453Z 00000KT 10SM CLR 17/11 A3000 RMK AO2 SLP159 T01720106=
200809160353 METAR KPAE 160353Z 00000KT 10SM CLR 17/10 A3000 RMK AO2 SLP157 T01670100=
200809160253 METAR KPAE 160253Z 00000KT 10SM CLR 19/11 A2999 RMK AO2 SLP155 T01890106 56007=
200809160153 METAR KPAE 160153Z 00000KT 10SM CLR 21/11 A2999 RMK AO2 SLP155 T02110106=
200809160053 METAR KPAE 160053Z VRB03KT 10SM CLR 23/11 A3000 RMK AO2 SLP158 T02280106=
200809152353 METAR KPAE 152353Z 34004KT 10SM CLR 23/11 A3001 RMK AO2 SLP161 T02330106 10239 20172 56013=
200809152253 METAR KPAE 152253Z AUTO VRB03KT 10SM CLR 24/10 A3002 RMK AO2 SLP164 T02390100 TSNO=
200809152153 METAR KPAE 152153Z 01004KT 10SM CLR 23/10 A3004 RMK AO2 SLP169 T02330100=
200809152053 METAR KPAE 152053Z 02004KT 10SM CLR 22/10 A3005 RMK AO2 SLP174 T02220100 58013=
200809151953 METAR KPAE 151953Z 01004KT 10SM CLR 21/10 A3007 RMK AO2 SLP179 T02110100=
200809151853 METAR KPAE 151853Z 36005KT 10SM CLR 19/10 A3008 RMK AO2 SLP184 T01940100=
200809151753 METAR KPAE 151753Z 02004KT 10SM CLR 17/11 A3009 RMK AO2 SLP188 T01720111 10172 20122 58001=
200809151653 METAR KPAE 151653Z 00000KT 10SM CLR 16/12 A3009 RMK AO2 SLP189 T01610117=
200809151553 METAR KPAE 151553Z 02004KT 6SM BR CLR 14/12 A3010 RMK AO2 SLP190 T01390117=
200809151453 METAR KPAE 151453Z 02006KT 8SM CLR 13/11 A3009 RMK AO2 SLP190 T01330111 55000=
200809151353 METAR KPAE 151353Z 02004KT 10SM CLR 13/11 A3009 RMK AO2 SLP189 T01280106=
200809151253 METAR KPAE 151253Z AUTO 00000KT 10SM CLR 12/10 A3009 RMK AO2 SLP189 T01220100=
200809151153 METAR KPAE 151153Z AUTO 00000KT 10SM CLR 13/10 A3009 RMK AO2 SLP190 70001 T01330100 10144 20133 53000=
200809151053 METAR KPAE 151053Z AUTO 01003KT 10SM CLR 13/10 A3009 RMK AO2 SLP190 T01330100=
200809150953 METAR KPAE 150953Z AUTO 01004KT 10SM CLR 13/10 A3009 RMK AO2 SLP189 T01330100=
200809150853 METAR KPAE 150853Z AUTO 02003KT 10SM CLR 14/10 A3009 RMK AO2 SLP189 T01390100 56002=
200809150753 METAR KPAE 150753Z AUTO 01003KT 10SM CLR 14/10 A3009 RMK AO2 SLP190 T01440100 402170111=
200809150653 METAR KPAE 150653Z AUTO 36003KT 10SM CLR 14/10 A3010 RMK AO2 SLP190 T01390100=
200809150553 METAR KPAE 150553Z AUTO 36003KT 10SM CLR 14/10 A3010 RMK AO2 SLP191 T01440100 10217 20144 50002=
200809150453 METAR KPAE 150453Z 00000KT 10SM CLR 15/10 A3010 RMK AO2 SLP193 T01500100=
200809150353 METAR KPAE 150353Z 00000KT 10SM CLR 16/10 A3010 RMK AO2 SLP190 T01610100=
200809150253 METAR KPAE 150253Z 00000KT 10SM CLR 17/10 A3009 RMK AO2 SLP189 T01720100 55002=
200809150153 METAR KPAE 150153Z 35004KT 10SM CLR 19/10 A3009 RMK AO2 SLP188 T01940100=
200809150053 METAR KPAE 150053Z 34005KT 10SM CLR 21/10 A3009 RMK AO2 SLP189 T02060100=
200809142353 METAR KPAE 142353Z 34008KT 10SM CLR 21/10 A3010 RMK AO2 SLP191 T02110100 10211 20161 58013=
200809142253 METAR KPAE 142253Z VRB06KT 10SM CLR 21/10 A3012 RMK AO2 SLP197 T02110100=
200809142153 METAR KPAE 142153Z 36007KT 10SM CLR 21/09 A3013 RMK AO2 SLP201 T02060094=
200809142053 METAR KPAE 142053Z VRB05KT 10SM CLR 20/10 A3014 RMK AO2 SLP204 T02000100 56004=
200809141953 METAR KPAE 141953Z VRB06KT 10SM CLR 19/09 A3014 RMK AO2 SLP206 T01890094=
200809141853 METAR KPAE 141853Z 36007KT 10SM CLR 18/09 A3014 RMK AO2 SLP206 T01780094=
200809141753 METAR KPAE 141753Z 01005KT 10SM CLR 16/11 A3015 RMK AO2 SLP209 60001 T01610106 10161 20111 51004=
200809141701 SPECI KPAE 141701Z VRB03KT 9SM SCT004 15/11 A3015 RMK AO2=
200809141701 SPECI KPAE 141701Z VRB03KT 9SM SCT004 15/11 A3015 RMK AO2=
200809141653 METAR KPAE 141653Z 35004KT 8SM BKN004 14/11 A3015 RMK AO2 SLP209 T01390111=
200809141636 SPECI KPAE 141636Z 36005KT 7SM BKN004 13/11 A3015 RMK AO2=
200809141636 SPECI KPAE 141636Z 36005KT 7SM BKN004 13/11 A3015 RMK AO2=
200809141627 SPECI KPAE 141627Z 36003KT 7SM SCT004 13/11 A3015 RMK AO2=
200809141627 SPECI KPAE 141627Z 36003KT 7SM SCT004 13/11 A3015 RMK AO2=
200809141553 METAR KPAE 141553Z 36005KT 9SM CLR 14/11 A3015 RMK AO2 SLP209 T01390106=
200809141453 METAR KPAE 141453Z 01003KT 10SM CLR 13/11 A3014 RMK AO2 SLP206 60001 T01280106 51010=
200809141353 METAR KPAE 141353Z 00000KT 10SM CLR 11/09 A3013 RMK AO2 SLP201 P0001 T01110094=
200809141253 METAR KPAE 141253Z AUTO 00000KT 5SM BR CLR 11/10 A3012 RMK AO2 SLP199 T01110100=
200809141153 METAR KPAE 141153Z AUTO 02003KT 9SM CLR 12/10 A3011 RMK AO2 SLP194 T01170100 10133 20117 53000=
200809141053 METAR KPAE 141053Z AUTO 01003KT 10SM CLR 12/10 A3010 RMK AO2 SLP193 T01170100=
200809140953 METAR KPAE 140953Z AUTO 36003KT 10SM CLR 12/09 A3010 RMK AO2 SLP193 T01170089=
200809140853 METAR KPAE 140853Z AUTO 01003KT 10SM CLR 13/08 A3011 RMK AO2 SLP194 T01280083 51003=
200809140753 METAR KPAE 140753Z AUTO 02003KT 10SM CLR 12/09 A3011 RMK AO2 SLP193 T01220094 402170100=
200809140653 METAR KPAE 140653Z AUTO 01003KT 10SM CLR 13/09 A3010 RMK AO2 SLP192 T01280089=
200809140553 METAR KPAE 140553Z AUTO 00000KT 10SM CLR 13/09 A3010 RMK AO2 SLP192 T01330089 10217 20133 50006=
200809140453 METAR KPAE 140453Z AUTO 01003KT 10SM CLR 14/09 A3010 RMK AO2 SLP192 T01440094=
200809140353 METAR KPAE 140353Z AUTO 36004KT 10SM CLR 15/09 A3009 RMK AO2 SLP191 T01500089=
200809140253 METAR KPAE 140253Z 00000KT 10SM CLR 16/09 A3008 RMK AO2 SLP186 T01610094 55002=
200809140153 METAR KPAE 140153Z 36003KT 10SM CLR 18/10 A3008 RMK AO2 SLP184 T01830100=
200809140053 METAR KPAE 140053Z 34003KT 10SM CLR 20/10 A3008 RMK AO2 SLP186 T02000100=
200809132353 METAR KPAE 132353Z AUTO 32007KT 10SM CLR 21/08 A3009 RMK AO2 SLP187 T02110083 10217 20156 56014 TSNO=
200809132253 METAR KPAE 132253Z VRB03KT 10SM CLR 22/06 A3010 RMK AO2 SLP191 T02170061=
200809132153 METAR KPAE 132153Z 36003KT 10SM CLR 21/07 A3012 RMK AO2 SLP197 T02110067=
200809132053 METAR KPAE 132053Z 36004KT 10SM CLR 19/09 A3013 RMK AO2 SLP201 T01940089 58001=
200809131953 METAR KPAE 131953Z VRB04KT 10SM CLR 19/11 A3014 RMK AO2 SLP204 T01890106=
200809131853 METAR KPAE 131853Z 36003KT 10SM CLR 17/10 A3014 RMK AO2 SLP204 T01670100=
200809131753 METAR KPAE 131753Z 02005KT 10SM CLR 16/10 A3013 RMK AO2 SLP204 T01560100 10161 20100 51010=
200809131653 METAR KPAE 131653Z 01004KT 10SM FEW003 SCT005 13/11 A3013 RMK AO2 SLP203 T01330106=
200809131641 SPECI KPAE 131641Z 00000KT 7SM SCT001 13/11 A3013 RMK AO2=
200809131641 SPECI KPAE 131641Z 00000KT 7SM SCT001 13/11 A3013 RMK AO2=
200809131603 SPECI KPAE 131603Z 00000KT M1/4SM FG VV001 11/11 A3012 RMK AO2 SFC VIS 1/4 RVRNO=
200809131603 SPECI KPAE 131603Z 00000KT M1/4SM FG VV001 11/11 A3012 RMK AO2 SFC VIS 1/4 RVRNO=
200809131553 METAR KPAE 131553Z 00000KT 3/4SM BR OVC001 12/11 A3012 RMK AO2 SLP198 T01170106 RVRNO=
200809131453 METAR KPAE 131453Z 33003KT M1/4SM FG VV001 11/11 A3010 RMK AO2 SLP194 T01110106 53008 RVRNO=
200809131353 METAR KPAE 131353Z AUTO 00000KT 1/4SM FG VV001 11/10 A3009 RMK AO2 SLP189 T01110100 RVRNO=
200809131342 SPECI KPAE 131342Z AUTO 00000KT 1/4SM FG OVC001 11/10 A3009 RMK AO2 RVRNO=
200809131342 SPECI KPAE 131342Z AUTO 00000KT 1/4SM FG OVC001 11/10 A3009 RMK AO2 RVRNO=
200809131338 SPECI KPAE 131338Z AUTO 00000KT 1SM BR OVC001 11/10 A3009 RMK AO2 RVRNO=
200809131338 SPECI KPAE 131338Z AUTO 00000KT 1SM BR OVC001 11/10 A3009 RMK AO2 RVRNO=
200809131327 SPECI KPAE 131327Z AUTO 00000KT 2 1/2SM BR BKN001 11/09 A3009 RMK AO2=
200809131327 SPECI KPAE 131327Z AUTO 00000KT 2 1/2SM BR BKN001 11/09 A3009 RMK AO2=
200809131322 SPECI KPAE 131322Z AUTO 00000KT 3SM BR BKN003 11/09 A3009 RMK AO2=
200809131322 SPECI KPAE 131322Z AUTO 00000KT 3SM BR BKN003 11/09 A3009 RMK AO2=
200809131313 SPECI KPAE 131313Z AUTO 00000KT 4SM BR SCT003 10/09 A3009 RMK AO2=
200809131313 SPECI KPAE 131313Z AUTO 00000KT 4SM BR SCT003 10/09 A3009 RMK AO2=
200809131253 METAR KPAE 131253Z AUTO 00000KT 3SM BR CLR 10/09 A3009 RMK AO2 SLP187 T01000089=
200809131153 METAR KPAE 131153Z AUTO 02003KT 5SM BR CLR 11/09 A3008 RMK AO2 SLP184 T01110094 10133 20106 51004=
200809131053 METAR KPAE 131053Z AUTO 00000KT 5SM BR CLR 11/09 A3008 RMK AO2 SLP184 T01110094=
200809130953 METAR KPAE 130953Z AUTO 00000KT 7SM CLR 12/10 A3007 RMK AO2 SLP183 T01170100=
200809130853 METAR KPAE 130853Z AUTO 00000KT 9SM CLR 12/09 A3007 RMK AO2 SLP180 T01220094 51008=
200809130753 METAR KPAE 130753Z AUTO 00000KT 10SM CLR 12/10 A3006 RMK AO2 SLP179 T01220100 402110111=
200809130653 METAR KPAE 130653Z AUTO 01003KT 10SM CLR 13/10 A3005 RMK AO2 SLP175 T01280100=
200809130553 METAR KPAE 130553Z AUTO 36004KT 10SM CLR 13/10 A3004 RMK AO2 SLP172 T01280100 10206 20128 51013=
200809130453 METAR KPAE 130453Z AUTO 34005KT 10SM CLR 14/10 A3003 RMK AO2 SLP170 T01390100=
200809130353 METAR KPAE 130353Z AUTO 00000KT 10SM CLR 16/09 A3002 RMK AO2 SLP165 T01610089=
200809130253 METAR KPAE 130253Z 33003KT 10SM CLR 16/10 A3000 RMK AO2 SLP159 T01610100 51006=
200809130153 METAR KPAE 130153Z 34004KT 10SM CLR 18/12 A3000 RMK AO2 SLP157 T01830117=
200809130053 METAR KPAE 130053Z 01005KT 10SM CLR 19/11 A2999 RMK AO2 SLP154 T01940111=
200809122353 METAR KPAE 122353Z 35007KT 10SM CLR 21/11 A2998 RMK AO2 SLP152 T02060106 10211 20172 57003=
200809122253 METAR KPAE 122253Z 34009KT 10SM CLR 20/11 A2999 RMK AO2 SLP154 T02000106=
200809122153 METAR KPAE 122153Z VRB04KT 10SM CLR 21/12 A2999 RMK AO2 SLP154 T02110117=
200809122053 METAR KPAE 122053Z 32008KT 10SM CLR 20/11 A2999 RMK AO2 SLP155 T02000111 58001=
200809121953 METAR KPAE 121953Z 32005KT 10SM CLR 19/11 A3000 RMK AO2 SLP157 T01890111=
200809121853 METAR KPAE 121853Z 34006KT 10SM CLR 18/11 A3000 RMK AO2 SLP157 T01780111=
200809121753 METAR KPAE 121753Z VRB05KT 10SM CLR 18/11 A3000 RMK AO2 SLP157 T01780106 10178 20111 51010=
200809121653 METAR KPAE 121653Z 00000KT 10SM CLR 15/11 A2999 RMK AO2 SLP154 T01500106=
200809121608 SPECI KPAE 121608Z 00000KT 5SM BCFG SCT001 13/11 A2998 RMK AO2=
200809121608 SPECI KPAE 121608Z 00000KT 5SM BCFG SCT001 13/11 A2998 RMK AO2=
200809121601 SPECI KPAE 121601Z 00000KT 3SM BCFG OVC001 12/11 A2999 RMK AO2=
200809121601 SPECI KPAE 121601Z 00000KT 3SM BCFG OVC001 12/11 A2999 RMK AO2=
200809121553 METAR KPAE 121553Z 00000KT 1SM BCFG BKN001 12/11 A2998 RMK AO2 SLP153 T01220106 RVRNO=
200809121537 SPECI KPAE 121537Z 33003KT 1SM BCFG BKN001 12/11 A2998 RMK AO2 RVRNO=
200809121537 SPECI KPAE 121537Z 33003KT 1SM BCFG BKN001 12/11 A2998 RMK AO2 RVRNO=
200809121532 SPECI KPAE 121532Z 35003KT 1/4SM FG OVC001 12/11 A2997 RMK AO2 RVRNO=
200809121532 SPECI KPAE 121532Z 35003KT 1/4SM FG OVC001 12/11 A2997 RMK AO2 RVRNO=
200809121523 SPECI KPAE 121523Z 04003KT 1/2SM FG OVC001 12/11 A2997 RMK AO2 RVRNO=
200809121523 SPECI KPAE 121523Z 04003KT 1/2SM FG OVC001 12/11 A2997 RMK AO2 RVRNO=
200809121500 SPECI KPAE 121500Z 03003KT 1/4SM FG VV001 11/11 A2997 RMK AO2 RVRNO=
200809121500 SPECI KPAE 121500Z 03003KT 1/4SM FG VV001 11/11 A2997 RMK AO2 RVRNO=
200809121453 METAR KPAE 121453Z 00000KT 1SM BCFG BKN001 11/10 A2997 RMK AO2 SLP147 T01110100 53006 RVRNO=
200809121400 SPECI KPAE 121400Z 35003KT 1SM BCFG BKN001 11/10 A2997 RMK AO2 RVRNO=
200809121400 SPECI KPAE 121400Z 35003KT 1SM BCFG BKN001 11/10 A2997 RMK AO2 RVRNO=
200809121353 METAR KPAE 121353Z 36004KT 10SM BCFG SCT001 11/10 A2997 RMK AO2 SLP146 T01110100=
200809121351 SPECI KPAE 121351Z 35003KT 10SM SCT001 11/10 A2997 RMK AO2=
200809121351 SPECI KPAE 121351Z 35003KT 10SM SCT001 11/10 A2997 RMK AO2=
200809121348 SPECI KPAE 121348Z 00000KT 1SM BR VV001 11/10 A2997 RMK AO2 RVRNO=
200809121348 SPECI KPAE 121348Z 00000KT 1SM BR VV001 11/10 A2997 RMK AO2 RVRNO=
200809121346 SPECI KPAE 121346Z VRB03KT 2 1/2SM BR SCT001 11/10 A2997 RMK AO2=
200809121346 SPECI KPAE 121346Z VRB03KT 2 1/2SM BR SCT001 11/10 A2997 RMK AO2=
200809121253 METAR KPAE 121253Z 35003KT 10SM CLR 12/09 A2995 RMK AO2 SLP139 T01170094=
200809121153 METAR KPAE 121153Z AUTO 36004KT 10SM CLR 13/09 A2995 RMK AO2 SLP141 T01280094 10161 20128 55000=
200809121053 METAR KPAE 121053Z AUTO 04003KT 10SM CLR 14/08 A2994 RMK AO2 SLP137 T01440083=
200809120953 METAR KPAE 120953Z AUTO 00000KT 10SM CLR 13/10 A2994 RMK AO2 SLP138 T01330100=
200809120853 METAR KPAE 120853Z AUTO 03003KT 10SM CLR 14/09 A2995 RMK AO2 SLP140 T01440094 56001=
200809120753 METAR KPAE 120753Z AUTO 00000KT 10SM CLR 14/09 A2995 RMK AO2 SLP141 T01390094 402220106=
200809120653 METAR KPAE 120653Z AUTO 00000KT 10SM CLR 14/10 A2995 RMK AO2 SLP141 T01440100=
200809120553 METAR KPAE 120553Z AUTO 00000KT 10SM CLR 16/10 A2995 RMK AO2 SLP142 T01610100 10211 20156 50002=
200809120453 METAR KPAE 120453Z AUTO 00000KT 10SM CLR 16/09 A2996 RMK AO2 SLP144 T01610094=
200809120353 METAR KPAE 120353Z AUTO 00000KT 10SM CLR 17/09 A2995 RMK AO2 SLP141 T01670094=
200809120253 METAR KPAE 120253Z 00000KT 10SM CLR 18/09 A2995 RMK AO2 SLP140 T01780094 55004=
200809120153 METAR KPAE 120153Z 35003KT 10SM CLR 20/09 A2995 RMK AO2 SLP139 T02000094=
200809120053 METAR KPAE 120053Z 35004KT 10SM CLR 21/10 A2995 RMK AO2 SLP141 T02110100=
200809112353 METAR KPAE 112353Z 36007KT 10SM CLR 21/10 A2996 RMK AO2 SLP144 T02110100 10222 20161 56019=
200809112253 METAR KPAE 112253Z 01006KT 10SM CLR 22/09 A2998 RMK AO2 SLP149 T02170094=
200809112153 METAR KPAE 112153Z 35005KT 10SM CLR 21/10 A3000 RMK AO2 SLP157 T02110100=
200809112053 METAR KPAE 112053Z VRB04KT 10SM CLR 21/10 A3002 RMK AO2 SLP163 T02110100 58016=
200809111953 METAR KPAE 111953Z VRB04KT 10SM CLR 19/10 A3003 RMK AO2 SLP169 T01940100=
200809111853 METAR KPAE 111853Z VRB03KT 10SM CLR 18/11 A3005 RMK AO2 SLP175 T01780106=
200809111753 METAR KPAE 111753Z 35004KT 10SM CLR 16/10 A3006 RMK AO2 SLP180 T01560100 10161 20106 56005=
200809111653 METAR KPAE 111653Z 01004KT 10SM CLR 15/10 A3007 RMK AO2 SLP181 T01500100=
200809111553 METAR KPAE 111553Z 35005KT 10SM CLR 14/09 A3007 RMK AO2 SLP182 T01440094=
200809111453 METAR KPAE 111453Z 02003KT 10SM CLR 13/10 A3008 RMK AO2 SLP184 T01330100 55001=
200809111353 METAR KPAE 111353Z 00000KT 7SM CLR 11/09 A3008 RMK AO2 SLP184 T01110094=
200809111253 METAR KPAE 111253Z 00000KT 10SM CLR 12/09 A3008 RMK AO2 SLP185 T01170094=
200809111153 METAR KPAE 111153Z AUTO 02004KT 9SM CLR 12/09 A3008 RMK AO2 SLP185 P0001 60001 70001 T01170094 10139 20117 55001=
200809111053 METAR KPAE 111053Z AUTO 01003KT 9SM CLR 12/09 A3008 RMK AO2 SLP185 T01170094=
200809110953 METAR KPAE 110953Z AUTO 00000KT 10SM CLR 12/10 A3008 RMK AO2 SLP185 T01220100=
200809110853 METAR KPAE 110853Z AUTO 00000KT 10SM CLR 12/09 A3008 RMK AO2 SLP186 T01220094 53001=
200809110753 METAR KPAE 110753Z AUTO 03004KT 10SM CLR 13/11 A3008 RMK AO2 SLP186 T01330106 402060100=
200809110653 METAR KPAE 110653Z AUTO 00000KT 10SM CLR 13/11 A3008 RMK AO2 SLP184 T01330106=
200809110553 METAR KPAE 110553Z AUTO 01003KT 10SM CLR 14/10 A3008 RMK AO2 SLP186 T01390100 10206 20139 50003=
200809110453 METAR KPAE 110453Z AUTO 00000KT 10SM CLR 15/11 A3009 RMK AO2 SLP187 T01500106=
200809110353 METAR KPAE 110353Z AUTO 00000KT 10SM CLR 16/10 A3008 RMK AO2 SLP185 T01610100=
200809110253 METAR KPAE 110253Z 33003KT 10SM CLR 17/09 A3007 RMK AO2 SLP183 T01720094 56003=
200809110153 METAR KPAE 110153Z 35004KT 10SM CLR 19/09 A3008 RMK AO2 SLP185 T01890089=
200809110053 METAR KPAE 110053Z VRB05KT 10SM CLR 20/08 A3008 RMK AO2 SLP184 T02000083=
200809102353 METAR KPAE 102353Z 36006KT 10SM CLR 20/10 A3008 RMK AO2 SLP186 T02000100 10206 20161 56003=
200809102253 METAR KPAE 102253Z 36006KT 10SM CLR 21/09 A3008 RMK AO2 SLP186 T02060094=
200809102153 METAR KPAE 102153Z VRB05KT 10SM CLR 19/09 A3009 RMK AO2 SLP188 T01940094=
200809102053 METAR KPAE 102053Z 34004KT 10SM CLR 19/09 A3009 RMK AO2 SLP189 T01890089 58001=
200809101953 METAR KPAE 101953Z VRB03KT 10SM CLR 18/08 A3009 RMK AO2 SLP189 T01830078=
200809101853 METAR KPAE 101853Z VRB04KT 10SM CLR 17/08 A3010 RMK AO2 SLP190 T01720083=
200809101753 METAR KPAE 101753Z 00000KT 10SM CLR 16/09 A3010 RMK AO2 SLP191 T01610094 10161 20100 53008=
200809101653 METAR KPAE 101653Z 01003KT 10SM CLR 14/09 A3008 RMK AO2 SLP187 T01440094=
200809101553 METAR KPAE 101553Z 00000KT 9SM CLR 13/09 A3008 RMK AO2 SLP185 T01330094=
200809101453 METAR KPAE 101453Z 00000KT 5SM BR CLR 12/09 A3007 RMK AO2 SLP183 T01170094 52013=
200809101353 METAR KPAE 101353Z 00000KT 10SM CLR 10/08 A3006 RMK AO2 SLP178 T01000078=
200809101253 METAR KPAE 101253Z 00000KT 8SM CLR 11/09 A3005 RMK AO2 SLP173 T01110089=
200809101153 METAR KPAE 101153Z AUTO 00000KT 8SM CLR 11/08 A3003 RMK AO2 SLP169 T01110083 10128 20111 53014 TSNO=
200809101053 METAR KPAE 101053Z AUTO 00000KT 9SM CLR 12/09 A3001 RMK AO2 SLP163 T01220089 TSNO=
200809100953 METAR KPAE 100953Z AUTO 00000KT 10SM CLR 12/09 A3001 RMK AO2 SLP160 T01220094 TSNO=
200809100853 METAR KPAE 100853Z AUTO 01003KT 10SM CLR 12/09 A2999 RMK AO2 SLP154 T01170089 51015 TSNO=
200809100753 METAR KPAE 100753Z AUTO 00000KT 10SM CLR 12/09 A2998 RMK AO2 SLP150 T01220089 401940117 TSNO=
200809100653 METAR KPAE 100653Z AUTO 00000KT 10SM CLR 12/09 A2996 RMK AO2 SLP144 T01220094 TSNO=
200809100553 METAR KPAE 100553Z AUTO 00000KT 10SM CLR 12/09 A2995 RMK AO2 SLP140 T01220094 10189 20122 51018 TSNO=
200809100453 METAR KPAE 100453Z AUTO 02004KT 10SM CLR 13/09 A2994 RMK AO2 SLP137 T01330094 TSNO=
200809100353 METAR KPAE 100353Z AUTO 35005KT 10SM CLR 14/09 A2992 RMK AO2 SLP132 T01390089 TSNO=
200809100253 METAR KPAE 100253Z 34006KT 10SM CLR 15/08 A2989 RMK AO2 SLP122 T01500083 52007=
200809100153 METAR KPAE 100153Z 35007KT 10SM CLR 17/08 A2989 RMK AO2 SLP120 T01670083=
200809100053 METAR KPAE 100053Z 36005KT 10SM CLR 18/08 A2988 RMK AO2 SLP116 T01830083=
200809092353 METAR KPAE 092353Z VRB05KT 10SM CLR 19/07 A2987 RMK AO2 SLP114 T01890072 10194 20161 56003=
200809092253 METAR KPAE 092253Z 34007KT 10SM CLR 18/09 A2988 RMK AO2 SLP115 T01830094=
200809092153 METAR KPAE 092153Z VRB06KT 10SM CLR 19/08 A2987 RMK AO2 SLP115 T01890078=
200809092053 METAR KPAE 092053Z VRB05KT 10SM CLR 18/08 A2988 RMK AO2 SLP117 T01830083 55002=
200809091953 METAR KPAE 091953Z 36007KT 320V030 10SM CLR 18/11 A2988 RMK AO2 SLP116 T01780106=
200809091853 METAR KPAE 091853Z 34005KT 10SM CLR 17/11 A2988 RMK AO2 SLP116 T01720106=
200809091753 METAR KPAE 091753Z 02006KT 10SM CLR 17/11 A2989 RMK AO2 SLP119 T01670106 10167 20122 52002=
200809091653 METAR KPAE 091653Z VRB03KT 10SM CLR 16/11 A2988 RMK AO2 SLP118 T01560106=
200809091553 METAR KPAE 091553Z 33006KT 9SM CLR 14/11 A2988 RMK AO2 SLP118 T01440106=
200809091453 METAR KPAE 091453Z 00000KT 8SM FEW009 13/11 A2988 RMK AO2 SLP117 T01330106 53005=
200809091430 SPECI KPAE 091430Z 31003KT 8SM SCT009 12/11 A2987 RMK AO2=
200809091430 SPECI KPAE 091430Z 31003KT 8SM SCT009 12/11 A2987 RMK AO2=
200809091353 METAR KPAE 091353Z AUTO 36004KT 8SM CLR 12/11 A2987 RMK AO2 SLP114 T01220106=
200809091253 METAR KPAE 091253Z AUTO 35004KT 10SM CLR 12/10 A2986 RMK AO2 SLP111 T01220100=
200809091153 METAR KPAE 091153Z AUTO 02003KT 10SM CLR 13/11 A2986 RMK AO2 SLP111 T01280106 10161 20128 51006=
200809091053 METAR KPAE 091053Z AUTO 01006KT 10SM CLR 14/10 A2986 RMK AO2 SLP110 T01390100=
200809090953 METAR KPAE 090953Z AUTO 36007KT 10SM CLR 14/10 A2986 RMK AO2 SLP109 T01440100=
200809090853 METAR KPAE 090853Z AUTO 01009KT 10SM CLR 15/11 A2985 RMK AO2 SLP105 T01500106 55002=
200809090753 METAR KPAE 090753Z AUTO 01006KT 10SM CLR 16/11 A2984 RMK AO2 SLP103 T01560106 402170122=
200809090653 METAR KPAE 090653Z AUTO 01005KT 10SM CLR 15/11 A2985 RMK AO2 SLP106 T01500106=
200809090553 METAR KPAE 090553Z AUTO 36006KT 10SM CLR 16/09 A2985 RMK AO2 SLP108 T01610094 10206 20156 58001=
200809090453 METAR KPAE 090453Z AUTO 35006KT 10SM CLR 16/09 A2986 RMK AO2 SLP109 T01610089=
200809090353 METAR KPAE 090353Z AUTO 35007KT 10SM CLR 17/09 A2986 RMK AO2 SLP110 T01670094=
200809090300 METAR KPAE NIL=
200809090253 METAR KPAE 090253Z 34006KT 10SM CLR 18/09 A2985 RMK AO2 SLP108 T01780089 56009=
200809090153 METAR KPAE 090153Z VRB03KT 10SM CLR 19/09 A2986 RMK AO2 SLP109 T01890094=
200809090053 METAR KPAE 090053Z 36006KT 10SM CLR 21/10 A2986 RMK AO2 SLP112 T02060100=
200809082353 METAR KPAE 082353Z 35006KT 10SM CLR 20/11 A2988 RMK AO2 SLP117 T02000106 10217 20172 56021=
200809082253 METAR KPAE 082253Z 36007KT 10SM CLR 21/11 A2990 RMK AO2 SLP124 T02060111=
200809082153 METAR KPAE 082153Z 36009KT 10SM CLR 21/11 A2992 RMK AO2 SLP130 T02110111=
200809082053 METAR KPAE 082053Z 34005KT 10SM CLR 21/11 A2995 RMK AO2 SLP138 T02110111 58023=
200809081953 METAR KPAE 081953Z VRB05KT 10SM CLR 20/10 A2997 RMK AO2 SLP146 T02000100=
200809081853 METAR KPAE 081853Z VRB04KT 10SM CLR 19/11 A3000 RMK AO2 SLP155 T01940106=
200809081753 METAR KPAE 081753Z VRB03KT 10SM CLR 17/11 A3002 RMK AO2 SLP163 T01720106 10172 20122 58006=
200809081653 METAR KPAE 081653Z 04004KT 10SM CLR 16/10 A3002 RMK AO2 SLP163 T01610100=
200809081553 METAR KPAE 081553Z VRB04KT 10SM CLR 15/11 A3004 RMK AO2 SLP170 T01500111=
200809081453 METAR KPAE 081453Z 36003KT 10SM CLR 13/11 A3003 RMK AO2 SLP169 T01330111 55003=
200809081353 METAR KPAE 081353Z 00000KT 10SM CLR 12/10 A3003 RMK AO2 SLP168 T01220100=
200809081253 METAR KPAE 081253Z 02003KT 10SM CLR 13/10 A3003 RMK AO2 SLP169 T01330100=
200809081153 METAR KPAE 081153Z 00000KT 10SM CLR 13/10 A3004 RMK AO2 SLP173 T01330100 10161 20128 56006=
200809081053 METAR KPAE 081053Z 00000KT 10SM CLR 14/10 A3005 RMK AO2 SLP173 T01390100=
200809080953 METAR KPAE 080953Z 02003KT 10SM CLR 14/10 A3006 RMK AO2 SLP176 T01390100=
200809080853 METAR KPAE 080853Z 01003KT 10SM CLR 14/09 A3006 RMK AO2 SLP179 T01440094 58004=
200809080753 METAR KPAE 080753Z 01003KT 10SM CLR 15/09 A3007 RMK AO2 SLP181 T01500089 402220128=
200809080653 METAR KPAE 080653Z 00000KT 10SM CLR 16/09 A3007 RMK AO2 SLP182 T01560094=
200809080553 METAR KPAE 080553Z 02003KT 10SM CLR 17/09 A3007 RMK AO2 SLP183 T01670089 10222 20156 51005=
200809080453 METAR KPAE 080453Z 36004KT 10SM CLR 16/09 A3007 RMK AO2 SLP183 T01610094=
200809080353 METAR KPAE 080353Z VRB06KT 10SM CLR 17/09 A3007 RMK AO2 SLP181 T01670094=
200809080253 METAR KPAE 080253Z 35006KT 10SM CLR 18/10 A3006 RMK AO2 SLP177 T01780100 56007=
200809080153 METAR KPAE 080153Z 35007KT 10SM CLR 19/11 A3007 RMK AO2 SLP180 T01890106=
200809080053 METAR KPAE 080053Z 35008KT 10SM CLR 21/11 A3007 RMK AO2 SLP182 T02110106=
200809072353 METAR KPAE 072353Z 35008G14KT 10SM CLR 21/11 A3008 RMK AO2 SLP185 T02110111 10217 20167 58016=
200809072253 METAR KPAE 072253Z VRB06KT 10SM CLR 21/12 A3010 RMK AO2 SLP191 T02110117=
200809072153 METAR KPAE 072153Z 36007KT 10SM CLR 21/12 A3011 RMK AO2 SLP197 T02060117=
200809072053 METAR KPAE 072053Z VRB06KT 10SM CLR 20/12 A3013 RMK AO2 SLP202 T02000117 58008=
200809071953 METAR KPAE 071953Z 01006KT 10SM CLR 19/12 A3014 RMK AO2 SLP205 T01940117=
200809071853 METAR KPAE 071853Z 35004KT 10SM CLR 18/12 A3015 RMK AO2 SLP209 T01830117=
200809071753 METAR KPAE 071753Z 35007KT 330V030 10SM SCT007 17/12 A3015 RMK AO2 SLP210 T01670122 10167 20128 53002=
200809071653 METAR KPAE 071653Z 01005KT 9SM OVC008 14/12 A3015 RMK AO2 SLP210 T01440122=
200809071553 METAR KPAE 071553Z 35004KT 9SM OVC003 14/12 A3015 RMK AO2 SLP209 T01390117=
200809071453 METAR KPAE 071453Z VRB06KT 7SM OVC003 13/12 A3015 RMK AO2 SLP208 T01330117 51006=
200809071353 METAR KPAE 071353Z VRB04KT 6SM BR OVC003 13/12 A3014 RMK AO2 SLP205 T01330117=
200809071253 METAR KPAE 071253Z 35004KT 10SM OVC005 13/12 A3013 RMK AO2 SLP202 T01330117=
200809071201 SPECI KPAE 071201Z 00000KT 10SM BKN009 13/11 A3013 RMK AO2=
200809071201 SPECI KPAE 071201Z 00000KT 10SM BKN009 13/11 A3013 RMK AO2=
200809071153 METAR KPAE 071153Z 35003KT 10SM SCT009 13/11 A3013 RMK AO2 SLP200 T01280111 10144 20128 51004=
200809071151 SPECI KPAE 071151Z 34004KT 10SM SCT009 13/11 A3012 RMK AO2=
200809071151 SPECI KPAE 071151Z 34004KT 10SM SCT009 13/11 A3012 RMK AO2=
200809071053 METAR KPAE 071053Z VRB03KT 10SM CLR 13/11 A3012 RMK AO2 SLP198 T01330111=
200809070953 METAR KPAE 070953Z 36003KT 10SM CLR 13/11 A3011 RMK AO2 SLP196 T01280111=
200809070853 METAR KPAE 070853Z 00000KT 10SM CLR 13/11 A3011 RMK AO2 SLP195 T01330111 53001=
200809070753 METAR KPAE 070753Z 36003KT 10SM CLR 14/11 A3011 RMK AO2 SLP195 T01390111 402000128=
200809070653 METAR KPAE 070653Z 35004KT 10SM CLR 14/11 A3011 RMK AO2 SLP195 T01440111=
200809070553 METAR KPAE 070553Z 35004KT 10SM CLR 14/11 A3011 RMK AO2 SLP195 T01440111 10200 20144 50001=
200809070453 METAR KPAE 070453Z VRB03KT 10SM CLR 14/11 A3011 RMK AO2 SLP197 T01440111=
200809070353 METAR KPAE 070353Z AUTO 35004KT 10SM CLR 16/12 A3011 RMK AO2 SLP195 T01560117=
200809070253 METAR KPAE 070253Z 35003KT 10SM CLR 17/12 A3011 RMK AO2 SLP194 T01670117 55002=
200809070153 METAR KPAE 070153Z 35006KT 10SM CLR 18/12 A3010 RMK AO2 SLP192 T01830122=
200809070053 METAR KPAE 070053Z VRB06KT 10SM CLR 19/12 A3011 RMK AO2 SLP195 T01890122=
200809062353 METAR KPAE 062353Z 34007KT 10SM SCT038 20/12 A3011 RMK AO2 SLP196 T02000117 10200 20167 58013=
200809062253 METAR KPAE 062253Z 34007KT 10SM CLR 19/12 A3013 RMK AO2 SLP200 T01940122=
200809062153 METAR KPAE 062153Z 33007KT 310V020 10SM FEW020 19/12 A3014 RMK AO2 SLP207 T01940122=
200809062053 METAR KPAE 062053Z VRB04KT 10SM FEW020 SCT060 19/12 A3015 RMK AO2 SLP209 T01890117 57008=
200809061953 METAR KPAE 061953Z 33003KT 10SM FEW019 BKN060 18/12 A3016 RMK AO2 SLP211 T01830117=
200809061853 METAR KPAE 061853Z 01004KT 10SM SCT037 18/12 A3017 RMK AO2 SLP215 T01780117=
200809061753 METAR KPAE 061753Z 32006KT 10SM OVC037 17/12 A3017 RMK AO2 SLP217 T01670117 10167 20128 51005=
200809061653 METAR KPAE 061653Z 00000KT 10SM FEW002 OVC038 14/11 A3017 RMK AO2 SLP217 T01390111=
200809061605 SPECI KPAE 061605Z 00000KT 7SM SCT002 OVC044 13/12 A3017 RMK AO2=
200809061605 SPECI KPAE 061605Z 00000KT 7SM SCT002 OVC044 13/12 A3017 RMK AO2=
200809061553 METAR KPAE 061553Z 01004KT 7SM BKN002 OVC044 13/12 A3017 RMK AO2 SLP216 T01330117=
200809061512 SPECI KPAE 061512Z 36004KT 8SM SCT001 BKN046 13/12 A3016 RMK AO2=
200809061512 SPECI KPAE 061512Z 36004KT 8SM SCT001 BKN046 13/12 A3016 RMK AO2=
200809061500 SPECI KPAE 061500Z VRB03KT 1SM BR OVC001 13/12 A3016 RMK AO2 RVRNO=
200809061500 SPECI KPAE 061500Z VRB03KT 1SM BR OVC001 13/12 A3016 RMK AO2 RVRNO=
200809061453 METAR KPAE 061453Z VRB03KT 4SM BR OVC001 13/12 A3016 RMK AO2 SLP213 T01280117 53003=
200809061410 SPECI KPAE 061410Z 35003KT 5SM BR SCT001 OVC060 13/12 A3015 RMK AO2=
200809061410 SPECI KPAE 061410Z 35003KT 5SM BR SCT001 OVC060 13/12 A3015 RMK AO2=
200809061403 SPECI KPAE 061403Z 36003KT 1 3/4SM BR BKN001 OVC060 13/12 A3015 RMK AO2=
200809061403 SPECI KPAE 061403Z 36003KT 1 3/4SM BR BKN001 OVC060 13/12 A3015 RMK AO2=
200809061359 SPECI KPAE 061359Z 00000KT 2 1/2SM BR SCT001 OVC060 13/12 A3015 RMK AO2=
200809061359 SPECI KPAE 061359Z 00000KT 2 1/2SM BR SCT001 OVC060 13/12 A3015 RMK AO2=
200809061353 METAR KPAE 061353Z 34004KT 7SM OVC060 13/12 A3015 RMK AO2 SLP209 T01330117=
200809061321 SPECI KPAE 061321Z AUTO 02004KT 4SM BR SCT001 OVC060 13/12 A3014 RMK AO2=
200809061321 SPECI KPAE 061321Z AUTO 02004KT 4SM BR SCT001 OVC060 13/12 A3014 RMK AO2=
200809061312 SPECI KPAE 061312Z AUTO 03004KT 2 1/2SM BR BKN001 BKN060 13/12 A3015 RMK AO2=
200809061312 SPECI KPAE 061312Z AUTO 03004KT 2 1/2SM BR BKN001 BKN060 13/12 A3015 RMK AO2=
200809061301 SPECI KPAE 061301Z AUTO 01003KT 4SM BR SCT001 BKN065 13/12 A3015 RMK AO2=
200809061301 SPECI KPAE 061301Z AUTO 01003KT 4SM BR SCT001 BKN065 13/12 A3015 RMK AO2=
200809061253 METAR KPAE 061253Z AUTO 02003KT 5SM BR BKN060 13/12 A3014 RMK AO2 SLP207 T01330117=
200809061219 SPECI KPAE 061219Z AUTO 00000KT 6SM BR FEW002 OVC050 13/12 A3015 RMK AO2=
200809061219 SPECI KPAE 061219Z AUTO 00000KT 6SM BR FEW002 OVC050 13/12 A3015 RMK AO2=
200809061153 METAR KPAE 061153Z AUTO 00000KT 9SM BKN050 OVC070 14/12 A3015 RMK AO2 SLP209 T01390117 10139 20128 55003=
200809061053 METAR KPAE 061053Z AUTO 04003KT 10SM BKN055 OVC070 13/12 A3015 RMK AO2 SLP209 T01330117=
200809061032 SPECI KPAE 061032Z AUTO 02006KT 8SM FEW001 SCT050 OVC070 13/12 A3015 RMK AO2=
200809061032 SPECI KPAE 061032Z AUTO 02006KT 8SM FEW001 SCT050 OVC070 13/12 A3015 RMK AO2=
200809060953 METAR KPAE 060953Z AUTO 02006KT 6SM BR OVC001 13/12 A3015 RMK AO2 SLP210 T01330117=
200809060853 METAR KPAE 060853Z AUTO 01003KT 7SM OVC001 13/12 A3016 RMK AO2 SLP212 T01280117 52001=
200809060822 SPECI KPAE 060822Z AUTO 36004KT 7SM BKN001 BKN055 OVC075 13/12 A3017 RMK AO2=
200809060822 SPECI KPAE 060822Z AUTO 36004KT 7SM BKN001 BKN055 OVC075 13/12 A3017 RMK AO2=
200809060753 METAR KPAE 060753Z AUTO 01004KT 9SM SCT003 OVC070 13/12 A3016 RMK AO2 SLP212 T01330117 402000106=
200809060738 SPECI KPAE 060738Z AUTO 36005KT 9SM FEW003 OVC070 13/12 A3016 RMK AO2=
200809060738 SPECI KPAE 060738Z AUTO 36005KT 9SM FEW003 OVC070 13/12 A3016 RMK AO2=
200809060653 METAR KPAE 060653Z AUTO 01004KT 9SM OVC070 14/12 A3016 RMK AO2 SLP211 T01390117=
200809060553 METAR KPAE 060553Z AUTO 02004KT 9SM OVC075 14/12 A3016 RMK AO2 SLP212 T01390117 10189 20133 50001=
200809060453 METAR KPAE 060453Z AUTO 01007KT 10SM OVC070 14/12 A3016 RMK AO2 SLP214 T01390117=
200809060353 METAR KPAE 060353Z AUTO 36006KT 10SM BKN060 15/12 A3016 RMK AO2 SLP214 T01500117=
200809060253 METAR KPAE 060253Z VRB05KT 10SM OVC065 16/12 A3015 RMK AO2 SLP211 T01610117 55002=
200809060153 METAR KPAE 060153Z 02003KT 10SM OVC065 17/12 A3015 RMK AO2 SLP211 T01720117=
200809060053 METAR KPAE 060053Z 02004KT 10SM OVC065 18/11 A3016 RMK AO2 SLP213 T01830111=
200809052353 METAR KPAE 052353Z 02005KT 10SM OVC060 19/10 A3016 RMK AO2 SLP212 T01890100 10200 20156 56007=
200809052253 METAR KPAE 052253Z 05005KT 10SM OVC060 19/11 A3016 RMK AO2 SLP214 T01890111=
200809052153 METAR KPAE 052153Z 06004KT 10SM OVC050 19/11 A3017 RMK AO2 SLP214 T01940111=
200809052053 METAR KPAE 052053Z VRB04KT 10SM FEW050 19/12 A3018 RMK AO2 SLP220 T01940117 58002=
200809051953 METAR KPAE 051953Z 00000KT 10SM CLR 18/10 A3019 RMK AO2 SLP221 T01780100=
200809051853 METAR KPAE 051853Z VRB04KT 10SM BKN055 16/11 A3020 RMK AO2 SLP225 T01610111=
200809051753 METAR KPAE 051753Z VRB03KT 10SM OVC055 15/11 A3019 RMK AO2 SLP222 T01500106 10161 20106 55001=
200809051653 METAR KPAE 051653Z 03003KT 10SM CLR 14/10 A3018 RMK AO2 SLP220 T01440100=
200809051606 SPECI KPAE 051606Z 02003KT 3SM BR SCT002 SCT100 12/11 A3018 RMK AO2=
200809051606 SPECI KPAE 051606Z 02003KT 3SM BR SCT002 SCT100 12/11 A3018 RMK AO2=
200809051558 SPECI KPAE 051558Z VRB03KT 2SM BR OVC002 12/11 A3018 RMK AO2=
200809051558 SPECI KPAE 051558Z VRB03KT 2SM BR OVC002 12/11 A3018 RMK AO2=
200809051553 METAR KPAE 051553Z VRB03KT 3/4SM BR OVC002 12/11 A3018 RMK AO2 SLP221 T01170106 RVRNO=
200809051453 METAR KPAE 051453Z 01006KT 3/4SM BR OVC002 11/09 A3019 RMK AO2 SLP223 T01110094 53008 RVRNO=
200809051353 METAR KPAE 051353Z 01005KT 6SM BR BKN002 BKN049 11/09 A3018 RMK AO2 SLP220 T01110089=
200809051342 SPECI KPAE 051342Z VRB04KT 7SM SCT002 SCT050 11/09 A3017 RMK AO2=
200809051342 SPECI KPAE 051342Z VRB04KT 7SM SCT002 SCT050 11/09 A3017 RMK AO2=
200809051253 METAR KPAE 051253Z 03004KT 10SM CLR 11/08 A3017 RMK AO2 SLP216 T01060083=
200809051153 METAR KPAE 051153Z AUTO 02004KT 8SM CLR 11/09 A3017 RMK AO2 SLP214 T01110089 10122 20111 56006=
200809051053 METAR KPAE 051053Z AUTO 03005KT 10SM CLR 11/09 A3017 RMK AO2 SLP217 T01110089=
200809050953 METAR KPAE 050953Z AUTO 00000KT 10SM CLR 11/08 A3017 RMK AO2 SLP217 T01110078=
200809050853 METAR KPAE 050853Z AUTO 04004KT 10SM CLR 12/08 A3018 RMK AO2 SLP220 T01170083 50001=
200809050753 METAR KPAE 050753Z AUTO 04003KT 10SM CLR 12/09 A3019 RMK AO2 SLP223 T01220089 402000106=
200809050653 METAR KPAE 050653Z AUTO VRB04KT 10SM CLR 12/09 A3018 RMK AO2 SLP221 T01220094=
200809050553 METAR KPAE 050553Z AUTO 02005KT 10SM CLR 12/09 A3018 RMK AO2 SLP220 T01220089 10194 20122 50004=
200809050453 METAR KPAE 050453Z AUTO 02005KT 10SM CLR 13/09 A3019 RMK AO2 SLP221 T01280089=
200809050353 METAR KPAE 050353Z AUTO 31004KT 10SM CLR 14/08 A3018 RMK AO2 SLP220 T01440078=
200809050253 METAR KPAE 050253Z 33003KT 10SM CLR 16/09 A3017 RMK AO2 SLP216 T01610089 56005=
200809050153 METAR KPAE 050153Z 34003KT 10SM CLR 18/07 A3017 RMK AO2 SLP217 T01780072=
200809050053 METAR KPAE 050053Z 34003KT 10SM CLR 18/08 A3017 RMK AO2 SLP217 T01830083=
200809042353 METAR KPAE 042353Z VRB04KT 10SM CLR 19/08 A3018 RMK AO2 SLP220 T01940083 10200 20144 58009=
200809042253 METAR KPAE 042253Z VRB03KT 10SM CLR 19/09 A3020 RMK AO2 SLP224 T01940094=
200809042153 METAR KPAE 042153Z 33006KT 10SM CLR 19/08 A3020 RMK AO2 SLP226 T01940083=
200809042053 METAR KPAE 042053Z 32008KT 10SM CLR 19/07 A3021 RMK AO2 SLP229 T01890072 56008=
200809041953 METAR KPAE 041953Z 31007KT 10SM CLR 17/08 A3022 RMK AO2 SLP231 T01720083=
200809041853 METAR KPAE 041853Z 30005KT 10SM CLR 16/09 A3023 RMK AO2 SLP236 T01610094=
200809041753 METAR KPAE 041753Z 29006KT 10SM CLR 15/10 A3024 RMK AO2 SLP239 T01500100 10156 20106 55001=
200809041653 METAR KPAE 041653Z 00000KT 9SM FEW004 13/09 A3023 RMK AO2 SLP238 T01330094=
200809041553 METAR KPAE 041553Z VRB03KT 4SM BR SCT002 11/10 A3024 RMK AO2 SLP239 T01110100=
200809041539 SPECI KPAE 041539Z 33005KT 4SM BR SCT002 11/09 A3024 RMK AO2=
200809041539 SPECI KPAE 041539Z 33005KT 4SM BR SCT002 11/09 A3024 RMK AO2=
200809041532 SPECI KPAE 041532Z 34005KT 2SM BR OVC002 11/09 A3024 RMK AO2=
200809041532 SPECI KPAE 041532Z 34005KT 2SM BR OVC002 11/09 A3024 RMK AO2=
200809041504 SPECI KPAE 041504Z 01006KT 1/2SM FG OVC002 11/10 A3024 RMK AO2 RVRNO=
200809041504 SPECI KPAE 041504Z 01006KT 1/2SM FG OVC002 11/10 A3024 RMK AO2 RVRNO=
200809041457 SPECI KPAE 041457Z 36006KT 1 3/4SM BR OVC002 11/10 A3024 RMK AO2=
200809041457 SPECI KPAE 041457Z 36006KT 1 3/4SM BR OVC002 11/10 A3024 RMK AO2=
200809041453 METAR KPAE 041453Z VRB05KT 10SM OVC002 11/10 A3024 RMK AO2 SLP240 T01110100 53008=
200809041420 SPECI KPAE 041420Z 36003KT 10SM BKN002 11/09 A3023 RMK AO2=
200809041420 SPECI KPAE 041420Z 36003KT 10SM BKN002 11/09 A3023 RMK AO2=
200809041353 METAR KPAE 041353Z 36003KT 4SM BR FEW002 11/09 A3022 RMK AO2 SLP233 T01060094=
200809041340 SPECI KPAE 041340Z 00000KT 5SM BR FEW002 11/09 A3022 RMK AO2=
200809041340 SPECI KPAE 041340Z 00000KT 5SM BR FEW002 11/09 A3022 RMK AO2=
200809041253 METAR KPAE 041253Z 02003KT 10SM CLR 11/08 A3021 RMK AO2 SLP231 T01110083=
200809041153 METAR KPAE 041153Z AUTO VRB03KT 10SM SCT048 12/08 A3021 RMK AO2 SLP231 T01170083 10139 20117 55000=
200809041053 METAR KPAE 041053Z AUTO 00000KT 10SM CLR 13/08 A3022 RMK AO2 SLP231 T01280083=
200809040953 METAR KPAE 040953Z AUTO 04003KT 10SM OVC110 14/08 A3021 RMK AO2 SLP229 T01390078 TSNO=
200809040853 METAR KPAE 040853Z AUTO 02003KT 10SM OVC110 14/08 A3022 RMK AO2 SLP231 T01390083 51004=
200809040753 METAR KPAE 040753Z AUTO 00000KT 10SM OVC110 13/08 A3021 RMK AO2 SLP230 T01330083 401890100=
200809040653 METAR KPAE 040653Z AUTO 02004KT 10SM OVC120 13/08 A3021 RMK AO2 SLP230 T01280083=
200809040553 METAR KPAE 040553Z AUTO 35004KT 10SM CLR 13/09 A3020 RMK AO2 SLP228 T01280089 10183 20122 53003=
200809040453 METAR KPAE 040453Z AUTO 35003KT 10SM CLR 13/09 A3020 RMK AO2 SLP226 T01330089=
200809040353 METAR KPAE 040353Z AUTO 34004KT 10SM CLR 14/09 A3020 RMK AO2 SLP226 T01440089=
200809040253 METAR KPAE 040253Z 33004KT 10SM CLR 15/09 A3019 RMK AO2 SLP224 T01500089 55000=
200809040200 METAR KPAE NIL=
200809040153 METAR KPAE 040153Z 35005KT 10SM CLR 17/09 A3019 RMK AO2 SLP223 T01720089=
200809040053 METAR KPAE 040053Z VRB04KT 10SM CLR 18/09 A3020 RMK AO2 SLP225 T01780094=
200809032353 METAR KPAE 032353Z 36007KT 10SM CLR 18/09 A3020 RMK AO2 SLP225 T01830094 10189 20150 58010=
200809032253 METAR KPAE 032253Z 36006KT 10SM CLR 18/09 A3021 RMK AO2 SLP228 T01830094=
200809032153 METAR KPAE 032153Z 36007KT 10SM CLR 18/10 A3022 RMK AO2 SLP233 T01780100=
200809032053 METAR KPAE 032053Z 35006KT 10SM CLR 17/10 A3022 RMK AO2 SLP234 T01720100 56004=
200809031953 METAR KPAE 031953Z VRB05KT 10SM CLR 17/10 A3023 RMK AO2 SLP237 T01720100=
200809031853 METAR KPAE 031853Z VRB06KT 10SM CLR 16/10 A3023 RMK AO2 SLP236 T01560100=
200809031753 METAR KPAE 031753Z VRB06KT 10SM CLR 15/10 A3024 RMK AO2 SLP239 T01500100 10156 20100 53003=
200809031653 METAR KPAE 031653Z 00000KT 10SM FEW009 14/09 A3022 RMK AO2 SLP235 T01390089=
200809031553 METAR KPAE 031553Z 01003KT 6SM HZ SCT002 12/09 A3022 RMK AO2 SLP235 T01220094=
200809031453 METAR KPAE 031453Z 34004KT 5SM BR SCT002 OVC045 11/09 A3023 RMK AO2 SLP236 T01110094 53008=
200809031438 SPECI KPAE 031438Z 35004KT 5SM BR SCT002 OVC045 11/09 A3022 RMK AO2=
200809031438 SPECI KPAE 031438Z 35004KT 5SM BR SCT002 OVC045 11/09 A3022 RMK AO2=
200809031426 SPECI KPAE 031426Z 00000KT 3SM BR BKN002 OVC045 11/09 A3022 RMK AO2=
200809031426 SPECI KPAE 031426Z 00000KT 3SM BR BKN002 OVC045 11/09 A3022 RMK AO2=
200809031400 SPECI KPAE 031400Z VRB03KT 2 1/2SM BR OVC002 11/09 A3021 RMK AO2=
200809031400 SPECI KPAE 031400Z VRB03KT 2 1/2SM BR OVC002 11/09 A3021 RMK AO2=
200809031353 METAR KPAE 031353Z 36003KT 1 1/2SM BR OVC002 11/09 A3021 RMK AO2 SLP230 T01060094=
200809031348 SPECI KPAE 031348Z 35003KT 1 1/2SM BR OVC002 11/09 A3021 RMK AO2=
200809031348 SPECI KPAE 031348Z 35003KT 1 1/2SM BR OVC002 11/09 A3021 RMK AO2=
200809031344 SPECI KPAE 031344Z 35003KT 3SM BR OVC002 11/09 A3021 RMK AO2=
200809031344 SPECI KPAE 031344Z 35003KT 3SM BR OVC002 11/09 A3021 RMK AO2=
200809031307 SPECI KPAE 031307Z 00000KT 6SM BR FEW002 SCT042 BKN070 10/08 A3020 RMK AO2=
200809031307 SPECI KPAE 031307Z 00000KT 6SM BR FEW002 SCT042 BKN070 10/08 A3020 RMK AO2=
200809031253 METAR KPAE 031253Z AUTO 00000KT 7SM FEW044 BKN070 10/08 A3020 RMK AO2 SLP227 T01000083=
200809031153 METAR KPAE 031153Z AUTO 00000KT 10SM SCT040 11/08 A3020 RMK AO2 SLP228 T01060083 10122 20106 50001=
200809031053 METAR KPAE 031053Z AUTO 36003KT 10SM BKN075 11/09 A3021 RMK AO2 SLP229 T01110089=
200809030953 METAR KPAE 030953Z AUTO 35003KT 10SM BKN060 OVC075 12/08 A3020 RMK AO2 SLP227 T01170083=
200809030853 METAR KPAE 030853Z AUTO 36004KT 10SM BKN060 OVC075 12/08 A3020 RMK AO2 SLP226 T01220078 53006=
200809030753 METAR KPAE 030753Z AUTO 01004KT 10SM OVC070 12/07 A3020 RMK AO2 SLP225 T01220072 401830094=
200809030653 METAR KPAE 030653Z AUTO 01004KT 10SM OVC070 12/07 A3019 RMK AO2 SLP222 T01220072=
200809030553 METAR KPAE 030553Z AUTO 36004KT 10SM CLR 12/07 A3018 RMK AO2 SLP221 T01220072 10172 20117 50002=
200809030453 METAR KPAE 030453Z AUTO 00000KT 10SM CLR 12/08 A3019 RMK AO2 SLP223 T01220083=
200809030353 METAR KPAE 030353Z AUTO 34003KT 10SM CLR 13/08 A3018 RMK AO2 SLP221 T01280083=
200809030253 METAR KPAE 030253Z 00000KT 10SM CLR 15/08 A3018 RMK AO2 SLP219 T01500078 58001=
200809030153 METAR KPAE 030153Z 36005KT 10SM BKN100 16/08 A3018 RMK AO2 SLP219 T01610078=
200809030053 METAR KPAE 030053Z 35004KT 10SM BKN100 17/09 A3018 RMK AO2 SLP219 T01720089=
200809022353 METAR KPAE 022353Z VRB05KT 10SM OVC100 17/08 A3018 RMK AO2 SLP219 T01670083 10183 20144 55009=
200809022253 METAR KPAE 022253Z 01004KT 10SM FEW090 18/09 A3018 RMK AO2 SLP219 T01780089=
200809022153 METAR KPAE 022153Z 36003KT 10SM SCT110 17/09 A3020 RMK AO2 SLP227 T01720089=
200809022053 METAR KPAE 022053Z 29006KT 10SM CLR 17/10 A3021 RMK AO2 SLP229 T01720100 58010=
200809021953 METAR KPAE 021953Z 30005KT 10SM CLR 15/09 A3022 RMK AO2 SLP234 T01500094=
200809021853 METAR KPAE 021853Z 30005KT 10SM CLR 16/08 A3023 RMK AO2 SLP238 T01560078=
200809021753 METAR KPAE 021753Z 00000KT 10SM CLR 14/08 A3024 RMK AO2 SLP239 T01440078 10144 20094 57001=
200809021653 METAR KPAE 021653Z 00000KT 10SM CLR 13/08 A3024 RMK AO2 SLP239 T01330083=
200809021553 METAR KPAE 021553Z 03004KT 9SM CLR 12/08 A3024 RMK AO2 SLP240 T01170083=
200809021453 METAR KPAE 021453Z 03004KT 9SM CLR 11/08 A3024 RMK AO2 SLP240 T01060078 53001=
200809021353 METAR KPAE 021353Z 00000KT 5SM HZ CLR 10/07 A3023 RMK AO2 SLP238 T01000072=
200809021253 METAR KPAE 021253Z AUTO 00000KT 9SM CLR 10/07 A3023 RMK AO2 SLP236 T01000072=
200809021153 METAR KPAE 021153Z AUTO 02004KT 7SM CLR 10/08 A3024 RMK AO2 SLP239 T01000083 10122 20100 58001=
200809021053 METAR KPAE 021053Z AUTO 02003KT 7SM CLR 10/08 A3024 RMK AO2 SLP240 T01000083=
200809020953 METAR KPAE 020953Z AUTO 00000KT 6SM BR CLR 10/08 A3024 RMK AO2 SLP241 T01000083=
200809020853 METAR KPAE 020853Z AUTO 03003KT 9SM CLR 11/09 A3024 RMK AO2 SLP241 T01110089 56008=
200809020753 METAR KPAE 020753Z AUTO 06003KT 10SM CLR 12/09 A3024 RMK AO2 SLP241 T01170089 401890094=
200809020653 METAR KPAE 020653Z AUTO 02004KT 10SM CLR 11/08 A3026 RMK AO2 SLP247 T01110083=
200809020553 METAR KPAE 020553Z AUTO 02004KT 10SM OVC041 12/09 A3026 RMK AO2 SLP248 T01220089 10189 20122 51006=
200809020453 METAR KPAE 020453Z 11003KT 10SM BKN045 14/08 A3026 RMK AO2 SLP247 T01390078=
200809020353 METAR KPAE 020353Z 12003KT 10SM FEW043 14/08 A3026 RMK AO2 SLP246 T01390078=
200809020253 METAR KPAE 020253Z 10003KT 10SM CLR 15/08 A3025 RMK AO2 SLP242 T01500083 58001=
200809020153 METAR KPAE 020153Z 04003KT 10SM FEW048 16/08 A3026 RMK AO2 SLP245 T01560083=
200809020053 METAR KPAE 020053Z 36003KT 10SM BKN033 BKN042 17/08 A3026 RMK AO2 SLP245 T01720083=
200809012353 METAR KPAE 012353Z 00000KT 10SM BKN035 17/08 A3025 RMK AO2 SLP244 T01670078 10172 20128 58005=
200809012300 SPECI KPAE 012300Z 00000KT 10SM SCT030 BKN036 16/08 A3025 RMK AO2=
200809012300 SPECI KPAE 012300Z 00000KT 10SM SCT030 BKN036 16/08 A3025 RMK AO2=
200809012253 METAR KPAE 012253Z 21006KT 10SM BKN025 OVC031 16/08 A3026 RMK AO2 SLP246 T01560078=
200809012153 METAR KPAE 012153Z VRB03KT 10SM BKN025 OVC030 14/08 A3027 RMK AO2 SLP249 T01440083=
200809012053 METAR KPAE 012053Z 25004KT 10SM OVC021 13/08 A3027 RMK AO2 SLP250 T01330083 52008=
200809011953 METAR KPAE 011953Z 16006KT 10SM OVC019 14/08 A3026 RMK AO2 SLP247 T01390078=
200809011853 METAR KPAE 011853Z 18006KT 10SM OVC017 13/08 A3025 RMK AO2 SLP244 T01330078=
200809011800 SPECI KPAE 011800Z 22006KT 10SM OVC015 13/08 A3024 RMK AO2=
200809011800 SPECI KPAE 011800Z 22006KT 10SM OVC015 13/08 A3024 RMK AO2=
200809011753 METAR KPAE 011753Z 19009KT 10SM SCT005 OVC011 13/08 A3024 RMK AO2 SLP241 T01280078 10128 20094 53013=
200809011702 SPECI KPAE 011702Z 20008KT 10SM SCT005 OVC011 12/08 A3023 RMK AO2=
200809011702 SPECI KPAE 011702Z 20008KT 10SM SCT005 OVC011 12/08 A3023 RMK AO2=
200809011653 METAR KPAE 011653Z 20008KT 10SM OVC011 12/09 A3022 RMK AO2 SLP236 T01220089=
200809011607 SPECI KPAE 011607Z 19008KT 9SM SCT009 OVC013 12/09 A3021 RMK AO2=
200809011607 SPECI KPAE 011607Z 19008KT 9SM SCT009 OVC013 12/09 A3021 RMK AO2=
200809011553 METAR KPAE 011553Z 21005KT 3SM BR BKN009 OVC013 11/09 A3021 RMK AO2 CIG 006V012 SLP232 T01110094=
200809011500 SPECI KPAE 011500Z 20007KT 3SM BR OVC005 11/09 A3021 RMK AO2 CIG 003V009=
200809011500 SPECI KPAE 011500Z 20007KT 3SM BR OVC005 11/09 A3021 RMK AO2 CIG 003V009=
200809011453 METAR KPAE 011453Z 20006KT 2SM BR OVC005 11/09 A3020 RMK AO2 CIG 003V008 SLP228 T01110089 53016=
200809011430 SPECI KPAE 011430Z 19006KT 2SM BR OVC003 11/09 A3020 RMK AO2=
200809011430 SPECI KPAE 011430Z 19006KT 2SM BR OVC003 11/09 A3020 RMK AO2=
200809011420 SPECI KPAE 011420Z 19006KT 2SM BR OVC001 10/09 A3020 RMK AO2=
200809011420 SPECI KPAE 011420Z 19006KT 2SM BR OVC001 10/09 A3020 RMK AO2=
200809011409 SPECI KPAE 011409Z 18006KT 3SM BR OVC001 10/09 A3019 RMK AO2 CIG 001V005=
200809011409 SPECI KPAE 011409Z 18006KT 3SM BR OVC001 10/09 A3019 RMK AO2 CIG 001V005=
200809011351 METAR KPAE 011351Z AUTO 17006KT 1 3/4SM BR OVC001 10/09 A3019 RMK AO2 SLP222 T01000089=
200809011350 SPECI KPAE 011350Z AUTO 17007KT 1 3/4SM BR OVC001 10/09 A3018 RMK AO2=
200809011350 SPECI KPAE 011350Z AUTO 17007KT 1 3/4SM BR OVC001 10/09 A3018 RMK AO2=
200809011328 SPECI KPAE 011328Z AUTO 17007KT 4SM BR OVC001 10/09 A3018 RMK AO2=
200809011328 SPECI KPAE 011328Z AUTO 17007KT 4SM BR OVC001 10/09 A3018 RMK AO2=
200809011317 SPECI KPAE 011317Z AUTO 18006KT 2SM BR OVC001 10/09 A3017 RMK AO2=
200809011317 SPECI KPAE 011317Z AUTO 18006KT 2SM BR OVC001 10/09 A3017 RMK AO2=
200809011313 SPECI KPAE 011313Z AUTO 18006KT 1 3/4SM BR OVC003 10/09 A3017 RMK AO2=
200809011313 SPECI KPAE 011313Z AUTO 18006KT 1 3/4SM BR OVC003 10/09 A3017 RMK AO2=
200809011253 METAR KPAE 011253Z AUTO 16007KT 7SM BKN003 10/08 A3017 RMK AO2 SLP216 T01000083=
200809011238 SPECI KPAE 011238Z AUTO 17006KT 9SM SCT003 10/08 A3017 RMK AO2=
200809011238 SPECI KPAE 011238Z AUTO 17006KT 9SM SCT003 10/08 A3017 RMK AO2=
200809011153 METAR KPAE 011153Z AUTO 16003KT 10SM CLR 09/08 A3016 RMK AO2 SLP211 70001 T00940078 10122 20094 53010=
200809011053 METAR KPAE 011053Z AUTO 00000KT 10SM FEW055 10/08 A3014 RMK AO2 SLP208 T01000078=
200809010953 METAR KPAE 010953Z AUTO 00000KT 10SM SCT055 11/08 A3013 RMK AO2 SLP204 T01060083=
200809010853 METAR KPAE 010853Z AUTO 12004KT 9SM CLR 11/08 A3012 RMK AO2 SLP201 T01060078 51011=
200809010753 METAR KPAE 010753Z AUTO 12004KT 5SM BR CLR 10/08 A3011 RMK AO2 SLP199 T01000083 401670094=
200809010653 METAR KPAE 010653Z AUTO 07005KT 10SM CLR 12/07 A3011 RMK AO2 SLP195 T01170072=
200809010553 METAR KPAE 010553Z AUTO 05003KT 10SM CLR 12/07 A3009 RMK AO2 SLP190 T01220072 10167 20111 51011=
200809010453 METAR KPAE 010453Z 00000KT 10SM CLR 11/07 A3009 RMK AO2 SLP189 T01110072=
200809010353 METAR KPAE 010353Z 32003KT 10SM CLR 12/08 A3007 RMK AO2 SLP183 T01220078=
200809010253 METAR KPAE 010253Z 00000KT 10SM CLR 14/08 A3006 RMK AO2 SLP179 T01390078 53018=
200809010153 METAR KPAE 010153Z 36005KT 10SM CLR 15/08 A3003 RMK AO2 SLP168 T01500078=
200809010053 METAR KPAE 010053Z 34007KT 10SM CLR 16/08 A3001 RMK AO2 SLP163 T01610078=

# No short TAF reports from KPAE in databse.

###################################
#  large TAF from KPAE
###################################
200809302320 TAF KPAE 302320Z 010024 VRB03KT P6SM BKN140 FM0600 00000KT P6SM
                       SCT200 FM1400 00000KT P6SM BCFG SCT200
                      TEMPO 1417 1SM BR BKN001 FM1700 19003KT P6SM
                       SCT200=
200809301738 TAF KPAE 301738Z 301818 VRB03KT P6SM BKN140 FM2100 27004KT P6SM
                       BKN140 FM0400 VRB03KT P6SM SCT200 FM1400
                       00000KT P6SM VCFG SCT200 FM1700 VRB03KT
                       P6SM SCT200=
200809301129 TAF KPAE 301129Z 301212 00000KT P6SM SCT150 FM1800 24005KT P6SM
                       SCT200 FM2100 35004KT P6SM SCT200 FM0600
                       VRB03KT P6SM SKC=
200809300526 TAF KPAE 300526Z 300606 03005KT P6SM SKC FM1100 13003KT P6SM SKC
                       FM1800 24005KT P6SM SCT200 FM2100 35004KT
                       P6SM SCT200=
200809292320 TAF KPAE 292320Z 300024 36006KT P6SM SKC FM0400 VRB03KT P6SM SKC
                       FM1100 13003KT P6SM SKC FM1800 24005KT P6SM
                       BKN150=
200809291720 TAF KPAE 291720Z 291818 36006KT P6SM SKC FM2100 36010KT P6SM SKC
                       FM0100 36006KT P6SM SKC FM0400 VRB03KT P6SM
                       SKC=
200809291123 TAF KPAE 291123Z 291212 36006KT P6SM SKC FM0200 VRB03KT P6SM FEW150=
200809290523 TAF KPAE 290523Z 290606 36006KT P6SM SKC=
200809282320 TAF KPAE 282320Z 290024 34008KT P6SM SKC FM0600 04006KT P6SM SKC=
200809281722 TAF KPAE 281722Z 281818 36008KT P6SM SKC FM0600 04006KT P6SM SKC=
200809281606 KPAE 281606Z 281612 36004KT P6SM VCFG FEW002 FM1700 36008KT P6SM
                       SKC FM0200 02005KT P6SM SKC=
200809281332 KPAE 281332Z 281412 00000KT 4SM BR SCT001
                      TEMPO 1416 1/4SM FG VV001 FM1600 36006KT
                       4SM BR BKN004 FM1800 36009KT P6SM SKC FM0200
                       02005KT P6SM SKC=
200809281130 TAF KPAE 281130Z 281212 36004KT 1/4SM FG VV001 FM1600 36006KT 4SM
                       BR BKN004 FM1800 36009KT P6SM SKC FM0200
                       02005KT P6SM SKC=
200809281056 KPAE 281056Z 281106 36004KT 2SM BR SKC
                      TEMPO 1115 1/4SM FG VV001 FM1800 36009KT
                       P6SM SKC=
200809280857 KPAE 280857Z 280906 36004KT 4SM BR SKC FM1800 36009KT P6SM SKC=
200809280524 TAF KPAE 280524Z 280606 36004KT P6SM FEW200 FM1200 36004KT P6SM
                       VCFG SKC FM1800 36009KT P6SM SKC=
200809272320 TAF KPAE 272320Z 280024 VRB04KT P6SM SCT200 FM1200 00000KT P6SM
                       VCFG SCT002
                      TEMPO 1216 1/2SM FG VV002 FM1700 35005KT
                       P6SM SKC=
200809271720 TAF KPAE 271720Z 271818 VRB03KT P6SM SCT060 SCT200
                      TEMPO 1820 SCT015 BKN060 FM0400 04004KT P6SM
                       SCT200 FM1200 00000KT P6SM VCFG SCT002
                      TEMPO 1216 1/2SM FG VV002=
200809271557 KPAE 271557Z 271612 18006KT P6SM SCT020 BKN060
                      TEMPO 1618 BKN015 FM2000 31005KT P6SM SCT060
                       SCT200 FM0200 01006KT P6SM SCT200=
200809271402 KPAE 271402Z 271412 VRB03KT P6SM SCT020 BKN060
                      TEMPO 1517 BKN020 FM2000 31005KT P6SM SCT060
                       SCT200 FM0200 01006KT P6SM SCT200=
200809271129 TAF KPAE 271129Z 271212 VRB03KT P6SM BKN016 FM1400 VRB03KT P6SM
                       OVC009 FM1800 29005KT P6SM BKN015 BKN200
                       FM1900 32006KT P6SM FEW045 BKN200 FM0200
                       36006KT P6SM SCT200=
200809270955 KPAE 270955Z 271006 16005KT P6SM SCT020 BKN040 BKN120
                      TEMPO 1012 BKN020 OVC040 FM1200 16005KT P6SM
                       OVC010 FM1400 16005KT 2SM BR OVC005 FM1800
                       25005KT 6SM HZ BKN010 FM1900 32006KT P6SM
                       FEW035 SCT200=
200809270641 KPAE 270641Z 270706 VRB03KT P6SM SCT028 SCT060 OVC120
                      TEMPO 0710 BKN028 OVC060 FM1000 16005KT P6SM
                       BKN060 BKN120 FM1200 16005KT 6SM BR SCT005
                       SCT060
                      TEMPO 1214 BKN005 BKN060 FM1400 16005KT 2SM
                       BR OVC005 FM1800 25005KT 6SM HZ BKN010 FM1900
                       32006KT P6SM FEW035 SCT200=
200809270521 TAF KPAE 270521Z 270606 VRB03KT P6SM SCT120 OVC200 FM0800 VRB03KT
                       P6SM SCT060 OVC120 FM1000 16005KT P6SM BKN060
                       BKN120 FM1200 16005KT 6SM BR SCT005 SCT060
                       TEMPO 1214 BKN005 BKN060 FM1400 16005KT
                       2SM BR OVC005 FM1800 25005KT 6SM HZ BKN010
                       FM1900 32006KT P6SM FEW035 SCT200=
200809262320 TAF KPAE 262320Z 270024 34006KT P6SM FEW050 BKN200 FM0300 36006KT
                       P6SM SCT200 FM1100 14005KT 3SM BR OVC009
                       TEMPO 1216 1SM BR OVC004 FM1800 16005KT
                       6SM BR BKN018 FM2000 28006KT P6SM BKN025
                       FM2200 30007KT P6SM SCT045 SCT200=
200809261736 TAF KPAE 261736Z 261818 VRB03KT P6SM VCFG SCT006 SCT050 BKN200
                       FM2000 34006KT P6SM FEW050 BKN200 FM0300
                       36006KT P6SM SCT200 FM1100 14005KT 3SM BR
                       OVC009
                      TEMPO 1216 1SM BR OVC004 FM1700 16005KT 6SM
                       BR BKN018=
200809261325 KPAE 261325Z 261312 11005KT P6SM FEW005 BKN030
                      TEMPO 1317 4SM BR SCT003 OVC022 FM1700 12005KT
                       P6SM SCT020 BKN035 FM2000 31006KT P6SM FEW025
                       SCT050 BKN200 FM0300 VRB03KT P6SM SCT120
                       OVC200 FM0900 VRB03KT P6SM FEW015 OVC120=
200809261144 TAF KPAE 261144Z 261212 11005KT 5SM BR SCT003 OVC022
                      TEMPO 1214 2SM BR BKN003 OVC022 FM1400 11005KT
                       2SM BR BKN003 OVC012 FM1800 VRB03KT 6SM
                       HZ BKN009 OVC015 FM2000 31006KT P6SM FEW025
                       SCT050 BKN200 FM0300 VRB03KT P6SM SCT120
                       OVC200 FM0900 VRB03KT P6SM FEW015 OVC120=
200809260956 KPAE 260956Z 261006 VRB03KT P6SM SCT004 OVC025
                      TEMPO 1012 5SM BR BKN004 OVC012 FM1200 VRB03KT
                       1/2SM FG VV001
                      TEMPO 1216 1/4SM FG FM1800 VRB03KT 2SM BR
                       OVC006 FM2000 VRB03KT 6SM HZ BKN012 BKN050
                       BKN200 FM2100 VRB03KT P6SM FEW020 SCT050
                       BKN200 FM0000 VRB03KT P6SM FEW030 SCT050
                       OVC200=
200809260540 TAF KPAE 260540Z 260606 14006KT P6SM OVC010 FM0900 VRB03KT 3SM
                       BR OVC006 FM1200 VRB03KT 1/2SM FG VV001
                       TEMPO 1216 1/4SM FG FM1800 VRB03KT 2SM BR
                       OVC006 FM2000 VRB03KT 6SM HZ BKN012 BKN050
                       BKN200 FM2100 VRB03KT P6SM FEW020 SCT050
                       BKN200 FM0000 VRB03KT P6SM FEW030 SCT050
                       OVC200=
200809260247 TAF AMD KPAE 260247Z 260324 VRB03KT 5SM BR SCT007 OVC020
                      TEMPO 0306 3SM -DZ BR BKN007 OVC020 FM0600
                       VRB03KT 5SM BR OVC015
                      TEMPO 1316 1SM BR OVC006 FM1900 34006KT P6SM
                       SCT012 BKN050=
200809252325 TAF KPAE 252325Z 260024 17012KT P6SM SCT025 BKN050
                      TEMPO 0003 -SHRA BKN025 FM0600 VRB03KT P6SM
                       SCT020 BKN050 FM1000 VRB03KT P6SM OVC010
                       TEMPO 1316 1SM BR OVC006 FM1900 34006KT
                       P6SM SCT012 BKN050=
200809252300 KPAE 260247Z 260324 VRB03KT 5SM BR SCT007 OVC020
                      TEMPO 0306 3SM -DZ BR BKN007 OVC020 FM0600
                       VRB03KT 5SM BR OVC015
                      TEMPO 1316 1SM BR OVC006 FM1900 34006KT P6SM
                       SCT012 BKN050=
200809251723 TAF KPAE 251723Z 251818 18014G20KT P6SM -SHRA BKN025 OVC050 FM2000
                       18012G18KT P6SM SCT025 BKN050 FM0600 VRB03KT
                       P6SM SCT020 BKN050 FM1000 VRB03KT P6SM OVC010
                       TEMPO 1316 1SM BR OVC006=
200809251426 KPAE 251426Z 251412 18014KT P6SM FEW015 OVC100
                      TEMPO 1416 BKN015 FM1600 18010KT P6SM SCT025
                       OVC050
                      TEMPO 1620 -SHRA BKN020 FM2000 18006KT P6SM
                       SCT025 BKN050
                      PROB30 0003 -SHRA BKN025 OVC050 FM0600 VRB03KT
                       P6SM BKN020 BKN050 FM0900 VRB03KT P6SM OVC012=
200809251130 TAF KPAE 251130Z 251212 18014KT P6SM FEW012 SCT025
                      TEMPO 1215 -RA FEW012 BKN025 FM1500 18014KT
                       P6SM -RA SCT006 OVC012
                      TEMPO 1519 4SM -RA BR BKN006 OVC012 FM2100
                       18010KT P6SM BKN018 OVC035
                      TEMPO 2124 -SHRA FM0000 18006KT P6SM SCT025
                       BKN050
                      PROB30 0003 -SHRA BKN025 OVC050 FM0600 VRB03KT
                       P6SM BKN020 BKN050 FM0900 VRB03KT P6SM OVC012=
200809251029 KPAE 251029Z 251006 18014KT P6SM SCT025
                      TEMPO 1012 18012G22KT BKN025 FM1200 18014KT
                       P6SM -RA OVC015 FM1800 18010KT P6SM -SHRA
                       BKN015 OVC030 FM2100 20007KT P6SM -SHRA
                       BKN020 OVC035 FM0000 VRB04KT P6SM SCT025
                       BKN050
                      PROB30 0003 -SHRA=
200809250525 TAF KPAE 250525Z 250606 15009KT P6SM BKN030 OVC045
                      TEMPO 0608 -RA FM0800 18014KT P6SM -RA OVC025
                       FM1200 18014KT P6SM -RA OVC015 FM1800 18010KT
                       P6SM -SHRA BKN015 OVC030 FM2100 20007KT
                       P6SM -SHRA BKN020 OVC035 FM0000 VRB04KT
                       P6SM SCT025 BKN050
                      PROB30 0003 -SHRA=
200809250243 TAF AMD KPAE 250243Z 250324 15008KT P6SM OVC035
                      TEMPO 0306 -RA FM0600 16012KT P6SM -SHRA
                       SCT022 OVC040 FM0900 17012G22KT P6SM -SHRA
                       BKN018 OVC025=
200809250133 TAF AMD KPAE 250133Z 250224 17012KT P6SM -RA BKN040 OVC050
                      TEMPO 0205 5SM -RA BR BKN020 OVC035 FM0500
                       16012KT P6SM -SHRA SCT022 OVC040 FM0900
                       17012G22KT P6SM -SHRA BKN018 OVC025=
200809242356 TAF KPAE 242356Z 250024 23012KT P6SM -RA SCT020 OVC035
                      TEMPO 0004 5SM -RA BR BKN020 OVC035 FM0500
                       16012KT P6SM -SHRA SCT022 OVC040 FM0900
                       17012G22KT P6SM -SHRA BKN018 OVC025=
200809242325 KPAE 242325Z 242318 23012G22KT P6SM -RA SCT020 OVC035
                      TEMPO 0004 5SM -RA BR BKN020 OVC035 FM0500
                       16012KT P6SM -SHRA SCT022 OVC040 FM0900
                       17012G22KT P6SM -SHRA BKN018 OVC025=
200809242300 KPAE 250243Z 250324 15008KT P6SM OVC035
                      TEMPO 0306 -RA FM0600 16012KT P6SM -SHRA
                       SCT022 OVC040 FM0900 17012G22KT P6SM -SHRA
                       BKN018 OVC025=
200809241737 TAF KPAE 241737Z 241818 10004KT P6SM BKN100 OVC160 FM2100 14008KT
                       P6SM BKN050 OVC100 FM2300 15014G22KT P6SM
                       -RA SCT020 OVC035
                      TEMPO 2303 5SM -RA BR BKN020 OVC035 FM0500
                       16012KT P6SM -SHRA SCT022 OVC040 FM0900
                       17012G22KT P6SM -SHRA BKN018 OVC025=
200809241125 TAF KPAE 241125Z 241212 10004KT P6SM BKN100 OVC160 FM1600 14008KT
                       P6SM BKN050 OVC100 FM2000 15014G22KT P6SM
                       -RA SCT020 OVC035
                      TEMPO 2101 5SM -RA BR BKN020 OVC035 FM0300
                       16012KT P6SM -SHRA SCT022 OVC040=
200809240537 TAF KPAE 240537Z 240606 00000KT P6SM SCT100 OVC200 FM1200 13006KT
                       P6SM BKN070 OVC100 FM2000 15014G22KT P6SM
                       -RA SCT020 OVC035
                      TEMPO 2101 5SM -RA BR BKN020 OVC035 FM0100
                       16012KT P6SM -SHRA SCT022 OVC040=
200809232347 TAF KPAE 232347Z 240024 33005KT P6SM OVC250 FM0400 04004KT P6SM
                       OVC120 FM1200 10004KT P6SM BKN070 OVC100
                       FM1800 15008KT 5SM -RA BKN030 OVC070
                      TEMPO 1822 3SM RA OVC020=
200809231729 TAF KPAE 231729Z 231818 33005KT P6SM SKC FM2000 35005KT P6SM OVC250
                       FM0400 04004KT P6SM OVC120 FM1300 12006KT
                       P6SM BKN070 OVC100=
200809231131 TAF KPAE 231131Z 231212 00000KT P6SM SKC FM1300 04003KT P6SM SCT001
                       TEMPO 1316 3SM BR BKN001 FM1700 33005KT
                       P6SM SCT045 FM2000 35005KT P6SM OVC250 FM0400
                       04004KT P6SM OVC120=
200809230959 KPAE 230959Z 231006 08003KT P6SM BKN045
                      TEMPO 1013 SCT045 FM1300 04003KT P6SM SCT002
                       SCT045
                      TEMPO 1316 BKN002 BKN045 FM1700 33005KT P6SM
                       SCT045 FM2000 35005KT P6SM OVC250 FM0400
                       04004KT P6SM OVC120=
200809230615 TAF KPAE 230615Z 230606 02004KT P6SM FEW045 FM1000 VRB03KT 3SM
                       BR SCT001 FM1100 00000KT 1/2SM FG VV001
                       FM1800 33006KT P6SM FEW010 FM2000 36006KT
                       P6SM SKC=
200809222320 TAF KPAE 222320Z 230024 36006KT P6SM SCT060 FM0400 03004KT P6SM
                       SKC FM0900 03004KT 5SM BR SKC FM1000 VRB03KT
                       3SM BR SCT001 FM1100 00000KT 1/2SM FG VV001
                       FM1800 33006KT P6SM FEW010 FM2000 36006KT
                       P6SM SKC=
200809221720 TAF KPAE 221720Z 221818 VRB04KT P6SM BKN015 OVC030 FM2000 31007KT
                       P6SM SCT025 BKN040 FM0200 02004KT P6SM SKC
                       FM0900 02003KT 2SM BR SCT001
                      TEMPO 1012 1/2SM FG VV001=
200809221137 TAF KPAE 221137Z 221212 VRB04KT P6SM -SHRA SCT012 BKN022 OVC040
                       TEMPO 1216 3SM -SHRA BR OVC010 FM1800 VRB04KT
                       P6SM BKN015 OVC030 FM2100 31007KT P6SM SCT025
                       BKN040 FM0200 02004KT P6SM SKC=
200809220534 TAF KPAE 220534Z 220606 VRB04KT P6SM -SHRA BKN005 OVC060
                      TEMPO 0711 SCT005 BKN060 FM1100 16006KT P6SM
                       VCSH SCT005 OVC012
                      TEMPO 1317 OVC005 FM1800 19008KT P6SM BKN015
                       OVC030 FM2200 33007KT P6SM SCT025 BKN045=
200809212320 TAF KPAE 212320Z 220024 22003KT P6SM SCT030 BKN080 FM0200 VRB03KT
                       P6SM VCSH BKN035 OVC080 FM0600 VRB03KT P6SM
                       VCSH SCT008 OVC025
                      TEMPO 0610 4SM -SHRA BKN008 OVC025 FM2000
                       VRB03KT P6SM VCSH SCT022 BKN035=
200809212302 KPAE 212302Z 212318 22003KT P6SM SCT035 SCT080 FM0200 VRB03KT P6SM
                       VCSH BKN035 OVC080 FM0600 VRB03KT P6SM VCSH
                       SCT008 OVC025
                      TEMPO 0610 4SM -SHRA BKN008 OVC025=
200809212003 KPAE 212003Z 212018 23006KT P6SM VCSH SCT006 BKN020 OVC070
                      TEMPO 2023 4SM -SHRA BKN006 OVC020 FM2300
                       18008KT P6SM -SHRA SCT010 OVC025
                      TEMPO 2303 4SM -SHRA BR OVC008 FM0400 VRB03KT
                       3SM -RA BR OVC008 FM1500 VRB03KT P6SM -SHRA
                       SCT004 OVC010=
200809211733 TAF KPAE 211733Z 211818 24007KT 5SM -RA BR SCT003 BKN010 OVC025
                       TEMPO 1822 1SM -RA BR OVC003 FM2300 18008KT
                       P6SM -SHRA SCT010 OVC025
                      TEMPO 2303 4SM -SHRA BR OVC008 FM0400 VRB03KT
                       3SM -RA BR OVC008 FM1500 VRB03KT P6SM -SHRA
                       SCT004 OVC010=
200809211601 KPAE 211601Z 211612 17006KT P6SM SCT005 OVC030
                      TEMPO 1620 1SM -SHRA BR BKN003 OVC030 FM2000
                       18008KT P6SM -SHRA SCT013 OVC023
                      TEMPO 2024 4SM -SHRA BR OVC012 FM0400 VRB04KT
                       P6SM VCSH BKN035=
200809211137 TAF KPAE 211137Z 211212 17003KT 5SM BR SCT010 OVC035
                      TEMPO 1216 2SM -RA BR OVC008 FM1600 17006KT
                       P6SM SCT010 OVC020
                      TEMPO 1618 2SM -RA BR OVC010 FM2000 18008KT
                       P6SM -SHRA SCT013 OVC023
                      TEMPO 2024 4SM -SHRA BR OVC012 FM0400 VRB04KT
                       P6SM VCSH BKN035=
200809210539 TAF KPAE 210539Z 210606 00000KT P6SM SCT012 BKN025 OVC050
                      TEMPO 0610 3SM -RA BR OVC012 FM1000 16007KT
                       P6SM OVC010
                      TEMPO 1014 2SM -RA BR OVC004 FM2000 16008KT
                       P6SM SCT013 OVC023
                      TEMPO 2024 4SM -SHRA BR OVC012 FM0000 18005KT
                       P6SM VCSH BKN035=
200809202329 TAF KPAE 202329Z 210024 00000KT P6SM -RA SCT012 OVC040
                      TEMPO 0003 3SM -RA BR SCT008 OVC012 FM0300
                       16004KT P6SM SCT015 BKN025 FM1200 16007KT
                       P6SM OVC010 FM2000 16008KT P6SM SCT015 OVC030
                       TEMPO 2024 -RA BKN015 OVC030=
200809201825 KPAE 201825Z 201818 00000KT P6SM OVC030
                      TEMPO 1822 4SM -RA BR BKN008 OVC030 FM2200
                       18005KT P6SM BKN025 BKN045 FM0900 16007KT
                       P6SM OVC015 FM1200 16007KT 4SM -RA BR SCT006
                       OVC010=
200809201727 TAF KPAE 201727Z 201818 00000KT 5SM -RA BR OVC025 FM2200 18005KT
                       P6SM BKN025 BKN045 FM0900 16007KT P6SM OVC015
                       FM1200 16007KT 4SM -RA BR SCT006 OVC010=
200809201236 KPAE 201236Z 201312 VRB03KT 5SM BR SCT015 OVC035
                      TEMPO 1317 3SM -RA BR BKN015 OVC030 FM1900
                       VRB03KT P6SM OVC025 FM2100 18005KT P6SM
                       BKN025 BKN045 FM0000 17005KT P6SM SCT025
                       OVC050 FM0400 16005KT P6SM VCSH SCT020 OVC040=
200809201140 TAF KPAE 201140Z 201212 00000KT 6SM BR SCT007 OVC025 FM1300 17003KT
                       P6SM SCT006 OVC014
                      TEMPO 1317 3SM -RA BR BKN004 OVC009 FM1900
                       VRB03KT P6SM OVC018 FM2100 18005KT P6SM
                       BKN025 BKN045 FM0000 17005KT P6SM SCT025
                       OVC050 FM0400 16005KT P6SM VCSH SCT020 OVC040=
200809200522 TAF KPAE 200522Z 200606 00000KT P6SM OVC021 FM1000 VRB03KT P6SM
                       OVC015 FM1300 VRB03KT 3SM -DZ BR BKN004
                       OVC007 FM1900 VRB03KT P6SM OVC011 FM2100
                       18005KT P6SM BKN025 BKN045 FM0000 17005KT
                       P6SM SCT025 OVC050=
200809192320 TAF KPAE 192320Z 200024 00000KT P6SM OVC020 FM1000 VRB03KT P6SM
                       OVC015 FM1300 VRB03KT 3SM -DZ BR BKN004
                       OVC007 FM1900 VRB03KT P6SM OVC011 FM2100
                       18005KT P6SM BKN025 BKN045=
200809192029 KPAE 192029Z 192018 01004KT 5SM BR OVC009 FM2130 36004KT P6SM OVC016
                       FM2300 32004KT P6SM BKN022 BKN100 FM0700
                       VRB03KT P6SM OVC015 FM1300 VRB03KT 2SM -DZ
                       BR BKN002 OVC007=
200809191721 TAF KPAE 191721Z 191818 00000KT 1SM -DZ BR OVC004 FM1900 VRB03KT
                       4SM BR BKN008 OVC015 FM2000 VRB03KT P6SM
                       OVC017 FM2300 32004KT P6SM BKN022 BKN100
                       FM0700 VRB03KT P6SM OVC015 FM1300 VRB03KT
                       2SM -DZ BR BKN002 OVC007=
200809191637 KPAE 191637Z 191712 00000KT 2SM BR BKN004 OVC009 FM1800 32004KT
                       P6SM OVC015
                      TEMPO 1820 5SM BR FM2200 32006KT P6SM BKN021
                       BKN100 FM0800 31004KT P6SM OVC024=
200809191428 KPAE 191428Z 191412 00000KT 1 1/2SM BR OVC004
                      TEMPO 1416 3SM BR OVC009 FM1600 33006KT P6SM
                       OVC012 FM2200 32006KT P6SM BKN021 BKN100
                       FM0800 31004KT P6SM OVC024=
200809191136 TAF KPAE 191136Z 191212 VRB03KT 6SM BR OVC011
                      TEMPO 1215 3SM BR OVC009 FM1900 33006KT P6SM
                       OVC019 FM2200 32006KT P6SM BKN025 BKN100
                       FM0800 31004KT P6SM OVC024=
200809190540 TAF KPAE 190540Z 190606 VRB04KT P6SM OVC014 FM1900 33006KT P6SM
                       OVC020 FM2200 32006KT P6SM BKN025 BKN100
                       FM0400 31004KT P6SM OVC024=
200809182330 TAF KPAE 182330Z 190024 24006KT P6SM OVC015 FM0700 VRB05KT P6SM
                       OVC012 FM1900 25006KT P6SM OVC020 FM2200
                       28006KT P6SM BKN025 BKN100=
200809182027 KPAE 182027Z 182018 22005KT P6SM OVC010 FM2300 VRB05KT P6SM BKN015
                       FM0800 18005KT P6SM OVC015=
200809181736 TAF KPAE 181736Z 181818 20005KT P6SM BKN007 OVC012 FM2100 23006KT
                       P6SM BKN020 FM2300 VRB05KT P6SM SCT025 FM0500
                       VRB05KT P6SM BKN015 FM0800 18005KT P6SM
                       OVC015=
200809181510 KPAE 181510Z 181512 20007KT 6SM BR OVC006
                      TEMPO 1517 2SM BR OVC004 FM1700 20005KT P6SM
                       OVC010 FM1900 22007KT P6SM BKN014 FM2100
                       22006KT P6SM SCT250 FM0700 19006KT P6SM
                       BKN012=
200809181135 TAF KPAE 181135Z 181212 20007KT 6SM BR OVC006
                      TEMPO 1215 5SM BR FM1700 20005KT P6SM OVC010
                       FM1900 22007KT P6SM BKN014 FM2100 22006KT
                       P6SM SCT250 FM0700 19006KT P6SM BKN012=
200809180539 TAF KPAE 180539Z 180606 00000KT P6SM SKC
                      TEMPO 0709 3SM BR OVC004 FM0900 VRB02KT P6SM
                       OVC004
                      TEMPO 1316 OVC008 FM1700 20005KT P6SM BKN011
                       FM2000 22007KT P6SM SCT250=
200809172339 TAF KPAE 172339Z 180024 34005KT P6SM FEW150 SCT250 FM0300 VRB05KT
                       P6SM SCT250
                      TEMPO 0610 BKN011 FM1000 15005KT P6SM OVC008
                       TEMPO 1216 OVC005 FM2000 22007KT P6SM BKN030=
200809171729 TAF KPAE 171729Z 171818 00000KT P6SM BKN250 FM2100 32006KT P6SM
                       FEW050 SCT150 BKN250 FM0300 15006KT P6SM
                       SCT120
                      TEMPO 0912 BKN010 FM1200 13005KT P6SM OVC010=
200809171138 TAF KPAE 171138Z 171212 00000KT P6SM SCT250 FM1700 VRB04KT P6SM
                       SCT250 FM2200 32006KT P6SM SCT120 FM1000
                       22006KT P6SM SCT120=
200809170532 TAF KPAE 170532Z 170606 00000KT P6SM SCT120 FM1400 19004KT P6SM
                       VCFG SKC FM1700 24006KT P6SM SKC FM2100
                       26006KT P6SM FEW050 FM0500 22006KT P6SM
                       SCT120=
200809162339 TAF KPAE 162339Z 170024 34006KT P6SM FEW150 FM0600 VRB05KT P6SM
                       SKC FM1400 VRB05KT P6SM VCFG SKC FM1700
                       24006KT P6SM SKC FM2100 26006KT P6SM FEW050=
200809161726 TAF KPAE 161726Z 161818 35005KT P6SM SKC FM0900 VRB05KT P6SM SKC
                       FM1400 24005KT P6SM VCFG SKC=
200809161138 TAF KPAE 161138Z 161212 VRB03KT P6SM SKC
                      TEMPO 1216 3SM BR SCT002 FM1700 35005KT P6SM
                       SKC FM1000 19005KT P6SM SKC=
200809160521 TAF KPAE 160521Z 160606 00000KT P6SM SKC FM1200 00000KT P6SM VCFG
                       SKC FM1700 35005KT P6SM SKC=
200809152324 TAF KPAE 152324Z 160024 34003KT P6SM SKC FM1200 00000KT P6SM VCFG
                       SKC=
200809151720 TAF KPAE 151720Z 151818 00000KT P6SM SKC FM1900 34005KT P6SM SKC
                       FM1200 00000KT P6SM VCFG SKC=
200809151120 TAF KPAE 151120Z 151212 01006KT P6SM SKC=
200809150520 TAF KPAE 150520Z 150606 02006KT P6SM SKC=
200809142330 TAF KPAE 142330Z 150024 36006KT P6SM SKC FM0400 VRB03KT P6SM VCFG
                       SKC FM1700 36005KT P6SM SKC=
200809141721 TAF KPAE 141721Z 141818 VRB03KT P6SM SKC FM2000 34005KT P6SM SKC
                       FM0400 VRB03KT P6SM VCFG SKC=
200809141120 TAF KPAE 141120Z 141212 02006KT P6SM SKC=
200809140520 TAF KPAE 140520Z 140606 02008KT P6SM SKC=
200809132331 TAF KPAE 132331Z 140024 35003KT P6SM SKC FM0900 VRB03KT 2SM BR
                       SKC FM1800 34005KT P6SM SKC=
200809131734 TAF KPAE 131734Z 131818 01004KT P6SM SKC FM2000 34007KT P6SM SKC
                       FM0900 VRB03KT 2SM BR SKC=
200809131350 KPAE 131350Z 131412 00000KT P6SM BCFG SCT001
                      TEMPO 1416 1/2SM FG OVC001 FM1700 30004KT
                       P6SM SKC FM2000 34007KT P6SM SKC=
200809131120 TAF KPAE 131120Z 131212 00000KT P6SM SKC
                      TEMPO 1216 2SM BR SCT002 FM2000 34007KT P6SM
                       SKC=
200809130520 TAF KPAE 130520Z 130606 35004KT P6SM SKC
                      TEMPO 1216 2SM BR SCT002 FM2000 34004KT P6SM
                       SKC=
200809122332 TAF KPAE 122332Z 130024 34009KT P6SM SKC FM0600 04004KT P6SM SKC
                       FM2000 34004KT P6SM SKC=
200809121730 TAF KPAE 121730Z 121818 00000KT P6SM SKC FM2100 34008KT P6SM SKC
                       FM0600 04004KT P6SM SKC=
200809121414 KPAE 121414Z 121412 35003KT 1SM BR BKN001
                      TEMPO 1416 3SM BR SCT003 FM2000 34008KT P6SM
                       SCT070 FM0600 04004KT P6SM SKC=
200809121120 TAF KPAE 121120Z 121212 VRB03KT P6SM FEW200
                      TEMPO 1316 3SM BR SCT003 FM2000 34008KT P6SM
                       SCT070 FM0600 04004KT P6SM SKC=
200809120520 TAF KPAE 120520Z 120606 VRB04KT P6SM SKC
                      TEMPO 1216 2SM BR FM2100 32010KT P6SM SCT100=
200809112326 TAF KPAE 112326Z 120024 01006KT P6SM SKC FM0600 01003KT P6SM SKC
                       FM1200 01003KT P6SM VCFG SCT002 FM1700 01003KT
                       P6SM SKC FM2000 32007KT P6SM SKC=
200809111731 TAF KPAE 111731Z 111818 01003KT P6SM SKC FM2000 34006KT P6SM SKC
                       FM0600 01003KT P6SM SKC FM1200 01003KT P6SM
                       VCFG SCT002
                      TEMPO 1316 2SM BR BKN002=
200809111120 TAF KPAE 111120Z 111212 01003KT P6SM SKC FM2000 34006KT P6SM SKC=
200809110520 TAF KPAE 110520Z 110606 00000KT P6SM SKC FM2000 34006KT P6SM SKC=
200809102321 TAF KPAE 102321Z 110024 36006KT P6SM SKC FM0300 02003KT P6SM SKC
                       FM2000 34006KT P6SM SKC=
200809101720 TAF KPAE 101720Z 101818 01003KT P6SM SKC FM2000 35007KT P6SM SKC
                       FM0300 02003KT P6SM SKC=
200809101122 TAF KPAE 101122Z 101212 00000KT P6SM SKC FM1800 35007KT P6SM SKC=
200809100522 TAF KPAE 100522Z 100606 02005KT P6SM SKC FM1800 35007KT P6SM SKC=
200809092326 TAF KPAE 092326Z 100024 34007KT P6SM SKC FM0400 01005KT P6SM SKC
                       FM1700 34006KT P6SM SKC=
200809091722 TAF KPAE 091722Z 091818 34008KT P6SM SKC FM0400 01005KT P6SM SKC=
200809091120 TAF KPAE 091120Z 091212 01008KT P6SM SCT250 FM1700 31005KT P6SM
                       SKC FM2100 31008KT P6SM SKC FM0400 35005KT
                       P6SM SKC=
200809090520 TAF KPAE 090520Z 090606 36005KT P6SM SCT250 FM1500 29004KT P6SM
                       SKC FM2000 34009KT P6SM SKC=
200809082328 TAF KPAE 082328Z 090024 35008KT P6SM SCT250 FM0300 36005KT P6SM
                       SCT250 FM1500 VRB05KT P6SM SKC FM1900 34009KT
                       P6SM SKC=
200809081733 TAF KPAE 081733Z 081818 35008KT P6SM SCT250 FM0300 36005KT P6SM
                       SCT250 FM1500 VRB05KT P6SM SKC=
200809081120 TAF KPAE 081120Z 081212 01003KT P6SM SKC FM1900 31005KT P6SM SKC
                       FM0300 34004KT P6SM SCT200=
200809080520 TAF KPAE 080520Z 080606 36006KT P6SM SKC FM2200 31009KT P6SM SKC=
200809072330 TAF KPAE 072330Z 080024 34008KT P6SM FEW200 FM0300 36006KT P6SM
                       SKC FM2200 31009KT P6SM SKC=
200809071731 TAF KPAE 071731Z 071818 36004KT P6SM OVC008
                      TEMPO 1819 SCT010 FM1900 36008KT P6SM SKC=
200809071702 KPAE 071702Z 071712 36004KT P6SM OVC008
                      TEMPO 1718 SCT010 FM1800 36005KT P6SM SKC
                       FM2000 35008KT P6SM SKC=
200809071351 KPAE 071351Z 071412 36004KT P6SM VCFG OVC005
                      TEMPO 1417 4SM BR BKN002 OVC005 FM1700 36005KT
                       P6SM SKC FM2000 35008KT P6SM SKC=
200809071238 KPAE 071238Z 071312 36004KT P6SM VCFG BKN009
                      TEMPO 1315 00000KT 1/2SM FG BKN001 BKN009
                       FM1600 36005KT P6SM SKC FM2000 35008KT P6SM
                       SKC=
200809071120 TAF KPAE 071120Z 071212 02004KT P6SM VCFG FEW001
                      TEMPO 1315 00000KT 1/2SM FG VV001 FM1600
                       36005KT P6SM SKC FM2000 35008KT P6SM SKC=
200809070520 TAF KPAE 070520Z 070606 36006KT P6SM SKC FM1100 02004KT P6SM VCFG
                       FEW002 FM1300 02004KT 1SM BR OVC002
                      TEMPO 1317 1/4SM FG VV001 FM1700 36005KT
                       P6SM FEW008 FM2000 35008KT P6SM SKC=
200809062320 TAF KPAE 062320Z 070024 34007KT P6SM FEW020 FM0200 36006KT P6SM
                       SKC FM1100 02004KT P6SM VCFG FEW002 FM1300
                       02004KT 1SM BR OVC002
                      TEMPO 1317 1/4SM FG VV001 FM1700 36005KT
                       P6SM FEW008 FM2000 35008KT P6SM SKC=
200809061732 TAF KPAE 061732Z 061818 00000KT P6SM FEW008 OVC040 FM2000 32005KT
                       P6SM SCT050 FM0200 36006KT P6SM SKC FM1100
                       02004KT P6SM VCFG FEW002 FM1300 02004KT
                       1SM BR OVC002
                      TEMPO 1317 1/4SM FG VV001 FM1700 36005KT
                       P6SM FEW008=
200809061500 KPAE 061500Z 061512 VRB03KT 4SM BR OVC001 FM1630 35004KT P6SM SCT010
                       OVC050 FM2000 32005KT P6SM SCT050 SCT080
                       FM0200 34006KT P6SM SCT200=
200809061120 TAF KPAE 061120Z 061212 01004KT P6SM SCT001 OVC050
                      TEMPO 1215 4SM BR BKN001 OVC050 FM1600 35004KT
                       P6SM OVC050 FM2000 32005KT P6SM SCT050 SCT080
                       FM0200 34006KT P6SM SCT200=
200809060853 KPAE 060853Z 060906 01006KT P6SM SCT001 BKN070
                      TEMPO 0911 BKN001 OVC070 FM1200 01003KT P6SM
                       BKN035 BKN070 FM2000 33005KT P6SM SCT040
                       SCT080 FM0200 34006KT P6SM SCT200=
200809060536 TAF KPAE 060536Z 060606 01006KT P6SM BKN070 FM1200 01003KT P6SM
                       BKN035 BKN070 FM2000 33005KT P6SM SCT040
                       SCT080 FM0200 34006KT P6SM SCT200=
200809052326 TAF KPAE 052326Z 060024 05005KT P6SM OVC050 FM1000 05004KT P6SM
                       SCT008 OVC030
                      TEMPO 1216 BKN008 OVC030 FM2000 32007KT P6SM
                       SCT050=
200809051724 TAF KPAE 051724Z 051818 03003KT P6SM SCT050 BKN150 FM1900 33006KT
                       P6SM BKN050 BKN080 FM1000 36004KT P6SM SCT008
                       OVC030
                      TEMPO 1216 BKN008 OVC030=
200809051532 KPAE 051532Z 051612 01006KT 1SM BR OVC002 FM1700 33006KT 6SM BR
                       SCT005 BKN050 BKN080 FM1900 33006KT P6SM
                       BKN050 BKN080 FM0000 36006KT P6SM BKN060
                       BKN100 FM1100 36004KT P6SM OVC010=
200809051446 KPAE 051446Z 051512 01005KT 6SM BR BKN002 BKN050 FM1700 33006KT
                       P6SM BKN050 BKN080 FM0000 36006KT P6SM BKN060
                       BKN100 FM1100 36004KT P6SM OVC010=
200809051120 TAF KPAE 051120Z 051212 VRB03KT P6SM SCT100 OVC250 FM1500 20005KT
                       P6SM BKN100 OVC250 FM1900 30006KT P6SM SCT060
                       BKN080 FM0000 36006KT P6SM BKN060 BKN100
                       FM1100 36004KT P6SM OVC010=
200809050521 TAF KPAE 050521Z 050606 02005KT P6SM BKN250 FM1100 VRB03KT P6SM
                       VCFG SCT100 OVC250 FM1500 20005KT P6SM BKN100
                       OVC250 FM1900 30006KT P6SM SCT060 BKN080
                       FM0000 36006KT P6SM BKN060 BKN100=
200809042329 TAF KPAE 042329Z 050024 35006KT P6SM BKN250 FM0300 VRB03KT P6SM
                       BKN250 FM1100 VRB03KT P6SM VCFG FEW009 SCT120
                       OVC250 FM1300 VRB03KT P6SM VCFG SCT009 BKN120
                       OVC250 FM1700 VRB03KT P6SM SCT020 SCT070
                       OVC120 FM2000 26006KT P6SM FEW040 BKN070
                       OVC120=
200809041736 TAF KPAE 041736Z 041818 33007KT P6SM SCT250 FM0300 VRB03KT P6SM
                       BKN250 FM1100 VRB03KT P6SM VCFG FEW009 SCT120
                       BKN250 FM1300 VRB03KT P6SM VCFG OVC009=
200809041358 KPAE 041358Z 041412 VRB03KT 5SM BR SCT002
                      TEMPO 1416 1 1/2SM BR BKN002 FM1800 34007KT
                       P6SM SCT250 FM0300 02004KT P6SM SCT250 FM1100
                       VRB03KT P6SM VCFG FEW001 SCT250=
200809041120 TAF KPAE 041120Z 041212 04004KT P6SM SCT100 SCT250 FM1600 34007KT
                       P6SM SCT250 FM0300 02004KT P6SM SCT250 FM1100
                       VRB03KT P6SM VCFG FEW001 SCT250=
200809040520 TAF KPAE 040520Z 040606 36004KT P6SM BKN250 FM1100 VRB03KT 6SM
                       BR FEW002 FEW070 SCT250
                      TEMPO 1316 2SM BR BKN002 BKN070 BKN250 FM1800
                       34006KT P6SM SCT250=
200809032323 TAF KPAE 032323Z 040024 36007KT P6SM SCT250 FM0300 36004KT P6SM
                       BKN250 FM1200 VRB03KT 6SM BR FEW002 FEW070
                       SCT250
                      TEMPO 1416 2SM BR BKN002 BKN070 BKN250 FM1800
                       34006KT P6SM SCT250=
200809031728 TAF KPAE 031728Z 031818 35004KT P6SM FEW011 SCT250 FM1900 32007KT
                       P6SM SCT250 FM0300 36004KT P6SM SCT250 FM1200
                       36004KT 6SM BR FEW002 FEW070 SCT250
                      TEMPO 1416 2SM BR BKN002 BKN070 BKN250=
200809031626 KPAE 031626Z 031612 VRB03KT 6SM HZ SCT004 FM1800 34008KT P6SM SCT060=
200809031412 KPAE 031412Z 031412 VRB03KT 3SM BR VV002
                      TEMPO 1416 1 1/2SM BR FM1700 VRB03KT 6SM
                       BR SCT005 FM1800 34008KT P6SM SCT060=
200809031347 KPAE 031347Z 031412 36004KT P6SM SCT040 BKN060
                      TEMPO 1416 3SM BR BKN002 FM1800 34008KT P6SM
                       SCT060=
200809031128 TAF KPAE 031128Z 031212 36004KT P6SM BKN060 FM1800 34008KT P6SM
                       SCT060=
200809030530 TAF KPAE 030530Z 030606 VRB03KT P6SM SCT070 FM1400 VRB03KT P6SM
                       SKC FM2000 34008KT P6SM SCT050=
200809022341 TAF KPAE 022341Z 030024 36006KT P6SM SCT045 BKN100 FM0400 VRB05KT
                       P6SM SCT050 FM0600 VRB05KT P6SM SCT050 SCT250
                       FM1400 VRB03KT P6SM SCT015 SCT050 FM1700
                       32005KT P6SM SCT045 FM2200 32007KT P6SM
                       SCT050=
200809021738 TAF KPAE 021738Z 021818 35005KT P6SM SCT140 BKN250 FM2200 34007KT
                       P6SM SCT120 BKN200
                      TEMPO 2202 SCT045 BKN120 BKN200 FM0600 VRB05KT
                       P6SM SCT050 SCT250 FM1400 VRB03KT P6SM SCT020
                       FM1700 32005KT P6SM SCT045=
200809021120 TAF KPAE 021120Z 021212 04003KT P6SM BKN250
                      TEMPO 1215 SCT006 BKN200 FM2100 34007KT P6SM
                       BKN100 BKN200=
200809020520 TAF KPAE 020520Z 020606 04003KT P6SM BKN250
                      TEMPO 1214 SCT006 BKN200 FM2100 34007KT P6SM
                       BKN100 BKN200=
200809012338 TAF KPAE 012338Z 020024 VRB04KT P6SM BKN035 FM0200 VRB04KT P6SM
                       SCT035 SCT250 FM0600 04003KT P6SM BKN250
                       TEMPO 1214 SCT006 BKN150 FM2100 31007KT
                       P6SM BKN150=
200809011739 TAF KPAE 011739Z 011818 20007KT P6SM SCT008 OVC012
                      TEMPO 1922 SCT015 BKN020 FM2200 30006KT P6SM
                       SCT025 BKN045 BKN250 FM2300 35006KT P6SM
                       FEW045 BKN250 FM0900 VRB04KT P6SM SCT250
                       TEMPO 1214 SCT006 SCT250=
200809011643 KPAE 011643Z 011712 20007KT P6SM SCT009 OVC015
                      TEMPO 1820 BKN015 BKN045 FM2000 30006KT P6SM
                       SCT020 BKN045 BKN250 FM2200 35006KT P6SM
                       FEW045 BKN250=
200809011332 KPAE 011332Z 011412 18005KT 4SM BR BKN005 OVC020
                      TEMPO 1416 1SM BR OVC001 FM1600 18006KT P6SM
                       SCT015 FM1700 VRB03KT P6SM SCT030 FM2100
                       30006KT P6SM SCT045 SCT250 FM0000 35006KT
                       P6SM FEW045 BKN250=
200809011120 TAF KPAE 011120Z 011212 18005KT P6SM SCT006
                      TEMPO 1216 1SM BR OVC006 FM1600 18006KT P6SM
                       SCT015 FM1700 VRB03KT P6SM SCT030 FM2100
                       30006KT P6SM SCT045 SCT250 FM0000 35006KT
                       P6SM FEW045 BKN250=
200809010520 TAF KPAE 010520Z 010606 33004KT P6SM SKC FM1200 18005KT P6SM SKC
                       FM1400 18006KT P6SM SCT015 FM1700 VRB03KT
                       P6SM SCT030 FM2100 30006KT P6SM SCT045 SCT250
                       FM0000 35006KT P6SM FEW045 BKN250=