##########################################################
# Query made at 02/18/2025 19:48:38 UTC
# Time interval: from 11/01/2009 00:00  to 11/30/2009 23:59  UTC
##########################################################

##########################################################
# KPAE, Everett, Snohomish County Airport (United States)
# WMO index: -----. WIGOS ID: Unknown
# Latitude 47-55-23N. Longitude 122-16-57W. Altitude 184 m.
##########################################################

###################################
#  METAR/SPECI from KPAE
###################################
200911302353 METAR KPAE 302353Z COR 26003KT 10SM SCT016 BKN075 08/07 A3015 RMK AO2 RAE11 SLP212=
200911302253 METAR KPAE 302253Z 17003KT 5SM -RA BR SCT008 BKN031 OVC038 09/07 A3016 RMK AO2 SLP214 P0002 T00890072=
200911302240 SPECI KPAE 302240Z 00000KT 3SM BR BKN008 OVC028 09/07 A3016 RMK AO2 RAE38 P0001=
200911302240 SPECI KPAE 302240Z 00000KT 3SM BR BKN008 OVC028 09/07 A3016 RMK AO2 RAE38 P0001=
200911302230 SPECI KPAE 302230Z 00000KT 3SM -RA BR SCT008 BKN026 OVC040 09/07 A3016 RMK AO2 P0001=
200911302230 SPECI KPAE 302230Z 00000KT 3SM -RA BR SCT008 BKN026 OVC040 09/07 A3016 RMK AO2 P0001=
200911302208 SPECI KPAE 302208Z 00000KT 1 3/4SM -RA BR SCT011 BKN018 OVC040 09/07 A3016 RMK AO2 P0001=
200911302208 SPECI KPAE 302208Z 00000KT 1 3/4SM -RA BR SCT011 BKN018 OVC040 09/07 A3016 RMK AO2 P0001=
200911302153 METAR KPAE 302153Z 18004KT 2 1/2SM -RA BR OVC014 09/07 A3015 RMK AO2 RAB16 SLP213 P0001 T00890067=
200911302136 SPECI KPAE 302136Z 16006KT 3SM -RA OVC016 09/06 A3015 RMK AO2 RAB16 P0000=
200911302136 SPECI KPAE 302136Z 16006KT 3SM -RA OVC016 09/06 A3015 RMK AO2 RAB16 P0000=
200911302053 METAR KPAE 302053Z 16008KT 10SM OVC012 09/06 A3014 RMK AO2 RAB08E24B40E52 SLP209 P0000 60000 T00890061 58002=
200911302004 SPECI KPAE 302004Z 18007KT 10SM OVC010 08/06 A3015 RMK AO2=
200911302004 SPECI KPAE 302004Z 18007KT 10SM OVC010 08/06 A3015 RMK AO2=
200911301953 METAR KPAE 301953Z 17009KT 10SM OVC009 08/06 A3015 RMK AO2 SLP211 T00830056=
200911301853 METAR KPAE 301853Z 17010KT 10SM OVC006 08/06 A3014 RMK AO2 SLP209 T00780061=
200911301753 METAR KPAE 301753Z 18009G17KT 10SM OVC008 08/06 A3015 RMK AO2 SLP211 T00780061 10083 20078 58008=
200911301653 METAR KPAE 301653Z 17009KT 10SM OVC008 08/06 A3016 RMK AO2 SLP214 T00780061=
200911301553 METAR KPAE 301553Z 18007KT 10SM OVC008 08/06 A3017 RMK AO2 SLP217 T00780061=
200911301453 METAR KPAE 301453Z AUTO 16013KT 10SM OVC006 08/07 A3017 RMK AO2 SLP219 T00780067 58012=
200911301438 SPECI KPAE 301438Z AUTO 16009KT 10SM OVC006 08/07 A3018 RMK AO2 CIG 004V010=
200911301438 SPECI KPAE 301438Z AUTO 16009KT 10SM OVC006 08/07 A3018 RMK AO2 CIG 004V010=
200911301353 METAR KPAE 301353Z AUTO 16007KT 7SM BKN004 OVC008 08/07 A3019 RMK AO2 SLP224 T00830067=
200911301345 SPECI KPAE 301345Z AUTO 16008KT 7SM BKN004 OVC008 08/07 A3019 RMK AO2 CIG 003V007=
200911301345 SPECI KPAE 301345Z AUTO 16008KT 7SM BKN004 OVC008 08/07 A3019 RMK AO2 CIG 003V007=
200911301319 SPECI KPAE 301319Z AUTO 16008KT 6SM BR BKN006 OVC015 08/07 A3019 RMK AO2 CIG 003V010=
200911301319 SPECI KPAE 301319Z AUTO 16008KT 6SM BR BKN006 OVC015 08/07 A3019 RMK AO2 CIG 003V010=
200911301305 SPECI KPAE 301305Z AUTO 16007KT 9SM SCT008 OVC015 08/07 A3019 RMK AO2=
200911301305 SPECI KPAE 301305Z AUTO 16007KT 9SM SCT008 OVC015 08/07 A3019 RMK AO2=
200911301253 METAR KPAE 301253Z AUTO 16007KT 8SM FEW006 OVC013 08/07 A3019 RMK AO2 SLP227 T00830067=
200911301241 SPECI KPAE 301241Z AUTO VRB05KT 9SM FEW006 OVC015 08/07 A3020 RMK AO2=
200911301241 SPECI KPAE 301241Z AUTO VRB05KT 9SM FEW006 OVC015 08/07 A3020 RMK AO2=
200911301218 SPECI KPAE 301218Z AUTO 15006KT 10SM FEW010 OVC015 08/07 A3021 RMK AO2=
200911301218 SPECI KPAE 301218Z AUTO 15006KT 10SM FEW010 OVC015 08/07 A3021 RMK AO2=
200911301153 METAR KPAE 301153Z AUTO 15005KT 10SM OVC012 08/07 A3021 RMK AO2 SLP231 70002 T00830067 10094 20083 58008=
200911301053 METAR KPAE 301053Z AUTO 15005KT 10SM FEW007 OVC014 08/07 A3022 RMK AO2 SLP237 T00830072=
200911301049 SPECI KPAE 301049Z AUTO 15004KT 10SM FEW007 OVC014 08/07 A3023 RMK AO2=
200911301049 SPECI KPAE 301049Z AUTO 15004KT 10SM FEW007 OVC014 08/07 A3023 RMK AO2=
200911301040 SPECI KPAE 301040Z AUTO 16005KT 10SM SCT007 SCT010 OVC016 08/07 A3023 RMK AO2=
200911301040 SPECI KPAE 301040Z AUTO 16005KT 10SM SCT007 SCT010 OVC016 08/07 A3023 RMK AO2=
200911300953 METAR KPAE 300953Z AUTO 16007KT 10SM BKN007 OVC022 09/07 A3023 RMK AO2 SLP239 T00890072=
200911300907 SPECI KPAE 300907Z AUTO 15007KT 10SM FEW009 OVC022 09/07 A3024 RMK AO2=
200911300907 SPECI KPAE 300907Z AUTO 15007KT 10SM FEW009 OVC022 09/07 A3024 RMK AO2=
200911300853 METAR KPAE 300853Z AUTO 16005KT 10SM OVC022 09/07 A3024 RMK AO2 SLP244 T00890072 57013=
200911300753 METAR KPAE 300753Z AUTO VRB03KT 10SM FEW010 OVC024 09/08 A3025 RMK AO2 SLP247 T00890078 401000083=
200911300653 METAR KPAE 300653Z AUTO 00000KT 10SM OVC024 09/08 A3027 RMK AO2 SLP254 T00940078=
200911300553 METAR KPAE 300553Z AUTO 16005KT 10SM FEW015 OVC024 09/08 A3028 RMK AO2 SLP257 T00940078 10100 20089 58007=
200911300502 SPECI KPAE 300502Z AUTO 16005KT 10SM OVC015 09/08 A3029 RMK AO2=
200911300502 SPECI KPAE 300502Z AUTO 16005KT 10SM OVC015 09/08 A3029 RMK AO2=
200911300453 METAR KPAE 300453Z 17006KT 10SM OVC013 09/08 A3029 RMK AO2 SLP260 T00940078=
200911300409 SPECI KPAE 300409Z 15003KT 10SM BKN011 09/08 A3030 RMK AO2=
200911300409 SPECI KPAE 300409Z 15003KT 10SM BKN011 09/08 A3030 RMK AO2=
200911300353 METAR KPAE 300353Z 00000KT 10SM FEW013 09/07 A3030 RMK AO2 SLP263 T00940072=
200911300338 SPECI KPAE 300338Z 15003KT 10SM FEW013 SCT027 09/08 A3030 RMK AO2=
200911300338 SPECI KPAE 300338Z 15003KT 10SM FEW013 SCT027 09/08 A3030 RMK AO2=
200911300253 METAR KPAE 300253Z 15005KT 10SM OVC025 10/08 A3030 RMK AO2 SLP264 T01000078 50000=
200911300153 METAR KPAE 300153Z 15004KT 10SM OVC023 10/08 A3030 RMK AO2 SLP263 T01000083=
200911300053 METAR KPAE 300053Z 15003KT 10SM OVC019 10/08 A3031 RMK AO2 SLP266 T01000078=
200911292353 METAR KPAE 292353Z AUTO 16006KT 10SM OVC017 10/08 A3030 RMK AO2 SLP264 60001 T01000078 10100 20089 56010 TSNO=
200911292312 SPECI KPAE 292312Z 17007KT 10SM OVC015 10/08 A3031 RMK AO2=
200911292312 SPECI KPAE 292312Z 17007KT 10SM OVC015 10/08 A3031 RMK AO2=
200911292253 METAR KPAE 292253Z 16007KT 10SM OVC013 10/08 A3031 RMK AO2 SLP265 T01000078=
200911292239 SPECI KPAE 292239Z 16007KT 10SM OVC013 10/08 A3031 RMK AO2=
200911292239 SPECI KPAE 292239Z 16007KT 10SM OVC013 10/08 A3031 RMK AO2=
200911292220 SPECI KPAE 292220Z 16008KT 10SM OVC009 10/08 A3032 RMK AO2=
200911292220 SPECI KPAE 292220Z 16008KT 10SM OVC009 10/08 A3032 RMK AO2=
200911292215 SPECI KPAE 292215Z 16009KT 10SM OVC011 10/08 A3032 RMK AO2=
200911292215 SPECI KPAE 292215Z 16009KT 10SM OVC011 10/08 A3032 RMK AO2=
200911292153 METAR KPAE 292153Z 15007KT 10SM OVC009 10/08 A3032 RMK AO2 SLP270 T01000078=
200911292053 METAR KPAE 292053Z 17007KT 9SM OVC008 09/08 A3033 RMK AO2 CIG 005V012 SLP274 60001 T00940083 58011=
200911291953 METAR KPAE 291953Z 18009KT 5SM BR BKN006 OVC009 09/08 A3035 RMK AO2 CIG 003V007 SLP279 T00890078=
200911291853 METAR KPAE 291853Z 16007KT 1 1/4SM BR BKN006 OVC009 09/08 A3036 RMK AO2 RAB01E10 CIG 003V009 SLP281 P0001 T00890083=
200911291753 METAR KPAE 291753Z 18004KT 1 1/4SM BR OVC004 09/08 A3037 RMK AO2 RAB24E44 CIG 002V009 SLP285 P0001 60001 T00890078 10089 20083 51009=
200911291750 SPECI KPAE 291750Z 18005KT 1 1/4SM BR OVC004 09/08 A3037 RMK AO2 RAB24E44 CIG 002V009 P0001=
200911291750 SPECI KPAE 291750Z 18005KT 1 1/4SM BR OVC004 09/08 A3037 RMK AO2 RAB24E44 CIG 002V009 P0001=
200911291653 METAR KPAE 291653Z 17005KT 1 1/4SM BR OVC005 08/08 A3035 RMK AO2 CIG 003V008 SLP278 T00830078=
200911291609 SPECI KPAE 291609Z 16008KT 1 1/2SM BR OVC005 08/07 A3034 RMK AO2 CIG 003V008=
200911291609 SPECI KPAE 291609Z 16008KT 1 1/2SM BR OVC005 08/07 A3034 RMK AO2 CIG 003V008=
200911291553 METAR KPAE 291553Z 16007KT 2 1/2SM BR OVC007 08/07 A3034 RMK AO2 CIG 003V009 SLP276 T00830072=
200911291541 SPECI KPAE 291541Z 16007KT 2 1/2SM BR OVC007 08/07 A3034 RMK AO2 CIG 003V009=
200911291541 SPECI KPAE 291541Z 16007KT 2 1/2SM BR OVC007 08/07 A3034 RMK AO2 CIG 003V009=
200911291453 METAR KPAE 291453Z 17008KT 7SM OVC007 08/07 A3033 RMK AO2 CIG 004V009 SLP274 T00830072 58002=
200911291413 SPECI KPAE 291413Z AUTO 17008KT 10SM OVC009 09/07 A3034 RMK AO2 CIG 007V012=
200911291413 SPECI KPAE 291413Z AUTO 17008KT 10SM OVC009 09/07 A3034 RMK AO2 CIG 007V012=
200911291353 METAR KPAE 291353Z AUTO 17009KT 10SM OVC011 09/07 A3034 RMK AO2 CIG 008V012 SLP277 T00890067=
200911291253 METAR KPAE 291253Z AUTO 16008KT 10SM OVC011 09/06 A3034 RMK AO2 SLP275 T00890061=
200911291153 METAR KPAE 291153Z AUTO 17009KT 10SM OVC011 09/06 A3034 RMK AO2 SLP276 T00890061 10089 20083 56008=
200911291053 METAR KPAE 291053Z AUTO 16010KT 10SM OVC011 09/06 A3034 RMK AO2 SLP277 T00890061=
200911290953 METAR KPAE 290953Z AUTO 15009KT 10SM OVC011 09/06 A3035 RMK AO2 SLP280 T00890061=
200911290929 SPECI KPAE 290929Z AUTO 15009KT 10SM OVC011 08/07 A3035 RMK AO2=
200911290929 SPECI KPAE 290929Z AUTO 15009KT 10SM OVC011 08/07 A3035 RMK AO2=
200911290853 METAR KPAE 290853Z AUTO 16007KT 7SM OVC009 08/07 A3036 RMK AO2 CIG 005V011 SLP284 T00830067 53001=
200911290753 METAR KPAE 290753Z AUTO 16010KT 10SM OVC009 08/06 A3036 RMK AO2 CIG 007V012 SLP281 T00830061 400890044=
200911290653 METAR KPAE 290653Z AUTO 16011KT 10SM OVC011 08/06 A3036 RMK AO2 SLP283 T00830061=
200911290648 SPECI KPAE 290648Z AUTO 16010KT 10SM OVC011 08/06 A3036 RMK AO2=
200911290648 SPECI KPAE 290648Z AUTO 16010KT 10SM OVC011 08/06 A3036=
200911290613 SPECI KPAE 290613Z AUTO 17010KT 10SM OVC009 08/06 A3036 RMK AO2=
200911290613 SPECI KPAE 290613Z AUTO 17010KT 10SM OVC009 08/06 A3036 RMK AO2=
200911290553 METAR KPAE 290553Z AUTO 17012KT 10SM OVC011 08/06 A3036 RMK AO2 SLP282 T00830061 10089 20083 51008=
200911290453 METAR KPAE 290453Z AUTO 17011KT 10SM OVC011 08/06 A3035 RMK AO2 SLP282 T00830061=
200911290353 METAR KPAE 290353Z 17010G18KT 10SM OVC011 09/06 A3034 RMK AO2 SLP277 T00890061=
200911290253 METAR KPAE 290253Z 17011KT 10SM OVC011 09/06 A3033 RMK AO2 SLP275 T00890056 53006=
200911290153 METAR KPAE 290153Z 17010KT 10SM OVC013 09/06 A3032 RMK AO2 SLP272 T00890056=
200911290053 METAR KPAE 290053Z 17009KT 10SM OVC013 09/06 A3031 RMK AO2 SLP267 T00890056=
200911282353 METAR KPAE 282353Z 17011KT 10SM OVC013 09/05 A3031 RMK AO2 SLP268 T00890050 10089 20078 56001=
200911282253 METAR KPAE 282253Z 17011KT 10SM OVC015 09/05 A3032 RMK AO2 SLP269 T00890050=
200911282153 METAR KPAE 282153Z 17012KT 10SM OVC015 08/05 A3031 RMK AO2 SLP267 T00830050=
200911282053 METAR KPAE 282053Z 18013G19KT 10SM OVC020 08/05 A3032 RMK AO2 SLP269 T00830050 58003=
200911281953 METAR KPAE 281953Z 18016G24KT 10SM OVC015 08/04 A3032 RMK AO2 SLP269 T00830044=
200911281853 METAR KPAE 281853Z 18014G23KT 10SM OVC017 08/04 A3033 RMK AO2 SLP274 T00780039=
200911281753 METAR KPAE 281753Z 17013G20KT 10SM OVC017 08/04 A3033 RMK AO2 SLP273 T00780039 10078 20044 53002=
200911281653 METAR KPAE 281653Z 17013KT 10SM OVC014 07/04 A3032 RMK AO2 SLP272 T00670039=
200911281553 METAR KPAE 281553Z 17012KT 10SM OVC012 07/03 A3032 RMK AO2 SLP271 T00670033=
200911281453 METAR KPAE 281453Z 16011G17KT 10SM OVC012 06/03 A3032 RMK AO2 SLP270 T00610028 57003=
200911281353 METAR KPAE 281353Z AUTO 15010KT 10SM OVC012 06/03 A3032 RMK AO2 SLP272 T00560028=
200911281310 SPECI KPAE 281310Z AUTO 15008G14KT 10SM BKN014 OVC070 05/02 A3033 RMK AO2=
200911281310 SPECI KPAE 281310Z AUTO 15008G14KT 10SM BKN014 OVC070 05/02 A3033 RMK AO2=
200911281253 METAR KPAE 281253Z AUTO VRB06KT 10SM SCT012 OVC070 05/02 A3032 RMK AO2 SLP273 T00500022=
200911281153 METAR KPAE 281153Z AUTO 15009KT 10SM FEW070 OVC095 04/02 A3033 RMK AO2 SLP274 T00440017 10050 20039 58004=
200911281053 METAR KPAE 281053Z AUTO 16010KT 10SM SCT065 OVC100 04/02 A3033 RMK AO2 SLP275 T00440017=
200911280953 METAR KPAE 280953Z AUTO 16009KT 10SM OVC055 04/02 A3034 RMK AO2 SLP276 T00440017=
200911280853 METAR KPAE 280853Z AUTO 16010KT 10SM FEW034 OVC060 04/02 A3034 RMK AO2 SLP278 T00440017 58002=
200911280753 METAR KPAE 280753Z AUTO 16009KT 10SM SCT049 BKN065 04/02 A3035 RMK AO2 SLP280 T00440017 400830028=
200911280653 METAR KPAE 280653Z AUTO 15005KT 10SM CLR 04/02 A3034 RMK AO2 SLP280 T00440017=
200911280553 METAR KPAE 280553Z AUTO 18003KT 10SM FEW024 OVC095 05/02 A3035 RMK AO2 SLP280 T00500022 10067 20028 53013=
200911280453 METAR KPAE 280453Z 16003KT 10SM OVC100 04/02 A3033 RMK AO2 SLP276 T00440017=
200911280353 METAR KPAE 280353Z 17003KT 10SM CLR 04/01 A3032 RMK AO2 SLP270 T00390011=
200911280253 METAR KPAE 280253Z 16004KT 10SM CLR 06/02 A3031 RMK AO2 SLP266 T00560017 51009=
200911280153 METAR KPAE 280153Z 15003KT 10SM CLR 04/01 A3030 RMK AO2 SLP265 T00390006=
200911280053 METAR KPAE 280053Z 00000KT 10SM CLR 06/02 A3029 RMK AO2 SLP261 T00560022=
200911272353 METAR KPAE 272353Z AUTO 26003KT 10SM CLR 07/02 A3028 RMK AO2 SLP257 T00670022 10083 20061 53016 TSNO=
200911272253 METAR KPAE 272253Z 00000KT 10SM SCT022 08/02 A3025 RMK AO2 SLP247 T00830022=
200911272153 METAR KPAE 272153Z 00000KT 10SM FEW023 08/03 A3023 RMK AO2 SLP241 T00830028=
200911272150 SPECI KPAE 272150Z 00000KT 10SM SCT023 08/03 A3023 RMK AO2=
200911272150 SPECI KPAE 272150Z 00000KT 10SM SCT023 08/03 A3023 RMK AO2=
200911272113 SPECI KPAE 272113Z 00000KT 10SM FEW015 BKN025 07/03 A3022 RMK AO2=
200911272113 SPECI KPAE 272113Z 00000KT 10SM FEW015 BKN025 07/03 A3022 RMK AO2=
200911272053 METAR KPAE 272053Z 00000KT 10SM FEW015 SCT030 07/03 A3021 RMK AO2 SLP233 T00670028 51012=
200911272036 SPECI KPAE 272036Z 00000KT 10SM SCT029 08/03 A3021 RMK AO2=
200911272036 SPECI KPAE 272036Z 00000KT 10SM SCT029 08/03 A3021 RMK AO2=
200911271953 METAR KPAE 271953Z 33004KT 10SM BKN027 07/03 A3021 RMK AO2 SLP232 T00670033=
200911271853 METAR KPAE 271853Z VRB04KT 10SM FEW014 OVC027 07/03 A3019 RMK AO2 SLP228 T00670033=
200911271838 SPECI KPAE 271838Z 34007KT 10SM SCT014 OVC029 07/03 A3019 RMK AO2=
200911271838 SPECI KPAE 271838Z 34007KT 10SM SCT014 OVC029 07/03 A3019 RMK AO2=
200911271800 SPECI KPAE 271800Z 34004KT 10SM OVC014 06/03 A3017 RMK AO2=
200911271800 SPECI KPAE 271800Z 34004KT 10SM OVC014 06/03 A3017 RMK AO2=
200911271753 METAR KPAE 271753Z 33006KT 10SM SCT016 SCT027 06/03 A3017 RMK AO2 SLP220 T00610033 10067 20056 53035=
200911271653 METAR KPAE 271653Z 35006KT 10SM SCT016 SCT027 06/03 A3014 RMK AO2 SLP208 T00560033=
200911271553 METAR KPAE 271553Z 35006G14KT 10SM FEW020 SCT027 06/03 A3010 RMK AO2 SLP195 T00560033=
200911271501 SPECI KPAE 271501Z 35008KT 10SM SCT029 06/03 A3007 RMK AO2=
200911271501 SPECI KPAE 271501Z 35008KT 10SM SCT029 06/03 A3007 RMK AO2=
200911271453 METAR KPAE 271453Z 35007G14KT 10SM OVC029 06/03 A3007 RMK AO2 SLP184 T00610028 53021=
200911271443 SPECI KPAE 271443Z AUTO 35008KT 10SM OVC032 06/03 A3006 RMK AO2=
200911271443 SPECI KPAE 271443Z AUTO 35008KT 10SM OVC032 06/03 A3006 RMK AO2=
200911271353 METAR KPAE 271353Z AUTO 33007KT 10SM OVC018 06/03 A3004 RMK AO2 SLP175 T00610033=
200911271331 SPECI KPAE 271331Z AUTO 33010G18KT 10SM OVC016 06/03 A3003 RMK AO2=
200911271331 SPECI KPAE 271331Z AUTO 33010G18KT 10SM OVC016 06/03 A3003 RMK AO2=
200911271309 SPECI KPAE 271309Z AUTO 34009G15KT 10SM BKN014 OVC021 06/04 A3002 RMK AO2=
200911271309 SPECI KPAE 271309Z AUTO 34009G15KT 10SM BKN014 OVC021 06/04 A3002 RMK AO2=
200911271253 METAR KPAE 271253Z AUTO 34009G15KT 10SM OVC023 06/04 A3001 RMK AO2 SLP166 T00610039=
200911271153 METAR KPAE 271153Z AUTO 34008G15KT 10SM BKN018 OVC028 07/04 A3000 RMK AO2 SLP163 70027 T00670039 10072 20067 51019=
200911271053 METAR KPAE 271053Z AUTO 35010G18KT 10SM OVC018 07/04 A2998 RMK AO2 SLP155 T00670044=
200911270953 METAR KPAE 270953Z AUTO 34010G16KT 10SM OVC018 07/04 A2997 RMK AO2 SLP152 T00670044=
200911270853 METAR KPAE 270853Z AUTO 34008G18KT 10SM OVC016 07/05 A2995 RMK AO2 SLP143 T00670050 53004=
200911270842 SPECI KPAE 270842Z AUTO 35008G17KT 10SM OVC016 07/05 A2995 RMK AO2=
200911270842 SPECI KPAE 270842Z AUTO 35008G17KT 10SM OVC016 07/05 A2995 RMK AO2=
200911270822 SPECI KPAE 270822Z AUTO 33011KT 10SM SCT008 OVC012 07/05 A2995 RMK AO2=
200911270822 SPECI KPAE 270822Z AUTO 33011KT 10SM SCT008 OVC012 07/05 A2995 RMK AO2=
200911270753 METAR KPAE 270753Z AUTO 34007G16KT 10SM OVC006 07/06 A2994 RMK AO2 SLP142 T00670056 401060067=
200911270653 METAR KPAE 270653Z AUTO 35011G16KT 10SM OVC006 07/06 A2993 RMK AO2 SLP138 T00670056=
200911270553 METAR KPAE 270553Z AUTO 34009KT 10SM OVC006 07/06 A2994 RMK AO2 CIG 004V008 SLP139 60000 T00670056 10083 20067 58006=
200911270534 SPECI KPAE 270534Z AUTO 34006KT 10SM OVC006 07/06 A2995 RMK AO2 CIG 003V008=
200911270534 SPECI KPAE 270534Z AUTO 34006KT 10SM OVC006 07/06 A2995 RMK AO2 CIG 003V008=
200911270453 METAR KPAE 270453Z AUTO 33004KT 10SM OVC004 07/06 A2995 RMK AO2 SLP144 T00670056=
200911270353 METAR KPAE 270353Z 32006KT 10SM OVC004 07/06 A2995 RMK AO2 CIG 001V006 SLP145 T00670061=
200911270253 METAR KPAE 270253Z 35009G14KT 9SM OVC001 07/06 A2995 RMK AO2 SLP145 60000 T00670061 58009=
200911270218 SPECI KPAE 270218Z 35006KT 8SM BKN001 OVC006 07/06 A2997 RMK AO2=
200911270218 SPECI KPAE 270218Z 35006KT 8SM BKN001 OVC006 07/06 A2997 RMK AO2=
200911270153 METAR KPAE 270153Z 32005KT 2SM BR OVC001 07/07 A2998 RMK AO2 SLP155 T00720067=
200911270137 SPECI KPAE 270137Z 35006KT 4SM BR OVC001 07/07 A2997 RMK AO2=
200911270137 SPECI KPAE 270137Z 35006KT 4SM BR OVC001 07/07 A2997 RMK AO2=
200911270102 SPECI KPAE 270102Z 35005KT 1/2SM FG OVC001 07/07 A2997 RMK AO2 RVRNO=
200911270102 SPECI KPAE 270102Z 35005KT 1/2SM FG OVC001 07/07 A2997 RMK AO2 RVRNO=
200911270053 METAR KPAE 270053Z 34004KT 7SM OVC003 08/07 A2997 RMK AO2 RAE24 SLP150 P0000 T00780067=
200911270041 SPECI KPAE 270041Z 35007KT 10SM BKN003 OVC085 08/07 A2997 RMK AO2 RAE24 P0000=
200911270041 SPECI KPAE 270041Z 35007KT 10SM BKN003 OVC085 08/07 A2997 RMK AO2 RAE24 P0000=
200911262353 METAR KPAE 262353Z 36005KT 10SM -RA BKN005 OVC050 08/07 A2998 RMK AO2 RAB53 CIG 001V009 SLP154 P0000 60000 T00780072 10083 20078 56008=
200911262253 METAR KPAE 262253Z 34004KT 10SM FEW002 BKN005 OVC044 08/07 A2999 RMK AO2 SLP158 T00830072=
200911262240 SPECI KPAE 262240Z 35005KT 10SM BKN005 OVC044 08/07 A2999 RMK AO2=
200911262240 SPECI KPAE 262240Z 35005KT 10SM BKN005 OVC044 08/07 A2999 RMK AO2=
200911262200 SPECI KPAE 262200Z 35004KT 10SM FEW005 BKN044 OVC100 08/07 A2999 RMK AO2=
200911262200 SPECI KPAE 262200Z 35004KT 10SM FEW005 BKN044 OVC100 08/07 A2999 RMK AO2=
200911262153 METAR KPAE 262153Z 35004KT 10SM BKN044 OVC100 08/07 A2999 RMK AO2 SLP157 T00830072=
200911262053 METAR KPAE 262053Z 35003KT 10SM OVC044 08/07 A3000 RMK AO2 SLP162 T00830072 56013=
200911262024 SPECI KPAE 262024Z 36004KT 10SM FEW003 OVC042 08/07 A3001 RMK AO2=
200911262024 SPECI KPAE 262024Z 36004KT 10SM FEW003 OVC042 08/07 A3001 RMK AO2=
200911261953 METAR KPAE 261953Z 03003KT 10SM OVC044 08/07 A3001 RMK AO2 SLP165 T00830072=
200911261901 SPECI KPAE 261901Z 35004KT 10SM SCT001 OVC040 08/07 A3003 RMK AO2=
200911261901 SPECI KPAE 261901Z 35004KT 10SM SCT001 OVC040 08/07 A3003 RMK AO2=
200911261853 METAR KPAE 261853Z 00000KT 10SM BKN001 OVC040 08/07 A3003 RMK AO2 SLP171 T00830072=
200911261753 METAR KPAE 261753Z 30004KT 1SM BR OVC001 08/07 A3004 RMK AO2 RAE43 PRESRR SLP176 P0001 60027 T00830072 10083 20078 53011 RVRNO=
200911261730 SPECI KPAE 261730Z 33003KT 1SM -RA BR BKN001 OVC005 08/07 A3002 RMK AO2 P0001 RVRNO=
200911261730 SPECI KPAE 261730Z 33003KT 1SM -RA BR BKN001 OVC005 08/07 A3002 RMK AO2 P0001 RVRNO=
200911261655 SPECI KPAE 261655Z 00000KT 2 1/2SM -RA BR SCT001 OVC040 08/07 A3002 RMK AO2 P0000=
200911261655 SPECI KPAE 261655Z 00000KT 2 1/2SM -RA BR SCT001 OVC040 08/07 A3002 RMK AO2 P0000=
200911261653 METAR KPAE 261653Z 00000KT 3SM -RA BR BKN003 OVC040 08/07 A3002 RMK AO2 SLP167 P0002 T00830072=
200911261626 SPECI KPAE 261626Z 00000KT 3SM -RA BR BKN003 OVC040 08/07 A3002 RMK AO2 P0002=
200911261626 SPECI KPAE 261626Z 00000KT 3SM -RA BR BKN003 OVC040 08/07 A3002 RMK AO2 P0002=
200911261553 METAR KPAE 261553Z 03004KT 8SM -RA FEW001 OVC040 08/07 A3001 RMK AO2 SLP166 P0004 T00830072=
200911261541 SPECI KPAE 261541Z VRB04KT 9SM -RA SCT001 OVC040 08/07 A3001 RMK AO2 P0002=
200911261541 SPECI KPAE 261541Z VRB04KT 9SM -RA SCT001 OVC040 08/07 A3001 RMK AO2 P0002=
200911261528 SPECI KPAE 261528Z 07003KT 3SM -RA BR BKN001 OVC011 08/07 A3001 RMK AO2 P0002=
200911261528 SPECI KPAE 261528Z 07003KT 3SM -RA BR BKN001 OVC011 08/07 A3001 RMK AO2 P0002=
200911261519 SPECI KPAE 261519Z 00000KT 1SM -RA BR OVC001 08/07 A3001 RMK AO2 P0001 RVRNO=
200911261519 SPECI KPAE 261519Z 00000KT 1SM -RA BR OVC001 08/07 A3001 RMK AO2 P0001 RVRNO=
200911261509 SPECI KPAE 261509Z 36003KT 2 1/2SM -RA BR OVC001 08/07 A3002 RMK AO2 CIG 001V004 P0001=
200911261509 SPECI KPAE 261509Z 36003KT 2 1/2SM -RA BR OVC001 08/07 A3002 RMK AO2 CIG 001V004 P0001=
200911261453 METAR KPAE 261453Z 35004KT 7SM -RA BKN004 OVC048 08/07 A3001 RMK AO2 CIG 002V008 SLP164 P0003 60020 T00780072 51004=
200911261413 SPECI KPAE 261413Z AUTO 33007KT 310V020 9SM -RA SCT006 BKN050 OVC055 08/07 A3001 RMK AO2 P0001=
200911261413 SPECI KPAE 261413Z AUTO 33007KT 310V020 9SM -RA SCT006 BKN050 OVC055 08/07 A3001 RMK AO2 P0001=
200911261353 METAR KPAE 261353Z AUTO 32009KT 8SM -RA BKN006 BKN034 OVC050 08/07 A3001 RMK AO2 SLP165 P0007 T00780067=
200911261253 METAR KPAE 261253Z AUTO 32010G14KT 5SM -RA BR BKN008 BKN017 OVC029 08/07 A3001 RMK AO2 CIG 005V012 SLP165 P0010 T00830072=
200911261246 SPECI KPAE 261246Z AUTO 32008KT 5SM RA BR SCT008 BKN013 OVC029 08/07 A3001 RMK AO2 P0010=
200911261246 SPECI KPAE 261246Z AUTO 32008KT 5SM RA BR SCT008 BKN013 OVC029 08/07 A3001 RMK AO2 P0010=
200911261221 SPECI KPAE 261221Z AUTO 29007KT 4SM RA BR FEW005 BKN015 OVC021 08/07 A3001 RMK AO2 P0006=
200911261221 SPECI KPAE 261221Z AUTO 29007KT 4SM RA BR FEW005 BKN015 OVC021 08/07 A3001 RMK AO2 P0006=
200911261207 SPECI KPAE 261207Z AUTO 29007G18KT 4SM RA BR FEW003 SCT006 OVC014 09/08 A3000 RMK AO2 P0004=
200911261207 SPECI KPAE 261207Z AUTO 29007G18KT 4SM RA BR FEW003 SCT006 OVC014 09/08 A3000 RMK AO2 P0004=
200911261153 METAR KPAE 261153Z AUTO 26005KT 3SM RA BR BKN003 BKN009 OVC014 10/09 A3000 RMK AO2 CIG 002V006 SLP159 P0020 60053 70077 T01000094 10106 20100 55000=
200911261135 SPECI KPAE 261135Z AUTO 22007KT 3SM RA BR OVC003 10/09 A2999 RMK AO2 CIG 002V006 P0014=
200911261135 SPECI KPAE 261135Z AUTO 22007KT 3SM RA BR OVC003 10/09 A2999 RMK AO2 CIG 002V006 P0014=
200911261053 METAR KPAE 261053Z AUTO 19008KT 5SM RA BR FEW006 BKN009 OVC024 10/09 A2999 RMK AO2 SLP156 P0011 T01000094=
200911261040 SPECI KPAE 261040Z AUTO 18008KT 5SM RA BR SCT006 BKN020 OVC026 10/09 A2999 RMK AO2 P0008=
200911261040 SPECI KPAE 261040Z AUTO 18008KT 5SM RA BR SCT006 BKN020 OVC026 10/09 A2999 RMK AO2 P0008=
200911260953 METAR KPAE 260953Z AUTO 17009KT 5SM RA BR BKN006 OVC010 10/09 A3000 RMK AO2 SLP160 P0009 T01000089=
200911260936 SPECI KPAE 260936Z AUTO 18010KT 5SM RA BR FEW006 BKN009 OVC041 10/09 A3000 RMK AO2 P0006=
200911260936 SPECI KPAE 260936Z AUTO 18010KT 5SM RA BR FEW006 BKN009 OVC041 10/09 A3000 RMK AO2 P0006=
200911260929 SPECI KPAE 260929Z AUTO 17011KT 5SM RA BR SCT009 BKN016 OVC065 10/09 A3000 RMK AO2 P0005=
200911260929 SPECI KPAE 260929Z AUTO 17011KT 5SM RA BR SCT009 BKN016 OVC065 10/09 A3000 RMK AO2 P0005=
200911260853 METAR KPAE 260853Z AUTO 16010KT 8SM -RA FEW004 SCT008 OVC012 10/09 A3000 RMK AO2 SLP158 P0005 60013 T01000089 56008=
200911260842 SPECI KPAE 260842Z AUTO 16010KT 9SM -RA FEW004 BKN008 OVC019 10/09 A3000 RMK AO2 P0004=
200911260842 SPECI KPAE 260842Z AUTO 16010KT 9SM -RA FEW004 BKN008 OVC019 10/09 A3000 RMK AO2 P0004=
200911260819 SPECI KPAE 260819Z AUTO 16014KT 6SM -RA BR SCT010 BKN014 OVC020 11/09 A3000 RMK AO2 P0003=
200911260819 SPECI KPAE 260819Z AUTO 16014KT 6SM -RA BR SCT010 BKN014 OVC020 11/09 A3000 RMK AO2 P0003=
200911260753 METAR KPAE 260753Z AUTO 16013KT 7SM -RA FEW004 BKN020 OVC027 10/09 A3002 RMK AO2 SLP166 P0002 T01000089 401220089=
200911260749 SPECI KPAE 260749Z AUTO 16014KT 9SM -RA SCT004 BKN024 OVC070 10/09 A3002 RMK AO2 P0002 401220089=
200911260749 SPECI KPAE 260749Z AUTO 16014KT 9SM -RA SCT004 BKN024 OVC070 10/09 A3002 RMK AO2 P0002 401220089=
200911260726 SPECI KPAE 260726Z AUTO 16011KT 10SM -RA OVC004 10/09 A3002 RMK AO2 CIG 002V006 P0001=
200911260726 SPECI KPAE 260726Z AUTO 16011KT 10SM -RA OVC004 10/09 A3002 RMK AO2 CIG 002V006 P0001=
200911260653 METAR KPAE 260653Z AUTO 17010KT 9SM -RA BKN006 OVC009 10/09 A3003 RMK AO2 CIG 003V008 SLP170 P0006 T01000089=
200911260553 METAR KPAE 260553Z AUTO 18014G20KT 5SM -RA BR OVC008 10/09 A3005 RMK AO2 CIG 004V011 SLP178 P0015 60023 T01000089 10106 20100 50004=
200911260518 SPECI KPAE 260518Z AUTO 17010KT 4SM RA BR BKN008 BKN021 OVC028 10/09 A3005 RMK AO2 CIG 004V011 P0006=
200911260518 SPECI KPAE 260518Z AUTO 17010KT 4SM RA BR BKN008 BKN021 OVC028 10/09 A3005 RMK AO2 CIG 004V011 P0006=
200911260500 SPECI KPAE 260500Z AUTO 17012KT 3SM RA BR FEW006 BKN010 OVC028 10/09 A3005 RMK AO2 CIG 007V011 P0001=
200911260500 SPECI KPAE 260500Z AUTO 17012KT 3SM RA BR FEW006 BKN010 OVC028 10/09 A3005 RMK AO2 CIG 007V011 P0001=
200911260453 METAR KPAE 260453Z AUTO 17011KT 4SM RA BR FEW002 OVC021 10/09 A3006 RMK AO2 SLP179 P0004 T01000094=
200911260353 METAR KPAE 260353Z 18013KT 10SM -RA FEW002 OVC021 11/09 A3005 RMK AO2 SLP177 P0002 T01060089=
200911260303 SPECI KPAE 260303Z 17015G24KT 7SM -RA FEW002 BKN024 OVC060 10/09 A3004 RMK AO2 P0001=
200911260303 SPECI KPAE 260303Z 17015G24KT 7SM -RA FEW002 BKN024 OVC060 10/09 A3004 RMK AO2 P0001=
200911260253 METAR KPAE 260253Z 17016G23KT 7SM -RA SCT024 OVC060 10/09 A3004 RMK AO2 SLP174 P0001 60002 T01000089 56013=
200911260153 METAR KPAE 260153Z 17017G24KT 5SM -RA BR OVC065 10/09 A3005 RMK AO2 PK WND 16027/0133 SLP176 P0001 T01000089=
200911260053 METAR KPAE 260053Z 16016KT 4SM -RA BR FEW033 BKN042 OVC050 10/08 A3006 RMK AO2 SLP180 P0000 T01000083=
200911252353 METAR KPAE 252353Z 17015KT 7SM -RA OVC030 11/08 A3008 RMK AO2 PK WND 20027/2326 RAB13 SLP187 P0001 60001 T01060078 10122 20089 55012=
200911252253 METAR KPAE 252253Z 18008KT 10SM OVC040 12/07 A3008 RMK AO2 SLP185 T01170067=
200911252153 METAR KPAE 252153Z 17014KT 10SM SCT038 12/06 A3007 RMK AO2 SLP183 T01220061=
200911252053 METAR KPAE 252053Z 17010G22KT 10SM FEW028 12/07 A3011 RMK AO2 SLP198 T01170072 58007=
200911251953 METAR KPAE 251953Z 16008KT 10SM CLR 10/06 A3013 RMK AO2 SLP205 T01000061=
200911251853 METAR KPAE 251853Z VRB06KT 10SM CLR 09/06 A3014 RMK AO2 SLP209 T00940061=
200911251753 METAR KPAE 251753Z VRB06KT 10SM CLR 09/06 A3014 RMK AO2 SLP207 T00940056 10100 20089 56008=
200911251653 METAR KPAE 251653Z 14007KT 10SM CLR 10/06 A3014 RMK AO2 SLP208 T01000061=
200911251553 METAR KPAE 251553Z 15012KT 10SM CLR 10/06 A3015 RMK AO2 SLP209 T01000061=
200911251453 METAR KPAE 251453Z 15012G16KT 10SM CLR 10/07 A3016 RMK AO2 SLP214 T01000067 57009=
200911251353 METAR KPAE 251353Z AUTO 16012KT 10SM CLR 09/07 A3017 RMK AO2 SLP218 T00940067=
200911251253 METAR KPAE 251253Z AUTO 15011KT 10SM CLR 09/07 A3018 RMK AO2 SLP221 T00940067=
200911251153 METAR KPAE 251153Z AUTO 15013KT 10SM CLR 09/07 A3019 RMK AO2 SLP224 70002 T00940072 10100 20094 56007=
200911251053 METAR KPAE 251053Z AUTO 15011G17KT 10SM CLR 09/07 A3019 RMK AO2 SLP225 T00940072=
200911250953 METAR KPAE 250953Z AUTO 15014KT 10SM CLR 09/08 A3020 RMK AO2 SLP229 T00940078=
200911250853 METAR KPAE 250853Z AUTO 15006KT 10SM CLR 10/08 A3021 RMK AO2 SLP232 T01000083 58002=
200911250753 METAR KPAE 250753Z AUTO 14005KT 10SM CLR 10/09 A3021 RMK AO2 SLP233 T01000089 401170067=
200911250653 METAR KPAE 250653Z AUTO VRB04KT 10SM CLR 10/09 A3022 RMK AO2 SLP235 T01000089=
200911250553 METAR KPAE 250553Z AUTO 11006KT 10SM CLR 10/09 A3022 RMK AO2 SLP234 T01000089 10117 20100 56010=
200911250500 SPECI KPAE 250500Z AUTO VRB03KT 10SM CLR 11/09 A3022 RMK AO2=
200911250500 SPECI KPAE 250500Z AUTO VRB03KT 10SM CLR 11/09 A3022 RMK AO2=
200911250453 METAR KPAE 250453Z AUTO VRB04KT 10SM SCT002 BKN016 OVC035 11/10 A3022 RMK AO2 SLP236 T01110100=
200911250353 METAR KPAE 250353Z 15011KT 5SM BR SCT001 BKN016 OVC035 11/10 A3024 RMK AO2 SLP241 T01110100=
200911250336 SPECI KPAE 250336Z 15012KT 5SM BR SCT002 BKN016 OVC035 11/10 A3024 RMK AO2=
200911250336 SPECI KPAE 250336Z 15012KT 5SM BR SCT002 BKN016 OVC035 11/10 A3024 RMK AO2=
200911250300 SPECI KPAE 250300Z 16010G18KT 5SM BR BKN003 OVC013 11/10 A3025 RMK AO2=
200911250300 SPECI KPAE 250300Z 16010G18KT 5SM BR BKN003 OVC013 11/10 A3025 RMK AO2=
200911250253 METAR KPAE 250253Z 16013G17KT 1/2SM BKN002 OVC013 11/10 A3025 RMK AO2 SLP245 T01110100 56006 RVRNO=
200911250243 SPECI KPAE 250243Z 16011G22KT 1/2SM FG SCT002 OVC013 11/10 A3025 RMK AO2 RVRNO=
200911250243 SPECI KPAE 250243Z 16011G22KT 1/2SM FG SCT002 OVC013 11/10 A3025 RMK AO2 RVRNO=
200911250153 METAR KPAE 250153Z 16011KT 1/2SM FG OVC002 11/10 A3025 RMK AO2 SLP245 T01060100 RVRNO=
200911250113 SPECI KPAE 250113Z 16014G18KT 10SM OVC004 11/09 A3025 RMK AO2 CIG 003V009=
200911250113 SPECI KPAE 250113Z 16014G18KT 10SM OVC004 11/09 A3025 RMK AO2 CIG 003V009=
200911250053 METAR KPAE 250053Z AUTO 15011KT 10SM OVC006 11/09 A3026 RMK AO2 CIG 004V009 SLP247 T01060094 TSNO=
200911242353 METAR KPAE 242353Z 16011KT 10SM BKN008 OVC011 11/09 A3027 RMK AO2 SLP251 60001 T01060094 10111 20083 56007=
200911242253 METAR KPAE 242253Z 16009KT 10SM BKN008 OVC011 11/09 A3027 RMK AO2 SLP251 T01060094=
200911242236 SPECI KPAE 242236Z 16010KT 10SM BKN008 OVC011 11/09 A3026 RMK AO2=
200911242236 SPECI KPAE 242236Z 16010KT 10SM BKN008 OVC011 11/09 A3026 RMK AO2=
200911242153 METAR KPAE 242153Z VRB03KT 10SM BKN004 OVC010 10/09 A3026 RMK AO2 SLP250 T01000089=
200911242145 SPECI KPAE 242145Z VRB03KT 10SM SCT003 OVC010 10/09 A3027 RMK AO2 CIG 005V012=
200911242145 SPECI KPAE 242145Z VRB03KT 10SM SCT003 OVC010 10/09 A3027 RMK AO2 CIG 005V012=
200911242141 SPECI KPAE 242141Z 00000KT 10SM BKN003 OVC010 10/09 A3027 RMK AO2=
200911242141 SPECI KPAE 242141Z 00000KT 10SM BKN003 OVC010 10/09 A3027 RMK AO2=
200911242053 METAR KPAE 242053Z 11006KT 1SM BR OVC003 09/08 A3029 RMK AO2 SLP258 60001 T00940083 58007 RVRNO=
200911241953 METAR KPAE 241953Z 00000KT 1SM BR OVC003 09/08 A3029 RMK AO2 RAB32E41 SLP261 P0000 T00890078 RVRNO=
200911241853 METAR KPAE 241853Z 11004KT 1SM BR OVC003 08/07 A3030 RMK AO2 RAB08E17 SLP264 P0001 T00830072 RVRNO=
200911241826 SPECI KPAE 241826Z 11004KT 2SM BR OVC003 08/07 A3030 RMK AO2 RAB08E17 P0000=
200911241826 SPECI KPAE 241826Z 11004KT 2SM BR OVC003 08/07 A3030 RMK AO2 RAB08E17 P0000=
200911241753 METAR KPAE 241753Z 00000KT 2SM BR OVC008 08/07 A3031 RMK AO2 CIG 004V012 SLP266 P0001 60001 T00830072 10083 20072 53011=
200911241653 METAR KPAE 241653Z 15005KT 10SM OVC006 08/07 A3028 RMK AO2 SLP258 T00830067=
200911241553 METAR KPAE 241553Z 15005KT 10SM OVC006 08/07 A3028 RMK AO2 SLP258 T00830067=
200911241453 METAR KPAE 241453Z AUTO 17007KT 10SM OVC006 08/06 A3027 RMK AO2 SLP253 T00780061 53004=
200911241353 METAR KPAE 241353Z AUTO 18008KT 10SM OVC008 08/06 A3025 RMK AO2 SLP247 T00780061=
200911241253 METAR KPAE 241253Z AUTO 18007KT 10SM OVC008 08/06 A3026 RMK AO2 SLP247 T00780061=
200911241221 SPECI KPAE 241221Z AUTO 16005KT 10SM OVC008 08/06 A3026 RMK AO2 CIG 004V013=
200911241221 SPECI KPAE 241221Z AUTO 16005KT 10SM OVC008 08/06 A3026 RMK AO2 CIG 004V013=
200911241153 METAR KPAE 241153Z AUTO VRB04KT 10SM OVC010 08/06 A3026 RMK AO2 CIG 007V014 SLP249 60002 70007 T00780061 10078 20067 50000=
200911241053 METAR KPAE 241053Z AUTO 14005KT 10SM OVC013 08/06 A3026 RMK AO2 RAE36 SLP249 P0000 T00780061=
200911241034 SPECI KPAE 241034Z AUTO 16009KT 10SM -RA SCT006 OVC013 08/06 A3027 RMK AO2 P0000=
200911241034 SPECI KPAE 241034Z AUTO 16009KT 10SM -RA SCT006 OVC013 08/06 A3027 RMK AO2 P0000=
200911241008 SPECI KPAE 241008Z AUTO 16007KT 10SM -RA BKN006 OVC012 08/06 A3027 RMK AO2 CIG 002V010 P0000=
200911241008 SPECI KPAE 241008Z AUTO 16007KT 10SM -RA BKN006 OVC012 08/06 A3027 RMK AO2 CIG 002V010 P0000=
200911241000 SPECI KPAE 241000Z AUTO 16007KT 10SM -RA BKN004 BKN008 OVC012 07/06 A3026 RMK AO2 CIG 002V006 P0000=
200911241000 SPECI KPAE 241000Z AUTO 16007KT 10SM -RA BKN004 BKN008 OVC012 07/06 A3026 RMK AO2 CIG 002V006 P0000=
200911240953 METAR KPAE 240953Z AUTO 16008KT 10SM -RA SCT002 BKN007 OVC013 07/06 A3026 RMK AO2 RAB52 CIG 004V010 SLP249 P0000 T00720061=
200911240922 SPECI KPAE 240922Z AUTO 16010KT 10SM OVC004 07/06 A3026 RMK AO2 CIG 002V006=
200911240922 SPECI KPAE 240922Z AUTO 16010KT 10SM OVC004 07/06 A3026 RMK AO2 CIG 002V006=
200911240901 SPECI KPAE 240901Z AUTO 16009KT 10SM BKN006 BKN010 OVC019 07/06 A3026 RMK AO2 CIG 004V008=
200911240901 SPECI KPAE 240901Z AUTO 16009KT 10SM BKN006 BKN010 OVC019 07/06 A3026 RMK AO2 CIG 004V008=
200911240853 METAR KPAE 240853Z AUTO 15010KT 10SM SCT006 BKN010 OVC019 07/06 A3026 RMK AO2 RAE11 SLP249 P0000 60002 T00720056 58001=
200911240818 SPECI KPAE 240818Z AUTO 15011G14KT 10SM BKN006 OVC017 07/06 A3026 RMK AO2 RAE11 CIG 005V010 P0000=
200911240818 SPECI KPAE 240818Z AUTO 15011G14KT 10SM BKN006 OVC017 07/06 A3026 RMK AO2 RAE11 CIG 005V010 P0000=
200911240808 SPECI KPAE 240808Z AUTO 15006KT 10SM -RA SCT006 BKN019 OVC030 07/06 A3027 RMK AO2 P0000=
200911240808 SPECI KPAE 240808Z AUTO 15006KT 10SM -RA SCT006 BKN019 OVC030 07/06 A3027 RMK AO2 P0000=
200911240753 METAR KPAE 240753Z AUTO 15008KT 8SM -RA FEW017 SCT022 OVC030 07/06 A3026 RMK AO2 RAB23 SLP250 P0002 T00720056 400890056=
200911240653 METAR KPAE 240653Z AUTO VRB04KT 10SM SCT011 OVC019 07/06 A3026 RMK AO2 SLP251 T00720056=
200911240553 METAR KPAE 240553Z AUTO 16010KT 10SM OVC021 07/05 A3026 RMK AO2 RAB14E37 SLP250 P0000 60001 T00720050 10083 20072 51004=
200911240453 METAR KPAE 240453Z AUTO 16012KT 10SM SCT017 BKN022 OVC090 07/05 A3026 RMK AO2 RAE00B19E38 SLP250 P0000 T00720050=
200911240353 METAR KPAE 240353Z 17010KT 10SM -RA BKN019 OVC026 07/04 A3025 RMK AO2 SLP248 P0001 T00720044=
200911240300 SPECI KPAE 240300Z 18010KT 10SM -RA OVC028 08/04 A3026 RMK AO2 P0000=
200911240300 SPECI KPAE 240300Z 18010KT 10SM -RA OVC028 08/04 A3026 RMK AO2 P0000=
200911240253 METAR KPAE 240253Z 17011KT 10SM -RA OVC030 08/04 A3025 RMK AO2 RAB51 SLP247 P0000 60000 T00830039 58002=
200911240153 METAR KPAE 240153Z VRB06KT 10SM OVC030 08/04 A3026 RMK AO2 RAB43E52 SLP250 P0000 T00830039=
200911240053 METAR KPAE 240053Z 17009KT 10SM OVC030 08/04 A3026 RMK AO2 RAE00 SLP251 P0000 T00830039=
200911232353 METAR KPAE 232353Z 17011KT 10SM -RA BKN030 OVC037 08/03 A3026 RMK AO2 RAB13 SLP249 P0001 60002 T00830033 10089 20067 58006=
200911232253 METAR KPAE 232253Z 17014KT 10SM SCT040 OVC085 09/03 A3026 RMK AO2 SLP252 P0001 T00890028=
200911232153 METAR KPAE 232153Z 15011KT 10SM BKN043 OVC085 08/03 A3027 RMK AO2 RAE18 SLP255 P0000 T00830028=
200911232053 METAR KPAE 232053Z 16014KT 10SM -RA FEW040 BKN065 BKN085 08/03 A3027 RMK AO2 RAB40 SLP255 P0000 60000 T00830028 58007=
200911231953 METAR KPAE 231953Z 16013G20KT 10SM BKN085 08/03 A3029 RMK AO2 SLP261 T00830033=
200911231853 METAR KPAE 231853Z 15013G17KT 10SM OVC043 08/03 A3030 RMK AO2 SLP263 T00780033=
200911231753 METAR KPAE 231753Z 15011KT 10SM FEW110 07/03 A3030 RMK AO2 SLP263 60002 T00670033 10067 20061 58002=
200911231653 METAR KPAE 231653Z 15008G15KT 100V170 10SM FEW036 SCT080 BKN110 06/04 A3030 RMK AO2 RAE19 SLP263 P0001 T00610039=
200911231553 METAR KPAE 231553Z 15011G20KT 8SM -RA OVC036 06/03 A3031 RMK AO2 RAB11 SLP266 P0001 T00610033=
200911231453 METAR KPAE 231453Z 16011KT 10SM SCT029 BKN075 OVC095 06/03 A3030 RMK AO2 SLP265 T00610033 51012=
200911231407 SPECI KPAE 231407Z 17010KT 10SM SCT023 OVC080 07/03 A3030 RMK AO2=
200911231407 SPECI KPAE 231407Z 17010KT 10SM SCT023 OVC080 07/03 A3030 RMK AO2=
200911231353 METAR KPAE 231353Z 16011G17KT 10SM BKN023 OVC075 07/03 A3030 RMK AO2 SLP262 T00670033=
200911231253 METAR KPAE 231253Z 17009KT 10SM OVC021 07/03 A3029 RMK AO2 SLP261 T00670033=
200911231153 METAR KPAE 231153Z 16009KT 10SM BKN019 OVC090 06/03 A3027 RMK AO2 SLP253 70024 T00610033 10061 20056 51014=
200911231136 SPECI KPAE 231136Z 16008KT 10SM BKN019 OVC090 06/03 A3027 RMK AO2=
200911231136 SPECI KPAE 231136Z 16008KT 10SM BKN019 OVC090 06/03 A3027 RMK AO2=
200911231128 SPECI KPAE 231128Z 16009KT 10SM SCT019 OVC090 06/03 A3027 RMK AO2=
200911231128 SPECI KPAE 231128Z 16009KT 10SM SCT019 OVC090 06/03 A3027 RMK AO2=
200911231119 SPECI KPAE 231119Z 17008KT 10SM BKN019 OVC095 06/03 A3027 RMK AO2=
200911231119 SPECI KPAE 231119Z 17008KT 10SM BKN019 OVC095 06/03 A3027 RMK AO2=
200911231053 METAR KPAE 231053Z 17008KT 10SM FEW021 BKN095 BKN120 06/03 A3026 RMK AO2 SLP250 T00610033=
200911230953 METAR KPAE 230953Z 16008KT 10SM FEW049 BKN120 06/03 A3024 RMK AO2 SLP243 T00560033=
200911230853 METAR KPAE 230853Z 17008KT 10SM OVC045 06/03 A3023 RMK AO2 SLP238 T00560033 51019=
200911230753 METAR KPAE 230753Z 16007KT 10SM FEW047 06/03 A3022 RMK AO2 SLP235 T00560033 400720050=
200911230653 METAR KPAE 230653Z 17007KT 10SM CLR 06/03 A3019 RMK AO2 SLP226 T00560028=
200911230553 METAR KPAE 230553Z 17006KT 10SM CLR 06/03 A3017 RMK AO2 SLP220 T00560028 10072 20056 51029=
200911230453 METAR KPAE 230453Z 17007KT 10SM BKN085 06/03 A3014 RMK AO2 SLP210 T00560028=
200911230353 METAR KPAE 230353Z 18006KT 10SM OVC085 06/03 A3011 RMK AO2 SLP200 T00610033=
200911230253 METAR KPAE 230253Z 18005KT 10SM BKN080 OVC095 06/03 A3008 RMK AO2 SLP189 T00610033 53043=
200911230153 METAR KPAE 230153Z 18009KT 10SM OVC080 06/04 A3004 RMK AO2 SLP174 T00610039=
200911230053 METAR KPAE 230053Z 18009KT 10SM BKN075 07/04 A2999 RMK AO2 SLP159 T00670044=
200911222353 METAR KPAE 222353Z 17007KT 10SM OVC080 07/06 A2995 RMK AO2 SLP145 60012 T00720056 10072 20056 52037=
200911222253 METAR KPAE 222253Z 17007KT 10SM FEW050 OVC080 07/06 A2992 RMK AO2 SLP133 T00720056=
200911222236 SPECI KPAE 222236Z 16006KT 10SM SCT006 OVC080 07/06 A2990 RMK AO2=
200911222236 SPECI KPAE 222236Z 16006KT 10SM SCT006 OVC080 07/06 A2990 RMK AO2=
200911222214 SPECI KPAE 222214Z 16006KT 10SM BKN006 OVC085 07/05 A2989 RMK AO2=
200911222214 SPECI KPAE 222214Z 16006KT 10SM BKN006 OVC085 07/05 A2989 RMK AO2=
200911222153 METAR KPAE 222153Z 15007KT 10SM OVC060 07/04 A2987 RMK AO2 RAE20 SLP118 P0000 T00670044=
200911222053 METAR KPAE 222053Z 17007KT 8SM -RA BKN015 OVC021 07/05 A2984 RMK AO2 SLP107 P0003 60012 T00670050 51066=
200911221953 METAR KPAE 221953Z 00000KT 5SM -RA BR BKN015 OVC020 06/04 A2979 RMK AO2 SLP089 P0006 T00610044=
200911221900 SPECI KPAE 221900Z VRB03KT 6SM -RA BR BKN016 OVC022 06/04 A2973 RMK AO2 PRESRR P0000=
200911221900 SPECI KPAE 221900Z VRB03KT 6SM -RA BR BKN016 OVC022 06/04 A2973 RMK AO2 PRESRR P0000=
200911221853 METAR KPAE 221853Z 00000KT 2 1/2SM -RA BR BKN008 OVC022 06/04 A2972 RMK AO2 SLP067 P0003 T00610044=
200911221753 METAR KPAE 221753Z 15003KT 2 1/2SM -RA BR BKN008 OVC022 06/04 A2964 RMK AO2 PRESRR SLP040 P0004 60012 T00560039 10067 20056 51058=
200911221750 SPECI KPAE 221750Z 00000KT 3SM -RA BR BKN008 OVC022 06/04 A2963 RMK AO2 PRESRR P0004=
200911221750 SPECI KPAE 221750Z 00000KT 3SM -RA BR BKN008 OVC022 06/04 A2963 RMK AO2 PRESRR P0004=
200911221653 METAR KPAE 221653Z 18010KT 10SM -RA SCT021 BKN026 OVC032 06/03 A2956 RMK AO2 PRESRR SLP012 P0001 T00560033=
200911221553 METAR KPAE 221553Z 16012G17KT 6SM -RA BR FEW021 OVC029 06/03 A2947 RMK AO2 SLP982 P0006 T00560033=
200911221538 SPECI KPAE 221538Z 15010G17KT 4SM RA BR FEW022 OVC027 06/03 A2946 RMK AO2 P0004=
200911221538 SPECI KPAE 221538Z 15010G17KT 4SM RA BR FEW022 OVC027 06/03 A2946 RMK AO2 P0004=
200911221453 METAR KPAE 221453Z 15009KT 10SM -RA BKN037 OVC044 06/02 A2942 RMK AO2 SLP963 P0001 60001 T00610022 53043=
200911221353 METAR KPAE 221353Z AUTO 15008KT 10SM -RA BKN041 BKN048 OVC065 07/03 A2935 RMK AO2 SLP941 P0000 T00670028=
200911221253 METAR KPAE 221253Z AUTO 12008G15KT 10SM -RA SCT046 BKN055 OVC070 06/03 A2930 RMK AO2 RAE04B51 SLP922 P0000 T00610033=
200911221153 METAR KPAE 221153Z AUTO 12010KT 10SM -RA FEW044 BKN050 OVC070 06/04 A2929 RMK AO2 SLP919 P0003 60049 70088 T00610039 10067 20050 56038=
200911221053 METAR KPAE 221053Z AUTO 12011KT 9SM -RA BKN036 OVC045 06/04 A2930 RMK AO2 SLP923 P0006 T00560039=
200911221014 SPECI KPAE 221014Z AUTO 12009G15KT 8SM -RA OVC030 06/04 A2933 RMK AO2 P0003=
200911221014 SPECI KPAE 221014Z AUTO 12009G15KT 8SM -RA OVC030 06/04 A2933 RMK AO2 P0003=
200911220953 METAR KPAE 220953Z AUTO 12009G14KT 6SM RA BR OVC026 06/03 A2935 RMK AO2 PRESFR SLP940 P0016 T00560033=
200911220902 SPECI KPAE 220902Z AUTO VRB03KT 6SM -RA BR BKN029 OVC038 06/04 A2940 RMK AO2 P0001=
200911220902 SPECI KPAE 220902Z AUTO VRB03KT 6SM -RA BR BKN029 OVC038 06/04 A2940 RMK AO2 P0001=
200911220853 METAR KPAE 220853Z AUTO 16004KT 7SM -RA BKN031 OVC038 06/04 A2940 RMK AO2 SLP958 P0005 60024 T00560039 56072=
200911220803 SPECI KPAE 220803Z AUTO 00000KT 6SM -RA BR SCT027 OVC035 06/04 A2945 RMK AO2 P0001=
200911220803 SPECI KPAE 220803Z AUTO 00000KT 6SM -RA BR SCT027 OVC035 06/04 A2945 RMK AO2 P0001=
200911220753 METAR KPAE 220753Z AUTO 13003KT 6SM -RA BR BKN027 OVC033 06/04 A2946 RMK AO2 PRESFR SLP979 P0009 T00560039 400670039=
200911220653 METAR KPAE 220653Z AUTO VRB03KT 4SM RA BR OVC025 05/04 A2955 RMK AO2 PRESFR SLP009 P0010 T00500039=
200911220553 METAR KPAE 220553Z AUTO 15006KT 5SM RA BR OVC025 05/03 A2962 RMK AO2 PRESFR SLP033 P0010 60038 T00500033 10067 20050 58046=
200911220453 METAR KPAE 220453Z AUTO 16009KT 5SM RA BR FEW018 OVC023 05/03 A2968 RMK AO2 SLP055 P0014 T00500033=
200911220353 METAR KPAE 220353Z 17012KT 4SM RA BR OVC019 06/04 A2973 RMK AO2 PK WND 19028/0312 SLP070 P0012 T00560039=
200911220300 SPECI KPAE 220300Z 20021G26KT 7SM -RA OVC027 06/03 A2975 RMK AO2 PK WND 20026/0259 P0001=
200911220300 SPECI KPAE 220300Z 20021G26KT 7SM -RA OVC027 06/03 A2975 RMK AO2 PK WND 20026/0259 P0001=
200911220253 METAR KPAE 220253Z 18016G26KT 7SM -RA FEW024 OVC031 07/03 A2976 RMK AO2 PK WND 18026/0246 SLP080 P0002 60002 T00670033 56019=
200911220153 METAR KPAE 220153Z 16009KT 10SM -RA OVC028 06/03 A2977 RMK AO2 RAB0056 SLP086 P0000 T00610033=
200911220053 METAR KPAE 220053Z 15013G17KT 10SM OVC027 07/03 A2979 RMK AO2 SLP091 T00670028=
200911212353 METAR KPAE 212353Z 15007KT 10SM OVC027 06/03 A2981 RMK AO2 RAE41 SLP099 P0000 60000 T00610033 10067 20050 58036=
200911212314 SPECI KPAE 212314Z 15011G17KT 10SM -RA FEW020 BKN025 OVC037 07/03 A2984 RMK AO2 P0000=
200911212314 SPECI KPAE 212314Z 15011G17KT 10SM -RA FEW020 BKN025 OVC037 07/03 A2984 RMK AO2 P0000=
200911212253 METAR KPAE 212253Z 16013G20KT 10SM -RA SCT023 OVC039 07/03 A2986 RMK AO2 RAB07 SLP114 P0000 T00670028=
200911212213 SPECI KPAE 212213Z 16015KT 10SM -RA OVC021 07/03 A2988 RMK AO2 RAB07 P0000=
200911212213 SPECI KPAE 212213Z 16015KT 10SM -RA OVC021 07/03 A2988 RMK AO2 RAB07 P0000=
200911212153 METAR KPAE 212153Z 16013KT 10SM SCT021 OVC038 07/02 A2989 RMK AO2 SLP126 T00670022=
200911212100 SPECI KPAE 212100Z 17012G22KT 10SM SCT018 BKN038 BKN060 06/03 A2992 RMK AO2=
200911212100 SPECI KPAE 212100Z 17012G22KT 10SM SCT018 BKN038 BKN060 06/03 A2992 RMK AO2=
200911212053 METAR KPAE 212053Z 18013KT 10SM BKN020 OVC095 07/03 A2992 RMK AO2 SLP135 T00670028 58021=
200911211953 METAR KPAE 211953Z 17013G19KT 10SM BKN020 OVC095 06/03 A2995 RMK AO2 SLP146 T00610028=
200911211853 METAR KPAE 211853Z 17015G19KT 10SM BKN013 OVC080 05/02 A2997 RMK AO2 SLP154 T00500022=
200911211753 METAR KPAE 211753Z 18011KT 10SM BKN013 OVC080 05/02 A2999 RMK AO2 SLP157 P0001 60001 T00500022 10050 20039 53007=
200911211653 METAR KPAE 211653Z 17012KT 10SM OVC013 04/02 A2997 RMK AO2 SLP152 T00440017=
200911211553 METAR KPAE 211553Z 18011KT 10SM BKN015 OVC100 04/02 A2997 RMK AO2 SLP151 T00440017=
200911211522 SPECI KPAE 211522Z 18010KT 10SM BKN015 BKN020 OVC100 04/02 A2997 RMK AO2=
200911211522 SPECI KPAE 211522Z 18010KT 10SM BKN015 BKN020 OVC100 04/02 A2997 RMK AO2=
200911211453 METAR KPAE 211453Z 17009KT 10SM SCT017 OVC100 04/02 A2996 RMK AO2 SLP151 60000 T00440017 51017=
200911211353 METAR KPAE 211353Z AUTO 18007KT 10SM BKN019 04/02 A2995 RMK AO2 SLP146 T00390017=
200911211253 METAR KPAE 211253Z AUTO 18012KT 10SM OVC036 04/02 A2993 RMK AO2 RAE1157 SLP139 P0000 T00440017=
200911211206 SPECI KPAE 211206Z AUTO 18009KT 10SM FEW019 OVC036 04/02 A2992 RMK AO2 RAE1157 P0000=
200911211206 SPECI KPAE 211206Z AUTO 18009KT 10SM FEW019 OVC036 04/02 A2992 RMK AO2 RAE1157 P0000=
200911211153 METAR KPAE 211153Z AUTO 18009KT 10SM -RA BKN019 BKN027 OVC034 05/03 A2991 RMK AO2 SLP132 P0006 60023 70029 T00500028 10061 20044 51034=
200911211053 METAR KPAE 211053Z AUTO 20008KT 9SM -RA BKN019 OVC025 04/03 A2989 RMK AO2 SLP125 P0007 T00440028=
200911210953 METAR KPAE 210953Z AUTO 21011KT 6SM RA BR OVC017 04/03 A2986 RMK AO2 SLP114 P0009 T00440028=
200911210853 METAR KPAE 210853Z AUTO 21011G19KT 5SM RA BR OVC017 05/03 A2981 RMK AO2 RAE08B47 SLP098 P0001 60001 T00500028 53039=
200911210753 METAR KPAE 210753Z AUTO 21011G19KT 10SM -RA SCT015 BKN020 OVC085 06/03 A2977 RMK AO2 RAB11 SLP084 P0000 T00560028 401170056=
200911210653 METAR KPAE 210653Z AUTO 19016G20KT 10SM SCT017 OVC095 06/03 A2973 RMK AO2 SLP069 T00610033=
200911210645 SPECI KPAE 210645Z AUTO 19015KT 10SM SCT017 BKN095 OVC110 06/03 A2973 RMK AO2=
200911210645 SPECI KPAE 210645Z AUTO 19015KT 10SM SCT017 BKN095 OVC110 06/03 A2973 RMK AO2=
200911210608 SPECI KPAE 210608Z AUTO 19011KT 10SM BKN015 BKN021 BKN110 06/03 A2971 RMK AO2=
200911210608 SPECI KPAE 210608Z AUTO 19011KT 10SM BKN015 BKN021 BKN110 06/03 A2971 RMK AO2=
200911210553 METAR KPAE 210553Z AUTO 20011G22KT 10SM SCT017 BKN035 BKN110 06/03 A2970 RMK AO2 RAE50 SLP059 P0001 60001 T00610033 10078 20061 51029=
200911210546 SPECI KPAE 210546Z AUTO 20015G19KT 10SM -RA SCT015 BKN027 OVC034 06/03 A2970 RMK AO2 P0001=
200911210546 SPECI KPAE 210546Z AUTO 20015G19KT 10SM -RA SCT015 BKN027 OVC034 06/03 A2970 RMK AO2 P0001=
200911210453 METAR KPAE 210453Z AUTO 20011G15KT 10SM -RA FEW018 BKN055 OVC090 06/03 A2968 RMK AO2 RAB49 SLP052 P0000 T00610028=
200911210424 SPECI KPAE 210424Z 20016G21KT 10SM SCT016 BKN049 OVC090 06/03 A2966 RMK AO2=
200911210424 SPECI KPAE 210424Z 20016G21KT 10SM SCT016 BKN049 OVC090 06/03 A2966 RMK AO2=
200911210414 SPECI KPAE 210414Z 21016G21KT 10SM SCT016 BKN021 OVC048 06/03 A2966 RMK AO2=
200911210414 SPECI KPAE 210414Z 21016G21KT 10SM SCT016 BKN021 OVC048 06/03 A2966 RMK AO2=
200911210353 METAR KPAE 210353Z 20015G19KT 10SM SCT019 BKN050 OVC090 07/03 A2964 RMK AO2 SLP040 T00670028=
200911210253 METAR KPAE 210253Z 20014G23KT 10SM FEW019 SCT060 OVC085 07/03 A2961 RMK AO2 PK WND 20030/0211 SLP028 T00670028 53025=
200911210153 METAR KPAE 210153Z 20022G31KT 10SM FEW019 SCT090 07/03 A2958 RMK AO2 PK WND 20033/0106 SLP017 T00670028=
200911210138 SPECI KPAE 210138Z 20022G29KT 10SM BKN021 07/03 A2957 RMK AO2 PK WND 20033/0106=
200911210138 SPECI KPAE 210138Z 20022G29KT 10SM BKN021 07/03 A2957 RMK AO2 PK WND 20033/0106=
200911210053 METAR KPAE 210053Z 19025G32KT 10SM BKN023 OVC030 07/03 A2954 RMK AO2 PK WND 18032/0052 SLP005 T00720033=
200911202353 METAR KPAE 202353Z 18016G28KT 10SM BKN021 08/04 A2953 RMK AO2 PK WND 18028/2350 SLP002 60000 T00780039 10094 20078 51008=
200911202253 METAR KPAE 202253Z 18016G23KT 10SM SCT019 SCT025 08/05 A2953 RMK AO2 RAB33E46 SLP999 P0000 T00830050=
200911202223 SPECI KPAE 202223Z 18017G21KT 10SM BKN021 BKN060 08/05 A2952 RMK AO2=
200911202223 SPECI KPAE 202223Z 18017G21KT 10SM BKN021 BKN060 08/05 A2952 RMK AO2=
200911202215 SPECI KPAE 202215Z 18016G23KT 10SM SCT021 BKN060 08/04 A2952 RMK AO2=
200911202215 SPECI KPAE 202215Z 18016G23KT 10SM SCT021 BKN060 08/04 A2952 RMK AO2=
200911202208 SPECI KPAE 202208Z 19018G22KT 10SM BKN021 BKN060 08/05 A2952 RMK AO2=
200911202208 SPECI KPAE 202208Z 19018G22KT 10SM BKN021 BKN060 08/05 A2952 RMK AO2=
200911202153 METAR KPAE 202153Z 18017G23KT 10SM SCT021 08/05 A2952 RMK AO2 SLP996 T00830050=
200911202118 SPECI KPAE 202118Z 17013G21KT 10SM FEW015 SCT100 08/06 A2951 RMK AO2=
200911202118 SPECI KPAE 202118Z 17013G21KT 10SM FEW015 SCT100 08/06 A2951 RMK AO2=
200911202053 METAR KPAE 202053Z 18014KT 10SM SCT015 BKN020 08/06 A2951 RMK AO2 SLP994 T00830056 55000=
200911201953 METAR KPAE 201953Z COR 18017G22KT 10SM SCT014 SCT050 08/05 A2951 RMK AO2 SLP992 T00830050=
200911201902 SPECI KPAE 201902Z 18016KT 10SM SCT015 BKN022 OVC046 09/06 A2951 RMK AO2=
200911201902 SPECI KPAE 201902Z 18016KT 10SM SCT015 BKN022 OVC046 09/06 A2951 RMK AO2=
200911201853 METAR KPAE 201853Z 18014KT 10SM SCT015 SCT025 OVC048 08/06 A2951 RMK AO2 SLP994 T00830061=
200911201753 METAR KPAE 201753Z 17013G22KT 10SM BKN100 08/06 A2950 RMK AO2 SLP992 60005 T00830061 10089 20078 58004=
200911201653 METAR KPAE 201653Z 18014KT 10SM BKN070 08/06 A2951 RMK AO2 RAE10 SLP992 P0000 T00780056=
200911201602 SPECI KPAE 201602Z 18017G25KT 10SM -RA FEW010 SCT014 BKN047 08/06 A2951 RMK AO2 P0000=
200911201602 SPECI KPAE 201602Z 18017G25KT 10SM -RA FEW010 SCT014 BKN047 08/06 A2951 RMK AO2 P0000=
200911201553 METAR KPAE 201553Z 19019KT 10SM -RA SCT007 BKN015 OVC045 08/06 A2952 RMK AO2 SLP997 P0001 T00780061=
200911201453 METAR KPAE 201453Z 17010KT 10SM -RA BKN007 OVC036 08/07 A2952 RMK AO2 SLP996 P0001 60004 T00830067 51010=
200911201445 SPECI KPAE 201445Z AUTO 17011KT 10SM -RA BKN007 BKN031 OVC036 08/07 A2951 RMK AO2 P0001=
200911201445 SPECI KPAE 201445Z AUTO 17011KT 10SM -RA BKN007 BKN031 OVC036 08/07 A2951 RMK AO2 P0001=
200911201437 SPECI KPAE 201437Z AUTO 17010KT 10SM -RA SCT007 BKN013 OVC038 08/07 A2951 RMK AO2 P0001=
200911201437 SPECI KPAE 201437Z AUTO 17010KT 10SM -RA SCT007 BKN013 OVC038 08/07 A2951 RMK AO2 P0001=
200911201431 SPECI KPAE 201431Z AUTO 18010KT 10SM -RA SCT010 BKN031 OVC041 08/07 A2951 RMK AO2 P0001=
200911201431 SPECI KPAE 201431Z AUTO 18010KT 10SM -RA SCT010 BKN031 OVC041 08/07 A2951 RMK AO2 P0001=
200911201413 SPECI KPAE 201413Z AUTO 18013KT 10SM -RA BKN014 BKN048 OVC060 08/07 A2951 RMK AO2 P0000=
200911201413 SPECI KPAE 201413Z AUTO 18013KT 10SM -RA BKN014 BKN048 OVC060 08/07 A2951 RMK AO2 P0000=
200911201400 SPECI KPAE 201400Z AUTO 18013KT 10SM -RA FEW009 SCT018 OVC044 08/07 A2951 RMK AO2 P0000=
200911201400 SPECI KPAE 201400Z AUTO 18013KT 10SM -RA FEW009 SCT018 OVC044 08/07 A2951 RMK AO2 P0000=
200911201353 METAR KPAE 201353Z AUTO 18014KT 10SM -RA SCT016 BKN028 OVC046 08/06 A2951 RMK AO2 SLP993 P0001 T00780061=
200911201308 SPECI KPAE 201308Z AUTO 19015KT 10SM BKN023 BKN028 OVC055 08/07 A2950 RMK AO2 RAE01 P0001=
200911201308 SPECI KPAE 201308Z AUTO 19015KT 10SM BKN023 BKN028 OVC055 08/07 A2950 RMK AO2 RAE01 P0001=
200911201253 METAR KPAE 201253Z AUTO 19014G20KT 10SM -RA FEW029 BKN049 OVC060 08/06 A2950 RMK AO2 SLP989 P0002 T00830061=
200911201153 METAR KPAE 201153Z AUTO 20014G24KT 9SM -RA FEW031 BKN040 OVC050 09/07 A2949 RMK AO2 WSHFT 1044 SLP985 P0003 60009 70064 T00940067 10117 20094 53006=
200911201112 SPECI KPAE 201112Z AUTO 23008KT 7SM -RA FEW008 SCT035 OVC045 09/08 A2948 RMK AO2 WSHFT 1044 P0001=
200911201112 SPECI KPAE 201112Z AUTO 23008KT 7SM -RA FEW008 SCT035 OVC045 09/08 A2948 RMK AO2 WSHFT 1044 P0001=
200911201104 SPECI KPAE 201104Z AUTO 25010KT 6SM -RA BR FEW030 BKN039 OVC050 09/08 A2948 RMK AO2 WSHFT 1044 P0001=
200911201104 SPECI KPAE 201104Z AUTO 25010KT 6SM -RA BR FEW030 BKN039 OVC050 09/08 A2948 RMK AO2 WSHFT 1044 P0001=
200911201053 METAR KPAE 201053Z AUTO 19010KT 10SM -RA BKN045 OVC050 11/06 A2946 RMK AO2 PRESRR SLP977 P0002 T01110061=
200911200953 METAR KPAE 200953Z AUTO 15012KT 10SM -RA OVC050 11/06 A2944 RMK AO2 SLP971 P0001 T01110056=
200911200853 METAR KPAE 200853Z AUTO 15012G19KT 10SM -RA OVC060 11/06 A2947 RMK AO2 RAB0755E10B33 SLP979 P0001 60003 T01110056 58021=
200911200753 METAR KPAE 200753Z AUTO 15013G21KT 10SM FEW050 BKN070 OVC080 11/06 A2949 RMK AO2 RAE05B37E52 SLP988 P0000 T01110061 401280056=
200911200653 METAR KPAE 200653Z AUTO 17018G27KT 10SM -RA SCT050 OVC060 11/07 A2952 RMK AO2 PK WND 16033/0554 SLP997 P0002 T01110072=
200911200553 METAR KPAE 200553Z AUTO 17023G33KT 10SM -RA OVC060 12/07 A2953 RMK AO2 PK WND 17035/0504 SLP001 P0001 60006 T01170067 10128 20083 58012=
200911200453 METAR KPAE 200453Z AUTO 18020G29KT 10SM -RA FEW047 OVC060 12/06 A2955 RMK AO2 PK WND 17032/0441 SLP007 P0001 T01220061=
200911200353 METAR KPAE 200353Z 14007G17KT 110V170 10SM -RA FEW044 BKN060 OVC090 11/07 A2956 RMK AO2 PK WND 16032/0322 SLP010 P0002 T01110067=
200911200253 METAR KPAE 200253Z 17018G23KT 10SM -RA BKN060 OVC075 12/07 A2957 RMK AO2 SLP013 P0000 60002 T01170067 58019=
200911200153 METAR KPAE 200153Z VRB05KT 10SM -RA FEW045 OVC055 10/07 A2959 RMK AO2 RAE03B44 SLP020 P0000 T01000072=
200911200053 METAR KPAE 200053Z 00000KT 10SM -RA OVC041 08/07 A2961 RMK AO2 RAE33B49 SLP029 P0002 T00830072=
200911192353 METAR KPAE 192353Z 00000KT 6SM -RA BR OVC039 08/07 A2962 RMK AO2 SLP034 P0006 60032 T00830072 10089 20067 56025=
200911192253 METAR KPAE 192253Z 15008KT 10SM -RA OVC033 08/07 A2964 RMK AO2 SLP040 P0004 T00830072=
200911192203 SPECI KPAE 192203Z 13009G16KT 100V190 9SM -RA SCT024 BKN032 OVC038 08/07 A2965 RMK AO2 P0000=
200911192203 SPECI KPAE 192203Z 13009G16KT 100V190 9SM -RA SCT024 BKN032 OVC038 08/07 A2965 RMK AO2 P0000=
200911192153 METAR KPAE 192153Z 12012G17KT 3SM -RA BR FEW006 BKN024 OVC034 08/07 A2966 RMK AO2 PRESFR SLP045 VIS E 2 P0008 T00780067=
200911192140 SPECI KPAE 192140Z 12010KT 2SM -RA BR FEW007 BKN024 OVC030 08/07 A2968 RMK AO2 P0007=
200911192140 SPECI KPAE 192140Z 12010KT 2SM -RA BR FEW007 BKN024 OVC030 08/07 A2968 RMK AO2 P0007=
200911192127 SPECI KPAE 192127Z 12006KT 1 3/4SM RA BR BKN024 BKN030 OVC039 08/07 A2969 RMK AO2 P0006=
200911192127 SPECI KPAE 192127Z 12006KT 1 3/4SM RA BR BKN024 BKN030 OVC039 08/07 A2969 RMK AO2 P0006=
200911192122 SPECI KPAE 192122Z VRB06KT 2SM RA BR SCT024 BKN030 OVC039 08/07 A2969 RMK AO2 P0005=
200911192122 SPECI KPAE 192122Z VRB06KT 2SM RA BR SCT024 BKN030 OVC039 08/07 A2969 RMK AO2 P0005=
200911192053 METAR KPAE 192053Z 15010G19KT 4SM RA BR SCT038 OVC048 08/07 A2970 RMK AO2 SLP059 P0008 60014 T00830067 58033=
200911192005 SPECI KPAE 192005Z 15014G23KT 10SM -RA FEW021 BKN036 OVC048 09/07 A2973 RMK AO2 P0002=
200911192005 SPECI KPAE 192005Z 15014G23KT 10SM -RA FEW021 BKN036 OVC048 09/07 A2973 RMK AO2 P0002=
200911191953 METAR KPAE 191953Z 16009G18KT 7SM RA SCT021 BKN028 OVC037 09/07 A2974 RMK AO2 SLP072 P0003 T00890067=
200911191853 METAR KPAE 191853Z VRB05KT 7SM -RA SCT003 BKN005 OVC018 07/06 A2977 RMK AO2 SLP085 P0003 T00720061=
200911191816 SPECI KPAE 191816Z VRB04KT 7SM -RA FEW003 SCT016 BKN024 07/06 A2979 RMK AO2 P0002=
200911191816 SPECI KPAE 191816Z VRB04KT 7SM -RA FEW003 SCT016 BKN024 07/06 A2979 RMK AO2 P0002=
200911191753 METAR KPAE 191753Z 14006KT 5SM -RA BR SCT003 BKN007 OVC021 07/06 A2980 RMK AO2 SLP093 P0004 60017 T00670056 10072 20061 58008=
200911191700 SPECI KPAE 191700Z VRB05KT 5SM -RA BR BKN005 BKN013 OVC021 06/06 A2981 RMK AO2 P0001=
200911191700 SPECI KPAE 191700Z VRB05KT 5SM -RA BR BKN005 BKN013 OVC021 06/06 A2981 RMK AO2 P0001=
200911191653 METAR KPAE 191653Z 14003KT 5SM RA BR BKN003 BKN014 OVC021 06/06 A2981 RMK AO2 SLP097 P0006 T00610056=
200911191644 SPECI KPAE 191644Z 00000KT 4SM -RA BR BKN003 BKN014 OVC021 06/06 A2981 RMK AO2 P0004=
200911191644 SPECI KPAE 191644Z 00000KT 4SM -RA BR BKN003 BKN014 OVC021 06/06 A2981 RMK AO2 P0004=
200911191553 METAR KPAE 191553Z 15007G16KT 6SM -RA BR SCT003 BKN009 OVC013 07/06 A2982 RMK AO2 SLP099 P0004 T00670056=
200911191453 METAR KPAE 191453Z AUTO 15009KT 7SM -RA BKN009 OVC013 07/06 A2982 RMK AO2 CIG 004V011 SLP101 P0002 60003 T00720061 50000=
200911191413 SPECI KPAE 191413Z AUTO 17008KT 9SM -RA BKN009 OVC014 07/06 A2983 RMK AO2 CIG 006V012 P0001=
200911191413 SPECI KPAE 191413Z AUTO 17008KT 9SM -RA BKN009 OVC014 07/06 A2983 RMK AO2 CIG 006V012 P0001=
200911191353 METAR KPAE 191353Z AUTO 17009KT 9SM -RA OVC012 07/06 A2983 RMK AO2 RAB18 SLP103 P0001 T00720056=
200911191314 SPECI KPAE 191314Z AUTO 17008KT 10SM BKN012 BKN018 OVC031 07/06 A2982 RMK AO2=
200911191314 SPECI KPAE 191314Z AUTO 17008KT 10SM BKN012 BKN018 OVC031 07/06 A2982 RMK AO2=
200911191300 METAR KPAE NIL=
200911191253 METAR KPAE 191253Z AUTO 18012KT 10SM FEW010 BKN015 OVC033 07/06 A2982 RMK AO2 RAE05 SLP099 P0000 T00720056=
200911191211 SPECI KPAE 191211Z AUTO 17008KT 10SM FEW008 BKN014 OVC020 07/06 A2982 RMK AO2 RAE05 P0000=
200911191211 SPECI KPAE 191211Z AUTO 17008KT 10SM FEW008 BKN014 OVC020 07/06 A2982 RMK AO2 RAE05 P0000=
200911191200 METAR KPAE NIL=
200911191130 SPECI KPAE 191130Z AUTO 20008KT 10SM -RA FEW009 BKN014 OVC021 07/06 A2982 RMK AO2 P0001=
200911191130 SPECI KPAE 191130Z AUTO 20008KT 10SM -RA FEW009 BKN014 OVC021 07/06 A2982 RMK AO2 P0001=
200911191053 METAR KPAE 191053Z AUTO 21006KT 10SM -RA BKN020 OVC025 07/04 A2982 RMK AO2 SLP102 P0001 T00670044=
200911190953 METAR KPAE 190953Z AUTO 18011KT 10SM -RA OVC028 07/04 A2981 RMK AO2 SLP098 P0002 T00670044=
200911190950 SPECI KPAE 190950Z AUTO 17008KT 10SM -RA OVC028 07/04 A2981 RMK AO2 P0002=
200911190950 SPECI KPAE 190950Z AUTO 17008KT 10SM -RA OVC028 07/04 A2981 RMK AO2 P0002=
200911190937 SPECI KPAE 190937Z AUTO 17011KT 10SM -RA OVC030 06/04 A2980 RMK AO2 P0001=
200911190937 SPECI KPAE 190937Z AUTO 17011KT 10SM -RA OVC030 06/04 A2980 RMK AO2 P0001=
200911190853 METAR KPAE 190853Z AUTO 16011KT 10SM -RA OVC028 07/04 A2980 RMK AO2 SLP093 P0002 60010 T00670039 56003=
200911190849 SPECI KPAE 190849Z AUTO 16013KT 10SM -RA OVC028 07/04 A2980 RMK AO2 P0002=
200911190849 SPECI KPAE 190849Z AUTO 16013KT 10SM -RA OVC028 07/04 A2980 RMK AO2 P0002=
200911190753 METAR KPAE 190753Z AUTO 16010KT 7SM -RA SCT028 BKN037 OVC046 06/04 A2980 RMK AO2 SLP093 P0004 T00560039 400830033=
200911190716 SPECI KPAE 190716Z AUTO 15010G16KT 7SM -RA BKN030 OVC038 06/04 A2980 RMK AO2 P0002=
200911190716 SPECI KPAE 190716Z AUTO 15010G16KT 7SM -RA BKN030 OVC038 06/04 A2980 RMK AO2 P0002=
200911190653 METAR KPAE 190653Z AUTO 15010G15KT 7SM -RA BKN027 OVC033 06/04 A2981 RMK AO2 SLP096 P0004 T00560039=
200911190623 SPECI KPAE 190623Z AUTO 15006G17KT 8SM -RA BKN030 OVC036 06/04 A2980 RMK AO2 P0001=
200911190623 SPECI KPAE 190623Z AUTO 15006G17KT 8SM -RA BKN030 OVC036 06/04 A2980 RMK AO2 P0001=
200911190553 METAR KPAE 190553Z AUTO 16016G25KT 7SM -RA BKN026 OVC034 06/04 A2982 RMK AO2 PK WND 17026/0510 SLP101 P0009 60032 T00560039 10072 20056 56013=
200911190453 METAR KPAE 190453Z AUTO 15013G27KT 5SM RA BR OVC024 06/04 A2983 RMK AO2 PK WND 15027/0444 SLP103 P0010 T00560039=
200911190353 METAR KPAE 190353Z 16018G24KT 4SM -RA BR BKN024 BKN029 OVC035 06/03 A2985 RMK AO2 PK WND 16035/0307 SLP110 P0005 T00560033=
200911190339 SPECI KPAE 190339Z 15016G23KT 5SM -RA BR BKN024 OVC030 06/03 A2986 RMK AO2 PK WND 16035/0307 P0004=
200911190339 SPECI KPAE 190339Z 15016G23KT 5SM -RA BR BKN024 OVC030 06/03 A2986 RMK AO2 PK WND 16035/0307 P0004=
200911190253 METAR KPAE 190253Z 18020G24KT 8SM -RA SCT029 OVC039 07/02 A2986 RMK AO2 PK WND 15035/0226 SLP114 P0002 60008 T00670022 56030=
200911190153 METAR KPAE 190153Z 17018G31KT 6SM -RA BKN025 OVC035 07/02 A2988 RMK AO2 PK WND 16037/0107 SLP121 P0002 T00670017=
200911190053 METAR KPAE 190053Z 17021G32KT 6SM -RA OVC023 06/02 A2989 RMK AO2 PK WND 16038/2357 RAB2356 SLP123 P0004 T00610022=
200911182353 METAR KPAE 182353Z 17024G36KT 3SM HZ BKN023 OVC035 06/02 A2995 RMK AO2 PK WND 17036/2346 RAB28E52 SLP145 P0000 60000 T00610017 10083 20056 56016=
200911182346 SPECI KPAE 182346Z 18029G36KT 5SM -RA BKN027 OVC037 07/01 A2995 RMK AO2 PK WND 17036/2346 RAB28 P0000=
200911182346 SPECI KPAE 182346Z 18029G36KT 5SM -RA BKN027 OVC037 07/01 A2995 RMK AO2 PK WND 17036/2346 RAB28 P0000=
200911182253 METAR KPAE 182253Z 17022G28KT 10SM BKN040 OVC047 08/01 A2995 RMK AO2 PK WND 18030/2228 RAB22E44 SLP144 P0000 T00780006=
200911182153 METAR KPAE 182153Z 17017G27KT 10SM BKN044 BKN050 OVC070 08/00 A2997 RMK AO2 PK WND 16027/2149 SLP151 T00780000=
200911182053 METAR KPAE 182053Z 16018G23KT 10SM SCT038 SCT055 OVC075 08/01 A2999 RMK AO2 SLP160 T00780006 58015=
200911181953 METAR KPAE 181953Z 17015G21KT 10SM BKN031 BKN090 07/01 A3001 RMK AO2 PK WND 16026/1938 SLP166 T00720006=
200911181853 METAR KPAE 181853Z COR 17015G20KT 10SM SCT030 BKN080 07/01 A3003 RMK AO2 SLP172 T00720011=
200911181753 METAR KPAE 181753Z 17014G21KT 10SM FEW011 06/02 A3004 RMK AO2 SLP176 60003 T00560017 10056 20033 53013=
200911181653 METAR KPAE 181653Z 17013G20KT 10SM FEW011 04/02 A3002 RMK AO2 SLP168 T00440022=
200911181611 SPECI KPAE 181611Z 18016G25KT 10SM SCT009 04/02 A3001 RMK AO2=
200911181611 SPECI KPAE 181611Z 18016G25KT 10SM SCT009 04/02 A3001 RMK AO2=
200911181553 METAR KPAE 181553Z 17014G23KT 10SM BKN013 OVC022 04/02 A3001 RMK AO2 SLP164 T00390022=
200911181530 SPECI KPAE 181530Z 18013G22KT 10SM BKN013 OVC022 04/02 A3000 RMK AO2=
200911181530 SPECI KPAE 181530Z 18013G22KT 10SM BKN013 OVC022 04/02 A3000 RMK AO2=
200911181453 METAR KPAE 181453Z 19012KT 10SM BKN015 OVC022 04/02 A3000 RMK AO2 SLP162 60003 T00440022 51021=
200911181449 SPECI KPAE 181449Z 20011KT 10SM BKN015 OVC022 04/02 A3000 RMK AO2=
200911181449 SPECI KPAE 181449Z 20011KT 10SM BKN015 OVC022 04/02 A3000 RMK AO2=
200911181424 SPECI KPAE 181424Z 19013KT 10SM BKN011 OVC017 04/02 A2998 RMK AO2 CIG 007V013=
200911181424 SPECI KPAE 181424Z 19013KT 10SM BKN011 OVC017 04/02 A2998 RMK AO2 CIG 007V013=
200911181353 METAR KPAE 181353Z 20016G20KT 10SM BKN009 OVC015 04/02 A2996 RMK AO2 CIG 005V014 SLP151 T00390022=
200911181253 METAR KPAE 181253Z 17011G20KT 10SM BKN009 OVC015 03/02 A2994 RMK AO2 RAE46 CIG 006V011 SLP141 P0003 T00330017=
200911181227 SPECI KPAE 181227Z 17015KT 8SM -RA BKN009 OVC025 04/02 A2993 RMK AO2 P0002=
200911181227 SPECI KPAE 181227Z 17015KT 8SM -RA BKN009 OVC025 04/02 A2993 RMK AO2 P0002=
200911181153 METAR KPAE 181153Z 18015G22KT 10SM -RA BKN010 BKN014 OVC060 04/02 A2992 RMK AO2 RAB44 SLP136 P0000 60000 70011 T00440022 10050 20039 51014=
200911181151 SPECI KPAE 181151Z 17016G22KT 10SM -RA BKN012 BKN060 OVC090 04/02 A2992 RMK AO2 RAB44 P0000=
200911181151 SPECI KPAE 181151Z 17016G22KT 10SM -RA BKN012 BKN060 OVC090 04/02 A2992 RMK AO2 RAB44 P0000=
200911181115 SPECI KPAE 181115Z 17014KT 10SM SCT010 OVC100 04/02 A2990 RMK AO2=
200911181115 SPECI KPAE 181115Z 17014KT 10SM SCT010 OVC100 04/02 A2990 RMK AO2=
200911181105 SPECI KPAE 181105Z 17013G22KT 10SM SCT010 BKN016 OVC110 04/02 A2990 RMK AO2=
200911181105 SPECI KPAE 181105Z 17013G22KT 10SM SCT010 BKN016 OVC110 04/02 A2990 RMK AO2=
200911181053 METAR KPAE 181053Z 17017G24KT 10SM BKN010 BKN016 04/02 A2989 RMK AO2 SLP127 T00440022=
200911180953 METAR KPAE 180953Z 17017G22KT 10SM BKN011 OVC031 04/02 A2988 RMK AO2 RAB28E39 SLP121 P0000 T00440022=
200911180853 METAR KPAE 180853Z 17010G17KT 10SM BKN013 OVC020 04/03 A2988 RMK AO2 RAB10E43 SLP122 P0000 60000 T00440028 50005=
200911180753 METAR KPAE 180753Z 15008KT 10SM SCT019 BKN027 OVC033 04/03 A2989 RMK AO2 SLP122 T00440028 401000044=
200911180653 METAR KPAE 180653Z 18013KT 10SM CLR 04/02 A2988 RMK AO2 SLP122 T00440022=
200911180553 METAR KPAE 180553Z 18016KT 10SM FEW018 05/02 A2987 RMK AO2 SLP117 60005 T00500022 10061 20044 53016=
200911180453 METAR KPAE 180453Z 18015G24KT 10SM FEW012 05/03 A2985 RMK AO2 SLP110 T00500028=
200911180353 METAR KPAE 180353Z 17012G21KT 10SM FEW007 SCT075 SCT100 05/03 A2982 RMK AO2 WSHFT 0307 RAB02E43 SLP101 P0005 T00500028=
200911180348 SPECI KPAE 180348Z 18015G21KT 10SM FEW007 SCT016 BKN100 05/03 A2982 RMK AO2 WSHFT 0307 RAB02E43 P0005=
200911180348 SPECI KPAE 180348Z 18015G21KT 10SM FEW007 SCT016 BKN100 05/03 A2982 RMK AO2 WSHFT 0307 RAB02E43 P0005=
200911180321 SPECI KPAE 180321Z 22010KT 4SM -RA BR FEW007 BKN011 OVC027 05/04 A2983 RMK AO2 WSHFT 0307 RAB02 P0004=
200911180321 SPECI KPAE 180321Z 22010KT 4SM -RA BR FEW007 BKN011 OVC027 05/04 A2983 RMK AO2 WSHFT 0307 RAB02 P0004=
200911180312 SPECI KPAE 180312Z 18011KT 4SM RA BR SCT014 BKN020 OVC038 05/03 A2982 RMK AO2 RAB02 P0002=
200911180312 SPECI KPAE 180312Z 18011KT 4SM RA BR SCT014 BKN020 OVC038 05/03 A2982 RMK AO2 RAB02 P0002=
200911180253 METAR KPAE 180253Z 16013KT 10SM FEW011 OVC038 05/03 A2981 RMK AO2 SLP097 60000 T00500033 53002=
200911180200 SPECI KPAE 180200Z 16010KT 10SM SCT007 OVC080 05/03 A2981 RMK AO2=
200911180200 SPECI KPAE 180200Z 16010KT 10SM SCT007 OVC080 05/03 A2981 RMK AO2=
200911180153 METAR KPAE 180153Z 17011KT 10SM FEW050 SCT080 05/03 A2981 RMK AO2 SLP098 T00500033=
200911180053 METAR KPAE 180053Z 16012KT 10SM BKN049 05/03 A2980 RMK AO2 RAE17 SLP093 P0000 T00500033=
200911172353 METAR KPAE 172353Z 19019KT 10SM -RA SCT028 BKN037 OVC044 06/03 A2981 RMK AO2 LTG DSNT NE RAB2259E27B52 SLP095 P0003 60005 T00610033 10089 20056 53002=
200911172253 METAR KPAE 172253Z 22010KT 10SM SCT025 BKN034 OVC047 07/04 A2980 RMK AO2 RAB11E39 SLP094 P0002 T00670039=
200911172153 METAR KPAE 172153Z 19014KT 10SM FEW032 BKN047 OVC060 08/04 A2980 RMK AO2 RAB31E51 SLP092 P0000 T00830039=
200911172053 METAR KPAE 172053Z 19016KT 10SM SCT027 SCT036 BKN100 08/03 A2980 RMK AO2 SLP093 T00830028 51010=
200911171953 METAR KPAE 171953Z 19016G25KT 10SM FEW022 SCT028 09/04 A2979 RMK AO2 SLP089 T00890039=
200911171853 METAR KPAE 171853Z 18019G23KT 10SM SCT017 08/03 A2979 RMK AO2 SLP089 T00830033=
200911171753 METAR KPAE 171753Z 18014G20KT 10SM CLR 08/05 A2977 RMK AO2 SLP082 60001 T00780050 10078 20067 53014=
200911171653 METAR KPAE 171653Z 17011KT 10SM FEW013 07/04 A2974 RMK AO2 SLP073 T00670044=
200911171629 SPECI KPAE 171629Z 18013G20KT 10SM FEW013 SCT022 SCT027 07/04 A2974 RMK AO2=
200911171629 SPECI KPAE 171629Z 18013G20KT 10SM FEW013 SCT022 SCT027 07/04 A2974 RMK AO2=
200911171553 METAR KPAE 171553Z 17016G20KT 10SM SCT022 BKN026 OVC043 07/04 A2973 RMK AO2 SLP068 T00670044=
200911171453 METAR KPAE 171453Z 18013KT 10SM CLR 07/04 A2969 RMK AO2 PK WND 18026/1400 SLP056 60001 T00670044 53028=
200911171353 METAR KPAE 171353Z 18018KT 10SM OVC100 07/04 A2965 RMK AO2 PK WND 18029/1254 RAE1256 SLP043 P0000 T00670039 $=
200911171253 METAR KPAE 171253Z 18022G31KT 10SM -RA OVC060 07/05 A2962 RMK AO2 PK WND 18031/1246 RAB04 SLP031 P0001 T00720050 $=
200911171153 METAR KPAE 171153Z 18020G40KT 10SM OVC048 08/06 A2961 RMK AO2 PK WND 18040/1145 RAE50 SLP027 P0001 60025 70126 T00780056 10122 20078 51041 $=
200911171053 METAR KPAE 171053Z 20023G33KT 10SM -RA FEW016 OVC045 08/06 A2959 RMK AO2 PK WND 20039/1001 RAEMMB23 SLP019 P0000 T00780056 $=
200911170953 METAR KPAE 170953Z 19026G35KT 9SM -RA 08/06 A2954 RMK AO2 PK WND 21040/0919 SLP004 P0005 T00830056 $=
200911170853 METAR KPAE 170853Z 19023G32KT 4SM RA BR BKN043 OVC055 10/08 A2948 RMK AO2 PK WND 19033/0837 SLP984 P0009 60019 T01000083 51022 $=
200911170753 METAR KPAE 170753Z 18025G32KT 6SM -RA BR FEW027 BKN042 OVC050 10/08 A2947 RMK AO2 PK WND 19032/0750 SLP981 P0007 T01000083 401220094 $=
200911170653 METAR KPAE 170653Z 18022G33KT 6SM -RA 11/08 A2945 RMK AO2 PK WND 17041/0557 SLP972 P0003 T01110078 $=
200911170553 METAR KPAE 170553Z 17022G36KT 9SM -RA OVC060 12/08 A2942 RMK AO2 PK WND 18036/0547 SLP961 P0002 60049 T01220078 10122 20094 56039=
200911170453 METAR KPAE 170453Z 15014G22KT 6SM -RA BR OVC050 11/08 A2944 RMK AO2 PK WND 16028/0401 PRESFR SLP971 P0007 T01060083=
200911170353 METAR KPAE 170353Z 16022G28KT 7SM -RA BKN047 OVC055 11/08 A2948 RMK AO2 PK WND 16033/0319 SLP983 P0005 T01060083=
200911170300 SPECI KPAE 170300Z 15012G20KT 6SM -RA BR BKN047 OVC060 09/08 A2952 RMK AO2 PRESFR P0001=
200911170300 SPECI KPAE 170300Z 15012G20KT 6SM -RA BR BKN047 OVC060 09/08 A2952 RMK AO2 PRESFR P0001=
200911170253 METAR KPAE 170253Z 14011G25KT 4SM RA BR SCT004 BKN025 OVC036 09/08 A2953 RMK AO2 SLP002 P0009 60035 T00940078 58051=
200911170153 METAR KPAE 170153Z 15010G14KT 3SM RA BR SCT004 BKN015 OVC034 10/09 A2960 RMK AO2 SLP022 P0015 T01000089=
200911170100 SPECI KPAE 170100Z 17006KT 4SM RA BR FEW008 BKN021 OVC028 10/08 A2965 RMK AO2 P0001=
200911170100 SPECI KPAE 170100Z 17006KT 4SM RA BR FEW008 BKN021 OVC028 10/08 A2965 RMK AO2 P0001=
200911170053 METAR KPAE 170053Z 19006KT 3SM +RA BR BKN021 BKN028 OVC050 10/08 A2965 RMK AO2 SLP042 P0011 T01000083=
200911170033 SPECI KPAE 170033Z 20009KT 6SM -RA BR BKN021 OVC035 10/08 A2967 RMK AO2 P0006=
200911170033 SPECI KPAE 170033Z 20009KT 6SM -RA BR BKN021 OVC035 10/08 A2967 RMK AO2 P0006=
200911162353 METAR KPAE 162353Z 20013G23KT 5SM -RA BR FEW012 BKN039 OVC050 11/09 A2969 RMK AO2 SLP053 P0004 60023 T01060089 10117 20100 58008=
200911162253 METAR KPAE 162253Z 18017G25KT 7SM -RA OVC050 11/09 A2970 RMK AO2 PK WND 18030/2215 SLP058 P0003 T01060089=
200911162153 METAR KPAE 162153Z 19018G27KT 10SM -RA FEW015 OVC055 11/09 A2973 RMK AO2 PK WND 18035/2054 SLP068 P0001 T01110089=
200911162114 SPECI KPAE 162114Z 19025G32KT 10SM -RA FEW013 SCT018 OVC035 11/09 A2972 RMK AO2 PK WND 18035/2054 P0001=
200911162114 SPECI KPAE 162114Z 19025G32KT 10SM -RA FEW013 SCT018 OVC035 11/09 A2972 RMK AO2 PK WND 18035/2054 P0001=
200911162100 SPECI KPAE 162100Z 18024G35KT 10SM -RA FEW014 BKN018 BKN032 11/09 A2972 RMK AO2 PK WND 18035/2054 P0000=
200911162100 SPECI KPAE 162100Z 18024G35KT 10SM -RA FEW014 BKN018 BKN032 11/09 A2972 RMK AO2 PK WND 18035/2054 P0000=
200911162053 METAR KPAE 162053Z 19029G35KT 10SM -RA SCT014 SCT020 OVC090 12/09 A2971 RMK AO2 PK WND 18035/2052 SLP062 P0001 60015 T01170094 55001=
200911161953 METAR KPAE 161953Z 18018G25KT 7SM -RA SCT013 BKN019 OVC029 11/09 A2970 RMK AO2 SLP059 P0006 T01110089=
200911161930 SPECI KPAE 161930Z 17013G22KT 5SM -RA BR SCT021 BKN028 OVC037 11/09 A2971 RMK AO2 P0004=
200911161930 SPECI KPAE 161930Z 17013G22KT 5SM -RA BR SCT021 BKN028 OVC037 11/09 A2971 RMK AO2 P0004=
200911161913 SPECI KPAE 161913Z 16016G21KT 4SM -RA BR FEW015 BKN030 OVC041 11/09 A2970 RMK AO2 P0002=
200911161913 SPECI KPAE 161913Z 16016G21KT 4SM -RA BR FEW015 BKN030 OVC041 11/09 A2970 RMK AO2 P0002=
200911161853 METAR KPAE 161853Z 17009G16KT 4SM RA BR FEW017 BKN024 OVC039 11/09 A2971 RMK AO2 SLP062 P0008 T01060089=
200911161753 METAR KPAE 161753Z 17012G17KT 3SM RA BR OVC026 11/08 A2972 RMK AO2 SLP063 P0014 60029 T01060083 10117 20100 58001=
200911161653 METAR KPAE 161653Z 19009G18KT 5SM RA BR OVC024 10/08 A2974 RMK AO2 PK WND 18028/1559 SLP072 P0010 T01000083=
200911161635 SPECI KPAE 161635Z 20014KT 5SM RA BKN026 OVC043 11/08 A2975 RMK AO2 PK WND 18028/1559 P0006=
200911161635 SPECI KPAE 161635Z 20014KT 5SM RA BKN026 OVC043 11/08 A2975 RMK AO2 PK WND 18028/1559 P0006=
200911161553 METAR KPAE 161553Z 17020G33KT 7SM -RA SCT050 OVC060 11/08 A2972 RMK AO2 PK WND 18036/1523 SLP065 P0002 T01060078=
200911161453 METAR KPAE 161453Z 17022G34KT 9SM -RA OVC050 11/07 A2972 RMK AO2 PK WND 18037/1358 SLP064 P0001 60003 T01060072 56015=
200911161353 METAR KPAE 161353Z AUTO 17021G31KT 10SM -RA BKN050 OVC070 11/07 A2972 RMK AO2 PK WND 18033/1314 SLP064 P0002 T01110067=
200911161253 METAR KPAE 161253Z AUTO 18017G27KT 10SM -RA BKN033 OVC041 11/06 A2975 RMK AO2 PK WND 18028/1209 RAE1155B13 SLP075 P0000 T01110061=
200911161153 METAR KPAE 161153Z AUTO 17022G31KT 10SM -RA OVC039 12/05 A2976 RMK AO2 PK WND 16035/1129 RAB44 SLP078 P0000 60001 70006 T01170050 10122 20100 56031=
200911161053 METAR KPAE 161053Z AUTO 16020G30KT 10SM OVC036 12/05 A2978 RMK AO2 PK WND 17031/1019 RAE11B32E42 SLP086 P0000 T01220050=
200911160953 METAR KPAE 160953Z AUTO 17016G24KT 10SM -RA OVC034 12/07 A2982 RMK AO2 PK WND 16026/0932 RAB40 SLP101 P0000 T01170067=
200911160853 METAR KPAE 160853Z AUTO 17015G25KT 10SM OVC030 12/07 A2985 RMK AO2 PK WND 17026/0803 RAB14E27 SLP111 P0000 60001 T01170067 58017=
200911160753 METAR KPAE 160753Z AUTO 17018G28KT 10SM BKN034 BKN046 OVC055 12/07 A2987 RMK AO2 PK WND 15028/0750 SLP118 T01170067 401170044=
200911160653 METAR KPAE 160653Z AUTO 17015G21KT 10SM BKN030 OVC036 11/07 A2989 RMK AO2 RAE13 SLP123 P0001 T01110072=
200911160605 SPECI KPAE 160605Z AUTO 16013KT 7SM -RA SCT028 OVC035 10/08 A2990 RMK AO2 P0001=
200911160605 SPECI KPAE 160605Z AUTO 16013KT 7SM -RA SCT028 OVC035 10/08 A2990 RMK AO2 P0001=
200911160553 METAR KPAE 160553Z AUTO 16013KT 9SM -RA BKN028 OVC035 10/08 A2991 RMK AO2 SLP128 P0002 60005 T01000078 10106 20089 56007=
200911160530 SPECI KPAE 160530Z AUTO 18012KT 3SM -RA BR BKN028 OVC034 10/08 A2991 RMK AO2 P0001=
200911160530 SPECI KPAE 160530Z AUTO 18012KT 3SM -RA BR BKN028 OVC034 10/08 A2991 RMK AO2 P0001=
200911160453 METAR KPAE 160453Z AUTO 16016G23KT 7SM -RA BKN032 BKN039 OVC060 10/08 A2991 RMK AO2 PK WND 17027/0416 SLP129 P0001 T01000078=
200911160353 METAR KPAE 160353Z 18018G22KT 5SM -RA BR BKN036 OVC045 09/08 A2991 RMK AO2 SLP129 P0000 T00940078=
200911160311 SPECI KPAE 160311Z 16014G21KT 10SM -RA BKN031 BKN035 OVC048 10/08 A2992 RMK AO2 P0000=
200911160311 SPECI KPAE 160311Z 16014G21KT 10SM -RA BKN031 BKN035 OVC048 10/08 A2992 RMK AO2 P0000=
200911160253 METAR KPAE 160253Z 16015KT 10SM -RA BKN028 OVC033 10/08 A2993 RMK AO2 SLP137 P0001 60002 T01000078 58019=
200911160156 SPECI KPAE 160156Z 16013KT 7SM -RA OVC028 09/08 A2995 RMK AO2 P0000=
200911160156 SPECI KPAE 160156Z 16013KT 7SM -RA OVC028 09/08 A2995 RMK AO2 P0000=
200911160153 METAR KPAE 160153Z 16013KT 6SM -RA BR BKN008 BKN013 OVC024 09/08 A2996 RMK AO2 RAE02B21 SLP146 P0001 T00940078=
200911160053 METAR KPAE 160053Z 17012G22KT 3SM -RA BR BKN008 BKN013 OVC024 09/08 A2997 RMK AO2 RAB11 SLP150 P0000 T00940078=
200911152353 METAR KPAE 152353Z 17012KT 3SM BR OVC006 09/08 A2998 RMK AO2 RAB26E52 CIG 004V009 SLP156 P0000 60000 T00890078 10089 20061 56021=
200911152339 SPECI KPAE 152339Z 18011KT 2 1/2SM -RA BR BKN006 OVC009 09/08 A2999 RMK AO2 RAB26 P0000=
200911152339 SPECI KPAE 152339Z 18011KT 2 1/2SM -RA BR BKN006 OVC009 09/08 A2999 RMK AO2 RAB26 P0000=
200911152253 METAR KPAE 152253Z 17014KT 4SM BR BKN006 OVC012 08/07 A3000 RMK AO2 RAB27E43 CIG 004V009 SLP160 P0000 T00830072=
200911152153 METAR KPAE 152153Z 17012KT 5SM BR OVC008 08/07 A3002 RMK AO2 RAB11E22 SLP168 P0000 T00780067=
200911152053 METAR KPAE 152053Z 17012KT 10SM BKN006 OVC012 07/06 A3004 RMK AO2 SLP177 60000 T00720061 58015=
200911151953 METAR KPAE 151953Z 17015G19KT 8SM BKN006 OVC030 07/06 A3006 RMK AO2 RAE06 SLP182 P0000 T00670056=
200911151853 METAR KPAE 151853Z 17013KT 7SM -RA BKN008 OVC028 07/05 A3007 RMK AO2 RAB36 SLP187 P0000 T00670050=
200911151828 SPECI KPAE 151828Z 18010KT 10SM BKN008 OVC022 07/05 A3009 RMK AO2=
200911151828 SPECI KPAE 151828Z 18010KT 10SM BKN008 OVC022 07/05 A3009 RMK AO2=
200911151800 SPECI KPAE 151800Z 16010KT 10SM OVC024 06/05 A3009 RMK AO2=
200911151800 SPECI KPAE 151800Z 16010KT 10SM OVC024 06/05 A3009 RMK AO2=
200911151753 METAR KPAE 151753Z 16010KT 10SM BKN005 OVC024 06/05 A3009 RMK AO2 SLP192 T00610050 10061 20050 55002=
200911151727 SPECI KPAE 151727Z 16011KT 10SM BKN005 OVC024 06/04 A3009 RMK AO2=
200911151727 SPECI KPAE 151727Z 16011KT 10SM BKN005 OVC024 06/04 A3009 RMK AO2=
200911151653 METAR KPAE 151653Z 17014G20KT 10SM OVC022 06/04 A3009 RMK AO2 SLP191 T00610044=
200911151553 METAR KPAE 151553Z 16015KT 10SM OVC022 06/04 A3009 RMK AO2 SLP193 T00560039=
200911151518 SPECI KPAE 151518Z 15011KT 10SM FEW005 OVC022 05/04 A3009 RMK AO2=
200911151518 SPECI KPAE 151518Z 15011KT 10SM FEW005 OVC022 05/04 A3009 RMK AO2=
200911151453 METAR KPAE 151453Z 16014KT 10SM OVC022 06/04 A3010 RMK AO2 SLP196 T00560039 55005=
200911151353 METAR KPAE 151353Z AUTO 17014KT 10SM OVC024 05/03 A3010 RMK AO2 SLP195 T00500028=
200911151253 METAR KPAE 151253Z AUTO 17015KT 10SM OVC026 06/03 A3010 RMK AO2 SLP198 T00560028=
200911151153 METAR KPAE 151153Z AUTO 15011KT 10SM OVC028 05/02 A3011 RMK AO2 RAE09 SLP201 P0000 60001 70001 T00500022 10061 20044 56008=
200911151151 SPECI KPAE 151151Z AUTO 16011KT 10SM OVC028 05/02 A3011 RMK AO2 RAE09 P0000=
200911151151 SPECI KPAE 151151Z AUTO 16011KT 10SM OVC028 05/02 A3011 RMK AO2 RAE09 P0000=
200911151053 METAR KPAE 151053Z AUTO 16013KT 10SM -RA OVC030 05/02 A3012 RMK AO2 RAB04 SLP204 P0001 T00500017=
200911150953 METAR KPAE 150953Z AUTO 16013G22KT 10SM BKN042 OVC060 05/01 A3014 RMK AO2 RAE45 SLP209 P0000 T00500006=
200911150853 METAR KPAE 150853Z AUTO 15013G20KT 10SM -RA BKN030 OVC048 06/M01 A3015 RMK AO2 RAE11B38 SLP213 P0000 60000 T00611006 56012=
200911150753 METAR KPAE 150753Z AUTO 16013KT 10SM -RA FEW036 BKN070 OVC110 06/M01 A3016 RMK AO2 RAB48 SLP217 P0000 T00611006 400670006=
200911150653 METAR KPAE 150653Z AUTO 15012G16KT 10SM OVC038 06/M01 A3017 RMK AO2 SLP220 T00561011=
200911150553 METAR KPAE 150553Z AUTO 15011KT 10SM BKN042 BKN070 OVC090 06/M01 A3019 RMK AO2 SLP226 60000 T00561011 10067 20050 58007=
200911150453 METAR KPAE 150453Z AUTO 14008KT 10SM OVC042 06/00 A3019 RMK AO2 RAB28E40 SLP228 P0000 T00560000=
200911150353 METAR KPAE 150353Z 16011KT 10SM FEW046 SCT065 OVC085 05/01 A3021 RMK AO2 SLP234 T00500006=
200911150253 METAR KPAE 150253Z 15007KT 10SM OVC080 06/01 A3021 RMK AO2 SLP234 T00560011 56009=
200911150153 METAR KPAE 150153Z 16008KT 10SM SCT048 SCT065 OVC080 06/02 A3022 RMK AO2 SLP237 T00560017=
200911150053 METAR KPAE 150053Z 16008KT 10SM SCT037 OVC090 06/01 A3022 RMK AO2 SLP240 T00560011=
200911142353 METAR KPAE 142353Z 16008KT 10SM BKN037 OVC100 06/01 A3023 RMK AO2 SLP243 T00560006 10061 20033 58004=
200911142253 METAR KPAE 142253Z 16011KT 10SM SCT080 SCT100 06/01 A3024 RMK AO2 SLP245 T00560006=
200911142153 METAR KPAE 142153Z 16009KT 10SM SCT075 05/01 A3025 RMK AO2 SLP247 T00500011=
200911142053 METAR KPAE 142053Z 16010KT 10SM CLR 04/01 A3025 RMK AO2 SLP248 T00440006 51005=
200911141953 METAR KPAE 141953Z 15008KT 10SM CLR 04/01 A3025 RMK AO2 SLP248 T00440006=
200911141853 METAR KPAE 141853Z 16007KT 10SM CLR 04/01 A3026 RMK AO2 SLP251 T00390011=
200911141753 METAR KPAE 141753Z VRB03KT 10SM CLR 03/01 A3023 RMK AO2 SLP243 T00330011 10033 20006 51015=
200911141653 METAR KPAE 141653Z 15007KT 10SM CLR 03/01 A3022 RMK AO2 SLP239 T00280006=
200911141553 METAR KPAE 141553Z VRB03KT 10SM CLR 02/01 A3021 RMK AO2 SLP235 T00170006=
200911141453 METAR KPAE 141453Z 12007KT 10SM FEW050 02/00 A3019 RMK AO2 SLP228 T00170000 51022=
200911141353 METAR KPAE 141353Z AUTO 00000KT 10SM BKN050 02/01 A3017 RMK AO2 SLP221 T00170006=
200911141306 SPECI KPAE 141306Z AUTO 16005KT 10SM FEW001 OVC055 01/01 A3015 RMK AO2=
200911141306 SPECI KPAE 141306Z AUTO 16005KT 10SM FEW001 OVC055 01/01 A3015 RMK AO2=
200911141259 SPECI KPAE 141259Z AUTO 15005KT 2 1/2SM BR FEW001 OVC055 01/01 A3015 RMK AO2=
200911141259 SPECI KPAE 141259Z AUTO 15005KT 2 1/2SM BR FEW001 OVC055 01/01 A3015 RMK AO2=
200911141253 METAR KPAE 141253Z AUTO 15004KT 1/2SM FG SCT001 OVC055 01/01 A3015 RMK AO2 SLP214 T00110006 RVRNO=
200911141246 SPECI KPAE 141246Z AUTO 16003KT 1/2SM FG FEW001 BKN055 01/01 A3015 RMK AO2 RVRNO=
200911141246 SPECI KPAE 141246Z AUTO 16003KT 1/2SM FG FEW001 BKN055 01/01 A3015 RMK AO2 RVRNO=
200911141235 SPECI KPAE 141235Z AUTO 15005KT 1 1/2SM BR FEW001 BKN055 01/00 A3014 RMK AO2=
200911141235 SPECI KPAE 141235Z AUTO 15005KT 1 1/2SM BR FEW001 BKN055 01/00 A3014 RMK AO2=
200911141153 METAR KPAE 141153Z AUTO 15003KT 10SM FEW001 02/01 A3012 RMK AO2 SLP205 P0001 60002 70040 T00170006 10039 20017 51021=
200911141134 SPECI KPAE 141134Z AUTO 15005KT 5SM BR FEW001 02/01 A3012 RMK AO2 P0001=
200911141134 SPECI KPAE 141134Z AUTO 15005KT 5SM BR FEW001 02/01 A3012 RMK AO2 P0001=
200911141053 METAR KPAE 141053Z AUTO 17004KT 10SM FEW070 02/01 A3011 RMK AO2 SLP199 T00220006=
200911140953 METAR KPAE 140953Z AUTO 15004KT 10SM OVC045 03/01 A3009 RMK AO2 SLP192 T00280011=
200911140853 METAR KPAE 140853Z AUTO 22005KT 10SM BKN047 OVC060 03/01 A3006 RMK AO2 RAE18UPB13E17 SLP182 P0000 60001 T00280011 51029=
200911140811 SPECI KPAE 140811Z AUTO 23005KT 10SM -RA SCT016 BKN036 OVC060 03/01 A3005 RMK AO2 P0000=
200911140811 SPECI KPAE 140811Z AUTO 23005KT 10SM -RA SCT016 BKN036 OVC060 03/01 A3005 RMK AO2 P0000=
200911140800 SPECI KPAE 140800Z AUTO 28004KT 10SM -RA SCT016 BKN023 OVC060 03/00 A3004 RMK AO2 P0000=
200911140800 SPECI KPAE 140800Z AUTO 28004KT 10SM -RA SCT016 BKN023 OVC060 03/00 A3004 RMK AO2 P0000=
200911140753 METAR KPAE 140753Z AUTO VRB04KT 8SM -RA BKN014 BKN023 OVC028 03/00 A3004 RMK AO2 RAB07 SLP175 P0001 T00330000 400720022=
200911140653 METAR KPAE 140653Z AUTO VRB04KT 10SM BKN028 OVC033 03/01 A3000 RMK AO2 RAB27E48UPB40E47 SLP165 P0000 T00280006=
200911140646 SPECI KPAE 140646Z AUTO 08005KT 10SM UP SCT029 BKN034 OVC046 03/01 A3000 RMK AO2 RAB27E40UPB40 P0000=
200911140646 SPECI KPAE 140646Z AUTO 08005KT 10SM UP SCT029 BKN034 OVC046 03/01 A3000 RMK AO2 RAB27E40UPB40 P0000=
200911140553 METAR KPAE 140553Z AUTO 00000KT 10SM SCT023 OVC029 03/01 A2997 RMK AO2 SLP152 60013 T00330011 10061 20022 51024=
200911140548 SPECI KPAE 140548Z AUTO 00000KT 10SM FEW023 OVC031 04/01 A2996 RMK AO2=
200911140548 SPECI KPAE 140548Z AUTO 00000KT 10SM FEW023 OVC031 04/01 A2996 RMK AO2=
200911140540 SPECI KPAE 140540Z AUTO 00000KT 10SM BKN023 BKN031 03/01 A2996 RMK AO2=
200911140540 SPECI KPAE 140540Z AUTO 00000KT 10SM BKN023 BKN031 03/01 A2996 RMK AO2=
200911140453 METAR KPAE 140453Z AUTO VRB04KT 10SM OVC065 03/01 A2993 RMK AO2 SLP140 T00330006=
200911140353 METAR KPAE 140353Z 00000KT 10SM CLR 04/M01 A2990 RMK AO2 SLP128 T00441011=
200911140253 METAR KPAE 140253Z 00000KT 10SM FEW065 04/M02 A2986 RMK AO2 SLP116 60013 T00441017 53024=
200911140153 METAR KPAE 140153Z VRB03KT 9SM FEW060 04/M01 A2984 RMK AO2 TSE50RAE05SNB05E50 SLP107 TS DSNT S OCCL LTGCG P0008 T00441006=
200911140107 SPECI KPAE 140107Z 00000KT 10SM -TSSN BKN011 BKN028 OVC037 04/M01 A2981 RMK AO2 RAE05SNB05 TS OHD MOV SE OCCL LTGCG P0007=
200911140107 SPECI KPAE 140107Z 00000KT 10SM -TSSN BKN011 BKN028 OVC037 04/M01 A2981 RMK AO2 RAE05SNB05 TS OHD MOV SE OCCL LTGCG P0007=
200911140053 METAR KPAE 140053Z 00000KT 10SM -TSRA SCT010 SCT044 04/03 A2982 RMK AO2 TSB33RAB32 SLP100 OCCNL CG LTG W MOV E P0005 T00440028=
200911140033 SPECI KPAE 140033Z 17005KT 10SM -TSRA FEW049 BKN055 OVC085 06/03 A2980 RMK AO2 TSB33RAB32 P0000=
200911140033 SPECI KPAE 140033Z 17005KT 10SM -TSRA FEW049 BKN055 OVC085 06/03 A2980 RMK AO2 TSB33RAB32 P0000=
200911132353 METAR KPAE 132353Z 16007KT 10SM SCT037 06/03 A2979 RMK AO2 SLP091 60001 T00610028 10072 20050 53019=
200911132253 METAR KPAE 132253Z 23004KT 10SM SCT037 07/03 A2977 RMK AO2 SLP082 T00720028=
200911132153 METAR KPAE 132153Z 20005KT 10SM CLR 07/03 A2975 RMK AO2 SLP077 T00720033=
200911132053 METAR KPAE 132053Z 16007KT 10SM FEW225 06/03 A2973 RMK AO2 SLP071 60001 T00610033 51009=
200911131953 METAR KPAE 131953Z 00000KT 10SM SCT030 SCT036 BKN080 06/02 A2973 RMK AO2 RAE1855 SLP070 P0000 T00560022=
200911131853 METAR KPAE 131853Z 17007KT 10SM -RA SCT007 OVC036 05/03 A2972 RMK AO2 SLP068 P0001 T00500033=
200911131753 METAR KPAE 131753Z 20011KT 10SM -RA SCT007 OVC039 05/04 A2971 RMK AO2 SLP062 P0006 60024 T00500039 10067 20039 53018=
200911131734 SPECI KPAE 131734Z 20010KT 10SM -RA SCT009 BKN041 OVC060 05/04 A2970 RMK AO2 P0005=
200911131734 SPECI KPAE 131734Z 20010KT 10SM -RA SCT009 BKN041 OVC060 05/04 A2970 RMK AO2 P0005=
200911131727 SPECI KPAE 131727Z 21011KT 4SM -RA BR SCT010 BKN043 OVC060 05/03 A2970 RMK AO2 P0005=
200911131727 SPECI KPAE 131727Z 21011KT 4SM -RA BR SCT010 BKN043 OVC060 05/03 A2970 RMK AO2 P0005=
200911131717 SPECI KPAE 131717Z 20008KT 4SM RA BR SCT009 BKN012 OVC030 05/03 A2970 RMK AO2 P0005=
200911131717 SPECI KPAE 131717Z 20008KT 4SM RA BR SCT009 BKN012 OVC030 05/03 A2970 RMK AO2 P0005=
200911131653 METAR KPAE 131653Z 21015G20KT 4SM -RA BR OVC011 05/03 A2969 RMK AO2 PK WND 19029/1612 RAE12B44 CIG 008V013 SLP058 P0001 T00500033=
200911131614 SPECI KPAE 131614Z 20021G29KT 10SM OVC011 05/03 A2966 RMK AO2 PK WND 19029/1612 RAE12 P0000=
200911131614 SPECI KPAE 131614Z 20021G29KT 10SM OVC011 05/03 A2966 RMK AO2 PK WND 19029/1612 RAE12 P0000=
200911131553 METAR KPAE 131553Z 16012KT 10SM -RA BKN009 OVC016 04/03 A2965 RMK AO2 SLP043 P0004 T00440028=
200911131544 SPECI KPAE 131544Z 16010KT 10SM -RA BKN007 OVC013 04/03 A2965 RMK AO2 P0004=
200911131544 SPECI KPAE 131544Z 16010KT 10SM -RA BKN007 OVC013 04/03 A2965 RMK AO2 P0004=
200911131536 SPECI KPAE 131536Z 16010KT 10SM -RA SCT007 BKN011 OVC021 04/03 A2965 RMK AO2 P0004=
200911131536 SPECI KPAE 131536Z 16010KT 10SM -RA SCT007 BKN011 OVC021 04/03 A2965 RMK AO2 P0004=
200911131529 SPECI KPAE 131529Z 16011KT 10SM -RA SCT007 BKN015 OVC021 04/03 A2966 RMK AO2 P0004=
200911131529 SPECI KPAE 131529Z 16011KT 10SM -RA SCT007 BKN015 OVC021 04/03 A2966 RMK AO2 P0004=
200911131511 SPECI KPAE 131511Z 15010G24KT 5SM -RA BR BKN015 OVC020 04/02 A2962 RMK AO2 P0003=
200911131511 SPECI KPAE 131511Z 15010G24KT 5SM -RA BR BKN015 OVC020 04/02 A2962 RMK AO2 P0003=
200911131500 SPECI KPAE 131500Z 15014G19KT 5SM RA BR BKN013 OVC020 04/03 A2964 RMK AO2 PRESFR P0001=
200911131500 SPECI KPAE 131500Z 15014G19KT 5SM RA BR BKN013 OVC020 04/03 A2964 RMK AO2 PRESFR P0001=
200911131453 METAR KPAE 131453Z 16013KT 5SM -RA BR BKN015 OVC020 04/03 A2965 RMK AO2 SLP043 P0007 60013 T00440028 55003=
200911131353 METAR KPAE 131353Z AUTO 17015G30KT 6SM -RA BKN023 BKN027 OVC032 05/02 A2965 RMK AO2 PK WND 17030/1345 SLP042 P0006 T00500022=
200911131253 METAR KPAE 131253Z AUTO 18017G30KT 8SM -RA OVC029 06/02 A2966 RMK AO2 PK WND 19030/1250 RAB16 SLP045 P0000 T00610017=
200911131153 METAR KPAE 131153Z AUTO 17017G23KT 10SM BKN065 07/00 A2969 RMK AO2 SLP057 60000 T00670000 10067 20050 56041=
200911131053 METAR KPAE 131053Z AUTO 15014G24KT 10SM FEW050 OVC080 07/01 A2973 RMK AO2 SLP070 T00670006=
200911130953 METAR KPAE 130953Z AUTO 16013KT 10SM OVC085 06/01 A2978 RMK AO2 RAB10E20 SLP085 P0000 T00610006=
200911130853 METAR KPAE 130853Z AUTO 16011KT 10SM OVC040 06/01 A2982 RMK AO2 SLP099 60000 T00560011 58020=
200911130753 METAR KPAE 130753Z AUTO 15010G14KT 10SM FEW026 BKN049 OVC060 05/02 A2985 RMK AO2 RAB0658E08 SLP109 P0000 T00500017 400940039=
200911130653 METAR KPAE 130653Z AUTO 17010KT 10SM FEW025 OVC049 06/02 A2987 RMK AO2 SLP118 T00560017=
200911130553 METAR KPAE 130553Z AUTO 17010KT 10SM CLR 05/02 A2988 RMK AO2 SLP120 T00500017 10078 20044 58009=
200911130453 METAR KPAE 130453Z 16009KT 10SM OVC043 06/02 A2989 RMK AO2 SLP125 T00560017=
200911130353 METAR KPAE 130353Z 18011KT 10SM FEW045 06/02 A2990 RMK AO2 SLP128 T00560022=
200911130253 METAR KPAE 130253Z 18009KT 10SM CLR 06/02 A2991 RMK AO2 SLP130 T00560022 58003=
200911130153 METAR KPAE 130153Z 20007KT 10SM FEW025 06/03 A2992 RMK AO2 SLP134 T00610028=
200911130053 METAR KPAE 130053Z 20006KT 10SM CLR 06/02 A2991 RMK AO2 SLP133 T00560017=
200911122353 METAR KPAE 122353Z 24004KT 10SM CLR 08/01 A2991 RMK AO2 SLP132 T00780011 10094 20061 56005=
200911122253 METAR KPAE 122253Z 00000KT 10SM FEW050 08/01 A2991 RMK AO2 SLP132 T00830006=
200911122153 METAR KPAE 122153Z 00000KT 10SM CLR 09/01 A2992 RMK AO2 SLP133 T00890011=
200911122053 METAR KPAE 122053Z 00000KT 10SM FEW050 SCT120 09/02 A2993 RMK AO2 SLP137 T00890017 50000=
200911121953 METAR KPAE 121953Z 00000KT 10SM CLR 08/01 A2993 RMK AO2 SLP139 T00780006=
200911121853 METAR KPAE 121853Z 00000KT 10SM CLR 07/01 A2994 RMK AO2 SLP141 T00720006=
200911121753 METAR KPAE 121753Z 00000KT 10SM CLR 07/01 A2993 RMK AO2 SLP137 T00670006 10067 20039 53007=
200911121653 METAR KPAE 121653Z 00000KT 10SM CLR 06/01 A2992 RMK AO2 SLP136 T00560011=
200911121553 METAR KPAE 121553Z 08003KT 10SM CLR 04/01 A2991 RMK AO2 SLP131 T00440006=
200911121453 METAR KPAE 121453Z 26005KT 10SM OVC043 04/00 A2991 RMK AO2 SLP129 T00440000 53004=
200911121353 METAR KPAE 121353Z AUTO 11003KT 10SM OVC043 04/00 A2990 RMK AO2 SLP126 T00440000=
200911121253 METAR KPAE 121253Z AUTO 11006KT 10SM FEW034 OVC047 04/01 A2989 RMK AO2 SLP126 T00440006=
200911121153 METAR KPAE 121153Z AUTO 11005KT 10SM FEW034 OVC045 04/01 A2989 RMK AO2 SLP125 70001 T00440011 10056 20044 56006=
200911121053 METAR KPAE 121053Z AUTO 11007KT 10SM OVC039 04/02 A2990 RMK AO2 SLP127 T00440017=
200911120953 METAR KPAE 120953Z AUTO 11007KT 10SM FEW035 OVC065 04/02 A2990 RMK AO2 SLP128 T00440022=
200911120853 METAR KPAE 120853Z AUTO 11006KT 10SM FEW038 OVC070 04/03 A2991 RMK AO2 SLP131 T00440028 58006=
200911120753 METAR KPAE 120753Z AUTO 12006KT 10SM SCT060 05/03 A2992 RMK AO2 SLP136 T00500028 400940050=
200911120653 METAR KPAE 120653Z AUTO VRB03KT 10SM SCT026 BKN046 OVC110 06/03 A2993 RMK AO2 SLP137 T00560033=
200911120643 SPECI KPAE 120643Z AUTO VRB03KT 10SM BKN024 OVC044 06/03 A2993 RMK AO2=
200911120643 SPECI KPAE 120643Z AUTO VRB03KT 10SM BKN024 OVC044 06/03 A2993 RMK AO2=
200911120553 METAR KPAE 120553Z AUTO 15008KT 10SM BKN038 BKN049 OVC070 06/03 A2993 RMK AO2 RAE10 SLP138 P0000 60001 T00560033 10078 20056 56005=
200911120453 METAR KPAE 120453Z AUTO 19006KT 8SM -RA FEW018 OVC040 06/03 A2993 RMK AO2 SLP139 P0001 T00560033=
200911120439 SPECI KPAE 120439Z 21007KT 10SM -RA BKN016 BKN041 OVC060 06/03 A2994 RMK AO2 P0001=
200911120439 SPECI KPAE 120439Z 21007KT 10SM -RA BKN016 BKN041 OVC060 06/03 A2994 RMK AO2 P0001=
200911120418 SPECI KPAE 120418Z 21007KT 9SM -RA BKN014 BKN036 OVC060 06/04 A2994 RMK AO2 P0000=
200911120418 SPECI KPAE 120418Z 21007KT 9SM -RA BKN014 BKN036 OVC060 06/04 A2994 RMK AO2 P0000=
200911120353 METAR KPAE 120353Z 00000KT 10SM -RA FEW026 BKN043 OVC055 07/04 A2994 RMK AO2 RAB10E20B37 SLP140 P0000 T00670039=
200911120327 SPECI KPAE 120327Z 19004KT 10SM SCT021 OVC070 07/04 A2994 RMK AO2 RAB10E20 P0000=
200911120327 SPECI KPAE 120327Z 19004KT 10SM SCT021 OVC070 07/04 A2994 RMK AO2 RAB10E20 P0000=
200911120314 SPECI KPAE 120314Z 20005KT 10SM -RA SCT018 BKN023 OVC070 07/03 A2995 RMK AO2 RAB10 P0000=
200911120314 SPECI KPAE 120314Z 20005KT 10SM -RA SCT018 BKN023 OVC070 07/03 A2995 RMK AO2 RAB10 P0000=
200911120253 METAR KPAE 120253Z VRB03KT 10SM FEW024 SCT032 BKN050 07/02 A2995 RMK AO2 SLP143 T00720022 56004=
200911120153 METAR KPAE 120153Z 15004KT 10SM CLR 07/02 A2995 RMK AO2 SLP144 T00720017=
200911120053 METAR KPAE 120053Z 00000KT 10SM CLR 08/01 A2995 RMK AO2 SLP144 T00780011=
200911112353 METAR KPAE 112353Z AUTO 15005KT 10SM CLR 08/02 A2996 RMK AO2 SLP147 T00830017 10094 20072 56018 TSNO=
200911112253 METAR KPAE 112253Z 16008KT 10SM FEW030 SCT037 09/03 A2997 RMK AO2 SLP150 T00890028=
200911112153 METAR KPAE 112153Z 18011KT 10SM SCT031 09/03 A2999 RMK AO2 SLP158 T00890028=
200911112053 METAR KPAE 112053Z 19010KT 10SM FEW021 SCT037 09/03 A3001 RMK AO2 SLP165 T00940033 58013=
200911112029 SPECI KPAE 112029Z 16006KT 10SM SCT021 SCT025 09/04 A3002 RMK AO2=
200911112029 SPECI KPAE 112029Z 16006KT 10SM SCT021 SCT025 09/04 A3002 RMK AO2=
200911111953 METAR KPAE 111953Z 17008KT 10SM BKN019 BKN025 OVC034 08/04 A3003 RMK AO2 SLP173 T00830039=
200911111853 METAR KPAE 111853Z 17010KT 10SM BKN017 BKN023 08/04 A3005 RMK AO2 SLP179 T00830039=
200911111800 SPECI KPAE 111800Z 18009KT 10SM BKN015 07/04 A3005 RMK AO2=
200911111800 SPECI KPAE 111800Z 18009KT 10SM BKN015 07/04 A3005 RMK AO2=
200911111753 METAR KPAE 111753Z 17010KT 10SM BKN013 07/04 A3005 RMK AO2 SLP179 T00720044 10072 20056 58002=
200911111705 SPECI KPAE 111705Z 18008KT 150V240 10SM BKN010 06/04 A3006 RMK AO2=
200911111705 SPECI KPAE 111705Z 18008KT 150V240 10SM BKN010 06/04 A3006 RMK AO2=
200911111653 METAR KPAE 111653Z 17010KT 10SM SCT013 06/04 A3006 RMK AO2 SLP180 T00610039=
200911111636 SPECI KPAE 111636Z 18010KT 10SM FEW009 BKN013 06/04 A3006 RMK AO2=
200911111636 SPECI KPAE 111636Z 18010KT 10SM FEW009 BKN013 06/04 A3006 RMK AO2=
200911111621 SPECI KPAE 111621Z 17009KT 10SM SCT010 BKN017 06/04 A3006 RMK AO2=
200911111621 SPECI KPAE 111621Z 17009KT 10SM SCT010 BKN017 06/04 A3006 RMK AO2=
200911111614 SPECI KPAE 111614Z 18008KT 10SM BKN010 BKN017 06/04 A3006 RMK AO2 CIG 007V015=
200911111614 SPECI KPAE 111614Z 18008KT 10SM BKN010 BKN017 06/04 A3006 RMK AO2 CIG 007V015=
200911111553 METAR KPAE 111553Z 17007KT 10SM FEW008 OVC017 06/04 A3006 RMK AO2 SLP182 T00560044=
200911111511 SPECI KPAE 111511Z 17007KT 10SM BKN021 BKN085 06/04 A3006 RMK AO2=
200911111511 SPECI KPAE 111511Z 17007KT 10SM BKN021 BKN085 06/04 A3006 RMK AO2=
200911111453 METAR KPAE 111453Z 17007KT 10SM FEW019 SCT085 06/04 A3006 RMK AO2 SLP181 T00560039 53003=
200911111419 SPECI KPAE 111419Z AUTO 17008KT 10SM SCT010 BKN032 BKN080 06/04 A3005 RMK AO2=
200911111419 SPECI KPAE 111419Z AUTO 17008KT 10SM SCT010 BKN032 BKN080 06/04 A3005 RMK AO2=
200911111353 METAR KPAE 111353Z AUTO 17007KT 10SM SCT018 BKN022 OVC033 06/04 A3005 RMK AO2 SLP179 T00610044=
200911111315 SPECI KPAE 111315Z AUTO 18007KT 10SM SCT012 BKN019 OVC024 06/04 A3005 RMK AO2=
200911111315 SPECI KPAE 111315Z AUTO 18007KT 10SM SCT012 BKN019 OVC024 06/04 A3005 RMK AO2=
200911111253 METAR KPAE 111253Z AUTO 19010KT 10SM BKN014 OVC022 06/04 A3005 RMK AO2 SLP178 T00610044=
200911111250 SPECI KPAE 111250Z AUTO 18008KT 10SM FEW010 BKN014 OVC022 06/04 A3005 RMK AO2=
200911111250 SPECI KPAE 111250Z AUTO 18008KT 10SM FEW010 BKN014 OVC022 06/04 A3005 RMK AO2=
200911111153 METAR KPAE 111153Z AUTO 18007KT 10SM SCT022 OVC029 07/04 A3004 RMK AO2 SLP177 60000 70038 T00670039 10067 20061 50002=
200911111100 SPECI KPAE 111100Z AUTO 17010KT 10SM SCT011 OVC019 07/04 A3005 RMK AO2=
200911111100 SPECI KPAE 111100Z AUTO 17010KT 10SM SCT011 OVC019 07/04 A3005 RMK AO2=
200911111053 METAR KPAE 111053Z AUTO 18009KT 10SM FEW009 BKN014 OVC025 07/04 A3005 RMK AO2 SLP179 T00670044=
200911111019 SPECI KPAE 111019Z AUTO 17010KT 10SM FEW012 OVC018 07/04 A3004 RMK AO2=
200911111019 SPECI KPAE 111019Z AUTO 17010KT 10SM FEW012 OVC018 07/04 A3004 RMK AO2=
200911110953 METAR KPAE 110953Z AUTO 18007KT 10SM BKN011 OVC017 06/04 A3004 RMK AO2 SLP175 T00610044=
200911110909 SPECI KPAE 110909Z AUTO 18011KT 10SM BKN013 OVC020 06/04 A3004 RMK AO2=
200911110909 SPECI KPAE 110909Z AUTO 18011KT 10SM BKN013 OVC020 06/04 A3004 RMK AO2=
200911110853 METAR KPAE 110853Z AUTO 18009KT 10SM SCT013 BKN020 OVC090 06/04 A3004 RMK AO2 RAE0757 SLP175 P0000 60000 T00610044 53009=
200911110833 SPECI KPAE 110833Z AUTO 18007KT 10SM BKN013 BKN020 OVC095 06/04 A3003 RMK AO2 RAE0757 P0000=
200911110833 SPECI KPAE 110833Z AUTO 18007KT 10SM BKN013 BKN020 OVC095 06/04 A3003 RMK AO2 RAE0757 P0000=
200911110819 SPECI KPAE 110819Z AUTO 19008KT 10SM FEW013 BKN018 OVC095 06/04 A3003 RMK AO2 RAE0757 P0000=
200911110819 SPECI KPAE 110819Z AUTO 19008KT 10SM FEW013 BKN018 OVC095 06/04 A3003 RMK AO2 RAE0757 P0000=
200911110753 METAR KPAE 110753Z AUTO 18012KT 10SM -RA BKN060 BKN075 OVC095 06/04 A3003 RMK AO2 RAE13B48 SLP171 P0000 T00610044 400830061=
200911110653 METAR KPAE 110653Z AUTO 18015KT 10SM -RA OVC040 07/04 A3002 RMK AO2 RAB32 SLP167 P0000 T00670044=
200911110553 METAR KPAE 110553Z AUTO 18012G19KT 10SM FEW010 BKN070 OVC090 07/05 A3001 RMK AO2 RAE03 SLP165 P0001 60022 T00670050 10078 20067 55005=
200911110458 SPECI KPAE 110458Z AUTO 19013KT 10SM -RA FEW007 SCT014 OVC095 07/06 A3001 RMK AO2 P0000=
200911110458 SPECI KPAE 110458Z AUTO 19013KT 10SM -RA FEW007 SCT014 OVC095 07/06 A3001 RMK AO2 P0000=
200911110453 METAR KPAE 110453Z AUTO 18014KT 9SM -RA SCT007 BKN013 OVC095 07/05 A3001 RMK AO2 SLP164 P0004 T00670050=
200911110416 SPECI KPAE 110416Z 18013G22KT 8SM -RA FEW009 SCT019 OVC024 07/06 A3001 RMK AO2 P0001=
200911110416 SPECI KPAE 110416Z 18013G22KT 8SM -RA FEW009 SCT019 OVC024 07/06 A3001 RMK AO2 P0001=
200911110407 SPECI KPAE 110407Z 18017G22KT 5SM -RA BR FEW006 BKN012 OVC026 07/06 A3001 RMK AO2 P0001=
200911110407 SPECI KPAE 110407Z 18017G22KT 5SM -RA BR FEW006 BKN012 OVC026 07/06 A3001 RMK AO2 P0001=
200911110353 METAR KPAE 110353Z 18012KT 6SM -RA BR SCT006 BKN018 OVC026 07/06 A3002 RMK AO2 SLP168 P0009 T00670056=
200911110345 SPECI KPAE 110345Z 19008KT 5SM RA BR BKN006 BKN012 OVC026 07/06 A3002 RMK AO2 CIG 004V008 P0008=
200911110345 SPECI KPAE 110345Z 19008KT 5SM RA BR BKN006 BKN012 OVC026 07/06 A3002 RMK AO2 CIG 004V008 P0008=
200911110335 SPECI KPAE 110335Z 18008KT 4SM RA BR SCT006 BKN020 OVC032 07/06 A3002 RMK AO2 P0006=
200911110335 SPECI KPAE 110335Z 18008KT 4SM RA BR SCT006 BKN020 OVC032 07/06 A3002 RMK AO2 P0006=
200911110314 SPECI KPAE 110314Z 16010KT 5SM RA BR BKN024 OVC030 07/06 A3002 RMK AO2 P0003=
200911110314 SPECI KPAE 110314Z 16010KT 5SM RA BR BKN024 OVC030 07/06 A3002 RMK AO2 P0003=
200911110253 METAR KPAE 110253Z 16010KT 6SM -RA BR FEW023 BKN032 OVC043 07/06 A3003 RMK AO2 SLP170 P0005 60008 T00670056 56006=
200911110153 METAR KPAE 110153Z 17010KT 7SM -RA FEW022 BKN035 OVC055 07/06 A3003 RMK AO2 SLP173 P0003 T00720056=
200911110053 METAR KPAE 110053Z 18015G20KT 10SM -RA SCT034 OVC043 08/05 A3003 RMK AO2 SLP173 P0000 T00780050=
200911102353 METAR KPAE 102353Z 16012KT 7SM -RA BKN037 OVC048 08/05 A3005 RMK AO2 RAE06B45 SLP177 P0000 60013 T00830050 10083 20078 57015=
200911102253 METAR KPAE 102253Z 15007KT 6SM -RA BKN034 OVC043 08/05 A3006 RMK AO2 SLP181 P0004 T00830050=
200911102153 METAR KPAE 102153Z 18011G17KT 5SM -RA BKN033 OVC041 08/05 A3008 RMK AO2 SLP189 P0004 T00780050=
200911102053 METAR KPAE 102053Z 18008KT 6SM -RA BR OVC031 08/06 A3009 RMK AO2 SLP193 P0004 60005 T00780056 58007=
200911102044 SPECI KPAE 102044Z 20012KT 4SM -RA BKN029 OVC035 08/05 A3010 RMK AO2 P0003=
200911102044 SPECI KPAE 102044Z 20012KT 4SM -RA BKN029 OVC035 08/05 A3010 RMK AO2 P0003=
200911101953 METAR KPAE 101953Z 17007KT 9SM -RA BKN037 OVC060 08/05 A3011 RMK AO2 SLP197 P0001 T00830050=
200911101853 METAR KPAE 101853Z 16009KT 10SM -RA FEW029 BKN037 OVC043 08/05 A3012 RMK AO2 RAB07 SLP204 P0000 T00780050=
200911101753 METAR KPAE 101753Z 16011KT 10SM FEW035 SCT047 BKN060 08/06 A3011 RMK AO2 RAB13E34 SLP199 P0000 60003 T00830056 10083 20067 51014=
200911101653 METAR KPAE 101653Z 17012KT 10SM FEW026 BKN038 OVC048 07/04 A3011 RMK AO2 RAE50 SLP198 P0003 T00670044=
200911101553 METAR KPAE 101553Z 17012KT 10SM -RA FEW035 BKN065 07/04 A3010 RMK AO2 RAB48 SLP194 P0000 T00720039=
200911101453 METAR KPAE 101453Z AUTO 17013KT 10SM BKN120 07/04 A3007 RMK AO2 PK WND 18026/1400 SLP185 T00720044 51023=
200911101353 METAR KPAE 101353Z AUTO 18017KT 10SM CLR 07/04 A3005 RMK AO2 PK WND 18027/1335 SLP178 T00670044=
200911101253 METAR KPAE 101253Z AUTO 18015G21KT 10SM CLR 07/04 A3004 RMK AO2 SLP173 T00670044=
200911101153 METAR KPAE 101153Z AUTO 18015G24KT 10SM CLR 07/04 A3000 RMK AO2 PK WND 18026/1105 SLP162 60004 70050 T00670044 10078 20067 53018=
200911101053 METAR KPAE 101053Z AUTO 18019KT 10SM SCT110 07/04 A2999 RMK AO2 PK WND 19026/1037 SLP156 T00720044=
200911100953 METAR KPAE 100953Z AUTO 18017G22KT 10SM FEW110 07/04 A2996 RMK AO2 PK WND 18027/0924 SLP148 T00720044=
200911100853 METAR KPAE 100853Z AUTO 18015G23KT 10SM FEW015 SCT030 BKN039 08/06 A2995 RMK AO2 SLP144 60004 T00780056 53019=
200911100753 METAR KPAE 100753Z AUTO 18021G26KT 10SM SCT019 BKN080 OVC095 08/06 A2992 RMK AO2 PK WND 17027/0738 RAB11E49 SLP132 P0003 T00780056 401170072=
200911100720 SPECI KPAE 100720Z AUTO 18016G20KT 6SM -RA BR SCT009 BKN020 OVC031 08/06 A2992 RMK AO2 RAB11 P0001=
200911100720 SPECI KPAE 100720Z AUTO 18016G20KT 6SM -RA BR SCT009 BKN020 OVC031 08/06 A2992 RMK AO2 RAB11 P0001=
200911100706 SPECI KPAE 100706Z AUTO 17016G22KT 10SM FEW007 BKN013 OVC031 08/06 A2991 RMK AO2=
200911100706 SPECI KPAE 100706Z AUTO 17016G22KT 10SM FEW007 BKN013 OVC031 08/06 A2991 RMK AO2=
200911100653 METAR KPAE 100653Z AUTO 16014KT 10SM SCT010 BKN016 OVC033 08/06 A2991 RMK AO2 RAE49 SLP130 P0001 T00780061=
200911100638 SPECI KPAE 100638Z AUTO 17013G20KT 5SM -RA BR FEW008 BKN028 OVC034 07/06 A2990 RMK AO2 P0000=
200911100638 SPECI KPAE 100638Z AUTO 17013G20KT 5SM -RA BR FEW008 BKN028 OVC034 07/06 A2990 RMK AO2 P0000=
200911100553 METAR KPAE 100553Z AUTO 18012KT 7SM -RA FEW011 OVC036 08/07 A2989 RMK AO2 SLP124 P0004 60005 T00780067 10106 20078 53006=
200911100453 METAR KPAE 100453Z 18011G19KT 8SM -RA SCT018 BKN030 OVC055 09/07 A2988 RMK AO2 RAB38 SLP119 P0001 T00890067=
200911100353 METAR KPAE 100353Z 16009KT 10SM SCT110 08/06 A2987 RMK AO2 SLP116 T00830061=
200911100253 METAR KPAE 100253Z 17009KT 10SM CLR 09/06 A2987 RMK AO2 SLP118 T00890061 51020=
200911100153 METAR KPAE 100153Z 18014KT 10SM CLR 09/06 A2986 RMK AO2 SLP112 T00890061=
200911100053 METAR KPAE 100053Z 19015KT 10SM FEW060 09/06 A2985 RMK AO2 PK WND 19028/0006 SLP111 T00940061=
200911092353 METAR KPAE 092353Z 19018G27KT 10SM FEW024 SCT033 11/07 A2982 RMK AO2 PK WND 19027/2348 SLP098 60028 T01060067 10106 20083 51017=
200911092253 METAR KPAE 092253Z 15009G16KT 10SM FEW029 OVC039 09/07 A2980 RMK AO2 RAE18 SLP094 P0000 T00940067=
200911092153 METAR KPAE 092153Z 15011G16KT 5SM -RA BR FEW024 OVC034 09/07 A2979 RMK AO2 RAE02B19 SLP088 P0001 T00890067=
200911092053 METAR KPAE 092053Z VRB05KT 8SM -RA SCT040 OVC047 09/07 A2977 RMK AO2 SLP081 P0009 60027 T00890072 58015=
200911092041 SPECI KPAE 092041Z VRB04KT 8SM -RA FEW030 BKN037 OVC049 09/07 A2977 RMK AO2 P0009=
200911092041 SPECI KPAE 092041Z VRB04KT 8SM -RA FEW030 BKN037 OVC049 09/07 A2977 RMK AO2 P0009=
200911092023 SPECI KPAE 092023Z 16010KT 2 1/2SM RA BR SCT030 OVC037 08/07 A2979 RMK AO2 P0007=
200911092023 SPECI KPAE 092023Z 16010KT 2 1/2SM RA BR SCT030 OVC037 08/07 A2979 RMK AO2 P0007=
200911091953 METAR KPAE 091953Z VRB05KT 4SM -RA BR FEW030 OVC035 08/07 A2978 RMK AO2 SLP087 P0009 T00830067=
200911091853 METAR KPAE 091853Z 15008KT 110V170 5SM -RA OVC040 09/06 A2980 RMK AO2 SLP092 P0009 T00890061=
200911091753 METAR KPAE 091753Z 15011KT 6SM -RA OVC044 09/06 A2981 RMK AO2 SLP096 P0008 60013 T00890061 10117 20083 53015=
200911091653 METAR KPAE 091653Z 19012KT 4SM RA BR BKN040 OVC049 08/06 A2981 RMK AO2 WSHFT 1611 SLP096 P0004 T00830061=
200911091631 SPECI KPAE 091631Z 21005G15KT 7SM -RA BKN045 OVC060 09/06 A2980 RMK AO2 WSHFT 1611 P0001=
200911091631 SPECI KPAE 091631Z 21005G15KT 7SM -RA BKN045 OVC060 09/06 A2980 RMK AO2 WSHFT 1611 P0001=
200911091624 SPECI KPAE 091624Z 24010KT 10SM -RA FEW047 OVC060 09/06 A2980 RMK AO2 WSHFT 1604 P0000=
200911091624 SPECI KPAE 091624Z 24010KT 10SM -RA FEW047 OVC060 09/06 A2980 RMK AO2 WSHFT 1604 P0000=
200911091553 METAR KPAE 091553Z 15009G19KT 110V170 10SM -RA OVC055 12/02 A2976 RMK AO2 RAB1454 SLP079 P0001 T01170022=
200911091453 METAR KPAE 091453Z AUTO 15012G18KT 10SM OVC060 11/02 A2976 RMK AO2 SLP081 T01110017 56024=
200911091353 METAR KPAE 091353Z AUTO 14008KT 10SM OVC070 11/02 A2977 RMK AO2 SLP083 T01060017=
200911091253 METAR KPAE 091253Z AUTO 13011G19KT 10SM BKN065 OVC080 10/02 A2981 RMK AO2 SLP094 T01000022=
200911091153 METAR KPAE 091153Z AUTO VRB06KT 10SM SCT060 OVC080 09/02 A2984 RMK AO2 SLP105 60000 T00940022 10094 20072 56027=
200911091053 METAR KPAE 091053Z AUTO 13005KT 10SM OVC065 09/03 A2986 RMK AO2 SLP113 T00890028=
200911090953 METAR KPAE 090953Z AUTO 12010KT 10SM BKN055 OVC080 08/03 A2990 RMK AO2 SLP126 T00830033=
200911090853 METAR KPAE 090853Z AUTO 12009G15KT 10SM BKN060 OVC075 09/03 A2992 RMK AO2 SLP133 60000 T00890033 58019=
200911090753 METAR KPAE 090753Z AUTO 14007KT 10SM OVC065 09/03 A2994 RMK AO2 SLP141 T00890033 400940056=
200911090653 METAR KPAE 090653Z AUTO VRB03KT 10SM FEW038 BKN049 OVC060 08/04 A2996 RMK AO2 RAB38E52 SLP149 P0000 T00780044=
200911090553 METAR KPAE 090553Z AUTO 12005KT 10SM OVC060 07/04 A2998 RMK AO2 RAE29 SLP153 P0000 60000 T00720044 10089 20072 58008=
200911090453 METAR KPAE 090453Z AUTO VRB04KT 10SM -RA FEW036 BKN045 OVC060 08/04 A2999 RMK AO2 RAB14 SLP158 P0000 T00830039=
200911090353 METAR KPAE 090353Z 15007KT 10SM OVC049 09/03 A3000 RMK AO2 SLP161 T00890033=
200911090253 METAR KPAE 090253Z 15006KT 10SM BKN041 OVC050 08/03 A3000 RMK AO2 SLP162 T00830033 58006=
200911090153 METAR KPAE 090153Z 14006KT 10SM SCT033 SCT055 08/04 A3001 RMK AO2 SLP165 T00830039=
200911090053 METAR KPAE 090053Z 15010KT 10SM SCT040 SCT120 09/04 A3001 RMK AO2 SLP166 T00890044=
200911090019 SPECI KPAE 090019Z 16008KT 10SM SCT031 09/04 A3001 RMK AO2=
200911090019 SPECI KPAE 090019Z 16008KT 10SM SCT031 09/04 A3001 RMK AO2=
200911082353 METAR KPAE 082353Z 16011KT 10SM BKN026 OVC032 09/04 A3002 RMK AO2 SLP167 T00890044 10094 20072 51001=
200911082313 SPECI KPAE 082313Z 15008G14KT 10SM FEW021 09/04 A3002 RMK AO2=
200911082313 SPECI KPAE 082313Z 15008G14KT 10SM FEW021 09/04 A3002 RMK AO2=
200911082253 METAR KPAE 082253Z 15008G14KT 10SM BKN021 BKN028 09/04 A3002 RMK AO2 SLP169 T00890044=
200911082238 SPECI KPAE 082238Z VRB06G17KT 10SM BKN021 BKN026 09/04 A3002 RMK AO2=
200911082238 SPECI KPAE 082238Z VRB06G17KT 10SM BKN021 BKN026 09/04 A3002 RMK AO2=
200911082153 METAR KPAE 082153Z 16014KT 10SM SCT018 SCT065 09/04 A3002 RMK AO2 SLP167 T00940044=
200911082053 METAR KPAE 082053Z 17012G20KT 10SM BKN018 09/04 A3002 RMK AO2 SLP169 T00890044 51001=
200911081953 METAR KPAE 081953Z 18016G23KT 10SM BKN018 08/04 A3002 RMK AO2 SLP168 T00830044=
200911081940 SPECI KPAE 081940Z 17016G21KT 10SM BKN018 08/04 A3002 RMK AO2=
200911081940 SPECI KPAE 081940Z 17016G21KT 10SM BKN018 08/04 A3002 RMK AO2=
200911081853 METAR KPAE 081853Z 17011KT 10SM SCT070 08/04 A3003 RMK AO2 SLP171 T00780044=
200911081753 METAR KPAE 081753Z 16012KT 10SM SCT030 BKN037 07/04 A3002 RMK AO2 SLP168 T00720039 10072 20056 51008=
200911081749 SPECI KPAE 081749Z 16009KT 10SM BKN029 BKN037 07/04 A3002 RMK AO2=
200911081749 SPECI KPAE 081749Z 16009KT 10SM BKN029 BKN037 07/04 A3002 RMK AO2=
200911081653 METAR KPAE 081653Z 15011KT 10SM SCT095 07/04 A3001 RMK AO2 SLP164 T00670039=
200911081553 METAR KPAE 081553Z 14003KT 10SM BKN020 BKN065 BKN100 06/03 A3000 RMK AO2 SLP160 T00610033=
200911081453 METAR KPAE 081453Z AUTO 16010KT 10SM FEW028 BKN049 OVC100 06/03 A2998 RMK AO2 SLP156 T00610033 51008=
200911081353 METAR KPAE 081353Z AUTO 17012KT 10SM SCT036 SCT043 BKN110 06/03 A2998 RMK AO2 SLP154 T00610033=
200911081253 METAR KPAE 081253Z AUTO 17015KT 10SM CLR 06/04 A2997 RMK AO2 SLP151 T00610039=
200911081153 METAR KPAE 081153Z AUTO 16013KT 10SM CLR 06/04 A2996 RMK AO2 SLP148 60000 70009 T00560039 10067 20056 58002=
200911081053 METAR KPAE 081053Z AUTO 17012G20KT 10SM SCT090 06/04 A2996 RMK AO2 SLP149 T00610039=
200911080953 METAR KPAE 080953Z AUTO 17012KT 10SM FEW010 06/03 A2997 RMK AO2 SLP150 T00560033=
200911080949 SPECI KPAE 080949Z AUTO 17011KT 10SM FEW010 06/03 A2997 RMK AO2=
200911080949 SPECI KPAE 080949Z AUTO 17011KT 10SM FEW010 06/03 A2997 RMK AO2=
200911080853 METAR KPAE 080853Z AUTO 17009KT 10SM FEW014 OVC028 06/04 A2996 RMK AO2 RAE03 SLP148 P0000 60000 T00610039 51010=
200911080849 SPECI KPAE 080849Z AUTO 17010KT 10SM FEW011 BKN028 OVC033 06/03 A2996 RMK AO2 RAE03 P0000=
200911080849 SPECI KPAE 080849Z AUTO 17010KT 10SM FEW011 BKN028 OVC033 06/03 A2996 RMK AO2 RAE03 P0000=
200911080807 SPECI KPAE 080807Z AUTO 18012KT 10SM SCT013 OVC035 06/04 A2995 RMK AO2 RAE03 P0000=
200911080807 SPECI KPAE 080807Z AUTO 18012KT 10SM SCT013 OVC035 06/04 A2995 RMK AO2 RAE03 P0000=
200911080753 METAR KPAE 080753Z AUTO 18013KT 10SM -RA BKN012 BKN019 OVC035 06/04 A2994 RMK AO2 RAB53 SLP142 P0000 T00610039 400830061=
200911080653 METAR KPAE 080653Z AUTO 17011KT 10SM BKN012 OVC020 07/04 A2993 RMK AO2 SLP138 T00670044=
200911080553 METAR KPAE 080553Z AUTO 17010KT 10SM OVC012 06/04 A2992 RMK AO2 SLP133 T00610039 10078 20061 51015=
200911080536 SPECI KPAE 080536Z AUTO 18008KT 10SM OVC014 06/03 A2991 RMK AO2=
200911080536 SPECI KPAE 080536Z AUTO 18008KT 10SM OVC014 06/03 A2991 RMK AO2=
200911080508 SPECI KPAE 080508Z AUTO 16009KT 10SM BKN016 BKN023 BKN032 06/03 A2991 RMK AO2=
200911080508 SPECI KPAE 080508Z AUTO 16009KT 10SM BKN016 BKN023 BKN032 06/03 A2991 RMK AO2=
200911080501 SPECI KPAE 080501Z AUTO 17010KT 10SM BKN014 BKN023 BKN032 06/03 A2991 RMK AO2=
200911080501 SPECI KPAE 080501Z AUTO 17010KT 10SM BKN014 BKN023 BKN032 06/03 A2991 RMK AO2=
200911080453 METAR KPAE 080453Z AUTO 17009KT 10SM SCT014 BKN021 BKN030 06/03 A2990 RMK AO2 SLP128 T00610033=
200911080353 METAR KPAE 080353Z 18012KT 10SM FEW014 BKN022 OVC027 07/04 A2989 RMK AO2 SLP123 T00670044=
200911080335 SPECI KPAE 080335Z 16013KT 10SM SCT014 BKN025 BKN090 07/04 A2988 RMK AO2=
200911080335 SPECI KPAE 080335Z 16013KT 10SM SCT014 BKN025 BKN090 07/04 A2988 RMK AO2=
200911080253 METAR KPAE 080253Z 18011KT 10SM FEW012 OVC110 07/04 A2987 RMK AO2 SLP118 T00670039 53017=
200911080153 METAR KPAE 080153Z 16011KT 10SM CLR 06/04 A2984 RMK AO2 SLP107 T00610039=
200911080053 METAR KPAE 080053Z 18012KT 10SM FEW014 BKN047 07/04 A2982 RMK AO2 SLP100 T00720039=
200911072353 METAR KPAE 072353Z 16016G21KT 10SM FEW014 BKN023 OVC028 08/04 A2982 RMK AO2 SLP100 60001 T00780044 10083 20072 53007=
200911072253 METAR KPAE 072253Z 18016KT 10SM BKN015 BKN027 08/05 A2981 RMK AO2 SLP097 T00780050=
200911072153 METAR KPAE 072153Z 18019G24KT 10SM FEW010 BKN015 08/06 A2980 RMK AO2 SLP093 T00780056=
200911072053 METAR KPAE 072053Z 18017G25KT 10SM BKN010 OVC015 07/06 A2980 RMK AO2 PK WND 16027/1954 SLP095 60001 T00720056 51001=
200911071953 METAR KPAE 071953Z 18017G26KT 10SM BKN014 OVC037 07/05 A2980 RMK AO2 PK WND 19031/1917 RAE18 SLP094 P0001 T00720050 $=
200911071853 METAR KPAE 071853Z 18020G29KT 10SM -RA SCT018 OVC027 08/05 A2982 RMK AO2 PK WND 18029/1849 RAE03B28 SLP099 P0000 T00780050=
200911071753 METAR KPAE 071753Z 18013G22KT 8SM -RA SCT012 BKN029 OVC047 07/05 A2980 RMK AO2 PK WND 20032/1728 SLP094 P0005 60008 T00720050 10078 20067 50002=
200911071703 SPECI KPAE 071703Z 19016G27KT 3SM RA BR SCT017 OVC028 07/06 A2980 RMK AO2 PK WND 19027/1701 P0002=
200911071703 SPECI KPAE 071703Z 19016G27KT 3SM RA BR SCT017 OVC028 07/06 A2980 RMK AO2 PK WND 19027/1701 P0002=
200911071701 SPECI KPAE 071701Z 18018G27KT 2 1/2SM RA BR FEW015 SCT022 OVC030 07/06 A2980 RMK AO2 PK WND 19027/1701 P0002=
200911071701 SPECI KPAE 071701Z 18018G27KT 2 1/2SM RA BR FEW015 SCT022 OVC030 07/06 A2980 RMK AO2 PK WND 19027/1701 P0002=
200911071653 METAR KPAE 071653Z 17013G18KT 3SM -RA BR FEW019 SCT026 OVC034 07/06 A2981 RMK AO2 RAB12 SLP096 P0003 T00720056=
200911071553 METAR KPAE 071553Z 18016KT 10SM SCT014 BKN080 07/05 A2981 RMK AO2 SLP097 T00720050=
200911071453 METAR KPAE 071453Z 17014KT 10SM FEW080 07/04 A2980 RMK AO2 PK WND 18027/1419 SLP092 T00670039 50001=
200911071353 METAR KPAE 071353Z AUTO 17015KT 10SM FEW015 07/05 A2980 RMK AO2 SLP093 T00720050=
200911071307 SPECI KPAE 071307Z AUTO 19015G22KT 10SM SCT014 07/04 A2980 RMK AO2=
200911071307 SPECI KPAE 071307Z AUTO 19015G22KT 10SM SCT014 07/04 A2980 RMK AO2=
200911071253 METAR KPAE 071253Z AUTO 18018G24KT 10SM BKN016 07/05 A2980 RMK AO2 SLP092 T00720050=
200911071240 SPECI KPAE 071240Z AUTO 18015KT 10SM BKN015 07/05 A2980 RMK AO2=
200911071240 SPECI KPAE 071240Z AUTO 18015KT 10SM BKN015 07/05 A2980 RMK AO2=
200911071202 SPECI KPAE 071202Z AUTO 19016KT 10SM BKN014 BKN018 07/05 A2980 RMK AO2=
200911071202 SPECI KPAE 071202Z AUTO 19016KT 10SM BKN014 BKN018 07/05 A2980 RMK AO2=
200911071153 METAR KPAE 071153Z AUTO 18016KT 10SM SCT012 BKN018 07/05 A2979 RMK AO2 PK WND 18028/1107 SLP092 60002 70009 T00670050 10067 20061 50003=
200911071129 SPECI KPAE 071129Z AUTO 18016G24KT 10SM FEW014 SCT020 BKN100 07/05 A2979 RMK AO2 PK WND 18028/1107=
200911071129 SPECI KPAE 071129Z AUTO 18016G24KT 10SM FEW014 SCT020 BKN100 07/05 A2979 RMK AO2 PK WND 18028/1107=
200911071119 SPECI KPAE 071119Z AUTO 18017G26KT 10SM FEW008 SCT014 BKN024 07/05 A2978 RMK AO2 PK WND 18028/1107=
200911071119 SPECI KPAE 071119Z AUTO 18017G26KT 10SM FEW008 SCT014 BKN024 07/05 A2978 RMK AO2 PK WND 18028/1107=
200911071053 METAR KPAE 071053Z AUTO 17014G22KT 10SM FEW021 BKN032 OVC100 07/05 A2980 RMK AO2 RAB21E30 SLP091 P0000 T00670050=
200911071040 SPECI KPAE 071040Z AUTO 17017KT 10SM SCT023 BKN050 OVC100 06/05 A2979 RMK AO2 RAB21E30 P0000=
200911071040 SPECI KPAE 071040Z AUTO 17017KT 10SM SCT023 BKN050 OVC100 06/05 A2979 RMK AO2 RAB21E30 P0000=
200911071001 SPECI KPAE 071001Z AUTO 16018G24KT 10SM BKN023 BKN029 BKN110 06/04 A2979 RMK AO2=
200911071001 SPECI KPAE 071001Z AUTO 16018G24KT 10SM BKN023 BKN029 BKN110 06/04 A2979 RMK AO2=
200911070953 METAR KPAE 070953Z AUTO 17016G25KT 10SM SCT027 SCT032 BKN110 06/04 A2979 RMK AO2 PK WND 18029/0924 SLP091 T00610044=
200911070930 SPECI KPAE 070930Z AUTO 18020G29KT 10SM SCT013 BKN039 06/04 A2979 RMK AO2 PK WND 18029/0924=
200911070930 SPECI KPAE 070930Z AUTO 18020G29KT 10SM SCT013 BKN039 06/04 A2979 RMK AO2 PK WND 18029/0924=
200911070853 METAR KPAE 070853Z AUTO 19019G23KT 10SM FEW010 BKN013 OVC100 06/04 A2979 RMK AO2 PK WND 19028/0813 RAE00 SLP089 P0001 60002 T00610044 55012=
200911070753 METAR KPAE 070753Z AUTO 17020G26KT 10SM -RA FEW011 SCT045 OVC070 07/04 A2979 RMK AO2 PK WND 18029/0726 RAB25 SLP088 P0000 T00670044 401060061=
200911070653 METAR KPAE 070653Z AUTO 19019KT 10SM FEW012 SCT018 BKN055 07/05 A2980 RMK AO2 PK WND 18028/0613 RAE42 SLP094 P0001 T00670050=
200911070624 SPECI KPAE 070624Z AUTO 17020G23KT 8SM -RA FEW012 BKN018 OVC040 07/05 A2980 RMK AO2 PK WND 18028/0613 PRESFR P0001=
200911070624 SPECI KPAE 070624Z AUTO 17020G23KT 8SM -RA FEW012 BKN018 OVC040 07/05 A2980 RMK AO2 PK WND 18028/0613 PRESFR P0001=
200911070553 METAR KPAE 070553Z AUTO 17016G22KT 10SM -RA FEW031 BKN040 OVC060 07/06 A2982 RMK AO2 SLP101 P0003 60006 T00670056 10089 20061 50001=
200911070453 METAR KPAE 070453Z 17015G22KT 10SM -RA BKN050 OVC080 07/05 A2983 RMK AO2 PK WND 17026/0402 RAB0355E05B41 SLP102 P0000 T00670050=
200911070443 SPECI KPAE 070443Z 18017KT 10SM -RA FEW008 BKN060 OVC085 07/05 A2983 RMK AO2 PK WND 17026/0402 RAB0355E05B41 P0000=
200911070443 SPECI KPAE 070443Z 18017KT 10SM -RA FEW008 BKN060 OVC085 07/05 A2983 RMK AO2 PK WND 17026/0402 RAB0355E05B41 P0000=
200911070353 METAR KPAE 070353Z 17020G26KT 10SM BKN095 OVC120 07/05 A2982 RMK AO2 PK WND 17027/0335 SLP101 T00670050=
200911070253 METAR KPAE 070253Z 18018KT 10SM FEW100 06/04 A2982 RMK AO2 TSB21E39RAB0154E27 SLP100 P0001 60003 T00610039 58003=
200911070240 SPECI KPAE 070240Z 18016KT 10SM SCT090 BKN110 07/04 A2982 RMK AO2 TSB21E39RAB0154E27 P0001=
200911070240 SPECI KPAE 070240Z 18016KT 10SM SCT090 BKN110 07/04 A2982 RMK AO2 TSB21E39RAB0154E27 P0001=
200911070222 SPECI KPAE 070222Z 19019KT 10SM -TSRA BKN070 OVC110 07/04 A2983 RMK AO2 TSB21RAB0154 LTG DSNT SE P0001=
200911070222 SPECI KPAE 070222Z 19019KT 10SM -TSRA BKN070 OVC110 07/04 A2983 RMK AO2 TSB21RAB0154 LTG DSNT SE P0001=
200911070153 METAR KPAE 070153Z 20013G19KT 10SM FEW015 BKN085 OVC100 07/05 A2985 RMK AO2 TSB0054E23RAE00B36E49 SLP109 P0000 T00720050=
200911070129 SPECI KPAE 070129Z 20009KT 10SM SCT015 BKN030 OVC090 07/06 A2984 RMK AO2 TSB0054E23RAE00 P0000=
200911070129 SPECI KPAE 070129Z 20009KT 10SM SCT015 BKN030 OVC090 07/06 A2984 RMK AO2 TSB0054E23RAE00 P0000=
200911070100 SPECI KPAE 070100Z 22010KT 10SM TS FEW019 SCT030 OVC060 08/05 A2984 RMK AO2 TSB0054RAE00 P0000=
200911070100 SPECI KPAE 070100Z 22010KT 10SM TS FEW019 SCT030 OVC060 08/05 A2984 RMK AO2 TSB0054RAE00 P0000=
200911070053 METAR KPAE 070053Z 20012G23KT 5SM -RA FEW021 BKN040 OVC065 08/05 A2984 RMK AO2 RAB30 SLP106 OCNL LTG CG S MOV N P0002 T00780050=
200911062353 METAR KPAE 062353Z 18018KT 10SM BKN085 09/04 A2983 RMK AO2 SLP102 60001 T00890044 10106 20078 56002=
200911062253 METAR KPAE 062253Z 17009KT 10SM SCT050 09/05 A2983 RMK AO2 SLP104 T00940050=
200911062153 METAR KPAE 062153Z 19014G20KT 10SM CLR 09/04 A2983 RMK AO2 TSE03 SLP101 P0001 T00890044=
200911062109 SPECI KPAE 062109Z 18012KT 10SM BKN033 BKN045 08/05 A2983 RMK AO2 TSE03 P0001=
200911062109 SPECI KPAE 062109Z 18012KT 10SM BKN033 BKN045 08/05 A2983 RMK AO2 TSE03 P0001=
200911062053 METAR KPAE 062053Z 19011KT 10SM VCTS FEW015 BKN035 BKN045 08/06 A2984 RMK AO2 TSB33RAE35 SLP105 P0000 60000 T00780056 51021=
200911062036 SPECI KPAE 062036Z 20012KT 10SM VCTS BKN020 BKN035 BKN045 08/06 A2983 RMK AO2 TSB33RAE35 P0000=
200911062036 SPECI KPAE 062036Z 20012KT 10SM VCTS BKN020 BKN035 BKN045 08/06 A2983 RMK AO2 TSB33RAE35 P0000=
200911061953 METAR KPAE 061953Z 21015G23KT 10SM -RA BKN023 OVC036 09/05 A2983 RMK AO2 PK WND 19028/1858 RAB44 SLP102 P0000 T00890050=
200911061900 SPECI KPAE 061900Z 19018G28KT 10SM FEW019 OVC025 10/06 A2981 RMK AO2 PK WND 19028/1858=
200911061900 SPECI KPAE 061900Z 19018G28KT 10SM FEW019 OVC025 10/06 A2981 RMK AO2 PK WND 19028/1858=
200911061853 METAR KPAE 061853Z 19018G27KT 10SM SCT016 10/06 A2981 RMK AO2 PK WND 19027/1846 SLP095 T01000056=
200911061753 METAR KPAE 061753Z 18020G29KT 10SM SCT016 08/05 A2977 RMK AO2 PK WND 18029/1751 SLP083 60000 T00830050 10083 20072 53025=
200911061738 SPECI KPAE 061738Z 18018G23KT 10SM SCT016 08/05 A2977 RMK AO2 PK WND 19027/1718=
200911061738 SPECI KPAE 061738Z 18018G23KT 10SM SCT016 08/05 A2977 RMK AO2 PK WND 19027/1718=
200911061720 SPECI KPAE 061720Z 20016G27KT 10SM BKN018 08/05 A2977 RMK AO2 PK WND 19027/1718=
200911061720 SPECI KPAE 061720Z 20016G27KT 10SM BKN018 08/05 A2977 RMK AO2 PK WND 19027/1718=
200911061653 METAR KPAE 061653Z 18018G22KT 10SM FEW018 07/04 A2975 RMK AO2 SLP076 T00720044=
200911061553 METAR KPAE 061553Z 19014G23KT 10SM FEW019 SCT060 BKN110 08/04 A2972 RMK AO2 PK WND 22026/1457 RAB27E39 SLP064 P0000 T00780039=
200911061453 METAR KPAE 061453Z 20016G25KT 10SM OVC075 08/04 A2970 RMK AO2 PK WND 21030/1422 SLP057 T00780044 53026=
200911061353 METAR KPAE 061353Z AUTO 20019G26KT 10SM FEW019 08/05 A2966 RMK AO2 PK WND 18026/1352 SLP045 T00830050=
200911061346 SPECI KPAE 061346Z AUTO 20018G23KT 10SM SCT019 08/05 A2966 RMK AO2=
200911061346 SPECI KPAE 061346Z AUTO 20018G23KT 10SM SCT019 08/05 A2966 RMK AO2=
200911061322 SPECI KPAE 061322Z AUTO 20017KT 10SM FEW015 BKN022 08/05 A2965 RMK AO2=
200911061322 SPECI KPAE 061322Z AUTO 20017KT 10SM FEW015 BKN022 08/05 A2965 RMK AO2=
200911061253 METAR KPAE 061253Z AUTO 20020G26KT 10SM FEW060 08/04 A2965 RMK AO2 PK WND 20026/1253 SLP039 T00780044=
200911061153 METAR KPAE 061153Z AUTO 18008KT 10SM CLR 07/04 A2962 RMK AO2 SLP031 60005 70048 T00720044 10089 20067 53021=
200911061053 METAR KPAE 061053Z AUTO 20014G21KT 10SM BKN075 OVC095 08/05 A2959 RMK AO2 SLP019 T00830050=
200911060953 METAR KPAE 060953Z AUTO 17017G22KT 10SM BKN090 BKN110 08/06 A2958 RMK AO2 LTG DSNT S SLP016 T00780056=
200911060937 SPECI KPAE 060937Z AUTO 17013KT 10SM FEW010 SCT014 BKN100 07/06 A2957 RMK AO2=
200911060937 SPECI KPAE 060937Z AUTO 17013KT 10SM FEW010 SCT014 BKN100 07/06 A2957 RMK AO2=
200911060929 SPECI KPAE 060929Z AUTO 17012G20KT 10SM BKN012 07/06 A2957 RMK AO2=
200911060929 SPECI KPAE 060929Z AUTO 17012G20KT 10SM BKN012 07/06 A2957 RMK AO2=
200911060853 METAR KPAE 060853Z AUTO 17013G25KT 10SM CLR 07/04 A2955 RMK AO2 PK WND 19026/0810 TSB01E17RAE16 SLP009 P0000 60005 T00670044 51019=
200911060823 SPECI KPAE 060823Z AUTO 17012KT 10SM FEW050 BKN085 OVC110 07/05 A2954 RMK AO2 PK WND 19026/0810 LTG DSNT E TSB01E17RAE16 P0000=
200911060823 SPECI KPAE 060823Z AUTO 17012KT 10SM FEW050 BKN085 OVC110 07/05 A2954 RMK AO2 PK WND 19026/0810 LTG DSNT E TSB01E17RAE16 P0000=
200911060807 SPECI KPAE 060807Z AUTO 18016G25KT 10SM VCTS -RA OVC047 07/05 A2953 RMK AO2 LTG DSNT E TSB01 P0000=
200911060807 SPECI KPAE 060807Z AUTO 18016G25KT 10SM VCTS -RA OVC047 07/05 A2953 RMK AO2 LTG DSNT E TSB01 P0000=
200911060753 METAR KPAE 060753Z AUTO 18021G27KT 6SM -RA BR FEW015 OVC043 07/05 A2955 RMK AO2 PK WND 18029/0732 LTG DSNT S RAB25 SLP009 P0005 T00720050 401500072=
200911060740 SPECI KPAE 060740Z AUTO 18015G29KT 5SM RA BR SCT018 SCT025 OVC039 09/07 A2955 RMK AO2 PK WND 18029/0732 LTG DSNT S RAB25 P0003=
200911060740 SPECI KPAE 060740Z AUTO 18015G29KT 5SM RA BR SCT018 SCT025 OVC039 09/07 A2955 RMK AO2 PK WND 18029/0732 LTG DSNT S RAB25 P0003=
200911060724 SPECI KPAE 060724Z AUTO 19018G25KT 10SM BKN019 BKN075 BKN110 09/07 A2954 RMK AO2=
200911060724 SPECI KPAE 060724Z AUTO 19018G25KT 10SM BKN019 BKN075 BKN110 09/07 A2954 RMK AO2=
200911060653 METAR KPAE 060653Z AUTO 17014G24KT 10SM SCT021 09/07 A2952 RMK AO2 PK WND 19032/0559 SLP997 T00890067=
200911060553 METAR KPAE 060553Z AUTO 18021G32KT 10SM FEW120 09/06 A2950 RMK AO2 PK WND 19032/0548 RAE0459 SLP989 P0000 60012 T00890061 10128 20089 51029=
200911060453 METAR KPAE 060453Z AUTO 18019G28KT 10SM -RA FEW017 OVC065 10/08 A2946 RMK AO2 PK WND 19034/0425 SLP976 P0002 T01000078=
200911060353 METAR KPAE 060353Z 20022G39KT 10SM -RA FEW020 OVC055 11/08 A2945 RMK AO2 PK WND 18048/0329 SLP974 P0002 T01060083=
200911060253 METAR KPAE 060253Z 18023G31KT 10SM -RA BKN050 OVC070 12/08 A2941 RMK AO2 PK WND 18031/0252 SLP959 P0006 60008 T01170078 56026=
200911060153 METAR KPAE 060153Z 17010G18KT 8SM -RA OVC055 12/08 A2943 RMK AO2 SLP965 P0002 T01220083=
200911060053 METAR KPAE 060053Z 18014G22KT 10SM -RA BKN060 BKN080 OVC100 13/09 A2946 RMK AO2 RAB41 SLP976 P0000 T01280089=
200911052353 METAR KPAE 052353Z 16018G23KT 10SM SCT060 BKN075 BKN110 13/10 A2949 RMK AO2 PK WND 18029/2324 RAE39 SLP986 P0001 60031 T01280100 10144 20122 56022=
200911052329 SPECI KPAE 052329Z 17017G29KT 9SM -RA FEW019 SCT030 OVC060 13/10 A2950 RMK AO2 PK WND 18029/2324 P0001=
200911052329 SPECI KPAE 052329Z 17017G29KT 9SM -RA FEW019 SCT030 OVC060 13/10 A2950 RMK AO2 PK WND 18029/2324 P0001=
200911052253 METAR KPAE 052253Z 18021G29KT 5SM RA BR BKN015 BKN024 OVC055 12/11 A2951 RMK AO2 PK WND 16030/2243 RAE13B45 SLP992 P0002 T01220106=
200911052153 METAR KPAE 052153Z 16020G30KT 5SM -RA BR BKN015 BKN043 OVC060 12/11 A2952 RMK AO2 PK WND 16034/2129 SLP995 P0006 T01220106=
200911052102 SPECI KPAE 052102Z 18018G24KT 4SM -RA BR BKN015 BKN035 OVC045 12/11 A2955 RMK AO2 P0001=
200911052102 SPECI KPAE 052102Z 18018G24KT 4SM -RA BR BKN015 BKN035 OVC045 12/11 A2955 RMK AO2 P0001=
200911052053 METAR KPAE 052053Z 17018G26KT 4SM RA BR SCT029 BKN033 OVC048 12/11 A2955 RMK AO2 PK WND 19026/2045 SLP008 P0009 60022 T01220106 58023=
200911051953 METAR KPAE 051953Z 17014G20KT 3SM RA BR BKN039 OVC047 12/10 A2958 RMK AO2 SLP016 P0010 T01220100=
200911051853 METAR KPAE 051853Z 17014G21KT 9SM -RA SCT043 OVC055 13/08 A2961 RMK AO2 SLP026 P0003 T01280083=
200911051753 METAR KPAE 051753Z 18017G23KT 10SM -RA BKN038 BKN047 OVC055 14/07 A2962 RMK AO2 PK WND 18029/1728 RAB47 SLP030 P0000 60000 T01440067 10150 20117 56015=
200911051653 METAR KPAE 051653Z 17015G25KT 10SM BKN040 14/06 A2962 RMK AO2 PK WND 16027/1612 SLP031 T01440061=
200911051553 METAR KPAE 051553Z 16017G24KT 10SM CLR 13/05 A2964 RMK AO2 SLP037 T01330050=
200911051453 METAR KPAE 051453Z 15015G23KT 10SM SCT070 13/04 A2967 RMK AO2 RAB06E19 SLP045 P0000 60000 T01280044 58025=
200911051353 METAR KPAE 051353Z AUTO VRB06G15KT 10SM FEW070 OVC085 12/05 A2971 RMK AO2 SLP061 T01220050=
200911051253 METAR KPAE 051253Z AUTO 16012KT 10SM OVC039 12/06 A2975 RMK AO2 SLP072 T01220056=
200911051153 METAR KPAE 051153Z AUTO 15014G20KT 10SM FEW041 BKN050 12/07 A2974 RMK AO2 SLP072 T01170072 10128 20106 58003=
200911051053 METAR KPAE 051053Z AUTO 15013G17KT 10SM SCT039 BKN050 12/07 A2977 RMK AO2 SLP081 T01170072=
200911050953 METAR KPAE 050953Z AUTO 17011KT 10SM CLR 11/07 A2976 RMK AO2 SLP077 T01110067=
200911050853 METAR KPAE 050853Z AUTO 17013KT 10SM CLR 12/05 A2975 RMK AO2 SLP075 T01170050 53000=
200911050753 METAR KPAE 050753Z AUTO 15008KT 10SM CLR 12/02 A2974 RMK AO2 SLP070 T01170022 401670056=
200911050653 METAR KPAE 050653Z AUTO VRB03KT 10SM CLR 12/04 A2975 RMK AO2 SLP073 T01170039=
200911050553 METAR KPAE 050553Z AUTO 00000KT 10SM CLR 11/04 A2975 RMK AO2 SLP075 T01060044 10156 20100 56011=
200911050453 METAR KPAE 050453Z AUTO 16005KT 10SM CLR 11/04 A2976 RMK AO2 SLP077 T01110039=
200911050353 METAR KPAE 050353Z 16005KT 10SM CLR 13/03 A2976 RMK AO2 SLP078 T01280028=
200911050253 METAR KPAE 050253Z 17004KT 10SM CLR 12/03 A2978 RMK AO2 SLP086 T01220033 55004=
200911050153 METAR KPAE 050153Z VRB03KT 10SM CLR 14/03 A2978 RMK AO2 SLP086 T01440028=
200911050053 METAR KPAE 050053Z 00000KT 10SM CLR 14/03 A2979 RMK AO2 SLP087 T01440033=
200911042353 METAR KPAE 042353Z 15003KT 10SM CLR 15/04 A2980 RMK AO2 SLP090 T01500039 10167 20128 56019=
200911042253 METAR KPAE 042253Z VRB05KT 10SM CLR 16/04 A2981 RMK AO2 SLP094 T01610039=
200911042153 METAR KPAE 042153Z VRB05KT 10SM CLR 16/04 A2983 RMK AO2 SLP101 T01610039=
200911042053 METAR KPAE 042053Z 16009KT 10SM CLR 17/02 A2985 RMK AO2 SLP108 T01670022 58016=
200911041953 METAR KPAE 041953Z 17005KT 10SM CLR 16/03 A2988 RMK AO2 SLP120 T01560033=
200911041853 METAR KPAE 041853Z VRB04KT 10SM CLR 14/02 A2990 RMK AO2 SLP124 T01390017=
200911041753 METAR KPAE 041753Z VRB03KT 10SM CLR 13/01 A2990 RMK AO2 SLP126 T01280006 10128 20083 50002=
200911041653 METAR KPAE 041653Z VRB04KT 10SM CLR 12/M01 A2991 RMK AO2 SLP129 T01221006=
200911041553 METAR KPAE 041553Z 16007G20KT 10SM CLR 12/M01 A2991 RMK AO2 SLP130 T01171006=
200911041453 METAR KPAE 041453Z 12004KT 10SM CLR 11/M01 A2989 RMK AO2 SLP124 T01061006 58006=
200911041353 METAR KPAE 041353Z AUTO 12006KT 10SM CLR 09/00 A2991 RMK AO2 SLP128 T00940000=
200911041253 METAR KPAE 041253Z AUTO 11005KT 10SM CLR 09/01 A2991 RMK AO2 SLP130 T00890006=
200911041153 METAR KPAE 041153Z AUTO 10005KT 10SM CLR 08/01 A2991 RMK AO2 SLP131 60001 70001 T00830011 10094 20056 58011=
200911041053 METAR KPAE 041053Z AUTO 00000KT 10SM CLR 07/01 A2993 RMK AO2 SLP137 T00720011=
200911040953 METAR KPAE 040953Z AUTO 00000KT 10SM CLR 08/01 A2994 RMK AO2 SLP140 T00830006=
200911040853 METAR KPAE 040853Z AUTO 11005KT 10SM CLR 09/01 A2995 RMK AO2 SLP142 P0001 60001 T00890006 56022=
200911040753 METAR KPAE 040753Z AUTO 00000KT 10SM CLR 07/05 A2997 RMK AO2 SLP152 T00670050 401060039=
200911040653 METAR KPAE 040653Z AUTO 03005KT 8SM CLR 07/06 A2998 RMK AO2 SLP156 T00670056=
200911040553 METAR KPAE 040553Z AUTO 00000KT 10SM CLR 06/05 A3001 RMK AO2 SLP165 T00610050 10083 20061 56020=
200911040453 METAR KPAE 040453Z AUTO VRB03KT 10SM CLR 07/06 A3003 RMK AO2 SLP170 T00720056=
200911040353 METAR KPAE 040353Z 01005KT 10SM CLR 07/06 A3004 RMK AO2 SLP176 T00720061=
200911040253 METAR KPAE 040253Z 36003KT 10SM CLR 08/06 A3007 RMK AO2 SLP185 T00780056 58017=
200911040153 METAR KPAE 040153Z 34004KT 10SM CLR 08/05 A3010 RMK AO2 SLP194 T00780050=
200911040053 METAR KPAE 040053Z AUTO 33004KT 10SM CLR 08/04 A3010 RMK AO2 SLP196 T00830044 TSNO=
200911032353 METAR KPAE 032353Z 35005KT 10SM CLR 08/05 A3012 RMK AO2 SLP202 T00830050 10106 20078 58032=
200911032253 METAR KPAE 032253Z 34009G14KT 10SM CLR 09/05 A3016 RMK AO2 SLP215 T00940050=
200911032153 METAR KPAE 032153Z 35006KT 10SM CLR 10/04 A3019 RMK AO2 SLP224 T01000044=
200911032053 METAR KPAE 032053Z 02006KT 10SM CLR 09/05 A3022 RMK AO2 SLP235 T00890050 58031=
200911031953 METAR KPAE 031953Z 00000KT 10SM FEW003 08/05 A3028 RMK AO2 SLP256 T00830050=
200911031853 METAR KPAE 031853Z 02005KT 10SM FEW003 08/05 A3030 RMK AO2 SLP263 T00830050=
200911031753 METAR KPAE 031753Z 02005KT 10SM FEW003 08/06 A3031 RMK AO2 SLP267 T00780056 10078 20039 58010=
200911031721 SPECI KPAE 031721Z 03005KT 8SM FEW003 07/06 A3032 RMK AO2=
200911031721 SPECI KPAE 031721Z 03005KT 8SM FEW003 07/06 A3032 RMK AO2=
200911031653 METAR KPAE 031653Z 04005KT 10SM BKN005 06/05 A3033 RMK AO2 SLP272 T00610050=
200911031645 SPECI KPAE 031645Z 04003KT 2SM BR BKN001 06/05 A3033 RMK AO2=
200911031645 SPECI KPAE 031645Z 04003KT 2SM BR BKN001 06/05 A3033 RMK AO2=
200911031555 SPECI KPAE 031555Z 02004KT 1/4SM FG VV001 06/05 A3034 RMK AO2 RVRNO=
200911031555 SPECI KPAE 031555Z 02004KT 1/4SM FG VV001 06/05 A3034 RMK AO2 RVRNO=
200911031553 METAR KPAE 031553Z 02003KT 5SM BR BKN001 06/05 A3034 RMK AO2 SLP277 T00560050=
200911031548 SPECI KPAE 031548Z 02004KT 5SM BR BKN001 06/05 A3034 RMK AO2=
200911031548 SPECI KPAE 031548Z 02004KT 5SM BR BKN001 06/05 A3034 RMK AO2=
200911031541 SPECI KPAE 031541Z 36003KT 1SM FG VV001 06/05 A3034 RMK AO2 RVRNO=
200911031541 SPECI KPAE 031541Z 36003KT 1SM FG VV001 06/05 A3034 RMK AO2 RVRNO=
200911031505 SPECI KPAE 031505Z AUTO 01004KT 1/4SM FG VV001 06/05 A3033 RMK AO2 RVRNO=
200911031505 SPECI KPAE 031505Z AUTO 01004KT 1/4SM FG VV001 06/05 A3033 RMK AO2 RVRNO=
200911031501 SPECI KPAE 031501Z AUTO VRB03KT 3/4SM BR SCT001 SCT015 06/04 A3033 RMK AO2 RVRNO=
200911031501 SPECI KPAE 031501Z AUTO VRB03KT 3/4SM BR SCT001 SCT015 06/04 A3033 RMK AO2 RVRNO=
200911031459 SPECI KPAE 031459Z AUTO 00000KT 2SM BR FEW001 SCT015 06/04 A3033 RMK AO2=
200911031459 SPECI KPAE 031459Z AUTO 00000KT 2SM BR FEW001 SCT015 06/04 A3033 RMK AO2=
200911031453 METAR KPAE 031453Z AUTO 01003KT 7SM SCT015 05/04 A3033 RMK AO2 SLP275 T00500044 58010=
200911031353 METAR KPAE 031353Z AUTO 00000KT 5SM BR FEW001 OVC017 06/05 A3035 RMK AO2 SLP278 T00560050=
200911031350 SPECI KPAE 031350Z AUTO 00000KT 3SM BR SCT001 OVC017 06/05 A3035 RMK AO2=
200911031350 SPECI KPAE 031350Z AUTO 00000KT 3SM BR SCT001 OVC017 06/05 A3035 RMK AO2=
200911031346 SPECI KPAE 031346Z AUTO 00000KT 1SM BR SCT001 OVC017 06/05 A3035 RMK AO2 RVRNO=
200911031346 SPECI KPAE 031346Z AUTO 00000KT 1SM BR SCT001 OVC017 06/05 A3035 RMK AO2 RVRNO=
200911031253 METAR KPAE 031253Z AUTO 00000KT 1/4SM FG VV001 04/04 A3036 RMK AO2 SLP283 T00440039 RVRNO=
200911031248 SPECI KPAE 031248Z AUTO 00000KT 1SM BR VV001 04/04 A3036 RMK AO2 RVRNO=
200911031248 SPECI KPAE 031248Z AUTO 00000KT 1SM BR VV001 04/04 A3036 RMK AO2 RVRNO=
200911031246 SPECI KPAE 031246Z AUTO 00000KT 2SM BR FEW002 05/04 A3036 RMK AO2=
200911031246 SPECI KPAE 031246Z AUTO 00000KT 2SM BR FEW002 05/04 A3036 RMK AO2=
200911031153 METAR KPAE 031153Z AUTO 00000KT 9SM CLR 05/03 A3036 RMK AO2 SLP284 T00500033 10078 20044 56002=
200911031053 METAR KPAE 031053Z AUTO 00000KT 10SM CLR 06/04 A3036 RMK AO2 SLP284 T00560039=
200911030953 METAR KPAE 030953Z AUTO 00000KT 10SM FEW033 06/04 A3037 RMK AO2 SLP285 T00610044=
200911030853 METAR KPAE 030853Z AUTO 00000KT 10SM CLR 06/04 A3037 RMK AO2 SLP286 T00610044 53010=
200911030753 METAR KPAE 030753Z AUTO 00000KT 10SM CLR 07/05 A3035 RMK AO2 SLP281 T00670050 401280044=
200911030653 METAR KPAE 030653Z AUTO 00000KT 10SM FEW013 07/05 A3035 RMK AO2 SLP279 T00670050=
200911030640 SPECI KPAE 030640Z AUTO 00000KT 10SM BKN013 07/05 A3035 RMK AO2=
200911030640 SPECI KPAE 030640Z AUTO 00000KT 10SM BKN013 07/05 A3035 RMK AO2=
200911030553 METAR KPAE 030553Z AUTO 16004KT 10SM CLR 08/05 A3034 RMK AO2 SLP276 T00780050 10111 20078 51013=
200911030453 METAR KPAE 030453Z AUTO 16007KT 10SM SCT060 08/05 A3032 RMK AO2 SLP272 T00830050=
200911030353 METAR KPAE 030353Z 15004KT 10SM BKN032 OVC048 09/04 A3032 RMK AO2 SLP272 T00890044=
200911030337 SPECI KPAE 030337Z 15005KT 10SM OVC030 09/04 A3032 RMK AO2=
200911030337 SPECI KPAE 030337Z 15005KT 10SM OVC030 09/04 A3032 RMK AO2=
200911030325 SPECI KPAE 030325Z VRB03KT 10SM BKN028 OVC033 09/04 A3031 RMK AO2=
200911030325 SPECI KPAE 030325Z VRB03KT 10SM BKN028 OVC033 09/04 A3031 RMK AO2=
200911030253 METAR KPAE 030253Z 15005KT 10SM SCT032 BKN055 09/04 A3030 RMK AO2 SLP263 T00940039 53010=
200911030153 METAR KPAE 030153Z 15008KT 10SM BKN034 OVC055 11/04 A3029 RMK AO2 SLP260 T01060039=
200911030053 METAR KPAE 030053Z 15006KT 10SM BKN060 11/03 A3027 RMK AO2 SLP254 T01060033=
200911022353 METAR KPAE 022353Z 15005KT 10SM BKN070 BKN080 BKN100 11/03 A3027 RMK AO2 SLP252 T01110033 10128 20083 50010=
200911022253 METAR KPAE 022253Z 27003KT 10SM OVC075 11/04 A3028 RMK AO2 SLP256 T01110044=
200911022153 METAR KPAE 022153Z 20005KT 10SM BKN080 OVC090 12/02 A3027 RMK AO2 SLP251 T01170022=
200911022053 METAR KPAE 022053Z 18008KT 10SM BKN100 12/02 A3024 RMK AO2 SLP242 T01170022 58009=
200911021953 METAR KPAE 021953Z 16011KT 10SM SCT110 11/02 A3025 RMK AO2 SLP247 T01110022=
200911021853 METAR KPAE 021853Z 18008G16KT 10SM SCT120 11/02 A3026 RMK AO2 SLP250 T01110022=
200911021753 METAR KPAE 021753Z 16007KT 10SM BKN095 08/03 A3027 RMK AO2 SLP252 T00830028 10083 20050 58004=
200911021653 METAR KPAE 021653Z 15007KT 10SM BKN090 OVC110 07/02 A3027 RMK AO2 SLP254 T00720022=
200911021553 METAR KPAE 021553Z 00000KT 10SM OVC100 07/02 A3028 RMK AO2 SLP256 T00670022=
200911021453 METAR KPAE 021453Z 00000KT 10SM OVC100 07/02 A3028 RMK AO2 SLP256 T00720017 55004=
200911021353 METAR KPAE 021353Z AUTO 00000KT 10SM OVC110 06/02 A3027 RMK AO2 SLP255 T00610017=
200911021253 METAR KPAE 021253Z AUTO 00000KT 10SM SCT120 06/02 A3029 RMK AO2 SLP261 T00560022=
200911021153 METAR KPAE 021153Z AUTO 11006KT 10SM CLR 06/02 A3029 RMK AO2 SLP259 T00610022 10067 20044 58014=
200911021053 METAR KPAE 021053Z AUTO 01003KT 10SM CLR 05/02 A3031 RMK AO2 SLP268 T00500022=
200911020953 METAR KPAE 020953Z AUTO 00000KT 10SM CLR 06/02 A3032 RMK AO2 SLP268 T00610022=
200911020853 METAR KPAE 020853Z AUTO 11006KT 10SM CLR 06/02 A3033 RMK AO2 SLP273 T00560022 56009=
200911020753 METAR KPAE 020753Z AUTO 11005KT 10SM CLR 06/03 A3034 RMK AO2 SLP275 T00610028 401220050=
200911020653 METAR KPAE 020653Z AUTO 00000KT 10SM CLR 06/03 A3035 RMK AO2 SLP281 T00610028=
200911020553 METAR KPAE 020553Z AUTO 12006KT 10SM CLR 07/03 A3036 RMK AO2 SLP284 T00670033 10106 20067 58015=
200911020453 METAR KPAE 020453Z 10003KT 10SM CLR 07/04 A3038 RMK AO2 SLP290 T00720044=
200911020353 METAR KPAE 020353Z 00000KT 10SM CLR 08/04 A3039 RMK AO2 SLP293 T00780044=
200911020253 METAR KPAE 020253Z 00000KT 10SM CLR 07/03 A3040 RMK AO2 SLP299 T00670033 58007=
200911020153 METAR KPAE 020153Z 00000KT 10SM CLR 07/04 A3041 RMK AO2 SLP302 T00720044=
200911020053 METAR KPAE 020053Z 00000KT 10SM CLR 08/06 A3042 RMK AO2 SLP303 T00830056=
200911012353 METAR KPAE 012353Z 00000KT 10SM CLR 11/06 A3042 RMK AO2 SLP304 T01060056 10122 20078 56006=
200911012253 METAR KPAE 012253Z 26003KT 10SM CLR 11/06 A3043 RMK AO2 SLP307 T01060061=
200911012153 METAR KPAE 012153Z 31003KT 10SM FEW022 SCT028 SCT033 10/07 A3043 RMK AO2 SLP305 T01000067=
200911012053 METAR KPAE 012053Z 00000KT 10SM FEW011 SCT029 11/07 A3044 RMK AO2 SLP311 T01110067 58002=
200911011953 METAR KPAE 011953Z 00000KT 10SM SCT011 10/07 A3046 RMK AO2 SLP316 T01000067=
200911011853 METAR KPAE 011853Z 16003KT 10SM SCT008 09/06 A3046 RMK AO2 SLP316 T00890061=
200911011845 SPECI KPAE 011845Z 15004KT 10SM SCT005 BKN015 09/07 A3046 RMK AO2=
200911011845 SPECI KPAE 011845Z 15004KT 10SM SCT005 BKN015 09/07 A3046 RMK AO2=
200911011753 METAR KPAE 011753Z 16004KT 8SM BKN005 08/06 A3045 RMK AO2 SLP313 T00780061 10078 20050 51014=
200911011653 METAR KPAE 011653Z 16003KT 6SM BR BKN003 OVC009 07/06 A3044 RMK AO2 SLP311 T00670061=
200911011553 METAR KPAE 011553Z 17007KT 4SM BR BKN001 BKN005 OVC050 07/06 A3042 RMK AO2 SLP304 T00670056=
200911011546 SPECI KPAE 011546Z 18005KT 4SM BR BKN001 BKN005 OVC050 07/06 A3042 RMK AO2=
200911011546 SPECI KPAE 011546Z 18005KT 4SM BR BKN001 BKN005 OVC050 07/06 A3042 RMK AO2=
200911011539 SPECI KPAE 011539Z 17005KT 2 1/2SM BR BKN001 BKN005 OVC050 06/06 A3042 RMK AO2=
200911011539 SPECI KPAE 011539Z 17005KT 2 1/2SM BR BKN001 BKN005 OVC050 06/06 A3042 RMK AO2=
200911011453 METAR KPAE 011453Z 20006KT 3SM BR BKN005 OVC055 06/05 A3041 RMK AO2 CIG 001V006 SLP299 T00560050 51014=
200911011434 SPECI KPAE 011434Z AUTO 19005KT 6SM BR BKN003 BKN007 BKN060 06/05 A3040 RMK AO2=
200911011434 SPECI KPAE 011434Z AUTO 19005KT 6SM BR BKN003 BKN007 BKN060 06/05 A3040 RMK AO2=
200911011413 SPECI KPAE 011413Z AUTO 17004KT 8SM FEW003 SCT007 BKN060 06/05 A3039 RMK AO2=
200911011413 SPECI KPAE 011413Z AUTO 17004KT 8SM FEW003 SCT007 BKN060 06/05 A3039 RMK AO2=
200911011353 METAR KPAE 011353Z AUTO 18003KT 10SM FEW075 06/04 A3039 RMK AO2 SLP294 T00560044=
200911011253 METAR KPAE 011253Z AUTO 20005KT 10SM FEW038 BKN060 06/05 A3038 RMK AO2 SLP291 T00610050=
200911011153 METAR KPAE 011153Z AUTO 16003KT 10SM SCT085 06/04 A3036 RMK AO2 SLP285 60001 70039 T00560044 10083 20056 51009=
200911011053 METAR KPAE 011053Z AUTO 21003KT 10SM CLR 06/04 A3036 RMK AO2 SLP283 T00560044=
200911010953 METAR KPAE 010953Z AUTO 20004KT 10SM SCT044 OVC055 07/06 A3035 RMK AO2 SLP279 T00720056=
200911010853 METAR KPAE 010853Z AUTO 18004KT 10SM BKN041 BKN050 BKN065 07/06 A3034 RMK AO2 SLP276 60001 T00670056 53013=
200911010753 METAR KPAE 010753Z AUTO VRB03KT 9SM SCT041 BKN050 07/06 A3032 RMK AO2 SLP271 T00720061 401280072=
200911010653 METAR KPAE 010653Z AUTO 12004KT 10SM OVC045 08/06 A3031 RMK AO2 RAE13 SLP265 P0001 T00780061=
200911010553 METAR KPAE 010553Z AUTO 12003KT 5SM -RA BKN032 OVC043 08/05 A3030 RMK AO2 SLP262 P0007 60017 T00830050 10089 20078 53018=
200911010453 METAR KPAE 010453Z AUTO 00000KT 6SM RA BR BKN034 OVC049 08/06 A3028 RMK AO2 RAB27 SLP255 P0003 T00830061=
200911010353 METAR KPAE 010353Z AUTO 11004KT 10SM FEW039 BKN047 OVC065 08/07 A3025 RMK AO2 RAE36 SLP247 P0001 T00830067=
200911010253 METAR KPAE 010253Z 12005KT 10SM -RA OVC041 08/07 A3024 RMK AO2 SLP243 P0001 60006 T00830067 53016=
200911010153 METAR KPAE 010153Z 12005KT 6SM -RA BR OVC047 09/07 A3023 RMK AO2 RAB06 SLP236 P0002 T00890072=
200911010053 METAR KPAE 010053Z 11004KT 10SM OVC041 09/07 A3021 RMK AO2 RAE52 SLP230 P0003 T00890072=

# No short TAF reports from KPAE in databse.

###################################
#  large TAF from KPAE
###################################
200911302333 TAF KPAE 302333Z 0100/0124 17003KT 5SM -RA BR SCT008 BKN030 OVC040
                       FM010200 34007KT P6SM VCSH SCT010 BKN040
                       FM010700 01003KT 1SM BR OVC003 FM012100
                       35005KT P6SM SCT200=
200911301726 TAF KPAE 301726Z 3018/0118 17009KT P6SM OVC008 FM302100 15006KT
                       P6SM -RA OVC025 FM010200 34007KT P6SM VCSH
                       OVC010 FM010500 01003KT 1SM BR OVC003=
200911301358 KPAE 301358Z 3014/0112 15005KT P6SM BKN005 OVC010 FM301800 17008KT
                       P6SM SCT010 OVC020 FM302100 15006KT P6SM
                       -RA OVC025 FM010000 34007KT P6SM VCSH OVC010
                       FM010500 01003KT 1SM BR OVC003=
200911301120 TAF KPAE 301120Z 3012/0112 15005KT P6SM FEW005 OVC010 FM301800
                       17008KT P6SM SCT010 OVC020 FM302100 15006KT
                       P6SM -RA OVC025 FM010000 34007KT P6SM VCSH
                       OVC010 FM010500 01003KT 1SM BR OVC003=
200911301012 KPAE 301012Z 3010/0106 16007KT P6SM BKN007 OVC022 FM301800 17008KT
                       P6SM SCT010 OVC020 FM302100 15006KT P6SM
                       -RA OVC025 FM010000 34007KT P6SM VCSH OVC010
                       FM010500 01003KT 1SM BR OVC003=
200911300905 KPAE 300905Z 3009/0106 16005KT P6SM OVC022 FM301200 16004KT P6SM
                       BKN010 OVC020 FM301800 19004KT P6SM SCT010
                       OVC020 FM302300 15006KT P6SM -RA OVC025
                       FM010100 34007KT P6SM VCSH OVC010 FM010500
                       01003KT 1SM BR OVC003=
200911300823 KPAE 300823Z 3008/0106 VRB03KT P6SM FEW010 OVC024 FM301000 12004KT
                       5SM BR BKN010 OVC020 FM301800 19004KT P6SM
                       SCT010 OVC020 FM302300 15006KT P6SM -RA
                       OVC025 FM010100 34007KT P6SM VCSH OVC010
                       FM010500 01003KT 1SM BR OVC003=
200911300529 TAF KPAE 300529Z 3006/0106 16005KT P6SM OVC015 FM301000 12004KT
                       3/4SM BR OVC001 FM302000 19004KT P6SM SCT010
                       OVC020 FM302300 15006KT P6SM -RA OVC025
                       FM010100 34007KT P6SM VCSH OVC010 FM010500
                       01003KT 1SM BR OVC003=
200911300313 KPAE 300313Z 3003/3024 15005KT P6SM OVC025 FM300500 15003KT P6SM
                       OVC011 FM301000 12004KT 3/4SM BR OVC001
                       FM301700 19004KT P6SM SCT010 OVC020 FM302200
                       15006KT P6SM -RA OVC025=
200911292332 TAF KPAE 292332Z 3000/3024 17007KT P6SM OVC015 FM300400 15003KT
                       4SM BR BKN004 OVC015 FM300700 12004KT 3/4SM
                       BR OVC001 FM301700 19004KT P6SM SCT010 OVC020
                       FM302200 15006KT P6SM -RA OVC025=
200911291849 TAF KPAE 291849Z 2919/3018 18004KT 1SM BR OVC004
                      TEMPO 2920/2922 4SM BR OVC005 FM292200 19005KT
                       P6SM SCT005 OVC012 FM300400 15003KT 4SM
                       BR BKN004 FM300700 12004KT 3/4SM BR OVC001
                       FM301700 19004KT P6SM SCT010 OVC020=
200911291458 KPAE 291458Z 2915/3012 16010KT P6SM OVC008 FM291900 16006KT P6SM
                       BKN015 BKN045 FM292100 16005KT P6SM SCT020
                       BKN045 FM300400 15003KT 4SM BR BKN004 FM300700
                       12004KT 3/4SM BR OVC001=
200911291122 TAF KPAE 291122Z 2912/3012 16010KT P6SM OVC011 FM291900 16006KT
                       P6SM BKN015 BKN045 FM292100 16005KT P6SM
                       SCT020 BKN045 FM300400 15003KT 4SM BR BKN004
                       FM300700 12004KT 3/4SM BR OVC001=
200911290852 KPAE 290852Z 2909/3006 16010KT P6SM OVC009
                      TEMPO 2912/2916 3SM -DZ BR OVC007 FM292000
                       16006KT P6SM BKN015
                      TEMPO 2921/2924 SCT020 FM300400 15003KT 4SM
                       BR BKN004=
200911290520 TAF KPAE 290520Z 2906/3006 17011KT P6SM OVC011 FM290900 17007KT
                       P6SM SCT007 OVC010
                      TEMPO 2912/2916 3SM -DZ BR OVC007 FM292000
                       16006KT P6SM BKN015
                      TEMPO 2921/2924 SCT020 FM300400 15003KT 4SM
                       BR BKN004=
200911282327 TAF KPAE 282327Z 2900/2924 18014KT P6SM OVC015 FM290600 18006KT
                       P6SM OVC015
                      TEMPO 2912/2916 4SM -DZ BR OVC012 FM291800
                       16006KT P6SM BKN015
                      TEMPO 2921/2924 SCT020=
200911281720 TAF KPAE 281720Z 2818/2918 16015KT P6SM OVC012
                      TEMPO 2820/2824 P6SM -RA FM290200 16012KT
                       P6SM -RA OVC012
                      TEMPO 2902/2906 5SM -RA BR OVC007 FM291000
                       16008KT 2SM -DZ BR OVC005=
200911281413 KPAE 281413Z 2814/2912 16010KT P6SM SCT012 OVC040
                      TEMPO 2814/2818 BKN012 OVC040 FM281800 16010KT
                       P6SM OVC012
                      TEMPO 2820/2824 P6SM -RA FM290200 16012KT
                       P6SM -RA OVC012
                      TEMPO 2902/2906 5SM -RA BR OVC007 FM291000
                       16008KT 2SM -DZ BR OVC005=
200911281140 TAF KPAE 281140Z 2812/2912 16010KT P6SM SCT040 OVC100 FM281600
                       16010KT P6SM SCT013 OVC025
                      TEMPO 2820/2824 P6SM -RA BKN013 OVC025 FM290200
                       16012KT P6SM -RA OVC012
                      TEMPO 2902/2906 5SM -RA BR OVC007 FM291000
                       16008KT 2SM -DZ BR OVC005=
200911280531 TAF KPAE 280531Z 2806/2906 16003KT P6SM OVC100 FM280800 12008KT
                       P6SM BKN040 OVC120 FM281200 16012KT P6SM
                       -RA OVC040
                      TEMPO 2820/2824 5SM -RA BR OVC030=
200911272320 TAF KPAE 272320Z 2800/2824 VRB03KT P6SM SCT030 SCT200 FM280800
                       12008KT P6SM BKN040 OVC120 FM281200 16012KT
                       P6SM -RA OVC040
                      TEMPO 2820/2824 5SM -RA BR OVC030=
200911271813 KPAE 271813Z 2718/2818 36006KT P6SM SCT020
                      TEMPO 2718/2722 BKN015 FM280000 VRB03KT P6SM
                       SCT020 SCT050 BKN200 FM280600 12006KT P6SM
                       BKN050 OVC100 FM281200 14010KT P6SM -RA
                       OVC030=
200911271720 TAF KPAE 271720Z 2718/2818 36006KT P6SM SCT030 FM280000 VRB03KT
                       P6SM SCT050 BKN200 FM280600 12006KT P6SM
                       BKN050 OVC100 FM281200 14010KT P6SM -RA
                       OVC030=
200911271520 KPAE 271520Z 2715/2812 34010KT P6SM SCT030 FM272200 VRB03KT P6SM
                       SCT050 BKN200 FM280400 12006KT P6SM BKN050
                       FM281000 14010KT P6SM -RA OVC030=
200911271425 KPAE 271425Z 2714/2812 34010KT P6SM BKN018 OVC040 FM271700 34010KT
                       P6SM SCT022 SCT050
                      TEMPO 2717/2719 BKN022 BKN050 FM271900 31007KT
                       P6SM SCT050 SCT150 FM272300 VRB03KT P6SM
                       SCT050 SCT100 BKN150 FM280400 11003KT P6SM
                       BKN008 OVC025=
200911271311 KPAE 271311Z 2713/2812 34012KT P6SM BKN022 OVC050 FM271500 34012KT
                       P6SM SCT022 BKN050
                      TEMPO 2715/2719 BKN022 BKN050 FM271900 31007KT
                       P6SM SCT050 SCT150 FM272300 VRB03KT P6SM
                       SCT050 BKN150 FM280400 11003KT P6SM BKN008
                       OVC025=
200911271128 TAF KPAE 271128Z 2712/2812 35010G18KT P6SM OVC018 FM272100 19007KT
                       P6SM BKN030 FM280400 11003KT P6SM BKN008
                       OVC025=
200911270536 TAF KPAE 270536Z 2706/2806 33004KT P6SM OVC004
                      TEMPO 2706/2710 1/2SM FG OVC001 FM271200
                       18005KT P6SM BKN004 OVC025 FM272100 19007KT
                       P6SM BKN030 FM280400 11003KT P6SM BKN004
                       OVC030=
200911270107 KPAE 270107Z 2701/2724 35005KT 4SM BR SCT001 BKN080
                      TEMPO 2701/2704 1/2SM FG OVC001 FM270400
                       VRB03KT 4SM BR SCT001 OVC009
                      TEMPO 2704/2708 1/2SM FG OVC001 FM271200
                       18005KT P6SM BKN012 OVC025 FM272100 19007KT
                       P6SM BKN030=
200911262320 TAF KPAE 262320Z 2700/2724 35005KT P6SM SCT006 OVC030
                      TEMPO 2700/2704 5SM BR BKN006 FM270400 VRB03KT
                       4SM BR OVC009 FM271200 18005KT P6SM BKN012
                       OVC025 FM272100 19007KT P6SM BKN030=
200911261734 TAF KPAE 261734Z 2618/2718 36004KT P6SM -RA SCT003 OVC030
                      TEMPO 2618/2620 2SM -RA BR BKN003 OVC030
                       FM270300 VRB03KT P6SM -SHRA OVC015 FM271000
                       VRB03KT P6SM OVC012 FM271200 16005KT P6SM
                       BKN012 OVC020=
200911261637 KPAE 261637Z 2617/2712 34005KT P6SM -RA SCT003 OVC050
                      TEMPO 2617/2618 3SM RA BR BKN003 BKN025 OVC050
                       FM261900 36004KT P6SM -RA SCT025 OVC040
                       FM270300 35005KT P6SM -SHRA OVC020 FM270800
                       29006KT P6SM BKN015 OVC025=
200911261446 KPAE 261446Z 2615/2712 34007KT P6SM -RA SCT007 SCT025 OVC050
                      TEMPO 2615/2618 5SM RA BR BKN007 BKN025 OVC050
                       FM261900 36004KT P6SM -RA SCT025 OVC040
                       FM270300 35005KT P6SM -SHRA OVC020 FM270800
                       29006KT P6SM BKN015 OVC025=
200911261346 KPAE 261346Z 2614/2712 32010KT 5SM -RA BR SCT007 OVC020
                      TEMPO 2614/2616 3SM RA BR BKN008 OVC015 FM261600
                       36004KT 6SM -RA BR SCT011 OVC025
                      TEMPO 2616/2618 4SM -RA BR BKN011 OVC025
                       FM261900 36004KT P6SM -RA SCT025 OVC040
                       FM270300 35005KT P6SM -SHRA OVC020 FM270800
                       29006KT P6SM BKN015 OVC025=
200911261138 TAF KPAE 261138Z 2612/2712 19008KT 5SM RA BR FEW006 BKN009 OVC024
                       FM261500 36004KT 4SM -RA BR OVC010 FM270300
                       35005KT P6SM -SHRA OVC020 FM270800 29006KT
                       P6SM BKN015 OVC025=
200911260544 TAF KPAE 260544Z 2606/2706 17010KT 4SM -RA BR BKN008 BKN021 OVC028
                       FM261500 36004KT 4SM -RA BR OVC010 FM270300
                       35005KT P6SM -SHRA OVC020=
200911252338 TAF KPAE 252338Z 2600/2624 18009KT P6SM -RA OVC040 FM260400 13006KT
                       4SM -RA BR OVC025 FM260900 11004KT 2SM -RA
                       BR OVC008 FM261500 03004KT 4SM -RA BR OVC010=
200911251738 TAF KPAE 251738Z 2518/2618 14010G16KT P6SM SCT100 OVC140
                      TEMPO 2520/2522 BKN035 FM252200 14010KT P6SM
                       -RA SCT020 OVC030 FM260400 13006KT 4SM -RA
                       BR OVC015 FM261000 11004KT 2SM -RA BR OVC010=
200911251138 TAF KPAE 251138Z 2512/2612 15011G17KT P6SM OVC200
                      TEMPO 2512/2516 1/2SM FG OVC001 FM251700
                       14012KT P6SM SCT020 OVC050 FM252200 14012KT
                       P6SM -RA SCT020 OVC040 FM260400 13006KT
                       4SM -RA BR OVC015=
200911250551 TAF KPAE 250551Z 2506/2606 VRB03KT P6SM BKN200 FM250700 13008KT
                       4SM BR OVC005
                      TEMPO 2513/2517 1/2SM FG OVC001 FM251700
                       14012KT P6SM SCT020 OVC050 FM252200 14012KT
                       P6SM -RA OVC040=
200911250158 KPAE 250158Z 2502/2524 15010KT P6SM SCT002 OVC025
                      TEMPO 2502/2503 1/2SM FG BKN002 FM250400
                       15010KT P6SM BKN025 OVC040 FM251200 14012KT
                       P6SM BKN015 OVC025 FM251700 14012KT P6SM
                       SCT020 OVC050 FM252200 14012KT P6SM -RA
                       OVC040=
200911242347 TAF KPAE 242347Z 2500/2524 16009KT P6SM BKN008 OVC015 FM250200
                       15009KT P6SM BKN015 OVC025 FM250600 15010KT
                       P6SM BKN025 OVC040 FM251200 14012KT P6SM
                       BKN015 OVC025 FM251700 14012KT P6SM SCT020
                       OVC050 FM252200 14012KT P6SM -RA OVC040=
200911241924 KPAE 241924Z 2419/2518 11005KT 3SM BR SCT002 OVC006
                      TEMPO 2419/2423 1SM -RA BR OVC002 FM242300
                       15007KT 6SM BR SCT006 OVC010
                      TEMPO 2423/2502 3SM -RA BR BKN006 OVC010
                       FM250300 15008KT P6SM OVC020 FM251200 15010KT
                       P6SM OVC025 FM251600 15010KT P6SM SCT025
                       OVC080=
200911241744 TAF KPAE 241744Z 2418/2518 15005KT P6SM SCT003 OVC006
                      TEMPO 2418/2422 3SM -RA BR BKN003 OVC006
                       FM242200 15007KT P6SM SCT008 OVC014
                      TEMPO 2422/2502 4SM -RA BR BKN008 OVC014
                       FM250300 15008KT P6SM OVC020 FM251200 15010KT
                       P6SM OVC025 FM251600 15010KT P6SM SCT025
                       OVC080=
200911241131 TAF KPAE 241131Z 2412/2512 14007KT P6SM SCT006 OVC013
                      TEMPO 2412/2416 -RA BKN006 OVC012 FM241600
                       14005KT P6SM SCT008 OVC015
                      TEMPO 2416/2419 5SM -RA BR BKN008 OVC015
                       FM241900 14005KT P6SM BKN025 OVC050 FM250100
                       14007KT P6SM SCT030 OVC060=
200911241032 KPAE 241032Z 2411/2506 16007KT P6SM -RA SCT006 OVC012
                      TEMPO 2411/2414 -RA BKN006 OVC012 FM241400
                       00000KT P6SM SCT008 OVC012 FM241900 VRB03KT
                       P6SM BKN020 OVC050=
200911240531 TAF KPAE 240531Z 2406/2506 16011KT P6SM -RA BKN020 OVC060 FM240800
                       16007KT P6SM SCT012 OVC025
                      TEMPO 2408/2412 -RA OVC012 FM241200 00000KT
                       P6SM OVC012 FM241900 VRB03KT P6SM BKN020
                       OVC050=
200911232340 TAF KPAE 232340Z 2400/2424 15012G20KT P6SM -RA BKN040 OVC060 FM240400
                       16010KT P6SM -RA BKN025 OVC040 FM240800
                       16007KT P6SM -RA SCT010 OVC015 FM241100
                       00000KT P6SM OVC012 FM241800 VRB03KT P6SM
                       BKN020 OVC050=
200911231742 TAF KPAE 231742Z 2318/2418 15010G18KT P6SM SCT030 OVC060 FM232200
                       15012G20KT P6SM -RA BKN040 OVC060 FM240300
                       16010KT P6SM -RA BKN025 OVC040 FM240800
                       16007KT P6SM -RA SCT010 OVC015 FM241700
                       VRB03KT P6SM BKN020 OVC050=
200911231140 TAF KPAE 231140Z 2312/2412 16008KT P6SM SCT020 BKN050 OVC090
                      TEMPO 2312/2314 BKN020 OVC050 FM231600 15011KT
                       P6SM BKN060 OVC080 FM232100 16012KT P6SM
                       -RA BKN050 OVC070 FM240500 14006KT P6SM
                       VCSH BKN018 OVC030=
200911230548 TAF KPAE 230548Z 2306/2406 16008KT P6SM BKN090 FM231000 15009KT
                       P6SM SCT045 BKN060 FM231400 14010KT P6SM
                       BKN070 OVC120 FM232200 16012KT P6SM -RA
                       BKN040 OVC070 FM240400 15007KT P6SM VCSH
                       BKN018 OVC030=
200911222334 TAF KPAE 222334Z 2300/2324 18010KT P6SM SCT050 BKN080 FM230400
                       16008KT P6SM SCT080 BKN200 FM231200 14010KT
                       P6SM BKN080 OVC120 FM232200 16012KT P6SM
                       -RA BKN035 OVC060=
200911221805 KPAE 221805Z 2218/2318 16006KT 5SM -RA BR SCT008 OVC025
                      TEMPO 2218/2221 2SM -RA BR OVC008 FM222100
                       32013G20KT P6SM -SHRA BKN025 OVC040 FM230000
                       36007KT P6SM SCT025 OVC050 FM230600 14006KT
                       P6SM BKN060 BKN200 FM231200 14012KT P6SM
                       BKN060 OVC120=
200911221737 TAF KPAE 221737Z 2218/2318 18012G22KT P6SM SCT020 OVC030
                      TEMPO 2218/2221 -RA OVC020 FM222100 32013G20KT
                       P6SM -SHRA BKN025 OVC040 FM230000 36007KT
                       P6SM SCT025 OVC050 FM230600 14006KT P6SM
                       BKN060 BKN200 FM231200 14012KT P6SM BKN060
                       OVC120=
200911221142 TAF KPAE 221142Z 2212/2312 10008KT P6SM -RA OVC040 FM221500 VRB05KT
                       P6SM -RA SCT025 OVC040 FM221800 22013G23KT
                       P6SM SCT025 OVC050
                      TEMPO 2218/2220 -SHRA FM222000 32013G20KT
                       P6SM -SHRA BKN025 OVC040 FM230000 36007KT
                       P6SM SCT025 OVC050
                      PROB30 2300/2303 -SHRA BKN025 OVC050 FM230600
                       VRB04KT P6SM BKN060 BKN200=
200911220739 KPAE 220739Z 2208/2306 05006KT 4SM -RA BR OVC020 FM221000 01006KT
                       3SM -RA BR OVC012 FM221200 VRB03KT 2SM RA
                       BR OVC012 FM221500 23012KT P6SM -SHRA BKN020
                       OVC040 FM221700 32013G25KT P6SM -SHRA BKN020
                       OVC040 FM222000 36011KT P6SM SCT025 BKN050
                       PROB30 2220/2224 -SHRA FM230000 VRB04KT
                       P6SM SCT025 BKN050
                      PROB30 2300/2306 -SHRA=
200911220605 TAF KPAE 220605Z 2206/2306 12009KT 5SM -RA BR OVC020 FM220900 07006KT
                       3SM -RA BR OVC012 FM221200 VRB03KT 2SM RA
                       BR OVC012 FM221500 23012KT P6SM -SHRA BKN020
                       OVC040 FM221700 32013G25KT P6SM -SHRA BKN020
                       OVC040 FM222000 36011KT P6SM SCT025 BKN050
                       PROB30 2220/2224 -SHRA FM230000 VRB04KT
                       P6SM SCT025 BKN050
                      PROB30 2300/2306 -SHRA=
200911220304 KPAE 220304Z 2203/2224 18022G30KT P6SM -RA OVC025 FM220600 10012KT
                       4SM -RA BR OVC015 WS020/18040KT FM221200
                       22015G25KT 4SM RA BR OVC025 FM221500 30025G40KT
                       P6SM -SHRA BKN025 FM222000 27015KT P6SM
                       VCSH SCT025 BKN035=
200911212335 TAF KPAE 212335Z 2200/2224 15015G25KT P6SM -RA SCT020 OVC040 FM220300
                       11012G20KT 4SM -RA BR OVC020 FM220600 10012KT
                       4SM -RA BR OVC015 WS020/18040KT FM221200
                       22015G25KT 4SM RA BR OVC025 FM221500 30025G40KT
                       P6SM -SHRA BKN025 FM222000 27015KT P6SM
                       VCSH SCT025 BKN035=
200911212029 KPAE 212029Z 2120/2218 17013G19KT P6SM BKN020 OVC100 FM212100 15015G25KT
                       P6SM -RA SCT020 OVC040 FM220300 11012G20KT
                       4SM -RA BR OVC020 FM220600 10012KT 4SM -RA
                       BR OVC015 WS020/18040KT FM221200 22015G25KT
                       4SM RA BR OVC025 FM221500 30025G40KT P6SM
                       -SHRA BKN025=
200911211853 KPAE 211853Z 2119/2218 17013KT P6SM BKN015 OVC050 FM212100 15015G25KT
                       P6SM -RA SCT020 OVC040 FM220300 11012G20KT
                       4SM -RA BR OVC020 FM220600 07005KT 4SM -RA
                       BR OVC015 FM221200 22015G25KT 4SM RA BR
                       OVC025 FM221500 30025G40KT P6SM -SHRA BKN025=
200911211750 TAF KPAE 211750Z 2118/2218 17013KT P6SM SCT015 OVC050 FM212100
                       15015G25KT P6SM -RA SCT020 OVC040 FM220300
                       11012G20KT 4SM -RA BR OVC020 FM220600 07005KT
                       4SM -RA BR OVC015 FM221200 22015G25KT 4SM
                       RA BR OVC025 FM221500 30025G40KT P6SM -SHRA
                       BKN025=
200911211603 KPAE 211603Z 2116/2212 17013KT P6SM SCT015 OVC050
                      TEMPO 2116/2118 BKN015 FM212100 15015G25KT
                       P6SM -RA SCT020 OVC040 FM220300 11012G20KT
                       4SM -RA BR OVC020 FM220600 07005KT 4SM -RA
                       BR OVC015=
200911211152 TAF KPAE 211152Z 2112/2212 19009KT P6SM -SHRA OVC020 FM211600 17013KT
                       P6SM SCT025 OVC050 FM212100 15015G25KT P6SM
                       -RA SCT020 OVC040 FM220300 11012G20KT 4SM
                       -RA BR OVC020 FM220600 07005KT 4SM -RA BR
                       OVC015=
200911210926 KPAE 210926Z 2109/2206 21012KT 6SM -SHRA BR FEW011 OVC020
                      TEMPO 2109/2112 3SM SHRA BR FEW008 OVC011
                       FM211200 17007KT P6SM BKN025 OVC050 FM211600
                       15012KT P6SM SCT025 OVC060 FM212200 15012G20KT
                       P6SM -RA SCT020 OVC040 FM220200 10012KT
                       4SM -RA BR OVC020=
200911210731 KPAE 210731Z 2108/2206 19012KT P6SM -SHRA SCT020 OVC050 FM210900
                       VRB05KT 6SM -SHRA BR FEW011 BKN020 OVC040
                       TEMPO 2109/2112 3SM -SHRA BR BKN011 OVC028
                       FM211200 17007KT P6SM BKN025 OVC050 FM211600
                       15012KT P6SM SCT025 OVC060 FM212200 15012G20KT
                       P6SM -RA SCT020 OVC040 FM220200 10012KT
                       4SM -RA BR OVC020=
200911210546 TAF KPAE 210546Z 2106/2206 22009KT P6SM -SHRA SCT020 OVC050
                      TEMPO 2106/2109 5SM SHRA BKN020 OVC050 FM210900
                       VRB05KT 6SM -SHRA BR FEW011 BKN020 OVC040
                       TEMPO 2109/2112 3SM -SHRA BR BKN011 OVC028
                       FM211200 17007KT P6SM BKN025 OVC050 FM211600
                       15012KT P6SM SCT025 OVC060
                      PROB30 2116/2122 -RA FM212200 15012G20KT
                       P6SM -RA SCT020 OVC040 FM220200 10012KT
                       4SM -RA BR OVC020=
200911210235 KPAE 210235Z 2103/2124 20020G30KT P6SM VCSH SCT022 SCT060
                      TEMPO 2103/2106 BKN022 BKN060 FM210600 24010KT
                       P6SM -SHRA BKN025 BKN050
                      TEMPO 2106/2108 4SM SHRA OVC015 FM211000
                       17009KT P6SM BKN040 OVC080 FM211600 18014G20KT
                       5SM -RA OVC025=
200911210119 KPAE 210119Z 2101/2124 19025G32KT P6SM VCSH BKN023 FM210400 24010KT
                       P6SM -SHRA BKN025 BKN050
                      TEMPO 2104/2108 4SM SHRA OVC015 FM211000
                       17009KT P6SM BKN040 OVC080 FM211600 18014G20KT
                       5SM -RA OVC025=
200911202341 TAF KPAE 202341Z 2100/2124 21012G20KT P6SM VCSH BKN050 BKN100 FM210200
                       24010KT P6SM -SHRA BKN030 BKN050
                      TEMPO 2104/2108 4SM SHRA OVC020 FM211000
                       17009KT P6SM BKN040 OVC080 FM211600 18014G20KT
                       5SM -RA OVC025=
200911201744 TAF KPAE 201744Z 2018/2118 19015G25KT P6SM -SHRA SCT030 BKN050
                       OVC090 FM202100 21012G20KT P6SM VCSH BKN050
                       BKN100 FM210200 24010KT P6SM -SHRA BKN030
                       BKN050
                      TEMPO 2104/2108 4SM SHRA OVC020 FM211000
                       17009KT P6SM BKN040 OVC080 FM211600 18012G20KT
                       P6SM -RA OVC030=
200911201500 KPAE 201500Z 2015/2112 17010KT P6SM -RA SCT007 OVC035
                      TEMPO 2015/2016 20012G22KT 4SM SHRA BKN007
                       OVC040 FM201600 18013G25KT P6SM VCSH FEW028
                       BKN050 OVC090
                      TEMPO 2016/2018 -SHRA FM210000 25008KT P6SM
                       FEW020 OVC040
                      PROB30 2100/2106 -SHRA FM210600 18008KT P6SM
                       BKN040 BKN080
                      PROB30 2106/2112 -SHRA=
200911201217 KPAE 201217Z 2012/2112 20010KT P6SM -SHRA SCT020 OVC040
                      TEMPO 2012/2016 20012G22KT 4SM SHRA BKN020
                       OVC040 FM201600 18013G25KT P6SM VCSH FEW028
                       BKN050 OVC090
                      TEMPO 2016/2018 -SHRA FM210000 25008KT P6SM
                       FEW020 OVC040
                      PROB30 2100/2106 -SHRA FM210600 18008KT P6SM
                       BKN040 BKN080
                      PROB30 2106/2112 -SHRA=
200911201143 TAF KPAE 201143Z 2012/2112 22010KT P6SM -SHRA SCT020 OVC040
                      TEMPO 2012/2016 4SM SHRA BKN020 OVC040 FM201600
                       19013G23KT P6SM VCSH FEW028 BKN050 OVC090
                       TEMPO 2016/2018 -SHRA FM210000 25008KT P6SM
                       FEW020 OVC040
                      PROB30 2100/2106 -SHRA FM210600 18008KT P6SM
                       BKN040 BKN080
                      PROB30 2106/2112 -SHRA=
200911201050 KPAE 201050Z 2011/2106 15015G22KT P6SM -RA OVC040 WS020/18040KT
                       FM201200 18025G35KT 4SM -RA BR SCT011 OVC025
                       WS020/21035KT FM201600 18015G25KT P6SM BKN025
                       OVC050
                      TEMPO 2016/2018 -SHRA FM201800 19012G23KT
                       P6SM SCT025 OVC050 FM210000 20009KT P6SM
                       -SHRA SCT020 OVC040=
200911200548 TAF KPAE 200548Z 2006/2106 16015G25KT P6SM -RA SCT035 OVC060 WS020/18050KT
                       TEMPO 2006/2009 16022G32KT FM200900 16025G35KT
                       6SM -RA BR FEW022 OVC040 WS020/18050KT FM201200
                       18025G35KT 4SM -RA BR SCT011 OVC025 WS020/21035KT
                       FM201600 18015G25KT P6SM BKN025 OVC050
                      TEMPO 2016/2018 -SHRA FM201800 19012G23KT
                       P6SM SCT025 OVC050
                      PROB30 2018/2024 -SHRA FM210000 20009KT P6SM
                       -SHRA SCT020 OVC040=
200911200310 KPAE 200310Z 2003/2024 15010KT P6SM -RA OVC050 WS020/18040KT
                      TEMPO 2003/2006 17015G25KT FM200600 16014G25KT
                       P6SM -RA OVC035 WS020/18040KT FM200900 17010G20KT
                       P6SM -RA OVC025 FM201200 19010KT P6SM -RA
                       OVC020 FM201800 20012KT P6SM -SHRA BKN040
                       FM202200 20012KT P6SM -SHRA BKN030 OVC050=
200911200251 KPAE 200251Z 2003/2024 15010KT P6SM -RA OVC050 WS020/18040KT FM200600
                       16014G25KT P6SM -RA OVC035 WS020/18040KT
                       FM200900 17010G20KT P6SM -RA OVC025 FM201200
                       19010KT P6SM -RA OVC020 FM201800 20012KT
                       P6SM -SHRA BKN040 FM202200 20012KT P6SM
                       -SHRA BKN030 OVC050=
200911192344 TAF KPAE 192344Z 2000/2024 15012KT P6SM -RA OVC030 WS020/18030KT
                       FM200200 16014G25KT P6SM -RA OVC035 WS020/18040KT
                       FM200900 17010G20KT P6SM -RA OVC025 FM201200
                       19010KT P6SM -RA OVC020 FM201800 20012KT
                       P6SM -SHRA BKN040 FM202200 20012KT P6SM
                       -SHRA BKN030 OVC050=
200911191753 TAF KPAE 191753Z 1918/2018 15008KT 5SM -RA BR BKN005 BKN012 OVC020
                       FM192100 14012G20KT P6SM -RA BKN020 OVC040
                       WS020/18040KT FM192300 16017G28KT P6SM -RA
                       BKN025 OVC040 WS020/18045KT FM200900 15012G20KT
                       P6SM -RA OVC020 FM201200 19012KT P6SM -RA
                       OVC015=
200911191712 KPAE 191712Z 1917/2012 15005KT 5SM -RA BR BKN005 BKN012 OVC020
                       FM192100 14012G20KT P6SM -RA BKN040 OVC100
                       FM200000 14017G28KT P6SM -RA BKN040 OVC100
                       WS020/18045KT FM200600 14020G30KT P6SM -RA
                       SCT025 OVC040 WS020/19045KT FM200900 17020G30KT
                       6SM -RA BR OVC025 WS020/19045KT=
200911191359 KPAE 191359Z 1914/2012 17009KT P6SM -RA BKN012 OVC020 FM191800
                       14009KT P6SM BKN040 OVC100 FM200000 14017G28KT
                       P6SM BKN040 OVC100 WS020/18045KT
                      PROB30 2000/2006 -RA FM200600 14020G30KT
                       P6SM -RA SCT025 OVC040 WS020/19045KT FM200900
                       17020G30KT 6SM -RA BR OVC025 WS020/19045KT=
200911191211 TAF KPAE 191211Z 1912/2012 19007KT P6SM -RA BKN025 OVC040 FM191800
                       14009KT P6SM BKN040 OVC100
                      PROB30 1921/1924 -RA FM200000 14017G28KT
                       P6SM BKN040 OVC100 WS020/18045KT
                      PROB30 2000/2006 -RA FM200600 14020G30KT
                       P6SM -RA SCT025 OVC040 WS020/19045KT FM200900
                       17020G30KT 6SM -RA BR OVC025 WS020/19045KT=
200911190955 KPAE 190955Z 1910/2006 18013KT P6SM -RA FEW018 OVC025 WS020/20035KT
                       TEMPO 1910/1912 18015G25KT FM191200 18017G27KT
                       4SM RA BKN018 OVC025 FM191500 15013KT P6SM
                       -RA BKN028 OVC050 FM192100 12012KT P6SM
                       BKN050 OVC100
                      PROB30 1921/2003 -RA=
200911190555 TAF KPAE 190555Z 1906/2006 16018G28KT 6SM -RA BR BKN025 OVC040
                       WS020/18050KT
                      TEMPO 1906/1910 4SM -RA BR FM191000 18025G35KT
                       6SM -RA BR FEW018 OVC025 WS020/18050KT FM191200
                       18017G27KT 4SM RA BKN018 OVC025 WS020/19040KT
                       FM191500 15013KT P6SM -RA BKN028 OVC050
                       FM192100 12012KT P6SM BKN050 OVC100
                      PROB30 1921/2003 -RA=
200911190254 KPAE 190254Z 1903/1924 17022G35KT 6SM -RA BR BKN025 OVC035 WS020/18045KT
                       TEMPO 1903/1906 4SM -RA BR FM190600 17025G40KT
                       3SM -RA BR OVC020 WS020/18045KT
                      TEMPO 1906/1910 OVC015 FM191200 17015G25KT
                       P6SM -RA OVC020 WS020/18040KT FM191700 18012KT
                       P6SM -RA OVC040=
200911190012 KPAE 190012Z 1900/1924 16025G35KT 3SM -RA OVC025 WS020/18040KT
                       FM190300 17025G40KT 3SM -RA BR OVC020 WS020/18045KT
                       FM190600 17025G40KT 3SM -RA BR OVC020 WS020/18045KT
                       TEMPO 1906/1910 OVC015 FM191200 17015G25KT
                       P6SM -RA OVC020 WS020/18040KT FM191700 18012KT
                       P6SM -RA OVC040=
200911190011 KPAE 190011Z 1900/1924 16025G35KT 6SM -RA OVC025 WS020/18040KT
                       FM190300 17025G40KT 5SM -RA BR OVC020 WS020/18045KT
                       FM190600 17025G40KT 5SM -RA BR OVC020 WS020/18045KT
                       TEMPO 1906/1910 3SM RA BR OVC015 FM191200
                       17015G25KT P6SM -RA OVC020 WS020/18040KT
                       FM191700 18012KT P6SM -RA OVC040=
200911182339 TAF KPAE 182339Z 1900/1924 16020G30KT 6SM -RA OVC040 WS020/18040KT
                       FM190300 17025G35KT 5SM -RA BR OVC035 WS020/18045KT
                       FM190600 17025G38KT 5SM -RA BR OVC030 WS020/18045KT
                       TEMPO 1906/1910 3SM RA BR OVC020 FM191200
                       17015G25KT P6SM -RA OVC020 WS020/18040KT
                       FM191700 18012KT P6SM -RA OVC040=
200911181751 TAF KPAE 181751Z 1818/1918 17015G25KT P6SM SCT050 BKN200 FM190000
                       16018G28KT P6SM -RA BKN050 OVC080 WS020/18040KT
                       FM190300 16020G30KT P6SM -RA OVC035 WS020/18045KT
                       FM190600 16022G33KT P6SM -RA OVC030 WS020/18045KT
                       TEMPO 1906/1910 4SM RA BR OVC020 FM191200
                       17015G25KT P6SM -RA OVC025 WS020/18040KT=
200911181140 TAF KPAE 181140Z 1812/1912 17014KT P6SM VCSH SCT010 BKN035 OVC100
                       TEMPO 1812/1816 -SHRA BKN010 OVC025 FM181600
                       16014G22KT P6SM -SHRA BKN040 FM182000 15016G24KT
                       P6SM VCSH OVC040 FM190000 15020G30KT P6SM
                       -RA OVC025 FM190400 18024G36KT P6SM -RA
                       OVC030 FM190600 19022G33KT P6SM -RA OVC030
                       TEMPO 1906/1910 3SM RA BR OVC015=
200911180535 TAF KPAE 180535Z 1806/1906 18015G24KT P6SM SCT015 SCT030 BKN050
                       TEMPO 1806/1808 SHRA BKN015 OVC035 FM180800
                       18008KT P6SM VCSH BKN040
                      TEMPO 1813/1817 BKN025 OVC040 FM182200 17014KT
                       P6SM -RA OVC050 WS020/18040KT FM190300 16022G33KT
                       P6SM -RA OVC030=
200911172352 TAF KPAE 172352Z 1800/1824 19014G24KT P6SM -SHRA SCT020 BKN045
                       TEMPO 1800/1804 5SM SHRA BKN020 OVC045 FM180400
                       19012G22KT P6SM -SHRA SCT020 BKN040 OVC060
                       TEMPO 1804/1808 SHRA BKN020 OVC040 FM180800
                       18008KT P6SM VCSH BKN040
                      TEMPO 1813/1817 BKN025 OVC040 FM182200 17014KT
                       P6SM -RA OVC050 WS020/18040KT=
200911172253 KPAE 172253Z 1723/1818 19012G22KT P6SM -SHRA SCT030 BKN045
                      TEMPO 1723/1802 4SM SHRA BKN015 OVC030 FM180200
                       19010G20KT P6SM SCT025 BKN050
                      TEMPO 1802/1806 -SHRA BKN025 BKN050 FM180600
                       18010KT P6SM -SHRA SCT015 BKN030 BKN050
                       FM180800 18008KT P6SM VCSH BKN030=
200911171744 TAF KPAE 171744Z 1718/1818 18010G20KT P6SM VCSH SCT030 SCT060 FM172000
                       19010G22KT P6SM SCT030 BKN060
                      TEMPO 1720/1724 -SHRA BKN030 BKN060 FM180000
                       19010G20KT P6SM SCT025 BKN050
                      TEMPO 1800/1804 -SHRA BKN025 BKN050 FM180400
                       18010KT P6SM -SHRA SCT015 BKN030 BKN050
                       FM180800 18008KT P6SM VCSH BKN030=
200911171131 TAF KPAE 171131Z 1712/1812 20020G30KT P6SM -RA SCT016 OVC035
                      TEMPO 1712/1716 BKN016 OVC030 FM171600 19018G28KT
                       P6SM -SHRA BKN025 OVC040 FM172100 18012G18KT
                       P6SM -SHRA BKN030 BKN050 FM180600 15011KT
                       P6SM VCSH BKN030=
200911170540 TAF KPAE 170540Z 1706/1806 16022G30KT 6SM -RA BR SCT018 OVC035
                       WS020/18050KT
                      TEMPO 1706/1710 3SM RA BR BKN015 OVC030 FM171500
                       18018G28KT P6SM -RA BKN020 OVC040 FM172200
                       18015G22KT P6SM -SHRA BKN025 OVC045 FM180500
                       15011KT P6SM VCSH BKN030=
200911162355 TAF KPAE 162355Z 1700/1724 18016G27KT P6SM -RA SCT020 OVC040
                      TEMPO 1702/1704 5SM -RA BR BKN020 OVC040
                       FM170400 16024G38KT 5SM -RA BR BKN018 OVC025
                       WS020/18050KT FM171500 18018G28KT P6SM -SHRA
                       BKN020 OVC040=
200911161747 TAF KPAE 161747Z 1618/1718 18010G20KT 5SM -RA BR OVC020 WS020/18040KT
                       FM162000 16012G22KT P6SM -RA BKN015 OVC025
                       WS020/18045KT FM170300 15014G22KT P6SM -RA
                       BKN012 OVC025 WS020/20050KT FM170800 17028G42KT
                       P6SM -RA BKN020 OVC030=
200911161140 TAF KPAE 161140Z 1612/1712 16026G38KT P6SM -RA OVC035 FM161600
                       16024G36KT P6SM -RA BKN025 OVC035 FM162000
                       16020G30KT 5SM -RA BR SCT005 BKN015 OVC025
                       WS020/20045KT
                      TEMPO 1622/1702 2SM RA BR OVC005 FM170300
                       15014G22KT P6SM -RA BKN016 OVC025 WS020/20050KT
                       FM170800 17028G42KT P6SM -RA BKN020 OVC030=
200911160530 TAF KPAE 160530Z 1606/1706 16017G27KT P6SM -RA OVC035 FM160900
                       18020G30KT 5SM -RA BR OVC030 WS020/18045KT
                       FM161800 16012G22KT P6SM BKN040 OVC080 FM170400
                       14015G25KT P6SM -RA OVC030 WS020/18055KT=
200911152345 TAF KPAE 152345Z 1600/1624 17014KT 4SM BR BKN006 OVC012
                      TEMPO 1600/1604 3SM -RA SCT005 OVC012 FM160400
                       14015KT P6SM -RA OVC030 FM161600 17020G30KT
                       P6SM -RA OVC020 FM162000 19020G30KT P6SM
                       -SHRA BKN020 OVC035=
200911152230 KPAE 152230Z 1523/1618 17012KT 5SM BR OVC008
                      TEMPO 1523/1603 3SM -RA SCT005 OVC012 FM160400
                       14014KT P6SM -RA OVC030 FM161600 17022G35KT
                       P6SM -RA OVC020=
200911151804 KPAE 151804Z 1518/1618 16011KT P6SM SCT005 OVC024
                      TEMPO 1518/1521 BKN005 OVC024 FM152100 18015G22KT
                       P6SM -RA BKN022 OVC040 FM160400 14014KT
                       P6SM -RA OVC030 FM161600 17022G35KT P6SM
                       -RA OVC020=
200911151750 KPAE 151750Z 1518/1618 16011KT P6SM BKN005 OVC024 FM152100 18015G22KT
                       P6SM -RA BKN022 OVC040 FM160400 14014KT
                       P6SM -RA OVC030 FM161600 17022G35KT P6SM
                       -RA OVC020=
200911151742 TAF KPAE 151742Z 1518/1618 16011KT P6SM BKN022 OVC040 FM152200
                       18015G22KT P6SM -RA BKN022 OVC040 FM160400
                       14014KT P6SM -RA OVC030 FM161600 17022G35KT
                       P6SM -RA OVC020=
200911151140 TAF KPAE 151140Z 1512/1612 16013G23KT P6SM -RA OVC030 FM151400
                       17016G26KT P6SM -RA OVC022
                      TEMPO 1516/1520 3SM -RA BR OVC010 FM152200
                       18018G28KT P6SM -RA OVC020 FM160600 14016G26KT
                       P6SM -RA OVC030=
200911150520 TAF KPAE 150520Z 1506/1606 14008KT P6SM OVC040 FM150700 16014KT
                       P6SM -RA OVC025 FM151200 17016G25KT P6SM
                       -RA OVC017 FM152200 18018G28KT P6SM OVC020=
200911142327 TAF KPAE 142327Z 1500/1524 16011KT P6SM BKN080 OVC200 FM150300
                       16012KT P6SM -RA OVC045 FM150700 16014KT
                       P6SM -RA OVC025 FM151200 17016G25KT P6SM
                       -RA OVC017 FM152200 18018G28KT P6SM OVC020=
200911141723 TAF KPAE 141723Z 1418/1518 15007KT P6SM OVC200 FM142000 15012KT
                       P6SM BKN070 FM150200 14012KT P6SM -RA OVC045
                       FM150700 14014G22KT P6SM -RA OVC025 FM151200
                       15018G28KT P6SM -RA OVC020=
200911141140 TAF KPAE 141140Z 1412/1512 17004KT P6SM SCT070 FM141600 14010KT
                       P6SM SCT070 BKN200 FM142000 15012KT P6SM
                       BKN070 FM150200 14012KT P6SM -RA OVC045
                       FM150700 14014G22KT P6SM -RA OVC025=
200911140520 TAF KPAE 140520Z 1406/1506 VRB04KT P6SM OVC070 FM141500 15010KT
                       P6SM SCT070 BKN200 FM141900 15014KT P6SM
                       OVC060 FM150300 14011KT P6SM -RA OVC035=
200911140040 KPAE 140040Z 1401/1424 17005KT P6SM -TSRA BKN040CB BKN060 OVC090
                       FM140300 VRB04KT P6SM SCT070 BKN200 FM141500
                       15010KT P6SM SCT070 BKN200 FM141900 15014KT
                       P6SM OVC050 FM142200 15014KT P6SM -RA OVC035=
200911132330 TAF KPAE 132330Z 1400/1424 23004KT P6SM SCT035 FM140100 28005KT
                       P6SM VCSH SCT030 BKN090 FM140600 VRB04KT
                       P6SM SCT070 BKN200 FM141500 15010KT P6SM
                       SCT070 BKN200 FM141900 15014KT P6SM OVC050
                       FM142200 15014KT P6SM -RA OVC035=
200911132002 KPAE 132002Z 1320/1418 00000KT P6SM VCSH SCT030 BKN060 FM132200
                       32008KT P6SM SCT040 BKN070 FM141200 VRB04KT
                       P6SM SCT070 BKN200 FM141600 17012KT P6SM
                       SCT040 OVC080=
200911131720 TAF KPAE 131720Z 1318/1418 21015G20KT 4SM -SHRA OVC011 FM132000
                       32010G18KT P6SM VCSH BKN025 BKN040 FM140000
                       32008KT P6SM SCT040 BKN070 FM141200 VRB04KT
                       P6SM SCT070 BKN200 FM141600 17012KT P6SM
                       SCT040 OVC080=
200911131536 KPAE 131536Z 1316/1412 17012G25KT P6SM -RA SCT007 BKN015 OVC021
                       TEMPO 1316/1317 5SM -RA BR FM131800 18015G25KT
                       P6SM -SHRA BKN035 BKN060 FM132000 32010G18KT
                       P6SM VCSH BKN035 BKN060 FM140200 32008KT
                       P6SM SCT040 BKN070 FM140900 32008KT P6SM
                       SCT070 BKN200=
200911131308 KPAE 131308Z 1313/1412 17017G30KT P6SM OVC035
                      TEMPO 1313/1317 5SM -RA BR OVC025 FM131800
                       17015G25KT P6SM -SHRA BKN035 BKN060 FM132200
                       25012KT P6SM VCSH BKN040 BKN060 FM140400
                       32008KT P6SM SCT040 BKN070 FM140900 32008KT
                       P6SM SCT070 BKN200=
200911131138 TAF KPAE 131138Z 1312/1412 14015G25KT P6SM BKN050 OVC080 FM131400
                       14015G25KT P6SM -RA SCT025 OVC040 FM131800
                       17015G25KT P6SM -SHRA BKN035 BKN060 FM132200
                       25012KT P6SM VCSH BKN040 BKN060 FM140400
                       32008KT P6SM SCT040 BKN070 FM140900 32008KT
                       P6SM SCT070 BKN200=
200911130538 TAF KPAE 130538Z 1306/1406 16010KT P6SM BKN050 OVC080 FM131200
                       14015G25KT P6SM -RA SCT025 OVC040 FM131700
                       17015G25KT P6SM -SHRA BKN030 BKN060 FM132200
                       25012KT P6SM VCSH BKN040 FM140400 18006KT
                       P6SM SCT040 BKN070=
200911130148 KPAE 130148Z 1302/1324 VRB05KT P6SM SCT040
                      TEMPO 1303/1305 BKN040 FM130500 14008KT P6SM
                       BKN040 BKN100 OVC200 FM131200 14015G25KT
                       P6SM -RA SCT025 OVC040 FM131700 17015G25KT
                       P6SM -SHRA BKN030 BKN060 FM132300 20010KT
                       P6SM VCSH BKN040=
200911122339 TAF KPAE 122339Z 1300/1324 16007KT P6SM FEW050 SCT200 FM130500
                       14008KT P6SM SCT050 BKN100 OVC200 FM131200
                       14015G25KT P6SM -RA SCT025 OVC040 FM131700
                       17015G25KT P6SM -SHRA BKN030 BKN060 FM132300
                       20010KT P6SM VCSH BKN040=
200911121734 TAF KPAE 121734Z 1218/1318 17005KT P6SM SKC FM122200 16007KT P6SM
                       SCT200 FM130500 14008KT P6SM SCT050 BKN100
                       OVC200 FM131100 14015G25KT P6SM -RA OVC040
                       FM131500 17015G25KT P6SM -SHRA BKN040 BKN060=
200911121138 TAF KPAE 121138Z 1212/1312 11006KT P6SM BKN040 OVC060 FM121600
                       11006KT P6SM SCT040 BKN060 FM121900 11006KT
                       P6SM SCT060 BKN200 FM130500 14014KT P6SM
                       SCT050 BKN100 OVC200 FM131100 14014G22KT
                       P6SM -RA OVC040=
200911120539 TAF KPAE 120539Z 1206/1306 15006KT P6SM SCT030 BKN045 OVC080 FM121800
                       11006KT P6SM SCT060 BKN200 FM130500 14008KT
                       P6SM SCT050 BKN100 OVC200=
200911112339 TAF KPAE 112339Z 1200/1224 18010KT P6SM SCT030 SCT250 FM120300
                       14009KT P6SM BKN030 BKN200 FM121300 13004KT
                       P6SM BKN030 OVC070 FM121800 16008KT P6SM
                       BKN030 FM122200 17009KT P6SM SCT040 SCT150=
200911112004 KPAE 112004Z 1120/1218 19008KT P6SM BKN020 BKN035 FM120100 15006KT
                       P6SM VCSH BKN030 BKN060 FM121500 11004KT
                       P6SM SCT030 BKN050=
200911111729 TAF KPAE 111729Z 1118/1218 19008KT P6SM SCT010 SCT020
                      TEMPO 1118/1120 BKN010 FM112000 20007KT P6SM
                       SCT025 FM120100 15006KT P6SM VCSH BKN030
                       BKN060 FM121500 11004KT P6SM SCT030 BKN050=
200911111132 TAF KPAE 111132Z 1112/1212 18008KT P6SM SCT022
                      TEMPO 1112/1114 BKN022 FM111400 18008KT P6SM
                       SCT040 BKN070 FM120500 12006KT P6SM BKN035
                       OVC060=
200911110522 TAF KPAE 110522Z 1106/1206 18012KT P6SM -SHRA SCT025 BKN035 OVC050
                       TEMPO 1106/1110 5SM -SHRA BKN025 OVC040
                       FM111200 18008KT P6SM SCT025 BKN040 OVC060
                       FM111800 14006KT P6SM SCT035 BKN060=
200911110135 KPAE 110135Z 1102/1124 17012KT P6SM -SHRA SCT030 OVC040
                      TEMPO 1102/1104 17012G20KT 6SM SHRA OVC030
                       FM110600 16008KT P6SM -SHRA SCT025 OVC040
                       FM111500 18007KT P6SM VCSH SCT030 BKN040
                       FM112200 19006KT P6SM VCSH BKN025=
200911102335 TAF KPAE 102335Z 1100/1124 17010KT P6SM -SHRA SCT030 BKN040 OVC060
                       TEMPO 1100/1104 6SM SHRA BKN030 FM110600
                       16008KT P6SM -SHRA SCT025 OVC040 FM111500
                       18007KT P6SM VCSH SCT030 BKN040 FM112200
                       19006KT P6SM VCSH BKN025=
200911101730 TAF KPAE 101730Z 1018/1118 16013G20KT P6SM -SHRA SCT025 BKN040
                       BKN060
                      TEMPO 1020/1024 SHRA BKN025 FM110000 16012KT
                       P6SM -SHRA SCT025 OVC040 FM110600 15007KT
                       P6SM VCSH SCT025 BKN050=
200911101518 KPAE 101518Z 1015/1112 16012KT P6SM -SHRA SCT025 BKN040 BKN060
                       TEMPO 1015/1017 5SM SHRA BKN025 FM102000
                       16012G18KT P6SM SCT035 BKN050 FM110400 16012G18KT
                       P6SM -SHRA SCT025 OVC040
                      TEMPO 1104/1108 4SM SHRA BKN025 OVC040 FM111000
                       19010KT P6SM SCT025 BKN040=
200911101139 TAF KPAE 101139Z 1012/1112 16012KT P6SM VCSH SCT030 BKN060 FM101400
                       16012KT P6SM -SHRA SCT025 BKN040 BKN060
                       FM102000 16012G18KT P6SM SCT035 BKN050 FM110400
                       16012G18KT P6SM -SHRA SCT025 OVC040
                      TEMPO 1104/1108 4SM SHRA BKN025 OVC040 FM111000
                       19010KT P6SM SCT025 BKN040=
200911100538 TAF KPAE 100538Z 1006/1106 19012KT P6SM -SHRA SCT022 BKN035 OVC050
                       TEMPO 1006/1009 BKN022 OVC035 FM100900 16008KT
                       P6SM VCSH SCT030 BKN060 FM101400 16008KT
                       P6SM -SHRA SCT025 BKN040 BKN060 FM102000
                       16012G18KT P6SM SCT035 BKN050 FM110400 16012G18KT
                       P6SM -SHRA OVC030=
200911092342 TAF KPAE 092342Z 1000/1024 17012G20KT P6SM VCSH SCT030 BKN050 FM100100
                       18010KT P6SM VCSH SCT030 BKN060 FM100500
                       17008KT P6SM -SHRA BKN030 OVC060 FM101200
                       16012KT P6SM VCSH SCT030 BKN060 FM102200
                       15012KT P6SM VCSH BKN030 BKN050=
200911091734 TAF KPAE 091734Z 0918/1018 18015G25KT P6SM -RA BKN035 OVC050 WS020/18050KT
                       TEMPO 0918/0921 18022G30KT 5SM RA BR OVC025
                       FM092100 19012G20KT P6SM VCSH BKN035 BKN050
                       FM100000 18010KT P6SM VCSH SCT030 BKN060
                       FM100600 16012KT P6SM -SHRA BKN030 OVC060
                       FM101100 20012KT P6SM VCSH SCT030 BKN060=
200911091120 TAF KPAE 091120Z 0912/1012 12012KT P6SM SCT030 BKN060 OVC100 FM091500
                       14015G25KT P6SM -RA BKN035 OVC050 WS020/18050KT
                       TEMPO 0916/0920 4SM RA BR OVC025 FM092000
                       20012G20KT P6SM VCSH BKN035 BKN050 FM100000
                       18010KT P6SM VCSH SCT030 BKN060 FM100600
                       16012KT P6SM -SHRA BKN030 OVC060 FM101100
                       20012KT P6SM VCSH SCT030 BKN060=
200911090520 TAF KPAE 090520Z 0906/1006 14010KT P6SM VCSH BKN050 OVC080 FM091500
                       15017G27KT P6SM -RA BKN035 OVC050 WS020/18050KT
                       TEMPO 0916/0920 4SM RA BR OVC025 FM092000
                       20012G22KT P6SM VCSH BKN035 BKN050=
200911082328 TAF KPAE 082328Z 0900/0924 15008G14KT P6SM VCSH BKN021 BKN028 FM090400
                       14012KT P6SM OVC035 FM090900 12012G22KT
                       P6SM SCT030 OVC060 FM091400 14015G25KT P6SM
                       -RA OVC025 FM092100 18015G25KT P6SM -SHRA
                       BKN025 BKN045=
200911081731 TAF KPAE 081731Z 0818/0918 15011KT P6SM VCSH BKN040 BKN100 FM090000
                       14010KT P6SM SCT050 OVC100 FM090900 12012G22KT
                       P6SM SCT030 OVC060 FM091400 14015G25KT 5SM
                       RA BR OVC030=
200911081126 TAF KPAE 081126Z 0812/0912 17012G20KT P6SM VCSH SCT025 BKN050 BKN100
                       FM090000 14010KT P6SM SCT050 OVC100 FM090900
                       12015G25KT P6SM SCT030 OVC060=
200911080520 TAF KPAE 080520Z 0806/0906 16010KT P6SM VCSH BKN015 BKN040 BKN100
                       TEMPO 0810/0814 18012G22KT 5SM -SHRA FM082100
                       14008KT P6SM SCT050 OVC100 FM090500 15015G25KT
                       P6SM SCT040 OVC080=
200911072337 TAF KPAE 072337Z 0800/0824 18016KT P6SM -SHRA VCTS BKN015CB BKN027
                       FM080300 19010KT P6SM VCSH BKN030 FM080700
                       18009KT P6SM BKN030 FM081400 17008KT P6SM
                       VCSH SCT015 BKN030=
200911071737 TAF KPAE 071737Z 0718/0818 19014KT P6SM -SHRA SCT025 BKN045
                      TEMPO 0718/0720 20020G30KT 3SM -TSRA SCT015CB
                       OVC025 FM072200 20016G26KT P6SM -SHRA VCTS
                       SCT015CB OVC025 FM080300 19010KT P6SM VCSH
                       BKN030 FM080700 18009KT P6SM BKN030 FM081400
                       17008KT P6SM VCSH SCT015 BKN030=
200911071138 TAF KPAE 071138Z 0712/0812 18015G25KT P6SM -SHRA SCT020 BKN030
                       FM071800 18018G27KT P6SM -SHRA BKN025 OVC040
                       TEMPO 0720/0724 6SM -TSRA SCT015CB OVC020
                       FM080500 16012KT P6SM VCSH BKN030 FM080900
                       15008KT P6SM BKN030=
200911070538 TAF KPAE 070538Z 0706/0806 18015G25KT 6SM -SHRA SCT020 BKN040
                      TEMPO 0706/0709 5SM SHRA BKN020 FM071000
                       18012G20KT P6SM -SHRA SCT020 BKN030 FM071200
                       19012KT P6SM VCSH BKN030 BKN040 FM071900
                       18015G25KT 6SM -SHRA BKN025 OVC040 FM080000
                       16012KT P6SM VCSH BKN030=
200911070327 KPAE 070327Z 0703/0724 17014KT P6SM -SHRA SCT030 OVC040
                      TEMPO 0703/0706 17014G22KT 5SM SHRA OVC025
                       FM070600 16013KT P6SM -SHRA SCT015 OVC025
                       FM071200 17013KT P6SM VCSH BKN030 BKN040
                       FM072000 17013G23KT P6SM -SHRA SCT030 BKN045=
200911062340 TAF KPAE 062340Z 0700/0724 17009KT P6SM SCT050 BKN080
                      TEMPO 0700/0702 -TSRA BKN020CB OVC040 FM070600
                       16013KT P6SM -SHRA SCT015 OVC025 FM071200
                       17013KT P6SM VCSH BKN030 BKN040 FM072000
                       17013G23KT P6SM -SHRA SCT030 BKN045=
200911061739 TAF KPAE 061739Z 0618/0718 18018G22KT P6SM -SHRA FEW018 BKN035
                       FM062000 17014G22KT P6SM -SHRA BKN030 BKN040
                       TEMPO 0620/0624 -TSRA BKN015CB OVC030 FM070000
                       16013G18KT P6SM -SHRA BKN025 OVC035 FM070600
                       16013KT 6SM -SHRA SCT015 OVC025=
200911061139 TAF KPAE 061139Z 0612/0712 18016G24KT P6SM -SHRA SCT025 OVC040
                       TEMPO 0612/0616 6SM -TSRA BKN020CB FM062000
                       17014G22KT P6SM -SHRA BKN030 BKN040 FM070000
                       16013G18KT P6SM -SHRA BKN025 OVC035 FM070600
                       16013KT 6SM -SHRA SCT015 OVC025=
200911060956 KPAE 060956Z 0610/0706 18016G22KT P6SM -SHRA BKN025 OVC040
                      TEMPO 0610/0612 -TSRA BKN020CB FM061800 17010G15KT
                       P6SM -SHRA BKN025 OVC040
                      TEMPO 0619/0623 6SM SHRA SCT009 BKN015 OVC025=
200911060744 KPAE 060744Z 0608/0706 18020G30KT P6SM -TSRA SCT015CB BKN030 OVC045
                       FM060830 18016G22KT P6SM -SHRA BKN025 OVC040
                       FM061800 17010G15KT P6SM -SHRA BKN025 OVC040
                       TEMPO 0619/0623 6SM SHRA SCT009 BKN015 OVC025=
200911060536 TAF KPAE 060536Z 0606/0706 18020G30KT P6SM -SHRA SCT015 BKN030
                       OVC045 FM060900 18016G22KT P6SM -SHRA BKN025
                       OVC040 FM061800 17010G15KT P6SM -SHRA BKN025
                       OVC040
                      TEMPO 0619/0623 6SM SHRA SCT009 BKN015 OVC025=
200911052347 TAF KPAE 052347Z 0600/0624 17017G27KT P6SM VCSH SCT020 BKN035 FM060100
                       16020G30KT 5SM -RA BR SCT018 OVC030
                      TEMPO 0601/0605 3SM RA BR SCT012 OVC018 FM060600
                       17015G25KT 6SM -SHRA SCT012 BKN020 OVC035=
200911051958 KPAE 051958Z 0520/0618 16017G27KT P6SM -RA OVC040
                      TEMPO 0520/0523 3SM RA BR BKN030 FM060100
                       16020G30KT 4SM -RA BR SCT018 OVC030 FM060600
                       17015G25KT 6SM -SHRA SCT012 BKN020 OVC035=
200911051753 TAF KPAE 051753Z 0518/0618 16017G27KT P6SM -RA OVC040 FM060100
                       16020G30KT 4SM -RA BR SCT018 OVC030 FM060600
                       17015G25KT 6SM -SHRA SCT012 BKN020 OVC035=
200911051134 TAF KPAE 051134Z 0512/0612 16012G22KT P6SM BKN040 OVC080 FM051800
                       16017G27KT P6SM -RA OVC040 FM052100 19020G30KT
                       5SM -RA OVC025 FM060400 21012G22KT P6SM
                       -SHRA BKN025 BKN050=
200911050529 TAF KPAE 050529Z 0506/0606 16006KT P6SM SCT060 BKN200 FM050900
                       14012KT P6SM SCT040 BKN060 OVC200 FM051400
                       16014G25KT P6SM SCT035 OVC050
                      TEMPO 0517/0521 -RA FM052100 17018G26KT P6SM
                       -RA SCT020 BKN035 OVC050 FM060400 18018G26KT
                       P6SM -SHRA BKN030 OVC060=
200911042339 TAF KPAE 042339Z 0500/0524 15007KT P6SM OVC200 FM050600 14010KT
                       P6SM SCT050 OVC200 FM051000 15016G23KT P6SM
                       BKN050 BKN100
                      TEMPO 0513/0517 -RA FM051900 16019G27KT P6SM
                       -RA SCT025 OVC045
                      TEMPO 0521/0524 4SM RA BR SCT015 OVC025=
200911041743 TAF KPAE 041743Z 0418/0518 15007KT P6SM OVC200 FM050400 14010KT
                       P6SM SCT050 OVC200 FM050900 15015G22KT P6SM
                       BKN050 BKN100
                      TEMPO 0514/0518 -RA=
200911041137 TAF KPAE 041137Z 0412/0512 09005KT P6SM BKN250 FM041600 11007KT
                       P6SM BKN250 FM042000 14007KT P6SM BKN250
                       FM050900 14014KT P6SM BKN050 BKN100=
200911040539 TAF KPAE 040539Z 0406/0506 03004KT P6SM BKN250 FM040900 09005KT
                       P6SM BKN250 FM041400 12007KT P6SM BKN250
                       FM041800 14007KT P6SM BKN250 FM050400 14012KT
                       P6SM SCT050 BKN250=
200911032325 TAF KPAE 032325Z 0400/0424 33010KT P6SM BKN200 FM040300 04005KT
                       P6SM BKN200 FM040700 VRB03KT 3SM BR SCT002
                       BKN200 FM040900 VRB03KT 1SM BR BKN002
                      TEMPO 0413/0417 1/2SM FG OVC001 FM041800
                       12007KT 5SM BR SCT005 BKN200 FM042000 13008KT
                       P6SM BKN200=
200911031750 TAF KPAE 031750Z 0318/0418 03007KT P6SM SCT005 BKN200 FM032000
                       33006KT P6SM BKN200 FM040300 04005KT P6SM
                       BKN200 FM040700 VRB03KT 3SM BR SCT002 BKN200
                       FM040900 VRB03KT 1SM BR BKN002
                      TEMPO 0413/0417 1/2SM FG OVC001=
200911031301 KPAE 031301Z 0313/0412 00000KT 1/4SM FG OVC001
                      TEMPO 0317/0318 2SM BR BKN002 BKN200 FM031800
                       36004KT P6SM BKN200 FM040300 04005KT P6SM
                       BKN200=
200911031135 TAF KPAE 031135Z 0312/0412 00000KT P6SM SCT200
                      TEMPO 0314/0316 5SM BR SCT002 SCT200 FM031700
                       36004KT P6SM BKN200 FM040300 04005KT P6SM
                       BKN200=
200911030540 TAF KPAE 030540Z 0306/0406 16005KT P6SM SCT060 BKN200 FM030900
                       VRB03KT P6SM VCFG BKN200
                      TEMPO 0309/0312 2SM BR SCT001 BKN200 FM031200
                       03003KT P6SM SCT002 BKN200
                      TEMPO 0312/0316 1/2SM FG OVC001 FM031600
                       01004KT 1SM BR BKN002 FM031800 35005KT P6SM
                       SCT010 BKN200 FM032000 35005KT P6SM BKN200=
200911022341 TAF KPAE 022341Z 0300/0324 34003KT P6SM SCT045 BKN060
                      TEMPO 0300/0303 -RA SCT035 BKN045 FM030300
                       03005KT P6SM SCT025 BKN040 FM030600 02004KT
                       P6SM SCT045 FM031300 05003KT P6SM SCT004
                       BKN012
                      TEMPO 0314/0318 2SM BR SCT001 BKN004 OVC012
                       FM031800 35005KT P6SM SCT010 BKN200 FM032000
                       35005KT P6SM BKN200=
200911021747 TAF KPAE 021747Z 0218/0318 16006KT P6SM BKN080 OVC120 FM030200
                       VRB03KT P6SM BKN020 OVC040
                      TEMPO 0302/0305 -RA FM030500 03005KT P6SM
                       SCT025 BKN040 FM030800 02004KT P6SM SCT045
                       FM031300 05003KT P6SM SCT004 BKN012
                      TEMPO 0314/0318 2SM BR SCT001 BKN004 OVC012=
200911021143 TAF KPAE 021143Z 0212/0312 VRB03KT P6SM SCT120 BKN250 FM021800
                       15006KT P6SM BKN100 BKN200 FM030300 VRB03KT
                       P6SM BKN020 OVC040
                      PROB30 0303/0306 -RA FM030800 02004KT P6SM
                       OVC020 FM031000 04004KT P6SM SCT006 OVC012
                       TEMPO 0310/0312 3SM BR OVC006=
200911020529 TAF KPAE 020529Z 0206/0306 02004KT P6SM SCT250 FM020800 07004KT
                       P6SM VCFG FEW002 FM021600 15006KT P6SM SCT008
                       SCT200 FM022200 17008KT P6SM BKN100 BKN200
                       FM030300 VRB03KT P6SM BKN020 OVC040
                      PROB30 0303/0306 -RA=
200911012322 TAF KPAE 012322Z 0200/0224 26003KT P6SM SCT250 FM020400 02004KT
                       P6SM SCT250 FM020800 07004KT P6SM VCFG FEW002
                       FM021600 15006KT P6SM SCT008 SCT200 FM022200
                       17008KT P6SM BKN100 BKN200=
200911011732 TAF KPAE 011732Z 0118/0218 16003KT 6SM BR BKN003 OVC009 FM011900
                       VRB03KT P6SM FEW020 SCT050 FM020400 02004KT
                       P6SM SCT250 FM020800 07004KT P6SM VCFG FEW002
                       FM021600 15006KT P6SM SCT008 SCT200=
200911011516 KPAE 011516Z 0115/0212 20006KT 3SM BR BKN005 OVC060 FM011800 15004KT
                       P6SM SCT020 BKN050 FM012000 13004KT P6SM
                       SCT050 FM020400 00000KT P6SM BKN250=
200911011120 TAF KPAE 011120Z 0112/0212 18003KT P6SM SCT012 BKN050 FM011400
                       18003KT P6SM BKN012 BKN050 FM011800 15004KT
                       P6SM SCT020 BKN050 FM012000 13004KT P6SM
                       SCT050 FM020400 00000KT P6SM BKN250=
200911010925 KPAE 010925Z 0109/0206 VRB03KT P6SM BKN035 BKN050 FM011200 11003KT
                       P6SM BKN012 BKN035 OVC050
                      TEMPO 0112/0115 1SM BR BKN003 OVC009 FM011800
                       15004KT P6SM SCT020 OVC040 FM012100 13004KT
                       P6SM SCT045=
200911010531 TAF KPAE 010531Z 0106/0206 VRB03KT P6SM -SHRA BKN035 OVC050 FM010900
                       11003KT P6SM OVC009
                      TEMPO 0112/0115 1SM BR BKN003 OVC009 FM011800
                       15004KT P6SM SCT020 OVC040 FM012100 13004KT
                       P6SM SCT045=