##########################################################
# Query made at 02/18/2025 19:40:24 UTC
# Time interval: from 06/01/2009 00:00  to 06/30/2009 23:59  UTC
##########################################################

##########################################################
# KPAE, Everett, Snohomish County Airport (United States)
# WMO index: -----. WIGOS ID: Unknown
# Latitude 47-55-23N. Longitude 122-16-57W. Altitude 184 m.
##########################################################

###################################
#  METAR/SPECI from KPAE
###################################
200906302353 METAR KPAE 302353Z 36007KT 10SM CLR 21/06 A3012 RMK AO2 SLP200 T02060061 10211 20156 56008=
200906302253 METAR KPAE 302253Z 34008KT 10SM CLR 21/07 A3013 RMK AO2 SLP201 T02060072=
200906302153 METAR KPAE 302153Z 36007KT 10SM CLR 20/08 A3014 RMK AO2 SLP204 T02000083=
200906302053 METAR KPAE 302053Z 36007KT 330V030 10SM CLR 19/08 A3015 RMK AO2 SLP208 T01940078 58001=
200906301953 METAR KPAE 301953Z 36008G14KT 10SM CLR 19/08 A3015 RMK AO2 SLP209 T01890078=
200906301853 METAR KPAE 301853Z 34006KT 10SM CLR 17/09 A3015 RMK AO2 SLP209 T01720089=
200906301753 METAR KPAE 301753Z 34008KT 10SM CLR 16/09 A3015 RMK AO2 SLP210 T01610094 10161 20089 57001=
200906301653 METAR KPAE 301653Z VRB05KT 10SM CLR 15/09 A3015 RMK AO2 SLP210 T01500094=
200906301553 METAR KPAE 301553Z VRB04KT 10SM CLR 14/09 A3015 RMK AO2 SLP210 T01390089=
200906301453 METAR KPAE 301453Z VRB04KT 10SM CLR 13/09 A3015 RMK AO2 SLP210 T01280089 50009=
200906301353 METAR KPAE 301353Z 36003KT 6SM BR CLR 11/09 A3015 RMK AO2 SLP211 T01060089=
200906301335 SPECI KPAE 301335Z AUTO VRB03KT 5SM BR SCT003 10/09 A3015 RMK AO2=
200906301335 SPECI KPAE 301335Z AUTO VRB03KT 5SM BR SCT003 10/09 A3015 RMK AO2=
200906301318 SPECI KPAE 301318Z AUTO 00000KT 5SM BR BKN003 10/09 A3015 RMK AO2=
200906301318 SPECI KPAE 301318Z AUTO 00000KT 5SM BR BKN003 10/09 A3015 RMK AO2=
200906301308 SPECI KPAE 301308Z AUTO 00000KT 5SM BR SCT003 09/08 A3014 RMK AO2=
200906301308 SPECI KPAE 301308Z AUTO 00000KT 5SM BR SCT003 09/08 A3014 RMK AO2=
200906301253 METAR KPAE 301253Z AUTO 00000KT 5SM BR CLR 09/08 A3014 RMK AO2 SLP205 T00940083=
200906301153 METAR KPAE 301153Z AUTO 00000KT 8SM CLR 09/08 A3012 RMK AO2 SLP201 T00940078 10122 20094 53003=
200906301053 METAR KPAE 301053Z AUTO 00000KT 10SM CLR 09/08 A3012 RMK AO2 SLP198 T00940078=
200906300953 METAR KPAE 300953Z AUTO 35003KT 10SM CLR 10/07 A3011 RMK AO2 SLP197 T01000067=
200906300853 METAR KPAE 300853Z AUTO 00000KT 10SM CLR 11/06 A3011 RMK AO2 SLP197 T01110061 51003=
200906300753 METAR KPAE 300753Z AUTO 02004KT 10SM CLR 12/06 A3011 RMK AO2 SLP195 T01170061 402000083=
200906300653 METAR KPAE 300653Z AUTO 02005KT 10SM FEW075 12/06 A3011 RMK AO2 SLP196 T01220061=
200906300553 METAR KPAE 300553Z AUTO 03006KT 10SM CLR 12/07 A3011 RMK AO2 SLP195 T01220067 10200 20122 53004=
200906300453 METAR KPAE 300453Z AUTO 06005KT 10SM CLR 12/07 A3010 RMK AO2 SLP192 T01220072=
200906300353 METAR KPAE 300353Z AUTO 35005KT 10SM CLR 13/07 A3009 RMK AO2 SLP191 T01330072=
200906300253 METAR KPAE 300253Z 36005KT 10SM CLR 16/07 A3009 RMK AO2 SLP191 T01560067 55007=
200906300153 METAR KPAE 300153Z 35007KT 10SM CLR 18/07 A3009 RMK AO2 SLP189 T01830067=
200906300053 METAR KPAE 300053Z VRB06KT 10SM CLR 19/07 A3010 RMK AO2 SLP192 T01940067=
200906292353 METAR KPAE 292353Z 36007KT 330V030 10SM CLR 19/07 A3012 RMK AO2 SLP198 T01940072 10200 20150 58011=
200906292253 METAR KPAE 292253Z 34004KT 10SM CLR 19/07 A3013 RMK AO2 SLP203 T01890072=
200906292153 METAR KPAE 292153Z 28006KT 10SM CLR 19/08 A3014 RMK AO2 SLP207 T01890083=
200906292053 METAR KPAE 292053Z 32005KT 10SM CLR 18/08 A3015 RMK AO2 SLP209 T01780078 56005=
200906291953 METAR KPAE 291953Z VRB04KT 10SM CLR 18/08 A3015 RMK AO2 SLP210 T01780078=
200906291853 METAR KPAE 291853Z 36008KT 10SM CLR 16/08 A3016 RMK AO2 SLP212 T01610078=
200906291753 METAR KPAE 291753Z 02005KT 10SM CLR 16/08 A3016 RMK AO2 SLP214 T01560078 10156 20083 58005=
200906291653 METAR KPAE 291653Z 01006KT 10SM CLR 14/08 A3017 RMK AO2 SLP217 T01440083=
200906291553 METAR KPAE 291553Z VRB03KT 10SM CLR 13/08 A3018 RMK AO2 SLP219 T01280078=
200906291453 METAR KPAE 291453Z 36004KT 10SM CLR 12/08 A3018 RMK AO2 SLP219 T01170078 53003=
200906291353 METAR KPAE 291353Z AUTO 00000KT 10SM CLR 10/07 A3017 RMK AO2 SLP217 T01000072=
200906291253 METAR KPAE 291253Z AUTO 00000KT 10SM CLR 09/07 A3017 RMK AO2 SLP216 T00890067=
200906291153 METAR KPAE 291153Z AUTO 35003KT 10SM CLR 09/06 A3017 RMK AO2 SLP216 T00890056 10106 20089 55001=
200906291053 METAR KPAE 291053Z AUTO 00000KT 10SM CLR 09/06 A3017 RMK AO2 SLP215 T00940056=
200906290953 METAR KPAE 290953Z AUTO 01003KT 10SM CLR 10/06 A3017 RMK AO2 SLP217 T01000056=
200906290853 METAR KPAE 290853Z AUTO 36004KT 10SM CLR 10/06 A3017 RMK AO2 SLP218 T01000056 58006=
200906290753 METAR KPAE 290753Z AUTO 35007G14KT 10SM CLR 10/06 A3018 RMK AO2 SLP219 T01000056 401830100=
200906290653 METAR KPAE 290653Z AUTO 01007KT 10SM CLR 11/06 A3019 RMK AO2 SLP223 T01060061=
200906290553 METAR KPAE 290553Z AUTO 03005KT 10SM CLR 11/07 A3019 RMK AO2 SLP225 T01060072 10178 20106 56002=
200906290453 METAR KPAE 290453Z 02005KT 10SM CLR 12/07 A3020 RMK AO2 SLP226 T01170072=
200906290353 METAR KPAE 290353Z 35005KT 10SM CLR 12/07 A3019 RMK AO2 SLP224 T01220067=
200906290253 METAR KPAE 290253Z 36005KT 10SM CLR 14/06 A3020 RMK AO2 SLP226 T01440061 55005=
200906290153 METAR KPAE 290153Z 01005KT 10SM CLR 16/06 A3020 RMK AO2 SLP225 T01560061=
200906290053 METAR KPAE 290053Z 35006KT 10SM CLR 17/06 A3020 RMK AO2 SLP228 T01670056=
200906282353 METAR KPAE 282353Z 35007KT 10SM CLR 17/06 A3021 RMK AO2 SLP231 T01720061 10183 20128 58014=
200906282253 METAR KPAE 282253Z 36009G15KT 10SM CLR 18/06 A3023 RMK AO2 SLP235 T01780056=
200906282153 METAR KPAE 282153Z 35008KT 10SM CLR 18/06 A3025 RMK AO2 SLP242 T01830061=
200906282053 METAR KPAE 282053Z 34008KT 10SM CLR 17/06 A3025 RMK AO2 SLP244 T01720056 58008=
200906281953 METAR KPAE 281953Z 34009KT 10SM CLR 16/06 A3026 RMK AO2 SLP248 T01610056=
200906281853 METAR KPAE 281853Z 34007KT 10SM OVC040 14/07 A3027 RMK AO2 SLP252 T01440067=
200906281753 METAR KPAE 281753Z 36008G14KT 10SM OVC031 13/07 A3028 RMK AO2 SLP254 T01330067 10133 20106 51009=
200906281653 METAR KPAE 281653Z 01007KT 10SM OVC025 13/07 A3027 RMK AO2 SLP252 T01280067=
200906281641 SPECI KPAE 281641Z VRB06KT 10SM OVC028 13/07 A3027 RMK AO2=
200906281641 SPECI KPAE 281641Z VRB06KT 10SM OVC028 13/07 A3027 RMK AO2=
200906281553 METAR KPAE 281553Z VRB03KT 10SM BKN032 12/07 A3026 RMK AO2 SLP248 T01220072=
200906281453 METAR KPAE 281453Z 01005KT 10SM OVC036 11/08 A3025 RMK AO2 SLP245 T01110078 53008=
200906281432 SPECI KPAE 281432Z 02007KT 10SM FEW024 OVC036 11/08 A3025 RMK AO2=
200906281432 SPECI KPAE 281432Z 02007KT 10SM FEW024 OVC036 11/08 A3025 RMK AO2=
200906281353 METAR KPAE 281353Z AUTO 02005KT 10SM OVC024 12/08 A3024 RMK AO2 SLP240 T01170078=
200906281253 METAR KPAE 281253Z AUTO VRB05KT 10SM OVC026 11/08 A3023 RMK AO2 SLP237 T01110078=
200906281153 METAR KPAE 281153Z AUTO 33006KT 10SM OVC022 11/08 A3023 RMK AO2 SLP235 T01110083 10128 20111 52011=
200906281053 METAR KPAE 281053Z AUTO 34007KT 310V020 10SM FEW001 SCT010 OVC022 12/10 A3022 RMK AO2 SLP232 T01170100=
200906281042 SPECI KPAE 281042Z AUTO 34005KT 10SM SCT001 BKN010 OVC022 12/11 A3021 RMK AO2 CIG 008V011=
200906281042 SPECI KPAE 281042Z AUTO 34005KT 10SM SCT001 BKN010 OVC022 12/11 A3021 RMK AO2 CIG 008V011=
200906281026 SPECI KPAE 281026Z AUTO VRB03KT 10SM OVC001 12/11 A3021 RMK AO2=
200906281026 SPECI KPAE 281026Z AUTO VRB03KT 10SM OVC001 12/11 A3021 RMK AO2=
200906281010 SPECI KPAE 281010Z AUTO 01006KT 10SM OVC003 12/11 A3021 RMK AO2 CIG 001V006=
200906281010 SPECI KPAE 281010Z AUTO 01006KT 10SM OVC003 12/11 A3021 RMK AO2 CIG 001V006=
200906280953 METAR KPAE 280953Z AUTO 36005KT 10SM OVC005 13/11 A3020 RMK AO2 CIG 004V009 SLP227 T01280111=
200906280938 SPECI KPAE 280938Z AUTO VRB04KT 10SM BKN007 BKN014 OVC024 13/11 A3020 RMK AO2=
200906280938 SPECI KPAE 280938Z AUTO VRB04KT 10SM BKN007 BKN014 OVC024 13/11 A3020 RMK AO2=
200906280933 SPECI KPAE 280933Z AUTO 35003KT 10SM SCT007 SCT014 OVC022 13/11 A3020 RMK AO2=
200906280933 SPECI KPAE 280933Z AUTO 35003KT 10SM SCT007 SCT014 OVC022 13/11 A3020 RMK AO2=
200906280853 METAR KPAE 280853Z AUTO 34003KT 10SM BKN022 OVC050 13/11 A3020 RMK AO2 SLP224 T01280111 51005=
200906280753 METAR KPAE 280753Z AUTO 35003KT 10SM FEW022 OVC050 12/11 A3019 RMK AO2 SLP224 T01170106 402280083=
200906280718 SPECI KPAE 280718Z AUTO 00000KT 10SM FEW007 OVC090 12/10 A3019 RMK AO2=
200906280718 SPECI KPAE 280718Z AUTO 00000KT 10SM FEW007 OVC090 12/10 A3019 RMK AO2=
200906280653 METAR KPAE 280653Z AUTO 00000KT 10SM BKN095 12/11 A3019 RMK AO2 SLP223 T01220106=
200906280553 METAR KPAE 280553Z AUTO 32004KT 10SM CLR 12/10 A3018 RMK AO2 SLP220 T01220100 10206 20122 51008=
200906280453 METAR KPAE 280453Z AUTO 34006KT 10SM FEW065 13/09 A3018 RMK AO2 SLP219 T01280094=
200906280353 METAR KPAE 280353Z AUTO 36006KT 10SM CLR 13/10 A3016 RMK AO2 SLP213 T01330100=
200906280253 METAR KPAE 280253Z 35006KT 10SM CLR 15/09 A3016 RMK AO2 SLP212 T01500094 55001=
200906280153 METAR KPAE 280153Z 36005KT 10SM CLR 16/08 A3015 RMK AO2 SLP211 T01560078=
200906280053 METAR KPAE 280053Z 36007KT 10SM CLR 17/08 A3015 RMK AO2 SLP211 T01720078=
200906272353 METAR KPAE 272353Z 36008KT 10SM CLR 20/08 A3016 RMK AO2 SLP214 T02000083 10228 20167 56012=
200906272253 METAR KPAE 272253Z 26007KT 10SM CLR 21/08 A3017 RMK AO2 SLP216 T02110078=
200906272153 METAR KPAE 272153Z 26007KT 10SM CLR 21/07 A3018 RMK AO2 SLP220 T02110072=
200906272053 METAR KPAE 272053Z 26008KT 10SM CLR 20/08 A3020 RMK AO2 SLP225 T02000083 56013=
200906271953 METAR KPAE 271953Z 26005KT 10SM CLR 18/08 A3021 RMK AO2 SLP230 T01830078=
200906271853 METAR KPAE 271853Z 28006KT 10SM CLR 18/08 A3023 RMK AO2 SLP235 T01780083=
200906271753 METAR KPAE 271753Z VRB03KT 10SM CLR 17/08 A3024 RMK AO2 SLP239 T01670078 10167 20083 58008=
200906271653 METAR KPAE 271653Z 00000KT 10SM CLR 15/07 A3025 RMK AO2 SLP245 T01500072=
200906271553 METAR KPAE 271553Z VRB04KT 10SM CLR 12/07 A3026 RMK AO2 SLP247 T01220072=
200906271453 METAR KPAE 271453Z 01004KT 10SM CLR 12/06 A3026 RMK AO2 SLP247 T01170061 53001=
200906271353 METAR KPAE 271353Z 36004KT 10SM CLR 11/06 A3026 RMK AO2 SLP246 T01060061=
200906271253 METAR KPAE 271253Z AUTO 02003KT 10SM CLR 08/06 A3026 RMK AO2 SLP246 T00830061=
200906271153 METAR KPAE 271153Z AUTO 00000KT 10SM CLR 08/06 A3026 RMK AO2 SLP247 T00830061 10106 20083 58003=
200906271053 METAR KPAE 271053Z AUTO 00000KT 10SM CLR 09/07 A3027 RMK AO2 SLP249 T00890067=
200906270953 METAR KPAE 270953Z AUTO 03003KT 10SM CLR 09/07 A3026 RMK AO2 SLP247 T00890067=
200906270853 METAR KPAE 270853Z AUTO 36003KT 10SM CLR 09/06 A3027 RMK AO2 SLP249 T00940061 51002=
200906270753 METAR KPAE 270753Z AUTO 02005KT 10SM CLR 10/07 A3026 RMK AO2 SLP246 T01000067 401890094=
200906270653 METAR KPAE 270653Z AUTO 36004KT 10SM CLR 10/06 A3027 RMK AO2 SLP251 T01000056=
200906270553 METAR KPAE 270553Z AUTO VRB06KT 10SM CLR 11/07 A3026 RMK AO2 SLP248 T01060067 10189 20106 51005=
200906270453 METAR KPAE 270453Z AUTO VRB05KT 10SM CLR 12/07 A3026 RMK AO2 SLP248 T01170072=
200906270353 METAR KPAE 270353Z AUTO 36005KT 10SM CLR 14/08 A3025 RMK AO2 SLP244 T01390078=
200906270253 METAR KPAE 270253Z 35004KT 10SM CLR 17/07 A3025 RMK AO2 SLP243 T01670067 56002=
200906270153 METAR KPAE 270153Z VRB04KT 10SM CLR 18/06 A3025 RMK AO2 SLP243 T01780061=
200906270053 METAR KPAE 270053Z 31006KT 10SM CLR 18/06 A3024 RMK AO2 SLP242 T01780056=
200906262353 METAR KPAE 262353Z VRB05KT 10SM CLR 19/06 A3025 RMK AO2 SLP245 T01890056 10189 20139 58002=
200906262253 METAR KPAE 262253Z VRB06KT 10SM CLR 18/07 A3026 RMK AO2 SLP246 T01830067=
200906262153 METAR KPAE 262153Z 28006KT 10SM CLR 17/07 A3026 RMK AO2 SLP247 T01720072=
200906262053 METAR KPAE 262053Z 33004KT 10SM CLR 17/07 A3026 RMK AO2 SLP247 T01720067 58002=
200906261953 METAR KPAE 261953Z 26008KT 10SM CLR 16/06 A3027 RMK AO2 SLP249 T01610061=
200906261853 METAR KPAE 261853Z VRB05KT 10SM FEW030 15/07 A3026 RMK AO2 SLP248 T01500072=
200906261753 METAR KPAE 261753Z VRB04KT 10SM FEW021 BKN055 14/08 A3026 RMK AO2 SLP248 T01440078 10144 20094 53007=
200906261653 METAR KPAE 261653Z 01004KT 10SM SCT055 13/07 A3025 RMK AO2 SLP246 T01280072=
200906261553 METAR KPAE 261553Z 01004KT 10SM CLR 12/07 A3024 RMK AO2 SLP243 T01220067=
200906261453 METAR KPAE 261453Z VRB04KT 10SM SCT055 11/07 A3024 RMK AO2 SLP243 T01110067 53010=
200906261429 SPECI KPAE 261429Z VRB04KT 10SM SCT027 SCT049 11/06 A3024 RMK AO2=
200906261429 SPECI KPAE 261429Z VRB04KT 10SM SCT027 SCT049 11/06 A3024 RMK AO2=
200906261353 METAR KPAE 261353Z 03004KT 10SM OVC027 11/07 A3023 RMK AO2 SLP238 T01060067=
200906261306 SPECI KPAE 261306Z AUTO 01003KT 10SM BKN027 OVC055 11/07 A3022 RMK AO2=
200906261306 SPECI KPAE 261306Z AUTO 01003KT 10SM BKN027 OVC055 11/07 A3022 RMK AO2=
200906261253 METAR KPAE 261253Z AUTO 02003KT 10SM FEW025 OVC055 10/06 A3022 RMK AO2 SLP235 T01000061=
200906261153 METAR KPAE 261153Z AUTO 00000KT 10SM FEW055 09/06 A3021 RMK AO2 SLP232 T00940056 10111 20094 51005=
200906261053 METAR KPAE 261053Z AUTO 00000KT 10SM FEW060 09/05 A3021 RMK AO2 SLP231 T00940050=
200906260953 METAR KPAE 260953Z AUTO VRB03KT 10SM SCT060 09/06 A3020 RMK AO2 SLP228 T00940056=
200906260853 METAR KPAE 260853Z AUTO 36006KT 10SM FEW040 OVC060 10/06 A3020 RMK AO2 SLP225 T01000061 58000=
200906260753 METAR KPAE 260753Z AUTO 36007KT 10SM SCT040 BKN050 OVC060 11/06 A3020 RMK AO2 SLP225 T01060056 401720106=
200906260653 METAR KPAE 260653Z AUTO 01005KT 10SM OVC033 11/06 A3020 RMK AO2 SLP227 T01060056=
200906260553 METAR KPAE 260553Z AUTO 01007KT 10SM OVC033 11/06 A3020 RMK AO2 SLP226 T01110056 10128 20111 51008=
200906260453 METAR KPAE 260453Z AUTO 01008KT 10SM OVC031 11/06 A3019 RMK AO2 SLP224 T01110061=
200906260353 METAR KPAE 260353Z AUTO 36004KT 10SM OVC031 12/07 A3018 RMK AO2 SLP221 T01170067=
200906260325 SPECI KPAE 260325Z 01007KT 10SM OVC031 12/06 A3018 RMK AO2=
200906260325 SPECI KPAE 260325Z 01007KT 10SM OVC031 12/06 A3018 RMK AO2=
200906260253 METAR KPAE 260253Z 36005KT 10SM OVC029 12/07 A3017 RMK AO2 SLP218 T01170067 53004=
200906260209 SPECI KPAE 260209Z 36004KT 10SM BKN027 OVC035 12/07 A3016 RMK AO2=
200906260209 SPECI KPAE 260209Z 36004KT 10SM BKN027 OVC035 12/07 A3016 RMK AO2=
200906260153 METAR KPAE 260153Z VRB06KT 10SM FEW027 OVC035 12/08 A3016 RMK AO2 SLP214 T01220078=
200906260143 SPECI KPAE 260143Z VRB06KT 10SM SCT027 OVC037 12/08 A3016 RMK AO2=
200906260143 SPECI KPAE 260143Z VRB06KT 10SM SCT027 OVC037 12/08 A3016 RMK AO2=
200906260053 METAR KPAE 260053Z 36006KT 10SM OVC025 12/09 A3016 RMK AO2 SLP215 T01220089=
200906252353 METAR KPAE 252353Z 36007KT 10SM FEW018 BKN026 OVC035 13/10 A3016 RMK AO2 RAB08E31 SLP213 P0000 60000 T01280100 10172 20122 53007=
200906252253 METAR KPAE 252253Z 36006KT 10SM OVC028 15/11 A3015 RMK AO2 SLP210 T01500106=
200906252153 METAR KPAE 252153Z 00000KT 10SM BKN030 OVC043 17/11 A3014 RMK AO2 RAB11E28 SLP206 P0000 T01670106=
200906252133 SPECI KPAE 252133Z 17005KT 10SM FEW030 OVC048 17/10 A3014 RMK AO2 RAB11E28 P0000=
200906252133 SPECI KPAE 252133Z 17005KT 10SM FEW030 OVC048 17/10 A3014 RMK AO2 RAB11E28 P0000=
200906252126 SPECI KPAE 252126Z 16007KT 10SM -RA BKN029 BKN038 OVC044 17/11 A3014 RMK AO2 RAB11 P0000=
200906252126 SPECI KPAE 252126Z 16007KT 10SM -RA BKN029 BKN038 OVC044 17/11 A3014 RMK AO2 RAB11 P0000=
200906252053 METAR KPAE 252053Z 16009KT 10SM FEW030 OVC048 17/09 A3014 RMK AO2 SLP205 T01720094 50005=
200906251953 METAR KPAE 251953Z 17011KT 10SM BKN028 OVC035 17/10 A3013 RMK AO2 SLP203 T01720100=
200906251900 SPECI KPAE 251900Z 17012G25KT 10SM FEW024 BKN034 OVC042 16/10 A3012 RMK AO2=
200906251900 SPECI KPAE 251900Z 17012G25KT 10SM FEW024 BKN034 OVC042 16/10 A3012 RMK AO2=
200906251853 METAR KPAE 251853Z 19013G25KT 10SM BKN024 OVC030 17/10 A3012 RMK AO2 SLP199 T01670100=
200906251753 METAR KPAE 251753Z 17015KT 10SM SCT021 OVC026 16/09 A3010 RMK AO2 SLP193 T01560094 10156 20122 52014=
200906251653 METAR KPAE 251653Z 19015KT 10SM OVC019 14/09 A3009 RMK AO2 SLP189 T01440094=
200906251553 METAR KPAE 251553Z 19015G20KT 10SM OVC015 13/10 A3007 RMK AO2 SLP183 T01330100=
200906251453 METAR KPAE 251453Z 18015G21KT 10SM OVC015 13/09 A3006 RMK AO2 SLP179 T01280094 51015=
200906251450 SPECI KPAE 251450Z 18014G20KT 10SM OVC015 13/09 A3006 RMK AO2=
200906251450 SPECI KPAE 251450Z 18014G20KT 10SM OVC015 13/09 A3006 RMK AO2=
200906251429 SPECI KPAE 251429Z 19011KT 10SM OVC013 13/09 A3005 RMK AO2=
200906251429 SPECI KPAE 251429Z 19011KT 10SM OVC013 13/09 A3005 RMK AO2=
200906251353 METAR KPAE 251353Z 18017KT 10SM OVC015 13/09 A3004 RMK AO2 SLP172 T01280094=
200906251253 METAR KPAE 251253Z AUTO 19020G28KT 10SM BKN015 12/09 A3002 RMK AO2 PK WND 19028/1252 SLP163 T01220089=
200906251250 SPECI KPAE 251250Z AUTO 20021G25KT 10SM BKN015 12/09 A3001 RMK AO2 PK WND 18026/1223=
200906251250 SPECI KPAE 251250Z AUTO 20021G25KT 10SM BKN015 12/09 A3001 RMK AO2 PK WND 18026/1223=
200906251153 METAR KPAE 251153Z AUTO 19015G25KT 10SM FEW015 12/09 A2999 RMK AO2 PK WND 19026/1115 SLP153 70001 T01220089 10139 20122 53010=
200906251053 METAR KPAE 251053Z AUTO 18017G27KT 10SM FEW019 BKN080 13/09 A2998 RMK AO2 PK WND 18027/1049 SLP150 T01330094=
200906251039 SPECI KPAE 251039Z AUTO 18016G22KT 10SM SCT019 OVC080 13/09 A2997 RMK AO2=
200906251039 SPECI KPAE 251039Z AUTO 18016G22KT 10SM SCT019 OVC080 13/09 A2997 RMK AO2=
200906251015 SPECI KPAE 251015Z AUTO 17015G24KT 10SM SCT019 BKN027 13/09 A2997 RMK AO2=
200906251015 SPECI KPAE 251015Z AUTO 17015G24KT 10SM SCT019 BKN027 13/09 A2997 RMK AO2=
200906250953 METAR KPAE 250953Z AUTO 17016G24KT 10SM SCT080 13/09 A2996 RMK AO2 SLP142 T01330094=
200906250914 SPECI KPAE 250914Z AUTO 18012KT 10SM SCT029 BKN080 14/09 A2996 RMK AO2=
200906250914 SPECI KPAE 250914Z AUTO 18012KT 10SM SCT029 BKN080 14/09 A2996 RMK AO2=
200906250900 SPECI KPAE 250900Z AUTO 17013G21KT 10SM BKN029 14/09 A2996 RMK AO2=
200906250900 SPECI KPAE 250900Z AUTO 17013G21KT 10SM BKN029 14/09 A2996 RMK AO2=
200906250853 METAR KPAE 250853Z AUTO 18013KT 10SM SCT029 14/09 A2996 RMK AO2 SLP142 T01390089 50012=
200906250840 SPECI KPAE 250840Z AUTO 17015G20KT 10SM BKN027 14/08 A2996 RMK AO2=
200906250840 SPECI KPAE 250840Z AUTO 17015G20KT 10SM BKN027 14/08 A2996 RMK AO2=
200906250753 METAR KPAE 250753Z AUTO 19016KT 10SM CLR 13/08 A2995 RMK AO2 PK WND 19027/0701 SLP139 T01330083 402110122=
200906250653 METAR KPAE 250653Z AUTO 19018G28KT 10SM CLR 13/09 A2992 RMK AO2 PK WND 20033/0600 SLP130 T01330089=
200906250553 METAR KPAE 250553Z AUTO 19021G28KT 10SM CLR 14/08 A2991 RMK AO2 PK WND 19031/0527 SLP126 T01390083 10189 20139 51017=
200906250453 METAR KPAE 250453Z AUTO 17017G30KT 10SM CLR 15/08 A2989 RMK AO2 PK WND 20030/0445 SLP119 T01500078=
200906250353 METAR KPAE 250353Z AUTO 20016KT 10SM CLR 16/08 A2989 RMK AO2 PK WND 20032/0300 SLP119 T01560083=
200906250253 METAR KPAE 250253Z 20020G33KT 10SM CLR 17/09 A2986 RMK AO2 PK WND 20035/0230 SLP109 T01670094 53008=
200906250153 METAR KPAE 250153Z 19019G27KT 10SM BKN060 BKN085 18/11 A2985 RMK AO2 PK WND 20030/0102 SLP105 T01830106=
200906250053 METAR KPAE 250053Z AUTO 20019G27KT 10SM BKN048 BKN060 OVC095 18/12 A2984 RMK AO2 PK WND 21031/0014 SLP103 T01830117 TSNO=
200906242353 METAR KPAE 242353Z AUTO 21019G27KT 10SM BKN060 OVC070 19/12 A2983 RMK AO2 PK WND 19030/2315 SLP101 60001 T01890117 10211 20172 53007 TSNO=
200906242253 METAR KPAE 242253Z AUTO 19019G30KT 10SM BKN055 BKN085 20/11 A2982 RMK AO2 PK WND 19030/2250 SLP096 T02000106 TSNO=
200906242153 METAR KPAE 242153Z 20014G22KT 10SM FEW045 BKN060 BKN070 19/09 A2982 RMK AO2 SLP097 T01940089=
200906242053 METAR KPAE 242053Z 20016G19KT 10SM BKN080 21/09 A2981 RMK AO2 RAE00 SLP093 P0000 60001 T02110094 50003=
200906241953 METAR KPAE 241953Z 21008KT 10SM -RA FEW080 18/11 A2982 RMK AO2 RAB1854 SLP095 P0001 T01830106=
200906241853 METAR KPAE 241853Z 21014G18KT 10SM FEW070 OVC095 19/09 A2982 RMK AO2 SLP096 T01890094=
200906241753 METAR KPAE 241753Z 19014KT 10SM BKN090 19/09 A2980 RMK AO2 SLP090 60000 T01940094 10200 20144 51001=
200906241653 METAR KPAE 241653Z 17011KT 10SM BKN110 19/09 A2980 RMK AO2 SLP090 T01890094=
200906241553 METAR KPAE 241553Z 17008KT 10SM CLR 17/11 A2980 RMK AO2 SLP090 T01720106=
200906241453 METAR KPAE 241453Z 16009KT 10SM SCT080 BKN100 16/10 A2980 RMK AO2 SLP089 60000 T01610100 56012=
200906241353 METAR KPAE 241353Z 17004KT 10SM OVC075 15/10 A2981 RMK AO2 SLP093 T01500100=
200906241253 METAR KPAE 241253Z AUTO 15006KT 10SM BKN070 OVC090 15/09 A2981 RMK AO2 RAB21E45 SLP094 P0000 T01500094=
200906241153 METAR KPAE 241153Z AUTO 15007KT 10SM OVC075 15/08 A2983 RMK AO2 SLP101 60000 T01500083 10150 20122 58013=
200906241053 METAR KPAE 241053Z AUTO 12003KT 10SM OVC080 14/09 A2984 RMK AO2 SLP104 T01440089=
200906240953 METAR KPAE 240953Z AUTO 00000KT 10SM OVC090 13/09 A2987 RMK AO2 RAE03B34E50 SLP114 P0000 T01280089=
200906240853 METAR KPAE 240853Z AUTO 05003KT 10SM -RA OVC090 12/08 A2987 RMK AO2 RAB24 SLP114 P0000 60000 T01220083 58016=
200906240753 METAR KPAE 240753Z AUTO 00000KT 10SM OVC100 13/08 A2990 RMK AO2 SLP124 T01280078 402060094=
200906240653 METAR KPAE 240653Z AUTO 00000KT 10SM BKN110 14/08 A2991 RMK AO2 SLP126 T01390078=
200906240553 METAR KPAE 240553Z AUTO 00000KT 10SM OVC110 14/08 A2992 RMK AO2 SLP130 T01390078 10200 20133 56006=
200906240453 METAR KPAE 240453Z AUTO 03003KT 10SM OVC110 14/07 A2992 RMK AO2 SLP132 T01390072=
200906240353 METAR KPAE 240353Z AUTO 35004KT 10SM OVC120 14/08 A2993 RMK AO2 SLP136 T01390078=
200906240253 METAR KPAE 240253Z 36005KT 10SM FEW100 15/08 A2994 RMK AO2 SLP137 T01500078 56011=
200906240153 METAR KPAE 240153Z 36005KT 10SM FEW110 17/08 A2995 RMK AO2 SLP140 T01670083=
200906240053 METAR KPAE 240053Z 01004KT 10SM CLR 18/09 A2996 RMK AO2 SLP144 T01830089=
200906232353 METAR KPAE 232353Z VRB03KT 10SM CLR 19/07 A2997 RMK AO2 SLP149 T01940067 10206 20161 56013=
200906232253 METAR KPAE 232253Z 30005KT 10SM CLR 19/08 A2998 RMK AO2 SLP151 T01940083=
200906232153 METAR KPAE 232153Z 32004KT 10SM CLR 19/06 A3000 RMK AO2 SLP156 T01940061=
200906232053 METAR KPAE 232053Z 01004KT 10SM CLR 19/06 A3001 RMK AO2 SLP161 T01890061 58014=
200906231953 METAR KPAE 231953Z VRB04KT 10SM CLR 19/07 A3002 RMK AO2 SLP166 T01890067=
200906231853 METAR KPAE 231853Z VRB05KT 10SM CLR 17/08 A3004 RMK AO2 SLP173 T01670078=
200906231753 METAR KPAE 231753Z VRB04KT 10SM CLR 17/09 A3005 RMK AO2 SLP176 T01670094 10167 20094 56011=
200906231653 METAR KPAE 231653Z 00000KT 10SM CLR 15/09 A3006 RMK AO2 SLP180 T01500094=
200906231553 METAR KPAE 231553Z VRB03KT 10SM SCT004 13/09 A3007 RMK AO2 SLP184 T01280089=
200906231453 METAR KPAE 231453Z 04004KT 10SM SCT004 11/09 A3008 RMK AO2 SLP188 T01110089 58003=
200906231430 SPECI KPAE 231430Z 02004KT 10SM SCT004 11/09 A3009 RMK AO2=
200906231430 SPECI KPAE 231430Z 02004KT 10SM SCT004 11/09 A3009 RMK AO2=
200906231353 METAR KPAE 231353Z 02004KT 9SM OVC004 11/09 A3009 RMK AO2 SLP189 T01060089=
200906231322 SPECI KPAE 231322Z AUTO 03005KT 9SM BKN004 OVC038 10/09 A3009 RMK AO2=
200906231322 SPECI KPAE 231322Z AUTO 03005KT 9SM BKN004 OVC038 10/09 A3009 RMK AO2=
200906231253 METAR KPAE 231253Z AUTO 36003KT 9SM BKN006 OVC035 10/09 A3010 RMK AO2 SLP191 T01000089=
200906231153 METAR KPAE 231153Z AUTO 36004KT 10SM BKN006 09/08 A3009 RMK AO2 SLP192 T00940083 10117 20094 56009=
200906231138 SPECI KPAE 231138Z AUTO 34003KT 10SM BKN006 09/08 A3010 RMK AO2=
200906231138 SPECI KPAE 231138Z AUTO 34003KT 10SM BKN006 09/08 A3010 RMK AO2=
200906231115 SPECI KPAE 231115Z AUTO 36003KT 10SM FEW006 09/08 A3010 RMK AO2=
200906231115 SPECI KPAE 231115Z AUTO 36003KT 10SM FEW006 09/08 A3010 RMK AO2=
200906231053 METAR KPAE 231053Z AUTO 35003KT 10SM CLR 09/08 A3010 RMK AO2 SLP194 T00940083=
200906230953 METAR KPAE 230953Z AUTO 01003KT 10SM BKN050 11/08 A3011 RMK AO2 SLP197 T01060083=
200906230853 METAR KPAE 230853Z AUTO 36007KT 10SM OVC050 11/08 A3012 RMK AO2 SLP200 T01110083 56006=
200906230753 METAR KPAE 230753Z AUTO VRB05KT 10SM OVC055 11/08 A3013 RMK AO2 SLP201 T01110083 401610100=
200906230653 METAR KPAE 230653Z AUTO 36006KT 10SM OVC042 12/08 A3013 RMK AO2 SLP203 T01170083=
200906230553 METAR KPAE 230553Z AUTO 35004KT 10SM BKN040 12/08 A3014 RMK AO2 SLP207 60000 T01170078 10156 20117 53005=
200906230453 METAR KPAE 230453Z AUTO 36005KT 10SM CLR 12/08 A3014 RMK AO2 SLP206 T01170083=
200906230353 METAR KPAE 230353Z AUTO 36005KT 10SM OVC085 12/08 A3013 RMK AO2 SLP203 T01220083=
200906230253 METAR KPAE 230253Z VRB06KT 10SM OVC070 13/08 A3013 RMK AO2 RAE03 SLP203 P0000 60000 T01280083 56004=
200906230216 SPECI KPAE 230216Z 36005KT 10SM FEW028 SCT039 OVC050 13/09 A3013 RMK AO2 RAE03 P0000=
200906230216 SPECI KPAE 230216Z 36005KT 10SM FEW028 SCT039 OVC050 13/09 A3013 RMK AO2 RAE03 P0000=
200906230153 METAR KPAE 230153Z 36005KT 10SM -RA BKN028 BKN038 OVC050 13/09 A3013 RMK AO2 RAB41 SLP203 P0000 T01330094=
200906230053 METAR KPAE 230053Z 07005KT 10SM FEW035 OVC060 15/09 A3013 RMK AO2 SLP202 T01500089=
200906230000 SPECI KPAE 230000Z 07005KT 10SM SCT030 SCT055 OVC065 16/09 A3014 RMK AO2=
200906230000 SPECI KPAE 230000Z 07005KT 10SM SCT030 SCT055 OVC065 16/09 A3014 RMK AO2=
200906222353 METAR KPAE 222353Z 11007KT 10SM BKN028 OVC038 15/09 A3014 RMK AO2 SLP205 T01500089 10161 20128 51003=
200906222253 METAR KPAE 222253Z 10005KT 10SM BKN028 OVC034 15/08 A3014 RMK AO2 SLP205 T01500083=
200906222250 SPECI KPAE 222250Z VRB03KT 10SM BKN028 OVC034 16/09 A3014 RMK AO2=
200906222250 SPECI KPAE 222250Z VRB03KT 10SM BKN028 OVC034 16/09 A3014 RMK AO2=
200906222153 METAR KPAE 222153Z 10007KT 10SM SCT029 BKN033 OVC050 15/08 A3013 RMK AO2 SLP202 T01500083=
200906222053 METAR KPAE 222053Z 11006KT 10SM FEW024 BKN040 OVC047 14/09 A3013 RMK AO2 SLP201 T01440089 51002=
200906221953 METAR KPAE 221953Z 07006KT 10SM OVC032 14/09 A3013 RMK AO2 SLP201 T01390089=
200906221853 METAR KPAE 221853Z 19003KT 10SM BKN021 OVC028 13/08 A3013 RMK AO2 SLP203 T01330083=
200906221834 SPECI KPAE 221834Z 19005KT 10SM BKN019 BKN026 OVC075 13/08 A3012 RMK AO2=
200906221834 SPECI KPAE 221834Z 19005KT 10SM BKN019 BKN026 OVC075 13/08 A3012 RMK AO2=
200906221753 METAR KPAE 221753Z 16007KT 10SM SCT010 BKN035 OVC055 13/09 A3012 RMK AO2 SLP199 T01280089 10128 20100 51012=
200906221717 SPECI KPAE 221717Z 16007KT 10SM SCT010 BKN035 OVC055 12/09 A3012 RMK AO2=
200906221717 SPECI KPAE 221717Z 16007KT 10SM SCT010 BKN035 OVC055 12/09 A3012 RMK AO2=
200906221653 METAR KPAE 221653Z VRB04KT 10SM SCT010 BKN026 OVC050 12/09 A3011 RMK AO2 SLP198 T01170089=
200906221553 METAR KPAE 221553Z 15005KT 10SM FEW010 OVC050 12/09 A3009 RMK AO2 SLP190 T01170094=
200906221453 METAR KPAE 221453Z 16006KT 10SM FEW010 BKN031 OVC038 11/09 A3008 RMK AO2 SLP186 T01110089 53012=
200906221353 METAR KPAE 221353Z 15006KT 10SM OVC030 11/09 A3006 RMK AO2 SLP180 T01060089=
200906221253 METAR KPAE 221253Z AUTO 16006KT 10SM FEW027 OVC055 11/09 A3006 RMK AO2 SLP178 T01060089=
200906221153 METAR KPAE 221153Z AUTO 15005KT 10SM SCT014 OVC055 10/09 A3005 RMK AO2 SLP174 60011 70011 T01000089 10122 20100 52005=
200906221125 SPECI KPAE 221125Z AUTO 15005KT 10SM BKN010 OVC049 10/09 A3004 RMK AO2=
200906221125 SPECI KPAE 221125Z AUTO 15005KT 10SM BKN010 OVC049 10/09 A3004 RMK AO2=
200906221053 METAR KPAE 221053Z AUTO 15006KT 10SM SCT010 OVC047 10/09 A3004 RMK AO2 RAE02 SLP172 P0000 T01000089=
200906220953 METAR KPAE 220953Z AUTO VRB03KT 8SM -RA BKN042 OVC049 11/09 A3004 RMK AO2 SLP171 P0001 T01060089=
200906220853 METAR KPAE 220853Z AUTO 12003KT 9SM -RA BKN050 OVC060 11/09 A3003 RMK AO2 SLP169 P0002 60010 T01060089 51006=
200906220753 METAR KPAE 220753Z AUTO VRB03KT 8SM -RA BKN040 OVC047 11/09 A3003 RMK AO2 SLP169 P0003 T01110089 401720100=
200906220653 METAR KPAE 220653Z AUTO 15006KT 7SM -RA FEW027 SCT035 OVC049 11/09 A3003 RMK AO2 RAB01 SLP169 P0005 T01110089=
200906220553 METAR KPAE 220553Z AUTO 17008KT 10SM FEW046 OVC065 12/08 A3001 RMK AO2 SLP163 T01220078 10172 20122 51013=
200906220526 SPECI KPAE 220526Z AUTO 16008KT 10SM BKN030 OVC050 13/08 A3002 RMK AO2=
200906220526 SPECI KPAE 220526Z AUTO 16008KT 10SM BKN030 OVC050 13/08 A3002 RMK AO2=
200906220519 SPECI KPAE 220519Z AUTO 21005KT 10SM OVC028 13/07 A3002 RMK AO2=
200906220519 SPECI KPAE 220519Z AUTO 21005KT 10SM OVC028 13/07 A3002 RMK AO2=
200906220453 METAR KPAE 220453Z 00000KT 10SM BKN032 OVC060 13/07 A3001 RMK AO2 SLP162 T01280067=
200906220353 METAR KPAE 220353Z 00000KT 10SM SCT060 OVC080 13/07 A2999 RMK AO2 SLP155 T01280067=
200906220253 METAR KPAE 220253Z 33006KT 10SM FEW055 14/07 A2997 RMK AO2 SLP150 T01440067 53004=
200906220153 METAR KPAE 220153Z 30010KT 10SM BKN060 15/07 A2997 RMK AO2 SLP149 T01500067=
200906220053 METAR KPAE 220053Z 35006KT 10SM SCT045 16/07 A2996 RMK AO2 SLP146 T01610067=
200906212353 METAR KPAE 212353Z VRB05KT 10SM CLR 17/07 A2996 RMK AO2 SLP145 T01670067 10172 20128 55003=
200906212253 METAR KPAE 212253Z VRB03KT 10SM BKN090 17/06 A2996 RMK AO2 SLP144 T01670061=
200906212153 METAR KPAE 212153Z 36005KT 10SM BKN060 17/07 A2997 RMK AO2 SLP147 T01670072=
200906212053 METAR KPAE 212053Z 02004KT 10SM SCT060 17/07 A2997 RMK AO2 SLP149 T01720067 56004=
200906211953 METAR KPAE 211953Z 00000KT 10SM FEW033 BKN047 BKN055 16/06 A2997 RMK AO2 SLP150 T01560061=
200906211853 METAR KPAE 211853Z 02003KT 10SM FEW037 BKN100 15/07 A2998 RMK AO2 SLP150 T01500067=
200906211753 METAR KPAE 211753Z 16004KT 10SM BKN020 OVC033 13/08 A2998 RMK AO2 SLP153 60000 T01280083 10128 20106 51007=
200906211653 METAR KPAE 211653Z 19003KT 10SM OVC035 12/08 A2997 RMK AO2 SLP151 T01220078=
200906211618 SPECI KPAE 211618Z 16003KT 10SM OVC030 11/08 A2998 RMK AO2=
200906211618 SPECI KPAE 211618Z 16003KT 10SM OVC030 11/08 A2998 RMK AO2=
200906211553 METAR KPAE 211553Z 00000KT 10SM OVC028 11/08 A2997 RMK AO2 RAE31 SLP151 P0000 T01110078=
200906211453 METAR KPAE 211453Z 00000KT 10SM -RA OVC026 11/07 A2996 RMK AO2 RAB52 SLP146 P0000 60000 T01110072 53006=
200906211400 SPECI KPAE 211400Z VRB04KT 10SM OVC028 11/08 A2995 RMK AO2=
200906211400 SPECI KPAE 211400Z VRB04KT 10SM OVC028 11/08 A2995 RMK AO2=
200906211353 METAR KPAE 211353Z AUTO 00000KT 10SM OVC030 11/08 A2995 RMK AO2 SLP141 T01060078=
200906211253 METAR KPAE 211253Z AUTO 28003KT 10SM FEW048 SCT065 OVC085 11/07 A2995 RMK AO2 SLP141 T01060072=
200906211227 SPECI KPAE 211227Z AUTO 00000KT 10SM SCT022 OVC050 11/06 A2995 RMK AO2=
200906211227 SPECI KPAE 211227Z AUTO 00000KT 10SM SCT022 OVC050 11/06 A2995 RMK AO2=
200906211200 SPECI KPAE 211200Z AUTO 00000KT 10SM BKN022 OVC050 11/06 A2994 RMK AO2=
200906211200 SPECI KPAE 211200Z AUTO 00000KT 10SM BKN022 OVC050 11/06 A2994 RMK AO2=
200906211153 METAR KPAE 211153Z AUTO 00000KT 10SM SCT022 OVC050 11/06 A2994 RMK AO2 SLP139 70001 T01110061 10117 20100 53004=
200906211053 METAR KPAE 211053Z AUTO 35004KT 10SM BKN065 OVC080 11/07 A2993 RMK AO2 SLP136 T01060067=
200906210953 METAR KPAE 210953Z AUTO 02007KT 10SM BKN060 11/07 A2993 RMK AO2 SLP135 T01060067=
200906210853 METAR KPAE 210853Z AUTO 02005KT 10SM CLR 11/07 A2993 RMK AO2 SLP135 T01060067 53001=
200906210753 METAR KPAE 210753Z AUTO VRB03KT 10SM CLR 10/07 A2993 RMK AO2 SLP134 T01000072 401720100=
200906210653 METAR KPAE 210653Z AUTO VRB03KT 10SM FEW060 11/07 A2993 RMK AO2 SLP134 T01110067=
200906210553 METAR KPAE 210553Z AUTO 30007KT 280V350 10SM BKN050 12/06 A2993 RMK AO2 SLP135 T01170061 10161 20117 52003=
200906210453 METAR KPAE 210453Z AUTO 06004KT 10SM CLR 12/06 A2993 RMK AO2 SLP136 T01220056=
200906210353 METAR KPAE 210353Z AUTO 34004KT 10SM CLR 12/06 A2992 RMK AO2 SLP132 T01220056=
200906210253 METAR KPAE 210253Z 34006KT 10SM CLR 13/07 A2992 RMK AO2 SLP133 T01330067 53001=
200906210153 METAR KPAE 210153Z 33004KT 10SM SCT075 14/07 A2992 RMK AO2 SLP130 T01440067=
200906210053 METAR KPAE 210053Z 34007KT 10SM BKN075 16/06 A2992 RMK AO2 SLP130 T01560056=
200906202353 METAR KPAE 202353Z 26006KT 10SM OVC080 16/07 A2992 RMK AO2 SLP131 T01610067 10172 20133 56004=
200906202253 METAR KPAE 202253Z 32006KT 10SM CLR 17/07 A2992 RMK AO2 SLP131 T01670072=
200906202153 METAR KPAE 202153Z VRB04KT 10SM OVC070 16/08 A2993 RMK AO2 SLP133 T01560078=
200906202053 METAR KPAE 202053Z 29006KT 10SM BKN060 15/07 A2993 RMK AO2 SLP135 T01500072 56007=
200906201953 METAR KPAE 201953Z 01005KT 10SM BKN055 15/08 A2994 RMK AO2 SLP137 T01500078=
200906201853 METAR KPAE 201853Z VRB03KT 10SM BKN070 14/08 A2994 RMK AO2 SLP139 T01390083=
200906201753 METAR KPAE 201753Z 00000KT 10SM FEW018 OVC033 13/08 A2995 RMK AO2 SLP144 60001 T01280078 10133 20100 50000=
200906201653 METAR KPAE 201653Z 35003KT 10SM FEW018 OVC033 12/08 A2996 RMK AO2 SLP146 T01220078=
200906201624 SPECI KPAE 201624Z 03004KT 10SM OVC030 12/07 A2996 RMK AO2=
200906201624 SPECI KPAE 201624Z 03004KT 10SM OVC030 12/07 A2996 RMK AO2=
200906201553 METAR KPAE 201553Z 04003KT 10SM FEW021 OVC028 12/08 A2996 RMK AO2 SLP146 T01170078=
200906201453 METAR KPAE 201453Z 01004KT 10SM FEW040 OVC055 11/08 A2995 RMK AO2 RAB06E16 SLP143 P0000 60001 T01110083 56001=
200906201353 METAR KPAE 201353Z 00000KT 8SM FEW018 BKN033 OVC045 11/08 A2995 RMK AO2 SLP143 T01060078=
200906201253 METAR KPAE 201253Z AUTO 08004KT 10SM OVC047 11/08 A2995 RMK AO2 RAB07E39 SLP142 P0001 T01060078=
200906201153 METAR KPAE 201153Z AUTO 10006KT 9SM OVC032 11/09 A2996 RMK AO2 SLP143 60003 70021 T01060089 10111 20106 50000=
200906201053 METAR KPAE 201053Z AUTO 08005KT 10SM OVC030 11/08 A2996 RMK AO2 SLP143 T01060083=
200906201014 SPECI KPAE 201014Z AUTO 09005KT 10SM FEW019 OVC032 11/09 A2996 RMK AO2=
200906201014 SPECI KPAE 201014Z AUTO 09005KT 10SM FEW019 OVC032 11/09 A2996 RMK AO2=
200906200953 METAR KPAE 200953Z AUTO 07006KT 10SM SCT019 OVC028 11/09 A2996 RMK AO2 RAE30 SLP144 P0000 T01060089=
200906200853 METAR KPAE 200853Z AUTO 06004KT 6SM -RA BR BKN015 BKN020 OVC026 11/09 A2995 RMK AO2 RAB24 SLP143 P0001 60003 T01060094 51013=
200906200753 METAR KPAE 200753Z AUTO 03005KT 10SM BKN016 OVC021 11/09 A2994 RMK AO2 RAB0659E39 SLP140 P0002 T01110094 401780106=
200906200653 METAR KPAE 200653Z AUTO 02004KT 10SM FEW011 OVC019 11/09 A2994 RMK AO2 RAE25 SLP137 P0000 T01110089=
200906200612 SPECI KPAE 200612Z AUTO 03007KT 8SM FEW015 BKN019 OVC040 11/09 A2993 RMK AO2 RAE07 P0000=
200906200612 SPECI KPAE 200612Z AUTO 03007KT 8SM FEW015 BKN019 OVC040 11/09 A2993 RMK AO2 RAE07 P0000=
200906200553 METAR KPAE 200553Z AUTO 36005KT 7SM -RA FEW021 OVC040 11/09 A2992 RMK AO2 SLP131 P0002 60011 T01110089 10156 20111 53005=
200906200453 METAR KPAE 200453Z AUTO VRB03KT 6SM -RA BR BKN048 OVC060 11/09 A2991 RMK AO2 SLP130 P0001 T01110089=
200906200353 METAR KPAE 200353Z AUTO 36006KT 6SM -RA BR OVC049 12/11 A2990 RMK AO2 RAE19B43 SLP127 P0000 T01170106=
200906200330 SPECI KPAE 200330Z AUTO 35005KT 7SM SCT005 SCT024 OVC049 12/11 A2991 RMK AO2 RAE19 P0000 TSNO=
200906200330 SPECI KPAE 200330Z AUTO 35005KT 7SM SCT005 SCT024 OVC049 12/11 A2991 RMK AO2 RAE19 P0000 TSNO=
200906200314 SPECI KPAE 200314Z 34004KT 6SM -RA BR BKN005 OVC024 12/12 A2991 RMK AO2 CIG 002V010 P0000=
200906200314 SPECI KPAE 200314Z 34004KT 6SM -RA BR BKN005 OVC024 12/12 A2991 RMK AO2 CIG 002V010 P0000=
200906200253 METAR KPAE 200253Z 34007KT 6SM -RA BR BKN003 OVC009 13/12 A2990 RMK AO2 CIG 001V006 SLP125 P0007 60008 T01280122 53007=
200906200248 SPECI KPAE 200248Z 33008KT 5SM -RA BR BKN003 OVC009 13/12 A2990 RMK AO2 CIG 001V006 P0007=
200906200248 SPECI KPAE 200248Z 33008KT 5SM -RA BR BKN003 OVC009 13/12 A2990 RMK AO2 CIG 001V006 P0007=
200906200242 SPECI KPAE 200242Z 34009KT 2SM -RA BR OVC001 13/13 A2990 RMK AO2 P0007=
200906200242 SPECI KPAE 200242Z 34009KT 2SM -RA BR OVC001 13/13 A2990 RMK AO2 P0007=
200906200221 SPECI KPAE 200221Z 36006KT 2SM RA BR BKN003 OVC031 13/13 A2989 RMK AO2 P0006=
200906200221 SPECI KPAE 200221Z 36006KT 2SM RA BR BKN003 OVC031 13/13 A2989 RMK AO2 P0006=
200906200153 METAR KPAE 200153Z 02008KT 3SM -RA BR FEW004 OVC046 14/13 A2988 RMK AO2 RAB24 SLP118 P0001 T01390128=
200906200151 SPECI KPAE 200151Z 03006KT 5SM -RA BR FEW004 OVC046 14/13 A2988 RMK AO2 RAB24 P0001=
200906200151 SPECI KPAE 200151Z 03006KT 5SM -RA BR FEW004 OVC046 14/13 A2988 RMK AO2 RAB24 P0001=
200906200053 METAR KPAE 200053Z VRB04KT 10SM OVC050 14/12 A2988 RMK AO2 RAB05E44 SLP118 P0000 T01440122=
200906192353 METAR KPAE 192353Z 01005KT 10SM OVC055 16/13 A2988 RMK AO2 SLP117 60000 T01560128 10178 20133 53004=
200906192253 METAR KPAE 192253Z 36003KT 10SM OVC047 17/11 A2987 RMK AO2 SLP114 T01720111=
200906192153 METAR KPAE 192153Z VRB03KT 10SM SCT017 BKN045 OVC060 17/11 A2987 RMK AO2 SLP112 T01720111=
200906192053 METAR KPAE 192053Z 28004KT 10SM OVC017 16/12 A2987 RMK AO2 SLP113 60000 T01610117 53002=
200906192008 SPECI KPAE 192008Z 25004KT 10SM FEW004 BKN014 OVC024 16/12 A2986 RMK AO2=
200906192008 SPECI KPAE 192008Z 25004KT 10SM FEW004 BKN014 OVC024 16/12 A2986 RMK AO2=
200906191953 METAR KPAE 191953Z VRB03KT 10SM BKN014 BKN018 OVC024 15/12 A2986 RMK AO2 RAB07E16 SLP112 P0000 T01500117=
200906191949 SPECI KPAE 191949Z 27005KT 10SM SCT014 BKN018 OVC060 16/12 A2986 RMK AO2 RAB07E16 P0000=
200906191949 SPECI KPAE 191949Z 27005KT 10SM SCT014 BKN018 OVC060 16/12 A2986 RMK AO2 RAB07E16 P0000=
200906191853 METAR KPAE 191853Z 00000KT 9SM BKN007 OVC013 14/12 A2986 RMK AO2 RAB04E43 SLP111 P0000 T01390117=
200906191834 SPECI KPAE 191834Z 00000KT 3SM -RA BR BKN007 OVC013 14/13 A2986 RMK AO2 RAB04 P0000=
200906191834 SPECI KPAE 191834Z 00000KT 3SM -RA BR BKN007 OVC013 14/13 A2986 RMK AO2 RAB04 P0000=
200906191803 SPECI KPAE 191803Z 29003KT 2 1/2SM BR BKN006 OVC017 13/12 A2986 RMK AO2 CIG 004V009=
200906191803 SPECI KPAE 191803Z 29003KT 2 1/2SM BR BKN006 OVC017 13/12 A2986 RMK AO2 CIG 004V009=
200906191753 METAR KPAE 191753Z 28003KT 3SM BR SCT002 OVC006 13/12 A2986 RMK AO2 RAE11 SLP110 P0001 60007 T01330122 10139 20117 51002=
200906191653 METAR KPAE 191653Z 00000KT 7SM -RA SCT002 OVC006 13/12 A2985 RMK AO2 RAB51 SLP109 P0000 T01330117=
200906191636 SPECI KPAE 191636Z 00000KT 3SM BR OVC006 13/12 A2985 RMK AO2 CIG 002V010=
200906191636 SPECI KPAE 191636Z 00000KT 3SM BR OVC006 13/12 A2985 RMK AO2 CIG 002V010=
200906191553 METAR KPAE 191553Z 00000KT 2 1/2SM BR OVC003 12/12 A2985 RMK AO2 RAE1455 CIG 002V005 SLP109 P0000 T01220117=
200906191540 SPECI KPAE 191540Z 00000KT 2SM BR OVC003 12/12 A2985 RMK AO2 RAE1455 P0000=
200906191540 SPECI KPAE 191540Z 00000KT 2SM BR OVC003 12/12 A2985 RMK AO2 RAE1455 P0000=
200906191453 METAR KPAE 191453Z 28003KT 6SM -RA BR OVC003 12/12 A2985 RMK AO2 CIG 002V006 SLP107 P0002 60006 T01220117 53001=
200906191411 SPECI KPAE 191411Z 00000KT 5SM -RA BR FEW002 BKN005 OVC055 12/11 A2984 RMK AO2 P0001=
200906191411 SPECI KPAE 191411Z 00000KT 5SM -RA BR FEW002 BKN005 OVC055 12/11 A2984 RMK AO2 P0001=
200906191401 SPECI KPAE 191401Z 00000KT 2SM -RA BR OVC007 12/11 A2984 RMK AO2 P0001=
200906191401 SPECI KPAE 191401Z 00000KT 2SM -RA BR OVC007 12/11 A2984 RMK AO2 P0001=
200906191353 METAR KPAE 191353Z AUTO 00000KT 1 3/4SM -RA BR BKN004 OVC007 12/11 A2984 RMK AO2 RAB04 SLP104 P0004 T01170111=
200906191322 SPECI KPAE 191322Z AUTO 00000KT 1 3/4SM -RA BR OVC005 12/11 A2984 RMK AO2 RAB04 CIG 002V009 P0001=
200906191322 SPECI KPAE 191322Z AUTO 00000KT 1 3/4SM -RA BR OVC005 12/11 A2984 RMK AO2 RAB04 CIG 002V009 P0001=
200906191314 SPECI KPAE 191314Z AUTO 00000KT 4SM -RA BR BKN005 OVC011 12/11 A2985 RMK AO2 RAB04 CIG 003V009 P0000=
200906191314 SPECI KPAE 191314Z AUTO 00000KT 4SM -RA BR BKN005 OVC011 12/11 A2985 RMK AO2 RAB04 CIG 003V009 P0000=
200906191304 SPECI KPAE 191304Z AUTO 00000KT 6SM -RA BR SCT007 OVC011 12/11 A2984 RMK AO2 RAB04 P0000=
200906191304 SPECI KPAE 191304Z AUTO 00000KT 6SM -RA BR SCT007 OVC011 12/11 A2984 RMK AO2 RAB04 P0000=
200906191253 METAR KPAE 191253Z AUTO 00000KT 6SM BR OVC011 12/11 A2984 RMK AO2 RAE15 SLP104 P0000 T01220111=
200906191241 SPECI KPAE 191241Z AUTO 00000KT 6SM BR OVC011 12/11 A2984 RMK AO2 RAE15 P0000=
200906191241 SPECI KPAE 191241Z AUTO 00000KT 6SM BR OVC011 12/11 A2984 RMK AO2 RAE15 P0000=
200906191153 METAR KPAE 191153Z AUTO 00000KT 10SM -RA OVC007 12/11 A2985 RMK AO2 RAB24 CIG 006V009 SLP106 P0000 60003 70003 T01220111 10128 20122 55008=
200906191134 SPECI KPAE 191134Z AUTO 00000KT 9SM -RA BKN007 BKN021 OVC027 12/11 A2985 RMK AO2 RAB24 P0000=
200906191134 SPECI KPAE 191134Z AUTO 00000KT 9SM -RA BKN007 BKN021 OVC027 12/11 A2985 RMK AO2 RAB24 P0000=
200906191120 SPECI KPAE 191120Z AUTO 00000KT 10SM FEW007 BKN022 OVC049 12/11 A2985 RMK AO2=
200906191120 SPECI KPAE 191120Z AUTO 00000KT 10SM FEW007 BKN022 OVC049 12/11 A2985 RMK AO2=
200906191053 METAR KPAE 191053Z AUTO 03003KT 10SM BKN018 BKN030 OVC060 12/11 A2985 RMK AO2 RAB13E24 SLP105 P0001 T01220106=
200906190953 METAR KPAE 190953Z AUTO 00000KT 10SM BKN020 OVC028 12/11 A2986 RMK AO2 RAE47 SLP109 P0001 T01220106=
200906190944 SPECI KPAE 190944Z AUTO 02003KT 10SM -RA SCT020 BKN028 OVC070 13/11 A2986 RMK AO2 P0001=
200906190944 SPECI KPAE 190944Z AUTO 02003KT 10SM -RA SCT020 BKN028 OVC070 13/11 A2986 RMK AO2 P0001=
200906190909 SPECI KPAE 190909Z AUTO 00000KT 6SM -RA BR FEW024 BKN060 OVC075 13/11 A2986 RMK AO2 P0001=
200906190909 SPECI KPAE 190909Z AUTO 00000KT 6SM -RA BR FEW024 BKN060 OVC075 13/11 A2986 RMK AO2 P0001=
200906190900 SPECI KPAE 190900Z AUTO 00000KT 9SM -RA SCT024 BKN028 OVC060 13/11 A2987 RMK AO2 P0000=
200906190900 SPECI KPAE 190900Z AUTO 00000KT 9SM -RA SCT024 BKN028 OVC060 13/11 A2987 RMK AO2 P0000=
200906190853 METAR KPAE 190853Z AUTO 00000KT 10SM -RA SCT024 BKN034 OVC060 13/11 A2987 RMK AO2 RAB03 SLP115 P0000 60001 T01280106 56004=
200906190848 SPECI KPAE 190848Z AUTO 00000KT 10SM -RA SCT026 BKN034 OVC055 13/11 A2988 RMK AO2 RAB03 P0000=
200906190848 SPECI KPAE 190848Z AUTO 00000KT 10SM -RA SCT026 BKN034 OVC055 13/11 A2988 RMK AO2 RAB03 P0000=
200906190802 SPECI KPAE 190802Z AUTO 00000KT 10SM BKN026 OVC070 13/11 A2988 RMK AO2=
200906190802 SPECI KPAE 190802Z AUTO 00000KT 10SM BKN026 OVC070 13/11 A2988 RMK AO2=
200906190753 METAR KPAE 190753Z AUTO 00000KT 10SM SCT026 OVC070 12/11 A2988 RMK AO2 SLP116 T01220106 402110122=
200906190653 METAR KPAE 190653Z AUTO 36003KT 10SM SCT029 OVC085 13/11 A2989 RMK AO2 RAE21 SLP119 P0001 T01280111=
200906190626 SPECI KPAE 190626Z AUTO 36003KT 10SM BKN029 OVC090 12/11 A2989 RMK AO2 RAE21 P0001=
200906190626 SPECI KPAE 190626Z AUTO 36003KT 10SM BKN029 OVC090 12/11 A2989 RMK AO2 RAE21 P0001=
200906190553 METAR KPAE 190553Z AUTO VRB05KT 10SM -RA FEW042 OVC095 13/10 A2990 RMK AO2 RAE22B50 SLP124 P0000 60000 T01280100 10206 20128 58002=
200906190453 METAR KPAE 190453Z AUTO 02005KT 10SM -RA BKN041 OVC090 14/09 A2991 RMK AO2 RAB53 SLP126 P0000 T01390094=
200906190353 METAR KPAE 190353Z AUTO 36003KT 10SM SCT095 BKN120 14/09 A2990 RMK AO2 SLP125 T01390094=
200906190253 METAR KPAE 190253Z 36004KT 10SM CLR 15/11 A2991 RMK AO2 SLP126 T01500106 58010=
200906190153 METAR KPAE 190153Z VRB05KT 10SM SCT065 17/11 A2992 RMK AO2 SLP129 T01720111=
200906190053 METAR KPAE 190053Z 30005KT 10SM FEW065 19/11 A2993 RMK AO2 SLP134 T01940106=
200906182353 METAR KPAE 182353Z 29008KT 10SM CLR 20/11 A2994 RMK AO2 SLP137 T02000106 10211 20161 57016=
200906182253 METAR KPAE 182253Z 27011KT 10SM SCT040 21/11 A2995 RMK AO2 SLP140 T02060106=
200906182153 METAR KPAE 182153Z 24009KT 10SM SCT039 20/11 A2997 RMK AO2 SLP149 T02000111=
200906182053 METAR KPAE 182053Z 21007KT 10SM FEW022 SCT027 BKN049 20/11 A2999 RMK AO2 SLP153 T02000111 58012=
200906181953 METAR KPAE 181953Z 20008KT 10SM SCT022 BKN049 BKN060 18/11 A3001 RMK AO2 SLP160 T01830111=
200906181853 METAR KPAE 181853Z 24009KT 10SM SCT026 BKN032 BKN050 18/12 A3002 RMK AO2 SLP166 T01780122=
200906181829 SPECI KPAE 181829Z 25008KT 10SM FEW022 BKN029 OVC046 16/12 A3003 RMK AO2=
200906181829 SPECI KPAE 181829Z 25008KT 10SM FEW022 BKN029 OVC046 16/12 A3003 RMK AO2=
200906181753 METAR KPAE 181753Z 21006KT 10SM FEW023 BKN038 OVC049 18/11 A3002 RMK AO2 SLP165 T01780111 10178 20144 50000=
200906181653 METAR KPAE 181653Z 25005KT 10SM BKN020 OVC026 17/12 A3002 RMK AO2 SLP166 T01670122=
200906181651 SPECI KPAE 181651Z 23006KT 10SM BKN020 OVC026 17/12 A3002 RMK AO2=
200906181651 SPECI KPAE 181651Z 23006KT 10SM BKN020 OVC026 17/12 A3002 RMK AO2=
200906181553 METAR KPAE 181553Z 17004KT 10SM FEW018 SCT033 OVC050 16/12 A3002 RMK AO2 SLP164 T01610122=
200906181453 METAR KPAE 181453Z 16006KT 10SM OVC033 16/12 A3002 RMK AO2 SLP162 T01560122 58008=
200906181432 SPECI KPAE 181432Z 16005KT 10SM SCT025 OVC033 15/12 A3002 RMK AO2=
200906181432 SPECI KPAE 181432Z 16005KT 10SM SCT025 OVC033 15/12 A3002 RMK AO2=
200906181353 METAR KPAE 181353Z 16006KT 10SM OVC027 14/13 A3003 RMK AO2 SLP168 T01440128=
200906181253 METAR KPAE 181253Z AUTO 11004KT 10SM OVC023 14/12 A3004 RMK AO2 SLP170 T01440122=
200906181153 METAR KPAE 181153Z AUTO 06003KT 10SM FEW007 OVC023 14/12 A3004 RMK AO2 SLP171 T01440122 10150 20139 50003=
200906181139 SPECI KPAE 181139Z AUTO 06003KT 10SM FEW005 OVC023 14/12 A3004 RMK AO2=
200906181139 SPECI KPAE 181139Z AUTO 06003KT 10SM FEW005 OVC023 14/12 A3004 RMK AO2=
200906181053 METAR KPAE 181053Z AUTO 00000KT 10SM OVC007 14/12 A3005 RMK AO2 SLP174 T01440122=
200906181040 SPECI KPAE 181040Z AUTO 03004KT 10SM BKN007 OVC022 14/12 A3005 RMK AO2=
200906181040 SPECI KPAE 181040Z AUTO 03004KT 10SM BKN007 OVC022 14/12 A3005 RMK AO2=
200906181031 SPECI KPAE 181031Z AUTO 00000KT 10SM SCT007 BKN022 OVC027 14/12 A3005 RMK AO2=
200906181031 SPECI KPAE 181031Z AUTO 00000KT 10SM SCT007 BKN022 OVC027 14/12 A3005 RMK AO2=
200906180953 METAR KPAE 180953Z AUTO VRB04KT 10SM OVC022 14/12 A3004 RMK AO2 SLP172 T01390122=
200906180853 METAR KPAE 180853Z AUTO 00000KT 10SM BKN024 OVC038 14/12 A3003 RMK AO2 SLP167 T01390122 53002=
200906180850 SPECI KPAE 180850Z AUTO 00000KT 10SM BKN024 OVC038 14/12 A3003 RMK AO2=
200906180850 SPECI KPAE 180850Z AUTO 00000KT 10SM BKN024 OVC038 14/12 A3003 RMK AO2=
200906180753 METAR KPAE 180753Z AUTO 01004KT 10SM BKN040 14/12 A3002 RMK AO2 SLP164 T01390122 402060122=
200906180653 METAR KPAE 180653Z AUTO 01003KT 10SM BKN034 14/12 A3002 RMK AO2 SLP165 T01440122=
200906180553 METAR KPAE 180553Z AUTO 36004KT 10SM SCT026 BKN070 14/13 A3003 RMK AO2 SLP169 T01440128 10206 20144 51008=
200906180453 METAR KPAE 180453Z AUTO 01006KT 10SM BKN070 15/12 A3003 RMK AO2 SLP167 T01500122=
200906180353 METAR KPAE 180353Z AUTO 36005KT 10SM OVC055 17/13 A3002 RMK AO2 SLP164 T01670128=
200906180253 METAR KPAE 180253Z 00000KT 10SM FEW028 OVC055 19/12 A3001 RMK AO2 SLP161 T01940117 56005=
200906180232 SPECI KPAE 180232Z 00000KT 10SM SCT030 SCT038 OVC055 20/12 A3002 RMK AO2=
200906180232 SPECI KPAE 180232Z 00000KT 10SM SCT030 SCT038 OVC055 20/12 A3002 RMK AO2=
200906180203 SPECI KPAE 180203Z 30004KT 10SM OVC028 19/12 A3002 RMK AO2=
200906180203 SPECI KPAE 180203Z 30004KT 10SM OVC028 19/12 A3002 RMK AO2=
200906180153 METAR KPAE 180153Z 28004KT 10SM OVC030 19/12 A3001 RMK AO2 SLP163 T01890117=
200906180112 SPECI KPAE 180112Z 00000KT 10SM OVC030 19/12 A3001 RMK AO2=
200906180112 SPECI KPAE 180112Z 00000KT 10SM OVC030 19/12 A3001 RMK AO2=
200906180053 METAR KPAE 180053Z 00000KT 10SM BKN028 OVC060 19/12 A3002 RMK AO2 SLP164 T01940122=
200906172353 METAR KPAE 172353Z VRB03KT 10SM OVC028 20/12 A3003 RMK AO2 SLP166 T02000122 10200 20150 58003=
200906172253 METAR KPAE 172253Z AUTO 25005KT 10SM SCT022 OVC039 19/12 A3004 RMK AO2 SLP171 T01940122 TSNO=
200906172153 METAR KPAE 172153Z VRB03KT 10SM SCT022 OVC039 19/12 A3003 RMK AO2 SLP169 T01940122=
200906172053 METAR KPAE 172053Z VRB03KT 10SM SCT022 BKN039 OVC065 18/12 A3004 RMK AO2 SLP170 T01830117 51006=
200906171953 METAR KPAE 171953Z 17007KT 10SM SCT022 BKN039 OVC065 18/12 A3004 RMK AO2 SLP171 T01780117=
200906171941 SPECI KPAE 171941Z 17006KT 10SM BKN020 OVC060 17/12 A3004 RMK AO2=
200906171941 SPECI KPAE 171941Z 17006KT 10SM BKN020 OVC060 17/12 A3004 RMK AO2=
200906171925 SPECI KPAE 171925Z 16008KT 10SM SCT020 OVC060 18/12 A3004 RMK AO2=
200906171925 SPECI KPAE 171925Z 16008KT 10SM SCT020 OVC060 18/12 A3004 RMK AO2=
200906171853 METAR KPAE 171853Z 23005KT 10SM OVC020 16/12 A3003 RMK AO2 SLP170 T01560117=
200906171753 METAR KPAE 171753Z 19006KT 10SM BKN016 OVC025 16/12 A3002 RMK AO2 SLP166 T01560117 10161 20128 51004=
200906171653 METAR KPAE 171653Z VRB05KT 10SM OVC016 16/11 A3002 RMK AO2 SLP164 T01560111=
200906171636 SPECI KPAE 171636Z VRB04KT 10SM OVC016 15/11 A3002 RMK AO2=
200906171636 SPECI KPAE 171636Z VRB04KT 10SM OVC016 15/11 A3002 RMK AO2=
200906171558 SPECI KPAE 171558Z 11003KT 10SM BKN014 BKN022 OVC031 15/11 A3002 RMK AO2=
200906171558 SPECI KPAE 171558Z 11003KT 10SM BKN014 BKN022 OVC031 15/11 A3002 RMK AO2=
200906171553 METAR KPAE 171553Z 11005KT 10SM SCT014 SCT022 OVC031 15/11 A3002 RMK AO2 SLP163 T01500106=
200906171453 METAR KPAE 171453Z 00000KT 10SM OVC033 14/11 A3001 RMK AO2 SLP161 T01390106 53015=
200906171353 METAR KPAE 171353Z 00000KT 10SM OVC031 14/11 A3000 RMK AO2 SLP156 T01390106=
200906171307 SPECI KPAE 171307Z AUTO 00000KT 10SM OVC031 13/11 A2998 RMK AO2=
200906171307 SPECI KPAE 171307Z AUTO 00000KT 10SM OVC031 13/11 A2998 RMK AO2=
200906171253 METAR KPAE 171253Z AUTO 00000KT 10SM OVC029 13/11 A2997 RMK AO2 SLP149 T01330106=
200906171153 METAR KPAE 171153Z AUTO 00000KT 10SM OVC029 13/11 A2996 RMK AO2 SLP146 T01280106 10133 20122 51003=
200906171053 METAR KPAE 171053Z AUTO 02004KT 10SM OVC029 13/11 A2996 RMK AO2 SLP145 T01280111=
200906171014 SPECI KPAE 171014Z AUTO 01004KT 10SM BKN029 OVC075 13/11 A2996 RMK AO2=
200906171014 SPECI KPAE 171014Z AUTO 01004KT 10SM BKN029 OVC075 13/11 A2996 RMK AO2=
200906170953 METAR KPAE 170953Z AUTO 01004KT 10SM FEW048 BKN070 OVC090 13/11 A2996 RMK AO2 SLP145 T01280106=
200906170853 METAR KPAE 170853Z AUTO VRB03KT 10SM BKN048 OVC085 12/11 A2996 RMK AO2 SLP142 T01220106 53004=
200906170753 METAR KPAE 170753Z AUTO VRB06KT 10SM FEW055 OVC095 12/11 A2995 RMK AO2 SLP140 T01220106 402060111=
200906170653 METAR KPAE 170653Z AUTO 36007KT 10SM FEW100 12/11 A2994 RMK AO2 SLP137 T01220106=
200906170553 METAR KPAE 170553Z AUTO 36006KT 10SM BKN110 13/11 A2994 RMK AO2 SLP138 60000 T01330111 10200 20133 53008=
200906170453 METAR KPAE 170453Z AUTO VRB05KT 10SM BKN110 13/11 A2993 RMK AO2 SLP136 T01330111=
200906170353 METAR KPAE 170353Z AUTO 36006KT 10SM FEW070 BKN095 14/11 A2992 RMK AO2 RAB24E51 SLP131 P0000 T01440111=
200906170253 METAR KPAE 170253Z 01005KT 10SM CLR 16/11 A2992 RMK AO2 SLP131 T01560111 58004=
200906170153 METAR KPAE 170153Z 00000KT 10SM CLR 18/12 A2992 RMK AO2 SLP131 T01780117=
200906170053 METAR KPAE 170053Z 34003KT 10SM CLR 19/12 A2993 RMK AO2 SLP133 T01890117=
200906162353 METAR KPAE 162353Z 27005KT 10SM CLR 19/11 A2993 RMK AO2 SLP134 T01940111 10206 20156 58008=
200906162253 METAR KPAE 162253Z 25007KT 10SM CLR 19/12 A2995 RMK AO2 SLP139 T01940117=
200906162153 METAR KPAE 162153Z 25007KT 10SM CLR 19/11 A2995 RMK AO2 SLP141 T01890111=
200906162053 METAR KPAE 162053Z 26007KT 10SM CLR 18/11 A2995 RMK AO2 SLP142 T01830106 58003=
200906161953 METAR KPAE 161953Z 25007KT 10SM CLR 17/11 A2996 RMK AO2 SLP144 T01720106=
200906161853 METAR KPAE 161853Z 27004KT 10SM CLR 17/11 A2996 RMK AO2 SLP144 T01670106=
200906161753 METAR KPAE 161753Z 34005KT 10SM CLR 16/11 A2996 RMK AO2 SLP146 T01610106 10167 20117 58009=
200906161653 METAR KPAE 161653Z 34003KT 10SM CLR 14/11 A2998 RMK AO2 SLP151 T01440106=
200906161553 METAR KPAE 161553Z 00000KT 10SM CLR 14/10 A2998 RMK AO2 SLP153 T01390100=
200906161453 METAR KPAE 161453Z 33003KT 10SM CLR 13/10 A2999 RMK AO2 SLP155 T01280100 53004=
200906161353 METAR KPAE 161353Z AUTO 00000KT 10SM CLR 12/10 A2998 RMK AO2 SLP152 T01220100=
200906161253 METAR KPAE 161253Z AUTO 03004KT 10SM FEW038 12/09 A2998 RMK AO2 SLP150 T01170094=
200906161153 METAR KPAE 161153Z AUTO 03003KT 10SM CLR 12/09 A2998 RMK AO2 SLP150 T01170094 10128 20111 58005=
200906161053 METAR KPAE 161053Z AUTO 00000KT 10SM CLR 12/10 A2998 RMK AO2 SLP152 T01170100=
200906160953 METAR KPAE 160953Z AUTO 02003KT 10SM CLR 12/10 A2999 RMK AO2 SLP154 T01170100=
200906160853 METAR KPAE 160853Z AUTO 02005KT 10SM CLR 12/10 A2999 RMK AO2 SLP155 T01220100 58008=
200906160753 METAR KPAE 160753Z AUTO 03004KT 10SM CLR 12/11 A3001 RMK AO2 SLP160 T01220106 402060117=
200906160653 METAR KPAE 160653Z AUTO 02006KT 10SM SCT070 13/10 A3001 RMK AO2 SLP162 T01280100=
200906160553 METAR KPAE 160553Z AUTO 01005KT 10SM CLR 13/10 A3002 RMK AO2 SLP164 T01280100 10206 20128 53006=
200906160453 METAR KPAE 160453Z AUTO 36007KT 10SM CLR 13/11 A3001 RMK AO2 SLP161 T01280106=
200906160353 METAR KPAE 160353Z AUTO 01004KT 10SM FEW080 14/11 A3000 RMK AO2 SLP159 T01390106=
200906160253 METAR KPAE 160253Z VRB06KT 10SM CLR 14/11 A3000 RMK AO2 SLP158 T01440106 53002=
200906160153 METAR KPAE 160153Z 36008KT 10SM SCT070 18/11 A2999 RMK AO2 SLP153 T01780111=
200906160053 METAR KPAE 160053Z 36006KT 10SM CLR 19/11 A2999 RMK AO2 SLP154 T01940111=
200906152353 METAR KPAE 152353Z 34003KT 10SM CLR 20/12 A2999 RMK AO2 SLP155 T02000117 10206 20156 56004=
200906152253 METAR KPAE 152253Z 27004KT 10SM CLR 21/10 A3000 RMK AO2 SLP156 T02060100=
200906152153 METAR KPAE 152153Z 29007KT 250V310 10SM CLR 19/10 A3000 RMK AO2 SLP157 T01940100=
200906152053 METAR KPAE 152053Z 25007KT 10SM CLR 19/10 A3001 RMK AO2 SLP160 T01890100 50001=
200906151953 METAR KPAE 151953Z 00000KT 10SM CLR 18/11 A3001 RMK AO2 SLP160 T01780106=
200906151853 METAR KPAE 151853Z 27006KT 10SM CLR 17/11 A3000 RMK AO2 SLP159 T01720111=
200906151753 METAR KPAE 151753Z 24003KT 10SM BKN019 16/10 A3000 RMK AO2 SLP159 T01560100 10156 20117 51002=
200906151653 METAR KPAE 151653Z 31003KT 10SM BKN017 15/10 A3000 RMK AO2 SLP159 T01500100=
200906151553 METAR KPAE 151553Z 00000KT 10SM OVC015 14/09 A3000 RMK AO2 SLP159 T01390094=
200906151500 SPECI KPAE 151500Z 00000KT 10SM BKN015 OVC050 13/09 A2999 RMK AO2=
200906151500 SPECI KPAE 151500Z 00000KT 10SM BKN015 OVC050 13/09 A2999 RMK AO2=
200906151453 METAR KPAE 151453Z 03003KT 10SM SCT017 BKN033 13/09 A3000 RMK AO2 SLP157 T01280094 51012=
200906151353 METAR KPAE 151353Z 00000KT 10SM SCT017 BKN033 13/09 A2998 RMK AO2 SLP153 T01280094=
200906151253 METAR KPAE 151253Z 36004KT 10SM OVC033 12/09 A2997 RMK AO2 SLP150 T01170089=
200906151153 METAR KPAE 151153Z 36006KT 10SM OVC033 12/09 A2996 RMK AO2 SLP145 T01170089 10128 20117 53005=
200906151053 METAR KPAE 151053Z 00000KT 10SM OVC033 12/09 A2995 RMK AO2 SLP141 T01170094=
200906151031 SPECI KPAE 151031Z 01004KT 10SM OVC031 12/09 A2995 RMK AO2=
200906151031 SPECI KPAE 151031Z 01004KT 10SM OVC031 12/09 A2995 RMK AO2=
200906151020 SPECI KPAE 151020Z 36004KT 10SM OVC029 12/09 A2995 RMK AO2=
200906151020 SPECI KPAE 151020Z 36004KT 10SM OVC029 12/09 A2995 RMK AO2=
200906150953 METAR KPAE 150953Z 35004KT 10SM OVC031 12/09 A2995 RMK AO2 SLP141 T01170094=
200906150853 METAR KPAE 150853Z VRB04KT 10SM OVC029 12/09 A2994 RMK AO2 SLP139 T01220094 58006=
200906150753 METAR KPAE 150753Z VRB04KT 10SM OVC029 12/09 A2995 RMK AO2 SLP142 T01220094 401670111=
200906150653 METAR KPAE 150653Z VRB03KT 10SM OVC029 12/09 A2996 RMK AO2 SLP144 T01220094=
200906150553 METAR KPAE 150553Z 02004KT 10SM OVC025 13/10 A2996 RMK AO2 SLP145 T01280100 10167 20128 50006=
200906150453 METAR KPAE 150453Z 00000KT 10SM OVC025 14/10 A2996 RMK AO2 SLP146 T01390100=
200906150353 METAR KPAE 150353Z 26004KT 10SM OVC025 15/11 A2995 RMK AO2 SLP141 T01500106=
200906150253 METAR KPAE 150253Z 23003KT 10SM OVC025 15/10 A2994 RMK AO2 SLP139 T01500100 55002=
200906150153 METAR KPAE 150153Z 24007KT 10SM BKN027 16/11 A2994 RMK AO2 SLP137 T01560106=
200906150053 METAR KPAE 150053Z 26008KT 10SM OVC025 16/10 A2994 RMK AO2 SLP137 T01560100=
200906142353 METAR KPAE 142353Z 26008KT 10SM OVC025 16/10 A2995 RMK AO2 SLP141 T01610100 10161 20128 56008=
200906142253 METAR KPAE 142253Z 23009KT 10SM OVC025 16/09 A2996 RMK AO2 SLP144 T01560094=
200906142153 METAR KPAE 142153Z 25007KT 10SM OVC023 16/09 A2996 RMK AO2 SLP146 T01560094=
200906142053 METAR KPAE 142053Z 22008KT 10SM OVC019 15/09 A2997 RMK AO2 SLP150 T01500094 58005=
200906141953 METAR KPAE 141953Z 23008KT 10SM OVC017 14/09 A2998 RMK AO2 SLP153 T01390094=
200906141853 METAR KPAE 141853Z 23007KT 10SM OVC015 14/09 A2999 RMK AO2 SLP156 T01390094=
200906141753 METAR KPAE 141753Z 23006KT 10SM OVC015 13/09 A2999 RMK AO2 SLP156 T01280094 10133 20111 53004=
200906141653 METAR KPAE 141653Z 24007KT 10SM OVC013 12/09 A2999 RMK AO2 SLP154 T01220094=
200906141553 METAR KPAE 141553Z 24005KT 10SM OVC013 13/09 A2998 RMK AO2 SLP152 T01280094=
200906141453 METAR KPAE 141453Z 19008KT 10SM OVC011 12/09 A2998 RMK AO2 SLP151 T01220094 51003=
200906141353 METAR KPAE 141353Z AUTO 20004KT 10SM OVC011 12/09 A2998 RMK AO2 SLP151 T01220094=
200906141334 SPECI KPAE 141334Z AUTO 21005KT 10SM OVC011 12/09 A2998 RMK AO2=
200906141334 SPECI KPAE 141334Z AUTO 21005KT 10SM OVC011 12/09 A2998 RMK AO2=
200906141253 METAR KPAE 141253Z AUTO 21006KT 10SM OVC009 12/09 A2998 RMK AO2 SLP151 T01220094=
200906141153 METAR KPAE 141153Z AUTO 00000KT 7SM OVC007 11/10 A2997 RMK AO2 CIG 005V009 SLP147 T01110100 10122 20111 51004=
200906141053 METAR KPAE 141053Z AUTO VRB03KT 8SM OVC007 12/10 A2996 RMK AO2 CIG 004V010 SLP145 T01170100=
200906141049 SPECI KPAE 141049Z AUTO 00000KT 8SM FEW004 OVC007 12/10 A2996 RMK AO2=
200906141049 SPECI KPAE 141049Z AUTO 00000KT 8SM FEW004 OVC007 12/10 A2996 RMK AO2=
200906141035 SPECI KPAE 141035Z AUTO 00000KT 8SM SCT004 OVC010 12/10 A2996 RMK AO2=
200906141035 SPECI KPAE 141035Z AUTO 00000KT 8SM SCT004 OVC010 12/10 A2996 RMK AO2=
200906140953 METAR KPAE 140953Z AUTO 00000KT 8SM BKN010 OVC014 12/10 A2995 RMK AO2 SLP142 T01170100=
200906140914 SPECI KPAE 140914Z AUTO 36003KT 8SM BKN010 OVC060 11/10 A2995 RMK AO2=
200906140914 SPECI KPAE 140914Z AUTO 36003KT 8SM BKN010 OVC060 11/10 A2995 RMK AO2=
200906140853 METAR KPAE 140853Z AUTO VRB03KT 9SM FEW012 OVC060 12/10 A2995 RMK AO2 SLP141 T01170100 51012=
200906140753 METAR KPAE 140753Z AUTO 02005KT 9SM BKN060 12/10 A2994 RMK AO2 SLP140 T01170100 402170106=
200906140653 METAR KPAE 140653Z AUTO 01004KT 9SM BKN055 12/11 A2993 RMK AO2 SLP133 T01220106=
200906140553 METAR KPAE 140553Z AUTO 01006KT 9SM CLR 12/10 A2992 RMK AO2 SLP130 T01170100 10211 20117 53006=
200906140453 METAR KPAE 140453Z AUTO 36005KT 10SM CLR 13/11 A2990 RMK AO2 SLP124 T01280106=
200906140353 METAR KPAE 140353Z VRB03KT 10SM CLR 14/11 A2989 RMK AO2 SLP120 T01440106=
200906140253 METAR KPAE 140253Z VRB05KT 10SM BKN055 16/11 A2990 RMK AO2 SLP123 T01560111 53006=
200906140153 METAR KPAE 140153Z 01006KT 10SM CLR 16/11 A2989 RMK AO2 SLP119 T01610111=
200906140053 METAR KPAE 140053Z 36005KT 10SM CLR 18/12 A2989 RMK AO2 SLP121 T01780117=
200906132353 METAR KPAE 132353Z VRB04KT 10SM CLR 21/13 A2988 RMK AO2 SLP116 T02110128 10217 20139 58004=
200906132253 METAR KPAE 132253Z 26005KT 10SM CLR 22/12 A2989 RMK AO2 SLP119 T02170117=
200906132153 METAR KPAE 132153Z VRB04KT 10SM CLR 20/12 A2989 RMK AO2 SLP119 T02000117=
200906132053 METAR KPAE 132053Z 27006KT 10SM CLR 19/11 A2989 RMK AO2 SLP121 T01890111 58011=
200906131953 METAR KPAE 131953Z 27008KT 10SM CLR 17/11 A2990 RMK AO2 SLP125 T01720111=
200906131853 METAR KPAE 131853Z 25005KT 10SM CLR 16/11 A2992 RMK AO2 SLP130 T01560111=
200906131753 METAR KPAE 131753Z 29005KT 10SM SCT006 14/11 A2992 RMK AO2 SLP133 T01390106 10139 20106 58003=
200906131724 SPECI KPAE 131724Z 00000KT 9SM SCT006 13/11 A2993 RMK AO2=
200906131724 SPECI KPAE 131724Z 00000KT 9SM SCT006 13/11 A2993 RMK AO2=
200906131653 METAR KPAE 131653Z 00000KT 8SM OVC004 13/10 A2993 RMK AO2 SLP135 T01280100=
200906131553 METAR KPAE 131553Z 34004KT 2SM BR OVC002 12/10 A2993 RMK AO2 SLP136 T01170100=
200906131453 METAR KPAE 131453Z VRB03KT 2SM BR OVC002 11/10 A2993 RMK AO2 SLP136 T01110100 51006=
200906131448 SPECI KPAE 131448Z VRB03KT 2SM BR OVC002 11/10 A2993 RMK AO2=
200906131448 SPECI KPAE 131448Z VRB03KT 2SM BR OVC002 11/10 A2993 RMK AO2=
200906131427 SPECI KPAE 131427Z 00000KT 1/2SM FG OVC002 11/10 A2993 RMK AO2 RVRNO=
200906131427 SPECI KPAE 131427Z 00000KT 1/2SM FG OVC002 11/10 A2993 RMK AO2 RVRNO=
200906131353 METAR KPAE 131353Z VRB03KT 1SM BR OVC002 11/09 A2993 RMK AO2 SLP134 T01060094 RVRNO=
200906131253 METAR KPAE 131253Z AUTO 01005KT 6SM BR OVC004 11/09 A2992 RMK AO2 SLP130 T01060094=
200906131153 METAR KPAE 131153Z AUTO 03005KT 9SM OVC004 11/10 A2991 RMK AO2 SLP127 T01110100 10128 20106 51002=
200906131053 METAR KPAE 131053Z AUTO 35005KT 9SM OVC004 11/09 A2991 RMK AO2 SLP126 T01060094=
200906130953 METAR KPAE 130953Z AUTO VRB03KT 10SM BKN004 11/09 A2991 RMK AO2 SLP127 T01060094=
200906130945 SPECI KPAE 130945Z AUTO 36005KT 10SM BKN004 11/09 A2991 RMK AO2=
200906130945 SPECI KPAE 130945Z AUTO 36005KT 10SM BKN004 11/09 A2991 RMK AO2=
200906130922 SPECI KPAE 130922Z AUTO 36006KT 10SM SCT006 11/09 A2990 RMK AO2=
200906130922 SPECI KPAE 130922Z AUTO 36006KT 10SM SCT006 11/09 A2990 RMK AO2=
200906130853 METAR KPAE 130853Z AUTO VRB05KT 10SM BKN006 12/10 A2990 RMK AO2 SLP125 T01170100 56002=
200906130840 SPECI KPAE 130840Z AUTO VRB04KT 10SM FEW006 12/10 A2991 RMK AO2=
200906130840 SPECI KPAE 130840Z AUTO VRB04KT 10SM FEW006 12/10 A2991 RMK AO2=
200906130753 METAR KPAE 130753Z AUTO 01005KT 10SM BKN055 12/10 A2991 RMK AO2 SLP126 T01170100 402000117=
200906130653 METAR KPAE 130653Z AUTO 02009KT 10SM CLR 12/11 A2990 RMK AO2 SLP124 T01220106=
200906130553 METAR KPAE 130553Z AUTO 02007KT 10SM CLR 13/11 A2991 RMK AO2 SLP127 T01280106 10194 20122 56001=
200906130453 METAR KPAE 130453Z AUTO 01005KT 10SM CLR 13/11 A2991 RMK AO2 SLP128 T01280106=
200906130353 METAR KPAE 130353Z AUTO VRB06KT 10SM CLR 13/10 A2991 RMK AO2 SLP127 T01330100=
200906130253 METAR KPAE 130253Z 36007KT 10SM CLR 14/11 A2991 RMK AO2 SLP128 T01440106 55006=
200906130153 METAR KPAE 130153Z 36006KT 10SM CLR 16/11 A2991 RMK AO2 SLP128 T01610111=
200906130053 METAR KPAE 130053Z 35006KT 10SM CLR 17/11 A2991 RMK AO2 SLP129 T01720111=
200906122353 METAR KPAE 122353Z AUTO VRB04KT 10SM CLR 19/12 A2993 RMK AO2 SLP133 T01890117 10200 20150 56011 TSNO=
200906122300 METAR KPAE NIL=
200906122253 METAR KPAE 122253Z 36007KT 10SM CLR 19/12 A2994 RMK AO2 SLP136 T01890117=
200906122153 METAR KPAE 122153Z 35004KT 10SM CLR 19/12 A2994 RMK AO2 SLP138 T01890117=
200906122053 METAR KPAE 122053Z 29004KT 10SM CLR 19/12 A2996 RMK AO2 SLP145 T01890117 58011=
200906121953 METAR KPAE 121953Z VRB04KT 10SM CLR 18/12 A2997 RMK AO2 SLP149 T01780117=
200906121853 METAR KPAE 121853Z VRB04KT 10SM CLR 17/11 A2999 RMK AO2 SLP153 T01720111=
200906121753 METAR KPAE 121753Z VRB03KT 10SM SCT009 OVC060 16/11 A3000 RMK AO2 SLP157 T01560106 10156 20117 58003=
200906121653 METAR KPAE 121653Z 00000KT 10SM SCT009 OVC070 14/11 A3000 RMK AO2 SLP159 T01440106=
200906121612 SPECI KPAE 121612Z 34005KT 10SM SCT009 OVC070 14/11 A3000 RMK AO2=
200906121612 SPECI KPAE 121612Z 34005KT 10SM SCT009 OVC070 14/11 A3000 RMK AO2=
200906121553 METAR KPAE 121553Z 03004KT 10SM BKN007 OVC070 14/11 A3001 RMK AO2 SLP160 T01390106=
200906121453 METAR KPAE 121453Z 04004KT 10SM BKN007 OVC050 13/10 A3000 RMK AO2 SLP160 T01280100 52002=
200906121401 SPECI KPAE 121401Z 01003KT 10SM SCT007 OVC055 12/10 A3000 RMK AO2=
200906121401 SPECI KPAE 121401Z 01003KT 10SM SCT007 OVC055 12/10 A3000 RMK AO2=
200906121353 METAR KPAE 121353Z 01004KT 10SM BKN007 OVC055 12/10 A3000 RMK AO2 SLP158 T01220100=
200906121253 METAR KPAE 121253Z 06004KT 10SM BKN007 OVC055 12/10 A3000 RMK AO2 SLP158 T01220100=
200906121153 METAR KPAE 121153Z 03003KT 10SM FEW007 OVC065 12/10 A3000 RMK AO2 SLP156 70005 T01170100 10133 20117 50002=
200906121151 SPECI KPAE 121151Z 03004KT 10SM FEW007 OVC065 12/10 A3000 RMK AO2=
200906121151 SPECI KPAE 121151Z 03004KT 10SM FEW007 OVC065 12/10 A3000 RMK AO2=
200906121053 METAR KPAE 121053Z 02003KT 10SM OVC060 12/10 A2999 RMK AO2 SLP154 T01170100=
200906120953 METAR KPAE 120953Z 02004KT 10SM OVC055 12/10 A2999 RMK AO2 SLP154 T01170100=
200906120853 METAR KPAE 120853Z 02004KT 10SM SCT060 12/10 A2998 RMK AO2 SLP152 T01170100 51006=
200906120753 METAR KPAE 120753Z VRB03KT 10SM CLR 12/09 A2998 RMK AO2 SLP151 T01170094 402060111=
200906120653 METAR KPAE 120653Z VRB03KT 10SM BKN049 13/10 A2999 RMK AO2 SLP153 T01280100=
200906120553 METAR KPAE 120553Z 02006KT 10SM CLR 13/11 A2997 RMK AO2 SLP147 T01330106 10206 20133 51007=
200906120453 METAR KPAE 120453Z 02007KT 10SM CLR 13/11 A2996 RMK AO2 SLP146 T01330106=
200906120353 METAR KPAE 120353Z 36004KT 10SM CLR 13/11 A2996 RMK AO2 SLP144 T01330106=
200906120253 METAR KPAE 120253Z 36008G14KT 10SM CLR 14/10 A2995 RMK AO2 SLP140 T01440100 55001=
200906120153 METAR KPAE 120153Z 01007KT 10SM CLR 17/11 A2994 RMK AO2 SLP139 T01670106=
200906120053 METAR KPAE 120053Z 36007KT 10SM CLR 18/11 A2994 RMK AO2 SLP138 T01830111=
200906112353 METAR KPAE 112353Z 35005KT 10SM CLR 21/12 A2995 RMK AO2 SLP140 60005 T02060117 10206 20161 56007=
200906112253 METAR KPAE 112253Z 30004KT 10SM CLR 20/11 A2995 RMK AO2 SLP142 T02000106=
200906112153 METAR KPAE 112153Z 28006KT 10SM CLR 19/11 A2996 RMK AO2 SLP144 T01940106=
200906112053 METAR KPAE 112053Z 26006KT 10SM CLR 19/11 A2997 RMK AO2 SLP147 P0005 60005 T01890111 58006=
200906111953 METAR KPAE 111953Z 30007KT 10SM CLR 18/11 A2998 RMK AO2 SLP150 T01780106 $=
200906111853 METAR KPAE 111853Z VRB03KT 10SM CLR 17/10 A2998 RMK AO2 SLP152 T01720100 $=
200906111753 METAR KPAE 111753Z 00000KT CLR 16/10 A2999 RMK AO2 SLP153 T01610100 10161 20111 58002 RVRNO $=
200906111653 METAR KPAE 111653Z VRB04KT 10SM OVC060 14/10 A2999 RMK AO2 SLP155 T01440100=
200906111553 METAR KPAE 111553Z 03004KT 10SM BKN060 14/10 A2999 RMK AO2 SLP156 T01390100=
200906111453 METAR KPAE 111453Z VRB04KT 10SM SCT039 13/10 A2999 RMK AO2 SLP156 T01330100 51006=
200906111353 METAR KPAE 111353Z AUTO 00000KT 10SM BKN039 12/09 A2999 RMK AO2 SLP155 T01170094=
200906111253 METAR KPAE 111253Z AUTO 02004KT 10SM FEW039 12/09 A2998 RMK AO2 SLP150 T01170089=
200906111153 METAR KPAE 111153Z AUTO 03004KT 10SM FEW039 BKN060 12/08 A2998 RMK AO2 SLP149 T01170083 10133 20117 51003=
200906111053 METAR KPAE 111053Z AUTO 04004KT 10SM SCT041 OVC060 12/08 A2997 RMK AO2 SLP149 T01170078=
200906110953 METAR KPAE 110953Z AUTO 05004KT 10SM OVC043 13/08 A2997 RMK AO2 SLP148 T01280083=
200906110853 METAR KPAE 110853Z AUTO 03006KT 10SM OVC041 13/08 A2996 RMK AO2 SLP146 T01280083 51003=
200906110753 METAR KPAE 110753Z AUTO 02007KT 10SM OVC039 13/09 A2996 RMK AO2 SLP146 T01280089 402110128=
200906110653 METAR KPAE 110653Z AUTO 02007KT 10SM CLR 13/08 A2996 RMK AO2 SLP144 T01330083=
200906110553 METAR KPAE 110553Z AUTO 02007KT 10SM CLR 13/08 A2996 RMK AO2 SLP142 T01330083 10189 20133 53007=
200906110453 METAR KPAE 110453Z AUTO 02009KT 10SM CLR 14/09 A2995 RMK AO2 SLP139 T01390089=
200906110353 METAR KPAE 110353Z AUTO 02006KT 10SM SCT095 14/08 A2993 RMK AO2 SLP134 T01390083=
200906110253 METAR KPAE 110253Z 02007KT 10SM CLR 14/09 A2993 RMK AO2 SLP135 T01440089 53005=
200906110153 METAR KPAE 110153Z 36008KT 330V040 10SM CLR 17/10 A2992 RMK AO2 SLP131 T01670100=
200906110053 METAR KPAE 110053Z 36007KT 10SM CLR 18/10 A2992 RMK AO2 SLP131 T01780100=
200906102353 METAR KPAE 102353Z 01007G16KT 10SM CLR 18/10 A2992 RMK AO2 SLP131 T01780100 10211 20172 55003=
200906102253 METAR KPAE 102253Z VRB04KT 10SM CLR 19/10 A2991 RMK AO2 SLP128 T01890100=
200906102153 METAR KPAE 102153Z 36006KT 10SM CLR 19/11 A2991 RMK AO2 SLP128 T01940111=
200906102053 METAR KPAE 102053Z 30005KT 10SM CLR 20/12 A2993 RMK AO2 SLP133 T02000117 58010=
200906101953 METAR KPAE 101953Z 28004KT 10SM CLR 20/12 A2994 RMK AO2 SLP138 T02000117=
200906101853 METAR KPAE 101853Z 26006KT 10SM CLR 18/11 A2996 RMK AO2 SLP142 T01830106=
200906101753 METAR KPAE 101753Z 27004KT 10SM CLR 17/11 A2996 RMK AO2 SLP144 T01720106 10178 20133 58000=
200906101653 METAR KPAE 101653Z 00000KT 10SM CLR 17/10 A2996 RMK AO2 SLP146 T01720100=
200906101553 METAR KPAE 101553Z 00000KT 10SM CLR 16/10 A2996 RMK AO2 SLP145 T01560100=
200906101453 METAR KPAE 101453Z 00000KT 10SM CLR 16/09 A2996 RMK AO2 SLP145 T01610089 51010=
200906101353 METAR KPAE 101353Z VRB03KT 10SM CLR 14/08 A2995 RMK AO2 SLP142 T01440083=
200906101253 METAR KPAE 101253Z AUTO 00000KT 10SM CLR 13/08 A2995 RMK AO2 SLP139 T01330083=
200906101153 METAR KPAE 101153Z AUTO 07004KT 10SM CLR 13/08 A2993 RMK AO2 SLP134 T01330083 10144 20133 53009=
200906101053 METAR KPAE 101053Z AUTO 08003KT 10SM CLR 14/08 A2992 RMK AO2 SLP128 T01390083=
200906100953 METAR KPAE 100953Z AUTO 05003KT 10SM CLR 14/08 A2991 RMK AO2 SLP125 T01390083=
200906100853 METAR KPAE 100853Z AUTO 05004KT 10SM CLR 14/08 A2990 RMK AO2 SLP124 T01440083 53010=
200906100753 METAR KPAE 100753Z AUTO 02005KT 10SM CLR 14/08 A2989 RMK AO2 SLP120 T01390083 402330117=
200906100653 METAR KPAE 100653Z AUTO 02005KT 10SM CLR 14/09 A2988 RMK AO2 SLP117 T01440089=
200906100553 METAR KPAE 100553Z AUTO VRB05KT 10SM CLR 14/09 A2987 RMK AO2 SLP115 T01440094 10222 20139 53015=
200906100453 METAR KPAE 100453Z AUTO 02005KT 10SM CLR 14/10 A2986 RMK AO2 SLP109 T01390100=
200906100353 METAR KPAE 100353Z AUTO 01003KT 10SM CLR 15/10 A2984 RMK AO2 SLP102 T01500100=
200906100253 METAR KPAE 100253Z 36005KT 10SM CLR 16/11 A2983 RMK AO2 SLP100 T01610111 53006=
200906100153 METAR KPAE 100153Z 36005KT 10SM CLR 19/11 A2982 RMK AO2 SLP095 T01890111=
200906100053 METAR KPAE 100053Z 35005KT 10SM CLR 21/12 A2981 RMK AO2 SLP093 T02110117=
200906092353 METAR KPAE 092353Z VRB04KT 10SM CLR 22/11 A2981 RMK AO2 SLP094 T02220111 10233 20183 57012=
200906092253 METAR KPAE 092253Z 34008KT 10SM CLR 22/12 A2982 RMK AO2 SLP097 T02170117=
200906092153 METAR KPAE 092153Z 01007KT 10SM CLR 22/12 A2984 RMK AO2 SLP102 T02170117=
200906092053 METAR KPAE 092053Z 01006KT 10SM CLR 22/11 A2985 RMK AO2 SLP106 T02170111 58010=
200906091953 METAR KPAE 091953Z 01005KT 10SM CLR 21/11 A2986 RMK AO2 SLP111 T02060106=
200906091853 METAR KPAE 091853Z 32005KT 10SM CLR 19/11 A2987 RMK AO2 SLP114 T01890106=
200906091753 METAR KPAE 091753Z VRB04KT 10SM CLR 18/10 A2988 RMK AO2 SLP116 T01780100 10183 20122 58002=
200906091653 METAR KPAE 091653Z 33004KT 10SM CLR 16/09 A2989 RMK AO2 SLP119 T01610094=
200906091553 METAR KPAE 091553Z 05004KT 10SM CLR 16/09 A2989 RMK AO2 SLP120 T01560089=
200906091453 METAR KPAE 091453Z VRB03KT 10SM CLR 14/09 A2989 RMK AO2 SLP119 T01440089 51007=
200906091353 METAR KPAE 091353Z 02003KT 10SM CLR 14/08 A2988 RMK AO2 SLP116 T01390083=
200906091253 METAR KPAE 091253Z AUTO 04003KT 10SM CLR 12/08 A2987 RMK AO2 SLP115 T01220083=
200906091153 METAR KPAE 091153Z AUTO 05004KT 10SM CLR 12/08 A2987 RMK AO2 SLP112 T01220078 10128 20117 56005=
200906091053 METAR KPAE 091053Z AUTO VRB04KT 10SM CLR 12/08 A2987 RMK AO2 SLP113 T01220078=
200906090953 METAR KPAE 090953Z AUTO 03004KT 10SM CLR 12/08 A2987 RMK AO2 SLP114 T01220083=
200906090853 METAR KPAE 090853Z AUTO 03004KT 10SM CLR 12/09 A2988 RMK AO2 SLP117 T01220089 58000=
200906090753 METAR KPAE 090753Z AUTO 03004KT 10SM CLR 13/09 A2988 RMK AO2 SLP118 T01280089 402060106=
200906090653 METAR KPAE 090653Z AUTO 01006KT 10SM CLR 12/09 A2988 RMK AO2 SLP117 T01220089=
200906090553 METAR KPAE 090553Z AUTO 02006KT 10SM CLR 13/09 A2988 RMK AO2 SLP118 T01280089 10194 20128 51004=
200906090453 METAR KPAE 090453Z AUTO VRB03KT 10SM CLR 13/09 A2988 RMK AO2 SLP118 T01330094=
200906090353 METAR KPAE 090353Z AUTO VRB04KT 10SM CLR 14/09 A2987 RMK AO2 SLP116 T01390094=
200906090253 METAR KPAE 090253Z VRB05KT 10SM CLR 17/10 A2987 RMK AO2 SLP112 T01670100 56007=
200906090153 METAR KPAE 090153Z 36005KT 10SM CLR 18/10 A2987 RMK AO2 SLP113 T01830100=
200906090053 METAR KPAE 090053Z 36006KT 10SM CLR 19/11 A2988 RMK AO2 SLP115 T01890106=
200906082353 METAR KPAE 082353Z 35007KT 10SM CLR 19/10 A2989 RMK AO2 SLP119 T01940100 10206 20156 58013=
200906082253 METAR KPAE 082253Z AUTO 01006KT 10SM CLR 21/10 A2990 RMK AO2 SLP125 T02060100 TSNO=
200906082153 METAR KPAE 082153Z VRB04KT 10SM CLR 19/09 A2991 RMK AO2 SLP129 T01940094=
200906082053 METAR KPAE 082053Z 28006KT 10SM CLR 19/09 A2993 RMK AO2 SLP132 T01940089 58004=
200906081953 METAR KPAE 081953Z 29005KT 10SM CLR 18/08 A2993 RMK AO2 SLP134 T01830078=
200906081853 METAR KPAE 081853Z 26005KT 10SM CLR 17/10 A2994 RMK AO2 SLP137 T01720100=
200906081753 METAR KPAE 081753Z 27005KT 10SM SCT065 16/11 A2994 RMK AO2 SLP138 T01560106 10161 20106 58003=
200906081653 METAR KPAE 081653Z 30004KT 10SM SCT065 15/10 A2994 RMK AO2 SLP139 T01500100=
200906081553 METAR KPAE 081553Z 20003KT 10SM CLR 15/10 A2995 RMK AO2 SLP139 T01500100=
200906081453 METAR KPAE 081453Z 00000KT 10SM CLR 13/09 A2995 RMK AO2 SLP140 T01330094 58001=
200906081353 METAR KPAE 081353Z 00000KT 10SM FEW012 SCT080 12/09 A2996 RMK AO2 SLP142 T01220094=
200906081313 SPECI KPAE 081313Z 00000KT 10SM SCT012 12/09 A2995 RMK AO2=
200906081313 SPECI KPAE 081313Z 00000KT 10SM SCT012 12/09 A2995 RMK AO2=
200906081253 METAR KPAE 081253Z 00000KT 10SM BKN012 BKN050 11/09 A2995 RMK AO2 SLP141 T01110094=
200906081153 METAR KPAE 081153Z 00000KT 10SM SCT080 11/09 A2995 RMK AO2 SLP142 T01060089 10133 20106 55000=
200906081053 METAR KPAE 081053Z 16003KT 10SM CLR 12/09 A2994 RMK AO2 SLP138 T01220094=
200906080953 METAR KPAE 080953Z 00000KT 10SM CLR 12/09 A2995 RMK AO2 SLP141 T01220094=
200906080853 METAR KPAE 080853Z 03003KT 10SM CLR 12/09 A2995 RMK AO2 SLP141 T01170094 50000=
200906080753 METAR KPAE 080753Z 05003KT 10SM CLR 13/09 A2996 RMK AO2 SLP143 T01280094 401940122=
200906080653 METAR KPAE 080653Z 03004KT 10SM CLR 13/10 A2995 RMK AO2 SLP142 T01330100=
200906080553 METAR KPAE 080553Z 03003KT 10SM FEW040 13/10 A2995 RMK AO2 SLP142 T01330100 10194 20133 53010=
200906080453 METAR KPAE 080453Z 22005KT 10SM SCT040 BKN050 15/09 A2995 RMK AO2 SLP139 T01500094=
200906080353 METAR KPAE 080353Z 28007KT 10SM OVC041 17/09 A2993 RMK AO2 SLP132 T01670094=
200906080253 METAR KPAE 080253Z 22005KT 10SM SCT043 OVC050 18/09 A2992 RMK AO2 SLP131 T01780089 55002=
200906080153 METAR KPAE 080153Z 25006KT 10SM FEW047 18/09 A2992 RMK AO2 SLP130 T01830089=
200906080053 METAR KPAE 080053Z 26007KT 10SM SCT045 19/09 A2992 RMK AO2 SLP130 T01940094=
200906072353 METAR KPAE 072353Z AUTO 24007KT 10SM OVC048 18/09 A2993 RMK AO2 SLP133 T01780089 10189 20156 56006 TSNO=
200906072253 METAR KPAE 072253Z 25005KT 10SM FEW042 OVC080 18/09 A2993 RMK AO2 SLP134 T01830089=
200906072153 METAR KPAE 072153Z 24006KT 10SM OVC075 18/09 A2994 RMK AO2 SLP138 T01780089=
200906072053 METAR KPAE 072053Z 23006KT 10SM FEW033 OVC075 18/08 A2995 RMK AO2 SLP139 T01780083 58003=
200906071953 METAR KPAE 071953Z 16005KT 10SM SCT031 BKN055 OVC070 17/09 A2995 RMK AO2 SLP141 T01670089=
200906071853 METAR KPAE 071853Z 19008KT 10SM FEW027 SCT047 OVC070 16/09 A2995 RMK AO2 SLP142 T01610094=
200906071753 METAR KPAE 071753Z 16008KT 10SM OVC065 16/09 A2996 RMK AO2 SLP142 T01560094 10156 20133 51007=
200906071653 METAR KPAE 071653Z VRB03KT 10SM OVC047 14/09 A2995 RMK AO2 SLP142 T01440094=
200906071553 METAR KPAE 071553Z 00000KT 10SM FEW013 OVC047 14/11 A2995 RMK AO2 SLP141 T01440106=
200906071453 METAR KPAE 071453Z 20003KT 10SM SCT044 OVC070 14/10 A2993 RMK AO2 SLP135 T01390100 51006=
200906071353 METAR KPAE 071353Z 16005KT 10SM OVC065 13/09 A2993 RMK AO2 SLP133 T01330094=
200906071253 METAR KPAE 071253Z AUTO 20005KT 10SM OVC060 13/09 A2993 RMK AO2 SLP133 T01330094=
200906071153 METAR KPAE 071153Z AUTO 18008KT 10SM OVC060 13/09 A2992 RMK AO2 SLP129 T01330094 10144 20133 51001=
200906071053 METAR KPAE 071053Z AUTO 17008KT 10SM OVC060 13/09 A2992 RMK AO2 SLP129 T01330094=
200906070953 METAR KPAE 070953Z AUTO 15003KT 10SM OVC060 14/10 A2992 RMK AO2 SLP131 T01390100=
200906070853 METAR KPAE 070853Z AUTO 15006KT 10SM OVC065 14/11 A2991 RMK AO2 SLP128 T01390106 51005=
200906070753 METAR KPAE 070753Z AUTO 17004KT 10SM FEW041 13/11 A2991 RMK AO2 SLP126 T01330106 401780133=
200906070653 METAR KPAE 070653Z AUTO 16005KT 10SM CLR 14/11 A2990 RMK AO2 SLP125 T01390111=
200906070553 METAR KPAE 070553Z AUTO 16005KT 10SM FEW060 14/11 A2990 RMK AO2 SLP123 T01440111 10178 20144 51005=
200906070453 METAR KPAE 070453Z AUTO 17003KT 10SM OVC060 16/09 A2990 RMK AO2 SLP122 T01560094=
200906070353 METAR KPAE 070353Z AUTO 17007KT 10SM OVC055 16/09 A2989 RMK AO2 SLP119 T01610094=
200906070253 METAR KPAE 070253Z 20008KT 10SM OVC041 17/09 A2988 RMK AO2 SLP118 T01670094 53004=
200906070153 METAR KPAE 070153Z 21004KT 10SM OVC037 16/10 A2988 RMK AO2 SLP116 T01610100=
200906070126 SPECI KPAE 070126Z 23005KT 10SM BKN030 OVC035 17/10 A2987 RMK AO2=
200906070126 SPECI KPAE 070126Z 23005KT 10SM BKN030 OVC035 17/10 A2987 RMK AO2=
200906070108 SPECI KPAE 070108Z 24005KT 10SM OVC028 17/10 A2988 RMK AO2=
200906070108 SPECI KPAE 070108Z 24005KT 10SM OVC028 17/10 A2988 RMK AO2=
200906070053 METAR KPAE 070053Z 21008KT 10SM OVC030 17/10 A2987 RMK AO2 SLP114 T01670100=
200906070049 SPECI KPAE 070049Z 18004KT 10SM BKN028 OVC035 17/10 A2987 RMK AO2=
200906070049 SPECI KPAE 070049Z 18004KT 10SM BKN028 OVC035 17/10 A2987 RMK AO2=
200906062353 METAR KPAE 062353Z 21007KT 10SM SCT033 OVC048 17/09 A2987 RMK AO2 SLP115 60000 T01720094 10172 20156 58003=
200906062344 SPECI KPAE 062344Z 22004KT 10SM BKN029 BKN036 OVC048 17/10 A2987 RMK AO2=
200906062344 SPECI KPAE 062344Z 22004KT 10SM BKN029 BKN036 OVC048 17/10 A2987 RMK AO2=
200906062336 SPECI KPAE 062336Z 18007KT 10SM SCT029 BKN038 OVC046 17/10 A2987 RMK AO2=
200906062336 SPECI KPAE 062336Z 18007KT 10SM SCT029 BKN038 OVC046 17/10 A2987 RMK AO2=
200906062324 SPECI KPAE 062324Z 21006KT 10SM BKN029 OVC036 16/10 A2988 RMK AO2=
200906062324 SPECI KPAE 062324Z 21006KT 10SM BKN029 OVC036 16/10 A2988 RMK AO2=
200906062253 METAR KPAE 062253Z 21005KT 10SM SCT029 OVC039 17/10 A2988 RMK AO2 SLP116 T01670100=
200906062200 SPECI KPAE 062200Z 23006KT 10SM BKN030 BKN038 OVC045 16/11 A2988 RMK AO2=
200906062200 SPECI KPAE 062200Z 23006KT 10SM BKN030 BKN038 OVC045 16/11 A2988 RMK AO2=
200906062153 METAR KPAE 062153Z 24009KT 10SM BKN028 OVC034 16/11 A2988 RMK AO2 RAB38E48 SLP116 P0000 T01610106=
200906062101 SPECI KPAE 062101Z 16009KT 10SM BKN026 OVC033 16/11 A2988 RMK AO2=
200906062101 SPECI KPAE 062101Z 16009KT 10SM BKN026 OVC033 16/11 A2988 RMK AO2=
200906062053 METAR KPAE 062053Z 19006KT 10SM SCT026 OVC033 16/11 A2988 RMK AO2 SLP117 T01610106 52002=
200906062006 SPECI KPAE 062006Z 17008KT 10SM FEW025 BKN033 OVC045 17/10 A2988 RMK AO2=
200906062006 SPECI KPAE 062006Z 17008KT 10SM FEW025 BKN033 OVC045 17/10 A2988 RMK AO2=
200906061953 METAR KPAE 061953Z 17009KT 10SM BKN025 BKN033 OVC045 17/10 A2988 RMK AO2 SLP117 T01670100=
200906061948 SPECI KPAE 061948Z 18008KT 160V220 10SM SCT025 BKN031 OVC045 17/10 A2988 RMK AO2=
200906061948 SPECI KPAE 061948Z 18008KT 160V220 10SM SCT025 BKN031 OVC045 17/10 A2988 RMK AO2=
200906061941 SPECI KPAE 061941Z 21009KT 10SM BKN025 BKN031 OVC043 17/10 A2988 RMK AO2=
200906061941 SPECI KPAE 061941Z 21009KT 10SM BKN025 BKN031 OVC043 17/10 A2988 RMK AO2=
200906061853 METAR KPAE 061853Z 19011G15KT 10SM SCT022 SCT028 OVC039 17/11 A2987 RMK AO2 SLP115 T01670106=
200906061753 METAR KPAE 061753Z 20011KT 10SM FEW022 OVC039 16/10 A2988 RMK AO2 SLP116 T01560100 10156 20139 53008=
200906061653 METAR KPAE 061653Z 20013KT 10SM OVC033 15/10 A2987 RMK AO2 SLP112 T01500100=
200906061553 METAR KPAE 061553Z 19015KT 10SM OVC039 15/11 A2986 RMK AO2 SLP111 T01500106=
200906061453 METAR KPAE 061453Z 17010KT 10SM OVC035 14/11 A2986 RMK AO2 SLP109 T01440106 51010=
200906061353 METAR KPAE 061353Z 19011KT 10SM FEW016 OVC037 14/11 A2985 RMK AO2 SLP105 T01440106=
200906061338 SPECI KPAE 061338Z AUTO 19015KT 10SM SCT016 OVC037 14/11 A2984 RMK AO2=
200906061338 SPECI KPAE 061338Z AUTO 19015KT 10SM SCT016 OVC037 14/11 A2984 RMK AO2=
200906061253 METAR KPAE 061253Z AUTO 19009KT 10SM OVC016 14/11 A2984 RMK AO2 SLP104 T01390106=
200906061208 SPECI KPAE 061208Z AUTO 19013KT 10SM BKN017 BKN025 OVC031 14/11 A2983 RMK AO2=
200906061208 SPECI KPAE 061208Z AUTO 19013KT 10SM BKN017 BKN025 OVC031 14/11 A2983 RMK AO2=
200906061153 METAR KPAE 061153Z AUTO 19014KT 10SM SCT017 SCT026 OVC031 14/11 A2983 RMK AO2 SLP098 T01390106 10150 20139 50000=
200906061146 SPECI KPAE 061146Z AUTO 19014KT 10SM FEW017 OVC031 14/11 A2983 RMK AO2=
200906061146 SPECI KPAE 061146Z AUTO 19014KT 10SM FEW017 OVC031 14/11 A2983 RMK AO2=
200906061053 METAR KPAE 061053Z AUTO 18012G18KT 10SM BKN017 BKN023 OVC028 14/11 A2983 RMK AO2 SLP099 T01440106=
200906060953 METAR KPAE 060953Z AUTO 18013G19KT 10SM BKN017 OVC025 14/11 A2984 RMK AO2 SLP102 T01440106=
200906060853 METAR KPAE 060853Z AUTO 20016KT 10SM OVC027 15/10 A2983 RMK AO2 SLP098 T01500100 53003=
200906060753 METAR KPAE 060753Z AUTO 19014KT 10SM OVC025 15/11 A2982 RMK AO2 SLP096 T01500106 402110144=
200906060653 METAR KPAE 060653Z AUTO 19015G20KT 10SM BKN025 15/11 A2982 RMK AO2 SLP095 T01500106=
200906060649 SPECI KPAE 060649Z AUTO 19014G20KT 10SM BKN025 14/11 A2982 RMK AO2=
200906060649 SPECI KPAE 060649Z AUTO 19014G20KT 10SM BKN025 14/11 A2982 RMK AO2=
200906060609 SPECI KPAE 060609Z AUTO 19014KT 10SM FEW019 15/11 A2981 RMK AO2=
200906060609 SPECI KPAE 060609Z AUTO 19014KT 10SM FEW019 15/11 A2981 RMK AO2=
200906060553 METAR KPAE 060553Z AUTO 19015KT 10SM BKN017 15/11 A2981 RMK AO2 SLP093 T01500111 10200 20150 53012=
200906060453 METAR KPAE 060453Z AUTO 18018G23KT 10SM OVC017 16/11 A2980 RMK AO2 SLP088 T01560111=
200906060442 SPECI KPAE 060442Z AUTO 19017G22KT 10SM BKN017 16/11 A2980 RMK AO2=
200906060442 SPECI KPAE 060442Z AUTO 19017G22KT 10SM BKN017 16/11 A2980 RMK AO2=
200906060353 METAR KPAE 060353Z AUTO 19014G21KT 10SM CLR 16/12 A2979 RMK AO2 SLP085 T01610117=
200906060253 METAR KPAE 060253Z 18014KT 10SM CLR 18/12 A2977 RMK AO2 SLP081 T01780117 55002=
200906060153 METAR KPAE 060153Z 19013KT 10SM CLR 18/12 A2977 RMK AO2 SLP078 T01830122=
200906060053 METAR KPAE 060053Z 18011KT 10SM CLR 19/12 A2978 RMK AO2 SLP081 T01940122=
200906052353 METAR KPAE 052353Z 17010G19KT 10SM CLR 20/12 A2978 RMK AO2 SLP082 T02000122 10211 20167 56012=
200906052253 METAR KPAE 052253Z 20012G15KT 10SM SCT028 21/13 A2979 RMK AO2 SLP084 T02060128=
200906052153 METAR KPAE 052153Z 25013KT 10SM CLR 19/13 A2980 RMK AO2 SLP088 T01940128=
200906052053 METAR KPAE 052053Z 26012KT 10SM CLR 18/13 A2982 RMK AO2 SLP094 T01830128 58012=
200906051953 METAR KPAE 051953Z 24010KT 10SM CLR 18/12 A2983 RMK AO2 SLP099 T01830122=
200906051900 SPECI KPAE 051900Z 25009KT 10SM SCT019 18/13 A2984 RMK AO2=
200906051900 SPECI KPAE 051900Z 25009KT 10SM SCT019 18/13 A2984 RMK AO2=
200906051853 METAR KPAE 051853Z 19009KT 10SM BKN019 19/13 A2984 RMK AO2 SLP102 T01890128=
200906051753 METAR KPAE 051753Z 18010KT 10SM OVC015 17/13 A2985 RMK AO2 SLP107 T01720128 10172 20150 58004=
200906051653 METAR KPAE 051653Z 25006KT 10SM OVC015 16/12 A2987 RMK AO2 SLP111 T01560122=
200906051635 SPECI KPAE 051635Z 25006KT 10SM OVC015 16/12 A2986 RMK AO2=
200906051635 SPECI KPAE 051635Z 25006KT 10SM OVC015 16/12 A2986 RMK AO2=
200906051553 METAR KPAE 051553Z 25006KT 10SM OVC013 16/12 A2987 RMK AO2 SLP110 T01560122=
200906051453 METAR KPAE 051453Z 21005KT 10SM OVC011 16/12 A2987 RMK AO2 SLP110 T01610122 58001=
200906051353 METAR KPAE 051353Z 21005KT 10SM BKN011 16/13 A2987 RMK AO2 SLP110 T01560128=
200906051346 SPECI KPAE 051346Z AUTO 21005KT 10SM BKN011 16/13 A2987 RMK AO2=
200906051346 SPECI KPAE 051346Z AUTO 21005KT 10SM BKN011 16/13 A2987 RMK AO2=
200906051253 METAR KPAE 051253Z AUTO 17005KT 10SM FEW017 15/12 A2987 RMK AO2 SLP111 T01500122=
200906051249 SPECI KPAE 051249Z AUTO 18006KT 10SM SCT017 15/12 A2987 RMK AO2=
200906051249 SPECI KPAE 051249Z AUTO 18006KT 10SM SCT017 15/12 A2987 RMK AO2=
200906051220 SPECI KPAE 051220Z AUTO 18007KT 10SM BKN017 15/12 A2987 RMK AO2=
200906051220 SPECI KPAE 051220Z AUTO 18007KT 10SM BKN017 15/12 A2987 RMK AO2=
200906051153 METAR KPAE 051153Z AUTO 18008KT 10SM FEW017 15/12 A2987 RMK AO2 SLP111 T01500117 10183 20150 55001=
200906051100 METAR KPAE NIL=
200906051053 METAR KPAE 051053Z AUTO 18012KT 10SM CLR 16/12 A2987 RMK AO2 SLP111 T01610122=
200906050953 METAR KPAE 050953Z AUTO 18010KT 10SM CLR 17/12 A2987 RMK AO2 SLP111 T01670122=
200906050853 METAR KPAE 050853Z AUTO 18009KT 10SM CLR 18/12 A2987 RMK AO2 SLP112 T01780117 51010=
200906050753 METAR KPAE 050753Z AUTO 18012KT 10SM CLR 18/12 A2987 RMK AO2 SLP110 T01780117 402830167=
200906050653 METAR KPAE 050653Z AUTO 16014G21KT 10SM CLR 18/12 A2986 RMK AO2 PK WND 19027/0610 SLP108 T01830117=
200906050553 METAR KPAE 050553Z AUTO 18018G23KT 10SM CLR 18/12 A2984 RMK AO2 PK WND 18026/0522 SLP102 T01830117 10283 20183 53033=
200906050453 METAR KPAE 050453Z AUTO 22011KT 10SM CLR 23/09 A2981 RMK AO2 WSHFT 0435 SLP091 T02330094=
200906050353 METAR KPAE 050353Z AUTO 24003KT 10SM CLR 25/08 A2977 RMK AO2 SLP075 T02500083=
200906050253 METAR KPAE 050253Z 35005KT 10SM CLR 27/09 A2974 RMK AO2 SLP068 T02720089 56006=
200906050153 METAR KPAE 050153Z 36004KT 10SM CLR 28/09 A2975 RMK AO2 SLP068 T02780089=
200906050053 METAR KPAE 050053Z 36006KT 10SM CLR 28/09 A2975 RMK AO2 SLP069 T02830094=
200906042353 METAR KPAE 042353Z 36006KT 10SM CLR 28/11 A2976 RMK AO2 SLP074 T02830106 10283 20228 58021=
200906042253 METAR KPAE 042253Z 36007KT 10SM CLR 28/10 A2979 RMK AO2 SLP083 T02780100=
200906042153 METAR KPAE 042153Z 36006KT 10SM CLR 27/11 A2981 RMK AO2 SLP089 T02720106=
200906042053 METAR KPAE 042053Z 35006KT 10SM CLR 27/09 A2983 RMK AO2 SLP095 T02670094 58013=
200906041953 METAR KPAE 041953Z 36006KT 10SM CLR 25/11 A2984 RMK AO2 SLP100 T02500111=
200906041853 METAR KPAE 041853Z 01006KT 10SM CLR 24/11 A2986 RMK AO2 SLP106 T02390106=
200906041753 METAR KPAE 041753Z 01005KT 10SM CLR 23/10 A2986 RMK AO2 SLP110 T02280100 10233 20172 58008=
200906041653 METAR KPAE 041653Z 34004KT 10SM CLR 22/09 A2988 RMK AO2 SLP113 T02220089=
200906041553 METAR KPAE 041553Z 03006KT 10SM CLR 21/08 A2988 RMK AO2 SLP115 T02110083=
200906041453 METAR KPAE 041453Z 01004KT 10SM CLR 20/08 A2989 RMK AO2 SLP117 T02000078 56003=
200906041353 METAR KPAE 041353Z 00000KT 10SM CLR 19/09 A2989 RMK AO2 SLP117 T01940094=
200906041253 METAR KPAE 041253Z AUTO 00000KT 10SM CLR 17/09 A2990 RMK AO2 SLP119 T01720089=
200906041153 METAR KPAE 041153Z AUTO 00000KT 10SM CLR 18/08 A2990 RMK AO2 SLP120 T01830083 10217 20167 58006=
200906041053 METAR KPAE 041053Z AUTO 06003KT 10SM CLR 18/09 A2991 RMK AO2 SLP123 T01780094=
200906040953 METAR KPAE 040953Z AUTO 00000KT 10SM CLR 19/08 A2991 RMK AO2 SLP124 T01890078=
200906040853 METAR KPAE 040853Z AUTO 11003KT 10SM CLR 20/08 A2992 RMK AO2 SLP126 T02000083 58000=
200906040753 METAR KPAE 040753Z AUTO 00000KT 10SM CLR 20/07 A2992 RMK AO2 SLP128 T02000072 402830161=
200906040653 METAR KPAE 040653Z AUTO 00000KT 10SM CLR 21/06 A2993 RMK AO2 SLP130 T02110061=
200906040553 METAR KPAE 040553Z AUTO 00000KT 10SM CLR 22/07 A2992 RMK AO2 SLP127 T02170067 10283 20206 50008=
200906040453 METAR KPAE 040453Z AUTO 00000KT 10SM CLR 22/08 A2992 RMK AO2 SLP127 T02170078=
200906040353 METAR KPAE 040353Z AUTO 00000KT 10SM CLR 23/09 A2990 RMK AO2 SLP121 T02330094=
200906040253 METAR KPAE 040253Z 36006KT 10SM CLR 26/09 A2989 RMK AO2 SLP118 T02560089 56013=
200906040153 METAR KPAE 040153Z VRB04KT 10SM CLR 27/08 A2990 RMK AO2 SLP122 T02670083=
200906040053 METAR KPAE 040053Z 35005KT 10SM CLR 28/08 A2991 RMK AO2 SLP125 T02780083=
200906032353 METAR KPAE 032353Z 36006KT 10SM CLR 28/07 A2993 RMK AO2 SLP133 T02780072 10283 20239 58012=
200906032253 METAR KPAE 032253Z 36009KT 330V040 10SM CLR 27/08 A2995 RMK AO2 SLP138 T02720083=
200906032153 METAR KPAE 032153Z VRB05KT 10SM CLR 27/11 A2996 RMK AO2 SLP141 T02720106=
200906032053 METAR KPAE 032053Z VRB04KT 10SM CLR 27/09 A2997 RMK AO2 SLP144 T02670094 58011=
200906031953 METAR KPAE 031953Z 36005KT 10SM CLR 26/09 A2998 RMK AO2 SLP149 T02560089=
200906031853 METAR KPAE 031853Z 32005KT 10SM CLR 24/11 A3000 RMK AO2 SLP155 T02440106=
200906031753 METAR KPAE 031753Z 00000KT 10SM CLR 24/08 A3000 RMK AO2 SLP156 T02390083 10239 20161 58001=
200906031653 METAR KPAE 031653Z 01003KT 10SM CLR 24/10 A3000 RMK AO2 SLP157 T02390100=
200906031553 METAR KPAE 031553Z 11003KT 10SM CLR 23/06 A3001 RMK AO2 SLP158 T02280056=
200906031453 METAR KPAE 031453Z 05003KT 10SM CLR 21/06 A3000 RMK AO2 SLP156 T02110061 51007=
200906031353 METAR KPAE 031353Z 07005KT 10SM CLR 19/07 A3000 RMK AO2 SLP154 T01890067=
200906031253 METAR KPAE 031253Z AUTO 06003KT 10SM CLR 17/06 A2999 RMK AO2 SLP152 T01720061=
200906031153 METAR KPAE 031153Z AUTO 11004KT 10SM CLR 17/08 A2998 RMK AO2 SLP149 T01670083 10200 20167 50001=
200906031053 METAR KPAE 031053Z AUTO 00000KT 10SM CLR 17/08 A2998 RMK AO2 SLP150 T01720083=
200906030953 METAR KPAE 030953Z AUTO 00000KT 10SM CLR 19/07 A2998 RMK AO2 SLP149 T01890067=
200906030853 METAR KPAE 030853Z AUTO 03005KT 10SM CLR 19/07 A2998 RMK AO2 SLP147 T01940067 50003=
200906030753 METAR KPAE 030753Z AUTO 00000KT 10SM CLR 19/07 A2998 RMK AO2 SLP149 T01940067 402890156=
200906030653 METAR KPAE 030653Z AUTO 03003KT 10SM CLR 19/07 A2998 RMK AO2 SLP147 T01940067=
200906030553 METAR KPAE 030553Z AUTO 36003KT 10SM CLR 19/08 A2997 RMK AO2 SLP145 T01890078 10289 20183 51012=
200906030453 METAR KPAE 030453Z AUTO 01005KT 10SM CLR 19/08 A2996 RMK AO2 SLP142 T01890078=
200906030353 METAR KPAE 030353Z AUTO 35005KT 10SM CLR 21/09 A2995 RMK AO2 SLP137 T02110094=
200906030253 METAR KPAE 030253Z 35004KT 10SM CLR 24/10 A2993 RMK AO2 SLP132 T02440100 55003=
200906030153 METAR KPAE 030153Z 35005KT 10SM CLR 27/09 A2993 RMK AO2 SLP130 T02670089=
200906030053 METAR KPAE 030053Z 35007KT 330V030 10SM CLR 28/08 A2993 RMK AO2 SLP131 T02780078=
200906022353 METAR KPAE 022353Z 36007KT 10SM CLR 28/10 A2994 RMK AO2 SLP136 T02780100 10278 20250 58012=
200906022253 METAR KPAE 022253Z 34008KT 10SM CLR 27/10 A2996 RMK AO2 SLP143 T02670100=
200906022153 METAR KPAE 022153Z 34005KT 10SM CLR 26/09 A2997 RMK AO2 SLP144 T02610094=
200906022053 METAR KPAE 022053Z 36004KT 10SM CLR 26/09 A2998 RMK AO2 SLP148 T02610094 57005=
200906021953 METAR KPAE 021953Z 01005KT 10SM CLR 27/10 A2998 RMK AO2 SLP150 T02670100=
200906021853 METAR KPAE 021853Z VRB04KT 10SM CLR 26/09 A2999 RMK AO2 SLP152 T02560089=
200906021753 METAR KPAE 021753Z 31003KT 10SM CLR 25/09 A3000 RMK AO2 SLP154 T02500089 10256 20156 51004=
200906021653 METAR KPAE 021653Z 36004KT 10SM CLR 23/11 A3000 RMK AO2 SLP154 T02330106=
200906021553 METAR KPAE 021553Z 08006KT 10SM CLR 23/06 A2999 RMK AO2 SLP153 T02330061=
200906021453 METAR KPAE 021453Z 10006KT 10SM CLR 22/07 A2998 RMK AO2 SLP150 T02220067 51008=
200906021353 METAR KPAE 021353Z 06005KT 10SM CLR 20/08 A2998 RMK AO2 SLP147 T02000078=
200906021253 METAR KPAE 021253Z 00000KT 10SM CLR 16/09 A2997 RMK AO2 SLP145 T01610089=
200906021153 METAR KPAE 021153Z 11003KT 10SM CLR 17/09 A2996 RMK AO2 SLP142 T01720089 10194 20167 51006=
200906021053 METAR KPAE 021053Z 12005KT 10SM CLR 17/08 A2995 RMK AO2 SLP140 T01720083=
200906020953 METAR KPAE 020953Z 00000KT 10SM CLR 18/07 A2995 RMK AO2 SLP138 T01780072=
200906020853 METAR KPAE 020853Z 00000KT 10SM CLR 18/06 A2994 RMK AO2 SLP136 T01780056 51005=
200906020753 METAR KPAE 020753Z 00000KT 10SM CLR 17/07 A2994 RMK AO2 SLP136 T01720072 402440111=
200906020653 METAR KPAE 020653Z 00000KT 10SM CLR 19/04 A2994 RMK AO2 SLP134 T01890039=
200906020553 METAR KPAE 020553Z 00000KT 10SM CLR 19/04 A2993 RMK AO2 SLP131 T01890044 10244 20178 53012=
200906020453 METAR KPAE 020453Z 35003KT 10SM CLR 19/06 A2991 RMK AO2 SLP127 T01890056=
200906020353 METAR KPAE 020353Z 35003KT 10SM CLR 19/07 A2989 RMK AO2 SLP120 T01940067=
200906020253 METAR KPAE 020253Z 34005KT 10SM CLR 21/07 A2989 RMK AO2 SLP119 T02110072 53001=
200906020153 METAR KPAE 020153Z 35005KT 10SM CLR 23/08 A2988 RMK AO2 SLP115 T02280078=
200906020053 METAR KPAE 020053Z 35007KT 10SM CLR 23/09 A2988 RMK AO2 SLP115 T02330089=
200906012353 METAR KPAE 012353Z 36008KT 330V030 10SM CLR 24/09 A2989 RMK AO2 SLP118 T02390089 10244 20194 57010=
200906012253 METAR KPAE 012253Z 35007KT 10SM CLR 23/10 A2990 RMK AO2 SLP122 T02330100=
200906012153 METAR KPAE 012153Z 34010KT 10SM CLR 23/10 A2991 RMK AO2 SLP125 T02280100=
200906012053 METAR KPAE 012053Z 01006KT 10SM CLR 23/11 A2992 RMK AO2 SLP128 T02280106 58009=
200906011953 METAR KPAE 011953Z 36007KT 10SM CLR 22/10 A2993 RMK AO2 SLP131 T02220100=
200906011853 METAR KPAE 011853Z 34007KT 10SM CLR 21/11 A2994 RMK AO2 SLP136 T02060111=
200906011753 METAR KPAE 011753Z 01003KT 10SM CLR 19/10 A2994 RMK AO2 SLP138 T01940100 10200 20111 55003=
200906011653 METAR KPAE 011653Z VRB03KT 10SM CLR 19/09 A2994 RMK AO2 SLP137 T01940094=
200906011553 METAR KPAE 011553Z 02003KT 10SM CLR 18/10 A2995 RMK AO2 SLP139 T01780100=
200906011453 METAR KPAE 011453Z 00000KT 10SM CLR 15/08 A2995 RMK AO2 SLP142 T01500078 51006=
200906011353 METAR KPAE 011353Z 00000KT 10SM CLR 14/07 A2995 RMK AO2 SLP141 T01390072=
200906011253 METAR KPAE 011253Z 00000KT 10SM CLR 13/07 A2995 RMK AO2 SLP138 T01280072=
200906011153 METAR KPAE 011153Z 34003KT 10SM CLR 12/07 A2994 RMK AO2 SLP136 T01170067 10161 20111 55001=
200906011053 METAR KPAE 011053Z 36003KT 10SM CLR 12/06 A2993 RMK AO2 SLP134 T01220061=
200906010953 METAR KPAE 010953Z 00000KT 10SM CLR 13/07 A2994 RMK AO2 SLP138 T01280067=
200906010853 METAR KPAE 010853Z 00000KT 10SM CLR 13/08 A2994 RMK AO2 SLP137 T01330083 53004=
200906010753 METAR KPAE 010753Z 01003KT 10SM CLR 14/08 A2993 RMK AO2 SLP135 T01390083 402280111=
200906010653 METAR KPAE 010653Z 01004KT 10SM CLR 14/08 A2993 RMK AO2 SLP134 T01440078=
200906010553 METAR KPAE 010553Z 36003KT 10SM CLR 16/07 A2993 RMK AO2 SLP131 T01610072 10228 20161 51007=
200906010453 METAR KPAE 010453Z 36003KT 10SM CLR 17/06 A2993 RMK AO2 SLP131 T01720061=
200906010353 METAR KPAE 010353Z 35003KT 10SM CLR 18/09 A2991 RMK AO2 SLP128 T01830089=
200906010253 METAR KPAE 010253Z 34004KT 10SM CLR 19/09 A2991 RMK AO2 SLP124 T01940094 55007=
200906010153 METAR KPAE 010153Z VRB06KT 10SM CLR 22/08 A2990 RMK AO2 SLP124 T02220078=
200906010053 METAR KPAE 010053Z 34007KT 10SM CLR 23/07 A2991 RMK AO2 SLP127 T02280072=

# No short TAF reports from KPAE in databse.

###################################
#  large TAF from KPAE
###################################
200906302327 TAF KPAE 302327Z 0100/0124 34008KT P6SM SKC FM010600 VRB04KT P6SM
                       SKC FM011200 35006KT P6SM SKC FM011800 35008KT
                       P6SM SKC=
200906301734 TAF KPAE 301734Z 3018/0118 32008KT P6SM SKC FM010600 03004KT P6SM
                       SKC FM011200 35006KT P6SM FEW030
                      TEMPO 0112/0114 5SM BR BKN003=
200906301331 KPAE 301331Z 3014/0112 00000KT P6SM SKC
                      TEMPO 3014/3016 5SM BR BKN003 FM301800 30007KT
                       P6SM SKC FM010600 36004KT P6SM SKC=
200906301140 TAF KPAE 301140Z 3012/0112 00000KT P6SM SKC FM301800 30007KT P6SM
                       SKC FM010600 36004KT P6SM SKC=
200906300536 TAF KPAE 300536Z 3006/0106 06005KT P6SM SKC FM301800 30007KT P6SM
                       SKC=
200906292322 TAF KPAE 292322Z 3000/3024 34004KT P6SM SKC FM301800 30007KT P6SM
                       SKC=
200906291738 TAF KPAE 291738Z 2918/3018 01006KT P6SM SCT250 FM292000 33007G14KT
                       P6SM SKC FM300300 35006KT P6SM SKC=
200906291120 TAF KPAE 291120Z 2912/3012 00000KT P6SM SKC FM291300 36003KT P6SM
                       SCT006 FM291800 34007KT P6SM SKC FM292000
                       33010G16KT P6SM SKC FM300300 35006KT P6SM
                       SCT250=
200906290539 TAF KPAE 290539Z 2906/3006 02006KT P6SM FEW060 FM291200 36005KT
                       P6SM SCT006 FM291800 34007KT P6SM SKC FM292000
                       33010G16KT P6SM SKC FM300300 35006KT P6SM
                       SCT250=
200906282320 TAF KPAE 282320Z 2900/2924 35008KT P6SM SKC FM290400 36007KT P6SM
                       SKC FM291200 36004KT P6SM SCT006 FM291800
                       34007KT P6SM SKC=
200906281740 TAF KPAE 281740Z 2818/2918 VRB06KT P6SM OVC025 FM282200 33010KT
                       P6SM SCT025 FM290400 36004KT P6SM SKC FM291200
                       36004KT P6SM SCT006=
200906281435 KPAE 281435Z 2815/2912 01007KT P6SM SCT020 OVC035 FM281800 35006KT
                       P6SM OVC035 FM282200 33010KT P6SM SCT025
                       BKN050 FM290400 36004KT P6SM SKC=
200906281142 TAF KPAE 281142Z 2812/2912 34007KT P6SM SCT010 OVC022
                      TEMPO 2812/2816 BKN002 OVC007 FM281800 35006KT
                       P6SM OVC025 FM282200 33010KT P6SM SCT025
                       BKN050 FM290400 36004KT P6SM SKC=
200906280525 TAF KPAE 280525Z 2806/2906 34006KT P6SM SCT070 FM280800 01003KT
                       P6SM VCSH SCT020 OVC050 FM281200 01002KT
                       P6SM VCSH SCT006 OVC013 FM281700 35006KT
                       P6SM OVC025 FM282200 34010KT P6SM SKC=
200906272344 TAF KPAE 272344Z 2800/2824 31008KT P6SM FEW200 FM280400 36007KT
                       P6SM BKN080 BKN200
                      PROB30 2809/2812 -RA FM281200 VRB05KT P6SM
                       BKN015 OVC045 FM281800 33008KT P6SM SCT025
                       BKN050=
200906271728 TAF KPAE 271728Z 2718/2818 VRB03KT P6SM SKC FM272000 31008KT P6SM
                       FEW200 FM280300 36007KT P6SM FEW120 BKN200
                       FM281000 VRB05KT P6SM BKN018 BKN045=
200906271120 TAF KPAE 271120Z 2712/2812 36005KT P6SM SCT200 FM271800 33008KT
                       P6SM SCT200 FM280300 36007KT P6SM FEW120
                       BKN200 FM281000 VRB05KT P6SM BKN018 BKN045=
200906270523 TAF KPAE 270523Z 2706/2806 36005KT P6SM FEW050 SCT200 FM271800
                       31008KT P6SM SCT200 FM280300 36007KT P6SM
                       SCT120 BKN200=
200906262330 TAF KPAE 262330Z 2700/2724 33006KT P6SM FEW060 FM270500 02004KT
                       P6SM SCT050 SCT200 FM271800 32008KT P6SM
                       SKC=
200906261732 TAF KPAE 261732Z 2618/2718 VRB04KT P6SM SCT050 FM262000 33008KT
                       P6SM FEW060 FM270500 02004KT P6SM SCT050
                       SCT200=
200906261120 TAF KPAE 261120Z 2612/2712 VRB05KT P6SM SCT030 BKN050 FM261800
                       32007KT P6SM SCT045 FM270300 36006KT P6SM
                       SKC=
200906260521 TAF KPAE 260521Z 2606/2706 36006KT P6SM SCT025 BKN040
                      TEMPO 2607/2611 BKN025 OVC040 FM261100 VRB05KT
                       P6SM OVC022 FM261900 31005KT P6SM SCT040
                       FM270300 36006KT P6SM SCT050=
200906252326 TAF KPAE 252326Z 2600/2624 35006KT P6SM VCSH BKN030 BKN060
                      TEMPO 2600/2604 -SHRA BKN025 FM260600 35007KT
                       P6SM BKN025 FM261000 33005KT P6SM OVC020
                       FM261900 31005KT P6SM SCT040=
200906251724 TAF KPAE 251724Z 2518/2618 19015G20KT P6SM OVC020 FM252100 23008KT
                       P6SM VCSH BKN030 BKN060 FM252300 35006KT
                       P6SM VCSH BKN030 BKN060 FM260600 35007KT
                       P6SM BKN025 FM260900 33005KT P6SM BKN020=
200906251122 TAF KPAE 251122Z 2512/2612 17012G20KT P6SM VCSH BKN022 BKN050
                      TEMPO 2512/2516 SCT027 BKN060 FM251800 19012KT
                       P6SM VCSH BKN025 BKN050 FM252100 23008KT
                       P6SM VCSH BKN035 BKN060 FM252300 35006KT
                       P6SM BKN035 FM260600 36005KT P6SM BKN025=
200906250520 TAF KPAE 250520Z 2506/2606 19014G22KT P6SM VCSH SCT035 SCT070
                      TEMPO 2506/2510 BKN030 FM251000 17012G17KT
                       P6SM VCSH BKN025 FM251900 22011KT P6SM VCSH
                       BKN030 BKN050 FM252200 33008KT P6SM VCSH
                       BKN035 BKN060 FM260500 35006KT P6SM BKN030=
200906242333 TAF KPAE 242333Z 2500/2524 20017G25KT P6SM VCSH SCT040 BKN050 OVC090
                       TEMPO 2500/2504 -SHRA BKN035 FM250600 19012G20KT
                       P6SM VCSH BKN025 BKN040 FM251000 17010G15KT
                       P6SM OVC025 FM252000 21010G15KT P6SM BKN030=
200906241900 KPAE 241900Z 2419/2518 20014G24KT P6SM VCSH SCT030 BKN060 OVC090
                       TEMPO 2419/2422 -SHRA BKN030 FM250500 19012G20KT
                       P6SM VCSH BKN022 BKN040 FM250900 17010KT
                       P6SM BKN017 BKN035 FM251200 17010KT P6SM
                       OVC015=
200906241727 TAF KPAE 241727Z 2418/2518 18012KT P6SM VCSH SCT040 BKN110 OVC200
                       FM242000 18014G24KT P6SM -SHRA BKN035 OVC060
                       FM250500 19012G20KT P6SM VCSH BKN022 BKN040
                       FM250900 17010KT P6SM BKN017 BKN035 FM251200
                       17010KT P6SM OVC015=
200906241120 TAF KPAE 241120Z 2412/2512 14006KT P6SM BKN070 OVC120 FM241700
                       18011KT P6SM VCSH SCT040 OVC070 FM242000
                       18013G20KT P6SM -SHRA BKN035 OVC060 FM250400
                       19012G20KT P6SM VCSH BKN022 BKN040 FM251000
                       17010KT P6SM VCSH BKN017 BKN035=
200906240522 TAF KPAE 240522Z 2406/2506 35005KT P6SM SCT080 OVC120 FM240900
                       VRB04KT P6SM BKN090 OVC120 FM241200 14008KT
                       P6SM BKN080 OVC120 FM242000 18013G22KT P6SM
                       -SHRA BKN050 OVC090 FM250400 19012G20KT
                       P6SM VCSH BKN025 BKN050=
200906232342 TAF KPAE 232342Z 2400/2424 30005KT P6SM FEW045 SCT180 OVC250 FM240800
                       VRB05KT P6SM SCT120 OVC200 FM241200 15007KT
                       P6SM BKN100 OVC200 FM241800 18012G20KT P6SM
                       SCT040 BKN100 OVC150 FM242200 19012G20KT
                       P6SM VCSH BKN040 BKN070 OVC150=
200906231720 TAF KPAE 231720Z 2318/2418 33005KT P6SM SCT004 BKN250 FM231900
                       34007KT P6SM BKN250 FM240800 VRB04KT P6SM
                       SCT140 BKN250 FM241100 16008KT P6SM BKN120
                       OVC200=
200906231149 KPAE 231149Z 2312/2412 35003KT P6SM BKN250
                      TEMPO 2312/2315 BKN006 BKN250 FM231900 34007KT
                       P6SM BKN200 FM240300 VRB03KT P6SM SCT250
                       FM241100 16008KT P6SM SCT120 OVC200=
200906231145 TAF KPAE 231145Z 2312/2412 35003KT P6SM BKN250
                      TEMPO 2312/2315 SCT006 BKN250 FM231900 34007KT
                       P6SM BKN200 FM240300 VRB03KT P6SM SCT250
                       FM241100 16008KT P6SM SCT120 OVC200=
200906230536 TAF KPAE 230536Z 2306/2406 36005KT P6SM SKC FM231100 33004KT P6SM
                       SKC FM231900 34007KT P6SM BKN200 FM240300
                       VRB03KT P6SM SCT250=
200906222328 TAF KPAE 222328Z 2300/2324 VRB03KT P6SM SCT025 OVC040
                      TEMPO 2300/2303 BKN025 OVC040 FM230500 33006KT
                       P6SM BKN040 FM231100 33006KT P6SM SCT060=
200906221745 TAF KPAE 221745Z 2218/2318 18006KT P6SM SCT025 BKN050
                      TEMPO 2218/2220 BKN025 OVC050 FM222300 30007KT
                       P6SM SCT030 BKN060 FM230500 VRB03KT P6SM
                       SCT050=
200906221130 KPAE 221130Z 2211/2312 16007KT P6SM SCT012 BKN050
                      TEMPO 2212/2216 BKN010 OVC050 FM221800 22007KT
                       P6SM SCT025 BKN050 FM222300 30007KT P6SM
                       SCT050 FM231000 VRB03KT P6SM BKN015=
200906221120 TAF KPAE 221120Z 2212/2312 16007KT P6SM SCT012 BKN050 FM221800
                       22007KT P6SM SCT025 BKN050 FM222300 30007KT
                       P6SM SCT050 FM231000 VRB03KT P6SM BKN015=
200906220520 TAF KPAE 220520Z 2206/2306 VRB04KT P6SM VCSH BKN035 OVC070 FM221200
                       18006KT P6SM BKN025 FM221800 22008KT P6SM
                       SCT030 BKN050 FM222200 30007KT P6SM SCT050=
200906212323 TAF KPAE 212323Z 2200/2224 VRB03KT P6SM VCSH SCT035 BKN090
                      TEMPO 2200/2204 31007KT -SHRA OVC020 FM220400
                       17008KT P6SM SCT030 BKN050 FM221200 16007KT
                       P6SM OVC020 FM221900 20008KT P6SM SCT030
                       BKN050=
200906211728 TAF KPAE 211728Z 2118/2218 19005KT P6SM VCSH OVC035
                      TEMPO 2122/2202 31007KT -SHRA OVC020 FM220400
                       17008KT P6SM SCT030 BKN050 FM221200 16007KT
                       P6SM OVC020=
200906211123 TAF KPAE 211123Z 2112/2212 VRB04KT P6SM SCT035 BKN080
                      TEMPO 2113/2117 BKN035 OVC070 FM211700 21007KT
                       P6SM VCSH BKN040 BKN080 FM220000 27012KT
                       P6SM SCT030 BKN060
                      TEMPO 2200/2204 -SHRA BKN030 OVC060 FM220400
                       35005KT P6SM VCSH BKN015=
200906210520 TAF KPAE 210520Z 2106/2206 05005KT P6SM SCT040 BKN080 FM211200
                       VRB04KT P6SM BKN030 BKN080 FM212000 27012KT
                       P6SM VCSH BKN040 BKN080=
200906202327 TAF KPAE 202327Z 2100/2124 32006KT P6SM SCT035 BKN070 FM210500
                       04005KT P6SM BKN080 FM211200 19005KT P6SM
                       OVC015 FM211800 20007KT P6SM SCT025 BKN045
                       FM212200 31010KT P6SM SCT045 SCT100=
200906201720 TAF KPAE 201720Z 2018/2118 35003KT P6SM SCT018 OVC035 FM202000
                       33006KT P6SM SCT030 BKN050 FM202300 34008KT
                       P6SM SCT040 BKN060 FM210500 04005KT P6SM
                       BKN080 FM211200 19005KT P6SM OVC015=
200906201327 KPAE 201327Z 2013/2112 VRB04KT P6SM SCT020 BKN040 FM201900 33006KT
                       P6SM SCT030 BKN050 FM202300 34008KT P6SM
                       SCT040 BKN060 FM210500 04005KT P6SM BKN080=
200906201130 TAF KPAE 201130Z 2012/2112 06005KT P6SM VCSH SCT015 BKN025 OVC040
                       TEMPO 2013/2016 BKN015 OVC025 FM201700 34005KT
                       P6SM SCT010 BKN030 BKN050 FM201900 33006KT
                       P6SM SCT030 BKN050 FM202300 34008KT P6SM
                       SCT040 BKN060 FM210500 04005KT P6SM BKN080=
200906200544 TAF KPAE 200544Z 2006/2106 VRB03KT P6SM -SHRA SCT012 BKN040 OVC060
                       TEMPO 2006/2010 BKN012 OVC030 FM201000 VRB03KT
                       P6SM BKN012 OVC030 FM201300 VRB03KT P6SM
                       SCT006 BKN012 OVC030
                      TEMPO 2013/2016 BKN006 OVC012 FM201800 28005KT
                       P6SM BKN025 BKN050 FM202000 33007KT P6SM
                       SCT030 BKN050 FM202300 34008KT P6SM SCT040
                       BKN070=
200906200239 KPAE 200239Z 2003/2024 36006KT P6SM -SHRA SCT003 OVC030
                      TEMPO 2003/2004 2SM -SHRA BR BKN003 OVC030
                       FM200400 34009KT P6SM BKN030 OVC050 FM200800
                       20009KT P6SM OVC015 FM201700 16007KT P6SM
                       SCT018 OVC045=
200906192320 TAF KPAE 192320Z 2000/2024 36003KT P6SM VCSH OVC045 FM200400 20011KT
                       P6SM BKN030 FM200800 20009KT P6SM OVC015
                       FM201700 16007KT P6SM SCT018 OVC045=
200906191734 TAF KPAE 191734Z 1918/2018 00000KT P6SM SCT002 OVC008
                      TEMPO 1918/1920 19004KT 4SM -SHRA BKN004
                       OVC012 FM192000 19013KT P6SM VCSH SCT012
                       OVC025 FM200200 20011KT P6SM BKN030 FM200800
                       20009KT P6SM OVC015 FM201700 16007KT P6SM
                       SCT018 OVC045=
200906191404 KPAE 191404Z 1914/2012 VRB03KT P6SM -RA SCT007 OVC012
                      TEMPO 1914/1918 2SM -RA BR OVC007 FM191900
                       18012KT P6SM VCSH SCT020 BKN040
                      TEMPO 1922/2002 5SM SHRA BR BKN015 OVC030
                       FM200200 30010KT P6SM VCSH BKN030=
200906191120 TAF KPAE 191120Z 1912/2012 VRB03KT P6SM -RA OVC020
                      TEMPO 1912/1916 4SM -RA BR OVC012 FM191900
                       18012KT P6SM VCSH SCT020 BKN040
                      TEMPO 1922/2002 5SM SHRA BR BKN015 OVC030
                       FM200200 30010KT P6SM VCSH BKN030=
200906190825 KPAE 190825Z 1908/2006 VRB04KT P6SM VCSH SCT025 OVC060
                      TEMPO 1908/1912 5SM -RA BR BKN025 OVC050
                       FM191200 18010KT 5SM -RA BR BKN015 OVC030
                       FM192200 VRB06KT P6SM VCSH SCT020 BKN040
                       TEMPO 1922/2002 5SM SHRA BR BKN015 OVC030=
200906190717 TAF KPAE 190717Z 1907/2006 VRB04KT P6SM VCSH SCT030 OVC080 FM191100
                       18010KT P6SM -SHRA BKN015 OVC030 FM192200
                       VRB06KT P6SM VCSH SCT020 BKN040
                      TEMPO 1922/2002 5SM SHRA BR BKN015 OVC030=
200906182323 TAF KPAE 182323Z 1900/1924 30009KT P6SM SCT040 BKN180 FM190500
                       VRB03KT P6SM SCT040 BKN150 FM191200 16007KT
                       P6SM BKN012 OVC025
                      PROB30 1914/1918 -RA FM192000 VRB05KT P6SM
                       VCSH SCT015 BKN025 BKN040
                      TEMPO 1920/1924 -SHRA BKN015 OVC025=
200906181959 KPAE 181959Z 1820/1918 20008KT P6SM SCT022 BKN050 BKN060 FM182200
                       26005KT P6SM BKN050 BKN200 FM190500 VRB03KT
                       P6SM SCT050 SCT100 BKN200 FM191300 18007KT
                       P6SM SCT015 SCT100 BKN200=
200906181729 TAF KPAE 181729Z 1818/1918 25005KT P6SM BKN020 OVC035 FM182000
                       24006KT P6SM BKN040 FM182200 30006KT P6SM
                       SCT050 BKN200 FM190500 VRB03KT P6SM SCT050
                       SCT100 BKN200 FM191300 18007KT P6SM SCT015
                       SCT100 BKN200=
200906181623 KPAE 181623Z 1816/1912 17004KT P6SM FEW018 SCT035 OVC050
                      TEMPO 1816/1818 BKN035 OVC050 FM182000 24006KT
                       P6SM BKN040 FM182200 30006KT P6SM SCT050
                       BKN200 FM190500 VRB03KT P6SM BKN040 OVC100
                       FM191000 18007KT P6SM VCSH OVC025=
200906181136 TAF KPAE 181136Z 1812/1912 VRB04KT P6SM OVC007
                      TEMPO 1814/1818 SCT010 BKN030 FM181900 24006KT
                       P6SM BKN040 FM182100 30006KT P6SM SCT050
                       BKN200 FM190500 VRB03KT P6SM BKN040 OVC100
                       FM191000 18007KT P6SM VCSH OVC025=
200906181046 KPAE 181046Z 1811/1906 VRB03KT P6SM BKN007 OVC022
                      TEMPO 1812/1816 SCT010 BKN025 FM182000 24006KT
                       P6SM SCT030 BKN050=
200906180521 TAF KPAE 180521Z 1806/1906 VRB04KT P6SM BKN050 FM180900 18004KT
                       P6SM VCSH BKN025 FM182000 24008KT P6SM BKN040=
200906180446 KPAE 180446Z 1805/1824 VRB04KT P6SM BKN050 FM180900 18004KT P6SM
                       VCSH BKN025 FM182000 24008KT P6SM BKN040=
200906172326 TAF KPAE 172326Z 1800/1824 25005KT P6SM SCT022 OVC040 FM180100
                       30005KT P6SM BKN025 BKN040 FM180400 04003KT
                       P6SM VCSH SCT008 OVC015 FM181000 04003KT
                       4SM -DZ BR OVC005 FM181800 VRB03KT P6SM
                       SCT008 BKN015 OVC025 FM182100 VRB03KT P6SM
                       SCT020 BKN035=
200906171728 TAF KPAE 171728Z 1718/1818 VRB05KT P6SM OVC016 FM172000 VRB03KT
                       P6SM SCT025 OVC035 FM180100 30005KT P6SM
                       BKN035 BKN050 FM180500 04003KT 4SM -DZ BR
                       SCT003 OVC008
                      TEMPO 1811/1815 2SM -DZ BR OVC003=
200906171121 TAF KPAE 171121Z 1712/1812 02004KT P6SM OVC025 FM171500 VRB03KT
                       P6SM BKN015 OVC025 FM171900 VRB03KT P6SM
                       BKN025 OVC040 FM180000 30005KT P6SM BKN030
                       BKN070 FM180500 36005KT P6SM BKN025 OVC040=
200906170541 TAF KPAE 170541Z 1706/1806 VRB03KT P6SM OVC100 FM170900 VRB03KT
                       P6SM BKN050 OVC080 FM171200 16004KT P6SM
                       BKN025 OVC040 FM171500 18005KT P6SM BKN015
                       OVC030 FM171800 19005KT P6SM BKN030 OVC050
                       FM172000 30006KT P6SM BKN030 BKN070 FM180500
                       36005KT P6SM BKN050 BKN100=
200906162338 TAF KPAE 162338Z 1700/1724 25007KT P6SM FEW030 SCT150 OVC200 FM170500
                       VRB05KT P6SM SCT030 BKN050 OVC100 FM171200
                       18005KT P6SM BKN020 OVC040 FM171900 21008KT
                       P6SM BKN030=
200906161739 TAF KPAE 161739Z 1618/1718 VRB05KT P6SM BKN200 FM170000 36005KT
                       P6SM BKN120 OVC200 FM170800 12005KT P6SM
                       SCT030 BKN050 OVC100 FM171200 18005KT P6SM
                       BKN020 OVC040=
200906161120 TAF KPAE 161120Z 1612/1712 02003KT P6SM SCT008 BKN200
                      TEMPO 1613/1617 BKN008 BKN200 FM161800 24005KT
                       P6SM OVC200 FM162300 28005KT P6SM OVC150
                       FM170100 31006KT P6SM BKN100 OVC150 FM170800
                       36005KT P6SM BKN025 OVC040=
200906160520 TAF KPAE 160520Z 1606/1706 36005KT P6SM SCT200 FM160900 04003KT
                       P6SM SCT200 FM161400 VRB03KT P6SM SCT015
                       BKN200
                      TEMPO 1614/1617 BKN015 BKN200 FM161800 24005KT
                       P6SM SCT030 BKN200 FM162300 25007KT P6SM
                       BKN150=
200906152334 TAF KPAE 152334Z 1600/1624 30005KT P6SM SCT040 BKN250 FM160900
                       VRB05KT P6SM BKN030 FM161800 24009KT P6SM
                       SCT040 BKN200=
200906151727 TAF KPAE 151727Z 1518/1618 VRB05KT P6SM BKN017 FM151900 30005KT
                       P6SM SCT040 FM160000 34006KT P6SM SCT040
                       FM160800 18004KT P6SM BKN025=
200906151120 TAF KPAE 151120Z 1512/1612 20004KT P6SM OVC030
                      TEMPO 1512/1516 OVC015 FM152000 30007KT P6SM
                       SCT025 BKN250=
200906150524 TAF KPAE 150524Z 1506/1606 36004KT P6SM OVC025 FM151100 20004KT
                       P6SM OVC010
                      TEMPO 1512/1516 OVC006 FM152200 30007KT P6SM
                       SCT025 BKN250=
200906142320 TAF KPAE 142320Z 1500/1524 23009KT P6SM OVC025
                      TEMPO 1500/1503 SCT025 FM150300 36004KT P6SM
                       SCT030 BKN250 FM151100 20004KT P6SM SCT003
                       OVC008
                      TEMPO 1513/1517 2SM BR OVC003 FM152200 30007KT
                       P6SM SCT025 BKN250=
200906142116 KPAE 142116Z 1421/1518 22008KT P6SM OVC019 FM142300 29006KT P6SM
                       SCT025 BKN250
                      TEMPO 1423/1501 BKN025 FM150400 36004KT P6SM
                       BKN250 FM151100 20004KT P6SM SCT003 OVC008
                       TEMPO 1513/1517 2SM BR OVC003=
200906141730 TAF KPAE 141730Z 1418/1518 24007KT P6SM OVC013 FM141900 20006KT
                       P6SM BKN015 OVC030
                      TEMPO 1419/1421 SCT015 BKN030 FM142100 29006KT
                       P6SM SCT030 BKN250
                      TEMPO 1421/1422 BKN030 FM150400 36004KT P6SM
                       BKN250 FM151100 20004KT P6SM SCT003 OVC008
                       TEMPO 1513/1517 2SM BR OVC003=
200906141120 TAF KPAE 141120Z 1412/1512 16004KT P6SM OVC010
                      TEMPO 1412/1416 2SM BR OVC008 FM141900 20006KT
                       P6SM SCT012 OVC030 FM142100 29006KT P6SM
                       SCT030 BKN120 FM150100 36004KT P6SM FEW030
                       BKN120 FM151100 20004KT P6SM OVC006=
200906140922 KPAE 140922Z 1409/1506 34004KT P6SM OVC010
                      TEMPO 1413/1416 2SM BR OVC008 FM142000 20006KT
                       P6SM SCT010 OVC030 FM142100 29006KT P6SM
                       SCT030 BKN120 FM150100 36004KT P6SM FEW030
                       BKN120=
200906140520 TAF KPAE 140520Z 1406/1506 34004KT P6SM BKN200 FM141200 16004KT
                       P6SM OVC004
                      TEMPO 1413/1417 1SM BR OVC002 FM142000 20006KT
                       P6SM SCT010 OVC030 FM142100 29006KT P6SM
                       SCT030 BKN120 FM150100 36004KT P6SM FEW030
                       BKN120=
200906132323 TAF KPAE 132323Z 1400/1424 30006KT P6SM FEW040 BKN200 FM140500
                       34004KT P6SM BKN200 FM141200 16004KT P6SM
                       OVC004
                      TEMPO 1413/1417 1SM BR OVC002 FM141900 20006KT
                       P6SM SCT010 OVC030 FM142100 29006KT P6SM
                       SCT030 BKN120=
200906131720 TAF KPAE 131720Z 1318/1418 00000KT P6SM OVC004
                      TEMPO 1319/1320 SCT006 FM132000 28005KT P6SM
                       SCT010 SCT200 FM132300 32008KT P6SM BKN200
                       FM141200 16004KT P6SM OVC004
                      TEMPO 1413/1417 1SM BR OVC002=
200906131605 KPAE 131605Z 1316/1412 34004KT P6SM OVC004
                      TEMPO 1316/1317 2SM BR OVC002 FM131700 32005KT
                       P6SM BKN006
                      TEMPO 1317/1319 SCT006 FM131900 28005KT P6SM
                       SCT010 SCT200 FM132300 32008KT P6SM BKN200=
200906131418 KPAE 131418Z 1314/1412 VRB03KT 1SM BR OVC002
                      TEMPO 1314/1317 BKN004 FM131700 32005KT P6SM
                       SCT008 BKN200 FM131800 28005KT P6SM SCT010
                       SCT200 FM132300 32008KT P6SM BKN200=
200906131133 TAF KPAE 131133Z 1312/1412 36005KT P6SM BKN005 BKN200
                      TEMPO 1312/1316 SCT005 BKN200 FM131600 32005KT
                       P6SM SCT200 FM131800 28005KT P6SM SCT010
                       SCT200 FM132300 32008KT P6SM BKN200=
200906130910 KPAE 130910Z 1309/1406 01005KT P6SM BKN006 BKN200
                      TEMPO 1309/1312 SCT006 BKN200 FM131200 VRB03KT
                       P6SM BKN006 BKN200 FM131700 26005KT P6SM
                       SCT010 BKN200 FM131900 28006KT P6SM BKN200
                       FM132300 32008KT P6SM BKN200=
200906130534 TAF KPAE 130534Z 1306/1406 01005KT P6SM BKN200 FM131500 VRB03KT
                       P6SM SCT018 BKN200 FM131700 26005KT P6SM
                       BKN200 FM132300 32008KT P6SM BKN200=
200906122324 TAF KPAE 122324Z 1300/1324 29008KT P6SM SCT040 FM130100 32008KT
                       P6SM SCT040 BKN120
                      TEMPO 1301/1305 BKN040 BKN120 FM131100 VRB03KT
                       P6SM OVC010 FM131900 32005KT P6SM SCT030
                       BKN250=
200906121738 TAF KPAE 121738Z 1218/1318 00000KT P6SM SCT011 OVC070
                      TEMPO 1218/1220 BKN011 OVC070 FM122000 29008KT
                       P6SM SCT040 BKN070 FM130000 32008KT P6SM
                       SCT040 BKN120
                      TEMPO 1300/1304 BKN040 BKN120 FM131100 VRB03KT
                       P6SM OVC010=
200906121258 KPAE 121258Z 1213/1312 VRB03KT P6SM SCT008 BKN050
                      TEMPO 1213/1217 BKN008 BKN050 FM121900 32008KT
                       P6SM SCT250 FM131000 VRB03KT P6SM BKN050=
200906121124 TAF KPAE 121124Z 1212/1312 01006KT P6SM BKN060 FM121300 VRB03KT
                       P6SM SCT018 BKN050
                      TEMPO 1213/1217 BKN018 BKN050 FM121900 32008KT
                       P6SM SCT250 FM131000 VRB03KT P6SM BKN050=
200906120543 TAF KPAE 120543Z 1206/1306 01006KT P6SM SCT250 FM121500 VRB03KT
                       P6SM SCT011 SCT250
                      TEMPO 1215/1217 BKN011 BKN250 FM121900 32008KT
                       P6SM SCT250=
200906112342 TAF KPAE 112342Z 1200/1224 35006KT P6SM FEW060 FM120600 VRB03KT
                       P6SM SCT120 FM121100 VRB03KT P6SM FEW009
                       SCT120 FM121400 VRB03KT P6SM BKN009 BKN120
                       FM121800 VRB03KT P6SM SCT012 FM121900 31006KT
                       P6SM SCT030 SCT050=
200906111744 TAF KPAE 111744Z 1118/1218 35007KT P6SM SCT060
                      TEMPO 1118/1120 BKN060 FM120600 VRB03KT P6SM
                       SCT120 FM121100 VRB03KT P6SM FEW009 SCT120
                       FM121400 VRB03KT P6SM BKN009 BKN120=
200906111133 TAF KPAE 111133Z 1112/1212 03006KT P6SM BKN050 FM111600 34006KT
                       P6SM SCT060 SCT250=
200906110540 TAF KPAE 110540Z 1106/1206 02008KT P6SM SCT250 FM111400 VRB03KT
                       P6SM SCT005 SCT250 FM111800 30006KT P6SM
                       SCT060 BKN120=
200906102327 TAF KPAE 102327Z 1100/1124 34006KT P6SM FEW060 FM110400 VRB03KT
                       P6SM SCT130 FM111200 VRB03KT P6SM SCT005
                       BKN130
                      TEMPO 1116/1118 BKN005 BKN130 FM111800 VRB03KT
                       P6SM SCT009 BKN130 FM111900 30006KT P6SM
                       FEW030 SCT060CB SCT130=
200906101741 TAF KPAE 101741Z 1018/1118 VRB03KT P6SM SKC FM102000 34008KT P6SM
                       FEW060 FM110400 VRB03KT P6SM SCT130 FM111200
                       VRB03KT P6SM SCT005 SCT130
                      TEMPO 1116/1118 BKN005 BKN130=
200906101131 TAF KPAE 101131Z 1012/1112 VRB03KT P6SM SCT250 FM102200 31006KT
                       P6SM SCT250=
200906100545 TAF KPAE 100545Z 1006/1106 VRB03KT P6SM SCT250
                      TEMPO 1013/1015 5SM BR SCT002 FM102200 31006KT
                       P6SM SCT250=
200906092330 TAF KPAE 092330Z 1000/1024 35008KT P6SM SKC FM100400 VRB03KT P6SM
                       SKC FM101200 VRB03KT 6SM BR SCT005
                      TEMPO 1012/1015 2SM BR BKN003 FM101500 VRB03KT
                       6SM BR BKN005 FM101800 21006KT P6SM BKN009
                       BKN130 FM101900 21006KT P6SM FEW030 SCT060
                       SCT130=
200906091748 TAF KPAE 091748Z 0918/1018 33007KT P6SM SKC FM100400 VRB03KT P6SM
                       SKC FM101200 VRB03KT 6SM BR SCT005
                      TEMPO 1012/1015 2SM BR BKN003 FM101500 VRB03KT
                       6SM BR BKN005=
200906091128 TAF KPAE 091128Z 0912/1012 VRB03KT P6SM SCT250 FM091700 31006KT
                       P6SM SCT250=
200906090528 TAF KPAE 090528Z 0906/1006 VRB03KT P6SM SCT250 FM091700 31006KT
                       P6SM SCT250=
200906082324 TAF KPAE 082324Z 0900/0924 01005KT P6SM FEW050 FM090400 VRB03KT
                       P6SM SKC FM091200 00000KT P6SM VCFG FEW005
                       FM091700 31006KT P6SM SKC=
200906081729 TAF KPAE 081729Z 0818/0918 32006KT P6SM FEW028 SCT070
                      TEMPO 0818/0820 FEW028 BKN070 FM082000 32006KT
                       P6SM FEW070 FM090400 36004KT P6SM SKC FM091200
                       00000KT 6SM BR SCT007
                      TEMPO 0913/0917 4SM BR BKN004=
200906081439 KPAE 081439Z 0815/0912 VRB03KT P6SM FEW012 SCT060
                      TEMPO 0815/0817 FEW012 BKN060 FM081700 29006KT
                       P6SM BKN060 FM082200 31007KT P6SM SCT050
                       FM090900 VRB03KT P6SM SCT010 BKN045=
200906081122 TAF KPAE 081122Z 0812/0912 VRB03KT P6SM SCT035 BKN050 FM081800
                       29006KT P6SM SCT040 BKN060 FM082200 31007KT
                       P6SM SCT050 FM090900 VRB03KT P6SM SCT010
                       BKN045=
200906080520 TAF KPAE 080520Z 0806/0906 VRB04KT P6SM SCT035 BKN050 FM081000
                       17004KT P6SM BKN028 BKN060 FM081800 30006KT
                       P6SM SCT035 BKN060 FM082200 31007KT P6SM
                       SCT045=
200906072321 TAF KPAE 072321Z 0800/0824 26005KT P6SM FEW040 BKN080 FM080400
                       VRB03KT P6SM SCT028 BKN060 FM081000 17004KT
                       P6SM BKN028 BKN060 FM081900 30006KT P6SM
                       SCT035 BKN060=
200906071722 TAF KPAE 071722Z 0718/0818 VRB05KT P6SM OVC045 FM072100 21007KT
                       P6SM SCT035 BKN060 FM081000 17004KT P6SM
                       BKN023=
200906071120 TAF KPAE 071120Z 0712/0812 16006KT P6SM SCT035 OVC060
                      TEMPO 0713/0717 BKN027 OVC050 FM071800 20006KT
                       P6SM SCT027 OVC050 FM072100 21007KT P6SM
                       SCT035 BKN060 FM080900 17004KT P6SM BKN025=
200906070520 TAF KPAE 070520Z 0706/0806 17006KT P6SM SCT027 OVC050
                      TEMPO 0706/0709 BKN025 OVC040 FM070900 17006KT
                       P6SM BKN022 OVC040 FM071300 17006KT P6SM
                       BKN018 OVC030 FM071900 18006KT P6SM SCT025
                       BKN040 FM072200 VRB05KT P6SM SCT035 BKN060=
200906070114 KPAE 070114Z 0701/0724 VRB04KT P6SM BKN028 OVC040 FM070800 17006KT
                       P6SM BKN020 OVC040 FM071400 17006KT P6SM
                       BKN018 OVC030 FM071900 18007KT P6SM SCT025
                       BKN040=
200906062320 TAF KPAE 062320Z 0700/0724 21005KT P6SM SCT029 OVC040 FM070800
                       17006KT P6SM BKN025 OVC040 FM071400 17006KT
                       P6SM BKN018 OVC030 FM071900 18007KT P6SM
                       SCT025 BKN040=
200906061733 TAF KPAE 061733Z 0618/0718 20011KT P6SM OVC035 FM062200 19009KT
                       P6SM SCT030 BKN045 FM071000 17006KT P6SM
                       BKN025 OVC040 FM071400 17006KT P6SM BKN018
                       OVC030=
200906061401 KPAE 061401Z 0614/0712 18012KT P6SM SCT017 OVC035
                      TEMPO 0614/0618 5SM -DZ BR BKN017 OVC035
                       FM061900 18010KT P6SM BKN025 BKN040 FM062200
                       19009KT P6SM SCT030 BKN045 FM070500 17006KT
                       P6SM BKN025 OVC040=
200906061121 TAF KPAE 061121Z 0612/0712 18012KT P6SM BKN017 OVC030 FM061900
                       18010KT P6SM BKN025 BKN040 FM062200 19009KT
                       P6SM SCT030 BKN045 FM070500 17006KT P6SM
                       BKN025 OVC040=
200906060520 TAF KPAE 060520Z 0606/0706 18012G19KT P6SM BKN020 BKN050
                      TEMPO 0606/0608 BKN015 OVC035 FM060800 18011KT
                       P6SM BKN015 OVC025 FM061200 18010KT P6SM
                       BKN011 OVC020 FM061900 18008KT P6SM BKN022
                       BKN045 FM062200 21006KT P6SM SCT025 BKN045=
200906052320 TAF KPAE 052320Z 0600/0624 25013KT P6SM SCT028 BKN250 FM060300
                       18012G19KT P6SM SCT025 BKN250
                      TEMPO 0603/0607 BKN025 OVC250 FM060700 18011KT
                       P6SM SCT014 OVC024 FM061200 18010KT P6SM
                       BKN014 OVC020 FM061900 18008KT P6SM BKN020
                       FM062300 21006KT P6SM SCT025 BKN045=
200906051721 TAF KPAE 051721Z 0518/0618 23006KT P6SM OVC019 FM052100 22007KT
                       P6SM SCT023 SCT250 FM052300 20008KT P6SM
                       SCT250 FM060300 18012G18KT P6SM SCT250 FM061000
                       18011KT P6SM OVC010 FM061700 18008KT P6SM
                       BKN020=
200906051244 KPAE 051244Z 0513/0612 18007KT P6SM BKN015 FM051700 21005KT P6SM
                       SCT015 SCT120 FM051900 21008KT P6SM FEW120
                       FM061000 18006KT P6SM OVC004=
200906051120 TAF KPAE 051120Z 0512/0612 18010KT P6SM SCT120
                      TEMPO 0514/0517 OVC008 FM051700 21005KT P6SM
                       SCT004 SCT120 FM051900 21008KT P6SM FEW120
                       FM061000 18006KT P6SM OVC004=
200906050520 TAF KPAE 050520Z 0506/0606 22010KT P6SM SCT120 FM051300 18010KT
                       P6SM OVC004 FM051900 21005KT P6SM SCT007
                       SCT120=
200906042330 TAF KPAE 042330Z 0500/0524 36007KT P6SM SKC FM050400 22009KT P6SM
                       SCT140 FM051300 18011KT P6SM OVC004 FM051900
                       21005KT P6SM SCT007 SCT120=
200906041723 TAF KPAE 041723Z 0418/0518 34004KT P6SM SCT250 FM050400 22009KT
                       P6SM SCT200 FM051300 18011KT P6SM OVC004=
200906041122 TAF KPAE 041122Z 0412/0512 06003KT P6SM SCT250 FM041800 30007KT
                       P6SM SCT250 FM050500 22009KT P6SM BKN200
                       FM051100 18011KT P6SM BKN007=
200906040524 TAF KPAE 040524Z 0406/0506 00000KT P6SM SCT250 FM041800 30007KT
                       P6SM SCT250 FM050530 22009KT P6SM BKN200=
200906032326 TAF KPAE 032326Z 0400/0424 36009KT P6SM SKC FM040400 02004KT P6SM
                       SKC FM041800 30007KT P6SM SKC=
200906031720 TAF KPAE 031720Z 0318/0418 01003KT P6SM SKC FM031900 33010KT P6SM
                       FEW250 FM040400 02004KT P6SM SKC=
200906031131 TAF KPAE 031131Z 0312/0412 03006KT P6SM SCT250 FM031900 33010KT
                       P6SM FEW250 FM040400 02004KT P6SM SKC=
200906030525 TAF KPAE 030525Z 0306/0406 02005KT P6SM BKN250 FM030900 04004KT
                       P6SM SCT250 FM031900 33010KT P6SM FEW250=
200906022330 TAF KPAE 022330Z 0300/0324 34009KT P6SM BKN250 FM030300 02004KT
                       P6SM BKN250 FM032000 35008KT P6SM SCT250=
200906021724 TAF KPAE 021724Z 0218/0318 01005KT P6SM BKN250 FM022100 34010KT
                       P6SM BKN250 FM030300 02004KT P6SM BKN250=
200906021135 TAF KPAE 021135Z 0212/0312 02005KT P6SM SCT250 FM021400 02005KT
                       P6SM SCT120 BKN250 FM022100 34012KT P6SM
                       BKN250 FM030300 03006KT P6SM SCT250=
200906020537 TAF KPAE 020537Z 0206/0306 35008KT P6SM BKN250 FM020900 02005KT
                       P6SM BKN250 FM021800 35010KT P6SM BKN250=
200906012345 TAF KPAE 012345Z 0200/0224 35009KT P6SM BKN250 FM020400 02005KT
                       P6SM BKN250 FM021800 35009KT P6SM BKN250=
200906011720 TAF KPAE 011720Z 0118/0218 35009KT P6SM SCT150 BKN250 FM020400
                       02005KT P6SM SCT250=
200906011133 TAF KPAE 011133Z 0112/0212 34005KT P6SM SCT250 FM012000 36010KT
                       P6SM BKN250 FM020400 04006KT P6SM BKN250=
200906010529 TAF KPAE 010529Z 0106/0206 35005KT P6SM FEW150 BKN250 FM011600
                       33008KT P6SM SCT250=