##########################################################
# Query made at 02/18/2025 19:46:56 UTC
# Time interval: from 10/01/2009 00:00  to 10/31/2009 23:59  UTC
##########################################################

##########################################################
# KPAE, Everett, Snohomish County Airport (United States)
# WMO index: -----. WIGOS ID: Unknown
# Latitude 47-55-23N. Longitude 122-16-57W. Altitude 184 m.
##########################################################

###################################
#  METAR/SPECI from KPAE
###################################
200910312353 METAR KPAE 312353Z 00000KT 5SM -RA OVC041 09/06 A3020 RMK AO2 SLP226 P0003 60021 T00890061 10122 20083 51021=
200910312253 METAR KPAE 312253Z 00000KT 10SM -RA OVC037 09/07 A3018 RMK AO2 SLP219 P0004 T00890067=
200910312153 METAR KPAE 312153Z 34007KT 3SM -RA BR FEW015 BKN032 OVC038 09/07 A3016 RMK AO2 SLP213 P0009 T00890067=
200910312053 METAR KPAE 312053Z 01003KT 3SM +RA BR BKN028 OVC035 09/07 A3013 RMK AO2 RAB25 SLP204 P0005 60005 T00890072 51015=
200910312050 SPECI KPAE 312050Z 35005KT 2 1/2SM RA BR FEW022 BKN028 OVC035 09/07 A3013 RMK AO2 RAB25 P0004=
200910312050 SPECI KPAE 312050Z 35005KT 2 1/2SM RA BR FEW022 BKN028 OVC035 09/07 A3013 RMK AO2 RAB25 P0004=
200910311953 METAR KPAE 311953Z 03008KT 10SM BKN022 BKN028 OVC035 11/07 A3012 RMK AO2 SLP199 T01110067=
200910311853 METAR KPAE 311853Z 02006KT 10SM SCT020 BKN024 OVC029 11/08 A3010 RMK AO2 SLP195 T01110078=
200910311753 METAR KPAE 311753Z 19005KT 10SM FEW012 SCT019 OVC032 12/08 A3009 RMK AO2 SLP190 60000 T01170083 10122 20106 53017=
200910311751 SPECI KPAE 311751Z 20007KT 10SM SCT012 BKN032 OVC060 12/09 A3009 RMK AO2=
200910311751 SPECI KPAE 311751Z 20007KT 10SM SCT012 BKN032 OVC060 12/09 A3009 RMK AO2=
200910311653 METAR KPAE 311653Z 11006KT 10SM BKN014 OVC019 11/08 A3006 RMK AO2 SLP181 T01060083=
200910311553 METAR KPAE 311553Z 08003KT 10SM OVC012 11/08 A3004 RMK AO2 RAB14E49 SLP173 P0000 T01060083=
200910311550 SPECI KPAE 311550Z VRB03KT 10SM OVC014 11/08 A3004 RMK AO2 RAB14E49 P0000=
200910311550 SPECI KPAE 311550Z VRB03KT 10SM OVC014 11/08 A3004 RMK AO2 RAB14E49 P0000=
200910311453 METAR KPAE 311453Z 21013KT 10SM FEW012 OVC018 12/09 A3001 RMK AO2 PK WND 21029/1405 SLP162 T01170089 53032=
200910311417 SPECI KPAE 311417Z 20015G22KT 10SM OVC016 12/09 A2998 RMK AO2 PK WND 21029/1405=
200910311417 SPECI KPAE 311417Z 20015G22KT 10SM OVC016 12/09 A2998 RMK AO2 PK WND 21029/1405=
200910311401 SPECI KPAE 311401Z 21016G22KT 10SM BKN014 OVC022 12/09 A2997 RMK AO2=
200910311401 SPECI KPAE 311401Z 21016G22KT 10SM BKN014 OVC022 12/09 A2997 RMK AO2=
200910311353 METAR KPAE 311353Z AUTO 20015G24KT 10SM BKN017 OVC024 12/09 A2996 RMK AO2 PK WND 20027/1332 SLP146 T01170094=
200910311253 METAR KPAE 311253Z AUTO 18016G22KT 10SM BKN013 OVC090 12/10 A2992 RMK AO2 SLP132 T01170100=
200910311221 SPECI KPAE 311221Z AUTO 18016G24KT 10SM SCT017 OVC095 12/09 A2991 RMK AO2=
200910311221 SPECI KPAE 311221Z AUTO 18016G24KT 10SM SCT017 OVC095 12/09 A2991 RMK AO2=
200910311153 METAR KPAE 311153Z AUTO 19015G24KT 10SM OVC016 12/09 A2991 RMK AO2 SLP128 60001 70012 T01170094 10128 20117 51028=
200910311053 METAR KPAE 311053Z AUTO 19013G22KT 10SM BKN012 OVC018 12/09 A2991 RMK AO2 SLP127 T01170094=
200910310953 METAR KPAE 310953Z AUTO 20011KT 10SM OVC014 12/10 A2988 RMK AO2 PK WND 18034/0854 PRESRR SLP116 T01220100=
200910310853 METAR KPAE 310853Z AUTO 19024G33KT 10SM BKN010 OVC015 13/11 A2983 RMK AO2 PK WND 18036/0758 CIG 007V011 SLP099 60001 T01280106 58001=
200910310753 METAR KPAE 310753Z AUTO 18024G34KT 9SM OVC010 13/11 A2982 RMK AO2 PK WND 19034/0751 RAE42 SLP099 P0001 T01280106 401560111=
200910310653 METAR KPAE 310653Z AUTO 18019G24KT 6SM -RA BR BKN012 BKN017 OVC023 12/11 A2984 RMK AO2 PK WND 18028/0616 RAE07B26 SLP105 P0000 T01220106=
200910310603 SPECI KPAE 310603Z AUTO 18018G27KT 10SM -RA SCT012 BKN021 OVC037 12/11 A2984 RMK AO2 PK WND 16027/0603 P0000=
200910310603 SPECI KPAE 310603Z AUTO 18018G27KT 10SM -RA SCT012 BKN021 OVC037 12/11 A2984 RMK AO2 PK WND 16027/0603 P0000=
200910310553 METAR KPAE 310553Z AUTO 17015G28KT 6SM -RA BR FEW015 BKN035 OVC110 12/11 A2983 RMK AO2 PK WND 18028/0545 RAE0459B19 SLP101 P0002 60011 T01220106 10144 20122 58029=
200910310525 SPECI KPAE 310525Z AUTO 18019KT 4SM -RA BR FEW022 BKN038 OVC100 12/11 A2984 RMK AO2 RAE0459B19 P0001=
200910310525 SPECI KPAE 310525Z AUTO 18019KT 4SM -RA BR FEW022 BKN038 OVC100 12/11 A2984 RMK AO2 RAE0459B19 P0001=
200910310504 SPECI KPAE 310504Z AUTO 17017KT 2SM BR FEW006 BKN031 OVC037 12/11 A2985 RMK AO2 RAE0459 P0001=
200910310504 SPECI KPAE 310504Z AUTO 17017KT 2SM BR FEW006 BKN031 OVC037 12/11 A2985 RMK AO2 RAE0459 P0001=
200910310453 METAR KPAE 310453Z AUTO 17017G22KT 3SM -RA BR SCT006 BKN023 OVC041 12/11 A2987 RMK AO2 RAB0358 SLP115 P0002 T01220111=
200910310450 SPECI KPAE 310450Z AUTO 17016G22KT 3SM -RA BR SCT006 BKN014 OVC034 12/11 A2986 RMK AO2 RAB0358 P0002=
200910310450 SPECI KPAE 310450Z AUTO 17016G22KT 3SM -RA BR SCT006 BKN014 OVC034 12/11 A2986 RMK AO2 RAB0358 P0002=
200910310446 SPECI KPAE 310446Z AUTO 18015G21KT 2 1/2SM BR FEW006 BKN017 OVC034 12/11 A2987 RMK AO2 RAB0358E39 P0002=
200910310446 SPECI KPAE 310446Z AUTO 18015G21KT 2 1/2SM BR FEW006 BKN017 OVC034 12/11 A2987 RMK AO2 RAB0358E39 P0002=
200910310427 SPECI KPAE 310427Z AUTO 17015G22KT 3SM BR FEW007 BKN023 OVC041 12/11 A2987 RMK AO2 RAB0358E16 P0001=
200910310427 SPECI KPAE 310427Z AUTO 17015G22KT 3SM BR FEW007 BKN023 OVC041 12/11 A2987 RMK AO2 RAB0358E16 P0001=
200910310418 SPECI KPAE 310418Z AUTO 18015KT 2 1/2SM BR FEW014 BKN035 OVC043 12/11 A2987 RMK AO2 RAB0358E16 P0001=
200910310418 SPECI KPAE 310418Z AUTO 18015KT 2 1/2SM BR FEW014 BKN035 OVC043 12/11 A2987 RMK AO2 RAB0358E16 P0001=
200910310353 METAR KPAE 310353Z AUTO 18016KT 3SM BR FEW019 BKN025 OVC039 13/11 A2989 RMK AO2 PK WND 19031/0331 RAB18E33 SLP121 P0003 T01280111=
200910310253 METAR KPAE 310253Z 18018G24KT 3SM BR FEW011 BKN026 OVC046 13/11 A2992 RMK AO2 PK WND 18027/0229 RAB0159E11 SLP131 P0004 60004 T01280111 56009=
200910310153 METAR KPAE 310153Z 19022G26KT 3SM BR SCT017 BKN026 OVC032 13/11 A2992 RMK AO2 PK WND 18033/0124 RAB32E46 SLP132 P0000 T01280111=
200910310102 SPECI KPAE 310102Z 19023G31KT 10SM FEW018 SCT034 BKN049 14/11 A2992 RMK AO2 PK WND 20031/0100=
200910310102 SPECI KPAE 310102Z 19023G31KT 10SM FEW018 SCT034 BKN049 14/11 A2992 RMK AO2 PK WND 20031/0100=
200910310053 METAR KPAE 310053Z 19021G31KT 10SM BKN018 BKN034 BKN049 14/11 A2992 RMK AO2 PK WND 20033/0038 SLP132 T01390106=
200910302353 METAR KPAE 302353Z 18021G28KT 10SM BKN019 BKN055 14/11 A2995 RMK AO2 PK WND 19039/2326 SLP141 T01440106 10156 20144 58010=
200910302310 SPECI KPAE 302310Z 19026G39KT 10SM BKN023 BKN033 14/10 A2996 RMK AO2 PK WND 19039/2306=
200910302310 SPECI KPAE 302310Z 19026G39KT 10SM BKN023 BKN033 14/10 A2996 RMK AO2 PK WND 19039/2306=
200910302253 METAR KPAE 302253Z 19022G33KT 10SM BKN031 15/10 A2996 RMK AO2 PK WND 19033/2247 SLP144 T01500100=
200910302153 METAR KPAE 302153Z 18022G29KT 10SM SCT025 SCT032 15/11 A2997 RMK AO2 PK WND 19031/2054 SLP150 T01500106=
200910302053 METAR KPAE 302053Z 19023G31KT 10SM CLR 16/11 A2998 RMK AO2 PK WND 20033/1955 SLP151 T01560106 58009=
200910302000 SPECI KPAE 302000Z 20024G33KT 10SM CLR 15/11 A2999 RMK AO2 PK WND 20033/1955=
200910302000 SPECI KPAE 302000Z 20024G33KT 10SM CLR 15/11 A2999 RMK AO2 PK WND 20033/1955=
200910301953 METAR KPAE 301953Z 20021G31KT 10SM BKN020 15/11 A3000 RMK AO2 PK WND 19032/1940 SLP157 T01500106=
200910301853 METAR KPAE 301853Z 19020G31KT 10SM BKN020 14/11 A3001 RMK AO2 PK WND 19032/1828 SLP161 T01440106=
200910301753 METAR KPAE 301753Z 18017G27KT 10SM SCT009 BKN021 BKN070 14/11 A3001 RMK AO2 PK WND 18027/1744 SLP160 60000 T01440111 10144 20122 58004=
200910301716 SPECI KPAE 301716Z 19010KT 10SM SCT009 BKN021 BKN070 14/11 A3002 RMK AO2=
200910301716 SPECI KPAE 301716Z 19010KT 10SM SCT009 BKN021 BKN070 14/11 A3002 RMK AO2=
200910301653 METAR KPAE 301653Z 19013KT 10SM BKN009 OVC014 14/12 A3002 RMK AO2 SLP166 T01390117=
200910301553 METAR KPAE 301553Z 18013KT 7SM BR FEW003 BKN007 OVC011 13/12 A3001 RMK AO2 SLP164 T01330117=
200910301453 METAR KPAE 301453Z 18009G16KT 5SM BR FEW003 BKN007 OVC011 13/12 A3002 RMK AO2 SLP165 60000 T01330122 51009=
200910301353 METAR KPAE 301353Z 17009KT 10SM OVC003 13/12 A3001 RMK AO2 RAB44E53 SLP162 P0000 T01280122=
200910301253 METAR KPAE 301253Z AUTO 16009KT 7SM BKN003 OVC009 13/12 A3000 RMK AO2 SLP159 T01280122=
200910301246 SPECI KPAE 301246Z AUTO 16008KT 7SM BKN003 OVC009 13/12 A3000 RMK AO2=
200910301246 SPECI KPAE 301246Z AUTO 16008KT 7SM BKN003 OVC009 13/12 A3000 RMK AO2=
200910301222 SPECI KPAE 301222Z AUTO 16009KT 5SM BR SCT003 OVC009 13/12 A2999 RMK AO2 CIG 007V011=
200910301222 SPECI KPAE 301222Z AUTO 16009KT 5SM BR SCT003 OVC009 13/12 A2999 RMK AO2 CIG 007V011=
200910301153 METAR KPAE 301153Z AUTO 17004KT 8SM OVC003 12/12 A2999 RMK AO2 SLP156 60000 70023 T01220117 10122 20111 51008=
200910301149 SPECI KPAE 301149Z AUTO 17004KT 8SM OVC003 12/12 A2999 RMK AO2=
200910301149 SPECI KPAE 301149Z AUTO 17004KT 8SM OVC003 12/12 A2999 RMK AO2=
200910301053 METAR KPAE 301053Z AUTO 19009KT 5SM BR OVC001 12/12 A2998 RMK AO2 SLP152 T01220117=
200910301046 SPECI KPAE 301046Z AUTO 19008KT 4SM BR OVC001 12/12 A2997 RMK AO2=
200910301046 SPECI KPAE 301046Z AUTO 19008KT 4SM BR OVC001 12/12 A2997 RMK AO2=
200910301038 SPECI KPAE 301038Z AUTO 19009KT 2 1/2SM BR OVC001 12/12 A2997 RMK AO2=
200910301038 SPECI KPAE 301038Z AUTO 19009KT 2 1/2SM BR OVC001 12/12 A2997 RMK AO2=
200910301023 SPECI KPAE 301023Z AUTO 18008KT 1 1/2SM BR OVC001 12/12 A2997 RMK AO2=
200910301023 SPECI KPAE 301023Z AUTO 18008KT 1 1/2SM BR OVC001 12/12 A2997 RMK AO2=
200910301008 SPECI KPAE 301008Z AUTO 18008KT 2SM BR OVC001 12/12 A2997 RMK AO2=
200910301008 SPECI KPAE 301008Z AUTO 18008KT 2SM BR OVC001 12/12 A2997 RMK AO2=
200910300953 METAR KPAE 300953Z AUTO 18009KT 1 1/2SM BR OVC001 12/12 A2997 RMK AO2 SLP148 T01220117=
200910300853 METAR KPAE 300853Z AUTO 18010KT 1SM BR OVC001 12/12 A2997 RMK AO2 SLP151 60000 T01170117 56002 RVRNO=
200910300851 SPECI KPAE 300851Z AUTO 18009KT 1 1/4SM BR OVC001 12/12 A2997 RMK AO2=
200910300851 SPECI KPAE 300851Z AUTO 18009KT 1 1/4SM BR OVC001 12/12 A2997 RMK AO2=
200910300832 SPECI KPAE 300832Z AUTO 17008KT 2SM BR OVC001 12/11 A2997 RMK AO2=
200910300832 SPECI KPAE 300832Z AUTO 17008KT 2SM BR OVC001 12/11 A2997 RMK AO2=
200910300819 SPECI KPAE 300819Z AUTO 19008KT 4SM BR OVC001 12/11 A2997 RMK AO2=
200910300819 SPECI KPAE 300819Z AUTO 19008KT 4SM BR OVC001 12/11 A2997 RMK AO2=
200910300811 SPECI KPAE 300811Z AUTO 18008KT 2SM BR OVC001 12/11 A2997 RMK AO2=
200910300811 SPECI KPAE 300811Z AUTO 18008KT 2SM BR OVC001 12/11 A2997 RMK AO2=
200910300753 METAR KPAE 300753Z AUTO 18006KT 3/4SM BR OVC001 11/11 A2997 RMK AO2 RAB17E26 SLP151 P0000 T01110106 401170050 RVRNO=
200910300732 SPECI KPAE 300732Z AUTO 15008KT 1 1/4SM BR OVC001 11/11 A2996 RMK AO2 RAB17E26 P0000=
200910300732 SPECI KPAE 300732Z AUTO 15008KT 1 1/4SM BR OVC001 11/11 A2996 RMK AO2 RAB17E26 P0000=
200910300719 SPECI KPAE 300719Z AUTO 12004KT 3/4SM -RA BR OVC001 11/11 A2997 RMK AO2 RAB17 P0000 RVRNO=
200910300719 SPECI KPAE 300719Z AUTO 12004KT 3/4SM -RA BR OVC001 11/11 A2997 RMK AO2 RAB17 P0000 RVRNO=
200910300710 SPECI KPAE 300710Z AUTO 00000KT 1SM BR OVC001 11/11 A2998 RMK AO2 RVRNO=
200910300710 SPECI KPAE 300710Z AUTO 00000KT 1SM BR OVC001 11/11 A2998 RMK AO2 RVRNO=
200910300702 SPECI KPAE 300702Z AUTO 00000KT 2SM BR OVC001 11/11 A2998 RMK AO2=
200910300702 SPECI KPAE 300702Z AUTO 00000KT 2SM BR OVC001 11/11 A2998 RMK AO2=
200910300653 METAR KPAE 300653Z AUTO 00000KT 1 1/2SM BR OVC001 12/11 A2998 RMK AO2 SLP153 T01170111=
200910300623 SPECI KPAE 300623Z AUTO 16005KT 1 3/4SM BR OVC001 11/11 A2996 RMK AO2=
200910300623 SPECI KPAE 300623Z AUTO 16005KT 1 3/4SM BR OVC001 11/11 A2996 RMK AO2=
200910300616 SPECI KPAE 300616Z AUTO 19004KT 2SM BR OVC001 11/11 A2996 RMK AO2=
200910300616 SPECI KPAE 300616Z AUTO 19004KT 2SM BR OVC001 11/11 A2996 RMK AO2=
200910300604 SPECI KPAE 300604Z AUTO 18005KT 3SM BR BKN001 OVC006 11/11 A2996 RMK AO2=
200910300604 SPECI KPAE 300604Z AUTO 18005KT 3SM BR BKN001 OVC006 11/11 A2996 RMK AO2=
200910300553 METAR KPAE 300553Z AUTO 16007KT 6SM BR BKN003 OVC006 11/11 A2996 RMK AO2 RAB0458E52 CIG 001V006 SLP145 P0001 60001 T01110106 10111 20089 51001=
200910300551 SPECI KPAE 300551Z AUTO 16006KT 6SM -RA BR OVC006 11/11 A2995 RMK AO2 RAB0458 CIG 002V008 P0001=
200910300551 SPECI KPAE 300551Z AUTO 16006KT 6SM -RA BR OVC006 11/11 A2995 RMK AO2 RAB0458 CIG 002V008 P0001=
200910300453 METAR KPAE 300453Z AUTO 18005KT 5SM BR OVC002 11/11 A2996 RMK AO2 SLP146 T01060106=
200910300353 METAR KPAE 300353Z 15008KT 6SM BR OVC004 10/09 A2995 RMK AO2 SLP145 T01000094=
200910300253 METAR KPAE 300253Z 11005KT 6SM BR OVC004 09/08 A2996 RMK AO2 SLP146 T00940083 53005=
200910300153 METAR KPAE 300153Z VRB04KT 8SM BR OVC004 09/09 A2995 RMK AO2 SLP146 T00940089=
200910300053 METAR KPAE 300053Z 15009KT 5SM BR OVC004 09/08 A2993 RMK AO2 SLP139 T00890078=
200910292353 METAR KPAE 292353Z 15011KT 10SM OVC004 09/08 A2994 RMK AO2 RAE52 SLP141 P0000 60010 T00890078 10089 20061 55008=
200910292253 METAR KPAE 292253Z 16012KT 4SM -RA BR OVC004 08/07 A2994 RMK AO2 SLP140 P0005 T00830072=
200910292203 SPECI KPAE 292203Z VRB04KT 4SM -RA BR BKN004 OVC011 08/07 A2996 RMK AO2 P0002=
200910292203 SPECI KPAE 292203Z VRB04KT 4SM -RA BR BKN004 OVC011 08/07 A2996 RMK AO2 P0002=
200910292156 SPECI KPAE 292156Z 15006KT 2 1/2SM -RA BR BKN006 OVC011 08/07 A2995 RMK AO2 CIG 002V010 P0001=
200910292156 SPECI KPAE 292156Z 15006KT 2 1/2SM -RA BR BKN006 OVC011 08/07 A2995 RMK AO2 CIG 002V010 P0001=
200910292153 METAR KPAE 292153Z 15005KT 4SM -RA BR BKN004 OVC011 08/07 A2995 RMK AO2 CIG 002V008 SLP146 P0002 T00830067=
200910292107 SPECI KPAE 292107Z 16008KT 2SM -RA BR BKN004 OVC016 08/07 A2996 RMK AO2 P0001=
200910292107 SPECI KPAE 292107Z 16008KT 2SM -RA BR BKN004 OVC016 08/07 A2996 RMK AO2 P0001=
200910292053 METAR KPAE 292053Z VRB05KT 1 3/4SM -RA BR BKN004 OVC021 08/07 A2996 RMK AO2 RAB14 SLP149 P0003 60003 T00780067 55008=
200910292050 SPECI KPAE 292050Z VRB06KT 2SM -RA BR BKN004 OVC021 07/07 A2996 RMK AO2 RAB14 P0003=
200910292050 SPECI KPAE 292050Z VRB06KT 2SM -RA BR BKN004 OVC021 07/07 A2996 RMK AO2 RAB14 P0003=
200910291953 METAR KPAE 291953Z 15012G19KT 8SM BKN004 OVC021 07/06 A2996 RMK AO2 SLP147 T00720061=
200910291853 METAR KPAE 291853Z VRB06KT 5SM BR BKN003 OVC029 07/06 A2999 RMK AO2 RAB10E38 SLP158 P0000 T00670056=
200910291800 SPECI KPAE 291800Z 14007G17KT 090V170 5SM BR BKN003 OVC035 06/06 A3000 RMK AO2=
200910291800 SPECI KPAE 291800Z 14007G17KT 090V170 5SM BR BKN003 OVC035 06/06 A3000 RMK AO2=
200910291753 METAR KPAE 291753Z 15009G16KT 080V170 2SM BR BKN005 BKN016 OVC022 06/06 A3000 RMK AO2 RAE44 SLP161 P0002 60012 T00610056 10061 20050 50000=
200910291717 SPECI KPAE 291717Z 14007KT 100V170 2SM -RA BR BKN005 BKN016 OVC022 06/05 A3000 RMK AO2 P0002=
200910291717 SPECI KPAE 291717Z 14007KT 100V170 2SM -RA BR BKN005 BKN016 OVC022 06/05 A3000 RMK AO2 P0002=
200910291711 SPECI KPAE 291711Z VRB06KT 4SM -RA BR BKN005 OVC016 06/05 A3001 RMK AO2 CIG 003V007 P0001=
200910291711 SPECI KPAE 291711Z VRB06KT 4SM -RA BR BKN005 OVC016 06/05 A3001 RMK AO2 CIG 003V007 P0001=
200910291655 SPECI KPAE 291655Z VRB03KT 4SM -RA BR SCT005 BKN011 OVC016 06/05 A3002 RMK AO2 P0000=
200910291655 SPECI KPAE 291655Z VRB03KT 4SM -RA BR SCT005 BKN011 OVC016 06/05 A3002 RMK AO2 P0000=
200910291653 METAR KPAE 291653Z VRB03KT 2SM -RA BR BKN005 OVC029 06/05 A3001 RMK AO2 RAE31B52 SLP166 P0001 T00610050=
200910291600 SPECI KPAE 291600Z 15008KT 2SM -RA BR BKN005 OVC029 06/04 A2998 RMK AO2 P0000=
200910291600 SPECI KPAE 291600Z 15008KT 2SM -RA BR BKN005 OVC029 06/04 A2998 RMK AO2 P0000=
200910291553 METAR KPAE 291553Z 15008KT 2SM -RA BR FEW005 OVC029 06/04 A2998 RMK AO2 SLP156 P0004 T00560044=
200910291526 SPECI KPAE 291526Z 14007KT 2SM -RA BR FEW005 SCT013 OVC029 06/04 A2999 RMK AO2 P0002=
200910291526 SPECI KPAE 291526Z 14007KT 2SM -RA BR FEW005 SCT013 OVC029 06/04 A2999 RMK AO2 P0002=
200910291453 METAR KPAE 291453Z 16011G16KT 6SM -RA BR FEW005 BKN013 OVC028 06/04 A3000 RMK AO2 RAE1355B20 SLP161 P0001 60005 T00560044 58015=
200910291353 METAR KPAE 291353Z AUTO 15010G16KT 10SM -RA BKN016 OVC022 05/04 A3002 RMK AO2 SLP168 P0002 T00500039=
200910291312 SPECI KPAE 291312Z AUTO 15007G15KT 7SM -RA BKN026 OVC030 05/04 A3003 RMK AO2 P0001=
200910291312 SPECI KPAE 291312Z AUTO 15007G15KT 7SM -RA BKN026 OVC030 05/04 A3003 RMK AO2 P0001=
200910291253 METAR KPAE 291253Z AUTO 15010G15KT 5SM RA BR FEW022 OVC030 05/04 A3004 RMK AO2 SLP176 P0002 T00500039=
200910291206 SPECI KPAE 291206Z AUTO VRB06KT 10SM -RA FEW022 BKN029 OVC049 05/04 A3004 RMK AO2 P0000=
200910291206 SPECI KPAE 291206Z AUTO VRB06KT 10SM -RA FEW022 BKN029 OVC049 05/04 A3004 RMK AO2 P0000=
200910291153 METAR KPAE 291153Z AUTO 15007KT 110V170 8SM -RA FEW024 BKN032 OVC047 05/04 A3004 RMK AO2 SLP176 P0004 60012 70019 T00500039 10056 20050 58028=
200910291053 METAR KPAE 291053Z AUTO 15008KT 7SM -RA BKN034 OVC065 05/04 A3008 RMK AO2 SLP188 P0001 T00500039=
200910290953 METAR KPAE 290953Z AUTO 15010KT 7SM -RA OVC033 05/04 A3010 RMK AO2 SLP197 P0002 T00500039=
200910290853 METAR KPAE 290853Z AUTO 15008G15KT 10SM -RA OVC041 05/03 A3013 RMK AO2 SLP204 P0001 60005 T00500033 58012=
200910290753 METAR KPAE 290753Z AUTO 15007KT 130V190 10SM -RA OVC037 05/04 A3013 RMK AO2 SLP206 P0001 T00500039 400830039=
200910290732 SPECI KPAE 290732Z AUTO 15008KT 8SM -RA FEW020 BKN035 OVC045 06/04 A3014 RMK AO2 P0001=
200910290732 SPECI KPAE 290732Z AUTO 15008KT 8SM -RA FEW020 BKN035 OVC045 06/04 A3014 RMK AO2 P0001=
200910290653 METAR KPAE 290653Z AUTO 15004KT 7SM -RA BKN023 BKN029 OVC043 06/04 A3016 RMK AO2 SLP215 P0003 T00560039=
200910290617 SPECI KPAE 290617Z AUTO 16007KT 5SM -RA BR SCT006 BKN017 OVC022 06/04 A3016 RMK AO2 P0002=
200910290617 SPECI KPAE 290617Z AUTO 16007KT 5SM -RA BR SCT006 BKN017 OVC022 06/04 A3016 RMK AO2 P0002=
200910290553 METAR KPAE 290553Z AUTO 16007KT 6SM -RA BR SCT006 BKN012 OVC019 06/04 A3016 RMK AO2 SLP218 P0003 60007 T00560044 10078 20056 58014=
200910290518 SPECI KPAE 290518Z AUTO VRB05KT 6SM -RA BR FEW004 BKN022 OVC027 06/04 A3017 RMK AO2 P0001=
200910290518 SPECI KPAE 290518Z AUTO VRB05KT 6SM -RA BR FEW004 BKN022 OVC027 06/04 A3017 RMK AO2 P0001=
200910290453 METAR KPAE 290453Z 16006KT 6SM -RA BR FEW022 OVC029 06/04 A3018 RMK AO2 SLP224 P0003 T00610044=
200910290427 SPECI KPAE 290427Z 17005KT 7SM -RA FEW008 BKN029 OVC038 06/04 A3018 RMK AO2 P0002=
200910290427 SPECI KPAE 290427Z 17005KT 7SM -RA FEW008 BKN029 OVC038 06/04 A3018 RMK AO2 P0002=
200910290415 SPECI KPAE 290415Z 18007KT 7SM -RA FEW008 BKN031 OVC040 06/04 A3019 RMK AO2 P0001=
200910290415 SPECI KPAE 290415Z 18007KT 7SM -RA FEW008 BKN031 OVC040 06/04 A3019 RMK AO2 P0001=
200910290353 METAR KPAE 290353Z 18004KT 9SM -RA FEW029 BKN033 OVC043 06/04 A3020 RMK AO2 SLP229 P0001 T00610044=
200910290253 METAR KPAE 290253Z 18005KT 7SM -RA SCT025 OVC032 07/04 A3021 RMK AO2 SLP231 P0000 60000 T00720044 58004=
200910290153 METAR KPAE 290153Z 19004KT 10SM -RA OVC038 07/04 A3022 RMK AO2 RAB52 SLP237 P0000 T00720039=
200910290053 METAR KPAE 290053Z 16006KT 10SM BKN070 BKN090 08/04 A3021 RMK AO2 SLP233 T00780039=
200910282353 METAR KPAE 282353Z 16006KT 10SM FEW041 08/03 A3022 RMK AO2 SLP235 T00780028 10083 20056 58010=
200910282253 METAR KPAE 282253Z 18006KT 10SM FEW095 08/03 A3023 RMK AO2 SLP241 T00830028=
200910282153 METAR KPAE 282153Z 00000KT 10SM SCT030 08/04 A3024 RMK AO2 SLP243 T00780039=
200910282053 METAR KPAE 282053Z 26004KT 10SM SCT018 08/04 A3025 RMK AO2 SLP245 T00780044 58009=
200910281953 METAR KPAE 281953Z 16005KT 10SM FEW015 08/04 A3025 RMK AO2 SLP247 T00780039=
200910281853 METAR KPAE 281853Z 16004KT 10SM BKN044 07/04 A3027 RMK AO2 SLP254 T00720044=
200910281753 METAR KPAE 281753Z 16004KT 6SM BR SCT005 BKN040 06/04 A3027 RMK AO2 SLP255 FG BNK SSE OF FIELD T00560044 10056 20044 58001=
200910281736 SPECI KPAE 281736Z 17005KT 3/4SM BR SCT001 BKN005 BKN042 06/04 A3027 RMK AO2 FG BNK SSE OF FIELD RVRNO=
200910281736 SPECI KPAE 281736Z 17005KT 3/4SM BR SCT001 BKN005 BKN042 06/04 A3027 RMK AO2 FG BNK SSE OF FIELD RVRNO=
200910281653 METAR KPAE 281653Z 16005KT 10SM SCT001 BKN042 05/03 A3028 RMK AO2 SLP256 T00500033=
200910281616 SPECI KPAE 281616Z 00000KT 10SM SCT001 BKN030 05/03 A3028 RMK AO2=
200910281616 SPECI KPAE 281616Z 00000KT 10SM SCT001 BKN030 05/03 A3028 RMK AO2=
200910281553 METAR KPAE 281553Z 00000KT 10SM BKN001 BKN030 05/03 A3028 RMK AO2 SLP257 T00500028=
200910281525 SPECI KPAE 281525Z 15004KT 10SM SCT007 BKN030 04/02 A3029 RMK AO2=
200910281525 SPECI KPAE 281525Z 15004KT 10SM SCT007 BKN030 04/02 A3029 RMK AO2=
200910281453 METAR KPAE 281453Z 16005KT 10SM OVC007 04/02 A3028 RMK AO2 SLP256 T00440022 58001=
200910281435 SPECI KPAE 281435Z 16005KT 10SM BKN007 OVC043 05/02 A3028 RMK AO2 CIG 005V009=
200910281435 SPECI KPAE 281435Z 16005KT 10SM BKN007 OVC043 05/02 A3028 RMK AO2 CIG 005V009=
200910281410 SPECI KPAE 281410Z 12003KT 10SM SCT005 OVC043 04/02 A3028 RMK AO2=
200910281410 SPECI KPAE 281410Z 12003KT 10SM SCT005 OVC043 04/02 A3028 RMK AO2=
200910281353 METAR KPAE 281353Z VRB03KT 10SM OVC005 05/02 A3028 RMK AO2 SLP257 T00500022=
200910281303 SPECI KPAE 281303Z AUTO 15003KT 10SM BKN005 05/03 A3028 RMK AO2=
200910281303 SPECI KPAE 281303Z AUTO 15003KT 10SM BKN005 05/03 A3028 RMK AO2=
200910281253 METAR KPAE 281253Z AUTO 16003KT 10SM SCT005 SCT060 04/03 A3028 RMK AO2 SLP256 T00440028=
200910281153 METAR KPAE 281153Z AUTO 18003KT 10SM SCT060 04/03 A3028 RMK AO2 SLP256 T00440028 10067 20039 58001=
200910281053 METAR KPAE 281053Z AUTO 15005KT 10SM OVC050 04/03 A3029 RMK AO2 SLP259 T00440028=
200910280953 METAR KPAE 280953Z AUTO 12005KT 10SM BKN050 04/03 A3028 RMK AO2 SLP258 T00390028=
200910280853 METAR KPAE 280853Z AUTO 11006KT 10SM SCT038 SCT048 04/02 A3028 RMK AO2 SLP257 T00440022 53007=
200910280753 METAR KPAE 280753Z AUTO 00000KT 10SM SCT033 SCT043 OVC050 07/04 A3027 RMK AO2 SLP254 T00670039 401000044=
200910280653 METAR KPAE 280653Z AUTO 00000KT 10SM BKN040 OVC055 07/03 A3027 RMK AO2 SLP252 T00670033=
200910280553 METAR KPAE 280553Z AUTO 00000KT 10SM OVC042 06/03 A3026 RMK AO2 SLP250 T00610033 10094 20044 53004=
200910280453 METAR KPAE 280453Z AUTO 17004KT 10SM BKN060 06/03 A3025 RMK AO2 SLP247 T00560028=
200910280353 METAR KPAE 280353Z AUTO 18003KT 10SM BKN060 06/03 A3026 RMK AO2 SLP248 T00610033=
200910280253 METAR KPAE 280253Z 15005KT 10SM SCT060 07/04 A3025 RMK AO2 SLP246 T00720039 51012=
200910280153 METAR KPAE 280153Z 12003KT 10SM BKN060 08/03 A3025 RMK AO2 SLP246 T00780028=
200910280053 METAR KPAE 280053Z 00000KT 10SM BKN060 08/03 A3023 RMK AO2 SLP240 T00830028=
200910272353 METAR KPAE 272353Z 03006KT 10SM BKN060 09/03 A3021 RMK AO2 SLP234 T00940028 10100 20072 53009=
200910272253 METAR KPAE 272253Z 36006KT 10SM CLR 10/03 A3021 RMK AO2 SLP232 T01000028=
200910272153 METAR KPAE 272153Z 36008G14KT 10SM SCT060 10/02 A3018 RMK AO2 SLP224 T01000022=
200910272053 METAR KPAE 272053Z 33007G16KT 310V010 10SM BKN055 09/02 A3019 RMK AO2 SLP223 T00940022 50003=
200910271953 METAR KPAE 271953Z 29004KT 10SM FEW024 SCT034 BKN060 08/03 A3019 RMK AO2 SLP225 T00830033=
200910271853 METAR KPAE 271853Z 00000KT 10SM FEW015 BKN060 08/04 A3019 RMK AO2 SLP224 T00830039=
200910271753 METAR KPAE 271753Z 24004KT 10SM FEW011 SCT044 BKN060 07/04 A3017 RMK AO2 SLP221 T00720044 10072 20050 51021=
200910271653 METAR KPAE 271653Z 31003KT 10SM FEW016 BKN050 OVC060 07/05 A3016 RMK AO2 SLP215 T00670050=
200910271553 METAR KPAE 271553Z 28005KT 10SM SCT019 BKN065 07/05 A3014 RMK AO2 SLP210 T00670050=
200910271453 METAR KPAE 271453Z VRB04KT 10SM FEW023 BKN065 06/03 A3011 RMK AO2 SLP200 T00610028 53015=
200910271353 METAR KPAE 271353Z 27005KT 10SM FEW028 BKN070 06/03 A3009 RMK AO2 SLP192 T00610028=
200910271253 METAR KPAE 271253Z AUTO 15003KT 10SM OVC070 06/03 A3008 RMK AO2 SLP189 T00560033=
200910271153 METAR KPAE 271153Z AUTO 17004KT 10SM OVC070 06/03 A3007 RMK AO2 SLP185 70067 T00560033 10083 20044 51014=
200910271053 METAR KPAE 271053Z AUTO 17004KT 10SM CLR 06/03 A3005 RMK AO2 SLP180 T00560028=
200910270953 METAR KPAE 270953Z AUTO 18005KT 10SM CLR 05/03 A3004 RMK AO2 SLP177 T00500033=
200910270853 METAR KPAE 270853Z AUTO VRB04KT 10SM FEW046 BKN065 07/02 A3003 RMK AO2 SLP169 T00720017 53017=
200910270753 METAR KPAE 270753Z AUTO 26005KT 10SM OVC060 08/02 A3001 RMK AO2 SLP162 T00780022 401060072=
200910270653 METAR KPAE 270653Z AUTO 26006KT 10SM BKN065 08/01 A2999 RMK AO2 SLP158 T00780011=
200910270553 METAR KPAE 270553Z AUTO 30014G24KT 10SM CLR 08/00 A2997 RMK AO2 SLP152 T00830000 10100 20083 53010=
200910270453 METAR KPAE 270453Z AUTO 32011G29KT 10SM CLR 08/01 A2996 RMK AO2 PK WND 31029/0446 LTG DSNT SW SLP146 T00830006=
200910270353 METAR KPAE 270353Z AUTO 34009KT 300V360 10SM CLR 08/01 A2994 RMK AO2 SLP142 T00830006 TSNO=
200910270253 METAR KPAE 270253Z 32009KT 10SM CLR 08/01 A2994 RMK AO2 SLP141 T00830011 53019=
200910270153 METAR KPAE 270153Z 00000KT 10SM CLR 09/03 A2992 RMK AO2 SLP133 T00890028=
200910270053 METAR KPAE 270053Z 30008G14KT 270V340 10SM FEW095 09/03 A2989 RMK AO2 SLP123 T00940028=
200910262353 METAR KPAE 262353Z VRB03KT 10SM FEW029 SCT110 10/06 A2989 RMK AO2 SLP122 60000 T01000056 10106 20083 53010=
200910262301 SPECI KPAE 262301Z 17007KT 10SM SCT012 BKN034 OVC044 10/07 A2988 RMK AO2=
200910262301 SPECI KPAE 262301Z 17007KT 10SM SCT012 BKN034 OVC044 10/07 A2988 RMK AO2=
200910262253 METAR KPAE 262253Z 22004KT 10SM BKN012 BKN034 OVC044 10/07 A2989 RMK AO2 SLP122 T01000067=
200910262248 SPECI KPAE 262248Z VRB05KT 10SM BKN012 BKN030 OVC044 10/07 A2989 RMK AO2=
200910262248 SPECI KPAE 262248Z VRB05KT 10SM BKN012 BKN030 OVC044 10/07 A2989 RMK AO2=
200910262153 METAR KPAE 262153Z 20008KT 10SM FEW017 BKN032 OVC048 10/07 A2986 RMK AO2 SLP112 T01000067=
200910262126 SPECI KPAE 262126Z 19010KT 10SM SCT015 SCT047 SCT060 10/07 A2985 RMK AO2=
200910262126 SPECI KPAE 262126Z 19010KT 10SM SCT015 SCT047 SCT060 10/07 A2985 RMK AO2=
200910262119 SPECI KPAE 262119Z 18009KT 10SM SCT015 BKN028 BKN049 11/07 A2985 RMK AO2=
200910262119 SPECI KPAE 262119Z 18009KT 10SM SCT015 BKN028 BKN049 11/07 A2985 RMK AO2=
200910262053 METAR KPAE 262053Z 21007KT 10SM FEW027 BKN041 OVC055 10/07 A2986 RMK AO2 RAB34E52 SLP112 P0000 60000 T01000067 52009=
200910261953 METAR KPAE 261953Z 21003KT 10SM FEW004 SCT015 SCT043 10/06 A2985 RMK AO2 SLP111 T01000061=
200910261853 METAR KPAE 261853Z 01003KT 10SM CLR 09/06 A2983 RMK AO2 SLP104 T00940061=
200910261753 METAR KPAE 261753Z 36005KT 10SM OVC065 08/06 A2983 RMK AO2 RAE25 SLP103 P0001 60067 T00830056 10100 20078 51005=
200910261653 METAR KPAE 261653Z VRB06G14KT 6SM -RA OVC045 08/06 A2983 RMK AO2 SLP103 P0010 T00830056=
200910261553 METAR KPAE 261553Z 33005KT 4SM RA BR BKN008 BKN030 OVC040 08/07 A2983 RMK AO2 SLP104 P0012 T00830067=
200910261513 SPECI KPAE 261513Z 34006KT 5SM RA BR BKN008 BKN030 OVC040 09/08 A2982 RMK AO2 P0004=
200910261513 SPECI KPAE 261513Z 34006KT 5SM RA BR BKN008 BKN030 OVC040 09/08 A2982 RMK AO2 P0004=
200910261506 SPECI KPAE 261506Z 33007G14KT 7SM RA FEW008 BKN030 OVC038 09/08 A2981 RMK AO2 P0002=
200910261506 SPECI KPAE 261506Z 33007G14KT 7SM RA FEW008 BKN030 OVC038 09/08 A2981 RMK AO2 P0002=
200910261453 METAR KPAE 261453Z 32008KT 5SM RA BR FEW003 BKN028 OVC040 09/08 A2981 RMK AO2 SLP097 P0019 60044 T00890078 55012=
200910261441 SPECI KPAE 261441Z 35008G17KT 3SM RA BR SCT001 BKN013 OVC036 09/08 A2980 RMK AO2 P0017=
200910261441 SPECI KPAE 261441Z 35008G17KT 3SM RA BR SCT001 BKN013 OVC036 09/08 A2980 RMK AO2 P0017=
200910261439 SPECI KPAE 261439Z 34009G17KT 2 1/2SM RA BR BKN001 BKN013 OVC034 09/08 A2980 RMK AO2 P0016=
200910261439 SPECI KPAE 261439Z 34009G17KT 2 1/2SM RA BR BKN001 BKN013 OVC034 09/08 A2980 RMK AO2 P0016=
200910261422 SPECI KPAE 261422Z 34005KT 1 3/4SM +RA BR OVC001 09/09 A2981 RMK AO2 P0010=
200910261422 SPECI KPAE 261422Z 34005KT 1 3/4SM +RA BR OVC001 09/09 A2981 RMK AO2 P0010=
200910261401 SPECI KPAE 261401Z 36003KT 1/2SM RA FG VV001 09/09 A2980 RMK AO2 P0001 RVRNO=
200910261401 SPECI KPAE 261401Z 36003KT 1/2SM RA FG VV001 09/09 A2980 RMK AO2 P0001 RVRNO=
200910261353 METAR KPAE 261353Z 02005KT 3/4SM -RA BR OVC002 09/09 A2979 RMK AO2 SLP089 P0015 T00940089 RVRNO=
200910261340 SPECI KPAE 261340Z AUTO 02006KT 2SM RA BR OVC002 09/09 A2978 RMK AO2 PRESFR P0013=
200910261340 SPECI KPAE 261340Z AUTO 02006KT 2SM RA BR OVC002 09/09 A2978 RMK AO2 PRESFR P0013=
200910261323 SPECI KPAE 261323Z AUTO 36003KT 1 3/4SM RA BR BKN002 BKN007 OVC012 09/09 A2980 RMK AO2 P0009=
200910261323 SPECI KPAE 261323Z AUTO 36003KT 1 3/4SM RA BR BKN002 BKN007 OVC012 09/09 A2980 RMK AO2 P0009=
200910261314 SPECI KPAE 261314Z AUTO 00000KT 2 1/2SM RA BR SCT002 BKN007 OVC026 10/09 A2980 RMK AO2 P0005=
200910261314 SPECI KPAE 261314Z AUTO 00000KT 2 1/2SM RA BR SCT002 BKN007 OVC026 10/09 A2980 RMK AO2 P0005=
200910261309 SPECI KPAE 261309Z AUTO 00000KT 3SM RA BR SCT005 BKN012 OVC030 10/09 A2980 RMK AO2 P0004=
200910261309 SPECI KPAE 261309Z AUTO 00000KT 3SM RA BR SCT005 BKN012 OVC030 10/09 A2980 RMK AO2 P0004=
200910261253 METAR KPAE 261253Z AUTO 22003KT 4SM RA BR FEW012 BKN025 OVC038 10/09 A2981 RMK AO2 SLP095 P0010 T01000089=
200910261153 METAR KPAE 261153Z AUTO 18008KT 5SM -RA BR BKN039 OVC047 09/09 A2985 RMK AO2 SLP109 P0007 60013 70029 T00940089 10094 20083 58035=
200910261117 SPECI KPAE 261117Z AUTO 17005KT 5SM -RA BR SCT002 SCT010 OVC035 09/09 A2987 RMK AO2 P0003=
200910261117 SPECI KPAE 261117Z AUTO 17005KT 5SM -RA BR SCT002 SCT010 OVC035 09/09 A2987 RMK AO2 P0003=
200910261109 SPECI KPAE 261109Z AUTO 18007KT 4SM -RA BR SCT002 BKN010 OVC035 09/09 A2988 RMK AO2 CIG 008V015 P0002=
200910261109 SPECI KPAE 261109Z AUTO 18007KT 4SM -RA BR SCT002 BKN010 OVC035 09/09 A2988 RMK AO2 CIG 008V015 P0002=
200910261053 METAR KPAE 261053Z AUTO 17007KT 4SM RA BR OVC002 09/09 A2989 RMK AO2 RAB0954 SLP122 P0005 T00940089=
200910260953 METAR KPAE 260953Z AUTO 17007KT 9SM OVC004 09/08 A2992 RMK AO2 SLP134 T00940083=
200910260853 METAR KPAE 260853Z AUTO 16008KT 10SM OVC004 09/08 A2995 RMK AO2 SLP145 60001 T00940083 55009=
200910260848 SPECI KPAE 260848Z AUTO 16010KT 10SM OVC004 09/08 A2995 RMK AO2=
200910260848 SPECI KPAE 260848Z AUTO 16010KT 10SM OVC004 09/08 A2995 RMK AO2=
200910260753 METAR KPAE 260753Z AUTO 16008KT 9SM OVC006 09/08 A2998 RMK AO2 RAE0658B19E44 CIG 002V008 SLP154 P0001 T00890078 400940044=
200910260748 SPECI KPAE 260748Z AUTO 16010KT 7SM OVC006 09/08 A2998 RMK AO2 RAE0658B19E44 CIG 002V008 P0001 400940044=
200910260748 SPECI KPAE 260748Z AUTO 16010KT 7SM OVC006 09/08 A2998 RMK AO2 RAE0658B19E44 CIG 002V008 P0001 400940044=
200910260738 SPECI KPAE 260738Z AUTO 15009KT 6SM -RA BR OVC004 09/08 A2998 RMK AO2 RAE0658B19 CIG 002V007 P0001=
200910260738 SPECI KPAE 260738Z AUTO 15009KT 6SM -RA BR OVC004 09/08 A2998 RMK AO2 RAE0658B19 CIG 002V007 P0001=
200910260719 SPECI KPAE 260719Z AUTO 15010G16KT 10SM -RA OVC006 09/08 A3000 RMK AO2 RAE0658B19 CIG 003V011 P0001=
200910260719 SPECI KPAE 260719Z AUTO 15010G16KT 10SM -RA OVC006 09/08 A3000 RMK AO2 RAE0658B19 CIG 003V011 P0001=
200910260653 METAR KPAE 260653Z AUTO VRB05KT 9SM -RA BKN004 OVC009 09/08 A3002 RMK AO2 RAB14E23B42 SLP166 P0000 T00890078=
200910260601 SPECI KPAE 260601Z AUTO 16012G17KT 9SM BKN005 BKN008 OVC013 08/07 A3001 RMK AO2=
200910260601 SPECI KPAE 260601Z AUTO 16012G17KT 9SM BKN005 BKN008 OVC013 08/07 A3001 RMK AO2=
200910260553 METAR KPAE 260553Z AUTO 15009G17KT 10SM SCT007 BKN011 OVC016 09/07 A3001 RMK AO2 RAB23E49 PRESFR SLP163 P0000 60009 T00890072 10089 20083 58020=
200910260540 SPECI KPAE 260540Z AUTO 16014KT 10SM -RA SCT011 BKN014 OVC019 09/07 A3003 RMK AO2 RAB23 P0000=
200910260540 SPECI KPAE 260540Z AUTO 16014KT 10SM -RA SCT011 BKN014 OVC019 09/07 A3003 RMK AO2 RAB23 P0000=
200910260453 METAR KPAE 260453Z VRB03KT 10SM OVC023 09/07 A3005 RMK AO2 RAE47 SLP180 P0001 T00890072=
200910260435 SPECI KPAE 260435Z 16012KT 9SM -RA OVC027 09/07 A3006 RMK AO2 P0001=
200910260435 SPECI KPAE 260435Z 16012KT 9SM -RA OVC027 09/07 A3006 RMK AO2 P0001=
200910260353 METAR KPAE 260353Z 15010KT 10SM -RA OVC041 09/07 A3006 RMK AO2 SLP181 P0001 T00890067=
200910260253 METAR KPAE 260253Z 16010KT 10SM -RA SCT049 BKN075 OVC095 08/06 A3007 RMK AO2 SLP184 P0002 60007 T00830061 56012=
200910260153 METAR KPAE 260153Z 18011KT 9SM -RA SCT060 OVC090 08/06 A3007 RMK AO2 SLP187 P0004 T00830061=
200910260053 METAR KPAE 260053Z 15008G15KT 110V180 10SM -RA FEW060 SCT075 OVC095 08/06 A3008 RMK AO2 RAB37 SLP189 P0001 T00830061=
200910252353 METAR KPAE 252353Z VRB04KT 10SM OVC060 09/06 A3010 RMK AO2 RAE51 SLP197 P0004 60007 T00890061 10094 20072 56027=
200910252253 METAR KPAE 252253Z VRB05KT 6SM -RA FEW050 OVC060 09/04 A3013 RMK AO2 SLP206 P0002 T00940039=
200910252153 METAR KPAE 252153Z 15010KT 8SM -RA BKN048 OVC070 09/04 A3015 RMK AO2 PRESFR SLP211 P0001 T00890039=
200910252053 METAR KPAE 252053Z 16007KT 10SM -RA FEW055 OVC075 09/03 A3018 RMK AO2 RAB23 SLP224 P0000 60000 T00890033 58017=
200910251953 METAR KPAE 251953Z 24007KT 10SM FEW044 SCT080 09/03 A3021 RMK AO2 RAB30E51 SLP232 P0000 T00890033=
200910251853 METAR KPAE 251853Z 21004KT 10SM FEW080 07/03 A3024 RMK AO2 SLP243 T00720033=
200910251753 METAR KPAE 251753Z 12003KT 10SM OVC090 07/03 A3024 RMK AO2 SLP242 T00720028 10072 20044 50009=
200910251653 METAR KPAE 251653Z 11004KT 10SM FEW100 06/02 A3024 RMK AO2 SLP244 T00610022=
200910251553 METAR KPAE 251553Z 00000KT 10SM CLR 06/02 A3023 RMK AO2 SLP238 T00560022=
200910251453 METAR KPAE 251453Z 00000KT 10SM CLR 04/02 A3021 RMK AO2 SLP233 T00440017 58015=
200910251353 METAR KPAE 251353Z 09004KT 10SM CLR 05/02 A3022 RMK AO2 SLP237 T00500022=
200910251253 METAR KPAE 251253Z AUTO 11006KT 10SM CLR 05/02 A3024 RMK AO2 SLP244 T00500022=
200910251153 METAR KPAE 251153Z AUTO 10006KT 10SM CLR 04/02 A3025 RMK AO2 SLP248 70001 T00440022 10072 20044 56012=
200910251053 METAR KPAE 251053Z AUTO 11007KT 10SM CLR 06/03 A3025 RMK AO2 SLP247 T00560028=
200910250953 METAR KPAE 250953Z AUTO 11007KT 10SM CLR 06/03 A3027 RMK AO2 SLP253 T00560033=
200910250853 METAR KPAE 250853Z AUTO 10003KT 10SM CLR 06/03 A3029 RMK AO2 SLP259 T00610033 58003=
200910250753 METAR KPAE 250753Z AUTO 11005KT 10SM CLR 06/04 A3029 RMK AO2 SLP258 T00560039 401170050=
200910250653 METAR KPAE 250653Z AUTO 11007KT 10SM CLR 07/04 A3031 RMK AO2 SLP264 T00670044=
200910250553 METAR KPAE 250553Z AUTO 11006KT 10SM CLR 07/05 A3030 RMK AO2 SLP262 T00720050 10106 20072 55002=
200910250453 METAR KPAE 250453Z AUTO 11004KT 10SM CLR 08/06 A3028 RMK AO2 SLP257 T00780056=
200910250353 METAR KPAE 250353Z 10004KT 10SM CLR 08/06 A3030 RMK AO2 SLP262 T00830056=
200910250253 METAR KPAE 250253Z 00000KT 10SM CLR 09/06 A3031 RMK AO2 SLP266 T00890056 53003=
200910250153 METAR KPAE 250153Z 00000KT 10SM CLR 09/05 A3030 RMK AO2 SLP262 T00890050=
200910250053 METAR KPAE 250053Z 00000KT 10SM FEW060 10/06 A3029 RMK AO2 SLP259 T01000056=
200910242353 METAR KPAE 242353Z 26003KT 10SM BKN040 11/06 A3030 RMK AO2 SLP262 T01060056 10117 20100 50000=
200910242253 METAR KPAE 242253Z 00000KT 10SM OVC040 11/06 A3030 RMK AO2 SLP263 T01110056=
200910242153 METAR KPAE 242153Z 24004KT 10SM BKN033 BKN050 11/06 A3031 RMK AO2 SLP267 T01060061=
200910242053 METAR KPAE 242053Z 27004KT 10SM SCT011 BKN026 11/06 A3030 RMK AO2 SLP262 T01110061 50003=
200910241953 METAR KPAE 241953Z 16003KT 10SM SCT015 BKN025 11/06 A3030 RMK AO2 SLP262 T01060056=
200910241921 SPECI KPAE 241921Z 17004KT 10SM BKN025 BKN036 10/06 A3030 RMK AO2=
200910241921 SPECI KPAE 241921Z 17004KT 10SM BKN025 BKN036 10/06 A3030 RMK AO2=
200910241853 METAR KPAE 241853Z 18004KT 10SM SCT029 OVC037 10/06 A3030 RMK AO2 SLP262 T01000061=
200910241753 METAR KPAE 241753Z 16004KT 10SM CLR 10/06 A3029 RMK AO2 SLP259 60001 T01000061 10100 20050 50007=
200910241653 METAR KPAE 241653Z 16006KT 10SM FEW095 09/07 A3030 RMK AO2 SLP262 T00890067=
200910241553 METAR KPAE 241553Z 19004KT 9SM SCT023 07/06 A3030 RMK AO2 SLP262 P0001 T00720056=
200910241453 METAR KPAE 241453Z 00000KT 9SM CLR 06/04 A3027 RMK AO2 SLP251 T00560044 53008=
200910241353 METAR KPAE 241353Z AUTO 13003KT 10SM CLR 07/06 A3025 RMK AO2 SLP245 T00720056=
200910241253 METAR KPAE 241253Z AUTO 12003KT 10SM CLR 07/06 A3025 RMK AO2 SLP247 T00720056=
200910241153 METAR KPAE 241153Z AUTO 00000KT 10SM CLR 07/06 A3024 RMK AO2 SLP242 70045 T00720056 10094 20072 51019=
200910241141 SPECI KPAE 241141Z AUTO 17004KT 10SM SCT016 08/06 A3024 RMK AO2=
200910241141 SPECI KPAE 241141Z AUTO 17004KT 10SM SCT016 08/06 A3024 RMK AO2=
200910241108 SPECI KPAE 241108Z AUTO 00000KT 10SM BKN016 BKN065 08/06 A3024 RMK AO2=
200910241108 SPECI KPAE 241108Z AUTO 00000KT 10SM BKN016 BKN065 08/06 A3024 RMK AO2=
200910241053 METAR KPAE 241053Z AUTO 18003KT 10SM FEW016 BKN065 08/06 A3023 RMK AO2 SLP239 T00780061=
200910240953 METAR KPAE 240953Z AUTO 24005KT 10SM BKN048 BKN070 08/06 A3021 RMK AO2 SLP231 T00780061=
200910240853 METAR KPAE 240853Z AUTO 21003KT 10SM BKN055 08/07 A3019 RMK AO2 SLP222 T00830067 52015=
200910240753 METAR KPAE 240753Z AUTO 16008KT 10SM CLR 09/07 A3017 RMK AO2 SLP217 T00890067 401390089=
200910240653 METAR KPAE 240653Z AUTO 16006KT 10SM BKN042 BKN049 09/07 A3016 RMK AO2 SLP213 T00890067=
200910240553 METAR KPAE 240553Z AUTO VRB03KT 10SM OVC075 09/06 A3014 RMK AO2 SLP207 60019 T00890056 10133 20089 51035=
200910240453 METAR KPAE 240453Z AUTO 13005KT 10SM FEW080 10/04 A3011 RMK AO2 SLP197 T01000039=
200910240353 METAR KPAE 240353Z AUTO 01006KT 10SM CLR 11/04 A3008 RMK AO2 RAE0257 SLP185 P0000 T01060039=
200910240253 METAR KPAE 240253Z VRB04KT 9SM -RA FEW041 BKN048 OVC090 11/07 A3004 RMK AO2 RAB12 SLP171 P0005 60019 T01060072 53038=
200910240153 METAR KPAE 240153Z 31011G17KT 10SM OVC050 11/06 A2996 RMK AO2 RAB0057E09 SLP145 P0000 T01060061=
200910240053 METAR KPAE 240053Z 35007KT 10SM SCT005 OVC039 12/10 A2992 RMK AO2 RAE41 SLP133 P0014 T01170100=
200910240040 SPECI KPAE 240040Z 35007KT 10SM -RA BKN005 BKN012 OVC036 12/11 A2992 RMK AO2 P0014=
200910240040 SPECI KPAE 240040Z 35007KT 10SM -RA BKN005 BKN012 OVC036 12/11 A2992 RMK AO2 P0014=
200910240017 SPECI KPAE 240017Z 29008KT 1 3/4SM -RA BR OVC007 13/12 A2990 RMK AO2 CIG 004V010 P0004=
200910240017 SPECI KPAE 240017Z 29008KT 1 3/4SM -RA BR OVC007 13/12 A2990 RMK AO2 CIG 004V010 P0004=
200910232353 METAR KPAE 232353Z 22011KT 5SM -RA BR OVC009 13/12 A2988 RMK AO2 RAB01 SLP119 P0009 60009 T01330122 10139 20117 51009=
200910232350 SPECI KPAE 232350Z 20010G21KT 4SM -RA BR OVC009 13/12 A2988 RMK AO2 RAB01 P0009=
200910232350 SPECI KPAE 232350Z 20010G21KT 4SM -RA BR OVC009 13/12 A2988 RMK AO2 RAB01 P0009=
200910232336 SPECI KPAE 232336Z 20015G21KT 2SM -RA BR OVC012 13/12 A2987 RMK AO2 RAB01 P0008=
200910232336 SPECI KPAE 232336Z 20015G21KT 2SM -RA BR OVC012 13/12 A2987 RMK AO2 RAB01 P0008=
200910232324 SPECI KPAE 232324Z 20014G21KT 1 3/4SM +RA BR OVC012 14/12 A2988 RMK AO2 RAB01 P0007=
200910232324 SPECI KPAE 232324Z 20014G21KT 1 3/4SM +RA BR OVC012 14/12 A2988 RMK AO2 RAB01 P0007=
200910232253 METAR KPAE 232253Z AUTO 20011G20KT 10SM OVC010 14/12 A2988 RMK AO2 SLP117 T01390117 TSNO=
200910232153 METAR KPAE 232153Z 21010G22KT 10SM BKN008 OVC014 14/12 A2988 RMK AO2 SLP117 T01390122=
200910232053 METAR KPAE 232053Z 18014KT 10SM BKN008 OVC014 14/12 A2985 RMK AO2 SLP110 T01390117 58005=
200910231953 METAR KPAE 231953Z 20010G22KT 10SM OVC008 13/12 A2987 RMK AO2 SLP117 T01330117=
200910231853 METAR KPAE 231853Z 18014G19KT 10SM OVC008 12/11 A2987 RMK AO2 CIG 006V011 SLP115 T01220111=
200910231753 METAR KPAE 231753Z 17017G22KT 10SM OVC006 12/11 A2987 RMK AO2 RAE1656 CIG 004V011 SLP115 P0000 60017 T01170106 10117 20094 56023=
200910231728 SPECI KPAE 231728Z 16014G22KT 10SM BKN006 OVC011 11/10 A2988 RMK AO2 RAE1656 CIG 004V008 P0000=
200910231728 SPECI KPAE 231728Z 16014G22KT 10SM BKN006 OVC011 11/10 A2988 RMK AO2 RAE1656 CIG 004V008 P0000=
200910231700 SPECI KPAE 231700Z 15008KT 7SM BKN004 OVC011 11/10 A2988 RMK AO2 RAE1656 CIG 002V007 P0000=
200910231700 SPECI KPAE 231700Z 15008KT 7SM BKN004 OVC011 11/10 A2988 RMK AO2 RAE1656 CIG 002V007 P0000=
200910231653 METAR KPAE 231653Z 15012KT 1SM -RA BR BKN006 BKN013 OVC032 11/10 A2988 RMK AO2 RAB31 SLP120 P0000 T01060100 RVRNO=
200910231628 SPECI KPAE 231628Z 16013KT 1SM BR BKN006 BKN013 OVC032 11/09 A2989 RMK AO2 RVRNO=
200910231628 SPECI KPAE 231628Z 16013KT 1SM BR BKN006 BKN013 OVC032 11/09 A2989 RMK AO2 RVRNO=
200910231553 METAR KPAE 231553Z 17016G21KT 10SM BKN008 BKN016 OVC100 11/09 A2992 RMK AO2 RAB02E46 SLP131 P0001 T01060094=
200910231453 METAR KPAE 231453Z 16011G16KT 10SM BKN008 BKN016 OVC100 10/09 A2994 RMK AO2 RAE19 SLP139 P0000 60016 T01000089 56018=
200910231424 SPECI KPAE 231424Z 15010G14KT 10SM FEW010 BKN022 OVC110 10/08 A2994 RMK AO2 RAE19 P0000=
200910231424 SPECI KPAE 231424Z 15010G14KT 10SM FEW010 BKN022 OVC110 10/08 A2994 RMK AO2 RAE19 P0000=
200910231353 METAR KPAE 231353Z 16011G17KT 4SM -RA BR FEW024 BKN050 OVC090 10/08 A2995 RMK AO2 SLP143 P0008 T01000083=
200910231253 METAR KPAE 231253Z AUTO 15008G16KT 6SM -RA BR BKN032 BKN055 OVC085 09/08 A2997 RMK AO2 SLP150 P0008 T00940078=
200910231153 METAR KPAE 231153Z AUTO 15012G20KT 7SM -RA FEW038 BKN080 OVC095 09/08 A2999 RMK AO2 SLP157 P0004 60040 70040 T00940078 10106 20089 58032=
200910231053 METAR KPAE 231053Z AUTO 15011G16KT 5SM RA BR SCT065 BKN075 OVC090 09/08 A3003 RMK AO2 SLP170 P0009 T00890078=
200910230953 METAR KPAE 230953Z AUTO 15007KT 7SM -RA SCT041 BKN070 OVC085 09/08 A3007 RMK AO2 SLP184 P0009 T00940078=
200910230853 METAR KPAE 230853Z AUTO VRB05KT 4SM RA BR FEW017 BKN046 OVC055 09/08 A3009 RMK AO2 SLP190 P0013 60018 T00940083 56015=
200910230753 METAR KPAE 230753Z AUTO 15009KT 7SM -RA FEW020 OVC055 10/09 A3010 RMK AO2 SLP192 P0004 T01000089 401170083=
200910230653 METAR KPAE 230653Z AUTO 15009KT 10SM -RA BKN060 OVC075 11/09 A3012 RMK AO2 SLP200 P0001 T01060089=
200910230553 METAR KPAE 230553Z AUTO 16007KT 10SM -RA OVC080 11/09 A3013 RMK AO2 RAB22 SLP205 P0000 60000 T01060089 10117 20106 56003=
200910230453 METAR KPAE 230453Z AUTO 16006KT 10SM BKN100 OVC120 11/08 A3013 RMK AO2 SLP206 T01060083=
200910230353 METAR KPAE 230353Z 15004KT 10SM OVC070 11/08 A3014 RMK AO2 SLP208 T01060083=
200910230253 METAR KPAE 230253Z VRB03KT 10SM OVC075 11/09 A3014 RMK AO2 SLP209 T01110089 58017=
200910230153 METAR KPAE 230153Z VRB03KT 10SM SCT085 11/09 A3016 RMK AO2 SLP214 T01110089=
200910230053 METAR KPAE 230053Z 20003KT 9SM FEW012 SCT095 11/09 A3018 RMK AO2 SLP221 T01110094=
200910222353 METAR KPAE 222353Z 15003KT 10SM FEW012 SCT110 12/08 A3019 RMK AO2 SLP225 T01170083 10117 20100 56013=
200910222253 METAR KPAE 222253Z 18005KT 10SM SCT008 12/09 A3021 RMK AO2 SLP231 T01170089=
200910222153 METAR KPAE 222153Z 14005KT 10SM SCT008 12/09 A3021 RMK AO2 SLP232 T01170089=
200910222132 SPECI KPAE 222132Z VRB03KT 8SM SCT006 12/09 A3022 RMK AO2=
200910222132 SPECI KPAE 222132Z VRB03KT 8SM SCT006 12/09 A3022 RMK AO2=
200910222053 METAR KPAE 222053Z 16005KT 7SM BKN006 11/09 A3023 RMK AO2 SLP238 T01110089 58004=
200910221953 METAR KPAE 221953Z 18004KT 9SM BKN008 OVC019 12/09 A3024 RMK AO2 SLP242 T01170089=
200910221853 METAR KPAE 221853Z 19003KT 8SM BKN006 OVC011 11/09 A3024 RMK AO2 SLP243 T01060089=
200910221753 METAR KPAE 221753Z 18006KT 10SM BKN006 OVC060 11/08 A3024 RMK AO2 SLP242 T01060083 10106 20083 58001=
200910221720 SPECI KPAE 221720Z 18006KT 10SM SCT006 10/08 A3024 RMK AO2=
200910221720 SPECI KPAE 221720Z 18006KT 10SM SCT006 10/08 A3024 RMK AO2=
200910221653 METAR KPAE 221653Z 17005KT 10SM FEW002 BKN008 09/08 A3024 RMK AO2 SLP242 T00940083=
200910221621 SPECI KPAE 221621Z VRB03KT 10SM FEW002 BKN008 09/08 A3025 RMK AO2=
200910221621 SPECI KPAE 221621Z VRB03KT 10SM FEW002 BKN008 09/08 A3025 RMK AO2=
200910221556 SPECI KPAE 221556Z VRB03KT 10SM SCT008 09/08 A3025 RMK AO2=
200910221556 SPECI KPAE 221556Z VRB03KT 10SM SCT008 09/08 A3025 RMK AO2=
200910221553 METAR KPAE 221553Z 14003KT 10SM BKN008 09/08 A3025 RMK AO2 SLP247 T00890078=
200910221534 SPECI KPAE 221534Z 15005KT 10SM BKN006 09/07 A3025 RMK AO2=
200910221534 SPECI KPAE 221534Z 15005KT 10SM BKN006 09/07 A3025 RMK AO2=
200910221453 METAR KPAE 221453Z VRB03KT 10SM SCT009 09/08 A3025 RMK AO2 SLP244 T00890078 50012=
200910221425 SPECI KPAE 221425Z 12003KT 10SM SCT009 09/08 A3026 RMK AO2=
200910221425 SPECI KPAE 221425Z 12003KT 10SM SCT009 09/08 A3026 RMK AO2=
200910221353 METAR KPAE 221353Z 17004KT 10SM OVC007 09/08 A3025 RMK AO2 SLP244 T00940083=
200910221334 SPECI KPAE 221334Z AUTO 18003KT 10SM OVC005 09/08 A3025 RMK AO2=
200910221334 SPECI KPAE 221334Z AUTO 18003KT 10SM OVC005 09/08 A3025 RMK AO2=
200910221253 METAR KPAE 221253Z AUTO 18004KT 7SM OVC003 09/08 A3023 RMK AO2 SLP237 T00890083=
200910221241 SPECI KPAE 221241Z AUTO 20003KT 6SM BR BKN003 OVC027 09/08 A3023 RMK AO2=
200910221241 SPECI KPAE 221241Z AUTO 20003KT 6SM BR BKN003 OVC027 09/08 A3023 RMK AO2=
200910221223 SPECI KPAE 221223Z AUTO 17003KT 8SM SCT003 OVC027 09/08 A3022 RMK AO2=
200910221223 SPECI KPAE 221223Z AUTO 17003KT 8SM SCT003 OVC027 09/08 A3022 RMK AO2=
200910221153 METAR KPAE 221153Z AUTO 15004KT 9SM OVC003 09/09 A3021 RMK AO2 SLP231 60001 70008 T00940089 10106 20083 50004=
200910221053 METAR KPAE 221053Z AUTO 16005KT 10SM OVC003 09/08 A3021 RMK AO2 SLP232 T00940083=
200910221038 SPECI KPAE 221038Z AUTO 16005KT 10SM BKN003 09/08 A3022 RMK AO2=
200910221038 SPECI KPAE 221038Z AUTO 16005KT 10SM BKN003 09/08 A3022 RMK AO2=
200910221030 SPECI KPAE 221030Z AUTO 12004KT 10SM SCT003 09/08 A3022 RMK AO2=
200910221030 SPECI KPAE 221030Z AUTO 12004KT 10SM SCT003 09/08 A3022 RMK AO2=
200910220953 METAR KPAE 220953Z AUTO 00000KT 7SM CLR 08/08 A3021 RMK AO2 SLP232 T00830078=
200910220908 SPECI KPAE 220908Z AUTO 00000KT 10SM SCT023 09/08 A3021 RMK AO2=
200910220908 SPECI KPAE 220908Z AUTO 00000KT 10SM SCT023 09/08 A3021 RMK AO2=
200910220853 METAR KPAE 220853Z AUTO 15004KT 10SM BKN023 09/08 A3020 RMK AO2 SLP228 60001 T00940083 51014=
200910220818 SPECI KPAE 220818Z AUTO 00000KT 10SM BKN023 10/08 A3019 RMK AO2=
200910220818 SPECI KPAE 220818Z AUTO 00000KT 10SM BKN023 10/08 A3019 RMK AO2=
200910220753 METAR KPAE 220753Z AUTO 15003KT 10SM CLR 10/08 A3019 RMK AO2 SLP222 P0001 T01000083 401500089=
200910220653 METAR KPAE 220653Z AUTO 15004KT 10SM CLR 10/09 A3017 RMK AO2 SLP219 T01000089=
200910220553 METAR KPAE 220553Z AUTO 11005KT 10SM CLR 11/09 A3016 RMK AO2 SLP213 60006 T01060089 10144 20100 51024=
200910220508 SPECI KPAE 220508Z AUTO 00000KT 10SM FEW026 11/09 A3015 RMK AO2=
200910220508 SPECI KPAE 220508Z AUTO 00000KT 10SM FEW026 11/09 A3015 RMK AO2=
200910220453 METAR KPAE 220453Z AUTO 13003KT 10SM BKN026 11/09 A3014 RMK AO2 SLP207 T01110094=
200910220432 SPECI KPAE 220432Z AUTO 12004KT 10SM BKN026 BKN030 OVC060 11/09 A3013 RMK AO2=
200910220432 SPECI KPAE 220432Z AUTO 12004KT 10SM BKN026 BKN030 OVC060 11/09 A3013 RMK AO2=
200910220353 METAR KPAE 220353Z 12003KT 10SM FEW024 OVC060 11/10 A3011 RMK AO2 SLP197 T01110100=
200910220253 METAR KPAE 220253Z 11006KT 10SM OVC060 12/10 A3009 RMK AO2 RAE02 SLP189 P0000 60006 T01170100 53021=
200910220153 METAR KPAE 220153Z 08004KT 10SM -RA FEW043 SCT060 OVC075 12/10 A3006 RMK AO2 SLP179 P0006 T01220100=
200910220101 SPECI KPAE 220101Z 35003KT 10SM -RA SCT004 BKN040 OVC080 13/11 A3004 RMK AO2 P0000=
200910220101 SPECI KPAE 220101Z 35003KT 10SM -RA SCT004 BKN040 OVC080 13/11 A3004 RMK AO2 P0000=
200910220053 METAR KPAE 220053Z 34006KT 10SM -RA FEW040 BKN060 OVC080 13/10 A3003 RMK AO2 RAB18 SLP171 P0000 T01280100=
200910212353 METAR KPAE 212353Z 00000KT 10SM FEW048 OVC070 14/11 A3002 RMK AO2 SLP166 60000 T01440111 10150 20111 51015=
200910212253 METAR KPAE 212253Z 23005KT 10SM SCT065 OVC085 14/11 A3001 RMK AO2 SLP163 T01440106=
200910212153 METAR KPAE 212153Z 19008KT 10SM BKN014 BKN070 14/11 A3000 RMK AO2 SLP157 T01440106=
200910212053 METAR KPAE 212053Z 16009KT 10SM BKN011 OVC018 14/11 A2998 RMK AO2 SLP151 60000 T01390111 51005=
200910212050 SPECI KPAE 212050Z 17008KT 10SM BKN011 OVC018 14/11 A2998 RMK AO2=
200910212050 SPECI KPAE 212050Z 17008KT 10SM BKN011 OVC018 14/11 A2998 RMK AO2=
200910212002 SPECI KPAE 212002Z 20008KT 10SM BKN009 OVC013 13/11 A2998 RMK AO2=
200910212002 SPECI KPAE 212002Z 20008KT 10SM BKN009 OVC013 13/11 A2998 RMK AO2=
200910211953 METAR KPAE 211953Z 19010KT 10SM OVC011 13/11 A2998 RMK AO2 SLP151 T01280106=
200910211853 METAR KPAE 211853Z 17010G19KT 7SM BKN005 OVC013 12/10 A2996 RMK AO2 RAB25E35 SLP147 P0000 T01170100=
200910211822 SPECI KPAE 211822Z 15009G16KT 3SM BR BKN005 OVC021 11/09 A2996 RMK AO2=
200910211822 SPECI KPAE 211822Z 15009G16KT 3SM BR BKN005 OVC021 11/09 A2996 RMK AO2=
200910211753 METAR KPAE 211753Z 15011KT 10SM BKN023 OVC029 12/09 A2995 RMK AO2 RAE01 SLP143 P0001 60001 T01170089 10128 20111 53009=
200910211653 METAR KPAE 211653Z 16009KT 9SM -RA FEW028 OVC035 12/08 A2994 RMK AO2 RAB47 SLP139 P0000 T01220083=
200910211553 METAR KPAE 211553Z 16011KT 10SM BKN047 OVC060 12/08 A2993 RMK AO2 RAE05 SLP135 P0000 T01220078=
200910211453 METAR KPAE 211453Z 17012KT 10SM -RA BKN048 BKN075 OVC090 12/08 A2992 RMK AO2 RAB53 SLP133 P0000 60000 T01170083 55004=
200910211353 METAR KPAE 211353Z 16008KT 10SM BKN060 BKN070 OVC100 12/08 A2991 RMK AO2 SLP128 T01170083=
200910211253 METAR KPAE 211253Z AUTO 15007KT 10SM OVC070 12/08 A2991 RMK AO2 RAB1159E14 SLP131 P0000 T01170083=
200910211153 METAR KPAE 211153Z AUTO 16009KT 10SM SCT075 OVC090 12/08 A2993 RMK AO2 SLP136 60000 T01170083 10128 20117 58014=
200910211053 METAR KPAE 211053Z AUTO 15008KT 10SM BKN100 OVC120 12/08 A2995 RMK AO2 SLP141 T01170083=
200910210953 METAR KPAE 210953Z AUTO 15007KT 10SM OVC110 12/08 A2997 RMK AO2 SLP149 T01220078=
200910210853 METAR KPAE 210853Z AUTO 12004KT 10SM OVC100 12/08 A2998 RMK AO2 RAB0756E15 SLP151 P0000 60000 T01220078 55007=
200910210753 METAR KPAE 210753Z AUTO 12004KT 10SM FEW070 OVC095 12/08 A2997 RMK AO2 SLP148 T01220083 401390078=
200910210653 METAR KPAE 210653Z AUTO 12008KT 10SM OVC100 12/08 A2997 RMK AO2 SLP149 T01170083=
200910210553 METAR KPAE 210553Z AUTO 11006KT 10SM BKN110 12/08 A3000 RMK AO2 SLP158 T01170083 10133 20117 56009=
200910210453 METAR KPAE 210453Z AUTO VRB04KT 10SM BKN110 12/08 A3000 RMK AO2 SLP160 T01220083=
200910210353 METAR KPAE 210353Z AUTO 15005KT 10SM BKN120 12/08 A3000 RMK AO2 SLP161 T01220083=
200910210253 METAR KPAE 210253Z 16008KT 10SM BKN110 12/08 A3002 RMK AO2 SLP168 T01220083 56012=
200910210153 METAR KPAE 210153Z 15006KT 10SM BKN120 12/08 A3003 RMK AO2 SLP170 T01220083=
200910210053 METAR KPAE 210053Z 15004KT 10SM BKN110 13/08 A3004 RMK AO2 SLP174 T01280078=
200910202353 METAR KPAE 202353Z 15007KT 10SM CLR 13/07 A3006 RMK AO2 SLP180 T01330072 10139 20100 58011=
200910202253 METAR KPAE 202253Z 00000KT 7SM CLR 13/09 A3008 RMK AO2 SLP185 T01280094=
200910202153 METAR KPAE 202153Z 00000KT 6SM HZ CLR 12/09 A3008 RMK AO2 SLP187 T01220094=
200910202053 METAR KPAE 202053Z 27007KT 230V290 6SM HZ SCT004 12/09 A3009 RMK AO2 SLP191 T01220094 58009=
200910201953 METAR KPAE 201953Z 00000KT 5SM HZ FEW004 12/09 A3011 RMK AO2 SLP195 T01170089=
200910201927 SPECI KPAE 201927Z 00000KT 4SM BR SCT002 11/09 A3011 RMK AO2=
200910201927 SPECI KPAE 201927Z 00000KT 4SM BR SCT002 11/09 A3011 RMK AO2=
200910201853 METAR KPAE 201853Z 28003KT 3SM BR BKN002 10/09 A3012 RMK AO2 SLP202 T01000089=
200910201835 SPECI KPAE 201835Z 25003KT 1SM BR OVC008 10/09 A3012 RMK AO2 RVRNO=
200910201835 SPECI KPAE 201835Z 25003KT 1SM BR OVC008 10/09 A3012 RMK AO2 RVRNO=
200910201814 SPECI KPAE 201814Z 28004KT 5SM BR BKN008 10/09 A3012 RMK AO2=
200910201814 SPECI KPAE 201814Z 28004KT 5SM BR BKN008 10/09 A3012 RMK AO2=
200910201802 SPECI KPAE 201802Z 28005KT 8SM SCT003 11/09 A3012 RMK AO2=
200910201802 SPECI KPAE 201802Z 28005KT 8SM SCT003 11/09 A3012 RMK AO2=
200910201753 METAR KPAE 201753Z 00000KT 9SM CLR 11/08 A3012 RMK AO2 SLP200 T01060083 10106 20078 50001=
200910201653 METAR KPAE 201653Z 00000KT 9SM FEW001 BKN200 10/08 A3013 RMK AO2 SLP203 T01000078=
200910201553 METAR KPAE 201553Z 00000KT 8SM FEW039 BKN100 09/07 A3012 RMK AO2 SLP201 T00890072=
200910201453 METAR KPAE 201453Z 17003KT 5SM BR OVC037 09/08 A3011 RMK AO2 SLP199 T00890078 51003=
200910201353 METAR KPAE 201353Z AUTO 00000KT 5SM BR BKN037 09/08 A3011 RMK AO2 SLP198 T00890078=
200910201308 SPECI KPAE 201308Z AUTO 00000KT 6SM BR SCT026 OVC033 09/08 A3011 RMK AO2=
200910201308 SPECI KPAE 201308Z AUTO 00000KT 6SM BR SCT026 OVC033 09/08 A3011 RMK AO2=
200910201253 METAR KPAE 201253Z AUTO 00000KT 6SM BR BKN026 OVC033 09/08 A3011 RMK AO2 SLP197 T00890078=
200910201153 METAR KPAE 201153Z AUTO 11003KT 6SM BR OVC026 09/08 A3010 RMK AO2 SLP195 T00890078 10100 20078 50002=
200910201135 SPECI KPAE 201135Z AUTO 00000KT 3SM BR FEW001 OVC026 08/08 A3011 RMK AO2=
200910201135 SPECI KPAE 201135Z AUTO 00000KT 3SM BR FEW001 OVC026 08/08 A3011 RMK AO2=
200910201130 SPECI KPAE 201130Z AUTO 00000KT 1SM BR FEW001 OVC026 08/08 A3011 RMK AO2 RVRNO=
200910201130 SPECI KPAE 201130Z AUTO 00000KT 1SM BR FEW001 OVC026 08/08 A3011 RMK AO2 RVRNO=
200910201114 SPECI KPAE 201114Z AUTO 12003KT 1/4SM FG SCT001 BKN026 08/07 A3010 RMK AO2 RVRNO=
200910201114 SPECI KPAE 201114Z AUTO 12003KT 1/4SM FG SCT001 BKN026 08/07 A3010 RMK AO2 RVRNO=
200910201108 SPECI KPAE 201108Z AUTO 11005KT 1 1/2SM BR FEW001 SCT026 08/07 A3010 RMK AO2=
200910201108 SPECI KPAE 201108Z AUTO 11005KT 1 1/2SM BR FEW001 SCT026 08/07 A3010 RMK AO2=
200910201053 METAR KPAE 201053Z AUTO 12003KT 5SM BR CLR 08/07 A3011 RMK AO2 SLP195 T00830067=
200910200953 METAR KPAE 200953Z AUTO 00000KT 7SM CLR 09/07 A3011 RMK AO2 SLP196 T00890072=
200910200853 METAR KPAE 200853Z AUTO 15003KT 8SM CLR 09/08 A3010 RMK AO2 SLP192 T00890078 58000=
200910200753 METAR KPAE 200753Z AUTO 15004KT 10SM CLR 10/08 A3010 RMK AO2 SLP193 T01000078 401390083=
200910200653 METAR KPAE 200653Z AUTO 00000KT 9SM CLR 10/08 A3010 RMK AO2 SLP194 T01000078=
200910200553 METAR KPAE 200553Z AUTO 00000KT 9SM CLR 10/08 A3010 RMK AO2 SLP193 T01000083 10128 20083 51017=
200910200453 METAR KPAE 200453Z AUTO 00000KT 8SM SCT038 09/07 A3009 RMK AO2 SLP191 T00890072=
200910200353 METAR KPAE 200353Z AUTO 00000KT 8SM CLR 10/08 A3006 RMK AO2 SLP182 T01000083=
200910200253 METAR KPAE 200253Z 00000KT 8SM CLR 10/08 A3005 RMK AO2 SLP176 T01000078 53004=
200910200153 METAR KPAE 200153Z 15004KT 10SM SCT030 BKN100 12/09 A3003 RMK AO2 SLP170 T01170089=
200910200053 METAR KPAE 200053Z 00000KT 10SM CLR 12/08 A3004 RMK AO2 SLP172 T01170083=
200910192353 METAR KPAE 192353Z 00000KT 10SM SCT025 BKN060 13/08 A3003 RMK AO2 SLP171 T01280078 10139 20106 51006=
200910192253 METAR KPAE 192253Z 34005KT 10SM FEW020 SCT065 13/08 A3003 RMK AO2 SLP169 T01330083=
200910192249 SPECI KPAE 192249Z 36004KT 10SM FEW018 BKN065 14/08 A3003 RMK AO2=
200910192249 SPECI KPAE 192249Z 36004KT 10SM FEW018 BKN065 14/08 A3003 RMK AO2=
200910192153 METAR KPAE 192153Z 01004KT 10SM SCT015 OVC020 13/08 A3001 RMK AO2 SLP164 T01280083=
200910192114 SPECI KPAE 192114Z 36005KT 10SM SCT010 OVC015 12/08 A3000 RMK AO2=
200910192114 SPECI KPAE 192114Z 36005KT 10SM SCT010 OVC015 12/08 A3000 RMK AO2=
200910192107 SPECI KPAE 192107Z 35004KT 10SM BKN013 OVC019 12/09 A3000 RMK AO2=
200910192107 SPECI KPAE 192107Z 35004KT 10SM BKN013 OVC019 12/09 A3000 RMK AO2=
200910192053 METAR KPAE 192053Z 36004KT 10SM SCT010 OVC018 12/09 A2999 RMK AO2 SLP158 T01220089 51010=
200910191953 METAR KPAE 191953Z VRB04KT 9SM BKN005 BKN010 OVC017 11/09 A2999 RMK AO2 SLP156 T01110094=
200910191853 METAR KPAE 191853Z 35003KT 6SM BR BKN005 BKN010 OVC016 11/09 A2998 RMK AO2 CIG 003V007 SLP153 T01110094=
200910191753 METAR KPAE 191753Z 35004KT 4SM BR OVC008 11/09 A2996 RMK AO2 CIG 003V011 SLP147 T01060094 10106 20100 51015=
200910191653 METAR KPAE 191653Z 00000KT 2 1/2SM BR OVC003 10/09 A2995 RMK AO2 CIG 001V005 SLP142 T01000094=
200910191642 SPECI KPAE 191642Z 34003KT 2 1/2SM BR OVC003 10/09 A2995 RMK AO2 CIG 001V006=
200910191642 SPECI KPAE 191642Z 34003KT 2 1/2SM BR OVC003 10/09 A2995 RMK AO2 CIG 001V006=
200910191553 METAR KPAE 191553Z 35004KT 1SM BR OVC001 10/09 A2993 RMK AO2 SLP137 T01000094 RVRNO=
200910191523 SPECI KPAE 191523Z 36003KT 1 1/2SM BR OVC001 10/09 A2993 RMK AO2 CIG 001V005=
200910191523 SPECI KPAE 191523Z 36003KT 1 1/2SM BR OVC001 10/09 A2993 RMK AO2 CIG 001V005=
200910191508 SPECI KPAE 191508Z 36004KT 2 1/2SM BR OVC001 10/09 A2992 RMK AO2=
200910191508 SPECI KPAE 191508Z 36004KT 2 1/2SM BR OVC001 10/09 A2992 RMK AO2=
200910191500 SPECI KPAE 191500Z 36004KT 1 1/2SM BR OVC001 10/09 A2992 RMK AO2=
200910191500 SPECI KPAE 191500Z 36004KT 1 1/2SM BR OVC001 10/09 A2992 RMK AO2=
200910191453 METAR KPAE 191453Z 35003KT 1/2SM FG OVC001 10/09 A2992 RMK AO2 SLP132 T01000094 52009 RVRNO=
200910191424 SPECI KPAE 191424Z 34004KT 1/2SM FG VV001 10/09 A2991 RMK AO2 RVRNO=
200910191424 SPECI KPAE 191424Z 34004KT 1/2SM FG VV001 10/09 A2991 RMK AO2 RVRNO=
200910191353 METAR KPAE 191353Z AUTO VRB03KT 1/4SM FG VV001 10/09 A2991 RMK AO2 SLP128 T01000094 RVRNO=
200910191253 METAR KPAE 191253Z AUTO 34003KT 1/4SM FG VV001 10/09 A2990 RMK AO2 SLP126 T01000094 RVRNO=
200910191245 SPECI KPAE 191245Z AUTO 34004KT 1/2SM FG VV001 10/09 A2990 RMK AO2 RVRNO=
200910191245 SPECI KPAE 191245Z AUTO 34004KT 1/2SM FG VV001 10/09 A2990 RMK AO2 RVRNO=
200910191214 SPECI KPAE 191214Z AUTO 35005KT 1/4SM FG VV001 10/09 A2989 RMK AO2 RVRNO=
200910191214 SPECI KPAE 191214Z AUTO 35005KT 1/4SM FG VV001 10/09 A2989 RMK AO2 RVRNO=
200910191206 SPECI KPAE 191206Z AUTO 36003KT 1 3/4SM BR OVC001 10/09 A2989 RMK AO2=
200910191206 SPECI KPAE 191206Z AUTO 36003KT 1 3/4SM BR OVC001 10/09 A2989 RMK AO2=
200910191153 METAR KPAE 191153Z AUTO 35005KT 5SM BR OVC001 10/09 A2989 RMK AO2 SLP122 60001 70001 T01000094 10100 20094 51002=
200910191053 METAR KPAE 191053Z AUTO 34005KT 3SM BR OVC001 10/09 A2989 RMK AO2 SLP121 T01000094=
200910191051 SPECI KPAE 191051Z AUTO 34004KT 2 1/2SM BR OVC001 10/09 A2989 RMK AO2=
200910191051 SPECI KPAE 191051Z AUTO 34004KT 2 1/2SM BR OVC001 10/09 A2989 RMK AO2=
200910191022 SPECI KPAE 191022Z AUTO 35006KT 1 3/4SM BR OVC001 10/09 A2988 RMK AO2=
200910191022 SPECI KPAE 191022Z AUTO 35006KT 1 3/4SM BR OVC001 10/09 A2988 RMK AO2=
200910190953 METAR KPAE 190953Z AUTO VRB03KT 3SM BR OVC001 10/09 A2988 RMK AO2 SLP120 T01000094=
200910190934 SPECI KPAE 190934Z AUTO 35003KT 5SM BR OVC001 10/09 A2988 RMK AO2=
200910190934 SPECI KPAE 190934Z AUTO 35003KT 5SM BR OVC001 10/09 A2988 RMK AO2=
200910190920 SPECI KPAE 190920Z AUTO 00000KT 2SM BR OVC001 10/09 A2988 RMK AO2=
200910190920 SPECI KPAE 190920Z AUTO 00000KT 2SM BR OVC001 10/09 A2988 RMK AO2=
200910190853 METAR KPAE 190853Z AUTO 35005KT 5SM BR OVC001 10/09 A2988 RMK AO2 SLP119 60001 T01000094 56007=
200910190828 SPECI KPAE 190828Z AUTO 34004KT 5SM BR BKN001 OVC005 10/09 A2989 RMK AO2=
200910190828 SPECI KPAE 190828Z AUTO 34004KT 5SM BR BKN001 OVC005 10/09 A2989 RMK AO2=
200910190753 METAR KPAE 190753Z AUTO 36004KT 7SM OVC003 10/09 A2989 RMK AO2 SLP121 T01000089 401390094=
200910190706 SPECI KPAE 190706Z AUTO 00000KT 8SM BKN003 10/09 A2989 RMK AO2=
200910190706 SPECI KPAE 190706Z AUTO 00000KT 8SM BKN003 10/09 A2989 RMK AO2=
200910190653 METAR KPAE 190653Z AUTO 00000KT 6SM BR FEW003 10/09 A2989 RMK AO2 SLP123 P0001 T01000089=
200910190553 METAR KPAE 190553Z AUTO 00000KT 7SM FEW007 10/09 A2990 RMK AO2 SLP127 T01000089 10128 20100 56001=
200910190548 SPECI KPAE 190548Z AUTO 00000KT 8SM SCT007 10/09 A2990 RMK AO2=
200910190548 SPECI KPAE 190548Z AUTO 00000KT 8SM SCT007 10/09 A2990 RMK AO2=
200910190526 SPECI KPAE 190526Z AUTO 00000KT 10SM OVC005 10/09 A2991 RMK AO2 CIG 004V007=
200910190526 SPECI KPAE 190526Z AUTO 00000KT 10SM OVC005 10/09 A2991 RMK AO2 CIG 004V007=
200910190453 METAR KPAE 190453Z AUTO VRB03KT 9SM BKN003 11/09 A2990 RMK AO2 SLP127 T01060094=
200910190446 SPECI KPAE 190446Z AUTO 01003KT 9SM BKN003 10/09 A2990 RMK AO2=
200910190446 SPECI KPAE 190446Z AUTO 01003KT 9SM BKN003 10/09 A2990 RMK AO2=
200910190423 SPECI KPAE 190423Z AUTO 01003KT 8SM SCT001 10/09 A2990 RMK AO2=
200910190423 SPECI KPAE 190423Z AUTO 01003KT 8SM SCT001 10/09 A2990 RMK AO2=
200910190353 METAR KPAE 190353Z AUTO 01003KT 6SM BR OVC001 11/10 A2991 RMK AO2 SLP128 T01060100=
200910190344 SPECI KPAE 190344Z AUTO 01003KT 6SM BR OVC001 11/10 A2991 RMK AO2=
200910190344 SPECI KPAE 190344Z AUTO 01003KT 6SM BR OVC001 11/10 A2991 RMK AO2=
200910190312 SPECI KPAE 190312Z 34006KT 3SM BR BKN003 11/11 A2992=
200910190312 SPECI KPAE 190312Z 34006KT 3SM BR BKN003 11/11 A2992=
200910190307 SPECI KPAE 190307Z AUTO VRB03KT 7SM BKN003 11/10 A2991 RMK AO2=
200910190307 SPECI KPAE 190307Z AUTO VRB03KT 7SM BKN003 11/10 A2991 RMK AO2=
200910190253 METAR KPAE 190253Z AUTO 36003KT 6SM BR FEW003 11/09 A2991 RMK AO2 SLP130 T01060094 56008=
200910190153 METAR KPAE 190153Z AUTO 00000KT 10SM CLR 11/10 A2992 RMK AO2 SLP131 T01110100=
200910190053 METAR KPAE 190053Z AUTO 35003KT 10SM CLR 12/10 A2992 RMK AO2 SLP134 T01170100=
200910182353 METAR KPAE 182353Z AUTO 00000KT 10SM FEW055 13/11 A2994 RMK AO2 SLP137 60000 T01280106 10139 20122 56015=
200910182253 METAR KPAE 182253Z AUTO 00000KT 10SM OVC050 14/10 A2995 RMK AO2 SLP141 T01390100=
200910182153 METAR KPAE 182153Z AUTO 00000KT 10SM SCT042 OVC050 13/11 A2996 RMK AO2 RAB28E37 SLP146 P0000 T01330106=
200910182134 SPECI KPAE 182134Z AUTO 00000KT 10SM -RA FEW016 SCT030 OVC039 13/11 A2997 RMK AO2 RAB28 P0000=
200910182134 SPECI KPAE 182134Z AUTO 00000KT 10SM -RA FEW016 SCT030 OVC039 13/11 A2997 RMK AO2 RAB28 P0000=
200910182053 METAR KPAE 182053Z AUTO 24003KT 10SM BKN016 OVC023 13/10 A2998 RMK AO2 SLP152 T01280100 58004=
200910182008 SPECI KPAE 182008Z AUTO 28004KT 10SM BKN018 OVC030 13/11 A2999 RMK AO2=
200910182008 SPECI KPAE 182008Z AUTO 28004KT 10SM BKN018 OVC030 13/11 A2999 RMK AO2=
200910181953 METAR KPAE 181953Z AUTO 22003KT 10SM SCT017 OVC030 14/10 A2999 RMK AO2 SLP154 T01390100=
200910181853 METAR KPAE 181853Z AUTO 19008KT 10SM SCT014 BKN021 BKN027 13/09 A2999 RMK AO2 SLP156 T01330094=
200910181851 SPECI KPAE 181851Z AUTO 19008KT 10SM SCT014 BKN021 BKN027 13/09 A2999 RMK AO2=
200910181851 SPECI KPAE 181851Z AUTO 19008KT 10SM SCT014 BKN021 BKN027 13/09 A2999 RMK AO2=
200910181839 SPECI KPAE 181839Z AUTO 18007KT 10SM BKN014 OVC025 13/10 A2999 RMK AO2=
200910181839 SPECI KPAE 181839Z AUTO 18007KT 10SM BKN014 OVC025 13/10 A2999 RMK AO2=
200910181808 SPECI KPAE 181808Z AUTO 22003KT 10SM SCT014 OVC023 12/11 A3000 RMK AO2=
200910181808 SPECI KPAE 181808Z AUTO 22003KT 10SM SCT014 OVC023 12/11 A3000 RMK AO2=
200910181754 METAR KPAE 181754Z COR 21006KT 10SM BKN006 BKN020 12/11 A3000=
200910181753 METAR KPAE 181753Z AUTO 25005KT 10SM FEW009 BKN014 OVC025 12/11 A3000 RMK AO2 SLP157 60000 T01220106 10133 20117 50002=
200910181739 SPECI KPAE 181739Z AUTO 24004KT 10SM BKN013 BKN019 OVC025 13/11 A3000 RMK AO2=
200910181739 SPECI KPAE 181739Z AUTO 24004KT 10SM BKN013 BKN019 OVC025 13/11 A3000 RMK AO2=
200910181653 METAR KPAE 181653Z AUTO 19007KT 10SM FEW009 OVC027 13/11 A3000 RMK AO2 SLP159 T01280106=
200910181612 SPECI KPAE 181612Z AUTO 19010KT 10SM SCT008 OVC027 12/11 A3000 RMK AO2=
200910181612 SPECI KPAE 181612Z AUTO 19010KT 10SM SCT008 OVC027 12/11 A3000 RMK AO2=
200910181558 SPECI KPAE 181558Z 17008KT 10SM SCT008 BKN017 BKN029 12/11 A2999=
200910181558 SPECI KPAE 181558Z 17008KT 10SM SCT008 BKN017 BKN029 12/11 A2999=
200910181553 METAR KPAE 181553Z AUTO 18008KT 10SM BKN008 BKN029 12/11 A2999 RMK AO2 SLP156 T01220106=
200910181551 SPECI KPAE 181551Z AUTO 19009KT 10SM BKN008 BKN029 12/11 A2999 RMK AO2=
200910181551 SPECI KPAE 181551Z AUTO 19009KT 10SM BKN008 BKN029 12/11 A2999 RMK AO2=
200910181507 SPECI KPAE 181507Z AUTO 19010KT 9SM FEW008 BKN023 OVC075 12/11 A2998 RMK AO2=
200910181507 SPECI KPAE 181507Z AUTO 19010KT 9SM FEW008 BKN023 OVC075 12/11 A2998 RMK AO2=
200910181501 METAR KPAE 181501Z 16010KT 10SM SCT008 BKN017 OVC023 12/11 A2998=
200910181453 METAR KPAE 181453Z AUTO 20009KT 10SM FEW017 BKN023 OVC075 12/11 A2998 RMK AO2 SLP150 60000 T01170106 53010=
200910181443 SPECI KPAE 181443Z AUTO 20008KT 10SM SCT015 BKN021 OVC075 12/10 A2997 RMK AO2=
200910181443 SPECI KPAE 181443Z AUTO 20008KT 10SM SCT015 BKN021 OVC075 12/10 A2997 RMK AO2=
200910181419 SPECI KPAE 181419Z AUTO 18008KT 10SM FEW013 SCT027 OVC075 12/10 A2996 RMK AO2=
200910181419 SPECI KPAE 181419Z AUTO 18008KT 10SM FEW013 SCT027 OVC075 12/10 A2996 RMK AO2=
200910181353 METAR KPAE 181353Z AUTO 19006KT 10SM OVC025 12/11 A2996 RMK AO2 RAB12E21 SLP145 P0000 T01220106=
200910181327 SPECI KPAE 181327Z AUTO 21006KT 7SM SCT008 SCT014 OVC020 12/11 A2996 RMK AO2 RAB12E21 P0000=
200910181327 SPECI KPAE 181327Z AUTO 21006KT 7SM SCT008 SCT014 OVC020 12/11 A2996 RMK AO2 RAB12E21 P0000=
200910181309 SPECI KPAE 181309Z AUTO 21009KT 10SM BKN008 BKN014 OVC021 12/11 A2996 RMK AO2 CIG 006V011=
200910181309 SPECI KPAE 181309Z AUTO 21009KT 10SM BKN008 BKN014 OVC021 12/11 A2996 RMK AO2 CIG 006V011=
200910181253 METAR KPAE 181253Z AUTO 21008KT 10SM FEW008 BKN018 OVC075 12/11 A2996 RMK AO2 SLP143 T01220106=
200910181242 SPECI KPAE 181242Z AUTO 21007KT 10SM FEW007 SCT013 OVC075 12/11 A2995 RMK AO2=
200910181242 SPECI KPAE 181242Z AUTO 21007KT 10SM FEW007 SCT013 OVC075 12/11 A2995 RMK AO2=
200910181219 SPECI KPAE 181219Z AUTO 20009KT 10SM FEW007 OVC013 13/11 A2995 RMK AO2=
200910181219 SPECI KPAE 181219Z AUTO 20009KT 10SM FEW007 OVC013 13/11 A2995 RMK AO2=
200910181211 SPECI KPAE 181211Z AUTO 21011KT 10SM FEW009 BKN015 OVC019 13/11 A2995 RMK AO2=
200910181211 SPECI KPAE 181211Z AUTO 21011KT 10SM FEW009 BKN015 OVC019 13/11 A2995 RMK AO2=
200910181201 SPECI KPAE 181201Z AUTO 21009KT 10SM SCT009 OVC013 13/11 A2995 RMK AO2=
200910181201 SPECI KPAE 181201Z AUTO 21009KT 10SM SCT009 OVC013 13/11 A2995 RMK AO2=
200910181153 METAR KPAE 181153Z AUTO 21011KT 10SM BKN009 OVC013 13/11 A2995 RMK AO2 CIG 007V010 SLP139 70055 T01280111 10128 20122 51016=
200910181129 SPECI KPAE 181129Z AUTO 20010KT 10SM BKN009 OVC013 13/11 A2994 RMK AO2 CIG 007V011=
200910181129 SPECI KPAE 181129Z AUTO 20010KT 10SM BKN009 OVC013 13/11 A2994 RMK AO2 CIG 007V011=
200910181107 SPECI KPAE 181107Z AUTO 20010KT 10SM OVC013 13/11 A2994 RMK AO2=
200910181107 SPECI KPAE 181107Z AUTO 20010KT 10SM OVC013 13/11 A2994 RMK AO2=
200910181053 METAR KPAE 181053Z AUTO 20009KT 10SM BKN009 OVC013 13/11 A2993 RMK AO2 SLP135 T01280111=
200910181027 SPECI KPAE 181027Z AUTO 20013G18KT 10SM BKN009 OVC012 13/11 A2993 RMK AO2 CIG 007V011=
200910181027 SPECI KPAE 181027Z AUTO 20013G18KT 10SM BKN009 OVC012 13/11 A2993 RMK AO2 CIG 007V011=
200910180953 METAR KPAE 180953Z AUTO 19011KT 10SM BKN014 BKN050 BKN080 13/11 A2993 RMK AO2 SLP133 T01280106=
200910180934 SPECI KPAE 180934Z AUTO 19009KT 10SM BKN014 BKN070 OVC085 13/11 A2992 RMK AO2=
200910180934 SPECI KPAE 180934Z AUTO 19009KT 10SM BKN014 BKN070 OVC085 13/11 A2992 RMK AO2=
200910180926 SPECI KPAE 180926Z AUTO 19007KT 10SM SCT010 BKN016 OVC070 13/11 A2992 RMK AO2=
200910180926 SPECI KPAE 180926Z AUTO 19007KT 10SM SCT010 BKN016 OVC070 13/11 A2992 RMK AO2=
200910180913 SPECI KPAE 180913Z AUTO 19009KT 10SM BKN009 BKN015 OVC070 13/11 A2991 RMK AO2 CIG 007V012=
200910180913 SPECI KPAE 180913Z AUTO 19009KT 10SM BKN009 BKN015 OVC070 13/11 A2991 RMK AO2 CIG 007V012=
200910180853 METAR KPAE 180853Z AUTO 18010G17KT 10SM SCT009 BKN070 13/11 A2990 RMK AO2 PK WND 17026/0759 SLP122 T01280111 53004=
200910180813 SPECI KPAE 180813Z AUTO 18015KT 10SM SCT009 13/11 A2988 RMK AO2 PK WND 17026/0759=
200910180813 SPECI KPAE 180813Z AUTO 18015KT 10SM SCT009 13/11 A2988 RMK AO2 PK WND 17026/0759=
200910180753 METAR KPAE 180753Z AUTO 18015G25KT 10SM BKN009 BKN075 13/11 A2989 RMK AO2 CIG 007V011 SLP119 T01280111 401780128=
200910180653 METAR KPAE 180653Z AUTO 17014KT 10SM FEW009 BKN060 OVC070 13/11 A2989 RMK AO2 PK WND 17028/0607 SLP119 T01280111=
200910180641 SPECI KPAE 180641Z AUTO 17014G24KT 10SM SCT009 BKN070 13/11 A2988 RMK AO2 PK WND 17028/0607=
200910180641 SPECI KPAE 180641Z AUTO 17014G24KT 10SM SCT009 BKN070 13/11 A2988 RMK AO2 PK WND 17028/0607=
200910180630 SPECI KPAE 180630Z AUTO 17014G21KT 10SM BKN009 BKN070 13/11 A2988 RMK AO2 PK WND 17028/0607 CIG 007V012=
200910180630 SPECI KPAE 180630Z AUTO 17014G21KT 10SM BKN009 BKN070 13/11 A2988 RMK AO2 PK WND 17028/0607 CIG 007V012=
200910180601 SPECI KPAE 180601Z AUTO 17015G21KT 10SM FEW009 13/11 A2987 RMK AO2=
200910180601 SPECI KPAE 180601Z AUTO 17015G21KT 10SM FEW009 13/11 A2987 RMK AO2=
200910180553 METAR KPAE 180553Z AUTO 17013KT 10SM FEW011 13/11 A2987 RMK AO2 SLP115 T01280111 10167 20128 53011=
200910180544 SPECI KPAE 180544Z AUTO 17013G21KT 10SM SCT011 13/11 A2987 RMK AO2=
200910180544 SPECI KPAE 180544Z AUTO 17013G21KT 10SM SCT011 13/11 A2987 RMK AO2=
200910180522 SPECI KPAE 180522Z AUTO 17013G21KT 10SM BKN011 13/11 A2987 RMK AO2=
200910180522 SPECI KPAE 180522Z AUTO 17013G21KT 10SM BKN011 13/11 A2987 RMK AO2=
200910180453 METAR KPAE 180453Z AUTO 18019G27KT 10SM FEW011 13/11 A2986 RMK AO2 PK WND 18027/0452 SLP110 T01330106=
200910180353 METAR KPAE 180353Z AUTO 20020G26KT 10SM CLR 13/11 A2984 RMK AO2 PK WND 18027/0317 SLP106 T01330106=
200910180253 METAR KPAE 180253Z AUTO 18013KT 10SM FEW027 BKN100 BKN120 14/11 A2984 RMK AO2 SLP103 T01440106 51030=
200910180153 METAR KPAE 180153Z AUTO 19020G26KT 10SM CLR 14/11 A2982 RMK AO2 PK WND 19027/0138 SLP096 T01440106=
200910180053 METAR KPAE 180053Z AUTO 19019G32KT 10SM CLR 15/10 A2978 RMK AO2 PK WND 20036/0016 SLP084 T01500100=
200910172353 METAR KPAE 172353Z AUTO 20022G32KT 10SM CLR 17/12 A2975 RMK AO2 PK WND 18033/2323 RAE02 SLP072 P0000 60000 T01670122 10178 20156 53005=
200910172253 METAR KPAE 172253Z AUTO 19023G34KT 10SM -RA FEW055 SCT085 BKN110 17/14 A2974 RMK AO2 PK WND 19037/2235 RAB35 SLP071 P0000 T01670139=
200910172218 SPECI KPAE 172218Z AUTO 19020G32KT 10SM SCT018 SCT029 17/14 A2974 RMK AO2 PK WND 18032/2215=
200910172218 SPECI KPAE 172218Z AUTO 19020G32KT 10SM SCT018 SCT029 17/14 A2974 RMK AO2 PK WND 18032/2215=
200910172153 METAR KPAE 172153Z AUTO 20023G29KT 10SM BKN016 17/14 A2974 RMK AO2 PK WND 19030/2127 RAB04E13 SLP067 P0000 T01720144=
200910172151 SPECI KPAE 172151Z AUTO 19021G29KT 10SM BKN016 17/14 A2973 RMK AO2 PK WND 19030/2127 RAB04E13 P0000=
200910172151 SPECI KPAE 172151Z AUTO 19021G29KT 10SM BKN016 17/14 A2973 RMK AO2 PK WND 19030/2127 RAB04E13 P0000=
200910172119 SPECI KPAE 172119Z AUTO 18020G28KT 10SM SCT008 BKN013 BKN030 17/14 A2972 RMK AO2 PK WND 19028/2117 RAB04E13 P0000=
200910172119 SPECI KPAE 172119Z AUTO 18020G28KT 10SM SCT008 BKN013 BKN030 17/14 A2972 RMK AO2 PK WND 19028/2117 RAB04E13 P0000=
200910172057 METAR KPAE 172057Z COR 19019G24KT 10SM BKN008 BKN010 OVC017 17/15 A2974=
200910172053 METAR KPAE 172053Z AUTO 19020G26KT 10SM BKN010 OVC017 17/15 A2973 RMK AO2 PK WND 19028/2040 CIG 007V013 SLP066 60000 T01670150 55002=
200910172039 SPECI KPAE 172039Z AUTO 19019G24KT 10SM BKN010 BKN017 OVC024 17/15 A2974 RMK AO2 CIG 007V014 PRESRR=
200910172039 SPECI KPAE 172039Z AUTO 19019G24KT 10SM BKN010 BKN017 OVC024 17/15 A2974 RMK AO2 CIG 007V014 PRESRR=
200910172001 SPECI KPAE 172001Z AUTO 18013KT 10SM SCT010 SCT014 OVC027 17/14 A2972 RMK AO2=
200910172001 SPECI KPAE 172001Z AUTO 18013KT 10SM SCT010 SCT014 OVC027 17/14 A2972 RMK AO2=
200910171953 METAR KPAE 171953Z AUTO 17012G21KT 10SM BKN008 BKN012 OVC027 17/15 A2971 RMK AO2 RAB44E53 CIG 006V010 SLP060 P0000 T01670150=
200910171853 METAR KPAE 171853Z AUTO 17014KT 10SM BKN008 OVC014 16/14 A2974 RMK AO2 RAE47 CIG 005V012 SLP068 P0000 T01610144=
200910171753 METAR KPAE 171753Z AUTO 17015G21KT 9SM -RA BKN008 OVC015 16/14 A2974 RMK AO2 CIG 005V010 SLP068 P0002 60055 T01560144 10161 20139 58009=
200910171711 SPECI KPAE 171711Z AUTO 18015KT 9SM -RA BKN006 OVC017 16/14 A2975 RMK AO2 CIG 003V011 P0002=
200910171711 SPECI KPAE 171711Z AUTO 18015KT 9SM -RA BKN006 OVC017 16/14 A2975 RMK AO2 CIG 003V011 P0002=
200910171653 METAR KPAE 171653Z AUTO 18015KT 3SM RA BR BKN004 BKN013 OVC019 16/14 A2975 RMK AO2 CIG 002V007 PRESFR SLP074 P0010 T01560139=
200910171650 SPECI KPAE 171650Z AUTO 18014G19KT 4SM RA BR BKN004 OVC019 15/14 A2976 RMK AO2 CIG 002V010 P0010=
200910171650 SPECI KPAE 171650Z AUTO 18014G19KT 4SM RA BR BKN004 OVC019 15/14 A2976 RMK AO2 CIG 002V010 P0010=
200910171642 SPECI KPAE 171642Z AUTO 19009KT 2 1/2SM -RA BR OVC004 14/14 A2977 RMK AO2 CIG 002V007 P0008=
200910171642 SPECI KPAE 171642Z AUTO 19009KT 2 1/2SM -RA BR OVC004 14/14 A2977 RMK AO2 CIG 002V007 P0008=
200910171641 SPECI KPAE 171641Z 21007KT 4SM RA BR BKN002 OVC012 15/14 A2977=
200910171641 SPECI KPAE 171641Z 21007KT 4SM RA BR BKN002 OVC012 15/14 A2977=
200910171628 SPECI KPAE 171628Z AUTO 21007KT 5SM -RA BR BKN004 OVC035 15/14 A2977 RMK AO2 CIG 002V009 P0005=
200910171628 SPECI KPAE 171628Z AUTO 21007KT 5SM -RA BR BKN004 OVC035 15/14 A2977 RMK AO2 CIG 002V009 P0005=
200910171621 SPECI KPAE 171621Z AUTO 20009KT 5SM -RA BR BKN006 BKN017 OVC035 15/14 A2977 RMK AO2 P0004=
200910171621 SPECI KPAE 171621Z AUTO 20009KT 5SM -RA BR BKN006 BKN017 OVC035 15/14 A2977 RMK AO2 P0004=
200910171619 SPECI KPAE 171619Z 17008KT 2 1/2SM RA BR BKN005 OVC017 14/14 A2976=
200910171619 SPECI KPAE 171619Z 17008KT 2 1/2SM RA BR BKN005 OVC017 14/14 A2976=
200910171615 SPECI KPAE 171615Z AUTO 19010KT 3SM RA BR FEW006 BKN019 OVC035 15/14 A2977 RMK AO2 P0004=
200910171615 SPECI KPAE 171615Z AUTO 19010KT 3SM RA BR FEW006 BKN019 OVC035 15/14 A2977 RMK AO2 P0004=
200910171614 SPECI KPAE 171614Z 17008KT 2 1/2SM RA BR BKN005 OVC017 14/14 A2976=
200910171614 SPECI KPAE 171614Z 17008KT 2 1/2SM RA BR BKN005 OVC017 14/14 A2976=
200910171606 SPECI KPAE 171606Z AUTO 17008KT 2 1/2SM RA BR FEW012 SCT017 OVC037 14/14 A2976 RMK AO2 P0002=
200910171606 SPECI KPAE 171606Z AUTO 17008KT 2 1/2SM RA BR FEW012 SCT017 OVC037 14/14 A2976 RMK AO2 P0002=
200910171553 METAR KPAE 171553Z AUTO 16009KT 3SM RA BR SCT012 BKN018 OVC029 14/13 A2976 RMK AO2 SLP078 P0018 T01440133=
200910171539 SPECI KPAE 171539Z AUTO 17005KT 4SM RA BR OVC014 14/13 A2977 RMK AO2 P0014=
200910171539 SPECI KPAE 171539Z AUTO 17005KT 4SM RA BR OVC014 14/13 A2977 RMK AO2 P0014=
200910171524 SPECI KPAE 171524Z AUTO VRB04KT 4SM -RA BR OVC016 14/13 A2976 RMK AO2 P0011=
200910171524 SPECI KPAE 171524Z AUTO VRB04KT 4SM -RA BR OVC016 14/13 A2976 RMK AO2 P0011=
200910171520 SPECI KPAE 171520Z AUTO 14004KT 2 1/2SM RA BR BKN014 OVC021 14/13 A2976 RMK AO2 P0011=
200910171520 SPECI KPAE 171520Z AUTO 14004KT 2 1/2SM RA BR BKN014 OVC021 14/13 A2976 RMK AO2 P0011=
200910171512 SPECI KPAE 171512Z AUTO 15005KT 3SM +RA BR OVC014 14/13 A2977 RMK AO2 P0008=
200910171512 SPECI KPAE 171512Z AUTO 15005KT 3SM +RA BR OVC014 14/13 A2977 RMK AO2 P0008=
200910171502 SPECI KPAE 171502Z VRB03KT 3SM -RA BR BKN008 OVC023 14/13 A2977=
200910171502 SPECI KPAE 171502Z VRB03KT 3SM -RA BR BKN008 OVC023 14/13 A2977=
200910171453 METAR KPAE 171453Z AUTO VRB03KT 4SM -RA BR BKN016 BKN023 OVC030 14/13 A2977 RMK AO2 SLP081 P0022 60025 T01390133 55023=
200910171448 SPECI KPAE 171448Z AUTO 12007KT 3SM -RA BR SCT016 BKN023 OVC030 14/13 A2977 RMK AO2 P0021=
200910171448 SPECI KPAE 171448Z AUTO 12007KT 3SM -RA BR SCT016 BKN023 OVC030 14/13 A2977 RMK AO2 P0021=
200910171433 SPECI KPAE 171433Z AUTO 11007KT 2 1/2SM +RA BR SCT014 BKN023 OVC029 14/13 A2978 RMK AO2 P0017=
200910171433 SPECI KPAE 171433Z AUTO 11007KT 2 1/2SM +RA BR SCT014 BKN023 OVC029 14/13 A2978 RMK AO2 P0017=
200910171417 SPECI KPAE 171417Z AUTO 12004KT 3SM -RA BR FEW001 BKN014 OVC021 14/13 A2979 RMK AO2 P0012=
200910171417 SPECI KPAE 171417Z AUTO 12004KT 3SM -RA BR FEW001 BKN014 OVC021 14/13 A2979 RMK AO2 P0012=
200910171407 SPECI KPAE 171407Z AUTO 00000KT 1 3/4SM +RA BR FEW001 OVC014 14/13 A2980 RMK AO2 P0009=
200910171407 SPECI KPAE 171407Z AUTO 00000KT 1 3/4SM +RA BR FEW001 OVC014 14/13 A2980 RMK AO2 P0009=
200910171404 SPECI KPAE 171404Z AUTO 00000KT 3SM RA BR FEW001 OVC014 14/14 A2981 RMK AO2 P0006=
200910171404 SPECI KPAE 171404Z AUTO 00000KT 3SM RA BR FEW001 OVC014 14/14 A2981 RMK AO2 P0006=
200910171353 METAR KPAE 171353Z AUTO 12003KT 8SM -RA BKN001 OVC016 14/14 A2980 RMK AO2 SLP091 P0001 T01440139=
200910171342 SPECI KPAE 171342Z AUTO 09004KT 4SM -RA BR BKN001 OVC016 14/14 A2980 RMK AO2 P0001=
200910171342 SPECI KPAE 171342Z AUTO 09004KT 4SM -RA BR BKN001 OVC016 14/14 A2980 RMK AO2 P0001=
200910171304 SPECI KPAE 171304Z AUTO 07003KT 4SM -RA BR SCT001 BKN008 OVC014 14/14 A2983 RMK AO2 P0000=
200910171304 SPECI KPAE 171304Z AUTO 07003KT 4SM -RA BR SCT001 BKN008 OVC014 14/14 A2983 RMK AO2 P0000=
200910171253 METAR KPAE 171253Z AUTO 00000KT 3SM -RA BR FEW001 SCT008 OVC014 14/14 A2984 RMK AO2 SLP103 P0002 T01440139=
200910171249 SPECI KPAE 171249Z AUTO 00000KT 3SM -RA BR FEW001 OVC014 14/14 A2984 RMK AO2 P0002=
200910171249 SPECI KPAE 171249Z AUTO 00000KT 3SM -RA BR FEW001 OVC014 14/14 A2984 RMK AO2 P0002=
200910171241 SPECI KPAE 171241Z AUTO 00000KT 2 1/2SM -RA BR SCT001 OVC016 14/14 A2984 RMK AO2 P0002=
200910171241 SPECI KPAE 171241Z AUTO 00000KT 2 1/2SM -RA BR SCT001 OVC016 14/14 A2984 RMK AO2 P0002=
200910171213 SPECI KPAE 171213Z AUTO 00000KT 6SM -RA BR BKN001 OVC016 14/14 A2985 RMK AO2 P0000=
200910171213 SPECI KPAE 171213Z AUTO 00000KT 6SM -RA BR BKN001 OVC016 14/14 A2985 RMK AO2 P0000=
200910171206 SPECI KPAE 171206Z AUTO 00000KT 2 1/2SM -RA BR BKN001 OVC016 14/14 A2985 RMK AO2 P0000=
200910171206 SPECI KPAE 171206Z AUTO 00000KT 2 1/2SM -RA BR BKN001 OVC016 14/14 A2985 RMK AO2 P0000=
200910171153 METAR KPAE 171153Z AUTO 00000KT 1/2SM -RA FG BKN001 OVC014 14/14 A2986 RMK AO2 RAB04 SLP109 P0010 60016 70107 T01440139 10156 20144 57017 RVRNO=
200910171130 SPECI KPAE 171130Z AUTO 35004KT 1/2SM -RA FG BKN001 OVC005 14/14 A2987 RMK AO2 RAB04 P0006 RVRNO=
200910171130 SPECI KPAE 171130Z AUTO 35004KT 1/2SM -RA FG BKN001 OVC005 14/14 A2987 RMK AO2 RAB04 P0006 RVRNO=
200910171121 SPECI KPAE 171121Z AUTO 34005KT 1SM -RA BR BKN001 OVC005 14/14 A2987 RMK AO2 RAB04 P0005 RVRNO=
200910171121 SPECI KPAE 171121Z AUTO 34005KT 1SM -RA BR BKN001 OVC005 14/14 A2987 RMK AO2 RAB04 P0005 RVRNO=
200910171106 SPECI KPAE 171106Z AUTO 34005KT 1/4SM -RA FG BKN001 OVC028 14/14 A2987 RMK AO2 RAB04 P0000 RVRNO=
200910171106 SPECI KPAE 171106Z AUTO 34005KT 1/4SM -RA FG BKN001 OVC028 14/14 A2987 RMK AO2 RAB04 P0000 RVRNO=
200910171053 METAR KPAE 171053Z AUTO 35003KT 1/4SM FG SCT001 BKN028 OVC036 14/14 A2987 RMK AO2 RAE22 SLP115 P0000 T01440139 RVRNO=
200910171045 SPECI KPAE 171045Z AUTO 00000KT 3/4SM BR FEW001 BKN028 OVC036 14/14 A2987 RMK AO2 RAE22 P0000 RVRNO=
200910171045 SPECI KPAE 171045Z AUTO 00000KT 3/4SM BR FEW001 BKN028 OVC036 14/14 A2987 RMK AO2 RAE22 P0000 RVRNO=
200910171042 SPECI KPAE 171042Z AUTO 00000KT 1 1/2SM BR SCT001 BKN030 OVC036 14/14 A2987 RMK AO2 RAE22 P0000=
200910171042 SPECI KPAE 171042Z AUTO 00000KT 1 1/2SM BR SCT001 BKN030 OVC036 14/14 A2987 RMK AO2 RAE22 P0000=
200910171040 SPECI KPAE 171040Z AUTO 00000KT 3SM BR SCT001 BKN030 OVC036 14/14 A2987 RMK AO2 RAE22 P0000=
200910171040 SPECI KPAE 171040Z AUTO 00000KT 3SM BR SCT001 BKN030 OVC036 14/14 A2987 RMK AO2 RAE22 P0000=
200910170953 METAR KPAE 170953Z AUTO 00000KT 10SM -RA OVC032 15/14 A2989 RMK AO2 RAE03B49 SLP121 P0000 T01500139=
200910170853 METAR KPAE 170853Z AUTO 15005KT 8SM -RA BKN036 OVC055 15/14 A2991 RMK AO2 SLP126 P0004 60006 T01500139 56019=
200910170822 SPECI KPAE 170822Z AUTO 13003KT 6SM -RA BR FEW024 OVC032 15/14 A2992 RMK AO2 P0003=
200910170822 SPECI KPAE 170822Z AUTO 13003KT 6SM -RA BR FEW024 OVC032 15/14 A2992 RMK AO2 P0003=
200910170809 SPECI KPAE 170809Z AUTO 14005KT 9SM -RA BKN025 OVC032 15/14 A2993 RMK AO2 P0001=
200910170809 SPECI KPAE 170809Z AUTO 14005KT 9SM -RA BKN025 OVC032 15/14 A2993 RMK AO2 P0001=
200910170802 SPECI KPAE 170802Z AUTO VRB04KT 6SM -RA BR SCT025 OVC030 14/14 A2994 RMK AO2 P0001=
200910170802 SPECI KPAE 170802Z AUTO VRB04KT 6SM -RA BR SCT025 OVC030 14/14 A2994 RMK AO2 P0001=
200910170753 METAR KPAE 170753Z AUTO 12008KT 8SM RA BKN025 BKN030 OVC055 15/14 A2993 RMK AO2 RAE05B26 SLP134 P0001 T01500139 401670128=
200910170653 METAR KPAE 170653Z AUTO 12007KT 6SM -RA BR FEW003 SCT028 OVC050 14/14 A2996 RMK AO2 RAE06B41 SLP146 P0001 T01440139=
200910170553 METAR KPAE 170553Z AUTO 11005KT 6SM -RA BR FEW003 OVC017 14/14 A2999 RMK AO2 SLP154 P0002 60048 T01440139 10156 20144 56013=
200910170510 SPECI KPAE 170510Z AUTO 11005KT 4SM -RA BR FEW003 OVC019 15/14 A3000 RMK AO2 P0001=
200910170510 SPECI KPAE 170510Z AUTO 11005KT 4SM -RA BR FEW003 OVC019 15/14 A3000 RMK AO2 P0001=
200910170453 METAR KPAE 170453Z VRB03KT 10SM -RA BKN019 BKN028 OVC038 15/14 A3000 RMK AO2 SLP160 P0006 T01500139=
200910170442 SPECI KPAE 170442Z 11005KT 8SM -RA BKN021 BKN038 OVC050 15/14 A2999 RMK AO2 P0006=
200910170442 SPECI KPAE 170442Z 11005KT 8SM -RA BKN021 BKN038 OVC050 15/14 A2999 RMK AO2 P0006=
200910170433 SPECI KPAE 170433Z 15006KT 7SM -RA FEW003 BKN040 OVC050 15/14 A3001 RMK AO2 P0005=
200910170433 SPECI KPAE 170433Z 15006KT 7SM -RA FEW003 BKN040 OVC050 15/14 A3001 RMK AO2 P0005=
200910170409 SPECI KPAE 170409Z VRB06KT 7SM -RA SCT003 BKN029 OVC045 15/14 A3001 RMK AO2 P0002=
200910170409 SPECI KPAE 170409Z VRB06KT 7SM -RA SCT003 BKN029 OVC045 15/14 A3001 RMK AO2 P0002=
200910170353 METAR KPAE 170353Z 11008KT 4SM RA BR BKN029 BKN037 OVC055 15/14 A3000 RMK AO2 SLP158 P0018 T01500139=
200910170317 SPECI KPAE 170317Z 15008KT 100V170 4SM RA BR SCT027 BKN035 OVC045 15/14 A3003 RMK AO2 P0005=
200910170317 SPECI KPAE 170317Z 15008KT 100V170 4SM RA BR SCT027 BKN035 OVC045 15/14 A3003 RMK AO2 P0005=
200910170300 SPECI KPAE 170300Z 15007KT 5SM RA BR BKN027 OVC035 15/14 A3003 RMK AO2 P0001=
200910170300 SPECI KPAE 170300Z 15007KT 5SM RA BR BKN027 OVC035 15/14 A3003 RMK AO2 P0001=
200910170253 METAR KPAE 170253Z 15006KT 5SM RA BR SCT003 BKN013 OVC026 15/14 A3003 RMK AO2 SLP167 P0016 60022 T01500139 58004=
200910170208 SPECI KPAE 170208Z 11005KT 4SM RA BR SCT003 BKN013 OVC026 15/14 A3002 RMK AO2 P0004=
200910170208 SPECI KPAE 170208Z 11005KT 4SM RA BR SCT003 BKN013 OVC026 15/14 A3002 RMK AO2 P0004=
200910170200 SPECI KPAE 170200Z VRB04KT 3SM RA BR FEW003 SCT013 OVC026 15/14 A3002 RMK AO2 P0002=
200910170200 SPECI KPAE 170200Z VRB04KT 3SM RA BR FEW003 SCT013 OVC026 15/14 A3002 RMK AO2 P0002=
200910170153 METAR KPAE 170153Z VRB04KT 3SM RA BR BKN013 OVC024 15/14 A3003 RMK AO2 RAB35 SLP169 P0006 T01500139=
200910170124 SPECI KPAE 170124Z 16008KT 10SM SCT004 BKN013 OVC026 15/14 A3003 RMK AO2=
200910170124 SPECI KPAE 170124Z 16008KT 10SM SCT004 BKN013 OVC026 15/14 A3003 RMK AO2=
200910170100 SPECI KPAE 170100Z 15007KT 9SM BKN004 BKN018 OVC037 15/14 A3003 RMK AO2=
200910170100 SPECI KPAE 170100Z 15007KT 9SM BKN004 BKN018 OVC037 15/14 A3003 RMK AO2=
200910170053 METAR KPAE 170053Z 15009KT 2 1/2SM BR BKN004 OVC020 15/14 A3004 RMK AO2 RAE2359 SLP171 P0000 T01500139=
200910170049 SPECI KPAE 170049Z 15007KT 2 1/2SM BR BKN004 OVC020 15/14 A3004 RMK AO2 RAE2359 P0000=
200910170049 SPECI KPAE 170049Z 15007KT 2 1/2SM BR BKN004 OVC020 15/14 A3004 RMK AO2 RAE2359 P0000=
200910170010 SPECI KPAE 170010Z 15010G15KT 2 1/2SM BR SCT004 OVC026 15/14 A3005 RMK AO2 RAE2359 P0000=
200910170010 SPECI KPAE 170010Z 15010G15KT 2 1/2SM BR SCT004 OVC026 15/14 A3005 RMK AO2 RAE2359 P0000=
200910170003 SPECI KPAE 170003Z 15008G15KT 3SM BR SCT004 OVC026 16/14 A3004 RMK AO2 RAE2359 P0000=
200910170003 SPECI KPAE 170003Z 15008G15KT 3SM BR SCT004 OVC026 16/14 A3004 RMK AO2 RAE2359 P0000=
200910162353 METAR KPAE 162353Z 15009KT 2SM -RA BR FEW004 BKN026 OVC033 15/14 A3005 RMK AO2 RAB2258 SLP173 P0000 60016 T01500144 10156 20133 56012=
200910162351 SPECI KPAE 162351Z 15010KT 2SM -RA BR BKN028 OVC033 15/14 A3005 RMK AO2 RAB2258 P0000=
200910162351 SPECI KPAE 162351Z 15010KT 2SM -RA BR BKN028 OVC033 15/14 A3005 RMK AO2 RAB2258 P0000=
200910162345 SPECI KPAE 162345Z 15011KT 1 3/4SM -RA BR SCT028 OVC033 16/14 A3006 RMK AO2 RAB2258 P0000=
200910162345 SPECI KPAE 162345Z 15011KT 1 3/4SM -RA BR SCT028 OVC033 16/14 A3006 RMK AO2 RAB2258 P0000=
200910162342 SPECI KPAE 162342Z 15010G16KT 2SM -RA BR BKN028 OVC033 16/14 A3006 RMK AO2 RAB2258 P0000=
200910162342 SPECI KPAE 162342Z 15010G16KT 2SM -RA BR BKN028 OVC033 16/14 A3006 RMK AO2 RAB2258 P0000=
200910162318 SPECI KPAE 162318Z 16010G17KT 3SM -RA BR FEW004 OVC030 16/14 A3005 RMK AO2 RAB2258 P0000=
200910162318 SPECI KPAE 162318Z 16010G17KT 3SM -RA BR FEW004 OVC030 16/14 A3005 RMK AO2 RAB2258 P0000=
200910162302 SPECI KPAE 162302Z 16010KT 1 3/4SM -RA BR SCT006 SCT011 OVC030 16/14 A3006 RMK AO2 RAB2258 P0000=
200910162302 SPECI KPAE 162302Z 16010KT 1 3/4SM -RA BR SCT006 SCT011 OVC030 16/14 A3006 RMK AO2 RAB2258 P0000=
200910162253 METAR KPAE 162253Z 16012KT 4SM BR FEW006 SCT011 OVC030 16/14 A3006 RMK AO2 RAE33 SLP176 P0000 T01560144=
200910162234 SPECI KPAE 162234Z 16013KT 8SM BKN032 OVC039 16/14 A3005 RMK AO2 RAE33 P0000=
200910162234 SPECI KPAE 162234Z 16013KT 8SM BKN032 OVC039 16/14 A3005 RMK AO2 RAE33 P0000=
200910162153 METAR KPAE 162153Z 15014KT 4SM -RA BR BKN009 BKN028 15/14 A3006 RMK AO2 SLP178 P0002 T01500139=
200910162053 METAR KPAE 162053Z 16012KT 4SM -RA BR BKN009 OVC033 14/13 A3008 RMK AO2 SLP185 P0003 60014 T01440133 58002=
200910161953 METAR KPAE 161953Z 15009KT 2SM -RA BR BKN004 BKN015 OVC038 14/13 A3010 RMK AO2 SLP192 P0003 T01440133=
200910161932 SPECI KPAE 161932Z 16011KT 2SM -RA BR BKN004 BKN015 OVC038 14/13 A3009 RMK AO2 P0003=
200910161932 SPECI KPAE 161932Z 16011KT 2SM -RA BR BKN004 BKN015 OVC038 14/13 A3009 RMK AO2 P0003=
200910161912 SPECI KPAE 161912Z 16011G15KT 4SM RA BR SCT004 BKN015 OVC038 14/13 A3009 RMK AO2 P0002=
200910161912 SPECI KPAE 161912Z 16011G15KT 4SM RA BR SCT004 BKN015 OVC038 14/13 A3009 RMK AO2 P0002=
200910161900 METAR KPAE NIL=
200910161859 SPECI KPAE 161859Z 15011KT 2SM -RA BR BKN004 BKN015 OVC038 14/13 A3009 RMK AO2 P0000=
200910161859 SPECI KPAE 161859Z 15011KT 2SM -RA BR BKN004 BKN015 OVC038 14/13 A3009 RMK AO2 P0000=
200910161855 SPECI KPAE 161855Z 16011KT 2 1/2SM -RA BR FEW028 OVC036 14/13 A3009 RMK AO2 P0000=
200910161855 SPECI KPAE 161855Z 16011KT 2 1/2SM -RA BR FEW028 OVC036 14/13 A3009 RMK AO2 P0000=
200910161853 METAR KPAE 161853Z 16011G16KT 3SM -RA BR BKN006 BKN023 14/13 A3009 RMK AO2 SLP189 P0008 T01390128=
200910161849 SPECI KPAE 161849Z 15012G16KT 4SM -RA BR BKN006 BKN023 14/13 A3009 RMK AO2 P0007=
200910161849 SPECI KPAE 161849Z 15012G16KT 4SM -RA BR BKN006 BKN023 14/13 A3009 RMK AO2 P0007=
200910161845 SPECI KPAE 161845Z 15009KT 4SM -RA BR FEW004 SCT023 OVC038 14/13 A3008 RMK AO2 P0007=
200910161845 SPECI KPAE 161845Z 15009KT 4SM -RA BR FEW004 SCT023 OVC038 14/13 A3008 RMK AO2 P0007=
200910161842 SPECI KPAE 161842Z 16011KT 4SM -RA BR SCT023 OVC038 14/12 A3009 RMK AO2 P0007=
200910161842 SPECI KPAE 161842Z 16011KT 4SM -RA BR SCT023 OVC038 14/12 A3009 RMK AO2 P0007=
200910161835 SPECI KPAE 161835Z 15010KT 4SM -RA BR OVC023 14/12 A3008 RMK AO2 P0007=
200910161835 SPECI KPAE 161835Z 15010KT 4SM -RA BR OVC023 14/12 A3008 RMK AO2 P0007=
200910161828 SPECI KPAE 161828Z 16006KT 2 1/2SM -RA BR OVC023 14/12 A3008 RMK AO2 P0007=
200910161828 SPECI KPAE 161828Z 16006KT 2 1/2SM -RA BR OVC023 14/12 A3008 RMK AO2 P0007=
200910161817 SPECI KPAE 161817Z VRB05KT 1 1/2SM RA BR OVC023 13/12 A3007 RMK AO2 P0006=
200910161817 SPECI KPAE 161817Z VRB05KT 1 1/2SM RA BR OVC023 13/12 A3007 RMK AO2 P0006=
200910161758 SPECI KPAE 161758Z 18005KT 1 3/4SM -RA BR FEW024 SCT028 OVC035 14/12 A3009 RMK AO2 PRESRR P0001=
200910161758 SPECI KPAE 161758Z 18005KT 1 3/4SM -RA BR FEW024 SCT028 OVC035 14/12 A3009 RMK AO2 PRESRR P0001=
200910161753 METAR KPAE 161753Z 00000KT 3SM RA BR OVC035 14/12 A3008 RMK AO2 SLP184 P0008 60027 T01390122 10161 20128 53005=
200910161716 SPECI KPAE 161716Z 20006KT 3SM RA BR BKN025 OVC039 13/12 A3008 RMK AO2 P0007=
200910161716 SPECI KPAE 161716Z 20006KT 3SM RA BR BKN025 OVC039 13/12 A3008 RMK AO2 P0007=
200910161703 SPECI KPAE 161703Z 23005KT 1 1/2SM +RA BR BKN025 OVC039 13/12 A3007 RMK AO2 P0005=
200910161703 SPECI KPAE 161703Z 23005KT 1 1/2SM +RA BR BKN025 OVC039 13/12 A3007 RMK AO2 P0005=
200910161653 METAR KPAE 161653Z COR 17006KT 2SM RA BKN023 OVC037 14/11 A3007 RMK AO2 SLP180 P0010 T01390111=
200910161553 METAR KPAE 161553Z 25009KT 3SM +RA OVC041 14/11 A3006 RMK AO2 RAB40 PRESRR SLP178 P0003 T01390106=
200910161453 METAR KPAE 161453Z 00000KT 10SM OVC043 13/12 A3006 RMK AO2 RAE47 SLP179 P0002 60006 T01330117 56003=
200910161353 METAR KPAE 161353Z 00000KT 7SM -RA FEW035 BKN047 OVC060 14/11 A3006 RMK AO2 RAB17 SLP179 P0004 T01390111=
200910161253 METAR KPAE 161253Z AUTO 15006KT 10SM BKN044 16/09 A3005 RMK AO2 SLP174 T01560089=
200910161153 METAR KPAE 161153Z AUTO VRB04KT 10SM OVC050 16/08 A3007 RMK AO2 SLP181 60000 70001 T01610083 10167 20139 58008=
200910161053 METAR KPAE 161053Z AUTO 15007KT 10SM OVC055 16/08 A3009 RMK AO2 SLP189 T01610083=
200910160953 METAR KPAE 160953Z AUTO 15006KT 10SM OVC060 16/09 A3010 RMK AO2 SLP191 T01560094=
200910160853 METAR KPAE 160853Z AUTO VRB04KT 10SM OVC060 15/09 A3009 RMK AO2 SLP190 60000 T01500094 51002=
200910160753 METAR KPAE 160753Z AUTO VRB04KT 10SM BKN065 OVC080 15/09 A3009 RMK AO2 RAE10 SLP189 P0000 T01500094 401720100=
200910160653 METAR KPAE 160653Z AUTO 20007KT 10SM -RA BKN050 OVC080 14/09 A3011 RMK AO2 RAB13E23B53 SLP197 P0000 T01390094 TSNO=
200910160553 METAR KPAE 160553Z AUTO 12004KT 10SM BKN055 BKN080 OVC095 16/09 A3009 RMK AO2 SLP189 60001 T01560089 10167 20139 55001=
200910160453 METAR KPAE 160453Z AUTO 12007KT 10SM OVC055 16/09 A3008 RMK AO2 SLP186 T01560089=
200910160353 METAR KPAE 160353Z 12007KT 10SM SCT060 OVC100 16/10 A3008 RMK AO2 SLP186 T01560100=
200910160253 METAR KPAE 160253Z 12007KT 10SM OVC110 16/10 A3009 RMK AO2 SLP190 60001 T01560100 56009=
200910160153 METAR KPAE 160153Z 12003KT 10SM FEW055 SCT070 15/11 A3009 RMK AO2 RAE0059 SLP190 P0000 T01500111=
200910160053 METAR KPAE 160053Z 00000KT 10SM -RA SCT075 BKN090 14/11 A3011 RMK AO2 SLP196 P0001 T01390106=
200910152353 METAR KPAE 152353Z 16005KT 10SM -RA SCT055 BKN080 17/09 A3012 RMK AO2 RAB43 SLP199 P0000 60000 T01670089 10172 20128 56014=
200910152253 METAR KPAE 152253Z VRB03KT 10SM SCT095 17/08 A3013 RMK AO2 SLP204 T01670083=
200910152153 METAR KPAE 152153Z 12004KT 10SM SCT100 17/08 A3014 RMK AO2 SLP208 T01720078=
200910152053 METAR KPAE 152053Z 10005KT 10SM CLR 17/08 A3016 RMK AO2 SLP213 T01670078 58003=
200910151953 METAR KPAE 151953Z 10008KT 10SM CLR 15/08 A3017 RMK AO2 SLP215 T01500083=
200910151853 METAR KPAE 151853Z 12005KT 10SM FEW065 14/09 A3017 RMK AO2 SLP218 T01390089=
200910151753 METAR KPAE 151753Z 11006KT 10SM CLR 13/09 A3017 RMK AO2 SLP218 T01280089 10128 20100 51014=
200910151653 METAR KPAE 151653Z 11007KT 10SM FEW065 12/09 A3016 RMK AO2 SLP214 T01170089=
200910151553 METAR KPAE 151553Z 11006KT 10SM CLR 11/09 A3014 RMK AO2 SLP208 T01060089=
200910151453 METAR KPAE 151453Z VRB04KT 10SM CLR 11/09 A3013 RMK AO2 SLP203 T01060089 53012=
200910151353 METAR KPAE 151353Z 12006KT 10SM CLR 10/09 A3011 RMK AO2 SLP199 T01000089=
200910151253 METAR KPAE 151253Z AUTO VRB03KT 10SM BKN070 10/09 A3011 RMK AO2 SLP196 T01000089=
200910151233 SPECI KPAE 151233Z AUTO 13005KT 10SM SCT016 BKN070 10/09 A3010 RMK AO2=
200910151233 SPECI KPAE 151233Z AUTO 13005KT 10SM SCT016 BKN070 10/09 A3010 RMK AO2=
200910151209 SPECI KPAE 151209Z AUTO VRB06KT 10SM BKN016 BKN110 10/09 A3010 RMK AO2=
200910151209 SPECI KPAE 151209Z AUTO VRB06KT 10SM BKN016 BKN110 10/09 A3010 RMK AO2=
200910151153 METAR KPAE 151153Z AUTO 16007G15KT 10SM SCT110 10/09 A3009 RMK AO2 RAE17 SLP192 P0000 60001 70045 T01000089 10122 20100 51021=
200910151111 SPECI KPAE 151111Z AUTO 15009KT 6SM -RA BR FEW017 BKN031 OVC055 11/08 A3009 RMK AO2 P0000=
200910151111 SPECI KPAE 151111Z AUTO 15009KT 6SM -RA BR FEW017 BKN031 OVC055 11/08 A3009 RMK AO2 P0000=
200910151053 METAR KPAE 151053Z AUTO 15006KT 8SM -RA FEW020 BKN028 OVC035 11/08 A3008 RMK AO2 RAB0954E23B43 SLP186 P0001 T01110083=
200910151010 SPECI KPAE 151010Z AUTO 15010KT 10SM -RA BKN025 OVC041 12/08 A3007 RMK AO2 RAB0954 P0000=
200910151010 SPECI KPAE 151010Z AUTO 15010KT 10SM -RA BKN025 OVC041 12/08 A3007 RMK AO2 RAB0954 P0000=
200910150953 METAR KPAE 150953Z AUTO 15009KT 10SM BKN043 OVC060 11/08 A3006 RMK AO2 SLP180 T01110078=
200910150853 METAR KPAE 150853Z AUTO VRB06KT 10SM SCT038 BKN045 OVC070 12/07 A3003 RMK AO2 SLP170 T01170067 51021=
200910150753 METAR KPAE 150753Z AUTO 15008KT 10SM OVC110 12/07 A3001 RMK AO2 SLP162 T01220072 401500089=
200910150653 METAR KPAE 150653Z AUTO 17012KT 10SM OVC110 12/08 A2999 RMK AO2 SLP156 T01170078=
200910150553 METAR KPAE 150553Z AUTO 16008KT 10SM BKN100 12/09 A2997 RMK AO2 SLP147 T01170089 10144 20111 51037=
200910150453 METAR KPAE 150453Z AUTO 17011KT 10SM CLR 12/09 A2994 RMK AO2 SLP139 T01170094=
200910150353 METAR KPAE 150353Z AUTO 18013KT 10SM CLR 12/08 A2990 RMK AO2 SLP127 T01170083=
200910150253 METAR KPAE 150253Z 19016G22KT 10SM CLR 12/07 A2986 RMK AO2 SLP110 T01220072 53051=
200910150153 METAR KPAE 150153Z 18013KT 10SM FEW050 13/08 A2980 RMK AO2 PK WND 19026/0054 PRESRR SLP093 T01280083=
200910150053 METAR KPAE 150053Z COR 18022G30KT 10SM FEW040 BKN150 14/09 A2974 RMK AO2 PK WND 19031/0027 SLP072 T01390094=
200910142353 METAR KPAE 142353Z 19022G28KT 10SM BKN120 14/11 A2970 RMK AO2 PK WND 20035/2329 SLP058 60028 T01390111 10150 20111 53043=
200910142331 SPECI KPAE 142331Z 19024G35KT 10SM FEW010 BKN110 14/11 A2968 RMK AO2 PK WND 20035/2329=
200910142331 SPECI KPAE 142331Z 19024G35KT 10SM FEW010 BKN110 14/11 A2968 RMK AO2 PK WND 20035/2329=
200910142253 METAR KPAE 142253Z 20021G27KT 10SM SCT010 BKN021 BKN110 14/12 A2964 RMK AO2 PK WND 20032/2239 RAE11 SLP038 P0000 T01390117=
200910142238 SPECI KPAE 142238Z 19022G31KT 10SM SCT005 BKN010 14/12 A2963 RMK AO2 PK WND 18032/2228 RAE11 PRESRR P0000=
200910142238 SPECI KPAE 142238Z 19022G31KT 10SM SCT005 BKN010 14/12 A2963 RMK AO2 PK WND 18032/2228 RAE11 PRESRR P0000=
200910142153 METAR KPAE 142153Z 14009G19KT 060V160 6SM -RA BR BKN005 OVC049 11/10 A2960 RMK AO2 SLP023 P0007 T01110100=
200910142144 SPECI KPAE 142144Z 14008G20KT 4SM -RA BR BKN005 OVC049 11/10 A2959 RMK AO2 P0007=
200910142144 SPECI KPAE 142144Z 14008G20KT 4SM -RA BR BKN005 OVC049 11/10 A2959 RMK AO2 P0007=
200910142059 SPECI KPAE 142059Z 14007KT 3SM RA BR BKN030 OVC049 11/09 A2958 RMK AO2 P0002=
200910142059 SPECI KPAE 142059Z 14007KT 3SM RA BR BKN030 OVC049 11/09 A2958 RMK AO2 P0002=
200910142053 METAR KPAE 142053Z 13006KT 2 1/2SM RA BR BKN026 OVC049 11/09 A2957 RMK AO2 SLP014 P0018 60021 T01110094 51035=
200910142039 SPECI KPAE 142039Z 14009G15KT 100V170 2SM RA BR OVC032 12/09 A2958 RMK AO2 P0014=
200910142039 SPECI KPAE 142039Z 14009G15KT 100V170 2SM RA BR OVC032 12/09 A2958 RMK AO2 P0014=
200910141953 METAR KPAE 141953Z 15008G16KT 10SM -RA FEW049 BKN060 OVC075 13/09 A2955 RMK AO2 SLP007 P0003 T01280094=
200910141853 METAR KPAE 141853Z 15012G16KT 10SM -RA FEW040 OVC060 15/09 A2951 RMK AO2 RAB53 SLP991 P0000 T01500089=
200910141753 METAR KPAE 141753Z 16008KT 10SM FEW095 14/09 A2947 RMK AO2 RAE1659 SLP979 P0000 60016 T01390094 10139 20089 51037=
200910141653 METAR KPAE 141653Z 15006KT 10SM -RA SCT039 OVC055 11/08 A2944 RMK AO2 RAB10 SLP969 P0002 T01110083=
200910141553 METAR KPAE 141553Z 12008G16KT 10SM FEW046 OVC060 10/08 A2939 RMK AO2 RAE38 SLP953 P0002 T01000083=
200910141453 METAR KPAE 141453Z 15009G16KT 6SM -RA BR SCT036 BKN045 OVC055 10/08 A2936 RMK AO2 SLP940 P0005 60012 T01000083 53039=
200910141353 METAR KPAE 141353Z 14009G16KT 5SM RA BR FEW041 BKN050 OVC065 10/08 A2931 RMK AO2 SLP926 P0006 T01000078=
200910141253 METAR KPAE 141253Z AUTO 12011G17KT 9SM -RA SCT049 OVC060 09/07 A2927 RMK AO2 RAE01B25 SLP912 P0001 T00940067=
200910141153 METAR KPAE 141153Z AUTO 11014G20KT 10SM -RA BKN050 OVC065 09/07 A2924 RMK AO2 SLP901 P0005 60012 70021 T00890067 10106 20089 50004=
200910141053 METAR KPAE 141053Z AUTO VRB06KT 10SM -RA OVC065 10/07 A2925 RMK AO2 RAB04 SLP905 P0004 T01000067=
200910140953 METAR KPAE 140953Z AUTO 12010KT 10SM BKN060 OVC080 11/04 A2924 RMK AO2 RAB29E40 SLP900 P0000 T01060044=
200910140853 METAR KPAE 140853Z AUTO 12010KT 10SM CLR 10/04 A2923 RMK AO2 SLP897 60003 T01000044 56013=
200910140753 METAR KPAE 140753Z AUTO 11015G24KT 10SM SCT075 09/06 A2923 RMK AO2 SLP900 T00940056 401390078=
200910140653 METAR KPAE 140653Z AUTO 12015G21KT 10SM FEW060 09/07 A2924 RMK AO2 RAE47 SLP902 P0003 T00940067=
200910140553 METAR KPAE 140553Z AUTO 15010G15KT 9SM -RA BKN049 OVC065 10/06 A2927 RMK AO2 SLP911 P0006 60006 T01000061 10139 20100 53023=
200910140453 METAR KPAE 140453Z AUTO 15010KT 10SM -RA OVC065 12/02 A2925 RMK AO2 RAB45 SLP903 P0000 T01170017=
200910140353 METAR KPAE 140353Z AUTO 12013KT 10SM OVC095 12/01 A2920 RMK AO2 SLP887 T01220006=
200910140253 METAR KPAE 140253Z 11013G21KT 10SM SCT080 OVC110 12/01 A2920 RMK AO2 SLP887 60000 T01220011 56007=
200910140153 METAR KPAE 140153Z 10008KT 10SM BKN060 BKN120 12/01 A2920 RMK AO2 SLP889 T01220011=
200910140053 METAR KPAE 140053Z 12006KT 10SM CLR 13/02 A2920 RMK AO2 RAB2357E20 SLP888 P0000 T01330017=
200910132353 METAR KPAE 132353Z VRB04KT 10SM BKN085 14/03 A2922 RMK AO2 SLP895 60003 T01390033 10139 20094 56012=
200910132253 METAR KPAE 132253Z VRB04KT 10SM BKN080 OVC090 13/03 A2922 RMK AO2 RAE05 SLP895 P0000 T01280028=
200910132153 METAR KPAE 132153Z 11017G23KT 10SM -RA BKN065 12/03 A2923 RMK AO2 SLP896 P0001 T01220033=
200910132053 METAR KPAE 132053Z 11009KT 10SM -RA BKN044 OVC065 11/04 A2926 RMK AO2 SLP908 P0000 60002 T01110044 58015=
200910131953 METAR KPAE 131953Z VRB03G16KT 7SM -RA SCT039 OVC050 10/04 A2929 RMK AO2 RAB23 SLP919 P0002 T01000039=
200910131853 METAR KPAE 131853Z 17009KT 10SM BKN070 13/M02 A2930 RMK AO2 SLP922 T01281022=
200910131753 METAR KPAE 131753Z VRB05KT 10SM SCT100 12/M04 A2930 RMK AO2 SLP924 T01171039 10117 20083 58011=
200910131653 METAR KPAE 131653Z 18005KT 10SM SCT095 11/M03 A2932 RMK AO2 SLP930 T01061033=
200910131553 METAR KPAE 131553Z 11008G15KT 10SM BKN110 10/M05 A2932 RMK AO2 SLP929 T01001050=
200910131453 METAR KPAE 131453Z VRB05G17KT 10SM OVC090 09/M04 A2934 RMK AO2 SLP935 T00941044 56033=
200910131353 METAR KPAE 131353Z AUTO 11010KT 10SM FEW055 OVC090 09/M05 A2937 RMK AO2 SLP945 T00941050=
200910131253 METAR KPAE 131253Z AUTO 11009KT 10SM OVC060 09/M06 A2940 RMK AO2 SLP955 T00891056=
200910131153 METAR KPAE 131153Z AUTO 10007KT 10SM OVC055 08/M06 A2944 RMK AO2 SLP968 T00831056 10083 20072 58023=
200910131053 METAR KPAE 131053Z AUTO VRB03KT 10SM OVC050 08/M06 A2947 RMK AO2 SLP979 T00831061=
200910130953 METAR KPAE 130953Z AUTO VRB06KT 10SM BKN050 BKN070 08/M07 A2948 RMK AO2 SLP985 T00831067=
200910130853 METAR KPAE 130853Z AUTO 12007KT 100V170 10SM OVC050 08/M06 A2951 RMK AO2 SLP992 T00781056 58021=
200910130753 METAR KPAE 130753Z AUTO VRB05KT 10SM FEW050 OVC065 08/M06 A2953 RMK AO2 SLP002 T00781061 401000033=
200910130653 METAR KPAE 130653Z AUTO 12008KT 10SM OVC065 07/M06 A2955 RMK AO2 SLP007 T00721056=
200910130553 METAR KPAE 130553Z AUTO VRB04KT 10SM OVC065 07/M05 A2957 RMK AO2 SLP014 T00721050 10083 20072 56009=
200910130453 METAR KPAE 130453Z AUTO 12009KT 10SM FEW075 BKN100 07/M05 A2957 RMK AO2 SLP017 T00721050=
200910130353 METAR KPAE 130353Z AUTO 12007KT 10SM OVC065 07/M05 A2959 RMK AO2 SLP021 T00721050=
200910130253 METAR KPAE 130253Z 12008KT 10SM OVC075 07/M04 A2960 RMK AO2 SLP024 T00721044 56012=
200910130153 METAR KPAE 130153Z 11009KT 10SM BKN080 07/M04 A2960 RMK AO2 SLP026 T00721039=
200910130053 METAR KPAE 130053Z 11010KT 10SM CLR 08/M03 A2962 RMK AO2 SLP031 T00781033=
200910122353 METAR KPAE 122353Z 11006KT 10SM SCT080 08/M03 A2963 RMK AO2 SLP036 T00831033 10100 20083 56020=
200910122253 METAR KPAE 122253Z 11007KT 10SM SCT070 09/M04 A2965 RMK AO2 SLP041 T00941044=
200910122153 METAR KPAE 122153Z 17009KT 10SM FEW047 09/M04 A2967 RMK AO2 SLP049 T00941039=
200910122053 METAR KPAE 122053Z 16014G17KT 10SM FEW065 10/M08 A2969 RMK AO2 SLP056 T01001078 58013=
200910121953 METAR KPAE 121953Z 15007KT 100V180 10SM CLR 09/M08 A2971 RMK AO2 SLP063 T00941083=
200910121853 METAR KPAE 121853Z VRB03KT 10SM CLR 09/M09 A2972 RMK AO2 SLP066 T00941089=
200910121753 METAR KPAE 121753Z VRB04KT 10SM CLR 09/M09 A2973 RMK AO2 SLP068 T00891089 10089 20033 56011=
200910121653 METAR KPAE 121653Z 12007KT 10SM CLR 08/M09 A2974 RMK AO2 SLP071 T00831094=
200910121553 METAR KPAE 121553Z 12008G16KT 10SM CLR 07/M10 A2975 RMK AO2 SLP075 T00671100=
200910121453 METAR KPAE 121453Z 10005KT 10SM CLR 06/M08 A2976 RMK AO2 SLP081 T00561083 56005=
200910121353 METAR KPAE 121353Z AUTO 11005KT 10SM CLR 05/M08 A2977 RMK AO2 SLP082 T00501078=
200910121253 METAR KPAE 121253Z AUTO 10005KT 10SM CLR 06/M08 A2977 RMK AO2 SLP083 T00561083=
200910121153 METAR KPAE 121153Z AUTO 11004KT 10SM CLR 06/M09 A2978 RMK AO2 SLP085 T00561089 10078 20050 56013=
200910121053 METAR KPAE 121053Z AUTO 12004KT 10SM CLR 06/M08 A2979 RMK AO2 SLP088 T00561078=
200910120953 METAR KPAE 120953Z AUTO 11005KT 10SM CLR 06/M06 A2980 RMK AO2 SLP092 T00561061=
200910120853 METAR KPAE 120853Z AUTO 10004KT 10SM CLR 06/M03 A2982 RMK AO2 SLP099 T00561028 56008=
200910120753 METAR KPAE 120753Z AUTO 00000KT 10SM CLR 06/M02 A2982 RMK AO2 SLP100 T00561017 401280044=
200910120653 METAR KPAE 120653Z AUTO 00000KT 10SM CLR 06/M01 A2983 RMK AO2 SLP104 T00561006=
200910120553 METAR KPAE 120553Z AUTO 04003KT 10SM CLR 07/M01 A2984 RMK AO2 SLP107 T00721006 10106 20067 56003=
200910120453 METAR KPAE 120453Z 01003KT 10SM BKN120 08/01 A2984 RMK AO2 SLP109 T00780006=
200910120353 METAR KPAE 120353Z 00000KT 10SM CLR 08/M01 A2984 RMK AO2 SLP108 T00781006=
200910120253 METAR KPAE 120253Z 34003KT 10SM CLR 08/M02 A2985 RMK AO2 SLP111 T00831022 56008=
200910120153 METAR KPAE 120153Z VRB03KT 10SM CLR 09/M03 A2985 RMK AO2 SLP112 T00891028=
200910120053 METAR KPAE 120053Z VRB03KT 10SM CLR 10/M03 A2987 RMK AO2 SLP117 T01001033=
200910112353 METAR KPAE 112353Z 35004KT 10SM CLR 11/M03 A2988 RMK AO2 SLP119 T01061033 10128 20100 58013=
200910112253 METAR KPAE 112253Z 01005KT 10SM CLR 12/M08 A2989 RMK AO2 SLP124 T01171083 TSNO=
200910112153 METAR KPAE 112153Z 32005KT 10SM CLR 12/M07 A2990 RMK AO2 SLP127 T01171072=
200910112053 METAR KPAE 112053Z 31005KT 10SM CLR 12/M08 A2992 RMK AO2 SLP132 T01171083 58019=
200910111953 METAR KPAE 111953Z 31005KT 10SM CLR 11/M06 A2994 RMK AO2 SLP142 T01111056=
200910111853 METAR KPAE 111853Z 00000KT 10SM CLR 10/M08 A2996 RMK AO2 SLP147 T01001078=
200910111753 METAR KPAE 111753Z 00000KT 10SM CLR 09/M08 A2997 RMK AO2 SLP151 T00941078 10094 20044 58002=
200910111653 METAR KPAE 111653Z 11004KT 10SM CLR 08/M06 A2998 RMK AO2 SLP155 T00781061=
200910111553 METAR KPAE 111553Z 00000KT 10SM CLR 07/M06 A2998 RMK AO2 SLP155 T00671061=
200910111453 METAR KPAE 111453Z 00000KT 10SM CLR 06/M07 A2998 RMK AO2 SLP154 T00561072 56002=
200910111353 METAR KPAE 111353Z 10005KT 10SM CLR 05/M08 A2998 RMK AO2 SLP155 T00501083=
200910111253 METAR KPAE 111253Z AUTO 10003KT 10SM CLR 05/M07 A2998 RMK AO2 SLP153 T00501072=
200910111153 METAR KPAE 111153Z AUTO 10003KT 10SM CLR 05/M06 A2999 RMK AO2 SLP156 T00501061 10083 20050 55006=
200910111053 METAR KPAE 111053Z AUTO 11006KT 10SM CLR 05/M06 A2998 RMK AO2 SLP155 T00501061=
200910110953 METAR KPAE 110953Z AUTO 11004KT 10SM CLR 06/M06 A3000 RMK AO2 SLP159 T00561056=
200910110853 METAR KPAE 110853Z AUTO 10004KT 10SM CLR 06/M06 A3000 RMK AO2 SLP162 T00611061 56008=
200910110753 METAR KPAE 110753Z AUTO 11005KT 10SM CLR 06/M06 A3001 RMK AO2 SLP163 T00611061 401500061=
200910110653 METAR KPAE 110653Z AUTO 00000KT 10SM CLR 07/M06 A3002 RMK AO2 SLP166 T00721061=
200910110553 METAR KPAE 110553Z AUTO VRB03KT 10SM CLR 08/M07 A3003 RMK AO2 SLP170 T00831067 10133 20078 56004=
200910110453 METAR KPAE 110453Z AUTO VRB04KT 10SM CLR 09/M06 A3003 RMK AO2 SLP171 T00891056=
200910110353 METAR KPAE 110353Z AUTO 00000KT 10SM CLR 09/M01 A3004 RMK AO2 SLP173 T00891011=
200910110253 METAR KPAE 110253Z 00000KT 10SM CLR 10/M01 A3004 RMK AO2 SLP175 T01001011 56008=
200910110153 METAR KPAE 110153Z 00000KT 10SM CLR 10/M01 A3005 RMK AO2 SLP176 T01001006=
200910110053 METAR KPAE 110053Z 35003KT 10SM FEW090 12/M02 A3006 RMK AO2 SLP179 T01221017=
200910102353 METAR KPAE 102353Z 30004KT 10SM BKN090 13/M03 A3007 RMK AO2 SLP182 T01331028 10150 20111 56016=
200910102253 METAR KPAE 102253Z 28006KT 10SM CLR 14/M02 A3008 RMK AO2 SLP185 T01391022=
200910102153 METAR KPAE 102153Z 29005KT 10SM CLR 13/M02 A3009 RMK AO2 SLP190 T01331017=
200910102053 METAR KPAE 102053Z 00000KT 10SM FEW090 13/M03 A3012 RMK AO2 SLP199 T01331028 58012=
200910101953 METAR KPAE 101953Z 00000KT 10SM BKN085 12/M02 A3013 RMK AO2 SLP205 T01221022=
200910101853 METAR KPAE 101853Z 11004KT 10SM BKN075 11/M03 A3015 RMK AO2 SLP210 T01111028=
200910101753 METAR KPAE 101753Z COR 11008KT 10SM BKN075 11/M04 A3015 RMK AO2 SLP211 T01111044 10117 20100 50000=
200910101653 METAR KPAE 101653Z 11006KT 10SM OVC075 11/M03 A3015 RMK AO2 SLP212 T01061028=
200910101553 METAR KPAE 101553Z 10006KT 10SM BKN075 OVC085 10/M02 A3016 RMK AO2 SLP212 T01001022=
200910101453 METAR KPAE 101453Z 11005KT 10SM OVC075 10/M02 A3015 RMK AO2 SLP210 T01001022 58007=
200910101353 METAR KPAE 101353Z 00000KT 10SM BKN080 OVC090 10/M02 A3016 RMK AO2 SLP212 T01001022=
200910101253 METAR KPAE 101253Z AUTO 12004KT 10SM OVC090 10/M02 A3017 RMK AO2 SLP216 T01001022=
200910101153 METAR KPAE 101153Z AUTO VRB03KT 10SM SCT080 OVC100 11/M01 A3017 RMK AO2 SLP217 T01061011 10106 20094 58009=
200910101053 METAR KPAE 101053Z AUTO 16004KT 10SM OVC080 11/M02 A3018 RMK AO2 SLP220 T01061017=
200910100953 METAR KPAE 100953Z AUTO 16005KT 10SM FEW080 OVC110 11/M01 A3019 RMK AO2 SLP224 T01061006=
200910100853 METAR KPAE 100853Z AUTO 11005KT 10SM FEW080 BKN110 10/01 A3020 RMK AO2 SLP226 T01000011 58005=
200910100753 METAR KPAE 100753Z AUTO 00000KT 10SM CLR 10/01 A3020 RMK AO2 SLP229 T01000011 401500078=
200910100653 METAR KPAE 100653Z AUTO 00000KT 10SM FEW120 10/02 A3021 RMK AO2 SLP230 T01000022=
200910100553 METAR KPAE 100553Z AUTO 00000KT 10SM OVC120 10/01 A3021 RMK AO2 SLP232 T01000006 10150 20089 58002=
200910100453 METAR KPAE 100453Z AUTO 00000KT 10SM BKN120 10/M01 A3022 RMK AO2 SLP235 T01001011=
200910100353 METAR KPAE 100353Z 00000KT 10SM FEW100 11/M02 A3022 RMK AO2 SLP233 T01111017=
200910100253 METAR KPAE 100253Z 00000KT 10SM FEW120 11/01 A3022 RMK AO2 SLP235 T01110006 56007=
200910100153 METAR KPAE 100153Z 00000KT 10SM CLR 12/02 A3022 RMK AO2 SLP235 T01170022=
200910100053 METAR KPAE 100053Z 34003KT 10SM OVC110 13/04 A3023 RMK AO2 SLP238 T01280044=
200910092353 METAR KPAE 092353Z VRB04KT 10SM BKN110 14/03 A3024 RMK AO2 SLP241 T01390028 10150 20106 56010=
200910092253 METAR KPAE 092253Z 36006KT 10SM FEW070 14/04 A3024 RMK AO2 SLP242 T01440039=
200910092153 METAR KPAE 092153Z 35006KT 10SM FEW075 14/05 A3025 RMK AO2 SLP245 T01390050=
200910092053 METAR KPAE 092053Z 35007KT 10SM OVC080 13/07 A3027 RMK AO2 SLP251 T01280067 58004=
200910091953 METAR KPAE 091953Z 36004KT 10SM BKN080 13/07 A3027 RMK AO2 SLP253 T01330072=
200910091853 METAR KPAE 091853Z 36003KT 10SM SCT050 BKN080 12/08 A3029 RMK AO2 SLP257 T01220078=
200910091753 METAR KPAE 091753Z 00000KT 8SM SCT005 OVC070 11/08 A3028 RMK AO2 SLP255 T01060078 10106 20083 51010=
200910091700 SPECI KPAE 091700Z 02003KT 8SM FEW005 OVC070 10/08 A3027 RMK AO2=
200910091700 SPECI KPAE 091700Z 02003KT 8SM FEW005 OVC070 10/08 A3027 RMK AO2=
200910091653 METAR KPAE 091653Z 04003KT 9SM OVC070 10/08 A3027 RMK AO2 SLP253 T01000078=
200910091632 SPECI KPAE 091632Z 03003KT 8SM SCT003 OVC070 10/08 A3027 RMK AO2=
200910091632 SPECI KPAE 091632Z 03003KT 8SM SCT003 OVC070 10/08 A3027 RMK AO2=
200910091553 METAR KPAE 091553Z 01003KT 5SM BR BKN003 09/08 A3027 RMK AO2 SLP250 T00940078=
200910091539 SPECI KPAE 091539Z 00000KT 6SM BR OVC003 09/08 A3027 RMK AO2=
200910091539 SPECI KPAE 091539Z 00000KT 6SM BR OVC003 09/08 A3027 RMK AO2=
200910091453 METAR KPAE 091453Z 00000KT 1/2SM FG OVC001 09/08 A3025 RMK AO2 SLP245 T00890078 51007 RVRNO=
200910091439 SPECI KPAE 091439Z 00000KT 5SM BR OVC003 09/08 A3025 RMK AO2 CIG 002V006=
200910091439 SPECI KPAE 091439Z 00000KT 5SM BR OVC003 09/08 A3025 RMK AO2 CIG 002V006=
200910091353 METAR KPAE 091353Z AUTO 00000KT 10SM BKN005 OVC009 09/08 A3025 RMK AO2 CIG 004V008 SLP243 T00940083=
200910091309 SPECI KPAE 091309Z AUTO 00000KT 10SM BKN008 09/08 A3024 RMK AO2=
200910091309 SPECI KPAE 091309Z AUTO 00000KT 10SM BKN008 09/08 A3024 RMK AO2=
200910091300 SPECI KPAE 091300Z AUTO 28004KT 10SM SCT008 BKN013 09/07 A3024 RMK AO2=
200910091300 SPECI KPAE 091300Z AUTO 28004KT 10SM SCT008 BKN013 09/07 A3024 RMK AO2=
200910091253 METAR KPAE 091253Z AUTO 27004KT 10SM SCT013 08/07 A3024 RMK AO2 SLP242 T00830072=
200910091237 SPECI KPAE 091237Z AUTO 26004KT 10SM OVC013 09/07 A3023 RMK AO2=
200910091237 SPECI KPAE 091237Z AUTO 26004KT 10SM OVC013 09/07 A3023 RMK AO2=
200910091153 METAR KPAE 091153Z AUTO 00000KT 9SM OVC018 08/07 A3023 RMK AO2 SLP238 T00830067 10100 20078 51008=
200910091108 SPECI KPAE 091108Z AUTO 00000KT 10SM BKN022 08/06 A3022 RMK AO2=
200910091108 SPECI KPAE 091108Z AUTO 00000KT 10SM BKN022 08/06 A3022 RMK AO2=
200910091053 METAR KPAE 091053Z AUTO 00000KT 10SM FEW022 08/06 A3022 RMK AO2 SLP236 T00780061=
200910090953 METAR KPAE 090953Z AUTO 00000KT 10SM CLR 08/07 A3021 RMK AO2 SLP232 T00830067=
200910090853 METAR KPAE 090853Z AUTO 00000KT 10SM CLR 08/06 A3021 RMK AO2 SLP229 T00830061 51009=
200910090753 METAR KPAE 090753Z AUTO 00000KT 10SM CLR 09/07 A3020 RMK AO2 SLP227 T00890067 401560061=
200910090653 METAR KPAE 090653Z AUTO 00000KT 10SM CLR 09/07 A3019 RMK AO2 SLP223 T00890072=
200910090553 METAR KPAE 090553Z AUTO 00000KT 10SM SCT055 11/08 A3018 RMK AO2 SLP220 T01060078 10156 20100 53009=
200910090453 METAR KPAE 090453Z AUTO 02004KT 10SM SCT065 11/07 A3016 RMK AO2 SLP214 T01110072=
200910090353 METAR KPAE 090353Z 02004KT 10SM OVC060 12/08 A3015 RMK AO2 SLP212 T01170078=
200910090253 METAR KPAE 090253Z 36004KT 10SM BKN065 12/08 A3015 RMK AO2 SLP211 T01170078 53005=
200910090153 METAR KPAE 090153Z 00000KT 10SM CLR 12/05 A3013 RMK AO2 SLP206 T01220050=
200910090053 METAR KPAE 090053Z 00000KT 10SM CLR 14/06 A3014 RMK AO2 SLP207 T01390056=
200910082353 METAR KPAE 082353Z 00000KT 10SM CLR 15/07 A3013 RMK AO2 SLP205 T01500072 10150 20100 58005=
200910082253 METAR KPAE 082253Z 31003KT 10SM CLR 14/08 A3014 RMK AO2 SLP207 T01440078=
200910082153 METAR KPAE 082153Z 27005KT 10SM CLR 15/08 A3015 RMK AO2 SLP210 T01500078=
200910082053 METAR KPAE 082053Z 30005KT 10SM CLR 14/08 A3015 RMK AO2 SLP210 T01390083 56007=
200910081953 METAR KPAE 081953Z 26005KT 10SM CLR 13/09 A3015 RMK AO2 SLP212 T01280089=
200910081853 METAR KPAE 081853Z 24004KT 4SM BCFG FEW005 10/08 A3016 RMK AO2 SLP215 T01000083=
200910081753 METAR KPAE 081753Z 26005KT 5SM BCFG SCT001 11/08 A3017 RMK AO2 SLP217 T01110083 10117 20061 52003=
200910081719 SPECI KPAE 081719Z 00000KT 5SM BCFG SCT001 11/08 A3017 RMK AO2=
200910081719 SPECI KPAE 081719Z 00000KT 5SM BCFG SCT001 11/08 A3017 RMK AO2=
200910081653 METAR KPAE 081653Z 00000KT 5SM BCFG BKN001 10/08 A3017 RMK AO2 SLP217 T01000078=
200910081553 METAR KPAE 081553Z 00000KT 5SM BCFG BKN001 08/07 A3016 RMK AO2 SLP216 T00830072=
200910081550 SPECI KPAE 081550Z 00000KT 5SM BCFG BKN001 08/07 A3016 RMK AO2=
200910081550 SPECI KPAE 081550Z 00000KT 5SM BCFG BKN001 08/07 A3016 RMK AO2=
200910081453 METAR KPAE 081453Z 12003KT 10SM FEW001 07/06 A3015 RMK AO2 SLP213 T00720061 53004=
200910081438 SPECI KPAE 081438Z 00000KT 10SM FEW001 07/06 A3015 RMK AO2=
200910081438 SPECI KPAE 081438Z 00000KT 10SM FEW001 07/06 A3015 RMK AO2=
200910081408 SPECI KPAE 081408Z 00000KT 1/4SM FG VV001 07/06 A3014 RMK AO2 RVRNO=
200910081408 SPECI KPAE 081408Z 00000KT 1/4SM FG VV001 07/06 A3014 RMK AO2 RVRNO=
200910081401 SPECI KPAE 081401Z 17003KT 1/4SM FG CLR 07/06 A3014 RMK AO2 RVRNO=
200910081401 SPECI KPAE 081401Z 17003KT 1/4SM FG CLR 07/06 A3014 RMK AO2 RVRNO=
200910081353 METAR KPAE 081353Z 16003KT 1/2SM CLR 08/07 A3014 RMK AO2 SFC VIS 7 SLP210 T00780067=
200910081253 METAR KPAE 081253Z AUTO 00000KT 6SM BR CLR 07/06 A3014 RMK AO2 SLP208 T00720061=
200910081153 METAR KPAE 081153Z AUTO 11003KT 10SM CLR 09/07 A3014 RMK AO2 SLP208 T00890067 10106 20067 58000=
200910081053 METAR KPAE 081053Z AUTO 00000KT 10SM CLR 07/06 A3014 RMK AO2 SLP208 T00720061=
200910080953 METAR KPAE 080953Z AUTO 00000KT 7SM CLR 08/07 A3015 RMK AO2 SLP210 T00780067=
200910080853 METAR KPAE 080853Z AUTO 00000KT 10SM CLR 08/07 A3014 RMK AO2 SLP208 T00830067 53005=
200910080753 METAR KPAE 080753Z AUTO 00000KT 10SM CLR 09/07 A3013 RMK AO2 SLP205 T00940072 401560078=
200910080653 METAR KPAE 080653Z AUTO 03003KT 10SM CLR 09/07 A3013 RMK AO2 SLP203 T00940072=
200910080553 METAR KPAE 080553Z AUTO 00000KT 10SM CLR 10/07 A3013 RMK AO2 SLP202 T01000072 10144 20094 51004=
200910080453 METAR KPAE 080453Z AUTO 00000KT 10SM CLR 11/07 A3012 RMK AO2 SLP202 T01060072=
200910080353 METAR KPAE 080353Z 00000KT 10SM CLR 11/08 A3012 RMK AO2 SLP201 T01110078=
200910080253 METAR KPAE 080253Z 33003KT 10SM CLR 11/08 A3011 RMK AO2 SLP199 T01110078 53004=
200910080153 METAR KPAE 080153Z 35003KT 10SM CLR 12/08 A3011 RMK AO2 SLP196 T01170078=
200910080053 METAR KPAE 080053Z 34003KT 10SM CLR 13/08 A3010 RMK AO2 SLP194 T01330083=
200910072353 METAR KPAE 072353Z VRB04KT 10SM CLR 14/08 A3010 RMK AO2 SLP194 T01440083 10156 20122 58003=
200910072253 METAR KPAE 072253Z 36006KT 10SM CLR 14/09 A3011 RMK AO2 SLP197 T01440089=
200910072153 METAR KPAE 072153Z VRB04KT 10SM CLR 15/08 A3010 RMK AO2 SLP195 T01500083=
200910072053 METAR KPAE 072053Z 36007KT 10SM CLR 14/08 A3011 RMK AO2 SLP197 T01440083 56008=
200910071953 METAR KPAE 071953Z 01005KT 10SM CLR 14/09 A3012 RMK AO2 SLP200 T01390089=
200910071853 METAR KPAE 071853Z 36005KT 10SM FEW010 13/09 A3012 RMK AO2 SLP201 T01280089=
200910071753 METAR KPAE 071753Z 36007KT 10SM FEW009 12/08 A3014 RMK AO2 SLP206 T01220083 10122 20089 51008=
200910071653 METAR KPAE 071653Z VRB06KT 10SM SCT007 11/08 A3013 RMK AO2 SLP204 T01110078=
200910071606 SPECI KPAE 071606Z VRB04KT 7SM SCT009 10/08 A3013 RMK AO2=
200910071606 SPECI KPAE 071606Z VRB04KT 7SM SCT009 10/08 A3013 RMK AO2=
200910071553 METAR KPAE 071553Z 35003KT 7SM CLR 10/08 A3012 RMK AO2 SLP201 T01000078=
200910071453 METAR KPAE 071453Z 35005KT 5SM BR CLR 09/08 A3011 RMK AO2 SLP197 T00890078 52009=
200910071353 METAR KPAE 071353Z 33005KT 5SM BR FEW005 09/08 A3010 RMK AO2 SLP193 T00890078=
200910071346 SPECI KPAE 071346Z AUTO 33003KT 5SM BR FEW003 09/08 A3010 RMK AO2=
200910071346 SPECI KPAE 071346Z AUTO 33003KT 5SM BR FEW003 09/08 A3010 RMK AO2=
200910071253 METAR KPAE 071253Z AUTO 34004KT 7SM BKN044 09/08 A3009 RMK AO2 SLP190 T00940078=
200910071153 METAR KPAE 071153Z AUTO 00000KT 8SM OVC044 09/08 A3008 RMK AO2 SLP186 T00940078 10117 20078 55000=
200910071053 METAR KPAE 071053Z AUTO 33005KT 10SM OVC046 09/07 A3008 RMK AO2 SLP185 T00940072=
200910070953 METAR KPAE 070953Z AUTO 34003KT 10SM CLR 09/04 A3008 RMK AO2 SLP185 T00890044=
200910070853 METAR KPAE 070853Z AUTO 00000KT 10SM CLR 09/06 A3008 RMK AO2 SLP188 T00890061 51006=
200910070753 METAR KPAE 070753Z AUTO 01003KT 10SM CLR 09/06 A3008 RMK AO2 SLP187 T00940061 401720072=
200910070653 METAR KPAE 070653Z AUTO 01003KT 10SM CLR 10/05 A3008 RMK AO2 SLP187 T01000050=
200910070553 METAR KPAE 070553Z AUTO 00000KT 10SM CLR 11/06 A3006 RMK AO2 SLP181 T01110061 10167 20111 58002=
200910070453 METAR KPAE 070453Z AUTO 03003KT 10SM CLR 11/06 A3007 RMK AO2 SLP183 T01110056=
200910070353 METAR KPAE 070353Z AUTO 02004KT 10SM FEW070 12/05 A3007 RMK AO2 SLP182 T01170050=
200910070253 METAR KPAE 070253Z 00000KT 10SM BKN055 OVC075 15/04 A3007 RMK AO2 SLP183 T01500044 56013=
200910070153 METAR KPAE 070153Z 05003KT 10SM OVC080 16/04 A3007 RMK AO2 SLP185 T01560044=
200910070053 METAR KPAE 070053Z 00000KT 10SM OVC080 16/04 A3009 RMK AO2 SLP189 T01610039=
200910062353 METAR KPAE 062353Z 00000KT 10SM OVC080 17/03 A3011 RMK AO2 SLP196 T01670033 10172 20128 56013=
200910062253 METAR KPAE 062253Z AUTO 25006KT 10SM CLR 17/03 A3011 RMK AO2 SLP195 T01670028 TSNO=
200910062153 METAR KPAE 062153Z 25003KT 10SM BKN065 17/04 A3013 RMK AO2 SLP201 T01670039=
200910062053 METAR KPAE 062053Z 26004KT 10SM CLR 16/06 A3015 RMK AO2 SLP209 T01560061 58017=
200910061953 METAR KPAE 061953Z 26004KT 10SM CLR 15/06 A3017 RMK AO2 SLP215 T01500061=
200910061853 METAR KPAE 061853Z VRB04KT 10SM CLR 14/06 A3018 RMK AO2 SLP222 T01440061=
200910061753 METAR KPAE 061753Z 15005KT 10SM CLR 13/04 A3020 RMK AO2 SLP227 T01280044 10133 20072 58006=
200910061653 METAR KPAE 061653Z 17003KT 10SM CLR 12/05 A3022 RMK AO2 SLP234 T01170050=
200910061553 METAR KPAE 061553Z 16004KT 10SM CLR 10/04 A3022 RMK AO2 SLP233 T01000044=
200910061453 METAR KPAE 061453Z 00000KT 10SM CLR 08/04 A3022 RMK AO2 SLP235 T00780044 53003=
200910061353 METAR KPAE 061353Z VRB03KT 10SM CLR 07/04 A3021 RMK AO2 SLP233 T00720044=
200910061253 METAR KPAE 061253Z AUTO 00000KT 10SM CLR 07/04 A3021 RMK AO2 SLP230 T00720044=
200910061153 METAR KPAE 061153Z AUTO 00000KT 10SM CLR 08/04 A3021 RMK AO2 SLP231 T00780044 10106 20072 58001=
200910061053 METAR KPAE 061053Z AUTO 00000KT 10SM CLR 08/04 A3022 RMK AO2 SLP235 T00830044=
200910060953 METAR KPAE 060953Z AUTO VRB03KT 10SM CLR 09/04 A3022 RMK AO2 SLP233 T00890044=
200910060853 METAR KPAE 060853Z AUTO 15004KT 10SM CLR 09/04 A3021 RMK AO2 SLP232 T00940039 53006=
200910060753 METAR KPAE 060753Z AUTO 00000KT 10SM CLR 10/03 A3020 RMK AO2 SLP228 T01000033 401670050=
200910060653 METAR KPAE 060653Z AUTO 00000KT 10SM CLR 10/03 A3020 RMK AO2 SLP227 T01000033=
200910060553 METAR KPAE 060553Z AUTO 00000KT 10SM CLR 10/02 A3019 RMK AO2 SLP225 T01000022 10156 20100 51003=
200910060453 METAR KPAE 060453Z AUTO 00000KT 10SM CLR 11/02 A3019 RMK AO2 SLP225 T01060022=
200910060353 METAR KPAE 060353Z AUTO 00000KT 10SM CLR 11/02 A3019 RMK AO2 SLP226 T01060022=
200910060253 METAR KPAE 060253Z 00000KT 10SM CLR 11/03 A3018 RMK AO2 SLP223 T01110028 53008=
200910060153 METAR KPAE 060153Z 00000KT 10SM CLR 12/04 A3017 RMK AO2 SLP219 T01220039=
200910060053 METAR KPAE 060053Z 00000KT 10SM CLR 14/03 A3016 RMK AO2 SLP215 T01440033=
200910052353 METAR KPAE 052353Z 36004KT 10SM CLR 16/04 A3016 RMK AO2 SLP213 T01560039 10167 20128 57000=
200910052253 METAR KPAE 052253Z 33005KT 10SM CLR 16/03 A3016 RMK AO2 SLP214 T01610033=
200910052153 METAR KPAE 052153Z 36005KT 10SM CLR 16/03 A3016 RMK AO2 SLP213 T01610033=
200910052053 METAR KPAE 052053Z 36006KT 10SM CLR 15/04 A3016 RMK AO2 SLP213 T01500044 51003=
200910051953 METAR KPAE 051953Z 34006KT 10SM CLR 14/03 A3016 RMK AO2 SLP213 T01390033=
200910051853 METAR KPAE 051853Z 36005KT 10SM CLR 13/04 A3016 RMK AO2 SLP215 T01330044=
200910051753 METAR KPAE 051753Z 35004KT 10SM CLR 13/04 A3015 RMK AO2 SLP211 T01280044 10128 20050 51010=
200910051653 METAR KPAE 051653Z 00000KT 10SM CLR 12/04 A3014 RMK AO2 SLP208 T01220044=
200910051553 METAR KPAE 051553Z 00000KT 10SM CLR 09/04 A3013 RMK AO2 SLP205 T00940044=
200910051453 METAR KPAE 051453Z 00000KT 10SM CLR 07/04 A3012 RMK AO2 SLP202 T00720039 52018=
200910051353 METAR KPAE 051353Z 00000KT 10SM CLR 06/03 A3011 RMK AO2 SLP196 T00610033=
200910051253 METAR KPAE 051253Z AUTO 00000KT 10SM CLR 07/04 A3008 RMK AO2 SLP188 T00720044=
200910051153 METAR KPAE 051153Z AUTO 00000KT 10SM CLR 08/04 A3007 RMK AO2 SLP183 T00780044 10111 20067 53017=
200910051053 METAR KPAE 051053Z AUTO 11003KT 10SM CLR 08/04 A3004 RMK AO2 SLP174 T00780044=
200910050953 METAR KPAE 050953Z AUTO 10003KT 10SM CLR 08/04 A3002 RMK AO2 SLP167 T00780044=
200910050853 METAR KPAE 050853Z AUTO 00000KT 10SM CLR 09/04 A3002 RMK AO2 SLP164 T00890044 53016=
200910050753 METAR KPAE 050753Z AUTO 00000KT 10SM CLR 09/04 A2999 RMK AO2 SLP157 T00940044 401780072=
200910050653 METAR KPAE 050653Z AUTO 00000KT 10SM CLR 08/03 A2999 RMK AO2 SLP155 T00830028=
200910050553 METAR KPAE 050553Z AUTO 00000KT 10SM CLR 10/03 A2997 RMK AO2 SLP149 T01000028 10161 20094 53011=
200910050453 METAR KPAE 050453Z 00000KT 10SM CLR 11/02 A2996 RMK AO2 SLP146 T01110022=
200910050353 METAR KPAE 050353Z 35005KT 10SM CLR 13/02 A2995 RMK AO2 SLP141 T01280022=
200910050253 METAR KPAE 050253Z 32006KT 10SM CLR 13/03 A2994 RMK AO2 SLP139 T01280028 53007=
200910050153 METAR KPAE 050153Z 31007KT 10SM CLR 13/03 A2993 RMK AO2 SLP135 T01330028=
200910050053 METAR KPAE 050053Z 31007KT 10SM CLR 15/03 A2992 RMK AO2 SLP133 T01500033=
200910042353 METAR KPAE 042353Z 32009G14KT 10SM CLR 16/03 A2992 RMK AO2 SLP131 T01610028 10178 20128 55001=
200910042253 METAR KPAE 042253Z 31009KT 10SM CLR 17/02 A2991 RMK AO2 SLP127 T01670022=
200910042153 METAR KPAE 042153Z 30010KT 10SM CLR 17/03 A2991 RMK AO2 SLP129 T01720028=
200910042053 METAR KPAE 042053Z 35006KT 10SM CLR 17/02 A2992 RMK AO2 SLP131 T01720017 58008=
200910041953 METAR KPAE 041953Z 34006G14KT 10SM CLR 17/03 A2993 RMK AO2 SLP135 T01670028=
200910041853 METAR KPAE 041853Z 35006G15KT 10SM CLR 14/03 A2994 RMK AO2 SLP139 T01440033=
200910041753 METAR KPAE 041753Z 35006KT 10SM CLR 13/04 A2994 RMK AO2 SLP141 T01280044 10128 20072 51006=
200910041653 METAR KPAE 041653Z 36005KT 10SM CLR 11/04 A2994 RMK AO2 SLP140 T01060039=
200910041553 METAR KPAE 041553Z 01004KT 10SM CLR 09/04 A2993 RMK AO2 SLP137 T00890039=
200910041453 METAR KPAE 041453Z 00000KT 10SM CLR 07/04 A2992 RMK AO2 SLP135 T00720039 53004=
200910041353 METAR KPAE 041353Z 02003KT 10SM CLR 07/04 A2992 RMK AO2 SLP132 T00720039=
200910041253 METAR KPAE 041253Z AUTO 35003KT 10SM CLR 07/04 A2991 RMK AO2 SLP130 T00720044=
200910041153 METAR KPAE 041153Z AUTO 02003KT 10SM CLR 08/04 A2991 RMK AO2 SLP130 T00830044 10100 20078 53008=
200910041053 METAR KPAE 041053Z AUTO 36005KT 10SM CLR 09/06 A2989 RMK AO2 SLP122 T00890061=
200910040953 METAR KPAE 040953Z AUTO 35007KT 10SM CLR 09/06 A2988 RMK AO2 SLP118 T00890061=
200910040853 METAR KPAE 040853Z AUTO 36009KT 10SM CLR 09/06 A2989 RMK AO2 SLP122 T00940061 58003=
200910040753 METAR KPAE 040753Z AUTO 35007G14KT 10SM CLR 10/06 A2989 RMK AO2 SLP121 T01000056 401330050=
200910040653 METAR KPAE 040653Z AUTO 35006KT 10SM CLR 10/05 A2990 RMK AO2 SLP127 T01000050=
200910040553 METAR KPAE 040553Z AUTO 35008KT 10SM CLR 10/06 A2990 RMK AO2 SLP125 T01000056 10128 20100 56006=
200910040453 METAR KPAE 040453Z AUTO 35008G17KT 10SM FEW095 10/05 A2990 RMK AO2 SLP126 T01000050=
200910040353 METAR KPAE 040353Z AUTO 34008KT 10SM CLR 11/04 A2990 RMK AO2 SLP128 T01060044=
200910040253 METAR KPAE 040253Z 32006KT 10SM CLR 10/04 A2991 RMK AO2 SLP131 T01000039 58006=
200910040153 METAR KPAE 040153Z VRB05KT 10SM CLR 11/04 A2992 RMK AO2 SLP135 T01060039=
200910040053 METAR KPAE 040053Z 31007KT 10SM CLR 12/04 A2993 RMK AO2 SLP137 T01170044=
200910032353 METAR KPAE 032353Z 33007KT 10SM CLR 13/06 A2993 RMK AO2 SLP137 T01280056 10133 20078 58011=
200910032253 METAR KPAE 032253Z 33007G14KT 10SM CLR 13/05 A2994 RMK AO2 SLP140 T01280050 TSNO=
200910032153 METAR KPAE 032153Z 34008G14KT 10SM SCT045 12/05 A2996 RMK AO2 SLP147 T01220050=
200910032053 METAR KPAE 032053Z 36007G14KT 10SM SCT022 12/05 A2996 RMK AO2 SLP148 T01170050 56012=
200910031953 METAR KPAE 031953Z VRB06KT 10SM SCT021 11/06 A2997 RMK AO2 SLP151 T01060056=
200910031853 METAR KPAE 031853Z 01006KT 10SM SCT009 10/06 A2998 RMK AO2 SLP155 T01000056=
200910031826 SPECI KPAE 031826Z 36006KT 10SM SCT005 SCT021 09/06 A2999 RMK AO2=
200910031826 SPECI KPAE 031826Z 36006KT 10SM SCT005 SCT021 09/06 A2999 RMK AO2=
200910031753 METAR KPAE 031753Z VRB04KT 10SM BKN005 BKN015 08/06 A3000 RMK AO2 SLP161 T00780056 10078 20050 58003=
200910031653 METAR KPAE 031653Z 02003KT 10SM BKN005 OVC012 07/05 A3001 RMK AO2 SLP164 T00670050=
200910031553 METAR KPAE 031553Z 02003KT 10SM BKN005 OVC012 07/05 A3001 RMK AO2 CIG 003V007 SLP163 T00670050=
200910031551 SPECI KPAE 031551Z 36003KT 10SM BKN005 OVC012 07/05 A3001 RMK AO2 CIG 003V007=
200910031551 SPECI KPAE 031551Z 36003KT 10SM BKN005 OVC012 07/05 A3001 RMK AO2 CIG 003V007=
200910031522 SPECI KPAE 031522Z 35003KT 4SM BR BKN002 OVC012 07/06 A3000 RMK AO2=
200910031522 SPECI KPAE 031522Z 35003KT 4SM BR BKN002 OVC012 07/06 A3000 RMK AO2=
200910031453 METAR KPAE 031453Z 35003KT 1/2SM FG OVC002 06/05 A3000 RMK AO2 SLP163 T00610050 56005 RVRNO=
200910031446 SPECI KPAE 031446Z 00000KT 1/2SM FG BKN002 06/04 A3001 RMK AO2 RVRNO=
200910031446 SPECI KPAE 031446Z 00000KT 1/2SM FG BKN002 06/04 A3001 RMK AO2 RVRNO=
200910031438 SPECI KPAE 031438Z 00000KT 1SM BR BKN002 06/04 A3001 RMK AO2 RVRNO=
200910031438 SPECI KPAE 031438Z 00000KT 1SM BR BKN002 06/04 A3001 RMK AO2 RVRNO=
200910031353 METAR KPAE 031353Z 00000KT 10SM SCT006 06/04 A3001 RMK AO2 SLP165 T00560039=
200910031334 SPECI KPAE 031334Z AUTO 34003KT 10SM BKN006 06/04 A3001 RMK AO2=
200910031334 SPECI KPAE 031334Z AUTO 34003KT 10SM BKN006 06/04 A3001 RMK AO2=
200910031324 SPECI KPAE 031324Z AUTO 00000KT 10SM SCT008 06/04 A3001 RMK AO2=
200910031324 SPECI KPAE 031324Z AUTO 00000KT 10SM SCT008 06/04 A3001 RMK AO2=
200910031308 SPECI KPAE 031308Z AUTO 00000KT 10SM SCT010 06/04 A3001 RMK AO2=
200910031308 SPECI KPAE 031308Z AUTO 00000KT 10SM SCT010 06/04 A3001 RMK AO2=
200910031253 METAR KPAE 031253Z AUTO 00000KT 10SM BKN010 06/04 A3001 RMK AO2 SLP165 T00610044=
200910031153 METAR KPAE 031153Z AUTO 12003KT 10SM OVC012 07/04 A3002 RMK AO2 SLP167 70001 T00670044 10083 20061 56007=
200910031125 SPECI KPAE 031125Z AUTO 00000KT 10SM BKN012 OVC050 06/04 A3002 RMK AO2=
200910031125 SPECI KPAE 031125Z AUTO 00000KT 10SM BKN012 OVC050 06/04 A3002 RMK AO2=
200910031053 METAR KPAE 031053Z AUTO 11003KT 10SM BKN055 07/04 A3002 RMK AO2 SLP168 T00670044=
200910030953 METAR KPAE 030953Z AUTO 00000KT 10SM BKN055 07/05 A3003 RMK AO2 SLP170 T00720050=
200910030853 METAR KPAE 030853Z AUTO 00000KT 10SM OVC055 07/06 A3004 RMK AO2 SLP175 T00720056 58011=
200910030753 METAR KPAE 030753Z AUTO 00000KT 10SM BKN060 07/06 A3005 RMK AO2 SLP178 T00670056 401330067=
200910030653 METAR KPAE 030653Z AUTO 00000KT 10SM FEW041 08/06 A3007 RMK AO2 SLP183 T00780056=
200910030553 METAR KPAE 030553Z AUTO 00000KT 10SM CLR 07/06 A3007 RMK AO2 SLP186 T00720056 10122 20072 58003=
200910030453 METAR KPAE 030453Z AUTO 00000KT 10SM SCT060 08/04 A3008 RMK AO2 SLP188 T00780044=
200910030353 METAR KPAE 030353Z AUTO 00000KT 10SM BKN065 09/04 A3008 RMK AO2 SLP188 T00940044=
200910030253 METAR KPAE 030253Z 00000KT 10SM CLR 09/04 A3008 RMK AO2 SLP189 T00890044 56003=
200910030153 METAR KPAE 030153Z 25003KT 10SM FEW060 10/04 A3009 RMK AO2 SLP190 T01000044=
200910030053 METAR KPAE 030053Z 28004KT 10SM BKN049 12/04 A3009 RMK AO2 SLP190 T01170039=
200910022353 METAR KPAE 022353Z 28003KT 10SM OVC049 12/04 A3009 RMK AO2 SLP191 T01220039 10133 20100 58007=
200910022253 METAR KPAE 022253Z AUTO 00000KT 10SM FEW033 SCT050 13/04 A3010 RMK AO2 SLP193 T01280039 TSNO=
200910022153 METAR KPAE 022153Z 36004KT 10SM BKN041 12/04 A3011 RMK AO2 SLP196 T01220039=
200910022053 METAR KPAE 022053Z VRB05KT 10SM SCT043 13/04 A3011 RMK AO2 SLP198 T01280044 57006=
200910021953 METAR KPAE 021953Z 02005KT 10SM CLR 13/04 A3012 RMK AO2 SLP199 T01280044=
200910021853 METAR KPAE 021853Z VRB05KT 10SM CLR 12/06 A3013 RMK AO2 SLP203 T01220056=
200910021801 SPECI KPAE 021801Z 01005KT 10SM FEW015 SCT026 BKN033 11/05 A3013 RMK AO2=
200910021801 SPECI KPAE 021801Z 01005KT 10SM FEW015 SCT026 BKN033 11/05 A3013 RMK AO2=
200910021753 METAR KPAE 021753Z 01007KT 10SM SCT015 BKN026 BKN046 10/06 A3013 RMK AO2 SLP205 60001 T01000061 10111 20089 51004=
200910021653 METAR KPAE 021653Z 31005KT 10SM SCT015 BKN026 BKN046 11/08 A3013 RMK AO2 SLP204 T01110078=
200910021553 METAR KPAE 021553Z 31005KT 10SM BKN015 OVC026 10/07 A3013 RMK AO2 SLP204 T01000072=
200910021453 METAR KPAE 021453Z VRB05KT 10SM FEW012 SCT065 SCT090 09/07 A3012 RMK AO2 SLP202 60001 T00940067 53000=
200910021353 METAR KPAE 021353Z 34005KT 10SM FEW014 BKN090 09/07 A3012 RMK AO2 SLP200 T00890072=
200910021315 SPECI KPAE 021315Z AUTO 34006KT 10SM SCT012 BKN090 09/07 A3011 RMK AO2=
200910021315 SPECI KPAE 021315Z AUTO 34006KT 10SM SCT012 BKN090 09/07 A3011 RMK AO2=
200910021306 SPECI KPAE 021306Z AUTO VRB03KT 10SM BKN012 BKN090 09/07 A3011 RMK AO2=
200910021306 SPECI KPAE 021306Z AUTO VRB03KT 10SM BKN012 BKN090 09/07 A3011 RMK AO2=
200910021253 METAR KPAE 021253Z AUTO VRB04KT 10SM SCT012 SCT060 BKN085 09/07 A3011 RMK AO2 RAE09 SLP199 P0001 T00940072=
200910021238 SPECI KPAE 021238Z AUTO 34005KT 10SM SCT014 BKN060 OVC085 09/07 A3011 RMK AO2 RAE09 P0001=
200910021238 SPECI KPAE 021238Z AUTO 34005KT 10SM SCT014 BKN060 OVC085 09/07 A3011 RMK AO2 RAE09 P0001=
200910021216 SPECI KPAE 021216Z AUTO 35004KT 10SM OVC014 09/08 A3012 RMK AO2 RAE09 P0001=
200910021216 SPECI KPAE 021216Z AUTO 35004KT 10SM OVC014 09/08 A3012 RMK AO2 RAE09 P0001=
200910021153 METAR KPAE 021153Z AUTO VRB03KT 10SM -RA BKN016 OVC050 09/08 A3012 RMK AO2 RAB02 SLP200 P0001 60003 70017 T00940078 10106 20094 55000=
200910021101 SPECI KPAE 021101Z AUTO 34005KT 10SM SCT013 OVC049 10/08 A3012 RMK AO2=
200910021101 SPECI KPAE 021101Z AUTO 34005KT 10SM SCT013 OVC049 10/08 A3012 RMK AO2=
200910021053 METAR KPAE 021053Z AUTO 36005KT 10SM FEW011 BKN017 OVC049 10/08 A3012 RMK AO2 SLP200 T01000078=
200910021051 SPECI KPAE 021051Z AUTO 36005KT 10SM SCT014 BKN020 OVC049 10/08 A3012 RMK AO2=
200910021051 SPECI KPAE 021051Z AUTO 36005KT 10SM SCT014 BKN020 OVC049 10/08 A3012 RMK AO2=
200910020953 METAR KPAE 020953Z AUTO 00000KT 10SM OVC049 10/08 A3012 RMK AO2 RAE33 SLP199 P0001 T01000078=
200910020853 METAR KPAE 020853Z AUTO 00000KT 9SM -RA OVC043 11/08 A3014 RMK AO2 RAB32 SLP206 P0001 60001 T01060078 56005=
200910020753 METAR KPAE 020753Z AUTO VRB03KT 10SM SCT022 OVC038 11/08 A3014 RMK AO2 SLP207 T01060083 401560094=
200910020653 METAR KPAE 020653Z AUTO 00000KT 10SM FEW024 OVC038 11/08 A3015 RMK AO2 SLP212 T01060083=
200910020553 METAR KPAE 020553Z AUTO 12005KT 10SM OVC040 10/09 A3016 RMK AO2 SLP213 60013 T01000089 10128 20100 58005=
200910020453 METAR KPAE 020453Z AUTO 11007KT 9SM OVC036 10/09 A3016 RMK AO2 RAE05 SLP216 P0000 T01000089=
200910020353 METAR KPAE 020353Z 11003KT 6SM -RA BR OVC030 11/09 A3017 RMK AO2 RAB51 SLP218 P0001 T01060094=
200910020343 SPECI KPAE 020343Z VRB03KT 10SM OVC030 11/09 A3017 RMK AO2=
200910020343 SPECI KPAE 020343Z VRB03KT 10SM OVC030 11/09 A3017 RMK AO2=
200910020253 METAR KPAE 020253Z 11005KT 10SM OVC022 11/09 A3017 RMK AO2 RAE22 SLP219 P0000 60012 T01060089 58003=
200910020238 SPECI KPAE 020238Z 00000KT 9SM OVC022 11/08 A3018 RMK AO2 RAE22 P0000=
200910020238 SPECI KPAE 020238Z 00000KT 9SM OVC022 11/08 A3018 RMK AO2 RAE22 P0000=
200910020153 METAR KPAE 020153Z 00000KT 3SM -RA BR BKN008 OVC022 10/09 A3018 RMK AO2 SLP222 P0007 T01000089=
200910020148 SPECI KPAE 020148Z 00000KT 2 1/2SM -RA BR SCT002 BKN008 OVC022 10/09 A3018 RMK AO2 P0006=
200910020148 SPECI KPAE 020148Z 00000KT 2 1/2SM -RA BR SCT002 BKN008 OVC022 10/09 A3018 RMK AO2 P0006=
200910020140 SPECI KPAE 020140Z 36003KT 3SM -RA BR SCT002 BKN008 OVC022 10/09 A3018 RMK AO2 P0006=
200910020140 SPECI KPAE 020140Z 36003KT 3SM -RA BR SCT002 BKN008 OVC022 10/09 A3018 RMK AO2 P0006=
200910020126 SPECI KPAE 020126Z 35003KT 2 1/2SM -RA BR SCT002 BKN008 OVC022 10/09 A3018 RMK AO2 P0005=
200910020126 SPECI KPAE 020126Z 35003KT 2 1/2SM -RA BR SCT002 BKN008 OVC022 10/09 A3018 RMK AO2 P0005=
200910020121 SPECI KPAE 020121Z 35003KT 3SM -RA BR BKN002 BKN008 OVC013 11/09 A3018 RMK AO2 P0005=
200910020121 SPECI KPAE 020121Z 35003KT 3SM -RA BR BKN002 BKN008 OVC013 11/09 A3018 RMK AO2 P0005=
200910020102 SPECI KPAE 020102Z 35005KT 1 1/2SM -RA BR BKN002 BKN008 OVC013 11/10 A3018 RMK AO2 P0002=
200910020102 SPECI KPAE 020102Z 35005KT 1 1/2SM -RA BR BKN002 BKN008 OVC013 11/10 A3018 RMK AO2 P0002=
200910020053 METAR KPAE 020053Z 34005KT 1 1/4SM RA BR SCT002 BKN008 OVC011 11/09 A3018 RMK AO2 RAB2356 CIG 007V011 SLP223 P0005 T01060094=
200910020046 SPECI KPAE 020046Z 36005KT 1SM -RA BR SCT002 OVC011 11/10 A3018 RMK AO2 RAB2356 CIG 007V015 P0004 RVRNO=
200910020046 SPECI KPAE 020046Z 36005KT 1SM -RA BR SCT002 OVC011 11/10 A3018 RMK AO2 RAB2356 CIG 007V015 P0004 RVRNO=
200910020038 SPECI KPAE 020038Z 33003KT 1 1/2SM -RA BR BKN011 OVC017 11/09 A3019 RMK AO2 RAB2356 P0003=
200910020038 SPECI KPAE 020038Z 33003KT 1 1/2SM -RA BR BKN011 OVC017 11/09 A3019 RMK AO2 RAB2356 P0003=
200910020031 SPECI KPAE 020031Z 34005KT 1 1/2SM -RA BR SCT010 OVC016 11/09 A3019 RMK AO2 RAB2356 P0002=
200910020031 SPECI KPAE 020031Z 34005KT 1 1/2SM -RA BR SCT010 OVC016 11/09 A3019 RMK AO2 RAB2356 P0002=
200910020024 SPECI KPAE 020024Z 31004KT 2 1/2SM -RA BR BKN014 OVC019 11/09 A3019 RMK AO2 VIS 1 1/4V5 RAB2356 P0002=
200910020024 SPECI KPAE 020024Z 31004KT 2 1/2SM -RA BR BKN014 OVC019 11/09 A3019 RMK AO2 VIS 1 1/4V5 RAB2356 P0002=
200910020004 SPECI KPAE 020004Z 28007KT 10SM -RA FEW007 OVC019 12/10 A3019 RMK AO2 RAB2356 P0000=
200910020004 SPECI KPAE 020004Z 28007KT 10SM -RA FEW007 OVC019 12/10 A3019 RMK AO2 RAB2356 P0000=
200910012353 METAR KPAE 012353Z 27006KT 10SM BKN019 OVC024 13/11 A3019 RMK AO2 RAE52 SLP224 P0001 60001 T01280106 10156 20122 58014=
200910012253 METAR KPAE 012253Z 19013KT 10SM -RA OVC023 14/09 A3021 RMK AO2 RAB51 SLP229 P0000 T01440094=
200910012153 METAR KPAE 012153Z 20016G22KT 10SM BKN023 OVC031 15/09 A3022 RMK AO2 SLP233 T01500094=
200910012053 METAR KPAE 012053Z 17013KT 10SM BKN023 OVC035 15/09 A3023 RMK AO2 SLP237 T01500089 56016=
200910011953 METAR KPAE 011953Z 17015G20KT 10SM OVC023 14/09 A3025 RMK AO2 SLP244 T01440089=
200910011853 METAR KPAE 011853Z 17013KT 10SM BKN023 OVC075 13/08 A3026 RMK AO2 SLP247 T01330083=
200910011753 METAR KPAE 011753Z 16012G18KT 10SM FEW021 BKN028 OVC075 12/08 A3028 RMK AO2 SLP254 60000 T01220083 10122 20094 58005=
200910011653 METAR KPAE 011653Z 16010KT 10SM FEW021 BKN028 OVC075 11/08 A3029 RMK AO2 SLP257 T01110078=
200910011553 METAR KPAE 011553Z 15007G14KT 090V180 10SM OVC018 10/08 A3030 RMK AO2 SLP260 T01000078=
200910011453 METAR KPAE 011453Z 15005KT 10SM OVC018 09/08 A3030 RMK AO2 SLP260 60000 T00940078 55005=
200910011353 METAR KPAE 011353Z AUTO 15008KT 10SM BKN004 OVC010 09/08 A3029 RMK AO2 RAE09 SLP259 P0000 T00940083=
200910011320 SPECI KPAE 011320Z AUTO 16009KT 3SM BR BKN004 BKN010 OVC015 09/08 A3029 RMK AO2 RAE09 P0000=
200910011320 SPECI KPAE 011320Z AUTO 16009KT 3SM BR BKN004 BKN010 OVC015 09/08 A3029 RMK AO2 RAE09 P0000=
200910011300 SPECI KPAE 011300Z AUTO 15008KT 3SM -RA BR FEW004 SCT015 OVC023 09/08 A3030 RMK AO2 P0000=
200910011300 SPECI KPAE 011300Z AUTO 15008KT 3SM -RA BR FEW004 SCT015 OVC023 09/08 A3030 RMK AO2 P0000=
200910011253 METAR KPAE 011253Z AUTO 15010KT 2 1/2SM -RA BR FEW004 SCT015 OVC024 09/08 A3030 RMK AO2 RAB01 SLP261 P0000 T00940083=
200910011243 SPECI KPAE 011243Z AUTO 15008G14KT 2 1/2SM -RA BR BKN016 OVC024 09/08 A3030 RMK AO2 RAB01 P0000=
200910011243 SPECI KPAE 011243Z AUTO 15008G14KT 2 1/2SM -RA BR BKN016 OVC024 09/08 A3030 RMK AO2 RAB01 P0000=
200910011153 METAR KPAE 011153Z AUTO 15004KT 10SM BKN018 BKN023 OVC030 11/07 A3031 RMK AO2 SLP265 T01060067 10106 20100 55000=
200910011150 SPECI KPAE 011150Z AUTO VRB03KT 10SM BKN018 BKN023 OVC028 11/07 A3031 RMK AO2=
200910011150 SPECI KPAE 011150Z AUTO VRB03KT 10SM BKN018 BKN023 OVC028 11/07 A3031 RMK AO2=
200910011102 SPECI KPAE 011102Z AUTO 00000KT 10SM FEW017 OVC031 11/07 A3031 RMK AO2=
200910011102 SPECI KPAE 011102Z AUTO 00000KT 10SM FEW017 OVC031 11/07 A3031 RMK AO2=
200910011053 METAR KPAE 011053Z AUTO 00000KT 10SM FEW017 BKN026 OVC031 11/07 A3031 RMK AO2 SLP265 T01060067=
200910011042 SPECI KPAE 011042Z AUTO VRB03KT 10SM SCT017 BKN026 OVC033 11/07 A3031 RMK AO2=
200910011042 SPECI KPAE 011042Z AUTO VRB03KT 10SM SCT017 BKN026 OVC033 11/07 A3031 RMK AO2=
200910010953 METAR KPAE 010953Z AUTO 16007KT 10SM FEW075 OVC100 11/06 A3031 RMK AO2 SLP265 T01060061=
200910010853 METAR KPAE 010853Z AUTO VRB03KT 10SM OVC070 11/06 A3032 RMK AO2 SLP268 T01060061 53002=
200910010753 METAR KPAE 010753Z AUTO 00000KT 10SM OVC085 10/06 A3031 RMK AO2 SLP265 T01000061 401390067=
200910010653 METAR KPAE 010653Z AUTO 12004KT 10SM FEW070 OVC090 10/06 A3031 RMK AO2 SLP265 T01000061=
200910010553 METAR KPAE 010553Z AUTO 11006KT 10SM BKN080 OVC110 10/06 A3031 RMK AO2 SLP266 T01000061 10128 20100 50003=
200910010453 METAR KPAE 010453Z AUTO 10008KT 10SM FEW055 OVC090 11/06 A3032 RMK AO2 SLP268 T01060056=
200910010353 METAR KPAE 010353Z AUTO 11006KT 10SM CLR 12/05 A3031 RMK AO2 SLP266 T01170050=
200910010253 METAR KPAE 010253Z VRB03KT 10SM FEW050 OVC055 12/04 A3030 RMK AO2 SLP264 T01220039 53005=
200910010153 METAR KPAE 010153Z 07003KT 10SM BKN055 OVC090 13/03 A3030 RMK AO2 SLP262 T01280033=
200910010053 METAR KPAE 010053Z 06004KT 10SM FEW040 BKN070 13/03 A3029 RMK AO2 SLP258 T01280028=

# No short TAF reports from KPAE in databse.

###################################
#  large TAF from KPAE
###################################
200910312340 TAF KPAE 312340Z 0100/0124 VRB05KT P6SM -SHRA SCT020 OVC035
                      TEMPO 0100/0102 SHRA BKN020 OVC030 FM010300
                       VRB05KT P6SM VCSH SCT025 OVC045 FM010900
                       11003KT P6SM OVC009 FM011800 15004KT P6SM
                       SCT020 BKN040 FM012100 13004KT P6SM BKN030
                       BKN070=
200910311738 TAF KPAE 311738Z 3118/0118 11008KT P6SM SCT012 OVC020
                      TEMPO 3118/3122 -SHRA BKN012 OVC018 FM312200
                       22008KT P6SM SCT016 OVC030
                      TEMPO 3122/0102 -SHRA BKN016 OVC025 FM010200
                       23004KT P6SM VCSH SCT020 OVC040 FM010600
                       VRB03KT P6SM BKN060 FM010900 11003KT P6SM
                       OVC009=
200910311120 TAF KPAE 311120Z 3112/0112 20012G20KT P6SM -SHRA SCT010 BKN014
                       OVC025 FM311600 VRB05KT P6SM -SHRA BKN010
                       OVC020 FM312300 34005KT P6SM VCSH BKN030
                       BKN050 FM010300 VRB03KT P6SM VCSH SCT012
                       BKN025 BKN040=
200910310541 TAF KPAE 310541Z 3106/0106 15015G22KT P6SM -RA SCT006 BKN022 OVC030
                       TEMPO 3106/3109 2SM -RA BR SCT006 BKN012
                       OVC020 FM311000 18012KT P6SM -SHRA SCT010
                       BKN020 OVC030 FM312100 VRB05KT P6SM -SHRA
                       BKN010 OVC020 FM010300 VRB03KT P6SM VCSH
                       SCT012 BKN025 BKN040=
200910310307 KPAE 310307Z 3103/3124 15020G30KT P6SM SCT018 OVC025
                      TEMPO 3103/3106 3SM -RA BR BKN016 OVC030
                       FM310600 15022G33KT P6SM -RA SCT004 BKN014
                       OVC021
                      TEMPO 3106/3110 3SM RA BKN004 OVC012 FM311000
                       18015G25KT P6SM -SHRA SCT010 BKN016 OVC025
                       FM312000 20010KT P6SM -SHRA SCT020 BKN030
                       OVC040=
200910302335 TAF KPAE 302335Z 3100/3124 19022G33KT P6SM SCT018 BKN030 OVC040
                       FM310200 15022G33KT P6SM SCT018 OVC035
                      TEMPO 3102/3106 -RA BKN016 OVC030 FM310600
                       15022G33KT P6SM -RA SCT004 BKN014 OVC021
                       TEMPO 3106/3110 3SM RA BKN004 OVC012 FM311000
                       18015G25KT P6SM -SHRA SCT010 BKN016 OVC025
                       FM312000 20010KT P6SM -SHRA SCT020 BKN030
                       OVC040=
200910301732 TAF KPAE 301732Z 3018/3118 19013G20KT P6SM SCT009 BKN021 BKN070
                       FM302000 15014G22KT P6SM SCT020 BKN030 OVC060
                       TEMPO 3020/3024 6SM -RA SCT013 BKN020 OVC035
                       FM310000 15014G22KT P6SM SCT030 OVC045 FM310400
                       15015G25KT P6SM -RA SCT030 OVC045 FM310700
                       15015G25KT P6SM -RA BKN016 OVC030 FM311000
                       19012KT P6SM -SHRA SCT016 BKN025 OVC035=
200910301617 KPAE 301617Z 3016/3112 18013G20KT P6SM FEW003 BKN007 OVC011
                      TEMPO 3016/3020 SCT010 BKN025 OVC080 FM302000
                       15014G22KT P6SM SCT010 BKN020 OVC040
                      TEMPO 3020/3024 SCT022 BKN045 OVC080 FM310000
                       15014G22KT P6SM SCT030 OVC045 FM310400 15015G25KT
                       P6SM -RA SCT030 OVC045 FM310700 15015G25KT
                       P6SM -RA BKN016 OVC030 FM311000 19012KT
                       P6SM -SHRA SCT016 BKN025 OVC035=
200910301506 KPAE 301506Z 3015/3112 18011G17KT P6SM SCT003 BKN007 OVC011
                      TEMPO 3015/3018 5SM BR OVC003 FM301800 15008KT
                       P6SM SCT001 OVC004 FM302000 15012KT P6SM
                       SCT004 BKN008 OVC015 FM302200 15012KT P6SM
                       SCT010 BKN020 OVC040 FM310200 15012G20KT
                       P6SM SCT030 OVC045 FM310400 15015G25KT P6SM
                       -RA SCT030 OVC045 FM310700 15015G25KT P6SM
                       -RA BKN016 OVC030 FM311000 19012KT P6SM
                       -SHRA SCT016 BKN025 OVC035=
200910301138 TAF KPAE 301138Z 3012/3112 18008KT 5SM BR OVC001 FM301700 15008KT
                       P6SM SCT001 OVC004 FM302000 15012KT P6SM
                       SCT004 BKN008 OVC015 FM302200 15012KT P6SM
                       SCT010 BKN020 OVC040 FM310200 15012G20KT
                       P6SM SCT030 OVC045 FM310400 15015G25KT P6SM
                       -RA SCT030 OVC045 FM310700 15015G25KT P6SM
                       -RA BKN016 OVC030 FM311000 19012KT P6SM
                       -SHRA SCT016 BKN025 OVC035=
200910300542 TAF KPAE 300542Z 3006/3106 17006KT P6SM SCT002 OVC006
                      TEMPO 3006/3010 2SM -RA BR BKN002 OVC006
                       FM301700 15008KT P6SM SCT010 BKN020 OVC040
                       FM302100 15012KT P6SM SCT030 OVC045 FM310300
                       15015G25KT P6SM -RA SCT030 OVC045=
200910292349 TAF KPAE 292349Z 3000/3024 17012KT 4SM -RA BR BKN004 OVC011
                      TEMPO 3000/3004 2SM -RA BR FM300600 17012KT
                       5SM BR SCT004 OVC011
                      TEMPO 3006/3010 2SM -RA BR BKN004 OVC011
                       FM301800 17015G25KT P6SM BKN018 OVC040=
200910292121 KPAE 292121Z 2921/3018 17013KT 2SM -RA BR BKN005 OVC015 FM300300
                       17013KT P6SM FEW008 BKN015 OVC028=
200910291757 TAF KPAE 291757Z 2918/3018 14009KT 4SM -RA BR SCT005 OVC015
                      TEMPO 2918/2920 2SM -RA BR BKN005 OVC015
                       FM292000 17013G22KT 4SM -RA BR BKN005 OVC015
                       FM300300 17013KT P6SM FEW008 BKN015 OVC028
                       PROB30 3003/3009 -RA=
200910291634 KPAE 291634Z 2917/3012 16009KT 5SM -RA BR SCT005 OVC020
                      TEMPO 2917/2919 2SM -RA BR BKN005 OVC015
                       FM291900 16012KT P6SM -RA SCT015 BKN025
                       OVC040 FM292000 16008KT P6SM SCT020 BKN030
                       OVC045 FM300000 16008KT P6SM SCT030 OVC045
                       FM300900 16008KT P6SM -RA SCT015 OVC025=
200910291439 KPAE 291439Z 2915/3012 16012KT P6SM -RA SCT009 OVC020
                      TEMPO 2915/2918 4SM -RA BR BKN009 OVC015
                       FM291800 16012KT P6SM -RA SCT015 BKN025
                       OVC040
                      TEMPO 2918/2920 4SM -RA OVC015 FM292000 16008KT
                       P6SM SCT020 BKN030 OVC045 FM300000 16008KT
                       P6SM SCT030 OVC045 FM300900 16008KT P6SM
                       -RA SCT015 OVC025=
200910291140 TAF KPAE 291140Z 2912/3012 16012KT P6SM -RA BKN030 OVC045 FM291700
                       16012KT P6SM -RA SCT015 BKN025 OVC040
                      TEMPO 2917/2919 4SM -RA OVC015 FM292000 16008KT
                       P6SM SCT020 BKN030 OVC045 FM300000 16008KT
                       P6SM SCT030 OVC045 FM300900 16008KT P6SM
                       -RA SCT015 OVC025=
200910290540 TAF KPAE 290540Z 2906/3006 16008KT P6SM -RA SCT011 OVC025
                      TEMPO 2906/2910 4SM -RA BKN011 OVC025 FM291000
                       16012KT 4SM -RA SCT008 OVC015
                      TEMPO 2912/2916 2SM -RA BKN006 OVC012 FM291900
                       16010KT P6SM SCT015 BKN025 OVC040 FM300000
                       16008KT P6SM SCT030 OVC045=
200910282339 TAF KPAE 282339Z 2900/2924 VRB03KT P6SM SCT040 BKN080 OVC120 FM290600
                       12008KT P6SM BKN040 OVC080
                      TEMPO 2906/2909 -RA FM290900 12008KT P6SM
                       -RA SCT020 OVC040
                      TEMPO 2909/2912 BKN020 OVC040 FM291200 14011KT
                       6SM -RA BR SCT009 OVC020 FM291500 14013KT
                       4SM -RA BR SCT006 OVC012 FM292100 17013G20KT
                       4SM -RA BR BKN006 OVC012=
200910282233 KPAE 282233Z 2823/2918 VRB03KT P6SM FEW030 SCT080 OVC120 FM290600
                       13008KT P6SM SCT050 OVC080 FM290900 13011KT
                       P6SM -RA SCT028 OVC050 FM291500 13013G20KT
                       P6SM -RA SCT009 OVC028=
200910281745 KPAE 281745Z 2818/2918 16005KT P6SM FEW003 BKN050 OVC130
                      TEMPO 2818/2819 1SM BR BKN003 BKN050 OVC130
                       FM281900 16005KT P6SM FEW050 BKN130 OVC200
                       FM290000 16005KT P6SM SCT080 OVC120 FM290600
                       13008KT P6SM SCT050 OVC080
                      PROB30 2906/2909 -RA FM290900 13011KT P6SM
                       -RA SCT028 OVC050 FM291500 13013G20KT P6SM
                       -RA SCT009 OVC028=
200910281742 TAF KPAE 281742Z 2818/2918 16005KT P6SM FEW003 BKN050 OVC130 FM281900
                       16005KT P6SM FEW050 BKN130 OVC200 FM290000
                       16005KT P6SM SCT080 OVC120 FM290600 13008KT
                       P6SM SCT050 OVC080
                      PROB30 2906/2909 -RA FM290900 13011KT P6SM
                       -RA SCT028 OVC050 FM291500 13013G20KT P6SM
                       -RA SCT009 OVC028=
200910281403 KPAE 281403Z 2814/2912 15006KT P6SM SCT005 SCT050 BKN200
                      TEMPO 2814/2817 BKN005 BKN050 BKN200 FM281800
                       15006KT P6SM SCT060 BKN200 FM282200 15006KT
                       P6SM BKN120 OVC200 FM290300 15010KT P6SM
                       BKN080 OVC120 FM291000 15014G20KT P6SM -RA
                       OVC040=
200910281139 TAF KPAE 281139Z 2812/2912 15006KT P6SM BKN050 BKN200 FM281600
                       15006KT P6SM SCT060 BKN200 FM282200 15006KT
                       P6SM BKN120 OVC200 FM290300 15010KT P6SM
                       BKN080 OVC120 FM291000 15014G20KT P6SM -RA
                       OVC040=
200910280545 TAF KPAE 280545Z 2806/2906 VRB03KT P6SM BKN060 FM280900 VRB03KT
                       P6SM SCT060
                      TEMPO 2812/2815 5SM BR SCT002 FM281600 14006KT
                       P6SM BKN200 FM282000 14006KT P6SM BKN120
                       OVC200 FM290300 14010KT P6SM BKN070 OVC120=
200910272332 TAF KPAE 272332Z 2800/2824 32006KT P6SM SCT030 SCT060 FM281100
                       VRB03KT P6SM SCT060 BKN120
                      TEMPO 2811/2815 2SM BR SCT004 FM281800 17005KT
                       P6SM BKN120=
200910271739 TAF KPAE 271739Z 2718/2818 31004KT P6SM VCSH FEW015 BKN050
                      TEMPO 2718/2720 -SHRA BKN030 FM272000 32007KT
                       P6SM BKN060 FM281100 15004KT P6SM SCT060
                       BKN120
                      TEMPO 2811/2815 6SM BR SCT004=
200910271136 TAF KPAE 271136Z 2712/2812 VRB03KT P6SM SCT060 FM271900 32008KT
                       P6SM SCT060 FM280600 VRB03KT P6SM SKC=
200910270526 TAF KPAE 270526Z 2706/2806 32012G22KT P6SM SCT060 FM270700 32010KT
                       P6SM SCT030 BKN060 FM280200 32010KT P6SM
                       SCT060=
200910262320 TAF KPAE 262320Z 2700/2724 26010KT P6SM -SHRA BKN015 BKN035
                      TEMPO 2700/2704 SCT020 BKN050 FM270600 30010KT
                       P6SM -SHRA BKN015 BKN035 FM272000 33010KT
                       P6SM SCT025 BKN040=
200910262210 KPAE 262210Z 2622/2718 20008KT P6SM -SHRA SCT015 BKN030 OVC045
                       FM270200 18007KT P6SM -SHRA OVC025
                      TEMPO 2702/2706 5SM SHRA BKN015 OVC025 FM270600
                       22005KT P6SM VCSH OVC025 FM271200 19006KT
                       P6SM BKN015 OVC025=
200910261910 KPAE 261910Z 2619/2718 35008KT P6SM SCT025 BKN060
                      TEMPO 2619/2622 5SM -SHRA BKN025 OVC060 FM262200
                       29011KT P6SM -SHRA BKN025 OVC060 FM270000
                       18007KT P6SM -SHRA OVC025
                      TEMPO 2700/2704 5SM SHRA OVC020 FM270600
                       22005KT P6SM OVC025=
200910261751 TAF KPAE 261751Z 2618/2718 35008KT 6SM -RA BR SCT005 BKN025 OVC040
                       TEMPO 2618/2620 3SM RA BR OVC005 FM262200
                       29011KT P6SM -SHRA BKN025 OVC040 FM270000
                       18007KT P6SM -SHRA OVC025
                      TEMPO 2700/2704 5SM SHRA OVC020 FM270600
                       22005KT P6SM OVC025=
200910261648 KPAE 261648Z 2617/2712 35008KT 6SM -RA BR SCT005 BKN025 OVC040
                       TEMPO 2617/2619 3SM RA BR OVC005 FM262200
                       29011KT P6SM -SHRA BKN025 OVC040 FM270000
                       18007KT P6SM -SHRA OVC025
                      TEMPO 2700/2704 5SM SHRA OVC020 FM270600
                       22005KT P6SM OVC025=
200910261548 KPAE 261548Z 2616/2712 35008G15KT 6SM -RA BR SCT005 BKN025 OVC040
                       TEMPO 2616/2619 3SM RA BR OVC005 FM262200
                       29011KT P6SM -SHRA BKN025 OVC040 FM270000
                       18007KT P6SM -SHRA OVC025
                      TEMPO 2700/2704 5SM SHRA OVC020 FM270600
                       22005KT P6SM OVC025=
200910261413 KPAE 261413Z 2614/2712 35006KT 3SM -RA BR BKN005 OVC010
                      TEMPO 2614/2617 1/2SM RA FG OVC001 FM261900
                       20011G25KT P6SM -SHRA OVC019 FM262200 29011KT
                       P6SM -SHRA BKN025 OVC040 FM270000 18007KT
                       P6SM -SHRA OVC025
                      TEMPO 2700/2704 5SM SHRA OVC020 FM270600
                       22005KT P6SM OVC025=
200910261331 KPAE 261331Z 2614/2712 17008KT 4SM -RA BR SCT003 BKN010 OVC020
                       TEMPO 2614/2616 1SM RA BR BKN003 OVC010
                       FM261700 20011G25KT P6SM -SHRA OVC019 FM262200
                       29011KT P6SM -SHRA BKN025 OVC040 FM270000
                       18007KT P6SM -SHRA OVC025
                      TEMPO 2700/2704 5SM SHRA OVC020 FM270600
                       22005KT P6SM OVC025=
200910261330 KPAE 261330Z 2614/2712 17008KT 4SM -RA SCT003 BKN010 OVC020
                      TEMPO 2614/2616 1SM RA BKN003 OVC010 FM261700
                       20011G25KT P6SM -SHRA OVC019 FM262200 29011KT
                       P6SM -SHRA BKN025 OVC040 FM270000 18007KT
                       P6SM -SHRA OVC025
                      TEMPO 2700/2704 5SM SHRA OVC020 FM270600
                       22005KT P6SM OVC025=
200910261137 TAF KPAE 261137Z 2612/2712 17010G20KT 5SM -RA SCT003 SCT010 OVC020
                       TEMPO 2612/2616 3SM RA BKN003 OVC010 FM261700
                       20011G25KT P6SM -SHRA OVC019 FM262200 29011KT
                       P6SM -SHRA BKN025 OVC040 FM270000 18007KT
                       P6SM -SHRA OVC025
                      TEMPO 2700/2704 5SM SHRA OVC020 FM270600
                       22005KT P6SM OVC025=
200910261008 KPAE 261008Z 2610/2706 17010G20KT P6SM -RA OVC005 FM261500 20011G24KT
                       P6SM -SHRA OVC020 FM262200 29011KT P6SM
                       -SHRA OVC022 FM270000 18007KT P6SM -SHRA
                       OVC015=
200910260605 KPAE 260605Z 2606/2706 16012G20KT P6SM -RA SCT007 OVC025
                      TEMPO 2606/2609 BKN005 FM260900 17014G25KT
                       P6SM -RA OVC010 FM261500 20011G24KT P6SM
                       -SHRA OVC020 FM262200 29011KT P6SM -SHRA
                       OVC022 FM270000 18007KT P6SM -SHRA OVC015=
200910260537 TAF KPAE 260537Z 2606/2706 16012G20KT P6SM -RA OVC025 FM260900
                       17014G25KT P6SM -RA OVC010 FM261500 20011G24KT
                       P6SM -SHRA OVC020 FM262200 29011KT P6SM
                       -SHRA OVC022 FM270000 18007KT P6SM -SHRA
                       OVC015=
200910252337 TAF KPAE 252337Z 2600/2624 15011KT 6SM -RA SCT045 OVC060 FM260200
                       16012G19KT 5SM -RA BKN025 OVC050 FM260500
                       16012G25KT 4SM -RA BR OVC015 FM260800 17014G29KT
                       4SM -RA BR OVC010 FM261700 20011G24KT P6SM
                       -SHRA OVC021 FM262200 29011KT P6SM -SHRA
                       OVC022=
200910251730 TAF KPAE 251730Z 2518/2618 13007KT P6SM OVC090 FM252300 15012KT
                       P6SM -RA BKN040 OVC070 FM260100 16012G19KT
                       5SM -RA BKN025 OVC050 FM260400 16012G25KT
                       4SM -RA BR OVC015 FM260800 17014G29KT 4SM
                       -RA BR OVC010 FM261700 20011G24KT P6SM -SHRA
                       OVC021=
200910251130 TAF KPAE 251130Z 2512/2612 10005KT P6SM SCT200
                      TEMPO 2512/2515 4SM BR SCT001 SCT200 FM251800
                       12005KT P6SM BKN100 OVC200 FM252300 16007KT
                       P6SM -RA SCT040 BKN060 OVC100 FM260100 16010KT
                       5SM -RA BKN025 OVC050 FM260300 18012G20KT
                       4SM -RA BR OVC015 FM260800 19014G25KT 4SM
                       -RA BR OVC015=
200910250520 TAF KPAE 250520Z 2506/2606 10005KT P6SM SCT200
                      TEMPO 2511/2515 3SM BR SCT001 SCT200 FM251800
                       12005KT P6SM BKN100 OVC200 FM252300 17007KT
                       P6SM -RA SCT040 BKN060 OVC100 FM260100 18010KT
                       5SM -RA BKN025 OVC050 FM260300 18012G20KT
                       4SM -RA BR OVC015=
200910242326 TAF KPAE 242326Z 2500/2524 00000KT P6SM SCT040
                      TEMPO 2500/2502 BKN040 FM250500 10005KT P6SM
                       BKN200 FM251600 14009KT P6SM BKN090 OVC150
                       FM252000 15012KT P6SM SCT050 OVC080
                      PROB30 2520/2524 -RA=
200910241927 KPAE 241927Z 2419/2518 17004KT P6SM BKN025 BKN035 FM242200 32007KT
                       P6SM SCT045 BKN250 FM250500 10005KT P6SM
                       BKN200 FM251600 14009KT P6SM BKN090 OVC150=
200910241722 TAF KPAE 241722Z 2418/2518 16006KT P6SM FEW100 BKN250 FM242200
                       32007KT P6SM SCT045 BKN250 FM250500 10005KT
                       P6SM BKN200 FM251600 14009KT P6SM BKN090
                       OVC150=
200910241611 KPAE 241611Z 2416/2512 19004KT P6SM SCT025 SCT250 FM241800 VRB04KT
                       P6SM SCT035 SCT250 FM242200 32007KT P6SM
                       SCT045 BKN250 FM250500 10005KT P6SM BKN200=
200910241131 TAF KPAE 241131Z 2412/2512 VRB03KT P6SM SCT012 SCT040
                      TEMPO 2412/2416 4SM BR BKN012 FM241800 14005KT
                       P6SM SCT015 BKN040 FM242200 32007KT P6SM
                       SCT045 BKN250 FM250500 10005KT P6SM BKN200=
200910241017 KPAE 241017Z 2410/2506 24005KT P6SM BKN040 FM241200 VRB03KT P6SM
                       SCT006 SCT040
                      TEMPO 2412/2416 3SM BR BKN006 FM241800 14005KT
                       P6SM SCT010 BKN040 FM242200 32007KT P6SM
                       SCT045 BKN250 FM250500 10005KT P6SM BKN200=
200910240520 TAF KPAE 240520Z 2406/2506 VRB04KT P6SM SCT020 BKN050
                      TEMPO 2406/2410 BKN020 OVC050 FM241000 VRB03KT
                       6SM BR SCT001 BKN009
                      TEMPO 2412/2416 1SM BR BKN001 FM241800 14005KT
                       P6SM SCT012 BKN040 FM242200 32007KT P6SM
                       SCT045 BKN250 FM250500 10005KT P6SM BKN200=
200910240206 KPAE 240206Z 2402/2424 30010KT P6SM SCT018 OVC050
                      TEMPO 2402/2404 -SHRA BKN018 OVC050 FM240500
                       27005KT P6SM OVC015 FM240900 VRB03KT 3SM
                       BR BKN008 FM241500 VRB05KT P6SM SCT010 BKN040
                       FM242100 30005KT P6SM SCT040 BKN250=
200910232334 TAF KPAE 232334Z 2400/2424 20011G19KT P6SM SCT009 OVC030
                      TEMPO 2400/2402 32007KT 2SM SHRA OVC009 FM240200
                       30007KT P6SM -SHRA BKN018 OVC028 FM240500
                       27005KT P6SM OVC015 FM240900 VRB03KT 3SM
                       BR BKN008 FM241500 VRB05KT P6SM SCT010 BKN040
                       FM242100 30005KT P6SM SCT040 BKN250=
200910232107 KPAE 232107Z 2321/2418 19012G25KT P6SM SCT008 OVC018
                      TEMPO 2321/2323 3SM RA BR BKN008 OVC018 FM232300
                       22012KT P6SM -SHRA BKN021 OVC040 FM240100
                       27010KT P6SM -SHRA BKN025 OVC040
                      TEMPO 2401/2404 4SM SHRA OVC018 FM240500
                       27005KT P6SM OVC015 FM240900 VRB03KT 3SM
                       BR OVC008 FM241500 VRB05KT P6SM SCT010 BKN040=
200910231738 TAF KPAE 231738Z 2318/2418 15012G25KT P6SM SCT005 OVC012
                      TEMPO 2318/2321 3SM RA BR BKN005 OVC012 FM232100
                       22015G30KT P6SM -SHRA BKN021 OVC040 FM240200
                       27010KT P6SM -SHRA BKN025 OVC040
                      TEMPO 2402/2405 4SM SHRA OVC018 FM240500
                       27005KT P6SM OVC015 FM240900 VRB03KT 3SM
                       BR OVC008 FM241500 VRB05KT P6SM SCT010 BKN040=
200910231500 KPAE 231500Z 2315/2412 16012G22KT P6SM -RA SCT008 BKN015 OVC050
                       TEMPO 2315/2318 3SM RA BR BKN008 OVC015
                       FM232000 22015G25KT P6SM -SHRA BKN025 BKN050
                       FM240200 27010KT P6SM -SHRA SCT025 BKN050
                       TEMPO 2402/2405 4SM SHRA OVC018 FM240500
                       27005KT P6SM OVC015 FM240900 VRB03KT 3SM
                       BR OVC008=
200910231233 KPAE 231233Z 2313/2412 15012G22KT P6SM -RA BKN040 BKN080 OVC100
                       TEMPO 2313/2314 4SM -RA BR BKN020 FM231400
                       16014G22KT 4SM -RA BR OVC018 FM232000 22015G25KT
                       P6SM -SHRA BKN025 BKN050 FM240200 27010KT
                       P6SM -SHRA SCT025 BKN050
                      TEMPO 2402/2405 4SM SHRA OVC018 FM240500
                       27005KT P6SM OVC015 FM240900 VRB03KT 3SM
                       BR OVC008=
200910231120 TAF KPAE 231120Z 2312/2412 15008KT 6SM -RA BR SCT020 OVC035
                      TEMPO 2312/2314 4SM -RA BR BKN020 FM231400
                       18014G22KT 4SM -RA BR OVC018 FM232000 22015G25KT
                       P6SM -SHRA BKN025 BKN050 FM240200 27010KT
                       P6SM -SHRA SCT025 BKN050
                      TEMPO 2402/2405 4SM SHRA OVC018 FM240500
                       27005KT P6SM OVC015 FM240900 VRB03KT 3SM
                       BR OVC008=
200910230520 TAF KPAE 230520Z 2306/2406 14009KT P6SM VCSH BKN050 OVC070
                      TEMPO 2306/2309 -RA BKN030 OVC050 FM230900
                       14011KT 6SM -RA BR BKN027 OVC040 FM231200
                       14012KT 4SM -RA BR OVC015 FM232000 20012G20KT
                       P6SM -SHRA BKN025 BKN050 FM240300 31007KT
                       P6SM -SHRA BKN022=
200910222320 TAF KPAE 222320Z 2300/2324 16006KT P6SM OVC080 FM230500 16012KT
                       P6SM -RA OVC050 FM231200 16015G25KT 4SM
                       -RA BR OVC020 FM232000 25012G22KT P6SM -SHRA
                       BKN025 BKN050=
200910222106 KPAE 222106Z 2221/2318 16006KT P6SM SCT006 OVC120
                      TEMPO 2221/2223 5SM BR BKN006 OVC120 FM230300
                       16012KT P6SM -RA BKN050 OVC100 FM231000
                       18015G25KT 5SM -RA OVC020=
200910221735 KPAE 221735Z 2218/2318 16006KT P6SM SCT003 BKN008 OVC200
                      TEMPO 2218/2221 SCT010 OVC200 FM222100 16006KT
                       P6SM SCT020 SCT070 OVC150 FM222300 16008KT
                       P6SM SCT050 OVC120 FM230500 16012KT P6SM
                       -RA BKN050 OVC100 FM231000 18015G25KT 5SM
                       -RA OVC020=
200910221721 TAF KPAE 221721Z 2218/2318 16006KT P6SM SCT003 BKN008 OVC200 FM222100
                       16006KT P6SM SCT020 SCT070 OVC150 FM222300
                       16008KT P6SM SCT050 OVC120 FM230500 16012KT
                       P6SM -RA BKN050 OVC100 FM231000 18015G25KT
                       5SM -RA OVC020=
200910221626 KPAE 221626Z 2216/2312 VRB03KT P6SM SCT003 BKN008 BKN200
                      TEMPO 2216/2218 3SM BR BKN003 OVC008 FM221900
                       VRB04KT P6SM BKN010 BKN150 FM222100 16006KT
                       P6SM SCT020 OVC150 FM222300 12006KT P6SM
                       SCT050 OVC120 FM230500 14007KT P6SM -RA
                       BKN050 OVC100 FM231000 18012G22KT P6SM -RA
                       OVC035=
200910221129 TAF KPAE 221129Z 2212/2312 16005KT P6SM SCT003 SCT020
                      TEMPO 2212/2216 VRB03KT 4SM BR BKN003 FM221800
                       VRB04KT P6SM SCT020 BKN150 FM222300 12006KT
                       P6SM SCT050 OVC120 FM230500 14007KT P6SM
                       -RA BKN050 OVC100 FM231000 18012G22KT P6SM
                       -RA OVC035=
200910221044 KPAE 221044Z 2211/2306 16005KT P6SM SCT003 SCT020
                      TEMPO 2212/2216 VRB03KT 4SM BR BKN003 FM221800
                       VRB04KT P6SM SCT020 BKN150 FM222300 14010KT
                       P6SM SCT050 OVC120=
200910220531 KPAE 220531Z 2206/2306 VRB04KT P6SM SCT020 FM220900 VRB03KT 6SM
                       BR BKN020
                      TEMPO 2212/2216 3SM BR OVC010 FM222100 VRB04KT
                       P6SM SCT020 BKN150 FM222300 14010KT P6SM
                       SCT050 OVC120=
200910220520 TAF KPAE 220520Z 2206/2306 VRB04KT P6SM BKN015
                      TEMPO 2212/2216 3SM BR OVC010 FM222100 VRB04KT
                       P6SM SCT020 BKN150 FM222300 14010KT P6SM
                       SCT050 OVC120 FM230400 12005KT P6SM -RA
                       BKN050 OVC100=
200910220113 KPAE 220113Z 2201/2224 34004KT P6SM SCT004 BKN040
                      TEMPO 2201/2204 4SM -SHRA SCT004 BKN020 OVC040
                       FM220600 VRB04KT P6SM BKN015
                      TEMPO 2212/2216 3SM BR OVC010 FM222100 VRB04KT
                       P6SM SCT020 BKN150 FM222300 14010KT P6SM
                       SCT050 OVC120=
200910212320 TAF KPAE 212320Z 2200/2224 21012KT P6SM SCT025 BKN050
                      TEMPO 2200/2204 4SM -SHRA BKN025 OVC040 FM220600
                       VRB04KT P6SM BKN015
                      TEMPO 2212/2216 3SM BR OVC010 FM222100 VRB04KT
                       P6SM SCT020 BKN150 FM222300 14010KT P6SM
                       SCT050 OVC120=
200910212008 KPAE 212008Z 2120/2218 19012KT P6SM VCSH BKN012 OVC040 FM212200
                       22010KT P6SM VCSH BKN020 BKN040 FM220600
                       18006KT P6SM OVC015 FM221200 VRB03KT 3SM
                       BR OVC010=
200910211830 KPAE 211830Z 2119/2218 16012KT 3SM -SHRA BR BKN005 OVC020 FM211930
                       17010KT 5SM -SHRA BKN020 OVC040 FM212100
                       21010KT P6SM VCSH SCT030 BKN050 FM220600
                       18006KT P6SM OVC015 FM221200 VRB03KT 3SM
                       BR OVC010=
200910211720 TAF KPAE 211720Z 2118/2218 17010KT 5SM -RA BKN035 OVC050 FM212100
                       21010KT P6SM VCSH SCT030 BKN050 FM220600
                       18006KT P6SM OVC015 FM221200 VRB03KT 3SM
                       BR OVC010=
200910211411 KPAE 211411Z 2114/2212 16008KT 6SM -RA SCT035 OVC060
                      TEMPO 2117/2121 4SM -RA BKN030 OVC050 FM212100
                       23007KT P6SM VCSH SCT020 BKN040 FM220500
                       VRB03KT P6SM OVC015=
200910211138 TAF KPAE 211138Z 2112/2212 15009KT 6SM -RA SCT040 BKN060 OVC100
                       TEMPO 2114/2118 4SM RA SCT006 OVC015 FM212000
                       18012KT P6SM BKN025 OVC040
                      TEMPO 2120/2124 -SHRA FM220000 VRB05KT 2SM
                       -SHRA OVC020 FM220600 14004KT P6SM OVC020
                       FM220900 12003KT 3SM BR BKN007 OVC012=
200910210538 TAF KPAE 210538Z 2106/2206 VRB03KT P6SM OVC120 FM211000 14008KT
                       P6SM SCT040 OVC080 FM211300 13009KT P6SM
                       -RA SCT015 OVC040 FM211600 16013KT 4SM -RA
                       BR SCT006 OVC015 FM212000 18012KT P6SM BKN025
                       OVC040
                      TEMPO 2120/2124 -SHRA FM220000 16006KT 2SM
                       -SHRA OVC020 FM220400 14004KT P6SM OVC020=
200910202329 TAF KPAE 202329Z 2100/2124 VRB03KT P6SM OVC130 FM210900 13009KT
                       P6SM SCT050 OVC090
                      PROB30 2109/2112 -RA FM211200 13009KT P6SM
                       -RA FEW015 OVC040 FM211500 16013KT 4SM -RA
                       BR SCT006 OVC015 FM212000 18010KT P6SM -SHRA
                       BKN022 OVC040=
200910202001 KPAE 202001Z 2020/2118 VRB03KT 6SM HZ SCT006 OVC200
                      TEMPO 2020/2021 BKN006 OVC200 FM202100 VRB03KT
                       P6SM OVC150 FM210800 13009KT P6SM SCT050
                       OVC100
                      PROB30 2108/2111 -RA FM211100 13009KT P6SM
                       -RA FEW015 OVC050 FM211400 16013KT 4SM -RA
                       BR SCT006 OVC015=
200910201849 KPAE 201849Z 2019/2118 VRB03KT 6SM BR BKN008 OVC200
                      TEMPO 2019/2020 1SM BR OVC004 FM202100 VRB03KT
                       P6SM OVC150 FM210800 13009KT P6SM SCT050
                       OVC100
                      PROB30 2108/2111 -RA FM211100 13009KT P6SM
                       -RA FEW015 OVC050 FM211400 16013KT 4SM -RA
                       BR SCT006 OVC015=
200910201730 TAF KPAE 201730Z 2018/2118 00000KT P6SM VCFG FEW003 OVC200 FM202000
                       VRB03KT P6SM OVC150 FM210800 13009KT P6SM
                       SCT050 OVC100
                      PROB30 2108/2111 -RA FM211100 13009KT P6SM
                       -RA FEW015 OVC050 FM211400 16013KT 4SM -RA
                       BR SCT006 OVC015=
200910201408 KPAE 201408Z 2014/2112 00000KT 5SM BR BKN040
                      TEMPO 2014/2018 1/2SM FG VV001 FM201800 VRB03KT
                       2SM BR OVC007 FM202000 14004KT P6SM BKN025
                       BKN200 FM202300 13007KT P6SM FEW040 BKN070
                       OVC200 FM210600 12007KT P6SM BKN070 OVC100=
200910201246 KPAE 201246Z 2013/2112 11003KT 6SM BR VCFG OVC026 FM201400 00000KT
                       1/4SM FG OVC001 FM201800 VRB03KT 2SM BR
                       OVC007 FM202000 14004KT P6SM BKN025 BKN200
                       FM202300 13007KT P6SM FEW040 BKN070 OVC200
                       FM210600 12007KT P6SM BKN070 OVC100=
200910201124 TAF KPAE 201124Z 2012/2112 VRB03KT 1/4SM FG SCT001
                      TEMPO 2012/2014 BKN001 FM201400 00000KT 1/4SM
                       FG OVC001 FM201800 VRB03KT 2SM BR OVC007
                       FM202000 14004KT P6SM BKN025 BKN200 FM202300
                       13007KT P6SM FEW040 BKN070 OVC200 FM210600
                       12007KT P6SM BKN070 OVC100=
200910201035 KPAE 201035Z 2011/2106 VRB03KT P6SM SKC
                      TEMPO 2011/2013 1/2SM FG BKN001 FM201300
                       00000KT 1/4SM FG OVC001 FM201800 VRB03KT
                       P6SM OVC012 FM202300 VRB03KT P6SM SCT040
                       SCT100 BKN200=
200910200536 TAF KPAE 200536Z 2006/2106 VRB03KT P6SM SCT040 FM200800 00000KT
                       1SM BR OVC003 FM201000 00000KT 1/4SM FG
                       VV001 FM201900 VRB03KT P6SM OVC012 FM202300
                       VRB03KT P6SM SCT040 SCT100 BKN200=
200910192343 TAF KPAE 192343Z 2000/2024 33005KT P6SM SCT020 BKN200 FM200500
                       VRB03KT 4SM BR FEW005 SCT200 FM200800 00000KT
                       1SM BR OVC003 FM201000 00000KT 1/4SM FG
                       VV001 FM201900 VRB03KT 1SM BR OVC004 FM202100
                       VRB03KT 5SM BR HZ OVC008=
200910192213 KPAE 192213Z 1922/2018 33005KT P6SM BKN020 BKN200 FM200000 31005KT
                       P6SM SCT020 SCT200 FM200500 VRB03KT 4SM
                       BR FEW005 SCT200 FM200800 VRB03KT 1SM BR
                       OVC003 FM201000 VRB03KT 1/4SM FG VV001=
200910192117 KPAE 192117Z 1921/2018 33005KT P6SM BKN015 FM192300 31005KT P6SM
                       SCT020 SCT200 FM200500 VRB03KT 4SM BR FEW005
                       SCT200 FM200800 VRB03KT 1SM BR OVC003 FM201000
                       VRB03KT 1/4SM FG VV001=
200910191745 TAF KPAE 191745Z 1918/2018 34005KT 3SM BR OVC005 FM192000 31005KT
                       6SM BR HZ BKN008 FM192200 31005KT P6SM FEW060
                       SCT200 FM200500 VRB03KT 4SM BR FEW005 SCT200
                       FM200800 VRB03KT 1SM BR OVC003 FM201000
                       VRB03KT 1/4SM FG VV001=
200910191423 KPAE 191423Z 1914/2012 VRB03KT 1/4SM FG VV001 FM191600 VRB03KT
                       1SM BR OVC003
                      TEMPO 1916/1918 1/2SM FG VV001 FM191800 32004KT
                       4SM BR BKN006 FM192000 35005KT P6SM SCT020
                       FM192200 30004KT P6SM SKC FM200700 VRB03KT
                       P6SM BKN015=
200910191133 TAF KPAE 191133Z 1912/2012 34004KT 2SM BR OVC001
                      TEMPO 1912/1916 1/2SM FG VV001 FM191600 VRB03KT
                       4SM BR OVC004 FM191800 32004KT P6SM OVC010
                       FM192100 35005KT P6SM SCT020 FM192200 30004KT
                       P6SM SKC FM200700 VRB03KT P6SM BKN015=
200910190525 TAF KPAE 190525Z 1906/2006 02003KT 5SM BR OVC003
                      TEMPO 1909/1913 2SM BR OVC001 FM191300 07003KT
                       1/2SM FG VV001 FM191700 VRB03KT 2SM BR BKN004
                       FM191900 25004KT P6SM SCT010 FM192200 30004KT
                       P6SM SKC FM200300 01004KT P6SM SCT040=
200910190312 KPAE 190312Z 1903/1924 01004KT P6SM SCT010 BKN200
                      TEMPO 1903/1907 BKN003 FM190700 05003KT 4SM
                       BR OVC006 FM191300 07003KT 1/2SM FG VV001
                       FM191700 VRB03KT 2SM BR BKN004 FM191900
                       25004KT P6SM SCT010 FM192200 30004KT P6SM
                       SKC=
200910182329 TAF KPAE 182329Z 1900/1924 30004KT P6SM SCT045 BKN060 FM190300
                       01004KT P6SM BKN200 FM190900 05003KT 4SM
                       BR OVC006 FM191300 07003KT 1/2SM FG VV001
                       FM191700 VRB03KT 2SM BR BKN004 FM191900
                       25004KT P6SM SCT010 FM192200 30004KT P6SM
                       SKC=
200910182058 KPAE 182058Z 1821/1918 25003KT P6SM BKN018 OVC030 FM182300 30004KT
                       P6SM SCT020 BKN035 FM190100 33004KT P6SM
                       SCT035 BKN200 FM190900 05003KT 4SM BR OVC006
                       FM191300 07003KT 1/2SM FG VV001 FM191700
                       VRB03KT 2SM BR BKN004=
200910181740 TAF KPAE 181740Z 1818/1918 19006KT P6SM SCT015 BKN028 OVC045 FM182100
                       VRB03KT P6SM SCT030 BKN050 FM182300 33004KT
                       P6SM BKN200 FM190900 05003KT 4SM BR OVC006
                       FM191300 07003KT 1/2SM FG VV001 FM191700
                       VRB03KT 2SM BR BKN004=
200910181136 TAF KPAE 181136Z 1812/1912 20008KT P6SM OVC010 FM181700 17006KT
                       P6SM SCT010 BKN020 BKN200 FM182000 17005KT
                       P6SM SCT030 BKN120 BKN200 FM190300 VRB03KT
                       P6SM BKN030 BKN100 FM190700 VRB03KT P6SM
                       OVC018=
200910180803 KPAE 180803Z 1808/1906 17016G25KT P6SM BKN009 BKN070 FM181000 16007KT
                       4SM BR SCT004 OVC008 FM182000 17005KT P6SM
                       SCT010 BKN018 FM182200 33004KT P6SM BKN200=
200910180521 TAF KPAE 180521Z 1806/1906 17016G25KT P6SM SCT010 BKN030
                      TEMPO 1806/1808 5SM -SHRA BKN010 FM180800
                       17012KT P6SM SCT010 BKN030 FM181000 16007KT
                       4SM BR SCT004 OVC008 FM182000 17005KT P6SM
                       SCT010 BKN018 FM182200 33004KT P6SM BKN200=
200910172344 TAF KPAE 172344Z 1800/1824 19020G30KT P6SM VCSH SCT020 SCT045 FM180200
                       17018G28KT P6SM VCTS SCT012 BKN035CB
                      TEMPO 1802/1804 3SM SHRA BR SCT010 BKN020
                       FM180400 17015G25KT 5SM -SHRA BR SCT008
                       BKN015 FM181200 16007KT 4SM BR SCT004 OVC008
                       FM181900 17005KT P6SM SCT010 BKN018 FM182200
                       33004KT P6SM SCT020 BKN200=
200910171746 TAF KPAE 171746Z 1718/1818 17014KT P6SM SCT010 OVC020
                      TEMPO 1718/1719 4SM SHRA BR BKN005 OVC012
                       FM171900 16014KT 5SM -SHRA BR SCT010 BKN018
                       TEMPO 1719/1722 2SM SHRA BR SCT006 OVC012
                       FM172200 16015G23KT P6SM VCTS SCT012 BKN020CB
                       TEMPO 1722/1802 2SM +SHRA BR SCT005 OVC010
                       FM180200 17015G25KT 5SM -SHRA BR SCT010
                       BKN018 FM181200 16007KT 4SM BR VCSH SCT004
                       OVC008=
200910171135 TAF KPAE 171135Z 1712/1812 VRB05KT 2SM -RA SCT008 OVC020
                      TEMPO 1712/1714 1/2SM RA BKN001 FM171400
                       16007KT 2SM -RA OVC008 FM172000 18014KT
                       P6SM -SHRA BKN020 OVC030 FM180400 16012KT
                       P6SM OVC020 FM180800 17006KT P6SM OVC015=
200910170901 KPAE 170901Z 1709/1806 14005KT P6SM -RA SCT030 BKN035 OVC050 FM171400
                       16007KT 3SM -RA OVC008 FM172000 18014KT
                       P6SM -SHRA BKN015 OVC030 FM180400 16012KT
                       P6SM OVC012=
200910170539 TAF KPAE 170539Z 1706/1806 13005KT P6SM -RA BKN020 OVC030 FM170800
                       VRB03KT 4SM BR SCT010 OVC015 FM171400 VRB03KT
                       3SM -RA OVC008 FM172000 18014KT P6SM -SHRA
                       BKN015 OVC030 FM180400 16012KT P6SM OVC012=
200910162345 TAF KPAE 162345Z 1700/1724 17012KT 5SM -RA SCT004 BKN014 OVC030
                       TEMPO 1700/1704 2SM -RA BKN004 OVC014 FM170400
                       17012KT 5SM -RA SCT004 BKN014 OVC030
                      TEMPO 1704/1708 2SM -RA BKN004 OVC014 FM170800
                       VRB03KT 1SM BR OVC002 FM171200 VRB03KT 2SM
                       -RA OVC006 FM172300 18010KT P6SM SCT008
                       BKN015 OVC030=
200910161731 TAF KPAE 161731Z 1618/1718 23005KT 5SM -SHRA BR BKN025 OVC040
                      TEMPO 1618/1621 2SM SHRA BR FM162100 17012KT
                       5SM -RA BR OVC025 FM170200 18005KT 3SM -RA
                       BR OVC009 FM170800 VRB03KT 1SM BR OVC002=
200910161120 TAF KPAE 161120Z 1612/1712 15007KT P6SM OVC060 FM161500 15009KT
                       P6SM OVC040 FM161700 16015G25KT P6SM -RA
                       SCT025 OVC040 FM162000 17012KT 5SM -RA BR
                       OVC025 FM170200 18005KT 3SM -RA BR OVC009
                       FM170800 VRB03KT 1SM BR OVC002=
200910160525 TAF KPAE 160525Z 1606/1706 12007KT P6SM OVC060 FM161000 12012KT
                       P6SM -RA OVC060 FM161800 16015G25KT P6SM
                       -RA SCT025 OVC040 FM162000 17012KT 5SM -RA
                       BR OVC025 FM170200 18005KT 3SM -RA BR OVC009=
200910160310 KPAE 160310Z 1603/1624 12007KT P6SM OVC100 FM161000 12012KT P6SM
                       BKN060 BKN120 FM162000 16015G25KT P6SM -RA
                       SCT025 OVC040
                      TEMPO 1620/1624 4SM -RA BR OVC025=
200910152320 TAF KPAE 152320Z 1600/1624 12007KT P6SM OVC060
                      TEMPO 1600/1604 -RA OVC040 FM161000 12012KT
                       P6SM BKN060 BKN120 FM162000 16015G25KT P6SM
                       -RA SCT025 OVC040
                      TEMPO 1620/1624 4SM -RA BR OVC025=
200910151720 TAF KPAE 151720Z 1518/1618 11007KT P6SM SCT070 OVC100 FM152200
                       10010KT P6SM OVC060
                      TEMPO 1602/1606 -RA OVC040 FM160600 12012KT
                       P6SM -RA OVC040 FM161600 16015G25KT 4SM
                       -RA BR OVC025=
200910151416 KPAE 151416Z 1514/1612 15006KT P6SM SCT030 BKN100 FM160400 12011KT
                       P6SM -RA OVC045=
200910151120 TAF KPAE 151120Z 1512/1612 15006KT P6SM BKN025 OVC035
                      TEMPO 1512/1516 OVC015 FM151700 15005KT P6SM
                       SCT035 BKN100 FM160400 12011KT P6SM -RA
                       OVC045=
200910150823 KPAE 150823Z 1508/1606 15008KT P6SM OVC110 FM150900 15008KT P6SM
                       -SHRA BKN035 OVC050 FM151200 14006KT P6SM
                       SCT019 BKN050
                      TEMPO 1512/1516 BKN019 BKN050 FM151600 15005KT
                       P6SM SCT035 BKN100 FM160400 12011KT P6SM
                       -RA OVC045=
200910150522 TAF KPAE 150522Z 1506/1606 17011KT P6SM BKN120 FM150900 14006KT
                       P6SM SCT019 BKN100
                      TEMPO 1512/1516 BKN019 BKN100 FM151600 15005KT
                       P6SM SCT035 BKN100 FM160400 12011KT P6SM
                       -RA OVC045=
200910150403 KPAE 150403Z 1504/1524 18013KT P6SM SCT050 SCT100 FM150800 16005KT
                       P6SM SCT018 BKN080
                      TEMPO 1512/1516 BKN018 BKN080 FM151600 15005KT
                       P6SM SCT030 BKN060=
200910142320 TAF KPAE 142320Z 1500/1524 20017G27KT P6SM BKN022 BKN050
                      TEMPO 1500/1504 SCT025 BKN050 FM150700 18010KT
                       P6SM BKN025 FM151700 VRB04KT P6SM SCT030
                       BKN050=
200910142159 KPAE 142159Z 1422/1518 18015G25KT 5SM -SHRA BR BKN005 OVC030 FM150100
                       21015G25KT P6SM SCT020 BKN040 FM150700 18010KT
                       P6SM BKN025 FM151700 VRB04KT P6SM SCT030
                       BKN050=
200910141728 TAF KPAE 141728Z 1418/1518 18015G25KT P6SM VCSH SCT025 BKN050 BKN100
                       TEMPO 1419/1422 3SM SHRA BKN025 OVC050 FM150600
                       18010KT P6SM BKN020 OVC035 FM151700 VRB04KT
                       P6SM SCT030 BKN050=
200910141125 TAF KPAE 141125Z 1412/1512 VRB06KT P6SM RA OVC050
                      TEMPO 1412/1414 5SM RA BKN035 OVC050 FM141400
                       16012G22KT P6SM -RA OVC030 FM141600 18015G26KT
                       P6SM -SHRA BKN035 BKN060 FM150000 18008KT
                       P6SM -SHRA BKN025 BKN045 FM151000 14004KT
                       P6SM BKN015 OVC035=
200910140837 KPAE 140837Z 1409/1506 11015G24KT P6SM BKN080 FM141300 16012G22KT
                       P6SM -RA OVC030 FM141600 18015G26KT P6SM
                       -SHRA BKN035 BKN060 FM150000 18008KT P6SM
                       -SHRA BKN022 BKN050=
200910140521 TAF KPAE 140521Z 1406/1506 15012KT P6SM -RA OVC050 FM141300 16012G22KT
                       P6SM -RA OVC030 FM141600 18015G26KT P6SM
                       -SHRA BKN035 BKN060 FM150000 18008KT P6SM
                       -SHRA BKN022 BKN050=
200910132320 TAF KPAE 132320Z 1400/1424 11012KT P6SM BKN070 BKN150
                      TEMPO 1400/1404 11015G25KT FM140900 14012G22KT
                       P6SM -RA OVC050 FM141600 18015G25KT P6SM
                       -SHRA BKN035 BKN080=
200910131720 TAF KPAE 131720Z 1318/1418 11015G25KT P6SM BKN060 OVC120
                      TEMPO 1320/1324 -RA OVC050 FM140000 14012G22KT
                       P6SM OVC050 FM140500 12008KT P6SM OVC050
                       FM141000 14012G22KT P6SM -RA OVC040 FM141700
                       18015G25KT P6SM -SHRA BKN025 OVC050=
200910131123 TAF KPAE 131123Z 1312/1412 VRB03KT P6SM OVC050 FM131300 10019KT
                       P6SM OVC060 FM141000 11015G25KT P6SM -RA
                       OVC040=
200910130520 TAF KPAE 130520Z 1306/1406 12009KT P6SM BKN060 OVC150 FM131300
                       14014G25KT P6SM OVC060 FM140500 15015G25KT
                       P6SM -RA OVC040=
200910122320 TAF KPAE 122320Z 1300/1324 12012KT P6SM BKN100 OVC200 FM131600
                       16017G27KT P6SM -RA BKN050 OVC100=
200910122102 KPAE 122102Z 1221/1318 16014G20KT P6SM BKN080 OVC150 FM131600 16017G27KT
                       P6SM -RA BKN050 OVC100=
200910122058 KPAE 122058Z 1221/1318 12014G20KT P6SM BKN080 OVC150 FM131600 14017G27KT
                       P6SM -RA BKN050 OVC100=
200910121720 TAF KPAE 121720Z 1218/1318 12012KT P6SM BKN080 OVC150 FM131600
                       14015G25KT P6SM -RA BKN050 OVC100=
200910121120 TAF KPAE 121120Z 1212/1312 11005KT P6SM SCT100 BKN200 FM121400
                       11005KT P6SM SCT070 BKN200 FM130300 02006KT
                       P6SM SCT060 BKN090 OVC200=
200910120528 TAF KPAE 120528Z 1206/1306 01003KT P6SM BKN120 OVC250 FM121400
                       11005KT P6SM SCT070 BKN200 FM130300 02006KT
                       P6SM SCT060 BKN090 OVC200=
200910112335 TAF KPAE 112335Z 1200/1224 11006KT P6SM BKN070 BKN250 FM121400
                       11005KT P6SM SCT070 BKN250=
200910111725 TAF KPAE 111725Z 1118/1218 11006KT P6SM SCT080 BKN250 FM120300
                       VRB05KT P6SM SCT080 BKN250=
200910111120 TAF KPAE 111120Z 1112/1212 11006KT P6SM SKC FM111500 07005KT P6SM
                       SCT250=
200910110529 TAF KPAE 110529Z 1106/1206 VRB04KT P6SM SKC FM111500 VRB03KT P6SM
                       SCT250=
200910102323 TAF KPAE 102323Z 1100/1124 VRB05KT P6SM SCT070 BKN250 FM110300
                       02008KT P6SM SCT070 BKN250 FM111500 VRB03KT
                       P6SM SCT080 BKN250=
200910101730 TAF KPAE 101730Z 1018/1118 12008KT P6SM OVC080 FM110300 05010KT
                       P6SM SCT070 BKN090 BKN250 FM111300 VRB03KT
                       P6SM SCT080 BKN250=
200910101120 TAF KPAE 101120Z 1012/1112 16004KT P6SM OVC080 FM102100 01009KT
                       P6SM SCT200 FM110300 05010KT P6SM SKC=
200910100524 TAF KPAE 100524Z 1006/1106 00000KT P6SM BKN120 FM100900 03005KT
                       P6SM BKN200 FM102100 01009KT P6SM SCT200
                       FM110300 05010KT P6SM SKC=
200910092320 TAF KPAE 092320Z 1000/1024 34007KT P6SM SCT080 FM100200 VRB04KT
                       P6SM SCT090 FM101900 36006KT P6SM SKC=
200910092116 KPAE 092116Z 0921/1018 34007KT P6SM BKN080 FM100200 VRB03KT P6SM
                       SCT100=
200910091728 TAF KPAE 091728Z 0918/1018 01005KT P6SM BKN070 FM092000 34007KT
                       P6SM SCT070 FM100200 VRB03KT P6SM SCT100=
200910091637 KPAE 091637Z 0917/1012 01006KT P6SM VCFG SCT005 SCT050
                      TEMPO 0917/0918 BKN005 BKN050 FM091800 35010KT
                       P6SM SCT250=
200910091457 KPAE 091457Z 0915/1012 00000KT 2SM BR OVC005
                      TEMPO 0915/0917 1/2SM FG VV001 FM091700 36006KT
                       P6SM SCT009 FM091800 35010KT P6SM SCT250=
200910091414 KPAE 091414Z 0914/1012 00000KT P6SM SCT005 OVC009
                      TEMPO 0914/0917 BKN005 OVC009 FM091700 36006KT
                       P6SM SCT009 FM091800 35010KT P6SM SCT250=
200910091122 TAF KPAE 091122Z 0912/1012 00000KT P6SM BKN022
                      TEMPO 0914/0916 1SM BR BKN001 FM091600 36006KT
                       P6SM SCT025 SCT250 FM091800 35010KT P6SM
                       SCT250=
200910090531 TAF KPAE 090531Z 0906/1006 02004KT P6SM SCT070 FM091300 36004KT
                       P6SM SCT001
                      TEMPO 0914/0916 1SM BR BKN001 FM091600 36006KT
                       P6SM SCT250 FM091800 35010KT P6SM SCT250=
200910082320 TAF KPAE 082320Z 0900/0924 30005KT P6SM SKC FM090300 00000KT P6SM
                       SKC FM091300 36004KT P6SM SCT001
                      TEMPO 0914/0916 1SM BR BKN001 FM091600 36006KT
                       P6SM SCT250 FM091800 35010KT P6SM SCT250=
200910081740 TAF KPAE 081740Z 0818/0918 00000KT P6SM PRFG BKN250
                      TEMPO 0818/0819 5SM PRFG BKN001 FM082000
                       33004KT P6SM SCT250 FM090300 00000KT P6SM
                       SCT250 FM091300 36003KT P6SM SCT001 SCT250
                       FM091600 36007KT P6SM SCT250=
200910081128 TAF KPAE 081128Z 0812/0912 00000KT P6SM SKC FM081300 36004KT 5SM
                       BR SCT001
                      TEMPO 0813/0817 1/2SM FG OVC001 FM081800
                       34006KT P6SM SCT250=
200910080533 TAF KPAE 080533Z 0806/0906 00000KT P6SM SKC FM081300 36004KT 5SM
                       BR SCT001
                      TEMPO 0813/0817 1/2SM FG OVC001 FM081800
                       34006KT P6SM SKC=
200910072320 TAF KPAE 072320Z 0800/0824 36007KT P6SM SCT250 FM080600 02005KT
                       P6SM SKC FM081300 36004KT 5SM BR SCT001
                       TEMPO 0813/0817 1/2SM FG OVC001 FM081800
                       34006KT P6SM SKC=
200910071740 TAF KPAE 071740Z 0718/0818 35006KT P6SM SCT009 FM071900 34008KT
                       P6SM SKC FM072100 34010KT P6SM SKC FM080600
                       02005KT P6SM SKC FM081400 36004KT P6SM SCT007
                       FM081700 35006KT P6SM SKC=
200910071139 TAF KPAE 071139Z 0712/0812 32006KT P6SM BKN050 FM071500 32006KT
                       P6SM SCT002 SCT050 FM071800 34008KT P6SM
                       SKC=
200910070528 TAF KPAE 070528Z 0706/0806 36006KT P6SM BKN060 FM071400 32006KT
                       P6SM SCT002 SCT060 FM071800 34010KT P6SM
                       SKC=
200910062320 TAF KPAE 062320Z 0700/0724 26006KT P6SM BKN050 BKN250 FM070500
                       28008KT P6SM SCT020 BKN050
                      TEMPO 0706/0710 BKN020 OVC040 FM071000 32008KT
                       P6SM BKN015 BKN030 FM071700 34010KT P6SM
                       SCT030=
200910061720 TAF KPAE 061720Z 0618/0718 18005KT P6SM SCT250 FM070500 27007KT
                       5SM BR BKN015
                      TEMPO 0711/0715 3SM BR OVC010 FM071700 34008KT
                       P6SM SCT020=
200910061126 TAF KPAE 061126Z 0612/0712 VRB03KT P6SM SCT250 FM071100 VRB03KT
                       3SM BR SCT002=
200910060534 TAF KPAE 060534Z 0606/0706 VRB03KT P6SM SCT250
                      TEMPO 0614/0616 SCT002 FM062200 34006KT P6SM
                       SCT250=
200910052320 TAF KPAE 052320Z 0600/0624 35006KT P6SM SCT250 FM060400 04006KT
                       P6SM SCT250 FM061000 VRB03KT P6SM SCT250
                       TEMPO 0613/0617 3SM BR SCT002=
200910051720 TAF KPAE 051720Z 0518/0618 VRB04KT P6SM SKC
                      TEMPO 0520/0524 36008KT=
200910051134 TAF KPAE 051134Z 0512/0612 VRB03KT P6SM SKC FM051900 33006KT P6SM
                       SKC FM060600 VRB03KT P6SM SKC=
200910050530 TAF KPAE 050530Z 0506/0606 VRB03KT P6SM SKC FM051900 33006KT P6SM
                       SKC=
200910042320 TAF KPAE 042320Z 0500/0524 33010G20KT P6SM SKC FM050400 34010KT
                       P6SM SKC FM050900 36004KT P6SM SKC FM051900
                       33005KT P6SM SKC=
200910041723 TAF KPAE 041723Z 0418/0518 36007KT P6SM SKC FM041900 35013G20KT
                       P6SM SKC FM050400 35007KT P6SM SKC FM050900
                       36004KT P6SM SKC=
200910041122 TAF KPAE 041122Z 0412/0512 36007KT P6SM SCT150 FM041900 35012G19KT
                       P6SM SKC FM050400 35007KT P6SM SKC=
200910040522 TAF KPAE 040522Z 0406/0506 34008KT P6SM FEW100 FM041500 35010KT
                       P6SM SKC FM042100 35012G19KT P6SM SKC FM050400
                       35007KT P6SM SKC=
200910032337 TAF KPAE 032337Z 0400/0424 33008KT P6SM FEW050 FM040700 32008KT
                       P6SM SCT070 BKN100 FM041500 35011KT P6SM
                       SCT100 FM041800 35012KT P6SM SKC FM042100
                       34012G20KT P6SM SKC=
200910031730 TAF KPAE 031730Z 0318/0418 01004KT P6SM BKN005 OVC012 FM031900
                       33006KT P6SM SCT030 SCT040 FM032100 34009KT
                       P6SM SCT040 SCT060 FM040600 34008KT P6SM
                       SCT060 SCT150 FM041500 35005KT P6SM SCT030=
200910031618 KPAE 031618Z 0316/0412 36004KT P6SM BKN005 BKN012 FM031800 33007KT
                       P6SM SCT040 BKN060 FM040600 34008KT P6SM
                       SCT150=
200910031455 KPAE 031455Z 0315/0412 VRB03KT 1/2SM FG BKN002 FM031600 34004KT
                       P6SM BKN020 BKN050 FM031900 33007KT P6SM
                       SCT050
                      TEMPO 0323/0403 BKN050 FM040600 34008KT P6SM
                       SCT150=
200910031140 TAF KPAE 031140Z 0312/0412 VRB03KT P6SM SCT015 BKN050
                      TEMPO 0312/0315 BKN015 BKN050 FM031900 34008KT
                       P6SM SCT050
                      TEMPO 0323/0403 BKN050 FM040600 34008KT P6SM
                       SCT150=
200910030536 TAF KPAE 030536Z 0306/0406 VRB03KT P6SM BKN060 FM031200 34006KT
                       P6SM SCT015 SCT050 FM031900 34006KT P6SM
                       SCT050
                      TEMPO 0323/0403 BKN050=
200910022330 TAF KPAE 022330Z 0300/0324 34006KT P6SM FEW035 SCT050 FM030600
                       04005KT P6SM SCT050 FM031200 36004KT P6SM
                       BKN017 FM031900 33006KT P6SM SCT040 SCT080=
200910021730 TAF KPAE 021730Z 0218/0318 34006KT P6SM SCT015 BKN025 BKN045 FM021900
                       30006KT P6SM SCT030 BKN050 FM022200 34006KT
                       P6SM SCT050 FM030600 03005KT P6SM SCT050
                       FM031200 04004KT P6SM BKN015=
200910021139 TAF KPAE 021139Z 0212/0312 34006KT P6SM SCT022 OVC040 FM021800
                       34006KT P6SM SCT025 BKN045 FM022200 34006KT
                       P6SM SCT050=
200910020536 TAF KPAE 020536Z 0206/0306 VRB03KT P6SM SCT022 OVC035
                      TEMPO 0208/0212 BKN022 OVC035 FM021800 VRB03KT
                       P6SM SCT025 BKN045 FM022200 30006KT P6SM
                       SCT050=
200910012320 TAF KPAE 012320Z 0200/0224 20015G25KT P6SM VCSH BKN025 OVC045 FM020200
                       34007KT P6SM -SHRA BKN025 BKN070
                      TEMPO 0202/0205 VRB06KT 2SM SHRA OVC012 FM020600
                       36004KT P6SM VCSH OVC012 FM021800 VRB03KT
                       P6SM BKN025 BKN045 FM022100 30006KT P6SM
                       SCT050=
200910011732 TAF KPAE 011732Z 0118/0218 18009KT P6SM BKN025 OVC035 FM011900
                       18012KT P6SM OVC020
                      TEMPO 0119/0123 4SM -RA BR OVC012 FM012300
                       22010G20KT P6SM VCSH BKN025 OVC060 FM020200
                       34007KT 6SM -SHRA BKN025 BKN070
                      TEMPO 0202/0206 VRB06KT 2SM SHRA OVC015 FM020900
                       03005KT 4SM BR VCSH OVC012=
200910011448 KPAE 011448Z 0115/0212 16008KT P6SM -RA SCT004 OVC018
                      TEMPO 0115/0118 2SM -RA BR OVC004 FM011800
                       18012G22KT P6SM -RA SCT008 OVC018
                      TEMPO 0118/0122 3SM -RA BR OVC008 FM012300
                       22012KT P6SM -SHRA SCT015 OVC030 FM020900
                       16008KT P6SM VCSH OVC040=
200910011247 KPAE 011247Z 0113/0212 00000KT P6SM SCT017 OVC030
                      TEMPO 0113/0114 2SM -RA BR BKN016 OVC030
                       FM011400 18011KT P6SM -RA OVC016
                      TEMPO 0118/0122 4SM -RA BR OVC008 FM012300
                       22012KT P6SM -SHRA SCT015 OVC030 FM020900
                       16008KT P6SM VCSH OVC040=
200910011137 TAF KPAE 011137Z 0112/0212 00000KT P6SM SCT017 OVC030
                      TEMPO 0112/0114 -RA FM011400 18011KT P6SM
                       -RA OVC016
                      TEMPO 0118/0122 4SM -RA BR OVC008 FM012300
                       22012KT P6SM -SHRA SCT015 OVC030 FM020900
                       16008KT P6SM VCSH OVC040=
200910010539 TAF KPAE 010539Z 0106/0206 10008KT P6SM FEW060 OVC090 FM010800
                       18010KT P6SM OVC040
                      TEMPO 0110/0114 -RA FM011400 18011KT P6SM
                       -RA OVC016
                      TEMPO 0118/0122 4SM -RA BR OVC008 FM012300
                       22012KT P6SM -SHRA SCT015 OVC030=