##########################################################
# Query made at 02/18/2025 19:42:01 UTC
# Time interval: from 07/01/2009 00:00  to 07/31/2009 23:59  UTC
##########################################################

##########################################################
# KPAE, Everett, Snohomish County Airport (United States)
# WMO index: -----. WIGOS ID: Unknown
# Latitude 47-55-23N. Longitude 122-16-57W. Altitude 184 m.
##########################################################

###################################
#  METAR/SPECI from KPAE
###################################
200907312353 METAR KPAE 312353Z 02004KT 10SM CLR 26/14 A2994 RMK AO2 SLP135 T02610144 10261 20178 58010=
200907312253 METAR KPAE 312253Z 29004KT 10SM CLR 24/14 A2995 RMK AO2 SLP139 T02440139=
200907312153 METAR KPAE 312153Z 28005KT 10SM CLR 24/14 A2996 RMK AO2 SLP143 T02390144=
200907312053 METAR KPAE 312053Z 26006KT 10SM CLR 23/14 A2997 RMK AO2 SLP145 T02280144 56007=
200907311953 METAR KPAE 311953Z 27005KT 10SM CLR 22/14 A2997 RMK AO2 SLP146 T02220144=
200907311853 METAR KPAE 311853Z 25006KT 10SM CLR 19/14 A2999 RMK AO2 SLP151 T01940139=
200907311753 METAR KPAE 311753Z 25006KT 10SM CLR 18/14 A2999 RMK AO2 SLP153 T01830139 10183 20144 58001=
200907311653 METAR KPAE 311653Z 26006KT 10SM CLR 18/14 A2999 RMK AO2 SLP154 T01780139=
200907311553 METAR KPAE 311553Z 28006KT 10SM CLR 17/14 A3000 RMK AO2 SLP155 T01670139=
200907311453 METAR KPAE 311453Z 21004KT 10SM FEW005 17/13 A2999 RMK AO2 SLP154 T01670133 51009=
200907311448 SPECI KPAE 311448Z 21004KT 10SM SCT005 16/13 A2999 RMK AO2=
200907311448 SPECI KPAE 311448Z 21004KT 10SM SCT005 16/13 A2999 RMK AO2=
200907311353 METAR KPAE 311353Z 17006KT 10SM OVC007 16/13 A2998 RMK AO2 SLP150 T01560133=
200907311330 SPECI KPAE 311330Z AUTO 19009KT 10SM BKN007 16/13 A2998 RMK AO2=
200907311330 SPECI KPAE 311330Z AUTO 19009KT 10SM BKN007 16/13 A2998 RMK AO2=
200907311319 SPECI KPAE 311319Z AUTO 21005KT 10SM SCT007 15/13 A2997 RMK AO2=
200907311319 SPECI KPAE 311319Z AUTO 21005KT 10SM SCT007 15/13 A2997 RMK AO2=
200907311253 METAR KPAE 311253Z AUTO 22003KT 8SM CLR 14/13 A2996 RMK AO2 SLP144 T01440133=
200907311153 METAR KPAE 311153Z AUTO 24005KT 10SM CLR 15/13 A2996 RMK AO2 SLP142 T01500133 10211 20150 51015=
200907311053 METAR KPAE 311053Z AUTO 23004KT 10SM CLR 17/14 A2995 RMK AO2 SLP137 T01670139=
200907310953 METAR KPAE 310953Z AUTO 00000KT 10SM CLR 17/14 A2993 RMK AO2 SLP132 T01670139=
200907310853 METAR KPAE 310853Z AUTO 00000KT 10SM CLR 18/14 A2992 RMK AO2 SLP126 T01830139 53015=
200907310753 METAR KPAE 310753Z AUTO 00000KT 10SM CLR 19/13 A2990 RMK AO2 SLP121 T01940133 403220189=
200907310653 METAR KPAE 310653Z AUTO 00000KT 10SM CLR 21/13 A2988 RMK AO2 SLP115 T02110133=
200907310553 METAR KPAE 310553Z AUTO 00000KT 10SM CLR 20/13 A2987 RMK AO2 SLP111 T02000133 10267 20189 51015=
200907310453 METAR KPAE 310453Z AUTO 02005KT 10SM CLR 19/13 A2986 RMK AO2 SLP109 T01940133=
200907310353 METAR KPAE 310353Z AUTO 01007KT 10SM CLR 19/13 A2985 RMK AO2 SLP104 T01890133=
200907310253 METAR KPAE 310253Z 36007G16KT 10SM CLR 21/14 A2983 RMK AO2 SLP096 T02060139 53006=
200907310153 METAR KPAE 310153Z 35008KT 10SM CLR 24/14 A2981 RMK AO2 SLP091 T02390144=
200907310053 METAR KPAE 310053Z 01006KT 10SM CLR 26/15 A2981 RMK AO2 SLP090 T02610150=
200907302353 METAR KPAE 302353Z 36008KT 10SM CLR 27/15 A2981 RMK AO2 SLP088 T02670150 10322 20267 56015=
200907302253 METAR KPAE 302253Z 35007KT 10SM CLR 27/15 A2982 RMK AO2 SLP092 T02720150=
200907302153 METAR KPAE 302153Z 02005KT 10SM CLR 32/16 A2984 RMK AO2 SLP098 T03220156=
200907302053 METAR KPAE 302053Z 28005KT 10SM CLR 31/14 A2985 RMK AO2 SLP103 T03060139 58007=
200907301953 METAR KPAE 301953Z 26006KT 8SM CLR 29/16 A2986 RMK AO2 SLP107 T02890161=
200907301853 METAR KPAE 301853Z 29005KT 10SM CLR 27/17 A2987 RMK AO2 SLP108 T02720167=
200907301753 METAR KPAE 301753Z 00000KT 10SM CLR 27/16 A2987 RMK AO2 SLP111 T02670161 10267 20222 50004=
200907301653 METAR KPAE 301653Z 30004KT 10SM CLR 25/16 A2988 RMK AO2 SLP112 T02500161=
200907301553 METAR KPAE 301553Z 27004KT 10SM CLR 23/16 A2987 RMK AO2 SLP110 T02330156=
200907301453 METAR KPAE 301453Z 00000KT 10SM CLR 23/16 A2986 RMK AO2 SLP107 T02280161 53014=
200907301353 METAR KPAE 301353Z AUTO 00000KT 10SM CLR 23/16 A2985 RMK AO2 SLP102 T02280156=
200907301253 METAR KPAE 301253Z AUTO 00000KT 10SM CLR 23/16 A2984 RMK AO2 SLP097 T02280161=
200907301153 METAR KPAE 301153Z AUTO 16004KT 10SM CLR 26/14 A2982 RMK AO2 SLP092 T02610144 10294 20261 53008=
200907301053 METAR KPAE 301053Z AUTO 11006KT 10SM CLR 27/14 A2981 RMK AO2 SLP088 T02670144=
200907300953 METAR KPAE 300953Z AUTO 10003KT 10SM CLR 27/14 A2980 RMK AO2 SLP086 T02720144=
200907300853 METAR KPAE 300853Z AUTO 11006KT 10SM CLR 28/14 A2980 RMK AO2 SLP084 T02780144 50000=
200907300753 METAR KPAE 300753Z AUTO 11005KT 10SM CLR 28/14 A2980 RMK AO2 SLP085 T02830139 403780228=
200907300653 METAR KPAE 300653Z AUTO 11005KT 10SM CLR 29/14 A2980 RMK AO2 SLP086 T02890144=
200907300553 METAR KPAE 300553Z AUTO VRB06KT 10SM CLR 29/14 A2980 RMK AO2 SLP084 T02940144 10367 20294 53009=
200907300453 METAR KPAE 300453Z AUTO 10005KT 10SM CLR 31/14 A2979 RMK AO2 SLP080 T03060139=
200907300353 METAR KPAE 300353Z 10007KT 10SM CLR 32/14 A2977 RMK AO2 SLP073 T03170144=
200907300253 METAR KPAE 300253Z 04003KT 10SM CLR 31/16 A2977 RMK AO2 SLP075 T03110156 55000=
200907300153 METAR KPAE 300153Z 36006KT 10SM CLR 34/16 A2977 RMK AO2 SLP075 T03390156=
200907300053 METAR KPAE 300053Z 36007KT 10SM CLR 36/15 A2977 RMK AO2 SLP073 T03560150=
200907292353 METAR KPAE 292353Z 01006KT 10SM CLR 37/14 A2977 RMK AO2 SLP075 T03670144 10378 20333 58016=
200907292253 METAR KPAE 292253Z 27006KT 10SM CLR 37/14 A2979 RMK AO2 SLP080 T03670139=
200907292153 METAR KPAE 292153Z 31003KT 10SM CLR 37/14 A2980 RMK AO2 SLP086 T03670144=
200907292053 METAR KPAE 292053Z VRB04KT 10SM CLR 37/16 A2982 RMK AO2 SLP091 T03670156 58010=
200907291953 METAR KPAE 291953Z 33004KT 10SM CLR 36/17 A2983 RMK AO2 SLP095 T03560167=
200907291853 METAR KPAE 291853Z 14004KT 10SM CLR 35/13 A2984 RMK AO2 SLP098 T03500133=
200907291753 SPECI KPAE 291753Z 00000KT 10SM CLR 34/13 A2985 RMK AO2 SLP101 T03390133 10339 20228 58001=
200907291653 METAR KPAE 291653Z 00000KT 10SM CLR 32/15 A2985 RMK AO2 SLP102 T03170150=
200907291553 METAR KPAE 291553Z 12006KT 10SM CLR 30/14 A2986 RMK AO2 SLP104 T03000144=
200907291453 METAR KPAE 291453Z 11006KT 10SM CLR 28/15 A2985 RMK AO2 SLP104 T02830150 51007=
200907291353 METAR KPAE 291353Z AUTO 00000KT 10SM CLR 26/17 A2985 RMK AO2 SLP101 T02610172=
200907291253 METAR KPAE 291253Z AUTO 00000KT 10SM CLR 23/17 A2984 RMK AO2 SLP099 T02330172=
200907291153 METAR KPAE 291153Z AUTO 00000KT 10SM CLR 24/17 A2983 RMK AO2 SLP096 T02440172 10261 20228 56001=
200907291053 METAR KPAE 291053Z AUTO 07004KT 10SM CLR 24/17 A2983 RMK AO2 SLP097 T02440167=
200907290953 METAR KPAE 290953Z AUTO 05004KT 10SM CLR 24/18 A2983 RMK AO2 SLP094 T02390178=
200907290853 METAR KPAE 290853Z AUTO 00000KT 10SM CLR 23/17 A2983 RMK AO2 SLP097 T02330167 50001=
200907290753 METAR KPAE 290753Z AUTO 00000KT 10SM CLR 24/17 A2983 RMK AO2 SLP097 T02390167 403330206=
200907290653 METAR KPAE 290653Z AUTO 00000KT 10SM CLR 25/17 A2984 RMK AO2 SLP099 T02500172=
200907290553 METAR KPAE 290553Z AUTO 00000KT 10SM CLR 27/17 A2983 RMK AO2 SLP096 T02670167 10328 20250 53002=
200907290453 METAR KPAE 290453Z AUTO 00000KT 10SM CLR 27/17 A2982 RMK AO2 SLP094 T02720167=
200907290353 METAR KPAE 290353Z AUTO 00000KT 10SM CLR 29/17 A2982 RMK AO2 SLP094 T02890167=
200907290253 METAR KPAE 290253Z 34004KT 10SM CLR 29/17 A2982 RMK AO2 SLP094 T02940172 55005=
200907290153 METAR KPAE 290153Z VRB06KT 10SM CLR 32/18 A2982 RMK AO2 SLP093 T03170183=
200907290053 METAR KPAE 290053Z 35008KT 10SM CLR 32/18 A2983 RMK AO2 SLP096 T03170178=
200907282353 METAR KPAE 282353Z 36007KT 320V040 10SM CLR 33/17 A2984 RMK AO2 SLP099 T03280167 10333 20278 58023=
200907282253 METAR KPAE 282253Z AUTO 01006KT 10SM CLR 33/17 A2987 RMK AO2 SLP109 T03280172 TSNO=
200907282153 METAR KPAE 282153Z 01006KT 10SM CLR 32/17 A2989 RMK AO2 SLP115 T03170172=
200907282053 METAR KPAE 282053Z 01006KT 10SM CLR 31/17 A2991 RMK AO2 SLP122 T03110167 58011=
200907281953 METAR KPAE 281953Z VRB04KT 10SM CLR 31/17 A2992 RMK AO2 SLP126 T03060167=
200907281853 METAR KPAE 281853Z VRB05KT 10SM CLR 29/17 A2993 RMK AO2 SLP131 T02940167=
200907281753 METAR KPAE 281753Z 33005KT 10SM CLR 28/17 A2994 RMK AO2 SLP134 T02780172 10278 20206 58006=
200907281653 METAR KPAE 281653Z 36004KT 10SM CLR 27/18 A2995 RMK AO2 SLP135 T02720178=
200907281553 METAR KPAE 281553Z VRB03KT 10SM CLR 24/18 A2995 RMK AO2 SLP139 T02440178=
200907281453 METAR KPAE 281453Z 02003KT 10SM CLR 24/18 A2996 RMK AO2 SLP139 T02390178 50001=
200907281353 METAR KPAE 281353Z VRB03KT 10SM CLR 22/17 A2996 RMK AO2 SLP139 T02220167=
200907281253 METAR KPAE 281253Z AUTO 00000KT 10SM CLR 22/18 A2995 RMK AO2 SLP138 T02170178=
200907281153 METAR KPAE 281153Z AUTO 00000KT 10SM CLR 22/17 A2995 RMK AO2 SLP138 T02170167 10244 20211 56010=
200907281053 METAR KPAE 281053Z AUTO 00000KT 10SM CLR 23/16 A2996 RMK AO2 SLP141 T02330161=
200907280953 METAR KPAE 280953Z AUTO 04003KT 10SM CLR 24/16 A2997 RMK AO2 SLP143 T02390161=
200907280853 METAR KPAE 280853Z AUTO 04003KT 10SM CLR 23/17 A2998 RMK AO2 SLP148 T02330167 58002=
200907280753 METAR KPAE 280753Z AUTO 00000KT 10SM CLR 22/16 A2999 RMK AO2 SLP151 T02220161 403110172=
200907280653 METAR KPAE 280653Z AUTO 00000KT 10SM CLR 22/16 A2999 RMK AO2 SLP152 T02170156=
200907280553 METAR KPAE 280553Z AUTO VRB03KT 10SM CLR 23/17 A2999 RMK AO2 SLP151 T02280167 10311 20228 53002=
200907280453 METAR KPAE 280453Z AUTO 01003KT 10SM CLR 26/17 A2998 RMK AO2 SLP149 T02560172=
200907280353 METAR KPAE 280353Z 00000KT 10SM CLR 27/17 A2998 RMK AO2 SLP148 T02670172=
200907280253 METAR KPAE 280253Z AUTO 34003KT 10SM CLR 29/17 A2998 RMK AO2 SLP148 T02890172 56011 TSNO=
200907280153 METAR KPAE 280153Z AUTO 34004KT 10SM CLR 30/17 A2998 RMK AO2 SLP149 T03000172 TSNO=
200907280053 METAR KPAE 280053Z AUTO 36004KT 10SM CLR 30/17 A2999 RMK AO2 SLP152 T03000172 TSNO=
200907272353 METAR KPAE 272353Z AUTO 36008KT 10SM CLR 30/17 A3001 RMK AO2 SLP159 T03000172 10306 20250 58019 TSNO=
200907272253 METAR KPAE 272253Z 36006KT 10SM CLR 31/17 A3004 RMK AO2 SLP167 T03060172=
200907272153 METAR KPAE 272153Z 01007KT 10SM CLR 29/17 A3006 RMK AO2 SLP175 T02940172=
200907272053 METAR KPAE 272053Z 01004KT 10SM CLR 29/17 A3007 RMK AO2 SLP179 T02940172 58014=
200907271953 METAR KPAE 271953Z 01006KT 10SM CLR 28/17 A3009 RMK AO2 SLP185 T02780172=
200907271853 METAR KPAE 271853Z 02005KT 10SM CLR 27/18 A3011 RMK AO2 SLP190 T02670178=
200907271753 METAR KPAE 271753Z 02004KT 10SM CLR 25/16 A3011 RMK AO2 SLP193 T02500161 10256 20172 58005=
200907271653 METAR KPAE 271653Z VRB03KT 10SM CLR 24/15 A3013 RMK AO2 SLP198 T02440150=
200907271553 METAR KPAE 271553Z 00000KT 10SM CLR 21/14 A3013 RMK AO2 SLP200 T02110144=
200907271453 METAR KPAE 271453Z 36003KT 10SM CLR 21/14 A3013 RMK AO2 SLP199 T02060144 53001=
200907271353 METAR KPAE 271353Z AUTO VRB03KT 10SM CLR 18/14 A3013 RMK AO2 SLP198 T01830139=
200907271253 METAR KPAE 271253Z AUTO 36003KT 10SM CLR 18/14 A3012 RMK AO2 SLP196 T01780139=
200907271153 METAR KPAE 271153Z AUTO 00000KT 10SM CLR 18/14 A3013 RMK AO2 SLP197 T01830139 10206 20178 50000=
200907271053 METAR KPAE 271053Z AUTO 00000KT 10SM CLR 18/14 A3013 RMK AO2 SLP198 T01780139=
200907270953 METAR KPAE 270953Z AUTO 01003KT 10SM CLR 19/14 A3013 RMK AO2 SLP198 T01890144=
200907270853 METAR KPAE 270853Z AUTO 03004KT 10SM CLR 21/16 A3013 RMK AO2 SLP197 T02060156 53002=
200907270753 METAR KPAE 270753Z AUTO 07003KT 10SM CLR 20/16 A3012 RMK AO2 SLP197 T02000156 402890161=
200907270653 METAR KPAE 270653Z AUTO 03003KT 10SM CLR 19/14 A3012 RMK AO2 SLP195 T01890144=
200907270553 METAR KPAE 270553Z AUTO 04004KT 10SM CLR 21/15 A3012 RMK AO2 SLP196 T02060150 10289 20206 53011=
200907270453 METAR KPAE 270453Z AUTO 35003KT 10SM CLR 22/16 A3011 RMK AO2 SLP191 T02220161=
200907270353 METAR KPAE 270353Z AUTO 35003KT 10SM CLR 23/16 A3010 RMK AO2 SLP188 T02330161=
200907270253 METAR KPAE 270253Z AUTO 34004KT 10SM CLR 26/16 A3009 RMK AO2 SLP186 T02610161 55005=
200907270153 METAR KPAE 270153Z 32007KT 10SM CLR 27/16 A3008 RMK AO2 SLP184 T02720161=
200907270053 METAR KPAE 270053Z VRB05KT 10SM CLR 28/16 A3009 RMK AO2 SLP186 T02830161=
200907262353 METAR KPAE 262353Z VRB04KT 10SM CLR 28/17 A3010 RMK AO2 SLP190 T02830167 10289 20228 56012=
200907262253 METAR KPAE 262253Z 29006KT 10SM CLR 28/17 A3011 RMK AO2 SLP193 T02780167=
200907262153 METAR KPAE 262153Z VRB05KT 10SM CLR 27/17 A3012 RMK AO2 SLP198 T02720167=
200907262053 METAR KPAE 262053Z 36006KT 10SM CLR 27/17 A3014 RMK AO2 SLP203 T02670172 58005=
200907261953 METAR KPAE 261953Z 30009KT 10SM CLR 26/17 A3015 RMK AO2 SLP207 T02560172=
200907261853 METAR KPAE 261853Z 30006KT 10SM CLR 24/17 A3016 RMK AO2 SLP209 T02390172=
200907261753 METAR KPAE 261753Z 04003KT 10SM CLR 23/17 A3016 RMK AO2 SLP209 T02330167 10233 20161 50001=
200907261653 METAR KPAE 261653Z 00000KT 10SM SCT005 21/16 A3016 RMK AO2 SLP211 T02060161=
200907261641 SPECI KPAE 261641Z 00000KT 10SM SCT005 20/16 A3016 RMK AO2=
200907261641 SPECI KPAE 261641Z 00000KT 10SM SCT005 20/16 A3016 RMK AO2=
200907261553 METAR KPAE 261553Z 00000KT 8SM OVC005 19/17 A3016 RMK AO2 SLP210 T01890167=
200907261517 SPECI KPAE 261517Z 06003KT 6SM BR OVC003 18/17 A3016 RMK AO2=
200907261517 SPECI KPAE 261517Z 06003KT 6SM BR OVC003 18/17 A3016 RMK AO2=
200907261453 METAR KPAE 261453Z 00000KT 2SM BR OVC003 18/17 A3015 RMK AO2 SLP208 T01780167 53010=
200907261353 METAR KPAE 261353Z 00000KT 10SM OVC003 17/15 A3014 RMK AO2 SLP205 T01670150=
200907261253 METAR KPAE 261253Z AUTO 00000KT 10SM BKN003 17/16 A3013 RMK AO2 SLP199 T01670156=
200907261243 SPECI KPAE 261243Z AUTO 00000KT 10SM FEW003 17/15 A3013 RMK AO2=
200907261243 SPECI KPAE 261243Z AUTO 00000KT 10SM FEW003 17/15 A3013 RMK AO2=
200907261153 METAR KPAE 261153Z AUTO 00000KT 10SM CLR 17/14 A3012 RMK AO2 SLP197 70001 T01670144 10189 20167 53009=
200907261122 SPECI KPAE 261122Z AUTO 00000KT 10SM SCT008 17/14 A3011 RMK AO2=
200907261122 SPECI KPAE 261122Z AUTO 00000KT 10SM SCT008 17/14 A3011 RMK AO2=
200907261100 SPECI KPAE 261100Z AUTO 03005KT 10SM BKN008 17/15 A3011 RMK AO2=
200907261100 SPECI KPAE 261100Z AUTO 03005KT 10SM BKN008 17/15 A3011 RMK AO2=
200907261053 METAR KPAE 261053Z AUTO 02003KT 10SM SCT008 BKN060 17/15 A3010 RMK AO2 SLP191 T01720150=
200907260953 METAR KPAE 260953Z AUTO 00000KT 10SM CLR 17/15 A3010 RMK AO2 SLP188 T01720150=
200907260853 METAR KPAE 260853Z AUTO 26004KT 10SM CLR 17/15 A3008 RMK AO2 SLP182 T01670150 51002=
200907260753 METAR KPAE 260753Z AUTO 00000KT 10SM CLR 17/14 A3008 RMK AO2 SLP182 T01720144 402780150=
200907260653 METAR KPAE 260653Z AUTO 36004KT 10SM CLR 18/15 A3008 RMK AO2 SLP183 T01780150=
200907260553 METAR KPAE 260553Z AUTO 03005KT 10SM CLR 19/16 A3007 RMK AO2 SLP180 60001 T01890156 10278 20178 50011=
200907260453 METAR KPAE 260453Z AUTO 35006KT 10SM CLR 19/16 A3009 RMK AO2 RAE15 SLP184 P0000 T01890156=
200907260353 METAR KPAE 260353Z AUTO 03003KT 10SM -RA FEW022 BKN050 22/16 A3005 RMK AO2 RAB43 SLP173 P0000 T02220161=
200907260253 METAR KPAE 260253Z 02005KT 10SM CLR 23/16 A3004 RMK AO2 RAE35 SLP169 P0001 60001 T02280161 53006=
200907260153 METAR KPAE 260153Z 05006KT 10SM -RA FEW070 25/16 A3003 RMK AO2 LTG DSNT=
200907260053 METAR KPAE 260053Z 00000KT 10SM SCT100 27/14 A3002 RMK AO2 SLP161 T02670144=
200907252353 METAR KPAE 252353Z 29004KT 10SM CLR 26/16 A3002 RMK AO2 SLP163 T02560156 10272 20200 56010=
200907252253 METAR KPAE 252253Z VRB03KT 10SM CLR 26/16 A3003 RMK AO2 SLP165 T02610156=
200907252153 METAR KPAE 252153Z 32004KT 10SM CLR 26/15 A3003 RMK AO2 SLP167 T02610150=
200907252053 METAR KPAE 252053Z 35005KT 10SM CLR 26/14 A3005 RMK AO2 SLP173 T02560144 58005=
200907251953 METAR KPAE 251953Z 02004KT 10SM CLR 24/16 A3006 RMK AO2 SLP178 T02390156=
200907251853 METAR KPAE 251853Z 01004KT 10SM FEW110 20/15 A3008 RMK AO2 SLP182 T02000150=
200907251753 METAR KPAE 251753Z 00000KT 10SM BKN100 21/15 A3007 RMK AO2 SLP179 T02110150 10217 20150 53002=
200907251653 METAR KPAE 251653Z VRB03KT 10SM CLR 21/14 A3006 RMK AO2 SLP174 T02110144=
200907251553 METAR KPAE 251553Z 00000KT 10SM CLR 19/14 A3007 RMK AO2 SLP179 T01940139=
200907251453 METAR KPAE 251453Z 00000KT 10SM CLR 17/13 A3006 RMK AO2 SLP176 T01720133 53008=
200907251353 METAR KPAE 251353Z 00000KT 10SM SCT006 16/12 A3004 RMK AO2 SLP170 T01610122=
200907251329 SPECI KPAE 251329Z AUTO 00000KT 10SM OVC006 16/12 A3004 RMK AO2=
200907251329 SPECI KPAE 251329Z AUTO 00000KT 10SM OVC006 16/12 A3004 RMK AO2=
200907251253 METAR KPAE 251253Z AUTO 00000KT 10SM BKN004 16/12 A3003 RMK AO2 SLP166 T01560122=
200907251238 SPECI KPAE 251238Z AUTO 00000KT 10SM SCT004 16/12 A3003 RMK AO2=
200907251238 SPECI KPAE 251238Z AUTO 00000KT 10SM SCT004 16/12 A3003 RMK AO2=
200907251153 METAR KPAE 251153Z AUTO 00000KT 10SM CLR 16/12 A3004 RMK AO2 SLP169 60000 70001 T01610117 10183 20156 53001=
200907251053 METAR KPAE 251053Z AUTO 00000KT 10SM CLR 16/12 A3003 RMK AO2 SLP166 T01610117=
200907250953 METAR KPAE 250953Z AUTO 33004KT 10SM FEW110 16/12 A3003 RMK AO2 SLP167 T01560122=
200907250853 METAR KPAE 250853Z AUTO 03003KT 10SM SCT110 16/12 A3003 RMK AO2 SLP167 60000 T01560122 51008=
200907250753 METAR KPAE 250753Z AUTO 36004KT 10SM CLR 16/12 A3002 RMK AO2 SLP164 T01610122 402390128=
200907250653 METAR KPAE 250653Z AUTO 36004KT 10SM FEW110 17/14 A3002 RMK AO2 RAE08 SLP164 P0000 T01670144=
200907250553 METAR KPAE 250553Z AUTO 24006KT 10SM -RA SCT080 BKN110 18/14 A3001 RMK AO2 RAB0458E08B45 PRESFR SLP159 P0000 60001 T01780144 10239 20178 58002=
200907250453 METAR KPAE 250453Z AUTO 08005KT 10SM FEW070 BKN110 20/15 A3003 RMK AO2 RAE12B38E47 SLP169 P0000 T02000150=
200907250353 METAR KPAE 250353Z AUTO 00000KT 9SM -RA BKN045 BKN110 20/15 A3000 RMK AO2 TSB16E50RAB17 PRESFR SLP159 TS N MOV SW OCCL LTNG CG P0001 T02000150=
200907250322 SPECI KPAE 250322Z 02006KT 10SM -TSRA SCT050 BKN110 22/14 A3003 RMK AO2 TSB16RAB17 TS N MOV SW OCCL LTNG CG P0000=
200907250322 SPECI KPAE 250322Z 02006KT 10SM -TSRA SCT050 BKN110 22/14 A3003 RMK AO2 TSB16RAB17 TS N MOV SW OCCL LTNG CG P0000=
200907250315 SPECI KPAE 250315Z 02004KT 10SM SCT110 23/13 A3003 RMK AO2 TS N MOV SW OCCL LTNG CG=
200907250315 SPECI KPAE 250315Z 02004KT 10SM SCT110 23/13 A3003 RMK AO2 TS N MOV SW OCCL LTNG CG=
200907250253 METAR KPAE 250253Z 35003KT 10SM CLR 23/13 A3001 RMK AO2 SLP160 T02280133 55005=
200907250153 METAR KPAE 250153Z 33005KT 10SM CLR 23/13 A3001 RMK AO2 SLP159 T02330128=
200907250053 METAR KPAE 250053Z 36004KT 10SM CLR 23/13 A3001 RMK AO2 SLP160 T02330128=
200907242353 METAR KPAE 242353Z 35007KT 10SM CLR 23/13 A3003 RMK AO2 SLP166 T02280128 10233 20161 57015=
200907242253 METAR KPAE 242253Z 31007KT 10SM CLR 23/13 A3004 RMK AO2 SLP170 T02280128=
200907242153 METAR KPAE 242153Z 30006KT 10SM CLR 22/13 A3006 RMK AO2 SLP178 T02170128=
200907242053 METAR KPAE 242053Z VRB04KT 10SM CLR 22/13 A3007 RMK AO2 SLP181 T02220128 58008=
200907241953 METAR KPAE 241953Z 31006KT 10SM CLR 20/13 A3008 RMK AO2 SLP186 T02000128=
200907241853 METAR KPAE 241853Z VRB04KT 10SM CLR 18/12 A3009 RMK AO2 SLP188 T01830122=
200907241753 METAR KPAE 241753Z 20003KT 10SM CLR 16/12 A3009 RMK AO2 SLP190 T01610122 10161 20128 58007=
200907241712 SPECI KPAE 241712Z 29006KT 5SM HZ SCT003 15/12 A3010 RMK AO2=
200907241712 SPECI KPAE 241712Z 29006KT 5SM HZ SCT003 15/12 A3010 RMK AO2=
200907241653 METAR KPAE 241653Z 30004KT 2SM BR OVC003 14/12 A3011 RMK AO2 CIG 002V006 SLP196 T01390122=
200907241621 SPECI KPAE 241621Z 25003KT 2SM BR OVC003 13/12 A3011 RMK AO2=
200907241621 SPECI KPAE 241621Z 25003KT 2SM BR OVC003 13/12 A3011 RMK AO2=
200907241553 METAR KPAE 241553Z 26004KT 1/2SM FG OVC003 13/12 A3011 RMK AO2 SLP196 T01330117 RVRNO=
200907241544 SPECI KPAE 241544Z 25004KT 1/4SM FG OVC003 13/12 A3011 RMK AO2 RVRNO=
200907241544 SPECI KPAE 241544Z 25004KT 1/4SM FG OVC003 13/12 A3011 RMK AO2 RVRNO=
200907241453 METAR KPAE 241453Z 25003KT 8SM BKN003 OVC008 13/12 A3012 RMK AO2 SLP197 T01280117 53010=
200907241445 SPECI KPAE 241445Z 24003KT 8SM BKN003 OVC008 13/12 A3012 RMK AO2=
200907241445 SPECI KPAE 241445Z 24003KT 8SM BKN003 OVC008 13/12 A3012 RMK AO2=
200907241423 SPECI KPAE 241423Z 24005KT 10SM BKN005 13/12 A3011 RMK AO2 CIG 003V009=
200907241423 SPECI KPAE 241423Z 24005KT 10SM BKN005 13/12 A3011 RMK AO2 CIG 003V009=
200907241353 METAR KPAE 241353Z 00000KT 10SM SCT007 BKN025 BKN048 13/12 A3011 RMK AO2 SLP194 T01330117=
200907241345 SPECI KPAE 241345Z AUTO 00000KT 10SM SCT007 BKN025 BKN048 13/12 A3010 RMK AO2=
200907241345 SPECI KPAE 241345Z AUTO 00000KT 10SM SCT007 BKN025 BKN048 13/12 A3010 RMK AO2=
200907241253 METAR KPAE 241253Z AUTO 00000KT 10SM OVC050 13/12 A3009 RMK AO2 SLP189 T01280117=
200907241202 SPECI KPAE 241202Z AUTO 00000KT 10SM SCT027 OVC055 13/12 A3008 RMK AO2=
200907241202 SPECI KPAE 241202Z AUTO 00000KT 10SM SCT027 OVC055 13/12 A3008 RMK AO2=
200907241153 METAR KPAE 241153Z AUTO 00000KT 10SM BKN027 OVC055 13/12 A3009 RMK AO2 SLP187 T01280117 10150 20128 51001=
200907241053 METAR KPAE 241053Z AUTO 00000KT 10SM OVC025 13/12 A3008 RMK AO2 SLP185 T01280117=
200907240953 METAR KPAE 240953Z AUTO 01003KT 10SM BKN025 OVC065 13/12 A3009 RMK AO2 SLP188 T01280117=
200907240853 METAR KPAE 240853Z AUTO 03005KT 10SM OVC025 13/12 A3008 RMK AO2 SLP186 T01330117 58002=
200907240753 METAR KPAE 240753Z AUTO 00000KT 10SM BKN023 OVC065 14/12 A3008 RMK AO2 SLP186 T01390117 402000122=
200907240653 METAR KPAE 240653Z AUTO 02005KT 10SM BKN023 14/12 A3009 RMK AO2 SLP188 T01390122=
200907240649 SPECI KPAE 240649Z AUTO 02004KT 10SM BKN023 14/12 A3009 RMK AO2=
200907240649 SPECI KPAE 240649Z AUTO 02004KT 10SM BKN023 14/12 A3009 RMK AO2=
200907240553 METAR KPAE 240553Z AUTO 02003KT 10SM CLR 14/12 A3008 RMK AO2 SLP186 60000 T01390122 10200 20139 53003=
200907240453 METAR KPAE 240453Z AUTO 00000KT 10SM BKN065 18/12 A3008 RMK AO2 SLP186 T01780122=
200907240353 METAR KPAE 240353Z AUTO 19006KT 10SM BKN065 18/12 A3007 RMK AO2 RAE01 SLP182 P0000 T01780122=
200907240253 METAR KPAE 240253Z 17006KT 10SM -RA FEW046 SCT070 SCT100 18/13 A3008 RMK AO2 RAB43 SLP184 P0000 60000 T01780128 55001=
200907240153 METAR KPAE 240153Z 19008KT 10SM SCT080 19/12 A3007 RMK AO2 SLP180 T01940117=
200907240053 METAR KPAE 240053Z VRB05KT 10SM BKN080 20/12 A3008 RMK AO2 SLP184 T02000117=
200907232353 METAR KPAE 232353Z 24006KT 10SM FEW025 19/12 A3008 RMK AO2 SLP185 T01940117 10194 20150 57002=
200907232300 SPECI KPAE 232300Z 25010KT 10SM FEW022 18/12 A3008 RMK AO2=
200907232300 SPECI KPAE 232300Z 25010KT 10SM FEW022 18/12 A3008 RMK AO2=
200907232253 METAR KPAE 232253Z AUTO 23009KT 10SM BKN022 BKN080 18/12 A3009 RMK AO2 SLP187 T01830117 TSNO=
200907232153 METAR KPAE 232153Z 24009KT 10SM BKN022 BKN080 18/12 A3008 RMK AO2 SLP185 T01780117=
200907232145 SPECI KPAE 232145Z 25011KT 10SM SCT020 BKN080 19/12 A3008 RMK AO2=
200907232145 SPECI KPAE 232145Z 25011KT 10SM SCT020 BKN080 19/12 A3008 RMK AO2=
200907232053 METAR KPAE 232053Z 25010KT 10SM OVC020 17/11 A3009 RMK AO2 SLP187 T01670111 55001=
200907231953 METAR KPAE 231953Z 25010KT 10SM BKN017 16/11 A3008 RMK AO2 SLP186 T01610111=
200907231853 METAR KPAE 231853Z 24007KT 10SM OVC017 16/11 A3008 RMK AO2 SLP186 T01610111=
200907231803 SPECI KPAE 231803Z 24008KT 10SM OVC015 15/11 A3009 RMK AO2=
200907231803 SPECI KPAE 231803Z 24008KT 10SM OVC015 15/11 A3009 RMK AO2=
200907231753 METAR KPAE 231753Z 22007KT 10SM OVC013 16/11 A3009 RMK AO2 SLP188 T01560111 10156 20122 51007=
200907231653 METAR KPAE 231653Z 24007KT 10SM OVC011 14/11 A3008 RMK AO2 SLP186 T01440111=
200907231553 METAR KPAE 231553Z 25006KT 10SM OVC007 13/12 A3008 RMK AO2 CIG 006V010 SLP184 T01330117=
200907231453 METAR KPAE 231453Z 22005KT 4SM BR OVC005 13/12 A3007 RMK AO2 CIG 002V008 SLP181 T01330122 50004=
200907231450 SPECI KPAE 231450Z 20006KT 2 1/2SM BR OVC005 13/12 A3007 RMK AO2 CIG 002V008=
200907231450 SPECI KPAE 231450Z 20006KT 2 1/2SM BR OVC005 13/12 A3007 RMK AO2 CIG 002V008=
200907231353 METAR KPAE 231353Z AUTO 22006KT 1 1/2SM BR OVC003 12/12 A3007 RMK AO2 SLP182 T01220117=
200907231345 SPECI KPAE 231345Z AUTO 22005KT 1 1/2SM BR OVC003 12/12 A3007 RMK AO2=
200907231345 SPECI KPAE 231345Z AUTO 22005KT 1 1/2SM BR OVC003 12/12 A3007 RMK AO2=
200907231326 SPECI KPAE 231326Z AUTO 22004KT 2 1/2SM BR OVC003 13/12 A3007 RMK AO2=
200907231326 SPECI KPAE 231326Z AUTO 22004KT 2 1/2SM BR OVC003 13/12 A3007 RMK AO2=
200907231319 SPECI KPAE 231319Z AUTO 23005KT 3SM BR OVC003 13/12 A3007 RMK AO2=
200907231319 SPECI KPAE 231319Z AUTO 23005KT 3SM BR OVC003 13/12 A3007 RMK AO2=
200907231253 METAR KPAE 231253Z AUTO 22005KT 5SM BR OVC005 13/12 A3007 RMK AO2 SLP181 T01280117=
200907231153 METAR KPAE 231153Z AUTO 19006KT 10SM OVC005 13/11 A3006 RMK AO2 SLP176 T01330111 10156 20133 51005=
200907231053 METAR KPAE 231053Z AUTO 19007KT 10SM OVC005 13/12 A3005 RMK AO2 SLP174 T01330117=
200907230953 METAR KPAE 230953Z AUTO 20007KT 10SM OVC005 13/12 A3005 RMK AO2 SLP173 T01330117=
200907230853 METAR KPAE 230853Z AUTO 17007KT 10SM OVC007 14/12 A3004 RMK AO2 SLP172 T01390122 51007=
200907230842 SPECI KPAE 230842Z AUTO 20007KT 10SM BKN007 14/12 A3004 RMK AO2=
200907230842 SPECI KPAE 230842Z AUTO 20007KT 10SM BKN007 14/12 A3004 RMK AO2=
200907230828 SPECI KPAE 230828Z AUTO 17007KT 10SM SCT009 14/12 A3004 RMK AO2=
200907230828 SPECI KPAE 230828Z AUTO 17007KT 10SM SCT009 14/12 A3004 RMK AO2=
200907230753 METAR KPAE 230753Z AUTO 18006KT 10SM CLR 15/12 A3004 RMK AO2 SLP170 T01500122 402280133=
200907230653 METAR KPAE 230653Z AUTO 00000KT 10SM CLR 15/12 A3003 RMK AO2 SLP167 T01500122=
200907230553 METAR KPAE 230553Z AUTO 02003KT 10SM CLR 15/12 A3002 RMK AO2 SLP164 T01500122 10228 20150 53010=
200907230453 METAR KPAE 230453Z AUTO 03003KT 10SM CLR 16/13 A3001 RMK AO2 SLP160 T01610128=
200907230353 METAR KPAE 230353Z AUTO 00000KT 10SM CLR 19/13 A2999 RMK AO2 SLP154 T01890133=
200907230253 METAR KPAE 230253Z 24005KT 10SM CLR 21/13 A2999 RMK AO2 SLP153 T02060133 55003=
200907230153 METAR KPAE 230153Z 26005KT 10SM CLR 22/13 A2998 RMK AO2 SLP151 T02220128=
200907230053 METAR KPAE 230053Z 26007KT 10SM CLR 23/13 A2999 RMK AO2 SLP154 T02280128=
200907222353 METAR KPAE 222353Z 25007KT 10SM CLR 23/13 A3000 RMK AO2 SLP156 T02280128 10228 20161 57012=
200907222253 METAR KPAE 222253Z AUTO 26007KT 10SM CLR 22/13 A3001 RMK AO2 SLP160 T02220128 TSNO=
200907222153 METAR KPAE 222153Z 26009KT 10SM CLR 21/13 A3003 RMK AO2 SLP165 T02110128=
200907222053 METAR KPAE 222053Z 25010KT 10SM CLR 19/12 A3004 RMK AO2 SLP169 T01890122 58005=
200907221953 METAR KPAE 221953Z 25011KT 10SM CLR 18/12 A3004 RMK AO2 SLP171 T01830122=
200907221853 METAR KPAE 221853Z 24012KT 10SM CLR 17/12 A3005 RMK AO2 SLP175 T01670117=
200907221753 METAR KPAE 221753Z 25009KT 10SM CLR 17/12 A3005 RMK AO2 SLP175 T01670122 10167 20133 51003=
200907221653 METAR KPAE 221653Z 26009KT 10SM FEW012 16/12 A3005 RMK AO2 SLP175 T01560122=
200907221600 SPECI KPAE 221600Z 25006KT 10SM SCT010 16/12 A3005 RMK AO2=
200907221600 SPECI KPAE 221600Z 25006KT 10SM SCT010 16/12 A3005 RMK AO2=
200907221553 METAR KPAE 221553Z 20007KT 10SM BKN010 16/12 A3005 RMK AO2 SLP173 T01610122=
200907221453 METAR KPAE 221453Z 21007KT 10SM BKN005 14/12 A3004 RMK AO2 SLP171 T01440117 51009=
200907221353 METAR KPAE 221353Z 18006KT 7SM OVC005 14/12 A3004 RMK AO2 SLP169 T01390122=
200907221320 SPECI KPAE 221320Z AUTO 19005KT 7SM BKN005 13/12 A3003 RMK AO2=
200907221320 SPECI KPAE 221320Z AUTO 19005KT 7SM BKN005 13/12 A3003 RMK AO2=
200907221311 SPECI KPAE 221311Z AUTO 21006KT 8SM SCT005 13/12 A3003 RMK AO2=
200907221311 SPECI KPAE 221311Z AUTO 21006KT 8SM SCT005 13/12 A3003 RMK AO2=
200907221253 METAR KPAE 221253Z AUTO 20005KT 9SM CLR 14/12 A3002 RMK AO2 SLP164 T01390122=
200907221153 METAR KPAE 221153Z AUTO 18007KT 10SM CLR 14/12 A3002 RMK AO2 SLP161 T01440122 10183 20144 51013=
200907221053 METAR KPAE 221053Z AUTO 00000KT 10SM CLR 14/12 A3001 RMK AO2 SLP157 T01440122=
200907220953 METAR KPAE 220953Z AUTO 00000KT 10SM CLR 16/12 A2999 RMK AO2 SLP153 T01610122=
200907220853 METAR KPAE 220853Z AUTO 00000KT 10SM CLR 17/12 A2998 RMK AO2 SLP147 T01670122 53002=
200907220753 METAR KPAE 220753Z AUTO 00000KT 10SM CLR 17/12 A2998 RMK AO2 SLP148 T01720122 402940156=
200907220653 METAR KPAE 220653Z AUTO 03004KT 10SM CLR 18/12 A2997 RMK AO2 SLP145 T01830122=
200907220553 METAR KPAE 220553Z AUTO 01003KT 10SM CLR 17/12 A2997 RMK AO2 SLP146 T01720122 10289 20172 53007=
200907220453 METAR KPAE 220453Z AUTO 00000KT 10SM CLR 19/12 A2996 RMK AO2 SLP142 T01890117=
200907220353 METAR KPAE 220353Z AUTO 36004KT 10SM CLR 21/12 A2995 RMK AO2 SLP139 T02060117=
200907220253 METAR KPAE 220253Z 35003KT 10SM CLR 24/11 A2995 RMK AO2 SLP138 T02390106 56001=
200907220153 METAR KPAE 220153Z 36005KT 10SM CLR 26/11 A2995 RMK AO2 SLP138 T02560106=
200907220053 METAR KPAE 220053Z 35007KT 10SM CLR 27/11 A2995 RMK AO2 SLP138 T02720106=
200907212353 METAR KPAE 212353Z VRB05KT 10SM CLR 29/11 A2995 RMK AO2 SLP139 T02890106 10294 20228 57014=
200907212253 METAR KPAE 212253Z 02004KT 10SM CLR 28/11 A2997 RMK AO2 SLP143 T02830111=
200907212153 METAR KPAE 212153Z VRB04KT 10SM CLR 27/12 A2998 RMK AO2 SLP149 T02720122=
200907212053 METAR KPAE 212053Z 32005KT 10SM CLR 27/13 A2999 RMK AO2 SLP153 T02670128 58007=
200907211953 METAR KPAE 211953Z 26005KT 10SM CLR 26/12 A3000 RMK AO2 SLP156 T02610117=
200907211853 METAR KPAE 211853Z VRB04KT 10SM CLR 24/12 A3001 RMK AO2 SLP160 T02390117=
200907211753 METAR KPAE 211753Z 28005KT 10SM CLR 23/11 A3001 RMK AO2 SLP160 T02330111 10233 20156 50001=
200907211653 METAR KPAE 211653Z 23004KT 10SM CLR 22/11 A3002 RMK AO2 SLP162 T02170106=
200907211553 METAR KPAE 211553Z 26004KT 10SM CLR 20/11 A3002 RMK AO2 SLP162 T02000106=
200907211453 METAR KPAE 211453Z VRB03KT 10SM CLR 19/11 A3001 RMK AO2 SLP159 T01940106 53006=
200907211353 METAR KPAE 211353Z 00000KT 10SM CLR 18/10 A3000 RMK AO2 SLP155 T01780100=
200907211253 METAR KPAE 211253Z 00000KT 10SM CLR 16/10 A2999 RMK AO2 SLP152 T01610100=
200907211153 METAR KPAE 211153Z 00000KT 10SM CLR 17/09 A2999 RMK AO2 SLP153 7//// T01670094 10200 20161 53001=
200907211053 METAR KPAE 211053Z 00000KT 10SM CLR 17/09 A2999 RMK AO2 SLP151 T01670094=
200907210953 METAR KPAE 210953Z 00000KT 10SM CLR 17/10 A2999 RMK AO2 SLP151 T01670100=
200907210853 METAR KPAE 210853Z 00000KT 10SM CLR 17/09 A2999 RMK AO2 SLP152 T01720094 50001=
200907210753 METAR KPAE 210753Z 00000KT 10SM CLR 17/11 A2999 RMK AO2 SLP154 T01670106 402560117=
200907210653 METAR KPAE 210653Z VRB03KT 10SM CLR 17/11 A2999 RMK AO2 SLP152 T01720106=
200907210553 METAR KPAE 210553Z 00000KT 10SM CLR 20/10 A2999 RMK AO2 SLP151 T02000100 10256 20189 53001=
200907210453 METAR KPAE 210453Z 00000KT 10SM CLR 20/11 A2999 RMK AO2 SLP152 T02000106=
200907210353 METAR KPAE 210353Z 33004KT 10SM CLR 21/11 A2997 RMK AO2 SLP148 T02110111=
200907210253 METAR KPAE 210253Z 34004KT 10SM CLR 23/11 A2998 RMK AO2 SLP151 T02280111 56009=
200907210153 METAR KPAE 210153Z 36004KT 10SM CLR 23/12 A2998 RMK AO2 SLP151 T02330117=
200907210053 METAR KPAE 210053Z 36004KT 10SM CLR 24/12 A3000 RMK AO2 SLP156 T02440122=
200907202353 METAR KPAE 202353Z 36006KT 10SM CLR 26/13 A3001 RMK AO2 SLP160 6//// T02560128 10256 20189 58020=
200907202253 METAR KPAE 202253Z 01005KT 10SM CLR 24/13 A3003 RMK AO2 SLP167 T02440128=
200907202153 METAR KPAE 202153Z 33008KT 300V360 10SM CLR 23/13 A3005 RMK AO2 SLP174 T02330128=
200907202053 METAR KPAE 202053Z 34008KT 10SM CLR 23/13 A3007 RMK AO2 SLP181 6//// T02330128 56011=
200907201953 METAR KPAE 201953Z 36008KT 10SM CLR 22/12 A3008 RMK AO2 SLP184 T02170122=
200907201853 METAR KPAE 201853Z 01008KT 10SM CLR 21/12 A3009 RMK AO2 SLP187 T02110122=
200907201753 METAR KPAE 201753Z VRB05KT 10SM CLR 19/12 A3010 RMK AO2 SLP193 6//// T01940117 10194 20117=
200907201653 METAR KPAE 201653Z 32011KT 10SM CLR 17/12 A3012=
200907201553 METAR KPAE 201553Z 35006KT 10SM CLR 17/11 A3013 RMK AO2 SLP203 T01670106=
200907201453 METAR KPAE 201453Z 02003KT 10SM CLR 16/11 A3014 RMK AO2 SLP205 T01560106 55001=
200907201353 METAR KPAE 201353Z 02005KT 10SM CLR 13/12 A3014 RMK AO2 SLP204 T01280117=
200907201309 SPECI KPAE 201309Z AUTO 00000KT 5SM BR FEW001 12/11 A3014 RMK AO2=
200907201309 SPECI KPAE 201309Z AUTO 00000KT 5SM BR FEW001 12/11 A3014 RMK AO2=
200907201253 METAR KPAE 201253Z AUTO 00000KT 8SM CLR 12/11 A3014 RMK AO2 SLP206 T01220111=
200907201153 METAR KPAE 201153Z AUTO 34003KT 10SM CLR 12/10 A3014 RMK AO2 SLP206 T01220100 10144 20122 56004=
200907201053 METAR KPAE 201053Z AUTO 04003KT 10SM CLR 13/09 A3014 RMK AO2 SLP206 T01280094=
200907200953 METAR KPAE 200953Z AUTO 05004KT 10SM CLR 13/10 A3015 RMK AO2 SLP207 T01330100=
200907200853 METAR KPAE 200853Z AUTO 03005KT 10SM CLR 14/10 A3015 RMK AO2 SLP210 T01390100 58006=
200907200753 METAR KPAE 200753Z AUTO 04003KT 10SM CLR 14/11 A3017 RMK AO2 SLP214 T01390106 402170117=
200907200653 METAR KPAE 200653Z AUTO 03004KT 10SM CLR 14/10 A3017 RMK AO2 SLP216 T01390100=
200907200553 METAR KPAE 200553Z AUTO VRB05KT 10SM CLR 14/10 A3017 RMK AO2 SLP217 T01390100 10211 20139 56003=
200907200453 METAR KPAE 200453Z AUTO 01005KT 10SM CLR 14/11 A3018 RMK AO2 SLP217 T01390106=
200907200353 METAR KPAE 200353Z AUTO 02006KT 10SM CLR 14/11 A3017 RMK AO2 SLP216 T01440106=
200907200253 METAR KPAE 200253Z 02006KT 10SM CLR 18/11 A3018 RMK AO2 SLP220 T01780106 55002=
200907200153 METAR KPAE 200153Z VRB05KT 10SM CLR 19/10 A3017 RMK AO2 SLP216 T01890100=
200907200053 METAR KPAE 200053Z 36008KT 10SM CLR 20/10 A3018 RMK AO2 SLP218 T02000100=
200907192353 METAR KPAE 192353Z 01007KT 10SM CLR 21/10 A3019 RMK AO2 SLP222 T02110100 10217 20167 58012=
200907192253 METAR KPAE 192253Z 35008KT 10SM CLR 21/11 A3020 RMK AO2 SLP226 T02110106=
200907192153 METAR KPAE 192153Z 01007KT 10SM CLR 21/11 A3022 RMK AO2 SLP232 T02110106=
200907192053 METAR KPAE 192053Z 36005KT 10SM CLR 20/10 A3023 RMK AO2 SLP234 T02000100 56005=
200907191953 METAR KPAE 191953Z 35007KT 10SM CLR 19/11 A3023 RMK AO2 SLP235 T01940106=
200907191853 METAR KPAE 191853Z 01005KT 10SM CLR 18/11 A3024 RMK AO2 SLP239 T01780106=
200907191753 METAR KPAE 191753Z VRB05KT 10SM CLR 17/11 A3024 RMK AO2 SLP240 T01720106 10172 20117 58000=
200907191653 METAR KPAE 191653Z 06003KT 10SM FEW013 16/11 A3024 RMK AO2 SLP240 T01560106=
200907191553 METAR KPAE 191553Z VRB04KT 10SM FEW012 15/10 A3025 RMK AO2 SLP241 T01500100=
200907191453 METAR KPAE 191453Z 06004KT 10SM CLR 13/10 A3024 RMK AO2 SLP240 T01330100 53012=
200907191353 METAR KPAE 191353Z AUTO 05004KT 10SM CLR 13/09 A3023 RMK AO2 SLP237 T01280094=
200907191253 METAR KPAE 191253Z AUTO 00000KT 10SM CLR 12/09 A3021 RMK AO2 SLP230 T01170094=
200907191153 METAR KPAE 191153Z AUTO 06004KT 10SM CLR 12/09 A3021 RMK AO2 SLP228 T01170094 10139 20117 51007=
200907191053 METAR KPAE 191053Z AUTO 02004KT 10SM CLR 12/09 A3020 RMK AO2 SLP226 T01220094=
200907190953 METAR KPAE 190953Z AUTO 02006KT 10SM CLR 13/09 A3020 RMK AO2 SLP225 T01280094=
200907190853 METAR KPAE 190853Z AUTO 35006KT 10SM OVC049 13/09 A3019 RMK AO2 SLP221 T01280094 51011=
200907190753 METAR KPAE 190753Z AUTO 01008G16KT 340V040 10SM OVC055 13/09 A3017 RMK AO2 SLP216 T01330094 402170133=
200907190653 METAR KPAE 190653Z AUTO 02009G16KT 10SM OVC050 13/09 A3017 RMK AO2 SLP216 T01330094=
200907190553 METAR KPAE 190553Z AUTO 01008G19KT 10SM BKN050 13/09 A3015 RMK AO2 SLP210 T01330094 10200 20133 51006=
200907190453 METAR KPAE 190453Z AUTO 01007G14KT 10SM OVC044 14/09 A3015 RMK AO2 SLP209 T01440094=
200907190353 METAR KPAE 190353Z AUTO 01007G14KT 10SM OVC044 15/09 A3014 RMK AO2 SLP206 T01500094=
200907190253 METAR KPAE 190253Z 02009G14KT 10SM FEW046 16/10 A3014 RMK AO2 SLP204 T01610100 55001=
200907190153 METAR KPAE 190153Z 01006KT 10SM BKN048 18/11 A3014 RMK AO2 SLP204 T01830111=
200907190053 METAR KPAE 190053Z 02007KT 10SM CLR 20/12 A3014 RMK AO2 SLP204 T02000117=
200907182353 METAR KPAE 182353Z 36010G15KT 10SM CLR 20/12 A3014 RMK AO2 SLP205 T02000117 10217 20189 56004=
200907182253 METAR KPAE 182253Z 36009G16KT 10SM CLR 20/12 A3014 RMK AO2 SLP205 T02000122=
200907182153 METAR KPAE 182153Z 36009G14KT 10SM CLR 21/12 A3015 RMK AO2 SLP206 T02060122=
200907182053 METAR KPAE 182053Z 36009G15KT 10SM CLR 19/12 A3015 RMK AO2 SLP210 T01940122 56004=
200907181953 METAR KPAE 181953Z VRB06KT 10SM CLR 22/13 A3015 RMK AO2 SLP209 T02170133=
200907181853 METAR KPAE 181853Z VRB05KT 10SM CLR 21/13 A3016 RMK AO2 SLP210 T02110128=
200907181753 METAR KPAE 181753Z 32007KT 290V020 10SM CLR 20/13 A3017 RMK AO2 SLP213 T02000133 10200 20144 51005=
200907181653 METAR KPAE 181653Z 04004KT 10SM CLR 18/13 A3017 RMK AO2 SLP213 T01830128=
200907181553 METAR KPAE 181553Z VRB04KT 10SM CLR 17/13 A3016 RMK AO2 SLP213 T01720128=
200907181453 METAR KPAE 181453Z 03003KT 10SM CLR 17/12 A3015 RMK AO2 SLP208 T01670122 53008=
200907181353 METAR KPAE 181353Z 00000KT 10SM CLR 15/12 A3014 RMK AO2 SLP204 T01500117=
200907181253 METAR KPAE 181253Z AUTO 04005KT 10SM CLR 14/12 A3013 RMK AO2 SLP201 T01440117=
200907181153 METAR KPAE 181153Z AUTO 04004KT 10SM CLR 14/12 A3013 RMK AO2 SLP199 T01440117 10161 20139 50004=
200907181053 METAR KPAE 181053Z AUTO 02005KT 10SM CLR 14/12 A3013 RMK AO2 SLP199 T01390122=
200907180953 METAR KPAE 180953Z AUTO 02003KT 10SM CLR 14/12 A3012 RMK AO2 SLP198 T01440122=
200907180853 METAR KPAE 180853Z AUTO 01003KT 10SM CLR 15/12 A3012 RMK AO2 SLP195 T01500122 53002=
200907180753 METAR KPAE 180753Z AUTO 36004KT 10SM CLR 16/13 A3011 RMK AO2 SLP194 T01560128 402780156=
200907180653 METAR KPAE 180653Z AUTO 01005KT 10SM CLR 16/13 A3011 RMK AO2 SLP194 T01560128=
200907180553 METAR KPAE 180553Z AUTO 36006KT 10SM CLR 16/13 A3011 RMK AO2 SLP193 T01610128 10256 20161 53001=
200907180453 METAR KPAE 180453Z AUTO 01007KT 10SM CLR 17/13 A3011 RMK AO2 SLP194 T01670128=
200907180353 METAR KPAE 180353Z AUTO 01004KT 10SM CLR 17/13 A3011 RMK AO2 SLP193 T01720128=
200907180253 METAR KPAE 180253Z 01005KT 10SM CLR 19/13 A3011 RMK AO2 SLP192 T01890133 56001=
200907180153 METAR KPAE 180153Z 36007KT 10SM CLR 21/13 A3011 RMK AO2 SLP192 T02110128=
200907180053 METAR KPAE 180053Z 35009KT 10SM CLR 24/12 A3011 RMK AO2 SLP193 T02390122=
200907172353 METAR KPAE 172353Z 35008G14KT 10SM CLR 26/12 A3011 RMK AO2 SLP194 T02560117 10278 20228 57009=
200907172253 METAR KPAE 172253Z 35006KT 10SM CLR 26/12 A3012 RMK AO2 SLP198 T02560122=
200907172153 METAR KPAE 172153Z 01005KT 10SM CLR 27/13 A3013 RMK AO2 SLP199 T02720133=
200907172053 METAR KPAE 172053Z VRB04KT 10SM CLR 26/13 A3014 RMK AO2 SLP203 T02560133 58005=
200907171953 METAR KPAE 171953Z VRB04KT 10SM CLR 26/13 A3015 RMK AO2 SLP206 T02560128=
200907171853 METAR KPAE 171853Z 28004KT 10SM CLR 23/13 A3016 RMK AO2 SLP209 T02330128=
200907171753 METAR KPAE 171753Z 28006KT 10SM CLR 23/13 A3015 RMK AO2 SLP208 T02330133 10233 20161 50001=
200907171653 METAR KPAE 171653Z VRB04KT 10SM CLR 23/13 A3016 RMK AO2 SLP209 T02280128=
200907171553 METAR KPAE 171553Z 00000KT 10SM CLR 22/13 A3016 RMK AO2 SLP210 T02170128=
200907171453 METAR KPAE 171453Z 00000KT 10SM CLR 21/12 A3015 RMK AO2 SLP207 T02060122 51010=
200907171353 METAR KPAE 171353Z 07004KT 10SM CLR 19/12 A3014 RMK AO2 SLP203 T01890117=
200907171253 METAR KPAE 171253Z AUTO 00000KT 10SM CLR 16/11 A3014 RMK AO2 SLP202 T01610111=
200907171153 METAR KPAE 171153Z AUTO 00000KT 10SM CLR 17/12 A3012 RMK AO2 SLP196 T01670117 10178 20161 55003=
200907171053 METAR KPAE 171053Z AUTO VRB03KT 10SM CLR 17/12 A3011 RMK AO2 SLP194 T01720117=
200907170953 METAR KPAE 170953Z AUTO 06004KT 10SM CLR 17/12 A3011 RMK AO2 SLP194 T01720122=
200907170853 METAR KPAE 170853Z AUTO 02005KT 10SM CLR 18/12 A3013 RMK AO2 SLP199 T01780122 50001=
200907170753 METAR KPAE 170753Z AUTO 00000KT 10SM CLR 18/12 A3013 RMK AO2 SLP200 T01780117 402670139=
200907170653 METAR KPAE 170653Z AUTO 36005KT 10SM CLR 16/12 A3013 RMK AO2 SLP199 T01610122=
200907170553 METAR KPAE 170553Z AUTO 01007KT 10SM CLR 16/12 A3012 RMK AO2 SLP199 T01610117 10256 20161 53003=
200907170453 METAR KPAE 170453Z AUTO 01008KT 10SM CLR 17/12 A3012 RMK AO2 SLP198 T01720117=
200907170353 METAR KPAE 170353Z AUTO 36006KT 10SM CLR 18/12 A3011 RMK AO2 SLP195 T01830117=
200907170253 METAR KPAE 170253Z 01006KT 10SM CLR 21/12 A3011 RMK AO2 SLP195 T02060117 56007=
200907170153 METAR KPAE 170153Z 36005KT 10SM CLR 23/12 A3012 RMK AO2 SLP197 T02280122=
200907170053 METAR KPAE 170053Z VRB06KT 10SM CLR 24/13 A3012 RMK AO2 SLP197 T02440128=
200907162353 METAR KPAE 162353Z 36007KT 10SM CLR 25/12 A3013 RMK AO2 SLP201 T02500122 10267 20217 58013=
200907162253 METAR KPAE 162253Z 36007KT 10SM CLR 25/12 A3015 RMK AO2 SLP207 T02500117=
200907162153 METAR KPAE 162153Z 32006KT 10SM CLR 26/11 A3017 RMK AO2 SLP212 T02610111=
200907162053 METAR KPAE 162053Z 02005KT 10SM CLR 24/12 A3017 RMK AO2 SLP214 T02440122 57005=
200907161953 METAR KPAE 161953Z 01004KT 10SM CLR 25/11 A3018 RMK AO2 SLP217 T02500111=
200907161853 METAR KPAE 161853Z 02003KT 10SM CLR 23/13 A3018 RMK AO2 SLP218 T02330128=
200907161753 METAR KPAE 161753Z VRB04KT 10SM CLR 22/13 A3019 RMK AO2 SLP220 T02170128 10217 20144 50005=
200907161653 METAR KPAE 161653Z VRB06KT 10SM CLR 20/12 A3019 RMK AO2 SLP222 T02000117=
200907161553 METAR KPAE 161553Z 04003KT 10SM CLR 19/12 A3018 RMK AO2 SLP219 T01940117=
200907161453 METAR KPAE 161453Z 07003KT 10SM CLR 18/12 A3017 RMK AO2 SLP214 T01830122 53012=
200907161353 METAR KPAE 161353Z AUTO 07003KT 10SM CLR 17/12 A3016 RMK AO2 SLP209 T01720122=
200907161253 METAR KPAE 161253Z AUTO 05004KT 10SM CLR 16/12 A3014 RMK AO2 SLP205 T01560117=
200907161153 METAR KPAE 161153Z AUTO 00000KT 10SM CLR 14/11 A3014 RMK AO2 SLP203 T01440111 10156 20133 53006=
200907161053 METAR KPAE 161053Z AUTO 04004KT 10SM CLR 15/11 A3012 RMK AO2 SLP198 T01500111=
200907160953 METAR KPAE 160953Z AUTO 00000KT 10SM CLR 16/11 A3012 RMK AO2 SLP198 T01560111=
200907160853 METAR KPAE 160853Z AUTO 00000KT 10SM CLR 16/12 A3012 RMK AO2 SLP197 T01560117 50002=
200907160753 METAR KPAE 160753Z AUTO 00000KT 10SM CLR 13/12 A3012 RMK AO2 SLP198 T01330117 402390111=
200907160653 METAR KPAE 160653Z AUTO 35004KT 10SM CLR 14/12 A3012 RMK AO2 SLP199 T01390117=
200907160553 METAR KPAE 160553Z AUTO 03004KT 10SM CLR 15/11 A3011 RMK AO2 SLP196 T01500106 10239 20150 53006=
200907160453 METAR KPAE 160453Z AUTO 02004KT 10SM CLR 16/11 A3011 RMK AO2 SLP193 T01610111=
200907160353 METAR KPAE 160353Z 35004KT 10SM CLR 18/11 A3010 RMK AO2 SLP191 T01830111=
200907160253 METAR KPAE 160253Z 34003KT 10SM CLR 21/11 A3010 RMK AO2 SLP190 T02110111 56002=
200907160153 METAR KPAE 160153Z 34004KT 10SM CLR 23/11 A3010 RMK AO2 SLP190 T02280111=
200907160053 METAR KPAE 160053Z 35005KT 10SM CLR 23/12 A3010 RMK AO2 SLP191 T02280117=
200907152353 METAR KPAE 152353Z 33004KT 10SM CLR 23/12 A3010 RMK AO2 SLP192 T02330117 10233 20167 56006=
200907152253 METAR KPAE 152253Z VRB05KT 10SM CLR 23/12 A3011 RMK AO2 SLP194 T02280122=
200907152153 METAR KPAE 152153Z 36005KT 10SM CLR 23/11 A3011 RMK AO2 SLP195 T02280106=
200907152053 METAR KPAE 152053Z 31006KT 10SM CLR 22/12 A3012 RMK AO2 SLP198 T02170117 58003=
200907151953 METAR KPAE 151953Z VRB04KT 10SM CLR 21/12 A3013 RMK AO2 SLP201 T02060122=
200907151853 METAR KPAE 151853Z 30005KT 10SM CLR 18/12 A3013 RMK AO2 SLP200 T01830122=
200907151753 METAR KPAE 151753Z 33004KT 10SM CLR 17/12 A3013 RMK AO2 SLP201 T01670117 10172 20111 58002=
200907151653 METAR KPAE 151653Z VRB03KT 9SM CLR 15/12 A3013 RMK AO2 SLP203 T01500117=
200907151623 SPECI KPAE 151623Z VRB03KT 7SM SCT003 13/12 A3013 RMK AO2=
200907151623 SPECI KPAE 151623Z VRB03KT 7SM SCT003 13/12 A3013 RMK AO2=
200907151558 SPECI KPAE 151558Z 00000KT 3SM BR OVC001 13/12 A3013 RMK AO2=
200907151558 SPECI KPAE 151558Z 00000KT 3SM BR OVC001 13/12 A3013 RMK AO2=
200907151553 METAR KPAE 151553Z 00000KT 1SM BR OVC001 12/12 A3013 RMK AO2 SLP204 T01220117 RVRNO=
200907151550 SPECI KPAE 151550Z 00000KT 3/4SM BR OVC001 12/12 A3013 RMK AO2 RVRNO=
200907151550 SPECI KPAE 151550Z 00000KT 3/4SM BR OVC001 12/12 A3013 RMK AO2 RVRNO=
200907151453 METAR KPAE 151453Z 00000KT M1/4SM FG VV001 11/11 A3013 RMK AO2 SLP201 T01110111 52003 RVRNO=
200907151353 METAR KPAE 151353Z AUTO 00000KT M1/4SM FG VV001 11/11 A3013 RMK AO2 SLP201 T01110111 RVRNO=
200907151253 METAR KPAE 151253Z AUTO 00000KT M1/4SM FG VV001 11/11 A3012 RMK AO2 SLP198 T01110106 RVRNO=
200907151153 METAR KPAE 151153Z AUTO VRB03KT M1/4SM FG VV001 11/11 A3012 RMK AO2 SLP198 T01110111 10128 20111 53000 RVRNO=
200907151053 METAR KPAE 151053Z AUTO VRB04KT 1/4SM FG VV001 12/11 A3011 RMK AO2 SLP196 T01170111 RVRNO=
200907151011 SPECI KPAE 151011Z AUTO 01005KT 1/4SM FG VV001 12/11 A3012 RMK AO2 RVRNO=
200907151011 SPECI KPAE 151011Z AUTO 01005KT 1/4SM FG VV001 12/11 A3012 RMK AO2 RVRNO=
200907151009 SPECI KPAE 151009Z AUTO 01004KT 1/2SM FG OVC002 12/11 A3012 RMK AO2 RVRNO=
200907151009 SPECI KPAE 151009Z AUTO 01004KT 1/2SM FG OVC002 12/11 A3012 RMK AO2 RVRNO=
200907151002 SPECI KPAE 151002Z AUTO 01005KT 1SM BR OVC002 12/11 A3012 RMK AO2 VIS 1/2V3 RVRNO=
200907151002 SPECI KPAE 151002Z AUTO 01005KT 1SM BR OVC002 12/11 A3012 RMK AO2 VIS 1/2V3 RVRNO=
200907150953 METAR KPAE 150953Z AUTO 00000KT 2 1/2SM BR OVC002 12/11 A3012 RMK AO2 SLP198 T01170111=
200907150853 METAR KPAE 150853Z AUTO 36005KT 7SM OVC002 12/11 A3012 RMK AO2 SLP199 T01170106 56002=
200907150803 SPECI KPAE 150803Z AUTO 36006KT 9SM BKN002 12/11 A3012 RMK AO2=
200907150803 SPECI KPAE 150803Z AUTO 36006KT 9SM BKN002 12/11 A3012 RMK AO2=
200907150753 METAR KPAE 150753Z AUTO 36005KT 9SM SCT002 12/11 A3012 RMK AO2 SLP199 T01170106 402000117=
200907150724 SPECI KPAE 150724Z AUTO 35004KT 10SM FEW002 12/11 A3012 RMK AO2=
200907150724 SPECI KPAE 150724Z AUTO 35004KT 10SM FEW002 12/11 A3012 RMK AO2=
200907150653 METAR KPAE 150653Z AUTO 02004KT 10SM CLR 12/11 A3011 RMK AO2 SLP197 T01220106=
200907150553 METAR KPAE 150553Z AUTO 36003KT 10SM CLR 13/11 A3013 RMK AO2 SLP201 T01280106 10200 20128 53000=
200907150453 METAR KPAE 150453Z AUTO 00000KT 10SM CLR 14/11 A3013 RMK AO2 SLP202 T01390111=
200907150353 METAR KPAE 150353Z AUTO 00000KT 10SM CLR 17/12 A3012 RMK AO2 SLP198 T01670117=
200907150253 METAR KPAE 150253Z 00000KT 10SM CLR 19/11 A3012 RMK AO2 SLP200 T01890106 56009=
200907150153 METAR KPAE 150153Z 26004KT 10SM CLR 19/11 A3013 RMK AO2 SLP200 T01940106=
200907150053 METAR KPAE 150053Z 30006KT 10SM CLR 19/11 A3014 RMK AO2 SLP204 T01940111=
200907142353 METAR KPAE 142353Z 30006KT 10SM CLR 19/11 A3015 RMK AO2 SLP209 T01940111 10200 20150 56013=
200907142253 METAR KPAE 142253Z 28007KT 10SM CLR 19/11 A3017 RMK AO2 SLP214 T01890111=
200907142153 METAR KPAE 142153Z 29006KT 10SM CLR 18/12 A3018 RMK AO2 SLP218 T01830117=
200907142053 METAR KPAE 142053Z 28006KT 10SM FEW017 17/11 A3019 RMK AO2 SLP223 T01670111 58010=
200907141953 METAR KPAE 141953Z 28006KT 10SM OVC017 16/11 A3020 RMK AO2 SLP227 T01610111=
200907141853 METAR KPAE 141853Z 30005KT 10SM OVC017 15/10 A3022 RMK AO2 SLP233 T01500100=
200907141753 METAR KPAE 141753Z VRB03KT 10SM OVC017 16/11 A3022 RMK AO2 SLP235 T01560106 10156 20117 58006=
200907141653 METAR KPAE 141653Z 34004KT 10SM OVC019 13/10 A3023 RMK AO2 SLP237 T01330100=
200907141553 METAR KPAE 141553Z VRB03KT 10SM FEW008 OVC019 13/10 A3024 RMK AO2 SLP239 T01330100=
200907141533 SPECI KPAE 141533Z 03005KT 10SM FEW008 OVC019 13/10 A3024 RMK AO2=
200907141533 SPECI KPAE 141533Z 03005KT 10SM FEW008 OVC019 13/10 A3024 RMK AO2=
200907141453 METAR KPAE 141453Z 36005KT 10SM OVC019 12/10 A3024 RMK AO2 SLP241 T01220100 56001=
200907141353 METAR KPAE 141353Z 35004KT 10SM OVC021 12/10 A3024 RMK AO2 SLP242 T01170100=
200907141253 METAR KPAE 141253Z AUTO 34003KT 10SM BKN023 OVC055 12/10 A3024 RMK AO2 SLP241 T01170100=
200907141153 METAR KPAE 141153Z AUTO 35004KT 10SM FEW008 OVC023 12/10 A3025 RMK AO2 SLP242 70004 T01170100 10133 20117 55000=
200907141053 METAR KPAE 141053Z AUTO 35005KT 10SM SCT015 OVC021 12/10 A3024 RMK AO2 SLP242 T01220100=
200907141023 SPECI KPAE 141023Z AUTO 35006KT 10SM FEW015 BKN023 OVC041 12/10 A3024 RMK AO2=
200907141023 SPECI KPAE 141023Z AUTO 35006KT 10SM FEW015 BKN023 OVC041 12/10 A3024 RMK AO2=
200907140953 METAR KPAE 140953Z AUTO 36004KT 10SM FEW021 OVC041 12/10 A3024 RMK AO2 SLP242 T01220100=
200907140950 SPECI KPAE 140950Z AUTO 36006KT 10SM FEW021 OVC041 12/10 A3025 RMK AO2=
200907140950 SPECI KPAE 140950Z AUTO 36006KT 10SM FEW021 OVC041 12/10 A3025 RMK AO2=
200907140853 METAR KPAE 140853Z AUTO 01004KT 10SM BKN019 BKN029 OVC040 13/10 A3025 RMK AO2 SLP243 T01280100 58003=
200907140803 SPECI KPAE 140803Z AUTO VRB05KT 10SM FEW017 BKN027 OVC038 13/10 A3025 RMK AO2=
200907140803 SPECI KPAE 140803Z AUTO VRB05KT 10SM FEW017 BKN027 OVC038 13/10 A3025 RMK AO2=
200907140753 METAR KPAE 140753Z AUTO 01004KT 10SM SCT027 OVC038 13/11 A3025 RMK AO2 SLP245 T01330106 401670122=
200907140653 METAR KPAE 140653Z AUTO 01003KT 10SM FEW020 OVC032 13/11 A3026 RMK AO2 SLP247 T01280106=
200907140644 SPECI KPAE 140644Z AUTO 35003KT 10SM SCT020 OVC030 13/11 A3026 RMK AO2=
200907140644 SPECI KPAE 140644Z AUTO 35003KT 10SM SCT020 OVC030 13/11 A3026 RMK AO2=
200907140635 SPECI KPAE 140635Z AUTO 00000KT 10SM SCT020 BKN026 OVC032 13/11 A3026 RMK AO2=
200907140635 SPECI KPAE 140635Z AUTO 00000KT 10SM SCT020 BKN026 OVC032 13/11 A3026 RMK AO2=
200907140553 METAR KPAE 140553Z AUTO VRB03KT 10SM FEW024 BKN030 OVC038 13/11 A3026 RMK AO2 SLP246 T01330106 10167 20133 50004=
200907140543 SPECI KPAE 140543Z AUTO VRB03KT 10SM SCT022 OVC030 13/11 A3026 RMK AO2=
200907140543 SPECI KPAE 140543Z AUTO VRB03KT 10SM SCT022 OVC030 13/11 A3026 RMK AO2=
200907140522 SPECI KPAE 140522Z AUTO 02005KT 10SM BKN022 OVC033 13/11 A3026 RMK AO2=
200907140522 SPECI KPAE 140522Z AUTO 02005KT 10SM BKN022 OVC033 13/11 A3026 RMK AO2=
200907140508 SPECI KPAE 140508Z AUTO 36003KT 10SM SCT022 BKN030 OVC036 14/11 A3026 RMK AO2=
200907140508 SPECI KPAE 140508Z AUTO 36003KT 10SM SCT022 BKN030 OVC036 14/11 A3026 RMK AO2=
200907140453 METAR KPAE 140453Z AUTO 36005KT 10SM BKN022 BKN028 OVC035 14/11 A3026 RMK AO2 SLP247 T01390111=
200907140353 METAR KPAE 140353Z AUTO 00000KT 10SM BKN026 OVC044 16/12 A3024 RMK AO2 SLP241 T01560117=
200907140333 SPECI KPAE 140333Z 00000KT 10SM BKN024 OVC044 16/12 A3024 RMK AO2=
200907140333 SPECI KPAE 140333Z 00000KT 10SM BKN024 OVC044 16/12 A3024 RMK AO2=
200907140253 METAR KPAE 140253Z 10003KT 10SM FEW020 OVC042 16/12 A3025 RMK AO2 SLP242 T01560117 51002=
200907140206 METAR KPAE 140206Z 00000KT 10SM BKN019 OVC028 16/12 A3024=
200907140153 METAR KPAE 140153Z 00000KT 10SM BKN019 OVC028 16/12 A3024 RMK AO2 SLP241 T01560117=
200907140133 SPECI KPAE 140133Z 34003KT 10SM BKN028 BKN035 OVC046 16/12 A3024 RMK AO2=
200907140133 SPECI KPAE 140133Z 34003KT 10SM BKN028 BKN035 OVC046 16/12 A3024 RMK AO2=
200907140053 METAR KPAE 140053Z 24004KT 10SM FEW026 OVC034 16/12 A3024 RMK AO2 SLP240 T01610117=
200907140046 SPECI KPAE 140046Z 26003KT 10SM FEW026 BKN032 OVC038 17/12 A3024 RMK AO2=
200907140046 SPECI KPAE 140046Z 26003KT 10SM FEW026 BKN032 OVC038 17/12 A3024 RMK AO2=
200907132353 METAR KPAE 132353Z 24004KT 10SM BKN022 OVC030 15/12 A3025 RMK AO2 SLP242 60002 T01500117 10156 20122 51003=
200907132253 METAR KPAE 132253Z 24005KT 10SM SCT019 OVC026 15/12 A3025 RMK AO2 SLP242 T01500117=
200907132153 METAR KPAE 132153Z 20004KT 10SM OVC024 14/12 A3024 RMK AO2 RAB10E20 SLP241 P0000 T01440122=
200907132121 SPECI KPAE 132121Z 20006KT 6SM BR SCT011 OVC020 14/12 A3024 RMK AO2 RAB10E20 P0000=
200907132121 SPECI KPAE 132121Z 20006KT 6SM BR SCT011 OVC020 14/12 A3024 RMK AO2 RAB10E20 P0000=
200907132110 SPECI KPAE 132110Z 23006KT 3SM -RA BR BKN011 OVC018 14/12 A3024 RMK AO2 RAB10 P0000=
200907132110 SPECI KPAE 132110Z 23006KT 3SM -RA BR BKN011 OVC018 14/12 A3024 RMK AO2 RAB10 P0000=
200907132101 SPECI KPAE 132101Z 23005KT 10SM SCT011 BKN017 OVC029 14/12 A3024 RMK AO2=
200907132101 SPECI KPAE 132101Z 23005KT 10SM SCT011 BKN017 OVC029 14/12 A3024 RMK AO2=
200907132053 METAR KPAE 132053Z 25003KT 10SM SCT009 BKN016 OVC028 14/12 A3024 RMK AO2 SLP239 60002 T01440122 51003=
200907132022 SPECI KPAE 132022Z 19008KT 10SM SCT009 BKN016 OVC028 14/12 A3023 RMK AO2=
200907132022 SPECI KPAE 132022Z 19008KT 10SM SCT009 BKN016 OVC028 14/12 A3023 RMK AO2=
200907132017 SPECI KPAE 132017Z 21006KT 10SM SCT009 BKN016 OVC028 14/12 A3023=
200907132017 SPECI KPAE 132017Z 21006KT 10SM SCT009 BKN016 OVC028 14/12 A3023=
200907131953 METAR KPAE 131953Z 23006KT 7SM SCT004 BKN009 OVC028 13/12 A3024 RMK AO2 RAE16 SLP239 P0001 T01330122=
200907131940 SPECI KPAE 131940Z 21007KT 9SM FEW004 BKN018 OVC028 13/12 A3024 RMK AO2 RAE16 P0001=
200907131940 SPECI KPAE 131940Z 21007KT 9SM FEW004 BKN018 OVC028 13/12 A3024 RMK AO2 RAE16 P0001=
200907131923 SPECI KPAE 131923Z 22005KT 3SM BR FEW004 BKN013 OVC019 13/12 A3023 RMK AO2 RAE16 P0001=
200907131923 SPECI KPAE 131923Z 22005KT 3SM BR FEW004 BKN013 OVC019 13/12 A3023 RMK AO2 RAE16 P0001=
200907131916 SPECI KPAE 131916Z 21004KT 2 1/2SM BR FEW004 BKN013 OVC019 12/12 A3023 RMK AO2 RAE16 P0001=
200907131916 SPECI KPAE 131916Z 21004KT 2 1/2SM BR FEW004 BKN013 OVC019 12/12 A3023 RMK AO2 RAE16 P0001=
200907131853 METAR KPAE 131853Z 24005KT 2 1/2SM -RA BR BKN006 OVC011 12/12 A3023 RMK AO2 VIS 1 3/4V4 CIG 001V009 SLP236 P0001 T01220117=
200907131810 SPECI KPAE 131810Z 20007KT 2SM BR BKN006 OVC011 13/12 A3021 RMK AO2 RAE03 P0000=
200907131810 SPECI KPAE 131810Z 20007KT 2SM BR BKN006 OVC011 13/12 A3021 RMK AO2 RAE03 P0000=
200907131753 METAR KPAE 131753Z 19008KT 2SM -RA BR SCT006 OVC011 13/12 A3021 RMK AO2 RAB42 SLP230 P0000 60002 T01280117 10128 20122=
200907131748 SPECI KPAE 131748Z 20009KT 1 3/4SM -RA BR BKN008 OVC013 13/12 A3021 RMK AO2 RAB42 CIG 004V012 P0000=
200907131748 SPECI KPAE 131748Z 20009KT 1 3/4SM -RA BR BKN008 OVC013 13/12 A3021 RMK AO2 RAB42 CIG 004V012 P0000=
200907131742 SPECI KPAE 131742Z 19010KT 2SM -RA BR FEW005 OVC010 13/12 A3021 RMK AO2 RAB42 CIG 007V015 P0000=
200907131742 SPECI KPAE 131742Z 19010KT 2SM -RA BR FEW005 OVC010 13/12 A3021 RMK AO2 RAB42 CIG 007V015 P0000=
200907131728 METAR KPAE 131728Z 18008KT 4SM BR BKN006 OVC012 12/11 A3021=
200907131708 SPECI KPAE 131708Z 20007KT 4SM BR BKN006 OVC012 12/11 A3021 RMK AO2 $=
200907131708 SPECI KPAE 131708Z 20007KT 4SM BR BKN006 OVC012 12/11 A3021 RMK AO2 $=
200907131653 METAR KPAE 131653Z 21011KT 7SM OVC010 12/11 A3020 RMK AO2 SLP256 T01220106 $=
200907131553 METAR KPAE 131553Z 20007KT 10SM OVC012 13/11 A3020 RMK AO2 SLP256 T01280106 $=
200907131453 METAR KPAE 131453Z 19010KT 10SM OVC010 12/11 RMK AO2 RAB12E23 CIG 008V014 SLPNO P0000 60002 T01220106 $=
200907131353 METAR KPAE 131353Z AUTO 18010KT 9SM OVC010 12/11 A3017 RMK AO2 RAE25 CIG 007V012 SLP216 P0001 T01220106=
200907131253 METAR KPAE 131253Z AUTO 18012KT 9SM -RA OVC012 12/11 A3014 RMK AO2 SLP206 P0001 T01220106=
200907131153 METAR KPAE 131153Z AUTO 15005KT 7SM -RA OVC012 12/11 A3016 RMK AO2 SLP212 P0003 60003 70031 T01220106 10133 20122 53007=
200907131145 SPECI KPAE 131145Z AUTO 15005KT 8SM -RA OVC012 12/11 A3016 RMK AO2 P0003=
200907131145 SPECI KPAE 131145Z AUTO 15005KT 8SM -RA OVC012 12/11 A3016 RMK AO2 P0003=
200907131053 METAR KPAE 131053Z AUTO 20007KT 10SM -RA FEW012 BKN019 OVC024 13/11 A3013 RMK AO2 RAB40 SLP204 P0000 T01280111=
200907131051 SPECI KPAE 131051Z AUTO 20009KT 10SM -RA SCT012 OVC021 13/11 A3013 RMK AO2 RAB40 P0000=
200907131051 SPECI KPAE 131051Z AUTO 20009KT 10SM -RA SCT012 OVC021 13/11 A3013 RMK AO2 RAB40 P0000=
200907130953 METAR KPAE 130953Z AUTO 17005KT 10SM SCT009 BKN012 OVC019 13/11 A3014 RMK AO2 SLP206 T01280111=
200907130951 SPECI KPAE 130951Z AUTO 18005KT 10SM BKN010 OVC016 13/11 A3014 RMK AO2 CIG 008V012=
200907130951 SPECI KPAE 130951Z AUTO 18005KT 10SM BKN010 OVC016 13/11 A3014 RMK AO2 CIG 008V012=
200907130918 SPECI KPAE 130918Z AUTO 20010KT 10SM SCT010 OVC022 13/11 A3012 RMK AO2=
200907130918 SPECI KPAE 130918Z AUTO 20010KT 10SM SCT010 OVC022 13/11 A3012 RMK AO2=
200907130853 METAR KPAE 130853Z AUTO 22008KT 10SM OVC010 13/12 A3011 RMK AO2 CIG 006V011 SLP197 T01280117 56002=
200907130837 SPECI KPAE 130837Z AUTO 21011KT 10SM BKN010 OVC017 13/12 A3012 RMK AO2 CIG 007V013=
200907130837 SPECI KPAE 130837Z AUTO 21011KT 10SM BKN010 OVC017 13/12 A3012 RMK AO2 CIG 007V013=
200907130753 METAR KPAE 130753Z AUTO 21009KT 10SM FEW008 OVC017 13/12 A3012 RMK AO2 SLP198 T01330117 401720128=
200907130744 SPECI KPAE 130744Z AUTO 20009KT 10SM SCT008 BKN012 OVC017 13/12 A3012 RMK AO2=
200907130744 SPECI KPAE 130744Z AUTO 20009KT 10SM SCT008 BKN012 OVC017 13/12 A3012 RMK AO2=
200907130733 SPECI KPAE 130733Z AUTO 19007KT 10SM BKN008 OVC015 13/12 A3013 RMK AO2 CIG 006V011=
200907130733 SPECI KPAE 130733Z AUTO 19007KT 10SM BKN008 OVC015 13/12 A3013 RMK AO2 CIG 006V011=
200907130725 SPECI KPAE 130725Z AUTO 21007KT 10SM BKN010 OVC015 13/12 A3012 RMK AO2 CIG 007V013=
200907130725 SPECI KPAE 130725Z AUTO 21007KT 10SM BKN010 OVC015 13/12 A3012 RMK AO2 CIG 007V013=
200907130653 METAR KPAE 130653Z AUTO 21007KT 10SM FEW010 OVC015 13/12 A3012 RMK AO2 SLP199 T01330117=
200907130646 SPECI KPAE 130646Z AUTO 21008KT 10SM BKN015 OVC039 13/12 A3012 RMK AO2=
200907130646 SPECI KPAE 130646Z AUTO 21008KT 10SM BKN015 OVC039 13/12 A3012 RMK AO2=
200907130553 METAR KPAE 130553Z AUTO 19011KT 10SM OVC011 13/12 A3011 RMK AO2 RAE28 SLP197 P0003 60025 T01330122 10172 20133 53002=
200907130502 SPECI KPAE 130502Z AUTO 19007KT 3SM RA BR SCT009 BKN014 OVC020 13/13 A3012 RMK AO2 P0002=
200907130502 SPECI KPAE 130502Z AUTO 19007KT 3SM RA BR SCT009 BKN014 OVC020 13/13 A3012 RMK AO2 P0002=
200907130453 METAR KPAE 130453Z AUTO 20008KT 3SM RA BR BKN009 BKN014 OVC021 13/12 A3011 RMK AO2 SLP197 P0017 T01330122=
200907130353 METAR KPAE 130353Z AUTO 17010KT 7SM -RA BKN007 BKN012 OVC060 14/13 A3010 RMK AO2 SLP193 P0004 T01390128=
200907130334 SPECI KPAE 130334Z 17008KT 9SM -RA FEW008 BKN012 OVC065 14/13 A3010 RMK AO2 P0001=
200907130334 SPECI KPAE 130334Z 17008KT 9SM -RA FEW008 BKN012 OVC065 14/13 A3010 RMK AO2 P0001=
200907130253 METAR KPAE 130253Z 20009KT 7SM -RA BKN010 BKN018 OVC026 14/13 A3011 RMK AO2 TSB11E40RAB09 SLP195 P0001 60001 T01440128 53006=
200907130246 SPECI KPAE 130246Z 19010KT 10SM -RA BKN008 BKN012 OVC017 14/13 A3011 RMK AO2 TSB11E40RAB09 P0000=
200907130246 SPECI KPAE 130246Z 19010KT 10SM -RA BKN008 BKN012 OVC017 14/13 A3011 RMK AO2 TSB11E40RAB09 P0000=
200907130236 SPECI KPAE 130236Z 17008KT 10SM -TSRA SCT008 BKN012 OVC110 14/13 A3011 RMK AO2 LTG DSNT S TSB11RAB09 P0000=
200907130236 SPECI KPAE 130236Z 17008KT 10SM -TSRA SCT008 BKN012 OVC110 14/13 A3011 RMK AO2 LTG DSNT S TSB11RAB09 P0000=
200907130229 SPECI KPAE 130229Z 18008KT 10SM -TSRA SCT008 BKN017 OVC110 14/13 A3011 RMK AO2 LTG DSNT S TSB11RAB09 P0000=
200907130229 SPECI KPAE 130229Z 18008KT 10SM -TSRA SCT008 BKN017 OVC110 14/13 A3011 RMK AO2 LTG DSNT S TSB11RAB09 P0000=
200907130217 SPECI KPAE 130217Z 18010KT 10SM VCTS -RA BKN010 BKN015 OVC110 14/13 A3011 RMK AO2 LTG DSNT NE-S TSB11RAB09 CIG 006V012 P0000=
200907130217 SPECI KPAE 130217Z 18010KT 10SM VCTS -RA BKN010 BKN015 OVC110 14/13 A3011 RMK AO2 LTG DSNT NE-S TSB11RAB09 CIG 006V012 P0000=
200907130153 METAR KPAE 130153Z 19010KT 10SM BKN010 OVC013 15/12 A3010 RMK AO2 LTG DSNT E CIG 008V012 SLP193 T01500122=
200907130139 SPECI KPAE 130139Z 19010KT 10SM OVC010 15/12 A3010 RMK AO2=
200907130139 SPECI KPAE 130139Z 19010KT 10SM OVC010 15/12 A3010 RMK AO2=
200907130053 METAR KPAE 130053Z 19012KT 10SM OVC016 15/12 A3009 RMK AO2 LTG DSNT S SLP189 T01500117=
200907122353 METAR KPAE 122353Z 20010KT 10SM BKN020 OVC025 17/12 A3009 RMK AO2 SLP187 60002 T01720122 10172 20139 53005=
200907122253 METAR KPAE 122253Z 24011KT 10SM BKN018 16/12 A3007 RMK AO2 SLP183 T01610122=
200907122153 METAR KPAE 122153Z 23009KT 10SM BKN016 OVC020 16/12 A3007 RMK AO2 SLP182 T01560122=
200907122149 SPECI KPAE 122149Z 24007KT 10SM OVC016 15/12 A3007 RMK AO2=
200907122149 SPECI KPAE 122149Z 24007KT 10SM OVC016 15/12 A3007 RMK AO2=
200907122053 METAR KPAE 122053Z 24006KT 10SM OVC014 16/13 A3007 RMK AO2 RAE1959B19E37 SLP182 P0000 60002 T01560128 51002=
200907121953 METAR KPAE 121953Z 17005KT 10SM -RA OVC014 14/12 A3007 RMK AO2 RAE1856B16E27B44 SLP182 P0000 T01440122=
200907121940 SPECI KPAE 121940Z 16005KT 10SM BKN014 BKN110 14/12 A3008 RMK AO2 RAE1856B16E27 P0000=
200907121940 SPECI KPAE 121940Z 16005KT 10SM BKN014 BKN110 14/12 A3008 RMK AO2 RAE1856B16E27 P0000=
200907121916 SPECI KPAE 121916Z 19005KT 10SM -RA SCT014 OVC110 14/12 A3008 RMK AO2 RAE1856B16 P0000=
200907121916 SPECI KPAE 121916Z 19005KT 10SM -RA SCT014 OVC110 14/12 A3008 RMK AO2 RAE1856B16 P0000=
200907121853 METAR KPAE 121853Z 20010KT 10SM -RA BKN010 OVC017 14/12 A3008 RMK AO2 RAB17 SLP184 P0002 T01390122=
200907121753 METAR KPAE 121753Z 16011KT 10SM OVC010 14/12 A3007 RMK AO2 RAE26 CIG 007V014 SLP181 P0001 60001 T01440122 10144 20128 51013=
200907121653 METAR KPAE 121653Z 20008KT 10SM -RA OVC010 14/12 A3006 RMK AO2 RAB38 SLP177 P0000 T01390117=
200907121612 SPECI KPAE 121612Z 20014KT 10SM OVC010 14/11 A3006 RMK AO2=
200907121612 SPECI KPAE 121612Z 20014KT 10SM OVC010 14/11 A3006 RMK AO2=
200907121553 METAR KPAE 121553Z 18010KT 10SM OVC008 14/11 A3004 RMK AO2 SLP172 T01390111=
200907121453 METAR KPAE 121453Z 21008KT 10SM OVC006 13/12 A3003 RMK AO2 SLP166 T01330117 53003=
200907121353 METAR KPAE 121353Z 20005KT 10SM OVC006 13/11 A3001 RMK AO2 SLP160 T01330111=
200907121253 METAR KPAE 121253Z AUTO 21005KT 10SM OVC004 13/12 A3002 RMK AO2 SLP165 T01280117=
200907121153 METAR KPAE 121153Z AUTO 19008KT 10SM OVC004 13/12 A3002 RMK AO2 SLP163 T01330117 10206 20128 53000=
200907121053 METAR KPAE 121053Z AUTO 19012KT 9SM BKN004 13/12 A3001 RMK AO2 SLP160 T01330117=
200907121049 SPECI KPAE 121049Z AUTO 19013KT 9SM SCT004 13/12 A3001 RMK AO2=
200907121049 SPECI KPAE 121049Z AUTO 19013KT 9SM SCT004 13/12 A3001 RMK AO2=
200907120953 METAR KPAE 120953Z AUTO 17005KT 10SM CLR 15/12 A3002 RMK AO2 SLP161 T01500117=
200907120853 METAR KPAE 120853Z AUTO 18006KT 10SM CLR 16/12 A3002 RMK AO2 LTG DSNT W SLP162 T01610122 51005=
200907120753 METAR KPAE 120753Z AUTO 00000KT 10SM CLR 16/12 A3001 RMK AO2 SLP160 T01610122 402670133=
200907120653 METAR KPAE 120653Z AUTO 19003KT 10SM CLR 19/11 A3001 RMK AO2 SLP160 T01940106=
200907120553 METAR KPAE 120553Z AUTO 06003KT 10SM CLR 20/11 A3000 RMK AO2 LTG DSNT W SLP156 T02000106 10261 20194 51012=
200907120453 METAR KPAE 120453Z AUTO 00000KT 10SM CLR 21/11 A3000 RMK AO2 LTG DSNT W AND NW SLP155 T02060111=
200907120353 METAR KPAE 120353Z AUTO 24005KT 10SM CLR 21/12 A2999 RMK AO2 LTG DSNT SW AND NW SLP152 T02060117=
200907120253 METAR KPAE 120253Z 00000KT 10SM CLR 23/11 A2997 RMK AO2 SLP145 T02280106 53005=
200907120153 METAR KPAE 120153Z 33005KT 10SM CLR 24/12 A2996 RMK AO2 SLP141 T02440117=
200907120053 METAR KPAE 120053Z 34006KT 10SM CLR 26/12 A2995 RMK AO2 SLP139 T02560122=
200907112353 METAR KPAE 112353Z 34006KT 10SM CLR 25/13 A2995 RMK AO2 SLP141 T02500128 10267 20217 56011=
200907112253 METAR KPAE 112253Z 36009G16KT 10SM CLR 27/13 A2996 RMK AO2 SLP142 T02670128=
200907112153 METAR KPAE 112153Z 34010G15KT 10SM CLR 25/13 A2997 RMK AO2 SLP146 T02500128=
200907112053 METAR KPAE 112053Z 36007G14KT 10SM CLR 24/13 A2999 RMK AO2 SLP152 T02440128 56014=
200907111953 METAR KPAE 111953Z 36008KT 10SM CLR 24/12 A2999 RMK AO2 SLP154 T02440117=
200907111853 METAR KPAE 111853Z VRB04KT 10SM CLR 23/12 A3001 RMK AO2 SLP161 T02280122=
200907111753 METAR KPAE 111753Z 36004KT 10SM CLR 22/12 A3003 RMK AO2 SLP166 T02170122 10217 20133 56003=
200907111653 METAR KPAE 111653Z VRB03KT 10SM CLR 22/12 A3003 RMK AO2 SLP166 T02170122=
200907111553 METAR KPAE 111553Z 02003KT 10SM CLR 18/12 A3004 RMK AO2 SLP169 T01830122=
200907111453 METAR KPAE 111453Z 36004KT 10SM CLR 17/12 A3004 RMK AO2 SLP170 T01720122 50001=
200907111353 METAR KPAE 111353Z AUTO 36003KT 10SM CLR 16/12 A3004 RMK AO2 SLP170 T01560117=
200907111253 METAR KPAE 111253Z AUTO 00000KT 10SM CLR 14/12 A3004 RMK AO2 SLP170 T01390117=
200907111153 METAR KPAE 111153Z AUTO 01004KT 10SM CLR 14/11 A3004 RMK AO2 SLP169 T01390111 10161 20133 58005=
200907111053 METAR KPAE 111053Z AUTO 00000KT 10SM CLR 14/11 A3005 RMK AO2 SLP173 T01440111=
200907110953 METAR KPAE 110953Z AUTO 00000KT 10SM CLR 15/11 A3005 RMK AO2 SLP175 T01500106=
200907110853 METAR KPAE 110853Z AUTO 00000KT 10SM CLR 14/11 A3005 RMK AO2 SLP174 T01440106 51003=
200907110753 METAR KPAE 110753Z AUTO 01004KT 10SM CLR 15/11 A3005 RMK AO2 SLP175 T01500106 402500122=
200907110653 METAR KPAE 110653Z AUTO 36005KT 10SM CLR 16/11 A3005 RMK AO2 SLP173 T01560106=
200907110553 METAR KPAE 110553Z AUTO 36004KT 10SM CLR 16/11 A3004 RMK AO2 SLP172 T01610106 10250 20161 53005=
200907110453 METAR KPAE 110453Z AUTO 35005KT 10SM CLR 18/11 A3004 RMK AO2 SLP169 T01830111=
200907110353 METAR KPAE 110353Z AUTO 35003KT 10SM CLR 19/11 A3003 RMK AO2 SLP167 T01940111=
200907110253 METAR KPAE 110253Z 36004KT 10SM CLR 22/11 A3003 RMK AO2 SLP166 T02170111 56007=
200907110153 METAR KPAE 110153Z 34006KT 10SM CLR 23/11 A3003 RMK AO2 SLP167 T02280111=
200907110053 METAR KPAE 110053Z VRB06KT 10SM CLR 23/12 A3004 RMK AO2 SLP169 T02330117=
200907102353 METAR KPAE 102353Z VRB04KT 10SM CLR 24/12 A3005 RMK AO2 SLP173 T02440117 10250 20189 56018=
200907102253 METAR KPAE 102253Z AUTO 36007KT 10SM CLR 24/12 A3007 RMK AO2 SLP179 T02440117 TSNO=
200907102153 METAR KPAE 102153Z VRB06KT 10SM CLR 24/11 A3008 RMK AO2 SLP185 T02390106=
200907102053 METAR KPAE 102053Z 01006KT 10SM CLR 23/11 A3010 RMK AO2 SLP191 T02280111 56008=
200907101953 METAR KPAE 101953Z 34007KT 310V010 10SM CLR 22/11 A3011 RMK AO2 SLP195 T02170111=
200907101853 METAR KPAE 101853Z 36008KT 10SM CLR 21/11 A3012 RMK AO2 SLP198 T02060106=
200907101753 METAR KPAE 101753Z 33007KT 10SM CLR 19/11 A3013 RMK AO2 SLP201 T01940106 10194 20122 58003=
200907101653 METAR KPAE 101653Z 02003KT 10SM CLR 18/11 A3013 RMK AO2 SLP202 T01830106=
200907101553 METAR KPAE 101553Z VRB03KT 10SM CLR 16/11 A3014 RMK AO2 SLP205 T01560106=
200907101453 METAR KPAE 101453Z 35004KT 10SM CLR 14/11 A3014 RMK AO2 SLP205 T01440106 53004=
200907101353 METAR KPAE 101353Z 00000KT 10SM CLR 13/10 A3013 RMK AO2 SLP200 T01330100=
200907101253 METAR KPAE 101253Z AUTO 03006KT 10SM CLR 12/09 A3012 RMK AO2 SLP199 T01220094=
200907101153 METAR KPAE 101153Z AUTO 36003KT 10SM CLR 12/09 A3013 RMK AO2 SLP200 T01220094 10144 20122 58004=
200907101053 METAR KPAE 101053Z AUTO 00000KT 10SM CLR 13/09 A3013 RMK AO2 SLP203 T01280094=
200907100953 METAR KPAE 100953Z AUTO 02004KT 10SM CLR 13/10 A3013 RMK AO2 SLP203 T01330100=
200907100853 METAR KPAE 100853Z AUTO 36005KT 10SM CLR 13/10 A3014 RMK AO2 SLP204 T01280100 58000=
200907100753 METAR KPAE 100753Z AUTO 35004KT 10SM CLR 13/10 A3014 RMK AO2 SLP206 T01280100 402170117=
200907100653 METAR KPAE 100653Z AUTO 01006KT 10SM CLR 13/10 A3014 RMK AO2 SLP205 T01330100=
200907100553 METAR KPAE 100553Z AUTO 36004KT 10SM CLR 14/11 A3014 RMK AO2 SLP204 T01440106 10211 20144 53004=
200907100453 METAR KPAE 100453Z AUTO 02003KT 10SM CLR 16/10 A3013 RMK AO2 SLP201 T01560100=
200907100353 METAR KPAE 100353Z AUTO 36003KT 10SM CLR 16/11 A3012 RMK AO2 SLP197 T01610106=
200907100253 METAR KPAE 100253Z 34005KT 10SM CLR 18/10 A3013 RMK AO2 SLP200 T01830100 58002=
200907100153 METAR KPAE 100153Z 34005KT 10SM CLR 20/10 A3013 RMK AO2 SLP201 T02000100=
200907100053 METAR KPAE 100053Z 36008KT 10SM CLR 20/10 A3013 RMK AO2 SLP203 T02000100=
200907092353 METAR KPAE 092353Z AUTO VRB06KT 10SM CLR 21/10 A3013 RMK AO2 SLP202 T02110100 10217 20172 56003 TSNO=
200907092253 METAR KPAE 092253Z AUTO VRB05KT 10SM CLR 21/10 A3013 RMK AO2 SLP203 T02060100 TSNO=
200907092153 METAR KPAE 092153Z 31005KT 10SM FEW034 20/10 A3014 RMK AO2 SLP204 T02000100=
200907092053 METAR KPAE 092053Z 32007KT 10SM FEW034 21/11 A3014 RMK AO2 SLP205 T02060106 51003=
200907091953 METAR KPAE 091953Z VRB06KT 10SM FEW049 19/11 A3014 RMK AO2 SLP206 T01890106=
200907091853 METAR KPAE 091853Z 29006KT 10SM FEW046 18/11 A3014 RMK AO2 SLP204 T01830111=
200907091753 METAR KPAE 091753Z VRB03KT 10SM FEW044 18/11 A3013 RMK AO2 SLP203 T01830106 10189 20128 51007=
200907091653 METAR KPAE 091653Z 35003KT 10SM BKN044 16/11 A3013 RMK AO2 SLP202 T01610106=
200907091553 METAR KPAE 091553Z 00000KT 10SM OVC044 15/12 A3012 RMK AO2 SLP199 T01500117=
200907091453 METAR KPAE 091453Z 00000KT 10SM OVC042 14/11 A3011 RMK AO2 SLP195 T01390111 53009=
200907091353 METAR KPAE 091353Z 00000KT 10SM OVC040 13/12 A3010 RMK AO2 SLP191 T01330117=
200907091253 METAR KPAE 091253Z AUTO 00000KT 10SM OVC040 13/11 A3009 RMK AO2 SLP189 T01280111=
200907091153 METAR KPAE 091153Z AUTO 00000KT 10SM OVC040 13/12 A3008 RMK AO2 SLP186 T01280117 10156 20117 56001=
200907091053 METAR KPAE 091053Z AUTO 00000KT 10SM OVC038 13/11 A3008 RMK AO2 SLP186 T01330106=
200907090953 METAR KPAE 090953Z AUTO 24003KT 10SM SCT032 13/10 A3008 RMK AO2 SLP184 T01330100=
200907090853 METAR KPAE 090853Z AUTO 00000KT 10SM OVC031 15/10 A3009 RMK AO2 SLP187 T01500100 58000=
200907090833 SPECI KPAE 090833Z AUTO 14003KT 10SM SCT025 OVC033 15/10 A3009 RMK AO2=
200907090833 SPECI KPAE 090833Z AUTO 14003KT 10SM SCT025 OVC033 15/10 A3009 RMK AO2=
200907090753 METAR KPAE 090753Z AUTO 12003KT 10SM BKN025 OVC033 15/10 A3009 RMK AO2 SLP188 T01500100 401780117=
200907090704 SPECI KPAE 090704Z AUTO 15004KT 10SM SCT023 BKN029 BKN039 14/10 A3009 RMK AO2=
200907090704 SPECI KPAE 090704Z AUTO 15004KT 10SM SCT023 BKN029 BKN039 14/10 A3009 RMK AO2=
200907090653 METAR KPAE 090653Z AUTO VRB03KT 10SM SCT029 BKN039 15/10 A3009 RMK AO2 SLP188 T01500100=
200907090553 METAR KPAE 090553Z AUTO 15004KT 10SM OVC028 15/11 A3009 RMK AO2 RAB18E27 SLP188 P0000 60000 T01500106 10172 20150 50002=
200907090453 METAR KPAE 090453Z AUTO 12004KT 10SM OVC028 16/11 A3009 RMK AO2 SLP188 T01560106=
200907090428 SPECI KPAE 090428Z AUTO 00000KT 10SM OVC028 16/09 A3009 RMK AO2=
200907090428 SPECI KPAE 090428Z AUTO 00000KT 10SM OVC028 16/09 A3009 RMK AO2=
200907090353 METAR KPAE 090353Z AUTO 18005KT 10SM OVC030 16/09 A3008 RMK AO2 SLP186 T01610094=
200907090253 METAR KPAE 090253Z 19007KT 10SM OVC028 16/10 A3009 RMK AO2 RAB11E20 SLP187 P0000 60000 T01610100 51005=
200907090153 METAR KPAE 090153Z 19007KT 10SM OVC028 17/10 A3008 RMK AO2 SLP186 T01670100=
200907090053 METAR KPAE 090053Z 17009KT 10SM OVC028 17/09 A3008 RMK AO2 SLP185 T01670094=
200907082353 METAR KPAE 082353Z 18007KT 10SM OVC030 17/09 A3007 RMK AO2 SLP183 60000 T01720094 10178 20150 53004=
200907082253 METAR KPAE 082253Z 19011KT 10SM BKN030 OVC039 17/09 A3007 RMK AO2 SLP181 T01720089=
200907082153 METAR KPAE 082153Z 18014G17KT 10SM OVC031 17/09 A3006 RMK AO2 SLP180 T01720094=
200907082053 METAR KPAE 082053Z 18011KT 10SM FEW025 BKN031 OVC080 17/09 A3006 RMK AO2 RAB02E32 SLP179 P0000 60000 T01670089 53004=
200907081953 METAR KPAE 081953Z 19013KT 10SM BKN027 BKN031 BKN080 17/09 A3006 RMK AO2 SLP177 T01720089=
200907081853 METAR KPAE 081853Z 19013KT 10SM BKN027 BKN034 OVC060 17/09 A3006 RMK AO2 RAB20E42 SLP177 P0000 T01670094=
200907081753 METAR KPAE 081753Z 17016G20KT 10SM BKN027 OVC031 16/08 A3005 RMK AO2 SLP176 T01610083 10167 20117 51007=
200907081701 SPECI KPAE 081701Z 18012KT 10SM BKN027 BKN048 16/09 A3005 RMK AO2=
200907081701 SPECI KPAE 081701Z 18012KT 10SM BKN027 BKN048 16/09 A3005 RMK AO2=
200907081653 METAR KPAE 081653Z 18012KT 10SM SCT025 SCT029 BKN048 15/09 A3005 RMK AO2 SLP174 T01500089=
200907081553 METAR KPAE 081553Z 16013KT 10SM SCT020 BKN038 OVC095 14/09 A3004 RMK AO2 SLP171 T01440089=
200907081533 SPECI KPAE 081533Z 17009KT 10SM BKN020 OVC040 14/09 A3004 RMK AO2=
200907081533 SPECI KPAE 081533Z 17009KT 10SM BKN020 OVC040 14/09 A3004 RMK AO2=
200907081453 METAR KPAE 081453Z 17009KT 10SM OVC039 13/09 A3003 RMK AO2 SLP168 T01330089 53007=
200907081353 METAR KPAE 081353Z AUTO 16010KT 10SM OVC035 13/09 A3002 RMK AO2 SLP165 T01280089=
200907081253 METAR KPAE 081253Z AUTO 16008KT 10SM SCT030 BKN041 OVC110 12/09 A3001 RMK AO2 SLP162 T01220094=
200907081153 METAR KPAE 081153Z AUTO 17008KT 10SM SCT095 OVC110 12/09 A3001 RMK AO2 SLP161 T01170094 10122 20111 51004=
200907081053 METAR KPAE 081053Z AUTO 17008KT 10SM BKN090 OVC110 12/09 A3000 RMK AO2 SLP159 T01220089=
200907080953 METAR KPAE 080953Z AUTO 18006KT 10SM FEW100 12/09 A3000 RMK AO2 SLP159 T01170089=
200907080853 METAR KPAE 080853Z AUTO 18007KT 10SM OVC090 12/10 A2999 RMK AO2 SLP156 T01220100 58001=
200907080753 METAR KPAE 080753Z AUTO 00000KT 10SM BKN080 12/11 A3000 RMK AO2 SLP159 T01170106 401780111=
200907080653 METAR KPAE 080653Z AUTO 00000KT 10SM BKN070 12/11 A3000 RMK AO2 SLP158 T01170106=
200907080553 METAR KPAE 080553Z AUTO 00000KT 10SM FEW070 12/11 A3000 RMK AO2 SLP158 T01220106 10178 20122 53005=
200907080453 METAR KPAE 080453Z AUTO 27003KT 10SM BKN070 13/11 A2999 RMK AO2 SLP156 T01280106=
200907080353 METAR KPAE 080353Z AUTO 00000KT 10SM FEW049 OVC070 14/11 A2998 RMK AO2 SLP153 T01440106=
200907080253 METAR KPAE 080253Z 26005KT 10SM BKN037 BKN045 OVC070 16/10 A2998 RMK AO2 SLP152 T01560100 55004=
200907080153 METAR KPAE 080153Z 16006KT 10SM BKN040 BKN050 OVC065 17/09 A2998 RMK AO2 SLP151 T01720094=
200907080053 METAR KPAE 080053Z 15006KT 10SM BKN036 OVC046 17/09 A2998 RMK AO2 SLP152 T01720089=
200907072353 METAR KPAE 072353Z 16005KT 10SM OVC032 17/09 A2999 RMK AO2 SLP156 T01670089 10172 20139 58006=
200907072253 METAR KPAE 072253Z 17007KT 10SM BKN034 OVC043 17/09 A3001 RMK AO2 SLP160 T01670089=
200907072153 METAR KPAE 072153Z 15007KT 10SM OVC033 16/08 A3001 RMK AO2 SLP162 T01610083=
200907072053 METAR KPAE 072053Z 17008KT 10SM OVC031 16/08 A3001 RMK AO2 SLP162 T01610083 58000=
200907071953 METAR KPAE 071953Z 16012G15KT 10SM BKN028 OVC034 15/08 A3002 RMK AO2 SLP164 T01500083=
200907071853 METAR KPAE 071853Z 20012KT 10SM BKN024 OVC032 14/09 A3002 RMK AO2 SLP164 T01440089=
200907071753 METAR KPAE 071753Z 16009KT 10SM BKN021 OVC030 14/08 A3001 RMK AO2 RAB18E25 SLP163 P0000 60000 T01390083 10139 20117 55001=
200907071653 METAR KPAE 071653Z 17008KT 10SM BKN018 BKN024 OVC030 13/09 A3001 RMK AO2 RAE03 SLP162 P0000 T01330089=
200907071641 SPECI KPAE 071641Z 16008KT 10SM SCT016 BKN023 OVC029 13/09 A3001 RMK AO2 RAE03 P0000=
200907071641 SPECI KPAE 071641Z 16008KT 10SM SCT016 BKN023 OVC029 13/09 A3001 RMK AO2 RAE03 P0000=
200907071632 SPECI KPAE 071632Z 17010KT 10SM SCT016 OVC031 13/09 A3001 RMK AO2 RAE03 P0000=
200907071632 SPECI KPAE 071632Z 17010KT 10SM SCT016 OVC031 13/09 A3001 RMK AO2 RAE03 P0000=
200907071553 METAR KPAE 071553Z 17011KT 6SM -RA FEW012 BKN019 OVC029 12/09 A3001 RMK AO2 RAB50 SLP163 P0000 T01220094=
200907071522 SPECI KPAE 071522Z 19009KT 10SM SCT019 BKN026 OVC043 13/08 A3001 RMK AO2=
200907071522 SPECI KPAE 071522Z 19009KT 10SM SCT019 BKN026 OVC043 13/08 A3001 RMK AO2=
200907071453 METAR KPAE 071453Z 18011KT 10SM SCT017 OVC039 13/09 A3002 RMK AO2 SLP164 60000 T01280089 50000=
200907071408 SPECI KPAE 071408Z 19010KT 10SM SCT016 OVC036 12/09 A3002 RMK AO2=
200907071408 SPECI KPAE 071408Z 19010KT 10SM SCT016 OVC036 12/09 A3002 RMK AO2=
200907071353 METAR KPAE 071353Z AUTO 19008KT 8SM BKN014 OVC031 12/10 A3002 RMK AO2 RAB06E26 SLP165 P0000 T01170100=
200907071253 METAR KPAE 071253Z AUTO 20007KT 10SM OVC014 12/09 A3002 RMK AO2 SLP165 T01220089=
200907071239 SPECI KPAE 071239Z AUTO 21005KT 10SM OVC014 12/08 A3002 RMK AO2=
200907071239 SPECI KPAE 071239Z AUTO 21005KT 10SM OVC014 12/08 A3002 RMK AO2=
200907071220 SPECI KPAE 071220Z AUTO 20009KT 10SM BKN016 OVC035 12/08 A3002 RMK AO2=
200907071220 SPECI KPAE 071220Z AUTO 20009KT 10SM BKN016 OVC035 12/08 A3002 RMK AO2=
200907071153 METAR KPAE 071153Z AUTO 19011KT 10SM FEW016 OVC035 12/08 A3002 RMK AO2 SLP163 70002 T01220083 10139 20117 56003=
200907071053 METAR KPAE 071053Z AUTO 19009KT 10SM FEW014 OVC030 12/08 A3002 RMK AO2 SLP165 T01220083=
200907071049 SPECI KPAE 071049Z AUTO 18010KT 10SM FEW014 OVC030 12/09 A3002 RMK AO2=
200907071049 SPECI KPAE 071049Z AUTO 18010KT 10SM FEW014 OVC030 12/09 A3002 RMK AO2=
200907070953 METAR KPAE 070953Z AUTO 18009KT 10SM BKN014 OVC029 12/09 A3003 RMK AO2 SLP168 T01220089=
200907070937 SPECI KPAE 070937Z AUTO 18009KT 10SM BKN014 OVC034 12/09 A3003 RMK AO2=
200907070937 SPECI KPAE 070937Z AUTO 18009KT 10SM BKN014 OVC034 12/09 A3003 RMK AO2=
200907070853 METAR KPAE 070853Z AUTO 18008KT 10SM FEW016 OVC030 12/09 A3004 RMK AO2 SLP172 T01220089 56009=
200907070819 SPECI KPAE 070819Z AUTO 19012KT 10SM BKN016 OVC032 13/09 A3004 RMK AO2=
200907070819 SPECI KPAE 070819Z AUTO 19012KT 10SM BKN016 OVC032 13/09 A3004 RMK AO2=
200907070753 METAR KPAE 070753Z AUTO 18010KT 10SM FEW016 BKN035 13/09 A3005 RMK AO2 SLP174 T01280089 401940128=
200907070748 SPECI KPAE 070748Z AUTO 19011KT 10SM SCT016 BKN038 13/09 A3005 RMK AO2 401940128=
200907070748 SPECI KPAE 070748Z AUTO 19011KT 10SM SCT016 BKN038 13/09 A3005 RMK AO2 401940128=
200907070726 SPECI KPAE 070726Z AUTO 19007KT 10SM BKN018 OVC042 13/09 A3006 RMK AO2=
200907070726 SPECI KPAE 070726Z AUTO 19007KT 10SM BKN018 OVC042 13/09 A3006 RMK AO2=
200907070653 METAR KPAE 070653Z AUTO 20007KT 10SM FEW021 OVC040 14/09 A3007 RMK AO2 SLP180 T01390094=
200907070650 SPECI KPAE 070650Z AUTO 19007KT 10SM SCT021 OVC040 14/09 A3007 RMK AO2=
200907070650 SPECI KPAE 070650Z AUTO 19007KT 10SM SCT021 OVC040 14/09 A3007 RMK AO2=
200907070553 METAR KPAE 070553Z AUTO 00000KT 10SM OVC023 13/10 A3007 RMK AO2 SLP184 T01330100 10183 20133 51005=
200907070453 METAR KPAE 070453Z AUTO 35003KT 10SM OVC023 13/10 A3007 RMK AO2 SLP184 T01330100=
200907070353 METAR KPAE 070353Z AUTO 36003KT 10SM OVC025 14/10 A3007 RMK AO2 SLP180 T01390100=
200907070253 METAR KPAE 070253Z 34003KT 10SM OVC029 14/10 A3006 RMK AO2 SLP178 T01440100 53007=
200907070153 METAR KPAE 070153Z 27008KT 10SM BKN038 OVC045 16/10 A3005 RMK AO2 SLP174 T01610100=
200907070053 METAR KPAE 070053Z 23009KT 10SM OVC044 17/10 A3004 RMK AO2 SLP173 T01720100=
200907062353 METAR KPAE 062353Z 19019G25KT 10SM BKN043 OVC060 18/09 A3004 RMK AO2 PK WND 21026/2342 SLP170 60002 T01830094 10194 20139 53004=
200907062253 METAR KPAE 062253Z 19017G26KT 10SM FEW031 BKN049 OVC090 19/11 A3003 RMK AO2 PK WND 19027/2225 RAB2156E07 SLP167 P0000 T01890106=
200907062153 METAR KPAE 062153Z 18017KT 10SM SCT065 SCT080 BKN090 17/12 A3003 RMK AO2 RAE28 SLP167 P0000 T01670117=
200907062053 METAR KPAE 062053Z 18011G20KT 8SM -RA FEW017 SCT030 BKN075 15/12 A3002 RMK AO2 RAB1955 SLP166 P0002 60002 T01500122 51010=
200907062026 SPECI KPAE 062026Z 19014G22KT 6SM -RA SCT020 BKN029 OVC041 15/12 A3002 RMK AO2 RAB1955 P0001=
200907062026 SPECI KPAE 062026Z 19014G22KT 6SM -RA SCT020 BKN029 OVC041 15/12 A3002 RMK AO2 RAB1955 P0001=
200907062000 METAR KPAE NIL=
200907061953 METAR KPAE 061953Z 18016KT 10SM SCT018 BKN030 16/11 A3002 RMK AO2 PK WND 20026/1916 SLP164 T01560106=
200907061853 METAR KPAE 061853Z 20018G27KT 10SM SCT018 OVC030 16/10 A3000 RMK AO2 PK WND 18031/1829 RAE06 SLP158 P0000 T01560100=
200907061753 METAR KPAE 061753Z 19016G24KT 10SM -RA BKN016 OVC022 14/11 A2999 RMK AO2 PK WND 19026/1713 RAB22 SLP155 P0000 60000 T01390111 10156 20139 53011=
200907061653 METAR KPAE 061653Z 19019G28KT 10SM OVC018 14/09 A2998 RMK AO2 PK WND 18028/1648 SLP151 T01440094=
200907061553 METAR KPAE 061553Z 18017G25KT 10SM BKN022 OVC055 16/09 A2997 RMK AO2 SLP146 T01560089=
200907061503 SPECI KPAE 061503Z 18017G23KT 10SM SCT024 OVC050 14/08 A2996 RMK AO2=
200907061503 SPECI KPAE 061503Z 18017G23KT 10SM SCT024 OVC050 14/08 A2996 RMK AO2=
200907061453 METAR KPAE 061453Z 18020KT 10SM SCT024 BKN028 OVC055 14/08 A2996 RMK AO2 PK WND 19027/1440 SLP143 T01440083 51011=
200907061353 METAR KPAE 061353Z 17015G21KT 10SM FEW030 OVC055 14/08 A2995 RMK AO2 PK WND 18027/1322 SLP140 T01440083=
200907061336 SPECI KPAE 061336Z AUTO 19018G24KT 10SM SCT028 OVC055 14/08 A2995 RMK AO2 PK WND 18027/1322 TSNO=
200907061336 SPECI KPAE 061336Z AUTO 19018G24KT 10SM SCT028 OVC055 14/08 A2995 RMK AO2 PK WND 18027/1322 TSNO=
200907061318 SPECI KPAE 061318Z AUTO 18016G24KT 10SM BKN028 OVC050 14/08 A2994 RMK AO2 PK WND 18026/1307 TSNO=
200907061318 SPECI KPAE 061318Z AUTO 18016G24KT 10SM BKN028 OVC050 14/08 A2994 RMK AO2 PK WND 18026/1307 TSNO=
200907061253 METAR KPAE 061253Z AUTO 18020G25KT 10SM FEW030 OVC050 14/09 A2994 RMK AO2 SLP135 T01440089 TSNO=
200907061153 METAR KPAE 061153Z AUTO 17018KT 10SM BKN037 OVC048 15/09 A2993 RMK AO2 SLP130 T01500089 10156 20144 51007 TSNO=
200907061053 METAR KPAE 061053Z AUTO 17011KT 10SM FEW038 OVC049 14/09 A2991 RMK AO2 SLP125 T01440094 TSNO=
200907060953 METAR KPAE 060953Z AUTO 16016KT 10SM SCT041 15/09 A2992 RMK AO2 SLP128 T01500094 TSNO=
200907060853 METAR KPAE 060853Z AUTO 19018G24KT 10SM CLR 14/09 A2990 RMK AO2 PK WND 21028/0802 SLP123 T01440094 50008 TSNO=
200907060753 METAR KPAE 060753Z AUTO 19018G25KT 10SM FEW028 15/09 A2990 RMK AO2 SLP123 T01500094 402890144 TSNO=
200907060745 SPECI KPAE 060745Z AUTO 20017KT 10SM SCT028 15/09 A2990 RMK AO2 TSNO=
200907060745 SPECI KPAE 060745Z AUTO 20017KT 10SM SCT028 15/09 A2990 RMK AO2 TSNO=
200907060734 SPECI KPAE 060734Z AUTO 19017G23KT 10SM BKN028 15/09 A2990 RMK AO2 TSNO=
200907060734 SPECI KPAE 060734Z AUTO 19017G23KT 10SM BKN028 15/09 A2990 RMK AO2 TSNO=
200907060653 METAR KPAE 060653Z AUTO 16014KT 10SM CLR 15/09 A2988 RMK AO2 SLP116 T01500094 TSNO=
200907060553 METAR KPAE 060553Z AUTO 20017G22KT 10SM CLR 16/09 A2988 RMK AO2 SLP115 T01560094 10272 20156 51016 TSNO=
200907060453 METAR KPAE 060453Z AUTO 18012KT 10SM CLR 17/10 A2987 RMK AO2 SLP113 T01720100 TSNO=
200907060353 METAR KPAE 060353Z AUTO 17008KT 10SM CLR 20/09 A2984 RMK AO2 SLP102 T02000094 TSNO=
200907060253 METAR KPAE 060253Z 21008G17KT 10SM CLR 23/07 A2983 RMK AO2 SLP098 T02280072 51004=
200907060153 METAR KPAE 060153Z 19013KT 10SM CLR 24/07 A2983 RMK AO2 SLP097 T02440072=
200907060053 METAR KPAE 060053Z 19016G21KT 10SM CLR 26/10 A2983 RMK AO2 SLP097 T02610100=
200907052353 METAR KPAE 052353Z 22010KT 10SM CLR 27/08 A2982 RMK AO2 SLP094 T02720083 10289 20217 56007=
200907052253 METAR KPAE 052253Z 22010KT 10SM CLR 28/11 A2983 RMK AO2 SLP097 T02830106=
200907052153 METAR KPAE 052153Z 25009KT 10SM CLR 27/11 A2983 RMK AO2 SLP098 T02670106=
200907052053 METAR KPAE 052053Z 27010KT 10SM CLR 26/11 A2984 RMK AO2 SLP101 T02560111 56012=
200907051953 METAR KPAE 051953Z 26005KT 10SM CLR 24/11 A2984 RMK AO2 SLP102 T02440111=
200907051853 METAR KPAE 051853Z 23005KT 10SM CLR 23/11 A2986 RMK AO2 SLP109 T02280111=
200907051753 METAR KPAE 051753Z 25006KT 5SM HZ CLR 22/13 A2988 RMK AO2 SLP114 T02220128 10222 20150 56005=
200907051653 METAR KPAE 051653Z 00000KT 6SM HZ CLR 21/12 A2988 RMK AO2 SLP116 T02110117=
200907051553 METAR KPAE 051553Z 00000KT 6SM HZ CLR 21/12 A2988 RMK AO2 SLP116 T02060117=
200907051453 METAR KPAE 051453Z 00000KT 4SM HZ CLR 18/11 A2989 RMK AO2 SLP119 T01830111 53004=
200907051353 METAR KPAE 051353Z 00000KT 5SM HZ CLR 17/11 A2988 RMK AO2 SLP114 T01670111=
200907051253 METAR KPAE 051253Z AUTO 00000KT 6SM HZ CLR 16/11 A2987 RMK AO2 SLP113 T01610106=
200907051153 METAR KPAE 051153Z AUTO 00000KT 9SM CLR 16/09 A2988 RMK AO2 SLP114 T01560094 10172 20144 58003=
200907051053 METAR KPAE 051053Z AUTO 00000KT 10SM CLR 16/09 A2989 RMK AO2 SLP119 T01610094=
200907050953 METAR KPAE 050953Z AUTO 00000KT 10SM CLR 16/09 A2989 RMK AO2 SLP119 T01610094=
200907050853 METAR KPAE 050853Z AUTO 00000KT 10SM CLR 16/09 A2989 RMK AO2 SLP118 T01610094 56005=
200907050753 METAR KPAE 050753Z AUTO 00000KT 10SM CLR 16/09 A2989 RMK AO2 SLP118 T01610089 402670139=
200907050653 METAR KPAE 050653Z AUTO 03004KT 10SM CLR 17/09 A2990 RMK AO2 SLP121 T01670094=
200907050553 METAR KPAE 050553Z AUTO 01003KT 10SM CLR 17/11 A2990 RMK AO2 SLP124 T01670106 10261 20167 55000=
200907050453 METAR KPAE 050453Z AUTO 00000KT 10SM CLR 18/12 A2990 RMK AO2 SLP123 T01780117=
200907050353 METAR KPAE 050353Z AUTO 35004KT 10SM CLR 20/12 A2990 RMK AO2 SLP121 T02000117=
200907050253 METAR KPAE 050253Z 00000KT 10SM CLR 23/12 A2990 RMK AO2 SLP123 T02280117 56010=
200907050153 METAR KPAE 050153Z VRB03KT 10SM CLR 26/12 A2991 RMK AO2 SLP125 T02560117=
200907050053 METAR KPAE 050053Z 01004KT 10SM CLR 26/12 A2992 RMK AO2 SLP129 T02560122=
200907042353 METAR KPAE 042353Z 01006KT 10SM CLR 25/12 A2994 RMK AO2 SLP134 T02500117 10267 20211 58013=
200907042253 METAR KPAE 042253Z 02006KT 10SM CLR 26/11 A2995 RMK AO2 SLP139 T02610106=
200907042153 METAR KPAE 042153Z VRB05KT 10SM CLR 26/08 A2996 RMK AO2 SLP143 T02610078=
200907042053 METAR KPAE 042053Z 25005KT 10SM CLR 26/09 A2997 RMK AO2 SLP145 T02560089 58010=
200907041953 METAR KPAE 041953Z VRB04KT 10SM CLR 24/09 A2999 RMK AO2 SLP151 T02390094=
200907041853 METAR KPAE 041853Z VRB03KT 10SM CLR 22/09 A3000 RMK AO2 SLP155 T02220089=
200907041753 METAR KPAE 041753Z 28005KT 10SM CLR 21/09 A3001 RMK AO2 SLP157 T02110094 10217 20139 58002=
200907041653 METAR KPAE 041653Z 23003KT 10SM CLR 19/11 A3001 RMK AO2 SLP159 T01940111=
200907041553 METAR KPAE 041553Z 00000KT 10SM CLR 20/11 A3001 RMK AO2 SLP160 T02000111=
200907041453 METAR KPAE 041453Z 00000KT 10SM CLR 18/11 A3001 RMK AO2 SLP159 T01830111 51009=
200907041353 METAR KPAE 041353Z 00000KT 10SM CLR 17/11 A3001 RMK AO2 SLP158 T01670111=
200907041253 METAR KPAE 041253Z AUTO 00000KT 9SM CLR 14/12 A3000 RMK AO2 SLP155 T01440117=
200907041153 METAR KPAE 041153Z AUTO 00000KT 10SM CLR 16/10 A2998 RMK AO2 SLP150 T01610100 10194 20144 51006=
200907041053 METAR KPAE 041053Z AUTO 00000KT 10SM CLR 16/11 A2998 RMK AO2 SLP150 T01610106=
200907040953 METAR KPAE 040953Z AUTO 00000KT 10SM CLR 17/09 A2998 RMK AO2 SLP148 T01720094=
200907040853 METAR KPAE 040853Z AUTO 07006KT 10SM CLR 19/08 A2997 RMK AO2 SLP143 T01940083 50000=
200907040753 METAR KPAE 040753Z AUTO 00000KT 10SM CLR 19/08 A2997 RMK AO2 SLP144 T01890083 402830133=
200907040653 METAR KPAE 040653Z AUTO 00000KT 10SM CLR 17/08 A2997 RMK AO2 SLP146 T01720083=
200907040553 METAR KPAE 040553Z AUTO 01004KT 10SM CLR 19/07 A2997 RMK AO2 SLP144 T01890072 10278 20183 53006=
200907040453 METAR KPAE 040453Z AUTO 35004KT 10SM CLR 19/10 A2996 RMK AO2 SLP143 T01890100=
200907040353 METAR KPAE 040353Z AUTO 36003KT 10SM CLR 22/11 A2995 RMK AO2 SLP137 T02170106=
200907040253 METAR KPAE 040253Z 35004KT 10SM CLR 24/11 A2995 RMK AO2 SLP137 T02440106 55004=
200907040153 METAR KPAE 040153Z 34004KT 10SM CLR 26/11 A2994 RMK AO2 SLP137 T02610106=
200907040053 METAR KPAE 040053Z 30003KT 10SM CLR 27/07 A2995 RMK AO2 SLP137 T02720072=
200907032353 METAR KPAE 032353Z 28005KT 10SM CLR 28/07 A2996 RMK AO2 SLP142 T02780067 10283 20217 56007=
200907032253 METAR KPAE 032253Z VRB05KT 10SM CLR 28/10 A2997 RMK AO2 SLP144 T02780100=
200907032153 METAR KPAE 032153Z 29004KT 10SM CLR 27/11 A2997 RMK AO2 SLP146 T02670111=
200907032053 METAR KPAE 032053Z 29003KT 10SM CLR 26/12 A2998 RMK AO2 SLP148 T02560117 58001=
200907031953 METAR KPAE 031953Z 36004KT 10SM CLR 24/12 A2998 RMK AO2 SLP150 T02440117=
200907031853 METAR KPAE 031853Z 32004KT 10SM CLR 23/11 A2999 RMK AO2 SLP152 T02330111=
200907031753 METAR KPAE 031753Z 34004KT 10SM CLR 22/11 A2998 RMK AO2 SLP150 T02170106 10222 20133 50001=
200907031653 METAR KPAE 031653Z 03004KT 10SM CLR 20/11 A2999 RMK AO2 SLP152 T02000106=
200907031553 METAR KPAE 031553Z 01004KT 10SM CLR 19/11 A2999 RMK AO2 SLP151 T01890106=
200907031453 METAR KPAE 031453Z 33003KT 10SM CLR 18/09 A2998 RMK AO2 SLP149 T01780089 53008=
200907031353 METAR KPAE 031353Z 00000KT 10SM CLR 17/08 A2997 RMK AO2 SLP146 T01670083=
200907031253 METAR KPAE 031253Z AUTO 00000KT 10SM CLR 14/09 A2996 RMK AO2 SLP144 T01390089=
200907031153 METAR KPAE 031153Z AUTO 00000KT 10SM CLR 14/08 A2996 RMK AO2 SLP142 T01390083 10183 20133 51003=
200907031053 METAR KPAE 031053Z AUTO 00000KT 10SM CLR 15/08 A2995 RMK AO2 SLP141 T01500078=
200907030953 METAR KPAE 030953Z AUTO 00000KT 10SM CLR 15/07 A2995 RMK AO2 SLP140 T01500072=
200907030853 METAR KPAE 030853Z AUTO 00000KT 10SM CLR 15/08 A2995 RMK AO2 SLP139 T01500078 50000=
200907030753 METAR KPAE 030753Z AUTO 00000KT 10SM CLR 16/08 A2995 RMK AO2 SLP139 T01610078 402500133=
200907030653 METAR KPAE 030653Z AUTO 02003KT 10SM CLR 18/06 A2995 RMK AO2 SLP139 T01780061=
200907030553 METAR KPAE 030553Z AUTO 00000KT 10SM CLR 18/08 A2995 RMK AO2 SLP139 T01780078 10250 20178 51007=
200907030453 METAR KPAE 030453Z AUTO 34003KT 10SM CLR 19/06 A2994 RMK AO2 SLP137 T01890061=
200907030353 METAR KPAE 030353Z AUTO 00000KT 10SM CLR 21/07 A2993 RMK AO2 SLP134 T02110072=
200907030253 METAR KPAE 030253Z 36004KT 10SM CLR 23/07 A2993 RMK AO2 SLP132 T02280072 55003=
200907030153 METAR KPAE 030153Z VRB04KT 10SM CLR 23/08 A2992 RMK AO2 SLP131 T02330083=
200907030053 METAR KPAE 030053Z 36007KT 10SM CLR 24/09 A2993 RMK AO2 SLP132 T02440094=
200907022353 METAR KPAE 022353Z 36008KT 10SM CLR 25/09 A2994 RMK AO2 SLP135 T02500094 10250 20189 57013=
200907022253 METAR KPAE 022253Z 34008KT 10SM CLR 24/09 A2995 RMK AO2 SLP140 T02390094=
200907022153 METAR KPAE 022153Z 35008KT 10SM CLR 23/09 A2996 RMK AO2 SLP143 T02330089=
200907022053 METAR KPAE 022053Z 36006KT 10SM CLR 23/10 A2998 RMK AO2 SLP148 T02280100 58012=
200907021953 METAR KPAE 021953Z VRB06KT 10SM CLR 22/10 A2999 RMK AO2 SLP152 T02170100=
200907021853 METAR KPAE 021853Z 36006KT 10SM CLR 21/11 A3000 RMK AO2 SLP157 T02060106=
200907021753 METAR KPAE 021753Z VRB05KT 10SM CLR 19/11 A3001 RMK AO2 SLP160 T01940106 10194 20133 56007=
200907021653 METAR KPAE 021653Z 36007KT 10SM CLR 18/10 A3002 RMK AO2 SLP163 T01780100=
200907021553 METAR KPAE 021553Z 36006KT 10SM CLR 16/11 A3003 RMK AO2 SLP165 T01610106=
200907021453 METAR KPAE 021453Z 36007KT 10SM CLR 14/11 A3003 RMK AO2 SLP168 T01440106 50003=
200907021353 METAR KPAE 021353Z 36005KT 10SM CLR 14/10 A3003 RMK AO2 SLP167 T01390100=
200907021253 METAR KPAE 021253Z AUTO VRB04KT 10SM CLR 13/10 A3003 RMK AO2 SLP166 T01330100=
200907021153 METAR KPAE 021153Z AUTO 00000KT 10SM CLR 13/09 A3002 RMK AO2 SLP164 T01330094 10161 20133 53001=
200907021053 METAR KPAE 021053Z AUTO 01006KT 10SM CLR 14/08 A3002 RMK AO2 SLP162 T01440083=
200907020953 METAR KPAE 020953Z AUTO 01007KT 10SM CLR 15/07 A3002 RMK AO2 SLP162 T01500067=
200907020853 METAR KPAE 020853Z AUTO 02005KT 10SM CLR 14/06 A3002 RMK AO2 SLP163 T01440061 58003=
200907020753 METAR KPAE 020753Z AUTO 01004KT 10SM CLR 14/07 A3003 RMK AO2 SLP169 T01390072 402280106=
200907020653 METAR KPAE 020653Z AUTO 36005KT 10SM CLR 14/08 A3003 RMK AO2 SLP166 T01440078=
200907020553 METAR KPAE 020553Z AUTO 35006KT 10SM CLR 16/06 A3003 RMK AO2 SLP167 T01560056 10228 20156 56004=
200907020453 METAR KPAE 020453Z AUTO 34006KT 10SM CLR 16/06 A3003 RMK AO2 SLP168 T01610056=
200907020353 METAR KPAE 020353Z AUTO 36004KT 10SM CLR 19/04 A3003 RMK AO2 SLP166 T01890044 $=
200907020253 METAR KPAE 020253Z 35006KT 10SM CLR 20/06 A3004 RMK AO2 SLP171 T02000061 56008=
200907020153 METAR KPAE 020153Z VRB05G15KT 10SM CLR 21/08 A3004 RMK AO2 SLP171 T02110078=
200907020053 METAR KPAE 020053Z 35005KT 10SM CLR 22/08 A3005 RMK AO2 SLP174 T02170078=
200907012353 METAR KPAE 012353Z 34008KT 10SM CLR 22/07 A3007 RMK AO2 SLP180 T02220072 10228 20172 58013=
200907012253 METAR KPAE 012253Z 36008KT 330V030 10SM CLR 22/06 A3008 RMK AO2 SLP185 T02170061=
200907012153 METAR KPAE 012153Z 35008KT 10SM CLR 22/08 A3010 RMK AO2 SLP190 T02170083=
200907012053 METAR KPAE 012053Z 35007KT 320V030 10SM CLR 21/09 A3010 RMK AO2 SLP193 T02060089 56007=
200907011953 METAR KPAE 011953Z 01006KT 10SM CLR 20/09 A3011 RMK AO2 SLP196 T02000089=
200907011853 METAR KPAE 011853Z VRB05KT 10SM CLR 19/10 A3012 RMK AO2 SLP197 T01890100=
200907011753 METAR KPAE 011753Z 34007KT 300V010 10SM CLR 17/10 A3013 RMK AO2 SLP200 T01670100 10172 20117 58004=
200907011653 METAR KPAE 011653Z VRB04KT 10SM CLR 16/09 A3014 RMK AO2 SLP204 T01610094=
200907011553 METAR KPAE 011553Z 02007KT 330V040 10SM CLR 15/09 A3014 RMK AO2 SLP204 T01500094=
200907011453 METAR KPAE 011453Z VRB05KT 10SM CLR 14/09 A3014 RMK AO2 SLP204 T01390089 53005=
200907011353 METAR KPAE 011353Z VRB05KT 10SM CLR 13/08 A3013 RMK AO2 SLP202 T01280083=
200907011253 METAR KPAE 011253Z AUTO 01003KT 10SM CLR 12/08 A3013 RMK AO2 SLP201 T01170078=
200907011153 METAR KPAE 011153Z AUTO 02008KT 10SM CLR 12/07 A3012 RMK AO2 SLP199 T01220067 10128 20106 51002=
200907011053 METAR KPAE 011053Z AUTO 02005KT 10SM CLR 12/06 A3012 RMK AO2 SLP199 T01220061=
200907010953 METAR KPAE 010953Z AUTO 01004KT 10SM CLR 11/07 A3012 RMK AO2 SLP198 T01060067=
200907010853 METAR KPAE 010853Z AUTO 36004KT 10SM CLR 12/06 A3012 RMK AO2 SLP197 T01170061 57002=
200907010753 METAR KPAE 010753Z AUTO 35004KT 10SM CLR 12/06 A3012 RMK AO2 SLP198 T01220056 402110089=
200907010653 METAR KPAE 010653Z AUTO 35006KT 10SM CLR 13/06 A3012 RMK AO2 SLP198 T01280056=
200907010553 METAR KPAE 010553Z AUTO 35005KT 10SM CLR 13/07 A3012 RMK AO2 SLP200 T01280072 10211 20128 53005=
200907010453 METAR KPAE 010453Z AUTO 35005KT 10SM CLR 14/08 A3011 RMK AO2 SLP197 T01390078=
200907010353 METAR KPAE 010353Z AUTO 35007KT 10SM CLR 16/07 A3010 RMK AO2 SLP193 T01610067=
200907010253 METAR KPAE 010253Z 35007KT 10SM CLR 18/06 A3011 RMK AO2 SLP194 T01830061 55005=
200907010153 METAR KPAE 010153Z 35006KT 10SM CLR 20/06 A3010 RMK AO2 SLP193 T02000061=
200907010053 METAR KPAE 010053Z 36007KT 10SM CLR 21/04 A3011 RMK AO2 SLP195 T02060044=

# No short TAF reports from KPAE in databse.

###################################
#  large TAF from KPAE
###################################
200907312320 TAF KPAE 312320Z 0100/0124 31006KT P6SM SCT250 FM010300 36004KT
                       P6SM SKC FM011200 VRB03KT P6SM SCT005
                      TEMPO 0114/0117 BKN005 FM011800 33006KT P6SM
                       SKC=
200907311741 TAF KPAE 311741Z 3118/0118 30006KT P6SM SCT250 FM010300 36004KT
                       P6SM SKC FM011200 VRB03KT P6SM BKN007=
200907311506 KPAE 311506Z 3115/0112 21004KT P6SM SCT005 FM311600 21004KT P6SM
                       BKN005
                      TEMPO 3116/3120 SCT005 FM312000 23004KT P6SM
                       SCT010 FM312100 32006KT P6SM SKC=
200907311120 TAF KPAE 311120Z 3112/0112 23004KT P6SM SKC FM311300 18005KT 4SM
                       BR OVC002 FM312000 23004KT P6SM SCT010 FM312100
                       32006KT P6SM SKC=
200907310524 TAF KPAE 310524Z 3106/0106 02005KT P6SM SKC FM311300 18005KT 1SM
                       BR OVC002 FM311800 23004KT P6SM SCT010 FM312000
                       32006KT P6SM SKC=
200907302331 TAF KPAE 302331Z 3100/3124 33009KT P6SM SKC FM310500 VRB03KT P6SM
                       SKC FM311300 18005KT 1SM BR OVC001 FM311800
                       23004KT P6SM SCT010 FM312000 32006KT P6SM
                       SKC=
200907301730 TAF KPAE 301730Z 3018/3118 30004KT P6SM SKC FM302200 32008KT P6SM
                       SCT050 SCT200 FM310500 VRB03KT P6SM SKC
                       FM311300 18005KT 1SM BR OVC001=
200907301120 TAF KPAE 301120Z 3012/3112 11006KT P6SM SKC FM302200 32008KT P6SM
                       SCT050=
200907300536 TAF KPAE 300536Z 3006/3106 10005KT P6SM SCT200 FM302200 32008KT
                       P6SM SCT050=
200907292335 TAF KPAE 292335Z 3000/3024 27006KT P6SM FEW060 SCT200 FM300600
                       VRB04KT P6SM SKC FM302200 32008KT P6SM SCT050=
200907291726 TAF KPAE 291726Z 2918/3018 00000KT P6SM FEW060 FM292200 35006KT
                       P6SM SCT060 SCT120 FM300600 04004KT P6SM
                       SKC=
200907291120 TAF KPAE 291120Z 2912/3012 04004KT P6SM SKC FM292200 35006KT P6SM
                       SCT050 FM300600 04004KT P6SM SKC=
200907290520 TAF KPAE 290520Z 2906/3006 01005KT P6SM SKC FM292200 35006KT P6SM
                       SCT050=
200907282320 TAF KPAE 282320Z 2900/2924 01005KT P6SM SKC FM292200 35006KT P6SM
                       SCT050=
200907281720 TAF KPAE 281720Z 2818/2918 35004KT P6SM SKC FM290300 01004KT P6SM
                       SKC=
200907281120 TAF KPAE 281120Z 2812/2912 00000KT P6SM SKC FM282000 33005KT P6SM
                       SKC FM290300 01004KT P6SM SKC=
200907280520 TAF KPAE 280520Z 2806/2906 01003KT P6SM SKC FM282000 35005KT P6SM
                       SKC=
200907272320 TAF KPAE 272320Z 2800/2824 36006KT P6SM SKC FM280400 01003KT P6SM
                       SKC FM282000 35005KT P6SM SKC=
200907271720 TAF KPAE 271720Z 2718/2818 VRB03KT P6SM SKC FM271900 01005KT P6SM
                       SKC=
200907271120 TAF KPAE 271120Z 2712/2812 VRB03KT P6SM SKC FM271900 01005KT P6SM
                       SKC=
200907270520 TAF KPAE 270520Z 2706/2806 02006KT P6SM SCT120 FM270900 VRB03KT
                       P6SM SKC FM271900 01005KT P6SM SKC=
200907262320 TAF KPAE 262320Z 2700/2724 31006KT P6SM SKC FM270300 02006KT P6SM
                       SCT120 FM270900 VRB03KT P6SM SKC FM271900
                       30006KT P6SM SKC=
200907261739 TAF KPAE 261739Z 2618/2718 32004KT P6SM SKC FM270200 02006KT P6SM
                       SCT120
                      TEMPO 2703/2707 BKN100CB FM270900 VRB03KT
                       P6SM SKC=
200907261500 KPAE 261500Z 2615/2712 VRB03KT P6SM SCT010 SCT120
                      TEMPO 2615/2616 2SM BR OVC003 FM261600 34006KT
                       P6SM SCT120 FM270800 02006KT P6SM SKC=
200907261257 KPAE 261257Z 2613/2712 VRB03KT P6SM SCT010 SCT120
                      TEMPO 2613/2616 BKN003 FM261600 34006KT P6SM
                       SCT120 FM270800 02006KT P6SM SKC=
200907261132 TAF KPAE 261132Z 2612/2712 VRB03KT P6SM SCT010 SCT120 FM261500
                       34006KT P6SM SCT120 FM270800 02006KT P6SM
                       SKC=
200907260540 TAF KPAE 260540Z 2606/2706 36006KT P6SM SCT120=
200907260240 KPAE 260240Z 2603/2624 03007KT P6SM -SHRA BKN070CB OVC120 FM260600
                       VRB05KT P6SM VCTS BKN080CB FM261000 VRB05KT
                       P6SM BKN150=
200907252320 TAF KPAE 252320Z 2600/2624 VRB05KT P6SM SCT080 SCT120 FM260300
                       VRB05KT P6SM VCTS BKN080CB FM261000 VRB05KT
                       P6SM BKN150=
200907251742 TAF KPAE 251742Z 2518/2618 VRB03KT P6SM BKN150 FM251900 30006KT
                       P6SM VCTS BKN150CB FM252100 34005KT P6SM
                       BKN150 FM260300 VRB03KT P6SM VCTS BKN150CB
                       FM261200 VRB03KT P6SM BKN150=
200907251301 KPAE 251301Z 2513/2612 VRB03KT P6SM BKN120
                      TEMPO 2513/2517 BKN004 FM251900 35006KT P6SM
                       BKN120=
200907251138 TAF KPAE 251138Z 2512/2612 VRB03KT P6SM BKN120 FM251900 35006KT
                       P6SM BKN120=
200907250536 TAF KPAE 250536Z 2506/2606 VRB03KT P6SM BKN100 FM250900 VRB03KT
                       P6SM BKN200 FM251900 35008KT P6SM SKC=
200907242320 TAF KPAE 242320Z 2500/2524 31007KT P6SM SCT080 FM250400 36004KT
                       P6SM SKC=
200907241740 TAF KPAE 241740Z 2418/2518 30006KT P6SM SCT060 FM250400 36004KT
                       P6SM SKC=
200907241447 KPAE 241447Z 2415/2512 24005KT P6SM BKN005 OVC035 FM241800 30007KT
                       P6SM BKN014 BKN045 FM242000 30007KT P6SM
                       SCT045 FM250400 36004KT P6SM SKC=
200907241120 TAF KPAE 241120Z 2412/2512 VRB03KT P6SM SCT007 BKN025
                      TEMPO 2413/2417 OVC007 FM241800 30007KT P6SM
                       SCT012 FM241900 30007KT P6SM SKC FM250400
                       36004KT P6SM SKC=
200907240814 KPAE 240814Z 2408/2506 19006KT P6SM BKN025 FM241200 VRB03KT P6SM
                       OVC010 FM241900 30007KT P6SM SCT250 FM250400
                       VRB03KT P6SM SKC=
200907240520 TAF KPAE 240520Z 2406/2506 19006KT P6SM SCT250 FM241200 VRB03KT
                       P6SM OVC007 FM241800 30007KT P6SM SCT250
                       FM250400 VRB03KT P6SM SKC=
200907232338 TAF KPAE 232338Z 2400/2424 25010KT P6SM SCT025 FM240200 33006KT
                       P6SM SCT250 FM241200 VRB03KT P6SM OVC007
                       FM241800 30007KT P6SM SCT250=
200907232110 KPAE 232110Z 2321/2418 25010KT P6SM OVC020 FM232300 29006KT P6SM
                       SCT023
                      TEMPO 2323/2403 BKN023 FM240600 01003KT P6SM
                       BKN100 FM241000 VRB03KT P6SM OVC007=
200907231720 TAF KPAE 231720Z 2318/2418 24007KT P6SM OVC011 FM232000 26007KT
                       P6SM BKN014 FM232100 25006KT P6SM SCT018
                       FM232200 32006KT P6SM SCT025 FM240600 01003KT
                       P6SM BKN100 FM241000 VRB03KT P6SM OVC007=
200907231618 KPAE 231618Z 2316/2412 25006KT P6SM OVC007 FM232000 26007KT P6SM
                       BKN010 FM232100 25006KT P6SM SCT016 FM232200
                       32006KT P6SM BKN250 FM240600 01003KT P6SM
                       BKN100 FM240900 VRB03KT P6SM OVC007=
200907231350 KPAE 231350Z 2314/2412 21004KT P6SM OVC005
                      TEMPO 2314/2318 1 1/2SM BR OVC003 FM231800
                       26007KT P6SM SCT008 FM231900 28007KT P6SM
                       SCT250=
200907231134 TAF KPAE 231134Z 2312/2412 21004KT P6SM OVC005 FM231800 26007KT
                       P6SM SCT008 FM231900 28007KT P6SM SCT250=
200907230520 TAF KPAE 230520Z 2306/2406 01003KT P6SM SKC FM230800 21004KT P6SM
                       OVC004 FM231800 26007KT P6SM SCT006 FM231900
                       28007KT P6SM SCT250=
200907230318 KPAE 230318Z 2303/2324 26007KT P6SM SKC FM230400 01003KT P6SM SKC
                       FM230800 21004KT P6SM OVC004 FM231800 26007KT
                       P6SM SCT006 FM231900 28007KT P6SM SCT250=
200907222330 TAF KPAE 222330Z 2300/2324 26007KT P6SM SKC FM230400 01003KT P6SM
                       SKC FM231200 21004KT P6SM OVC004 FM231800
                       26007KT P6SM SCT006 FM231900 28007KT P6SM
                       SCT250=
200907221741 TAF KPAE 221741Z 2218/2318 26009KT P6SM FEW012 FM221900 26007KT
                       P6SM SKC FM222200 32007KT P6SM SKC FM230400
                       01003KT P6SM SKC FM231200 21004KT P6SM OVC004=
200907221615 KPAE 221615Z 2216/2312 25006KT P6SM SCT010
                      TEMPO 2216/2217 BKN010 FM221800 16004KT P6SM
                       SCT007 FM222000 27008KT P6SM SKC=
200907221334 KPAE 221334Z 2214/2312 19005KT P6SM OVC003
                      TEMPO 2215/2217 3SM BR OVC001 FM221800 16004KT
                       P6SM SCT007 FM222000 27008KT P6SM SKC=
200907221133 TAF KPAE 221133Z 2212/2312 VRB03KT P6SM SCT003 FM221300 18005KT
                       P6SM BKN001
                      TEMPO 2213/2216 1SM BR OVC001 FM221700 16004KT
                       P6SM SCT004 FM221800 27008KT P6SM SKC=
200907220520 TAF KPAE 220520Z 2206/2306 02006KT P6SM SKC FM220900 03004KT P6SM
                       SKC FM221200 16004KT P6SM OVC003
                      TEMPO 2212/2216 1/2SM FG VV001 FM221700 16004KT
                       P6SM SCT006 FM221800 27008KT P6SM SKC=
200907212338 TAF KPAE 212338Z 2200/2224 02004KT P6SM SKC FM220600 02006KT P6SM
                       SKC FM220900 03004KT P6SM SKC FM221200 16004KT
                       P6SM OVC004 FM221700 16004KT P6SM SCT006
                       FM221800 27008KT P6SM SKC=
200907211742 TAF KPAE 211742Z 2118/2218 23004KT P6SM SKC FM212000 30007KT P6SM
                       SKC FM220600 02006KT P6SM SKC FM220900 03004KT
                       P6SM SKC FM221200 16004KT P6SM OVC004 FM221700
                       16004KT P6SM SCT006=
200907211123 TAF KPAE 211123Z 2112/2212 00000KT P6SM SKC FM212000 33007KT P6SM
                       SKC=
200907210522 TAF KPAE 210522Z 2106/2206 00000KT P6SM SKC FM212000 33007KT P6SM
                       SKC=
200907202341 TAF KPAE 202341Z 2100/2124 01005KT P6SM BKN250 FM210600 VRB03KT
                       P6SM SKC FM212000 30006KT P6SM SKC=
200907201845 TAF KPAE 201845Z 2019/2118 VRB05KT P6SM SKC=
200907201120 TAF KPAE 201120Z 2012/2112 35008KT P6SM SKC=
200907200532 TAF KPAE 200532Z 2006/2106 35008KT P6SM SKC=
200907192320 TAF KPAE 192320Z 2000/2024 35008KT P6SM SKC=
200907191720 TAF KPAE 191720Z 1918/2018 36007KT P6SM SKC=
200907191128 TAF KPAE 191128Z 1912/2012 02005KT P6SM SCT050
                      TEMPO 1912/1916 BKN050 FM191900 33007KT P6SM
                       SCT050 FM200100 34007KT P6SM SKC=
200907190538 TAF KPAE 190538Z 1906/2006 01007G12KT P6SM BKN045 FM191000 34008KT
                       P6SM SCT020 SCT045
                      TEMPO 1912/1916 BKN020 BKN045 FM191900 33007KT
                       P6SM SCT040 FM200100 34007KT P6SM SKC=
200907182320 TAF KPAE 182320Z 1900/1924 34014KT P6SM SCT040
                      TEMPO 1904/1908 BKN040 FM190800 30008KT P6SM
                       BKN020 OVC035 FM191900 27007KT P6SM SCT040=
200907181725 TAF KPAE 181725Z 1818/1918 VRB04KT P6SM SCT015 SCT250 FM182100
                       33012KT P6SM FEW030 SCT250 FM190500 30010KT
                       P6SM BKN015=
200907181137 TAF KPAE 181137Z 1812/1912 VRB03KT P6SM SKC
                      TEMPO 1813/1815 SCT003 FM182000 32008KT P6SM
                       SCT250 FM190600 01004KT P6SM BKN250=
200907180541 TAF KPAE 180541Z 1806/1906 36006KT P6SM SCT250 FM181200 VRB03KT
                       P6SM SCT250 FM182100 32008KT P6SM SCT250=
200907172320 TAF KPAE 172320Z 1800/1824 35006KT P6SM FEW250=
200907171720 TAF KPAE 171720Z 1718/1818 36007KT P6SM FEW250=
200907171122 TAF KPAE 171122Z 1712/1812 02004KT P6SM SCT250 FM171900 36007KT
                       P6SM FEW250=
200907170527 TAF KPAE 170527Z 1706/1806 01008KT P6SM SCT250 FM171100 VRB03KT
                       P6SM FEW250 FM171900 36006KT P6SM SKC=
200907162331 TAF KPAE 162331Z 1700/1724 36007KT P6SM SKC FM170500 36004KT P6SM
                       SKC FM171000 VRB03KT P6SM SKC FM171800 34004KT
                       P6SM SKC=
200907161817 TAF KPAE 161817Z 1618/1718 34007KT P6SM SKC FM170500 36004KT P6SM
                       SKC FM171000 VRB03KT P6SM SKC=
200907161120 TAF KPAE 161120Z 1612/1712 VRB03KT P6SM SKC
                      TEMPO 1612/1616 3SM BR SCT001 FM161800 33007KT
                       P6SM SKC FM170600 36004KT P6SM SKC=
200907160521 TAF KPAE 160521Z 1606/1706 35005KT P6SM SKC FM161200 05003KT P6SM
                       VCFG SCT002 FM161800 34007KT P6SM SKC=
200907152320 TAF KPAE 152320Z 1600/1624 35005KT P6SM SCT250 FM160400 02005KT
                       P6SM SKC FM161200 05003KT P6SM VCFG SCT002
                       FM161800 34007KT P6SM SKC=
200907151720 TAF KPAE 151720Z 1518/1618 VRB03KT P6SM SKC FM152200 32008KT P6SM
                       SKC FM160400 36005KT P6SM SKC FM161200 05003KT
                       P6SM VCFG SCT002=
200907151120 TAF KPAE 151120Z 1512/1612 VRB04KT 1/4SM FG VV001 FM151500 01003KT
                       P6SM BKN003 FM151700 32005KT P6SM SCT005
                       FM152200 32008KT P6SM SKC FM160400 36005KT
                       P6SM SKC=
200907151015 KPAE 151015Z 1510/1606 01005KT 1/4SM FG VV001 FM151500 01003KT
                       P6SM BKN003 FM151600 32005KT P6SM SCT005
                       FM152200 32008KT P6SM SKC FM160400 36005KT
                       P6SM SKC=
200907151003 KPAE 151003Z 1510/1606 00000KT 2SM BR OVC002 FM151600 32005KT P6SM
                       SCT005 FM152200 32008KT P6SM SKC FM160400
                       36005KT P6SM SKC=
200907150826 KPAE 150826Z 1508/1606 36006KT P6SM BKN002 FM151000 35004KT P6SM
                       OVC001 FM151600 32005KT P6SM SCT005 FM152200
                       32008KT P6SM SKC FM160400 36005KT P6SM SKC=
200907150756 KPAE 150756Z 1508/1606 35004KT P6SM FEW002 FM151000 35004KT P6SM
                       OVC001 FM151600 32005KT P6SM SCT005 FM152200
                       32008KT P6SM SKC FM160400 36005KT P6SM SKC=
200907150520 TAF KPAE 150520Z 1506/1606 00000KT P6SM SKC FM151200 01005KT P6SM
                       SCT008 FM151600 32005KT P6SM SKC FM152200
                       32008KT P6SM SKC FM160400 36005KT P6SM SKC=
200907142325 TAF KPAE 142325Z 1500/1524 33007KT P6SM SKC FM150400 01005KT P6SM
                       SKC=
200907141730 TAF KPAE 141730Z 1418/1518 34004KT P6SM BKN020 FM142000 32007KT
                       P6SM FEW025 SCT060 FM142200 32008KT P6SM
                       SKC FM150400 01005KT P6SM SKC=
200907141120 TAF KPAE 141120Z 1412/1512 35005KT P6SM SCT015 OVC021 FM141300
                       35005KT P6SM BKN015 OVC020 FM141800 VRB03KT
                       P6SM SCT020 BKN030 FM142000 32007KT P6SM
                       FEW035 SCT060 FM142200 32008KT P6SM SKC
                       FM150400 01005KT P6SM SKC=
200907140926 KPAE 140926Z 1409/1506 01004KT P6SM BKN019 BKN029 OVC040 FM141200
                       VRB03KT P6SM BKN010 OVC018 FM141800 VRB03KT
                       P6SM BKN020 FM141900 32007KT P6SM FEW035
                       SCT060 FM150300 35005KT P6SM SKC=
200907140520 TAF KPAE 140520Z 1406/1506 36005KT P6SM BKN022 BKN028 OVC035 FM141100
                       VRB03KT P6SM BKN010 OVC018 FM141800 VRB03KT
                       P6SM BKN020 FM141900 32007KT P6SM FEW035
                       SCT060 FM150300 35005KT P6SM SKC=
200907132322 TAF KPAE 132322Z 1400/1424 24005KT P6SM SCT019 OVC026 FM141000
                       VRB03KT 4SM BR OVC004 FM142000 29005KT P6SM
                       SCT250=
200907131725 TAF KPAE 131725Z 1318/1418 20007KT 4SM BR VCSH BKN006 OVC012 FM132000
                       18005KT P6SM SCT008 OVC018 FM132300 20007KT
                       P6SM BKN025 BKN200 FM141000 VRB03KT 4SM
                       BR OVC004=
200907131120 TAF KPAE 131120Z 1312/1412 20007KT P6SM -SHRA SCT008 BKN015 OVC020
                       TEMPO 1312/1315 4SM -SHRA BKN008 OVC015
                       FM131500 18005KT P6SM VCSH OVC008 FM132000
                       18005KT P6SM BKN024 FM140500 16004KT P6SM
                       OVC014 FM141000 VRB03KT 4SM BR OVC004=
200907130709 KPAE 130709Z 1307/1406 21007KT P6SM VCSH SCT008 OVC015 FM131000
                       17005KT P6SM VCSH OVC008 FM131600 18005KT
                       P6SM OVC015 FM132000 18005KT P6SM BKN020
                       FM140500 16005KT P6SM OVC014=
200907130520 TAF KPAE 130520Z 1306/1406 19007KT 5SM -RA BR SCT009 OVC014
                      TEMPO 1306/1308 3SM RA BR OVC007 FM131000
                       17005KT P6SM -SHRA OVC008 FM131600 18005KT
                       P6SM OVC015 FM132000 18005KT P6SM BKN020
                       FM140500 16005KT P6SM OVC014=
200907130218 KPAE 130218Z 1302/1324 19010KT P6SM VCTS OVC010CB FM130600 16005KT
                       P6SM VCSH OVC008 FM131900 20010KT P6SM OVC018=
200907122320 TAF KPAE 122320Z 1300/1324 16005KT P6SM -SHRA VCTS BKN020 OVC080CB
                       FM130600 16005KT P6SM VCSH OVC008 FM131900
                       20010KT P6SM OVC018=
200907121940 KPAE 121940Z 1220/1318 18008KT P6SM -SHRA VCTS SCT015 OVC080CB
                       TEMPO 1220/1222 BKN015 OVC080CB FM122200
                       16005KT P6SM -SHRA VCTS BKN020 OVC080CB
                       FM130800 16005KT P6SM OVC008=
200907121720 TAF KPAE 121720Z 1218/1318 18010KT P6SM -SHRA VCTS BKN010 OVC080CB
                       FM121900 18010KT P6SM -SHRA VCTS BKN012
                       OVC080CB FM122200 16005KT P6SM -SHRA VCTS
                       BKN020 OVC080CB FM130800 16005KT P6SM OVC008=
200907121123 TAF KPAE 121123Z 1212/1312 19012KT P6SM OVC004 FM121600 18010KT
                       P6SM -SHRA OVC008 FM121900 18010KT P6SM
                       -SHRA OVC011 FM122200 16005KT P6SM -SHRA
                       OVC018 FM130800 16005KT P6SM OVC008=
200907120529 TAF KPAE 120529Z 1206/1306 00000KT P6SM VCTS SCT060CB BKN150 FM121100
                       18005KT 5SM BR OVC003 FM121700 16005KT P6SM
                       -SHRA OVC008 FM122100 16005KT P6SM -SHRA
                       OVC014 FM130500 16005KT P6SM -SHRA OVC008=
200907112327 TAF KPAE 112327Z 1200/1224 34010KT P6SM FEW100 FM120200 34008KT
                       P6SM SCT100 FM120700 VRB03KT P6SM BKN100
                       FM121200 16004KT P6SM SCT010 OVC100
                      PROB30 1212/1217 -TSRA BKN060CB FM121700
                       20007KT P6SM BKN015 OVC080 FM122100 22010KT
                       P6SM OVC020=
200907111739 TAF KPAE 111739Z 1118/1218 VRB03KT P6SM FEW100 FM120200 34010KT
                       P6SM SCT100 FM120600 VRB03KT P6SM BKN100
                       PROB30 1209/1215 -TSRA BKN060CB FM121500
                       20004KT P6SM SCT015 OVC100
                      PROB30 1215/1218 -TSRA BKN060CB=
200907111121 TAF KPAE 111121Z 1112/1212 00000KT P6SM SKC FM111800 34010KT P6SM
                       SCT100 FM120000 34010KT P6SM BKN100
                      PROB30 1200/1206 -TSRA BKN060CB FM120600
                       VRB03KT P6SM BKN100
                      PROB30 1206/1212 -TSRA BKN060CB=
200907110536 TAF KPAE 110536Z 1106/1206 35005KT P6SM SKC FM111400 36008KT P6SM
                       FEW100 FM112000 34010KT P6SM SCT100
                      PROB30 1120/1124 -TSRA BKN060CB FM120000
                       34010KT P6SM BKN100
                      PROB30 1200/1206 -TSRA BKN060CB=
200907102320 TAF KPAE 102320Z 1100/1124 35008KT P6SM SKC FM110500 VRB04KT P6SM
                       SKC FM111400 36008KT P6SM BKN100 FM111800
                       36010KT P6SM SCT100
                      PROB30 1118/1124 -TSRA BKN060CB=
200907101739 TAF KPAE 101739Z 1018/1118 36008KT P6SM SKC FM111400 36008KT P6SM
                       BKN100=
200907101121 TAF KPAE 101121Z 1012/1112 00000KT P6SM FEW250 FM101800 34008KT
                       P6SM SCT120 SCT250=
200907100524 TAF KPAE 100524Z 1006/1106 02003KT P6SM SCT250 FM100700 02005KT
                       P6SM SCT250 FM101800 34008KT P6SM SCT120
                       SCT250=
200907092325 TAF KPAE 092325Z 1000/1024 34006KT P6SM SCT200 FM100700 02005KT
                       P6SM SCT200 FM101700 34008KT P6SM SCT200=
200907091720 TAF KPAE 091720Z 0918/1018 30004KT P6SM BKN045 FM091900 31005KT
                       P6SM SCT020 SCT050 FM092200 34006KT P6SM
                       SCT050 FM100000 34009KT P6SM SCT200 FM100700
                       02005KT P6SM SCT200 FM101700 34008KT P6SM
                       SCT200=
200907091544 KPAE 091544Z 0916/1012 00000KT P6SM OVC040 FM091700 28004KT P6SM
                       BKN045 FM091900 31005KT P6SM SCT050 SCT200
                       FM092200 34006KT P6SM SCT050 SCT200=
200907091120 TAF KPAE 091120Z 0912/1012 00000KT P6SM OVC040 FM091700 28004KT
                       P6SM BKN060 FM091900 31005KT P6SM SCT050
                       BKN200 FM092200 34006KT P6SM SCT050 SCT200=
200907090532 TAF KPAE 090532Z 0906/1006 12004KT P6SM OVC028 FM090700 00000KT
                       P6SM BKN025 OVC060 FM091700 28004KT P6SM
                       BKN060 FM091900 31005KT P6SM SCT050 BKN200
                       FM092200 34006KT P6SM SCT050 SCT200=
200907082327 TAF KPAE 082327Z 0900/0924 18010KT P6SM BKN030 OVC060 FM090400
                       18006KT P6SM BKN035 OVC060 FM090700 00000KT
                       P6SM BKN030 OVC060 FM091700 28004KT P6SM
                       BKN060 FM091900 31005KT P6SM SCT050 BKN200
                       FM092200 34006KT P6SM SCT050 SCT200=
200907082133 KPAE 082133Z 0822/0918 18012KT P6SM VCSH BKN030 OVC080 FM090600
                       00000KT P6SM BKN025 OVC050 FM091700 28004KT
                       P6SM BKN050=
200907081739 TAF KPAE 081739Z 0818/0918 18012KT P6SM VCSH BKN025 OVC045 FM081900
                       18008KT P6SM -SHRA BKN020 OVC040 FM090000
                       20008KT P6SM VCSH BKN025 OVC045 FM090600
                       00000KT P6SM OVC025 FM091700 VRB03KT P6SM
                       BKN050=
200907081132 TAF KPAE 081132Z 0812/0912 17008KT P6SM VCSH BKN040 OVC110 FM081400
                       17008KT P6SM VCSH SCT025 OVC040 FM081800
                       16007KT P6SM VCSH SCT020 OVC035 FM082100
                       15008KT P6SM BKN045 OVC070 FM090800 VRB03KT
                       P6SM OVC045=
200907080928 KPAE 080928Z 0809/0906 18007KT P6SM OVC090 FM081200 16006KT P6SM
                       VCSH SCT020 OVC040 FM081900 19008KT P6SM
                       VCSH SCT025 OVC040 FM090400 02004KT P6SM
                       BKN090=
200907080525 TAF KPAE 080525Z 0806/0906 27003KT P6SM BKN070 FM080900 15005KT
                       P6SM VCSH BKN020 OVC030 FM081200 16006KT
                       P6SM -SHRA BKN015 OVC025 FM081900 19008KT
                       P6SM VCSH SCT025 OVC040=
200907072320 TAF KPAE 072320Z 0800/0824 19006KT P6SM VCSH BKN035 OVC050 FM080200
                       VRB03KT P6SM SCT030 BKN050
                      TEMPO 0802/0806 -SHRA BKN030 OVC050 FM080600
                       VRB03KT P6SM OVC030 FM080900 15005KT P6SM
                       VCSH BKN020 OVC030 FM081200 16006KT P6SM
                       -SHRA BKN015 OVC025 FM081900 19008KT P6SM
                       VCSH SCT025 OVC040=
200907071741 TAF KPAE 071741Z 0718/0818 19009KT P6SM SCT017 OVC028
                      TEMPO 0718/0720 BKN017 OVC028 FM072000 20008KT
                       P6SM OVC035 FM072300 25006KT P6SM VCSH BKN035
                       BKN050 FM080200 30006KT P6SM SCT030 BKN050
                       TEMPO 0802/0806 -SHRA BKN030 OVC050 FM080600
                       VRB03KT P6SM OVC030 FM081000 17005KT P6SM
                       -SHRA BKN015 OVC030=
200907071418 KPAE 071418Z 0714/0812 19009KT P6SM SCT014 OVC030
                      TEMPO 0714/0718 BKN014 OVC030 FM071800 18006KT
                       P6SM BKN035 FM072000 21006KT P6SM VCSH BKN035
                       BKN050 FM080600 15006KT P6SM OVC015=
200907071120 TAF KPAE 071120Z 0712/0812 19009KT P6SM FEW014 OVC030 FM071400
                       17005KT P6SM OVC008 FM071700 18006KT P6SM
                       OVC020 FM072000 21006KT P6SM VCSH BKN030
                       BKN050 FM080600 15006KT P6SM OVC015=
200907070527 TAF KPAE 070527Z 0706/0806 35003KT P6SM VCSH OVC023 FM071200 18005KT
                       P6SM OVC012 FM071400 17005KT P6SM OVC008
                       FM071700 18006KT P6SM OVC020 FM072000 21006KT
                       P6SM VCSH BKN030 BKN050=
200907062325 TAF KPAE 062325Z 0700/0724 18015G25KT P6SM VCSH SCT025 BKN050 FM070200
                       VRB05KT P6SM SCT025 BKN040
                      TEMPO 0702/0706 -SHRA BKN020 OVC040 FM070600
                       VRB03KT P6SM VCSH BKN020 OVC035 FM071200
                       18005KT P6SM OVC012 FM071400 17005KT P6SM
                       OVC008 FM071700 18006KT P6SM OVC020 FM072000
                       21006KT P6SM VCSH BKN030 BKN050=
200907061911 KPAE 061911Z 0619/0718 18015G25KT P6SM VCSH BKN018 OVC025
                      TEMPO 0619/0621 SCT018 OVC030 FM062100 19015G24KT
                       P6SM BKN025 OVC040 FM070000 20010KT P6SM
                       BKN025 OVC040 FM070400 18008KT P6SM OVC025
                       FM070900 18007KT P6SM OVC012 FM071200 17006KT
                       P6SM OVC008=
200907061727 TAF KPAE 061727Z 0618/0718 18015G25KT P6SM -SHRA BKN018 OVC025
                       FM062100 19015G24KT P6SM BKN025 OVC040 FM070000
                       20010KT P6SM BKN025 OVC040 FM070400 18008KT
                       P6SM OVC025 FM070900 18007KT P6SM OVC012
                       FM071200 17006KT P6SM OVC008=
200907061508 KPAE 061508Z 0615/0712 18015G24KT P6SM VCSH SCT025 OVC050
                      TEMPO 0615/0618 BKN025 OVC050 FM061800 19015G24KT
                       P6SM BKN025 OVC040 FM062100 19015G23KT P6SM
                       OVC030 FM070000 19012KT P6SM BKN030 OVC050
                       FM070400 16008KT P6SM OVC025 FM070900 16008KT
                       P6SM OVC012=
200907061159 TAF KPAE 061159Z 0612/0712 17013KT P6SM BKN050 BKN090 FM061600
                       19015G23KT P6SM BKN050CB BKN090
                      TEMPO 0617/0621 4SM SHRA OVC030CB FM062100
                       19015G23KT P6SM BKN050CB BKN090
                      PROB30 0621/0624 4SM SHRA OVC030CB FM070000
                       19012KT P6SM BKN050CB BKN090
                      PROB30 0700/0704 4SM SHRA OVC030CB FM070400
                       16008KT P6SM BKN050
                      PROB30 0704/0706 -SHRA FM070900 16008KT P6SM
                       OVC020=
200907061011 KPAE 061011Z 0610/0706 18016KT P6SM SCT035
                      TEMPO 0610/0612 BKN035 FM061200 18016KT P6SM
                       OVC035 FM062100 20013KT P6SM BKN030 BKN070
                       PROB30 0621/0702 -SHRA FM070400 17009KT
                       P6SM OVC030=
200907060738 KPAE 060738Z 0608/0706 18015G25KT P6SM SCT025 SCT090
                      TEMPO 0608/0609 BKN025 BKN090 FM060900 18015G25KT
                       P6SM OVC025 FM061200 18016KT P6SM OVC020
                       PROB30 0618/0621 -SHRA FM062100 20013KT
                       P6SM BKN030 BKN070
                      PROB30 0621/0702 -SHRA FM070400 17009KT P6SM
                       OVC030=
200907060700 KPAE 060700Z 0607/0706 18013KT P6SM SCT025 SCT090
                      TEMPO 0607/0609 BKN025 BKN090 FM060900 18016KT
                       P6SM OVC025
                      TEMPO 0609/0611 18020G30KT FM061200 18016KT
                       P6SM OVC020
                      PROB30 0618/0621 -SHRA FM062100 20013KT P6SM
                       BKN030 BKN070
                      PROB30 0621/0702 -SHRA FM070400 17009KT P6SM
                       OVC030=
200907060405 KPAE 060405Z 0604/0624 18013KT P6SM OVC200 FM060600 18016KT P6SM
                       SCT009 OVC150
                      TEMPO 0606/0610 18020G30KT BKN009 OVC150
                       FM061000 18016KT P6SM OVC009 FM061700 18012KT
                       P6SM OVC015 FM062200 18012KT P6SM BKN025=
200907060133 KPAE 060133Z 0602/0624 19016G21KT P6SM BKN200 FM060600 18016KT
                       P6SM SCT009 OVC150
                      TEMPO 0606/0610 BKN009 OVC150 FM061000 18016KT
                       P6SM OVC009 FM061700 18012KT P6SM OVC015
                       FM062200 18012KT P6SM BKN025=
200907052320 TAF KPAE 052320Z 0600/0624 33006KT P6SM SCT150 OVC250 FM060400
                       18022G32KT P6SM SCT009 OVC150 FM060600 18016KT
                       P6SM SCT009 OVC150
                      TEMPO 0606/0610 BKN009 OVC150 FM061000 18016KT
                       P6SM OVC009 FM061700 18012KT P6SM OVC015
                       FM062200 18012KT P6SM BKN025=
200907051720 TAF KPAE 051720Z 0518/0618 VRB03KT P6SM BKN250 FM051900 33006KT
                       P6SM SCT150 OVC250 FM060400 18022G32KT P6SM
                       SCT009 OVC150 FM060600 18016KT P6SM SCT009
                       OVC150
                      TEMPO 0606/0610 BKN009 OVC150 FM061000 18016KT
                       P6SM OVC009 FM061700 18012KT P6SM OVC015=
200907051126 TAF KPAE 051126Z 0512/0612 VRB03KT P6SM BKN250 FM051900 33006KT
                       P6SM SCT150 OVC250 FM060400 18022G32KT P6SM
                       SCT009 OVC150 FM060600 18016KT P6SM SCT009
                       OVC150
                      TEMPO 0606/0610 BKN009 OVC150 FM061000 18016KT
                       P6SM OVC009=
200907050544 TAF KPAE 050544Z 0506/0606 VRB03KT P6SM BKN250 FM051900 33006KT
                       P6SM SCT150 OVC250 FM060400 18020G30KT P6SM
                       SCT009 OVC150=
200907042320 TAF KPAE 042320Z 0500/0524 32005KT P6SM SCT250 FM050600 VRB03KT
                       P6SM SCT250 FM051800 29005KT P6SM BKN250=
200907041720 TAF KPAE 041720Z 0418/0518 VRB03KT P6SM FEW250 FM042100 32007KT
                       P6SM SCT250 FM050300 35006KT P6SM SCT250
                       FM050600 VRB03KT P6SM SCT250=
200907041126 TAF KPAE 041126Z 0412/0512 VRB03KT P6SM FEW250 FM042100 32007KT
                       P6SM SCT250 FM050300 35006KT P6SM SCT250
                       FM050600 VRB03KT P6SM SCT250=
200907040521 TAF KPAE 040521Z 0406/0506 VRB03KT P6SM FEW250 FM042000 32006KT
                       P6SM SCT250 FM050300 35006KT P6SM SCT250=
200907032320 TAF KPAE 032320Z 0400/0424 35005KT P6SM FEW200 FM040300 VRB03KT
                       P6SM SKC FM041800 30005KT P6SM SKC=
200907031720 TAF KPAE 031720Z 0318/0418 35008KT P6SM SKC FM040300 VRB03KT P6SM
                       SKC=
200907031123 TAF KPAE 031123Z 0312/0412 00000KT P6SM SKC FM031800 35008KT P6SM
                       SKC FM040300 VRB03KT P6SM SKC=
200907030520 TAF KPAE 030520Z 0306/0406 VRB03KT P6SM SKC FM031800 35008KT P6SM
                       SKC FM040300 VRB03KT P6SM SKC=
200907022335 TAF KPAE 022335Z 0300/0324 34008KT P6SM SKC FM030700 VRB05KT P6SM
                       SKC=
200907021730 TAF KPAE 021730Z 0218/0318 35007KT P6SM SKC FM030700 VRB05KT P6SM
                       SKC=
200907021120 TAF KPAE 021120Z 0212/0312 01006KT P6SM SKC FM021500 33006KT P6SM
                       SKC FM022000 36008KT P6SM SKC FM030700 VRB05KT
                       P6SM SKC=
200907020520 TAF KPAE 020520Z 0206/0306 36005KT P6SM SKC FM021500 33006KT P6SM
                       SKC FM021800 36008KT P6SM SKC FM030400 35005KT
                       P6SM SKC=
200907012330 TAF KPAE 012330Z 0200/0224 36008KT P6SM SKC FM020600 01003KT P6SM
                       SKC FM021500 33006KT P6SM SKC FM021800 36008KT
                       P6SM SKC=
200907011727 TAF KPAE 011727Z 0118/0218 02004KT P6SM SKC FM011900 34008KT P6SM
                       SKC FM020600 36003KT P6SM SKC FM021000 02004KT
                       P6SM SKC=
200907011134 TAF KPAE 011134Z 0112/0212 02005KT P6SM SKC FM011800 34008KT P6SM
                       SKC FM020600 36003KT P6SM SKC=
200907010520 TAF KPAE 010520Z 0106/0206 35006KT P6SM SKC=