##########################################################
# Query made at 02/15/2025 23:37:21 UTC
# Time interval: from 12/01/2010 00:00  to 12/31/2010 23:59  UTC
##########################################################

##########################################################
# KPAE, Everett, Snohomish County Airport (United States)
# WMO index: -----. WIGOS ID: Unknown
# Latitude 47-55-23N. Longitude 122-16-57W. Altitude 184 m.
##########################################################

###################################
#  METAR/SPECI from KPAE
###################################
201012312353 METAR KPAE 312353Z 13003KT 10SM CLR 01/M08 A3003 RMK AO2 SLP176 T00061083 10011 21033 56012=
201012312253 METAR KPAE 312253Z 11006KT 10SM CLR 01/M08 A3004 RMK AO2 SLP179 T00061083=
201012312153 METAR KPAE 312153Z VRB03KT 10SM CLR 01/M09 A3005 RMK AO2 SLP181 T00061089=
201012312053 METAR KPAE 312053Z 00000KT 10SM CLR 00/M08 A3007 RMK AO2 SLP188 T00001083 57008=
201012311953 METAR KPAE 311953Z 04003KT 10SM CLR M02/M08 A3008 RMK AO2 SLP192 T10171083=
201012311853 METAR KPAE 311853Z 16004KT 10SM CLR M02/M08 A3008 RMK AO2 SLP194 T10221083=
201012311753 METAR KPAE 311753Z 10005KT 10SM CLR M03/M08 A3009 RMK AO2 SLP197 T10331083 11033 21056 56006=
201012311653 METAR KPAE 311653Z 11006KT 10SM CLR M04/M09 A3009 RMK AO2 SLP198 T10441089=
201012311553 METAR KPAE 311553Z 12006KT 10SM CLR M05/M09 A3010 RMK AO2 SLP202 T10501089=
201012311453 METAR KPAE 311453Z AUTO 11005KT 10SM CLR M05/M08 A3011 RMK AO2 SLP204 T10501083 56003=
201012311353 METAR KPAE 311353Z AUTO 11006KT 10SM CLR M05/M08 A3011 RMK AO2 SLP204 T10501083=
201012311253 METAR KPAE 311253Z AUTO 11006KT 10SM CLR M05/M08 A3011 RMK AO2 SLP204 T10501083=
201012311153 METAR KPAE 311153Z AUTO 11005KT 10SM CLR M05/M08 A3012 RMK AO2 SLP207 T10501078 11028 21056 58003=
201012311053 METAR KPAE 311053Z AUTO 11006KT 10SM CLR M05/M08 A3013 RMK AO2 SLP210 T10501078=
201012310953 METAR KPAE 310953Z AUTO 11005KT 10SM CLR M04/M07 A3013 RMK AO2 SLP210 T10441072=
201012310853 METAR KPAE 310853Z AUTO 11006KT 10SM CLR M04/M07 A3013 RMK AO2 SLP209 T10391067 53007 $=
201012310753 METAR KPAE 310753Z AUTO 11005KT 10SM CLR M04/M06 A3012 RMK AO2 SLP207 T10391056 400111056=
201012310653 METAR KPAE 310653Z AUTO 11004KT 10SM CLR M03/M05 A3010 RMK AO2 SLP201 T10331050=
201012310553 METAR KPAE 310553Z AUTO 16004KT 10SM CLR M03/M06 A3011 RMK AO2 SLP202 T10281061 10006 21056 53004=
201012310453 METAR KPAE 310453Z AUTO 11004KT 10SM CLR M02/M08 A3010 RMK AO2 SLP200 T10221078=
201012310353 METAR KPAE 310353Z 00000KT 10SM CLR M02/M08 A3010 RMK AO2 SLP199 T10221078=
201012310253 METAR KPAE 310253Z 00000KT 10SM CLR M03/M08 A3009 RMK AO2 SLP199 T10281078 51006=
201012310153 METAR KPAE 310153Z 32003KT 10SM CLR M02/M08 A3009 RMK AO2 SLP197 T10171083=
201012310053 METAR KPAE 310053Z 00000KT 10SM CLR M02/M08 A3009 RMK AO2 SLP195 T10171083=
201012302353 METAR KPAE 302353Z 35004KT 10SM CLR 00/M09 A3008 RMK AO2 SLP191 T00001089 10011 21017 53008=
201012302253 METAR KPAE 302253Z VRB04KT 10SM CLR 01/M08 A3006 RMK AO2 SLP185 T00061078=
201012302153 METAR KPAE 302153Z VRB04KT 10SM CLR 01/M07 A3005 RMK AO2 SLP181 T00061072=
201012302053 METAR KPAE 302053Z 36006KT 10SM CLR 01/M07 A3005 RMK AO2 SLP181 T00061067 51006=
201012301953 METAR KPAE 301953Z 02004KT 10SM CLR 00/M07 A3005 RMK AO2 SLP181 T00001067=
201012301853 METAR KPAE 301853Z 01004KT 10SM CLR M01/M06 A3005 RMK AO2 SLP180 T10111056=
201012301753 METAR KPAE 301753Z 04003KT 10SM CLR M01/M06 A3003 RMK AO2 SLP175 T10111056 11011 21033 53018=
201012301653 METAR KPAE 301653Z 00000KT 10SM CLR M03/M06 A3001 RMK AO2 SLP169 T10281056=
201012301553 METAR KPAE 301553Z 36003KT 10SM CLR M03/M06 A2999 RMK AO2 SLP160 T10281056=
201012301453 METAR KPAE 301453Z 35005KT 10SM CLR M02/M05 A2998 RMK AO2 SLP157 T10221050 51024=
201012301353 METAR KPAE 301353Z AUTO 00000KT 10SM CLR M02/M05 A2995 RMK AO2 SLP148 T10221050=
201012301253 METAR KPAE 301253Z AUTO 35004KT 10SM CLR M01/M04 A2994 RMK AO2 SLP143 T10111039=
201012301153 METAR KPAE 301153Z AUTO 36004KT 10SM CLR M01/M04 A2990 RMK AO2 PK WND 15028/1132 SLP132 70027 T10111039 10017 21017 51017=
201012301053 METAR KPAE 301053Z AUTO 00000KT 10SM CLR M01/M04 A2989 RMK AO2 SLP128 T10061039=
201012300953 METAR KPAE 300953Z AUTO 35006KT 10SM CLR 00/M04 A2987 RMK AO2 SLP121 T00001044=
201012300853 METAR KPAE 300853Z AUTO 34004KT 10SM CLR 00/M04 A2985 RMK AO2 SLP114 T00001039 53018=
201012300753 METAR KPAE 300753Z AUTO 36003KT 10SM SCT011 00/M02 A2982 RMK AO2 SLP104 T00001022 400280000=
201012300742 SPECI KPAE 300742Z AUTO 36004KT 10SM SCT011 01/M02 A2982 RMK AO2=
201012300742 SPECI KPAE 300742Z AUTO 36004KT 10SM SCT011 01/M02 A2982 RMK AO2=
201012300737 SPECI KPAE 300737Z AUTO 36005KT 10SM BKN011 BKN015 01/M02 A2981 RMK AO2=
201012300737 SPECI KPAE 300737Z AUTO 36005KT 10SM BKN011 BKN015 01/M02 A2981 RMK AO2=
201012300653 METAR KPAE 300653Z AUTO 33004KT 10SM SCT015 01/M02 A2980 RMK AO2 SLP097 T00111022=
201012300648 SPECI KPAE 300648Z AUTO 00000KT 10SM BKN015 01/M02 A2980 RMK AO2=
201012300648 SPECI KPAE 300648Z AUTO 00000KT 10SM BKN015 01/M02 A2980 RMK AO2=
201012300553 METAR KPAE 300553Z AUTO 32008KT 10SM FEW024 02/M03 A2977 RMK AO2 SLP088 T00171028 10028 20011 51020=
201012300453 METAR KPAE 300453Z AUTO VRB03KT 10SM FEW024 OVC033 02/M02 A2975 RMK AO2 SLP080 T00171022=
201012300353 METAR KPAE 300353Z 01003KT 10SM FEW047 OVC060 02/M03 A2974 RMK AO2 SLP075 T00221033=
201012300253 METAR KPAE 300253Z 31004KT 10SM SCT046 SCT055 OVC080 02/M04 A2971 RMK AO2 SLP067 T00171044 51022=
201012300153 METAR KPAE 300153Z 00000KT 10SM BKN060 OVC080 02/M02 A2969 RMK AO2 SLP061 T00171022=
201012300053 METAR KPAE 300053Z 32004KT 10SM FEW050 SCT060 BKN090 02/M03 A2968 RMK AO2 SLP054 T00221033=
201012292353 METAR KPAE 292353Z AUTO 33007KT 10SM FEW047 BKN055 OVC090 03/M03 A2965 RMK AO2 SLP043 60000 T00281028 10028 20011 53028 TSNO=
201012292253 METAR KPAE 292253Z 34006KT 10SM SCT008 BKN040 02/M02 A2962 RMK AO2 SNE17 SLP034 P0000 T00171017=
201012292153 METAR KPAE 292153Z 31008KT 5SM -SN BR SCT007 BKN014 OVC019 01/M01 A2959 RMK AO2 SNB2055E04B34 SLP024 P0000 T00111006=
201012292129 SPECI KPAE 292129Z 30009KT 7SM FEW004 BKN009 OVC016 01/M01 A2958 RMK AO2 SNB2055E04 P0000=
201012292129 SPECI KPAE 292129Z 30009KT 7SM FEW004 BKN009 OVC016 01/M01 A2958 RMK AO2 SNB2055E04 P0000=
201012292107 SPECI KPAE 292107Z 30006G15KT 7SM SCT011 BKN022 OVC029 01/M01 A2957 RMK AO2 SNB2055E04 P0000=
201012292107 SPECI KPAE 292107Z 30006G15KT 7SM SCT011 BKN022 OVC029 01/M01 A2957 RMK AO2 SNB2055E04 P0000=
201012292100 SPECI KPAE 292100Z 29009G16KT 4SM -SN BR FEW007 BKN011 OVC029 01/M01 A2957 RMK AO2 SNB2055 P0000=
201012292100 SPECI KPAE 292100Z 29009G16KT 4SM -SN BR FEW007 BKN011 OVC029 01/M01 A2957 RMK AO2 SNB2055 P0000=
201012292053 METAR KPAE 292053Z 30009KT 270V340 7SM FEW013 BKN024 OVC029 02/M01 A2956 RMK AO2 SNB1954E29 SLP014 P0000 60000 T00171011 51017=
201012292026 SPECI KPAE 292026Z 29011G18KT 6SM -SN BR FEW010 BKN026 OVC036 01/M01 A2955 RMK AO2 SNB1954 P0000=
201012292026 SPECI KPAE 292026Z 29011G18KT 6SM -SN BR FEW010 BKN026 OVC036 01/M01 A2955 RMK AO2 SNB1954 P0000=
201012292003 SPECI KPAE 292003Z 28011G18KT 2SM -SN BKN008 OVC024 01/M02 A2955 RMK AO2 SNB1954 P0000=
201012292003 SPECI KPAE 292003Z 28011G18KT 2SM -SN BKN008 OVC024 01/M02 A2955 RMK AO2 SNB1954 P0000=
201012291953 METAR KPAE 291953Z 29014G19KT 5SM HZ BKN026 OVC036 02/M02 A2955 RMK AO2 SLP009 T00171022=
201012291853 METAR KPAE 291853Z COR 30005KT 10SM BKN047 02/M03 A2953 RMK AO2 SLP003 T00171028=
201012291753 METAR KPAE 291753Z 30003KT 10SM FEW038 OVC055 02/M02 A2951 RMK AO2 SLP997 60027 T00171017 10017 20006 53023=
201012291653 METAR KPAE 291653Z 22005KT 10SM OVC050 01/M01 A2948 RMK AO2 SNE13 SLP988 P0001 T00061006=
201012291618 SPECI KPAE 291618Z 25004KT 9SM SCT012 OVC046 01/M01 A2947 RMK AO2 SNE13 P0001=
201012291618 SPECI KPAE 291618Z 25004KT 9SM SCT012 OVC046 01/M01 A2947 RMK AO2 SNE13 P0001=
201012291610 SPECI KPAE 291610Z 23005KT 6SM -SN BR FEW004 BKN012 OVC046 01/M01 A2946 RMK AO2 P0001=
201012291610 SPECI KPAE 291610Z 23005KT 6SM -SN BR FEW004 BKN012 OVC046 01/M01 A2946 RMK AO2 P0001=
201012291605 SPECI KPAE 291605Z 25006KT 2SM R16R/5500VP6000FT -SN BR FEW004 BKN010 OVC048 01/M01 A2946 RMK AO2 P0001=
201012291605 SPECI KPAE 291605Z 25006KT 2SM R16R/5500VP6000FT -SN BR FEW004 BKN010 OVC048 01/M01 A2946 RMK AO2 P0001=
201012291553 METAR KPAE 291553Z 00000KT 1SM R16R/4000VP6000FT -SN BR VV006 01/M01 A2946 RMK AO2 SLP980 P0005 T00061006=
201012291546 SPECI KPAE 291546Z 28004KT 1SM R16R/4500VP6000FT -SN BR VV006 01/M01 A2946 RMK AO2 P0004=
201012291546 SPECI KPAE 291546Z 28004KT 1SM R16R/4500VP6000FT -SN BR VV006 01/M01 A2946 RMK AO2 P0004=
201012291537 SPECI KPAE 291537Z 25006KT 1SM R16R/4000VP6000FT -SN BR FEW005 OVC010 01/M01 A2946 RMK AO2 P0003 $=
201012291537 SPECI KPAE 291537Z 25006KT 1SM R16R/4000VP6000FT -SN BR FEW005 OVC010 01/M01 A2946 RMK AO2 P0003 $=
201012291518 SPECI KPAE 291518Z 22006KT 1SM R16R/P6000FT -SN BR FEW005 BKN028 OVC055 01/M01 A2945 RMK AO2 P0000 $=
201012291518 SPECI KPAE 291518Z 22006KT 1SM R16R/P6000FT -SN BR FEW005 BKN028 OVC055 01/M01 A2945 RMK AO2 P0000 $=
201012291453 METAR KPAE 291453Z 24005KT 4SM -SN BR SCT008 BKN049 OVC070 01/M01 A2944 RMK AO2 SLP974 P0014 60021 T00061006 53014 $=
201012291450 SPECI KPAE 291450Z AUTO 24006KT 3SM -SN BR SCT006 BKN036 OVC055 01/M01 A2944 RMK AO2 P0014 $=
201012291450 SPECI KPAE 291450Z AUTO 24006KT 3SM -SN BR SCT006 BKN036 OVC055 01/M01 A2944 RMK AO2 P0014 $=
201012291446 SPECI KPAE 291446Z AUTO 25007KT 2SM -SN BR SCT006 BKN019 OVC050 01/M01 A2944 RMK AO2 VIS 1 1/2V3 P0014 $=
201012291446 SPECI KPAE 291446Z AUTO 25007KT 2SM -SN BR SCT006 BKN019 OVC050 01/M01 A2944 RMK AO2 VIS 1 1/2V3 P0014 $=
201012291437 SPECI KPAE 291437Z AUTO 25008G18KT 1SM R16R/5000VP6000FT -SN BR SCT004 BKN010 OVC018 01/M01 A2944 RMK AO2 P0014 $=
201012291437 SPECI KPAE 291437Z AUTO 25008G18KT 1SM R16R/5000VP6000FT -SN BR SCT004 BKN010 OVC018 01/M01 A2944 RMK AO2 P0014 $=
201012291434 SPECI KPAE 291434Z AUTO 26008G18KT 1 1/4SM R16R/4500VP6000FT -SN BR BKN004 BKN008 OVC018 01/M01 A2944 RMK AO2 P0014 $=
201012291434 SPECI KPAE 291434Z AUTO 26008G18KT 1 1/4SM R16R/4500VP6000FT -SN BR BKN004 BKN008 OVC018 01/M01 A2944 RMK AO2 P0014 $=
201012291431 SPECI KPAE 291431Z AUTO 26011G18KT 1 1/4SM R16R/4500VP6000FT -SN BR SCT004 BKN010 OVC013 01/M01 A2944 RMK AO2 P0013 $=
201012291431 SPECI KPAE 291431Z AUTO 26011G18KT 1 1/4SM R16R/4500VP6000FT -SN BR SCT004 BKN010 OVC013 01/M01 A2944 RMK AO2 P0013 $=
201012291422 SPECI KPAE 291422Z AUTO 24004KT 1SM R16R/4000VP6000FT -SN BR SCT002 OVC008 01/M01 A2944 RMK AO2 P0013 $=
201012291422 SPECI KPAE 291422Z AUTO 24004KT 1SM R16R/4000VP6000FT -SN BR SCT002 OVC008 01/M01 A2944 RMK AO2 P0013 $=
201012291411 SPECI KPAE 291411Z AUTO 31005KT 3/4SM R16R/5000VP6000FT -SN BR BKN004 OVC012 01/M01 A2944 RMK AO2 PRESRR P0003 $=
201012291411 SPECI KPAE 291411Z AUTO 31005KT 3/4SM R16R/5000VP6000FT -SN BR BKN004 OVC012 01/M01 A2944 RMK AO2 PRESRR P0003 $=
201012291356 SPECI KPAE 291356Z AUTO 34005KT 2SM -SN BR BKN002 BKN012 OVC017 01/M01 A2942 RMK AO2 P0000 $=
201012291356 SPECI KPAE 291356Z AUTO 34005KT 2SM -SN BR BKN002 BKN012 OVC017 01/M01 A2942 RMK AO2 P0000 $=
201012291353 METAR KPAE 291353Z AUTO 01004KT 1 1/4SM -SN BR SCT002 BKN008 OVC024 01/M01 A2942 RMK AO2 SLP965 P0005 T00061006 $=
201012291351 SPECI KPAE 291351Z AUTO 02004KT 1SM R16R/P6000FT -SN BR SCT002 BKN008 OVC022 01/M01 A2942 RMK AO2 P0005 $=
201012291351 SPECI KPAE 291351Z AUTO 02004KT 1SM R16R/P6000FT -SN BR SCT002 BKN008 OVC022 01/M01 A2942 RMK AO2 P0005 $=
201012291346 SPECI KPAE 291346Z AUTO 03004KT 3/4SM R16R/P6000FT -SN BR BKN002 BKN006 OVC029 01/M01 A2942 RMK AO2 P0005 $=
201012291346 SPECI KPAE 291346Z AUTO 03004KT 3/4SM R16R/P6000FT -SN BR BKN002 BKN006 OVC029 01/M01 A2942 RMK AO2 P0005 $=
201012291334 SPECI KPAE 291334Z AUTO 02007KT 3/4SM R16R/P6000FT -SN BR FEW002 BKN008 OVC023 01/M01 A2941 RMK AO2 P0003 $=
201012291334 SPECI KPAE 291334Z AUTO 02007KT 3/4SM R16R/P6000FT -SN BR FEW002 BKN008 OVC023 01/M01 A2941 RMK AO2 P0003 $=
201012291329 SPECI KPAE 291329Z AUTO 36008KT 1SM R16R/P6000FT -SN BR FEW002 BKN012 OVC031 01/M01 A2941 RMK AO2 P0002 $=
201012291329 SPECI KPAE 291329Z AUTO 36008KT 1SM R16R/P6000FT -SN BR FEW002 BKN012 OVC031 01/M01 A2941 RMK AO2 P0002 $=
201012291322 SPECI KPAE 291322Z AUTO 01008KT 1/2SM R16R/5500VP6000FT SN FG FEW002 BKN017 OVC037 01/M01 A2941 RMK AO2 P0002 $=
201012291322 SPECI KPAE 291322Z AUTO 01008KT 1/2SM R16R/5500VP6000FT SN FG FEW002 BKN017 OVC037 01/M01 A2941 RMK AO2 P0002 $=
201012291312 SPECI KPAE 291312Z AUTO 36009KT 1 1/2SM -SN BR SCT013 BKN023 OVC039 01/M01 A2941 RMK AO2 P0001 $=
201012291312 SPECI KPAE 291312Z AUTO 36009KT 1 1/2SM -SN BR SCT013 BKN023 OVC039 01/M01 A2941 RMK AO2 P0001 $=
201012291253 METAR KPAE 291253Z AUTO 01005KT 4SM -SN BR FEW021 SCT029 OVC041 01/M01 A2940 RMK AO2 SLP961 P0002 T00061011 $=
201012291244 SPECI KPAE 291244Z AUTO 03006KT 2SM -SN BR FEW013 BKN030 OVC050 01/M01 A2940 RMK AO2 P0002 $=
201012291244 SPECI KPAE 291244Z AUTO 03006KT 2SM -SN BR FEW013 BKN030 OVC050 01/M01 A2940 RMK AO2 P0002 $=
201012291241 SPECI KPAE 291241Z AUTO 02009KT 1 1/2SM -SN BR FEW011 BKN028 OVC041 01/M01 A2940 RMK AO2 P0002 $=
201012291241 SPECI KPAE 291241Z AUTO 02009KT 1 1/2SM -SN BR FEW011 BKN028 OVC041 01/M01 A2940 RMK AO2 P0002 $=
201012291233 SPECI KPAE 291233Z AUTO 01008KT 2 1/2SM -SN BR FEW009 BKN028 OVC035 01/M01 A2940 RMK AO2 P0001 $=
201012291233 SPECI KPAE 291233Z AUTO 01008KT 2 1/2SM -SN BR FEW009 BKN028 OVC035 01/M01 A2940 RMK AO2 P0001 $=
201012291221 SPECI KPAE 291221Z AUTO 36007KT 2SM -SN BR SCT011 BKN030 OVC041 01/M01 A2940 RMK AO2 P0001 $=
201012291221 SPECI KPAE 291221Z AUTO 36007KT 2SM -SN BR SCT011 BKN030 OVC041 01/M01 A2940 RMK AO2 P0001 $=
201012291218 SPECI KPAE 291218Z AUTO 35005KT 1 3/4SM -SN BR BKN011 BKN032 OVC041 01/M01 A2940 RMK AO2 P0001 $=
201012291218 SPECI KPAE 291218Z AUTO 35005KT 1 3/4SM -SN BR BKN011 BKN032 OVC041 01/M01 A2940 RMK AO2 P0001 $=
201012291212 SPECI KPAE 291212Z AUTO 35007KT 3SM -SN BR BKN013 OVC041 01/M01 A2940 RMK AO2 P0001 $=
201012291212 SPECI KPAE 291212Z AUTO 35007KT 3SM -SN BR BKN013 OVC041 01/M01 A2940 RMK AO2 P0001 $=
201012291155 SPECI KPAE 291155Z AUTO 32009KT 2SM -SN BR OVC029 01/M01 A2940 RMK AO2 P0000 $=
201012291155 SPECI KPAE 291155Z AUTO 32009KT 2SM -SN BR OVC029 01/M01 A2940 RMK AO2 P0000 $=
201012291153 METAR KPAE 291153Z AUTO 32010KT 3SM -SN OVC034 02/M01 A2940 RMK AO2 SNB42 SLP960 P0000 60000 70011 T00171011 10033 20017 51011 $=
201012291053 METAR KPAE 291053Z AUTO 28006G15KT 10SM FEW031 BKN060 OVC110 02/M02 A2939 RMK AO2 SLP957 T00171017 $=
201012290953 METAR KPAE 290953Z AUTO 34006KT 10SM BKN110 02/M02 A2938 RMK AO2 SLP953 T00221022 $=
201012290853 METAR KPAE 290853Z AUTO 34008G15KT 10SM CLR 03/M02 A2937 RMK AO2 SLP949 T00281017 56006 $=
201012290753 METAR KPAE 290753Z AUTO VRB03G14KT 10SM CLR 03/M01 A2937 RMK AO2 SLP950 T00281011 400830022 $=
201012290653 METAR KPAE 290653Z AUTO 32005KT 10SM FEW120 03/M01 A2937 RMK AO2 SLP950 T00281011=
201012290553 METAR KPAE 290553Z AUTO 34007G15KT 10SM SCT019 SCT060 BKN120 03/M01 A2939 RMK AO2 SLP954 T00331006 10044 20033 56020=
201012290453 METAR KPAE 290453Z 34007KT 10SM FEW017 OVC049 03/00 A2940 RMK AO2 SLP959 T00330000=
201012290353 METAR KPAE 290353Z 35007KT 10SM OVC043 04/00 A2942 RMK AO2 SLP965 T00390000=
201012290253 METAR KPAE 290253Z 36007G14KT 10SM OVC043 04/01 A2945 RMK AO2 SLP975 T00390006 58034=
201012290153 METAR KPAE 290153Z 35006KT 10SM BKN048 BKN110 04/01 A2948 RMK AO2 SLP986 T00390011=
201012290053 METAR KPAE 290053Z 34003KT 10SM OVC040 04/01 A2952 RMK AO2 SLP000 T00440011=
201012282353 METAR KPAE 282353Z 35003KT 10SM BKN044 04/01 A2955 RMK AO2 SLP008 60003 T00440006 10050 20044 56038=
201012282253 METAR KPAE 282253Z 35003KT 10SM SCT038 OVC046 05/01 A2958 RMK AO2 RAB11E21 SLP020 P0000 T00500011=
201012282215 SPECI KPAE 282215Z 36004KT 10SM -RA OVC034 04/01 A2960 RMK AO2 RAB11 P0000=
201012282215 SPECI KPAE 282215Z 36004KT 10SM -RA OVC034 04/01 A2960 RMK AO2 RAB11 P0000=
201012282153 METAR KPAE 282153Z 35004KT 10SM OVC029 04/01 A2962 RMK AO2 SLP032 T00440011=
201012282053 METAR KPAE 282053Z 36006KT 10SM FEW005 OVC029 04/02 A2966 RMK AO2 SLP048 60003 T00440022 58036=
201012281953 METAR KPAE 281953Z 01005KT 10SM SCT005 BKN015 OVC025 04/03 A2971 RMK AO2 RAE23 SLP065 P0001 T00440028=
201012281855 SPECI KPAE 281855Z 02007KT 6SM -RA BR BKN005 BKN010 OVC023 05/04 A2974 RMK AO2 CIG 002V007 P0000=
201012281855 SPECI KPAE 281855Z 02007KT 6SM -RA BR BKN005 BKN010 OVC023 05/04 A2974 RMK AO2 CIG 002V007 P0000=
201012281853 METAR KPAE 281853Z 02006KT 2 1/2SM -RA BR SCT002 BKN008 OVC017 05/04 A2975 RMK AO2 SLP076 P0002 T00500039=
201012281753 METAR KPAE 281753Z 03005KT 2 1/2SM -RA BR SCT002 BKN008 OVC017 05/04 A2977 RMK AO2 RAE16B35 SLP084 P0003 60008 T00500039 10072 20050 56003=
201012281653 METAR KPAE 281653Z 36005KT 2 1/2SM -RA BR BKN005 OVC013 06/04 A2977 RMK AO2 RAB00 CIG 002V009 SLP084 P0003 T00560039=
201012281620 SPECI KPAE 281620Z 08003KT 2 1/2SM -RA BR BKN007 OVC012 06/04 A2977 RMK AO2 RAB00 CIG 003V010 P0001=
201012281620 SPECI KPAE 281620Z 08003KT 2 1/2SM -RA BR BKN007 OVC012 06/04 A2977 RMK AO2 RAB00 CIG 003V010 P0001=
201012281553 METAR KPAE 281553Z 11004KT 2 1/2SM BR FEW006 OVC012 06/04 A2977 RMK AO2 SLP085 T00610044=
201012281542 SPECI KPAE 281542Z 12004KT 2 1/2SM BR BKN010 OVC016 06/04 A2977 RMK AO2=
201012281542 SPECI KPAE 281542Z 12004KT 2 1/2SM BR BKN010 OVC016 06/04 A2977 RMK AO2=
201012281453 METAR KPAE 281453Z 06003KT 10SM SCT017 BKN024 OVC034 07/04 A2978 RMK AO2 SLP087 60002 T00670044 51010=
201012281437 SPECI KPAE 281437Z AUTO 00000KT 10SM SCT024 OVC034 07/04 A2978 RMK AO2=
201012281437 SPECI KPAE 281437Z AUTO 00000KT 10SM SCT024 OVC034 07/04 A2978 RMK AO2=
201012281353 METAR KPAE 281353Z AUTO 00000KT 4SM BR FEW015 OVC026 06/04 A2977 RMK AO2 RAB05E35 SLP086 P0001 T00610044=
201012281322 SPECI KPAE 281322Z AUTO 00000KT 4SM -RA BR FEW004 OVC017 06/05 A2977 RMK AO2 RAB05 P0000=
201012281322 SPECI KPAE 281322Z AUTO 00000KT 4SM -RA BR FEW004 OVC017 06/05 A2977 RMK AO2 RAB05 P0000=
201012281312 SPECI KPAE 281312Z AUTO 26005KT 7SM -RA SCT004 BKN014 OVC019 06/04 A2977 RMK AO2 RAB05 P0000=
201012281312 SPECI KPAE 281312Z AUTO 26005KT 7SM -RA SCT004 BKN014 OVC019 06/04 A2977 RMK AO2 RAB05 P0000=
201012281253 METAR KPAE 281253Z AUTO 25006KT 5SM BR BKN004 OVC008 06/05 A2976 RMK AO2 RAB28E44 CIG 002V006 SLP082 P0001 T00610050=
201012281209 SPECI KPAE 281209Z AUTO 22009G14KT 10SM BKN008 OVC013 07/06 A2975 RMK AO2=
201012281209 SPECI KPAE 281209Z AUTO 22009G14KT 10SM BKN008 OVC013 07/06 A2975 RMK AO2=
201012281200 SPECI KPAE 281200Z AUTO 21009KT 10SM BKN010 OVC013 07/06 A2975 RMK AO2 CIG 006V011=
201012281200 SPECI KPAE 281200Z AUTO 21009KT 10SM BKN010 OVC013 07/06 A2975 RMK AO2 CIG 006V011=
201012281153 METAR KPAE 281153Z AUTO 21010G17KT 10SM BKN008 OVC012 07/06 A2975 RMK AO2 CIG 006V010 SLP075 60000 70008 T00720056 10083 20056 53014=
201012281053 METAR KPAE 281053Z AUTO 19018G23KT 10SM OVC008 08/07 A2972 RMK AO2 CIG 006V010 SLP067 T00830067=
201012280953 METAR KPAE 280953Z AUTO 20015G22KT 10SM OVC006 08/07 A2972 RMK AO2 RAE0854 CIG 003V009 SLP067 T00780067=
201012280853 METAR KPAE 280853Z AUTO 17014G19KT 3SM -RA BR OVC003 07/06 A2970 RMK AO2 RAE0754B48 SLP061 P0000 60000 T00670061 58010=
201012280828 SPECI KPAE 280828Z AUTO 15010G16KT 2 1/2SM BR OVC003 07/06 A2971 RMK AO2 RAE0754 CIG 002V007=
201012280828 SPECI KPAE 280828Z AUTO 15010G16KT 2 1/2SM BR OVC003 07/06 A2971 RMK AO2 RAE0754 CIG 002V007=
201012280753 METAR KPAE 280753Z AUTO 15015G22KT 4SM -RA BR OVC003 06/05 A2971 RMK AO2 RAE08B27 SLP063 P0000 T00610050 400610033=
201012280714 SPECI KPAE 280714Z AUTO 15012G21KT 090V170 4SM BR BKN003 OVC007 06/04 A2973 RMK AO2 RAE08 P0000=
201012280714 SPECI KPAE 280714Z AUTO 15012G21KT 090V170 4SM BR BKN003 OVC007 06/04 A2973 RMK AO2 RAE08 P0000=
201012280653 METAR KPAE 280653Z AUTO 15010G17KT 3SM -RA BR FEW003 BKN007 OVC029 06/04 A2973 RMK AO2 SLP072 P0000 T00560044=
201012280649 SPECI KPAE 280649Z AUTO 15011G19KT 3SM -RA BR FEW003 BKN016 OVC029 06/04 A2973 RMK AO2 P0000=
201012280649 SPECI KPAE 280649Z AUTO 15011G19KT 3SM -RA BR FEW003 BKN016 OVC029 06/04 A2973 RMK AO2 P0000=
201012280613 SPECI KPAE 280613Z AUTO 15015KT 3SM -RA BR FEW006 SCT017 OVC036 06/04 A2974 RMK AO2 P0000=
201012280613 SPECI KPAE 280613Z AUTO 15015KT 3SM -RA BR FEW006 SCT017 OVC036 06/04 A2974 RMK AO2 P0000=
201012280606 SPECI KPAE 280606Z AUTO 15015G20KT 3SM -RA BR FEW003 BKN019 OVC036 05/04 A2974 RMK AO2 P0000=
201012280606 SPECI KPAE 280606Z AUTO 15015G20KT 3SM -RA BR FEW003 BKN019 OVC036 05/04 A2974 RMK AO2 P0000=
201012280553 METAR KPAE 280553Z AUTO 15013KT 3SM -RA BR FEW011 BKN021 OVC039 05/04 A2975 RMK AO2 RAB32 SLP076 P0001 60006 T00500039 10050 20044 55019=
201012280540 SPECI KPAE 280540Z AUTO 15012G17KT 2 1/2SM -RA BR FEW003 SCT014 OVC021 05/04 A2975 RMK AO2 RAB32 P0001=
201012280540 SPECI KPAE 280540Z AUTO 15012G17KT 2 1/2SM -RA BR FEW003 SCT014 OVC021 05/04 A2975 RMK AO2 RAB32 P0001=
201012280453 METAR KPAE 280453Z AUTO 14004KT 3SM BR SCT005 BKN024 OVC037 04/03 A2977 RMK AO2 RAE0355 SLP084 P0000 T00440033=
201012280353 METAR KPAE 280353Z VRB05KT 5SM -RA BR SCT008 BKN029 OVC050 04/03 A2980 RMK AO2 SLP096 P0001 T00440033=
201012280300 SPECI KPAE 280300Z VRB05KT 5SM BR SCT008 BKN029 OVC050 04/03 A2984 RMK AO2 RAE0257 P0000=
201012280300 SPECI KPAE 280300Z VRB05KT 5SM BR SCT008 BKN029 OVC050 04/03 A2984 RMK AO2 RAE0257 P0000=
201012280253 METAR KPAE 280253Z VRB06G14KT 5SM -RA BR FEW008 BKN039 OVC060 04/03 A2984 RMK AO2 SLP109 P0001 60004 T00440028 56047=
201012280158 SPECI KPAE 280158Z 14007G17KT 100V180 10SM -RA FEW008 BKN039 OVC060 04/03 A2987 RMK AO2 P0000=
201012280158 SPECI KPAE 280158Z 14007G17KT 100V180 10SM -RA FEW008 BKN039 OVC060 04/03 A2987 RMK AO2 P0000=
201012280153 METAR KPAE 280153Z 15009G17KT 10SM -RA OVC029 04/03 A2988 RMK AO2 SLP121 P0002 T00440028=
201012280116 SPECI KPAE 280116Z VRB06KT 9SM -RA OVC029 04/03 A2991 RMK AO2 P0001=
201012280116 SPECI KPAE 280116Z VRB06KT 9SM -RA OVC029 04/03 A2991 RMK AO2 P0001=
201012280053 METAR KPAE 280053Z 15009G16KT 9SM -RA OVC035 04/03 A2993 RMK AO2 PRESFR SLP139 P0001 T00440028=
201012280035 SPECI KPAE 280035Z 15008G15KT 10SM -RA SCT019 OVC037 05/03 A2995 RMK AO2 P0001=
201012280035 SPECI KPAE 280035Z 15008G15KT 10SM -RA SCT019 OVC037 05/03 A2995 RMK AO2 P0001=
201012280018 SPECI KPAE 280018Z 15008KT 110V200 9SM -RA BKN019 OVC031 05/03 A2996 RMK AO2 P0000=
201012280018 SPECI KPAE 280018Z 15008KT 110V200 9SM -RA BKN019 OVC031 05/03 A2996 RMK AO2 P0000=
201012272353 METAR KPAE 272353Z VRB06KT 8SM -RA FEW019 BKN031 OVC041 05/03 A2998 RMK AO2 SLP156 P0001 60002 T00500028 10061 20044 58033=
201012272345 SPECI KPAE 272345Z 15008KT 8SM -RA SCT017 BKN036 OVC043 05/03 A2999 RMK AO2 P0000=
201012272345 SPECI KPAE 272345Z 15008KT 8SM -RA SCT017 BKN036 OVC043 05/03 A2999 RMK AO2 P0000=
201012272253 METAR KPAE 272253Z 16010KT 10SM -RA OVC017 06/02 A3001 RMK AO2 RAB2158 SLP166 P0001 T00560022=
201012272153 METAR KPAE 272153Z 16012G17KT 10SM BKN019 OVC026 06/02 A3005 RMK AO2 SLP179 T00610017=
201012272138 SPECI KPAE 272138Z 16013KT 10SM SCT019 BKN026 BKN034 06/02 A3005 RMK AO2=
201012272138 SPECI KPAE 272138Z 16013KT 10SM SCT019 BKN026 BKN034 06/02 A3005 RMK AO2=
201012272053 METAR KPAE 272053Z 17014KT 10SM BKN085 06/02 A3008 RMK AO2 SLP189 T00560017 58011=
201012271953 METAR KPAE 271953Z 18017G21KT 10SM SCT010 BKN015 OVC090 06/02 A3010 RMK AO2 PK WND 18027/1918 SLP195 T00560017=
201012271853 METAR KPAE 271853Z 20017G25KT 10SM SCT010 BKN015 OVC090 06/02 A3011 RMK AO2 PK WND 18028/1834 SLP200 T00560022=
201012271753 METAR KPAE 271753Z 18011G19KT 10SM BKN015 OVC026 04/02 A3011 RMK AO2 SLP201 T00440017 10044 20033 53002=
201012271707 SPECI KPAE 271707Z 17014G21KT 10SM BKN024 04/02 A3011 RMK AO2=
201012271707 SPECI KPAE 271707Z 17014G21KT 10SM BKN024 04/02 A3011 RMK AO2=
201012271653 METAR KPAE 271653Z 18015KT 10SM FEW012 SCT020 SCT026 04/02 A3011 RMK AO2 SLP200 T00390017=
201012271553 METAR KPAE 271553Z 18013G20KT 10SM BKN010 04/02 A3010 RMK AO2 SLP196 T00390017=
201012271453 METAR KPAE 271453Z 18017KT 10SM BKN012 BKN017 03/01 A3010 RMK AO2 SLP199 T00330011 53008=
201012271353 METAR KPAE 271353Z AUTO 19010KT 10SM BKN012 OVC019 04/02 A3010 RMK AO2 SLP199 T00390017=
201012271253 METAR KPAE 271253Z AUTO 19013G18KT 10SM OVC012 04/01 A3008 RMK AO2 SLP189 T00390011=
201012271153 METAR KPAE 271153Z AUTO 20016G24KT 10SM OVC014 04/01 A3008 RMK AO2 PK WND 19026/1117 SLP189 60000 70010 T00390011 10039 20033 51025=
201012271113 SPECI KPAE 271113Z AUTO 20016KT 10SM BKN013 BKN020 03/01 A3006 RMK AO2=
201012271113 SPECI KPAE 271113Z AUTO 20016KT 10SM BKN013 BKN020 03/01 A3006 RMK AO2=
201012271053 METAR KPAE 271053Z AUTO 19017KT 10SM BKN015 OVC022 03/01 A3006 RMK AO2 PK WND 19029/0955 SLP183 T00330011=
201012271041 SPECI KPAE 271041Z AUTO 19019G24KT 10SM BKN013 OVC019 04/01 A3006 RMK AO2 PK WND 19029/0955=
201012271041 SPECI KPAE 271041Z AUTO 19019G24KT 10SM BKN013 OVC019 04/01 A3006 RMK AO2 PK WND 19029/0955=
201012271020 SPECI KPAE 271020Z AUTO 19018G26KT 10SM FEW012 BKN020 03/01 A3005 RMK AO2 PK WND 19029/0955=
201012271020 SPECI KPAE 271020Z AUTO 19018G26KT 10SM FEW012 BKN020 03/01 A3005 RMK AO2 PK WND 19029/0955=
201012271001 SPECI KPAE 271001Z AUTO 19022G29KT 10SM FEW012 03/01 A3004 RMK AO2 PK WND 19029/0955=
201012271001 SPECI KPAE 271001Z AUTO 19022G29KT 10SM FEW012 03/01 A3004 RMK AO2 PK WND 19029/0955=
201012270953 METAR KPAE 270953Z AUTO 19020G26KT 10SM SCT012 BKN018 03/01 A3003 RMK AO2 PK WND 19029/0923 SLP172 T00330011=
201012270853 METAR KPAE 270853Z AUTO 18016G30KT 10SM BKN010 BKN022 03/01 A3000 RMK AO2 PK WND 18030/0844 SLP163 60000 T00330011 51026=
201012270834 SPECI KPAE 270834Z AUTO 18015G26KT 10SM BKN010 BKN022 03/01 A3000 RMK AO2 PK WND 19026/0826 CIG 009V014=
201012270834 SPECI KPAE 270834Z AUTO 18015G26KT 10SM BKN010 BKN022 03/01 A3000 RMK AO2 PK WND 19026/0826 CIG 009V014=
201012270828 SPECI KPAE 270828Z AUTO 18019G26KT 10SM SCT012 SCT020 03/01 A3001 RMK AO2 PK WND 19026/0826=
201012270828 SPECI KPAE 270828Z AUTO 18019G26KT 10SM SCT012 SCT020 03/01 A3001 RMK AO2 PK WND 19026/0826=
201012270753 METAR KPAE 270753Z AUTO 20014KT 10SM BKN016 03/01 A3000 RMK AO2 PK WND 19031/0715 SLP161 T00330011 400780033=
201012270730 SPECI KPAE 270730Z AUTO 19019KT 10SM SCT010 SCT015 03/01 A2998 RMK AO2 PK WND 19031/0715=
201012270730 SPECI KPAE 270730Z AUTO 19019KT 10SM SCT010 SCT015 03/01 A2998 RMK AO2 PK WND 19031/0715=
201012270653 METAR KPAE 270653Z AUTO 18018G22KT 10SM BKN010 03/01 A2997 RMK AO2 PK WND 20028/0619 RAE01 SLP151 P0000 T00330011=
201012270618 SPECI KPAE 270618Z AUTO 19020G25KT 10SM BKN012 BKN020 OVC095 04/01 A2995 RMK AO2 PK WND 19026/0615 RAE01 P0000=
201012270618 SPECI KPAE 270618Z AUTO 19020G25KT 10SM BKN012 BKN020 OVC095 04/01 A2995 RMK AO2 PK WND 19026/0615 RAE01 P0000=
201012270553 METAR KPAE 270553Z AUTO 18022G29KT 9SM -RA FEW012 SCT023 BKN095 03/01 A2993 RMK AO2 PK WND 18029/0546 RAB48 SLP137 P0000 60004 T00330011 10050 20033 51016=
201012270453 METAR KPAE 270453Z AUTO 19021KT 10SM SCT014 BKN023 OVC029 04/02 A2992 RMK AO2 RAB15E46 SLP134 P0000 T00390017=
201012270353 METAR KPAE 270353Z 18015G22KT 10SM SCT016 BKN022 OVC060 04/02 A2990 RMK AO2 RAB05E16 SLP127 P0000 T00440017=
201012270253 METAR KPAE 270253Z 17014G21KT 10SM FEW013 SCT019 BKN037 04/02 A2988 RMK AO2 SLP121 60004 T00440017 53018=
201012270203 SPECI KPAE 270203Z 18016G22KT 10SM FEW018 SCT032 BKN043 04/02 A2986 RMK AO2=
201012270203 SPECI KPAE 270203Z 18016G22KT 10SM FEW018 SCT032 BKN043 04/02 A2986 RMK AO2=
201012270153 METAR KPAE 270153Z 18021G27KT 10SM FEW012 SCT017 BKN021 04/02 A2986 RMK AO2 PK WND 18027/0150 RAE28 SLP114 P0001 T00390017=
201012270053 METAR KPAE 270053Z 19015G22KT 10SM -RA BKN018 BKN024 OVC034 04/02 A2985 RMK AO2 PK WND 19029/0031 RAB2357 SLP110 P0003 T00440017=
201012262353 METAR KPAE 262353Z 18017KT 10SM BKN019 BKN032 BKN040 05/02 A2983 RMK AO2 PK WND 18035/2258 SLP103 60006 T00500017 10078 20050 51052=
201012262253 METAR KPAE 262253Z 19021G34KT 10SM BKN015 BKN032 06/02 A2977 RMK AO2 PK WND 18034/2247 SLP084 T00560022=
201012262153 METAR KPAE 262153Z 18025G31KT 10SM BKN018 BKN027 05/02 A2974 RMK AO2 PK WND 20041/2100 SLP072 T00500017=
201012262053 METAR KPAE 262053Z 18027G34KT 10SM BKN029 OVC035 07/03 A2967 RMK AO2 PK WND 17034/2052 RAE48 SLP049 P0001 60006 T00670028 51020=
201012262036 SPECI KPAE 262036Z 18018G31KT 10SM SCT027 OVC033 07/03 A2966 RMK AO2 PK WND 18031/2031 RAE26 P0001=
201012262036 SPECI KPAE 262036Z 18018G31KT 10SM SCT027 OVC033 07/03 A2966 RMK AO2 PK WND 18031/2031 RAE26 P0001=
201012262000 SPECI KPAE 262000Z 18018G27KT 10SM OVC026 07/03 A2965 RMK AO2 PK WND 18027/1957 RAE00 P0000=
201012262000 SPECI KPAE 262000Z 18018G27KT 10SM OVC026 07/03 A2965 RMK AO2 PK WND 18027/1957 RAE00 P0000=
201012261953 METAR KPAE 261953Z 18022G27KT 9SM -RA BKN031 BKN037 OVC045 06/03 A2965 RMK AO2 PK WND 19037/1925 SLP044 P0004 T00610028=
201012261853 METAR KPAE 261853Z 21010KT 10SM -RA BKN036 OVC045 07/02 A2964 RMK AO2 PRESRR SLP040 P0001 T00670022=
201012261753 METAR KPAE 261753Z 16019G24KT 9SM -RA OVC037 07/02 A2961 RMK AO2 RAB35 SLP029 P0000 60000 T00720017 10072 20050 55003=
201012261653 METAR KPAE 261653Z VRB05KT 10SM SCT060 06/02 A2960 RMK AO2 SLP026 T00610022=
201012261553 METAR KPAE 261553Z 15004KT 10SM FEW060 06/03 A2961 RMK AO2 SLP028 T00560028=
201012261453 METAR KPAE 261453Z 16011KT 10SM FEW046 06/03 A2962 RMK AO2 RAB18E30 SLP032 P0000 60000 T00560028 56010=
201012261353 METAR KPAE 261353Z AUTO 15008KT 10SM FEW022 06/03 A2963 RMK AO2 RAE01 SLP036 P0000 T00610028=
201012261253 METAR KPAE 261253Z AUTO VRB05KT 10SM -RA SCT043 BKN055 OVC070 06/03 A2963 RMK AO2 RAB49 SLP037 P0000 T00610033=
201012261153 METAR KPAE 261153Z AUTO 16010KT 10SM FEW045 06/04 A2965 RMK AO2 SLP041 60002 70010 T00610039 10078 20061 51011=
201012261053 METAR KPAE 261053Z AUTO 16009KT 10SM BKN060 06/04 A2964 RMK AO2 SLP040 T00610044=
201012260953 METAR KPAE 260953Z AUTO 17010KT 10SM SCT070 BKN110 07/04 A2963 RMK AO2 SLP035 T00670039=
201012260853 METAR KPAE 260853Z AUTO 17014KT 10SM SCT010 OVC075 07/04 A2961 RMK AO2 SLP029 60002 T00670039 51013=
201012260753 METAR KPAE 260753Z AUTO 18013KT 10SM FEW009 BKN013 OVC075 07/04 A2961 RMK AO2 SLP028 T00670044 401170067=
201012260749 SPECI KPAE 260749Z AUTO 17012G20KT 10SM FEW009 BKN013 OVC070 07/04 A2961 RMK AO2 401170067=
201012260749 SPECI KPAE 260749Z AUTO 17012G20KT 10SM FEW009 BKN013 OVC070 07/04 A2961 RMK AO2 401170067=
201012260700 SPECI KPAE 260700Z AUTO 18014KT 10SM FEW010 SCT019 OVC080 07/05 A2960 RMK AO2=
201012260700 SPECI KPAE 260700Z AUTO 18014KT 10SM FEW010 SCT019 OVC080 07/05 A2960 RMK AO2=
201012260653 METAR KPAE 260653Z AUTO 19017G21KT 10SM SCT012 BKN023 OVC090 07/05 A2960 RMK AO2 PK WND 21027/0609 RAE46 SLP024 P0002 T00720050=
201012260630 SPECI KPAE 260630Z AUTO 20015G22KT 10SM FEW012 BKN018 OVC041 08/06 A2960 RMK AO2 PK WND 21027/0609 RAE30 P0002=
201012260630 SPECI KPAE 260630Z AUTO 20015G22KT 10SM FEW012 BKN018 OVC041 08/06 A2960 RMK AO2 PK WND 21027/0609 RAE30 P0002=
201012260553 METAR KPAE 260553Z AUTO 19018KT 10SM -RA OVC060 08/06 A2957 RMK AO2 RAB15 SLP016 P0001 60001 T00780056 10106 20078 52021=
201012260453 METAR KPAE 260453Z AUTO 20012KT 10SM SCT060 OVC090 09/04 A2955 RMK AO2 SLP009 T00940039=
201012260353 METAR KPAE 260353Z 21010G18KT 10SM OVC110 09/03 A2953 RMK AO2 SLP002 T00940033=
201012260253 METAR KPAE 260253Z 19010KT 10SM OVC095 09/04 A2951 RMK AO2 SLP995 T00890044 58000=
201012260153 METAR KPAE 260153Z 17009KT 10SM OVC120 09/03 A2951 RMK AO2 SLP995 T00940033=
201012260053 METAR KPAE 260053Z 18005KT 10SM SCT110 09/04 A2952 RMK AO2 SLP996 T00890039=
201012252353 METAR KPAE 252353Z 15003KT 10SM BKN100 11/04 A2951 RMK AO2 SLP995 T01060044 10117 20089 56009=
201012252253 METAR KPAE 252253Z 00000KT 10SM CLR 09/06 A2952 RMK AO2 SLP996 T00940056=
201012252153 METAR KPAE 252153Z 15003KT 10SM CLR 12/03 A2952 RMK AO2 SLP996 T01170028=
201012252053 METAR KPAE 252053Z VRB06KT 10SM FEW110 12/03 A2954 RMK AO2 SLP005 T01170028 56030=
201012251953 METAR KPAE 251953Z VRB05KT 10SM CLR 10/03 A2955 RMK AO2 SLP007 T01000033=
201012251853 METAR KPAE 251853Z 12012KT 10SM BKN065 10/03 A2959 RMK AO2 PRESFR SLP020 T01000028=
201012251753 METAR KPAE 251753Z 13004KT 10SM BKN065 OVC080 09/03 A2963 RMK AO2 RAE42 SLP036 P0002 60007 T00890033 10089 20072 55014=
201012251653 METAR KPAE 251653Z 11012G18KT 9SM -RA OVC050 08/04 A2962 RMK AO2 PRESFR SLP033 P0002 T00830044=
201012251553 METAR KPAE 251553Z VRB06KT 10SM -RA OVC055 08/05 A2967 RMK AO2 SLP049 P0001 T00780050=
201012251453 METAR KPAE 251453Z 12010KT 10SM -RA OVC050 08/05 A2967 RMK AO2 RAE19B38 PRESFR SLP051 P0001 60002 T00780050 58021=
201012251353 METAR KPAE 251353Z 12009KT 10SM -RA OVC060 08/06 A2970 RMK AO2 RAB05 SLP060 P0000 T00780056=
201012251253 METAR KPAE 251253Z VRB05KT 10SM BKN060 OVC085 07/06 A2972 RMK AO2 RAB08E51 SLP067 P0001 T00720056=
201012251153 METAR KPAE 251153Z VRB03KT 10SM SCT055 OVC065 07/06 A2974 RMK AO2 RAE53 SLP073 P0001 60017 70037 T00720056 10072 20067 58014=
201012251053 METAR KPAE 251053Z VRB04KT 10SM -RA OVC055 07/06 A2976 RMK AO2 SLP079 P0002 T00720056=
201012250953 METAR KPAE 250953Z 12008KT 10SM -RA OVC050 07/06 A2976 RMK AO2 SLP080 P0003 T00720056=
201012250853 METAR KPAE 250853Z 12010KT 10SM -RA OVC055 07/06 A2978 RMK AO2 SLP086 P0002 60011 T00720056 58016=
201012250753 METAR KPAE 250753Z 12007KT 090V170 10SM -RA OVC055 07/06 A2980 RMK AO2 SLP093 P0004 T00720056 401000067=
201012250653 METAR KPAE 250653Z VRB06KT 10SM -RA OVC049 07/06 A2982 RMK AO2 SLP101 P0005 T00720056=
201012250553 METAR KPAE 250553Z 12007KT 8SM -RA OVC045 07/06 A2983 RMK AO2 SLP103 P0006 60014 T00670056 10078 20067 58004=
201012250453 METAR KPAE 250453Z 15009KT 10SM -RA OVC047 07/05 A2983 RMK AO2 SLP105 P0003 T00720050=
201012250353 METAR KPAE 250353Z VRB05KT 10SM -RA OVC049 07/06 A2984 RMK AO2 SLP107 P0001 T00670056=
201012250253 METAR KPAE 250253Z VRB04KT 10SM -RA BKN049 OVC060 07/06 A2984 RMK AO2 SLP106 P0001 60004 T00670056 57010=
201012250153 METAR KPAE 250153Z VRB03KT 10SM -RA OVC049 07/05 A2985 RMK AO2 SLP111 P0001 T00670050=
201012250053 METAR KPAE 250053Z 13004KT 10SM -RA BKN049 OVC060 07/05 A2986 RMK AO2 SLP112 P0002 T00720050=
201012242353 METAR KPAE 242353Z 15009KT 10SM -RA BKN049 OVC060 08/05 A2987 RMK AO2 SLP116 P0001 60003 T00780050 10094 20078 58006=
201012242253 METAR KPAE 242253Z 14003KT 10SM -RA FEW038 OVC047 08/05 A2988 RMK AO2 RAB00 SLP118 P0001 T00780050=
201012242153 METAR KPAE 242153Z VRB06KT 10SM OVC044 09/04 A2989 RMK AO2 RAE00 SLP122 P0000 T00890039=
201012242053 METAR KPAE 242053Z VRB05KT 10SM -RA BKN050 BKN060 OVC100 09/03 A2989 RMK AO2 RAB05 SLP123 P0000 60001 T00890033 58006=
201012241953 METAR KPAE 241953Z VRB04KT 10SM FEW050 OVC060 09/02 A2990 RMK AO2 RAB1859E47 SLP126 P0000 T00940022=
201012241853 METAR KPAE 241853Z 16007KT 10SM OVC055 08/03 A2991 RMK AO2 RAE51 SLP132 P0001 T00830028=
201012241753 METAR KPAE 241753Z 12006KT 10SM -RA OVC047 09/02 A2991 RMK AO2 SLP130 P0002 60003 T00890022 10100 20072 53010=
201012241653 METAR KPAE 241653Z VRB04KT 9SM -RA SCT020 OVC040 07/03 A2990 RMK AO2 RAE1555B15 SLP129 P0001 T00720033=
201012241553 METAR KPAE 241553Z 18007KT 10SM -RA OVC060 09/M01 A2988 RMK AO2 RAB39 SLP118 P0000 T00941006=
201012241453 METAR KPAE 241453Z VRB04KT 10SM OVC060 09/M01 A2987 RMK AO2 SLP118 T00941006 58005=
201012241353 METAR KPAE 241353Z AUTO 11008KT 10SM OVC060 10/M01 A2987 RMK AO2 SLP117 T01001006=
201012241253 METAR KPAE 241253Z AUTO VRB06KT 10SM OVC065 10/M01 A2990 RMK AO2 SLP126 T01001011=
201012241153 METAR KPAE 241153Z AUTO 12009KT 10SM OVC070 09/M01 A2989 RMK AO2 SLP124 60001 70057 T00891006 10094 20067 58010=
201012241053 METAR KPAE 241053Z AUTO 15008KT 10SM OVC060 09/M01 A2994 RMK AO2 SLP141 T00941006=
201012240953 METAR KPAE 240953Z AUTO 15007KT 10SM OVC080 08/00 A2992 RMK AO2 SLP134 T00830000=
201012240853 METAR KPAE 240853Z AUTO VRB05KT 10SM OVC075 08/01 A2992 RMK AO2 SLP134 60001 T00830006 56009=
201012240753 METAR KPAE 240753Z AUTO VRB04KT 10SM BKN055 OVC070 08/02 A2992 RMK AO2 RAB24E43 SLP136 P0000 T00780017 400780050=
201012240653 METAR KPAE 240653Z AUTO 13005KT 10SM OVC055 07/02 A2993 RMK AO2 RAE38 SLP138 P0001 T00720022=
201012240553 METAR KPAE 240553Z AUTO VRB04KT 10SM -RA OVC050 07/03 A2995 RMK AO2 RAB15 SLP144 P0000 60005 T00670028 10078 20061 55001=
201012240453 METAR KPAE 240453Z AUTO VRB04KT 10SM BKN055 OVC065 07/03 A2994 RMK AO2 SLP141 T00720033=
201012240353 METAR KPAE 240353Z VRB04KT 10SM OVC048 07/04 A2994 RMK AO2 RAE0257B35E52 SLP140 P0001 T00670039=
201012240253 METAR KPAE 240253Z 15008KT 10SM -RA FEW038 OVC046 07/03 A2995 RMK AO2 RAB0155 SLP145 P0004 60004 T00670033 55003=
201012240153 METAR KPAE 240153Z 15009KT 10SM OVC046 07/04 A2995 RMK AO2 RAB10E20 SLP143 P0000 T00720039=
201012240053 METAR KPAE 240053Z 15007KT 110V170 10SM SCT004 OVC038 06/04 A2995 RMK AO2 RAE25 SLP143 P0000 T00610044=
201012232353 METAR KPAE 232353Z VRB03KT 4SM -RA BR FEW004 OVC040 06/04 A2996 RMK AO2 SLP149 P0011 60044 T00610044 10061 20056 55007=
201012232307 SPECI KPAE 232307Z VRB04KT 3SM -RA BR BKN004 OVC031 06/04 A2996 RMK AO2 P0003=
201012232307 SPECI KPAE 232307Z VRB04KT 3SM -RA BR BKN004 OVC031 06/04 A2996 RMK AO2 P0003=
201012232253 METAR KPAE 232253Z 14004KT 4SM -RA BR SCT004 OVC028 06/04 A2996 RMK AO2 SLP148 P0009 T00610044=
201012232246 SPECI KPAE 232246Z 15005KT 4SM -RA BR FEW004 OVC028 06/04 A2997 RMK AO2 P0007=
201012232246 SPECI KPAE 232246Z 15005KT 4SM -RA BR FEW004 OVC028 06/04 A2997 RMK AO2 P0007=
201012232212 SPECI KPAE 232212Z 16009KT 4SM -RA BR OVC030 06/04 A2998 RMK AO2 P0003=
201012232212 SPECI KPAE 232212Z 16009KT 4SM -RA BR OVC030 06/04 A2998 RMK AO2 P0003=
201012232153 METAR KPAE 232153Z 11008KT 3SM RA BR BKN027 OVC033 06/04 A2997 RMK AO2 SLP151 P0009 T00610039=
201012232053 METAR KPAE 232053Z 15008KT 4SM -RA OVC030 06/03 A2998 RMK AO2 SLP155 P0005 60015 T00610033 53008=
201012231953 METAR KPAE 231953Z 16008G16KT 10SM -RA OVC038 06/03 A2997 RMK AO2 SLP153 P0001 T00610028=
201012231853 METAR KPAE 231853Z 15010G16KT 10SM -RA OVC030 06/03 A2995 RMK AO2 SLP146 P0009 T00560028=
201012231825 SPECI KPAE 231825Z 16010KT 5SM -RA BKN027 OVC033 06/03 A2998 RMK AO2 P0006=
201012231825 SPECI KPAE 231825Z 16010KT 5SM -RA BKN027 OVC033 06/03 A2998 RMK AO2 P0006=
201012231753 METAR KPAE 231753Z 15010G18KT 10SM -RA BKN033 OVC041 06/02 A2996 RMK AO2 SLP147 P0001 60007 T00560017 10072 20056 51016=
201012231653 METAR KPAE 231653Z 15010G20KT 10SM -RA OVC031 07/01 A2994 RMK AO2 SLP141 P0002 T00670011=
201012231553 METAR KPAE 231553Z 17009KT 10SM -RA OVC033 07/02 A2993 RMK AO2 SLP137 P0003 T00670017=
201012231540 SPECI KPAE 231540Z 17009KT 10SM -RA OVC033 07/02 A2992 RMK AO2 P0003=
201012231540 SPECI KPAE 231540Z 17009KT 10SM -RA OVC033 07/02 A2992 RMK AO2 P0003=
201012231530 SPECI KPAE 231530Z 19012KT 10SM -RA BKN029 OVC037 07/02 A2992 RMK AO2 P0003=
201012231530 SPECI KPAE 231530Z 19012KT 10SM -RA BKN029 OVC037 07/02 A2992 RMK AO2 P0003=
201012231453 METAR KPAE 231453Z 16009G20KT 10SM -RA OVC033 07/00 A2991 RMK AO2 RAB09 SLP130 P0001 60001 T00670000 53005=
201012231353 METAR KPAE 231353Z AUTO 16011G21KT 10SM BKN049 OVC070 07/M02 A2990 RMK AO2 SLP127 T00721017=
201012231253 METAR KPAE 231253Z AUTO VRB06KT 10SM BKN060 OVC075 07/M02 A2989 RMK AO2 RAB29E37 SLP124 P0000 T00671017=
201012231153 METAR KPAE 231153Z AUTO VRB04KT 10SM FEW050 BKN060 OVC090 05/M01 A2989 RMK AO2 SLP125 70005 T00501006 10061 20050 53005=
201012231053 METAR KPAE 231053Z AUTO 12008KT 10SM FEW060 OVC075 05/00 A2989 RMK AO2 SLP123 T00500000=
201012230953 METAR KPAE 230953Z AUTO 14003KT 10SM BKN075 05/00 A2988 RMK AO2 SLP120 T00500000=
201012230853 METAR KPAE 230853Z AUTO 15007KT 10SM CLR 06/M01 A2988 RMK AO2 SLP119 T00611006 51007=
201012230753 METAR KPAE 230753Z AUTO VRB04KT 10SM CLR 06/01 A2987 RMK AO2 SLP117 T00610006 401000056=
201012230653 METAR KPAE 230653Z AUTO 15006KT 10SM CLR 06/01 A2987 RMK AO2 SLP117 T00610006=
201012230553 METAR KPAE 230553Z AUTO VRB04KT 10SM CLR 06/02 A2986 RMK AO2 SLP112 T00610017 10078 20061 51008=
201012230453 METAR KPAE 230453Z AUTO VRB04KT 10SM BKN049 06/02 A2985 RMK AO2 SLP110 T00610022=
201012230353 METAR KPAE 230353Z 14004KT 10SM BKN055 07/02 A2984 RMK AO2 SLP107 T00670022=
201012230253 METAR KPAE 230253Z 15004KT 10SM FEW027 BKN050 OVC065 07/03 A2983 RMK AO2 SLP104 T00720028 51009=
201012230153 METAR KPAE 230153Z 16005KT 10SM FEW043 07/02 A2983 RMK AO2 SLP103 T00670017=
201012230053 METAR KPAE 230053Z 16008KT 10SM FEW042 08/02 A2982 RMK AO2 SLP099 T00780022=
201012222353 METAR KPAE 222353Z 18009KT 10SM SCT040 08/02 A2981 RMK AO2 SLP095 T00780022 10089 20067 53010=
201012222253 METAR KPAE 222253Z 19011KT 10SM BKN065 08/02 A2979 RMK AO2 SLP090 T00830022=
201012222153 METAR KPAE 222153Z 20013KT 10SM BKN033 08/03 A2978 RMK AO2 SLP086 T00830028=
201012222053 METAR KPAE 222053Z 20010G18KT 10SM FEW024 BKN031 08/03 A2977 RMK AO2 SLP083 T00830033 51005=
201012221953 METAR KPAE 221953Z 19017G22KT 10SM BKN042 08/03 A2977 RMK AO2 SLP082 T00830033=
201012221853 METAR KPAE 221853Z 17010KT 10SM OVC042 08/03 A2977 RMK AO2 SLP082 T00780033=
201012221753 METAR KPAE 221753Z 16008KT 10SM BKN048 BKN060 07/02 A2976 RMK AO2 SLP078 60005 T00670022 10072 20061 53019=
201012221653 METAR KPAE 221653Z 16007KT 10SM BKN042 07/02 A2973 RMK AO2 SLP071 T00670022=
201012221553 METAR KPAE 221553Z 15005KT 10SM FEW047 07/02 A2971 RMK AO2 SLP062 T00670022=
201012221453 METAR KPAE 221453Z 15006KT 10SM FEW041 SCT055 07/03 A2970 RMK AO2 RAE47 SLP059 P0000 60005 T00670028 58005=
201012221353 METAR KPAE 221353Z AUTO 11007KT 10SM -RA FEW038 BKN045 OVC055 07/04 A2971 RMK AO2 RAE1259B23 SLP062 P0001 T00670039=
201012221301 SPECI KPAE 221301Z AUTO 15006KT 10SM FEW024 BKN043 OVC050 07/03 A2971 RMK AO2 RAE1259 P0000=
201012221301 SPECI KPAE 221301Z AUTO 15006KT 10SM FEW024 BKN043 OVC050 07/03 A2971 RMK AO2 RAE1259 P0000=
201012221253 METAR KPAE 221253Z AUTO 17005KT 6SM -RA BKN024 BKN034 OVC055 07/03 A2972 RMK AO2 RAB05 SLP064 P0004 T00720028=
201012221238 SPECI KPAE 221238Z AUTO 15006KT 5SM -RA BKN026 BKN034 OVC050 07/04 A2973 RMK AO2 RAB05 P0003=
201012221238 SPECI KPAE 221238Z AUTO 15006KT 5SM -RA BKN026 BKN034 OVC050 07/04 A2973 RMK AO2 RAB05 P0003=
201012221153 METAR KPAE 221153Z AUTO 25005KT 10SM OVC055 07/03 A2972 RMK AO2 RAB15E41 SLP065 P0002 60002 70004 T00670033 10100 20067 53019=
201012221053 METAR KPAE 221053Z AUTO 00000KT 10SM FEW043 OVC060 09/01 A2968 RMK AO2 RAB09E53 SLP052 P0000 T00940011=
201012220953 METAR KPAE 220953Z AUTO VRB05KT 10SM OVC060 10/00 A2966 RMK AO2 RAE53 SLP043 P0000 T01000000=
201012220853 METAR KPAE 220853Z AUTO VRB05KT 10SM -RA BKN044 OVC060 09/M01 A2966 RMK AO2 SLP045 P0000 60000 T00941006 52007=
201012220753 METAR KPAE 220753Z AUTO VRB05G16KT 10SM -RA OVC050 10/M01 A2965 RMK AO2 RAB49 SLP042 P0000 T01001011 401060044=
201012220653 METAR KPAE 220653Z AUTO 15006G18KT 10SM OVC055 10/M02 A2965 RMK AO2 RAB29E38 SLP041 P0000 T01001022=
201012220553 METAR KPAE 220553Z AUTO 12012G17KT 10SM FEW055 BKN080 BKN100 09/M02 A2964 RMK AO2 RAE11 SLP037 P0000 60000 T00941017 10100 20089 58007 TSNO=
201012220453 METAR KPAE 220453Z 12007KT 10SM -RA BKN043 OVC050 09/00 A2966 RMK AO2 RAB41 SLP045 P0000 T00890000=
201012220353 METAR KPAE 220353Z 12009KT 10SM BKN060 OVC090 09/M02 A2965 RMK AO2 SLP042 T00941017=
201012220253 METAR KPAE 220253Z 12008KT 10SM OVC055 09/M02 A2966 RMK AO2 SLP046 T00941017 58001=
201012220153 METAR KPAE 220153Z 17006KT 10SM OVC060 09/M02 A2966 RMK AO2 SLP047 T00941017=
201012220053 METAR KPAE 220053Z 17007KT 10SM FEW110 09/M01 A2967 RMK AO2 SLP049 T00891011=
201012212353 METAR KPAE 212353Z 16006KT 10SM BKN090 09/M01 A2966 RMK AO2 SLP047 T00891006 10106 20072 55004=
201012212253 METAR KPAE 212253Z VRB06KT 10SM SCT085 10/M01 A2965 RMK AO2 SLP043 T01001006=
201012212153 METAR KPAE 212153Z 16009KT 10SM CLR 10/M01 A2966 RMK AO2 SLP045 T01001006=
201012212053 METAR KPAE 212053Z 23005KT 10SM SCT075 BKN095 08/03 A2968 RMK AO2 SLP052 T00780028 55001=
201012211953 METAR KPAE 211953Z 12008KT 10SM SCT075 09/M01 A2966 RMK AO2 SLP047 T00941006=
201012211853 METAR KPAE 211853Z 13008G14KT 110V170 10SM CLR 08/M01 A2967 RMK AO2 SLP048 T00831006=
201012211753 METAR KPAE 211753Z 12009G15KT 10SM FEW065 07/M01 A2968 RMK AO2 SLP052 60002 T00721006 10072 20044 53003=
201012211653 METAR KPAE 211653Z 11009KT 10SM SCT065 06/M01 A2967 RMK AO2 SLP051 T00611006=
201012211553 METAR KPAE 211553Z 12008KT 10SM BKN060 06/01 A2967 RMK AO2 SLP049 T00610006=
201012211453 METAR KPAE 211453Z 12005KT 10SM FEW038 BKN060 OVC075 06/02 A2967 RMK AO2 RAB28E38 SLP050 P0001 60002 T00560017 53003=
201012211353 METAR KPAE 211353Z AUTO 15006KT 10SM BKN045 OVC055 06/02 A2966 RMK AO2 RAE18 SLP047 P0000 T00560017=
201012211253 METAR KPAE 211253Z AUTO 12007KT 10SM -RA BKN041 BKN048 OVC055 04/01 A2965 RMK AO2 SLP044 P0001 T00440011=
201012211211 SPECI KPAE 211211Z AUTO 12007KT 10SM -RA FEW029 BKN041 OVC050 05/02 A2965 RMK AO2 P0001=
201012211211 SPECI KPAE 211211Z AUTO 12007KT 10SM -RA FEW029 BKN041 OVC050 05/02 A2965 RMK AO2 P0001=
201012211153 METAR KPAE 211153Z AUTO 15006KT 7SM -RA BKN029 OVC034 05/03 A2966 RMK AO2 SLP047 P0004 60008 70014 T00500028 10067 20050 51020=
201012211053 METAR KPAE 211053Z AUTO 15010G15KT 7SM -RA OVC027 06/02 A2965 RMK AO2 SLP043 P0004 T00560017=
201012211042 SPECI KPAE 211042Z AUTO VRB05KT 6SM -RA BKN029 OVC038 06/02 A2964 RMK AO2 P0003=
201012211042 SPECI KPAE 211042Z AUTO VRB05KT 6SM -RA BKN029 OVC038 06/02 A2964 RMK AO2 P0003=
201012210953 METAR KPAE 210953Z AUTO VRB05KT 10SM -RA BKN033 OVC048 07/00 A2962 RMK AO2 RAB04 SLP033 P0000 T00670000=
201012210853 METAR KPAE 210853Z AUTO 12007KT 10SM BKN043 OVC065 06/M02 A2960 RMK AO2 SLP026 T00561022 53015=
201012210753 METAR KPAE 210753Z AUTO 11008KT 10SM SCT060 BKN070 OVC095 06/M02 A2958 RMK AO2 SLP019 T00561022 400610022=
201012210653 METAR KPAE 210653Z AUTO VRB03KT 10SM BKN075 05/M02 A2957 RMK AO2 SLP017 T00501022=
201012210553 METAR KPAE 210553Z AUTO 12005KT 10SM OVC050 06/M02 A2956 RMK AO2 SLP011 60001 T00561017 10056 20044 53020=
201012210453 METAR KPAE 210453Z 12008KT 10SM BKN060 05/M02 A2953 RMK AO2 SLP003 T00501017=
201012210353 METAR KPAE 210353Z VRB05KT 10SM FEW060 SCT120 06/M02 A2951 RMK AO2 SLP996 T00561017=
201012210253 METAR KPAE 210253Z 14005KT 10SM SCT110 05/M01 A2949 RMK AO2 SLP991 60001 T00501011 53008=
201012210153 METAR KPAE 210153Z 12006KT 10SM SCT055 OVC095 05/M01 A2948 RMK AO2 SLP987 T00501006=
201012210053 METAR KPAE 210053Z VRB04KT 10SM FEW041 04/01 A2947 RMK AO2 RAE11 SLP982 P0001 T00440006=
201012210013 SPECI KPAE 210013Z 12008G15KT 10SM SCT024 OVC048 04/02 A2946 RMK AO2 RAE11 P0001=
201012210013 SPECI KPAE 210013Z 12008G15KT 10SM SCT024 OVC048 04/02 A2946 RMK AO2 RAE11 P0001=
201012202353 METAR KPAE 202353Z 13006KT 10SM -RA OVC028 05/01 A2947 RMK AO2 RAE13B30 SLP982 P0000 60004 T00500011 10061 20044 53009=
201012202253 METAR KPAE 202253Z VRB05KT 10SM -RA BKN031 BKN039 OVC048 04/02 A2945 RMK AO2 RAB17 SLP977 P0000 T00440017=
201012202232 SPECI KPAE 202232Z 13007KT 10SM -RA BKN029 BKN036 05/02 A2945 RMK AO2 RAB17 P0000=
201012202232 SPECI KPAE 202232Z 13007KT 10SM -RA BKN029 BKN036 05/02 A2945 RMK AO2 RAB17 P0000=
201012202200 SPECI KPAE 202200Z VRB05KT 10SM SCT038 BKN065 04/01 A2944 RMK AO2=
201012202200 SPECI KPAE 202200Z VRB05KT 10SM SCT038 BKN065 04/01 A2944 RMK AO2=
201012202153 METAR KPAE 202153Z VRB06KT 10SM BKN019 04/01 A2944 RMK AO2 RAE02B28E42 SLP973 P0000 T00440011=
201012202053 METAR KPAE 202053Z 15012G20KT 10SM -RA BKN019 04/01 A2944 RMK AO2 SLP974 P0004 60004 T00440011 51010=
201012202001 SPECI KPAE 202001Z 17011G18KT 8SM -RA BKN025 OVC046 06/M01 A2944 RMK AO2 P0001=
201012202001 SPECI KPAE 202001Z 17011G18KT 8SM -RA BKN025 OVC046 06/M01 A2944 RMK AO2 P0001=
201012201953 METAR KPAE 201953Z 15011G15KT 10SM -RA BKN031 BKN040 OVC048 06/M01 A2944 RMK AO2 RAB52 SLP972 P0000 T00561011=
201012201853 METAR KPAE 201853Z VRB05KT 10SM BKN042 OVC055 05/00 A2942 RMK AO2 SLP967 T00500000=
201012201753 METAR KPAE 201753Z 12012G19KT 10SM FEW022 BKN060 OVC075 04/00 A2941 RMK AO2 RAE50 SLP962 P0001 60001 T00440000 10044 20039 50012=
201012201748 SPECI KPAE 201748Z 12010G18KT 10SM -RA SCT022 SCT037 OVC060 04/01 A2941 RMK AO2 P0001=
201012201748 SPECI KPAE 201748Z 12010G18KT 10SM -RA SCT022 SCT037 OVC060 04/01 A2941 RMK AO2 P0001=
201012201653 METAR KPAE 201653Z 15009G21KT 10SM -RA BKN029 OVC040 04/M01 A2940 RMK AO2 RAB17 SLP959 P0000 T00441006=
201012201553 METAR KPAE 201553Z VRB04KT 10SM OVC050 04/M02 A2938 RMK AO2 SLP951 T00441017=
201012201453 METAR KPAE 201453Z VRB04KT 10SM OVC060 04/M01 A2937 RMK AO2 RAB19E28 SLP949 P0000 60000 T00441011 53005=
201012201353 METAR KPAE 201353Z AUTO 12008KT 10SM FEW050 OVC070 04/M02 A2937 RMK AO2 SLP947 T00391017=
201012201253 METAR KPAE 201253Z AUTO 11009KT 10SM SCT060 OVC095 04/M02 A2936 RMK AO2 SLP946 T00391017=
201012201153 METAR KPAE 201153Z AUTO 11006KT 10SM FEW100 03/M01 A2936 RMK AO2 SLP944 60007 70008 T00331006 10044 20017 58000=
201012201053 METAR KPAE 201053Z AUTO 12005KT 10SM OVC065 03/00 A2936 RMK AO2 SLP946 T00280000=
201012200953 METAR KPAE 200953Z AUTO 12004KT 10SM FEW037 SCT050 03/01 A2936 RMK AO2 UPE03RAB03E19 SLP944 P0001 T00280006=
201012200918 SPECI KPAE 200918Z AUTO VRB05KT 10SM -RA BKN033 OVC060 03/01 A2935 RMK AO2 UPE03RAB03 P0000=
201012200918 SPECI KPAE 200918Z AUTO VRB05KT 10SM -RA BKN033 OVC060 03/01 A2935 RMK AO2 UPE03RAB03 P0000=
201012200853 METAR KPAE 200853Z AUTO 15004KT 10SM UP OVC025 03/01 A2936 RMK AO2 RAE53UPB27E28B53 SLP944 P0000 60006 T00280006 51009=
201012200838 SPECI KPAE 200838Z AUTO VRB05KT 10SM -RA BKN025 BKN040 OVC055 03/01 A2935 RMK AO2 UPB27E28 P0000=
201012200838 SPECI KPAE 200838Z AUTO VRB05KT 10SM -RA BKN025 BKN040 OVC055 03/01 A2935 RMK AO2 UPB27E28 P0000=
201012200753 METAR KPAE 200753Z AUTO VRB04KT 10SM -RA SCT018 BKN040 OVC046 02/01 A2935 RMK AO2 SLP942 P0004 T00220006 400720017=
201012200653 METAR KPAE 200653Z AUTO 16008KT 8SM -RA BKN018 OVC036 02/00 A2935 RMK AO2 RAB06 SLP944 P0002 T00220000=
201012200625 SPECI KPAE 200625Z AUTO 17009KT 10SM -RA BKN026 BKN036 OVC060 03/00 A2935 RMK AO2 RAB06 P0000=
201012200625 SPECI KPAE 200625Z AUTO 17009KT 10SM -RA BKN026 BKN036 OVC060 03/00 A2935 RMK AO2 RAB06 P0000=
201012200553 METAR KPAE 200553Z AUTO 18011G18KT 10SM SCT050 OVC070 04/M04 A2933 RMK AO2 SLP935 T00441039 10056 20039 53018=
201012200453 METAR KPAE 200453Z 11004KT 10SM BKN070 BKN085 04/M06 A2930 RMK AO2 SLP927 T00391056=
201012200353 METAR KPAE 200353Z 00000KT 10SM CLR 04/M06 A2928 RMK AO2 SLP919 T00391056=
201012200253 METAR KPAE 200253Z 10006KT 10SM CLR 04/M06 A2928 RMK AO2 SLP917 T00391056 58012=
201012200153 METAR KPAE 200153Z 10007KT 10SM CLR 04/M05 A2928 RMK AO2 SLP919 T00441050=
201012200053 METAR KPAE 200053Z 16006KT 10SM CLR 05/M04 A2931 RMK AO2 SLP928 T00501039=
201012192353 METAR KPAE 192353Z 00000KT 10SM CLR 06/M01 A2931 RMK AO2 SLP930 T00561011 10072 20044 55017=
201012192253 METAR KPAE 192253Z 06003KT 10SM CLR 07/M05 A2930 RMK AO2 SLP924 T00721050=
201012192153 METAR KPAE 192153Z 09007G14KT 10SM CLR 07/M05 A2931 RMK AO2 SLP929 T00721050=
201012192053 METAR KPAE 192053Z 10009KT 10SM CLR 07/M04 A2936 RMK AO2 SLP946 T00671039 58039=
201012191953 METAR KPAE 191953Z 11010KT 10SM CLR 06/M04 A2941 RMK AO2 SLP963 T00611039=
201012191853 METAR KPAE 191853Z 12009KT 10SM CLR 06/M03 A2945 RMK AO2 SLP977 T00561028=
201012191753 METAR KPAE 191753Z VRB04KT 10SM CLR 04/M02 A2948 RMK AO2 SLP987 60001 T00391017 10039 20017 56017=
201012191653 METAR KPAE 191653Z 13003KT 10SM SCT044 03/M02 A2950 RMK AO2 SLP992 T00281017=
201012191553 METAR KPAE 191553Z 12007KT 10SM OVC050 03/M01 A2951 RMK AO2 SLP998 T00281006=
201012191453 METAR KPAE 191453Z 13004KT 10SM SCT029 OVC036 02/M01 A2953 RMK AO2 RAB33E46UPB34E36 SLP005 P0000 60001 T00221006 56009=
201012191421 SPECI KPAE 191421Z 12007KT 10SM BKN029 OVC037 02/M01 A2954 RMK AO2=
201012191421 SPECI KPAE 191421Z 12007KT 10SM BKN029 OVC037 02/M01 A2954 RMK AO2=
201012191353 METAR KPAE 191353Z 12007KT 10SM BKN033 OVC041 02/M01 A2954 RMK AO2 SLP008 T00221006=
201012191253 METAR KPAE 191253Z 11008KT 10SM BKN039 OVC065 02/00 A2954 RMK AO2 RAB11E51UPB43E50 SLP009 P0001 T00170000=
201012191237 SPECI KPAE 191237Z 12010KT 8SM -RA FEW005 BKN039 OVC065 02/00 A2955 RMK AO2 RAB11 P0001=
201012191237 SPECI KPAE 191237Z 12010KT 8SM -RA FEW005 BKN039 OVC065 02/00 A2955 RMK AO2 RAB11 P0001=
201012191153 METAR KPAE 191153Z VRB06KT 10SM SCT040 OVC060 02/00 A2956 RMK AO2 FZRAE19 SLP014 P0000 60003 70015 T00220000 10033 20022 50009=
201012191125 SPECI KPAE 191125Z 15006KT 10SM FEW033 BKN048 OVC065 02/00 A2956 RMK AO2 FZRAE19 P0000=
201012191125 SPECI KPAE 191125Z 15006KT 10SM FEW033 BKN048 OVC065 02/00 A2956 RMK AO2 FZRAE19 P0000=
201012191101 SPECI KPAE 191101Z 15006KT 10SM -FZRA SCT017 OVC050 02/M01 A2957 RMK AO2 P0000=
201012191101 SPECI KPAE 191101Z 15006KT 10SM -FZRA SCT017 OVC050 02/M01 A2957 RMK AO2 P0000=
201012191053 METAR KPAE 191053Z VRB04KT 8SM -FZRA BKN015 OVC050 02/M01 A2957 RMK AO2 RAE52UPB10E11FZRAB52SNB27E50 SLP017 P0003 T00221006=
201012190953 METAR KPAE 190953Z 15006KT 9SM -RA OVC029 03/M03 A2956 RMK AO2 RAB46 SLP012 P0000 T00331028=
201012190853 METAR KPAE 190853Z 14006KT 10SM BKN060 OVC110 03/M03 A2953 RMK AO2 SLP004 T00331033 56012=
201012190753 METAR KPAE 190753Z 12007KT 10SM CLR 03/M04 A2954 RMK AO2 SLP005 T00281039 400780022=
201012190653 METAR KPAE 190653Z 12010KT 10SM CLR 02/M02 A2955 RMK AO2 SLP011 T00221022=
201012190553 METAR KPAE 190553Z VRB04KT 10SM CLR 02/M01 A2957 RMK AO2 SLP017 60000 T00221011 10033 20022 55007=
201012190453 METAR KPAE 190453Z 12008KT 10SM FEW060 03/M01 A2956 RMK AO2 SLP015 T00281006=
201012190353 METAR KPAE 190353Z VRB04KT 10SM SCT050 03/01 A2959 RMK AO2 SLP024 T00280006=
201012190253 METAR KPAE 190253Z 12009KT 10SM BKN048 03/00 A2959 RMK AO2 SLP023 60000 T00280000 50008=
201012190153 METAR KPAE 190153Z 13008G16KT 10SM FEW042 SCT060 03/01 A2959 RMK AO2 SLP024 T00280011=
201012190053 METAR KPAE 190053Z VRB06G18KT 10SM FEW007 BKN055 OVC100 03/02 A2960 RMK AO2 PK WND 16026/0015 RAE06 SLP025 P0000 T00330017=
201012190014 SPECI KPAE 190014Z 15016G24KT 10SM FEW010 OVC019 03/02 A2957 RMK AO2 RAE06 P0000=
201012190014 SPECI KPAE 190014Z 15016G24KT 10SM FEW010 OVC019 03/02 A2957 RMK AO2 RAE06 P0000=
201012182353 METAR KPAE 182353Z 15018G26KT 6SM -RA BR FEW008 BKN013 OVC021 03/02 A2956 RMK AO2 PK WND 16029/2341 SLP014 P0006 60009 T00330017 10078 20033 53028=
201012182253 METAR KPAE 182253Z 17013G21KT 8SM -RA FEW018 BKN024 OVC030 06/02 A2954 RMK AO2 PK WND 19033/2213 RAB07 SLP004 P0003 T00560022=
201012182230 SPECI KPAE 182230Z 18020G26KT 6SM -RA BKN022 OVC038 06/01 A2953 RMK AO2 PK WND 19033/2213 RAB07 P0001=
201012182230 SPECI KPAE 182230Z 18020G26KT 6SM -RA BKN022 OVC038 06/01 A2953 RMK AO2 PK WND 19033/2213 RAB07 P0001=
201012182153 METAR KPAE 182153Z 16010KT 10SM BKN035 OVC042 08/M03 A2950 RMK AO2 SLP993 T00781028=
201012182053 METAR KPAE 182053Z 15011G17KT 10SM FEW038 SCT050 BKN065 08/M03 A2948 RMK AO2 SLP985 60000 T00781033 50004=
201012181953 METAR KPAE 181953Z 14007G15KT 10SM OVC034 06/M02 A2948 RMK AO2 RAB36E50 SLP987 P0000 T00561017=
201012181853 METAR KPAE 181853Z 12012G18KT 10SM FEW045 BKN070 BKN090 04/M01 A2947 RMK AO2 SLP983 T00441011=
201012181800 METAR KPAE NIL=
201012181653 METAR KPAE 181653Z 11014G21KT 7SM -RA BKN015 BKN033 OVC043 03/M01 A2947 RMK AO2 SLP981 P0002 T00331006=
201012181553 METAR KPAE 181553Z 13009G18KT 7SM -RA BKN023 BKN028 OVC037 05/M02 A2945 RMK AO2 RAB21 SLP975 P0001 T00501017=
201012181532 SPECI KPAE 181532Z 00000KT 10SM -RA BKN026 BKN034 OVC045 06/M03 A2943 RMK AO2 RAB21 P0000=
201012181532 SPECI KPAE 181532Z 00000KT 10SM -RA BKN026 BKN034 OVC045 06/M03 A2943 RMK AO2 RAB21 P0000=
201012181453 METAR KPAE 181453Z 00000KT 10SM OVC050 06/M07 A2941 RMK AO2 SLP960 T00561067 53005=
201012181353 METAR KPAE 181353Z AUTO 11010G16KT 10SM OVC065 07/M08 A2936 RMK AO2 SLP945 T00671078=
201012181253 METAR KPAE 181253Z AUTO 11010KT 10SM FEW100 07/M08 A2937 RMK AO2 SLP947 T00671078=
201012181153 METAR KPAE 181153Z AUTO 11007KT 10SM CLR 06/M07 A2939 RMK AO2 SLP954 T00611072 10061 20056 56030=
201012181053 METAR KPAE 181053Z AUTO 11010G15KT 10SM CLR 06/M07 A2942 RMK AO2 SLP965 T00611072=
201012180953 METAR KPAE 180953Z AUTO 10010G14KT 10SM CLR 06/M07 A2945 RMK AO2 SLP973 T00611072=
201012180853 METAR KPAE 180853Z AUTO 10008G16KT 060V120 10SM CLR 06/M07 A2948 RMK AO2 SLP985 T00611067 58050=
201012180753 METAR KPAE 180753Z AUTO 10010G17KT 050V120 10SM CLR 06/M07 A2953 RMK AO2 SLP001 T00561067 400830039=
201012180653 METAR KPAE 180653Z AUTO 10010G16KT 10SM CLR 06/M07 A2958 RMK AO2 SLP020 T00561067=
201012180553 METAR KPAE 180553Z AUTO 10009G15KT 10SM CLR 06/M07 A2963 RMK AO2 SLP037 T00561067 10067 20050 58031=
201012180453 METAR KPAE 180453Z AUTO 10006KT 10SM CLR 05/M07 A2967 RMK AO2 SLP050 T00501067=
201012180353 METAR KPAE 180353Z 10008G16KT 10SM CLR 06/M06 A2969 RMK AO2 SLP057 T00561061=
201012180253 METAR KPAE 180253Z 10007KT 10SM CLR 05/M06 A2972 RMK AO2 SLP068 T00501056 58022=
201012180153 METAR KPAE 180153Z 11009KT 10SM CLR 06/M06 A2976 RMK AO2 PRESFR SLP081 T00561056=
201012180053 METAR KPAE 180053Z 11009KT 10SM CLR 06/M05 A2977 RMK AO2 SLP086 T00611050=
201012172353 METAR KPAE 172353Z 11009KT 10SM CLR 07/M05 A2979 RMK AO2 SLP090 T00671050 10083 20056 56011=
201012172253 METAR KPAE 172253Z 11013KT 10SM CLR 08/M05 A2979 RMK AO2 SLP090 T00831050=
201012172153 METAR KPAE 172153Z 12010KT 10SM CLR 08/M05 A2980 RMK AO2 SLP093 T00831050=
201012172053 METAR KPAE 172053Z 12007KT 070V160 10SM CLR 08/M05 A2982 RMK AO2 SLP101 T00831050 58019=
201012171953 METAR KPAE 171953Z 12004KT 10SM CLR 08/M04 A2985 RMK AO2 SLP111 T00831044=
201012171853 METAR KPAE 171853Z 15006KT 10SM CLR 07/M04 A2987 RMK AO2 SLP118 T00721039=
201012171753 METAR KPAE 171753Z 15004KT 10SM CLR 06/M04 A2988 RMK AO2 SLP121 T00561044 10056 20039 57001=
201012171653 METAR KPAE 171653Z 15005KT 10SM CLR 04/M04 A2988 RMK AO2 SLP122 T00441044=
201012171553 METAR KPAE 171553Z VRB03KT 10SM CLR 04/M04 A2988 RMK AO2 SLP121 T00391044=
201012171453 METAR KPAE 171453Z 15003KT 10SM FEW110 04/M04 A2988 RMK AO2 SLP122 T00441044 58007=
201012171353 METAR KPAE 171353Z 12003KT 10SM CLR 04/M04 A2989 RMK AO2 SLP126 T00441044=
201012171253 METAR KPAE 171253Z 15005KT 10SM CLR 05/M04 A2990 RMK AO2 SLP127 T00501044=
201012171153 METAR KPAE 171153Z 15008KT 10SM CLR 05/M04 A2990 RMK AO2 SLP129 T00501039 10067 20044 58000=
201012171053 METAR KPAE 171053Z 15005KT 10SM CLR 06/M04 A2991 RMK AO2 SLP130 T00561039=
201012170953 METAR KPAE 170953Z 14006KT 10SM CLR 06/M04 A2991 RMK AO2 SLP130 T00611039=
201012170853 METAR KPAE 170853Z 12008KT 10SM CLR 06/M04 A2990 RMK AO2 SLP129 T00561039 58005=
201012170753 METAR KPAE 170753Z 12009KT 10SM CLR 06/M03 A2991 RMK AO2 SLP131 T00561033 400720039=
201012170653 METAR KPAE 170653Z VRB04KT 10SM CLR 06/M03 A2992 RMK AO2 SLP137 T00561028=
201012170553 METAR KPAE 170553Z AUTO 15006KT 10SM CLR 06/M02 A2992 RMK AO2 SLP135 T00561022 10067 20056 56002=
201012170453 METAR KPAE 170453Z AUTO VRB05KT 10SM CLR 06/M02 A2992 RMK AO2 SLP136 T00611022=
201012170353 METAR KPAE 170353Z VRB04KT 10SM CLR 06/M02 A2992 RMK AO2 SLP135 T00611017=
201012170253 METAR KPAE 170253Z VRB05KT 10SM CLR 06/M01 A2993 RMK AO2 SLP137 T00611011 56005=
201012170153 METAR KPAE 170153Z VRB04KT 10SM CLR 07/M01 A2993 RMK AO2 SLP139 T00671006=
201012170053 METAR KPAE 170053Z 12007KT 10SM CLR 07/01 A2993 RMK AO2 SLP139 T00670011=
201012162353 METAR KPAE 162353Z 11007KT 10SM CLR 07/02 A2994 RMK AO2 SLP142 T00670017 10072 20044 56007=
201012162253 METAR KPAE 162253Z 13005KT 10SM SCT110 07/02 A2994 RMK AO2 SLP144 T00720022=
201012162153 METAR KPAE 162153Z 15007KT 110V170 10SM SCT100 07/01 A2995 RMK AO2 SLP144 T00720011=
201012162053 METAR KPAE 162053Z VRB04KT 10SM FEW110 07/02 A2996 RMK AO2 SLP150 T00720017 58014=
201012161953 METAR KPAE 161953Z 00000KT 10SM FEW046 BKN110 06/02 A2998 RMK AO2 SLP155 T00610022=
201012161853 METAR KPAE 161853Z 11007KT 10SM SCT046 BKN100 06/01 A2999 RMK AO2 SLP160 T00560011=
201012161753 METAR KPAE 161753Z 12005KT 10SM R16R/0600VP6000FT FEW090 BKN100 04/01 A3000 RMK AO2 SLP164 60000 T00440011 10044 20039 53002=
201012161653 METAR KPAE 161653Z 12004KT 10SM FEW029 BKN046 OVC055 04/02 A3000 RMK AO2 RAB09E42 SLP163 P0000 T00440022=
201012161553 METAR KPAE 161553Z VRB04KT 10SM SCT080 OVC110 04/02 A3000 RMK AO2 SLP163 T00440017=
201012161453 METAR KPAE 161453Z VRB03KT 10SM OVC032 04/02 A3000 RMK AO2 SLP162 60000 T00440022 50000=
201012161421 SPECI KPAE 161421Z AUTO 00000KT 10SM SCT024 OVC038 04/02 A3000 RMK AO2=
201012161421 SPECI KPAE 161421Z AUTO 00000KT 10SM SCT024 OVC038 04/02 A3000 RMK AO2=
201012161353 METAR KPAE 161353Z AUTO 11005KT 10SM BKN022 OVC040 04/02 A3000 RMK AO2 RAB49E51 SLP163 P0000 T00390022=
201012161253 METAR KPAE 161253Z AUTO 11005KT 10SM BKN022 OVC029 04/02 A3000 RMK AO2 SLP162 T00440022=
201012161230 SPECI KPAE 161230Z AUTO VRB03KT 10SM BKN023 OVC031 04/02 A3000 RMK AO2=
201012161230 SPECI KPAE 161230Z AUTO VRB03KT 10SM BKN023 OVC031 04/02 A3000 RMK AO2=
201012161153 METAR KPAE 161153Z AUTO 15005KT 10SM BKN035 04/02 A3000 RMK AO2 SLP162 70011 T00390022 10044 20039 50003=
201012161053 METAR KPAE 161053Z AUTO 15007KT 10SM FEW015 SCT029 BKN035 04/02 A3000 RMK AO2 SLP163 T00390022=
201012160953 METAR KPAE 160953Z AUTO VRB06KT 10SM SCT020 OVC026 04/02 A3000 RMK AO2 SLP161 T00440022=
201012160853 METAR KPAE 160853Z AUTO 14005KT 10SM OVC020 04/02 A2999 RMK AO2 SLP159 T00390022 51013=
201012160819 SPECI KPAE 160819Z AUTO 15009KT 10SM SCT012 BKN018 OVC025 04/02 A2998 RMK AO2=
201012160819 SPECI KPAE 160819Z AUTO 15009KT 10SM SCT012 BKN018 OVC025 04/02 A2998 RMK AO2=
201012160753 METAR KPAE 160753Z AUTO 15009KT 10SM BKN012 OVC021 04/02 A2998 RMK AO2 SLP157 T00390022 400720039=
201012160746 SPECI KPAE 160746Z AUTO 16009KT 10SM FEW009 BKN012 OVC021 04/02 A2998 RMK AO2=
201012160746 SPECI KPAE 160746Z AUTO 16009KT 10SM FEW009 BKN012 OVC021 04/02 A2998 RMK AO2=
201012160725 SPECI KPAE 160725Z AUTO 16011KT 10SM SCT012 OVC023 04/02 A2998 RMK AO2=
201012160725 SPECI KPAE 160725Z AUTO 16011KT 10SM SCT012 OVC023 04/02 A2998 RMK AO2=
201012160714 SPECI KPAE 160714Z AUTO 16012KT 10SM SCT006 BKN012 OVC025 04/02 A2997 RMK AO2=
201012160714 SPECI KPAE 160714Z AUTO 16012KT 10SM SCT006 BKN012 OVC025 04/02 A2997 RMK AO2=
201012160653 METAR KPAE 160653Z AUTO 15012G16KT 8SM BKN006 OVC013 04/03 A2997 RMK AO2 CIG 004V009 SLP152 T00390028=
201012160641 SPECI KPAE 160641Z AUTO 16010KT 9SM BKN006 BKN016 OVC023 04/02 A2996 RMK AO2 CIG 004V009=
201012160641 SPECI KPAE 160641Z AUTO 16010KT 9SM BKN006 BKN016 OVC023 04/02 A2996 RMK AO2 CIG 004V009=
201012160632 SPECI KPAE 160632Z AUTO 16012KT 10SM SCT006 OVC014 04/02 A2996 RMK AO2=
201012160632 SPECI KPAE 160632Z AUTO 16012KT 10SM SCT006 OVC014 04/02 A2996 RMK AO2=
201012160606 SPECI KPAE 160606Z AUTO 15008KT 8SM BKN006 OVC017 04/03 A2995 RMK AO2 CIG 003V009=
201012160606 SPECI KPAE 160606Z AUTO 15008KT 8SM BKN006 OVC017 04/03 A2995 RMK AO2 CIG 003V009=
201012160553 METAR KPAE 160553Z AUTO 15008KT 110V170 10SM SCT008 BKN019 OVC028 04/02 A2995 RMK AO2 RAE24 SLP145 P0000 60011 T00390022 10067 20039 51011=
201012160542 SPECI KPAE 160542Z AUTO 15010KT 6SM BR FEW006 BKN027 OVC065 04/03 A2995 RMK AO2 RAE24 P0000=
201012160542 SPECI KPAE 160542Z AUTO 15010KT 6SM BR FEW006 BKN027 OVC065 04/03 A2995 RMK AO2 RAE24 P0000=
201012160502 SPECI KPAE 160502Z AUTO 15009KT 9SM -RA SCT028 BKN037 OVC050 04/02 A2995 RMK AO2 P0000=
201012160502 SPECI KPAE 160502Z AUTO 15009KT 9SM -RA SCT028 BKN037 OVC050 04/02 A2995 RMK AO2 P0000=
201012160453 METAR KPAE 160453Z AUTO 15008KT 10SM -RA FEW018 BKN026 OVC035 04/02 A2995 RMK AO2 SLP145 P0001 T00390022=
201012160353 METAR KPAE 160353Z VRB06KT 10SM -RA BKN025 OVC029 04/02 A2994 RMK AO2 SLP141 P0001 T00390022=
201012160253 METAR KPAE 160253Z 16013KT 7SM -RA SCT011 OVC021 04/02 A2992 RMK AO2 SLP134 P0005 60009 T00390017 50000=
201012160153 METAR KPAE 160153Z 17009KT 9SM -RA FEW015 BKN024 OVC039 05/02 A2992 RMK AO2 SLP136 P0002 T00500022=
201012160143 SPECI KPAE 160143Z 16011KT 8SM -RA FEW020 SCT026 OVC039 05/02 A2992 RMK AO2 P0002=
201012160143 SPECI KPAE 160143Z 16011KT 8SM -RA FEW020 SCT026 OVC039 05/02 A2992 RMK AO2 P0002=
201012160053 METAR KPAE 160053Z 16009KT 8SM -RA OVC026 06/02 A2992 RMK AO2 SLP134 P0002 T00560017=
201012160030 SPECI KPAE 160030Z 16013G17KT 8SM -RA BKN024 OVC033 06/02 A2992 RMK AO2 P0001=
201012160030 SPECI KPAE 160030Z 16013G17KT 8SM -RA BKN024 OVC033 06/02 A2992 RMK AO2 P0001=
201012152353 METAR KPAE 152353Z 15005KT 10SM -RA OVC032 07/01 A2992 RMK AO2 RAB51 SLP134 P0000 60000 T00670011 10072 20050 50002=
201012152253 METAR KPAE 152253Z 16008G14KT 10SM BKN034 OVC047 07/01 A2992 RMK AO2 RAB2156E13 SLP135 P0000 T00670011=
201012152153 METAR KPAE 152153Z 16010KT 10SM SCT026 06/01 A2991 RMK AO2 SLP133 T00610011=
201012152053 METAR KPAE 152053Z 16013G19KT 10SM FEW022 06/02 A2991 RMK AO2 SLP131 T00610017 55001=
201012151953 METAR KPAE 151953Z 18013KT 10SM BKN017 BKN050 06/02 A2991 RMK AO2 SLP131 T00560017=
201012151950 SPECI KPAE 151950Z 19015KT 10SM BKN019 BKN055 06/02 A2991 RMK AO2=
201012151950 SPECI KPAE 151950Z 19015KT 10SM BKN019 BKN055 06/02 A2991 RMK AO2=
201012151933 SPECI KPAE 151933Z 18013KT 10SM SCT015 BKN065 06/02 A2991 RMK AO2=
201012151933 SPECI KPAE 151933Z 18013KT 10SM SCT015 BKN065 06/02 A2991 RMK AO2=
201012151853 METAR KPAE 151853Z 18015KT 10SM BKN015 BKN095 06/02 A2991 RMK AO2 SLP132 T00560022=
201012151820 SPECI KPAE 151820Z 18013G20KT 10SM SCT013 05/02 A2991 RMK AO2=
201012151820 SPECI KPAE 151820Z 18013G20KT 10SM SCT013 05/02 A2991 RMK AO2=
201012151753 METAR KPAE 151753Z 18014G19KT 10SM BKN011 05/02 A2990 RMK AO2 SLP127 T00500017 10050 20044 52017=
201012151653 METAR KPAE 151653Z COR 17011KT 10SM BKN013 04/02 A2988 RMK AO2 SLP121 T00440017=
201012151553 METAR KPAE 151553Z 16008KT 130V190 10SM OVC011 04/02 A2986 RMK AO2 SLP116 T00440022=
201012151453 METAR KPAE 151453Z 17008KT 10SM OVC013 04/02 A2985 RMK AO2 SLP110 T00440017 51010=
201012151353 METAR KPAE 151353Z AUTO 19010KT 10SM OVC011 04/02 A2984 RMK AO2 SLP107 T00440017=
201012151316 SPECI KPAE 151316Z AUTO 19012KT 10SM OVC009 04/02 A2982 RMK AO2 CIG 008V012=
201012151316 SPECI KPAE 151316Z AUTO 19012KT 10SM OVC009 04/02 A2982 RMK AO2 CIG 008V012=
201012151253 METAR KPAE 151253Z AUTO 19008KT 10SM BKN011 OVC016 04/02 A2982 RMK AO2 CIG 008V012 SLP103 T00440017=
201012151153 METAR KPAE 151153Z AUTO 20010G18KT 10SM OVC010 04/02 A2982 RMK AO2 SLP100 70004 T00440022 10050 20044 52013=
201012151053 METAR KPAE 151053Z AUTO 19011KT 10SM BKN010 OVC014 04/02 A2980 RMK AO2 SLP096 T00440022=
201012150953 METAR KPAE 150953Z AUTO 20015KT 10SM OVC012 04/02 A2979 RMK AO2 SLP090 T00440022=
201012150853 METAR KPAE 150853Z AUTO 20011KT 10SM OVC012 05/02 A2978 RMK AO2 SLP086 T00500022 51020=
201012150823 SPECI KPAE 150823Z AUTO 20011KT 10SM BKN012 OVC018 05/02 A2977 RMK AO2=
201012150823 SPECI KPAE 150823Z AUTO 20011KT 10SM BKN012 OVC018 05/02 A2977 RMK AO2=
201012150811 SPECI KPAE 150811Z AUTO 19014KT 10SM BKN016 OVC020 05/02 A2976 RMK AO2=
201012150811 SPECI KPAE 150811Z AUTO 19014KT 10SM BKN016 OVC020 05/02 A2976 RMK AO2=
201012150753 METAR KPAE 150753Z AUTO 18011G20KT 10SM BKN013 OVC020 05/02 A2976 RMK AO2 SLP081 T00500022 400940039=
201012150745 SPECI KPAE 150745Z AUTO 18015G20KT 10SM BKN015 OVC020 05/02 A2976 RMK AO2=
201012150745 SPECI KPAE 150745Z AUTO 18015G20KT 10SM BKN015 OVC020 05/02 A2976 RMK AO2=
201012150653 METAR KPAE 150653Z AUTO 18012KT 10SM BKN012 OVC020 05/02 A2974 RMK AO2 SLP075 T00500022=
201012150613 SPECI KPAE 150613Z AUTO 19013KT 10SM BKN013 OVC021 04/02 A2972 RMK AO2 TSNO=
201012150613 SPECI KPAE 150613Z AUTO 19013KT 10SM BKN013 OVC021 04/02 A2972 RMK AO2 TSNO=
201012150553 METAR KPAE 150553Z AUTO 18013KT 10SM BKN015 OVC022 04/02 A2971 RMK AO2 SLP065 T00440017 10061 20039 51020=
201012150521 SPECI KPAE 150521Z AUTO 17008KT 10SM OVC017 04/02 A2972 RMK AO2=
201012150521 SPECI KPAE 150521Z AUTO 17008KT 10SM OVC017 04/02 A2972 RMK AO2=
201012150453 METAR KPAE 150453Z AUTO 17009KT 10SM BKN013 OVC020 04/02 A2970 RMK AO2 SLP062 T00440017=
201012150443 SPECI KPAE 150443Z 15006KT 10SM BKN013 OVC020 04/02 A2970 RMK AO2=
201012150443 SPECI KPAE 150443Z 15006KT 10SM BKN013 OVC020 04/02 A2970 RMK AO2=
201012150406 SPECI KPAE 150406Z 18008KT 10SM BKN019 04/01 A2969 RMK AO2=
201012150406 SPECI KPAE 150406Z 18008KT 10SM BKN019 04/01 A2969 RMK AO2=
201012150353 METAR KPAE 150353Z 17008KT 10SM FEW021 04/01 A2969 RMK AO2 SLP058 T00440006=
201012150253 METAR KPAE 150253Z 20011KT 10SM CLR 04/02 A2966 RMK AO2 SLP045 T00440017 50016=
201012150153 METAR KPAE 150153Z 21014KT 10SM BKN095 05/01 A2966 RMK AO2 SLP046 T00500011=
201012150053 METAR KPAE 150053Z 20015G23KT 10SM SCT020 BKN110 05/01 A2962 RMK AO2 SLP035 T00500011=
201012150041 SPECI KPAE 150041Z 20014G20KT 10SM BKN022 BKN085 BKN120 06/02 A2963 RMK AO2=
201012150041 SPECI KPAE 150041Z 20014G20KT 10SM BKN022 BKN085 BKN120 06/02 A2963 RMK AO2=
201012150034 SPECI KPAE 150034Z 20013G20KT 10SM SCT022 SCT085 BKN120 06/02 A2963 RMK AO2=
201012150034 SPECI KPAE 150034Z 20013G20KT 10SM SCT022 SCT085 BKN120 06/02 A2963 RMK AO2=
201012142353 METAR KPAE 142353Z 20013G18KT 10SM BKN022 OVC029 06/02 A2961 RMK AO2 SLP028 60002 T00610022 10067 20050 53029=
201012142253 METAR KPAE 142253Z 20015G20KT 10SM SCT016 BKN026 06/02 A2959 RMK AO2 PK WND 19026/2221 SLP020 T00610022=
201012142221 SPECI KPAE 142221Z 21017G26KT 10SM SCT026 07/02 A2956 RMK AO2 PK WND 19026/2221=
201012142221 SPECI KPAE 142221Z 21017G26KT 10SM SCT026 07/02 A2956 RMK AO2 PK WND 19026/2221=
201012142153 METAR KPAE 142153Z 20018G24KT 10SM BKN023 07/02 A2953 RMK AO2 PK WND 20030/2101 SLP002 T00670022=
201012142053 METAR KPAE 142053Z 18020G27KT 10SM BKN021 BKN027 06/02 A2952 RMK AO2 PK WND 20034/2039 PRESRR SLP998 60002 T00610022 53013=
201012141953 METAR KPAE 141953Z 19022G30KT 10SM SCT013 BKN019 BKN024 06/03 A2949 RMK AO2 PK WND 19034/1919 RAE06 SLP988 P0000 T00610033=
201012141900 SPECI KPAE 141900Z 18017G33KT 9SM -RA SCT007 BKN021 BKN029 05/02 A2948 RMK AO2 PK WND 19029/1855 P0000=
201012141900 SPECI KPAE 141900Z 18017G33KT 9SM -RA SCT007 BKN021 BKN029 05/02 A2948 RMK AO2 PK WND 19029/1855 P0000=
201012141853 METAR KPAE 141853Z 19027G33KT 9SM -RA BKN009 OVC014 06/02 A2948 RMK AO2 PK WND 18034/1809 RAB1756E32B52 SLP985 P0002 T00560022=
201012141753 METAR KPAE 141753Z 17014G25KT 10SM BKN009 OVC014 05/03 A2948 RMK AO2 PK WND 18028/1740 SLP985 60002 T00500028 10067 20044 51019=
201012141653 METAR KPAE 141653Z 17017G23KT 7SM BKN009 OVC015 04/02 A2947 RMK AO2 CIG 007V012 SLP980 T00440022=
201012141553 METAR KPAE 141553Z 18012KT 10SM BKN015 BKN022 BKN037 04/02 A2945 RMK AO2 PK WND 19028/1520 RAB12E50 SLP973 P0002 T00440022=
201012141529 SPECI KPAE 141529Z 19017G28KT 8SM -RA SCT017 BKN025 OVC055 05/03 A2944 RMK AO2 PK WND 19028/1520 RAB12 P0002=
201012141529 SPECI KPAE 141529Z 19017G28KT 8SM -RA SCT017 BKN025 OVC055 05/03 A2944 RMK AO2 PK WND 19028/1520 RAB12 P0002=
201012141453 METAR KPAE 141453Z 18011KT 10SM SCT110 06/03 A2943 RMK AO2 SLP966 T00610033 55003=
201012141353 METAR KPAE 141353Z AUTO 18016G23KT 10SM CLR 06/03 A2942 RMK AO2 PK WND 19026/1330 SLP962 T00610033=
201012141253 METAR KPAE 141253Z AUTO 18023G28KT 10SM FEW015 06/03 A2943 RMK AO2 PK WND 18028/1253 SLP967 T00610033=
201012141153 METAR KPAE 141153Z AUTO 18018G24KT 10SM BKN015 OVC020 07/04 A2944 RMK AO2 PK WND 18027/1124 SLP969 60029 70056 T00670039 10094 20067 50019=
201012141101 SPECI KPAE 141101Z AUTO 18017G25KT 10SM FEW011 BKN018 OVC024 07/04 A2943 RMK AO2=
201012141101 SPECI KPAE 141101Z AUTO 18017G25KT 10SM FEW011 BKN018 OVC024 07/04 A2943 RMK AO2=
201012141053 METAR KPAE 141053Z AUTO 18017G25KT 10SM BKN014 OVC022 07/04 A2944 RMK AO2 PK WND 18033/1000 SLP969 T00670044=
201012141050 SPECI KPAE 141050Z AUTO 18016G27KT 10SM BKN014 OVC020 07/04 A2943 RMK AO2 PK WND 18033/1000=
201012141050 SPECI KPAE 141050Z AUTO 18016G27KT 10SM BKN014 OVC020 07/04 A2943 RMK AO2 PK WND 18033/1000=
201012141031 SPECI KPAE 141031Z AUTO 18017G26KT 10SM BKN015 OVC019 07/04 A2943 RMK AO2 PK WND 18033/1000=
201012141031 SPECI KPAE 141031Z AUTO 18017G26KT 10SM BKN015 OVC019 07/04 A2943 RMK AO2 PK WND 18033/1000=
201012141013 SPECI KPAE 141013Z AUTO 18020G31KT 10SM BKN013 OVC080 07/04 A2942 RMK AO2 PK WND 18033/1000=
201012141013 SPECI KPAE 141013Z AUTO 18020G31KT 10SM BKN013 OVC080 07/04 A2942 RMK AO2 PK WND 18033/1000=
201012140953 METAR KPAE 140953Z AUTO 18023G33KT 10SM OVC070 07/04 A2938 RMK AO2 PK WND 19033/0945 RAE37 SLP950 P0013 T00670044=
201012140914 SPECI KPAE 140914Z AUTO 20019G27KT 6SM -RA BR FEW019 SCT030 OVC037 08/06 A2937 RMK AO2 PK WND 21027/0907 LTG DSNT SE P0012=
201012140914 SPECI KPAE 140914Z AUTO 20019G27KT 6SM -RA BR FEW019 SCT030 OVC037 08/06 A2937 RMK AO2 PK WND 21027/0907 LTG DSNT SE P0012=
201012140853 METAR KPAE 140853Z AUTO 19006KT 2 1/2SM RA BR SCT028 BKN032 OVC049 09/07 A2934 RMK AO2 VIS 1 3/4V4 SLP936 P0014 60016 T00890067 56051=
201012140753 METAR KPAE 140753Z AUTO 15011G22KT 10SM -RA FEW036 BKN050 OVC070 09/06 A2936 RMK AO2 RAB30 PRESFR SLP944 P0002 T00940056 401170089=
201012140653 METAR KPAE 140653Z AUTO 14007KT 10SM FEW055 09/06 A2944 RMK AO2 SLP969 T00940061=
201012140553 METAR KPAE 140553Z AUTO 15012G17KT 10SM FEW044 SCT060 OVC080 09/07 A2949 RMK AO2 RAB30E50 SLP988 P0000 60024 T00940067 10111 20089 56049=
201012140453 METAR KPAE 140453Z AUTO VRB05KT 10SM SCT065 OVC090 09/06 A2953 RMK AO2 SLP000 T00890061=
201012140353 METAR KPAE 140353Z 15007KT 10SM SCT024 BKN031 BKN040 09/07 A2959 RMK AO2 SLP021 T00940067=
201012140253 METAR KPAE 140253Z 15012KT 10SM SCT005 BKN042 OVC055 09/07 A2964 RMK AO2 RAE24 SLP038 P0003 60024 T00890072 58034=
201012140153 METAR KPAE 140153Z 18012KT 6SM -RA BR FEW005 BKN042 OVC055 10/08 A2968 RMK AO2 SLP051 P0017 T01000078=
201012140145 SPECI KPAE 140145Z 18010KT 6SM RA BR SCT003 BKN044 OVC055 09/08 A2968 RMK AO2 P0016=
201012140145 SPECI KPAE 140145Z 18010KT 6SM RA BR SCT003 BKN044 OVC055 09/08 A2968 RMK AO2 P0016=
201012140137 SPECI KPAE 140137Z 18010KT 3SM -RA BR SCT005 BKN017 OVC047 09/08 A2969 RMK AO2 P0014=
201012140137 SPECI KPAE 140137Z 18010KT 3SM -RA BR SCT005 BKN017 OVC047 09/08 A2969 RMK AO2 P0014=
201012140126 SPECI KPAE 140126Z 21010KT 2 1/2SM RA BR SCT003 BKN007 OVC022 10/09 A2970 RMK AO2 P0008=
201012140126 SPECI KPAE 140126Z 21010KT 2 1/2SM RA BR SCT003 BKN007 OVC022 10/09 A2970 RMK AO2 P0008=
201012140117 SPECI KPAE 140117Z 00000KT 4SM -RA BR SCT006 BKN013 OVC021 10/09 A2970 RMK AO2 P0005=
201012140117 SPECI KPAE 140117Z 00000KT 4SM -RA BR SCT006 BKN013 OVC021 10/09 A2970 RMK AO2 P0005=
201012140105 SPECI KPAE 140105Z 18005KT 5SM RA BR BKN021 BKN030 OVC042 10/09 A2970 RMK AO2 P0002=
201012140105 SPECI KPAE 140105Z 18005KT 5SM RA BR BKN021 BKN030 OVC042 10/09 A2970 RMK AO2 P0002=
201012140053 METAR KPAE 140053Z 19007KT 5SM -RA BR FEW021 BKN030 OVC046 10/09 A2971 RMK AO2 SLP062 P0004 T01000089=
201012132353 METAR KPAE 132353Z VRB04KT 5SM -RA BKN043 BKN050 OVC080 11/08 A2974 RMK AO2 RAB40 SLP072 P0000 60000 T01110083 10117 20094 56041=
201012132253 METAR KPAE 132253Z 16008KT 10SM SCT015 BKN055 12/08 A2977 RMK AO2 SLP083 T01170078=
201012132153 METAR KPAE 132153Z 15007KT 10SM SCT009 BKN040 12/08 A2982 RMK AO2 SLP100 T01170083=
201012132100 SPECI KPAE 132100Z 16008KT 10SM SCT009 BKN040 11/08 A2986 RMK AO2=
201012132100 SPECI KPAE 132100Z 16008KT 10SM SCT009 BKN040 11/08 A2986 RMK AO2=
201012132053 METAR KPAE 132053Z 15008KT 10SM SCT005 SCT009 BKN015 11/08 A2987 RMK AO2 SLP114 T01110083 56032=
201012132001 SPECI KPAE 132001Z 16010KT 10SM SCT005 SCT009 BKN015 11/08 A2989 RMK AO2=
201012132001 SPECI KPAE 132001Z 16010KT 10SM SCT005 SCT009 BKN015 11/08 A2989 RMK AO2=
201012131955 SPECI KPAE 131955Z 16011KT 10SM BKN009 BKN015 BKN085 11/08 A2989 RMK AO2 CIG 008V013=
201012131955 SPECI KPAE 131955Z 16011KT 10SM BKN009 BKN015 BKN085 11/08 A2989 RMK AO2 CIG 008V013=
201012131953 METAR KPAE 131953Z 16012KT 10SM SCT009 11/08 A2990 RMK AO2 SLP124 T01060078=
201012131904 SPECI KPAE 131904Z 17009KT 10SM SCT009 11/08 A2992 RMK AO2=
201012131904 SPECI KPAE 131904Z 17009KT 10SM SCT009 11/08 A2992 RMK AO2=
201012131853 METAR KPAE 131853Z 17011KT 10SM BKN005 10/08 A2993 RMK AO2 SLP136 T01000078=
201012131841 SPECI KPAE 131841Z 17011G19KT 10SM BKN005 10/08 A2994 RMK AO2=
201012131841 SPECI KPAE 131841Z 17011G19KT 10SM BKN005 10/08 A2994 RMK AO2=
201012131805 SPECI KPAE 131805Z 17008KT 10SM SCT005 09/08 A2996 RMK AO2=
201012131805 SPECI KPAE 131805Z 17008KT 10SM SCT005 09/08 A2996 RMK AO2=
201012131753 METAR KPAE 131753Z 17008KT 10SM BKN005 09/08 A2996 RMK AO2 SLP147 60003 T00940083 10094 20089 58001=
201012131731 SPECI KPAE 131731Z 17007KT 10SM OVC005 09/08 A2997 RMK AO2 CIG 002V008=
201012131731 SPECI KPAE 131731Z 17007KT 10SM OVC005 09/08 A2997 RMK AO2 CIG 002V008=
201012131718 SPECI KPAE 131718Z 17007KT 10SM BKN003 OVC007 09/08 A2997 RMK AO2 CIG 001V005=
201012131718 SPECI KPAE 131718Z 17007KT 10SM BKN003 OVC007 09/08 A2997 RMK AO2 CIG 001V005=
201012131707 SPECI KPAE 131707Z 17009KT 7SM OVC001 09/08 A2997 RMK AO2=
201012131707 SPECI KPAE 131707Z 17009KT 7SM OVC001 09/08 A2997 RMK AO2=
201012131653 METAR KPAE 131653Z 16007KT 1SM R16R/P6000FT BR OVC001 09/08 A2997 RMK AO2 SLP151 T00890083=
201012131643 SPECI KPAE 131643Z 17007KT 1SM R16R/4000VP6000FT BR OVC001 09/08 A2997 RMK AO2=
201012131643 SPECI KPAE 131643Z 17007KT 1SM R16R/4000VP6000FT BR OVC001 09/08 A2997 RMK AO2=
201012131631 SPECI KPAE 131631Z 17008KT 1/4SM R16R/1800V3500FT FG VV001 09/08 A2997 RMK AO2=
201012131631 SPECI KPAE 131631Z 17008KT 1/4SM R16R/1800V3500FT FG VV001 09/08 A2997 RMK AO2=
201012131624 SPECI KPAE 131624Z 16007KT 1/4SM R16R/1600V2000FT FG VV001 09/08 A2997 RMK AO2=
201012131624 SPECI KPAE 131624Z 16007KT 1/4SM R16R/1600V2000FT FG VV001 09/08 A2997 RMK AO2=
201012131614 SPECI KPAE 131614Z 17007KT 1/2SM R16R/1600V2000FT FG VV001 09/08 A2997 RMK AO2=
201012131614 SPECI KPAE 131614Z 17007KT 1/2SM R16R/1600V2000FT FG VV001 09/08 A2997 RMK AO2=
201012131553 METAR KPAE 131553Z 17003KT 1/4SM R16R/1200V1600FT FG VV001 09/08 A2996 RMK AO2 SLP148 T00890083=
201012131537 SPECI KPAE 131537Z 16004KT 1/4SM R16R/1400V1800FT FG VV001 09/08 A2996 RMK AO2=
201012131537 SPECI KPAE 131537Z 16004KT 1/4SM R16R/1400V1800FT FG VV001 09/08 A2996 RMK AO2=
201012131509 SPECI KPAE 131509Z 00000KT 1/2SM R16R/P6000FT FG BKN001 OVC029 09/08 A2996 RMK AO2=
201012131509 SPECI KPAE 131509Z 00000KT 1/2SM R16R/P6000FT FG BKN001 OVC029 09/08 A2996 RMK AO2=
201012131500 SPECI KPAE 131500Z 00000KT 2SM R16R/4500VP6000FT BR BKN001 OVC029 09/08 A2996 RMK AO2=
201012131500 SPECI KPAE 131500Z 00000KT 2SM R16R/4500VP6000FT BR BKN001 OVC029 09/08 A2996 RMK AO2=
201012131453 METAR KPAE 131453Z 00000KT 8SM R16R/6000VP6000FT BKN001 OVC029 09/08 A2997 RMK AO2 SLP149 60003 T00890083 58000=
201012131446 SPECI KPAE 131446Z 00000KT 4SM R16R/6000VP6000FT BR BKN001 OVC029 09/08 A2997 RMK AO2=
201012131446 SPECI KPAE 131446Z 00000KT 4SM R16R/6000VP6000FT BR BKN001 OVC029 09/08 A2997 RMK AO2=
201012131442 SPECI KPAE 131442Z AUTO 00000KT 2SM BR SCT001 OVC029 09/08 A2997 RMK AO2=
201012131442 SPECI KPAE 131442Z AUTO 00000KT 2SM BR SCT001 OVC029 09/08 A2997 RMK AO2=
201012131437 SPECI KPAE 131437Z AUTO 00000KT 1 3/4SM BR BKN001 OVC027 09/08 A2997 RMK AO2=
201012131437 SPECI KPAE 131437Z AUTO 00000KT 1 3/4SM BR BKN001 OVC027 09/08 A2997 RMK AO2=
201012131406 SPECI KPAE 131406Z AUTO 00000KT 4SM R16R/2600VP6000FT BR OVC001 09/08 A2997 RMK AO2=
201012131406 SPECI KPAE 131406Z AUTO 00000KT 4SM R16R/2600VP6000FT BR OVC001 09/08 A2997 RMK AO2=
201012131353 METAR KPAE 131353Z AUTO 00000KT 10SM OVC003 09/08 A2997 RMK AO2 CIG 001V005 SLP150 T00890083=
201012131313 SPECI KPAE 131313Z AUTO 36003KT 3SM R16R/2800V4500FT BR OVC001 09/08 A2997 RMK AO2=
201012131313 SPECI KPAE 131313Z AUTO 36003KT 3SM R16R/2800V4500FT BR OVC001 09/08 A2997 RMK AO2=
201012131305 SPECI KPAE 131305Z AUTO 00000KT 1SM R16R/4500VP6000FT BR OVC001 09/08 A2997 RMK AO2=
201012131305 SPECI KPAE 131305Z AUTO 00000KT 1SM R16R/4500VP6000FT BR OVC001 09/08 A2997 RMK AO2=
201012131258 SPECI KPAE 131258Z AUTO 00000KT 2SM R16R/3000VP6000FT BR BKN001 OVC005 09/09 A2997 RMK AO2=
201012131258 SPECI KPAE 131258Z AUTO 00000KT 2SM R16R/3000VP6000FT BR BKN001 OVC005 09/09 A2997 RMK AO2=
201012131253 METAR KPAE 131253Z AUTO 00000KT 6SM R16R/2800V5500FT BR OVC003 09/09 A2997 RMK AO2 RAE49 CIG 001V006 SLP149 P0003 T00940089=
201012131239 SPECI KPAE 131239Z AUTO 00000KT 2SM BR OVC003 09/09 A2997 RMK AO2 RAE35 P0002=
201012131239 SPECI KPAE 131239Z AUTO 00000KT 2SM BR OVC003 09/09 A2997 RMK AO2 RAE35 P0002=
201012131222 SPECI KPAE 131222Z AUTO 00000KT 1 1/2SM -RA BR OVC003 09/09 A2997 RMK AO2 P0002=
201012131222 SPECI KPAE 131222Z AUTO 00000KT 1 1/2SM -RA BR OVC003 09/09 A2997 RMK AO2 P0002=
201012131215 SPECI KPAE 131215Z AUTO 00000KT 2SM -RA BR OVC003 09/09 A2997 RMK AO2 CIG 001V008 P0001=
201012131215 SPECI KPAE 131215Z AUTO 00000KT 2SM -RA BR OVC003 09/09 A2997 RMK AO2 CIG 001V008 P0001=
201012131204 SPECI KPAE 131204Z AUTO 00000KT 1 1/2SM R16R/3500VP6000FT -RA BR OVC003 09/09 A2997 RMK AO2 CIG 001V005 P0000=
201012131204 SPECI KPAE 131204Z AUTO 00000KT 1 1/2SM R16R/3500VP6000FT -RA BR OVC003 09/09 A2997 RMK AO2 CIG 001V005 P0000=
201012131153 METAR KPAE 131153Z AUTO 00000KT 2 1/2SM R16R/4000VP6000FT -RA BR OVC003 10/09 A2997 RMK AO2 VIS 2V4 RAB25 SLP149 P0002 60009 70088 T01000089 10111 20094 51006=
201012131147 SPECI KPAE 131147Z AUTO 00000KT 3SM R16R/3000VP6000FT -RA BR OVC003 10/09 A2997 RMK AO2 RAB25 P0002=
201012131147 SPECI KPAE 131147Z AUTO 00000KT 3SM R16R/3000VP6000FT -RA BR OVC003 10/09 A2997 RMK AO2 RAB25 P0002=
201012131141 SPECI KPAE 131141Z AUTO 29003KT 1 1/4SM R16R/3500VP6000FT -RA BR OVC003 10/09 A2997 RMK AO2 RAB25 P0002=
201012131141 SPECI KPAE 131141Z AUTO 29003KT 1 1/4SM R16R/3500VP6000FT -RA BR OVC003 10/09 A2997 RMK AO2 RAB25 P0002=
201012131132 SPECI KPAE 131132Z AUTO 24003KT 1/2SM R16R/1200V5000FT -RA FG VV001 10/09 A2997 RMK AO2 RAB25 P0001=
201012131132 SPECI KPAE 131132Z AUTO 24003KT 1/2SM R16R/1200V5000FT -RA FG VV001 10/09 A2997 RMK AO2 RAB25 P0001=
201012131110 SPECI KPAE 131110Z AUTO 00000KT 1/4SM R16R/1200V2200FT FG VV001 10/09 A2997 RMK AO2=
201012131110 SPECI KPAE 131110Z AUTO 00000KT 1/4SM R16R/1200V2200FT FG VV001 10/09 A2997 RMK AO2=
201012131105 SPECI KPAE 131105Z AUTO 26003KT 1/2SM R16R/1200V2600FT FG OVC001 10/09 A2997 RMK AO2=
201012131105 SPECI KPAE 131105Z AUTO 26003KT 1/2SM R16R/1200V2600FT FG OVC001 10/09 A2997 RMK AO2=
201012131053 METAR KPAE 131053Z AUTO 00000KT 1 1/4SM R16R/3000V5000FT BR OVC001 10/09 A2996 RMK AO2 RAE31 SLP147 P0001 T01000089=
201012131025 SPECI KPAE 131025Z AUTO 00000KT 1SM R16R/3000V5000FT -RA BR OVC001 10/09 A2996 RMK AO2 P0001=
201012131025 SPECI KPAE 131025Z AUTO 00000KT 1SM R16R/3000V5000FT -RA BR OVC001 10/09 A2996 RMK AO2 P0001=
201012131001 SPECI KPAE 131001Z AUTO 00000KT 3/4SM R16R/2600V3500FT BR OVC001 10/09 A2996 RMK AO2 RAE0957 P0000=
201012131001 SPECI KPAE 131001Z AUTO 00000KT 3/4SM R16R/2600V3500FT BR OVC001 10/09 A2996 RMK AO2 RAE0957 P0000=
201012130953 METAR KPAE 130953Z AUTO 00000KT 1SM R16R/2600V4000FT -RA BR OVC001 10/09 A2996 RMK AO2 SLP144 P0002 T01000094=
201012130942 SPECI KPAE 130942Z AUTO 00000KT 2 1/2SM R16R/4500VP6000FT -RA BR OVC001 10/09 A2996 RMK AO2 P0002=
201012130942 SPECI KPAE 130942Z AUTO 00000KT 2 1/2SM R16R/4500VP6000FT -RA BR OVC001 10/09 A2996 RMK AO2 P0002=
201012130918 SPECI KPAE 130918Z AUTO 00000KT 1 1/2SM R16R/3500V5500FT -RA BR OVC001 10/09 A2996 RMK AO2 P0001=
201012130918 SPECI KPAE 130918Z AUTO 00000KT 1 1/2SM R16R/3500V5500FT -RA BR OVC001 10/09 A2996 RMK AO2 P0001=
201012130909 SPECI KPAE 130909Z AUTO 00000KT 2 1/2SM R16R/4000V6000FT -RA BR OVC001 10/09 A2996 RMK AO2 P0001=
201012130909 SPECI KPAE 130909Z AUTO 00000KT 2 1/2SM R16R/4000V6000FT -RA BR OVC001 10/09 A2996 RMK AO2 P0001=
201012130901 SPECI KPAE 130901Z AUTO 00000KT 1 1/2SM R16R/3500V5000FT -RA BR OVC001 10/09 A2995 RMK AO2 P0001=
201012130901 SPECI KPAE 130901Z AUTO 00000KT 1 1/2SM R16R/3500V5000FT -RA BR OVC001 10/09 A2995 RMK AO2 P0001=
201012130853 METAR KPAE 130853Z AUTO 00000KT 3/4SM R16R/2800V4500FT -RA BR BKN001 OVC006 11/09 A2995 RMK AO2 SLP143 P0003 60004 T01060094 58001=
201012130844 SPECI KPAE 130844Z AUTO 28005KT 1 1/2SM R16R/2800VP6000FT -RA BR OVC001 11/09 A2995 RMK AO2 P0002=
201012130844 SPECI KPAE 130844Z AUTO 28005KT 1 1/2SM R16R/2800VP6000FT -RA BR OVC001 11/09 A2995 RMK AO2 P0002=
201012130836 SPECI KPAE 130836Z AUTO 24004KT 1 1/2SM R16R/2800VP6000FT -RA BR OVC003 11/09 A2995 RMK AO2 CIG 001V007 P0002=
201012130836 SPECI KPAE 130836Z AUTO 24004KT 1 1/2SM R16R/2800VP6000FT -RA BR OVC003 11/09 A2995 RMK AO2 CIG 001V007 P0002=
201012130819 SPECI KPAE 130819Z AUTO 24006KT 2SM R16R/4500VP6000FT -RA BR OVC003 11/10 A2996 RMK AO2 CIG 001V007 P0001=
201012130819 SPECI KPAE 130819Z AUTO 24006KT 2SM R16R/4500VP6000FT -RA BR OVC003 11/10 A2996 RMK AO2 CIG 001V007 P0001=
201012130753 METAR KPAE 130753Z AUTO 21008KT 10SM -RA OVC007 11/10 A2996 RMK AO2 RAB34 CIG 004V010 SLP144 P0001 T01110100 401280094=
201012130700 METAR KPAE NIL=
201012130653 METAR KPAE 130653Z AUTO 21008KT 10SM OVC005 11/10 A2996 RMK AO2 RAB05E15 SLP145 P0000 T01110100=
201012130600 METAR KPAE NIL=
201012130500 METAR KPAE NIL=
201012130400 METAR KPAE NIL=
201012130253 METAR KPAE 130253Z 20010KT 3SM BR OVC005 11/10 A2995 RMK AO2 RAE17 CIG 003V007 SLP142 P0001 60001 T01110100 50001=
201012130153 METAR KPAE 130153Z 21008KT 4SM -RA BR OVC007 11/10 A2995 RMK AO2 RAB10 CIG 004V009 SLP143 P0000 T01110100=
201012130053 METAR KPAE 130053Z 21010KT 10SM OVC007 12/10 A2996 RMK AO2 SLP145 T01170100=
201012122353 METAR KPAE 122353Z 21010KT 10SM OVC009 12/10 A2995 RMK AO2 SLP141 60005 T01170100 10128 20117 51016=
201012122253 METAR KPAE 122253Z 21015G23KT 10SM OVC011 12/10 A2993 RMK AO2 PK WND 20028/2214 SLP134 T01220100=
201012122221 SPECI KPAE 122221Z 21018G28KT 10SM BKN008 OVC014 12/10 A2993 RMK AO2 PK WND 20028/2214=
201012122221 SPECI KPAE 122221Z 21018G28KT 10SM BKN008 OVC014 12/10 A2993 RMK AO2 PK WND 20028/2214=
201012122200 SPECI KPAE 122200Z 21016G24KT 10SM BKN010 OVC014 12/10 A2992 RMK AO2=
201012122200 SPECI KPAE 122200Z 21016G24KT 10SM BKN010 OVC014 12/10 A2992 RMK AO2=
201012122153 METAR KPAE 122153Z 21016G24KT 10SM BKN008 BKN013 OVC019 12/11 A2992 RMK AO2 PK WND 19026/2134 SLP132 T01220106=
201012122053 METAR KPAE 122053Z 19017G23KT 10SM BKN008 BKN013 OVC019 12/11 A2990 RMK AO2 PK WND 19027/2007 SLP125 60005 T01220111 55002=
201012122048 SPECI KPAE 122048Z 19014KT 10SM BKN008 BKN013 OVC019 12/11 A2990 RMK AO2 PK WND 19027/2007=
201012122048 SPECI KPAE 122048Z 19014KT 10SM BKN008 BKN013 OVC019 12/11 A2990 RMK AO2 PK WND 19027/2007=
201012122041 SPECI KPAE 122041Z 19016G24KT 10SM SCT008 BKN013 OVC019 12/11 A2990 RMK AO2 PK WND 19027/2007=
201012122041 SPECI KPAE 122041Z 19016G24KT 10SM SCT008 BKN013 OVC019 12/11 A2990 RMK AO2 PK WND 19027/2007=
201012122017 SPECI KPAE 122017Z 19018KT 10SM SCT010 BKN017 OVC022 12/11 A2989 RMK AO2 PK WND 19027/2007=
201012122017 SPECI KPAE 122017Z 19018KT 10SM SCT010 BKN017 OVC022 12/11 A2989 RMK AO2 PK WND 19027/2007=
201012121953 METAR KPAE 121953Z 19020KT 10SM SCT009 BKN014 OVC100 12/11 A2990 RMK AO2 PK WND 18029/1940 RAE14 SLP125 P0000 T01220111=
201012121940 SPECI KPAE 121940Z 19022G29KT 10SM SCT009 BKN014 OVC100 12/11 A2990 RMK AO2 PK WND 18029/1940 RAE14 P0000=
201012121940 SPECI KPAE 121940Z 19022G29KT 10SM SCT009 BKN014 OVC100 12/11 A2990 RMK AO2 PK WND 18029/1940 RAE14 P0000=
201012121928 SPECI KPAE 121928Z 19019G28KT 10SM BKN012 BKN020 OVC100 13/11 A2990 RMK AO2 PK WND 18028/1924 RAE14 P0000=
201012121928 SPECI KPAE 121928Z 19019G28KT 10SM BKN012 BKN020 OVC100 13/11 A2990 RMK AO2 PK WND 18028/1924 RAE14 P0000=
201012121853 METAR KPAE 121853Z 19019G26KT 10SM -RA FEW011 BKN021 OVC060 13/11 A2990=
201012121753 METAR KPAE 121753Z 19023G31KT 4SM -RA BR FEW011 BKN021 OVC032 12/11 A2988 RMK AO2 PK WND 18031/1747 SLP120 P0010 60072 T01220111 10128 20122 53020=
201012121706 SPECI KPAE 121706Z 19019G27KT 7SM -RA FEW008 BKN014 OVC033 12/11 A2986 RMK AO2 PK WND 20027/1703 P0001=
201012121706 SPECI KPAE 121706Z 19019G27KT 7SM -RA FEW008 BKN014 OVC033 12/11 A2986 RMK AO2 PK WND 20027/1703 P0001=
201012121653 METAR KPAE 121653Z 19020G27KT 4SM -RA BR FEW011 BKN024 OVC040 12/11 A2986 RMK AO2 PK WND 20031/1605 SLP112 P0015 T01220111=
201012121553 METAR KPAE 121553Z 19021G31KT 5SM -RA BR FEW011 BKN025 OVC042 13/11 A2984 RMK AO2 PK WND 19031/1551 SLP107 P0011 T01280111=
201012121453 METAR KPAE 121453Z 19022G31KT 7SM -RA SCT011 BKN023 OVC060 13/11 A2982 RMK AO2 PK WND 20034/1429 SLP100 P0014 60036 T01280111 56007=
201012121434 SPECI KPAE 121434Z 19023G34KT 4SM RA BR SCT010 BKN016 OVC041 13/11 A2982 RMK AO2 PK WND 20034/1429 P0011=
201012121434 SPECI KPAE 121434Z 19023G34KT 4SM RA BR SCT010 BKN016 OVC041 13/11 A2982 RMK AO2 PK WND 20034/1429 P0011=
201012121410 SPECI KPAE 121410Z 19021G29KT 4SM RA BR BKN010 OVC016 13/12 A2982 RMK AO2 PK WND 19029/1410 P0005=
201012121410 SPECI KPAE 121410Z 19021G29KT 4SM RA BR BKN010 OVC016 13/12 A2982 RMK AO2 PK WND 19029/1410 P0005=
201012121403 SPECI KPAE 121403Z 19020G28KT 4SM RA BR BKN008 OVC016 13/12 A2982 RMK AO2 PK WND 18028/1358 P0003=
201012121403 SPECI KPAE 121403Z 19020G28KT 4SM RA BR BKN008 OVC016 13/12 A2982 RMK AO2 PK WND 18028/1358 P0003=
201012121353 METAR KPAE 121353Z 19018G23KT 4SM RA BR BKN010 OVC015 13/12 A2983 RMK AO2 PK WND 19027/1310 SLP101 P0016 T01280117=
201012121253 METAR KPAE 121253Z 19024G32KT 5SM -RA BR SCT008 BKN011 OVC047 13/12 A2983 RMK AO2 PK WND 20032/1252 SLP102 P0006 T01280117=
201012121225 SPECI KPAE 121225Z 18021G27KT 6SM -RA BR FEW008 BKN012 OVC040 13/12 A2983 RMK AO2 PK WND 18027/1225 P0003=
201012121225 SPECI KPAE 121225Z 18021G27KT 6SM -RA BR FEW008 BKN012 OVC040 13/12 A2983 RMK AO2 PK WND 18027/1225 P0003=
201012121153 METAR KPAE 121153Z 18017G25KT 7SM -RA FEW008 BKN042 OVC060 13/12 A2984 RMK AO2 PK WND 19031/1103 SLP107 P0007 60023 70050 T01280117 10128 20078 56002=
201012121053 METAR KPAE 121053Z 18021G28KT 9SM -RA FEW006 BKN049 OVC085 13/11 A2985 RMK AO2 PK WND 18028/1052 SLP108 P0003 T01280111=
201012120953 METAR KPAE 120953Z 18018G24KT 10SM -RA FEW006 BKN070 OVC090 12/11 A2984 RMK AO2 PK WND 18028/0941 SLP107 P0003 T01220106=
201012120926 SPECI KPAE 120926Z 18020KT 9SM -RA SCT006 SCT060 OVC080 12/11 A2984 RMK AO2 P0002=
201012120926 SPECI KPAE 120926Z 18020KT 9SM -RA SCT006 SCT060 OVC080 12/11 A2984 RMK AO2 P0002=
201012120915 SPECI KPAE 120915Z 18018G25KT 8SM -RA BKN006 BKN039 OVC048 12/11 A2985 RMK AO2 P0001=
201012120915 SPECI KPAE 120915Z 18018G25KT 8SM -RA BKN006 BKN039 OVC048 12/11 A2985 RMK AO2 P0001=
201012120853 METAR KPAE 120853Z 17013KT 8SM -RA OVC004 11/10 A2985 RMK AO2 SLP109 P0004 60010 T01060100 51001=
201012120753 METAR KPAE 120753Z 16015KT 7SM -RA OVC004 09/08 A2985 RMK AO2 CIG 002V007 SLP110 P0002 T00940083 400940044=
201012120733 SPECI KPAE 120733Z 16014G21KT 7SM -RA BKN004 OVC008 09/08 A2986 RMK AO2 P0001=
201012120733 SPECI KPAE 120733Z 16014G21KT 7SM -RA BKN004 OVC008 09/08 A2986 RMK AO2 P0001=
201012120715 SPECI KPAE 120715Z 16016G20KT 8SM -RA FEW002 BKN006 OVC037 09/08 A2986 RMK AO2 P0001=
201012120715 SPECI KPAE 120715Z 16016G20KT 8SM -RA FEW002 BKN006 OVC037 09/08 A2986 RMK AO2 P0001=
201012120701 SPECI KPAE 120701Z 16014G22KT 9SM -RA FEW004 OVC037 09/08 A2985 RMK AO2 P0000=
201012120701 SPECI KPAE 120701Z 16014G22KT 9SM -RA FEW004 OVC037 09/08 A2985 RMK AO2 P0000=
201012120653 METAR KPAE 120653Z 16017G21KT 8SM -RA FEW030 OVC037 09/08 A2985 RMK AO2 SLP111 P0004 T00890078=
201012120601 SPECI KPAE 120601Z 16015KT 7SM -RA SCT003 OVC037 08/07 A2985 RMK AO2 P0001=
201012120601 SPECI KPAE 120601Z 16015KT 7SM -RA SCT003 OVC037 08/07 A2985 RMK AO2 P0001=
201012120553 METAR KPAE 120553Z 15014KT 7SM -RA BKN001 BKN041 OVC049 08/07 A2985 RMK AO2 SLP110 P0005 60022 T00780067 10078 20056 58014=
201012120524 SPECI KPAE 120524Z 15010G19KT 6SM -RA BR BKN001 OVC049 07/06 A2985 RMK AO2 P0003=
201012120524 SPECI KPAE 120524Z 15010G19KT 6SM -RA BR BKN001 OVC049 07/06 A2985 RMK AO2 P0003=
201012120453 METAR KPAE 120453Z 15009KT 3SM -RA BR OVC003 07/06 A2987 RMK AO2 SLP118 P0003 T00670056=
201012120358 SPECI KPAE 120358Z 15009G17KT 3SM -RA BR BKN003 OVC017 07/05 A2987 RMK AO2 P0000=
201012120358 SPECI KPAE 120358Z 15009G17KT 3SM -RA BR BKN003 OVC017 07/05 A2987 RMK AO2 P0000=
201012120353 METAR KPAE 120353Z 15012G16KT 2 1/2SM -RA BR BKN003 BKN011 OVC017 07/05 A2987 RMK AO2 RAB0254 SLP118 P0001 T00670050=
201012120312 SPECI KPAE 120312Z 15012G19KT 2 1/2SM -RA BR BKN003 BKN011 OVC017 06/05 A2987 RMK AO2 RAB0254 P0000=
201012120312 SPECI KPAE 120312Z 15012G19KT 2 1/2SM -RA BR BKN003 BKN011 OVC017 06/05 A2987 RMK AO2 RAB0254 P0000=
201012120253 METAR KPAE 120253Z 15012G17KT 3SM BR BKN003 BKN018 OVC027 06/05 A2989 RMK AO2 RAE26 SLP125 P0001 60013 T00610050 58020=
201012120153 METAR KPAE 120153Z VRB05KT 5SM -RA BR BKN003 BKN018 OVC027 06/04 A2991 RMK AO2 SLP133 P0008 T00560044=
201012120147 SPECI KPAE 120147Z 15006KT 9SM -RA BKN006 BKN018 OVC038 06/04 A2992 RMK AO2 P0008=
201012120147 SPECI KPAE 120147Z 15006KT 9SM -RA BKN006 BKN018 OVC038 06/04 A2992 RMK AO2 P0008=
201012120053 METAR KPAE 120053Z 14006KT 6SM -RA BR FEW022 OVC036 06/04 A2993 RMK AO2 SLP139 P0004 T00560039=
201012112353 METAR KPAE 112353Z VRB05KT 10SM -RA FEW031 OVC045 06/03 A2995 RMK AO2 RAB04 SLP146 P0002 60005 T00560033 10061 20056 56024=
201012112253 METAR KPAE 112253Z 11007KT 10SM OVC048 06/03 A2995 RMK AO2 RAE22 SLP146 P0000 T00560033=
201012112153 METAR KPAE 112153Z 12006KT 9SM -RA OVC034 06/03 A2998 RMK AO2 RAB2059 SLP156 P0002 T00610028=
201012112053 METAR KPAE 112053Z 12003KT 10SM OVC040 06/02 A3002 RMK AO2 RAE48 SLP169 P0001 60001 T00610022 56038=
201012111953 METAR KPAE 111953Z 17004KT 10SM -RA OVC032 06/02 A3005 RMK AO2 RAB24 SLP180 P0000 T00610017=
201012111853 METAR KPAE 111853Z VRB04KT 10SM OVC048 06/01 A3010 RMK AO2 SLP197 T00560011=
201012111753 METAR KPAE 111753Z 15005KT 10SM OVC060 06/01 A3014 RMK AO2 SLP208 T00560011 10056 20044 56013=
201012111653 METAR KPAE 111653Z VRB03KT 10SM BKN080 05/02 A3014 RMK AO2 SLP210 T00500017=
201012111553 METAR KPAE 111553Z 12005KT 10SM OVC100 05/02 A3015 RMK AO2 SLP213 T00500017=
201012111453 METAR KPAE 111453Z 11006KT 10SM CLR 05/02 A3017 RMK AO2 SLP221 T00500017 58023=
201012111353 METAR KPAE 111353Z AUTO 11005KT 10SM CLR 05/02 A3021 RMK AO2 SLP232 T00500017=
201012111253 METAR KPAE 111253Z AUTO 11005KT 10SM CLR 05/02 A3022 RMK AO2 SLP238 T00500022=
201012111153 METAR KPAE 111153Z AUTO 11006KT 10SM SCT037 05/03 A3024 RMK AO2 SLP245 T00500028 10067 20050 58004=
201012111053 METAR KPAE 111053Z AUTO 12005KT 10SM SCT039 05/03 A3026 RMK AO2 SLP250 T00500033=
201012110953 METAR KPAE 110953Z AUTO 15003KT 10SM FEW023 OVC041 06/03 A3026 RMK AO2 SLP249 T00610033=
201012110853 METAR KPAE 110853Z AUTO VRB04KT 10SM SCT019 BKN025 06/03 A3026 RMK AO2 SLP249 T00560033 53004=
201012110753 METAR KPAE 110753Z AUTO VRB04KT 10SM CLR 07/03 A3024 RMK AO2 SLP244 T00670033 400830061=
201012110653 METAR KPAE 110653Z AUTO 15008KT 10SM FEW019 07/03 A3025 RMK AO2 SLP245 T00670033=
201012110649 SPECI KPAE 110649Z AUTO 15006KT 10SM SCT019 07/04 A3024 RMK AO2=
201012110649 SPECI KPAE 110649Z AUTO 15006KT 10SM SCT019 07/04 A3024 RMK AO2=
201012110553 METAR KPAE 110553Z AUTO 15006KT 10SM SCT015 SCT021 OVC028 07/04 A3024 RMK AO2 SLP242 T00720039 10083 20067 51013=
201012110500 SPECI KPAE 110500Z AUTO 16006KT 10SM BKN017 BKN024 OVC029 07/04 A3023 RMK AO2=
201012110500 SPECI KPAE 110500Z AUTO 16006KT 10SM BKN017 BKN024 OVC029 07/04 A3023 RMK AO2=
201012110453 METAR KPAE 110453Z 16007KT 10SM FEW080 07/04 A3023 RMK AO2 SLP238 T00720039=
201012110353 METAR KPAE 110353Z 16006KT 10SM CLR 07/04 A3022 RMK AO2 SLP237 T00670039=
201012110253 METAR KPAE 110253Z 18006KT 10SM SCT040 BKN080 07/04 A3020 RMK AO2 SLP229 T00670039 51012=
201012110153 METAR KPAE 110153Z 18007KT 10SM FEW038 07/04 A3019 RMK AO2 SLP227 T00720039=
201012110053 METAR KPAE 110053Z 18005KT 10SM OVC047 08/04 A3018 RMK AO2 SLP223 T00780039=
201012110022 SPECI KPAE 110022Z 17004KT 10SM SCT016 OVC037 08/04 A3017 RMK AO2=
201012110022 SPECI KPAE 110022Z 17004KT 10SM SCT016 OVC037 08/04 A3017 RMK AO2=
201012102353 METAR KPAE 102353Z 16006KT 10SM SCT012 BKN016 OVC022 08/04 A3016 RMK AO2 SLP216 T00830039 10083 20061 53024=
201012102253 METAR KPAE 102253Z 16004KT 10SM BKN020 OVC026 08/03 A3013 RMK AO2 SLP207 T00830033=
201012102153 METAR KPAE 102153Z 17005KT 10SM FEW017 OVC025 08/04 A3011 RMK AO2 SLP198 T00780039=
201012102053 METAR KPAE 102053Z 20007KT 10SM BKN015 OVC022 07/04 A3009 RMK AO2 SLP191 T00720039 52015=
201012101953 METAR KPAE 101953Z 00000KT 10SM OVC018 07/04 A3007 RMK AO2 SLP184 T00720039=
201012101853 SPECI KPAE 101853Z 19007KT 10SM SCT009 BKN016 OVC025 07/04 A3006 RMK AO2 SLP183 T00720039=
201012101817 SPECI KPAE 101817Z 00000KT 10SM SCT009 BKN016 OVC025 06/05 A3005 RMK AO2=
201012101817 SPECI KPAE 101817Z 00000KT 10SM SCT009 BKN016 OVC025 06/05 A3005 RMK AO2=
201012101803 SPECI KPAE 101803Z 27003KT 10SM SCT007 BKN013 OVC023 07/04 A3005 RMK AO2=
201012101803 SPECI KPAE 101803Z 27003KT 10SM SCT007 BKN013 OVC023 07/04 A3005 RMK AO2=
201012101753 METAR KPAE 101753Z 22005KT 10SM BKN007 OVC014 07/05 A3004 RMK AO2 CIG 006V011 SLP176 T00670050 10067 20061 53029=
201012101713 SPECI KPAE 101713Z 20008KT 10SM BKN007 OVC019 07/04 A3002 RMK AO2=
201012101713 SPECI KPAE 101713Z 20008KT 10SM BKN007 OVC019 07/04 A3002 RMK AO2=
201012101653 METAR KPAE 101653Z 22005KT 10SM SCT013 BKN022 07/04 A3001 RMK AO2 SLP164 T00670044=
201012101553 METAR KPAE 101553Z 18007KT 10SM BKN013 OVC022 07/04 A2998 RMK AO2 SLP153 T00670044=
201012101526 SPECI KPAE 101526Z 21005KT 10SM BKN016 BKN020 OVC075 07/04 A2997 RMK AO2=
201012101526 SPECI KPAE 101526Z 21005KT 10SM BKN016 BKN020 OVC075 07/04 A2997 RMK AO2=
201012101453 METAR KPAE 101453Z 19008KT 10SM SCT018 OVC080 07/04 A2995 RMK AO2 SLP146 T00670039 51020=
201012101353 METAR KPAE 101353Z AUTO 18009KT 10SM OVC017 07/04 A2994 RMK AO2 SLP141 T00670044=
201012101314 SPECI KPAE 101314Z AUTO 18008KT 10SM BKN019 BKN046 BKN080 07/04 A2992 RMK AO2=
201012101314 SPECI KPAE 101314Z AUTO 18008KT 10SM BKN019 BKN046 BKN080 07/04 A2992 RMK AO2=
201012101302 SPECI KPAE 101302Z AUTO 20010KT 10SM SCT020 BKN046 BKN080 06/04 A2992 RMK AO2=
201012101302 SPECI KPAE 101302Z AUTO 20010KT 10SM SCT020 BKN046 BKN080 06/04 A2992 RMK AO2=
201012101253 METAR KPAE 101253Z AUTO 20011KT 10SM FEW016 BKN022 BKN037 06/04 A2991 RMK AO2 SLP131 T00610044=
201012101223 SPECI KPAE 101223Z AUTO 20010KT 10SM BKN017 BKN025 OVC037 07/04 A2990 RMK AO2=
201012101223 SPECI KPAE 101223Z AUTO 20010KT 10SM BKN017 BKN025 OVC037 07/04 A2990 RMK AO2=
201012101153 METAR KPAE 101153Z AUTO 21009KT 10SM SCT020 BKN035 BKN100 06/04 A2990 RMK AO2 SLP126 60001 70039 T00610039 10067 20061 51030=
201012101053 METAR KPAE 101053Z AUTO 22011G16KT 10SM OVC018 07/04 A2988 RMK AO2 SLP119 T00670044=
201012101013 SPECI KPAE 101013Z AUTO 21009KT 10SM BKN016 OVC090 07/04 A2985 RMK AO2=
201012101013 SPECI KPAE 101013Z AUTO 21009KT 10SM BKN016 OVC090 07/04 A2985 RMK AO2=
201012100953 METAR KPAE 100953Z AUTO 21011KT 10SM FEW055 OVC085 06/04 A2984 RMK AO2 SLP108 T00610044=
201012100853 METAR KPAE 100853Z AUTO 20015G21KT 10SM SCT012 BKN100 06/04 A2980 RMK AO2 SLP095 P0001 60001 T00610039 53025=
201012100819 SPECI KPAE 100819Z AUTO 21015G21KT 10SM FEW010 SCT014 OVC095 06/04 A2978 RMK AO2 P0001=
201012100819 SPECI KPAE 100819Z AUTO 21015G21KT 10SM FEW010 SCT014 OVC095 06/04 A2978 RMK AO2 P0001=
201012100753 METAR KPAE 100753Z AUTO 20014G21KT 10SM OVC014 06/04 A2977 RMK AO2 RAE22 SLP084 P0000 T00610044 401000061=
201012100712 SPECI KPAE 100712Z AUTO 20012KT 10SM -RA BKN011 OVC017 07/05 A2976 RMK AO2 P0000=
201012100712 SPECI KPAE 100712Z AUTO 20012KT 10SM -RA BKN011 OVC017 07/05 A2976 RMK AO2 P0000=
201012100653 METAR KPAE 100653Z AUTO 19013G21KT 10SM -RA FEW009 OVC015 07/05 A2975 RMK AO2 RAB48 SLP077 P0000 T00670050=
201012100650 SPECI KPAE 100650Z AUTO 20010KT 10SM -RA FEW009 BKN013 OVC019 07/05 A2975 RMK AO2 RAB48 P0000=
201012100650 SPECI KPAE 100650Z AUTO 20010KT 10SM -RA FEW009 BKN013 OVC019 07/05 A2975 RMK AO2 RAB48 P0000=
201012100623 SPECI KPAE 100623Z AUTO 18011KT 10SM FEW010 SCT014 OVC022 07/05 A2974 RMK AO2=
201012100623 SPECI KPAE 100623Z AUTO 18011KT 10SM FEW010 SCT014 OVC022 07/05 A2974 RMK AO2=
201012100553 METAR KPAE 100553Z AUTO 20012G21KT 10SM FEW005 BKN014 OVC019 07/05 A2973 RMK AO2 RAE44 SLP069 P0003 60029 T00720050 10089 20067 58003=
201012100543 SPECI KPAE 100543Z AUTO 19014KT 10SM -RA SCT007 OVC018 07/05 A2973 RMK AO2 P0003=
201012100543 SPECI KPAE 100543Z AUTO 19014KT 10SM -RA SCT007 OVC018 07/05 A2973 RMK AO2 P0003=
201012100518 SPECI KPAE 100518Z AUTO 18009KT 6SM -RA BR BKN007 OVC013 07/05 A2973 RMK AO2 CIG 004V010 P0003=
201012100518 SPECI KPAE 100518Z AUTO 18009KT 6SM -RA BR BKN007 OVC013 07/05 A2973 RMK AO2 CIG 004V010 P0003=
201012100500 SPECI KPAE 100500Z AUTO VRB04KT 5SM -RA BR SCT008 BKN013 OVC028 07/05 A2973 RMK AO2 P0001=
201012100500 SPECI KPAE 100500Z AUTO VRB04KT 5SM -RA BR SCT008 BKN013 OVC028 07/05 A2973 RMK AO2 P0001=
201012100453 METAR KPAE 100453Z AUTO 15004KT 6SM -RA BR BKN006 OVC010 07/05 A2973 RMK AO2 SLP071 P0021 T00670050 TSNO=
201012100439 SPECI KPAE 100439Z 16004KT 4SM RA BR BKN006 OVC010 07/04 A2973 RMK AO2 P0019=
201012100439 SPECI KPAE 100439Z 16004KT 4SM RA BR BKN006 OVC010 07/04 A2973 RMK AO2 P0019=
201012100422 SPECI KPAE 100422Z 21006KT 2SM +RA BR BKN006 OVC010 07/06 A2974 RMK AO2 P0011=
201012100422 SPECI KPAE 100422Z 21006KT 2SM +RA BR BKN006 OVC010 07/06 A2974 RMK AO2 P0011=
201012100353 METAR KPAE 100353Z 17006KT 9SM -RA BKN006 OVC014 07/06 A2973 RMK AO2 CIG 004V010 SLP071 P0004 T00720056=
201012100345 SPECI KPAE 100345Z 17006KT 9SM -RA BKN006 BKN011 OVC017 07/06 A2973 RMK AO2 CIG 004V007 P0004=
201012100345 SPECI KPAE 100345Z 17006KT 9SM -RA BKN006 BKN011 OVC017 07/06 A2973 RMK AO2 CIG 004V007 P0004=
201012100338 SPECI KPAE 100338Z 19008KT 9SM -RA SCT006 BKN012 OVC017 07/06 A2973 RMK AO2 P0003=
201012100338 SPECI KPAE 100338Z 19008KT 9SM -RA SCT006 BKN012 OVC017 07/06 A2973 RMK AO2 P0003=
201012100323 SPECI KPAE 100323Z 16009KT 8SM -RA FEW007 BKN019 OVC031 07/06 A2973 RMK AO2 P0003=
201012100323 SPECI KPAE 100323Z 16009KT 8SM -RA FEW007 BKN019 OVC031 07/06 A2973 RMK AO2 P0003=
201012100313 SPECI KPAE 100313Z 17009KT 8SM -RA SCT010 BKN020 OVC031 08/06 A2974 RMK AO2 P0002=
201012100313 SPECI KPAE 100313Z 17009KT 8SM -RA SCT010 BKN020 OVC031 08/06 A2974 RMK AO2 P0002=
201012100305 SPECI KPAE 100305Z 17008KT 7SM -RA SCT008 BKN014 OVC031 08/06 A2974 RMK AO2 P0001=
201012100305 SPECI KPAE 100305Z 17008KT 7SM -RA SCT008 BKN014 OVC031 08/06 A2974 RMK AO2 P0001=
201012100253 METAR KPAE 100253Z 18008KT 7SM -RA BKN010 BKN021 OVC037 08/06 A2974 RMK AO2 RAB25 SLP073 P0001 60001 T00780056 56006=
201012100250 SPECI KPAE 100250Z 18007KT 8SM -RA BKN010 BKN014 OVC037 08/06 A2974 RMK AO2 RAB25 CIG 008V013 P0001=
201012100250 SPECI KPAE 100250Z 18007KT 8SM -RA BKN010 BKN014 OVC037 08/06 A2974 RMK AO2 RAB25 CIG 008V013 P0001=
201012100153 METAR KPAE 100153Z 17010KT 10SM SCT009 OVC085 08/05 A2973 RMK AO2 SLP071 T00780050=
201012100148 SPECI KPAE 100148Z 17010KT 10SM SCT009 SCT016 OVC085 08/06 A2973 RMK AO2=
201012100148 SPECI KPAE 100148Z 17010KT 10SM SCT009 SCT016 OVC085 08/06 A2973 RMK AO2=
201012100139 SPECI KPAE 100139Z 16010KT 10SM BKN009 BKN017 OVC075 08/06 A2973 RMK AO2=
201012100139 SPECI KPAE 100139Z 16010KT 10SM BKN009 BKN017 OVC075 08/06 A2973 RMK AO2=
201012100130 SPECI KPAE 100130Z 16009KT 10SM FEW009 SCT017 OVC080 08/06 A2974 RMK AO2=
201012100130 SPECI KPAE 100130Z 16009KT 10SM FEW009 SCT017 OVC080 08/06 A2974 RMK AO2=
201012100053 METAR KPAE 100053Z 16010KT 10SM SCT019 OVC075 08/05 A2976 RMK AO2 SLP077 T00830050=
201012092353 METAR KPAE 092353Z 18011KT 10SM BKN019 BKN110 09/06 A2978 RMK AO2 SLP087 60003 T00890056 10100 20089 56015=
201012092253 METAR KPAE 092253Z 17010KT 10SM BKN021 BKN090 09/06 A2979 RMK AO2 SLP088 T00940056=
201012092153 METAR KPAE 092153Z 19020G25KT 10SM BKN019 09/06 A2981 RMK AO2 SLP094 T00940056=
201012092053 METAR KPAE 092053Z 18012G22KT 10SM FEW013 BKN090 09/06 A2983 RMK AO2 SLP102 60003 T00940061 58002=
201012091953 METAR KPAE 091953Z 18018G27KT 10SM FEW013 SCT033 BKN120 09/06 A2983 RMK AO2 PK WND 18027/1949 RAE14 SLP102 P0001 T00940061=
201012091929 SPECI KPAE 091929Z 19016G22KT 10SM FEW014 SCT018 BKN033 09/07 A2983 RMK AO2 RAE14 P0001=
201012091929 SPECI KPAE 091929Z 19016G22KT 10SM FEW014 SCT018 BKN033 09/07 A2983 RMK AO2 RAE14 P0001=
201012091853 METAR KPAE 091853Z 19020KT 10SM -RA BKN014 BKN024 OVC042 09/07 A2984 RMK AO2 SLP107 P0002 T00890067=
201012091815 SPECI KPAE 091815Z 18015KT 10SM SCT006 BKN017 OVC025 09/07 A2984 RMK AO2 RAE14 P0000=
201012091815 SPECI KPAE 091815Z 18015KT 10SM SCT006 BKN017 OVC025 09/07 A2984 RMK AO2 RAE14 P0000=
201012091808 SPECI KPAE 091808Z 19015KT 10SM -RA BKN010 BKN017 OVC025 09/07 A2984 RMK AO2 P0000=
201012091808 SPECI KPAE 091808Z 19015KT 10SM -RA BKN010 BKN017 OVC025 09/07 A2984 RMK AO2 P0000=
201012091753 METAR KPAE 091753Z 17012G16KT 10SM -RA FEW004 SCT017 OVC025 09/07 A2984 RMK AO2 RAB30 SLP105 P0002 60006 T00890072 10089 20072 50000=
201012091742 SPECI KPAE 091742Z 18011G21KT 5SM -RA BR SCT013 BKN025 BKN033 09/07 A2984 RMK AO2 RAB30 P0001=
201012091742 SPECI KPAE 091742Z 18011G21KT 5SM -RA BR SCT013 BKN025 BKN033 09/07 A2984 RMK AO2 RAB30 P0001=
201012091719 SPECI KPAE 091719Z 18014KT 10SM FEW011 SCT025 BKN035 09/07 A2985 RMK AO2=
201012091719 SPECI KPAE 091719Z 18014KT 10SM FEW011 SCT025 BKN035 09/07 A2985 RMK AO2=
201012091703 SPECI KPAE 091703Z 17012KT 10SM FEW008 SCT013 BKN027 08/07 A2985 RMK AO2=
201012091703 SPECI KPAE 091703Z 17012KT 10SM FEW008 SCT013 BKN027 08/07 A2985 RMK AO2=
201012091653 METAR KPAE 091653Z 17011KT 10SM FEW015 SCT025 BKN048 08/06 A2985 RMK AO2 SLP108 T00830061=
201012091611 SPECI KPAE 091611Z 18014G20KT 10SM FEW008 08/06 A2984 RMK AO2=
201012091611 SPECI KPAE 091611Z 18014G20KT 10SM FEW008 08/06 A2984 RMK AO2=
201012091553 METAR KPAE 091553Z 18012G21KT 10SM SCT010 SCT020 BKN041 08/06 A2984 RMK AO2 SLP106 T00780061=
201012091526 SPECI KPAE 091526Z 17013G19KT 10SM FEW009 BKN043 OVC050 08/06 A2983 RMK AO2=
201012091526 SPECI KPAE 091526Z 17013G19KT 10SM FEW009 BKN043 OVC050 08/06 A2983 RMK AO2=
201012091453 METAR KPAE 091453Z 17014G23KT 10SM FEW009 BKN019 OVC030 08/06 A2983 RMK AO2 PK WND 18026/1418 RAB06E38 SLP104 P0004 60004 T00780061 56003=
201012091437 SPECI KPAE 091437Z AUTO 17011G22KT 9SM -RA FEW009 BKN017 OVC037 08/06 A2984 RMK AO2 PK WND 18026/1418 RAB06 P0004=
201012091437 SPECI KPAE 091437Z AUTO 17011G22KT 9SM -RA FEW009 BKN017 OVC037 08/06 A2984 RMK AO2 PK WND 18026/1418 RAB06 P0004=
201012091353 METAR KPAE 091353Z AUTO 16015KT 10SM FEW026 SCT070 OVC100 08/06 A2984 RMK AO2 SLP105 T00780056=
201012091253 METAR KPAE 091253Z AUTO 20014G20KT 10SM FEW014 OVC085 08/06 A2983 RMK AO2 SLP104 T00780056=
201012091202 SPECI KPAE 091202Z AUTO 17013KT 10SM FEW026 BKN031 OVC120 08/06 A2984 RMK AO2=
201012091202 SPECI KPAE 091202Z AUTO 17013KT 10SM FEW026 BKN031 OVC120 08/06 A2984 RMK AO2=
201012091153 METAR KPAE 091153Z AUTO 17012KT 10SM BKN028 OVC070 08/06 A2984 RMK AO2 RAB01E41 SLP107 P0001 60005 70046 T00780056 10089 20078 50001=
201012091138 SPECI KPAE 091138Z AUTO 17013G23KT 10SM -RA SCT030 BKN042 OVC065 08/06 A2985 RMK AO2 RAB01 P0001=
201012091138 SPECI KPAE 091138Z AUTO 17013G23KT 10SM -RA SCT030 BKN042 OVC065 08/06 A2985 RMK AO2 RAB01 P0001=
201012091121 SPECI KPAE 091121Z AUTO 17013G22KT 10SM -RA FEW024 BKN029 OVC043 08/06 A2985 RMK AO2 RAB01 P0001=
201012091121 SPECI KPAE 091121Z AUTO 17013G22KT 10SM -RA FEW024 BKN029 OVC043 08/06 A2985 RMK AO2 RAB01 P0001=
201012091053 METAR KPAE 091053Z AUTO 17015G23KT 10SM FEW011 BKN032 OVC043 08/06 A2986 RMK AO2 RAB03E41 SLP112 P0000 T00780061=
201012090953 METAR KPAE 090953Z AUTO 17014G25KT 10SM SCT011 BKN035 OVC046 08/06 A2985 RMK AO2 SLP109 T00830061=
201012090853 METAR KPAE 090853Z AUTO 17015G22KT 10SM FEW025 BKN035 OVC044 08/06 A2984 RMK AO2 PK WND 19027/0800 RAE48 SLP106 P0001 60004 T00830061 58005=
201012090807 SPECI KPAE 090807Z AUTO 19015G27KT 10SM -RA SCT026 BKN040 OVC050 08/06 A2986 RMK AO2 PK WND 19027/0800 P0001=
201012090807 SPECI KPAE 090807Z AUTO 19015G27KT 10SM -RA SCT026 BKN040 OVC050 08/06 A2986 RMK AO2 PK WND 19027/0800 P0001=
201012090753 METAR KPAE 090753Z AUTO 18015G22KT 9SM -RA BKN026 BKN032 OVC038 09/06 A2986 RMK AO2 RAE18B41 SLP112 P0001 T00890061 401170072=
201012090740 SPECI KPAE 090740Z AUTO 17011G19KT 10SM BKN028 OVC036 09/06 A2985 RMK AO2 RAE18 P0000=
201012090740 SPECI KPAE 090740Z AUTO 17011G19KT 10SM BKN028 OVC036 09/06 A2985 RMK AO2 RAE18 P0000=
201012090653 METAR KPAE 090653Z AUTO 16014KT 10SM -RA FEW036 BKN044 OVC055 08/06 A2985 RMK AO2 SLP108 P0002 T00830061=
201012090553 METAR KPAE 090553Z AUTO 17012G19KT 10SM -RA SCT028 BKN036 OVC060 09/06 A2985 RMK AO2 RAB0455E02B20 SLP111 P0000 60009 T00890061 10106 20089 51003=
201012090453 METAR KPAE 090453Z 18013G21KT 10SM FEW030 BKN042 OVC065 09/06 A2985 RMK AO2 RAB14E46 SLP110 P0001 T00890061=
201012090353 METAR KPAE 090353Z 18014G21KT 10SM FEW027 SCT041 OVC050 09/06 A2985 RMK AO2 PK WND 19026/0256 RAE42 SLP109 P0002 T00890061=
201012090253 METAR KPAE 090253Z 18017G24KT 10SM -RA BKN040 OVC048 09/06 A2984 RMK AO2 SLP107 P0004 60006 T00940056 50002=
201012090153 METAR KPAE 090153Z 18016G22KT 10SM -RA BKN037 OVC047 09/06 A2985 RMK AO2 SLP108 P0001 T00940056=
201012090053 METAR KPAE 090053Z 16011KT 10SM -RA BKN039 BKN046 OVC055 10/06 A2985 RMK AO2 RAB01 SLP109 P0001 T01000056=
201012082353 METAR KPAE 082353Z 17012KT 10SM SCT040 OVC050 11/05 A2984 RMK AO2 PK WND 19029/2318 RAB2254E14 SLP105 P0001 60004 T01060050 10117 20094 58002=
201012082253 METAR KPAE 082253Z 16014G19KT 10SM SCT033 BKN049 11/05 A2984 RMK AO2 RAB30E40 SLP105 P0000 T01060050=
201012082153 METAR KPAE 082153Z 19016G26KT 10SM FEW033 BKN044 OVC080 12/06 A2985 RMK AO2 PK WND 20026/2149 RAE37 SLP109 P0001 T01170061=
201012082053 METAR KPAE 082053Z 20016G25KT 10SM -RA FEW028 OVC038 10/06 A2984 RMK AO2 PK WND 19031/1954 RAB04 SLP107 P0002 60002 T01000061 53004=
201012081953 METAR KPAE 081953Z 19023G32KT 10SM FEW028 SCT047 BKN055 10/06 A2984 RMK AO2 PK WND 19034/1942 SLP105 T01000061=
201012081853 METAR KPAE 081853Z 18018G26KT 10SM BKN023 09/06 A2983 RMK AO2 PK WND 18029/1830 SLP103 T00940061=
201012081753 METAR KPAE 081753Z 17016G21KT 10SM SCT045 SCT050 08/06 A2981 RMK AO2 PK WND 18032/1710 RAE29 SLP096 P0002 60028 T00780061 10106 20072 51026=
201012081653 METAR KPAE 081653Z 19020G27KT 9SM -RA OVC038 08/05 A2979 RMK AO2 PK WND 21028/1555 TSE04B08E23 SLP090 P0017 T00780050=
201012081629 SPECI KPAE 081629Z 19019G27KT 5SM RA OVC034 08/05 A2979 RMK AO2 PK WND 21028/1555 TSE04B08E23 P0013=
201012081629 SPECI KPAE 081629Z 19019G27KT 5SM RA OVC034 08/05 A2979 RMK AO2 PK WND 21028/1555 TSE04B08E23 P0013=
201012081608 SPECI KPAE 081608Z 20018KT 7SM VCTS -RA FEW019 OVC034 08/06 A2980 RMK AO2 PK WND 21028/1555 TSE04B08 P0005=
201012081608 SPECI KPAE 081608Z 20018KT 7SM VCTS -RA FEW019 OVC034 08/06 A2980 RMK AO2 PK WND 21028/1555 TSE04B08 P0005=
201012081553 METAR KPAE 081553Z 23022G50KT 3SM VCTS +RA FEW018 BKN044 OVC060 09/06 A2981 RMK AO2 PK WND 19050/1551 LTG DSNT S TSB49RAB38 PRESRR SLP095 P0009 T00940061=
201012081453 METAR KPAE 081453Z 16017KT 10SM SCT050 BKN060 BKN095 11/05 A2973 RMK AO2 PK WND 16026/1433 RAE20 SLP069 P0000 60000 T01060050 53005=
201012081353 METAR KPAE 081353Z AUTO 17017G26KT 10SM -RA FEW038 SCT050 BKN060 09/06 A2971 RMK AO2 PK WND 17027/1341 RAE21B47 SLP062 P0000 T00940056=
201012081253 METAR KPAE 081253Z AUTO 16015KT 10SM -RA OVC043 08/06 A2973 RMK AO2 SLP068 P0000 T00780056=
201012081153 METAR KPAE 081153Z AUTO 15008G17KT 8SM -RA OVC041 08/06 A2971 RMK AO2 SLP063 P0004 60028 70057 T00780061 10083 20078 58022=
201012081053 METAR KPAE 081053Z AUTO 15009G18KT 8SM -RA OVC042 08/06 A2974 RMK AO2 SLP071 P0006 T00830061=
201012080953 METAR KPAE 080953Z AUTO 16013G21KT 10SM -RA OVC060 08/06 A2976 RMK AO2 SLP078 P0002 T00830061=
201012080853 METAR KPAE 080853Z AUTO 15008G19KT 10SM -RA FEW039 BKN050 OVC065 08/06 A2978 RMK AO2 SLP086 P0005 60016 T00830061 58006=
201012080753 METAR KPAE 080753Z AUTO 15013G19KT 8SM -RA OVC047 08/06 A2980 RMK AO2 SLP093 P0006 T00780056 401220072=
201012080653 METAR KPAE 080653Z AUTO 15007KT 100V180 8SM -RA OVC047 08/06 A2981 RMK AO2 SLP095 P0005 T00780056=
201012080553 METAR KPAE 080553Z AUTO 12010G19KT 10SM -RA OVC050 08/06 A2980 RMK AO2 SLP092 P0000 60027 T00780056 10117 20072 58033=
201012080453 METAR KPAE 080453Z AUTO 13007KT 10SM -RA OVC045 08/06 A2984 RMK AO2 SLP105 P0004 T00780056=
201012080353 METAR KPAE 080353Z VRB05G17KT 10SM -RA OVC050 07/06 A2987 RMK AO2 SLP116 P0004 T00720056=
201012080253 METAR KPAE 080253Z 12011G15KT 10SM -RA BKN049 OVC060 07/06 A2990 RMK AO2 SLP126 P0009 60019 T00720056 58015=
201012080153 METAR KPAE 080153Z VRB06KT 6SM -RA OVC041 08/05 A2995 RMK AO2 SLP142 P0008 T00830050=
201012080053 METAR KPAE 080053Z 17009KT 10SM -RA SCT043 OVC055 10/04 A2998 RMK AO2 RAB21 SLP154 P0002 T01000044=
201012072353 METAR KPAE 072353Z 17009KT 10SM BKN070 12/01 A2994 RMK AO2 SLP140 T01170011 10122 20106 55013=
201012072253 METAR KPAE 072253Z 13008KT 10SM BKN050 BKN150 12/02 A2993 RMK AO2 SLP136 T01170022=
201012072153 METAR KPAE 072153Z 12007KT 10SM CLR 12/02 A2997 RMK AO2 SLP148 T01170022=
201012072053 METAR KPAE 072053Z VRB05KT 10SM FEW085 11/02 A2998 RMK AO2 SLP154 T01110022 58022=
201012071953 METAR KPAE 071953Z VRB04KT 10SM BKN140 12/02 A3002 RMK AO2 SLP166 T01170022=
201012071853 METAR KPAE 071853Z VRB04KT 10SM CLR 11/02 A3004 RMK AO2 SLP176 T01110022=
201012071753 METAR KPAE 071753Z 12009KT 10SM BKN070 BKN080 BKN095 11/02 A3005 RMK AO2 SLP177 60002 T01060022 10106 20083 58021=
201012071653 METAR KPAE 071653Z 13008G16KT 110V170 10SM OVC065 10/02 A3007 RMK AO2 RAE1555 SLP184 P0000 T01000022=
201012071553 METAR KPAE 071553Z 12010G20KT 10SM -RA BKN065 BKN085 OVC110 09/02 A3009 RMK AO2 SLP192 P0001 T00940022=
201012071453 METAR KPAE 071453Z 12010G16KT 10SM -RA OVC060 09/03 A3011 RMK AO2 SLP198 P0000 60001 T00890028 58012=
201012071353 METAR KPAE 071353Z 12010G15KT 10SM -RA OVC060 09/03 A3013 RMK AO2 SLP205 P0001 T00890033=
201012071253 METAR KPAE 071253Z VRB04KT 10SM -RA BKN060 OVC080 08/03 A3015 RMK AO2 SLP211 P0000 T00830028=
201012071153 METAR KPAE 071153Z 11009KT 10SM -RA BKN055 OVC075 09/03 A3015 RMK AO2 RAE11B35 SLP210 P0000 60000 70001 T00890028 10094 20089 58012=
201012071053 METAR KPAE 071053Z 12007KT 10SM -RA FEW045 OVC070 09/02 A3016 RMK AO2 RAB36 SLP217 P0000 T00890022=
201012070953 METAR KPAE 070953Z VRB03KT 10SM OVC048 09/02 A3017 RMK AO2 SLP220 T00890022=
201012070853 METAR KPAE 070853Z 12005KT 10SM OVC050 09/03 A3018 RMK AO2 SLP222 T00890028 58002=
201012070753 METAR KPAE 070753Z VRB03KT 10SM SCT065 BKN080 09/03 A3018 RMK AO2 SLP223 T00940028 400940033=
201012070653 METAR KPAE 070653Z 12008KT 10SM OVC075 09/02 A3019 RMK AO2 SLP226 T00890022=
201012070553 METAR KPAE 070553Z 11008KT 10SM SCT044 BKN055 OVC095 09/02 A3019 RMK AO2 RAB31E45 SLP225 P0000 60000 T00890022 10094 20072 50006=
201012070453 METAR KPAE 070453Z 13005KT 10SM FEW042 BKN050 OVC060 09/02 A3019 RMK AO2 SLP226 T00890022=
201012070353 METAR KPAE 070353Z VRB03KT 10SM SCT060 BKN080 09/02 A3018 RMK AO2 SLP223 T00940022=
201012070253 METAR KPAE 070253Z VRB05KT 10SM BKN055 OVC070 09/02 A3017 RMK AO2 SLP219 T00890022 53010=
201012070153 METAR KPAE 070153Z 00000KT 10SM BKN050 OVC080 09/02 A3016 RMK AO2 SLP216 T00890022=
201012070053 METAR KPAE 070053Z VRB05KT 10SM OVC070 09/02 A3014 RMK AO2 SLP209 T00890022=
201012062353 METAR KPAE 062353Z 17006KT 10SM BKN044 OVC060 08/03 A3014 RMK AO2 SLP210 60001 T00830033 10094 20078 53011=
201012062253 METAR KPAE 062253Z VRB03KT 10SM OVC100 08/03 A3012 RMK AO2 RAE2159 SLP202 P0000 T00830033=
201012062153 METAR KPAE 062153Z 14005KT 10SM -RA OVC043 08/03 A3011 RMK AO2 RAE2056B16 SLP200 P0001 T00830033=
201012062053 METAR KPAE 062053Z 18007KT 10SM -RA OVC048 09/02 A3011 RMK AO2 RAB49 SLP198 P0000 60000 T00890022 51020=
201012061953 METAR KPAE 061953Z 17006KT 10SM OVC050 09/02 A3009 RMK AO2 SLP193 T00890017=
201012061853 METAR KPAE 061853Z 17006KT 10SM OVC055 08/02 A3007 RMK AO2 SLP185 T00780017=
201012061753 METAR KPAE 061753Z 16008KT 10SM SCT090 08/01 A3005 RMK AO2 SLP178 T00780011 10083 20033 53023=
201012061653 METAR KPAE 061653Z 15006KT 10SM SCT090 08/01 A3003 RMK AO2 SLP171 T00780006=
201012061553 METAR KPAE 061553Z 16006KT 10SM CLR 07/00 A3000 RMK AO2 SLP160 T00670000=
201012061453 METAR KPAE 061453Z 11006KT 10SM FEW110 08/00 A2998 RMK AO2 SLP154 T00830000 53012=
201012061353 METAR KPAE 061353Z AUTO 09006KT 10SM CLR 08/00 A2996 RMK AO2 SLP147 T00780000=
201012061253 METAR KPAE 061253Z AUTO 08003KT 10SM CLR 05/00 A2996 RMK AO2 SLP149 T00500000=
201012061153 METAR KPAE 061153Z AUTO 00000KT 10SM CLR 03/00 A2994 RMK AO2 SLP144 T00330000 10072 20033 50000=
201012061053 METAR KPAE 061053Z AUTO 00000KT 10SM CLR 05/00 A2995 RMK AO2 SLP146 T00500000=
201012060953 METAR KPAE 060953Z AUTO 10004KT 10SM CLR 06/M01 A2995 RMK AO2 SLP144 T00561006=
201012060853 METAR KPAE 060853Z AUTO 12004KT 10SM CLR 07/M01 A2994 RMK AO2 SLP142 T00671011 56018=
201012060753 METAR KPAE 060753Z AUTO 00000KT 10SM CLR 04/M01 A2996 RMK AO2 SLP148 T00441006 400830022=
201012060653 METAR KPAE 060653Z AUTO 00000KT 10SM CLR 04/M02 A2998 RMK AO2 SLP155 T00441017=
201012060553 METAR KPAE 060553Z AUTO 00000KT 10SM CLR 06/M02 A3000 RMK AO2 SLP162 T00611017 10072 20033 58014=
201012060453 METAR KPAE 060453Z AUTO 00000KT 10SM CLR 06/M02 A3002 RMK AO2 SLP171 T00561017=
201012060353 METAR KPAE 060353Z 15004KT 10SM CLR 07/M01 A3002 RMK AO2 SLP170 T00671011=
201012060253 METAR KPAE 060253Z 11006KT 10SM CLR 06/M01 A3004 RMK AO2 SLP175 T00611006 58011=
201012060153 METAR KPAE 060153Z 11003KT 10SM CLR 05/01 A3006 RMK AO2 SLP183 T00500006=
201012060053 METAR KPAE 060053Z 00000KT 10SM CLR 06/00 A3006 RMK AO2 SLP180 T00610000=
201012052353 METAR KPAE 052353Z 00000KT 10SM BKN080 BKN120 06/01 A3007 RMK AO2 SLP187 60000 T00610011 10083 20050 57008=
201012052253 METAR KPAE 052253Z 04003KT 10SM OVC100 07/00 A3008 RMK AO2 RAE09 SLP188 P0000 T00720000=
201012052153 METAR KPAE 052153Z 00000KT 10SM -RA OVC070 08/M01 A3009 RMK AO2 RAB53 SLP193 P0000 T00831006=
201012052053 METAR KPAE 052053Z 03003KT 10SM SCT120 07/01 A3010 RMK AO2 SLP194 T00670006 58015=
201012051953 METAR KPAE 051953Z 00000KT 10SM SCT120 08/M01 A3011 RMK AO2 SLP200 T00781006=
201012051853 METAR KPAE 051853Z 02004KT 10SM SCT100 06/M01 A3013 RMK AO2 SLP209 T00611011=
201012051753 METAR KPAE 051753Z 00000KT 10SM SCT100 05/M01 A3014 RMK AO2 SLP211 T00501011 10061 20033 53005=
201012051653 METAR KPAE 051653Z 09004KT 10SM CLR 06/M03 A3013 RMK AO2 SLP206 T00561033=
201012051553 METAR KPAE 051553Z 07003KT 10SM CLR 05/M03 A3013 RMK AO2 SLP206 T00501033=
201012051453 METAR KPAE 051453Z 09003KT 10SM CLR 06/M04 A3012 RMK AO2 SLP205 T00561039 55004=
201012051353 METAR KPAE 051353Z AUTO 00000KT 10SM CLR 04/M03 A3012 RMK AO2 SLP205 T00441028=
201012051253 METAR KPAE 051253Z AUTO 10006KT 10SM CLR 06/M04 A3013 RMK AO2 SLP206 T00561039=
201012051153 METAR KPAE 051153Z AUTO 00000KT 10SM CLR 04/M03 A3014 RMK AO2 SLP210 T00441028 10056 20017 56004=
201012051053 METAR KPAE 051053Z AUTO 00000KT 10SM BKN110 04/M03 A3014 RMK AO2 SLP211 T00391028=
201012050953 METAR KPAE 050953Z AUTO 00000KT 10SM SCT100 03/M03 A3014 RMK AO2 SLP212 T00331028=
201012050853 METAR KPAE 050853Z AUTO 09004KT 10SM BKN120 05/M04 A3015 RMK AO2 SLP214 T00501039 58002=
201012050753 METAR KPAE 050753Z AUTO 10008KT 10SM CLR 06/M03 A3016 RMK AO2 SLP217 T00561033 400560006=
201012050653 METAR KPAE 050653Z AUTO 00000KT 10SM CLR 02/M01 A3017 RMK AO2 SLP220 T00171006=
201012050553 METAR KPAE 050553Z AUTO 00000KT 10SM CLR 03/M01 A3016 RMK AO2 SLP217 T00281006 10050 20022 53004=
201012050453 METAR KPAE 050453Z AUTO 03004KT 10SM CLR 03/00 A3015 RMK AO2 SLP214 T00330000=
201012050353 METAR KPAE 050353Z 02005KT 10SM FEW120 03/01 A3014 RMK AO2 SLP212 T00330006=
201012050253 METAR KPAE 050253Z 00000KT 10SM OVC120 04/M01 A3015 RMK AO2 SLP213 T00391006 56005=
201012050153 METAR KPAE 050153Z 00000KT 10SM OVC110 04/M01 A3015 RMK AO2 SLP215 T00441011=
201012050053 METAR KPAE 050053Z 04005KT 10SM CLR 04/M02 A3015 RMK AO2 SLP215 T00441017=
201012042353 METAR KPAE 042353Z 00000KT 10SM CLR 05/M01 A3016 RMK AO2 SLP218 T00501006 10056 20028 56009=
201012042253 METAR KPAE 042253Z 35007KT 10SM CLR 06/M01 A3016 RMK AO2 SLP219 T00561006=
201012042153 METAR KPAE 042153Z 36008KT 10SM CLR 06/M01 A3017 RMK AO2 SLP221 T00561006=
201012042053 METAR KPAE 042053Z 35006KT 10SM CLR 05/M01 A3019 RMK AO2 SLP227 T00501006 58014=
201012041953 METAR KPAE 041953Z 36005KT 10SM CLR 04/M01 A3020 RMK AO2 SLP233 T00441006=
201012041853 METAR KPAE 041853Z 36004KT 10SM CLR 04/00 A3022 RMK AO2 SLP239 T00390000=
201012041753 METAR KPAE 041753Z 36005KT 10SM CLR 03/00 A3023 RMK AO2 SLP241 T00280000 10028 20006 53005=
201012041653 METAR KPAE 041653Z 36005KT 10SM CLR 01/M01 A3022 RMK AO2 SLP239 T00111011=
201012041553 METAR KPAE 041553Z 01004KT 10SM CLR 01/M01 A3021 RMK AO2 SLP235 T00111011=
201012041453 METAR KPAE 041453Z 01004KT 10SM CLR 01/M01 A3021 RMK AO2 SLP235 T00111006 56003=
201012041353 METAR KPAE 041353Z AUTO 01004KT 10SM CLR 01/M01 A3021 RMK AO2 SLP235 T00111006=
201012041253 METAR KPAE 041253Z AUTO 01004KT 10SM CLR 01/M01 A3021 RMK AO2 SLP236 T00111006=
201012041153 METAR KPAE 041153Z AUTO 01004KT 10SM FEW003 01/00 A3022 RMK AO2 SLP238 T00110000 10022 20011 56009=
201012041053 METAR KPAE 041053Z AUTO 36004KT 10SM FEW003 01/00 A3023 RMK AO2 SLP242 T00110000=
201012041024 SPECI KPAE 041024Z AUTO 03003KT 10SM SCT003 01/00 A3024 RMK AO2=
201012041024 SPECI KPAE 041024Z AUTO 03003KT 10SM SCT003 01/00 A3024 RMK AO2=
201012040953 METAR KPAE 040953Z AUTO 36004KT 10SM CLR 02/01 A3023 RMK AO2 SLP241 T00170006=
201012040853 METAR KPAE 040853Z AUTO 02003KT 10SM CLR 02/01 A3025 RMK AO2 SLP246 T00170006 58003=
201012040825 SPECI KPAE 040825Z AUTO 01004KT 10SM SCT002 02/01 A3025 RMK AO2=
201012040825 SPECI KPAE 040825Z AUTO 01004KT 10SM SCT002 02/01 A3025 RMK AO2=
201012040753 METAR KPAE 040753Z AUTO 36003KT 10SM BKN002 02/01 A3026 RMK AO2 SLP250 T00220011 400780017=
201012040653 METAR KPAE 040653Z AUTO 02004KT 10SM CLR 02/01 A3025 RMK AO2 SLP248 T00220006=
201012040553 METAR KPAE 040553Z AUTO 02004KT 10SM CLR 03/02 A3025 RMK AO2 SLP250 T00280017 10056 20028 53002=
201012040531 SPECI KPAE 040531Z AUTO 01003KT 10SM SCT004 03/02 A3026 RMK AO2=
201012040531 SPECI KPAE 040531Z AUTO 01003KT 10SM SCT004 03/02 A3026 RMK AO2=
201012040510 SPECI KPAE 040510Z AUTO 35004KT 10SM BKN004 03/02 A3026 RMK AO2=
201012040510 SPECI KPAE 040510Z AUTO 35004KT 10SM BKN004 03/02 A3026 RMK AO2=
201012040453 METAR KPAE 040453Z AUTO 01005KT 10SM FEW004 03/02 A3025 RMK AO2 SLP248 T00330022=
201012040353 METAR KPAE 040353Z 35004KT 10SM CLR 03/02 A3025 RMK AO2 SLP247 T00330022=
201012040253 METAR KPAE 040253Z 35006KT 10SM FEW005 04/03 A3025 RMK AO2 SLP247 T00440028 56002=
201012040153 METAR KPAE 040153Z 35007KT 10SM SCT007 04/03 A3025 RMK AO2 SLP247 T00440028=
201012040053 METAR KPAE 040053Z 36006KT 10SM FEW007 05/03 A3025 RMK AO2 SLP248 T00500028=
201012032353 METAR KPAE 032353Z 35006KT 10SM FEW014 06/04 A3026 RMK AO2 SLP250 T00560039 10078 20050 58005=
201012032307 SPECI KPAE 032307Z 35005KT 10SM FEW007 06/03 A3026 RMK AO2=
201012032307 SPECI KPAE 032307Z 35005KT 10SM FEW007 06/03 A3026 RMK AO2=
201012032253 METAR KPAE 032253Z 01003KT 10SM FEW016 07/03 A3026 RMK AO2 SLP251 T00670033=
201012032153 METAR KPAE 032153Z 02005KT 10SM FEW028 07/03 A3027 RMK AO2 SLP252 T00720033=
201012032053 METAR KPAE 032053Z 00000KT 10SM BKN049 07/03 A3027 RMK AO2 SLP253 T00720028 58002=
201012031953 METAR KPAE 031953Z 00000KT 10SM OVC047 07/03 A3028 RMK AO2 SLP256 T00670028=
201012031853 METAR KPAE 031853Z 10005KT 10SM FEW015 SCT020 OVC049 06/03 A3029 RMK AO2 SLP259 T00610033=
201012031804 SPECI KPAE 031804Z 12003KT 10SM SCT008 OVC015 05/03 A3028 RMK AO2=
201012031804 SPECI KPAE 031804Z 12003KT 10SM SCT008 OVC015 05/03 A3028 RMK AO2=
201012031753 METAR KPAE 031753Z 11005KT 10SM BKN008 OVC015 05/03 A3028 RMK AO2 CIG 006V011 SLP257 60000 T00500028 10050 20033 53018=
201012031706 SPECI KPAE 031706Z 10004KT 7SM BKN008 BKN015 OVC050 05/03 A3026 RMK AO2=
201012031706 SPECI KPAE 031706Z 10004KT 7SM BKN008 BKN015 OVC050 05/03 A3026 RMK AO2=
201012031653 METAR KPAE 031653Z 12004KT 7SM BKN011 BKN015 OVC050 05/03 A3026 RMK AO2 SLP250 T00500033=
201012031609 SPECI KPAE 031609Z 18004KT 8SM BKN009 OVC050 04/03 A3024 RMK AO2=
201012031609 SPECI KPAE 031609Z 18004KT 8SM BKN009 OVC050 04/03 A3024 RMK AO2=
201012031553 METAR KPAE 031553Z 19005KT 10SM OVC011 05/03 A3023 RMK AO2 SLP242 T00500028=
201012031524 SPECI KPAE 031524Z 17004KT 10SM OVC009 05/03 A3023 RMK AO2=
201012031524 SPECI KPAE 031524Z 17004KT 10SM OVC009 05/03 A3023 RMK AO2=
201012031453 METAR KPAE 031453Z AUTO 00000KT 10SM OVC011 05/03 A3022 RMK AO2 RAB1358E08 SLP239 P0000 60000 T00500028 53015=
201012031435 SPECI KPAE 031435Z AUTO 00000KT 10SM BKN011 OVC048 04/03 A3022 RMK AO2 RAB1358E08 P0000=
201012031435 SPECI KPAE 031435Z AUTO 00000KT 10SM BKN011 OVC048 04/03 A3022 RMK AO2 RAB1358E08 P0000=
201012031353 METAR KPAE 031353Z AUTO 00000KT 10SM OVC046 04/03 A3021 RMK AO2 SLP233 T00440028=
201012031253 METAR KPAE 031253Z AUTO 18005KT 10SM OVC044 04/03 A3019 RMK AO2 SLP227 T00390028=
201012031232 SPECI KPAE 031232Z AUTO 20005KT 10SM SCT017 OVC044 03/02 A3019 RMK AO2=
201012031232 SPECI KPAE 031232Z AUTO 20005KT 10SM SCT017 OVC044 03/02 A3019 RMK AO2=
201012031153 METAR KPAE 031153Z AUTO 21006KT 10SM OVC017 04/02 A3018 RMK AO2 SLP223 T00440022 10056 20039 51019=
201012031116 SPECI KPAE 031116Z AUTO 19007KT 10SM BKN017 04/02 A3016 RMK AO2=
201012031116 SPECI KPAE 031116Z AUTO 19007KT 10SM BKN017 04/02 A3016 RMK AO2=
201012031053 METAR KPAE 031053Z AUTO 18009KT 10SM SCT037 05/02 A3016 RMK AO2 SLP215 T00500022=
201012031044 SPECI KPAE 031044Z AUTO 18009KT 10SM FEW016 SCT027 OVC037 05/03 A3016 RMK AO2=
201012031044 SPECI KPAE 031044Z AUTO 18009KT 10SM FEW016 SCT027 OVC037 05/03 A3016 RMK AO2=
201012030953 METAR KPAE 030953Z AUTO 21008KT 10SM FEW010 BKN025 OVC036 06/03 A3015 RMK AO2 SLP211 T00560028=
201012030932 SPECI KPAE 030932Z AUTO 20005KT 10SM SCT010 BKN015 OVC026 06/03 A3014 RMK AO2=
201012030932 SPECI KPAE 030932Z AUTO 20005KT 10SM SCT010 BKN015 OVC026 06/03 A3014 RMK AO2=
201012030904 SPECI KPAE 030904Z AUTO 19009KT 10SM BKN014 BKN030 OVC042 06/03 A3013 RMK AO2=
201012030904 SPECI KPAE 030904Z AUTO 19009KT 10SM BKN014 BKN030 OVC042 06/03 A3013 RMK AO2=
201012030853 METAR KPAE 030853Z AUTO 19010KT 10SM FEW011 BKN016 OVC038 06/03 A3012 RMK AO2 SLP203 T00560033 51013=
201012030825 SPECI KPAE 030825Z AUTO 20008KT 10SM FEW011 SCT014 OVC026 06/04 A3012 RMK AO2=
201012030825 SPECI KPAE 030825Z AUTO 20008KT 10SM FEW011 SCT014 OVC026 06/04 A3012 RMK AO2=
201012030753 METAR KPAE 030753Z AUTO 19008KT 10SM BKN011 OVC018 06/04 A3011 RMK AO2 SLP201 T00560039 400670028=
201012030742 SPECI KPAE 030742Z AUTO 18008KT 10SM BKN009 OVC015 06/04 A3011 RMK AO2 CIG 008V013=
201012030742 SPECI KPAE 030742Z AUTO 18008KT 10SM BKN009 OVC015 06/04 A3011 RMK AO2 CIG 008V013=
201012030653 METAR KPAE 030653Z AUTO 16006KT 10SM BKN013 OVC020 06/04 A3010 RMK AO2 SLP195 T00560039=
201012030607 SPECI KPAE 030607Z AUTO 17006KT 10SM FEW011 BKN018 OVC030 05/03 A3009 RMK AO2=
201012030607 SPECI KPAE 030607Z AUTO 17006KT 10SM FEW011 BKN018 OVC030 05/03 A3009 RMK AO2=
201012030553 METAR KPAE 030553Z AUTO 15005KT 10SM SCT012 BKN031 OVC110 05/03 A3008 RMK AO2 SLP191 60000 T00500033 10061 20050 53011=
201012030453 METAR KPAE 030453Z AUTO 16007KT 10SM SCT016 BKN025 OVC035 05/03 A3007 RMK AO2 RAE03 SLP186 P0000 T00500033=
201012030353 METAR KPAE 030353Z 15007KT 10SM -RA SCT016 BKN025 OVC035 06/03 A3006 RMK AO2 RAB32 SLP182 P0000 T00560028=
201012030253 METAR KPAE 030253Z 16004KT 10SM FEW023 BKN034 OVC043 06/03 A3005 RMK AO2 RAB28E37 SLP179 P0000 60000 T00610028 53005=
201012030241 SPECI KPAE 030241Z 17005KT 10SM SCT023 BKN030 OVC040 06/03 A3005 RMK AO2 RAB28E37 P0000=
201012030241 SPECI KPAE 030241Z 17005KT 10SM SCT023 BKN030 OVC040 06/03 A3005 RMK AO2 RAB28E37 P0000=
201012030215 SPECI KPAE 030215Z 16005KT 10SM BKN021 BKN029 OVC035 06/03 A3004 RMK AO2=
201012030215 SPECI KPAE 030215Z 16005KT 10SM BKN021 BKN029 OVC035 06/03 A3004 RMK AO2=
201012030153 METAR KPAE 030153Z 16006KT 10SM BKN031 OVC039 06/02 A3004 RMK AO2 SLP176 T00610022=
201012030053 METAR KPAE 030053Z 17007KT 10SM BKN024 06/02 A3003 RMK AO2 SLP174 T00610022=
201012030033 SPECI KPAE 030033Z 17006KT 10SM BKN024 BKN090 06/02 A3003 RMK AO2=
201012030033 SPECI KPAE 030033Z 17006KT 10SM BKN024 BKN090 06/02 A3003 RMK AO2=
201012022353 METAR KPAE 022353Z 17007KT 10SM SCT021 BKN036 07/03 A3003 RMK AO2 SLP174 T00670028 10067 20039 55003=
201012022253 METAR KPAE 022253Z 17004KT 10SM SCT011 BKN023 07/02 A3003 RMK AO2 SLP173 T00670022=
201012022226 SPECI KPAE 022226Z 16008KT 10SM FEW021 SCT026 07/02 A3003 RMK AO2=
201012022226 SPECI KPAE 022226Z 16008KT 10SM FEW021 SCT026 07/02 A3003 RMK AO2=
201012022153 METAR KPAE 022153Z 15007KT 10SM FEW015 BKN020 OVC026 07/02 A3003 RMK AO2 SLP172 T00670022=
201012022132 SPECI KPAE 022132Z 16007KT 10SM BKN016 OVC020 06/03 A3003 RMK AO2=
201012022132 SPECI KPAE 022132Z 16007KT 10SM BKN016 OVC020 06/03 A3003 RMK AO2=
201012022053 METAR KPAE 022053Z 19007KT 10SM BKN010 07/03 A3004 RMK AO2 SLP177 T00670033 58011=
201012021958 SPECI KPAE 021958Z 16007KT 7SM SCT003 04/03 A3006 RMK AO2=
201012021958 SPECI KPAE 021958Z 16007KT 7SM SCT003 04/03 A3006 RMK AO2=
201012021953 METAR KPAE 021953Z 17005KT 7SM BKN003 04/03 A3006 RMK AO2 SLP183 T00440033=
201012021853 METAR KPAE 021853Z 17005KT 1SM R16R/P6000FT BR BKN001 04/03 A3007 RMK AO2 SLP187 T00440033=
201012021851 SPECI KPAE 021851Z 16007KT 1SM R16R/P6000FT BR BKN001 04/03 A3007 RMK AO2=
201012021851 SPECI KPAE 021851Z 16007KT 1SM R16R/P6000FT BR BKN001 04/03 A3007 RMK AO2=
201012021817 SPECI KPAE 021817Z 15005KT 4SM BR OVC001 04/03 A3007 RMK AO2=
201012021817 SPECI KPAE 021817Z 15005KT 4SM BR OVC001 04/03 A3007 RMK AO2=
201012021809 SPECI KPAE 021809Z 17006KT 2SM R16R/2600VP6000FT BR OVC001 04/03 A3007 RMK AO2=
201012021809 SPECI KPAE 021809Z 17006KT 2SM R16R/2600VP6000FT BR OVC001 04/03 A3007 RMK AO2=
201012021753 METAR KPAE 021753Z 16007KT 1/2SM R16R/2000V2800FT FG OVC001 04/03 A3008 RMK AO2 SLP188 T00390028 10039 20028 53005=
201012021733 SPECI KPAE 021733Z 15005KT 1/2SM R16R/P6000FT FG OVC001 04/03 A3007 RMK AO2=
201012021733 SPECI KPAE 021733Z 15005KT 1/2SM R16R/P6000FT FG OVC001 04/03 A3007 RMK AO2=
201012021713 SPECI KPAE 021713Z 18006KT 1 1/4SM R16R/2600V5500FT BR OVC001 04/03 A3007 RMK AO2=
201012021713 SPECI KPAE 021713Z 18006KT 1 1/4SM R16R/2600V5500FT BR OVC001 04/03 A3007 RMK AO2=
201012021653 SPECI KPAE 021653Z 16007KT 1/2SM R16R/2600V4500FT FG OVC001 03/03 A3007 RMK AO2 SLP185 T00330028=
201012021634 SPECI KPAE 021634Z 17006KT 1 3/4SM BR OVC001 03/03 A3006 RMK AO2=
201012021634 SPECI KPAE 021634Z 17006KT 1 3/4SM BR OVC001 03/03 A3006 RMK AO2=
201012021623 SPECI KPAE 021623Z 18005KT 1/2SM R16R/3500VP6000FT FG OVC001 03/03 A3006 RMK AO2=
201012021623 SPECI KPAE 021623Z 18005KT 1/2SM R16R/3500VP6000FT FG OVC001 03/03 A3006 RMK AO2=
201012021604 SPECI KPAE 021604Z 17004KT 1/4SM R16R/1400V4000FT FG VV001 03/03 A3006 RMK AO2=
201012021604 SPECI KPAE 021604Z 17004KT 1/4SM R16R/1400V4000FT FG VV001 03/03 A3006 RMK AO2=
201012021553 METAR KPAE 021553Z 17006KT 1/4SM R16R/1400V1600FT FG VV001 03/02 A3007 RMK AO2 SLP185 T00280022=
201012021541 SPECI KPAE 021541Z 16006KT 1/4SM R16R/1400V1600FT FG VV001 03/02 A3006 RMK AO2=
201012021541 SPECI KPAE 021541Z 16006KT 1/4SM R16R/1400V1600FT FG VV001 03/02 A3006 RMK AO2=
201012021519 SPECI KPAE 021519Z 17004KT 1/2SM R16R/1800V2000FT FG VV001 03/03 A3006 RMK AO2=
201012021519 SPECI KPAE 021519Z 17004KT 1/2SM R16R/1800V2000FT FG VV001 03/03 A3006 RMK AO2=
201012021453 METAR KPAE 021453Z 18003KT 1SM R16R/4000V5500FT BR OVC001 04/03 A3006 RMK AO2 SLP183 T00390033 58006=
201012021430 SPECI KPAE 021430Z AUTO 17004KT 3/4SM R16R/2800V3500FT BR OVC001 04/03 A3006 RMK AO2=
201012021430 SPECI KPAE 021430Z AUTO 17004KT 3/4SM R16R/2800V3500FT BR OVC001 04/03 A3006 RMK AO2=
201012021422 SPECI KPAE 021422Z AUTO 16007KT 1SM R16R/3500V4500FT BR OVC001 04/03 A3006 RMK AO2=
201012021422 SPECI KPAE 021422Z AUTO 16007KT 1SM R16R/3500V4500FT BR OVC001 04/03 A3006 RMK AO2=
201012021353 METAR KPAE 021353Z AUTO 17006KT 1/2SM R16R/2000V2800FT FG VV001 04/03 A3007 RMK AO2 SLP185 T00390028=
201012021336 SPECI KPAE 021336Z AUTO 15005KT 1/2SM R16R/2000V3500FT FG OVC001 04/03 A3007 RMK AO2=
201012021336 SPECI KPAE 021336Z AUTO 15005KT 1/2SM R16R/2000V3500FT FG OVC001 04/03 A3007 RMK AO2=
201012021323 SPECI KPAE 021323Z AUTO 17005KT 1 3/4SM R16R/4000VP6000FT BR OVC001 04/03 A3007 RMK AO2=
201012021323 SPECI KPAE 021323Z AUTO 17005KT 1 3/4SM R16R/4000VP6000FT BR OVC001 04/03 A3007 RMK AO2=
201012021253 METAR KPAE 021253Z AUTO 17005KT 4SM BR OVC001 04/03 A3007 RMK AO2 SLP188 T00390033=
201012021246 SPECI KPAE 021246Z AUTO 18005KT 2 1/2SM R16R/6000VP6000FT BR OVC001 04/03 A3008 RMK AO2=
201012021246 SPECI KPAE 021246Z AUTO 18005KT 2 1/2SM R16R/6000VP6000FT BR OVC001 04/03 A3008 RMK AO2=
201012021231 SPECI KPAE 021231Z AUTO 16004KT 1 1/4SM BR OVC001 04/03 A3008 RMK AO2=
201012021231 SPECI KPAE 021231Z AUTO 16004KT 1 1/4SM BR OVC001 04/03 A3008 RMK AO2=
201012021153 METAR KPAE 021153Z AUTO 16006KT 1/2SM R16R/2400V3500FT FG VV001 04/03 A3008 RMK AO2 SLP189 T00390033 10056 20039 50000=
201012021123 SPECI KPAE 021123Z AUTO 16006KT 1/2SM R16R/2200V2600FT FG VV001 04/03 A3009 RMK AO2=
201012021123 SPECI KPAE 021123Z AUTO 16006KT 1/2SM R16R/2200V2600FT FG VV001 04/03 A3009 RMK AO2=
201012021112 SPECI KPAE 021112Z AUTO 16006KT 1/2SM R16R/2200V4000FT FG OVC002 04/03 A3009 RMK AO2=
201012021112 SPECI KPAE 021112Z AUTO 16006KT 1/2SM R16R/2200V4000FT FG OVC002 04/03 A3009 RMK AO2=
201012021102 SPECI KPAE 021102Z AUTO 16006KT 1 1/4SM R16R/3500VP6000FT BR OVC002 04/03 A3009 RMK AO2=
201012021102 SPECI KPAE 021102Z AUTO 16006KT 1 1/4SM R16R/3500VP6000FT BR OVC002 04/03 A3009 RMK AO2=
201012021053 METAR KPAE 021053Z AUTO 15006KT 2SM R16R/5500VP6000FT BR OVC002 04/03 A3009 RMK AO2 SLP191 T00440033=
201012021042 SPECI KPAE 021042Z AUTO 15006KT 2SM R16R/3500VP6000FT BR OVC002 04/03 A3009 RMK AO2=
201012021042 SPECI KPAE 021042Z AUTO 15006KT 2SM R16R/3500VP6000FT BR OVC002 04/03 A3009 RMK AO2=
201012021027 SPECI KPAE 021027Z AUTO 15004KT 1SM R16R/3500VP6000FT BR OVC002 04/03 A3009 RMK AO2=
201012021027 SPECI KPAE 021027Z AUTO 15004KT 1SM R16R/3500VP6000FT BR OVC002 04/03 A3009 RMK AO2=
201012021014 SPECI KPAE 021014Z AUTO 16005KT 2 1/2SM R16R/5500VP6000FT BR OVC002 04/03 A3009 RMK AO2 VIS 2V4=
201012021014 SPECI KPAE 021014Z AUTO 16005KT 2 1/2SM R16R/5500VP6000FT BR OVC002 04/03 A3009 RMK AO2 VIS 2V4=
201012020953 METAR KPAE 020953Z AUTO 16005KT 8SM BKN002 OVC070 04/03 A3009 RMK AO2 SLP193 T00390028=
201012020922 SPECI KPAE 020922Z AUTO 00000KT 8SM BKN002 OVC070 04/03 A3008 RMK AO2=
201012020922 SPECI KPAE 020922Z AUTO 00000KT 8SM BKN002 OVC070 04/03 A3008 RMK AO2=
201012020913 SPECI KPAE 020913Z AUTO 15003KT 10SM SCT004 OVC070 04/03 A3008 RMK AO2=
201012020913 SPECI KPAE 020913Z AUTO 15003KT 10SM SCT004 OVC070 04/03 A3008 RMK AO2=
201012020853 METAR KPAE 020853Z AUTO 00000KT 10SM BKN070 04/03 A3008 RMK AO2 SLP189 T00390028 50000=
201012020753 METAR KPAE 020753Z AUTO VRB03KT 10SM CLR 04/03 A3008 RMK AO2 SLP189 T00440028 400830039=
201012020653 METAR KPAE 020653Z AUTO VRB03KT 10SM BKN070 05/03 A3008 RMK AO2 SLP188 T00500033=
201012020553 METAR KPAE 020553Z AUTO 15004KT 10SM OVC070 05/03 A3008 RMK AO2 SLP189 T00500033 10067 20050 53003 $=
201012020453 METAR KPAE 020453Z VRB05KT 10SM OVC070 06/03 A3008 RMK AO2 SLP189 T00560033=
201012020353 METAR KPAE 020353Z 00000KT 10SM OVC065 06/03 A3007 RMK AO2 SLP185 T00610028=
201012020253 METAR KPAE 020253Z 18004KT 10SM OVC070 06/03 A3007 RMK AO2 SLP186 T00560028 58001=
201012020153 METAR KPAE 020153Z 18004KT 10SM OVC070 06/03 A3007 RMK AO2 SLP187 T00610028=
201012020053 METAR KPAE 020053Z 00000KT 10SM OVC065 06/03 A3008 RMK AO2 SLP188 T00610028=
201012012353 METAR KPAE 012353Z 00000KT 10SM SCT011 BKN050 06/03 A3007 RMK AO2 SLP186 T00610033 10083 20056 55005=
201012012302 SPECI KPAE 012302Z 27003KT 10SM SCT011 BKN050 07/03 A3007 RMK AO2=
201012012302 SPECI KPAE 012302Z 27003KT 10SM SCT011 BKN050 07/03 A3007 RMK AO2=
201012012253 METAR KPAE 012253Z COR 28003KT 10SM SCT011 BKN050 07/03 A3007 RMK AO2 SLP184 T00720033=
201012012153 METAR KPAE 012153Z 00000KT 10SM SCT016 BKN026 BKN050 07/04 A3008 RMK AO2 SLP187 T00720039=
201012012145 SPECI KPAE 012145Z 32003KT 10SM SCT018 SCT026 BKN050 07/04 A3007 RMK AO2=
201012012145 SPECI KPAE 012145Z 32003KT 10SM SCT018 SCT026 BKN050 07/04 A3007 RMK AO2=
201012012050 METAR KPAE 012050Z COR 00000KT 10SM SCT011 BKN018 07/03 A3009 RMK AO2 SLP191 T00720033 56008=
201012012049 SPECI KPAE 012049Z 00000KT 10SM SCT011 SCT018 07/03 A3009 RMK AO2=
201012012049 SPECI KPAE 012049Z 00000KT 10SM SCT011 SCT018 07/03 A3009 RMK AO2=
201012012034 SPECI KPAE 012034Z 00000KT 10SM BKN011 BKN018 BKN022 07/03 A3009 RMK AO2=
201012012034 SPECI KPAE 012034Z 00000KT 10SM BKN011 BKN018 BKN022 07/03 A3009 RMK AO2=
201012012022 SPECI KPAE 012022Z 00000KT 10SM SCT011 BKN020 07/03 A3009 RMK AO2=
201012012022 SPECI KPAE 012022Z 00000KT 10SM SCT011 BKN020 07/03 A3009 RMK AO2=
201012011953 METAR KPAE 011953Z 00000KT 10SM SCT010 SCT019 07/03 A3009 RMK AO2 SLP193 T00670033=
201012011918 SPECI KPAE 011918Z 35003KT 10SM SCT013 SCT019 06/03 A3010 RMK AO2=
201012011918 SPECI KPAE 011918Z 35003KT 10SM SCT013 SCT019 06/03 A3010 RMK AO2=
201012011910 SPECI KPAE 011910Z 35003KT 10SM BKN013 07/03 A3010 RMK AO2=
201012011910 SPECI KPAE 011910Z 35003KT 10SM BKN013 07/03 A3010 RMK AO2=
201012011853 METAR KPAE 011853Z 00000KT 10SM FEW065 07/04 A3010 RMK AO2 SLP196 T00720039=
201012011753 METAR KPAE 011753Z 17003KT 10SM CLR 06/03 A3011 RMK AO2 SLP199 T00610033 10061 20039 52008=
201012011653 METAR KPAE 011653Z 16003KT 10SM CLR 04/02 A3010 RMK AO2 SLP198 T00390022=
201012011553 METAR KPAE 011553Z 00000KT 10SM BKN055 04/02 A3009 RMK AO2 SLP193 T00440017=
201012011453 METAR KPAE 011453Z 13003KT 10SM FEW047 04/02 A3009 RMK AO2 SLP191 T00390017 55001=
201012011353 METAR KPAE 011353Z AUTO 11003KT 10SM FEW044 04/02 A3008 RMK AO2 SLP190 T00440022=
201012011253 METAR KPAE 011253Z AUTO 09004KT 10SM SCT029 OVC038 06/02 A3009 RMK AO2 SLP193 T00560017=
201012011231 SPECI KPAE 011231Z AUTO 00000KT 10SM BKN029 05/03 A3009 RMK AO2=
201012011231 SPECI KPAE 011231Z AUTO 00000KT 10SM BKN029 05/03 A3009 RMK AO2=
201012011153 METAR KPAE 011153Z AUTO 06003KT 10SM BKN041 06/03 A3009 RMK AO2 SLP193 60002 70032 T00560028 10067 20056 51009=
201012011053 METAR KPAE 011053Z AUTO 06003KT 10SM FEW028 BKN037 OVC045 06/03 A3009 RMK AO2 SLP192 T00610028=
201012011017 SPECI KPAE 011017Z AUTO VRB03KT 10SM SCT028 OVC043 06/03 A3009 RMK AO2=
201012011017 SPECI KPAE 011017Z AUTO VRB03KT 10SM SCT028 OVC043 06/03 A3009 RMK AO2=
201012010953 METAR KPAE 010953Z AUTO 09005KT 10SM OVC025 06/03 A3008 RMK AO2 SLP189 T00610033=
201012010853 METAR KPAE 010853Z AUTO 05004KT 10SM BKN027 OVC038 06/03 A3006 RMK AO2 RAB15E30 SLP184 P0000 60002 T00610033 51014=
201012010753 METAR KPAE 010753Z AUTO 02003KT 10SM BKN025 OVC032 06/04 A3006 RMK AO2 RAE41 SLP181 P0002 T00560039 400830039=
201012010653 METAR KPAE 010653Z AUTO 31004KT 10SM -RA OVC018 06/04 A3004 RMK AO2 RAB06E18B52 SLP177 P0000 T00610039=
201012010624 SPECI KPAE 010624Z AUTO 34003KT 10SM FEW008 OVC016 06/04 A3002 RMK AO2 RAB06E18 P0000=
201012010624 SPECI KPAE 010624Z AUTO 34003KT 10SM FEW008 OVC016 06/04 A3002 RMK AO2 RAB06E18 P0000=
201012010615 SPECI KPAE 010615Z AUTO 29005KT 9SM -RA SCT008 OVC014 07/05 A3003 RMK AO2 RAB06 P0000=
201012010615 SPECI KPAE 010615Z AUTO 29005KT 9SM -RA SCT008 OVC014 07/05 A3003 RMK AO2 RAB06 P0000=
201012010601 SPECI KPAE 010601Z AUTO 32004KT 10SM BKN006 OVC012 07/05 A3003 RMK AO2 CIG 003V009=
201012010601 SPECI KPAE 010601Z AUTO 32004KT 10SM BKN006 OVC012 07/05 A3003 RMK AO2 CIG 003V009=
201012010553 METAR KPAE 010553Z AUTO 32005KT 9SM BKN004 BKN008 OVC012 07/06 A3002 RMK AO2 RAE39 CIG 001V006 SLP170 P0003 60010 T00670056 10083 20067 53021=
201012010519 SPECI KPAE 010519Z AUTO 26005KT 4SM R16R/3500VP6000FT -RA BR OVC002 07/06 A3001 RMK AO2 P0003=
201012010519 SPECI KPAE 010519Z AUTO 26005KT 4SM R16R/3500VP6000FT -RA BR OVC002 07/06 A3001 RMK AO2 P0003=
201012010510 SPECI KPAE 010510Z AUTO 26007KT 2 1/2SM R16R/2600VP6000FT -RA BR OVC002 07/07 A3000 RMK AO2 P0002=
201012010510 SPECI KPAE 010510Z AUTO 26007KT 2 1/2SM R16R/2600VP6000FT -RA BR OVC002 07/07 A3000 RMK AO2 P0002=
201012010453 METAR KPAE 010453Z AUTO 23008KT 5SM -RA BR OVC002 07/07 A3000 RMK AO2 SLP161 P0002 T00720067=
201012010353 METAR KPAE 010353Z 21011KT 6SM -RA BR OVC004 08/07 A2997 RMK AO2 SLP151 P0004 T00780067=
201012010253 METAR KPAE 010253Z 21010KT 9SM -RA OVC003 08/07 A2996 RMK AO2 RAB0156 SLP148 P0001 60001 T00780067 51010=
201012010153 METAR KPAE 010153Z 18007KT 7SM OVC003 08/07 A2995 RMK AO2 SLP144 T00780067=
201012010053 METAR KPAE 010053Z 19005KT 7SM OVC003 08/06 A2994 RMK AO2 SLP143 T00780061=

# No short TAF reports from KPAE in databse.

###################################
#  large TAF from KPAE
###################################
201012312328 TAF KPAE 312328Z 0100/0124 11006KT P6SM SKC FM010400 06004KT P6SM
                       SKC=
201012311741 TAF KPAE 311741Z 3118/0118 11006KT P6SM SCT200 FM312000 34004KT
                       P6SM SKC=
201012311120 TAF KPAE 311120Z 3112/0112 10006KT P6SM SKC FM312000 34004KT P6SM
                       SKC=
201012310520 TAF KPAE 310520Z 3106/0106 08004KT P6SM SKC FM312000 34004KT P6SM
                       SKC=
201012302320 TAF KPAE 302320Z 3100/3124 VRB04KT P6SM SKC FM310500 08004KT P6SM
                       SKC FM311700 11004KT P6SM SKC=
201012301723 TAF KPAE 301723Z 3018/3118 00000KT P6SM SKC FM302000 35006KT P6SM
                       SKC FM310500 08004KT P6SM SKC=
201012301120 TAF KPAE 301120Z 3012/3112 34005KT P6SM SKC FM310500 08004KT P6SM
                       SKC=
201012300539 TAF KPAE 300539Z 3006/3106 34005KT P6SM SCT030
                      TEMPO 3006/3008 BKN030 FM301400 35005KT P6SM
                       SKC=
201012292320 TAF KPAE 292320Z 3000/3024 34007KT P6SM SCT008 BKN040 BKN090 FM300300
                       01005KT P6SM SCT015 SCT070 FM302000 34006KT
                       P6SM SCT025=
201012291738 TAF KPAE 291738Z 2918/3018 22005KT P6SM VCSH OVC050 FM291900 VRB04KT
                       3SM -SN BKN010 OVC035
                      TEMPO 2919/2922 3/4SM -SN BR VV005 FM292200
                       32007KT P6SM BKN030 OVC050 FM300000 31012KT
                       P6SM SCT025 FM300800 35004KT P6SM SCT015=
201012291517 KPAE 291517Z 2915/3012 24005KT 4SM -SN BR SCT008 BKN050 OVC070
                       TEMPO 2915/2918 1/2SM SN FG BKN002 OVC012
                       FM291800 34010KT P6SM VCSH SCT012 BKN025
                       OVC035 FM292100 31015G22KT P6SM SCT025 FM300000
                       31011G17KT P6SM SKC FM300800 35004KT P6SM
                       SCT015=
201012291402 KPAE 291402Z 2914/3012 34006KT 3SM BR SCT002 BKN012 OVC020
                      TEMPO 2914/2916 1SM -SN BR BKN002 OVC012
                       FM291600 34010KT P6SM VCSH SCT012 BKN025
                       OVC035 FM292100 31015G22KT P6SM SCT025 FM300000
                       31011G17KT P6SM SKC FM300800 35004KT P6SM
                       SCT015=
201012291138 TAF KPAE 291138Z 2912/3012 29006KT P6SM SCT025 BKN050
                      TEMPO 2912/2916 4SM -SHRASN BR SCT012 OVC025
                       FM291600 28009KT P6SM VCSH SCT012 BKN025
                       OVC035 FM292100 31015G22KT P6SM SCT025 FM300000
                       31011G17KT P6SM SKC FM300800 35004KT P6SM
                       SCT015=
201012290541 TAF KPAE 290541Z 2906/3006 36009KT P6SM SCT015 BKN045 FM290900
                       32008KT P6SM SCT006 OVC012
                      TEMPO 2909/2913 6SM -SHRASN FM291300 30009KT
                       4SM -SHSN SCT004 OVC008 FM291800 33010G16KT
                       P6SM VCSH SCT012 BKN020 OVC035 FM292200
                       33010KT P6SM SCT020=
201012290313 KPAE 290313Z 2903/2924 36009KT P6SM SCT025 OVC040 FM290800 22005KT
                       6SM -RASN BR SCT006 OVC010 FM291200 VRB04KT
                       3SM -SHSN SCT004 OVC008 FM291800 33009KT
                       P6SM VCSH SCT015 BKN035=
201012282339 TAF KPAE 282339Z 2900/2924 35003KT P6SM SCT025 OVC045 FM290300
                       VRB03KT P6SM SCT005 BKN012 OVC020 FM290900
                       22005KT 6SM -RASN BR SCT004 OVC008 FM291200
                       VRB04KT 3SM -SHSN SCT004 OVC008 FM291800
                       33009KT P6SM VCSH SCT015 BKN035=
201012282153 KPAE 282153Z 2822/2918 36006KT P6SM FEW005 OVC029 FM290400 VRB03KT
                       P6SM SCT005 BKN015 OVC025 FM290900 22005KT
                       6SM -RASN BR SCT004 OVC008 FM291200 VRB04KT
                       3SM -SHSN SCT004 OVC008=
201012282019 KPAE 282019Z 2820/2918 01005KT P6SM VCSH SCT005 BKN015 OVC025 FM282200
                       01005KT P6SM SCT015 OVC030 FM290400 VRB03KT
                       P6SM SCT005 BKN010 FM290900 22005KT 6SM
                       -RASN BR SCT004 OVC008 FM291200 VRB04KT
                       3SM -SHSN SCT004 OVC008=
201012281901 KPAE 281901Z 2819/2918 02007KT 6SM -RA BR BKN005 BKN010 OVC023
                       FM282000 36005KT P6SM SCT030 OVC045 FM290400
                       VRB03KT P6SM SCT005 BKN010 FM290900 22005KT
                       6SM -RASN BR SCT004 OVC008 FM291200 VRB04KT
                       3SM -SHSN SCT004 OVC008=
201012281736 TAF KPAE 281736Z 2818/2918 36005KT 2SM -RA BR BKN005 OVC013 FM282100
                       36005KT P6SM SCT030 OVC045 FM290400 VRB03KT
                       P6SM SCT005 BKN010 FM290900 22005KT 6SM
                       -RASN BR SCT004 OVC008 FM291200 VRB04KT
                       3SM -SHSN SCT004 OVC008=
201012281608 KPAE 281608Z 2816/2912 11004KT P6SM SCT012 OVC025
                      TEMPO 2816/2820 2SM BR SCT006 OVC010 FM282000
                       33005KT P6SM SCT030 OVC045 FM290400 VRB03KT
                       P6SM SCT005 BKN010 FM290900 22005KT 6SM
                       -RASN BR SCT004 OVC008=
201012281142 TAF KPAE 281142Z 2812/2912 19013G20KT P6SM SCT008 BKN015
                      TEMPO 2812/2814 -RA BKN008 OVC015 FM281500
                       16009KT P6SM -RA SCT010 OVC018 FM282000
                       33005KT P6SM SCT030 OVC045 FM290400 VRB03KT
                       P6SM SCT005 BKN010 FM290900 22005KT 6SM
                       -RASN BR SCT004 OVC008=
201012280707 KPAE 280707Z 2807/2906 15010KT 4SM -DZ BR SCT005 BKN009 FM281500
                       16009KT P6SM -RA SCT010 OVC018 FM282000
                       33005KT P6SM BKN030 OVC045 FM290300 VRB03KT
                       P6SM SCT005 BKN010=
201012280544 TAF KPAE 280544Z 2806/2906 15005KT 4SM -DZ BR SCT005 BKN020 FM281000
                       17011KT 6SM BR SCT005 BKN009 FM281500 16009KT
                       P6SM -RA SCT010 OVC018 FM282000 33005KT
                       P6SM BKN030 OVC045 FM290300 VRB03KT P6SM
                       SCT005 BKN010=
201012280203 KPAE 280203Z 2802/2824 14007G17KT P6SM -RA FEW010 BKN040 OVC060
                       TEMPO 2802/2806 4SM -RA BR BKN010 OVC030
                       FM281500 16009KT P6SM -RA SCT010 OVC018
                       FM282100 28004KT P6SM BKN025 OVC045=
201012272334 TAF KPAE 272334Z 2800/2824 16010KT P6SM -RA OVC017 FM280500 14012G18KT
                       4SM RA BR SCT008 OVC013 FM281500 16009KT
                       P6SM -RA SCT010 OVC018 FM282100 28004KT
                       P6SM BKN025 OVC045=
201012271745 TAF KPAE 271745Z 2718/2818 17014G21KT P6SM BKN024 FM272300 16014KT
                       P6SM -RA OVC020 FM280300 14012G18KT 4SM
                       -RA BR SCT008 OVC013 FM281000 16009KT P6SM
                       -RA SCT010 OVC018=
201012271144 TAF KPAE 271144Z 2712/2812 16010KT P6SM VCSH SCT015 SCT025 OVC100
                       TEMPO 2712/2716 -SHRA BKN015 OVC025 FM271800
                       16012KT P6SM VCSH SCT025 BKN040 OVC070 FM272300
                       16014KT P6SM -RA OVC020 FM280300 14012G18KT
                       4SM -RA BR SCT008 OVC013 FM281000 16009KT
                       P6SM -RA SCT010 OVC018=
201012270540 TAF KPAE 270540Z 2706/2806 18012G20KT P6SM VCSH SCT015 BKN045
                      TEMPO 2706/2710 -SHRA BKN015 OVC030 FM271200
                       16010KT P6SM SCT015 OVC025 FM271800 16012KT
                       P6SM VCSH SCT025 BKN040 OVC070 FM272200
                       16014KT P6SM -RA OVC020 FM280300 14012G18KT
                       4SM -RA BR SCT008 OVC013=
201012262330 TAF KPAE 262330Z 2700/2724 18018G28KT P6SM SCT020 BKN030CB
                      TEMPO 2700/2702 -SHRA BKN018 OVC030CB FM270200
                       18012G20KT P6SM VCSH SCT015 BKN030 FM271200
                       16010KT P6SM SCT015 OVC025 FM271800 16012KT
                       P6SM VCSH SCT025 BKN040 OVC070 FM272200
                       16014KT 6SM -RA OVC020=
201012262212 KPAE 262212Z 2622/2718 18022G32KT P6SM SCT020 BKN030CB
                      TEMPO 2622/2702 -SHRA BKN018 OVC030CB FM270300
                       18014G24KT P6SM VCSH SCT015 BKN030 FM271500
                       16012KT P6SM VCSH SCT020 BKN040=
201012261735 TAF KPAE 261735Z 2618/2718 16010KT P6SM VCSH SCT025 BKN045 FM261900
                       16015G25KT P6SM -SHRA SCT020 BKN030CB FM262300
                       18015G25KT P6SM -SHRA SCT018 BKN030 FM270300
                       18014G24KT P6SM VCSH SCT015 BKN030 FM271500
                       16012KT P6SM VCSH SCT020 BKN040=
201012261603 KPAE 261603Z 2616/2712 14010KT P6SM VCSH SCT035 BKN050 FM261700
                       16015G23KT P6SM -SHRA SCT025 BKN035CB FM262200
                       17016G25KT P6SM VCSH SCT018 BKN030=
201012261136 TAF KPAE 261136Z 2612/2712 15009KT P6SM VCSH BKN050 FM261400 14011G16KT
                       P6SM VCSH SCT030 BKN040 FM261700 16015G23KT
                       P6SM -SHRA SCT025 BKN035CB FM262200 17016G25KT
                       P6SM VCSH SCT018 BKN030=
201012260545 TAF KPAE 260545Z 2606/2706 20012KT P6SM -RA SCT020 BKN030 OVC045
                       FM260900 15009KT P6SM VCSH SCT030 OVC090
                       FM261400 14011G16KT P6SM VCSH SCT020 BKN040
                       FM261800 16015G23KT P6SM -SHRA SCT020 BKN035CB
                       FM262200 18014KT P6SM VCSH SCT018 BKN030=
201012260258 KPAE 260258Z 2603/2624 17009KT P6SM -RA SCT050 OVC070 FM260600
                       15012KT 6SM -RA BR SCT015 OVC025 FM261400
                       16010KT P6SM VCSH SCT020 BKN040 FM261800
                       16010KT P6SM -SHRA OVC025 FM262100 18014KT
                       P6SM -SHRA OVC025=
201012252330 TAF KPAE 252330Z 2600/2624 13006KT P6SM VCSH SCT045 BKN070 FM260300
                       15008KT P6SM -RA SCT015 BKN025 OVC040 FM260500
                       15012KT 6SM -RA BR BKN015 OVC025 FM261400
                       16010KT P6SM VCSH SCT020 BKN040 FM261800
                       16010KT P6SM -SHRA OVC025 FM262100 18014KT
                       P6SM -SHRA OVC025=
201012251735 TAF KPAE 251735Z 2518/2618 13010KT P6SM SCT045 OVC070
                      TEMPO 2518/2522 -RA BKN045 FM252200 13006KT
                       P6SM VCSH SCT045 BKN070 FM260400 15008KT
                       P6SM -RA SCT015 BKN025 OVC040 FM260800 15010KT
                       6SM -RA BR BKN015 OVC025 FM261400 16010KT
                       P6SM VCSH SCT020 BKN040=
201012251140 TAF KPAE 251140Z 2512/2612 13008KT P6SM -RA BKN045 OVC060 FM252000
                       12006KT P6SM VCSH SCT045 BKN060 FM260400
                       14008KT P6SM -RA SCT020 BKN030 OVC045 FM260800
                       15010KT 6SM -RA BR BKN018 OVC030=
201012250541 TAF KPAE 250541Z 2506/2606 13008KT P6SM -RA BKN045 OVC060 FM252000
                       12006KT P6SM VCSH SCT045 BKN060 FM260400
                       14008KT 6SM -RA BR SCT020 BKN030 OVC045=
201012242325 TAF KPAE 242325Z 2500/2524 14007KT P6SM -RA OVC045 FM250300 14007KT
                       6SM -RA SCT020 OVC035 FM251200 13006KT 6SM
                       -RA SCT018 OVC030 FM251700 10006KT P6SM
                       SCT030 OVC050=
201012241730 TAF KPAE 241730Z 2418/2518 12010KT P6SM -RA SCT025 OVC040 FM250100
                       13010KT 5SM -RA BR SCT020 OVC035 FM251100
                       13008KT 5SM -RA BR SCT018 OVC030=
201012241120 TAF KPAE 241120Z 2412/2512 12008KT P6SM BKN080 OVC100 FM242100
                       13010KT 5SM -RA BR SCT025 OVC045 FM250300
                       13010KT 4SM -RA BR SCT018 OVC030=
201012240533 TAF KPAE 240533Z 2406/2506 12009KT P6SM -RA BKN035 OVC050 FM241200
                       14012G20KT P6SM BKN050 OVC100 FM241800 14012KT
                       5SM -RA BR SCT022 OVC040 FM250000 14014KT
                       4SM -RA BR SCT018 OVC030=
201012240035 KPAE 240035Z 2401/2424 12007KT 5SM -RA BR SCT004 SCT022 OVC035
                       WS020/18035KT
                      TEMPO 2401/2404 3SM -RA BR BKN004 BKN022
                       OVC035 FM240600 12009KT P6SM -RA BKN035
                       OVC050 FM241200 14012G20KT P6SM BKN050 OVC100
                       PROB30 2412/2418 -RA FM241800 14012KT 5SM
                       -RA BR SCT022 OVC030 WS020/18040KT=
201012232355 TAF KPAE 232355Z 2400/2424 12007KT 5SM -RA BR SCT004 SCT022 OVC030
                       WS020/18035KT
                      TEMPO 2400/2404 3SM -RA BR BKN004 BKN022
                       OVC030 FM240600 12009KT P6SM -RA BKN035
                       OVC050 FM241200 14012G20KT P6SM BKN050 OVC100
                       PROB30 2412/2418 -RA FM241800 14012KT 5SM
                       -RA BR SCT022 OVC030 WS020/18040KT=
201012232200 KPAE 232200Z 2322/2418 13012KT 6SM -RA BR SCT027 OVC035 WS020/18035KT
                       TEMPO 2322/2401 3SM -RA BR OVC025 FM240100
                       13012G20KT P6SM SCT035 OVC050 WS020/18040KT
                       TEMPO 2401/2405 -RA FM240600 13012G20KT
                       P6SM BKN050 OVC100 WS020/18035KT FM241200
                       13012G20KT P6SM SCT050 BKN100 OVC200 WS020/18030KT=
201012232102 KPAE 232102Z 2321/2418 15012G20KT 6SM -RA BR OVC035 WS020/18035KT
                       TEMPO 2321/2401 3SM -RA BR OVC028 FM240100
                       13012G20KT P6SM SCT035 OVC050 WS020/18040KT
                       TEMPO 2401/2405 -RA FM240600 13012G20KT
                       P6SM BKN050 OVC100 WS020/18035KT FM241200
                       13012G20KT P6SM SCT050 BKN100 OVC200 WS020/18030KT=
201012231754 KPAE 231754Z 2318/2418 15012G20KT P6SM -RA OVC035 WS020/18035KT
                       FM232200 15012G20KT P6SM SCT035 OVC050 WS020/18035KT
                       TEMPO 2322/2402 -RA BKN035 OVC050 FM240200
                       13012G20KT P6SM SCT035 OVC050 WS020/18040KT
                       TEMPO 2402/2406 -RA FM240600 13012G20KT
                       P6SM BKN050 OVC100 WS020/18035KT FM241200
                       13012G20KT P6SM SCT050 BKN100 OVC200 WS020/18030KT=
201012231746 TAF KPAE 231746Z 2318/2418 14014KT P6SM -RA SCT035 BKN050 OVC070
                       FM240600 14014KT P6SM BKN050 OVC080=
201012231509 KPAE 231509Z 2315/2412 16013KT P6SM -RA OVC035 FM231800 14014KT
                       P6SM -RA SCT035 BKN050 OVC070 FM240600 14014KT
                       P6SM BKN050 OVC080=
201012231146 TAF KPAE 231146Z 2312/2412 14008KT P6SM SCT070 BKN120 OVC200 FM231400
                       14008KT P6SM BKN070 OVC120 FM231700 14014KT
                       P6SM -RA SCT035 BKN050 OVC070 FM240600 14014KT
                       P6SM BKN050 OVC080=
201012230526 TAF KPAE 230526Z 2306/2406 14006KT P6SM SCT060 BKN200
                      TEMPO 2306/2309 BKN060 BKN200 FM231100 14008KT
                       P6SM SCT070 BKN120 OVC200 FM231400 14008KT
                       P6SM BKN070 OVC120 FM231700 14014KT P6SM
                       -RA SCT035 BKN050 OVC070=
201012222325 TAF KPAE 222325Z 2300/2324 18012KT P6SM SCT040 SCT060 FM230100
                       16010KT P6SM SCT070 FM230800 16012KT P6SM
                       BKN070 OVC120 FM231400 16012G22KT P6SM -RA
                       OVC040=
201012222017 KPAE 222017Z 2220/2318 19014KT P6SM VCSH BKN040 FM222200 16012KT
                       P6SM SCT035 BKN045 FM230100 16012KT P6SM
                       BKN070 FM231400 16012KT P6SM -RA OVC040=
201012221735 TAF KPAE 221735Z 2218/2318 16007KT P6SM VCSH BKN045 BKN090 FM222100
                       16012KT P6SM SCT035 BKN045 FM230100 16012KT
                       P6SM BKN070 FM231400 16012KT P6SM -RA OVC040=
201012221144 TAF KPAE 221144Z 2212/2312 18008KT P6SM SCT040 OVC070
                      TEMPO 2216/2220 -SHRA BKN040 OVC070 FM222100
                       15012KT P6SM SCT035 BKN050 FM230100 15012KT
                       P6SM BKN070=
201012220605 TAF KPAE 220605Z 2206/2306 12012KT P6SM SCT050 BKN070 OVC100 FM221600
                       15012KT P6SM -RA SCT025 BKN035 OVC050
                      TEMPO 2216/2220 BKN025 OVC035 FM222100 17008KT
                       P6SM SCT035 BKN050 FM230300 12008KT P6SM
                       BKN070=
201012212349 TAF KPAE 212349Z 2200/2224 14008KT P6SM SCT050 BKN080 OVC250
                      TEMPO 2201/2204 -RA BKN050 OVC080 FM220400
                       12010KT P6SM SCT080 BKN250
                      TEMPO 2204/2206 BKN080 BKN250 FM220900 14013KT
                       P6SM SCT040 OVC080
                      PROB30 2209/2214 -RA FM221400 14013KT 6SM
                       -RA BR BKN022 OVC040 FM221800 16009KT P6SM
                       BKN022 OVC040
                      PROB30 2218/2221 -SHRA FM222100 16009KT P6SM
                       BKN050=
201012211750 TAF KPAE 211750Z 2118/2218 12007KT P6SM SCT080 BKN250 FM212000
                       10005KT P6SM BKN080 OVC250 FM220400 10005KT
                       P6SM SCT080 OVC250 FM221200 13009KT P6SM
                       SCT040 OVC080 FM221400 13012KT P6SM -RA
                       SCT022 OVC040
                      TEMPO 2214/2218 4SM -RA BR BKN022 OVC040=
201012211528 KPAE 211528Z 2115/2212 13008KT P6SM SCT040 BKN080 OVC250 FM211800
                       13008KT P6SM SCT080 BKN250=
201012211141 TAF KPAE 211141Z 2112/2212 13008KT P6SM -SHRA BKN025 OVC040 FM211500
                       13008KT P6SM SCT025 BKN040 OVC060 FM211900
                       13008KT P6SM SCT040 BKN080 BKN150=
201012210541 TAF KPAE 210541Z 2106/2206 13008KT P6SM BKN060 BKN200 FM211700
                       09006KT P6SM SCT080 BKN200=
201012202343 TAF KPAE 202343Z 2100/2124 13009KT P6SM BKN035 BKN050 OVC080
                      TEMPO 2100/2104 -SHRA FM210400 13009KT P6SM
                       SCT035 BKN050 BKN080 FM210600 13009KT P6SM
                       SCT050 BKN080 FM211900 09006KT P6SM SCT080
                       BKN200=
201012202109 KPAE 202109Z 2021/2118 15012G20KT P6SM SCT018 OVC040
                      TEMPO 2021/2024 -SHRA BKN018 OVC040 FM210000
                       13009KT P6SM BKN050 BKN080 FM210600 13009KT
                       P6SM SCT050 BKN080=
201012201737 TAF KPAE 201737Z 2018/2118 13009KT P6SM SCT025 OVC050
                      TEMPO 2018/2022 13010G20KT -SHRA BKN025 OVC040
                       FM202200 13009KT P6SM BKN050 BKN080 FM210600
                       13009KT P6SM SCT050 BKN080=
201012201509 KPAE 201509Z 2015/2112 12006KT P6SM SCT028 OVC050
                      TEMPO 2015/2019 -SHRA BKN028 OVC050 FM210000
                       12010KT P6SM VCSH SCT025 BKN040=
201012201120 TAF KPAE 201120Z 2012/2112 12006KT P6SM -SHRA BKN025 BKN040 FM210000
                       12010KT P6SM VCSH SCT025 BKN040=
201012200658 KPAE 200658Z 2007/2106 16007KT P6SM -SHRA SCT018 BKN035
                      TEMPO 2007/2009 6SM -RA OVC018 FM210000 09006KT
                       P6SM VCSH SCT030 BKN070=
201012200520 TAF KPAE 200520Z 2006/2106 12006KT P6SM BKN060 FM200700 12006KT
                       P6SM -SHRA SCT020 BKN030 FM210000 09006KT
                       P6SM VCSH SCT030 BKN070=
201012192320 TAF KPAE 192320Z 2000/2024 06003KT P6SM FEW080 BKN200 FM200800
                       09006KT P6SM -SHRA SCT035 BKN050 FM201000
                       10008KT P6SM -SHRA BKN030 OVC050=
201012191722 TAF KPAE 191722Z 1918/2018 11006KT P6SM SCT060 SCT200 FM192300
                       04006KT P6SM FEW070 SCT200 FM201000 09006KT
                       P6SM -SHRA SCT035 BKN050 FM201200 10008KT
                       P6SM -SHRA BKN030 OVC050=
201012191123 TAF KPAE 191123Z 1912/2012 14006KT P6SM -SHRA SCT018 OVC040
                      TEMPO 1912/1915 5SM -RASN OVC018 FM191600
                       10008KT P6SM SCT035 BKN070 FM192100 01005KT
                       P6SM SCT035 SCT070 FM200900 06006KT P6SM
                       VCSH BKN025 OVC050=
201012190544 TAF KPAE 190544Z 1906/2006 12008KT P6SM SCT060 BKN120 FM190900
                       08007KT P6SM -SHRA BKN025 OVC040
                      TEMPO 1912/1916 5SM -RASN OVC012 FM191900
                       10008KT P6SM SCT035 BKN070 FM200400 02008KT
                       P6SM VCSH BKN025 OVC050=
201012182323 TAF KPAE 182323Z 1900/1924 17013G21KT 6SM -RA BKN022 BKN035 OVC050
                       FM190300 13008KT P6SM SCT035 BKN060 BKN120
                       FM191500 09006KT P6SM -SHRA BKN025 OVC040
                       FM192000 02006KT P6SM SCT035 BKN070=
201012181723 TAF KPAE 181723Z 1818/1918 11012G22KT P6SM FEW030 BKN045 OVC080
                       TEMPO 1818/1820 -SHRA BKN015 OVC030 FM182200
                       13010KT P6SM BKN050 BKN100 FM190200 11008KT
                       P6SM BKN060 BKN120=
201012181611 KPAE 181611Z 1816/1912 13010G20KT P6SM -RA BKN020 OVC035 FM181800
                       12008KT P6SM -RA BKN025 OVC050 FM182000
                       14008KT P6SM -SHRA BKN030 BKN060 FM190000
                       13008KT P6SM -SHRA BKN040 BKN120 FM190400
                       14008KT P6SM VCSH BKN040 BKN120=
201012181120 TAF KPAE 181120Z 1812/1912 10010G18KT P6SM BKN120 FM181600 09010KT
                       P6SM -RA OVC080 FM181800 12010KT P6SM -RA
                       BKN030 OVC050
                      TEMPO 1818/1820 -RASN FM182000 14009KT P6SM
                       -RA OVC030 FM190000 13008KT P6SM -SHRA BKN040
                       BKN120 FM190400 14008KT P6SM VCSH BKN040
                       BKN120=
201012180554 TAF KPAE 180554Z 1806/1906 10009KT P6SM SCT100 BKN200 FM181100
                       10014G20KT P6SM OVC100 FM181800 12012KT
                       P6SM -RA BKN040 OVC060 FM181900 16006KT
                       P6SM -RASN OVC030 FM182100 12005KT P6SM
                       -RA OVC030 FM190000 12005KT P6SM -SHRA OVC035
                       FM190400 10004KT P6SM VCSH BKN035 BKN120=
201012172333 TAF KPAE 172333Z 1800/1824 11012KT P6SM FEW150 BKN250 FM180600
                       10012KT P6SM SCT100 BKN200 FM181100 07015G22KT
                       P6SM OVC100 FM182000 11010KT P6SM -RA BKN020
                       OVC040=
201012171724 TAF KPAE 171724Z 1718/1818 15005KT P6SM FEW100 FM180600 09011KT
                       P6SM SCT100 BKN200 FM181100 07015KT P6SM
                       OVC100=
201012171132 TAF KPAE 171132Z 1712/1812 14006KT P6SM SCT100 BKN200 FM180600
                       09011KT P6SM SCT100 BKN200 FM181100 07015KT
                       P6SM OVC100=
201012170533 TAF KPAE 170533Z 1706/1806 13005KT P6SM SCT100 BKN200=
201012162332 TAF KPAE 162332Z 1700/1724 13005KT P6SM SCT110 BKN200 FM170600
                       13005KT P6SM SCT100 BKN200=
201012161740 TAF KPAE 161740Z 1618/1718 12004KT P6SM SCT030 BKN045 OVC060 FM162100
                       12008KT P6SM SCT035 BKN100 OVC200=
201012161337 KPAE 161337Z 1614/1712 13006KT P6SM SCT025 BKN040
                      TEMPO 1614/1618 -SHRA BKN020 BKN040 FM161800
                       VRB03KT P6SM SCT050 BKN100=
201012161139 TAF KPAE 161139Z 1612/1712 13006KT P6SM SCT025 BKN040 FM161800
                       VRB03KT P6SM SCT050 BKN100=
201012160540 TAF KPAE 160540Z 1606/1706 14008KT P6SM SCT025 OVC035
                      TEMPO 1606/1608 -SHRA BKN025 OVC035 FM160800
                       11006KT P6SM SCT022 OVC035
                      TEMPO 1608/1611 BKN022 OVC035 FM161800 VRB03KT
                       P6SM SCT025 BKN040 FM162200 VRB03KT P6SM
                       SCT050 BKN100=
201012152342 TAF KPAE 152342Z 1600/1624 16008G14KT P6SM -SHRA BKN035 OVC045
                       TEMPO 1600/1603 -SHRA BKN018 OVC035 FM160400
                       14006KT P6SM VCSH OVC025 FM160900 12005KT
                       P6SM VCSH OVC020 FM162100 08005KT P6SM BKN020
                       BKN050=
201012151741 TAF KPAE 151741Z 1518/1618 17011KT P6SM VCSH BKN013 OVC090 FM151900
                       15008KT P6SM -SHRA SCT012 OVC040
                      TEMPO 1520/1524 -SHRA OVC012 FM160100 14010KT
                       P6SM VCSH OVC025 FM160900 13010KT P6SM VCSH
                       OVC018=
201012151703 KPAE 151703Z 1517/1612 17011KT P6SM OVC013 FM151800 16008KT P6SM
                       VCSH SCT015 SCT025 BKN040 FM152200 15008KT
                       P6SM -SHRA SCT025 OVC040 FM160300 14010KT
                       P6SM -SHRA OVC025 FM160900 13010KT P6SM
                       -SHRA OVC018=
201012151132 TAF KPAE 151132Z 1512/1612 19012KT P6SM VCSH SCT015 BKN025 BKN040
                       TEMPO 1512/1516 -SHRA BKN010 FM151800 16008KT
                       P6SM VCSH SCT015 SCT025 BKN040 FM152200
                       15008KT P6SM -SHRA SCT025 OVC040 FM160300
                       14010KT P6SM -SHRA OVC025 FM160900 13010KT
                       P6SM -SHRA OVC018=
201012150529 TAF KPAE 150529Z 1506/1606 18009KT P6SM VCSH SCT015 BKN025 BKN100
                       TEMPO 1506/1509 -SHRA BKN015 BKN020 FM150900
                       19008KT P6SM BKN025 BKN030 FM151800 17006KT
                       P6SM SCT025 BKN050
                      PROB30 1520/1524 -SHRA FM160000 15006KT P6SM
                       -SHRA SCT025 OVC050=
201012142337 TAF KPAE 142337Z 1500/1524 19012G20KT P6SM SCT020 SCT050
                      TEMPO 1500/1503 -SHRA BKN020 BKN050 FM150300
                       17010KT P6SM BKN020 BKN050 FM150600 17008KT
                       P6SM OVC020 FM151800 15008KT P6SM BKN020
                       OVC050
                      PROB30 1518/1520 -SHRA FM152000 15008KT P6SM
                       -SHRA BKN020 OVC050=
201012142234 KPAE 142234Z 1423/1518 19015KT P6SM SCT025 SCT050
                      TEMPO 1423/1502 19015G25KT -SHRA BKN025 BKN050
                       FM150200 17010KT P6SM SCT020 BKN050 FM150600
                       15007KT P6SM BKN020 BKN050=
201012141932 KPAE 141932Z 1420/1518 18015KT P6SM SCT018 BKN040
                      TEMPO 1420/1424 18015G25KT -SHRA BKN018 BKN040
                       FM150000 17010KT P6SM SCT020 BKN050 FM150600
                       15007KT P6SM BKN020 BKN050=
201012141754 TAF KPAE 141754Z 1418/1518 18015KT P6SM -SHRA SCT009 BKN015 OVC030
                       TEMPO 1418/1420 4SM SHRA BKN009 OVC015 FM142000
                       18015KT P6SM SCT018 BKN040
                      TEMPO 1420/1424 -SHRA BKN018 BKN040 FM150000
                       17010KT P6SM SCT020 BKN050 FM150600 15007KT
                       P6SM BKN020 BKN050=
201012141517 KPAE 141517Z 1415/1512 18013KT P6SM SCT035 BKN070
                      TEMPO 1415/1417 5SM SHRA SCT018 OVC035 FM141700
                       20015G25KT P6SM -SHRA SCT015 BKN025 OVC040
                       FM142100 19012G18KT P6SM VCSH SCT025 OVC040
                       FM150300 18012KT P6SM VCSH BKN020 OVC030
                       FM150800 18006KT P6SM OVC020=
201012141129 TAF KPAE 141129Z 1412/1512 18018G28KT P6SM -SHRA SCT015 BKN020
                       OVC030
                      TEMPO 1412/1416 BKN015 FM141600 20015G25KT
                       P6SM -SHRA SCT015 BKN025 OVC040 FM142100
                       19012G18KT P6SM VCSH SCT025 OVC040 FM150300
                       18012KT P6SM VCSH BKN020 OVC030 FM150800
                       18006KT P6SM OVC020=
201012140809 KPAE 140809Z 1408/1506 15013G20KT P6SM -SHRA BKN030 OVC060
                      TEMPO 1408/1410 18025G35KT 4SM +SHRA SCT015
                       OVC020 FM141000 18015G25KT 6SM SHRA BKN012
                       OVC028 FM141500 18012G20KT P6SM SCT022 OVC040
                       TEMPO 1415/1419 -SHRA BKN022 OVC040 FM141900
                       18012KT P6SM VCSH SCT022 BKN040=
201012140532 TAF KPAE 140532Z 1406/1506 15012G20KT P6SM VCSH SCT030 BKN060 OVC090
                       FM140800 15013G20KT P6SM -RA BKN030 OVC060
                       TEMPO 1408/1411 4SM RA SCT015 OVC020 FM141100
                       18015G25KT 6SM SHRA BKN012 OVC028 FM141500
                       18012G20KT P6SM SCT022 OVC040
                      TEMPO 1415/1419 -SHRA BKN022 OVC040 FM141900
                       18012KT P6SM VCSH SCT022 BKN040=
201012140009 KPAE 140009Z 1400/1424 15010KT P6SM SCT020 OVC050
                      TEMPO 1400/1404 3SM SHRA BKN012 OVC030 FM140400
                       15010KT P6SM BKN020 OVC040
                      TEMPO 1404/1407 -RA FM140700 15013G20KT 4SM
                       -RA BR SCT007 OVC012 FM141200 18013G20KT
                       6SM SHRA BKN012 OVC028 FM141500 18012KT
                       P6SM SCT022 OVC040
                      TEMPO 1415/1419 -SHRA BKN022 OVC040 FM141900
                       18012KT P6SM SCT022 BKN040
                      PROB30 1419/1424 -SHRA BKN022 OVC040=
201012132340 TAF KPAE 132340Z 1400/1424 15010KT P6SM SCT020 OVC050
                      TEMPO 1400/1404 -SHRA BKN020 OVC050 FM140400
                       15010KT P6SM BKN020 OVC040
                      TEMPO 1404/1407 -RA FM140700 15013G20KT 4SM
                       -RA BR SCT007 OVC012 FM141200 18013G20KT
                       6SM SHRA BKN012 OVC028 FM141500 18012KT
                       P6SM SCT022 OVC040
                      TEMPO 1415/1419 -SHRA BKN022 OVC040 FM141900
                       18012KT P6SM SCT022 BKN040
                      PROB30 1419/1424 -SHRA BKN022 OVC040=
201012131922 KPAE 131922Z 1319/1418 16008KT P6SM SCT009 SCT025 SCT050
                      TEMPO 1319/1321 BKN009 BKN025 BKN050 FM132100
                       16008KT P6SM SCT025 BKN050
                      TEMPO 1321/1324 BKN035 BKN050 FM140300 14009KT
                       P6SM SCT022 OVC040
                      TEMPO 1403/1407 -RA BKN022 OVC040 FM140700
                       14013KT 4SM -RA BR OVC012 FM141200 17015G25KT
                       4SM -RA BR BKN007 OVC012 FM141500 19013G20KT
                       P6SM -SHRA BKN020 OVC040=
201012131745 TAF KPAE 131745Z 1318/1418 16006KT P6SM VCFG SCT003 SCT012 BKN030
                       TEMPO 1318/1320 4SM BR BKN003 OVC012 FM132000
                       16006KT P6SM SCT022 BKN050 FM140300 14009KT
                       P6SM SCT022 OVC040
                      TEMPO 1403/1407 -RA BKN022 OVC040 FM140700
                       14013KT 4SM -RA BR OVC012 FM141200 17015G25KT
                       4SM -RA BR BKN007 OVC012 FM141500 19013G20KT
                       P6SM -SHRA BKN020 OVC040=
201012131559 KPAE 131559Z 1316/1412 VRB03KT 2SM BR SCT003 BKN030
                      TEMPO 1316/1318 1/4SM FG VV001 FM131800 16006KT
                       P6SM SCT012 OVC020 FM132100 15009KT P6SM
                       OVC025 FM140300 14012G20KT P6SM -RA SCT015
                       OVC025 FM140900 17015G25KT 4SM -RA BR OVC012=
201012131444 KPAE 131444Z 1315/1412 00000KT 1 1/2SM BR BKN001 OVC027
                      TEMPO 1315/1318 5SM BR BKN007 OVC013 FM131800
                       16006KT P6SM SCT012 OVC020 FM132100 15009KT
                       P6SM OVC025 FM140300 14012G20KT P6SM -RA
                       SCT015 OVC025 FM140900 17015G25KT 4SM -RA
                       BR OVC012=
201012131357 KPAE 131357Z 1314/1412 18003KT P6SM BKN007 OVC012
                      TEMPO 1314/1316 5SM BR OVC003 FM131800 16006KT
                       P6SM SCT012 OVC020 FM132100 15009KT P6SM
                       OVC025 FM140300 14012G20KT P6SM -RA SCT015
                       OVC025 FM140900 17015G25KT 4SM -RA BR OVC012=
201012131135 TAF KPAE 131135Z 1312/1412 18003KT 1SM BR BKN004 OVC012
                      TEMPO 1312/1316 1/4SM FG VV001 FM131800 16006KT
                       P6SM SCT012 OVC020 FM132100 15009KT P6SM
                       OVC025 FM140300 14012G20KT P6SM -RA SCT015
                       OVC025 FM140900 17015G25KT 4SM -RA BR OVC012=
201012130535 TAF KPAE 130535Z 1306/1406 19010KT P6SM VCSH OVC007 FM130900 15005KT
                       2SM BR OVC003
                      TEMPO 1312/1316 1/2SM FG OVC001 FM131800
                       16008KT 4SM BR SCT004 OVC012 FM132100 16008KT
                       P6SM OVC025=
201012130043 KPAE 130043Z 1301/1324 21010KT P6SM BKN008 OVC020 FM130300 17008KT
                       P6SM BKN005 OVC015 FM130900 16005KT 2SM
                       BR OVC003
                      TEMPO 1312/1316 1/2SM FG OVC001 FM132000
                       16008KT P6SM BKN015 OVC025=
201012122342 TAF KPAE 122342Z 1300/1324 20014G24KT P6SM BKN010 OVC020 FM130300
                       17008KT P6SM BKN007 OVC015 FM130900 16005KT
                       3SM BR OVC005
                      TEMPO 1312/1316 1/2SM FG BKN001 OVC005 FM132000
                       16008KT P6SM BKN015 OVC025=
201012121741 TAF KPAE 121741Z 1218/1318 19020G28KT 4SM -RA BR BKN012 OVC025
                       FM122100 19015G25KT 3SM RA BR BKN010 OVC020
                       FM122300 17010KT 6SM BR BKN009 OVC020 FM131000
                       12005KT 3SM BR OVC007 FM131300 14004KT 3/4SM
                       BR OVC004=
201012121141 TAF KPAE 121141Z 1212/1312 18020G30KT 6SM -RA SCT006 BKN020 OVC030
                       TEMPO 1212/1215 4SM RA BKN006 FM121500 18020G30KT
                       4SM -RA OVC012
                      TEMPO 1218/1222 2SM RA OVC007 FM130100 19008KT
                       P6SM OVC017=
201012121008 KPAE 121008Z 1210/1306 18016G25KT 5SM -RA SCT006 BKN025 OVC080
                       TEMPO 1210/1214 3SM RA BKN006 FM121400 18016G25KT
                       4SM -RA OVC007 FM130100 17008KT P6SM OVC020=
201012120538 TAF KPAE 120538Z 1206/1306 17015G25KT 4SM -RA BR SCT010 OVC022
                       TEMPO 1206/1210 2SM RA OVC003 FM121000 18015G25KT
                       4SM -RA OVC007 FM130100 17008KT P6SM OVC020=
201012120320 KPAE 120320Z 1203/1224 15012G20KT 4SM -RA SCT006 BKN011 OVC017
                       TEMPO 1203/1205 2SM -RA BR OVC003 FM120500
                       15012G20KT P6SM -RA OVC012 FM120800 15015G25KT
                       3SM -RA OVC014
                      TEMPO 1208/1212 2SM RA OVC009 FM121200 16010G18KT
                       3SM -RA BR OVC008 FM122200 19008KT P6SM
                       OVC019=
201012120151 KPAE 120151Z 1202/1224 15007KT P6SM -RA SCT006 OVC018
                      TEMPO 1202/1205 5SM -RA BR OVC006 FM120500
                       11004KT P6SM -RA OVC012 FM120800 15006KT
                       3SM -RA OVC014
                      TEMPO 1208/1212 2SM RA OVC009 FM121200 16010G18KT
                       3SM -RA BR OVC008 FM122200 19008KT P6SM
                       OVC019=
201012112342 TAF KPAE 112342Z 1200/1224 11007KT P6SM -RA OVC040
                      TEMPO 1202/1205 5SM -RA BR OVC030 FM120500
                       11004KT P6SM -RA OVC022 FM120800 15006KT
                       3SM -RA OVC014
                      TEMPO 1208/1212 2SM RA OVC009 FM121200 16010G18KT
                       3SM -RA BR OVC008 FM122200 19008KT P6SM
                       OVC019=
201012111743 TAF KPAE 111743Z 1118/1218 11006KT P6SM OVC080 FM112200 10006KT
                       P6SM -RA BKN030 OVC060 FM120300 11004KT
                       P6SM -RA OVC020 FM120700 15006KT 3SM -RA
                       OVC014
                      TEMPO 1208/1212 2SM RA OVC006 FM121200 16010G18KT
                       3SM -RA BR OVC006=
201012111140 TAF KPAE 111140Z 1112/1212 12006KT P6SM FEW030 BKN120 OVC150 FM111800
                       05005KT P6SM SCT030 BKN070 OVC120 FM112300
                       08006KT P6SM -RA BKN030 OVC060 FM120300
                       11004KT P6SM -RA OVC025 FM120700 15006KT
                       4SM -RA OVC020
                      TEMPO 1208/1212 2SM RA OVC015=
201012110534 TAF KPAE 110534Z 1106/1206 16008KT P6SM SCT017 BKN030 BKN200
                      TEMPO 1106/1109 BKN017 FM110900 14005KT P6SM
                       FEW020 OVC150 FM111200 10004KT P6SM FEW020
                       BKN100 OVC150 FM120000 08004KT P6SM -RA
                       BKN030 OVC060 FM120300 09004KT 4SM -RA BR
                       OVC012=
201012110059 KPAE 110059Z 1101/1124 16004KT P6SM BKN045 BKN200 FM110400 15005KT
                       P6SM SCT045 BKN200 FM110800 14005KT P6SM
                       OVC150 FM111200 12005KT P6SM SCT020 BKN100
                       OVC150 FM111800 08005KT P6SM -RA SCT030
                       OVC050 FM112300 08004KT P6SM -RA OVC030=
201012102343 TAF KPAE 102343Z 1100/1124 16004KT P6SM BKN020 BKN200 FM110400
                       15005KT P6SM SCT020 BKN200 FM110800 14005KT
                       P6SM OVC150 FM111200 12005KT P6SM SCT020
                       BKN100 OVC150 FM111800 08005KT P6SM -RA
                       SCT030 OVC050 FM112300 08004KT P6SM -RA
                       OVC030=
201012102108 KPAE 102108Z 1021/1118 19007KT P6SM BKN018 OVC024 FM110100 15005KT
                       P6SM SCT025 BKN070 FM110600 14006KT P6SM
                       SCT070 BKN150 FM111100 11006KT P6SM BKN030
                       BKN100 FM111600 11004KT P6SM -RA SCT030
                       BKN050 OVC080=
201012101743 TAF KPAE 101743Z 1018/1118 19008KT P6SM VCSH SCT007 BKN020 OVC070
                       TEMPO 1018/1019 BKN007 OVC018 FM102100 19007KT
                       P6SM SCT022 BKN070 FM110200 15005KT P6SM
                       BKN070 FM110600 14006KT P6SM SCT070 BKN150
                       FM111100 11006KT P6SM BKN030 BKN100 FM111600
                       11004KT P6SM -RA SCT030 BKN050 OVC080=
201012101517 KPAE 101517Z 1015/1112 19009KT P6SM VCSH SCT020 BKN035 OVC070
                      TEMPO 1015/1018 BKN020 OVC035 FM102000 18010KT
                       P6SM VCSH SCT030 BKN050 FM110000 15005KT
                       P6SM SCT040 BKN050 FM110600 13005KT P6SM
                       SCT050 BKN150 OVC200=
201012101140 TAF KPAE 101140Z 1012/1112 20012G18KT P6SM -SHRA BKN020 OVC040
                       FM102000 18010KT P6SM VCSH SCT030 BKN050
                       FM110000 15005KT P6SM SCT040 BKN050 FM110600
                       13005KT P6SM SCT050 BKN150 OVC200=
201012100530 TAF KPAE 100530Z 1006/1106 16010KT P6SM -SHRA SCT010 BKN025 OVC100
                       TEMPO 1006/1007 4SM SHRA BR BKN010 FM100700
                       18012G20KT P6SM -SHRA BKN025 OVC040 FM101500
                       19012KT P6SM VCSH BKN025 BKN050 FM102000
                       21010KT P6SM SCT030 BKN050=
201012100057 KPAE 100057Z 1001/1024 16010KT P6SM -SHRA SCT025 BKN040 OVC100
                       TEMPO 1001/1004 4SM -SHRA BR BKN020CB OVC040
                       FM100400 18012G20KT P6SM -SHRA BKN025 OVC040
                       FM101200 18012KT P6SM VCSH BKN025 BKN050
                       FM102000 20010KT P6SM VCSH SCT030 BKN050=
201012092320 TAF KPAE 092320Z 1000/1024 18012G22KT P6SM -SHRA SCT025 BKN040
                       OVC100
                      TEMPO 1000/1004 4SM -SHRA BR BKN020CB OVC040
                       FM100400 18012G20KT P6SM -SHRA BKN025 OVC040
                       FM101200 18012KT P6SM VCSH BKN025 BKN050
                       FM102000 20010KT P6SM VCSH SCT030 BKN050=
201012091818 KPAE 091818Z 0918/1018 18012G20KT P6SM VCSH SCT015 OVC035
                      TEMPO 0918/0922 4SM -SHRA BKN015 OVC030 FM100000
                       16012KT P6SM -SHRA SCT020 OVC040
                      TEMPO 1002/1005 4SM SHRA BR BKN020CB OVC040
                       FM100500 19012G22KT P6SM VCSH BKN040 FM101200
                       18010KT P6SM VCSH BKN040=
201012091720 TAF KPAE 091720Z 0918/1018 18012G20KT P6SM VCSH SCT025 BKN050
                      TEMPO 0918/0922 -SHRA BKN025 OVC050 FM100000
                       16012KT P6SM -SHRA SCT020 OVC040
                      TEMPO 1002/1005 4SM SHRA BR BKN020CB OVC040
                       FM100500 19012G22KT P6SM VCSH BKN040 FM101200
                       18010KT P6SM VCSH BKN040=
201012091136 TAF KPAE 091136Z 0912/1012 17014G22KT P6SM FEW011 BKN035 OVC050
                       TEMPO 0913/0917 -SHRA BKN025 OVC040 FM092000
                       20012G20KT P6SM VCSH SCT020 BKN035=
201012090730 KPAE 090730Z 0908/1006 16014KT P6SM -SHRA SCT030 BKN040 OVC070
                       FM091000 17014KT P6SM -SHRA BKN025 BKN040
                       OVC070 FM092000 20012G20KT P6SM VCSH SCT020
                       BKN035=
201012090522 TAF KPAE 090522Z 0906/1006 18013G21KT P6SM -SHRA SCT030 BKN040
                       OVC070 FM090900 19012G20KT P6SM -SHRA BKN025
                       BKN040 OVC070 FM092000 20012G20KT P6SM VCSH
                       SCT020 BKN035=
201012082320 TAF KPAE 082320Z 0900/0924 17012G20KT P6SM VCSH BKN040 BKN080 FM090400
                       18012G20KT P6SM -SHRA BKN025 BKN050 FM091400
                       20012G20KT P6SM VCSH SCT025 BKN050=
201012082016 KPAE 082016Z 0820/0918 19020G30KT 3SM SHRA VCTS BKN025CB BKN050
                       FM082130 19015G25KT P6SM VCSH SCT020 BKN040
                       TEMPO 0822/0902 SCT040 BKN080 FM090600 17008KT
                       P6SM -SHRA BKN025 OVC040 FM091600 19010KT
                       P6SM VCSH SCT025 BKN050=
201012081720 TAF KPAE 081720Z 0818/0918 22012G22KT P6SM VCSH SCT020 BKN040
                      TEMPO 0820/0824 SCT040 BKN080 FM090600 17008KT
                       P6SM -SHRA BKN025 OVC040 FM091600 19010KT
                       P6SM VCSH SCT025 BKN050=
201012081538 KPAE 081538Z 0816/0912 18015G25KT P6SM -SHRA VCTS SCT025CB BKN050
                       OVC100
                      TEMPO 0816/0818 21020G30KT 3SM TSRA BKN020CB
                       OVC040 FM082100 17012G22KT P6SM VCSH BKN035
                       BKN050 FM090200 18010KT P6SM VCSH BKN035
                       BKN050 FM090900 16010KT 6SM -SHRA BKN020
                       BKN035=
201012081522 KPAE 081522Z 0815/0912 18015G25KT P6SM -SHRA SCT025 BKN050 OVC100
                       TEMPO 0815/0818 21020G30KT 3SM SHRA BR BKN020
                       OVC040 FM082100 17012G22KT P6SM VCSH BKN035
                       BKN050 FM090200 18010KT P6SM VCSH BKN035
                       BKN050 FM090900 16010KT 6SM -SHRA BKN020
                       BKN035=
201012081128 TAF KPAE 081128Z 0812/0912 15009G18KT P6SM -RA SCT025 OVC040 FM081400
                       17014KT 5SM -SHRA BR BKN025 OVC040 FM081600
                       17012G22KT P6SM -SHRA BKN025 BKN050 FM082100
                       17012G22KT P6SM VCSH BKN035 BKN050 FM090200
                       18010KT P6SM VCSH BKN035 BKN050 FM090900
                       16010KT 6SM -SHRA BKN020 BKN035=
201012080524 TAF KPAE 080524Z 0806/0906 13010KT P6SM -RA OVC050 WS020/18040KT
                       FM081000 13010KT P6SM -RA OVC035 WS020/18045KT
                       FM081400 17014KT 5SM -SHRA BR BKN025 OVC040
                       FM081600 17012G22KT P6SM -SHRA BKN025 BKN050
                       FM082100 17012G22KT P6SM VCSH BKN035 BKN050
                       FM090200 18010KT P6SM VCSH BKN035 BKN050=
201012072320 TAF KPAE 072320Z 0800/0824 14012KT P6SM -RA OVC050 FM080400 14015G25KT
                       5SM -RA OVC035 WS020/18040KT FM081200 17015G25KT
                       5SM -RA BR OVC020 FM081600 20012G20KT P6SM
                       -SHRA BKN030 BKN060 FM082200 20012KT P6SM
                       VCSH BKN040 BKN080=
201012071735 TAF KPAE 071735Z 0718/0818 13015KT P6SM -RA BKN050 OVC100 FM080400
                       11014KT P6SM -RA OVC035 FM081600 20012KT
                       P6SM VCSH BKN030 BKN060=
201012071121 TAF KPAE 071121Z 0712/0812 12007KT P6SM -RA SCT040 OVC070 FM071800
                       12014KT P6SM -RA OVC040 FM080400 11014KT
                       P6SM -RA OVC035=
201012070527 TAF KPAE 070527Z 0706/0806 13005KT P6SM OVC050 FM070800 12008KT
                       6SM -RA OVC035 FM071800 12010KT P6SM -RA
                       OVC030 WS020/19040KT FM072200 12008KT P6SM
                       -RA SCT030 OVC050 FM080400 12012KT P6SM
                       -RA OVC030=
201012062336 TAF KPAE 062336Z 0700/0724 15006KT P6SM SCT050 BKN100 FM070800
                       12008KT P6SM -RA BKN035 OVC045
                      TEMPO 0712/0716 5SM -RA BR FM071800 12010KT
                       P6SM VCSH SCT035 BKN060=
201012061745 TAF KPAE 061745Z 0618/0718 15006KT P6SM SCT070 BKN100
                      TEMPO 0619/0622 -RA SCT050 BKN070 FM070800
                       12008KT P6SM -RA BKN035 OVC060
                      TEMPO 0712/0716 5SM -RA BR=
201012061138 TAF KPAE 061138Z 0612/0712 10005KT P6SM SCT120 BKN200 FM061700
                       11006KT P6SM SCT070 OVC120 FM062000 13006KT
                       P6SM SCT050 OVC080 FM062300 14008KT P6SM
                       VCSH SCT035 BKN060 FM070900 14008KT P6SM
                       -RA BKN035 OVC060=
201012060533 TAF KPAE 060533Z 0606/0706 07005KT P6SM SCT120 BKN200 FM061200
                       11007KT P6SM SCT070 BKN120 FM062000 13006KT
                       P6SM SCT050 OVC100 FM070000 14009KT P6SM
                       VCSH SCT045 BKN060=
201012060306 KPAE 060306Z 0603/0624 06005KT P6SM SCT080 BKN120 FM061300 14007KT
                       P6SM SCT070 BKN120 FM062100 15006KT P6SM
                       SCT045 OVC070=
201012052341 TAF KPAE 052341Z 0600/0624 06005KT P6SM SCT080 BKN120 FM061300
                       14007KT P6SM SCT070 BKN120 FM062100 15006KT
                       P6SM SCT045 OVC070=
201012051738 TAF KPAE 051738Z 0518/0618 06005KT P6SM SCT080 BKN120 FM061300
                       14007KT P6SM BKN120=
201012051133 TAF KPAE 051133Z 0512/0612 02004KT P6SM BKN110 BKN200=
201012050528 TAF KPAE 050528Z 0506/0606 03004KT P6SM SCT120 FM051300 07012KT
                       P6SM BKN120 BKN200=
201012042322 TAF KPAE 042322Z 0500/0524 02008KT P6SM SCT120 SCT200 FM050600
                       06010KT P6SM BKN090 BKN200 FM051200 12012KT
                       P6SM BKN120 BKN200=
201012041720 TAF KPAE 041720Z 0418/0518 36008KT P6SM SCT150 SCT250 FM050000
                       05010KT P6SM SCT120 BKN200 FM051000 10012KT
                       P6SM BKN120 OVC200=
201012041405 KPAE 041405Z 0414/0512 01004KT P6SM VCFG FEW003 FM041700 36006KT
                       P6SM SCT250=
201012041134 TAF KPAE 041134Z 0412/0512 36004KT P6SM SCT003
                      TEMPO 0412/0416 BKN002 FM041700 36006KT P6SM
                       SCT250=
201012040521 TAF KPAE 040521Z 0406/0506 35004KT P6SM SCT004 SCT250
                      TEMPO 0406/0410 BKN004 FM041000 03004KT P6SM
                       BCFG BKN004 BKN200 FM041700 36006KT P6SM
                       SKC=
201012032323 TAF KPAE 032323Z 0400/0424 35005KT P6SM SCT250 FM040800 03004KT
                       P6SM BCFG FEW004 SCT200 FM041700 36006KT
                       P6SM SKC=
201012031738 TAF KPAE 031738Z 0318/0418 VRB03KT P6SM BKN010 BKN050 FM032000
                       34005KT P6SM SCT012 BKN050 FM032300 36007KT
                       P6SM SCT018 BKN200 FM040800 03005KT P6SM
                       BCFG FEW004 BKN200 FM041700 36006KT P6SM
                       SKC=
201012031616 KPAE 031616Z 0316/0412 16004KT P6SM BKN010 OVC040 FM032000 VRB03KT
                       P6SM SCT012 BKN045 FM040000 03004KT P6SM
                       SCT035 BKN200 FM040800 03005KT P6SM BCFG
                       FEW004 BKN200=
201012031131 TAF KPAE 031131Z 0312/0412 18008KT P6SM SCT017 BKN040
                      TEMPO 0312/0316 BKN015 OVC035 FM032000 VRB03KT
                       P6SM SCT012 BKN045 FM040000 03004KT P6SM
                       SCT035 BKN200 FM040800 03005KT P6SM BCFG
                       FEW004 BKN200=
201012030527 TAF KPAE 030527Z 0306/0406 16006KT P6SM SCT015 BKN025 BKN050
                      TEMPO 0306/0310 -SHRA BKN012 OVC025 FM031000
                       17005KT 6SM BR BKN008 OVC015
                      TEMPO 0312/0316 3SM BR OVC005 FM032000 VRB03KT
                       P6SM SCT012 BKN045 FM040100 03004KT P6SM
                       SCT030 BKN200=
201012022338 TAF KPAE 022338Z 0300/0324 17006KT P6SM SCT023 BKN070
                      TEMPO 0300/0303 BKN023 BKN070 FM030300 16005KT
                       P6SM BKN025 BKN050
                      TEMPO 0303/0307 -SHRA FM030700 14005KT P6SM
                       VCSH BKN012 OVC030 FM031000 17005KT 4SM
                       BR BKN005 OVC010
                      TEMPO 0315/0317 1/2SM FG BKN001 OVC005 FM032100
                       VRB03KT P6SM SCT015 BKN060=
201012022139 KPAE 022139Z 0222/0318 18007KT P6SM BKN016
                      TEMPO 0222/0223 BKN020 FM022300 19007KT P6SM
                       SCT020 BKN200 FM030600 14006KT P6SM -SHRA
                       BKN022=
201012022004 KPAE 022004Z 0220/0318 18006KT P6SM SCT004 BKN200
                      TEMPO 0220/0221 BKN004 BKN200 FM022200 19005KT
                       P6SM SCT018 BKN200 FM030600 14006KT P6SM
                       -SHRA BKN022=
201012021739 TAF KPAE 021739Z 0218/0318 17005KT 3SM BR OVC005
                      TEMPO 0218/0220 1/2SM FG OVC001 FM022000
                       19005KT P6SM BKN009 BKN200
                      TEMPO 0220/0222 BKN012 BKN200 FM022200 19005KT
                       P6SM VCSH SCT018 BKN050 FM030400 14006KT
                       P6SM -SHRA BKN022=
201012021604 KPAE 021604Z 0216/0312 17006KT 1/4SM FG VV001 FM021800 16005KT
                       3SM BR OVC005
                      TEMPO 0218/0220 1/2SM FG OVC001 FM022000
                       19003KT P6SM OVC009
                      TEMPO 0220/0222 BKN012 BKN200 FM022200 15005KT
                       P6SM VCSH SCT010 BKN022 OVC050 FM030400
                       14006KT P6SM -SHRA BKN022=
201012021137 TAF KPAE 021137Z 0212/0312 16006KT 1/2SM FG VV001
                      TEMPO 0215/0217 3SM BR OVC005 FM021700 16005KT
                       4SM BR OVC006
                      TEMPO 0217/0220 P6SM NSW BKN012 BKN050 FM022000
                       15005KT P6SM VCSH SCT010 BKN022 OVC050 FM030400
                       14006KT P6SM -SHRA BKN022=
201012020926 KPAE 020926Z 0209/0306 15003KT P6SM SCT008 OVC050
                      TEMPO 0209/0211 5SM BR BKN002 FM021100 13004KT
                       3SM BR OVC002 FM021900 15005KT P6SM SCT015
                       BKN025 OVC060 FM022100 15005KT P6SM VCSH
                       SCT020 BKN035 OVC060 FM030500 14005KT P6SM
                       -SHRA BKN025=
201012020524 TAF KPAE 020524Z 0206/0306 12004KT P6SM SCT015 OVC050
                      TEMPO 0209/0213 BKN012 FM021300 13004KT P6SM
                       BKN009 OVC015 FM021900 15005KT P6SM SCT015
                       BKN025 OVC060 FM022100 15005KT P6SM VCSH
                       SCT020 BKN035 OVC060 FM030500 14005KT P6SM
                       -SHRA BKN025=
201012012340 TAF KPAE 012340Z 0200/0224 VRB03KT P6SM FEW012 OVC050 FM020600
                       12004KT P6SM SCT015 OVC050 FM021100 12004KT
                       P6SM BKN015 OVC050 FM021300 13004KT P6SM
                       BKN009 OVC015 FM021900 15005KT P6SM SCT015
                       BKN020 OVC060 FM022100 15005KT P6SM VCSH
                       SCT020 BKN035 OVC060=
201012012040 KPAE 012040Z 0121/0218 16003KT P6SM SCT011 SCT020 SCT060
                      TEMPO 0121/0123 SCT011 BKN020 BKN060 FM012300
                       VRB03KT P6SM FEW020 SCT070 FM020600 VRB03KT
                       P6SM VCFG SCT035 BKN060=
201012011734 TAF KPAE 011734Z 0118/0218 16003KT P6SM SCT020 SCT060 FM012200
                       VRB03KT P6SM SCT070 FM020600 VRB03KT P6SM
                       VCFG SCT035 BKN060=
201012011524 KPAE 011524Z 0115/0212 13003KT P6SM SCT045 SCT070 FM011700 VRB03KT
                       P6SM SCT025 SCT070 FM012000 VRB03KT P6SM
                       SCT070 FM020600 VRB03KT P6SM VCFG SCT035
                       BKN060=
201012011241 KPAE 011241Z 0113/0212 VRB03KT P6SM FEW012 BKN029 OVC050 FM012000
                       VRB03KT P6SM SCT035 BKN060 FM020600 VRB03KT
                       P6SM VCFG SCT035 BKN060=
201012011123 TAF KPAE 011123Z 0112/0212 VRB03KT P6SM FEW012 BKN035 OVC050 FM011400
                       VRB03KT P6SM FEW012 SCT035 OVC050 FM012000
                       VRB03KT P6SM SCT035 BKN060 FM020600 VRB03KT
                       P6SM VCFG SCT035 BKN060=
201012010708 KPAE 010708Z 0107/0206 VRB04KT P6SM SCT009 OVC020
                      TEMPO 0107/0111 5SM -SHRA BR BKN009 OVC020
                       FM011100 00000KT 5SM -SHRA BR BKN007 OVC012
                       FM011400 00000KT 5SM BR OVC012 FM012000
                       VRB03KT P6SM OVC022 FM020000 VRB03KT P6SM
                       BKN030 OVC070=
201012010543 TAF KPAE 010543Z 0106/0206 VRB04KT 4SM -SHRA BR OVC003
                      TEMPO 0106/0110 2SM SHRA BR FM011000 00000KT
                       5SM -SHRA BR BKN007 OVC012 FM011400 00000KT
                       5SM BR OVC012 FM012000 VRB03KT P6SM OVC022
                       FM020000 VRB03KT P6SM BKN030 OVC070=
201012010317 TAF AMD KPAE 010317Z 0103/0124 21009KT P6SM BKN003 OVC012
                      TEMPO 0103/0106 4SM -SHRA BR FM010600 19012KT
                       P6SM VCSH BKN015 OVC040 FM010900 VRB04KT
                       P6SM VCSH BKN030 FM011800 16006KT P6SM SCT030
                       BKN050=