##########################################################
# Query made at 02/15/2025 20:30:27 UTC
# Time interval: from 05/01/2011 00:00  to 05/31/2011 23:59  UTC
##########################################################

##########################################################
# KPAE, Everett, Snohomish County Airport (United States)
# WMO index: -----. WIGOS ID: Unknown
# Latitude 47-55-23N. Longitude 122-16-57W. Altitude 184 m.
##########################################################

###################################
#  METAR/SPECI from KPAE
###################################
201105312355 SPECI KPAE 312355Z 00000KT 10SM SCT015 15/10 A2994 RMK AO2=
201105312355 SPECI KPAE 312355Z 00000KT 10SM SCT015 15/10 A2994 RMK AO2=
201105312353 METAR KPAE 312353Z 00000KT 10SM BKN015 BKN044 15/10 A2994 RMK AO2 RAE04 SLP138 P0000 60003 T01500100 10150 20117 51003=
201105312306 SPECI KPAE 312306Z 09004KT 10SM BKN015 BKN044 15/12 A2994 RMK AO2 RAE04 P0000=
201105312306 SPECI KPAE 312306Z 09004KT 10SM BKN015 BKN044 15/12 A2994 RMK AO2 RAE04 P0000=
201105312253 METAR KPAE 312253Z 00000KT 9SM -RA SCT015 BKN044 14/12 A2993 RMK AO2 SLP137 P0001 T01390117=
201105312153 METAR KPAE 312153Z 29004KT 10SM -RA BKN017 BKN030 13/10 A2994 RMK AO2 RAB15 SLP138 P0001 T01280100=
201105312053 METAR KPAE 312053Z 00000KT 10SM SCT014 14/10 A2993 RMK AO2 SLP135 60001 T01440100 51002=
201105311953 METAR KPAE 311953Z 34004KT 10SM FEW021 13/09 A2991 RMK AO2 RAB1857E36 SLP131 P0001 T01280089=
201105311935 SPECI KPAE 311935Z 28006KT 10SM -RA SCT021 SCT027 OVC060 13/10 A2992 RMK AO2 RAB1857 P0001=
201105311935 SPECI KPAE 311935Z 28006KT 10SM -RA SCT021 SCT027 OVC060 13/10 A2992 RMK AO2 RAB1857 P0001=
201105311900 SPECI KPAE 311900Z 20003KT 10SM -RA BKN015 BKN033 BKN065 12/09 A2994 RMK AO2 RAB1857 P0000=
201105311900 SPECI KPAE 311900Z 20003KT 10SM -RA BKN015 BKN033 BKN065 12/09 A2994 RMK AO2 RAB1857 P0000=
201105311853 METAR KPAE 311853Z 15003KT 10SM BKN011 BKN032 BKN065 12/08 A2994 RMK AO2 RAB29E45 SLP138 P0000 T01220083=
201105311753 METAR KPAE 311753Z 35004KT 10SM FEW008 BKN075 OVC085 12/09 A2992 RMK AO2 SLP133 T01220089 10122 20094 57002=
201105311739 SPECI KPAE 311739Z 35005KT 10SM FEW008 BKN085 12/08 A2992 RMK AO2=
201105311739 SPECI KPAE 311739Z 35005KT 10SM FEW008 BKN085 12/08 A2992 RMK AO2=
201105311701 SPECI KPAE 311701Z 36006KT 10SM BKN015 BKN095 12/08 A2992 RMK AO2=
201105311701 SPECI KPAE 311701Z 36006KT 10SM BKN015 BKN095 12/08 A2992 RMK AO2=
201105311653 METAR KPAE 311653Z COR VRB05KT 10SM BKN015 BKN095 12/08 A2992 RMK AO2 SLP134 T01170083=
201105311633 SPECI KPAE 311633Z VRB05KT 10SM FEW007 SCT080 BKN095 11/08 A2992 RMK AO2=
201105311633 SPECI KPAE 311633Z VRB05KT 10SM FEW007 SCT080 BKN095 11/08 A2992 RMK AO2=
201105311553 METAR KPAE 311553Z 36003KT 10SM OVC085 11/08 A2993 RMK AO2 SLP135 T01060078=
201105311539 SPECI KPAE 311539Z 36003KT 10SM FEW007 BKN095 OVC110 11/08 A2993 RMK AO2=
201105311539 SPECI KPAE 311539Z 36003KT 10SM FEW007 BKN095 OVC110 11/08 A2993 RMK AO2=
201105311453 METAR KPAE 311453Z 36004KT 10SM BKN080 OVC095 11/07 A2993 RMK AO2 SLP135 T01060072 57001=
201105311353 METAR KPAE 311353Z 03004KT 10SM CLR 10/07 A2993 RMK AO2 SLP136 T01000067=
201105311253 METAR KPAE 311253Z AUTO 35004KT 10SM BKN100 09/06 A2993 RMK AO2 SLP136 T00940061=
201105311153 METAR KPAE 311153Z AUTO 35003KT 10SM CLR 09/06 A2993 RMK AO2 SLP136 T00940061 10106 20089 58003=
201105311053 METAR KPAE 311053Z AUTO 34005KT 10SM FEW080 09/06 A2994=
201105310953 METAR KPAE 310953Z AUTO 34005KT 10SM CLR 09/06 A2994 RMK AO2 SLP138 T00940056=
201105310853 METAR KPAE 310853Z AUTO 35004KT 10SM CLR 10/06 A2994 RMK AO2 SLP139 T01000056 56004=
201105310753 METAR KPAE 310753Z AUTO 36006KT 10SM CLR 10/06 A2994 RMK AO2 SLP139 T01000056 401560094=
201105310653 METAR KPAE 310653Z AUTO 35005KT 10SM OVC039 10/06 A2995 RMK AO2 SLP142 T01000056=
201105310553 METAR KPAE 310553Z AUTO 02003KT 10SM OVC039 11/06 A2995 RMK AO2 SLP143 T01060056 10144 20106 53010=
201105310453 METAR KPAE 310453Z AUTO 35005KT 10SM OVC039 11/06 A2994=
201105310353 METAR KPAE 310353Z AUTO 35004KT 10SM CLR 12/07 A2993 RMK AO2 SLP135 T01170067=
201105310253 METAR KPAE 310253Z 01003KT 10SM SCT065 14/07 A2992 RMK AO2 SLP133 T01390072 55001=
201105310153 METAR KPAE 310153Z AUTO 30004KT 10SM FEW065 14/06 A2992 RMK AO2 SLP132 T01390061 TSNO=
201105310053 METAR KPAE 310053Z AUTO 33003KT 10SM BKN070 14/06 A2992 RMK AO2 SLP132 T01440056 TSNO=
201105302353 METAR KPAE 302353Z AUTO 33004KT 10SM BKN041 OVC080 14/06 A2993 RMK AO2 SLP133 T01440056 10156 20117 58002 TSNO=
201105302253 METAR KPAE 302253Z AUTO 00000KT 10SM BKN039 16/06 A2993 RMK AO2 SLP134 T01560056 TSNO=
201105302200 METAR KPAE NIL=
201105302053 METAR KPAE 302053Z 25005KT 10SM SCT048 OVC065 13/05 A2993 RMK AO2 SLP137 T01330050 51005=
201105301953 METAR KPAE 301953Z 22007KT 10SM OVC042 13/05 A2993 RMK AO2 SLP136 T01280050=
201105301853 METAR KPAE 301853Z 25008KT 10SM OVC040 12/06 A2993 RMK AO2 SLP135 T01220056=
201105301753 METAR KPAE 301753Z 26007KT 10SM SCT022 BKN060 12/06 A2992 RMK AO2 SLP132 T01170061 10122 20100 53004=
201105301653 METAR KPAE 301653Z 26007KT 10SM SCT022 BKN060 BKN070 12/07 A2991 RMK AO2 SLP130 T01170067=
201105301553 METAR KPAE 301553Z 17007KT 10SM FEW016 BKN085 11/06 A2991 RMK AO2 SLP128 T01110056=
201105301537 SPECI KPAE 301537Z 19009KT 10SM SCT016 BKN085 11/06 A2991 RMK AO2=
201105301537 SPECI KPAE 301537Z 19009KT 10SM SCT016 BKN085 11/06 A2991 RMK AO2=
201105301453 METAR KPAE 301453Z 19006KT 10SM OVC016 10/06 A2991 RMK AO2 SLP127 T01000061 53003=
201105301421 SPECI KPAE 301421Z 18007KT 10SM OVC016 10/06 A2990 RMK AO2 FOG BANK OVR WTR N OF FIELD=
201105301421 SPECI KPAE 301421Z 18007KT 10SM OVC016 10/06 A2990 RMK AO2 FOG BANK OVR WTR N OF FIELD=
201105301414 SPECI KPAE 301414Z 17006KT 10SM OVC014 10/06 A2990 RMK AO2 FOG BANK OVR WTR N OF FIELD=
201105301414 SPECI KPAE 301414Z 17006KT 10SM OVC014 10/06 A2990 RMK AO2 FOG BANK OVR WTR N OF FIELD=
201105301353 METAR KPAE 301353Z VRB04KT 10SM OVC016 10/06 A2990 RMK AO2 SLP124 T01000061=
201105301333 SPECI KPAE 301333Z AUTO 15006KT 10SM OVC016 10/06 A2990 RMK AO2=
201105301333 SPECI KPAE 301333Z AUTO 15006KT 10SM OVC016 10/06 A2990 RMK AO2=
201105301253 METAR KPAE 301253Z AUTO 16005KT 10SM OVC014 10/06 A2989 RMK AO2 SLP122 T01000061=
201105301153 METAR KPAE 301153Z AUTO 17003KT 10SM FEW006 OVC014 11/07 A2990 RMK AO2 SLP123 T01060067 10117 20094 56004=
201105301128 SPECI KPAE 301128Z AUTO VRB03KT 10SM SCT008 OVC014 10/08 A2990 RMK AO2=
201105301128 SPECI KPAE 301128Z AUTO VRB03KT 10SM SCT008 OVC014 10/08 A2990 RMK AO2=
201105301103 SPECI KPAE 301103Z AUTO 10004KT 10SM OVC014 11/07 A2990 RMK AO2=
201105301103 SPECI KPAE 301103Z AUTO 10004KT 10SM OVC014 11/07 A2990 RMK AO2=
201105301053 METAR KPAE 301053Z AUTO 10003KT 10SM OVC016 11/07 A2990 RMK AO2 SLP125 T01110067=
201105300953 METAR KPAE 300953Z AUTO 20005KT 10SM OVC016 11/07 A2990 RMK AO2 SLP124 T01060067=
201105300853 METAR KPAE 300853Z AUTO 21005KT 10SM BKN020 OVC025 11/07 A2991 RMK AO2 SLP127 T01110067 56005=
201105300753 METAR KPAE 300753Z AUTO 21004KT 10SM OVC018 11/07 A2991 RMK AO2 SLP128 T01110067 401610100=
201105300653 METAR KPAE 300653Z AUTO 20006KT 10SM BKN018 OVC041 12/07 A2992 RMK AO2 SLP130 T01170072=
201105300553 METAR KPAE 300553Z AUTO 20006KT 10SM OVC037 12/07 A2992 RMK AO2 SLP133 60000 T01170072 10156 20117 50000=
201105300519 SPECI KPAE 300519Z AUTO 20007KT 10SM FEW021 OVC033 12/08 A2993 RMK AO2=
201105300519 SPECI KPAE 300519Z AUTO 20007KT 10SM FEW021 OVC033 12/08 A2993 RMK AO2=
201105300453 METAR KPAE 300453Z AUTO 23005KT 10SM BKN021 OVC028 12/08 A2993 RMK AO2 SLP136 T01220083=
201105300353 METAR KPAE 300353Z AUTO 00000KT 10SM OVC023 12/09 A2992 RMK AO2 RAB31E48 SLP134 P0000 T01170094=
201105300310 SPECI KPAE 300310Z 15004KT 10SM BKN027 BKN032 OVC043 14/08 A2992 RMK AO2=
201105300310 SPECI KPAE 300310Z 15004KT 10SM BKN027 BKN032 OVC043 14/08 A2992 RMK AO2=
201105300253 METAR KPAE 300253Z VRB04KT 10SM BKN032 BKN041 OVC055 14/07 A2992 RMK AO2 SLP133 T01390072 56003=
201105300153 METAR KPAE 300153Z 17005KT 10SM OVC036 14/07 A2992 RMK AO2 SLP132 T01440072=
201105300053 METAR KPAE 300053Z 19005KT 10SM BKN032 OVC039 15/07 A2993 RMK AO2 SLP134 T01500072=
201105292353 METAR KPAE 292353Z AUTO 20009KT 10SM BKN032 OVC040 16/07 A2993 RMK AO2 SLP135 T01560072 10161 20122 56003 TSNO=
201105292253 METAR KPAE 292253Z AUTO 25007KT 10SM FEW034 OVC045 16/08 A2993=
201105292153 METAR KPAE 292153Z 26006KT 10SM BKN039 BKN050 16/08 A2994 RMK AO2 SLP137 T01560078=
201105292053 METAR KPAE 292053Z 19003KT 10SM BKN037 BKN055 16/08 A2994 RMK AO2 SLP138 T01610078 56006=
201105291953 METAR KPAE 291953Z 30004KT 10SM FEW029 BKN035 BKN048 15/07 A2994 RMK AO2 SLP140 T01500067=
201105291853 METAR KPAE 291853Z 00000KT 10SM OVC046 14/07 A2995 RMK AO2 SLP143 T01390067=
201105291753 METAR KPAE 291753Z 24005KT 10SM BKN026 OVC043 13/06 A2996 RMK AO2 SLP146 T01280056 10128 20100 58000=
201105291729 SPECI KPAE 291729Z 27004KT 10SM BKN026 OVC043 12/06 A2996 RMK AO2=
201105291729 SPECI KPAE 291729Z 27004KT 10SM BKN026 OVC043 12/06 A2996 RMK AO2=
201105291653 METAR KPAE 291653Z 23005KT 10SM OVC043 12/07 A2996 RMK AO2 SLP147 T01170067=
201105291636 SPECI KPAE 291636Z 23005KT 10SM SCT027 OVC043 12/07 A2996 RMK AO2=
201105291636 SPECI KPAE 291636Z 23005KT 10SM SCT027 OVC043 12/07 A2996 RMK AO2=
201105291553 METAR KPAE 291553Z 25006KT 10SM BKN027 OVC040 11/07 A2997 RMK AO2 SLP148 T01110072=
201105291453 METAR KPAE 291453Z 00000KT 10SM OVC038 11/06 A2996 RMK AO2 SLP146 T01060061 53005=
201105291413 SPECI KPAE 291413Z 00000KT 10SM FEW024 BKN031 OVC040 11/06 A2996 RMK AO2=
201105291413 SPECI KPAE 291413Z 00000KT 10SM FEW024 BKN031 OVC040 11/06 A2996 RMK AO2=
201105291353 METAR KPAE 291353Z 00000KT 10SM BKN024 BKN031 OVC040 11/06 A2996 RMK AO2 SLP145 T01060056=
201105291253 METAR KPAE 291253Z AUTO 00000KT 10SM OVC042 10/06 A2995 RMK AO2 SLP142 T01000061=
201105291153 METAR KPAE 291153Z AUTO 00000KT 10SM OVC049 11/06 A2995 RMK AO2 SLP141 T01060056 10106 20100 55000=
201105291053 METAR KPAE 291053Z AUTO 00000KT 10SM BKN045 OVC050 11/05 A2995=
201105290953 METAR KPAE 290953Z AUTO 36003KT 10SM OVC050 11/05 A2994 RMK AO2 SLP141 T01060050=
201105290853 METAR KPAE 290853Z AUTO 01004KT 10SM OVC050 11/06 A2995 RMK AO2 SLP141 T01060056 56004=
201105290753 METAR KPAE 290753Z AUTO 02004KT 10SM OVC050 11/06 A2995 RMK AO2 SLP141 T01060061 401440072=
201105290653 METAR KPAE 290653Z AUTO 36004KT 10SM BKN075 OVC100 10/06 A2995 RMK AO2 SLP143 T01000061=
201105290553 METAR KPAE 290553Z AUTO 36005KT 10SM SCT080 OVC110 10/06 A2996 RMK AO2 SLP146 T01000056 10144 20100 53003=
201105290453 METAR KPAE 290453Z AUTO 35004KT 10SM FEW090 OVC110 11/04 A2996=
201105290353 METAR KPAE 290353Z 34005KT 10SM SCT110 11/06 A2995 RMK AO2 SLP144 T01110056=
201105290253 METAR KPAE 290253Z 33006KT 10SM CLR 12/06 A2995 RMK AO2 SLP143 T01220056 55000=
201105290153 METAR KPAE 290153Z 33006KT 10SM CLR 12/06 A2995 RMK AO2 SLP143 T01220061=
201105290053 METAR KPAE 290053Z 33010G15KT 10SM FEW055 14/06 A2995 RMK AO2 SLP142 T01390056=
201105282353 METAR KPAE 282353Z 34010G15KT 10SM SCT055 13/04 A2995 RMK AO2 SLP143 T01330044 10144 20106 55005=
201105282253 METAR KPAE 282253Z 01008KT 10SM FEW050 14/06 A2995 RMK AO2 SLP142 T01440056=
201105282153 METAR KPAE 282153Z 35007KT 10SM FEW095 14/06 A2996 RMK AO2 SLP144 T01390061=
201105282053 METAR KPAE 282053Z 29007KT 10SM SCT022 13/06 A2997 RMK AO2 SLP148 T01280056 58003=
201105281953 METAR KPAE 281953Z 29006KT 10SM SCT024 BKN050 12/06 A2997 RMK AO2 SLP151 T01170056=
201105281853 METAR KPAE 281853Z 28004KT 10SM FEW050 SCT100 11/06 A2998 RMK AO2 SLP153 T01110056=
201105281753 METAR KPAE 281753Z VRB04KT 10SM FEW018 SCT050 11/04 A2998 RMK AO2 SLP152 T01060044 10106 20078 58001=
201105281653 METAR KPAE 281653Z 23005KT 10SM SCT015 BKN050 09/05 A2998 RMK AO2 SLP154 T00940050=
201105281600 SPECI KPAE 281600Z 27005KT 10SM FEW009 OVC048 08/06 A2999 RMK AO2=
201105281600 SPECI KPAE 281600Z 27005KT 10SM FEW009 OVC048 08/06 A2999 RMK AO2=
201105281553 METAR KPAE 281553Z 25005KT 10SM SCT009 OVC015 09/06 A2999 RMK AO2 SLP156 T00890056=
201105281453 METAR KPAE 281453Z 25005KT 10SM SCT009 OVC015 08/06 A2998=
201105281353 METAR KPAE 281353Z 22003KT 10SM SCT009 OVC012 08/06 A2997 RMK AO2 SLP151 T00780056=
201105281340 SPECI KPAE 281340Z AUTO 21003KT 10SM BKN009 08/06 A2997 RMK AO2 CIG 007V012=
201105281340 SPECI KPAE 281340Z AUTO 21003KT 10SM BKN009 08/06 A2997 RMK AO2 CIG 007V012=
201105281315 SPECI KPAE 281315Z AUTO 17005KT 10SM BKN013 08/05 A2997 RMK AO2=
201105281315 SPECI KPAE 281315Z AUTO 17005KT 10SM BKN013 08/05 A2997 RMK AO2=
201105281253 METAR KPAE 281253Z AUTO VRB03KT 10SM BKN017 08/05 A2997 RMK AO2 SLP150 T00780050=
201105281153 METAR KPAE 281153Z AUTO 21005KT 10SM OVC015 08/06 A2997=
201105281053 METAR KPAE 281053Z AUTO 21005KT 10SM OVC017 08/06 A2998 RMK AO2 SLP152 T00830056=
201105281017 SPECI KPAE 281017Z AUTO 20004KT 10SM BKN017 OVC050 08/06 A2997 RMK AO2=
201105281017 SPECI KPAE 281017Z AUTO 20004KT 10SM BKN017 OVC050 08/06 A2997 RMK AO2=
201105280953 METAR KPAE 280953Z AUTO 21006KT 10SM OVC050 08/06 A2998 RMK AO2 SLP151 T00830056=
201105280853 METAR KPAE 280853Z AUTO 20008KT 10SM CLR 08/06 A2997 RMK AO2 SLP151 60000 T00780056 50001=
201105280753 METAR KPAE 280753Z AUTO 20008KT 10SM CLR 08/06 A2997 RMK AO2 SLP151 T00780056 401440078=
201105280653 METAR KPAE 280653Z AUTO 18006KT 10SM FEW090 09/07 A2997 RMK AO2 RAE07 SLP150 P0000 T00890067=
201105280553 METAR KPAE 280553Z AUTO 00000KT 10SM -RA FEW029 OVC065 09/07 A2997 RMK AO2 RAB06E18B50 SLP151 P0001 60009 T00890067 10111 20089 50005=
201105280500 SPECI KPAE 280500Z AUTO 11004KT 10SM SCT020 BKN060 09/07 A2997 RMK AO2=
201105280500 SPECI KPAE 280500Z AUTO 11004KT 10SM SCT020 BKN060 09/07 A2997 RMK AO2=
201105280453 METAR KPAE 280453Z AUTO 11004KT 10SM BKN020 OVC060 09/06 A2997=
201105280400 SPECI KPAE 280400Z AUTO 23005KT 10SM BKN022 BKN030 10/07 A2996 RMK AO2=
201105280400 SPECI KPAE 280400Z AUTO 23005KT 10SM BKN022 BKN030 10/07 A2996 RMK AO2=
201105280353 METAR KPAE 280353Z AUTO 21005KT 10SM SCT024 BKN032 BKN044 10/06 A2996 RMK AO2 SLP148 T01000061=
201105280253 METAR KPAE 280253Z 26006KT 10SM FEW016 BKN050 11/07 A2996 RMK AO2 SLP145 60008 T01110072 55002=
201105280153 METAR KPAE 280153Z VRB04KT 10SM FEW016 SCT090 11/08 A2995 RMK AO2 RAE0058 SLP143 P0000 T01110078=
201105280053 METAR KPAE 280053Z 15005KT 10SM -RA BKN037 OVC055 10/07 A2996 RMK AO2 SLP147 P0008 T01000067=
201105280039 SPECI KPAE 280039Z 16004KT 10SM -RA BKN031 OVC041 09/07 A2996 RMK AO2 P0008=
201105280039 SPECI KPAE 280039Z 16004KT 10SM -RA BKN031 OVC041 09/07 A2996 RMK AO2 P0008=
201105280033 SPECI KPAE 280033Z 00000KT 2 1/2SM R16R/5500VP6000FT RA BKN029 OVC041 09/07 A2996 RMK AO2 P0007=
201105280033 SPECI KPAE 280033Z 00000KT 2 1/2SM R16R/5500VP6000FT RA BKN029 OVC041 09/07 A2996 RMK AO2 P0007=
201105272353 METAR KPAE 272353Z 29007KT 7SM R16R/5500VP6000FT -RA BKN036 10/07 A2996 RMK AO2 RAE18B51 SLP149 P0009 60009 T01000067 10144 20094 51009=
201105272253 METAR KPAE 272253Z 28008G18KT 10SM -RA OVC040 10/06 A2996 RMK AO2 RAB49 SLP146 P0000 T01000056=
201105272153 METAR KPAE 272153Z 21009KT 10SM BKN042 BKN060 13/03 A2995 RMK AO2 SLP141 T01330033=
201105272053 METAR KPAE 272053Z 19014G19KT 10SM FEW038 SCT048 BKN065 14/04 A2994 RMK AO2 SLP138 T01440044 53005=
201105271953 METAR KPAE 271953Z 21010G17KT 10SM SCT036 BKN042 13/04 A2992 RMK AO2 SLP134 T01330039=
201105271853 METAR KPAE 271853Z 18012KT 10SM FEW026 SCT031 SCT042 13/04 A2992 RMK AO2 SLP132 T01280044=
201105271835 SPECI KPAE 271835Z 17012G19KT 150V210 10SM BKN026 BKN034 OVC043 12/04 A2992 RMK AO2=
201105271835 SPECI KPAE 271835Z 17012G19KT 150V210 10SM BKN026 BKN034 OVC043 12/04 A2992 RMK AO2=
201105271753 METAR KPAE 271753Z 19011KT 10SM SCT026 BKN033 OVC045 11/05 A2992 RMK AO2 SLP132 T01110050 10111 20089 51016=
201105271653 METAR KPAE 271653Z 18013G21KT 10SM SCT025 BKN032 OVC110 11/04 A2991 RMK AO2 SLP128 T01060044=
201105271553 METAR KPAE 271553Z 18015G20KT 10SM BKN020 BKN095 10/04 A2989 RMK AO2 SLP124 T01000044=
201105271453 METAR KPAE 271453Z 19012G18KT 10SM SCT021 BKN090 10/06 A2987 RMK AO2 SLP116 T01000056 53015=
201105271353 METAR KPAE 271353Z 18011KT 10SM FEW019 BKN065 OVC095 09/06 A2986 RMK AO2 SLP112 T00940056=
201105271253 METAR KPAE 271253Z AUTO 17014KT 10SM FEW070 OVC110 09/04 A2984 RMK AO2 SLP104 T00890044=
201105271153 METAR KPAE 271153Z AUTO 18011KT 10SM FEW021 BKN043 OVC110 09/06 A2983 RMK AO2 RAE29 SLP101 P0000 60000 70001 T00940061 10100 20089 51001=
201105271101 SPECI KPAE 271101Z AUTO 15008KT 10SM -RA OVC025 09/06 A2982 RMK AO2 P0000=
201105271101 SPECI KPAE 271101Z AUTO 15008KT 10SM -RA OVC025 09/06 A2982 RMK AO2 P0000=
201105271053 METAR KPAE 271053Z AUTO VRB05KT 10SM -RA SCT025 OVC033 09/06 A2983 RMK AO2 RAB20 SLP099 P0000 T00940061=
201105271048 SPECI KPAE 271048Z AUTO VRB04KT 10SM -RA BKN027 OVC033 09/06 A2983 RMK AO2 RAB20 P0000=
201105271048 SPECI KPAE 271048Z AUTO VRB04KT 10SM -RA BKN027 OVC033 09/06 A2983 RMK AO2 RAB20 P0000=
201105270953 METAR KPAE 270953Z AUTO 11007KT 10SM OVC038 09/06 A2983 RMK AO2 SLP101 T00940056=
201105270853 METAR KPAE 270853Z AUTO 12007KT 10SM BKN043 BKN055 OVC070 09/06 A2984 RMK AO2 SLP105 T00940061 58014=
201105270753 METAR KPAE 270753Z AUTO VRB03KT 10SM BKN035 OVC045 10/06 A2986 RMK AO2 SLP113 T01000061 401560072=
201105270653 METAR KPAE 270653Z AUTO VRB05KT 10SM SCT039 BKN046 OVC110 10/06 A2988 RMK AO2 SLP118 T01000061=
201105270553 METAR KPAE 270553Z AUTO VRB03KT 10SM CLR 10/07 A2988 RMK AO2 SLP119 T01000067 10144 20100 58003=
201105270453 METAR KPAE 270453Z AUTO 17010KT 10SM FEW039 SCT047 BKN055 11/06 A2989 RMK AO2 SLP122 T01060061=
201105270353 METAR KPAE 270353Z AUTO 19010KT 10SM FEW044 SCT055 OVC080 11/06 A2989 RMK AO2 SLP122 T01110061=
201105270253 METAR KPAE 270253Z 18011KT 10SM OVC070 12/05 A2989 RMK AO2 SLP122 T01220050 58003=
201105270153 METAR KPAE 270153Z 19012G19KT 10SM FEW035 BKN070 OVC095 13/05 A2990 RMK AO2 SLP124 T01330050=
201105270053 METAR KPAE 270053Z 19014KT 10SM BKN070 13/04 A2990 RMK AO2 SLP125 T01330039=
201105262353 METAR KPAE 262353Z 21014G19KT 10SM SCT049 BKN090 14/04 A2990 RMK AO2 SLP126 T01440039 10156 20122 56007=
201105262253 METAR KPAE 262253Z 21012KT 10SM SCT049 16/04 A2990 RMK AO2 PK WND 19027/2232 SLP126 T01560044=
201105262153 METAR KPAE 262153Z 20016G23KT 10SM SCT080 BKN090 14/04 A2991 RMK AO2 SLP128 T01390039=
201105262053 METAR KPAE 262053Z 19018G23KT 10SM SCT036 14/04 A2992 RMK AO2 SLP133 T01440044 58003=
201105261953 METAR KPAE 261953Z 18015G22KT 10SM BKN036 14/04 A2993 RMK AO2 PK WND 20028/1914 SLP135 T01390044=
201105261853 METAR KPAE 261853Z 18017G22KT 10SM SCT034 13/04 A2993 RMK AO2 SLP137 T01330039=
201105261753 METAR KPAE 261753Z 18018G26KT 10SM SCT029 12/04 A2993 RMK AO2 PK WND 19026/1745 SLP136 60001 T01170044 10117 20072 55003=
201105261653 METAR KPAE 261653Z 19017KT 10SM SCT023 11/05 A2993=
201105261553 METAR KPAE 261553Z 19013KT 10SM BKN020 09/05 A2993 RMK AO2 SLP138 T00940050=
201105261506 SPECI KPAE 261506Z 19011KT 10SM SCT009 BKN017 BKN095 08/06 A2994 RMK AO2=
201105261506 SPECI KPAE 261506Z 19011KT 10SM SCT009 BKN017 BKN095 08/06 A2994 RMK AO2=
201105261453 METAR KPAE 261453Z 19011KT 10SM CLR 08/05 A2994 RMK AO2 SLP140 60001 T00830050 50004=
201105261401 SPECI KPAE 261401Z 18008KT 10SM FEW026 OVC034 08/05 A2994 RMK AO2=
201105261401 SPECI KPAE 261401Z 18008KT 10SM FEW026 OVC034 08/05 A2994 RMK AO2=
201105261353 METAR KPAE 261353Z 18010KT 10SM FEW010 BKN024 BKN036 07/05 A2994 RMK AO2 RAB34E48 SLP141 P0000 T00720050=
201105261337 SPECI KPAE 261337Z AUTO 18010KT 8SM -RA BKN024 OVC036 07/05 A2994 RMK AO2 RAB34 P0000=
201105261337 SPECI KPAE 261337Z AUTO 18010KT 8SM -RA BKN024 OVC036 07/05 A2994 RMK AO2 RAB34 P0000=
201105261322 SPECI KPAE 261322Z AUTO 19008KT 10SM FEW022 SCT030 OVC036 07/05 A2994 RMK AO2=
201105261322 SPECI KPAE 261322Z AUTO 19008KT 10SM FEW022 SCT030 OVC036 07/05 A2994 RMK AO2=
201105261253 METAR KPAE 261253Z AUTO 20006KT 10SM FEW022 OVC029 07/05 A2993 RMK AO2 RAE1159 SLP136 P0001 T00720050=
201105261248 SPECI KPAE 261248Z AUTO 19007KT 10SM SCT024 OVC031 07/05 A2993 RMK AO2 RAE1159 P0001=
201105261248 SPECI KPAE 261248Z AUTO 19007KT 10SM SCT024 OVC031 07/05 A2993 RMK AO2 RAE1159 P0001=
201105261153 METAR KPAE 261153Z AUTO 21008KT 10SM -RA BKN022 OVC027 07/05 A2992 RMK AO2 RAB1055E06B47 SLP132 P0000 60006 70028 T00720050 10094 20072 51016=
201105261053 METAR KPAE 261053Z AUTO 20010KT 10SM OVC022 07/05 A2991 RMK AO2 RAB0958E51 SLP130 P0006 T00720050=
201105260953 METAR KPAE 260953Z AUTO 19011KT 10SM OVC028 08/04 A2989 RMK AO2 SLP122 T00830039=
201105260932 SPECI KPAE 260932Z AUTO 18012KT 10SM BKN028 OVC055 08/04 A2988 RMK AO2=
201105260932 SPECI KPAE 260932Z AUTO 18012KT 10SM BKN028 OVC055 08/04 A2988 RMK AO2=
201105260853 METAR KPAE 260853Z AUTO 18012G21KT 10SM SCT080 08/04 A2987 RMK AO2 SLP116 T00830039 52007=
201105260753 METAR KPAE 260753Z AUTO 18013G22KT 10SM SCT075 08/04 A2987 RMK AO2 SLP115 T00830044 401220083=
201105260653 METAR KPAE 260653Z AUTO 18015G24KT 10SM FEW016 BKN120 09/06 A2985 RMK AO2 SLP110 T00890056=
201105260553 METAR KPAE 260553Z AUTO 18013KT 10SM BKN110 09/06 A2985 RMK AO2 SLP108 60005 T00940056 10117 20094 53004=
201105260453 METAR KPAE 260453Z AUTO 17012KT 10SM FEW055 OVC095 09/07 A2984 RMK AO2 SLP105 T00940067=
201105260431 SPECI KPAE 260431Z AUTO 18011G18KT 10SM SCT011 BKN050 09/07 A2983 RMK AO2=
201105260431 SPECI KPAE 260431Z AUTO 18011G18KT 10SM SCT011 BKN050 09/07 A2983 RMK AO2=
201105260421 SPECI KPAE 260421Z AUTO 17012KT 10SM FEW009 BKN013 BKN050 10/07 A2983 RMK AO2=
201105260421 SPECI KPAE 260421Z AUTO 17012KT 10SM FEW009 BKN013 BKN050 10/07 A2983 RMK AO2=
201105260412 SPECI KPAE 260412Z AUTO 17011G18KT 10SM OVC013 10/07 A2983 RMK AO2=
201105260412 SPECI KPAE 260412Z AUTO 17011G18KT 10SM OVC013 10/07 A2983 RMK AO2=
201105260405 SPECI KPAE 260405Z AUTO 17013G19KT 10SM BKN009 BKN013 OVC020 10/08 A2984 RMK AO2=
201105260405 SPECI KPAE 260405Z AUTO 17013G19KT 10SM BKN009 BKN013 OVC020 10/08 A2984 RMK AO2=
201105260400 SPECI KPAE 260400Z AUTO 17013G19KT 10SM BKN013 BKN020 OVC070 10/08 A2984 RMK AO2=
201105260400 SPECI KPAE 260400Z AUTO 17013G19KT 10SM BKN013 BKN020 OVC070 10/08 A2984 RMK AO2=
201105260353 METAR KPAE 260353Z AUTO 18014G19KT 10SM SCT010 BKN016 OVC070 10/08 A2983 RMK AO2 RAE24 SLP103 P0000 T01000078=
201105260349 SPECI KPAE 260349Z AUTO 17011G19KT 10SM BKN010 BKN018 OVC065 10/08 A2983 RMK AO2 RAE24 P0000=
201105260349 SPECI KPAE 260349Z AUTO 17011G19KT 10SM BKN010 BKN018 OVC065 10/08 A2983 RMK AO2 RAE24 P0000=
201105260253 METAR KPAE 260253Z 18012KT 10SM -RA OVC049 10/07 A2981 RMK AO2 SLP096 P0003 60005 T01000072 51011=
201105260214 SPECI KPAE 260214Z 19014KT 10SM -RA SCT007 BKN012 OVC046 11/08 A2981 RMK AO2 P0001=
201105260214 SPECI KPAE 260214Z 19014KT 10SM -RA SCT007 BKN012 OVC046 11/08 A2981 RMK AO2 P0001=
201105260153 METAR KPAE 260153Z 18011G16KT 9SM -RA BKN007 OVC046 11/09 A2981 RMK AO2 SLP095 P0002 T01110094=
201105260053 METAR KPAE 260053Z 16011KT 10SM -RA SCT005 BKN015 BKN035 11/09 A2980 RMK AO2 SLP090 P0000 T01110094=
201105252353 METAR KPAE 252353Z 17011KT 10SM -RA SCT005 BKN015 BKN035 12/09 A2978 RMK AO2 SLP084 P0003 60017 T01170094 10122 20106 56006=
201105252253 METAR KPAE 252253Z 18010KT 5SM -RA BR BKN006 BKN010 OVC048 12/09 A2979 RMK AO2 SLP086 P0003 T01170094=
201105252153 METAR KPAE 252153Z 25004KT 4SM -RA BR BKN004 BKN007 OVC014 12/10 A2979 RMK AO2 SLP087 P0002 T01170100=
201105252053 METAR KPAE 252053Z 22003KT 4SM -RA BR BKN007 BKN019 OVC055 11/09 A2980 RMK AO2 SLP090 P0003 60009 T01110094 51003=
201105251953 METAR KPAE 251953Z 30003KT 4SM -RA BR BKN007 OVC040 11/09 A2979 RMK AO2 SLP088 P0005 T01060089=
201105251919 SPECI KPAE 251919Z 22005KT 4SM -RA BR BKN007 OVC040 11/09 A2980 RMK AO2 P0003=
201105251919 SPECI KPAE 251919Z 22005KT 4SM -RA BR BKN007 OVC040 11/09 A2980 RMK AO2 P0003=
201105251853 METAR KPAE 251853Z 24006KT 4SM -RA BR FEW006 SCT041 OVC060 11/09 A2980 RMK AO2 RAB1757 SLP091 P0001 T01060089=
201105251753 METAR KPAE 251753Z 22006KT 10SM FEW011 BKN060 12/08 A2979 RMK AO2 SLP086 T01170083 10117 20100 50005=
201105251705 SPECI KPAE 251705Z 00000KT 10SM FEW009 SCT070 SCT085 11/08 A2979 RMK AO2=
201105251705 SPECI KPAE 251705Z 00000KT 10SM FEW009 SCT070 SCT085 11/08 A2979 RMK AO2=
201105251653 METAR KPAE 251653Z 34004KT 9SM BKN009 BKN080 11/08 A2979 RMK AO2 SLP088 T01110083=
201105251638 SPECI KPAE 251638Z 00000KT 10SM FEW007 SCT065 BKN085 11/08 A2979 RMK AO2=
201105251638 SPECI KPAE 251638Z 00000KT 10SM FEW007 SCT065 BKN085 11/08 A2979 RMK AO2=
201105251553 METAR KPAE 251553Z 34005KT 10SM BKN070 BKN085 11/08 A2979 RMK AO2 SLP086 T01060083=
201105251453 METAR KPAE 251453Z 01007KT 10SM BKN070 11/08 A2977 RMK AO2 SLP081 T01060078 58027=
201105251353 METAR KPAE 251353Z AUTO 36005KT 10SM FEW004 SCT100 10/08 A2982 RMK AO2 SLP099 T01000083=
201105251313 SPECI KPAE 251313Z AUTO VRB03KT 10SM FEW004 SCT110 10/08 A2984 RMK AO2=
201105251313 SPECI KPAE 251313Z AUTO VRB03KT 10SM FEW004 SCT110 10/08 A2984 RMK AO2=
201105251253 METAR KPAE 251253Z AUTO 36003KT 10SM SCT110 10/08 A2984 RMK AO2 SLP105 T01000083=
201105251153 METAR KPAE 251153Z AUTO 36003KT 10SM FEW110 11/07 A2985 RMK AO2 SLP109 T01060072 10133 20100 58019=
201105251053 METAR KPAE 251053Z AUTO 01003KT 10SM SCT110 11/08 A2988 RMK AO2 SLP117 T01060083=
201105250953 METAR KPAE 250953Z AUTO 36003KT 10SM CLR 11/08 A2989 RMK AO2 SLP121 T01060078=
201105250853 METAR KPAE 250853Z AUTO 00000KT 10SM CLR 11/07 A2991 RMK AO2 SLP128 T01060072 56018=
201105250753 METAR KPAE 250753Z AUTO 00000KT 10SM CLR 11/07 A2993 RMK AO2 SLP135 T01110072 401720083=
201105250653 METAR KPAE 250653Z AUTO 02003KT 10SM CLR 12/07 A2994 RMK AO2 SLP140 T01170067=
201105250553 METAR KPAE 250553Z AUTO 04003KT 10SM CLR 13/06 A2996 RMK AO2 SLP147 T01330061 10172 20128 58009=
201105250453 METAR KPAE 250453Z AUTO 00000KT 10SM CLR 13/06 A2998 RMK AO2 SLP152 T01330056=
201105250353 METAR KPAE 250353Z AUTO 00000KT 10SM CLR 14/05 A2998 RMK AO2 SLP153 T01440050=
201105250253 METAR KPAE 250253Z 01004KT 10SM CLR 16/06 A2999 RMK AO2 SLP155 T01560056 56013=
201105250153 METAR KPAE 250153Z 00000KT 10SM SCT044 17/05 A2999 RMK AO2 SLP156 T01670050=
201105250053 METAR KPAE 250053Z 00000KT 10SM SCT050 17/06 A3001 RMK AO2 SLP161 T01670056=
201105242353 METAR KPAE 242353Z 25003KT 10SM FEW045 OVC055 15/06 A3003 RMK AO2 SLP169 T01500056 10161 20106 58010=
201105242253 METAR KPAE 242253Z 32003KT 10SM SCT049 OVC060 15/06 A3004 RMK AO2 SLP173 T01500061=
201105242153 METAR KPAE 242153Z 27004KT 10SM BKN046 OVC055 14/06 A3005 RMK AO2 SLP177 T01440061=
201105242053 METAR KPAE 242053Z VRB04KT 10SM SCT045 15/05 A3006 RMK AO2 SLP180 T01500050 58007=
201105241953 METAR KPAE 241953Z 00000KT 10SM SCT021 BKN030 13/06 A3007 RMK AO2 SLP184 T01330056=
201105241853 METAR KPAE 241853Z 00000KT 10SM SCT024 BKN031 12/08 A3008 RMK AO2 SLP185 T01220078=
201105241839 SPECI KPAE 241839Z 00000KT 10SM SCT016 BKN024 11/08 A3007 RMK AO2=
201105241839 SPECI KPAE 241839Z 00000KT 10SM SCT016 BKN024 11/08 A3007 RMK AO2=
201105241825 SPECI KPAE 241825Z 28004KT 10SM OVC014 11/08 A3007 RMK AO2=
201105241825 SPECI KPAE 241825Z 28004KT 10SM OVC014 11/08 A3007 RMK AO2=
201105241818 SPECI KPAE 241818Z 27004KT 10SM OVC146 11/07 A3008 RMK AO2=
201105241818 SPECI KPAE 241818Z 27004KT 10SM OVC146 11/07 A3008 RMK AO2=
201105241753 METAR KPAE 241753Z 15006KT 10SM OVC014 11/07 A3008 RMK AO2 SLP187 T01060067 10106 20089 50000=
201105241717 SPECI KPAE 241717Z 17006KT 10SM OVC012 11/07 A3008 RMK AO2=
201105241717 SPECI KPAE 241717Z 17006KT 10SM OVC012 11/07 A3008 RMK AO2=
201105241653 METAR KPAE 241653Z VRB03KT 10SM OVC008 10/07 A3008 RMK AO2 SLP186 T01000067=
201105241553 METAR KPAE 241553Z 00000KT 10SM OVC008 09/07 A3009 RMK AO2 SLP189 T00940072=
201105241453 METAR KPAE 241453Z 00000KT 10SM SCT008 BKN014 OVC042 09/07 A3008 RMK AO2 SLP187 T00940072 51005=
201105241419 SPECI KPAE 241419Z 00000KT 10SM SCT008 BKN013 OVC040 09/07 A3008 RMK AO2=
201105241419 SPECI KPAE 241419Z 00000KT 10SM SCT008 BKN013 OVC040 09/07 A3008 RMK AO2=
201105241407 SPECI KPAE 241407Z 00000KT 10SM BKN008 BKN015 OVC021 09/07 A3008 RMK AO2=
201105241407 SPECI KPAE 241407Z 00000KT 10SM BKN008 BKN015 OVC021 09/07 A3008 RMK AO2=
201105241353 METAR KPAE 241353Z 25006KT 10SM SCT008 OVC021 09/07 A3008 RMK AO2 SLP185 T00890067=
201105241349 SPECI KPAE 241349Z 25006KT 10SM SCT008 BKN021 OVC075 09/07 A3008 RMK AO2=
201105241349 SPECI KPAE 241349Z 25006KT 10SM SCT008 BKN021 OVC075 09/07 A3008 RMK AO2=
201105241340 SPECI KPAE 241340Z 21003KT 10SM BKN021 BKN035 OVC075 09/07 A3007 RMK AO2=
201105241340 SPECI KPAE 241340Z 21003KT 10SM BKN021 BKN035 OVC075 09/07 A3007 RMK AO2=
201105241253 METAR KPAE 241253Z AUTO 00000KT 10SM BKN037 OVC044 09/06 A3007 RMK AO2 SLP182 T00940061=
201105241153 METAR KPAE 241153Z AUTO 00000KT 10SM FEW034 SCT090 OVC110 09/07 A3007 RMK AO2 SLP181 T00940067 10100 20083 56002=
201105241053 METAR KPAE 241053Z AUTO 00000KT 10SM CLR 08/06 A3007=
201105240953 METAR KPAE 240953Z AUTO 00000KT 10SM FEW065 BKN120 09/07 A3007 RMK AO2 SLP183 T00890067=
201105240853 METAR KPAE 240853Z AUTO 32003KT 10SM OVC065 09/06 A3007 RMK AO2 SLP184 T00890061 55001=
201105240753 METAR KPAE 240753Z AUTO 02004KT 10SM CLR 09/07 A3007 RMK AO2 SLP184 T00940067 401560078=
201105240653 METAR KPAE 240653Z AUTO 01005KT 10SM CLR 09/07 A3007 RMK AO2 SLP184 T00940067=
201105240553 METAR KPAE 240553Z AUTO 01004KT 10SM CLR 10/07 A3008 RMK AO2 SLP186 T01000067 10156 20100 50004=
201105240453 METAR KPAE 240453Z AUTO 02003KT 10SM CLR 11/06 A3008 RMK AO2 SLP187 T01060056=
201105240353 METAR KPAE 240353Z AUTO 01003KT 10SM CLR 11/07 A3007 RMK AO2 SLP184 T01110067=
201105240253 METAR KPAE 240253Z 32004KT 10SM FEW120 14/04 A3006 RMK AO2 SLP181 T01390039 53000=
201105240153 METAR KPAE 240153Z 30006KT 10SM SCT040 14/04 A3006=
201105240053 METAR KPAE 240053Z VRB04KT 10SM OVC055 14/05 A3006 RMK AO2 SLP180 T01440050=
201105232353 METAR KPAE 232353Z 07007KT 10SM BKN043 16/05 A3006 RMK AO2 SLP180 T01560050 10156 20100 56008=
201105232253 METAR KPAE 232253Z VRB04KT 10SM BKN070 15/04 A3007 RMK AO2 SLP182 T01500039=
201105232153 METAR KPAE 232153Z 31005KT 10SM BKN034 BKN042 14/06 A3008 RMK AO2 SLP185 T01390056=
201105232053 METAR KPAE 232053Z 00000KT 10SM FEW028 BKN034 BKN042 12/05 A3009 RMK AO2 SLP189 T01220050 58003=
201105232034 SPECI KPAE 232034Z 00000KT 10SM BKN028 BKN042 12/05 A3009 RMK AO2=
201105232034 SPECI KPAE 232034Z 00000KT 10SM BKN028 BKN042 12/05 A3009 RMK AO2=
201105231953 METAR KPAE 231953Z 00000KT 10SM SCT026 BKN044 12/05 A3009 RMK AO2 SLP190 T01220050=
201105231900 SPECI KPAE 231900Z 00000KT 10SM SCT026 OVC041 11/05 A3010 RMK AO2=
201105231900 SPECI KPAE 231900Z 00000KT 10SM SCT026 OVC041 11/05 A3010 RMK AO2=
201105231853 METAR KPAE 231853Z 00000KT 10SM BKN025 BKN032 11/06 A3010 RMK AO2 SLP194 T01110056=
201105231753 METAR KPAE 231753Z 00000KT 10SM BKN021 BKN032 OVC070 10/06 A3010 RMK AO2 SLP193 T01000056 10106 20078 51003=
201105231653 METAR KPAE 231653Z 00000KT 10SM BKN016 BKN032 OVC070 10/05 A3009=
201105231553 METAR KPAE 231553Z 00000KT 10SM BKN016 BKN032 OVC070 10/04 A3009 RMK AO2 SLP192 T01000044=
201105231453 METAR KPAE 231453Z 03003KT 10SM SCT014 BKN036 BKN070 09/05 A3009 RMK AO2 SLP190 T00890050 53006=
201105231353 METAR KPAE 231353Z 00000KT 10SM FEW030 BKN036 OVC070 09/05 A3008 RMK AO2 SLP188 T00890050=
201105231308 SPECI KPAE 231308Z AUTO 00000KT 10SM BKN030 OVC036 08/05 A3007 RMK AO2=
201105231308 SPECI KPAE 231308Z AUTO 00000KT 10SM BKN030 OVC036 08/05 A3007 RMK AO2=
201105231253 METAR KPAE 231253Z AUTO 00000KT 10SM BKN028 OVC038 08/06 A3007 RMK AO2 SLP184 T00830056=
201105231250 SPECI KPAE 231250Z AUTO 00000KT 10SM BKN028 OVC038 08/06 A3007 RMK AO2=
201105231250 SPECI KPAE 231250Z AUTO 00000KT 10SM BKN028 OVC038 08/06 A3007 RMK AO2=
201105231153 METAR KPAE 231153Z AUTO 00000KT 10SM FEW029 BKN038 OVC070 08/06 A3007 RMK AO2 SLP184 70007 T00830056 10089 20083 56001=
201105231117 SPECI KPAE 231117Z AUTO 00000KT 10SM BKN031 OVC040 08/06 A3007 RMK AO2=
201105231117 SPECI KPAE 231117Z AUTO 00000KT 10SM BKN031 OVC040 08/06 A3007 RMK AO2=
201105231053 METAR KPAE 231053Z AUTO 00000KT 10SM BKN029 BKN039 OVC060 08/06 A3007 RMK AO2 SLP184 T00830056=
201105231048 SPECI KPAE 231048Z AUTO 00000KT 10SM BKN029 BKN037 OVC060 08/05 A3007 RMK AO2=
201105231048 SPECI KPAE 231048Z AUTO 00000KT 10SM BKN029 BKN037 OVC060 08/05 A3007 RMK AO2=
201105231004 SPECI KPAE 231004Z AUTO 35003KT 10SM FEW028 BKN036 OVC055 08/05 A3007 RMK AO2=
201105231004 SPECI KPAE 231004Z AUTO 35003KT 10SM FEW028 BKN036 OVC055 08/05 A3007 RMK AO2=
201105230953 METAR KPAE 230953Z AUTO VRB03KT 10SM BKN028 OVC034 08/05 A3007 RMK AO2 SLP185 T00830050=
201105230951 SPECI KPAE 230951Z AUTO 35003KT 10SM OVC031 08/05 A3007 RMK AO2=
201105230951 SPECI KPAE 230951Z AUTO 35003KT 10SM OVC031 08/05 A3007 RMK AO2=
201105230936 SPECI KPAE 230936Z AUTO 35004KT 10SM BKN029 OVC047 08/05 A3008 RMK AO2=
201105230936 SPECI KPAE 230936Z AUTO 35004KT 10SM BKN029 OVC047 08/05 A3008 RMK AO2=
201105230853 METAR KPAE 230853Z AUTO 35003KT 10SM FEW031 BKN048 OVC055 08/05 A3008 RMK AO2 SLP187 T00830050 53000=
201105230753 METAR KPAE 230753Z AUTO 35004KT 10SM OVC043 08/05 A3007 RMK AO2 SLP186 T00830050 401220078=
201105230653 METAR KPAE 230653Z AUTO 00000KT 10SM BKN033 OVC048 08/05 A3007 RMK AO2 SLP186 T00830050=
201105230553 METAR KPAE 230553Z AUTO 35005KT 10SM SCT065 OVC075 09/04 A3008 RMK AO2 RAB27E41 SLP186 P0000 60000 T00890044 10122 20089 51006=
201105230453 METAR KPAE 230453Z AUTO 36004KT 10SM BKN039 OVC047 09/04 A3007 RMK AO2 SLP185 T00940044=
201105230353 METAR KPAE 230353Z 36005KT 10SM SCT041 OVC070 10/05 A3006 RMK AO2 SLP181 T01000050=
201105230253 METAR KPAE 230253Z 35005KT 10SM OVC065 11/05 A3006 RMK AO2 SLP180 T01060050 56003=
201105230153 METAR KPAE 230153Z 36003KT 10SM BKN060 12/06 A3006=
201105230053 METAR KPAE 230053Z COR 36005KT 10SM BKN055 11/06 A3006 RMK AO2 SLP181 T01110056=
201105222353 METAR KPAE 222353Z 36004KT 10SM BKN055 12/06 A3007 RMK AO2 SLP183 T01170061 10122 20100 58001=
201105222300 SPECI KPAE 222300Z 00000KT 10SM OVC034 11/07 A3008 RMK AO2=
201105222300 SPECI KPAE 222300Z 00000KT 10SM OVC034 11/07 A3008 RMK AO2=
201105222253 METAR KPAE 222253Z 00000KT 10SM BKN025 OVC045 11/06 A3008 RMK AO2 SLP186 T01110061=
201105222153 METAR KPAE 222153Z 00000KT 10SM BKN025 OVC045 11/06 A3008 RMK AO2 SLP186 T01110061=
201105222053 METAR KPAE 222053Z 00000KT 10SM SCT035 BKN043 OVC055 12/07 A3007 RMK AO2 SLP183 T01170067 57001=
201105221953 METAR KPAE 221953Z 00000KT 10SM SCT011 BKN033 OVC045 11/07 A3007 RMK AO2 SLP184 T01060067=
201105221853 METAR KPAE 221853Z 02003KT 10SM SCT022 BKN039 10/06 A3007 RMK AO2 SLP184 T01000056=
201105221832 SPECI KPAE 221832Z 02005KT 10SM BKN022 OVC032 10/06 A3007 RMK AO2=
201105221832 SPECI KPAE 221832Z 02005KT 10SM BKN022 OVC032 10/06 A3007 RMK AO2=
201105221822 SPECI KPAE 221822Z 02005KT 10SM SCT016 OVC034 10/06 A3007 RMK AO2=
201105221822 SPECI KPAE 221822Z 02005KT 10SM SCT016 OVC034 10/06 A3007 RMK AO2=
201105221753 METAR KPAE 221753Z 02004KT 10SM SCT010 BKN021 OVC032 10/05 A3007 RMK AO2 SLP183 60007 T01000050 10100 20078 53004=
201105221714 SPECI KPAE 221714Z 00000KT 10SM SCT010 BKN021 OVC032 10/06 A3006 RMK AO2=
201105221714 SPECI KPAE 221714Z 00000KT 10SM SCT010 BKN021 OVC032 10/06 A3006 RMK AO2=
201105221653 METAR KPAE 221653Z 00000KT 10SM BKN007 OVC014 09/06 A3006 RMK AO2 SLP182 T00940061=
201105221553 METAR KPAE 221553Z 00000KT 10SM SCT003 BKN008 OVC014 08/06 A3006 RMK AO2 RAE30 SLP182 P0001 T00830061=
201105221455 SPECI KPAE 221455Z 00000KT 1 3/4SM R16R/5000VP6000FT -RA BR BKN003 BKN011 OVC014 08/07 A3006 RMK AO2 P0000=
201105221455 SPECI KPAE 221455Z 00000KT 1 3/4SM R16R/5000VP6000FT -RA BR BKN003 BKN011 OVC014 08/07 A3006 RMK AO2 P0000=
201105221453 METAR KPAE 221453Z 00000KT 1 3/4SM R16R/5000VP6000FT -RA BR SCT003 BKN011 OVC014 08/07 A3006 RMK AO2 CIG 009V013 SLP180 P0003 60006 T00830067 53005=
201105221451 SPECI KPAE 221451Z 00000KT 1 3/4SM R16R/5000VP6000FT -RA BR SCT003 OVC011 08/07 A3006 RMK AO2 P0003=
201105221451 SPECI KPAE 221451Z 00000KT 1 3/4SM R16R/5000VP6000FT -RA BR SCT003 OVC011 08/07 A3006 RMK AO2 P0003=
201105221407 SPECI KPAE 221407Z 00000KT 2SM -RA BR OVC003 08/07 A3005 RMK AO2 P0000=
201105221407 SPECI KPAE 221407Z 00000KT 2SM -RA BR OVC003 08/07 A3005 RMK AO2 P0000=
201105221353 METAR KPAE 221353Z 00000KT 6SM -RA BR OVC007 08/07 A3005=
201105221335 SPECI KPAE 221335Z 03003KT 7SM -RA FEW004 BKN009 OVC024 08/07 A3005 RMK AO2 RAE06B26 CIG 007V012 P0001=
201105221335 SPECI KPAE 221335Z 03003KT 7SM -RA FEW004 BKN009 OVC024 08/07 A3005 RMK AO2 RAE06B26 CIG 007V012 P0001=
201105221325 SPECI KPAE 221325Z 02003KT 7SM FEW006 SCT011 OVC024 08/07 A3004 RMK AO2 RAE06 P0000=
201105221325 SPECI KPAE 221325Z 02003KT 7SM FEW006 SCT011 OVC024 08/07 A3004 RMK AO2 RAE06 P0000=
201105221317 SPECI KPAE 221317Z 03003KT 6SM BR FEW004 BKN011 OVC024 08/07 A3004 RMK AO2 RAE06 CIG 008V012 P0000=
201105221317 SPECI KPAE 221317Z 03003KT 6SM BR FEW004 BKN011 OVC024 08/07 A3004 RMK AO2 RAE06 CIG 008V012 P0000=
201105221253 METAR KPAE 221253Z 03003KT 7SM -RA FEW004 SCT008 OVC020 08/07 A3004=
201105221248 SPECI KPAE 221248Z 00000KT 7SM -RA FEW004 OVC020 08/07 A3004 RMK AO2 P0002=
201105221248 SPECI KPAE 221248Z 00000KT 7SM -RA FEW004 OVC020 08/07 A3004 RMK AO2 P0002=
201105221153 METAR KPAE 221153Z 01004KT 6SM -RA BR OVC020 08/06 A3004 RMK AO2 RAB07 SLP173 P0002 60003 70007 T00830061 10106 20083 56004=
201105221053 METAR KPAE 221053Z 01004KT 10SM OVC020 08/06 A3004 RMK AO2 RAB0957E52 SLP175 P0001 T00830061=
201105220953 METAR KPAE 220953Z 36005KT 10SM OVC018 09/06 A3004 RMK AO2 SLP175 T00890061=
201105220853 METAR KPAE 220853Z 36005KT 10SM OVC016 09/06 A3005 RMK AO2 SLP178 60000 T00940061 58003=
201105220843 SPECI KPAE 220843Z 36005KT 10SM OVC016 09/06 A3005 RMK AO2=
201105220843 SPECI KPAE 220843Z 36005KT 10SM OVC016 09/06 A3005 RMK AO2=
201105220753 METAR KPAE 220753Z 36005KT 10SM OVC012 09/07 A3006 RMK AO2 SLP180 T00940067 401170089=
201105220733 SPECI KPAE 220733Z 02004KT 10SM OVC010 09/07 A3006 RMK AO2 CIG 008V012=
201105220733 SPECI KPAE 220733Z 02004KT 10SM OVC010 09/07 A3006 RMK AO2 CIG 008V012=
201105220705 SPECI KPAE 220705Z 01004KT 5SM BR SCT003 OVC008 09/08 A3006 RMK AO2=
201105220705 SPECI KPAE 220705Z 01004KT 5SM BR SCT003 OVC008 09/08 A3006 RMK AO2=
201105220653 METAR KPAE 220653Z 01003KT 5SM BR BKN003 OVC008 09/08 A3006 RMK AO2 RAB12E23 CIG 001V006 SLP181 P0000 T00940083=
201105220637 SPECI KPAE 220637Z 36003KT 5SM BR SCT003 BKN008 OVC015 09/08 A3006 RMK AO2 RAB12E23 CIG 007V011 P0000=
201105220637 SPECI KPAE 220637Z 36003KT 5SM BR SCT003 BKN008 OVC015 09/08 A3006 RMK AO2 RAB12E23 CIG 007V011 P0000=
201105220627 SPECI KPAE 220627Z 36004KT 8SM SCT003 BKN010 OVC030 10/08 A3006 RMK AO2 RAB12E23 P0000=
201105220627 SPECI KPAE 220627Z 36004KT 8SM SCT003 BKN010 OVC030 10/08 A3006 RMK AO2 RAB12E23 P0000=
201105220553 METAR KPAE 220553Z 00000KT 10SM OVC014 11/08 A3006 RMK AO2 RAE0456B19E46 SLP182 P0000 60001 T01060083 10117 20106 58001=
201105220516 SPECI KPAE 220516Z 00000KT 10SM BKN012 OVC044 11/08 A3007 RMK AO2 RAE0456 P0000=
201105220516 SPECI KPAE 220516Z 00000KT 10SM BKN012 OVC044 11/08 A3007 RMK AO2 RAE0456 P0000=
201105220453 METAR KPAE 220453Z 00000KT 10SM -RA OVC046 11/08 A3007 RMK AO2 RAB00 SLP184 P0001 T01060083=
201105220353 METAR KPAE 220353Z 00000KT 10SM FEW016 OVC050 11/08 A3006 RMK AO2 SLP181 T01110078=
201105220253 METAR KPAE 220253Z 00000KT 10SM OVC044 11/08 A3007 RMK AO2 SLP182 T01110078 56006=
201105220153 METAR KPAE 220153Z 00000KT 10SM BKN017 OVC046 11/08 A3007 RMK AO2 SLP184 T01110078=
201105220145 SPECI KPAE 220145Z 00000KT 10SM BKN017 OVC048 11/08 A3007 RMK AO2=
201105220145 SPECI KPAE 220145Z 00000KT 10SM BKN017 OVC048 11/08 A3007 RMK AO2=
201105220053 METAR KPAE 220053Z 00000KT 10SM FEW013 OVC050 11/08 A3008 RMK AO2 SLP186 T01110078=
201105212353 METAR KPAE 212353Z 00000KT 10SM SCT015 BKN040 OVC048 12/08 A3008 RMK AO2 SLP188 T01170078 10117 20094 58009=
201105212253 METAR KPAE 212253Z 23003KT 10SM FEW021 BKN040 OVC055 11/07 A3010 RMK AO2 SLP192 T01110072=
201105212234 SPECI KPAE 212234Z 23004KT 10SM BKN021 OVC050 11/07 A3010 RMK AO2=
201105212234 SPECI KPAE 212234Z 23004KT 10SM BKN021 OVC050 11/07 A3010 RMK AO2=
201105212153 METAR KPAE 212153Z 23004KT 10SM SCT020 OVC039 11/07 A3010=
201105212053 METAR KPAE 212053Z 23004KT 10SM SCT022 OVC035 11/07 A3011 RMK AO2 SLP197 T01060067 53001=
201105211953 METAR KPAE 211953Z VRB04KT 10SM OVC022 11/07 A3011 RMK AO2 SLP195 T01060072=
201105211853 METAR KPAE 211853Z 28004KT 10SM BKN018 OVC025 10/07 A3011 RMK AO2 SLP196 T01000072=
201105211823 SPECI KPAE 211823Z 26003KT 10SM BKN014 OVC020 09/07 A3011 RMK AO2=
201105211823 SPECI KPAE 211823Z 26003KT 10SM BKN014 OVC020 09/07 A3011 RMK AO2=
201105211753 METAR KPAE 211753Z 26003KT 10SM FEW012 BKN017 BKN055 09/07 A3011 RMK AO2 SLP198 60003 T00940067 10100 20089 50001=
201105211653 METAR KPAE 211653Z 23004KT 10SM SCT006 OVC065 09/06 A3011 RMK AO2 SLP198 T00890061=
201105211553 METAR KPAE 211553Z 23003KT 10SM SCT004 OVC060 09/07 A3011 RMK AO2 RAE27B48E50 SLP197 P0001 T00940072=
201105211453 METAR KPAE 211453Z 00000KT 10SM -RA OVC055 09/07 A3011 RMK AO2 SLP196 P0001 60002 T00940067 57001=
201105211353 METAR KPAE 211353Z 00000KT 10SM -RA FEW050 OVC065 09/06 A3011 RMK AO2 RAB02 SLP196 P0001 T00940061=
201105211253 METAR KPAE 211253Z AUTO 00000KT 10SM FEW055 OVC080 10/06 A3011 RMK AO2 RAE30 SLP196 P0000 T01000056=
201105211153 METAR KPAE 211153Z AUTO 00000KT 10SM -RA FEW050 OVC075 10/05 A3011 RMK AO2 SLP196 P0001 60001 70001 T01000050 10111 20100 58001=
201105211053 METAR KPAE 211053Z AUTO 00000KT 10SM -RA BKN060 OVC090 11/05 A3012 RMK AO2 RAB0957 SLP198 P0000 T01060050=
201105210953 METAR KPAE 210953Z AUTO 08004KT 10SM FEW080 OVC090 11/04 A3012 RMK AO2 SLP200 T01110039=
201105210853 METAR KPAE 210853Z AUTO 06003KT 10SM OVC095 11/04 A3011 RMK AO2 SLP197 T01060044 51006=
201105210753 METAR KPAE 210753Z AUTO 36006KT 10SM OVC095 11/05 A3011 RMK AO2 SLP196 T01060050 401890083=
201105210653 METAR KPAE 210653Z AUTO 02006KT 10SM OVC100 11/05 A3010=
201105210553 METAR KPAE 210553Z AUTO 01008KT 10SM SCT100 11/05 A3009 RMK AO2 SLP191 T01060050 10161 20106 53009=
201105210453 METAR KPAE 210453Z AUTO 01007KT 10SM BKN110 11/04 A3008 RMK AO2 SLP187 T01110039=
201105210353 METAR KPAE 210353Z AUTO 02010G16KT 10SM BKN120 11/04 A3007 RMK AO2 SLP183 T01110044=
201105210253 METAR KPAE 210253Z 01007KT 10SM CLR 12/03 A3007 RMK AO2 SLP182 T01170033 55003=
201105210153 METAR KPAE 210153Z 36011G16KT 10SM CLR 13/03 A3006 RMK AO2 SLP180 T01330028=
201105210053 METAR KPAE 210053Z 01007KT 10SM CLR 14/04 A3007 RMK AO2 SLP184 T01440039=
201105202353 METAR KPAE 202353Z 01007KT 10SM CLR 16/06 A3008 RMK AO2 SLP185 T01610056 10189 20150 55003=
201105202253 METAR KPAE 202253Z 36007KT 10SM CLR 17/06 A3008 RMK AO2 SLP184 T01720061=
201105202153 METAR KPAE 202153Z 36007KT 10SM CLR 17/06 A3008 RMK AO2 SLP186 T01720061=
201105202053 METAR KPAE 202053Z 27005KT 10SM CLR 18/06 A3009 RMK AO2 SLP188 T01780056 58005=
201105201953 METAR KPAE 201953Z VRB04KT 10SM CLR 17/06 A3009 RMK AO2 SLP190 T01720056=
201105201853 METAR KPAE 201853Z 28005KT 10SM CLR 16/05 A3010 RMK AO2 SLP192 T01560050=
201105201753 METAR KPAE 201753Z VRB03KT 10SM CLR 15/03 A3010 RMK AO2 SLP193 T01500028 10156 20094 58004=
201105201653 METAR KPAE 201653Z 33003KT 10SM CLR 14/04 A3011 RMK AO2 SLP195 T01440039=
201105201553 METAR KPAE 201553Z 00000KT 10SM CLR 13/04 A3012 RMK AO2 SLP199 T01280044=
201105201453 METAR KPAE 201453Z 00000KT 10SM CLR 12/03 A3012 RMK AO2 SLP198 T01220033 50000=
201105201353 METAR KPAE 201353Z 00000KT 10SM CLR 12/03 A3012 RMK AO2 SLP198 T01170028=
201105201253 METAR KPAE 201253Z AUTO 06003KT 10SM CLR 10/02 A3012 RMK AO2 SLP198 T01000022=
201105201153 METAR KPAE 201153Z AUTO 00000KT 10SM CLR 09/02 A3012 RMK AO2 SLP198 T00940022 10111 20083 55000=
201105201053 METAR KPAE 201053Z AUTO 00000KT 10SM CLR 10/02 A3011 RMK AO2 SLP196 T01000022=
201105200953 METAR KPAE 200953Z AUTO 04003KT 10SM CLR 10/03 A3011 RMK AO2 SLP195 T01000028=
201105200853 METAR KPAE 200853Z AUTO 06003KT 10SM CLR 10/03 A3012 RMK AO2 SLP198 T01000028 58002=
201105200753 METAR KPAE 200753Z AUTO 00000KT 10SM CLR 11/03 A3012 RMK AO2 SLP200 T01110028 401890072=
201105200653 METAR KPAE 200653Z AUTO 01005KT 10SM CLR 11/03 A3012 RMK AO2 SLP200 T01060033=
201105200553 METAR KPAE 200553Z AUTO 03007KT 10SM CLR 11/04 A3012 RMK AO2 SLP201 T01060044 10189 20106 52004=
201105200453 METAR KPAE 200453Z AUTO 01005KT 10SM CLR 11/04 A3012 RMK AO2 SLP200 T01060044=
201105200353 METAR KPAE 200353Z AUTO 00000KT 10SM CLR 12/04 A3011 RMK AO2 SLP197 T01170044=
201105200253 METAR KPAE 200253Z 34005KT 10SM CLR 14/04 A3011 RMK AO2 SLP197 T01440039 53001=
201105200153 METAR KPAE 200153Z 36004KT 10SM CLR 17/06 A3010 RMK AO2 SLP193 T01720056=
201105200053 METAR KPAE 200053Z 01008KT 340V080 10SM CLR 18/05 A3010 RMK AO2 SLP193 T01830050=
201105192353 METAR KPAE 192353Z 33008KT 10SM CLR 18/05 A3011 RMK AO2 SLP195 T01780050 10183 20122 56010=
201105192253 METAR KPAE 192253Z VRB03KT 10SM CLR 18/05 A3012 RMK AO2 SLP198 T01780050=
201105192153 METAR KPAE 192153Z 01007KT 10SM CLR 17/05 A3013 RMK AO2 SLP201 T01720050=
201105192053 METAR KPAE 192053Z 01007KT 10SM CLR 16/06 A3014 RMK AO2 SLP205 T01610056 58006=
201105191953 METAR KPAE 191953Z 29005KT 10SM CLR 15/07 A3014 RMK AO2 SLP208 T01500072=
201105191853 METAR KPAE 191853Z VRB05KT 10SM CLR 13/07 A3015 RMK AO2 SLP210 T01330072=
201105191753 METAR KPAE 191753Z 30006KT 10SM CLR 13/06 A3015 RMK AO2 SLP212 T01280061 10133 20072 53000=
201105191653 METAR KPAE 191653Z VRB03KT 10SM CLR 13/06 A3015 RMK AO2 SLP212 T01280061=
201105191553 METAR KPAE 191553Z 02003KT 10SM CLR 11/06 A3015=
201105191453 METAR KPAE 191453Z 33003KT 10SM CLR 10/06 A3015 RMK AO2 SLP211 T01000056 53008=
201105191353 METAR KPAE 191353Z 00000KT 10SM CLR 09/06 A3014 RMK AO2 SLP208 T00890056=
201105191253 METAR KPAE 191253Z AUTO 00000KT 10SM CLR 08/05 A3013 RMK AO2 SLP204 T00830050=
201105191153 METAR KPAE 191153Z AUTO 00000KT 10SM CLR 07/04 A3013 RMK AO2 SLP204 T00720044 10106 20072 51009=
201105191053 METAR KPAE 191053Z AUTO 01003KT 10SM CLR 08/04 A3013 RMK AO2 SLP201 T00830044=
201105190953 METAR KPAE 190953Z AUTO 35003KT 10SM CLR 08/03 A3011 RMK AO2 SLP197 T00830033=
201105190853 METAR KPAE 190853Z AUTO 35005KT 10SM CLR 09/03 A3010 RMK AO2 SLP194 T00940028 53010=
201105190753 METAR KPAE 190753Z AUTO 35006KT 10SM CLR 09/01 A3009 RMK AO2 SLP191 T00940011 401780067=
201105190653 METAR KPAE 190653Z AUTO 02006KT 10SM CLR 10/02 A3008 RMK AO2 SLP186 T01000017=
201105190553 METAR KPAE 190553Z AUTO 01005KT 10SM CLR 10/02 A3007 RMK AO2 SLP184 T01000022 10178 20100 51016=
201105190453 METAR KPAE 190453Z AUTO 36006KT 10SM CLR 11/04 A3006 RMK AO2 SLP180 T01060044=
201105190353 METAR KPAE 190353Z AUTO 33004KT 10SM CLR 12/01 A3004 RMK AO2 SLP174 T01220011=
201105190253 METAR KPAE 190253Z 32008KT 10SM CLR 15/02 A3002 RMK AO2 SLP168 T01500017 53009=
201105190153 METAR KPAE 190153Z 35006KT 10SM CLR 17/01 A3001 RMK AO2 SLP163 T01720006=
201105190053 METAR KPAE 190053Z 33007KT 10SM CLR 17/M02 A3000 RMK AO2 SLP160 T01721022=
201105182353 METAR KPAE 182353Z VRB06KT 10SM CLR 17/00 A3000 RMK AO2 SLP159 T01720000 10178 20128 50004=
201105182253 METAR KPAE 182253Z 34009KT 10SM CLR 17/01 A3000=
201105182153 METAR KPAE 182153Z 35008G14KT 10SM CLR 16/01 A2999 RMK AO2 SLP157 T01610006=
201105182053 METAR KPAE 182053Z 36006KT 10SM CLR 16/05 A2998 RMK AO2 SLP154 T01610050 51005=
201105181953 METAR KPAE 181953Z 01007KT 10SM CLR 14/05 A2998 RMK AO2 SLP153 T01440050=
201105181853 METAR KPAE 181853Z 01006KT 10SM CLR 14/04 A2998 RMK AO2 SLP151 T01440039=
201105181753 METAR KPAE 181753Z VRB04KT 10SM CLR 13/04 A2997 RMK AO2 SLP149 T01330044 10133 20067 51013=
201105181653 METAR KPAE 181653Z VRB05KT 10SM CLR 12/06 A2996 RMK AO2 SLP145 T01170056=
201105181553 METAR KPAE 181553Z 36005KT 10SM CLR 11/06 A2995 RMK AO2 SLP141 T01060056=
201105181453 METAR KPAE 181453Z 03004KT 10SM CLR 09/04 A2993 RMK AO2 SLP136 T00940044 51017=
201105181353 METAR KPAE 181353Z VRB03KT 10SM CLR 08/04 A2991 RMK AO2 SLP130 T00830044=
201105181253 METAR KPAE 181253Z AUTO 36003KT 10SM CLR 07/04 A2990 RMK AO2 SLP125 T00670044=
201105181153 METAR KPAE 181153Z AUTO 35004KT 10SM CLR 07/04 A2988 RMK AO2 SLP119 T00720044 10100 20072 51014=
201105181053 METAR KPAE 181053Z AUTO 35004KT 10SM CLR 08/05 A2987 RMK AO2 SLP115 T00780050=
201105180953 METAR KPAE 180953Z AUTO 34006KT 10SM CLR 08/04 A2985=
201105180853 METAR KPAE 180853Z AUTO 35006KT 10SM CLR 08/03 A2984 RMK AO2 SLP104 T00830033 53014=
201105180753 METAR KPAE 180753Z AUTO 36006KT 10SM CLR 09/02 A2982=
201105180653 METAR KPAE 180653Z AUTO 36007KT 10SM CLR 09/02 A2980 RMK AO2 SLP093 T00940022=
201105180553 METAR KPAE 180553Z AUTO 35005KT 10SM CLR 10/00 A2980 RMK AO2 SLP091 T01000000 10150 20094 53012=
201105180453 METAR KPAE 180453Z AUTO 35006KT 10SM CLR 10/02 A2978 RMK AO2 SLP086 T01000017=
201105180353 METAR KPAE 180353Z AUTO 35006KT 10SM CLR 11/02 A2977 RMK AO2 SLP080 T01110022=
201105180253 METAR KPAE 180253Z 33008KT 10SM CLR 13/01 A2976 RMK AO2 SLP079 T01330011 53003=
201105180153 METAR KPAE 180153Z 34006KT 10SM CLR 14/04 A2975 RMK AO2 SLP076 T01440039=
201105180053 METAR KPAE 180053Z 34010G16KT 10SM SCT150 14/04 A2975 RMK AO2 SLP076 T01440039=
201105172353 METAR KPAE 172353Z 35010G15KT 10SM CLR 15/04 A2975 RMK AO2 SLP075 T01500044 10150 20106 58007=
201105172253 METAR KPAE 172253Z AUTO 36005KT 10SM CLR 15/04 A2976 RMK AO2 SLP078 T01500044 TSNO=
201105172153 METAR KPAE 172153Z 35006KT 10SM FEW050 15/03 A2977 RMK AO2 SLP080 T01500033=
201105172053 METAR KPAE 172053Z 33007KT 10SM CLR 14/03 A2977 RMK AO2 SLP082 T01390033 55002=
201105171953 METAR KPAE 171953Z VRB05KT 10SM SCT060 13/04 A2977 RMK AO2 SLP082 T01330044=
201105171853 METAR KPAE 171853Z 30005KT 10SM SCT030 11/04 A2978 RMK AO2 SLP085 T01060044=
201105171807 SPECI KPAE 171807Z 32004KT 10SM SCT024 11/06 A2978 RMK AO2=
201105171807 SPECI KPAE 171807Z 32004KT 10SM SCT024 11/06 A2978 RMK AO2=
201105171800 SPECI KPAE 171800Z 30003KT 10SM BKN024 11/05 A2978 RMK AO2=
201105171800 SPECI KPAE 171800Z 30003KT 10SM BKN024 11/05 A2978 RMK AO2=
201105171753 METAR KPAE 171753Z 32003KT 10SM SCT024 11/04 A2978 RMK AO2 SLP086 T01060044 10111 20050 56006=
201105171653 METAR KPAE 171653Z 36005KT 10SM OVC018 11/06 A2979 RMK AO2 SLP088 T01060056=
201105171553 METAR KPAE 171553Z VRB04KT 10SM FEW011 SCT031 09/06 A2979 RMK AO2 SLP089 T00940056=
201105171511 SPECI KPAE 171511Z 17003KT 10SM FEW001 SCT008 07/06 A2980 RMK AO2=
201105171511 SPECI KPAE 171511Z 17003KT 10SM FEW001 SCT008 07/06 A2980 RMK AO2=
201105171453 METAR KPAE 171453Z 00000KT 1SM R16R/P6000FT BR BKN001 06/05 A2980 RMK AO2 SLP093 T00610050 56003=
201105171448 SPECI KPAE 171448Z 00000KT 1/2SM R16R/P6000FT FG BKN001 07/06 A2980 RMK AO2=
201105171448 SPECI KPAE 171448Z 00000KT 1/2SM R16R/P6000FT FG BKN001 07/06 A2980 RMK AO2=
201105171358 SPECI KPAE 171358Z 10004KT 1 1/2SM R16R/5500VP6000FT BR SCT001 06/05 A2980 RMK AO2=
201105171358 SPECI KPAE 171358Z 10004KT 1 1/2SM R16R/5500VP6000FT BR SCT001 06/05 A2980 RMK AO2=
201105171353 METAR KPAE 171353Z AUTO 11004KT 3/4SM R16R/2600VP6000FT BR VV001 06/05 A2980 RMK AO2 SLP095 T00560050=
201105171346 SPECI KPAE 171346Z AUTO 11004KT 1/4SM R16R/1600V3500FT FG VV001 06/04 A2980 RMK AO2=
201105171346 SPECI KPAE 171346Z AUTO 11004KT 1/4SM R16R/1600V3500FT FG VV001 06/04 A2980 RMK AO2=
201105171300 SPECI KPAE 171300Z AUTO 12003KT 1/4SM R16R/1400V1800FT FG VV001 05/04 A2981 RMK AO2=
201105171300 SPECI KPAE 171300Z AUTO 12003KT 1/4SM R16R/1400V1800FT FG VV001 05/04 A2981 RMK AO2=
201105171253 METAR KPAE 171253Z AUTO 00000KT 1/4SM R16R/1600V1800FT FG VV002 05/04 A2981 RMK AO2 SLP096 T00500044=
201105171242 SPECI KPAE 171242Z AUTO 00000KT 1/4SM R16R/1000V1800FT FG VV002 06/04 A2981 RMK AO2=
201105171242 SPECI KPAE 171242Z AUTO 00000KT 1/4SM R16R/1000V1800FT FG VV002 06/04 A2981 RMK AO2=
201105171227 SPECI KPAE 171227Z AUTO 00000KT 1/4SM R16R/1000V1200FT FG VV001 06/05 A2981 RMK AO2=
201105171227 SPECI KPAE 171227Z AUTO 00000KT 1/4SM R16R/1000V1200FT FG VV001 06/05 A2981 RMK AO2=
201105171220 SPECI KPAE 171220Z AUTO 00000KT 1/2SM R16R/1000V2200FT FG VV001 06/05 A2981 RMK AO2=
201105171220 SPECI KPAE 171220Z AUTO 00000KT 1/2SM R16R/1000V2200FT FG VV001 06/05 A2981 RMK AO2=
201105171216 SPECI KPAE 171216Z AUTO 00000KT 1SM R16R/1400VP6000FT BR VV001 06/05 A2981 RMK AO2=
201105171216 SPECI KPAE 171216Z AUTO 00000KT 1SM R16R/1400VP6000FT BR VV001 06/05 A2981 RMK AO2=
201105171214 SPECI KPAE 171214Z AUTO 00000KT 2SM R16R/1600VP6000FT BR FEW001 06/05 A2981 RMK AO2=
201105171214 SPECI KPAE 171214Z AUTO 00000KT 2SM R16R/1600VP6000FT BR FEW001 06/05 A2981 RMK AO2=
201105171153 METAR KPAE 171153Z AUTO 00000KT 10SM CLR 06/04 A2981 RMK AO2 SLP097 70037 T00610044 10083 20061 58010=
201105171053 METAR KPAE 171053Z AUTO 00000KT 10SM OVC049 08/05 A2983 RMK AO2 SLP102 T00780050=
201105170953 METAR KPAE 170953Z AUTO 05003KT 10SM OVC039 08/05 A2983 RMK AO2 SLP104 T00830050=
201105170853 METAR KPAE 170853Z AUTO VRB04KT 10SM OVC033 08/05 A2985 RMK AO2 SLP108 T00830050 58013=
201105170815 SPECI KPAE 170815Z AUTO 05004KT 10SM SCT029 OVC036 08/06 A2986 RMK AO2=
201105170815 SPECI KPAE 170815Z AUTO 05004KT 10SM SCT029 OVC036 08/06 A2986 RMK AO2=
201105170753 METAR KPAE 170753Z AUTO 06005KT 10SM OVC029 08/06 A2986 RMK AO2 SLP113 T00830056 401170083=
201105170653 METAR KPAE 170653Z AUTO 04003KT 10SM OVC029 08/06 A2987 RMK AO2 SLP117 T00830056=
201105170553 METAR KPAE 170553Z AUTO 00000KT 10SM BKN035 OVC044 08/06 A2988 RMK AO2 RAE43 SLP121 P0001 60006 T00830056 10106 20083 58005=
201105170453 METAR KPAE 170453Z AUTO 03003KT 10SM -RA BKN039 OVC049 08/06 A2989 RMK AO2 SLP124 P0005 T00830056=
201105170353 METAR KPAE 170353Z AUTO 03004KT 10SM -RA OVC036 09/06 A2989 RMK AO2 RAB07E35B52 SLP124 P0000 T00890056=
201105170253 METAR KPAE 170253Z 00000KT 10SM OVC031 09/06 A2990 RMK AO2 SLP126 60000 T00940056 55001=
201105170243 SPECI KPAE 170243Z VRB04KT 10SM OVC031 09/06 A2990 RMK AO2=
201105170243 SPECI KPAE 170243Z VRB04KT 10SM OVC031 09/06 A2990 RMK AO2=
201105170153 METAR KPAE 170153Z 01005KT 10SM OVC023 09/06 A2990 RMK AO2 SLP125 T00940061=
201105170053 METAR KPAE 170053Z VRB04KT 10SM SCT007 BKN016 OVC022 09/07 A2990 RMK AO2 RAB02E28 SLP127 P0000 T00940067=
201105170050 SPECI KPAE 170050Z 02006KT 10SM SCT007 BKN016 OVC022 09/07 A2990 RMK AO2 RAB02E28 P0000=
201105170050 SPECI KPAE 170050Z 02006KT 10SM SCT007 BKN016 OVC022 09/07 A2990 RMK AO2 RAB02E28 P0000=
201105170028 SPECI KPAE 170028Z 35005KT 10SM FEW007 BKN012 OVC045 09/07 A2990 RMK AO2 RAB02E28 P0000=
201105170028 SPECI KPAE 170028Z 35005KT 10SM FEW007 BKN012 OVC045 09/07 A2990 RMK AO2 RAB02E28 P0000=
201105170025 SPECI KPAE 170025Z 35007KT 10SM -RA SCT012 BKN021 OVC060 10/07 A2991 RMK AO2 RAB02 P0000=
201105170025 SPECI KPAE 170025Z 35007KT 10SM -RA SCT012 BKN021 OVC060 10/07 A2991 RMK AO2 RAB02 P0000=
201105162353 METAR KPAE 162353Z 00000KT 10SM FEW006 SCT042 BKN085 11/07 A2990 RMK AO2 RAE39 SLP126 P0002 60031 T01060072 10117 20100 50003=
201105162300 SPECI KPAE 162300Z 21004KT 6SM -RA BKN036 OVC046 10/07 A2990 RMK AO2 P0001=
201105162300 SPECI KPAE 162300Z 21004KT 6SM -RA BKN036 OVC046 10/07 A2990 RMK AO2 P0001=
201105162253 METAR KPAE 162253Z 21005KT 6SM -RA BKN020 BKN027 OVC055 10/07 A2990 RMK AO2 SLP126 P0007 T01000067=
201105162153 METAR KPAE 162153Z VRB03KT 6SM RA BKN020 BKN027 OVC055 11/06 A2989 RMK AO2 SLP123 P0014 T01060061=
201105162053 METAR KPAE 162053Z 21008KT 10SM -RA BKN027 OVC038 10/06 A2989 RMK AO2 SLP123 P0008 60008 T01000061 51009=
201105162017 SPECI KPAE 162017Z 21009KT 7SM -RA BKN029 OVC041 11/07 A2988 RMK AO2 P0001=
201105162017 SPECI KPAE 162017Z 21009KT 7SM -RA BKN029 OVC041 11/07 A2988 RMK AO2 P0001=
201105161953 METAR KPAE 161953Z 21010KT 10SM -RA FEW025 SCT034 BKN050 11/06 A2988 RMK AO2 RAB52 SLP120 P0000 T01110061=
201105161945 SPECI KPAE 161945Z 21012KT 10SM FEW025 SCT029 BKN034 11/05 A2988 RMK AO2=
201105161945 SPECI KPAE 161945Z 21012KT 10SM FEW025 SCT029 BKN034 11/05 A2988 RMK AO2=
201105161853 METAR KPAE 161853Z 21013G21KT 10SM SCT021 BKN025 OVC029 11/05 A2987 RMK AO2 SLP118 T01060050=
201105161753 METAR KPAE 161753Z 21015KT 10SM BKN019 OVC070 10/06 A2986 RMK AO2 SLP113 60000 T01000056 10100 20083 51012=
201105161653 METAR KPAE 161653Z 20014G21KT 10SM BKN017 OVC055 09/06 A2985 RMK AO2 RAB17E38 SLP111 P0000 T00940056=
201105161557 SPECI KPAE 161557Z 19015KT 10SM SCT014 OVC050 08/05 A2984 RMK AO2=
201105161557 SPECI KPAE 161557Z 19015KT 10SM SCT014 OVC050 08/05 A2984 RMK AO2=
201105161553 METAR KPAE 161553Z 20013KT 10SM BKN020 BKN065 OVC090 08/06 A2984=
201105161507 SPECI KPAE 161507Z 19011KT 10SM BKN020 BKN065 OVC090 08/06 A2983 RMK AO2=
201105161507 SPECI KPAE 161507Z 19011KT 10SM BKN020 BKN065 OVC090 08/06 A2983 RMK AO2=
201105161500 SPECI KPAE 161500Z 20013KT 10SM SCT015 BKN055 OVC070 08/06 A2983 RMK AO2=
201105161500 SPECI KPAE 161500Z 20013KT 10SM SCT015 BKN055 OVC070 08/06 A2983 RMK AO2=
201105161453 METAR KPAE 161453Z 19013KT 10SM BKN020 BKN065 OVC090 08/06 A2983 RMK AO2 SLP102 T00830056 53009=
201105161353 METAR KPAE 161353Z 20012KT 10SM BKN020 BKN065 OVC090 08/06 A2981 RMK AO2 SLP098 T00830056=
201105161253 METAR KPAE 161253Z AUTO 19011KT 10SM BKN020 OVC027 08/06 A2980 RMK AO2 SLP094 T00830056=
201105161153 METAR KPAE 161153Z AUTO 19008KT 10SM OVC020 08/06 A2980 RMK AO2 RAE19 SLP093 P0000 60001 70031 T00830056 10089 20083 52008=
201105161140 SPECI KPAE 161140Z AUTO 19009KT 10SM BKN020 BKN050 OVC080 08/06 A2980 RMK AO2 RAE19 P0000=
201105161140 SPECI KPAE 161140Z AUTO 19009KT 10SM BKN020 BKN050 OVC080 08/06 A2980 RMK AO2 RAE19 P0000=
201105161116 SPECI KPAE 161116Z AUTO 19010KT 10SM -RA FEW018 BKN043 OVC055 08/06 A2980 RMK AO2 P0000=
201105161116 SPECI KPAE 161116Z AUTO 19010KT 10SM -RA FEW018 BKN043 OVC055 08/06 A2980 RMK AO2 P0000=
201105161053 METAR KPAE 161053Z AUTO 19009KT 10SM -RA BKN020 OVC026 08/06 A2979 RMK AO2 RAB31 SLP090 P0000 T00830056=
201105160953 METAR KPAE 160953Z AUTO 19010KT 10SM FEW016 BKN024 OVC075 08/06 A2979 RMK AO2 SLP088 T00830056=
201105160853 METAR KPAE 160853Z AUTO 19010KT 10SM SCT048 SCT055 OVC070 08/06 A2978=
201105160753 METAR KPAE 160753Z AUTO 19008KT 10SM FEW028 BKN035 OVC060 08/06 A2978 RMK AO2 SLP085 T00830061 401170083=
201105160748 SPECI KPAE 160748Z AUTO 20008KT 10SM FEW022 BKN035 OVC043 08/06 A2978 RMK AO2 401170083=
201105160748 SPECI KPAE 160748Z AUTO 20008KT 10SM FEW022 BKN035 OVC043 08/06 A2978 RMK AO2 401170083=
201105160653 METAR KPAE 160653Z AUTO 20009KT 10SM OVC023 09/07 A2978 RMK AO2 RAE18 SLP086 P0001 T00890067=
201105160608 SPECI KPAE 160608Z AUTO 20008KT 6SM -RA BR FEW004 OVC016 08/07 A2978 RMK AO2 P0001=
201105160608 SPECI KPAE 160608Z AUTO 20008KT 6SM -RA BR FEW004 OVC016 08/07 A2978 RMK AO2 P0001=
201105160553 METAR KPAE 160553Z AUTO 21009KT 5SM -RA BR SCT004 BKN009 OVC016 08/07 A2977 RMK AO2 SLP083 P0001 60004 T00830072 10106 20083 51017=
201105160509 SPECI KPAE 160509Z AUTO 19013KT 7SM -RA BKN009 BKN013 OVC021 09/07 A2977 RMK AO2 CIG 005V012 P0000=
201105160509 SPECI KPAE 160509Z AUTO 19013KT 7SM -RA BKN009 BKN013 OVC021 09/07 A2977 RMK AO2 CIG 005V012 P0000=
201105160453 METAR KPAE 160453Z AUTO 18011KT 3SM -RA BR FEW007 BKN016 OVC026 08/07 A2976 RMK AO2 RAB09 SLP080 P0003 T00830072=
201105160437 SPECI KPAE 160437Z AUTO 19012KT 3SM -RA BR FEW007 BKN014 OVC019 09/07 A2975 RMK AO2 RAB09 P0001=
201105160437 SPECI KPAE 160437Z AUTO 19012KT 3SM -RA BR FEW007 BKN014 OVC019 09/07 A2975 RMK AO2 RAB09 P0001=
201105160353 METAR KPAE 160353Z AUTO 18008G17KT 10SM OVC020 10/06 A2974=
201105160253 METAR KPAE 160253Z 18010KT 10SM BKN022 OVC027 10/06 A2972 RMK AO2 PRESRR SLP064 T01000056 50017=
201105160153 METAR KPAE 160153Z 18010G18KT 10SM SCT020 BKN024 OVC029 11/06 A2973 RMK AO2 SLP066 T01060061=
201105160053 METAR KPAE 160053Z 16015G21KT 10SM BKN019 OVC023 11/07 A2969 RMK AO2 SLP056 T01060067=
201105152353 METAR KPAE 152353Z AUTO 19016G23KT 10SM SCT019 BKN026 BKN039 12/07 A2967 RMK AO2 SLP046 60007 T01170072 10117 20100 51022 TSNO=
201105152300 SPECI KPAE 152300Z AUTO 20016G21KT 10SM FEW010 BKN016 OVC021 11/08 A2966 RMK AO2 TSNO=
201105152300 SPECI KPAE 152300Z AUTO 20016G21KT 10SM FEW010 BKN016 OVC021 11/08 A2966 RMK AO2 TSNO=
201105152253 METAR KPAE 152253Z AUTO 20015G21KT 10SM BKN008 OVC015 11/08 A2966 RMK AO2 RAE52 SLP042 P0000 T01060078 TSNO=
201105152153 METAR KPAE 152153Z 19014KT 10SM -RA BKN008 OVC015 11/08 A2964 RMK AO2 SLP036 P0002 T01060083=
201105152053 METAR KPAE 152053Z 18010G17KT 10SM -RA BKN008 OVC043 11/09 A2960 RMK AO2 RAB07 CIG 006V012 SLP023 P0001 60005 T01060089 53012=
201105152000 SPECI KPAE 152000Z 18010KT 10SM BKN006 OVC010 11/09 A2958 RMK AO2=
201105152000 SPECI KPAE 152000Z 18010KT 10SM BKN006 OVC010 11/09 A2958 RMK AO2=
201105151953 METAR KPAE 151953Z 19012KT 10SM BKN004 OVC009 11/09 A2958 RMK AO2 RAE20B40E52 SLP015 P0000 T01060089=
201105151853 METAR KPAE 151853Z 18009KT 6SM -RA BR OVC004 10/09 A2956 RMK AO2 SLP012 P0004 T01000089=
201105151841 SPECI KPAE 151841Z 17009KT 4SM -RA BR OVC004 10/09 A2957 RMK AO2 P0003=
201105151841 SPECI KPAE 151841Z 17009KT 4SM -RA BR OVC004 10/09 A2957 RMK AO2 P0003=
201105151753 METAR KPAE 151753Z 25005KT 1/2SM R16R/P6000FT -RA FG OVC002 11/09 A2956 RMK AO2 SLP010 P0002 60019 T01060094 10111 20100 51004=
201105151653 METAR KPAE 151653Z 22003KT 3SM -RA BR BKN003 OVC010 11/09 A2955 RMK AO2 SLP008 P0004 T01060094=
201105151619 SPECI KPAE 151619Z 21004KT 3SM -RA BR SCT002 OVC006 11/09 A2956 RMK AO2 P0002=
201105151619 SPECI KPAE 151619Z 21004KT 3SM -RA BR SCT002 OVC006 11/09 A2956 RMK AO2 P0002=
201105151600 SPECI KPAE 151600Z 22003KT 4SM -RA BR BKN002 OVC007 11/09 A2957 RMK AO2 CIG 001V005 P0000=
201105151600 SPECI KPAE 151600Z 22003KT 4SM -RA BR BKN002 OVC007 11/09 A2957 RMK AO2 CIG 001V005 P0000=
201105151553 METAR KPAE 151553Z 20003KT 1SM R16R/P6000FT -RA BR BKN002 10/09 A2957 RMK AO2 SLP014 P0004 T01000094=
201105151502 SPECI KPAE 151502Z 00000KT 1SM R16R/P6000FT -RA BR OVC004 10/09 A2955 RMK AO2 P0000=
201105151502 SPECI KPAE 151502Z 00000KT 1SM R16R/P6000FT -RA BR OVC004 10/09 A2955 RMK AO2 P0000=
201105151453 METAR KPAE 151453Z 29006KT 1SM R16R/P6000FT -RA BR FEW002 BKN006 OVC020 11/09 A2955 RMK AO2 SLP005 P0007 60009 T01060089 56015=
201105151443 SPECI KPAE 151443Z 31003KT 3SM -RA BR SCT002 BKN006 OVC020 10/09 A2955 RMK AO2 P0006=
201105151443 SPECI KPAE 151443Z 31003KT 3SM -RA BR SCT002 BKN006 OVC020 10/09 A2955 RMK AO2 P0006=
201105151432 SPECI KPAE 151432Z 00000KT 2 1/2SM RA BR BKN002 OVC006 10/09 A2956 RMK AO2 P0004=
201105151432 SPECI KPAE 151432Z 00000KT 2 1/2SM RA BR BKN002 OVC006 10/09 A2956 RMK AO2 P0004=
201105151353 METAR KPAE 151353Z 00000KT 3SM -RA BR BKN002 OVC005 10/09 A2956 RMK AO2 SLP009 P0001 T01000089=
201105151348 SPECI KPAE 151348Z 00000KT 2SM -RA BR BKN002 OVC005 10/09 A2956 RMK AO2 P0000=
201105151348 SPECI KPAE 151348Z 00000KT 2SM -RA BR BKN002 OVC005 10/09 A2956 RMK AO2 P0000=
201105151337 SPECI KPAE 151337Z AUTO 00000KT 1/2SM R16R/P6000FT -RA FG BKN002 OVC005 10/09 A2956 RMK AO2 P0000=
201105151337 SPECI KPAE 151337Z AUTO 00000KT 1/2SM R16R/P6000FT -RA FG BKN002 OVC005 10/09 A2956 RMK AO2 P0000=
201105151303 SPECI KPAE 151303Z AUTO 00000KT 1 3/4SM R16R/6000VP6000FT BR OVC002 10/09 A2957 RMK AO2 RAE1258 P0000=
201105151303 SPECI KPAE 151303Z AUTO 00000KT 1 3/4SM R16R/6000VP6000FT BR OVC002 10/09 A2957 RMK AO2 RAE1258 P0000=
201105151253 METAR KPAE 151253Z AUTO 00000KT 3SM -RA BR OVC002 10/09 A2957 RMK AO2 SLP013 P0001 T01000089=
201105151203 SPECI KPAE 151203Z AUTO 00000KT 7SM -RA BKN004 OVC010 10/09 A2959 RMK AO2 P0000=
201105151203 SPECI KPAE 151203Z AUTO 00000KT 7SM -RA BKN004 OVC010 10/09 A2959 RMK AO2 P0000=
201105151153 METAR KPAE 151153Z AUTO 00000KT 6SM -RA BR SCT004 BKN010 OVC070 10/09 A2959 RMK AO2 SLP021 P0001 60018 70079 T01000089 10106 20100 56016=
201105151151 SPECI KPAE 151151Z AUTO 00000KT 6SM -RA BR SCT004 BKN010 OVC075 10/09 A2959 RMK AO2 P0001=
201105151151 SPECI KPAE 151151Z AUTO 00000KT 6SM -RA BR SCT004 BKN010 OVC075 10/09 A2959 RMK AO2 P0001=
201105151144 SPECI KPAE 151144Z AUTO 00000KT 7SM -RA SCT009 BKN020 OVC075 10/09 A2959 RMK AO2 P0001=
201105151144 SPECI KPAE 151144Z AUTO 00000KT 7SM -RA SCT009 BKN020 OVC075 10/09 A2959 RMK AO2 P0001=
201105151129 SPECI KPAE 151129Z AUTO 00000KT 10SM -RA SCT016 SCT060 OVC080 10/09 A2960 RMK AO2 P0001=
201105151129 SPECI KPAE 151129Z AUTO 00000KT 10SM -RA SCT016 SCT060 OVC080 10/09 A2960 RMK AO2 P0001=
201105151053 METAR KPAE 151053Z AUTO 00000KT 5SM -RA BR SCT003 OVC011 11/09 A2962 RMK AO2 SLP029 P0003 T01060089=
201105151022 SPECI KPAE 151022Z AUTO 00000KT 9SM -RA FEW007 BKN013 OVC019 10/09 A2963 RMK AO2 P0002=
201105151022 SPECI KPAE 151022Z AUTO 00000KT 9SM -RA FEW007 BKN013 OVC019 10/09 A2963 RMK AO2 P0002=
201105150953 METAR KPAE 150953Z AUTO 00000KT 7SM -RA FEW007 OVC015 11/09 A2964 RMK AO2 SLP036 P0002 T01060089=
201105150853 METAR KPAE 150853Z AUTO 00000KT 6SM -RA BR FEW004 OVC015 11/09 A2966 RMK AO2 SLP043 P0001 60012 T01060089 56014=
201105150851 SPECI KPAE 150851Z AUTO 00000KT 6SM -RA BR SCT004 OVC015 10/09 A2966 RMK AO2 P0001=
201105150851 SPECI KPAE 150851Z AUTO 00000KT 6SM -RA BR SCT004 OVC015 10/09 A2966 RMK AO2 P0001=
201105150844 SPECI KPAE 150844Z AUTO 00000KT 7SM -RA BKN004 OVC015 11/09 A2966 RMK AO2 CIG 002V006 P0001=
201105150844 SPECI KPAE 150844Z AUTO 00000KT 7SM -RA BKN004 OVC015 11/09 A2966 RMK AO2 CIG 002V006 P0001=
201105150825 SPECI KPAE 150825Z AUTO 00000KT 6SM -RA BR BKN006 OVC012 11/09 A2968 RMK AO2 CIG 003V008 P0001=
201105150825 SPECI KPAE 150825Z AUTO 00000KT 6SM -RA BR BKN006 OVC012 11/09 A2968 RMK AO2 CIG 003V008 P0001=
201105150808 SPECI KPAE 150808Z AUTO 00000KT 8SM -RA BKN004 OVC008 11/09 A2969 RMK AO2 CIG 003V007 P0000=
201105150808 SPECI KPAE 150808Z AUTO 00000KT 8SM -RA BKN004 OVC008 11/09 A2969 RMK AO2 CIG 003V007 P0000=
201105150753 METAR KPAE 150753Z AUTO 00000KT 8SM -RA SCT003 OVC008 11/09 A2969 RMK AO2 SLP053 P0005 T01060089 401560094=
201105150705 SPECI KPAE 150705Z AUTO 00000KT 5SM -RA BR BKN002 BKN013 OVC024 11/09 A2971 RMK AO2 CIG 001V005 P0001=
201105150705 SPECI KPAE 150705Z AUTO 00000KT 5SM -RA BR BKN002 BKN013 OVC024 11/09 A2971 RMK AO2 CIG 001V005 P0001=
201105150653 METAR KPAE 150653Z AUTO 00000KT 5SM -RA BR SCT002 BKN021 OVC027 10/09 A2970 RMK AO2 SLP058 P0006 T01000089=
201105150559 SPECI KPAE 150559Z AUTO 00000KT 5SM -RA BR SCT004 BKN028 OVC041 11/09 A2972 RMK AO2 P0001=
201105150559 SPECI KPAE 150559Z AUTO 00000KT 5SM -RA BR SCT004 BKN028 OVC041 11/09 A2972 RMK AO2 P0001=
201105150553 METAR KPAE 150553Z AUTO 00000KT 4SM -RA BR BKN004 BKN013 OVC033 11/09 A2973 RMK AO2 SLP066 P0012 60061 T01060089 10133 20100 51002=
201105150550 SPECI KPAE 150550Z AUTO 00000KT 4SM -RA BR SCT004 BKN013 OVC041 11/09 A2973 RMK AO2 P0012=
201105150550 SPECI KPAE 150550Z AUTO 00000KT 4SM -RA BR SCT004 BKN013 OVC041 11/09 A2973 RMK AO2 P0012=
201105150543 SPECI KPAE 150543Z AUTO 10003KT 4SM -RA BR FEW004 BKN032 OVC041 11/09 A2973 RMK AO2 P0011=
201105150543 SPECI KPAE 150543Z AUTO 10003KT 4SM -RA BR FEW004 BKN032 OVC041 11/09 A2973 RMK AO2 P0011=
201105150538 SPECI KPAE 150538Z AUTO 00000KT 4SM RA BR FEW012 BKN024 OVC040 11/09 A2974 RMK AO2 P0010=
201105150538 SPECI KPAE 150538Z AUTO 00000KT 4SM RA BR FEW012 BKN024 OVC040 11/09 A2974 RMK AO2 P0010=
201105150453 METAR KPAE 150453Z AUTO 31005KT 5SM -RA BR BKN044 OVC060 11/08 A2973 RMK AO2 SLP067 P0011 T01060083=
201105150359 SPECI KPAE 150359Z AUTO 00000KT 4SM RA BR SCT022 OVC032 10/08 A2974 RMK AO2 P0002=
201105150359 SPECI KPAE 150359Z AUTO 00000KT 4SM RA BR SCT022 OVC032 10/08 A2974 RMK AO2 P0002=
201105150353 METAR KPAE 150353Z AUTO 00000KT 2 1/2SM R16R/2400VP6000FT RA BR FEW014 BKN022 OVC032 10/08 A2974 RMK AO2 SLP070 P0021 T01000083=
201105150307 SPECI KPAE 150307Z 25007KT 2 1/2SM RA BR FEW003 OVC014 11/09 A2972 RMK AO2 P0008=
201105150307 SPECI KPAE 150307Z 25007KT 2 1/2SM RA BR FEW003 OVC014 11/09 A2972 RMK AO2 P0008=
201105150253 METAR KPAE 150253Z 23005KT 2SM RA BR OVC016 11/09 A2972 RMK AO2 SLP065 P0016 60017 T01060089 53003=
201105150241 SPECI KPAE 150241Z 00000KT 1 3/4SM RA BR BKN016 BKN033 OVC040 11/09 A2972 RMK AO2 P0011=
201105150241 SPECI KPAE 150241Z 00000KT 1 3/4SM RA BR BKN016 BKN033 OVC040 11/09 A2972 RMK AO2 P0011=
201105150224 SPECI KPAE 150224Z 35003KT 2 1/2SM RA BR OVC039 11/08 A2970 RMK AO2 P0006=
201105150224 SPECI KPAE 150224Z 35003KT 2 1/2SM RA BR OVC039 11/08 A2970 RMK AO2 P0006=
201105150153 METAR KPAE 150153Z 33004KT 6SM -RA SCT050 SCT070 OVC085 12/08 A2970 RMK AO2 RAB27 SLP058 P0001 T01170083=
201105150053 METAR KPAE 150053Z 33005KT 10SM OVC095 12/07 A2970 RMK AO2 SLP057 T01220072=
201105142353 METAR KPAE 142353Z 36005KT 10SM BKN090 13/07 A2971 RMK AO2 SLP061 T01330067 10156 20122 58014=
201105142253 METAR KPAE 142253Z 35009G15KT 10SM OVC065 14/07 A2973 RMK AO2 SLP069 T01440067=
201105142153 METAR KPAE 142153Z 34007KT 10SM OVC065 15/07 A2975 RMK AO2 SLP074 T01500072=
201105142053 METAR KPAE 142053Z 34010KT 10SM CLR 15/08 A2975 RMK AO2 SLP074 T01500078 58018=
201105141953 METAR KPAE 141953Z 36007KT 10SM CLR 14/08 A2977 RMK AO2 SLP082 T01440083=
201105141853 METAR KPAE 141853Z 36008KT 10SM CLR 14/08 A2979 RMK AO2 SLP089 T01390078=
201105141753 METAR KPAE 141753Z 35006KT 10SM SCT065 13/07 A2981 RMK AO2 SLP094 T01280067 10128 20094 58009=
201105141653 METAR KPAE 141653Z 01005KT 10SM OVC070 12/06 A2982 RMK AO2 SLP097 T01220061=
201105141553 METAR KPAE 141553Z 36005KT 10SM OVC080 12/06 A2983 RMK AO2 SLP102 T01170056=
201105141453 METAR KPAE 141453Z 02003KT 10SM OVC075 11/06 A2983 RMK AO2 SLP103 T01110056 56006=
201105141353 METAR KPAE 141353Z 05003KT 10SM BKN075 10/05 A2984 RMK AO2 SLP104 T01000050=
201105141253 METAR KPAE 141253Z 01004KT 10SM CLR 09/06 A2983 RMK AO2 SLP100 T00940056=
201105141153 METAR KPAE 141153Z 33005KT 10SM OVC080 10/06 A2985 RMK AO2 SLP110 60000 T01000056 10111 20094 58010=
201105141053 METAR KPAE 141053Z 00000KT 10SM BKN090 09/06 A2988 RMK AO2 SLP118 T00940061=
201105140953 METAR KPAE 140953Z 32003KT 10SM SCT110 09/06 A2989 RMK AO2 SLP121 T00940061=
201105140853 METAR KPAE 140853Z 35004KT 10SM BKN110 10/06 A2988 RMK AO2 SLP120 60000 T01000056 56007=
201105140753 METAR KPAE 140753Z 34004KT 10SM OVC100 10/06 A2990 RMK AO2 RAB31E40 SLP125 P0000 T01000056 401560067=
201105140653 METAR KPAE 140653Z 35006KT 10SM BKN095 11/05 A2989 RMK AO2 SLP121 T01060050=
201105140553 METAR KPAE 140553Z 35006KT 10SM BKN110 11/04 A2990 RMK AO2 SLP127 T01110044 10144 20111 58005=
201105140453 METAR KPAE 140453Z 36005KT 10SM CLR 12/04 A2992 RMK AO2 SLP132 T01170044=
201105140353 METAR KPAE 140353Z 01004KT 10SM CLR 12/06 A2993 RMK AO2 SLP135 T01170056=
201105140253 METAR KPAE 140253Z 36007KT 10SM CLR 13/04 A2992 RMK AO2 SLP132 T01280044 56015=
201105140153 METAR KPAE 140153Z 33007KT 10SM CLR 13/04 A2993 RMK AO2 SLP137 T01330044=
201105140053 METAR KPAE 140053Z 34006KT 10SM CLR 14/06 A2995 RMK AO2 SLP141 T01390056=
201105132353 METAR KPAE 132353Z 35008G15KT 10SM CLR 14/05 A2996 RMK AO2 SLP148 T01440050 10156 20111 58027=
201105132253 METAR KPAE 132253Z 35007KT 10SM CLR 15/06 A2999 RMK AO2 SLP157 T01500056=
201105132153 METAR KPAE 132153Z 35009G14KT 10SM CLR 15/06 A3002 RMK AO2 SLP167 T01500056=
201105132053 METAR KPAE 132053Z 33011G18KT 10SM CLR 14/05 A3005 RMK AO2 SLP175 T01390050 56037=
201105131953 METAR KPAE 131953Z 35007G15KT 320V020 10SM CLR 14/05 A3008 RMK AO2 SLP186 T01440050=
201105131853 METAR KPAE 131853Z 35007G15KT 10SM CLR 13/05 A3012 RMK AO2 SLP200 T01330050=
201105131753 METAR KPAE 131753Z 36007KT 10SM CLR 11/04 A3015 RMK AO2 SLP212 T01110039 10117 20067 58030=
201105131653 METAR KPAE 131653Z 35004KT 10SM CLR 11/03 A3020 RMK AO2 SLP227 T01060033=
201105131553 METAR KPAE 131553Z 35004KT 10SM CLR 09/03 A3022 RMK AO2 SLP235 T00940033=
201105131453 METAR KPAE 131453Z 00000KT 10SM CLR 08/03 A3024 RMK AO2 SLP244 T00830028 56010=
201105131353 METAR KPAE 131353Z 12005KT 10SM CLR 07/02 A3025 RMK AO2 SLP246 T00720022=
201105131253 METAR KPAE 131253Z AUTO 10006KT 10SM CLR 07/02 A3026 RMK AO2 SLP246 T00670022=
201105131153 METAR KPAE 131153Z AUTO 12006KT 10SM CLR 07/03 A3027 RMK AO2 SLP253 T00670028 10094 20067 58006=
201105131053 METAR KPAE 131053Z AUTO 11005KT 10SM CLR 07/03 A3028 RMK AO2 SLP256 T00720028=
201105130953 METAR KPAE 130953Z AUTO 11004KT 10SM CLR 07/03 A3029 RMK AO2 SLP260 T00720028=
201105130853 METAR KPAE 130853Z AUTO 19003KT 10SM CLR 08/03 A3029 RMK AO2 SLP259 T00830028 58004=
201105130753 METAR KPAE 130753Z AUTO VRB03KT 10SM CLR 09/03 A3030 RMK AO2 SLP262 T00890028 401560056=
201105130653 METAR KPAE 130653Z AUTO 16008KT 10SM FEW075 09/03 A3030 RMK AO2 SLP262 T00890028=
201105130553 METAR KPAE 130553Z AUTO 15009KT 10SM BKN080 09/02 A3031 RMK AO2 SLP265 T00940022 10156 20089 51012=
201105130453 METAR KPAE 130453Z AUTO 20007KT 10SM FEW070 09/03 A3030 RMK AO2 SLP262 T00890028=
201105130353 METAR KPAE 130353Z 20007KT 10SM CLR 10/03 A3029 RMK AO2 SLP258 T01000028=
201105130253 METAR KPAE 130253Z 25006KT 10SM FEW080 11/03 A3027 RMK AO2 SLP253 T01060033 53016=
201105130153 METAR KPAE 130153Z 24008KT 10SM CLR 12/03 A3025 RMK AO2 SLP246 T01220033=
201105130053 METAR KPAE 130053Z 24012G17KT 10SM SCT065 14/02 A3023 RMK AO2 SLP239 T01390017=
201105122353 METAR KPAE 122353Z 20008KT 10SM FEW065 14/01 A3022 RMK AO2 SLP236 T01390006 10150 20094 55001=
201105122253 METAR KPAE 122253Z 16010KT 10SM SCT060 14/M02 A3022 RMK AO2 SLP235 T01391017=
201105122153 METAR KPAE 122153Z VRB05KT 10SM FEW060 13/01 A3022 RMK AO2 SLP236 T01280011=
201105122053 METAR KPAE 122053Z 19012G17KT 10SM SCT060 13/01 A3023 RMK AO2 SLP237 T01280006 51004=
201105121953 METAR KPAE 121953Z 15009KT 10SM BKN030 BKN046 12/01 A3022 RMK AO2 SLP235 T01170006=
201105121853 METAR KPAE 121853Z 18009KT 10SM BKN038 BKN055 11/01 A3022 RMK AO2 SLP236 T01060006 $=
201105121753 METAR KPAE 121753Z 18010KT 10SM BKN060 10/02 A3022 RMK AO2 SLP234 T01000022 10111 20056 53009 $=
201105121653 METAR KPAE 121653Z 16008KT 10SM FEW022 BKN050 09/03 A3020 RMK AO2 SLP230 T00940033=
201105121553 METAR KPAE 121553Z 16008KT 10SM SCT030 SCT049 08/03 A3020 RMK AO2 SLP227 T00830033=
201105121453 METAR KPAE 121453Z 15010KT 10SM CLR 07/03 A3019 RMK AO2 SLP225 T00670028 52010=
201105121353 METAR KPAE 121353Z 16009KT 10SM SCT031 06/03 A3017 RMK AO2 SLP220 T00560028=
201105121349 SPECI KPAE 121349Z 16008KT 10SM SCT031 06/03 A3017 RMK AO2=
201105121349 SPECI KPAE 121349Z 16008KT 10SM SCT031 06/03 A3017 RMK AO2=
201105121314 SPECI KPAE 121314Z AUTO 15009KT 10SM BKN029 OVC034 06/03 A3016 RMK AO2=
201105121314 SPECI KPAE 121314Z AUTO 15009KT 10SM BKN029 OVC034 06/03 A3016 RMK AO2=
201105121304 SPECI KPAE 121304Z AUTO 15008KT 10SM SCT028 BKN034 06/03 A3016 RMK AO2=
201105121304 SPECI KPAE 121304Z AUTO 15008KT 10SM SCT028 BKN034 06/03 A3016 RMK AO2=
201105121253 METAR KPAE 121253Z AUTO 15007KT 10SM FEW022 BKN026 BKN034 06/03 A3016 RMK AO2 SLP215 T00560028=
201105121153 METAR KPAE 121153Z AUTO 16008KT 10SM FEW013 BKN019 OVC026 06/03 A3015 RMK AO2 SLP213 70026 T00560033 10072 20056 51016=
201105121136 SPECI KPAE 121136Z AUTO 16007KT 10SM SCT014 BKN018 OVC026 06/03 A3014 RMK AO2=
201105121136 SPECI KPAE 121136Z AUTO 16007KT 10SM SCT014 BKN018 OVC026 06/03 A3014 RMK AO2=
201105121101 SPECI KPAE 121101Z AUTO VRB04KT 10SM OVC012 06/04 A3014 RMK AO2=
201105121101 SPECI KPAE 121101Z AUTO VRB04KT 10SM OVC012 06/04 A3014 RMK AO2=
201105121053 METAR KPAE 121053Z AUTO 12004KT 10SM BKN009 OVC015 06/04 A3014 RMK AO2 CIG 008V011 SLP209 T00560039=
201105121023 SPECI KPAE 121023Z AUTO 00000KT 10SM BKN009 OVC014 06/04 A3013 RMK AO2 CIG 007V011=
201105121023 SPECI KPAE 121023Z AUTO 00000KT 10SM BKN009 OVC014 06/04 A3013 RMK AO2 CIG 007V011=
201105121013 SPECI KPAE 121013Z AUTO 00000KT 10SM BKN012 OVC018 06/04 A3013 RMK AO2=
201105121013 SPECI KPAE 121013Z AUTO 00000KT 10SM BKN012 OVC018 06/04 A3013 RMK AO2=
201105120953 METAR KPAE 120953Z AUTO 15004KT 10SM BKN020 BKN026 06/04 A3012 RMK AO2 CIG 012V023 SLP201 T00610039=
201105120853 METAR KPAE 120853Z AUTO VRB05KT 10SM SCT020 OVC027 07/04 A3010 RMK AO2 SLP196 T00670039 53017=
201105120835 SPECI KPAE 120835Z AUTO 16008KT 10SM BKN026 OVC031 07/04 A3010 RMK AO2=
201105120835 SPECI KPAE 120835Z AUTO 16008KT 10SM BKN026 OVC031 07/04 A3010 RMK AO2=
201105120824 SPECI KPAE 120824Z AUTO 15007KT 10SM OVC030 07/04 A3009 RMK AO2=
201105120824 SPECI KPAE 120824Z AUTO 15007KT 10SM OVC030 07/04 A3009 RMK AO2=
201105120813 SPECI KPAE 120813Z AUTO 16009KT 10SM OVC028 07/04 A3009 RMK AO2=
201105120813 SPECI KPAE 120813Z AUTO 16009KT 10SM OVC028 07/04 A3009 RMK AO2=
201105120753 METAR KPAE 120753Z AUTO 17007KT 10SM SCT026 BKN034 07/04 A3008 RMK AO2 SLP188 T00670039 401170067=
201105120746 SPECI KPAE 120746Z AUTO 16007KT 10SM FEW019 SCT023 BKN031 07/04 A3008 RMK AO2=
201105120746 SPECI KPAE 120746Z AUTO 16007KT 10SM FEW019 SCT023 BKN031 07/04 A3008 RMK AO2=
201105120706 SPECI KPAE 120706Z AUTO 18005KT 10SM BKN022 07/04 A3006 RMK AO2=
201105120706 SPECI KPAE 120706Z AUTO 18005KT 10SM BKN022 07/04 A3006 RMK AO2=
201105120653 METAR KPAE 120653Z AUTO 17005KT 10SM SCT024 07/04 A3006 RMK AO2 SLP179 T00670039=
201105120649 SPECI KPAE 120649Z AUTO 18006KT 10SM SCT024 07/04 A3005 RMK AO2=
201105120649 SPECI KPAE 120649Z AUTO 18006KT 10SM SCT024 07/04 A3005 RMK AO2=
201105120553 METAR KPAE 120553Z AUTO 19010KT 10SM FEW017 OVC027 07/04 A3005 RMK AO2 SLP177 60005 T00720044 10100 20072 53023=
201105120532 SPECI KPAE 120532Z AUTO 18012KT 10SM SCT017 BKN024 OVC060 07/04 A3004 RMK AO2=
201105120532 SPECI KPAE 120532Z AUTO 18012KT 10SM SCT017 BKN024 OVC060 07/04 A3004 RMK AO2=
201105120501 SPECI KPAE 120501Z AUTO 17009KT 10SM CLR 07/05 A3002 RMK AO2=
201105120501 SPECI KPAE 120501Z AUTO 17009KT 10SM CLR 07/05 A3002 RMK AO2=
201105120453 METAR KPAE 120453Z 16011G19KT 10SM BKN009 OVC015 07/05 A3001 RMK AO2 SLP165 T00720050=
201105120401 SPECI KPAE 120401Z 17011KT 10SM BKN009 OVC015 08/06 A2999 RMK AO2=
201105120401 SPECI KPAE 120401Z 17011KT 10SM BKN009 OVC015 08/06 A2999 RMK AO2=
201105120353 METAR KPAE 120353Z 18011G19KT 10SM FEW007 BKN013 OVC020 08/06 A2998 RMK AO2 SLP154 T00780056=
201105120334 SPECI KPAE 120334Z 18013G18KT 8SM FEW010 BKN015 OVC030 08/06 A2998 RMK AO2=
201105120334 SPECI KPAE 120334Z 18013G18KT 8SM FEW010 BKN015 OVC030 08/06 A2998 RMK AO2=
201105120331 SPECI KPAE 120331Z 17012G19KT 6SM BR BKN013 BKN022 OVC030 08/06 A2998 RMK AO2=
201105120331 SPECI KPAE 120331Z 17012G19KT 6SM BR BKN013 BKN022 OVC030 08/06 A2998 RMK AO2=
201105120312 SPECI KPAE 120312Z 17011G19KT 10SM SCT008 SCT013 OVC032 08/06 A2997 RMK AO2=
201105120312 SPECI KPAE 120312Z 17011G19KT 10SM SCT008 SCT013 OVC032 08/06 A2997 RMK AO2=
201105120253 METAR KPAE 120253Z 18014KT 10SM BKN008 OVC013 08/06 A2998 RMK AO2 RAE38 CIG 006V011 SLP153 P0001 60005 T00780056 51031=
201105120218 SPECI KPAE 120218Z 17016G20KT 9SM -RA BKN006 OVC042 08/06 A2995 RMK AO2 P0000=
201105120218 SPECI KPAE 120218Z 17016G20KT 9SM -RA BKN006 OVC042 08/06 A2995 RMK AO2 P0000=
201105120153 METAR KPAE 120153Z 18013G18KT 7SM -RA SCT015 BKN042 08/06 A2995 RMK AO2 SLP143 P0002 T00830061=
201105120053 METAR KPAE 120053Z 20016KT 9SM -RA FEW010 OVC040 08/06 A2993 RMK AO2 RAB2354 SLP137 P0002 T00830061=
201105112353 METAR KPAE 112353Z 18015KT 10SM FEW013 SCT036 OVC049 10/07 A2989 RMK AO2 RAE52 SLP122 P0004 60019 T01000067 10111 20100 53012=
201105112253 METAR KPAE 112253Z 20011G18KT 7SM -RA SCT011 BKN034 OVC048 10/08 A2987 RMK AO2 SLP117 P0008 T01000083=
201105112153 METAR KPAE 112153Z 19014KT 5SM -RA FEW008 BKN016 OVC031 11/08 A2986=
201105112053 METAR KPAE 112053Z 19014KT 10SM -RA SCT008 BKN016 BKN032 11/08 A2985 RMK AO2 SLP109 P0000 60002 T01060078 53009=
201105112002 SPECI KPAE 112002Z 20015KT 9SM -RA SCT008 SCT016 OVC055 11/08 A2985 RMK AO2 P0000=
201105112002 SPECI KPAE 112002Z 20015KT 9SM -RA SCT008 SCT016 OVC055 11/08 A2985 RMK AO2 P0000=
201105111953 METAR KPAE 111953Z 19015KT 10SM -RA SCT016 OVC055 11/08 A2984 RMK AO2 SLP107 P0001 T01060078=
201105111853 METAR KPAE 111853Z 18011KT 10SM -RA FEW012 SCT037 OVC055 11/07 A2983 RMK AO2 RAB26 SLP101 P0001 T01060072=
201105111753 METAR KPAE 111753Z 16010KT 10SM FEW006 OVC050 11/06 A2982 RMK AO2 SLP099 60002 T01110056 10117 20083 58009=
201105111653 METAR KPAE 111653Z 17010KT 10SM FEW006 OVC050 11/07 A2983 RMK AO2 SLP103 T01060067=
201105111553 METAR KPAE 111553Z 18009KT 10SM FEW011 OVC048 09/07 A2985 RMK AO2 RAE14 SLP108 P0000 T00940067=
201105111453 METAR KPAE 111453Z 17010KT 10SM -RA FEW030 OVC038 09/06 A2985 RMK AO2 SLP108 P0001 60002 T00890056 50001=
201105111353 METAR KPAE 111353Z 17009KT 10SM -RA FEW044 OVC060 08/05 A2985 RMK AO2 RAB1255 SLP109 P0000 T00830050=
201105111253 METAR KPAE 111253Z AUTO 17008KT 10SM BKN047 OVC070 09/06 A2985 RMK AO2 RAE41 SLP107 P0001 T00890061 TSNO=
201105111153 METAR KPAE 111153Z AUTO 18009KT 10SM -RA FEW046 OVC080 09/07 A2985 RMK AO2 SLP108 P0000 60001 70001 T00940072 10122 20094 56009 TSNO=
201105111053 METAR KPAE 111053Z AUTO 17009KT 10SM -RA BKN065 OVC080 10/07 A2985 RMK AO2 SLP110 P0001 T01000072 TSNO=
201105110953 METAR KPAE 110953Z AUTO 17008KT 10SM -RA OVC085 11/07 A2986 RMK AO2 RAB45 SLP112 P0000 T01110067 TSNO=
201105110853 METAR KPAE 110853Z AUTO 17007KT 10SM BKN100 OVC120 11/07 A2987 RMK AO2 RAB34E45 SLP117 P0000 60000 T01110067 58006 TSNO=
201105110753 METAR KPAE 110753Z AUTO 17004KT 10SM OVC100 12/06 A2988 RMK AO2 SLP120 T01170061 401440072 TSNO=
201105110653 METAR KPAE 110653Z AUTO 16006KT 10SM FEW100 12/06 A2989 RMK AO2 SLP121 T01170056 TSNO=
201105110553 METAR KPAE 110553Z AUTO 00000KT 10SM CLR 12/06 A2989 RMK AO2 SLP123 T01170061 10144 20100 58008 TSNO=
201105110453 METAR KPAE 110453Z AUTO 02004KT 10SM BKN080 BKN100 11/07 A2991 RMK AO2 SLP131 T01060067 TSNO=
201105110353 METAR KPAE 110353Z AUTO 17003KT 10SM OVC095 13/05 A2991 RMK AO2 SLP130 T01330050 TSNO=
201105110253 METAR KPAE 110253Z 18004KT 10SM SCT100 13/06 A2992 RMK AO2 SLP132 T01330056 57018=
201105110153 METAR KPAE 110153Z 25006KT 10SM FEW110 14/06 A2994 RMK AO2 SLP138 T01390061=
201105110053 METAR KPAE 110053Z 24007KT 10SM CLR 14/06 A2995 RMK AO2 SLP143 T01440061=
201105102353 METAR KPAE 102353Z 25009KT 10SM CLR 14/07 A2997 RMK AO2 SLP150 T01390067 10139 20094 58026=
201105102253 METAR KPAE 102253Z 27009G17KT 10SM FEW024 13/07 A3000 RMK AO2 SLP160 T01280067=
201105102153 METAR KPAE 102153Z 23006KT 10SM FEW024 SCT100 13/07 A3002 RMK AO2 SLP167 T01280067=
201105102112 SPECI KPAE 102112Z 26007KT 10SM SCT022 12/07 A3004 RMK AO2=
201105102112 SPECI KPAE 102112Z 26007KT 10SM SCT022 12/07 A3004 RMK AO2=
201105102053 METAR KPAE 102053Z VRB06KT 10SM BKN022 12/07 A3005 RMK AO2 SLP177 T01220072 58017=
201105101953 METAR KPAE 101953Z 25006KT 10SM OVC018 11/07 A3007 RMK AO2 SLP184 T01110067=
201105101911 SPECI KPAE 101911Z 19007KT 10SM OVC016 11/07 A3009 RMK AO2=
201105101911 SPECI KPAE 101911Z 19007KT 10SM OVC016 11/07 A3009 RMK AO2=
201105101853 METAR KPAE 101853Z 20003KT 10SM R16R/4000VP6000FT OVC014 11/06 A3009 RMK AO2 SLP191 T01060061=
201105101825 SPECI KPAE 101825Z 19005KT 10SM OVC012 10/06 A3010 RMK AO2=
201105101825 SPECI KPAE 101825Z 19005KT 10SM OVC012 10/06 A3010 RMK AO2=
201105101753 METAR KPAE 101753Z 17006KT 10SM OVC009 09/07 A3010 RMK AO2 SLP195 T00940067 10094 20078 58005=
201105101653 METAR KPAE 101653Z 24003KT 10SM BKN005 OVC012 09/07 A3011 RMK AO2 SLP197 T00890067=
201105101553 METAR KPAE 101553Z 00000KT 10SM BKN009 OVC026 09/07 A3011 RMK AO2 SLP200 T00890067=
201105101532 SPECI KPAE 101532Z 27004KT 10SM BKN008 OVC014 09/06 A3012 RMK AO2=
201105101532 SPECI KPAE 101532Z 27004KT 10SM BKN008 OVC014 09/06 A3012 RMK AO2=
201105101453 METAR KPAE 101453Z 00000KT 10SM BKN012 OVC025 08/06 A3012=
201105101353 METAR KPAE 101353Z 00000KT 10SM OVC022 09/06 A3013 RMK AO2 SLP202 T00890056=
201105101253 METAR KPAE 101253Z AUTO 03003KT 10SM OVC022 08/06 A3013 RMK AO2 SLP204 T00830056=
201105101153 METAR KPAE 101153Z AUTO 02004KT 10SM OVC024 08/06 A3013 RMK AO2 SLP205 T00780056 10083 20072 58001=
201105101053 METAR KPAE 101053Z AUTO 04004KT 10SM OVC026 08/06 A3014 RMK AO2 SLP205 T00830056=
201105100953 METAR KPAE 100953Z AUTO 02003KT 10SM FEW007 OVC022 08/06 A3014 RMK AO2 SLP206 T00780056=
201105100951 SPECI KPAE 100951Z AUTO VRB03KT 10SM SCT007 OVC022 08/06 A3014 RMK AO2=
201105100951 SPECI KPAE 100951Z AUTO VRB03KT 10SM SCT007 OVC022 08/06 A3014 RMK AO2=
201105100918 SPECI KPAE 100918Z AUTO 00000KT 10SM BKN007 07/06 A3014 RMK AO2=
201105100918 SPECI KPAE 100918Z AUTO 00000KT 10SM BKN007 07/06 A3014 RMK AO2=
201105100853 METAR KPAE 100853Z AUTO 03003KT 10SM SCT007 07/06 A3014 RMK AO2 SLP208 T00720056 56001=
201105100851 SPECI KPAE 100851Z AUTO 00000KT 10SM SCT007 07/06 A3014 RMK AO2=
201105100851 SPECI KPAE 100851Z AUTO 00000KT 10SM SCT007 07/06 A3014 RMK AO2=
201105100838 SPECI KPAE 100838Z AUTO 02003KT 10SM BKN007 07/06 A3014 RMK AO2=
201105100838 SPECI KPAE 100838Z AUTO 02003KT 10SM BKN007 07/06 A3014 RMK AO2=
201105100819 SPECI KPAE 100819Z AUTO 01003KT 10SM FEW007 07/06 A3014 RMK AO2=
201105100819 SPECI KPAE 100819Z AUTO 01003KT 10SM FEW007 07/06 A3014 RMK AO2=
201105100753 METAR KPAE 100753Z AUTO 03006KT 10SM SCT060 08/06 A3014 RMK AO2 SLP208 T00780056 401330078=
201105100653 METAR KPAE 100653Z AUTO 03006KT 10SM SCT006 08/06 A3014 RMK AO2 SLP209 T00830061=
201105100649 SPECI KPAE 100649Z AUTO 02006KT 10SM BKN006 08/06 A3014 RMK AO2=
201105100649 SPECI KPAE 100649Z AUTO 02006KT 10SM BKN006 08/06 A3014 RMK AO2=
201105100612 SPECI KPAE 100612Z AUTO 01004KT 10SM BKN004 08/06 A3014 RMK AO2=
201105100612 SPECI KPAE 100612Z AUTO 01004KT 10SM BKN004 08/06 A3014 RMK AO2=
201105100553 METAR KPAE 100553Z AUTO 02006KT 10SM FEW004 08/06 A3014 RMK AO2 SLP209 T00830061 10122 20083 58001=
201105100515 SPECI KPAE 100515Z AUTO 01008KT 10SM FEW004 08/07 A3015 RMK AO2=
201105100515 SPECI KPAE 100515Z AUTO 01008KT 10SM FEW004 08/07 A3015 RMK AO2=
201105100453 METAR KPAE 100453Z AUTO 01006KT 10SM CLR 08/07 A3015 RMK AO2 SLP211 T00830067=
201105100353 METAR KPAE 100353Z AUTO 01004KT 10SM BKN055 09/07 A3014 RMK AO2 SLP210 T00940072=
201105100253 METAR KPAE 100253Z VRB04KT 10SM BKN055 11/07 A3015 RMK AO2 SLP210 T01060067 55000=
201105100153 METAR KPAE 100153Z 00000KT 10SM OVC055 12/07 A3014 RMK AO2 SLP208 T01170072=
201105100053 METAR KPAE 100053Z 36003KT 10SM SCT015 OVC050 12/07 A3014 RMK AO2 SLP208 T01220072=
201105092353 METAR KPAE 092353Z 30005KT 10SM OVC050 13/07 A3015 RMK AO2 SLP209 T01280072 10133 20100 50001=
201105092253 METAR KPAE 092253Z 29004KT 10SM SCT015 OVC050 12/07 A3015 RMK AO2 SLP211 T01220072=
201105092153 METAR KPAE 092153Z 00000KT 10SM FEW022 OVC050 13/07 A3015 RMK AO2 SLP210 T01330067=
201105092100 SPECI KPAE 092100Z 00000KT 10SM BKN017 OVC050 12/07 A3014 RMK AO2=
201105092100 SPECI KPAE 092100Z 00000KT 10SM BKN017 OVC050 12/07 A3014 RMK AO2=
201105092053 METAR KPAE 092053Z 21003KT 10SM OVC049 12/07 A3014 RMK AO2 SLP208 T01220072 50003=
201105091955 SPECI KPAE 091955Z VRB03KT 10SM BKN012 OVC017 11/07 A3014 RMK AO2=
201105091955 SPECI KPAE 091955Z VRB03KT 10SM BKN012 OVC017 11/07 A3014 RMK AO2=
201105091953 METAR KPAE 091953Z 00000KT 10SM OVC017 11/07 A3014=
201105091853 METAR KPAE 091853Z 27003KT 10SM OVC015 11/06 A3014 RMK AO2 SLP207 T01060061=
201105091800 METAR KPAE NIL=
201105091700 SPECI KPAE 091700Z 00000KT 10SM FEW010 OVC017 09/07 A3013 RMK AO2=
201105091700 SPECI KPAE 091700Z 00000KT 10SM FEW010 OVC017 09/07 A3013 RMK AO2=
201105091653 METAR KPAE 091653Z 00000KT 10SM BKN010 OVC017 09/06 A3013 RMK AO2 SLP204 T00940061=
201105091628 SPECI KPAE 091628Z 00000KT 10SM OVC010 09/06 A3013 RMK AO2=
201105091628 SPECI KPAE 091628Z 00000KT 10SM OVC010 09/06 A3013 RMK AO2=
201105091556 SPECI KPAE 091556Z 00000KT 10SM FEW011 OVC020 09/06 A3012 RMK AO2=
201105091556 SPECI KPAE 091556Z 00000KT 10SM FEW011 OVC020 09/06 A3012 RMK AO2=
201105091553 METAR KPAE 091553Z 00000KT 10SM BKN030 OVC050 09/06 A3012 RMK AO2 SLP203 T00940061=
201105091455 SPECI KPAE 091455Z 00000KT 10SM BKN030 OVC050 09/06 A3012 RMK AO2=
201105091455 SPECI KPAE 091455Z 00000KT 10SM BKN030 OVC050 09/06 A3012 RMK AO2=
201105091453 METAR KPAE 091453Z 00000KT 10SM BKN025 OVC050 09/06 A3012 RMK AO2 SLP202 T00940056 51016=
201105091353 METAR KPAE 091353Z 30003KT 10SM OVC050 09/06 A3011 RMK AO2 SLP197 T00890056=
201105091253 METAR KPAE 091253Z AUTO 00000KT 10SM OVC050 09/05 A3009 RMK AO2 SLP192 T00890050=
201105091153 METAR KPAE 091153Z AUTO 00000KT 10SM OVC050 09/06 A3008 RMK AO2 SLP185 70004 T00890056 10094 20083 53010=
201105091053 METAR KPAE 091053Z AUTO 36003KT 10SM OVC050 09/06 A3006 RMK AO2 SLP180 T00890056=
201105090953 METAR KPAE 090953Z AUTO 00000KT 10SM OVC050 09/06 A3006 RMK AO2 SLP179 T00890056=
201105090853 METAR KPAE 090853Z AUTO 02004KT 10SM SCT037 OVC050 09/06 A3004 RMK AO2 SLP174 T00890056 51010=
201105090753 METAR KPAE 090753Z AUTO 02006KT 10SM FEW015 BKN041 OVC050 09/06 A3004 RMK AO2 SLP174 T00890056 401280067=
201105090653 METAR KPAE 090653Z AUTO 35005KT 10SM OVC050 09/06 A3003 RMK AO2 SLP170 T00890056=
201105090553 METAR KPAE 090553Z AUTO 01003KT 10SM OVC055 09/06 A3001 RMK AO2 SLP165 T00940056 10122 20094 51012=
201105090453 METAR KPAE 090453Z VRB03KT 10SM OVC055 09/06 A3000 RMK AO2 SLP162 T00940056=
201105090353 METAR KPAE 090353Z 33004KT 10SM OVC055 09/05 A3000 RMK AO2 SLP159 T00940050=
201105090253 METAR KPAE 090253Z 36004KT 10SM OVC060 10/06 A2998 RMK AO2 SLP153 T01000056 51012=
201105090153 METAR KPAE 090153Z 31006KT 10SM SCT050 OVC060 11/04 A2997 RMK AO2 SLP150 T01060044=
201105090053 METAR KPAE 090053Z 36005KT 10SM OVC060 11/04 A2996 RMK AO2 SLP146 T01110044=
201105082353 METAR KPAE 082353Z 36009G15KT 10SM OVC065 12/04 A2994 RMK AO2 SLP141 T01220044 10128 20089 53004=
201105082253 METAR KPAE 082253Z 01007KT 10SM FEW050 SCT100 12/03 A2994 RMK AO2 SLP140 T01220033=
201105082153 METAR KPAE 082153Z 02007KT 10SM SCT027 12/04 A2993 RMK AO2 SLP138 T01220039=
201105082053 METAR KPAE 082053Z VRB04KT 10SM SCT027 12/04 A2993 RMK AO2 SLP138 T01170039 53004=
201105081953 METAR KPAE 081953Z 30007KT 10SM FEW023 BKN036 11/04 A2993 RMK AO2 SLP135 T01060039=
201105081853 METAR KPAE 081853Z VRB04KT 10SM SCT017 BKN041 09/05 A2992 RMK AO2 SLP134 T00940050=
201105081815 SPECI KPAE 081815Z 02004KT 10SM SCT012 BKN043 09/05 A2992 RMK AO2=
201105081815 SPECI KPAE 081815Z 02004KT 10SM SCT012 BKN043 09/05 A2992 RMK AO2=
201105081753 METAR KPAE 081753Z 36005KT 10SM SCT007 BKN012 OVC039 09/06 A2992 RMK AO2 SLP134 60004 T00890056 10094 20067 53005=
201105081703 SPECI KPAE 081703Z 36004KT 10SM SCT007 BKN012 OVC039 08/06 A2992 RMK AO2=
201105081703 SPECI KPAE 081703Z 36004KT 10SM SCT007 BKN012 OVC039 08/06 A2992 RMK AO2=
201105081656 SPECI KPAE 081656Z VRB04KT 10SM SCT007 SCT012 OVC037 08/06 A2992 RMK AO2=
201105081656 SPECI KPAE 081656Z VRB04KT 10SM SCT007 SCT012 OVC037 08/06 A2992 RMK AO2=
201105081653 METAR KPAE 081653Z VRB04KT 10SM BKN007 BKN011 OVC041 08/06 A2991 RMK AO2 SLP133 T00830056=
201105081609 SPECI KPAE 081609Z 28006KT 10SM BKN007 BKN013 OVC041 08/06 A2991 RMK AO2=
201105081609 SPECI KPAE 081609Z 28006KT 10SM BKN007 BKN013 OVC041 08/06 A2991 RMK AO2=
201105081606 SPECI KPAE 081606Z 29005KT 10SM BKN010 BKN018 OVC041 08/06 A2991 RMK AO2=
201105081606 SPECI KPAE 081606Z 29005KT 10SM BKN010 BKN018 OVC041 08/06 A2991 RMK AO2=
201105081553 METAR KPAE 081553Z 32004KT 10SM SCT008 BKN041 OVC090 08/06 A2991 RMK AO2 SLP130 T00780056=
201105081453 METAR KPAE 081453Z 29003KT 10SM FEW002 BKN006 BKN013 07/05 A2991 RMK AO2 RAE20 SLP129 P0000 60004 T00670050 53009=
201105081418 SPECI KPAE 081418Z 32004KT 10SM -RA FEW003 BKN006 OVC031 07/05 A2990 RMK AO2 P0000=
201105081418 SPECI KPAE 081418Z 32004KT 10SM -RA FEW003 BKN006 OVC031 07/05 A2990 RMK AO2 P0000=
201105081353 METAR KPAE 081353Z 00000KT 9SM -RA BKN004 OVC033 07/06 A2990 RMK AO2 CIG 001V006 SLP126 P0001 T00670056=
201105081324 SPECI KPAE 081324Z 00000KT 8SM -RA BKN002 BKN033 OVC060 07/06 A2989 RMK AO2 P0001=
201105081324 SPECI KPAE 081324Z 00000KT 8SM -RA BKN002 BKN033 OVC060 07/06 A2989 RMK AO2 P0001=
201105081310 SPECI KPAE 081310Z 00000KT 8SM -RA SCT002 BKN035 OVC060 07/06 A2989 RMK AO2 P0001=
201105081310 SPECI KPAE 081310Z 00000KT 8SM -RA SCT002 BKN035 OVC060 07/06 A2989 RMK AO2 P0001=
201105081253 METAR KPAE 081253Z 00000KT 10SM -RA BKN035 BKN042 OVC060 07/05 A2989 RMK AO2 SLP122 P0003 T00670050=
201105081219 SPECI KPAE 081219Z 00000KT 7SM -RA FEW011 SCT024 OVC033 07/05 A2988 RMK AO2 P0002=
201105081219 SPECI KPAE 081219Z 00000KT 7SM -RA FEW011 SCT024 OVC033 07/05 A2988 RMK AO2 P0002=
201105081207 SPECI KPAE 081207Z 00000KT 4SM -RA BR FEW005 BKN024 OVC035 07/05 A2988 RMK AO2 P0001=
201105081207 SPECI KPAE 081207Z 00000KT 4SM -RA BR FEW005 BKN024 OVC035 07/05 A2988 RMK AO2 P0001=
201105081153 METAR KPAE 081153Z 00000KT 4SM -RA BR OVC009 07/05 A2988 RMK AO2 CIG 005V011 SLP120 P0005 60016 70038 T00670050 10072 20067 53003=
201105081143 SPECI KPAE 081143Z 00000KT 5SM -RA BR BKN007 OVC012 07/05 A2988 RMK AO2 CIG 005V010 P0003=
201105081143 SPECI KPAE 081143Z 00000KT 5SM -RA BR BKN007 OVC012 07/05 A2988 RMK AO2 CIG 005V010 P0003=
201105081116 SPECI KPAE 081116Z 00000KT 6SM -RA BR FEW004 OVC012 07/05 A2988 RMK AO2 P0001=
201105081116 SPECI KPAE 081116Z 00000KT 6SM -RA BR FEW004 OVC012 07/05 A2988 RMK AO2 P0001=
201105081053 METAR KPAE 081053Z 00000KT 7SM -RA OVC012 07/04 A2987 RMK AO2 RAB05 SLP117 P0002 T00670044=
201105081010 SPECI KPAE 081010Z 00000KT 10SM -RA BKN014 BKN019 OVC026 07/05 A2987 RMK AO2 RAB05 P0000=
201105081010 SPECI KPAE 081010Z 00000KT 10SM -RA BKN014 BKN019 OVC026 07/05 A2987 RMK AO2 RAB05 P0000=
201105080953 METAR KPAE 080953Z 00000KT 10SM FEW014 SCT019 OVC028 07/04 A2987 RMK AO2 RAE08B29E52 SLP115 P0000 T00670044=
201105080940 SPECI KPAE 080940Z 00000KT 10SM -RA BKN028 OVC036 07/05 A2987 RMK AO2 RAE08B29 P0000=
201105080940 SPECI KPAE 080940Z 00000KT 10SM -RA BKN028 OVC036 07/05 A2987 RMK AO2 RAE08B29 P0000=
201105080853 METAR KPAE 080853Z 11003KT 10SM -RA FEW041 OVC050 07/05 A2987 RMK AO2 SLP117 P0001 60009 T00670050 58001=
201105080753 METAR KPAE 080753Z 11003KT 10SM -RA BKN042 OVC055 07/05 A2987 RMK AO2 SLP116 P0002 T00670050 401220067=
201105080653 METAR KPAE 080653Z 12003KT 10SM -RA BKN036 OVC049 07/04 A2987 RMK AO2 SLP117 P0006 T00670044=
201105080553 METAR KPAE 080553Z 00000KT 8SM -RA OVC035 07/05 A2987 RMK AO2 SLP117 P0004 60007 T00720050 10089 20067 50005=
201105080453 METAR KPAE 080453Z 00000KT 6SM -RA BR BKN033 OVC042 07/05 A2987 RMK AO2 RAE12B29 SLP118 P0002 T00670050=
201105080353 METAR KPAE 080353Z 34003KT 10SM -RA FEW033 OVC041 07/05 A2986 RMK AO2 RAB44 SLP114 P0000 T00720050=
201105080253 METAR KPAE 080253Z 01005KT 10SM BKN032 OVC041 08/05 A2986 RMK AO2 RAB06E21 SLP112 P0000 60001 T00780050 51009=
201105080153 METAR KPAE 080153Z 35006KT 10SM SCT010 OVC031 08/05 A2985 RMK AO2 RAE13 SLP110 P0001 T00780050=
201105080100 SPECI KPAE 080100Z 34006KT 9SM -RA SCT010 OVC031 08/06 A2985 RMK AO2 P0001=
201105080100 SPECI KPAE 080100Z 34006KT 9SM -RA SCT010 OVC031 08/06 A2985 RMK AO2 P0001=
201105080053 METAR KPAE 080053Z 34005KT 10SM -RA SCT007 BKN022 OVC031 08/05 A2985 RMK AO2 RAE01B51 SLP109 P0000 T00780050=
201105072353 METAR KPAE 072353Z 34006KT 10SM -RA SCT007 BKN022 BKN060 09/06 A2983 RMK AO2 RAB50 SLP103 P0000 60013 T00890056 10122 20083 52003=
201105072308 SPECI KPAE 072308Z VRB04KT 10SM SCT007 BKN022 BKN060 09/07 A2982 RMK AO2=
201105072308 SPECI KPAE 072308Z VRB04KT 10SM SCT007 BKN022 BKN060 09/07 A2982 RMK AO2=
201105072253 SPECI KPAE 072253Z 36008KT 10SM FEW007 SCT022 BKN041 10/07 A2983 RMK AO2 RAE00B22E41 SLP102 P0001 T01000067=
201105072153 METAR KPAE 072153Z 36006KT 10SM -RA FEW004 BKN030 BKN045 09/08 A2982 RMK AO2 RAB21 SLP100 P0012 T00940078=
201105072150 SPECI KPAE 072150Z VRB05KT 10SM -RA FEW004 BKN028 OVC045 09/08 A2982 RMK AO2 RAB21 P0012=
201105072150 SPECI KPAE 072150Z VRB05KT 10SM -RA FEW004 BKN028 OVC045 09/08 A2982 RMK AO2 RAB21 P0012=
201105072053 METAR KPAE 072053Z 03004KT 10SM SCT028 BKN034 OVC043 09/06 A2982 RMK AO2 SLP099 T00890056 53005=
201105071953 METAR KPAE 071953Z 19013KT 10SM FEW010 BKN024 BKN036 12/06 A2981 RMK AO2 SLP096 T01220056=
201105071853 METAR KPAE 071853Z 19012KT 10SM BKN024 BKN030 OVC036 11/05 A2981 RMK AO2 SLP096 T01060050=
201105071753 METAR KPAE 071753Z 20009KT 10SM BKN024 OVC043 10/05 A2981 RMK AO2 SLP095 60002 T01000050 10106 20078 51015=
201105071710 SPECI KPAE 071710Z 21012G19KT 10SM BKN024 BKN030 OVC044 10/05 A2980 RMK AO2=
201105071710 SPECI KPAE 071710Z 21012G19KT 10SM BKN024 BKN030 OVC044 10/05 A2980 RMK AO2=
201105071653 METAR KPAE 071653Z 19015KT 10SM SCT020 BKN031 OVC044 11/06 A2980 RMK AO2 SLP092 T01060056=
201105071607 SPECI KPAE 071607Z 19011KT 10SM SCT006 BKN012 BKN019 09/06 A2978 RMK AO2=
201105071607 SPECI KPAE 071607Z 19011KT 10SM SCT006 BKN012 BKN019 09/06 A2978 RMK AO2=
201105071553 METAR KPAE 071553Z 19011KT 10SM BKN008 OVC012 09/07 A2978 RMK AO2 SLP087 T00940067=
201105071453 METAR KPAE 071453Z 16012G15KT 10SM BKN008 OVC013 08/07 A2976 RMK AO2 CIG 005V012 SLP080 60002 T00830067 58004=
201105071441 SPECI KPAE 071441Z 16007KT 10SM OVC008 08/07 A2976 RMK AO2 CIG 005V012=
201105071441 SPECI KPAE 071441Z 16007KT 10SM OVC008 08/07 A2976 RMK AO2 CIG 005V012=
201105071412 SPECI KPAE 071412Z 16010KT 10SM BKN010 OVC016 08/06 A2977 RMK AO2 CIG 006V012=
201105071412 SPECI KPAE 071412Z 16010KT 10SM BKN010 OVC016 08/06 A2977 RMK AO2 CIG 006V012=
201105071353 METAR KPAE 071353Z 15009G15KT 10SM OVC018 08/06 A2977=
201105071318 SPECI KPAE 071318Z AUTO 15010G15KT 8SM -RA SCT020 BKN026 OVC041 08/06 A2977 RMK AO2 P0002=
201105071318 SPECI KPAE 071318Z AUTO 15010G15KT 8SM -RA SCT020 BKN026 OVC041 08/06 A2977 RMK AO2 P0002=
201105071253 METAR KPAE 071253Z AUTO 15008G14KT 10SM -RA SCT020 BKN050 OVC090 08/06 A2978 RMK AO2 RAB17E29B53 SLP084 P0000 T00780056=
201105071250 SPECI KPAE 071250Z AUTO 15008KT 10SM FEW012 SCT020 OVC050 08/06 A2978 RMK AO2 RAB17E29 P0000=
201105071250 SPECI KPAE 071250Z AUTO 15008KT 10SM FEW012 SCT020 OVC050 08/06 A2978 RMK AO2 RAB17E29 P0000=
201105071153 METAR KPAE 071153Z AUTO 14005G15KT 9SM OVC020 08/06 A2978 RMK AO2 SLP086 60001 70016 T00780056 10083 20072 58010=
201105071117 SPECI KPAE 071117Z AUTO 16010G14KT 10SM FEW006 BKN020 OVC028 08/06 A2980 RMK AO2=
201105071117 SPECI KPAE 071117Z AUTO 16010G14KT 10SM FEW006 BKN020 OVC028 08/06 A2980 RMK AO2=
201105071053 METAR KPAE 071053Z AUTO 15007G16KT 10SM SCT006 OVC014 08/06 A2980 RMK AO2 SLP093 T00780061=
201105071051 SPECI KPAE 071051Z AUTO 15011G16KT 10SM FEW006 SCT010 OVC014 08/06 A2980 RMK AO2=
201105071051 SPECI KPAE 071051Z AUTO 15011G16KT 10SM FEW006 SCT010 OVC014 08/06 A2980 RMK AO2=
201105071043 SPECI KPAE 071043Z AUTO 15010G18KT 10SM FEW006 SCT010 OVC016 08/06 A2980 RMK AO2=
201105071043 SPECI KPAE 071043Z AUTO 15010G18KT 10SM FEW006 SCT010 OVC016 08/06 A2980 RMK AO2=
201105071036 SPECI KPAE 071036Z AUTO 16012G16KT 9SM FEW006 BKN013 OVC033 08/06 A2980 RMK AO2=
201105071036 SPECI KPAE 071036Z AUTO 16012G16KT 9SM FEW006 BKN013 OVC033 08/06 A2980 RMK AO2=
201105070953 METAR KPAE 070953Z AUTO 16012KT 6SM BR BKN006 OVC012 08/06 A2981 RMK AO2 RAE18 CIG 004V010 SLP097 P0000 T00780061=
201105070901 SPECI KPAE 070901Z AUTO 16014G19KT 10SM FEW005 OVC012 08/06 A2982 RMK AO2 RAE0859 P0000=
201105070901 SPECI KPAE 070901Z AUTO 16014G19KT 10SM FEW005 OVC012 08/06 A2982 RMK AO2 RAE0859 P0000=
201105070853 METAR KPAE 070853Z AUTO 17012KT 8SM -RA BKN010 OVC015 08/06 A2982 RMK AO2 RAB45 CIG 005V013 SLP100 P0001 60001 T00780061 56009=
201105070846 SPECI KPAE 070846Z AUTO 17011KT 5SM -RA BR BKN010 OVC015 08/06 A2982 RMK AO2 RAB45 CIG 005V014 P0000=
201105070846 SPECI KPAE 070846Z AUTO 17011KT 5SM -RA BR BKN010 OVC015 08/06 A2982 RMK AO2 RAB45 CIG 005V014 P0000=
201105070839 SPECI KPAE 070839Z AUTO 17010KT 5SM BR FEW006 BKN009 OVC014 08/06 A2983 RMK AO2=
201105070839 SPECI KPAE 070839Z AUTO 17010KT 5SM BR FEW006 BKN009 OVC014 08/06 A2983 RMK AO2=
201105070822 SPECI KPAE 070822Z AUTO 17011G23KT 10SM FEW009 BKN014 OVC024 08/06 A2983 RMK AO2=
201105070822 SPECI KPAE 070822Z AUTO 17011G23KT 10SM FEW009 BKN014 OVC024 08/06 A2983 RMK AO2=
201105070808 SPECI KPAE 070808Z AUTO 16014G18KT 10SM FEW009 BKN018 OVC070 08/06 A2983 RMK AO2=
201105070808 SPECI KPAE 070808Z AUTO 16014G18KT 10SM FEW009 BKN018 OVC070 08/06 A2983 RMK AO2=
201105070753 METAR KPAE 070753Z AUTO 16012KT 10SM FEW018 BKN070 OVC110 08/06 A2983 RMK AO2 RAE31 SLP102 P0000 T00780061 401170078=
201105070712 SPECI KPAE 070712Z AUTO 16012KT 10SM -RA FEW007 BKN050 OVC090 08/06 A2983 RMK AO2 P0000=
201105070712 SPECI KPAE 070712Z AUTO 16012KT 10SM -RA FEW007 BKN050 OVC090 08/06 A2983 RMK AO2 P0000=
201105070653 METAR KPAE 070653Z AUTO 16014KT 10SM -RA OVC090 08/06 A2983=
201105070553 METAR KPAE 070553Z AUTO 17014G19KT 10SM FEW026 BKN050 OVC080 08/06 A2985 RMK AO2 SLP110 60011 T00830056 10106 20083 58009=
201105070540 SPECI KPAE 070540Z AUTO 18012G19KT 10SM SCT024 BKN035 OVC090 08/06 A2986 RMK AO2=
201105070540 SPECI KPAE 070540Z AUTO 18012G19KT 10SM SCT024 BKN035 OVC090 08/06 A2986 RMK AO2=
201105070453 METAR KPAE 070453Z AUTO 19013KT 10SM FEW010 BKN016 OVC080 08/06 A2987=
201105070444 SPECI KPAE 070444Z AUTO 19012G17KT 10SM FEW010 BKN019 OVC085 08/06 A2987 RMK AO2 RAE20 P0001=
201105070444 SPECI KPAE 070444Z AUTO 19012G17KT 10SM FEW010 BKN019 OVC085 08/06 A2987 RMK AO2 RAE20 P0001=
201105070353 METAR KPAE 070353Z AUTO 17011KT 10SM -RA FEW007 OVC043 08/07 A2987 RMK AO2 SLP116 P0002 T00830067=
201105070328 SPECI KPAE 070328Z 17009KT 9SM -RA FEW009 OVC039 08/07 A2987 RMK AO2 P0001=
201105070328 SPECI KPAE 070328Z 17009KT 9SM -RA FEW009 OVC039 08/07 A2987 RMK AO2 P0001=
201105070253 METAR KPAE 070253Z 18009KT 10SM -RA FEW012 OVC043 09/07 A2988 RMK AO2 SLP119 P0003 60008 T00890067 56015=
201105070236 SPECI KPAE 070236Z 18010KT 7SM -RA FEW007 SCT012 OVC035 09/07 A2988 RMK AO2 P0002=
201105070236 SPECI KPAE 070236Z 18010KT 7SM -RA FEW007 SCT012 OVC035 09/07 A2988 RMK AO2 P0002=
201105070153 METAR KPAE 070153Z 17011KT 10SM -RA OVC041 09/07 A2988 RMK AO2 SLP121 P0004 T00940067=
201105070053 METAR KPAE 070053Z 16009KT 10SM -RA FEW011 BKN046 10/07 A2990 RMK AO2 SLP128 P0001 T01000067=
201105070039 SPECI KPAE 070039Z 17008KT 10SM -RA FEW014 SCT033 BKN042 10/07 A2991 RMK AO2 P0001=
201105070039 SPECI KPAE 070039Z 17008KT 10SM -RA FEW014 SCT033 BKN042 10/07 A2991 RMK AO2 P0001=
201105070022 SPECI KPAE 070022Z 17008KT 9SM -RA FEW016 BKN029 OVC040 10/07 A2990 RMK AO2 P0001=
201105070022 SPECI KPAE 070022Z 17008KT 9SM -RA FEW016 BKN029 OVC040 10/07 A2990 RMK AO2 P0001=
201105062353 METAR KPAE 062353Z 18010KT 10SM -RA OVC040 11/07 A2992 RMK AO2 SLP134 P0000 60001 T01060067 10117 20089 56016=
201105062311 SPECI KPAE 062311Z 19012KT 10SM -RA FEW021 SCT027 OVC042 11/07 A2993 RMK AO2 P0000=
201105062311 SPECI KPAE 062311Z 19012KT 10SM -RA FEW021 SCT027 OVC042 11/07 A2993 RMK AO2 P0000=
201105062253 METAR KPAE 062253Z 19012KT 10SM -RA BKN015 OVC025 11/07 A2994 RMK AO2 RAB20 SLP140 P0001 T01060067=
201105062153 METAR KPAE 062153Z 16011KT 10SM SCT022 BKN027 OVC055 11/06 A2995 RMK AO2 SLP143 T01110056=
201105062053 METAR KPAE 062053Z 18007KT 10SM BKN015 BKN023 OVC030 11/06 A2997 RMK AO2 SLP150 T01060056 58014=
201105061953 METAR KPAE 061953Z 18007KT 10SM FEW014 BKN023 OVC029 10/06 A2999 RMK AO2 SLP157 T01000061=
201105061912 SPECI KPAE 061912Z 17007KT 8SM SCT012 OVC021 09/07 A3000 RMK AO2=
201105061912 SPECI KPAE 061912Z 17007KT 8SM SCT012 OVC021 09/07 A3000 RMK AO2=
201105061900 SPECI KPAE 061900Z 16011KT 8SM BKN012 OVC021 09/06 A3000 RMK AO2=
201105061900 SPECI KPAE 061900Z 16011KT 8SM BKN012 OVC021 09/06 A3000 RMK AO2=
201105061853 METAR KPAE 061853Z 17009KT 6SM HZ SCT012 BKN021 OVC028 09/06 A3000=
201105061753 METAR KPAE 061753Z 19011KT 10SM SCT012 BKN019 OVC028 09/06 A3001 RMK AO2 RAE32 SLP165 P0000 60003 T00940061 10094 20078 55004=
201105061745 SPECI KPAE 061745Z 20010KT 10SM BKN012 BKN019 OVC028 09/06 A3001 RMK AO2 RAE32 P0000=
201105061745 SPECI KPAE 061745Z 20010KT 10SM BKN012 BKN019 OVC028 09/06 A3001 RMK AO2 RAE32 P0000=
201105061653 METAR KPAE 061653Z 21009KT 10SM -RA FEW010 OVC017 08/06 A3001 RMK AO2 SLP163 P0002 T00830061=
201105061553 METAR KPAE 061553Z 19006KT 10SM -RA FEW002 BKN008 OVC015 08/06 A3002=
201105061527 SPECI KPAE 061527Z 20008KT 10SM -RA BKN008 OVC015 08/06 A3002 RMK AO2 RAB21 P0000=
201105061527 SPECI KPAE 061527Z 20008KT 10SM -RA BKN008 OVC015 08/06 A3002 RMK AO2 RAB21 P0000=
201105061453 METAR KPAE 061453Z 20007KT 10SM BKN016 OVC026 08/06 A3002 RMK AO2 RAB24E48 CIG 012V023 SLP169 P0000 60001 T00780056 56005=
201105061433 SPECI KPAE 061433Z 20007KT 10SM -RA SCT010 OVC016 08/06 A3002 RMK AO2 RAB24 P0000=
201105061433 SPECI KPAE 061433Z 20007KT 10SM -RA SCT010 OVC016 08/06 A3002 RMK AO2 RAB24 P0000=
201105061414 SPECI KPAE 061414Z 20003KT 10SM FEW008 BKN013 OVC019 08/06 A3003 RMK AO2=
201105061414 SPECI KPAE 061414Z 20003KT 10SM FEW008 BKN013 OVC019 08/06 A3003 RMK AO2=
201105061353 METAR KPAE 061353Z 20004KT 10SM BKN015 OVC023 08/06 A3002 RMK AO2 RAE49 SLP169 P0001 T00780056=
201105061253 METAR KPAE 061253Z AUTO 20005KT 10SM -RA OVC017 08/05 A3003 RMK AO2 RAB20 SLP171 P0000 T00780050=
201105061153 METAR KPAE 061153Z AUTO 18005KT 10SM SCT021 BKN026 OVC034 08/04 A3004 RMK AO2 SLP174 70008 T00830044 10089 20078 58008=
201105061053 METAR KPAE 061053Z AUTO 21005KT 10SM OVC020 08/04 A3005 RMK AO2 SLP179 T00830044=
201105060953 METAR KPAE 060953Z AUTO 00000KT 10SM BKN018 OVC025 08/06 A3006 RMK AO2 SLP181 T00780061=
201105060924 SPECI KPAE 060924Z AUTO 00000KT 10SM BKN020 BKN041 BKN048 08/06 A3006 RMK AO2=
201105060924 SPECI KPAE 060924Z AUTO 00000KT 10SM BKN020 BKN041 BKN048 08/06 A3006 RMK AO2=
201105060901 SPECI KPAE 060901Z AUTO 01003KT 10SM FEW004 BKN031 OVC049 08/06 A3006 RMK AO2=
201105060901 SPECI KPAE 060901Z AUTO 01003KT 10SM FEW004 BKN031 OVC049 08/06 A3006 RMK AO2=
201105060853 METAR KPAE 060853Z AUTO 00000KT 10SM SCT004 BKN013 OVC031 08/06 A3007 RMK AO2 SLP183 T00780061 56007=
201105060802 SPECI KPAE 060802Z AUTO 00000KT 10SM BKN004 BKN007 OVC045 08/07 A3007 RMK AO2=
201105060802 SPECI KPAE 060802Z AUTO 00000KT 10SM BKN004 BKN007 OVC045 08/07 A3007 RMK AO2=
201105060753 METAR KPAE 060753Z AUTO 00000KT 10SM BKN006 BKN011 OVC045 08/07 A3008 RMK AO2 CIG 004V009 SLP187 T00830067 401060078=
201105060653 METAR KPAE 060653Z AUTO 04003KT 9SM SCT004 BKN007 OVC011 08/07 A3009 RMK AO2 SLP190 T00830067=
201105060639 SPECI KPAE 060639Z AUTO 02003KT 9SM SCT002 BKN007 OVC055 08/07 A3009 RMK AO2 CIG 003V009=
201105060639 SPECI KPAE 060639Z AUTO 02003KT 9SM SCT002 BKN007 OVC055 08/07 A3009 RMK AO2 CIG 003V009=
201105060553 METAR KPAE 060553Z AUTO 01003KT 9SM OVC004 09/08 A3009 RMK AO2 CIG 001V006 SLP192 60000 T00890078 10106 20089 50000=
201105060541 SPECI KPAE 060541Z AUTO 00000KT 10SM BKN006 BKN012 OVC018 09/08 A3009 RMK AO2 CIG 004V008=
201105060541 SPECI KPAE 060541Z AUTO 00000KT 10SM BKN006 BKN012 OVC018 09/08 A3009 RMK AO2 CIG 004V008=
201105060519 SPECI KPAE 060519Z AUTO 00000KT 10SM FEW006 BKN014 OVC041 09/08 A3010 RMK AO2=
201105060519 SPECI KPAE 060519Z AUTO 00000KT 10SM FEW006 BKN014 OVC041 09/08 A3010 RMK AO2=
201105060500 SPECI KPAE 060500Z AUTO 00000KT 10SM FEW006 BKN018 OVC044 10/08 A3010 RMK AO2=
201105060500 SPECI KPAE 060500Z AUTO 00000KT 10SM FEW006 BKN018 OVC044 10/08 A3010 RMK AO2=
201105060453 METAR KPAE 060453Z AUTO 00000KT 10SM FEW006 BKN014 OVC044 10/08 A3010 RMK AO2 SLP194 T01000078=
201105060447 SPECI KPAE 060447Z AUTO 24005KT 10SM FEW006 BKN019 OVC075 10/08 A3010 RMK AO2=
201105060447 SPECI KPAE 060447Z AUTO 24005KT 10SM FEW006 BKN019 OVC075 10/08 A3010 RMK AO2=
201105060353 METAR KPAE 060353Z AUTO 15007KT 10SM FEW018 BKN033 OVC060 10/08 A3010 RMK AO2 SLP193 T01000078=
201105060305 SPECI KPAE 060305Z VRB05KT 10SM FEW025 SCT029 OVC055 11/08 A3010 RMK AO2=
201105060305 SPECI KPAE 060305Z VRB05KT 10SM FEW025 SCT029 OVC055 11/08 A3010 RMK AO2=
201105060253 METAR KPAE 060253Z VRB03KT 10SM SCT024 BKN029 OVC055 11/08 A3009 RMK AO2 SLP192 60000 T01060078 58015=
201105060230 SPECI KPAE 060230Z VRB04KT 10SM FEW012 BKN029 OVC050 11/08 A3010 RMK AO2=
201105060230 SPECI KPAE 060230Z VRB04KT 10SM FEW012 BKN029 OVC050 11/08 A3010 RMK AO2=
201105060200 SPECI KPAE 060200Z 11007KT 9SM FEW022 SCT027 OVC060 11/07 A3012 RMK AO2=
201105060200 SPECI KPAE 060200Z 11007KT 9SM FEW022 SCT027 OVC060 11/07 A3012 RMK AO2=
201105060153 METAR KPAE 060153Z VRB04KT 10SM BKN026 BKN032 OVC045 11/07 A3011 RMK AO2 SLP199 T01060072=
201105060053 METAR KPAE 060053Z 12006KT 10SM BKN026 OVC032 11/08 A3012 RMK AO2 RAE2358 SLP202 P0000 T01060078=
201105060037 SPECI KPAE 060037Z 11008KT 10SM BKN026 OVC043 11/08 A3013 RMK AO2 RAE2358 P0000=
201105060037 SPECI KPAE 060037Z 11008KT 10SM BKN026 OVC043 11/08 A3013 RMK AO2 RAE2358 P0000=
201105052353 METAR KPAE 052353Z VRB05KT 10SM -RA OVC047 11/07 A3014 RMK AO2 RAB12E25B49 SLP207 P0000 60001 T01060072 10106 20078 58012=
201105052253 METAR KPAE 052253Z 16009KT 10SM FEW011 SCT014 OVC055 11/07 A3015 RMK AO2 RAE2159 SLP211 P0000 T01060072=
201105052224 SPECI KPAE 052224Z VRB04KT 10SM SCT009 OVC016 10/07 A3016 RMK AO2 RAE2159 P0000=
201105052224 SPECI KPAE 052224Z VRB04KT 10SM SCT009 OVC016 10/07 A3016 RMK AO2 RAE2159 P0000=
201105052153 METAR KPAE 052153Z 16007KT 10SM -RA OVC009 09/07 A3017 RMK AO2 RAB2059 SLP217 P0001 T00940072=
201105052109 SPECI KPAE 052109Z 16007KT 9SM -RA OVC009 09/07 A3017 RMK AO2 RAB2059 P0000=
201105052109 SPECI KPAE 052109Z 16007KT 9SM -RA OVC009 09/07 A3017 RMK AO2 RAB2059 P0000=
201105052053 METAR KPAE 052053Z 15005KT 9SM OVC011 09/06 A3017 RMK AO2 SLP219 T00890061 51010=
201105051953 METAR KPAE 051953Z 17006KT 9SM OVC011 09/06 A3017 RMK AO2 SLP217 T00890056=
201105051853 METAR KPAE 051853Z 20009KT 10SM SCT009 BKN011 09/06 A3015 RMK AO2 SLP211 T00890061=
201105051753 METAR KPAE 051753Z 20008KT 10SM OVC007 08/06 A3014 RMK AO2 SLP208 60007 T00780056 10083 20078 51006=
201105051653 METAR KPAE 051653Z 19008KT 10SM OVC011 08/06 A3014 RMK AO2 CIG 009V013 SLP207 T00780056=
201105051634 SPECI KPAE 051634Z 18007KT 10SM FEW006 BKN011 OVC021 08/05 A3014 RMK AO2=
201105051634 SPECI KPAE 051634Z 18007KT 10SM FEW006 BKN011 OVC021 08/05 A3014 RMK AO2=
201105051553 METAR KPAE 051553Z 22008KT 10SM BKN007 BKN016 OVC037 08/06 A3013 RMK AO2 SLP206 T00830061=
201105051500 SPECI KPAE 051500Z 16004KT 10SM BKN007 BKN013 OVC028 08/06 A3012 RMK AO2=
201105051500 SPECI KPAE 051500Z 16004KT 10SM BKN007 BKN013 OVC028 08/06 A3012 RMK AO2=
201105051453 METAR KPAE 051453Z 16003KT 10SM BKN004 BKN016 OVC043 08/06 A3012 RMK AO2 SLP201 60007 T00830056 52002=
201105051403 SPECI KPAE 051403Z 18006KT 8SM BKN004 BKN016 OVC043 08/07 A3012 RMK AO2=
201105051403 SPECI KPAE 051403Z 18006KT 8SM BKN004 BKN016 OVC043 08/07 A3012 RMK AO2=
201105051353 METAR KPAE 051353Z AUTO 17003KT 7SM FEW004 BKN016 OVC043 08/06 A3012 RMK AO2 RAE52 SLP200 P0002 T00780061=
201105051325 SPECI KPAE 051325Z AUTO 16006KT 4SM -RA BR FEW007 BKN022 OVC043 08/06 A3012 RMK AO2 P0001=
201105051325 SPECI KPAE 051325Z AUTO 16006KT 4SM -RA BR FEW007 BKN022 OVC043 08/06 A3012 RMK AO2 P0001=
201105051253 METAR KPAE 051253Z AUTO 00000KT 6SM -RA BR OVC043 08/06 A3012=
201105051153 METAR KPAE 051153Z AUTO 00000KT 7SM -RA OVC044 08/06 A3012 RMK AO2 SLP199 P0003 60003 70003 T00830056 10100 20083 50002=
201105051053 METAR KPAE 051053Z AUTO 36006KT 10SM -RA OVC060 08/06 A3012 RMK AO2 RAB46 SLP201 P0000 T00830056=
201105050953 METAR KPAE 050953Z AUTO 01005KT 10SM OVC110 08/05 A3011 RMK AO2 SLP196 T00830050=
201105050853 METAR KPAE 050853Z AUTO 36003KT 10SM FEW110 08/05 A3011 RMK AO2 SLP197 T00830050 56014=
201105050753 METAR KPAE 050753Z AUTO 00000KT 10SM CLR 09/04 A3011 RMK AO2 SLP198 T00890044 401560050=
201105050653 METAR KPAE 050653Z AUTO 34003KT 10SM CLR 09/04 A3013 RMK AO2 SLP204 T00940044=
201105050553 METAR KPAE 050553Z AUTO 00000KT 10SM CLR 10/05 A3015 RMK AO2 SLP211 T01000050 10156 20094 58010=
201105050453 METAR KPAE 050453Z AUTO 35003KT 10SM CLR 11/04 A3017 RMK AO2 SLP219 T01060044=
201105050353 METAR KPAE 050353Z AUTO 00000KT 10SM CLR 11/05 A3018 RMK AO2 SLP220 T01110050=
201105050253 METAR KPAE 050253Z 00000KT 10SM CLR 13/04 A3018 RMK AO2 SLP221 T01280044 56026=
201105050153 METAR KPAE 050153Z 00000KT 10SM CLR 14/04 A3020=
201105050053 METAR KPAE 050053Z 31006KT 10SM CLR 14/04 A3023 RMK AO2 SLP238 T01440044=
201105042353 METAR KPAE 042353Z 34003KT 10SM CLR 15/03 A3026 RMK AO2 SLP248 T01500033 10156 20100 58029=
201105042253 METAR KPAE 042253Z 01004KT 10SM CLR 15/02 A3029 RMK AO2 SLP259 T01500022=
201105042153 METAR KPAE 042153Z 34004KT 10SM CLR 14/M01 A3032 RMK AO2 SLP270 T01441006=
201105042053 METAR KPAE 042053Z 36005KT 10SM CLR 13/02 A3035 RMK AO2 SLP279 T01330022 56021=
201105041953 METAR KPAE 041953Z 33008KT 10SM CLR 12/03 A3036 RMK AO2 SLP284 T01220028=
201105041853 METAR KPAE 041853Z VRB03KT 10SM CLR 12/04 A3038 RMK AO2 SLP291 T01220039=
201105041753 METAR KPAE 041753Z 00000KT 10SM CLR 11/03 A3041 RMK AO2 SLP300 T01060033 10106 20056 58013=
201105041653 METAR KPAE 041653Z 01005KT 10SM CLR 09/02 A3043 RMK AO2 SLP305 T00940022=
201105041553 METAR KPAE 041553Z 03003KT 10SM CLR 09/03 A3045 RMK AO2 SLP313 T00890033=
201105041453 METAR KPAE 041453Z 02004KT 10SM CLR 08/03 A3045 RMK AO2 SLP314 T00780033 55004=
201105041353 METAR KPAE 041353Z 06003KT 10SM CLR 07/03 A3045 RMK AO2 SLP313 T00670028=
201105041253 METAR KPAE 041253Z AUTO 06004KT 10SM CLR 06/02 A3045 RMK AO2 SLP314 T00560022=
201105041153 METAR KPAE 041153Z AUTO 00000KT 10SM CLR 06/02 A3046 RMK AO2 SLP318 70002 T00560022 10072 20050 58007=
201105041053 METAR KPAE 041053Z AUTO 02004KT 10SM CLR 06/02 A3047 RMK AO2 SLP321 T00610022=
201105040953 METAR KPAE 040953Z AUTO 01003KT 10SM CLR 06/02 A3048 RMK AO2 SLP325 T00560022=
201105040853 METAR KPAE 040853Z AUTO 03003KT 10SM CLR 07/03 A3049 RMK AO2 SLP326 T00670028 58005=
201105040753 METAR KPAE 040753Z AUTO 03004KT 10SM CLR 07/03 A3050 RMK AO2 SLP331 T00670033 401280067=
201105040653 METAR KPAE 040653Z AUTO 01006KT 10SM CLR 07/03 A3050 RMK AO2 SLP329 T00720033=
201105040553 METAR KPAE 040553Z AUTO 02006KT 10SM CLR 07/03 A3050 RMK AO2 SLP331 T00720033 10117 20072 51010=
201105040453 METAR KPAE 040453Z AUTO 01006KT 10SM CLR 07/03 A3050 RMK AO2 SLP330 T00720028=
201105040353 METAR KPAE 040353Z AUTO 34004KT 10SM CLR 08/03 A3048 RMK AO2 SLP326 T00780028=
201105040253 METAR KPAE 040253Z 33008G15KT 10SM CLR 09/02 A3047 RMK AO2 SLP321 T00940022 58001=
201105040153 METAR KPAE 040153Z 32008KT 10SM BKN047 11/03 A3048 RMK AO2 SLP323 T01060028=
201105040053 METAR KPAE 040053Z 35008KT 10SM FEW037 SCT070 11/03 A3048 RMK AO2 SLP322 T01060033=
201105032353 METAR KPAE 032353Z 36008KT 10SM BKN028 BKN050 11/04 A3047 RMK AO2 SLP321 T01110044 10128 20089 58002=
201105032253 METAR KPAE 032253Z VRB04KT 10SM BKN040 12/04 A3048 RMK AO2 SLP323 T01170044=
201105032153 METAR KPAE 032153Z 36005KT 10SM BKN042 OVC050 11/05 A3048 RMK AO2 SLP325 T01110050=
201105032053 METAR KPAE 032053Z 01005KT 10SM SCT036 SCT045 BKN055 10/05 A3048 RMK AO2 SLP324 T01000050 53001=
201105032015 SPECI KPAE 032015Z 03006KT 10SM FEW024 SCT028 BKN036 11/04 A3047 RMK AO2=
201105032015 SPECI KPAE 032015Z 03006KT 10SM FEW024 SCT028 BKN036 11/04 A3047 RMK AO2=
201105031953 METAR KPAE 031953Z 00000KT 10SM BKN022 BKN029 BKN041 11/04 A3047 RMK AO2 SLP320 T01060039=
201105031853 METAR KPAE 031853Z 00000KT 10SM FEW025 SCT030 OVC045 10/04 A3048 RMK AO2 SLP323 T01000044=
201105031840 SPECI KPAE 031840Z 20003KT 10SM SCT023 SCT030 OVC043 10/04 A3048 RMK AO2=
201105031840 SPECI KPAE 031840Z 20003KT 10SM SCT023 SCT030 OVC043 10/04 A3048 RMK AO2=
201105031753 METAR KPAE 031753Z 20005KT 10SM BKN017 BKN022 OVC027 09/05 A3048 RMK AO2 SLP323 60002 T00890050 10089 20067 53014=
201105031653 METAR KPAE 031653Z 00000KT 10SM BKN025 OVC060 08/03 A3046 RMK AO2 SLP317 T00830033=
201105031553 METAR KPAE 031553Z 16005KT 10SM BKN025 OVC060 08/05 A3045 RMK AO2 RAB15E34 SLP312 P0000 T00780050=
201105031453 METAR KPAE 031453Z 16005KT 10SM BKN026 OVC031 07/04 A3044 RMK AO2 RAE21 SLP310 P0000 60002 T00670044 52017=
201105031353 METAR KPAE 031353Z 16005KT 10SM -RA BKN025 OVC037 07/04 A3042 RMK AO2 SLP304 P0001 T00670044=
201105031253 METAR KPAE 031253Z AUTO VRB03KT 9SM -RA SCT026 BKN033 OVC070 07/04 A3040 RMK AO2 RAB42 SLP298 P0001 T00670044=
201105031153 METAR KPAE 031153Z AUTO 15004KT 10SM FEW008 BKN080 OVC095 07/04 A3039 RMK AO2 RAB17E40 SLP292 P0000 60002 70034 T00670039 10072 20067 53008=
201105031133 SPECI KPAE 031133Z AUTO 00000KT 9SM -RA SCT009 BKN019 OVC031 07/05 A3039 RMK AO2 RAB17 P0000=
201105031133 SPECI KPAE 031133Z AUTO 00000KT 9SM -RA SCT009 BKN019 OVC031 07/05 A3039 RMK AO2 RAB17 P0000=
201105031122 SPECI KPAE 031122Z AUTO 00000KT 9SM -RA SCT016 BKN021 OVC033 07/04 A3039 RMK AO2 RAB17 P0000=
201105031122 SPECI KPAE 031122Z AUTO 00000KT 9SM -RA SCT016 BKN021 OVC033 07/04 A3039 RMK AO2 RAB17 P0000=
201105031053 METAR KPAE 031053Z AUTO 00000KT 10SM SCT075 OVC090 07/04 A3038 RMK AO2 SLP289 P0001 T00670044=
201105030953 METAR KPAE 030953Z AUTO 18004KT 10SM FEW014 BKN034 OVC090 07/04 A3036 RMK AO2 RAB21E53 SLP284 P0001 T00670044=
201105030951 SPECI KPAE 030951Z AUTO 18003KT 10SM -RA FEW014 BKN034 OVC090 07/04 A3036 RMK AO2 RAB21 P0001=
201105030951 SPECI KPAE 030951Z AUTO 18003KT 10SM -RA FEW014 BKN034 OVC090 07/04 A3036 RMK AO2 RAB21 P0001=
201105030853 METAR KPAE 030853Z AUTO 18006KT 10SM BKN021 BKN028 OVC043 07/04 A3035 RMK AO2 RAB06E23 SLP280 P0000 60000 T00670044 51011=
201105030753 METAR KPAE 030753Z AUTO 00000KT 10SM OVC018 07/05 A3034 RMK AO2 SLP277 T00720050 401110072 TSNO=
201105030653 METAR KPAE 030653Z AUTO VRB03KT 10SM BKN016 OVC023 07/05 A3033 RMK AO2 RAE13 SLP273 P0000 T00720050=
201105030553 METAR KPAE 030553Z AUTO 00000KT 7SM -RA OVC029 08/06 A3032 RMK AO2 SLP270 P0002 60011 T00780056 10100 20072 51020=
201105030453 METAR KPAE 030453Z AUTO 00000KT 7SM -RA FEW010 BKN021 OVC026 08/06 A3031 RMK AO2 RAB06 SLP265 P0007 T00780056=
201105030353 METAR KPAE 030353Z AUTO 00000KT 10SM SCT008 BKN017 OVC034 08/06 A3028 RMK AO2 RAE52 SLP256 P0001 T00830056=
201105030339 SPECI KPAE 030339Z 00000KT 10SM -RA FEW008 BKN028 OVC034 08/06 A3028 RMK AO2 P0001=
201105030339 SPECI KPAE 030339Z 00000KT 10SM -RA FEW008 BKN028 OVC034 08/06 A3028 RMK AO2 P0001=
201105030335 SPECI KPAE 030335Z VRB03KT 10SM -RA SCT023 SCT028 OVC034 08/06 A3027 RMK AO2 P0000=
201105030335 SPECI KPAE 030335Z VRB03KT 10SM -RA SCT023 SCT028 OVC034 08/06 A3027 RMK AO2 P0000=
201105030311 SPECI KPAE 030311Z 03005KT 7SM -RA SCT005 BKN016 OVC021 08/06 A3026 RMK AO2 P0000=
201105030311 SPECI KPAE 030311Z 03005KT 7SM -RA SCT005 BKN016 OVC021 08/06 A3026 RMK AO2 P0000=
201105030253 METAR KPAE 030253Z 36006KT 9SM -RA BKN005 OVC010 08/06 A3026 RMK AO2 RAB30 CIG 004V008 SLP248 P0001 60001 T00780061 51012=
201105030238 SPECI KPAE 030238Z 36006KT 9SM -RA BKN005 OVC013 08/06 A3025 RMK AO2 RAB30 CIG 004V009 P0000=
201105030238 SPECI KPAE 030238Z 36006KT 9SM -RA BKN005 OVC013 08/06 A3025 RMK AO2 RAB30 CIG 004V009 P0000=
201105030221 SPECI KPAE 030221Z 01005KT 10SM FEW007 BKN014 OVC038 09/06 A3025 RMK AO2=
201105030221 SPECI KPAE 030221Z 01005KT 10SM FEW007 BKN014 OVC038 09/06 A3025 RMK AO2=
201105030153 METAR KPAE 030153Z 20003KT 10SM OVC038 09/06 A3024 RMK AO2 SLP244 T00940061=
201105030128 SPECI KPAE 030128Z 16004KT 10SM FEW024 OVC036 09/06 A3024 RMK AO2=
201105030128 SPECI KPAE 030128Z 16004KT 10SM FEW024 OVC036 09/06 A3024 RMK AO2=
201105030053 METAR KPAE 030053Z 17008KT 10SM BKN017 OVC024 09/06 A3024 RMK AO2 SLP241 T00890056=
201105022353 METAR KPAE 022353Z 19008KT 10SM SCT011 BKN027 OVC034 10/05 A3022 RMK AO2 SLP236 60001 T01000050 10100 20083 51014=
201105022253 METAR KPAE 022253Z AUTO 16009KT 10SM FEW011 BKN028 OVC034 09/06 A3021 RMK AO2 RAB2156E48 SLP232 P0000 T00890061 TSNO=
201105022236 SPECI KPAE 022236Z 19011KT 10SM -RA FEW013 SCT020 OVC034 09/06 A3021 RMK AO2 RAB2156 P0000=
201105022236 SPECI KPAE 022236Z 19011KT 10SM -RA FEW013 SCT020 OVC034 09/06 A3021 RMK AO2 RAB2156 P0000=
201105022156 SPECI KPAE 022156Z 19014KT 10SM -RA BKN019 BKN024 OVC032 09/05 A3020 RMK AO2 RAB56 P0000=
201105022156 SPECI KPAE 022156Z 19014KT 10SM -RA BKN019 BKN024 OVC032 09/05 A3020 RMK AO2 RAB56 P0000=
201105022153 METAR KPAE 022153Z 19014KT 10SM SCT016 OVC039 09/06 A3019 RMK AO2 RAE18 SLP226 P0001 T00940056=
201105022103 SPECI KPAE 022103Z 20015G22KT 10SM -RA SCT016 BKN030 OVC036 09/06 A3018 RMK AO2 P0000=
201105022103 SPECI KPAE 022103Z 20015G22KT 10SM -RA SCT016 BKN030 OVC036 09/06 A3018 RMK AO2 P0000=
201105022053 METAR KPAE 022053Z 19014KT 10SM -RA SCT016 BKN022 OVC039 09/06 A3018 RMK AO2 RAB04 SLP221 P0000 60000 T00940061 53013=
201105022000 SPECI KPAE 022000Z 19016G24KT 10SM SCT008 BKN019 BKN060 09/05 A3016 RMK AO2=
201105022000 SPECI KPAE 022000Z 19016G24KT 10SM SCT008 BKN019 BKN060 09/05 A3016 RMK AO2=
201105021953 METAR KPAE 021953Z 19014G20KT 10SM FEW008 BKN019 BKN060 09/06 A3016 RMK AO2 SLP216 T00940056=
201105021928 SPECI KPAE 021928Z 19015KT 10SM FEW008 BKN019 BKN060 09/06 A3015 RMK AO2=
201105021928 SPECI KPAE 021928Z 19015KT 10SM FEW008 BKN019 BKN060 09/06 A3015 RMK AO2=
201105021920 SPECI KPAE 021920Z 19015G20KT 10SM FEW014 SCT019 BKN060 09/06 A3015 RMK AO2=
201105021920 SPECI KPAE 021920Z 19015G20KT 10SM FEW014 SCT019 BKN060 09/06 A3015 RMK AO2=
201105021853 METAR KPAE 021853Z 20016G20KT 10SM FEW008 BKN015 OVC090 08/05 A3015 RMK AO2 RAE05 SLP212 P0000 T00830050=
201105021838 SPECI KPAE 021838Z 19014KT 10SM SCT013 SCT018 BKN029 08/06 A3015 RMK AO2 RAE05 P0000=
201105021838 SPECI KPAE 021838Z 19014KT 10SM SCT013 SCT018 BKN029 08/06 A3015 RMK AO2 RAE05 P0000=
201105021753 METAR KPAE 021753Z 19014KT 10SM -RA SCT024 BKN039 OVC050 08/06 A3014 RMK AO2 SLP208 P0003 60020 T00780056 10106 20078 51009=
201105021728 SPECI KPAE 021728Z 19017G21KT 10SM -RA FEW006 BKN028 OVC037 08/05 A3015 RMK AO2 P0002=
201105021728 SPECI KPAE 021728Z 19017G21KT 10SM -RA FEW006 BKN028 OVC037 08/05 A3015 RMK AO2 P0002=
201105021711 SPECI KPAE 021711Z 20013KT 10SM -RA BKN006 OVC047 08/06 A3015 RMK AO2 P0001=
201105021711 SPECI KPAE 021711Z 20013KT 10SM -RA BKN006 OVC047 08/06 A3015 RMK AO2 P0001=
201105021700 SPECI KPAE 021700Z 18009KT 10SM -RA BKN015 OVC047 09/06 A3014 RMK AO2 P0000=
201105021700 SPECI KPAE 021700Z 18009KT 10SM -RA BKN015 OVC047 09/06 A3014 RMK AO2 P0000=
201105021653 METAR KPAE 021653Z 16008KT 4SM -RA BR SCT005 BKN011 OVC029 08/06 A3013 RMK AO2 SLP206 P0009 T00830061=
201105021606 SPECI KPAE 021606Z 20007KT 3SM RA BR SCT005 BKN011 OVC029 08/06 A3014 RMK AO2 P0004=
201105021606 SPECI KPAE 021606Z 20007KT 3SM RA BR SCT005 BKN011 OVC029 08/06 A3014 RMK AO2 P0004=
201105021553 METAR KPAE 021553Z 22006KT 5SM -RA BR SCT008 BKN035 OVC043 08/06 A3014 RMK AO2 SLP208 P0007 T00830061=
201105021453 METAR KPAE 021453Z 02009KT 5SM -RA BKN039 OVC049 08/05 A3011 RMK AO2 RAB27 SLP198 P0001 60001 T00830050 53025=
201105021353 METAR KPAE 021353Z AUTO 25005KT 10SM OVC080 09/06 A3008 RMK AO2 SLP187 T00890061=
201105021253 METAR KPAE 021253Z AUTO 19007KT 10SM FEW080 BKN100 10/04 A3005 RMK AO2 SLP176 T01000044=
201105021153 METAR KPAE 021153Z AUTO 16004KT 10SM BKN100 10/04 A3004 RMK AO2 SLP172 T01000039 10122 20100 56019=
201105021053 METAR KPAE 021053Z AUTO 18003KT 10SM CLR 10/03 A3005 RMK AO2 SLP177 T01000033=
201105020953 METAR KPAE 020953Z AUTO VRB04KT 10SM BKN110 11/03 A3007 RMK AO2 SLP183 T01110033=
201105020853 METAR KPAE 020853Z AUTO 16004KT 10SM BKN110 11/03 A3009 RMK AO2 SLP191 T01110033 56019=
201105020753 METAR KPAE 020753Z AUTO 12006KT 10SM CLR 11/04 A3010 RMK AO2 SLP195 T01060039 401500039=
201105020653 METAR KPAE 020653Z AUTO 11004KT 10SM CLR 12/02 A3012 RMK AO2 SLP201 T01170017=
201105020553 METAR KPAE 020553Z AUTO 08003KT 10SM CLR 12/02 A3015 RMK AO2 SLP211 T01220022 10150 20117 58016=
201105020453 METAR KPAE 020453Z AUTO 00000KT 10SM CLR 12/01 A3017 RMK AO2 SLP218 T01170011=
201105020353 METAR KPAE 020353Z AUTO 02003KT 10SM CLR 12/01 A3018 RMK AO2 SLP221 T01170011=
201105020253 METAR KPAE 020253Z 00000KT 10SM CLR 13/01 A3020 RMK AO2 SLP227 T01280006 58020=
201105020153 METAR KPAE 020153Z 36004KT 10SM CLR 14/02 A3022 RMK AO2 SLP235 T01390017=
201105020053 METAR KPAE 020053Z 29004KT 10SM CLR 14/02 A3024 RMK AO2 SLP242 T01440017=
201105012353 METAR KPAE 012353Z 28005KT 10SM CLR 14/01 A3026 RMK AO2 SLP248 T01440011 10150 20106 58025=
201105012253 METAR KPAE 012253Z 29006KT 10SM CLR 14/02 A3028 RMK AO2 SLP255 T01440022=
201105012153 METAR KPAE 012153Z VRB03KT 10SM CLR 14/02 A3031 RMK AO2 SLP266 T01390017=
201105012053 METAR KPAE 012053Z 02004KT 10SM CLR 13/02 A3033 RMK AO2 SLP273 T01330017 58012=
201105011953 METAR KPAE 011953Z 03006KT 10SM CLR 13/02 A3034 RMK AO2 SLP277 T01280022=
201105011853 METAR KPAE 011853Z 30004KT 10SM CLR 12/03 A3036 RMK AO2 SLP282 T01170033=
201105011753 METAR KPAE 011753Z 00000KT 10SM CLR 11/03 A3037 RMK AO2 SLP285 T01060028 10106 20039 58010=
201105011653 METAR KPAE 011653Z 35004KT 10SM CLR 09/03 A3038 RMK AO2 SLP289 T00940033=
201105011553 METAR KPAE 011553Z 02004KT 10SM CLR 09/03 A3039 RMK AO2 SLP294 T00890028=
201105011453 METAR KPAE 011453Z 00000KT 10SM CLR 07/02 A3040 RMK AO2 SLP296 T00670022 56003=
201105011353 METAR KPAE 011353Z 12004KT 10SM CLR 04/02 A3040 RMK AO2 SLP298 T00440017=
201105011253 METAR KPAE 011253Z AUTO 11005KT 10SM CLR 04/02 A3040 RMK AO2 SLP296 T00440017=
201105011153 METAR KPAE 011153Z AUTO 00000KT 10SM CLR 06/02 A3041 RMK AO2 SLP299 T00560022 10078 20056 58006=
201105011053 METAR KPAE 011053Z AUTO 07004KT 10SM CLR 06/03 A3041 RMK AO2 SLP301 T00610028=
201105010953 METAR KPAE 010953Z AUTO 00000KT 10SM CLR 06/03 A3042 RMK AO2 SLP302 T00610033=
201105010921 SPECI KPAE 010921Z AUTO 02005KT 10SM FEW009 06/04 A3042 RMK AO2=
201105010921 SPECI KPAE 010921Z AUTO 02005KT 10SM FEW009 06/04 A3042 RMK AO2=
201105010853 METAR KPAE 010853Z AUTO 00000KT 10SM CLR 06/04 A3042 RMK AO2 SLP304 T00610039 58000=
201105010753 METAR KPAE 010753Z AUTO 36004KT 10SM CLR 07/03 A3043 RMK AO2 SLP306 T00670033 401220056=
201105010653 METAR KPAE 010653Z AUTO 36005KT 10SM CLR 07/03 A3043 RMK AO2 SLP305 T00720033=
201105010553 METAR KPAE 010553Z AUTO 01006KT 10SM CLR 07/03 A3042 RMK AO2 SLP306 T00720033 10122 20072 58001=
201105010453 METAR KPAE 010453Z AUTO 35006KT 10SM CLR 08/04 A3043 RMK AO2 SLP307 T00780039=
201105010353 METAR KPAE 010353Z AUTO 01006KT 10SM BKN070 09/02 A3042 RMK AO2 SLP304 T00890022=
201105010253 METAR KPAE 010253Z 35003KT 10SM OVC070 10/01 A3043 RMK AO2 SLP305 T01000011 56007=
201105010153 METAR KPAE 010153Z 00000KT 10SM BKN075 11/01 A3043 RMK AO2 SLP307 T01110011=
201105010053 METAR KPAE 010053Z 31004KT 10SM SCT080 11/02 A3044 RMK AO2 SLP311 T01110017=

# No short TAF reports from KPAE in databse.

###################################
#  large TAF from KPAE
###################################
201105312320 TAF KPAE 312320Z 0100/0124 29004KT P6SM VCSH SCT020 BKN040
                      TEMPO 0100/0104 -SHRA BKN020 OVC040 FM010400
                       18004KT P6SM VCSH SCT020 BKN040
                      TEMPO 0104/0108 -SHRA BKN020 OVC040 FM010800
                       18004KT P6SM -SHRA BKN020 OVC040 FM011200
                       19006KT P6SM -SHRA BKN008 OVC015 FM011800
                       19007KT P6SM -SHRA SCT020 BKN040=
201105311742 TAF KPAE 311742Z 3118/0118 35005KT P6SM -SHRA BKN015 OVC040 FM010100
                       19006KT P6SM -SHRA BKN015 OVC030 FM010600
                       15004KT P6SM -SHRA BKN009 OVC015 FM011400
                       16007KT P6SM -SHRA BKN007 OVC012=
201105311522 KPAE 311522Z 3115/0112 35005KT P6SM -SHRA SCT040 OVC060 FM312100
                       32004KT P6SM -SHRA BKN040 OVC060 FM010100
                       23005KT P6SM -SHRA SCT020 OVC035
                      TEMPO 0102/0106 -SHRA BKN020 OVC030 FM010600
                       15004KT P6SM VCSH OVC020=
201105311125 TAF KPAE 311125Z 3112/0112 34005KT P6SM SCT040 BKN080 OVC120 FM311600
                       32006KT P6SM -SHRA SCT030 OVC060
                      TEMPO 3116/3119 BKN030 OVC060 FM311900 32004KT
                       P6SM -SHRA OVC018
                      TEMPO 3119/3123 3SM -SHRA BR OVC012 FM312300
                       18010KT P6SM VCSH SCT020 OVC035
                      TEMPO 3123/0103 -SHRA BKN020 OVC030 FM010800
                       15004KT P6SM VCSH OVC020=
201105310535 TAF KPAE 310535Z 3106/0106 35005KT P6SM SCT040 BKN200
                      TEMPO 3106/3110 BKN040 FM311000 02003KT P6SM
                       BKN090 BKN250 FM311400 18003KT P6SM VCSH
                       OVC035 FM311800 22005KT P6SM -SHRA OVC018
                       TEMPO 3118/3122 3SM -SHRA BR OVC012 FM312200
                       18010KT P6SM VCSH SCT020 OVC035
                      TEMPO 3122/0102 -SHRA BKN020 OVC030=
201105302320 TAF KPAE 302320Z 3100/3124 29005KT P6SM FEW030 BKN070 BKN250 FM310500
                       02003KT P6SM BKN070 BKN250 FM311400 VRB03KT
                       P6SM BKN045 BKN070 FM311700 VRB04KT P6SM
                       -SHRA BKN020 OVC040 FM312200 20005KT P6SM
                       -SHRA SCT025 BKN045=
201105301736 TAF KPAE 301736Z 3018/3118 26006KT P6SM SCT022 BKN050 FM302100
                       26006KT P6SM SCT050 BKN250 FM310100 32004KT
                       P6SM SCT050 BKN250 FM310700 02003KT P6SM
                       BKN070 BKN150 FM311300 VRB03KT P6SM BKN035
                       BKN100=
201105301628 KPAE 301628Z 3016/3112 19007KT P6SM FEW016 BKN040 BKN080 FM302000
                       24006KT P6SM BKN045 BKN080 FM302300 32004KT
                       P6SM SCT040 BKN250 FM310800 36003KT P6SM
                       SCT100 BKN250=
201105301120 TAF KPAE 301120Z 3012/3112 10003KT P6SM OVC016
                      TEMPO 3016/3020 SCT016 OVC030 FM302000 23007KT
                       P6SM BKN035 FM302300 32004KT P6SM SCT040
                       BKN250 FM310800 36003KT P6SM SCT100 BKN250=
201105300520 TAF KPAE 300520Z 3006/3106 23005KT P6SM BKN021 OVC028 FM300900
                       VRB03KT P6SM SCT011 OVC021
                      TEMPO 3011/3015 OVC010 FM301900 VRB03KT P6SM
                       BKN018 FM302200 29005KT P6SM SCT028=
201105292320 TAF KPAE 292320Z 3000/3024 29008KT P6SM FEW029 BKN035 BKN050 FM300400
                       VRB04KT P6SM BKN018 OVC040 FM300800 VRB03KT
                       P6SM OVC008 FM301900 VRB03KT P6SM BKN018
                       FM302200 29005KT P6SM SCT028=
201105291720 TAF KPAE 291720Z 2918/3018 23005KT P6SM BKN045 FM291900 24005KT
                       P6SM SCT050 FM292200 32006KT P6SM SCT050
                       FM300800 VRB03KT P6SM OVC008=
201105291427 KPAE 291427Z 2914/3012 00000KT P6SM FEW024 BKN030 OVC040 FM291900
                       21007KT P6SM BKN035 BKN200 FM292200 21007KT
                       P6SM SCT040 BKN200 FM300400 15006KT P6SM
                       BKN100 FM301100 VRB03KT P6SM OVC018=
201105291120 TAF KPAE 291120Z 2912/3012 00000KT P6SM OVC045 FM291900 21007KT
                       P6SM SCT045 BKN120 FM292200 21007KT P6SM
                       SCT080 BKN250 FM300400 15006KT P6SM BKN100
                       FM301100 VRB03KT P6SM OVC018=
201105290520 TAF KPAE 290520Z 2906/3006 35004KT P6SM SCT080 OVC110 FM291300
                       15003KT P6SM BKN035 OVC100 FM291900 21007KT
                       P6SM SCT035 BKN120 FM292200 21007KT P6SM
                       SCT080 BKN250=
201105282320 TAF KPAE 282320Z 2900/2924 36007KT P6SM SCT025 BKN200 FM290600
                       VRB03KT P6SM SCT030 BKN200 FM291900 24007KT
                       P6SM SCT035 BKN200=
201105281720 TAF KPAE 281720Z 2818/2918 23005KT P6SM SCT015 BKN050 FM282200
                       34006KT P6SM SCT040 SCT060 FM290000 34006KT
                       P6SM VCSH SCT040 BKN060 FM290600 VRB03KT
                       P6SM SCT040 BKN060 FM291300 18005KT P6SM
                       BKN035=
201105281120 TAF KPAE 281120Z 2812/2912 21005KT P6SM OVC015
                      TEMPO 2815/2819 SCT015 OVC025 FM281900 VRB03KT
                       P6SM SCT025 BKN045 FM282200 34006KT P6SM
                       SCT040 SCT060 FM290000 34006KT P6SM VCSH
                       SCT040 BKN060 FM290600 VRB03KT P6SM SCT045
                       BKN100=
201105280520 TAF KPAE 280520Z 2806/2906 11004KT P6SM SCT020 BKN060
                      TEMPO 2806/2810 -SHRA BKN020 OVC060 FM281000
                       VRB03KT P6SM BKN015 OVC030
                      TEMPO 2813/2817 OVC015 FM281900 VRB03KT P6SM
                       SCT030 BKN050 FM282200 34006KT P6SM SCT040
                       SCT060 FM290000 34006KT P6SM VCSH SCT040
                       BKN060=
201105272323 TAF KPAE 272323Z 2800/2824 28008G18KT P6SM -SHRA OVC040 FM280400
                       VRB04KT P6SM VCSH SCT040 BKN070 FM280600
                       15004KT P6SM BKN040 BKN090 FM281300 17005KT
                       P6SM BKN012 OVC030 FM281900 VRB03KT P6SM
                       SCT030 BKN050 FM282200 34006KT P6SM SCT040
                       SCT060=
201105271722 TAF KPAE 271722Z 2718/2818 18013G21KT P6SM VCSH SCT025 BKN030 OVC110
                       FM272000 18015G25KT P6SM -SHRA BKN035 OVC090
                       FM280300 16006KT P6SM VCSH SCT040 BKN090
                       FM280600 15004KT P6SM BKN040 BKN090 FM281300
                       17005KT P6SM BKN012 OVC030=
201105271505 KPAE 271505Z 2715/2812 19012G18KT P6SM VCSH SCT025 BKN090 FM271800
                       19014G21KT P6SM -SHRA BKN035 OVC090 FM280300
                       16006KT P6SM SCT040 BKN090 FM280600 15004KT
                       P6SM BKN040 BKN090=
201105271126 TAF KPAE 271126Z 2712/2812 19010KT P6SM SCT035 BKN070
                      TEMPO 2712/2716 -SHRA BKN025 OVC035 FM271600
                       19012G18KT P6SM SCT035 BKN050 OVC100
                      PROB30 2721/2803 -SHRA BKN035 OVC050 FM280300
                       16006KT P6SM SCT040 BKN090 FM280600 15004KT
                       P6SM BKN040 BKN090=
201105270524 TAF KPAE 270524Z 2706/2806 17010KT P6SM SCT040 BKN060 BKN120
                      TEMPO 2706/2710 -SHRA BKN040 OVC070 FM271500
                       19012G18KT P6SM SCT035 BKN050 OVC100
                      PROB30 2715/2721 -SHRA BKN035 OVC050 FM280100
                       16006KT P6SM SCT040 BKN090=
201105270120 KPAE 270120Z 2701/2724 20013KT P6SM VCSH SCT040 BKN070 OVC200
                      TEMPO 2702/2704 -SHRA FM270400 18012G22KT
                       P6SM -SHRA BKN030 OVC070 FM271500 19012KT
                       P6SM VCSH SCT025 BKN040 FM272000 18008KT
                       P6SM VCSH SCT030 BKN050=
201105262332 TAF KPAE 262332Z 2700/2724 22012G22KT P6SM VCSH SCT040 BKN050 BKN100
                       TEMPO 2700/2704 -SHRA BKN040 FM270400 18012G22KT
                       P6SM -SHRA BKN030 OVC070 FM271500 19012KT
                       P6SM VCSH SCT025 BKN040 FM272000 18008KT
                       P6SM VCSH SCT030 BKN050=
201105261725 TAF KPAE 261725Z 2618/2718 18012G20KT P6SM VCSH FEW025 BKN035 FM262200
                       18010KT P6SM VCSH BKN035 BKN090 FM270600
                       19010KT P6SM -SHRA BKN025 OVC040 FM271200
                       20012KT P6SM VCSH SCT025 BKN030=
201105261120 TAF KPAE 261120Z 2612/2712 20010KT P6SM OVC020 FM261500 19010KT
                       P6SM SCT025 BKN050 BKN120
                      TEMPO 2615/2617 BKN025 OVC050 FM262100 20008KT
                       P6SM SCT060 BKN120
                      PROB30 2621/2703 -SHRA BKN060 OVC120 FM270600
                       17008KT P6SM -SHRA BKN050 OVC090=
201105261024 KPAE 261024Z 2610/2706 19011KT P6SM SCT028 BKN060
                      TEMPO 2610/2614 OVC028 FM262100 20008KT P6SM
                       SCT060 BKN120=
201105260522 TAF KPAE 260522Z 2606/2706 17012KT P6SM FEW020 BKN060 OVC120 FM262100
                       20008KT P6SM SCT060 BKN120=
201105260303 KPAE 260303Z 2603/2624 18012KT P6SM SCT020 OVC050
                      TEMPO 2603/2606 5SM -SHRA BR OVC020 FM260600
                       17010KT P6SM -SHRA BKN015 OVC030 FM261000
                       18012KT P6SM -SHRA BKN020 OVC035 FM261500
                       18008KT P6SM -SHRA SCT030 BKN045 FM262000
                       20010KT P6SM BKN050=
201105260036 KPAE 260036Z 2601/2624 18010KT P6SM -RA BKN015 OVC035
                      TEMPO 2602/2606 5SM -RA BR BKN005 OVC020
                       FM260600 17010KT P6SM -SHRA BKN015 OVC030
                       FM261000 18012KT P6SM -SHRA BKN020 OVC035
                       FM261500 18008KT P6SM -SHRA SCT030 BKN045
                       FM262000 20010KT P6SM BKN050=
201105252353 TAF KPAE 252353Z 2600/2624 18010KT 5SM -RA BR BKN006 OVC030 FM260600
                       17010KT P6SM -SHRA BKN015 OVC030 FM260800
                       18012KT P6SM -SHRA BKN020 OVC035 FM261500
                       18008KT P6SM -SHRA SCT030 BKN045 FM262000
                       20010KT P6SM BKN050=
201105252226 KPAE 252226Z 2522/2618 25006KT 4SM -RA BR BKN004 OVC015 FM260000
                       17010KT P6SM -RA BKN015 OVC025 FM260400
                       16012KT P6SM -SHRA BKN025 OVC045 FM261500
                       18008KT P6SM BKN045=
201105251750 TAF KPAE 251750Z 2518/2618 34006KT P6SM -RA BKN010 OVC070 FM252100
                       30008KT P6SM -RA BKN020 OVC040 FM260200
                       17010KT P6SM -RA BKN015 OVC035 FM260600
                       16012KT P6SM -SHRA BKN025 OVC045 FM261500
                       18008KT P6SM BKN045=
201105251701 KPAE 251701Z 2517/2612 04006KT P6SM BKN080
                      TEMPO 2517/2519 -RA BKN010 FM251900 18006KT
                       P6SM -RA OVC020 FM260000 19014KT P6SM -RA
                       BKN020 OVC040 FM260600 16012KT P6SM -SHRA
                       BKN025 OVC045=
201105251120 TAF KPAE 251120Z 2512/2612 01003KT P6SM BKN110 FM251700 04006KT
                       P6SM -RA BKN050 OVC090 FM251900 18006KT
                       P6SM -RA OVC020 FM260000 19014KT P6SM -RA
                       BKN020 OVC040 FM260600 16012KT P6SM -SHRA
                       BKN025 OVC045=
201105250527 TAF KPAE 250527Z 2506/2606 01006KT P6SM FEW070 BKN250 FM251200
                       03010KT P6SM BKN060 OVC120 FM251700 04006KT
                       P6SM -RA BKN040 OVC070 FM251900 18006KT
                       P6SM -RA OVC020 FM260000 19014KT P6SM -RA
                       BKN020 OVC040=
201105242333 TAF KPAE 242333Z 2500/2524 33005KT P6SM SCT050 SCT060 SCT200
                      TEMPO 2500/2502 BKN060 FM250200 33004KT P6SM
                       SCT060 SCT200 FM250700 34004KT P6SM SCT080
                       BKN200 FM251200 03004KT P6SM BKN060 OVC120
                       FM251700 18005KT P6SM -RA BKN040 OVC070
                       FM252000 23009KT P6SM -RA OVC025=
201105241733 TAF KPAE 241733Z 2418/2518 18006KT P6SM SCT012 BKN070
                      TEMPO 2418/2420 BKN012 FM242000 18004KT P6SM
                       SCT025 SCT040 FM242200 34004KT P6SM SCT040
                       FM250400 01004KT P6SM SCT080 BKN200 FM250800
                       VRB03KT P6SM BKN060 BKN120=
201105241120 TAF KPAE 241120Z 2412/2512 VRB03KT P6SM SCT025 BKN060
                      TEMPO 2413/2417 BKN025 BKN060 FM241700 25006KT
                       P6SM SCT035 SCT200 FM242100 31006KT P6SM
                       SCT200 FM250300 01004KT P6SM SCT080 BKN200
                       FM250800 VRB03KT P6SM BKN060 BKN120=
201105240903 KPAE 240903Z 2409/2506 VRB03KT P6SM BKN060
                      TEMPO 2412/2416 BKN025 BKN060 FM241700 25006KT
                       P6SM SCT035 SCT200 FM242100 31006KT P6SM
                       SCT200 FM250300 01004KT P6SM SCT080 BKN200=
201105240521 TAF KPAE 240521Z 2406/2506 VRB03KT P6SM SCT060 FM241000 16004KT
                       P6SM BKN025 FM241700 25006KT P6SM SCT035
                       SCT200 FM242100 31006KT P6SM SCT200 FM250300
                       01004KT P6SM SCT080 BKN200=
201105232329 TAF KPAE 232329Z 2400/2424 32004KT P6SM SCT035 BKN070 FM240300
                       32005KT P6SM SCT070 FM241000 VRB03KT P6SM
                       BKN025 FM241900 33006KT P6SM SCT035 SCT200=
201105231725 TAF KPAE 231725Z 2318/2418 00000KT P6SM BKN016 BKN030 OVC070
                      TEMPO 2318/2320 SCT015 BKN040 FM232000 30006KT
                       P6SM SCT030 BKN050 FM240000 33006KT P6SM
                       SCT060 FM241000 VRB03KT P6SM BKN025=
201105231120 TAF KPAE 231120Z 2312/2412 VRB03KT P6SM BKN025 OVC050
                      TEMPO 2316/2319 SCT030 BKN050 FM231900 30006KT
                       P6SM SCT030 BKN050 FM240000 33006KT P6SM
                       SCT060 FM241000 VRB03KT P6SM BKN030=
201105230520 TAF KPAE 230520Z 2306/2406 VRB04KT P6SM BKN040
                      TEMPO 2308/2311 BKN030 FM231100 18005KT P6SM
                       BKN025 OVC040 FM232000 23005KT P6SM SCT030
                       BKN060 FM240100 31006KT P6SM SCT060=
201105222320 TAF KPAE 222320Z 2300/2324 00000KT P6SM OVC035 FM230400 17003KT
                       P6SM SCT030 BKN060 FM231000 18005KT P6SM
                       OVC020 FM232000 30005KT P6SM SCT025 BKN045=
201105221738 TAF KPAE 221738Z 2218/2318 00000KT P6SM SCT022 OVC035
                      TEMPO 2218/2220 OVC020 FM222100 30006KT P6SM
                       SCT025 OVC040 FM230400 17003KT P6SM SCT030
                       BKN060 FM231400 18005KT P6SM OVC020=
201105221524 KPAE 221524Z 2215/2312 00000KT 1SM -RA BR BKN003 BKN011 OVC014
                       TEMPO 2215/2217 5SM -RA BR OVC010 FM221700
                       27007KT P6SM SCT015 BKN035 OVC060 FM222100
                       30006KT P6SM SCT025 OVC040 FM230400 VRB03KT
                       P6SM SCT030 BKN060=
201105221120 TAF KPAE 221120Z 2212/2312 VRB04KT P6SM OVC020
                      TEMPO 2212/2216 5SM -RA BR OVC010 FM221700
                       27007KT P6SM SCT015 BKN035 OVC060 FM222100
                       30006KT P6SM SCT025 OVC040 FM230400 VRB03KT
                       P6SM SCT030 BKN060=
201105220704 KPAE 220704Z 2207/2306 VRB03KT 5SM -DZ BR SCT003 OVC010
                      TEMPO 2207/2211 3SM -DZ BR BKN003 OVC008
                       FM221400 18006KT P6SM OVC015 FM221700 20009KT
                       P6SM BKN020 OVC045 FM222200 30007KT P6SM
                       SCT025 BKN045=
201105220520 TAF KPAE 220520Z 2206/2306 00000KT P6SM -RA SCT020 OVC045
                      TEMPO 2207/2211 5SM -DZ BR BKN020 OVC040
                       FM221100 18006KT P6SM OVC015 FM221700 20009KT
                       P6SM BKN020 OVC045 FM222200 30007KT P6SM
                       SCT025 BKN045=
201105220201 KPAE 220201Z 2202/2224 VRB03KT P6SM VCSH BKN017 OVC045
                      TEMPO 2202/2206 SCT020 OVC050 FM220600 18006KT
                       P6SM OVC017 FM221100 18006KT P6SM OVC012
                       FM221700 20009KT P6SM BKN020 OVC045 FM222200
                       30007KT P6SM SCT025 BKN045=
201105212329 TAF KPAE 212329Z 2200/2224 23003KT P6SM VCSH SCT020 BKN040 OVC060
                       FM220600 18006KT P6SM OVC025 FM221100 18006KT
                       P6SM OVC015 FM221700 20009KT P6SM SCT020
                       OVC045 FM222200 30007KT P6SM SCT030 BKN045=
201105211734 TAF KPAE 211734Z 2118/2218 23004KT P6SM VCSH SCT006 OVC050
                      TEMPO 2118/2122 BKN006 OVC025 FM220600 18006KT
                       P6SM OVC025 FM221100 18006KT P6SM OVC015
                       FM221700 20009KT P6SM SCT020 OVC045=
201105211120 TAF KPAE 211120Z 2112/2212 17005KT P6SM -RA OVC050 FM211800 21007KT
                       P6SM SCT025 OVC040 FM220600 18006KT P6SM
                       OVC025 FM221100 18006KT P6SM OVC015=
201105210527 TAF KPAE 210527Z 2106/2206 01006KT P6SM BKN120 OVC200 FM210900
                       VRB04KT P6SM SCT030 BKN060 OVC100
                      TEMPO 2112/2116 BKN025 OVC050 FM211600 18008KT
                       P6SM BKN025 OVC050 FM212000 27008KT P6SM
                       VCSH SCT025 BKN040 FM220500 34006KT P6SM
                       SCT020 OVC040=
201105202336 TAF KPAE 202336Z 2100/2124 36007KT P6SM BKN250 FM210400 27007KT
                       P6SM BKN120 BKN200 FM211200 21007KT P6SM
                       OVC015 FM212000 18007KT P6SM SCT020 BKN035=
201105201734 TAF KPAE 201734Z 2018/2118 33003KT P6SM FEW250 FM210400 27007KT
                       P6SM BKN120 BKN200 FM211200 21007KT P6SM
                       OVC015=
201105201120 TAF KPAE 201120Z 2012/2112 VRB04KT P6SM SCT250 FM202100 27007KT
                       P6SM BKN200 FM210400 27007KT P6SM BKN120
                       BKN200 FM211100 21007KT P6SM BKN050=
201105200520 TAF KPAE 200520Z 2006/2106 02005KT P6SM SCT250 FM201200 VRB03KT
                       P6SM SCT250 FM202100 32007KT P6SM BKN200
                       FM210400 24008KT P6SM BKN120 BKN200=
201105192320 TAF KPAE 192320Z 2000/2024 36005KT P6SM SCT250 FM200400 04003KT
                       P6SM SCT250 FM202000 30007KT P6SM SCT250=
201105191720 TAF KPAE 191720Z 1918/2018 VRB03KT P6SM SCT250 FM192100 34007KT
                       P6SM FEW050 SCT250 FM200400 04004KT P6SM
                       SCT250=
201105191120 TAF KPAE 191120Z 1912/2012 04004KT P6SM SKC FM192000 34008KT P6SM
                       FEW050 SCT250 FM200400 04004KT P6SM SCT250=
201105190520 TAF KPAE 190520Z 1906/2006 02005KT P6SM SKC FM192100 34008KT P6SM
                       FEW050 SCT250=
201105182323 TAF KPAE 182323Z 1900/1924 34009KT P6SM SCT250 FM190400 02003KT
                       P6SM SCT200 FM192100 34008KT P6SM FEW050
                       SCT250=
201105181720 TAF KPAE 181720Z 1818/1918 VRB05KT P6SM FEW250 FM182000 33007KT
                       P6SM SCT050 SCT200 FM190500 02003KT P6SM
                       SCT200=
201105181120 TAF KPAE 181120Z 1812/1912 35004KT P6SM SCT200 FM182000 33007KT
                       P6SM SCT050 SCT200 FM190500 02003KT P6SM
                       SCT200=
201105180530 TAF KPAE 180530Z 1806/1906 36006KT P6SM SCT100 SCT250 FM180800
                       03004KT P6SM BKN090 FM181400 33005KT P6SM
                       SCT100 FM182000 33008KT P6SM FEW040=
201105172329 TAF KPAE 172329Z 1800/1824 36008KT P6SM SCT250 FM180200 35009KT
                       P6SM BKN100 FM180600 36004KT P6SM BKN100
                       FM181500 36004KT P6SM SKC FM182000 34010KT
                       P6SM FEW040=
201105171813 KPAE 171813Z 1718/1818 36005KT P6SM SCT025 FM171900 34006KT P6SM
                       FEW025 SCT040 FM180000 35009KT P6SM SCT050
                       BKN100 FM180400 03004KT P6SM BKN100=
201105171720 TAF KPAE 171720Z 1718/1818 36005KT P6SM BKN018 FM171900 34006KT
                       P6SM FEW025 SCT040 FM180000 35009KT P6SM
                       SCT050 BKN100 FM180400 03004KT P6SM BKN100=
201105171540 KPAE 171540Z 1716/1812 00000KT P6SM SCT008 FM171700 00000KT P6SM
                       SCT200 FM171900 33007KT P6SM SCT035 SCT200
                       FM180500 02004KT P6SM FEW040 SCT200=
201105171310 KPAE 171310Z 1713/1812 00000KT 1/4SM FG OVC001 FM171600 00000KT
                       3SM BR SCT001 FM171700 00000KT P6SM SCT200
                       FM171900 33007KT P6SM SCT035 SCT200 FM180500
                       02004KT P6SM FEW040 SCT200=
201105171120 TAF KPAE 171120Z 1712/1812 VRB04KT P6SM SCT022 BKN045
                      TEMPO 1712/1716 BKN017 OVC030 FM171900 33007KT
                       P6SM SCT035 SCT200 FM180500 02004KT P6SM
                       FEW040 SCT200=
201105170522 TAF KPAE 170522Z 1706/1806 VRB04KT P6SM BKN035
                      TEMPO 1706/1710 -SHRA OVC030 FM171000 VRB04KT
                       P6SM SCT022 BKN030 FM171800 33007KT P6SM
                       SCT030=
201105162324 TAF KPAE 162324Z 1700/1724 VRB04KT P6SM -SHRA BKN030 OVC040
                      TEMPO 1700/1704 33005KT 6SM -SHRA BKN020
                       FM170700 36005KT P6SM SCT025 BKN030 FM171900
                       33007KT P6SM SCT030=
201105162019 KPAE 162019Z 1620/1718 20010KT P6SM -SHRA BKN025 OVC050 FM162200
                       33006KT P6SM -SHRA BKN020 OVC040
                      TEMPO 1700/1704 4SM -SHRA FM170400 36005KT
                       P6SM SCT025 BKN030=
201105161722 TAF KPAE 161722Z 1618/1718 20015G25KT P6SM VCSH BKN017 OVC050 FM162200
                       33006KT P6SM -SHRA BKN020 OVC040
                      TEMPO 1700/1704 4SM -SHRA FM170400 36005KT
                       P6SM SCT025 BKN030=
201105161120 TAF KPAE 161120Z 1612/1712 18009KT P6SM VCSH SCT012 OVC022
                      TEMPO 1612/1615 -SHRA BKN012 FM161600 17012KT
                       P6SM BKN025 FM162100 33006KT P6SM -SHRA
                       BKN035 BKN045 FM170000 36005KT P6SM SCT025
                       SCT045=
201105160825 KPAE 160825Z 1608/1706 19010KT P6SM VCSH SCT025 OVC035
                      TEMPO 1608/1610 -SHRA BKN025 FM161000 18009KT
                       P6SM VCSH BKN012 OVC022 FM161900 17012KT
                       P6SM BKN025 FM162200 35006KT P6SM BKN035=
201105160520 TAF KPAE 160520Z 1606/1706 19010KT P6SM VCSH SCT007 BKN015 OVC030
                       TEMPO 1606/1610 3SM SHRA BR OVC007 FM161000
                       18009KT P6SM VCSH BKN012 OVC022 FM161900
                       17012KT P6SM BKN025 FM162200 35006KT P6SM
                       BKN035=
201105160257 KPAE 160257Z 1603/1624 19010G18KT P6SM SCT018 BKN025 OVC035
                      TEMPO 1603/1606 -SHRA FM160600 19009KT P6SM
                       BKN018 OVC030 FM161000 18009KT P6SM BKN012
                       OVC022 FM161900 17012KT P6SM VCSH BKN030=
201105152339 TAF KPAE 152339Z 1600/1624 20015KT P6SM FEW010 BKN016 OVC021 FM160300
                       19007KT P6SM -SHRA BKN015 OVC030 FM161000
                       19006KT P6SM VCSH BKN010 OVC020 FM161800
                       20014KT P6SM VCSH BKN030=
201105152010 KPAE 152010Z 1520/1618 18010KT P6SM BKN008 OVC015 FM160200 20009KT
                       P6SM VCSH BKN030 OVC040 FM160800 20006KT
                       P6SM VCSH BKN015 BKN030=
201105151827 KPAE 151827Z 1518/1618 22005KT 4SM -RA BR SCT003 OVC010
                      TEMPO 1518/1520 1SM -RA BR OVC002 FM152000
                       19011KT P6SM -SHRA BKN015 OVC030 FM160200
                       20009KT P6SM VCSH BKN030 OVC040 FM160800
                       20006KT P6SM VCSH BKN015 BKN030=
201105151741 TAF KPAE 151741Z 1518/1618 22005KT 4SM -RA BR SCT003 OVC010
                      TEMPO 1518/1520 OVC003 FM152000 19011KT P6SM
                       -SHRA BKN015 OVC030 FM160200 20009KT P6SM
                       VCSH BKN030 OVC040 FM160800 20006KT P6SM
                       VCSH BKN015 BKN030=
201105151346 KPAE 151346Z 1514/1612 00000KT 5SM -RA BR SCT003 BKN012 OVC020
                       TEMPO 1514/1516 1/2SM -RA FG OVC003 FM151600
                       19004KT 5SM -RA BKN007 OVC012
                      TEMPO 1516/1518 1SM -RA BR BKN003 OVC007
                       FM152000 19007KT P6SM -RA BKN015 OVC025
                       FM160000 19012KT P6SM -SHRA BKN020 OVC040=
201105151120 TAF KPAE 151120Z 1512/1612 00000KT P6SM -RA SCT007 BKN012 OVC020
                       TEMPO 1512/1515 5SM -RA BR BKN007 OVC012
                       FM151500 19004KT 5SM -RA BKN007 OVC012
                      TEMPO 1515/1518 1SM -RA BR BKN003 OVC007
                       FM152000 19007KT P6SM -RA BKN015 OVC025
                       FM160000 19012KT P6SM -SHRA BKN020 OVC040=
201105150809 KPAE 150809Z 1508/1606 VRB03KT 6SM -RA BR SCT003 BKN008 OVC014
                       TEMPO 1508/1512 3SM -RA BR BKN003 BKN008
                       OVC014 FM151600 19004KT P6SM -RA BKN008
                       OVC020 FM151800 18008KT P6SM -RA BKN018
                       OVC030 FM152100 19010KT P6SM -SHRA BKN025
                       OVC045=
201105150537 TAF KPAE 150537Z 1506/1606 VRB03KT 5SM -RA BR SCT015 OVC030
                      TEMPO 1506/1510 3SM RA BR BKN015 OVC030 FM151200
                       19004KT 4SM -RA BR BKN007 OVC015 FM151700
                       18008KT P6SM -RA BKN018 OVC030 FM152100
                       19010KT P6SM -SHRA BKN025 OVC045=
201105150251 KPAE 150251Z 1503/1524 VRB03KT 4SM -RA BR SCT015 OVC030
                      TEMPO 1503/1506 1 1/2SM RA BR BKN010 OVC030
                       FM150600 24006KT P6SM -RA SCT010 OVC030
                       FM151000 20008KT P6SM -RA BKN018 OVC040
                       FM152000 21010KT P6SM -SHRA BKN025=
201105142333 TAF KPAE 142333Z 1500/1524 35010KT P6SM VCSH BKN060 OVC120
                      TEMPO 1500/1504 -SHRA BKN050CB OVC100 FM150400
                       24006KT P6SM -RA BKN035 OVC060 FM151200
                       20008KT P6SM -RA BKN018 OVC040 FM152000
                       21010KT P6SM -SHRA BKN025=
201105141738 TAF KPAE 141738Z 1418/1518 01005KT P6SM VCSH FEW050 SCT070 BKN200
                       FM142100 34010KT P6SM VCSH SCT050 BKN080
                       FM150000 34006KT P6SM -RA OVC050 FM150600
                       19005KT P6SM -RA BKN025 OVC045=
201105141121 TAF KPAE 141121Z 1412/1512 36003KT P6SM BKN090 OVC200 FM141400
                       02004KT P6SM VCSH BKN070 OVC100 FM141700
                       36004KT P6SM VCSH BKN050 OVC100 FM142300
                       34006KT P6SM -RA OVC050 FM150700 20005KT
                       P6SM -RA BKN025 OVC045=
201105140543 TAF KPAE 140543Z 1406/1506 36005KT P6SM BKN120 OVC200 FM141200
                       03004KT P6SM VCSH BKN050 OVC100 FM141700
                       36004KT P6SM BKN045 OVC100 FM142100 32006KT
                       P6SM BKN040 OVC060 FM142300 34006KT P6SM
                       -RA OVC040=
201105132333 TAF KPAE 132333Z 1400/1424 35011KT P6SM SCT100 BKN200 FM140200
                       36009KT P6SM SCT100 BKN200 FM140800 35004KT
                       P6SM BKN100 BKN150 FM141200 30005KT P6SM
                       BKN050 OVC100
                      PROB30 1418/1424 -RA OVC050=
201105131739 TAF KPAE 131739Z 1318/1418 35009KT P6SM SCT120 BKN200 FM140800
                       02003KT P6SM BKN100 BKN150 FM141200 31005KT
                       P6SM BKN050 OVC100=
201105131141 TAF KPAE 131141Z 1312/1412 VRB03KT P6SM BKN200 FM132200 35008KT
                       P6SM BKN100 FM140800 VRB03KT P6SM SCT120
                       BKN200=
201105130534 TAF KPAE 130534Z 1306/1406 20006KT P6SM SCT200 FM130900 VRB03KT
                       P6SM SCT200 FM132200 35008KT P6SM BKN100=
201105130103 KPAE 130103Z 1301/1324 24014KT P6SM SCT050 SCT200 FM130400 27007KT
                       P6SM SCT050 FM131200 04006KT P6SM SCT200
                       FM132300 35008KT P6SM BKN120=
201105122320 TAF KPAE 122320Z 1300/1324 17008KT P6SM SCT050 SCT200 FM130400
                       VRB04KT P6SM SCT050 FM131200 04006KT P6SM
                       SCT200 FM132300 35008KT P6SM BKN120=
201105121729 TAF KPAE 121729Z 1218/1318 16008KT P6SM SCT030 BKN050 FM130500
                       VRB03KT P6SM SCT050 FM131500 VRB03KT P6SM
                       FEW080=
201105121421 KPAE 121421Z 1214/1312 16009KT P6SM SCT030
                      TEMPO 1214/1216 BKN030 FM121800 VRB03KT P6SM
                       SCT030 BKN045 FM130500 VRB03KT P6SM SCT050=
201105121138 TAF KPAE 121138Z 1212/1312 VRB03KT P6SM SCT008 BKN012 OVC020 FM121400
                       VRB03KT P6SM SCT012 OVC020 FM121700 VRB03KT
                       P6SM SCT030 BKN045 FM130500 VRB03KT P6SM
                       SCT050=
201105120538 TAF KPAE 120538Z 1206/1306 18012KT P6SM SCT009 BKN015 OVC025 FM121000
                       18008KT P6SM SCT015 BKN025 FM121300 15006KT
                       P6SM SCT035 BKN050=
201105120503 KPAE 120503Z 1205/1224 18012KT P6SM BKN009 OVC015 FM120700 18012KT
                       P6SM SCT009 BKN015 OVC025 FM121000 18008KT
                       P6SM SCT015 BKN025 FM121300 15006KT P6SM
                       SCT025 BKN050 FM122000 20012KT P6SM BKN040
                       BKN080 BKN200=
201105112326 TAF KPAE 112326Z 1200/1224 19013KT 6SM -RA BR SCT011 BKN030 OVC045
                       TEMPO 1200/1203 4SM -RA BR OVC011 FM120300
                       19010KT P6SM VCSH SCT025 BKN050
                      TEMPO 1203/1207 BKN025 BKN050 FM120700 15006KT
                       P6SM SCT025 BKN050 FM122000 20012KT P6SM
                       BKN040 BKN080 BKN200=
201105112012 KPAE 112012Z 1120/1218 19013KT P6SM -RA SCT008 SCT015 OVC050
                      TEMPO 1120/1124 5SM -RA BR SCT008 OVC015
                       FM120000 19013KT P6SM -SHRA BKN015 OVC030
                       FM120300 17009KT P6SM BKN025 OVC050
                      TEMPO 1203/1207 -SHRA FM120900 14006KT P6SM
                       SCT025 BKN050=
201105111750 KPAE 111750Z 1118/1218 17013KT P6SM FEW006 SCT020 OVC050
                      TEMPO 1118/1120 17013G22KT -RA FEW006 BKN020
                       OVC050 FM112000 19013KT 6SM -RA BR SCT006
                       OVC015 FM120000 19013KT P6SM -SHRA BKN015
                       OVC030 FM120300 17009KT P6SM BKN025 OVC050
                       TEMPO 1203/1207 -SHRA FM120900 14006KT P6SM
                       SCT025 BKN050=
201105111741 TAF KPAE 111741Z 1118/1218 17013KT P6SM FEW006 SCT020 OVC050
                      TEMPO 1118/1120 -RA FEW006 BKN020 OVC050
                       FM112000 16012KT 5SM -RA SCT006 BKN011 OVC020
                       FM120100 19012KT P6SM -SHRA SCT015 BKN025
                       BKN040 FM120600 VRB03KT P6SM -SHRA BKN012
                       OVC020=
201105111140 TAF KPAE 111140Z 1112/1212 16008KT P6SM -RA SCT035 OVC060 FM111500
                       16008KT P6SM SCT025 OVC040 FM111800 16008KT
                       P6SM -RA OVC022 FM112100 16012KT 5SM -RA
                       SCT006 BKN011 OVC020 FM120100 19012KT P6SM
                       -SHRA SCT015 BKN025 BKN040 FM120600 VRB03KT
                       P6SM -SHRA BKN012 OVC020=
201105110538 TAF KPAE 110538Z 1106/1206 VRB03KT P6SM OVC100 FM110900 16006KT
                       P6SM SCT035 OVC080 FM111300 16008KT P6SM
                       SCT025 OVC040
                      TEMPO 1113/1117 -RA BKN025 OVC040 FM111700
                       16008KT P6SM -RA OVC022 FM112100 16012KT
                       5SM -RA SCT006 BKN011 OVC020 FM120100 19012KT
                       P6SM -SHRA SCT015 BKN025 BKN040=
201105102330 TAF KPAE 102330Z 1100/1124 29008KT P6SM FEW030 SCT100 OVC250 FM110300
                       VRB04KT P6SM FEW050 OVC100 FM110900 16009KT
                       P6SM FEW022 OVC050
                      PROB30 1109/1114 -RA BKN022 OVC050 FM111400
                       16009KT P6SM -RA OVC022 FM111800 18012KT
                       5SM -RA BR FEW009 OVC018=
201105102103 KPAE 102103Z 1021/1118 29005KT P6SM BKN025 BKN250 FM102200 29005KT
                       P6SM SCT030 SCT250 FM110300 VRB03KT P6SM
                       FEW100 BKN250 FM110900 16007KT P6SM OVC100
                       FM111500 16011KT P6SM SCT022 OVC050
                      PROB30 1115/1118 -RA=
201105101931 KPAE 101931Z 1020/1118 21006KT P6SM BKN020 FM102030 26005KT P6SM
                       FEW035 SCT250 FM110300 VRB03KT P6SM FEW100
                       BKN250 FM110900 16007KT P6SM OVC100 FM111500
                       16011KT P6SM SCT022 OVC050
                      PROB30 1115/1118 -RA=
201105101743 TAF KPAE 101743Z 1018/1118 VRB03KT P6SM OVC017 FM101900 24005KT
                       P6SM BKN022 FM101930 28005KT P6SM FEW035
                       SCT250 FM110300 VRB03KT P6SM FEW100 BKN250
                       FM110900 16007KT P6SM OVC100 FM111500 16011KT
                       P6SM SCT022 OVC050
                      PROB30 1115/1118 -RA=
201105101538 KPAE 101538Z 1016/1112 VRB03KT P6SM OVC009 FM101800 31006KT P6SM
                       BKN019 FM101900 31006KT P6SM FEW040 SCT250
                       FM110900 VRB03KT P6SM OVC100=
201105101437 KPAE 101437Z 1015/1112 VRB03KT P6SM OVC020 FM101800 31006KT P6SM
                       BKN020 FM101900 31006KT P6SM FEW040 SCT250
                       FM110900 VRB03KT P6SM OVC100=
201105101138 TAF KPAE 101138Z 1012/1112 VRB03KT P6SM SCT011 OVC025
                      TEMPO 1014/1016 BKN011 OVC025 FM101700 VRB03KT
                       P6SM BKN025 FM101800 34006KT P6SM SCT060
                       FM110900 VRB03KT P6SM OVC100=
201105100538 TAF KPAE 100538Z 1006/1106 01006KT P6SM BKN060 FM101200 VRB03KT
                       P6SM SCT011 BKN045
                      TEMPO 1013/1016 BKN011 FM101900 34006KT P6SM
                       FEW040 SCT250=
201105092329 TAF KPAE 092329Z 1000/1024 VRB03KT P6SM SCT022 BKN035 BKN050 FM100900
                       VRB03KT P6SM OVC022 FM101200 VRB03KT P6SM
                       OVC009 FM101800 VRB03KT P6SM OVC019 FM102000
                       31005KT P6SM FEW040 SCT250=
201105092145 KPAE 092145Z 0922/1018 VRB03KT P6SM SCT019 BKN035 OVC060
                      TEMPO 0922/0924 BKN019 BKN035 OVC060 FM100000
                       33006KT P6SM SCT035 BKN060 FM100300 02004KT
                       P6SM FEW060 FM101000 VRB03KT P6SM OVC009=
201105092101 KPAE 092101Z 0921/1018 VRB03KT P6SM BKN035 OVC060 FM092300 33006KT
                       P6SM SCT035 BKN060 FM100000 33006KT P6SM
                       SCT060 FM100300 02004KT P6SM FEW060 FM101000
                       VRB03KT P6SM OVC009=
201105092001 KPAE 092001Z 0920/1018 VRB03KT P6SM BKN019 OVC035 FM092100 VRB03KT
                       P6SM BKN028 OVC050 FM092200 33006KT P6SM
                       SCT035 BKN060 FM100000 33006KT P6SM SCT060
                       FM100300 02004KT P6SM FEW060 FM101000 VRB03KT
                       P6SM OVC009=
201105091720 TAF KPAE 091720Z 0918/1018 VRB03KT P6SM BKN012 OVC030 FM092000
                       VRB03KT P6SM FEW025 BKN035 OVC060 FM092200
                       33006KT P6SM SCT040 BKN060 FM100000 33006KT
                       P6SM SCT060 FM100300 02004KT P6SM FEW060
                       FM101000 VRB03KT P6SM OVC009=
201105091509 KPAE 091509Z 0915/1012 VRB03KT P6SM SCT004 SCT011 OVC030
                      TEMPO 0915/0918 6SM -DZ BKN004 OVC011 FM091800
                       31006KT P6SM BKN030 OVC060 FM092100 36006KT
                       P6SM SCT070 FM100100 03005KT P6SM SCT070
                       FM101000 12004KT P6SM OVC012=
201105091120 TAF KPAE 091120Z 0912/1012 VRB03KT P6SM BKN050 FM091800 31006KT
                       P6SM SCT050 SCT070 FM092100 36006KT P6SM
                       SCT070 FM100100 03005KT P6SM SCT070 FM101000
                       12004KT P6SM OVC012=
201105090520 TAF KPAE 090520Z 0906/1006 33004KT P6SM BKN050 BKN100 FM091100
                       VRB03KT P6SM BKN018 BKN050 FM091800 30005KT
                       P6SM BKN022 BKN060 FM091900 36006KT P6SM
                       SCT035 SCT070 FM092100 36006KT P6SM SCT070
                       FM100300 03004KT P6SM SCT070=
201105082322 TAF KPAE 082322Z 0900/0924 01007KT P6SM SCT050 SCT100 FM090400
                       VRB03KT P6SM SCT050 BKN100 FM090800 VRB03KT
                       P6SM BKN050 FM091200 16004KT P6SM BKN025
                       BKN050 FM091900 28005KT P6SM SCT035 BKN060
                       FM092200 32005KT P6SM SCT045 SCT070=
201105081725 TAF KPAE 081725Z 0818/0918 35004KT P6SM FEW007 SCT015 BKN035
                      TEMPO 0818/0819 -SHRA SCT007 BKN015 OVC035
                       FM082000 34006KT P6SM BKN040 BKN080 FM090400
                       VRB03KT P6SM BKN050 FM090700 VRB03KT P6SM
                       BKN025 BKN050=
201105081404 KPAE 081404Z 0814/0912 00000KT P6SM SCT004 BKN035
                      TEMPO 0814/0816 -SHRA BKN004 OVC035 FM081600
                       35004KT P6SM SCT012 BKN040
                      TEMPO 0816/0818 -SHRA BKN012 OVC040 FM081800
                       34005KT P6SM BKN025 BKN050 FM082000 36006KT
                       P6SM SCT030 BKN050 FM090300 05005KT P6SM
                       SCT050=
201105081120 TAF KPAE 081120Z 0812/0912 VRB04KT P6SM VCSH SCT012 BKN022
                      TEMPO 0812/0816 -SHRA BKN012 FM081800 34005KT
                       P6SM BKN025 BKN050 FM082000 36006KT P6SM
                       SCT030 BKN050 FM090300 05005KT P6SM SCT050=
201105080520 TAF KPAE 080520Z 0806/0906 33005KT P6SM -SHRA SCT012 BKN030 FM080900
                       35005KT P6SM VCSH SCT012 BKN022
                      TEMPO 0809/0813 BKN012 FM081900 34005KT P6SM
                       SCT035 BKN050 BKN070 FM082200 36006KT P6SM
                       SCT070 FM090300 05005KT P6SM SCT070=
201105072328 TAF KPAE 072328Z 0800/0824 35006KT P6SM FEW007 SCT022 BKN040
                      TEMPO 0800/0803 -SHRA BKN022 OVC040 FM080300
                       33005KT P6SM -SHRA FEW005 BKN020 OVC040
                       FM080700 VRB04KT P6SM BKN025 OVC040
                      TEMPO 0807/0810 -SHRA FM081900 32005KT P6SM
                       SCT035 BKN050 BKN080=
201105071728 TAF KPAE 071728Z 0718/0818 19012KT P6SM SCT020 BKN045 OVC090
                      TEMPO 0718/0722 -SHRA BKN020 OVC045 FM072200
                       33005KT P6SM -SHRA BKN020 OVC040 FM080700
                       VRB04KT P6SM BKN025 OVC040=
201105071155 TAF KPAE 071155Z 0712/0812 16012KT 6SM -RA BR SCT006 OVC015 FM071300
                       18012G20KT P6SM -SHRA BKN012 OVC025 FM071900
                       20011G20KT P6SM -SHRA BKN025 OVC050 FM080300
                       16008KT P6SM VCSH BKN025 BKN050 FM080600
                       16006KT P6SM SCT025 BKN050
                      TEMPO 0810/0812 OVC022=
201105070731 KPAE 070731Z 0708/0806 17012KT P6SM -SHRA SCT015 OVC035
                      TEMPO 0708/0711 BKN015 FM071100 19012KT P6SM
                       -SHRA BKN020 OVC040 FM071900 20010KT P6SM
                       -SHRA BKN025 OVC050 FM080300 16008KT P6SM
                       VCSH BKN025 BKN050=
201105070520 TAF KPAE 070520Z 0706/0806 17012KT P6SM -RA BKN015 OVC035 FM071200
                       19012KT P6SM -SHRA BKN020 OVC040 FM071900
                       20010KT P6SM -SHRA BKN025 OVC050 FM080300
                       16008KT P6SM VCSH BKN025 BKN050=
201105070336 KPAE 070336Z 0704/0724 17008KT P6SM -RA SCT009 OVC030 FM071200
                       18010KT P6SM -SHRA BKN020 OVC040 FM071900
                       20010KT P6SM -SHRA BKN025 OVC050=
201105062321 TAF KPAE 062321Z 0700/0724 19012KT P6SM -RA SCT015 OVC040
                      TEMPO 0700/0703 3SM -RA BR OVC015 FM070300
                       17008KT P6SM -RA BKN015 OVC030 FM071200
                       18010KT P6SM -SHRA BKN020 OVC040 FM071900
                       20010KT P6SM -SHRA BKN025 OVC050=
201105061728 TAF KPAE 061728Z 0618/0718 20008KT P6SM -RA BKN016 OVC045 FM062200
                       20008KT P6SM -RA BKN022 OVC050 FM070300
                       17008KT P6SM -RA BKN015 OVC030 FM071200
                       18010KT P6SM -SHRA BKN020 OVC040=
201105061529 KPAE 061529Z 0615/0712 20007KT P6SM SCT016 OVC028
                      TEMPO 0615/0618 -RA BKN016 OVC028 FM061800
                       16009KT P6SM BKN030 FM070200 16010KT P6SM
                       -RA BKN025 OVC050=
201105061120 TAF KPAE 061120Z 0612/0712 20005KT P6SM VCSH SCT018 BKN040
                      TEMPO 0612/0615 -SHRA OVC018 FM061800 16009KT
                       P6SM BKN030 FM070200 16010KT P6SM -RA BKN025
                       OVC050=
201105060620 KPAE 060620Z 0606/0706 VRB03KT P6SM VCSH SCT006 BKN015 BKN040
                      TEMPO 0608/0612 BKN006 FM061800 16009KT P6SM
                       BKN025 FM070100 16010KT P6SM -RA BKN025
                       OVC050=
201105060520 TAF KPAE 060520Z 0606/0706 VRB06KT P6SM VCSH SCT015 BKN025 BKN050
                       TEMPO 0606/0608 -SHRA BKN015 FM060800 18007KT
                       P6SM BKN015 OVC030 FM061200 18009KT P6SM
                       OVC012 FM070100 16010KT P6SM -RA BKN025
                       OVC050=
201105052320 TAF KPAE 052320Z 0600/0624 VRB06KT P6SM VCSH SCT015 BKN050
                      TEMPO 0600/0604 5SM -SHRA BKN015 OVC040 FM060700
                       18008KT P6SM BKN015 OVC030 FM061200 18008KT
                       P6SM OVC012 FM061900 18008KT P6SM -RA BKN025
                       OVC050=
201105052108 KPAE 052108Z 0521/0618 16007KT P6SM VCSH BKN015 OVC030
                      TEMPO 0521/0601 4SM -DZ BR OVC010 FM060700
                       18008KT P6SM BKN015 OVC030 FM061200 18008KT
                       P6SM OVC012
                      TEMPO 0615/0618 5SM -RA BR=
201105051800 KPAE 051800Z 0518/0618 19010KT P6SM BKN012 OVC025
                      TEMPO 0518/0521 5SM -SHRA BR OVC008 FM052100
                       21012KT P6SM VCSH BKN020 OVC040 FM060700
                       18008KT P6SM BKN025 FM061200 18008KT P6SM
                       OVC020
                      TEMPO 0615/0618 5SM -RA BR OVC015=
201105051722 TAF KPAE 051722Z 0518/0618 19010KT P6SM BKN015 OVC035
                      TEMPO 0518/0521 5SM -SHRA BR OVC010 FM052100
                       21012KT P6SM VCSH BKN020 OVC040 FM060700
                       18008KT P6SM BKN025 FM061200 18008KT P6SM
                       OVC020
                      TEMPO 0615/0618 5SM -RA BR OVC015=
201105051407 KPAE 051407Z 0514/0612 18006KT P6SM SCT004 BKN015 OVC040
                      TEMPO 0514/0517 5SM -DZ BR BKN004 OVC015
                       FM051800 18008KT P6SM VCSH SCT020 BKN040
                       FM052000 18008KT P6SM VCSH BKN030 FM060500
                       17005KT P6SM BKN030=
201105051317 KPAE 051317Z 0513/0612 00000KT 6SM -RA BR OVC040 FM051430 VRB03KT
                       6SM -RA BR OVC030 FM051800 20010KT P6SM
                       -SHRA BKN030 FM052000 18006KT P6SM VCSH
                       BKN030 FM060500 17005KT P6SM BKN030=
201105051120 TAF KPAE 051120Z 0512/0612 16005KT P6SM -RA BKN060 BKN100 FM051300
                       18007KT P6SM -RA OVC030 FM051800 20010KT
                       P6SM -SHRA BKN030 FM052000 18006KT P6SM
                       VCSH BKN030 FM060500 17005KT P6SM BKN030=
201105050525 TAF KPAE 050525Z 0506/0606 36006KT P6SM BKN200 FM050900 VRB03KT
                       P6SM SCT030 BKN100 FM051100 16005KT P6SM
                       VCSH BKN040 BKN100 FM051400 18007KT P6SM
                       -RA OVC025 FM051800 20010KT P6SM -SHRA BKN025
                       FM052000 18006KT P6SM VCSH BKN030 FM060500
                       17005KT P6SM BKN025=
201105042320 TAF KPAE 042320Z 0500/0524 36006KT P6SM BKN200 FM050900 VRB03KT
                       P6SM SCT030 BKN100 FM051100 18005KT P6SM
                       VCSH BKN040 BKN100 FM051600 18007KT P6SM
                       -DZ OVC030 FM052000 23007KT P6SM VCSH BKN040=
201105041720 TAF KPAE 041720Z 0418/0518 36006KT P6SM SCT250 FM050400 30006KT
                       P6SM BKN200 FM050900 VRB03KT P6SM SCT030
                       BKN100 FM051400 18007KT P6SM VCSH BKN030
                       OVC050=
201105041137 TAF KPAE 041137Z 0412/0512 01004KT P6SM SKC FM041800 32006KT P6SM
                       SCT250 FM050300 01004KT P6SM SCT120 BKN200
                       FM050900 VRB03KT P6SM SCT070 BKN100=
201105040539 TAF KPAE 040539Z 0406/0506 01006KT P6SM FEW050 FM040800 VRB03KT
                       P6SM SKC FM041200 VRB03KT P6SM FEW007 FM041800
                       32006KT P6SM SCT250=
201105032327 TAF KPAE 032327Z 0400/0424 35006KT P6SM BKN060 FM040300 VRB03KT
                       P6SM SCT060 FM041200 VRB03KT P6SM FEW007
                       FM041800 32006KT P6SM SCT250=
201105031720 TAF KPAE 031720Z 0318/0418 VRB04KT P6SM VCSH BKN025 OVC050 FM032000
                       26006KT P6SM VCSH BKN035 BKN060 FM032200
                       31007KT P6SM SCT035 BKN060 FM040000 35006KT
                       P6SM SCT060
                      TEMPO 0400/0403 BKN060 FM040300 VRB03KT P6SM
                       SCT060 FM041200 VRB03KT P6SM FEW007=
201105031414 KPAE 031414Z 0314/0412 17005KT P6SM -SHRA SCT020 BKN035 OVC050
                       TEMPO 0314/0318 BKN020 OVC035 FM031900 27005KT
                       P6SM SCT030 BKN050 FM032100 34006KT P6SM
                       BKN035 BKN050=
201105031135 TAF KPAE 031135Z 0312/0412 17005KT P6SM -SHRA SCT025 BKN030
                      TEMPO 0312/0316 BKN015 OVC020 FM031900 27005KT
                       P6SM SCT030 BKN050 FM032100 34006KT P6SM
                       BKN035 BKN050=
201105030522 TAF KPAE 030522Z 0306/0406 02006KT P6SM -SHRA OVC025
                      TEMPO 0306/0310 BKN017 OVC020 FM031000 17006KT
                       P6SM -SHRA OVC012 FM031900 27005KT P6SM
                       BKN025 OVC050 FM032100 32006KT P6SM BKN035
                       BKN050=
201105030259 KPAE 030259Z 0303/0324 36006KT P6SM -SHRA BKN012
                      TEMPO 0303/0306 BKN005 OVC010 FM030600 02006KT
                       P6SM -SHRA OVC025 FM030900 17006KT 6SM -SHRA
                       BR OVC012 FM031800 27005KT P6SM VCSH BKN025
                       OVC050 FM032100 32006KT P6SM BKN035 BKN050=
201105022320 TAF KPAE 022320Z 0300/0324 18010KT P6SM BKN022 OVC035
                      TEMPO 0300/0303 -SHRA FM030300 25006KT P6SM
                       VCSH BKN030 BKN050 FM030600 02006KT P6SM
                       -SHRA OVC025 FM030900 17006KT 6SM -SHRA
                       BR OVC012 FM031800 27005KT P6SM VCSH BKN025
                       OVC050 FM032100 32006KT P6SM BKN035 BKN050=
201105021932 KPAE 021932Z 0220/0318 19013G20KT P6SM BKN020 BKN050
                      TEMPO 0220/0222 -SHRA FM022200 21010KT P6SM
                       -SHRA BKN018 OVC030 FM030200 VRB05KT P6SM
                       BKN022 OVC050
                      TEMPO 0302/0306 -SHRA FM030600 17006KT P6SM
                       OVC022
                      PROB30 0306/0312 -SHRA FM031200 17006KT P6SM
                       VCSH OVC018=
201105021730 TAF KPAE 021730Z 0218/0318 19013KT 5SM -RA BR SCT005 BKN015 OVC030
                       TEMPO 0218/0220 3SM -RA BR BKN005 OVC015
                       FM022000 19013KT 5SM -RA BR SCT005 OVC015
                       TEMPO 0220/0222 3SM -RA BR BKN005 OVC015
                       FM022200 21010KT P6SM -SHRA BKN018 OVC030
                       FM030200 VRB05KT P6SM BKN022 OVC050
                      TEMPO 0302/0306 -SHRA FM030600 17006KT P6SM
                       OVC022
                      PROB30 0306/0312 -SHRA FM031200 17006KT P6SM
                       VCSH OVC018=
201105021613 KPAE 021613Z 0216/0312 19007KT 5SM -RA BR SCT005 OVC012
                      TEMPO 0216/0219 3SM RA BR BKN005 OVC012 FM021900
                       18014KT P6SM -RA BKN025 OVC040 FM022100
                       19010KT 5SM -SHRA BR BKN012 OVC020=
201105021132 TAF KPAE 021132Z 0212/0312 16006KT P6SM BKN100 OVC150 FM021300
                       15006KT P6SM BKN045 OVC070 FM021500 16007KT
                       P6SM -RA SCT030 OVC050 FM021700 18014KT
                       P6SM -RA BKN025 OVC040 FM022100 19010KT
                       5SM -SHRA BR BKN012 OVC020=
201105020521 TAF KPAE 020521Z 0206/0306 VRB03KT P6SM BKN200 FM020800 13004KT
                       P6SM BKN200 FM021100 15006KT P6SM BKN100
                       OVC150 FM021300 15006KT P6SM BKN045 OVC070
                       FM021500 16007KT P6SM -RA SCT030 OVC050
                       FM021700 18014KT P6SM -RA BKN025 OVC040
                       FM022100 19010KT 5SM -SHRA BR BKN012 OVC020=
201105012320 TAF KPAE 012320Z 0200/0224 36005KT P6SM SCT200 FM020600 13004KT
                       P6SM BKN200 FM021100 15006KT P6SM BKN100
                       OVC150 FM021300 15006KT P6SM BKN045 OVC070
                       FM021500 16007KT P6SM -RA SCT030 OVC050
                       FM021700 18014KT P6SM -RA BKN025 OVC040
                       FM022100 19010KT 5SM -SHRA BR BKN012 OVC020=
201105011722 TAF KPAE 011722Z 0118/0218 31005KT P6SM SCT200 FM020600 13004KT
                       P6SM BKN200 FM021100 15006KT P6SM BKN100
                       OVC150 FM021300 15006KT P6SM BKN045 OVC070
                       FM021500 16007KT P6SM -RA SCT030 OVC050
                       FM021700 17008KT P6SM -RA BKN025 OVC040=
201105011123 TAF KPAE 011123Z 0112/0212 VRB04KT P6SM SKC FM011800 30005KT P6SM
                       SCT250 FM020000 32005KT P6SM SCT150 BKN250
                       FM020600 15008KT P6SM BKN070 OVC120=
201105010521 TAF KPAE 010521Z 0106/0206 01006KT P6SM SCT070 FM010700 VRB03KT
                       P6SM SKC FM011800 30005KT P6SM SCT250 FM020000
                       35005KT P6SM SCT150 BKN250=