##########################################################
# Query made at 02/15/2025 20:30:48 UTC
# Time interval: from 06/01/2011 00:00  to 06/30/2011 23:59  UTC
##########################################################

##########################################################
# KPAE, Everett, Snohomish County Airport (United States)
# WMO index: -----. WIGOS ID: Unknown
# Latitude 47-55-23N. Longitude 122-16-57W. Altitude 184 m.
##########################################################

###################################
#  METAR/SPECI from KPAE
###################################
201106302353 METAR KPAE 302353Z 07004KT 10SM FEW044 BKN050 OVC085 16/11 A3014 RMK AO2 RAB04E16 SLP206 P0000 60000 T01560106 10156 20117 51002=
201106302253 METAR KPAE 302253Z 08004KT 10SM BKN043 OVC050 15/11 A3014 RMK AO2 RAB21E49 SLP206 P0000 T01500111=
201106302153 METAR KPAE 302153Z 10005KT 10SM OVC046 15/09 A3014 RMK AO2 SLP206 T01500094=
201106302053 METAR KPAE 302053Z 10005KT 10SM BKN035 OVC050 14/09 A3013 RMK AO2 SLP204 T01440094 51010=
201106301953 METAR KPAE 301953Z 10005KT 10SM SCT013 BKN025 14/09 A3013 RMK AO2 SLP202 T01390094=
201106301926 SPECI KPAE 301926Z 00000KT 10SM SCT013 BKN020 OVC055 13/10 A3012 RMK AO2=
201106301926 SPECI KPAE 301926Z 00000KT 10SM SCT013 BKN020 OVC055 13/10 A3012 RMK AO2=
201106301853 METAR KPAE 301853Z 00000KT 10SM SCT011 BKN030 OVC055 13/09 A3011 RMK AO2 SLP198 T01330094=
201106301753 METAR KPAE 301753Z 07004KT 10SM FEW011 BKN034 OVC050 12/09 A3010 RMK AO2 RAB38E48 SLP195 P0000 60025 T01170089 10122 20094 53010=
201106301728 SPECI KPAE 301728Z 07005KT 10SM SCT013 OVC036 12/09 A3010 RMK AO2=
201106301728 SPECI KPAE 301728Z 07005KT 10SM SCT013 OVC036 12/09 A3010 RMK AO2=
201106301653 METAR KPAE 301653Z 08005KT 10SM BKN011 OVC036 12/09 A3009 RMK AO2 SLP189 T01170089=
201106301553 METAR KPAE 301553Z 10003KT 10SM BKN008 BKN019 OVC033 11/09 A3008 RMK AO2 SLP188 T01110089=
201106301453 METAR KPAE 301453Z 07003KT 8SM BKN006 OVC023 10/08 A3007 RMK AO2 RAE39 SLP184 P0002 60025 T01000083 53013=
201106301441 SPECI KPAE 301441Z 06005KT 5SM BR BKN006 OVC023 10/08 A3007 RMK AO2 RAE39 P0002=
201106301441 SPECI KPAE 301441Z 06005KT 5SM BR BKN006 OVC023 10/08 A3007 RMK AO2 RAE39 P0002=
201106301423 SPECI KPAE 301423Z VRB04KT 2SM R16R/4500VP6000FT -RA BR BKN006 OVC023 10/09 A3006 RMK AO2 P0001=
201106301423 SPECI KPAE 301423Z VRB04KT 2SM R16R/4500VP6000FT -RA BR BKN006 OVC023 10/09 A3006 RMK AO2 P0001=
201106301414 SPECI KPAE 301414Z 03004KT 3SM -RA BR BKN006 OVC023 10/08 A3006 RMK AO2 P0001=
201106301414 SPECI KPAE 301414Z 03004KT 3SM -RA BR BKN006 OVC023 10/08 A3006 RMK AO2 P0001=
201106301358 SPECI KPAE 301358Z 02005KT 2 1/2SM -RA BR BKN006 OVC023 09/08 A3005 RMK AO2 P0000=
201106301358 SPECI KPAE 301358Z 02005KT 2 1/2SM -RA BR BKN006 OVC023 09/08 A3005 RMK AO2 P0000=
201106301353 METAR KPAE 301353Z 02005KT 4SM -RA BR SCT006 OVC023 10/08 A3005 RMK AO2 SLP177 P0008 T01000083=
201106301347 SPECI KPAE 301347Z 02004KT 3SM -RA BR SCT006 OVC021 10/08 A3005 RMK AO2 P0008=
201106301347 SPECI KPAE 301347Z 02004KT 3SM -RA BR SCT006 OVC021 10/08 A3005 RMK AO2 P0008=
201106301339 SPECI KPAE 301339Z AUTO 00000KT 1 1/4SM -RA BR SCT006 BKN009 OVC021 10/08 A3005 RMK AO2 P0007=
201106301339 SPECI KPAE 301339Z AUTO 00000KT 1 1/4SM -RA BR SCT006 BKN009 OVC021 10/08 A3005 RMK AO2 P0007=
201106301322 SPECI KPAE 301322Z AUTO 02003KT 2SM -RA BR SCT006 BKN009 OVC022 10/08 A3004 RMK AO2 P0004=
201106301322 SPECI KPAE 301322Z AUTO 02003KT 2SM -RA BR SCT006 BKN009 OVC022 10/08 A3004 RMK AO2 P0004=
201106301309 SPECI KPAE 301309Z AUTO 03004KT 1 3/4SM -RA BR FEW004 BKN015 OVC022 10/08 A3004 RMK AO2 P0003=
201106301309 SPECI KPAE 301309Z AUTO 03004KT 1 3/4SM -RA BR FEW004 BKN015 OVC022 10/08 A3004 RMK AO2 P0003=
201106301253 METAR KPAE 301253Z AUTO 03003KT 2SM RA BR SCT006 OVC014 10/09 A3003 RMK AO2 RAB1154 SLP171 P0015 T01000089=
201106301249 SPECI KPAE 301249Z AUTO 05004KT 2SM RA BR FEW006 OVC013 10/09 A3003 RMK AO2 RAB1154 P0013=
201106301249 SPECI KPAE 301249Z AUTO 05004KT 2SM RA BR FEW006 OVC013 10/09 A3003 RMK AO2 RAB1154 P0013=
201106301248 SPECI KPAE 301248Z AUTO 05004KT 1 3/4SM R16R/6000VP6000FT RA BR FEW006 OVC013 10/09 A3003 RMK AO2 RAB1154 P0012=
201106301248 SPECI KPAE 301248Z AUTO 05004KT 1 3/4SM R16R/6000VP6000FT RA BR FEW006 OVC013 10/09 A3003 RMK AO2 RAB1154 P0012=
201106301239 SPECI KPAE 301239Z AUTO 06006KT 2 1/2SM R16R/5000VP6000FT -RA BR FEW004 OVC015 10/09 A3003 RMK AO2 RAB1154 P0008=
201106301239 SPECI KPAE 301239Z AUTO 06006KT 2 1/2SM R16R/5000VP6000FT -RA BR FEW004 OVC015 10/09 A3003 RMK AO2 RAB1154 P0008=
201106301153 METAR KPAE 301153Z AUTO 08004KT 10SM SCT015 OVC022 10/08 A3002 RMK AO2 RAE04 SLP166 P0000 60006 70010 T01000083 10106 20100 51012=
201106301053 METAR KPAE 301053Z AUTO 10006KT 4SM -RA BR FEW004 BKN017 OVC024 10/09 A3001 RMK AO2 SLP164 P0002 T01000089=
201106301014 SPECI KPAE 301014Z AUTO 12006KT 3SM -RA BR FEW004 BKN012 OVC021 11/09 A3000 RMK AO2 P0001=
201106301014 SPECI KPAE 301014Z AUTO 12006KT 3SM -RA BR FEW004 BKN012 OVC021 11/09 A3000 RMK AO2 P0001=
201106301002 SPECI KPAE 301002Z AUTO 10006KT 5SM -RA BR BKN012 OVC021 11/09 A3000 RMK AO2 P0000=
201106301002 SPECI KPAE 301002Z AUTO 10006KT 5SM -RA BR BKN012 OVC021 11/09 A3000 RMK AO2 P0000=
201106300953 METAR KPAE 300953Z AUTO 11006KT 4SM -RA BR SCT012 OVC021 11/09 A3000 RMK AO2 RAB22 SLP158 P0001 T01060089=
201106300853 METAR KPAE 300853Z AUTO 11006KT 7SM FEW016 OVC025 11/09 A2998 RMK AO2 SLP152 60003 T01060089 51007=
201106300759 SPECI KPAE 300759Z AUTO 08004KT 10SM SCT010 OVC027 11/09 A2997 RMK AO2=
201106300759 SPECI KPAE 300759Z AUTO 08004KT 10SM SCT010 OVC027 11/09 A2997 RMK AO2=
201106300753 METAR KPAE 300753Z AUTO 09005KT 7SM BKN008 OVC027 11/09 A2997 RMK AO2 RAE11 CIG 006V012 SLP149 P0000 T01060089 401780100=
201106300653 METAR KPAE 300653Z AUTO 00000KT 5SM -RA BR FEW012 OVC024 11/09 A2996=
201106300553 METAR KPAE 300553Z AUTO 03004KT 5SM -RA BR SCT003 OVC020 11/09 A2995 RMK AO2 SLP140 P0002 60004 T01060094 10128 20106 53017=
201106300546 SPECI KPAE 300546Z AUTO 00000KT 6SM -RA BR SCT003 OVC022 11/09 A2995 RMK AO2 P0002=
201106300546 SPECI KPAE 300546Z AUTO 00000KT 6SM -RA BR SCT003 OVC022 11/09 A2995 RMK AO2 P0002=
201106300453 METAR KPAE 300453Z AUTO 02006KT 4SM -RA BR OVC022 11/09 A2993 RMK AO2 RAB31 SLP134 P0002 T01110089=
201106300353 METAR KPAE 300353Z VRB04KT 10SM OVC022 12/08 A2991 RMK AO2 SLP129 T01220083=
201106300253 METAR KPAE 300253Z 02006KT 10SM BKN023 OVC030 12/08 A2990 RMK AO2 SLP123 60000 T01220083 53014=
201106300153 METAR KPAE 300153Z 01007KT 10SM BKN022 OVC034 12/09 A2987 RMK AO2 SLP115 T01220089=
201106300109 SPECI KPAE 300109Z 02007G18KT 10SM SCT006 BKN019 13/09 A2986 RMK AO2=
201106300109 SPECI KPAE 300109Z 02007G18KT 10SM SCT006 BKN019 13/09 A2986 RMK AO2=
201106300053 METAR KPAE 300053Z 01009G14KT 10SM BKN006 OVC017 12/09 A2985 RMK AO2 RAE07 CIG 003V008 SLP109 P0000 T01220094=
201106292353 METAR KPAE 292353Z VRB05KT 10SM -RA OVC002 11/10 A2985 RMK AO2 RAB53 SLP109 P0000 60000 T01110100 10172 20111 51014=
201106292253 METAR KPAE 292253Z 02009KT 10SM SCT001 BKN006 OVC017 12/11 A2984 RMK AO2 RAB32E49 SLP105 P0000 T01220106=
201106292217 SPECI KPAE 292217Z 36005KT 10SM SCT001 BKN006 OVC017 12/11 A2984 RMK AO2=
201106292217 SPECI KPAE 292217Z 36005KT 10SM SCT001 BKN006 OVC017 12/11 A2984 RMK AO2=
201106292153 METAR KPAE 292153Z VRB04KT 10SM SCT001 BKN011 OVC017 13/11 A2983 RMK AO2 SLP101 T01280106=
201106292121 SPECI KPAE 292121Z 24008KT 10SM SCT001 OVC019 15/11 A2982 RMK AO2=
201106292121 SPECI KPAE 292121Z 24008KT 10SM SCT001 OVC019 15/11 A2982 RMK AO2=
201106292053 METAR KPAE 292053Z 19015KT 10SM OVC023 17/11 A2981 RMK AO2 SLP094 T01670111 51015=
201106291953 METAR KPAE 291953Z 19015G23KT 10SM OVC023 17/11 A2980 RMK AO2 PK WND 21026/1920 SLP090 T01670106=
201106291928 SPECI KPAE 291928Z 19017G26KT 10SM BKN026 OVC075 17/11 A2979 RMK AO2 PK WND 21026/1920=
201106291928 SPECI KPAE 291928Z 19017G26KT 10SM BKN026 OVC075 17/11 A2979 RMK AO2 PK WND 21026/1920=
201106291900 SPECI KPAE 291900Z 19019G24KT 10SM FEW024 OVC070 17/11 A2978 RMK AO2=
201106291900 SPECI KPAE 291900Z 19019G24KT 10SM FEW024 OVC070 17/11 A2978 RMK AO2=
201106291853 METAR KPAE 291853Z 19018G24KT 10SM BKN027 BKN050 OVC065 17/11 A2978 RMK AO2 PK WND 18027/1813 SLP083 T01720106=
201106291753 METAR KPAE 291753Z 18016G24KT 10SM BKN027 BKN050 OVC065 17/10 A2977 RMK AO2 PK WND 18027/1722 SLP079 T01670100 10178 20139 53000=
201106291751 SPECI KPAE 291751Z 19019G25KT 10SM BKN027 OVC060 17/10 A2977 RMK AO2 PK WND 18027/1722=
201106291751 SPECI KPAE 291751Z 19019G25KT 10SM BKN027 OVC060 17/10 A2977 RMK AO2 PK WND 18027/1722=
201106291653 METAR KPAE 291653Z 17013G23KT 10SM FEW023 BKN060 OVC070 16/10 A2976 RMK AO2 SLP077 T01610100=
201106291553 METAR KPAE 291553Z 18013G21KT 10SM FEW021 BKN045 16/10 A2977 RMK AO2 SLP078 T01560100=
201106291453 METAR KPAE 291453Z 18010KT 10SM FEW050 14/10 A2976 RMK AO2 SLP076 T01440100 51006=
201106291353 METAR KPAE 291353Z 19014KT 10SM BKN050 14/10 A2976 RMK AO2 SLP076 T01390100 $=
201106291306 SPECI KPAE 291306Z AUTO 19016KT 10SM FEW025 OVC037 14/11 A2975 RMK AO2 $=
201106291306 SPECI KPAE 291306Z AUTO 19016KT 10SM FEW025 OVC037 14/11 A2975 RMK AO2 $=
201106291253 METAR KPAE 291253Z AUTO 20012KT 10SM FEW015 BKN026 OVC041 14/11 A2975 RMK AO2 SLP072 T01390106 $=
201106291153 METAR KPAE 291153Z AUTO 18013KT 10SM OVC015 14/11 A2974 RMK AO2 SLP069 T01440106 10167 20144 56003 $=
201106291148 SPECI KPAE 291148Z AUTO 19012G19KT 10SM BKN015 OVC019 14/11 A2974 RMK AO2 $=
201106291148 SPECI KPAE 291148Z AUTO 19012G19KT 10SM BKN015 OVC019 14/11 A2974 RMK AO2 $=
201106291053 METAR KPAE 291053Z AUTO 18010KT 10SM OVC011 14/11 A2974 RMK AO2 SLP071 T01440111 $=
201106290953 METAR KPAE 290953Z AUTO 18010KT 10SM OVC011 15/12 A2975 RMK AO2 SLP073 T01500122 $=
201106290853 METAR KPAE 290853Z AUTO 19010KT 10SM OVC011 16/12 A2975 RMK AO2 SLP073 T01560122 58001 $=
201106290753 METAR KPAE 290753Z AUTO 18010KT 10SM OVC013 16/12 A2976 RMK AO2 SLP076 T01560122 402060150 $=
201106290735 SPECI KPAE 290735Z AUTO 18009KT 10SM OVC013 16/12 A2976 RMK AO2 $=
201106290735 SPECI KPAE 290735Z AUTO 18009KT 10SM OVC013 16/12 A2976 RMK AO2 $=
201106290653 METAR KPAE 290653Z AUTO 20009KT 10SM OVC015 16/12 A2977 RMK AO2 SLP078 T01610122 $=
201106290644 SPECI KPAE 290644Z AUTO 20008KT 10SM BKN017 OVC047 16/12 A2976 RMK AO2 $=
201106290644 SPECI KPAE 290644Z AUTO 20008KT 10SM BKN017 OVC047 16/12 A2976 RMK AO2 $=
201106290553 METAR KPAE 290553Z AUTO 22006KT 10SM SCT020 BKN049 17/13 A2976 RMK AO2 SLP075 T01670128 10178 20161 58003 $=
201106290453 METAR KPAE 290453Z AUTO 00000KT 10SM OVC020 16/13 A2976 RMK AO2 SLP077 T01610128 $=
201106290400 SPECI KPAE 290400Z AUTO 00000KT 10SM OVC016 17/13 A2976 RMK AO2 $=
201106290400 SPECI KPAE 290400Z AUTO 00000KT 10SM OVC016 17/13 A2976 RMK AO2 $=
201106290353 METAR KPAE 290353Z 01003KT 10SM SCT018 BKN065 17/13 A2976 RMK AO2 SLP076 T01670133 $=
201106290253 METAR KPAE 290253Z 00000KT 10SM SCT018 BKN065 OVC080 17/13 A2977 RMK AO2 SLP078 T01720128 51006=
201106290212 SPECI KPAE 290212Z 00000KT 10SM SCT018 BKN065 OVC080 17/12 A2976 RMK AO2=
201106290212 SPECI KPAE 290212Z 00000KT 10SM SCT018 BKN065 OVC080 17/12 A2976 RMK AO2=
201106290205 SPECI KPAE 290205Z 00000KT 10SM BKN018 BKN065 OVC080 17/12 A2976 RMK AO2=
201106290205 SPECI KPAE 290205Z 00000KT 10SM BKN018 BKN065 OVC080 17/12 A2976 RMK AO2=
201106290153 METAR KPAE 290153Z 00000KT 10SM SCT018 BKN060 OVC080 17/12 A2976 RMK AO2 SLP076 T01720122=
201106290053 METAR KPAE 290053Z 29003KT 10SM BKN050 OVC080 17/13 A2976 RMK AO2 SLP075 T01720128=
201106282353 METAR KPAE 282353Z 33003KT 10SM OVC080 17/12 A2975 RMK AO2 SLP071 T01720122 10206 20161 51010=
201106282253 METAR KPAE 282253Z 36003KT 10SM BKN033 OVC090 18/13 A2974 RMK AO2 SLP069 T01830128=
201106282153 METAR KPAE 282153Z 35005KT 10SM SCT100 19/13 A2973 RMK AO2 SLP064 T01940133=
201106282053 METAR KPAE 282053Z 26003KT 10SM SCT100 19/13 A2972 RMK AO2 SLP060 T01940133 53004=
201106281953 METAR KPAE 281953Z 00000KT 10SM CLR 19/13 A2971 RMK AO2 SLP057 T01940133=
201106281853 METAR KPAE 281853Z 00000KT 10SM BKN100 18/13 A2970 RMK AO2 SLP057 T01780128=
201106281753 METAR KPAE 281753Z 00000KT 10SM OVC100 17/12 A2970 RMK AO2 SLP056 T01670122 10178 20150 57002=
201106281653 METAR KPAE 281653Z VRB03KT 10SM OVC100 16/12 A2970 RMK AO2 SLP057 T01560122=
201106281553 METAR KPAE 281553Z 00000KT 10SM SCT100 BKN110 17/12 A2971 RMK AO2 SLP057 T01720122=
201106281453 METAR KPAE 281453Z 30004KT 10SM CLR 17/12 A2971 RMK AO2 SLP057 T01670122 55000=
201106281353 METAR KPAE 281353Z 00000KT 10SM BKN110 16/11 A2970 RMK AO2 SLP055 T01610111=
201106281253 METAR KPAE 281253Z AUTO 00000KT 10SM BKN110 16/12 A2970 RMK AO2 SLP054 T01610117=
201106281153 METAR KPAE 281153Z AUTO 10003KT 10SM BKN120 16/12 A2971 RMK AO2 SLP057 70001 T01610117 10172 20150 58008=
201106281053 METAR KPAE 281053Z AUTO 18004KT 10SM CLR 16/12 A2972 RMK AO2 SLP061 T01560117=
201106280953 METAR KPAE 280953Z AUTO 00000KT 10SM BKN110 16/12 A2973 RMK AO2 SLP065 T01560117=
201106280853 METAR KPAE 280853Z AUTO 11006KT 10SM SCT110 16/12 A2973 RMK AO2 SLP066 T01610117 58011=
201106280753 METAR KPAE 280753Z AUTO 11004KT 10SM FEW095 16/12 A2976 RMK AO2 SLP073 T01610117 402170144=
201106280653 METAR KPAE 280653Z AUTO 11004KT 10SM BKN100 16/11 A2976 RMK AO2 SLP076 T01610111=
201106280553 METAR KPAE 280553Z AUTO 00000KT 10SM CLR 16/11 A2976 RMK AO2 SLP078 60001 T01560111 10206 20150 53008=
201106280453 METAR KPAE 280453Z AUTO 21005KT 10SM CLR 17/11 A2976 RMK AO2 SLP075 T01670111=
201106280353 METAR KPAE 280353Z AUTO 00000KT 10SM FEW095 17/11 A2974 RMK AO2 RAB16E24 SLP068 P0000 T01720111=
201106280253 METAR KPAE 280253Z 32003KT 10SM BKN110 19/11 A2974 RMK AO2 SLP068 60001 T01940106 55008=
201106280153 METAR KPAE 280153Z 29003KT 10SM SCT065 BKN100 BKN120 19/11 A2974 RMK AO2 RAB39E52 SLP068 P0000 T01940111=
201106280053 METAR KPAE 280053Z 00000KT 10SM FEW110 20/09 A2976 RMK AO2 RAE05 SLP073 P0001 T02000094=
201106272353 METAR KPAE 272353Z 00000KT 10SM -RA SCT095 20/11 A2976 RMK AO2 RAB30 SLP077 P0000 60000 T02000106 10217 20178 58004=
201106272253 METAR KPAE 272253Z 26004KT 10SM BKN100 21/09 A2978 RMK AO2 SLP082 T02060094=
201106272153 METAR KPAE 272153Z 25005KT 10SM FEW100 21/09 A2979 RMK AO2 SLP085 T02060094=
201106272053 METAR KPAE 272053Z VRB04KT 10SM FEW060 SCT075 20/09 A2978 RMK AO2 RAB39E49 SLP080 P0000 60000 T02000089 58003=
201106271953 METAR KPAE 271953Z 25005KT 10SM SCT100 19/11 A2979 RMK AO2 SLP086 T01890106=
201106271853 METAR KPAE 271853Z 27003KT 10SM CLR 19/12 A2979 RMK AO2 RAE05 SLP085 P0000 T01940122=
201106271753 METAR KPAE 271753Z COR 28003KT 10SM -RA SCT049 BKN100 18/12 A2979 RMK AO2 RAB49 SLP085 P0000 60000 T01780122 10189 20150 58011=
201106271653 METAR KPAE 271653Z 00000KT 10SM FEW090 18/12 A2980 RMK AO2 SLP089 T01780122=
201106271553 METAR KPAE 271553Z 00000KT 10SM FEW100 18/10 A2981 RMK AO2 SLP091 T01780100=
201106271453 METAR KPAE 271453Z 00000KT 10SM BKN100 17/11 A2982 RMK AO2 SLP095 T01720106 58013=
201106271353 METAR KPAE 271353Z 00000KT 10SM SCT095 16/10 A2984 RMK AO2 SLP101 T01560100=
201106271253 METAR KPAE 271253Z AUTO 19003KT 10SM OVC100 16/10 A2985 RMK AO2 SLP106 T01560100=
201106271153 METAR KPAE 271153Z AUTO 00000KT 10SM OVC110 14/09 A2986 RMK AO2 SLP109 T01440094 10167 20144 57015=
201106271053 METAR KPAE 271053Z AUTO 00000KT 10SM OVC110 15/09 A2987 RMK AO2 SLP113 T01500089=
201106270953 METAR KPAE 270953Z AUTO 00000KT 10SM BKN110 15/09 A2989 RMK AO2 SLP119 T01500089=
201106270853 METAR KPAE 270853Z AUTO 00000KT 10SM OVC110 15/09 A2990 RMK AO2 SLP124 T01500089 56015=
201106270753 METAR KPAE 270753Z AUTO 00000KT 10SM OVC110 15/09 A2992 RMK AO2 SLP129 T01500089 402000089=
201106270653 METAR KPAE 270653Z AUTO 01003KT 10SM OVC120 17/08 A2993 RMK AO2 SLP133 T01670078=
201106270553 METAR KPAE 270553Z AUTO 00000KT 10SM CLR 16/08 A2995 RMK AO2 SLP139 T01610083 10200 20161 56009=
201106270453 METAR KPAE 270453Z 00000KT 10SM CLR 17/07 A2996 RMK AO2 SLP143 T01670072=
201106270353 METAR KPAE 270353Z 00000KT 10SM CLR 17/08 A2996=
201106270253 METAR KPAE 270253Z 00000KT 10SM CLR 18/07 A2998 RMK AO2 SLP149 T01830067 58009=
201106270153 METAR KPAE 270153Z 01003KT 10SM CLR 19/08 A2999 RMK AO2 SLP153 T01940078=
201106270053 METAR KPAE 270053Z 00000KT 10SM CLR 19/08 A2999 RMK AO2 SLP156 T01890078=
201106262353 METAR KPAE 262353Z 30004KT 10SM CLR 19/10 A3000 RMK AO2 SLP159 T01890100 10200 20156 56011=
201106262253 METAR KPAE 262253Z 27005KT 10SM CLR 20/10 A3001 RMK AO2 SLP161 T02000100=
201106262153 METAR KPAE 262153Z 29006KT 10SM CLR 19/09 A3002 RMK AO2 SLP167 T01890094=
201106262053 METAR KPAE 262053Z 28005KT 10SM CLR 18/09 A3003 RMK AO2 SLP170 T01830089 58007=
201106261953 METAR KPAE 261953Z 30004KT 10SM CLR 17/09 A3005 RMK AO2 SLP175 T01720089=
201106261853 METAR KPAE 261853Z VRB03KT 10SM CLR 17/08 A3006 RMK AO2 SLP178 T01720083=
201106261753 METAR KPAE 261753Z VRB04KT 10SM CLR 16/07 A3006 RMK AO2 SLP177 T01610072 10161 20089 50001=
201106261653 METAR KPAE 261653Z 00000KT 10SM CLR 14/08 A3006 RMK AO2 SLP179 T01440083=
201106261553 METAR KPAE 261553Z 00000KT 10SM CLR 13/08 A3006 RMK AO2 SLP178 T01330083=
201106261453 METAR KPAE 261453Z 00000KT 10SM CLR 12/08 A3005 RMK AO2 SLP176 T01170083 53003=
201106261353 METAR KPAE 261353Z 01003KT 10SM FEW004 11/08 A3004 RMK AO2 SLP174 T01060083=
201106261302 SPECI KPAE 261302Z AUTO 01003KT 10SM BKN004 10/08 A3004 RMK AO2 CIG 003V007=
201106261302 SPECI KPAE 261302Z AUTO 01003KT 10SM BKN004 10/08 A3004 RMK AO2 CIG 003V007=
201106261253 METAR KPAE 261253Z AUTO 00000KT 9SM SCT004 09/08 A3004 RMK AO2 SLP173 T00940078=
201106261222 SPECI KPAE 261222Z AUTO 00000KT 10SM FEW003 09/08 A3004 RMK AO2=
201106261222 SPECI KPAE 261222Z AUTO 00000KT 10SM FEW003 09/08 A3004 RMK AO2=
201106261153 METAR KPAE 261153Z AUTO 03004KT 10SM CLR 09/08 A3004 RMK AO2 SLP172 T00940078 10117 20094 50001=
201106261053 METAR KPAE 261053Z AUTO 00000KT 10SM CLR 10/08 A3004 RMK AO2 SLP174 T01000078=
201106261000 METAR KPAE NIL=
201106260900 METAR KPAE NIL=
201106260800 METAR KPAE NIL=
201106260653 METAR KPAE 260653Z AUTO VRB03KT 10SM CLR 11/07 A3005 RMK AO2 SLP176 T01110072=
201106260553 METAR KPAE 260553Z AUTO 01004KT 10SM CLR 12/07 A3005 RMK AO2 SLP177 T01170072 10178 20117 53002=
201106260453 METAR KPAE 260453Z AUTO 36005KT 10SM CLR 12/08 A3005 RMK AO2 SLP176 T01220078=
201106260353 METAR KPAE 260353Z 36005KT 10SM CLR 13/08 A3004 RMK AO2 SLP172 T01330083=
201106260253 METAR KPAE 260253Z 34006KT 10SM CLR 16/07 A3004 RMK AO2 SLP173 T01560067 55004=
201106260153 METAR KPAE 260153Z 35007KT 10SM CLR 16/06 A3004 RMK AO2 SLP173 T01610061=
201106260053 METAR KPAE 260053Z 36005KT 10SM CLR 17/07 A3005 RMK AO2 SLP174 T01670072=
201106252353 METAR KPAE 252353Z VRB06KT 10SM BKN060 17/08 A3006 RMK AO2 SLP178 T01670078 10167 20128 58006=
201106252253 METAR KPAE 252253Z VRB04KT 10SM OVC055 16/06 A3007 RMK AO2 SLP181 T01560056=
201106252153 METAR KPAE 252153Z 33005KT 10SM SCT029 OVC050 16/07 A3007 RMK AO2 SLP182 T01560067=
201106252112 SPECI KPAE 252112Z 00000KT 10SM SCT026 BKN031 OVC050 15/07 A3007 RMK AO2=
201106252112 SPECI KPAE 252112Z 00000KT 10SM SCT026 BKN031 OVC050 15/07 A3007 RMK AO2=
201106252053 METAR KPAE 252053Z 00000KT 10SM BKN024 16/08 A3008 RMK AO2 SLP184 T01560083 50000=
201106251953 METAR KPAE 251953Z VRB03KT 10SM BKN018 OVC046 14/09 A3008 RMK AO2 SLP187 T01440089=
201106251933 SPECI KPAE 251933Z 02003KT 10SM SCT018 BKN030 OVC046 14/09 A3008 RMK AO2=
201106251933 SPECI KPAE 251933Z 02003KT 10SM SCT018 BKN030 OVC046 14/09 A3008 RMK AO2=
201106251921 SPECI KPAE 251921Z 00000KT 10SM BKN018 OVC030 13/09 A3009 RMK AO2=
201106251921 SPECI KPAE 251921Z 00000KT 10SM BKN018 OVC030 13/09 A3009 RMK AO2=
201106251853 METAR KPAE 251853Z 00000KT 10SM FEW016 SCT025 OVC033 13/08 A3008 RMK AO2 SLP187 T01280083=
201106251850 SPECI KPAE 251850Z 01003KT 10SM FEW016 BKN030 OVC035 13/08 A3008 RMK AO2=
201106251850 SPECI KPAE 251850Z 01003KT 10SM FEW016 BKN030 OVC035 13/08 A3008 RMK AO2=
201106251753 METAR KPAE 251753Z VRB03KT 10SM BKN010 BKN014 12/08 A3007 RMK AO2 SLP185 60000 T01220078 10128 20106 51002=
201106251653 METAR KPAE 251653Z 06005KT 10SM SCT009 BKN014 OVC046 12/08 A3007=
201106251557 SPECI KPAE 251557Z VRB03KT 10SM FEW009 BKN014 OVC046 11/08 A3007 RMK AO2=
201106251557 SPECI KPAE 251557Z VRB03KT 10SM FEW009 BKN014 OVC046 11/08 A3007 RMK AO2=
201106251553 METAR KPAE 251553Z VRB03KT 10SM SCT018 BKN037 OVC065 11/08 A3007 RMK AO2 SLP184 T01110083=
201106251453 METAR KPAE 251453Z 06004KT 10SM SCT018 BKN037 OVC060 11/08 A3007 RMK AO2 RAB22E40 SLP182 P0000 60000 T01060083 53005=
201106251430 SPECI KPAE 251430Z 06005KT 9SM -RA SCT018 BKN033 OVC060 11/08 A3006 RMK AO2 RAB22 P0000=
201106251430 SPECI KPAE 251430Z 06005KT 9SM -RA SCT018 BKN033 OVC060 11/08 A3006 RMK AO2 RAB22 P0000=
201106251353 METAR KPAE 251353Z 07003KT 10SM BKN018 OVC024 11/08 A3006 RMK AO2 RAB35E53 SLP180 P0000 T01110078=
201106251302 SPECI KPAE 251302Z AUTO 09003KT 10SM BKN023 BKN034 OVC043 11/08 A3006 RMK AO2=
201106251302 SPECI KPAE 251302Z AUTO 09003KT 10SM BKN023 BKN034 OVC043 11/08 A3006 RMK AO2=
201106251253 METAR KPAE 251253Z AUTO 07003KT 10SM SCT025 BKN037 OVC060 11/08 A3006 RMK AO2 SLP178 T01060078=
201106251225 SPECI KPAE 251225Z AUTO 08005KT 10SM FEW023 OVC037 11/08 A3005 RMK AO2=
201106251225 SPECI KPAE 251225Z AUTO 08005KT 10SM FEW023 OVC037 11/08 A3005 RMK AO2=
201106251207 SPECI KPAE 251207Z AUTO 07004KT 10SM BKN023 OVC037 11/08 A3005 RMK AO2=
201106251207 SPECI KPAE 251207Z AUTO 07004KT 10SM BKN023 OVC037 11/08 A3005 RMK AO2=
201106251153 METAR KPAE 251153Z AUTO 08004KT 10SM FEW018 SCT025 OVC037 11/08 A3005 RMK AO2 RAE19 SLP177 P0002 60005 70008 T01060083 10122 20100 58004=
201106251149 SPECI KPAE 251149Z AUTO 08005KT 10SM FEW018 SCT025 OVC037 11/08 A3005 RMK AO2 RAE19 P0002=
201106251149 SPECI KPAE 251149Z AUTO 08005KT 10SM FEW018 SCT025 OVC037 11/08 A3005 RMK AO2 RAE19 P0002=
201106251053 METAR KPAE 251053Z AUTO VRB04KT 4SM -RA BR OVC018 10/08 A3006 RMK AO2 RAB0955E00B33 SLP180 P0003 T01000083=
201106251020 SPECI KPAE 251020Z AUTO 02004KT 10SM BKN018 BKN023 OVC060 11/08 A3006 RMK AO2 RAB0955E00 P0000=
201106251020 SPECI KPAE 251020Z AUTO 02004KT 10SM BKN018 BKN023 OVC060 11/08 A3006 RMK AO2 RAB0955E00 P0000=
201106251000 SPECI KPAE 251000Z AUTO 02005KT 10SM SCT018 BKN032 OVC060 11/08 A3006 RMK AO2 RAB0955E00 P0000=
201106251000 SPECI KPAE 251000Z AUTO 02005KT 10SM SCT018 BKN032 OVC060 11/08 A3006 RMK AO2 RAB0955E00 P0000=
201106250953 METAR KPAE 250953Z AUTO 03005KT 10SM BKN018 BKN030 OVC055 11/08 A3006 RMK AO2 SLP180 T01110078=
201106250853 METAR KPAE 250853Z AUTO 00000KT 10SM BKN022 OVC030 11/08 A3006 RMK AO2 SLP180 T01110078 58006=
201106250753 METAR KPAE 250753Z AUTO 06003KT 10SM BKN022 BKN029 OVC060 11/08 A3007 RMK AO2 SLP183 T01110078 401720100=
201106250743 SPECI KPAE 250743Z AUTO 00000KT 10SM BKN027 BKN060 11/08 A3008 RMK AO2=
201106250743 SPECI KPAE 250743Z AUTO 00000KT 10SM BKN027 BKN060 11/08 A3008 RMK AO2=
201106250653 METAR KPAE 250653Z AUTO 00000KT 10SM CLR 11/07 A3008 RMK AO2 SLP187 T01060072=
201106250615 SPECI KPAE 250615Z AUTO 04003KT 10SM SCT025 12/07 A3008 RMK AO2=
201106250615 SPECI KPAE 250615Z AUTO 04003KT 10SM SCT025 12/07 A3008 RMK AO2=
201106250553 METAR KPAE 250553Z AUTO 04004KT 10SM OVC025 12/07 A3008 RMK AO2 SLP186 60001 T01220067 10161 20117 56000=
201106250518 SPECI KPAE 250518Z AUTO 00000KT 10SM BKN023 BKN070 12/08 A3008 RMK AO2=
201106250518 SPECI KPAE 250518Z AUTO 00000KT 10SM BKN023 BKN070 12/08 A3008 RMK AO2=
201106250453 METAR KPAE 250453Z AUTO 00000KT 10SM CLR 12/08 A3008 RMK AO2 SLP187 T01220078=
201106250353 METAR KPAE 250353Z AUTO 33004KT 10SM BKN055 OVC100 13/08 A3007 RMK AO2 RAB0254E23 SLP183 P0001 T01330083=
201106250253 METAR KPAE 250253Z 36004KT 10SM OVC070 14/09 A3008 RMK AO2 SLP186 T01390089 55002=
201106250153 METAR KPAE 250153Z 36004KT 10SM BKN075 OVC110 14/08 A3008 RMK AO2 SLP184 T01440083=
201106250053 METAR KPAE 250053Z 36003KT 10SM SCT055 OVC070 14/08 A3008 RMK AO2 SLP186 T01440078=
201106242353 METAR KPAE 242353Z 35004KT 10SM BKN070 BKN080 15/06 A3009 RMK AO2 SLP188 60000 T01500061 10172 20117 58003=
201106242253 METAR KPAE 242253Z 02007KT 10SM BKN060 17/09 A3009 RMK AO2 SLP188 T01670089=
201106242153 METAR KPAE 242153Z 36005KT 10SM FEW024 SCT044 BKN100 15/08 A3010 RMK AO2 SLP191 T01500083=
201106242100 SPECI KPAE 242100Z 29003KT 10SM BKN024 BKN029 OVC055 15/09 A3009 RMK AO2=
201106242100 SPECI KPAE 242100Z 29003KT 10SM BKN024 BKN029 OVC055 15/09 A3009 RMK AO2=
201106242053 METAR KPAE 242053Z 26004KT 10SM SCT020 BKN060 14/09 A3010 RMK AO2 SLP191 60000 T01440089 58007=
201106241953 METAR KPAE 241953Z 17004KT 10SM SCT020 BKN060 15/09 A3010 RMK AO2 SLP194 T01500089=
201106241853 METAR KPAE 241853Z 16005KT 10SM SCT009 OVC060 13/09 A3011 RMK AO2 RAE32 SLP198 P0000 T01280094=
201106241753 METAR KPAE 241753Z 16004KT 9SM -RA BKN006 BKN050 OVC060 12/09 A3012 RMK AO2 RAE09B28 SLP199 P0001 60002 T01170094 10122 20106 53002=
201106241653 METAR KPAE 241653Z VRB05KT 8SM -RA BKN008 BKN013 OVC042 12/09 A3011 RMK AO2 RAB51 SLP198 P0000 T01170089=
201106241553 METAR KPAE 241553Z 16006KT 10SM BKN008 OVC015 12/09 A3011 RMK AO2 RAB18E44 SLP198 P0000 T01170089=
201106241453 METAR KPAE 241453Z VRB04KT 10SM BKN008 BKN015 OVC050 11/09 A3011=
201106241403 SPECI KPAE 241403Z 15006KT 10SM BKN008 BKN015 OVC047 11/09 A3010 RMK AO2=
201106241403 SPECI KPAE 241403Z 15006KT 10SM BKN008 BKN015 OVC047 11/09 A3010 RMK AO2=
201106241353 METAR KPAE 241353Z 15004KT 10SM SCT008 BKN015 OVC047 11/09 A3010 RMK AO2 RAE03 SLP194 P0000 T01060089 $=
201106241325 SPECI KPAE 241325Z AUTO 16005KT 10SM SCT006 OVC013 11/09 A3010 RMK AO2 RAE03 P0000 $=
201106241325 SPECI KPAE 241325Z AUTO 16005KT 10SM SCT006 OVC013 11/09 A3010 RMK AO2 RAE03 P0000 $=
201106241253 METAR KPAE 241253Z AUTO 00000KT 10SM -RA BKN009 OVC013 11/09 A3010 RMK AO2 RAB52 CIG 006V011 SLP192 P0000 T01110089 $=
201106241246 SPECI KPAE 241246Z AUTO 00000KT 10SM BKN009 OVC013 11/09 A3010 RMK AO2 CIG 006V011 $=
201106241246 SPECI KPAE 241246Z AUTO 00000KT 10SM BKN009 OVC013 11/09 A3010 RMK AO2 CIG 006V011 $=
201106241220 SPECI KPAE 241220Z AUTO 00000KT 10SM SCT009 OVC013 11/09 A3010 RMK AO2 $=
201106241220 SPECI KPAE 241220Z AUTO 00000KT 10SM SCT009 OVC013 11/09 A3010 RMK AO2 $=
201106241201 SPECI KPAE 241201Z AUTO 03003KT 10SM BKN013 BKN024 OVC041 11/08 A3009 RMK AO2 $=
201106241201 SPECI KPAE 241201Z AUTO 03003KT 10SM BKN013 BKN024 OVC041 11/08 A3009 RMK AO2 $=
201106241153 METAR KPAE 241153Z AUTO 03003KT 10SM SCT013 BKN023 OVC039 11/08 A3009 RMK AO2 RAB03E48 SLP191 P0000 60010 70015 T01110083 10111 20106 55000 $=
201106241053 METAR KPAE 241053Z AUTO 00000KT 10SM FEW015 SCT043 OVC050 11/09 A3009=
201106240953 METAR KPAE 240953Z AUTO 00000KT 10SM -RA FEW014 BKN050 OVC065 11/08 A3010 RMK AO2 SLP191 P0001 T01110083 $=
201106240950 SPECI KPAE 240950Z AUTO 00000KT 10SM -RA SCT014 BKN050 OVC065 11/08 A3010 RMK AO2 P0001 $=
201106240950 SPECI KPAE 240950Z AUTO 00000KT 10SM -RA SCT014 BKN050 OVC065 11/08 A3010 RMK AO2 P0001 $=
201106240925 SPECI KPAE 240925Z AUTO 00000KT 10SM -RA BKN014 BKN018 OVC037 11/09 A3010 RMK AO2 P0000 $=
201106240925 SPECI KPAE 240925Z AUTO 00000KT 10SM -RA BKN014 BKN018 OVC037 11/09 A3010 RMK AO2 P0000 $=
201106240853 METAR KPAE 240853Z AUTO 00000KT 10SM -RA BKN046 OVC055 11/09 A3010 RMK AO2 SLP192 P0003 60008 T01110089 58001 $=
201106240753 METAR KPAE 240753Z AUTO 01003KT 7SM -RA FEW009 BKN039 OVC050 11/09 A3010 RMK AO2 RAE05B34 SLP193 P0002 T01110094 401720100 $=
201106240721 SPECI KPAE 240721Z AUTO 02004KT 10SM FEW009 OVC037 11/09 A3011 RMK AO2 RAE05 P0001 $=
201106240721 SPECI KPAE 240721Z AUTO 02004KT 10SM FEW009 OVC037 11/09 A3011 RMK AO2 RAE05 P0001 $=
201106240653 METAR KPAE 240653Z AUTO 03004KT 9SM -RA FEW036 OVC050 11/09 A3010 RMK AO2 SLP195 P0003 T01110094 $=
201106240553 METAR KPAE 240553Z AUTO 36005KT 10SM -RA SCT038 BKN050 OVC060 11/09 A3010 RMK AO2 RAB11 SLP195 P0004 60004 T01110089 10172 20111 53006 $=
201106240453 METAR KPAE 240453Z AUTO VRB05KT 10SM OVC043 12/08 A3010 RMK AO2 SLP193 T01220078 $=
201106240353 METAR KPAE 240353Z VRB05KT 10SM FEW045 SCT060 OVC090 13/08 A3009 RMK AO2 RAB10E21 SLP190 P0000 T01280083 $=
201106240253 METAR KPAE 240253Z 35005KT 10SM OVC037 14/08 A3009 RMK AO2 SLP188 T01440078 55005 $=
201106240153 METAR KPAE 240153Z 34005KT 10SM OVC095 16/07 A3008 RMK AO2 SLP186 T01560067 $=
201106240053 METAR KPAE 240053Z VRB06KT 10SM BKN039 17/07 A3009 RMK AO2 SLP189 T01720067 $=
201106232353 METAR KPAE 232353Z 03005KT 10SM FEW042 OVC080 17/07 A3010 RMK AO2 SLP193 T01670067 10172 20122 58001 $=
201106232253 METAR KPAE 232253Z VRB05KT 10SM BKN075 17/07 A3011=
201106232153 METAR KPAE 232153Z VRB03KT 10SM BKN038 OVC049 16/07 A3011 RMK AO2 SLP195 T01560067 $=
201106232053 METAR KPAE 232053Z VRB06KT 10SM FEW019 SCT030 BKN070 15/08 A3010 RMK AO2 SLP194 T01500078 51006 $=
201106231953 METAR KPAE 231953Z 00000KT 10SM SCT020 OVC060 14/08 A3010 RMK AO2 SLP192 T01390083 $=
201106231853 METAR KPAE 231853Z 29003KT 10SM SCT022 BKN030 OVC047 13/08 A3009 RMK AO2 SLP192 T01330083 $=
201106231800 SPECI KPAE 231800Z 25003KT 10SM SCT022 BKN030 OVC047 12/07 A3009 RMK AO2 $=
201106231800 SPECI KPAE 231800Z 25003KT 10SM SCT022 BKN030 OVC047 12/07 A3009 RMK AO2 $=
201106231753 METAR KPAE 231753Z 16005KT 10SM BKN022 BKN030 OVC047 13/07 A3009 RMK AO2 SLP189 60001 T01280072 10133 20100 51007 $=
201106231653 METAR KPAE 231653Z 17005KT 10SM FEW005 BKN040 BKN060 12/08 A3008 RMK AO2 RAB22E43 SLP187 P0001 T01220083 $=
201106231553 METAR KPAE 231553Z 11003KT 10SM FEW005 BKN040 BKN060 11/08 A3007 RMK AO2 SLP184 T01110078 $=
201106231502 SPECI KPAE 231502Z 12004KT 10SM FEW005 SCT029 OVC036 11/08 A3006 RMK AO2 $=
201106231502 SPECI KPAE 231502Z 12004KT 10SM FEW005 SCT029 OVC036 11/08 A3006 RMK AO2 $=
201106231453 METAR KPAE 231453Z 13004KT 10SM BKN027 OVC036 11/08 A3006 RMK AO2 SLP181 T01060078 51007 $=
201106231353 METAR KPAE 231353Z 11003KT 7SM FEW011 OVC027 10/08 A3006 RMK AO2 SLP179 T01000078 $=
201106231342 SPECI KPAE 231342Z AUTO 11004KT 8SM SCT013 OVC027 10/07 A3006 RMK AO2 $=
201106231342 SPECI KPAE 231342Z AUTO 11004KT 8SM SCT013 OVC027 10/07 A3006 RMK AO2 $=
201106231318 SPECI KPAE 231318Z AUTO 11004KT 10SM BKN010 OVC025 10/07 A3005 RMK AO2 $=
201106231318 SPECI KPAE 231318Z AUTO 11004KT 10SM BKN010 OVC025 10/07 A3005 RMK AO2 $=
201106231310 SPECI KPAE 231310Z AUTO 11006KT 10SM BKN008 BKN013 OVC025 10/07 A3006 RMK AO2 CIG 007V011 $=
201106231310 SPECI KPAE 231310Z AUTO 11006KT 10SM BKN008 BKN013 OVC025 10/07 A3006 RMK AO2 CIG 007V011 $=
201106231253 METAR KPAE 231253Z AUTO 09004KT 10SM FEW008 OVC025 10/07 A3005 RMK AO2 SLP177 T01000072 $=
201106231201 SPECI KPAE 231201Z AUTO 05006KT 10SM FEW007 OVC025 10/07 A3004 RMK AO2 $=
201106231201 SPECI KPAE 231201Z AUTO 05006KT 10SM FEW007 OVC025 10/07 A3004 RMK AO2 $=
201106231153 METAR KPAE 231153Z AUTO 04004KT 10SM OVC025 10/07 A3004 RMK AO2 SLP174 T01000072 10111 20100 53004 $=
201106231130 SPECI KPAE 231130Z AUTO 03007KT 10SM BKN025 OVC032 10/07 A3003 RMK AO2 $=
201106231130 SPECI KPAE 231130Z AUTO 03007KT 10SM BKN025 OVC032 10/07 A3003 RMK AO2 $=
201106231053 METAR KPAE 231053Z AUTO 04003KT 10SM SCT029 OVC036 11/07 A3003 RMK AO2 SLP171 T01110067 $=
201106231044 SPECI KPAE 231044Z AUTO 06005KT 10SM FEW026 OVC034 11/06 A3003 RMK AO2 $=
201106231044 SPECI KPAE 231044Z AUTO 06005KT 10SM FEW026 OVC034 11/06 A3003 RMK AO2 $=
201106230953 METAR KPAE 230953Z AUTO 07004KT 10SM OVC021 11/07 A3004 RMK AO2 SLP172 T01110067 $=
201106230853 METAR KPAE 230853Z AUTO 07005KT 10SM OVC021 11/07 A3003 RMK AO2 SLP168 T01110067 51012 $=
201106230753 METAR KPAE 230753Z AUTO 05003KT 10SM OVC021 11/07 A3003 RMK AO2 SLP167 T01110072 401500111 $=
201106230653 METAR KPAE 230653Z AUTO 03006KT 10SM OVC025 11/07 A3001 RMK AO2 SLP163 T01110072 $=
201106230601 SPECI KPAE 230601Z AUTO 34004KT 10SM BKN029 OVC037 11/07 A3000 RMK AO2 $=
201106230601 SPECI KPAE 230601Z AUTO 34004KT 10SM BKN029 OVC037 11/07 A3000 RMK AO2 $=
201106230553 METAR KPAE 230553Z AUTO 36004KT 10SM SCT026 OVC033 11/07 A2999 RMK AO2 SLP157 T01110072 10133 20111 53014 $=
201106230507 SPECI KPAE 230507Z AUTO 35004KT 10SM BKN026 OVC037 11/07 A2998 RMK AO2 $=
201106230507 SPECI KPAE 230507Z AUTO 35004KT 10SM BKN026 OVC037 11/07 A2998 RMK AO2 $=
201106230453 METAR KPAE 230453Z AUTO 01004KT 10SM SCT024 BKN039 11/07 A2998 RMK AO2 SLP152 T01110072 $=
201106230353 METAR KPAE 230353Z AUTO VRB04KT 10SM BKN039 12/08 A2996 RMK AO2 SLP145 T01170078 $=
201106230253 METAR KPAE 230253Z 36007KT 10SM SCT030 BKN043 12/08 A2995 RMK AO2 SLP143 T01220078 55001 $=
201106230153 METAR KPAE 230153Z 36007G18KT 10SM SCT028 13/08 A2994 RMK AO2 SLP141 T01280083 $=
201106230139 SPECI KPAE 230139Z 36007G15KT 320V040 10SM BKN026 OVC041 13/08 A2995 RMK AO2 $=
201106230139 SPECI KPAE 230139Z 36007G15KT 320V040 10SM BKN026 OVC041 13/08 A2995 RMK AO2 $=
201106230105 SPECI KPAE 230105Z 01005KT 10SM SCT028 OVC040 13/09 A2995 RMK AO2 $=
201106230105 SPECI KPAE 230105Z 01005KT 10SM SCT028 OVC040 13/09 A2995 RMK AO2 $=
201106230053 METAR KPAE 230053Z 01007KT 330V030 10SM BKN026 OVC035 13/09 A2995 RMK AO2 SLP142 T01280089 $=
201106222353 METAR KPAE 222353Z 36006KT 10SM OVC022 13/09 A2995 RMK AO2 SLP144 T01280094 10150 20128 58001 $=
201106222253 METAR KPAE 222253Z 01007KT 10SM OVC018 13/09 A2996 RMK AO2 SLP146 T01280094 $=
201106222153 METAR KPAE 222153Z 35006KT 10SM OVC018 13/10 A2996 RMK AO2 SLP145 T01330100 $=
201106222140 SPECI KPAE 222140Z VRB04KT 10SM OVC016 14/10 A2996 RMK AO2 $=
201106222140 SPECI KPAE 222140Z VRB04KT 10SM OVC016 14/10 A2996 RMK AO2 $=
201106222053 METAR KPAE 222053Z 36005KT 10SM OVC014 15/11 A2996 RMK AO2 SLP144 T01500106 58001 $=
201106221953 METAR KPAE 221953Z VRB03KT 10SM OVC010 15/11 A2996 RMK AO2 CIG 008V014 SLP145 T01500111 $=
201106221853 METAR KPAE 221853Z VRB03KT 10SM OVC012 14/11 A2996 RMK AO2 SLP146 T01440111 $=
201106221753 METAR KPAE 221753Z VRB03KT 10SM OVC010 14/11 A2996 RMK AO2 SLP145 T01440111 10150 20111 58002 $=
201106221740 SPECI KPAE 221740Z 00000KT 10SM OVC010 14/11 A2996 RMK AO2 $=
201106221740 SPECI KPAE 221740Z 00000KT 10SM OVC010 14/11 A2996 RMK AO2 $=
201106221653 METAR KPAE 221653Z 00000KT 10SM OVC006 13/11 A2996 RMK AO2 CIG 005V009 SLP146 T01330106 $=
201106221553 METAR KPAE 221553Z 34003KT 10SM OVC003 13/11 A2997 RMK AO2 SLP146 T01280106 $=
201106221500 SPECI KPAE 221500Z 01004KT 5SM BR OVC003 12/11 A2997 RMK AO2 $=
201106221500 SPECI KPAE 221500Z 01004KT 5SM BR OVC003 12/11 A2997 RMK AO2 $=
201106221453 METAR KPAE 221453Z VRB04KT 1/2SM R16R/P6000FT FG OVC003 12/11 A2996 RMK AO2 SLP146 T01220106 51003 $=
201106221448 SPECI KPAE 221448Z VRB03KT 1/2SM R16R/P6000FT FG OVC003 12/11 A2996 RMK AO2 $=
201106221448 SPECI KPAE 221448Z VRB03KT 1/2SM R16R/P6000FT FG OVC003 12/11 A2996 RMK AO2 $=
201106221353 METAR KPAE 221353Z 02006KT 1/2SM R16R/P6000FT FG OVC001 12/11 A2996 RMK AO2 SLP144 T01170106 $=
201106221253 METAR KPAE 221253Z AUTO 36006KT 10SM OVC001 12/11 A2995 RMK AO2 SLP142 T01170106 $=
201106221153 METAR KPAE 221153Z AUTO 01006KT 6SM R16R/4000VP6000FT BR OVC001 11/10 A2995 RMK AO2 SLP142 T01110100 10133 20111 53003 $=
201106221146 SPECI KPAE 221146Z AUTO 36007KT 4SM R16R/3000VP6000FT BR OVC001 11/10 A2995 RMK AO2 $=
201106221146 SPECI KPAE 221146Z AUTO 36007KT 4SM R16R/3000VP6000FT BR OVC001 11/10 A2995 RMK AO2 $=
201106221136 SPECI KPAE 221136Z AUTO 36007G15KT 2SM R16R/1400V4500FT BR OVC001 11/10 A2995 RMK AO2 $=
201106221136 SPECI KPAE 221136Z AUTO 36007G15KT 2SM R16R/1400V4500FT BR OVC001 11/10 A2995 RMK AO2 $=
201106221123 SPECI KPAE 221123Z AUTO 01006G15KT 1SM R16R/1400V1800FT BR VV001 11/10 A2995 RMK AO2 $=
201106221123 SPECI KPAE 221123Z AUTO 01006G15KT 1SM R16R/1400V1800FT BR VV001 11/10 A2995 RMK AO2 $=
201106221108 SPECI KPAE 221108Z AUTO 01007KT 3/4SM R16R/1200V2000FT BR VV001 11/10 A2995 RMK AO2 $=
201106221108 SPECI KPAE 221108Z AUTO 01007KT 3/4SM R16R/1200V2000FT BR VV001 11/10 A2995 RMK AO2 $=
201106221103 SPECI KPAE 221103Z AUTO 01008KT 1SM R16R/1200V2400FT BR OVC001 11/10 A2995 RMK AO2 $=
201106221103 SPECI KPAE 221103Z AUTO 01008KT 1SM R16R/1200V2400FT BR OVC001 11/10 A2995 RMK AO2 $=
201106221053 METAR KPAE 221053Z AUTO 36008KT 330V030 1 3/4SM R16R/1400V2200FT BR OVC001 11/10 A2995 RMK AO2 VIS 1 1/4V2 1/2 SLP140 T01110100 $=
201106221032 SPECI KPAE 221032Z AUTO 36007KT 340V050 9SM R16R/6000VP6000FT BKN001 11/10 A2995 RMK AO2 $=
201106221032 SPECI KPAE 221032Z AUTO 36007KT 340V050 9SM R16R/6000VP6000FT BKN001 11/10 A2995 RMK AO2 $=
201106221011 SPECI KPAE 221011Z AUTO 01006KT 10SM BKN003 12/10 A2995 RMK AO2 $=
201106221011 SPECI KPAE 221011Z AUTO 01006KT 10SM BKN003 12/10 A2995 RMK AO2 $=
201106220953 METAR KPAE 220953Z AUTO 36005KT 10SM FEW003 12/10 A2995 RMK AO2 SLP139 T01170100 $=
201106220853 METAR KPAE 220853Z AUTO 36004KT 10SM CLR 12/11 A2994 RMK AO2 SLP138 T01220106 58002 $=
201106220753 METAR KPAE 220753Z AUTO VRB05KT 10SM CLR 13/11 A2995=
201106220653 METAR KPAE 220653Z AUTO 01004KT 10SM CLR 13/11 A2995 RMK AO2 SLP140 T01280106 $=
201106220553 METAR KPAE 220553Z AUTO VRB05KT 10SM CLR 13/11 A2995 RMK AO2 SLP140 T01330111 10233 20133 55000 $=
201106220453 METAR KPAE 220453Z AUTO 00000KT 10SM CLR 15/11 A2995 RMK AO2 SLP140 T01500106 $=
201106220353 METAR KPAE 220353Z AUTO 36004KT 10SM CLR 17/11 A2994 RMK AO2 SLP138 T01670106 $=
201106220253 METAR KPAE 220253Z 36004KT 10SM CLR 18/12 A2995 RMK AO2 SLP140 T01830117 56005 $=
201106220153 METAR KPAE 220153Z 36003KT 10SM CLR 21/12 A2995 RMK AO2 SLP141 T02110117 $=
201106220053 METAR KPAE 220053Z 35005KT 10SM CLR 21/12 A2996 RMK AO2 SLP142 T02110117 $=
201106212353 METAR KPAE 212353Z AUTO 35003KT 10SM CLR 23/12 A2997 RMK AO2 SLP145 T02280117 10233 20189 58012 TSNO $=
201106212253 METAR KPAE 212253Z AUTO 28005KT 10SM CLR 22/12 A2998 RMK AO2 SLP149 T02170117 TSNO $=
201106212153 METAR KPAE 212153Z 27005KT 10SM CLR 22/12 A2999 RMK AO2 SLP153 T02170117 $=
201106212053 METAR KPAE 212053Z 29006KT 10SM CLR 21/12 A3000 RMK AO2 SLP158 T02110117 58009 $=
201106211953 METAR KPAE 211953Z 28004KT 10SM CLR 20/12 A3001=
201106211853 METAR KPAE 211853Z 29004KT 10SM CLR 19/11 A3003=
201106211753 METAR KPAE 211753Z VRB04KT 10SM CLR 19/11 A3003 RMK AO2 SLP167 T01890111 10194 20117 58005=
201106211653 METAR KPAE 211653Z 00000KT 10SM CLR 18/11 A3004 RMK AO2 SLP170 T01830106=
201106211553 METAR KPAE 211553Z 00000KT 10SM CLR 16/10 A3005 RMK AO2 SLP173 T01560100=
201106211453 METAR KPAE 211453Z 10004KT 10SM CLR 14/09 A3004 RMK AO2 SLP172 T01440094 55001=
201106211353 METAR KPAE 211353Z 11005KT 10SM SCT060 13/09 A3004 RMK AO2 SLP172 T01280089=
201106211253 METAR KPAE 211253Z AUTO 11006KT 10SM CLR 12/09 A3004 RMK AO2 SLP172 T01220094=
201106211153 METAR KPAE 211153Z AUTO 11004KT 10SM CLR 13/09 A3005 RMK AO2 SLP174 T01280094 10150 20117 53001=
201106211053 METAR KPAE 211053Z AUTO 00000KT 10SM OVC037 13/10 A3005 RMK AO2 SLP173 T01330100=
201106210953 METAR KPAE 210953Z AUTO 12004KT 10SM OVC035 13/10 A3004=
201106210853 METAR KPAE 210853Z AUTO 00000KT 10SM CLR 13/10 A3005 RMK AO2 SLP173 T01280100 58003=
201106210753 METAR KPAE 210753Z AUTO 00000KT 10SM SCT060 14/10 A3005 RMK AO2 SLP176 T01390100 401940111=
201106210653 METAR KPAE 210653Z AUTO 00000KT 10SM CLR 13/09 A3005 RMK AO2 SLP176 T01330094=
201106210553 METAR KPAE 210553Z AUTO 00000KT 10SM SCT085 15/09 A3005 RMK AO2 SLP176 T01500089 10194 20144 53002=
201106210453 METAR KPAE 210453Z AUTO 00000KT 10SM CLR 17/09 A3005 RMK AO2 SLP175 T01670089=
201106210353 METAR KPAE 210353Z AUTO 00000KT 10SM CLR 17/09 A3005 RMK AO2 SLP173 T01720094=
201106210253 METAR KPAE 210253Z 28003KT 10SM CLR 18/09 A3005 RMK AO2 SLP174 T01830094 53000=
201106210153 METAR KPAE 210153Z 00000KT 10SM CLR 19/09 A3004 RMK AO2 SLP171 T01890094=
201106210053 METAR KPAE 210053Z 28005KT 10SM SCT036 18/10 A3004 RMK AO2 SLP172 T01830100=
201106202353 METAR KPAE 202353Z 27004KT 10SM SCT036 SCT043 18/10 A3005 RMK AO2 SLP173 T01830100 10194 20139 58003=
201106202253 METAR KPAE 202253Z 28004KT 10SM FEW032 OVC050 18/10 A3005 RMK AO2 SLP176 T01830100=
201106202153 METAR KPAE 202153Z 00000KT 10SM BKN030 OVC055 18/09 A3006 RMK AO2 SLP178 T01780094=
201106202053 METAR KPAE 202053Z 25005KT 10SM BKN033 BKN055 18/10 A3005 RMK AO2 SLP176 T01780100 53001=
201106201953 METAR KPAE 201953Z VRB04KT 10SM BKN049 17/09 A3005 RMK AO2 SLP175 T01720094=
201106201853 METAR KPAE 201853Z 27003KT 10SM OVC036 15/09 A3005 RMK AO2 SLP176 T01500094=
201106201753 METAR KPAE 201753Z 28004KT 10SM SCT016 BKN036 14/10 A3005 RMK AO2 SLP176 T01440100 10144 20111 50004=
201106201653 METAR KPAE 201653Z 28004KT 10SM BKN032 BKN041 14/10 A3005=
201106201632 SPECI KPAE 201632Z 28003KT 10SM FEW024 OVC030 14/11 A3005 RMK AO2=
201106201632 SPECI KPAE 201632Z 28003KT 10SM FEW024 OVC030 14/11 A3005 RMK AO2=
201106201553 METAR KPAE 201553Z 00000KT 10SM BKN028 13/11 A3004 RMK AO2 SLP172 T01330106=
201106201543 SPECI KPAE 201543Z 00000KT 10SM SCT008 SCT026 13/10 A3004 RMK AO2=
201106201543 SPECI KPAE 201543Z 00000KT 10SM SCT008 SCT026 13/10 A3004 RMK AO2=
201106201504 SPECI KPAE 201504Z 00000KT 10SM BKN008 OVC027 13/11 A3004 RMK AO2=
201106201504 SPECI KPAE 201504Z 00000KT 10SM BKN008 OVC027 13/11 A3004 RMK AO2=
201106201453 METAR KPAE 201453Z 36003KT 10SM SCT006 OVC029 13/11 A3003 RMK AO2 SLP170 T01330106 58001=
201106201431 SPECI KPAE 201431Z 00000KT 10SM SCT006 OVC029 12/10 A3004 RMK AO2=
201106201431 SPECI KPAE 201431Z 00000KT 10SM SCT006 OVC029 12/10 A3004 RMK AO2=
201106201353 METAR KPAE 201353Z 00000KT 10SM BKN006 OVC029 12/10 A3004 RMK AO2 CIG 002V007 SLP171 T01170100=
201106201253 METAR KPAE 201253Z AUTO 00000KT 10SM FEW002 OVC006 12/10 A3004 RMK AO2 SLP172 T01170100=
201106201153 METAR KPAE 201153Z AUTO 00000KT 8SM BKN006 OVC049 12/10 A3004 RMK AO2 SLP171 70002 T01170100 10122 20117 57000=
201106201136 SPECI KPAE 201136Z AUTO 00000KT 10SM BKN006 OVC049 12/10 A3004 RMK AO2 CIG 002V007=
201106201136 SPECI KPAE 201136Z AUTO 00000KT 10SM BKN006 OVC049 12/10 A3004 RMK AO2 CIG 002V007=
201106201106 SPECI KPAE 201106Z AUTO 00000KT 10SM SCT004 OVC047 12/10 A3004 RMK AO2=
201106201106 SPECI KPAE 201106Z AUTO 00000KT 10SM SCT004 OVC047 12/10 A3004 RMK AO2=
201106201053 METAR KPAE 201053Z AUTO 02003KT 10SM BKN004 OVC047 12/10 A3004=
201106201009 SPECI KPAE 201009Z AUTO 03004KT 10SM BKN002 OVC044 12/10 A3004 RMK AO2 CIG 002V006=
201106201009 SPECI KPAE 201009Z AUTO 03004KT 10SM BKN002 OVC044 12/10 A3004 RMK AO2 CIG 002V006=
201106201000 SPECI KPAE 201000Z AUTO 02003KT 10SM SCT002 OVC044 12/10 A3004 RMK AO2=
201106201000 SPECI KPAE 201000Z AUTO 02003KT 10SM SCT002 OVC044 12/10 A3004 RMK AO2=
201106200953 METAR KPAE 200953Z AUTO 02004KT 10SM OVC044 12/10 A3004 RMK AO2 SLP172 T01170100=
201106200853 METAR KPAE 200853Z AUTO 00000KT 10SM OVC044 12/10 A3004 RMK AO2 SLP172 T01170100 56003=
201106200753 METAR KPAE 200753Z AUTO 00000KT 10SM OVC042 12/10 A3004 RMK AO2 SLP173 T01220100 401560106=
201106200653 METAR KPAE 200653Z AUTO 00000KT 10SM SCT019 OVC041 12/10 A3004 RMK AO2 SLP174 T01220100=
201106200606 SPECI KPAE 200606Z AUTO 00000KT 10SM SCT025 SCT030 OVC041 12/10 A3005 RMK AO2=
201106200606 SPECI KPAE 200606Z AUTO 00000KT 10SM SCT025 SCT030 OVC041 12/10 A3005 RMK AO2=
201106200553 METAR KPAE 200553Z AUTO 00000KT 10SM BKN025 OVC030 12/10 A3005 RMK AO2 SLP176 T01220100 10156 20122 58003=
201106200546 SPECI KPAE 200546Z AUTO 00000KT 10SM OVC027 12/10 A3005 RMK AO2=
201106200546 SPECI KPAE 200546Z AUTO 00000KT 10SM OVC027 12/10 A3005 RMK AO2=
201106200536 SPECI KPAE 200536Z AUTO 01003KT 10SM FEW023 OVC030 12/10 A3005 RMK AO2=
201106200536 SPECI KPAE 200536Z AUTO 01003KT 10SM FEW023 OVC030 12/10 A3005 RMK AO2=
201106200503 SPECI KPAE 200503Z AUTO 00000KT 10SM BKN023 BKN030 OVC038 13/11 A3006 RMK AO2=
201106200503 SPECI KPAE 200503Z AUTO 00000KT 10SM BKN023 BKN030 OVC038 13/11 A3006 RMK AO2=
201106200453 METAR KPAE 200453Z AUTO 00000KT 10SM FEW020 BKN033 OVC040 13/11 A3006 RMK AO2 SLP180 T01280106=
201106200353 METAR KPAE 200353Z AUTO 00000KT 10SM FEW026 OVC036 13/11 A3006 RMK AO2 SLP178 T01280106=
201106200253 METAR KPAE 200253Z 02003KT 10SM OVC034 13/11 A3006 RMK AO2 SLP180 T01280106 58004=
201106200215 SPECI KPAE 200215Z 36003KT 10SM SCT028 OVC036 13/11 A3006 RMK AO2=
201106200215 SPECI KPAE 200215Z 36003KT 10SM SCT028 OVC036 13/11 A3006 RMK AO2=
201106200153 METAR KPAE 200153Z 00000KT 10SM BKN023 BKN032 OVC039 14/11 A3006 RMK AO2 SLP181 T01390106=
201106200053 METAR KPAE 200053Z 30005KT 10SM OVC028 14/10 A3007 RMK AO2 SLP181 T01440100=
201106192353 METAR KPAE 192353Z 16006KT 10SM OVC024 15/09 A3007 RMK AO2 SLP182 T01500094 10156 20117 58002=
201106192253 METAR KPAE 192253Z 19005KT 10SM BKN025 OVC031 15/09 A3008 RMK AO2 SLP187 T01500094=
201106192153 METAR KPAE 192153Z 19006KT 10SM OVC025 15/09 A3008 RMK AO2 SLP185 T01500094=
201106192053 METAR KPAE 192053Z 17009KT 10SM OVC019 14/09 A3008 RMK AO2 SLP185 T01440094 50001=
201106192000 SPECI KPAE 192000Z 19006KT 10SM BKN011 OVC021 13/10 A3008 RMK AO2=
201106192000 SPECI KPAE 192000Z 19006KT 10SM BKN011 OVC021 13/10 A3008 RMK AO2=
201106191953 METAR KPAE 191953Z COR 17005KT 10SM BKN011 OVC021 13/10 A3008 RMK AO2 SLP187 T01280100=
201106191853 METAR KPAE 191853Z 16007KT 10SM BKN008 OVC014 12/10 A3008 RMK AO2 CIG 005V010 SLP186 T01220100=
201106191800 SPECI KPAE 191800Z 17006KT 10SM BKN006 OVC010 12/10 A3007 RMK AO2=
201106191800 SPECI KPAE 191800Z 17006KT 10SM BKN006 OVC010 12/10 A3007 RMK AO2=
201106191753 METAR KPAE 191753Z 17007KT 10SM BKN004 OVC009 12/10 A3007 RMK AO2 SLP185 60002 T01170100 10117 20106 58000=
201106191715 SPECI KPAE 191715Z 17007KT 7SM OVC004 11/10 A3008 RMK AO2 CIG 003V009=
201106191715 SPECI KPAE 191715Z 17007KT 7SM OVC004 11/10 A3008 RMK AO2 CIG 003V009=
201106191702 SPECI KPAE 191702Z 16009KT 5SM BR OVC006 11/09 A3008 RMK AO2 CIG 003V010=
201106191702 SPECI KPAE 191702Z 16009KT 5SM BR OVC006 11/09 A3008 RMK AO2 CIG 003V010=
201106191653 METAR KPAE 191653Z 17007KT 2SM BR BKN006 OVC012 11/10 A3008=
201106191649 SPECI KPAE 191649Z 17006KT 1 3/4SM BR BKN006 OVC012 11/10 A3008 RMK AO2 CIG 003V008=
201106191649 SPECI KPAE 191649Z 17006KT 1 3/4SM BR BKN006 OVC012 11/10 A3008 RMK AO2 CIG 003V008=
201106191639 SPECI KPAE 191639Z 17006KT 2SM BR BKN004 BKN008 OVC014 11/10 A3009 RMK AO2=
201106191639 SPECI KPAE 191639Z 17006KT 2SM BR BKN004 BKN008 OVC014 11/10 A3009 RMK AO2=
201106191618 SPECI KPAE 191618Z 18006KT 3SM BR BKN004 BKN008 OVC014 11/10 A3009 RMK AO2 CIG 003V007=
201106191618 SPECI KPAE 191618Z 18006KT 3SM BR BKN004 BKN008 OVC014 11/10 A3009 RMK AO2 CIG 003V007=
201106191553 METAR KPAE 191553Z 16004KT 1 1/2SM R16R/6000VP6000FT BR OVC004 11/10 A3008 RMK AO2 CIG 002V007 SLP187 P0001 T01110100=
201106191453 METAR KPAE 191453Z VRB03KT 1SM R16R/6000VP6000FT BR OVC003 11/10 A3008 RMK AO2 CIG 002V007 SLP185 60001 T01110100 53004=
201106191422 SPECI KPAE 191422Z 00000KT 1SM R16R/P6000FT BR OVC003 11/09 A3007 RMK AO2 CIG 001V007=
201106191422 SPECI KPAE 191422Z 00000KT 1SM R16R/P6000FT BR OVC003 11/09 A3007 RMK AO2 CIG 001V007=
201106191404 SPECI KPAE 191404Z 11005KT 2 1/2SM BR BKN003 OVC006 11/09 A3007 RMK AO2=
201106191404 SPECI KPAE 191404Z 11005KT 2 1/2SM BR BKN003 OVC006 11/09 A3007 RMK AO2=
201106191353 METAR KPAE 191353Z 11005KT 3SM BR OVC003 11/09 A3007 RMK AO2 SLP183 T01060094=
201106191349 SPECI KPAE 191349Z 11007KT 3SM BR OVC003 11/09 A3007 RMK AO2 CIG 002V007=
201106191349 SPECI KPAE 191349Z 11007KT 3SM BR OVC003 11/09 A3007 RMK AO2 CIG 002V007=
201106191253 METAR KPAE 191253Z 08003KT 2SM BR OVC003 11/09 A3006 RMK AO2 CIG 002V008 SLP181 P0001 T01060094=
201106191250 SPECI KPAE 191250Z VRB03KT 1 3/4SM BR OVC003 11/09 A3006 RMK AO2 CIG 002V008 P0001=
201106191250 SPECI KPAE 191250Z VRB03KT 1 3/4SM BR OVC003 11/09 A3006 RMK AO2 CIG 002V008 P0001=
201106191244 SPECI KPAE 191244Z 10004KT 2SM BR OVC005 11/09 A3006 RMK AO2 CIG 002V008 P0001=
201106191244 SPECI KPAE 191244Z 10004KT 2SM BR OVC005 11/09 A3006 RMK AO2 CIG 002V008 P0001=
201106191153 METAR KPAE 191153Z 07004KT 6SM BR OVC007 11/09 A3006 RMK AO2 RAB14E43 CIG 004V008 SLP180 P0000 60000 70020 T01110094 10117 20106 51005=
201106191151 SPECI KPAE 191151Z 00000KT 6SM BR OVC007 11/09 A3006 RMK AO2 RAB14E43 CIG 004V008 P0000=
201106191151 SPECI KPAE 191151Z 00000KT 6SM BR OVC007 11/09 A3006 RMK AO2 RAB14E43 CIG 004V008 P0000=
201106191135 SPECI KPAE 191135Z 08003KT 5SM -RA BR BKN004 OVC007 11/09 A3005 RMK AO2 RAB14 P0000=
201106191135 SPECI KPAE 191135Z 08003KT 5SM -RA BR BKN004 OVC007 11/09 A3005 RMK AO2 RAB14 P0000=
201106191053 METAR KPAE 191053Z 00000KT 9SM BKN007 OVC013 11/09 A3005 RMK AO2 CIG 004V009 SLP177 T01110094=
201106190953 METAR KPAE 190953Z 03003KT 6SM BR OVC009 11/09 A3005 RMK AO2 CIG 004V010 SLP175 T01110094=
201106190853 METAR KPAE 190853Z 00000KT 8SM OVC009 11/09 A3004 RMK AO2 SLP173 T01110094 53010=
201106190753 METAR KPAE 190753Z 00000KT 10SM OVC009 12/10 A3003 RMK AO2 SLP169 T01170100 401330111=
201106190653 METAR KPAE 190653Z 02003KT 10SM OVC007 12/10 A3002 RMK AO2 SLP165 T01170100=
201106190553 METAR KPAE 190553Z 02004KT 10SM OVC005 12/10 A3001 RMK AO2 CIG 002V007 SLP163 60002 T01170100 10133 20117 53014=
201106190532 SPECI KPAE 190532Z 03005KT 9SM OVC003 12/10 A3001 RMK AO2=
201106190532 SPECI KPAE 190532Z 03005KT 9SM OVC003 12/10 A3001 RMK AO2=
201106190453 METAR KPAE 190453Z VRB03KT 8SM OVC005 12/10 A2999 RMK AO2 RAE0358 CIG 003V009 SLP158 P0001 T01170100=
201106190353 METAR KPAE 190353Z 00000KT 10SM -RA BKN003 BKN010 OVC032 12/11 A2998 RMK AO2 RAB20 SLP153 P0000 T01170106=
201106190300 SPECI KPAE 190300Z 02005KT 9SM BKN003 BKN010 OVC032 12/11 A2997 RMK AO2=
201106190300 SPECI KPAE 190300Z 02005KT 9SM BKN003 BKN010 OVC032 12/11 A2997 RMK AO2=
201106190253 METAR KPAE 190253Z 02005KT 10SM SCT003 BKN008 OVC032 12/11 A2997 RMK AO2 RAB00E42 CIG 006V011 SLP149 P0001 60001 T01170106 53006=
201106190153 METAR KPAE 190153Z 02003KT 8SM BKN003 OVC041 12/11 A2996=
201106190148 SPECI KPAE 190148Z 03004KT 6SM BR BKN003 BKN008 OVC041 12/11 A2996 RMK AO2 RAB37E48 P0000=
201106190148 SPECI KPAE 190148Z 03004KT 6SM BR BKN003 BKN008 OVC041 12/11 A2996 RMK AO2 RAB37E48 P0000=
201106190053 METAR KPAE 190053Z 03006KT 6SM BR BKN005 BKN015 OVC036 12/11 A2995 RMK AO2 CIG 005V010 SLP143 T01220106=
201106182353 METAR KPAE 182353Z 03004KT 10SM SCT005 BKN012 OVC017 12/11 A2995 RMK AO2 SLP142 60003 T01220106 10128 20111 53007=
201106182253 METAR KPAE 182253Z 04004KT 10SM FEW003 SCT006 OVC025 13/11 A2994 RMK AO2 SLP137 T01280106=
201106182153 METAR KPAE 182153Z 02003KT 7SM SCT003 OVC027 12/11 A2993 RMK AO2 SLP137 T01170106=
201106182144 SPECI KPAE 182144Z 01003KT 7SM BKN003 OVC027 12/11 A2993 RMK AO2=
201106182144 SPECI KPAE 182144Z 01003KT 7SM BKN003 OVC027 12/11 A2993 RMK AO2=
201106182137 SPECI KPAE 182137Z 03004KT 2SM BR BKN003 OVC027 12/11 A2993 RMK AO2=
201106182137 SPECI KPAE 182137Z 03004KT 2SM BR BKN003 OVC027 12/11 A2993 RMK AO2=
201106182053 METAR KPAE 182053Z 35003KT 2SM BR OVC001 12/11 A2993 RMK AO2 RAE11 CIG 001V005 SLP134 P0001 60003 T01170106 51012=
201106182001 SPECI KPAE 182001Z VRB05KT 1SM R16R/P6000FT -RA BR OVC001 12/11 A2992 RMK AO2 P0000=
201106182001 SPECI KPAE 182001Z VRB05KT 1SM R16R/P6000FT -RA BR OVC001 12/11 A2992 RMK AO2 P0000=
201106181953 METAR KPAE 181953Z 35004KT 2SM -RA BR OVC001 12/11 A2992 RMK AO2 SLP132 P0001 T01170106=
201106181853 METAR KPAE 181853Z 34005KT 2SM -RA BR OVC001 12/11 A2991 RMK AO2 RAE00B23 SLP127 VSBY W-NE 2 P0001 T01170106=
201106181846 SPECI KPAE 181846Z 34004KT 1SM R16R/P6000FT -RA BR OVC001 12/11 A2990 RMK AO2 RAE00B23 VSBY W-NE 2 P0001=
201106181846 SPECI KPAE 181846Z 34004KT 1SM R16R/P6000FT -RA BR OVC001 12/11 A2990 RMK AO2 RAE00B23 VSBY W-NE 2 P0001=
201106181832 SPECI KPAE 181832Z 32006KT 5SM R16R/1600VP6000FT -RA BR BKN001 OVC004 12/11 A2990 RMK AO2 RAE00B23 VSBY W-NE 2 P0000=
201106181832 SPECI KPAE 181832Z 32006KT 5SM R16R/1600VP6000FT -RA BR BKN001 OVC004 12/11 A2990 RMK AO2 RAE00B23 VSBY W-NE 2 P0000=
201106181810 SPECI KPAE 181810Z 00000KT 7SM BKN004 BKN008 OVC014 12/11 A2989 RMK AO2 RAE00 P0000=
201106181810 SPECI KPAE 181810Z 00000KT 7SM BKN004 BKN008 OVC014 12/11 A2989 RMK AO2 RAE00 P0000=
201106181753 METAR KPAE 181753Z 32003KT 3SM -RA BR FEW004 BKN008 OVC014 12/11 A2989 RMK AO2 SLP122 P0002 60015 T01220111 10128 20111 53000=
201106181729 SPECI KPAE 181729Z 32003KT 3SM BR BKN006 OVC010 13/11 A2989 RMK AO2 RAE24 CIG 003V008 P0002=
201106181729 SPECI KPAE 181729Z 32003KT 3SM BR BKN006 OVC010 13/11 A2989 RMK AO2 RAE24 CIG 003V008 P0002=
201106181703 SPECI KPAE 181703Z 00000KT 2SM -RA BR OVC006 12/11 A2989 RMK AO2 CIG 001V010 P0001=
201106181703 SPECI KPAE 181703Z 00000KT 2SM -RA BR OVC006 12/11 A2989 RMK AO2 CIG 001V010 P0001=
201106181653 METAR KPAE 181653Z 00000KT 1 3/4SM -RA BR OVC004 12/11 A2989 RMK AO2 CIG 001V007 SLP122 P0005 T01220111=
201106181553 METAR KPAE 181553Z 10003KT 2SM -RA BR OVC003 12/11 A2988 RMK AO2 CIG 002V007 SLP120 P0003 T01170106=
201106181521 SPECI KPAE 181521Z 11004KT 2 1/2SM -RA BR OVC003 12/11 A2989 RMK AO2 P0000=
201106181521 SPECI KPAE 181521Z 11004KT 2 1/2SM -RA BR OVC003 12/11 A2989 RMK AO2 P0000=
201106181453 METAR KPAE 181453Z 12005KT 2SM -RA BR BKN005 OVC014 12/10 A2989 RMK AO2 SLP121 P0003 60005 T01170100 58005=
201106181404 SPECI KPAE 181404Z 15003KT 2 1/2SM -RA BR OVC008 12/10 A2990 RMK AO2 P0000=
201106181404 SPECI KPAE 181404Z 15003KT 2 1/2SM -RA BR OVC008 12/10 A2990 RMK AO2 P0000=
201106181353 METAR KPAE 181353Z VRB05KT 4SM -RA BR OVC008 12/10 A2990 RMK AO2 RAB19 CIG 004V012 SLP124 P0002 T01170100=
201106181350 SPECI KPAE 181350Z VRB03KT 4SM -RA BR OVC008 12/10 A2990 RMK AO2 RAB19 CIG 004V012 P0002=
201106181350 SPECI KPAE 181350Z VRB03KT 4SM -RA BR OVC008 12/10 A2990 RMK AO2 RAB19 CIG 004V012 P0002=
201106181340 SPECI KPAE 181340Z VRB05KT 2 1/2SM -RA BR OVC008 12/10 A2990 RMK AO2 RAB19 CIG 004V010 P0001=
201106181340 SPECI KPAE 181340Z VRB05KT 2 1/2SM -RA BR OVC008 12/10 A2990 RMK AO2 RAB19 CIG 004V010 P0001=
201106181323 SPECI KPAE 181323Z 15005KT 5SM -RA BR BKN006 OVC012 12/10 A2990 RMK AO2 RAB19 CIG 004V008 P0001=
201106181323 SPECI KPAE 181323Z 15005KT 5SM -RA BR BKN006 OVC012 12/10 A2990 RMK AO2 RAB19 CIG 004V008 P0001=
201106181315 SPECI KPAE 181315Z 16006KT 7SM SCT006 OVC012 12/10 A2990 RMK AO2=
201106181315 SPECI KPAE 181315Z 16006KT 7SM SCT006 OVC012 12/10 A2990 RMK AO2=
201106181253 METAR KPAE 181253Z 16007KT 8SM OVC008 12/10 A2991 RMK AO2 RAE49 CIG 004V013 SLP125 P0000 T01220100=
201106181205 SPECI KPAE 181205Z 00000KT 10SM -RA OVC014 12/09 A2992 RMK AO2 P0000=
201106181205 SPECI KPAE 181205Z 00000KT 10SM -RA OVC014 12/09 A2992 RMK AO2 P0000=
201106181153 METAR KPAE 181153Z 00000KT 10SM -RA OVC016 12/09 A2992 RMK AO2 SLP130 P0002 60003 70003 T01220094 10128 20117 58008=
201106181053 METAR KPAE 181053Z 00000KT 10SM -RA BKN022 OVC055 12/09 A2993 RMK AO2 SLP134 P0001 T01220089=
201106180953 METAR KPAE 180953Z 00000KT 10SM -RA OVC060 13/09 A2994 RMK AO2 RAB42 SLP135 P0000 T01280089=
201106180853 METAR KPAE 180853Z 00000KT 10SM OVC060 13/08 A2994 RMK AO2 SLP138 T01280083 58007=
201106180753 METAR KPAE 180753Z 00000KT 10SM OVC060 12/08 A2995 RMK AO2 SLP142 T01220083 401940083=
201106180653 METAR KPAE 180653Z VRB03KT 10SM OVC055 12/08 A2996 RMK AO2 SLP144 T01170083=
201106180553 METAR KPAE 180553Z 36003KT 10SM OVC080 12/08 A2996 RMK AO2 SLP146 T01220083 10194 20122 58001=
201106180453 METAR KPAE 180453Z VRB05KT 10SM OVC085 12/08 A2997 RMK AO2 SLP147 T01220078=
201106180353 METAR KPAE 180353Z 36007KT 10SM FEW075 13/08 A2997 RMK AO2 SLP148 T01280078=
201106180253 METAR KPAE 180253Z VRB05KT 10SM CLR 14/07 A2997 RMK AO2 SLP147 T01440072 56005=
201106180153 METAR KPAE 180153Z 36005KT 10SM BKN100 17/09 A2997 RMK AO2 SLP149 T01670089=
201106180053 METAR KPAE 180053Z 30005KT 10SM CLR 19/07 A2997 RMK AO2 SLP149 T01890072=
201106172353 METAR KPAE 172353Z 29005KT 10SM CLR 18/08 A2998 RMK AO2 SLP152 T01830083 10183 20133 58005=
201106172253 METAR KPAE 172253Z 29005KT 10SM CLR 18/09 A2998 RMK AO2 SLP153 T01780089=
201106172153 METAR KPAE 172153Z 28008KT 10SM CLR 17/09 A3000 RMK AO2 SLP158 T01720089=
201106172053 METAR KPAE 172053Z 27006KT 10SM CLR 17/09 A2999 RMK AO2 SLP157 T01670089 57004=
201106171953 METAR KPAE 171953Z 28006KT 10SM CLR 16/09 A3000 RMK AO2 SLP158 T01560089=
201106171853 METAR KPAE 171853Z 29005KT 10SM FEW030 14/09 A3000 RMK AO2 SLP161 T01440089=
201106171753 METAR KPAE 171753Z 30005KT 10SM SCT030 14/08 A3001 RMK AO2 SLP162 T01390078 10144 20083 56003=
201106171653 METAR KPAE 171653Z 00000KT 10SM CLR 13/07 A3001 RMK AO2 SLP162 T01280072=
201106171627 SPECI KPAE 171627Z 00000KT 10SM SCT018 12/07 A3001 RMK AO2=
201106171627 SPECI KPAE 171627Z 00000KT 10SM SCT018 12/07 A3001 RMK AO2=
201106171553 METAR KPAE 171553Z 00000KT 10SM CLR 12/07 A3001 RMK AO2 SLP164 T01170067=
201106171453 METAR KPAE 171453Z 35004KT 10SM CLR 11/07 A3002 RMK AO2 SLP166 T01060067 51004=
201106171353 METAR KPAE 171353Z 00000KT 10SM CLR 10/07 A3001 RMK AO2 SLP164 T01000072=
201106171253 METAR KPAE 171253Z AUTO 00000KT 10SM FEW045 08/07 A3001 RMK AO2 SLP164 T00830067=
201106171153 METAR KPAE 171153Z AUTO 00000KT 10SM CLR 09/07 A3001 RMK AO2 SLP160 T00890067 10106 20083 57007=
201106171053 METAR KPAE 171053Z AUTO 02003KT 10SM SCT044 09/07 A3002 RMK AO2 SLP164 T00890067=
201106170953 METAR KPAE 170953Z AUTO 00000KT 10SM FEW036 10/07 A3002 RMK AO2 SLP164 T01000072=
201106170934 SPECI KPAE 170934Z AUTO 00000KT 10SM FEW026 BKN036 10/07 A3002 RMK AO2=
201106170934 SPECI KPAE 170934Z AUTO 00000KT 10SM FEW026 BKN036 10/07 A3002 RMK AO2=
201106170853 METAR KPAE 170853Z AUTO 00000KT 10SM OVC028 09/07 A3003 RMK AO2 SLP168 T00940072 50002=
201106170832 SPECI KPAE 170832Z AUTO 01003KT 10SM OVC028 10/07 A3002 RMK AO2=
201106170832 SPECI KPAE 170832Z AUTO 01003KT 10SM OVC028 10/07 A3002 RMK AO2=
201106170753 METAR KPAE 170753Z AUTO 04004KT 10SM CLR 10/07 A3003 RMK AO2 SLP168 T01000072 401780089=
201106170653 METAR KPAE 170653Z AUTO 01005KT 10SM CLR 10/07 A3002 RMK AO2 SLP167 T01000067=
201106170553 METAR KPAE 170553Z AUTO 01004KT 10SM CLR 11/07 A3002 RMK AO2 SLP167 T01060067 10167 20106 50002=
201106170453 METAR KPAE 170453Z AUTO 01005KT 10SM CLR 11/07 A3003 RMK AO2 SLP168 T01060072=
201106170353 METAR KPAE 170353Z AUTO 36006KT 10SM CLR 11/07 A3002 RMK AO2 SLP167 T01110072=
201106170253 METAR KPAE 170253Z 35006KT 10SM CLR 13/07 A3002 RMK AO2 SLP165 T01280072 56007=
201106170153 METAR KPAE 170153Z 36008KT 10SM CLR 14/08 A3002 RMK AO2 SLP165 T01440078=
201106170053 METAR KPAE 170053Z 36006KT 10SM FEW060 15/08 A3002 RMK AO2 SLP167 T01500083=
201106162353 METAR KPAE 162353Z 33005KT 10SM SCT060 16/08 A3004 RMK AO2 SLP170 T01610078 10178 20128 58008=
201106162253 METAR KPAE 162253Z VRB06KT 10SM FEW060 17/08 A3005 RMK AO2 SLP174 T01720078=
201106162153 METAR KPAE 162153Z 23005KT 10SM SCT025 17/07 A3005 RMK AO2 SLP176 T01720072=
201106162053 METAR KPAE 162053Z VRB03KT 10SM FEW025 16/08 A3006 RMK AO2 SLP179 T01610083 56008=
201106162049 SPECI KPAE 162049Z 29004KT 10SM FEW025 16/08 A3006 RMK AO2=
201106162049 SPECI KPAE 162049Z 29004KT 10SM FEW025 16/08 A3006 RMK AO2=
201106162042 SPECI KPAE 162042Z VRB05KT 10SM BKN025 16/08 A3006 RMK AO2=
201106162042 SPECI KPAE 162042Z VRB05KT 10SM BKN025 16/08 A3006 RMK AO2=
201106161953 METAR KPAE 161953Z 00000KT 10SM FEW021 15/08 A3007 RMK AO2 SLP183 T01500083=
201106161908 SPECI KPAE 161908Z 00000KT 10SM FEW019 SCT025 SCT060 14/08 A3009 RMK AO2=
201106161908 SPECI KPAE 161908Z 00000KT 10SM FEW019 SCT025 SCT060 14/08 A3009 RMK AO2=
201106161853 METAR KPAE 161853Z VRB03KT 10SM FEW020 BKN025 OVC060 14/08 A3009 RMK AO2 SLP189 T01390083=
201106161753 METAR KPAE 161753Z 00000KT 10SM BKN018 OVC034 13/08 A3009 RMK AO2 SLP190 T01280078 10133 20089 58006=
201106161653 METAR KPAE 161653Z 28003KT 10SM FEW020 OVC055 12/08 A3010 RMK AO2 SLP193 T01170078=
201106161646 SPECI KPAE 161646Z 27003KT 10SM SCT020 OVC055 12/08 A3010 RMK AO2=
201106161646 SPECI KPAE 161646Z 27003KT 10SM SCT020 OVC055 12/08 A3010 RMK AO2=
201106161628 SPECI KPAE 161628Z 00000KT 10SM SCT013 BKN020 OVC055 12/08 A3010 RMK AO2=
201106161628 SPECI KPAE 161628Z 00000KT 10SM SCT013 BKN020 OVC055 12/08 A3010 RMK AO2=
201106161601 SPECI KPAE 161601Z 00000KT 10SM BKN013 BKN018 OVC035 11/08 A3010 RMK AO2=
201106161601 SPECI KPAE 161601Z 00000KT 10SM BKN013 BKN018 OVC035 11/08 A3010 RMK AO2=
201106161553 METAR KPAE 161553Z 00000KT 10SM FEW007 SCT013 11/08 A3010 RMK AO2 SLP195 T01110078=
201106161500 SPECI KPAE 161500Z 30003KT 10SM FEW007 SCT013 11/08 A3011 RMK AO2=
201106161500 SPECI KPAE 161500Z 30003KT 10SM FEW007 SCT013 11/08 A3011 RMK AO2=
201106161453 METAR KPAE 161453Z 30004KT 10SM SCT013 11/08 A3011 RMK AO2 SLP197 T01110083 55006=
201106161353 METAR KPAE 161353Z 00000KT 10SM SCT033 SCT060 10/07 A3011 RMK AO2 SLP196 T01000067=
201106161253 METAR KPAE 161253Z AUTO 00000KT 10SM CLR 09/06 A3012 RMK AO2 SLP199 T00940061=
201106161153 METAR KPAE 161153Z AUTO 12003KT 10SM CLR 09/06 A3013=
201106161053 METAR KPAE 161053Z AUTO 00000KT 10SM OVC065 11/07 A3013 RMK AO2 SLP204 T01060067=
201106160953 METAR KPAE 160953Z AUTO 04003KT 10SM FEW047 OVC065 11/07 A3015 RMK AO2 SLP209 T01060067=
201106160853 METAR KPAE 160853Z AUTO 00000KT 10SM CLR 10/07 A3014 RMK AO2 SLP208 T01000067 58006=
201106160753 METAR KPAE 160753Z AUTO 03004KT 10SM CLR 10/07 A3015 RMK AO2 SLP211 T01000067 401560089=
201106160653 METAR KPAE 160653Z AUTO 03004KT 10SM CLR 11/07 A3016 RMK AO2 SLP213 T01060067=
201106160553 METAR KPAE 160553Z AUTO 02004KT 10SM CLR 11/07 A3016 RMK AO2 SLP214 T01060067 10156 20106 56003=
201106160453 METAR KPAE 160453Z AUTO 00000KT 10SM CLR 11/07 A3016 RMK AO2 SLP214 T01110072=
201106160353 METAR KPAE 160353Z AUTO 00000KT 10SM CLR 12/07 A3016 RMK AO2 SLP214 T01220072=
201106160253 METAR KPAE 160253Z 36004KT 10SM CLR 13/07 A3017 RMK AO2 SLP217 T01330067 56007=
201106160153 METAR KPAE 160153Z VRB04KT 10SM FEW045 14/07 A3017 RMK AO2 SLP217 T01440067=
201106160053 METAR KPAE 160053Z VRB03KT 10SM FEW031 16/07 A3018 RMK AO2 SLP218 T01560067=
201106152353 METAR KPAE 152353Z VRB03KT 10SM SCT050 SCT060 14/06 A3019 RMK AO2 SLP224 T01440061 10156 20111 56006=
201106152253 METAR KPAE 152253Z 00000KT 10SM CLR 14/06 A3020 RMK AO2 SLP226 T01440061=
201106152153 METAR KPAE 152153Z 36005KT 10SM SCT025 BKN065 14/06 A3020 RMK AO2 SLP227 T01440061=
201106152053 METAR KPAE 152053Z 06003KT 10SM FEW025 SCT055 BKN070 14/07 A3021 RMK AO2 SLP230 T01390067 57004=
201106151953 METAR KPAE 151953Z VRB04KT 10SM FEW016 BKN044 OVC095 12/08 A3021 RMK AO2 SLP232 T01220078=
201106151945 SPECI KPAE 151945Z 28004KT 10SM SCT016 SCT030 BKN042 12/08 A3021 RMK AO2=
201106151945 SPECI KPAE 151945Z 28004KT 10SM SCT016 SCT030 BKN042 12/08 A3021 RMK AO2=
201106151853 METAR KPAE 151853Z 00000KT 10SM FEW015 BKN019 OVC095 13/08 A3021=
201106151753 METAR KPAE 151753Z 30003KT 10SM BKN015 OVC027 11/07 A3022 RMK AO2 SLP234 60003 T01110072 10111 20089 58001=
201106151653 METAR KPAE 151653Z 26004KT 10SM SCT005 BKN015 OVC021 10/08 A3022 RMK AO2 SLP236 T01000083=
201106151651 SPECI KPAE 151651Z 26004KT 10SM SCT005 BKN010 OVC021 10/08 A3022 RMK AO2=
201106151651 SPECI KPAE 151651Z 26004KT 10SM SCT005 BKN010 OVC021 10/08 A3022 RMK AO2=
201106151605 SPECI KPAE 151605Z 24005KT 10SM BKN003 BKN017 OVC040 10/08 A3023 RMK AO2=
201106151605 SPECI KPAE 151605Z 24005KT 10SM BKN003 BKN017 OVC040 10/08 A3023 RMK AO2=
201106151559 SPECI KPAE 151559Z 24004KT 10SM SCT005 OVC040 10/08 A3023 RMK AO2=
201106151559 SPECI KPAE 151559Z 24004KT 10SM SCT005 OVC040 10/08 A3023 RMK AO2=
201106151553 METAR KPAE 151553Z 23006KT 10SM BKN005 BKN016 OVC040 10/08 A3023 RMK AO2 RAB1459E50 SLP238 P0001 T01000083=
201106151519 SPECI KPAE 151519Z 28004KT 6SM -RA BR BKN005 BKN016 OVC040 09/07 A3022 RMK AO2 RAB1459 P0001=
201106151519 SPECI KPAE 151519Z 28004KT 6SM -RA BR BKN005 BKN016 OVC040 09/07 A3022 RMK AO2 RAB1459 P0001=
201106151504 SPECI KPAE 151504Z 25004KT 9SM -RA SCT016 OVC040 09/07 A3022 RMK AO2 RAB1459 P0000=
201106151504 SPECI KPAE 151504Z 25004KT 9SM -RA SCT016 OVC040 09/07 A3022 RMK AO2 RAB1459 P0000=
201106151453 METAR KPAE 151453Z 00000KT 10SM SCT005 BKN014 OVC036 09/07 A3022 RMK AO2 RAB1357E26 SLP237 P0001 60002 T00940072 53005=
201106151418 SPECI KPAE 151418Z 00000KT 6SM -RA BR SCT006 BKN014 OVC021 09/08 A3022 RMK AO2 RAB1357 P0001=
201106151418 SPECI KPAE 151418Z 00000KT 6SM -RA BR SCT006 BKN014 OVC021 09/08 A3022 RMK AO2 RAB1357 P0001=
201106151411 SPECI KPAE 151411Z VRB03KT 4SM -RA BR BKN007 OVC012 09/08 A3022 RMK AO2 RAB1357 CIG 003V009 P0001=
201106151411 SPECI KPAE 151411Z VRB03KT 4SM -RA BR BKN007 OVC012 09/08 A3022 RMK AO2 RAB1357 CIG 003V009 P0001=
201106151353 METAR KPAE 151353Z 00000KT 10SM SCT005 BKN018 OVC040 09/08 A3022=
201106151343 SPECI KPAE 151343Z AUTO 00000KT 8SM -RA FEW005 BKN018 OVC040 09/07 A3022 RMK AO2 RAB17 P0001=
201106151343 SPECI KPAE 151343Z AUTO 00000KT 8SM -RA FEW005 BKN018 OVC040 09/07 A3022 RMK AO2 RAB17 P0001=
201106151253 METAR KPAE 151253Z AUTO 02003KT 10SM FEW048 OVC065 09/06 A3021 RMK AO2 SLP231 T00940061=
201106151153 METAR KPAE 151153Z AUTO 32003KT 10SM FEW047 OVC060 09/06 A3021=
201106151053 METAR KPAE 151053Z AUTO 01004KT 10SM FEW019 OVC046 09/06 A3021 RMK AO2 SLP232 T00940061=
201106150953 METAR KPAE 150953Z AUTO 00000KT 10SM OVC050 09/07 A3022 RMK AO2 SLP233 T00890067=
201106150853 METAR KPAE 150853Z AUTO 00000KT 10SM BKN050 BKN110 09/07 A3022 RMK AO2 RAE13 SLP233 P0001 60010 T00890067 58006=
201106150753 METAR KPAE 150753Z AUTO VRB05KT 7SM -RA FEW015 SCT019 OVC042 09/07 A3023 RMK AO2 SLP237 P0005 T00890072 401560089=
201106150653 METAR KPAE 150653Z AUTO 36004KT 7SM -RA SCT017 OVC026 09/08 A3023 RMK AO2 SLP238 P0004 T00940078=
201106150638 SPECI KPAE 150638Z AUTO 01003KT 7SM -RA FEW010 SCT015 OVC026 09/08 A3023 RMK AO2 P0003=
201106150638 SPECI KPAE 150638Z AUTO 01003KT 7SM -RA FEW010 SCT015 OVC026 09/08 A3023 RMK AO2 P0003=
201106150614 SPECI KPAE 150614Z AUTO 01003KT 5SM -RA BR FEW004 BKN014 OVC026 09/08 A3023 RMK AO2 P0001=
201106150614 SPECI KPAE 150614Z AUTO 01003KT 5SM -RA BR FEW004 BKN014 OVC026 09/08 A3023 RMK AO2 P0001=
201106150553 METAR KPAE 150553Z AUTO 02005KT 6SM -RA BR FEW005 BKN022 OVC040 09/08 A3024 RMK AO2 SLP239 P0006 60011 T00940078 10117 20094 58003=
201106150453 METAR KPAE 150453Z 02004KT 9SM -RA SCT009 BKN012 OVC035 09/08 A3024 RMK AO2 SLP243 P0003 T00940078=
201106150420 SPECI KPAE 150420Z 36003KT 10SM -RA FEW009 BKN020 OVC029 09/08 A3024 RMK AO2 P0003=
201106150420 SPECI KPAE 150420Z 36003KT 10SM -RA FEW009 BKN020 OVC029 09/08 A3024 RMK AO2 P0003=
201106150353 METAR KPAE 150353Z 35004KT 8SM -RA OVC027 09/08 A3024 RMK AO2 RAE00B26 SLP242 P0001 T00940078=
201106150253 METAR KPAE 150253Z 36006KT 5SM -RA BR OVC021 10/08 A3024=
201106150219 SPECI KPAE 150219Z 35007KT 10SM FEW008 BKN016 OVC025 10/08 A3025 RMK AO2=
201106150219 SPECI KPAE 150219Z 35007KT 10SM FEW008 BKN016 OVC025 10/08 A3025 RMK AO2=
201106150206 SPECI KPAE 150206Z 00000KT 10SM FEW008 BKN014 OVC034 11/08 A3025 RMK AO2=
201106150206 SPECI KPAE 150206Z 00000KT 10SM FEW008 BKN014 OVC034 11/08 A3025 RMK AO2=
201106150153 METAR KPAE 150153Z 34006KT 10SM SCT008 BKN028 11/08 A3026 RMK AO2 RAB19E29 SLP247 P0000 T01060083=
201106150147 SPECI KPAE 150147Z 35005KT 10SM SCT008 BKN028 11/08 A3026 RMK AO2 RAB19E29 P0000=
201106150147 SPECI KPAE 150147Z 35005KT 10SM SCT008 BKN028 11/08 A3026 RMK AO2 RAB19E29 P0000=
201106150053 METAR KPAE 150053Z 33005KT 10SM OVC042 12/07 A3026 RMK AO2 SLP249 T01170072=
201106142353 METAR KPAE 142353Z 35007KT 10SM OVC048 12/07 A3027 RMK AO2 SLP250 T01220072 10156 20122 50000=
201106142253 METAR KPAE 142253Z VRB05KT 10SM OVC048 13/08 A3027 RMK AO2 SLP250 T01280083=
201106142153 METAR KPAE 142153Z 31006KT 10SM FEW005 SCT010 OVC040 13/08 A3027 RMK AO2 SLP250 T01280078=
201106142053 METAR KPAE 142053Z 00000KT 10SM FEW005 SCT010 OVC055 14/09 A3027 RMK AO2 SLP249 T01440094 58004=
201106142010 SPECI KPAE 142010Z 00000KT 10SM FEW005 SCT010 OVC055 13/09 A3027 RMK AO2=
201106142010 SPECI KPAE 142010Z 00000KT 10SM FEW005 SCT010 OVC055 13/09 A3027 RMK AO2=
201106141953 METAR KPAE 141953Z 00000KT 10SM FEW002 SCT008 BKN017 12/09 A3028 RMK AO2 SLP255 T01220094=
201106141941 SPECI KPAE 141941Z 01004KT 10SM SCT002 BKN017 OVC041 12/09 A3028 RMK AO2=
201106141941 SPECI KPAE 141941Z 01004KT 10SM SCT002 BKN017 OVC041 12/09 A3028 RMK AO2=
201106141853 METAR KPAE 141853Z 28006KT 10SM FEW007 BKN017 OVC055 12/09 A3028 RMK AO2 SLP255 T01220094=
201106141753 METAR KPAE 141753Z 28006KT 10SM FEW017 BKN026 OVC055 12/09 A3028 RMK AO2 SLP254 T01220094 10128 20100 58002=
201106141653 METAR KPAE 141653Z VRB03KT 10SM FEW005 SCT017 OVC023 11/09 A3029 RMK AO2 SLP257 T01060089=
201106141640 SPECI KPAE 141640Z 28005KT 10SM SCT003 BKN017 OVC023 11/09 A3029 RMK AO2=
201106141640 SPECI KPAE 141640Z 28005KT 10SM SCT003 BKN017 OVC023 11/09 A3029 RMK AO2=
201106141618 SPECI KPAE 141618Z 25006KT 10SM BKN003 OVC014 11/09 A3028 RMK AO2 CIG 002V007=
201106141618 SPECI KPAE 141618Z 25006KT 10SM BKN003 OVC014 11/09 A3028 RMK AO2 CIG 002V007=
201106141601 SPECI KPAE 141601Z 25006KT 10SM SCT001 SCT010 OVC020 11/09 A3028 RMK AO2=
201106141601 SPECI KPAE 141601Z 25006KT 10SM SCT001 SCT010 OVC020 11/09 A3028 RMK AO2=
201106141553 METAR KPAE 141553Z 00000KT 10SM BKN016 BKN021 OVC033 12/08 A3028 RMK AO2 SLP256 T01170083=
201106141453 METAR KPAE 141453Z 09004KT 10SM BKN016 BKN023 OVC033 11/08 A3028 RMK AO2 SLP256 T01110083 51006=
201106141353 METAR KPAE 141353Z VRB03KT 10SM SCT005 OVC025 11/08 A3028=
201106141349 SPECI KPAE 141349Z 08003KT 10SM SCT005 OVC025 11/08 A3027 RMK AO2=
201106141349 SPECI KPAE 141349Z 08003KT 10SM SCT005 OVC025 11/08 A3027 RMK AO2=
201106141253 METAR KPAE 141253Z AUTO 07003KT 10SM OVC021 10/08 A3026 RMK AO2 SLP249 T01000083=
201106141238 SPECI KPAE 141238Z AUTO 07005KT 10SM SCT016 BKN022 OVC026 10/08 A3026 RMK AO2=
201106141238 SPECI KPAE 141238Z AUTO 07005KT 10SM SCT016 BKN022 OVC026 10/08 A3026 RMK AO2=
201106141221 SPECI KPAE 141221Z AUTO 07004KT 10SM SCT005 OVC014 10/08 A3026 RMK AO2=
201106141221 SPECI KPAE 141221Z AUTO 07004KT 10SM SCT005 OVC014 10/08 A3026 RMK AO2=
201106141153 METAR KPAE 141153Z AUTO 12004KT 10SM BKN005 OVC010 10/08 A3026 RMK AO2 RAE48 CIG 004V007 SLP247 P0001 60004 70009 T01000083 10117 20100 53006=
201106141105 SPECI KPAE 141105Z AUTO 07004KT 4SM BR BKN005 BKN009 OVC016 10/08 A3025 RMK AO2 RAE04 CIG 003V007 P0000=
201106141105 SPECI KPAE 141105Z AUTO 07004KT 4SM BR BKN005 BKN009 OVC016 10/08 A3025 RMK AO2 RAE04 CIG 003V007 P0000=
201106141053 METAR KPAE 141053Z AUTO 06004KT 3SM -RA BR BKN003 OVC016 10/09 A3025 RMK AO2 CIG 003V008 SLP244 P0002 T01000089=
201106141051 SPECI KPAE 141051Z AUTO 07005KT 4SM -RA BR BKN003 OVC016 10/09 A3025 RMK AO2 CIG 003V008 P0001=
201106141051 SPECI KPAE 141051Z AUTO 07005KT 4SM -RA BR BKN003 OVC016 10/09 A3025 RMK AO2 CIG 003V008 P0001=
201106141033 SPECI KPAE 141033Z AUTO 07004KT 4SM BR SCT003 SCT009 OVC014 10/09 A3025 RMK AO2 RAE29 P0001=
201106141033 SPECI KPAE 141033Z AUTO 07004KT 4SM BR SCT003 SCT009 OVC014 10/09 A3025 RMK AO2 RAE29 P0001=
201106141024 SPECI KPAE 141024Z AUTO 06003KT 3SM -RA BR BKN003 BKN009 OVC014 10/09 A3025 RMK AO2 P0001=
201106141024 SPECI KPAE 141024Z AUTO 06003KT 3SM -RA BR BKN003 BKN009 OVC014 10/09 A3025 RMK AO2 P0001=
201106141015 SPECI KPAE 141015Z AUTO 07004KT 2 1/2SM -RA BR BKN003 BKN007 OVC015 11/09 A3025 RMK AO2 P0001=
201106141015 SPECI KPAE 141015Z AUTO 07004KT 2 1/2SM -RA BR BKN003 BKN007 OVC015 11/09 A3025 RMK AO2 P0001=
201106141008 SPECI KPAE 141008Z AUTO 06003KT 3SM -RA BR BKN005 BKN008 OVC013 11/09 A3025 RMK AO2 CIG 003V006 P0000=
201106141008 SPECI KPAE 141008Z AUTO 06003KT 3SM -RA BR BKN005 BKN008 OVC013 11/09 A3025 RMK AO2 CIG 003V006 P0000=
201106140953 METAR KPAE 140953Z AUTO 07005KT 3SM -RA BR FEW005 OVC011 11/09 A3024 RMK AO2 RAB53 SLP243 P0001 T01060089=
201106140920 SPECI KPAE 140920Z AUTO 00000KT 10SM SCT005 OVC012 11/09 A3024 RMK AO2=
201106140920 SPECI KPAE 140920Z AUTO 00000KT 10SM SCT005 OVC012 11/09 A3024 RMK AO2=
201106140853 METAR KPAE 140853Z AUTO 02003KT 6SM BR FEW004 BKN008 OVC022 11/09 A3023 RMK AO2 RAE05B23E33 SLP238 P0000 60000 T01060089 50008=
201106140840 SPECI KPAE 140840Z AUTO 03004KT 6SM BR SCT008 BKN018 OVC029 11/09 A3023 RMK AO2 RAE05B23E33 P0000=
201106140840 SPECI KPAE 140840Z AUTO 03004KT 6SM BR SCT008 BKN018 OVC029 11/09 A3023 RMK AO2 RAE05B23E33 P0000=
201106140818 SPECI KPAE 140818Z AUTO VRB03KT 7SM FEW008 BKN011 OVC018 11/09 A3023 RMK AO2 RAE05 P0000=
201106140818 SPECI KPAE 140818Z AUTO VRB03KT 7SM FEW008 BKN011 OVC018 11/09 A3023 RMK AO2 RAE05 P0000=
201106140753 METAR KPAE 140753Z AUTO VRB04KT 6SM -RA BR OVC011 11/08 A3023 RMK AO2 RAB48 SLP238 P0000 T01060083 401830106=
201106140724 SPECI KPAE 140724Z AUTO 36004KT 10SM BKN013 OVC020 11/08 A3023 RMK AO2=
201106140724 SPECI KPAE 140724Z AUTO 36004KT 10SM BKN013 OVC020 11/08 A3023 RMK AO2=
201106140653 METAR KPAE 140653Z AUTO 01007KT 10SM OVC022 11/09 A3022 RMK AO2 SLP234 T01110089=
201106140553 METAR KPAE 140553Z AUTO 01005KT 10SM OVC022 11/08 A3021 RMK AO2 SLP229 T01110083 10150 20111 51018=
201106140511 SPECI KPAE 140511Z AUTO 01007KT 10SM FEW009 OVC024 11/08 A3020 RMK AO2=
201106140511 SPECI KPAE 140511Z AUTO 01007KT 10SM FEW009 OVC024 11/08 A3020 RMK AO2=
201106140453 METAR KPAE 140453Z AUTO 02007KT 10SM OVC024 11/09 A3020 RMK AO2 SLP227 T01110089=
201106140353 METAR KPAE 140353Z AUTO 02007KT 10SM BKN026 OVC031 12/08 A3017=
201106140346 SPECI KPAE 140346Z AUTO 03004KT 10SM FEW010 OVC028 12/08 A3017 RMK AO2=
201106140346 SPECI KPAE 140346Z AUTO 03004KT 10SM FEW010 OVC028 12/08 A3017 RMK AO2=
201106140253 METAR KPAE 140253Z 03009KT 10SM SCT033 OVC047 12/09 A3015 RMK AO2 SLP212 T01220089 51020=
201106140153 METAR KPAE 140153Z 01008KT 10SM OVC045 13/09 A3013 RMK AO2 SLP204 T01330094=
201106140053 METAR KPAE 140053Z 35008KT 10SM BKN041 OVC048 14/09 A3012 RMK AO2 SLP198 T01390094=
201106132353 METAR KPAE 132353Z 36007KT 340V060 10SM FEW036 BKN044 15/10 A3009 RMK AO2 SLP191 60005 T01500100 10183 20139 51022=
201106132253 METAR KPAE 132253Z 35006KT 10SM FEW046 BKN070 16/12 A3008 RMK AO2 RAE10 SLP185 P0001 T01560117=
201106132153 METAR KPAE 132153Z 31006KT 6SM -RA BR BKN033 BKN049 OVC060 14/12 A3006 RMK AO2 SLP178 P0004 T01390117=
201106132053 METAR KPAE 132053Z 20012KT 10SM -RA BKN030 OVC037 18/10 A3003=
201106131953 METAR KPAE 131953Z 19018KT 10SM BKN021 OVC027 17/10 A3001 RMK AO2 SLP161 T01720100=
201106131853 METAR KPAE 131853Z COR 19018G22KT 10SM BKN021 OVC027 17/11 A2998 RMK AO2 SLP152 T01720106=
201106131845 SPECI KPAE 131845Z 19014G21KT 10SM BKN021 OVC027 17/11 A2998 RMK AO2=
201106131845 SPECI KPAE 131845Z 19014G21KT 10SM BKN021 OVC027 17/11 A2998 RMK AO2=
201106131753 METAR KPAE 131753Z 20018G24KT 10SM OVC014 15/11 A2997 RMK AO2 SLP146 60000 T01500106 10150 20117 51013=
201106131751 SPECI KPAE 131751Z 19014G22KT 10SM OVC014 15/11 A2997 RMK AO2=
201106131751 SPECI KPAE 131751Z 19014G22KT 10SM OVC014 15/11 A2997 RMK AO2=
201106131653 METAR KPAE 131653Z 19013G21KT 10SM OVC008 14/11 A2995 RMK AO2 SLP141 T01390111=
201106131553 METAR KPAE 131553Z 18012G18KT 10SM BKN006 OVC012 13/11 A2993 RMK AO2 CIG 004V010 SLP134 T01280111=
201106131500 SPECI KPAE 131500Z 16011KT 9SM BKN006 OVC010 12/11 A2992 RMK AO2 CIG 005V009=
201106131500 SPECI KPAE 131500Z 16011KT 9SM BKN006 OVC010 12/11 A2992 RMK AO2 CIG 005V009=
201106131453 METAR KPAE 131453Z 17009KT 2 1/2SM BR BKN006 BKN010 OVC022 12/11 A2992 RMK AO2 RAE00 SLP131 P0000 60000 T01220106 51012=
201106131357 SPECI KPAE 131357Z 17010KT 2 1/2SM -RA BR BKN006 BKN010 OVC022 12/11 A2991 RMK AO2 P0000=
201106131357 SPECI KPAE 131357Z 17010KT 2 1/2SM -RA BR BKN006 BKN010 OVC022 12/11 A2991 RMK AO2 P0000=
201106131353 METAR KPAE 131353Z 16010KT 3SM -RA BR BKN006 BKN010 OVC020 12/11 A2991 RMK AO2 RAB42 CIG 004V008 SLP127 P0000 T01220106=
201106131346 SPECI KPAE 131346Z AUTO 18009KT 2SM -RA BR BKN006 OVC016 12/11 A2991 RMK AO2 RAB42 CIG 004V009 P0000=
201106131346 SPECI KPAE 131346Z AUTO 18009KT 2SM -RA BR BKN006 OVC016 12/11 A2991 RMK AO2 RAB42 CIG 004V009 P0000=
201106131253 METAR KPAE 131253Z AUTO 16009KT 10SM BKN006 OVC022 12/11 A2989 RMK AO2 RAB27E37 CIG 004V011 SLP121 P0000 T01170106=
201106131217 SPECI KPAE 131217Z AUTO 16009KT 10SM OVC006 12/10 A2989 RMK AO2 CIG 004V011=
201106131217 SPECI KPAE 131217Z AUTO 16009KT 10SM OVC006 12/10 A2989 RMK AO2 CIG 004V011=
201106131153 METAR KPAE 131153Z AUTO 16008KT 10SM BKN004 OVC049 12/10 A2988 RMK AO2 CIG 003V008 SLP117 60004 70004 T01170100 10150 20117 53002=
201106131136 SPECI KPAE 131136Z AUTO 15008KT 10SM BKN004 BKN008 OVC050 12/10 A2988 RMK AO2=
201106131136 SPECI KPAE 131136Z AUTO 15008KT 10SM BKN004 BKN008 OVC050 12/10 A2988 RMK AO2=
201106131107 SPECI KPAE 131107Z AUTO 16011KT 10SM FEW004 SCT047 OVC060 12/10 A2987 RMK AO2=
201106131107 SPECI KPAE 131107Z AUTO 16011KT 10SM FEW004 SCT047 OVC060 12/10 A2987 RMK AO2=
201106131053 METAR KPAE 131053Z AUTO 16010KT 10SM SCT040 BKN047 OVC060 12/10 A2987 RMK AO2 RAB00E30 SLP115 P0001 T01170100=
201106130953 METAR KPAE 130953Z AUTO 17008KT 10SM OVC034 12/10 A2988=
201106130853 METAR KPAE 130853Z AUTO 19007KT 10SM -RA OVC042 12/09 A2988 RMK AO2 SLP115 P0002 60003 T01170094 53004=
201106130753 METAR KPAE 130753Z AUTO 21005KT 7SM -RA BKN036 OVC050 13/09 A2987 RMK AO2 RAB07 SLP114 P0001 T01280089 401940094=
201106130653 METAR KPAE 130653Z AUTO 18006KT 10SM FEW040 OVC055 14/08 A2986 RMK AO2 SLP111 T01440078=
201106130553 METAR KPAE 130553Z AUTO 17006KT 10SM OVC070 15/07 A2986 RMK AO2 SLP111 T01500067 10189 20139 50000=
201106130453 METAR KPAE 130453Z 19007KT 10SM BKN085 OVC100 15/07 A2987 RMK AO2 SLP114 T01500067=
201106130353 METAR KPAE 130353Z 20004KT 10SM BKN070 OVC090 15/08 A2986 RMK AO2 SLP112 T01500078=
201106130253 METAR KPAE 130253Z 03003KT 10SM SCT065 14/09 A2986 RMK AO2 SLP112 T01390089 53006=
201106130153 METAR KPAE 130153Z 27003KT 10SM BKN085 16/08 A2986 RMK AO2 SLP109 T01610083=
201106130053 METAR KPAE 130053Z 22007KT 10SM CLR 18/07 A2985 RMK AO2 SLP107 T01830067=
201106122353 METAR KPAE 122353Z 25008KT 10SM FEW050 18/07 A2984 RMK AO2 SLP106 T01830072 10194 20144 58006=
201106122253 METAR KPAE 122253Z 25008KT 220V280 10SM CLR 19/07 A2985 RMK AO2 SLP107 T01890072=
201106122153 METAR KPAE 122153Z 25006G15KT 10SM CLR 18/07 A2986 RMK AO2 SLP111 T01830072=
201106122053 METAR KPAE 122053Z 25009KT 10SM CLR 18/08 A2986 RMK AO2 SLP112 T01830083 58009=
201106121953 METAR KPAE 121953Z 25008KT 10SM FEW033 17/09 A2988 RMK AO2 SLP117 T01670089=
201106121853 METAR KPAE 121853Z 26008KT 10SM FEW030 16/09 A2988=
201106121753 METAR KPAE 121753Z 00000KT 10SM SCT020 14/09 A2989 RMK AO2 SLP121 T01440089 10150 20094 58005=
201106121653 METAR KPAE 121653Z 00000KT 10SM SCT020 14/08 A2989=
201106121553 METAR KPAE 121553Z 00000KT 10SM CLR 13/08 A2990 RMK AO2 SLP125 T01330083=
201106121453 METAR KPAE 121453Z 36003KT 10SM BKN036 12/08 A2990 RMK AO2 SLP126 T01220083 56001=
201106121353 METAR KPAE 121353Z 02003KT 10SM BKN034 11/08 A2991 RMK AO2 SLP126 T01110083=
201106121253 METAR KPAE 121253Z AUTO 00000KT 10SM CLR 10/08 A2990 RMK AO2 SLP124 T01000078=
201106121153 METAR KPAE 121153Z AUTO VRB03KT 10SM FEW006 10/08 A2990 RMK AO2 SLP126 T01000078 10111 20094 58007=
201106121146 SPECI KPAE 121146Z AUTO 04004KT 10SM FEW006 10/08 A2991 RMK AO2=
201106121146 SPECI KPAE 121146Z AUTO 04004KT 10SM FEW006 10/08 A2991 RMK AO2=
201106121101 SPECI KPAE 121101Z AUTO 02003KT 10SM BKN006 09/08 A2992 RMK AO2=
201106121101 SPECI KPAE 121101Z AUTO 02003KT 10SM BKN006 09/08 A2992 RMK AO2=
201106121053 METAR KPAE 121053Z AUTO 02006KT 10SM SCT006 09/08 A2992 RMK AO2 SLP131 T00940078=
201106120953 METAR KPAE 120953Z AUTO 03003KT 10SM CLR 09/07 A2993 RMK AO2 SLP133 T00940072=
201106120853 METAR KPAE 120853Z AUTO 02005KT 10SM CLR 11/08 A2993 RMK AO2 SLP133 T01060078 56006=
201106120753 METAR KPAE 120753Z AUTO 01004KT 10SM CLR 11/08 A2993 RMK AO2 SLP133 T01060078 401720100=
201106120653 METAR KPAE 120653Z AUTO 01004KT 10SM CLR 11/07 A2993=
201106120553 METAR KPAE 120553Z AUTO 02005KT 10SM CLR 11/08 A2994 RMK AO2 SLP141 T01110078 10172 20111 50003=
201106120453 METAR KPAE 120453Z AUTO 02004KT 10SM SCT075 12/08 A2995 RMK AO2 SLP141 T01170078=
201106120353 METAR KPAE 120353Z AUTO 34004KT 10SM CLR 13/08 A2994 RMK AO2 SLP138 T01280078=
201106120253 METAR KPAE 120253Z 34005KT 10SM FEW070 16/07 A2994 RMK AO2 SLP137 T01560072 55002=
201106120153 METAR KPAE 120153Z 31004KT 10SM FEW070 16/07 A2993 RMK AO2 SLP136 T01610072=
201106120053 METAR KPAE 120053Z 29005KT 10SM FEW070 17/06 A2994 RMK AO2 SLP138 T01670056=
201106112353 METAR KPAE 112353Z 31006KT 10SM FEW049 BKN070 16/06 A2994 RMK AO2 SLP139 T01610061 10167 20128 58010=
201106112253 METAR KPAE 112253Z VRB04KT 10SM FEW049 OVC070 16/07 A2995 RMK AO2 SLP143 T01560072=
201106112153 METAR KPAE 112153Z VRB04KT 10SM SCT029 OVC049 16/07 A2996 RMK AO2 SLP146 T01610072=
201106112053 METAR KPAE 112053Z 36005KT 10SM OVC025 14/08 A2997 RMK AO2 SLP149 T01440078 58002=
201106112035 SPECI KPAE 112035Z 00000KT 10SM BKN025 OVC070 14/08 A2997 RMK AO2=
201106112035 SPECI KPAE 112035Z 00000KT 10SM BKN025 OVC070 14/08 A2997 RMK AO2=
201106111953 METAR KPAE 111953Z 02005KT 10SM BKN049 OVC070 14/07 A2998 RMK AO2 SLP150 T01440072=
201106111853 METAR KPAE 111853Z VRB03KT 10SM SCT020 OVC065 13/07 A2998 RMK AO2 SLP153 T01330072=
201106111753 METAR KPAE 111753Z COR 34005KT 10SM SCT020 OVC065 13/07 A2998 RMK AO2 SLP152 T01280072 10133 20100 58002=
201106111653 METAR KPAE 111653Z 35004KT 10SM OVC065 12/07 A2998 RMK AO2 SLP154 T01220072=
201106111553 METAR KPAE 111553Z 00000KT 10SM OVC065 12/08 A2998 RMK AO2 SLP154 T01170078=
201106111500 SPECI KPAE 111500Z 33003KT 10SM FEW027 OVC060 11/07 A2998 RMK AO2=
201106111500 SPECI KPAE 111500Z 33003KT 10SM FEW027 OVC060 11/07 A2998 RMK AO2=
201106111453 METAR KPAE 111453Z 00000KT 10SM BKN027 OVC060 11/07 A2998 RMK AO2 SLP154 T01110072 56003=
201106111353 METAR KPAE 111353Z 00000KT 10SM BKN027 OVC032 10/07 A2999 RMK AO2 SLP155 T01000072=
201106111314 SPECI KPAE 111314Z AUTO 35003KT 10SM BKN029 OVC060 10/07 A2998 RMK AO2=
201106111314 SPECI KPAE 111314Z AUTO 35003KT 10SM BKN029 OVC060 10/07 A2998 RMK AO2=
201106111253 METAR KPAE 111253Z AUTO 00000KT 10SM SCT024 SCT032 OVC060 10/07 A2998 RMK AO2 SLP154 T01000067=
201106111207 SPECI KPAE 111207Z AUTO 35004KT 10SM FEW025 BKN036 OVC060 10/07 A2999 RMK AO2=
201106111207 SPECI KPAE 111207Z AUTO 35004KT 10SM FEW025 BKN036 OVC060 10/07 A2999 RMK AO2=
201106111153 METAR KPAE 111153Z AUTO 00000KT 10SM BKN025 OVC060 10/07 A2999 RMK AO2 SLP156 T01000072 10111 20100 58007=
201106111144 SPECI KPAE 111144Z AUTO 00000KT 10SM BKN025 OVC060 10/07 A2999 RMK AO2=
201106111144 SPECI KPAE 111144Z AUTO 00000KT 10SM BKN025 OVC060 10/07 A2999 RMK AO2=
201106111053 METAR KPAE 111053Z AUTO 00000KT 10SM BKN038 OVC060 10/08 A3000 RMK AO2 SLP160 T01000078=
201106111032 SPECI KPAE 111032Z AUTO 35003KT 10SM FEW026 BKN034 OVC060 11/08 A3000 RMK AO2=
201106111032 SPECI KPAE 111032Z AUTO 35003KT 10SM FEW026 BKN034 OVC060 11/08 A3000 RMK AO2=
201106110953 METAR KPAE 110953Z AUTO 35003KT 10SM BKN026 OVC031 11/07 A3000 RMK AO2 SLP161 T01060072=
201106110853 METAR KPAE 110853Z AUTO 01004KT 10SM BKN028 OVC060 11/07 A3001=
201106110843 SPECI KPAE 110843Z AUTO 01004KT 10SM BKN028 OVC060 11/07 A3001 RMK AO2=
201106110843 SPECI KPAE 110843Z AUTO 01004KT 10SM BKN028 OVC060 11/07 A3001 RMK AO2=
201106110807 SPECI KPAE 110807Z AUTO 36003KT 10SM SCT028 OVC060 11/07 A3002 RMK AO2=
201106110807 SPECI KPAE 110807Z AUTO 36003KT 10SM SCT028 OVC060 11/07 A3002 RMK AO2=
201106110753 METAR KPAE 110753Z AUTO VRB03KT 10SM BKN028 OVC060 11/07 A3002 RMK AO2 SLP166 T01110072 401390106=
201106110709 SPECI KPAE 110709Z AUTO 36005KT 10SM BKN028 OVC055 11/07 A3003 RMK AO2=
201106110709 SPECI KPAE 110709Z AUTO 36005KT 10SM BKN028 OVC055 11/07 A3003 RMK AO2=
201106110653 METAR KPAE 110653Z AUTO 01005KT 10SM FEW024 OVC055 11/07 A3003 RMK AO2 SLP169 T01110067=
201106110553 METAR KPAE 110553Z AUTO 35005KT 10SM OVC049 11/07 A3003 RMK AO2 SLP170 T01110067 10139 20111 57006=
201106110453 METAR KPAE 110453Z AUTO 36004KT 10SM FEW026 OVC049 11/07 A3004 RMK AO2 SLP173 T01110072=
201106110353 METAR KPAE 110353Z AUTO 35006KT 10SM FEW023 BKN035 OVC045 12/06 A3004 RMK AO2 SLP173 T01170061=
201106110253 METAR KPAE 110253Z 36006KT 10SM OVC047 12/06 A3005=
201106110153 METAR KPAE 110153Z VRB06KT 10SM OVC049 12/07 A3005 RMK AO2 SLP178 T01220067=
201106110053 METAR KPAE 110053Z 36006KT 10SM OVC045 13/08 A3007 RMK AO2 SLP182 T01330083=
201106102353 METAR KPAE 102353Z 36005KT 10SM OVC040 13/09 A3007 RMK AO2 SLP185 T01280094 10139 20111 58009=
201106102300 SPECI KPAE 102300Z AUTO VRB03KT 10SM OVC034 13/10 A3009 RMK AO2 TSNO=
201106102300 SPECI KPAE 102300Z AUTO VRB03KT 10SM OVC034 13/10 A3009 RMK AO2 TSNO=
201106102253 METAR KPAE 102253Z AUTO 35004KT 10SM BKN016 OVC034 13/09 A3009 RMK AO2 SLP190 T01330094 TSNO=
201106102153 METAR KPAE 102153Z 03003KT 10SM SCT008 BKN018 OVC024 13/09 A3009 RMK AO2 SLP191 T01330094=
201106102145 SPECI KPAE 102145Z VRB03KT 10SM BKN008 BKN013 OVC018 13/09 A3009 RMK AO2=
201106102145 SPECI KPAE 102145Z VRB03KT 10SM BKN008 BKN013 OVC018 13/09 A3009 RMK AO2=
201106102142 SPECI KPAE 102142Z 00000KT 10SM FEW008 BKN013 OVC018 13/10 A3009 RMK AO2=
201106102142 SPECI KPAE 102142Z 00000KT 10SM FEW008 BKN013 OVC018 13/10 A3009 RMK AO2=
201106102053 METAR KPAE 102053Z 00000KT 10SM OVC008 13/09 A3010 RMK AO2 SLP193 T01280094 58008=
201106101953 METAR KPAE 101953Z VRB04KT 10SM OVC005 12/09 A3011=
201106101853 METAR KPAE 101853Z 03003KT 10SM OVC005 12/08 A3012 RMK AO2 SLP201 T01170083=
201106101753 METAR KPAE 101753Z 02005KT 10SM OVC008 12/09 A3012 RMK AO2 SLP202 T01170089 10117 20106 50002=
201106101653 METAR KPAE 101653Z 35004KT 3SM BR OVC008 11/09 A3013 RMK AO2 SLP203 T01110089=
201106101553 METAR KPAE 101553Z VRB03KT 10SM OVC008 11/09 A3013 RMK AO2 CIG 006V010 SLP202 T01110089=
201106101453 METAR KPAE 101453Z 00000KT 10SM OVC008 11/09 A3012 RMK AO2 CIG 006V012 SLP200 T01110089 53003=
201106101353 METAR KPAE 101353Z 00000KT 10SM BKN008 OVC013 11/09 A3011 RMK AO2 SLP197 T01110089=
201106101349 SPECI KPAE 101349Z AUTO 35004KT 10SM BKN008 OVC013 11/09 A3011 RMK AO2=
201106101349 SPECI KPAE 101349Z AUTO 35004KT 10SM BKN008 OVC013 11/09 A3011 RMK AO2=
201106101337 SPECI KPAE 101337Z AUTO VRB03KT 10SM SCT008 OVC013 11/09 A3011 RMK AO2=
201106101337 SPECI KPAE 101337Z AUTO VRB03KT 10SM SCT008 OVC013 11/09 A3011 RMK AO2=
201106101318 SPECI KPAE 101318Z AUTO 01004KT 10SM OVC013 11/09 A3011 RMK AO2=
201106101318 SPECI KPAE 101318Z AUTO 01004KT 10SM OVC013 11/09 A3011 RMK AO2=
201106101253 METAR KPAE 101253Z AUTO VRB03KT 10SM SCT006 OVC015 11/09 A3011 RMK AO2 SLP195 T01110089=
201106101207 SPECI KPAE 101207Z AUTO 00000KT 10SM BKN006 OVC017 11/09 A3011=
201106101207 SPECI KPAE 101207Z AUTO 00000KT 10SM BKN006 OVC017 11/09 A3011 RMK AO2=
201106101153 METAR KPAE 101153Z AUTO 02003KT 10SM SCT006 OVC017 11/09 A3011 RMK AO2 SLP194 T01110089 10122 20106 56003=
201106101148 SPECI KPAE 101148Z AUTO 03004KT 10SM SCT006 OVC017 11/09 A3011 RMK AO2=
201106101148 SPECI KPAE 101148Z AUTO 03004KT 10SM SCT006 OVC017 11/09 A3011 RMK AO2=
201106101121 SPECI KPAE 101121Z AUTO 35003KT 10SM BKN006 OVC019 11/09 A3011 RMK AO2=
201106101121 SPECI KPAE 101121Z AUTO 35003KT 10SM BKN006 OVC019 11/09 A3011 RMK AO2=
201106101053 METAR KPAE 101053Z AUTO 35004KT 10SM FEW006 BKN021 OVC120 11/09 A3011 RMK AO2 SLP196 T01060089=
201106101046 SPECI KPAE 101046Z AUTO 36003KT 10SM FEW006 BKN019 BKN120 11/09 A3011 RMK AO2=
201106101046 SPECI KPAE 101046Z AUTO 36003KT 10SM FEW006 BKN019 BKN120 11/09 A3011 RMK AO2=
201106100953 METAR KPAE 100953Z AUTO 00000KT 10SM FEW009 OVC100 11/09 A3012 RMK AO2 SLP199 T01110089=
201106100853 METAR KPAE 100853Z AUTO VRB05KT 10SM FEW006 BKN085 OVC120 11/09 A3012 RMK AO2 SLP200 T01110089 50000=
201106100838 SPECI KPAE 100838Z AUTO 35004KT 10SM SCT006 OVC120 11/09 A3012 RMK AO2=
201106100838 SPECI KPAE 100838Z AUTO 35004KT 10SM SCT006 OVC120 11/09 A3012 RMK AO2=
201106100753 METAR KPAE 100753Z AUTO 35004KT 10SM BKN006 BKN090 12/09 A3012 RMK AO2 SLP201 T01170094 401890117=
201106100751 SPECI KPAE 100751Z AUTO 35004KT 10SM BKN006 BKN090 12/09 A3012 RMK AO2 401890117=
201106100751 SPECI KPAE 100751Z AUTO 35004KT 10SM BKN006 BKN090 12/09 A3012 RMK AO2 401890117=
201106100742 SPECI KPAE 100742Z AUTO 34003KT 10SM SCT006 BKN090 12/09 A3012 RMK AO2=
201106100742 SPECI KPAE 100742Z AUTO 34003KT 10SM SCT006 BKN090 12/09 A3012 RMK AO2=
201106100653 METAR KPAE 100653Z AUTO 02005KT 10SM BKN090 12/09 A3012 RMK AO2 SLP200 T01170094=
201106100553 METAR KPAE 100553Z AUTO 36006KT 10SM SCT005 12/09 A3013 RMK AO2 SLP202 T01170094 10183 20117 55000=
201106100522 SPECI KPAE 100522Z AUTO VRB06KT 10SM FEW005 BKN055 12/10 A3013 RMK AO2=
201106100522 SPECI KPAE 100522Z AUTO VRB06KT 10SM FEW005 BKN055 12/10 A3013 RMK AO2=
201106100453 METAR KPAE 100453Z AUTO VRB05KT 10SM OVC050 12/09 A3012 RMK AO2 SLP200 T01220094=
201106100353 METAR KPAE 100353Z AUTO 36007KT 10SM CLR 12/09 A3012 RMK AO2 SLP199 T01220094=
201106100253 METAR KPAE 100253Z 01006KT 10SM CLR 13/09 A3013 RMK AO2 SLP202 T01330094 58005=
201106100153 METAR KPAE 100153Z VRB04KT 10SM BKN045 16/11 A3013 RMK AO2 SLP204 T01560106=
201106100053 METAR KPAE 100053Z 02003KT 10SM CLR 18/11 A3014 RMK AO2 SLP204 T01830106=
201106092353 METAR KPAE 092353Z 27004KT 10SM SCT044 18/09 A3014 RMK AO2 SLP205 T01830094 10189 20144 58007=
201106092253 METAR KPAE 092253Z AUTO 33004KT 10SM OVC042 18/11 A3015 RMK AO2 SLP209 T01780106 TSNO=
201106092153 METAR KPAE 092153Z 24003KT 10SM BKN033 17/09 A3016 RMK AO2 SLP210 T01720089=
201106092053 METAR KPAE 092053Z 00000KT 10SM BKN038 17/09 A3016 RMK AO2 SLP212 T01720094 58007=
201106091953 METAR KPAE 091953Z 29005KT 10SM BKN036 16/09 A3017 RMK AO2 SLP217 T01610094=
201106091911 SPECI KPAE 091911Z 27003KT 10SM BKN032 16/09 A3017 RMK AO2=
201106091911 SPECI KPAE 091911Z 27003KT 10SM BKN032 16/09 A3017=
201106091853 METAR KPAE 091853Z 23003KT 10SM BKN028 16/10 A3017 RMK AO2 SLP218 T01560100=
201106091830 SPECI KPAE 091830Z 26004KT 10SM FEW020 BKN028 15/09 A3018 RMK AO2=
201106091830 SPECI KPAE 091830Z 26004KT 10SM FEW020 BKN028 15/09 A3018 RMK AO2=
201106091753 METAR KPAE 091753Z 22003KT 10SM BKN050 14/09 A3018 RMK AO2 SLP220 T01440094 10144 20117 58001=
201106091653 METAR KPAE 091653Z VRB06KT 10SM OVC050 14/09 A3018 RMK AO2 SLP221 T01440089=
201106091618 SPECI KPAE 091618Z 20004KT 10SM SCT014 OVC050 13/09 A3018 RMK AO2=
201106091618 SPECI KPAE 091618Z 20004KT 10SM SCT014 OVC050 13/09 A3018 RMK AO2=
201106091600 SPECI KPAE 091600Z 15005KT 10SM BKN012 OVC050 13/09 A3018 RMK AO2=
201106091600 SPECI KPAE 091600Z 15005KT 10SM BKN012 OVC050 13/09 A3018 RMK AO2=
201106091553 METAR KPAE 091553Z 17005KT 10SM SCT009 OVC050 13/09 A3018 RMK AO2 SLP221 T01280094=
201106091453 METAR KPAE 091453Z 18004KT 10SM SCT009 OVC050 12/09 A3018 RMK AO2 SLP221 T01220094 51006=
201106091353 METAR KPAE 091353Z 19005KT 10SM SCT009 OVC050 12/09 A3018 RMK AO2 SLP219 T01170094=
201106091253 METAR KPAE 091253Z 19004KT 10SM OVC009 12/09 A3017 RMK AO2 SLP217 T01170094=
201106091212 SPECI KPAE 091212Z 20004KT 10SM OVC009 12/09 A3017 RMK AO2=
201106091212 SPECI KPAE 091212Z 20004KT 10SM OVC009 12/09 A3017 RMK AO2=
201106091153 METAR KPAE 091153Z 18005KT 10SM OVC011 12/09 A3016 RMK AO2 SLP214 70003 T01170089 10133 20117 53000=
201106091138 SPECI KPAE 091138Z 20007KT 10SM BKN011 OVC055 12/09 A3016 RMK AO2=
201106091138 SPECI KPAE 091138Z 20007KT 10SM BKN011 OVC055 12/09 A3016 RMK AO2=
201106091111 SPECI KPAE 091111Z 18005KT 10SM SCT011 OVC055 12/09 A3016 RMK AO2=
201106091111 SPECI KPAE 091111Z 18005KT 10SM SCT011 OVC055 12/09 A3016 RMK AO2=
201106091053 METAR KPAE 091053Z 18003KT 10SM BKN011 OVC050 12/09 A3016 RMK AO2 SLP214 T01170094=
201106091046 SPECI KPAE 091046Z 19004KT 10SM BKN011 OVC050 12/09 A3016 RMK AO2=
201106091046 SPECI KPAE 091046Z 19004KT 10SM BKN011 OVC050 12/09 A3016 RMK AO2=
201106090953 METAR KPAE 090953Z 17005KT 10SM OVC050 12/09 A3016 RMK AO2 SLP214 T01220094=
201106090853 METAR KPAE 090853Z 16007KT 10SM OVC046 12/09 A3016=
201106090753 METAR KPAE 090753Z 18008KT 10SM OVC048 12/09 A3016 RMK AO2 SLP213 T01220094 401780100=
201106090653 METAR KPAE 090653Z 15007KT 10SM FEW048 13/09 A3016 RMK AO2 SLP213 T01280094=
201106090553 METAR KPAE 090553Z 16007KT 10SM FEW022 SCT100 13/09 A3016 RMK AO2 SLP213 T01330094 10178 20133 53009=
201106090453 METAR KPAE 090453Z 16006KT 10SM FEW090 14/09 A3015 RMK AO2 SLP210 T01390094=
201106090353 METAR KPAE 090353Z 16008KT 10SM CLR 14/09 A3013 RMK AO2 SLP204 T01440089=
201106090253 METAR KPAE 090253Z 17008KT 10SM CLR 16/09 A3013 RMK AO2 SLP204 T01560089 51004=
201106090153 METAR KPAE 090153Z 17008KT 10SM SCT029 OVC038 17/09 A3013 RMK AO2 SLP202 T01670089=
201106090100 SPECI KPAE 090100Z 16008KT 10SM BKN029 17/09 A3012 RMK AO2=
201106090100 SPECI KPAE 090100Z 16008KT 10SM BKN029 17/09 A3012 RMK AO2=
201106090053 METAR KPAE 090053Z VRB06KT 10SM OVC029 17/09 A3013 RMK AO2 SLP201 T01720089=
201106082353 METAR KPAE 082353Z 25004KT 10SM BKN027 OVC035 16/09 A3012 RMK AO2 SLP199 T01560094 10161 20122 50001=
201106082333 SPECI KPAE 082333Z AUTO 25004KT 10SM OVC032 16/09 A3012 RMK AO2 TSNO=
201106082333 SPECI KPAE 082333Z AUTO 25004KT 10SM OVC032 16/09 A3012 RMK AO2 TSNO=
201106082253 METAR KPAE 082253Z AUTO 20005KT 10SM BKN024 BKN033 16/09 A3012 RMK AO2 SLP200 T01560089 TSNO=
201106082153 METAR KPAE 082153Z 20006KT 10SM BKN024 OVC033 15/09 A3012 RMK AO2 SLP199 T01500089=
201106082053 METAR KPAE 082053Z 19009KT 10SM SCT013 OVC021 14/08 A3012 RMK AO2 SLP199 T01390083 52004=
201106081953 METAR KPAE 081953Z 18007KT 10SM BKN013 OVC020 13/08 A3011 RMK AO2 SLP198 T01330083=
201106081920 SPECI KPAE 081920Z 16006KT 10SM BKN013 OVC021 13/09 A3011 RMK AO2=
201106081920 SPECI KPAE 081920Z 16006KT 10SM BKN013 OVC021 13/09 A3011 RMK AO2=
201106081853 METAR KPAE 081853Z 16005KT 10SM BKN009 BKN015 OVC021 13/09 A3011 RMK AO2 SLP197 T01280089=
201106081803 SPECI KPAE 081803Z 17005KT 10SM BKN009 BKN015 OVC030 12/09 A3010 RMK AO2=
201106081803 SPECI KPAE 081803Z 17005KT 10SM BKN009 BKN015 OVC030 12/09 A3010 RMK AO2=
201106081753 METAR KPAE 081753Z 17004KT 10SM SCT009 BKN015 OVC030 12/09 A3011 RMK AO2 SLP195 60003 T01170089 10117 20100 53007=
201106081703 SPECI KPAE 081703Z 17005KT 9SM BKN007 OVC015 11/09 A3010 RMK AO2=
201106081703 SPECI KPAE 081703Z 17005KT 9SM BKN007 OVC015 11/09 A3010 RMK AO2=
201106081653 METAR KPAE 081653Z 19005KT 9SM SCT009 OVC015 11/09 A3010 RMK AO2 RAE13 SLP193 P0000 T01110089=
201106081553 METAR KPAE 081553Z 15005KT 7SM -RA BKN009 OVC023 11/08 A3009 RMK AO2 CIG 006V012 SLP190 P0001 T01060083=
201106081453 METAR KPAE 081453Z 15003KT 7SM -RA BKN007 OVC014 10/08 A3008 RMK AO2 SLP188 P0001 60002 T01000083 53009=
201106081446 SPECI KPAE 081446Z 16003KT 8SM BKN007 OVC014 11/08 A3008 RMK AO2 RAE40 P0001=
201106081446 SPECI KPAE 081446Z 16003KT 8SM BKN007 OVC014 11/08 A3008 RMK AO2 RAE40 P0001=
201106081423 SPECI KPAE 081423Z 16005KT 6SM -RA BR SCT007 OVC012 10/08 A3008 RMK AO2 P0001=
201106081423 SPECI KPAE 081423Z 16005KT 6SM -RA BR SCT007 OVC012 10/08 A3008 RMK AO2 P0001=
201106081353 METAR KPAE 081353Z 12003KT 6SM -RA BR BKN009 OVC012 11/08 A3007 RMK AO2 RAE23B48 CIG 007V011 SLP183 P0001 T01060083=
201106081344 SPECI KPAE 081344Z AUTO 11004KT 7SM BKN009 OVC012 11/08 A3007 RMK AO2 RAE23 CIG 007V012 P0001=
201106081344 SPECI KPAE 081344Z AUTO 11004KT 7SM BKN009 OVC012 11/08 A3007 RMK AO2 RAE23 CIG 007V012 P0001=
201106081300 METAR KPAE NIL=
201106081253 METAR KPAE 081253Z AUTO 00000KT 10SM -RA OVC012 11/08 A3006 RMK AO2 RAB32 SLP180 P0000 T01060078=
201106081153 METAR KPAE 081153Z AUTO 21004KT 10SM OVC010 11/08 A3005=
201106081053 METAR KPAE 081053Z AUTO 21005KT 10SM BKN013 OVC055 11/08 A3005 RMK AO2 SLP176 T01060078=
201106081006 SPECI KPAE 081006Z AUTO 19005KT 10SM BKN011 OVC060 11/08 A3004 RMK AO2 CIG 009V012=
201106081006 SPECI KPAE 081006Z AUTO 19005KT 10SM BKN011 OVC060 11/08 A3004 RMK AO2 CIG 009V012=
201106080953 METAR KPAE 080953Z AUTO 19007KT 10SM FEW009 OVC065 11/08 A3004 RMK AO2 SLP173 T01060083=
201106080923 SPECI KPAE 080923Z AUTO 19005KT 10SM SCT009 OVC065 11/08 A3004 RMK AO2=
201106080923 SPECI KPAE 080923Z AUTO 19005KT 10SM SCT009 OVC065 11/08 A3004 RMK AO2=
201106080853 METAR KPAE 080853Z AUTO 18005KT 10SM BKN049 OVC070 11/09 A3005=
201106080753 METAR KPAE 080753Z AUTO 18005KT 10SM BKN040 BKN047 OVC080 11/09 A3005 RMK AO2 SLP177 T01110089 401390100=
201106080653 METAR KPAE 080653Z AUTO 18007KT 10SM OVC036 11/08 A3006 RMK AO2 SLP178 T01110083=
201106080553 METAR KPAE 080553Z AUTO 19006KT 10SM BKN050 OVC075 11/08 A3006 RMK AO2 SLP179 60001 T01110083 10128 20100 50008=
201106080453 METAR KPAE 080453Z AUTO 23003KT 10SM SCT050 OVC060 11/08 A3006 RMK AO2 SLP181 T01060083=
201106080353 METAR KPAE 080353Z AUTO 21004KT 10SM CLR 11/09 A3005 RMK AO2 SLP175 T01110089=
201106080324 SPECI KPAE 080324Z AUTO 26003KT 10SM SCT017 BKN045 11/09 A3004 RMK AO2=
201106080324 SPECI KPAE 080324Z AUTO 26003KT 10SM SCT017 BKN045 11/09 A3004 RMK AO2=
201106080253 METAR KPAE 080253Z 19004KT 10SM BKN017 12/08 A3003 RMK AO2 SLP171 60001 T01220083 53006=
201106080153 METAR KPAE 080153Z 00000KT 10SM FEW010 BKN060 13/08 A3002 RMK AO2 SLP166 T01280083=
201106080053 METAR KPAE 080053Z 19006KT 10SM OVC075 12/08 A3001 RMK AO2 RAE17 SLP164 P0001 T01220078=
201106072353 METAR KPAE 072353Z 00000KT 9SM -RA BKN033 BKN050 OVC060 11/08 A3001 RMK AO2 SLP164 P0004 60013 T01110078 10117 20100 50006=
201106072253 METAR KPAE 072253Z 00000KT 6SM -RA OVC049 11/08 A3002 RMK AO2 RAE2159B20 SLP165 P0001 T01060078=
201106072153 METAR KPAE 072153Z 28004KT 10SM -RA OVC047 11/08 A3001 RMK AO2 RAE2055B11 SLP161 P0003 T01110078=
201106072100 SPECI KPAE 072100Z 00000KT 10SM OVC037 11/08 A3000 RMK AO2 RAE2055 P0000=
201106072100 SPECI KPAE 072100Z 00000KT 10SM OVC037 11/08 A3000 RMK AO2 RAE2055 P0000=
201106072053 METAR KPAE 072053Z VRB03KT 9SM -RA FEW002 BKN017 OVC029 11/08 A3000 RMK AO2 SLP158 P0001 60005 T01060083 53011=
201106072024 SPECI KPAE 072024Z 00000KT 5SM -RA BR FEW002 BKN017 OVC029 10/08 A2999 RMK AO2 P0001=
201106072024 SPECI KPAE 072024Z 00000KT 5SM -RA BR FEW002 BKN017 OVC029 10/08 A2999 RMK AO2 P0001=
201106071953 METAR KPAE 071953Z 34005KT 1 1/2SM -RA BR BKN002 BKN011 OVC025 11/09 A2999 RMK AO2 RAB20 SLP155 P0003 T01060094=
201106071900 SPECI KPAE 071900Z 18011KT 8SM SCT007 BKN011 OVC024 11/09 A2997 RMK AO2=
201106071900 SPECI KPAE 071900Z 18011KT 8SM SCT007 BKN011 OVC024 11/09 A2997 RMK AO2=
201106071853 METAR KPAE 071853Z 19013G16KT 2SM HZ OVC007 12/09 A2997 RMK AO2 RAE45 SLP147 P0001 T01170089=
201106071753 METAR KPAE 071753Z 18014KT 2SM R16R/5500VP6000FT -RA BR OVC007 11/09 A2996 RMK AO2 PK WND 22027/1729 RAE10B33 SLP146 P0002 60002 T01110094 10128 20111 50001=
201106071750 SPECI KPAE 071750Z 19012KT 2SM R16R/5500VP6000FT -RA BR OVC007 11/09 A2997 RMK AO2 PK WND 22027/1729 RAE10B33 P0002=
201106071750 SPECI KPAE 071750Z 19012KT 2SM R16R/5500VP6000FT -RA BR OVC007 11/09 A2997 RMK AO2 PK WND 22027/1729 RAE10B33 P0002=
201106071743 SPECI KPAE 071743Z 19013KT 2SM R16R/6000VP6000FT -RA BR FEW009 OVC020 12/09 A2997 RMK AO2 PK WND 22027/1729 RAE10B33 P0001=
201106071743 SPECI KPAE 071743Z 19013KT 2SM R16R/6000VP6000FT -RA BR FEW009 OVC020 12/09 A2997 RMK AO2 PK WND 22027/1729 RAE10B33 P0001=
201106071720 SPECI KPAE 071720Z 18013KT 1 1/2SM R16R/5500V6000FT BR OVC006 11/09 A2997 RMK AO2 RAE10 P0001=
201106071720 SPECI KPAE 071720Z 18013KT 1 1/2SM R16R/5500V6000FT BR OVC006 11/09 A2997 RMK AO2 RAE10 P0001=
201106071656 SPECI KPAE 071656Z 19013KT 2 1/2SM R16R/6000VP6000FT -RA BR OVC014 12/09 A2997 RMK AO2 P0000=
201106071656 SPECI KPAE 071656Z 19013KT 2 1/2SM R16R/6000VP6000FT -RA BR OVC014 12/09 A2997 RMK AO2 P0000=
201106071653 METAR KPAE 071653Z 20012KT 3SM R16R/6000VP6000FT -RA OVC014 12/09 A2997 RMK AO2 RAB43 SLP147 P0000 T01170089=
201106071553 METAR KPAE 071553Z 18015G19KT 10SM OVC018 12/08 A2996 RMK AO2 SLP145 T01220078=
201106071453 METAR KPAE 071453Z 18015G23KT 10SM BKN020 OVC034 12/07 A2994 RMK AO2 SLP137 T01220072 58005=
201106071407 SPECI KPAE 071407Z 21014G20KT 10SM BKN020 OVC034 12/08 A2995 RMK AO2=
201106071407 SPECI KPAE 071407Z 21014G20KT 10SM BKN020 OVC034 12/08 A2995 RMK AO2=
201106071400 SPECI KPAE 071400Z 20012G21KT 10SM SCT018 OVC034 12/08 A2995 RMK AO2=
201106071400 SPECI KPAE 071400Z 20012G21KT 10SM SCT018 OVC034 12/08 A2995 RMK AO2=
201106071353 METAR KPAE 071353Z 20014G23KT 10SM BKN020 OVC034 13/08 A2995 RMK AO2 SLP141 T01280078=
201106071332 SPECI KPAE 071332Z AUTO 19019G25KT 10SM FEW020 BKN030 OVC034 13/08 A2994 RMK AO2=
201106071332 SPECI KPAE 071332Z AUTO 19019G25KT 10SM FEW020 BKN030 OVC034 13/08 A2994 RMK AO2=
201106071253 METAR KPAE 071253Z AUTO 18015KT 10SM BKN020 OVC025 12/08 A2995 RMK AO2 PK WND 19027/1216 SLP141 T01220083=
201106071153 METAR KPAE 071153Z AUTO 18018G23KT 10SM OVC016 13/08 A2995 RMK AO2 SLP142 T01280083 10144 20128 58003=
201106071116 SPECI KPAE 071116Z AUTO 19015G19KT 10SM BKN018 OVC023 13/09 A2995 RMK AO2=
201106071116 SPECI KPAE 071116Z AUTO 19015G19KT 10SM BKN018 OVC023 13/09 A2995 RMK AO2=
201106071053 METAR KPAE 071053Z AUTO 18017KT 9SM OVC014 13/09 A2996 RMK AO2 SLP143 T01280094=
201106071031 SPECI KPAE 071031Z AUTO 18013G19KT 9SM OVC014 13/09 A2996 RMK AO2=
201106071031 SPECI KPAE 071031Z AUTO 18013G19KT 9SM OVC014 13/09 A2996 RMK AO2=
201106070953 METAR KPAE 070953Z AUTO 17012G17KT 10SM OVC016 14/09 A2997 RMK AO2 SLP146 T01390089=
201106070853 METAR KPAE 070853Z AUTO 19014KT 10SM OVC016 14/09 A2996 RMK AO2 SLP145 T01390089 51008=
201106070753 METAR KPAE 070753Z AUTO 19015KT 10SM OVC016 13/09 A2996 RMK AO2 SLP144 T01330094 402110122=
201106070731 SPECI KPAE 070731Z AUTO 18011KT 10SM BKN016 BKN080 13/09 A2996 RMK AO2=
201106070731 SPECI KPAE 070731Z AUTO 18011KT 10SM BKN016 BKN080 13/09 A2996 RMK AO2=
201106070653 METAR KPAE 070653Z AUTO 18010G18KT 10SM BKN085 13/09 A2995 RMK AO2 SLP141 T01330094=
201106070553 METAR KPAE 070553Z AUTO 18016KT 10SM OVC080 14/09 A2994 RMK AO2 SLP137 T01440094 10211 20144 53009=
201106070453 METAR KPAE 070453Z AUTO 19013KT 10SM BKN080 16/10 A2993 RMK AO2 SLP132 T01610100=
201106070353 METAR KPAE 070353Z AUTO 19007KT 10SM CLR 18/11 A2991 RMK AO2 SLP128 T01830111=
201106070253 METAR KPAE 070253Z 24006KT 10SM CLR 19/11 A2991 RMK AO2 SLP128 T01940111 53006=
201106070153 METAR KPAE 070153Z 23004KT 10SM CLR 21/11 A2990 RMK AO2 SLP125 T02060111=
201106070053 METAR KPAE 070053Z 26006KT 10SM CLR 21/10 A2990 RMK AO2 SLP123 T02060100=
201106062353 METAR KPAE 062353Z 26006KT 10SM CLR 20/11 A2990 RMK AO2 SLP122 T02000106 10200 20156 55001=
201106062253 METAR KPAE 062253Z 23007KT 10SM CLR 19/11 A2989 RMK AO2 SLP120 T01890111=
201106062153 METAR KPAE 062153Z 23007KT 10SM CLR 18/11 A2989=
201106062053 METAR KPAE 062053Z 26007KT 10SM CLR 18/11 A2990 RMK AO2 SLP122 T01830111 57004=
201106061953 METAR KPAE 061953Z 24006KT 10SM CLR 18/11 A2990 RMK AO2 SLP124 T01780106=
201106061853 METAR KPAE 061853Z 25007KT 10SM CLR 16/11 A2991 RMK AO2 SLP126 T01610106=
201106061753 METAR KPAE 061753Z 26007KT 10SM CLR 16/12 A2991 RMK AO2 SLP127 T01610117 10161 20122 58005=
201106061653 METAR KPAE 061653Z 24005KT 10SM FEW030 15/11 A2992 RMK AO2 SLP130 T01500111=
201106061553 METAR KPAE 061553Z 26003KT 10SM CLR 14/11 A2992 RMK AO2 SLP132 T01390111=
201106061453 METAR KPAE 061453Z 26003KT 10SM FEW005 13/11 A2993 RMK AO2 SLP132 T01330106 51004=
201106061446 SPECI KPAE 061446Z 25003KT 10SM FEW005 13/11 A2992 RMK AO2=
201106061446 SPECI KPAE 061446Z 25003KT 10SM FEW005 13/11 A2992 RMK AO2=
201106061353 METAR KPAE 061353Z AUTO 00000KT 10SM CLR 13/11 A2992 RMK AO2 SLP130 T01330106=
201106061253 METAR KPAE 061253Z AUTO 00000KT 9SM CLR 12/11 A2992 RMK AO2 SLP131 T01220106=
201106061153 METAR KPAE 061153Z AUTO 00000KT 10SM CLR 12/10 A2991 RMK AO2 SLP128 T01220100 10150 20122 56001=
201106061053 METAR KPAE 061053Z AUTO 00000KT 10SM CLR 13/10 A2992 RMK AO2 SLP128 T01280100=
201106060953 METAR KPAE 060953Z AUTO 01004KT 10SM CLR 14/09 A2991 RMK AO2 SLP127 T01390094=
201106060853 METAR KPAE 060853Z AUTO 06003KT 10SM CLR 14/09 A2992 RMK AO2 SLP128 T01440089 58003=
201106060753 METAR KPAE 060753Z AUTO 02005KT 10SM CLR 14/09 A2992 RMK AO2 SLP129 T01440094 402330117=
201106060653 METAR KPAE 060653Z AUTO 02004KT 10SM CLR 15/09 A2993=
201106060553 METAR KPAE 060553Z AUTO 36005KT 10SM CLR 15/08 A2993 RMK AO2 SLP132 T01500078 10233 20150 53006=
201106060453 METAR KPAE 060453Z AUTO 02005KT 10SM CLR 16/09 A2992 RMK AO2 SLP131 T01560094=
201106060353 METAR KPAE 060353Z AUTO 35003KT 10SM CLR 19/10 A2991 RMK AO2 SLP125 T01890100=
201106060253 METAR KPAE 060253Z 33003KT 10SM CLR 21/08 A2991 RMK AO2 SLP125 T02110083 55006=
201106060153 METAR KPAE 060153Z 01003KT 10SM CLR 22/08 A2991 RMK AO2 SLP125 T02170083=
201106060053 METAR KPAE 060053Z VRB04KT 10SM CLR 22/09 A2991 RMK AO2 SLP128 T02220089=
201106052353 METAR KPAE 052353Z 28005KT 10SM CLR 21/11 A2993 RMK AO2 SLP133 T02110106 10228 20183 56010=
201106052253 METAR KPAE 052253Z 01006KT 10SM CLR 22/11 A2994 RMK AO2 SLP134 T02220106=
201106052153 METAR KPAE 052153Z 32005KT 10SM CLR 23/10 A2994=
201106052053 METAR KPAE 052053Z 30006KT 10SM CLR 21/11 A2996 RMK AO2 SLP143 T02110106 58007=
201106051953 METAR KPAE 051953Z VRB04KT 10SM CLR 21/10 A2997 RMK AO2 SLP147 T02060100=
201106051853 METAR KPAE 051853Z 36005KT 10SM CLR 19/09 A2997 RMK AO2 SLP148 T01940094=
201106051753 METAR KPAE 051753Z VRB05KT 10SM CLR 18/09 A2998 RMK AO2 SLP151 T01830094 10183 20117 58002=
201106051653 METAR KPAE 051653Z VRB04KT 10SM CLR 17/10 A2999 RMK AO2 SLP155 T01670100=
201106051553 METAR KPAE 051553Z VRB04KT 10SM CLR 16/09 A2999 RMK AO2 SLP154 T01610094=
201106051453 METAR KPAE 051453Z VRB03KT 10SM CLR 14/10 A2999 RMK AO2 SLP153 T01440100 53003=
201106051353 METAR KPAE 051353Z 36005KT 10SM CLR 13/10 A2998 RMK AO2 SLP151 T01330100=
201106051253 METAR KPAE 051253Z AUTO 00000KT 10SM CLR 12/09 A2998 RMK AO2 SLP151 T01220089=
201106051153 METAR KPAE 051153Z AUTO 01003KT 10SM CLR 12/08 A2998 RMK AO2 SLP150 T01220083 10144 20122 57002=
201106051100 METAR KPAE NIL=
201106051000 METAR KPAE NIL=
201106050900 METAR KPAE NIL=
201106050800 METAR KPAE NIL=
201106050653 METAR KPAE 050653Z AUTO 36004KT 10SM CLR 14/08 A2998 RMK AO2 SLP152 T01440078=
201106050553 METAR KPAE 050553Z AUTO 00000KT 10SM CLR 14/08 A2999 RMK AO2 SLP154 T01440083 10217 20139 53005=
201106050453 METAR KPAE 050453Z AUTO 34004KT 10SM CLR 14/09 A2998 RMK AO2 SLP152 T01440089=
201106050353 METAR KPAE 050353Z AUTO 35003KT 10SM CLR 17/09 A2997 RMK AO2 SLP148 T01670094=
201106050253 METAR KPAE 050253Z 34007KT 10SM CLR 19/10 A2997 RMK AO2 SLP149 T01890100 55005=
201106050153 METAR KPAE 050153Z 34009KT 10SM CLR 20/10 A2996 RMK AO2 SLP145 T02000100=
201106050053 METAR KPAE 050053Z 34008G16KT 10SM CLR 21/11 A2997 RMK AO2 SLP149 T02110106=
201106042353 METAR KPAE 042353Z 34005KT 10SM CLR 21/11 A2999 RMK AO2 SLP155 T02110106 10217 20161 56017=
201106042253 METAR KPAE 042253Z AUTO 34007KT 310V020 10SM CLR 22/11 A3001 RMK AO2 SLP159 T02170106 TSNO=
201106042153 METAR KPAE 042153Z 36007KT 10SM CLR 21/11 A3002 RMK AO2 SLP166 T02060106=
201106042053 METAR KPAE 042053Z 36008KT 10SM CLR 19/11 A3004 RMK AO2 SLP171 T01940106 58013=
201106041953 METAR KPAE 041953Z 01005KT 10SM CLR 18/11 A3005 RMK AO2 SLP176 T01830111=
201106041853 METAR KPAE 041853Z 36006KT 10SM CLR 18/11 A3007 RMK AO2 SLP181 T01780106=
201106041753 METAR KPAE 041753Z VRB06KT 10SM CLR 17/11 A3008 RMK AO2 SLP185 T01670106 10167 20100 58008=
201106041653 METAR KPAE 041653Z VRB06KT 10SM CLR 15/09 A3009=
201106041553 METAR KPAE 041553Z 01004KT 10SM CLR 14/09 A3010 RMK AO2 SLP192 T01390089=
201106041453 METAR KPAE 041453Z 01003KT 10SM CLR 13/09 A3010 RMK AO2 SLP193 T01280094 53001=
201106041353 METAR KPAE 041353Z 35003KT 10SM CLR 12/09 A3010 RMK AO2 SLP194 T01170094=
201106041253 METAR KPAE 041253Z AUTO 36004KT 10SM CLR 10/09 A3009 RMK AO2 SLP190 T01000089=
201106041153 METAR KPAE 041153Z AUTO 01003KT 9SM CLR 11/09 A3010 RMK AO2 SLP192 T01060089 10128 20100 58008=
201106041053 METAR KPAE 041053Z AUTO 00000KT 10SM CLR 11/09 A3012 RMK AO2 SLP198 T01060089=
201106040953 METAR KPAE 040953Z AUTO 03004KT 10SM CLR 11/09 A3012 RMK AO2 SLP200 T01110089=
201106040853 METAR KPAE 040853Z AUTO 35003KT 10SM CLR 11/08 A3012 RMK AO2 SLP200 T01110083 50000=
201106040753 METAR KPAE 040753Z AUTO 36003KT 10SM CLR 12/08 A3013 RMK AO2 SLP203 T01220083 401830083=
201106040653 METAR KPAE 040653Z AUTO 36004KT 10SM CLR 12/08 A3013=
201106040553 METAR KPAE 040553Z AUTO 35005KT 10SM CLR 13/08 A3012 RMK AO2 SLP200 T01280078 10183 20128 51013=
201106040453 METAR KPAE 040453Z AUTO 35004KT 10SM CLR 14/07 A3012 RMK AO2 SLP198 T01390072=
201106040353 METAR KPAE 040353Z AUTO 33005KT 10SM CLR 15/07 A3009 RMK AO2 SLP190 T01500072=
201106040253 METAR KPAE 040253Z 34007KT 310V020 10SM CLR 17/07 A3008=
201106040153 METAR KPAE 040153Z 33011G17KT 10SM CLR 17/08 A3008 RMK AO2 SLP185 T01720078=
201106040053 METAR KPAE 040053Z 33008G14KT 310V010 10SM CLR 18/08 A3008 RMK AO2 SLP185 T01780083=
201106032353 METAR KPAE 032353Z 33007G17KT 10SM CLR 18/08 A3009=
201106032253 METAR KPAE 032253Z 35006G14KT 10SM CLR 18/09 A3009 RMK AO2 SLP189 T01780089=
201106032153 METAR KPAE 032153Z 34008KT 10SM CLR 17/08 A3009=
201106032053 METAR KPAE 032053Z 32007KT 10SM CLR 17/08 A3010=
201106031953 METAR KPAE 031953Z 36006KT 10SM CLR 17/07 A3011 RMK AO2 SLP195 T01670067=
201106031853 METAR KPAE 031853Z COR 31005KT 10SM SCT030 15/07 A3012 RMK AO2 SLP198 T01500067=
201106031753 METAR KPAE 031753Z VRB04KT 10SM FEW037 14/08 A3012 RMK AO2 SLP200 T01390083 10139 20089 53004=
201106031653 METAR KPAE 031653Z 00000KT 10SM SCT013 BKN041 12/09 A3012 RMK AO2 SLP199 T01220089=
201106031638 SPECI KPAE 031638Z 36004KT 10SM BKN015 12/08 A3011 RMK AO2=
201106031638 SPECI KPAE 031638Z 36004KT 10SM BKN015 12/08 A3011 RMK AO2=
201106031553 METAR KPAE 031553Z 19003KT 10SM SCT016 12/08 A3011 RMK AO2 SLP197 T01220078=
201106031453 METAR KPAE 031453Z VRB03KT 10SM CLR 12/09 A3011 RMK AO2 SLP196 T01170089 51009=
201106031353 METAR KPAE 031353Z 16003KT 10SM CLR 10/08 A3010=
201106031253 METAR KPAE 031253Z AUTO 00000KT 10SM SCT065 09/08 A3009 RMK AO2 SLP191 T00940078=
201106031153 METAR KPAE 031153Z AUTO 16005KT 10SM FEW070 09/08 A3008 RMK AO2 SLP187 60005 70013 T00890078 10111 20083 53007=
201106031053 METAR KPAE 031053Z AUTO 15004KT 10SM CLR 09/08 A3007 RMK AO2 SLP184 T00940078=
201106030953 METAR KPAE 030953Z AUTO 18006KT 10SM CLR 09/08 A3006 RMK AO2 SLP181 P0001 T00940078=
201106030853 METAR KPAE 030853Z AUTO 19007KT 10SM CLR 10/08 A3006 RMK AO2 SLP180 60004 T01000078 53004=
201106030833 SPECI KPAE 030833Z AUTO 18009KT 10SM SCT017 BKN060 10/08 A3006 RMK AO2=
201106030833 SPECI KPAE 030833Z AUTO 18009KT 10SM SCT017 BKN060 10/08 A3006 RMK AO2=
201106030819 SPECI KPAE 030819Z AUTO 19008KT 10SM SCT005 BKN017 OVC060 11/09 A3006 RMK AO2=
201106030819 SPECI KPAE 030819Z AUTO 19008KT 10SM SCT005 BKN017 OVC060 11/09 A3006 RMK AO2=
201106030753 METAR KPAE 030753Z AUTO 21005KT 10SM BKN005 BKN010 OVC015 11/09 A3006 RMK AO2 RAE53 CIG 002V007 SLP179 P0003 T01110094 401500100=
201106030736 SPECI KPAE 030736Z AUTO 00000KT 6SM -RA BR SCT005 BKN011 OVC028 11/09 A3005 RMK AO2 P0003=
201106030736 SPECI KPAE 030736Z AUTO 00000KT 6SM -RA BR SCT005 BKN011 OVC028 11/09 A3005 RMK AO2 P0003=
201106030702 SPECI KPAE 030702Z AUTO 12003KT 5SM -RA BR OVC028 11/09 A3005 RMK AO2 P0000=
201106030702 SPECI KPAE 030702Z AUTO 12003KT 5SM -RA BR OVC028 11/09 A3005 RMK AO2 P0000=
201106030653 METAR KPAE 030653Z AUTO 00000KT 8SM -RA BKN030 OVC037 11/09 A3005 RMK AO2 SLP176 P0001 T01110089=
201106030553 METAR KPAE 030553Z AUTO 16003KT 10SM -RA OVC036 11/09 A3005 RMK AO2 RAB38 SLP176 P0001 60006 T01110094 10128 20111 51007=
201106030453 METAR KPAE 030453Z AUTO 11003KT 10SM OVC036 12/10 A3005 RMK AO2 RAE02 SLP176 P0000 T01170100=
201106030413 SPECI KPAE 030413Z AUTO 06003KT 10SM FEW003 SCT021 OVC033 12/10 A3004 RMK AO2 RAE02 P0000=
201106030413 SPECI KPAE 030413Z AUTO 06003KT 10SM FEW003 SCT021 OVC033 12/10 A3004 RMK AO2 RAE02 P0000=
201106030358 SPECI KPAE 030358Z AUTO 00000KT 8SM -RA SCT003 BKN021 OVC031 12/10 A3004 RMK AO2 P0000=
201106030358 SPECI KPAE 030358Z AUTO 00000KT 8SM -RA SCT003 BKN021 OVC031 12/10 A3004 RMK AO2 P0000=
201106030353 METAR KPAE 030353Z AUTO 06003KT 5SM -RA BR BKN003 BKN006 OVC031 12/10 A3004 RMK AO2 SLP173 P0003 T01170100=
201106030253 METAR KPAE 030253Z 00000KT 9SM -RA BKN006 BKN039 OVC047 12/11 A3003=
201106030200 SPECI KPAE 030200Z 36004KT 10SM -RA BKN006 BKN039 OVC047 12/10 A3002 RMK AO2 P0000=
201106030200 SPECI KPAE 030200Z 36004KT 10SM -RA BKN006 BKN039 OVC047 12/10 A3002 RMK AO2 P0000=
201106030153 METAR KPAE 030153Z 36003KT 10SM -RA BKN004 BKN025 OVC044 12/10 A3001 RMK AO2 SLP164 P0002 T01170100=
201106030135 SPECI KPAE 030135Z 36004KT 9SM -RA BKN004 BKN025 OVC044 12/10 A3001 RMK AO2 P0002=
201106030135 SPECI KPAE 030135Z 36004KT 9SM -RA BKN004 BKN025 OVC044 12/10 A3001 RMK AO2 P0002=
201106030128 SPECI KPAE 030128Z 02005KT 8SM -RA SCT004 BKN025 OVC055 12/10 A3001 RMK AO2 P0001=
201106030128 SPECI KPAE 030128Z 02005KT 8SM -RA SCT004 BKN025 OVC055 12/10 A3001 RMK AO2 P0001=
201106030118 SPECI KPAE 030118Z 02003KT 9SM -RA BKN004 BKN025 OVC055 12/10 A3001 RMK AO2 P0001=
201106030118 SPECI KPAE 030118Z 02003KT 9SM -RA BKN004 BKN025 OVC055 12/10 A3001 RMK AO2 P0001=
201106030053 METAR KPAE 030053Z VRB03KT 10SM -RA FEW008 BKN021 OVC060 12/10 A3001=
201106022353 METAR KPAE 022353Z 02005KT 10SM SCT017 BKN029 OVC036 13/09 A3000 RMK AO2 RAB24E33 SLP160 P0000 60000 T01280094 10150 20117 51001=
201106022253 METAR KPAE 022253Z 00000KT 10SM SCT030 BKN040 OVC055 14/09 A3000 RMK AO2 RAB07E16 SLP160 P0000 T01390089=
201106022153 METAR KPAE 022153Z 00000KT 10SM BKN030 OVC042 13/08 A3000 RMK AO2 SLP161 T01330083=
201106022053 METAR KPAE 022053Z 18007KT 160V230 10SM SCT010 BKN030 OVC050 14/07 A3000 RMK AO2 SLP158 T01440072 51001=
201106022021 SPECI KPAE 022021Z 24006KT 10SM SCT023 BKN029 BKN050 14/06 A3000 RMK AO2=
201106022021 SPECI KPAE 022021Z 24006KT 10SM SCT023 BKN029 BKN050 14/06 A3000 RMK AO2=
201106021953 METAR KPAE 021953Z 26008KT 10SM SCT018 BKN035 BKN060 13/08 A3000 RMK AO2 SLP159 T01330083=
201106021908 SPECI KPAE 021908Z VRB04KT 10SM FEW018 BKN028 OVC090 13/08 A3000 RMK AO2=
201106021908 SPECI KPAE 021908Z VRB04KT 10SM FEW018 BKN028 OVC090 13/08 A3000 RMK AO2=
201106021853 METAR KPAE 021853Z COR 21008KT 10SM FEW018 BKN028 OVC090 14/08 A3000 RMK AO2 SLP158 T01390078=
201106021801 SPECI KPAE 021801Z 25006KT 10SM SCT012 BKN017 OVC080 12/09 A2999 RMK AO2=
201106021801 SPECI KPAE 021801Z 25006KT 10SM SCT012 BKN017 OVC080 12/09 A2999 RMK AO2=
201106021753 METAR KPAE 021753Z VRB04KT 10SM BKN009 OVC017 12/09 A2999 RMK AO2 SLP158 60002 T01220089 10122 20100 53005=
201106021653 METAR KPAE 021653Z 16007KT 10SM BKN007 BKN014 OVC070 11/08 A2999=
201106021553 METAR KPAE 021553Z 16008KT 9SM OVC005 10/08 A2998=
201106021453 METAR KPAE 021453Z 16005KT 6SM -RA BR OVC006 10/08 A2998 RMK AO2 RAE1359B35 SLP152 P0001 60001 T01000078 51005=
201106021415 SPECI KPAE 021415Z 16005KT 10SM BKN007 BKN011 OVC016 10/08 A2998 RMK AO2 RAE1359 P0000=
201106021415 SPECI KPAE 021415Z 16005KT 10SM BKN007 BKN011 OVC016 10/08 A2998 RMK AO2 RAE1359 P0000=
201106021408 SPECI KPAE 021408Z 16004KT 10SM SCT007 BKN011 OVC016 10/08 A2998 RMK AO2 RAE1359 P0000=
201106021408 SPECI KPAE 021408Z 16004KT 10SM SCT007 BKN011 OVC016 10/08 A2998 RMK AO2 RAE1359 P0000=
201106021353 METAR KPAE 021353Z 15005KT 7SM -RA BKN008 OVC017 10/08 A2998 RMK AO2 RAB28 CIG 004V011 SLP151 P0000 T01000078=
201106021345 SPECI KPAE 021345Z 16005KT 6SM -RA BR BKN006 OVC017 10/08 A2998 RMK AO2 RAB28 CIG 004V010 P0000=
201106021345 SPECI KPAE 021345Z 16005KT 6SM -RA BR BKN006 OVC017 10/08 A2998 RMK AO2 RAB28 CIG 004V010 P0000=
201106021303 SPECI KPAE 021303Z AUTO VRB03KT 10SM BKN004 BKN010 OVC015 10/08 A2997 RMK AO2=
201106021303 SPECI KPAE 021303Z AUTO VRB03KT 10SM BKN004 BKN010 OVC015 10/08 A2997 RMK AO2=
201106021253 METAR KPAE 021253Z AUTO 00000KT 10SM SCT004 OVC012 10/08 A2997 RMK AO2 SLP149 T01000083=
201106021234 SPECI KPAE 021234Z AUTO VRB04KT 10SM SCT006 OVC010 10/08 A2997 RMK AO2 CIG 009V014=
201106021234 SPECI KPAE 021234Z AUTO VRB04KT 10SM SCT006 OVC010 10/08 A2997 RMK AO2 CIG 009V014=
201106021221 SPECI KPAE 021221Z AUTO 00000KT 10SM OVC008 10/08 A2997 RMK AO2 CIG 005V013=
201106021221 SPECI KPAE 021221Z AUTO 00000KT 10SM OVC008 10/08 A2997 RMK AO2 CIG 005V013=
201106021153 METAR KPAE 021153Z AUTO 00000KT 10SM OVC010 10/08 A2996 RMK AO2 SLP147 60001 70004 T01000078 10111 20100 53007=
201106021114 SPECI KPAE 021114Z AUTO 00000KT 10SM BKN014 OVC023 10/08 A2996 RMK AO2=
201106021114 SPECI KPAE 021114Z AUTO 00000KT 10SM BKN014 OVC023 10/08 A2996 RMK AO2=
201106021053 METAR KPAE 021053Z AUTO 00000KT 10SM BKN021 BKN027 OVC065 10/08 A2995 RMK AO2 RAB09E35 SLP144 P0001 T01000078=
201106020953 METAR KPAE 020953Z AUTO 06003KT 10SM OVC017 11/07 A2995 RMK AO2 SLP141 T01060072=
201106020853 METAR KPAE 020853Z AUTO 03004KT 10SM BKN019 OVC045 11/07 A2994 RMK AO2 SLP140 T01060072 58010=
201106020753 METAR KPAE 020753Z AUTO 03003KT 10SM OVC016 11/08 A2996 RMK AO2 SLP144 T01060078 401440100=
201106020653 METAR KPAE 020653Z AUTO 02003KT 10SM FEW018 OVC024 11/07 A2996 RMK AO2 SLP146 T01060072=
201106020646 SPECI KPAE 020646Z AUTO 02004KT 10SM FEW018 BKN024 OVC065 11/07 A2996 RMK AO2=
201106020646 SPECI KPAE 020646Z AUTO 02004KT 10SM FEW018 BKN024 OVC065 11/07 A2996 RMK AO2=
201106020619 SPECI KPAE 020619Z AUTO 02003KT 10SM SCT026 OVC065 11/07 A2997 RMK AO2=
201106020619 SPECI KPAE 020619Z AUTO 02003KT 10SM SCT026 OVC065 11/07 A2997 RMK AO2=
201106020610 SPECI KPAE 020610Z AUTO 02003KT 10SM BKN024 BKN065 OVC090 11/07 A2997 RMK AO2=
201106020610 SPECI KPAE 020610Z AUTO 02003KT 10SM BKN024 BKN065 OVC090 11/07 A2997 RMK AO2=
201106020553 METAR KPAE 020553Z AUTO 00000KT 10SM SCT024 BKN065 OVC090 11/07 A2997 RMK AO2 SLP149 T01110072 10144 20106 51006=
201106020453 METAR KPAE 020453Z AUTO 00000KT 10SM FEW019 OVC060 11/08 A2997 RMK AO2 SLP149 T01110078=
201106020443 SPECI KPAE 020443Z AUTO 31004KT 10SM SCT019 OVC060 11/08 A2996 RMK AO2=
201106020443 SPECI KPAE 020443Z AUTO 31004KT 10SM SCT019 OVC060 11/08 A2996 RMK AO2=
201106020420 SPECI KPAE 020420Z AUTO 32003KT 10SM BKN019 OVC060 11/08 A2996 RMK AO2=
201106020420 SPECI KPAE 020420Z AUTO 32003KT 10SM BKN019 OVC060 11/08 A2996 RMK AO2=
201106020353 METAR KPAE 020353Z 00000KT 10SM FEW055 11/08 A2995 RMK AO2 SLP144 T01110078=
201106020253 METAR KPAE 020253Z 03004KT 10SM SCT049 OVC075 12/07 A2995 RMK AO2 SLP143 T01220072 57003=
201106020153 METAR KPAE 020153Z 36004KT 10SM SCT017 SCT022 13/08 A2995 RMK AO2 SLP144 T01280083=
201106020053 METAR KPAE 020053Z 01005KT 10SM SCT025 BKN050 14/08 A2996 RMK AO2 SLP145 T01390078=
201106020012 SPECI KPAE 020012Z VRB03KT 10SM SCT017 BKN050 OVC070 13/08 A2996 RMK AO2=
201106020012 SPECI KPAE 020012Z VRB03KT 10SM SCT017 BKN050 OVC070 13/08 A2996 RMK AO2=
201106012353 METAR KPAE 012353Z VRB04KT 10SM SCT017 BKN025 OVC055 14/09 A2996 RMK AO2 SLP146 60001 T01390094 10139 20100 58008=
201106012253 METAR KPAE 012253Z COR 00000KT 10SM SCT009 BKN015 OVC023 12/09 A2998 RMK AO2 SLP150 T01280089=
201106012153 METAR KPAE 012153Z 04003KT 10SM SCT009 BKN015 OVC023 12/09 A2998 RMK AO2 SLP153 T01220094=
201106012119 SPECI KPAE 012119Z 00000KT 10SM SCT009 BKN015 OVC023 12/08 A2998 RMK AO2=
201106012119 SPECI KPAE 012119Z 00000KT 10SM SCT009 BKN015 OVC023 12/08 A2998 RMK AO2=
201106012053 METAR KPAE 012053Z 00000KT 10SM BKN009 OVC015 12/08 A2999 RMK AO2 RAB23E47 SLP155 P0000 60001 T01170083 58002=
201106011953 METAR KPAE 011953Z 21004KT 10SM BKN007 OVC015 11/08 A2999 RMK AO2 SLP157 P0001 T01110083=
201106011853 METAR KPAE 011853Z 22005KT 10SM BKN007 OVC010 11/08 A2999 RMK AO2 RAB1758E21 SLP158 P0000 T01110083=
201106011753 METAR KPAE 011753Z 23005KT 7SM BKN009 BKN017 OVC039 10/08 A2999 RMK AO2 RAE1657 SLP157 P0000 60002 T01000083 10111 20100 51003=
201106011653 METAR KPAE 011653Z 23004KT 8SM -RA BKN007 OVC039 11/09 A2999 RMK AO2 RAE1557B17 SLP156 P0001 T01060089=
201106011600 SPECI KPAE 011600Z 22004KT 10SM BKN007 OVC039 11/08 A2999 RMK AO2 RAE1557 P0000=
201106011600 SPECI KPAE 011600Z 22004KT 10SM BKN007 OVC039 11/08 A2999 RMK AO2 RAE1557 P0000=
201106011553 METAR KPAE 011553Z 21006KT 10SM -RA SCT009 OVC039 10/08 A2999 RMK AO2 RAB02 SLP155 P0001 T01000083=
201106011500 SPECI KPAE 011500Z 23006KT 10SM BKN007 OVC055 10/08 A2998 RMK AO2 CIG 004V010=
201106011500 SPECI KPAE 011500Z 23006KT 10SM BKN007 OVC055 10/08 A2998 RMK AO2 CIG 004V010=
201106011453 METAR KPAE 011453Z 22004KT 10SM SCT005 OVC010 10/08 A2998 RMK AO2 RAE1355 SLP152 P0000 60000 T01000083 51003=
201106011353 METAR KPAE 011353Z 20007KT 10SM -RA FEW005 OVC010 11/08 A2998 RMK AO2 RAB38 SLP152 P0000 T01060083=
201106011346 SPECI KPAE 011346Z 20007KT 9SM -RA OVC010 11/09 A2998 RMK AO2 RAB38 CIG 007V014 P0000=
201106011346 SPECI KPAE 011346Z 20007KT 9SM -RA OVC010 11/09 A2998 RMK AO2 RAB38 CIG 007V014 P0000=
201106011330 SPECI KPAE 011330Z AUTO 20005KT 10SM OVC008 11/09 A2998 RMK AO2 CIG 005V011=
201106011330 SPECI KPAE 011330Z AUTO 20005KT 10SM OVC008 11/09 A2998 RMK AO2 CIG 005V011=
201106011253 METAR KPAE 011253Z AUTO 20004KT 10SM OVC013 11/09 A2998 RMK AO2 SLP151 T01060089=
201106011241 SPECI KPAE 011241Z AUTO 21004KT 10SM BKN009 OVC013 11/09 A2998 RMK AO2 CIG 006V012=
201106011241 SPECI KPAE 011241Z AUTO 21004KT 10SM BKN009 OVC013 11/09 A2998 RMK AO2 CIG 006V012=
201106011234 SPECI KPAE 011234Z AUTO 23003KT 10SM SCT007 BKN013 OVC020 11/09 A2998 RMK AO2=
201106011234 SPECI KPAE 011234Z AUTO 23003KT 10SM SCT007 BKN013 OVC020 11/09 A2998 RMK AO2=
201106011153 METAR KPAE 011153Z AUTO 23003KT 10SM BKN009 OVC015 11/09 A2997 RMK AO2 CIG 007V011 SLP149 60001 70004 T01060089 10128 20106 58004=
201106011053 METAR KPAE 011053Z AUTO 15003KT 10SM FEW004 BKN015 OVC085 11/09 A2998 RMK AO2 RAE18 SLP150 P0001 T01110089=
201106011040 SPECI KPAE 011040Z AUTO 00000KT 10SM SCT006 BKN010 OVC085 11/09 A2998 RMK AO2 RAE18 P0001=
201106011040 SPECI KPAE 011040Z AUTO 00000KT 10SM SCT006 BKN010 OVC085 11/09 A2998 RMK AO2 RAE18 P0001=
201106010953 METAR KPAE 010953Z AUTO 00000KT 10SM -RA SCT015 BKN050 OVC070 11/09 A2998 RMK AO2 RAB23 SLP154 P0000 T01110094=
201106010853 METAR KPAE 010853Z AUTO 00000KT 10SM OVC060 12/08 A2999 RMK AO2 SLP154 T01170083 50003=
201106010753 METAR KPAE 010753Z AUTO 18004KT 10SM OVC055 12/08 A2999 RMK AO2 SLP156 T01170083 401610089=
201106010653 METAR KPAE 010653Z AUTO 00000KT 10SM BKN055 OVC075 13/08 A2998 RMK AO2 SLP152 T01280078=
201106010553 METAR KPAE 010553Z AUTO 21006KT 10SM FEW055 BKN075 13/08 A2998 RMK AO2 SLP151 T01280078 10161 20122 51008=
201106010453 METAR KPAE 010453Z AUTO 20004KT 10SM FEW055 12/07 A2997 RMK AO2 SLP150 T01220072=
201106010353 METAR KPAE 010353Z AUTO 19006KT 10SM SCT075 14/07 A2996 RMK AO2 SLP146 T01440072=
201106010253 METAR KPAE 010253Z 22007KT 10SM FEW065 16/08 A2995 RMK AO2 SLP142 T01560083 53005=
201106010153 METAR KPAE 010153Z 25006KT 10SM FEW043 BKN065 16/08 A2994 RMK AO2 SLP138 T01610083=
201106010053 METAR KPAE 010053Z 26005KT 10SM FEW033 SCT065 16/09 A2994 RMK AO2 LTG DSNT SE SLP138 T01560094=

# No short TAF reports from KPAE in databse.

###################################
#  large TAF from KPAE
###################################
201106302321 TAF KPAE 302321Z 0100/0124 04004KT P6SM VCSH BKN040 OVC050 FM010400
                       34005KT P6SM SCT060 FM011100 04003KT P6SM
                       OVC015 FM011900 30006KT P6SM SCT025=
201106301738 TAF KPAE 301738Z 3018/0118 08005KT P6SM VCSH BKN011 OVC035 FM302000
                       22007KT P6SM SCT015 BKN040 BKN070 FM010300
                       34005KT P6SM SCT070 FM011100 04003KT P6SM
                       OVC020=
201106301207 KPAE 301207Z 3012/0112 14006KT P6SM -SHRA BKN012 OVC025
                      TEMPO 3012/3016 3SM -SHRA BR BKN008 OVC015
                       FM301600 18007KT 5SM -SHRA BR BKN012 OVC022
                       FM302100 22007KT P6SM -SHRA BKN022 OVC035
                       FM010300 33005KT P6SM VCSH BKN035 BKN070=
201106301120 TAF KPAE 301120Z 3012/0112 14006KT 6SM -SHRA BR SCT008 BKN012 OVC025
                       TEMPO 3012/3016 3SM -SHRA BR BKN008 OVC015
                       FM301600 18007KT 5SM -SHRA BR BKN012 OVC022
                       FM302100 22007KT P6SM -SHRA BKN022 OVC035
                       FM010300 33005KT P6SM VCSH BKN035 BKN070=
201106300530 TAF KPAE 300530Z 3006/0106 VRB05KT P6SM VCSH SCT015 OVC022
                      TEMPO 3006/3010 4SM -SHRA BR BKN010 FM301000
                       16007KT P6SM -SHRA BKN012 OVC025 FM301700
                       20007KT P6SM VCSH BKN025 OVC040 FM010200
                       33006KT P6SM BKN035 BKN070=
201106300202 KPAE 300202Z 3002/3024 02009KT P6SM SCT012 BKN025 OVC040
                      TEMPO 3002/3006 -SHRA BKN008 OVC015 FM300600
                       VRB05KT P6SM VCSH BKN010 OVC022 FM301000
                       17007KT P6SM -SHRA OVC012 FM302100 21008KT
                       P6SM OVC018=
201106292329 TAF KPAE 292329Z 3000/3024 02009KT P6SM -SHRA BKN006 OVC017 FM302100
                       21008KT P6SM OVC018=
201106291743 TAF KPAE 291743Z 2918/3018 17013G23KT P6SM SCT025 BKN060 OVC070
                       TEMPO 2918/2922 BKN020 OVC060 FM292200 19013G23KT
                       P6SM -SHRA BKN025 BKN120 FM300200 33005KT
                       P6SM VCSH BKN035 BKN120 FM300500 21008KT
                       P6SM SCT018 BKN025 BKN120 FM300900 21008KT
                       P6SM OVC018=
201106291407 KPAE 291407Z 2914/3012 19014KT P6SM BKN050 FM292000 19013KT P6SM
                       VCSH BKN025 BKN120 FM300100 33005KT P6SM
                       VCSH BKN035 BKN120 FM300500 21008KT P6SM
                       SCT018 BKN025 BKN120 FM300900 21008KT P6SM
                       OVC018=
201106291123 TAF KPAE 291123Z 2912/3012 18011KT P6SM OVC012 FM292000 19013KT
                       P6SM VCSH BKN025 BKN120 FM300100 33005KT
                       P6SM VCSH BKN035 BKN120 FM300500 21008KT
                       P6SM SCT018 BKN025 BKN120 FM300900 21008KT
                       P6SM OVC018=
201106290520 TAF KPAE 290520Z 2906/3006 36003KT P6SM OVC018 FM290900 18008KT
                       P6SM OVC015 FM292000 17014KT P6SM VCSH BKN025
                       BKN120 FM300100 33005KT P6SM VCSH BKN045
                       BKN120 FM300500 21008KT P6SM SCT025 BKN035
                       BKN120=
201106290435 KPAE 290435Z 2905/2924 36003KT P6SM OVC018 FM291100 18008KT P6SM
                       OVC018 FM292100 17012KT P6SM VCSH BKN025
                       BKN120=
201106282334 TAF KPAE 282334Z 2900/2924 36003KT P6SM BKN035 OVC090 FM291000
                       18005KT P6SM OVC018 FM292100 17012KT P6SM
                       VCSH BKN025 BKN120=
201106281720 TAF KPAE 281720Z 2818/2918 VRB03KT P6SM VCSH BKN100 OVC200 FM290400
                       20006KT P6SM SCT080 BKN120 FM291000 18005KT
                       P6SM OVC018=
201106281120 TAF KPAE 281120Z 2812/2912 VRB04KT P6SM SCT080 BKN120 FM282200
                       20006KT P6SM -SHRA BKN080 OVC120 FM290400
                       20006KT P6SM SCT080 BKN120 FM291000 18005KT
                       P6SM OVC018=
201106280520 TAF KPAE 280520Z 2806/2906 30005KT P6SM -SHRA FEW080 BKN100 OVC200
                       FM280800 VRB03KT P6SM -SHRA BKN080 OVC150
                       FM281200 VRB04KT P6SM SCT080 BKN150 FM290000
                       20006KT P6SM -SHRA BKN080 OVC120=
201106272320 TAF KPAE 272320Z 2800/2824 26004KT P6SM -SHRA FEW050 BKN090 OVC150
                       FM281400 18005KT P6SM -SHRA BKN040 OVC080=
201106271726 TAF KPAE 271726Z 2718/2818 00000KT P6SM SCT090 OVC150 FM272200
                       35005KT P6SM SCT090 OVC150 FM281400 VRB03KT
                       P6SM VCSH BKN040 OVC080=
201106271136 TAF KPAE 271136Z 2712/2812 VRB03KT P6SM OVC100 FM280300 VRB03KT
                       P6SM SCT035 OVC060=
201106270536 TAF KPAE 270536Z 2706/2806 VRB03KT P6SM BKN150 FM280300 VRB03KT
                       P6SM SCT050 OVC100=
201106262334 TAF KPAE 262334Z 2700/2724 29006KT P6SM FEW050 BKN200 FM270600
                       VRB04KT P6SM SCT130 BKN200 FM271400 00000KT
                       P6SM BKN130 OVC200=
201106261727 TAF KPAE 261727Z 2618/2718 00000KT P6SM SKC FM262200 31006KT P6SM
                       SKC FM270600 VRB04KT P6SM BKN200 FM271400
                       00000KT P6SM BKN130 OVC250=
201106261339 KPAE 261339Z 2614/2712 01006KT P6SM BKN004 FM261500 VRB03KT P6SM
                       SKC=
201106261130 TAF KPAE 261130Z 2612/2712 34006KT P6SM SKC FM270800 VRB03KT P6SM
                       BKN200=
201106260528 TAF KPAE 260528Z 2606/2706 34006KT P6SM SKC=
201106252332 TAF KPAE 252332Z 2600/2624 33006KT P6SM BKN060 BKN120 FM260500
                       32008KT P6SM SCT050 SCT100 FM261800 33006KT
                       P6SM FEW070=
201106251731 TAF KPAE 251731Z 2518/2618 VRB05KT P6SM FEW009 SCT014 BKN045
                      TEMPO 2518/2521 BKN014 OVC045 FM252100 32008KT
                       P6SM SCT030 BKN060 FM260500 32008KT P6SM
                       SCT050=
201106251621 KPAE 251621Z 2516/2612 VRB03KT P6SM SCT020 OVC045
                      TEMPO 2516/2519 BKN020 OVC045 FM251900 VRB03KT
                       P6SM SCT025 BKN045 FM252100 32008KT P6SM
                       SCT035 BKN060 FM260500 32008KT P6SM SCT050=
201106251139 TAF KPAE 251139Z 2512/2612 VRB03KT P6SM BKN020 OVC035
                      TEMPO 2512/2514 4SM -SHRA FM251700 VRB03KT
                       P6SM SCT025 BKN040 FM252100 32008KT P6SM
                       SCT035 BKN050 FM260500 32008KT P6SM SCT050=
201106250539 TAF KPAE 250539Z 2506/2606 VRB03KT P6SM SCT025 BKN050
                      TEMPO 2506/2510 BKN025 FM251100 18006KT P6SM
                       BKN020 FM251700 24006KT P6SM BKN040 FM252100
                       32008KT P6SM SCT035 BKN050 FM260500 32008KT
                       P6SM SCT050=
201106242320 TAF KPAE 242320Z 2500/2524 31007KT P6SM VCSH SCT035 BKN050 FM250800
                       VRB03KT P6SM BKN040 FM251200 18005KT P6SM
                       BKN025 FM251800 24007KT P6SM BKN040 FM252100
                       31007KT P6SM SCT035 BKN050=
201106241727 TAF KPAE 241727Z 2418/2518 VRB05KT P6SM -RA SCT008 BKN013 OVC040
                       TEMPO 2418/2421 -SHRA BKN008 OVC020 FM242100
                       32006KT P6SM VCSH BKN022 BKN045 FM250000
                       32008KT P6SM VCSH SCT025 BKN050 FM250700
                       18007KT P6SM BKN020 OVC045=
201106241509 KPAE 241509Z 2415/2512 VRB04KT P6SM SCT008 BKN015 OVC050
                      TEMPO 2415/2417 5SM -SHRA BR BKN008 OVC025
                       FM241700 18004KT P6SM VCSH SCT015 OVC025
                       TEMPO 2417/2420 BKN015 OVC025 FM242000 32006KT
                       P6SM VCSH BKN022 BKN045 FM250000 32008KT
                       P6SM VCSH SCT025 BKN050=
201106241130 TAF KPAE 241130Z 2412/2512 00000KT P6SM VCSH SCT010 BKN030 OVC050
                       TEMPO 2412/2416 5SM -SHRA BR BKN010 OVC025
                       FM241600 18004KT P6SM VCSH OVC015 FM242000
                       32006KT P6SM VCSH BKN022 BKN045 FM250000
                       32008KT P6SM VCSH SCT025 BKN050=
201106240520 TAF KPAE 240520Z 2406/2506 VRB05KT P6SM VCSH OVC045 FM240900 16005KT
                       P6SM OVC012
                      TEMPO 2412/2416 5SM BR OVC006 FM241800 22010KT
                       P6SM VCSH SCT010 OVC020 FM242000 25007KT
                       P6SM VCSH SCT020 BKN045 FM250000 32008KT
                       P6SM VCSH SCT022 BKN050=
201106232326 TAF KPAE 232326Z 2400/2424 33005KT P6SM VCSH SCT025 BKN040 FM240900
                       16005KT P6SM OVC012
                      TEMPO 2412/2416 5SM BR OVC006 FM241800 22010KT
                       P6SM VCSH SCT010 OVC020=
201106231726 TAF KPAE 231726Z 2318/2418 17005KT P6SM FEW005 BKN040
                      TEMPO 2318/2320 SCT005 BKN025 FM232000 19008KT
                       P6SM VCSH SCT025 OVC040 FM232200 31005KT
                       P6SM VCSH SCT030 OVC050 FM240200 36006KT
                       P6SM VCSH SCT025 OVC040 FM240900 16005KT
                       P6SM VCSH OVC012
                      TEMPO 2412/2416 5SM BR OVC006=
201106231603 KPAE 231603Z 2316/2412 12005KT P6SM SCT005 BKN040
                      TEMPO 2316/2319 SCT005 BKN020 FM231900 19008KT
                       P6SM VCSH SCT025 OVC040 FM232200 31005KT
                       P6SM VCSH SCT030 OVC050 FM240200 36006KT
                       P6SM VCSH SCT025 OVC040 FM240900 16007KT
                       P6SM VCSH OVC018=
201106231130 TAF KPAE 231130Z 2312/2412 04003KT P6SM BKN023 OVC035 FM231300
                       20010KT P6SM OVC016
                      TEMPO 2315/2319 4SM -SHRA BR OVC006 FM231900
                       19008KT P6SM VCSH BKN018 OVC035 FM232200
                       31005KT P6SM VCSH BKN022 OVC040 FM240200
                       36006KT P6SM VCSH SCT025 OVC040 FM240900
                       16007KT P6SM VCSH OVC018=
201106230850 KPAE 230850Z 2309/2406 05003KT P6SM OVC021 FM231200 20010KT P6SM
                       OVC016
                      TEMPO 2315/2319 4SM -SHRA BR OVC006 FM231900
                       19008KT P6SM VCSH BKN018 OVC035 FM232200
                       31005KT P6SM VCSH BKN022 OVC040 FM240200
                       36006KT P6SM VCSH SCT025 OVC040=
201106230530 TAF KPAE 230530Z 2306/2406 35004KT P6SM BKN025 OVC035 FM230800
                       18005KT P6SM OVC006
                      TEMPO 2311/2315 2SM -DZ BR OVC003 FM231900
                       18005KT P6SM SCT008 BKN015 FM232200 30006KT
                       P6SM SCT015 BKN025=
201106222335 TAF KPAE 222335Z 2300/2324 34010KT P6SM BKN020 OVC030 FM230200
                       32008KT P6SM SCT020 BKN035 FM230800 18005KT
                       P6SM OVC006
                      TEMPO 2311/2315 2SM -DZ BR OVC003 FM231900
                       18005KT P6SM SCT008 BKN015 FM232200 30006KT
                       P6SM SCT015 BKN025=
201106222229 KPAE 222229Z 2222/2318 35009KT P6SM BKN018 OVC030 FM230000 32010KT
                       P6SM SCT020 BKN035 FM230900 18005KT P6SM
                       OVC006
                      TEMPO 2310/2314 2SM -DZ BR OVC003=
201106221732 TAF KPAE 221732Z 2218/2318 21008KT P6SM BKN008 OVC025 FM222000
                       25011KT P6SM BKN018 OVC040 FM222200 32010KT
                       P6SM SCT025 BKN040 FM230900 18005KT P6SM
                       OVC006
                      TEMPO 2310/2314 2SM -DZ BR OVC003=
201106221244 KPAE 221244Z 2213/2312 01006KT 6SM BR OVC001
                      TEMPO 2213/2215 2SM BR FM221700 21008KT P6SM
                       BKN011 OVC025 FM221900 25011KT P6SM BKN022
                       OVC040 FM222300 32010KT P6SM SCT025 BKN040
                       OVC070 FM230900 36005KT P6SM OVC008
                      TEMPO 2309/2312 2SM -DZ BR OVC003=
201106221130 TAF KPAE 221130Z 2212/2312 01008KT 1SM BR OVC001
                      TEMPO 2213/2217 4SM BR SCT003 OVC008 FM221700
                       21008KT P6SM BKN011 OVC025 FM221900 25011KT
                       P6SM BKN022 OVC040 FM222300 32010KT P6SM
                       SCT025 BKN040 OVC070 FM230900 36005KT P6SM
                       OVC008
                      TEMPO 2309/2312 2SM -DZ BR OVC003=
201106220530 TAF KPAE 220530Z 2206/2306 00000KT P6SM SCT050 SCT250 FM221100
                       16004KT P6SM OVC010 FM221700 21008KT P6SM
                       BKN013 OVC025 FM221900 22008KT P6SM OVC045
                       FM222200 32008KT P6SM BKN045 BKN120=
201106212328 TAF KPAE 212328Z 2200/2224 32005KT P6SM SCT040 BKN250 FM221100
                       16004KT P6SM OVC020 FM221800 26008KT P6SM
                       SCT025 BKN250=
201106211720 TAF KPAE 211720Z 2118/2218 28007KT P6SM SCT035 SCT250 FM220000
                       32005KT P6SM SCT040 BKN250 FM221100 16004KT
                       P6SM OVC016 FM221700 26004KT P6SM SCT025
                       BKN250=
201106211228 KPAE 211228Z 2112/2212 11004KT P6SM SCT035 FM211800 30007KT P6SM
                       SCT035 FM220000 33005KT P6SM SCT040 BKN250
                       FM221100 16004KT P6SM OVC016=
201106211124 TAF KPAE 211124Z 2112/2212 00000KT P6SM OVC035
                      TEMPO 2113/2117 OVC025 FM211700 28005KT P6SM
                       BKN030 FM211800 30007KT P6SM SCT035 FM220000
                       33005KT P6SM SCT040 BKN250 FM221100 16004KT
                       P6SM OVC016=
201106210520 TAF KPAE 210520Z 2106/2206 00000KT P6SM SCT080 FM211100 VRB03KT
                       P6SM SCT006 OVC025
                      TEMPO 2112/2116 BKN006 FM211700 28005KT P6SM
                       BKN030 FM211800 30007KT P6SM SCT035 FM220000
                       33005KT P6SM SCT040 BKN250=
201106202328 TAF KPAE 202328Z 2100/2124 31006KT P6SM SCT030 SCT050 FM210600
                       VRB03KT P6SM BKN030 FM211200 VRB03KT P6SM
                       SCT006 OVC025
                      TEMPO 2112/2116 BKN006 FM211700 31005KT P6SM
                       SCT030 BKN040=
201106201738 TAF KPAE 201738Z 2018/2118 21007KT P6SM BKN045 FM202200 31006KT
                       P6SM SCT050 FM210500 02003KT P6SM BKN030
                       FM211200 VRB03KT P6SM SCT006 OVC025
                      TEMPO 2112/2116 BKN006=
201106201520 KPAE 201520Z 2015/2112 VRB04KT P6SM SCT008 OVC025
                      TEMPO 2015/2017 BKN008 FM201800 21007KT P6SM
                       BKN045 FM202200 31006KT P6SM SCT050 FM210500
                       02004KT P6SM BKN030=
201106201122 TAF KPAE 201122Z 2012/2112 VRB04KT P6SM SCT004 OVC045
                      TEMPO 2012/2015 BKN004 FM201800 21007KT P6SM
                       BKN045 FM202200 31006KT P6SM SCT050 FM210500
                       02004KT P6SM BKN030=
201106201014 KPAE 201014Z 2010/2106 VRB04KT P6SM SCT002 BKN020 OVC040
                      TEMPO 2010/2014 BKN002 FM201800 21007KT P6SM
                       BKN025 OVC040 FM202200 31006KT P6SM SCT030
                       SCT050=
201106200527 TAF KPAE 200527Z 2006/2106 VRB04KT P6SM BKN023 OVC040 FM200900
                       VRB04KT P6SM OVC020 FM201800 21007KT P6SM
                       BKN025 OVC040 FM202200 31006KT P6SM SCT030
                       SCT050=
201106192320 TAF KPAE 192320Z 2000/2024 20007KT P6SM BKN025 OVC040 FM200900
                       VRB04KT P6SM OVC015 FM201800 21007KT P6SM
                       BKN025 OVC040 FM202100 30006KT P6SM SCT030
                       BKN050=
201106191720 TAF KPAE 191720Z 1918/2018 17008KT P6SM SCT007 OVC015
                      TEMPO 1918/1920 4SM -DZ BR BKN007 OVC012
                       FM192000 20008KT P6SM BKN015 OVC030 FM192200
                       24007KT P6SM SCT020 BKN040 FM200700 30006KT
                       P6SM OVC020 FM201100 18006KT P6SM OVC012
                       FM201700 21007KT P6SM BKN025 OVC040=
201106191502 TAF AMD KPAE 191502Z 1915/2012 VRB04KT 3SM BR OVC005
                      TEMPO 1915/1918 1SM -DZ BR OVC003 FM191800
                       20007KT P6SM SCT005 BKN010 OVC025 FM192200
                       32007KT P6SM BKN025 BKN040 FM200700 02004KT
                       P6SM OVC020=
201106191121 TAF KPAE 191121Z 1912/2012 VRB04KT P6SM BKN007 OVC013
                      TEMPO 1912/1916 2SM BR BKN004 FM191700 22007KT
                       P6SM BKN020 OVC030 FM192200 32007KT P6SM
                       SCT025 BKN040 FM200700 02004KT P6SM OVC020=
201106190528 TAF KPAE 190528Z 1906/2006 VRB04KT P6SM VCSH BKN010 OVC020
                      TEMPO 1906/1908 BKN005 FM190800 VRB04KT P6SM
                       OVC008 FM191700 22007KT P6SM BKN020 OVC040
                       FM192200 32007KT P6SM SCT025 BKN050=
201106190402 KPAE 190402Z 1904/1924 04005KT P6SM VCSH SCT007 OVC025
                      TEMPO 1904/1907 6SM -SHRA BR BKN003 BKN010
                       FM190700 VRB04KT P6SM OVC015 FM191700 22007KT
                       P6SM BKN020 OVC040 FM192100 32007KT P6SM
                       SCT025 BKN050=
201106182331 TAF KPAE 182331Z 1900/1924 04005KT P6SM SCT007 OVC025
                      TEMPO 1900/1904 5SM -SHRA BR BKN007 OVC020
                       FM190700 VRB04KT P6SM OVC015 FM191700 22007KT
                       P6SM BKN020 OVC040 FM192100 32007KT P6SM
                       SCT025 BKN050=
201106182220 KPAE 182220Z 1822/1918 VRB04KT P6SM SCT005 OVC027
                      TEMPO 1822/1902 6SM -SHRA BKN005 OVC025 FM190200
                       30007KT P6SM VCSH SCT012 BKN020 BKN040 FM190600
                       30007KT P6SM BKN012 OVC020=
201106181908 KPAE 181908Z 1819/1918 30005KT 4SM -RA BR BKN003 OVC015
                      TEMPO 1819/1821 2SM -RA BR OVC001 FM182100
                       30008KT P6SM VCSH SCT007 BKN015 OVC030
                      TEMPO 1821/1824 3SM -SHRA BR BKN005 OVC012
                       FM190300 VRB05KT P6SM -SHRA SCT012 BKN020
                       BKN040 FM190600 30007KT P6SM VCSH BKN012
                       OVC020=
201106181720 TAF KPAE 181720Z 1818/1918 VRB04KT 4SM -RA BR BKN007 OVC015
                      TEMPO 1818/1820 2SM -RA BR OVC007 FM182100
                       22008KT P6SM -SHRA SCT007 BKN015 OVC030
                       FM190000 VRB05KT P6SM -SHRA SCT012 BKN020
                       BKN040 FM190500 30007KT P6SM VCSH BKN012
                       OVC020=
201106181538 KPAE 181538Z 1816/1912 12005KT 4SM -DZ BR BKN005 OVC010
                      TEMPO 1816/1819 2SM -RA BR OVC003 FM182000
                       22008KT P6SM -SHRA BKN015 OVC035 FM182200
                       VRB05KT P6SM -SHRA BKN020 OVC040 FM190500
                       VRB05KT P6SM OVC015=
201106181353 KPAE 181353Z 1814/1912 16007KT P6SM -RA SCT008 OVC020
                      TEMPO 1814/1816 2SM -RA BR OVC006 FM182000
                       20008KT P6SM -SHRA BKN025 BKN030 BKN050
                       FM182200 VRB05KT P6SM -SHRA BKN025 OVC040
                       FM190500 VRB05KT P6SM OVC020=
201106181301 KPAE 181301Z 1813/1912 16007KT P6SM -RA SCT008 OVC020
                      TEMPO 1813/1816 5SM -RA BR OVC006 FM182000
                       20008KT P6SM -SHRA BKN025 BKN030 BKN050
                       FM182200 VRB05KT P6SM -SHRA BKN025 OVC040
                       FM190500 VRB05KT P6SM OVC020=
201106181120 TAF KPAE 181120Z 1812/1912 16007KT P6SM -RA BKN022 OVC050
                      TEMPO 1812/1816 BKN018 FM182000 20008KT P6SM
                       -SHRA BKN025 BKN030 BKN050 FM182200 VRB05KT
                       P6SM -SHRA BKN025 OVC040 FM190500 VRB05KT
                       P6SM OVC020=
201106180526 TAF KPAE 180526Z 1806/1906 29007KT P6SM SCT040 OVC090 FM180900
                       VRB04KT P6SM BKN035 OVC070 FM181200 18007KT
                       P6SM -SHRA BKN015 OVC035 FM182000 23008KT
                       P6SM VCSH BKN025 OVC050=
201106172320 TAF KPAE 172320Z 1800/1824 29007KT P6SM SCT040 BKN100 BKN200 FM180900
                       VRB04KT P6SM BKN035 OVC070 FM181200 18007KT
                       P6SM -SHRA BKN015 OVC035 FM182000 23008KT
                       P6SM VCSH BKN025 OVC050=
201106171725 TAF KPAE 171725Z 1718/1818 VRB04KT P6SM SCT020 SCT200 FM172100
                       23006KT P6SM SCT040 BKN200 FM180000 23006KT
                       P6SM SCT040 BKN100 FM180600 20006KT P6SM
                       BKN035 OVC070 FM181200 18008KT P6SM -SHRA
                       BKN020 OVC040=
201106171120 TAF KPAE 171120Z 1712/1812 VRB03KT P6SM SCT040 BKN120
                      TEMPO 1712/1715 BKN030 FM171900 23007KT P6SM
                       SCT120 FM180000 33006KT P6SM SCT050 BKN120
                       FM180600 VRB06KT P6SM BKN050 OVC070=
201106170520 TAF KPAE 170520Z 1706/1806 34006KT P6SM SCT060 FM170900 17004KT
                       P6SM SCT025
                      TEMPO 1712/1716 BKN025 FM171800 21006KT P6SM
                       SCT050 SCT200=
201106162331 TAF KPAE 162331Z 1700/1724 34006KT P6SM SCT060 BKN200 FM171200
                       VRB03KT P6SM BKN015 FM171800 21006KT P6SM
                       SCT200=
201106161737 TAF KPAE 161737Z 1618/1718 28003KT P6SM SCT020 OVC060 FM162000
                       24007KT P6SM SCT030 BKN060 FM170000 34008KT
                       P6SM SCT050 FM171200 VRB03KT P6SM BKN015=
201106161120 TAF KPAE 161120Z 1612/1712 20004KT P6SM OVC060 FM162000 24007KT
                       P6SM SCT030 BKN060 FM170000 34008KT P6SM
                       FEW050=
201106161007 KPAE 161007Z 1610/1706 VRB04KT P6SM FEW040 OVC060 FM161800 21005KT
                       P6SM OVC060 FM162000 24007KT P6SM SCT030
                       BKN060 FM170000 25008KT P6SM SCT045=
201106160520 TAF KPAE 160520Z 1606/1706 01005KT P6SM FEW060 FM161000 18004KT
                       P6SM SCT020
                      TEMPO 1612/1616 BKN020 FM161800 21005KT P6SM
                       SCT015 BKN030 FM162000 24007KT P6SM SCT030
                       BKN060 FM170000 25008KT P6SM SCT045=
201106152325 TAF KPAE 152325Z 1600/1624 00000KT P6SM SCT045 BKN120 FM160900
                       01004KT P6SM BKN015 OVC030 FM161200 VRB03KT
                       P6SM BKN008 FM162000 29007KT P6SM SCT030
                       BKN060=
201106151903 KPAE 151903Z 1519/1618 29005KT P6SM BKN020 OVC090 FM152100 32005KT
                       P6SM SCT020 BKN035 OVC090 FM160900 01004KT
                       P6SM BKN015 OVC030 FM161200 VRB03KT P6SM
                       BKN008=
201106151740 TAF KPAE 151740Z 1518/1618 26005KT P6SM VCSH SCT005 BKN015 OVC035
                       FM151900 32005KT P6SM BKN035 BKN200 FM160900
                       01004KT P6SM BKN015 OVC030 FM161200 VRB03KT
                       P6SM BKN008=
201106151523 KPAE 151523Z 1515/1612 01004KT P6SM VCSH SCT019 OVC040
                      TEMPO 1515/1517 -SHRA BKN005 OVC020 FM151900
                       VRB03KT P6SM BKN035 BKN200 FM152200 34005KT
                       P6SM BKN035 FM161000 VRB03KT P6SM BKN008=
201106151120 TAF KPAE 151120Z 1512/1612 01004KT P6SM VCSH SCT019 OVC045
                      TEMPO 1512/1516 -SHRA BKN015 OVC035 FM151900
                       VRB03KT P6SM BKN035 BKN200 FM152200 34005KT
                       P6SM BKN035 FM161000 VRB03KT P6SM BKN008=
201106150900 KPAE 150900Z 1509/1606 00000KT P6SM SCT015 BKN050 BKN110 FM151200
                       VRB03KT P6SM VCSH SCT015 OVC035
                      TEMPO 1512/1516 -SHRA BKN015 OVC035 FM151900
                       VRB03KT P6SM BKN035 BKN200 FM152200 34005KT
                       P6SM SCT040 SCT200=
201106150752 KPAE 150752Z 1508/1606 36004KT P6SM -RA SCT017 OVC026 FM151200
                       VRB03KT P6SM VCSH SCT009 BKN015 OVC035 FM151900
                       VRB03KT P6SM BKN035 BKN200 FM152200 34005KT
                       P6SM SCT040 SCT200=
201106150523 TAF KPAE 150523Z 1506/1606 02004KT P6SM -RA SCT009 BKN012 OVC035
                       FM150700 02004KT 5SM -RA BR BKN009 OVC012
                       FM151600 VRB03KT P6SM SCT009 BKN015 OVC035
                       FM151900 VRB03KT P6SM BKN035 BKN200 FM152200
                       34005KT P6SM SCT040 SCT200=
201106150252 KPAE 150252Z 1503/1524 35007KT P6SM VCSH FEW008 BKN016 OVC025 FM150500
                       VRB03KT 4SM -SHRA BR OVC012 FM151900 20007KT
                       P6SM BKN045 BKN200=
201106142325 TAF KPAE 142325Z 1500/1524 35005KT P6SM OVC050 FM150200 33004KT
                       P6SM -SHRA OVC020 FM150500 VRB03KT 4SM -SHRA
                       BR OVC012 FM151900 20007KT P6SM BKN045 BKN200=
201106141733 TAF KPAE 141733Z 1418/1518 VRB03KT P6SM SCT015 OVC025 FM150200
                       33004KT P6SM -SHRA OVC020 FM150500 VRB03KT
                       4SM -SHRA BR OVC012=
201106141307 KPAE 141307Z 1413/1512 VRB04KT P6SM VCSH SCT012 OVC022
                      TEMPO 1413/1417 BKN010 OVC020 FM141700 22006KT
                       P6SM BKN030 FM142000 33007KT P6SM BKN050
                       FM150200 33004KT P6SM VCSH OVC028 FM150500
                       VRB03KT 4SM -SHRA BR OVC012=
201106141120 TAF KPAE 141120Z 1412/1512 06004KT 3SM -DZ BR BKN003 OVC016 FM141500
                       VRB03KT P6SM VCSH BKN012 OVC025 FM141700
                       22006KT P6SM BKN030 FM142000 33007KT P6SM
                       BKN050 FM150200 33004KT P6SM VCSH OVC028
                       FM150500 VRB03KT 4SM -SHRA BR OVC012=
201106141009 KPAE 141009Z 1410/1506 VRB04KT P6SM VCSH SCT008 BKN011 OVC018
                      TEMPO 1410/1414 3SM -DZ BR OVC005 FM141700
                       24007KT P6SM BKN030 FM142000 33007KT P6SM
                       BKN050 FM150200 33004KT P6SM VCSH OVC028=
201106140839 KPAE 140839Z 1409/1506 VRB03KT P6SM VCSH SCT008 BKN011 OVC018 FM141700
                       24007KT P6SM BKN030 FM142000 33007KT P6SM
                       BKN050 FM150200 33004KT P6SM VCSH OVC028=
201106140520 TAF KPAE 140520Z 1406/1506 02007KT P6SM VCSH SCT009 OVC024 FM141000
                       VRB03KT P6SM OVC008 FM141700 24007KT P6SM
                       BKN030 FM142000 33007KT P6SM BKN050 FM150200
                       33004KT P6SM VCSH OVC028=
201106132320 TAF KPAE 132320Z 1400/1424 33008KT P6SM VCSH SCT025 BKN040
                      TEMPO 1400/1404 -SHRA BKN025 BKN040 FM140400
                       30008KT P6SM -SHRA BKN025 BKN040
                      TEMPO 1404/1408 VRB05KT P6SM -SHRA OVC015
                       FM141000 20007KT P6SM BKN020 FM141700 27007KT
                       P6SM BKN035 FM142000 30010KT P6SM SCT040=
201106131725 TAF KPAE 131725Z 1318/1418 22012G22KT P6SM VCSH SCT015 BKN030
                      TEMPO 1318/1322 -SHRA BKN015 OVC030 FM132200
                       28008KT P6SM -SHRA BKN015 OVC030 FM140200
                       30008KT P6SM VCSH BKN030 FM141000 18006KT
                       P6SM OVC015 FM141600 21007KT P6SM BKN020=
201106131407 KPAE 131407Z 1314/1412 16010KT 5SM -DZ BR SCT005 OVC012
                      TEMPO 1314/1318 2SM -RA BR BKN005 OVC010
                       FM131800 19012KT P6SM -SHRA BKN015 OVC025
                       FM132200 32007KT P6SM -SHRA BKN025 OVC040
                       FM140200 VRB03KT P6SM VCSH BKN025=
201106131120 TAF KPAE 131120Z 1312/1412 16010KT P6SM SCT004 BKN045 OVC060
                      TEMPO 1312/1316 5SM -DZ BR BKN004 OVC030
                       FM131600 19008KT P6SM -SHRA BKN025 FM132200
                       32007KT P6SM -SHRA BKN025 OVC040 FM140200
                       VRB03KT P6SM -SHRA BKN020 OVC030=
201106131043 KPAE 131043Z 1311/1406 17008KT P6SM OVC035
                      TEMPO 1311/1315 -RA FM131700 19008KT P6SM
                       -SHRA BKN035 FM132200 32007KT P6SM -SHRA
                       BKN025 OVC040=
201106130522 TAF KPAE 130522Z 1306/1406 19007KT P6SM SCT040 OVC060 FM130800
                       17008KT P6SM -RA OVC030 FM131000 17008KT
                       P6SM -RA OVC015 FM131700 19008KT P6SM -SHRA
                       BKN035 FM132200 32007KT P6SM -SHRA BKN025
                       OVC040=
201106122327 TAF KPAE 122327Z 1300/1324 25008KT P6SM FEW040 BKN150 FM130200
                       VRB04KT P6SM SCT035 BKN070 FM130500 16006KT
                       P6SM BKN030 OVC060
                      TEMPO 1305/1308 -RA BKN020 FM130800 17004KT
                       P6SM -RA OVC015 FM131700 21008KT P6SM -SHRA
                       OVC025 FM132000 22010G19KT P6SM VCSH BKN045=
201106121736 TAF KPAE 121736Z 1218/1318 00000KT P6SM SCT030 BKN200 FM122100
                       24005KT P6SM SCT050 SCT090 FM130100 24005KT
                       P6SM SCT060 BKN100 FM130600 20006KT P6SM
                       BKN035 OVC060 FM131200 20006KT P6SM VCSH
                       OVC020=
201106121120 TAF KPAE 121120Z 1212/1312 02003KT P6SM SCT006 SCT090
                      TEMPO 1212/1216 BKN006 OVC090 FM121600 VRB03KT
                       P6SM SCT030 SCT090 FM122100 32005KT P6SM
                       SCT050 SCT090 FM130100 32005KT P6SM OVC080
                       FM130800 17005KT P6SM OVC028=
201106120524 TAF KPAE 120524Z 1206/1306 02004KT P6SM SCT070 FM121200 VRB03KT
                       P6SM BKN035 FM122100 32005KT P6SM SCT045
                       FM130100 32005KT P6SM OVC080=
201106112320 TAF KPAE 112320Z 1200/1224 35006KT P6SM SCT035 BKN050 FM121200
                       VRB03KT P6SM BKN035 FM122100 VRB03KT P6SM
                       SCT045=
201106111738 TAF KPAE 111738Z 1118/1218 35006KT P6SM OVC060 FM120000 35006KT
                       P6SM SCT060 FM121200 VRB03KT P6SM BKN035=
201106111328 KPAE 111328Z 1113/1212 VRB03KT P6SM SCT025 OVC050
                      TEMPO 1113/1117 BKN025 OVC050 FM112000 VRB03KT
                       P6SM SCT020 BKN035 FM112300 32005KT P6SM
                       SCT040 FM120300 VRB03KT P6SM SCT040=
201106111300 KPAE 111300Z 1113/1212 VRB03KT P6SM SCT025 OVC050 FM112000 VRB03KT
                       P6SM SCT020 BKN035 FM112300 32005KT P6SM
                       SCT040 FM120300 VRB03KT P6SM SCT040=
201106111120 TAF KPAE 111120Z 1112/1212 00000KT P6SM SCT025 OVC040
                      TEMPO 1112/1114 BKN025 OVC040 FM111400 VRB03KT
                       P6SM OVC020 FM112000 VRB03KT P6SM SCT020
                       BKN035 FM112300 32005KT P6SM SCT040 FM120300
                       VRB03KT P6SM SCT040=
201106110908 KPAE 110908Z 1109/1206 01004KT P6SM BKN028 OVC060 FM111200 VRB03KT
                       P6SM BKN015 OVC030 FM112000 VRB03KT P6SM
                       SCT015 BKN035 FM112300 32005KT P6SM SCT040=
201106110725 KPAE 110725Z 1107/1206 36005KT P6SM BKN028 OVC060 FM110900 VRB03KT
                       P6SM SCT008 BKN015 OVC028 FM111200 VRB03KT
                       P6SM BKN008 OVC015 FM111900 VRB03KT P6SM
                       SCT008 OVC015 FM112100 29004KT P6SM SCT020
                       BKN035 FM112300 32005KT P6SM SCT040=
201106110527 TAF KPAE 110527Z 1106/1206 36004KT P6SM FEW026 OVC050 FM110900
                       VRB03KT P6SM SCT008 BKN015 OVC028 FM111200
                       VRB03KT P6SM BKN008 OVC015 FM111900 VRB03KT
                       P6SM SCT008 OVC015 FM112100 29004KT P6SM
                       SCT020 BKN035 FM112300 32005KT P6SM SCT040=
201106102336 TAF KPAE 102336Z 1100/1124 35004KT P6SM SCT020 BKN035 OVC050 FM110800
                       VRB03KT P6SM SCT008 OVC015 FM111400 VRB03KT
                       P6SM BKN008 OVC015 FM111900 VRB03KT P6SM
                       SCT008 OVC015 FM112100 VRB03KT P6SM SCT020
                       BKN035=
201106101736 TAF KPAE 101736Z 1018/1118 35004KT P6SM OVC008
                      TEMPO 1018/1020 3SM -DZ FM102000 35004KT
                       P6SM SCT008 OVC015 FM110000 35004KT P6SM
                       SCT015 BKN025 OVC040 FM110600 VRB03KT P6SM
                       SCT008 OVC015 FM111200 VRB03KT P6SM BKN008
                       OVC015=
201106101702 KPAE 101702Z 1017/1112 35004KT P6SM OVC008
                      TEMPO 1017/1019 3SM -DZ FM102000 35004KT
                       P6SM SCT008 OVC015 FM102200 35004KT P6SM
                       SCT015 BKN025 OVC040 FM110600 18004KT P6SM
                       OVC012=
201106101200 KPAE 101200Z 1012/1112 VRB03KT P6SM SCT006 OVC017
                      TEMPO 1012/1016 BKN006 OVC017 FM101900 27005KT
                       P6SM SCT025 BKN040 FM110600 18004KT P6SM
                       OVC012=
201106101120 TAF KPAE 101120Z 1012/1112 35004KT P6SM SCT006 BKN021 OVC120 FM101900
                       27005KT P6SM SCT025 BKN040 FM110600 18004KT
                       P6SM OVC012=
201106100805 KPAE 100805Z 1008/1106 VRB05KT P6SM SCT006 OVC090
                      TEMPO 1008/1012 BKN006 OVC090 FM101300 VRB03KT
                       P6SM BKN020 OVC040 FM101900 27005KT P6SM
                       SCT025 BKN040=
201106100520 TAF KPAE 100520Z 1006/1106 VRB05KT P6SM OVC050 FM101300 VRB03KT
                       P6SM BKN020 OVC040 FM101900 27005KT P6SM
                       SCT025 BKN040=
201106092320 TAF KPAE 092320Z 1000/1024 33005KT P6SM BKN040
                      TEMPO 1002/1006 SCT040 BKN200 FM100600 VRB03KT
                       P6SM BKN040 OVC200 FM101300 VRB03KT P6SM
                       BKN020 OVC040 FM101900 27005KT P6SM SCT025
                       BKN040=
201106091740 TAF KPAE 091740Z 0918/1018 26005KT P6SM BKN050 FM091900 28006KT
                       P6SM SCT050 SCT200 FM092100 31006KT P6SM
                       SCT050 BKN200 FM100500 36005KT P6SM BKN050
                       FM101200 01004KT P6SM BKN025 BKN050 FM101700
                       34005KT P6SM SCT025 BKN050=
201106091628 KPAE 091628Z 0916/1012 21004KT P6SM SCT014 OVC050 FM091900 26005KT
                       P6SM SCT020 BKN050 FM092100 30007KT P6SM
                       SCT050 BKN250 FM100800 36004KT P6SM BKN050=
201106091248 KPAE 091248Z 0913/1012 18003KT P6SM BKN009 OVC050 FM091800 20004KT
                       P6SM BKN015 BKN040 FM092100 34005KT P6SM
                       SCT040 BKN250 FM100800 36004KT P6SM BKN050=
201106091120 TAF KPAE 091120Z 0912/1012 18003KT P6SM BKN011 OVC050 FM091800
                       20004KT P6SM BKN015 BKN040 FM092100 34005KT
                       P6SM SCT040 BKN250 FM100800 36004KT P6SM
                       BKN050=
201106090858 KPAE 090858Z 0909/1006 18008KT P6SM OVC050 FM091100 16003KT P6SM
                       OVC015 FM091800 20004KT P6SM BKN015 BKN040
                       FM092100 29005KT P6SM SCT040 SCT250=
201106090523 TAF KPAE 090523Z 0906/1006 16006KT P6SM SCT090 FM090800 16003KT
                       P6SM BKN025 OVC040 FM091100 16003KT P6SM
                       BKN009 OVC015 FM091800 20004KT P6SM BKN015
                       BKN040 FM092100 29005KT P6SM SCT040 SCT250=
201106082323 TAF KPAE 082323Z 0900/0924 20006KT P6SM SCT024 BKN040
                      TEMPO 0900/0902 BKN024 BKN040 FM090400 18004KT
                       P6SM OVC040 FM090800 16003KT P6SM BKN025
                       OVC040 FM091100 16003KT P6SM BKN009 OVC015
                       FM091800 20004KT P6SM BKN015 BKN040 FM092100
                       29005KT P6SM SCT040 SCT250=
201106082209 KPAE 082209Z 0822/0918 20006KT P6SM BKN024 OVC040 FM090100 VRB04KT
                       P6SM SCT025 BKN040 FM090800 16003KT P6SM
                       OVC015 FM091300 16003KT P6SM OVC007 FM091700
                       18004KT P6SM OVC014=
201106081742 TAF KPAE 081742Z 0818/0918 18005KT P6SM BKN009 OVC015 FM082000
                       21004KT P6SM BKN018 OVC040 FM082200 25004KT
                       P6SM SCT022 OVC040 FM090100 VRB04KT P6SM
                       BKN040 FM090800 16003KT P6SM OVC015 FM091300
                       16003KT P6SM OVC007 FM091700 18004KT P6SM
                       OVC014=
201106081505 KPAE 081505Z 0815/0912 15004KT P6SM -SHRA BKN007 OVC014 FM081900
                       21004KT P6SM VCSH SCT010 BKN015 OVC060 FM082100
                       25004KT P6SM OVC040 FM090100 31006KT P6SM
                       SCT040 FM090800 16005KT P6SM OVC015=
201106081120 TAF KPAE 081120Z 0812/0912 21005KT P6SM BKN013 OVC060 FM082100
                       20007KT P6SM OVC040 FM090100 31006KT P6SM
                       SCT040 FM090800 16005KT P6SM OVC015=
201106080907 KPAE 080907Z 0809/0906 18005KT P6SM BKN050 OVC070 FM081100 20006KT
                       P6SM OVC025 FM082100 20007KT P6SM OVC040
                       FM090100 31006KT P6SM SCT040=
201106080522 TAF KPAE 080522Z 0806/0906 23003KT P6SM SCT040 OVC060 FM080900
                       18008KT P6SM OVC018 FM081900 20006KT P6SM
                       OVC025 FM082100 20007KT P6SM OVC040 FM090100
                       31006KT P6SM SCT040=
201106072329 TAF KPAE 072329Z 0800/0824 33006KT P6SM SCT025 OVC040
                      TEMPO 0800/0802 5SM -SHRA BR BKN025 FM080500
                       18006KT P6SM SCT018 BKN035 FM081000 18008KT
                       P6SM OVC018 FM081900 20006KT P6SM OVC025
                       FM082100 20007KT P6SM OVC040=
201106072005 KPAE 072005Z 0720/0818 33005KT P6SM -DZ SCT012 OVC022
                      TEMPO 0720/0723 1SM -RA BR BKN002 FM072300
                       28008KT P6SM SCT015 OVC025 FM080400 18006KT
                       P6SM SCT018 BKN035 FM081000 18008KT P6SM
                       OVC018=
201106071720 TAF KPAE 071720Z 0718/0818 18013G24KT P6SM -DZ SCT015 BKN025 OVC035
                       TEMPO 0718/0721 2SM -RA BR BKN015 OVC025
                       FM072100 18010KT P6SM SCT025 OVC035 FM081000
                       18008KT P6SM OVC018=
201106071345 KPAE 071345Z 0714/0812 19016G26KT P6SM SCT016 BKN025 OVC035
                      TEMPO 0714/0718 -RA OVC016 FM071800 18012KT
                       P6SM OVC020 FM072000 18010KT P6SM OVC035
                       FM072300 18010KT P6SM BKN045 FM081000 18008KT
                       P6SM OVC020=
201106071120 TAF KPAE 071120Z 0712/0812 18013G19KT P6SM OVC014 FM071700 18012KT
                       P6SM OVC020 FM072000 18010KT P6SM OVC035
                       FM072300 18010KT P6SM BKN045 FM081000 18008KT
                       P6SM OVC020=
201106070735 KPAE 070735Z 0708/0806 18011KT P6SM BKN016 BKN080 FM071000 16008KT
                       P6SM BKN015 BKN250 FM071300 17010KT P6SM
                       OVC010 FM071700 18012KT P6SM OVC020 FM072000
                       18010KT P6SM OVC035 FM072300 18010KT P6SM
                       BKN045=
201106070550 TAF KPAE 070550Z 0706/0806 19013KT P6SM BKN080 FM071000 16008KT
                       P6SM BKN020 BKN250 FM071300 17010KT P6SM
                       OVC010 FM071700 18012KT P6SM OVC020 FM072000
                       18010KT P6SM OVC035 FM072300 18010KT P6SM
                       BKN045=
201106062320 TAF KPAE 062320Z 0700/0724 25008KT P6SM SCT250 FM070200 34006KT
                       P6SM SCT250 FM070600 16008KT P6SM SCT250
                       FM071000 16008KT P6SM BKN020 BKN250 FM071300
                       17010KT P6SM OVC010 FM071700 18012KT P6SM
                       OVC020 FM072000 18010KT P6SM OVC035 FM072300
                       18010KT P6SM BKN045=
201106061732 TAF KPAE 061732Z 0618/0718 24005KT P6SM FEW030 BKN250 FM062000
                       29006KT P6SM BKN250 FM070300 20006KT P6SM
                       BKN250 FM071000 15007KT P6SM BKN020 BKN250
                       FM071200 17010KT P6SM OVC015 FM071500 17010KT
                       P6SM OVC010
                      PROB30 0715/0718 5SM -DZ=
201106061634 KPAE 061634Z 0617/0712 VRB03KT P6SM FEW006 BKN200 FM062000 29006KT
                       P6SM SCT040 SCT200 FM070300 20006KT P6SM
                       SCT040 FM070600 17008KT P6SM BKN020 BKN040
                       FM070800 17008KT P6SM OVC015=
201106061418 KPAE 061418Z 0614/0712 VRB03KT P6SM FEW006 BKN200
                      TEMPO 0616/0618 BKN006 BKN200 FM061800 VRB03KT
                       P6SM OVC010 FM062000 29006KT P6SM SCT040
                       SCT200 FM070300 20006KT P6SM SCT040 FM070600
                       17008KT P6SM BKN020 BKN040 FM070800 17008KT
                       P6SM OVC015=
201106061120 TAF KPAE 061120Z 0612/0712 VRB03KT P6SM FEW005 BKN200
                      TEMPO 0612/0614 BKN005 BKN200 FM061400 VRB03KT
                       P6SM OVC005 FM061800 VRB03KT P6SM OVC010
                       FM062000 29006KT P6SM SCT040 SCT200 FM070300
                       20006KT P6SM SCT040 FM070600 17008KT P6SM
                       BKN020 BKN040 FM070800 17008KT P6SM OVC015=
201106060541 TAF KPAE 060541Z 0606/0706 VRB03KT P6SM SCT130 OVC200 FM061000
                       VRB03KT P6SM FEW006 BKN200
                      TEMPO 0610/0614 BKN006 BKN200 FM061400 19005KT
                       P6SM OVC009 FM061800 24005KT P6SM OVC018
                       FM062000 28005KT P6SM SCT040 SCT200 FM070300
                       18006KT P6SM SCT040=
201106052320 TAF KPAE 052320Z 0600/0624 01006KT P6SM BKN130 FM060300 VRB03KT
                       P6SM BKN130 BKN250 FM061400 18004KT P6SM
                       FEW006 BKN100 BKN250 FM061500 18005KT 5SM
                       BR OVC009 FM061800 20007KT P6SM BKN022=
201106051720 TAF KPAE 051720Z 0518/0618 30006KT P6SM FEW130 BKN250 FM060300
                       VRB03KT P6SM BKN130 BKN250 FM061400 18004KT
                       P6SM FEW006 BKN100 BKN250 FM061500 18005KT
                       5SM BR OVC009=
201106051123 TAF KPAE 051123Z 0512/0612 VRB03KT P6SM SKC FM051800 32006KT P6SM
                       SCT250 FM060600 36006KT P6SM SCT130 BKN250
                       FM061000 VRB03KT P6SM FEW006 SCT130 BKN250=
201106050520 TAF KPAE 050520Z 0506/0606 VRB03KT P6SM SKC FM051800 32006KT P6SM
                       SCT250=
201106042320 TAF KPAE 042320Z 0500/0524 01008KT P6SM SKC FM050300 VRB03KT P6SM
                       SKC FM051800 32007KT P6SM SKC=
201106041720 TAF KPAE 041720Z 0418/0518 01008KT P6SM SKC FM050300 VRB03KT P6SM
                       SKC=
201106041120 TAF KPAE 041120Z 0412/0512 01004KT P6SM SKC FM041800 32008KT P6SM
                       SKC FM050300 VRB03KT P6SM SKC=
201106040520 TAF KPAE 040520Z 0406/0506 01005KT P6SM SKC FM041800 32008KT P6SM
                       SKC FM050300 VRB03KT P6SM SKC=
201106032320 TAF KPAE 032320Z 0400/0424 35008KT P6SM SKC FM040400 01005KT P6SM
                       SKC FM041800 34008KT P6SM SKC=
201106031720 TAF KPAE 031720Z 0318/0418 01006KT P6SM FEW018 SCT060 SCT250 FM032000
                       33008KT P6SM FEW060 SCT250 FM040300 01005KT
                       P6SM SKC=
201106031602 KPAE 031602Z 0316/0412 VRB03KT P6SM SCT018 SCT060
                      TEMPO 0316/0317 BKN018 FM031800 01006KT P6SM
                       FEW060 SCT250 FM032000 33008KT P6SM FEW060
                       SCT250 FM040300 01005KT P6SM SKC=
201106031423 KPAE 031423Z 0314/0412 VRB03KT P6SM SCT060 FM031800 01006KT P6SM
                       FEW060 SCT250 FM032000 33008KT P6SM FEW060
                       SCT250 FM040300 01005KT P6SM SKC=
201106031120 TAF KPAE 031120Z 0312/0412 VRB03KT P6SM VCFG SCT018 SCT040
                      TEMPO 0312/0314 BKN018 BKN040 FM031400 VRB03KT
                       P6SM BKN018 BKN040 FM031800 01006KT P6SM
                       FEW050 SCT250 FM032000 33008KT P6SM FEW050
                       SCT250 FM040300 01005KT P6SM SKC=
201106030901 KPAE 030901Z 0309/0406 VRB03KT P6SM VCFG SCT018
                      TEMPO 0309/0312 BKN018 FM031200 VRB03KT P6SM
                       OVC018 FM031800 01006KT P6SM BKN025 BKN050
                       FM031900 33008KT P6SM FEW050 SCT250 FM040300
                       01005KT P6SM SKC=
201106030803 KPAE 030803Z 0308/0406 VRB03KT P6SM VCSH SCT005 OVC020
                      TEMPO 0308/0310 -SHRA BKN005 OVC020 FM031200
                       VRB03KT P6SM OVC018 FM031800 01006KT P6SM
                       BKN025 BKN050 FM031900 33008KT P6SM FEW050
                       SCT250 FM040300 01005KT P6SM SKC=
201106030712 KPAE 030712Z 0307/0406 VRB03KT P6SM VCSH OVC028
                      TEMPO 0307/0310 -SHRA FM031200 VRB03KT P6SM
                       OVC018 FM031800 01006KT P6SM BKN025 BKN050
                       FM031900 33008KT P6SM FEW050 SCT250 FM040300
                       01005KT P6SM SKC=
201106030520 TAF KPAE 030520Z 0306/0406 VRB03KT P6SM VCSH BKN035 BKN070
                      TEMPO 0306/0308 -SHRA FM030900 VRB03KT P6SM
                       BKN028 FM031200 VRB03KT P6SM OVC018 FM031800
                       01006KT P6SM BKN025 BKN050 FM031900 33008KT
                       P6SM FEW050 SCT250 FM040300 01005KT P6SM
                       SKC=
201106030147 KPAE 030147Z 0302/0324 36004KT P6SM -SHRA SCT004 BKN025 OVC050
                       TEMPO 0302/0305 5SM SHRA BKN004 OVC020 FM030500
                       18006KT P6SM VCSH SCT020 OVC040
                      TEMPO 0305/0307 -SHRA BKN020 OVC040 FM030800
                       VRB03KT P6SM BKN012 OVC030
                      TEMPO 0312/0315 BKN007 OVC012 FM031700 35005KT
                       P6SM BKN020 BKN040 FM031900 33006KT P6SM
                       SCT030 FM032200 32007KT P6SM SCT250=
201106022320 TAF KPAE 022320Z 0300/0324 VRB06KT P6SM -SHRA SCT018 BKN030 OVC050
                       TEMPO 0300/0304 BKN020 BKN030 OVC050 FM030400
                       18006KT P6SM VCSH SCT020 OVC040
                      TEMPO 0304/0307 -SHRA BKN020 OVC040 FM030800
                       VRB03KT P6SM BKN012 OVC030
                      TEMPO 0312/0315 BKN007 OVC012 FM031700 35005KT
                       P6SM BKN020 BKN040 FM031900 33006KT P6SM
                       SCT030 FM032200 32007KT P6SM SCT250=
201106021958 KPAE 021958Z 0220/0318 VRB06KT P6SM -SHRA SCT018 BKN030 OVC060
                       TEMPO 0220/0224 BKN020 BKN030 OVC060 FM030000
                       18011KT P6SM -SHRA BKN022 OVC040 FM030200
                       16006KT P6SM VCSH BKN035 OVC050 FM030700
                       VRB03KT P6SM BKN015 OVC030 FM031700 35005KT
                       P6SM SCT020 BKN060=
201106021742 TAF KPAE 021742Z 0218/0318 17009KT P6SM SCT007 BKN015 OVC050
                      TEMPO 0218/0220 -SHRA BKN007 OVC015 FM022000
                       17009KT P6SM -SHRA BKN018 OVC030 FM022300
                       18011KT P6SM -SHRA BKN022 OVC040 FM030200
                       16006KT P6SM VCSH BKN035 OVC050 FM030700
                       VRB03KT P6SM BKN015 OVC030 FM031700 35005KT
                       P6SM SCT020 BKN060=
201106021612 KPAE 021612Z 0216/0312 17009KT P6SM -SHRA SCT005 OVC012
                      TEMPO 0216/0218 6SM -SHRA BR BKN005 OVC012
                       FM021800 17009KT P6SM -SHRA BKN018 OVC030
                       FM022100 18011KT P6SM -SHRA BKN022 OVC040
                       FM030200 16006KT P6SM BKN035 OVC050
                      PROB30 0302/0306 -SHRA FM030900 VRB03KT P6SM
                       BKN022 BKN035=
201106021134 TAF KPAE 021134Z 0212/0312 16005KT P6SM -SHRA FEW005 OVC012
                      TEMPO 0212/0215 3SM SHRA BKN005 OVC012 FM021500
                       16009KT P6SM VCSH OVC018
                      TEMPO 0215/0217 -SHRA FM021800 18011KT P6SM
                       OVC022 FM022100 18011KT P6SM BKN030 OVC050
                       PROB30 0221/0302 -SHRA FM030200 16006KT
                       P6SM BKN035 OVC050
                      PROB30 0302/0306 -SHRA FM030900 VRB03KT P6SM
                       BKN022 BKN035=
201106020520 TAF KPAE 020520Z 0206/0306 VRB03KT P6SM VCSH SCT018 OVC050
                      TEMPO 0206/0209 BKN018 OVC050 FM020900 16006KT
                       P6SM VCSH SCT018 OVC035
                      TEMPO 0209/0211 BKN018 OVC035 FM021100 16009KT
                       P6SM OVC018 FM021800 18011KT P6SM OVC022
                       PROB30 0218/0221 -SHRA FM022100 18011KT
                       P6SM BKN030 OVC050
                      PROB30 0221/0302 -SHRA FM030200 16006KT P6SM
                       BKN035 OVC050
                      PROB30 0302/0306 -SHRA=
201106020437 KPAE 020437Z 0205/0224 VRB03KT P6SM SCT018 OVC060
                      TEMPO 0205/0206 BKN018 OVC060 FM020600 18005KT
                       P6SM -SHRA BKN008 OVC015 FM021800 20005KT
                       P6SM -SHRA BKN015 OVC030=
201106020218 KPAE 020218Z 0202/0224 33005KT P6SM VCSH SCT020 BKN050 BKN130
                      TEMPO 0202/0206 BKN020 BKN050 BKN130 FM020600
                       18005KT P6SM -SHRA BKN008 OVC015 FM021800
                       20005KT P6SM -SHRA BKN015 OVC030=
201106020156 KPAE 020156Z 0202/0224 33005KT P6SM VCSH SCT025 BKN050 BKN130 FM020600
                       18005KT P6SM -SHRA BKN008 OVC015 FM021800
                       20005KT P6SM -SHRA BKN015 OVC030=
201106012321 TAF KPAE 012321Z 0200/0224 33005KT P6SM VCSH BKN015 OVC030 FM020600
                       18005KT P6SM -SHRA BKN008 OVC015 FM021800
                       20005KT P6SM -SHRA BKN015 OVC030=
201106011735 TAF KPAE 011735Z 0118/0218 21005KT P6SM -SHRA BKN007 OVC040
                      TEMPO 0118/0122 SCT007 OVC040 FM012200 21006KT
                       P6SM -SHRA BKN012 OVC040 FM020600 VRB04KT
                       P6SM -SHRA OVC010=
201106011130 TAF KPAE 011130Z 0112/0212 15003KT P6SM SCT006 BKN015 OVC070
                      TEMPO 0112/0116 -SHRA BKN006 OVC015 FM011600
                       15006KT P6SM -SHRA SCT006 OVC011
                      TEMPO 0116/0120 4SM -SHRA OVC006 FM020000
                       16006KT P6SM -SHRA SCT012 OVC020 FM020600
                       16006KT P6SM -SHRA OVC013=
201106010535 TAF KPAE 010535Z 0106/0206 20004KT P6SM VCSH OVC060
                      TEMPO 0106/0110 -SHRA BKN035 OVC050 FM011000
                       18004KT P6SM -SHRA BKN020 OVC040 FM011300
                       19006KT P6SM -SHRA BKN008 OVC015 FM011800
                       19007KT P6SM -SHRA SCT020 BKN040=