##########################################################
# Query made at 02/15/2025 20:38:33 UTC
# Time interval: from 11/01/2012 00:00  to 11/30/2012 23:59  UTC
##########################################################

##########################################################
# KPAE, Everett, Snohomish County Airport (United States)
# WMO index: -----. WIGOS ID: Unknown
# Latitude 47-55-23N. Longitude 122-16-57W. Altitude 184 m.
##########################################################

###################################
#  METAR/SPECI from KPAE
###################################
201211302353 METAR KPAE 302353Z 16012KT 8SM -RA FEW021 OVC048 11/08 A2945 RMK AO2 SLP972 P0007 60029 T01060083 10117 20100 53009=
201211302253 METAR KPAE 302253Z 17011G20KT 9SM -RA BKN033 OVC048 11/08 A2943 RMK AO2 SLP966 P0005 T01110078=
201211302153 METAR KPAE 302153Z 18003KT 4SM -RA BR BKN038 OVC045 11/08 A2942 RMK AO2 SLP963 P0006 T01060083=
201211302053 METAR KPAE 302053Z 15007KT 10SM -RA SCT035 OVC046 11/08 A2942 RMK AO2 SLP963 P0004 60011 T01110078 58000=
201211301953 METAR KPAE 301953Z 16009KT 10SM -RA FEW041 BKN050 OVC060 11/07 A2942 RMK AO2 SLP963 P0005 T01060072=
201211301853 METAR KPAE 301853Z 15008KT 10SM -RA BKN050 OVC065 11/07 A2943 RMK AO2 RAB05 SLP965 P0002 T01060067=
201211301753 METAR KPAE 301753Z 15010KT 10SM BKN055 BKN070 10/07 A2942 RMK AO2 SLP963 60004 T01000067 10100 20078 51017=
201211301653 METAR KPAE 301653Z 15011G17KT 10SM SCT035 SCT043 BKN055 09/07 A2941 RMK AO2 RAE00B23E52 SLP959 P0001 T00890067=
201211301553 METAR KPAE 301553Z 15011G15KT 10SM -RA SCT038 BKN048 OVC070 09/06 A2939 RMK AO2 SLP953 P0003 T00890061=
201211301453 METAR KPAE 301453Z VRB05KT 10SM -RA SCT060 BKN075 BKN100 09/06 A2937 RMK AO2 RAB42 SLP946 P0000 60000 T00890061 56009=
201211301353 METAR KPAE 301353Z 12010G16KT 10SM OVC060 09/06 A2937 RMK AO2 RAE01 SLP946 P0000 T00890061=
201211301253 METAR KPAE 301253Z 12006KT 9SM -RA FEW040 BKN049 OVC100 08/06 A2938 RMK AO2 RAE31B49 SLP950 P0000 T00830061=
201211301153 METAR KPAE 301153Z 12008G16KT 10SM -RA BKN045 BKN055 OVC070 08/06 A2940 RMK AO2 RAB17 SLP955 P0001 60020 70034 T00830061 10094 20078 58014=
201211301053 METAR KPAE 301053Z 12006KT 10SM SCT044 BKN055 OVC065 08/07 A2941 RMK AO2 RAE40 SLP961 P0007 T00830067=
201211300953 METAR KPAE 300953Z 15007KT 4SM RA BR FEW023 OVC043 08/06 A2944 RMK AO2 SLP969 P0011 T00830061=
201211300853 METAR KPAE 300853Z 15007KT 9SM -RA OVC041 09/05 A2944 RMK AO2 RAB16 SLP970 P0001 60001 T00890050 56022=
201211300753 METAR KPAE 300753Z 11008KT 10SM BKN050 BKN065 09/04 A2945 RMK AO2 SLP972 T00890044 401060083=
201211300653 METAR KPAE 300653Z 12008KT 10SM BKN039 BKN060 09/04 A2946 RMK AO2 RAB35E46 SLP978 P0000 T00890044=
201211300553 METAR KPAE 300553Z 12006KT 10SM OVC050 09/05 A2951 RMK AO2 RAB26E47 SLP993 P0000 60002 T00890050 10094 20089 56006=
201211300453 METAR KPAE 300453Z 14003KT 10SM OVC049 09/06 A2951 RMK AO2 RAE02B30E36 SLP993 P0000 T00890056=
201211300353 METAR KPAE 300353Z 11006KT 10SM -RA FEW038 OVC049 09/06 A2951 RMK AO2 RAB15 SLP993 P0001 T00890056=
201211300253 METAR KPAE 300253Z 11007KT 10SM BKN048 BKN060 OVC070 09/05 A2952 RMK AO2 RAB10E43 SLP999 P0001 60001 T00940050 56015=
201211300153 METAR KPAE 300153Z 12005KT 10SM OVC065 09/06 A2954 RMK AO2 SLP003 T00890056=
201211300053 METAR KPAE 300053Z 12007KT 10SM SCT049 BKN055 OVC075 09/06 A2955 RMK AO2 RAB2354E01 SLP009 P0000 T00890061=
201211292353 METAR KPAE 292353Z 11005KT 10SM OVC037 09/07 A2957 RMK AO2 SLP014 60005 T00940067 10100 20094 56012=
201211292253 METAR KPAE 292253Z 15004KT 10SM OVC035 10/06 A2957=
201211292153 METAR KPAE 292153Z VRB03KT 10SM BKN046 OVC055 10/07 A2958 RMK AO2 RAE49 SLP017 P0001 T01000067=
201211292053 METAR KPAE 292053Z 15010G16KT 10SM -RA SCT032 BKN044 OVC055 10/06 A2960 RMK AO2 RAB02 SLP026 P0001 60004 T01000061 51009=
201211291953 METAR KPAE 291953Z 15010G16KT 10SM BKN035 OVC048 10/07 A2960 RMK AO2 RAE33 SLP025 P0001 T01000072=
201211291853 METAR KPAE 291853Z 15009G18KT 9SM -RA SCT043 OVC050 10/07 A2959 RMK AO2 SLP021 P0002 T01000072=
201211291753 METAR KPAE 291753Z 16010KT 9SM -RA OVC050 10/06 A2958 RMK AO2 SLP017 P0003 60007 T01000061 10106 20089 53013=
201211291653 METAR KPAE 291653Z 16009KT 10SM -RA OVC060 09/06 A2955 RMK AO2 PRESRR SLP007 P0002 T00940061=
201211291553 METAR KPAE 291553Z 14007KT 10SM -RA OVC060 10/06 A2953 RMK AO2 SLP999 P0001 T01000056=
201211291453 METAR KPAE 291453Z VRB06KT 10SM -RA OVC060 11/04 A2954 RMK AO2 RAB01E21B41 SLP003 P0001 60001 T01060044 56033=
201211291353 METAR KPAE 291353Z 12006KT 10SM BKN070 BKN090 09/04 A2956 RMK AO2 RAB11E21 SLP012 P0000 T00940044=
201211291253 METAR KPAE 291253Z AUTO 12010KT 10SM OVC065 09/05 A2961 RMK AO2 RAE1158 SLP026 P0000 T00890050=
201211291153 METAR KPAE 291153Z AUTO 11008KT 10SM -RA OVC060 09/06 A2964 RMK AO2 RAB34 SLP037 P0000 60000 70022 T00890056 10100 20078 58019=
201211291053 METAR KPAE 291053Z AUTO 13007G15KT 100V180 10SM FEW045 OVC065 09/05 A2967 RMK AO2 SLP047 T00940050=
201211290953 METAR KPAE 290953Z AUTO 12009KT 10SM OVC065 09/06 A2968 RMK AO2 SLP052 T00890056=
201211290853 METAR KPAE 290853Z AUTO 15007KT 10SM BKN060 OVC095 09/06 A2970 RMK AO2 SLP057 60000 T00940061 58008=
201211290753 METAR KPAE 290753Z AUTO 15010KT 10SM OVC060 09/06 A2971 RMK AO2 SLP062 T00940056 401060028=
201211290653 METAR KPAE 290653Z AUTO VRB04KT 10SM FEW070 BKN085 08/06 A2972 RMK AO2 RAE00 SLP066 P0000 T00830056=
201211290553 METAR KPAE 290553Z AUTO VRB03KT 9SM -RA BKN039 OVC049 08/06 A2972 RMK AO2 SLP065 P0003 60015 T00830061 10089 20072 51020=
201211290453 METAR KPAE 290453Z 16005KT 4SM -RA BR OVC036 08/06 A2970 RMK AO2 RAB0354 SLP060 P0006 T00780061=
201211290353 METAR KPAE 290353Z 14007KT 10SM BKN042 OVC049 08/06 A2968 RMK AO2 RAE0258 SLP054 P0000 T00830056=
201211290253 METAR KPAE 290253Z 12007KT 8SM -RA FEW043 OVC050 08/06 A2966 RMK AO2 RAE0155B25 SLP046 P0002 60006 T00830061 53014=
201211290153 METAR KPAE 290153Z 13006G16KT 10SM -RA BKN050 OVC070 08/06 A2963 RMK AO2 RAE12B30 SLP034 P0000 T00780061=
201211290053 METAR KPAE 290053Z 12007KT 9SM -RA OVC060 07/06 A2963 RMK AO2 SLP034 P0004 T00720056=
201211282353 METAR KPAE 282353Z VRB05KT 6SM -RA OVC055 08/05 A2962 RMK AO2 SLP032 P0002 60007 T00830050 10106 20083 55003=
201211282253 METAR KPAE 282253Z VRB05KT 8SM -RA OVC055 08/04 A2961 RMK AO2 SLP030 P0005 T00830044=
201211282153 METAR KPAE 282153Z 24005KT 9SM -RA SCT050 OVC060 09/03 A2963 RMK AO2 RAB19 SLP035 P0000 T00940028=
201211282053 METAR KPAE 282053Z 00000KT 10SM OVC100 09/02 A2963 RMK AO2 SLP036 T00940022 56023=
201211281953 METAR KPAE 281953Z 00000KT 10SM OVC100 09/02 A2965 RMK AO2 SLP044 T00890022=
201211281853 METAR KPAE 281853Z VRB03KT 10SM BKN100 OVC110 09/01 A2966 RMK AO2 SLP046 T00940006=
201211281753 METAR KPAE 281753Z 00000KT 10SM BKN100 08/02 A2970 RMK AO2 SLP059 T00780022 10083 20033 58020=
201211281653 METAR KPAE 281653Z 00000KT 10SM BKN095 BKN120 05/02 A2973 RMK AO2 SLP069 T00500022=
201211281553 METAR KPAE 281553Z 00000KT 10SM CLR 04/02 A2973 RMK AO2 SLP071 T00440022=
201211281453 METAR KPAE 281453Z 00000KT 10SM CLR 04/02 A2976 RMK AO2 SLP080 T00440022 56024=
201211281353 METAR KPAE 281353Z AUTO 36003KT 10SM SCT110 04/02 A2978 RMK AO2 SLP086 T00440017=
201211281253 METAR KPAE 281253Z AUTO 02004KT 10SM CLR 04/02 A2980 RMK AO2 SLP096 T00440022=
201211281153 METAR KPAE 281153Z AUTO 00000KT 10SM CLR 03/02 A2983 RMK AO2 SLP105 T00330017 10072 20028 58016=
201211281053 METAR KPAE 281053Z AUTO 00000KT 10SM CLR 04/02 A2986 RMK AO2 SLP113 T00440022=
201211280953 METAR KPAE 280953Z AUTO 00000KT 10SM CLR 05/01 A2986 RMK AO2 SLP114 T00500011=
201211280853 METAR KPAE 280853Z AUTO 00000KT 10SM CLR 04/02 A2988 RMK AO2 SLP120 T00440022 56012=
201211280753 METAR KPAE 280753Z AUTO 00000KT 10SM CLR 05/02 A2988 RMK AO2 SLP121 T00500022 401000022=
201211280653 METAR KPAE 280653Z AUTO 04003KT 10SM CLR 06/02 A2990 RMK AO2 SLP129 T00610017=
201211280553 METAR KPAE 280553Z AUTO 00000KT 10SM CLR 07/01 A2991 RMK AO2 SLP132 T00720011 10083 20044 56012=
201211280453 METAR KPAE 280453Z AUTO 09003KT 10SM CLR 07/01 A2991 RMK AO2 SLP133 T00720006=
201211280353 METAR KPAE 280353Z 00000KT 10SM SCT060 BKN080 07/01 A2994 RMK AO2 SLP140 T00720011=
201211280253 METAR KPAE 280253Z 00000KT 10SM BKN065 OVC080 06/02 A2995 RMK AO2 SLP146 T00610017 58009=
201211280153 METAR KPAE 280153Z 01003KT 10SM BKN075 05/01 A2997 RMK AO2 SLP151 T00500011=
201211280053 METAR KPAE 280053Z 35003KT 10SM BKN060 05/01 A2997 RMK AO2 SLP154 T00500011=
201211272353 METAR KPAE 272353Z 36003KT 10SM CLR 06/01 A2998 RMK AO2 SLP154 T00560011 10100 20056 56010=
201211272253 METAR KPAE 272253Z 00000KT 10SM CLR 07/02 A2999 RMK AO2 SLP158 T00670022=
201211272153 METAR KPAE 272153Z 28003KT 10SM CLR 08/01 A3000 RMK AO2 SLP160 T00830011=
201211272053 METAR KPAE 272053Z 00000KT 10SM CLR 10/01 A3001 RMK AO2 SLP164 T01000006 58018=
201211271953 METAR KPAE 271953Z VRB03KT 10SM CLR 08/M01 A3003 RMK AO2 SLP174 T00831011=
201211271853 METAR KPAE 271853Z 00000KT 10SM FEW048 07/01 A3005 RMK AO2 SLP181 T00670006=
201211271753 METAR KPAE 271753Z 00000KT 10SM CLR 06/M01 A3006 RMK AO2 SLP184 T00611006 10061 20022 53001=
201211271653 METAR KPAE 271653Z 00000KT 10SM CLR 06/M02 A3006 RMK AO2 SLP183 T00561017=
201211271553 METAR KPAE 271553Z 00000KT 10SM CLR 04/M02 A3005 RMK AO2 SLP181 T00441022=
201211271453 METAR KPAE 271453Z 00000KT 10SM CLR 03/M01 A3006 RMK AO2 SLP184 T00331011 55001=
201211271353 METAR KPAE 271353Z AUTO 12003KT 10SM CLR 04/M01 A3006 RMK AO2 SLP183 T00391011=
201211271253 METAR KPAE 271253Z AUTO 15004KT 10SM CLR 05/M02 A3006 RMK AO2 SLP183 T00501017=
201211271153 METAR KPAE 271153Z AUTO 12003KT 10SM SCT048 04/M02 A3006 RMK AO2 SLP184 T00441017 10050 20017 50000=
201211271053 METAR KPAE 271053Z AUTO 00000KT 10SM OVC050 04/M02 A3007 RMK AO2 SLP185 T00441017=
201211270953 METAR KPAE 270953Z AUTO 00000KT 10SM OVC055 03/00 A3006 RMK AO2 SLP183 T00330000=
201211270853 METAR KPAE 270853Z AUTO 00000KT 10SM BKN055 03/01 A3006 RMK AO2 SLP184 T00330006 50002=
201211270753 METAR KPAE 270753Z AUTO 00000KT 10SM CLR 02/M01 A3007 RMK AO2 SLP188 T00221006 400780011=
201211270653 METAR KPAE 270653Z AUTO 00000KT 10SM CLR 03/M01 A3007 RMK AO2 SLP185 T00331011=
201211270553 METAR KPAE 270553Z AUTO 10003KT 10SM CLR 04/M01 A3006 RMK AO2 SLP182 T00441011 10056 20022 50001=
201211270453 METAR KPAE 270453Z 00000KT 10SM CLR 03/00 A3006 RMK AO2 SLP185 T00280000=
201211270353 METAR KPAE 270353Z 01003KT 10SM CLR 04/01 A3005 RMK AO2 SLP181 T00390006=
201211270253 METAR KPAE 270253Z 00000KT 10SM CLR 04/01 A3006 RMK AO2 SLP182 T00390006 57002=
201211270153 METAR KPAE 270153Z 03003KT 10SM CLR 04/01 A3006 RMK AO2 SLP183 T00390006=
201211270053 METAR KPAE 270053Z 02003KT 10SM CLR 04/01 A3006 RMK AO2 SLP184 T00440011=
201211262353 METAR KPAE 262353Z 01004KT 10SM CLR 06/01 A3006 RMK AO2 SLP185 T00560006 10078 20039 55009=
201211262253 METAR KPAE 262253Z 03003KT 10SM CLR 07/M01 A3006 RMK AO2 SLP183 T00721006=
201211262153 METAR KPAE 262153Z 01003KT 10SM CLR 08/01 A3007 RMK AO2 SLP186 T00780006=
201211262053 METAR KPAE 262053Z 36004KT 10SM CLR 07/01 A3009 RMK AO2 SLP193 T00670006 58011=
201211261953 METAR KPAE 261953Z 00000KT 10SM CLR 06/M01 A3010 RMK AO2 SLP198 T00611006=
201211261853 METAR KPAE 261853Z 00000KT 10SM CLR 05/00 A3012 RMK AO2 SLP205 T00500000=
201211261753 METAR KPAE 261753Z 00000KT 10SM CLR 04/M01 A3012 RMK AO2 SLP205 T00391006 10039 20011 55008=
201211261653 METAR KPAE 261653Z 02003KT 10SM CLR 02/M01 A3012 RMK AO2 SLP203 T00221011=
201211261553 METAR KPAE 261553Z 02003KT 10SM CLR 01/M01 A3014 RMK AO2 SLP210 T00111006=
201211261453 METAR KPAE 261453Z 01004KT 10SM CLR 02/00 A3015 RMK AO2 SLP214 T00170000 58008=
201211261353 METAR KPAE 261353Z AUTO 01003KT 10SM CLR 02/00 A3016 RMK AO2 SLP218 T00170000=
201211261253 METAR KPAE 261253Z AUTO 36004KT 10SM CLR 02/00 A3017 RMK AO2 SLP222 T00170000=
201211261153 METAR KPAE 261153Z AUTO 36004KT 10SM CLR 01/M01 A3017 RMK AO2 SLP222 T00111006 10028 20011 56019=
201211261116 SPECI KPAE 261116Z AUTO 02004KT 6SM BR SCT003 02/01 A3017 RMK AO2=
201211261053 METAR KPAE 261053Z AUTO 01004KT 6SM BR OVC003 02/01 A3018 RMK AO2 SLP224 T00220011=
201211261027 SPECI KPAE 261027Z AUTO 36004KT 5SM BR BKN003 02/01 A3019 RMK AO2=
201211261018 SPECI KPAE 261018Z AUTO 01003KT 8SM SCT003 02/01 A3020 RMK AO2=
201211260953 METAR KPAE 260953Z AUTO 01003KT 10SM CLR 02/01 A3021 RMK AO2 SLP234 T00220006=
201211260853 METAR KPAE 260853Z AUTO 36003KT 10SM CLR 02/01 A3023 RMK AO2 SLP240 T00220006 55004=
201211260753 METAR KPAE 260753Z AUTO 01003KT 10SM CLR 02/01 A3022 RMK AO2 SLP239 T00170006 400720011=
201211260653 METAR KPAE 260653Z AUTO 00000KT 8SM CLR 02/01 A3023 RMK AO2 SLP240 T00220006=
201211260553 METAR KPAE 260553Z AUTO 02004KT 10SM CLR 03/01 A3024 RMK AO2 SLP246 T00280011 10056 20028 56009=
201211260517 SPECI KPAE 260517Z AUTO 02005KT 8SM FEW004 04/02 A3024 RMK AO2=
201211260453 METAR KPAE 260453Z AUTO 01004KT 7SM OVC004 04/03 A3025 RMK AO2 SLP248 T00440033=
201211260353 METAR KPAE 260353Z 01004KT 9SM OVC004 04/03 A3026 RMK AO2 SLP252 T00440033=
201211260339 SPECI KPAE 260339Z 36006KT 9SM OVC004 04/03 A3027 RMK AO2=
201211260253 METAR KPAE 260253Z 36005KT 10SM OVC006 05/03 A3027 RMK AO2 SLP255 T00500033 58011=
201211260218 SPECI KPAE 260218Z 36004KT 10SM BKN006 05/03 A3027 RMK AO2 CIG 005V009=
201211260206 SPECI KPAE 260206Z 36004KT 10SM FEW006 05/03 A3028 RMK AO2=
201211260153 METAR KPAE 260153Z 36005KT 10SM CLR 04/03 A3028 RMK AO2 SLP258 T00440028=
201211260053 METAR KPAE 260053Z 36005KT 10SM CLR 05/02 A3029 RMK AO2 SLP264 T00500022=
201211252353 METAR KPAE 252353Z AUTO 36005KT 10SM CLR 06/03 A3030 RMK AO2 SLP265 T00560028 10072 20039 56006 TSNO=
201211252253 METAR KPAE 252253Z 34005KT 10SM CLR 06/03 A3030 RMK AO2 SLP265 T00610033=
201211252153 METAR KPAE 252153Z 35005KT 10SM CLR 06/03 A3031 RMK AO2 SLP266 T00610028=
201211252053 METAR KPAE 252053Z 01003KT 10SM CLR 07/03 A3032 RMK AO2 SLP271 T00720033 58007=
201211251953 METAR KPAE 251953Z 00000KT 10SM FEW020 07/03 A3033 RMK AO2 SLP275 T00670033=
201211251900 SPECI KPAE 251900Z 00000KT 10SM SCT018 05/03 A3034 RMK AO2=
201211251853 METAR KPAE 251853Z 00000KT 10SM SCT002 BKN012 04/03 A3034 RMK AO2 SLP280 T00440033=
201211251805 SPECI KPAE 251805Z 00000KT 10SM SCT002 BKN012 04/03 A3034 RMK AO2=
201211251753 METAR KPAE 251753Z 00000KT 5SM BR FEW012 04/03 A3034 RMK AO2 SLP279 T00440033 10044 20011 53015=
201211251653 METAR KPAE 251653Z 00000KT 10SM SCT001 SCT048 03/02 A3033 RMK AO2 SLP274 T00280022=
201211251640 SPECI KPAE 251640Z 00000KT 10SM R16R/4000VP6000FT SCT001 SCT048 02/02 A3032 RMK AO2=
201211251633 SPECI KPAE 251633Z 00000KT 10SM R16R/1400VP6000FT FEW001 BKN048 02/02 A3032 RMK AO2=
201211251623 SPECI KPAE 251623Z 00000KT 10SM R16R/1000V2000FT FEW001 BKN048 02/01 A3032 RMK AO2=
201211251617 SPECI KPAE 251617Z 00000KT 10SM R16R/1000VP6000FT BKN001 BKN048 02/01 A3032 RMK AO2=
201211251611 SPECI KPAE 251611Z 00000KT 3/4SM R16R/4500VP6000FT BR FEW003 SCT048 02/01 A3032 RMK AO2=
201211251609 SPECI KPAE 251609Z 03003KT 2SM R16R/1800VP6000FT BR FEW003 02/01 A3032 RMK AO2=
201211251553 METAR KPAE 251553Z 00000KT 10SM FEW055 02/01 A3031 RMK AO2 SLP269 T00220011=
201211251502 SPECI KPAE 251502Z 00000KT 10SM SCT046 02/01 A3030 RMK AO2=
201211251453 METAR KPAE 251453Z 00000KT 2SM BR SCT046 02/01 A3030 RMK AO2 SLP265 T00170006 51003=
201211251446 SPECI KPAE 251446Z AUTO 00000KT 1 3/4SM BR FEW046 02/01 A3030 RMK AO2 VIS 3/4V4=
201211251353 METAR KPAE 251353Z AUTO 00000KT 6SM BR SCT023 03/01 A3029 RMK AO2 SLP263 T00280011=
201211251347 SPECI KPAE 251347Z AUTO 00000KT 4SM BR SCT023 02/01 A3029 RMK AO2=
201211251344 SPECI KPAE 251344Z AUTO 00000KT 2SM R16R/2800VP6000FT BR BKN023 02/01 A3029 RMK AO2=
201211251335 SPECI KPAE 251335Z AUTO 00000KT 3/4SM R16R/3000VP6000FT BR FEW001 OVC023 02/02 A3030 RMK AO2=
201211251319 SPECI KPAE 251319Z AUTO 00000KT 1/4SM R16R/1200VP6000FT FG SCT001 BKN023 02/02 A3030 RMK AO2=
201211251310 SPECI KPAE 251310Z AUTO 00000KT 3/4SM R16R/4500VP6000FT BR VV002 02/01 A3030 RMK AO2 VIS 1/4V5=
201211251308 SPECI KPAE 251308Z AUTO 33003KT 2SM BR FEW002 02/01 A3030 RMK AO2 VIS 1/4V5=
201211251253 METAR KPAE 251253Z AUTO 00000KT 6SM BR CLR 03/02 A3029 RMK AO2 SLP262 T00280017=
201211251202 SPECI KPAE 251202Z AUTO 00000KT 3SM BR FEW019 03/02 A3029 RMK AO2=
201211251200 METAR KPAE NIL=
201211251148 METAR KPAE 251148Z AUTO 00000KT 1 1/2SM BR CLR 03/02 A3029=
201211251147 SPECI KPAE 251147Z AUTO 00000KT 1 3/4SM BR CLR 03/02 A3029 RMK AO2 VIS 1V2 1/2=
201211251101 SPECI KPAE 251101Z AUTO 00000KT 8SM SCT007 SCT031 03/02 A3028 RMK AO2=
201211251053 METAR KPAE 251053Z AUTO 28003KT 8SM SCT007 BKN028 03/02 A3028 RMK AO2 SLP258 T00330022=
201211251035 SPECI KPAE 251035Z AUTO 00000KT 8SM SCT007 BKN028 04/03 A3028 RMK AO2=
201211250953 METAR KPAE 250953Z AUTO 00000KT 10SM OVC024 06/04 A3027 RMK AO2 SLP253 T00560039=
201211250924 SPECI KPAE 250924Z AUTO 00000KT 10SM FEW007 OVC022 06/04 A3027 RMK AO2=
201211250914 SPECI KPAE 250914Z AUTO 00000KT 10SM FEW013 OVC022 06/04 A3027 RMK AO2=
201211250853 METAR KPAE 250853Z AUTO 00000KT 10SM BKN010 BKN014 OVC022 05/03 A3027 RMK AO2 CIG 008V013 SLP252 T00500033 51006=
201211250842 SPECI KPAE 250842Z AUTO 00000KT 10SM BKN010 OVC018 06/04 A3026 RMK AO2=
201211250753 METAR KPAE 250753Z AUTO 32003KT 10SM FEW011 SCT017 BKN024 05/03 A3026 RMK AO2 SLP251 T00500033 400940028=
201211250728 SPECI KPAE 250728Z AUTO 00000KT 10SM FEW019 BKN026 BKN032 04/03 A3026 RMK AO2=
201211250653 METAR KPAE 250653Z AUTO 00000KT 10SM SCT018 03/02 A3025 RMK AO2 SLP248 T00280017=
201211250553 METAR KPAE 250553Z AUTO 00000KT 10SM CLR 03/02 A3025 RMK AO2 SLP246 T00330017 10072 20033 53007=
201211250453 METAR KPAE 250453Z 00000KT 10SM BKN047 04/02 A3023 RMK AO2 SLP242 T00390017=
201211250353 METAR KPAE 250353Z 00000KT 10SM CLR 04/02 A3023 RMK AO2 SLP241 T00440022=
201211250253 METAR KPAE 250253Z 00000KT 10SM CLR 04/03 A3023=
201211250153 METAR KPAE 250153Z 00000KT 10SM FEW065 06/03 A3023 RMK AO2 SLP240 T00560028=
201211250053 METAR KPAE 250053Z 00000KT 10SM SCT065 BKN095 07/02 A3023 RMK AO2 SLP241 T00720022=
201211242353 METAR KPAE 242353Z 00000KT 10SM FEW060 BKN095 07/03 A3023 RMK AO2 SLP240 T00670028 10094 20067 56003=
201211242253 METAR KPAE 242253Z 34004KT 10SM FEW055 BKN070 BKN090 08/05 A3023 RMK AO2 SLP240 T00830050=
201211242200 SPECI KPAE 242200Z 00000KT 10SM SCT019 BKN043 08/05 A3024 RMK AO2=
201211242153 METAR KPAE 242153Z 36003KT 10SM SCT010 BKN019 BKN043 08/06 A3023 RMK AO2 SLP240 T00780056=
201211242053 METAR KPAE 242053Z 00000KT 10SM SCT010 BKN019 BKN043 08/06 A3024 RMK AO2 SLP242 T00830056 58002=
201211241953 METAR KPAE 241953Z 00000KT 10SM SCT008 BKN017 OVC044 08/06 A3024 RMK AO2 SLP244 T00830056=
201211241931 SPECI KPAE 241931Z 00000KT 10SM SCT003 BKN010 BKN036 09/06 A3025 RMK AO2=
201211241921 SPECI KPAE 241921Z 00000KT 10SM SCT010 BKN018 BKN036 09/06 A3025 RMK AO2=
201211241853 METAR KPAE 241853Z 00000KT 10SM BKN030 BKN040 09/04 A3025 RMK AO2 SLP247 T00890039=
201211241809 SPECI KPAE 241809Z 00000KT 10SM SCT030 SCT035 BKN044 08/06 A3025 RMK AO2=
201211241753 METAR KPAE 241753Z 00000KT 10SM BKN028 08/06 A3025 RMK AO2 SLP244 T00830056 10083 20056 51007=
201211241751 SPECI KPAE 241751Z 00000KT 10SM BKN028 08/06 A3025 RMK AO2=
201211241653 METAR KPAE 241653Z 00000KT 10SM SCT030 BKN040 07/05 A3024 RMK AO2 SLP243 T00720050=
201211241553 METAR KPAE 241553Z 00000KT 10SM OVC034 07/04 A3023=
201211241453 METAR KPAE 241453Z 11004KT 10SM BKN032 07/04 A3022 RMK AO2 SLP236 T00670044 51008=
201211241353 METAR KPAE 241353Z AUTO 15004KT 10SM FEW027 SCT046 BKN095 07/04 A3021 RMK AO2 SLP232 T00720044=
201211241348 SPECI KPAE 241348Z AUTO 12003KT 10SM SCT023 BKN065 OVC090 07/04 A3021 RMK AO2=
201211241253 METAR KPAE 241253Z AUTO 12003KT 10SM OVC021 07/06 A3020 RMK AO2 SLP227 T00720056=
201211241153 METAR KPAE 241153Z AUTO 00000KT 10SM BKN027 07/06 A3019 RMK AO2 SLP226 60010 70042 T00720056 10083 20072 50007=
201211241150 SPECI KPAE 241150Z AUTO 15003KT 10SM BKN027 07/06 A3019 RMK AO2=
201211241053 METAR KPAE 241053Z AUTO 11003KT 10SM OVC034 08/06 A3018 RMK AO2 RAE23 SLP223 P0004 T00780056=
201211241026 SPECI KPAE 241026Z AUTO 08003KT 10SM FEW022 OVC034 08/06 A3018 RMK AO2 RAE23 P0004=
201211240953 METAR KPAE 240953Z AUTO 00000KT 5SM -RA BR SCT017 BKN027 OVC036 08/06 A3017 RMK AO2 RAB24 SLP219 P0002 T00830061=
201211240946 SPECI KPAE 240946Z AUTO 00000KT 7SM -RA FEW017 BKN024 OVC036 08/06 A3017 RMK AO2 RAB24 P0001=
201211240853 METAR KPAE 240853Z AUTO 35003KT 10SM FEW022 OVC041 08/06 A3014 RMK AO2 SLP208 60004 T00780061 51017=
201211240753 METAR KPAE 240753Z AUTO 00000KT 10SM OVC041 07/06 A3012 RMK AO2 RAE13B29E44 SLP204 P0001 T00720061 401000067=
201211240705 SPECI KPAE 240705Z AUTO 00000KT 8SM -RA FEW024 BKN032 OVC044 08/06 A3012 RMK AO2 P0001=
201211240653 METAR KPAE 240653Z AUTO 32003KT 5SM -RA BR FEW003 BKN024 OVC031 08/06 A3011 RMK AO2 RAB06 SLP201 P0003 T00780061=
201211240639 SPECI KPAE 240639Z AUTO 34004KT 3SM -RA BR SCT003 BKN014 OVC027 08/06 A3011 RMK AO2 RAB06 P0003=
201211240626 SPECI KPAE 240626Z AUTO 33003KT 2 1/2SM R16R/5000VP6000FT -RA BR SCT003 BKN020 OVC027 08/07 A3010 RMK AO2 RAB06 P0001=
201211240553 METAR KPAE 240553Z AUTO 00000KT 4SM BR FEW003 OVC034 08/07 A3009 RMK AO2 RAB0457E28 SLP191 P0001 60013 T00830072 10100 20083 53017=
201211240530 SPECI KPAE 240530Z AUTO 26003KT 4SM BR FEW014 OVC030 08/07 A3008 RMK AO2 RAB0457E28 P0001=
201211240453 METAR KPAE 240453Z 00000KT 10SM OVC028 08/07 A3007 RMK AO2 SLP186 T00830072=
201211240353 METAR KPAE 240353Z 17003KT 10SM OVC026 09/07 A3005 RMK AO2 SLP179 T00890072=
201211240322 SPECI KPAE 240322Z 00000KT 10SM OVC026 09/07 A3005 RMK AO2=
201211240253 METAR KPAE 240253Z 00000KT 6SM BR BKN003 09/07 A3004 RMK AO2 RAE51 SLP174 P0001 60012 T00890072 55001=
201211240233 SPECI KPAE 240233Z 28004KT 3SM -RA BR BKN003 09/07 A3004 RMK AO2 P0001=
201211240221 SPECI KPAE 240221Z 00000KT 2 1/2SM -RA BR BKN003 09/08 A3004 RMK AO2 P0001=
201211240205 SPECI KPAE 240205Z 24004KT 3SM BR BKN003 09/08 A3004 RMK AO2 RAE05 P0000=
201211240204 SPECI KPAE 240204Z 23005KT 3SM -RA BR SCT003 BKN015 OVC025 09/08 A3004 RMK AO2 P0000=
201211240200 SPECI KPAE 240200Z 24006KT 2 1/2SM -RA BR SCT003 BKN011 OVC020 09/08 A3004 RMK AO2 P0000=
201211240153 METAR KPAE 240153Z 23005KT 2SM -RA BR BKN003 09/08 A3003 RMK AO2 SLP173 P0006 T00890078=
201211240053 METAR KPAE 240053Z 25003KT 2SM R16R/3500V6000FT -RA BR OVC002 09/08 A3003 RMK AO2 RAB2356 SLP171 P0005 T00890078=
201211240015 SPECI KPAE 240015Z 21011KT 2SM -RA BR OVC005 09/08 A3004 RMK AO2 RAB2356 CIG 003V006 P0002=
201211232353 METAR KPAE 232353Z 21010KT 10SM OVC007 10/08 A3004 RMK AO2 RAE00 SLP174 P0000 60011 T01000083 10100 20072 55001=
201211232253 METAR KPAE 232253Z 19009G15KT 6SM -RA BR BKN005 BKN030 OVC070 09/08 A3003 RMK AO2 SLP171 P0006 T00940078=
201211232200 SPECI KPAE 232200Z 18014KT 6SM -RA BR BKN005 BKN030 OVC070 09/08 A3004 RMK AO2 P0001=
201211232153 METAR KPAE 232153Z 19015G21KT 7SM -RA BKN003 OVC030 09/08 A3004 RMK AO2 SLP176 P0003 T00890078=
201211232053 METAR KPAE 232053Z 17016G22KT 10SM -RA BKN004 BKN014 OVC035 08/07 A3004 RMK AO2 RAE22B42 SLP176 P0001 60002 T00830072 58021=
201211232000 SPECI KPAE 232000Z 16010KT 5SM -RA BR BKN004 BKN014 OVC035 08/07 A3007 RMK AO2 P0000=
201211231953 METAR KPAE 231953Z 16011KT 1SM R16R/P6000FT -RA BR BKN004 OVC019 08/07 A3007 RMK AO2 RAB1857E14B30 SLP186 P0001 T00780067=
201211231853 METAR KPAE 231853Z 15009G15KT 1SM R16R/P6000FT BR BKN004 OVC019 08/06 A3008 RMK AO2 RAB07E52 PRESFR SLP187 P0000 T00780061=
201211231753 METAR KPAE 231753Z 16007KT 4SM BR BKN004 OVC021 07/06 A3011 RMK AO2 RAE37 SLP197 P0001 60008 T00720061 10072 20067 56001=
201211231728 SPECI KPAE 231728Z 15006G14KT 2SM -RA BR BKN004 OVC026 07/06 A3010 RMK AO2 P0001=
201211231653 METAR KPAE 231653Z 17009KT 8SM -RA SCT029 BKN035 OVC085 07/06 A3011 RMK AO2 SLP197 P0003 T00720056=
201211231553 METAR KPAE 231553Z 16008KT 7SM -RA SCT034 BKN070 OVC080 07/05 A3010 RMK AO2 SLP197 P0003 T00670050=
201211231453 METAR KPAE 231453Z 18007KT 7SM -RA OVC036 07/05 A3011 RMK AO2 RAB1359E09B48 SLP199 P0001 60001 T00670050 55003=
201211231353 METAR KPAE 231353Z 16007KT 10SM OVC036 07/05 A3010 RMK AO2 RAB01E12B29E45 SLP196 P0000 T00670050=
201211231253 METAR KPAE 231253Z 16008KT 10SM OVC037 07/04 A3011 RMK AO2 SLP199 T00670044=
201211231153 METAR KPAE 231153Z 15006KT 10SM BKN044 OVC065 07/04 A3012 RMK AO2 RAE38 SLP202 P0000 60000 T00670039 10089 20067 58022=
201211231053 METAR KPAE 231053Z 17009KT 10SM -RA SCT044 BKN060 OVC110 07/03 A3014 RMK AO2 RAB44 SLP210 P0000 T00720033=
201211230953 METAR KPAE 230953Z 15008G15KT 10SM OVC036 08/03 A3017 RMK AO2 RAB26E37 SLP218 P0000 T00780028=
201211230853 METAR KPAE 230853Z 16010KT 10SM OVC044 08/02 A3019 RMK AO2 RAE12 SLP225 P0000 60000 T00780022 58008=
201211230753 METAR KPAE 230753Z 15011G16KT 10SM -RA FEW060 OVC080 08/02 A3020 RMK AO2 RAE26B53 SLP228 P0000 T00830022 400940044=
201211230653 METAR KPAE 230653Z 16009KT 10SM -RA OVC070 08/02 A3021 RMK AO2 RAB35 SLP231 P0000 T00830017=
201211230553 METAR KPAE 230553Z 17006KT 10SM FEW070 BKN085 OVC110 09/00 A3021 RMK AO2 SLP233 T00890000 10094 20078 55004=
201211230453 METAR KPAE 230453Z 15007G14KT 10SM FEW070 BKN090 OVC110 09/M01 A3019 RMK AO2 SLP225 T00941006=
201211230353 METAR KPAE 230353Z 16010KT 10SM BKN080 OVC095 09/M01 A3022 RMK AO2 SLP235 T00891006=
201211230253 METAR KPAE 230253Z 16011KT 10SM SCT100 SCT120 08/01 A3022 RMK AO2 SLP236 T00830006 58021=
201211230153 METAR KPAE 230153Z VRB04KT 10SM FEW070 BKN085 BKN100 08/01 A3025 RMK AO2 SLP248 T00830011=
201211230053 METAR KPAE 230053Z 15010KT 10SM OVC070 09/01 A3027 RMK AO2 SLP255 T00890006=
201211222353 METAR KPAE 222353Z 00000KT 10SM OVC075 08/01 A3028 RMK AO2 SLP258 T00780011 10078 20061 58006=
201211222253 METAR KPAE 222253Z VRB04KT 10SM FEW075 OVC110 08/01 A3029 RMK AO2 SLP259 T00780011=
201211222153 METAR KPAE 222153Z VRB03KT 10SM OVC070 08/01 A3030 RMK AO2 SLP264 T00780011=
201211222053 METAR KPAE 222053Z 12008KT 10SM OVC070 07/02 A3030 RMK AO2 SLP265 T00720017 58014=
201211221953 METAR KPAE 221953Z 00000KT 10SM OVC075 07/02 A3033 RMK AO2 SLP274 T00720017=
201211221853 METAR KPAE 221853Z 12004KT 10SM OVC095 06/02 A3034 RMK AO2 SLP278 T00610022=
201211221753 METAR KPAE 221753Z 12006KT 10SM OVC095 06/02 A3034 RMK AO2 SLP279 T00610022 10061 20044 58004=
201211221653 METAR KPAE 221653Z 12004KT 10SM SCT100 06/03 A3036 RMK AO2 SLP284 T00560028=
201211221553 METAR KPAE 221553Z 12006KT 10SM FEW044 05/03 A3035 RMK AO2 SLP283 T00500028=
201211221453 METAR KPAE 221453Z VRB05KT 10SM BKN043 06/02 A3036 RMK AO2 SLP284 T00560022 51009=
201211221353 METAR KPAE 221353Z VRB03KT 10SM OVC041 06/02 A3035 RMK AO2 SLP282 T00560017=
201211221253 METAR KPAE 221253Z 15003KT 10SM BKN033 06/02 A3034 RMK AO2 SLP278 T00560022=
201211221218 SPECI KPAE 221218Z 15006KT 10SM SCT019 06/02 A3034 RMK AO2=
201211221153 METAR KPAE 221153Z 16005KT 10SM OVC019 06/03 A3033 RMK AO2 SLP274 70032 T00560028 10061 20050 53014=
201211221053 METAR KPAE 221053Z 15005KT 10SM BKN017 06/03 A3032 RMK AO2 SLP269 T00560028=
201211220953 METAR KPAE 220953Z 15006KT 10SM BKN017 06/03 A3030 RMK AO2 SLP264 T00560028=
201211220911 SPECI KPAE 220911Z 13003KT 10SM OVC017 06/03 A3030 RMK AO2=
201211220853 METAR KPAE 220853Z 11003KT 10SM OVC013 06/03 A3029 RMK AO2 SLP260 T00610033 51010=
201211220850 SPECI KPAE 220850Z 12003KT 10SM BKN013 OVC018 06/03 A3029 RMK AO2=
201211220753 METAR KPAE 220753Z 17004KT 10SM OVC019 06/03 A3028 RMK AO2 SLP258 T00560028 400830039=
201211220653 METAR KPAE 220653Z 19010KT 10SM OVC019 06/03 A3026 RMK AO2 SLP250 T00610033=
201211220553 METAR KPAE 220553Z 18006KT 10SM BKN020 06/03 A3024 RMK AO2 SLP243 60000 T00560033 10072 20039 51039=
201211220500 SPECI KPAE 220500Z 18006KT 10SM BKN034 05/03 A3021 RMK AO2=
201211220453 METAR KPAE 220453Z 18006KT 10SM BKN026 BKN065 05/03 A3020 RMK AO2 SLP230 T00500028=
201211220353 METAR KPAE 220353Z 17006KT 10SM BKN026 BKN065 06/03 A3016 RMK AO2 SLP216 T00560033=
201211220253 METAR KPAE 220253Z 16007KT 10SM FEW040 06/03 A3012 RMK AO2 SLP203 60000 T00560033 53028=
201211220156 SPECI KPAE 220156Z 18007KT 10SM FEW030 SCT070 OVC085 06/03 A3008 RMK AO2=
201211220153 METAR KPAE 220153Z 19007KT 10SM BKN014 BKN021 OVC026 06/03 A3007 RMK AO2 SLP187 T00560033=
201211220053 METAR KPAE 220053Z 22009KT 10SM BKN014 BKN021 OVC026 07/04 A3004 RMK AO2 RAE16 SLP175 P0000 T00670039=
201211220049 SPECI KPAE 220049Z 21009KT 10SM BKN014 BKN021 OVC026 07/04 A3004 RMK AO2 RAE16 P0000=
201211212353 METAR KPAE 212353Z 22014G18KT 10SM -RA SCT015 OVC028 07/03 A2999 RMK AO2 RAB48 PRESRR SLP157 P0000 60000 T00720033 10078 20061 53046=
201211212332 SPECI KPAE 212332Z 22014G23KT 10SM SCT019 BKN023 BKN110 07/03 A2996 RMK AO2 PRESRR=
201211212300 SPECI KPAE 212300Z 21015KT 10SM SCT019 BKN110 07/03 A2993 RMK AO2=
201211212253 METAR KPAE 212253Z 21014G23KT 10SM SCT013 BKN021 07/03 A2992 RMK AO2 PK WND 18029/2240 SLP134 T00720028=
201211212218 SPECI KPAE 212218Z 20013G23KT 10SM SCT013 BKN021 07/03 A2989 RMK AO2 PK WND 19026/2154=
201211212206 SPECI KPAE 212206Z 19018G25KT 10SM SCT022 BKN110 07/03 A2989 RMK AO2 PK WND 19026/2154=
201211212153 METAR KPAE 212153Z COR 18023G29KT 10SM SCT013 BKN021 07/03 A2987 RMK AO2 PK WND 19030/2109 SLP119 T00720028=
201211212053 METAR KPAE 212053Z 20021G28KT 10SM SCT013 BKN020 07/03 A2985 RMK AO2 PK WND 18028/2044 SLP109 T00720033 51022=
201211211953 METAR KPAE 211953Z 18016G24KT 10SM BKN013 BKN020 OVC036 07/03 A2983 RMK AO2 PK WND 19029/1911 SLP104 T00670033=
201211211853 METAR KPAE 211853Z 19019G26KT 10SM FEW016 BKN095 07/03 A2981 RMK AO2 PK WND 19030/1832 SLP098 T00670033=
201211211753 METAR KPAE 211753Z 19023G28KT 10SM FEW017 SCT110 07/04 A2978 RMK AO2 PK WND 19028/1744 SLP087 60032 T00720039 10072 20056 51027=
201211211748 SPECI KPAE 211748Z 19020G28KT 10SM SCT017 SCT100 SCT110 07/04 A2977 RMK AO2 PK WND 19028/1744=
201211211736 SPECI KPAE 211736Z 19019G27KT 10SM BKN019 OVC100 07/04 A2977 RMK AO2 PK WND 20027/1736=
201211211653 METAR KPAE 211653Z 20011KT 10SM BKN012 07/04 A2976 RMK AO2 SLP079 T00670039=
201211211553 METAR KPAE 211553Z 20016G21KT 10SM BKN012 OVC035 06/04 A2970 RMK AO2 SLP060 T00610039=
201211211453 METAR KPAE 211453Z 20020G27KT 10SM BKN012 BKN020 OVC035 06/04 A2964 RMK AO2 PK WND 20027/1450 RAE52 SLP041 P0005 60032 T00610039 53038=
201211211417 SPECI KPAE 211417Z 19017KT 10SM -RA OVC031 06/03 A2959 RMK AO2 P0004=
201211211353 METAR KPAE 211353Z 21018G25KT 4SM RA BR OVC027 06/04 A2960 RMK AO2 PK WND 19029/1313 SLP026 P0025 T00610039=
201211211325 SPECI KPAE 211325Z 20017G27KT 3SM RA BR FEW018 OVC029 06/04 A2958 RMK AO2 PK WND 19029/1313 P0011=
201211211253 METAR KPAE 211253Z 17015G22KT 6SM -RA BR FEW021 SCT038 OVC049 07/05 A2956 RMK AO2 SLP010 P0002 T00720050=
201211211237 SPECI KPAE 211237Z 17011KT 7SM -RA FEW023 OVC039 07/04 A2954 RMK AO2 P0001=
201211211153 METAR KPAE 211153Z 16014G19KT 10SM -RA BKN027 OVC034 07/04 A2953 RMK AO2 SLP001 P0002 60014 70040 T00720039 10083 20067 56003=
201211211145 SPECI KPAE 211145Z 15012G21KT 10SM -RA BKN029 OVC036 07/04 A2953 RMK AO2 P0002=
201211211053 METAR KPAE 211053Z 16009KT 6SM -RA OVC031 07/04 A2953 RMK AO2 SLP002 P0010 T00720039=
201211211032 SPECI KPAE 211032Z 18006G16KT 5SM -RA OVC029 08/03 A2954 RMK AO2 P0006=
201211210953 METAR KPAE 210953Z 00000KT 9SM -RA BKN035 OVC042 07/04 A2953 RMK AO2 RAB08 SLP000 P0002 T00720039=
201211210853 METAR KPAE 210853Z 12006KT 10SM OVC085 07/03 A2954 RMK AO2 SLP003 T00720033 58035=
201211210753 METAR KPAE 210753Z 11006KT 10SM OVC110 07/04 A2958 RMK AO2 SLP020 T00720039 401000067=
201211210653 METAR KPAE 210653Z 12005KT 10SM FEW110 07/04 A2961 RMK AO2 SLP029 T00720044=
201211210553 METAR KPAE 210553Z 12007KT 10SM FEW041 07/05 A2964 RMK AO2 RAE0457 SLP040 P0000 60009 T00670050 10094 20067 58001=
201211210453 METAR KPAE 210453Z 19013KT 10SM -RA FEW030 SCT034 OVC048 08/05 A2965 RMK AO2 SLP041 P0001 T00780050=
201211210426 SPECI KPAE 210426Z 19017G22KT 10SM -RA BKN027 BKN035 OVC043 08/05 A2965 RMK AO2 P0000=
201211210353 METAR KPAE 210353Z 19018KT 8SM -RA BKN035 OVC043 08/05 A2966 RMK AO2 RAB07 SLP044 P0005 T00780050=
201211210253 METAR KPAE 210253Z 17009KT 10SM FEW040 BKN048 OVC100 09/05 A2965 RMK AO2 RAE53 SLP040 P0003 60003 T00890050 50004=
201211210230 SPECI KPAE 210230Z 15006KT 10SM SCT015 SCT033 BKN050 09/05 A2964 RMK AO2 RAE23 P0003=
201211210207 SPECI KPAE 210207Z 19004KT 6SM -RA BR BKN015 BKN028 OVC049 08/06 A2965 RMK AO2 P0003=
201211210153 METAR KPAE 210153Z 15006G21KT 8SM -RA SCT033 BKN041 BKN049 09/05 A2965 RMK AO2 RAB43 SLP040 P0000 T00890050=
201211210053 METAR KPAE 210053Z 15008KT 10SM SCT021 09/06 A2964 RMK AO2 SLP039 T00890056=
201211202353 METAR KPAE 202353Z 17014G23KT 10SM SCT021 09/06 A2963 RMK AO2 PK WND 18030/2303 SLP036 P0001 60016 T00940056 10100 20083 53039=
201211202309 SPECI KPAE 202309Z 17012G30KT 10SM SCT022 10/06 A2959 RMK AO2 PK WND 18030/2303 P0001=
201211202302 SPECI KPAE 202302Z 18013G21KT 10SM SCT021 BKN026 10/06 A2959 RMK AO2=
201211202253 METAR KPAE 202253Z 17015G20KT 10SM SCT022 SCT095 10/06 A2958 RMK AO2 PK WND 20028/2159 RAE18 SLP019 P0000 T01000061=
201211202153 METAR KPAE 202153Z 19017G25KT 10SM -RA FEW030 BKN050 OVC065 10/07 A2956 RMK AO2 RAB16 PRESRR SLP011 P0001 T01000067=
201211202053 METAR KPAE 202053Z 16014G22KT 10SM SCT032 BKN055 09/06 A2952 RMK AO2 PK WND 17027/2038 RAE41 SLP996 P0001 60014 T00940061 58008=
201211201953 METAR KPAE 201953Z 17011KT 5SM -RA BR BKN038 BKN047 OVC055 08/06 A2954 RMK AO2 SLP005 P0013 T00830061=
201211201853 METAR KPAE 201853Z 16010KT 10SM -RA BKN055 BKN070 OVC085 09/04 A2954 RMK AO2 RAB52 SLP002 P0000 T00940044=
201211201753 METAR KPAE 201753Z 15006KT 10SM CLR 09/04 A2954 RMK AO2 SLP004 60001 T00890044 10094 20083 56031=
201211201653 METAR KPAE 201653Z 12008KT 10SM CLR 08/05 A2956 RMK AO2 SLP011 T00830050=
201211201553 METAR KPAE 201553Z 12005KT 10SM FEW049 OVC060 08/06 A2961 RMK AO2 SLP028 T00830056=
201211201453 METAR KPAE 201453Z 11008KT 10SM BKN038 OVC049 08/06 A2963 RMK AO2 SLP036 60001 T00830056 58014=
201211201353 METAR KPAE 201353Z AUTO 14004KT 10SM FEW040 BKN060 09/06 A2965 RMK AO2 RAE19 SLP041 P0001 T00890056=
201211201253 METAR KPAE 201253Z AUTO 16007KT 10SM -RA SCT047 BKN060 OVC080 09/06 A2966 RMK AO2 RAB52 SLP045 P0000 T00940061=
201211201153 METAR KPAE 201153Z AUTO 15006KT 10SM OVC060 09/07 A2968 RMK AO2 SLP049 70184 T00940067 10100 20083 58001=
201211201053 METAR KPAE 201053Z AUTO 16009KT 10SM FEW070 09/07 A2968 RMK AO2 SLP050 T00890072 TSNO=
201211200953 METAR KPAE 200953Z AUTO 18011KT 10SM CLR 09/07 A2968 RMK AO2 SLP051 T00940067 TSNO=
201211200853 METAR KPAE 200853Z AUTO 18011KT 10SM CLR 09/07 A2968 RMK AO2 SLP051 T00890067 50019 TSNO=
201211200753 METAR KPAE 200753Z AUTO 16012KT 10SM FEW046 BKN075 OVC100 09/07 A2968 RMK AO2 SLP052 T00940067 401170078=
201211200653 METAR KPAE 200653Z AUTO 16010G19KT 10SM SCT055 09/07 A2965 RMK AO2 SLP042 T00940067=
201211200553 METAR KPAE 200553Z AUTO 17014G19KT 10SM CLR 09/07 A2962 RMK AO2 SLP031 60013 T00940072 10111 20094 51039=
201211200453 METAR KPAE 200453Z AUTO 16011KT 10SM CLR 10/07 A2959 RMK AO2 SLP022 T01000072=
201211200353 METAR KPAE 200353Z 19019KT 10SM CLR 10/07 A2956 RMK AO2 PK WND 20027/0303 SLP010 T01000072=
201211200253 METAR KPAE 200253Z 20018G28KT 10SM CLR 11/08 A2950 RMK AO2 PK WND 19029/0240 SLP992 60013 T01060083 53016=
201211200153 METAR KPAE 200153Z 17013G22KT 10SM SCT016 BKN041 OVC070 11/09 A2947 RMK AO2 RAE49 SLP980 P0006 T01110089=
201211200150 SPECI KPAE 200150Z 17015G21KT 10SM SCT016 BKN041 OVC070 11/09 A2947 RMK AO2 RAE49 P0006=
201211200130 SPECI KPAE 200130Z 17016G23KT 9SM -RA FEW005 BKN027 OVC085 11/09 A2946 RMK AO2 P0006=
201211200116 SPECI KPAE 200116Z 16016G20KT 3SM RA BR FEW005 BKN030 OVC044 11/09 A2946 RMK AO2 P0006=
201211200053 METAR KPAE 200053Z 16015G23KT 5SM -RA BR FEW013 BKN055 OVC070 11/09 A2946 RMK AO2 PK WND 16028/0038 RAB2357 SLP975 P0007 T01060089=
201211200030 SPECI KPAE 200030Z 16020G27KT 5SM RA BR SCT016 BKN033 OVC042 11/09 A2945 RMK AO2 PK WND 16027/0030 RAB2357 P0005=
201211192353 METAR KPAE 192353Z COR 17016G22KT 10SM FEW020 SCT045 11/08 A2943 RMK AO2 PK WND 19029/2322 SLP967 60090 T01110078 10117 20083 53025=
201211192253 METAR KPAE 192253Z 18019G27KT 10SM FEW009 SCT025 OVC040 12/08 A2941 RMK AO2 PK WND 18037/2204 RAE2159 SLP960 P0001 T01170083=
201211192153 METAR KPAE 192153Z 18024G36KT 5SM -RA SCT010 BKN041 OVC060 12/09 A2937 RMK AO2 PK WND 20043/2141 PRESFR SLP944 P0012 T01170089=
201211192132 SPECI KPAE 192132Z 19030G40KT 3SM -RA BR SCT006 BKN010 OVC030 12/10 A2939 RMK AO2 PK WND 19040/2129 PRESRR P0010=
201211192053 METAR KPAE 192053Z 18008KT 2SM RA BR FEW006 BKN009 OVC024 11/09 A2936 RMK AO2 SLP942 P0033 60077 T01060094 56019=
201211192000 SPECI KPAE 192000Z 21009KT 2SM +RA BR FEW006 BKN009 OVC024 11/09 A2938 RMK AO2 P0005=
201211191953 METAR KPAE 191953Z 19005KT 2SM RA BR FEW006 OVC019 10/09 A2937=
201211191953 SPECI KPAE 191953Z 19005KT 2SM RA BR FEW006 OVC019 10/09 A2937 RMK AO2 SLP946 P0027 T01000089=
201211191853 METAR KPAE 191853Z VRB03KT 2SM RA BR FEW006 OVC019 09/08 A2938 RMK AO2 SLP950 P0017 T00940078=
201211191753 METAR KPAE 191753Z 13007KT 100V160 2SM -RA BR FEW006 BKN019 08/07 A2942 RMK AO2 SLP962 P0017 60081 T00830072 10106 20078 58031=
201211191653 METAR KPAE 191653Z 13005KT 3SM -RA BR FEW005 OVC028 08/07 A2946 RMK AO2 SLP978 P0018 T00830067=
201211191600 SPECI KPAE 191600Z 12007KT 3SM RA BR FEW005 OVC028 08/06 A2949 RMK AO2 P0004=
201211191553 METAR KPAE 191553Z 11009KT 5SM -RA BR FEW005 OVC030 08/07 A2948 RMK AO2 SLP985 P0022 T00780067=
201211191453 METAR KPAE 191453Z 14004G15KT 5SM RA BR FEW008 SCT025 08/07 A2951 RMK AO2 SLP993 P0015 60024 T00830072 58005=
201211191353 METAR KPAE 191353Z AUTO 16017G22KT 5SM RA BR OVC050 09/08 A2954 RMK AO2 PK WND 15027/1258 SLP003 P0009 T00940078=
201211191253 METAR KPAE 191253Z AUTO 17016G27KT 10SM -RA OVC065 10/07 A2952 RMK AO2 PK WND 15030/1227 RAB21 SLP998 P0000 T01000072=
201211191153 METAR KPAE 191153Z AUTO 16012G17KT 10SM OVC042 10/06 A2952 RMK AO2 RAE08 SLP998 P0000 60001 70071 T01000056 10100 20083 58008=
201211191053 METAR KPAE 191053Z AUTO 14007G19KT 110V170 10SM -RA SCT024 OVC034 09/05 A2954 RMK AO2 RAB49 SLP005 P0000 T00940050=
201211191043 SPECI KPAE 191043Z AUTO 12008KT 10SM BKN026 OVC034 09/05 A2954 RMK AO2=
201211191004 SPECI KPAE 191004Z AUTO 14008KT 10SM OVC030 09/05 A2954 RMK AO2=
201211190953 METAR KPAE 190953Z AUTO 14010G17KT 10SM OVC028 09/06 A2955 RMK AO2 SLP007 T00890056=
201211190853 METAR KPAE 190853Z AUTO VRB05G16KT 10SM OVC040 09/06 A2955 RMK AO2 RAE42 SLP009 P0001 60001 T00890056 56003=
201211190753 METAR KPAE 190753Z AUTO 16015G23KT 10SM -RA FEW038 OVC050 09/06 A2956 RMK AO2 PK WND 16027/0700 SLP013 P0000 T00940056 400940061=
201211190653 METAR KPAE 190653Z AUTO 16019G31KT 10SM -RA SCT043 BKN070 OVC110 09/06 A2955 RMK AO2 PK WND 16031/0647 RAB39 SLP006 P0000 T00940056=
201211190553 METAR KPAE 190553Z AUTO 15012G20KT 10SM OVC041 09/06 A2956 RMK AO2 RAE11 SLP013 P0000 60044 T00890056 10089 20072 53010=
201211190453 METAR KPAE 190453Z 15011G17KT 10SM -RA OVC039 08/06 A2955 RMK AO2 SLP009 P0008 T00830056=
201211190353 METAR KPAE 190353Z 14007G20KT 110V180 6SM -RA BR OVC035 08/06 A2953 RMK AO2 SLP002 P0008 T00780056=
201211190253 METAR KPAE 190253Z 15012G19KT 4SM RA BR OVC033 08/06 A2953 RMK AO2 PK WND 16028/0229 SLP002 P0013 60028 T00780056 55032=
201211190153 METAR KPAE 190153Z VRB06G16KT 9SM -RA OVC041 07/06 A2953 RMK AO2 SLP002 P0007 T00720056=
201211190053 METAR KPAE 190053Z VRB06G20KT 7SM -RA OVC041 07/06 A2958 RMK AO2 SLP019 P0008 T00720056=
201211182353 METAR KPAE 182353Z VRB05G17KT 6SM -RA OVC041 08/05 A2963 RMK AO2 SLP035 P0002 60009 T00780050 10083 20067 56026=
201211182253 METAR KPAE 182253Z VRB05KT 10SM -RA BKN047 OVC060 08/06 A2965 RMK AO2 SLP042 P0002 T00780056=
201211182153 METAR KPAE 182153Z 14005KT 10SM -RA BKN043 OVC060 08/05 A2967 RMK AO2 SLP050 P0003 T00780050=
201211182053 METAR KPAE 182053Z 15007G16KT 110V170 8SM -RA OVC048 08/05 A2970 RMK AO2 RAB21 SLP061 P0000 60002 T00780050 58013=
201211181953 METAR KPAE 181953Z 14007KT 100V170 10SM BKN037 OVC048 07/04 A2972 RMK AO2 RAE1858 SLP066 P0001 T00720044=
201211181853 METAR KPAE 181853Z VRB05KT 10SM -RA BKN038 OVC050 07/05 A2974 RMK AO2 SLP072 P0001 T00720050=
201211181753 METAR KPAE 181753Z VRB05KT 6SM -RA BR FEW027 BKN033 OVC046 07/04 A2974 RMK AO2 SLP075 P0008 60017 T00670044 10067 20061 53002=
201211181653 METAR KPAE 181653Z 15007KT 6SM R16R/5000VP6000FT -RA BR FEW024 OVC033 06/04 A2974 RMK AO2 SLP072 P0006 T00610044=
201211181553 METAR KPAE 181553Z 15009KT 4SM -RA BR FEW027 OVC035 07/04 A2974 RMK AO2 SLP072 P0002 T00670044=
201211181453 METAR KPAE 181453Z 16012KT 9SM -RA BKN041 OVC050 06/04 A2974 RMK AO2 RAB42 SLP072 P0001 60001 T00610039 51007=
201211181353 METAR KPAE 181353Z AUTO 16010KT 10SM BKN034 BKN110 06/04 A2974 RMK AO2 SLP072 T00610044=
201211181253 METAR KPAE 181253Z AUTO 17014G22KT 10SM FEW013 SCT032 BKN043 07/04 A2974 RMK AO2 RAE18 SLP072 P0000 T00670039=
201211181223 SPECI KPAE 181223Z AUTO 17012KT 10SM FEW023 BKN048 07/04 A2973 RMK AO2 RAE18 P0000=
201211181215 SPECI KPAE 181215Z AUTO 18013G21KT 10SM -RA BKN025 BKN035 BKN050 06/04 A2973 RMK AO2 P0000=
201211181153 METAR KPAE 181153Z AUTO 18016G27KT 9SM -RA FEW030 BKN035 07/04 A2972 RMK AO2 PK WND 18027/1144 RAE24B53 SLP065 P0001 60003 70016 T00670039 10067 20061 50006=
201211181053 METAR KPAE 181053Z AUTO 16012KT 9SM -RA BKN033 OVC043 07/04 A2972 RMK AO2 SLP067 P0001 T00670039=
201211180953 METAR KPAE 180953Z AUTO 16015G21KT 10SM -RA FEW017 BKN035 BKN120 06/04 A2971 RMK AO2 RAB18 SLP062 P0001 T00610039=
201211180853 METAR KPAE 180853Z AUTO 16015G20KT 10SM SCT019 BKN036 BKN046 07/03 A2970 RMK AO2 RAB19E31 SLP058 P0000 60000 T00670033 51015=
201211180753 METAR KPAE 180753Z AUTO 17012KT 10SM SCT028 BKN035 07/03 A2969 RMK AO2 SLP056 T00670033 401280061=
201211180653 METAR KPAE 180653Z AUTO 17014KT 10SM BKN017 BKN023 OVC033 07/04 A2967 RMK AO2 SLP048 T00670039=
201211180553 METAR KPAE 180553Z AUTO 16010KT 10SM BKN018 OVC027 07/04 A2965 RMK AO2 RAB0456E34 SLP042 P0000 60001 T00670039 10072 20061 51010=
201211180509 SPECI KPAE 180509Z AUTO 17010KT 10SM -RA BKN021 OVC035 07/04 A2965 RMK AO2 RAB0456 P0000=
201211180453 METAR KPAE 180453Z AUTO 16013G22KT 10SM SCT021 OVC038 07/03 A2964 RMK AO2 SLP039 T00670033=
201211180400 SPECI KPAE 180400Z 15011KT 10SM CLR 07/04 A2964 RMK AO2=
201211180353 METAR KPAE 180353Z 15011KT 10SM BKN015 OVC035 06/04 A2963 RMK AO2 SLP036 T00610039=
201211180253 METAR KPAE 180253Z 15010G17KT 10SM BKN015 OVC035 06/04 A2962 RMK AO2 SLP032 60001 T00610039 51016=
201211180200 SPECI KPAE 180200Z 16015G22KT 10SM BKN015 OVC035 06/04 A2962 RMK AO2=
201211180153 METAR KPAE 180153Z 17015G22KT 10SM BKN006 BKN020 07/04 A2962 RMK AO2 SLP030 T00670044=
201211180053 METAR KPAE 180053Z 17018G23KT 10SM BKN007 BKN018 07/04 A2959 RMK AO2 RAE23 SLP021 P0001 T00670044=
201211180005 SPECI KPAE 180005Z 17014G19KT 10SM -RA BKN007 BKN018 07/05 A2958 RMK AO2 P0000=
201211172358 SPECI KPAE 172358Z 17013G21KT 8SM -RA FEW007 SCT012 OVC037 07/05 A2957 RMK AO2 P0000=
201211172353 METAR KPAE 172353Z 18013G21KT 2 1/2SM -RA BR BKN015 BKN025 OVC060 07/05 A2957 RMK AO2 SLP016 P0004 60012 T00670050 10128 20067 53017=
201211172255 SPECI KPAE 172255Z 18018KT 2 1/2SM -RA BR BKN015 BKN025 OVC060 07/05 A2954 RMK AO2 P0000=
201211172253 METAR KPAE 172253Z 18018G24KT 3SM -RA BR SCT015 BKN025 OVC060 07/05 A2954 RMK AO2 PK WND 20027/2155 SLP007 P0006 T00720050=
201211172249 SPECI KPAE 172249Z 18020G24KT 3SM -RA BR SCT015 BKN025 OVC060 07/05 A2954 RMK AO2 PK WND 20027/2155 P0005=
201211172153 METAR KPAE 172153Z 19018KT 10SM -RA BKN050 OVC060 09/05 A2952 RMK AO2 RAB2056 SLP998 P0002 T00890050=
201211172053 METAR KPAE 172053Z 19014KT 10SM FEW011 OVC037 09/07 A2950 RMK AO2 WSHFT 1955 RAB25E52 SLP989 P0000 60000 T00940072 53004=
201211172015 SPECI KPAE 172015Z 21013KT 10SM FEW020 BKN034 OVC040 11/06 A2948 RMK AO2 WSHFT 1955=
201211171953 METAR KPAE 171953Z 15009G18KT 10SM FEW020 BKN034 OVC050 13/04 A2946 RMK AO2 RAB14E30 SLP976 P0000 T01280039=
201211171853 METAR KPAE 171853Z 15016G23KT 10SM SCT025 BKN040 OVC080 13/04 A2948=
201211171753 METAR KPAE 171753Z 14008G15KT 10SM BKN040 12/04 A2948 RMK AO2 SLP984 60000 T01170039 10117 20083 56020=
201211171653 METAR KPAE 171653Z 14008KT 080V170 10SM FEW040 SCT110 12/04 A2950 RMK AO2 SLP990 T01170039=
201211171553 METAR KPAE 171553Z 15010G16KT 10SM FEW042 SCT110 12/04 A2953 RMK AO2 RAB24E48 SLP000 P0000 T01170039=
201211171453 METAR KPAE 171453Z 15009KT 10SM OVC060 10/05 A2955 RMK AO2 SLP006 60000 T01000050 56018=
201211171353 METAR KPAE 171353Z AUTO VRB05KT 10SM BKN055 OVC075 10/04 A2955 RMK AO2 RAB09E43 SLP006 P0000 T01000044=
201211171253 METAR KPAE 171253Z AUTO VRB06G14KT 10SM OVC060 09/04 A2957 RMK AO2 RAE13 SLP015 P0000 T00940044=
201211171153 METAR KPAE 171153Z AUTO VRB05KT 8SM -RA OVC055 08/06 A2960 RMK AO2 RAE1059B16 SLP024 P0001 60014 70037 T00830056 10094 20083 56025=
201211171053 METAR KPAE 171053Z AUTO 11011KT 10SM -RA OVC050 08/06 A2962 RMK AO2 SLP030 P0002 T00830056=
201211170953 METAR KPAE 170953Z AUTO 14005G14KT 5SM RA BR OVC055 08/06 A2965 RMK AO2 SLP042 P0004 T00830061=
201211170853 METAR KPAE 170853Z AUTO 12010G16KT 8SM -RA OVC055 08/06 A2967 RMK AO2 SLP050 P0003 60007 T00830056 58018=
201211170753 METAR KPAE 170753Z AUTO 15008KT 8SM -RA BKN049 OVC060 09/06 A2971 RMK AO2 RAB0655 SLP063 P0002 T00890056 400940022=
201211170653 METAR KPAE 170653Z AUTO 12008KT 10SM FEW043 BKN055 OVC070 09/06 A2971 RMK AO2 RAE53 SLP062 P0002 T00890056=
201211170553 METAR KPAE 170553Z AUTO VRB05KT 8SM -RA OVC060 09/05 A2973 RMK AO2 SLP069 P0002 60020 T00890050 10089 20072 56013=
201211170453 METAR KPAE 170453Z 13005KT 10SM -RA FEW039 SCT047 OVC055 08/05 A2973 RMK AO2 RAE0355B12 SLP070 P0001 T00830050=
201211170353 METAR KPAE 170353Z 12008KT 10SM -RA SCT038 BKN047 OVC055 08/06 A2975 RMK AO2 SLP076 P0003 T00780056=
201211170253 METAR KPAE 170253Z 11006KT 8SM -RA BKN024 OVC032 07/05 A2977 RMK AO2 SLP083 P0005 60014 T00720050 56011=
201211170250 SPECI KPAE 170250Z VRB05KT 7SM -RA BKN026 OVC032 07/05 A2977 RMK AO2 P0005=
201211170153 METAR KPAE 170153Z 10007KT 7SM -RA BKN036 OVC047 07/06 A2978 RMK AO2 SLP088 P0007 T00720056=
201211170053 METAR KPAE 170053Z 12009KT 6SM -RA SCT041 OVC050 08/05 A2980 RMK AO2 SLP095 P0002 T00780050=
201211162353 METAR KPAE 162353Z VRB05KT 8SM -RA BKN050 BKN065 OVC080 09/05 A2982 RMK AO2 RAB2254 SLP102 P0003 60003 T00890050 10094 20050 56018=
201211162253 METAR KPAE 162253Z 14007KT 10SM BKN070 OVC085 09/03 A2983=
201211162153 METAR KPAE 162153Z VRB04KT 10SM OVC100 08/03 A2985 RMK AO2 SLP110 T00830028=
201211162053 METAR KPAE 162053Z 16009KT 10SM OVC042 08/02 A2988 RMK AO2 SLP119 T00780022 58009=
201211161953 METAR KPAE 161953Z 14006KT 10SM OVC040 07/03 A2989 RMK AO2 SLP124 T00720028=
201211161853 METAR KPAE 161853Z 16009KT 10SM OVC050 06/02 A2991 RMK AO2 SLP131 T00610022=
201211161753 METAR KPAE 161753Z 15009KT 10SM BKN050 OVC060 05/01 A2990 RMK AO2 SLP129 T00500011 10056 20022 53006=
201211161653 METAR KPAE 161653Z 16011KT 10SM FEW042 BKN050 05/01 A2989 RMK AO2 SLP124 T00500011=
201211161553 METAR KPAE 161553Z 16009KT 10SM SCT046 04/02 A2989 RMK AO2 SLP125 T00390017=
201211161453 METAR KPAE 161453Z 15006KT 10SM OVC047 04/02 A2988 RMK AO2 SLP123 T00390017 58005=
201211161353 METAR KPAE 161353Z 16005KT 10SM OVC043 04/02 A2989 RMK AO2 SLP126 T00390017=
201211161253 METAR KPAE 161253Z 11003KT 10SM OVC041 03/02 A2989 RMK AO2 SLP127 T00330022=
201211161206 SPECI KPAE 161206Z 00000KT 6SM BR OVC041 02/01 A2990 RMK AO2=
201211161158 SPECI KPAE 161158Z 00000KT 2SM BR FEW001 OVC041 02/02 A2990 RMK AO2=
201211161153 METAR KPAE 161153Z 00000KT 3/4SM R16R/P6000FT BR SCT001 OVC041 02/02 A2990 RMK AO2 SLP128 60000 T00220017 10061 20022 57010=
201211161145 SPECI KPAE 161145Z 11003KT 1/2SM R16R/2800VP6000FT FG SCT001 OVC041 02/02 A2990 RMK AO2=
201211161132 SPECI KPAE 161132Z 00000KT 1 1/4SM R16R/2000V2600FT BR BKN001 OVC045 02/02 A2990 RMK AO2=
201211161121 SPECI KPAE 161121Z 00000KT 1SM R16R/2000V2200FT BR VV001 02/02 A2991 RMK AO2=
201211161114 SPECI KPAE 161114Z 15005KT 1 3/4SM R16R/2200V2600FT BR SCT001 SCT046 02/01 A2991 RMK AO2=
201211161053 METAR KPAE 161053Z 16004KT 5SM R16R/3500V5000FT BR FEW001 02/01 A2991 RMK AO2 SLP132 T00220011=
201211161023 SPECI KPAE 161023Z VRB03KT 6SM R16R/3000V4500FT BR SCT001 03/02 A2992 RMK AO2=
201211161015 SPECI KPAE 161015Z VRB03KT 4SM R16R/3500V4500FT BR BKN001 03/02 A2992 RMK AO2=
201211161006 SPECI KPAE 161006Z VRB03KT 2SM R16R/2600V4500FT BR BKN001 03/02 A2992 RMK AO2=
201211160953 METAR KPAE 160953Z 00000KT 1/2SM R16R/1600V2400FT FG VV001 02/02 A2992 RMK AO2 SNB0858E31 SLP136 P0000 T00220017=
201211160926 SPECI KPAE 160926Z 18003KT 1/2SM R16R/1800V2600FT -SN FG VV001 02/01 A2993 RMK AO2 SNB0858 P0000=
201211160900 SPECI KPAE 160900Z 18004KT 1/4SM R16R/0800V1400FT -SN FG VV001 03/03 A2993 RMK AO2 SNB0858 P0000=
201211160853 METAR KPAE 160853Z 17004KT 1/4SM R16R/1000V2600FT FG VV001 04/03 A2993 RMK AO2 SLP138 T00390028 56005=
201211160847 SPECI KPAE 160847Z 16005KT 1SM R16R/1800VP6000FT BR VV001 04/03 A2993 RMK AO2=
201211160843 SPECI KPAE 160843Z 15004KT 2 1/2SM R16R/2800VP6000FT BR SCT002 04/03 A2993 RMK AO2=
201211160753 METAR KPAE 160753Z 16004KT 8SM SCT048 05/03 A2994 RMK AO2 SLP140 T00500033 400830022=
201211160653 METAR KPAE 160653Z 16004KT 10SM FEW050 05/03 A2993=
201211160553 METAR KPAE 160553Z 00000KT 5SM BR OVC050 06/04 A2995 RMK AO2 SLP144 T00560039 10067 20044 58010=
201211160453 METAR KPAE 160453Z 00000KT 6SM BR FEW050 06/04 A2995 RMK AO2 SLP147 T00610039=
201211160353 METAR KPAE 160353Z 00000KT 8SM OVC060 06/04 A2997 RMK AO2 SLP153 T00560039=
201211160253 METAR KPAE 160253Z 00000KT 6SM BR SCT055 05/03 A2998 RMK AO2 SLP155 T00500033 56008=
201211160153 METAR KPAE 160153Z 00000KT 9SM BKN055 06/04 A2998 RMK AO2 SLP156 T00560039=
201211160138 SPECI KPAE 160138Z 00000KT 10SM SCT006 OVC055 06/04 A2998 RMK AO2=
201211160053 METAR KPAE 160053Z 34003KT 10SM BKN006 06/04 A2999 RMK AO2 SLP159 T00610044=
201211160028 SPECI KPAE 160028Z 35004KT 10SM BKN006 07/04 A3000 RMK AO2=
201211152353 METAR KPAE 152353Z AUTO 35004KT 10SM FEW060 07/04 A3000 RMK AO2 SLP163 T00670044 10083 20044 56007 TSNO=
201211152253 METAR KPAE 152253Z 36004KT 10SM CLR 08/04 A3000 RMK AO2 SLP163 T00830039=
201211152153 METAR KPAE 152153Z 01003KT 10SM BCFG CLR 07/04 A3001 RMK AO2 SLP167 T00720044=
201211152053 METAR KPAE 152053Z 01003KT 5SM BCFG SCT001 08/04 A3002 RMK AO2 SLP170 T00780044 58021=
201211151957 SPECI KPAE 151957Z 02003KT 5SM R16R/1400VP6000FT BCFG SCT001 05/04 A3005 RMK AO2=
201211151953 METAR KPAE 151953Z 35003KT 2SM R16R/1000V3000FT BCFG BKN001 05/04 A3005 RMK AO2 SLP180 T00500039=
201211151853 METAR KPAE 151853Z 01003KT 8SM BCFG SCT001 04/03 A3009 RMK AO2 SLP192 T00440033=
201211151844 SPECI KPAE 151844Z 01003KT 1 1/2SM BCFG SCT001 04/03 A3009 RMK AO2=
201211151753 METAR KPAE 151753Z 02004KT 8SM BCFG SCT001 04/03 A3011 RMK AO2 SLP200 T00440033 10044 20022 58018=
201211151737 SPECI KPAE 151737Z 01003KT 8SM R16R/1800V4500FT BCFG SCT001 04/03 A3011 RMK AO2=
201211151735 SPECI KPAE 151735Z 02003KT 1/4SM R16R/1800V4500FT FG SCT001 04/03 A3011 RMK AO2=
201211151653 METAR KPAE 151653Z 02005KT M1/4SM R16R/0500V0600FT FG VV001 03/03 A3013 RMK AO2 SLP206 T00330028=
201211151553 METAR KPAE 151553Z 00000KT M1/4SM R16R/0500V0700FT FG VV001 03/02 A3015 RMK AO2 SLP215 T00330022=
201211151453 METAR KPAE 151453Z 00000KT M1/4SM R16R/0600V0700FT FG VV001 04/03 A3016 RMK AO2 SLP218 T00390028 58016 $=
201211151353 METAR KPAE 151353Z 34003KT M1/4SM R16R/0600V0700FT FG VV001 04/03 A3018 RMK AO2 SLP224 T00390028 $=
201211151253 METAR KPAE 151253Z 01003KT M1/4SM R16R/0600V0800FT FG VV001 03/02 A3019 RMK AO2 SLP228 T00330022 $=
201211151205 SPECI KPAE 151205Z 00000KT 1/4SM R16R/0700V1200FT FG VV001 03/02 A3021 RMK AO2 $=
201211151153 METAR KPAE 151153Z 00000KT 1/4SM R16R/1600V2800FT FG VV001 02/01 A3021 RMK AO2 SLP234 70001 T00220011 10061 20022 58017 $=
201211151103 SPECI KPAE 151103Z 35003KT 1/4SM R16R/2000V3000FT FG VV001 02/02 A3023 RMK AO2 $=
201211151053 METAR KPAE 151053Z 00000KT 1/4SM R16R/1400V2200FT FG VV001 03/02 A3023 RMK AO2 SLP240 T00280022 $=
201211151044 SPECI KPAE 151044Z 01003KT 1/4SM R16R/1600V3500FT FG VV001 03/02 A3023 RMK AO2 $=
201211151023 SPECI KPAE 151023Z 00000KT 3/4SM R16R/2800V6000FT BR VV001 03/02 A3024 RMK AO2 $=
201211151015 SPECI KPAE 151015Z 00000KT 1/4SM R16R/1000V6000FT FG VV001 04/03 A3024 RMK AO2 $=
201211150953 METAR KPAE 150953Z 00000KT 1/4SM R16R/0800V1000FT FG VV001 04/03 A3024 RMK AO2 SLP245 T00390033 $=
201211150920 SPECI KPAE 150920Z 04003KT 1/4SM R16R/0800V1000FT FG VV001 04/03 A3025 RMK AO2 $=
201211150904 SPECI KPAE 150904Z 00000KT 1/4SM R16R/2000VP6000FT FG VV001 03/02 A3026 RMK AO2 $=
201211150900 SPECI KPAE 150900Z 00000KT 1 1/4SM BR FEW001 04/03 A3026 RMK AO2 $=
201211150853 METAR KPAE 150853Z 00000KT 10SM CLR 05/04 A3026 RMK AO2 SLP250 T00500039 58015 $=
201211150834 SPECI KPAE 150834Z 07003KT 10SM FEW001 04/03 A3027 RMK AO2 $=
201211150825 SPECI KPAE 150825Z 00000KT 2SM R16R/5500VP6000FT BR SCT001 04/03 A3027 RMK AO2 $=
201211150822 SPECI KPAE 150822Z 00000KT 1SM R16R/3500VP6000FT BR VV001 04/03 A3027 RMK AO2 VIS 1/4V4 $=
201211150813 SPECI KPAE 150813Z 00000KT 1/4SM R16R/1600VP6000FT FG VV001 04/03 A3027 RMK AO2 $=
201211150753 METAR KPAE 150753Z 00000KT 1/4SM R16R/1400V2000FT FG VV001 04/04 A3028 RMK AO2 SLP256 T00440039 401000039=
201211150743 SPECI KPAE 150743Z 00000KT 3/4SM R16R/1600VP6000FT BR VV001 04/03 A3028 RMK AO2=
201211150700 SPECI KPAE 150700Z 00000KT 1 3/4SM BR CLR 05/03 A3029 RMK AO2=
201211150653 METAR KPAE 150653Z 00000KT 5SM BR CLR 04/03 A3029 RMK AO2 SLP262 T00440033=
201211150553 METAR KPAE 150553Z 00000KT 7SM CLR 06/04 A3030 RMK AO2 SLP265 T00610039 10089 20050 58004=
201211150453 METAR KPAE 150453Z 00000KT 9SM CLR 06/04 A3031 RMK AO2 SLP267 T00560039=
201211150353 METAR KPAE 150353Z 00000KT 10SM CLR 07/04 A3032 RMK AO2 SLP269 T00720044=
201211150253 METAR KPAE 150253Z 00000KT 10SM SCT038 07/04 A3032 RMK AO2 SLP269 T00670044 56002=
201211150153 METAR KPAE 150153Z 00000KT 10SM CLR 06/04 A3032 RMK AO2 SLP269 T00610039=
201211150053 METAR KPAE 150053Z 00000KT 10SM FEW033 08/04 A3032 RMK AO2 SLP268 T00780044=
201211142353 METAR KPAE 142353Z 00000KT 10SM OVC033 08/06 A3032 RMK AO2 SLP270 T00830056 10100 20083 53003=
201211142328 SPECI KPAE 142328Z 00000KT 10SM SCT024 BKN031 09/06 A3032 RMK AO2=
201211142253 METAR KPAE 142253Z 00000KT 10SM OVC024 09/05 A3031 RMK AO2 SLP266 T00940050=
201211142241 SPECI KPAE 142241Z 34003KT 10SM BKN024 09/06 A3031 RMK AO2=
201211142153 METAR KPAE 142153Z 34004KT 10SM SCT039 OVC055 10/05 A3031 RMK AO2 SLP266 T01000050=
201211142114 SPECI KPAE 142114Z VRB04KT 10SM FEW021 SCT026 09/06 A3031 RMK AO2=
201211142105 SPECI KPAE 142105Z 27004KT 10SM SCT021 BKN026 BKN060 09/06 A3031 RMK AO2=
201211142053 METAR KPAE 142053Z 28006KT 10SM FEW008 BKN060 09/06 A3031 RMK AO2 SLP267 T00890061 50004=
201211142036 SPECI KPAE 142036Z 28004KT 10SM FEW008 SCT024 BKN060 09/06 A3031 RMK AO2=
201211141953 METAR KPAE 141953Z 26003KT 10SM SCT007 OVC021 08/06 A3032 RMK AO2 SLP268 T00830061=
201211141924 SPECI KPAE 141924Z 00000KT 10SM SCT007 OVC021 09/06 A3031 RMK AO2=
201211141900 SPECI KPAE 141900Z 30003KT 10SM BKN007 OVC021 08/06 A3031 RMK AO2=
201211141853 METAR KPAE 141853Z 00000KT 10SM BKN004 OVC012 09/06 A3032 RMK AO2 SLP268 T00890061=
201211141812 SPECI KPAE 141812Z 29003KT 10SM BKN004 OVC012 08/07 A3031 RMK AO2=
201211141800 SPECI KPAE 141800Z 30003KT 10SM OVC012 08/06 A3030 RMK AO2=
201211141753 METAR KPAE 141753Z 31003KT 10SM BKN004 BKN015 OVC021 08/06 A3030 RMK AO2 SLP263 60001 T00830061 10083 20078 51020=
201211141656 SPECI KPAE 141656Z 33003KT 10SM BKN004 BKN015 OVC021 08/07 A3029 RMK AO2=
201211141653 METAR KPAE 141653Z 33004KT 2SM BR SCT004 BKN015 OVC021 08/07 A3028 RMK AO2 SLP257 T00780067=
201211141553 METAR KPAE 141553Z 00000KT 2SM BR OVC002 08/07 A3026 RMK AO2 RAE1458 SLP250 P0000 T00780067=
201211141453 METAR KPAE 141453Z 00000KT 1/2SM R16R/P6000FT -RA FG BKN002 OVC024 08/07 A3024=
201211141439 SPECI KPAE 141439Z AUTO 00000KT 2SM BR OVC002 08/07 A3024 RMK AO2=
201211141428 SPECI KPAE 141428Z AUTO 00000KT 3/4SM R16R/5000VP6000FT BR VV002 08/07 A3023 RMK AO2=
201211141409 SPECI KPAE 141409Z AUTO 00000KT 1 1/4SM R16R/2600V4500FT BR OVC002 08/07 A3023 RMK AO2=
201211141401 SPECI KPAE 141401Z AUTO 00000KT 2SM R16R/4000VP6000FT BR OVC002 08/07 A3023 RMK AO2=
201211141353 METAR KPAE 141353Z AUTO 00000KT 3SM R16R/3500VP6000FT BR OVC002 08/07 A3023 RMK AO2 SLP238 T00830072=
201211141326 SPECI KPAE 141326Z AUTO 00000KT 2 1/2SM R16R/2400VP6000FT BR BKN002 BKN029 OVC055 08/07 A3022 RMK AO2=
201211141315 SPECI KPAE 141315Z AUTO 00000KT 3SM R16R/2400VP6000FT BR SCT002 BKN010 OVC055 08/07 A3022 RMK AO2=
201211141312 SPECI KPAE 141312Z AUTO 00000KT 2SM R16R/2800VP6000FT BR BKN002 BKN010 OVC055 08/07 A3022 RMK AO2=
201211141302 SPECI KPAE 141302Z AUTO 00000KT 1 3/4SM BR SCT002 OVC008 08/07 A3022 RMK AO2=
201211141253 METAR KPAE 141253Z AUTO 00000KT 5SM BR OVC008 08/07 A3021 RMK AO2 SLP234 P0001 T00830072=
201211141153 METAR KPAE 141153Z AUTO 00000KT 7SM OVC008 08/07 A3021 RMK AO2 SLP231 70019 T00830072 10094 20078 53009=
201211141141 SPECI KPAE 141141Z AUTO 00000KT 5SM BR BKN008 BKN065 OVC090 08/07 A3020 RMK AO2=
201211141133 SPECI KPAE 141133Z AUTO 00000KT 6SM BR SCT008 BKN070 OVC095 08/07 A3020 RMK AO2=
201211141053 METAR KPAE 141053Z AUTO 00000KT 8SM SCT017 BKN065 OVC090 08/07 A3020 RMK AO2 SLP228 T00830067=
201211141037 SPECI KPAE 141037Z AUTO 00000KT 10SM SCT003 OVC015 08/07 A3020 RMK AO2=
201211141001 SPECI KPAE 141001Z AUTO 00000KT 10SM OVC003 09/07 A3019 RMK AO2 CIG 002V006=
201211140953 METAR KPAE 140953Z AUTO 00000KT 10SM OVC005 09/08 A3019 RMK AO2 CIG 002V006 SLP224 T00890078=
201211140928 SPECI KPAE 140928Z AUTO 24003KT 10SM OVC005 09/07 A3018 RMK AO2=
201211140853 METAR KPAE 140853Z AUTO 26005KT 10SM OVC003 09/08 A3018 RMK AO2 CIG 002V007 SLP222 T00890078 52012 $=
201211140840 SPECI KPAE 140840Z AUTO 24005KT 9SM OVC003 09/08 A3018 RMK AO2 CIG 002V007 $=
201211140753 METAR KPAE 140753Z AUTO 15006KT 10SM BKN005 OVC015 09/08 A3017 RMK AO2 SLP220 T00940078 401060089=
201211140700 SPECI KPAE 140700Z AUTO 16007KT 10SM OVC009 09/08 A3015 RMK AO2 CIG 006V013=
201211140653 METAR KPAE 140653Z AUTO VRB06KT 10SM OVC011 09/08 A3015 RMK AO2 CIG 006V013 SLP212 T00940078=
201211140623 SPECI KPAE 140623Z AUTO 15005KT 10SM SCT006 OVC011 09/08 A3015 RMK AO2=
201211140611 SPECI KPAE 140611Z AUTO 15005KT 10SM BKN006 BKN009 OVC015 09/08 A3015 RMK AO2 CIG 003V008=
201211140553 METAR KPAE 140553Z AUTO VRB04KT 10SM SCT006 OVC013 09/08 A3015 RMK AO2 SLP210 60007 T00940078 10100 20094 53004=
201211140453 METAR KPAE 140453Z AUTO 15007KT 100V170 10SM FEW005 OVC012 09/08 A3014 RMK AO2 RAE40 SLP207 P0003 T00940078=
201211140448 SPECI KPAE 140448Z AUTO 15007KT 10SM SCT005 BKN014 OVC021 09/08 A3014 RMK AO2 RAE40 P0003=
201211140353 METAR KPAE 140353Z VRB03KT 6SM -RA BR BKN007 BKN037 OVC049 09/08 A3013 RMK AO2 RAE0256B16 SLP206 P0000 T00940083=
201211140253 METAR KPAE 140253Z 15006KT 7SM -RA BKN007 BKN037 OVC049 09/08 A3014 RMK AO2 SLP206 P0001 60004 T00940083 56003=
201211140153 METAR KPAE 140153Z 15008KT 8SM -RA BKN007 BKN037 OVC049 09/08 A3014 RMK AO2 RAB0058 SLP208 P0002 T00940083=
201211140055 SPECI KPAE 140055Z 17007KT 10SM BKN007 BKN037 OVC049 09/08 A3014 RMK AO2=
201211140053 METAR KPAE 140053Z 15006KT 10SM BKN004 OVC047 09/08 A3013 RMK AO2 RAE41 SLP206 P0001 T00940083=
201211132353 METAR KPAE 132353Z 16006KT 5SM -RA BR BKN004 OVC047 09/08 A3014 RMK AO2 SLP209 P0003 60012 T00940083 10106 20094 56006=
201211132253 METAR KPAE 132253Z 16006KT 5SM -RA BR SCT007 BKN032 OVC060 10/08 A3015 RMK AO2 SLP210 P0005 T01000083=
201211132201 SPECI KPAE 132201Z 15007KT 4SM -RA BR SCT007 BKN032 OVC060 10/08 A3015 RMK AO2 P0001=
201211132153 METAR KPAE 132153Z 16007KT 5SM -RA BR SCT007 BKN013 OVC060 10/08 A3016 RMK AO2 SLP214 P0003 T01000078=
201211132114 SPECI KPAE 132114Z 17007KT 5SM -RA BR SCT011 OVC015 10/08 A3016 RMK AO2 P0001=
201211132100 SPECI KPAE 132100Z 17006KT 6SM -RA BR OVC013 10/08 A3016 RMK AO2 P0000=
201211132053 METAR KPAE 132053Z 16005KT 7SM -RA SCT013 BKN050 OVC070 10/08 A3016 RMK AO2 RAB16 SLP216 P0001 60001 T01000078 58012=
201211132003 SPECI KPAE 132003Z 15005KT 10SM SCT013 BKN050 OVC070 10/07 A3017 RMK AO2=
201211131953 METAR KPAE 131953Z COR 16006KT 10SM FEW006 BKN013 OVC060 10/07 A3017 RMK AO2 RAB14E32 SLP219 P0000 T01000072=
201211131853 METAR KPAE 131853Z 16007KT 10SM SCT008 BKN011 10/07 A3020 RMK AO2 SLP227 T01000072=
201211131834 SPECI KPAE 131834Z 15005KT 10SM SCT008 BKN011 OVC026 09/08 A3019 RMK AO2=
201211131753 METAR KPAE 131753Z 15007KT 10SM OVC006 09/07 A3020 RMK AO2 SLP228 60000 T00940072 10094 20089 53003=
201211131751 SPECI KPAE 131751Z VRB06KT 10SM OVC006 09/07 A3020 RMK AO2 CIG 004V009=
201211131653 METAR KPAE 131653Z 16007KT 1SM R16R/P6000FT BR OVC002 09/08 A3019 RMK AO2 SLP226 T00890078=
201211131601 SPECI KPAE 131601Z 16006KT 1/2SM R16R/P6000FT FG OVC004 09/08 A3019 RMK AO2 CIG 002V007=
201211131553 METAR KPAE 131553Z 15006KT 9SM OVC004 09/08 A3019 RMK AO2 CIG 003V007 SLP225 T00890078=
201211131516 SPECI KPAE 131516Z 17007KT 9SM BKN004 09/08 A3019 RMK AO2=
201211131509 SPECI KPAE 131509Z 17007KT 10SM BKN007 OVC012 09/08 A3019 RMK AO2 CIG 003V010=
201211131453 METAR KPAE 131453Z 16008KT 9SM OVC004 09/08 A3019 RMK AO2 CIG 003V007 SLP225 60000 T00890078 53000=
201211131353 METAR KPAE 131353Z AUTO 18006KT 10SM OVC004 09/08 A3018 RMK AO2 CIG 004V008 SLP223 T00890078 TSNO=
201211131323 SPECI KPAE 131323Z AUTO 17008KT 10SM OVC004 09/08 A3018 RMK AO2 CIG 003V007 TSNO=
201211131253 METAR KPAE 131253Z AUTO 16008KT 10SM OVC006 09/07 A3018 RMK AO2 RAB11E21 SLP222 P0000 T00890072 TSNO=
201211131227 SPECI KPAE 131227Z AUTO 16009KT 10SM OVC008 09/07 A3019 RMK AO2 RAB11E21 CIG 005V012 P0000 TSNO=
201211131201 SPECI KPAE 131201Z AUTO 17007KT 10SM SCT005 OVC013 09/07 A3019 RMK AO2 TSNO=
201211131153 METAR KPAE 131153Z AUTO 16007KT 10SM BKN005 BKN013 OVC023 09/08 A3019 RMK AO2 RAE22 CIG 003V008 SLP224 P0002 60009 70014 T00890078 10100 20089 58006 TSNO=
201211131053 METAR KPAE 131053Z AUTO 16007KT 3SM -RA BR FEW006 BKN009 OVC020 09/08 A3019 RMK AO2 CIG 008V012 SLP226 P0005 T00890078 TSNO=
201211130953 METAR KPAE 130953Z AUTO 16009KT 4SM -RA BR FEW006 BKN018 OVC038 09/08 A3020 RMK AO2 RAB24 SLP229 P0002 T00940078 TSNO=
201211130937 SPECI KPAE 130937Z AUTO 15009KT 8SM -RA FEW006 BKN011 OVC035 09/08 A3020 RMK AO2 RAB24 P0000 TSNO=
201211130921 SPECI KPAE 130921Z AUTO 16009KT 10SM FEW006 BKN009 OVC015 09/08 A3020 RMK AO2 CIG 009V012 TSNO=
201211130909 SPECI KPAE 130909Z AUTO 15009KT 10SM FEW006 BKN015 OVC032 09/08 A3021 RMK AO2 TSNO=
201211130853 METAR KPAE 130853Z AUTO 16009KT 10SM FEW010 BKN014 OVC031 09/08 A3021 RMK AO2 SLP231 T00940078 51007 TSNO=
201211130816 SPECI KPAE 130816Z AUTO 17008KT 10SM OVC010 10/08 A3021 RMK AO2 CIG 006V013 TSNO=
201211130753 METAR KPAE 130753Z AUTO 18011G15KT 10SM OVC008 09/08 A3020 RMK AO2 CIG 006V010 SLP230 T00940078 401000050 TSNO=
201211130653 METAR KPAE 130653Z AUTO 17010G15KT 10SM BKN008 OVC012 09/08 A3020 RMK AO2 CIG 006V010 SLP227 T00940078 TSNO=
201211130553 METAR KPAE 130553Z AUTO 17007KT 10SM OVC006 09/08 A3018 RMK AO2 CIG 005V011 SLP224 T00940078 10094 20083 53004 TSNO=
201211130500 SPECI KPAE 130500Z AUTO 17008KT 10SM BKN008 BKN075 09/08 A3017 RMK AO2 CIG 005V009 TSNO=
201211130453 METAR KPAE 130453Z AUTO 17008KT 10SM BKN026 BKN031 OVC080 09/08 A3017 RMK AO2 SLP221 T00890078 TSNO=
201211130353 METAR KPAE 130353Z 16008KT 10SM BKN028 OVC085 09/07 A3018 RMK AO2 SLP221 T00890072=
201211130322 SPECI KPAE 130322Z 16007KT 10SM FEW026 SCT030 OVC090 09/07 A3017 RMK AO2=
201211130253 METAR KPAE 130253Z 14003KT 10SM BKN024 BKN030 OVC035 09/07 A3017 RMK AO2 SLP219 T00890072 52005=
201211130233 SPECI KPAE 130233Z 13003KT 10SM FEW014 BKN024 OVC030 08/07 A3017 RMK AO2=
201211130153 METAR KPAE 130153Z VRB03KT 10SM OVC032 08/07 A3017 RMK AO2 SLP219 T00830072=
201211130137 SPECI KPAE 130137Z VRB04KT 10SM OVC031 08/07 A3016 RMK AO2=
201211130057 SPECI KPAE 130057Z VRB03KT 9SM OVC029 09/08 A3016 RMK AO2=
201211130053 METAR KPAE 130053Z 15004KT 8SM OVC031 09/08 A3016 RMK AO2 SLP215 T00890078=
201211130011 SPECI KPAE 130011Z VRB03KT 7SM SCT004 BKN016 OVC031 09/08 A3016 RMK AO2=
201211130000 SPECI KPAE 130000Z 00000KT 8SM BKN004 BKN016 OVC031 09/07 A3016 RMK AO2=
201211122353 METAR KPAE 122353Z 16004KT 2SM BR BKN004 BKN016 OVC031 09/07 A3016 RMK AO2 SLP215 60004 T00890072 10089 20061 52003=
201211122253 METAR KPAE 122253Z 00000KT 1SM R16R/P6000FT BR OVC004 08/07 A3015 RMK AO2 SLP212 T00830072=
201211122153 METAR KPAE 122153Z 15004KT 2SM BR OVC006 08/07 A3015 RMK AO2 RAE50 SLP214 P0001 T00830067=
201211122053 METAR KPAE 122053Z 16005KT 1 1/2SM -RA BR OVC004 08/07 A3015 RMK AO2 SLP211 P0003 60003 T00780067 51006=
201211121953 METAR KPAE 121953Z VRB03KT 1 1/4SM R16R/5500VP6000FT -RA BR OVC004 07/06 A3014 RMK AO2 RAB42 SLP210 P0000 T00720061=
201211121853 METAR KPAE 121853Z 12005KT 1SM R16R/P6000FT BR OVC004 07/06 A3014 RMK AO2 SLP209 T00720056=
201211121753 METAR KPAE 121753Z 11007KT 1SM R16R/P6000FT BR OVC004 06/05 A3013 RMK AO2 SLP205 P0001 60001 T00610050 10072 20056 53007=
201211121700 SPECI KPAE 121700Z VRB04KT 1SM R16R/P6000FT BR OVC004 06/05 A3012 RMK AO2=
201211121653 METAR KPAE 121653Z VRB03KT 2SM BR OVC004 06/05 A3012 RMK AO2 SLP201 T00610050=
201211121633 SPECI KPAE 121633Z VRB03KT 2SM BR OVC004 06/05 A3011 RMK AO2=
201211121615 SPECI KPAE 121615Z 13004KT 1 3/4SM BR OVC004 06/05 A3011 RMK AO2 CIG 002V006=
201211121604 SPECI KPAE 121604Z 15007KT 2SM BR OVC004 06/05 A3011 RMK AO2=
201211121553 METAR KPAE 121553Z 15005KT 3SM BR OVC004 06/04 A3011 RMK AO2 SLP198 T00610044=
201211121533 SPECI KPAE 121533Z 00000KT 2 1/2SM BR OVC004 06/04 A3010 RMK AO2=
201211121520 SPECI KPAE 121520Z 12005KT 3SM BR BKN004 OVC008 06/04 A3010 RMK AO2 CIG 003V008=
201211121453 METAR KPAE 121453Z 14004KT 5SM BR BKN008 OVC017 07/06 A3009 RMK AO2 SLP192 T00720056 53007=
201211121404 SPECI KPAE 121404Z AUTO 15009KT 10SM OVC009 07/05 A3008 RMK AO2 CIG 007V013=
201211121353 METAR KPAE 121353Z AUTO 15006KT 10SM OVC011 07/05 A3008 RMK AO2 CIG 007V014 SLP188 T00670050=
201211121343 SPECI KPAE 121343Z AUTO VRB06KT 10SM BKN011 OVC025 07/06 A3008 RMK AO2=
201211121310 SPECI KPAE 121310Z AUTO 15008KT 10SM SCT005 SCT010 OVC027 07/06 A3008 RMK AO2=
201211121253 METAR KPAE 121253Z AUTO 16009KT 10SM BKN005 BKN009 OVC027 07/06 A3007 RMK AO2 CIG 003V007 SLP186 T00720056=
201211121246 SPECI KPAE 121246Z AUTO 16011KT 10SM BKN005 BKN009 OVC027 07/06 A3007 RMK AO2 CIG 003V007=
201211121153 METAR KPAE 121153Z AUTO VRB05G14KT 9SM OVC003 07/06 A3007 RMK AO2 SLP185 60004 70020 T00670056 10067 20050 56004=
201211121135 SPECI KPAE 121135Z AUTO 15010G17KT 3SM BR OVC003 06/05 A3007 RMK AO2=
201211121120 SPECI KPAE 121120Z AUTO 12008KT 1 3/4SM BR OVC003 06/04 A3007 RMK AO2=
201211121053 METAR KPAE 121053Z AUTO VRB06KT 8SM OVC003 06/05 A3007 RMK AO2 SLP185 T00610050=
201211120953 METAR KPAE 120953Z AUTO 15010G18KT 5SM BR BKN003 OVC029 06/04 A3007 RMK AO2 SLP187 T00560044=
201211120853 METAR KPAE 120853Z AUTO 11007KT 4SM BR OVC003 06/04 A3008 RMK AO2 RAE29 SLP189 P0001 60004 T00560039 56004=
201211120841 SPECI KPAE 120841Z AUTO VRB06KT 4SM BR BKN003 BKN015 OVC033 06/04 A3008 RMK AO2 RAE29 P0001=
201211120832 SPECI KPAE 120832Z AUTO VRB05KT 4SM BR SCT003 BKN015 OVC033 06/04 A3008 RMK AO2 RAE29 P0001=
201211120820 SPECI KPAE 120820Z AUTO 12006KT 5SM -RA BR FEW003 SCT015 OVC033 05/04 A3008 RMK AO2 P0001=
201211120804 SPECI KPAE 120804Z AUTO 13004KT 4SM -RA BR SCT018 OVC035 05/04 A3008 RMK AO2 P0000=
201211120753 METAR KPAE 120753Z AUTO 12009KT 4SM -RA BR BKN018 OVC027 05/04 A3009 RMK AO2 RAB0658 SLP192 P0003 T00500039 400720006=
201211120653 METAR KPAE 120653Z AUTO VRB04KT 10SM SCT019 OVC028 06/04 A3008 RMK AO2 RAB10E22 SLP188 P0000 T00560039=
201211120642 SPECI KPAE 120642Z AUTO VRB05KT 8SM SCT020 OVC030 06/04 A3008 RMK AO2 RAB10E22 P0000=
201211120602 SPECI KPAE 120602Z AUTO VRB04KT 4SM BR SCT006 SCT018 OVC025 06/04 A3009 RMK AO2=
201211120553 METAR KPAE 120553Z AUTO 13006KT 3SM BR SCT004 BKN014 OVC027 06/04 A3009 RMK AO2 RAE53 SLP193 P0001 60013 T00560044 10072 20056 55001=
201211120529 SPECI KPAE 120529Z AUTO VRB06KT 5SM -RA BR SCT004 BKN015 OVC033 06/04 A3009 RMK AO2 P0001=
201211120514 SPECI KPAE 120514Z AUTO 13004KT 5SM -RA BR FEW004 OVC037 06/04 A3009 RMK AO2 P0001=
201211120500 SPECI KPAE 120500Z AUTO 14006G15KT 6SM -RA BR FEW030 OVC041 06/04 A3009 RMK AO2 P0000=
201211120453 METAR KPAE 120453Z AUTO 15008KT 6SM -RA BR BKN027 BKN032 OVC041 06/04 A3009 RMK AO2 SLP193 P0000 T00610044=
201211120353 METAR KPAE 120353Z 15014KT 8SM -RA BKN027 BKN032 OVC041 06/04 A3009 RMK AO2 SLP192 P0003 T00560039=
201211120304 SPECI KPAE 120304Z 15008KT 6SM -RA BR BKN004 BKN025 OVC032 06/04 A3009 RMK AO2 P0000=
201211120253 METAR KPAE 120253Z 15008KT 8SM -RA SCT004 BKN025 OVC048 06/04 A3009 RMK AO2 SLP195 P0003 60009 T00560039 58016=
201211120153 METAR KPAE 120153Z VRB04KT 7SM -RA BKN025 OVC031 06/04 A3011 RMK AO2 SLP202 P0005 T00560039=
201211120053 METAR KPAE 120053Z VRB06KT 8SM -RA OVC042 06/03 A3013 RMK AO2 RAB2357 SLP207 P0001 T00610028=
201211112353 METAR KPAE 112353Z 15006KT 10SM BKN035 OVC050 07/02 A3014 RMK AO2 SLP210 60003 T00720022 10072 20039 56016=
201211112253 METAR KPAE 112253Z VRB04KT 10SM FEW020 OVC030 07/02 A3015 RMK AO2 SLP213 T00670022=
201211112153 METAR KPAE 112153Z 12010G14KT 10SM BKN031 BKN039 OVC055 06/02 A3016 RMK AO2 RAE30 SLP217 P0001 T00610017=
201211112053 METAR KPAE 112053Z 12007KT 10SM -RA BKN034 OVC055 05/01 A3019 RMK AO2 SLP227 P0000 60002 T00500011 58010=
201211112000 SPECI KPAE 112000Z 12007KT 10SM -RA SCT034 OVC050 05/01 A3020 RMK AO2 P0000=
201211111953 METAR KPAE 111953Z 12007KT 10SM -RA BKN022 OVC060 05/01 A3020 RMK AO2 SLP230 P0001 T00500006=
201211111909 SPECI KPAE 111909Z 11008KT 10SM -RA BKN022 OVC060 04/M01 A3021 RMK AO2 P0000=
201211111853 METAR KPAE 111853Z 12007KT 10SM -RA BKN042 OVC055 04/M01 A3021 RMK AO2 SLP235 P0001 T00391011=
201211111753 METAR KPAE 111753Z 12007KT 10SM -RA SCT028 BKN043 04/M03 A3022 RMK AO2 RAB36 SLP237 P0000 60000 T00391028 10039 20017 51005=
201211111653 METAR KPAE 111653Z 12008KT 10SM BKN028 03/M03 A3021 RMK AO2 SLP234 T00331033=
201211111553 METAR KPAE 111553Z 11008KT 10SM BKN028 OVC050 03/M03 A3021 RMK AO2 SLP235 T00281033=
201211111453 METAR KPAE 111453Z 11007KT 10SM FEW031 OVC060 02/M03 A3020 RMK AO2 SLP232 T00221033 55004=
201211111409 SPECI KPAE 111409Z AUTO 11009KT 10SM SCT029 02/M03 A3020 RMK AO2=
201211111353 METAR KPAE 111353Z AUTO 11008KT 10SM BKN027 02/M03 A3020 RMK AO2 SLP230 T00171033=
201211111338 SPECI KPAE 111338Z AUTO 11007KT 10SM BKN029 BKN034 02/M03 A3020 RMK AO2=
201211111324 SPECI KPAE 111324Z AUTO 12007KT 10SM SCT027 BKN034 02/M03 A3021 RMK AO2=
201211111253 METAR KPAE 111253Z AUTO 12006KT 10SM BKN029 02/M03 A3021 RMK AO2 SLP233 T00171028=
201211111153 METAR KPAE 111153Z AUTO 12008KT 10SM CLR 01/M03 A3021 RMK AO2 SLP236 T00111028 10022 20006 58001=
201211111053 METAR KPAE 111053Z AUTO 12006KT 10SM CLR 01/M03 A3022 RMK AO2 SLP237 T00111028=
201211110953 METAR KPAE 110953Z AUTO VRB04KT 10SM CLR 02/M02 A3023 RMK AO2 SLP240 T00171022=
201211110853 METAR KPAE 110853Z AUTO VRB03KT 10SM CLR 02/M02 A3022 RMK AO2 SLP237 T00171022 53007=
201211110753 METAR KPAE 110753Z AUTO 12006KT 10SM CLR 01/M02 A3021 RMK AO2 SLP234 T00111022 400611011=
201211110653 METAR KPAE 110653Z AUTO VRB03KT 10SM CLR 02/M02 A3020 RMK AO2 SLP232 T00171022=
201211110553 METAR KPAE 110553Z AUTO 12005KT 10SM CLR 02/M02 A3020 RMK AO2 SLP230 T00221022 10056 20017 53006=
201211110453 METAR KPAE 110453Z 11004KT 10SM CLR 02/M02 A3019 RMK AO2 SLP228 T00171022=
201211110353 METAR KPAE 110353Z 12004KT 10SM FEW065 02/M04 A3018 RMK AO2 SLP226 T00221039=
201211110253 METAR KPAE 110253Z 00000KT 10SM CLR 03/M05 A3018 RMK AO2 SLP224 T00331050 51012=
201211110153 METAR KPAE 110153Z 00000KT 10SM CLR 02/M05 A3017 RMK AO2 SLP222 T00221050=
201211110053 METAR KPAE 110053Z 00000KT 10SM CLR 03/M05 A3016 RMK AO2 SLP218 T00331050=
201211102353 METAR KPAE 102353Z 00000KT 10SM CLR 06/M04 A3014 RMK AO2 SLP212 T00561044 10061 20033 51007=
201211102253 METAR KPAE 102253Z VRB03KT 10SM CLR 06/M06 A3013 RMK AO2 SLP208 T00611056=
201211102153 METAR KPAE 102153Z 35005KT 10SM CLR 06/M04 A3014 RMK AO2 SLP209 T00561044=
201211102053 METAR KPAE 102053Z VRB05KT 10SM CLR 06/M03 A3012 RMK AO2 SLP205 T00561033 51017=
201211101953 METAR KPAE 101953Z 35004KT 10SM CLR 04/M02 A3010 RMK AO2 SLP199 T00441017=
201211101853 METAR KPAE 101853Z 03004KT 10SM CLR 04/M01 A3009 RMK AO2 SLP195 T00441006=
201211101753 METAR KPAE 101753Z 35003KT 10SM CLR 03/M01 A3007 RMK AO2 SLP188 T00331011 10033 21011 51015=
201211101653 METAR KPAE 101653Z 00000KT 10SM BKN090 01/M01 A3006 RMK AO2 SLP184 T00111006=
201211101553 METAR KPAE 101553Z 00000KT 10SM FEW002 OVC085 01/01 A3005 RMK AO2 SLP181 T00110006=
201211101516 SPECI KPAE 101516Z 04003KT 2SM BR SCT002 OVC075 01/M01 A3004 RMK AO2=
201211101453 METAR KPAE 101453Z 00000KT 1SM R16R/P6000FT BR OVC002 01/M01 A3003 RMK AO2 SLP172 T00061006 51014=
201211101439 SPECI KPAE 101439Z AUTO 00000KT 5SM BR BKN002 00/M01 A3002 RMK AO2=
201211101427 SPECI KPAE 101427Z AUTO 00000KT 7SM SCT002 BKN070 00/M01 A3002 RMK AO2=
201211101353 METAR KPAE 101353Z AUTO 00000KT 10SM SCT070 00/M01 A3001 RMK AO2 SLP168 T00001011=
201211101253 METAR KPAE 101253Z AUTO 00000KT 6SM BR SCT065 M01/M02 A3000 RMK AO2 SLP164 T10061017=
201211101211 SPECI KPAE 101211Z AUTO 00000KT 3SM BR CLR M01/M02 A2999 RMK AO2=
201211101200 SPECI KPAE 101200Z AUTO 00000KT 1SM R16R/P6000FT BR CLR M01/M02 A2998 RMK AO2=
201211101153 METAR KPAE 101153Z AUTO 00000KT 3/4SM R16R/P6000FT BR VV002 00/M02 A2998 RMK AO2 SLP158 T00001017 10028 21011 51011=
201211101144 SPECI KPAE 101144Z AUTO 00000KT 1SM R16R/P6000FT BR VV002 M01/M02 A2998 RMK AO2=
201211101141 SPECI KPAE 101141Z AUTO 00000KT 3/4SM R16R/P6000FT BR VV001 M01/M02 A2998 RMK AO2=
201211101122 SPECI KPAE 101122Z AUTO 00000KT 1/4SM R16R/3000VP6000FT FZFG VV002 M01/M02 A2998 RMK AO2=
201211101101 SPECI KPAE 101101Z AUTO 00000KT 3/4SM R16R/P6000FT BR VV002 00/M01 A2998 RMK AO2=
201211101056 SPECI KPAE 101056Z AUTO 00000KT 1 3/4SM BR FEW002 00/M01 A2998 RMK AO2=
201211101053 METAR KPAE 101053Z AUTO 00000KT 2 1/2SM BR CLR 00/M01 A2998 RMK AO2 SLP155 T00001006=
201211100953 METAR KPAE 100953Z AUTO 00000KT 10SM CLR 01/M02 A2997 RMK AO2 SLP152 T00061017=
201211100853 METAR KPAE 100853Z AUTO 00000KT 10SM CLR 01/M01 A2995 RMK AO2 SLP147 T00061011 53007=
201211100753 METAR KPAE 100753Z AUTO 00000KT 10SM CLR 02/00 A2995 RMK AO2 SLP145 T00220000 400720011=
201211100653 METAR KPAE 100653Z AUTO 00000KT 10SM CLR 02/M02 A2993 RMK AO2 SLP140 T00171022=
201211100553 METAR KPAE 100553Z AUTO 00000KT 10SM CLR 02/M03 A2993 RMK AO2 SLP139 T00221028 10061 20017 53008=
201211100453 METAR KPAE 100453Z AUTO 00000KT 10SM CLR 03/M02 A2992 RMK AO2 SLP136 T00281022=
201211100353 METAR KPAE 100353Z 30003KT 10SM CLR 02/M01 A2991 RMK AO2 SLP133 T00221006=
201211100253 METAR KPAE 100253Z 33003KT 10SM CLR 03/00 A2990 RMK AO2 SLP130 T00330000 51007=
201211100153 METAR KPAE 100153Z 00000KT 10SM CLR 04/00 A2990 RMK AO2 SLP129 T00440000=
201211100053 METAR KPAE 100053Z 00000KT 10SM CLR 04/00 A2989 RMK AO2 SLP125 T00440000=
201211092353 METAR KPAE 092353Z 00000KT 10SM SCT024 06/M01 A2988 RMK AO2 SLP122 T00611006 10072 20039 53000=
201211092253 METAR KPAE 092253Z 36003KT 10SM CLR 07/M01 A2988 RMK AO2 SLP121 T00671011=
201211092153 METAR KPAE 092153Z 36003KT 10SM CLR 07/M02 A2988 RMK AO2 SLP121 T00671017=
201211092053 METAR KPAE 092053Z 02004KT 10SM CLR 07/01 A2988 RMK AO2 SLP122 T00670006 58001=
201211091953 METAR KPAE 091953Z 01003KT 10SM CLR 06/02 A2989 RMK AO2 SLP126 T00560017=
201211091943 SPECI KPAE 091943Z 00000KT 10SM SCT028 05/02 A2989 RMK AO2=
201211091853 METAR KPAE 091853Z 02004KT 10SM SCT008 OVC020 04/02 A2990 RMK AO2 SLP128 T00440017=
201211091828 SPECI KPAE 091828Z 01004KT 10SM SCT008 BKN015 OVC020 04/02 A2989 RMK AO2=
201211091818 SPECI KPAE 091818Z 03003KT 10SM BKN008 BKN015 OVC020 04/02 A2989 RMK AO2 CIG 005V012=
201211091753 METAR KPAE 091753Z 00000KT 10SM SCT006 SCT010 OVC020 04/02 A2988 RMK AO2 SLP123 T00390017 10039 20011 51009=
201211091739 SPECI KPAE 091739Z 00000KT 10SM FEW006 OVC022 03/02 A2988 RMK AO2=
201211091700 SPECI KPAE 091700Z 01003KT 10SM FEW022 04/02 A2988 RMK AO2=
201211091653 METAR KPAE 091653Z 00000KT 10SM SCT001 BKN022 04/02 A2988 RMK AO2 SLP121 T00390017=
201211091607 SPECI KPAE 091607Z 00000KT 10SM SCT001 BKN022 02/01 A2988 RMK AO2=
201211091600 SPECI KPAE 091600Z 00000KT 6SM BR FEW001 BKN014 02/01 A2988 RMK AO2=
201211091553 METAR KPAE 091553Z 00000KT 10SM SCT001 BKN022 02/01 A2987 RMK AO2 SLP120 T00170006=
201211091514 SPECI KPAE 091514Z 02004KT 10SM BKN020 02/01 A2986 RMK AO2=
201211091453 METAR KPAE 091453Z 00000KT 10SM FEW004 SCT020 02/00 A2986 RMK AO2 SLP114 T00170000 51007=
201211091429 SPECI KPAE 091429Z AUTO 00000KT 10SM FEW004 02/01 A2986 RMK AO2=
201211091353 METAR KPAE 091353Z AUTO 00000KT 10SM CLR 02/01 A2985 RMK AO2 SLP112 T00170006=
201211091253 METAR KPAE 091253Z AUTO 00000KT 10SM CLR 02/01 A2985 RMK AO2 SLP110 T00170006=
201211091153 METAR KPAE 091153Z AUTO 00000KT 7SM CLR 02/01 A2983 RMK AO2 SLP106 T00220006 10050 20017 50002=
201211091053 METAR KPAE 091053Z AUTO 00000KT 7SM CLR 02/01 A2984 RMK AO2 SLP107 T00170006=
201211090953 METAR KPAE 090953Z AUTO 00000KT 10SM CLR 03/01 A2983 RMK AO2 SLP105 T00280006=
201211090853 METAR KPAE 090853Z AUTO 02003KT 10SM CLR 04/01 A2983 RMK AO2 SLP103 T00390011 53003=
201211090753 METAR KPAE 090753Z AUTO 31005KT 10SM CLR 04/02 A2983 RMK AO2 SLP102 T00440017 400940022=
201211090653 METAR KPAE 090653Z AUTO 30005KT 10SM CLR 04/01 A2982 RMK AO2 SLP102 T00440011=
201211090553 METAR KPAE 090553Z AUTO 00000KT 10SM CLR 05/02 A2982 RMK AO2 SLP101 T00500017 10078 20050 53002=
201211090453 METAR KPAE 090453Z AUTO 33005KT 10SM CLR 06/01 A2982 RMK AO2 SLP100 T00610011=
201211090353 METAR KPAE 090353Z 34006KT 10SM CLR 07/02 A2981 RMK AO2 SLP098 T00670017=
201211090253 METAR KPAE 090253Z 34005KT 10SM CLR 07/02 A2981 RMK AO2 SLP099 T00670017 55002=
201211090153 METAR KPAE 090153Z 34004KT 10SM CLR 07/02 A2981 RMK AO2 SLP098 T00670022=
201211090053 METAR KPAE 090053Z 32006KT 10SM CLR 07/02 A2981 RMK AO2 SLP098 T00720022=
201211082353 METAR KPAE 082353Z 32007KT 10SM CLR 08/02 A2982 RMK AO2 SLP100 T00780022 10094 20056 55004=
201211082253 METAR KPAE 082253Z 31009G14KT 10SM CLR 09/02 A2982 RMK AO2 SLP099 T00890017=
201211082153 METAR KPAE 082153Z 33007KT 310V030 10SM FEW100 09/01 A2982 RMK AO2 SLP101 T00890011=
201211082053 METAR KPAE 082053Z 36004KT 10SM FEW110 09/02 A2983 RMK AO2 SLP104 T00890017 56005=
201211081953 METAR KPAE 081953Z 36007KT 10SM CLR 08/02 A2983 RMK AO2 SLP104 T00780017=
201211081853 METAR KPAE 081853Z 34009G14KT 10SM CLR 07/02 A2984 RMK AO2 SLP108 T00670022=
201211081753 METAR KPAE 081753Z 35006KT 10SM SCT005 OVC090 06/03 A2985 RMK AO2 SLP110 T00560028 10056 20022 58003=
201211081743 SPECI KPAE 081743Z 35006KT 10SM FEW007 OVC090 05/03 A2985 RMK AO2=
201211081653 METAR KPAE 081653Z 35005KT 10SM BKN085 04/02 A2985 RMK AO2 SLP113 T00390017=
201211081553 METAR KPAE 081553Z 36003KT 10SM CLR 03/01 A2986 RMK AO2 SLP114 T00330011=
201211081453 METAR KPAE 081453Z 36003KT 10SM FEW070 SCT085 02/00 A2986 RMK AO2 SLP114 T00220000 56008=
201211081353 METAR KPAE 081353Z AUTO 00000KT 10SM CLR 03/01 A2986 RMK AO2 SLP116 T00330006=
201211081253 METAR KPAE 081253Z AUTO 06004KT 10SM CLR 04/00 A2987 RMK AO2 SLP118 T00440000=
201211081153 METAR KPAE 081153Z AUTO 07005KT 10SM CLR 04/01 A2988 RMK AO2 SLP122 70001 T00440006 10056 20039 58017=
201211081053 METAR KPAE 081053Z AUTO 11004KT 10SM CLR 04/01 A2990 RMK AO2 SLP128 T00390011=
201211080953 METAR KPAE 080953Z AUTO 11007KT 10SM CLR 04/01 A2992 RMK AO2 SLP134 T00390011=
201211080853 METAR KPAE 080853Z AUTO 11006KT 10SM CLR 04/02 A2993 RMK AO2 SLP139 T00440017 56022=
201211080753 METAR KPAE 080753Z AUTO 11007KT 10SM CLR 04/02 A2994=
201211080653 METAR KPAE 080653Z AUTO 12007KT 10SM CLR 05/03 A2997 RMK AO2 SLP152 T00500028=
201211080553 METAR KPAE 080553Z AUTO 11006KT 10SM FEW070 06/03 A3000 RMK AO2 RAB00E14 SLP161 P0000 60001 T00560033 10094 20056 58015=
201211080453 METAR KPAE 080453Z AUTO 00000KT 10SM FEW035 BKN075 OVC095 06/04 A3002 RMK AO2 SLP167 T00610039=
201211080353 METAR KPAE 080353Z 12003KT 10SM CLR 07/04 A3003 RMK AO2 SLP171 T00670039=
201211080253 METAR KPAE 080253Z 11006KT 10SM BKN070 07/04 A3004 RMK AO2 SLP176 60001 T00720039 56010=
201211080153 METAR KPAE 080153Z 11007KT 10SM OVC070 08/04 A3005 RMK AO2 RAE09 SLP178 P0000 T00780044=
201211080053 METAR KPAE 080053Z 10008KT 8SM -RA SCT035 BKN055 OVC065 09/05 A3006 RMK AO2 RAB40 SLP180 P0001 T00890050=
201211072353 METAR KPAE 072353Z 10006KT 10SM SCT030 09/04 A3007 RMK AO2 SLP185 T00940044 10100 20078 58013=
201211072253 METAR KPAE 072253Z 12005KT 10SM CLR 09/04 A3009 RMK AO2 SLP190 T00940039=
201211072153 METAR KPAE 072153Z 11007KT 10SM SCT030 10/04 A3010 RMK AO2 SLP195 T01000039=
201211072053 METAR KPAE 072053Z COR 11007KT 10SM SCT020 10/04 A3011 RMK AO2 SLP198 T01000039 58007=
201211072000 SPECI KPAE 072000Z VRB05KT 10SM CLR 09/04 A3012 RMK AO2=
201211071953 METAR KPAE 071953Z 07008KT 10SM SCT008 BKN023 09/04 A3012 RMK AO2 SLP202 T00940039=
201211071853 METAR KPAE 071853Z 09006KT 10SM SCT006 OVC027 08/05 A3013 RMK AO2 SLP206 T00830050=
201211071834 SPECI KPAE 071834Z 06007KT 10SM SCT006 BKN027 OVC044 08/06 A3013 RMK AO2=
201211071753 METAR KPAE 071753Z 15004KT 10SM OVC029 09/06 A3013 RMK AO2 SLP206 T00890056 10094 20078 51007=
201211071743 SPECI KPAE 071743Z VRB04KT 10SM BKN029 BKN055 08/06 A3013 RMK AO2=
201211071700 SPECI KPAE 071700Z VRB04KT 10SM SCT030 BKN037 OVC044 08/06 A3013 RMK AO2=
201211071653 METAR KPAE 071653Z VRB03KT 10SM BKN015 OVC030 08/06 A3013 RMK AO2 SLP204 T00830056=
201211071553 METAR KPAE 071553Z 12005KT 10SM BKN029 OVC043 08/06 A3013 RMK AO2 SLP204 T00780056=
201211071538 SPECI KPAE 071538Z 11005KT 10SM SCT029 OVC043 08/06 A3013 RMK AO2=
201211071516 SPECI KPAE 071516Z VRB03KT 10SM BKN027 BKN032 OVC045 08/06 A3012 RMK AO2=
201211071453 METAR KPAE 071453Z 12003KT 10SM FEW031 BKN050 OVC065 08/06 A3011 RMK AO2 SLP199 T00780056 51011=
201211071353 METAR KPAE 071353Z AUTO 11004KT 10SM BKN030 BKN060 08/06 A3010 RMK AO2 SLP196 T00780056=
201211071253 METAR KPAE 071253Z AUTO 00000KT 10SM FEW027 OVC060 08/05 A3009 RMK AO2 SLP190 T00830050=
201211071236 SPECI KPAE 071236Z AUTO 00000KT 10SM SCT027 OVC055 08/05 A3009 RMK AO2=
201211071212 SPECI KPAE 071212Z AUTO 00000KT 10SM BKN029 BKN047 08/05 A3008 RMK AO2=
201211071153 METAR KPAE 071153Z AUTO 12003KT 10SM FEW031 SCT047 BKN060 08/06 A3008 RMK AO2 RAE1057 SLP186 P0000 60006 70008 T00830056 10111 20078 53014=
201211071102 SPECI KPAE 071102Z AUTO 10004KT 10SM FEW005 BKN030 OVC041 08/06 A3007 RMK AO2 RAE1057 P0000=
201211071053 METAR KPAE 071053Z AUTO 09004KT 9SM -RA FEW005 BKN021 OVC039 08/07 A3006 RMK AO2 RAB09 SLP181 P0006 T00830067=
201211071038 SPECI KPAE 071038Z AUTO 02003KT 3SM RA BR SCT005 OVC011 08/07 A3006 RMK AO2 RAB09 P0005=
201211070953 METAR KPAE 070953Z AUTO 08003KT 10SM OVC013 09/07 A3004 RMK AO2 SLP173 T00940067=
201211070950 SPECI KPAE 070950Z AUTO 09005KT 10SM BKN013 OVC019 09/07 A3004 RMK AO2=
201211070935 SPECI KPAE 070935Z AUTO 00000KT 10SM BKN015 09/07 A3003 RMK AO2=
201211070920 SPECI KPAE 070920Z AUTO 10003KT 10SM FEW015 SCT030 BKN040 10/07 A3003 RMK AO2=
201211070853 METAR KPAE 070853Z AUTO VRB03KT 10SM FEW013 OVC026 10/07 A3002 RMK AO2 SLP167 T01000067 53003=
201211070753 METAR KPAE 070753Z AUTO 19005KT 10SM FEW013 OVC024 11/07 A3002 RMK AO2 SLP165 T01060072 401280072=
201211070745 SPECI KPAE 070745Z AUTO 18007KT 10SM SCT013 BKN022 OVC027 11/07 A3002 RMK AO2=
201211070653 METAR KPAE 070653Z AUTO 16003KT 10SM BKN013 OVC021 11/08 A3002 RMK AO2 SLP166 T01110078=
201211070625 SPECI KPAE 070625Z AUTO 00000KT 10SM BKN016 OVC021 11/08 A3002 RMK AO2=
201211070553 METAR KPAE 070553Z AUTO 19004KT 10SM BKN014 BKN021 OVC026 11/08 A3002 RMK AO2 RAB07E29 SLP165 P0001 60001 T01110083 10128 20111 51007=
201211070550 SPECI KPAE 070550Z AUTO 20003KT 10SM BKN014 OVC023 11/08 A3001 RMK AO2 RAB07E29 P0001=
201211070453 METAR KPAE 070453Z AUTO 16005KT 10SM OVC019 12/09 A3000 RMK AO2 SLP160 T01170089=
201211070422 SPECI KPAE 070422Z 20004KT 10SM FEW009 BKN017 OVC046 12/09 A3000 RMK AO2=
201211070414 SPECI KPAE 070414Z 22005KT 10SM SCT011 BKN017 OVC046 12/09 A3000 RMK AO2=
201211070353 METAR KPAE 070353Z 23009KT 10SM OVC011 12/09 A2999 RMK AO2 CIG 009V013 SLP158 T01170094=
201211070253 METAR KPAE 070253Z 20014G21KT 10SM OVC016 12/09 A2995 RMK AO2 PK WND 20027/0233 SLP144 60000 T01220089 53002=
201211070243 SPECI KPAE 070243Z 18015G23KT 10SM BKN016 12/09 A2994 RMK AO2 PK WND 20027/0233=
201211070153 METAR KPAE 070153Z 18017G25KT 10SM FEW021 OVC110 12/09 A2992 RMK AO2 PK WND 16031/0054 RAB03E22 SLP132 P0000 T01220089=
201211070100 SPECI KPAE 070100Z 17018G31KT 10SM FEW017 OVC090 12/09 A2992 RMK AO2 PK WND 16031/0054=
201211070053 METAR KPAE 070053Z 17016G28KT 10SM BKN012 BKN090 OVC110 12/10 A2992 RMK AO2 PK WND 18030/0005 RAB03E45 SLP133 P0000 T01220100=
201211062353 METAR KPAE 062353Z 19023G30KT 10SM BKN012 OVC090 13/09 A2994 RMK AO2 PK WND 19030/2345 SLP140 60001 T01280094 10128 20094 57006=
201211062253 METAR KPAE 062253Z 18010KT 10SM SCT012 SCT050 OVC070 13/09 A2995 RMK AO2 RAE04 SLP144 P0001 T01280094=
201211062251 SPECI KPAE 062251Z 18010KT 10SM SCT012 SCT050 OVC070 13/09 A2995 RMK AO2 RAE04 P0001=
201211062216 SPECI KPAE 062216Z 20003KT 5SM BR SCT003 BKN012 OVC033 11/09 A2996 RMK AO2 RAE04 P0001=
201211062153 METAR KPAE 062153Z 17004KT 4SM -RA BR BKN003 OVC008 11/09 A2996 RMK AO2 RAB53 SLP147 P0000 T01060089=
201211062135 SPECI KPAE 062135Z 27008KT 3SM BR BKN003 OVC008 10/09 A2997 RMK AO2=
201211062123 SPECI KPAE 062123Z 29006KT 5SM BR SCT009 OVC011 11/09 A2997 RMK AO2=
201211062053 METAR KPAE 062053Z 20007KT 10SM OVC011 12/09 A2996 RMK AO2 SLP144 T01220089 56018=
201211062001 SPECI KPAE 062001Z 16008KT 10SM BKN014 BKN095 12/08 A2996 RMK AO2=
201211061953 METAR KPAE 061953Z 18007KT 10SM BKN090 OVC110 12/08 A2997 RMK AO2 SLP149 T01170078=
201211061853 METAR KPAE 061853Z COR 16011KT 10SM BKN090 OVC 10/07 A2998 RMK AO2 SLP153 T01000072=
201211061753 METAR KPAE 061753Z 16007KT 10SM SCT010 10/07 A3001 RMK AO2 SLP164 T01000067 10100 20072 56012=
201211061653 METAR KPAE 061653Z 19005KT 10SM CLR 09/07 A3002 RMK AO2 SLP169 T00940067=
201211061553 METAR KPAE 061553Z 11004KT 10SM CLR 08/06 A3003 RMK AO2 SLP171 T00830056=
201211061453 METAR KPAE 061453Z 00000KT 9SM SCT027 07/06 A3005 RMK AO2 SLP177 T00720061 56016=
201211061353 METAR KPAE 061353Z 00000KT 10SM FEW029 07/06 A3006 RMK AO2 SLP180 T00720056=
201211061253 METAR KPAE 061253Z 00000KT 10SM SCT029 SCT110 08/06 A3007 RMK AO2 SLP184 T00830061=
201211061245 SPECI KPAE 061245Z 00000KT 10SM SCT029 BKN110 08/06 A3008 RMK AO2=
201211061238 SPECI KPAE 061238Z 00000KT 10SM BKN029 BKN110 08/06 A3008 RMK AO2=
201211061228 SPECI KPAE 061228Z 00000KT 10SM SCT029 BKN110 08/06 A3008 RMK AO2=
201211061153 METAR KPAE 061153Z 00000KT 10SM BKN029 OVC110 08/07 A3010 RMK AO2 SLP193 T00830067 10089 20078 56021=
201211061121 SPECI KPAE 061121Z 00000KT 10SM BKN029 08/07 A3011 RMK AO2=
201211061053 METAR KPAE 061053Z 00000KT 10SM CLR 08/07 A3011 RMK AO2 SLP199 T00830067=
201211060953 METAR KPAE 060953Z 00000KT 9SM FEW120 09/07 A3013 RMK AO2 SLP204 T00890072=
201211060853 METAR KPAE 060853Z 00000KT 10SM CLR 08/07 A3016 RMK AO2 SLP213 T00830067 57016=
201211060753 METAR KPAE 060753Z 00000KT 10SM CLR 08/07 A3017 RMK AO2 SLP219 T00780067 401330078=
201211060653 METAR KPAE 060653Z 00000KT 10SM CLR 08/06 A3019 RMK AO2 SLP224 T00780061=
201211060553 METAR KPAE 060553Z 00000KT 10SM SCT100 08/07 A3021 RMK AO2 SLP231 T00830067 10111 20083 58023=
201211060453 METAR KPAE 060453Z 00000KT 10SM SCT100 09/07 A3023 RMK AO2 SLP238 T00940067=
201211060353 METAR KPAE 060353Z 00000KT 10SM OVC100 09/07 A3025 RMK AO2 SLP245 T00940072=
201211060253 METAR KPAE 060253Z 00000KT 10SM FEW120 09/07 A3027 RMK AO2 SLP254 T00940072 56018=
201211060153 METAR KPAE 060153Z 00000KT 10SM CLR 09/07 A3030 RMK AO2 SLP261 T00940072=
201211060053 METAR KPAE 060053Z 01004KT 10SM CLR 10/07 A3030 RMK AO2 SLP262 T01000072=
201211052353 METAR KPAE 052353Z 36004KT 10SM CLR 11/07 A3033 RMK AO2 SLP272 T01110067 10133 20111 56020=
201211052253 METAR KPAE 052253Z 00000KT 10SM CLR 12/05 A3033 RMK AO2 SLP273 T01170050=
201211052153 METAR KPAE 052153Z VRB03KT 10SM CLR 12/07 A3037 RMK AO2 SLP286 T01220067=
201211052053 METAR KPAE 052053Z VRB04KT 10SM CLR 13/07 A3039=
201211051953 METAR KPAE 051953Z 35003KT 10SM FEW015 13/07 A3039 RMK AO2 SLP291 T01330072=
201211051853 METAR KPAE 051853Z VRB04KT 10SM SCT017 13/08 A3040 RMK AO2 SLP293 T01280078=
201211051825 SPECI KPAE 051825Z VRB04KT 9SM SCT017 12/08 A3040 RMK AO2=
201211051801 SPECI KPAE 051801Z VRB03KT 9SM BKN017 12/07 A3040 RMK AO2=
201211051753 METAR KPAE 051753Z 36003KT 9SM SCT017 12/07 A3040 RMK AO2 SLP294 T01170072 10122 20106 53005=
201211051653 METAR KPAE 051653Z 36004KT 9SM OVC049 12/07 A3039 RMK AO2 SLP292 T01170072=
201211051553 METAR KPAE 051553Z 01003KT 9SM OVC045 11/07 A3038 RMK AO2 SLP287 T01110067=
201211051453 METAR KPAE 051453Z 33004KT 10SM OVC041 11/07 A3038 RMK AO2 SLP289 T01060067 53004=
201211051353 METAR KPAE 051353Z 00000KT 10SM OVC043 11/07 A3038 RMK AO2 SLP287 T01110072=
201211051253 METAR KPAE 051253Z 36004KT 10SM OVC037 12/08 A3037 RMK AO2 SLP286 T01170078=
201211051153 METAR KPAE 051153Z 35006KT 9SM OVC037 11/08 A3037 RMK AO2 SLP284 60006 70020 T01110083 10156 20111 53009=
201211051053 METAR KPAE 051053Z 36007KT 9SM OVC037 12/08 A3036 RMK AO2 SLP281 T01170083=
201211050953 METAR KPAE 050953Z VRB05KT 8SM OVC031 12/09 A3034 RMK AO2 SLP276 T01170094=
201211050853 METAR KPAE 050853Z 33005KT 7SM OVC024 12/09 A3033 RMK AO2 RAB01E19 SLP272 P0000 60006 T01170094 51032=
201211050753 METAR KPAE 050753Z 35005KT 5SM BR OVC018 12/10 A3032 RMK AO2 RAE51 SLP268 P0004 T01170100 401720117=
201211050737 SPECI KPAE 050737Z 36004KT 3SM -RA BR BKN015 OVC021 12/10 A3031 RMK AO2 P0003=
201211050730 SPECI KPAE 050730Z 35004KT 2 1/2SM -RA BR BKN013 OVC021 12/10 A3030 RMK AO2 P0003=
201211050720 SPECI KPAE 050720Z 33006KT 2SM -RA BR SCT011 OVC017 12/10 A3029 RMK AO2 P0003=
201211050702 SPECI KPAE 050702Z 32007KT 2 1/2SM -RA BR SCT002 OVC011 12/11 A3029 RMK AO2 PRESRR P0001=
201211050653 METAR KPAE 050653Z 31009KT 2 1/2SM R16R/6000VP6000FT -RA BR BKN002 OVC007 12/11 A3027 RMK AO2 RAE0557B31 SLP251 P0002 T01220106=
201211050643 SPECI KPAE 050643Z 28009KT 4SM R16R/5000VP6000FT -RA BR BKN002 OVC007 13/12 A3027 RMK AO2 RAE0557B31 P0001=
201211050553 METAR KPAE 050553Z 20016G23KT 10SM -RA BKN009 OVC013 16/14 A3024 RMK AO2 PK WND 20026/0529 SLP239 P0004 60013 T01560139 10167 20156 53002=
201211050453 METAR KPAE 050453Z 20014G22KT 4SM RA BR BKN009 BKN050 OVC095 16/14 A3023 RMK AO2 SLP234 P0007 T01610144=
201211050353 METAR KPAE 050353Z 18019G24KT 10SM -RA BKN009 BKN046 OVC100 16/14 A3021 RMK AO2 RAB09 CIG 008V017 SLP228 P0002 T01610144=
201211050253 METAR KPAE 050253Z 19019G26KT 10SM OVC013 16/14 A3023 RMK AO2 PK WND 19027/0207 SLP237 T01610139 51016=
201211050239 SPECI KPAE 050239Z 20019G24KT 10SM OVC013 17/14 A3022 RMK AO2 PK WND 19027/0207=
201211050211 SPECI KPAE 050211Z 19017G27KT 10SM BKN015 17/13 A3023 RMK AO2 PK WND 19027/0207=
201211050153 METAR KPAE 050153Z 18017G24KT 10SM SCT015 17/13 A3022 RMK AO2 SLP232 T01670133=
201211050132 SPECI KPAE 050132Z 18016G22KT 10SM SCT027 SCT070 17/13 A3022 RMK AO2=
201211050100 SPECI KPAE 050100Z 17014KT 10SM SCT018 OVC025 17/13 A3023 RMK AO2=
201211050053 METAR KPAE 050053Z 18014KT 10SM BKN012 OVC025 17/13 A3023 RMK AO2 PK WND 16029/2357 SLP237 T01670133=
201211042353 METAR KPAE 042353Z 18023G34KT 10SM BKN009 BKN012 17/14 A3018 RMK AO2 PK WND 18034/2352 SLP220 T01670139 10172 20150 58007=
201211042340 SPECI KPAE 042340Z 18023G32KT 10SM BKN009 BKN020 17/14 A3018 RMK AO2 PK WND 19034/2313=
201211042253 METAR KPAE 042253Z 19024G33KT 10SM BKN012 BKN016 17/14 A3020 RMK AO2 PK WND 18037/2238 SLP225 T01670139=
201211042153 METAR KPAE 042153Z 18018G27KT 10SM BKN012 BKN016 17/13 A3020 RMK AO2 PK WND 18028/2114 SLP227 T01670133=
201211042100 SPECI KPAE 042100Z 18019G26KT 10SM BKN015 BKN110 17/13 A3021 RMK AO2=
201211042053 METAR KPAE 042053Z 18019G26KT 10SM BKN012 17/13 A3020 RMK AO2 PK WND 19026/2053 SLP226 T01720128 58002=
201211041953 METAR KPAE 041953Z 17016G25KT 10SM BKN012 16/13 A3021 RMK AO2 SLP229 T01610128=
201211041910 SPECI KPAE 041910Z 17012G22KT 10SM BKN014 OVC026 16/13 A3021 RMK AO2=
201211041853 METAR KPAE 041853Z 16013KT 10SM SCT016 OVC026 15/12 A3022 RMK AO2 SLP233 T01500122=
201211041753 METAR KPAE 041753Z 16012G18KT 10SM FEW012 BKN018 BKN031 15/12 A3021 RMK AO2 SLP229 P0001 60001 T01500117 10150 20122 50003=
201211041653 METAR KPAE 041653Z 15010KT 10SM FEW010 BKN014 OVC031 14/12 A3021 RMK AO2 SLP231 T01390117=
201211041553 METAR KPAE 041553Z 15009G16KT 10SM SCT010 BKN014 OVC038 14/12 A3020 RMK AO2 SLP228 T01390117=
201211041545 SPECI KPAE 041545Z 15010G15KT 10SM BKN012 OVC036 13/11 A3020 RMK AO2=
201211041506 SPECI KPAE 041506Z VRB06KT 10SM FEW003 BKN036 BKN080 13/11 A3019 RMK AO2=
201211041453 METAR KPAE 041453Z VRB06KT 10SM SCT003 BKN012 OVC034 13/11 A3020 RMK AO2 SLP226 T01280111 51004=
201211041433 SPECI KPAE 041433Z AUTO 15007KT 100V170 10SM OVC003 13/12 A3019 RMK AO2=
201211041403 SPECI KPAE 041403Z AUTO 15010G15KT 10SM BKN007 BKN030 OVC085 13/11 A3019 RMK AO2 CIG 005V011=
201211041353 METAR KPAE 041353Z AUTO 15006KT 10SM SCT009 BKN030 OVC085 13/11 A3020 RMK AO2 SLP225 T01280111=
201211041253 METAR KPAE 041253Z AUTO 14005KT 10SM SCT031 BKN039 OVC070 13/11 A3020 RMK AO2 SLP226 T01280106=
201211041153 METAR KPAE 041153Z AUTO 15008KT 10SM OVC047 12/11 A3018 RMK AO2 SLP221 60000 70003 T01220106 10133 20122 50001=
201211041053 METAR KPAE 041053Z AUTO 15009KT 10SM SCT036 BKN044 OVC060 12/11 A3019 RMK AO2 SLP224 T01220106=
201211041031 SPECI KPAE 041031Z AUTO 15010KT 10SM FEW018 OVC060 12/11 A3019 RMK AO2=
201211040953 METAR KPAE 040953Z AUTO 15007KT 10SM BKN016 BKN026 OVC043 12/11 A3020 RMK AO2 SLP226 T01220106=
201211040853 METAR KPAE 040853Z AUTO 15006KT 10SM OVC050 13/11 A3018 RMK AO2 SLP221 60000 T01280111 51006=
201211040753 METAR KPAE 040753Z AUTO 15009KT 10SM OVC070 13/11 A3017 RMK AO2 RAB12E22 SLP217 P0000 T01280111 401440117=
201211040718 SPECI KPAE 040718Z AUTO 17005KT 10SM -RA SCT010 OVC060 13/11 A3018 RMK AO2 RAB12 P0000=
201211040653 METAR KPAE 040653Z AUTO 17006KT 10SM BKN010 OVC016 13/11 A3018 RMK AO2 RAE14 SLP221 P0000 T01280111=
201211040642 SPECI KPAE 040642Z AUTO 16005KT 10SM BKN010 OVC016 13/11 A3018 RMK AO2 RAE14 P0000=
201211040553 METAR KPAE 040553Z AUTO 16005KT 10SM -RA SCT010 OVC016 13/11 A3017 RMK AO2 RAB09 SLP215 P0000 60003 T01330111 10144 20128 53013=
201211040540 SPECI KPAE 040540Z AUTO 16006KT 10SM -RA SCT010 BKN016 OVC090 13/11 A3016 RMK AO2 RAB09 P0000=
201211040453 METAR KPAE 040453Z 18008KT 10SM OVC080 13/11 A3016 RMK AO2 RAB00E35 SLP212 P0000 T01330111=
201211040437 SPECI KPAE 040437Z 18010KT 10SM SCT014 BKN055 OVC085 13/11 A3015 RMK AO2 RAB00E35 P0000=
201211040353 METAR KPAE 040353Z 18010KT 10SM FEW010 BKN017 OVC050 13/11 A3013 RMK AO2 RAE12 SLP203 P0000 T01330111=
201211040253 METAR KPAE 040253Z 18012KT 10SM -RA OVC015 13/12 A3013 RMK AO2 SLP202 P0002 60003 T01330117 51025=
201211040234 SPECI KPAE 040234Z 20012KT 10SM -RA OVC015 14/12 A3013 RMK AO2 P0001=
201211040226 SPECI KPAE 040226Z 19012KT 10SM -RA OVC013 13/12 A3013 RMK AO2 P0001=
201211040153 METAR KPAE 040153Z 19012G20KT 10SM -RA BKN015 OVC075 14/11 A3012 RMK AO2 PK WND 21027/0058 RAB14 SLP198 P0001 T01390111=
201211040145 SPECI KPAE 040145Z 19015G20KT 10SM -RA BKN015 OVC080 14/11 A3011 RMK AO2 PK WND 21027/0058 RAB14 P0000=
201211040053 METAR KPAE 040053Z 20019G25KT 10SM SCT016 BKN100 OVC120 14/11 A3007 RMK AO2 PK WND 19027/0001 SLP184 T01390111=
201211032358 SPECI KPAE 032358Z 19019G28KT 10SM SCT014 14/11 A3006 RMK AO2=
201211032353 METAR KPAE 032353Z 19022G29KT 10SM BKN009 14/11 A3005 RMK AO2 PK WND 18032/2338 SLP176 60000 T01440111 10144 20128 53006=
201211032341 SPECI KPAE 032341Z 19019G32KT 10SM BKN009 14/12 A3004 RMK AO2 PK WND 18032/2338=
201211032253 METAR KPAE 032253Z 18018G26KT 10SM SCT014 BKN090 BKN110 14/11 A3004 RMK AO2 PK WND 18027/2231 SLP171 T01440111=
201211032244 SPECI KPAE 032244Z 18019G26KT 10SM SCT014 BKN090 BKN110 14/11 A3004 RMK AO2 PK WND 18027/2231=
201211032153 METAR KPAE 032153Z 18015G22KT 10SM BKN009 OVC012 14/11 A3002 RMK AO2 RAE2055 SLP166 P0000 T01390111=
201211032053 METAR KPAE 032053Z 17015KT 7SM -RA BKN009 BKN020 OVC070 13/11 A3003 RMK AO2 RAB45 SLP170 P0000 60000 T01330111 50003=
201211032033 SPECI KPAE 032033Z 17014G23KT 10SM BKN009 BKN020 OVC070 14/11 A3004 RMK AO2=
201211031953 METAR KPAE 031953Z 18015G22KT 10SM FEW015 BKN020 OVC080 14/11 A3004 RMK AO2 SLP171 T01390111=
201211031853 METAR KPAE 031853Z 18016KT 10SM FEW012 OVC080 13/11 A3003 RMK AO2 SLP168 T01330106=
201211031753 METAR KPAE 031753Z 18013KT 10SM FEW010 BKN090 13/11 A3002 RMK AO2 SLP167 T01280106 10128 20117 53006=
201211031653 METAR KPAE 031653Z 18017G22KT 10SM SCT008 BKN090 12/11 A3001 RMK AO2 SLP163 T01220106=
201211031650 SPECI KPAE 031650Z 17014G21KT 10SM FEW008 SCT090 12/11 A3001 RMK AO2=
201211031553 METAR KPAE 031553Z 17012KT 10SM SCT015 OVC090 12/11 A3000 RMK AO2 SLP161 T01220106=
201211031453 METAR KPAE 031453Z 15010KT 10SM SCT007 BKN015 OVC022 12/10 A3000 RMK AO2 SLP160 T01220100 53005=
201211031353 METAR KPAE 031353Z 16011KT 10SM FEW008 BKN026 OVC075 12/10 A2999 RMK AO2 SLP155 T01170100=
201211031253 METAR KPAE 031253Z AUTO 16012KT 10SM FEW005 OVC017 12/10 A2999 RMK AO2 SLP156 T01170100=
201211031231 SPECI KPAE 031231Z AUTO 15011KT 10SM SCT005 OVC021 12/10 A2999 RMK AO2=
201211031215 SPECI KPAE 031215Z AUTO 15012G16KT 10SM BKN005 BKN021 OVC029 12/10 A2999 RMK AO2=
201211031153 METAR KPAE 031153Z AUTO 16013KT 10SM FEW005 OVC026 12/10 A2999 RMK AO2 SLP154 60000 70007 T01170100 10122 20117 53003=
201211031108 SPECI KPAE 031108Z AUTO 15009KT 10SM OVC028 12/10 A2998 RMK AO2=
201211031053 METAR KPAE 031053Z AUTO 16008KT 10SM OVC030 12/10 A2998 RMK AO2 RAB07E30 SLP153 P0000 T01170100=
201211030953 METAR KPAE 030953Z AUTO 16007KT 10SM OVC028 12/10 A2997 RMK AO2 SLP150 T01170100=
201211030948 SPECI KPAE 030948Z AUTO 17006KT 10SM OVC028 12/10 A2998 RMK AO2=
201211030853 METAR KPAE 030853Z AUTO 18007KT 10SM OVC039 12/10 A2997 RMK AO2 SLP148 60000 T01170100 56003=
201211030753 METAR KPAE 030753Z AUTO 18005KT 10SM OVC045 12/10 A2997 RMK AO2 SLP150 T01170100 401560100=
201211030653 METAR KPAE 030653Z AUTO 17005KT 10SM FEW046 SCT055 OVC080 12/10 A2997 RMK AO2 RAB16E28 SLP148 P0000 T01170100=
201211030553 METAR KPAE 030553Z AUTO 16007KT 10SM OVC048 12/10 A2998 RMK AO2 SLP151 60007 T01170100 10139 20117 55001=
201211030453 METAR KPAE 030453Z AUTO 16005KT 10SM SCT065 OVC085 12/09 A2997 RMK AO2 SLP150 T01170094=
201211030353 METAR KPAE 030353Z AUTO 16008KT 10SM OVC050 12/10 A2998 RMK AO2 RAE00 SLP152 P0000 T01170100=
201211030253 METAR KPAE 030253Z 15007KT 10SM -RA BKN060 BKN075 OVC100 12/10 A2998 RMK AO2 SLP153 P0001 60007 T01170100 50000=
201211030153 METAR KPAE 030153Z 17005KT 10SM -RA OVC070 12/10 A2999 RMK AO2 SLP157 P0004 T01220100=
201211030053 METAR KPAE 030053Z 21008KT 10SM -RA OVC065 12/09 A2999 RMK AO2 RAB21 SLP156 P0002 T01220094=
201211022353 METAR KPAE 022353Z 21006KT 10SM BKN055 BKN070 BKN120 14/09 A2998=
201211022253 METAR KPAE 022253Z 20003KT 10SM SCT055 OVC095 14/09 A2999 RMK AO2 SLP154 T01390094=
201211022153 METAR KPAE 022153Z 16005KT 10SM FEW095 16/08 A2998 RMK AO2 SLP152 T01560083=
201211022053 METAR KPAE 022053Z 17005KT 10SM BKN055 BKN120 16/08 A3000 RMK AO2 SLP158 T01560083 58010=
201211021953 METAR KPAE 021953Z 17005KT 10SM SCT050 OVC110 14/09 A3002 RMK AO2 SLP165 T01390089=
201211021853 METAR KPAE 021853Z 15007KT 10SM CLR 13/09 A3003 RMK AO2 SLP168 T01330089=
201211021753 METAR KPAE 021753Z 15005KT 10SM OVC049 13/09 A3003 RMK AO2 SLP168 T01280089 10128 20100 51005=
201211021653 METAR KPAE 021653Z 17005KT 10SM FEW050 12/09 A3002 RMK AO2 SLP166 T01170089=
201211021553 METAR KPAE 021553Z 18003KT 10SM CLR 11/09 A3002 RMK AO2 SLP168 T01060089=
201211021453 METAR KPAE 021453Z 00000KT 10SM BKN150 11/09 A3001 RMK AO2 SLP164 T01110089 58006=
201211021353 METAR KPAE 021353Z 15006KT 10SM CLR 11/09 A3002 RMK AO2 SLP167 T01110089=
201211021253 METAR KPAE 021253Z AUTO VRB03KT 10SM FEW029 SCT037 OVC065 11/09 A3003 RMK AO2 SLP171 T01110094=
201211021153 METAR KPAE 021153Z AUTO VRB05KT 10SM SCT070 12/09 A3003 RMK AO2 SLP169 70011 T01170094 10122 20117 50004=
201211021053 METAR KPAE 021053Z AUTO 16009KT 10SM FEW035 BKN065 12/10 A3003 RMK AO2 SLP170 T01170100=
201211020953 METAR KPAE 020953Z AUTO 16012KT 10SM SCT008 BKN065 12/10 A3003 RMK AO2 SLP169 T01170100=
201211020934 SPECI KPAE 020934Z AUTO 17010KT 10SM FEW008 BKN065 12/10 A3003 RMK AO2=
201211020853 METAR KPAE 020853Z AUTO 17010KT 10SM BKN075 12/09 A3002 RMK AO2 SLP166 T01170094 53006=
201211020827 SPECI KPAE 020827Z AUTO 16007KT 10SM SCT007 SCT023 OVC080 12/10 A3003 RMK AO2=
201211020811 SPECI KPAE 020811Z AUTO 15008KT 10SM BKN007 BKN023 12/10 A3002 RMK AO2=
201211020802 SPECI KPAE 020802Z AUTO 16007KT 10SM FEW007 SCT023 12/10 A3002 RMK AO2=
201211020753 METAR KPAE 020753Z AUTO 15010KT 10SM CLR 12/09 A3002 RMK AO2 SLP164 T01170094 401390106=
201211020653 METAR KPAE 020653Z AUTO 16013KT 10SM BKN075 12/10 A3001 RMK AO2 SLP162 T01170100=
201211020553 METAR KPAE 020553Z AUTO 16014G19KT 10SM FEW007 SCT080 12/10 A3000 RMK AO2 SLP160 T01220100 10133 20117 53014=
201211020453 METAR KPAE 020453Z 16011KT 10SM FEW010 12/10 A2999 RMK AO2 SLP156 T01170100=
201211020353 METAR KPAE 020353Z 17010KT 10SM SCT012 OVC085 12/11 A2997 RMK AO2 SLP149 T01220106=
201211020253 METAR KPAE 020253Z 17009KT 10SM FEW008 SCT042 OVC080 13/11 A2996 RMK AO2 SLP146 T01280106 51006=
201211020251 SPECI KPAE 020251Z 16009KT 10SM FEW008 SCT042 OVC080 13/11 A2996 RMK AO2=
201211020153 METAR KPAE 020153Z 17007KT 10SM SCT015 OVC037 13/11 A2994 RMK AO2 SLP140 T01280106=
201211020151 SPECI KPAE 020151Z 17006KT 10SM SCT015 OVC037 13/11 A2994 RMK AO2=
201211020053 METAR KPAE 020053Z 16007KT 10SM BKN018 OVC026 13/10 A2992 RMK AO2 SLP133 T01330100=
201211012353 METAR KPAE 012353Z 16006KT 10SM BKN018 OVC023 13/10 A2991 RMK AO2 SLP128 60000 T01330100 10139 20111 51012=
201211012253 METAR KPAE 012253Z 17007KT 10SM FEW015 BKN042 OVC100 14/09 A2990 RMK AO2 SLP125 T01390094=
201211012153 METAR KPAE 012153Z 17010KT 10SM FEW017 BKN060 OVC100 14/10 A2989 RMK AO2 SLP121 T01390100=
201211012144 SPECI KPAE 012144Z 18009KT 10SM SCT017 BKN060 OVC095 14/09 A2989 RMK AO2=
201211012053 METAR KPAE 012053Z 18011KT 10SM BKN019 BKN026 OVC060 13/09 A2988 RMK AO2 SLP116 60000 T01330094 52016=
201211012029 SPECI KPAE 012029Z 18011KT 10SM FEW017 BKN023 OVC090 14/09 A2987 RMK AO2=
201211011953 METAR KPAE 011953Z 15007KT 10SM SCT033 OVC090 13/09 A2985 RMK AO2 SLP109 T01330094=
201211011853 METAR KPAE 011853Z VRB03KT 10SM FEW003 SCT010 OVC031 12/10 A2985 RMK AO2 RAE39 SLP107 P0000 T01220100=
201211011753 METAR KPAE 011753Z 11005KT 6SM -RA BR FEW003 SCT024 OVC031 11/09 A2983 RMK AO2 RAE01B23 SLP100 P0002 60011 T01110094 10117 20106 51015=
201211011700 SPECI KPAE 011700Z VRB05KT 10SM -RA FEW003 SCT024 OVC031 11/09 A2982 RMK AO2 P0000=
201211011653 METAR KPAE 011653Z 15005KT 8SM -RA BKN005 BKN050 OVC070 11/09 A2981 RMK AO2 SLP096 P0006 T01110094=
201211011553 METAR KPAE 011553Z 15007KT 6SM -RA BR BKN005 BKN048 OVC070 11/09 A2980 RMK AO2 SLP093 P0001 T01060094=
201211011518 SPECI KPAE 011518Z 16008KT 7SM -RA BKN007 BKN014 OVC080 11/09 A2979 RMK AO2 P0000=
201211011502 SPECI KPAE 011502Z 15008KT 9SM -RA FEW007 BKN014 OVC080 11/09 A2979 RMK AO2 P0000=
201211011453 METAR KPAE 011453Z 15009KT 10SM -RA FEW007 BKN055 OVC080 11/09 A2978 RMK AO2 RAB28 SLP086 P0000 60002 T01060094 53010=
201211011412 SPECI KPAE 011412Z 17009KT 10SM SCT007 BKN016 BKN110 11/09 A2977 RMK AO2 CIG 011V024=
201211011353 METAR KPAE 011353Z 16010G14KT 10SM SCT007 BKN014 OVC046 11/09 A2976 RMK AO2 RAE04 SLP079 P0000 T01060094=
201211011348 SPECI KPAE 011348Z 15006KT 10SM FEW007 BKN014 OVC046 11/09 A2976 RMK AO2 RAE04 P0000=
201211011319 SPECI KPAE 011319Z AUTO 15007KT 9SM SCT016 BKN022 OVC070 11/09 A2976 RMK AO2 RAE04 P0000=
201211011253 METAR KPAE 011253Z AUTO 15008KT 10SM -RA FEW026 OVC060 11/10 A2976 RMK AO2 SLP077 P0002 T01110100=
201211011153 METAR KPAE 011153Z AUTO 15006KT 7SM -RA OVC050 12/10 A2975 RMK AO2 SLP075 P0003 60006 70069 T01170100 10139 20111 53007=
201211011053 METAR KPAE 011053Z AUTO VRB03KT 10SM -RA SCT065 OVC080 12/10 A2974 RMK AO2 RAB40 SLP070 P0000 T01170100=
201211010953 METAR KPAE 010953Z AUTO VRB03KT 10SM FEW045 BKN070 OVC095 12/09 A2974 RMK AO2 RAB0855E46 SLP069 P0001 T01220094=
201211010853 METAR KPAE 010853Z AUTO 15006KT 10SM OVC055 12/09 A2973 RMK AO2 RAE29 SLP068 P0001 60002 T01220094 55000=
201211010753 METAR KPAE 010753Z AUTO 16007KT 10SM -RA SCT039 BKN050 OVC060 13/09 A2973 RMK AO2 RAB37 SLP068 P0000 T01330089 401560128=
201211010653 METAR KPAE 010653Z AUTO 16007KT 10SM OVC040 13/09 A2973 RMK AO2 RAB0557E42 SLP065 P0001 T01330089=
201211010553 METAR KPAE 010553Z AUTO 15005KT 10SM OVC038 14/09 A2973 RMK AO2 SLP068 60000 T01390094 10144 20128 51010=
201211010453 METAR KPAE 010453Z AUTO 00000KT 10SM BKN040 OVC060 13/09 A2972 RMK AO2 RAB00E16 SLP065 P0000 T01330094=
201211010353 METAR KPAE 010353Z AUTO 16003KT 10SM SCT033 OVC047 13/10 A2971 RMK AO2 SLP061 T01330100=
201211010253 METAR KPAE 010253Z 16008KT 10SM CLR 13/10 A2970 RMK AO2 SLP058 60000 T01330100 50009=
201211010153 METAR KPAE 010153Z 16009KT 10SM FEW027 BKN085 OVC100 13/11 A2971 RMK AO2 RAB19E41 SLP060 P0000 T01330106=
201211010053 METAR KPAE 010053Z 17009KT 10SM BKN070 OVC090 14/12 A2969 RMK AO2 RAB00E51 SLP054 P0000 T01390117=

# No short TAF reports from KPAE in databse.

###################################
#  large TAF from KPAE
###################################
201211302336 TAF KPAE 302336Z 0100/0124 17011G20KT P6SM -RA BKN035 OVC050 FM010600
                       16013KT 4SM -RA OVC025 FM012000 17013G21KT
                       P6SM -RA BKN025 OVC050=
201211301720 TAF KPAE 301720Z 3018/0118 15011G17KT P6SM VCSH SCT035 BKN060 OVC200
                       FM011200 17014G21KT P6SM -RA OVC020 FM011700
                       17013G20KT P6SM -RA OVC040=
201211301120 TAF KPAE 301120Z 3012/0112 12008KT P6SM -SHRA BKN050 OVC070 FM301800
                       15012G22KT P6SM -SHRA OVC040 FM010900 18015G25KT
                       P6SM -SHRA BKN025 OVC040=
201211300529 TAF KPAE 300529Z 3006/0106 16008KT P6SM -SHRA SCT030 OVC050 FM301500
                       16008KT P6SM -RA SCT030 OVC050 FM302000
                       16008KT P6SM -SHRA SCT030 OVC050 FM010300
                       16010KT P6SM -RA BKN030 OVC050=
201211292320 TAF KPAE 292320Z 3000/3024 18008KT P6SM VCSH SCT030 BKN050 FM300600
                       14009KT P6SM VCSH SCT030 BKN050 FM301800
                       16012KT P6SM -RA BKN030 OVC040=
201211291722 TAF KPAE 291722Z 2918/3018 14010KT P6SM -RA OVC040
                      TEMPO 2918/2920 -RA OVC030 FM292000 18008KT
                       P6SM VCSH SCT030 BKN050 FM300600 14009KT
                       P6SM VCSH SCT030 BKN050=
201211291120 TAF KPAE 291120Z 2912/3012 14012G22KT P6SM OVC070
                      TEMPO 2912/2916 -RA OVC040 FM291600 14012G22KT
                       P6SM -RA OVC040
                      TEMPO 2916/2920 -RA OVC030 FM292000 18008KT
                       P6SM VCSH SCT030 BKN050=
201211290520 TAF KPAE 290520Z 2906/3006 16006KT P6SM -RA OVC050
                      TEMPO 2906/2910 4SM -RA BR OVC035 FM291000
                       16012G22KT P6SM -RA BKN030 OVC050 FM291800
                       16010KT P6SM VCSH SCT030 BKN050=
201211282321 TAF KPAE 282321Z 2900/2924 15012KT P6SM -RA BKN035 OVC060 FM290500
                       15012KT P6SM VCSH BKN040 OVC080 FM291000
                       13010KT P6SM -RA BKN030 OVC050 FM292000
                       14008KT P6SM -RA BKN030 OVC050=
201211281739 TAF KPAE 281739Z 2818/2918 11005KT P6SM BKN100 OVC200 FM282100
                       13008KT P6SM BKN050 OVC080
                      TEMPO 2821/2824 -RA FM290000 15012KT P6SM
                       -RA BKN035 OVC060 FM290500 15012KT P6SM
                       VCSH BKN040 OVC080 FM291000 13010KT P6SM
                       -RA BKN030 OVC050=
201211281139 TAF KPAE 281139Z 2812/2912 00000KT P6SM SCT100 BKN200 FM281500
                       11005KT P6SM BKN100 OVC200 FM282100 13008KT
                       P6SM BKN050 OVC080
                      TEMPO 2821/2824 -RA FM290000 15012KT P6SM
                       -RA BKN035 OVC060 FM290500 15012KT P6SM
                       VCSH BKN040 OVC080=
201211280539 TAF KPAE 280539Z 2806/2906 09004KT P6SM SCT100 BKN200 FM281200
                       11006KT P6SM BKN100 OVC200 FM282100 13010KT
                       P6SM BKN050 OVC080
                      TEMPO 2821/2824 -RA FM290000 15012KT P6SM
                       -RA BKN040 OVC060=
201211272342 TAF KPAE 272342Z 2800/2824 13005KT P6SM SCT150 BKN200 FM280900
                       11007KT P6SM SCT070 BKN100 OVC200 FM282200
                       13010KT P6SM VCSH SCT050 BKN070=
201211271742 TAF KPAE 271742Z 2718/2818 14005KT P6SM SCT150 BKN200 FM280800
                       11007KT P6SM SCT070 BKN100 OVC200=
201211271120 TAF KPAE 271120Z 2712/2812 VRB03KT P6SM BKN050 BKN200 FM271900
                       13004KT P6SM SCT050 BKN200 FM280300 11005KT
                       P6SM BKN060 OVC200=
201211270526 TAF KPAE 270526Z 2706/2806 03003KT P6SM BKN250 FM271400 13004KT
                       P6SM BKN250 FM271900 14005KT P6SM OVC200=
201211262333 TAF KPAE 262333Z 2700/2724 03003KT P6SM BKN250 FM272100 VRB04KT
                       P6SM OVC200=
201211261720 TAF KPAE 261720Z 2618/2718 02006KT P6SM SCT250=
201211261210 TAF AMD KPAE 261210Z 2612/2712 01004KT 5SM BR SCT003
                      TEMPO 2612/2616 1SM BR OVC003 FM261800 03004KT
                       P6SM SCT250 FM270400 VRB03KT P6SM SCT250=
201211261120 TAF KPAE 261120Z 2612/2712 01004KT 5SM BR BKN003
                      TEMPO 2612/2616 1SM BR OVC003 FM261800 03004KT
                       P6SM SCT250 FM270400 VRB03KT P6SM SCT250=
201211260904 TAF AMD KPAE 260904Z 2609/2706 02003KT P6SM SCT250 FM261100 03003KT
                       4SM BR BKN004
                      TEMPO 2611/2613 1SM BR OVC003 FM261300 03003KT
                       3SM BR OVC003
                      TEMPO 2613/2616 1/2SM FG VV001 FM261800 06004KT
                       P6SM SCT250=
201211260710 TAF AMD KPAE 260710Z 2607/2706 02003KT P6SM SCT250 FM260900 03003KT
                       4SM BR BKN004
                      TEMPO 2609/2613 1/2SM FG VV001 FM261300 03003KT
                       3SM BR OVC003
                      TEMPO 2613/2616 1/2SM FG VV001 FM261800 06004KT
                       P6SM SCT250=
201211260520 TAF KPAE 260520Z 2606/2706 36005KT P6SM BKN004 FM260900 03005KT
                       P6SM BKN005
                      TEMPO 2609/2612 SCT005 FM261200 03004KT P6SM
                       SCT005
                      TEMPO 2612/2615 5SM BR BKN005 FM261700 06004KT
                       P6SM SCT250=
201211260239 TAF AMD KPAE 260239Z 2603/2624 36004KT P6SM BKN006
                      TEMPO 2603/2606 SCT006 FM260600 02005KT 5SM
                       BR BKN006 FM261700 06004KT P6SM SCT250=
201211252322 TAF KPAE 252322Z 2600/2624 34007KT P6SM SCT250 FM260200 02005KT
                       P6SM SCT250
                      TEMPO 2612/2616 SCT004=
201211251725 TAF KPAE 251725Z 2518/2618 35003KT P6SM SCT001 SCT045 FM251900
                       35003KT P6SM SCT050 FM252100 34004KT P6SM
                       SCT250=
201211251158 TAF AMD KPAE 251158Z 2512/2612 00000KT 3SM BR BKN004
                      TEMPO 2512/2516 1/2SM FG OVC001 FM251600
                       VRB03KT 5SM BR BKN005
                      TEMPO 2516/2518 3/4SM BR OVC002 FM251800
                       VRB03KT P6SM BKN007 FM252000 34004KT P6SM
                       SCT250=
201211251121 TAF KPAE 251121Z 2512/2612 00000KT 5SM BR BKN007 FM251300 00000KT
                       3SM BR BKN004
                      TEMPO 2513/2516 1/2SM FG OVC001 FM251600
                       VRB03KT 5SM BR BKN005
                      TEMPO 2516/2518 3/4SM BR OVC002 FM251800
                       VRB03KT P6SM BKN007 FM252000 34004KT P6SM
                       SCT250=
201211250904 KPAE 250904Z 2509/2606 00000KT P6SM BKN010 OVC018 FM251100 00000KT
                       4SM BR OVC002
                      TEMPO 2513/2516 3/4SM BR OVC001 FM251700
                       VRB03KT P6SM BKN007 FM251900 34004KT P6SM
                       SCT250=
201211250824 TAF AMD KPAE 250824Z 2508/2606 00000KT P6SM SCT015 BKN024 FM251100
                       00000KT 4SM BR OVC002
                      TEMPO 2513/2516 3/4SM BR OVC001 FM251700
                       VRB03KT P6SM BKN007 FM251900 34004KT P6SM
                       SCT250=
201211250530 TAF KPAE 250530Z 2506/2606 00000KT P6SM BKN045 FM250900 00000KT
                       P6SM VCFG FEW050 FM251000 00000KT 4SM BR
                       OVC002
                      TEMPO 2513/2516 3/4SM BR OVC001 FM251700
                       VRB03KT P6SM BKN007 FM251900 34004KT P6SM
                       SCT250=
201211242335 TAF KPAE 242335Z 2500/2524 34004KT P6SM SCT060 BKN090
                      TEMPO 2500/2503 SCT020 BKN045 FM250300 07002KT
                       P6SM BKN250 FM251000 09002KT 3SM BR OVC002
                       FM251700 09002KT P6SM BKN007 FM251900 34004KT
                       P6SM BKN250=
201211242104 KPAE 242104Z 2421/2518 00000KT P6SM SCT010 BKN019 BKN045
                      TEMPO 2421/2423 BKN010 BKN019 BKN045 FM250300
                       07002KT P6SM BKN250 FM250900 00000KT P6SM
                       OVC004 FM251700 09002KT P6SM BKN007=
201211241720 TAF KPAE 241720Z 2418/2518 00000KT P6SM SCT030 BKN040 FM250300
                       07002KT P6SM BKN250 FM250900 00000KT P6SM
                       OVC004 FM251700 09002KT P6SM BKN007=
201211241631 TAF AMD KPAE 241631Z 2417/2512 00000KT P6SM OVC035 FM242000 32003KT
                       P6SM BKN035 FM250300 07002KT P6SM BKN250
                       FM250900 00000KT P6SM OVC004=
201211241143 TAF KPAE 241143Z 2412/2512 VRB03KT P6SM OVC030 FM241400 VRB03KT
                       P6SM BKN015 OVC030
                      TEMPO 2414/2417 5SM BR BKN009 OVC015 FM241800
                       34002KT P6SM BKN020 OVC030 FM242100 34003KT
                       P6SM BKN035 FM242200 33003KT P6SM BKN100=
201211240825 TAF AMD KPAE 240825Z 2408/2506 VRB03KT P6SM OVC040 FM241000 00000KT
                       3SM BR OVC003 FM241200 00000KT 1SM BR OVC001
                       FM241800 34002KT 6SM BR OVC003 FM242000
                       34003KT P6SM OVC007 FM250000 33003KT P6SM
                       SCT010 BKN050=
201211240548 TAF AMD KPAE 240548Z 2406/2506 VRB03KT 4SM BR BKN015 OVC028 FM240800
                       00000KT 3SM BR OVC003 FM241200 00000KT 1SM
                       BR OVC001 FM241800 34002KT 6SM BR OVC003
                       FM242000 34003KT P6SM OVC007 FM250000 33003KT
                       P6SM SCT010 BKN050=
201211240536 TAF KPAE 240536Z 2406/2506 VRB03KT P6SM OVC028 FM240800 00000KT
                       3SM BR OVC003 FM241200 00000KT 1SM BR OVC001
                       FM241800 34002KT 6SM BR OVC003 FM242000
                       34003KT P6SM OVC007 FM250000 33003KT P6SM
                       SCT010 BKN050=
201211240105 TAF AMD KPAE 240105Z 2401/2424 25003KT 2SM -SHRA BR OVC002
                      TEMPO 2401/2405 P6SM NSW SCT005 OVC015 FM240800
                       VRB04KT 3SM BR OVC003 FM241900 34004KT P6SM
                       SCT020 BKN045=
201211232335 TAF KPAE 232335Z 2400/2424 19010KT 5SM -SHRA BR BKN005 OVC030
                      TEMPO 2400/2404 P6SM NSW SCT005 BKN030 OVC070
                       FM240400 16005KT P6SM VCSH SCT008 BKN023
                       OVC035 FM240800 VRB04KT 3SM BR OVC003 FM241900
                       34004KT P6SM SCT020 BKN045=
201211232005 KPAE 232005Z 2320/2418 17009KT 4SM BR SCT004 OVC018
                      TEMPO 2320/2324 1SM -SHRA BR BKN004 OVC018
                       FM240000 17010KT P6SM -SHRA SCT011 OVC023
                       TEMPO 2400/2404 4SM -SHRA BR OVC013 FM241000
                       13004KT P6SM VCSH OVC006=
201211231730 TAF KPAE 231730Z 2318/2418 17009KT P6SM -RA SCT018 OVC035
                      TEMPO 2318/2320 4SM -RA BR SCT003 BKN018
                       OVC030 FM232000 17010KT P6SM -SHRA SCT011
                       OVC023
                      TEMPO 2321/2401 4SM -SHRA BR OVC013 FM241000
                       13004KT P6SM VCSH OVC006=
201211231130 TAF KPAE 231130Z 2312/2412 15012G19KT P6SM -RA SCT045 BKN060 OVC090
                       FM231600 16014G22KT 6SM -RA BR SCT025 BKN040
                       OVC060
                      TEMPO 2317/2321 3SM RA BR SCT015 OVC030 FM232100
                       17009KT 6SM -SHRA BR SCT012 BKN018 OVC030
                       TEMPO 2401/2404 SCT008 OVC012 FM240400 16004KT
                       P6SM -SHRA SCT006 BKN012 OVC040 FM241000
                       VRB03KT P6SM SCT010 BKN040=
201211230545 TAF KPAE 230545Z 2306/2406 15011G19KT P6SM BKN070 OVC090
                      TEMPO 2307/2310 -RA FM231000 14012G19KT P6SM
                       -RA SCT045 BKN060 OVC090 FM231500 16014G22KT
                       6SM -RA BR SCT025 BKN040 OVC060
                      TEMPO 2317/2321 3SM RA BR SCT015 OVC030 FM232100
                       17009KT 6SM -SHRA BR SCT012 BKN018 OVC030
                       TEMPO 2401/2404 SCT008 OVC012 FM240400 16004KT
                       P6SM -SHRA SCT006 BKN012 OVC040=
201211222350 TAF KPAE 222350Z 2300/2324 13009KT P6SM BKN070 OVC120 FM230800
                       14012G19KT P6SM SCT045 BKN060 OVC090
                      TEMPO 2309/2312 -RA FM231500 16012G20KT 6SM
                       -RA BR BKN025 OVC045=
201211221740 TAF KPAE 221740Z 2218/2318 12005KT P6SM SCT100 BKN200 FM222000
                       13009KT P6SM BKN200 FM230800 14012G19KT
                       P6SM SCT045 BKN060 OVC090
                      TEMPO 2309/2312 -RA FM231500 16012G20KT 6SM
                       -RA BR BKN025 OVC045=
201211221120 TAF KPAE 221120Z 2212/2312 14006KT P6SM SCT018 BKN200
                      TEMPO 2212/2213 BKN018 BKN200 FM221400 13005KT
                       P6SM BCFG SCT120 BKN200 FM221900 13009KT
                       P6SM BKN200 FM230800 14012G19KT P6SM SCT045
                       BKN060 OVC090
                      TEMPO 2309/2312 -RA=
201211220533 TAF KPAE 220533Z 2206/2306 17006KT P6SM SCT030 SCT070
                      TEMPO 2206/2209 BKN030 BKN070 FM221400 13005KT
                       P6SM BCFG SCT150 BKN200 FM221900 13009KT
                       P6SM BKN200=
201211220302 TAF AMD KPAE 220302Z 2203/2224 15007KT P6SM SCT030 BKN070 FM220900
                       14006KT P6SM SCT015 BKN025 FM221400 12004KT
                       P6SM BCFG BKN200 FM221900 12008KT P6SM SCT100
                       OVC200=
201211220121 TAF KPAE 220121Z 2201/2224 22009KT P6SM VCSH BKN015 OVC030 FM220300
                       19006KT P6SM VCSH BKN025 BKN060 BKN200 FM220600
                       15006KT P6SM FEW025 SCT060 SCT200 FM221200
                       12004KT P6SM BCFG BKN200 FM221900 12008KT
                       P6SM SCT100 OVC200=
201211220120 TAF AMD KPAE 220120Z 2201/2224 22009KT P6SM VCSH BKN015 OVC030
                       FM220300 19006KT P6SM VCSH SCT025 BKN060
                       BKN200 FM220600 15006KT P6SM SCT060 SCT200
                       FM221200 12004KT P6SM BCFG BKN200 FM221900
                       12008KT P6SM SCT100 OVC200=
201211212342 TAF KPAE 212342Z 2200/2224 20013G20KT P6SM VCSH SCT015 BKN060 BKN200
                       TEMPO 2200/2202 4SM SHRA BKN015 OVC030 FM220200
                       18010KT P6SM VCSH SCT025 BKN060 BKN200 FM220600
                       15006KT P6SM SCT060 SCT200 FM221200 12004KT
                       P6SM BCFG BKN200 FM221900 12008KT P6SM SCT100
                       OVC200=
201211211801 TAF KPAE 211801Z 2118/2218 19015G25KT P6SM VCTS BKN012CB OVC035
                       FM212100 19012G22KT P6SM VCSH BKN020 OVC040
                       FM220100 19012KT P6SM VCSH SCT020 BKN045
                       FM220600 14005KT P6SM SCT030 BKN150
                      TEMPO 2210/2213 3SM BR BKN010 FM221600 12006KT
                       P6SM SCT015 BKN120=
201211211332 TAF AMD KPAE 211332Z 2114/2212 20017G27KT 6SM -SHRA BR SCT018 OVC025
                       FM211500 18012G20KT 6SM -SHRA BR SCT012
                       OVC020 FM211900 19012G20KT P6SM -SHRA SCT018
                       BKN030
                      TEMPO 2122/2202 4SM SHRA SCT009 OVC018 FM220300
                       17007KT P6SM VCSH SCT020 BKN040 FM220700
                       14006KT P6SM SCT025 SCT040 BKN120=
201211211135 TAF KPAE 211135Z 2112/2212 16005KT 6SM -SHRA BR SCT018 OVC025 FM211500
                       18012G20KT 6SM -SHRA BR SCT012 OVC020 FM211900
                       19012G20KT P6SM -SHRA SCT018 BKN030
                      TEMPO 2122/2202 4SM SHRA SCT009 OVC018 FM220300
                       17007KT P6SM VCSH SCT020 BKN040 FM220700
                       14006KT P6SM SCT025 SCT040 BKN120=
201211210550 TAF KPAE 210550Z 2106/2206 16010KT P6SM VCSH SCT030 BKN045 FM211000
                       13006KT P6SM -SHRA SCT020 OVC030 FM211200
                       16005KT 5SM -RA OVC012 FM211600 18012G20KT
                       6SM -SHRA SCT012 BKN020 FM211900 19012G20KT
                       P6SM -SHRA SCT018 BKN030
                      TEMPO 2122/2202 4SM SHRA SCT009 OVC018 FM220300
                       17007KT P6SM VCSH SCT020 BKN040=
201211210217 TAF AMD KPAE 210217Z 2102/2124 18010KT P6SM SCT015 BKN040
                      TEMPO 2102/2106 5SM -SHRA BR BKN015 BKN030
                       FM210600 15010KT P6SM VCSH SCT020 BKN050
                       TEMPO 2106/2110 -SHRA BKN020 OVC040 FM211000
                       12008KT P6SM -SHRA SCT025 OVC040 FM211400
                       17015G25KT 5SM -SHRA SCT015 BKN025 OVC040
                       FM211700 19015G25KT P6SM -SHRA SCT020 BKN045=
201211202336 TAF KPAE 202336Z 2100/2124 17012G29KT P6SM VCSH SCT020 BKN050 FM210300
                       15010KT P6SM VCSH SCT035 BKN100 FM211000
                       12008KT P6SM -RA OVC035 FM211400 18018G26KT
                       5SM -SHRA SCT015 BKN025 BKN050 FM211700
                       18014G22KT P6SM -SHRA SCT020 BKN045=
201211202103 TAF AMD KPAE 202103Z 2021/2118 16012G22KT P6SM BKN050 OVC180 FM202200
                       17018G26KT 5SM -RA BR BKN025 OVC035 FM202300
                       17018G30KT P6SM -SHRA SCT020 OVC035 FM210400
                       15012G20KT P6SM VCSH SCT035 BKN100 FM211000
                       15008KT P6SM -RA OVC035=
201211201746 TAF KPAE 201746Z 2018/2118 12009KT P6SM SCT050 OVC180 FM202100
                       17018G26KT 5SM -RA BR BKN025 OVC035 FM202300
                       17018G30KT P6SM -SHRA SCT020 OVC035 FM210400
                       15012G20KT P6SM VCSH SCT035 BKN100 FM211000
                       15008KT P6SM -RA OVC035=
201211201140 TAF KPAE 201140Z 2012/2112 15009KT P6SM VCSH SCT040 SCT060 BKN200
                       TEMPO 2012/2013 5SM -SHRA BR BKN040 OVC060
                       FM201400 13009KT P6SM SCT050 FM201900 17018G26KT
                       5SM -RA BR BKN025 OVC035 FM202200 17018G30KT
                       P6SM -SHRA SCT020 OVC035 FM210400 15012G20KT
                       P6SM VCSH SCT035 BKN100 FM211000 15008KT
                       P6SM -RA OVC035=
201211200548 TAF KPAE 200548Z 2006/2106 16011KT P6SM VCSH SCT040 SCT060
                      TEMPO 2006/2010 6SM -SHRA SCT030 BKN040 FM201400
                       13009KT P6SM SCT050 FM201900 17018G26KT
                       5SM -RA BR BKN025 OVC035 FM202200 17018G30KT
                       P6SM -SHRA SCT020 OVC035 FM210400 15012G20KT
                       P6SM VCSH SCT035 BKN120=
201211200014 TAF KPAE 200014Z 2000/2024 18015G30KT P6SM BKN035 OVC060
                      TEMPO 2000/2003 5SM -SHRA BKN025 OVC035 FM200900
                       17008KT P6SM VCSH BKN030 OVC040 FM201500
                       15010KT P6SM VCSH BKN030 OVC040 FM201800
                       17012G20KT P6SM -RA BKN025 OVC035 FM202100
                       18015G30KT P6SM -RA SCT020 OVC035=
201211192119 TAF AMD KPAE 192119Z 1921/2018 13010G20KT P6SM -RA OVC020
                      TEMPO 1921/2001 1SM +RA BR BKN009 FM200200
                       15010KT 4SM RA OVC018 FM200400 18012G22KT
                       P6SM -SHRA BKN030 BKN045 FM200800 18008KT
                       P6SM -SHRA BKN020 OVC030=
201211191841 TAF AMD KPAE 191841Z 1919/2018 13010G20KT P6SM -RA SCT025 OVC035
                       TEMPO 1919/1920 1SM +RA SCT010 BKN020 FM192000
                       13012G22KT 5SM RA BR OVC025 FM192200 15010KT
                       4SM RA OVC018 FM200200 18012G22KT P6SM -SHRA
                       BKN030 BKN045 FM200800 18008KT P6SM -SHRA
                       BKN020 OVC030=
201211191746 TAF KPAE 191746Z 1918/2018 13010G20KT P6SM -RA SCT025 OVC035
                      TEMPO 1918/1920 3SM +RA SCT010 BKN020 FM192000
                       13012G22KT 5SM RA BR OVC025 FM192200 15010KT
                       4SM RA OVC018 FM200200 18012G22KT P6SM -SHRA
                       BKN030 BKN045 FM200800 18008KT P6SM -SHRA
                       BKN020 OVC030=
201211191729 TAF AMD KPAE 191729Z 1917/2012 13010G22KT P6SM -RA SCT025 OVC035
                       TEMPO 1917/1920 3SM +RA SCT010 BKN020 FM192000
                       13012G22KT 5SM RA BR OVC025 FM192200 15010KT
                       4SM RA OVC018 FM200200 18012G22KT P6SM -SHRA
                       BKN030 BKN045=
201211191127 TAF KPAE 191127Z 1912/2012 15013G22KT P6SM -RA SCT025 OVC035 FM191600
                       13012G22KT 5SM RA BR OVC025 FM192200 15010KT
                       4SM RA OVC018 FM200200 18012G22KT P6SM -SHRA
                       BKN030 BKN045=
201211190534 TAF KPAE 190534Z 1906/2006 15015G25KT 6SM -RA BR BKN030 OVC040
                       FM190900 15013G22KT 6SM -RA OVC030 FM191600
                       13012KT 5SM RA BR OVC022 FM192200 15010KT
                       4SM RA OVC018 FM200200 16012KT P6SM -SHRA
                       BKN030 BKN045=
201211190306 TAF AMD KPAE 190306Z 1903/1924 15016G28KT P6SM -RA BKN030 OVC045
                       TEMPO 1903/1905 4SM RA BR OVC030 FM190500
                       17018G28KT 5SM -RA BR OVC025 FM191200 16012G22KT
                       5SM RA BR OVC020 FM192200 16012KT P6SM -RA
                       OVC025=
201211182330 TAF KPAE 182330Z 1900/1924 15020G30KT P6SM -RA BKN025 OVC045 FM190700
                       16015G25KT 5SM -RA BR OVC025 FM191200 16012G22KT
                       5SM RA BR OVC020 FM192200 16012KT P6SM -RA
                       OVC025=
201211181735 TAF KPAE 181735Z 1818/1918 16012KT P6SM -SHRA SCT025 OVC045
                      TEMPO 1818/1822 4SM -SHRA BR OVC025 FM190000
                       16020G30KT P6SM -RA BKN025 OVC045 FM190700
                       18015G25KT P6SM -RA OVC025 FM191400 16020G30KT
                       5SM RA BR OVC020=
201211181600 TAF AMD KPAE 181600Z 1816/1912 16015G25KT P6SM -SHRA SCT025 OVC040
                       TEMPO 1816/1820 4SM -SHRA BR OVC020 FM182000
                       15016G28KT P6SM -RA OVC025 FM190000 16020G30KT
                       P6SM -RA OVC025=
201211181120 TAF KPAE 181120Z 1812/1912 16015G25KT P6SM -SHRA BKN025 OVC040
                       TEMPO 1812/1816 4SM RA BR OVC018 FM182000
                       15016G28KT P6SM -RA OVC025 FM190000 16020G30KT
                       P6SM -RA OVC025=
201211180527 TAF KPAE 180527Z 1806/1906 16012KT P6SM SCT025 BKN035
                      TEMPO 1806/1810 -SHRA BKN025 OVC035 FM181000
                       16012KT P6SM -SHRA BKN025 OVC040 FM182200
                       15014G24KT P6SM -RA BKN030 OVC045 FM190100
                       16018G28KT P6SM -RA OVC025=
201211172328 TAF KPAE 172328Z 1800/1824 18013G22KT 3SM -RA BR BKN011 OVC025
                       FM180100 18013G22KT P6SM SCT025 BKN045
                      TEMPO 1801/1805 -SHRA BKN025 OVC045 FM180500
                       16012KT P6SM SCT025 BKN045
                      TEMPO 1805/1809 -SHRA BKN025 OVC045 FM180900
                       16012KT P6SM VCSH BKN025 OVC040 FM182200
                       15014G24KT P6SM -RA BKN030 OVC045=
201211171737 TAF KPAE 171737Z 1718/1818 15014KT P6SM -RA BKN050 OVC070 FM171900
                       18014G22KT P6SM -RA BKN030 OVC045 FM172100
                       18013G22KT P6SM -SHRA BKN035 OVC050 FM180200
                       16011KT P6SM SCT025 OVC050
                      TEMPO 1802/1806 -SHRA BKN025 OVC045=
201211171120 TAF KPAE 171120Z 1712/1812 12010KT P6SM -RA BKN050 OVC070
                      TEMPO 1712/1714 5SM -RA BR FM171900 18012KT
                       P6SM -RA SCT035 OVC050 FM172100 18013G22KT
                       P6SM -SHRA BKN035 OVC050 FM180200 16011KT
                       P6SM -RA BKN030 OVC050=
201211170549 TAF KPAE 170549Z 1706/1806 13007KT P6SM -RA SCT018 OVC040 FM171000
                       13011KT P6SM SCT030 OVC050
                      TEMPO 1710/1712 -RA FM171900 18013G22KT P6SM
                       -SHRA SCT022 OVC040 FM172000 18015G25KT
                       P6SM -SHRA SCT022 BKN040 FM180200 16010KT
                       P6SM -RA OVC022=
201211162342 TAF KPAE 162342Z 1700/1724 13007KT P6SM -RA SCT030 OVC050
                      TEMPO 1700/1702 -RA FM170200 13007KT 5SM
                       -RA BR SCT015 OVC030
                      TEMPO 1703/1707 BKN015 OVC030 FM170900 13011KT
                       P6SM SCT030 OVC050
                      TEMPO 1709/1712 -RA FM171800 15013G22KT P6SM
                       -RA SCT022 OVC040 FM172000 18015G25KT 5SM
                       -RA BR OVC022=
201211162107 TAF AMD KPAE 162107Z 1621/1718 16009KT P6SM BKN050 OVC100
                      TEMPO 1621/1624 -RA FM170200 13007KT P6SM
                       BKN050 OVC100 FM171200 12013KT P6SM SCT030
                       OVC050
                      PROB30 1712/1718 -RA=
201211161752 TAF KPAE 161752Z 1618/1718 16010KT P6SM VCFG BKN050 BKN120 BKN200
                       FM162000 16010KT P6SM SCT050 BKN120 BKN200
                       FM170200 13007KT P6SM BKN050 OVC100
                      PROB30 1703/1709 -RA FM171200 12013KT P6SM
                       SCT030 OVC050
                      PROB30 1712/1718 -RA=
201211161524 TAF AMD KPAE 161524Z 1615/1712 15005KT P6SM VCFG BKN050 OVC090
                       FM161700 14005KT P6SM BKN090 OVC150 FM170000
                       14005KT P6SM OVC060 FM170300 13008KT P6SM
                       -SHRA BKN030 OVC060 FM170600 13010KT P6SM
                       -RA OVC030=
201211161249 TAF KPAE 161249Z 1613/1712 00000KT 6SM BR VCFG SCT001 OVC040 FM161600
                       15005KT P6SM SCT090 OVC150 FM161800 14005KT
                       P6SM BKN090 OVC150 FM170000 14005KT P6SM
                       OVC060 FM170300 13008KT P6SM -SHRA BKN030
                       OVC060 FM170600 13010KT P6SM -RA OVC030=
201211161247 TAF AMD KPAE 161247Z 1613/1712 00000KT 6SM BR OVC040 FM161600 15005KT
                       P6SM SCT090 OVC150 FM161800 14005KT P6SM
                       BKN090 OVC150 FM170000 14005KT P6SM OVC060
                       FM170300 13008KT P6SM -SHRA BKN030 OVC060
                       FM170600 13010KT P6SM -RA OVC030=
201211161142 TAF KPAE 161142Z 1612/1712 16004KT 3SM BR BKN003
                      TEMPO 1612/1614 1/2SM FG VV001 FM161400 16004KT
                       5SM BR SCT007 SCT090 BKN150
                      TEMPO 1614/1616 1SM BR BKN007 FM161600 15005KT
                       P6SM VCFG SCT007 SCT090 OVC150 FM161800
                       14005KT P6SM BKN090 OVC150 FM170000 14005KT
                       P6SM OVC060 FM170300 13008KT P6SM -SHRA
                       BKN030 OVC060 FM170600 13010KT P6SM -RA
                       OVC030=
201211161103 TAF AMD KPAE 161103Z 1611/1706 16004KT 4SM BR BKN003
                      TEMPO 1611/1613 1/2SM FG VV001 FM161600 12005KT
                       P6SM VCFG SCT007 SCT090 OVC150 FM161800
                       12005KT P6SM BKN090 OVC150 FM170000 14005KT
                       P6SM OVC060 FM170300 13005KT P6SM -SHRA
                       BKN030 OVC060=
201211160539 TAF KPAE 160539Z 1606/1706 VRB03KT 5SM BR SCT003 BKN050
                      TEMPO 1607/1609 1SM BR BKN003 FM160900 00000KT
                       2SM BR BKN003
                      TEMPO 1609/1613 1/4SM FG VV001 FM161600 09005KT
                       P6SM VCFG SCT007 SCT090 OVC150 FM161800
                       12005KT P6SM BKN090 OVC150 FM170000 14005KT
                       P6SM OVC060 FM170300 13005KT P6SM -SHRA
                       BKN030 OVC060=
201211160315 TAF AMD KPAE 160315Z 1603/1624 VRB03KT 6SM BR SCT006 SCT050
                      TEMPO 1603/1605 2SM BR FM160500 VRB03KT 1SM
                       BR OVC003
                      TEMPO 1608/1612 1/4SM FG VV001 FM161500 09005KT
                       P6SM VCFG SCT007 SCT090 OVC150 FM161800
                       12005KT P6SM BKN090 OVC150=
201211160036 TAF AMD KPAE 160036Z 1601/1624 VRB03KT P6SM VCFG SCT006 SCT200
                       TEMPO 1601/1603 BKN006 BKN200 FM160300 VRB03KT
                       4SM BR OVC006 FM160600 VRB03KT 1SM BR OVC003
                       TEMPO 1608/1612 1/4SM FG VV001 FM161500
                       09005KT P6SM VCFG SCT007 SCT090 OVC150 FM161800
                       12005KT P6SM BKN090 OVC150=
201211152350 TAF KPAE 152350Z 1600/1624 VRB03KT P6SM SCT200 FM160200 VRB03KT
                       5SM BR SCT200 FM160600 VRB03KT 1SM BR OVC003
                       TEMPO 1608/1612 1/4SM FG VV001 FM161500
                       09005KT P6SM VCFG SCT007 SCT090 OVC150 FM161800
                       12005KT P6SM BKN090 OVC150=
201211152106 TAF AMD KPAE 152106Z 1521/1618 35005KT 6SM BCFG FEW004 SCT200 FM160200
                       VRB03KT P6SM VCFG BKN200 FM160600 VRB03KT
                       2SM BR OVC003
                      TEMPO 1608/1612 1/4SM FG VV001 FM161500 11006KT
                       P6SM VCFG SCT007 SCT080 OVC150=
201211151752 TAF AMD KPAE 151752Z 1518/1618 02005KT 6SM BR SCT003
                      TEMPO 1518/1520 3/4SM BR VV001 FM152000 35005KT
                       P6SM SCT012 SCT200 FM160200 VRB03KT P6SM
                       VCFG BKN200 FM160600 VRB03KT 2SM BR OVC003
                       TEMPO 1608/1612 1/4SM FG VV001 FM161500
                       11006KT P6SM VCFG SCT007 SCT080 OVC150=
201211151745 TAF KPAE 151745Z 1518/1618 02005KT 2SM BR BKN004
                      TEMPO 1518/1520 1/2SM FG VV001 FM152000 35005KT
                       P6SM SCT012 SCT200 FM160200 VRB03KT P6SM
                       VCFG BKN200 FM160600 VRB03KT 2SM BR OVC003
                       TEMPO 1608/1612 1/4SM FG VV001 FM161500
                       11006KT P6SM VCFG SCT007 SCT080 OVC150=
201211151700 TAF AMD KPAE 151700Z 1517/1612 00000KT 1/4SM FG VV001 FM152000
                       11004KT P6SM OVC008 FM152200 13004KT P6SM
                       BKN020 FM152300 13005KT P6SM SCT025 FM160300
                       VRB04KT P6SM SCT015 BKN200 FM160900 VRB04KT
                       P6SM SCT015 BKN120
                      TEMPO 1609/1612 4SM BR BKN015=
201211151130 TAF KPAE 151130Z 1512/1612 00000KT 1/4SM FG VV001 FM151700 00000KT
                       2SM BR BKN002
                      TEMPO 1517/1518 1/2SM FG VV002 FM152000 11004KT
                       P6SM OVC008 FM152200 13004KT P6SM BKN020
                       FM152300 13005KT P6SM SCT025 FM160300 VRB04KT
                       P6SM SCT015 BKN200 FM160900 VRB04KT P6SM
                       SCT015 BKN120
                      TEMPO 1609/1612 4SM BR BKN015=
201211151102 TAF AMD KPAE 151102Z 1511/1606 00000KT 1/4SM FG VV001 FM151600
                       00000KT 2SM BR BKN002
                      TEMPO 1516/1518 1/2SM FG VV002 FM152000 11004KT
                       P6SM OVC008 FM152200 13004KT P6SM BKN020
                       FM152300 13005KT P6SM SCT025 FM160300 VRB04KT
                       P6SM SCT025 BKN200=
201211150748 TAF AMD KPAE 150748Z 1508/1606 00000KT 2SM BR SCT002 SCT050
                      TEMPO 1508/1511 1/2SM FG VV002 FM151100 00000KT
                       2SM BR OVC003
                      TEMPO 1512/1516 1/2SM FG OVC001 FM152000
                       11004KT P6SM OVC008 FM152200 13004KT P6SM
                       BKN020 FM152300 13005KT P6SM SCT025 FM160300
                       VRB04KT P6SM SCT025 BKN200=
201211150712 TAF AMD KPAE 150712Z 1507/1606 00000KT P6SM SCT050
                      TEMPO 1507/1510 2SM BR SCT006 SCT050 FM151000
                       00000KT 2SM BR OVC003
                      TEMPO 1512/1516 1/2SM FG OVC001 FM152000
                       11004KT P6SM OVC008 FM152200 13004KT P6SM
                       BKN020 FM152300 13005KT P6SM SCT025 FM160300
                       VRB04KT P6SM SCT025 BKN200=
201211150520 TAF KPAE 150520Z 1506/1606 00000KT P6SM SCT050 FM150800 00000KT
                       P6SM OVC006 FM151100 00000KT 3SM BR OVC003
                       TEMPO 1512/1516 1/2SM FG OVC001 FM151900
                       11004KT P6SM OVC008 FM152200 13004KT P6SM
                       BKN020 FM152300 13005KT P6SM SCT025 FM160300
                       VRB04KT P6SM SCT025 BKN200=
201211142320 TAF KPAE 142320Z 1500/1524 33004KT P6SM SCT025 BKN050 FM150200
                       03004KT P6SM SCT050 FM150800 07003KT P6SM
                       OVC006 FM151200 VRB03KT 3SM BR OVC003
                      TEMPO 1512/1516 1/2SM FG OVC001 FM151900
                       11004KT P6SM OVC008 FM152200 13004KT P6SM
                       BKN020=
201211142213 TAF AMD KPAE 142213Z 1422/1518 33004KT P6SM SCT035 BKN050 FM150200
                       03004KT P6SM SCT050 FM150800 07003KT P6SM
                       OVC006 FM151200 VRB03KT 1SM BR OVC003=
201211141910 TAF AMD KPAE 141910Z 1419/1518 33003KT P6SM BKN007 BKN020 FM142100
                       33004KT P6SM SCT007 BKN025 FM142300 33004KT
                       P6SM SCT025 BKN045 FM150100 35004KT P6SM
                       BKN045 FM150600 02004KT P6SM OVC004 FM151200
                       00000KT 1SM BR OVC003=
201211141747 TAF KPAE 141747Z 1418/1518 33003KT P6SM FEW005 OVC015 FM142000
                       33004KT P6SM BKN020 BKN040 FM142200 33004KT
                       P6SM SCT025 BKN045 FM150000 35004KT P6SM
                       BKN045 FM150600 02004KT P6SM OVC004 FM151200
                       00000KT 1SM BR OVC003=
201211141309 TAF AMD KPAE 141309Z 1413/1512 VRB03KT 5SM BR SCT002 BKN008 BKN070
                       TEMPO 1413/1417 1SM BR BKN002 OVC008 FM142100
                       33005KT P6SM OVC025 FM150000 35005KT P6SM
                       SCT025 FM150600 02004KT P6SM BKN004=
201211141224 TAF AMD KPAE 141224Z 1412/1512 20004KT P6SM SCT008 OVC020
                      TEMPO 1412/1416 5SM BR BKN008 FM142100 33005KT
                       P6SM OVC025 FM150000 35005KT P6SM SCT025
                       FM150600 02004KT P6SM BKN004=
201211141126 TAF KPAE 141126Z 1412/1512 20004KT P6SM SCT015 OVC020
                      TEMPO 1412/1416 BKN015 FM142100 33005KT P6SM
                       OVC025 FM150000 35005KT P6SM SCT025 FM150600
                       02004KT P6SM BKN004=
201211140904 TAF AMD KPAE 140904Z 1409/1506 15007KT P6SM SCT007 BKN015 OVC040
                       TEMPO 1409/1412 BKN003 FM141200 16003KT
                       5SM BR BKN003 OVC015 FM141600 16003KT P6SM
                       SCT018 OVC022 FM142100 33005KT P6SM OVC025
                       FM150000 35005KT P6SM BKN030=
201211140521 TAF KPAE 140521Z 1406/1506 15007KT P6SM -SHRA SCT007 BKN015 OVC040
                       TEMPO 1406/1409 BKN007 FM140900 16003KT
                       5SM BR SCT005 OVC015 FM141600 16003KT P6SM
                       SCT018 OVC022 FM142100 33005KT P6SM OVC025
                       FM150000 35005KT P6SM BKN030=
201211140057 TAF AMD KPAE 140057Z 1401/1424 17006KT P6SM -RA SCT004 BKN020 OVC040
                       TEMPO 1401/1403 5SM -RA BR BKN004 BKN020
                       OVC040 FM140300 VRB03KT 3SM -RA BR SCT007
                       BKN015 OVC028
                      TEMPO 1403/1406 BKN007 OVC015 FM140600 VRB03KT
                       P6SM VCSH BKN007 OVC015 FM141200 VRB03KT
                       P6SM BKN007 OVC015 FM142000 VRB03KT P6SM
                       OVC020=
201211132340 TAF KPAE 132340Z 1400/1424 17006KT 5SM -RA BR SCT007 SCT020 OVC035
                       TEMPO 1400/1402 BKN007 BKN020 OVC035 FM140200
                       VRB03KT 3SM -RA BR SCT007 BKN015 OVC028
                       TEMPO 1402/1406 BKN007 OVC015 FM140600 VRB03KT
                       P6SM VCSH BKN007 OVC015 FM141200 VRB03KT
                       P6SM BKN007 OVC015 FM142000 VRB03KT P6SM
                       OVC020=
201211132019 TAF AMD KPAE 132019Z 1320/1418 17006KT P6SM -RA SCT020 OVC050
                      TEMPO 1320/1322 BKN020 OVC050 FM132200 17006KT
                       5SM -RA BR SCT012 OVC030
                      TEMPO 1322/1402 OVC012 FM140200 VRB03KT 2SM
                       -RA BR OVC004 FM140600 VRB03KT 5SM BR BKN007
                       OVC015
                      TEMPO 1406/1410 2SM -DZ BR OVC004 FM141200
                       VRB03KT 1SM BR OVC004=
201211131923 TAF AMD KPAE 131923Z 1319/1418 15006KT P6SM -RA SCT008 OVC015 FM132000
                       17008KT 4SM -RA BR SCT008 OVC015
                      TEMPO 1322/1402 BKN008 OVC015 FM140200 VRB03KT
                       2SM -RA BR OVC004 FM140600 VRB03KT 5SM BR
                       BKN007 OVC015
                      TEMPO 1406/1410 2SM -DZ BR OVC004 FM141200
                       VRB03KT 1SM BR OVC004=
201211131808 TAF AMD KPAE 131808Z 1318/1418 15006KT P6SM VCSH BKN007 OVC015
                       FM132000 17008KT 4SM -RA BR OVC007 FM140200
                       VRB03KT 2SM -RA BR OVC004 FM140600 VRB03KT
                       5SM BR BKN007 OVC015
                      TEMPO 1406/1410 2SM -DZ BR OVC004 FM141200
                       VRB03KT 1SM BR OVC004=
201211131720 TAF KPAE 131720Z 1318/1418 15006KT 2SM BR BKN007 OVC015
                      TEMPO 1318/1320 3/4SM BR OVC002 FM132000
                       17008KT 4SM -RA BR OVC007 FM140200 VRB03KT
                       2SM -RA BR OVC004 FM140600 VRB03KT 5SM BR
                       BKN007 OVC015
                      TEMPO 1406/1410 2SM -DZ BR OVC004 FM141200
                       VRB03KT 1SM BR OVC004=
201211131622 TAF AMD KPAE 131622Z 1316/1412 16007KT 1 1/2SM BR OVC004
                      TEMPO 1316/1318 1/2SM FG VV002 FM131800 17006KT
                       4SM -RA BR OVC008 FM140600 18004KT P6SM
                       OVC018=
201211131550 TAF AMD KPAE 131550Z 1316/1412 16009KT P6SM VCSH BKN007 OVC012
                       TEMPO 1316/1318 5SM -RA BR OVC004 FM131800
                       17006KT P6SM -SHRA SCT015 OVC020 FM140600
                       18004KT P6SM OVC018=
201211131447 TAF AMD KPAE 131447Z 1315/1412 16009KT P6SM SCT008 SCT013 OVC025
                       TEMPO 1315/1318 3SM -SHRA BR OVC006 FM131800
                       17006KT P6SM -SHRA SCT015 OVC020 FM140600
                       18004KT P6SM OVC018=
201211131242 TAF AMD KPAE 131242Z 1313/1412 16009KT P6SM SCT008 SCT013 OVC025
                       TEMPO 1313/1317 3SM -SHRA BR OVC006 FM131700
                       17006KT P6SM -SHRA SCT015 OVC020 FM140600
                       18004KT P6SM OVC018=
201211131134 TAF KPAE 131134Z 1312/1412 16007KT P6SM -SHRA SCT012 BKN020 OVC050
                       TEMPO 1312/1315 3SM -SHRA BR BKN009 FM131600
                       17006KT P6SM -SHRA SCT015 OVC020 FM140600
                       18004KT P6SM OVC018=
201211130523 TAF KPAE 130523Z 1306/1406 17008KT P6SM -SHRA SCT008 BKN025 OVC035
                       TEMPO 1306/1310 BKN008 FM131000 17005KT
                       P6SM -SHRA SCT005 OVC012 FM132100 17006KT
                       P6SM -SHRA SCT015 OVC020=
201211130131 TAF AMD KPAE 130131Z 1302/1324 VRB03KT P6SM BKN022 OVC050
                      TEMPO 1308/1312 2SM -RA BR OVC010 FM131200
                       13005KT 2SM -RA BR OVC004 FM131800 16009KT
                       3SM -RA BR OVC007=
201211130012 TAF AMD KPAE 130012Z 1300/1324 17006KT P6SM SCT007 BKN015 OVC030
                       TEMPO 1300/1304 2SM -RA BR OVC004 FM130400
                       VRB03KT P6SM BKN020 OVC050
                      TEMPO 1308/1312 2SM -RA BR OVC010 FM131200
                       13005KT 2SM -RA BR OVC004 FM131800 16009KT
                       3SM -RA BR OVC007=
201211122345 TAF KPAE 122345Z 1300/1324 17006KT 3SM BR OVC007
                      TEMPO 1300/1304 1SM -DZ BR OVC004 FM130400
                       VRB03KT 2SM BR OVC004
                      TEMPO 1308/1312 3/4SM -RA BR VV002 FM131200
                       13005KT 2SM -RA BR OVC004 FM131800 16009KT
                       3SM -RA BR OVC007=
201211122248 TAF AMD KPAE 122248Z 1223/1318 15007KT 3SM BR OVC007
                      TEMPO 1223/1301 1SM -DZ BR OVC004 FM130100
                       15007KT P6SM BKN020 OVC060 FM130600 15007KT
                       P6SM OVC020 FM131200 15007KT 5SM -RA BR
                       OVC012=
201211122113 KPAE 122113Z 1221/1318 VRB03KT 3SM -DZ BR OVC004
                      TEMPO 1221/1224 1SM -DZ BR FM130000 15007KT
                       P6SM BKN020 OVC060 FM130600 15007KT P6SM
                       OVC020
                      PROB30 1306/1312 5SM -DZ BR FM131200 15007KT
                       5SM -RA BR OVC012=
201211122013 TAF KPAE 122013Z 1220/1318 VRB03KT 3SM BR OVC004
                      TEMPO 1220/1222 1 1/2SM -DZ BR FM122200 15007KT
                       P6SM BKN009 OVC020 FM130000 15007KT P6SM
                       BKN020 OVC060 FM130600 15007KT P6SM OVC020
                       PROB30 1306/1312 5SM -DZ BR FM131200 15007KT
                       5SM -RA BR OVC012=
201211122004 TAF AMD KPAE 122004Z 1220/1318 VRB03KT 3SM BR OVC004
                      TEMPO 1220/1222 1 1/2SM BR FM122200 15007KT
                       P6SM BKN009 OVC020 FM130000 15007KT P6SM
                       BKN020 OVC060 FM130600 15007KT P6SM OVC020
                       PROB30 1306/1312 5SM -DZ BR FM131200 15007KT
                       5SM -RA BR OVC012=
201211121736 TAF KPAE 121736Z 1218/1318 VRB03KT 3SM BR OVC004
                      TEMPO 1218/1220 1SM BR FM122000 15005KT 6SM
                       BR OVC009 FM122200 15007KT P6SM BKN015 OVC030
                       FM130000 15007KT P6SM BKN025 OVC060 FM130600
                       15007KT P6SM OVC020
                      PROB30 1306/1312 5SM -DZ BR FM131200 15007KT
                       5SM -RA BR OVC012=
201211121554 TAF AMD KPAE 121554Z 1216/1312 14005KT 5SM BR BKN008 OVC015
                      TEMPO 1216/1218 2SM BR OVC004 FM121800 15006KT
                       P6SM OVC025 FM130000 16005KT P6SM VCSH SCT015
                       OVC020=
201211121514 KPAE 121514Z 1215/1312 14005KT 5SM BR BKN008 OVC015 FM121800 15006KT
                       P6SM OVC025 FM130000 16005KT P6SM VCSH SCT015
                       OVC020=
201211121413 TAF AMD KPAE 121413Z 1214/1312 15009KT P6SM VCSH OVC010 FM121700
                       15006KT P6SM OVC025 FM130000 16005KT P6SM
                       VCSH SCT015 OVC020=
201211121129 TAF KPAE 121129Z 1212/1312 14008KT P6SM -SHRA SCT003 SCT015 OVC025
                       TEMPO 1212/1216 4SM -SHRA BR BKN003 FM121700
                       15006KT P6SM OVC025 FM130000 16005KT P6SM
                       VCSH SCT015 OVC020=
201211120523 TAF KPAE 120523Z 1206/1306 14010G18KT 6SM -RA BR OVC030 FM120900
                       17010KT 4SM -RA BR SCT015 OVC020 FM121600
                       17006KT P6SM BKN020 OVC030 FM122100 17006KT
                       P6SM BKN025 OVC040=
201211120000 TAF AMD KPAE 120000Z 1200/1224 13009KT P6SM SCT022 OVC040
                      TEMPO 1200/1203 -RA FM120300 14012G20KT 6SM
                       -RA BR SCT018 OVC030 FM120600 14012G20KT
                       4SM -RA BR SCT010 OVC025 FM120900 16012G20KT
                       4SM -RA BR OVC015 FM121200 16009KT 4SM -RA
                       BR OVC015 FM121800 14007KT P6SM BKN015 OVC030
                       PROB30 1218/1224 -RA=
201211112348 TAF KPAE 112348Z 1200/1224 12012KT P6SM SCT018 OVC030
                      TEMPO 1200/1203 -RA FM120300 14012G20KT 6SM
                       -RA BR SCT018 OVC030 FM120600 14012G20KT
                       4SM -RA BR SCT010 OVC025 FM120900 16012G20KT
                       4SM -RA BR OVC015 FM121200 16009KT 4SM -RA
                       BR OVC015 FM121800 14007KT P6SM BKN015 OVC030
                       PROB30 1218/1224 -RA=
201211112259 TAF AMD KPAE 112259Z 1123/1218 12012KT P6SM SCT020 OVC030
                      TEMPO 1123/1203 -RA FM120300 14015G23KT 5SM
                       -RA BR OVC025 FM120900 17013G20KT 5SM -RA
                       BR OVC015 FM121500 14009KT P6SM OVC015
                      PROB30 1215/1218 -RA=
201211111738 TAF KPAE 111738Z 1118/1218 12009KT P6SM SCT028 BKN050 OVC130
                      TEMPO 1118/1120 BKN028 OVC050 FM112000 12012KT
                       P6SM -RA SCT025 OVC040 FM120300 14015G23KT
                       5SM -RA BR OVC025 FM120900 17013G20KT 5SM
                       -RA BR OVC015 FM121500 14009KT P6SM OVC015
                       PROB30 1215/1218 -RA=
201211111604 TAF AMD KPAE 111604Z 1116/1212 11008KT P6SM SCT028 OVC050
                      TEMPO 1116/1118 BKN028 OVC050 FM111800 16009KT
                       P6SM BKN028 OVC040 FM112200 17007KT P6SM
                       VCSH BKN040 OVC070 FM120000 16012KT P6SM
                       -RA BKN030 OVC050 FM120600 15012KT P6SM
                       -RA OVC025=
201211111123 TAF KPAE 111123Z 1112/1212 13004KT P6SM SCT120 BKN200 FM111800
                       16009KT P6SM BKN090 BKN120 OVC200 FM112200
                       17007KT P6SM VCSH BKN040 OVC070 FM120000
                       16012KT P6SM -RA BKN030 OVC050 FM120600
                       15012KT P6SM -RA OVC025=
201211110524 TAF KPAE 110524Z 1106/1206 13004KT P6SM BKN200 FM111800 16009KT
                       P6SM BKN090 OVC200 FM120200 16012KT P6SM
                       -RA BKN030 OVC050=
201211102324 TAF KPAE 102324Z 1100/1124 VRB03KT P6SM FEW025 FM110400 16003KT
                       P6SM SCT200 FM111800 16009KT P6SM BKN090
                       OVC200=
201211101727 TAF KPAE 101727Z 1018/1118 00000KT P6SM SCT090 FM110600 13004KT
                       P6SM SCT060 SCT120 BKN200=
201211101122 TAF KPAE 101122Z 1012/1112 12005KT P6SM SCT070
                      TEMPO 1012/1016 1/2SM FG VV002 FM101800 34004KT
                       P6SM SCT070 FM110600 13004KT P6SM SCT060
                       SCT150 BKN200=
201211100520 TAF KPAE 100520Z 1006/1106 01005KT P6SM FEW035 FEW070
                      TEMPO 1006/1009 BKN035 FM101200 06005KT P6SM
                       SKC FM101800 34004KT P6SM FEW060=
201211092324 TAF KPAE 092324Z 1000/1024 36003KT P6SM SKC=
201211091726 TAF KPAE 091726Z 0918/1018 01003KT P6SM FEW022 FM100400 10004KT
                       P6SM SKC=
201211091120 TAF KPAE 091120Z 0912/1012 00000KT P6SM FEW035 FM091800 34005KT
                       P6SM SCT035 FM100400 10004KT P6SM SKC=
201211090520 TAF KPAE 090520Z 0906/1006 35005KT P6SM FEW035=
201211082320 TAF KPAE 082320Z 0900/0924 33014KT P6SM FEW050 FM090600 02012KT
                       P6SM SKC=
201211081753 TAF KPAE 081753Z 0818/0918 34010KT P6SM SCT045
                      TEMPO 0821/0901 BKN045=
201211081120 TAF KPAE 081120Z 0812/0912 11004KT P6SM SKC FM081600 34007KT P6SM
                       SCT050
                      TEMPO 0821/0901 BKN050=
201211080533 TAF KPAE 080533Z 0806/0906 VRB03KT P6SM SCT035 BKN050 BKN100 FM081600
                       34007KT P6SM SCT040
                      TEMPO 0821/0901 BKN040=
201211072320 TAF KPAE 072320Z 0800/0824 14007KT P6SM VCSH BKN040 FM080600 VRB04KT
                       P6SM BKN040 FM081600 35008KT P6SM SCT050=
201211071720 TAF KPAE 071720Z 0718/0818 VRB04KT P6SM VCSH BKN035 FM080000 16008KT
                       P6SM BKN040 FM081700 04006KT P6SM BKN060=
201211071528 TAF AMD KPAE 071528Z 0715/0812 VRB03KT P6SM VCSH BKN030 FM071800
                       15007KT P6SM VCSH BKN035 FM080400 10005KT
                       P6SM SCT035 BKN080=
201211071249 TAF AMD KPAE 071249Z 0713/0812 VRB03KT P6SM VCSH SCT025 BKN050
                       TEMPO 0713/0715 BKN025 OVC050 FM071800 15007KT
                       P6SM VCSH BKN035 FM080400 10005KT P6SM SCT035
                       BKN080=
201211071120 TAF KPAE 071120Z 0712/0812 VRB04KT P6SM -SHRA FEW005 BKN025 OVC040
                       FM071800 15007KT P6SM VCSH BKN035 FM080400
                       10005KT P6SM SCT035 BKN080=
201211070528 TAF KPAE 070528Z 0706/0806 16005KT P6SM -SHRA OVC016 FM071200 15005KT
                       P6SM VCSH BKN020 FM071800 14008KT P6SM BKN035
                       FM080400 10005KT P6SM SCT035 BKN080=
201211070306 TAF AMD KPAE 070306Z 0703/0724 20014G21KT P6SM OVC016 FM070600
                       21012KT P6SM -SHRA BKN015 OVC030 FM071800
                       18008KT P6SM VCSH BKN025=
201211062320 TAF KPAE 062320Z 0700/0724 18012G22KT P6SM SCT015 OVC050
                      TEMPO 0700/0703 5SM -SHRA BKN015 OVC040 FM070300
                       23015G25KT P6SM -SHRA BKN015 OVC030 FM070600
                       21012KT P6SM -SHRA BKN015 OVC030 FM071800
                       18008KT P6SM VCSH BKN025=
201211062140 TAF AMD KPAE 062140Z 0622/0718 25007KT 5SM BR SCT003 BKN015 OVC030
                       TEMPO 0622/0624 3SM BR BKN003 OVC010 FM070000
                       18015G25KT P6SM -RA SCT005 BKN015 OVC040
                       FM070300 33008KT P6SM -SHRA BKN025 FM070900
                       VRB04KT P6SM VCSH BKN030=
201211061723 TAF KPAE 061723Z 0618/0718 18010KT P6SM SCT020 BKN040 OVC080 FM062200
                       18015G25KT P6SM -RA BKN025 OVC050 FM070300
                       33008KT P6SM -SHRA BKN025 FM070900 VRB04KT
                       P6SM VCSH BKN030=
201211061434 KPAE 061434Z 0615/0712 VRB03KT P6SM SCT029 BKN110 OVC200 FM061800
                       16012G22KT P6SM SCT020 BKN040 OVC080 FM062200
                       18015G25KT P6SM -RA BKN020 OVC040 FM070300
                       34006KT P6SM -SHRA OVC020 FM070900 19009KT
                       P6SM VCSH SCT025 OVC040=
201211061314 TAF AMD KPAE 061314Z 0613/0712 VRB03KT P6SM SCT029 BKN110 OVC200
                       TEMPO 0613/0616 BKN029 OVC110 FM061800 16012G22KT
                       P6SM SCT020 BKN040 OVC080 FM062200 18015G25KT
                       P6SM -RA BKN020 OVC040 FM070300 34006KT
                       P6SM -SHRA OVC020 FM070900 19009KT P6SM
                       VCSH SCT025 OVC040=
201211061135 TAF KPAE 061135Z 0612/0712 00000KT P6SM SCT003 BKN029 OVC100
                      TEMPO 0612/0616 3SM BR BKN001 OVC029 FM061800
                       16012G22KT P6SM SCT020 BKN040 OVC080 FM062200
                       18015G25KT P6SM -RA BKN020 OVC040 FM070300
                       34006KT P6SM -SHRA OVC020 FM070900 19009KT
                       P6SM VCSH SCT025 OVC040=
201211060535 TAF KPAE 060535Z 0606/0706 00000KT P6SM SCT003 SCT120 BKN250 FM060800
                       04006KT P6SM SCT003 BKN120
                      TEMPO 0610/0612 3SM BR BKN003 BKN100 FM061200
                       16006KT P6SM SCT005 BKN080 FM061800 16012G22KT
                       P6SM SCT020 BKN040 OVC080 FM062200 18015G25KT
                       P6SM -RA BKN020 OVC040=
201211052320 TAF KPAE 052320Z 0600/0624 36006KT P6SM SCT050 BKN200 FM060600
                       04006KT P6SM SCT003 BKN120
                      TEMPO 0608/0612 3SM BR BKN003 BKN100 FM061200
                       16006KT P6SM SCT005 BKN080 FM061800 16012G22KT
                       P6SM SCT020 BKN040 OVC080 FM062200 18015G25KT
                       P6SM -RA BKN020 OVC040=
201211051720 TAF KPAE 051720Z 0518/0618 36006KT P6SM BKN040 BKN250 FM052000
                       36006KT P6SM SCT040 BKN200 FM060400 04006KT
                       P6SM BKN100
                      TEMPO 0606/0610 3SM BR SCT003 BKN100 FM061000
                       00000KT P6SM BKN100
                      TEMPO 0610/0614 3SM BR FM061400 18008KT P6SM
                       BKN050 OVC100=
201211051332 TAF AMD KPAE 051332Z 0514/0612 36005KT P6SM OVC035 FM051700 01007KT
                       P6SM BKN035 BKN250 FM051900 34006KT P6SM
                       SCT020 BKN250=
201211051130 TAF KPAE 051130Z 0512/0612 36007KT P6SM SCT004 OVC035
                      TEMPO 0512/0516 OVC004 FM051700 01007KT P6SM
                       BKN015 FM051900 34006KT P6SM SCT020 BKN250=
201211050535 TAF KPAE 050535Z 0506/0606 20014G22KT P6SM -RA SCT009 OVC035
                      TEMPO 0506/0510 3SM -RA BR BKN009 OVC030
                       FM051000 VRB04KT P6SM VCSH SCT008 OVC016
                       TEMPO 0512/0516 OVC006 FM052000 34006KT
                       P6SM SCT030 BKN150=
201211050010 TAF AMD KPAE 050010Z 0500/0524 18023G33KT P6SM -RA SCT009 OVC020
                       TEMPO 0500/0503 -RA BKN009 OVC015 FM050300
                       18017G27KT 5SM -RA BR OVC010 FM050600 23010KT
                       P6SM -SHRA BKN015 OVC030 FM050900 VRB04KT
                       P6SM VCSH BKN015 FM051800 36006KT P6SM SCT030
                       BKN150=
201211042320 TAF KPAE 042320Z 0500/0524 20020G30KT P6SM -RA OVC020
                      TEMPO 0500/0504 4SM -RA BR OVC012 FM050600
                       23010KT P6SM -SHRA BKN015 OVC030 FM050900
                       VRB04KT P6SM VCSH BKN015 FM051800 36006KT
                       P6SM SCT030 BKN150=
201211042004 TAF AMD KPAE 042004Z 0420/0518 17012G22KT P6SM BKN015 OVC030
                      TEMPO 0420/0423 SCT020 BKN050 FM042300 19012G22KT
                       P6SM -RA BKN015 OVC030 FM050600 23010KT
                       P6SM VCSH BKN020 FM051600 VRB03KT P6SM BKN030=
201211041730 TAF KPAE 041730Z 0418/0518 16010KT P6SM BKN015 OVC030 FM042200
                       19010KT P6SM -RA OVC020 FM051600 VRB03KT
                       P6SM BKN030=
201211041438 TAF AMD KPAE 041438Z 0415/0512 15008KT P6SM VCFG SCT003 OVC030
                       TEMPO 0415/0417 4SM BR OVC003 FM041700 16011KT
                       P6SM VCSH SCT025 OVC045 FM050100 18010G22KT
                       P6SM VCSH OVC025 FM050600 19012KT P6SM -RA
                       OVC012=
201211041121 TAF KPAE 041121Z 0412/0512 15009KT P6SM VCSH SCT035 BKN045 OVC060
                       TEMPO 0412/0416 -RA BKN022 OVC040 FM041600
                       16011KT P6SM VCSH SCT025 OVC045 FM050100
                       18010G22KT P6SM VCSH OVC025 FM050600 19012KT
                       P6SM -RA OVC012=
201211040649 TAF AMD KPAE 040649Z 0407/0506 16005KT P6SM VCSH BKN010 OVC016
                       TEMPO 0407/0411 SCT015 OVC080 FM041600 16011KT
                       P6SM VCSH SCT025 OVC045 FM050100 16010KT
                       P6SM VCSH OVC025=
201211040520 TAF KPAE 040520Z 0406/0506 18008KT P6SM VCSH OVC080 FM041600 16011KT
                       P6SM VCSH SCT025 OVC045 FM050100 16010KT
                       P6SM VCSH OVC025=
201211032359 TAF KPAE 032359Z 0400/0424 18012KT P6SM BKN070 OVC100
                      TEMPO 0400/0403 18015G25KT 5SM -RA BR BKN009
                       OVC020 FM040500 14008KT P6SM VCSH OVC020
                       FM040800 13005KT 4SM -RA BR OVC008 FM041700
                       15008KT P6SM VCSH BKN015 OVC025=
201211031756 TAF KPAE 031756Z 0318/0418 17010G20KT P6SM SCT020 OVC090 FM032000
                       18010KT P6SM -RA OVC020 FM040500 14008KT
                       P6SM VCSH OVC020 FM040800 13005KT P6SM OVC010=
201211031303 TAF AMD KPAE 031303Z 0313/0412 15013KT P6SM SCT005 OVC020
                      TEMPO 0313/0315 BKN005 OVC020 FM031800 16009KT
                       4SM -RA OVC025 FM040400 15006KT P6SM VCSH
                       OVC015=
201211031227 TAF AMD KPAE 031227Z 0312/0412 15013KT P6SM SCT005 OVC028
                      TEMPO 0312/0315 BKN005 OVC028 FM031800 16009KT
                       4SM -RA OVC025 FM040400 15006KT P6SM VCSH
                       OVC015=
201211031120 TAF KPAE 031120Z 0312/0412 16008KT P6SM OVC030 FM031800 16009KT
                       4SM -RA OVC025 FM040400 15006KT P6SM VCSH
                       OVC015=
201211030529 TAF KPAE 030529Z 0306/0406 16005KT P6SM -RA SCT070 OVC090 FM031100
                       15008KT 5SM -RA BR OVC015 FM032100 16010KT
                       P6SM VCSH OVC025=
201211022320 TAF KPAE 022320Z 0300/0324 VRB03KT P6SM -RA BKN050 OVC090 FM030600
                       16007KT P6SM -RA OVC030 FM031200 18008KT
                       5SM -SHRA BR OVC020 FM031800 20006KT P6SM
                       VCSH BKN025 BKN050=
201211021720 TAF KPAE 021720Z 0218/0318 17006KT P6SM SCT050 OVC120 FM030000
                       17008KT P6SM -RA OVC050 FM031000 18008KT
                       P6SM -RA OVC030=
201211021120 TAF KPAE 021120Z 0212/0312 16009KT P6SM FEW035 BKN070 FM021800
                       16005KT P6SM SCT015 OVC090 FM022300 19005KT
                       P6SM OVC070 FM030200 15005KT P6SM -RA OVC040
                       FM030600 16008KT P6SM -RA BKN025 OVC040=
201211020528 TAF KPAE 020528Z 0206/0306 16011KT P6SM VCSH SCT010 BKN050 FM020900
                       16004KT P6SM SCT010 OVC025 FM021800 16005KT
                       P6SM SCT015 OVC090 FM030100 19005KT P6SM
                       OVC070 FM030200 15005KT P6SM -RA OVC040=
201211012320 TAF KPAE 012320Z 0200/0224 18008KT P6SM SCT020 BKN040
                      TEMPO 0200/0204 BKN020 OVC040 FM020400 18008KT
                       P6SM BKN020 FM021700 14006KT P6SM SCT020
                       BKN100 FM022200 16008KT P6SM OVC080=
201211012100 TAF AMD KPAE 012100Z 0121/0218 18008KT P6SM BKN025 BKN060 FM020900
                       15005KT P6SM BKN015 BKN040 FM021700 12005KT
                       P6SM SCT020 SCT050 BKN120=
201211011723 TAF KPAE 011723Z 0118/0218 VRB04KT P6SM -SHRA OVC030 FM012000 15005KT
                       P6SM SCT035 BKN050 FM020900 15005KT P6SM
                       BKN015 BKN040 FM021700 12005KT P6SM SCT020
                       SCT050 BKN120=
201211011534 TAF AMD KPAE 011534Z 0116/0212 16007KT 5SM -RA BR BKN007 OVC015
                       FM011800 16007KT P6SM -SHRA SCT007 BKN015
                       OVC040 FM012100 18007KT P6SM SCT018 BKN035
                       FM020900 18006KT P6SM BKN012 BKN030=
201211011120 TAF KPAE 011120Z 0112/0212 VRB03KT P6SM -RA SCT070 OVC080 FM011700
                       16005KT P6SM -SHRA OVC015 FM012300 16005KT
                       P6SM SCT018 BKN035=
201211010535 TAF KPAE 010535Z 0106/0206 14006KT P6SM VCSH BKN050 FM011200 15005KT
                       6SM -SHRA OVC015 FM011700 16005KT P6SM VCSH
                       OVC015 FM012300 16005KT P6SM SCT018 BKN035=