##########################################################
# Query made at 02/15/2025 20:36:22 UTC
# Time interval: from 04/01/2012 00:00  to 04/30/2012 23:59  UTC
##########################################################

##########################################################
# KPAE, Everett, Snohomish County Airport (United States)
# WMO index: -----. WIGOS ID: Unknown
# Latitude 47-55-23N. Longitude 122-16-57W. Altitude 184 m.
##########################################################

###################################
#  METAR/SPECI from KPAE
###################################
201204302353 METAR KPAE 302353Z VRB05G16KT 10SM OVC033 11/06 A2975 RMK AO2 RAB05E14 SLP074 P0000 60000 T01110061 10139 20100 53018=
201204302253 METAR KPAE 302253Z 20014G22KT 10SM BKN033 OVC044 12/06 A2973 RMK AO2 PK WND 20028/2223 SLP069 T01220056=
201204302153 METAR KPAE 302153Z COR 20021G27KT 10SM BKN041 12/06 A2971 RMK AO2 PK WND 20033/2124 SLP061 T01220061=
201204302053 METAR KPAE 302053Z 20021G31KT 10SM SCT022 SCT110 13/07 A2969 RMK AO2 PK WND 19035/2040 SLP055 T01280067 51004=
201204301953 METAR KPAE 301953Z 19021G30KT 10SM SCT022 BKN028 BKN090 13/07 A2968 RMK AO2 PK WND 20032/1918 SLP052 T01280072=
201204301853 METAR KPAE 301853Z 21018G26KT 10SM BKN015 OVC030 12/07 A2970 RMK AO2 PK WND 23026/1853 SLP056 T01220072 $=
201204301753 METAR KPAE 301753Z 21014G22KT 10SM SCT015 OVC021 11/07 A2968 RMK AO2 SLP052 60001 T01110072 10111 20083 53014 $=
201204301725 SPECI KPAE 301725Z 21015G24KT 10SM OVC015 11/07 A2967 RMK AO2=
201204301725 SPECI KPAE 301725Z 21015G24KT 10SM OVC015 11/07 A2967 RMK AO2=
201204301653 METAR KPAE 301653Z 20014G23KT 10SM BKN009 OVC013 10/07 A2966 RMK AO2 PK WND 20027/1606 SLP045 T01000072=
201204301553 METAR KPAE 301553Z 20017G25KT 10SM OVC009 10/07 A2965 RMK AO2 PK WND 19030/1530 RAB1459E13 SLP041 P0000 T01000072=
201204301453 METAR KPAE 301453Z 19017G23KT 7SM BKN005 OVC014 09/07 A2964 RMK AO2 SLP037 60001 T00940072 56010=
201204301353 METAR KPAE 301353Z 19014KT 10SM BKN009 OVC013 09/07 A2964 RMK AO2 CIG 006V010 SLP038 T00890067=
201204301253 METAR KPAE 301253Z AUTO 18014G20KT 10SM OVC007 08/07 A2966=
201204301153 METAR KPAE 301153Z AUTO 17012G18KT 8SM -RA BKN007 OVC050 08/06 A2967 RMK AO2 SLP048 P0005 60026 70026 T00830061 10122 20072 56023=
201204301139 SPECI KPAE 301139Z AUTO 17012G20KT 10SM -RA BKN007 BKN043 OVC050 08/06 A2968 RMK AO2 P0004=
201204301139 SPECI KPAE 301139Z AUTO 17012G20KT 10SM -RA BKN007 BKN043 OVC050 08/06 A2968 RMK AO2 P0004=
201204301102 SPECI KPAE 301102Z AUTO 17010KT 9SM -RA FEW005 OVC049 08/06 A2969 RMK AO2 P0001=
201204301102 SPECI KPAE 301102Z AUTO 17010KT 9SM -RA FEW005 OVC049 08/06 A2969 RMK AO2 P0001=
201204301053 METAR KPAE 301053Z AUTO 17011G19KT 10SM -RA FEW019 OVC049 08/06 A2969 RMK AO2 SLP054 P0002 T00780061=
201204300953 METAR KPAE 300953Z AUTO 17012KT 10SM -RA FEW036 OVC049 08/06 A2971 RMK AO2 SLP060 P0003 T00780056=
201204300853 METAR KPAE 300853Z AUTO 17010KT 10SM -RA SCT035 SCT042 OVC049 08/06 A2974 RMK AO2 SLP071 P0006 60016 T00830056 58026=
201204300753 METAR KPAE 300753Z AUTO 21011KT 8SM -RA FEW033 OVC045 09/07 A2977=
201204300653 METAR KPAE 300653Z AUTO 20010KT 10SM -RA FEW025 OVC050 11/08 A2980 RMK AO2 RAB0556 SLP090 P0005 T01060078=
201204300553 METAR KPAE 300553Z AUTO 20011KT 10SM SCT029 BKN034 OVC090 12/07 A2982 RMK AO2 RAB24E34B50E52 SLP097 P0000 60000 T01220067 10156 20122 58029=
201204300515 SPECI KPAE 300515Z AUTO 19011KT 10SM OVC029 13/08 A2984 RMK AO2=
201204300515 SPECI KPAE 300515Z AUTO 19011KT 10SM OVC029 13/08 A2984 RMK AO2=
201204300453 METAR KPAE 300453Z 20009KT 10SM BKN031 OVC044 13/08 A2985 RMK AO2 SLP109 T01280078=
201204300353 METAR KPAE 300353Z 20005KT 10SM SCT039 BKN120 13/07 A2988=
201204300253 METAR KPAE 300253Z 18006KT 10SM BKN110 14/07 A2990=
201204300153 METAR KPAE 300153Z 17006KT 10SM FEW034 14/07 A2994 RMK AO2 SLP138 T01440067=
201204300053 METAR KPAE 300053Z 00000KT 10SM OVC060 14/08 A2997=
201204292353 METAR KPAE 292353Z 00000KT 10SM OVC060 13/08 A3000 RMK AO2 SLP160 T01330083 10144 20100 56026=
201204292253 METAR KPAE 292253Z 00000KT 10SM OVC055 14/08 A3002 RMK AO2 SLP167 T01390083=
201204292204 SPECI KPAE 292204Z 32003KT 10SM SCT021 BKN032 OVC060 13/08 A3005 RMK AO2=
201204292204 SPECI KPAE 292204Z 32003KT 10SM SCT021 BKN032 OVC060 13/08 A3005 RMK AO2=
201204292153 METAR KPAE 292153Z 29004KT 10SM BKN021 BKN032 OVC060 13/08 A3005 RMK AO2 SLP178 T01280083=
201204292100 SPECI KPAE 292100Z 00000KT 10SM OVC019 13/08 A3007 RMK AO2=
201204292100 SPECI KPAE 292100Z 00000KT 10SM OVC019 13/08 A3007 RMK AO2=
201204292053 METAR KPAE 292053Z 00000KT 10SM BKN013 OVC030 13/08 A3008 RMK AO2 SLP187 T01330083 58014=
201204291953 METAR KPAE 291953Z 00000KT 10SM BKN013 OVC030 12/08 A3011=
201204291951 SPECI KPAE 291951Z VRB03KT 10SM BKN013 OVC030 12/08 A3011 RMK AO2=
201204291951 SPECI KPAE 291951Z VRB03KT 10SM BKN013 OVC030 12/08 A3011 RMK AO2=
201204291853 METAR KPAE 291853Z VRB03KT 10SM BKN005 OVC011 12/08 A3012=
201204291753 METAR KPAE 291753Z 34004KT 10SM OVC006 11/08 A3013 RMK AO2 CIG 004V009 SLP205 60000 T01060083 10106 20094 58008=
201204291743 SPECI KPAE 291743Z 35003KT 10SM OVC006 10/08 A3013 RMK AO2 CIG 003V008=
201204291743 SPECI KPAE 291743Z 35003KT 10SM OVC006 10/08 A3013 RMK AO2 CIG 003V008=
201204291653 METAR KPAE 291653Z 36005KT 6SM BR OVC002 10/08 A3014 RMK AO2 SLP207 T01000083=
201204291553 METAR KPAE 291553Z 01004KT 2SM BR OVC002 09/08 A3016 RMK AO2 SLP215 T00940083=
201204291453 METAR KPAE 291453Z VRB03KT 1/2SM R16R/2400VP6000FT FG VV002 09/08 A3016 RMK AO2 SLP214 60000 T00940083 55002=
201204291353 METAR KPAE 291353Z 35003KT 1/4SM R16R/2200VP6000FT FG VV002 09/08 A3015 RMK AO2 RAB16E26 SLP210 P0000 T00940083=
201204291351 SPECI KPAE 291351Z 34004KT 1/4SM R16R/2600VP6000FT FG VV002 09/08 A3015 RMK AO2 RAB16E26 P0000=
201204291351 SPECI KPAE 291351Z 34004KT 1/4SM R16R/2600VP6000FT FG VV002 09/08 A3015 RMK AO2 RAB16E26 P0000=
201204291342 SPECI KPAE 291342Z 00000KT 1/2SM R16R/3000VP6000FT FG VV002 09/08 A3015 RMK AO2 RAB16E26 P0000=
201204291342 SPECI KPAE 291342Z 00000KT 1/2SM R16R/3000VP6000FT FG VV002 09/08 A3015 RMK AO2 RAB16E26 P0000=
201204291321 SPECI KPAE 291321Z 34003KT 1SM R16R/4500VP6000FT -RA BR VV002 09/08 A3016 RMK AO2 RAB16 P0000=
201204291321 SPECI KPAE 291321Z 34003KT 1SM R16R/4500VP6000FT -RA BR VV002 09/08 A3016 RMK AO2 RAB16 P0000=
201204291309 SPECI KPAE 291309Z 35004KT 1/2SM R16R/2400VP6000FT FG VV001 09/08 A3016 RMK AO2=
201204291309 SPECI KPAE 291309Z 35004KT 1/2SM R16R/2400VP6000FT FG VV001 09/08 A3016 RMK AO2=
201204291300 SPECI KPAE 291300Z 34003KT 3/4SM R16R/4500VP6000FT BR VV002 09/08 A3016 RMK AO2=
201204291300 SPECI KPAE 291300Z 34003KT 3/4SM R16R/4500VP6000FT BR VV002 09/08 A3016 RMK AO2=
201204291253 METAR KPAE 291253Z VRB04KT 1 1/4SM BR OVC001 09/08 A3017 RMK AO2 SLP216 T00940083=
201204291237 SPECI KPAE 291237Z 34003KT 2SM BR OVC001 09/08 A3017 RMK AO2=
201204291237 SPECI KPAE 291237Z 34003KT 2SM BR OVC001 09/08 A3017 RMK AO2=
201204291225 SPECI KPAE 291225Z VRB04KT 1/2SM R16R/1200V2600FT FG VV001 09/08 A3016 RMK AO2=
201204291225 SPECI KPAE 291225Z VRB04KT 1/2SM R16R/1200V2600FT FG VV001 09/08 A3016 RMK AO2=
201204291222 SPECI KPAE 291222Z 35004KT 1/4SM R16R/1200V1800FT FG VV001 09/08 A3016 RMK AO2=
201204291222 SPECI KPAE 291222Z 35004KT 1/4SM R16R/1200V1800FT FG VV001 09/08 A3016 RMK AO2=
201204291212 SPECI KPAE 291212Z 35003KT 1/2SM R16R/1200V2400FT FG VV001 09/08 A3016 RMK AO2=
201204291212 SPECI KPAE 291212Z 35003KT 1/2SM R16R/1200V2400FT FG VV001 09/08 A3016 RMK AO2=
201204291204 SPECI KPAE 291204Z 35003KT 1/2SM R16R/1400V2000FT FG VV001 09/08 A3016 RMK AO2=
201204291204 SPECI KPAE 291204Z 35003KT 1/2SM R16R/1400V2000FT FG VV001 09/08 A3016 RMK AO2=
201204291153 METAR KPAE 291153Z 36003KT 3/4SM R16R/1800V2800FT BR VV001 09/08 A3016 RMK AO2 SLP214 60000 T00940083 10117 20094 58012=
201204291144 SPECI KPAE 291144Z 36004KT 3/4SM R16R/2000V3000FT BR VV001 09/08 A3016 RMK AO2=
201204291144 SPECI KPAE 291144Z 36004KT 3/4SM R16R/2000V3000FT BR VV001 09/08 A3016 RMK AO2=
201204291125 SPECI KPAE 291125Z 35004KT 1 3/4SM R16R/6000VP6000FT BR OVC002 09/08 A3017 RMK AO2 VIS 1 1/4V3=
201204291125 SPECI KPAE 291125Z 35004KT 1 3/4SM R16R/6000VP6000FT BR OVC002 09/08 A3017 RMK AO2 VIS 1 1/4V3=
201204291053 METAR KPAE 291053Z 35004KT 10SM OVC002 09/08 A3018 RMK AO2 SLP221 T00940078=
201204291038 SPECI KPAE 291038Z 35004KT 10SM BKN004 OVC016 09/07 A3019 RMK AO2=
201204291038 SPECI KPAE 291038Z 35004KT 10SM BKN004 OVC016 09/07 A3019 RMK AO2=
201204291031 SPECI KPAE 291031Z 35004KT 10SM BKN006 OVC016 09/07 A3019 RMK AO2=
201204291031 SPECI KPAE 291031Z 35004KT 10SM BKN006 OVC016 09/07 A3019 RMK AO2=
201204291007 SPECI KPAE 291007Z 36004KT 10SM FEW006 OVC016 09/08 A3019 RMK AO2=
201204291007 SPECI KPAE 291007Z 36004KT 10SM FEW006 OVC016 09/08 A3019 RMK AO2=
201204290953 METAR KPAE 290953Z 36003KT 10SM OVC018 10/08 A3019 RMK AO2 SLP225 T01000078=
201204290853 METAR KPAE 290853Z 36004KT 10SM OVC026 10/08 A3020 RMK AO2 RAE0758 SLP226 P0000 60000 T01000078 55005=
201204290837 SPECI KPAE 290837Z 00000KT 10SM BKN026 BKN038 OVC055 10/08 A3020 RMK AO2 RAE0758 P0000=
201204290837 SPECI KPAE 290837Z 00000KT 10SM BKN026 BKN038 OVC055 10/08 A3020 RMK AO2 RAE0758 P0000=
201204290806 SPECI KPAE 290806Z 36003KT 10SM SCT021 BKN043 OVC060 10/07 A3019 RMK AO2 RAE0758 P0000=
201204290806 SPECI KPAE 290806Z 36003KT 10SM SCT021 BKN043 OVC060 10/07 A3019 RMK AO2 RAE0758 P0000=
201204290753 METAR KPAE 290753Z 36004KT 10SM -RA BKN021 BKN043 OVC060 10/08 A3019 RMK AO2 RAB32 SLP226 P0000 T01000078 401560078=
201204290653 METAR KPAE 290653Z 00000KT 10SM OVC037 11/07 A3020 RMK AO2 SLP228 T01110072=
201204290553 METAR KPAE 290553Z 01003KT 10SM OVC037 12/08 A3021 RMK AO2 SLP231 T01170078 10150 20117 51004=
201204290453 METAR KPAE 290453Z 00000KT 10SM OVC039 12/08 A3021 RMK AO2 SLP230 T01220078=
201204290353 METAR KPAE 290353Z 36004KT 10SM OVC043 13/07 A3020 RMK AO2 SLP229 T01280072=
201204290253 METAR KPAE 290253Z 25004KT 10SM OVC070 14/07 A3020 RMK AO2 SLP227 T01390067 58005=
201204290153 METAR KPAE 290153Z 25006KT 10SM BKN070 OVC095 14/07 A3021 RMK AO2 SLP230 T01440067=
201204290053 METAR KPAE 290053Z 25006KT 10SM BKN042 BKN075 BKN100 14/07 A3022 RMK AO2 SLP233 T01440067=
201204282353 METAR KPAE 282353Z 27008KT 10SM FEW040 15/07 A3021 RMK AO2 SLP232 T01500067 10156 20117 58012=
201204282253 METAR KPAE 282253Z 25009KT 10SM BKN038 15/06 A3023 RMK AO2 SLP238 T01500061=
201204282153 METAR KPAE 282153Z 26007KT 10SM SCT040 OVC070 14/06 A3024 RMK AO2 SLP241 T01440061=
201204282053 METAR KPAE 282053Z 24007KT 10SM OVC038 14/06 A3025=
201204281953 METAR KPAE 281953Z 25007KT 10SM OVC036 13/06 A3025 RMK AO2 SLP246 T01330061=
201204281853 METAR KPAE 281853Z 19008KT 10SM OVC032 13/05 A3027 RMK AO2 SLP251 T01330050=
201204281753 METAR KPAE 281753Z 15006KT 10SM OVC032 12/04 A3027=
201204281653 METAR KPAE 281653Z 19007KT 10SM SCT023 BKN032 11/04 A3027 RMK AO2 SLP250 T01110044=
201204281553 METAR KPAE 281553Z 19007KT 10SM FEW023 BKN032 11/04 A3027 RMK AO2 SLP252 T01060044=
201204281453 METAR KPAE 281453Z VRB03KT 10SM SCT065 BKN110 09/04 A3028 RMK AO2 SLP254 T00890044 53002=
201204281353 METAR KPAE 281353Z 12005KT 10SM SCT032 OVC075 08/04 A3027 RMK AO2 SLP252 T00780044=
201204281307 SPECI KPAE 281307Z AUTO VRB03KT 10SM SCT030 BKN120 08/04 A3026 RMK AO2=
201204281307 SPECI KPAE 281307Z AUTO VRB03KT 10SM SCT030 BKN120 08/04 A3026 RMK AO2=
201204281253 METAR KPAE 281253Z AUTO 15005KT 10SM BKN028 OVC120 08/04 A3026 RMK AO2 SLP249 T00830044=
201204281220 SPECI KPAE 281220Z AUTO 15005KT 10SM OVC028 08/04 A3027 RMK AO2=
201204281220 SPECI KPAE 281220Z AUTO 15005KT 10SM OVC028 08/04 A3027 RMK AO2=
201204281153 METAR KPAE 281153Z AUTO VRB04KT 10SM OVC030 08/04 A3027 RMK AO2 SLP251 T00830044 10089 20083 56003=
201204281053 METAR KPAE 281053Z AUTO 15004KT 10SM FEW030 OVC075 08/04 A3027 RMK AO2 SLP251 T00830044=
201204280953 METAR KPAE 280953Z AUTO VRB04KT 10SM BKN035 OVC060 08/05 A3027 RMK AO2 SLP252 T00830050=
201204280853 METAR KPAE 280853Z AUTO 15009KT 10SM SCT065 OVC085 08/05 A3028 RMK AO2 SLP254 T00830050 50001=
201204280753 METAR KPAE 280753Z AUTO 15010KT 10SM OVC090 09/05 A3028=
201204280653 METAR KPAE 280653Z AUTO 16010KT 10SM OVC090 09/05 A3028 RMK AO2 SLP256 T00890050=
201204280553 METAR KPAE 280553Z AUTO 16010KT 10SM OVC095 09/04 A3027 RMK AO2 SLP254 T00890044 10122 20089 50005=
201204280453 METAR KPAE 280453Z AUTO 18009KT 10SM OVC100 09/04 A3028 RMK AO2 SLP255 T00940044=
201204280353 METAR KPAE 280353Z AUTO 20010KT 10SM OVC095 10/04 A3027 RMK AO2 SLP253 T01000039=
201204280253 METAR KPAE 280253Z 20008KT 10SM BKN065 OVC075 11/03 A3026=
201204280153 METAR KPAE 280153Z 19008KT 10SM OVC100 12/03 A3026 RMK AO2 SLP248 T01170033=
201204280053 METAR KPAE 280053Z 21010KT 10SM FEW045 OVC100 12/02 A3025=
201204272353 METAR KPAE 272353Z 21012KT 10SM FEW044 OVC100 12/03 A3026 RMK AO2 SLP247 T01220028 10133 20094 55002=
201204272253 METAR KPAE 272253Z 20014G19KT 10SM CLR 13/01 A3025 RMK AO2 SLP247 T01280006=
201204272153 METAR KPAE 272153Z 18013G21KT 10SM SCT042 BKN049 13/02 A3026 RMK AO2 SLP248 T01280017=
201204272053 METAR KPAE 272053Z 18012G20KT 10SM BKN037 12/03 A3026 RMK AO2 SLP249 T01220028 50001=
201204271953 METAR KPAE 271953Z 20014KT 10SM BKN033 BKN042 11/03 A3026 RMK AO2 SLP250 T01110033=
201204271853 METAR KPAE 271853Z 20015G19KT 10SM BKN031 OVC035 11/03 A3026 RMK AO2 SLP250 T01110033=
201204271753 METAR KPAE 271753Z 18013KT 10SM BKN031 10/03 A3026 RMK AO2 SLP248 T01000033 10100 20067 52012=
201204271653 METAR KPAE 271653Z 17010KT 10SM OVC023 08/03 A3024=
201204271553 METAR KPAE 271553Z 19010KT 10SM BKN016 OVC022 08/03 A3024 RMK AO2 SLP241 T00780033=
201204271453 METAR KPAE 271453Z 18009KT 10SM OVC017 07/03 A3022 RMK AO2 SLP236 T00720033 51021=
201204271353 METAR KPAE 271353Z 18011KT 10SM OVC015 07/03 A3020 RMK AO2 SLP230 T00720033=
201204271253 METAR KPAE 271253Z AUTO 19009KT 10SM OVC015 07/03 A3018=
201204271153 METAR KPAE 271153Z AUTO 19012KT 10SM OVC017 07/03 A3016 RMK AO2 SLP214 70020 T00670033 10072 20061 51028=
201204271053 METAR KPAE 271053Z AUTO 19009KT 10SM BKN017 07/03 A3013 RMK AO2 SLP206 T00670033=
201204271002 SPECI KPAE 271002Z AUTO 20011KT 10SM FEW013 SCT020 SCT025 07/03 A3010 RMK AO2=
201204271002 SPECI KPAE 271002Z AUTO 20011KT 10SM FEW013 SCT020 SCT025 07/03 A3010 RMK AO2=
201204270953 METAR KPAE 270953Z AUTO 20009KT 10SM BKN020 07/03 A3010 RMK AO2 SLP195 T00670033=
201204270853 METAR KPAE 270853Z AUTO 20010KT 10SM OVC024 07/04 A3007 RMK AO2 SLP185 T00670039 51029=
201204270839 SPECI KPAE 270839Z AUTO 20009KT 10SM BKN024 BKN080 07/04 A3007 RMK AO2=
201204270839 SPECI KPAE 270839Z AUTO 20009KT 10SM BKN024 BKN080 07/04 A3007 RMK AO2=
201204270753 METAR KPAE 270753Z AUTO 21010KT 10SM FEW035 SCT042 07/04 A3005=
201204270738 SPECI KPAE 270738Z AUTO 19010KT 10SM SCT030 BKN035 07/04 A3004 RMK AO2=
201204270738 SPECI KPAE 270738Z AUTO 19010KT 10SM SCT030 BKN035 07/04 A3004 RMK AO2=
201204270700 SPECI KPAE 270700Z AUTO 20011KT 10SM BKN026 07/04 A3002 RMK AO2=
201204270700 SPECI KPAE 270700Z AUTO 20011KT 10SM BKN026 07/04 A3002 RMK AO2=
201204270653 METAR KPAE 270653Z AUTO 20012KT 10SM SCT024 07/03 A3001 RMK AO2 SLP166 T00720033=
201204270626 SPECI KPAE 270626Z AUTO 19010KT 10SM FEW026 07/03 A3000 RMK AO2=
201204270626 SPECI KPAE 270626Z AUTO 19010KT 10SM FEW026 07/03 A3000 RMK AO2=
201204270553 METAR KPAE 270553Z AUTO 19008KT 10SM BKN028 OVC043 07/03 A2998 RMK AO2 SLP156 60001 T00720033 10106 20072 51026=
201204270548 SPECI KPAE 270548Z AUTO 18010KT 10SM BKN026 BKN043 08/03 A2998 RMK AO2=
201204270548 SPECI KPAE 270548Z AUTO 18010KT 10SM BKN026 BKN043 08/03 A2998 RMK AO2=
201204270526 SPECI KPAE 270526Z AUTO 19007KT 10SM SCT022 07/04 A2997 RMK AO2=
201204270526 SPECI KPAE 270526Z AUTO 19007KT 10SM SCT022 07/04 A2997 RMK AO2=
201204270500 SPECI KPAE 270500Z AUTO 19010KT 10SM BKN022 08/04 A2995 RMK AO2=
201204270500 SPECI KPAE 270500Z AUTO 19010KT 10SM BKN022 08/04 A2995 RMK AO2=
201204270453 METAR KPAE 270453Z AUTO 19012KT 10SM SCT024 08/03 A2994 RMK AO2 SLP143 T00780033=
201204270353 METAR KPAE 270353Z 19011KT 10SM FEW100 08/04 A2990 RMK AO2 SLP128 T00830039=
201204270253 METAR KPAE 270253Z VRB05KT 10SM FEW026 09/05 A2988 RMK AO2 RAE07 SLP118 P0001 60001 T00890050 53025=
201204270153 METAR KPAE 270153Z COR 07004KT 10SM -RA SCT022 BKN029 BKN034 09/04 A2985 RMK AO2 RAB41 SLP109 P0000 T00940044=
201204270053 METAR KPAE 270053Z 03008KT 10SM SCT030 11/04 A2982 RMK AO2 RAE00 SLP100 P0000 T01060039=
201204262353 METAR KPAE 262353Z 01006KT 10SM -RA SCT037 SCT050 OVC065 11/04 A2980 RMK AO2 RAB08E20B48 SLP093 P0000 60002 T01060044 10111 20078 51023=
201204262253 METAR KPAE 262253Z 01010G14KT 10SM SCT024 BKN045 OVC050 11/04 A2979 RMK AO2 SLP088 T01060044=
201204262153 METAR KPAE 262153Z 36008KT 10SM FEW037 BKN050 11/04 A2976 RMK AO2 SLP080 T01060044=
201204262053 METAR KPAE 262053Z 01007KT 10SM SCT033 BKN050 11/06 A2973 RMK AO2 SLP068 P0001 60002 T01060056 51023=
201204262030 SPECI KPAE 262030Z 01007KT 10SM FEW029 SCT038 BKN049 10/06 A2972=
201204262030 SPECI KPAE 262030Z 01007KT 10SM FEW029 SCT038 BKN049 10/06 A2972 RMK AO2 P0001=
201204262023 SPECI KPAE 262023Z 36006KT 10SM FEW022 BKN029 BKN039 09/06 A2972 RMK AO2 P0001=
201204262023 SPECI KPAE 262023Z 36006KT 10SM FEW022 BKN029 BKN039 09/06 A2972 RMK AO2 P0001=
201204262016 SPECI KPAE 262016Z VRB05KT 10SM FEW008 BKN031 OVC050 09/06 A2972 RMK AO2 P0001=
201204262016 SPECI KPAE 262016Z VRB05KT 10SM FEW008 BKN031 OVC050 09/06 A2972 RMK AO2 P0001=
201204262000 SPECI KPAE 262000Z 34004KT 10SM SCT012 OVC024 09/06 A2971 RMK AO2=
201204262000 SPECI KPAE 262000Z 34004KT 10SM SCT012 OVC024 09/06 A2971 RMK AO2=
201204261953 METAR KPAE 261953Z VRB03KT 10SM BKN006 OVC018 08/06 A2971 RMK AO2 RAE07 SLP062 P0000 T00830056=
201204261907 SPECI KPAE 261907Z 00000KT 8SM BKN006 OVC018 08/06 A2969 RMK AO2 RAE07 P0000=
201204261907 SPECI KPAE 261907Z 00000KT 8SM BKN006 OVC018 08/06 A2969 RMK AO2 RAE07 P0000=
201204261900 SPECI KPAE 261900Z 00000KT 10SM -RA SCT006 OVC018 08/06 A2968 RMK AO2 P0000=
201204261900 SPECI KPAE 261900Z 00000KT 10SM -RA SCT006 OVC018 08/06 A2968 RMK AO2 P0000=
201204261853 METAR KPAE 261853Z 00000KT 7SM -RA FEW003 BKN006 OVC014 08/06 A2969 RMK AO2 SLP054 P0001 T00780056=
201204261753 METAR KPAE 261753Z 29003KT 10SM -RA FEW003 BKN006 OVC014 08/06 A2966 RMK AO2 SLP046 P0003 60017 T00780056 10100 20072 53016=
201204261725 SPECI KPAE 261725Z 33005KT 5SM -RA BR BKN006 OVC014 08/06 A2965 RMK AO2 P0002=
201204261725 SPECI KPAE 261725Z 33005KT 5SM -RA BR BKN006 OVC014 08/06 A2965 RMK AO2 P0002=
201204261702 SPECI KPAE 261702Z 33005KT 4SM -RA BR SCT006 OVC014 07/06 A2964 RMK AO2 P0000=
201204261702 SPECI KPAE 261702Z 33005KT 4SM -RA BR SCT006 OVC014 07/06 A2964 RMK AO2 P0000=
201204261653 METAR KPAE 261653Z 34005KT 4SM -RA BR BKN003 BKN008 OVC012 08/06 A2963 RMK AO2 CIG 001V006 SLP035 P0002 T00780061=
201204261553 METAR KPAE 261553Z 34004KT 3SM -RA BR OVC003 08/07 A2962 RMK AO2 SLP031 P0012 T00780067=
201204261542 SPECI KPAE 261542Z 35005KT 3SM -RA BR BKN003 BKN007 OVC016 08/07 A2962 RMK AO2 P0012=
201204261542 SPECI KPAE 261542Z 35005KT 3SM -RA BR BKN003 BKN007 OVC016 08/07 A2962 RMK AO2 P0012=
201204261525 SPECI KPAE 261525Z 00000KT 1 3/4SM R16R/4000VP6000FT -RA BR BKN003 BKN007 OVC016 09/07 A2962 RMK AO2 P0004=
201204261525 SPECI KPAE 261525Z 00000KT 1 3/4SM R16R/4000VP6000FT -RA BR BKN003 BKN007 OVC016 09/07 A2962 RMK AO2 P0004=
201204261514 SPECI KPAE 261514Z 00000KT 2 1/2SM R16R/5500VP6000FT -RA BR BKN007 BKN010 OVC035 10/08 A2961 RMK AO2 P0001=
201204261514 SPECI KPAE 261514Z 00000KT 2 1/2SM R16R/5500VP6000FT -RA BR BKN007 BKN010 OVC035 10/08 A2961 RMK AO2 P0001=
201204261508 SPECI KPAE 261508Z 17003KT 9SM SCT007 BKN013 OVC035 10/08 A2961 RMK AO2 RAE03 P0000=
201204261508 SPECI KPAE 261508Z 17003KT 9SM SCT007 BKN013 OVC035 10/08 A2961 RMK AO2 RAE03 P0000=
201204261453 METAR KPAE 261453Z 16005KT 4SM -RA BR BKN007 BKN012 OVC032 09/08 A2962 RMK AO2 RAB48 SLP029 P0000 60000 T00940078 53002=
201204261359 SPECI KPAE 261359Z 00000KT 10SM BKN007 BKN013 OVC045 09/08 A2961 RMK AO2=
201204261359 SPECI KPAE 261359Z 00000KT 10SM BKN007 BKN013 OVC045 09/08 A2961 RMK AO2=
201204261353 METAR KPAE 261353Z VRB03KT 10SM SCT007 SCT013 OVC045 09/08 A2961 RMK AO2 SLP026 T00940083=
201204261314 SPECI KPAE 261314Z AUTO VRB03KT 10SM FEW006 BKN036 OVC047 09/08 A2961 RMK AO2=
201204261314 SPECI KPAE 261314Z AUTO VRB03KT 10SM FEW006 BKN036 OVC047 09/08 A2961 RMK AO2=
201204261305 SPECI KPAE 261305Z AUTO 15004KT 10SM FEW006 BKN011 OVC037 09/08 A2961 RMK AO2=
201204261305 SPECI KPAE 261305Z AUTO 15004KT 10SM FEW006 BKN011 OVC037 09/08 A2961 RMK AO2=
201204261253 METAR KPAE 261253Z AUTO 16008KT 10SM SCT006 BKN009 OVC013 09/08 A2961 RMK AO2 SLP027 T00940078=
201204261241 SPECI KPAE 261241Z AUTO 16007KT 10SM BKN009 OVC014 09/08 A2961 RMK AO2 CIG 006V011=
201204261241 SPECI KPAE 261241Z AUTO 16007KT 10SM BKN009 OVC014 09/08 A2961 RMK AO2 CIG 006V011=
201204261225 SPECI KPAE 261225Z AUTO 15007KT 10SM FEW006 BKN011 OVC016 09/08 A2961 RMK AO2=
201204261225 SPECI KPAE 261225Z AUTO 15007KT 10SM FEW006 BKN011 OVC016 09/08 A2961 RMK AO2=
201204261153 METAR KPAE 261153Z AUTO 15008KT 10SM BKN008 OVC012 09/08 A2961 RMK AO2 RAE20 CIG 005V009 SLP026 P0001 60010 70042 T00940078 10106 20094 58004=
201204261058 SPECI KPAE 261058Z AUTO 16011KT 9SM -RA BKN006 BKN016 OVC055 09/08 A2962 RMK AO2 P0001=
201204261058 SPECI KPAE 261058Z AUTO 16011KT 9SM -RA BKN006 BKN016 OVC055 09/08 A2962 RMK AO2 P0001=
201204261053 METAR KPAE 261053Z AUTO 15010KT 10SM -RA SCT008 BKN017 OVC070 09/08 A2962 RMK AO2 SLP029 P0001 T00940078=
201204260953 METAR KPAE 260953Z AUTO 16009KT 10SM -RA FEW005 BKN055 OVC090 09/08 A2962 RMK AO2 SLP030 P0004 T00940078=
201204260853 METAR KPAE 260853Z AUTO 18012KT 10SM -RA SCT033 OVC047 10/07 A2962 RMK AO2 RAB05 SLP032 P0002 60004 T01000072 58004=
201204260753 METAR KPAE 260753Z AUTO 17009KT 10SM OVC033 10/07 A2963 RMK AO2 RAE23 SLP033 P0001 T01000072 401610100=
201204260653 METAR KPAE 260653Z AUTO 19014KT 10SM -RA BKN030 OVC036 10/07 A2963 RMK AO2 RAE02B37 SLP035 P0001 T01000072=
201204260617 SPECI KPAE 260617Z AUTO 20014G21KT 10SM BKN029 OVC036 10/07 A2964 RMK AO2 RAE02 P0000=
201204260617 SPECI KPAE 260617Z AUTO 20014G21KT 10SM BKN029 OVC036 10/07 A2964 RMK AO2 RAE02 P0000=
201204260553 METAR KPAE 260553Z AUTO 19013KT 10SM -RA BKN036 OVC070 11/08 A2964 RMK AO2 SLP036 P0002 60018 T01060083 10161 20106 50000=
201204260453 METAR KPAE 260453Z AUTO 20014KT 10SM -RA FEW013 OVC033 12/10 A2964 RMK AO2 SLP037 P0001 T01170100=
201204260448 SPECI KPAE 260448Z AUTO 19011KT 10SM -RA SCT013 OVC033 12/10 A2964 RMK AO2 P0001=
201204260448 SPECI KPAE 260448Z AUTO 19011KT 10SM -RA SCT013 OVC033 12/10 A2964 RMK AO2 P0001=
201204260408 SPECI KPAE 260408Z AUTO 15010KT 10SM -RA BKN023 BKN040 OVC080 12/11 A2964 RMK AO2 P0000=
201204260408 SPECI KPAE 260408Z AUTO 15010KT 10SM -RA BKN023 BKN040 OVC080 12/11 A2964 RMK AO2 P0000=
201204260353 METAR KPAE 260353Z AUTO 16008KT 10SM -RA FEW025 SCT060 OVC085 12/11 A2964 RMK AO2 RAB28 SLP036 P0000 T01220106=
201204260253 METAR KPAE 260253Z 18010KT 10SM FEW070 OVC100 13/09 A2963 RMK AO2 RAE46 SLP033 P0002 60015 T01280094 56006=
201204260153 METAR KPAE 260153Z 20009KT 5SM RA BR SCT017 OVC034 12/11 A2964 RMK AO2 RAB0058 SLP037 P0013 T01220106=
201204260053 METAR KPAE 260053Z 25007KT 10SM SCT017 OVC034 13/10 A2964 RMK AO2 SLP035 T01330100=
201204252353 METAR KPAE 252353Z 15009G17KT 10SM BKN070 OVC090 16/11 A2965 RMK AO2 SLP038 60006 T01610106 10161 20122 56027=
201204252253 METAR KPAE 252253Z 15009G17KT 10SM FEW070 BKN090 16/11 A2967 RMK AO2 RAE2154 SLP048 T01560111=
201204252153 METAR KPAE 252153Z VRB04KT 10SM -RA OVC075 14/11 A2970 RMK AO2 SLP056 P0001 T01440111=
201204252053 METAR KPAE 252053Z 15008KT 100V160 10SM -RA OVC065 14/11 A2973 RMK AO2 SLP066 P0001 60005 T01440111 56012=
201204251953 METAR KPAE 251953Z VRB05KT 10SM -RA BKN055 OVC070 14/12 A2973 RMK AO2 SLP068 P0003 T01390117=
201204251853 METAR KPAE 251853Z VRB04KT 10SM -RA BKN055 OVC070 13/11 A2975 RMK AO2 RAE01B38 SLP073 P0001 T01330111=
201204251753 METAR KPAE 251753Z 13004KT 10SM -RA SCT004 BKN040 OVC050 12/11 A2976 RMK AO2 SLP079 P0001 60008 T01220106 10122 20106 58008=
201204251725 SPECI KPAE 251725Z 13004KT 9SM -RA SCT004 BKN040 OVC050 12/10 A2976 RMK AO2 P0001=
201204251725 SPECI KPAE 251725Z 13004KT 9SM -RA SCT004 BKN040 OVC050 12/10 A2976 RMK AO2 P0001=
201204251701 SPECI KPAE 251701Z 12007KT 10SM BKN004 BKN043 OVC050 12/11 A2977 RMK AO2 RAE1656 P0000=
201204251701 SPECI KPAE 251701Z 12007KT 10SM BKN004 BKN043 OVC050 12/11 A2977 RMK AO2 RAE1656 P0000=
201204251653 METAR KPAE 251653Z VRB03KT 10SM -RA BKN043 OVC050 12/11 A2977 RMK AO2 SLP081 P0002 T01220106=
201204251553 METAR KPAE 251553Z 16007KT 5SM -RA BR BKN005 BKN014 OVC030 12/10 A2979 RMK AO2 SLP087 P0003 T01170100=
201204251551 SPECI KPAE 251551Z 16006KT 5SM -RA BR SCT005 BKN016 OVC024 12/10 A2978 RMK AO2 P0003=
201204251551 SPECI KPAE 251551Z 16006KT 5SM -RA BR SCT005 BKN016 OVC024 12/10 A2978 RMK AO2 P0003=
201204251516 SPECI KPAE 251516Z 24004KT 6SM -RA BR BKN007 OVC023 12/10 A2979 RMK AO2 P0001=
201204251516 SPECI KPAE 251516Z 24004KT 6SM -RA BR BKN007 OVC023 12/10 A2979 RMK AO2 P0001=
201204251453 METAR KPAE 251453Z 16005KT 10SM -RA FEW015 BKN021 OVC037 11/09 A2979 RMK AO2 SLP088 P0000 60002 T01110094 58010=
201204251353 METAR KPAE 251353Z VRB03KT 7SM -RA SCT020 BKN026 OVC037 11/09 A2980 RMK AO2 SLP091 P0001 T01060089=
201204251253 METAR KPAE 251253Z AUTO 16007KT 10SM -RA BKN029 OVC039 11/09 A2981 RMK AO2 RAE29B53 SLP094 P0001 T01060089=
201204251153 METAR KPAE 251153Z AUTO 16010KT 9SM -RA OVC032 11/09 A2982 RMK AO2 RAB12 SLP098 P0001 60002 70010 T01060089 10122 20106 55000=
201204251053 METAR KPAE 251053Z AUTO 17008KT 10SM OVC032 11/09 A2982 RMK AO2 RAB0956E38 SLP097 P0001 T01110089=
201204250953 METAR KPAE 250953Z AUTO 17010KT 10SM OVC038 11/09 A2981 RMK AO2 RAE10B40E51 SLP096 P0000 T01110089=
201204250853 METAR KPAE 250853Z AUTO 18011KT 9SM -RA SCT030 BKN035 OVC042 12/09 A2982 RMK AO2 RAB17 SLP097 P0000 60000 T01170094 58002=
201204250753 METAR KPAE 250753Z AUTO 17010KT 10SM BKN044 BKN060 OVC110 12/09 A2982 RMK AO2 SLP098 T01170094 401330094=
201204250709 SPECI KPAE 250709Z AUTO 17009KT 10SM FEW022 OVC046 12/09 A2982 RMK AO2=
201204250709 SPECI KPAE 250709Z AUTO 17009KT 10SM FEW022 OVC046 12/09 A2982 RMK AO2=
201204250653 METAR KPAE 250653Z AUTO 17012G19KT 10SM SCT010 BKN020 OVC048 12/09 A2982 RMK AO2 RAE08B39E48 SLP099 P0000 T01170094=
201204250629 SPECI KPAE 250629Z AUTO 20009KT 10SM SCT010 BKN029 OVC042 12/10 A2982 RMK AO2 RAE08 P0000=
201204250629 SPECI KPAE 250629Z AUTO 20009KT 10SM SCT010 BKN029 OVC042 12/10 A2982 RMK AO2 RAE08 P0000=
201204250613 SPECI KPAE 250613Z AUTO 18010KT 10SM FEW018 BKN030 OVC047 12/10 A2982 RMK AO2 RAE08 P0000=
201204250613 SPECI KPAE 250613Z AUTO 18010KT 10SM FEW018 BKN030 OVC047 12/10 A2982 RMK AO2 RAE08 P0000=
201204250553 METAR KPAE 250553Z AUTO 19010KT 6SM -RA BR BKN018 BKN025 OVC031 12/10 A2982 RMK AO2 RAB30 SLP099 P0001 60004 T01220100 10133 20122 51001=
201204250529 SPECI KPAE 250529Z AUTO 18010KT 10SM SCT014 BKN018 OVC028 12/11 A2982 RMK AO2=
201204250529 SPECI KPAE 250529Z AUTO 18010KT 10SM SCT014 BKN018 OVC028 12/11 A2982 RMK AO2=
201204250522 SPECI KPAE 250522Z AUTO 19010KT 10SM BKN014 BKN018 OVC026 12/10 A2982 RMK AO2=
201204250522 SPECI KPAE 250522Z AUTO 19010KT 10SM BKN014 BKN018 OVC026 12/10 A2982 RMK AO2=
201204250453 METAR KPAE 250453Z AUTO 17008KT 10SM BKN017 OVC024 12/10 A2982 RMK AO2 RAE24 SLP099 P0003 T01220100=
201204250431 SPECI KPAE 250431Z AUTO 17011KT 10SM FEW009 SCT013 OVC024 12/10 A2982 RMK AO2 RAE24 P0003=
201204250431 SPECI KPAE 250431Z AUTO 17011KT 10SM FEW009 SCT013 OVC024 12/10 A2982 RMK AO2 RAE24 P0003=
201204250402 SPECI KPAE 250402Z AUTO 19007KT 3SM RA BR BKN011 OVC016 12/11 A2983 RMK AO2 P0002=
201204250402 SPECI KPAE 250402Z AUTO 19007KT 3SM RA BR BKN011 OVC016 12/11 A2983 RMK AO2 P0002=
201204250353 METAR KPAE 250353Z AUTO 18005KT 6SM -RA BR OVC015 12/10 A2983 RMK AO2 RAB37 SLP100 P0000 T01220100=
201204250253 METAR KPAE 250253Z 16010KT 10SM BKN017 BKN025 OVC039 13/09 A2982 RMK AO2 SLP098 60000 T01280094 56018=
201204250153 METAR KPAE 250153Z 16010KT 10SM BKN021 OVC026 13/09 A2983 RMK AO2 SLP103 T01330089=
201204250139 SPECI KPAE 250139Z 15009KT 10SM BKN025 BKN030 OVC095 13/09 A2984 RMK AO2=
201204250139 SPECI KPAE 250139Z 15009KT 10SM BKN025 BKN030 OVC095 13/09 A2984 RMK AO2=
201204250053 METAR KPAE 250053Z 16014KT 10SM FEW014 SCT048 OVC060 13/09 A2986 RMK AO2 RAB19E32 SLP111 P0000 T01280094=
201204242355 SPECI KPAE 242355Z 16011KT 10SM FEW014 SCT048 OVC060 12/09 A2987 RMK AO2=
201204242355 SPECI KPAE 242355Z 16011KT 10SM FEW014 SCT048 OVC060 12/09 A2987 RMK AO2=
201204242353 METAR KPAE 242353Z 17010KT 10SM SCT048 OVC060 12/09 A2987 RMK AO2 RAE2254 SLP117 60003 T01220094 10122 20111 58014=
201204242253 METAR KPAE 242253Z 17010KT 10SM -RA SCT017 BKN042 OVC049 12/09 A2990 RMK AO2 SLP125 P0001 T01170089=
201204242214 SPECI KPAE 242214Z 18007KT 7SM -RA BKN017 BKN027 OVC034 12/09 A2991 RMK AO2 P0001=
201204242214 SPECI KPAE 242214Z 18007KT 7SM -RA BKN017 BKN027 OVC034 12/09 A2991 RMK AO2 P0001=
201204242153 METAR KPAE 242153Z 17010KT 7SM -RA FEW021 BKN036 OVC045 11/08 A2991 RMK AO2 RAB06 SLP130 P0001 T01110083=
201204242053 METAR KPAE 242053Z 17009KT 10SM OVC040 12/08 A2991 RMK AO2 SLP130 60001 T01170078 58005=
201204241953 METAR KPAE 241953Z 18010KT 10SM BKN042 OVC050 12/08 A2992 RMK AO2 RAE1856 SLP132 P0001 T01170083=
201204241900 SPECI KPAE 241900Z 19012KT 10SM FEW016 BKN045 OVC050 11/08 A2993 RMK AO2 RAE1856 P0000=
201204241900 SPECI KPAE 241900Z 19012KT 10SM FEW016 BKN045 OVC050 11/08 A2993 RMK AO2 RAE1856 P0000=
201204241853 METAR KPAE 241853Z 19010KT 9SM -RA OVC013 11/08 A2993 RMK AO2 SLP135 P0000 T01110083=
201204241753 METAR KPAE 241753Z 19010KT 10SM -RA OVC013 11/08 A2993 RMK AO2 RAE07B52 SLP136 P0000 60001 T01110078 10117 20094 51008=
201204241653 METAR KPAE 241653Z 19011KT 7SM -RA OVC011 11/08 A2992 RMK AO2 RAB41 SLP134 P0001 T01110083=
201204241553 METAR KPAE 241553Z 26005KT 10SM BKN011 OVC020 11/08 A2992=
201204241453 METAR KPAE 241453Z 17006KT 10SM OVC020 11/08 A2991 RMK AO2 RAB08E20 SLP127 P0000 60000 T01110078 53010=
201204241353 METAR KPAE 241353Z 00000KT 10SM OVC020 11/08 A2990 RMK AO2 SLP123 T01060078=
201204241326 SPECI KPAE 241326Z AUTO 00000KT 10SM BKN020 OVC045 11/08 A2988 RMK AO2=
201204241326 SPECI KPAE 241326Z AUTO 00000KT 10SM BKN020 OVC045 11/08 A2988 RMK AO2=
201204241253 METAR KPAE 241253Z AUTO 00000KT 10SM OVC045 11/08 A2988 RMK AO2 SLP118 T01060083=
201204241153 METAR KPAE 241153Z AUTO 00000KT 10SM CLR 10/07 A2988 RMK AO2 SLP117 T01000072 10106 20094 53004=
201204241053 METAR KPAE 241053Z AUTO 00000KT 10SM CLR 10/08 A2986=
201204240953 METAR KPAE 240953Z AUTO 04004KT 10SM FEW075 10/08 A2985 RMK AO2 SLP108 T01000078=
201204240853 METAR KPAE 240853Z AUTO 35005KT 10SM BKN049 11/08 A2986 RMK AO2 SLP112 T01060078 50004=
201204240753 METAR KPAE 240753Z AUTO 34004KT 10SM OVC049 11/09 A2987 RMK AO2 SLP113 T01060089 401890094=
201204240653 METAR KPAE 240653Z AUTO 35004KT 10SM FEW049 11/08 A2986 RMK AO2 SLP111 T01060083=
201204240615 SPECI KPAE 240615Z AUTO 36005KT 10SM FEW004 11/09 A2986 RMK AO2=
201204240615 SPECI KPAE 240615Z AUTO 36005KT 10SM FEW004 11/09 A2986 RMK AO2=
201204240553 METAR KPAE 240553Z AUTO 35004KT 10SM CLR 11/08 A2985 RMK AO2 SLP108 T01060083 10183 20106 50006=
201204240453 METAR KPAE 240453Z AUTO 35003KT 10SM CLR 11/09 A2986 RMK AO2 SLP112 T01110089=
201204240353 METAR KPAE 240353Z 35005KT 10SM CLR 12/09 A2985 RMK AO2 SLP106 T01220089=
201204240253 METAR KPAE 240253Z 36006KT 10SM CLR 14/09 A2984 RMK AO2 SLP102 T01390094 56009=
201204240153 METAR KPAE 240153Z 35005KT 10SM CLR 16/10 A2984 RMK AO2 SLP104 T01610100=
201204240053 METAR KPAE 240053Z 35005KT 10SM CLR 17/09 A2985 RMK AO2 SLP108 T01720089=
201204232353 METAR KPAE 232353Z 36006KT 10SM CLR 18/09 A2986 RMK AO2 SLP112 T01780094 10189 20150 58014=
201204232253 METAR KPAE 232253Z 36008KT 10SM CLR 19/09 A2988 RMK AO2 SLP117 T01890094=
201204232153 METAR KPAE 232153Z 36008KT 10SM CLR 18/09 A2990 RMK AO2 SLP124 T01830089=
201204232053 METAR KPAE 232053Z 01009KT 10SM CLR 18/09 A2991 RMK AO2 SLP127 T01780094 58007=
201204231953 METAR KPAE 231953Z 34007KT 10SM CLR 17/09 A2992 RMK AO2 SLP132 T01720089=
201204231853 METAR KPAE 231853Z 36006KT 10SM CLR 16/09 A2993 RMK AO2 SLP134 T01560089=
201204231753 METAR KPAE 231753Z 35005KT 10SM CLR 16/09 A2993 RMK AO2 SLP134 T01560089 10156 20094 53002=
201204231653 METAR KPAE 231653Z 31005KT 10SM CLR 14/08 A2992 RMK AO2 SLP131 T01390083=
201204231553 METAR KPAE 231553Z 01003KT 10SM CLR 13/08 A2992 RMK AO2 SLP132 T01280078=
201204231453 METAR KPAE 231453Z 02004KT 10SM CLR 12/07 A2992 RMK AO2 SLP133 T01170072 53001=
201204231353 METAR KPAE 231353Z 00000KT 10SM CLR 11/07 A2992 RMK AO2 SLP130 T01060072=
201204231253 METAR KPAE 231253Z 03004KT 10SM CLR 10/07 A2992 RMK AO2 SLP132 T01000072=
201204231153 METAR KPAE 231153Z AUTO 36003KT 10SM CLR 09/07 A2992 RMK AO2 SLP131 T00940072 10122 20094 53002=
201204231053 METAR KPAE 231053Z AUTO 00000KT 10SM CLR 10/07 A2992 RMK AO2 SLP131 T01000072=
201204230953 METAR KPAE 230953Z AUTO 00000KT 10SM CLR 10/07 A2991 RMK AO2 SLP126 T01000067=
201204230853 METAR KPAE 230853Z AUTO 02005KT 10SM CLR 11/07 A2991 RMK AO2 SLP130 T01110067 58003=
201204230753 METAR KPAE 230753Z AUTO 36004KT 10SM CLR 11/07 A2992 RMK AO2 SLP132 T01060067 402000083=
201204230653 METAR KPAE 230653Z AUTO 35003KT 10SM CLR 12/06 A2992 RMK AO2 SLP132 T01170061=
201204230553 METAR KPAE 230553Z AUTO 36003KT 10SM CLR 12/07 A2992 RMK AO2 SLP132 T01170067 10194 20117 51008=
201204230453 METAR KPAE 230453Z AUTO 36005KT 10SM CLR 13/07 A2992 RMK AO2 SLP132 T01280067=
201204230353 METAR KPAE 230353Z 35005KT 10SM CLR 13/07 A2991 RMK AO2 SLP129 T01330072=
201204230253 METAR KPAE 230253Z 36004KT 10SM CLR 14/08 A2990 RMK AO2 SLP124 T01440078 55004=
201204230153 METAR KPAE 230153Z 36006KT 10SM CLR 17/07 A2990 RMK AO2 SLP123 T01720072=
201204230053 METAR KPAE 230053Z 36006KT 10SM CLR 19/07 A2990 RMK AO2 SLP124 T01890072=
201204222353 METAR KPAE 222353Z VRB04KT 10SM CLR 19/08 A2991 RMK AO2 SLP128 T01940078 10200 20144 58014=
201204222253 METAR KPAE 222253Z 01007KT 10SM CLR 19/07 A2992 RMK AO2 SLP132 T01940072=
201204222153 METAR KPAE 222153Z VRB05KT 10SM CLR 19/09 A2994 RMK AO2 SLP139 T01890089=
201204222053 METAR KPAE 222053Z 31005KT 10SM CLR 18/09 A2995 RMK AO2 SLP142 T01780089 58008=
201204221953 METAR KPAE 221953Z 28005KT 10SM CLR 17/09 A2996 RMK AO2 SLP144 T01670089=
201204221853 METAR KPAE 221853Z 33005KT 10SM CLR 16/08 A2997 RMK AO2 SLP149 T01560083=
201204221753 METAR KPAE 221753Z VRB03KT 10SM CLR 14/08 A2998 RMK AO2 SLP152 60000 T01440078 10144 20083 58003=
201204221653 METAR KPAE 221653Z 00000KT 10SM SCT100 13/07 A2998 RMK AO2 SLP154 T01280072=
201204221553 METAR KPAE 221553Z 00000KT 10SM SCT100 10/06 A2999 RMK AO2 RAB13E23 SLP155 P0000 T01000061=
201204221453 METAR KPAE 221453Z 00000KT 10SM SCT120 09/06 A2999 RMK AO2 SLP155 60000 T00940061 55001=
201204221353 METAR KPAE 221353Z 00000KT 10SM SCT100 09/06 A2998 RMK AO2 SLP152 T00890056=
201204221253 METAR KPAE 221253Z AUTO 00000KT 10SM CLR 08/06 A2998 RMK AO2 RAE03 SLP154 P0000 T00830061=
201204221153 METAR KPAE 221153Z AUTO 01004KT 10SM -RA FEW055 SCT100 09/06 A2999 RMK AO2 RAB51 SLP154 P0000 60000 T00940056 10100 20089 55003=
201204221053 METAR KPAE 221053Z AUTO 04003KT 10SM CLR 09/06 A2998 RMK AO2 PRESFR SLP152 T00890056=
201204220953 METAR KPAE 220953Z AUTO 01003KT 10SM CLR 09/05 A2999 RMK AO2 SLP157 T00890050=
201204220853 METAR KPAE 220853Z AUTO 02004KT 10SM CLR 09/05 A3000 RMK AO2 SLP159 T00940050 58007=
201204220753 METAR KPAE 220753Z AUTO 35004KT 10SM CLR 09/06 A3002 RMK AO2 SLP165 T00890061 401720044=
201204220653 METAR KPAE 220653Z AUTO 36003KT 10SM CLR 10/06 A3001 RMK AO2 SLP164 T01000056=
201204220553 METAR KPAE 220553Z AUTO 34003KT 10SM CLR 10/06 A3002 RMK AO2 SLP166 T01000061 10161 20100 50000=
201204220453 METAR KPAE 220453Z AUTO 35003KT 10SM CLR 11/06 A3002 RMK AO2 SLP168 T01060061=
201204220353 METAR KPAE 220353Z 35004KT 10SM CLR 11/06 A3002 RMK AO2 SLP169 T01110061=
201204220253 METAR KPAE 220253Z 01005KT 10SM CLR 12/07 A3002 RMK AO2 SLP167 T01220067 56015=
201204220153 METAR KPAE 220153Z 36004KT 10SM CLR 14/07 A3004=
201204220053 METAR KPAE 220053Z 36007KT 10SM CLR 15/06 A3005 RMK AO2 SLP176 T01500061=
201204212353 METAR KPAE 212353Z 36004KT 10SM CLR 16/06 A3007 RMK AO2 SLP182 T01610061 10172 20117 58021=
201204212253 METAR KPAE 212253Z 34004KT 10SM CLR 17/06 A3009 RMK AO2 SLP189 T01670061=
201204212153 METAR KPAE 212153Z 30004KT 10SM CLR 16/06 A3011 RMK AO2 SLP196 T01560061=
201204212053 METAR KPAE 212053Z 31003KT 10SM CLR 14/05 A3013 RMK AO2 SLP203 T01390050 58009=
201204211953 METAR KPAE 211953Z 30003KT 10SM CLR 13/04 A3014 RMK AO2 SLP208 T01330044=
201204211853 METAR KPAE 211853Z VRB03KT 10SM CLR 13/06 A3015 RMK AO2 SLP213 T01280056=
201204211753 METAR KPAE 211753Z 35004KT 10SM CLR 12/05 A3016 RMK AO2 SLP214 T01170050 10117 20044 58004=
201204211653 METAR KPAE 211653Z 01003KT 10SM CLR 11/04 A3016 RMK AO2 SLP216 T01060044=
201204211553 METAR KPAE 211553Z 00000KT 10SM CLR 08/04 A3017 RMK AO2 SLP219 T00830039=
201204211453 METAR KPAE 211453Z 02003KT 10SM CLR 07/04 A3017 RMK AO2 SLP219 T00720044 58000=
201204211353 METAR KPAE 211353Z 00000KT 10SM CLR 06/04 A3018 RMK AO2 SLP221 T00560044=
201204211253 METAR KPAE 211253Z 00000KT 10SM CLR 05/03 A3017 RMK AO2 SLP218 T00500028=
201204211153 METAR KPAE 211153Z 00000KT 10SM CLR 06/03 A3017 RMK AO2 SLP219 70019 T00560033 10083 20056 56006=
201204211053 METAR KPAE 211053Z 02003KT 10SM CLR 06/04 A3018 RMK AO2 SLP221 T00610039=
201204210953 METAR KPAE 210953Z 02004KT 10SM CLR 07/04 A3018 RMK AO2 SLP222 T00670044=
201204210853 METAR KPAE 210853Z 00000KT 10SM CLR 07/04 A3019 RMK AO2 SLP226 T00670044 58001=
201204210753 METAR KPAE 210753Z 34003KT 10SM CLR 07/04 A3020 RMK AO2 SLP229 T00670039 401220067=
201204210653 METAR KPAE 210653Z 00000KT 10SM CLR 07/05 A3020 RMK AO2 SLP229 T00720050=
201204210553 METAR KPAE 210553Z 01003KT 10SM CLR 08/04 A3019 RMK AO2 SLP227 T00830044 10117 20083 58003=
201204210453 METAR KPAE 210453Z 00000KT 10SM CLR 09/04 A3021 RMK AO2 SLP231 T00890044=
201204210353 METAR KPAE 210353Z 00000KT 10SM CLR 09/04 A3021 RMK AO2 SLP230 T00940039=
201204210253 METAR KPAE 210253Z 30003KT 10SM CLR 10/04 A3020 RMK AO2 SLP230 T01000039 56010=
201204210153 METAR KPAE 210153Z 29004KT 10SM CLR 11/04 A3021 RMK AO2 SLP232 T01110039=
201204210053 METAR KPAE 210053Z 26004KT 10SM FEW020 11/04 A3022 RMK AO2 SLP235 T01110039=
201204202353 METAR KPAE 202353Z COR 27003KT 10SM SCT050 12/04 A3023 RMK AO2 SLP240 T01170039 10122 20094 58004=
201204202253 METAR KPAE 202253Z COR 29004KT 10SM SCT040 12/03 A3025 RMK AO2 SLP243 T01170028=
201204202153 METAR KPAE 202153Z VRB04KT 10SM SCT030 12/03 A3025=
201204202053 METAR KPAE 202053Z 00000KT 10SM FEW032 BKN050 11/04 A3025 RMK AO2 SLP243 T01060044 50001=
201204201953 METAR KPAE 201953Z 31003KT 10SM FEW033 SCT050 11/02 A3025 RMK AO2 SLP244 T01110022=
201204201853 METAR KPAE 201853Z 00000KT 10SM FEW006 SCT039 BKN049 11/02 A3025 RMK AO2 SLP245 T01060017=
201204201753 METAR KPAE 201753Z 00000KT 10SM FEW006 SCT039 OVC049 10/03 A3024 RMK AO2 SLP242 60019 T01000028 10106 20072 51013=
201204201653 METAR KPAE 201653Z 00000KT 10SM FEW028 BKN039 OVC049 08/04 A3024 RMK AO2 RAB1554E16 SLP241 P0000 T00830044=
201204201553 METAR KPAE 201553Z 15003KT 10SM FEW020 BKN030 OVC036 08/04 A3022 RMK AO2 RAE14 SLP235 P0000 T00830044=
201204201539 SPECI KPAE 201539Z 00000KT 10SM FEW025 BKN030 OVC037 08/04 A3021 RMK AO2 RAE14 P0000=
201204201539 SPECI KPAE 201539Z 00000KT 10SM FEW025 BKN030 OVC037 08/04 A3021 RMK AO2 RAE14 P0000=
201204201453 METAR KPAE 201453Z 07003KT 9SM -RA SCT006 BKN024 OVC033 08/05 A3020 RMK AO2 SLP229 P0003 60019 T00780050 51024=
201204201401 SPECI KPAE 201401Z 06003KT 8SM -RA FEW006 BKN013 OVC033 08/06 A3018 RMK AO2 P0000=
201204201401 SPECI KPAE 201401Z 06003KT 8SM -RA FEW006 BKN013 OVC033 08/06 A3018 RMK AO2 P0000=
201204201353 METAR KPAE 201353Z 00000KT 9SM -RA BKN017 OVC033 08/06 A3017=
201204201319 SPECI KPAE 201319Z AUTO VRB03KT 9SM -RA FEW011 BKN030 OVC037 08/06 A3015 RMK AO2 PRESRR P0002=
201204201319 SPECI KPAE 201319Z AUTO VRB03KT 9SM -RA FEW011 BKN030 OVC037 08/06 A3015 RMK AO2 PRESRR P0002=
201204201253 METAR KPAE 201253Z AUTO 06004KT 6SM -RA BR FEW005 BKN026 OVC039 08/06 A3013 RMK AO2 SLP205 P0012 T00780056=
201204201234 SPECI KPAE 201234Z AUTO 06004KT 5SM RA BR SCT005 BKN014 OVC024 08/06 A3012 RMK AO2 P0009=
201204201234 SPECI KPAE 201234Z AUTO 06004KT 5SM RA BR SCT005 BKN014 OVC024 08/06 A3012 RMK AO2 P0009=
201204201219 SPECI KPAE 201219Z AUTO 06005KT 6SM RA BR SCT005 OVC018 08/07 A3012 RMK AO2 P0005=
201204201219 SPECI KPAE 201219Z AUTO 06005KT 6SM RA BR SCT005 OVC018 08/07 A3012 RMK AO2 P0005=
201204201201 SPECI KPAE 201201Z AUTO VRB04KT 6SM RA BR FEW003 BKN008 OVC018 08/07 A3011 RMK AO2 CIG 007V012 P0002=
201204201201 SPECI KPAE 201201Z AUTO VRB04KT 6SM RA BR FEW003 BKN008 OVC018 08/07 A3011 RMK AO2 CIG 007V012 P0002=
201204201153 METAR KPAE 201153Z AUTO 03005KT 5SM RA BR BKN003 BKN008 OVC013 08/07 A3011 RMK AO2 SLP197 P0012 60020 70043 T00830067 10111 20078 53026=
201204201110 SPECI KPAE 201110Z AUTO 03007KT 8SM -RA OVC003 08/07 A3009 RMK AO2 P0001=
201204201110 SPECI KPAE 201110Z AUTO 03007KT 8SM -RA OVC003 08/07 A3009 RMK AO2 P0001=
201204201053 METAR KPAE 201053Z AUTO 05005KT 7SM -RA OVC005 09/08 A3007 RMK AO2 CIG 002V010 SLP186 P0005 T00890078=
201204201025 SPECI KPAE 201025Z AUTO 22009KT 10SM -RA OVC008 10/08 A3007 RMK AO2 CIG 005V012 P0002=
201204201025 SPECI KPAE 201025Z AUTO 22009KT 10SM -RA OVC008 10/08 A3007 RMK AO2 CIG 005V012 P0002=
201204200953 METAR KPAE 200953Z AUTO 20012G17KT 10SM -RA OVC010 11/08 A3005 RMK AO2 RAB0856 CIG 009V013 SLP177 P0002 T01060083=
201204200853 METAR KPAE 200853Z AUTO 20011KT 10SM OVC010 11/09 A3003 RMK AO2 PK WND 19026/0755 RAE29 CIG 007V016 SLP169 P0001 60001 T01060089 53020=
201204200839 SPECI KPAE 200839Z AUTO 20015G19KT 10SM BKN012 OVC065 11/09 A3002 RMK AO2 PK WND 19026/0755 RAE29 P0001=
201204200839 SPECI KPAE 200839Z AUTO 20015G19KT 10SM BKN012 OVC065 11/09 A3002 RMK AO2 PK WND 19026/0755 RAE29 P0001=
201204200753 METAR KPAE 200753Z AUTO 19019G26KT 10SM -RA OVC070 11/08 A3000 RMK AO2 PK WND 19030/0735 RAB33 SLP158 P0000 T01110083 401330061=
201204200653 METAR KPAE 200653Z AUTO 19020G33KT 10SM FEW011 OVC070 11/09 A2998 RMK AO2 PK WND 19033/0649 SLP152 T01110089=
201204200623 SPECI KPAE 200623Z AUTO 19021G28KT 10SM SCT011 OVC070 11/09 A2997 RMK AO2 PK WND 18030/0603=
201204200623 SPECI KPAE 200623Z AUTO 19021G28KT 10SM SCT011 OVC070 11/09 A2997 RMK AO2 PK WND 18030/0603=
201204200604 SPECI KPAE 200604Z AUTO 19023G30KT 10SM BKN011 OVC060 11/09 A2997 RMK AO2 PK WND 18030/0603=
201204200604 SPECI KPAE 200604Z AUTO 19023G30KT 10SM BKN011 OVC060 11/09 A2997 RMK AO2 PK WND 18030/0603=
201204200553 METAR KPAE 200553Z AUTO 18020G28KT 10SM BKN009 OVC060 11/09 A2997 RMK AO2 PK WND 17029/0535 RAE09 CIG 007V013 SLP149 P0000 60012 T01110089 10117 20094 56005=
201204200453 METAR KPAE 200453Z AUTO 18016G24KT 10SM -RA BKN009 OVC075 12/09 A2997 RMK AO2 PK WND 18030/0421 RAE04B53 CIG 006V014 SLP150 P0000 T01170094=
201204200353 METAR KPAE 200353Z AUTO 19018G26KT 10SM -RA OVC007 11/09 A2997 RMK AO2 PK WND 19026/0351 RAE0258B16 CIG 003V010 SLP150 P0000 T01110094=
201204200324 SPECI KPAE 200324Z 17013G21KT 5SM -RA BR OVC004 11/09 A2997 RMK AO2 RAE0258B16 CIG 003V008 P0000=
201204200324 SPECI KPAE 200324Z 17013G21KT 5SM -RA BR OVC004 11/09 A2997 RMK AO2 RAE0258B16 CIG 003V008 P0000=
201204200253 METAR KPAE 200253Z 16011G20KT 10SM -RA BKN008 OVC013 10/09 A2999 RMK AO2 RAE22B45 SLP156 P0001 60012 T01000089 53000=
201204200240 SPECI KPAE 200240Z 16012KT 10SM BKN008 OVC013 10/09 A2997 RMK AO2 RAE22 P0000=
201204200240 SPECI KPAE 200240Z 16012KT 10SM BKN008 OVC013 10/09 A2997 RMK AO2 RAE22 P0000=
201204200228 SPECI KPAE 200228Z 16012KT 10SM FEW008 OVC013 10/08 A2998 RMK AO2 RAE22 P0000=
201204200228 SPECI KPAE 200228Z 16012KT 10SM FEW008 OVC013 10/08 A2998 RMK AO2 RAE22 P0000=
201204200155 SPECI KPAE 200155Z 15012G16KT 6SM -RA BR BKN017 OVC030 10/08 A2998 RMK AO2 P0000=
201204200155 SPECI KPAE 200155Z 15012G16KT 6SM -RA BR BKN017 OVC030 10/08 A2998 RMK AO2 P0000=
201204200153 METAR KPAE 200153Z 15012G16KT 6SM -RA BR SCT017 OVC033 10/08 A2998 RMK AO2 SLP154 P0003 T01000083=
201204200053 METAR KPAE 200053Z 15009G16KT 5SM -RA BR FEW026 OVC033 09/07 A2998 RMK AO2 SLP156 P0008 T00940072=
201204200048 SPECI KPAE 200048Z 16010G14KT 5SM -RA SCT026 OVC033 09/07 A2998 RMK AO2 P0008=
201204200048 SPECI KPAE 200048Z 16010G14KT 5SM -RA SCT026 OVC033 09/07 A2998 RMK AO2 P0008=
201204200026 SPECI KPAE 200026Z 15006KT 6SM -RA BKN027 OVC032 09/07 A2999 RMK AO2 P0005=
201204200026 SPECI KPAE 200026Z 15006KT 6SM -RA BKN027 OVC032 09/07 A2999 RMK AO2 P0005=
201204192353 METAR KPAE 192353Z 16008KT 7SM -RA BKN042 OVC055 10/07 A3000 RMK AO2 SLP161 P0005 60011 T01000067 10133 20100 58008=
201204192253 METAR KPAE 192253Z 15005KT 10SM -RA OVC036 11/05 A3002 RMK AO2 RAB2154 SLP167 P0006 T01110050=
201204192153 METAR KPAE 192153Z 15007KT 120V180 10SM R16R/5500VP6000FT BKN040 OVC075 13/02 A3001 RMK AO2 SLP163 T01280022=
201204192053 METAR KPAE 192053Z 17013KT 10SM SCT055 BKN075 OVC110 13/02 A3002 RMK AO2 SLP168 T01330017 56016=
201204191953 METAR KPAE 191953Z 16012KT 10SM BKN065 OVC100 13/02 A3003 RMK AO2 SLP172 T01280022=
201204191853 METAR KPAE 191853Z 17010KT 10SM OVC080 12/02 A3005 RMK AO2 SLP179 T01170022=
201204191753 METAR KPAE 191753Z 16008KT 10SM OVC100 11/03 A3007 RMK AO2 SLP185 T01060028 10111 20061 53001=
201204191653 METAR KPAE 191653Z VRB05KT 10SM BKN100 10/04 A3006 RMK AO2 SLP181 T01000039=
201204191553 METAR KPAE 191553Z VRB03KT 10SM CLR 08/04 A3006 RMK AO2 SLP182 T00830044=
201204191453 METAR KPAE 191453Z 11004KT 10SM OVC150 07/04 A3007 RMK AO2 SLP183 T00720039 58000=
201204191353 METAR KPAE 191353Z 11005KT 10SM CLR 06/04 A3007 RMK AO2 SLP186 T00610039=
201204191253 METAR KPAE 191253Z AUTO 11004KT 10SM CLR 06/04 A3007 RMK AO2 SLP183 T00610039=
201204191153 METAR KPAE 191153Z AUTO 17004KT 10SM CLR 07/04 A3007 RMK AO2 SLP183 70002 T00720039 10083 20072 58006=
201204191053 METAR KPAE 191053Z AUTO 16006KT 10SM SCT055 08/04 A3008 RMK AO2 SLP185 T00780044=
201204190953 METAR KPAE 190953Z AUTO 00000KT 10SM FEW023 OVC055 08/05 A3008 RMK AO2 SLP187 T00780050=
201204190944 SPECI KPAE 190944Z AUTO 00000KT 10SM SCT023 OVC055 08/05 A3008 RMK AO2=
201204190944 SPECI KPAE 190944Z AUTO 00000KT 10SM SCT023 OVC055 08/05 A3008 RMK AO2=
201204190853 METAR KPAE 190853Z AUTO 00000KT 10SM BKN025 08/05 A3009 RMK AO2 SLP189 T00780050 50001=
201204190829 SPECI KPAE 190829Z AUTO 06003KT 10SM BKN025 OVC035 08/05 A3009 RMK AO2=
201204190829 SPECI KPAE 190829Z AUTO 06003KT 10SM BKN025 OVC035 08/05 A3009 RMK AO2=
201204190753 METAR KPAE 190753Z AUTO 00000KT 10SM FEW038 07/06 A3009 RMK AO2 SLP191 T00720056 401390072=
201204190653 METAR KPAE 190653Z AUTO 00000KT 10SM BKN033 OVC042 08/06 A3008 RMK AO2 SLP189 T00780056=
201204190645 SPECI KPAE 190645Z AUTO 32003KT 10SM OVC031 08/06 A3008 RMK AO2=
201204190645 SPECI KPAE 190645Z AUTO 32003KT 10SM OVC031 08/06 A3008 RMK AO2=
201204190553 METAR KPAE 190553Z AUTO 35003KT 10SM OVC024 08/06 A3008=
201204190453 METAR KPAE 190453Z AUTO 01005KT 10SM BKN027 OVC034 08/06 A3007 RMK AO2 SLP184 T00830061=
201204190434 SPECI KPAE 190434Z AUTO 01005KT 10SM BKN029 BKN042 08/06 A3007 RMK AO2=
201204190434 SPECI KPAE 190434Z AUTO 01005KT 10SM BKN029 BKN042 08/06 A3007 RMK AO2=
201204190353 METAR KPAE 190353Z 01005KT 10SM FEW037 BKN055 08/06 A3005=
201204190253 METAR KPAE 190253Z 36004KT 10SM -RA FEW039 BKN050 BKN085 09/06 A3004 RMK AO2 RAB42 SLP175 P0000 60000 T00940056 53004=
201204190153 METAR KPAE 190153Z 28005KT 10SM SCT046 BKN100 11/04 A3003 RMK AO2 SLP172 T01060039=
201204190053 METAR KPAE 190053Z 24005KT 10SM BKN055 BKN075 12/03 A3004 RMK AO2 SLP173 T01220033=
201204182353 METAR KPAE 182353Z 20011KT 10SM SCT047 SCT055 13/03 A3003 RMK AO2 SLP169 T01330028 10139 20106 55001=
201204182253 METAR KPAE 182253Z 23013G17KT 10SM BKN047 BKN055 BKN100 13/03 A3002 RMK AO2 SLP169 T01280033=
201204182153 METAR KPAE 182153Z 17013G21KT 10SM SCT045 13/02 A3003 RMK AO2 SLP169 T01330022=
201204182053 METAR KPAE 182053Z 19018G21KT 10SM SCT027 13/03 A3003 RMK AO2 SLP171 T01280033 51008=
201204182000 SPECI KPAE 182000Z 19016KT 10SM SCT033 SCT047 12/03 A3003 RMK AO2=
201204182000 SPECI KPAE 182000Z 19016KT 10SM SCT033 SCT047 12/03 A3003 RMK AO2=
201204181953 METAR KPAE 181953Z 19016G20KT 10SM BKN029 BKN033 12/04 A3003 RMK AO2 SLP170 T01220039=
201204181853 METAR KPAE 181853Z 18010KT 10SM BKN029 BKN034 11/04 A3003=
201204181753 METAR KPAE 181753Z 20017G24KT 10SM SCT010 BKN060 11/03 A3000 RMK AO2 SLP162 60002 T01060033 10106 20072 53013=
201204181653 METAR KPAE 181653Z 19017G25KT 10SM SCT080 09/05 A2998 RMK AO2 SLP154 T00940050=
201204181553 METAR KPAE 181553Z 18016G22KT 10SM FEW080 09/06 A2997 RMK AO2 RAE10 SLP150 P0000 T00890061=
201204181507 SPECI KPAE 181507Z 16012KT 10SM -RA FEW009 SCT024 BKN036 08/06 A2997 RMK AO2 P0000=
201204181507 SPECI KPAE 181507Z 16012KT 10SM -RA FEW009 SCT024 BKN036 08/06 A2997 RMK AO2 P0000=
201204181453 METAR KPAE 181453Z 16010KT 3SM -RA BR FEW018 BKN026 OVC032 08/06 A2997 RMK AO2 RAB16 SLP150 P0001 60002 T00780056 53006=
201204181353 METAR KPAE 181353Z VRB05KT 10SM FEW029 SCT034 BKN070 07/05 A2995 RMK AO2 SLP145 T00720050=
201204181334 SPECI KPAE 181334Z AUTO 15006KT 10SM FEW024 BKN032 OVC070 07/05 A2995 RMK AO2=
201204181334 SPECI KPAE 181334Z AUTO 15006KT 10SM FEW024 BKN032 OVC070 07/05 A2995 RMK AO2=
201204181303 SPECI KPAE 181303Z AUTO 15006KT 10SM FEW019 BKN025 OVC030 07/04 A2995 RMK AO2=
201204181303 SPECI KPAE 181303Z AUTO 15006KT 10SM FEW019 BKN025 OVC030 07/04 A2995 RMK AO2=
201204181253 METAR KPAE 181253Z AUTO 15009G14KT 10SM SCT025 BKN030 OVC036 07/04 A2995 RMK AO2 RAB1157E38 SLP144 P0001 T00720044=
201204181153 METAR KPAE 181153Z AUTO 15007KT 10SM OVC080 07/04 A2995 RMK AO2 SLP144 60000 70003 T00720044 10078 20072 56007=
201204181053 METAR KPAE 181053Z AUTO 15008KT 110V170 10SM FEW027 BKN050 OVC090 07/04 A2995 RMK AO2 RAE04 SLP145 P0000 T00720044=
201204180953 METAR KPAE 180953Z AUTO 15009KT 10SM -RA BKN031 BKN060 OVC070 07/04 A2996 RMK AO2 RAB29 SLP148 P0000 T00720039=
201204180920 SPECI KPAE 180920Z AUTO 15009KT 10SM OVC031 08/04 A2997 RMK AO2=
201204180920 SPECI KPAE 180920Z AUTO 15009KT 10SM OVC031 08/04 A2997 RMK AO2=
201204180853 METAR KPAE 180853Z AUTO 15007KT 10SM BKN029 BKN037 OVC065 07/04 A2997=
201204180753 METAR KPAE 180753Z AUTO VRB04KT 10SM FEW033 SCT055 OVC075 07/04 A2998 RMK AO2 SLP152 T00720039 401000061=
201204180738 SPECI KPAE 180738Z AUTO VRB04KT 10SM SCT027 BKN034 OVC080 07/04 A2998 RMK AO2=
201204180738 SPECI KPAE 180738Z AUTO VRB04KT 10SM SCT027 BKN034 OVC080 07/04 A2998 RMK AO2=
201204180721 SPECI KPAE 180721Z AUTO VRB03KT 10SM BKN029 OVC048 07/04 A2998 RMK AO2=
201204180721 SPECI KPAE 180721Z AUTO VRB03KT 10SM BKN029 OVC048 07/04 A2998 RMK AO2=
201204180653 METAR KPAE 180653Z AUTO 12004KT 10SM FEW048 OVC080 07/04 A2998 RMK AO2 SLP154 T00720044=
201204180553 METAR KPAE 180553Z AUTO 00000KT 10SM SCT060 BKN075 OVC090 07/04 A2999 RMK AO2 SLP160 60002 T00720044 10083 20067 58007=
201204180521 SPECI KPAE 180521Z AUTO 15007KT 10SM SCT029 OVC090 07/04 A3000 RMK AO2=
201204180521 SPECI KPAE 180521Z AUTO 15007KT 10SM SCT029 OVC090 07/04 A3000 RMK AO2=
201204180453 METAR KPAE 180453Z AUTO VRB03KT 10SM BKN029 OVC095 07/04 A3001 RMK AO2 SLP163 T00720044=
201204180443 SPECI KPAE 180443Z AUTO VRB04KT 10SM OVC029 07/04 A3001 RMK AO2=
201204180443 SPECI KPAE 180443Z AUTO VRB04KT 10SM OVC029 07/04 A3001 RMK AO2=
201204180353 METAR KPAE 180353Z AUTO 15003KT 10SM BKN033 OVC080 07/04 A3001 RMK AO2 RAE0255 SLP164 P0000 T00670044=
201204180253 METAR KPAE 180253Z 15007KT 10SM -RA BKN035 OVC044 07/04 A3002 RMK AO2 SLP167 P0000 60002 T00720044 58017=
201204180153 METAR KPAE 180153Z 19008KT 10SM -RA BKN049 OVC060 07/04 A3004 RMK AO2 SLP174 P0001 T00720039=
201204180053 METAR KPAE 180053Z 19007KT 10SM -RA FEW016 BKN041 OVC049 08/04 A3005 RMK AO2 SLP180 P0001 T00780039=
201204172353 METAR KPAE 172353Z 17007KT 10SM -RA FEW031 BKN047 OVC055 08/03 A3007 RMK AO2 SLP185 P0000 60001 T00830033 10100 20083 58009=
201204172253 METAR KPAE 172253Z 22010KT 10SM -RA FEW030 BKN040 OVC050 08/03 A3008 RMK AO2 RAB12 SLP189 P0001 T00830033=
201204172153 METAR KPAE 172153Z VRB06KT 10SM FEW047 OVC085 10/02 A3009 RMK AO2 SLP191 T01000017=
201204172053 METAR KPAE 172053Z 18008KT 10SM SCT026 OVC080 10/01 A3010 RMK AO2 SLP193 T01000011 56013=
201204171953 METAR KPAE 171953Z 18005KT 10SM SCT026 OVC080 09/02 A3011 RMK AO2 SLP198 T00940022=
201204171853 METAR KPAE 171853Z 17005KT 10SM SCT026 BKN100 09/02 A3012 RMK AO2 SLP202 T00890022=
201204171753 METAR KPAE 171753Z 15006KT 10SM BKN110 08/02 A3014 RMK AO2 SLP208 T00830017 10083 20061 57013=
201204171653 METAR KPAE 171653Z 17006KT 10SM FEW019 08/02 A3015 RMK AO2 SLP214 T00830022=
201204171553 METAR KPAE 171553Z 18007KT 10SM FEW020 08/03 A3016 RMK AO2 SLP215 T00780028=
201204171500 SPECI KPAE 171500Z 17007KT 10SM FEW015 07/03 A3018 RMK AO2=
201204171500 SPECI KPAE 171500Z 17007KT 10SM FEW015 07/03 A3018 RMK AO2=
201204171453 METAR KPAE 171453Z 15007KT 10SM SCT015 BKN020 07/03 A3018 RMK AO2 SLP221 T00670028 56008=
201204171353 METAR KPAE 171353Z 15006KT 10SM BKN020 BKN033 06/03 A3019=
201204171350 SPECI KPAE 171350Z 15005KT 10SM FEW020 BKN033 06/03 A3018 RMK AO2=
201204171350 SPECI KPAE 171350Z 15005KT 10SM FEW020 BKN033 06/03 A3018 RMK AO2=
201204171253 METAR KPAE 171253Z AUTO VRB03KT 10SM OVC020 07/04 A3020 RMK AO2 SLP230 T00670039=
201204171153 METAR KPAE 171153Z AUTO 11003KT 10SM OVC022 07/04 A3021 RMK AO2 SLP233 70003 T00670039 10067 20061 58002=
201204171053 METAR KPAE 171053Z AUTO VRB03KT 10SM OVC016 07/03 A3022 RMK AO2 SLP234 T00670033=
201204171002 SPECI KPAE 171002Z AUTO 07005KT 10SM BKN016 OVC049 07/03 A3021 RMK AO2=
201204171002 SPECI KPAE 171002Z AUTO 07005KT 10SM BKN016 OVC049 07/03 A3021 RMK AO2=
201204170953 METAR KPAE 170953Z AUTO 09004KT 10SM SCT016 OVC049 06/03 A3021 RMK AO2 SLP232 T00610028=
201204170934 SPECI KPAE 170934Z AUTO 10005KT 10SM SCT023 OVC049 06/03 A3021 RMK AO2=
201204170934 SPECI KPAE 170934Z AUTO 10005KT 10SM SCT023 OVC049 06/03 A3021 RMK AO2=
201204170904 SPECI KPAE 170904Z AUTO 09004KT 10SM BKN025 OVC049 06/03 A3021 RMK AO2=
201204170904 SPECI KPAE 170904Z AUTO 09004KT 10SM BKN025 OVC049 06/03 A3021 RMK AO2=
201204170853 METAR KPAE 170853Z AUTO 08005KT 10SM SCT027 OVC049 07/03 A3021 RMK AO2 SLP233 T00670033 50004=
201204170850 SPECI KPAE 170850Z AUTO 09004KT 10SM SCT027 OVC049 07/03 A3021 RMK AO2=
201204170850 SPECI KPAE 170850Z AUTO 09004KT 10SM SCT027 OVC049 07/03 A3021 RMK AO2=
201204170826 SPECI KPAE 170826Z AUTO 10006KT 10SM BKN027 OVC049 06/03 A3021 RMK AO2=
201204170826 SPECI KPAE 170826Z AUTO 10006KT 10SM BKN027 OVC049 06/03 A3021 RMK AO2=
201204170753 METAR KPAE 170753Z AUTO 10007KT 10SM FEW029 OVC047 06/03 A3021 RMK AO2 SLP232 T00610033 401280061=
201204170653 METAR KPAE 170653Z AUTO 09005KT 10SM BKN039 OVC046 07/03 A3020 RMK AO2 SLP229 T00670033=
201204170613 SPECI KPAE 170613Z AUTO 10007KT 10SM SCT030 OVC036 07/03 A3019 RMK AO2=
201204170613 SPECI KPAE 170613Z AUTO 10007KT 10SM SCT030 OVC036 07/03 A3019 RMK AO2=
201204170553 METAR KPAE 170553Z AUTO 07005KT 10SM OVC027 07/03 A3020 RMK AO2 RAE11 SLP227 P0000 60002 T00670033 10089 20067 51016=
201204170453 METAR KPAE 170453Z AUTO 08006KT 10SM -RA OVC027 07/03 A3018 RMK AO2 RAE07B41 SLP223 P0000 T00670033=
201204170444 SPECI KPAE 170444Z 08005KT 10SM -RA OVC029 07/03 A3018 RMK AO2 RAE07B41 P0000=
201204170444 SPECI KPAE 170444Z 08005KT 10SM -RA OVC029 07/03 A3018 RMK AO2 RAE07B41 P0000=
201204170353 METAR KPAE 170353Z 06007KT 10SM -RA BKN030 OVC037 07/04 A3017 RMK AO2 SLP219 P0001 T00670039=
201204170326 SPECI KPAE 170326Z VRB03KT 10SM -RA FEW008 OVC029 07/04 A3016 RMK AO2 P0001=
201204170326 SPECI KPAE 170326Z VRB03KT 10SM -RA FEW008 OVC029 07/04 A3016 RMK AO2 P0001=
201204170300 SPECI KPAE 170300Z 04006KT 10SM -RA OVC026 07/04 A3015 RMK AO2 P0000=
201204170300 SPECI KPAE 170300Z 04006KT 10SM -RA OVC026 07/04 A3015 RMK AO2 P0000=
201204170253 METAR KPAE 170253Z 02007KT 10SM -RA SCT010 BKN043 OVC050 07/04 A3015 RMK AO2 RAB14 SLP211 P0001 60001 T00720044 51016=
201204170153 METAR KPAE 170153Z 03008KT 10SM FEW010 SCT028 OVC050 08/05 A3013 RMK AO2 RAE12B28E37 SLP205 P0000 T00780050=
201204170133 SPECI KPAE 170133Z 03007KT 10SM -RA SCT011 OVC030 08/05 A3013 RMK AO2 RAE12B28 P0000=
201204170133 SPECI KPAE 170133Z 03007KT 10SM -RA SCT011 OVC030 08/05 A3013 RMK AO2 RAE12B28 P0000=
201204170053 METAR KPAE 170053Z 01007KT 10SM -RA FEW011 OVC025 08/05 A3012 RMK AO2 RAB50 SLP202 P0000 T00830050=
201204170035 SPECI KPAE 170035Z 02007KT 10SM BKN006 BKN012 OVC028 08/05 A3011 RMK AO2=
201204170035 SPECI KPAE 170035Z 02007KT 10SM BKN006 BKN012 OVC028 08/05 A3011 RMK AO2=
201204170028 SPECI KPAE 170028Z 01008KT 10SM SCT006 OVC028 08/05 A3011 RMK AO2=
201204170028 SPECI KPAE 170028Z 01008KT 10SM SCT006 OVC028 08/05 A3011 RMK AO2=
201204162353 METAR KPAE 162353Z 35007KT 10SM BKN006 BKN023 OVC031 08/06 A3010 RMK AO2 SLP194 T00830056 10128 20083 51030=
201204162305 SPECI KPAE 162305Z 02008G15KT 10SM SCT006 BKN019 OVC027 09/06 A3007 RMK AO2=
201204162305 SPECI KPAE 162305Z 02008G15KT 10SM SCT006 BKN019 OVC027 09/06 A3007 RMK AO2=
201204162258 SPECI KPAE 162258Z 34009G15KT 10SM BKN006 BKN020 OVC027 09/07 A3008 RMK AO2=
201204162258 SPECI KPAE 162258Z 34009G15KT 10SM BKN006 BKN020 OVC027 09/07 A3008 RMK AO2=
201204162253 METAR KPAE 162253Z 01007G14KT 10SM SCT006 BKN019 OVC027 09/07 A3007 RMK AO2 SLP185 T00940067=
201204162153 METAR KPAE 162153Z 01006KT 10SM SCT026 BKN031 OVC060 10/06 A3004 RMK AO2 SLP175 T01000061=
201204162053 METAR KPAE 162053Z 23007KT 200V270 10SM SCT026 BKN031 OVC060 12/06 A3001 RMK AO2 PK WND 19027/2003 SLP162 T01220061 51017=
201204162049 SPECI KPAE 162049Z 22007G22KT 10SM OVC029 13/06 A3001 RMK AO2 PK WND 19027/2003=
201204162049 SPECI KPAE 162049Z 22007G22KT 10SM OVC029 13/06 A3001 RMK AO2 PK WND 19027/2003=
201204162000 SPECI KPAE 162000Z 20018G26KT 10SM FEW022 SCT029 OVC060 13/06 A2998 RMK AO2 PK WND 20026/1957=
201204162000 SPECI KPAE 162000Z 20018G26KT 10SM FEW022 SCT029 OVC060 13/06 A2998 RMK AO2 PK WND 20026/1957=
201204161953 METAR KPAE 161953Z 20021G27KT 10SM BKN022 OVC028 13/06 A2998 RMK AO2 PK WND 22029/1928 SLP152 T01280061=
201204161928 SPECI KPAE 161928Z 21021G29KT 10SM BKN015 BKN025 OVC055 13/07 A2998 RMK AO2 PK WND 22029/1928=
201204161928 SPECI KPAE 161928Z 21021G29KT 10SM BKN015 BKN025 OVC055 13/07 A2998 RMK AO2 PK WND 22029/1928=
201204161853 METAR KPAE 161853Z 20019G28KT 10SM BKN009 OVC014 12/07 A2996 RMK AO2 PK WND 20033/1800 SLP145 T01220072=
201204161753 METAR KPAE 161753Z 20018G30KT 10SM BKN009 BKN014 12/08 A2993 RMK AO2 PK WND 19032/1734 SLP136 60001 T01170078 10117 20089 53010=
201204161653 METAR KPAE 161653Z 18017G26KT 10SM BKN006 OVC014 11/09 A2989 RMK AO2 PK WND 18027/1613 RAB25E41 SLP124 P0000 T01110089=
201204161553 METAR KPAE 161553Z 17017G24KT 10SM BKN006 OVC014 11/09 A2990 RMK AO2 RAB18E28 SLP125 P0000 T01110089=
201204161551 SPECI KPAE 161551Z 17015G24KT 10SM SCT006 BKN012 BKN042 11/09 A2990 RMK AO2 RAB18E28 P0000=
201204161551 SPECI KPAE 161551Z 17015G24KT 10SM SCT006 BKN012 BKN042 11/09 A2990 RMK AO2 RAB18E28 P0000=
201204161453 METAR KPAE 161453Z 15013G17KT 10SM BKN009 OVC024 09/08 A2988 RMK AO2 RAE51 SLP120 P0000 60001 T00940078 55000=
201204161353 METAR KPAE 161353Z 15009G16KT 3SM -RA BR BKN009 OVC024 09/07 A2988 RMK AO2 RAB37 SLP117 P0000 T00940072=
201204161253 METAR KPAE 161253Z AUTO VRB04KT 10SM FEW021 BKN026 OVC050 09/07 A2987 RMK AO2 RAE26 SLP114 P0001 T00890067=
201204161231 SPECI KPAE 161231Z AUTO 15007KT 10SM BKN026 OVC030 09/06 A2987 RMK AO2 RAE26 P0001=
201204161231 SPECI KPAE 161231Z AUTO 15007KT 10SM BKN026 OVC030 09/06 A2987 RMK AO2 RAE26 P0001=
201204161153 METAR KPAE 161153Z AUTO VRB04KT 10SM -RA FEW027 OVC035 09/06 A2988 RMK AO2 SLP120 P0000 60003 70003 T00890061 10128 20089 56031=
201204161053 METAR KPAE 161053Z AUTO 15010KT 10SM -RA OVC039 09/06 A2991 RMK AO2 SLP131 P0001 T00890061=
201204160953 METAR KPAE 160953Z AUTO VRB03KT 10SM -RA OVC045 09/06 A2994=
201204160853 METAR KPAE 160853Z AUTO 18009KT 10SM -RA BKN055 OVC070 11/05 A2998 RMK AO2 RAB31 SLP152 P0000 60000 T01060050 56010=
201204160753 METAR KPAE 160753Z AUTO 16008KT 10SM BKN060 OVC075 12/02 A2999 RMK AO2 SLP155 T01220017 401440078=
201204160653 METAR KPAE 160653Z AUTO 12004KT 10SM OVC090 12/02 A2999 RMK AO2 SLP157 T01170017=
201204160553 METAR KPAE 160553Z AUTO 12005KT 10SM BKN075 13/02 A3001 RMK AO2 SLP162 T01280022 10144 20128 58015=
201204160453 METAR KPAE 160453Z AUTO VRB03KT 10SM OVC100 13/02 A3003 RMK AO2 SLP169 T01330017=
201204160353 METAR KPAE 160353Z AUTO 15004KT 10SM OVC100 14/01 A3004 RMK AO2 SLP174 T01390011=
201204160253 METAR KPAE 160253Z 15003KT 10SM OVC110 14/02 A3005 RMK AO2 SLP178 T01440022 56019=
201204160153 METAR KPAE 160153Z 00000KT 10SM BKN100 14/04 A3007 RMK AO2 SLP183 T01390039=
201204160053 METAR KPAE 160053Z 26004KT 10SM CLR 14/03 A3009 RMK AO2 SLP190 T01390033=
201204152353 METAR KPAE 152353Z 23005KT 10SM CLR 14/04 A3011 RMK AO2 SLP197 T01390044 10139 20094 58016=
201204152253 METAR KPAE 152253Z 26007KT 10SM FEW095 13/05 A3013 RMK AO2 SLP203 T01280050=
201204152153 METAR KPAE 152153Z 27006KT 10SM CLR 12/06 A3015 RMK AO2 SLP211 T01220056=
201204152053 METAR KPAE 152053Z 26006KT 10SM BKN100 11/06 A3016 RMK AO2 SLP215 T01110056 58014=
201204151953 METAR KPAE 151953Z VRB05KT 10SM SCT035 BKN100 11/05 A3018 RMK AO2 SLP221 T01110050=
201204151906 SPECI KPAE 151906Z 19008KT 10SM FEW021 OVC100 11/04 A3019 RMK AO2=
201204151906 SPECI KPAE 151906Z 19008KT 10SM FEW021 OVC100 11/04 A3019 RMK AO2=
201204151853 METAR KPAE 151853Z 19007KT 10SM BKN021 OVC100 11/04 A3019 RMK AO2 SLP227 T01060044=
201204151753 METAR KPAE 151753Z 16010KT 10SM OVC021 09/04 A3020 RMK AO2 SLP229 T00940039 10094 20078 58001=
201204151653 METAR KPAE 151653Z 17005KT 10SM OVC015 08/04 A3020 RMK AO2 SLP229 T00830044=
201204151553 METAR KPAE 151553Z 17005KT 10SM SCT011 OVC014 08/04 A3020 RMK AO2 SLP230 T00780044=
201204151453 METAR KPAE 151453Z VRB03KT 10SM OVC012 08/04 A3020 RMK AO2 SLP229 T00780039 53006=
201204151353 METAR KPAE 151353Z 18007KT 10SM OVC014 08/04 A3019 RMK AO2 SLP226 T00780039=
201204151337 SPECI KPAE 151337Z AUTO 17005KT 10SM BKN014 OVC028 08/04 A3019 RMK AO2=
201204151337 SPECI KPAE 151337Z AUTO 17005KT 10SM BKN014 OVC028 08/04 A3019 RMK AO2=
201204151253 METAR KPAE 151253Z AUTO 19007KT 10SM SCT014 OVC022 08/04 A3019 RMK AO2 SLP225 T00780039=
201204151153 METAR KPAE 151153Z AUTO 15004KT 10SM OVC018 08/04 A3019 RMK AO2 SLP223 T00830039 10083 20083 53004=
201204151053 METAR KPAE 151053Z AUTO 15003KT 10SM OVC018 08/04 A3018 RMK AO2 SLP221 T00830039=
201204150953 METAR KPAE 150953Z AUTO 11005KT 10SM OVC016 08/04 A3018 RMK AO2 SLP220 T00830039=
201204150853 METAR KPAE 150853Z AUTO 10004KT 10SM BKN019 OVC025 08/04 A3017 RMK AO2 SLP220 T00830039 53014=
201204150753 METAR KPAE 150753Z AUTO 00000KT 10SM OVC019 08/04 A3016 RMK AO2 SLP215 T00830044 401440050=
201204150717 SPECI KPAE 150717Z AUTO 04004KT 10SM BKN023 OVC060 08/04 A3015 RMK AO2=
201204150717 SPECI KPAE 150717Z AUTO 04004KT 10SM BKN023 OVC060 08/04 A3015 RMK AO2=
201204150653 METAR KPAE 150653Z AUTO 05004KT 10SM SCT039 SCT046 BKN060 08/04 A3015 RMK AO2 SLP209 T00830044=
201204150553 METAR KPAE 150553Z AUTO 03006KT 10SM FEW036 SCT055 08/05 A3013 RMK AO2 SLP206 T00830050 10144 20083 52014=
201204150453 METAR KPAE 150453Z AUTO 01006KT 10SM CLR 09/05 A3012 RMK AO2 SLP200 T00940050=
201204150353 METAR KPAE 150353Z AUTO 03007KT 10SM CLR 09/06 A3011 RMK AO2 SLP197 T00940056=
201204150253 METAR KPAE 150253Z 36006KT 10SM CLR 11/05 A3009 RMK AO2 SLP192 T01060050 53003=
201204150153 METAR KPAE 150153Z 02003KT 10SM CLR 13/03 A3008 RMK AO2 SLP187 T01330033=
201204150053 METAR KPAE 150053Z 29004KT 10SM FEW040 14/03 A3008 RMK AO2 SLP189 T01390028=
201204142353 METAR KPAE 142353Z 26005KT 10SM FEW040 14/04 A3008 RMK AO2 SLP187 T01390044 10144 20117 53003=
201204142253 METAR KPAE 142253Z 24007KT 10SM CLR 14/06 A3007 RMK AO2 SLP184 T01390056=
201204142153 METAR KPAE 142153Z 27007KT 10SM FEW035 14/06 A3007 RMK AO2 SLP184 T01390056=
201204142053 METAR KPAE 142053Z 26011KT 10SM FEW035 12/06 A3007 RMK AO2 SLP185 T01170056 53008=
201204141953 METAR KPAE 141953Z 23010KT 10SM CLR 12/06 A3006 RMK AO2 SLP180 T01170056=
201204141853 METAR KPAE 141853Z 23005KT 10SM CLR 12/05 A3005 RMK AO2 SLP179 T01220050=
201204141753 METAR KPAE 141753Z 18006KT 10SM CLR 12/03 A3005 RMK AO2 SLP178 T01170033 10117 20050 51013=
201204141653 METAR KPAE 141653Z 18005KT 10SM CLR 11/04 A3005 RMK AO2 SLP176 T01060039=
201204141553 METAR KPAE 141553Z 18003KT 10SM CLR 08/04 A3004 RMK AO2 SLP173 T00780039=
201204141453 METAR KPAE 141453Z 00000KT 10SM CLR 06/03 A3001 RMK AO2 SLP164 T00610033 53011=
201204141353 METAR KPAE 141353Z 16004KT 10SM CLR 05/02 A3000 RMK AO2 SLP162 T00500022=
201204141253 METAR KPAE 141253Z AUTO 00000KT 10SM CLR 06/03 A2998 RMK AO2 SLP154 T00610028=
201204141153 METAR KPAE 141153Z AUTO 00000KT 10SM CLR 07/03 A2998 RMK AO2 SLP153 T00670033 10083 20050 51014=
201204141053 METAR KPAE 141053Z AUTO 00000KT 10SM CLR 07/03 A2997 RMK AO2 SLP150 T00670033=
201204140953 METAR KPAE 140953Z AUTO 00000KT 10SM CLR 07/03 A2995 RMK AO2 SLP144 T00720033=
201204140853 METAR KPAE 140853Z AUTO 00000KT 10SM CLR 08/03 A2994 RMK AO2 SLP139 T00780028 51014=
201204140753 METAR KPAE 140753Z AUTO 02003KT 10SM CLR 08/03 A2992 RMK AO2 SLP134 T00780028 401330033=
201204140653 METAR KPAE 140653Z AUTO 36005KT 10SM CLR 08/03 A2991 RMK AO2 SLP132 T00780028=
201204140553 METAR KPAE 140553Z AUTO 36005KT 10SM CLR 08/04 A2990 RMK AO2 SLP125 T00780044 10133 20078 51014=
201204140453 METAR KPAE 140453Z AUTO 36006KT 10SM CLR 09/04 A2989 RMK AO2 SLP123 T00890039=
201204140353 METAR KPAE 140353Z VRB04KT 10SM CLR 09/04 A2988 RMK AO2 SLP120 T00940039=
201204140253 METAR KPAE 140253Z 34006KT 10SM CLR 11/03 A2985 RMK AO2 SLP112 T01060033 51008=
201204140153 METAR KPAE 140153Z 34006KT 10SM CLR 12/03 A2985 RMK AO2 SLP108 T01220028=
201204140053 METAR KPAE 140053Z 34007KT 10SM CLR 13/03 A2984 RMK AO2 SLP106 T01330033=
201204132353 METAR KPAE 132353Z 36008KT 10SM CLR 13/04 A2983 RMK AO2 SLP103 T01330044 10133 20089 56005=
201204132253 METAR KPAE 132253Z 36007G15KT 10SM CLR 13/05 A2983 RMK AO2 SLP104 T01280050=
201204132153 METAR KPAE 132153Z 34008G16KT 310V020 10SM CLR 12/06 A2984 RMK AO2 SLP106 T01170056=
201204132053 METAR KPAE 132053Z 36009KT 320V020 10SM FEW020 11/06 A2984 RMK AO2 SLP108 T01110056 58001=
201204131953 METAR KPAE 131953Z 34008KT 320V020 10SM CLR 11/06 A2985=
201204131853 METAR KPAE 131853Z 34010G16KT 10SM FEW011 09/06 A2985 RMK AO2 SLP110 T00940056=
201204131753 METAR KPAE 131753Z VRB05KT 10SM SCT009 09/05 A2985 RMK AO2 SLP108 T00890050 10089 20033 53000=
201204131724 SPECI KPAE 131724Z 01008KT 10SM SCT007 08/04 A2984 RMK AO2=
201204131724 SPECI KPAE 131724Z 01008KT 10SM SCT007 08/04 A2984 RMK AO2=
201204131653 METAR KPAE 131653Z VRB06KT 10SM BKN005 07/04 A2985 RMK AO2 SLP110 T00670039=
201204131630 SPECI KPAE 131630Z 36006KT 10SM BKN005 07/04 A2985 RMK AO2=
201204131630 SPECI KPAE 131630Z 36006KT 10SM BKN005 07/04 A2985 RMK AO2=
201204131553 METAR KPAE 131553Z 01007KT 10SM SCT003 06/04 A2984 RMK AO2 SLP107 T00610039=
201204131453 METAR KPAE 131453Z 00000KT 1SM R16R/P6000FT BR OVC003 05/03 A2985 RMK AO2 SLP109 T00500033 53004=
201204131353 METAR KPAE 131353Z 00000KT 10SM SCT008 BKN010 04/02 A2983 RMK AO2 SLP105 T00390022=
201204131342 SPECI KPAE 131342Z AUTO 00000KT 10SM BKN008 04/02 A2984 RMK AO2 CIG 006V010=
201204131342 SPECI KPAE 131342Z AUTO 00000KT 10SM BKN008 04/02 A2984 RMK AO2 CIG 006V010=
201204131253 METAR KPAE 131253Z AUTO VRB03KT 10SM CLR 04/02 A2983 RMK AO2 SLP103 T00390022=
201204131153 METAR KPAE 131153Z AUTO 00000KT 10SM FEW002 04/02 A2983 RMK AO2 SLP105 70001 T00440022 10078 20039 53004=
201204131053 METAR KPAE 131053Z AUTO 00000KT 10SM CLR 05/03 A2983 RMK AO2 SLP103 T00500028=
201204130953 METAR KPAE 130953Z AUTO 04004KT 10SM CLR 06/03 A2982 RMK AO2 SLP100 T00560028=
201204130853 METAR KPAE 130853Z AUTO 04003KT 10SM CLR 06/03 A2982 RMK AO2 SLP100 T00560033 51002=
201204130753 METAR KPAE 130753Z AUTO 00000KT 10SM CLR 07/03 A2982 RMK AO2 SLP099 T00670033 401440056=
201204130653 METAR KPAE 130653Z AUTO 00000KT 10SM CLR 07/04 A2982 RMK AO2 SLP098 T00670039=
201204130553 METAR KPAE 130553Z AUTO 00000KT 10SM CLR 08/04 A2981 RMK AO2 SLP096 T00780039 10111 20078 58000=
201204130453 METAR KPAE 130453Z AUTO 11004KT 10SM SCT027 BKN038 08/04 A2983 RMK AO2 SLP102 T00830044=
201204130353 METAR KPAE 130353Z 11003KT 10SM FEW042 09/04 A2982 RMK AO2 SLP100 T00890044=
201204130253 METAR KPAE 130253Z 12005KT 10SM FEW033 09/04 A2981 RMK AO2 SLP097 T00940039 53005=
201204130153 METAR KPAE 130153Z 11008KT 10SM SCT065 10/05 A2981 RMK AO2 SLP095 T01000050=
201204130053 METAR KPAE 130053Z VRB03KT 10SM BKN090 11/03 A2981 RMK AO2 SLP094 T01110028=
201204122353 METAR KPAE 122353Z 16009KT 10SM BKN070 OVC090 10/03 A2980 RMK AO2 SLP093 60000 T01000028 10144 20094 51012=
201204122253 METAR KPAE 122253Z 20015G21KT 10SM FEW040 OVC100 09/04 A2980 RMK AO2 PK WND 20026/2219 WSHFT 2214 RAB21E42 SLP091 P0000 T00940039=
201204122234 SPECI KPAE 122234Z 21015G22KT 10SM -RA FEW029 BKN039 OVC090 09/04 A2979 RMK AO2 PK WND 20026/2219 WSHFT 2214 RAB21 P0000=
201204122234 SPECI KPAE 122234Z 21015G22KT 10SM -RA FEW029 BKN039 OVC090 09/04 A2979 RMK AO2 PK WND 20026/2219 WSHFT 2214 RAB21 P0000=
201204122153 METAR KPAE 122153Z 17011KT 10SM OVC090 12/05 A2978 RMK AO2 SLP084 T01170050=
201204122053 METAR KPAE 122053Z 24010KT 10SM FEW038 BKN060 BKN080 11/05 A2976 RMK AO2 RAB21E30 SLP080 P0000 60000 T01110050 53014=
201204121953 METAR KPAE 121953Z 27004KT 10SM FEW042 SCT050 BKN060 13/05 A2973 RMK AO2 SLP068 T01330050=
201204121853 METAR KPAE 121853Z VRB03KT 10SM SCT050 14/04 A2973=
201204121753 METAR KPAE 121753Z 11005KT 10SM CLR 13/03 A2972 RMK AO2 SLP065 60001 T01280033 10128 20078 53001=
201204121653 METAR KPAE 121653Z 12006KT 10SM CLR 11/05 A2971 RMK AO2 SLP062 P0001 T01060050=
201204121553 METAR KPAE 121553Z 12005KT 10SM BKN100 09/06 A2971 RMK AO2 SLP062 T00940061=
201204121453 METAR KPAE 121453Z 12004KT 10SM CLR 08/06 A2972 RMK AO2 SLP065 T00830061 56003=
201204121353 METAR KPAE 121353Z 12006KT 10SM BKN110 08/06 A2972 RMK AO2 SLP065 T00780056=
201204121253 METAR KPAE 121253Z AUTO VRB03KT 10SM BKN110 08/06 A2972 RMK AO2 SLP066 T00780061=
201204121153 METAR KPAE 121153Z AUTO 15008KT 10SM FEW120 08/06 A2973 RMK AO2 SLP068 60000 70043 T00780061 10089 20078 53003=
201204121053 METAR KPAE 121053Z AUTO 15008KT 10SM SCT004 OVC065 08/07 A2972 RMK AO2 SLP067 T00830067=
201204120953 METAR KPAE 120953Z AUTO 16009KT 10SM SCT004 OVC100 08/07 A2972=
201204120931 SPECI KPAE 120931Z AUTO 16007KT 10SM SCT008 OVC110 08/06 A2972 RMK AO2=
201204120931 SPECI KPAE 120931Z AUTO 16007KT 10SM SCT008 OVC110 08/06 A2972 RMK AO2=
201204120853 METAR KPAE 120853Z AUTO 18006KT 10SM OVC008 08/07 A2972 RMK AO2 CIG 005V013 SLP065 60000 T00830067 50003=
201204120804 SPECI KPAE 120804Z AUTO 16006KT 10SM BKN008 OVC012 09/07 A2972 RMK AO2 CIG 006V010=
201204120804 SPECI KPAE 120804Z AUTO 16006KT 10SM BKN008 OVC012 09/07 A2972 RMK AO2 CIG 006V010=
201204120753 METAR KPAE 120753Z AUTO 15005KT 10SM BKN010 OVC018 09/07 A2972 RMK AO2 CIG 006V013 SLP065 T00890067 401280089=
201204120748 SPECI KPAE 120748Z AUTO 16006KT 10SM BKN010 OVC018 09/07 A2972 RMK AO2 401280089=
201204120748 SPECI KPAE 120748Z AUTO 16006KT 10SM BKN010 OVC018 09/07 A2972 RMK AO2 401280089=
201204120653 METAR KPAE 120653Z AUTO 15005KT 10SM SCT010 OVC015 09/07 A2971=
201204120624 SPECI KPAE 120624Z AUTO 16006KT 10SM FEW003 OVC019 09/07 A2971 RMK AO2=
201204120624 SPECI KPAE 120624Z AUTO 16006KT 10SM FEW003 OVC019 09/07 A2971 RMK AO2=
201204120553 METAR KPAE 120553Z AUTO 12004KT 7SM BKN003 OVC026 09/07 A2970 RMK AO2 RAE24 SLP060 P0000 60030 T00890072 10100 20089 56004=
201204120550 SPECI KPAE 120550Z AUTO 11005KT 7SM BKN003 OVC026 09/07 A2970 RMK AO2 RAE24 P0000=
201204120550 SPECI KPAE 120550Z AUTO 11005KT 7SM BKN003 OVC026 09/07 A2970 RMK AO2 RAE24 P0000=
201204120531 SPECI KPAE 120531Z AUTO 11004KT 10SM FEW003 BKN026 OVC032 09/07 A2971 RMK AO2 RAE24 P0000=
201204120531 SPECI KPAE 120531Z AUTO 11004KT 10SM FEW003 BKN026 OVC032 09/07 A2971 RMK AO2 RAE24 P0000=
201204120523 SPECI KPAE 120523Z AUTO 12004KT 10SM -RA BKN028 BKN033 OVC041 09/07 A2971 RMK AO2 P0000=
201204120523 SPECI KPAE 120523Z AUTO 12004KT 10SM -RA BKN028 BKN033 OVC041 09/07 A2971 RMK AO2 P0000=
201204120453 METAR KPAE 120453Z AUTO 08004KT 10SM -RA BKN041 OVC048 09/07 A2971 RMK AO2 SLP062 P0004 T00890067=
201204120422 SPECI KPAE 120422Z AUTO 00000KT 7SM -RA SCT008 BKN030 OVC040 09/07 A2971 RMK AO2 P0003=
201204120422 SPECI KPAE 120422Z AUTO 00000KT 7SM -RA SCT008 BKN030 OVC040 09/07 A2971 RMK AO2 P0003=
201204120407 SPECI KPAE 120407Z AUTO 00000KT 5SM RA BR BKN008 BKN027 OVC036 09/07 A2972 RMK AO2 P0002=
201204120407 SPECI KPAE 120407Z AUTO 00000KT 5SM RA BR BKN008 BKN027 OVC036 09/07 A2972 RMK AO2 P0002=
201204120400 SPECI KPAE 120400Z AUTO 00000KT 6SM -RA BR FEW008 SCT027 OVC036 09/07 A2972 RMK AO2 P0001=
201204120400 SPECI KPAE 120400Z AUTO 00000KT 6SM -RA BR FEW008 SCT027 OVC036 09/07 A2972 RMK AO2 P0001=
201204120353 METAR KPAE 120353Z 00000KT 5SM RA BR BKN003 BKN012 OVC041 09/07 A2971=
201204120253 METAR KPAE 120253Z 00000KT 4SM RA BR BKN003 BKN012 OVC045 09/08 A2970 RMK AO2 SLP058 P0004 60013 T00940078 51004=
201204120153 METAR KPAE 120153Z 00000KT 5SM -RA BR BKN003 BKN007 OVC012 09/08 A2970 RMK AO2 SLP057 VIS N 1/2SM, W 1SM P0006 T00890078=
201204120133 SPECI KPAE 120133Z 01003KT 4SM R16R/5000VP6000FT -RA BR BKN003 OVC007 09/08 A2970 RMK AO2 VIS N 1/2SM, W 1SM P0005=
201204120133 SPECI KPAE 120133Z 01003KT 4SM R16R/5000VP6000FT -RA BR BKN003 OVC007 09/08 A2970 RMK AO2 VIS N 1/2SM, W 1SM P0005=
201204120125 SPECI KPAE 120125Z 00000KT 2 1/2SM R16R/5000VP6000FT -RA BR OVC003 09/08 A2970 RMK AO2 P0005=
201204120125 SPECI KPAE 120125Z 00000KT 2 1/2SM R16R/5000VP6000FT -RA BR OVC003 09/08 A2970 RMK AO2 P0005=
201204120053 METAR KPAE 120053Z 00000KT 3SM -RA BR BKN003 OVC040 09/08 A2970 RMK AO2 SLP058 P0003 T00940083=
201204112353 METAR KPAE 112353Z 00000KT 7SM -RA BKN006 BKN041 OVC055 10/08 A2969 RMK AO2 SLP055 P0002 60013 T01000078 10100 20089 53008=
201204112253 METAR KPAE 112253Z 00000KT 4SM -RA BR BKN006 BKN026 OVC039 09/08 A2968 RMK AO2 SLP051 P0004 T00940078=
201204112153 METAR KPAE 112153Z 27003KT 6SM -RA BR BKN006 BKN011 OVC046 09/07 A2967 RMK AO2 SLP049 P0004 T00940072=
201204112107 SPECI KPAE 112107Z 00000KT 6SM -RA BR BKN006 BKN012 OVC023 09/07 A2966 RMK AO2 P0001=
201204112107 SPECI KPAE 112107Z 00000KT 6SM -RA BR BKN006 BKN012 OVC023 09/07 A2966=
201204112100 SPECI KPAE 112100Z 00000KT 6SM -RA BR FEW006 BKN010 OVC023 09/07 A2966 RMK AO2 P0000=
201204112100 SPECI KPAE 112100Z 00000KT 6SM -RA BR FEW006 BKN010 OVC023 09/07 A2966 RMK AO2 P0000=
201204112053 METAR KPAE 112053Z 00000KT 5SM -RA BR BKN008 OVC029 09/07 A2966 RMK AO2 SLP046 P0003 60003 T00940072 56006=
201204111953 METAR KPAE 111953Z 01003KT 10SM -RA OVC008 09/07 A2967 RMK AO2 RAB09 SLP047 P0000 T00940067=
201204111853 METAR KPAE 111853Z 03003KT 10SM BKN010 OVC029 09/07 A2967 RMK AO2 SLP047 T00940067=
201204111802 SPECI KPAE 111802Z 00000KT 10SM OVC010 09/06 A2968 RMK AO2=
201204111802 SPECI KPAE 111802Z 00000KT 10SM OVC010 09/06 A2968 RMK AO2=
201204111753 METAR KPAE 111753Z VRB03KT 10SM BKN008 BKN030 OVC085 09/06 A2968 RMK AO2 RAE07 SLP052 P0000 60000 T00940061 10100 20089 57006=
201204111701 SPECI KPAE 111701Z VRB03KT 10SM -RA BKN008 BKN030 OVC085 09/07 A2969 RMK AO2 P0000=
201204111701 SPECI KPAE 111701Z VRB03KT 10SM -RA BKN008 BKN030 OVC085 09/07 A2969 RMK AO2 P0000=
201204111653 METAR KPAE 111653Z 01004KT 10SM -RA SCT008 BKN030 OVC070 09/07 A2969 RMK AO2 RAB09 SLP053 P0000 T00940067=
201204111642 SPECI KPAE 111642Z 36004KT 10SM FEW008 BKN049 OVC080 09/07 A2968 RMK AO2 RAB09E35 P0000=
201204111642 SPECI KPAE 111642Z 36004KT 10SM FEW008 BKN049 OVC080 09/07 A2968 RMK AO2 RAB09E35 P0000=
201204111607 SPECI KPAE 111607Z 34005KT 10SM SCT030 OVC050 09/06 A2970 RMK AO2=
201204111607 SPECI KPAE 111607Z 34005KT 10SM SCT030 OVC050 09/06 A2970 RMK AO2=
201204111553 METAR KPAE 111553Z 35003KT 10SM FEW007 BKN028 OVC050 09/06 A2970 RMK AO2 SLP057 T00890061=
201204111545 SPECI KPAE 111545Z 01004KT 10SM FEW007 BKN028 OVC050 09/06 A2970 RMK AO2=
201204111545 SPECI KPAE 111545Z 01004KT 10SM FEW007 BKN028 OVC050 09/06 A2970 RMK AO2=
201204111533 SPECI KPAE 111533Z 36004KT 10SM FEW006 SCT028 OVC050 09/07 A2970 RMK AO2=
201204111533 SPECI KPAE 111533Z 36004KT 10SM FEW006 SCT028 OVC050 09/07 A2970 RMK AO2=
201204111522 SPECI KPAE 111522Z 35006KT 10SM BKN028 OVC050 09/07 A2970 RMK AO2=
201204111522 SPECI KPAE 111522Z 35006KT 10SM BKN028 OVC050 09/07 A2970 RMK AO2=
201204111453 METAR KPAE 111453Z 36005KT 10SM FEW026 OVC048 09/07 A2970 RMK AO2 SLP057 T00890067 56008=
201204111353 METAR KPAE 111353Z 02005KT 10SM OVC048 09/06 A2971 RMK AO2 SLP060 T00890061=
201204111253 METAR KPAE 111253Z AUTO 01005KT 10SM OVC046 09/06 A2972 RMK AO2 SLP063 T00940061=
201204111153 METAR KPAE 111153Z AUTO 00000KT 10SM BKN046 09/06 A2973 RMK AO2 SLP066 T00890061 10128 20089 56013=
201204111053 METAR KPAE 111053Z AUTO 02004KT 10SM BKN046 09/06 A2974 RMK AO2 SLP069 T00940061=
201204110953 METAR KPAE 110953Z AUTO 00000KT 10SM SCT047 BKN090 10/06 A2976 RMK AO2 SLP076 T01000056=
201204110853 METAR KPAE 110853Z AUTO 00000KT 10SM FEW047 11/06 A2977 RMK AO2 SLP079 T01060056 58011=
201204110753 METAR KPAE 110753Z AUTO 00000KT 10SM BKN049 OVC060 13/06 A2979 RMK AO2 SLP086 T01280056 401940083=
201204110653 METAR KPAE 110653Z AUTO 00000KT 10SM OVC047 12/06 A2979 RMK AO2 SLP088 T01220056=
201204110553 METAR KPAE 110553Z AUTO 00000KT 10SM SCT050 OVC060 12/05 A2980 RMK AO2 SLP091 T01220050 10178 20122 50002=
201204110453 METAR KPAE 110453Z AUTO 35003KT 10SM FEW050 BKN110 13/06 A2980=
201204110353 METAR KPAE 110353Z AUTO 25007KT 10SM OVC110 15/06 A2981 RMK AO2 SLP094 T01500056=
201204110253 METAR KPAE 110253Z 19005KT 10SM SCT075 OVC090 16/06 A2979 RMK AO2 SLP089 T01610056 53003=
201204110153 METAR KPAE 110153Z 21006KT 10SM BKN110 17/06 A2978 RMK AO2 SLP084 T01720056=
201204110053 METAR KPAE 110053Z 18009KT 10SM CLR 17/06 A2978 RMK AO2 SLP084 T01720061=
201204102353 METAR KPAE 102353Z 19012KT 10SM CLR 18/06 A2979 RMK AO2 SLP086 T01780056 10194 20117 53005=
201204102253 METAR KPAE 102253Z 19013G21KT 10SM CLR 18/04 A2977 RMK AO2 SLP082 T01830044=
201204102153 METAR KPAE 102153Z 20008KT 10SM CLR 18/03 A2977 RMK AO2 SLP080 T01780033=
201204102053 METAR KPAE 102053Z 23004KT 10SM CLR 15/06 A2977 RMK AO2 SLP082 T01500056 51005=
201204101953 METAR KPAE 101953Z 25006KT 10SM CLR 14/05 A2977 RMK AO2 SLP081 T01440050=
201204101853 METAR KPAE 101853Z 24005KT 10SM OVC120 12/05 A2976 RMK AO2 SLP078 T01220050=
201204101753 METAR KPAE 101753Z 00000KT 10SM CLR 12/04 A2976 RMK AO2 SLP077 T01170044 10117 20083 53009=
201204101653 METAR KPAE 101653Z 01003KT 10SM CLR 11/04 A2973 RMK AO2 SLP068 T01110039=
201204101553 METAR KPAE 101553Z COR 35004KT 10SM OVC120 10/04 A2974 RMK AO2 SLP070 T01000044=
201204101453 METAR KPAE 101453Z 00000KT 10SM OVC120 09/05 A2973 RMK AO2 SLP068 T00890050 55004=
201204101353 METAR KPAE 101353Z 36004KT 10SM CLR 08/06 A2973 RMK AO2 SLP066 T00830056=
201204101253 METAR KPAE 101253Z AUTO 36006KT 10SM CLR 08/06 A2973 RMK AO2 SLP069 T00830061=
201204101153 METAR KPAE 101153Z AUTO 36006KT 10SM CLR 08/06 A2974 RMK AO2 SLP073 T00830061 10111 20083 56020=
201204101053 METAR KPAE 101053Z AUTO 36008KT 10SM CLR 09/06 A2976 RMK AO2 SLP076 T00890061=
201204100953 METAR KPAE 100953Z AUTO 36008KT 10SM CLR 09/06 A2978 RMK AO2 SLP083 T00940061=
201204100853 METAR KPAE 100853Z AUTO 35005KT 10SM CLR 09/06 A2981 RMK AO2 SLP093 T00940061 58018=
201204100753 METAR KPAE 100753Z AUTO 36010G15KT 10SM CLR 10/06 A2983 RMK AO2 SLP100 T01000061 401780067=
201204100653 METAR KPAE 100653Z AUTO 36008KT 10SM CLR 10/06 A2984 RMK AO2 SLP106 T01000056=
201204100553 METAR KPAE 100553Z AUTO 35006KT 10SM CLR 11/02 A2986 RMK AO2 SLP111 T01110017 10167 20111 58013=
201204100453 METAR KPAE 100453Z AUTO 33005KT 10SM CLR 12/02 A2988 RMK AO2 SLP119 T01170022=
201204100353 METAR KPAE 100353Z AUTO 32004KT 10SM OVC110 13/02 A2990 RMK AO2 SLP125 T01280022=
201204100253 METAR KPAE 100253Z 00000KT 10SM OVC110 14/02 A2990 RMK AO2 SLP125 T01440017 53003=
201204100153 METAR KPAE 100153Z 33003KT 10SM BKN120 15/03 A2988 RMK AO2 SLP119 T01500028=
201204100053 METAR KPAE 100053Z 35003KT 10SM BKN110 16/03 A2989 RMK AO2 SLP121 T01560028=
201204092353 METAR KPAE 092353Z 01005KT 10SM OVC110 16/03 A2989 RMK AO2 SLP121 T01610028 10178 20133 55013=
201204092253 METAR KPAE 092253Z 36006KT 10SM CLR 18/03 A2989 RMK AO2 SLP120 T01780028=
201204092153 METAR KPAE 092153Z 29005KT 10SM CLR 17/04 A2991 RMK AO2 SLP128 T01670039=
201204092053 METAR KPAE 092053Z 30005KT 10SM CLR 16/M01 A2993 RMK AO2 SLP134 T01611006 58016=
201204091953 METAR KPAE 091953Z 27006KT 10SM FEW120 14/04 A2995 RMK AO2 SLP141 T01440039=
201204091853 METAR KPAE 091853Z 27003KT 10SM CLR 14/04 A2996 RMK AO2 SLP146 T01390039=
201204091753 METAR KPAE 091753Z 30004KT 10SM CLR 14/05 A2998 RMK AO2 SLP151 T01390050 10144 20067 58003=
201204091653 METAR KPAE 091653Z 00000KT 10SM CLR 12/03 A2999 RMK AO2 SLP154 T01220033=
201204091553 METAR KPAE 091553Z 29003KT 10SM CLR 10/04 A2999 RMK AO2 SLP156 T01000039=
201204091453 METAR KPAE 091453Z 00000KT 10SM CLR 09/02 A2999 RMK AO2 SLP155 T00890022 53001=
201204091353 METAR KPAE 091353Z 00000KT 10SM CLR 07/03 A2998 RMK AO2 SLP153 T00670028=
201204091253 METAR KPAE 091253Z 00000KT 10SM CLR 09/03 A2998 RMK AO2 SLP150 T00890033=
201204091153 METAR KPAE 091153Z VRB03KT 10SM CLR 09/03 A2998 RMK AO2 SLP153 T00890033 10122 20083 57002=
201204091053 METAR KPAE 091053Z 00000KT 10SM CLR 09/03 A2998 RMK AO2 SLP152 T00940028=
201204090953 METAR KPAE 090953Z 02003KT 10SM CLR 09/04 A2999 RMK AO2 SLP155 T00890044=
201204090853 METAR KPAE 090853Z 36004KT 10SM CLR 09/04 A2999 RMK AO2 SLP155 T00940039 58010=
201204090753 METAR KPAE 090753Z 00000KT 10SM CLR 10/03 A3001=
201204090653 METAR KPAE 090653Z 05003KT 10SM FEW120 12/02 A3002 RMK AO2 SLP165 T01220017=
201204090553 METAR KPAE 090553Z 04003KT 10SM BKN110 12/03 A3002 RMK AO2 SLP165 T01220028 10183 20122 58003=
201204090453 METAR KPAE 090453Z 04004KT 10SM OVC100 13/02 A3003 RMK AO2 SLP168 T01330022=
201204090353 METAR KPAE 090353Z 04004KT 10SM FEW110 13/02 A3003 RMK AO2 SLP170 T01330022=
201204090253 METAR KPAE 090253Z 36005KT 10SM SCT095 15/00 A3003=
201204090153 METAR KPAE 090153Z 35005KT 10SM FEW100 16/M01 A3003 RMK AO2 SLP170 T01611006=
201204090053 METAR KPAE 090053Z 34005KT 10SM FEW100 16/M01 A3004 RMK AO2 SLP173 T01611006=
201204082353 METAR KPAE 082353Z 36005KT 10SM FEW120 18/M01 A3004 RMK AO2 SLP172 T01781011 10183 20133 56017=
201204082253 METAR KPAE 082253Z 34005KT 10SM CLR 17/M01 A3005 RMK AO2 SLP176 T01721011=
201204082153 METAR KPAE 082153Z 36008KT 10SM CLR 17/M02 A3007 RMK AO2 SLP184 T01671017=
201204082053 METAR KPAE 082053Z 36008KT 10SM BKN120 17/M02 A3009 RMK AO2 SLP190 T01671022 58015=
201204081953 METAR KPAE 081953Z 34006KT 10SM SCT120 16/M02 A3011 RMK AO2 SLP195 T01611022=
201204081853 METAR KPAE 081853Z VRB04KT 10SM CLR 16/M02 A3013 RMK AO2 SLP202 T01561022=
201204081753 METAR KPAE 081753Z 02005KT 10SM BKN110 13/M03 A3014 RMK AO2 SLP206 T01281033 10128 20072 58000=
201204081653 METAR KPAE 081653Z 01005KT 10SM BKN110 12/M03 A3014 RMK AO2 SLP208 T01221033=
201204081553 METAR KPAE 081553Z 02004KT 10SM CLR 11/M03 A3014 RMK AO2 SLP208 T01061033=
201204081453 METAR KPAE 081453Z 03004KT 10SM CLR 08/M03 A3014 RMK AO2 SLP208 T00781033 55001=
201204081353 METAR KPAE 081353Z 03004KT 10SM CLR 07/M04 A3014 RMK AO2 SLP207 T00721039=
201204081253 METAR KPAE 081253Z AUTO 03004KT 10SM FEW110 07/M04 A3014 RMK AO2 SLP206 T00721039=
201204081153 METAR KPAE 081153Z AUTO 04003KT 10SM BKN110 08/M04 A3014=
201204081053 METAR KPAE 081053Z AUTO 04004KT 10SM BKN100 08/M03 A3015 RMK AO2 SLP211 T00781033=
201204080953 METAR KPAE 080953Z AUTO 02004KT 10SM OVC110 08/M03 A3016 RMK AO2 SLP216 T00781028=
201204080853 METAR KPAE 080853Z AUTO 06004KT 10SM OVC100 09/M04 A3018 RMK AO2 SLP221 T00941039 58005=
201204080753 METAR KPAE 080753Z AUTO 07005KT 10SM CLR 10/M04 A3019 RMK AO2 SLP225 T01001044 401390028=
201204080653 METAR KPAE 080653Z AUTO 07005KT 10SM CLR 11/M04 A3019 RMK AO2 SLP226 T01061044=
201204080553 METAR KPAE 080553Z AUTO 10006KT 10SM CLR 11/M04 A3019 RMK AO2 SLP227 T01111044 10139 20106 50007=
201204080453 METAR KPAE 080453Z AUTO 10007KT 10SM CLR 11/M04 A3020 RMK AO2 SLP227 T01111039=
201204080353 METAR KPAE 080353Z AUTO 10006KT 10SM CLR 12/M03 A3019 RMK AO2 SLP226 T01171033=
201204080253 METAR KPAE 080253Z 07004KT 10SM CLR 12/M02 A3017 RMK AO2 SLP219 T01221017 58004=
201204080153 METAR KPAE 080153Z 36006KT 10SM CLR 11/02 A3018 RMK AO2 SLP221 T01110022=
201204080053 METAR KPAE 080053Z 35007KT 10SM CLR 13/02 A3018 RMK AO2 SLP223 T01330017=
201204072353 METAR KPAE 072353Z 36007G14KT 10SM CLR 14/01 A3018 RMK AO2 SLP223 T01390011 10139 20078 56010=
201204072253 METAR KPAE 072253Z 34007KT 10SM CLR 14/02 A3019 RMK AO2 SLP226 T01390017=
201204072153 METAR KPAE 072153Z 35010G16KT 10SM CLR 12/03 A3020 RMK AO2 SLP231 T01220028=
201204072053 METAR KPAE 072053Z 36007KT 10SM CLR 12/02 A3022 RMK AO2 SLP235 T01170017 58019=
201204071953 METAR KPAE 071953Z 35006KT 10SM CLR 10/02 A3024 RMK AO2 SLP243 T01000017=
201204071853 METAR KPAE 071853Z VRB03KT 10SM CLR 09/00 A3027 RMK AO2 SLP252 T00890000=
201204071753 METAR KPAE 071753Z 36006KT 10SM CLR 08/01 A3027 RMK AO2 SLP254 T00780006 10083 20028 50000=
201204071653 METAR KPAE 071653Z 36003KT 10SM CLR 08/00 A3028 RMK AO2 SLP256 T00780000=
201204071553 METAR KPAE 071553Z 12003KT 10SM CLR 06/M01 A3027 RMK AO2 SLP254 T00611006=
201204071453 METAR KPAE 071453Z 07004KT 10SM CLR 04/M01 A3027 RMK AO2 SLP254 T00441011 55004=
201204071353 METAR KPAE 071353Z 10004KT 10SM CLR 03/M02 A3027 RMK AO2 SLP253 T00281017=
201204071253 METAR KPAE 071253Z AUTO 11005KT 10SM CLR 03/M01 A3027 RMK AO2 SLP254 T00281011=
201204071153 METAR KPAE 071153Z AUTO 11004KT 10SM CLR 03/M01 A3029 RMK AO2 SLP259 T00281006 10056 20028 58004=
201204071053 METAR KPAE 071053Z AUTO 12003KT 10SM CLR 03/01 A3029 RMK AO2 SLP260 T00330006=
201204070953 METAR KPAE 070953Z AUTO 12004KT 10SM CLR 03/01 A3030 RMK AO2 SLP263 T00330011=
201204070853 METAR KPAE 070853Z AUTO 11003KT 10SM OVC041 04/02 A3030 RMK AO2 SLP263 T00390017 53002=
201204070753 METAR KPAE 070753Z AUTO 00000KT 10SM CLR 05/02 A3029 RMK AO2 SLP261 T00500017 401060044=
201204070653 METAR KPAE 070653Z AUTO 02004KT 10SM CLR 06/03 A3029 RMK AO2 SLP261 T00560028=
201204070553 METAR KPAE 070553Z AUTO 35003KT 10SM BKN043 BKN049 06/02 A3029 RMK AO2 SLP261 T00560022 10106 20056 50007=
201204070453 METAR KPAE 070453Z AUTO 35004KT 10SM FEW040 BKN050 06/01 A3029 RMK AO2 SLP262 T00610011=
201204070353 METAR KPAE 070353Z AUTO 00000KT 10SM CLR 08/00 A3028 RMK AO2 SLP257 T00780000=
201204070253 METAR KPAE 070253Z 12003KT 10SM FEW080 08/01 A3027 RMK AO2 SLP254 T00780006 53002=
201204070153 METAR KPAE 070153Z 07004KT 10SM CLR 09/01 A3026 RMK AO2 SLP252 T00890006=
201204070053 METAR KPAE 070053Z 12006KT 10SM SCT027 BKN045 09/01 A3026 RMK AO2 SLP252 T00940011=
201204062353 METAR KPAE 062353Z VRB04KT 10SM SCT027 BKN045 09/02 A3026 RMK AO2 SLP251 T00940017 10106 20056 56002=
201204062253 METAR KPAE 062253Z VRB03KT 10SM FEW050 09/01 A3027 RMK AO2 SLP252 T00940006=
201204062153 METAR KPAE 062153Z 24005KT 10SM BKN025 BKN060 08/M01 A3027 RMK AO2 SLP253 T00831006=
201204062053 METAR KPAE 062053Z 18008KT 10SM BKN024 BKN060 08/01 A3027 RMK AO2 SLP253 T00830011 58002=
201204061953 METAR KPAE 061953Z 25005KT 10SM SCT024 BKN030 BKN041 07/02 A3027 RMK AO2 SLP254 T00720022=
201204061853 METAR KPAE 061853Z 00000KT 10SM FEW014 BKN019 OVC024 07/03 A3028 RMK AO2 SLP256 T00670028=
201204061753 METAR KPAE 061753Z 19004KT 10SM BKN019 OVC022 06/02 A3027 RMK AO2 SLP255 T00610017 10061 20044 51014=
201204061700 SPECI KPAE 061700Z 00000KT 10SM BKN015 OVC022 04/02 A3027 RMK AO2=
201204061700 SPECI KPAE 061700Z 00000KT 10SM BKN015 OVC022 04/02 A3027 RMK AO2=
201204061653 METAR KPAE 061653Z 00000KT 10SM FEW002 BKN010 OVC015 05/02 A3026 RMK AO2 SLP252 T00500022=
201204061553 METAR KPAE 061553Z 19004KT 10SM FEW002 BKN010 OVC019 05/02 A3025 RMK AO2 SLP248 T00500017=
201204061453 METAR KPAE 061453Z 19008KT 10SM BKN008 OVC013 05/02 A3023 RMK AO2 SLP240 T00500017 53015=
201204061417 SPECI KPAE 061417Z 16003KT 10SM BKN008 OVC018 05/02 A3022 RMK AO2=
201204061417 SPECI KPAE 061417Z 16003KT 10SM BKN008 OVC018 05/02 A3022 RMK AO2=
201204061405 SPECI KPAE 061405Z 16004KT 10SM SCT008 BKN016 OVC020 05/02 A3021 RMK AO2=
201204061405 SPECI KPAE 061405Z 16004KT 10SM SCT008 BKN016 OVC020 05/02 A3021 RMK AO2=
201204061353 METAR KPAE 061353Z 16004KT 10SM FEW010 OVC016 05/02 A3021 RMK AO2 SLP234 T00500022=
201204061304 SPECI KPAE 061304Z AUTO 00000KT 10SM FEW016 BKN028 OVC048 04/02 A3020 RMK AO2=
201204061304 SPECI KPAE 061304Z AUTO 00000KT 10SM FEW016 BKN028 OVC048 04/02 A3020 RMK AO2=
201204061253 METAR KPAE 061253Z AUTO 00000KT 10SM FEW016 BKN048 OVC060 04/02 A3020 RMK AO2 SLP228 T00440022=
201204061241 SPECI KPAE 061241Z AUTO 00000KT 10SM FEW014 SCT029 BKN048 04/02 A3019 RMK AO2=
201204061241 SPECI KPAE 061241Z AUTO 00000KT 10SM FEW014 SCT029 BKN048 04/02 A3019 RMK AO2=
201204061153 METAR KPAE 061153Z AUTO 20003KT 10SM BKN016 OVC048 04/02 A3019 RMK AO2 SLP226 70008 T00440022 10050 20044 51005=
201204061053 METAR KPAE 061053Z AUTO 18003KT 10SM SCT016 SCT023 BKN046 04/02 A3018 RMK AO2 SLP223 T00440017=
201204060953 METAR KPAE 060953Z AUTO 00000KT 10SM BKN022 OVC028 05/02 A3017 RMK AO2 SLP220 T00500022=
201204060923 SPECI KPAE 060923Z AUTO 16003KT 10SM BKN022 04/02 A3017 RMK AO2=
201204060923 SPECI KPAE 060923Z AUTO 16003KT 10SM BKN022 04/02 A3017 RMK AO2=
201204060853 METAR KPAE 060853Z AUTO 00000KT 10SM BKN044 04/02 A3017 RMK AO2 SLP218 T00440017 53003=
201204060753 METAR KPAE 060753Z AUTO 12004KT 10SM SCT018 BKN042 04/02 A3016 RMK AO2 SLP216 T00440022 400890044=
201204060653 METAR KPAE 060653Z AUTO 12006KT 10SM BKN018 OVC041 05/03 A3016 RMK AO2 SLP215 T00500028=
201204060649 SPECI KPAE 060649Z AUTO 12006KT 10SM BKN018 OVC041 05/03 A3016 RMK AO2=
201204060649 SPECI KPAE 060649Z AUTO 12006KT 10SM BKN018 OVC041 05/03 A3016 RMK AO2=
201204060553 METAR KPAE 060553Z AUTO 35003KT 10SM FEW016 BKN039 06/02 A3016 RMK AO2 SLP217 T00560022 10072 20044 51009=
201204060453 METAR KPAE 060453Z AUTO 00000KT 10SM FEW040 05/01 A3016 RMK AO2 SLP216 T00500011=
201204060353 METAR KPAE 060353Z AUTO 00000KT 10SM CLR 06/01 A3015 RMK AO2 SLP213 T00560006=
201204060253 METAR KPAE 060253Z 29004KT 10SM SCT022 07/02 A3013 RMK AO2 SLP206 T00670022 53005=
201204060153 METAR KPAE 060153Z 24005KT 10SM FEW025 07/02 A3012 RMK AO2 SLP203 T00720017=
201204060053 METAR KPAE 060053Z 25006KT 10SM CLR 07/02 A3012 RMK AO2 SLP201 T00720022=
201204052353 METAR KPAE 052353Z 26008G15KT 210V280 10SM SCT025 07/02 A3012 RMK AO2 SLP201 60002 T00720022 10089 20044 56004=
201204052253 METAR KPAE 052253Z 27008KT 10SM SCT025 08/02 A3012 RMK AO2 SLP201 T00830017=
201204052153 METAR KPAE 052153Z 27009KT 10SM SCT024 SCT050 08/03 A3012 RMK AO2 SLP202 T00830028=
201204052053 METAR KPAE 052053Z 30006KT 10SM SCT024 BKN070 08/02 A3013 RMK AO2 SLP205 60002 T00780022 58005=
201204052000 SPECI KPAE 052000Z 00000KT 10SM FEW017 SCT070 07/02 A3014 RMK AO2=
201204052000 SPECI KPAE 052000Z 00000KT 10SM FEW017 SCT070 07/02 A3014 RMK AO2=
201204051953 METAR KPAE 051953Z VRB04KT 10SM SCT015 BKN018 BKN070 07/02 A3014 RMK AO2 SLP208 T00720022=
201204051853 METAR KPAE 051853Z VRB03KT 10SM SCT012 BKN018 BKN070 07/03 A3014=
201204051849 SPECI KPAE 051849Z 00000KT 10SM SCT012 BKN018 BKN070 07/03 A3014 RMK AO2 RAE16 P0002=
201204051849 SPECI KPAE 051849Z 00000KT 10SM SCT012 BKN018 BKN070 07/03 A3014 RMK AO2 RAE16 P0002=
201204051823 SPECI KPAE 051823Z 00000KT 10SM FEW023 BKN034 OVC065 06/03 A3014 RMK AO2 RAE16 P0002=
201204051823 SPECI KPAE 051823Z 00000KT 10SM FEW023 BKN034 OVC065 06/03 A3014 RMK AO2 RAE16 P0002=
201204051753 METAR KPAE 051753Z 00000KT 5SM R16R/5000VP6000FT RA BR BKN018 OVC022 04/02 A3015 RMK AO2 RAB11 SLP212 P0006 60006 T00440022 10067 20044 53005=
201204051706 SPECI KPAE 051706Z VRB05KT 10SM SCT008 BKN027 OVC044 07/03 A3013 RMK AO2=
201204051706 SPECI KPAE 051706Z VRB05KT 10SM SCT008 BKN027 OVC044 07/03 A3013 RMK AO2=
201204051653 METAR KPAE 051653Z 26006KT 10SM SCT018 BKN024 OVC045 07/02 A3013 RMK AO2 SLP207 T00670022=
201204051553 METAR KPAE 051553Z 32005KT 10SM SCT029 BKN047 06/02 A3013 RMK AO2 SLP206 T00560017=
201204051543 SPECI KPAE 051543Z 29005KT 10SM SCT029 SCT047 06/02 A3013 RMK AO2=
201204051543 SPECI KPAE 051543Z 29005KT 10SM SCT029 SCT047 06/02 A3013 RMK AO2=
201204051453 METAR KPAE 051453Z 00000KT 10SM OVC020 05/02 A3013=
201204051353 METAR KPAE 051353Z 00000KT 10SM OVC016 05/02 A3012 RMK AO2 SLP202 T00500022=
201204051253 METAR KPAE 051253Z 00000KT 10SM BKN022 BKN050 04/03 A3011 RMK AO2 RAB00E28 SLP200 P0000 T00440028=
201204051153 METAR KPAE 051153Z 33004KT 10SM SCT012 BKN050 05/02 A3011 RMK AO2 SLP198 T00500017 10061 20050 51001=
201204051129 SPECI KPAE 051129Z 34003KT 10SM BKN014 OVC022 05/02 A3011 RMK AO2=
201204051129 SPECI KPAE 051129Z 34003KT 10SM BKN014 OVC022 05/02 A3011 RMK AO2=
201204051053 METAR KPAE 051053Z 00000KT 10SM SCT016 BKN028 OVC047 05/02 A3011=
201204051005 SPECI KPAE 051005Z 00000KT 10SM SCT016 BKN023 OVC044 05/03 A3010 RMK AO2=
201204051005 SPECI KPAE 051005Z 00000KT 10SM SCT016 BKN023 OVC044 05/03 A3010 RMK AO2=
201204050953 METAR KPAE 050953Z 00000KT 10SM FEW026 BKN044 05/03 A3010 RMK AO2 SLP197 T00500028=
201204050853 METAR KPAE 050853Z 32004KT 10SM FEW013 SCT030 OVC035 06/03 A3010 RMK AO2 SLP196 T00560033 51003=
201204050849 SPECI KPAE 050849Z 00000KT 10SM FEW013 BKN030 OVC037 06/03 A3010 RMK AO2=
201204050849 SPECI KPAE 050849Z 00000KT 10SM FEW013 BKN030 OVC037 06/03 A3010 RMK AO2=
201204050753 METAR KPAE 050753Z 00000KT 10SM BKN016 BKN027 OVC046 06/02 A3010 RMK AO2 SLP195 T00610022 400940033=
201204050725 SPECI KPAE 050725Z 00000KT 10SM BKN016 OVC040 06/03 A3010 RMK AO2=
201204050725 SPECI KPAE 050725Z 00000KT 10SM BKN016 OVC040 06/03 A3010 RMK AO2=
201204050653 METAR KPAE 050653Z 00000KT 10SM FEW017 OVC038 06/03 A3009 RMK AO2 SLP193 T00610028=
201204050553 METAR KPAE 050553Z 00000KT 10SM OVC038 06/02 A3009 RMK AO2 SLP194 T00560022 10089 20050 51008=
201204050453 METAR KPAE 050453Z 00000KT 10SM CLR 06/02 A3009 RMK AO2 SLP194 T00560017=
201204050353 METAR KPAE 050353Z 33003KT 10SM BKN070 06/02 A3008 RMK AO2 SLP191 T00610017=
201204050253 METAR KPAE 050253Z 27005KT 10SM SCT065 07/02 A3007 RMK AO2 SLP186 T00670022 51011=
201204050153 METAR KPAE 050153Z 26007KT 10SM SCT039 07/02 A3006 RMK AO2 SLP184 T00720017=
201204050053 METAR KPAE 050053Z 25003KT 10SM SCT050 08/M01 A3005 RMK AO2 SLP178 T00831006=
201204042353 METAR KPAE 042353Z 27006KT 10SM CLR 09/00 A3004 RMK AO2 SLP174 60000 T00890000 10094 20056 53002=
201204042253 METAR KPAE 042253Z 30007KT 10SM SCT045 09/01 A3003 RMK AO2 SLP172 T00890006=
201204042153 METAR KPAE 042153Z VRB04KT 10SM FEW045 09/01 A3003=
201204042053 METAR KPAE 042053Z 29005KT 10SM SCT043 09/01 A3003=
201204041953 METAR KPAE 041953Z 00000KT 10SM -RA SCT043 07/01 A3002=
201204041853 METAR KPAE 041853Z 28006KT 10SM SCT012 BKN043 07/02 A3002 RMK AO2 SLP168 T00670017=
201204041753 METAR KPAE 041753Z 26005KT 10SM SCT008 OVC039 06/02 A3001 RMK AO2 SLP167 T00560022 10061 20033 53012=
201204041653 METAR KPAE 041653Z VRB04KT 10SM SCT015 OVC031 05/02 A3000 RMK AO2 SLP162 T00500022=
201204041553 METAR KPAE 041553Z 17004KT 10SM FEW012 OVC031 04/01 A2998 RMK AO2 SLP157 T00440011=
201204041525 SPECI KPAE 041525Z 16004KT 10SM SCT010 OVC031 04/02 A2998 RMK AO2=
201204041525 SPECI KPAE 041525Z 16004KT 10SM SCT010 OVC031 04/02 A2998 RMK AO2=
201204041453 METAR KPAE 041453Z 17003KT 10SM SCT021 OVC027 04/01 A2998=
201204041353 METAR KPAE 041353Z 16003KT 10SM FEW009 OVC025 04/02 A2997 RMK AO2 SLP151 T00390017=
201204041307 SPECI KPAE 041307Z AUTO 16004KT 10SM SCT007 OVC025 04/02 A2996 RMK AO2=
201204041307 SPECI KPAE 041307Z AUTO 16004KT 10SM SCT007 OVC025 04/02 A2996 RMK AO2=
201204041253 METAR KPAE 041253Z AUTO 16003KT 10SM BKN007 BKN025 04/02 A2997 RMK AO2 SLP150 T00390017=
201204041153 METAR KPAE 041153Z AUTO 00000KT 10SM BKN009 OVC033 04/02 A2996 RMK AO2 SLP148 70028 T00390022 10050 20039 58002=
201204041149 SPECI KPAE 041149Z AUTO 00000KT 10SM BKN009 OVC031 04/02 A2996 RMK AO2=
201204041149 SPECI KPAE 041149Z AUTO 00000KT 10SM BKN009 OVC031 04/02 A2996 RMK AO2=
201204041137 SPECI KPAE 041137Z AUTO 00000KT 10SM SCT009 OVC031 04/02 A2996 RMK AO2=
201204041137 SPECI KPAE 041137Z AUTO 00000KT 10SM SCT009 OVC031 04/02 A2996 RMK AO2=
201204041103 SPECI KPAE 041103Z AUTO 00000KT 10SM OVC031 04/02 A2996 RMK AO2=
201204041103 SPECI KPAE 041103Z AUTO 00000KT 10SM OVC031 04/02 A2996 RMK AO2=
201204041053 METAR KPAE 041053Z AUTO 00000KT 10SM OVC029 04/02 A2997=
201204040953 METAR KPAE 040953Z AUTO 24003KT 10SM FEW008 OVC027 04/02 A2996 RMK AO2 SLP150 T00440017=
201204040950 SPECI KPAE 040950Z AUTO 25003KT 10SM FEW008 OVC027 04/02 A2997 RMK AO2=
201204040950 SPECI KPAE 040950Z AUTO 25003KT 10SM FEW008 OVC027 04/02 A2997 RMK AO2=
201204040924 SPECI KPAE 040924Z AUTO 20004KT 10SM OVC029 04/02 A2997 RMK AO2=
201204040924 SPECI KPAE 040924Z AUTO 20004KT 10SM OVC029 04/02 A2997 RMK AO2=
201204040901 SPECI KPAE 040901Z AUTO 16006KT 10SM OVC031 04/02 A2997 RMK AO2=
201204040901 SPECI KPAE 040901Z AUTO 16006KT 10SM OVC031 04/02 A2997 RMK AO2=
201204040853 METAR KPAE 040853Z AUTO 17004KT 10SM BKN027 OVC033 04/02 A2997 RMK AO2 SLP153 T00440017 56001=
201204040753 METAR KPAE 040753Z AUTO 18006KT 10SM OVC028 04/02 A2997 RMK AO2 SLP153 T00440017 401220044=
201204040653 METAR KPAE 040653Z AUTO 17006KT 10SM OVC024 05/02 A2998 RMK AO2 SLP154 T00500017=
201204040628 SPECI KPAE 040628Z AUTO 17006KT 10SM BKN015 OVC024 05/02 A2997 RMK AO2=
201204040628 SPECI KPAE 040628Z AUTO 17006KT 10SM BKN015 OVC024 05/02 A2997 RMK AO2=
201204040553 METAR KPAE 040553Z AUTO 16006KT 10SM BKN012 OVC018 05/02 A2998 RMK AO2 SLP154 T00500017 10089 20050 51007=
201204040453 METAR KPAE 040453Z AUTO 16006KT 10SM OVC015 06/02 A2998 RMK AO2 SLP153 T00560017=
201204040428 SPECI KPAE 040428Z AUTO 16004KT 10SM BKN015 06/02 A2998 RMK AO2=
201204040428 SPECI KPAE 040428Z AUTO 16004KT 10SM BKN015 06/02 A2998 RMK AO2=
201204040353 METAR KPAE 040353Z AUTO 19004KT 10SM CLR 05/02 A2997 RMK AO2 SLP150 T00500017=
201204040253 METAR KPAE 040253Z 18011G16KT 10SM FEW030 BKN090 07/02 A2996 RMK AO2 SLP146 T00670022 53008=
201204040153 METAR KPAE 040153Z 18012KT 10SM FEW028 SCT048 OVC100 08/02 A2995 RMK AO2 SLP143 T00780022=
201204040053 METAR KPAE 040053Z 15008KT 110V170 10SM FEW027 BKN040 08/03 A2994=
201204032353 METAR KPAE 032353Z 16010KT 10SM BKN012 BKN035 07/03 A2993 RMK AO2 SLP138 60020 T00670033 10072 20044 50006=
201204032333 SPECI KPAE 032333Z 15007KT 080V170 10SM SCT010 BKN014 OVC037 06/03 A2994 RMK AO2=
201204032333 SPECI KPAE 032333Z 15007KT 080V170 10SM SCT010 BKN014 OVC037 06/03 A2994 RMK AO2=
201204032308 SPECI KPAE 032308Z 16007KT 10SM FEW008 BKN015 OVC023 06/03 A2994 RMK AO2=
201204032308 SPECI KPAE 032308Z 16007KT 10SM FEW008 BKN015 OVC023 06/03 A2994 RMK AO2=
201204032253 METAR KPAE 032253Z 15008KT 110V170 10SM OVC013 06/04 A2994 RMK AO2 RAB22E37 SLP140 P0000 T00560039=
201204032153 METAR KPAE 032153Z 17010KT 10SM OVC013 06/03 A2994 RMK AO2 RAE11 SLP139 P0001 T00610033=
201204032053 METAR KPAE 032053Z 11007KT 10SM -RA BKN003 OVC009 05/03 A2992 RMK AO2 SLP132 P0003 60019 T00500028 51038=
201204031953 METAR KPAE 031953Z 33003KT 5SM -RA BR BKN003 OVC009 04/03 A2989 RMK AO2 SLP123 P0009 T00440028=
201204031853 METAR KPAE 031853Z 36007KT 4SM RA BR OVC003 05/04 A2984 RMK AO2 CIG 001V005 SLP106 P0007 T00500039=
201204031802 SPECI KPAE 031802Z 00000KT 5SM -RA BR SCT006 BKN009 OVC039 07/05 A2981 RMK AO2 P0001=
201204031802 SPECI KPAE 031802Z 00000KT 5SM -RA BR SCT006 BKN009 OVC039 07/05 A2981 RMK AO2 P0001=
201204031800 SPECI KPAE 031800Z 35005KT 5SM -RA BR SCT010 OVC017 07/05 A2981 RMK AO2 P0001=
201204031800 SPECI KPAE 031800Z 35005KT 5SM -RA BR SCT010 OVC017 07/05 A2981 RMK AO2 P0001=
201204031753 METAR KPAE 031753Z 01005KT 5SM -RA BR SCT008 BKN016 OVC039 07/06 A2980 RMK AO2 SLP093 P0006 60008 T00720056 10106 20072 53016=
201204031658 SPECI KPAE 031658Z 21011KT 10SM -RA SCT025 OVC055 09/06 A2979 RMK AO2 P0000=
201204031658 SPECI KPAE 031658Z 21011KT 10SM -RA SCT025 OVC055 09/06 A2979 RMK AO2 P0000=
201204031653 METAR KPAE 031653Z 21011KT 10SM -RA OVC055 09/06 A2979 RMK AO2 RAB04 SLP087 P0002 T00890056=
201204031553 METAR KPAE 031553Z 21011G18KT 10SM OVC070 11/03 A2976 RMK AO2 SLP079 T01060028=
201204031453 METAR KPAE 031453Z 19008KT 10SM BKN095 10/02 A2976 RMK AO2 SLP076 T01000022 53000=
201204031353 METAR KPAE 031353Z 21011KT 10SM SCT030 11/02 A2976=
201204031253 METAR KPAE 031253Z AUTO 20006KT 10SM CLR 09/02 A2975 RMK AO2 SLP073 T00940017=
201204031153 METAR KPAE 031153Z AUTO 18006KT 10SM CLR 11/00 A2975 RMK AO2 SLP075 T01060000 10128 20100 56030=
201204031053 METAR KPAE 031053Z AUTO 19008KT 10SM CLR 11/00 A2978 RMK AO2 SLP084 T01060000=
201204030953 METAR KPAE 030953Z AUTO 17006KT 10SM FEW120 11/M01 A2981 RMK AO2 SLP094 T01111006=
201204030853 METAR KPAE 030853Z AUTO 18009KT 10SM CLR 12/M01 A2985 RMK AO2 SLP106 T01171011 56017=
201204030753 METAR KPAE 030753Z AUTO 16009KT 10SM CLR 12/M01 A2986 RMK AO2 SLP113 T01221011 401670061=
201204030653 METAR KPAE 030653Z AUTO 15006KT 10SM FEW120 12/M01 A2987 RMK AO2 SLP115 T01221011=
201204030553 METAR KPAE 030553Z AUTO 15011G16KT 10SM CLR 13/M01 A2990 RMK AO2 SLP124 T01281011 10161 20128 58015=
201204030453 METAR KPAE 030453Z AUTO 15010G15KT 10SM CLR 13/M01 A2992 RMK AO2 SLP131 T01331011=
201204030353 METAR KPAE 030353Z AUTO 16012KT 10SM CLR 14/M01 A2994 RMK AO2 SLP138 T01391011=
201204030253 METAR KPAE 030253Z 17013G17KT 10SM CLR 14/M01 A2994 RMK AO2 SLP139 T01441006 56022=
201204030153 METAR KPAE 030153Z 18009KT 10SM CLR 16/01 A2995 RMK AO2 SLP143 T01560006=
201204030053 METAR KPAE 030053Z 21007KT 10SM CLR 15/02 A2998 RMK AO2 SLP152 T01500017=
201204022353 METAR KPAE 022353Z 23009KT 10SM FEW120 16/01 A3001 RMK AO2 SLP162 T01560011 10167 20094 58024=
201204022253 METAR KPAE 022253Z 20008KT 10SM CLR 16/01 A3003 RMK AO2 SLP170 T01610011=
201204022153 METAR KPAE 022153Z 26010KT 10SM CLR 14/01 A3006 RMK AO2 SLP180 T01390006=
201204022053 METAR KPAE 022053Z 17011KT 10SM CLR 15/M01 A3008 RMK AO2 SLP186 T01501006 56036=
201204021953 METAR KPAE 021953Z 15010G16KT 100V170 10SM CLR 14/M01 A3011 RMK AO2 SLP197 T01391011=
201204021853 METAR KPAE 021853Z 16015G24KT 10SM CLR 12/M02 A3015 RMK AO2 SLP210 T01171017=
201204021753 METAR KPAE 021753Z 12007G14KT 10SM BKN042 09/01 A3019 RMK AO2 SLP225 T00940011 10094 20061 58011=
201204021653 METAR KPAE 021653Z 15005KT 10SM BKN048 08/00 A3022 RMK AO2 SLP236 T00830000=
201204021553 METAR KPAE 021553Z 15012KT 10SM CLR 08/M01 A3022 RMK AO2 SLP237 T00781006=
201204021453 METAR KPAE 021453Z VRB04KT 10SM FEW050 07/01 A3022 RMK AO2 SLP237 T00670006 53005=
201204021353 METAR KPAE 021353Z 15009G17KT 10SM FEW050 07/00 A3021=
201204021253 METAR KPAE 021253Z AUTO 15007G18KT 10SM BKN043 OVC110 07/00 A3021 RMK AO2 SLP233 T00720000=
201204021153 METAR KPAE 021153Z AUTO 16011KT 10SM BKN049 07/01 A3020 RMK AO2 SLP231 60000 70006 T00670006 10067 20061 53001=
201204021053 METAR KPAE 021053Z AUTO 16012KT 10SM FEW042 BKN100 07/01 A3020=
201204020953 METAR KPAE 020953Z AUTO 16011KT 10SM FEW028 OVC036 07/01 A3019 RMK AO2 SLP227 T00670011=
201204020945 SPECI KPAE 020945Z AUTO 16013KT 10SM SCT028 OVC036 07/02 A3020 RMK AO2=
201204020945 SPECI KPAE 020945Z AUTO 16013KT 10SM SCT028 OVC036 07/02 A3020 RMK AO2=
201204020928 SPECI KPAE 020928Z AUTO 16015G20KT 10SM BKN028 BKN036 07/02 A3020 RMK AO2=
201204020928 SPECI KPAE 020928Z AUTO 16015G20KT 10SM BKN028 BKN036 07/02 A3020 RMK AO2=
201204020920 SPECI KPAE 020920Z AUTO 17014KT 10SM SCT026 BKN031 07/02 A3020 RMK AO2=
201204020920 SPECI KPAE 020920Z AUTO 17014KT 10SM SCT026 BKN031 07/02 A3020 RMK AO2=
201204020909 SPECI KPAE 020909Z AUTO 17012KT 10SM BKN026 BKN032 BKN040 07/02 A3020 RMK AO2=
201204020909 SPECI KPAE 020909Z AUTO 17012KT 10SM BKN026 BKN032 BKN040 07/02 A3020 RMK AO2=
201204020853 METAR KPAE 020853Z AUTO 17013G20KT 10SM FEW024 BKN036 06/02 A3020 RMK AO2 SLP230 60000 T00610017 51014=
201204020834 SPECI KPAE 020834Z AUTO 17012G20KT 10SM BKN031 07/02 A3019 RMK AO2=
201204020834 SPECI KPAE 020834Z AUTO 17012G20KT 10SM BKN031 07/02 A3019 RMK AO2=
201204020817 SPECI KPAE 020817Z AUTO 17011G19KT 10SM BKN027 OVC034 07/02 A3019 RMK AO2=
201204020817 SPECI KPAE 020817Z AUTO 17011G19KT 10SM BKN027 OVC034 07/02 A3019 RMK AO2=
201204020753 METAR KPAE 020753Z AUTO 17012KT 10SM BKN033 07/02 A3019 RMK AO2 RAE00 SLP225 P0000 T00670022 400890044=
201204020653 METAR KPAE 020653Z AUTO 16011KT 10SM -RA OVC033 07/03 A3017 RMK AO2 RAB51 SLP221 P0000 T00670028=
201204020629 SPECI KPAE 020629Z AUTO 17012KT 10SM SCT025 BKN035 07/03 A3016 RMK AO2=
201204020629 SPECI KPAE 020629Z AUTO 17012KT 10SM SCT025 BKN035 07/03 A3016 RMK AO2=
201204020603 SPECI KPAE 020603Z AUTO 17009KT 10SM BKN025 BKN037 07/03 A3016 RMK AO2=
201204020603 SPECI KPAE 020603Z AUTO 17009KT 10SM BKN025 BKN037 07/03 A3016 RMK AO2=
201204020553 METAR KPAE 020553Z AUTO 18011KT 10SM SCT023 SCT027 BKN039 07/03 A3016 RMK AO2 SLP216 T00670028 10083 20067 51009=
201204020519 SPECI KPAE 020519Z AUTO 17008KT 10SM SCT019 BKN023 BKN032 07/03 A3015 RMK AO2=
201204020519 SPECI KPAE 020519Z AUTO 17008KT 10SM SCT019 BKN023 BKN032 07/03 A3015 RMK AO2=
201204020453 METAR KPAE 020453Z AUTO 17008KT 10SM FEW016 07/03 A3014 RMK AO2 SLP210 T00670028=
201204020353 METAR KPAE 020353Z AUTO 18008KT 10SM FEW022 OVC036 07/03 A3013 RMK AO2 SLP206 T00720028=
201204020253 METAR KPAE 020253Z 19010KT 10SM BKN038 OVC060 07/02 A3010 RMK AO2 SLP195 T00720022 51025=
201204020153 METAR KPAE 020153Z 20010KT 10SM SCT028 BKN033 OVC055 08/02 A3008 RMK AO2 SLP188 T00780017=
201204020053 METAR KPAE 020053Z 20008KT 10SM BKN030 OVC045 08/02 A3005 RMK AO2 SLP178 T00830017=
201204012353 METAR KPAE 012353Z 19012KT 10SM FEW026 BKN033 OVC042 08/02 A3002 RMK AO2 RAB2259E36 SLP170 P0000 60000 T00830017 10089 20067 51020=
201204012253 METAR KPAE 012253Z 22010KT 10SM BKN030 OVC038 08/02 A3001 RMK AO2 RAB32E52 SLP164 P0000 T00830017=
201204012153 METAR KPAE 012153Z 21010KT 10SM BKN029 OVC060 09/03 A2998 RMK AO2 SLP156 T00890028=
201204012053 METAR KPAE 012053Z 19015KT 10SM BKN027 BKN032 OVC060 08/02 A2996 RMK AO2 RAB27E34 SLP149 P0000 60000 T00830017 51018=
201204011953 METAR KPAE 011953Z 20013G18KT 10SM BKN027 BKN037 OVC045 09/02 A2995 RMK AO2 SLP144 T00890017=
201204011924 SPECI KPAE 011924Z 22008KT 10SM BKN027 BKN034 08/02 A2995 RMK AO2=
201204011924 SPECI KPAE 011924Z 22008KT 10SM BKN027 BKN034 08/02 A2995 RMK AO2=
201204011901 SPECI KPAE 011901Z 21012KT 10SM SCT027 BKN034 08/02 A2994 RMK AO2=
201204011901 SPECI KPAE 011901Z 21012KT 10SM SCT027 BKN034 08/02 A2994 RMK AO2=
201204011853 METAR KPAE 011853Z 20013G18KT 10SM BKN027 BKN034 08/02 A2994 RMK AO2 SLP139 T00830022=
201204011818 SPECI KPAE 011818Z 21011KT 10SM SCT025 BKN032 08/02 A2992 RMK AO2=
201204011818 SPECI KPAE 011818Z 21011KT 10SM SCT025 BKN032 08/02 A2992 RMK AO2=
201204011753 METAR KPAE 011753Z 20009KT 10SM SCT022 BKN027 OVC032 07/02 A2991 RMK AO2 SLP131 60006 T00670017 10072 20044 51018=
201204011653 METAR KPAE 011653Z 19009KT 10SM BKN016 06/03 A2988 RMK AO2 SLP122 T00560028=
201204011651 SPECI KPAE 011651Z 19010KT 10SM BKN016 06/02 A2988 RMK AO2=
201204011651 SPECI KPAE 011651Z 19010KT 10SM BKN016 06/02 A2988 RMK AO2=
201204011553 METAR KPAE 011553Z 20012KT 10SM SCT020 SCT030 05/02 A2986 RMK AO2 SLP112 T00500022=
201204011458 SPECI KPAE 011458Z 16010KT 10SM SCT026 SCT037 BKN110 05/02 A2984 RMK AO2=
201204011458 SPECI KPAE 011458Z 16010KT 10SM SCT026 SCT037 BKN110 05/02 A2984 RMK AO2=
201204011453 METAR KPAE 011453Z 15009KT 10SM BKN015 OVC024 05/02 A2984 RMK AO2 RAB08E47 SLP107 P0001 60006 T00500017 51059=
201204011353 METAR KPAE 011353Z 16007KT 10SM BKN015 OVC024 05/02 A2980 RMK AO2 RAE12 PRESRR SLP093 P0000 T00500022=
201204011346 SPECI KPAE 011346Z 16008KT 10SM BKN015 OVC024 05/02 A2979 RMK AO2 RAE12 PRESRR P0000=
201204011346 SPECI KPAE 011346Z 16008KT 10SM BKN015 OVC024 05/02 A2979 RMK AO2 RAE12 PRESRR P0000=
201204011320 SPECI KPAE 011320Z AUTO VRB04KT 10SM BKN014 OVC025 05/02 A2976 RMK AO2 RAE12 P0000=
201204011320 SPECI KPAE 011320Z AUTO VRB04KT 10SM BKN014 OVC025 05/02 A2976 RMK AO2 RAE12 P0000=
201204011253 METAR KPAE 011253Z AUTO 19010KT 8SM -RA BKN015 BKN022 OVC034 04/02 A2973 RMK AO2 PK WND 20027/1208 RAB1154 SLP070 P0005 T00440022=
201204011225 SPECI KPAE 011225Z AUTO 19016G22KT 10SM -RA OVC015 05/02 A2969 RMK AO2 PK WND 20027/1208 RAB1154 P0001=
201204011225 SPECI KPAE 011225Z AUTO 19016G22KT 10SM -RA OVC015 05/02 A2969 RMK AO2 PK WND 20027/1208 RAB1154 P0001=
201204011153 METAR KPAE 011153Z AUTO 20017G25KT 10SM OVC013 05/02 A2966 RMK AO2 PK WND 19036/1106 SLP046 60005 70038 T00500022 10067 20050 53046=
201204011053 METAR KPAE 011053Z AUTO 18024G35KT 10SM OVC013 05/03 A2957 RMK AO2 PK WND 18035/1051 SLP018 T00500028=
201204011000 SPECI KPAE 011000Z AUTO 18018G25KT 10SM BKN013 BKN033 OVC045 06/04 A2955 RMK AO2=
201204011000 SPECI KPAE 011000Z AUTO 18018G25KT 10SM BKN013 BKN033 OVC045 06/04 A2955 RMK AO2=
201204010953 METAR KPAE 010953Z AUTO 18017G24KT 10SM SCT011 BKN017 OVC045 07/05 A2955 RMK AO2 RAB13E22 SLP007 P0000 T00670050=
201204010914 SPECI KPAE 010914Z AUTO 16010KT 10SM -RA BKN019 OVC031 07/06 A2953 RMK AO2 RAB13 P0000=
201204010914 SPECI KPAE 010914Z AUTO 16010KT 10SM -RA BKN019 OVC031 07/06 A2953 RMK AO2 RAB13 P0000=
201204010853 METAR KPAE 010853Z AUTO 16009KT 10SM SCT021 OVC034 07/06 A2952 RMK AO2 RAE50 SLP000 P0001 60005 T00670056 53016=
201204010846 SPECI KPAE 010846Z AUTO 16009KT 10SM -RA SCT023 OVC036 07/06 A2952 RMK AO2 P0001=
201204010846 SPECI KPAE 010846Z AUTO 16009KT 10SM -RA SCT023 OVC036 07/06 A2952 RMK AO2 P0001=
201204010817 SPECI KPAE 010817Z AUTO 15009KT 10SM -RA BKN027 OVC037 07/06 A2951 RMK AO2 P0000=
201204010817 SPECI KPAE 010817Z AUTO 15009KT 10SM -RA BKN027 OVC037 07/06 A2951 RMK AO2 P0000=
201204010753 METAR KPAE 010753Z AUTO 15010KT 10SM -RA BKN037 OVC044 07/06 A2950 RMK AO2 RAB16 SLP993 P0002 T00670056 400890033=
201204010708 SPECI KPAE 010708Z AUTO VRB06KT 10SM FEW009 BKN040 OVC046 07/06 A2949 RMK AO2=
201204010708 SPECI KPAE 010708Z AUTO VRB06KT 10SM FEW009 BKN040 OVC046 07/06 A2949 RMK AO2=
201204010653 METAR KPAE 010653Z AUTO 15007KT 10SM FEW009 BKN023 OVC036 07/05 A2948 RMK AO2 RAE19B38E51 SLP987 P0002 T00670050=
201204010553 METAR KPAE 010553Z AUTO 15007KT 10SM -RA OVC037 07/04 A2948 RMK AO2 SLP984 P0001 60001 T00670039 10089 20067 53007=
201204010453 METAR KPAE 010453Z AUTO 10008KT 10SM -RA FEW047 BKN055 OVC075 07/03 A2945 RMK AO2 RAB44 SLP975 P0000 T00720028=
201204010353 METAR KPAE 010353Z 11006KT 10SM BKN100 07/03 A2945 RMK AO2 SLP975 T00720033=
201204010253 METAR KPAE 010253Z 11004KT 10SM FEW050 OVC080 08/04 A2945 RMK AO2 SLP977 T00780044 58006=
201204010153 METAR KPAE 010153Z 11007KT 10SM BKN100 08/04 A2947 RMK AO2 SLP981 T00830044=
201204010137 SPECI KPAE 010137Z 15004KT 10SM FEW017 BKN110 08/04 A2947 RMK AO2=
201204010137 SPECI KPAE 010137Z 15004KT 10SM FEW017 BKN110 08/04 A2947 RMK AO2=
201204010053 METAR KPAE 010053Z VRB06KT 10SM BKN015 09/04 A2947 RMK AO2 SLP982 T00890044=

# No short TAF reports from KPAE in databse.

###################################
#  large TAF from KPAE
###################################
201204302320 TAF KPAE 302320Z 0100/0124 22012G22KT P6SM SCT020 BKN040
                      TEMPO 0100/0104 VRB05KT 4SM SHRA BR BKN015
                       OVC030 FM010400 VRB05KT P6SM -SHRA BKN015
                       OVC030
                      TEMPO 0104/0108 3SM SHRA BR OVC015 FM010900
                       22010KT P6SM -SHRA BKN015 BKN040 FM011700
                       24012KT P6SM VCSH SCT025 BKN050=
201204301720 TAF KPAE 301720Z 3018/0118 20015G25KT P6SM SCT010 OVC020
                      TEMPO 3018/3022 -SHRA BKN015 OVC040 FM302200
                       VRB05KT 4SM SHRA BR OVC015 FM010300 21012G20KT
                       P6SM VCSH BKN025 OVC045=
201204301505 KPAE 301505Z 3015/0112 19015G25KT P6SM -SHRA SCT005 OVC015
                      TEMPO 3015/3019 4SM -RA BR BKN005 OVC012
                       FM301900 18015G22KT 5SM -RA OVC012 FM010000
                       19013KT P6SM -RA OVC025 FM010500 17009KT
                       P6SM VCSH OVC025=
201204301120 TAF KPAE 301120Z 3012/0112 17011G19KT P6SM -RA BKN015 OVC050 FM301800
                       18015G22KT 6SM -RA OVC015 FM010000 19013KT
                       P6SM -RA OVC025 FM010500 17009KT P6SM VCSH
                       OVC025=
201204300534 TAF KPAE 300534Z 3006/0106 19011KT P6SM OVC025 FM300700 16009KT
                       P6SM -RA BKN015 OVC030 FM301800 16015G21KT
                       P6SM -RA OVC015 FM010000 19011KT P6SM -RA
                       BKN025 OVC050 FM010300 18008KT P6SM VCSH
                       OVC025=
201204300111 KPAE 300111Z 3001/3024 VRB03KT P6SM SCT030 OVC050 FM300600 16006KT
                       P6SM BKN025 OVC045 FM300800 16010KT P6SM
                       -RA OVC018 FM301500 18015G25KT P6SM -SHRA
                       BKN025=
201204292320 TAF KPAE 292320Z 3000/3024 24005KT P6SM BKN030 OVC050 FM300800
                       16010KT P6SM -RA OVC018 FM301500 18015G25KT
                       P6SM -SHRA BKN025=
201204291724 TAF KPAE 291724Z 2918/3018 36005KT 5SM BR OVC002
                      TEMPO 2918/2919 1SM BR OVC002 FM291900 34005KT
                       P6SM OVC008 FM292000 28005KT P6SM OVC015
                       FM292300 24005KT P6SM OVC030 FM300800 16010KT
                       P6SM -RA OVC018 FM301500 18015G25KT P6SM
                       -SHRA BKN025=
201204291214 KPAE 291214Z 2912/3012 35003KT 1/2SM FG VV001
                      TEMPO 2913/2916 3SM BR BKN004 OVC016 FM291600
                       33003KT P6SM BKN007 OVC016 FM291800 24005KT
                       P6SM OVC025 FM292100 VRB05KT P6SM OVC040
                       FM300700 12006KT P6SM -RA OVC025=
201204291120 TAF KPAE 291120Z 2912/3012 35004KT 5SM BR VCSH OVC002 FM291800
                       24005KT P6SM OVC025 FM292100 VRB05KT P6SM
                       OVC040 FM300700 12006KT P6SM -RA OVC025=
201204290802 KPAE 290802Z 2908/3006 36004KT P6SM VCSH BKN021 BKN045 OVC060 FM291200
                       02002KT P6SM OVC025 FM291500 32003KT P6SM
                       OVC007 FM291800 26004KT P6SM OVC015 FM292100
                       28006KT P6SM OVC040 FM300000 VRB04KT P6SM
                       SCT040 OVC120=
201204290525 TAF KPAE 290525Z 2906/3006 00000KT P6SM OVC040 FM291200 02002KT
                       P6SM OVC025 FM291500 32003KT P6SM OVC007
                       FM291800 26004KT P6SM OVC015 FM292100 28006KT
                       P6SM OVC040 FM300000 VRB04KT P6SM SCT040
                       OVC120=
201204282320 TAF KPAE 282320Z 2900/2924 23006KT P6SM BKN045 FM290200 35005KT
                       P6SM SCT025 BKN040 FM290400 35005KT P6SM
                       VCSH OVC022 FM291200 06004KT P6SM OVC018
                       TEMPO 2912/2916 OVC012 FM291800 24006KT
                       P6SM BKN030 FM292100 31007KT P6SM SCT045=
201204281720 TAF KPAE 281720Z 2818/2918 19006KT P6SM SCT030
                      TEMPO 2818/2819 BKN030 FM282000 23006KT P6SM
                       SCT050 FM290200 35005KT P6SM SCT025 SCT050
                       FM290400 35005KT P6SM VCSH OVC022 FM291200
                       06004KT P6SM OVC018
                      TEMPO 2912/2916 OVC012=
201204281120 TAF KPAE 281120Z 2812/2912 15004KT P6SM SCT030 OVC080 FM281800
                       20008KT P6SM BKN025 FM290600 36003KT P6SM
                       VCSH OVC020 FM291100 35003KT P6SM OVC015=
201204280522 TAF KPAE 280522Z 2806/2906 18009KT P6SM VCSH OVC100 FM281800 20008KT
                       P6SM OVC025 FM290300 18004KT P6SM OVC015=
201204272320 TAF KPAE 272320Z 2800/2824 18008KT P6SM SCT022 BKN040 BKN250 FM280400
                       18006KT P6SM BKN030
                      TEMPO 2805/2809 -RA FM280900 16005KT P6SM
                       BKN025 FM281600 20007KT P6SM SCT030 BKN045=
201204271722 TAF KPAE 271722Z 2718/2818 18008KT P6SM SCT022 BKN040 BKN250
                      TEMPO 2718/2721 OVC022 FM280400 18006KT P6SM
                       BKN030 FM281000 16005KT P6SM BKN025 FM281600
                       20007KT P6SM SCT030 BKN045=
201204271130 TAF KPAE 271130Z 2712/2812 18008KT P6SM SCT021
                      TEMPO 2712/2716 BKN021 FM271600 18008KT P6SM
                       SCT030 BKN060 FM281000 15006KT P6SM BKN020
                       OVC030=
201204270524 TAF KPAE 270524Z 2706/2806 19008KT P6SM BKN025 FM270800 19008KT
                       P6SM SCT025 BKN060
                      TEMPO 2713/2717 BKN025 BKN060=
201204262340 TAF KPAE 262340Z 2700/2724 03008KT P6SM VCSH SCT025 BKN045
                      TEMPO 2702/2706 5SM -SHRA BKN030CB OVC045CB
                       FM270600 19008KT P6SM BKN018 OVC030 FM271900
                       20008KT P6SM SCT030 BKN040=
201204261740 TAF KPAE 261740Z 2618/2718 31004KT P6SM VCSH SCT020 OVC035
                      TEMPO 2618/2620 4SM -SHRA BR SCT008 BKN015
                       OVC035 FM262300 19008KT P6SM VCSH SCT030
                       BKN045
                      TEMPO 2701/2705 5SM -SHRA BKN030CB OVC045CB
                       FM270900 19008KT P6SM BKN018 OVC030=
201204261443 KPAE 261443Z 2615/2712 18005KT P6SM VCSH SCT007 BKN015 OVC045
                      TEMPO 2615/2618 3SM -SHRA BR BKN007 OVC015
                       FM261900 18006KT P6SM VCSH SCT018 BKN030
                       FM262300 19008KT P6SM -SHRA BKN035 BKN050
                       FM270900 19008KT P6SM BKN018 OVC030=
201204261143 TAF KPAE 261143Z 2612/2712 18014KT P6SM -RA BKN015 OVC030 FM261300
                       19008KT P6SM SCT010 BKN020 OVC035 FM261500
                       19008KT P6SM SCT035 BKN050 FM262300 19008KT
                       P6SM -SHRA BKN035 BKN050 FM270900 19008KT
                       P6SM BKN018 OVC030=
201204260538 TAF KPAE 260538Z 2606/2706 18014KT P6SM -RA SCT015 OVC030 FM260900
                       18014KT P6SM -RA BKN015 OVC030 FM261300
                       19008KT P6SM BKN020 OVC035 FM261500 19008KT
                       P6SM SCT035 BKN050 FM262300 19008KT P6SM
                       -SHRA BKN035 BKN050=
201204252326 TAF KPAE 252326Z 2600/2624 16010G17KT P6SM SCT030 OVC060 FM260100
                       17010KT P6SM -SHRA SCT025 OVC040
                      TEMPO 2601/2603 5SM SHRA BKN020 OVC030 FM260300
                       15010KT P6SM -RA BKN020 OVC035 FM261100
                       22007KT P6SM SCT020 BKN040
                      TEMPO 2613/2617 P6SM BKN015 OVC030=
201204251730 TAF KPAE 251730Z 2518/2618 VRB03KT P6SM -SHRA SCT004 BKN045 OVC050
                       TEMPO 2518/2520 P6SM BKN004 OVC045 FM260000
                       18012KT P6SM -RA SCT012 OVC025
                      TEMPO 2602/2606 5SM -RA BKN010 OVC020 FM261100
                       22007KT P6SM SCT020 BKN040
                      TEMPO 2613/2617 P6SM BKN015 OVC030=
201204251136 TAF KPAE 251136Z 2512/2612 16010KT P6SM SCT022 OVC035
                      TEMPO 2514/2518 BKN022 OVC035 FM251900 16012KT
                       P6SM -RA SCT025 BKN035 OVC050 FM260200 16012G18KT
                       P6SM -RA SCT015 OVC025=
201204250534 TAF KPAE 250534Z 2506/2606 16008KT P6SM SCT012 BKN022 OVC035
                      TEMPO 2506/2510 4SM -RA BKN012 OVC022 FM251400
                       16012KT P6SM -RA SCT012 OVC022 FM252100
                       18012KT P6SM -RA SCT015 BKN025 OVC040=
201204242335 TAF KPAE 242335Z 2500/2524 17009KT P6SM -RA SCT020 OVC050
                      TEMPO 2500/2502 BKN020 OVC050 FM250200 17009KT
                       P6SM -RA BKN020 OVC050 FM250600 14012KT
                       P6SM BKN025 BKN050 OVC100 FM251200 14012KT
                       P6SM -RA BKN025 BKN050 OVC100 FM251800 17013G22KT
                       P6SM -RA OVC020=
201204242233 KPAE 242233Z 2423/2518 18009KT P6SM -SHRA FEW008 OVC020 FM250100
                       18007KT P6SM -SHRA BKN025 OVC050 FM250600
                       16011KT P6SM BKN025 BKN050 OVC100 FM251200
                       14013KT P6SM -RA BKN025 BKN050 OVC100=
201204241933 KPAE 241933Z 2420/2518 20010KT P6SM SCT020 OVC050
                      TEMPO 2420/2424 -SHRA BKN020 OVC050 FM250000
                       18007KT P6SM -SHRA BKN025 OVC050 FM250600
                       16011KT P6SM BKN025 BKN050 OVC100
                      PROB30 2506/2512 -RA FM251200 14013KT P6SM
                       -RA BKN025 BKN050 OVC100=
201204241726 TAF KPAE 241726Z 2418/2518 19009KT P6SM OVC015
                      TEMPO 2418/2421 -SHRA FM242100 21009KT P6SM
                       BKN025 OVC050
                      TEMPO 2421/2424 -SHRA FM250000 18007KT P6SM
                       -SHRA BKN025 OVC050 FM250600 16011KT P6SM
                       BKN025 BKN050 OVC100
                      PROB30 2506/2512 -RA FM251200 14013KT P6SM
                       -RA BKN025 BKN050 OVC100=
201204241513 KPAE 241513Z 2415/2512 17008KT P6SM OVC020
                      TEMPO 2415/2419 -SHRA FM241900 18006KT P6SM
                       BKN060 FM242100 18008KT P6SM SCT035 BKN050
                       BKN080 FM250700 14008KT P6SM SCT060 BKN200=
201204241345 KPAE 241345Z 2414/2512 00000KT P6SM BKN020 OVC045 FM241600 18006KT
                       P6SM BKN060 FM242100 18008KT P6SM SCT035
                       BKN050 BKN080 FM250700 14008KT P6SM SCT060
                       BKN200=
201204241327 KPAE 241327Z 2413/2512 00000KT P6SM OVC050 FM241600 18006KT P6SM
                       BKN060 FM242100 18008KT P6SM SCT035 BKN050
                       BKN080 FM250700 14008KT P6SM SCT060 BKN200=
201204241140 TAF KPAE 241140Z 2412/2512 VRB03KT P6SM SCT060 FM241600 18006KT
                       P6SM BKN060 FM242100 18008KT P6SM SCT035
                       BKN050 BKN080 FM250700 14008KT P6SM SCT060
                       BKN200=
201204240536 TAF KPAE 240536Z 2406/2506 35004KT P6SM SCT120 BKN250 FM241200
                       18006KT P6SM BKN060 BKN120 FM242000 18008KT
                       P6SM -SHRA SCT030 OVC045=
201204232342 TAF KPAE 232342Z 2400/2424 35007KT P6SM SCT130 BKN250 FM240300
                       35004KT P6SM SCT130 BKN250 FM240900 VRB03KT
                       P6SM FEW007 SCT060 BKN120 FM241200 17006KT
                       P6SM SCT012 BKN060 OVC120 FM241400 17009KT
                       P6SM BKN012 OVC060
                      PROB30 2414/2418 -SHRA FM241800 19012KT P6SM
                       -SHRA BKN025 OVC060=
201204232103 KPAE 232103Z 2321/2418 34007KT P6SM SCT130 BKN250 FM240200 35004KT
                       P6SM SCT130 BKN250 FM240900 VRB03KT P6SM
                       FEW007 SCT060 BKN120 FM241200 17006KT P6SM
                       SCT012 BKN060 OVC120 FM241400 17009KT P6SM
                       BKN012 OVC060
                      PROB30 2414/2418 -SHRA=
201204231745 TAF KPAE 231745Z 2318/2418 32006KT P6SM SCT130 BKN250 FM240200
                       35004KT P6SM SCT130 BKN250 FM240900 VRB03KT
                       P6SM FEW007 SCT060 BKN120 FM241200 17006KT
                       P6SM SCT012 BKN060 OVC120 FM241400 17009KT
                       P6SM BKN012 OVC060
                      PROB30 2414/2418 -SHRA=
201204231120 TAF KPAE 231120Z 2312/2412 00000KT P6SM SCT130 BKN250 FM231900
                       35005KT P6SM SCT250 FM241000 14004KT P6SM
                       BKN250=
201204230530 TAF KPAE 230530Z 2306/2406 36005KT P6SM SCT200 FM230700 03003KT
                       P6SM SCT200 FM231900 35005KT P6SM SCT200=
201204222323 TAF KPAE 222323Z 2300/2324 36010KT P6SM SCT160 SCT200 FM230700
                       03003KT P6SM SCT200 FM231900 35005KT P6SM
                       SCT200=
201204221725 TAF KPAE 221725Z 2218/2318 33006KT P6SM FEW100 SCT200 FM222100
                       35010KT P6SM SCT200 FM230700 36004KT P6SM
                       SCT200=
201204221125 TAF KPAE 221125Z 2212/2312 04003KT P6SM SCT130 BKN200 FM221900
                       33006KT P6SM SCT200 FM230700 36004KT P6SM
                       BKN250=
201204220520 TAF KPAE 220520Z 2206/2306 35003KT P6SM BKN200 FM221900 33006KT
                       P6SM SCT200=
201204212323 TAF KPAE 212323Z 2200/2224 33005KT P6SM BKN200 FM220600 03004KT
                       P6SM SCT200 FM221900 33006KT P6SM SCT200=
201204211737 TAF KPAE 211737Z 2118/2218 33005KT P6SM SCT200 FM220400 03004KT
                       P6SM SCT200 FM221200 VRB03KT P6SM SCT200=
201204211120 TAF KPAE 211120Z 2112/2212 02003KT P6SM SCT120 SCT200 FM211900
                       34004KT P6SM BKN120 BKN250 FM220400 01004KT
                       P6SM SCT250=
201204210535 TAF KPAE 210535Z 2106/2206 00000KT P6SM SCT120 BKN200 FM211900
                       34004KT P6SM BKN120 BKN250 FM220400 01004KT
                       P6SM SCT250=
201204202327 TAF KPAE 202327Z 2100/2124 30006KT P6SM SCT035 BKN050 FM210600
                       VRB03KT P6SM SCT100 BKN250 FM211800 30006KT
                       P6SM SCT250=
201204201903 KPAE 201903Z 2019/2118 VRB03KT P6SM SCT035 OVC045 FM202100 33006KT
                       P6SM SCT035 BKN045 FM210000 30006KT P6SM
                       SCT035 BKN050 FM210600 VRB03KT P6SM SCT100
                       BKN250=
201204201729 TAF KPAE 201729Z 2018/2118 33006KT P6SM VCSH SCT012 BKN025 OVC045
                       FM202100 33006KT P6SM SCT025 OVC045 FM210000
                       30006KT P6SM SCT030 BKN050 FM210600 VRB03KT
                       P6SM SCT100 BKN250=
201204201640 KPAE 201640Z 2017/2112 VRB03KT P6SM VCSH BKN030 OVC040 FM201800
                       33006KT P6SM VCSH SCT012 BKN025 OVC045 FM210000
                       30006KT P6SM SCT030 OVC050 FM210600 VRB03KT
                       P6SM SCT100 BKN250=
201204201130 TAF KPAE 201130Z 2012/2112 03007KT 4SM -RA BR OVC003
                      TEMPO 2012/2016 P6SM -RA SCT003 OVC015 FM201800
                       33006KT P6SM -SHRA SCT012 BKN025 OVC045
                       FM210000 30006KT P6SM SCT030 OVC050 FM210600
                       VRB03KT P6SM SCT100 BKN250=
201204200524 TAF KPAE 200524Z 2006/2106 18016G24KT P6SM -RA SCT009 BKN020 OVC080
                       TEMPO 2006/2010 3SM -RA BR BKN009 OVC020
                       FM201800 33006KT P6SM -SHRA SCT012 BKN025
                       OVC045 FM202100 32006KT P6SM VCSH SCT030
                       BKN050=
201204192344 TAF KPAE 192344Z 2000/2024 17006KT 5SM -RA SCT020 OVC030 FM200300
                       17006KT 4SM -RA SCT008 OVC015
                      TEMPO 2005/2009 2SM -RA BKN008 OVC015 FM201600
                       17006KT P6SM -SHRA SCT012 BKN025 OVC045
                       FM202100 32006KT P6SM SCT030 BKN050=
201204191730 TAF KPAE 191730Z 1918/2018 VRB05KT P6SM BKN100 FM192100 19011KT
                       P6SM -RA OVC050 FM200000 18016KT P6SM -RA
                       OVC013
                      TEMPO 2003/2006 4SM -RA OVC013 FM201000 17009KT
                       P6SM -SHRA OVC020 FM201600 15007KT P6SM
                       -SHRA SCT025 OVC050=
201204191124 TAF KPAE 191124Z 1912/2012 16006KT P6SM SCT060 FM191600 17008KT
                       P6SM SCT100 BKN250 FM192100 19011KT P6SM
                       -RA OVC050 FM200000 18016KT P6SM -RA OVC013
                       TEMPO 2003/2006 4SM -RA OVC013 FM201000
                       17009KT P6SM -SHRA OVC020=
201204190530 TAF KPAE 190530Z 1906/2006 01005KT P6SM VCSH BKN027 OVC035 FM191000
                       15004KT P6SM SCT040 BKN100 OVC250 FM191600
                       17008KT P6SM SCT100 BKN250 FM192100 19011KT
                       P6SM -RA OVC050 FM200000 18016KT P6SM -RA
                       OVC013
                      TEMPO 2003/2006 4SM -RA OVC013=
201204182320 TAF KPAE 182320Z 1900/1924 19012G20KT P6SM VCSH BKN050 FM190400
                       17009KT P6SM SCT050 BKN120 FM190800 15005KT
                       P6SM SCT120 FM191600 13005KT P6SM SCT080
                       BKN120 FM192100 16008KT P6SM -RA SCT025
                       OVC045 FM192300 18008KT P6SM -RA OVC025=
201204181720 TAF KPAE 181720Z 1818/1918 19014G22KT P6SM -SHRA SCT030 BKN045
                       FM182200 19012G20KT P6SM VCSH BKN050 FM190400
                       17009KT P6SM SCT050 BKN120 FM190800 15005KT
                       P6SM SCT120 FM191600 13005KT P6SM SCT080
                       BKN120=
201204181120 TAF KPAE 181120Z 1812/1912 15009KT P6SM -RA SCT030 OVC060
                      TEMPO 1812/1814 -RA OVC030 FM181400 19012KT
                       P6SM -SHRA SCT015 BKN025 OVC040 FM181800
                       19014G22KT P6SM SCT030 BKN045 FM182200 19008KT
                       P6SM BKN050 FM190200 17005KT P6SM SCT050
                       BKN120=
201204180542 TAF KPAE 180542Z 1806/1906 VRB03KT P6SM BKN030 OVC100
                      TEMPO 1806/1809 SCT030 BKN100 FM180900 15008KT
                       P6SM -RA BKN025 OVC040 FM181200 16014KT
                       4SM -RA BKN015 OVC025 FM181400 19012KT P6SM
                       -SHRA SCT015 BKN025 OVC040 FM181800 19014G22KT
                       P6SM SCT030 BKN045 FM182200 19008KT P6SM
                       BKN050 FM190200 17005KT P6SM SCT050 BKN120=
201204172336 TAF KPAE 172336Z 1800/1824 19010KT P6SM -RA OVC040 FM180400 16010KT
                       P6SM -RA BKN025 OVC040 FM181200 16014KT
                       4SM -RA BKN015 OVC025 FM181400 19012KT P6SM
                       SCT015 BKN025 OVC040 FM181700 19014G22KT
                       P6SM SCT030 BKN045 FM182200 19008KT P6SM
                       BKN050=
201204171734 TAF KPAE 171734Z 1718/1818 15008KT P6SM SCT050 OVC120 FM172300
                       15008KT P6SM SCT050 OVC080 FM180300 15008KT
                       P6SM -RA SCT025 OVC045 FM181000 15014KT
                       P6SM -RA BKN025 OVC040 FM181500 19012KT
                       P6SM BKN025 OVC040=
201204171120 TAF KPAE 171120Z 1712/1812 09005KT P6SM SCT015 BKN050
                      TEMPO 1712/1716 OVC015 FM171800 22006KT P6SM
                       SCT050 BKN150 FM180200 16007KT P6SM SCT050
                       OVC080 FM180800 15012KT P6SM -RA SCT025
                       OVC050=
201204170834 KPAE 170834Z 1709/1806 10006KT P6SM BKN027 OVC050
                      TEMPO 1709/1713 SCT027 SCT050 FM171300 15004KT
                       P6SM BKN022 OVC040 FM171800 22006KT P6SM
                       SCT050 BKN150 FM180400 16007KT P6SM SCT050
                       OVC080=
201204170522 TAF KPAE 170522Z 1706/1806 08005KT P6SM SCT027 BKN050
                      TEMPO 1706/1708 -SHRA OVC027 FM170800 11003KT
                       P6SM FEW030 BKN100 FM171300 15004KT P6SM
                       BKN022 OVC040 FM171800 22006KT P6SM SCT050
                       BKN150 FM180400 16007KT P6SM SCT050 OVC080=
201204170107 KPAE 170107Z 1701/1724 02008KT P6SM SCT009 OVC028
                      TEMPO 1701/1704 -SHRA BKN009 OVC028 FM170400
                       VRB03KT P6SM SCT015 BKN025 OVC040 FM170700
                       18006KT P6SM SCT025 BKN040 FM171300 18006KT
                       P6SM BKN022 OVC040 FM171800 18006KT P6SM
                       SCT050 BKN150=
201204162339 TAF KPAE 162339Z 1700/1724 02008KT P6SM SCT006 BKN018 OVC030
                      TEMPO 1700/1704 BKN006 OVC015 FM170400 VRB03KT
                       P6SM SCT015 BKN025 OVC040 FM170700 18006KT
                       P6SM SCT025 BKN040 FM171300 18006KT P6SM
                       BKN022 OVC040 FM171800 18006KT P6SM SCT050
                       BKN150=
201204161730 TAF KPAE 161730Z 1618/1718 18015G25KT P6SM SCT006 OVC015
                      TEMPO 1618/1621 BKN006 OVC015 FM162100 19010KT
                       P6SM SCT006 OVC015
                      TEMPO 1621/1701 4SM -SHRA BKN006 OVC015 FM170300
                       18006KT P6SM SCT015 BKN025 OVC040 FM170600
                       18006KT P6SM SCT025 BKN040 FM171300 18006KT
                       P6SM BKN022 OVC040=
201204161120 TAF KPAE 161120Z 1612/1712 15010KT P6SM -RA OVC030
                      TEMPO 1612/1616 4SM RA BR OVC012 FM161900
                       19016KT P6SM -SHRA BKN025 OVC045 FM162100
                       20018G28KT P6SM -SHRA BKN035 OVC050 FM170300
                       18012KT P6SM BKN070 FM170800 16006KT P6SM
                       OVC045=
201204160524 TAF KPAE 160524Z 1606/1706 15003KT P6SM OVC080 FM160800 14005KT
                       P6SM -RA OVC060 FM161100 15010KT P6SM -RA
                       SCT025 OVC045 FM161300 16013KT P6SM -RA
                       OVC020 FM161900 19017G25KT P6SM -SHRA BKN025
                       OVC045 FM162300 20017G25KT P6SM SCT030 OVC050
                       FM170400 18010KT P6SM OVC060=
201204152331 TAF KPAE 152331Z 1600/1624 26007KT P6SM SCT110 BKN200 FM160600
                       13005KT P6SM OVC100 FM161200 15009KT P6SM
                       -RA SCT025 OVC045 FM161700 18011KT P6SM
                       -RA OVC015 FM162300 20015G22KT P6SM -RA
                       OVC040=
201204151734 TAF KPAE 151734Z 1518/1618 17005KT P6SM OVC015 FM152100 24007KT
                       P6SM SCT020 SCT250 FM152300 25005KT P6SM
                       BKN250 FM160500 VRB03KT P6SM OVC120 FM161300
                       15009KT P6SM -RA SCT025 OVC045 FM161700
                       15011KT P6SM -RA OVC025=
201204151120 TAF KPAE 151120Z 1512/1612 15003KT P6SM OVC018 FM151700 22006KT
                       P6SM BKN023 BKN250 FM151900 24007KT P6SM
                       BKN250 FM160000 34005KT P6SM BKN250 FM160300
                       03003KT P6SM BKN250 FM161100 13010KT P6SM
                       -RA BKN035 OVC080=
201204150722 KPAE 150722Z 1507/1606 04004KT P6SM SCT023 OVC060
                      TEMPO 1507/1510 BKN023 OVC060 FM151000 17005KT
                       P6SM OVC020 FM151700 22006KT P6SM BKN020
                       BKN250 FM151900 24007KT P6SM BKN250 FM160000
                       34005KT P6SM BKN250 FM160300 03003KT P6SM
                       BKN250=
201204150521 TAF KPAE 150521Z 1506/1606 01005KT P6SM SCT050 BKN250 FM150900
                       13005KT P6SM SCT050 BKN250 FM151200 17005KT
                       P6SM OVC010 FM151700 22006KT P6SM BKN020
                       BKN250 FM151900 24007KT P6SM BKN250 FM160000
                       34005KT P6SM BKN250 FM160300 03003KT P6SM
                       BKN250=
201204142336 TAF KPAE 142336Z 1500/1524 24007KT P6SM SCT030 SCT200 FM151200
                       17004KT P6SM OVC015 FM151500 18005KT P6SM
                       OVC004 FM151800 24006KT P6SM SCT250=
201204141730 TAF KPAE 141730Z 1418/1518 18005KT P6SM BKN200 FM142000 20006KT
                       P6SM SCT200 FM151200 17004KT P6SM OVC015
                       FM151500 18005KT P6SM OVC004=
201204141120 TAF KPAE 141120Z 1412/1512 15003KT P6SM FEW200 FM141900 29006KT
                       P6SM SCT250 FM150300 34005KT P6SM BKN250
                       FM150600 15004KT P6SM BKN250=
201204140528 TAF KPAE 140528Z 1406/1506 02004KT P6SM FEW040 SCT200 FM141400
                       VRB04KT P6SM BKN040 FM141900 29006KT P6SM
                       SCT250 FM150300 34005KT P6SM BKN250=
201204132323 TAF KPAE 132323Z 1400/1424 36007G15KT P6SM SCT030 SCT200 FM141400
                       VRB04KT P6SM BKN040 FM141900 29006KT P6SM
                       BKN250=
201204131737 TAF KPAE 131737Z 1318/1418 36006KT P6SM SCT005 SCT025 FM131900
                       35007KT P6SM SCT025 FM141600 20004KT P6SM
                       BKN025=
201204131500 KPAE 131500Z 1315/1412 00000KT 1SM BR OVC003
                      TEMPO 1315/1318 4SM BR BKN007 FM131800 35007KT
                       P6SM SCT040
                      TEMPO 1322/1402 BKN040 FM140600 04006KT P6SM
                       SKC=
201204131350 KPAE 131350Z 1314/1412 VRB03KT P6SM SCT010
                      TEMPO 1314/1317 BKN007 FM131800 35007KT P6SM
                       SCT040
                      TEMPO 1322/1402 BKN040 FM140600 04006KT P6SM
                       SKC=
201204131122 TAF KPAE 131122Z 1312/1412 00000KT P6SM FEW030 FM131800 35007KT
                       P6SM SCT040
                      TEMPO 1322/1402 BKN040 FM140600 04006KT P6SM
                       SKC=
201204130521 TAF KPAE 130521Z 1306/1406 VRB04KT P6SM BKN040 FM131800 35007KT
                       P6SM SCT050=
201204122325 TAF KPAE 122325Z 1300/1324 20015G21KT P6SM VCSH SCT035 BKN060 BKN100
                       FM130400 13005KT P6SM BKN035 FM131200 02003KT
                       P6SM SCT035 FM132000 33007KT P6SM SCT050=
201204122247 KPAE 122247Z 1223/1318 21015G22KT P6SM -SHRA SCT025 BKN040 OVC090
                       FM130300 13005KT P6SM BKN035 FM131200 02003KT
                       P6SM SCT035=
201204121721 TAF KPAE 121721Z 1218/1318 12006KT P6SM FEW030 SCT200 FM121900
                       15010KT P6SM SCT030 BKN060
                      TEMPO 1219/1222 -SHRA BKN030 BKN060 FM122200
                       18012G20KT P6SM -SHRA BKN035 BKN060 FM130300
                       13005KT P6SM BKN035 FM131200 02003KT P6SM
                       SCT035=
201204121120 TAF KPAE 121120Z 1212/1312 15008KT P6SM SCT004 BKN050
                      TEMPO 1212/1216 4SM BR BKN004 OVC050 FM121900
                       16012KT P6SM SCT020 BKN040
                      TEMPO 1219/1222 SHRA BKN020 OVC040 FM122200
                       22012G22KT P6SM VCSH SCT025 BKN050 FM130300
                       20008KT P6SM BKN050=
201204120601 KPAE 120601Z 1206/1306 VRB04KT P6SM SCT003 BKN025 BKN040
                      TEMPO 1206/1210 BKN003 OVC025 FM121000 16006KT
                       P6SM VCSH SCT015 BKN035 OVC060 FM121900
                       18012KT P6SM -SHRA BKN040 FM122100 22012G22KT
                       P6SM VCSH SCT025 BKN050 FM130300 20008KT
                       P6SM BKN050=
201204120520 TAF KPAE 120520Z 1206/1306 VRB04KT P6SM SCT020 BKN040
                      TEMPO 1206/1210 -SHRA BKN020 OVC040 FM121000
                       16006KT P6SM VCSH SCT015 BKN035 OVC060 FM121900
                       18012KT P6SM -SHRA BKN040 FM122100 22012G22KT
                       P6SM VCSH SCT025 BKN050 FM130300 20008KT
                       P6SM BKN050=
201204120310 KPAE 120310Z 1203/1224 VRB04KT 5SM SHRA SCT003 BKN015 OVC040
                      TEMPO 1203/1206 3SM SHRA BR BKN002 OVC012
                       FM120600 VRB04KT P6SM VCSH SCT020 BKN035
                       OVC050
                      TEMPO 1206/1210 5SM -SHRA BR BKN020 OVC035
                       FM122000 18012G22KT P6SM -SHRA BKN030 OVC045=
201204112328 TAF KPAE 112328Z 1200/1224 00000KT P6SM -RA SCT006 BKN026 OVC040
                       TEMPO 1200/1204 4SM -RA BR BKN006 OVC025
                       FM120400 VRB04KT P6SM VCSH SCT020 BKN035
                       OVC050 FM121200 02004KT P6SM SCT008 BKN035
                       OVC060 FM122000 18014KT P6SM -SHRA BKN030
                       OVC045=
201204112257 KPAE 112257Z 1123/1218 00000KT 6SM -RA BR SCT006 BKN026 OVC040
                       TEMPO 1123/1202 4SM -RA BR BKN006 OVC025
                       FM120200 18006KT P6SM VCSH SCT020 BKN030
                       OVC050 FM120600 15005KT P6SM SCT025 BKN040=
201204111736 TAF KPAE 111736Z 1118/1218 VRB03KT P6SM -RA BKN008 BKN030 OVC090
                       FM112200 18007KT P6SM -SHRA BKN012 BKN030
                       OVC050 FM120200 18006KT P6SM VCSH SCT020
                       BKN030 OVC050 FM120600 15005KT P6SM SCT025
                       BKN040=
201204111127 TAF KPAE 111127Z 1112/1212 VRB03KT P6SM BKN050 OVC100 FM111800
                       20006KT P6SM -SHRA OVC040 FM112200 22006KT
                       P6SM VCSH BKN030 OVC060 FM120500 18006KT
                       P6SM SCT025 OVC040=
201204110525 TAF KPAE 110525Z 1106/1206 VRB03KT P6SM SCT050 OVC100 FM110900
                       19006KT P6SM VCSH BKN040 OVC090 FM111200
                       17005KT P6SM VCSH SCT015 OVC040
                      TEMPO 1112/1116 BKN015 OVC040 FM111800 20006KT
                       P6SM -SHRA BKN025 OVC040 FM112200 22006KT
                       P6SM VCSH BKN030 BKN050 FM120500 18006KT
                       P6SM SCT025 OVC040=
201204102330 TAF KPAE 102330Z 1100/1124 20012KT P6SM BKN080 BKN150 FM110500
                       VRB04KT P6SM VCSH BKN040 OVC090 FM111300
                       16006KT P6SM BKN020 OVC040 FM111900 18005KT
                       P6SM SCT025 BKN050=
201204101731 TAF KPAE 101731Z 1018/1118 35004KT P6SM BKN120 OVC200 FM102100
                       21005KT P6SM BKN090 BKN150 FM110100 23012KT
                       P6SM BKN090 BKN150 FM110500 VRB04KT P6SM
                       VCSH BKN040 OVC090 FM111300 16006KT P6SM
                       BKN020 OVC040=
201204101120 TAF KPAE 101120Z 1012/1112 36008KT P6SM SCT120 BKN200 FM102000
                       20012G18KT P6SM VCSH BKN090 OVC150 FM110500
                       22010KT P6SM VCSH BKN040 OVC090 FM111100
                       18008KT P6SM BKN020 OVC040=
201204100520 TAF KPAE 100520Z 1006/1106 33007KT P6SM BKN120 BKN200 FM102000
                       20012G18KT P6SM VCSH BKN090 OVC150 FM110500
                       22010KT P6SM VCSH BKN040 OVC090=
201204092320 TAF KPAE 092320Z 1000/1024 36006KT P6SM BKN120 BKN200 FM100300
                       01004KT P6SM BKN120 OVC250 FM101200 36006KT
                       P6SM BKN120 BKN250=
201204091732 TAF KPAE 091732Z 0918/1018 00000KT P6SM SCT120 BKN250 FM092100
                       31005KT P6SM SCT120 BKN250 FM100300 01004KT
                       P6SM BKN110 OVC250=
201204091120 TAF KPAE 091120Z 0912/1012 04003KT P6SM SCT110 OVC200 FM091900
                       31005KT P6SM BKN110 OVC250 FM092200 28005KT
                       P6SM BKN110 OVC250 FM100300 01004KT P6SM
                       BKN110 OVC250=
201204090520 TAF KPAE 090520Z 0906/1006 04003KT P6SM BKN110 OVC200 FM091900
                       31005KT P6SM BKN110 OVC250 FM100300 01004KT
                       P6SM BKN110 OVC250=
201204082349 TAF KPAE 082349Z 0900/0924 34006KT P6SM SCT110 BKN250 FM090200
                       VRB03KT P6SM SCT110 BKN250 FM090900 VRB03KT
                       P6SM BKN110 OVC250 FM091900 31005KT P6SM
                       BKN110 OVC250=
201204082104 KPAE 082104Z 0821/0918 36009KT P6SM BKN110 OVC250 FM082300 33007KT
                       P6SM SCT110 OVC250 FM090200 VRB03KT P6SM
                       BKN110 OVC250=
201204081721 TAF KPAE 081721Z 0818/0918 02005KT P6SM BKN110 OVC250 FM082100
                       33007KT P6SM SCT110 OVC250 FM090200 VRB03KT
                       P6SM BKN110 OVC250=
201204081609 KPAE 081609Z 0816/0912 06005KT P6SM SCT110 BKN250 FM081800 34007KT
                       P6SM SCT150 OVC200 FM090300 36005KT P6SM
                       SCT120 OVC200=
201204081120 TAF KPAE 081120Z 0812/0912 06005KT P6SM BKN110 OVC200 FM081800
                       34007KT P6SM SCT150 OVC200 FM090300 36005KT
                       P6SM SCT120 OVC200=
201204080523 TAF KPAE 080523Z 0806/0906 10007KT P6SM BKN200 FM081300 04004KT
                       P6SM BKN110 OVC200 FM081800 34007KT P6SM
                       SCT150 OVC200=
201204072337 TAF KPAE 072337Z 0800/0824 34009KT P6SM FEW250 FM080200 01006KT
                       P6SM SCT250 FM080600 VRB03KT P6SM SCT250
                       FM081800 33006KT P6SM SCT150 OVC250=
201204071747 TAF KPAE 071747Z 0718/0818 35008KT P6SM SKC FM080200 01006KT P6SM
                       SCT250 FM080600 VRB03KT P6SM SCT250=
201204071122 TAF KPAE 071122Z 0712/0812 VRB03KT P6SM SKC FM071500 02004KT P6SM
                       SKC FM071900 36008KT P6SM SCT250 FM072200
                       32008KT P6SM BKN250 FM080800 02004KT P6SM
                       BKN120 BKN200=
201204070520 TAF KPAE 070520Z 0706/0806 35004KT P6SM SCT050
                      TEMPO 0706/0709 BKN050 FM071500 02004KT P6SM
                       SCT200 FM071900 36008KT P6SM SCT250=
201204062324 TAF KPAE 062324Z 0700/0724 27005KT P6SM SCT050 SCT200 FM070200
                       VRB03KT P6SM FEW060 SCT200 FM070600 36005KT
                       P6SM SCT200 FM071800 35008KT P6SM SCT250=
201204062101 KPAE 062101Z 0621/0718 20006KT P6SM BKN030 BKN050 BKN200 FM070000
                       24005KT P6SM SCT035 BKN050 BKN200 FM070300
                       VRB03KT P6SM FEW050 BKN200 FM070600 36004KT
                       P6SM SCT200=
201204061749 TAF KPAE 061749Z 0618/0718 VRB03KT P6SM OVC020 FM061900 VRB03KT
                       P6SM BKN025 BKN050 BKN200 FM062100 24005KT
                       P6SM BKN035 BKN050 BKN200 FM070000 24005KT
                       P6SM SCT035 BKN050 BKN200 FM070300 VRB03KT
                       P6SM FEW050 BKN200 FM070600 36004KT P6SM
                       SCT200=
201204061425 KPAE 061425Z 0614/0712 VRB03KT P6SM SCT008 OVC020
                      TEMPO 0614/0618 BKN008 OVC020 FM061800 24006KT
                       P6SM VCSH SCT025 BKN050 FM070000 32003KT
                       P6SM FEW050 SCT250=
201204061120 TAF KPAE 061120Z 0612/0712 VRB03KT P6SM SCT020 BKN040
                      TEMPO 0612/0616 BKN020 BKN040 FM061800 24006KT
                       P6SM VCSH SCT025 BKN050 FM070000 32003KT
                       P6SM FEW050 SCT250=
201204060936 KPAE 060936Z 0610/0706 VRB03KT P6SM BKN020 BKN040 FM061800 25006KT
                       P6SM VCSH SCT025 BKN050 FM070100 32003KT
                       P6SM FEW050 SCT250=
201204060611 KPAE 060611Z 0606/0706 VRB03KT P6SM BKN040 FM061200 14003KT P6SM
                       BKN040
                      TEMPO 0615/0618 BKN025 BKN040 FM061800 25006KT
                       P6SM VCSH SCT025 BKN050 FM070100 32003KT
                       P6SM FEW050 SCT250=
201204060521 TAF KPAE 060521Z 0606/0706 VRB03KT P6SM SCT050 FM061200 14003KT
                       P6SM BKN050
                      TEMPO 0615/0618 BKN025 BKN050 FM061800 25006KT
                       P6SM VCSH SCT025 BKN050 FM070100 32003KT
                       P6SM FEW050 SCT250=
201204052333 TAF KPAE 052333Z 0600/0624 27008KT P6SM VCSH SCT025 BKN045 FM060300
                       VRB03KT P6SM BKN045 FM061200 16003KT P6SM
                       BKN015 FM061800 21006KT P6SM VCSH SCT020
                       BKN045=
201204051727 TAF KPAE 051727Z 0518/0618 VRB03KT P6SM VCSH SCT008 BKN027 OVC045
                       FM052100 27003KT P6SM VCSH SCT025 OVC050
                       FM060300 33003KT P6SM SCT045 FM061400 16005KT
                       P6SM OVC020=
201204051124 TAF KPAE 051124Z 0512/0612 00000KT P6SM SCT012 OVC028
                      TEMPO 0512/0516 BKN012 OVC028 FM051800 18004KT
                       P6SM SCT025 BKN045 FM052300 22006KT P6SM
                       SCT040 BKN080=
201204050748 KPAE 050748Z 0508/0606 00000KT P6SM BKN016 OVC040
                      TEMPO 0508/0511 SCT016 OVC040 FM051100 18005KT
                       P6SM SCT008 OVC016
                      TEMPO 0511/0515 OVC008 FM051900 17004KT P6SM
                       SCT025 BKN045 FM052300 22006KT P6SM SCT040
                       BKN080=
201204050527 TAF KPAE 050527Z 0506/0606 VRB03KT P6SM SCT030 BKN060 FM051100
                       18005KT P6SM SCT008 BKN025
                      TEMPO 0511/0515 OVC008 FM051900 17004KT P6SM
                       SCT025 BKN045 FM052300 22006KT P6SM SCT040
                       BKN080=
201204042320 TAF KPAE 042320Z 0500/0524 30007KT P6SM VCSH BKN045 BKN250 FM050300
                       21003KT P6SM BKN045 FM051100 18003KT P6SM
                       OVC005 FM051900 17004KT P6SM SCT006 BKN035=
201204041728 TAF KPAE 041728Z 0418/0518 VRB03KT P6SM SCT015 BKN035 FM042000
                       28006KT P6SM VCSH BKN040 FM050300 21003KT
                       P6SM BKN045 FM051100 18003KT P6SM OVC005=
201204041138 TAF KPAE 041138Z 0412/0512 VRB03KT P6SM BKN030 BKN100 FM041600
                       VRB03KT P6SM SCT030 BKN100 FM042100 32006KT
                       P6SM VCSH BKN040 FM050600 VRB03KT P6SM SCT050=
201204040536 TAF KPAE 040536Z 0406/0506 16006KT P6SM BKN015
                      TEMPO 0411/0414 SCT015 FM041400 16006KT P6SM
                       SCT060 FM042100 32006KT P6SM VCSH BKN040=
201204032330 TAF KPAE 032330Z 0400/0424 16007KT P6SM VCSH SCT008 BKN015 OVC023
                       TEMPO 0400/0403 -SHRA BKN007 OVC015 FM041200
                       VRB03KT P6SM OVC040 FM042100 30005KT P6SM
                       VCSH BKN040=
201204032101 KPAE 032101Z 0321/0418 11007KT P6SM -RA BKN003 OVC009 FM032300
                       29006KT P6SM VCSH SCT007 OVC020 FM040400
                       03003KT P6SM OVC100 FM041700 28004KT P6SM
                       OVC025=
201204031824 KPAE 031824Z 0318/0418 00000KT 5SM -RA BR SCT006 BKN009 OVC040
                       FM032000 20011KT P6SM -SHRA OVC040 FM032300
                       29006KT P6SM VCSH OVC045 FM040400 03003KT
                       P6SM OVC100 FM041700 28004KT P6SM OVC025=
201204031729 TAF KPAE 031729Z 0318/0418 21011KT P6SM -RA BKN015 OVC050 FM032000
                       20011KT P6SM -SHRA OVC040 FM032300 29006KT
                       P6SM VCSH OVC045 FM040400 03003KT P6SM OVC100
                       FM041700 28004KT P6SM OVC025=
201204031128 TAF KPAE 031128Z 0312/0412 18010KT P6SM BKN060 OVC120 FM031600
                       18010KT P6SM -RA OVC035 FM031800 18010KT
                       P6SM -RA OVC022 FM032100 VRB03KT P6SM -SHRA
                       BKN012 OVC020 FM040200 VRB03KT P6SM SCT035
                       BKN060=
201204030538 TAF KPAE 030538Z 0306/0406 15012G20KT P6SM BKN120 OVC200 FM031100
                       15012KT P6SM BKN060 OVC120 FM031400 15012KT
                       P6SM -RA OVC035 FM031700 18010KT P6SM -RA
                       OVC022 FM032100 18008KT P6SM -SHRA BKN012
                       OVC020 FM040200 VRB03KT P6SM SCT035 BKN060=
201204022326 TAF KPAE 022326Z 0300/0324 17012KT P6SM FEW040 SCT120 BKN200 FM030600
                       16014G22KT P6SM BKN060 OVC120 FM031000 16014KT
                       P6SM -RA OVC035 FM031400 17010KT P6SM -RA
                       OVC020 FM032000 20007KT P6SM -SHRA BKN035=
201204021725 TAF KPAE 021725Z 0218/0318 15012KT P6SM SCT050 BKN100 OVC200 FM022200
                       16014G22KT P6SM SCT060 OVC100 FM030400 16014G22KT
                       P6SM OVC060 FM030900 16014KT P6SM -RA OVC035
                       FM031400 17010KT P6SM -RA OVC020=
201204021128 TAF KPAE 021128Z 0212/0312 16014KT P6SM SCT060 OVC100 FM022200
                       16014G22KT P6SM SCT060 OVC100 FM030400 16014G22KT
                       P6SM OVC060 FM030700 16014KT P6SM -RA OVC035=
201204020536 TAF KPAE 020536Z 0206/0306 16008KT P6SM BKN025 BKN040 FM020900
                       16008KT P6SM SCT025 BKN040 FM021600 16008KT
                       P6SM SCT060 BKN120 OVC200 FM022100 14014KT
                       P6SM SCT060 BKN120 OVC200 FM030400 14014G22KT
                       P6SM OVC060=
201204012340 TAF KPAE 012340Z 0200/0224 22010KT P6SM BKN030 BKN050
                      TEMPO 0200/0203 6SM -SHRA BR FM020600 16010KT
                       P6SM BKN025 BKN040 FM021200 15010KT P6SM
                       SCT025 OVC040 FM021800 15017KT P6SM BKN050
                       BKN080=
201204011742 TAF KPAE 011742Z 0118/0218 19009KT P6SM SCT015 BKN030
                      TEMPO 0118/0119 -SHRA BKN015 OVC030 FM012100
                       16008KT P6SM SCT025 BKN040 OVC060 FM012300
                       16008KT P6SM -RA BKN030 OVC050 FM020400
                       16008KT P6SM SCT035 BKN050 OVC100 FM020800
                       16014KT P6SM -SHRA OVC030 FM021200 15011KT
                       P6SM OVC050=
201204011140 TAF KPAE 011140Z 0112/0212 18020G30KT P6SM BKN015 OVC030 FM011600
                       18012KT P6SM -SHRA SCT006 BKN012 OVC025
                       TEMPO 0116/0119 5SM -SHRA BKN006 OVC012
                       FM012100 16008KT P6SM SCT025 BKN040 OVC060
                       FM012300 16008KT P6SM -RA BKN030 OVC050
                       FM020400 16008KT P6SM SCT035 BKN050 OVC100
                       FM020800 16014KT P6SM -RA OVC030=
201204010540 TAF KPAE 010540Z 0106/0206 13008KT P6SM -SHRA BKN040 OVC060 FM011300
                       VRB03KT P6SM -SHRA SCT012 BKN022 BKN040
                       FM011700 16008KT P6SM SCT025 BKN040 OVC060
                       FM012300 16008KT P6SM -RA BKN030 OVC050=