##########################################################
# Query made at 02/15/2025 20:37:55 UTC
# Time interval: from 09/01/2012 00:00  to 09/30/2012 23:59  UTC
##########################################################

##########################################################
# KPAE, Everett, Snohomish County Airport (United States)
# WMO index: -----. WIGOS ID: Unknown
# Latitude 47-55-23N. Longitude 122-16-57W. Altitude 184 m.
##########################################################

###################################
#  METAR/SPECI from KPAE
###################################
201209302353 METAR KPAE 302353Z 36004KT 10SM CLR 18/06 A3038 RMK AO2 SLP289 T01780061 10183 20144 58006=
201209302253 METAR KPAE 302253Z 36004KT 10SM CLR 18/07 A3039 RMK AO2 SLP291 T01780067=
201209302153 METAR KPAE 302153Z VRB04KT 10SM CLR 18/06 A3040 RMK AO2 SLP293 T01830061=
201209302053 METAR KPAE 302053Z VRB05KT 10SM CLR 17/06 A3040 RMK AO2 SLP295 T01670061 58003=
201209301953 METAR KPAE 301953Z VRB06KT 10SM CLR 17/06 A3041 RMK AO2 SLP298 T01670061=
201209301853 METAR KPAE 301853Z 02005KT 10SM CLR 16/07 A3041 RMK AO2 SLP298 T01560067=
201209301753 METAR KPAE 301753Z 00000KT 10SM CLR 14/07 A3041 RMK AO2 SLP298 T01440072 10144 20083 51012=
201209301653 METAR KPAE 301653Z 36003KT 10SM CLR 13/07 A3041 RMK AO2 SLP297 T01280072=
201209301553 METAR KPAE 301553Z 00000KT 10SM CLR 11/08 A3040 RMK AO2 SLP295 T01060078=
201209301453 METAR KPAE 301453Z 00000KT 10SM FEW001 08/08 A3038 RMK AO2 SLP288 T00830078 53013=
201209301438 SPECI KPAE 301438Z 03003KT 10SM R16R/1600VP6000FT FEW001 08/08 A3038 RMK AO2=
201209301435 SPECI KPAE 301435Z 03004KT 1/2SM R16R/1400V4000FT FG VV001 08/08 A3038 RMK AO2=
201209301353 METAR KPAE 301353Z 02003KT 1/4SM R16R/1200V1800FT FG VV001 08/08 A3036 RMK AO2 SLP283 T00830078=
201209301349 SPECI KPAE 301349Z 02003KT 1/4SM R16R/1400V2000FT FG VV001 08/08 A3036 RMK AO2=
201209301343 SPECI KPAE 301343Z AUTO 03005KT 1/2SM R16R/1200V2400FT FG VV001 08/08 A3036 RMK AO2=
201209301314 SPECI KPAE 301314Z AUTO 36004KT 1/4SM R16R/1400V2200FT FG VV001 09/08 A3035 RMK AO2=
201209301310 SPECI KPAE 301310Z AUTO 36003KT 1/2SM R16R/1400V2800FT FG VV001 09/08 A3035 RMK AO2=
201209301302 SPECI KPAE 301302Z AUTO 00000KT 1/2SM R16R/1600V2400FT FG VV002 09/08 A3034 RMK AO2=
201209301253 METAR KPAE 301253Z AUTO 00000KT 1/4SM R16R/1200V2400FT FG VV001 09/08 A3034 RMK AO2 SLP275 T00890083=
201209301200 SPECI KPAE 301200Z AUTO 00000KT 1/4SM R16R/1600V2200FT FG VV001 09/08 A3034 RMK AO2=
201209301153 METAR KPAE 301153Z AUTO 03003KT 1/2SM R16R/1400V2000FT FG VV001 09/08 A3034 RMK AO2 SLP274 T00890083 10117 20089 50006=
201209301151 SPECI KPAE 301151Z AUTO 00000KT 1/2SM R16R/1400V1800FT FG VV001 09/08 A3034 RMK AO2=
201209301139 SPECI KPAE 301139Z AUTO 00000KT 1/4SM R16R/1200V1400FT FG VV001 09/08 A3034 RMK AO2=
201209301123 SPECI KPAE 301123Z AUTO 00000KT 1/4SM R16R/1400V2600FT FG VV001 09/08 A3034 RMK AO2=
201209301117 SPECI KPAE 301117Z AUTO 00000KT 1/2SM R16R/1400V2000FT FG VV001 09/08 A3033 RMK AO2=
201209301107 SPECI KPAE 301107Z AUTO 00000KT 1 3/4SM R16R/1400V2000FT BR BKN001 09/08 A3033 RMK AO2=
201209301104 SPECI KPAE 301104Z AUTO 00000KT 3SM R16R/1400V3500FT BR BKN001 09/08 A3033 RMK AO2=
201209301053 METAR KPAE 301053Z AUTO 00000KT 5SM BR SCT001 09/08 A3033 RMK AO2 SLP271 T00890078=
201209300953 METAR KPAE 300953Z AUTO 00000KT 9SM CLR 09/08 A3032 RMK AO2 SLP268 T00940078=
201209300853 METAR KPAE 300853Z AUTO 04003KT 10SM CLR 10/08 A3032 RMK AO2 SLP267 T01000083 50004=
201209300753 METAR KPAE 300753Z AUTO 36004KT 10SM CLR 10/08 A3032 RMK AO2 SLP267 T01000078 401830100=
201209300653 METAR KPAE 300653Z AUTO 36004KT 10SM CLR 11/07 A3031 RMK AO2 SLP264 T01060072=
201209300553 METAR KPAE 300553Z AUTO 01004KT 10SM CLR 11/07 A3031 RMK AO2 SLP264 T01060067 10161 20106 51016=
201209300453 METAR KPAE 300453Z AUTO 01004KT 10SM CLR 11/07 A3029 RMK AO2 SLP258 T01110067=
201209300353 METAR KPAE 300353Z 34004KT 10SM CLR 11/08 A3028 RMK AO2 SLP255 T01110078=
201209300253 METAR KPAE 300253Z 36004KT 10SM CLR 12/09 A3026 RMK AO2 SLP248 T01170089 53007=
201209300153 METAR KPAE 300153Z 34004KT 10SM CLR 13/09 A3025 RMK AO2 SLP244 T01280094=
201209300053 METAR KPAE 300053Z VRB05KT 10SM CLR 15/09 A3024 RMK AO2 SLP239 T01500094=
201209292353 METAR KPAE 292353Z 36005KT 10SM CLR 16/08 A3024=
201209292253 METAR KPAE 292253Z VRB04KT 10SM CLR 17/07 A3024 RMK AO2 SLP238 T01720072=
201209292153 METAR KPAE 292153Z VRB03KT 10SM CLR 18/07 A3023 RMK AO2 SLP234 T01780067=
201209292053 METAR KPAE 292053Z 34005KT 10SM CLR 18/07 A3022 RMK AO2 SLP232 T01780067 50000=
201209291953 METAR KPAE 291953Z 02005KT 10SM CLR 17/08 A3022 RMK AO2 SLP234 T01720083=
201209291853 METAR KPAE 291853Z 01006KT 10SM SCT020 SCT050 16/09 A3022 RMK AO2 SLP234 T01610094=
201209291753 METAR KPAE 291753Z 01005KT 10SM SCT018 OVC043 14/08 A3022 RMK AO2 SLP233 T01390078 10144 20117 51020=
201209291707 SPECI KPAE 291707Z 36006KT 10SM SCT018 OVC043 13/08 A3021 RMK AO2=
201209291653 METAR KPAE 291653Z 36004KT 10SM BKN018 BKN045 OVC055 13/08 A3021 RMK AO2 SLP229 T01280083=
201209291553 METAR KPAE 291553Z 35005KT 10SM FEW043 OVC055 12/08 A3018 RMK AO2 SLP220 T01220083=
201209291453 METAR KPAE 291453Z 35008KT 10SM OVC039 12/09 A3016 RMK AO2 SLP213 T01170089 53016=
201209291353 METAR KPAE 291353Z 36006KT 10SM BKN037 OVC046 12/08 A3014 RMK AO2 SLP204 T01170083=
201209291253 METAR KPAE 291253Z AUTO 01006G14KT 10SM OVC036 12/08 A3012 RMK AO2 SLP200 T01170083=
201209291153 METAR KPAE 291153Z AUTO 01007KT 10SM BKN032 OVC045 12/08 A3011 RMK AO2 SLP195 T01220083 10144 20122 51011=
201209291053 METAR KPAE 291053Z AUTO 35008G14KT 10SM OVC034 12/08 A3010 RMK AO2 SLP192 T01220083=
201209290953 METAR KPAE 290953Z AUTO 36004KT 10SM FEW030 OVC043 12/09 A3009 RMK AO2 SLP188 T01220094=
201209290853 METAR KPAE 290853Z AUTO 01005KT 10SM OVC043 13/10 A3008 RMK AO2 SLP184 T01280100 53018=
201209290822 SPECI KPAE 290822Z AUTO 02006KT 10SM SCT007 OVC043 13/11 A3007 RMK AO2=
201209290811 SPECI KPAE 290811Z AUTO 01004KT 10SM BKN005 OVC043 13/11 A3007 RMK AO2 CIG 002V009=
201209290753 METAR KPAE 290753Z AUTO 01005KT 10SM BKN002 OVC007 13/11 A3006 RMK AO2 SLP177 T01280111 402170128=
201209290735 SPECI KPAE 290735Z AUTO 02005KT 7SM R16R/2800VP6000FT OVC002 13/12 A3005 RMK AO2=
201209290724 SPECI KPAE 290724Z AUTO 36004KT 2SM R16R/1800V3500FT BR OVC002 13/12 A3005 RMK AO2 VIS 1V3=
201209290653 METAR KPAE 290653Z AUTO 01005KT 8SM R16R/4000VP6000FT OVC002 13/12 A3003 RMK AO2 SLP168 T01330122=
201209290623 SPECI KPAE 290623Z AUTO 01004KT 10SM BKN002 BKN050 OVC100 14/13 A3002 RMK AO2=
201209290553 METAR KPAE 290553Z AUTO 00000KT 10SM FEW002 OVC100 14/13 A3003=
201209290531 SPECI KPAE 290531Z AUTO VRB04KT 10SM FEW002 BKN100 14/13 A3002 RMK AO2=
201209290453 METAR KPAE 290453Z AUTO 00000KT 10SM CLR 15/13 A3001 RMK AO2 SLP162 T01500133=
201209290353 METAR KPAE 290353Z AUTO 02003KT 10SM OVC110 15/13 A3001 RMK AO2 SLP162 T01500128=
201209290253 METAR KPAE 290253Z 01004KT 10SM SCT110 16/13 A3000 RMK AO2 SLP157 T01610133 53004=
201209290153 METAR KPAE 290153Z 01003KT 10SM CLR 18/12 A2999 RMK AO2 SLP153 T01780117=
201209290053 METAR KPAE 290053Z VRB03KT 10SM CLR 19/12 A2998 RMK AO2 SLP150 T01940117=
201209282353 METAR KPAE 282353Z VRB04KT 10SM CLR 20/10 A2998=
201209282253 METAR KPAE 282253Z 36005KT 10SM CLR 20/10 A2998 RMK AO2 SLP152 T02000100=
201209282153 METAR KPAE 282153Z 31005KT 10SM CLR 21/11 A2999 RMK AO2 SLP152 T02110106=
201209282053 METAR KPAE 282053Z 00000KT 9SM CLR 19/12 A2999 RMK AO2 SLP153 T01940117 58003=
201209281953 METAR KPAE 281953Z 31004KT 10SM CLR 21/12 A2999 RMK AO2 SLP154 T02060117=
201209281853 METAR KPAE 281853Z 00000KT 9SM CLR 18/12 A3000 RMK AO2 SLP156 T01780122=
201209281753 METAR KPAE 281753Z 22003KT 8SM BKN110 17/12 A3000 RMK AO2 SLP157 60000 T01670122 10167 20133 50009=
201209281653 METAR KPAE 281653Z 27004KT 6SM BR FEW110 14/12 A3000 RMK AO2 SLP158 T01390117=
201209281553 METAR KPAE 281553Z 00000KT 7SM FEW045 SCT100 14/12 A2998 RMK AO2 RAE1454 SLP152 T01390117=
201209281453 METAR KPAE 281453Z 00000KT 7SM -RA FEW045 BKN100 14/12 A2997 RMK AO2 RAB37 SLP148 P0000 60000 T01390117 53008=
201209281353 METAR KPAE 281353Z 00000KT 8SM SCT090 BKN120 14/12 A2996 RMK AO2 SLP144 T01390117=
201209281253 METAR KPAE 281253Z AUTO 15004KT 8SM SCT095 BKN120 14/12 A2995 RMK AO2 SLP140 T01440117=
201209281153 METAR KPAE 281153Z AUTO 11003KT 9SM FEW110 15/12 A2995 RMK AO2 SLP138 70001 T01500117 10150 20128 56006=
201209281053 METAR KPAE 281053Z AUTO 00000KT 9SM CLR 14/11 A2995 RMK AO2 SLP140 T01390106=
201209280953 METAR KPAE 280953Z AUTO 00000KT 10SM CLR 14/11 A2996 RMK AO2 SLP142 T01390106=
201209280853 METAR KPAE 280853Z AUTO 00000KT 10SM CLR 14/11 A2997 RMK AO2 SLP146 T01440106 56002=
201209280753 METAR KPAE 280753Z AUTO 00000KT 10SM CLR 14/11 A2997 RMK AO2 SLP146 T01390106 402060094=
201209280653 METAR KPAE 280653Z AUTO 00000KT 10SM CLR 14/11 A2997 RMK AO2 SLP148 T01390106=
201209280553 METAR KPAE 280553Z AUTO 00000KT 10SM CLR 14/11 A2997 RMK AO2 SLP148 T01440106 10206 20144 52002=
201209280453 METAR KPAE 280453Z AUTO 00000KT 10SM CLR 16/11 A2997 RMK AO2 SLP148 T01560106=
201209280353 METAR KPAE 280353Z AUTO 00000KT 10SM CLR 16/10 A2997 RMK AO2 SLP148 T01560100=
201209280253 METAR KPAE 280253Z 00000KT 10SM CLR 17/10 A2997 RMK AO2 SLP147 T01670100 55005=
201209280153 METAR KPAE 280153Z 00000KT 10SM CLR 17/09 A2996 RMK AO2 SLP146 T01670094=
201209280053 METAR KPAE 280053Z 34003KT 10SM CLR 19/09 A2997 RMK AO2 SLP148 T01940089=
201209272353 METAR KPAE 272353Z 01004KT 10SM CLR 21/09 A2998 RMK AO2 SLP151 T02060094 10206 20144 58019=
201209272253 METAR KPAE 272253Z 35004KT 10SM CLR 20/09 A3001 RMK AO2 SLP159 T02000094=
201209272153 METAR KPAE 272153Z 01006KT 10SM CLR 19/09 A3002 RMK AO2 SLP164 T01940094=
201209272053 METAR KPAE 272053Z 36004KT 10SM CLR 19/10 A3004 RMK AO2 SLP171 T01890100 58012=
201209271953 METAR KPAE 271953Z VRB05KT 10SM CLR 17/10 A3006 RMK AO2 SLP178 T01720100=
201209271853 METAR KPAE 271853Z 35004KT 10SM CLR 15/10 A3007 RMK AO2 SLP182 T01500100=
201209271753 METAR KPAE 271753Z VRB03KT 10SM CLR 15/09 A3008 RMK AO2 SLP184 60001 T01500094 10150 20094 56001=
201209271653 METAR KPAE 271653Z 00000KT 10SM CLR 13/09 A3008 RMK AO2 SLP184 T01330089=
201209271553 METAR KPAE 271553Z 35003KT 10SM CLR 13/08 A3008 RMK AO2 SLP185 T01280083=
201209271453 METAR KPAE 271453Z 00000KT 10SM CLR 11/08 A3008 RMK AO2 SLP185 60001 T01110078 55000=
201209271353 METAR KPAE 271353Z 00000KT 10SM CLR 10/08 A3008 RMK AO2 SLP184 T01000078=
201209271253 METAR KPAE 271253Z 00000KT 10SM CLR 10/08 A3008 RMK AO2 SLP186 P0001 T01000078=
201209271153 METAR KPAE 271153Z 36003KT 8SM CLR 10/09 A3008 RMK AO2 SLP186 T01000089 10117 20094 50000=
201209271053 METAR KPAE 271053Z 00000KT 4SM BR FEW002 10/09 A3008 RMK AO2 SLP186 T01000089=
201209271051 SPECI KPAE 271051Z 00000KT 3SM BR FEW002 10/09 A3008 RMK AO2=
201209271046 SPECI KPAE 271046Z 00000KT 1 1/4SM BR SCT002 10/09 A3008 RMK AO2=
201209271038 SPECI KPAE 271038Z 00000KT 1/2SM R16R/P6000FT FG VV001 10/09 A3008 RMK AO2=
201209271028 SPECI KPAE 271028Z 00000KT 1/4SM R16R/1000VP6000FT FG VV001 10/09 A3008 RMK AO2=
201209271007 SPECI KPAE 271007Z 00000KT 1/4SM R16R/0800FT FG VV001 11/09 A3009 RMK AO2=
201209270953 METAR KPAE 270953Z 00000KT 1/4SM R16R/1600VP6000FT FG VV001 10/09 A3009 RMK AO2 SLP188 T01000094=
201209270936 SPECI KPAE 270936Z 00000KT 3/4SM R16R/1000VP6000FT BR VV001 11/09 A3008 RMK AO2=
201209270923 SPECI KPAE 270923Z 00000KT 2 1/2SM BR BKN001 11/09 A3008 RMK AO2=
201209270920 SPECI KPAE 270920Z 00000KT 3SM BR SCT001 11/09 A3008 RMK AO2=
201209270853 METAR KPAE 270853Z 02003KT 7SM CLR 11/09 A3008 RMK AO2 SLP185 T01110094 55000=
201209270753 METAR KPAE 270753Z 00000KT 10SM CLR 11/08 A3008 RMK AO2 SLP185 T01060083 401830089=
201209270653 METAR KPAE 270653Z 36003KT 7SM CLR 11/09 A3008 RMK AO2 SLP187 T01110094=
201209270553 METAR KPAE 270553Z 36003KT 10SM CLR 11/09 A3008 RMK AO2 SLP186 T01110089 10167 20111 50003=
201209270453 METAR KPAE 270453Z 00000KT 10SM CLR 13/09 A3008 RMK AO2 SLP187 T01280094=
201209270353 METAR KPAE 270353Z 00000KT 10SM CLR 13/09 A3007 RMK AO2 SLP184 T01280094=
201209270253 METAR KPAE 270253Z 00000KT 10SM CLR 14/09 A3007 RMK AO2 SLP183 T01440094 55002=
201209270153 METAR KPAE 270153Z 35003KT 10SM CLR 15/10 A3007 RMK AO2 SLP182 T01500100=
201209270053 METAR KPAE 270053Z 35004KT 10SM CLR 16/09 A3007 RMK AO2 SLP182 T01560094=
201209262353 METAR KPAE 262353Z 01004KT 10SM CLR 16/09 A3007 RMK AO2 SLP184 T01610094 10183 20094 56007=
201209262253 METAR KPAE 262253Z 01004KT 10SM CLR 18/09 A3008 RMK AO2 SLP186 T01780089=
201209262153 METAR KPAE 262153Z VRB04KT 10SM CLR 17/09 A3008 RMK AO2 SLP187 T01720089=
201209262053 METAR KPAE 262053Z VRB03KT 10SM CLR 17/09 A3010 RMK AO2 SLP191 T01720094 58013=
201209261953 METAR KPAE 261953Z 29004KT 4SM HZ FEW008 14/09 A3011 RMK AO2 SLP197 FG BNK OVR WATER T01390094=
201209261931 SPECI KPAE 261931Z 27003KT 3SM HZ SCT006 13/09 A3012 RMK AO2 VIS 2=
201209261923 SPECI KPAE 261923Z 00000KT 3SM BR BKN004 12/09 A3012 RMK AO2 CIG 002V007=
201209261853 METAR KPAE 261853Z 00000KT 3/4SM R16R/3500VP6000FT BR VV002 11/09 A3013 RMK AO2 SLP202 T01060094=
201209261844 SPECI KPAE 261844Z 00000KT 1/2SM R16R/1200VP6000FT FG VV002 10/09 A3013 RMK AO2=
201209261834 SPECI KPAE 261834Z 00000KT 1/4SM R16R/1000V3500FT FG VV001 10/09 A3013=
201209261753 METAR KPAE 261753Z 33004KT M1/4SM R16R/0400V0800FT FG VV001 09/09 A3013 RMK AO2 SLP205 T00940089 10106 20089 51005=
201209261653 METAR KPAE 261653Z VRB03KT M1/4SM R16R/0400V0500FT FG VV001 09/09 A3013 RMK AO2 SLP205 T00940089=
201209261553 METAR KPAE 261553Z 35005KT M1/4SM R16R/0400V0600FT FG VV001 09/08 A3013 RMK AO2 SLP202 T00890083=
201209261453 METAR KPAE 261453Z 36003KT M1/4SM R16R/0600V1400FT FG VV001 10/09 A3012 RMK AO2 SLP199 T01000089 52003=
201209261400 SPECI KPAE 261400Z 02005KT M1/4SM R16R/0600FT FG VV001 09/09 A3012 RMK AO2=
201209261353 METAR KPAE 261353Z 02004KT 10SM R16R/0600V0800FT BKN001 09/09 A3012 RMK AO2 SLP199 FG NW PORTION OF AIRPORT T00940089=
201209261326 SPECI KPAE 261326Z AUTO 02003KT 1/4SM R16R/1400V1800FT FG VV001 09/08 A3012 RMK AO2=
201209261315 SPECI KPAE 261315Z AUTO 02003KT 3/4SM R16R/1400V3500FT BR VV001 10/09 A3011 RMK AO2=
201209261305 SPECI KPAE 261305Z AUTO 00000KT 1SM R16R/2000V3500FT BR VV001 10/09 A3011 RMK AO2=
201209261256 SPECI KPAE 261256Z AUTO 01003KT 2 1/2SM R16R/3500VP6000FT BR BKN002 10/09 A3011 RMK AO2=
201209261253 METAR KPAE 261253Z AUTO 00000KT 3SM BR SCT002 10/09 A3011 RMK AO2 SLP196 T01000089=
201209261153 METAR KPAE 261153Z AUTO 00000KT 8SM CLR 11/09 A3011 RMK AO2 SLP195 60001 70001 T01060089 10117 20094 58007=
201209261053 METAR KPAE 261053Z AUTO 00000KT 10SM CLR 09/08 A3012 RMK AO2 SLP200 T00940078=
201209260953 METAR KPAE 260953Z AUTO 00000KT 10SM CLR 11/09 A3012 RMK AO2 SLP201 T01110089=
201209260853 METAR KPAE 260853Z AUTO 03005KT 7SM CLR 11/09 A3013 RMK AO2 SLP203 P0001 60001 T01110094 50000=
201209260753 METAR KPAE 260753Z AUTO 02004KT 8SM CLR 11/09 A3013 RMK AO2 SLP203 T01110094 401830106=
201209260653 METAR KPAE 260653Z AUTO 01005KT 10SM CLR 11/09 A3013 RMK AO2 SLP205 T01110089=
201209260553 METAR KPAE 260553Z 01003KT 10SM CLR 12/10 A3013 RMK AO2 SLP203 T01170100 10183 20117 55000=
201209260453 METAR KPAE 260453Z 00000KT 10SM CLR 13/09 A3012 RMK AO2 SLP201 T01330089=
201209260353 METAR KPAE 260353Z 00000KT 10SM CLR 13/09 A3013 RMK AO2 SLP202 T01330089=
201209260253 METAR KPAE 260253Z 00000KT 10SM CLR 15/09 A3013 RMK AO2 SLP202 T01500089 52001=
201209260153 METAR KPAE 260153Z 00000KT 10SM CLR 16/10 A3012 RMK AO2 SLP201 T01560100=
201209260053 METAR KPAE 260053Z 33004KT 10SM CLR 17/09 A3013 RMK AO2 SLP203 T01720094=
201209252353 METAR KPAE 252353Z 00000KT 10SM CLR 18/09 A3013 RMK AO2 SLP202 T01830094 10183 20122 55000=
201209252253 METAR KPAE 252253Z VRB03KT 10SM CLR 18/10 A3012 RMK AO2 SLP198 T01780100=
201209252153 METAR KPAE 252153Z 01005KT 10SM CLR 17/10 A3012 RMK AO2 SLP199 T01720100=
201209252053 METAR KPAE 252053Z 00000KT 10SM CLR 16/09 A3013 RMK AO2 SLP202 T01560094 58009=
201209251953 METAR KPAE 251953Z 04005KT 10SM SCT008 BKN010 14/09 A3015 RMK AO2 SLP209 T01440094=
201209251932 SPECI KPAE 251932Z 03007KT 10SM SCT008 BKN010 15/10 A3015 RMK AO2=
201209251925 SPECI KPAE 251925Z VRB05KT 10SM SCT010 BKN015 14/09 A3015 RMK AO2=
201209251900 SPECI KPAE 251900Z 34005KT 10SM OVC008 13/09 A3016 RMK AO2 CIG 007V011=
201209251853 METAR KPAE 251853Z 35005KT 10SM OVC002 13/10 A3016 RMK AO2 SLP213 T01330100=
201209251753 METAR KPAE 251753Z 33004KT 8SM OVC002 12/10 A3015 RMK AO2 SLP211 T01220100 10122 20106 53007=
201209251653 METAR KPAE 251653Z VRB03KT 1SM R16R/4000VP6000FT BR OVC002 11/11 A3014 RMK AO2 SLP208 T01110106=
201209251602 SPECI KPAE 251602Z 33003KT 1SM R16R/1800VP6000FT BR OVC002 11/11 A3014 RMK AO2=
201209251553 METAR KPAE 251553Z 36003KT 3/4SM R16R/1400V2800FT BR VV002 11/11 A3014 RMK AO2 SLP205 T01110106=
201209251545 SPECI KPAE 251545Z 00000KT 1/4SM R16R/1400V2600FT FG VV002 11/11 A3014=
201209251500 SPECI KPAE 251500Z 36004KT 1/4SM R16R/0800V1200FT FG VV001 11/10 A3013 RMK AO2=
201209251453 METAR KPAE 251453Z 36003KT 1/2SM R16R/0700V1200FT FG VV001 11/10 A3013 RMK AO2 SLP205 T01060100 53006=
201209251439 SPECI KPAE 251439Z 34004KT 1/2SM R16R/1000V5500FT FG VV001 11/10 A3014 RMK AO2=
201209251424 SPECI KPAE 251424Z VRB04KT 1/2SM R16R/4000VP6000FT FG OVC002 11/09 A3013 RMK AO2=
201209251353 METAR KPAE 251353Z 32003KT 3SM BR OVC004 11/09 A3013 RMK AO2 SLP202 T01110094=
201209251253 METAR KPAE 251253Z AUTO 32004KT 7SM OVC004 11/09 A3012 RMK AO2 SLP198 T01110094=
201209251246 SPECI KPAE 251246Z AUTO 34004KT 7SM OVC004 11/09 A3012 RMK AO2=
201209251217 SPECI KPAE 251217Z AUTO 32003KT 9SM BKN006 BKN060 11/09 A3012 RMK AO2=
201209251208 SPECI KPAE 251208Z AUTO 00000KT 9SM SCT008 BKN060 11/09 A3012 RMK AO2=
201209251153 METAR KPAE 251153Z AUTO 33003KT 8SM BKN060 11/09 A3011 RMK AO2 SLP197 T01060094 10133 20106 55000=
201209251140 SPECI KPAE 251140Z AUTO 36003KT 7SM SCT002 BKN060 11/09 A3011 RMK AO2=
201209251053 METAR KPAE 251053Z AUTO 01005KT 7SM BKN002 OVC007 11/09 A3011 RMK AO2 SLP196 T01110094=
201209250953 METAR KPAE 250953Z AUTO 01006KT 8SM OVC002 12/10 A3011 RMK AO2 SLP196 T01170100=
201209250853 METAR KPAE 250853Z AUTO 02004KT 10SM BKN002 OVC035 12/11 A3011 RMK AO2 SLP196 T01220111 55001=
201209250753 METAR KPAE 250753Z AUTO 00000KT 10SM FEW002 BKN035 OVC050 12/11 A3011 RMK AO2 SLP195 T01220111 401890106=
201209250750 SPECI KPAE 250750Z AUTO 00000KT 10SM FEW002 BKN035 OVC050 12/11 A3011 RMK AO2 401890106=
201209250653 METAR KPAE 250653Z AUTO 01003KT 10SM OVC040 13/11 A3012 RMK AO2 SLP197 T01330111=
201209250553 METAR KPAE 250553Z AUTO 36003KT 10SM OVC036 13/12 A3012 RMK AO2 SLP199 T01330117 10178 20133 50002=
201209250453 METAR KPAE 250453Z 35006KT 10SM SCT042 OVC075 13/12 A3013 RMK AO2 SLP201 T01330117=
201209250353 METAR KPAE 250353Z 01006KT 10SM OVC070 14/12 A3012 RMK AO2 SLP199 T01390117=
201209250253 METAR KPAE 250253Z 36005KT 10SM OVC041 14/12 A3012 RMK AO2 SLP199 T01390117 53000=
201209250153 METAR KPAE 250153Z 01006KT 10SM BKN070 14/11 A3011 RMK AO2 SLP197 T01440111=
201209250053 METAR KPAE 250053Z 36003KT 10SM CLR 16/10 A3012 RMK AO2 SLP198 T01610100=
201209242353 METAR KPAE 242353Z 28006KT 10SM CLR 18/09 A3012 RMK AO2 SLP197 T01780089 10189 20161 55009=
201209242253 METAR KPAE 242253Z 28006KT 10SM BKN050 18/08 A3011 RMK AO2 SLP196 T01780083=
201209242153 METAR KPAE 242153Z 00000KT 10SM CLR 18/08 A3012 RMK AO2 SLP200 T01830083=
201209242053 METAR KPAE 242053Z 03005KT 10SM CLR 18/08 A3015 RMK AO2 SLP208 T01780083 58002=
201209241953 METAR KPAE 241953Z VRB03KT 10SM CLR 18/08 A3015=
201209241853 METAR KPAE 241853Z 30004KT 10SM CLR 17/09 A3016 RMK AO2 SLP212 T01670089=
201209241753 METAR KPAE 241753Z VRB03KT 10SM CLR 16/08 A3015 RMK AO2 SLP209 T01610083 10161 20117 53001=
201209241653 METAR KPAE 241653Z 00000KT 10SM CLR 16/07 A3015 RMK AO2 SLP207 T01560072=
201209241553 METAR KPAE 241553Z 01003KT 10SM CLR 14/07 A3014 RMK AO2 SLP207 T01390072=
201209241453 METAR KPAE 241453Z 00000KT 10SM CLR 13/07 A3015 RMK AO2 SLP208 T01280072 53003=
201209241353 METAR KPAE 241353Z 00000KT 10SM CLR 12/07 A3014=
201209241253 METAR KPAE 241253Z 00000KT 10SM CLR 12/08 A3014 RMK AO2 SLP206 T01220078 $=
201209241153 METAR KPAE 241153Z 05003KT 10SM CLR 12/08 A3014 RMK AO2 SLP204 T01220078 10139 20106 56003 $=
201209241053 METAR KPAE 241053Z 00000KT 10SM CLR 12/09 A3014 RMK AO2 SLP206 T01170089 $=
201209240953 METAR KPAE 240953Z 00000KT 10SM CLR 11/09 A3014 RMK AO2 SLP206 T01110089 $=
201209240853 METAR KPAE 240853Z 00000KT 10SM CLR 11/09 A3015 RMK AO2 SLP208 T01110094 53001 $=
201209240753 METAR KPAE 240753Z 35003KT 10SM CLR 12/10 A3014 RMK AO2 SLP207 T01170100 401830089 $=
201209240653 METAR KPAE 240653Z 00000KT 10SM CLR 12/09 A3014 RMK AO2 SLP207 T01220089 $=
201209240553 METAR KPAE 240553Z 00000KT 10SM CLR 13/09 A3014 RMK AO2 SLP208 T01330089 10178 20128 50001 $=
201209240453 METAR KPAE 240453Z 00000KT 10SM CLR 14/09 A3015 RMK AO2 SLP208 T01390089 $=
201209240353 METAR KPAE 240353Z 00000KT 10SM CLR 14/09 A3015 RMK AO2 SLP209 T01390094 $=
201209240253 METAR KPAE 240253Z 00000KT 10SM CLR 14/09 A3014 RMK AO2 SLP207 T01440094 51004 $=
201209240153 METAR KPAE 240153Z 00000KT 10SM CLR 16/09 A3014 RMK AO2 SLP207 T01560094 $=
201209240053 METAR KPAE 240053Z 30003KT 10SM CLR 17/09 A3014 RMK AO2 SLP205 T01670094 $=
201209232353 METAR KPAE 232353Z 29005KT 10SM CLR 17/09 A3013 RMK AO2 SLP203 T01720089 10183 20139 55003 $=
201209232253 METAR KPAE 232253Z 00000KT 10SM CLR 18/09 A3013 RMK AO2 SLP201 T01830089 $=
201209232153 METAR KPAE 232153Z 36005KT 10SM CLR 18/09 A3013 RMK AO2 SLP203 T01780089 $=
201209232053 METAR KPAE 232053Z 35005KT 10SM CLR 17/08 A3014 RMK AO2 SLP206 T01720083 58009=
201209231953 METAR KPAE 231953Z 35003KT 10SM CLR 17/08 A3017 RMK AO2 SLP216 T01670078=
201209231853 METAR KPAE 231853Z 02004KT 10SM CLR 16/08 A3017 RMK AO2 SLP218 T01560078=
201209231753 METAR KPAE 231753Z 02003KT 10SM CLR 14/08 A3017 RMK AO2 SLP216 T01390083 10139 20089 53002=
201209231653 METAR KPAE 231653Z 00000KT 10SM CLR 13/09 A3016 RMK AO2 SLP214 T01280089=
201209231553 METAR KPAE 231553Z 32006KT 10SM CLR 12/08 A3016 RMK AO2 SLP213 T01170078=
201209231453 METAR KPAE 231453Z 00000KT 10SM CLR 11/07 A3016 RMK AO2 SLP213 T01110067 53006=
201209231353 METAR KPAE 231353Z 00000KT 10SM CLR 09/06 A3015 RMK AO2 SLP209 T00940061=
201209231253 METAR KPAE 231253Z AUTO 00000KT 10SM CLR 11/06 A3015 RMK AO2 SLP208 T01060061=
201209231153 METAR KPAE 231153Z AUTO 03003KT 10SM CLR 11/07 A3014 RMK AO2 SLP207 70001 T01060067 10122 20106 56002=
201209231053 METAR KPAE 231053Z AUTO 00000KT 10SM CLR 11/07 A3014 RMK AO2 SLP208 T01110067=
201209230953 METAR KPAE 230953Z AUTO 00000KT 10SM CLR 11/07 A3014 RMK AO2 SLP208 T01110067=
201209230931 SPECI KPAE 230931Z AUTO 00000KT 10SM SCT025 11/07 A3014 RMK AO2=
201209230853 METAR KPAE 230853Z AUTO 03004KT 10SM OVC027 12/07 A3015 RMK AO2 SLP209 T01170067 53004=
201209230836 SPECI KPAE 230836Z AUTO 00000KT 10SM BKN027 11/07 A3015 RMK AO2=
201209230753 METAR KPAE 230753Z AUTO 36003KT 10SM CLR 12/08 A3014 RMK AO2 SLP206 T01170078 401720117=
201209230653 METAR KPAE 230653Z AUTO 35005KT 10SM CLR 12/07 A3014 RMK AO2 SLP206 T01170072=
201209230553 METAR KPAE 230553Z AUTO 35003KT 10SM FEW110 12/08 A3014 RMK AO2 SLP205 T01170083 10172 20117 55002=
201209230453 METAR KPAE 230453Z 00000KT 10SM FEW110 13/09 A3014 RMK AO2 SLP205 T01280089=
201209230353 METAR KPAE 230353Z 00000KT 10SM OVC110 14/08 A3014 RMK AO2 SLP205 T01390083=
201209230253 METAR KPAE 230253Z 00000KT 10SM CLR 14/09 A3014 RMK AO2 SLP207 T01440089 55001=
201209230153 METAR KPAE 230153Z 00000KT 10SM CLR 16/09 A3014 RMK AO2 SLP206 T01610089=
201209230053 METAR KPAE 230053Z 00000KT 10SM CLR 17/08 A3014 RMK AO2 SLP205 T01670083=
201209222353 METAR KPAE 222353Z 00000KT 10SM CLR 17/09 A3015 RMK AO2 SLP207 T01720089 10172 20133 58003=
201209222253 METAR KPAE 222253Z 32005KT 10SM CLR 17/09 A3015 RMK AO2 SLP208 T01720089=
201209222153 METAR KPAE 222153Z 00000KT 10SM CLR 17/08 A3015 RMK AO2 SLP210 T01720083=
201209222053 METAR KPAE 222053Z 00000KT 10SM FEW040 17/08 A3015 RMK AO2 SLP210 T01670083 58004=
201209221953 METAR KPAE 221953Z 34005KT 10SM SCT030 BKN039 16/08 A3016 RMK AO2 SLP212 T01560083=
201209221853 METAR KPAE 221853Z VRB04KT 10SM FEW028 OVC037 14/09 A3017 RMK AO2 SLP215 T01390089=
201209221846 SPECI KPAE 221846Z VRB03KT 10SM FEW026 OVC037 14/09 A3016 RMK AO2=
201209221753 METAR KPAE 221753Z 00000KT 10SM BKN026 OVC035 14/10 A3017 RMK AO2 SLP215 60001 T01390100 10139 20122 55000=
201209221653 METAR KPAE 221653Z 00000KT 10SM SCT028 OVC036 13/11 A3016 RMK AO2 SLP212 T01330106=
201209221553 METAR KPAE 221553Z 35003KT 10SM OVC030 13/11 A3017 RMK AO2 SLP215 T01280106=
201209221453 METAR KPAE 221453Z 00000KT 10SM OVC026 13/11 A3016 RMK AO2 SLP215 60001 T01280111 53002=
201209221353 METAR KPAE 221353Z AUTO 00000KT 3SM BR FEW002 OVC024 13/12 A3015 RMK AO2 SLP210 T01280117=
201209221346 SPECI KPAE 221346Z AUTO 00000KT 3SM BR SCT002 OVC024 13/12 A3016 RMK AO2=
201209221321 SPECI KPAE 221321Z AUTO 00000KT 5SM BR BKN002 OVC020 13/12 A3016 RMK AO2=
201209221308 SPECI KPAE 221308Z AUTO 32005KT 7SM FEW004 OVC018 12/11 A3014 RMK AO2=
201209221253 METAR KPAE 221253Z AUTO VRB03KT 8SM OVC016 13/11 A3016 RMK AO2 RAB05E20 SLP213 P0001 T01280111 TSNO=
201209221237 SPECI KPAE 221237Z AUTO 02005KT 4SM BR SCT003 SCT010 OVC014 13/12 A3015 RMK AO2 RAB05E20 P0001=
201209221220 SPECI KPAE 221220Z AUTO VRB04KT 3SM BR BKN003 BKN008 OVC012 12/11 A3016 RMK AO2 RAB05E20 CIG 002V006 P0001 TSNO=
201209221212 SPECI KPAE 221212Z AUTO 34005KT 1 3/4SM -RA BR BKN003 OVC008 13/12 A3015 RMK AO2 RAB05 CIG 002V007 P0001=
201209221153 METAR KPAE 221153Z AUTO 01003KT 2 1/2SM BR BKN003 BKN012 OVC026 13/12 A3015 RMK AO2 RAE41 CIG 002V006 SLP209 P0002 60003 70004 T01280117 10139 20128 58002=
201209221130 SPECI KPAE 221130Z AUTO 02004KT 2SM -RA BR FEW003 OVC011 13/12 A3015 RMK AO2 CIG 006V012 P0002=
201209221119 SPECI KPAE 221119Z AUTO 02004KT 2SM -RA BR FEW003 BKN009 OVC013 13/12 A3015 RMK AO2 CIG 007V011 P0002=
201209221104 SPECI KPAE 221104Z AUTO VRB05KT 2 1/2SM -RA BR BKN003 BKN009 OVC013 13/12 A3015 RMK AO2 CIG 001V006 P0001=
201209221053 METAR KPAE 221053Z AUTO 01003KT 2 1/2SM -RA BR SCT003 BKN009 OVC015 13/12 A3015 RMK AO2 RAB23 SLP211 P0001 T01330122=
201209221039 SPECI KPAE 221039Z AUTO 00000KT 2 1/2SM -RA BR BKN003 OVC009 13/12 A3016 RMK AO2 RAB23 P0001=
201209221025 SPECI KPAE 221025Z AUTO 00000KT 3SM R16R/4000VP6000FT -RA BR OVC005 13/12 A3015 RMK AO2 RAB23 P0000=
201209221014 SPECI KPAE 221014Z AUTO 00000KT 2SM R16R/2800VP6000FT BR BKN003 BKN007 OVC012 13/12 A3016 RMK AO2=
201209221006 SPECI KPAE 221006Z AUTO 36003KT 1 3/4SM BR FEW003 BKN009 OVC012 13/12 A3016 RMK AO2=
201209220953 METAR KPAE 220953Z AUTO 00000KT 2 1/2SM BR FEW005 OVC012 14/12 A3016 RMK AO2 SLP213 T01390122=
201209220937 SPECI KPAE 220937Z AUTO 00000KT 3SM BR SCT005 OVC012 14/12 A3016 RMK AO2=
201209220911 SPECI KPAE 220911Z AUTO 00000KT 2 1/2SM BR OVC005 14/12 A3015 RMK AO2 CIG 002V009=
201209220853 METAR KPAE 220853Z AUTO 00000KT 4SM BR OVC005 14/13 A3015 RMK AO2 CIG 004V009 SLP211 60000 T01390128 50001=
201209220821 SPECI KPAE 220821Z AUTO 00000KT 4SM BR BKN007 OVC013 14/12 A3015 RMK AO2 CIG 004V008=
201209220753 METAR KPAE 220753Z AUTO 00000KT 5SM BR FEW005 OVC013 14/12 A3016 RMK AO2 SLP212 T01390122 401500133=
201209220738 SPECI KPAE 220738Z AUTO 00000KT 5SM BR OVC013 14/12 A3015 RMK AO2=
201209220713 SPECI KPAE 220713Z AUTO 00000KT 5SM BR SCT005 OVC020 14/12 A3015 RMK AO2=
201209220701 SPECI KPAE 220701Z AUTO 00000KT 3SM BR BKN005 BKN020 OVC028 14/12 A3015 RMK AO2=
201209220653 METAR KPAE 220653Z AUTO 00000KT 3SM BR SCT005 BKN018 OVC028 14/12 A3015 RMK AO2 RAB22E33 SLP209 P0000 T01390122=
201209220636 SPECI KPAE 220636Z AUTO 00000KT 3SM BR FEW005 BKN018 OVC031 14/13 A3015 RMK AO2 RAB22E33 P0000=
201209220627 SPECI KPAE 220627Z AUTO 00000KT 2 1/2SM -RA BR FEW007 BKN016 OVC031 14/13 A3015 RMK AO2 RAB22 P0000=
201209220619 SPECI KPAE 220619Z AUTO 00000KT 3SM BR SCT009 BKN025 OVC031 14/12 A3015 RMK AO2=
201209220610 SPECI KPAE 220610Z AUTO 00000KT 2 1/2SM BR FEW006 BKN010 OVC031 14/12 A3015 RMK AO2 CIG 008V012=
201209220553 METAR KPAE 220553Z AUTO 00000KT 3SM BR BKN006 OVC014 14/12 A3015 RMK AO2 CIG 005V009 SLP208 T01390122 10144 20139 51006=
201209220512 SPECI KPAE 220512Z AUTO 00000KT 6SM BR BKN008 BKN017 OVC031 14/12 A3014 RMK AO2 CIG 006V010=
201209220453 METAR KPAE 220453Z AUTO 00000KT 10SM FEW008 BKN017 OVC031 14/12 A3014 RMK AO2 SLP207 T01390117=
201209220445 SPECI KPAE 220445Z AUTO 00000KT 10SM FEW008 BKN017 OVC031 14/12 A3014 RMK AO2=
201209220429 SPECI KPAE 220429Z AUTO 00000KT 9SM OVC031 14/12 A3014 RMK AO2=
201209220400 SPECI KPAE 220400Z AUTO 00000KT 7SM FEW008 OVC029 14/12 A3014 RMK AO2=
201209220353 METAR KPAE 220353Z 00000KT 8SM BKN013 OVC027 14/12 A3014 RMK AO2 SLP205 T01390117=
201209220253 METAR KPAE 220253Z 00000KT 10SM FEW009 BKN013 OVC027 14/12 A3013 RMK AO2 SLP202 T01390117 55002=
201209220249 SPECI KPAE 220249Z 26003KT 10SM FEW009 SCT013 OVC027 14/12 A3013 RMK AO2=
201209220153 METAR KPAE 220153Z 00000KT 10SM BKN013 BKN019 OVC027 14/12 A3013 RMK AO2 SLP201 T01440117=
201209220100 SPECI KPAE 220100Z 00000KT 10SM OVC027 14/12 A3013 RMK AO2=
201209220053 METAR KPAE 220053Z 00000KT 10SM SCT005 BKN012 OVC027 14/12 A3013 RMK AO2 SLP204 T01390122=
201209220041 SPECI KPAE 220041Z 00000KT 10SM SCT005 BKN012 OVC027 14/12 A3013 RMK AO2=
201209212357 SPECI KPAE 212357Z 24004KT 10SM BKN006 OVC027 14/12 A3013 RMK AO2=
201209212353 METAR KPAE 212353Z 24004KT 10SM FEW006 OVC027 14/12 A3014 RMK AO2 SLP205 60001 T01390122 10150 20133 58000=
201209212259 SPECI KPAE 212259Z 20004KT 9SM SCT002 OVC029 14/13 A3014 RMK AO2=
201209212253 METAR KPAE 212253Z 21005KT 3/4SM R16R/P6000FT BR BKN002 OVC027 13/12 A3014 RMK AO2 SLP205 T01330122=
201209212200 SPECI KPAE 212200Z 23004KT 3/4SM R16R/4000VP6000FT BR OVC002 13/12 A3014 RMK AO2=
201209212153 METAR KPAE 212153Z 25005KT 1/4SM R16R/4000VP6000FT FG BKN002 OVC011 13/12 A3014 RMK AO2 RAE2054 SLP205 T01330122=
201209212148 SPECI KPAE 212148Z 26005KT 1/4SM R16R/6000VP6000FT FG BKN002 OVC011 13/12 A3014 RMK AO2 RAE2054=
201209212053 METAR KPAE 212053Z 24004KT 2SM -RA BR BKN005 OVC017 13/12 A3014 RMK AO2 RAE15B40 SLP207 P0001 60001 T01330122 58002=
201209212001 SPECI KPAE 212001Z 00000KT 4SM BR FEW002 BKN008 OVC010 13/12 A3015 RMK AO2 RAE1958 P0000=
201209211953 METAR KPAE 211953Z 25003KT 3SM -RA BR FEW002 BKN010 OVC016 13/12 A3015 RMK AO2 RAB47 SLP210 P0000 T01330122=
201209211937 SPECI KPAE 211937Z 25004KT 5SM BR SCT002 BKN013 OVC030 14/12 A3015 RMK AO2=
201209211853 METAR KPAE 211853Z 16007KT 10SM OVC016 14/11 A3015 RMK AO2 SLP210 T01440111=
201209211753 METAR KPAE 211753Z 24005KT 9SM OVC010 13/11 A3015 RMK AO2 SLP209 T01330111 10139 20133 53005=
201209211653 METAR KPAE 211653Z 18006KT 10SM OVC013 14/11 A3014 RMK AO2 SLP206 T01390111=
201209211637 SPECI KPAE 211637Z 19005KT 9SM OVC011 14/11 A3014 RMK AO2=
201209211607 SPECI KPAE 211607Z 16004KT 4SM BR OVC008 13/11 A3014 RMK AO2 CIG 005V014=
201209211553 METAR KPAE 211553Z VRB03KT 5SM BR SCT005 BKN010 OVC014 13/11 A3013 RMK AO2 SLP204 T01330111=
201209211535 SPECI KPAE 211535Z 16005KT 6SM BR SCT005 BKN010 OVC014 13/11 A3013 RMK AO2=
201209211453 METAR KPAE 211453Z 16005KT 8SM OVC010 13/11 A3013 RMK AO2 CIG 007V013 SLP204 T01330111 51003=
201209211427 SPECI KPAE 211427Z 17006KT 10SM OVC008 13/11 A3014 RMK AO2=
201209211411 SPECI KPAE 211411Z 17005KT 10SM OVC010 13/11 A3013 RMK AO2=
201209211353 METAR KPAE 211353Z 16006KT 10SM OVC008 13/11 A3013 RMK AO2 SLP202 T01330106=
201209211253 METAR KPAE 211253Z AUTO 21006KT 10SM OVC006 13/11 A3013 RMK AO2 SLP202 T01330111=
201209211153 METAR KPAE 211153Z AUTO 21004KT 9SM OVC008 13/11 A3012 RMK AO2 SLP200 T01330111 10133 20117 56001=
201209211053 METAR KPAE 211053Z AUTO 19006KT 10SM OVC006 13/11 A3012 RMK AO2 SLP200 T01330111=
201209210953 METAR KPAE 210953Z AUTO 20006KT 8SM OVC006 13/11 A3013 RMK AO2 SLP200 T01330111=
201209210853 METAR KPAE 210853Z AUTO 16006KT 7SM OVC006 13/11 A3013 RMK AO2 SLP201 T01330111 53005=
201209210753 METAR KPAE 210753Z AUTO 19007KT 8SM OVC006 13/11 A3012 RMK AO2 SLP198 T01330111 402060100=
201209210653 METAR KPAE 210653Z AUTO 23005KT 10SM BKN008 13/11 A3011 RMK AO2 SLP196 T01280111=
201209210643 SPECI KPAE 210643Z AUTO 23005KT 10SM SCT008 13/11 A3011 RMK AO2=
201209210553 METAR KPAE 210553Z AUTO 00000KT 10SM CLR 12/10 A3010 RMK AO2 SLP192 T01220100 10200 20122 51014=
201209210453 METAR KPAE 210453Z AUTO 00000KT 9SM CLR 13/11 A3009 RMK AO2 SLP188 T01280106=
201209210353 METAR KPAE 210353Z 00000KT 10SM CLR 14/11 A3008 RMK AO2 SLP185 T01390106=
201209210253 METAR KPAE 210253Z 00000KT 10SM CLR 16/11 A3006 RMK AO2 SLP179 T01560111 53007=
201209210153 METAR KPAE 210153Z 24004KT 10SM CLR 17/11 A3004 RMK AO2 SLP174 T01720106=
201209210053 METAR KPAE 210053Z 25004KT 10SM CLR 19/10 A3003 RMK AO2 SLP170 T01890100=
201209202353 METAR KPAE 202353Z 26005KT 10SM CLR 19/11 A3004 RMK AO2 SLP170 T01940106 10206 20139 56007=
201209202253 METAR KPAE 202253Z 25005KT 10SM CLR 21/11 A3004 RMK AO2 SLP171 T02060111=
201209202153 METAR KPAE 202153Z 23004KT 10SM CLR 21/11 A3005 RMK AO2 SLP174 T02060111=
201209202053 METAR KPAE 202053Z 29005KT 10SM CLR 20/11 A3006 RMK AO2 SLP178 T02000111 58009=
201209201953 METAR KPAE 201953Z 32004KT 10SM CLR 17/12 A3007 RMK AO2 SLP182 T01720117=
201209201853 METAR KPAE 201853Z VRB03KT 10SM CLR 17/12 A3008 RMK AO2 SLP184 T01720117=
201209201800 SPECI KPAE 201800Z 02003KT 5SM FEW001 14/11 A3009 RMK AO2=
201209201753 METAR KPAE 201753Z 04003KT 5SM CLR 14/11 A3009 RMK AO2 SLP188 T01390106 10144 20100 58005=
201209201653 METAR KPAE 201653Z 36004KT 5SM CLR 14/12 A3009 RMK AO2 SLP190 FCFG T01440117=
201209201618 SPECI KPAE 201618Z 00000KT 5SM R16R/0700V3500FT BCFG SCT001 12/11 A3010 RMK AO2=
201209201553 METAR KPAE 201553Z 00000KT 1/4SM R16R/0600V0800FT BCFG BKN001 11/10 A3010 RMK AO2 SLP193 T01060100=
201209201551 SPECI KPAE 201551Z 28003KT 5SM R16R/0700V0800FT BCFG SCT001 11/10 A3010 RMK AO2=
201209201531 SPECI KPAE 201531Z 00000KT 5SM R16R/6000VP6000FT BCFG FEW001 11/10 A3010 RMK AO2=
201209201521 SPECI KPAE 201521Z 00000KT 2SM R16R/1800VP6000FT BR FEW001 10/09 A3010 RMK AO2=
201209201513 SPECI KPAE 201513Z 00000KT 1SM R16R/1400V3500FT BR VV001 10/09 A3010 RMK AO2=
201209201505 SPECI KPAE 201505Z 00000KT 1 1/2SM R16R/1000V1600FT BR BKN001 10/09 A3010 RMK AO2=
201209201500 SPECI KPAE 201500Z 00000KT 3/4SM R16R/1000V2600FT BR OVC001 10/09 A3010 RMK AO2=
201209201453 METAR KPAE 201453Z 00000KT 1/4SM R16R/1200V2200FT FG VV001 10/09 A3010 RMK AO2 SLP193 T01000094 51001=
201209201353 METAR KPAE 201353Z 08003KT 1/4SM R16R/1000V1200FT FG VV001 11/10 A3010 RMK AO2 SLP192 T01060100=
201209201346 SPECI KPAE 201346Z AUTO 08004KT 1/4SM R16R/1000V1600FT FG VV001 11/09 A3010 RMK AO2=
201209201334 SPECI KPAE 201334Z AUTO VRB03KT 1/4SM R16R/1600VP6000FT FG VV001 10/09 A3010 RMK AO2 $=
201209201324 SPECI KPAE 201324Z AUTO 07005KT 1 3/4SM BR BKN001 11/09 A3010 RMK AO2 $=
201209201319 SPECI KPAE 201319Z AUTO 08005KT 3SM R16R/2200VP6000FT BR SCT001 10/09 A3010 RMK AO2 $=
201209201316 SPECI KPAE 201316Z AUTO 00000KT 1 1/4SM R16R/1200VP6000FT BR SCT001 10/09 A3010 RMK AO2 $=
201209201312 SPECI KPAE 201312Z AUTO 00000KT 1/2SM R16R/0800VP6000FT FG VV001 10/09 A3010 RMK AO2 $=
201209201253 METAR KPAE 201253Z AUTO 00000KT M1/4SM R16R/0600FT FG VV001 10/09 A3010 RMK AO2 SLP192 T01000094 $=
201209201153 METAR KPAE 201153Z AUTO 22004KT 1/4SM R16R/1000V1600FT FG VV001 11/10 A3010 RMK AO2 SLP191 T01060100 10133 20100 53000 $=
201209201148 SPECI KPAE 201148Z AUTO 23005KT 1/2SM R16R/1000V2200FT FG VV001 11/10 A3010 RMK AO2 $=
201209201139 SPECI KPAE 201139Z AUTO 22004KT 1SM R16R/2200VP6000FT BR VV001 10/09 A3010 RMK AO2 $=
201209201134 SPECI KPAE 201134Z AUTO 21005KT 1/4SM R16R/1000VP6000FT FG VV001 10/09 A3010 RMK AO2 $=
201209201053 METAR KPAE 201053Z AUTO 00000KT 1/4SM R16R/1000V1400FT FG VV001 10/09 A3009 RMK AO2 SLP188 T01000094=
201209201041 SPECI KPAE 201041Z AUTO 00000KT 1/4SM R16R/0800V2000FT FG VV001 10/09 A3009 RMK AO2=
201209201031 SPECI KPAE 201031Z AUTO 00000KT 1/4SM R16R/0800V2400FT FG VV001 10/09 A3009 RMK AO2=
201209201012 SPECI KPAE 201012Z AUTO 00000KT 1/4SM R16R/0800V1400FT FG VV001 10/09 A3009 RMK AO2=
201209201005 SPECI KPAE 201005Z AUTO 00000KT 1/4SM R16R/1200V5000FT FG VV001 10/09 A3009 RMK AO2=
201209200956 SPECI KPAE 200956Z AUTO 00000KT 1 1/4SM R16R/1600VP6000FT BR BKN001 10/09 A3009 RMK AO2=
201209200953 METAR KPAE 200953Z AUTO 00000KT 3/4SM R16R/1600VP6000FT BR VV002 10/09 A3009 RMK AO2 SLP189 T01000089=
201209200946 SPECI KPAE 200946Z AUTO 00000KT 1/4SM R16R/2600VP6000FT FG VV002 10/09 A3010 RMK AO2=
201209200938 SPECI KPAE 200938Z AUTO 00000KT 3/4SM R16R/P6000FT BR VV001 11/09 A3009 RMK AO2=
201209200923 SPECI KPAE 200923Z AUTO 00000KT 1SM R16R/P6000FT BR VV001 11/09 A3009 RMK AO2=
201209200915 SPECI KPAE 200915Z AUTO 00000KT 1 1/2SM BR SCT002 11/09 A3009=
201209200911 SPECI KPAE 200911Z AUTO 00000KT 3SM BR SCT002 11/09 A3010 RMK AO2=
201209200853 METAR KPAE 200853Z AUTO 34003KT 8SM CLR 11/09 A3010 RMK AO2 SLP191 T01060094 51002=
201209200753 METAR KPAE 200753Z AUTO 00000KT 10SM CLR 12/09 A3009 RMK AO2 SLP190 T01220094 402220100=
201209200653 METAR KPAE 200653Z AUTO 00000KT 9SM CLR 12/10 A3010 RMK AO2 SLP192 T01220100=
201209200553 METAR KPAE 200553Z AUTO 00000KT 10SM CLR 13/11 A3009 RMK AO2 SLP190 T01330106 10217 20133 51005=
201209200453 METAR KPAE 200453Z AUTO 01003KT 10SM CLR 13/10 A3009 RMK AO2 SLP189 T01330100=
201209200353 METAR KPAE 200353Z AUTO 35003KT 10SM CLR 15/11 A3009 RMK AO2 SLP188 T01500106=
201209200253 METAR KPAE 200253Z 00000KT 10SM CLR 17/11 A3008 RMK AO2 SLP184 T01670106 55007=
201209200153 METAR KPAE 200153Z 35004KT 10SM CLR 19/10 A3007 RMK AO2 SLP184 T01890100=
201209200053 METAR KPAE 200053Z VRB03KT 10SM CLR 21/11 A3008 RMK AO2 SLP186 T02110111=
201209192353 METAR KPAE 192353Z 33003KT 10SM CLR 22/11 A3010 RMK AO2 SLP190 T02170111 10222 20144 56014=
201209192253 METAR KPAE 192253Z 36003KT 10SM CLR 21/11 A3011 RMK AO2 SLP195 T02110106=
201209192153 METAR KPAE 192153Z 35004KT 10SM CLR 21/11 A3012 RMK AO2 SLP199 T02060106=
201209192053 METAR KPAE 192053Z 35006KT 10SM CLR 19/11 A3014 RMK AO2 SLP204 T01890106 58010=
201209191953 METAR KPAE 191953Z VRB03KT 10SM CLR 18/11 A3015 RMK AO2 SLP209 T01830111=
201209191853 METAR KPAE 191853Z 30003KT 6SM CLR 16/12 A3016 RMK AO2 SLP213 T01610117=
201209191753 METAR KPAE 191753Z VRB03KT 6SM CLR 15/12 A3017 RMK AO2 SLP215 T01500117 10150 20100 50004=
201209191653 METAR KPAE 191653Z 30004KT 3SM SCT003 14/11 A3017 RMK AO2 SLP216 T01440111=
201209191631 SPECI KPAE 191631Z 00000KT 1SM R16R/P6000FT SCT003 13/11 A3017 RMK AO2=
201209191553 METAR KPAE 191553Z 00000KT 1/4SM R16R/P6000FT BCFG BKN003 12/11 A3017 RMK AO2 SLP214 T01170106=
201209191509 SPECI KPAE 191509Z 00000KT 1SM R16R/1800V4000FT BCFG SCT002 BKN003 11/11 A3016 RMK AO2=
201209191502 SPECI KPAE 191502Z 00000KT 1SM R16R/1000V2000FT BCFG SCT002 BKN003 11/10 A3016 RMK AO2=
201209191500 SPECI KPAE 191500Z 00000KT M1/4SM R16R/0700V2000FT BCFG SCT002 11/10 A3016 RMK AO2=
201209191453 METAR KPAE 191453Z 00000KT 5SM R16R/0600V1000FT BCFG SCT001 11/10 A3016 RMK AO2 SLP211 T01060100 51005=
201209191450 SPECI KPAE 191450Z 00000KT 5SM R16R/0600V1000FT BCFG SCT001 11/10 A3016 RMK AO2=
201209191438 SPECI KPAE 191438Z 00000KT 10SM R16R/1200VP6000FT BCFG SCT001 11/10 A3016 RMK AO2=
201209191409 SPECI KPAE 191409Z 00000KT 10SM R16R/1000V1400FT BCFG SCT001 10/09 A3015 RMK AO2=
201209191353 METAR KPAE 191353Z 00000KT 10SM R16R/4500VP6000FT BCFG SCT001 10/09 A3015 RMK AO2 SLP208 T01000094=
201209191350 SPECI KPAE 191350Z 00000KT 10SM R16R/5500VP6000FT BCFG SCT001 11/10 A3015 RMK AO2=
201209191347 SPECI KPAE 191347Z 00000KT 1SM R16R/6000VP6000FT BR VV003 11/10 A3015 RMK AO2=
201209191340 SPECI KPAE 191340Z AUTO 00000KT 1/4SM R16R/1200VP6000FT FG VV003 11/10 A3015 RMK AO2=
201209191328 SPECI KPAE 191328Z AUTO 00000KT 3/4SM R16R/1800VP6000FT BR VV003 11/10 A3015 RMK AO2=
201209191326 SPECI KPAE 191326Z AUTO 00000KT 1 1/4SM R16R/2000VP6000FT BR CLR 11/10 A3015 RMK AO2=
201209191253 METAR KPAE 191253Z AUTO 00000KT 9SM CLR 12/10 A3014 RMK AO2 SLP206 T01170100=
201209191153 METAR KPAE 191153Z AUTO 00000KT 9SM CLR 12/10 A3013 RMK AO2 SLP202 T01220100 10156 20111 51005=
201209191053 METAR KPAE 191053Z AUTO 00000KT 10SM CLR 13/11 A3013 RMK AO2 SLP202 T01280106=
201209190953 METAR KPAE 190953Z AUTO 00000KT 10SM CLR 13/11 A3012 RMK AO2 SLP199 T01330106=
201209190853 METAR KPAE 190853Z AUTO 00000KT 10SM CLR 13/10 A3012 RMK AO2 SLP197 T01330100 51015=
201209190753 METAR KPAE 190753Z AUTO 00000KT 10SM CLR 14/09 A3010 RMK AO2 SLP192 T01440094 402610133=
201209190653 METAR KPAE 190653Z AUTO 00000KT 10SM CLR 15/09 A3009 RMK AO2 SLP188 T01500089=
201209190553 METAR KPAE 190553Z AUTO 02003KT 10SM CLR 16/09 A3007 RMK AO2 SLP181 T01610089 10256 20161 52010=
201209190453 METAR KPAE 190453Z AUTO 00000KT 10SM CLR 17/11 A3007 RMK AO2 SLP179 T01720106=
201209190353 METAR KPAE 190353Z AUTO 00000KT 10SM CLR 20/09 A3005 RMK AO2 SLP174 T02000094=
201209190253 METAR KPAE 190253Z 00000KT 10SM CLR 20/09 A3004 RMK AO2 SLP172 T02000094 53001=
201209190153 METAR KPAE 190153Z 00000KT 10SM CLR 23/08 A3003 RMK AO2 SLP167 T02330083=
201209190053 METAR KPAE 190053Z 26003KT 10SM CLR 26/10 A3003 RMK AO2 SLP166 T02560100=
201209182353 METAR KPAE 182353Z 28003KT 10SM CLR 25/09 A3004 RMK AO2 SLP170 T02500094 10261 20211 56007=
201209182253 METAR KPAE 182253Z 29003KT 10SM CLR 25/10 A3004 RMK AO2 SLP171 T02500100=
201209182153 METAR KPAE 182153Z 00000KT 10SM CLR 25/11 A3005 RMK AO2 SLP173 T02500106=
201209182053 METAR KPAE 182053Z VRB04KT 10SM CLR 24/09 A3006 RMK AO2 SLP176 T02440094 58000=
201209181953 METAR KPAE 181953Z VRB03KT 10SM CLR 23/11 A3007 RMK AO2 SLP179 T02280106=
201209181853 METAR KPAE 181853Z 34003KT 10SM CLR 22/10 A3007 RMK AO2 SLP180 T02170100=
201209181753 METAR KPAE 181753Z 32004KT 10SM CLR 21/11 A3006 RMK AO2 SLP178 T02110111 10217 20133 51006=
201209181653 METAR KPAE 181653Z 00000KT 10SM CLR 20/11 A3006 RMK AO2 SLP177 T02000111=
201209181553 METAR KPAE 181553Z 00000KT 10SM CLR 18/13 A3005 RMK AO2 SLP174 T01830128=
201209181453 METAR KPAE 181453Z 00000KT 7SM CLR 14/12 A3004 RMK AO2 SLP173 T01440117 53004=
201209181353 METAR KPAE 181353Z 00000KT 10SM CLR 13/11 A3004 RMK AO2 SLP169 T01330106=
201209181253 METAR KPAE 181253Z AUTO 00000KT 10SM CLR 14/11 A3003 RMK AO2 SLP168 T01390111=
201209181153 METAR KPAE 181153Z AUTO 00000KT 10SM CLR 14/11 A3003 RMK AO2 SLP167 T01390111 10183 20133 53001=
201209181053 METAR KPAE 181053Z AUTO 00000KT 10SM CLR 14/09 A3003 RMK AO2 SLP166 T01390094=
201209180953 METAR KPAE 180953Z AUTO 00000KT 10SM CLR 15/10 A3003 RMK AO2 SLP167 T01500100=
201209180853 METAR KPAE 180853Z AUTO 00000KT 10SM CLR 16/09 A3003 RMK AO2 SLP167 T01560094 56003=
201209180753 METAR KPAE 180753Z AUTO 00000KT 10SM CLR 16/09 A3003 RMK AO2 SLP167 T01610094 402440117=
201209180653 METAR KPAE 180653Z AUTO 00000KT 10SM CLR 18/09 A3003 RMK AO2 SLP167 T01780094=
201209180553 METAR KPAE 180553Z AUTO 00000KT 10SM CLR 18/09 A3004 RMK AO2 SLP169 T01780089 10244 20178 50002=
201209180453 METAR KPAE 180453Z AUTO 00000KT 10SM CLR 19/09 A3004 RMK AO2 SLP170 T01890089=
201209180353 METAR KPAE 180353Z AUTO 00000KT 10SM CLR 18/10 A3004 RMK AO2 SLP170 T01830100=
201209180253 METAR KPAE 180253Z 00000KT 10SM CLR 19/11 A3003 RMK AO2 SLP168 T01940106 55004=
201209180153 METAR KPAE 180153Z 00000KT 10SM CLR 23/09 A3002 RMK AO2 SLP164 T02280094=
201209180053 METAR KPAE 180053Z 00000KT 10SM CLR 23/09 A3003 RMK AO2 SLP167 T02330094=
201209172353 METAR KPAE 172353Z VRB04KT 10SM CLR 24/09 A3004 RMK AO2 SLP171 T02440094 10244 20183 56018=
201209172253 METAR KPAE 172253Z 36004KT 10SM CLR 24/10 A3006 RMK AO2 SLP176 T02390100=
201209172153 METAR KPAE 172153Z VRB04KT 10SM CLR 24/09 A3008 RMK AO2 SLP183 T02390094=
201209172053 METAR KPAE 172053Z 35005KT 10SM CLR 23/09 A3010 RMK AO2 SLP189 T02280094 56014=
201209171953 METAR KPAE 171953Z 36006KT 10SM CLR 21/08 A3011 RMK AO2 SLP192 T02110078=
201209171853 METAR KPAE 171853Z VRB04KT 10SM CLR 21/08 A3013 RMK AO2 SLP199 T02060078=
201209171753 METAR KPAE 171753Z 34005KT 10SM CLR 19/11 A3014 RMK AO2 SLP204 T01890111 10189 20117 50002=
201209171653 METAR KPAE 171653Z 36006KT 10SM CLR 17/11 A3014 RMK AO2 SLP207 T01670111=
201209171553 METAR KPAE 171553Z 01003KT 10SM CLR 15/11 A3014 RMK AO2 SLP205 T01500111=
201209171453 METAR KPAE 171453Z 02004KT 10SM CLR 13/11 A3013 RMK AO2 SLP202 T01280111 53002=
201209171353 METAR KPAE 171353Z 00000KT 10SM CLR 13/11 A3013 RMK AO2 SLP201 T01280111=
201209171253 METAR KPAE 171253Z 00000KT 10SM CLR 13/11 A3012 RMK AO2 SLP199 T01280106=
201209171153 METAR KPAE 171153Z 00000KT 10SM CLR 13/11 A3013 RMK AO2 SLP201 T01280111 10167 20117 55004=
201209171053 METAR KPAE 171053Z 00000KT 10SM CLR 14/10 A3013 RMK AO2 SLP200 T01440100=
201209170953 METAR KPAE 170953Z 00000KT 10SM CLR 13/11 A3013 RMK AO2 SLP203 T01330106=
201209170853 METAR KPAE 170853Z 00000KT 10SM CLR 14/10 A3014 RMK AO2 SLP205 T01390100 55002=
201209170753 METAR KPAE 170753Z 00000KT 10SM CLR 16/10 A3013 RMK AO2 SLP203 T01560100 402170106=
201209170653 METAR KPAE 170653Z 00000KT 10SM CLR 17/09 A3014 RMK AO2 SLP204 T01670094=
201209170553 METAR KPAE 170553Z 00000KT 10SM CLR 16/09 A3014 RMK AO2 SLP206 T01560094 10217 20156 58001=
201209170453 METAR KPAE 170453Z 00000KT 10SM CLR 16/09 A3015 RMK AO2 SLP209 T01610094=
201209170353 METAR KPAE 170353Z 00000KT 10SM CLR 16/09 A3014 RMK AO2 SLP207 T01610094=
201209170253 METAR KPAE 170253Z 00000KT 10SM CLR 18/10 A3015 RMK AO2 SLP207 T01830100 55003=
201209170153 METAR KPAE 170153Z 00000KT 10SM CLR 19/11 A3014 RMK AO2 SLP206 T01940106=
201209170053 METAR KPAE 170053Z 36006KT 10SM CLR 21/11 A3015 RMK AO2 SLP207 T02060111=
201209162353 METAR KPAE 162353Z VRB03KT 10SM CLR 21/11 A3015 RMK AO2 SLP210 T02110111 10217 20156 56014=
201209162253 METAR KPAE 162253Z 36005KT 10SM CLR 21/11 A3016 RMK AO2 SLP213 T02110111=
201209162153 METAR KPAE 162153Z 36006KT 10SM CLR 21/11 A3017 RMK AO2 SLP217 T02060106=
201209162053 METAR KPAE 162053Z 36007KT 10SM CLR 19/11 A3019 RMK AO2 SLP224 T01940106 58011=
201209161953 METAR KPAE 161953Z 36006KT 10SM CLR 18/11 A3021 RMK AO2 SLP229 T01830111=
201209161853 METAR KPAE 161853Z 36007KT 10SM CLR 17/11 A3022 RMK AO2 SLP232 T01670106=
201209161753 METAR KPAE 161753Z VRB04KT 8SM FEW002 16/12 A3023 RMK AO2 SLP236 T01610117 10161 20106 58000=
201209161740 SPECI KPAE 161740Z 01004KT 3SM HZ FEW002 15/12 A3023 RMK AO2=
201209161733 SPECI KPAE 161733Z 36005KT 3SM HZ BKN002 14/12 A3023 RMK AO2 VIS E 1 1/2SM=
201209161653 METAR KPAE 161653Z 01005KT 1/2SM R16R/2200VP6000FT FG VV002 13/12 A3023 RMK AO2 SLP238 T01280117=
201209161651 SPECI KPAE 161651Z VRB04KT 1/2SM R16R/3500VP6000FT FG OVC001 13/12 A3023 RMK AO2=
201209161611 SPECI KPAE 161611Z 36003KT 1/2SM R16R/2000VP6000FT FG BKN002 12/11 A3023 RMK AO2 VIS N 2=
201209161605 SPECI KPAE 161605Z VRB04KT 4SM BKN002 13/11 A3023 RMK AO2 VIS N 2=
201209161553 METAR KPAE 161553Z 36004KT 9SM FEW010 13/11 A3023 RMK AO2 SLP236 T01280106=
201209161453 METAR KPAE 161453Z 00000KT 6SM BR CLR 12/10 A3022 RMK AO2 SLP233 T01170100 53008=
201209161353 METAR KPAE 161353Z 00000KT 9SM CLR 11/09 A3021 RMK AO2 SLP229 T01060094=
201209161253 METAR KPAE 161253Z AUTO 03003KT 10SM CLR 12/10 A3020 RMK AO2 SLP225 T01170100=
201209161153 METAR KPAE 161153Z AUTO 00000KT 10SM CLR 11/09 A3020 RMK AO2 SLP224 T01060089 10128 20106 55002=
201209161053 METAR KPAE 161053Z AUTO 00000KT 10SM CLR 12/09 A3019 RMK AO2 SLP222 T01170089=
201209160953 METAR KPAE 160953Z AUTO 00000KT 10SM CLR 12/08 A3020 RMK AO2 SLP225 T01220083=
201209160853 METAR KPAE 160853Z AUTO 35003KT 10SM CLR 12/08 A3020 RMK AO2 SLP227 T01220083 53005=
201209160753 METAR KPAE 160753Z AUTO 36005KT 10SM CLR 12/08 A3019 RMK AO2 SLP222 T01220083 402280111=
201209160653 METAR KPAE 160653Z AUTO 35006KT 10SM CLR 13/08 A3019 RMK AO2 SLP222 T01280083=
201209160553 METAR KPAE 160553Z AUTO 36003KT 10SM CLR 13/09 A3019 RMK AO2 SLP223 T01280094 10206 20128 53008=
201209160453 METAR KPAE 160453Z AUTO 00000KT 10SM CLR 14/09 A3018 RMK AO2 SLP217 T01390094=
201209160353 METAR KPAE 160353Z 00000KT 10SM CLR 16/10 A3017 RMK AO2 SLP215 T01560100=
201209160253 METAR KPAE 160253Z 36003KT 10SM CLR 17/10 A3016 RMK AO2 SLP213 T01670100 53002=
201209160153 METAR KPAE 160153Z 36003KT 10SM CLR 19/10 A3015 RMK AO2 SLP209 T01890100=
201209160053 METAR KPAE 160053Z 28003KT 10SM CLR 21/10 A3015 RMK AO2 SLP209 T02060100=
201209152353 METAR KPAE 152353Z 00000KT 10SM CLR 21/09 A3016 RMK AO2 SLP211 T02060089 10228 20161 56007=
201209152253 METAR KPAE 152253Z VRB04KT 10SM CLR 22/10 A3016 RMK AO2 SLP212 T02220100=
201209152153 METAR KPAE 152153Z 00000KT 10SM CLR 22/11 A3017 RMK AO2 SLP213 T02170106=
201209152053 METAR KPAE 152053Z 00000KT 10SM CLR 20/11 A3018 RMK AO2 SLP218 T02000106 50003=
201209151953 METAR KPAE 151953Z VRB04KT 10SM CLR 19/11 A3019 RMK AO2 SLP220 T01940106=
201209151853 METAR KPAE 151853Z VRB04KT 10SM CLR 18/11 A3018 RMK AO2 SLP219 T01780106=
201209151753 METAR KPAE 151753Z VRB03KT 10SM CLR 16/11 A3017 RMK AO2 SLP216 T01610106 10167 20111 51009=
201209151653 METAR KPAE 151653Z 28003KT 10SM CLR 16/11 A3016 RMK AO2 SLP213 T01560106=
201209151553 METAR KPAE 151553Z 00000KT 10SM CLR 14/10 A3016 RMK AO2 SLP210 T01440100=
201209151453 METAR KPAE 151453Z 00000KT 10SM CLR 13/10 A3015 RMK AO2 SLP207 T01330100 53011=
201209151353 METAR KPAE 151353Z 00000KT 10SM CLR 11/09 A3013 RMK AO2 SLP203 T01110089=
201209151253 METAR KPAE 151253Z 00000KT 10SM CLR 12/09 A3012 RMK AO2 SLP199 T01220094=
201209151153 METAR KPAE 151153Z 00000KT 10SM CLR 14/09 A3011 RMK AO2 SLP195 T01390089 10156 20122 53006=
201209151053 METAR KPAE 151053Z 11003KT 10SM CLR 14/09 A3010 RMK AO2 SLP190 T01440089=
201209150953 METAR KPAE 150953Z 00000KT 10SM CLR 14/09 A3010 RMK AO2 SLP191 T01390089=
201209150853 METAR KPAE 150853Z 02003KT 10SM CLR 13/09 A3009 RMK AO2 SLP188 T01330089 53008=
201209150753 METAR KPAE 150753Z 36003KT 10SM CLR 14/09 A3008 RMK AO2 SLP184 T01390094 402390117=
201209150653 METAR KPAE 150653Z 00000KT 10SM CLR 16/09 A3007 RMK AO2 SLP181 T01560089=
201209150553 METAR KPAE 150553Z 00000KT 10SM CLR 16/09 A3007 RMK AO2 SLP181 T01560089 10228 20156 51006=
201209150453 METAR KPAE 150453Z 00000KT 10SM CLR 17/09 A3007 RMK AO2 SLP180 T01720089=
201209150353 METAR KPAE 150353Z 00000KT 10SM CLR 17/09 A3006 RMK AO2 SLP179 T01670094=
201209150253 METAR KPAE 150253Z 00000KT 10SM CLR 18/09 A3005 RMK AO2 SLP175 T01780089 55002=
201209150153 METAR KPAE 150153Z 35003KT 10SM CLR 21/09 A3004 RMK AO2 SLP171 T02060089=
201209150053 METAR KPAE 150053Z 00000KT 10SM CLR 22/08 A3004 RMK AO2 SLP171 T02220083=
201209142353 METAR KPAE 142353Z 34004KT 10SM CLR 22/09 A3006 RMK AO2 SLP175 T02220089 10239 20183 56008=
201209142253 METAR KPAE 142253Z VRB04KT 10SM CLR 23/09 A3006 RMK AO2 SLP177 T02330089=
201209142153 METAR KPAE 142153Z 01005KT 10SM CLR 22/10 A3007=
201209142053 METAR KPAE 142053Z 36003KT 10SM CLR 22/11 A3008 RMK AO2 SLP184 T02170106 58008=
201209141953 METAR KPAE 141953Z VRB05KT 10SM CLR 21/08 A3009 RMK AO2 SLP186 T02110083=
201209141853 METAR KPAE 141853Z 36005KT 10SM CLR 19/09 A3010 RMK AO2 SLP191 T01940094=
201209141753 METAR KPAE 141753Z 01004KT 10SM CLR 18/09 A3010 RMK AO2 SLP193 T01830089 10183 20117 51003=
201209141653 METAR KPAE 141653Z 35003KT 10SM CLR 17/09 A3010 RMK AO2 SLP193 T01670094=
201209141553 METAR KPAE 141553Z 01003KT 10SM CLR 15/09 A3010 RMK AO2 SLP190 T01500089=
201209141453 METAR KPAE 141453Z 02003KT 10SM CLR 13/09 A3009 RMK AO2 SLP189 T01280089 53006=
201209141353 METAR KPAE 141353Z 00000KT 10SM CLR 12/09 A3009 RMK AO2 SLP187 T01220089=
201209141253 METAR KPAE 141253Z AUTO 00000KT 10SM CLR 13/08 A3007 RMK AO2 SLP182 T01280083=
201209141153 METAR KPAE 141153Z AUTO 00000KT 10SM CLR 13/09 A3007 RMK AO2 SLP182 T01280089 10156 20122 56005=
201209141053 METAR KPAE 141053Z AUTO 00000KT 10SM CLR 13/08 A3008 RMK AO2 SLP182 T01330083=
201209140953 METAR KPAE 140953Z AUTO 00000KT 10SM CLR 13/08 A3009 RMK AO2 SLP186 T01330083=
201209140853 METAR KPAE 140853Z AUTO 00000KT 10SM CLR 15/08 A3009 RMK AO2 SLP188 T01500083 56002=
201209140753 METAR KPAE 140753Z AUTO 02003KT 10SM CLR 15/09 A3009 RMK AO2 SLP188 T01500089 402280100=
201209140653 METAR KPAE 140653Z AUTO 01003KT 10SM CLR 14/09 A3009 RMK AO2 SLP189 T01440089=
201209140553 METAR KPAE 140553Z AUTO 00000KT 10SM CLR 16/09 A3010 RMK AO2 SLP191 T01560089 10228 20156 51005=
201209140453 METAR KPAE 140453Z AUTO 00000KT 10SM CLR 16/09 A3009 RMK AO2 SLP189 T01610089=
201209140353 METAR KPAE 140353Z AUTO 36003KT 10SM CLR 17/09 A3009 RMK AO2 SLP188 T01670089=
201209140253 METAR KPAE 140253Z 36003KT 10SM CLR 18/09 A3008 RMK AO2 SLP185 T01830089 55001=
201209140153 METAR KPAE 140153Z 35003KT 10SM CLR 21/08 A3007 RMK AO2 SLP183 T02060083=
201209140053 METAR KPAE 140053Z VRB03KT 10SM CLR 22/07 A3008 RMK AO2 SLP185 T02220067=
201209132353 METAR KPAE 132353Z VRB03KT 10SM CLR 23/07 A3008 RMK AO2 SLP186 T02280072 10228 20161 56020=
201209132253 METAR KPAE 132253Z 35005KT 10SM CLR 23/07 A3010 RMK AO2 SLP193 T02280072=
201209132153 METAR KPAE 132153Z 36004KT 10SM CLR 22/07 A3012 RMK AO2 SLP199 T02220072=
201209132053 METAR KPAE 132053Z 35005KT 10SM CLR 21/08 A3014 RMK AO2 SLP207 T02060078 58021=
201209131953 METAR KPAE 131953Z VRB04KT 10SM CLR 20/07 A3017 RMK AO2 SLP216 T02000067=
201209131853 METAR KPAE 131853Z 36004KT 10SM CLR 19/07 A3019 RMK AO2 SLP222 T01890067=
201209131753 METAR KPAE 131753Z VRB04KT 10SM CLR 16/09 A3021 RMK AO2 SLP229 T01610089 10161 20100 58003=
201209131653 METAR KPAE 131653Z 36005KT 10SM CLR 13/09 A3021 RMK AO2 SLP230 T01330089=
201209131553 METAR KPAE 131553Z 01005KT 10SM CLR 12/08 A3022=
201209131453 METAR KPAE 131453Z 01004KT 10SM OVC040 12/08 A3022 RMK AO2 SLP232 T01170083 55001=
201209131353 METAR KPAE 131353Z 01003KT 10SM OVC040 10/08 A3021 RMK AO2 SLP232 T01000078=
201209131253 METAR KPAE 131253Z 00000KT 10SM OVC040 11/08 A3022 RMK AO2 SLP232 T01110078=
201209131153 METAR KPAE 131153Z 00000KT 10SM OVC036 11/07 A3022 RMK AO2 SLP234 70001 T01110072 10128 20100 58009=
201209131053 METAR KPAE 131053Z 00000KT 10SM OVC044 12/07 A3023 RMK AO2 SLP236 T01170067=
201209130953 METAR KPAE 130953Z 36003KT 10SM BKN044 11/07 A3024 RMK AO2 SLP239 T01110067=
201209130853 METAR KPAE 130853Z 36004KT 10SM CLR 12/07 A3025 RMK AO2 SLP242 T01170072 58006=
201209130753 METAR KPAE 130753Z 33003KT 10SM CLR 11/08 A3026 RMK AO2 SLP246 T01110078 401830083=
201209130653 METAR KPAE 130653Z 01003KT 10SM BKN044 12/08 A3026 RMK AO2 SLP246 T01220078=
201209130553 METAR KPAE 130553Z 36003KT 10SM CLR 12/08 A3026=
201209130453 METAR KPAE 130453Z 35004KT 10SM CLR 13/07 A3027 RMK AO2 SLP251 T01330072=
201209130353 METAR KPAE 130353Z 36003KT 10SM CLR 14/07 A3027 RMK AO2 SLP252 T01390072=
201209130253 METAR KPAE 130253Z 36003KT 10SM CLR 14/08 A3026 RMK AO2 SLP248 T01440078 55007=
201209130153 METAR KPAE 130153Z 35004KT 10SM CLR 17/08 A3026 RMK AO2 SLP245 T01670078=
201209130053 METAR KPAE 130053Z 34004KT 10SM CLR 18/08 A3027 RMK AO2 SLP249 T01780078=
201209122353 METAR KPAE 122353Z 33006KT 10SM CLR 18/07 A3028 RMK AO2 SLP254 T01780072 10183 20128 57019=
201209122253 METAR KPAE 122253Z 35006KT 10SM CLR 18/08 A3030 RMK AO2 SLP261 T01830078=
201209122153 METAR KPAE 122153Z 36009KT 10SM CLR 18/07 A3032 RMK AO2 SLP267 T01830072=
201209122053 METAR KPAE 122053Z 35009KT 10SM CLR 17/07 A3034 RMK AO2 SLP274 T01670067 58012=
201209121953 METAR KPAE 121953Z 36006KT 10SM CLR 17/06 A3035 RMK AO2 SLP278 T01670061=
201209121853 METAR KPAE 121853Z 35005KT 10SM CLR 14/07 A3037 RMK AO2 SLP283 T01440067=
201209121753 METAR KPAE 121753Z 34007KT 10SM CLR 13/07 A3037 RMK AO2 SLP286 P0001 60001 T01280067 10128 20083 50003=
201209121653 METAR KPAE 121653Z 01007KT 340V040 10SM CLR 12/07 A3037 RMK AO2 SLP287 T01170067=
201209121553 METAR KPAE 121553Z 02006KT 10SM CLR 11/07 A3037 RMK AO2 SLP286 T01060067=
201209121453 METAR KPAE 121453Z 02006KT 10SM CLR 09/06 A3036 RMK AO2 SLP283 T00940056 53013=
201209121353 METAR KPAE 121353Z 03004KT 10SM CLR 09/07 A3035 RMK AO2 SLP278 T00890067=
201209121253 METAR KPAE 121253Z AUTO 01003KT 10SM CLR 09/07 A3033 RMK AO2 SLP272 T00890072=
201209121153 METAR KPAE 121153Z AUTO 35003KT 10SM CLR 09/06 A3032 RMK AO2 SLP269 T00890061 10106 20083 53002=
201209121053 METAR KPAE 121053Z AUTO 00000KT 10SM CLR 09/07 A3032 RMK AO2 SLP266 T00940067=
201209120953 METAR KPAE 120953Z AUTO 00000KT 10SM CLR 09/08 A3032 RMK AO2 SLP268 T00940078=
201209120853 METAR KPAE 120853Z AUTO 35003KT 10SM CLR 10/08 A3032 RMK AO2 SLP267 T01000078 58002=
201209120753 METAR KPAE 120753Z AUTO 35004KT 10SM CLR 10/07 A3032 RMK AO2 SLP269 T01000072 401720100=
201209120653 METAR KPAE 120653Z AUTO 35005KT 10SM CLR 11/08 A3032 RMK AO2 SLP268 T01060083=
201209120553 METAR KPAE 120553Z AUTO 35004KT 10SM CLR 11/05 A3032 RMK AO2 SLP270 T01060050 10172 20106 51008=
201209120453 METAR KPAE 120453Z AUTO 33003KT 10SM CLR 11/04 A3032 RMK AO2 SLP268 T01110044=
201209120353 METAR KPAE 120353Z AUTO 33003KT 10SM CLR 12/04 A3031 RMK AO2 SLP266 T01220044=
201209120253 METAR KPAE 120253Z 34004KT 10SM CLR 13/05 A3030 RMK AO2 SLP261 T01280050 53002=
201209120153 METAR KPAE 120153Z 35005KT 10SM CLR 15/05 A3029 RMK AO2 SLP257 T01500050=
201209120053 METAR KPAE 120053Z VRB04KT 10SM CLR 16/06 A3029 RMK AO2 SLP258 T01610056=
201209112353 METAR KPAE 112353Z VRB06KT 10SM CLR 17/06 A3029 RMK AO2 SLP258 T01670061 10172 20133 56007=
201209112253 METAR KPAE 112253Z 01007KT 10SM CLR 17/06 A3029 RMK AO2 SLP259 T01670056=
201209112153 METAR KPAE 112153Z 36007KT 10SM CLR 17/06 A3031 RMK AO2 SLP262 T01670056=
201209112053 METAR KPAE 112053Z 01007KT 10SM CLR 16/06 A3032 RMK AO2 SLP266 T01610061 56005=
201209111953 METAR KPAE 111953Z 34006KT 10SM CLR 16/07 A3032 RMK AO2 SLP267 T01560072=
201209111853 METAR KPAE 111853Z 02007KT 10SM CLR 15/07 A3032=
201209111753 METAR KPAE 111753Z 35005KT 10SM CLR 14/08 A3033 RMK AO2 SLP271 T01390078 10139 20106 52004=
201209111653 METAR KPAE 111653Z 01006KT 10SM CLR 12/08 A3033 RMK AO2 SLP271 T01220078=
201209111612 SPECI KPAE 111612Z VRB03KT 10SM SCT011 12/08 A3032 RMK AO2=
201209111553 METAR KPAE 111553Z 03004KT 10SM BKN013 12/08 A3032 RMK AO2 SLP268 T01170078=
201209111522 SPECI KPAE 111522Z 34003KT 10SM BKN013 11/08 A3032 RMK AO2=
201209111453 METAR KPAE 111453Z VRB03KT 10SM BKN015 BKN026 11/07 A3032 RMK AO2 SLP267 T01110072 53012=
201209111353 METAR KPAE 111353Z 00000KT 10SM FEW013 BKN025 11/07 A3030 RMK AO2 SLP263 T01060072=
201209111253 METAR KPAE 111253Z AUTO 02003KT 10SM SCT015 OVC023 11/08 A3029 RMK AO2 SLP257 T01110078=
201209111153 METAR KPAE 111153Z AUTO 35003KT 10SM BKN015 OVC025 11/08 A3028 RMK AO2 SLP254 70001 T01110078 10117 20106 53011=
201209111053 METAR KPAE 111053Z AUTO 00000KT 10SM SCT016 OVC027 11/07 A3027 RMK AO2 SLP249 T01110067=
201209111046 SPECI KPAE 111046Z AUTO 00000KT 10SM FEW016 OVC027 11/07 A3027 RMK AO2=
201209110953 METAR KPAE 110953Z AUTO 35003KT 10SM BKN034 OVC050 11/06 A3026 RMK AO2 SLP247 T01110061=
201209110853 METAR KPAE 110853Z AUTO 01003KT 10SM FEW036 11/05 A3025 RMK AO2 SLP242 T01060050 53008=
201209110753 METAR KPAE 110753Z AUTO VRB03KT 10SM CLR 11/06 A3024 RMK AO2 SLP239 T01110056 401670106=
201209110653 METAR KPAE 110653Z AUTO 04005KT 10SM CLR 12/05 A3023 RMK AO2 SLP236 T01170050=
201209110553 METAR KPAE 110553Z AUTO 02005KT 10SM CLR 11/06 A3022 RMK AO2 SLP234 T01110056 10161 20111 51010=
201209110453 METAR KPAE 110453Z AUTO 02005KT 10SM CLR 12/06 A3022 RMK AO2 SLP232 T01170061=
201209110353 METAR KPAE 110353Z AUTO 06005KT 10SM SCT050 BKN060 12/06 A3021 RMK AO2 SLP230 T01220061=
201209110253 METAR KPAE 110253Z 03004KT 10SM SCT050 13/06 A3019 RMK AO2 SLP224 T01280061 53008=
201209110153 METAR KPAE 110153Z 34005KT 10SM BKN055 14/07 A3018 RMK AO2 SLP220 T01390067=
201209110053 METAR KPAE 110053Z 32007KT 10SM OVC065 16/07 A3017 RMK AO2 SLP216 T01560072=
201209102353 METAR KPAE 102353Z COR 36004KT 10SM FEW055 BKN070 15/08 A3017 RMK AO2 RAB02E13B39E50 SLP215 P0000 60000 T01500083 10167 20133 50000=
201209102253 METAR KPAE 102253Z VRB05KT 10SM SCT040 BKN060 17/08 A3017 RMK AO2 SLP215 T01670078=
201209102200 SPECI KPAE 102200Z 33003KT 10SM FEW075 SCT095 16/06 A3017 RMK AO2=
201209102153 METAR KPAE 102153Z 31006KT 10SM BKN020 15/05 A3017 RMK AO2 RAB04E20 SLP215 P0000 T01500050=
201209102053 METAR KPAE 102053Z 31006KT 10SM BKN020 16/07 A3017 RMK AO2 SLP215 T01560067 51002=
201209101953 METAR KPAE 101953Z 22006KT 10SM BKN025 16/08 A3016 RMK AO2 SLP214 T01610078=
201209101853 METAR KPAE 101853Z VRB05KT 10SM FEW020 SCT024 BKN050 14/09 A3017 RMK AO2 SLP214 T01440089=
201209101753 METAR KPAE 101753Z 22005KT 10SM SCT020 SCT025 14/08 A3016 RMK AO2 SLP213 60001 T01390078 10139 20106 51018=
201209101743 SPECI KPAE 101743Z 23006KT 10SM BKN020 BKN025 13/08 A3016 RMK AO2=
201209101731 SPECI KPAE 101731Z 22004KT 10SM SCT020 BKN044 13/09 A3016 RMK AO2=
201209101653 METAR KPAE 101653Z 22005KT 10SM FEW015 BKN020 13/08 A3015 RMK AO2 SLP209 T01330083=
201209101633 SPECI KPAE 101633Z 19006KT 10SM FEW015 BKN020 13/09 A3014 RMK AO2=
201209101553 METAR KPAE 101553Z 17006KT 10SM FEW018 SCT020 12/09 A3013 RMK AO2 SLP203 T01170094=
201209101453 METAR KPAE 101453Z 11003KT 10SM CLR 11/08 A3011 RMK AO2 SLP195 60001 T01110083 53023=
201209101353 METAR KPAE 101353Z 12005KT 10SM FEW055 SCT090 11/08 A3008 RMK AO2 SLP186 T01060083=
201209101253 METAR KPAE 101253Z AUTO 06004KT 10SM OVC075 11/08 A3005 RMK AO2 RAE28 SLP177 P0001 T01110083=
201209101153 METAR KPAE 101153Z AUTO 03006KT 5SM -RA BR OVC048 11/09 A3004=
201209101053 METAR KPAE 101053Z AUTO 35005KT 8SM -RA OVC034 11/09 A3002 RMK AO2 SLP164 P0001 T01110089=
201209101036 SPECI KPAE 101036Z AUTO 35006KT 10SM -RA OVC030 11/09 A3001 RMK AO2 P0001=
201209100953 METAR KPAE 100953Z AUTO 35006KT 7SM -RA FEW006 BKN026 OVC034 11/09 A3000 RMK AO2 SLP157 P0006 T01060089=
201209100950 SPECI KPAE 100950Z AUTO 35006G15KT 5SM -RA BR FEW006 BKN026 OVC034 11/09 A3000 RMK AO2 P0006=
201209100942 SPECI KPAE 100942Z AUTO 34008G15KT 2 1/2SM -RA BR SCT006 BKN023 OVC034 11/09 A2999 RMK AO2 P0006=
201209100853 METAR KPAE 100853Z AUTO 34008KT 2SM -RA BR BKN006 OVC014 11/10 A2999 RMK AO2 RAB09 CIG 002V009 SLP155 P0013 60013 T01110100 53013=
201209100846 SPECI KPAE 100846Z AUTO 32009KT 2SM -RA BR BKN004 OVC010 11/10 A2999 RMK AO2 RAB09 P0013=
201209100827 SPECI KPAE 100827Z AUTO 31008KT 1 1/2SM RA BR BKN004 OVC010 12/11 A2999 RMK AO2 RAB09 P0009=
201209100818 SPECI KPAE 100818Z AUTO 31010G17KT 1 1/2SM RA BR BKN007 OVC012 12/11 A2998 RMK AO2 RAB09 CIG 004V010 P0006=
201209100814 SPECI KPAE 100814Z AUTO 33008G17KT 2 1/2SM +RA BR SCT007 OVC012 13/11 A2998 RMK AO2 RAB09 P0004=
201209100753 METAR KPAE 100753Z AUTO 22010G20KT 10SM OVC014 15/12 A2997 RMK AO2 SLP146 T01500117 401780139=
201209100745 SPECI KPAE 100745Z AUTO 20013G19KT 10SM OVC014 15/12 A2996 RMK AO2=
201209100653 METAR KPAE 100653Z AUTO 19016G25KT 10SM BKN017 OVC100 15/11 A2994 RMK AO2 PK WND 20029/0638 RAB07E44 SLP137 P0000 T01500111=
201209100640 SPECI KPAE 100640Z AUTO 19017G29KT 10SM -RA BKN017 OVC100 15/12 A2994 RMK AO2 PK WND 20029/0638 RAB07 P0000=
201209100630 SPECI KPAE 100630Z AUTO 19016G23KT 10SM -RA SCT017 OVC100 15/12 A2994 RMK AO2 PK WND 18029/0611 RAB07 P0000=
201209100604 SPECI KPAE 100604Z AUTO 19022G25KT 10SM BKN017 OVC100 15/11 A2995 RMK AO2 PK WND 18026/0554=
201209100553 METAR KPAE 100553Z AUTO 19018G26KT 10SM SCT017 OVC100 15/11 A2995 RMK AO2 PK WND 19026/0546 RAE20 SLP141 P0000 60000 T01500111 10172 20150 58003=
201209100532 SPECI KPAE 100532Z AUTO 18021G26KT 10SM FEW019 OVC100 15/11 A2994 RMK AO2 PK WND 18026/0532 RAE20 P0000=
201209100516 SPECI KPAE 100516Z AUTO 19016G22KT 10SM -RA BKN019 OVC090 15/12 A2995 RMK AO2 P0000=
201209100453 METAR KPAE 100453Z AUTO 17013G20KT 10SM -RA FEW017 OVC090 16/11 A2995 RMK AO2 RAE15B43 SLP142 P0000 T01560111=
201209100353 METAR KPAE 100353Z 19017G23KT 10SM -RA FEW019 SCT080 OVC100 16/11 A2996 RMK AO2 RAB50 SLP144 P0000 T01560111=
201209100349 SPECI KPAE 100349Z 18016G23KT 10SM SCT019 BKN080 OVC100 16/11 A2996 RMK AO2=
201209100253 METAR KPAE 100253Z 18014G23KT 10SM OVC019 16/11 A2996 RMK AO2 SLP143 T01610111 58013=
201209100153 METAR KPAE 100153Z 19017G21KT 10SM OVC019 16/11 A2997 RMK AO2 SLP149 T01610111=
201209100053 METAR KPAE 100053Z 19014KT 10SM OVC021 17/11 A2999 RMK AO2 SLP155 T01670111=
201209092353 METAR KPAE 092353Z 19015G22KT 10SM OVC026 17/11 A3000 RMK AO2 SLP156 60000 T01720106 10178 20156 56007=
201209092253 METAR KPAE 092253Z 20008KT 10SM OVC025 17/11 A3000 RMK AO2 SLP158 T01720106=
201209092153 METAR KPAE 092153Z 20009KT 10SM OVC027 17/10 A3001 RMK AO2 SLP161 T01670100=
201209092053 METAR KPAE 092053Z 19011G15KT 10SM OVC026 17/11 A3002 RMK AO2 RAE1956 SLP163 P0000 60000 T01720106 50002=
201209091953 METAR KPAE 091953Z 20008KT 10SM -RA OVC026 17/10 A3002 RMK AO2 RAB45 SLP165 P0000 T01670100=
201209091853 METAR KPAE 091853Z 20009KT 10SM OVC018 17/09 A3002 RMK AO2 SLP165 T01670089=
201209091753 METAR KPAE 091753Z 19013G20KT 10SM SCT009 OVC018 16/09 A3001 RMK AO2 SLP161 T01560089 10161 20139 53007=
201209091700 SPECI KPAE 091700Z 17010KT 10SM BKN025 OVC030 16/10 A3001 RMK AO2=
201209091653 METAR KPAE 091653Z 16010KT 10SM SCT015 BKN040 16/10 A3001 RMK AO2 SLP160 T01560100=
201209091553 METAR KPAE 091553Z 19013KT 10SM SCT015 BKN040 16/11 A2999 RMK AO2 SLP155 T01610106=
201209091453 METAR KPAE 091453Z 18006KT 10SM FEW015 14/11 A2999 RMK AO2 SLP154 T01390106 53004=
201209091353 METAR KPAE 091353Z 16008KT 10SM SCT021 BKN041 14/10 A2998 RMK AO2 SLP151 T01390100=
201209091253 METAR KPAE 091253Z AUTO 19011KT 10SM SCT029 OVC042 14/09 A2997 RMK AO2 SLP146 T01440094=
201209091218 SPECI KPAE 091218Z AUTO 18009KT 10SM BKN029 OVC036 15/09 A2997 RMK AO2=
201209091153 METAR KPAE 091153Z AUTO 17008KT 10SM OVC031 15/10 A2998 RMK AO2 SLP147 T01500100 10167 20144 58002=
201209091053 METAR KPAE 091053Z AUTO 17010KT 10SM OVC025 16/09 A2998 RMK AO2 SLP149 T01560094=
201209090953 METAR KPAE 090953Z AUTO 18010KT 10SM OVC022 16/10 A2998 RMK AO2 SLP148 T01560100=
201209090853 METAR KPAE 090853Z AUTO 16010KT 10SM BKN022 OVC028 15/10 A2998 RMK AO2 SLP149 T01500100 53004=
201209090837 SPECI KPAE 090837Z AUTO 17007KT 10SM BKN028 15/10 A2998 RMK AO2=
201209090753 METAR KPAE 090753Z AUTO 17010KT 10SM CLR 15/11 A2998 RMK AO2 SLP148 T01500106 402610144=
201209090653 METAR KPAE 090653Z AUTO 20009KT 10SM CLR 16/11 A2997 RMK AO2 SLP146 T01560111=
201209090553 METAR KPAE 090553Z AUTO 20007KT 10SM SCT120 17/12 A2997 RMK AO2 SLP145 T01670117 10256 20150 51014=
201209090453 METAR KPAE 090453Z AUTO 02003KT 10SM CLR 15/12 A2996 RMK AO2 SLP142 T01500122=
201209090353 METAR KPAE 090353Z 01004KT 10SM CLR 16/12 A2995 RMK AO2 SLP138 T01560122=
201209090253 METAR KPAE 090253Z 02005KT 10SM CLR 16/13 A2993 RMK AO2 SLP134 T01610128 51001=
201209090153 METAR KPAE 090153Z 02007KT 10SM CLR 19/12 A2993 RMK AO2 SLP133 T01890117=
201209090053 METAR KPAE 090053Z 02006KT 10SM CLR 21/11 A2993 RMK AO2 SLP134 T02110106=
201209082353 METAR KPAE 082353Z 28003KT 10SM CLR 25/11 A2993 RMK AO2 SLP131 T02500111 10261 20233 56010=
201209082253 METAR KPAE 082253Z 28007KT 10SM CLR 26/09 A2993 RMK AO2 SLP133 T02560094=
201209082153 METAR KPAE 082153Z 25007KT 10SM CLR 26/08 A2994 RMK AO2 SLP137 T02560083=
201209082053 METAR KPAE 082053Z 26005KT 10SM CLR 24/08 A2996 RMK AO2 SLP141 T02440083 58012=
201209081953 METAR KPAE 081953Z 24005KT 10SM CLR 24/11 A2997 RMK AO2 SLP146 T02440111=
201209081853 METAR KPAE 081853Z 30003KT 10SM CLR 24/08 A2998 RMK AO2 SLP149 T02440083=
201209081753 METAR KPAE 081753Z 36003KT 10SM CLR 23/08 A2999 RMK AO2 SLP153 T02330078 10239 20144 56010=
201209081653 METAR KPAE 081653Z 00000KT 10SM CLR 22/08 A3000 RMK AO2 SLP155 T02170083=
201209081553 METAR KPAE 081553Z 02003KT 10SM CLR 20/10 A3001 RMK AO2 SLP160 T02000100=
201209081453 METAR KPAE 081453Z 00000KT 10SM CLR 18/09 A3002 RMK AO2 SLP163 T01830094 55002=
201209081353 METAR KPAE 081353Z 00000KT 10SM CLR 16/08 A3002 RMK AO2 SLP162 T01560083=
201209081253 METAR KPAE 081253Z AUTO 00000KT 10SM CLR 17/08 A3003 RMK AO2 SLP165 T01670078=
201209081153 METAR KPAE 081153Z AUTO 00000KT 10SM CLR 17/11 A3003 RMK AO2 SLP165 T01720106 10200 20150 55003=
201209081053 METAR KPAE 081053Z AUTO 00000KT 10SM CLR 17/11 A3003 RMK AO2 SLP164 T01670106=
201209080953 METAR KPAE 080953Z AUTO 00000KT 10SM CLR 16/11 A3004 RMK AO2 SLP169 T01610106=
201209080853 METAR KPAE 080853Z AUTO 00000KT 10SM CLR 18/11 A3004 RMK AO2 SLP169 T01780106 58009=
201209080753 METAR KPAE 080753Z AUTO 05003KT 10SM CLR 19/11 A3005 RMK AO2 SLP173 T01940106 402780139=
201209080653 METAR KPAE 080653Z AUTO 00000KT 10SM CLR 18/09 A3006 RMK AO2 SLP176 T01830094=
201209080553 METAR KPAE 080553Z AUTO 00000KT 10SM CLR 19/10 A3007 RMK AO2 SLP179 T01940100 10272 20189 51004=
201209080453 METAR KPAE 080453Z AUTO 00000KT 10SM CLR 20/10 A3007 RMK AO2 SLP178 T02000100=
201209080353 METAR KPAE 080353Z 00000KT 10SM CLR 21/10 A3007 RMK AO2 SLP178 T02110100=
201209080253 METAR KPAE 080253Z 00000KT 10SM CLR 23/09 A3006 RMK AO2 SLP174 T02280094 56007=
201209080153 METAR KPAE 080153Z 35003KT 10SM CLR 25/09 A3006 RMK AO2 SLP175 T02500089=
201209080053 METAR KPAE 080053Z 35005KT 10SM CLR 27/09 A3006 RMK AO2 SLP176 T02670089=
201209072353 METAR KPAE 072353Z 35005KT 10SM CLR 27/09 A3008 RMK AO2 SLP182 T02720089 10278 20233 56019=
201209072253 METAR KPAE 072253Z 35006KT 10SM CLR 27/10 A3009 RMK AO2 SLP187 T02670100=
201209072153 METAR KPAE 072153Z 36007KT 10SM CLR 27/09 A3011 RMK AO2 SLP194 T02670089=
201209072053 METAR KPAE 072053Z VRB04KT 10SM CLR 26/08 A3013 RMK AO2 SLP201 T02610083 58007=
201209071953 METAR KPAE 071953Z VRB04KT 10SM CLR 26/08 A3014 RMK AO2 SLP203 T02610083=
201209071853 METAR KPAE 071853Z 02004KT 10SM CLR 24/08 A3015 RMK AO2 SLP207 T02440083=
201209071753 METAR KPAE 071753Z 02004KT 10SM CLR 24/09 A3016 RMK AO2 SLP209 T02390094 10239 20139 50003=
201209071653 METAR KPAE 071653Z 04003KT 10SM CLR 21/11 A3016 RMK AO2 SLP209 T02110106=
201209071553 METAR KPAE 071553Z 03004KT 10SM CLR 18/10 A3015 RMK AO2 SLP209 T01830100=
201209071453 METAR KPAE 071453Z 00000KT 10SM CLR 18/10 A3015 RMK AO2 SLP206 T01830100 53009=
201209071353 METAR KPAE 071353Z 00000KT 10SM CLR 14/10 A3014 RMK AO2 SLP203 T01440100=
201209071253 METAR KPAE 071253Z AUTO 02004KT 10SM CLR 14/09 A3013 RMK AO2 SLP199 T01440094=
201209071153 METAR KPAE 071153Z AUTO 03004KT 10SM CLR 16/09 A3012 RMK AO2 SLP195 T01560089 10183 20144 51009=
201209071053 METAR KPAE 071053Z AUTO 00000KT 10SM CLR 15/08 A3011 RMK AO2 SLP192 T01500078=
201209070953 METAR KPAE 070953Z AUTO 00000KT 10SM CLR 16/08 A3010 RMK AO2 SLP190 T01610078=
201209070853 METAR KPAE 070853Z AUTO 03004KT 10SM CLR 17/07 A3009 RMK AO2 SLP185 T01720072 51007=
201209070753 METAR KPAE 070753Z AUTO 01003KT 10SM CLR 18/07 A3009 RMK AO2 SLP185 T01780067 402500128=
201209070653 METAR KPAE 070653Z AUTO 01003KT 10SM CLR 17/08 A3007 RMK AO2 SLP181 T01720083=
201209070553 METAR KPAE 070553Z AUTO 01003KT 10SM CLR 18/08 A3007 RMK AO2 SLP179 T01830083 10244 20178 52010=
201209070453 METAR KPAE 070453Z AUTO 35003KT 10SM CLR 19/08 A3006 RMK AO2 SLP175 T01890083=
201209070353 METAR KPAE 070353Z AUTO 00000KT 10SM CLR 19/10 A3005 RMK AO2 SLP172 T01890100=
201209070253 METAR KPAE 070253Z 35005KT 10SM CLR 20/10 A3003 RMK AO2 SLP168 T02000100 55002=
201209070153 METAR KPAE 070153Z 34004KT 10SM CLR 22/11 A3003 RMK AO2 SLP167 T02220106=
201209070053 METAR KPAE 070053Z 35005KT 10SM CLR 24/11 A3003 RMK AO2 SLP168 T02390106=
201209062353 METAR KPAE 062353Z 34006KT 10SM CLR 24/10 A3004 RMK AO2 SLP171 T02390100 10250 20189 56006=
201209062253 METAR KPAE 062253Z 36006KT 10SM CLR 24/11 A3004 RMK AO2 SLP172 T02440106=
201209062153 METAR KPAE 062153Z 36005KT 10SM CLR 24/11 A3005 RMK AO2 SLP175 T02390106=
201209062053 METAR KPAE 062053Z VRB05KT 10SM CLR 23/11 A3006 RMK AO2 SLP177 T02280111 55001=
201209061953 METAR KPAE 061953Z 36007KT 310V040 10SM CLR 22/11 A3006 RMK AO2 SLP177 T02170106=
201209061853 METAR KPAE 061853Z VRB04KT 10SM CLR 21/11 A3006 RMK AO2 SLP178 T02110106=
201209061753 METAR KPAE 061753Z 01005KT 10SM CLR 19/11 A3006 RMK AO2 SLP179 T01890106 10194 20128 51012=
201209061653 METAR KPAE 061653Z 01006KT 10SM CLR 18/11 A3006 RMK AO2 SLP177 T01780111=
201209061553 METAR KPAE 061553Z 35006KT 10SM CLR 16/11 A3004 RMK AO2 SLP171 T01610111=
201209061453 METAR KPAE 061453Z VRB05KT 10SM CLR 15/12 A3003 RMK AO2 SLP167 T01500117 53010=
201209061353 METAR KPAE 061353Z 35004KT 10SM CLR 13/11 A3002 RMK AO2 SLP163 T01330111=
201209061253 METAR KPAE 061253Z AUTO 35003KT 10SM CLR 13/11 A3001 RMK AO2 SLP159 T01330111=
201209061153 METAR KPAE 061153Z AUTO 35006KT 10SM CLR 13/11 A3000 RMK AO2 SLP156 T01330111 10150 20133 53006=
201209061053 METAR KPAE 061053Z AUTO 35005KT 10SM CLR 14/12 A2999 RMK AO2 SLP153 T01390122=
201209060953 METAR KPAE 060953Z AUTO 35005KT 10SM CLR 14/12 A2998 RMK AO2 SLP151 T01440117=
201209060853 METAR KPAE 060853Z AUTO 36004KT 10SM CLR 14/11 A2998 RMK AO2 SLP150 T01440111 53004=
201209060753 METAR KPAE 060753Z AUTO 01003KT 10SM CLR 14/12 A2998 RMK AO2 SLP149 T01440117 402330117=
201209060653 METAR KPAE 060653Z AUTO 35004KT 10SM CLR 15/12 A2997 RMK AO2 SLP147 T01500117=
201209060553 METAR KPAE 060553Z AUTO 36003KT 10SM CLR 14/12 A2997 RMK AO2 SLP147 T01440117 10222 20144 53005=
201209060453 METAR KPAE 060453Z AUTO 00000KT 10SM CLR 16/12 A2996 RMK AO2 SLP145 T01560117=
201209060353 METAR KPAE 060353Z AUTO 36003KT 10SM CLR 17/12 A2996 RMK AO2 SLP145 T01670117=
201209060253 METAR KPAE 060253Z VRB03KT 10SM CLR 18/12 A2996 RMK AO2 SLP143 T01830117 56008=
201209060153 METAR KPAE 060153Z 35005KT 10SM CLR 19/12 A2997 RMK AO2 SLP146 T01940122=
201209060053 METAR KPAE 060053Z 33005KT 10SM CLR 22/12 A2997 RMK AO2 SLP147 T02170122=
201209052353 METAR KPAE 052353Z 36004KT 10SM CLR 22/12 A2998 RMK AO2 SLP151 T02170122 10233 20189 57015=
201209052253 METAR KPAE 052253Z 36005KT 10SM CLR 22/12 A3000 RMK AO2 SLP155 T02170117=
201209052153 METAR KPAE 052153Z VRB03KT 10SM CLR 23/12 A3001 RMK AO2 SLP159 T02330117=
201209052053 METAR KPAE 052053Z VRB05KT 10SM CLR 22/12 A3003 RMK AO2 SLP165 T02170117 56013=
201209051953 METAR KPAE 051953Z 32006KT 10SM CLR 22/12 A3003 RMK AO2 SLP168 T02170117=
201209051853 METAR KPAE 051853Z 01004KT 10SM CLR 21/12 A3005 RMK AO2 SLP173 T02060117=
201209051753 METAR KPAE 051753Z VRB04KT 10SM CLR 19/12 A3006 RMK AO2 SLP179 T01890122 10194 20117 58009=
201209051653 METAR KPAE 051653Z 00000KT 10SM CLR 19/12 A3007 RMK AO2 SLP182 T01890117=
201209051553 METAR KPAE 051553Z 00000KT 10SM CLR 16/12 A3008 RMK AO2 SLP186 T01560117=
201209051453 METAR KPAE 051453Z 00000KT 10SM CLR 14/11 A3009 RMK AO2 SLP188 T01440111 55001=
201209051353 METAR KPAE 051353Z 00000KT 10SM CLR 12/10 A3009 RMK AO2 SLP188 T01220100=
201209051253 METAR KPAE 051253Z 00000KT 10SM CLR 12/10 A3009 RMK AO2 SLP189 T01220100=
201209051153 METAR KPAE 051153Z 00000KT 10SM CLR 13/11 A3009 RMK AO2 SLP190 T01280106 10150 20128 56008=
201209051053 METAR KPAE 051053Z 00000KT 10SM CLR 14/11 A3010 RMK AO2 SLP192 T01390106=
201209050953 METAR KPAE 050953Z 00000KT 10SM CLR 14/11 A3011 RMK AO2 SLP194 T01440106=
201209050853 METAR KPAE 050853Z 02003KT 10SM CLR 14/11 A3012 RMK AO2 SLP198 T01390111 58004=
201209050753 METAR KPAE 050753Z 00000KT 10SM CLR 13/11 A3013 RMK AO2 SLP200 T01330106 402110106=
201209050653 METAR KPAE 050653Z 00000KT 10SM CLR 14/11 A3013 RMK AO2 SLP200 T01440106=
201209050553 METAR KPAE 050553Z 00000KT 10SM CLR 15/11 A3013 RMK AO2 SLP202 T01500111 10211 20150 58000=
201209050453 METAR KPAE 050453Z 00000KT 10SM CLR 16/11 A3014 RMK AO2 SLP204 T01610111=
201209050353 METAR KPAE 050353Z 33004KT 10SM CLR 17/11 A3013 RMK AO2 SLP203 T01720111=
201209050253 METAR KPAE 050253Z 33003KT 10SM CLR 18/12 A3013 RMK AO2 SLP202 T01780117 56010=
201209050153 METAR KPAE 050153Z 34004KT 10SM CLR 19/12 A3014 RMK AO2 SLP204 T01940117=
201209050053 METAR KPAE 050053Z 34004KT 10SM CLR 21/12 A3015 RMK AO2 SLP210 T02060117=
201209042353 METAR KPAE 042353Z VRB06KT 10SM CLR 21/12 A3016 RMK AO2 SLP212 T02110117 10211 20167 56013=
201209042253 METAR KPAE 042253Z 36006KT 10SM CLR 20/12 A3017 RMK AO2 SLP216 T02000117=
201209042153 METAR KPAE 042153Z 34006KT 10SM CLR 20/11 A3019 RMK AO2 SLP221 T02000111=
201209042053 METAR KPAE 042053Z 36004KT 10SM CLR 19/12 A3020 RMK AO2 SLP225 T01940117 56010=
201209041953 METAR KPAE 041953Z 01005KT 10SM CLR 19/11 A3021 RMK AO2 SLP227 T01940111=
201209041856 SPECI KPAE 041856Z 02006KT 10SM CLR 18/12 A3022 RMK AO2=
201209041853 METAR KPAE 041853Z 36004KT 10SM SCT010 18/12 A3022 RMK AO2 SLP232 T01830117=
201209041755 SPECI KPAE 041755Z 35003KT 10SM SCT010 18/12 A3023 RMK AO2=
201209041753 METAR KPAE 041753Z 35004KT 10SM BKN010 17/12 A3023 RMK AO2 SLP235 T01720117 10172 20106 53003=
201209041740 SPECI KPAE 041740Z 34005KT 10SM BKN010 17/12 A3023 RMK AO2=
201209041653 METAR KPAE 041653Z 33006KT 10SM CLR 16/11 A3023 RMK AO2 SLP235 T01560111=
201209041553 METAR KPAE 041553Z 36005KT 10SM CLR 15/11 A3022 RMK AO2 SLP231 T01500106=
201209041453 METAR KPAE 041453Z 00000KT 10SM CLR 14/10 A3022 RMK AO2 SLP232 T01390100 51008=
201209041353 METAR KPAE 041353Z 00000KT 10SM CLR 12/09 A3021 RMK AO2 SLP231 T01170094=
201209041253 METAR KPAE 041253Z AUTO 00000KT 10SM CLR 12/10 A3020 RMK AO2 SLP226 T01220100=
201209041153 METAR KPAE 041153Z AUTO 00000KT 10SM CLR 11/09 A3019 RMK AO2 SLP224 T01110094 10139 20111 53004=
201209041053 METAR KPAE 041053Z AUTO 00000KT 10SM CLR 12/09 A3019 RMK AO2 SLP222 T01170094=
201209040953 METAR KPAE 040953Z AUTO 00000KT 10SM CLR 12/10 A3018 RMK AO2 SLP220 T01220100=
201209040853 METAR KPAE 040853Z AUTO 00000KT 7SM CLR 12/10 A3018=
201209040753 METAR KPAE 040753Z AUTO 00000KT 10SM CLR 13/10 A3018 RMK AO2 SLP218 T01330100 402060117=
201209040653 METAR KPAE 040653Z AUTO 00000KT 10SM CLR 14/10 A3017 RMK AO2 SLP216 T01390100=
201209040553 METAR KPAE 040553Z AUTO 02003KT 10SM CLR 14/10 A3017 RMK AO2 SLP216 T01390100 10206 20139 51008=
201209040453 METAR KPAE 040453Z AUTO 00000KT 10SM CLR 16/09 A3016 RMK AO2 SLP213 T01560094=
201209040353 METAR KPAE 040353Z AUTO 00000KT 10SM CLR 16/09 A3016 RMK AO2 SLP212 T01610094=
201209040253 METAR KPAE 040253Z 00000KT 10SM CLR 17/09 A3015 RMK AO2 SLP208 T01720094 55003=
201209040153 METAR KPAE 040153Z 34003KT 10SM CLR 18/10 A3014=
201209040053 METAR KPAE 040053Z 36005KT 10SM CLR 20/10 A3014 RMK AO2 SLP206 T02000100=
201209032353 METAR KPAE 032353Z 34004KT 10SM CLR 19/11 A3015 RMK AO2 SLP210 T01940111 10200 20133 56009=
201209032253 METAR KPAE 032253Z 35005KT 10SM CLR 19/11 A3016 RMK AO2 SLP212 T01940106=
201209032153 METAR KPAE 032153Z VRB05KT 10SM CLR 19/11 A3017 RMK AO2 SLP216 T01940111=
201209032053 METAR KPAE 032053Z 35006KT 10SM CLR 18/12 A3018=
201209031953 METAR KPAE 031953Z 36007KT 10SM CLR 17/11 A3018 RMK AO2 SLP220 T01720106=
201209031853 METAR KPAE 031853Z 01005KT 10SM FEW001 17/11 A3019 RMK AO2 SLP221 T01670106=
201209031829 SPECI KPAE 031829Z 00000KT 10SM FEW001 15/11 A3019 RMK AO2=
201209031753 METAR KPAE 031753Z 35003KT 1SM R16R/P6000FT HZ VV002 13/11 A3020 RMK AO2 SLP226 T01330106 10133 20117 51005=
201209031653 SPECI KPAE 031653Z 35004KT 1/4SM R16R/4000VP6000FT FG VV002 12/11 A3020 RMK AO2 SLP226 T01220111=
201209031653 METAR KPAE 031653Z 35004KT 1/4SM R16R/4000VP6000FT FG VV002 12/11 A3020 RMK AO2 SLP226 T01220111=
201209031631 SPECI KPAE 031631Z 36003KT 1/4SM R16R/1000V5000FT FG VV002 12/11 A3020 RMK AO2=
201209031621 SPECI KPAE 031621Z 36004KT 1/4SM R16R/1000V2200FT FG VV002 12/11 A3020 RMK AO2=
201209031553 METAR KPAE 031553Z 34003KT 1/4SM R16R/1200V5000FT FG OVC002 12/11 A3019 RMK AO2 SLP224 T01170111=
201209031533 SPECI KPAE 031533Z VRB03KT 1/2SM R16R/1200VP6000FT FG VV002 12/11 A3019 RMK AO2 VIS M1/4V2=
201209031453 METAR KPAE 031453Z 36004KT M1/4SM R16R/1000V1400FT FG VV001 12/11 A3018 RMK AO2 SLP221 T01170111 53005=
201209031425 SPECI KPAE 031425Z 34003KT M1/4SM R16R/0700V1600FT FG VV001 12/11 A3018 RMK AO2=
201209031411 SPECI KPAE 031411Z 00000KT 1/4SM R16R/1400V3000FT FG VV001 12/11 A3017 RMK AO2=
201209031353 METAR KPAE 031353Z 35004KT 1/4SM R16R/1200V1400FT FG VV001 12/11 A3017 RMK AO2 SLP215 T01170111=
201209031325 SPECI KPAE 031325Z VRB04KT 1/4SM R16R/1200V1600FT FG VV001 12/11 A3017 RMK AO2=
201209031318 SPECI KPAE 031318Z VRB04KT 1/4SM R16R/1200V2400FT FG VV001 12/11 A3017 RMK AO2=
201209031253 METAR KPAE 031253Z 35004KT 1/2SM R16R/2000VP6000FT FG VV001 12/11 A3017 RMK AO2 SLP214 T01170111=
201209031250 SPECI KPAE 031250Z 35004KT 1/2SM R16R/2000VP6000FT FG VV001 12/11 A3017 RMK AO2=
201209031241 SPECI KPAE 031241Z 35006KT 1 1/2SM R16R/4000VP6000FT BR OVC001 12/11 A3017 RMK AO2=
201209031153 METAR KPAE 031153Z 35005KT 6SM BR OVC001 12/11 A3017 RMK AO2 SLP214 T01220111 10133 20122 53003=
201209031122 SPECI KPAE 031122Z 35005KT 5SM R16R/5500VP6000FT BR OVC001 12/11 A3016 RMK AO2=
201209031113 SPECI KPAE 031113Z 36006KT 2 1/2SM R16R/3000VP6000FT BR OVC001 12/11 A3016 RMK AO2 VIS 1 3/4V3=
201209031053 METAR KPAE 031053Z 36004KT 1SM R16R/1400V4500FT BR VV001 12/11 A3016 RMK AO2 SLP212 T01220111=
201209031048 SPECI KPAE 031048Z 36005KT 1/2SM R16R/1400V2400FT FG VV001 12/12 A3016 RMK AO2=
201209031031 SPECI KPAE 031031Z 01005KT 1/2SM R16R/1000V2200FT FG VV001 12/12 A3016 RMK AO2=
201209031014 SPECI KPAE 031014Z 01006KT 3/4SM R16R/2200V5000FT BR VV001 13/12 A3016 RMK AO2=
201209031011 SPECI KPAE 031011Z 02006KT 1SM R16R/2200VP6000FT BR VV002 13/12 A3016 RMK AO2=
201209030953 METAR KPAE 030953Z VRB05KT 2SM R16R/3000VP6000FT BR OVC002 13/12 A3016 RMK AO2 VIS 1 1/2V3 SLP211 T01280117=
201209030903 SPECI KPAE 030903Z 36005KT 10SM BKN004 13/11 A3016 RMK AO2 CIG 002V007=
201209030853 METAR KPAE 030853Z VRB05KT 10SM BKN006 13/11 A3016 RMK AO2 CIG 003V008 SLP213 T01330106 56002=
201209030849 SPECI KPAE 030849Z 02006KT 10SM SCT006 13/11 A3016 RMK AO2=
201209030753 METAR KPAE 030753Z VRB04KT 10SM CLR 13/11 A3016 RMK AO2 SLP213 T01330106 402060106=
201209030653 METAR KPAE 030653Z VRB03KT 10SM CLR 13/10 A3017 RMK AO2 SLP214 T01330100=
201209030553 METAR KPAE 030553Z VRB05KT 10SM CLR 13/10 A3016 RMK AO2 SLP213 T01330100 10206 20133 51002=
201209030453 METAR KPAE 030453Z 36003KT 10SM CLR 14/09 A3016 RMK AO2 SLP213 T01390094=
201209030353 METAR KPAE 030353Z 34003KT 10SM CLR 15/09 A3016 RMK AO2 SLP213 T01500089=
201209030253 METAR KPAE 030253Z 00000KT 10SM FEW085 16/09 A3016 RMK AO2 SLP212 T01610089 56005=
201209030153 METAR KPAE 030153Z 35005KT 10SM FEW085 18/08 A3016 RMK AO2 SLP212 T01780078=
201209030053 METAR KPAE 030053Z VRB05KT 10SM CLR 19/08 A3017 RMK AO2 SLP214 T01940083=
201209022353 METAR KPAE 022353Z 36004KT 10SM CLR 20/08 A3017 RMK AO2 SLP216 T02000083 10200 20144 56006=
201209022253 METAR KPAE 022253Z 31005KT 10SM CLR 19/08 A3018 RMK AO2 SLP217 T01940078=
201209022153 METAR KPAE 022153Z 30004KT 10SM CLR 18/08 A3018 RMK AO2 SLP219 T01830083=
201209022053 METAR KPAE 022053Z 31004KT 10SM CLR 18/08 A3019 RMK AO2 SLP222 T01830083 58008=
201209021953 METAR KPAE 021953Z 25004KT 10SM SCT030 17/09 A3020 RMK AO2 SLP227 T01720089=
201209021853 METAR KPAE 021853Z 00000KT 10SM BKN022 BKN030 17/09 A3021 RMK AO2 SLP230 T01670094=
201209021838 SPECI KPAE 021838Z 00000KT 10SM BKN030 16/09 A3021 RMK AO2=
201209021753 METAR KPAE 021753Z 31003KT 10SM BKN024 14/09 A3021 RMK AO2 SLP231 T01440089 10156 20106 52004=
201209021653 METAR KPAE 021653Z 16004KT 10SM FEW020 SCT029 14/09 A3021 RMK AO2 SLP229 T01440089=
201209021553 METAR KPAE 021553Z 00000KT 10SM SCT029 13/08 A3021 RMK AO2 SLP229 T01330083=
201209021453 METAR KPAE 021453Z 16003KT 10SM FEW031 BKN100 12/08 A3020 RMK AO2 SLP227 T01220083 53008=
201209021353 METAR KPAE 021353Z 11003KT 10SM SCT031 11/08 A3018 RMK AO2 SLP221 T01060083=
201209021253 METAR KPAE 021253Z AUTO 00000KT 10SM CLR 11/08 A3018 RMK AO2 SLP219 T01110078=
201209021153 METAR KPAE 021153Z AUTO VRB03KT 10SM OVC033 12/08 A3018 RMK AO2 SLP218 T01220083 10128 20111 53002=
201209021053 METAR KPAE 021053Z AUTO 00000KT 10SM OVC035 12/08 A3018 RMK AO2 SLP217 T01170083=
201209020953 METAR KPAE 020953Z AUTO VRB04KT 10SM OVC035 12/08 A3017 RMK AO2 SLP215 T01220083=
201209020853 METAR KPAE 020853Z AUTO 03004KT 10SM CLR 12/08 A3017 RMK AO2 SLP215 T01170083 52008=
201209020753 METAR KPAE 020753Z AUTO 01003KT 10SM CLR 12/08 A3016 RMK AO2 SLP213 T01170083 402110111=
201209020653 METAR KPAE 020653Z AUTO 02004KT 10SM CLR 12/08 A3015 RMK AO2 SLP210 T01220083=
201209020553 METAR KPAE 020553Z AUTO 06003KT 10SM CLR 13/08 A3015 RMK AO2 SLP209 T01280083 10194 20128 50001=
201209020453 METAR KPAE 020453Z AUTO 00000KT 10SM CLR 13/08 A3015 RMK AO2 SLP210 T01280083=
201209020353 METAR KPAE 020353Z VRB05KT 10SM CLR 13/09 A3015 RMK AO2 SLP209 T01280089=
201209020253 METAR KPAE 020253Z 35006KT 10SM CLR 13/09 A3014 RMK AO2 SLP207 T01330094 53006=
201209020153 METAR KPAE 020153Z 36007KT 10SM CLR 14/09 A3013 RMK AO2 SLP204 T01440094=
201209020053 METAR KPAE 020053Z 36007KT 10SM CLR 17/09 A3013 RMK AO2 SLP202 T01720094=
201209012353 METAR KPAE 012353Z 36007KT 10SM CLR 19/09 A3012 RMK AO2 SLP200 T01940094 10211 20156 56004=
201209012253 METAR KPAE 012253Z 26007KT 10SM CLR 21/07 A3012 RMK AO2 SLP200 T02060067=
201209012153 METAR KPAE 012153Z 25008KT 10SM CLR 20/08 A3013 RMK AO2 SLP202 T02000078=
201209012053 METAR KPAE 012053Z 25007G17KT 10SM CLR 19/08 A3014 RMK AO2 SLP204 T01890083 58001=
201209011953 METAR KPAE 011953Z 25006KT 10SM CLR 18/09 A3014 RMK AO2 SLP204 T01780094=
201209011853 METAR KPAE 011853Z 26006KT 10SM FEW020 17/11 A3014 RMK AO2 SLP206 T01720106=
201209011753 METAR KPAE 011753Z 28005KT 10SM CLR 16/11 A3014 RMK AO2 SLP207 T01560106 10161 20111 51012=
201209011653 METAR KPAE 011653Z 16004KT 10SM CLR 16/09 A3013 RMK AO2 SLP203 T01560094=
201209011553 METAR KPAE 011553Z 17006KT 10SM CLR 14/10 A3012 RMK AO2 SLP198 T01390100=
201209011453 METAR KPAE 011453Z 17004KT 10SM SCT055 12/09 A3011 RMK AO2 SLP194 T01220089 53014=
201209011353 METAR KPAE 011353Z 15003KT 10SM CLR 12/08 A3009 RMK AO2 SLP187 T01170078=
201209011253 METAR KPAE 011253Z AUTO 10003KT 10SM FEW070 11/08 A3007 RMK AO2 SLP181 T01110083=
201209011153 METAR KPAE 011153Z AUTO 11004KT 10SM CLR 12/08 A3006 RMK AO2 SLP179 T01170078 10133 20111 51010=
201209011053 METAR KPAE 011053Z AUTO 08003KT 10SM CLR 12/08 A3006 RMK AO2 SLP177 T01170078=
201209010953 METAR KPAE 010953Z AUTO 00000KT 10SM CLR 12/08 A3005 RMK AO2 SLP173 T01220078=
201209010853 METAR KPAE 010853Z AUTO 00000KT 10SM CLR 12/08 A3003 RMK AO2 SLP168 T01170078 53010=
201209010753 METAR KPAE 010753Z AUTO 07003KT 10SM CLR 13/08 A3001 RMK AO2 SLP162 T01330078 402000100=
201209010653 METAR KPAE 010653Z AUTO 00000KT 10SM CLR 13/08 A3001 RMK AO2 SLP160 T01330078 TSNO=
201209010553 METAR KPAE 010553Z AUTO 35004KT 10SM CLR 13/08 A3000 RMK AO2 SLP159 T01280083 10200 20122 51008 TSNO=
201209010453 METAR KPAE 010453Z 00000KT 10SM CLR 13/08 A3000 RMK AO2 SLP158 T01330078=
201209010353 METAR KPAE 010353Z 34005KT 10SM FEW075 14/09 A2999 RMK AO2 SLP155 T01440094=
201209010253 METAR KPAE 010253Z 35003KT 10SM BKN075 16/09 A2998 RMK AO2 SLP151 T01610089 53003=
201209010153 METAR KPAE 010153Z 35004KT 10SM FEW080 18/09 A2997 RMK AO2 SLP148 T01830089=
201209010053 METAR KPAE 010053Z 35005KT 10SM CLR 19/08 A2996 RMK AO2 SLP145 T01890078=

# No short TAF reports from KPAE in databse.

###################################
#  large TAF from KPAE
###################################
201209302320 TAF KPAE 302320Z 0100/0124 36006KT P6SM SCT250 FM010800 00000KT
                       P6SM BKN200 FM011600 22006KT P6SM BKN100
                       FM012300 28010KT P6SM VCSH BKN040 OVC080=
201209301720 TAF KPAE 301720Z 3018/0118 36005KT P6SM SCT200 FM010600 VRB03KT
                       P6SM BKN120 BKN200=
201209301443 KPAE 301443Z 3015/0112 VRB03KT P6SM VCFG SKC
                      TEMPO 3015/3017 2SM BR FM301700 33006KT P6SM
                       SCT200 FM010400 VRB04KT P6SM SCT120 BKN200=
201209301252 KPAE 301252Z 3013/0112 00000KT 1/4SM FG VV001 FM301700 33006KT
                       P6SM SCT200 FM010400 VRB04KT P6SM SCT120
                       BKN200=
201209301120 TAF KPAE 301120Z 3012/0112 VRB03KT 3SM BR SCT002 SCT200
                      TEMPO 3012/3016 1/2SM FG VV002 FM301700 33006KT
                       P6SM SCT200 FM010400 VRB04KT P6SM SCT120
                       BKN200=
201209301116 KPAE 301116Z 3011/0106 VRB04KT 3SM BR SCT002 SCT200
                      TEMPO 3011/3015 1/2SM FG VV002 FM301500 VRB03KT
                       4SM BR SCT005 SCT200 FM301600 33006KT P6SM
                       SCT200 FM010400 VRB04KT P6SM SCT120 BKN200=
201209300520 TAF KPAE 300520Z 3006/0106 VRB04KT P6SM SCT150 FM301200 04006KT
                       P6SM VCFG SCT002
                      TEMPO 3013/3016 2SM BR BKN002 FM301800 33006KT
                       P6SM SCT200 FM010400 VRB04KT P6SM SCT120
                       BKN200=
201209292320 TAF KPAE 292320Z 3000/3024 33007KT P6SM BKN150 FM300600 VRB03KT
                       P6SM SCT150 FM301200 04006KT P6SM VCFG SCT002
                       TEMPO 3013/3016 2SM BR BKN002 FM301800 33006KT
                       P6SM BKN200=
201209291724 TAF KPAE 291724Z 2918/3018 36006KT P6SM BKN040 FM292200 36008KT
                       P6SM SCT050 SCT200 FM300600 VRB03KT P6SM
                       BKN200 FM301200 04006KT P6SM VCFG SCT002
                       TEMPO 3013/3016 2SM BR BKN002=
201209291122 TAF KPAE 291122Z 2912/3012 35008G15KT P6SM SCT020 OVC035
                      TEMPO 2912/2916 BKN020 FM291600 34008KT P6SM
                       BKN040 BKN100 FM291800 34008KT P6SM SCT050
                       SCT200 FM300300 02006KT P6SM SKC=
201209290627 KPAE 290627Z 2906/3006 36005KT P6SM VCSH SCT012 BKN050 OVC100
                      TEMPO 2906/2910 BKN002 FM291000 34006KT P6SM
                       VCSH BKN025 BKN040 FM291700 35008KT P6SM
                       SCT040=
201209290520 TAF KPAE 290520Z 2906/3006 VRB03KT P6SM SCT100 BKN150 BKN250 FM290800
                       33005KT P6SM SCT025 BKN050 FM291000 34006KT
                       P6SM VCSH BKN025 BKN040 FM291700 35008KT
                       P6SM SCT040=
201209282320 TAF KPAE 282320Z 2900/2924 35005KT P6SM BKN150 BKN250 FM290600
                       30008KT P6SM VCSH SCT025 BKN050 FM291000
                       30006KT P6SM VCSH BKN025 BKN040 FM291700
                       33008KT P6SM SCT040=
201209281720 TAF KPAE 281720Z 2818/2918 VRB04KT P6SM BKN150 BKN250 FM290600
                       30008KT P6SM VCSH SCT025 BKN050 FM291000
                       30006KT P6SM VCSH BKN025 BKN040 FM291700
                       33008KT P6SM SCT040=
201209281122 TAF KPAE 281122Z 2812/2912 VRB03KT P6SM OVC200 FM281800 20004KT
                       P6SM BKN120 OVC150 FM282200 35004KT P6SM
                       SCT040 OVC090 FM290600 36006KT P6SM BKN040
                       OVC070=
201209280523 TAF KPAE 280523Z 2806/2906 35004KT P6SM SCT250 FM281600 20004KT
                       P6SM BKN100 OVC200 FM281700 23006KT P6SM
                       BKN035 OVC090=
201209272322 TAF KPAE 272322Z 2800/2824 35004KT P6SM FEW250 FM281600 20004KT
                       P6SM BKN100 OVC200 FM281700 23006KT P6SM
                       BKN035 OVC090=
201209271733 TAF KPAE 271733Z 2718/2818 00000KT P6SM SKC FM272300 VRB03KT P6SM
                       SCT250 FM281200 15003KT 2SM BR BKN250=
201209271239 KPAE 271239Z 2713/2812 00000KT P6SM VCFG SCT002
                      TEMPO 2713/2717 1/2SM FG VV001 FM271800 31006KT
                       P6SM SCT200 FM280300 35006KT P6SM SCT150
                       BKN200=
201209271127 TAF KPAE 271127Z 2712/2812 00000KT 4SM BR SCT002
                      TEMPO 2712/2716 1/2SM FG VV001 FM271800 31006KT
                       P6SM SCT200 FM280300 35006KT P6SM SCT150
                       BKN200=
201209271017 KPAE 271017Z 2710/2806 00000KT 1/2SM FG VV001 FM271700 VRB03KT
                       5SM BR SCT005 FM271900 31006KT P6SM SCT200=
201209270928 KPAE 270928Z 2709/2806 02003KT 2SM BR BKN001 FM271200 02003KT 1SM
                       BR BKN001 FM271700 VRB03KT 5SM BR SCT005
                       FM271900 31006KT P6SM SCT200=
201209270528 TAF KPAE 270528Z 2706/2806 34005KT P6SM SKC FM271200 02003KT 1SM
                       BR BKN005 FM271700 VRB03KT 5SM BR SCT005
                       FM271900 31006KT P6SM SCT200=
201209262336 TAF KPAE 262336Z 2700/2724 VRB03KT P6SM SCT005 SCT150 BKN250 FM270600
                       34005KT P6SM SKC FM271200 02003KT 1SM BR
                       BKN005 FM271700 VRB03KT 5SM BR SCT005 FM271900
                       31006KT P6SM SKC=
201209261948 KPAE 261948Z 2620/2718 VRB03KT P6SM SCT005 SCT250 FM270600 03005KT
                       P6SM SKC FM271200 VRB03KT 1SM BR BKN005
                       FM271700 VRB03KT 5SM BR SCT005=
201209261739 TAF KPAE 261739Z 2618/2718 VRB03KT 1/4SM FG VV001 FM261900 32003KT
                       1SM BR BKN002 FM262000 33005KT 5SM BR BKN005
                       FM262300 VRB03KT P6SM SCT005 SCT250 FM270600
                       03005KT P6SM SKC FM271200 VRB03KT 1SM BR
                       BKN005 FM271700 VRB03KT 5SM BR SCT005=
201209261703 KPAE 261703Z 2617/2712 00000KT 1/4SM FG VV001 FM262100 32003KT
                       2SM BR BKN005 FM262300 VRB03KT P6SM SCT005
                       SCT250 FM270600 03005KT P6SM SKC=
201209261436 KPAE 261436Z 2615/2712 00000KT 1/4SM FG VV001
                      TEMPO 2615/2617 4SM BR BKN002 FM261700 VRB03KT
                       P6SM SCT005 FM261800 35007KT P6SM SCT250
                       FM270600 03005KT P6SM SKC=
201209261310 KPAE 261310Z 2613/2712 00000KT 1/2SM FG VV001
                      TEMPO 2613/2616 4SM BR BKN002 FM261600 VRB03KT
                       P6SM SCT005 FM261700 35007KT P6SM SCT250
                       FM270600 03005KT P6SM SKC=
201209261120 TAF KPAE 261120Z 2612/2712 VRB03KT P6SM SCT200
                      TEMPO 2612/2615 SCT008 FM261800 35007KT P6SM
                       SCT200 FM270600 03005KT P6SM SKC=
201209260522 TAF KPAE 260522Z 2606/2706 01003KT P6SM SKC FM260800 02003KT P6SM
                       SCT035 FM261200 VRB03KT P6SM OVC015
                      TEMPO 2612/2615 1/2SM FG OVC002 FM261800
                       35006KT P6SM BKN035 FM262100 32008KT P6SM
                       SKC=
201209252325 TAF KPAE 252325Z 2600/2624 33003KT P6SM SKC FM260600 01003KT P6SM
                       FEW035 FM260800 02003KT P6SM BKN035 FM261200
                       VRB03KT P6SM OVC015
                      TEMPO 2612/2615 1/2SM FG OVC002 FM261800
                       35006KT P6SM BKN035 FM262100 32008KT P6SM
                       SKC=
201209251753 TAF KPAE 251753Z 2518/2618 VRB03KT 1SM BR OVC002 FM251900 31004KT
                       P6SM SCT010 BKN020 FM252100 32008KT P6SM
                       SCT035 FM260300 02003KT P6SM FEW035 FM261200
                       VRB03KT P6SM OVC015
                      TEMPO 2612/2615 1/2SM FG OVC002 FM261700
                       35006KT P6SM BKN020=
201209251502 KPAE 251502Z 2515/2612 VRB03KT 5SM BR OVC002
                      TEMPO 2515/2517 1/2SM FG VV002 FM251700 32006KT
                       P6SM SCT010 BKN025 FM251900 32008KT P6SM
                       SCT035 FM260300 VRB03KT P6SM FEW035 SCT120=
201209251120 TAF KPAE 251120Z 2512/2612 VRB03KT 5SM BR BKN002 BKN008
                      TEMPO 2512/2515 1/2SM FG VV002 FM251500 32004KT
                       P6SM BKN006 BKN028 FM251700 32006KT P6SM
                       FEW010 BKN030 FM251900 32008KT P6SM SCT035
                       FM260300 VRB03KT P6SM FEW035 SCT120=
201209250903 KPAE 250903Z 2509/2606 02004KT P6SM SCT002 OVC035
                      TEMPO 2509/2511 4SM BR OVC002 FM251100 VRB03KT
                       3SM BR OVC002
                      TEMPO 2511/2514 1/2SM FG VV002 FM251500 32004KT
                       P6SM BKN006 BKN028 FM251700 32006KT P6SM
                       BKN030 FM252000 32008KT P6SM SCT035 FM260300
                       VRB03KT P6SM FEW035=
201209250532 TAF KPAE 250532Z 2506/2606 35006KT P6SM BKN040 OVC070 FM251100
                       VRB03KT P6SM OVC015 FM251700 32006KT P6SM
                       SCT020 BKN035 FM252000 32008KT P6SM SCT035
                       FM260300 VRB03KT P6SM FEW035=
201209242328 TAF KPAE 242328Z 2500/2524 28006KT P6SM SCT045 BKN200 FM250300
                       VRB03KT P6SM SCT045 BKN100 OVC200 FM250600
                       VRB03KT P6SM BKN040 OVC070 FM251100 VRB03KT
                       P6SM OVC015 FM251700 32006KT P6SM SCT020
                       BKN035 FM252000 32008KT P6SM SCT035=
201209241751 TAF KPAE 241751Z 2418/2518 00000KT P6SM SKC FM241900 29004KT P6SM
                       SCT200 FM250600 34003KT P6SM BKN035 BKN120
                       FM250900 35004KT P6SM OVC020
                      TEMPO 2513/2515 3SM BR OVC002=
201209241120 TAF KPAE 241120Z 2412/2512 00000KT P6SM SKC FM241300 VRB03KT P6SM
                       SCT010
                      TEMPO 2413/2416 4SM BR BKN010 FM241800 29004KT
                       P6SM SCT200 FM250900 35003KT P6SM BKN035
                       BKN120=
201209240520 TAF KPAE 240520Z 2406/2506 00000KT P6SM SKC FM241300 VRB03KT P6SM
                       BKN010 FM241800 29004KT P6SM SCT200=
201209232320 TAF KPAE 232320Z 2400/2424 35005KT P6SM SKC FM240400 06003KT P6SM
                       SKC FM241300 VRB03KT P6SM BKN010 FM241800
                       29004KT P6SM SCT200=
201209231741 TAF KPAE 231741Z 2318/2418 31005KT P6SM SKC FM240400 06003KT P6SM
                       SKC FM241300 VRB03KT P6SM SCT010 FM241700
                       20004KT P6SM SCT250=
201209231549 KPAE 231549Z 2316/2412 VRB03KT P6SM SKC FM232100 31005KT P6SM SKC
                       FM240200 VRB02KT P6SM SKC=
201209231120 TAF KPAE 231120Z 2312/2412 00000KT P6SM VCFG SCT003
                      TEMPO 2314/2318 2SM BR BKN003 OVC035 FM231800
                       VRB03KT P6SM SCT035 SCT120 FM232100 31005KT
                       P6SM SCT120 FM240200 VRB02KT P6SM SKC=
201209230910 KPAE 230910Z 2309/2406 03004KT P6SM SCT005 BKN025
                      TEMPO 2314/2318 2SM BR BKN005 OVC025 FM231800
                       VRB03KT P6SM SCT025 SCT120 FM232100 31005KT
                       P6SM SCT120 FM240200 VRB02KT P6SM SKC=
201209230520 TAF KPAE 230520Z 2306/2406 00000KT P6SM FEW110 FM231200 00000KT
                       P6SM VCFG SCT002
                      TEMPO 2314/2318 1/2SM FG VV001 FM231800 VRB03KT
                       P6SM SCT025 SCT120 FM232100 31005KT P6SM
                       SCT120 FM240200 VRB02KT P6SM SKC=
201209222339 TAF KPAE 222339Z 2300/2324 VRB03KT P6SM SKC FM231200 00000KT P6SM
                       BKN012
                      TEMPO 2313/2316 2SM BR BKN003 BKN012 FM231800
                       VRB03KT P6SM SCT020 FM232100 31005KT P6SM
                       SCT250=
201209221803 KPAE 221803Z 2218/2318 VRB03KT P6SM SCT025 OVC035
                      TEMPO 2218/2221 BKN025 OVC035 FM222100 VRB03KT
                       P6SM BKN035 BKN080 FM222300 30003KT P6SM
                       BKN045 BKN100 FM230300 00000KT P6SM SCT050
                       SCT100 FM231200 00000KT P6SM BKN020=
201209221741 TAF KPAE 221741Z 2218/2318 VRB03KT P6SM OVC035 FM222100 VRB03KT
                       P6SM BKN035 BKN080 FM222300 30003KT P6SM
                       BKN045 BKN100 FM230300 00000KT P6SM SCT050
                       SCT100 FM231200 00000KT P6SM BKN020=
201209221639 KPAE 221639Z 2217/2312 VRB03KT P6SM OVC030 FM222000 VRB03KT P6SM
                       OVC028 FM222300 VRB03KT P6SM OVC030 FM230700
                       00000KT P6SM OVC020=
201209221435 KPAE 221435Z 2215/2312 00000KT 5SM BR SCT005 OVC020
                      TEMPO 2215/2217 2SM -DZ BR OVC003 FM221700
                       00000KT P6SM SCT005 OVC025
                      TEMPO 2217/2219 OVC005 FM222000 VRB03KT P6SM
                       OVC028 FM222300 VRB03KT P6SM OVC030 FM230700
                       00000KT P6SM OVC020=
201209221120 TAF KPAE 221120Z 2212/2312 00000KT 5SM BR SCT005 OVC009
                      TEMPO 2212/2216 2SM -DZ BR OVC003 FM221600
                       00000KT 5SM BR SCT005 OVC011
                      TEMPO 2216/2219 2SM -DZ BR OVC005 FM222000
                       VRB03KT P6SM OVC020 FM222300 VRB03KT P6SM
                       OVC030 FM230700 00000KT P6SM OVC020=
201209220942 KPAE 220942Z 2210/2306 00000KT 5SM BR SCT005 OVC012
                      TEMPO 2210/2214 2SM -DZ BR OVC005 FM221400
                       00000KT 5SM BR SCT005 OVC012
                      TEMPO 2214/2218 2SM -DZ BR OVC005 FM221900
                       VRB03KT P6SM OVC020 FM222200 VRB03KT P6SM
                       OVC030=
201209220811 KPAE 220811Z 2208/2306 00000KT 5SM BR FEW005 OVC013 FM221100 00000KT
                       5SM BR BKN009 OVC013
                      TEMPO 2212/2216 3SM -DZ BR OVC008 FM221900
                       VRB03KT P6SM OVC020 FM222200 VRB03KT P6SM
                       OVC030=
201209220603 KPAE 220603Z 2206/2306 00000KT 5SM BR SCT006 OVC014
                      TEMPO 2206/2210 3SM BR OVC006 FM221000 VRB03KT
                       P6SM OVC008
                      TEMPO 2210/2214 3SM -DZ BR OVC005 FM221900
                       VRB03KT P6SM OVC020 FM222200 VRB03KT P6SM
                       OVC030=
201209220520 TAF KPAE 220520Z 2206/2306 00000KT P6SM FEW008 BKN017 OVC030 FM221000
                       VRB03KT P6SM OVC008
                      TEMPO 2210/2214 3SM -DZ BR FM221900 VRB03KT
                       P6SM OVC020 FM222200 VRB03KT P6SM OVC030=
201209212322 TAF KPAE 212322Z 2200/2224 20004KT P6SM BKN012 OVC025
                      TEMPO 2200/2202 BKN005 BKN012 OVC025 FM220200
                       20004KT P6SM SCT012 OVC025 FM220900 VRB03KT
                       P6SM OVC008
                      TEMPO 2210/2214 3SM BR OVC004 FM221600 VRB03KT
                       P6SM OVC012 FM222200 33004KT P6SM OVC025=
201209212211 KPAE 212211Z 2122/2218 18004KT P6SM SCT006 OVC011
                      TEMPO 2122/2124 1SM -DZ BR BKN002 OVC006
                       FM220000 20004KT P6SM OVC012 FM220200 20004KT
                       P6SM OVC025 FM220900 VRB04KT P6SM OVC008=
201209212058 KPAE 212058Z 2121/2218 18004KT P6SM SCT006 OVC017
                      TEMPO 2121/2122 2SM -DZ BR BKN006 OVC012
                       FM212300 20004KT P6SM OVC020 FM220200 20004KT
                       P6SM OVC025 FM220900 VRB04KT P6SM OVC008=
201209212016 KPAE 212016Z 2120/2218 18006KT P6SM SCT008 OVC015
                      TEMPO 2120/2122 4SM -DZ BR BKN008 OVC012
                       FM212300 20004KT P6SM OVC020 FM220200 20004KT
                       P6SM OVC025 FM220900 VRB04KT P6SM OVC008=
201209211726 TAF KPAE 211726Z 2118/2218 18006KT P6SM OVC015 FM212100 19005KT
                       P6SM OVC020 FM212300 20004KT P6SM OVC025
                       FM220100 20004KT P6SM BKN035 FM220500 18004KT
                       P6SM OVC020 FM220900 VRB04KT P6SM OVC008=
201209211511 KPAE 211511Z 2115/2212 17006KT P6SM OVC010 FM211800 18005KT P6SM
                       OVC016 FM212000 19005KT P6SM OVC020 FM212200
                       20004KT P6SM OVC025 FM212300 20004KT P6SM
                       BKN030 FM220600 18004KT P6SM OVC020 FM220900
                       VRB04KT P6SM OVC008=
201209211120 TAF KPAE 211120Z 2112/2212 19006KT P6SM OVC006 FM212000 VRB03KT
                       P6SM OVC012 FM212200 23004KT P6SM BKN025
                       FM220300 18004KT P6SM OVC010 FM220900 VRB04KT
                       P6SM OVC008=
201209210901 KPAE 210901Z 2109/2206 16006KT P6SM OVC006 FM211200 VRB03KT 5SM
                       BR OVC004 FM212000 VRB03KT P6SM OVC012 FM212200
                       23004KT P6SM BKN025 FM220300 18004KT P6SM
                       OVC010=
201209210528 TAF KPAE 210528Z 2106/2206 00000KT P6SM SKC FM210700 VRB03KT P6SM
                       OVC004 FM211200 VRB03KT 2SM BR OVC002 FM212000
                       23004KT 6SM HZ OVC010 FM212200 23004KT P6SM
                       BKN025 FM220300 18004KT P6SM OVC010=
201209210302 TAF AMD KPAE 210302Z 2103/2124 VRB03KT P6SM SKC FM210700 VRB03KT
                       5SM BR OVC003 FM211200 VRB03KT 1SM BR OVC001
                       FM212000 23006KT 6SM HZ OVC010 FM212200
                       23006KT P6SM BKN025=
201209202320 TAF KPAE 202320Z 2100/2124 23006KT P6SM SKC FM210700 25006KT 4SM
                       BR OVC005
                      TEMPO 2110/2114 1/2SM FG VV002 FM211900 23006KT
                       6SM HZ OVC012 FM212000 23006KT P6SM BKN025
                       FM212200 VRB04KT P6SM SCT030 BKN120 BKN200=
201209201721 TAF KPAE 201721Z 2018/2118 VRB03KT 6SM HZ VCFG SCT001 FM202000
                       32005KT P6SM SKC FM210300 VRB04KT P6SM SKC
                       FM210900 20006KT 4SM BR OVC004
                      TEMPO 2110/2114 1/2SM FG VV002=
201209201527 KPAE 201527Z 2015/2112 00000KT 3SM BR SCT001
                      TEMPO 2015/2017 1/2SM FG BKN001 FM201700
                       33003KT 3SM BR BKN003 FM201830 33006KT P6SM
                       SKC FM210200 VRB03KT P6SM SKC FM210800 VRB03KT
                       3SM BR OVC003=
201209201120 TAF KPAE 201120Z 2012/2112 00000KT 1/4SM FG VV001 FM201700 33003KT
                       3SM BR BKN003 FM201830 33006KT P6SM SKC
                       FM210200 VRB03KT P6SM SKC FM210800 VRB03KT
                       3SM BR OVC003=
201209201014 KPAE 201014Z 2010/2106 00000KT 1/4SM FG VV001 FM201600 33003KT
                       3SM BR BKN003 FM201800 33006KT P6SM SKC=
201209200946 KPAE 200946Z 2010/2106 30003KT 3/4SM BR VV001 FM201100 30003KT
                       1/4SM FG VV001 FM201600 33003KT 3SM BR BKN003
                       FM201800 33006KT P6SM SKC=
201209200534 TAF KPAE 200534Z 2006/2106 01003KT P6SM SKC
                      TEMPO 2010/2012 4SM HZ FM201200 30005KT 2SM
                       BR SCT001
                      TEMPO 2013/2016 1/4SM FG VV001 FM201700 33004KT
                       P6SM SKC=
201209192320 TAF KPAE 192320Z 2000/2024 35005KT P6SM SKC FM200600 30005KT P6SM
                       SKC
                      TEMPO 2010/2012 4SM HZ FM201200 30005KT 2SM
                       BR BKN002
                      TEMPO 2013/2016 1/4SM FG VV001 FM201800 VRB04KT
                       P6SM SCT120 SCT200=
201209191727 TAF KPAE 191727Z 1918/2018 00000KT 5SM BR SCT003
                      TEMPO 1918/1920 2SM BR BKN002 FM192000 VRB04KT
                       P6SM SKC FM201200 20004KT 3SM BR BKN003
                       TEMPO 2012/2016 1/4SM FG VV001 FM201700
                       VRB04KT P6SM SCT120 SCT200=
201209191510 KPAE 191510Z 1915/2012 00000KT 3SM BR BKN003
                      TEMPO 1915/1917 1/4SM FG VV001 FM191800 VRB03KT
                       P6SM SKC=
201209191134 KPAE 191134Z 1912/2012 00000KT P6SM VCFG SKC
                      TEMPO 1913/1916 1/4SM FG VV001 FM191700 34005KT
                       P6SM SKC=
201209191120 TAF KPAE 191120Z 1912/2012 00000KT P6SM SKC FM191700 34005KT P6SM
                       SKC=
201209190532 TAF KPAE 190532Z 1906/2006 00000KT P6SM SKC FM192000 31006KT P6SM
                       SKC=
201209182320 TAF KPAE 182320Z 1900/1924 00000KT P6SM SKC FM190200 00000KT P6SM
                       SKC FM192000 31006KT P6SM SKC=
201209181721 TAF KPAE 181721Z 1818/1918 30006KT P6SM SKC FM190200 00000KT P6SM
                       SKC=
201209181120 TAF KPAE 181120Z 1812/1912 00000KT P6SM SKC FM181900 30006KT P6SM
                       SKC=
201209180522 TAF KPAE 180522Z 1806/1906 00000KT P6SM SKC FM181900 30006KT P6SM
                       SKC=
201209172320 TAF KPAE 172320Z 1800/1824 35005KT P6SM SKC FM180300 03004KT P6SM
                       SKC FM181900 30006KT P6SM SKC=
201209171731 TAF KPAE 171731Z 1718/1818 36006KT P6SM SKC FM171900 33006KT P6SM
                       SKC FM180300 03004KT P6SM SKC=
201209171120 TAF KPAE 171120Z 1712/1812 00000KT P6SM SKC FM171900 33006KT P6SM
                       SKC=
201209170520 TAF KPAE 170520Z 1706/1806 00000KT P6SM SKC FM171900 33006KT P6SM
                       SKC=
201209162320 TAF KPAE 162320Z 1700/1724 36006KT P6SM SKC FM170300 VRB03KT P6SM
                       SKC FM171900 33006KT P6SM SKC=
201209161814 KPAE 161814Z 1618/1718 36005KT P6SM FEW002 FM162000 34007KT P6SM
                       SKC FM170300 01003KT P6SM SKC=
201209161720 TAF KPAE 161720Z 1618/1718 36005KT P6SM SCT004
                      TEMPO 1618/1619 1SM BR BKN002 FM162000 34007KT
                       P6SM SKC FM170300 01003KT P6SM SKC=
201209161707 KPAE 161707Z 1617/1712 36004KT 3SM BR SCT002
                      TEMPO 1617/1618 1/2SM FG VV002 FM161800 33006KT
                       P6SM SKC=
201209161617 KPAE 161617Z 1616/1712 00000KT 4SM BR SCT002 SCT200
                      TEMPO 1616/1617 1/2SM FG VV002 FM161700 36004KT
                       P6SM FEW002
                      TEMPO 1617/1618 3SM BR BKN002 FM161800 33006KT
                       P6SM SKC=
201209161120 TAF KPAE 161120Z 1612/1712 00000KT P6SM SCT200 FM161800 33006KT
                       P6SM SKC=
201209160524 TAF KPAE 160524Z 1606/1706 00000KT P6SM SKC FM161800 33006KT P6SM
                       SKC=
201209152320 TAF KPAE 152320Z 1600/1624 35007KT P6SM BKN250 FM160300 VRB03KT
                       P6SM SCT250 FM161800 33006KT P6SM SKC=
201209151720 TAF KPAE 151720Z 1518/1618 28007KT P6SM BKN250 FM152200 35007KT
                       P6SM BKN250 FM160300 VRB03KT P6SM SCT250=
201209151120 TAF KPAE 151120Z 1512/1612 11003KT P6SM SKC
                      TEMPO 1512/1516 3SM BR FM151800 35007KT P6SM
                       SKC=
201209150520 TAF KPAE 150520Z 1506/1606 00000KT P6SM SCT250 FM151000 VRB03KT
                       P6SM SCT120 SCT250
                      TEMPO 1512/1516 3SM BR FM151800 35007KT P6SM
                       SKC=
201209142320 TAF KPAE 142320Z 1500/1524 34007KT P6SM SCT250 FM151000 VRB03KT
                       P6SM SCT120 SCT250
                      TEMPO 1512/1516 3SM BR FM151800 34007KT P6SM
                       SCT200=
201209141720 TAF KPAE 141720Z 1418/1518 34006KT P6SM SCT100 SCT250 FM151200
                       26006KT 5SM BR SCT002
                      TEMPO 1512/1516 2SM BR BKN002 FM151700 VRB03KT
                       P6SM SCT010 BKN200=
201209141120 TAF KPAE 141120Z 1412/1512 VRB03KT P6SM SKC FM141800 31006KT P6SM
                       SCT250 FM150100 VRB03KT P6SM SCT250 FM150900
                       VRB03KT 2SM BR SCT002
                      TEMPO 1510/1512 1/2SM FG VV001=
201209140520 TAF KPAE 140520Z 1406/1506 VRB03KT P6SM SCT250 FM141800 31006KT
                       P6SM SCT250 FM150100 VRB03KT P6SM SCT250=
201209140308 KPAE 140308Z 1403/1424 VRB03KT P6SM BKN250 FM141200 00000KT P6SM
                       VCFG SCT001 FM141700 30004KT P6SM SKC FM142000
                       34005KT P6SM SKC=
201209132320 TAF KPAE 132320Z 1400/1424 35005KT P6SM SCT070 FM140200 VRB03KT
                       P6SM SKC FM141200 00000KT P6SM VCFG SCT001
                       FM141700 30004KT P6SM SKC FM142000 34005KT
                       P6SM SKC=
201209131720 TAF KPAE 131720Z 1318/1418 01005KT P6SM SCT050 FM132000 32005KT
                       P6SM SCT070 FM140200 VRB03KT P6SM SKC FM141200
                       00000KT P6SM VCFG SCT001 FM141700 30004KT
                       P6SM SKC=
201209131131 TAF KPAE 131131Z 1312/1412 VRB03KT P6SM BKN040 FM131700 VRB03KT
                       P6SM SCT050
                      TEMPO 1317/1319 BKN050 FM132000 32005KT P6SM
                       SCT070 FM140200 VRB03KT P6SM SKC=
201209130752 KPAE 130752Z 1308/1406 VRB03KT P6SM BKN045 FM132000 32005KT P6SM
                       FEW070 FM140200 VRB03KT P6SM SKC=
201209130521 TAF KPAE 130521Z 1306/1406 VRB03KT P6SM SKC FM132000 32005KT P6SM
                       SKC FM140200 VRB03KT P6SM SKC=
201209122320 TAF KPAE 122320Z 1300/1324 35008KT P6SM SKC FM130200 36005KT P6SM
                       SKC FM130800 VRB03KT P6SM SKC FM131800 35006KT
                       P6SM SKC=
201209121721 TAF KPAE 121721Z 1218/1318 35007KT P6SM SKC FM130200 02004KT P6SM
                       SKC=
201209121213 TAF KPAE 121213Z 1212/1312 VRB03KT P6SM SKC FM121800 35007KT P6SM
                       SKC FM130200 02004KT P6SM SKC=
201209120525 TAF KPAE 120525Z 1206/1306 VRB03KT P6SM SKC FM121800 35007KT P6SM
                       SKC FM130200 02004KT P6SM SKC=
201209120307 KPAE 120307Z 1203/1224 36004KT P6SM SKC FM121800 35007KT P6SM SKC=
201209112320 TAF KPAE 112320Z 1200/1224 36007KT P6SM SKC FM120600 02004KT P6SM
                       SKC FM121800 35007KT P6SM SKC=
201209111721 TAF KPAE 111721Z 1118/1218 35007KT P6SM SKC FM120200 36004KT P6SM
                       SKC=
201209111127 TAF KPAE 111127Z 1112/1212 VRB03KT P6SM SCT009 OVC022 FM111700
                       35005KT P6SM SCT025 FM111800 33007KT P6SM
                       SKC FM120200 36004KT P6SM SKC=
201209111058 KPAE 111058Z 1111/1206 VRB03KT P6SM FEW015 BKN022 FM111700 VRB03KT
                       P6SM SCT022 BKN035 FM111800 33007KT P6SM
                       FEW035 FM120200 35004KT P6SM SKC=
201209111037 KPAE 111037Z 1111/1206 VRB03KT P6SM BKN035 FM111200 VRB03KT P6SM
                       SCT022 BKN035 FM111800 33007KT P6SM FEW035
                       FM120200 35004KT P6SM SKC=
201209110546 TAF KPAE 110546Z 1106/1206 02005KT P6SM SCT045 FM110900 VRB03KT
                       P6SM SKC FM111200 VRB03KT P6SM SCT009 FM111800
                       33007KT P6SM SKC FM120200 35004KT P6SM SKC=
201209110255 KPAE 110255Z 1103/1124 35004KT P6SM BKN050 FM110600 VRB03KT P6SM
                       SCT050 FM111200 VRB03KT P6SM VCFG SCT005
                       TEMPO 1112/1116 3SM BR BKN003 FM111700 33007KT
                       P6SM SCT030=
201209102320 TAF KPAE 102320Z 1100/1124 33006KT P6SM SCT040 FM111200 VRB03KT
                       P6SM VCFG SCT005
                      TEMPO 1112/1116 3SM BR BKN003 FM111700 33007KT
                       P6SM SCT030=
201209101720 TAF KPAE 101720Z 1018/1118 22006KT P6SM SCT040 FM102100 VRB04KT
                       P6SM BKN050 FM110000 33006KT P6SM SCT050
                       FM111200 VRB03KT P6SM VCFG SCT005
                      TEMPO 1112/1116 3SM BR BKN003 FM111700 33007KT
                       P6SM SCT030=
201209101640 KPAE 101640Z 1017/1112 19007KT P6SM VCSH BKN020 BKN050 FM101900
                       VRB05KT P6SM SCT035 BKN050 FM110000 34008KT
                       P6SM SCT050=
201209101145 TAF KPAE 101145Z 1012/1112 34008KT P6SM SCT022 OVC035
                      TEMPO 1012/1015 5SM -RA BKN022 OVC035 FM101900
                       34008KT P6SM SCT035 BKN050 FM110000 34008KT
                       P6SM SCT050=
201209100916 KPAE 100916Z 1009/1106 34008KT 5SM -RA SCT006 OVC015
                      TEMPO 1009/1013 2SM -RA BKN006 OVC015 FM101300
                       34008KT P6SM BKN015 OVC030 FM101700 34008KT
                       P6SM SCT025 BKN040 FM102000 34008KT P6SM
                       BKN050 FM110200 34008KT P6SM SCT050=
201209100541 TAF KPAE 100541Z 1006/1106 18012G22KT P6SM -RA BKN015 OVC035 FM100900
                       VRB03KT P6SM SCT012 BKN022 OVC040 FM101500
                       VRB03KT P6SM SCT025 BKN040 FM101900 18008KT
                       P6SM BKN040 FM110200 VRB03KT P6SM SCT045=
201209092359 KPAE 092359Z 1000/1024 18012G22KT P6SM VCSH BKN025 OVC030 FM100500
                       18012G22KT P6SM VCSH SCT025 OVC030 FM100800
                       18012G22KT P6SM -RA SCT018 OVC022
                      TEMPO 1009/1012 33010KT FM101200 VRB05KT
                       P6SM -SHRA SCT025 BKN040 FM101500 18008KT
                       P6SM BKN040=
201209092320 TAF KPAE 092320Z 1000/1024 18010KT P6SM VCSH BKN025 OVC030 FM100500
                       18012G18KT P6SM VCSH SCT025 OVC030 FM100800
                       18012G18KT P6SM -RA SCT018 OVC022
                      TEMPO 1009/1012 33010KT FM101200 VRB05KT
                       P6SM -SHRA SCT025 BKN040 FM101500 18008KT
                       P6SM BKN040=
201209092015 KPAE 092015Z 0920/1018 18010KT P6SM BKN025 OVC030 FM100600 18012G18KT
                       P6SM SCT025 OVC030 FM100900 18012G18KT P6SM
                       -RA OVC025
                      TEMPO 1009/1012 33010KT FM101200 18012KT
                       P6SM -SHRA SCT025 BKN040 FM101500 18012KT
                       P6SM BKN040=
201209091725 TAF KPAE 091725Z 0918/1018 18010KT P6SM BKN025 OVC030 FM092000
                       18012KT P6SM OVC040 FM100600 18012G18KT
                       P6SM SCT025 OVC030 FM100900 18012G18KT P6SM
                       -RA OVC025
                      TEMPO 1009/1012 33010KT FM101200 18012KT
                       P6SM -SHRA SCT025 BKN040 FM101500 18012KT
                       P6SM BKN040=
201209091139 TAF KPAE 091139Z 0912/1012 17010KT P6SM OVC025 FM092100 17010KT
                       P6SM OVC035 FM101000 15014KT P6SM -RA OVC025=
201209090536 TAF KPAE 090536Z 0906/1006 VRB03KT P6SM BKN150 FM090900 VRB03KT
                       P6SM OVC012 FM091800 18012KT P6SM OVC022=
201209082320 TAF KPAE 082320Z 0900/0924 25007KT P6SM FEW150 SCT200 FM091000
                       18008KT P6SM OVC004 FM091800 18012G20KT
                       P6SM OVC011=
201209081720 TAF KPAE 081720Z 0818/0918 VRB03KT P6SM FEW120 FEW200 FM091200
                       18008KT P6SM OVC004 FM091700 18012KT P6SM
                       OVC011=
201209081134 TAF KPAE 081134Z 0812/0912 VRB03KT P6SM SKC FM090900 18008KT P6SM
                       OVC004=
201209080536 TAF KPAE 080536Z 0806/0906 35004KT P6SM SKC=
201209072320 TAF KPAE 072320Z 0800/0824 35008KT P6SM SKC FM080700 03004KT P6SM
                       SKC=
201209071720 TAF KPAE 071720Z 0718/0818 04003KT P6SM SKC FM071900 35005KT P6SM
                       SKC FM080700 03004KT P6SM SKC=
201209071127 TAF KPAE 071127Z 0712/0812 VRB03KT P6SM SKC=
201209070522 TAF KPAE 070522Z 0706/0806 VRB03KT P6SM SKC=
201209062320 TAF KPAE 062320Z 0700/0724 36006KT P6SM SKC FM070400 VRB03KT P6SM
                       SKC=
201209061720 TAF KPAE 061720Z 0618/0718 35006KT P6SM SKC FM070400 VRB03KT P6SM
                       SKC=
201209061126 TAF KPAE 061126Z 0612/0712 36008KT P6SM SKC=
201209060532 TAF KPAE 060532Z 0606/0706 00000KT P6SM SKC FM062000 34008KT P6SM
                       SKC=
201209052320 TAF KPAE 052320Z 0600/0624 31005KT P6SM SCT250 FM060400 VRB04KT
                       P6SM SKC FM062000 33006KT P6SM SKC=
201209051720 TAF KPAE 051720Z 0518/0618 VRB03KT P6SM SKC FM051900 33006KT P6SM
                       SKC FM060400 VRB04KT P6SM SKC=
201209051120 TAF KPAE 051120Z 0512/0612 00000KT P6SM SKC FM051600 33003KT P6SM
                       SCT010 FM051900 33006KT P6SM SKC FM060400
                       00000KT P6SM SKC=
201209050520 TAF KPAE 050520Z 0506/0606 00000KT P6SM SKC FM051600 33003KT P6SM
                       SCT010 FM051900 33006KT P6SM SKC FM060300
                       VRB03KT P6SM SKC=
201209042320 TAF KPAE 042320Z 0500/0524 34006KT P6SM SKC FM050400 02003KT P6SM
                       SKC FM051600 33003KT P6SM SCT010 FM051900
                       33006KT P6SM SKC=
201209041747 KPAE 041747Z 0418/0518 33005KT P6SM SCT010
                      TEMPO 0418/0419 BKN010 FM042000 34008KT P6SM
                       SKC FM050400 02003KT P6SM SKC=
201209041733 TAF KPAE 041733Z 0418/0518 33007KT P6SM SKC FM050400 02003KT P6SM
                       SKC=
201209041120 TAF KPAE 041120Z 0412/0512 00000KT P6SM SKC FM042100 34007KT P6SM
                       SKC FM050400 02004KT P6SM SKC=
201209040520 TAF KPAE 040520Z 0406/0506 00000KT P6SM SKC FM041200 VRB03KT P6SM
                       SCT002
                      TEMPO 0412/0416 1SM BR BKN002 FM042100 34007KT
                       P6SM SKC=
201209032320 TAF KPAE 032320Z 0400/0424 35006KT P6SM SKC FM040500 03004KT P6SM
                       SKC FM041200 VRB03KT P6SM SCT002
                      TEMPO 0412/0416 1SM BR BKN002 FM042100 34007KT
                       P6SM SKC=
201209031739 TAF KPAE 031739Z 0318/0418 35004KT 1/2SM FG VV002
                      TEMPO 0318/0319 BKN004 FM031900 35007KT P6SM
                       SCT009 FM040500 03004KT P6SM SKC FM041200
                       VRB03KT 1/2SM FG BKN002 FM041600 VRB03KT
                       P6SM SCT005=
201209031338 KPAE 031338Z 0314/0412 36004KT 1/4SM FG VV001
                      TEMPO 0314/0317 3SM BR BKN002 FM031700 35004KT
                       P6SM BKN006 FM031900 33005KT P6SM SCT010
                       FM032000 33008KT P6SM SCT250 FM040200 35006KT
                       P6SM SKC=
201209031120 TAF KPAE 031120Z 0312/0412 36004KT 3/4SM BR VV001
                      TEMPO 0312/0316 3SM BR BKN002 FM031600 35004KT
                       P6SM BKN006 FM031800 33005KT P6SM SCT010
                       FM032000 33008KT P6SM SCT250 FM040200 35006KT
                       P6SM SKC=
201209031001 KPAE 031001Z 0310/0406 01005KT 4SM BR OVC004
                      TEMPO 0310/0314 1SM BR OVC002 FM031700 33005KT
                       P6SM SCT010 FM032000 33008KT P6SM SCT250
                       FM040200 35006KT P6SM SKC=
201209030900 KPAE 030900Z 0309/0406 01005KT P6SM BKN006
                      TEMPO 0311/0315 3SM BR OVC003 FM031700 33005KT
                       P6SM SCT010 FM032000 33008KT P6SM SCT250
                       FM040200 35006KT P6SM SKC=
201209030523 TAF KPAE 030523Z 0306/0406 01004KT P6SM SCT250 FM031000 36003KT
                       P6SM SCT025
                      TEMPO 0313/0317 BKN025 FM032000 33008KT P6SM
                       SCT250 FM040200 35006KT P6SM SKC=
201209022332 TAF KPAE 022332Z 0300/0324 31006KT P6SM FEW200 FM030500 01004KT
                       P6SM SKC FM031000 36003KT P6SM SCT015
                      TEMPO 0313/0317 BKN015 FM032000 33008KT P6SM
                       FEW035=
201209021749 TAF KPAE 021749Z 0218/0318 16004KT P6SM SCT025 SCT100 BKN200 FM022100
                       31006KT P6SM SCT090 SCT150 FM030100 36004KT
                       P6SM SCT120 FM031000 36003KT P6SM SCT018
                       TEMPO 0313/0317 BKN018=
201209021120 TAF KPAE 021120Z 0212/0312 VRB04KT P6SM SCT035 SCT200
                      TEMPO 0212/0216 BKN035 BKN200 FM021600 VRB03KT
                       P6SM SCT040 BKN100 FM022100 31006KT P6SM
                       SCT090 SCT150 FM030100 36005KT P6SM SCT250=
201209020527 TAF KPAE 020527Z 0206/0306 00000KT P6SM FEW040 SCT100 FM021100
                       VRB03KT P6SM SCT010 SCT090
                      TEMPO 0213/0216 BKN010 FM021900 VRB04KT P6SM
                       SCT020 SCT080 FM022100 31006KT P6SM FEW090
                       SCT200 FM030100 36005KT P6SM SCT250=
201209012320 TAF KPAE 012320Z 0200/0224 33006KT P6SM SKC FM020600 VRB03KT P6SM
                       FEW200 FM021100 VRB03KT P6SM SCT010 BKN080
                       TEMPO 0213/0216 BKN010 FM021900 VRB04KT
                       P6SM SCT020 SCT080=
201209011741 TAF KPAE 011741Z 0118/0218 16004KT P6SM SKC FM020000 34004KT P6SM
                       SKC FM020600 VRB03KT P6SM SKC FM021200 VRB03KT
                       P6SM SCT010
                      TEMPO 0213/0216 BKN010=
201209011120 TAF KPAE 011120Z 0112/0212 VRB03KT P6SM SKC FM011400 VRB03KT P6SM
                       SCT015 FM011800 34006KT P6SM SCT035 FM020200
                       01004KT P6SM SKC=
201209010528 TAF KPAE 010528Z 0106/0206 00000KT P6SM SKC FM011400 VRB03KT P6SM
                       SCT015 FM011800 34006KT P6SM SCT035 FM020200
                       01004KT P6SM SKC=