##########################################################
# Query made at 02/15/2025 20:48:09 UTC
# Time interval: from 07/01/2013 00:00  to 07/31/2013 23:59  UTC
##########################################################

##########################################################
# KPAE, Everett, Snohomish County Airport (United States)
# WMO index: -----. WIGOS ID: Unknown
# Latitude 47-55-23N. Longitude 122-16-57W. Altitude 184 m.
##########################################################

###################################
#  METAR/SPECI from KPAE
###################################
201307312353 METAR KPAE 312353Z 23006KT 10SM CLR 19/13 A3006 RMK AO2 SLP178 T01940128 10194 20133 56007=
201307312253 METAR KPAE 312253Z 26006KT 10SM CLR 18/13 A3006=
201307312153 METAR KPAE 312153Z 24007KT 10SM CLR 18/13 A3007 RMK AO2 SLP181 T01830128=
201307312053 METAR KPAE 312053Z 24005KT 8SM FEW005 16/13 A3008 RMK AO2 SLP185 T01610128 56012=
201307312032 SPECI KPAE 312032Z 25003KT 8SM SCT005 16/13 A3008 RMK AO2=
201307312000 SPECI KPAE 312000Z 23005KT 3SM R16R/5500VP6000FT BR OVC004 15/13 A3009 RMK AO2=
201307311953 METAR KPAE 311953Z 25005KT 1/2SM R16R/6000VP6000FT FG OVC004 15/13 A3009 RMK AO2 SLP191 T01500128=
201307311922 SPECI KPAE 311922Z 28004KT 1/2SM R16R/2600VP6000FT FG OVC002 14/13 A3010 RMK AO2=
201307311909 SPECI KPAE 311909Z 29003KT 2SM R16R/3500VP6000FT BR OVC002 14/13 A3010 RMK AO2=
201307311900 SPECI KPAE 311900Z 00000KT 1/2SM R16R/1400VP6000FT FG VV002 14/13 A3010 RMK AO2=
201307311850 METAR KPAE 311850Z 32003KT 1/4SM R16R/0700V1200FT FG VV002 13/12 A3010=
201307311849 SPECI KPAE 311849Z 32003KT 1/4SM R16R/0700V2200FT FG VV002 13/13 A3010 RMK AO2=
201307311840 SPECI KPAE 311840Z 28003KT 1/2SM R16R/1000V3500FT FG OVC002 13/12 A3010 RMK AO2=
201307311819 SPECI KPAE 311819Z 29003KT 1 1/2SM R16R/3000VP6000FT BR OVC002 14/12 A3011 RMK AO2=
201307311812 SPECI KPAE 311812Z 31003KT 2SM R16R/3000VP6000FT BR OVC002 14/12 A3011 RMK AO2=
201307311753 METAR KPAE 311753Z 26003KT 4SM BR OVC002 14/13 A3012 RMK AO2 SLP198 T01390128 10139 20122 58007 $=
201307311724 SPECI KPAE 311724Z 00000KT 3SM R16R/1600V5000FT BR OVC002 13/12 A3013 RMK AO2 $=
201307311717 SPECI KPAE 311717Z 00000KT 1SM R16R/1200V3000FT BR VV002 13/12 A3013 RMK AO2 $=
201307311710 SPECI KPAE 311710Z 00000KT 1/4SM R16R/1200V3000FT FG VV002 13/12 A3013 RMK AO2 $=
201307311653 METAR KPAE 311653Z 27003KT M1/4SM R16R/0800V1200FT FG VV002 13/12 A3013 RMK AO2 SLP203 T01330122 $=
201307311646 SPECI KPAE 311646Z 28003KT M1/4SM R16R/0600V1200FT FG VV001 13/12 A3013 RMK AO2 $=
201307311643 SPECI KPAE 311643Z 29004KT 3/4SM R16R/0600V1200FT BR VV002 13/12 A3013 RMK AO2 $=
201307311600 SPECI KPAE 311600Z 00000KT 3/4SM R16R/3500VP6000FT BR OVC002 13/12 A3014 RMK AO2 $=
201307311553 METAR KPAE 311553Z 22003KT 1SM R16R/3500VP6000FT BR OVC002 13/12 A3014 RMK AO2 SLP204 T01330122 $=
201307311453 METAR KPAE 311453Z 22003KT 1SM R16R/4000VP6000FT BR OVC002 13/12 A3014=
201307311433 SPECI KPAE 311433Z 00000KT 1SM R16R/6000VP6000FT BR OVC002 13/12 A3014 RMK AO2 $=
201307311407 SPECI KPAE 311407Z 00000KT M1/4SM R16R/1400V2600FT FG VV002 13/12 A3013 RMK AO2 $=
201307311353 METAR KPAE 311353Z 00000KT M1/4SM R16R/1600V2000FT FG VV002 13/12 A3013 RMK AO2 SLP202 T01280122 $=
201307311321 SPECI KPAE 311321Z AUTO 00000KT 1/4SM R16R/2200V4500FT FG VV002 13/12 A3013 RMK AO2 $=
201307311311 SPECI KPAE 311311Z AUTO 00000KT M1/4SM R16R/0800V3500FT FG VV001 13/12 A3013 RMK AO2 $=
201307311253 METAR KPAE 311253Z AUTO 00000KT 1/4SM R16R/0700V1400FT FG VV001 12/12 A3013 RMK AO2 SLP201 T01220117 $=
201307311200 SPECI KPAE 311200Z AUTO 00000KT 1/4SM R16R/1400V1600FT FG VV001 12/12 A3013 RMK AO2 $=
201307311153 METAR KPAE 311153Z AUTO 01003KT 1/4SM R16R/1400V2800FT FG VV002 13/12 A3013 RMK AO2 SLP199 T01280117 10144 20128 50001 $=
201307311150 SPECI KPAE 311150Z AUTO 36003KT 1/4SM R16R/1400V2800FT FG VV002 13/12 A3013 RMK AO2 $=
201307311140 SPECI KPAE 311140Z AUTO 00000KT 1/2SM R16R/2000V4000FT FG VV002 13/12 A3013 RMK AO2 $=
201307311105 SPECI KPAE 311105Z AUTO 00000KT 1/4SM R16R/3500VP6000FT FG VV002 13/12 A3013 RMK AO2 $=
201307311053 METAR KPAE 311053Z AUTO 31003KT 1 1/4SM R16R/3000VP6000FT BR OVC002 13/12 A3013 RMK AO2 VIS 3/4V2 SLP200 T01280122 $=
201307311042 SPECI KPAE 311042Z AUTO 06003KT 1SM R16R/1200VP6000FT BR VV002 13/12 A3012 RMK AO2 $=
201307311015 SPECI KPAE 311015Z AUTO 31004KT 1/4SM R16R/1800VP6000FT FG VV001 13/12 A3013 RMK AO2 $=
201307311008 SPECI KPAE 311008Z AUTO 04003KT 1/2SM R16R/4500VP6000FT FG VV001 13/12 A3013 RMK AO2 $=
201307310956 SPECI KPAE 310956Z AUTO 00000KT 1 3/4SM R16R/2000VP6000FT BR OVC002 13/12 A3012 RMK AO2 $=
201307310953 METAR KPAE 310953Z AUTO 00000KT 4SM R16R/2600VP6000FT BR OVC002 13/12 A3012 RMK AO2 SLP200 T01330122 $=
201307310925 SPECI KPAE 310925Z AUTO 00000KT 7SM BKN002 13/12 A3013 RMK AO2 $=
201307310853 METAR KPAE 310853Z AUTO 00000KT 10SM FEW002 13/12 A3013 RMK AO2 SLP200 T01330122 55001 $=
201307310753 METAR KPAE 310753Z AUTO 01003KT 10SM CLR 14/12 A3012 RMK AO2 SLP200 T01390122 402280128 $=
201307310700 METAR KPAE NIL=
201307310553 METAR KPAE 310553Z AUTO 01004KT 10SM FEW110 14/12 A3013 RMK AO2 SLP202 T01440122 10228 20144 51007 $=
201307310453 METAR KPAE 310453Z AUTO 01006KT 10SM BKN110 15/12 A3013 RMK AO2 SLP202 T01500117=
201307310353 METAR KPAE 310353Z AUTO 02004KT 10SM CLR 16/11 A3012 RMK AO2 SLP199 T01610111=
201307310253 METAR KPAE 310253Z 36003KT 10SM CLR 18/12 A3011 RMK AO2 SLP195 T01830122 55001=
201307310153 METAR KPAE 310153Z VRB03KT 10SM CLR 22/12 A3010 RMK AO2 SLP192 T02170122=
201307310053 METAR KPAE 310053Z 26007KT 10SM CLR 22/11 A3011 RMK AO2 SLP193 T02220111=
201307302353 METAR KPAE 302353Z 28008KT 10SM CLR 22/11 A3011 RMK AO2 SLP194 T02220111 10228 20150 56009=
201307302253 METAR KPAE 302253Z 24007KT 10SM CLR 22/12 A3012 RMK AO2 SLP196 T02170117=
201307302153 METAR KPAE 302153Z 24007KT 10SM CLR 21/12 A3013 RMK AO2 SLP201 T02060117=
201307302053 METAR KPAE 302053Z 23010KT 10SM CLR 20/12 A3014 RMK AO2 SLP203 T02000117 58004=
201307301953 METAR KPAE 301953Z 24008KT 10SM CLR 18/12 A3014 RMK AO2 SLP205 T01780117=
201307301853 METAR KPAE 301853Z 26009KT 10SM CLR 16/12 A3015 RMK AO2 SLP208 T01610117=
201307301753 METAR KPAE 301753Z 26008KT 10SM CLR 16/12 A3015 RMK AO2 SLP208 T01610117 10161 20128 51006=
201307301653 METAR KPAE 301653Z 28005KT 10SM FEW008 15/12 A3015 RMK AO2 SLP208 T01500117 $=
201307301602 SPECI KPAE 301602Z 27007KT 10SM SCT010 14/12 A3015 RMK AO2 $=
201307301553 METAR KPAE 301553Z 26005KT 10SM BKN003 14/12 A3015 RMK AO2 CIG 002V006 SLP207 T01390117 $=
201307301514 SPECI KPAE 301514Z 26004KT 6SM BR BKN003 BKN007 13/12 A3014 RMK AO2 $=
201307301453 METAR KPAE 301453Z 25005KT 9SM FEW008 13/12 A3013 RMK AO2 SLP202 FG BANK OVER THE WATER W OF PAE T01330117 51017 $=
201307301434 SPECI KPAE 301434Z 00000KT 9SM SCT100 13/12 A3012 RMK AO2 $=
201307301353 METAR KPAE 301353Z COR 00000KT 9SM FEW100 13/12 A3011 RMK FGBANK MIDCHANNEL AO2 SLP196 T01330117 $=
201307301312 SPECI KPAE 301312Z AUTO 21003KT 8SM SCT008 13/11 A3010 RMK AO2 $=
201307301253 METAR KPAE 301253Z AUTO 00000KT 8SM CLR 13/11 A3010 RMK AO2 SLP190 T01280111 $=
201307301153 METAR KPAE 301153Z AUTO 18003KT 10SM CLR 13/11 A3008 RMK AO2 SLP184 T01330111 10167 20128 53012 $=
201307301053 METAR KPAE 301053Z AUTO 23003KT 10SM CLR 14/12 A3006 RMK AO2 SLP178 T01390117 $=
201307300953 METAR KPAE 300953Z AUTO 00000KT 10SM CLR 16/11 A3005 RMK AO2 SLP174 T01610111 $=
201307300853 METAR KPAE 300853Z AUTO 00000KT 10SM CLR 16/11 A3004 RMK AO2 SLP171 T01610111 53007 $=
201307300753 METAR KPAE 300753Z AUTO 06003KT 10SM CLR 16/11 A3004 RMK AO2 SLP170 T01610111 402220133 $=
201307300653 METAR KPAE 300653Z AUTO 03005KT 10SM CLR 16/12 A3003 RMK AO2 SLP167 T01560117 $=
201307300553 METAR KPAE 300553Z AUTO 02004KT 10SM CLR 15/11 A3002 RMK AO2 SLP165 T01500111 10217 20150 53012 $=
201307300453 METAR KPAE 300453Z AUTO VRB03KT 10SM CLR 16/12 A3001 RMK AO2 SLP162 T01610117 $=
201307300353 METAR KPAE 300353Z AUTO 00000KT 10SM CLR 18/11 A3000 RMK AO2 SLP156 T01830111 $=
201307300253 METAR KPAE 300253Z 27004KT 10SM CLR 20/11 A2999 RMK AO2 SLP153 T02000106 53000 $=
201307300153 METAR KPAE 300153Z 24004KT 10SM CLR 21/11 A2998 RMK AO2 SLP152 T02060111 $=
201307300053 METAR KPAE 300053Z 26005KT 10SM CLR 22/11 A2999 RMK AO2 SLP152 T02170111 $=
201307292353 METAR KPAE 292353Z 27005KT 10SM CLR 21/11 A2999 RMK AO2 SLP153 T02110106 10222 20167 56007 $=
201307292253 METAR KPAE 292253Z 30006KT 10SM CLR 21/11 A2999 RMK AO2 SLP154 T02110106 $=
201307292153 METAR KPAE 292153Z 26006KT 10SM CLR 21/11 A3000 RMK AO2 SLP156 T02060106 $=
201307292053 METAR KPAE 292053Z VRB03KT 10SM CLR 19/11 A3001 RMK AO2 SLP160 T01940106 58004 $=
201307291953 METAR KPAE 291953Z 24006KT 10SM FEW023 18/11 A3001 RMK AO2 SLP161 T01830106 $=
201307291853 METAR KPAE 291853Z 16005KT 10SM OVC021 17/10 A3002 RMK AO2 SLP164 T01720100 $=
201307291753 METAR KPAE 291753Z 25006KT 10SM OVC019 16/10 A3002 RMK AO2 SLP164 T01560100 10156 20133 50000 $=
201307291653 METAR KPAE 291653Z 25004KT 10SM BKN017 OVC022 16/10 A3002 RMK AO2 SLP165 T01560100 $=
201307291553 METAR KPAE 291553Z 23006KT 10SM SCT013 OVC026 14/10 A3003 RMK AO2 SLP167 T01440100 $=
201307291453 METAR KPAE 291453Z 23005KT 10SM SCT026 OVC048 14/10 A3002 RMK AO2 SLP164 T01390100 53007 $=
201307291353 METAR KPAE 291353Z 21004KT 10SM OVC048 13/10 A3001 RMK AO2 SLP161 T01330100 $=
201307291253 METAR KPAE 291253Z AUTO 20004KT 10SM OVC050 13/10 A3000 RMK AO2 SLP159 T01330100 $=
201307291153 METAR KPAE 291153Z AUTO 20003KT 10SM SCT030 OVC055 13/10 A3000 RMK AO2 SLP158 T01330100 10156 20133 53001 $=
201307291053 METAR KPAE 291053Z AUTO 20006KT 10SM OVC060 14/10 A3000 RMK AO2 SLP156 T01390100 $=
201307290953 METAR KPAE 290953Z AUTO 19005KT 10SM OVC070 14/10 A3000 RMK AO2 SLP156 T01440100 $=
201307290853 METAR KPAE 290853Z AUTO 19008KT 10SM FEW050 OVC070 14/10 A3000 RMK AO2 SLP156 T01440100 50000 $=
201307290753 METAR KPAE 290753Z AUTO 17007KT 10SM SCT070 14/11 A3000 RMK AO2 SLP159 T01440106 402000117 $=
201307290653 METAR KPAE 290653Z AUTO 19006KT 10SM OVC070 15/11 A3000 RMK AO2 SLP158 T01500106 $=
201307290553 METAR KPAE 290553Z AUTO 19007KT 10SM CLR 16/11 A3000 RMK AO2 SLP156 T01560106 10200 20156 52006 $=
201307290453 METAR KPAE 290453Z AUTO 21008KT 10SM CLR 17/11 A2999 RMK AO2 SLP155 T01670106 $=
201307290353 METAR KPAE 290353Z 20007KT 10SM CLR 18/11 A2998 RMK AO2 SLP151 T01780106 $=
201307290253 METAR KPAE 290253Z 19007KT 10SM CLR 19/11 A2998 RMK AO2 SLP150 T01890111 56007 $=
201307290153 METAR KPAE 290153Z VRB06KT 10SM CLR 20/11 A2998 RMK AO2 SLP150 T02000111 $=
201307290053 METAR KPAE 290053Z 23008KT 10SM CLR 19/11 A2999 RMK AO2 SLP153 T01940111 $=
201307282353 METAR KPAE 282353Z 23010KT 10SM CLR 19/11 A3000 RMK AO2 SLP157 T01890111 10194 20139 58007 $=
201307282253 METAR KPAE 282253Z 25011KT 10SM CLR 18/11 A3001 RMK AO2 SLP161 T01830111 $=
201307282153 METAR KPAE 282153Z 24011KT 10SM CLR 18/11 A3001 RMK AO2 SLP162 T01780106 $=
201307282053 METAR KPAE 282053Z 24011KT 10SM CLR 17/11 A3002 RMK AO2 SLP165 T01720106 58006 $=
201307281953 METAR KPAE 281953Z 24012KT 10SM CLR 16/10 A3003 RMK AO2 SLP167 T01610100 $=
201307281853 METAR KPAE 281853Z 24008KT 10SM FEW009 SCT017 15/11 A3003 RMK AO2 SLP169 T01500106 $=
201307281843 SPECI KPAE 281843Z 25008KT 10SM SCT009 BKN017 15/11 A3003 RMK AO2 $=
201307281753 METAR KPAE 281753Z 24007KT 9SM OVC009 14/11 A3004 RMK AO2 SLP172 T01390106 10139 20117 51003 $=
201307281653 METAR KPAE 281653Z 24005KT 8SM OVC007 13/11 A3004 RMK AO2 CIG 005V009 SLP170 T01280106 $=
201307281553 METAR KPAE 281553Z 19004KT 4SM HZ OVC004 13/10 A3004 RMK AO2 SLP170 T01280100 $=
201307281530 SPECI KPAE 281530Z 17007KT 4SM BR OVC004 12/10 A3003 RMK AO2 $=
201307281453 METAR KPAE 281453Z 19006KT 8SM BKN006 13/11 A3003 RMK AO2 SLP168 T01280106 53006 $=
201307281427 SPECI KPAE 281427Z 18007KT 8SM BKN006 12/10 A3003 RMK AO2 $=
201307281353 METAR KPAE 281353Z 18007KT 10SM SCT003 13/10 A3002 RMK AO2 SLP163 T01280100 $=
201307281253 METAR KPAE 281253Z AUTO 19005KT 10SM CLR 13/10 A3001 RMK AO2 SLP161 T01280100 $=
201307281153 METAR KPAE 281153Z AUTO 20003KT 10SM CLR 13/11 A3001 RMK AO2 SLP160 T01280106 10156 20122 58001 $=
201307281053 METAR KPAE 281053Z AUTO 00000KT 10SM CLR 13/10 A3002 RMK AO2 SLP163 T01330100 $=
201307280953 METAR KPAE 280953Z AUTO 00000KT 10SM CLR 13/11 A3002 RMK AO2 SLP164 T01330106 $=
201307280853 METAR KPAE 280853Z AUTO 00000KT 10SM CLR 14/11 A3002 RMK AO2 SLP163 T01440106 56005 $=
201307280753 METAR KPAE 280753Z AUTO 00000KT 10SM CLR 15/10 A3002 RMK AO2 SLP164 T01500100 402330111 $=
201307280653 METAR KPAE 280653Z AUTO 02004KT 10SM CLR 15/09 A3002 RMK AO2 SLP165 T01500094 $=
201307280553 METAR KPAE 280553Z AUTO 36003KT 10SM CLR 14/10 A3003 RMK AO2 SLP168 T01440100 10233 20144 56000 $=
201307280453 METAR KPAE 280453Z AUTO 00000KT 10SM CLR 17/10 A3003 RMK AO2 SLP168 T01670100 $=
201307280353 METAR KPAE 280353Z AUTO 00000KT 10SM CLR 18/10 A3003 RMK AO2 SLP167 T01780100 $=
201307280253 METAR KPAE 280253Z 33003KT 10SM CLR 22/08 A3003 RMK AO2 SLP167 T02170083 56013 $=
201307280153 METAR KPAE 280153Z 36005KT 10SM CLR 23/08 A3004 RMK AO2 SLP171 T02280083 $=
201307280053 METAR KPAE 280053Z VRB04KT 10SM CLR 23/08 A3006 RMK AO2 SLP175 T02330078 $=
201307272353 METAR KPAE 272353Z VRB03KT 10SM CLR 22/07 A3007 RMK AO2 SLP181 T02220067 10228 20161 58017 $=
201307272253 METAR KPAE 272253Z 28007KT 10SM CLR 22/08 A3009 RMK AO2 SLP189 T02170083 $=
201307272153 METAR KPAE 272153Z 31005KT 10SM CLR 21/09 A3011 RMK AO2 SLP194 T02110094 $=
201307272053 METAR KPAE 272053Z 32005KT 10SM CLR 20/09 A3012 RMK AO2 SLP199 T02000094 58014 $=
201307271953 METAR KPAE 271953Z 28006KT 10SM CLR 19/09 A3013 RMK AO2 SLP203 T01890094 $=
201307271853 METAR KPAE 271853Z 27005KT 10SM CLR 18/10 A3015 RMK AO2 SLP210 T01830100 $=
201307271753 METAR KPAE 271753Z 27007KT 10SM CLR 16/11 A3016 RMK AO2 SLP213 T01610106 10161 20111 58003 $=
201307271653 METAR KPAE 271653Z 25006KT 10SM CLR 16/11 A3017 RMK AO2 SLP215 T01560106 $=
201307271553 METAR KPAE 271553Z 26003KT 10SM CLR 14/11 A3018 RMK AO2 SLP217 T01440106 $=
201307271453 METAR KPAE 271453Z 26004KT 10SM CLR 13/10 A3017 RMK AO2 SLP216 T01330100 50004 $=
201307271353 METAR KPAE 271353Z 00000KT 10SM CLR 13/10 A3017 RMK AO2 SLP216 T01330100 $=
201307271253 METAR KPAE 271253Z AUTO 00000KT 10SM CLR 12/09 A3016 RMK AO2 SLP210 T01220089 $=
201307271153 METAR KPAE 271153Z AUTO 00000KT 10SM CLR 12/09 A3016 RMK AO2 SLP210 T01170089 10150 20117 50001 $=
201307271053 METAR KPAE 271053Z AUTO 00000KT 10SM CLR 12/09 A3016 RMK AO2 SLP211 T01170094 $=
201307270953 METAR KPAE 270953Z AUTO 36004KT 10SM CLR 12/09 A3016 RMK AO2 SLP209 T01220094 $=
201307270853 METAR KPAE 270853Z AUTO 35005KT 10SM CLR 13/09 A3015 RMK AO2 SLP209 T01280094 51007 $=
201307270753 METAR KPAE 270753Z AUTO 36005KT 10SM CLR 13/09 A3015 RMK AO2 SLP207 T01330094 402560122 $=
201307270653 METAR KPAE 270653Z AUTO 35007G15KT 10SM CLR 14/09 A3014 RMK AO2 SLP207 T01390094 $=
201307270553 METAR KPAE 270553Z AUTO 36007G17KT 10SM CLR 15/08 A3013 RMK AO2 SLP203 T01500083 10244 20144 50007 $=
201307270453 METAR KPAE 270453Z AUTO 01006KT 10SM CLR 15/08 A3014 RMK AO2 SLP204 T01500083 $=
201307270353 METAR KPAE 270353Z AUTO 01010G19KT 10SM CLR 15/09 A3012 RMK AO2 SLP198 T01500089=
201307270253 METAR KPAE 270253Z 36013G23KT 10SM CLR 17/08 A3011 RMK AO2 SLP195 T01670083 56010=
201307270153 METAR KPAE 270153Z 35012G21KT 10SM CLR 19/09 A3012 RMK AO2 SLP198 T01890089=
201307270053 METAR KPAE 270053Z 36008KT 10SM CLR 23/08 A3013 RMK AO2 SLP200 T02280083=
201307262353 METAR KPAE 262353Z 36006KT 10SM CLR 24/08 A3014 RMK AO2 SLP205 T02440083 10256 20189 58004=
201307262253 METAR KPAE 262253Z 36006KT 10SM CLR 24/10 A3015 RMK AO2 SLP207 T02390100=
201307262153 METAR KPAE 262153Z 30006KT 10SM CLR 25/11 A3015 RMK AO2 SLP208 T02500111=
201307262053 METAR KPAE 262053Z 31005KT 10SM CLR 24/12 A3016 RMK AO2 SLP209 T02390117 56006=
201307261953 METAR KPAE 261953Z VRB06KT 10SM CLR 22/11 A3016 RMK AO2 SLP211 T02220111=
201307261853 METAR KPAE 261853Z 32004KT 10SM CLR 21/11 A3017 RMK AO2 SLP213 T02060106=
201307261753 METAR KPAE 261753Z 00000KT 10SM CLR 19/11 A3017 RMK AO2 SLP215 T01890106 10189 20122 50003=
201307261653 METAR KPAE 261653Z 00000KT 10SM CLR 17/10 A3017 RMK AO2 SLP217 T01670100=
201307261553 METAR KPAE 261553Z 00000KT 10SM CLR 16/11 A3017 RMK AO2 SLP216 T01560106 $=
201307261453 METAR KPAE 261453Z 34006KT 10SM CLR 13/10 A3016 RMK AO2 SLP213 T01330100 53008=
201307261353 METAR KPAE 261353Z 36004KT 10SM CLR 13/10 A3015 RMK AO2 SLP208 T01280100=
201307261253 METAR KPAE 261253Z AUTO 02004KT 10SM CLR 12/09 A3014 RMK AO2 SLP204 T01220094=
201307261153 METAR KPAE 261153Z AUTO 03005KT 10SM CLR 12/10 A3014 RMK AO2 SLP203 T01220100 10167 20122 51006=
201307261053 METAR KPAE 261053Z AUTO 02005KT 10SM CLR 13/11 A3013 RMK AO2 SLP202 T01330106=
201307260953 METAR KPAE 260953Z AUTO 03005KT 10SM CLR 13/11 A3013 RMK AO2 SLP199 T01330106=
201307260853 METAR KPAE 260853Z AUTO 02005KT 10SM CLR 14/10 A3012 RMK AO2 SLP197 T01390100 53004=
201307260753 METAR KPAE 260753Z AUTO 02007KT 10SM CLR 15/09 A3011 RMK AO2 SLP196 T01500094 402440117=
201307260653 METAR KPAE 260653Z AUTO 00000KT 10SM CLR 15/09 A3010 RMK AO2 SLP192 T01500094 $=
201307260553 METAR KPAE 260553Z AUTO 02007KT 10SM CLR 17/11 A3010 RMK AO2 SLP192 T01670106 10239 20161 51004=
201307260453 METAR KPAE 260453Z AUTO 03006KT 10SM CLR 17/11 A3010 RMK AO2 SLP191 T01670106=
201307260353 METAR KPAE 260353Z AUTO VRB05G14KT 10SM CLR 17/11 A3011 RMK AO2 SLP194 T01720111=
201307260253 METAR KPAE 260253Z 01006KT 10SM CLR 20/11 A3009 RMK AO2 SLP190 T02000111 58007=
201307260153 METAR KPAE 260153Z 36007G15KT 10SM CLR 22/11 A3010 RMK AO2 SLP191 T02170111=
201307260053 METAR KPAE 260053Z 01006KT 10SM CLR 23/11 A3011 RMK AO2 SLP194 T02280106=
201307252353 METAR KPAE 252353Z 36008KT 10SM CLR 23/11 A3012 RMK AO2 SLP196 T02280111 10244 20194 55005=
201307252253 METAR KPAE 252253Z VRB04KT 10SM CLR 24/12 A3011 RMK AO2 SLP196 T02440117=
201307252153 METAR KPAE 252153Z VRB06KT 10SM CLR 24/11 A3012 RMK AO2 SLP197 T02390111=
201307252053 METAR KPAE 252053Z 24004KT 10SM CLR 22/12 A3013 RMK AO2 SLP201 T02220117 51001=
201307251953 METAR KPAE 251953Z 27004KT 8SM CLR 21/12 A3013 RMK AO2 SLP201 T02110117=
201307251853 METAR KPAE 251853Z VRB04KT 10SM CLR 21/11 A3013 RMK AO2 SLP202 T02060111=
201307251753 METAR KPAE 251753Z 00000KT 10SM CLR 20/11 A3013 RMK AO2 SLP200 T02000106 10200 20117 51006=
201307251653 METAR KPAE 251653Z 01004KT 10SM CLR 18/10 A3012 RMK AO2 SLP199 T01830100=
201307251553 METAR KPAE 251553Z 05003KT 10SM CLR 16/11 A3012 RMK AO2 SLP199 T01610111=
201307251453 METAR KPAE 251453Z 02004KT 10SM CLR 14/11 A3011 RMK AO2 SLP194 T01440106 53011=
201307251353 METAR KPAE 251353Z 04004KT 10SM CLR 13/11 A3010 RMK AO2 SLP190 T01330106=
201307251331 SPECI KPAE 251331Z AUTO 00000KT 3SM R16R/4500VP6000FT BR SCT001 12/11 A3009 RMK AO2=
201307251319 SPECI KPAE 251319Z AUTO 02006KT 1SM R16R/1200VP6000FT BR VV001 12/11 A3009 RMK AO2=
201307251315 SPECI KPAE 251315Z AUTO 02006KT 2SM R16R/1200VP6000FT BR FEW001 12/11 A3009 RMK AO2=
201307251253 METAR KPAE 251253Z AUTO 00000KT 10SM CLR 12/10 A3008 RMK AO2 SLP185 T01220100=
201307251153 METAR KPAE 251153Z AUTO 00000KT 10SM CLR 13/09 A3007 RMK AO2 SLP182 T01330089 10150 20133 51005=
201307251053 METAR KPAE 251053Z AUTO VRB05KT 10SM CLR 14/08 A3007 RMK AO2 SLP182 T01390083=
201307250953 METAR KPAE 250953Z AUTO 00000KT 10SM CLR 14/09 A3006 RMK AO2 SLP178 T01390094=
201307250853 METAR KPAE 250853Z AUTO 04005KT 10SM CLR 14/09 A3006 RMK AO2 SLP176 T01390089 53001=
201307250753 METAR KPAE 250753Z AUTO 06004KT 10SM CLR 15/09 A3005 RMK AO2 SLP175 T01500089 402610128 $=
201307250653 METAR KPAE 250653Z AUTO 04004KT 10SM CLR 14/11 A3005 RMK AO2 SLP176 T01390106=
201307250553 METAR KPAE 250553Z AUTO 02005KT 10SM CLR 15/12 A3006 RMK AO2 SLP176 T01500117 10244 20150 51006=
201307250453 METAR KPAE 250453Z AUTO VRB05KT 10SM CLR 16/11 A3005 RMK AO2 SLP175 T01610111=
201307250353 METAR KPAE 250353Z AUTO 03004KT 10SM CLR 18/11 A3004 RMK AO2 SLP172 T01780106=
201307250253 METAR KPAE 250253Z 01005KT 10SM CLR 19/11 A3004 RMK AO2 SLP170 T01940111 55001=
201307250153 METAR KPAE 250153Z 35009KT 10SM CLR 21/11 A3003 RMK AO2 SLP168 T02060106=
201307250053 METAR KPAE 250053Z 35005KT 10SM CLR 23/11 A3004 RMK AO2 SLP170 T02280106=
201307242353 METAR KPAE 242353Z 35006KT 10SM CLR 24/09 A3004 RMK AO2 SLP171 T02440094 10261 20200 57007=
201307242253 METAR KPAE 242253Z 34003KT 10SM CLR 25/11 A3005 RMK AO2 SLP173 T02500106=
201307242153 METAR KPAE 242153Z 29003KT 10SM CLR 24/11 A3006 RMK AO2 SLP176 T02390111=
201307242053 METAR KPAE 242053Z VRB03KT 10SM CLR 24/10 A3006 RMK AO2 SLP177 T02390100 58002=
201307241953 METAR KPAE 241953Z 32003KT 10SM CLR 21/10 A3007 RMK AO2 SLP181 T02110100=
201307241853 METAR KPAE 241853Z 02005KT 10SM CLR 21/11 A3007 RMK AO2 SLP182 T02060106=
201307241753 METAR KPAE 241753Z 36005KT 10SM CLR 21/10 A3007 RMK AO2 SLP180 T02110100 10211 20139 58002=
201307241653 METAR KPAE 241653Z 31003KT 10SM CLR 19/11 A3007 RMK AO2 SLP183 T01940106=
201307241553 METAR KPAE 241553Z 00000KT 10SM CLR 16/11 A3008 RMK AO2 SLP184 T01560111=
201307241453 METAR KPAE 241453Z 02004KT 10SM CLR 16/11 A3008 RMK AO2 SLP183 T01560106 53005=
201307241353 METAR KPAE 241353Z 04004KT 10SM CLR 15/10 A3007 RMK AO2 SLP180 T01500100 $=
201307241253 METAR KPAE 241253Z AUTO 00000KT 10SM CLR 14/09 A3006 RMK AO2 SLP176 T01440094 $=
201307241153 METAR KPAE 241153Z AUTO VRB03KT 10SM CLR 14/11 A3006 RMK AO2 SLP177 T01390106 10172 20128 53006 $=
201307241053 METAR KPAE 241053Z AUTO 04003KT 10SM CLR 13/11 A3005 RMK AO2 SLP175 T01330111 $=
201307240953 METAR KPAE 240953Z AUTO 02006KT 10SM CLR 14/11 A3005 RMK AO2 SLP173 T01390111 $=
201307240853 METAR KPAE 240853Z AUTO 04004KT 10SM CLR 16/09 A3004 RMK AO2 SLP170 T01560089 56001=
201307240753 METAR KPAE 240753Z AUTO 05004KT 10SM CLR 17/09 A3005 RMK AO2 SLP171 T01670094 402670117=
201307240653 METAR KPAE 240653Z AUTO 08005KT 10SM CLR 17/11 A3004 RMK AO2 SLP171 T01670106=
201307240553 METAR KPAE 240553Z AUTO VRB04KT 10SM CLR 17/11 A3005 RMK AO2 SLP172 T01670111 10261 20150 52011=
201307240453 METAR KPAE 240453Z AUTO VRB06G14KT 10SM CLR 15/11 A3004 RMK AO2 SLP171 T01500111=
201307240353 METAR KPAE 240353Z AUTO 36006KT 10SM CLR 16/12 A3002 RMK AO2 SLPNO T01610117=
201307240253 METAR KPAE 240253Z 36007KT 10SM CLR 19/11 A3001 RMK AO2 SLP162 T01890111 55000=
201307240153 METAR KPAE 240153Z 36006KT 10SM CLR 22/11 A3001 RMK AO2 SLP160 T02170106=
201307240053 METAR KPAE 240053Z 01004KT 10SM CLR 25/12 A3001 RMK AO2 SLP160 T02500117=
201307232353 METAR KPAE 232353Z 30007KT 10SM CLR 26/11 A3002 RMK AO2 SLP162 T02560106 10267 20194 57011=
201307232253 METAR KPAE 232253Z 33006KT 10SM CLR 25/11 A3003 RMK AO2 SLP165 T02500111=
201307232153 METAR KPAE 232153Z 01007KT 340V060 10SM CLR 25/09 A3004 RMK AO2 SLP169 T02500094=
201307232053 METAR KPAE 232053Z 36007KT 10SM CLR 24/11 A3005 RMK AO2 SLP173 T02390111 57011=
201307231953 METAR KPAE 231953Z 01005KT 10SM CLR 23/13 A3006 RMK AO2 SLP177 T02330128=
201307231853 METAR KPAE 231853Z 31005KT 10SM CLR 22/13 A3007 RMK AO2 SLP181 T02220128=
201307231753 METAR KPAE 231753Z VRB03KT 8SM CLR 21/13 A3008 RMK AO2 SLP185 T02060128 10211 20117=
201307231653 METAR KPAE 231653Z 35003KT 10SM CLR 18/12 A3009 RMK AO2 SLP186 T01780117 $=
201307231600 METAR KPAE NIL=
201307231533 SPECI KPAE 231533Z 36004KT 1/4SM R16R/1000V2400FT FG VV001 12/11 A3009 RMK AO2=
201307231453 METAR KPAE 231453Z 36005KT M1/4SM R16R/1000V2000FT FG VV001 12/11 A3009 RMK AO2 SLP187 T01170111 53005=
201307231440 SPECI KPAE 231440Z 35005KT 1/4SM R16R/0700V2200FT FG VV001 12/11 A3009 RMK AO2=
201307231432 SPECI KPAE 231432Z 00000KT 1/4SM R16R/0600V2600FT FG VV001 12/11 A3008 RMK AO2=
201307231428 SPECI KPAE 231428Z VRB03KT 1/2SM R16R/1000V2600FT FG VV001 12/11 A3008 RMK AO2=
201307231423 SPECI KPAE 231423Z 36003KT 1/4SM R16R/1200V2000FT FG VV001 12/11 A3008 RMK AO2=
201307231416 SPECI KPAE 231416Z 34004KT 2SM R16R/0800V2000FT FG BKN001 12/11 A3008 RMK AO2=
201307231403 SPECI KPAE 231403Z 36005KT 2SM R16R/1200V4500FT BR BKN001 12/11 A3008 RMK AO2=
201307231353 METAR KPAE 231353Z 36004KT 1SM R16R/1400V3500FT BR OVC001 12/11 A3008 RMK AO2 SLP183 T01170111=
201307231346 SPECI KPAE 231346Z 36004KT 1SM R16R/1400V3000FT BR VV001 12/11 A3008 RMK AO2=
201307231338 SPECI KPAE 231338Z AUTO 36005KT 1/4SM R16R/1200V1800FT FG VV001 12/11 A3008 RMK AO2=
201307231304 SPECI KPAE 231304Z AUTO 00000KT 1/4SM R16R/1400V2400FT FG VV001 12/11 A3007 RMK AO2=
201307231302 SPECI KPAE 231302Z AUTO 00000KT 1/2SM R16R/1400V2000FT FG VV001 12/11 A3007 RMK AO2=
201307231256 SPECI KPAE 231256Z AUTO 36003KT 1 3/4SM R16R/1400V2400FT BR BKN001 12/11 A3007 RMK AO2=
201307231253 METAR KPAE 231253Z AUTO 00000KT 3SM R16R/1400V3500FT BR BKN001 12/11 A3007 RMK AO2 SLP181 T01170106=
201307231236 SPECI KPAE 231236Z AUTO 02003KT 3/4SM R16R/5000VP6000FT BR VV001 12/11 A3007 RMK AO2=
201307231231 SPECI KPAE 231231Z AUTO 36003KT 1 3/4SM R16R/5000VP6000FT BR FEW001 12/11 A3007 RMK AO2=
201307231201 SPECI KPAE 231201Z AUTO 02003KT 8SM FEW001 12/11 A3007 RMK AO2=
201307231153 METAR KPAE 231153Z AUTO VRB03KT 4SM BR BKN001 12/11 A3007 RMK AO2 SLP180 T01170106 10150 20117 51003=
201307231138 SPECI KPAE 231138Z AUTO VRB04KT 3SM R16R/6000VP6000FT BR BKN001 12/11 A3007 RMK AO2=
201307231130 SPECI KPAE 231130Z AUTO 03005KT 1SM R16R/1800VP6000FT BR VV001 12/11 A3007 RMK AO2=
201307231121 SPECI KPAE 231121Z AUTO 03005KT 1/2SM R16R/1400V2200FT FG VV001 12/11 A3007 RMK AO2=
201307231105 SPECI KPAE 231105Z AUTO 01004KT 1 3/4SM R16R/1600V5500FT BR BKN001 12/11 A3007 RMK AO2 VIS 1V5=
201307231053 METAR KPAE 231053Z AUTO VRB04KT 4SM R16R/2600VP6000FT BR BKN001 12/12 A3007 RMK AO2 SLP179 T01220117=
201307231036 SPECI KPAE 231036Z AUTO 02003KT 3SM R16R/1400V4500FT BR BKN001 12/12 A3007 RMK AO2=
201307231030 SPECI KPAE 231030Z AUTO 01003KT 1SM R16R/1200V2000FT BR VV001 12/12 A3007 RMK AO2=
201307230953 METAR KPAE 230953Z AUTO 02005KT 1/4SM R16R/1000V2000FT FG VV001 13/12 A3006=
201307230928 SPECI KPAE 230928Z AUTO 03004KT 1/4SM R16R/1200V3000FT FG VV001 13/12 A3006 RMK AO2=
201307230908 SPECI KPAE 230908Z AUTO 02006KT 1/2SM R16R/2600VP6000FT FG VV001 13/12 A3006 RMK AO2=
201307230901 SPECI KPAE 230901Z AUTO 02006KT 1SM R16R/P6000FT BR VV001 13/12 A3006 RMK AO2=
201307230858 SPECI KPAE 230858Z AUTO 02005KT 2SM BR FEW001 13/12 A3006 RMK AO2=
201307230853 METAR KPAE 230853Z AUTO 02006KT 10SM CLR 14/12 A3006 RMK AO2 SLP177 T01390117 50000=
201307230753 METAR KPAE 230753Z AUTO 01005KT 10SM CLR 13/12 A3007 RMK AO2 SLP180 T01330117 402440122=
201307230653 METAR KPAE 230653Z AUTO 36007KT 10SM CLR 14/12 A3006 RMK AO2 SLP177 T01390117=
201307230553 METAR KPAE 230553Z AUTO 35004KT 10SM CLR 15/12 A3006 RMK AO2 SLP178 T01500122 10244 20150 53010=
201307230453 METAR KPAE 230453Z AUTO 36003KT 10SM CLR 17/13 A3005 RMK AO2 SLP173 T01720128=
201307230353 METAR KPAE 230353Z 36003KT 10SM CLR 19/13 A3003 RMK AO2 SLP168 T01940128=
201307230253 METAR KPAE 230253Z 35004KT 10SM CLR 21/13 A3003 RMK AO2 SLP168 T02110128 55005=
201307230153 METAR KPAE 230153Z 36003KT 10SM CLR 23/13 A3003 RMK AO2 SLP165 T02330128=
201307230053 METAR KPAE 230053Z 32003KT 10SM CLR 24/12 A3003 RMK AO2 SLP168 T02440122=
201307222353 METAR KPAE 222353Z 28004KT 10SM CLR 23/13 A3005 RMK AO2 SLP172 T02330128 10244 20167 58008=
201307222253 METAR KPAE 222253Z 26006KT 10SM CLR 23/13 A3006 RMK AO2 SLP176 T02330128=
201307222153 METAR KPAE 222153Z 25006KT 10SM CLR 23/13 A3006 RMK AO2 SLP177 T02330128=
201307222053 METAR KPAE 222053Z 28007KT 10SM CLR 22/13 A3007 RMK AO2 SLP181 T02170128 58002=
201307221953 METAR KPAE 221953Z 23006KT 10SM FEW019 20/13 A3007 RMK AO2 SLP183 T02000128=
201307221944 SPECI KPAE 221944Z 27007KT 10SM SCT017 21/13 A3008 RMK AO2=
201307221856 SPECI KPAE 221856Z 00000KT 10SM OVC015 19/12 A3008 RMK AO2=
201307221853 METAR KPAE 221853Z VRB03KT 10SM SCT008 OVC010 18/12 A3008 RMK AO2 SLP186 T01830122=
201307221811 SPECI KPAE 221811Z 25004KT 10SM SCT008 OVC010 17/12 A3008 RMK AO2=
201307221753 METAR KPAE 221753Z VRB03KT 10SM OVC010 17/12 A3008 RMK AO2 SLP184 T01670122 10167 20128 51007=
201307221749 SPECI KPAE 221749Z 23003KT 10SM OVC010 17/12 A3008 RMK AO2 CIG 008V012=
201307221700 SPECI KPAE 221700Z 23004KT 10SM OVC006 16/12 A3007 RMK AO2=
201307221653 METAR KPAE 221653Z VRB04KT 2SM HZ OVC006 16/12 A3007 RMK AO2 CIG 004V008 SLP180 T01560122=
201307221553 METAR KPAE 221553Z 21003KT 2SM BR OVC002 14/13 A3006 RMK AO2 SLP176 T01390128=
201307221549 SPECI KPAE 221549Z VRB03KT 2SM BR OVC002 14/13 A3005 RMK AO2=
201307221458 SPECI KPAE 221458Z 24003KT 1/4SM R16R/1200V2600FT FG VV002 13/13 A3004 RMK AO2=
201307221453 METAR KPAE 221453Z 23003KT 3/4SM R16R/1000V1400FT BR VV002 13/13 A3004 RMK AO2 SLP170 T01330128 51008=
201307221448 SPECI KPAE 221448Z 24003KT 3/4SM R16R/1000V1400FT BR VV002 13/13 A3004 RMK AO2=
201307221353 METAR KPAE 221353Z 21004KT 3/4SM R16R/3000VP6000FT BR OVC002 13/12 A3003 RMK AO2 SLP165 T01330122=
201307221336 SPECI KPAE 221336Z AUTO 21004KT 1 3/4SM R16R/4000VP6000FT BR OVC002 13/12 A3002 RMK AO2=
201307221315 SPECI KPAE 221315Z AUTO 00000KT 1/2SM R16R/3000V4000FT FG OVC002 13/12 A3002 RMK AO2=
201307221253 METAR KPAE 221253Z AUTO 00000KT 1 1/4SM R16R/3500V4500FT BR OVC002 13/12 A3002 RMK AO2 SLP162 T01330122=
201307221230 SPECI KPAE 221230Z AUTO 00000KT 1 1/4SM R16R/3500V4500FT BR OVC002 13/12 A3001 RMK AO2=
201307221223 SPECI KPAE 221223Z AUTO 00000KT 3/4SM R16R/3500VP6000FT BR OVC002 13/12 A3001 RMK AO2=
201307221153 METAR KPAE 221153Z AUTO 00000KT 1 1/4SM R16R/3500VP6000FT BR OVC002 13/12 A3001 RMK AO2 SLP158 T01280117 10144 20122 53009=
201307221134 SPECI KPAE 221134Z AUTO 00000KT 1 1/4SM R16R/2000V3000FT BR OVC002 12/12 A3000 RMK AO2=
201307221108 SPECI KPAE 221108Z AUTO 00000KT 1/2SM R16R/1800V4000FT FG VV002 12/12 A3000 RMK AO2=
201307221101 SPECI KPAE 221101Z AUTO 00000KT 1/4SM R16R/1200V2200FT FG VV001 12/12 A3000 RMK AO2=
201307221053 METAR KPAE 221053Z AUTO 00000KT 1/2SM R16R/1200V1600FT FG VV001 12/12 A3000 RMK AO2 SLP156 T01220117=
201307221044 SPECI KPAE 221044Z AUTO 00000KT 1/4SM R16R/1200V3500FT FG VV001 12/12 A3000 RMK AO2=
201307221002 SPECI KPAE 221002Z AUTO 36004KT 1/4SM R16R/1000V1400FT FG VV001 12/12 A2999 RMK AO2=
201307220953 METAR KPAE 220953Z AUTO 01003KT 1/2SM R16R/1000V1400FT FG VV001 12/11 A2998 RMK AO2 SLP152 T01220111=
201307220943 SPECI KPAE 220943Z AUTO 01003KT 3/4SM R16R/1000V2000FT BR VV001 12/12 A2998 RMK AO2=
201307220933 SPECI KPAE 220933Z AUTO 01005KT 1/2SM R16R/1200V2600FT FG VV001 12/12 A2998 RMK AO2=
201307220919 SPECI KPAE 220919Z AUTO 01003KT 3/4SM R16R/1200V2000FT BR VV001 12/12 A2998 RMK AO2=
201307220908 SPECI KPAE 220908Z AUTO VRB04KT 1 3/4SM R16R/2000V5000FT BR OVC001 13/12 A2998 RMK AO2 VIS 1V4=
201307220901 SPECI KPAE 220901Z AUTO 36005KT 3SM R16R/2200VP6000FT BR OVC001 13/12 A2998 RMK AO2=
201307220853 METAR KPAE 220853Z AUTO 02003KT 2 1/2SM R16R/2400VP6000FT BR OVC001 13/12 A2998 RMK AO2 SLP150 T01280117 53008=
201307220846 SPECI KPAE 220846Z AUTO 36005KT 2SM R16R/1600V5000FT BR OVC001 13/12 A2998 RMK AO2 VIS 1 3/4V3=
201307220838 SPECI KPAE 220838Z AUTO 01005KT 3SM R16R/1600V4000FT BR OVC001 13/12 A2997 RMK AO2=
201307220826 SPECI KPAE 220826Z AUTO 01004KT 2 1/2SM R16R/2000V4500FT BR OVC001 13/12 A2998 RMK AO2 VIS 1 1/2V4=
201307220808 SPECI KPAE 220808Z AUTO VRB06KT 1SM R16R/1800V5500FT BR VV001 13/12 A2997 RMK AO2=
201307220802 SPECI KPAE 220802Z AUTO 36006KT 2SM R16R/3000VP6000FT BR OVC002 13/12 A2997 RMK AO2 VIS 1V3=
201307220753 METAR KPAE 220753Z AUTO 35006KT 3SM R16R/4500VP6000FT BR OVC002 13/12 A2997 RMK AO2 SLP147 T01280117 402330122=
201307220708 SPECI KPAE 220708Z AUTO 02004KT 9SM BKN002 13/12 A2996 RMK AO2=
201307220653 METAR KPAE 220653Z AUTO 01005KT 9SM FEW002 14/12 A2996 RMK AO2 SLP143 T01390122=
201307220553 METAR KPAE 220553Z AUTO 01004KT 10SM CLR 14/12 A2995 RMK AO2 SLP143 T01440122 10233 20144 50006=
201307220453 METAR KPAE 220453Z AUTO 01003KT 10SM CLR 16/12 A2996 RMK AO2 SLP142 T01610122=
201307220353 METAR KPAE 220353Z AUTO 00000KT 10SM CLR 19/13 A2994 RMK AO2 SLP138 T01890133=
201307220253 METAR KPAE 220253Z 27003KT 10SM CLR 22/13 A2993 RMK AO2 SLP135 T02170133 55008=
201307220153 METAR KPAE 220153Z 27004KT 10SM CLR 23/13 A2993 RMK AO2 SLP134 T02280128=
201307220053 METAR KPAE 220053Z 24006KT 10SM CLR 23/13 A2995 RMK AO2 SLP138 T02330133=
201307212353 METAR KPAE 212353Z 27007KT 10SM CLR 23/13 A2996 RMK AO2 SLP142 T02330133 10233 20133 58007=
201307212253 METAR KPAE 212253Z 24007KT 10SM CLR 23/13 A2996 RMK AO2 SLP144 T02280133=
201307212153 METAR KPAE 212153Z 24007KT 10SM CLR 21/13 A2998 RMK AO2 SLP150 T02110128=
201307212053 METAR KPAE 212053Z 23007KT 10SM CLR 20/13 A2998 RMK AO2 SLP150 T02000128 58005=
201307211953 METAR KPAE 211953Z 24007KT 10SM SCT020 19/12 A2999 RMK AO2 SLP153 T01890122=
201307211923 SPECI KPAE 211923Z 27007KT 10SM BKN010 18/12 A2999 RMK AO2=
201307211853 METAR KPAE 211853Z 27006KT 3SM HZ SCT003 BKN007 17/12 A2999 RMK AO2 SLP154 T01670122=
201307211849 SPECI KPAE 211849Z 28005KT 3SM HZ SCT003 BKN007 17/12 A2999 RMK AO2=
201307211829 SPECI KPAE 211829Z 24005KT 1 1/2SM HZ BKN003 OVC007 16/12 A2999 RMK AO2=
201307211800 SPECI KPAE 211800Z 27004KT 1 1/2SM R16R/6000VP6000FT BR OVC001 14/12 A2999 RMK AO2=
201307211757 SPECI KPAE 211757Z 27003KT 2SM R16R/6000VP6000FT BR OVC001 13/12 A2999 RMK AO2=
201307211753 METAR KPAE 211753Z 26003KT 1/4SM R16R/3500VP6000FT FG OVC001 14/12 A2999 RMK AO2 SLP157 T01390122 10139 20122 51000=
201307211739 SPECI KPAE 211739Z 25003KT 1/4SM R16R/1200V3000FT FG OVC001 14/12 A2999 RMK AO2=
201307211653 METAR KPAE 211653Z 26003KT 1/4SM R16R/0700V1200FT FG OVC001 13/12 A2999 RMK AO2 SLP157 T01330122=
201307211636 SPECI KPAE 211636Z 28003KT 1/4SM R16R/0800V1400FT FG OVC001 13/12 A3000 RMK AO2=
201307211553 METAR KPAE 211553Z 00000KT 1/4SM R16R/1800V5500FT FG OVC001 13/12 A3000 RMK AO2 SLP157 T01280117=
201307211500 SPECI KPAE 211500Z 29003KT M1/4SM R16R/0500V0600FT FG VV001 13/12 A2999 RMK AO2=
201307211453 METAR KPAE 211453Z 28004KT 1/4SM R16R/0500V0600FT FG VV002 13/12 A2999 RMK AO2 SLP155 T01280122 53004=
201307211423 SPECI KPAE 211423Z 25003KT 1/4SM R16R/1000V1800FT FG VV002 13/12 A2999 RMK AO2=
201307211353 METAR KPAE 211353Z 00000KT 1/4SM R16R/2400V3000FT FG VV002 13/12 A2999 RMK AO2 SLP154 T01280122=
201307211331 SPECI KPAE 211331Z AUTO 00000KT 1/4SM R16R/1800V3000FT FG VV002 13/12 A2999 RMK AO2=
201307211304 SPECI KPAE 211304Z AUTO 00000KT 1/4SM R16R/1000V1600FT FG VV002 12/12 A2999 RMK AO2=
201307211253 METAR KPAE 211253Z AUTO 00000KT 1/2SM R16R/1000V1200FT FG VV002 12/12 A2998 RMK AO2 SLP151 T01220117=
201307211153 METAR KPAE 211153Z AUTO 00000KT 1/4SM R16R/1000V1200FT FG VV001 12/11 A2998 RMK AO2 SLP150 T01220111 10133 20122 53001=
201307211112 SPECI KPAE 211112Z AUTO 00000KT 1/4SM R16R/1000V1400FT FG VV001 12/11 A2998 RMK AO2=
201307211101 SPECI KPAE 211101Z AUTO 00000KT 1/4SM R16R/1200V2400FT FG VV001 12/11 A2998 RMK AO2=
201307211053 METAR KPAE 211053Z AUTO 00000KT 1/2SM R16R/1000V1200FT FG VV002 12/12 A2998 RMK AO2 SLP150 T01220117=
201307211049 SPECI KPAE 211049Z AUTO 00000KT 1/2SM R16R/1000V1600FT FG VV001 12/12 A2998 RMK AO2=
201307211039 SPECI KPAE 211039Z AUTO 35003KT 3/4SM R16R/1000V2800FT BR VV001 12/11 A2998 RMK AO2=
201307211019 SPECI KPAE 211019Z AUTO 00000KT 1 3/4SM R16R/1600V2800FT BR OVC002 12/12 A2998 RMK AO2=
201307211012 SPECI KPAE 211012Z AUTO VRB03KT 1 3/4SM R16R/1200V2200FT BR OVC002 12/12 A2998 RMK AO2=
201307211003 SPECI KPAE 211003Z AUTO 00000KT 2SM R16R/1800V6000FT BR OVC002 13/12 A2998 RMK AO2=
201307210951 METAR KPAE 210951Z AUTO 01005KT 1 3/4SM R16R/2200V4000FT BR OVC002 12/11 A2998=
201307210950 SPECI KPAE 210950Z AUTO 36005KT 1 3/4SM R16R/2200V4000FT BR OVC002 12/11 A2998 RMK AO2=
201307210853 METAR KPAE 210853Z AUTO VRB03KT 4SM R16R/4000VP6000FT BR OVC002 13/12 A2998 RMK AO2 SLP151 T01280117 56003=
201307210753 METAR KPAE 210753Z AUTO VRB04KT 4SM R16R/4500VP6000FT BR OVC002 13/12 A2999 RMK AO2 SLP153 T01280117 402330122=
201307210736 SPECI KPAE 210736Z AUTO 36004KT 5SM R16R/4500VP6000FT BR BKN002 13/12 A2999 RMK AO2=
201307210727 SPECI KPAE 210727Z AUTO 02005KT 6SM BR SCT002 13/12 A2999 RMK AO2=
201307210653 METAR KPAE 210653Z AUTO 02005KT 7SM CLR 13/12 A2998 RMK AO2 SLP152 T01330117=
201307210553 METAR KPAE 210553Z AUTO 01005KT 8SM CLR 14/12 A2999 RMK AO2 SLP155 T01390117 10233 20139 57003=
201307210453 METAR KPAE 210453Z AUTO 01006KT 10SM CLR 14/12 A3000 RMK AO2 SLP158 T01440122=
201307210353 METAR KPAE 210353Z VRB03KT 10SM CLR 16/12 A2999 RMK AO2 SLP155 T01610122=
201307210253 METAR KPAE 210253Z 00000KT 10SM CLR 18/13 A3000 RMK AO2 SLP157 T01780128 56010=
201307210153 METAR KPAE 210153Z 36003KT 10SM CLR 21/13 A3000 RMK AO2 SLP159 T02060133=
201307210053 METAR KPAE 210053Z VRB03KT 10SM CLR 23/13 A3001 RMK AO2 SLP161 T02280133=
201307202353 METAR KPAE 202353Z 29003KT 10SM CLR 23/13 A3003 RMK AO2 SLP167 T02280133 10228 20144 58015=
201307202253 METAR KPAE 202253Z 28004KT 10SM CLR 22/13 A3005 RMK AO2 SLP174 T02170133=
201307202153 METAR KPAE 202153Z 30005KT 10SM CLR 21/13 A3006 RMK AO2 SLP179 T02110128=
201307202053 METAR KPAE 202053Z 25005KT 10SM FEW008 19/13 A3008 RMK AO2 SLP183 T01940128 56008=
201307202033 SPECI KPAE 202033Z 29007KT 7SM SCT005 18/13 A3008 RMK AO2=
201307201953 METAR KPAE 201953Z VRB05KT 5SM HZ SCT005 BKN010 19/13 A3008 RMK AO2 SLP186 T01890128=
201307201928 SPECI KPAE 201928Z VRB05KT 1 1/2SM HZ SCT003 BKN008 18/13 A3009 RMK AO2=
201307201856 SPECI KPAE 201856Z 26005KT 1 1/2SM HZ OVC002 16/13 A3009 RMK AO2=
201307201853 METAR KPAE 201853Z 23005KT 1SM R16R/4000VP6000FT HZ OVC001 16/13 A3009 RMK AO2 SLP188 T01610128=
201307201842 SPECI KPAE 201842Z 25005KT 1SM R16R/3000VP6000FT BR OVC001 15/13 A3009 RMK AO2=
201307201753 METAR KPAE 201753Z 26004KT 1/2SM R16R/5000VP6000FT HZ OVC002 15/12 A3010 RMK AO2 SLP193 T01500122 10156 20122 58000=
201307201700 SPECI KPAE 201700Z 00000KT 2SM HZ OVC004 15/12 A3010 RMK AO2=
201307201653 METAR KPAE 201653Z 00000KT 1 1/2SM HZ OVC004 14/12 A3010 RMK AO2 SLP194 T01440117=
201307201634 SPECI KPAE 201634Z 00000KT 1 1/2SM HZ OVC004 14/12 A3011 RMK AO2 CIG 001V005=
201307201621 SPECI KPAE 201621Z 00000KT 4SM BR OVC002 13/12 A3011 RMK AO2=
201307201600 SPECI KPAE 201600Z 23004KT 1 3/4SM R16R/2400VP6000FT BR OVC002 13/12 A3011 RMK AO2=
201307201553 METAR KPAE 201553Z 00000KT 1/4SM R16R/4500VP6000FT FG OVC002 13/12 A3011 RMK AO2 SLP194 T01330117=
201307201453 METAR KPAE 201453Z 00000KT 1/4SM R16R/P6000FT FG OVC002 13/11 A3010 RMK AO2 SLP192 T01280111 51006=
201307201353 METAR KPAE 201353Z 00000KT 1/4SM R16R/2000V4000FT FG VV002 12/11 A3009 RMK AO2 SLP190 T01220111=
201307201333 SPECI KPAE 201333Z AUTO 00000KT 1/4SM R16R/1000V2200FT FG VV002 12/12 A3009 RMK AO2=
201307201253 METAR KPAE 201253Z AUTO 00000KT 1/4SM R16R/1000V1200FT FG VV001 12/11 A3008 RMK AO2 SLP186 T01220111=
201307201232 SPECI KPAE 201232Z AUTO 00000KT 1/4SM R16R/0800V1400FT FG VV001 12/11 A3008 RMK AO2=
201307201220 SPECI KPAE 201220Z AUTO 33003KT 1/2SM R16R/1000V1600FT FG VV001 12/11 A3008 RMK AO2=
201307201211 SPECI KPAE 201211Z AUTO 00000KT 1/4SM R16R/1600V2800FT FG VV001 12/11 A3008 RMK AO2=
201307201153 METAR KPAE 201153Z AUTO 00000KT 1/2SM R16R/2000V3500FT FG VV002 12/11 A3008 RMK AO2 SLP184 T01220111 10139 20122 55001=
201307201150 SPECI KPAE 201150Z AUTO 00000KT 3/4SM R16R/2000V3500FT BR OVC002 12/11 A3008 RMK AO2 VIS 1/4V3=
201307201145 SPECI KPAE 201145Z AUTO 04003KT 2 1/2SM R16R/2000V4500FT BR OVC002 13/12 A3008 RMK AO2 VIS 1 1/2V4=
201307201131 SPECI KPAE 201131Z AUTO VRB03KT 1SM R16R/2000V5500FT BR VV002 12/11 A3008 RMK AO2=
201307201108 SPECI KPAE 201108Z AUTO 02003KT 1 1/2SM R16R/2000V5500FT BR OVC001 12/11 A3008 RMK AO2=
201307201053 METAR KPAE 201053Z AUTO VRB03KT 2SM R16R/2400VP6000FT BR OVC001 12/12 A3008 RMK AO2 SLP183 T01220117=
201307201039 SPECI KPAE 201039Z AUTO 36004KT 1 3/4SM R16R/2400VP6000FT BR OVC001 12/11 A3008 RMK AO2=
201307201034 SPECI KPAE 201034Z AUTO 01003KT 3SM R16R/3500VP6000FT BR OVC001 12/11 A3008 RMK AO2=
201307201023 SPECI KPAE 201023Z AUTO VRB04KT 2SM R16R/5000VP6000FT BR OVC001 12/11 A3008 RMK AO2=
201307200953 METAR KPAE 200953Z AUTO 03005KT 1 1/4SM R16R/2400VP6000FT BR OVC001 12/12 A3008 RMK AO2 VIS 1V2 SLP184 T01220117=
201307200941 SPECI KPAE 200941Z AUTO 02004KT 2SM R16R/2000VP6000FT BR OVC001 13/12 A3008 RMK AO2 VIS 1 1/2V3=
201307200932 SPECI KPAE 200932Z AUTO VRB04KT 3SM BR OVC001 13/12 A3008 RMK AO2=
201307200853 METAR KPAE 200853Z AUTO 02007KT 6SM BR OVC003 13/11 A3008 RMK AO2 SLP186 T01280111 56002=
201307200753 METAR KPAE 200753Z AUTO 02009KT 7SM OVC003 13/12 A3008 RMK AO2 SLP186 T01330117 402330128=
201307200653 METAR KPAE 200653Z AUTO 02006KT 8SM OVC003 13/12 A3009 RMK AO2 SLP187 T01330117=
201307200630 SPECI KPAE 200630Z AUTO VRB04KT 8SM BKN003 13/12 A3009 RMK AO2=
201307200620 SPECI KPAE 200620Z AUTO 02003KT 8SM SCT003 13/12 A3009 RMK AO2=
201307200553 METAR KPAE 200553Z AUTO 02006KT 8SM CLR 13/12 A3009 RMK AO2 SLP188 T01330122 10206 20133 50003=
201307200453 METAR KPAE 200453Z 03006KT 10SM CLR 14/12 A3009 RMK AO2 SLP189 T01440117=
201307200353 METAR KPAE 200353Z 00000KT 10SM CLR 15/12 A3008 RMK AO2 SLP187 T01500117=
201307200253 METAR KPAE 200253Z VRB05KT 10SM CLR 17/12 A3008 RMK AO2 SLP185 T01720122 56008=
201307200153 METAR KPAE 200153Z 01007G15KT 10SM CLR 18/12 A3008 RMK AO2 SLP185 T01830122=
201307200053 METAR KPAE 200053Z 36007KT 10SM CLR 19/12 A3009 RMK AO2 SLP187 T01940122=
201307192353 METAR KPAE 192353Z 35006KT 10SM CLR 20/12 A3010 RMK AO2 SLP193 T02000122 10233 20150 56013=
201307192253 METAR KPAE 192253Z VRB05KT 10SM CLR 23/13 A3011 RMK AO2 SLP195 T02280128=
201307192153 METAR KPAE 192153Z 27005KT 10SM CLR 23/13 A3013 RMK AO2 SLP200 T02280133=
201307192053 METAR KPAE 192053Z VRB04KT 10SM CLR 22/13 A3014 RMK AO2 SLP205 T02170128 58014=
201307191953 METAR KPAE 191953Z VRB03KT 10SM CLR 21/13 A3016 RMK AO2 SLP211 T02110128=
201307191853 METAR KPAE 191853Z VRB03KT 10SM FEW006 17/12 A3017 RMK AO2 SLP216 T01720122=
201307191835 SPECI KPAE 191835Z VRB04KT 10SM SCT009 16/12 A3018 RMK AO2=
201307191832 SPECI KPAE 191832Z 00000KT 10SM BKN009 16/12 A3018 RMK AO2=
201307191753 METAR KPAE 191753Z VRB03KT 5SM HZ OVC004 15/12 A3018 RMK AO2 SLP220 T01500117 10150 20128 58003=
201307191653 METAR KPAE 191653Z VRB04KT 1SM R16R/P6000FT BR OVC002 13/12 A3019 RMK AO2 SLP222 T01330117=
201307191553 METAR KPAE 191553Z 03005KT 1/2SM R16R/1600V3500FT FG OVC002 13/12 A3019 RMK AO2 SLP224 T01330117=
201307191453 METAR KPAE 191453Z 01004KT 1SM R16R/1400V4000FT BR OVC002 13/12 A3019 RMK AO2 SLP222 T01330117 53006=
201307191400 SPECI KPAE 191400Z 36004KT 1SM R16R/1800V6000FT BR OVC002 13/12 A3018 RMK AO2=
201307191353 METAR KPAE 191353Z 35003KT 3/4SM R16R/1800V4500FT BR OVC002 13/12 A3018 RMK AO2 SLP219 T01280117=
201307191344 SPECI KPAE 191344Z AUTO VRB03KT 1SM R16R/1400V4000FT BR OVC002 13/12 A3018 RMK AO2=
201307191336 SPECI KPAE 191336Z AUTO 00000KT 2SM R16R/1400VP6000FT BR OVC002 13/12 A3018 RMK AO2=
201307191318 SPECI KPAE 191318Z AUTO 00000KT 1 1/4SM R16R/2200VP6000FT BR OVC002 13/12 A3017 RMK AO2=
201307191301 SPECI KPAE 191301Z AUTO 00000KT 4SM R16R/2400VP6000FT BR OVC002 13/12 A3017 RMK AO2=
201307191253 METAR KPAE 191253Z AUTO 35003KT 2 1/2SM R16R/3000VP6000FT BR OVC002 13/12 A3017 RMK AO2 VIS 1 3/4V4 SLP216 T01280117=
201307191251 SPECI KPAE 191251Z AUTO 35004KT 2 1/2SM R16R/3000VP6000FT BR OVC002 13/12 A3017 RMK AO2=
201307191153 METAR KPAE 191153Z AUTO 01003KT 7SM OVC002 13/12 A3016 RMK AO2 SLP214 T01280117 10139 20128 52003=
201307191053 METAR KPAE 191053Z AUTO 03006KT 9SM OVC004 13/12 A3016 RMK AO2 SLP211 T01330117=
201307191034 SPECI KPAE 191034Z AUTO 03006KT 10SM BKN004 13/12 A3016 RMK AO2=
201307191025 SPECI KPAE 191025Z AUTO 01004KT 10SM SCT004 13/12 A3016 RMK AO2=
201307190953 METAR KPAE 190953Z AUTO 02005KT 10SM CLR 13/12 A3016 RMK AO2 SLP211 T01280117=
201307190853 METAR KPAE 190853Z AUTO 04004KT 10SM CLR 13/12 A3016 RMK AO2 SLP209 T01330117 58002=
201307190753 METAR KPAE 190753Z AUTO 02004KT 10SM CLR 13/12 A3016 RMK AO2 SLP212 T01330117 402330133=
201307190653 METAR KPAE 190653Z AUTO 35003KT 10SM CLR 13/12 A3016 RMK AO2 SLP213 T01330117=
201307190553 METAR KPAE 190553Z AUTO 01006KT 10SM CLR 14/12 A3016 RMK AO2 SLP213 T01390117 10217 20139 50001=
201307190453 METAR KPAE 190453Z AUTO 01005KT 10SM CLR 14/12 A3017 RMK AO2 SLP215 T01440117=
201307190353 METAR KPAE 190353Z AUTO 01004KT 10SM CLR 16/12 A3016 RMK AO2 SLP211 T01560117=
201307190253 METAR KPAE 190253Z 35006KT 10SM CLR 17/12 A3016 RMK AO2 SLP212 T01720122 56004=
201307190153 METAR KPAE 190153Z 01006KT 10SM CLR 19/12 A3016 RMK AO2 SLP212 T01890117=
201307190053 METAR KPAE 190053Z VRB06KT 10SM CLR 21/12 A3017 RMK AO2 SLP215 T02060117=
201307182353 METAR KPAE 182353Z 01006KT 10SM CLR 21/12 A3017 RMK AO2 SLP216 T02110117 10233 20172 58012=
201307182253 METAR KPAE 182253Z VRB04KT 10SM CLR 23/12 A3019 RMK AO2 SLP220 T02280117=
201307182153 METAR KPAE 182153Z 26005KT 10SM CLR 22/12 A3020 RMK AO2 SLP225 T02220122=
201307182053 METAR KPAE 182053Z VRB05KT 10SM CLR 22/12 A3021 RMK AO2 SLP228 T02170122 58010=
201307181953 METAR KPAE 181953Z 27003KT 10SM SCT031 21/12 A3022 RMK AO2 SLP232 T02110117=
201307181919 SPECI KPAE 181919Z VRB03KT 10SM SCT031 19/12 A3023 RMK AO2=
201307181853 METAR KPAE 181853Z VRB04KT 10SM OVC029 19/11 A3023 RMK AO2 SLP236 T01890111=
201307181753 METAR KPAE 181753Z 00000KT 10SM OVC029 17/11 A3024 RMK AO2 SLP239 T01720111 10178 20133 58000=
201307181712 SPECI KPAE 181712Z VRB05KT 10SM OVC029 17/11 A3024 RMK AO2=
201307181653 METAR KPAE 181653Z 35004KT 10SM OVC031 16/11 A3024 RMK AO2 SLP240 T01610106=
201307181553 METAR KPAE 181553Z VRB04KT 10SM OVC031 15/11 A3025 RMK AO2 SLP243 T01500106=
201307181453 METAR KPAE 181453Z 36005KT 10SM OVC031 14/11 A3024 RMK AO2 SLP240 T01440111 53007=
201307181353 METAR KPAE 181353Z 35004KT 10SM OVC031 14/11 A3023 RMK AO2 SLP237 T01390111=
201307181253 METAR KPAE 181253Z AUTO 36004KT 10SM OVC031 13/11 A3023 RMK AO2 SLP234 T01330111=
201307181153 METAR KPAE 181153Z AUTO 01005KT 10SM OVC031 13/11 A3022 RMK AO2 SLP232 70001 T01330111 10150 20133 51002=
201307181053 METAR KPAE 181053Z AUTO 36006KT 10SM OVC033 14/11 A3022 RMK AO2 SLP231 T01390111=
201307180953 METAR KPAE 180953Z AUTO 36007KT 10SM OVC033 14/11 A3022 RMK AO2 SLP232 T01390111=
201307180853 METAR KPAE 180853Z AUTO 01005KT 10SM BKN035 14/11 A3021 RMK AO2 SLP230 T01390111 51003=
201307180753 METAR KPAE 180753Z AUTO 36003KT 10SM CLR 14/12 A3021 RMK AO2 SLP230 T01390117 402170139=
201307180653 METAR KPAE 180653Z AUTO 01004KT 10SM BKN033 14/12 A3021 RMK AO2 SLP229 T01440117=
201307180553 METAR KPAE 180553Z AUTO 02004KT 10SM BKN033 15/12 A3021 RMK AO2 SLP227 T01500117 10211 20150 50007=
201307180453 METAR KPAE 180453Z AUTO VRB04KT 10SM OVC033 16/12 A3021 RMK AO2 SLP228 T01610117=
201307180353 METAR KPAE 180353Z AUTO 01004KT 10SM OVC033 17/12 A3019 RMK AO2 SLP224 T01670117=
201307180253 METAR KPAE 180253Z 36003KT 10SM OVC035 18/12 A3019 RMK AO2 SLP221 T01780117 53003=
201307180153 METAR KPAE 180153Z 15007KT 10SM OVC033 21/12 A3018 RMK AO2 SLP217 T02060117=
201307180100 SPECI KPAE 180100Z 16011KT 10SM OVC031 21/12 A3018 RMK AO2=
201307180053 METAR KPAE 180053Z 16009KT 10SM OVC029 21/12 A3018 RMK AO2 SLP217 T02060117=
201307172353 METAR KPAE 172353Z 21009KT 10SM OVC029 21/12 A3018 RMK AO2 SLP217 60001 T02060117 10217 20178 50001=
201307172253 METAR KPAE 172253Z 19008KT 10SM OVC029 21/12 A3018 RMK AO2 SLP218 T02060122=
201307172153 METAR KPAE 172153Z 18008KT 10SM BKN027 21/12 A3018 RMK AO2 SLP215 T02060117=
201307172053 METAR KPAE 172053Z 20011KT 10SM OVC025 20/12 A3018 RMK AO2 SLP215 60001 T02000117 52012=
201307171953 METAR KPAE 171953Z 19012G18KT 10SM OVC025 21/12 A3016 RMK AO2 SLP210 P0001 T02060122=
201307171853 METAR KPAE 171853Z 19014G22KT 10SM OVC021 19/12 A3015 RMK AO2 SLP208 T01940117=
201307171753 METAR KPAE 171753Z 20016KT 10SM OVC017 18/12 A3014 RMK AO2 SLP203 T01780122 10178 20150 51019=
201307171700 SPECI KPAE 171700Z 17012KT 10SM OVC017 17/12 A3013 RMK AO2=
201307171653 METAR KPAE 171653Z 19012KT 10SM SCT014 17/12 A3013 RMK AO2 SLP199 T01720122=
201307171553 METAR KPAE 171553Z 19015KT 10SM SCT014 16/12 A3010 RMK AO2 SLP191 T01610122=
201307171453 METAR KPAE 171453Z 19009G19KT 10SM SCT014 16/13 A3008 RMK AO2 SLP184 T01610128 53024=
201307171353 METAR KPAE 171353Z 19010G19KT 10SM SCT120 16/13 A3006 RMK AO2 SLP174 T01610128=
201307171253 METAR KPAE 171253Z AUTO 18013KT 9SM CLR 15/13 A3003 RMK AO2 SLP167 T01500128 $=
201307171153 METAR KPAE 171153Z AUTO 18008KT 10SM CLR 17/14 A3001 RMK AO2 SLP159 60003 70003 T01670139 10217 20167 51029=
201307171053 METAR KPAE 171053Z AUTO 16010KT 10SM FEW050 BKN110 18/13 A3000 RMK AO2 RAE53 SLP155 P0002 T01780133=
201307170953 METAR KPAE 170953Z AUTO 18009KT 8SM -RA BKN100 19/13 A2997 RMK AO2 RAB45 SLP146 P0001 T01890133=
201307170853 METAR KPAE 170853Z AUTO 12005KT 10SM CLR 21/10 A2992 RMK AO2 SLP128 60000 T02110100 51008=
201307170753 METAR KPAE 170753Z AUTO 00000KT 10SM BKN120 21/09 A2992 RMK AO2 RAE01 SLP128 P0000 T02110094 402780150=
201307170653 METAR KPAE 170653Z AUTO 24004KT 10SM -RA FEW050 SCT090 BKN110 21/09 A2990 RMK AO2 TSB0559E14RAB51 SLP122 P0000 T02110089=
201307170620 SPECI KPAE 170620Z AUTO 21005KT 10SM FEW100 SCT120 21/10 A2990 RMK AO2 TSB0559E14=
201307170605 SPECI KPAE 170605Z AUTO 18009KT 10SM VCTS FEW100 SCT120 22/09 A2991 RMK AO2 TSB0559=
201307170553 METAR KPAE 170553Z AUTO 25005KT 10SM SCT110 22/09 A2990 RMK AO2 LTG DSNT S SLP120 T02170089 10267 20217 53015=
201307170453 METAR KPAE 170453Z AUTO 00000KT 10SM CLR 22/09 A2989 RMK AO2 SLP117 T02220094=
201307170353 METAR KPAE 170353Z AUTO 35003KT 10SM FEW100 22/10 A2986 RMK AO2 SLP109 T02220100=
201307170253 METAR KPAE 170253Z 34003KT 10SM CLR 23/09 A2985 RMK AO2 SLP106 T02330089 55006=
201307170153 METAR KPAE 170153Z 35003KT 10SM CLR 24/09 A2985 RMK AO2 SLP106 T02440089=
201307170053 METAR KPAE 170053Z 02006KT 10SM BKN100 25/08 A2986 RMK AO2 SLP109 T02500083=
201307162353 METAR KPAE 162353Z 00000KT 10SM CLR 26/09 A2987 RMK AO2 SLP112 T02610094 10278 20233 55004=
201307162253 METAR KPAE 162253Z 36008KT 10SM CLR 27/10 A2986 RMK AO2 SLP109 T02720100=
201307162153 METAR KPAE 162153Z 35008KT 10SM CLR 27/09 A2986 RMK AO2 SLP110 T02720094=
201307162053 METAR KPAE 162053Z 34004KT 10SM CLR 26/09 A2989 RMK AO2 SLP117 T02610094 58004=
201307161953 METAR KPAE 161953Z 36005KT 10SM CLR 26/09 A2990 RMK AO2 SLP121 T02610089=
201307161853 METAR KPAE 161853Z 01005KT 10SM CLR 25/10 A2990 RMK AO2 SLP122 T02500100=
201307161753 METAR KPAE 161753Z 01007KT 10SM CLR 23/10 A2990 RMK AO2 SLP120 T02330100 10233 20150 56006=
201307161653 METAR KPAE 161653Z 34009G14KT 10SM CLR 21/10 A2990 RMK AO2 SLP121 T02110100=
201307161553 METAR KPAE 161553Z 36006KT 10SM CLR 19/11 A2990 RMK AO2 SLP122 T01940106=
201307161453 METAR KPAE 161453Z 36005KT 10SM CLR 18/10 A2991 RMK AO2 SLP126 T01780100 55002=
201307161353 METAR KPAE 161353Z AUTO 36004KT 10SM CLR 17/09 A2991 RMK AO2 SLP125 T01670089=
201307161253 METAR KPAE 161253Z AUTO 02005KT 10SM CLR 16/07 A2991 RMK AO2 SLP126 T01610072=
201307161153 METAR KPAE 161153Z AUTO 00000KT 10SM CLR 15/07 A2992 RMK AO2 SLP128 T01500072 10178 20150 55003=
201307161053 METAR KPAE 161053Z AUTO 01003KT 10SM CLR 16/07 A2992 RMK AO2 SLP127 T01610067=
201307160953 METAR KPAE 160953Z AUTO 01003KT 10SM CLR 16/07 A2992 RMK AO2 SLP129 T01610067=
201307160853 METAR KPAE 160853Z AUTO 35003KT 10SM CLR 16/07 A2993 RMK AO2 SLP131 T01610072 58004=
201307160753 METAR KPAE 160753Z AUTO 36003KT 10SM CLR 16/08 A2994 RMK AO2 SLP135 T01610078 402500111=
201307160653 METAR KPAE 160653Z AUTO 35004KT 10SM CLR 17/07 A2994 RMK AO2 SLP136 T01720067=
201307160553 METAR KPAE 160553Z AUTO 36006KT 10SM CLR 18/07 A2994 RMK AO2 SLP137 T01780067 10244 20178 53000=
201307160453 METAR KPAE 160453Z AUTO 35005KT 10SM CLR 19/07 A2994 RMK AO2 SLP137 T01940067=
201307160353 METAR KPAE 160353Z AUTO 35005KT 10SM CLR 21/06 A2993 RMK AO2 SLP133 T02060061=
201307160253 METAR KPAE 160253Z 34004KT 10SM CLR 22/07 A2994 RMK AO2 SLP136 T02220072 56011=
201307160153 METAR KPAE 160153Z 34007KT 10SM CLR 23/07 A2994 RMK AO2 SLP136 T02330067=
201307160053 METAR KPAE 160053Z 34008G14KT 10SM CLR 24/07 A2996 RMK AO2 SLP141 T02440072=
201307152353 METAR KPAE 152353Z 34009KT 10SM CLR 24/08 A2997 RMK AO2 SLP148 T02440078 10250 20194 57020=
201307152253 METAR KPAE 152253Z 34010KT 10SM CLR 24/08 A2999 RMK AO2 SLP154 T02440083=
201307152153 METAR KPAE 152153Z 34011KT 10SM CLR 23/09 A3001 RMK AO2 SLP161 T02330089=
201307152053 METAR KPAE 152053Z VRB06KT 10SM CLR 23/10 A3003 RMK AO2 SLP168 T02330100 58011=
201307151953 METAR KPAE 151953Z 01007KT 10SM CLR 22/10 A3005 RMK AO2 SLP172 T02220100=
201307151853 METAR KPAE 151853Z 35006KT 10SM CLR 21/11 A3006 RMK AO2 SLP177 T02060106=
201307151753 METAR KPAE 151753Z VRB05KT 10SM CLR 19/11 A3007 RMK AO2 SLP180 T01940111 10194 20111 58002=
201307151653 METAR KPAE 151653Z VRB04KT 10SM CLR 17/11 A3007 RMK AO2 SLP182 T01720106=
201307151553 METAR KPAE 151553Z 01007KT 10SM CLR 16/11 A3007 RMK AO2 SLP183 T01610106=
201307151453 METAR KPAE 151453Z 36006KT 10SM SCT006 14/11 A3007 RMK AO2 SLP182 T01390106 51004=
201307151441 SPECI KPAE 151441Z 36006KT 10SM SCT008 14/11 A3007 RMK AO2=
201307151353 METAR KPAE 151353Z 00000KT 10SM CLR 13/10 A3007 RMK AO2 SLP182 T01280100=
201307151253 METAR KPAE 151253Z AUTO 00000KT 10SM CLR 12/09 A3006 RMK AO2 SLP179 T01170089 $=
201307151153 METAR KPAE 151153Z AUTO 00000KT 10SM CLR 12/09 A3006 RMK AO2 SLP178 T01170089 10133 20117 53002 $=
201307151053 METAR KPAE 151053Z AUTO 02003KT 10SM CLR 12/09 A3005 RMK AO2 SLP175 T01220094 $=
201307150953 METAR KPAE 150953Z AUTO 00000KT 10SM CLR 12/09 A3005 RMK AO2 SLP174 T01220089 $=
201307150853 METAR KPAE 150853Z AUTO 35003KT 10SM CLR 13/09 A3005 RMK AO2 SLP175 T01280089 50002 $=
201307150753 METAR KPAE 150753Z AUTO 36005KT 10SM CLR 13/08 A3006 RMK AO2 SLP176 T01280083 402440111 $=
201307150653 METAR KPAE 150653Z AUTO 35009KT 10SM BKN075 13/09 A3005 RMK AO2 SLP175 T01330089 $=
201307150553 METAR KPAE 150553Z AUTO 35010G17KT 10SM FEW075 13/08 A3005 RMK AO2 SLP174 T01330083 10228 20133 53003 $=
201307150453 METAR KPAE 150453Z AUTO VRB05KT 10SM CLR 15/08 A3004 RMK AO2 SLP172 T01500083 $=
201307150353 METAR KPAE 150353Z AUTO 01005KT 10SM CLR 16/08 A3004 RMK AO2 SLP170 T01560083 $=
201307150253 METAR KPAE 150253Z 01007KT 10SM CLR 18/08 A3004 RMK AO2 SLP171 T01780078 55007 $=
201307150153 METAR KPAE 150153Z 36005KT 10SM CLR 20/09 A3003 RMK AO2 SLP169 T02000089 $=
201307150053 METAR KPAE 150053Z 35007KT 10SM CLR 22/04 A3004 RMK AO2 SLP172 T02170044 $=
201307142353 METAR KPAE 142353Z 36007KT 10SM CLR 23/07 A3006 RMK AO2 SLP177 T02280067 10244 20189 56016 $=
201307142253 METAR KPAE 142253Z VRB05KT 10SM CLR 24/07 A3007 RMK AO2 SLP181 T02440072 $=
201307142153 METAR KPAE 142153Z 01005KT 10SM CLR 24/07 A3009 RMK AO2 SLP187 T02390072 $=
201307142053 METAR KPAE 142053Z 31005KT 10SM CLR 23/10 A3011 RMK AO2 SLP193 T02330100 58009 $=
201307141953 METAR KPAE 141953Z 29005KT 10SM CLR 22/10 A3012 RMK AO2 SLP197 T02220100 $=
201307141853 METAR KPAE 141853Z 31005KT 10SM CLR 21/08 A3013 RMK AO2 SLP201 T02110083 $=
201307141753 METAR KPAE 141753Z 32004KT 10SM CLR 20/07 A3013 RMK AO2 SLP203 T02000072 10200 20111 58005 $=
201307141653 METAR KPAE 141653Z 02004KT 10SM CLR 18/08 A3014 RMK AO2 SLP207 T01780083 $=
201307141553 METAR KPAE 141553Z VRB03KT 10SM CLR 17/08 A3015 RMK AO2 SLP210 T01670083 $=
201307141453 METAR KPAE 141453Z 02003KT 10SM CLR 15/09 A3015 RMK AO2 SLP209 T01500089 50002 $=
201307141353 METAR KPAE 141353Z VRB04KT 10SM CLR 13/09 A3015 RMK AO2 SLP209 T01280089=
201307141253 METAR KPAE 141253Z AUTO 00000KT 10SM CLR 11/08 A3015 RMK AO2 SLP207 T01110078=
201307141153 METAR KPAE 141153Z AUTO 03003KT 10SM CLR 12/08 A3014 RMK AO2 SLP207 T01220078 10139 20117 56002=
201307141053 METAR KPAE 141053Z AUTO 00000KT 10SM CLR 13/08 A3015 RMK AO2 SLP207 T01280078=
201307140953 METAR KPAE 140953Z AUTO 00000KT 10SM CLR 13/08 A3015 RMK AO2 SLP207 T01330078=
201307140853 METAR KPAE 140853Z AUTO 04003KT 10SM CLR 14/08 A3015 RMK AO2 SLP209 T01390078 55001=
201307140753 METAR KPAE 140753Z AUTO 01004KT 10SM CLR 13/08 A3015 RMK AO2 SLP209 T01330083 402280094=
201307140653 METAR KPAE 140653Z AUTO 36009G14KT 10SM CLR 13/09 A3015 RMK AO2 SLP208 T01330089=
201307140553 METAR KPAE 140553Z AUTO 36007KT 10SM CLR 13/09 A3015 RMK AO2 SLP210 T01330089 10228 20133 51003 $=
201307140453 METAR KPAE 140453Z AUTO VRB03KT 10SM CLR 14/10 A3015 RMK AO2 SLP210 T01390100=
201307140353 METAR KPAE 140353Z AUTO 35005KT 10SM CLR 16/10 A3015 RMK AO2 SLP208 T01610100=
201307140253 METAR KPAE 140253Z 35005KT 10SM CLR 19/10 A3015 RMK AO2 SLP207 T01940100 55002=
201307140153 METAR KPAE 140153Z 35007KT 10SM CLR 22/09 A3014 RMK AO2 SLP206 T02170089=
201307140053 METAR KPAE 140053Z 33007KT 10SM CLR 22/07 A3014 RMK AO2 SLP206 T02220067=
201307132353 METAR KPAE 132353Z 34007KT 10SM CLR 22/07 A3015 RMK AO2 SLP209 T02220067 10222 20172 58014=
201307132253 METAR KPAE 132253Z 36006KT 10SM CLR 22/08 A3017 RMK AO2 SLP215 T02170078=
201307132153 METAR KPAE 132153Z 34006KT 10SM CLR 21/09 A3018 RMK AO2 SLP219 T02110089=
201307132053 METAR KPAE 132053Z 02006KT 10SM CLR 21/08 A3020 RMK AO2 SLP224 T02060083 57006=
201307131953 METAR KPAE 131953Z 01005KT 10SM CLR 20/08 A3020 RMK AO2 SLP226 T02000083=
201307131853 METAR KPAE 131853Z VRB03KT 10SM CLR 19/09 A3021 RMK AO2 SLP228 T01890089=
201307131753 METAR KPAE 131753Z VRB04KT 10SM CLR 18/08 A3021 RMK AO2 SLP230 T01780083 10178 20094 50004=
201307131653 METAR KPAE 131653Z 34005KT 10SM CLR 16/09 A3022 RMK AO2 SLP232 T01560089=
201307131553 METAR KPAE 131553Z VRB04KT 10SM CLR 14/09 A3022 RMK AO2 SLP233 T01440094=
201307131453 METAR KPAE 131453Z 02006KT 10SM CLR 13/09 A3020 RMK AO2 SLP227 T01280089 51012=
201307131353 METAR KPAE 131353Z 03005KT 10SM CLR 12/09 A3020 RMK AO2 SLP224 T01170089=
201307131253 METAR KPAE 131253Z AUTO 00000KT 10SM CLR 10/08 A3018 RMK AO2 SLP220 T01000078=
201307131153 METAR KPAE 131153Z AUTO 00000KT 10SM CLR 11/07 A3017 RMK AO2 SLP214 T01060072 10133 20106 51009=
201307131053 METAR KPAE 131053Z AUTO 00000KT 10SM CLR 12/07 A3016 RMK AO2 SLP212 T01170072=
201307130953 METAR KPAE 130953Z AUTO 06003KT 10SM CLR 12/07 A3015 RMK AO2 SLP210 T01170067=
201307130853 METAR KPAE 130853Z AUTO 04004KT 10SM CLR 12/07 A3014 RMK AO2 SLP205 T01220072 51010=
201307130753 METAR KPAE 130753Z AUTO 02003KT 10SM CLR 12/07 A3014 RMK AO2 SLP206 T01220072 401940111=
201307130653 METAR KPAE 130653Z AUTO 03005KT 10SM CLR 12/07 A3013 RMK AO2 SLP201 T01220067=
201307130553 METAR KPAE 130553Z AUTO 02006KT 10SM CLR 13/07 A3011 RMK AO2 SLP196 T01330072 10194 20128 51011=
201307130453 METAR KPAE 130453Z AUTO 01005KT 10SM CLR 14/09 A3010 RMK AO2 SLP194 T01390089=
201307130353 METAR KPAE 130353Z AUTO 34004KT 10SM CLR 14/10 A3009 RMK AO2 SLP188 T01440100=
201307130253 METAR KPAE 130253Z 29005KT 10SM CLR 18/09 A3008 RMK AO2 SLP184 T01780094 53001=
201307130153 METAR KPAE 130153Z VRB04KT 10SM CLR 18/08 A3007 RMK AO2 SLP181 T01830083=
201307130053 METAR KPAE 130053Z 25003KT 10SM CLR 18/06 A3007 RMK AO2 SLP181 T01830061=
201307122353 METAR KPAE 122353Z 21004KT 10SM CLR 19/08 A3007 RMK AO2 SLP182 T01890083 10194 20139 50004=
201307122253 METAR KPAE 122253Z 24007KT 10SM CLR 18/10 A3008 RMK AO2 SLP184 T01830100=
201307122153 METAR KPAE 122153Z 23008KT 10SM CLR 17/09 A3007 RMK AO2 SLP184 T01720094=
201307122053 METAR KPAE 122053Z 27007KT 10SM CLR 18/09 A3006 RMK AO2 SLP179 T01830094 50005=
201307121953 METAR KPAE 121953Z 00000KT 10SM CLR 17/09 A3007 RMK AO2 SLP181 T01670089=
201307121853 METAR KPAE 121853Z 00000KT 10SM SCT017 14/09 A3006 RMK AO2 SLP180 T01440089=
201307121753 METAR KPAE 121753Z 25004KT 10SM SCT012 14/09 A3005 RMK AO2 SLP175 T01440089 10144 20111 53004=
201307121653 METAR KPAE 121653Z 00000KT 10SM SCT012 14/09 A3003 RMK AO2 SLP170 T01390094=
201307121553 METAR KPAE 121553Z 00000KT 10SM FEW008 13/09 A3004 RMK AO2 SLP171 T01280089=
201307121500 SPECI KPAE 121500Z 02004KT 10SM FEW008 12/09 A3004 RMK AO2 $=
201307121453 METAR KPAE 121453Z VRB04KT 10SM CLR 12/09 A3004 RMK AO2 SLP171 T01220089 52002 $=
201307121353 METAR KPAE 121353Z VRB04KT 10SM CLR 12/09 A3004 RMK AO2 SLP171 T01170089 $=
201307121253 METAR KPAE 121253Z AUTO 01005KT 10SM CLR 11/08 A3003 RMK AO2 SLP170 T01110083 $=
201307121153 METAR KPAE 121153Z AUTO VRB05KT 10SM CLR 12/08 A3003 RMK AO2 SLP168 T01170083 10122 20111 58003 $=
201307121053 METAR KPAE 121053Z AUTO 00000KT 10SM CLR 12/08 A3004 RMK AO2 SLP170 T01170078 $=
201307120953 METAR KPAE 120953Z AUTO 03005KT 10SM CLR 12/07 A3004 RMK AO2 SLP171 T01170072 $=
201307120853 METAR KPAE 120853Z AUTO 02006KT 10SM CLR 12/07 A3004 RMK AO2 SLP172 T01170072 50001 $=
201307120753 METAR KPAE 120753Z AUTO 03003KT 10SM CLR 12/08 A3004 RMK AO2 SLP172 T01170078 402000117 $=
201307120653 METAR KPAE 120653Z AUTO 01004KT 10SM CLR 12/08 A3004 RMK AO2 SLP171 T01220078 $=
201307120553 METAR KPAE 120553Z AUTO 02005KT 10SM CLR 12/08 A3004 RMK AO2 SLP172 T01220083 10183 20122 58000 $=
201307120453 METAR KPAE 120453Z AUTO 01007KT 10SM CLR 13/08 A3004 RMK AO2 SLP173 T01280083 $=
201307120353 METAR KPAE 120353Z AUTO VRB05KT 10SM FEW065 14/08 A3004 RMK AO2 SLP171 T01390078 $=
201307120253 METAR KPAE 120253Z 35007KT 10SM SCT060 16/08 A3004 RMK AO2 SLP172 T01560078 56009 $=
201307120153 METAR KPAE 120153Z 36008KT 10SM OVC055 16/08 A3005 RMK AO2 SLP174 T01560078 $=
201307120053 METAR KPAE 120053Z 35006KT 10SM OVC055 17/07 A3006 RMK AO2 SLP177 T01670067 $=
201307112353 METAR KPAE 112353Z 35007KT 10SM BKN055 18/07 A3007 RMK AO2 SLP181 T01780067 10200 20139 58008 $=
201307112253 METAR KPAE 112253Z 35008KT 10SM OVC055 18/07 A3008 RMK AO2 SLP186 T01780067 $=
201307112153 METAR KPAE 112153Z 01005KT 10SM BKN055 18/08 A3009 RMK AO2 SLP186 T01780083 $=
201307112053 METAR KPAE 112053Z 30006KT 10SM SCT050 19/07 A3009 RMK AO2 SLP188 T01890072 58002 $=
201307111953 METAR KPAE 111953Z 30007KT 10SM CLR 18/09 A3010 RMK AO2 SLP190 T01830089 $=
201307111905 SPECI KPAE 111905Z 22006KT 10SM FEW020 SCT024 17/09 A3010 RMK AO2 $=
201307111853 METAR KPAE 111853Z 26006KT 10SM BKN015 OVC040 16/09 A3010 RMK AO2 SLP192 T01610094 $=
201307111753 METAR KPAE 111753Z VRB04KT 10SM BKN015 BKN040 14/10 A3010 RMK AO2 SLP191 60000 T01440100 10144 20122 51004 $=
201307111700 SPECI KPAE 111700Z 21003KT 10SM BKN015 BKN026 OVC041 13/10 A3009 RMK AO2 $=
201307111653 METAR KPAE 111653Z 19004KT 10SM OVC013 13/10 A3009 RMK AO2 RAB08E42 SLP190 P0000 T01280100 $=
201307111614 SPECI KPAE 111614Z 19005KT 8SM -RA OVC013 12/09 A3009 RMK AO2 RAB08 P0000 $=
201307111553 METAR KPAE 111553Z 19008KT 9SM OVC015 13/09 A3009 RMK AO2 SLP189 T01280094 $=
201307111500 METAR KPAE NIL=
201307111453 METAR KPAE 111453Z AUTO 23003KT 10SM BKN019 OVC023 13/09 A3008 RMK AO2 SLP187 T01330089 53011 $=
201307111353 METAR KPAE 111353Z AUTO 02003KT 10SM OVC023 13/08 A3007 RMK AO2 SLP183 T01330078 $=
201307111253 METAR KPAE 111253Z AUTO 00000KT 10SM OVC026 13/08 A3006 RMK AO2 SLP177 T01330078 $=
201307111153 METAR KPAE 111153Z AUTO 00000KT 10SM OVC028 13/08 A3005 RMK AO2 SLP175 T01330083 10133 20128 53010 $=
201307111053 METAR KPAE 111053Z AUTO VRB03KT 10SM OVC028 13/07 A3004 RMK AO2 SLP170 T01330072 $=
201307111001 SPECI KPAE 111001Z AUTO 03003KT 10SM OVC028 13/07 A3003 RMK AO2 $=
201307110953 METAR KPAE 110953Z AUTO 02003KT 10SM OVC030 13/08 A3003 RMK AO2 SLP168 T01330078 $=
201307110853 METAR KPAE 110853Z AUTO 01007KT 10SM OVC030 13/08 A3002 RMK AO2 SLP164 T01280078 51003 $=
201307110850 SPECI KPAE 110850Z AUTO 01006KT 10SM OVC030 13/08 A3002 RMK AO2 $=
201307110753 METAR KPAE 110753Z AUTO 01007KT 10SM OVC028 13/08 A3001 RMK AO2 SLP161 T01280078 402220122 $=
201307110653 METAR KPAE 110653Z 02008KT 10SM OVC028 13/08 A3001 RMK AO2 SLP161 T01280078 $=
201307110553 METAR KPAE 110553Z 01008KT 10SM OVC033 13/08 A3000 RMK AO2 SLP158 T01280078 10189 20128 53002 $=
201307110453 METAR KPAE 110453Z 01008G15KT 10SM BKN037 13/09 A2999 RMK AO2 SLP156 T01280089 $=
201307110353 METAR KPAE 110353Z 01006KT 10SM CLR 13/09 A2998 RMK AO2 SLP152 T01330094=
201307110253 METAR KPAE 110253Z 02007KT 10SM CLR 15/09 A2999 RMK AO2 SLP155 T01500094 56009=
201307110153 METAR KPAE 110153Z VRB06KT 10SM CLR 17/10 A3000 RMK AO2 SLP156 T01670100=
201307110053 METAR KPAE 110053Z 36009KT 10SM CLR 17/11 A3001 RMK AO2 SLP162 T01670106=
201307102353 METAR KPAE 102353Z 33004KT 10SM CLR 19/12 A3002 RMK AO2 SLP164 T01890117 10222 20161 57016=
201307102253 METAR KPAE 102253Z 28007KT 10SM CLR 21/12 A3003 RMK AO2 SLP169 T02110117=
201307102153 METAR KPAE 102153Z VRB05KT 10SM CLR 21/12 A3005 RMK AO2 SLP174 T02110117=
201307102053 METAR KPAE 102053Z 26008KT 10SM SCT020 19/12 A3007 RMK AO2 SLP180 T01940117 58005=
201307101953 METAR KPAE 101953Z 27005KT 10SM SCT020 19/12 A3007 RMK AO2 SLP182 T01890117=
201307101914 SPECI KPAE 101914Z VRB04KT 10SM SCT020 18/12 A3008 RMK AO2=
201307101853 METAR KPAE 101853Z COR 29005KT 10SM SCT008 BKN015 OVC020 17/12 A3008 RMK AO2 SLP186 T01720117=
201307101753 METAR KPAE 101753Z 29005KT 10SM SCT008 BKN015 OVC020 16/12 A3008 RMK AO2 SLP185 T01610117 10172 20122 51003=
201307101749 SPECI KPAE 101749Z 27006KT 10SM FEW008 OVC015 16/12 A3008 RMK AO2=
201307101733 SPECI KPAE 101733Z 30007KT 10SM BKN015 OVC021 17/12 A3008 RMK AO2=
201307101653 METAR KPAE 101653Z VRB03KT 10SM BKN013 OVC018 16/11 A3008 RMK AO2 SLP185 T01610111=
201307101633 SPECI KPAE 101633Z VRB04KT 10SM FEW012 BKN017 16/11 A3008 RMK AO2=
201307101553 METAR KPAE 101553Z 34006KT 10SM CLR 16/11 A3007 RMK AO2 SLP182 T01610106=
201307101453 METAR KPAE 101453Z 04003KT 10SM CLR 15/11 A3007 RMK AO2 SLP180 T01500106 53004 $=
201307101353 METAR KPAE 101353Z 00000KT 10SM CLR 14/11 A3006 RMK AO2 SLP179 T01390106=
201307101253 METAR KPAE 101253Z AUTO 02006KT 10SM CLR 12/11 A3005 RMK AO2 SLP175 T01220106 $=
201307101153 METAR KPAE 101153Z AUTO 02005KT 10SM CLR 13/10 A3006 RMK AO2 SLP175 T01280100 10161 20128 53000 $=
201307101053 METAR KPAE 101053Z AUTO 02005KT 10SM FEW080 13/10 A3005 RMK AO2 SLP174 T01330100 $=
201307100953 METAR KPAE 100953Z AUTO 02006KT 10SM CLR 14/11 A3005 RMK AO2 SLP172 T01440106 $=
201307100853 METAR KPAE 100853Z AUTO VRB03KT 10SM CLR 15/11 A3005 RMK AO2 SLP174 T01500106 51001 $=
201307100753 METAR KPAE 100753Z AUTO VRB03KT 10SM CLR 15/10 A3005 RMK AO2 SLP175 T01500100 402560128 $=
201307100653 METAR KPAE 100653Z AUTO 06004KT 10SM CLR 16/10 A3005=
201307100553 METAR KPAE 100553Z AUTO 02008KT 10SM CLR 16/10 A3005 RMK AO2 SLP174 T01610100 10239 20161 53003 $=
201307100453 METAR KPAE 100453Z AUTO 02008KT 10SM CLR 16/10 A3004 RMK AO2 SLP171 T01610100=
201307100353 METAR KPAE 100353Z AUTO 36007G15KT 10SM CLR 16/11 A3004 RMK AO2 SLP171 T01610106=
201307100253 METAR KPAE 100253Z 01007G14KT 10SM CLR 18/11 A3004=
201307100153 METAR KPAE 100153Z 36009KT 10SM CLR 20/10 A3005 RMK AO2 SLP174 T02000100=
201307100053 METAR KPAE 100053Z 36008G14KT 10SM CLR 21/12 A3006 RMK AO2 SLP177 T02110122=
201307092353 METAR KPAE 092353Z 01005KT 10SM CLR 24/12 A3007 RMK AO2 SLP179 T02390122 10256 20211 56010=
201307092253 METAR KPAE 092253Z 34004KT 10SM CLR 25/12 A3007 RMK AO2 SLP181 T02500122=
201307092153 METAR KPAE 092153Z VRB04KT 10SM CLR 25/12 A3009 RMK AO2 SLP185 T02500122=
201307092053 METAR KPAE 092053Z 33005KT 10SM CLR 25/13 A3010 RMK AO2 SLP188 T02500133 58009=
201307091953 METAR KPAE 091953Z 30004KT 10SM CLR 23/13 A3011 RMK AO2 SLP193 T02330133=
201307091853 METAR KPAE 091853Z VRB06KT 10SM CLR 23/13 A3012 RMK AO2 SLP196 T02280133=
201307091753 METAR KPAE 091753Z 29005KT 10SM CLR 21/13 A3012 RMK AO2 SLP199 T02110128 10217 20128 58001=
201307091653 METAR KPAE 091653Z 00000KT 10SM CLR 19/13 A3013 RMK AO2 SLP201 T01940128=
201307091553 METAR KPAE 091553Z 00000KT 10SM CLR 17/12 A3013 RMK AO2 SLP201 T01670117=
201307091453 METAR KPAE 091453Z VRB03KT 6SM CLR 14/12 A3013 RMK AO2 SLP199 FG NORTH OF 34L T01440117 53005=
201307091430 SPECI KPAE 091430Z 02004KT 6SM CLR 14/12 A3012 RMK AO2 FG NORTH OF 34L=
201307091415 SPECI KPAE 091415Z 36005KT 1SM R16R/P6000FT BR BKN001 13/12 A3012 RMK AO2 FG ALONG SHORLINE VIS NW-N 1/2 NE 1=
201307091353 METAR KPAE 091353Z VRB05KT 5SM R16R/3000VP6000FT BR OVC001 13/12 A3012 RMK AO2 SLP197 T01330117 $=
201307091253 METAR KPAE 091253Z AUTO VRB04KT 5SM BR OVC001 13/12 A3011 RMK AO2 SLP194 T01280117 $=
201307091225 SPECI KPAE 091225Z AUTO 01004KT 5SM R16R/3500VP6000FT BR BKN001 13/12 A3011 RMK AO2 $=
201307091216 SPECI KPAE 091216Z AUTO 01003KT 5SM R16R/4000VP6000FT BR SCT001 13/12 A3011 RMK AO2 $=
201307091153 METAR KPAE 091153Z AUTO 02004KT 9SM CLR 13/12 A3011 RMK AO2 SLP194 T01330117 10161 20133 55002 $=
201307091053 METAR KPAE 091053Z AUTO 36006KT 10SM CLR 14/11 A3010 RMK AO2 SLP192 T01440111 $=
201307090953 METAR KPAE 090953Z AUTO 02005KT 9SM CLR 14/13 A3011 RMK AO2 SLP194 T01440128=
201307090853 METAR KPAE 090853Z AUTO 03004KT 9SM CLR 15/13 A3012 RMK AO2 SLP196 T01500128 50001=
201307090753 METAR KPAE 090753Z AUTO 00000KT 10SM CLR 16/13 A3012 RMK AO2 SLP198 T01560128 402440133=
201307090653 METAR KPAE 090653Z AUTO 02004KT 10SM CLR 16/12 A3011 RMK AO2 SLP196 T01560122=
201307090553 METAR KPAE 090553Z AUTO 02003KT 10SM CLR 16/12 A3011 RMK AO2 SLP195 T01610122 10244 20161 53006=
201307090453 METAR KPAE 090453Z AUTO 00000KT 10SM CLR 18/13 A3010 RMK AO2 SLP192 T01830128=
201307090353 METAR KPAE 090353Z AUTO 00000KT 10SM CLR 20/13 A3009 RMK AO2 SLP187 T02000128=
201307090253 METAR KPAE 090253Z VRB03KT 10SM CLR 21/13 A3009 RMK AO2 SLP188 T02110128 53003=
201307090153 METAR KPAE 090153Z 35005KT 10SM CLR 23/12 A3009 RMK AO2 SLP186 T02280117=
201307090053 METAR KPAE 090053Z 29005KT 10SM CLR 24/13 A3008 RMK AO2 SLP185 T02440128=
201307082353 METAR KPAE 082353Z AUTO 24005KT 10SM CLR 24/12 A3008 RMK AO2 SLP185 T02390117 10244 20167 56006 TSNO=
201307082253 METAR KPAE 082253Z AUTO 26005KT 10SM CLR 23/12 A3009 RMK AO2 SLP187 T02330117 TSNO=
201307082153 METAR KPAE 082153Z 25005KT 10SM CLR 23/12 A3010 RMK AO2 SLP189 T02330117=
201307082053 METAR KPAE 082053Z 25006KT 10SM CLR 22/12 A3010 RMK AO2 SLP191 T02220122 58001=
201307081953 METAR KPAE 081953Z 24008KT 10SM CLR 19/12 A3011 RMK AO2 SLP196 T01890122=
201307081853 METAR KPAE 081853Z 26008G15KT 10SM CLR 18/12 A3011 RMK AO2 SLP194 T01830122=
201307081753 METAR KPAE 081753Z 24009KT 10SM CLR 17/12 A3011 RMK AO2 SLP193 T01670117 10172 20133 51011=
201307081653 METAR KPAE 081653Z VRB05KT 10SM FEW013 16/12 A3010 RMK AO2 SLP190 T01610117=
201307081553 METAR KPAE 081553Z VRB05KT 10SM OVC008 16/11 A3009 RMK AO2 SLP186 T01560111=
201307081453 METAR KPAE 081453Z 21005KT 10SM OVC008 14/11 A3007 RMK AO2 SLP181 T01390111 53016 $=
201307081353 METAR KPAE 081353Z 19007KT 10SM BKN008 14/11 A3005 RMK AO2 SLP174 T01390111=
201307081253 METAR KPAE 081253Z AUTO 15004KT 10SM FEW008 BKN037 14/11 A3004 RMK AO2 SLP169 T01390111 $=
201307081226 SPECI KPAE 081226Z AUTO 20003KT 9SM FEW008 BKN035 14/12 A3003 RMK AO2 $=
201307081153 METAR KPAE 081153Z AUTO 00000KT 9SM BKN033 14/12 A3003 RMK AO2 SLP165 T01390122 10172 20133 53012 $=
201307081053 METAR KPAE 081053Z AUTO 00000KT 9SM SCT033 13/12 A3001 RMK AO2 SLP161 T01330117 $=
201307081037 SPECI KPAE 081037Z AUTO 00000KT 9SM BKN031 14/12 A3001 RMK AO2 $=
201307081023 SPECI KPAE 081023Z AUTO 00000KT 9SM SCT012 OVC029 14/12 A3001 RMK AO2 $=
201307080953 METAR KPAE 080953Z AUTO 00000KT 9SM BKN012 BKN030 14/12 A3000 RMK AO2 SLP157 T01390117 $=
201307080853 METAR KPAE 080853Z AUTO 03003KT 10SM CLR 14/12 A2999 RMK AO2 SLP153 T01440122 $=
201307080753 METAR KPAE 080753Z AUTO 00000KT 10SM CLR 16/12 A2997 RMK AO2 SLP146 T01610117 402500128=
201307080653 METAR KPAE 080653Z AUTO 02003KT 10SM CLR 16/12 A2997 RMK AO2 SLP145 T01560122=
201307080553 METAR KPAE 080553Z AUTO 03003KT 10SM CLR 17/12 A2996 RMK AO2 SLP142 T01720122 10250 20167 51008=
201307080453 METAR KPAE 080453Z AUTO 01003KT 10SM CLR 18/13 A2995 RMK AO2 SLP141 T01780133=
201307080353 METAR KPAE 080353Z AUTO 29004KT 10SM CLR 19/13 A2994 RMK AO2 SLP137 T01940133=
201307080253 METAR KPAE 080253Z 30006KT 10SM SCT080 21/14 A2993 RMK AO2 SLP133 T02110139 53004=
201307080153 METAR KPAE 080153Z 26004KT 10SM CLR 23/13 A2991 RMK AO2 SLP127 T02280128=
201307080053 METAR KPAE 080053Z 27005KT 10SM CLR 24/11 A2991 RMK AO2 SLP125 T02440111=
201307072353 METAR KPAE 072353Z VRB05KT 10SM CLR 24/12 A2992 RMK AO2 SLP129 T02440117 10244 20183 58009=
201307072253 METAR KPAE 072253Z VRB05KT 10SM CLR 23/11 A2993 RMK AO2 SLP133 T02330111=
201307072153 METAR KPAE 072153Z VRB06KT 10SM CLR 23/11 A2994 RMK AO2 SLP136 T02280111=
201307072053 METAR KPAE 072053Z 26006KT 10SM CLR 22/13 A2995 RMK AO2 SLP139 T02170128 58004=
201307071953 METAR KPAE 071953Z 25006KT 10SM CLR 21/13 A2995 RMK AO2 SLP141 T02110128=
201307071853 METAR KPAE 071853Z 27008KT 10SM CLR 19/13 A2996 RMK AO2 SLP142 T01940128=
201307071753 METAR KPAE 071753Z 27006KT 10SM CLR 19/13 A2996 RMK AO2 SLP143 T01890133 10189 20128 50001=
201307071653 METAR KPAE 071653Z 26006KT 10SM CLR 18/12 A2996 RMK AO2 SLP144 T01780122=
201307071553 METAR KPAE 071553Z 26005KT 10SM CLR 18/13 A2996 RMK AO2 SLP143 T01780128=
201307071453 METAR KPAE 071453Z 00000KT 10SM CLR 17/12 A2996 RMK AO2 SLP141 T01670122 51008=
201307071353 METAR KPAE 071353Z 00000KT 9SM FEW070 14/12 A2995 RMK AO2 SLP139 T01440122=
201307071253 METAR KPAE 071253Z AUTO 36003KT 10SM BKN070 BKN095 13/11 A2994 RMK AO2 SLP136 T01330111=
201307071153 METAR KPAE 071153Z AUTO 00000KT 10SM CLR 14/09 A2993 RMK AO2 SLP134 T01390094 10167 20133 53004=
201307071053 METAR KPAE 071053Z AUTO 00000KT 10SM SCT100 16/09 A2992 RMK AO2 SLP129 T01560089=
201307070953 METAR KPAE 070953Z AUTO 00000KT 10SM FEW100 16/08 A2992 RMK AO2 SLP130 T01610083=
201307070853 METAR KPAE 070853Z AUTO 07003KT 10SM FEW100 16/09 A2992 RMK AO2 SLP130 T01610094 55001=
201307070753 METAR KPAE 070753Z AUTO 08004KT 10SM FEW100 17/10 A2992 RMK AO2 SLP128 T01670100 402330122=
201307070653 METAR KPAE 070653Z AUTO 05003KT 10SM CLR 16/09 A2993 RMK AO2 SLP131 T01610094=
201307070553 METAR KPAE 070553Z AUTO 02006KT 10SM CLR 16/10 A2993 RMK AO2 SLP132 T01560100 10233 20156 51007=
201307070453 METAR KPAE 070453Z AUTO 36007KT 10SM CLR 17/10 A2992 RMK AO2 SLP131 T01670100=
201307070353 METAR KPAE 070353Z AUTO 04004KT 10SM CLR 17/11 A2991 RMK AO2 SLP127 T01720106=
201307070253 METAR KPAE 070253Z VRB05KT 10SM CLR 20/11 A2990 RMK AO2 SLP124 T02000111 55005=
201307070153 METAR KPAE 070153Z 34004KT 10SM CLR 23/11 A2990 RMK AO2 SLP123 T02280111=
201307070053 METAR KPAE 070053Z 36006KT 10SM CLR 23/12 A2990 RMK AO2 SLP124 T02330117=
201307062353 METAR KPAE 062353Z 34007KT 10SM CLR 23/12 A2992 RMK AO2 SLP129 T02330117 10233 20189 56012=
201307062253 METAR KPAE 062253Z VRB06KT 10SM CLR 23/11 A2993 RMK AO2 SLP133 T02280111=
201307062153 METAR KPAE 062153Z VRB06KT 10SM CLR 23/12 A2994 RMK AO2 SLP137 T02280117=
201307062053 METAR KPAE 062053Z 36007KT 10SM CLR 22/12 A2996 RMK AO2 SLP141 T02170122 58008=
201307061953 METAR KPAE 061953Z 36008KT 330V040 10SM CLR 21/12 A2996 RMK AO2 SLP145 T02060117=
201307061853 METAR KPAE 061853Z 30007KT 10SM CLR 21/12 A2997 RMK AO2 SLP147 T02060122=
201307061753 METAR KPAE 061753Z 02006KT 10SM CLR 19/12 A2998 RMK AO2 SLP150 T01890117 10189 20122 58006=
201307061653 METAR KPAE 061653Z 01005KT 10SM SCT015 18/12 A2999 RMK AO2 SLP152 T01780122=
201307061553 METAR KPAE 061553Z VRB04KT 10SM SCT011 17/12 A3000 RMK AO2 SLP155 T01670117=
201307061537 SPECI KPAE 061537Z 00000KT 10SM BKN011 16/11 A3000 RMK AO2=
201307061453 METAR KPAE 061453Z 00000KT 10SM FEW006 15/12 A3000 RMK AO2 SLP155 T01500117 53003=
201307061402 SPECI KPAE 061402Z 30004KT 10SM FEW006 14/12 A2999 RMK AO2=
201307061353 METAR KPAE 061353Z 29004KT 10SM CLR 14/12 A2999 RMK AO2 SLP152 T01390117=
201307061253 METAR KPAE 061253Z AUTO 33003KT 10SM CLR 12/11 A2998 RMK AO2 SLP151 T01220111=
201307061153 METAR KPAE 061153Z AUTO 00000KT 10SM CLR 13/11 A2999 RMK AO2 SLP153 T01280111 10161 20128 55001=
201307061053 METAR KPAE 061053Z AUTO 35003KT 10SM CLR 13/12 A2999 RMK AO2 SLP152 T01330117=
201307060953 METAR KPAE 060953Z AUTO VRB03KT 10SM CLR 14/12 A2999 RMK AO2 SLP152 T01390117=
201307060853 METAR KPAE 060853Z AUTO 02003KT 10SM CLR 14/12 A2999 RMK AO2 SLP153 T01390117 50000=
201307060753 METAR KPAE 060753Z AUTO VRB03KT 10SM CLR 14/12 A2999 RMK AO2 SLP155 T01390117 402280117=
201307060653 METAR KPAE 060653Z AUTO 01004KT 10SM CLR 15/12 A2999 RMK AO2 SLP154 T01500117=
201307060553 METAR KPAE 060553Z AUTO 00000KT 10SM CLR 16/11 A2999 RMK AO2 SLP154 T01610111 10228 20161 52003=
201307060453 METAR KPAE 060453Z AUTO 25003KT 10SM CLR 18/11 A2999 RMK AO2 SLP154 T01830111=
201307060353 METAR KPAE 060353Z 26003KT 10SM CLR 19/11 A2998 RMK AO2 SLP151 T01940106=
201307060253 METAR KPAE 060253Z 29005KT 10SM CLR 21/11 A2998 RMK AO2 SLP149 T02110106 56008=
201307060153 METAR KPAE 060153Z 31003KT 10SM CLR 22/10 A2998 RMK AO2 SLP150 T02170100=
201307060053 METAR KPAE 060053Z 27005KT 10SM CLR 22/10 A2999 RMK AO2 SLP154 T02170100=
201307052353 METAR KPAE 052353Z 29006KT 10SM CLR 22/10 A3000 RMK AO2 SLP157 T02220100 10228 20161 58010=
201307052253 METAR KPAE 052253Z 28005KT 10SM CLR 22/10 A3001 RMK AO2 SLP162 T02170100=
201307052153 METAR KPAE 052153Z 30006KT 10SM CLR 22/11 A3002 RMK AO2 SLP165 T02220106=
201307052053 METAR KPAE 052053Z 20003KT 10SM CLR 21/10 A3003 RMK AO2 SLP168 T02110100 57004=
201307051953 METAR KPAE 051953Z 24004KT 10SM BKN033 19/11 A3004 RMK AO2 SLP170 T01890106=
201307051853 METAR KPAE 051853Z 21003KT 10SM FEW020 OVC033 18/11 A3004 RMK AO2 SLP171 T01830111=
201307051800 SPECI KPAE 051800Z 30003KT 10SM FEW016 OVC023 16/12 A3004 RMK AO2=
201307051753 METAR KPAE 051753Z 29003KT 10SM SCT009 BKN013 BKN029 16/12 A3004 RMK AO2 SLP172 T01610117 10167 20122 58002=
201307051707 SPECI KPAE 051707Z 17004KT 8SM SCT009 BKN013 BKN029 17/12 A3005 RMK AO2=
201307051700 SPECI KPAE 051700Z VRB03KT 8SM SCT013 OVC029 16/12 A3005 RMK AO2=
201307051653 METAR KPAE 051653Z 00000KT 8SM SCT009 BKN013 OVC029 16/12 A3005 RMK AO2 SLP175 T01560117=
201307051553 METAR KPAE 051553Z 26005KT 5SM HZ BKN006 BKN044 14/12 A3005 RMK AO2 SLP175 T01440117=
201307051537 SPECI KPAE 051537Z 26005KT 4SM HZ BKN006 BKN044 14/12 A3005 RMK AO2=
201307051509 SPECI KPAE 051509Z 28003KT 7SM BKN011 BKN044 14/11 A3005 RMK AO2=
201307051453 METAR KPAE 051453Z 00000KT 7SM FEW011 SCT026 BKN044 14/11 A3005 RMK AO2 SLP174 T01440106 53005=
201307051353 METAR KPAE 051353Z 16005KT 7SM SCT011 BKN028 13/11 A3004 RMK AO2 SLP171 T01330106=
201307051253 METAR KPAE 051253Z AUTO 00000KT 9SM OVC028 13/11 A3004 RMK AO2 SLP170 T01280106=
201307051223 SPECI KPAE 051223Z AUTO 00000KT 9SM BKN028 BKN033 OVC070 12/11 A3004 RMK AO2=
201307051153 METAR KPAE 051153Z AUTO 00000KT 10SM SCT027 BKN032 13/11 A3004 RMK AO2 SLP169 T01280106 10133 20117 58004=
201307051140 SPECI KPAE 051140Z AUTO 00000KT 9SM BKN027 BKN034 12/11 A3004 RMK AO2=
201307051129 SPECI KPAE 051129Z AUTO 00000KT 9SM SCT027 BKN034 12/11 A3004 RMK AO2=
201307051101 SPECI KPAE 051101Z AUTO 00000KT 8SM BKN027 12/11 A3004 RMK AO2=
201307051053 METAR KPAE 051053Z AUTO 00000KT 7SM SCT027 12/10 A3004 RMK AO2 SLP171 T01220100=
201307050953 METAR KPAE 050953Z AUTO 02003KT 7SM CLR 12/10 A3004 RMK AO2 SLP172 T01220100=
201307050853 METAR KPAE 050853Z AUTO 04004KT 5SM HZ CLR 13/10 A3005 RMK AO2 SLP173 T01280100 58003=
201307050753 METAR KPAE 050753Z AUTO 00000KT 5SM HZ FEW030 13/11 A3005 RMK AO2 SLP175 T01330106 402110122=
201307050653 METAR KPAE 050653Z AUTO 01004KT 7SM CLR 13/11 A3005 RMK AO2 SLP175 T01330111=
201307050553 METAR KPAE 050553Z AUTO 01006KT 10SM CLR 13/11 A3006 RMK AO2 SLP176 T01330111 10211 20133 58002=
201307050453 METAR KPAE 050453Z AUTO 01003KT 10SM CLR 14/11 A3006 RMK AO2 SLP180 T01390106=
201307050353 METAR KPAE 050353Z AUTO 35006KT 10SM CLR 16/11 A3006 RMK AO2 SLP177 T01560111=
201307050253 METAR KPAE 050253Z 30003KT 10SM CLR 19/11 A3006 RMK AO2 SLP178 T01890106 56010=
201307050153 METAR KPAE 050153Z 28004KT 10SM FEW055 20/10 A3007 RMK AO2 SLP180 T02000100=
201307050053 METAR KPAE 050053Z 30005KT 10SM SCT060 21/10 A3008 RMK AO2 SLP185 T02110100=
201307042353 METAR KPAE 042353Z 27005KT 10SM CLR 21/10 A3009 RMK AO2 SLP189 T02110100 10211 20156 56013=
201307042253 METAR KPAE 042253Z 27007KT 10SM CLR 21/11 A3010 RMK AO2 SLP193 T02060106=
201307042153 METAR KPAE 042153Z 25008KT 10SM SCT026 20/11 A3012 RMK AO2 SLP197 T02000106=
201307042126 SPECI KPAE 042126Z 26008KT 10SM SCT025 20/11 A3012 RMK AO2=
201307042053 METAR KPAE 042053Z 25007KT 10SM BKN022 19/11 A3013 RMK AO2 SLP202 T01890106 57002=
201307042042 SPECI KPAE 042042Z 29004KT 10SM SCT022 BKN036 19/11 A3013 RMK AO2=
201307041953 METAR KPAE 041953Z 25004KT 10SM BKN022 OVC031 17/11 A3014 RMK AO2 SLP204 T01720111=
201307041853 METAR KPAE 041853Z 00000KT 10SM BKN027 17/11 A3014 RMK AO2 SLP204 T01670111=
201307041753 METAR KPAE 041753Z 27005KT 10SM OVC025 16/11 A3014 RMK AO2 SLP205 T01610111 10161 20122 51003=
201307041653 METAR KPAE 041653Z 27004KT 10SM OVC017 15/11 A3014 RMK AO2 SLP204 T01500106=
201307041553 METAR KPAE 041553Z 29003KT 10SM OVC015 15/10 A3014 RMK AO2 SLP204 T01500100=
201307041453 METAR KPAE 041453Z 00000KT 10SM OVC017 14/10 A3013 RMK AO2 SLP201 T01390100 53005=
201307041353 METAR KPAE 041353Z 03004KT 10SM OVC019 13/11 A3012 RMK AO2 SLP199 T01330106=
201307041253 METAR KPAE 041253Z AUTO 05003KT 10SM OVC017 13/11 A3012 RMK AO2 SLP198 T01280106=
201307041212 SPECI KPAE 041212Z AUTO VRB03KT 10SM BKN017 BKN050 12/10 A3012 RMK AO2=
201307041153 METAR KPAE 041153Z AUTO 05004KT 10SM FEW015 12/10 A3011 RMK AO2 SLP196 T01220100 10139 20122 53002=
201307041053 METAR KPAE 041053Z AUTO 05004KT 10SM OVC050 12/10 A3011 RMK AO2 SLP196 T01220100=
201307040953 METAR KPAE 040953Z AUTO 05005KT 10SM SCT050 12/10 A3011 RMK AO2 SLP194 T01220100=
201307040853 METAR KPAE 040853Z AUTO 03006KT 10SM CLR 13/10 A3011 RMK AO2 SLP194 T01280100 53002=
201307040753 METAR KPAE 040753Z AUTO 02006KT 10SM CLR 13/09 A3010 RMK AO2 SLP190 T01330094 402060133=
201307040653 METAR KPAE 040653Z AUTO 02007KT 10SM CLR 14/09 A3010 RMK AO2 SLP192 T01390094=
201307040553 METAR KPAE 040553Z AUTO 36006KT 10SM CLR 14/10 A3010 RMK AO2 SLP192 T01390100 10200 20139 53005=
201307040453 METAR KPAE 040453Z AUTO 02010KT 10SM CLR 14/09 A3009 RMK AO2 SLP190 T01440094=
201307040353 METAR KPAE 040353Z AUTO 01008G15KT 10SM CLR 14/09 A3009 RMK AO2 SLP187 T01440094 TSNO=
201307040253 METAR KPAE 040253Z 36008G14KT 10SM CLR 17/10 A3009 RMK AO2 SLP187 T01670100 55007=
201307040153 METAR KPAE 040153Z 36006G14KT 10SM CLR 18/11 A3008 RMK AO2 SLP186 T01780111=
201307040053 METAR KPAE 040053Z 36008KT 10SM CLR 19/11 A3009 RMK AO2 SLP189 T01890106=
201307032353 METAR KPAE 032353Z 36007KT 10SM CLR 20/10 A3011 RMK AO2 SLP194 T02000100 10206 20167 56018=
201307032253 METAR KPAE 032253Z 36007KT 330V040 10SM CLR 19/10 A3012 RMK AO2 SLP199 T01940100=
201307032153 METAR KPAE 032153Z 02008KT 360V060 10SM CLR 21/11 A3014 RMK AO2 SLP206 T02060111=
201307032053 METAR KPAE 032053Z 35006KT 10SM CLR 18/12 A3016 RMK AO2 SLP212 T01830117 56003=
201307031953 METAR KPAE 031953Z VRB04KT 10SM CLR 19/11 A3016 RMK AO2 SLP213 T01940106=
201307031853 METAR KPAE 031853Z VRB05KT 10SM CLR 18/11 A3017 RMK AO2 SLP214 T01780111=
201307031753 METAR KPAE 031753Z 35006KT 10SM CLR 17/11 A3017 RMK AO2 SLP215 T01670111 10172 20133 50001=
201307031653 METAR KPAE 031653Z VRB04KT 10SM CLR 16/11 A3017 RMK AO2 SLP216 T01610106=
201307031553 METAR KPAE 031553Z 01006KT 10SM CLR 15/10 A3017 RMK AO2 SLP217 T01500100=
201307031453 METAR KPAE 031453Z 36006KT 10SM CLR 14/10 A3017 RMK AO2 SLP214 T01440100 50005=
201307031353 METAR KPAE 031353Z 01004KT 10SM CLR 13/09 A3017 RMK AO2 SLP215 T01330094=
201307031253 METAR KPAE 031253Z AUTO VRB05KT 10SM OVC060 13/09 A3016 RMK AO2 SLP212 T01330089=
201307031153 METAR KPAE 031153Z AUTO 02006KT 10SM OVC050 14/09 A3015 RMK AO2 SLP210 T01390089 10161 20133 53007=
201307031053 METAR KPAE 031053Z AUTO 36006KT 10SM BKN050 13/08 A3014 RMK AO2 SLP207 T01330083=
201307030953 METAR KPAE 030953Z AUTO 02007KT 10SM CLR 13/08 A3014 RMK AO2 SLP203 T01330083=
201307030853 METAR KPAE 030853Z AUTO VRB05KT 10SM CLR 14/07 A3013 RMK AO2 SLP201 T01440072 51010=
201307030753 METAR KPAE 030753Z AUTO 02006G14KT 10SM BKN039 15/08 A3013 RMK AO2 SLP199 T01500078 402220139=
201307030653 METAR KPAE 030653Z AUTO 02008KT 10SM CLR 16/08 A3011 RMK AO2 SLP195 T01560083=
201307030553 METAR KPAE 030553Z AUTO 03008G14KT 10SM CLR 16/09 A3010 RMK AO2 SLP191 T01610094 10206 20161 53007=
201307030453 METAR KPAE 030453Z AUTO 03008KT 10SM CLR 17/09 A3009 RMK AO2 SLP187 T01670094=
201307030353 METAR KPAE 030353Z AUTO 02008G15KT 10SM CLR 17/10 A3008 RMK AO2 SLP184 T01720100=
201307030253 METAR KPAE 030253Z 02007KT 10SM CLR 19/10 A3008 RMK AO2 SLP184 T01890100 56015=
201307030153 METAR KPAE 030153Z 36011G16KT 10SM CLR 19/09 A3009 RMK AO2 SLP188 T01940094=
201307030053 METAR KPAE 030053Z 35007KT 10SM CLR 20/11 A3011 RMK AO2 SLP194 T02000106=
201307022353 METAR KPAE 022353Z 01008G14KT 10SM CLR 20/10 A3012 RMK AO2 SLP199 T02000100 10222 20194 58004=
201307022253 METAR KPAE 022253Z 01007KT 10SM CLR 21/11 A3013 RMK AO2 SLP201 T02060111=
201307022153 METAR KPAE 022153Z 36009G16KT 10SM CLR 20/12 A3014 RMK AO2 SLP204 T02000122=
201307022053 METAR KPAE 022053Z 02007KT 10SM CLR 22/13 A3013 RMK AO2 SLP202 T02170128 53004=
201307021953 METAR KPAE 021953Z VRB05KT 10SM CLR 21/14 A3013 RMK AO2 SLP200 T02110144=
201307021853 METAR KPAE 021853Z 29005KT 9SM CLR 21/14 A3012 RMK AO2 SLP198 T02060144 $=
201307021753 METAR KPAE 021753Z VRB04KT 10SM CLR 21/14 A3012 RMK AO2 SLP197 T02060139 10206 20139 58001=
201307021653 METAR KPAE 021653Z 02003KT 10SM CLR 18/13 A3012 RMK AO2 SLP196 T01780133=
201307021600 SPECI KPAE 021600Z 01003KT 10SM SCT003 17/13 A3013 RMK AO2=
201307021553 METAR KPAE 021553Z 05003KT 10SM BKN003 17/13 A3013 RMK AO2 SLP200 T01670133=
201307021529 SPECI KPAE 021529Z 01004KT 1SM R16R/P6000FT BR OVC001 15/13 A3013 RMK AO2=
201307021453 METAR KPAE 021453Z 02004KT 1/2SM R16R/1400V6000FT FG OVC001 14/13 A3012 RMK AO2 SLP198 T01440128 53013=
201307021425 SPECI KPAE 021425Z 02006KT 1/2SM R16R/1400V5000FT FG OVC001 14/13 A3011 RMK AO2=
201307021417 SPECI KPAE 021417Z AUTO 01006KT 1 3/4SM R16R/1400VP6000FT BR OVC001 14/13 A3011 RMK AO2 VIS 1/2V5=
201307021407 SPECI KPAE 021407Z AUTO VRB03KT 4SM R16R/2200VP6000FT BR OVC001 14/13 A3011 RMK AO2=
201307021400 METAR KPAE NIL=
201307021328 SPECI KPAE 021328Z AUTO 01005KT 2SM R16R/1400V5500FT BR OVC001 14/13 A3009 RMK AO2 VIS 3/4V5=
201307021300 METAR KPAE NIL=
201307021253 METAR KPAE 021253Z AUTO 02006KT 7SM OVC003 14/13 A3009 RMK AO2 SLP186 T01390128=
201307021231 SPECI KPAE 021231Z AUTO 36006KT 10SM BKN003 14/13 A3009 RMK AO2=
201307021222 SPECI KPAE 021222Z AUTO 36005KT 10SM SCT003 14/12 A3009 RMK AO2=
201307021200 METAR KPAE NIL=
201307021053 METAR KPAE 021053Z AUTO 00000KT 10SM CLR 15/12 A3008 RMK AO2 SLP185 T01500117=
201307020953 METAR KPAE 020953Z AUTO 06003KT 10SM CLR 16/12 A3009 RMK AO2 SLP187 T01560122=
201307020853 METAR KPAE 020853Z AUTO 02004KT 10SM CLR 16/13 A3008 RMK AO2 SLP183 T01560128 51017=
201307020753 METAR KPAE 020753Z AUTO 01006KT 10SM CLR 15/13 A3007 RMK AO2 SLP179 T01500128 402670150=
201307020653 METAR KPAE 020653Z AUTO 02006KT 10SM CLR 16/13 A3005 RMK AO2 SLP174 T01560133=
201307020553 METAR KPAE 020553Z AUTO VRB04KT 10SM CLR 16/13 A3003 RMK AO2 SLP166 T01610133 10228 20161 53010=
201307020453 METAR KPAE 020453Z AUTO VRB05KT 10SM CLR 18/13 A3002 RMK AO2 SLP162 T01780133=
201307020353 METAR KPAE 020353Z AUTO 36006KT 10SM CLR 20/13 A3000 RMK AO2 SLP158 T02000128=
201307020253 METAR KPAE 020253Z 35005KT 10SM CLR 22/13 A3000 RMK AO2 SLP155 T02170128 53001=
201307020153 METAR KPAE 020153Z 36005KT 10SM CLR 21/13 A3000 RMK AO2 SLP155 T02110133=
201307020053 METAR KPAE 020053Z 36009G16KT 10SM CLR 22/14 A2999 RMK AO2 SLP153 T02170139=
201307012353 METAR KPAE 012353Z 03005KT 10SM CLR 23/14 A3000 RMK AO2 SLP154 T02280144 10267 20200 51005=
201307012253 METAR KPAE 012253Z 36007KT 10SM CLR 23/15 A2999 RMK AO2 SLP153 T02330150=
201307012153 METAR KPAE 012153Z 34005KT 10SM CLR 26/16 A2999 RMK AO2 SLP151 T02560161=
201307012053 METAR KPAE 012053Z 00000KT 10SM CLR 26/16 A2998 RMK AO2 SLP148 T02610161 53005=
201307011953 METAR KPAE 011953Z 24005KT 10SM CLR 25/16 A2998 RMK AO2 SLP149 T02500156=
201307011853 METAR KPAE 011853Z VRB04KT 10SM CLR 23/16 A2996 RMK AO2 SLP142 T02330156=
201307011753 METAR KPAE 011753Z 35005KT 10SM CLR 20/14 A2997 RMK AO2 SLP145 T02000139 10206 20167 58009=
201307011653 METAR KPAE 011653Z VRB05KT 10SM CLR 19/14 A2998 RMK AO2 SLP150 T01940139=
201307011553 METAR KPAE 011553Z 03004KT 10SM CLR 19/14 A2999 RMK AO2 SLP151 T01890139=
201307011453 METAR KPAE 011453Z 35004KT 10SM CLR 18/14 A2999 RMK AO2 SLP153 T01830139 51008=
201307011353 METAR KPAE 011353Z 03004KT 10SM CLR 18/14 A2999 RMK AO2 SLP150 T01780139=
201307011253 METAR KPAE 011253Z AUTO 02005KT 10SM CLR 18/13 A2998 RMK AO2 SLP147 T01780128=
201307011153 METAR KPAE 011153Z AUTO 03004KT 10SM CLR 18/13 A2997 RMK AO2 SLP143 T01780128 10194 20167 53005=
201307011053 METAR KPAE 011053Z AUTO 01003KT 10SM CLR 18/13 A2996 RMK AO2 SLP140 T01830133=
201307010953 METAR KPAE 010953Z AUTO 03005KT 10SM CLR 19/13 A2996 RMK AO2 SLP140 T01890128=
201307010853 METAR KPAE 010853Z AUTO 01003KT 10SM CLR 19/13 A2995 RMK AO2 SLP138 T01890128 51007=
201307010753 METAR KPAE 010753Z AUTO 02003KT 10SM CLR 19/13 A2995 RMK AO2 SLP137 T01940128 402940150=
201307010653 METAR KPAE 010653Z AUTO 01004KT 10SM CLR 19/13 A2994 RMK AO2 SLP135 T01940128=
201307010553 METAR KPAE 010553Z AUTO 02005KT 10SM CLR 18/12 A2993 RMK AO2 SLP131 T01830122 10294 20183 53010=
201307010453 METAR KPAE 010453Z AUTO 01003KT 10SM CLR 19/13 A2992 RMK AO2 SLP127 T01890133=
201307010353 METAR KPAE 010353Z AUTO 35006KT 10SM CLR 22/15 A2990 RMK AO2 SLP123 T02220150=
201307010253 METAR KPAE 010253Z 35005KT 10SM SCT100 26/17 A2990 RMK AO2 SLP120 T02560167 56003=
201307010153 METAR KPAE 010153Z 36003KT 10SM CLR 28/17 A2990 RMK AO2 SLP120 T02830172=
201307010053 METAR KPAE 010053Z 34005KT 10SM CLR 28/17 A2991 RMK AO2 SLP123 T02830172=

# No short TAF reports from KPAE in databse.

###################################
#  large TAF from KPAE
###################################
201307312344 TAF AMD KPAE 312344Z 0100/0124 26006KT P6SM VCTS BKN080CB BKN150
                       TEMPO 0101/0104 -TSRA SCT040 BKN080CB BKN150
                       FM010600 03003KT P6SM SCT080 SCT150 FM011200
                       21005KT P6SM OVC005 FM011300 22003KT 4SM
                       BR OVC004
                      TEMPO 0114/0117 1SM BR VV002 FM012000 23005KT
                       P6SM BKN012 BKN080 BKN150 FM012100 25006KT
                       P6SM -SHRA VCTS SCT015 BKN080CB BKN150=
201307312329 TAF AMD KPAE 312329Z 3123/0124 26006KT P6SM VCTS BKN080CB BKN150
                       FM010600 03003KT P6SM SCT080 SCT150 FM011200
                       21005KT P6SM OVC005 FM011300 22003KT 4SM
                       BR OVC004
                      TEMPO 0114/0117 1SM BR VV002 FM012000 23005KT
                       P6SM BKN012 BKN080 BKN150 FM012100 25006KT
                       P6SM -SHRA VCTS SCT015 BKN080CB BKN150=
201307312320 TAF KPAE 312320Z 0100/0124 24007KT P6SM BKN200 FM010100 24006KT
                       P6SM VCTS BKN080CB BKN150 FM010600 03003KT
                       P6SM SCT080 SCT150 FM011200 21005KT P6SM
                       OVC005 FM011300 22003KT 4SM BR OVC004
                      TEMPO 0114/0117 1SM BR VV002 FM012000 23005KT
                       P6SM BKN012 BKN080 BKN150 FM012100 25006KT
                       P6SM -SHRA VCTS SCT015 BKN080CB BKN150=
201307312020 TAF AMD KPAE 312020Z 3120/0118 23006KT P6SM SCT004 BKN080 BKN250
                       TEMPO 3120/3121 3SM BR BKN004 FM312200 26007KT
                       P6SM VCTS BKN080CB BKN250 FM010600 03003KT
                       P6SM SCT080 BKN250 FM011200 21005KT P6SM
                       OVC005 FM011300 22003KT 4SM BR OVC004
                      TEMPO 0114/0117 1SM BR VV002=
201307311720 TAF KPAE 311720Z 3118/0118 28005KT 3SM BR BKN006
                      TEMPO 3118/3120 1SM BR OVC002 FM312000 30006KT
                       P6SM BKN012 BKN080 BKN250 FM312200 32007KT
                       P6SM VCTS BKN080CB BKN250 FM010600 03003KT
                       P6SM SCT080 BKN250 FM011200 21005KT P6SM
                       OVC005 FM011300 22003KT 4SM BR OVC004
                      TEMPO 0114/0117 1SM BR VV002=
201307311120 TAF KPAE 311120Z 3112/0112 00000KT 1/4SM FG VV002
                      TEMPO 3114/3118 4SM BR OVC003 FM311800 28005KT
                       P6SM BKN006 FM311900 30006KT P6SM SCT007
                       SCT080 BKN250 FM312000 32007KT P6SM SCT080
                       BKN250 FM010600 03003KT P6SM SCT080 BKN250=
201307310934 TAF AMD KPAE 310934Z 3110/0106 00000KT P6SM BKN002
                      TEMPO 3110/3112 1SM BR OVC001 FM311200 VRB03KT
                       P6SM OVC002
                      TEMPO 3112/3116 1/2SM FG VV001 FM311700 28005KT
                       P6SM BKN006 FM311800 30006KT P6SM SCT007
                       SCT080 BKN250 FM311900 32007KT P6SM SCT080
                       BKN250=
201307310530 TAF KPAE 310530Z 3106/0106 01006KT P6SM SCT110 SCT250 FM311300
                       VRB03KT P6SM BKN004
                      TEMPO 3114/3116 2SM BR OVC002 FM311700 28005KT
                       P6SM BKN006 FM311800 30006KT P6SM SCT007
                       SCT080 BKN250 FM311900 32007KT P6SM SCT080
                       BKN250=
201307302320 TAF KPAE 302320Z 3100/3124 26006KT P6SM SCT200 FM310600 02003KT
                       P6SM SCT200 FM311400 17004KT P6SM BKN006
                       BKN200
                      TEMPO 3115/3118 3SM BR OVC003 FM312000 25006KT
                       P6SM BKN012 BKN200 FM312100 30006KT P6SM
                       SCT080 BKN200=
201307301737 TAF KPAE 301737Z 3018/3118 28005KT P6SM SCT008 BKN200 FM302000
                       30005KT P6SM BKN200 FM302200 31006KT P6SM
                       SCT200 FM310600 02003KT P6SM SCT200 FM311400
                       17004KT P6SM BKN006 BKN200
                      TEMPO 3115/3118 3SM BR OVC003=
201307301528 TAF AMD KPAE 301528Z 3015/3112 17003KT P6SM SCT008 SCT200
                      TEMPO 3015/3018 6SM BR BKN003 BKN008 FM302000
                       27006KT P6SM SCT010 FM302200 31006KT P6SM
                       SCT250 FM310600 02003KT P6SM SKC=
201307301502 TAF AMD KPAE 301502Z 3015/3112 17003KT P6SM SCT008 SCT200
                      TEMPO 3016/3018 BKN008 FM302000 27006KT P6SM
                       SCT010 FM302200 31006KT P6SM SCT250 FM310600
                       02003KT P6SM SKC=
201307301135 TAF KPAE 301135Z 3012/3112 23003KT P6SM SKC FM301300 17003KT P6SM
                       BKN002
                      TEMPO 3013/3016 1/2SM FG VV001 FM301900 26005KT
                       P6SM BKN007 FM302100 27006KT P6SM SCT010
                       FM302200 31006KT P6SM SCT250 FM310600 02003KT
                       P6SM SKC=
201307300520 TAF KPAE 300520Z 3006/3106 VRB03KT P6SM FEW120 SCT250 FM301200
                       17003KT P6SM BKN009
                      TEMPO 3013/3016 OVC005 FM302000 26005KT P6SM
                       BKN011 FM302100 27006KT P6SM SCT015 FM302200
                       31006KT P6SM SCT250=
201307292339 TAF KPAE 292339Z 3000/3024 27006KT P6SM FEW030 FM300300 34004KT
                       P6SM SKC FM301100 19004KT P6SM OVC018 FM301700
                       20005KT P6SM OVC025 FM301900 20006KT P6SM
                       BKN035 FM302000 28006KT P6SM FEW035=
201307292006 TAF AMD KPAE 292006Z 2920/3018 24006KT P6SM SCT025 FM292200 28006KT
                       P6SM SCT030 FM300300 35004KT P6SM FEW040
                       SCT200 FM301100 19004KT P6SM OVC018 FM301700
                       20005KT P6SM OVC025=
201307291720 TAF KPAE 291720Z 2918/3018 23006KT P6SM FEW017 OVC025
                      TEMPO 2918/2920 BKN017 FM292100 25006KT P6SM
                       BKN035 FM292200 28006KT P6SM SCT035 FM300300
                       35004KT P6SM FEW040 SCT200 FM301100 19004KT
                       P6SM OVC018 FM301700 20005KT P6SM OVC025=
201307291120 TAF KPAE 291120Z 2912/3012 20006KT P6SM SCT025 OVC060
                      TEMPO 2914/2918 OVC025 FM292000 30006KT P6SM
                       SCT035 FM300300 35004KT P6SM FEW040 SCT200=
201307290520 TAF KPAE 290520Z 2906/3006 21008KT P6SM SKC FM290900 VRB03KT P6SM
                       SCT007 FM291200 19006KT P6SM SCT007 OVC012
                       FM291800 24008KT P6SM OVC012 FM292000 30006KT
                       P6SM SCT028=
201307282338 TAF KPAE 282338Z 2900/2924 25009KT P6SM SKC FM290300 30004KT P6SM
                       SKC FM290900 VRB03KT P6SM SCT007 FM291200
                       19006KT P6SM SCT007 OVC012 FM291800 24008KT
                       P6SM OVC012 FM292000 30006KT P6SM SCT028=
201307281720 TAF KPAE 281720Z 2818/2918 22007KT P6SM OVC008 FM282000 22007KT
                       P6SM SCT015 FM282200 22007KT P6SM SKC FM291000
                       18008KT P6SM BKN008 FM291200 19007KT 3SM
                       BR OVC003 FM291700 22007KT P6SM OVC012=
201307281408 TAF AMD KPAE 281408Z 2814/2912 18007KT P6SM SCT003 FM281430 18007KT
                       5SM BR OVC003 FM281900 19005KT P6SM SCT008
                       FM282000 30006KT P6SM SKC FM290400 VRB03KT
                       P6SM SKC=
201307281121 TAF KPAE 281121Z 2812/2912 00000KT P6SM SKC FM281400 20004KT P6SM
                       SCT007
                      TEMPO 2814/2818 BKN007 FM282000 30006KT P6SM
                       SKC FM290400 VRB03KT P6SM SKC=
201307280523 TAF KPAE 280523Z 2806/2906 00000KT P6SM SKC FM281400 20004KT P6SM
                       SCT008
                      TEMPO 2814/2818 BKN008 FM282000 30006KT P6SM
                       SKC FM290400 VRB03KT P6SM SKC=
201307272333 TAF KPAE 272333Z 2800/2824 30007KT P6SM SKC FM280500 VRB03KT P6SM
                       SKC FM281400 20004KT P6SM SCT008
                      TEMPO 2814/2818 BKN008 FM282000 30006KT P6SM
                       SKC=
201307271720 TAF KPAE 271720Z 2718/2818 25006KT P6SM SKC FM272000 31006KT P6SM
                       SKC FM280500 VRB03KT P6SM SKC FM281400 20004KT
                       P6SM SCT008
                      TEMPO 2814/2818 BKN008=
201307271405 TAF AMD KPAE 271405Z 2714/2812 00000KT P6SM SKC FM271900 31006KT
                       P6SM SKC FM280500 VRB03KT P6SM SKC=
201307271120 TAF KPAE 271120Z 2712/2812 00000KT P6SM SKC
                      TEMPO 2714/2718 BKN008 FM271900 31006KT P6SM
                       SKC FM280500 VRB03KT P6SM SKC=
201307270520 TAF KPAE 270520Z 2706/2806 01006KT P6SM SKC FM271200 01003KT 2SM
                       BR BKN003 FM271800 32005KT P6SM SCT005 FM272000
                       32007KT P6SM SKC=
201307262325 TAF KPAE 262325Z 2700/2724 36006KT P6SM SKC FM270300 01005KT P6SM
                       SKC FM271200 01003KT 2SM BR BKN003 FM271800
                       32005KT P6SM SCT005 FM272000 32007KT P6SM
                       SKC=
201307261731 TAF KPAE 261731Z 2618/2718 00000KT P6SM SKC FM261900 32006KT P6SM
                       SKC FM270300 01005KT P6SM SKC FM271200 01003KT
                       2SM BR BKN003=
201307261120 TAF KPAE 261120Z 2612/2712 02005KT P6SM SKC FM261900 31006KT P6SM
                       SKC FM270300 01005KT P6SM SKC=
201307260520 TAF KPAE 260520Z 2606/2706 03006KT P6SM SKC FM261200 VRB03KT P6SM
                       SKC
                      TEMPO 2612/2616 BCFG SCT002 FM261900 31006KT
                       P6SM SKC=
201307252321 TAF KPAE 252321Z 2600/2624 34008KT P6SM SKC FM260300 02005KT P6SM
                       SKC FM261200 VRB03KT P6SM SCT002
                      TEMPO 2612/2616 1SM BR OVC002=
201307251728 TAF KPAE 251728Z 2518/2618 31006KT P6SM SKC FM252200 34008KT P6SM
                       SKC FM260300 02005KT P6SM SKC FM261200 VRB03KT
                       P6SM SCT002
                      TEMPO 2612/2616 1SM BR OVC002=
201307251501 TAF AMD KPAE 251501Z 2515/2612 VRB03KT P6SM SKC FM251800 31005KT
                       P6SM SKC FM252200 34008KT P6SM SKC FM260300
                       03005KT P6SM SKC=
201307251120 TAF KPAE 251120Z 2512/2612 VRB03KT P6SM SKC
                      TEMPO 2513/2517 1SM BR BKN002 FM251800 31005KT
                       P6SM SKC FM252200 34008KT P6SM SKC FM260300
                       03005KT P6SM SKC=
201307250527 TAF KPAE 250527Z 2506/2606 03004KT P6SM SKC FM251200 VRB03KT P6SM
                       SCT003
                      TEMPO 2512/2516 1SM BR OVC003 FM251700 33005KT
                       P6SM SKC FM251800 34008KT P6SM SKC=
201307242320 TAF KPAE 242320Z 2500/2524 32005KT P6SM SKC FM250500 01005KT P6SM
                       SKC FM251200 VRB03KT P6SM SCT003
                      TEMPO 2512/2516 1SM BR OVC003 FM251700 33005KT
                       P6SM SKC FM251800 34008KT P6SM SKC=
201307241720 TAF KPAE 241720Z 2418/2518 35005KT P6SM SKC FM250500 01005KT P6SM
                       SKC FM251200 VRB03KT P6SM SCT003
                      TEMPO 2512/2516 1SM BR OVC003 FM251700 33005KT
                       P6SM SKC=
201307241124 TAF KPAE 241124Z 2412/2512 03006KT P6SM SKC FM241800 33006KT P6SM
                       SKC FM250500 01005KT P6SM SKC=
201307240522 TAF KPAE 240522Z 2406/2506 01006KT P6SM SKC FM241200 VRB03KT 5SM
                       BR FEW003
                      TEMPO 2412/2416 1/2SM FG VV001 FM241800 31006KT
                       P6SM SKC FM242100 35007KT P6SM SKC=
201307232320 TAF KPAE 232320Z 2400/2424 01006KT P6SM SKC FM241200 VRB03KT 3SM
                       BR SCT003 FM241300 VRB03KT 1/2SM FG VV002
                       FM241700 30004KT 3SM BR SCT002 FM241800
                       31006KT P6SM SKC FM242100 35007KT P6SM SKC=
201307231733 TAF KPAE 231733Z 2318/2418 35006KT P6SM SKC FM240600 01004KT P6SM
                       SKC FM241200 VRB03KT 3SM BR SCT003 FM241300
                       VRB03KT 1/2SM FG VV002 FM241700 30004KT
                       3SM BR SCT002=
201307231501 TAF AMD KPAE 231501Z 2315/2412 01004KT 1/4SM FG VV001
                      TEMPO 2316/2317 1SM BR BKN001 FM231700 02005KT
                       P6SM VCFG SCT002 FM231800 34005KT P6SM SKC=
201307231340 TAF AMD KPAE 231340Z 2314/2412 01004KT 1/2SM FG VV001
                      TEMPO 2314/2316 3SM BR BKN001 FM231600 02005KT
                       P6SM VCFG SCT002 FM231700 34005KT P6SM SKC=
201307231304 TAF AMD KPAE 231304Z 2313/2412 01004KT P6SM PRFG BKN001
                      TEMPO 2313/2316 1/2SM FG VV001 FM231600 02005KT
                       P6SM VCFG SCT002 FM231700 34005KT P6SM SKC=
201307231123 TAF KPAE 231123Z 2312/2412 01004KT 4SM BR BKN001
                      TEMPO 2312/2316 1/2SM FG VV001 FM231600 02005KT
                       5SM BR SCT002 FM231700 34005KT P6SM SKC=
201307230933 TAF AMD KPAE 230933Z 2310/2406 01004KT 3SM BR SCT001
                      TEMPO 2310/2314 1/2SM FG VV001 FM231400 03005KT
                       1/2SM FG VV001
                      TEMPO 2315/2318 5SM BR SCT002 FM231800 34005KT
                       P6SM SKC=
201307230520 TAF KPAE 230520Z 2306/2406 01004KT P6SM SKC
                      TEMPO 2312/2315 00000KT 3SM BR SCT003 FM231900
                       34005KT P6SM SKC=
201307222336 TAF KPAE 222336Z 2300/2324 25005KT P6SM SKC FM230500 01004KT P6SM
                       SKC
                      TEMPO 2312/2314 00000KT 3SM BR SCT003 FM231900
                       34005KT P6SM SKC=
201307221913 TAF AMD KPAE 221913Z 2219/2318 25004KT P6SM SCT015
                      TEMPO 2219/2221 BKN015 FM222100 30005KT P6SM
                       SKC FM230400 01004KT P6SM SKC
                      TEMPO 2313/2317 4SM BR OVC006=
201307221723 TAF KPAE 221723Z 2218/2318 24006KT 2SM BR OVC007 FM222000 28006KT
                       P6SM FEW011 FM222100 30005KT P6SM SKC FM230400
                       01004KT P6SM SKC
                      TEMPO 2313/2317 4SM BR OVC006=
201307221130 TAF KPAE 221130Z 2212/2312 00000KT 1/4SM FG VV001 FM221800 24006KT
                       2SM BR OVC007 FM222000 28006KT P6SM FEW011
                       FM222100 30005KT P6SM SKC FM230400 01004KT
                       P6SM SKC=
201307220900 TAF AMD KPAE 220900Z 2209/2306 02003KT 2SM BR OVC001 FM221000 00000KT
                       1/4SM FG VV001 FM221800 24006KT 2SM BR HZ
                       OVC007 FM222000 28006KT P6SM FEW011 FM222100
                       28005KT P6SM SKC FM230300 35004KT P6SM SKC=
201307220715 TAF AMD KPAE 220715Z 2207/2306 02004KT P6SM BKN002 FM220800 VRB03KT
                       3SM BR OVC002 FM221100 00000KT 1/4SM FG
                       VV001 FM221800 24006KT 2SM BR HZ OVC007
                       FM222000 28006KT P6SM FEW011 FM222100 28005KT
                       P6SM SKC FM230300 35004KT P6SM SKC=
201307220520 TAF KPAE 220520Z 2206/2306 01003KT P6SM SKC FM220800 VRB03KT 3SM
                       BR OVC003 FM221100 00000KT 1/4SM FG VV001
                       FM221800 24006KT 2SM BR HZ OVC007 FM222000
                       28006KT P6SM FEW011 FM222100 28005KT P6SM
                       SKC FM230300 35004KT P6SM SKC=
201307212341 TAF KPAE 212341Z 2200/2224 28005KT P6SM SKC FM220800 VRB03KT 3SM
                       BR OVC003 FM221100 00000KT 1/4SM FG VV001
                       FM221800 24006KT 2SM BR HZ OVC007 FM222000
                       28006KT P6SM FEW011=
201307211739 TAF KPAE 211739Z 2118/2218 VRB03KT 1 1/2SM BR OVC003 FM211900 VRB03KT
                       5SM BR HZ OVC010 FM212000 VRB03KT P6SM SCT010
                       FM212100 32005KT P6SM SKC FM220800 VRB03KT
                       3SM BR OVC003 FM221100 00000KT 1/4SM FG
                       VV001=
201307211601 TAF AMD KPAE 211601Z 2116/2212 VRB03KT 1SM BR VV003
                      TEMPO 2116/2119 1/4SM FG VV001 FM211900 VRB03KT
                       4SM BR HZ BKN007 FM212100 31005KT P6SM SKC
                       FM220900 02003KT P6SM OVC005=
201307211412 TAF AMD KPAE 211412Z 2114/2212 00000KT 1/4SM FG VV002 FM211600
                       VRB03KT 1SM BR OVC004
                      TEMPO 2116/2119 1/2SM FG VV002 FM211900 VRB03KT
                       4SM BR HZ BKN007 FM212100 31005KT P6SM SKC
                       FM220900 02003KT P6SM OVC005=
201307211125 TAF KPAE 211125Z 2112/2212 00000KT 1/4SM FG VV001 FM211300 VRB02KT
                       1/2SM FG VV001 FM211700 VRB03KT 1SM BR OVC003
                       FM211900 VRB03KT 3SM BR BKN007 FM212100
                       31004KT P6SM SKC FM220900 02003KT P6SM OVC005=
201307210806 TAF AMD KPAE 210806Z 2108/2206 VRB04KT 4SM BR OVC002
                      TEMPO 2108/2112 1SM BR OVC001 FM211200 VRB02KT
                       1/2SM FG VV001 FM211700 VRB03KT 1SM BR OVC003
                       FM211900 VRB03KT 3SM BR BKN007 FM212000
                       31004KT P6SM SKC=
201307210520 TAF KPAE 210520Z 2106/2206 01006KT P6SM SKC FM211000 01004KT 4SM
                       BR OVC010 FM211300 VRB03KT 1SM BR OVC002
                       FM211800 VRB03KT 3SM BR OVC005 FM212000
                       31004KT P6SM SKC=
201307202334 TAF KPAE 202334Z 2100/2124 28004KT P6SM SKC FM211000 01004KT 4SM
                       BR OVC010 FM211300 VRB03KT 1SM BR OVC002
                       FM211800 VRB03KT 3SM BR OVC005 FM212000
                       31004KT P6SM SKC=
201307202047 TAF AMD KPAE 202047Z 2021/2118 29007KT P6SM SCT005 FM202200 33005KT
                       P6SM SKC FM211000 01004KT 4SM BR OVC010
                       FM211300 VRB03KT 2SM BR OVC003=
201307201913 TAF AMD KPAE 201913Z 2019/2118 26005KT 2SM BR OVC002 FM202100 32006KT
                       5SM BR SCT005 FM202200 33005KT P6SM SKC
                       FM211000 01004KT 4SM BR OVC010 FM211300
                       VRB03KT 2SM BR OVC003=
201307201736 TAF KPAE 201736Z 2018/2118 00000KT 2SM BR OVC005 FM202000 32006KT
                       P6SM SKC FM211000 01004KT 4SM BR OVC010
                       FM211300 VRB03KT 2SM BR OVC003=
201307201120 TAF KPAE 201120Z 2012/2112 03005KT 2SM BR OVC002
                      TEMPO 2012/2016 1/2SM FG OVC001 FM201800
                       VRB03KT P6SM BKN008 FM201900 32006KT P6SM
                       SKC FM210700 01004KT P6SM SKC=
201307201020 TAF AMD KPAE 201020Z 2010/2106 03005KT 3SM BR OVC003
                      TEMPO 2010/2014 1/2SM FG OVC001 FM201800
                       VRB03KT P6SM BKN010 FM201900 29006KT P6SM
                       SKC=
201307200700 TAF AMD KPAE 200700Z 2007/2106 02006KT P6SM OVC003
                      TEMPO 2012/2016 2SM BR OVC002 FM201800 VRB03KT
                       P6SM BKN010 FM201900 29006KT P6SM SKC=
201307200530 TAF KPAE 200530Z 2006/2106 03006KT P6SM SKC FM200900 VRB03KT P6SM
                       OVC005
                      TEMPO 2013/2016 2SM BR OVC002 FM201800 VRB03KT
                       P6SM BKN010 FM201900 29006KT P6SM SKC=
201307192320 TAF KPAE 192320Z 2000/2024 30008KT P6SM SKC FM200500 01003KT P6SM
                       SKC FM201100 35003KT P6SM BKN010 FM201800
                       29004KT P6SM SKC=
201307192155 TAF AMD KPAE 192155Z 1922/2018 30008KT P6SM SKC FM200500 01003KT
                       P6SM SKC FM201100 35003KT P6SM BKN010=
201307191744 TAF KPAE 191744Z 1918/2018 01004KT 1SM BR OVC002 FM191900 34006KT
                       3SM BR BKN010 FM192000 31008KT P6SM SCT015
                       FM192100 30008KT P6SM SKC FM200500 01003KT
                       P6SM SKC FM201100 35003KT P6SM BKN020=
201307191516 TAF AMD KPAE 191516Z 1915/2012 01003KT 1SM BR OVC002 FM191700 36003KT
                       P6SM BKN006 FM191800 32007KT P6SM SCT010
                       FM192100 30008KT P6SM SKC FM200500 01003KT
                       P6SM SKC=
201307191303 TAF AMD KPAE 191303Z 1913/2012 36003KT 2SM BR OVC002 FM191500 36003KT
                       4SM BR BKN004 FM191600 36003KT P6SM BKN006
                       FM191700 32007KT P6SM SKC FM200500 01003KT
                       P6SM SKC=
201307191130 TAF KPAE 191130Z 1912/2012 03006KT P6SM OVC004 FM191600 36003KT
                       P6SM BKN006 FM191800 32007KT P6SM SKC FM200500
                       01003KT P6SM SKC=
201307191058 TAF AMD KPAE 191058Z 1911/2006 03006KT P6SM BKN004
                      TEMPO 1912/1916 SCT004 FM191600 VRB03KT P6SM
                       FEW005 FM191700 33007KT P6SM SKC FM200400
                       03006KT P6SM SKC=
201307190530 TAF KPAE 190530Z 1906/2006 01005KT P6SM SKC FM191200 VRB03KT P6SM
                       FEW005 FM191800 33007KT P6SM SKC=
201307182321 TAF KPAE 182321Z 1900/1924 31006KT P6SM SKC FM190300 VRB03KT P6SM
                       SKC FM191200 VRB03KT P6SM FEW005 FM191800
                       33007KT P6SM SKC=
201307181953 TAF AMD KPAE 181953Z 1820/1918 32006KT P6SM FEW035 FM190300 VRB03KT
                       P6SM SKC FM191200 VRB03KT P6SM VCFG FEW005=
201307181729 TAF KPAE 181729Z 1818/1918 VRB04KT P6SM SCT013 BKN030 FM182000
                       32006KT P6SM FEW035 FM190300 VRB03KT P6SM
                       SKC FM191200 VRB03KT P6SM VCFG FEW005=
201307181508 TAF AMD KPAE 181508Z 1815/1912 36006KT P6SM OVC035 FM181800 29006KT
                       P6SM BKN040 FM181900 32006KT P6SM SKC FM190300
                       36004KT P6SM SKC=
201307181120 TAF KPAE 181120Z 1812/1912 36006KT P6SM OVC035
                      TEMPO 1813/1817 OVC027 FM181800 29006KT P6SM
                       BKN040 FM181900 32006KT P6SM SKC FM190300
                       36004KT P6SM SKC=
201307180520 TAF KPAE 180520Z 1806/1906 VRB04KT P6SM OVC035 FM180700 VRB04KT
                       P6SM SCT035 FM181400 36003KT P6SM OVC015
                       TEMPO 1814/1816 OVC007 FM181800 29006KT
                       P6SM BKN020 FM181900 32006KT P6SM SKC=
201307172321 TAF KPAE 172321Z 1800/1824 19008KT P6SM SCT035
                      TEMPO 1800/1801 OVC030 FM181400 35002KT P6SM
                       OVC015 FM181900 36004KT P6SM SCT250=
201307172101 TAF AMD KPAE 172101Z 1721/1818 20011KT P6SM OVC025 FM172300 36002KT
                       P6SM SCT030 SCT200 FM181400 35002KT P6SM
                       BKN015=
201307171730 TAF KPAE 171730Z 1718/1818 17012KT P6SM OVC017 FM172000 18006KT
                       P6SM SCT020 BKN040 FM172300 36002KT P6SM
                       SCT250 FM181400 35002KT P6SM BKN015=
201307171339 TAF AMD KPAE 171339Z 1714/1812 18012KT P6SM VCSH SCT080 SCT120
                       FM171700 18012KT P6SM SCT080 BKN120 FM171900
                       19010KT P6SM FEW120 SCT250 FM172100 21010KT
                       P6SM SCT250 FM180200 34006KT P6SM SCT250=
201307171120 TAF KPAE 171120Z 1712/1812 16010KT P6SM VCTS SCT060CB BKN110 OVC200
                       TEMPO 1712/1714 -SHRA BKN060 OVC100 FM171400
                       16010KT P6SM BKN011 OVC100
                      TEMPO 1714/1717 OVC006 FM171800 19010KT P6SM
                       BKN020 FM171900 20010KT P6SM SCT023 FM172100
                       21010KT P6SM SCT250 FM180200 34006KT P6SM
                       SCT250=
201307170525 TAF KPAE 170525Z 1706/1806 00000KT P6SM SCT080 BKN130 BKN200 FM171400
                       16010KT P6SM OVC011
                      TEMPO 1714/1717 OVC006 FM171800 19010KT P6SM
                       BKN020 FM171900 20010KT P6SM SCT023 FM172100
                       21010KT P6SM SCT250 FM180200 34006KT P6SM
                       SCT250=
201307162334 TAF KPAE 162334Z 1700/1724 36008KT P6SM BKN120 BKN200 FM171600
                       19008KT P6SM BKN250 FM171800 21009KT P6SM
                       SCT250=
201307161736 TAF KPAE 161736Z 1618/1718 34009G14KT P6SM SCT200 FM162200 36010KT
                       P6SM SCT120 BKN200=
201307161130 TAF KPAE 161130Z 1612/1712 35005KT P6SM SKC FM162000 34006KT P6SM
                       SCT150 FM170000 35006KT P6SM SCT080 BKN130
                       OVC250 FM170900 00000KT P6SM SCT080 BKN130
                       OVC250=
201307160520 TAF KPAE 160520Z 1606/1706 35005KT P6SM SKC FM162000 34006KT P6SM
                       SCT150 FM170200 35006KT P6SM SCT080 BKN130
                       OVC250=
201307152321 TAF KPAE 152321Z 1600/1624 35012KT P6SM SKC FM160400 03010KT P6SM
                       SKC FM161200 02006KT P6SM SKC FM162000 35010KT
                       P6SM SCT150=
201307151720 TAF KPAE 151720Z 1518/1618 35005KT P6SM SKC FM152000 31013KT P6SM
                       SKC FM160300 34008KT P6SM SKC FM160800 01003KT
                       P6SM SKC=
201307151120 TAF KPAE 151120Z 1512/1612 35005KT P6SM SKC FM152000 31013KT P6SM
                       SKC FM160300 34008KT P6SM SKC FM160800 01003KT
                       P6SM SKC=
201307150520 TAF KPAE 150520Z 1506/1606 35005KT P6SM SKC FM152000 31013KT P6SM
                       SKC FM160300 34008KT P6SM SKC=
201307142320 TAF KPAE 142320Z 1500/1524 33007KT P6SM SKC FM150600 36006KT P6SM
                       SKC FM151700 33010KT P6SM SKC=
201307141722 TAF KPAE 141722Z 1418/1518 02004KT P6SM SKC FM142200 33008KT P6SM
                       FEW200 FM150600 36003KT P6SM SKC FM151700
                       32009KT P6SM SKC=
201307141124 TAF KPAE 141124Z 1412/1512 VRB03KT P6SM SKC FM141700 31008KT P6SM
                       SKC FM142200 33008KT P6SM FEW200 FM150600
                       36003KT P6SM SKC=
201307140541 TAF KPAE 140541Z 1406/1506 36006KT P6SM SKC FM140800 02005KT P6SM
                       SKC FM141800 31008KT P6SM SKC FM142200 33008KT
                       P6SM FEW200=
201307132339 TAF KPAE 132339Z 1400/1424 36006KT P6SM SKC=
201307131731 TAF KPAE 131731Z 1318/1418 34005KT P6SM SKC=
201307131120 TAF KPAE 131120Z 1312/1412 04003KT P6SM FEW040 FM131400 29004KT
                       P6SM FEW040 FM132000 30006KT P6SM SKC FM140600
                       01003KT P6SM SKC=
201307130536 TAF KPAE 130536Z 1306/1406 01003KT P6SM SKC FM130900 04003KT P6SM
                       FEW040 FM131400 29004KT P6SM FEW040 FM132000
                       30006KT P6SM SKC=
201307122327 TAF KPAE 122327Z 1300/1324 24007KT P6SM FEW025 BKN120 FM130200
                       04003KT P6SM SCT250 FM131400 33004KT P6SM
                       SCT250=
201307121725 TAF KPAE 121725Z 1218/1318 00000KT P6SM SCT040 BKN140=
201307121136 TAF KPAE 121136Z 1212/1312 VRB03KT P6SM BKN200 FM121600 32006KT
                       P6SM BKN100 BKN200 FM122200 35006KT P6SM
                       SCT050=
201307120539 TAF KPAE 120539Z 1206/1306 36006KT P6SM SCT050 FM121600 32006KT
                       P6SM BKN100 FM122300 35006KT P6SM SCT050=
201307112323 TAF KPAE 112323Z 1200/1224 36007KT P6SM BKN060 FM120600 34004KT
                       P6SM BKN050 FM121200 VRB03KT P6SM SCT020
                       BKN050=
201307111722 TAF KPAE 111722Z 1118/1218 19004KT P6SM SCT015 BKN025
                      TEMPO 1118/1122 BKN015 OVC025 FM112200 35006KT
                       P6SM SCT040 FM120600 VRB03KT P6SM BKN040=
201307111658 TAF AMD KPAE 111658Z 1117/1212 19004KT P6SM OVC013 FM112000 32006KT
                       P6SM BKN025 FM112200 35006KT P6SM SCT040
                       FM120600 VRB03KT P6SM BKN040=
201307111136 TAF KPAE 111136Z 1112/1212 VRB03KT P6SM OVC022 FM112000 32006KT
                       P6SM BKN025 FM112200 35006KT P6SM SCT040
                       FM120600 VRB03KT P6SM BKN040=
201307110907 TAF AMD KPAE 110907Z 1109/1206 36008KT P6SM OVC025 FM111400 VRB03KT
                       P6SM OVC012 FM111800 VRB03KT P6SM OVC022
                       FM112000 32006KT P6SM SCT030 SCT050=
201307110538 TAF KPAE 110538Z 1106/1206 36008KT P6SM SCT040
                      TEMPO 1106/1110 BKN040 FM111200 VRB03KT P6SM
                       OVC012 FM111700 VRB03KT P6SM OVC022 FM111900
                       32006KT P6SM SCT030 SCT050=
201307102329 TAF KPAE 102329Z 1100/1124 32008KT P6SM SCT035 SCT250 FM110300
                       36006KT P6SM SCT035 FM111000 VRB03KT P6SM
                       OVC012 FM111800 VRB03KT P6SM OVC022 FM112100
                       32006KT P6SM SCT030 SCT050=
201307101742 TAF KPAE 101742Z 1018/1118 25005KT P6SM BKN015 FM102000 30005KT
                       P6SM SCT020 FM102200 32009KT P6SM SCT030
                       FM110300 36006KT P6SM SCT040 FM111000 VRB04KT
                       P6SM OVC012=
201307101640 TAF AMD KPAE 101640Z 1017/1112 VRB03KT P6SM SCT012
                      TEMPO 1017/1019 BKN012 FM101900 32007KT P6SM
                       SCT250 FM110600 35010KT P6SM SCT040 BKN070=
201307101405 KPAE 101405Z 1014/1112 VRB03KT P6SM FEW003 FEW080 FM101900 32007KT
                       P6SM SCT250 FM110600 35010KT P6SM SCT040
                       BKN070=
201307101120 TAF KPAE 101120Z 1012/1112 02005KT P6SM SCT006
                      TEMPO 1013/1014 BKN006 FM101400 04003KT 4SM
                       BR OVC003 FM101800 22006KT P6SM OVC012 FM102000
                       29007KT P6SM SCT013 BKN020 FM102100 32007KT
                       P6SM SCT250 FM110600 35010KT P6SM SCT040
                       BKN070=
201307100525 TAF KPAE 100525Z 1006/1106 02008KT P6SM SKC FM101200 04003KT 4SM
                       BR OVC004 FM101500 17005KT P6SM OVC004 FM101800
                       22006KT P6SM OVC012 FM102100 32007KT P6SM
                       SCT250=
201307092334 TAF KPAE 092334Z 1000/1024 34004KT P6SM SKC FM101200 04003KT 4SM
                       BR OVC004 FM101500 17005KT P6SM OVC004 FM101800
                       22006KT P6SM OVC012 FM102100 32007KT P6SM
                       SCT250=
201307091729 TAF KPAE 091729Z 0918/1018 00000KT P6SM SKC FM100900 01003KT P6SM
                       BKN015 FM101200 04003KT 4SM BR OVC004 FM101500
                       17005KT P6SM OVC004=
201307091450 TAF AMD KPAE 091450Z 0915/1012 02004KT P6SM SKC FM091800 32007KT
                       P6SM SCT250 FM101000 01004KT P6SM OVC005=
201307091233 TAF AMD KPAE 091233Z 0913/1012 34004KT 5SM BR BKN001
                      TEMPO 0913/0917 1/2SM FG OVC001 FM091800
                       32007KT P6SM SCT250 FM101000 01004KT P6SM
                       OVC005=
201307091135 TAF KPAE 091135Z 0912/1012 36006KT P6SM SKC FM091300 35005KT P6SM
                       VCFG SCT004 FM091400 34004KT 3SM BR OVC003
                       TEMPO 0914/0918 1/2SM FG OVC001 FM091800
                       32007KT P6SM SCT250 FM101000 01004KT P6SM
                       OVC005=
201307090535 TAF KPAE 090535Z 0906/1006 00000KT P6SM SKC FM091300 VRB03KT P6SM
                       VCFG SCT004
                      TEMPO 0914/0918 2SM BR BKN004 FM091800 32007KT
                       P6SM SCT250=
201307082327 TAF KPAE 082327Z 0900/0924 30006KT P6SM SKC FM090300 VRB03KT P6SM
                       SKC FM091400 VRB03KT P6SM VCFG SCT004
                      TEMPO 0914/0918 2SM BR BKN004 FM091800 32007KT
                       P6SM SCT250=
201307082102 TAF AMD KPAE 082102Z 0821/0918 29006KT P6SM SKC FM090300 VRB03KT
                       P6SM SKC FM091400 VRB03KT P6SM VCFG SCT004
                       TEMPO 0914/0918 2SM BR BKN004=
201307081915 TAF AMD KPAE 081915Z 0819/0918 28008KT P6SM SKC FM082000 31007KT
                       P6SM SKC FM090300 VRB03KT P6SM SKC FM091400
                       VRB03KT P6SM VCFG SCT004
                      TEMPO 0914/0918 2SM BR BKN004=
201307081739 TAF KPAE 081739Z 0818/0918 28005KT P6SM SCT012 FM081900 32005KT
                       P6SM SKC FM090300 VRB03KT P6SM SKC FM091400
                       VRB03KT P6SM VCFG SCT004
                      TEMPO 0914/0918 2SM BR BKN004=
201307081518 TAF AMD KPAE 081518Z 0815/0912 21007KT P6SM OVC008 FM082000 29006KT
                       P6SM SCT012 FM082200 32006KT P6SM SKC FM090600
                       01003KT P6SM SKC=
201307081400 KPAE 081400Z 0814/0912 19007KT P6SM SCT008 BKN035
                      TEMPO 0814/0816 BKN008 OVC035 FM081600 21007KT
                       P6SM OVC008 FM082000 29006KT P6SM SCT012
                       FM082200 32006KT P6SM SKC FM090600 01003KT
                       P6SM SKC=
201307081130 TAF KPAE 081130Z 0812/0912 00000KT P6SM SCT035
                      TEMPO 0812/0813 BKN035 FM081300 00000KT P6SM
                       SCT001 SCT004 OVC035
                      TEMPO 0814/0818 1SM BR OVC001 FM081800 21004KT
                       P6SM OVC009 FM082000 29006KT P6SM SCT012
                       FM082200 32006KT P6SM SKC FM090600 01003KT
                       P6SM SKC=
201307080520 TAF KPAE 080520Z 0806/0906 01003KT P6SM SCT080 FM081300 VRB04KT
                       P6SM OVC010
                      TEMPO 0815/0818 SCT005 OVC008 FM082000 29005KT
                       P6SM SCT250=
201307072320 TAF KPAE 072320Z 0800/0824 31006KT P6SM SCT250 FM080400 VRB04KT
                       P6SM SCT250 FM081400 VRB04KT P6SM OVC010
                       TEMPO 0815/0818 SCT005 OVC008 FM082000 29005KT
                       P6SM SCT250=
201307071726 TAF KPAE 071726Z 0718/0818 28006KT P6SM SCT250 FM080000 31006KT
                       P6SM SCT250 FM080400 VRB04KT P6SM SCT250
                       TEMPO 0815/0818 SCT005 OVC008=
201307071135 TAF KPAE 071135Z 0712/0812 36007KT P6SM SKC FM071300 VRB03KT P6SM
                       SCT004
                      TEMPO 0714/0717 BKN004 FM071800 28006KT P6SM
                       SCT250 FM080000 31006KT P6SM SCT250 FM080400
                       VRB04KT P6SM SCT250=
201307070525 TAF KPAE 070525Z 0706/0806 36007KT P6SM SKC FM071200 VRB03KT P6SM
                       SCT007 FM071400 20005KT P6SM OVC012 FM071800
                       25006KT P6SM BKN025 BKN050 FM072000 31006KT
                       P6SM SCT030 SCT050=
201307062320 TAF KPAE 062320Z 0700/0724 34006KT P6SM SKC FM070300 VRB03KT P6SM
                       SKC FM071200 VRB03KT P6SM SCT007 FM071400
                       20005KT P6SM OVC012 FM071800 25006KT P6SM
                       BKN025 BKN050 FM072000 31006KT P6SM SCT030
                       SCT050=
201307061738 TAF KPAE 061738Z 0618/0718 34006KT P6SM SKC FM070300 VRB03KT P6SM
                       SKC FM071200 VRB03KT P6SM SCT007 FM071400
                       21005KT P6SM OVC012=
201307061553 TAF AMD KPAE 061553Z 0616/0712 VRB03KT P6SM SCT009
                      TEMPO 0616/0618 BKN009 FM061800 33006KT P6SM
                       SKC FM070300 VRB03KT P6SM SKC=
201307061509 TAF AMD KPAE 061509Z 0615/0712 VRB03KT P6SM SCT004 FM061800 33006KT
                       P6SM SKC FM070300 VRB03KT P6SM SKC=
201307061130 TAF KPAE 061130Z 0612/0712 35003KT P6SM SKC FM061300 VRB03KT P6SM
                       SCT004
                      TEMPO 0613/0616 4SM HZ BKN004 FM061700 34003KT
                       P6SM SCT250 FM070600 02003KT P6SM SKC=
201307061010 TAF AMD KPAE 061010Z 0610/0706 VRB03KT P6SM SKC FM061300 VRB03KT
                       P6SM SCT004
                      TEMPO 0613/0616 4SM HZ BKN004 FM061800 34003KT
                       P6SM SCT250=
201307060520 TAF KPAE 060520Z 0606/0706 25003KT P6SM SKC FM061100 01003KT P6SM
                       BKN020
                      TEMPO 0612/0615 4SM HZ BKN008 FM061500 34006KT
                       P6SM BKN025 FM062000 34008KT P6SM FEW035=
201307052343 TAF KPAE 052343Z 0600/0624 34006KT P6SM SKC FM060600 01003KT P6SM
                       FEW030 FM061100 01003KT P6SM BKN020
                      TEMPO 0612/0615 4SM HZ BKN008 FM061500 34006KT
                       P6SM BKN025 FM062000 34008KT P6SM FEW035=
201307051747 TAF KPAE 051747Z 0518/0618 VRB04KT P6SM BKN015 BKN030 FM052000
                       29005KT P6SM SCT040 FM052300 34006KT P6SM
                       SKC FM060600 01003KT P6SM SCT035 FM061000
                       01003KT P6SM BKN030 FM061200 VRB03KT P6SM
                       BKN020
                      TEMPO 0612/0615 4SM HZ BKN008=
201307051654 TAF AMD KPAE 051654Z 0517/0612 VRB04KT P6SM SCT015 BKN045
                      TEMPO 0517/0519 4SM HZ BKN005 FM052000 29005KT
                       P6SM SCT040 FM052300 34006KT P6SM SKC=
201307051120 TAF KPAE 051120Z 0512/0612 VRB04KT P6SM SCT020 BKN030
                      TEMPO 0512/0516 BKN020 FM052000 29005KT P6SM
                       SCT040 FM052300 34006KT P6SM SKC=
201307050520 TAF KPAE 050520Z 0506/0606 01004KT P6SM SKC
                      TEMPO 0512/0516 BKN020 FM051900 29005KT P6SM
                       SCT050 FM052200 34006KT P6SM SCT050=
201307042320 TAF KPAE 042320Z 0500/0524 33006KT P6SM SCT035 FM050900 19003KT
                       P6SM BKN023 BKN050 FM051200 19004KT P6SM
                       BKN010 OVC023 FM051900 29005KT P6SM BKN028
                       BKN050 FM052200 34006KT P6SM SCT050=
201307042116 TAF AMD KPAE 042116Z 0421/0518 25007KT P6SM BKN022
                      TEMPO 0422/0424 SCT022 BKN040 FM050000 33006KT
                       P6SM SCT050 FM050900 19003KT P6SM BKN023
                       BKN050 FM051200 19004KT P6SM BKN010 OVC023=
201307041724 TAF KPAE 041724Z 0418/0518 27004KT P6SM OVC017 FM042000 28004KT
                       P6SM BKN025 BKN050 FM042100 29006KT P6SM
                       SCT050 FM042300 33006KT P6SM FEW050 FM050900
                       19003KT P6SM BKN023 BKN050 FM051200 19004KT
                       P6SM BKN010 OVC023=
201307041605 TAF AMD KPAE 041605Z 0416/0512 29003KT P6SM OVC015
                      TEMPO 0417/0419 SCT015 BKN050 FM041900 30006KT
                       P6SM SCT050 FM042000 34006KT P6SM FEW050
                       FM050300 01008KT P6SM BKN050=
201307041300 TAF AMD KPAE 041300Z 0413/0512 05003KT P6SM BKN017 OVC050 FM041600
                       VRB03KT P6SM SCT020 BKN050 FM041800 30006KT
                       P6SM SCT050 FM042000 34006KT P6SM FEW050
                       FM050300 01008KT P6SM BKN050=
201307041120 TAF KPAE 041120Z 0412/0512 05006KT P6SM BKN050 FM041800 30006KT
                       P6SM SCT050 FM042000 34006KT P6SM FEW050
                       FM050300 01008KT P6SM BKN050=
201307040523 TAF KPAE 040523Z 0406/0506 02010KT P6SM SKC FM040900 VRB03KT P6SM
                       SKC FM041900 35007KT P6SM SKC=
201307032320 TAF KPAE 032320Z 0400/0424 36007KT P6SM SKC FM040900 VRB03KT P6SM
                       SKC FM041900 35007KT P6SM SKC=
201307031720 TAF KPAE 031720Z 0318/0418 35006KT P6SM SKC FM040900 VRB03KT P6SM
                       SKC=
201307031120 TAF KPAE 031120Z 0312/0412 36007KT P6SM BKN050 FM031800 36007KT
                       P6SM SCT050 FM032000 36008KT P6SM SKC=
201307030529 TAF KPAE 030529Z 0306/0406 03007KT P6SM SKC FM031100 35004KT P6SM
                       SKC FM031800 33008KT P6SM SKC=
201307022320 TAF KPAE 022320Z 0300/0324 36007KT P6SM SKC FM031100 35004KT P6SM
                       OVC004 FM031700 31006KT P6SM SCT007 FM031800
                       33008KT P6SM SKC=
201307021720 TAF KPAE 021720Z 0218/0318 31006KT P6SM SKC FM030100 36006KT P6SM
                       SKC FM031100 35004KT P6SM OVC004=
201307021410 TAF AMD KPAE 021410Z 0214/0312 01003KT 4SM BR BKN002
                      TEMPO 0214/0216 1SM BR VV001 FM021600 36004KT
                       P6SM SCT004
                      TEMPO 0216/0218 4SM BR BKN004 FM021800 25005KT
                       P6SM SKC FM022200 33006KT P6SM SKC=
201307021121 TAF KPAE 021121Z 0212/0312 01003KT P6SM SCT006
                      TEMPO 0212/0216 BKN006 FM021800 25005KT P6SM
                       SKC FM022200 33006KT P6SM SKC=
201307020521 TAF KPAE 020521Z 0206/0306 01003KT P6SM SKC
                      TEMPO 0212/0214 SCT010 FM021400 17004KT P6SM
                       BKN006 FM021800 25005KT P6SM SKC FM022200
                       33006KT P6SM FEW100=
201307012320 TAF KPAE 012320Z 0200/0224 35007KT P6SM FEW050 FEW150 FM020400
                       01003KT P6SM FEW060 FM021400 17004KT P6SM
                       BKN006 FM021800 25005KT P6SM BKN010 FM022200
                       33006KT P6SM FEW100=
201307011720 TAF KPAE 011720Z 0118/0218 33006KT P6SM FEW080 FEW200
                      TEMPO 0120/0124 BKN080 FM020400 36003KT P6SM
                       SCT120 FM021400 17004KT P6SM BKN006=
201307011122 TAF KPAE 011122Z 0112/0212 01003KT P6SM SKC FM011700 32007KT P6SM
                       SCT080
                      TEMPO 0120/0124 BKN080 FM020400 36003KT P6SM
                       SCT120=
201307010524 TAF KPAE 010524Z 0106/0206 01003KT P6SM SKC FM011800 32007KT P6SM
                       SCT100 SCT200
                      TEMPO 0120/0124 BKN100 BKN200 FM020400 36003KT
                       P6SM SCT100 SCT200=