##########################################################
# Query made at 02/15/2025 20:46:54 UTC
# Time interval: from 05/01/2013 00:00  to 05/31/2013 23:59  UTC
##########################################################

##########################################################
# KPAE, Everett, Snohomish County Airport (United States)
# WMO index: -----. WIGOS ID: Unknown
# Latitude 47-55-23N. Longitude 122-16-57W. Altitude 184 m.
##########################################################

###################################
#  METAR/SPECI from KPAE
###################################
201305312353 METAR KPAE 312353Z 28005KT 10SM CLR 18/03 A3032 RMK AO2 SLP268 T01780033 10183 20122 58006=
201305312255 SPECI KPAE 312255Z 29005KT 10SM CLR 18/02 A3033 RMK AO2=
201305312253 METAR KPAE 312253Z AUTO 27005KT 10SM CLR 18/02 A3033 RMK AO2 SLP271 T01780022 TSNO=
201305312200 SPECI KPAE 312200Z VRB05KT 10SM SCT060 17/04 A3034 RMK AO2=
201305312153 METAR KPAE 312153Z 33005KT 10SM SCT017 BKN023 17/04 A3034 RMK AO2 SLP273 T01670044=
201305312053 METAR KPAE 312053Z 28004KT 10SM FEW017 BKN023 15/07 A3034 RMK AO2 SLP274 T01500067 58004=
201305311953 METAR KPAE 311953Z 30004KT 10SM SCT017 BKN023 OVC055 15/08 A3035 RMK AO2 SLP277 T01500078=
201305311853 METAR KPAE 311853Z VRB03KT 10SM SCT017 BKN023 OVC055 14/08 A3035 RMK AO2 SLP279 T01390078=
201305311753 METAR KPAE 311753Z VRB03KT 10SM SCT017 BKN021 OVC050 12/08 A3035 RMK AO2 SLP279 T01220078 10128 20094 50004=
201305311717 SPECI KPAE 311717Z 30004KT 10SM SCT017 OVC060 12/08 A3035 RMK AO2=
201305311710 SPECI KPAE 311710Z 30004KT 10SM BKN017 OVC060 12/08 A3035 RMK AO2=
201305311653 METAR KPAE 311653Z 00000KT 10SM SCT017 OVC060 12/08 A3035 RMK AO2 SLP280 T01170078=
201305311609 SPECI KPAE 311609Z 00000KT 10SM FEW009 SCT025 OVC033 12/08 A3035 RMK AO2=
201305311553 METAR KPAE 311553Z 00000KT 10SM SCT009 BKN024 OVC033 11/08 A3035 RMK AO2 SLP278 T01110083=
201305311453 METAR KPAE 311453Z 00000KT 10SM FEW002 BKN007 OVC014 11/08 A3034 RMK AO2 SLP275 T01060078 53014=
201305311410 SPECI KPAE 311410Z 00000KT 10SM SCT006 OVC011 10/08 A3033 RMK AO2=
201305311353 METAR KPAE 311353Z 29003KT 10SM OVC012 11/08 A3032 RMK AO2 SLP269 T01060078=
201305311332 SPECI KPAE 311332Z AUTO 00000KT 10SM BKN012 OVC025 10/08 A3032 RMK AO2=
201305311253 METAR KPAE 311253Z AUTO 00000KT 10SM OVC021 10/08 A3031 RMK AO2 SLP265 T01000078=
201305311153 METAR KPAE 311153Z AUTO 25003KT 10SM FEW010 OVC021 09/08 A3030 RMK AO2 SLP260 T00940078 10117 20094 52008=
201305311053 METAR KPAE 311053Z AUTO 20003KT 10SM OVC021 10/07 A3028 RMK AO2 SLP255 T01000072=
201305310953 METAR KPAE 310953Z AUTO 20004KT 10SM OVC023 11/07 A3028 RMK AO2 SLP255 T01060072=
201305310907 SPECI KPAE 310907Z AUTO 20005KT 10SM SCT013 OVC023 11/07 A3027 RMK AO2=
201305310853 METAR KPAE 310853Z AUTO 20005KT 10SM BKN013 OVC019 11/08 A3027 RMK AO2 SLP250 T01110078 51012=
201305310816 SPECI KPAE 310816Z AUTO 22003KT 10SM OVC013 11/08 A3027 RMK AO2=
201305310753 METAR KPAE 310753Z AUTO 24004KT 10SM BKN015 OVC022 11/08 A3026 RMK AO2 SLP248 T01060078 401720089=
201305310653 METAR KPAE 310653Z AUTO 19007KT 10SM OVC024 12/07 A3025 RMK AO2 SLP244 T01170072=
201305310553 METAR KPAE 310553Z AUTO 21005KT 10SM BKN024 BKN037 OVC060 12/07 A3023 RMK AO2 SLP238 60000 T01170067 10156 20117 51015=
201305310453 METAR KPAE 310453Z 24003KT 10SM BKN024 OVC038 12/08 A3022 RMK AO2 SLP234 T01170078=
201305310400 SPECI KPAE 310400Z 21007KT 10SM OVC040 13/08 A3019 RMK AO2=
201305310353 METAR KPAE 310353Z 20008KT 10SM OVC028 13/08 A3019 RMK AO2 RAB00E18 SLP224 P0000 T01280078=
201305310253 METAR KPAE 310253Z 23006KT 10SM OVC028 13/07 A3018 RMK AO2 SLP222 T01330072 53009=
201305310153 METAR KPAE 310153Z 22013KT 10SM BKN033 BKN041 OVC120 14/07 A3017 RMK AO2 SLP217 T01390067=
201305310053 METAR KPAE 310053Z 17010KT 10SM SCT100 BKN120 14/07 A3015 RMK AO2 SLP211 T01440067=
201305302353 METAR KPAE 302353Z 19013G18KT 10SM FEW041 BKN110 15/06 A3016 RMK AO2 SLP212 T01500061 10172 20139 53007=
201305302253 METAR KPAE 302253Z 20016KT 10SM SCT037 BKN055 17/06 A3015 RMK AO2 SLP208 T01670056=
201305302153 METAR KPAE 302153Z 18010G17KT 10SM FEW036 BKN055 OVC080 16/07 A3014 RMK AO2 SLP206 T01610067=
201305302053 METAR KPAE 302053Z 23008G18KT 10SM SCT036 BKN049 15/07 A3013 RMK AO2 SLP204 T01500072 52010=
201305301953 METAR KPAE 301953Z 19013KT 10SM SCT033 BKN043 OVC090 17/08 A3012 RMK AO2 SLP200 T01670078=
201305301853 METAR KPAE 301853Z 19013KT 3SM HZ BKN030 BKN100 16/07 A3011 RMK AO2 SLP197 T01560072 $=
201305301832 SPECI KPAE 301832Z 18014G18KT 3SM HZ BKN030 14/07 A3011 RMK AO2 $=
201305301810 SPECI KPAE 301810Z 20011G18KT 3SM HZ BKN028 BKN032 14/07 A3011 RMK AO2 $=
201305301753 METAR KPAE 301753Z 20010KT 3SM HZ SCT023 BKN030 14/07 A3010 RMK AO2 SLP194 T01390072 10139 20089 51010 $=
201305301653 METAR KPAE 301653Z 18012G19KT 10SM BKN022 OVC026 12/07 A3009 RMK AO2 SLP191 T01170072 $=
201305301553 METAR KPAE 301553Z 20009KT 10SM OVC017 11/07 A3009 RMK AO2 SLP189 T01060072 $=
201305301453 METAR KPAE 301453Z 18008KT 5SM BR BKN012 BKN017 OVC024 09/07 A3007 RMK AO2 SLP185 T00940072 53010 $=
201305301353 METAR KPAE 301353Z 18008KT 10SM OVC013 09/07 A3005 RMK AO2 SLP179 T00940067 $=
201305301321 SPECI KPAE 301321Z AUTO 18008KT 10SM OVC013 09/07 A3005 RMK AO2 $=
201305301253 METAR KPAE 301253Z AUTO 17006KT 10SM OVC015 09/07 A3004 RMK AO2 SLP175 T00940072 $=
201305301153 METAR KPAE 301153Z AUTO 19010KT 10SM OVC013 09/07 A3003 RMK AO2 SLP171 60000 70028 T00940067 10100 20094 53014 $=
201305301053 METAR KPAE 301053Z AUTO 19011KT 10SM OVC011 09/07 A3001 RMK AO2 SLP164 T00940072 $=
201305300953 METAR KPAE 300953Z AUTO 19009KT 10SM BKN013 BKN017 OVC026 09/07 A3000 RMK AO2 SLP159 T00940072 $=
201305300853 METAR KPAE 300853Z AUTO 18009KT 10SM OVC017 10/08 A2999 RMK AO2 SLP156 60000 T01000078 53007 $=
201305300753 METAR KPAE 300753Z AUTO 16007KT 10SM BKN015 OVC095 10/08 A2998 RMK AO2 RAB04E13 SLP153 P0000 T01000083 401220094 $=
201305300719 SPECI KPAE 300719Z AUTO 15007KT 10SM BKN021 BKN050 OVC110 10/08 A2997 RMK AO2 RAB04E13 P0000 $=
201305300706 SPECI KPAE 300706Z AUTO 15008KT 10SM -RA SCT024 BKN050 OVC110 09/08 A2997 RMK AO2 RAB04 P0000 $=
201305300653 METAR KPAE 300653Z AUTO VRB03KT 10SM SCT018 BKN025 OVC048 10/08 A2997 RMK AO2 SLP150 T01000083 $=
201305300553 METAR KPAE 300553Z AUTO 11004KT 10SM OVC020 10/08 A2997 RMK AO2 RAB06E20 SLP148 P0000 60017 T01000083 10100 20094 53013 $=
201305300522 SPECI KPAE 300522Z AUTO 11005KT 10SM SCT004 OVC022 10/08 A2996 RMK AO2 RAB06E20 P0000 $=
201305300453 METAR KPAE 300453Z AUTO 11005KT 10SM OVC024 10/08 A2995 RMK AO2 SLP143 T01000083 $=
201305300353 METAR KPAE 300353Z AUTO 10004KT 3SM BR OVC026 10/08 A2993=
201305300253 METAR KPAE 300253Z 06004KT 3SM -RA BR OVC028 09/08 A2993 RMK AO2 SLP135 P0003 60016 T00940083 52017 $=
201305300217 SPECI KPAE 300217Z 04004KT 3SM -RA BR FEW007 OVC028 10/08 A2992 RMK AO2 P0000 $=
201305300153 METAR KPAE 300153Z 01004KT 2 1/2SM RA BR FEW011 OVC028 09/08 A2991 RMK AO2 SLP131 P0007 T00940078 $=
201305300128 SPECI KPAE 300128Z 00000KT 2 1/2SM -RA BR OVC016 09/08 A2990 RMK AO2 P0002 $=
201305300053 METAR KPAE 300053Z VRB03KT 4SM -RA BR FEW005 BKN018 OVC055 09/08 A2989 RMK AO2 SLP123 P0006 T00940083 $=
201305292353 METAR KPAE 292353Z 36004KT 4SM RA BR FEW005 BKN018 OVC055 09/08 A2988 RMK AO2 RAB00 SLP119 P0007 60008 T00940078 10122 20094 51019 $=
201305292253 METAR KPAE 292253Z 02006KT 10SM FEW005 BKN018 OVC050 11/08 A2986 RMK AO2 SLP111 T01110078 $=
201305292240 SPECI KPAE 292240Z 36005KT 10SM SCT005 BKN014 OVC036 12/08 A2985 RMK AO2 $=
201305292155 SPECI KPAE 292155Z VRB04KT 10SM FEW003 BKN008 OVC012 11/09 A2984 RMK AO2 $=
201305292153 METAR KPAE 292153Z VRB04KT 1SM R16R/P6000FT BR BKN005 BKN012 OVC032 11/09 A2984 RMK AO2 RAE52 SLP106 P0001 T01110094 $=
201305292053 METAR KPAE 292053Z 00000KT 6SM -RA BKN009 BKN012 OVC032 12/09 A2982 RMK AO2 RAB49 SLP098 P0000 60000 T01220089 51022=
201305292000 SPECI KPAE 292000Z 33003KT 10SM BKN009 BKN012 OVC032 12/09 A2980 RMK AO2=
201305291953 METAR KPAE 291953Z 00000KT 10SM R16R/1000VP6000FT FEW009 BKN012 OVC032 12/09 A2980 RMK AO2 RAB26E44 SLP092 P0000 T01170089=
201305291933 SPECI KPAE 291933Z 34004KT 10SM -RA BKN009 OVC024 11/09 A2979 RMK AO2 RAB26 P0000 $=
201305291926 SPECI KPAE 291926Z 35003KT 1/2SM R16R/P6000FT -RA FG FEW005 BKN009 OVC024 11/09 A2979 RMK AO2 RAB26 CIG 007V011 P0000 $=
201305291853 METAR KPAE 291853Z 34004KT 10SM BKN007 OVC010 12/09 A2978 RMK AO2 SLP083 T01170094=
201305291805 SPECI KPAE 291805Z 34004KT 10SM BKN007 OVC026 11/09 A2976 RMK AO2=
201305291753 METAR KPAE 291753Z 35003KT 10SM SCT005 BKN010 OVC026 11/09 A2975 RMK AO2 CIG 007V013 SLP076 60003 T01060089 10117 20094 53009=
201305291700 SPECI KPAE 291700Z 00000KT 10SM BKN007 BKN035 OVC045 11/09 A2973 RMK AO2 $=
201305291653 METAR KPAE 291653Z VRB03KT 1 3/4SM BR BKN005 BKN009 OVC037 11/09 A2973 RMK AO2 RAE11 SLP069 P0000 T01060089 $=
201305291651 SPECI KPAE 291651Z 35004KT 3/4SM R16R/P6000FT BR SCT007 BKN037 OVC048 11/09 A2973 RMK AO2 RAE11 P0000 $=
201305291637 SPECI KPAE 291637Z 34003KT 10SM FEW007 BKN037 OVC048 11/08 A2973 RMK AO2 RAE11 P0000=
201305291604 SPECI KPAE 291604Z 00000KT 4SM -RA BR FEW007 BKN026 OVC048 10/08 A2973 RMK AO2 P0000=
201305291553 METAR KPAE 291553Z VRB03KT 5SM -RA BR FEW005 BKN035 OVC050 10/08 A2973 RMK AO2 SLP066 P0001 T01000083=
201305291550 SPECI KPAE 291550Z 00000KT 6SM BR FEW005 BKN035 OVC050 10/08 A2973 RMK AO2 RAE44 P0001=
201305291453 METAR KPAE 291453Z 00000KT 7SM -RA SCT002 BKN027 09/08 A2971 RMK AO2 SLP062 P0001 60002 T00940083 51004=
201305291401 SPECI KPAE 291401Z 24004KT 8SM -RA BKN003 BKN024 OVC050 09/08 A2971 RMK AO2 P0000=
201305291353 METAR KPAE 291353Z 26004KT 7SM -RA FEW003 BKN024 OVC050 09/08 A2971 RMK AO2 RAB1254 SLP059 P0001 T00940083 TSNO=
201305291343 SPECI KPAE 291343Z 24004KT 8SM -RA FEW003 BKN024 OVC050 09/08 A2971 RMK AO2 RAB1254 P0000=
201305291253 METAR KPAE 291253Z AUTO 25005KT 10SM FEW013 OVC050 09/08 A2970 RMK AO2 SLP057 T00940083=
201305291208 SPECI KPAE 291208Z AUTO 22006KT 10SM SCT004 BKN013 OVC042 10/08 A2970 RMK AO2=
201305291153 METAR KPAE 291153Z AUTO 24006KT 10SM FEW004 BKN042 BKN060 10/08 A2970 RMK AO2 SLP056 T01000083 10122 20100 56015=
201305291053 METAR KPAE 291053Z AUTO 00000KT 10SM BKN065 BKN110 10/08 A2970 RMK AO2 SLP057 T01000078=
201305290953 METAR KPAE 290953Z AUTO 00000KT 10SM FEW045 BKN065 12/08 A2972 RMK AO2 SLP062 T01170078=
201305290853 METAR KPAE 290853Z AUTO 15004KT 10SM FEW032 OVC065 12/08 A2974 RMK AO2 SLP072 T01170078 58017=
201305290753 METAR KPAE 290753Z AUTO VRB03KT 10SM OVC065 12/08 A2976 RMK AO2 SLP076 T01170078 401780106=
201305290653 METAR KPAE 290653Z AUTO 15008KT 10SM BKN041 BKN048 OVC070 12/07 A2978 RMK AO2 SLP085 T01170067=
201305290553 METAR KPAE 290553Z AUTO 15008KT 10SM BKN070 BKN120 12/06 A2980 RMK AO2 SLP089 T01220061 10178 20122 58012=
201305290453 METAR KPAE 290453Z AUTO 18009KT 10SM OVC060 13/06 A2981 RMK AO2 SLP095 T01330061=
201305290353 METAR KPAE 290353Z AUTO 18011KT 10SM OVC055 13/07 A2982 RMK AO2 SLP096 T01330067=
201305290253 METAR KPAE 290253Z 18013KT 10SM CLR 14/07 A2983 RMK AO2 SLP101 T01440072 56012=
201305290153 METAR KPAE 290153Z 18014G23KT 10SM BKN075 16/07 A2984 RMK AO2 SLP103 T01610067=
201305290053 METAR KPAE 290053Z 20013G20KT 10SM FEW060 BKN090 18/08 A2985 RMK AO2 SLP108 T01780078=
201305282353 METAR KPAE 282353Z 19016G24KT 10SM CLR 17/08 A2987 RMK AO2 SLP113 T01720078 10178 20139 58003=
201305282253 METAR KPAE 282253Z 19014G22KT 10SM FEW032 BKN055 OVC090 17/08 A2987 RMK AO2 SLP115 T01670078=
201305282153 METAR KPAE 282153Z 20013KT 10SM FEW026 OVC085 16/08 A2988 RMK AO2 SLP117 T01610083=
201305282053 METAR KPAE 282053Z 20016G23KT 10SM OVC080 14/07 A2988 RMK AO2 SLP116 T01440067 50001=
201305281953 METAR KPAE 281953Z 19016G23KT 10SM FEW028 OVC070 14/07 A2988 RMK AO2 SLP119 T01440072=
201305281853 METAR KPAE 281853Z 18009KT 10SM FEW025 BKN048 OVC060 14/08 A2988 RMK AO2 SLP118 T01440083=
201305281753 METAR KPAE 281753Z 17015G21KT 10SM BKN025 BKN032 OVC100 14/08 A2987 RMK AO2 SLP115 T01440078 10144 20106 51009=
201305281653 METAR KPAE 281653Z 17012G19KT 10SM BKN020 14/08 A2987 RMK AO2 SLP113 T01390078=
201305281553 METAR KPAE 281553Z 18013G22KT 10SM BKN016 BKN024 12/08 A2986 RMK AO2 SLP110 T01220078=
201305281530 SPECI KPAE 281530Z 18013G21KT 10SM BKN014 BKN027 OVC049 12/08 A2985 RMK AO2=
201305281522 SPECI KPAE 281522Z 18013KT 1 1/4SM HZ BKN014 OVC047 12/08 A2986 RMK AO2=
201305281500 SPECI KPAE 281500Z 16012KT 10SM FEW014 OVC045 12/08 A2985 RMK AO2=
201305281453 METAR KPAE 281453Z 18012G19KT 10SM BKN013 OVC070 12/08 A2985 RMK AO2 SLP107 T01170083 51005=
201305281353 METAR KPAE 281353Z 18013G18KT 10SM BKN013 OVC070 12/08 A2984 RMK AO2 SLP105 T01170083=
201305281317 SPECI KPAE 281317Z 17011KT 10SM BKN013 OVC070 11/08 A2984 RMK AO2=
201305281304 SPECI KPAE 281304Z 16011KT 10SM BKN015 OVC075 11/08 A2984 RMK AO2=
201305281253 METAR KPAE 281253Z AUTO 17012KT 10SM SCT016 BKN030 OVC075 11/09 A2984 RMK AO2 SLP103 T01110089=
201305281153 METAR KPAE 281153Z AUTO 16013KT 10SM OVC070 11/08 A2983 RMK AO2 SLP101 70004 T01110083 10122 20106 51010=
201305281053 METAR KPAE 281053Z AUTO 18014G19KT 10SM OVC070 11/07 A2982 RMK AO2 SLP098 T01110072=
201305280953 METAR KPAE 280953Z AUTO 18016G20KT 10SM OVC070 11/08 A2981 RMK AO2 SLP094 T01110078=
201305280853 METAR KPAE 280853Z AUTO 18014G20KT 10SM SCT050 SCT065 BKN110 12/08 A2980 RMK AO2 SLP090 T01170083 53009=
201305280753 METAR KPAE 280753Z AUTO 17010G20KT 10SM FEW065 BKN080 12/09 A2979 RMK AO2 SLP088 T01170089 401500106=
201305280653 METAR KPAE 280653Z AUTO 17011KT 10SM SCT060 OVC075 12/09 A2978 RMK AO2 SLP083 T01220094=
201305280553 METAR KPAE 280553Z AUTO 17013G20KT 10SM OVC065 12/10 A2977 RMK AO2 SLP081 60001 T01220100 10144 20122 53009 TSNO=
201305280453 METAR KPAE 280453Z AUTO 16012KT 10SM FEW009 SCT016 BKN060 13/11 A2976 RMK AO2 SLP078 T01280111=
201305280400 SPECI KPAE 280400Z AUTO 15010KT 10SM FEW009 SCT060 13/11 A2975 RMK AO2=
201305280353 METAR KPAE 280353Z AUTO 15011KT 10SM SCT005 BKN024 OVC043 13/11 A2975 RMK AO2 RAE06 SLP074 P0000 T01280111=
201305280307 SPECI KPAE 280307Z 14005KT 9SM SCT005 BKN024 OVC043 12/11 A2975 RMK AO2 RAE06 P0000=
201305280300 SPECI KPAE 280300Z 15006KT 3SM -RA BR BKN024 BKN031 OVC048 12/11 A2975 RMK AO2 P0000=
201305280253 METAR KPAE 280253Z 15007KT 3SM -RA BR SCT005 BKN013 OVC041 13/11 A2975 RMK AO2 RAB47 SLP073 P0000 60001 T01280106 53003=
201305280153 METAR KPAE 280153Z 15010G15KT 10SM SCT027 BKN046 BKN060 13/11 A2974 RMK AO2 RAB14E52 SLP070 P0001 T01330111=
201305280141 SPECI KPAE 280141Z 15006G14KT 7SM -RA FEW015 BKN027 OVC033 13/12 A2973 RMK AO2 RAB14 P0001=
201305280053 METAR KPAE 280053Z 13006KT 9SM FEW013 SCT041 OVC065 14/11 A2973 RMK AO2 RAB17E40 SLP067 P0000 T01390111=
201305272353 METAR KPAE 272353Z VRB05KT 10SM BKN043 BKN055 OVC090 14/11 A2974 RMK AO2 RAE47 SLP070 P0000 60003 T01390111 10150 20139 50002=
201305272253 METAR KPAE 272253Z 15011G20KT 10SM -RA FEW017 BKN050 OVC075 14/11 A2974 RMK AO2 RAE2159B35 SLP070 P0000 T01390106=
201305272153 METAR KPAE 272153Z 16006KT 9SM -RA OVC065 14/11 A2973 RMK AO2 SLP067 P0002 T01390111=
201305272053 METAR KPAE 272053Z 15010G14KT 10SM -RA OVC070 14/10 A2973 RMK AO2 SLP067 P0000 60001 T01440100 56008=
201305271953 METAR KPAE 271953Z 14007G14KT 100V180 7SM -RA OVC060 14/10 A2973 RMK AO2 SLP068 P0001 T01440100=
201305271853 METAR KPAE 271853Z 15008G15KT 100V170 10SM -RA OVC065 15/09 A2974 RMK AO2 SLP070 P0000 T01500089=
201305271753 METAR KPAE 271753Z 15010G19KT 10SM -RA FEW048 BKN065 OVC075 14/09 A2975 RMK AO2 RAB19 SLP075 P0000 60000 T01390089 10139 20106 56022=
201305271653 METAR KPAE 271653Z 00000KT 10SM BKN070 OVC085 13/10 A2977=
201305271553 METAR KPAE 271553Z VRB04KT 10SM -RA OVC065 12/09 A2979 RMK AO2 RAB30 SLP089 P0000 T01170094=
201305271453 METAR KPAE 271453Z 12005KT 10SM BKN100 12/09 A2982 RMK AO2 SLP098 T01170089 56024=
201305271353 METAR KPAE 271353Z VRB03KT 10SM FEW050 11/09 A2984 RMK AO2 SLP106 T01110089=
201305271253 METAR KPAE 271253Z AUTO 12005KT 10SM CLR 11/09 A2986 RMK AO2 SLP112 T01060089=
201305271235 SPECI KPAE 271235Z AUTO 12004KT 10SM SCT026 11/09 A2987 RMK AO2=
201305271209 SPECI KPAE 271209Z AUTO 00000KT 10SM FEW005 BKN026 11/09 A2989 RMK AO2=
201305271153 METAR KPAE 271153Z AUTO 15004KT 10SM FEW005 11/09 A2989 RMK AO2 SLP122 70009 T01060089 10128 20106 58021=
201305271145 SPECI KPAE 271145Z AUTO 15004KT 10SM FEW007 11/09 A2990 RMK AO2=
201305271053 METAR KPAE 271053Z AUTO 15004KT 10SM BKN060 11/09 A2992 RMK AO2 SLP130 T01110089=
201305270953 METAR KPAE 270953Z AUTO 16006KT 10SM OVC045 11/08 A2994 RMK AO2 SLP138 T01110083=
201305270853 METAR KPAE 270853Z AUTO 17010KT 10SM SCT041 BKN070 12/08 A2996 RMK AO2 SLP144 T01170078 56008=
201305270753 METAR KPAE 270753Z AUTO 17008KT 10SM FEW049 OVC065 12/08 A2996 RMK AO2 SLP146 T01170078 401780094=
201305270653 METAR KPAE 270653Z AUTO 18009KT 10SM SCT049 OVC075 12/08 A2997 RMK AO2 SLP148 T01220083=
201305270553 METAR KPAE 270553Z AUTO 16010KT 10SM FEW100 13/09 A2998 RMK AO2 SLP152 T01280089 10172 20128 56001=
201305270453 METAR KPAE 270453Z AUTO 18009KT 10SM BKN075 OVC090 13/09 A2998 RMK AO2 SLP154 T01330089=
201305270353 METAR KPAE 270353Z AUTO 17011KT 10SM OVC070 14/08 A2998 RMK AO2 SLP152 T01390083=
201305270253 METAR KPAE 270253Z 19013KT 10SM BKN060 BKN080 15/09 A2999 RMK AO2 SLP154 T01500089 55002=
201305270153 METAR KPAE 270153Z 19011KT 10SM FEW065 BKN080 BKN090 16/09 A2998 RMK AO2 SLP153 T01610089=
201305270053 METAR KPAE 270053Z 20008KT 10SM SCT030 BKN090 OVC110 17/08 A2999 RMK AO2 SLP154 T01670083=
201305262353 METAR KPAE 262353Z 21006KT 10SM BKN120 17/09 A2999 RMK AO2 SLP156 60002 T01670094 10178 20122 55002=
201305262303 SPECI KPAE 262303Z 26008KT 10SM SCT025 BKN032 BKN090 18/11 A2999 RMK AO2=
201305262253 METAR KPAE 262253Z 20007KT 170V250 10SM FEW020 BKN025 BKN032 17/11 A2999 RMK AO2 SLP155 T01720111=
201305262153 METAR KPAE 262153Z 22005KT 10SM SCT010 BKN027 OVC039 16/12 A2999 RMK AO2 SLP155 T01610117=
201305262053 METAR KPAE 262053Z 22007KT 10SM FEW005 BKN023 OVC033 13/12 A3000 RMK AO2 RAE11B32E44 SLP159 P0001 60002 T01330117 50001=
201305262048 SPECI KPAE 262048Z 21005KT 7SM BKN009 BKN020 OVC031 13/12 A3000 RMK AO2 RAE11B32E44 P0001=
201305262039 SPECI KPAE 262039Z 22005KT 2SM -RA BR BKN009 BKN020 OVC031 13/12 A3000 RMK AO2 RAE11B32 P0001=
201305261953 METAR KPAE 261953Z 28004KT 10SM -RA BKN009 BKN017 OVC060 13/12 A3000 RMK AO2 SLP159 P0001 T01330122=
201305261853 METAR KPAE 261853Z 16006KT 7SM -RA BKN009 BKN017 OVC060 13/10 A2999 RMK AO2 RAB49 SLP158 P0000 T01330100=
201305261753 METAR KPAE 261753Z 17004KT 10SM BKN007 BKN012 OVC060 12/09 A3000 RMK AO2 RAB1659E37 SLP158 P0001 60007 T01220094 10122 20094 51005=
201305261653 METAR KPAE 261653Z 16004KT 3SM BR OVC007 11/09 A3000 RMK AO2 RAE40 CIG 004V010 SLP158 P0000 T01110094=
201305261557 SPECI KPAE 261557Z 20003KT 3SM -RA BR OVC005 11/09 A3000 RMK AO2 P0000=
201305261553 METAR KPAE 261553Z 00000KT 3SM -RA BR OVC001 11/09 A3000 RMK AO2 SLP158 P0004 T01060094=
201305261453 METAR KPAE 261453Z 00000KT 3SM -RA BR OVC001 10/09 A2998 RMK AO2 SLP153 P0000 60002 T01000089 51008=
201305261353 METAR KPAE 261353Z 30004KT 2SM -RA BR OVC001 10/09 A2997 RMK AO2 SLP150 P0001 T01000089=
201305261253 METAR KPAE 261253Z AUTO 31004KT 6SM -RA BR OVC001 09/09 A2997 RMK AO2 RAE11B41 SLP147 P0001 T00940089=
201305261205 SPECI KPAE 261205Z AUTO VRB04KT 10SM -RA BKN003 OVC060 09/08 A2996 RMK AO2 P0001=
201305261153 METAR KPAE 261153Z AUTO 35003KT 10SM -RA SCT003 OVC060 09/08 A2996 RMK AO2 RAB28 SLP144 P0000 60000 T00940083 10111 20094 56004=
201305261101 SPECI KPAE 261101Z AUTO 35003KT 10SM FEW003 BKN070 OVC110 09/08 A2996 RMK AO2=
201305261053 METAR KPAE 261053Z AUTO 00000KT 10SM OVC070 10/09 A2996 RMK AO2 SLP145 T01000089=
201305260953 METAR KPAE 260953Z AUTO 00000KT 10SM FEW060 OVC090 10/09 A2996 RMK AO2 SLP147 T01000089=
201305260853 METAR KPAE 260853Z AUTO 00000KT 10SM SCT100 10/09 A2997 RMK AO2 SLP148 60000 T01000089 58009=
201305260753 METAR KPAE 260753Z AUTO 00000KT 10SM FEW004 OVC060 10/09 A2998 RMK AO2 SLP153 T01000089 401780094=
201305260742 SPECI KPAE 260742Z AUTO 02003KT 10SM FEW004 OVC060 10/09 A2998 RMK AO2=
201305260653 METAR KPAE 260653Z AUTO 01004KT 10SM SCT065 BKN080 OVC100 10/09 A2999 RMK AO2 RAE03 SLP155 P0000 T01000089=
201305260553 METAR KPAE 260553Z AUTO 00000KT 10SM -RA SCT060 OVC080 11/08 A3000 RMK AO2 RAB51 SLP159 P0000 60000 T01110083 10178 20106 58004=
201305260453 METAR KPAE 260453Z AUTO 25006KT 10SM SCT065 BKN080 OVC100 12/09 A3001 RMK AO2 RAB09E48 SLP162 P0000 T01170089=
201305260353 METAR KPAE 260353Z AUTO 25004KT 10SM OVC055 13/07 A3001 RMK AO2 SLP161 T01280072=
201305260253 METAR KPAE 260253Z 24005KT 10SM BKN060 BKN070 BKN090 13/07 A3001 RMK AO2 SLP163 T01330067 55002=
201305260153 METAR KPAE 260153Z 23008KT 10SM FEW055 SCT070 BKN100 14/07 A3001 RMK AO2 SLP163 T01390067=
201305260053 METAR KPAE 260053Z 23009KT 10SM CLR 16/06 A3001 RMK AO2 SLP163 T01560061=
201305252353 METAR KPAE 252353Z 23013KT 10SM BKN046 OVC055 16/05 A3002 RMK AO2 SLP165 T01610050 10178 20122 56006=
201305252253 METAR KPAE 252253Z 26007KT 10SM SCT048 BKN060 BKN085 17/06 A3002 RMK AO2 SLP165 T01720061=
201305252153 METAR KPAE 252153Z 25009KT 10SM BKN048 OVC100 15/06 A3002 RMK AO2 SLP167 T01500056=
201305252053 METAR KPAE 252053Z 23007KT 10SM BKN035 OVC042 15/06 A3004 RMK AO2 SLP170 T01500061 56003=
201305251953 METAR KPAE 251953Z 23007KT 10SM SCT030 BKN055 15/07 A3004 RMK AO2 SLP170 T01500067=
201305251853 METAR KPAE 251853Z 15007KT 10SM SCT030 BKN055 12/06 A3004 RMK AO2 SLP174 T01220061=
201305251753 METAR KPAE 251753Z 17007KT 10SM BKN021 BKN029 OVC050 12/07 A3004 RMK AO2 SLP175 T01220067 10128 20094 51001=
201305251653 METAR KPAE 251653Z 17011KT 10SM BKN019 BKN024 OVC050 12/06 A3004 RMK AO2 SLP175 T01170061=
201305251553 METAR KPAE 251553Z 17009KT 10SM BKN017 OVC023 11/07 A3005 RMK AO2 SLP175 T01110067=
201305251453 METAR KPAE 251453Z 18009KT 10SM BKN015 OVC021 11/07 A3004 RMK AO2 SLP173 T01060067 51003=
201305251413 SPECI KPAE 251413Z 18009KT 10SM BKN015 OVC022 10/07 A3004 RMK AO2=
201305251353 METAR KPAE 251353Z 18008KT 10SM BKN013 OVC020 10/07 A3004 RMK AO2 SLP172 T01000072=
201305251308 SPECI KPAE 251308Z AUTO 20003KT 10SM BKN015 BKN022 10/07 A3004 RMK AO2=
201305251253 METAR KPAE 251253Z AUTO 20004KT 10SM SCT015 BKN065 09/07 A3004 RMK AO2 SLP172 T00940067=
201305251153 METAR KPAE 251153Z AUTO 18006KT 10SM BKN060 09/07 A3003 RMK AO2 SLP170 70001 T00940067 10117 20094 58003=
201305251053 METAR KPAE 251053Z AUTO 20007KT 10SM OVC055 10/07 A3004 RMK AO2 SLP172 T01000067=
201305250953 METAR KPAE 250953Z AUTO 20008KT 10SM SCT012 OVC045 10/07 A3004 RMK AO2 SLP174 T01000067=
201305250853 METAR KPAE 250853Z AUTO 18008KT 10SM OVC037 11/08 A3004 RMK AO2 SLP174 T01060078 56002=
201305250753 METAR KPAE 250753Z AUTO 16007KT 10SM BKN047 OVC060 11/08 A3005 RMK AO2 SLP175 T01110078 401720072=
201305250653 METAR KPAE 250653Z AUTO 18007KT 10SM FEW013 OVC055 11/08 A3005 RMK AO2 SLP175 T01110078=
201305250624 SPECI KPAE 250624Z AUTO 18007KT 10SM SCT014 BKN038 OVC055 12/08 A3005 RMK AO2=
201305250608 SPECI KPAE 250608Z AUTO 18009KT 10SM BKN016 BKN020 OVC055 12/08 A3005 RMK AO2=
201305250600 SPECI KPAE 250600Z AUTO 19007KT 10SM BKN014 BKN024 OVC050 12/08 A3005 RMK AO2=
201305250553 METAR KPAE 250553Z AUTO 18005KT 10SM BKN016 BKN049 BKN065 12/08 A3005 RMK AO2 SLP177 T01170083 10161 20111 51006=
201305250453 METAR KPAE 250453Z AUTO 20007KT 10SM BKN070 BKN110 12/07 A3005 RMK AO2 SLP176 T01220072=
201305250353 METAR KPAE 250353Z AUTO 22007KT 10SM SCT055 BKN065 12/06 A3004 RMK AO2 SLP173 T01220061=
201305250253 METAR KPAE 250253Z 21007KT 10SM FEW041 BKN060 14/06 A3003 RMK AO2 SLP171 T01440061 53003=
201305250153 METAR KPAE 250153Z 24006KT 10SM BKN043 15/06 A3003 RMK AO2 SLP169 T01500061=
201305250053 METAR KPAE 250053Z 25005KT 10SM SCT050 BKN065 16/05 A3003 RMK AO2 SLP169 T01560050=
201305242353 METAR KPAE 242353Z 27004KT 10SM BKN050 16/04 A3002 RMK AO2 SLP168 T01560044 10172 20117 57001=
201305242253 METAR KPAE 242253Z VRB03KT 10SM FEW044 SCT055 17/06 A3003 RMK AO2 SLP168 T01670056=
201305242153 METAR KPAE 242153Z 26006KT 10SM BKN037 14/06 A3003 RMK AO2 SLP169 T01440056=
201305242053 METAR KPAE 242053Z 25007KT 10SM FEW034 BKN045 OVC060 14/06 A3003 RMK AO2 SLP169 T01390056 50001=
201305241953 METAR KPAE 241953Z 26006KT 10SM FEW031 SCT043 BKN050 13/07 A3003 RMK AO2 SLP171 T01330067=
201305241853 METAR KPAE 241853Z 18004KT 10SM BKN044 14/05 A3003 RMK AO2 SLP169 T01390050=
201305241753 METAR KPAE 241753Z 22005KT 10SM SCT020 BKN042 BKN070 12/06 A3003 RMK AO2 SLP168 60001 T01170056 10122 20083 53008=
201305241653 METAR KPAE 241653Z 22006KT 10SM OVC042 12/06 A3002 RMK AO2 SLP167 T01170061=
201305241553 METAR KPAE 241553Z 00000KT 10SM FEW014 OVC070 11/07 A3001 RMK AO2 SLP163 T01110072=
201305241453 METAR KPAE 241453Z 21003KT 10SM SCT046 OVC060 10/06 A3000 RMK AO2 SLP160 60001 T01000061 50004=
201305241353 METAR KPAE 241353Z 00000KT 10SM BKN031 OVC070 09/06 A3000 RMK AO2 RAE1255 SLP162 P0001 T00890061=
201305241253 METAR KPAE 241253Z AUTO 00000KT 10SM -RA FEW030 SCT060 OVC075 08/06 A2999 RMK AO2 RAB44 SLP158 P0000 T00830061=
201305241153 METAR KPAE 241153Z AUTO 00000KT 10SM OVC060 08/06 A2999 RMK AO2 SLP157 60000 70002 T00830061 10089 20072 53001=
201305241053 METAR KPAE 241053Z AUTO 00000KT 10SM SCT060 08/05 A2998 RMK AO2 SLP154 T00780050=
201305240953 METAR KPAE 240953Z AUTO 00000KT 10SM BKN065 08/06 A2998 RMK AO2 SLP154 T00830056=
201305240853 METAR KPAE 240853Z AUTO 00000KT 10SM CLR 08/06 A2999 RMK AO2 SLP156 60000 T00780056 55003=
201305240753 METAR KPAE 240753Z AUTO 00000KT 10SM BKN070 OVC085 08/06 A2998 RMK AO2 SLP154 T00830061 401440072=
201305240653 METAR KPAE 240653Z AUTO 23004KT 10SM FEW060 08/06 A2999 RMK AO2 RAE0557 SLP157 P0000 T00830061=
201305240553 METAR KPAE 240553Z AUTO 00000KT 10SM -RA FEW040 BKN055 09/06 A3000 RMK AO2 RAB36 SLP159 P0000 60000 T00890061 10111 20078 52001=
201305240453 METAR KPAE 240453Z AUTO 00000KT 10SM SCT060 BKN075 08/06 A3000 RMK AO2 SLP160 T00830056=
201305240353 METAR KPAE 240353Z 00000KT 10SM CLR 09/06 A2999 RMK AO2 SLP157 T00890061=
201305240253 METAR KPAE 240253Z 10003KT 10SM CLR 11/05 A2999 RMK AO2 SLP158 T01060050 56007=
201305240153 METAR KPAE 240153Z 15006KT 10SM FEW020 11/04 A3000 RMK AO2 SLP160 T01060044=
201305240053 METAR KPAE 240053Z 18007KT 10SM FEW030 11/04 A3000 RMK AO2 SLP162 T01110044=
201305240000 SPECI KPAE 240000Z 17013KT 10SM FEW024 SCT030 BKN035 11/04 A3001 RMK AO2=
201305232353 METAR KPAE 232353Z 18012G19KT 10SM BKN029 BKN044 11/04 A3001 RMK AO2 SLP165 60000 T01060044 10144 20094 51012=
201305232300 SPECI KPAE 232300Z 19017G23KT 10SM BKN029 BKN044 11/05 A3001 RMK AO2=
201305232253 METAR KPAE 232253Z 18017G22KT 10SM SCT025 BKN032 OVC060 11/04 A3001 RMK AO2 RAB12E15 SLP164 P0000 T01060044=
201305232213 SPECI KPAE 232213Z 20014KT 10SM -RA SCT027 BKN042 OVC060 11/05 A3001 RMK AO2 RAB12 P0000=
201305232153 METAR KPAE 232153Z 19020KT 10SM BKN027 BKN033 OVC045 13/06 A3000 RMK AO2 RAE08 SLP160 P0000 T01280056=
201305232053 METAR KPAE 232053Z 23010G18KT 10SM -RA BKN038 BKN046 12/05 A2998 RMK AO2 RAB49 SLP153 P0000 60000 T01170050 55004=
201305231953 METAR KPAE 231953Z 24009KT 10SM BKN034 OVC047 13/06 A2997 RMK AO2 SLP151 T01280056=
201305231853 METAR KPAE 231853Z 24005KT 10SM FEW028 BKN039 BKN047 12/07 A2999 RMK AO2 SLP155 T01220072=
201305231846 SPECI KPAE 231846Z 26004KT 10SM SCT025 BKN035 OVC044 11/07 A2998 RMK AO2=
201305231836 SPECI KPAE 231836Z 24006KT 10SM BKN029 OVC038 10/07 A2999 RMK AO2=
201305231753 METAR KPAE 231753Z 26004KT 10SM FEW012 SCT020 OVC034 09/07 A2999 RMK AO2 SLP157 60002 T00940067 10106 20072 50000=
201305231711 SPECI KPAE 231711Z 17006KT 10SM FEW023 BKN030 BKN090 09/05 A2999 RMK AO2=
201305231653 METAR KPAE 231653Z 17007KT 10SM SCT016 SCT024 BKN029 09/06 A2999 RMK AO2 SLP158 T00940056=
201305231618 SPECI KPAE 231618Z 16006KT 10SM BKN011 OVC085 09/06 A3000 RMK AO2=
201305231553 METAR KPAE 231553Z 17004KT 10SM FEW009 SCT043 OVC075 08/06 A3000 RMK AO2 RAB06E41 SLP160 P0002 T00830056=
201305231453 METAR KPAE 231453Z 19004KT 10SM SCT006 BKN015 OVC027 08/06 A2999 RMK AO2 SLP157 T00780061 53009=
201305231400 SPECI KPAE 231400Z 21005KT 10SM FEW008 OVC015 07/06 A2998 RMK AO2=
201305231353 METAR KPAE 231353Z 21004KT 10SM OVC015 07/06 A2998 RMK AO2 SLP153 T00720056=
201305231253 METAR KPAE 231253Z AUTO 20004KT 10SM BKN019 BKN038 OVC070 07/06 A2996 RMK AO2 SLP147 T00720056=
201305231251 SPECI KPAE 231251Z AUTO 20005KT 10SM BKN019 BKN038 OVC070 07/06 A2996 RMK AO2=
201305231153 METAR KPAE 231153Z AUTO 19004KT 10SM FEW049 OVC075 08/06 A2996 RMK AO2 RAB1058E12 SLP146 P0000 60000 70006 T00780061 10089 20072 50003=
201305231118 SPECI KPAE 231118Z AUTO 19003KT 10SM SCT020 BKN060 OVC075 08/06 A2995 RMK AO2 RAB1058E12 P0000=
201305231053 METAR KPAE 231053Z AUTO 16005KT 10SM OVC018 08/06 A2996 RMK AO2 SLP146 T00780061=
201305231032 SPECI KPAE 231032Z AUTO 16005KT 10SM BKN015 OVC065 08/07 A2995 RMK AO2=
201305230953 METAR KPAE 230953Z AUTO 00000KT 10SM BKN013 OVC065 08/07 A2995 RMK AO2 SLP145 T00830067=
201305230917 SPECI KPAE 230917Z AUTO 18003KT 10SM SCT020 SCT070 OVC090 08/07 A2995 RMK AO2=
201305230853 METAR KPAE 230853Z AUTO 00000KT 10SM BKN018 OVC090 08/07 A2995 RMK AO2 SLP142 T00830072 55000=
201305230808 SPECI KPAE 230808Z AUTO 00000KT 9SM OVC016 08/07 A2994 RMK AO2=
201305230753 METAR KPAE 230753Z AUTO 15003KT 9SM FEW008 OVC014 08/07 A2993 RMK AO2 SLP138 T00830072 401060072=
201305230731 SPECI KPAE 230731Z AUTO 00000KT 5SM BR BKN012 07/07 A2993 RMK AO2=
201305230653 METAR KPAE 230653Z AUTO 00000KT 10SM FEW012 08/07 A2993 RMK AO2 SLP138 T00830067=
201305230645 SPECI KPAE 230645Z AUTO 00000KT 10SM SCT012 08/07 A2994 RMK AO2=
201305230605 SPECI KPAE 230605Z AUTO 00000KT 10SM BKN012 BKN065 09/07 A2995 RMK AO2=
201305230553 METAR KPAE 230553Z AUTO 00000KT 10SM FEW012 SCT065 09/07 A2995 RMK AO2 SLP142 60003 T00890072 10106 20089 51006=
201305230453 METAR KPAE 230453Z AUTO 15004KT 10SM FEW014 SCT070 BKN110 09/07 A2994 RMK AO2 SLP140 T00940072=
201305230450 SPECI KPAE 230450Z AUTO 15003KT 10SM FEW014 SCT070 BKN110 09/08 A2994 RMK AO2=
201305230443 SPECI KPAE 230443Z AUTO 00000KT 10SM FEW010 SCT016 BKN028 09/07 A2994 RMK AO2=
201305230400 SPECI KPAE 230400Z 00000KT 10SM BKN014 OVC027 09/08 A2993 RMK AO2=
201305230353 METAR KPAE 230353Z 00000KT 10SM BKN009 BKN029 OVC060 09/07 A2993 RMK AO2 SLP136 T00940072=
201305230253 METAR KPAE 230253Z 00000KT 10SM BKN009 BKN031 OVC043 09/07 A2992 RMK AO2 RAE51 SLP134 P0003 60003 T00890067 51006=
201305230153 METAR KPAE 230153Z 21003KT 7SM -RA SCT034 OVC043 10/07 A2992 RMK AO2 RAB42 SLP134 P0000 T01000072=
201305230053 METAR KPAE 230053Z 23004KT 10SM FEW042 BKN075 OVC100 11/08 A2991 RMK AO2 SLP130 T01060083=
201305230000 SPECI KPAE 230000Z 22003KT 10SM FEW011 SCT031 OVC042 10/07 A2991 RMK AO2=
201305222353 METAR KPAE 222353Z 21004KT 10SM BKN011 BKN042 11/08 A2991 RMK AO2 RAE46 SLP128 P0001 60003 T01060078 10106 20078 52002=
201305222253 METAR KPAE 222253Z 24003KT 9SM -RA BKN011 BKN042 OVC100 09/08 A2990 RMK AO2 SLP127 P0001 T00940078=
201305222153 METAR KPAE 222153Z 00000KT 10SM -RA BKN011 OVC013 09/07 A2990 RMK AO2 RAB00 SLP127 P0000 T00940067=
201305222053 METAR KPAE 222053Z 18006KT 10SM BKN011 OVC050 09/07 A2990 RMK AO2 SLP126 60001 T00940067 50004=
201305221953 METAR KPAE 221953Z 17006KT 9SM BKN007 BKN048 OVC060 09/07 A2989 RMK AO2 RAB1856E33 SLP123 P0001 T00890072=
201305221900 SPECI KPAE 221900Z 19006KT 9SM -RA BKN007 BKN048 OVC060 08/06 A2988 RMK AO2 RAB1856 P0000=
201305221853 METAR KPAE 221853Z 18006KT 10SM FEW014 SCT028 OVC050 08/06 A2988 RMK AO2 SLP121 T00830061=
201305221842 SPECI KPAE 221842Z 17007KT 10SM FEW007 SCT018 OVC048 08/06 A2989 RMK AO2=
201305221835 SPECI KPAE 221835Z 17006KT 10SM SCT007 BKN018 OVC050 08/06 A2988 RMK AO2=
201305221753 METAR KPAE 221753Z 16007KT 10SM BKN007 OVC018 08/06 A2988 RMK AO2 CIG 005V011 SLP120 T00780056 10083 20072 53005=
201305221713 SPECI KPAE 221713Z 15007KT 10SM BKN009 OVC020 08/06 A2987 RMK AO2 CIG 006V011=
201305221701 SPECI KPAE 221701Z 16005KT 10SM SCT006 SCT011 OVC020 08/06 A2987 RMK AO2=
201305221653 METAR KPAE 221653Z 16005KT 10SM BKN006 OVC022 08/06 A2987 RMK AO2 SLP115 T00780061=
201305221643 SPECI KPAE 221643Z 16006KT 10SM BKN006 07/06 A2987 RMK AO2=
201305221635 SPECI KPAE 221635Z 15007KT 10SM BKN004 07/06 A2987 RMK AO2=
201305221623 SPECI KPAE 221623Z 17007KT 10SM SCT004 SCT023 BKN090 07/06 A2987 RMK AO2=
201305221553 METAR KPAE 221553Z 16008KT 10SM BKN004 OVC023 07/06 A2987 RMK AO2 SLP116 T00720061=
201305221453 METAR KPAE 221453Z 15006KT 6SM BR OVC004 07/06 A2987 RMK AO2 SLP115 T00720061 53002=
201305221414 SPECI KPAE 221414Z 16006KT 2SM BR OVC004 07/06 A2986 RMK AO2=
201305221353 METAR KPAE 221353Z 15004KT 7SM OVC004 08/06 A2986 RMK AO2 SLP112 T00780061=
201305221336 SPECI KPAE 221336Z 00000KT 7SM BKN004 OVC014 08/07 A2986 RMK AO2 CIG 002V007=
201305221323 SPECI KPAE 221323Z AUTO 11003KT 7SM SCT004 BKN014 OVC048 08/07 A2986 RMK AO2=
201305221253 METAR KPAE 221253Z AUTO 11005KT 7SM FEW004 BKN009 OVC046 08/07 A2986 RMK AO2 CIG 008V015 SLP113 T00780067=
201305221228 SPECI KPAE 221228Z AUTO 11004KT 9SM SCT006 BKN011 OVC046 08/07 A2985 RMK AO2=
201305221153 METAR KPAE 221153Z AUTO 00000KT 9SM BKN004 OVC038 08/07 A2986 RMK AO2 SLP113 60002 70021 T00780067 10089 20078 58002=
201305221053 METAR KPAE 221053Z AUTO 00000KT 9SM OVC004 08/07 A2987 RMK AO2 CIG 003V007 SLP118 T00780067=
201305221018 SPECI KPAE 221018Z AUTO 00000KT 10SM OVC004 08/07 A2987 RMK AO2=
201305220953 METAR KPAE 220953Z AUTO 17005KT 10SM OVC006 08/07 A2987 RMK AO2 SLP115 T00780067=
201305220853 METAR KPAE 220853Z AUTO 16006KT 8SM BKN008 OVC036 08/07 A2986 RMK AO2 RAE39 SLP114 P0001 60002 T00780067 51003=
201305220753 METAR KPAE 220753Z AUTO 11005KT 9SM -RA BKN008 BKN016 OVC032 08/07 A2986 RMK AO2 RAB49 CIG 007V012 SLP114 P0000 T00830067 401110078=
201305220741 SPECI KPAE 220741Z AUTO 11005KT 10SM SCT008 OVC032 08/07 A2986 RMK AO2=
201305220653 METAR KPAE 220653Z AUTO 18008KT 10SM OVC038 08/07 A2985 RMK AO2 RAE42 SLP111 P0001 T00830067=
201305220608 SPECI KPAE 220608Z AUTO 20007KT 7SM -RA SCT027 OVC034 08/07 A2986 RMK AO2 P0001=
201305220553 METAR KPAE 220553Z AUTO 18008KT 9SM -RA SCT021 BKN027 OVC032 08/07 A2985 RMK AO2 RAB32 SLP111 P0001 60001 T00830067 10111 20083 51010=
201305220505 SPECI KPAE 220505Z AUTO 20011KT 10SM FEW010 BKN016 OVC042 09/07 A2985 RMK AO2=
201305220453 METAR KPAE 220453Z AUTO 22005KT 10SM FEW018 BKN042 OVC050 09/08 A2985 RMK AO2 RAE09 SLP108 P0000 T00940078=
201305220353 METAR KPAE 220353Z AUTO 00000KT 7SM -RA FEW010 SCT035 OVC090 09/08 A2983 RMK AO2 RAB16 SLP104 P0000 T00940078=
201305220345 SPECI KPAE 220345Z AUTO 23003KT 9SM -RA FEW008 SCT014 OVC095 10/08 A2983 RMK AO2 RAB16 P0000=
201305220335 SPECI KPAE 220335Z 21003KT 10SM BKN012 BKN038 OVC100 10/08 A2984 RMK AO2 RAB16E30 CIG 008V024 P0000=
201305220300 SPECI KPAE 220300Z 00000KT 10SM SCT030 BKN042 OVC049 11/07 A2982 RMK AO2=
201305220253 METAR KPAE 220253Z 25003KT 10SM FEW021 BKN028 OVC037 11/07 A2982 RMK AO2 SLP100 T01060072 53009=
201305220224 SPECI KPAE 220224Z 00000KT 10SM FEW011 BKN023 OVC065 10/07 A2981 RMK AO2=
201305220153 METAR KPAE 220153Z 00000KT 10SM BKN055 OVC070 11/07 A2981 RMK AO2 SLP095 T01060072=
201305220053 METAR KPAE 220053Z VRB03KT 10SM FEW009 BKN030 OVC050 11/08 A2980 RMK AO2 SLP092 T01060078=
201305220007 SPECI KPAE 220007Z 35005KT 10SM SCT009 BKN015 BKN026 11/08 A2980 RMK AO2=
201305212353 METAR KPAE 212353Z 01003KT 10SM SCT013 BKN026 11/07 A2979 RMK AO2 SLP090 60003 T01060072 10106 20078 58003=
201305212253 METAR KPAE 212253Z 36005KT 7SM BKN007 BKN024 OVC100 10/08 A2980 RMK AO2 RAB00E11 SLP093 P0000 T01000083=
201305212153 METAR KPAE 212153Z VRB04KT 10SM BKN005 BKN016 OVC022 11/09 A2981 RMK AO2 RAE53 SLP096 P0001 T01060089=
201305212102 SPECI KPAE 212102Z 31004KT 10SM -RA BKN009 BKN016 OVC022 10/08 A2980 RMK AO2 P0000=
201305212055 SPECI KPAE 212055Z VRB03KT 5SM -RA BR SCT009 BKN016 OVC022 09/08 A2980 RMK AO2 P0000=
201305212053 METAR KPAE 212053Z 29004KT 5SM -RA BR BKN009 BKN014 OVC022 09/08 A2980 RMK AO2 RAB38 SLP093 P0001 60002 T00940078 58003=
201305211953 METAR KPAE 211953Z 15004KT 10SM SCT009 OVC016 09/07 A2981 RMK AO2 SLP096 T00940072=
201305211926 SPECI KPAE 211926Z 16004KT 8SM SCT009 OVC016 09/07 A2981 RMK AO2=
201305211918 SPECI KPAE 211918Z 15007KT 6SM BR BKN009 OVC016 08/07 A2981 RMK AO2=
201305211856 SPECI KPAE 211856Z 15007KT 2 1/2SM BR BKN009 OVC016 08/07 A2981 RMK AO2=
201305211853 METAR KPAE 211853Z 16008KT 1 1/2SM BR SCT009 OVC016 08/07 A2981 RMK AO2 RAB1755E14 SLP097 P0001 T00830067=
201305211823 SPECI KPAE 211823Z 16005KT 1 1/2SM BR SCT006 OVC015 08/07 A2981 RMK AO2 RAB1755E14 P0001=
201305211816 SPECI KPAE 211816Z 15005KT 2 1/2SM BR SCT008 OVC014 08/07 A2981 RMK AO2 RAB1755E14 P0001=
201305211802 SPECI KPAE 211802Z 16006KT 1 1/2SM R16R/6000VP6000FT -RA BR SCT008 OVC016 08/07 A2981 RMK AO2 RAB1755 P0001=
201305211755 SPECI KPAE 211755Z 14004KT 1 3/4SM -RA BR SCT008 BKN014 OVC019 08/07 A2981 RMK AO2 RAB55 P0000=
201305211753 METAR KPAE 211753Z VRB03KT 2SM BR FEW006 SCT010 OVC017 08/07 A2981 RMK AO2 RAB10E24B42E51 SLP097 P0000 60015 T00780067 10089 20078 56008=
201305211745 SPECI KPAE 211745Z 15005KT 3SM -RA BR FEW008 BKN015 OVC020 08/06 A2982 RMK AO2 RAB10E24B42 P0000=
201305211653 METAR KPAE 211653Z 17006KT 3SM BR BKN008 OVC016 08/07 A2982 RMK AO2 RAE46 SLP099 P0002 T00780067=
201305211634 SPECI KPAE 211634Z 16009KT 2SM -RA BR BKN008 OVC018 08/07 A2982 RMK AO2 P0001=
201305211630 SPECI KPAE 211630Z 17006KT 3SM -RA BR BKN008 OVC018 08/07 A2982 RMK AO2 P0001=
201305211623 SPECI KPAE 211623Z 17008KT 5SM -RA BR SCT008 BKN018 OVC028 08/06 A2982 RMK AO2 P0001=
201305211553 METAR KPAE 211553Z 19007KT 4SM -RA BR BKN008 BKN041 OVC048 08/06 A2983 RMK AO2 SLP102 P0001 T00780061=
201305211501 SPECI KPAE 211501Z 18008KT 7SM -RA BKN008 BKN041 OVC048 08/06 A2984 RMK AO2 P0000=
201305211453 METAR KPAE 211453Z 20007KT 6SM -RA BR BKN016 BKN041 OVC050 08/06 A2984 RMK AO2 SLP105 P0004 60012 T00780061 56008=
201305211353 METAR KPAE 211353Z 20009KT 7SM -RA FEW005 SCT009 OVC033 08/07 A2985 RMK AO2 SLP108 P0001 T00780067=
201305211338 SPECI KPAE 211338Z AUTO 19010KT 10SM -RA OVC031 08/06 A2985 RMK AO2 P0001=
201305211318 SPECI KPAE 211318Z AUTO 19006KT 8SM -RA OVC029 08/06 A2984 RMK AO2 P0001=
201305211253 METAR KPAE 211253Z AUTO 19008KT 10SM -RA FEW008 BKN031 OVC040 08/06 A2985 RMK AO2 SLP108 P0007 T00830061=
201305211225 SPECI KPAE 211225Z AUTO 17007KT 4SM RA BR FEW008 BKN015 OVC050 08/07 A2986 RMK AO2 P0006=
201305211153 METAR KPAE 211153Z AUTO 19006KT 5SM -RA BR FEW027 OVC050 09/07 A2986 RMK AO2 SLP112 P0009 60014 70014 T00890072 10100 20078 56007=
201305211151 SPECI KPAE 211151Z AUTO 19005KT 5SM -RA BR FEW027 SCT033 OVC050 09/07 A2986 RMK AO2 P0009=
201305211053 METAR KPAE 211053Z AUTO 00000KT 7SM -RA FEW021 BKN028 OVC060 08/07 A2987 RMK AO2 SLP113 P0003 T00830072=
201305211032 SPECI KPAE 211032Z AUTO 00000KT 7SM -RA FEW013 BKN036 OVC055 08/07 A2986 RMK AO2 P0002=
201305211024 SPECI KPAE 211024Z AUTO 00000KT 10SM -RA SCT008 BKN015 OVC039 08/07 A2987 RMK AO2 P0002=
201305210953 METAR KPAE 210953Z AUTO 27003KT 7SM -RA SCT006 OVC009 08/07 A2988 RMK AO2 SLP119 P0002 T00830067=
201305210931 SPECI KPAE 210931Z AUTO 28005KT 5SM -RA BR BKN009 BKN034 08/07 A2989 RMK AO2 P0001=
201305210853 METAR KPAE 210853Z AUTO 30004KT 10SM -RA OVC012 09/06 A2990 RMK AO2 RAB53 SLP123 P0000 60000 T00890061 56012=
201305210840 SPECI KPAE 210840Z AUTO 29005KT 10SM BKN014 OVC032 09/06 A2990 RMK AO2=
201305210753 METAR KPAE 210753Z AUTO 32006KT 10SM BKN034 OVC055 09/06 A2990 RMK AO2 SLP126 T00890061 401830078=
201305210653 METAR KPAE 210653Z AUTO VRB03KT 10SM OVC065 09/07 A2992 RMK AO2 SLP131 T00940067=
201305210553 METAR KPAE 210553Z AUTO 01006KT 10SM BKN070 10/07 A2993 RMK AO2 SLP137 T01000072 10161 20100 58020=
201305210453 METAR KPAE 210453Z AUTO VRB06KT 10SM FEW043 BKN070 11/07 A2996 RMK AO2 SLP146 T01060072=
201305210353 METAR KPAE 210353Z AUTO VRB04KT 10SM CLR 11/07 A2998 RMK AO2 SLP151 T01060072=
201305210253 METAR KPAE 210253Z 34005KT 10SM CLR 12/07 A2999 RMK AO2 SLP157 T01170072 56020=
201305210153 METAR KPAE 210153Z 36005KT 10SM CLR 12/08 A3001 RMK AO2 SLP162 T01220078=
201305210053 METAR KPAE 210053Z VRB05KT 10SM CLR 14/08 A3003 RMK AO2 SLP171 T01390078=
201305202353 METAR KPAE 202353Z 36008KT 10SM CLR 16/09 A3005 RMK AO2 SLP178 T01610089 10183 20133 57031=
201305202253 METAR KPAE 202253Z 29006KT 10SM CLR 17/06 A3009 RMK AO2 SLP188 T01720061=
201305202153 METAR KPAE 202153Z 27006KT 10SM CLR 18/07 A3012 RMK AO2 SLP198 T01780067=
201305202053 METAR KPAE 202053Z 24005KT 10SM CLR 17/09 A3015 RMK AO2 SLP209 T01670089 58026=
201305201953 METAR KPAE 201953Z VRB03KT 10SM CLR 14/08 A3018 RMK AO2 SLP220 T01440083=
201305201853 METAR KPAE 201853Z 27005KT 10SM SCT020 14/08 A3021 RMK AO2 SLP230 T01390083=
201305201753 METAR KPAE 201753Z 36004KT 10SM FEW030 13/08 A3023 RMK AO2 SLP236 T01330078 10133 20078 58019=
201305201653 METAR KPAE 201653Z 00000KT 10SM CLR 12/07 A3026 RMK AO2 SLP248 T01170072=
201305201553 METAR KPAE 201553Z 00000KT 10SM SCT008 BKN060 12/07 A3028 RMK AO2 SLP254 T01170072=
201305201453 METAR KPAE 201453Z 00000KT 10SM SCT005 11/07 A3028 RMK AO2 SLP255 T01060072 58015=
201305201353 METAR KPAE 201353Z 00000KT 10SM CLR 09/07 A3030 RMK AO2 SLP261 T00940072=
201305201253 METAR KPAE 201253Z AUTO 00000KT 9SM CLR 08/06 A3031 RMK AO2 SLP266 T00830061=
201305201153 METAR KPAE 201153Z AUTO 00000KT 10SM CLR 08/06 A3033 RMK AO2 SLP271 T00780061 10100 20078 58011=
201305201053 METAR KPAE 201053Z AUTO 00000KT 10SM CLR 08/07 A3035 RMK AO2 SLP278 T00830067=
201305200953 METAR KPAE 200953Z AUTO 00000KT 10SM CLR 08/07 A3035 RMK AO2 SLP280 T00830067=
201305200853 METAR KPAE 200853Z AUTO 34003KT 10SM CLR 09/07 A3036 RMK AO2 SLP282 T00890072 56002=
201305200753 METAR KPAE 200753Z AUTO 36004KT 10SM CLR 09/07 A3036 RMK AO2 SLP283 T00940072 401670094=
201305200653 METAR KPAE 200653Z AUTO 01007KT 10SM CLR 10/08 A3036 RMK AO2 SLP282 T01000078=
201305200553 METAR KPAE 200553Z AUTO VRB04KT 10SM CLR 10/08 A3037 RMK AO2 SLP285 T01000078 10167 20100 56003=
201305200453 METAR KPAE 200453Z AUTO 03004KT 10SM CLR 11/08 A3037 RMK AO2 SLP285 T01110078=
201305200353 METAR KPAE 200353Z 01003KT 10SM CLR 13/09 A3037 RMK AO2 SLP286 T01280089=
201305200253 METAR KPAE 200253Z 35003KT 10SM CLR 14/07 A3038 RMK AO2 SLP286 T01440072 56012=
201305200153 METAR KPAE 200153Z 36004KT 10SM CLR 16/08 A3038 RMK AO2 SLP287 T01560083=
201305200053 METAR KPAE 200053Z 28003KT 10SM BKN065 16/08 A3039 RMK AO2 SLP291 T01560078=
201305192353 METAR KPAE 192353Z 30006KT 10SM OVC070 16/08 A3041 RMK AO2 SLP299 T01560078 10167 20100 55001=
201305192253 METAR KPAE 192253Z 00000KT 10SM R16R/5500VP6000FT SCT024 16/08 A3041 RMK AO2 SLP298 T01560078=
201305192153 METAR KPAE 192153Z 32005KT 10SM OVC070 15/09 A3041 RMK AO2 SLP298 T01500094=
201305192053 METAR KPAE 192053Z 32006KT 10SM SCT030 OVC070 14/09 A3042 RMK AO2 SLP300 T01390089 53003=
201305192051 SPECI KPAE 192051Z VRB04KT 10SM SCT030 OVC070 14/09 A3042 RMK AO2=
201305192007 SPECI KPAE 192007Z VRB05KT 10SM BKN011 BKN039 OVC070 13/09 A3041 RMK AO2 CIG 008V013=
201305191953 METAR KPAE 191953Z 34006KT 10SM BKN009 OVC039 13/09 A3041 RMK AO2 SLP300 T01330089=
201305191853 METAR KPAE 191853Z VRB03KT 10SM OVC009 11/08 A3041 RMK AO2 SLP298 T01110083=
201305191753 METAR KPAE 191753Z 32006KT 8SM OVC009 10/08 A3041 RMK AO2 SLP298 T01000078 10106 20100 51008=
201305191736 SPECI KPAE 191736Z 31006KT 10SM OVC009 10/07 A3040 RMK AO2=
201305191653 METAR KPAE 191653Z 30006KT 10SM OVC015 10/07 A3040 RMK AO2 SLP296 T01000072=
201305191600 SPECI KPAE 191600Z 33005KT 10SM OVC015 11/07 A3040 RMK AO2=
201305191553 METAR KPAE 191553Z 32005KT 10SM SCT027 BKN047 OVC065 10/07 A3040 RMK AO2 SLP294 T01000067=
201305191453 METAR KPAE 191453Z 33005KT 10SM SCT027 SCT047 OVC065 11/07 A3038 RMK AO2 SLP290 T01060067 53011=
201305191353 METAR KPAE 191353Z AUTO 34004KT 10SM FEW028 OVC070 10/08 A3036 RMK AO2 SLP284 T01000078=
201305191341 SPECI KPAE 191341Z AUTO 35005KT 10SM SCT028 OVC070 10/08 A3036 RMK AO2=
201305191325 SPECI KPAE 191325Z AUTO 36005KT 10SM BKN028 OVC065 10/08 A3036 RMK AO2=
201305191253 METAR KPAE 191253Z AUTO 02004KT 10SM FEW024 OVC065 11/08 A3035 RMK AO2 SLP278 T01060083=
201305191227 SPECI KPAE 191227Z AUTO 02004KT 10SM FEW011 BKN041 OVC065 11/08 A3035 RMK AO2=
201305191216 SPECI KPAE 191216Z AUTO VRB04KT 10SM FEW011 BKN024 OVC041 11/08 A3035 RMK AO2=
201305191153 METAR KPAE 191153Z AUTO 35003KT 10SM BKN009 OVC022 11/08 A3035 RMK AO2 CIG 006V012 SLP278 T01060083 10117 20106 51014=
201305191053 METAR KPAE 191053Z AUTO VRB04KT 10SM BKN007 OVC011 11/09 A3034 RMK AO2 CIG 005V008 SLP274 T01060089=
201305191030 SPECI KPAE 191030Z AUTO 36004KT 10SM OVC009 11/09 A3033 RMK AO2 CIG 006V011=
201305191009 SPECI KPAE 191009Z AUTO 03006KT 10SM BKN011 BKN041 OVC060 11/08 A3032 RMK AO2=
201305190953 METAR KPAE 190953Z AUTO 02004KT 10SM FEW011 SCT036 OVC060 11/08 A3032 RMK AO2 SLP269 T01110083=
201305190853 METAR KPAE 190853Z AUTO 00000KT 10SM SCT043 BKN050 OVC065 12/08 A3031 RMK AO2 SLP263 T01170083 51010=
201305190753 METAR KPAE 190753Z AUTO 00000KT 10SM OVC043 11/09 A3030 RMK AO2 SLP261 T01110089 401560100=
201305190653 METAR KPAE 190653Z AUTO 35003KT 10SM OVC045 11/08 A3029 RMK AO2 SLP257 T01110083=
201305190553 METAR KPAE 190553Z AUTO 35003KT 10SM BKN050 OVC070 12/08 A3028 RMK AO2 RAB04E13 SLP254 P0000 60000 T01170083 10156 20117 51017=
201305190453 METAR KPAE 190453Z AUTO 36003KT 10SM OVC050 12/08 A3027 RMK AO2 SLP250 T01220083=
201305190353 METAR KPAE 190353Z AUTO 00000KT 10SM BKN055 OVC070 13/08 A3025 RMK AO2 SLP242 T01280083=
201305190253 METAR KPAE 190253Z 35004KT 10SM OVC070 13/08 A3023 RMK AO2 SLP236 T01330078 53007=
201305190153 METAR KPAE 190153Z VRB03KT 10SM BKN070 14/07 A3022 RMK AO2 SLP232 T01390072=
201305190053 METAR KPAE 190053Z 27004KT 10SM CLR 15/07 A3021 RMK AO2 SLP231 T01500067=
201305182353 METAR KPAE 182353Z 26005KT 10SM FEW065 OVC085 16/05 A3021 RMK AO2 SLP229 60000 T01560050 10156 20128 53009=
201305182253 METAR KPAE 182253Z 26006KT 10SM OVC080 16/06 A3019 RMK AO2 SLP224 T01560056=
201305182153 METAR KPAE 182153Z 29005KT 10SM BKN050 OVC090 16/05 A3018 RMK AO2 SLP220 T01560050=
201305182053 METAR KPAE 182053Z 25004KT 10SM OVC060 14/06 A3018 RMK AO2 RAB15E32 SLP219 P0000 60000 T01440056 51013=
201305181953 METAR KPAE 181953Z 25007KT 10SM OVC070 14/07 A3017 RMK AO2 SLP215 T01440067=
201305181853 METAR KPAE 181853Z 21008KT 10SM FEW027 SCT065 OVC080 14/07 A3015 RMK AO2 SLP211 T01390067=
201305181753 METAR KPAE 181753Z 19013KT 10SM BKN032 OVC043 13/06 A3014 RMK AO2 SLP207 T01280056 10133 20100 53010=
201305181653 METAR KPAE 181653Z 19010KT 10SM FEW027 SCT035 BKN045 13/06 A3013 RMK AO2 SLP202 T01330056=
201305181553 METAR KPAE 181553Z 17009KT 10SM SCT021 SCT026 OVC060 12/07 A3012 RMK AO2 SLP199 T01220067=
201305181543 SPECI KPAE 181543Z 19011KT 10SM SCT021 BKN026 OVC060 12/07 A3012 RMK AO2=
201305181453 METAR KPAE 181453Z 18009KT 160V220 10SM FEW048 12/07 A3011 RMK AO2 SLP196 T01170067 53008=
201305181353 METAR KPAE 181353Z COR 16009KT 10SM FEW048 11/07 A3010 RMK AO2 SLP193 T01110072=
201305181253 METAR KPAE 181253Z AUTO 17010KT 10SM OVC048 11/07 A3009 RMK AO2 SLP190 T01060072=
201305181153 METAR KPAE 181153Z AUTO 16009KT 10SM BKN050 10/07 A3008 RMK AO2 SLP187 70001 T01000072 10117 20100 53004=
201305181053 METAR KPAE 181053Z AUTO 19011KT 10SM OVC050 11/08 A3008 RMK AO2 SLP186 T01060078=
201305180953 METAR KPAE 180953Z AUTO 19010KT 10SM FEW035 BKN045 10/08 A3007 RMK AO2 SLP184 T01000078=
201305180936 SPECI KPAE 180936Z AUTO 17009KT 10SM SCT023 SCT038 BKN045 11/08 A3007 RMK AO2=
201305180924 SPECI KPAE 180924Z AUTO 19011KT 10SM FEW016 BKN023 OVC038 11/08 A3007 RMK AO2=
201305180853 METAR KPAE 180853Z AUTO 19009KT 10SM OVC012 11/08 A3007 RMK AO2 SLP183 T01110078 51008=
201305180800 SPECI KPAE 180800Z AUTO 19007KT 10SM BKN014 OVC019 11/08 A3007 RMK AO2=
201305180753 METAR KPAE 180753Z AUTO 19008KT 10SM OVC016 11/08 A3007 RMK AO2 SLP183 T01110078 401670111=
201305180721 SPECI KPAE 180721Z AUTO 19007KT 10SM OVC013 12/08 A3007 RMK AO2=
201305180710 SPECI KPAE 180710Z AUTO 20008KT 10SM BKN015 OVC100 11/08 A3006 RMK AO2=
201305180653 METAR KPAE 180653Z AUTO 22005KT 10SM FEW044 BKN100 11/08 A3006 RMK AO2 SLP179 T01110083=
201305180625 SPECI KPAE 180625Z AUTO 20006KT 10SM BKN031 OVC095 12/09 A3005 RMK AO2=
201305180553 METAR KPAE 180553Z AUTO 19009KT 10SM OVC029 12/09 A3005 RMK AO2 SLP174 T01170094 10167 20117 51012=
201305180516 SPECI KPAE 180516Z AUTO 20006KT 10SM OVC030 12/09 A3004 RMK AO2=
201305180453 METAR KPAE 180453Z AUTO 23006KT 10SM OVC025 12/09 A3004 RMK AO2 SLP174 T01170094=
201305180409 SPECI KPAE 180409Z AUTO 22006KT 10SM BKN029 BKN035 12/09 A3003 RMK AO2=
201305180353 METAR KPAE 180353Z AUTO 19009KT 10SM FEW027 SCT035 SCT047 14/08 A3003 RMK AO2 SLP167 T01390083=
201305180253 METAR KPAE 180253Z 17009KT 10SM SCT060 BKN075 15/07 A3001 RMK AO2 SLP163 T01500072 53004=
201305180153 METAR KPAE 180153Z VRB04KT 10SM BKN043 BKN050 15/08 A3001 RMK AO2 SLP160 T01500078=
201305180053 METAR KPAE 180053Z VRB06KT 10SM FEW040 BKN050 OVC090 15/08 A3000 RMK AO2 SLP159 T01500083=
201305172353 METAR KPAE 172353Z VRB05KT 10SM SCT043 BKN085 BKN120 15/08 A3000 RMK AO2 SLP158 60000 T01500083 10156 20133 58001=
201305172253 METAR KPAE 172253Z 15008KT 100V170 10SM FEW034 OVC075 15/07 A3000 RMK AO2 SLP159 T01500072=
201305172153 METAR KPAE 172153Z 17008KT 10SM SCT035 BKN070 OVC100 16/07 A3001 RMK AO2 SLP161 T01560072=
201305172053 METAR KPAE 172053Z 18009KT 10SM SCT035 BKN070 OVC100 16/07 A3000 RMK AO2 RAE34 SLP159 P0000 60000 T01560067 50001=
201305171953 METAR KPAE 171953Z 16011KT 10SM -RA OVC070 13/07 A3001 RMK AO2 RAB30 SLP160 P0000 T01330072=
201305171853 METAR KPAE 171853Z 18010KT 10SM OVC065 13/08 A3000 RMK AO2 SLP160 T01330078=
201305171753 METAR KPAE 171753Z 19012KT 10SM OVC060 14/08 A3000 RMK AO2 RAE1654B38E51 SLP158 P0000 60001 T01440083 10144 20111 53004=
201305171653 METAR KPAE 171653Z 19011KT 10SM -RA FEW014 OVC049 12/08 A2999 RMK AO2 RAB33 SLP156 P0001 T01220083=
201305171553 METAR KPAE 171553Z 18012KT 10SM OVC049 12/08 A2999 RMK AO2 SLP155 T01170083=
201305171453 METAR KPAE 171453Z 18008KT 10SM OVC045 12/09 A2999 RMK AO2 RAB07E39 SLP154 P0000 60000 T01170094 53008=
201305171353 METAR KPAE 171353Z 19008KT 10SM FEW003 OVC040 11/09 A2998 RMK AO2 RAB15E47 SLP151 P0000 T01110094=
201305171253 METAR KPAE 171253Z AUTO 19010KT 10SM SCT010 OVC034 11/09 A2997 RMK AO2 SLP147 T01110089=
201305171229 SPECI KPAE 171229Z AUTO 20012KT 10SM BKN010 OVC032 12/09 A2996 RMK AO2 CIG 009V013=
201305171153 METAR KPAE 171153Z AUTO 19011KT 10SM SCT032 OVC060 12/08 A2996 RMK AO2 SLP145 70002 T01170083 10133 20117 53002=
201305171053 METAR KPAE 171053Z AUTO 17007KT 10SM FEW012 BKN060 OVC080 12/08 A2996 RMK AO2 SLP145 T01170083=
201305171040 SPECI KPAE 171040Z AUTO 17009KT 10SM FEW028 BKN060 OVC085 12/08 A2996 RMK AO2=
201305170953 METAR KPAE 170953Z AUTO 17007KT 10SM BKN028 OVC065 12/09 A2996 RMK AO2 SLP143 T01220089=
201305170910 SPECI KPAE 170910Z AUTO 16007KT 10SM FEW026 OVC065 12/09 A2995 RMK AO2=
201305170853 METAR KPAE 170853Z AUTO 17007KT 10SM BKN026 OVC060 12/09 A2996 RMK AO2 SLP144 T01220089 50000=
201305170811 SPECI KPAE 170811Z AUTO 16008KT 10SM BKN026 OVC065 13/09 A2996 RMK AO2=
201305170753 METAR KPAE 170753Z AUTO 19007KT 10SM FEW026 BKN065 OVC085 13/09 A2996 RMK AO2 SLP145 T01280094 401780106=
201305170702 SPECI KPAE 170702Z AUTO 00000KT 10SM SCT029 BKN036 13/09 A2996 RMK AO2=
201305170653 METAR KPAE 170653Z AUTO 00000KT 10SM BKN029 OVC036 13/09 A2996 RMK AO2 SLP145 T01280089=
201305170637 SPECI KPAE 170637Z AUTO 20004KT 10SM BKN029 BKN060 13/09 A2996 RMK AO2=
201305170553 METAR KPAE 170553Z AUTO 00000KT 10SM BKN060 13/08 A2996 RMK AO2 SLP144 T01280083 10178 20128 53016=
201305170453 METAR KPAE 170453Z 35003KT 10SM SCT085 13/08 A2994 RMK AO2 SLP138 T01280083=
201305170353 METAR KPAE 170353Z 34003KT 10SM CLR 13/09 A2992 RMK AO2 SLP133 T01330089=
201305170253 METAR KPAE 170253Z VRB03KT 10SM CLR 16/09 A2991 RMK AO2 SLP127 T01560094 53001=
201305170153 METAR KPAE 170153Z VRB06KT 10SM CLR 17/10 A2990 RMK AO2 SLP123 T01670100=
201305170053 METAR KPAE 170053Z 01007KT 10SM CLR 17/10 A2990 RMK AO2 SLP124 T01720100=
201305162353 METAR KPAE 162353Z 01006KT 10SM CLR 18/11 A2991 RMK AO2 SLP126 T01780106 10178 20139 56015=
201305162253 METAR KPAE 162253Z 36006KT 10SM CLR 17/10 A2992 RMK AO2 SLP131 T01720100=
201305162153 METAR KPAE 162153Z 01005KT 10SM FEW030 18/09 A2993 RMK AO2 SLP136 T01780089=
201305162053 METAR KPAE 162053Z 31005KT 10SM CLR 16/11 A2995 RMK AO2 SLP142 T01610106 58013=
201305161953 METAR KPAE 161953Z 32005KT 10SM FEW017 16/09 A2996 RMK AO2 SLP146 T01610094=
201305161900 SPECI KPAE 161900Z 30006KT 10SM FEW015 16/11 A2998 RMK AO2=
201305161853 METAR KPAE 161853Z 31005KT 10SM BKN013 BKN021 15/11 A2998 RMK AO2 SLP152 T01500111=
201305161810 SPECI KPAE 161810Z 00000KT 10SM BKN013 OVC060 16/11 A2999 RMK AO2=
201305161753 METAR KPAE 161753Z 00000KT 10SM SCT009 BKN021 OVC060 14/11 A2999 RMK AO2 SLP155 60002 T01390111 10139 20111 58002=
201305161731 SPECI KPAE 161731Z 00000KT 10SM SCT009 BKN016 OVC022 12/11 A2999 RMK AO2=
201305161653 METAR KPAE 161653Z 00000KT 10SM SCT003 BKN007 OVC014 12/11 A3000 RMK AO2 SLP158 T01220106=
201305161553 METAR KPAE 161553Z 16005KT 10SM FEW003 BKN007 OVC014 12/10 A2999 RMK AO2 SLP158 T01220100=
201305161453 METAR KPAE 161453Z 00000KT 10SM FEW004 SCT007 OVC014 12/11 A3000 RMK AO2 RAE31 SLP158 P0001 60002 T01170106 53002=
201305161353 METAR KPAE 161353Z AUTO 11005KT 6SM -RA BR OVC012 11/10 A2999 RMK AO2 RAB45 SLP157 P0001 T01110100=
201305161327 SPECI KPAE 161327Z AUTO VRB03KT 10SM SCT006 OVC012 11/10 A2999 RMK AO2=
201305161253 METAR KPAE 161253Z AUTO 00000KT 10SM OVC006 11/09 A2999 RMK AO2 RAE1159 SLP157 P0000 T01110094=
201305161153 METAR KPAE 161153Z AUTO 00000KT 10SM -RA OVC009 11/09 A2999 RMK AO2 RAB44 CIG 006V012 SLP157 P0000 60000 70008 T01110094 10111 20106 56008=
201305161053 METAR KPAE 161053Z AUTO VRB04KT 10SM OVC010 11/09 A2999 RMK AO2 CIG 008V013 SLP157 T01110094=
201305161038 SPECI KPAE 161038Z AUTO VRB03KT 9SM OVC010 11/09 A3000 RMK AO2 CIG 006V013=
201305161016 SPECI KPAE 161016Z AUTO VRB03KT 10SM OVC008 11/09 A3000 RMK AO2=
201305160953 METAR KPAE 160953Z AUTO VRB03KT 8SM OVC010 11/09 A3000 RMK AO2 SLP160 T01110094=
201305160853 METAR KPAE 160853Z AUTO 15007KT 10SM OVC014 11/09 A3002 RMK AO2 SLP164 T01060094 58007=
201305160823 SPECI KPAE 160823Z AUTO VRB04KT 10SM BKN014 OVC024 11/09 A3002 RMK AO2=
201305160753 METAR KPAE 160753Z AUTO VRB03KT 9SM FEW004 OVC018 11/10 A3002 RMK AO2 SLP167 T01110100 401780078=
201305160711 SPECI KPAE 160711Z AUTO 15007KT 10SM OVC008 11/09 A3003 RMK AO2 CIG 005V011=
201305160653 METAR KPAE 160653Z AUTO 15006KT 10SM OVC012 11/09 A3003 RMK AO2 SLP169 T01110094=
201305160644 SPECI KPAE 160644Z AUTO VRB04KT 10SM BKN014 OVC040 11/09 A3003 RMK AO2=
201305160621 SPECI KPAE 160621Z AUTO 15004KT 10SM SCT016 OVC040 11/09 A3003 RMK AO2=
201305160553 METAR KPAE 160553Z AUTO VRB03KT 10SM BKN016 OVC046 11/09 A3004 RMK AO2 SLP171 60008 T01110094 10133 20106 56001=
201305160524 SPECI KPAE 160524Z AUTO 15005KT 10SM BKN018 OVC050 11/09 A3004 RMK AO2=
201305160453 METAR KPAE 160453Z AUTO VRB03KT 8SM SCT004 OVC050 11/09 A3004 RMK AO2 RAE11 SLP172 P0000 T01110094=
201305160405 SPECI KPAE 160405Z AUTO 12005KT 7SM -RA FEW004 OVC055 11/09 A3003 RMK AO2 P0000=
201305160353 METAR KPAE 160353Z VRB03KT 7SM -RA OVC060 11/10 A3003 RMK AO2 SLP171 P0002 T01110100=
201305160253 METAR KPAE 160253Z 15006KT 9SM -RA OVC055 12/09 A3004 RMK AO2 SLP173 P0002 60006 T01170089 58003=
201305160153 METAR KPAE 160153Z 20007KT 10SM -RA BKN050 OVC060 12/09 A3004 RMK AO2 SLP173 P0003 T01170089=
201305160053 METAR KPAE 160053Z 20008KT 7SM -RA OVC055 12/08 A3004 RMK AO2 SLP176 P0001 T01170083=
201305152353 METAR KPAE 152353Z 21012KT 10SM -RA OVC065 13/08 A3005 RMK AO2 RAB16 SLP175 P0000 60000 T01330083 10178 20133 55000=
201305152253 METAR KPAE 152253Z 22013KT 10SM OVC080 16/06 A3004 RMK AO2 SLP172 T01610061=
201305152153 METAR KPAE 152153Z 25007KT 9SM OVC075 17/06 A3004 RMK AO2 SLP172 T01720061=
201305152053 METAR KPAE 152053Z 23006KT 10SM OVC070 17/04 A3005 RMK AO2 SLP174 T01670039 56009=
201305151953 METAR KPAE 151953Z 28007KT 10SM OVC070 16/06 A3005 RMK AO2 SLP176 T01610056=
201305151853 METAR KPAE 151853Z 25005KT 10SM BKN090 16/07 A3007 RMK AO2 SLP181 T01610072=
201305151753 METAR KPAE 151753Z 30005KT 10SM OVC100 14/07 A3008 RMK AO2 SLP185 T01390072 10150 20083 58007=
201305151653 METAR KPAE 151653Z 29003KT 9SM BKN110 13/07 A3008 RMK AO2 SLP188 T01280067=
201305151553 METAR KPAE 151553Z 00000KT 10SM OVC120 12/06 A3009 RMK AO2 SLP191 T01220056=
201305151453 METAR KPAE 151453Z 16005KT 10SM OVC110 11/05 A3010 RMK AO2 SLP192 T01060050 50001=
201305151353 METAR KPAE 151353Z 00000KT 10SM BKN100 09/04 A3010 RMK AO2 SLP193 T00940044=
201305151253 METAR KPAE 151253Z VRB03KT 10SM BKN110 08/04 A3010 RMK AO2 SLP192 T00830044=
201305151153 METAR KPAE 151153Z 16004KT 10SM BKN110 09/04 A3009 RMK AO2 SLP191 T00940044 10100 20078 58008=
201305151053 METAR KPAE 151053Z AUTO 12003KT 10SM CLR 09/05 A3010 RMK AO2 SLP193 T00890050=
201305150953 METAR KPAE 150953Z AUTO 00000KT 10SM FEW080 08/05 A3011 RMK AO2 SLP198 T00830050=
201305150853 METAR KPAE 150853Z AUTO 00000KT 10SM BKN085 OVC100 09/05 A3012 RMK AO2 SLP199 T00940050 58008=
201305150753 METAR KPAE 150753Z AUTO 00000KT 10SM CLR 09/07 A3013 RMK AO2 SLP204 T00890067 401720083=
201305150653 METAR KPAE 150653Z AUTO 01004KT 10SM CLR 09/06 A3013 RMK AO2 SLP205 T00940061=
201305150553 METAR KPAE 150553Z AUTO 01003KT 10SM CLR 10/05 A3014 RMK AO2 SLP208 T01000050 10167 20100 55000=
201305150453 METAR KPAE 150453Z AUTO 01004KT 10SM FEW120 12/07 A3014 RMK AO2 SLP208 T01170067=
201305150353 METAR KPAE 150353Z 00000KT 10SM FEW075 SCT120 13/04 A3013 RMK AO2 SLP205 T01280044=
201305150253 METAR KPAE 150253Z 00000KT 10SM OVC075 13/04 A3014 RMK AO2 SLP208 T01330044 56004=
201305150153 METAR KPAE 150153Z 29003KT 10SM BKN075 14/03 A3014 RMK AO2 SLP208 T01390033=
201305150053 METAR KPAE 150053Z 26005KT 10SM SCT070 15/03 A3015 RMK AO2 SLP212 T01500028=
201305142353 METAR KPAE 142353Z 30005KT 10SM CLR 16/02 A3016 RMK AO2 SLP212 T01560022 10172 20117 58012=
201305142253 METAR KPAE 142253Z 25006KT 10SM FEW040 17/02 A3017 RMK AO2 SLP216 T01670022=
201305142153 METAR KPAE 142153Z VRB06KT 10SM SCT038 16/05 A3018 RMK AO2 SLP221 T01560050=
201305142053 METAR KPAE 142053Z 00000KT 10SM BKN038 16/05 A3019 RMK AO2 SLP224 T01560050 58011=
201305141953 METAR KPAE 141953Z VRB06KT 10SM FEW033 BKN041 15/05 A3020 RMK AO2 SLP228 T01500050=
201305141853 METAR KPAE 141853Z 00000KT 8SM SCT029 OVC041 12/06 A3022 RMK AO2 SLP234 T01220056=
201305141753 METAR KPAE 141753Z 23006KT 10SM FEW025 OVC041 12/07 A3022 RMK AO2 SLP235 T01220067 10133 20089 55000=
201305141653 METAR KPAE 141653Z 17009KT 10SM FEW110 12/04 A3022 RMK AO2 SLP233 T01220044=
201305141642 SPECI KPAE 141642Z 17007KT 10SM BKN026 12/05 A3021 RMK AO2=
201305141553 METAR KPAE 141553Z 19010KT 10SM SCT018 BKN035 11/05 A3022 RMK AO2 SLP235 T01110050=
201305141454 SPECI KPAE 141454Z 17008KT 10SM SCT018 BKN035 10/06 A3023 RMK AO2=
201305141453 METAR KPAE 141453Z 17007KT 10SM SCT018 BKN023 10/06 A3022 RMK AO2 SLP236 T01000056 50002=
201305141424 SPECI KPAE 141424Z 17007KT 10SM SCT018 BKN023 09/05 A3023 RMK AO2=
201305141417 SPECI KPAE 141417Z 16007KT 10SM SCT018 SCT023 09/05 A3023 RMK AO2=
201305141407 SPECI KPAE 141407Z 15008KT 10SM FEW014 BKN021 09/05 A3023 RMK AO2=
201305141353 METAR KPAE 141353Z 16007KT 10SM FEW014 SCT023 BKN031 09/05 A3023 RMK AO2 SLP237 T00890050=
201305141253 METAR KPAE 141253Z AUTO 16007KT 10SM BKN014 BKN022 OVC029 09/06 A3022 RMK AO2 SLP236 T00890056=
201305141153 METAR KPAE 141153Z AUTO 16005KT 10SM FEW016 BKN022 OVC032 09/06 A3022 RMK AO2 SLP233 70005 T00890056 10094 20083 53004=
201305141136 SPECI KPAE 141136Z AUTO 16006KT 10SM SCT016 BKN022 OVC030 09/06 A3022 RMK AO2=
201305141109 SPECI KPAE 141109Z AUTO 16007KT 10SM OVC030 09/05 A3021 RMK AO2=
201305141053 METAR KPAE 141053Z AUTO 16007KT 10SM OVC029 09/05 A3021 RMK AO2 SLP231 T00890050=
201305140953 METAR KPAE 140953Z AUTO 16008KT 10SM BKN022 BKN028 08/06 A3021 RMK AO2 SLP230 T00830056=
201305140948 SPECI KPAE 140948Z AUTO 15007KT 10SM BKN022 08/05 A3020 RMK AO2=
201305140853 METAR KPAE 140853Z AUTO 15007KT 10SM CLR 08/06 A3019 RMK AO2 SLP225 T00830056 51003=
201305140753 METAR KPAE 140753Z AUTO 16006KT 10SM CLR 08/05 A3019 RMK AO2 SLP222 T00830050 401720083=
201305140653 METAR KPAE 140653Z AUTO 18007KT 10SM CLR 08/05 A3019 RMK AO2 SLP223 T00830050=
201305140553 METAR KPAE 140553Z AUTO 19010KT 10SM CLR 09/04 A3018 RMK AO2 SLP220 60000 T00940044 10144 20094 51020=
201305140453 METAR KPAE 140453Z AUTO 19009KT 10SM CLR 10/04 A3018 RMK AO2 SLP221 T01000044=
201305140353 METAR KPAE 140353Z 20013G18KT 10SM BKN048 BKN055 11/03 A3016 RMK AO2 SLP213 T01110033=
201305140253 METAR KPAE 140253Z 21011KT 10SM FEW060 BKN075 12/04 A3012 RMK AO2 LTG DSNT NE SLP200 60000 T01220039 53026=
201305140153 METAR KPAE 140153Z 20015G21KT 10SM FEW043 14/05 A3008 RMK AO2 SLP185 T01390050=
201305140053 METAR KPAE 140053Z VRB04KT 10SM FEW028 BKN100 12/08 A3004 RMK AO2 PK WND 21029/0004 RAB26E36 SLP174 P0000 T01220083=
201305140050 SPECI KPAE 140050Z 00000KT 10SM FEW028 SCT060 BKN100 12/08 A3004 RMK AO2 PK WND 21029/0004 RAB26E36 P0000=
201305140002 SPECI KPAE 140002Z 21017G28KT 10SM BKN020 BKN045 14/07 A3000 RMK AO2 PK WND 21028/0000=
201305132353 METAR KPAE 132353Z 22016G29KT 10SM FEW090 BKN110 14/06 A2999 RMK AO2 PK WND 19035/2325 LTG DSNT N SLP156 60005 T01440061 10172 20128 53005=
201305132253 METAR KPAE 132253Z 20024G34KT 10SM CLR 17/08 A2997 RMK AO2 PK WND 22034/2251 LTG DSNT W AND NW RAE04 SLP146 P0000 T01720083=
201305132153 METAR KPAE 132153Z 20016G25KT 8SM -RA FEW015 SCT026 BKN060 15/11 A2996 RMK AO2 RAE14B52 SLP146 P0001 T01500106=
201305132053 METAR KPAE 132053Z 21011G23KT 10SM -RA FEW019 BKN042 OVC060 13/11 A2998 RMK AO2 LTG DSNT E-S RAB06 SLP151 P0004 60004 T01330106 55001=
201305131953 METAR KPAE 131953Z 20015G24KT 10SM SCT030 SCT039 BKN060 17/09 A2995 RMK AO2 SLP141 T01720094=
201305131853 METAR KPAE 131853Z 20016G24KT 10SM FEW020 SCT024 BKN032 17/10 A2995 RMK AO2 RAB1757E07 SLP142 P0000 T01720100=
201305131753 METAR KPAE 131753Z 19012G16KT 10SM BKN018 OVC027 16/11 A2998 RMK AO2 SLP151 60000 T01560106 10156 20128 58011=
201305131653 METAR KPAE 131653Z 20013KT 10SM BKN022 BKN034 OVC075 14/11 A3000 RMK AO2 RAB28E40 SLP159 P0000 T01440106=
201305131553 METAR KPAE 131553Z 21012KT 10SM BKN022 BKN027 OVC033 14/09 A3001 RMK AO2 SLP163 T01440094=
201305131534 SPECI KPAE 131534Z 17007KT 10SM BKN022 BKN035 OVC065 14/10 A3002 RMK AO2=
201305131453 METAR KPAE 131453Z 17005KT 10SM SCT060 14/10 A3001 RMK AO2 SLP162 T01390100 55004=
201305131353 METAR KPAE 131353Z 16007KT 10SM OVC055 13/10 A3001 RMK AO2 SLP161 T01330100=
201305131253 METAR KPAE 131253Z 20007KT 10SM FEW011 BKN048 OVC120 13/11 A3002=
201305131205 SPECI KPAE 131205Z AUTO 18008KT 10SM SCT009 SCT021 13/11 A3003 RMK AO2=
201305131153 METAR KPAE 131153Z AUTO 16006KT 10SM BKN009 13/11 A3003 RMK AO2 CIG 007V014 SLP166 70001 T01280111 10150 20128 56005=
201305131133 SPECI KPAE 131133Z AUTO 16008KT 10SM FEW009 13/11 A3001 RMK AO2=
201305131053 METAR KPAE 131053Z AUTO 17010KT 10SM CLR 13/11 A3003 RMK AO2 SLP167 T01330106=
201305130953 METAR KPAE 130953Z AUTO 18011KT 10SM CLR 13/11 A3004 RMK AO2 SLP170 T01330106=
201305130853 METAR KPAE 130853Z AUTO 19009KT 10SM SCT090 13/11 A3004 RMK AO2 SLP171 T01330106 50002=
201305130753 METAR KPAE 130753Z AUTO 21004KT 10SM FEW015 BKN060 BKN085 14/11 A3005 RMK AO2 SLP175 T01390106 402060139=
201305130653 METAR KPAE 130653Z AUTO 19005KT 10SM FEW018 BKN060 14/11 A3004 RMK AO2 SLP172 T01440106=
201305130553 METAR KPAE 130553Z AUTO 20005KT 10SM FEW080 15/11 A3004 RMK AO2 RAB08E17 SLP170 P0000 60000 T01500111 10200 20150 51003=
201305130453 METAR KPAE 130453Z AUTO 20013KT 10SM FEW070 OVC095 16/11 A3004 RMK AO2 RAE01 SLP169 P0000 T01560111=
201305130353 METAR KPAE 130353Z AUTO 22011G19KT 10SM -RA OVC060 16/12 A3003 RMK AO2 RAB46 SLP168 P0000 T01560117=
201305130253 METAR KPAE 130253Z 21010KT 10SM BKN055 OVC065 17/11 A3003 RMK AO2 SLP166 T01720111 56010=
201305130153 METAR KPAE 130153Z 21008KT 10SM BKN080 OVC095 18/12 A3003 RMK AO2 SLP167 T01780117=
201305130053 METAR KPAE 130053Z 20011KT 10SM OVC100 19/11 A3004 RMK AO2 SLP171 T01940111=
201305122353 METAR KPAE 122353Z 20015KT 10SM OVC090 20/11 A3006 RMK AO2 SLP175 60000 T02000111 10206 20161 58010=
201305122253 METAR KPAE 122253Z 20014G26KT 10SM BKN080 OVC095 20/11 A3007 RMK AO2 PK WND 20026/2248 RAE01 SLP182 P0000 T02000106=
201305122153 METAR KPAE 122153Z 19017G22KT 10SM -RA OVC080 19/11 A3009 RMK AO2 RAB44 SLP186 P0000 T01890111=
201305122053 METAR KPAE 122053Z 18018G24KT 10SM OVC080 19/11 A3009 RMK AO2 SLP186 60000 T01890111 58000=
201305121953 METAR KPAE 121953Z 18016G25KT 10SM OVC070 18/12 A3009 RMK AO2 RAB42E51 SLP187 P0000 T01780117=
201305121853 METAR KPAE 121853Z 18014G19KT 10SM OVC075 17/12 A3009 RMK AO2 SLP188 T01670117=
201305121753 METAR KPAE 121753Z 18014KT 10SM SCT080 OVC090 16/12 A3009 RMK AO2 SLP187 60001 T01610117 10161 20139 51005=
201305121653 METAR KPAE 121653Z 17015KT 10SM OVC085 16/12 A3008 RMK AO2 SLP185 T01560122=
201305121553 METAR KPAE 121553Z 17011KT 10SM OVC100 15/13 A3009 RMK AO2 RAB44E53 SLP187 P0000 T01500128=
201305121453 METAR KPAE 121453Z 16010KT 10SM FEW007 OVC100 14/13 A3007 RMK AO2 RAE21B40E51 SLP182 P0000 60001 T01440128 53005=
201305121353 METAR KPAE 121353Z 16011KT 10SM -RA FEW007 SCT010 OVC090 14/13 A3006 RMK AO2 RAE13B51 SLP177 P0000 T01440128=
201305121320 SPECI KPAE 121320Z AUTO 18011KT 10SM FEW007 SCT014 OVC090 14/13 A3006 RMK AO2 RAE13 P0000=
201305121253 METAR KPAE 121253Z AUTO 18009KT 10SM -RA BKN005 OVC009 15/13 A3006 RMK AO2 RAE02B42 SLP176 P0001 T01500133=
201305121153 METAR KPAE 121153Z AUTO 20009KT 9SM -RA BKN007 BKN018 OVC030 15/14 A3006 RMK AO2 SLP175 P0017 60021 70021 T01500139 10167 20144 51006=
201305121149 SPECI KPAE 121149Z AUTO 19012KT 10SM -RA BKN007 BKN018 OVC030 15/14 A3005 RMK AO2 P0017=
201305121141 SPECI KPAE 121141Z AUTO 19011G17KT 3SM -RA BR FEW005 BKN031 OVC040 15/14 A3005 RMK AO2 P0017=
201305121120 SPECI KPAE 121120Z AUTO 16012KT 2SM RA BR FEW023 OVC031 15/14 A3005 RMK AO2 P0013=
201305121110 SPECI KPAE 121110Z AUTO 17009KT 1 3/4SM RA BR FEW025 BKN032 OVC042 16/14 A3005 RMK AO2 P0009=
201305121053 METAR KPAE 121053Z AUTO 19005KT 2 1/2SM RA BR BKN041 OVC048 14/13 A3006 RMK AO2 RAB31 SLP174 P0004 T01440133 TSNO=
201305120953 METAR KPAE 120953Z AUTO 18009KT 10SM OVC065 16/12 A3004 RMK AO2 SLP168 T01610117=
201305120853 METAR KPAE 120853Z AUTO 21006KT 10SM FEW110 16/11 A3005 RMK AO2 SLP171 T01610111 56000=
201305120753 METAR KPAE 120753Z AUTO 19005KT 10SM SCT080 15/11 A3005 RMK AO2 SLP174 T01500111 402670117=
201305120653 METAR KPAE 120653Z AUTO 17004KT 10SM CLR 15/11 A3004 RMK AO2 SLP171 T01500111=
201305120553 METAR KPAE 120553Z AUTO 02004KT 10SM CLR 14/11 A3005 RMK AO2 SLP174 T01440111 10267 20144 50009=
201305120453 METAR KPAE 120453Z AUTO 36005KT 10SM CLR 14/08 A3006 RMK AO2 SLP179 T01440083=
201305120353 METAR KPAE 120353Z AUTO 00000KT 10SM CLR 17/09 A3003 RMK AO2 SLP168 T01670089=
201305120253 METAR KPAE 120253Z 00000KT 10SM CLR 16/09 A3002 RMK AO2 SLP165 T01610089 56009=
201305120153 METAR KPAE 120153Z 00000KT 10SM CLR 17/09 A3003 RMK AO2 SLP166 T01720094=
201305120053 METAR KPAE 120053Z 01006KT 10SM CLR 19/09 A3004 RMK AO2 SLP170 T01890094=
201305112353 METAR KPAE 112353Z 19009KT 10SM CLR 27/09 A3005 RMK AO2 SLP171 T02670094 10267 20172 56017=
201305112253 METAR KPAE 112253Z 18010KT 10SM CLR 26/10 A3006 RMK AO2 SLP177 T02610100=
201305112153 METAR KPAE 112153Z 19011KT 10SM CLR 26/09 A3008 RMK AO2 SLP185 T02560094=
201305112053 METAR KPAE 112053Z VRB06KT 10SM CLR 24/08 A3010 RMK AO2 SLP189 T02440078 56015=
201305111953 METAR KPAE 111953Z 00000KT 10SM CLR 20/09 A3011 RMK AO2 SLP195 T02000089=
201305111853 METAR KPAE 111853Z 16005KT 10SM CLR 21/08 A3012 RMK AO2 SLP199 T02110083=
201305111753 METAR KPAE 111753Z 25003KT 10SM CLR 17/09 A3014 RMK AO2 SLP206 T01720094 10183 20122 58008=
201305111653 METAR KPAE 111653Z 23003KT 10SM CLR 17/09 A3015 RMK AO2 SLP208 T01670094=
201305111553 METAR KPAE 111553Z 16006KT 10SM CLR 16/07 A3016 RMK AO2 SLP214 T01560067=
201305111453 METAR KPAE 111453Z 00000KT 10SM SCT110 13/09 A3017 RMK AO2 SLP215 T01280094 55000=
201305111353 METAR KPAE 111353Z 20003KT 10SM CLR 14/08 A3016 RMK AO2 SLP212 T01390078=
201305111253 METAR KPAE 111253Z AUTO 19007KT 10SM FEW110 13/08 A3016 RMK AO2 SLP210 T01330078=
201305111153 METAR KPAE 111153Z AUTO 18005KT 10SM CLR 13/08 A3017 RMK AO2 SLP215 T01280083 10161 20117 58005=
201305111053 METAR KPAE 111053Z AUTO 00000KT 10SM CLR 13/09 A3018 RMK AO2 SLP219 T01280089=
201305110953 METAR KPAE 110953Z AUTO 00000KT 10SM CLR 12/08 A3019 RMK AO2 SLP223 T01220083=
201305110853 METAR KPAE 110853Z AUTO 00000KT 10SM CLR 15/06 A3019 RMK AO2 SLP220 T01500061 51005=
201305110753 METAR KPAE 110753Z AUTO 00000KT 10SM CLR 15/07 A3019 RMK AO2 SLP221 T01500072 402220094=
201305110653 METAR KPAE 110653Z AUTO 01003KT 10SM CLR 15/07 A3017 RMK AO2 SLP217 T01500072=
201305110553 METAR KPAE 110553Z AUTO 34003KT 10SM CLR 14/08 A3017 RMK AO2 SLP215 T01390083 10217 20139 51009=
201305110453 METAR KPAE 110453Z AUTO 36004KT 10SM CLR 15/08 A3017 RMK AO2 SLP215 T01500083=
201305110353 METAR KPAE 110353Z AUTO 00000KT 10SM CLR 17/08 A3015 RMK AO2 SLP209 T01670083=
201305110253 METAR KPAE 110253Z 36003KT 10SM CLR 18/09 A3014 RMK AO2 SLP206 T01780089 58003=
201305110153 METAR KPAE 110153Z 03003KT 10SM CLR 18/11 A3014 RMK AO2 SLP208 T01830106=
201305110053 METAR KPAE 110053Z 01003KT 10SM CLR 22/08 A3015 RMK AO2 SLP210 T02170078=
201305102353 METAR KPAE 102353Z 35003KT 10SM CLR 21/10 A3015 RMK AO2 SLP210 T02110100 10222 20156 58012=
201305102253 METAR KPAE 102253Z 00000KT 10SM CLR 22/11 A3017 RMK AO2 SLP215 T02170111=
201305102153 METAR KPAE 102153Z 29006KT 10SM CLR 21/12 A3018 RMK AO2 SLP219 T02110117=
201305102053 METAR KPAE 102053Z 27005KT 10SM CLR 22/10 A3019 RMK AO2 SLP222 T02170100 58007=
201305101953 METAR KPAE 101953Z VRB05KT 10SM CLR 19/12 A3020 RMK AO2 SLP224 T01940117=
201305101853 METAR KPAE 101853Z 27005KT 10SM CLR 18/11 A3021 RMK AO2 SLP231 T01780111=
201305101753 METAR KPAE 101753Z 29004KT 10SM CLR 16/11 A3021 RMK AO2 SLP230 T01610106 10167 20094 51001=
201305101653 METAR KPAE 101653Z 00000KT 10SM CLR 16/11 A3021 RMK AO2 SLP230 T01560106=
201305101553 METAR KPAE 101553Z 00000KT 8SM CLR 13/10 A3021 RMK AO2 SLP231 T01280100=
201305101453 METAR KPAE 101453Z 00000KT 10SM FEW001 12/09 A3021 RMK AO2 SLP229 FG SW-NW T01170094 53004=
201305101353 METAR KPAE 101353Z 01003KT 10SM FEW001 10/08 A3020 RMK AO2 SLP228 T01000083=
201305101253 METAR KPAE 101253Z 00000KT 4SM BR CLR 09/08 A3018 RMK AO2 SLP221 T00940083=
201305101153 METAR KPAE 101153Z 02004KT 7SM CLR 09/08 A3019 RMK AO2 SLP225 T00940078 10111 20094 50001=
201305101053 METAR KPAE 101053Z 03004KT 9SM CLR 09/08 A3020 RMK AO2 SLP227 T00940078=
201305100953 METAR KPAE 100953Z 00000KT 10SM CLR 10/08 A3019 RMK AO2 SLP224 T01000078=
201305100853 METAR KPAE 100853Z 02005KT 9SM CLR 10/08 A3019 RMK AO2 SLP223 T01000083 51006=
201305100753 METAR KPAE 100753Z 02003KT 9SM CLR 10/08 A3019 RMK AO2 SLP223 T01000083 401890089=
201305100653 METAR KPAE 100653Z 02007KT 10SM CLR 11/09 A3018 RMK AO2 SLP221 T01060089=
201305100553 METAR KPAE 100553Z 00000KT 10SM CLR 11/09 A3017 RMK AO2 SLP218 T01110089 10183 20111 51008=
201305100453 METAR KPAE 100453Z 01004KT 10SM CLR 11/08 A3017 RMK AO2 SLP217 T01110083=
201305100353 METAR KPAE 100353Z 01003KT 10SM CLR 12/09 A3016 RMK AO2 SLP213 T01220089=
201305100253 METAR KPAE 100253Z 35004KT 10SM CLR 14/09 A3015 RMK AO2 SLP210 T01440094 55005=
201305100153 METAR KPAE 100153Z 01003KT 10SM CLR 17/11 A3015 RMK AO2 SLP208 T01720106=
201305100053 METAR KPAE 100053Z 36003KT 10SM CLR 18/11 A3016 RMK AO2 SLP213 T01830106=
201305092353 METAR KPAE 092353Z 28004KT 10SM CLR 18/11 A3016 RMK AO2 SLP214 T01830111 10189 20100 56015=
201305092253 METAR KPAE 092253Z 26005KT 10SM CLR 19/12 A3018 RMK AO2 SLP219 T01890117=
201305092153 METAR KPAE 092153Z VRB03KT 9SM CLR 17/11 A3019 RMK AO2 SLP224 T01720111=
201305092053 METAR KPAE 092053Z 25003KT 7SM SCT004 15/11 A3021 RMK AO2 SLP230 FG BANK OVER WATER W-N T01500106 58005=
201305092024 SPECI KPAE 092024Z 26004KT 6SM HZ SCT004 13/11 A3022 RMK AO2 FG BANK OVER WATER W-N=
201305091953 METAR KPAE 091953Z VRB05KT 5SM HZ OVC004 13/10 A3022 RMK AO2 SLP233 T01280100=
201305091853 METAR KPAE 091853Z 33003KT 5SM BR OVC004 12/10 A3022 RMK AO2 SLP235 T01170100=
201305091809 SPECI KPAE 091809Z 25003KT 3SM BR OVC002 11/09 A3022 RMK AO2=
201305091800 SPECI KPAE 091800Z 32004KT 1 1/2SM R16R/5000VP6000FT BR OVC002 11/10 A3022 RMK AO2=
201305091753 METAR KPAE 091753Z 32003KT 3/4SM R16R/3500VP6000FT BR OVC002 10/09 A3022 RMK AO2 SLP235 T01000094 10106 20089 55003=
201305091716 SPECI KPAE 091716Z 00000KT 1/2SM R16R/1600V2400FT FG VV002 11/09 A3022 RMK AO2=
201305091707 SPECI KPAE 091707Z 03003KT 1/2SM R16R/1400V2200FT FG VV002 10/09 A3022 RMK AO2=
201305091653 METAR KPAE 091653Z 35003KT 1/4SM R16R/1400V1800FT FG VV002 10/09 A3022 RMK AO2 SLP235 T01000094=
201305091600 SPECI KPAE 091600Z 01003KT 1/4SM R16R/1400V2000FT FG VV002 09/09 A3023 RMK AO2=
201305091553 METAR KPAE 091553Z 00000KT 1/4SM R16R/1400V2200FT FG OVC001 10/09 A3023 RMK AO2 SLP237 T01000094=
201305091510 SPECI KPAE 091510Z 02003KT M1/4SM R16R/1200V1400FT FG VV001 09/09 A3023 RMK AO2=
201305091503 SPECI KPAE 091503Z 00000KT M1/4SM R16R/1000V1400FT FG VV002 09/09 A3023 RMK AO2=
201305091453 METAR KPAE 091453Z 00000KT M1/4SM R16R/1000V1200FT FG VV001 09/09 A3023 RMK AO2 SLP237 T00940089 51012=
201305091353 METAR KPAE 091353Z 00000KT M1/4SM R16R/0700V0800FT FG VV001 09/08 A3022 RMK AO2 SLP235 T00890083=
201305091253 METAR KPAE 091253Z AUTO 01003KT 1/4SM R16R/1000V1200FT FG VV001 09/08 A3021 RMK AO2 SLP229 T00890083=
201305091234 SPECI KPAE 091234Z AUTO 02004KT 1/4SM R16R/1000V1200FT FG VV001 09/08 A3020 RMK AO2=
201305091227 SPECI KPAE 091227Z AUTO 36005KT 1/2SM R16R/1000V1400FT FG VV001 09/08 A3020 RMK AO2=
201305091208 SPECI KPAE 091208Z AUTO 36004KT 1/4SM R16R/1200V1400FT FG VV001 09/08 A3020 RMK AO2=
201305091159 SPECI KPAE 091159Z AUTO 00000KT 1 1/4SM R16R/1200V2200FT BR OVC001 09/08 A3020 RMK AO2=
201305091153 METAR KPAE 091153Z AUTO 01004KT 2SM R16R/1400V2600FT BR OVC001 09/08 A3020 RMK AO2 SLP225 T00940083 10117 20094 51007=
201305091145 SPECI KPAE 091145Z AUTO 02005KT 2SM R16R/1600V3000FT BR OVC001 09/08 A3019 RMK AO2=
201305091107 SPECI KPAE 091107Z AUTO 02003KT 3SM BR BKN001 09/08 A3019 RMK AO2=
201305091053 METAR KPAE 091053Z AUTO 02005KT 4SM BR FEW001 09/08 A3019 RMK AO2 SLP225 T00940083=
201305090953 METAR KPAE 090953Z AUTO 03004KT 5SM BR CLR 10/09 A3018 RMK AO2 SLP221 T01000089=
201305090853 METAR KPAE 090853Z AUTO 02004KT 7SM CLR 11/09 A3017 RMK AO2 SLP218 T01060089 51008=
201305090753 METAR KPAE 090753Z AUTO 00000KT 9SM CLR 11/09 A3017 RMK AO2 SLP215 T01110094 401830100=
201305090653 METAR KPAE 090653Z AUTO 03004KT 9SM CLR 11/09 A3016 RMK AO2 SLP214 T01110094=
201305090553 METAR KPAE 090553Z AUTO 02003KT 10SM CLR 12/09 A3015 RMK AO2 SLP211 T01170094 10183 20117 53012=
201305090453 METAR KPAE 090453Z AUTO 02003KT 10SM CLR 13/10 A3014 RMK AO2 SLP206 T01280100=
201305090353 METAR KPAE 090353Z AUTO 36003KT 10SM CLR 13/10 A3013 RMK AO2 SLP202 T01330100 TSNO=
201305090253 METAR KPAE 090253Z 35003KT 10SM CLR 16/10 A3012 RMK AO2 SLP198 T01560100 56005=
201305090153 METAR KPAE 090153Z 34004KT 10SM CLR 17/10 A3012 RMK AO2 SLP198 T01670100=
201305090053 METAR KPAE 090053Z 00000KT 10SM CLR 17/10 A3013 RMK AO2 SLP202 T01720100=
201305082353 METAR KPAE 082353Z 00000KT 10SM CLR 17/10 A3013 RMK AO2 SLP203 T01670100 10167 20122 58006=
201305082253 METAR KPAE 082253Z 24006KT 10SM CLR 16/10 A3014 RMK AO2 SLP207 T01610100=
201305082153 METAR KPAE 082153Z 24007KT 10SM SCT015 16/10 A3015 RMK AO2 SLP211 T01610100=
201305082053 METAR KPAE 082053Z 24007KT 10SM OVC015 14/09 A3015 RMK AO2 SLP210 T01440094 51001=
201305082016 SPECI KPAE 082016Z 24007KT 10SM OVC015 14/09 A3015 RMK AO2=
201305081953 METAR KPAE 081953Z 24008KT 10SM OVC014 14/09 A3015 RMK AO2 SLP210 T01390094=
201305081853 METAR KPAE 081853Z 24008KT 10SM OVC012 13/09 A3015 RMK AO2 SLP210 T01280089=
201305081753 METAR KPAE 081753Z 24008KT 10SM SCT007 OVC010 12/09 A3015 RMK AO2 SLP210 T01220089 10128 20100 53010=
201305081725 SPECI KPAE 081725Z 25005KT 10SM SCT007 OVC010 12/09 A3014 RMK AO2=
201305081653 METAR KPAE 081653Z 18003KT 8SM OVC008 12/09 A3014 RMK AO2 SLP205 T01220089=
201305081553 METAR KPAE 081553Z 21005KT 6SM BR OVC008 11/09 A3013 RMK AO2 SLP203 T01110089=
201305081453 METAR KPAE 081453Z 20005KT 7SM OVC008 11/09 A3012 RMK AO2 SLP198 T01110089 52011=
201305081353 METAR KPAE 081353Z 20005KT 8SM OVC006 11/09 A3011 RMK AO2 SLP195 T01060089=
201305081253 METAR KPAE 081253Z AUTO 20006KT 8SM OVC006 10/09 A3009 RMK AO2 SLP190 T01000089=
201305081153 METAR KPAE 081153Z AUTO 21008KT 10SM OVC006 11/09 A3008 RMK AO2 SLP186 T01060089 10133 20106 52013=
201305081053 METAR KPAE 081053Z AUTO 21003KT 9SM OVC006 11/09 A3007 RMK AO2 SLP183 T01060089=
201305081030 SPECI KPAE 081030Z AUTO 19004KT 10SM BKN006 11/09 A3007 RMK AO2=
201305081020 SPECI KPAE 081020Z AUTO 20003KT 10SM SCT006 11/09 A3006 RMK AO2=
201305080953 METAR KPAE 080953Z AUTO 18005KT 10SM CLR 11/09 A3006 RMK AO2 SLP176 T01060089=
201305080853 METAR KPAE 080853Z AUTO 00000KT 10SM CLR 11/09 A3005 RMK AO2 SLP173 T01110089 51017=
201305080753 METAR KPAE 080753Z AUTO 27004KT 10SM CLR 11/09 A3003 RMK AO2 SLP169 T01110094 402110100=
201305080653 METAR KPAE 080653Z AUTO 00000KT 10SM CLR 12/09 A3001 RMK AO2 SLP162 T01220094=
201305080553 METAR KPAE 080553Z AUTO 00000KT 10SM CLR 12/09 A3000 RMK AO2 SLP157 T01220094 10206 20122 53015=
201305080453 METAR KPAE 080453Z AUTO 02004KT 10SM CLR 13/10 A2998 RMK AO2 SLP151 T01280100=
201305080353 METAR KPAE 080353Z AUTO 36003KT 10SM CLR 13/09 A2997 RMK AO2 SLP147 T01330094=
201305080253 METAR KPAE 080253Z 36005KT 10SM CLR 14/09 A2995 RMK AO2 SLP142 T01440094 53001=
201305080153 METAR KPAE 080153Z 36006KT 10SM CLR 16/10 A2995 RMK AO2 SLP141 T01610100=
201305080053 METAR KPAE 080053Z 00000KT 10SM CLR 18/11 A2995 RMK AO2 SLP141 T01780111=
201305072353 METAR KPAE 072353Z 27005KT 10SM CLR 21/11 A2995 RMK AO2 SLP140 T02060106 10211 20133 58005=
201305072253 METAR KPAE 072253Z 24006KT 10SM CLR 20/11 A2996 RMK AO2 SLP143 T02000106=
201305072153 METAR KPAE 072153Z 25008KT 10SM CLR 19/10 A2996 RMK AO2 SLP144 T01890100=
201305072053 METAR KPAE 072053Z 25008KT 10SM CLR 18/10 A2997 RMK AO2 SLP146 T01830100 58005=
201305071953 METAR KPAE 071953Z 23008KT 10SM CLR 17/11 A2997 RMK AO2 SLP147 T01670106=
201305071853 METAR KPAE 071853Z VRB03KT 10SM SCT014 16/09 A2998 RMK AO2 SLP151 T01560094=
201305071753 METAR KPAE 071753Z 18007KT 10SM OVC012 13/09 A2998 RMK AO2 SLP152 T01330089 10133 20100 51006=
201305071653 METAR KPAE 071653Z 21008KT 9SM OVC010 13/09 A2998 RMK AO2 SLP150 T01280089=
201305071553 METAR KPAE 071553Z 18009KT 10SM OVC006 12/09 A2997 RMK AO2 SLP150 T01170089=
201305071453 METAR KPAE 071453Z 19007KT 8SM OVC006 11/09 A2996 RMK AO2 SLP146 T01060089 53017=
201305071353 METAR KPAE 071353Z 20011KT 6SM BR OVC003 11/09 A2995 RMK AO2 SLP139 T01060089=
201305071327 SPECI KPAE 071327Z AUTO 19011KT 4SM BR OVC003 11/09 A2994 RMK AO2=
201305071307 SPECI KPAE 071307Z AUTO 17008KT 5SM BR BKN005 11/09 A2993 RMK AO2 CIG 003V007=
201305071253 METAR KPAE 071253Z AUTO 20008KT 8SM FEW007 11/09 A2993 RMK AO2 SLP133 T01060089=
201305071153 METAR KPAE 071153Z AUTO 23004KT 10SM CLR 11/09 A2991 RMK AO2 SLP127 T01060089 10144 20106 53015=
201305071053 METAR KPAE 071053Z AUTO 00000KT 10SM CLR 11/08 A2989 RMK AO2 SLP120 T01110078=
201305070953 METAR KPAE 070953Z AUTO 00000KT 10SM CLR 12/08 A2988 RMK AO2 SLP115 T01170083=
201305070853 METAR KPAE 070853Z AUTO 00000KT 10SM CLR 12/09 A2987 RMK AO2 SLP111 T01220089 53012=
201305070753 METAR KPAE 070753Z AUTO 00000KT 10SM CLR 13/09 A2985 RMK AO2 SLP106 T01280089 402670122=
201305070653 METAR KPAE 070653Z AUTO 02004KT 10SM CLR 13/08 A2984 RMK AO2 SLP102 T01330083=
201305070553 METAR KPAE 070553Z AUTO 00000KT 10SM CLR 14/08 A2983 RMK AO2 SLP099 T01390083 10261 20139 53010=
201305070453 METAR KPAE 070453Z AUTO VRB05KT 10SM CLR 14/08 A2982 RMK AO2 SLP096 T01440083=
201305070353 METAR KPAE 070353Z AUTO 36007KT 10SM CLR 16/07 A2981 RMK AO2 SLP091 T01610067=
201305070253 METAR KPAE 070253Z 01007KT 10SM CLR 18/07 A2980 RMK AO2 SLP088 T01830067 55001=
201305070153 METAR KPAE 070153Z 35007KT 10SM CLR 21/08 A2979 RMK AO2 SLP086 T02060078=
201305070053 METAR KPAE 070053Z 36007KT 10SM CLR 24/09 A2980 RMK AO2 SLP088 T02390094=
201305062353 METAR KPAE 062353Z 36006KT 10SM CLR 26/08 A2980 RMK AO2 SLP089 T02560083 10267 20217 58013=
201305062253 METAR KPAE 062253Z 30006KT 10SM CLR 27/08 A2982 RMK AO2 SLP093 T02670083=
201305062153 METAR KPAE 062153Z 33005KT 10SM CLR 26/08 A2983 RMK AO2 SLP099 T02610078=
201305062053 METAR KPAE 062053Z VRB04KT 10SM CLR 25/08 A2984 RMK AO2 SLP102 T02500078 56009=
201305061953 METAR KPAE 061953Z 32004KT 10SM CLR 24/08 A2985 RMK AO2 SLP105 T02440078=
201305061853 METAR KPAE 061853Z VRB04KT 10SM CLR 23/05 A2986 RMK AO2 SLP109 T02330050=
201305061753 METAR KPAE 061753Z 34004KT 10SM CLR 22/06 A2987 RMK AO2 SLP111 T02170061 10217 20128 50000=
201305061653 METAR KPAE 061653Z 35003KT 10SM CLR 19/07 A2987 RMK AO2 SLP113 T01940072=
201305061553 METAR KPAE 061553Z 07003KT 10SM CLR 19/04 A2987 RMK AO2 SLP111 T01890039=
201305061453 METAR KPAE 061453Z 04003KT 10SM CLR 17/05 A2987 RMK AO2 SLP112 T01720050 51007=
201305061353 METAR KPAE 061353Z 00000KT 10SM CLR 16/04 A2986 RMK AO2 SLP110 T01560044=
201305061253 METAR KPAE 061253Z AUTO 00000KT 10SM CLR 14/03 A2986 RMK AO2 SLP108 T01440028=
201305061153 METAR KPAE 061153Z AUTO 00000KT 10SM CLR 15/02 A2985 RMK AO2 SLP105 T01500022 10189 20150 55001=
201305061053 METAR KPAE 061053Z AUTO 12003KT 10SM CLR 16/02 A2984 RMK AO2 SLP103 T01560022=
201305060953 METAR KPAE 060953Z AUTO 12003KT 10SM CLR 16/03 A2985 RMK AO2 SLP104 T01560028=
201305060853 METAR KPAE 060853Z AUTO 12003KT 10SM CLR 16/05 A2985 RMK AO2 SLP106 T01610050 51005=
201305060753 METAR KPAE 060753Z AUTO 11004KT 10SM CLR 17/06 A2985 RMK AO2 SLP106 T01670056 402390106=
201305060653 METAR KPAE 060653Z AUTO 00000KT 10SM CLR 18/08 A2984 RMK AO2 SLP103 T01780083=
201305060553 METAR KPAE 060553Z AUTO 13003KT 10SM CLR 19/09 A2983 RMK AO2 SLP100 T01890089 10239 20183 53007=
201305060453 METAR KPAE 060453Z AUTO 00000KT 10SM CLR 19/08 A2983 RMK AO2 SLP097 T01940083=
201305060353 METAR KPAE 060353Z AUTO 00000KT 10SM CLR 21/08 A2982 RMK AO2 SLP095 T02060083=
201305060253 METAR KPAE 060253Z 35006KT 10SM CLR 22/08 A2981 RMK AO2 SLP093 T02170083 56008=
201305060153 METAR KPAE 060153Z 36006KT 10SM CLR 23/09 A2981 RMK AO2 SLP094 T02280094=
201305060053 METAR KPAE 060053Z VRB05KT 10SM CLR 24/08 A2982 RMK AO2 SLP097 T02390083=
201305052353 METAR KPAE 052353Z VRB05KT 10SM CLR 23/09 A2984 RMK AO2 SLP101 T02330089 10239 20183 58021=
201305052253 METAR KPAE 052253Z 35008G14KT 10SM CLR 23/07 A2986 RMK AO2 SLP110 T02330067=
201305052153 METAR KPAE 052153Z 36009KT 10SM CLR 23/08 A2988 RMK AO2 SLP117 T02280083=
201305052053 METAR KPAE 052053Z 36007KT 10SM CLR 22/08 A2990 RMK AO2 SLP123 T02170078 56018=
201305051953 METAR KPAE 051953Z 01004KT 10SM CLR 22/08 A2992 RMK AO2 SLP128 T02170083=
201305051853 METAR KPAE 051853Z 35007KT 10SM CLR 20/07 A2993 RMK AO2 SLP135 T02000067=
201305051753 METAR KPAE 051753Z 36007KT 10SM CLR 18/06 A2995 RMK AO2 SLP141 T01830061 10183 20106 56010=
201305051653 METAR KPAE 051653Z 02005KT 10SM CLR 17/06 A2996 RMK AO2 SLP143 T01670056=
201305051553 METAR KPAE 051553Z 02007KT 10SM CLR 16/04 A2997 RMK AO2 SLP149 T01560044=
201305051453 METAR KPAE 051453Z 02005KT 10SM CLR 13/07 A2998 RMK AO2 SLP152 T01330067 55004=
201305051353 METAR KPAE 051353Z 02004KT 10SM CLR 12/07 A2998 RMK AO2 SLP151 T01170072=
201305051253 METAR KPAE 051253Z AUTO 00000KT 10SM CLR 11/06 A2998 RMK AO2 SLP152 T01060061=
201305051153 METAR KPAE 051153Z AUTO 02005KT 10SM CLR 12/06 A2999 RMK AO2 SLP155 T01170061 10156 20111 56006=
201305051053 METAR KPAE 051053Z AUTO 01003KT 10SM CLR 11/06 A3000 RMK AO2 SLP157 T01110061=
201305050953 METAR KPAE 050953Z AUTO 00000KT 10SM CLR 14/06 A3000 RMK AO2 SLP158 T01390056=
201305050853 METAR KPAE 050853Z AUTO 00000KT 10SM CLR 13/06 A3001 RMK AO2 SLP162 T01330061 57007=
201305050753 METAR KPAE 050753Z AUTO 00000KT 10SM CLR 13/06 A3002 RMK AO2 SLP164 T01330056 402170094=
201305050653 METAR KPAE 050653Z AUTO 00000KT 10SM CLR 14/05 A3003 RMK AO2 SLP167 T01440050=
201305050553 METAR KPAE 050553Z AUTO 36004KT 10SM CLR 15/05 A3004 RMK AO2 SLP170 T01500050 10217 20150 56006=
201305050453 METAR KPAE 050453Z AUTO 01004KT 10SM CLR 16/05 A3004 RMK AO2 SLP172 T01610050=
201305050353 METAR KPAE 050353Z AUTO 01006KT 10SM CLR 16/08 A3004 RMK AO2 SLP173 T01610078=
201305050253 METAR KPAE 050253Z 34005KT 10SM CLR 17/08 A3005 RMK AO2 SLP176 T01720083 56016=
201305050153 METAR KPAE 050153Z 36008KT 10SM CLR 20/07 A3006 RMK AO2 SLP179 T02000067=
201305050053 METAR KPAE 050053Z 35008KT 10SM CLR 21/06 A3008 RMK AO2 SLP186 T02110061=
201305042353 METAR KPAE 042353Z 35009KT 10SM CLR 22/07 A3010 RMK AO2 SLP191 T02170067 10217 20156 56024=
201305042253 METAR KPAE 042253Z 36009G15KT 10SM CLR 22/07 A3012 RMK AO2 SLP199 T02170067=
201305042153 METAR KPAE 042153Z 36009G15KT 10SM CLR 21/08 A3015 RMK AO2 SLP207 T02110083=
201305042053 METAR KPAE 042053Z VRB06KT 10SM CLR 21/08 A3017 RMK AO2 SLP216 T02060083 58022=
201305041953 METAR KPAE 041953Z 35005KT 10SM CLR 19/08 A3020 RMK AO2 SLP224 T01890078=
201305041853 METAR KPAE 041853Z VRB06KT 10SM CLR 17/08 A3022 RMK AO2 SLP232 T01720078=
201305041753 METAR KPAE 041753Z VRB06KT 10SM CLR 16/08 A3024 RMK AO2 SLP240 T01560078 10156 20094 58005=
201305041653 METAR KPAE 041653Z 36007KT 10SM CLR 14/08 A3025 RMK AO2 SLP242 T01440078=
201305041553 METAR KPAE 041553Z 36004KT 10SM CLR 13/08 A3026 RMK AO2 SLP246 T01280078=
201305041453 METAR KPAE 041453Z 36005KT 10SM CLR 12/08 A3025 RMK AO2 SLP245 T01170083 53005=
201305041353 METAR KPAE 041353Z 01005KT 10SM CLR 11/08 A3025 RMK AO2 SLP243 T01060078=
201305041253 METAR KPAE 041253Z AUTO 36003KT 10SM CLR 09/07 A3024 RMK AO2 SLP240 T00940067=
201305041153 METAR KPAE 041153Z AUTO 00000KT 10SM CLR 10/07 A3024 RMK AO2 SLP239 T01000067 10133 20100 55002=
201305041053 METAR KPAE 041053Z AUTO 35003KT 10SM CLR 10/07 A3023 RMK AO2 SLP237 T01000067=
201305040953 METAR KPAE 040953Z AUTO 36004KT 10SM CLR 11/07 A3024 RMK AO2 SLP239 T01110067=
201305040853 METAR KPAE 040853Z AUTO 01006KT 10SM CLR 11/06 A3024 RMK AO2 SLP242 T01110061 58003=
201305040753 METAR KPAE 040753Z AUTO 02006KT 10SM CLR 12/06 A3025 RMK AO2 SLP243 T01220056 401830072=
201305040653 METAR KPAE 040653Z AUTO 01005KT 10SM CLR 12/07 A3025 RMK AO2 SLP244 T01220067=
201305040553 METAR KPAE 040553Z AUTO 36005KT 10SM CLR 13/07 A3025 RMK AO2 SLP245 T01280067 10183 20122 58002=
201305040453 METAR KPAE 040453Z AUTO 35004KT 10SM CLR 12/07 A3026 RMK AO2 SLP248 T01220072=
201305040353 METAR KPAE 040353Z AUTO 36003KT 10SM CLR 14/08 A3026 RMK AO2 SLP247 T01390078=
201305040253 METAR KPAE 040253Z 35006KT 10SM CLR 16/07 A3026 RMK AO2 SLP247 T01560072 58011=
201305040153 METAR KPAE 040153Z 35005KT 10SM CLR 17/07 A3027 RMK AO2 SLP251 T01720067=
201305040053 METAR KPAE 040053Z 34006KT 10SM CLR 18/07 A3028 RMK AO2 SLP254 T01830067=
201305032353 METAR KPAE 032353Z VRB05KT 10SM CLR 18/07 A3029 RMK AO2 SLP258 T01780072 10183 20133 58016=
201305032253 METAR KPAE 032253Z 32008KT 10SM CLR 17/07 A3031 RMK AO2 SLP264 T01720072=
201305032153 METAR KPAE 032153Z 31011KT 10SM CLR 17/08 A3032 RMK AO2 SLP269 T01720078=
201305032053 METAR KPAE 032053Z 34007G16KT 10SM CLR 16/07 A3034 RMK AO2 SLP274 T01610072 58014=
201305031953 METAR KPAE 031953Z 36008KT 10SM CLR 16/08 A3035 RMK AO2 SLP279 T01560078=
201305031853 METAR KPAE 031853Z 36008KT 10SM CLR 14/07 A3037 RMK AO2 SLP285 T01440072=
201305031753 METAR KPAE 031753Z 33009G16KT 10SM CLR 13/07 A3038 RMK AO2 SLP289 T01330067 10139 20072 58004=
201305031653 METAR KPAE 031653Z VRB06KT 10SM CLR 12/07 A3039 RMK AO2 SLP293 T01170067=
201305031553 METAR KPAE 031553Z VRB06KT 10SM CLR 11/07 A3040 RMK AO2 SLP294 T01110067=
201305031453 METAR KPAE 031453Z 02005KT 10SM CLR 09/06 A3039 RMK AO2 SLP293 T00940061 54000=
201305031353 METAR KPAE 031353Z 03007KT 10SM CLR 08/06 A3039 RMK AO2 SLP293 T00830056=
201305031253 METAR KPAE 031253Z AUTO 02005KT 10SM CLR 08/05 A3040 RMK AO2 SLP294 T00780050=
201305031153 METAR KPAE 031153Z AUTO 01004KT 10SM CLR 08/04 A3039 RMK AO2 SLP293 T00780044 10100 20078 56001=
201305031053 METAR KPAE 031053Z AUTO 36003KT 10SM CLR 08/04 A3039 RMK AO2 SLP293 T00830044=
201305030953 METAR KPAE 030953Z AUTO 01003KT 10SM CLR 09/04 A3039 RMK AO2 SLP294 T00890044=
201305030853 METAR KPAE 030853Z AUTO 02004KT 10SM CLR 09/04 A3040 RMK AO2 SLP294 T00940044 50003=
201305030753 METAR KPAE 030753Z AUTO 01004KT 10SM CLR 10/04 A3040 RMK AO2 SLP295 T01000044 401610056=
201305030653 METAR KPAE 030653Z AUTO 35005KT 10SM CLR 09/06 A3040 RMK AO2 SLP294 T00940056=
201305030553 METAR KPAE 030553Z AUTO 35006KT 10SM CLR 10/05 A3039 RMK AO2 SLP291 T01000050 10150 20100 50001=
201305030453 METAR KPAE 030453Z AUTO 35008KT 10SM CLR 11/04 A3039 RMK AO2 SLP292 T01060039=
201305030353 METAR KPAE 030353Z AUTO 35005KT 10SM CLR 11/04 A3039 RMK AO2 SLP293 T01110044=
201305030253 METAR KPAE 030253Z 36008G17KT 10SM CLR 12/03 A3039 RMK AO2 SLP291 T01220033 58008=
201305030153 METAR KPAE 030153Z 34006KT 10SM FEW120 13/04 A3040 RMK AO2 SLP297 T01280039=
201305030053 METAR KPAE 030053Z 35007KT 10SM CLR 14/04 A3040 RMK AO2 SLP296 T01440044=
201305022353 METAR KPAE 022353Z 33006KT 10SM CLR 15/05 A3041 RMK AO2 SLP299 T01500050 10161 20133 56007=
201305022253 METAR KPAE 022253Z 34007KT 10SM CLR 15/04 A3042 RMK AO2 SLP301 T01500039=
201305022153 METAR KPAE 022153Z 34008G15KT 10SM CLR 16/05 A3042 RMK AO2 SLP303 T01560050=
201305022053 METAR KPAE 022053Z 01007KT 10SM CLR 16/05 A3043 RMK AO2 SLP306 T01610050 58012=
201305021953 METAR KPAE 021953Z VRB05KT 10SM CLR 16/04 A3044 RMK AO2 SLP310 T01560044=
201305021853 METAR KPAE 021853Z VRB04KT 10SM CLR 15/03 A3046 RMK AO2 SLP315 T01500033=
201305021753 METAR KPAE 021753Z VRB04KT 10SM CLR 13/03 A3047 RMK AO2 SLP319 T01330033 10139 20056 58011=
201305021653 METAR KPAE 021653Z 32006KT 10SM CLR 11/03 A3048 RMK AO2 SLP323 T01110033=
201305021553 METAR KPAE 021553Z 01003KT 10SM CLR 11/03 A3049 RMK AO2 SLP326 T01060033=
201305021453 METAR KPAE 021453Z 02005KT 10SM CLR 09/03 A3050 RMK AO2 SLP330 T00890028 55006=
201305021353 METAR KPAE 021353Z 00000KT 10SM CLR 08/04 A3050 RMK AO2 SLP329 T00780039=
201305021253 METAR KPAE 021253Z AUTO 03003KT 10SM CLR 07/03 A3050 RMK AO2 PRESFR SLP330 T00670033=
201305021153 METAR KPAE 021153Z AUTO 00000KT 10SM CLR 07/03 A3052 RMK AO2 SLP336 T00670033 10089 20067 56009=
201305021053 METAR KPAE 021053Z AUTO 00000KT 10SM CLR 07/04 A3052 RMK AO2 SLP336 T00720039=
201305020953 METAR KPAE 020953Z AUTO 35003KT 10SM CLR 08/04 A3054 RMK AO2 SLP343 T00780039=
201305020853 METAR KPAE 020853Z AUTO 02004KT 10SM CLR 08/04 A3055 RMK AO2 SLP345 T00830039 58003=
201305020753 METAR KPAE 020753Z AUTO 02003KT 10SM CLR 09/04 A3055 RMK AO2 SLP348 T00890044 401560033=
201305020653 METAR KPAE 020653Z AUTO 36003KT 10SM CLR 08/03 A3055 RMK AO2 SLP349 T00830033=
201305020553 METAR KPAE 020553Z AUTO 36003KT 10SM CLR 09/03 A3056 RMK AO2 SLP350 T00890033 10150 20089 50004=
201305020453 METAR KPAE 020453Z AUTO 36005KT 10SM CLR 10/02 A3056 RMK AO2 SLP351 T01000017=
201305020353 METAR KPAE 020353Z AUTO 35005KT 10SM CLR 11/02 A3055 RMK AO2 SLP348 T01110017=
201305020253 METAR KPAE 020253Z 35004KT 10SM CLR 12/01 A3054 RMK AO2 SLP346 T01220011 56004=
201305020153 METAR KPAE 020153Z 34006KT 10SM CLR 14/00 A3054 RMK AO2 SLP346 T01390000=
201305020053 METAR KPAE 020053Z 35005KT 10SM CLR 14/00 A3055 RMK AO2 SLP348 T01440000=
201305012353 METAR KPAE 012353Z 36007KT 10SM CLR 15/M01 A3056 RMK AO2 SLP350 T01501011 10156 20106 58007=
201305012253 METAR KPAE 012253Z 35006KT 10SM CLR 15/M01 A3057 RMK AO2 SLP354 T01501011=
201305012153 METAR KPAE 012153Z 36006KT 10SM CLR 14/M01 A3057 RMK AO2 SLP356 T01391006=
201305012053 METAR KPAE 012053Z 34006KT 10SM CLR 13/00 A3058 RMK AO2 SLP358 T01330000 55001=
201305011953 METAR KPAE 011953Z 34005KT 10SM CLR 13/M01 A3057 RMK AO2 SLP356 T01281011=
201305011853 METAR KPAE 011853Z 01005KT 10SM CLR 12/M02 A3058 RMK AO2 SLP357 T01171022=
201305011753 METAR KPAE 011753Z 03004KT 10SM CLR 11/00 A3058 RMK AO2 SLP359 T01060000 10106 20033 51006=
201305011653 METAR KPAE 011653Z 00000KT 10SM CLR 09/01 A3057 RMK AO2 SLP355 T00940006=
201305011553 METAR KPAE 011553Z 00000KT 10SM CLR 07/00 A3058 RMK AO2 SLP358 T00720000=
201305011453 METAR KPAE 011453Z 16003KT 10SM CLR 06/00 A3056 RMK AO2 SLP353 T00560000 53015=
201305011353 METAR KPAE 011353Z 16004KT 10SM CLR 04/M01 A3055 RMK AO2 SLP348 T00391006=
201305011253 METAR KPAE 011253Z AUTO 00000KT 10SM CLR 04/M01 A3053 RMK AO2 SLP341 T00391011=
201305011153 METAR KPAE 011153Z AUTO 12003KT 10SM CLR 04/M01 A3052 RMK AO2 SLP337 T00391006 10067 20039 53010=
201305011053 METAR KPAE 011053Z AUTO 11005KT 10SM CLR 04/M01 A3050 RMK AO2 SLP331 T00391006=
201305010953 METAR KPAE 010953Z AUTO 11007KT 10SM CLR 04/M01 A3049 RMK AO2 SLP329 T00441006=
201305010853 METAR KPAE 010853Z AUTO 11005KT 10SM CLR 05/M01 A3049 RMK AO2 SLP327 T00501006 53016=
201305010753 METAR KPAE 010753Z AUTO 11003KT 10SM CLR 06/00 A3047 RMK AO2 SLP321 T00610000 401170028=
201305010653 METAR KPAE 010653Z AUTO 00000KT 10SM CLR 06/00 A3045 RMK AO2 SLP313 T00560000=
201305010553 METAR KPAE 010553Z AUTO 35005KT 10SM CLR 06/M03 A3044 RMK AO2 SLP311 T00561028 10117 20056 53015=
201305010453 METAR KPAE 010453Z AUTO 28003KT 10SM CLR 08/M04 A3042 RMK AO2 SLP305 T00781044=
201305010353 METAR KPAE 010353Z AUTO 00000KT 10SM CLR 08/M02 A3041 RMK AO2 SLP300 T00781022=
201305010253 METAR KPAE 010253Z 28003KT 10SM CLR 09/M04 A3039 RMK AO2 SLP295 T00941039 53008=
201305010153 METAR KPAE 010153Z 24006KT 10SM CLR 10/M03 A3038 RMK AO2 SLP292 T01001033=
201305010053 METAR KPAE 010053Z AUTO VRB04KT 10SM CLR 11/M04 A3038 RMK AO2 SLP289 T01061039 TSNO=

# No short TAF reports from KPAE in databse.

###################################
#  large TAF from KPAE
###################################
201305312337 TAF KPAE 312337Z 0100/0124 VRB03KT P6SM FEW080 SCT200 FM011000
                       VRB03KT P6SM SCT110 OVC200 FM011600 VRB03KT
                       P6SM SCT060 BKN110 OVC200 FM011900 VRB03KT
                       P6SM FEW035 BKN060 OVC110=
201305312229 TAF AMD KPAE 312229Z 3122/0118 31005KT P6SM FEW030 SCT060 FM010300
                       01004KT P6SM SCT250 FM011200 VRB03KT P6SM
                       SCT120 BKN250 FM011500 23005KT P6SM BKN120
                       OVC250=
201305312101 KPAE 312101Z 3121/0118 31005KT P6SM BKN028 BKN050 FM010300 01004KT
                       P6SM SCT250 FM011200 VRB03KT P6SM SCT120
                       BKN250 FM011500 23005KT P6SM BKN120 OVC250=
201305311852 TAF AMD KPAE 311852Z 3119/0118 VRB03KT P6SM SCT022 BKN050
                      TEMPO 3119/3121 BKN022 OVC050 FM312100 31007KT
                       P6SM SCT035 SCT070 FM010300 01004KT P6SM
                       SCT250 FM011200 VRB03KT P6SM SCT120 BKN250
                       FM011500 23005KT P6SM BKN120 OVC250=
201305311720 TAF KPAE 311720Z 3118/0118 VRB03KT P6SM SCT020 BKN060 FM311900
                       32006KT P6SM SCT035 BKN060 FM312100 31007KT
                       P6SM SCT035 SCT070 FM010300 01004KT P6SM
                       SCT250 FM011200 VRB03KT P6SM SCT120 BKN250
                       FM011500 23005KT P6SM BKN120 OVC250=
201305311635 TAF AMD KPAE 311635Z 3117/0112 VRB03KT P6SM FEW009 SCT020 BKN035
                       TEMPO 3117/3118 FEW009 BKN020 OVC035 FM311800
                       24004KT P6SM SCT025 BKN070 FM312100 30006KT
                       P6SM SCT200 FM010100 34005KT P6SM SCT200=
201305311513 TAF AMD KPAE 311513Z 3115/0112 VRB03KT P6SM FEW002 SCT007 OVC015
                       TEMPO 3115/3117 FEW002 BKN007 OVC015 FM311800
                       24004KT P6SM SCT025 BKN070 FM312100 30006KT
                       P6SM SCT200 FM010100 34005KT P6SM SCT200=
201305311120 TAF KPAE 311120Z 3112/0112 20004KT P6SM BKN020 OVC070
                      TEMPO 3113/3117 SCT020 BKN070 FM311700 24004KT
                       P6SM SCT025 BKN070 FM312100 30006KT P6SM
                       SCT200 FM010100 34005KT P6SM SCT200=
201305310521 TAF KPAE 310521Z 3106/0106 21007KT P6SM VCSH SCT020 BKN035 OVC050
                       TEMPO 3106/3110 -SHRA BKN020 BKN035 OVC050
                       FM311000 VRB03KT P6SM VCSH BKN015 OVC025
                       FM311600 VRB03KT P6SM SCT015 BKN025 BKN050
                       FM311800 31004KT P6SM SCT025 BKN050 FM312100
                       30005KT P6SM SCT050 FM010100 34005KT P6SM
                       SCT200=
201305302320 TAF KPAE 302320Z 3100/3124 18012G17KT P6SM VCSH SCT035 BKN060 OVC080
                       FM310200 VRB04KT P6SM VCSH SCT020 BKN035
                       BKN045
                      TEMPO 3102/3105 -SHRA BKN020 OVC030 FM310500
                       VRB04KT P6SM -SHRA BKN015 OVC025 FM311500
                       VRB04KT P6SM SCT015 BKN025 BKN050 FM311700
                       34005KT P6SM SCT040=
201305302006 TAF AMD KPAE 302006Z 3020/3118 18012G19KT P6SM VCSH SCT030 BKN045
                       OVC090 FM302200 18008KT P6SM VCSH SCT025
                       BKN045 OVC090 FM310100 VRB04KT P6SM VCSH
                       SCT015 BKN030 BKN045
                      TEMPO 3101/3104 -SHRA BKN015 OVC030 FM310400
                       VRB04KT P6SM -SHRA BKN015 OVC025 FM311500
                       VRB04KT P6SM SCT015 BKN025 BKN050=
201305301725 TAF KPAE 301725Z 3018/3118 18012G19KT P6SM VCSH BKN020 OVC030 FM302200
                       21008KT P6SM VCSH SCT025 BKN045 FM310100
                       VRB04KT P6SM VCSH SCT015 BKN030 BKN045
                      TEMPO 3101/3104 -SHRA BKN015 OVC030 FM310400
                       VRB04KT P6SM -SHRA BKN015 OVC025 FM311500
                       VRB04KT P6SM SCT015 BKN025 BKN050=
201305301120 TAF KPAE 301120Z 3012/3112 19010KT P6SM VCSH BKN012 OVC025
                      TEMPO 3014/3018 -SHRA BKN008 OVC020 FM301800
                       18010KT P6SM VCSH BKN015 OVC025 FM302000
                       21010KT P6SM VCSH BKN020 OVC040 FM302200
                       21008KT P6SM SCT025 BKN045 FM310100 21007KT
                       P6SM SCT025 BKN080 FM310800 18006KT P6SM
                       BKN015 OVC025=
201305300529 TAF KPAE 300529Z 3006/3106 VRB03KT P6SM -SHRA SCT010 OVC020 FM301000
                       VRB03KT P6SM -SHRA BKN008 OVC015 FM301700
                       18008KT P6SM VCSH BKN015 OVC025 FM302300
                       19009KT P6SM SCT025 BKN050=
201305292330 TAF KPAE 292330Z 3000/3024 VRB03KT P6SM VCSH FEW008 BKN020 FM300100
                       VRB03KT 4SM -SHRA BKN008 OVC015 FM301700
                       18008KT P6SM VCSH BKN012 OVC025 FM302300
                       19009KT P6SM SCT025 BKN050=
201305291738 TAF KPAE 291738Z 2918/3018 VRB03KT P6SM VCSH BKN007 BKN035 OVC045
                       FM292200 VRB03KT 4SM -SHRA BKN008 OVC015
                       FM301000 18008KT P6SM VCSH BKN012 OVC025=
201305291418 KPAE 291418Z 2914/3012 VRB04KT P6SM -RA SCT003 BKN024 OVC050
                      TEMPO 2914/2918 BKN003 OVC024 FM291800 29004KT
                       P6SM -SHRA BKN008 OVC015 FM292200 VRB03KT
                       4SM -SHRA BKN008 OVC015=
201305291140 TAF KPAE 291140Z 2912/3012 VRB03KT P6SM -RA OVC040 FM291600 VRB03KT
                       P6SM -RA SCT015 OVC030 FM291800 19008KT
                       P6SM -SHRA SCT008 BKN020 OVC030 FM292200
                       VRB03KT 4SM -SHRA BKN008 OVC015=
201305290538 TAF KPAE 290538Z 2906/3006 18008KT P6SM SCT040 BKN060 OVC100 FM291100
                       02004KT P6SM -RA OVC040 FM291600 02004KT
                       5SM -RA SCT005 OVC010 FM291900 19008KT P6SM
                       -SHRA SCT008 BKN020 OVC030 FM300100 19012KT
                       P6SM VCSH SCT018 BKN030 OVC045=
201305282320 TAF KPAE 282320Z 2900/2924 19012G18KT P6SM FEW030 BKN050 OVC080
                       FM290400 VRB03KT P6SM SCT040 BKN070 OVC120
                       FM291200 VRB03KT P6SM -RA OVC050 FM291500
                       VRB03KT P6SM -RA SCT012 OVC025 FM291900
                       20006KT P6SM -SHRA BKN025 OVC045 FM292200
                       21007KT P6SM VCSH SCT025 BKN045=
201305282038 TAF AMD KPAE 282038Z 2821/2918 18012G20KT P6SM VCSH SCT028 OVC070
                       FM282300 18008KT P6SM SCT040 BKN070 OVC120
                       FM290400 VRB03KT P6SM SCT040 BKN070 OVC120
                       FM291200 VRB03KT P6SM -RA OVC050 FM291400
                       VRB03KT P6SM -RA BKN012 OVC020=
201305281924 TAF AMD KPAE 281924Z 2819/2918 18009KT P6SM VCSH SCT025 OVC060
                       FM290400 VRB03KT P6SM SCT040 BKN070 OVC120
                       FM291200 VRB03KT P6SM -RA OVC050 FM291400
                       VRB03KT P6SM -RA BKN012 OVC020=
201305281724 TAF KPAE 281724Z 2818/2918 17012G19KT P6SM VCSH BKN020 BKN045 OVC180
                       FM282200 18008KT P6SM VCSH SCT025 BKN045
                       BKN070 FM290400 VRB03KT P6SM SCT040 BKN070
                       OVC120 FM291200 VRB03KT P6SM -RA OVC050
                       FM291400 VRB03KT P6SM -RA BKN012 OVC020=
201305281603 TAF AMD KPAE 281603Z 2816/2912 18013G22KT P6SM VCSH BKN016 BKN024
                       FM281800 18011G18KT P6SM SCT025 BKN045 BKN070
                       FM282200 18008KT P6SM SCT025 BKN045 BKN070
                       FM290400 VRB03KT P6SM SCT040 BKN070 OVC120=
201305281136 TAF KPAE 281136Z 2812/2912 18012KT P6SM SCT010 OVC060
                      TEMPO 2814/2816 BKN010 OVC060 FM281900 18008KT
                       P6SM SCT025 BKN045 BKN070 FM290400 VRB03KT
                       P6SM SCT040 BKN070 OVC120=
201305280540 TAF KPAE 280540Z 2806/2906 17012KT P6SM -SHRA SCT022 BKN045
                      TEMPO 2806/2810 BKN022 OVC045 FM281200 17006KT
                       P6SM VCSH SCT012 BKN022 OVC035 FM281900
                       17006KT P6SM -SHRA SCT025 BKN040 FM290400
                       VRB03KT P6SM SCT040 BKN070 OVC120=
201305272320 TAF KPAE 272320Z 2800/2824 15011G20KT P6SM -RA FEW017 OVC045 FM280200
                       18010KT P6SM -SHRA SCT010 SCT020 OVC030
                       TEMPO 2802/2806 SCT010 OVC020 FM281200 18008KT
                       P6SM VCSH BKN011 OVC020 FM281900 18006KT
                       P6SM SCT018 BKN035=
201305272208 TAF AMD KPAE 272208Z 2722/2818 16006KT P6SM -RA OVC050 FM280000
                       18012KT P6SM -SHRA BKN030 OVC050 FM280300
                       17008KT P6SM -SHRA SCT010 SCT020 OVC030
                       FM281200 18008KT P6SM VCSH BKN011 OVC020=
201305272008 TAF AMD KPAE 272008Z 2720/2818 14007G14KT P6SM -RA OVC060 FM272200
                       18012G20KT 6SM -SHRA BR SCT010 BKN022 OVC030
                       FM280200 17008KT P6SM -SHRA SCT010 BKN022
                       OVC030 FM281200 18008KT P6SM VCSH BKN011
                       OVC020=
201305271811 TAF AMD KPAE 271811Z 2718/2818 15010KT P6SM -RA FEW050 OVC070 FM272100
                       15008KT 5SM -RA BR BKN018 OVC035 FM280000
                       15008KT 4SM -RA BR BKN010 OVC020 FM280200
                       18008KT P6SM -SHRA SCT011 BKN020 FM281200
                       18008KT P6SM VCSH BKN011 OVC020=
201305271728 TAF KPAE 271728Z 2718/2818 00000KT P6SM -RA OVC060 FM272100 VRB03KT
                       5SM -RA BR BKN018 OVC035 FM280000 VRB03KT
                       4SM -RA BR BKN010 OVC020 FM280200 18008KT
                       P6SM -SHRA SCT011 BKN020 FM281200 18008KT
                       P6SM VCSH BKN011 OVC020=
201305271140 TAF KPAE 271140Z 2712/2812 13006KT P6SM SCT025 BKN060 OVC100 FM271500
                       13008KT P6SM -RA SCT025 OVC040 FM271800
                       13008KT P6SM -RA SCT015 OVC025 FM272200
                       18010KT 5SM -RA BR BKN012 OVC020 FM280200
                       18010KT P6SM -SHRA SCT012 BKN020 OVC030=
201305270541 TAF KPAE 270541Z 2706/2806 18006KT P6SM SCT025 BKN060 BKN100 FM271000
                       VRB03KT P6SM SCT025 OVC060 FM271800 04006KT
                       P6SM -RA SCT025 OVC035 FM272200 10006KT
                       P6SM -RA OVC022 FM280100 18010KT 5SM -RA
                       BR OVC015 FM280500 18010KT P6SM -SHRA SCT010
                       BKN015 OVC025=
201305262325 TAF KPAE 262325Z 2700/2724 20007KT P6SM SCT018 BKN035 BKN090 FM270400
                       17006KT P6SM SCT020 SCT035 BKN080 FM270700
                       14004KT P6SM SCT008 OVC015 FM271700 14005KT
                       P6SM SCT015 BKN035 FM272200 15005KT P6SM
                       -RA SCT015 OVC030=
201305262108 TAF AMD KPAE 262108Z 2621/2718 22007KT P6SM VCSH FEW005 BKN023
                       OVC035 FM262300 22007KT P6SM VCSH SCT025
                       BKN040 BKN060 FM270300 18006KT P6SM SCT040
                       BKN060 FM270700 10004KT P6SM SCT008 OVC015=
201305261909 TAF AMD KPAE 261909Z 2619/2718 16006KT P6SM -SHRA SCT009 BKN020
                       OVC060
                      TEMPO 2619/2621 BKN009 OVC020 FM262100 18011KT
                       P6SM -SHRA SCT035 OVC050 FM270300 18006KT
                       P6SM SCT040 BKN060 FM270700 10004KT P6SM
                       SCT008 OVC015=
201305261734 TAF KPAE 261734Z 2618/2718 16004KT 5SM BR OVC007
                      TEMPO 2618/2619 3SM -RA BR SCT007 OVC050
                       FM261900 13006KT P6SM -SHRA SCT010 SCT030
                       OVC050 FM262100 18011KT P6SM -SHRA SCT035
                       OVC050 FM270300 18006KT P6SM SCT040 BKN060
                       FM270700 10004KT P6SM SCT008 OVC015=
201305261627 TAF AMD KPAE 261627Z 2616/2712 20003KT 5SM -RA BR OVC005
                      TEMPO 2616/2619 3SM -RA BR FM261900 13006KT
                       P6SM -RA SCT030 BKN045 OVC070 FM262100 18006KT
                       P6SM -SHRA BKN035 OVC050 FM270300 18006KT
                       P6SM SCT040 BKN060 FM271000 10006KT P6SM
                       SCT060 BKN100=
201305261415 TAF AMD KPAE 261415Z 2614/2712 30004KT 2SM -RA BR OVC001 FM261600
                       VRB03KT 5SM -RA BR BKN003 OVC050 FM261700
                       13006KT P6SM -RA SCT030 BKN045 OVC070 FM262100
                       18006KT P6SM -SHRA BKN035 OVC050 FM270300
                       18006KT P6SM SCT040 BKN060 FM271000 10006KT
                       P6SM SCT060 BKN100=
201305261233 TAF AMD KPAE 261233Z 2613/2712 VRB03KT P6SM -RA SCT003 BKN060 OVC100
                       TEMPO 2613/2616 BKN003 FM261700 13006KT
                       P6SM -RA SCT030 BKN045 OVC070 FM262100 18006KT
                       P6SM -SHRA BKN035 OVC050 FM270300 18006KT
                       P6SM SCT040 BKN060 FM271000 10006KT P6SM
                       SCT060 BKN100=
201305261140 TAF KPAE 261140Z 2612/2712 VRB03KT P6SM BKN060 OVC100 FM261700
                       13006KT P6SM SCT030 BKN045 OVC070 FM262100
                       18006KT P6SM -SHRA BKN035 OVC050 FM270300
                       18006KT P6SM SCT040 BKN060 FM271000 10006KT
                       P6SM SCT060 BKN100=
201305260539 TAF KPAE 260539Z 2606/2706 VRB03KT P6SM BKN060 OVC100 FM261400
                       13006KT P6SM SCT030 BKN045 OVC070 FM262100
                       18006KT P6SM -SHRA BKN035 OVC050 FM270300
                       18006KT P6SM SCT040 BKN060=
201305252320 TAF KPAE 252320Z 2600/2624 19008KT P6SM VCSH SCT040 BKN060 FM260500
                       VRB03KT P6SM SCT035 BKN050 FM261400 18006KT
                       P6SM BKN030 OVC040 FM262100 21008KT P6SM
                       SCT035 BKN050=
201305251720 TAF KPAE 251720Z 2518/2618 19008KT P6SM BKN020 BKN030 FM252000
                       19008KT P6SM VCSH BKN030 OVC050 FM260500
                       VRB03KT P6SM SCT035 BKN050 FM261400 18006KT
                       P6SM BKN025 OVC040=
201305251138 TAF KPAE 251138Z 2512/2612 19008KT P6SM SCT030 BKN050 FM252000
                       19008KT P6SM VCSH BKN035 OVC050 FM260500
                       19008KT P6SM SCT035 BKN050=
201305250540 TAF KPAE 250540Z 2506/2606 19008KT P6SM SCT030 BKN050
                      TEMPO 2506/2508 -SHRA BKN035 OVC050 FM252000
                       19008KT P6SM VCSH BKN035 OVC050 FM260500
                       19008KT P6SM SCT035 BKN050=
201305242320 TAF KPAE 242320Z 2500/2524 22008KT P6SM FEW035 SCT060 FM250500
                       21006KT P6SM SCT035 BKN050 FM250900 16005KT
                       P6SM OVC030 FM251600 20006KT P6SM BKN035
                       OVC050 FM252100 23005KT P6SM VCSH BKN035
                       BKN050=
201305241720 TAF KPAE 241720Z 2418/2518 22008KT P6SM VCSH SCT035 BKN060
                      TEMPO 2422/2502 -SHRA BKN035 FM250500 21006KT
                       P6SM VCSH BKN035 OVC050 FM250900 16005KT
                       P6SM OVC022 FM251600 20006KT P6SM SCT025
                       BKN050=
201305241120 TAF KPAE 241120Z 2412/2512 VRB04KT P6SM SCT035 BKN060 FM241500
                       24005KT P6SM VCSH BKN035 BKN050 FM241800
                       22008KT P6SM VCSH SCT035 BKN060
                      TEMPO 2422/2502 -SHRA BKN035 FM250500 21006KT
                       P6SM VCSH BKN035 OVC050 FM250900 16005KT
                       P6SM VCSH OVC022=
201305240520 TAF KPAE 240520Z 2406/2506 12004KT P6SM VCSH SCT025 BKN070
                      TEMPO 2409/2413 -SHRA BKN025 FM241300 23004KT
                       P6SM VCSH SCT020 BKN050
                      TEMPO 2413/2417 BKN020 FM242100 22008KT P6SM
                       VCSH SCT035 BKN080
                      TEMPO 2422/2502 -SHRA BKN035=
201305240234 TAF AMD KPAE 240234Z 2403/2424 16008KT P6SM VCSH SCT025 BKN045
                       FM240600 VRB03KT P6SM SCT030 BKN100 FM241300
                       16003KT P6SM SCT018 BKN050
                      TEMPO 2414/2417 BKN018 FM242100 22008KT P6SM
                       VCSH BKN035 BKN060=
201305232335 TAF KPAE 232335Z 2400/2424 19015G23KT P6SM VCSH BKN029 BKN045 FM240600
                       VRB03KT P6SM SCT030 BKN100 FM241300 16003KT
                       P6SM SCT018 BKN050
                      TEMPO 2414/2417 BKN018 FM242100 22008KT P6SM
                       VCSH BKN035 BKN060=
201305231735 TAF KPAE 231735Z 2318/2418 17006KT P6SM VCSH SCT015 BKN030 BKN090
                       FM232100 24008KT P6SM VCSH SCT030 BKN070
                       FM240600 VRB03KT P6SM SCT030 BKN100 FM241300
                       16003KT P6SM SCT018 BKN050
                      TEMPO 2414/2417 BKN018=
201305231123 TAF KPAE 231123Z 2312/2412 16005KT P6SM -SHRA SCT015 OVC025
                      TEMPO 2312/2316 6SM -RA BR OVC015 FM232000
                       22006KT P6SM -SHRA SCT025 BKN035 FM240600
                       VRB04KT P6SM VCSH BKN025 OVC035 FM241000
                       VRB03KT P6SM OVC018=
201305230535 TAF KPAE 230535Z 2306/2406 15004KT P6SM VCSH SCT013 BKN035 OVC060
                       TEMPO 2306/2310 -SHRA BKN013 OVC030 FM231000
                       15004KT P6SM -SHRA OVC013
                      TEMPO 2310/2314 3SM -RA BR OVC004 FM232000
                       24007KT P6SM VCSH SCT013 BKN025 BKN040 FM240000
                       33005KT P6SM VCSH SCT013 BKN025 BKN040=
201305230302 TAF AMD KPAE 230302Z 2303/2324 24003KT P6SM VCSH BKN011 BKN040
                       OVC100
                      TEMPO 2303/2307 -SHRA BKN008 OVC030 FM230700
                       15004KT P6SM -SHRA OVC013
                      TEMPO 2310/2314 3SM -RA BR OVC004 FM232000
                       22006KT P6SM VCSH SCT013 BKN025 BKN040=
201305222330 TAF KPAE 222330Z 2300/2324 24003KT P6SM -SHRA BKN011 BKN040 OVC100
                       TEMPO 2300/2304 SCT018 BKN040 BKN100 FM230400
                       17006KT P6SM VCSH SCT021 BKN040 OVC060 FM230800
                       15004KT P6SM -SHRA OVC013
                      TEMPO 2310/2314 3SM -RA BR OVC004 FM232000
                       22006KT P6SM VCSH SCT013 BKN025 BKN040=
201305221730 TAF KPAE 221730Z 2218/2318 15007KT P6SM -SHRA BKN009 OVC020
                      TEMPO 2218/2222 P6SM NSW SCT009 BKN020 OVC040
                       FM222200 19008KT P6SM -SHRA SCT013 BKN021
                       OVC030 FM230400 16006KT P6SM -RA BKN012
                       OVC022 FM231200 13006KT P6SM -SHRA OVC023=
201305221529 TAF AMD KPAE 221529Z 2215/2312 15006KT 6SM -SHRA BR OVC004
                      TEMPO 2216/2220 P6SM NSW SCT004 BKN030 OVC040
                       FM222000 19008KT P6SM -SHRA SCT013 BKN021
                       OVC030 FM230400 16006KT P6SM -RA BKN012
                       OVC022=
201305221120 TAF KPAE 221120Z 2212/2312 17006KT P6SM -SHRA SCT004 BKN008 OVC018
                       TEMPO 2212/2215 5SM -RA BR OVC004 FM221500
                       20006KT P6SM -SHRA OVC018 FM222000 19008KT
                       P6SM -SHRA SCT013 BKN021 OVC030 FM230400
                       16006KT P6SM -RA BKN012 OVC022=
201305220902 KPAE 220902Z 2209/2306 17006KT P6SM -SHRA SCT012 BKN035 BKN050
                       TEMPO 2209/2211 5SM SHRA BR BKN008 OVC035
                       FM221100 17006KT P6SM -SHRA BKN006 OVC018
                       FM221600 20006KT P6SM VCSH OVC018 FM222000
                       19008KT P6SM -SHRA SCT013 BKN021 OVC030
                       FM230400 16006KT P6SM -RA BKN012 OVC022=
201305220520 TAF KPAE 220520Z 2206/2306 21006KT P6SM -SHRA SCT012 BKN035 BKN050
                       TEMPO 2206/2210 4SM SHRA BR SCT006 OVC012
                       FM221000 17006KT P6SM VCSH BKN006 OVC018
                       FM221600 20006KT P6SM VCSH OVC018 FM222000
                       19008KT P6SM -SHRA SCT013 BKN021 OVC030
                       FM230400 16006KT P6SM -RA BKN012 OVC022=
201305212320 TAF KPAE 212320Z 2200/2224 36005KT P6SM -SHRA BKN007 BKN024 OVC100
                       TEMPO 2200/2204 SCT007 SCT024 BKN060 FM220400
                       16008KT P6SM VCSH SCT018 BKN035 BKN050 FM221000
                       18006KT P6SM VCSH OVC018 FM221300 20006KT
                       P6SM VCSH OVC010 FM222000 19008KT P6SM -SHRA
                       SCT013 BKN021 OVC030=
201305212200 TAF AMD KPAE 212200Z 2122/2218 VRB04KT P6SM -SHRA BKN005 BKN016
                       OVC022
                      TEMPO 2122/2202 SCT005 BKN018 OVC030 FM220400
                       16008KT P6SM VCSH SCT018 BKN035 BKN050 FM221000
                       18006KT P6SM VCSH OVC018 FM221300 20006KT
                       P6SM VCSH OVC010=
201305211720 TAF KPAE 211720Z 2118/2218 18008KT P6SM -SHRA BKN008 BKN030 OVC050
                       TEMPO 2118/2122 SCT008 BKN030 OVC050 FM212200
                       18008KT P6SM -SHRA OVC040 FM220400 16008KT
                       P6SM VCSH BKN035 BKN050 FM221000 18006KT
                       P6SM VCSH OVC018 FM221300 20006KT P6SM VCSH
                       OVC010=
201305211525 TAF AMD KPAE 211525Z 2115/2212 18008KT P6SM -RA BKN008 BKN040 OVC050
                       TEMPO 2115/2119 SCT008 BKN060 FM211900 18008KT
                       P6SM -SHRA OVC040 FM220400 16008KT P6SM
                       VCSH BKN035 BKN050 FM221000 16006KT P6SM
                       OVC015=
201305211249 TAF AMD KPAE 211249Z 2113/2212 17007KT 4SM RA BR FEW008 BKN015
                       OVC040 FM211500 18005KT P6SM -RA SCT015
                       OVC040 FM212100 18008KT P6SM -SHRA OVC040
                       FM220400 16008KT P6SM VCSH BKN035 BKN050
                       FM221000 16006KT P6SM OVC015=
201305211136 TAF KPAE 211136Z 2112/2212 VRB04KT P6SM -RA SCT012 OVC025
                      TEMPO 2112/2115 5SM -RA OVC012 FM211500 28005KT
                       P6SM -RA OVC011 FM211800 19006KT P6SM -SHRA
                       BKN020 OVC030 FM212100 18008KT P6SM -SHRA
                       OVC030 FM220400 16008KT P6SM VCSH BKN035
                       BKN050 FM221000 16006KT P6SM OVC015=
201305210955 TAF AMD KPAE 210955Z 2110/2206 36004KT P6SM -RA SCT009 OVC022
                      TEMPO 2110/2114 4SM -RA OVC009 FM211400 22005KT
                       5SM -RA BR OVC007 FM211800 22006KT P6SM
                       -SHRA BKN020 OVC030 FM212100 18008KT P6SM
                       -SHRA OVC030 FM220400 16008KT P6SM VCSH
                       BKN035 BKN050=
201305210520 TAF KPAE 210520Z 2106/2206 35005KT P6SM SCT030 BKN080
                      TEMPO 2108/2110 -RA FM211000 36004KT P6SM
                       -RA OVC022
                      TEMPO 2110/2114 4SM -RA OVC009 FM211400 22005KT
                       5SM -RA BR OVC007 FM211800 22006KT P6SM
                       -SHRA BKN020 OVC030 FM212100 18008KT P6SM
                       -SHRA OVC030 FM220400 16008KT P6SM VCSH
                       BKN035 BKN050=
201305210222 TAF AMD KPAE 210222Z 2102/2124 35006KT P6SM FEW045 BKN250 FM210400
                       35006KT P6SM SCT030 BKN060 FM211000 36004KT
                       P6SM -RA OVC022
                      TEMPO 2112/2116 4SM -RA OVC007 FM211600 22005KT
                       5SM -RA BR OVC007=
201305202322 TAF KPAE 202322Z 2100/2124 27006KT P6SM BKN250 FM210400 35006KT
                       P6SM SCT028 OVC045 FM211100 36003KT P6SM
                       -RA OVC015
                      TEMPO 2114/2118 4SM -RA OVC007 FM211800 22005KT
                       5SM -RA BR OVC007=
201305201720 TAF KPAE 201720Z 2018/2118 00000KT P6SM BKN250 FM210400 35006KT
                       P6SM SCT028 OVC045 FM211100 36003KT P6SM
                       -RA OVC015
                      TEMPO 2114/2118 4SM -RA OVC007=
201305201120 TAF KPAE 201120Z 2012/2112 35004KT P6SM SCT250 FM201900 31006KT
                       P6SM SCT040 SCT200 FM210400 35005KT P6SM
                       SCT040 BKN070 BKN150=
201305200520 TAF KPAE 200520Z 2006/2106 03004KT P6SM SCT250 FM202000 31006KT
                       P6SM SCT040 SCT200=
201305192320 TAF KPAE 192320Z 2000/2024 VRB04KT P6SM SCT030 SCT060 FM202000
                       36006KT P6SM SCT040 SCT200=
201305192210 TAF AMD KPAE 192210Z 1922/2018 32006KT P6SM SCT030 BKN070 FM200100
                       32008KT P6SM SCT040 FM200600 02006KT P6SM
                       SKC=
201305191904 TAF AMD KPAE 191904Z 1919/2018 32006KT P6SM BKN010 OVC030 FM192030
                       32008KT P6SM BKN020 BKN040 FM200100 32008KT
                       P6SM SCT040 FM200600 02006KT P6SM SKC=
201305191721 TAF KPAE 191721Z 1918/2018 32006KT P6SM BKN015 OVC030
                      TEMPO 1918/1921 OVC015 FM192100 32008KT P6SM
                       SCT025 BKN040 FM192200 32008KT P6SM SCT050
                       FM200400 02006KT P6SM SKC=
201305191120 TAF KPAE 191120Z 1912/2012 36004KT P6SM SCT015 SCT030 BKN070
                      TEMPO 1912/1916 BKN007 FM192000 34007KT P6SM
                       SCT060 FM200400 02004KT P6SM SCT250=
201305190520 TAF KPAE 190520Z 1906/2006 36004KT P6SM BKN050 BKN070 FM190800
                       02003KT P6SM SCT020 BKN040 FM192000 34007KT
                       P6SM SCT050=
201305182320 TAF KPAE 182320Z 1900/1924 26006KT P6SM VCSH SCT025 BKN050 OVC100
                       FM190700 30007KT P6SM BKN030 FM192000 30007KT
                       P6SM SCT040=
201305181720 TAF KPAE 181720Z 1818/1918 20010KT P6SM -SHRA OVC040 FM190000 21006KT
                       P6SM VCSH BKN040 FM191000 VRB03KT P6SM OVC025
                       FM191400 30006KT P6SM BKN030 FM191700 32010KT
                       P6SM SCT040=
201305181120 TAF KPAE 181120Z 1812/1912 18010KT P6SM VCSH BKN050 OVC080 FM181400
                       18012KT P6SM -RA SCT025 OVC035 FM182300
                       20008KT P6SM -SHRA BKN040 FM190600 01004KT
                       P6SM OVC030=
201305180523 TAF KPAE 180523Z 1806/1906 22006KT P6SM BKN025 BKN040 OVC100 FM181600
                       18012KT P6SM -RA SCT025 OVC040 FM182300
                       20008KT P6SM -SHRA BKN040=
201305172320 TAF KPAE 172320Z 1800/1824 18010KT P6SM VCSH SCT030 BKN070 FM180200
                       30006KT P6SM VCSH BKN040 FM181000 VRB04KT
                       P6SM BKN040 OVC100 FM181400 18012KT P6SM
                       -RA OVC040 FM182300 20008KT P6SM -SHRA BKN040=
201305171725 TAF KPAE 171725Z 1718/1818 19012KT P6SM -SHRA SCT015 OVC050 FM172200
                       22010KT P6SM VCSH BKN040 FM180200 30006KT
                       P6SM VCSH BKN040 FM181000 VRB04KT P6SM BKN040
                       OVC100 FM181400 18012KT P6SM -RA OVC040=
201305171120 TAF KPAE 171120Z 1712/1812 18007KT P6SM VCSH SCT012 OVC045
                      TEMPO 1712/1716 -SHRA BKN012 FM171600 18005KT
                       P6SM VCSH SCT020 BKN045 FM172000 20007KT
                       P6SM VCSH BKN050 FM180300 22005KT P6SM SCT050
                       SCT100=
201305170904 TAF AMD KPAE 170904Z 1709/1806 18005KT P6SM VCSH SCT025 OVC050
                       TEMPO 1709/1712 BKN025 FM171200 16005KT
                       P6SM VCSH SCT020 BKN040 FM172000 20007KT
                       P6SM VCSH SCT040=
201305170526 TAF KPAE 170526Z 1706/1806 VRB03KT P6SM VCSH SCT060 SCT100 BKN200
                       FM170800 18005KT P6SM VCSH BKN050 FM171200
                       16005KT P6SM VCSH SCT020 BKN040 FM172000
                       20007KT P6SM VCSH SCT040=
201305162320 TAF KPAE 162320Z 1700/1724 33005KT P6SM VCSH SCT030 FM170700 18005KT
                       P6SM OVC020 FM171800 21007KT P6SM SCT020
                       BKN050=
201305161725 TAF KPAE 161725Z 1618/1718 20005KT P6SM SCT010 BKN025 FM162300
                       30005KT P6SM VCSH BKN030 FM170900 18005KT
                       P6SM OVC020=
201305161120 TAF KPAE 161120Z 1612/1712 19004KT P6SM VCSH SCT007 BKN010 OVC030
                       FM161800 20005KT P6SM SCT020 BKN035 FM162300
                       34005KT P6SM VCSH BKN035 FM170900 12005KT
                       P6SM OVC020=
201305160520 TAF KPAE 160520Z 1606/1706 16004KT P6SM -SHRA SCT004 BKN015 OVC030
                       FM161000 19004KT P6SM VCSH SCT007 BKN012
                       OVC030 FM161800 20005KT P6SM SCT025 BKN035
                       FM162000 25007KT P6SM BKN035=
201305152343 TAF KPAE 152343Z 1600/1624 20005KT P6SM -RA BKN035 OVC050 FM160400
                       18005KT P6SM -SHRA BKN025 BKN040 FM161000
                       16005KT P6SM VCSH BKN012 OVC028 FM161800
                       28006KT P6SM SCT035 FM162100 01006KT P6SM
                       SCT035=
201305152025 TAF AMD KPAE 152025Z 1520/1618 26006KT P6SM SCT035 OVC070 FM152200
                       24006KT P6SM -RA OVC035 FM160400 18005KT
                       P6SM -SHRA BKN025 BKN040 FM161000 16005KT
                       P6SM VCSH BKN012 OVC028=
201305151732 TAF KPAE 151732Z 1518/1618 16005KT P6SM SCT050 OVC100 FM152000
                       16005KT P6SM -RA BKN035 OVC050 FM160400
                       18005KT P6SM -SHRA BKN025 BKN040 FM161000
                       16005KT P6SM VCSH BKN012 OVC028=
201305151503 TAF AMD KPAE 151503Z 1515/1612 16005KT P6SM SCT050 OVC100 FM152000
                       16005KT P6SM -RA BKN035 OVC050 FM160400
                       18005KT P6SM -SHRA BKN025 BKN040 FM161000
                       16005KT P6SM VCSH BKN012 OVC028=
201305151122 TAF KPAE 151122Z 1512/1612 12003KT P6SM SCT100 SCT200 FM151500
                       14005KT P6SM BKN045 OVC070 FM151700 16005KT
                       P6SM -RA BKN028 OVC045 FM160400 18005KT
                       P6SM -SHRA BKN025 BKN040 FM161000 16005KT
                       P6SM VCSH BKN012 OVC028=
201305150520 TAF KPAE 150520Z 1506/1606 00000KT P6SM SCT080 SCT120 SCT250 FM151200
                       VRB03KT P6SM BKN045 OVC080 FM151700 16005KT
                       P6SM -RA BKN028 OVC045 FM160400 18005KT
                       P6SM -SHRA BKN025 BKN040=
201305142326 TAF KPAE 142326Z 1500/1524 25006KT P6SM SCT040 SCT250 FM151200
                       02005KT P6SM BKN045 OVC080 FM151700 15004KT
                       P6SM -RA BKN025 OVC045 FM152200 26006KT
                       P6SM VCSH SCT025 BKN045=
201305141738 TAF KPAE 141738Z 1418/1518 17009KT P6SM SCT025 SCT110 BKN250
                      TEMPO 1418/1421 BKN022 FM142100 29006KT P6SM
                       SCT040 SCT250 FM150000 33006KT P6SM SCT120
                       SCT250 FM151200 02005KT P6SM BKN045 OVC080
                       FM151600 15004KT P6SM -RA BKN025 OVC045=
201305141120 TAF KPAE 141120Z 1412/1512 16007KT P6SM OVC025 FM141600 17004KT
                       P6SM SCT025 BKN140 FM142100 31005KT P6SM
                       SCT045 BKN120 FM150200 36003KT P6SM SCT040
                       BKN100 FM150600 VRB03KT P6SM OVC040=
201305140959 TAF AMD KPAE 140959Z 1410/1506 16008KT P6SM BKN020 BKN028 BKN150
                       FM141600 17004KT P6SM SCT020 BKN150 FM142100
                       31005KT P6SM SCT045 BKN200 FM150200 36003KT
                       P6SM SCT045 BKN200=
201305140902 KPAE 140902Z 1409/1506 15007KT P6SM FEW015 BKN150
                      TEMPO 1411/1415 BKN015 BKN150 FM141600 17004KT
                       P6SM SCT020 BKN150 FM142100 31005KT P6SM
                       SCT045 BKN200 FM150200 36003KT P6SM SCT045
                       BKN200=
201305140534 TAF KPAE 140534Z 1406/1506 19009KT P6SM FEW035 FM140900 17006KT
                       P6SM SCT020 BKN030
                      TEMPO 1411/1415 BKN018 OVC030 FM141600 17004KT
                       P6SM SCT045 BKN200 FM142100 31005KT P6SM
                       SCT045 BKN200 FM150200 36003KT P6SM SCT045
                       BKN200=
201305140204 TAF AMD KPAE 140204Z 1402/1424 20015G21KT P6SM SCT045 BKN100 FM140500
                       17006KT P6SM BKN040 FM141800 19004KT P6SM
                       SCT040 BKN200=
201305140140 TAF AMD KPAE 140140Z 1402/1424 VRB04KT P6SM FEW028 BKN100 FM140500
                       17006KT P6SM BKN040 FM141800 19004KT P6SM
                       SCT040 BKN200=
201305132326 TAF KPAE 132326Z 1400/1424 20024G34KT P6SM -SHRA SCT025 BKN040
                       TEMPO 1400/1403 P6SM -TSRA BKN020CB OVC050
                       FM140300 23011KT P6SM VCSH SCT030 BKN040
                       FM140600 17006KT P6SM BKN040 FM141800 19004KT
                       P6SM SCT040 BKN200=
201305131934 TAF AMD KPAE 131934Z 1320/1418 20016G24KT P6SM VCSH SCT024 BKN030
                       FM132100 18016G24KT P6SM -SHRA SCT025 BKN035
                       OVC050
                      TEMPO 1321/1401 4SM -TSRA BR SCT015 BKN025CB
                       OVC035 FM140100 19015G28KT P6SM -SHRA SCT025
                       BKN035 FM140500 18012G22KT P6SM VCSH SCT025
                       BKN035 FM140900 17005KT P6SM SCT025 BKN035=
201305131732 TAF KPAE 131732Z 1318/1418 20013KT P6SM VCSH BKN022 BKN035 OVC080
                       FM132100 18016G24KT P6SM -SHRA SCT025 BKN035
                       OVC050
                      TEMPO 1321/1401 4SM -TSRA BR SCT015 BKN025CB
                       OVC035 FM140100 19015G28KT P6SM -SHRA SCT025
                       BKN035 FM140500 18012G22KT P6SM VCSH SCT025
                       BKN035 FM140900 17005KT P6SM SCT025 BKN035=
201305131120 TAF KPAE 131120Z 1312/1412 17010KT P6SM SCT020 BKN070 FM131500
                       17014G20KT P6SM -SHRA SCT010 BKN022 OVC040
                       FM132100 18016G24KT 6SM -SHRA BR SCT025
                       BKN035 OVC050
                      TEMPO 1321/1401 4SM -TSRA BR SCT015 BKN025CB
                       OVC035 FM140100 19021G32KT P6SM -SHRA SCT025
                       BKN035 FM140500 18012G22KT P6SM VCSH SCT025
                       BKN035 FM140900 17005KT P6SM SCT025 BKN035=
201305130520 TAF KPAE 130520Z 1306/1406 20013KT P6SM VCSH SCT040 BKN080 FM130900
                       17008KT P6SM SCT020 BKN030 OVC100 FM131500
                       17014G20KT P6SM -RA SCT030 BKN050 OVC080
                       FM132100 18016G24KT 6SM -SHRA BR SCT025
                       BKN035 OVC050
                      PROB30 1321/1401 4SM -TSRA BR SCT015 BKN025CB
                       OVC035 FM140100 19021G32KT P6SM -SHRA SCT025
                       BKN035 FM140500 18012G22KT P6SM VCSH SCT025
                       BKN035=
201305130303 TAF AMD KPAE 130303Z 1303/1324 21010KT P6SM BKN060 OVC070 FM130700
                       17008KT P6SM SCT020 BKN030 OVC100 FM131500
                       17014G20KT P6SM -RA SCT030 BKN050 OVC080
                       FM132000 18016G24KT 6SM -SHRA BR SCT025
                       BKN035 OVC050
                      PROB30 1321/1324 4SM -TSRA BR SCT015 BKN025CB
                       OVC035=
201305130139 TAF AMD KPAE 130139Z 1302/1324 20011KT P6SM VCSH OVC100 FM130300
                       18010G18KT P6SM SCT035 BKN060 FM130700 17008KT
                       P6SM SCT020 BKN030 OVC100 FM131500 17014G20KT
                       P6SM -RA SCT030 BKN050 OVC080 FM132000 18016G24KT
                       6SM -SHRA BR SCT025 BKN035 OVC050
                      PROB30 1321/1324 4SM -TSRA BR SCT015 BKN025CB
                       OVC035=
201305122347 TAF KPAE 122347Z 1300/1324 19013G22KT P6SM VCSH SCT035 BKN070 FM130300
                       18010G18KT P6SM SCT035 BKN060 FM130700 17008KT
                       P6SM SCT020 BKN030 OVC100 FM131500 17014G20KT
                       P6SM -RA SCT030 BKN050 OVC080 FM132000 18016G24KT
                       6SM -SHRA BR SCT025 BKN035 OVC050
                      PROB30 1321/1324 4SM -TSRA BR SCT015 BKN025CB
                       OVC035=
201305121740 TAF KPAE 121740Z 1218/1318 18015KT P6SM VCSH SCT030 OVC080 FM122300
                       19013KT P6SM VCSH SCT030 BKN045 FM130600
                       17008KT P6SM SCT020 BKN030 OVC100 FM131500
                       17014G20KT P6SM -RA SCT030 BKN050 OVC080=
201305121300 TAF AMD KPAE 121300Z 1213/1312 19008KT 6SM -RA BR SCT010 BKN025
                       OVC050
                      TEMPO 1213/1216 3SM RA BR BKN005 OVC015 FM121600
                       18016KT P6SM -SHRA SCT020 BKN035 FM122300
                       20011KT P6SM VCSH SCT030 BKN045 FM130500
                       18006KT P6SM SCT030 BKN040=
201305121120 TAF KPAE 121120Z 1212/1312 19005KT 5SM -RA BR SCT020 BKN040 OVC050
                       TEMPO 1212/1216 2SM RA BR BKN020 OVC030
                       FM121600 18016KT P6SM -SHRA SCT020 BKN035
                       FM122300 20011KT P6SM VCSH SCT030 BKN045
                       FM130500 18006KT P6SM SCT030 BKN040=
201305120524 TAF KPAE 120524Z 1206/1306 VRB04KT P6SM SCT050 BKN100 BKN150 FM120900
                       17011KT P6SM SCT030 OVC040 FM121100 17013KT
                       P6SM VCSH SCT020 BKN030 OVC045
                      TEMPO 1212/1216 -RA BKN020 OVC030 FM121600
                       18016KT P6SM -SHRA SCT020 BKN035 FM122300
                       20011KT P6SM VCSH SCT030 BKN045=
201305112342 TAF KPAE 112342Z 1200/1224 18010KT P6SM SCT045 BKN120
                      TEMPO 1201/1204 30006KT FM120400 16008KT
                       P6SM SCT040 BKN070 FM120900 17013KT P6SM
                       VCSH SCT030 OVC040
                      TEMPO 1212/1216 BKN030 OVC040 FM121600 18016KT
                       P6SM -SHRA SCT030 BKN040 FM122300 20011KT
                       P6SM VCSH SCT035 BKN050=
201305111730 TAF KPAE 111730Z 1118/1218 21005KT P6SM SCT120 OVC200 FM120000
                       29006KT P6SM SCT045 BKN120 FM120400 16008KT
                       P6SM SCT040 BKN070 FM120900 17011KT P6SM
                       -RA SCT030 OVC040=
201305111120 TAF KPAE 111120Z 1112/1212 00000KT P6SM BKN250 FM112000 18008KT
                       P6SM BKN120 OVC250 FM112300 18011KT P6SM
                       BKN080 OVC120 FM120600 18011KT P6SM -RA
                       BKN050 OVC080=
201305110520 TAF KPAE 110520Z 1106/1206 36004KT P6SM BKN200 FM110900 15004KT
                       P6SM BKN200 FM112000 18008KT P6SM BKN120
                       OVC250 FM112300 18011KT P6SM BKN080 OVC120=
201305102345 TAF KPAE 102345Z 1100/1124 31005KT P6SM BKN250 FM110900 15004KT
                       P6SM BKN200 FM112000 18006KT P6SM BKN120
                       OVC250=
201305101741 TAF KPAE 101741Z 1018/1118 31004KT P6SM SCT250 FM110400 04004KT
                       P6SM SCT250 FM111200 16004KT P6SM SCT250=
201305101120 TAF KPAE 101120Z 1012/1112 03004KT P6SM SKC
                      TEMPO 1012/1016 4SM BR BKN002 FM102000 34004KT
                       P6SM SKC=
201305100520 TAF KPAE 100520Z 1006/1106 01004KT P6SM SKC FM101200 VRB03KT P6SM
                       SKC
                      TEMPO 1012/1016 BKN002 FM102000 34004KT P6SM
                       SKC=
201305092320 TAF KPAE 092320Z 1000/1024 35004KT P6SM SKC FM101200 VRB03KT P6SM
                       SKC
                      TEMPO 1012/1016 BKN002 FM102000 34004KT P6SM
                       SKC=
201305091720 TAF KPAE 091720Z 0918/1018 35004KT 2SM BR OVC002
                      TEMPO 0918/0919 1/2SM FG VV002 FM091900 35004KT
                       P6SM BKN007 FM092000 35004KT P6SM SKC=
201305091506 TAF AMD KPAE 091506Z 0915/1012 VRB03KT 2SM BR OVC001
                      TEMPO 0915/0917 1/4SM FG VV001 FM091800 31004KT
                       P6SM BKN010 FM092000 31004KT P6SM SKC=
201305091213 TAF AMD KPAE 091213Z 0912/1012 02005KT 3SM BR OVC001
                      TEMPO 0912/0915 1/4SM FG VV001 FM091600 03002KT
                       P6SM OVC004 FM091800 31004KT P6SM SKC=
201305091120 TAF KPAE 091120Z 0912/1012 02005KT 4SM BR OVC001 FM091500 03002KT
                       P6SM OVC004 FM091800 31004KT P6SM SKC=
201305090522 TAF KPAE 090522Z 0906/1006 02003KT P6SM SKC FM091100 21003KT P6SM
                       OVC008 FM091600 VRB03KT P6SM OVC012 FM092000
                       31005KT P6SM SKC=
201305082320 TAF KPAE 082320Z 0900/0924 27007KT P6SM SKC FM090300 31005KT P6SM
                       SKC FM091100 VRB03KT P6SM OVC008 FM091600
                       VRB03KT P6SM OVC012 FM092000 31005KT P6SM
                       FEW020=
201305081725 TAF KPAE 081725Z 0818/0918 20005KT P6SM OVC010 FM082000 24005KT
                       P6SM OVC018 FM082200 29005KT P6SM SCT024
                       FM090000 31005KT P6SM SKC FM090900 VRB03KT
                       P6SM OVC008=
201305081430 KPAE 081430Z 0815/0912 20005KT P6SM OVC006 FM081700 19005KT P6SM
                       OVC012 FM081900 25006KT P6SM OVC020 FM082100
                       32006KT P6SM SKC=
201305081120 TAF KPAE 081120Z 0812/0912 21003KT P6SM OVC006 FM081700 19005KT
                       P6SM OVC015 FM082000 32006KT P6SM SKC=
201305080522 TAF KPAE 080522Z 0806/0906 02004KT P6SM SKC FM081100 16005KT P6SM
                       OVC010 FM081700 19005KT P6SM OVC020 FM081900
                       22006KT P6SM SKC=
201305072334 TAF KPAE 072334Z 0800/0824 23008KT P6SM SKC FM080900 16005KT P6SM
                       OVC020 FM081100 16005KT P6SM OVC010 FM081700
                       19005KT P6SM OVC020 FM081900 22006KT P6SM
                       SKC=
201305071900 TAF AMD KPAE 071900Z 0719/0818 20007KT P6SM SCT015 FM072100 22007KT
                       P6SM SKC FM081000 19005KT P6SM OVC015=
201305071725 TAF KPAE 071725Z 0718/0818 20008KT P6SM OVC010 FM072000 20009KT
                       P6SM OVC015 FM072200 21007KT P6SM BKN020
                       FM080100 20006KT P6SM SCT025 SCT200 FM080700
                       19005KT P6SM OVC015=
201305071444 TAF AMD KPAE 071444Z 0715/0812 20010KT P6SM OVC004 FM071700 20009KT
                       P6SM OVC007 FM071900 20009KT P6SM OVC010
                       FM072100 21007KT P6SM OVC015 FM072300 21007KT
                       P6SM BKN020 FM080200 20006KT P6SM SCT024
                       SCT200 FM080700 19005KT P6SM OVC020=
201305071120 TAF KPAE 071120Z 0712/0812 00000KT P6SM OVC004
                      TEMPO 0712/0716 2SM BR OVC004 FM071700 27005KT
                       P6SM SCT009 FM072000 32007KT P6SM SCT200=
201305070522 TAF KPAE 070522Z 0706/0806 VRB05KT P6SM SKC FM071200 22008KT P6SM
                       BKN007
                      TEMPO 0712/0716 2SM BR OVC004 FM071700 27007KT
                       P6SM SCT015 FM072100 27007KT P6SM SCT030
                       SCT060 SCT120=
201305062320 TAF KPAE 062320Z 0700/0724 30007KT P6SM SKC FM070300 27010KT P6SM
                       SKC FM071200 22008KT P6SM BKN007
                      TEMPO 0712/0716 2SM BR OVC004 FM071700 27007KT
                       P6SM SCT015 FM072100 27007KT P6SM SCT030
                       SCT060 SCT120=
201305061725 TAF KPAE 061725Z 0618/0718 VRB04KT P6SM SKC FM070300 27010KT P6SM
                       SKC FM071300 22008KT P6SM BKN007
                      TEMPO 0713/0716 2SM BR OVC004 FM071700 27007KT
                       P6SM SCT015=
201305061140 TAF KPAE 061140Z 0612/0712 VRB03KT P6SM SKC FM061800 31007KT P6SM
                       SKC FM070200 22007KT P6SM SKC FM070500 19013G22KT
                       P6SM SKC FM070700 17013G22KT P6SM VCFG OVC005=
201305060544 TAF KPAE 060544Z 0606/0706 VRB03KT P6SM SKC FM062000 31008KT P6SM
                       SKC FM070300 26004KT P6SM SKC=
201305052320 TAF KPAE 052320Z 0600/0624 36008KT P6SM SKC FM060300 03004KT P6SM
                       SKC FM060900 VRB03KT P6SM SKC FM061700 29006KT
                       P6SM SKC=
201305051720 TAF KPAE 051720Z 0518/0618 35006KT P6SM SKC FM052000 33010KT P6SM
                       SKC FM060300 36004KT P6SM SKC FM061200 VRB03KT
                       P6SM SKC=
201305051422 TAF AMD KPAE 051422Z 0514/0612 02004KT P6SM SKC FM051800 32006KT
                       P6SM SKC FM052000 33010KT P6SM SKC FM060200
                       VRB03KT P6SM SKC=
201305051123 TAF KPAE 051123Z 0512/0612 VRB03KT P6SM SKC FM051800 34006KT P6SM
                       SKC FM060200 VRB03KT P6SM SKC=
201305050528 TAF KPAE 050528Z 0506/0606 02004KT P6SM SKC FM051800 35004KT P6SM
                       SKC FM052100 32006KT P6SM SKC FM060200 VRB03KT
                       P6SM SKC=
201305050306 TAF AMD KPAE 050306Z 0503/0524 36006KT P6SM SKC FM050400 VRB03KT
                       P6SM SKC FM051600 35006KT P6SM SKC=
201305042327 TAF KPAE 042327Z 0500/0524 36009G15KT P6SM SKC FM050400 VRB03KT
                       P6SM SKC FM051600 35006KT P6SM SKC=
201305041730 TAF KPAE 041730Z 0418/0518 36007KT P6SM SKC FM041900 34006KT P6SM
                       SKC FM050200 VRB03KT P6SM SKC FM051600 35006KT
                       P6SM SKC=
201305041123 TAF KPAE 041123Z 0412/0512 VRB03KT P6SM SKC FM041900 34006KT P6SM
                       SKC FM050200 VRB03KT P6SM SKC=
201305040524 TAF KPAE 040524Z 0406/0506 VRB03KT P6SM SKC FM041900 34006KT P6SM
                       SKC FM050200 VRB03KT P6SM SKC=
201305040319 TAF AMD KPAE 040319Z 0403/0424 35006KT P6SM SKC FM040600 01003KT
                       P6SM SKC FM042000 35006KT P6SM SKC=
201305032328 TAF KPAE 032328Z 0400/0424 31010KT P6SM SKC FM040600 01003KT P6SM
                       SKC FM042000 35006KT P6SM SKC=
201305031732 TAF KPAE 031732Z 0318/0418 01006KT P6SM SKC FM032000 33010KT P6SM
                       SKC FM040300 01006KT P6SM SKC FM040600 VRB03KT
                       P6SM SKC=
201305031120 TAF KPAE 031120Z 0312/0412 VRB03KT P6SM SKC FM032000 33011KT P6SM
                       SKC FM040300 01006KT P6SM SKC FM040600 VRB03KT
                       P6SM SKC=
201305031002 TAF AMD KPAE 031002Z 0310/0406 VRB03KT P6SM SKC FM032000 32011KT
                       P6SM SKC FM040300 36007KT P6SM SKC=
201305030520 TAF KPAE 030520Z 0306/0406 35006KT P6SM SCT200 FM032000 32011KT
                       P6SM SKC FM040300 36007KT P6SM SKC=
201305030305 TAF AMD KPAE 030305Z 0303/0324 36010KT P6SM FEW130 BKN200 FM030600
                       04006KT P6SM SCT150 FM032000 34010KT P6SM
                       SKC=
201305022320 TAF KPAE 022320Z 0300/0324 34010KT P6SM OVC200 FM030600 04006KT
                       P6SM SCT150 FM032000 34010KT P6SM SKC=
201305021720 TAF KPAE 021720Z 0218/0318 32008KT P6SM SCT250 FM022200 32010KT
                       P6SM BKN150 OVC200 FM030800 VRB04KT P6SM
                       SCT150=
201305021120 TAF KPAE 021120Z 0212/0312 02004KT P6SM BKN250 FM021800 33009KT
                       P6SM SCT150 OVC250 FM030300 36006KT P6SM
                       BKN250 FM030600 VRB03KT P6SM FEW250=
201305020924 TAF AMD KPAE 020924Z 0209/0306 02004KT P6SM BKN250 FM021800 33009KT
                       P6SM SCT150 OVC250 FM030300 36006KT P6SM
                       BKN250=
201305020525 TAF KPAE 020525Z 0206/0306 36004KT P6SM BKN250 FM021800 33009KT
                       P6SM SCT150 OVC250 FM030300 36006KT P6SM
                       BKN250=
201305020306 TAF AMD KPAE 020306Z 0203/0224 36005KT P6SM BKN250=
201305012320 TAF KPAE 012320Z 0200/0224 36006KT P6SM BKN250=
201305011721 TAF KPAE 011721Z 0118/0218 34006KT P6SM SKC=
201305011130 TAF KPAE 011130Z 0112/0212 11005KT P6SM SKC FM011800 31006KT P6SM
                       SKC FM020600 36003KT P6SM SKC=
201305010520 TAF KPAE 010520Z 0106/0206 VRB03KT P6SM SKC FM011800 31006KT P6SM
                       SKC=