##########################################################
# Query made at 02/15/2025 20:49:26 UTC
# Time interval: from 09/01/2013 00:00  to 09/30/2013 23:59  UTC
##########################################################

##########################################################
# KPAE, Everett, Snohomish County Airport (United States)
# WMO index: -----. WIGOS ID: Unknown
# Latitude 47-55-23N. Longitude 122-16-57W. Altitude 184 m.
##########################################################

###################################
#  METAR/SPECI from KPAE
###################################
201309302353 METAR KPAE 302353Z 20021G31KT 10SM FEW023 SCT080 BKN100 13/07 A2978 RMK AO2 PK WND 19031/2346 SLP083 T01280072 10144 20122 51014=
201309302253 METAR KPAE 302253Z 18017G22KT 10SM FEW080 14/07 A2977=
201309302153 METAR KPAE 302153Z 19016G22KT 10SM FEW024 BKN080 BKN110 13/07 A2977 RMK AO2 PK WND 20027/2104 SLP080 T01330072=
201309302053 METAR KPAE 302053Z 18014G24KT 10SM FEW090 SCT120 14/07 A2973 RMK AO2 PK WND 18027/2022 SLP069 T01440072 53018=
201309301953 METAR KPAE 301953Z 18017G27KT 10SM SCT110 12/07 A2971 RMK AO2 PK WND 18027/1945 SLP061 T01220067=
201309301910 SPECI KPAE 301910Z 19013KT 10SM SCT018 BKN080 BKN100 13/08 A2970 RMK AO2=
201309301853 METAR KPAE 301853Z 20010KT 10SM BKN018 BKN100 BKN120 12/08 A2970 RMK AO2 SLP056 T01220083=
201309301837 SPECI KPAE 301837Z 19017KT 10SM BKN016 BKN100 12/09 A2969 RMK AO2=
201309301815 SPECI KPAE 301815Z 20014KT 10SM SCT018 12/08 A2969 RMK AO2=
201309301808 SPECI KPAE 301808Z 21015G21KT 10SM SCT016 BKN020 12/08 A2969 RMK AO2=
201309301801 SPECI KPAE 301801Z 21013G20KT 10SM SCT014 BKN120 13/09 A2968 RMK AO2=
201309301753 METAR KPAE 301753Z 21012G18KT 10SM BKN014 13/09 A2968 RMK AO2 SLP050 60000 T01280089 10128 20094 51036=
201309301653 METAR KPAE 301653Z 19015G18KT 10SM OVC012 11/09 A2965=
201309301628 SPECI KPAE 301628Z 18011KT 10SM BKN012 OVC060 11/08 A2963 RMK AO2 RAE24 P0000=
201309301600 SPECI KPAE 301600Z 19014KT 10SM -RA FEW016 BKN060 OVC080 11/08 A2962 RMK AO2 P0000=
201309301553 METAR KPAE 301553Z 19015KT 10SM -RA FEW015 BKN023 OVC085 11/08 A2961 RMK AO2 RAB34 SLP029 P0000 T01060083=
201309301453 METAR KPAE 301453Z 17009G17KT 10SM BKN017 BKN023 11/07 A2957 RMK AO2 SLP013 T01060072 53021=
201309301439 SPECI KPAE 301439Z 19010KT 10SM BKN015 BKN110 11/07 A2956 RMK AO2=
201309301353 METAR KPAE 301353Z 18014G21KT 10SM FEW012 10/08 A2954 RMK AO2 SLP002 T01000078=
201309301253 METAR KPAE 301253Z 16014KT 10SM SCT012 09/08 A2951 RMK AO2 RAE1154 SLP994 T00940078=
201309301246 SPECI KPAE 301246Z 16014G17KT 10SM FEW012 SCT029 SCT075 10/08 A2951 RMK AO2 RAE1154=
201309301213 SPECI KPAE 301213Z AUTO 16012KT 10SM BKN016 BKN026 10/07 A2951 RMK AO2 RAE1154=
201309301204 SPECI KPAE 301204Z AUTO 18015KT 10SM SCT016 SCT022 10/07 A2951 RMK AO2 RAE1154=
201309301153 METAR KPAE 301153Z AUTO 18017G22KT 10SM -RA BKN016 BKN022 BKN029 10/07 A2951 RMK AO2 PK WND 20028/1122 RAB15E26B45 SLP992 P0000 60000 70040 T01000067 10111 20089 50020=
201309301053 METAR KPAE 301053Z AUTO 18013G22KT 10SM BKN020 BKN050 OVC095 09/07 A2951 RMK AO2 PK WND 21030/1009 SLP993 T00940067=
201309301046 SPECI KPAE 301046Z AUTO 19017G22KT 10SM BKN018 BKN090 09/06 A2950 RMK AO2 PK WND 21030/1009=
201309300953 METAR KPAE 300953Z AUTO 20019G28KT 10SM CLR 09/06 A2946 RMK AO2 PK WND 19035/0921 SLP975 T00940056=
201309300853 METAR KPAE 300853Z AUTO 19021G28KT 10SM FEW018 09/06 A2945 RMK AO2 PK WND 19031/0843 RAB29E42 SLP972 P0000 60000 T00940056 50043=
201309300753 METAR KPAE 300753Z AUTO 19018KT 10SM FEW075 10/06 A2945 RMK AO2 PK WND 21029/0654 SLP973 T01000061 401220100=
201309300653 METAR KPAE 300653Z AUTO 20022G35KT 10SM FEW026 SCT085 11/07 A2940=
201309300553 METAR KPAE 300553Z AUTO 20024G32KT 10SM FEW110 11/07 A2932 RMK AO2 PK WND 20033/0528 RAE0454 PRESRR SLP928 60025 T01110067 10122 20106 51052=
201309300453 METAR KPAE 300453Z AUTO 19025G31KT 10SM -RA FEW050 BKN090 OVC110 12/09 A2926=
201309300353 METAR KPAE 300353Z AUTO 17014G22KT 4SM RA BR FEW020 SCT037 OVC047 12/10 A2923 RMK AO2 PK WND 15026/0305 SLP898 P0014 T01170100=
201309300253 METAR KPAE 300253Z 15016G23KT 6SM -RA BKN060 OVC075 12/08 A2916=
201309300153 METAR KPAE 300153Z 15010G19KT 110V180 10SM -RA BKN065 OVC080 12/08 A2923 RMK AO2 PRESFR SLP899 P0002 T01170078=
201309300053 METAR KPAE 300053Z 13007G17KT 10SM -RA OVC070 11/08 A2932 RMK AO2 PRESFR SLP927 P0001 T01110078=
201309292353 METAR KPAE 292353Z 15013G22KT 9SM -RA BKN050 OVC070 11/08 A2941 RMK AO2 SLP958 P0000 60003 T01110078 10122 20111 58043=
201309292300 SPECI KPAE 292300Z 15012G25KT 9SM -RA FEW048 BKN065 OVC080 11/08 A2945 RMK AO2 P0000=
201309292253 METAR KPAE 292253Z 14011G25KT 100V170 9SM -RA BKN018 BKN048 OVC070 11/08 A2946 RMK AO2 SLP975 P0000 T01110083=
201309292153 METAR KPAE 292153Z 16012KT 10SM -RA BKN018 OVC023 11/09 A2951 RMK AO2 PK WND 15030/2102 SLP992 P0002 T01110089=
201309292053 METAR KPAE 292053Z 17015G27KT 7SM -RA FEW012 BKN020 OVC046 11/09 A2954 RMK AO2 PK WND 16027/2046 SLP002 P0001 60001 T01110089 58000=
201309292043 SPECI KPAE 292043Z 17014G26KT 9SM -RA SCT017 BKN026 OVC070 12/09 A2954 RMK AO2 PK WND 17026/2036 P0001=
201309291953 METAR KPAE 291953Z 16021G27KT 10SM -RA SCT015 BKN046 12/09 A2954 RMK AO2 PK WND 16030/1922 RAB21 SLP002 P0000 T01170089=
201309291853 METAR KPAE 291853Z 17018G28KT 10SM SCT015 BKN046 12/08 A2954 RMK AO2 PK WND 16028/1846 SLP004 T01220083=
201309291753 METAR KPAE 291753Z 16021G27KT 10SM FEW015 SCT022 BKN046 12/08 A2954 RMK AO2 PK WND 18031/1742 SLP002 60012 T01220083 10122 20106 50000=
201309291748 SPECI KPAE 291748Z 17015G31KT 10SM FEW021 SCT026 BKN046 12/08 A2954 RMK AO2 PK WND 18031/1742=
201309291724 SPECI KPAE 291724Z 18015G27KT 10SM BKN026 12/08 A2954 RMK AO2 PK WND 19029/1657=
201309291653 METAR KPAE 291653Z 18020G28KT 10SM SCT028 BKN040 12/09 A2954 RMK AO2 PK WND 18028/1653 RAB12E32 SLP003 P0000 T01220089=
201309291600 SPECI KPAE 291600Z 18013G23KT 10SM BKN013 BKN034 OVC044 12/09 A2954 RMK AO2=
201309291553 METAR KPAE 291553Z COR 18018G23KT 10SM BKN013 BKN034 OVC044 11/09 A2954 RMK AO2 RAE45 SLP002 P0004 T01110089=
201309291456 SPECI KPAE 291456Z 18018G25KT 4SM -RA BR BKN013 OVC060 11/09 A2953 RMK AO2 P0000=
201309291453 METAR KPAE 291453Z 18021G25KT 5SM -RA BR FEW045 BKN060 OVC095 11/09 A2953 RMK AO2 RAE06B25 SLP000 P0001 60008 T01110089 53003=
201309291353 METAR KPAE 291353Z 17016G21KT 7SM -RA FEW016 OVC041 11/09 A2951 RMK AO2 PK WND 17026/1305 RAB1257E07B25 SLP995 P0007 T01110089=
201309291345 SPECI KPAE 291345Z 17016KT 4SM RA BR SCT017 SCT026 OVC049 11/09 A2952 RMK AO2 PK WND 17026/1305 RAB1257E07B25 P0006=
201309291253 METAR KPAE 291253Z AUTO 18019G26KT 10SM BKN022 BKN032 OVC060 11/08 A2952 RMK AO2 PK WND 18026/1253 SLP996 T01110083=
201309291201 SPECI KPAE 291201Z AUTO 17015G30KT 10SM SCT017 BKN060 11/08 A2950 RMK AO2 PK WND 17026/1201=
201309291153 METAR KPAE 291153Z AUTO 18022G30KT 10SM SCT018 BKN027 BKN055 11/08 A2950 RMK AO2 PK WND 19030/1152 RAE15 SLP989 P0000 60016 70064 T01110083 10117 20106 50002=
201309291127 SPECI KPAE 291127Z AUTO 18019G26KT 10SM SCT020 BKN027 OVC055 11/08 A2950 RMK AO2 PK WND 18027/1104 RAE15 P0000=
201309291053 METAR KPAE 291053Z AUTO 17016G27KT 10SM -RA BKN030 BKN039 OVC055 11/09 A2950 RMK AO2 PK WND 18028/1032 SLP990 P0003 T01110089=
201309290953 METAR KPAE 290953Z AUTO 18019G25KT 9SM -RA SCT028 BKN039 OVC050 11/09 A2950 RMK AO2 PK WND 18029/0925 SLP988 P0004 T01110089=
201309290853 METAR KPAE 290853Z AUTO 18016G28KT 10SM -RA FEW019 BKN048 OVC075 11/08 A2950 RMK AO2 PK WND 18028/0844 SLP987 P0009 60009 T01110083 50013=
201309290753 METAR KPAE 290753Z AUTO 18015G21KT 10SM -RA FEW048 BKN055 OVC075 11/09 A2950 RMK AO2 PK WND 18029/0700 RAB29 SLP987 P0000 T01110089 401560100=
201309290715 SPECI KPAE 290715Z AUTO 17015G22KT 10SM FEW015 BKN075 OVC100 11/08 A2948 RMK AO2 PK WND 18029/0700=
201309290707 SPECI KPAE 290707Z AUTO 17015G29KT 10SM SCT015 BKN028 BKN065 11/08 A2948 RMK AO2 PK WND 18029/0700=
201309290653 METAR KPAE 290653Z AUTO 18017G24KT 10SM FEW015 SCT100 11/08 A2948 RMK AO2 PK WND 19027/0603 SLP982 T01110083=
201309290553 METAR KPAE 290553Z AUTO 18018G31KT 10SM CLR 11/09 A2946 RMK AO2 PK WND 18031/0549 SLP974 60005 T01110089 10156 20111 51012=
201309290453 METAR KPAE 290453Z AUTO 18023G34KT 10SM SCT070 OVC090 12/09 A2946 RMK AO2 PK WND 18034/0453 SLP974 T01170089=
201309290431 SPECI KPAE 290431Z AUTO 18022G29KT 10SM SCT015 BKN075 OVC095 12/09 A2945 RMK AO2 PK WND 19029/0427=
201309290421 SPECI KPAE 290421Z AUTO 18021G29KT 10SM BKN017 OVC100 12/09 A2945 RMK AO2 PK WND 19029/0419=
201309290408 SPECI KPAE 290408Z AUTO 18021G29KT 10SM FEW017 SCT021 BKN100 12/09 A2944 RMK AO2 PK WND 17029/0359=
201309290400 SPECI KPAE 290400Z AUTO 18021G29KT 10SM FEW016 BKN021 BKN100 12/09 A2943 RMK AO2 PK WND 17029/0359=
201309290353 METAR KPAE 290353Z AUTO 18021G30KT 10SM SCT018 SCT024 BKN034 11/09 A2944 RMK AO2 PK WND 18034/0313 SLP967 T01110089=
201309290326 SPECI KPAE 290326Z 18020G31KT 10SM FEW014 BKN038 BKN080 12/09 A2943 RMK AO2 PK WND 18034/0313=
201309290253 METAR KPAE 290253Z 18025G31KT 10SM SCT012 BKN018 OVC026 12/09 A2942 RMK AO2 PK WND 18035/0229 RAB0155E19 SLP962 P0000 60005 T01170094 53020=
201309290217 SPECI KPAE 290217Z 18019G27KT 10SM -RA BKN014 BKN048 OVC085 12/09 A2941 RMK AO2 PK WND 18029/0158 RAB0155 P0000=
201309290153 METAR KPAE 290153Z 18021G29KT 10SM SCT016 SCT080 OVC100 12/09 A2939 RMK AO2 PK WND 18031/0141 RAE45 SLP952 P0002 T01170094=
201309290053 METAR KPAE 290053Z 20019G29KT 8SM -RA OVC075 13/11 A2939 RMK AO2 PK WND 20033/0007 SLP950 P0003 T01330106=
201309290000 SPECI KPAE 290000Z 19023G29KT 8SM -RA FEW014 BKN050 OVC070 15/12 A2936 RMK AO2 PK WND 19029/2358 P0000=
201309282353 METAR KPAE 282353Z 19023G30KT 2 1/2SM -RA BR SCT009 BKN046 OVC075 16/13 A2936 RMK AO2 PK WND 18033/2336 SLP941 P0008 60029 T01560133 10156 20144 55016=
201309282326 SPECI KPAE 282326Z 17018G28KT 2 1/2SM -RA BR SCT009 BKN026 OVC037 15/13 A2935 RMK AO2 PK WND 16033/2255 P0002=
201309282253 METAR KPAE 282253Z 17019G31KT 2 1/2SM -RA BR SCT009 BKN048 OVC075 15/13 A2936 RMK AO2 PK WND 18037/2205 SLP940 P0009 T01500128=
201309282232 SPECI KPAE 282232Z 17019G28KT 2 1/2SM -RA BR FEW009 BKN055 OVC080 15/13 A2937 RMK AO2 PK WND 18037/2205 P0004=
201309282200 SPECI KPAE 282200Z 16020G30KT 3SM -RA FEW009 BKN055 OVC080 15/12 A2937 RMK AO2 PK WND 16030/2200 P0000=
201309282153 METAR KPAE 282153Z 17019G29KT 3SM RA BKN009 BKN047 OVC065 15/12 A2937 RMK AO2 PK WND 15032/2106 RAB2055 SLP945 P0006 T01500122=
201309282113 SPECI KPAE 282113Z 15016G32KT 6SM -RA BR BKN009 BKN047 OVC065 15/13 A2939 RMK AO2 PK WND 15032/2106 RAB2055 P0001=
201309282104 SPECI KPAE 282104Z 16017G26KT 10SM -RA SCT011 BKN047 OVC065 15/13 A2941 RMK AO2 PK WND 15026/2101 RAB2055 P0000=
201309282055 SPECI KPAE 282055Z 16016G26KT 10SM -RA SCT009 BKN017 OVC090 15/13 A2941 RMK AO2 RAB55 P0000=
201309282053 METAR KPAE 282053Z 16019G26KT 10SM BKN009 OVC020 14/13 A2941 RMK AO2 PK WND 16034/2031 RAE40 SLP957 P0001 60006 T01440128 58031=
201309282000 SPECI KPAE 282000Z 18020G27KT 5SM -RA BR OVC009 14/13 A2945 RMK AO2 PK WND 19027/2000 P0000=
201309281953 METAR KPAE 281953Z 17018G25KT 9SM -RA OVC090 14/12 A2946 RMK AO2 PK WND 19029/1934 SLP974 P0003 T01440122=
201309281853 METAR KPAE 281853Z 17017G26KT 10SM -RA FEW016 SCT070 OVC090 15/13 A2948 RMK AO2 PK WND 18028/1829 SLP981 P0002 T01500128=
201309281833 SPECI KPAE 281833Z 17017G28KT 10SM -RA SCT013 OVC085 15/13 A2948 RMK AO2 PK WND 18028/1829 P0001=
201309281753 METAR KPAE 281753Z 17020G26KT 7SM -RA BKN009 BKN070 OVC085 15/13 A2950 RMK AO2 PK WND 16026/1753 SLP988 P0002 60014 T01500128 10150 20100 57023=
201309281657 SPECI KPAE 281657Z 16019G27KT 3SM -RA BR BKN009 OVC065 14/13 A2953 RMK AO2 P0000=
201309281653 METAR KPAE 281653Z 17015G27KT 2SM -RA BR BKN011 OVC024 14/13 A2953 RMK AO2 PK WND 16032/1631 SLP998 P0004 T01440128=
201309281557 SPECI KPAE 281557Z 16013KT 2SM -RA BR BKN011 OVC024 12/11 A2954 RMK AO2 P0001=
201309281555 SPECI KPAE 281555Z 16012KT 2SM -RA BR FEW011 BKN016 OVC024 12/11 A2954 RMK AO2 P0000=
201309281553 METAR KPAE 281553Z 16013KT 2SM -RA BR BKN014 BKN026 12/11 A2954 RMK AO2 SLP003 P0002 T01220111=
201309281455 SPECI KPAE 281455Z 13007KT 110V170 3SM -RA BR BKN009 OVC018 11/09 A2957 RMK AO2 P0000=
201309281453 METAR KPAE 281453Z 12008KT 2 1/2SM -RA BR BKN015 OVC021 11/09 A2957=
201309281429 SPECI KPAE 281429Z 11008KT 2 1/2SM -RA BR OVC020 11/09 A2959 RMK AO2 PRESFR P0002=
201309281418 SPECI KPAE 281418Z 11006KT 7SM -RA BKN020 OVC037 11/09 A2961 RMK AO2 P0001=
201309281353 METAR KPAE 281353Z 12007KT 4SM -RA BR BKN044 BKN050 OVC070 11/10 A2963 RMK AO2 SLP032 P0003 T01110100=
201309281305 SPECI KPAE 281305Z AUTO 15005KT 7SM -RA SCT004 OVC035 12/10 A2967 RMK AO2 P0001=
201309281253 METAR KPAE 281253Z AUTO VRB04KT 10SM -RA BKN004 BKN030 OVC035 12/10 A2967 RMK AO2 SLP049 P0001 T01170100=
201309281251 SPECI KPAE 281251Z AUTO VRB05KT 10SM -RA BKN004 BKN030 OVC037 12/11 A2967 RMK AO2 P0001=
201309281211 SPECI KPAE 281211Z AUTO 15009KT 10SM -RA SCT006 OVC044 12/11 A2970 RMK AO2 P0000=
201309281153 METAR KPAE 281153Z AUTO 15008G17KT 10SM -RA BKN006 OVC048 12/11 A2971 RMK AO2 SLP062 P0004 60005 70009 T01170106 10128 20117 58033=
201309281137 SPECI KPAE 281137Z AUTO 15008KT 7SM -RA BKN006 BKN011 OVC055 12/11 A2972 RMK AO2 P0003=
201309281124 SPECI KPAE 281124Z AUTO 16010G16KT 9SM -RA FEW006 OVC055 12/11 A2974 RMK AO2 P0002=
201309281053 METAR KPAE 281053Z AUTO 16013G20KT 8SM -RA FEW016 SCT038 OVC065 12/10 A2975 RMK AO2 RAB26 SLP074 P0001 T01220100=
201309280953 METAR KPAE 280953Z AUTO 16012G19KT 10SM OVC085 13/10 A2978 RMK AO2 SLP085 T01280100=
201309280853 METAR KPAE 280853Z AUTO 18013KT 10SM FEW060 OVC100 12/10 A2981 RMK AO2 SLP095 T01220100 56015=
201309280753 METAR KPAE 280753Z AUTO 17012KT 10SM FEW011 12/10 A2982 RMK AO2 SLP099 T01220100 401330100=
201309280653 METAR KPAE 280653Z AUTO 17011KT 10SM FEW048 13/10 A2984 RMK AO2 SLP106 T01280100=
201309280553 METAR KPAE 280553Z AUTO 17011KT 10SM SCT011 13/10 A2986 RMK AO2 SLP111 T01280100 10133 20122 58013=
201309280516 SPECI KPAE 280516Z AUTO 16009KT 10SM OVC013 13/10 A2987 RMK AO2=
201309280501 SPECI KPAE 280501Z AUTO 16009KT 10SM OVC015 13/10 A2988 RMK AO2=
201309280453 METAR KPAE 280453Z AUTO 18008KT 10SM BKN013 OVC018 13/10 A2988 RMK AO2 SLP120 T01280100=
201309280437 SPECI KPAE 280437Z AUTO 16008KT 10SM BKN016 OVC024 13/10 A2988 RMK AO2=
201309280416 SPECI KPAE 280416Z AUTO 15007KT 10SM BKN014 BKN020 OVC025 13/10 A2989 RMK AO2=
201309280353 METAR KPAE 280353Z AUTO 18006KT 10SM FEW008 BKN027 BKN032 13/11 A2989 RMK AO2 SLP123 T01280106=
201309280300 SPECI KPAE 280300Z 18010KT 10SM FEW008 BKN029 12/10 A2990 RMK AO2=
201309280253 METAR KPAE 280253Z 17007KT 10SM BKN008 BKN013 OVC018 12/10 A2990 RMK AO2 SLP125 T01220100 58011=
201309280215 SPECI KPAE 280215Z 18007KT 10SM BKN008 BKN013 OVC018 12/11 A2991 RMK AO2=
201309280213 SPECI KPAE 280213Z 18009KT 10SM FEW010 BKN018 12/11 A2991 RMK AO2=
201309280153 METAR KPAE 280153Z 19010KT 10SM BKN010 OVC020 12/11 A2991 RMK AO2 SLP130 T01220106=
201309280053 METAR KPAE 280053Z 19009KT 10SM OVC008 12/10 A2992 RMK AO2 SLP133 T01220100=
201309272353 METAR KPAE 272353Z 20011KT 10SM OVC010 12/09 A2993 RMK AO2 SLP136 T01220094 10133 20111 56004=
201309272253 METAR KPAE 272253Z 19012KT 10SM OVC014 13/09 A2993 RMK AO2 SLP137 T01280094=
201309272153 METAR KPAE 272153Z 19015G23KT 10SM OVC014 13/09 A2994 RMK AO2 SLP138 T01280089=
201309272053 METAR KPAE 272053Z 18017G21KT 10SM OVC016 13/09 A2994 RMK AO2 SLP140 T01280089 56015=
201309271953 METAR KPAE 271953Z 18011G22KT 10SM OVC016 13/09 A2996 RMK AO2 SLP145 T01280089=
201309271910 SPECI KPAE 271910Z 17013G19KT 10SM OVC016 12/09 A2996 RMK AO2=
201309271900 SPECI KPAE 271900Z 17014G20KT 10SM OVC014 12/09 A2997 RMK AO2=
201309271853 METAR KPAE 271853Z 17014G20KT 10SM BKN009 BKN031 OVC035 12/09 A2997 RMK AO2 SLP149 T01220094=
201309271753 METAR KPAE 271753Z 16014G20KT 10SM BKN009 OVC031 11/09 A2999 RMK AO2 SLP156 60004 T01110089 10117 20106 58011=
201309271653 METAR KPAE 271653Z 16011KT 10SM BKN009 BKN021 OVC042 11/09 A3001 RMK AO2 RAE42 SLP163 P0001 T01060089=
201309271628 SPECI KPAE 271628Z 16012G18KT 8SM -RA BKN009 BKN027 OVC044 11/09 A3001 RMK AO2 P0001=
201309271610 SPECI KPAE 271610Z 16011KT 10SM SCT008 BKN027 OVC050 11/09 A3002 RMK AO2 RAE09 P0000=
201309271553 METAR KPAE 271553Z 16015G21KT 10SM -RA SCT008 OVC060 11/09 A3001 RMK AO2 SLP163 P0001 T01110089=
201309271453 METAR KPAE 271453Z 17012KT 7SM -RA OVC070 11/08 A3002 RMK AO2 RAE04B20 SLP167 P0002 60002 T01110083 58011=
201309271353 METAR KPAE 271353Z 15009KT 10SM -RA FEW017 SCT031 OVC070 11/08 A3004 RMK AO2 RAB28E37B53 SLP172 P0000 T01110078=
201309271253 METAR KPAE 271253Z AUTO 16009KT 10SM FEW016 OVC095 11/08 A3005 RMK AO2 SLP177 T01110078=
201309271220 SPECI KPAE 271220Z AUTO 16009KT 10SM SCT018 OVC100 11/08 A3006 RMK AO2=
201309271153 METAR KPAE 271153Z AUTO 16009G15KT 10SM BKN018 OVC110 11/08 A3006 RMK AO2 SLP179 T01060078 10117 20100 58018=
201309271053 METAR KPAE 271053Z AUTO 16009KT 10SM BKN110 11/08 A3008 RMK AO2 SLP186 T01060078=
201309270953 METAR KPAE 270953Z AUTO 15010KT 10SM CLR 10/07 A3009 RMK AO2 SLP191 T01000072=
201309270853 METAR KPAE 270853Z AUTO VRB04KT 10SM CLR 11/07 A3011 RMK AO2 SLP198 T01060072 56007=
201309270753 METAR KPAE 270753Z AUTO VRB03KT 10SM SCT024 11/07 A3012 RMK AO2 SLP200 T01060072 401390072=
201309270751 SPECI KPAE 270751Z AUTO VRB05KT 10SM SCT024 11/07 A3012 RMK AO2 401390072=
201309270744 SPECI KPAE 270744Z AUTO 15006KT 10SM BKN024 11/07 A3012 RMK AO2=
201309270724 SPECI KPAE 270724Z AUTO 15007G14KT 080V170 10SM SCT028 11/07 A3012 RMK AO2=
201309270653 METAR KPAE 270653Z AUTO 15007KT 10SM OVC028 11/07 A3013 RMK AO2 SLP204 T01110067=
201309270634 SPECI KPAE 270634Z AUTO 15006KT 10SM BKN028 12/07 A3014 RMK AO2=
201309270553 METAR KPAE 270553Z AUTO 15005KT 10SM CLR 12/07 A3013 RMK AO2 SLP205 T01170067 10139 20117 50001=
201309270453 METAR KPAE 270453Z AUTO 13004KT 10SM FEW080 12/07 A3014 RMK AO2 SLP207 T01170072=
201309270353 METAR KPAE 270353Z 12004KT 10SM CLR 12/07 A3013 RMK AO2 SLP203 T01220072=
201309270253 METAR KPAE 270253Z 00000KT 10SM BKN085 13/08 A3013 RMK AO2 SLP204 T01280078 53005=
201309270153 METAR KPAE 270153Z 00000KT 10SM CLR 13/07 A3012 RMK AO2 SLP199 T01280072=
201309270053 METAR KPAE 270053Z 25004KT 10SM CLR 13/07 A3011 RMK AO2 SLP198 T01330067=
201309262353 METAR KPAE 262353Z 24007KT 10SM CLR 13/07 A3012 RMK AO2 SLP199 T01330072 10139 20100 53000=
201309262253 METAR KPAE 262253Z 24004KT 10SM CLR 13/07 A3011 RMK AO2 SLP198 T01330072=
201309262153 METAR KPAE 262153Z 30003KT 10SM SCT014 13/08 A3012 RMK AO2 SLP199 T01280083=
201309262053 METAR KPAE 262053Z 00000KT 10SM CLR 13/07 A3011 RMK AO2 SLP198 T01330072 58001=
201309262039 SPECI KPAE 262039Z 00000KT 10SM SCT022 13/08 A3012 RMK AO2=
201309261953 METAR KPAE 261953Z 29004KT 10SM SCT009 OVC022 12/08 A3013 RMK AO2 SLP204 T01170083=
201309261853 METAR KPAE 261853Z 28003KT 10SM OVC007 11/08 A3013 RMK AO2 SLP204 T01060083=
201309261753 METAR KPAE 261753Z 00000KT 10SM OVC005 11/08 A3012 RMK AO2 SLP199 T01060083 10106 20072 51010=
201309261713 SPECI KPAE 261713Z 31005KT 10SM BKN007 OVC027 11/08 A3011 RMK AO2=
201309261653 METAR KPAE 261653Z 29004KT 10SM FEW002 SCT007 BKN027 10/08 A3011=
201309261613 SPECI KPAE 261613Z 00000KT 9SM SCT002 09/08 A3010 RMK AO2=
201309261553 METAR KPAE 261553Z COR 00000KT 4SM BR SCT002 09/08 A3010 RMK AO2 SLP193 T00890078=
201309261537 SPECI KPAE 261537Z 00000KT 5SM BR OVC002 09/08 A3009 RMK AO2=
201309261518 SPECI KPAE 261518Z 00000KT 2SM BR OVC002 09/08 A3009 RMK AO2=
201309261501 SPECI KPAE 261501Z 28003KT 1/2SM R16R/2400VP6000FT FG VV002 09/08 A3009 RMK AO2=
201309261453 METAR KPAE 261453Z 00000KT 1/4SM R16R/1200V3500FT FG VV001 09/08 A3008 RMK AO2 SLP189 T00890078 53010=
201309261445 SPECI KPAE 261445Z VRB03KT M1/4SM R16R/0800V1200FT FG VV001 09/08 A3008 RMK AO2=
201309261437 SPECI KPAE 261437Z 00000KT 1SM R16R/0800V1400FT BR VV001 09/08 A3008 RMK AO2=
201309261427 SPECI KPAE 261427Z 00000KT 1SM R16R/1000V1400FT BR VV002 09/08 A3008 RMK AO2=
201309261400 SPECI KPAE 261400Z 00000KT 1SM R16R/P6000FT BR OVC002 09/08 A3007 RMK AO2=
201309261353 METAR KPAE 261353Z 00000KT 2 1/2SM BR OVC002 08/08 A3007 RMK AO2 SLP184 T00830078=
201309261340 SPECI KPAE 261340Z AUTO 00000KT 1SM R16R/5500VP6000FT BR VV002 09/08 A3007 RMK AO2=
201309261326 SPECI KPAE 261326Z AUTO 00000KT 1/4SM R16R/4500VP6000FT FG VV002 08/07 A3007 RMK AO2=
201309261320 SPECI KPAE 261320Z AUTO 00000KT 1 1/4SM R16R/5500VP6000FT BR BKN002 08/07 A3007 RMK AO2=
201309261317 SPECI KPAE 261317Z AUTO 00000KT 4SM BR BKN002 08/06 A3007 RMK AO2=
201309261308 SPECI KPAE 261308Z AUTO 00000KT 7SM R16R/3000VP6000FT SCT002 07/06 A3007 RMK AO2=
201309261253 METAR KPAE 261253Z AUTO 00000KT 9SM CLR 08/07 A3006 RMK AO2 SLP181 T00780067=
201309261153 METAR KPAE 261153Z AUTO 00000KT 10SM CLR 08/06 A3005 RMK AO2 SLP178 70001 T00780061 10106 20078 53003=
201309261053 METAR KPAE 261053Z AUTO 16003KT 10SM CLR 09/07 A3004 RMK AO2 SLP174 T00890072=
201309260953 METAR KPAE 260953Z AUTO 11005KT 10SM CLR 09/07 A3004=
201309260853 METAR KPAE 260853Z AUTO 00000KT 10SM CLR 09/07 A3004 RMK AO2 SLP174 T00940072 51002=
201309260753 METAR KPAE 260753Z AUTO 00000KT 10SM CLR 10/07 A3004 RMK AO2 SLP174 T01000067 401390083=
201309260653 METAR KPAE 260653Z AUTO 00000KT 10SM CLR 09/06 A3004 RMK AO2 SLP174 T00890056=
201309260553 METAR KPAE 260553Z AUTO 00000KT 10SM CLR 10/07 A3004 RMK AO2 SLP172 T01000067 10139 20094 51006=
201309260453 METAR KPAE 260453Z AUTO 00000KT 10SM CLR 10/07 A3003 RMK AO2 SLP171 T01000067=
201309260353 METAR KPAE 260353Z 17003KT 10SM CLR 10/08 A3002 RMK AO2 SLP169 T01000078=
201309260253 METAR KPAE 260253Z 00000KT 10SM CLR 11/07 A3002 RMK AO2 SLP165 T01060067 53006=
201309260153 METAR KPAE 260153Z 00000KT 10SM CLR 12/07 A3000 RMK AO2 SLP160 T01220072=
201309260053 METAR KPAE 260053Z 00000KT 10SM SCT031 13/07 A3000 RMK AO2 SLP159 T01330072=
201309260028 SPECI KPAE 260028Z 00000KT 10SM SCT031 13/07 A3000 RMK AO2=
201309252353 METAR KPAE 252353Z 00000KT 10SM OVC027 12/08 A3000=
201309252253 METAR KPAE 252253Z 31005KT 10SM OVC029 12/08 A2999 RMK AO2 SLP157 T01220078=
201309252153 METAR KPAE 252153Z 33006KT 10SM OVC027 12/08 A2998 RMK AO2 SLP153 T01220078=
201309252053 METAR KPAE 252053Z 35005KT 10SM FEW014 OVC025 12/08 A2997 RMK AO2 SLP150 T01170083 51009=
201309252003 SPECI KPAE 252003Z 34006KT 10SM BKN012 OVC021 11/08 A2997 RMK AO2=
201309251953 METAR KPAE 251953Z 33007KT 10SM SCT013 BKN019 OVC025 11/08 A2997=
201309251951 SPECI KPAE 251951Z 33006KT 10SM SCT013 BKN020 OVC025 11/08 A2997 RMK AO2=
201309251853 METAR KPAE 251853Z 32007G15KT 10SM BKN007 OVC011 11/09 A2996 RMK AO2 SLP146 T01060089=
201309251753 METAR KPAE 251753Z 32007KT 10SM BKN007 OVC014 11/09 A2994 RMK AO2 CIG 004V012 SLP141 60001 T01060089 10106 20094 51009=
201309251716 SPECI KPAE 251716Z 01006KT 10SM OVC007 11/09 A2994 RMK AO2 CIG 003V012=
201309251700 SPECI KPAE 251700Z 34007G15KT 9SM BKN004 OVC007 10/09 A2994 RMK AO2 CIG 002V006=
201309251653 METAR KPAE 251653Z 34006KT 1SM R16R/P6000FT BKN002 OVC007 10/09 A2994 RMK AO2 CIG 001V005 SLP141 T01000089=
201309251618 SPECI KPAE 251618Z 32005KT 1SM R16R/P6000FT BR OVC002 09/09 A2994 RMK AO2=
201309251553 METAR KPAE 251553Z 31006KT 6SM BR OVC002 10/09 A2993 RMK AO2 SLP138 T01000089=
201309251500 SPECI KPAE 251500Z 32004KT 5SM BR OVC002 10/09 A2992 RMK AO2=
201309251453 METAR KPAE 251453Z 32005KT 5SM BR SCT005 OVC009 10/09 A2992 RMK AO2 SLP131 60001 T01000089 53011=
201309251420 SPECI KPAE 251420Z 33005KT 9SM SCT005 OVC009 10/09 A2991 RMK AO2=
201309251412 SPECI KPAE 251412Z 34006KT 9SM SCT005 OVC013 10/08 A2991 RMK AO2=
201309251401 SPECI KPAE 251401Z 34005KT 8SM SCT005 BKN009 OVC019 10/08 A2990 RMK AO2 CIG 008V011=
201309251353 METAR KPAE 251353Z 33006KT 8SM BKN003 BKN011 OVC015 10/08 A2990 RMK AO2 CIG 002V008 SLP127 T01000083=
201309251337 SPECI KPAE 251337Z AUTO 33005KT 8SM BKN003 BKN010 OVC015 09/08 A2990 RMK AO2 CIG 002V008 TSNO=
201309251253 METAR KPAE 251253Z AUTO 33004KT 5SM BR OVC001 09/08 A2989 RMK AO2 RAE43 CIG 001V006 SLP122 P0001 T00940083 TSNO=
201309251153 METAR KPAE 251153Z AUTO 34004KT 4SM -RA BR OVC001 09/08 A2988 RMK AO2 SLP120 P0001 60012 70012 T00940083 10100 20094 52001 TSNO=
201309251132 SPECI KPAE 251132Z AUTO 33004KT 6SM -RA BR OVC003 09/08 A2988 RMK AO2 CIG 001V007 P0001 TSNO=
201309251053 METAR KPAE 251053Z AUTO 35006KT 9SM -RA BKN005 OVC013 09/08 A2988 RMK AO2 RAB04 CIG 003V008 SLP119 P0000 T00940083 TSNO=
201309251020 SPECI KPAE 251020Z AUTO 36005KT 10SM -RA BKN005 OVC013 09/08 A2988 RMK AO2 RAB04 P0000 TSNO=
201309250953 METAR KPAE 250953Z AUTO 34005KT 10SM FEW005 OVC013 09/08 A2988 RMK AO2 RAE04 SLP118 P0001 T00940083 TSNO=
201309250925 SPECI KPAE 250925Z AUTO 35004KT 10SM FEW004 OVC013 09/08 A2988 RMK AO2 RAE04 P0001 TSNO=
201309250908 SPECI KPAE 250908Z AUTO 34004KT 10SM FEW004 BKN009 OVC013 09/08 A2987 RMK AO2 RAE04 P0000 TSNO=
201309250853 METAR KPAE 250853Z AUTO 35005KT 10SM -RA BKN011 OVC016 09/08 A2987 RMK AO2 CIG 007V014 SLP117 P0000 60010 T00940083 51001 TSNO=
201309250832 SPECI KPAE 250832Z AUTO 35004KT 10SM -RA FEW006 OVC011 09/08 A2987 RMK AO2 P0000 TSNO=
201309250753 METAR KPAE 250753Z AUTO 33003KT 7SM -RA BKN005 OVC011 09/08 A2988 RMK AO2 SLP117 P0010 T00940083 401440094 TSNO=
201309250653 METAR KPAE 250653Z 34006KT 9SM -RA OVC005 09/08 A2987 RMK AO2 RAB17 CIG 001V010 SLP116 P0000 T00940083=
201309250649 SPECI KPAE 250649Z 34005KT 9SM -RA FEW001 OVC005 09/08 A2987 RMK AO2 RAB17 CIG 004V010 P0000=
201309250553 METAR KPAE 250553Z 35005KT 9SM OVC003 10/09 A2987 RMK AO2 RAB28E53 SLP116 P0000 60000 T01000089 10139 20100 50004=
201309250453 METAR KPAE 250453Z 00000KT 10SM BKN003 OVC014 10/09 A2987 RMK AO2 RAE17 SLP116 P0000 T01000089=
201309250421 SPECI KPAE 250421Z 00000KT 10SM BKN003 OVC014 10/09 A2987 RMK AO2 RAE17 CIG 002V007 P0000=
201309250404 SPECI KPAE 250404Z 02004KT 10SM FEW005 OVC012 10/08 A2987 RMK AO2 RAE02 P0000=
201309250353 METAR KPAE 250353Z VRB03KT 10SM -RA OVC012 10/08 A2987=
201309250335 SPECI KPAE 250335Z 34004KT 10SM BKN010 BKN016 OVC021 11/08 A2987 RMK AO2=
201309250253 METAR KPAE 250253Z 12003KT 10SM BKN022 OVC030 12/08 A2986 RMK AO2 SLP111 T01220083 53002=
201309250153 METAR KPAE 250153Z 00000KT 10SM BKN035 OVC110 13/08 A2986 RMK AO2 SLP110 T01330078=
201309250053 METAR KPAE 250053Z 22003KT 10SM BKN110 13/08 A2985 RMK AO2 SLP110 T01330083=
201309242353 METAR KPAE 242353Z 27007KT 10SM SCT110 14/08 A2985 RMK AO2 SLP109 T01390078 10144 20117 56007=
201309242253 METAR KPAE 242253Z 22006KT 10SM FEW065 14/07 A2986 RMK AO2 SLP110 T01440067=
201309242153 METAR KPAE 242153Z 24005KT 10SM FEW044 13/07 A2986 RMK AO2 SLP112 T01330072=
201309242053 METAR KPAE 242053Z 23007KT 10SM SCT028 14/08 A2987 RMK AO2 SLP116 T01390078 56015=
201309241953 METAR KPAE 241953Z VRB03KT 10SM FEW028 13/09 A2989 RMK AO2 SLP121 T01330094=
201309241853 METAR KPAE 241853Z 28003KT 10SM SCT014 BKN042 BKN050 12/10 A2990 RMK AO2 SLP126 T01220100=
201309241824 SPECI KPAE 241824Z 18005KT 10SM FEW011 BKN019 13/09 A2991 RMK AO2=
201309241753 METAR KPAE 241753Z 15005KT 10SM BKN009 BKN017 BKN029 12/09 A2992 RMK AO2 SLP131 T01170089 10117 20100 58002=
201309241653 METAR KPAE 241653Z 15005KT 10SM BKN009 BKN014 12/09 A2992 RMK AO2 SLP132 T01170089=
201309241627 SPECI KPAE 241627Z 15006KT 10SM BKN009 BKN014 11/08 A2992 RMK AO2=
201309241553 METAR KPAE 241553Z 16006KT 10SM SCT006 OVC014 11/09 A2992 RMK AO2 SLP133 T01060089=
201309241453 METAR KPAE 241453Z 15005KT 7SM BKN006 BKN015 OVC100 11/09 A2992 RMK AO2 SLP133 T01060089 58003=
201309241418 SPECI KPAE 241418Z 00000KT 9SM BKN006 BKN015 OVC100 10/09 A2993 RMK AO2=
201309241410 SPECI KPAE 241410Z 15003KT 9SM FEW006 BKN015 OVC100 10/09 A2993 RMK AO2=
201309241403 SPECI KPAE 241403Z 16005KT 9SM SCT006 BKN100 10/09 A2993 RMK AO2=
201309241353 METAR KPAE 241353Z 16006KT 9SM BKN004 OVC095 10/08 A2993 RMK AO2 CIG 003V006 SLP135 T01000083=
201309241315 SPECI KPAE 241315Z AUTO 16004KT 8SM BKN004 OVC015 10/09 A2993 RMK AO2=
201309241253 METAR KPAE 241253Z AUTO 15003KT 8SM SCT004 OVC012 10/09 A2993 RMK AO2 SLP137 T01000089 $=
201309241248 SPECI KPAE 241248Z AUTO 15005KT 8SM SCT004 OVC012 10/09 A2993 RMK AO2 $=
201309241212 SPECI KPAE 241212Z AUTO 15005KT 10SM BKN004 OVC010 10/09 A2994 RMK AO2 CIG 003V007 $=
201309241153 METAR KPAE 241153Z AUTO 00000KT 10SM BKN008 OVC045 10/09 A2994 RMK AO2 CIG 004V011 SLP140 6//// 7//// T01000089 10111 20100 56006 $=
201309241148 SPECI KPAE 241148Z AUTO 00000KT 10SM BKN008 OVC045 10/09 A2994 RMK AO2 CIG 004V009 $=
201309241136 SPECI KPAE 241136Z AUTO 00000KT 10SM SCT006 OVC043 10/09 A2994 RMK AO2 $=
201309241053 METAR KPAE 241053Z AUTO VRB03KT 10SM FEW043 BKN100 10/09 A2995 RMK AO2 SLP143 T01000089 $=
201309240953 METAR KPAE 240953Z AUTO 00000KT 10SM SCT070 BKN100 10/08 A2996 RMK AO2 SLP145 T01000083 $=
201309240853 METAR KPAE 240853Z AUTO 12004KT 10SM FEW049 OVC065 11/08 A2996 RMK AO2 SLP145 6//// T01060083 58005 PNO $=
201309240753 METAR KPAE 240753Z AUTO 12004KT 10SM BKN049 OVC065 11/08 A2997 RMK AO2 SLP148 T01060078 401560106 PNO $=
201309240653 METAR KPAE 240653Z AUTO 15003KT 10SM OVC047 11/08 A2998 RMK AO2 SLP150 T01110078 PNO $=
201309240553 METAR KPAE 240553Z AUTO 15005KT 10SM OVC047 11/08 A2998 RMK AO2 SLP151 6//// T01110083 10122 20111 51003 PNO $=
201309240453 METAR KPAE 240453Z AUTO 11005KT 10SM OVC047 11/09 A2997 RMK AO2 SLP150 T01110089 PNO $=
201309240353 METAR KPAE 240353Z AUTO 00000KT 10SM OVC043 11/09 A2998 RMK AO2 RAE41 SLP151 T01110094 PNO $=
201309240253 METAR KPAE 240253Z 11004KT 6SM -RA OVC037 12/09 A2997 RMK AO2 RAE05B31 SLP148 6//// T01170089 53005 PNO $=
201309240153 METAR KPAE 240153Z 00000KT 10SM -RA OVC037 12/08 A2995 RMK AO2 SLP144 T01170078 PNO $=
201309240053 METAR KPAE 240053Z VRB03KT 4SM -RA OVC031 12/08 A2995 RMK AO2 RAE04B51 SLP143 T01170083 PNO $=
201309240051 SPECI KPAE 240051Z 29004KT 5SM -RA OVC031 12/08 A2995 RMK AO2 RAE04B51 PNO $=
201309240018 SPECI KPAE 240018Z 03003KT 10SM BKN025 BKN046 OVC055 12/08 A2994 RMK AO2 RAE04 PNO $=
201309232353 METAR KPAE 232353Z 00000KT 6SM -RA BR BKN055 OVC065 12/09 A2994 RMK AO2 SLP139 6//// T01170094 10156 20111 53009 PNO $=
201309232344 SPECI KPAE 232344Z 00000KT 4SM -RA BR FEW018 BKN055 OVC065 11/09 A2994 RMK AO2 PNO $=
201309232334 SPECI KPAE 232334Z VRB04KT 3SM -RA BR BKN008 BKN016 OVC050 11/09 A2994 RMK AO2 PNO $=
201309232305 SPECI KPAE 232305Z 33005KT 2SM RA BR BKN008 BKN016 OVC050 11/09 A2994 RMK AO2 VIS 1 1/2V3 PNO $=
201309232301 SPECI KPAE 232301Z 34004KT 2SM RA BR SCT009 BKN041 OVC060 11/09 A2993 RMK AO2 PNO $=
201309232253 METAR KPAE 232253Z 32007KT 2SM RA BR BKN007 BKN026 OVC050 12/11 A2993 RMK AO2 RAB28 SLP137 T01170106 PNO $=
201309232249 SPECI KPAE 232249Z 32008KT 4SM RA BR SCT007 BKN026 OVC050 12/11 A2993 RMK AO2 RAB28 P0000=
201309232245 SPECI KPAE 232245Z 32007KT 2SM RA BR FEW007 BKN037 OVC050 13/11 A2992 RMK AO2 RAB28 P0000=
201309232153 METAR KPAE 232153Z 22012G17KT 10SM FEW024 BKN075 OVC110 15/09 A2991 RMK AO2 SLP129 T01500094=
201309232142 SPECI KPAE 232142Z 22011KT 10SM FEW021 BKN080 OVC110 15/09 A2991 RMK AO2=
201309232100 SPECI KPAE 232100Z 23007KT 10SM BKN019 BKN024 OVC090 15/10 A2992 RMK AO2=
201309232053 METAR KPAE 232053Z 23008KT 10SM BKN014 BKN033 OVC065 15/11 A2991 RMK AO2 RAB21E30 SLP129 P0000 60000 T01500106 51012=
201309232026 SPECI KPAE 232026Z 21010KT 10SM -RA BKN014 BKN033 OVC065 15/10 A2991 RMK AO2 RAB21 P0000=
201309231953 METAR KPAE 231953Z 20012G19KT 10SM BKN016 BKN028 OVC095 14/11 A2991 RMK AO2 SLP129 T01390106=
201309231853 METAR KPAE 231853Z 21012G21KT 10SM BKN015 OVC095 14/09 A2990 RMK AO2 SLP124 T01390094=
201309231805 SPECI KPAE 231805Z 19014G20KT 10SM BKN015 OVC110 13/11 A2988 RMK AO2=
201309231753 METAR KPAE 231753Z 18014G22KT 10SM SCT014 BKN110 13/11 A2988 RMK AO2 SLP117 60001 T01330106 10133 20122 53015=
201309231653 METAR KPAE 231653Z 18013G19KT 10SM BKN070 OVC090 13/11 A2986 RMK AO2 RAB1558E48 SLP111 P0000 T01280106=
201309231618 SPECI KPAE 231618Z 18013G22KT 10SM -RA FEW013 BKN065 OVC085 13/10 A2985 RMK AO2 RAB1558 P0000=
201309231553 METAR KPAE 231553Z 17012KT 10SM BKN013 BKN080 OVC100 13/10 A2985 RMK AO2 SLP106 T01280100=
201309231500 SPECI KPAE 231500Z 17011KT 10SM SCT015 BKN044 OVC110 13/09 A2984 RMK AO2=
201309231453 METAR KPAE 231453Z 18014G23KT 10SM BKN012 OVC075 13/09 A2983 RMK AO2 SLP102 P0001 60001 T01280094 53015=
201309231353 METAR KPAE 231353Z 18012G18KT 10SM BKN012 OVC080 13/10 A2982 RMK AO2 SLP097 T01280100=
201309231315 SPECI KPAE 231315Z AUTO 18015G23KT 10SM BKN012 BKN065 BKN110 13/10 A2981 RMK AO2=
201309231253 METAR KPAE 231253Z AUTO 17014G21KT 10SM SCT014 SCT070 BKN110 12/09 A2979 RMK AO2 SLP089 T01220094=
201309231153 METAR KPAE 231153Z AUTO 19015KT 10SM FEW016 BKN090 OVC110 12/09 A2979 RMK AO2 SLP087 70001 T01220089 10133 20122 53003=
201309231053 METAR KPAE 231053Z AUTO 19016KT 10SM FEW016 OVC090 13/09 A2978 RMK AO2 SLP084 T01280094=
201309231048 SPECI KPAE 231048Z AUTO 19017KT 10SM SCT016 OVC095 13/09 A2978 RMK AO2=
201309231021 SPECI KPAE 231021Z AUTO 19013KT 10SM OVC014 13/09 A2978 RMK AO2=
201309230953 METAR KPAE 230953Z AUTO 19018KT 10SM BKN016 BKN080 13/09 A2978 RMK AO2 SLP084 T01280094=
201309230940 SPECI KPAE 230940Z AUTO 19019G24KT 10SM BKN016 OVC090 13/09 A2977 RMK AO2=
201309230853 METAR KPAE 230853Z AUTO 20016KT 10SM FEW015 13/09 A2975 RMK AO2 SLP075 T01280094 51014=
201309230826 SPECI KPAE 230826Z AUTO 19018G21KT 10SM BKN017 BKN095 BKN120 13/09 A2975 RMK AO2=
201309230753 METAR KPAE 230753Z AUTO 19017G24KT 10SM FEW015 BKN110 13/09 A2975 RMK AO2 PK WND 21026/0729 SLP072 T01330094 401560128=
201309230653 METAR KPAE 230653Z AUTO 20016G21KT 10SM FEW085 SCT120 13/09 A2973 RMK AO2 PK WND 20027/0617 SLP065 T01330094=
201309230639 SPECI KPAE 230639Z AUTO 19016G23KT 10SM SCT014 13/10 A2972 RMK AO2 PK WND 20027/0617=
201309230600 SPECI KPAE 230600Z AUTO 19016KT 10SM BKN016 BKN085 14/11 A2972 RMK AO2=
201309230553 METAR KPAE 230553Z AUTO 20017KT 10SM SCT016 BKN090 13/11 A2971 RMK AO2 SLP061 T01330106 10156 20133 53018=
201309230453 METAR KPAE 230453Z AUTO 18013G22KT 10SM SCT016 13/11 A2969 RMK AO2 SLP053 T01330106=
201309230353 METAR KPAE 230353Z AUTO 19016G21KT 10SM SCT110 14/10 A2967=
201309230301 SPECI KPAE 230301Z 19011KT 10SM SCT016 SCT100 BKN120 14/11 A2966 RMK AO2=
201309230253 METAR KPAE 230253Z 19012KT 10SM BKN016 OVC110 14/11 A2966=
201309230251 SPECI KPAE 230251Z 20013KT 10SM BKN016 OVC110 14/11 A2966 RMK AO2=
201309230241 SPECI KPAE 230241Z 20017KT 10SM SCT016 BKN100 14/11 A2965 RMK AO2=
201309230233 SPECI KPAE 230233Z 19014KT 10SM BKN020 OVC110 14/11 A2965 RMK AO2=
201309230226 SPECI KPAE 230226Z 19013KT 10SM SCT020 OVC110 14/11 A2965 RMK AO2=
201309230210 SPECI KPAE 230210Z 19015G21KT 10SM BKN020 14/11 A2964 RMK AO2=
201309230201 SPECI KPAE 230201Z 19016G25KT 10SM SCT020 14/10 A2964 RMK AO2=
201309230153 METAR KPAE 230153Z 20014G22KT 10SM BKN020 15/10 A2964 RMK AO2 SLP035 T01500100=
201309230105 SPECI KPAE 230105Z 19017KT 10SM BKN022 BKN027 OVC037 15/11 A2963 RMK AO2=
201309230053 METAR KPAE 230053Z 18016KT 10SM SCT021 BKN030 OVC037 16/11 A2963 RMK AO2 SLP033 T01560106=
201309222353 METAR KPAE 222353Z 19015KT 10SM FEW017 SCT023 OVC095 15/11 A2962 RMK AO2 PK WND 18026/2303 SLP029 60001 T01500106 10150 20128 53012=
201309222253 METAR KPAE 222253Z 18016G22KT 10SM BKN015 OVC021 14/11 A2960 RMK AO2 PK WND 16030/2232 SLP024 T01440111=
201309222231 SPECI KPAE 222231Z 18015G25KT 10SM BKN013 OVC021 14/11 A2958 RMK AO2 PK WND 16030/2212=
201309222207 SPECI KPAE 222207Z 17015G28KT 10SM BKN015 OVC020 14/11 A2958 RMK AO2 PK WND 17029/2156=
201309222200 SPECI KPAE 222200Z 17017G29KT 10SM BKN013 OVC020 14/11 A2958 RMK AO2 PK WND 17029/2156=
201309222153 METAR KPAE 222153Z 17015G23KT 9SM SCT020 BKN048 OVC060 14/11 A2958 RMK AO2 PK WND 16026/2142 RAE27 SLP015 P0000 T01390111=
201309222053 METAR KPAE 222053Z 16016G25KT 10SM -RA SCT020 BKN048 OVC060 13/11 A2958 RMK AO2 SLP017 P0000 60001 T01280106 55006=
201309221953 METAR KPAE 221953Z 16015G22KT 9SM -RA FEW020 BKN032 OVC060 13/09 A2958 RMK AO2 PK WND 18026/1916 RAB09 SLP016 P0000 T01330094=
201309221853 METAR KPAE 221853Z 17018G27KT 10SM BKN032 OVC046 15/08 A2958 RMK AO2 PK WND 15032/1824 SLP015 P0001 T01500078=
201309221800 SPECI KPAE 221800Z 17019G30KT 10SM OVC055 15/07 A2960 RMK AO2 PK WND 16027/1800=
201309221753 METAR KPAE 221753Z 18022G30KT 10SM BKN023 BKN110 15/07 A2960 RMK AO2 PK WND 16031/1736 SLP022 60000 T01500072 10150 20133 58025=
201309221653 METAR KPAE 221653Z 17017G27KT 10SM SCT017 BKN023 OVC055 14/09 A2963 RMK AO2 PK WND 16027/1648 SLP034 T01440089=
201309221553 METAR KPAE 221553Z 17013G25KT 10SM SCT013 BKN023 OVC055 13/10 A2966 RMK AO2 RAB08E29 SLP043 P0000 T01330100=
201309221453 METAR KPAE 221453Z 17011G21KT 10SM BKN014 BKN019 OVC026 13/10 A2968 RMK AO2 SLP049 T01330100 52004=
201309221429 SPECI KPAE 221429Z 16013G19KT 10SM BKN014 OVC080 13/10 A2968 RMK AO2=
201309221353 METAR KPAE 221353Z 17014G20KT 10SM SCT014 BKN080 OVC090 13/10 A2967 RMK AO2 SLP047 T01330100=
201309221253 METAR KPAE 221253Z AUTO 18014KT 10SM FEW014 SCT070 OVC100 13/11 A2967 RMK AO2 SLP046 T01330106=
201309221153 METAR KPAE 221153Z AUTO 18017G22KT 10SM BKN095 14/11 A2967 RMK AO2 SLP044 70001 T01390106 10150 20139 57011=
201309221053 METAR KPAE 221053Z AUTO 18014G21KT 10SM SCT018 14/11 A2968 RMK AO2 SLP047 T01390106=
201309221041 SPECI KPAE 221041Z AUTO 18011KT 10SM BKN018 BKN065 BKN080 14/11 A2968 RMK AO2=
201309220953 METAR KPAE 220953Z AUTO 18013G19KT 10SM SCT013 BKN070 BKN085 14/11 A2969 RMK AO2 SLP052 T01390106=
201309220853 METAR KPAE 220853Z AUTO 17011KT 10SM SCT080 14/10 A2970 RMK AO2 SLP055 T01390100 56004 TSNO=
201309220753 METAR KPAE 220753Z AUTO 19012KT 10SM OVC080 14/10 A2970 RMK AO2 SLP056 T01440100 401780122=
201309220653 METAR KPAE 220653Z AUTO 19012KT 10SM OVC080 15/11 A2970 RMK AO2 SLP056 T01500106=
201309220553 METAR KPAE 220553Z AUTO 18009KT 10SM CLR 15/11 A2971 RMK AO2 SLP061 T01500106 10178 20139 55000=
201309220453 METAR KPAE 220453Z AUTO 18007KT 10SM CLR 14/10 A2971 RMK AO2 SLP059 T01440100=
201309220353 METAR KPAE 220353Z AUTO 00000KT 10SM OVC085 15/11 A2972 RMK AO2 SLP062 T01500106=
201309220253 METAR KPAE 220253Z 03003KT 10SM OVC080 16/11 A2971 RMK AO2 SLP061 T01560111 53002=
201309220153 METAR KPAE 220153Z 00000KT 10SM OVC080 16/11 A2971 RMK AO2 SLP059 T01560111=
201309220053 METAR KPAE 220053Z 00000KT 10SM CLR 17/10 A2970 RMK AO2 SLP056 T01670100=
201309212353 METAR KPAE 212353Z 28004KT 10SM CLR 18/09 A2971 RMK AO2 SLP058 P0001 60001 T01780094 10178 20133 56006=
201309212253 METAR KPAE 212253Z 23005KT 10SM CLR 17/09 A2971 RMK AO2 SLP058 T01720094=
201309212153 METAR KPAE 212153Z 25007KT 10SM CLR 17/11 A2971 RMK AO2 SLP060 T01670106=
201309212053 METAR KPAE 212053Z 00000KT 10SM SCT022 16/12 A2972 RMK AO2 SLP064 T01560117 58002=
201309212013 SPECI KPAE 212013Z 26007KT 10SM SCT025 16/12 A2973 RMK AO2=
201309211955 SPECI KPAE 211955Z 25007KT 10SM BKN025 15/11 A2973 RMK AO2=
201309211953 METAR KPAE 211953Z 25008KT 10SM FEW007 BKN010 15/11 A2973 RMK AO2 SLP067 T01500111=
201309211853 METAR KPAE 211853Z 25006KT 10SM SCT008 BKN010 OVC013 15/12 A2974 RMK AO2 SLP068 T01500117=
201309211753 METAR KPAE 211753Z 26006KT 10SM SCT008 BKN010 OVC013 14/11 A2973 RMK AO2 SLP067 T01390111 10150 20122 53008=
201309211653 METAR KPAE 211653Z 00000KT 10SM OVC009 13/12 A2972 RMK AO2 CIG 007V011 SLP064 T01330117=
201309211553 METAR KPAE 211553Z 20005KT 10SM OVC007 13/11 A2971 RMK AO2 SLP061 T01330111=
201309211453 METAR KPAE 211453Z 17006KT 10SM OVC005 13/11 A2971 RMK AO2 SLP059 T01280111 53008=
201309211353 METAR KPAE 211353Z 19007KT 10SM OVC007 12/11 A2969 RMK AO2 CIG 005V010 SLP052 T01220111=
201309211316 SPECI KPAE 211316Z AUTO 22005KT 10SM BKN007 12/11 A2968 RMK AO2 CIG 005V010=
201309211253 METAR KPAE 211253Z AUTO 19007KT 10SM SCT009 13/11 A2968 RMK AO2 SLP050 T01280111=
201309211242 SPECI KPAE 211242Z AUTO 20006KT 10SM SCT009 13/11 A2968 RMK AO2=
201309211153 METAR KPAE 211153Z AUTO 19010KT 10SM CLR 13/11 A2968 RMK AO2 SLP048 60001 70002 T01330111 10150 20133 53002=
201309211053 METAR KPAE 211053Z AUTO 18006KT 10SM SCT013 BKN041 14/11 A2966 RMK AO2 SLP043 T01390111=
201309211041 SPECI KPAE 211041Z AUTO 19006KT 10SM BKN013 OVC041 14/12 A2966 RMK AO2=
201309210953 METAR KPAE 210953Z AUTO 18005KT 10SM BKN023 BKN042 BKN120 14/11 A2967 RMK AO2 SLP045 T01390111=
201309210911 SPECI KPAE 210911Z AUTO 24004KT 10SM BKN020 BKN028 OVC033 14/12 A2967 RMK AO2=
201309210853 METAR KPAE 210853Z AUTO 23004KT 10SM FEW026 BKN035 OVC044 14/12 A2967 RMK AO2 SLP045 60001 T01440122 55001=
201309210753 METAR KPAE 210753Z AUTO 20008KT 10SM FEW070 15/12 A2967 RMK AO2 SLP044 T01500122 402330128=
201309210653 METAR KPAE 210653Z AUTO 14007KT 110V170 10SM FEW075 BKN100 15/12 A2966 RMK AO2 SLP040 P0001 T01500117=
201309210553 METAR KPAE 210553Z AUTO 16009KT 10SM FEW036 BKN050 BKN070 15/12 A2967 RMK AO2 SLP046 60000 T01500117 10206 20144 51002=
201309210453 METAR KPAE 210453Z AUTO 15005KT 10SM FEW070 SCT085 14/12 A2967 RMK AO2 SLP045 T01440117=
201309210353 METAR KPAE 210353Z AUTO 16010KT 10SM SCT075 SCT090 BKN110 14/12 A2968 RMK AO2 RAE33 SLP049 P0000 T01440122=
201309210253 METAR KPAE 210253Z 16012KT 8SM -RA BKN070 OVC085 14/12 A2967 RMK AO2 PK WND 21026/0211 RAB10 SLP046 P0000 60000 T01440117 50015=
201309210153 METAR KPAE 210153Z 21016G24KT 10SM BKN060 18/10 A2967 RMK AO2 SLP046 T01780100=
201309210053 METAR KPAE 210053Z 21013G18KT 10SM CLR 19/11 A2964 RMK AO2 SLP035 T01890111=
201309202353 METAR KPAE 202353Z 21008KT 10SM BKN090 19/10 A2962 RMK AO2 SLP029 T01940100 10233 20189 53001=
201309202253 METAR KPAE 202253Z 25005KT 10SM CLR 20/11 A2962 RMK AO2 SLP027 T02000106=
201309202153 METAR KPAE 202153Z 28007KT 10SM CLR 22/11 A2961 RMK AO2 SLP025 T02220106=
201309202053 METAR KPAE 202053Z 23007G14KT 10SM CLR 23/09 A2962 RMK AO2 SLP027 T02280089 56015=
201309201953 METAR KPAE 201953Z 24006KT 10SM CLR 21/10 A2964 RMK AO2 SLP032 T02110100=
201309201853 METAR KPAE 201853Z 17006KT 10SM CLR 21/09 A2965 RMK AO2 SLP037 T02110089=
201309201753 METAR KPAE 201753Z 18006KT 10SM CLR 19/09 A2967 RMK AO2 SLP042 60001 T01940094 10194 20128 58005=
201309201653 METAR KPAE 201653Z 16004KT 10SM CLR 17/10 A2968 RMK AO2 SLP047 T01720100=
201309201553 METAR KPAE 201553Z 17006KT 10SM CLR 16/09 A2968 RMK AO2 SLP049 T01610094=
201309201453 METAR KPAE 201453Z 15007KT 10SM CLR 14/09 A2968 RMK AO2 SLP048 60001 T01440089 56013=
201309201353 METAR KPAE 201353Z 16007KT 10SM CLR 14/08 A2969 RMK AO2 SLP052 P0001 T01440083=
201309201253 METAR KPAE 201253Z AUTO 16006KT 10SM CLR 15/08 A2970 RMK AO2 SLP055 T01500078=
201309201153 METAR KPAE 201153Z AUTO 14004KT 10SM CLR 16/08 A2972 RMK AO2 SLP061 70001 T01560083 10206 20150 58016=
201309201053 METAR KPAE 201053Z AUTO 00000KT 10SM CLR 15/08 A2974 RMK AO2 SLP070 T01500083=
201309200953 METAR KPAE 200953Z AUTO 15006KT 10SM CLR 17/09 A2975 RMK AO2 SLP072 T01670089=
201309200853 METAR KPAE 200853Z AUTO 16006KT 10SM CLR 18/06 A2977 RMK AO2 SLP076 T01780061 56009=
201309200753 METAR KPAE 200753Z AUTO 16007KT 10SM CLR 19/05 A2977 RMK AO2 SLP079 T01890050 402330106=
201309200653 METAR KPAE 200653Z AUTO 16008KT 10SM CLR 19/05 A2978 RMK AO2 SLP083 T01940050=
201309200553 METAR KPAE 200553Z AUTO 16012KT 10SM CLR 21/05 A2979 RMK AO2 SLP087 T02060050 10228 20189 58005=
201309200453 METAR KPAE 200453Z 15006KT 10SM CLR 21/07 A2980 RMK AO2 SLP089 T02060072=
201309200353 METAR KPAE 200353Z 11004KT 10SM CLR 20/08 A2981=
201309200253 METAR KPAE 200253Z 18003KT 10SM CLR 21/07 A2981 RMK AO2 SLP092 T02060072 55007=
201309200153 METAR KPAE 200153Z 22004KT 10SM CLR 22/07 A2981 RMK AO2 SLP092 T02170072=
201309200053 METAR KPAE 200053Z 22004KT 10SM CLR 23/08 A2982 RMK AO2 SLP095 T02280078=
201309192353 METAR KPAE 192353Z 28005KT 10SM CLR 22/09 A2983 RMK AO2 SLP100 60001 T02220089 10233 20172 56023=
201309192253 METAR KPAE 192253Z 25004KT 10SM CLR 22/09 A2985 RMK AO2 SLP107 T02220089=
201309192153 METAR KPAE 192153Z 00000KT 10SM CLR 22/09 A2987 RMK AO2 SLP115 P0001 T02220089=
201309192053 METAR KPAE 192053Z 30005KT 10SM CLR 22/09 A2990 RMK AO2 SLP123 T02170089 58019=
201309191953 METAR KPAE 191953Z 16004KT 10SM CLR 22/06 A2992=
201309191853 METAR KPAE 191853Z 16005KT 10SM CLR 19/07 A2994 RMK AO2 SLP138 T01940067=
201309191753 METAR KPAE 191753Z VRB03KT 10SM CLR 18/06 A2996 RMK AO2 SLP143 T01780061 10178 20106 58009=
201309191653 METAR KPAE 191653Z 00000KT 10SM CLR 16/07 A2997 RMK AO2 SLP146 T01560067=
201309191553 METAR KPAE 191553Z 00000KT 10SM CLR 13/07 A2998 RMK AO2 SLP151 T01330067=
201309191453 METAR KPAE 191453Z 11005KT 10SM CLR 12/07 A2999 RMK AO2 SLP154 T01170067 56006=
201309191353 METAR KPAE 191353Z 11007KT 10SM CLR 11/07 A2999 RMK AO2 SLP156 T01110067=
201309191253 METAR KPAE 191253Z AUTO 12004KT 10SM CLR 11/07 A3000=
201309191153 METAR KPAE 191153Z AUTO 12006KT 10SM CLR 11/07 A3000 RMK AO2 SLP160 60001 70002 T01110072 10139 20111 57016=
201309191053 METAR KPAE 191053Z AUTO 12008KT 10SM CLR 12/07 A3002 RMK AO2 SLP166 T01170072=
201309190953 METAR KPAE 190953Z AUTO 11007KT 10SM CLR 12/08 A3004 RMK AO2 SLP169 T01170078=
201309190853 METAR KPAE 190853Z AUTO 11006KT 10SM CLR 12/08 A3005 RMK AO2 SLP176 60001 T01220083 58007=
201309190753 METAR KPAE 190753Z AUTO 11007KT 10SM CLR 13/09 A3006 RMK AO2 SLP178 T01280089 401830117=
201309190653 METAR KPAE 190653Z AUTO 11007KT 10SM CLR 13/09 A3007 RMK AO2 SLP182 P0001 T01280094=
201309190553 METAR KPAE 190553Z AUTO 11006KT 10SM CLR 14/09 A3007 RMK AO2 SLP184 T01390094 10183 20139 58001=
201309190453 METAR KPAE 190453Z AUTO 11006KT 10SM CLR 16/08 A3008 RMK AO2 SLP184 T01560078=
201309190353 METAR KPAE 190353Z AUTO 08003KT 10SM CLR 17/07 A3008 RMK AO2 SLP185 T01670067=
201309190253 METAR KPAE 190253Z 00000KT 10SM CLR 17/08 A3008 RMK AO2 SLP183 T01670078 56001=
201309190153 METAR KPAE 190153Z 00000KT 10SM CLR 17/08 A3008 RMK AO2 SLP184 T01720083=
201309190053 METAR KPAE 190053Z 00000KT 10SM CLR 18/07 A3008 RMK AO2 SLP184 T01780072=
201309182353 METAR KPAE 182353Z 30004KT 10SM CLR 18/08 A3008 RMK AO2 SLP185 T01780083 10183 20144 56004=
201309182253 METAR KPAE 182253Z 27004KT 10SM SCT070 17/08 A3008 RMK AO2 SLP186 T01720083=
201309182153 METAR KPAE 182153Z 31005KT 10SM CLR 18/09 A3009=
201309182053 METAR KPAE 182053Z VRB04KT 10SM CLR 17/09 A3009 RMK AO2 SLP189 T01670094 51007=
201309181953 METAR KPAE 181953Z 28004KT 10SM CLR 16/10 A3009 RMK AO2 SLP190 T01560100=
201309181853 METAR KPAE 181853Z 26007KT 10SM CLR 15/11 A3009 RMK AO2 SLP188 T01500111=
201309181753 METAR KPAE 181753Z VRB04KT 10SM FEW013 14/11 A3007 RMK AO2 SLP183 P0001 60001 T01440111 10150 20117 51010=
201309181703 SPECI KPAE 181703Z 22005KT 10SM FEW008 SCT026 14/11 A3007 RMK AO2 P0001=
201309181653 METAR KPAE 181653Z 20004KT 10SM SCT008 BKN026 14/11 A3007 RMK AO2 SLP182 T01390106=
201309181553 METAR KPAE 181553Z 23005KT 10SM SCT008 BKN029 OVC075 13/11 A3006 RMK AO2 SLP177 T01280106=
201309181535 SPECI KPAE 181535Z 23004KT 10SM SCT008 BKN029 OVC075 13/11 A3005 RMK AO2=
201309181453 METAR KPAE 181453Z 22004KT 9SM BKN008 BKN029 BKN075 13/11 A3004 RMK AO2 SLP173 T01280111 53011=
201309181353 METAR KPAE 181353Z 17003KT 10SM BKN008 OVC075 12/11 A3002 RMK AO2 CIG 005V010 SLP167 T01220111=
201309181312 SPECI KPAE 181312Z AUTO 21003KT 10SM BKN006 BKN080 12/11 A3002 RMK AO2=
201309181303 SPECI KPAE 181303Z AUTO 20004KT 10SM SCT006 SCT031 BKN080 12/11 A3002 RMK AO2=
201309181253 METAR KPAE 181253Z AUTO 18003KT 10SM FEW030 OVC080 13/11 A3002 RMK AO2 SLP164 T01280111=
201309181236 SPECI KPAE 181236Z AUTO 19004KT 10SM SCT026 BKN040 OVC080 13/11 A3001 RMK AO2=
201309181153 METAR KPAE 181153Z AUTO 00000KT 10SM BKN015 BKN035 OVC060 13/11 A3001 RMK AO2 SLP162 70002 T01280111 10139 20122 53010=
201309181053 METAR KPAE 181053Z AUTO 17004KT 10SM FEW028 BKN044 OVC095 13/11 A2999 RMK AO2 SLP155 T01280111=
201309180953 METAR KPAE 180953Z AUTO 16006KT 10SM FEW020 13/11 A2998 RMK AO2 SLP153 T01330106=
201309180939 SPECI KPAE 180939Z AUTO 15005KT 10SM FEW019 SCT026 BKN032 13/11 A2998 RMK AO2=
201309180853 METAR KPAE 180853Z AUTO 15004KT 10SM SCT019 BKN025 OVC040 13/11 A2998 RMK AO2 SLP151 T01330106 53009=
201309180814 SPECI KPAE 180814Z AUTO 00000KT 10SM BKN023 13/11 A2997 RMK AO2=
201309180753 METAR KPAE 180753Z AUTO 11004KT 10SM SCT045 13/11 A2996 RMK AO2 SLP145 T01330106 401500133=
201309180653 METAR KPAE 180653Z AUTO 11003KT 10SM OVC040 13/11 A2996 RMK AO2 SLP143 T01330111=
201309180553 METAR KPAE 180553Z AUTO 00000KT 10SM SCT021 BKN047 OVC095 14/12 A2995 RMK AO2 RAB01E14 SLP142 P0000 60001 T01390117 10150 20133 51013=
201309180526 SPECI KPAE 180526Z AUTO 00000KT 10SM SCT025 BKN033 OVC043 13/12 A2995 RMK AO2 RAB01E14 P0000=
201309180514 SPECI KPAE 180514Z AUTO 00000KT 10SM BKN025 OVC035 13/12 A2995 RMK AO2 RAB01E14 P0000=
201309180453 METAR KPAE 180453Z AUTO 11003KT 10SM BKN036 OVC044 14/11 A2994 RMK AO2 SLP138 T01440111=
201309180353 METAR KPAE 180353Z AUTO 00000KT 10SM OVC032 14/11 A2993 RMK AO2 SLP136 T01440111=
201309180253 METAR KPAE 180253Z 18003KT 10SM FEW033 OVC085 14/11 A2991 RMK AO2 SLP128 P0001 60001 T01390106 51007=
201309180153 METAR KPAE 180153Z 00000KT 10SM FEW060 BKN080 14/11 A2990 RMK AO2 SLP126 T01390106=
201309180053 METAR KPAE 180053Z 00000KT 10SM BKN055 OVC085 15/11 A2990 RMK AO2 SLP124 T01500106=
201309172353 METAR KPAE 172353Z 00000KT 10SM FEW055 OVC075 15/11 A2989 RMK AO2 SLP121 T01500106 10150 20139 58002=
201309172253 METAR KPAE 172253Z 22004KT 10SM OVC049 14/11 A2990 RMK AO2 SLP123 T01440106=
201309172153 METAR KPAE 172153Z 26004KT 10SM OVC050 14/11 A2990 RMK AO2 SLP123 T01390106=
201309172053 METAR KPAE 172053Z 24007KT 10SM BKN017 BKN022 OVC027 14/10 A2990 RMK AO2 SLP124 T01440100 53002=
201309172025 SPECI KPAE 172025Z 24006KT 10SM BKN020 BKN030 OVC035 14/10 A2990 RMK AO2=
201309171953 METAR KPAE 171953Z 26004KT 10SM OVC031 14/11 A2989 RMK AO2 SLP122 T01440106=
201309171937 SPECI KPAE 171937Z 27005KT 10SM OVC031 14/10 A2989 RMK AO2=
201309171853 METAR KPAE 171853Z 26003KT 10SM OVC027 14/10 A2989 RMK AO2 SLP121 T01440100=
201309171753 METAR KPAE 171753Z 23003KT 10SM BKN024 OVC055 14/11 A2989 RMK AO2 SLP122 60001 T01390106 10139 20133 55000=
201309171723 SPECI KPAE 171723Z 23004KT 10SM FEW011 BKN019 OVC060 13/11 A2989 RMK AO2=
201309171653 METAR KPAE 171653Z 00000KT 10SM OVC060 14/10 A2989 RMK AO2 SLP121 T01390100=
201309171553 METAR KPAE 171553Z 00000KT 10SM OVC055 14/10 A2989 RMK AO2 SLP122 T01390100=
201309171453 METAR KPAE 171453Z 00000KT 10SM OVC060 14/10 A2989 RMK AO2 SLP122 60001 T01390100 56003=
201309171353 METAR KPAE 171353Z 00000KT 10SM OVC055 13/10 A2989 RMK AO2 SLP123 P0001 T01330100=
201309171253 METAR KPAE 171253Z AUTO 04003KT 10SM OVC050 14/10 A2990 RMK AO2 SLP124 T01390100=
201309171153 METAR KPAE 171153Z AUTO 00000KT 10SM OVC050 13/10 A2990 RMK AO2 SLP125 60000 7//// T01330100 10144 20133 58010=
201309171053 METAR KPAE 171053Z AUTO 00000KT 10SM OVC050 13/10 A2992 RMK AO2 RAB09E22 SLP130 P0000 T01330100=
201309170953 METAR KPAE 170953Z AUTO 00000KT 10SM OVC050 14/10 A2993 RMK AO2 SLP133 T01390100=
201309170853 METAR KPAE 170853Z AUTO 00000KT 10SM FEW047 OVC055 14/09 A2993 RMK AO2 SLP134 T01390094 58004=
201309170753 METAR KPAE 170753Z AUTO 00000KT 10SM OVC049 14/09 A2994 RMK AO2 SLP138 T01390094 401720133=
201309170653 METAR KPAE 170653Z AUTO 00000KT 10SM OVC045 14/09 A2994 RMK AO2 SLP138 T01390094=
201309170553 METAR KPAE 170553Z AUTO 00000KT 10SM OVC041 14/09 A2994 RMK AO2 SLP138 60000 T01390094 10150 20133 58001=
201309170453 METAR KPAE 170453Z AUTO 04004KT 10SM OVC035 14/09 A2995 RMK AO2 SLP140 T01390094=
201309170353 METAR KPAE 170353Z AUTO 05003KT 10SM OVC036 14/11 A2995 RMK AO2 SLP141 T01390106=
201309170253 METAR KPAE 170253Z 05003KT 10SM OVC032 14/12 A2995 RMK AO2 RAB00E11 SLP139 P0000 60000 T01390117 53002=
201309170200 SPECI KPAE 170200Z 32005KT 10SM -RA OVC034 14/12 A2994 RMK AO2 RAB00 P0000=
201309170153 METAR KPAE 170153Z 34007KT 10SM SCT005 BKN011 OVC032 14/12 A2994 RMK AO2 RAE41 SLP137 P0000 T01390122=
201309170053 METAR KPAE 170053Z 30005KT 7SM -RA SCT005 BKN011 OVC032 14/12 A2994 RMK AO2 RAB2358E15B48 SLP137 P0000 T01440122=
201309162353 METAR KPAE 162353Z 34004KT 9SM SCT005 BKN011 OVC032 15/13 A2994 RMK AO2 RAB14E46 SLP137 P0001 60001 T01500133 10172 20150 58001=
201309162337 SPECI KPAE 162337Z 35004KT 3SM -RA BR OVC011 15/13 A2994 RMK AO2 RAB14 P0000=
201309162322 SPECI KPAE 162322Z 35004KT 1 3/4SM R16R/5500VP6000FT -RA OVC011 16/13 A2994 RMK AO2 RAB14 P0000=
201309162253 METAR KPAE 162253Z 00000KT 10SM OVC011 16/13 A2995 RMK AO2 RAB05E18 SLP140 P0000 T01560128=
201309162220 SPECI KPAE 162220Z 35004KT 4SM BR BKN011 OVC028 16/14 A2994 RMK AO2 RAB05E18 P0000=
201309162211 SPECI KPAE 162211Z VRB03KT 2 1/2SM -RA BR BKN011 OVC028 16/14 A2994 RMK AO2 RAB05 P0000=
201309162153 METAR KPAE 162153Z 29004KT 8SM FEW018 OVC026 16/14 A2994 RMK AO2 RAB14E27 SLP139 P0000 T01610139=
201309162053 METAR KPAE 162053Z VRB05KT 10SM SCT014 OVC020 17/13 A2994 RMK AO2 SLP138 T01720133 51009=
201309161953 METAR KPAE 161953Z 20008KT 10SM OVC012 17/13 A2994 RMK AO2 SLP137 T01670133=
201309161930 SPECI KPAE 161930Z 20009KT 10SM OVC012 16/13 A2994 RMK AO2=
201309161853 METAR KPAE 161853Z 21010KT 10SM OVC016 16/13 A2993 RMK AO2 SLP134 T01610128=
201309161753 METAR KPAE 161753Z 19011KT 10SM OVC018 16/13 A2991 RMK AO2 SLP128 6//// T01610128 10167 20150 53005=
201309161700 SPECI KPAE 161700Z 18009KT 10SM OVC016 17/13 A2991 RMK AO2=
201309161653 METAR KPAE 161653Z 18011KT 10SM OVC014 16/13 A2991 RMK AO2 SLP126 T01610128=
201309161628 SPECI KPAE 161628Z 17010KT 10SM OVC014 16/13 A2991 RMK AO2=
201309161553 METAR KPAE 161553Z 18010G16KT 10SM SCT009 OVC016 16/13 A2990 RMK AO2 SLP125 T01610133=
201309161457 SPECI KPAE 161457Z 17009KT 10SM SCT009 OVC016 16/13 A2990 RMK AO2=
201309161453 METAR KPAE 161453Z 17010KT 10SM OVC014 16/13 A2990 RMK AO2 SLP123 6//// T01560128 51012=
201309161353 METAR KPAE 161353Z 18009KT 10SM OVC014 16/13 A2989 RMK AO2 SLP120 T01560128=
201309161253 METAR KPAE 161253Z AUTO 20009KT 10SM OVC014 16/13 A2988 RMK AO2 SLP117 T01560128 $=
201309161153 METAR KPAE 161153Z AUTO 17010KT 10SM BKN014 OVC065 16/13 A2986 RMK AO2 SLP110 6//// 7//// T01560128 10161 20156 51009 PNO $=
201309161053 METAR KPAE 161053Z AUTO 16013KT 10SM OVC014 16/13 A2986 RMK AO2 SLP109 T01560133 PNO $=
201309161043 SPECI KPAE 161043Z AUTO 17010KT 10SM BKN014 BKN019 OVC060 16/13 A2985 RMK AO2 PNO $=
201309160953 METAR KPAE 160953Z AUTO 17011G18KT 10SM OVC015 16/13 A2985 RMK AO2 SLP105 T01610133 PNO $=
201309160944 SPECI KPAE 160944Z AUTO 16012KT 10SM BKN015 OVC060 16/13 A2984 RMK AO2 PNO $=
201309160909 SPECI KPAE 160909Z AUTO 17015KT 10SM BKN013 OVC055 16/13 A2984 RMK AO2 PNO $=
201309160853 METAR KPAE 160853Z AUTO 17014G21KT 10SM SCT013 BKN018 16/13 A2983 RMK AO2 SLP101 6//// T01610133 53006 PNO $=
201309160838 SPECI KPAE 160838Z AUTO 16014KT 10SM BKN018 16/14 A2983 RMK AO2 PNO $=
201309160824 SPECI KPAE 160824Z AUTO 16014KT 10SM FEW016 SCT021 16/14 A2983 RMK AO2 PNO $=
201309160753 METAR KPAE 160753Z AUTO 17009G18KT 10SM FEW010 OVC016 16/14 A2982 RMK AO2 SLP097 T01610144 401720128 PNO $=
201309160740 SPECI KPAE 160740Z AUTO 17011KT 10SM FEW009 BKN015 OVC070 16/14 A2982 RMK AO2 PNO $=
201309160729 SPECI KPAE 160729Z AUTO 17007KT 10SM BKN013 BKN019 OVC050 16/14 A2982 RMK AO2 PNO $=
201309160716 SPECI KPAE 160716Z AUTO 17008KT 10SM FEW014 SCT019 OVC055 16/14 A2982 RMK AO2 PNO $=
201309160708 SPECI KPAE 160708Z AUTO 17009KT 10SM FEW009 BKN018 OVC050 16/14 A2982 RMK AO2 PNO $=
201309160653 METAR KPAE 160653Z AUTO 18010KT 10SM FEW009 BKN013 OVC018 16/14 A2982 RMK AO2 SLP096 T01610144 PNO $=
201309160553 METAR KPAE 160553Z AUTO 19011KT 10SM OVC009 16/14 A2982 RMK AO2 CIG 006V014 SLP095 6//// T01610144 10172 20161 50004 PNO $=
201309160517 SPECI KPAE 160517Z AUTO 19008KT 10SM OVC009 16/14 A2982 RMK AO2 CIG 007V013 PNO $=
201309160453 METAR KPAE 160453Z AUTO 18010KT 10SM FEW009 BKN014 OVC055 16/14 A2982 RMK AO2 SLP096 T01610144 PNO $=
201309160353 METAR KPAE 160353Z AUTO 16008KT 10SM OVC009 16/14 A2983 RMK AO2 RAE10 CIG 005V012 SLP101 T01610144 PNO $=
201309160253 METAR KPAE 160253Z 19009KT 10SM -RA BKN009 OVC110 16/14 A2980 RMK AO2 RAB0154 CIG 005V012 SLP092 6//// T01610144 53004 PNO $=
201309160153 METAR KPAE 160153Z 18010KT 10SM BKN009 OVC080 16/14 A2980 RMK AO2 RAE29 CIG 007V012 SLP091 P0000 T01610144=
201309160107 SPECI KPAE 160107Z 18010KT 9SM +RA BKN009 OVC018 17/15 A2980 RMK AO2 P0000=
201309160105 SPECI KPAE 160105Z 18010KT 6SM -RA SCT009 BKN015 OVC020 17/15 A2979 RMK AO2 P0000=
201309160053 METAR KPAE 160053Z 19008KT 10SM -RA BKN009 OVC018 17/16 A2979 RMK AO2 RAB2359 CIG 006V012 SLP086 P0001 T01720156=
201309160032 SPECI KPAE 160032Z 17009KT 5SM RA BR SCT007 OVC012 17/16 A2979 RMK AO2 RAB2359 P0001=
201309160015 SPECI KPAE 160015Z 18008KT 3SM -RA BR BKN009 BKN014 OVC021 17/16 A2979 RMK AO2 RAB2359 P0001=
201309160005 SPECI KPAE 160005Z 18006KT 7SM -RA BKN011 OVC018 17/15 A2979 RMK AO2 RAB2359 CIG 009V014 P0001=
201309152353 METAR KPAE 152353Z 18007KT 10SM OVC008 17/15 A2979 RMK AO2 SLP087 60000 T01720150 10172 20139 53006=
201309152253 METAR KPAE 152253Z 15007KT 10SM OVC005 17/14 A2978 RMK AO2 SLP082 T01720144=
201309152219 SPECI KPAE 152219Z 00000KT 10SM OVC005 17/14 A2978 RMK AO2=
201309152153 METAR KPAE 152153Z 19005KT 5SM BR OVC003 16/14 A2978 RMK AO2 SLP082 T01610144=
201309152138 SPECI KPAE 152138Z 20005KT 1/2SM R16R/P6000FT FG OVC001 16/14 A2978 RMK AO2=
201309152131 SPECI KPAE 152131Z 19007KT 1/2SM R16R/P6000FT FG OVC003 16/14 A2978 RMK AO2=
201309152053 METAR KPAE 152053Z 20004KT 1/2SM R16R/3000VP6000FT FG OVC001 15/14 A2977 RMK AO2 SLP081 60000 T01500139 51005=
201309152026 SPECI KPAE 152026Z 00000KT 1/2SM R16R/4500VP6000FT FG OVC001 14/14 A2977 RMK AO2=
201309151953 METAR KPAE 151953Z 00000KT 1/2SM R16R/P6000FT FG OVC003 15/14 A2977 RMK AO2 SLP081 T01500139=
201309151934 SPECI KPAE 151934Z 17003KT 2SM BR OVC003 16/14 A2977 RMK AO2=
201309151853 METAR KPAE 151853Z 11004KT M1/4SM R16R/2600V3500FT FG VV001 14/14 A2976 RMK AO2 RAB1758E16B32E42 SLP076 P0000 T01440139=
201309151753 METAR KPAE 151753Z 00000KT M1/4SM R16R/4000V5000FT FG VV001 14/13 A2976 RMK AO2 SLP077 T01390133 10139 20128 51007=
201309151737 SPECI KPAE 151737Z 00000KT M1/4SM R16R/1600V3500FT FG VV001 14/13 A2976 RMK AO2=
201309151716 SPECI KPAE 151716Z 24004KT M1/4SM R16R/0800V1200FT FG VV001 13/13 A2976 RMK AO2=
201309151653 METAR KPAE 151653Z 21005KT M1/4SM R16R/2600V4500FT FG VV001 14/13 A2976 RMK AO2 SLP076 T01390133=
201309151607 SPECI KPAE 151607Z 00000KT 1/4SM R16R/1400V2800FT FG VV001 13/12 A2974 RMK AO2=
201309151553 METAR KPAE 151553Z 00000KT M1/4SM R16R/1000V1600FT FG VV001 13/12 A2974 RMK AO2 SLP071 T01330122=
201309151453 METAR KPAE 151453Z 03003KT M1/4SM R16R/0700V0800FT FG VV001 13/12 A2974 RMK AO2 SLP068 T01280122 56001=
201309151353 METAR KPAE 151353Z 00000KT 1/4SM R16R/1000V1200FT FG VV001 13/13 A2974 RMK AO2 SLP069 T01330128=
201309151253 METAR KPAE 151253Z AUTO 00000KT M1/4SM R16R/1000FT FG VV001 13/13 A2974 RMK AO2 SLP068 T01330128=
201309151153 METAR KPAE 151153Z AUTO 00000KT 1/4SM R16R/1200V1400FT FG VV001 14/13 A2974 RMK AO2 SLP069 70001 T01390133 10156 20139 56003=
201309151053 METAR KPAE 151053Z AUTO 00000KT M1/4SM R16R/0700V0800FT FG VV001 14/13 A2974 RMK AO2 SLP070 T01390133=
201309150953 METAR KPAE 150953Z AUTO 36003KT M1/4SM R16R/0800FT FG VV001 14/14 A2974 RMK AO2 SLP070 T01440139=
201309150853 METAR KPAE 150853Z AUTO 00000KT 1/4SM R16R/1000FT FG VV001 14/14 A2975 RMK AO2 SLP072 T01440139 56007=
201309150828 SPECI KPAE 150828Z AUTO 35003KT 1/4SM R16R/1000V1200FT FG VV001 14/14 A2975 RMK AO2=
201309150820 SPECI KPAE 150820Z AUTO 00000KT 1/2SM R16R/1200V2200FT FG VV002 15/14 A2975 RMK AO2=
201309150753 METAR KPAE 150753Z AUTO 00000KT 1SM R16R/4000VP6000FT BR VV002 15/14 A2975 RMK AO2 SLP073 T01500144 401890139=
201309150712 SPECI KPAE 150712Z AUTO 00000KT 1 3/4SM R16R/6000VP6000FT BR OVC002 16/14 A2976 RMK AO2=
201309150653 METAR KPAE 150653Z AUTO 00000KT 3SM BR OVC002 16/14 A2976 RMK AO2 SLP076 T01560144=
201309150617 SPECI KPAE 150617Z AUTO 00000KT 5SM BR BKN004 15/13 A2977 RMK AO2=
201309150608 SPECI KPAE 150608Z AUTO 00000KT 6SM BR SCT004 15/13 A2977 RMK AO2=
201309150553 METAR KPAE 150553Z AUTO 00000KT 5SM BR CLR 15/14 A2977 RMK AO2 SLP080 P0001 60001 T01500139 10189 20150 58002=
201309150453 METAR KPAE 150453Z AUTO 00000KT 9SM CLR 16/14 A2977 RMK AO2 SLP080 T01560139=
201309150353 METAR KPAE 150353Z 00000KT 10SM CLR 16/14 A2978 RMK AO2 SLP083 T01560139=
201309150253 METAR KPAE 150253Z 00000KT 10SM CLR 17/14 A2978 RMK AO2 SLP082 T01720144 56008=
201309150153 METAR KPAE 150153Z 00000KT 10SM CLR 18/14 A2978 RMK AO2 SLP083 T01780144=
201309150053 METAR KPAE 150053Z 00000KT 10SM CLR 19/14 A2979 RMK AO2 SLP086 T01890144=
201309142353 METAR KPAE 142353Z 00000KT 10SM FEW008 18/14 A2980 RMK AO2 SLP091 T01830144 10183 20144 58015=
201309142316 SPECI KPAE 142316Z 02003KT 10SM SCT008 18/14 A2981 RMK AO2=
201309142253 METAR KPAE 142253Z AUTO 00000KT 10SM OVC006 17/14 A2982 RMK AO2 CIG 006V010 SLP096 T01720144 TSNO=
201309142153 METAR KPAE 142153Z 27004KT 10SM OVC006 16/14 A2983 RMK AO2 SLP101 T01610139=
201309142053 METAR KPAE 142053Z 00000KT 10SM OVC006 17/14 A2985 RMK AO2 SLP105 T01670139 58011=
201309142000 SPECI KPAE 142000Z 34004KT 4SM HZ OVC006 17/14 A2986 RMK AO2=
201309141953 METAR KPAE 141953Z 36003KT 1SM R16R/P6000FT BR OVC004 16/14 A2986 RMK AO2 SLP110 T01610139=
201309141945 SPECI KPAE 141945Z 35003KT 1SM R16R/P6000FT BR OVC004 16/14 A2986 RMK AO2=
201309141938 SPECI KPAE 141938Z 36003KT 1SM R16R/P6000FT BR OVC006 16/14 A2986 RMK AO2=
201309141853 METAR KPAE 141853Z 36003KT 1 1/2SM BR OVC004 16/14 A2987 RMK AO2 SLP113 T01560139=
201309141753 METAR KPAE 141753Z 01004KT 3/4SM R16R/P6000FT BR OVC002 14/13 A2988 RMK AO2 SLP117 T01440133 10150 20139 58001=
201309141715 SPECI KPAE 141715Z 36004KT M1/4SM R16R/1200V4000FT FG VV001 14/13 A2988 RMK AO2=
201309141659 SPECI KPAE 141659Z 36004KT M1/4SM R16R/1200V3000FT FG VV001 14/13 A2988 RMK AO2=
201309141657 SPECI KPAE 141657Z 01004KT 3/4SM R16R/1200V1600FT FG VV002 14/13 A2988 RMK AO2=
201309141653 METAR KPAE 141653Z 36004KT M1/4SM R16R/1200V5500FT FG VV001 14/13 A2988 RMK AO2 SLP117 T01440133=
201309141651 SPECI KPAE 141651Z 36005KT M1/4SM R16R/1200V5500FT FG VV001 14/14 A2988 RMK AO2=
201309141553 METAR KPAE 141553Z 36005KT M1/4SM R16R/0800V1200FT FG VV001 14/13 A2988 RMK AO2 SLP117 T01390133=
201309141453 METAR KPAE 141453Z 01003KT M1/4SM R16R/0800V1400FT FG VV001 14/13 A2989 RMK AO2 SLP119 T01390133 52001=
201309141448 SPECI KPAE 141448Z 01004KT M1/4SM R16R/0800V1800FT FG VV001 14/13 A2989 RMK AO2=
201309141413 SPECI KPAE 141413Z 00000KT 1/4SM R16R/1200V2200FT FG VV002 14/14 A2989 RMK AO2=
201309141353 METAR KPAE 141353Z 02003KT 1/4SM R16R/2200V4000FT FG VV002 14/14 A2988 RMK AO2 SLP118 T01440139=
201309141253 METAR KPAE 141253Z AUTO 01003KT 1 3/4SM R16R/4000VP6000FT BR OVC002 15/14 A2988 RMK AO2 SLP118 T01500139=
201309141153 METAR KPAE 141153Z AUTO 00000KT 2SM R16R/3000VP6000FT BR OVC002 15/14 A2989 RMK AO2 SLP119 P0001 60001 70002 T01500139 10167 20150 58001=
201309141143 SPECI KPAE 141143Z AUTO 00000KT 2SM BR OVC002 15/14 A2989 RMK AO2 P0001=
201309141135 SPECI KPAE 141135Z AUTO 36003KT 1 3/4SM R16R/4000VP6000FT BR BKN002 OVC006 15/14 A2989 RMK AO2 P0001=
201309141125 SPECI KPAE 141125Z AUTO 36004KT 2SM R16R/3500VP6000FT BR FEW001 OVC006 15/14 A2989 RMK AO2 P0001=
201309141053 METAR KPAE 141053Z AUTO 36003KT 1 3/4SM R16R/6000VP6000FT BR SCT001 OVC006 16/14 A2989 RMK AO2 SLP120 T01560144=
201309141030 SPECI KPAE 141030Z AUTO 35003KT 1 3/4SM BR OVC008 16/14 A2989 RMK AO2=
201309140953 METAR KPAE 140953Z AUTO 00000KT 6SM BR OVC008 16/14 A2989 RMK AO2 SLP120 T01610144=
201309140949 SPECI KPAE 140949Z AUTO 00000KT 6SM BR OVC008 16/14 A2989 RMK AO2=
201309140853 METAR KPAE 140853Z AUTO 00000KT 7SM OVC010 16/14 A2989 RMK AO2 SLP122 T01610144 58005=
201309140753 METAR KPAE 140753Z AUTO 00000KT 6SM BR OVC010 16/14 A2990 RMK AO2 SLP124 T01610144 401720133=
201309140653 METAR KPAE 140653Z AUTO 00000KT 7SM OVC010 17/14 A2991 RMK AO2 SLP126 T01670144=
201309140553 METAR KPAE 140553Z AUTO 00000KT 7SM OVC010 17/14 A2991 RMK AO2 SLP127 T01670144 10172 20161 50003=
201309140453 METAR KPAE 140453Z 00000KT 8SM OVC010 17/14 A2991 RMK AO2 SLP128 T01670144=
201309140430 SPECI KPAE 140430Z 00000KT 7SM SCT004 OVC010 17/14 A2991 RMK AO2=
201309140353 METAR KPAE 140353Z 00000KT 3SM BR BKN004 OVC009 16/15 A2991 RMK AO2 SLP126 T01610150=
201309140319 SPECI KPAE 140319Z 25003KT 3SM BR BKN004 OVC010 16/14 A2991 RMK AO2=
201309140307 SPECI KPAE 140307Z 00000KT 3SM BR SCT004 OVC010 16/15 A2991 RMK AO2=
201309140300 SPECI KPAE 140300Z 00000KT 3SM BR BKN004 OVC010 16/14 A2990 RMK AO2=
201309140253 METAR KPAE 140253Z COR 00000KT 3SM BR BKN004 OVC008 16/15 A2990 RMK AO2 SLP124 T01610150 55005=
201309140153 METAR KPAE 140153Z 24004KT 3SM BR OVC008 16/14 A2990 RMK AO2 SLP123 T01610144=
201309140053 METAR KPAE 140053Z 25004KT 6SM BR OVC008 17/15 A2991 RMK AO2 SLP126 T01670150=
201309132353 METAR KPAE 132353Z 23004KT 6SM HZ OVC008 17/14 A2992 RMK AO2 SLP129 60001 T01720144 10172 20150 56013=
201309132253 METAR KPAE 132253Z 25005KT 6SM HZ OVC008 17/14 A2993 RMK AO2 SLP133 T01720144=
201309132153 METAR KPAE 132153Z 27005KT 4SM BR OVC004 17/14 A2994 RMK AO2 SLP138 P0001 T01670144=
201309132053 METAR KPAE 132053Z 25004KT 4SM BR OVC004 17/14 A2995 RMK AO2 SLP142 T01670144 58007=
201309131953 METAR KPAE 131953Z 26005KT 2SM BR OVC002 16/14 A2996 RMK AO2 SLP145 T01560144=
201309131853 METAR KPAE 131853Z 23004KT 1/4SM R16R/1400V2400FT FG VV002 15/14 A2997 RMK AO2 SLP148 T01500144=
201309131816 SPECI KPAE 131816Z 25004KT 1/4SM R16R/1600V1800FT FG VV002 15/14 A2998 RMK AO2=
201309131753 METAR KPAE 131753Z 30003KT 1/4SM R16R/2400V4500FT FG OVC001 15/14 A2998 RMK AO2 SLP149 T01500144 10156 20133 58003=
201309131653 METAR KPAE 131653Z 00000KT 1/2SM R16R/4000VP6000FT FG OVC002 15/14 A2998 RMK AO2 SLP152 T01500144=
201309131607 SPECI KPAE 131607Z 00000KT 1/4SM R16R/2400V5000FT FG VV002 14/14 A2998 RMK AO2=
201309131600 SPECI KPAE 131600Z 00000KT 1/2SM R16R/4500V6000FT FG VV002 14/14 A2998 RMK AO2=
201309131553 METAR KPAE 131553Z 00000KT 1/4SM R16R/4000V5500FT FG VV002 14/14 A2998 RMK AO2 SLP152 T01440139=
201309131453 METAR KPAE 131453Z 00000KT 1/4SM R16R/2200V3500FT FG VV002 14/14 A2999 RMK AO2 SLP152 T01440139 50003=
201309131404 SPECI KPAE 131404Z 17005KT 1/4SM R16R/P6000FT FG OVC002 14/13 A2999 RMK AO2=
201309131401 SPECI KPAE 131401Z 18004KT 3SM BR OVC002 14/13 A2999 RMK AO2=
201309131353 METAR KPAE 131353Z 19006KT 2SM R16R/5000VP6000FT BR OVC002 14/13 A2999 RMK AO2 SLP153 T01440133=
201309131333 SPECI KPAE 131333Z AUTO 00000KT 1/2SM R16R/2000V2800FT FG VV002 14/13 A2999 RMK AO2=
201309131326 SPECI KPAE 131326Z AUTO 00000KT 1/4SM R16R/1400V2200FT FG VV002 14/13 A2998 RMK AO2=
201309131253 METAR KPAE 131253Z AUTO 00000KT M1/4SM R16R/0700V1000FT FG VV001 13/13 A2998 RMK AO2 SLP151 T01330128=
201309131153 METAR KPAE 131153Z AUTO 00000KT M1/4SM R16R/0800V1000FT FG VV001 13/13 A2998 RMK AO2 SLP149 60001 70002 T01330128 10172 20133 53004=
201309131053 METAR KPAE 131053Z AUTO 01004KT M1/4SM R16R/0500V0700FT FG VV001 14/13 A2997 RMK AO2 SLP146 T01390128=
201309130953 METAR KPAE 130953Z AUTO 00000KT M1/4SM R16R/0600FT FG VV001 14/13 A2996 RMK AO2 SLP144 T01390133=
201309130853 METAR KPAE 130853Z AUTO VRB04KT 1/4SM R16R/0800V1000FT FG VV001 14/14 A2997 RMK AO2 SLP145 60001 T01440139 53005=
201309130841 SPECI KPAE 130841Z AUTO 02004KT 1/4SM R16R/0800V1000FT FG VV001 14/14 A2996 RMK AO2=
201309130827 SPECI KPAE 130827Z AUTO 01003KT 1/4SM R16R/1600VP6000FT FG VV001 14/13 A2996 RMK AO2=
201309130824 SPECI KPAE 130824Z AUTO 01003KT 1SM R16R/P6000FT BR VV001 14/13 A2996 RMK AO2=
201309130822 SPECI KPAE 130822Z AUTO 02003KT 2SM BR FEW001 15/13 A2996 RMK AO2=
201309130753 METAR KPAE 130753Z AUTO 05003KT 10SM CLR 17/14 A2995 RMK AO2 SLP141 T01670139 402330139=
201309130653 METAR KPAE 130653Z AUTO 00000KT 10SM CLR 17/14 A2995 RMK AO2 SLP142 P0001 T01720139=
201309130553 METAR KPAE 130553Z AUTO 00000KT 10SM CLR 17/14 A2995 RMK AO2 SLP141 T01720139 10228 20161 50004=
201309130453 METAR KPAE 130453Z AUTO 00000KT 10SM CLR 16/14 A2995 RMK AO2 SLP141 T01610139=
201309130353 METAR KPAE 130353Z AUTO 03003KT 10SM CLR 16/14 A2995 RMK AO2 SLP139 T01610139=
201309130253 METAR KPAE 130253Z 02004KT 10SM CLR 17/14 A2994 RMK AO2 SLP137 T01670139 55001=
201309130153 METAR KPAE 130153Z 36005KT 10SM CLR 18/14 A2994 RMK AO2 SLP136 T01780139=
201309130053 METAR KPAE 130053Z 00000KT 10SM CLR 22/14 A2994 RMK AO2 SLP136 T02170139=
201309122353 METAR KPAE 122353Z 00000KT 10SM CLR 23/14 A2994 RMK AO2 SLP137 60001 T02280144 10233 20161 57008=
201309122253 METAR KPAE 122253Z VRB03KT 10SM CLR 23/15 A2995 RMK AO2 SLP140 T02280150=
201309122153 METAR KPAE 122153Z 28004KT 10SM CLR 22/15 A2996 RMK AO2 SLP141 T02220150=
201309122053 METAR KPAE 122053Z VRB03KT 10SM CLR 21/15 A2997 RMK AO2 SLP145 60001 T02110150 56014=
201309121953 METAR KPAE 121953Z 31007KT 10SM CLR 22/15 A2998 RMK AO2 SLP148 P0001 T02170150=
201309121853 METAR KPAE 121853Z 26004KT 9SM CLR 17/14 A2999 RMK AO2 SLP154 T01670144=
201309121753 METAR KPAE 121753Z 26004KT 9SM FEW001 17/14 A3001 RMK AO2 SLP160 T01670144 10172 20139 58002=
201309121710 SPECI KPAE 121710Z 28003KT 9SM SCT001 16/14 A3001 RMK AO2=
201309121653 METAR KPAE 121653Z 27003KT 10SM CLR 16/14 A3002 RMK AO2 SLP162 T01610139=
201309121553 METAR KPAE 121553Z 00000KT 7SM CLR 16/14 A3002 RMK AO2 SLP162 T01560139=
201309121453 METAR KPAE 121453Z 00000KT 9SM CLR 16/13 A3002 RMK AO2 SLP162 T01560133 51010=
201309121353 METAR KPAE 121353Z 00000KT 10SM SCT002 14/13 A3001 RMK AO2 SLP158 T01390128=
201309121341 SPECI KPAE 121341Z AUTO 00000KT 3SM BR SCT002 14/13 A3001 RMK AO2=
201309121337 SPECI KPAE 121337Z AUTO 00000KT 1 1/4SM BR SCT002 14/13 A3001 RMK AO2=
201309121328 SPECI KPAE 121328Z AUTO 00000KT 3/4SM R16R/P6000FT BR VV002 14/13 A3001 RMK AO2=
201309121326 SPECI KPAE 121326Z AUTO 00000KT 1 1/4SM BR BKN001 14/13 A3000 RMK AO2=
201309121321 SPECI KPAE 121321Z AUTO 00000KT 2 1/2SM BR SCT001 14/13 A3000 RMK AO2=
201309121253 METAR KPAE 121253Z AUTO 02003KT 10SM CLR 15/13 A3000 RMK AO2 SLP155 T01500128=
201309121153 METAR KPAE 121153Z AUTO 00000KT 10SM CLR 16/13 A2999 RMK AO2 SLP151 60001 70003 T01610128 10222 20156 53009=
201309121053 METAR KPAE 121053Z AUTO 00000KT 10SM CLR 16/13 A2998 RMK AO2 SLP146 T01610128=
201309120953 METAR KPAE 120953Z AUTO 00000KT 10SM CLR 17/12 A2997 RMK AO2 SLP143 T01720122=
201309120853 METAR KPAE 120853Z AUTO 00000KT 10SM CLR 18/13 A2996 RMK AO2 SLP142 60001 T01780128 53003=
201309120753 METAR KPAE 120753Z AUTO 00000KT 10SM CLR 18/13 A2996 RMK AO2 SLP141 P0001 T01830128 402940150=
201309120653 METAR KPAE 120653Z AUTO 01004KT 10SM CLR 21/13 A2995 RMK AO2 SLP138 T02060133=
201309120553 METAR KPAE 120553Z AUTO 00000KT 10SM CLR 22/13 A2995 RMK AO2 SLP138 T02170128 10289 20206 51011=
201309120453 METAR KPAE 120453Z AUTO 00000KT 10SM CLR 22/13 A2994 RMK AO2 SLP136 T02170128=
201309120353 METAR KPAE 120353Z AUTO 35004KT 10SM CLR 22/13 A2993 RMK AO2 SLP132 T02170133=
201309120253 METAR KPAE 120253Z 35004KT 10SM CLR 23/14 A2992 RMK AO2 SLP127 T02330139 55002=
201309120153 METAR KPAE 120153Z 36003KT 10SM CLR 26/14 A2991 RMK AO2 SLP125 T02610139=
201309120053 METAR KPAE 120053Z 36004KT 10SM CLR 28/13 A2992 RMK AO2 SLP127 T02830133=
201309112353 METAR KPAE 112353Z 36004KT 10SM CLR 28/14 A2992 RMK AO2 SLP129 P0001 60001 T02830139 10294 20228 56011=
201309112253 METAR KPAE 112253Z 36006KT 10SM CLR 29/14 A2993 RMK AO2 SLP130 T02940144=
201309112153 METAR KPAE 112153Z 36005KT 10SM CLR 28/14 A2994 RMK AO2 SLP135 T02780144=
201309112053 METAR KPAE 112053Z 36006KT 10SM CLR 27/14 A2995 RMK AO2 SLP140 T02670144 58006=
201309111953 METAR KPAE 111953Z 35004KT 10SM CLR 26/14 A2996 RMK AO2 SLP142 T02560144=
201309111853 METAR KPAE 111853Z 35005KT 10SM CLR 24/14 A2997 RMK AO2 SLP145 T02440144=
201309111753 METAR KPAE 111753Z 35003KT 10SM CLR 23/14 A2997 RMK AO2 SLP146 P0001 60001 T02280144 10228 20150 50003=
201309111653 METAR KPAE 111653Z VRB04KT 10SM CLR 21/14 A2997 RMK AO2 SLP148 T02060144=
201309111553 METAR KPAE 111553Z 02005KT 10SM CLR 18/14 A2997 RMK AO2 SLP146 T01830144=
201309111453 METAR KPAE 111453Z 02004KT 10SM CLR 17/14 A2996 RMK AO2 SLP144 T01720139 53007=
201309111353 METAR KPAE 111353Z 36003KT 10SM CLR 16/13 A2996 RMK AO2 SLP141 T01560133=
201309111253 METAR KPAE 111253Z AUTO 36003KT 10SM CLR 16/14 A2994 RMK AO2 SLP137 T01610139=
201309111153 METAR KPAE 111153Z AUTO 00000KT 10SM CLR 16/13 A2994 RMK AO2 SLP136 60001 70004 T01560133 10178 20150 53003=
201309111053 METAR KPAE 111053Z AUTO 02003KT 10SM CLR 16/13 A2993 RMK AO2 SLP134 P0001 T01560133=
201309110953 METAR KPAE 110953Z AUTO 02004KT 10SM CLR 17/13 A2993 RMK AO2 SLP133 T01670128=
201309110853 METAR KPAE 110853Z AUTO 03004KT 10SM CLR 17/13 A2993 RMK AO2 SLP134 T01670128 58003=
201309110753 METAR KPAE 110753Z AUTO 35003KT 10SM CLR 17/13 A2994 RMK AO2 SLP136 T01670128 402280128=
201309110653 METAR KPAE 110653Z AUTO 36003KT 10SM CLR 18/13 A2994 RMK AO2 SLP138 T01780128=
201309110553 METAR KPAE 110553Z AUTO 00000KT 10SM CLR 17/13 A2994 RMK AO2 SLP138 60001 T01720133 10228 20172 50004=
201309110453 METAR KPAE 110453Z AUTO 00000KT 10SM CLR 18/13 A2995 RMK AO2 SLP140 T01830133=
201309110353 METAR KPAE 110353Z AUTO 00000KT 10SM CLR 19/13 A2994 RMK AO2 SLP137 T01890133=
201309110253 METAR KPAE 110253Z AUTO 35003KT 10SM CLR 19/14 A2993 RMK AO2 SLP134 P0001 60001 T01940139 55002=
201309110153 METAR KPAE 110153Z 35004KT 10SM CLR 21/14 A2993 RMK AO2 SLP133 T02060139=
201309110053 METAR KPAE 110053Z 34007KT 10SM CLR 22/14 A2993 RMK AO2 SLP134 T02170144=
201309102353 METAR KPAE 102353Z 36006KT 10SM CLR 23/15 A2994 RMK AO2 SLP135 60001 T02280150 10228 20144 56015=
201309102253 METAR KPAE 102253Z AUTO 34009KT 10SM CLR 21/15 A2995 RMK AO2 SLP140 T02110150 TSNO=
201309102153 METAR KPAE 102153Z VRB05KT 10SM CLR 22/16 A2996 RMK AO2 SLP145 P0001 T02170156=
201309102053 METAR KPAE 102053Z VRB06KT 10SM CLR 20/15 A2998 RMK AO2 SLP152 T02000150 58012=
201309102025 METAR KPAE 102025Z COR 36005KT 10SM FEW003 16/14 A3000=
201309102001 SPECI KPAE 102001Z 36005KT 5SM HZ SCT001 17/14 A2999 RMK AO2=
201309101953 SPECI KPAE 101953Z COR 36005KT 3SM BR SCT001 16/14 A3000 RMK AO2 SLP157 T01560144=
201309101953 METAR KPAE 101953Z 36005KT 3SM BR BKN001 16/14 A3000 RMK AO2 SLP157 T01560144=
201309101949 SPECI KPAE 101949Z 35005KT 3SM BR OVC002 16/14 A3000 RMK AO2=
201309101913 SPECI KPAE 101913Z 36006KT 1/4SM R16R/1000V2400FT FG VV001 15/14 A3001 RMK AO2=
201309101853 METAR KPAE 101853Z 00000KT 1/4SM R16R/0600V1200FT FG VV001 15/14 A3001 RMK AO2 SLP162 T01500139=
201309101753 METAR KPAE 101753Z 36005KT M1/4SM R16R/0600V0800FT FG VV001 14/13 A3002 RMK AO2 SLP165 60001 T01440133 10144 20128 50002=
201309101653 METAR KPAE 101653Z 36005KT M1/4SM R16R/0500V0600FT FG VV001 14/13 A3002 RMK AO2 SLP166 P0001 T01390133=
201309101553 METAR KPAE 101553Z 36004KT M1/4SM R16R/0500V0600FT FG VV001 13/13 A3002 RMK AO2 SLP163 T01330128=
201309101453 METAR KPAE 101453Z 01004KT M1/4SM R16R/0500FT FG VV001 13/12 A3001 RMK AO2 SLP162 T01330122 53004=
201309101353 METAR KPAE 101353Z AUTO 36004KT 1/4SM R16R/0500V0600FT FG VV001 13/12 A3001 RMK AO2 SLP159 T01280122=
201309101253 METAR KPAE 101253Z AUTO 01004KT M1/4SM R16R/0600FT FG VV001 13/12 A3000 RMK AO2 SLP158 T01280122=
201309101153 METAR KPAE 101153Z AUTO 36004KT M1/4SM R16R/0600V0700FT FG VV001 13/12 A3000 RMK AO2 SLP157 P0001 60001 70007 T01280122 10139 20128 58005=
201309101053 METAR KPAE 101053Z AUTO 02004KT M1/4SM R16R/0600V0800FT FG VV001 13/12 A3001 RMK AO2 SLP158 T01280122=
201309100953 METAR KPAE 100953Z AUTO 36004KT M1/4SM R16R/0700V0800FT FG VV001 13/12 A3002 RMK AO2 SLP163 T01280122=
201309100853 METAR KPAE 100853Z AUTO VRB03KT M1/4SM R16R/0600V0800FT FG VV001 13/12 A3002 RMK AO2 SLP163 T01330122 55001=
201309100753 METAR KPAE 100753Z AUTO 03003KT 1/4SM R16R/0800V1000FT FG VV001 13/13 A3001 RMK AO2 SLP162 T01330128 402280133=
201309100743 SPECI KPAE 100743Z AUTO 01003KT 1/4SM R16R/1000V1800FT FG VV001 13/13 A3001 RMK AO2=
201309100723 SPECI KPAE 100723Z AUTO 36005KT 1/4SM R16R/2000VP6000FT FG VV001 13/13 A3001 RMK AO2=
201309100653 METAR KPAE 100653Z AUTO 36003KT 1/2SM R16R/1600V4500FT FG VV001 13/13 A3001=
201309100651 SPECI KPAE 100651Z AUTO 36004KT 1/2SM R16R/1400V2600FT FG VV001 13/13 A3001 RMK AO2=
201309100642 SPECI KPAE 100642Z AUTO 01005KT 1/4SM R16R/1400V2200FT FG VV001 14/13 A3002 RMK AO2=
201309100626 SPECI KPAE 100626Z AUTO 35005KT 3/4SM R16R/3500VP6000FT BR VV001 14/13 A3002 RMK AO2=
201309100615 SPECI KPAE 100615Z AUTO 35005KT 1 1/2SM BR BKN001 14/13 A3002 RMK AO2=
201309100608 SPECI KPAE 100608Z AUTO 36005KT 5SM BR BKN001 14/13 A3002 RMK AO2=
201309100553 METAR KPAE 100553Z AUTO 35005KT 10SM FEW001 14/13 A3002 RMK AO2 SLP164 P0001 60002 T01390128 10222 20139 51003=
201309100453 METAR KPAE 100453Z AUTO VRB05KT 10SM CLR 15/13 A3001 RMK AO2 SLP162 T01500133=
201309100353 METAR KPAE 100353Z AUTO 01004KT 10SM CLR 17/14 A3002 RMK AO2 SLP164 T01720139=
201309100253 METAR KPAE 100253Z 00000KT 10SM CLR 18/14 A3001 RMK AO2 SLP160 60001 T01830139 57005=
201309100153 METAR KPAE 100153Z 36004KT 10SM CLR 19/14 A3001 RMK AO2 SLP162 P0001 T01940139=
201309100053 METAR KPAE 100053Z 36005KT 10SM CLR 21/14 A3002 RMK AO2 SLP164 T02110139=
201309092353 METAR KPAE 092353Z 35004KT 10SM CLR 22/14 A3002 RMK AO2 SLP164 60002 T02220139 10228 20178 56010=
201309092253 METAR KPAE 092253Z VRB04KT 10SM CLR 22/14 A3003 RMK AO2 SLP166 P0001 T02220144=
201309092153 METAR KPAE 092153Z 00000KT 10SM CLR 22/15 A3004 RMK AO2 SLP169 T02170150=
201309092053 METAR KPAE 092053Z VRB04KT 10SM CLR 21/14 A3005 RMK AO2 SLP176 60001 T02060144 58011=
201309091953 METAR KPAE 091953Z VRB05KT 10SM CLR 19/14 A3007 RMK AO2 SLP180 P0001 T01940144=
201309091853 METAR KPAE 091853Z VRB03KT 10SM CLR 19/14 A3008 RMK AO2 SLP185 LOW LEVEL FG S-NW T01890139=
201309091753 METAR KPAE 091753Z 00000KT 10SM SCT007 18/14 A3009 RMK AO2 SLP187 60002 T01780139 10178 20133 53004=
201309091732 SPECI KPAE 091732Z 00000KT 10SM SCT007 17/14 A3009 RMK AO2=
201309091653 METAR KPAE 091653Z 00000KT 1SM R16R/P6000FT BR SCT001 BKN003 15/13 A3008 RMK AO2 SLP185 P0001 T01500133=
201309091553 METAR KPAE 091553Z 00000KT 1SM R16R/P6000FT BR OVC003 14/13 A3008 RMK AO2 SLP183 T01440133=
201309091551 SPECI KPAE 091551Z 00000KT 1SM R16R/P6000FT BR OVC003 14/13 A3008 RMK AO2=
201309091544 SPECI KPAE 091544Z 00000KT 1/2SM R16R/1600VP6000FT FG VV001 14/13 A3008 RMK AO2=
201309091522 SPECI KPAE 091522Z 00000KT 1/2SM R16R/0700V1200FT FG VV001 14/13 A3008 RMK AO2=
201309091453 METAR KPAE 091453Z 03003KT M1/4SM R16R/0600V0800FT FG VV001 13/13 A3008 RMK AO2 SLP183 60001 T01330128 53005=
201309091353 METAR KPAE 091353Z 02003KT 1/4SM R16R/0700V0800FT FG VV001 13/13 A3007 RMK AO2 SLP180 T01330128=
201309091253 METAR KPAE 091253Z AUTO 03004KT M1/4SM R16R/0700V0800FT FG VV001 13/13 A3006 RMK AO2 SLP177 P0001 T01330128 $=
201309091153 METAR KPAE 091153Z AUTO 01004KT M1/4SM R16R/0600V0700FT FG VV001 13/13 A3006 RMK AO2 SLP177 60001 70010 T01330128 10139 20133 55001 $=
201309091053 METAR KPAE 091053Z AUTO 02005KT M1/4SM R16R/0500V0700FT FG VV001 13/13 A3006 RMK AO2 SLP177 T01330128 $=
201309090953 METAR KPAE 090953Z AUTO 36003KT M1/4SM R16R/0600V0700FT FG VV001 13/13 A3006 RMK AO2 SLP178 T01330128 $=
201309090853 METAR KPAE 090853Z AUTO 03005KT M1/4SM R16R/0600V0700FT FG VV001 13/13 A3006 RMK AO2 SLP178 P0001 60001 T01330128 58003 $=
201309090753 METAR KPAE 090753Z AUTO 02003KT 1/4SM R16R/0700V1000FT FG VV001 14/13 A3007 RMK AO2 SLP182 T01390133 402390133 $=
201309090653 METAR KPAE 090653Z AUTO 01004KT 1/4SM R16R/1000V1400FT FG VV001 14/13 A3007 RMK AO2 SLP181 T01390133 $=
201309090644 SPECI KPAE 090644Z AUTO 03006KT 1/4SM R16R/1000V2000FT FG VV001 14/13 A3007 RMK AO2 $=
201309090637 SPECI KPAE 090637Z AUTO 02005KT 1/2SM R16R/1200V3500FT FG VV001 14/13 A3007 RMK AO2 $=
201309090626 SPECI KPAE 090626Z AUTO 03004KT 1/4SM R16R/1000V4500FT FG VV001 14/13 A3007 RMK AO2 $=
201309090622 SPECI KPAE 090622Z AUTO 02005KT 1/2SM R16R/0800V1200FT FG VV001 14/13 A3007 RMK AO2 $=
201309090553 METAR KPAE 090553Z AUTO 01005KT 1/4SM R16R/1000V2000FT FG VV001 14/13 A3007 RMK AO2 SLP182 P0001 60003 T01390128 10239 20139 53004 $=
201309090547 SPECI KPAE 090547Z AUTO 01006KT 1 1/4SM R16R/1400VP6000FT BR BKN001 14/13 A3007 RMK AO2 P0001 $=
201309090543 SPECI KPAE 090543Z AUTO 3SM R16R/2200VP6000FT BR BKN001 14/13 A3007 RMK AO2 P0001 $=
201309090531 SPECI KPAE 090531Z AUTO 01006KT 10SM FEW001 14/13 A3007 RMK AO2 P0001=
201309090453 METAR KPAE 090453Z AUTO 02005KT 10SM CLR 16/13 A3007 RMK AO2 SLP180 T01560133=
201309090353 METAR KPAE 090353Z AUTO 00000KT 10SM CLR 18/14 A3006 RMK AO2 SLP178 T01830144=
201309090253 METAR KPAE 090253Z 00000KT 10SM CLR 19/14 A3006 RMK AO2 SLP177 P0001 60002 T01940139 56006=
201309090153 METAR KPAE 090153Z 00000KT 10SM CLR 21/14 A3006 RMK AO2 SLP177 T02110144=
201309090053 METAR KPAE 090053Z 36003KT 10SM CLR 23/14 A3007 RMK AO2 SLP180 P0001 T02330144=
201309082353 METAR KPAE 082353Z 00000KT 10SM CLR 24/13 A3008 RMK AO2 SLP182 60003 T02390133 10239 20183 56013=
201309082253 METAR KPAE 082253Z 24003KT 10SM CLR 22/15 A3009 RMK AO2 SLP185 P0001 T02220150=
201309082153 METAR KPAE 082153Z VRB03KT 10SM CLR 22/15 A3010 RMK AO2 SLP190 P0001 T02170150=
201309082053 METAR KPAE 082053Z 29006KT 10SM CLR 22/14 A3011 RMK AO2 SLP195 60001 T02170144 58004=
201309081953 METAR KPAE 081953Z 28005KT 10SM CLR 21/14 A3012 RMK AO2 SLP197 P0001 T02060144=
201309081853 METAR KPAE 081853Z 28004KT 10SM CLR 19/15 A3012 RMK AO2 SLP200 T01890150=
201309081753 METAR KPAE 081753Z VRB03KT 10SM FEW009 18/14 A3013 RMK AO2 SLP200 P0001 60003 T01830139 10183 20133 50005=
201309081653 METAR KPAE 081653Z 30005KT 4SM BR SCT006 BKN009 17/14 A3013 RMK AO2 SLP200 T01670144=
201309081600 SPECI KPAE 081600Z 00000KT 3SM BR BKN003 16/14 A3012 RMK AO2=
201309081553 METAR KPAE 081553Z COR 00000KT 4SM BR BKN003 16/14 A3012 RMK AO2 SLP198 P0001 T01610139=
201309081458 SPECI KPAE 081458Z 00000KT 3SM R16R/2800VP6000FT BR SCT001 14/13 A3011 RMK AO2=
201309081453 METAR KPAE 081453Z 00000KT 1SM R16R/2600VP6000FT BR VV001 14/14 A3011 RMK AO2 SLP195 60001 T01440139 53004=
201309081440 SPECI KPAE 081440Z 00000KT 1/4SM R16R/P6000FT FG VV001 14/13 A3011 RMK AO2=
201309081426 SPECI KPAE 081426Z 00000KT 1SM R16R/P6000FT BR VV001 14/13 A3011 RMK AO2=
201309081410 SPECI KPAE 081410Z 00000KT M1/4SM R16R/1800VP6000FT FG VV001 13/13 A3011 RMK AO2=
201309081402 SPECI KPAE 081402Z 00000KT 1/4SM R16R/1200V1800FT FG VV001 14/13 A3011 RMK AO2=
201309081353 METAR KPAE 081353Z 00000KT 1/4SM R16R/1200V3500FT FG VV001 14/13 A3010 RMK AO2 SLP192 P0001 T01390128=
201309081349 SPECI KPAE 081349Z 00000KT 3/4SM R16R/1800V5000FT BR VV001 14/13 A3010 RMK AO2 P0001=
201309081347 SPECI KPAE 081347Z AUTO 00000KT 1 3/4SM R16R/1800VP6000FT BR SCT001 14/13 A3010 RMK AO2 P0001=
201309081337 SPECI KPAE 081337Z AUTO 00000KT 5SM BR SCT001 14/13 A3010 RMK AO2=
201309081253 METAR KPAE 081253Z AUTO 00000KT 9SM CLR 14/13 A3010 RMK AO2 SLP190 T01440128=
201309081230 SPECI KPAE 081230Z AUTO 00000KT 5SM R16R/6000VP6000FT BR SCT001 14/13 A3010 RMK AO2=
201309081226 SPECI KPAE 081226Z AUTO 00000KT 2 1/2SM R16R/2600VP6000FT BR BKN001 14/13 A3010 RMK AO2 VIS 3/4V5=
201309081205 SPECI KPAE 081205Z AUTO 03003KT 3/4SM R16R/1600V2800FT BR BKN001 OVC016 14/13 A3010 RMK AO2=
201309081155 SPECI KPAE 081155Z AUTO 36004KT 1 3/4SM R16R/3000VP6000FT BR BKN001 BKN016 14/13 A3010 RMK AO2=
201309081153 METAR KPAE 081153Z AUTO 36003KT 3SM R16R/3500VP6000FT BR BKN001 BKN016 14/13 A3010 RMK AO2 SLP190 P0001 60004 70020 T01440133 10161 20139 53003=
201309081147 SPECI KPAE 081147Z AUTO 00000KT 5SM BR FEW001 BKN016 14/13 A3010 RMK AO2 P0001=
201309081053 METAR KPAE 081053Z AUTO 00000KT 9SM CLR 14/13 A3009 RMK AO2 SLP189 T01440133=
201309080953 METAR KPAE 080953Z AUTO 35006KT 10SM CLR 14/13 A3009 RMK AO2 SLP189 P0001 T01440128=
201309080853 METAR KPAE 080853Z AUTO 00000KT 6SM BR FEW001 14/13 A3009 RMK AO2 SLP188 P0001 60002 T01440133 51003=
201309080850 SPECI KPAE 080850Z AUTO 00000KT 6SM BR SCT001 14/13 A3009 RMK AO2 P0001=
201309080811 SPECI KPAE 080811Z AUTO 00000KT 4SM BR OVC001 14/13 A3009 RMK AO2 P0001=
201309080753 METAR KPAE 080753Z AUTO 00000KT 2 1/2SM BR BKN001 14/13 A3009=
201309080711 SPECI KPAE 080711Z AUTO 00000KT 5SM R16R/2800VP6000FT BR BKN001 15/14 A3008 RMK AO2=
201309080700 SPECI KPAE 080700Z AUTO VRB03KT 6SM BR SCT001 15/14 A3008 RMK AO2=
201309080653 METAR KPAE 080653Z AUTO 36003KT 7SM CLR 15/14 A3008 RMK AO2 SLP185 P0001 T01500139=
201309080611 SPECI KPAE 080611Z AUTO 01004KT 9SM SCT002 16/14 A3008 RMK AO2=
201309080553 METAR KPAE 080553Z AUTO 00000KT 10SM CLR 16/14 A3008 RMK AO2 SLP184 P0001 60005 T01610139 10206 20156 51007=
201309080453 METAR KPAE 080453Z AUTO 00000KT 10SM CLR 16/14 A3007 RMK AO2 SLP183 T01610139=
201309080353 METAR KPAE 080353Z AUTO 34003KT 10SM CLR 17/14 A3007 RMK AO2 SLP180 P0001 T01670139=
201309080253 METAR KPAE 080253Z 00000KT 10SM CLR 18/14 A3006 RMK AO2 SLP177 P0001 60003 T01780139 55001=
201309080153 METAR KPAE 080153Z 00000KT 10SM CLR 19/13 A3005 RMK AO2 SLP174 P0001 T01940133=
201309080053 METAR KPAE 080053Z VRB04KT 10SM CLR 20/14 A3006 RMK AO2 SLP175 P0001 T02000139=
201309072353 METAR KPAE 072353Z 36004KT 10SM CLR 21/14 A3006 RMK AO2 SLP177 P0001 60005 T02060139 10211 20161 58008=
201309072253 METAR KPAE 072253Z 26005KT 10SM FEW015 20/14 A3007 RMK AO2 SLP181 T02000144=
201309072153 METAR KPAE 072153Z 30006KT 10SM CLR 20/14 A3008 RMK AO2 SLP182 P0001 T02000144=
201309072053 METAR KPAE 072053Z 28006KT 10SM SCT013 19/14 A3008 RMK AO2 SLP185 P0001 60003 T01940144 56007=
201309072011 SPECI KPAE 072011Z 30005KT 10SM SCT006 SCT020 19/14 A3009 RMK AO2=
201309072004 SPECI KPAE 072004Z 30004KT 10SM SCT014 SCT020 19/14 A3009 RMK AO2=
201309071953 METAR KPAE 071953Z 30004KT 10SM SCT006 BKN016 18/14 A3009 RMK AO2 SLP186 P0001 T01830144=
201309071945 SPECI KPAE 071945Z 30005KT 10SM SCT006 BKN016 19/15 A3009 RMK AO2=
201309071907 SPECI KPAE 071907Z 00000KT 10SM BKN006 18/14 A3009 RMK AO2=
201309071858 SPECI KPAE 071858Z VRB03KT 10SM BKN060 18/14 A3009 RMK AO2=
201309071853 METAR KPAE 071853Z 00000KT 10SM BKN008 18/14 A3010 RMK AO2 CIG 006V012 SLP189 P0001 T01830139=
201309071841 SPECI KPAE 071841Z 01003KT 10SM BKN006 BKN010 18/14 A3010 RMK AO2 CIG 003V008=
201309071753 METAR KPAE 071753Z 35003KT 9SM BKN004 BKN007 OVC060 16/14 A3011 RMK AO2 SLP194 P0001 60006 T01610144 10167 20156 50004=
201309071653 METAR KPAE 071653Z 00000KT 9SM BKN004 BKN007 OVC060 16/14 A3011 RMK AO2 SLP194 P0001 T01610144=
201309071613 SPECI KPAE 071613Z 00000KT 10SM BKN004 OVC060 16/14 A3010 RMK AO2 CIG 003V007=
201309071553 METAR KPAE 071553Z 00000KT 10SM SCT003 OVC060 16/14 A3010 RMK AO2 SLP190 P0001 T01560144=
201309071548 SPECI KPAE 071548Z 27003KT 10SM SCT003 OVC060 16/14 A3010 RMK AO2 P0001=
201309071500 SPECI KPAE 071500Z 00000KT 10SM BKN007 OVC065 16/14 A3011 RMK AO2=
201309071453 METAR KPAE 071453Z 00000KT 10SM SCT022 OVC065 16/14 A3011 RMK AO2 SLP193 P0001 60003 T01610144 55001=
201309071353 METAR KPAE 071353Z 00000KT 10SM SCT022 OVC065 17/15 A3010 RMK AO2 SLP191 P0001 T01670150=
201309071253 METAR KPAE 071253Z AUTO 00000KT 10SM OVC070 17/14 A3010 RMK AO2 SLP191 P0001 T01670144 $=
201309071153 METAR KPAE 071153Z AUTO 15004KT 10SM OVC070 17/14 A3011 RMK AO2 SLP193 P0001 60008 7//// T01670144 10172 20167 56005 $=
201309071053 METAR KPAE 071053Z AUTO 14005KT 10SM SCT070 OVC100 17/14 A3011 RMK AO2 SLP194 P0001 T01670144 $=
201309070953 METAR KPAE 070953Z AUTO 15007KT 10SM BKN090 OVC100 17/14 A3011 RMK AO2 SLP195 P0002 T01670144 $=
201309070853 METAR KPAE 070853Z AUTO 15007KT 10SM OVC085 17/15 A3012 RMK AO2 SLP199 P0001 60004 T01670150 56003 $=
201309070753 METAR KPAE 070753Z AUTO 15005KT 10SM OVC090 17/14 A3012 RMK AO2 SLP200 P0001 T01720144 402060156 $=
201309070653 METAR KPAE 070653Z AUTO 18009KT 10SM OVC100 17/14 A3012 RMK AO2 SLP198 P0002 T01720144 $=
201309070553 METAR KPAE 070553Z AUTO 18006KT 10SM BKN100 17/14 A3013 RMK AO2 SLP201 P0001 60011 T01720139 10206 20172 51013 $=
201309070453 METAR KPAE 070453Z AUTO 16009KT 10SM CLR 17/14 A3012 RMK AO2 SLP198 P0002 T01720144 $=
201309070353 METAR KPAE 070353Z AUTO 18008KT 10SM FEW120 18/15 A3011 RMK AO2 SLP194 P0002 T01780150 $=
201309070253 METAR KPAE 070253Z 20009KT 10SM CLR 18/15 A3009 RMK AO2 SLP189 P0002 60006 T01830150 53003 $=
201309070153 METAR KPAE 070153Z 20008KT 10SM BKN034 19/15 A3009=
201309070053 METAR KPAE 070053Z 22006KT 10SM BKN032 20/15 A3008 RMK AO2 SLP184 P0002 T02000150 $=
201309062353 METAR KPAE 062353Z 26005KT 10SM CLR 21/15 A3008 RMK AO2 SLP185 P0002 60014 T02060150 10206 20161 52006 $=
201309062253 METAR KPAE 062253Z 24007KT 10SM SCT012 SCT024 BKN033 19/16 A3008 RMK AO2 SLP184 P0003 T01890156 $=
201309062200 SPECI KPAE 062200Z 25005KT 10SM SCT012 SCT024 BKN033 19/16 A3007 RMK AO2 P0001 $=
201309062153 METAR KPAE 062153Z 25006KT 7SM SCT005 OVC017 18/16 A3007 RMK AO2 SLP180 P0002 T01830161 $=
201309062100 SPECI KPAE 062100Z 26004KT 7SM SCT005 OVC017 18/16 A3007 RMK AO2 $=
201309062053 METAR KPAE 062053Z 24004KT 10SM BKN007 OVC015 18/16 A3006 RMK AO2 SLP179 P0002 60007 T01780161 53003 $=
201309062003 SPECI KPAE 062003Z 20005KT 10SM BKN007 OVC015 18/16 A3005 RMK AO2 $=
201309061955 SPECI KPAE 061955Z 23004KT 10SM SCT007 OVC015 17/16 A3005 RMK AO2 $=
201309061953 METAR KPAE 061953Z 23003KT 4SM BR BKN002 OVC010 17/16 A3006 RMK AO2 SLP177 VIS S-NW 1SM P0003 T01720156 $=
201309061920 SPECI KPAE 061920Z 00000KT 4SM BR BKN002 OVC010 16/16 A3007 RMK AO2 VIS S-NW 1SM P0001 $=
201309061913 SPECI KPAE 061913Z 00000KT 2 1/2SM R16R/1400VP6000FT BR BKN002 OVC010 16/15 A3006 RMK AO2 P0001 $=
201309061855 SPECI KPAE 061855Z 24005KT 1/4SM R16R/0700V1800FT FG BKN004 BKN010 OVC015 16/15 A3006 RMK AO2 $=
201309061853 METAR KPAE 061853Z 25005KT 1SM R16R/0700VP6000FT BR BKN002 OVC010 16/15 A3006 RMK AO2 RAE31 SLP177 P0002 T01610150 $=
201309061847 SPECI KPAE 061847Z 24006KT 1/4SM R16R/1200VP6000FT FG BKN002 OVC005 17/16 A3006 RMK AO2 RAE31 P0002 $=
201309061843 SPECI KPAE 061843Z 27003KT 10SM BKN007 OVC012 17/16 A3006 RMK AO2 RAE31 CIG 004V010 P0002 $=
201309061753 METAR KPAE 061753Z 00000KT 2SM -RA BR BKN004 OVC008 17/15 A3006 RMK AO2 SLP176 6//// T01670150 10167 20156 51014 $=
201309061741 SPECI KPAE 061741Z 00000KT 2SM -RA BR BKN004 OVC090 16/15 A3005 RMK AO2 PRESRR $=
201309061653 METAR KPAE 061653Z 16006KT 1 3/4SM +RA BR BKN006 OVC040 16/15 A3004 RMK AO2 SLP170 P0003 T01610150=
201309061553 METAR KPAE 061553Z 00000KT 8SM -RA OVC006 16/14 A3003 RMK AO2 RAB1454 SLP169 P0003 T01610144=
201309061453 METAR KPAE 061453Z 16005KT 10SM BKN004 OVC017 16/14 A3001 RMK AO2 SLP162 P0003 60009 T01560144 52010=
201309061444 SPECI KPAE 061444Z 18003KT 10SM BKN004 BKN017 OVC024 16/14 A3001 RMK AO2 P0003=
201309061416 SPECI KPAE 061416Z 17005KT 10SM SCT004 BKN023 OVC055 16/14 A3000 RMK AO2 P0002=
201309061407 SPECI KPAE 061407Z 16005KT 10SM SCT004 SCT023 OVC055 16/14 A3000 RMK AO2 P0001=
201309061353 METAR KPAE 061353Z 16007KT 10SM FEW024 SCT035 OVC055 16/14 A3000 RMK AO2 RAE44 SLP156 P0003 T01560144=
201309061350 SPECI KPAE 061350Z 16006KT 10SM FEW004 SCT024 OVC055 16/14 A3000 RMK AO2 RAE44 P0003=
201309061337 SPECI KPAE 061337Z AUTO 16006KT 9SM -RA SCT004 BKN024 OVC060 16/14 A2999 RMK AO2 P0003=
201309061253 METAR KPAE 061253Z AUTO 17006KT 9SM -RA OVC004 16/14 A2998 RMK AO2 SLP151 P0003 T01560144 $=
201309061210 SPECI KPAE 061210Z AUTO 16005KT 9SM -RA BKN004 OVC010 16/14 A2997 RMK AO2 P0001 $=
201309061201 SPECI KPAE 061201Z AUTO 16005KT 9SM -RA SCT004 OVC010 16/14 A2997 RMK AO2 P0000 $=
201309061153 METAR KPAE 061153Z AUTO 16005KT 10SM -RA OVC008 16/14 A2997 RMK AO2 CIG 005V012 SLP146 P0004 6//// 7//// T01560144 10161 20156 57003 $=
201309061149 SPECI KPAE 061149Z AUTO 16005KT 10SM -RA OVC008 16/14 A2997 RMK AO2 CIG 004V012 P0003 $=
201309061053 METAR KPAE 061053Z AUTO 16004KT 9SM -RA SCT002 OVC010 16/14 A2997 RMK AO2 SLP149 P0004 T01560144 $=
201309060953 METAR KPAE 060953Z AUTO 11004KT 6SM RA BR BKN004 OVC080 16/14 A2998 RMK AO2 LTG DSNT NE SLP149 P0004 T01560144 $=
201309060950 SPECI KPAE 060950Z AUTO 00000KT 5SM RA BR BKN004 OVC080 16/14 A2997 RMK AO2 LTG DSNT NE P0004 $=
201309060941 SPECI KPAE 060941Z AUTO 00000KT 3SM RA BR SCT006 OVC080 16/14 A2997 RMK AO2 P0003 $=
201309060853 METAR KPAE 060853Z AUTO 19004KT 3SM RA BR OVC070 16/14 A2999 RMK AO2 TSE14 SLP154 6//// T01560144 50006 $=
201309060827 SPECI KPAE 060827Z AUTO 18006KT 3SM RA BR BKN060 OVC075 16/14 A3000 RMK AO2 TSE14 $=
201309060820 SPECI KPAE 060820Z AUTO 17007KT 2 1/2SM RA BR BKN050 OVC075 16/14 A3000 RMK AO2 TSE14 $=
201309060809 SPECI KPAE 060809Z AUTO 16007KT 2 1/2SM VCTS RA BR OVC046 16/14 A3000 RMK AO2 LTG DSNT NE $=
201309060753 METAR KPAE 060753Z AUTO 15006KT 1 3/4SM VCTS +RA BR FEW004 OVC034 16/14 A3001 RMK AO2 LTG DSNT E AND S AND NW SLP161 T01560144 401780139 $=
201309060748 SPECI KPAE 060748Z AUTO 16009KT 1 1/2SM +TSRA BR FEW004 SCT017 OVC032 16/14 A3000 RMK AO2 LTG DSNT ALQDS 401780139 $=
201309060726 SPECI KPAE 060726Z AUTO 10006KT 1 3/4SM +TSRA BR SCT004 BKN016 OVC021 16/14 A3001 RMK AO2 LTG DSNT W AND NW $=
201309060718 SPECI KPAE 060718Z AUTO 11008KT 4SM TSRA BR FEW004 BKN021 OVC026 16/15 A3001 RMK AO2 LTG DSNT ALQDS PRESRR PNO $=
201309060653 METAR KPAE 060653Z AUTO 19008KT 6SM TSRA BR FEW021 OVC027 16/14 A2997 RMK AO2 LTG DSNT ALQDS RAB12 SLP149 P0002 T01610144=
201309060642 SPECI KPAE 060642Z AUTO 18007KT 6SM -TSRA BR SCT020 BKN027 OVC055 16/14 A2997 RMK AO2 LTG DSNT ALQDS RAB12 P0001=
201309060553 METAR KPAE 060553Z AUTO 24004KT 10SM VCTS FEW018 SCT120 16/13 A2996 RMK AO2 LTG DSNT ALQDS TSB39RAB07E27 SLP145 P0000 60000 T01610133 10172 20161 53003=
201309060545 SPECI KPAE 060545Z AUTO 22004KT 10SM VCTS FEW018 SCT120 16/13 A2996 RMK AO2 LTG DSNT ALQDS TSB39RAB07E27 P0000=
201309060453 METAR KPAE 060453Z AUTO 29003KT 10SM FEW042 OVC090 16/13 A2995 RMK AO2 LTG DSNT N-SE SLP141 T01610133=
201309060353 METAR KPAE 060353Z AUTO 00000KT 10SM OVC095 16/13 A2995 RMK AO2 LTG DSNT NW-NE SLP142 T01610128=
201309060253 METAR KPAE 060253Z 36004KT 10SM BKN080 OVC100 17/13 A2996 RMK AO2 SLP143 T01670128 55007=
201309060153 METAR KPAE 060153Z 36004KT 10SM FEW120 17/13 A2995 RMK AO2 SLP139 T01670133=
201309060053 METAR KPAE 060053Z 31005KT 10SM SCT010 BKN100 17/13 A2998 RMK AO2 SLP151 T01670133=
201309052355 SPECI KPAE 052355Z 35003KT 10SM SCT010 BKN100 17/14 A2998 RMK AO2=
201309052353 METAR KPAE 052353Z 35004KT 10SM BKN010 BKN110 17/14 A2998 RMK AO2 SLP150 60001 T01720139 10178 20156 58016=
201309052341 SPECI KPAE 052341Z 36004KT 10SM OVC010 17/14 A2998 RMK AO2 CIG 007V013=
201309052253 METAR KPAE 052253Z 33005KT 10SM OVC007 17/14 A3000 RMK AO2 SLP157 T01670144=
201309052153 METAR KPAE 052153Z VRB04KT 10SM SCT003 OVC007 17/14 A3002 RMK AO2 SLP163 T01720144=
201309052053 METAR KPAE 052053Z VRB03KT 4SM HZ OVC003 17/14 A3003 RMK AO2 SLP166 60001 T01720144 58006=
201309052048 SPECI KPAE 052048Z VRB03KT 8SM OVC004 17/15 A3003 RMK AO2=
201309052004 SPECI KPAE 052004Z 27005KT 1SM R16R/P6000FT BR OVC003 16/14 A3003 RMK AO2 CIG 002V007=
201309051953 METAR KPAE 051953Z 27006KT 5SM BR OVC003 16/14 A3003 RMK AO2 SLP168 T01610144=
201309051853 METAR KPAE 051853Z 31005KT 5SM BR OVC003 16/14 A3004 RMK AO2 SLP172 P0001 T01560139=
201309051753 METAR KPAE 051753Z 35003KT 6SM BR BKN003 16/14 A3005 RMK AO2 LTG DSNT W TSE04B06E07 SLP173 60008 T01560139 10156 20139 55003=
201309051713 SPECI KPAE 051713Z 02005KT 2SM R16R/5000VP6000FT BR OVC003 15/14 A3004 RMK AO2 LTG DSNT SW TSE04B06E07=
201309051706 SPECI KPAE 051706Z 01005KT 2SM R16R/4000VP6000FT VCTS BR OVC003 15/14 A3004 RMK AO2 LTG DSNT SW TSE04B06=
201309051653 METAR KPAE 051653Z VRB03KT 2SM VCTS BR BKN003 OVC009 14/14 A3004 RMK AO2 LTG DSNT SW RAE1558B24E37 SLP171 P0001 T01440139=
201309051633 SPECI KPAE 051633Z 02006KT 1/2SM R16R/P6000FT VCTS -RA FG BKN003 OVC009 14/13 A3003 RMK AO2 LTG DSNT S AND SW RAE1558B24 P0001=
201309051619 SPECI KPAE 051619Z 35004KT 6SM TS BR BKN003 OVC090 14/13 A3004 RMK AO2 LTG DSNT S RAE1558 P0001=
201309051553 METAR KPAE 051553Z 03004KT 6SM VCTS -RA BR BKN005 OVC011 15/13 A3004 RMK AO2 LTG DSNT S AND SW TSB40E48B53 SLP172 P0006 T01500133=
201309051546 SPECI KPAE 051546Z 00000KT 6SM VCTS -RA SCT003 BKN009 15/13 A3005 RMK AO2 LTG DSNT NE AND S AND SW TSB40 P0005=
201309051533 SPECI KPAE 051533Z 36004KT 6SM -RA BR SCT003 BKN009 15/13 A3004 RMK AO2 P0004=
201309051453 METAR KPAE 051453Z 26004KT 8SM RA SCT055 OVC100 15/13 A3005 RMK AO2 RAE07B40 SLP176 P0001 60001 T01500128 51012=
201309051353 METAR KPAE 051353Z 22003KT 10SM -RA OVC110 15/13 A3004 RMK AO2 RAB47 SLP172 P0000 T01500133=
201309051253 METAR KPAE 051253Z AUTO 15003KT 8SM BKN120 14/13 A3005 RMK AO2 SLP174 T01440128=
201309051153 METAR KPAE 051153Z AUTO 33005KT 10SM SCT085 14/13 A3002 RMK AO2 LTG DSNT E PRESFR SLP164 70003 T01440128 10167 20144 56007=
201309051053 METAR KPAE 051053Z 01004KT 10SM CLR 15/13 A3003 RMK AO2 SLP166 T01500133=
201309050953 METAR KPAE 050953Z 02004KT 10SM CLR 16/13 A3003 RMK AO2 SLP166 T01560133=
201309050939 SPECI KPAE 050939Z 05005KT 10SM SCT015 16/14 A3004 RMK AO2=
201309050914 SPECI KPAE 050914Z 00000KT 10SM BKN015 16/14 A3005 RMK AO2=
201309050853 METAR KPAE 050853Z 04004KT 8SM FEW015 16/14 A3004 RMK AO2 SLP170 T01610144 56012=
201309050815 SPECI KPAE 050815Z 00000KT 5SM BR FEW002 16/14 A3006 RMK AO2=
201309050753 METAR KPAE 050753Z 01003KT 7SM CLR 15/14 A3005 RMK AO2 SLP174 T01500139 402000139=
201309050653 METAR KPAE 050653Z 03003KT 10SM CLR 16/14 A3006 RMK AO2 SLP178 T01610139=
201309050553 METAR KPAE 050553Z 26003KT 10SM CLR 17/14 A3007 RMK AO2 SLP182 T01670139 10194 20161 52005=
201309050453 METAR KPAE 050453Z 00000KT 10SM CLR 16/14 A3006 RMK AO2 SLP178 T01610139=
201309050353 METAR KPAE 050353Z 00000KT 10SM CLR 17/14 A3007 RMK AO2 SLP181 T01720139=
201309050253 METAR KPAE 050253Z 26004KT 10SM BKN090 18/14 A3006 RMK AO2 SLP177 T01780144 53001=
201309050153 METAR KPAE 050153Z 00000KT 10SM BKN090 19/14 A3005 RMK AO2 SLP175 T01890144=
201309050053 METAR KPAE 050053Z 00000KT 10SM FEW100 19/14 A3005 RMK AO2 SLP175 T01890139=
201309042353 METAR KPAE 042353Z 34003KT 10SM FEW095 19/14 A3005 RMK AO2 SLP176 T01940144 10200 20156 58002=
201309042300 SPECI KPAE 042300Z 01005KT 10SM FEW021 19/14 A3007 RMK AO2=
201309042253 METAR KPAE 042253Z 35005KT 10SM BKN010 BKN015 19/14 A3006 RMK AO2 SLP179 T01940139=
201309042153 METAR KPAE 042153Z 33003KT 10SM BKN012 BKN018 19/15 A3006=
201309042125 SPECI KPAE 042125Z 35004KT 10SM SCT007 OVC012 18/15 A3006 RMK AO2=
201309042118 SPECI KPAE 042118Z 36004KT 10SM OVC012 18/14 A3006 RMK AO2=
201309042053 METAR KPAE 042053Z 32005KT 9SM OVC007 17/14 A3006 RMK AO2 SLP178 T01720144 55003=
201309042016 SPECI KPAE 042016Z 33005KT 6SM BR OVC005 16/15 A3006 RMK AO2 CIG 002V007=
201309042004 SPECI KPAE 042004Z 35006KT 4SM BR OVC003 16/15 A3005 RMK AO2 CIG 001V007=
201309041953 METAR KPAE 041953Z 34005KT 3SM BR OVC001 16/15 A3006 RMK AO2 SLP177 T01610150=
201309041946 SPECI KPAE 041946Z VRB04KT 2 1/2SM BR OVC001 16/15 A3006 RMK AO2=
201309041935 SPECI KPAE 041935Z 33007KT 1SM R16R/2600VP6000FT BR OVC001 16/15 A3005 RMK AO2=
201309041916 SPECI KPAE 041916Z 34005KT 1/4SM R16R/1200VP6000FT FG VV001 16/15 A3006 RMK AO2=
201309041853 METAR KPAE 041853Z 32004KT 1/2SM R16R/3000VP6000FT FG OVC001 16/15 A3006 RMK AO2 SLP177 T01610150=
201309041831 SPECI KPAE 041831Z 34003KT 1/2SM R16R/1400V4000FT FG VV001 16/15 A3006 RMK AO2=
201309041753 METAR KPAE 041753Z 31003KT 1/4SM R16R/1000V1400FT FG VV001 16/14 A3007 RMK AO2 SLP181 60003 T01560144 10156 20144 53002=
201309041744 SPECI KPAE 041744Z 00000KT 1/2SM R16R/1200V2200FT FG VV001 16/14 A3006 RMK AO2=
201309041653 METAR KPAE 041653Z 02005KT M1/4SM R16R/0800V1000FT FG OVC001 16/14 A3006 RMK AO2 SLP177 T01560144=
201309041632 SPECI KPAE 041632Z 01004KT 1/4SM R16R/1200V1400FT FG VV001 15/14 A3006 RMK AO2=
201309041610 SPECI KPAE 041610Z 36004KT 1/4SM R16R/1200V1400FT FG VV002 15/14 A3006 RMK AO2=
201309041601 SPECI KPAE 041601Z 33004KT 1/4SM R16R/1200V2600FT FG VV002 15/14 A3006 RMK AO2=
201309041553 METAR KPAE 041553Z 32004KT 1/4SM R16R/1600V4000FT FG VV001 15/14 A3006 RMK AO2 SLP178 T01500144=
201309041453 METAR KPAE 041453Z 36003KT M1/4SM R16R/1000V1400FT FG VV001 15/14 A3004 RMK AO2 SLP171 60003 T01500144 53001=
201309041416 SPECI KPAE 041416Z 32004KT M1/4SM R16R/1200V1600FT FG VV001 14/14 A3003 RMK AO2=
201309041404 SPECI KPAE 041404Z VRB03KT 1/4SM R16R/4000VP6000FT FG VV002 14/14 A3004 RMK AO2=
201309041353 METAR KPAE 041353Z VRB03KT 1 3/4SM BR BKN001 OVC006 14/14 A3003 RMK AO2 RAE04B21E41 SLP167 P0002 T01440139=
201309041346 SPECI KPAE 041346Z 02004KT 3SM BR BKN001 BKN006 OVC044 14/13 A3003 RMK AO2 RAE04B21E41 P0002=
201309041339 SPECI KPAE 041339Z AUTO 01004KT 5SM -RA BR BKN006 BKN044 OVC070 14/13 A3002 RMK AO2 RAE04B21 P0002=
201309041329 SPECI KPAE 041329Z AUTO 00000KT 3SM -RA BR SCT006 BKN044 BKN070 14/13 A3003 RMK AO2 RAE04B21 P0002=
201309041253 METAR KPAE 041253Z AUTO 35003KT 4SM -RA BR FEW017 BKN030 BKN110 14/13 A3002 RMK AO2 RAB08E21B45 SLP165 P0001 T01440133=
201309041206 SPECI KPAE 041206Z AUTO 33005KT 5SM BR SCT008 SCT015 BKN110 14/13 A3003 RMK AO2=
201309041153 METAR KPAE 041153Z AUTO 00000KT 4SM BR BKN008 OVC015 14/13 A3004 RMK AO2 SLP169 70006 T01440133 10161 20139 58000=
201309041139 SPECI KPAE 041139Z AUTO 00000KT 5SM BR BKN008 14/13 A3003 RMK AO2=
201309041053 METAR KPAE 041053Z AUTO 33003KT 9SM SCT008 14/13 A3004 RMK AO2 SLP170 T01440133=
201309041049 SPECI KPAE 041049Z AUTO 33003KT 9SM BKN008 14/13 A3004 RMK AO2=
201309041030 SPECI KPAE 041030Z AUTO 00000KT 6SM BR FEW006 14/13 A3004 RMK AO2=
201309040953 METAR KPAE 040953Z AUTO 00000KT 6SM BR CLR 14/13 A3004 RMK AO2 SLP171 T01440133=
201309040853 METAR KPAE 040853Z AUTO 00000KT 6SM BR CLR 14/13 A3005 RMK AO2 SLP174 T01440133 50000=
201309040753 METAR KPAE 040753Z AUTO 00000KT 8SM CLR 15/14 A3005 RMK AO2 SLP175 T01500139 402060150=
201309040653 METAR KPAE 040653Z AUTO 00000KT 8SM CLR 15/14 A3005 RMK AO2 SLP176 T01500139=
201309040553 METAR KPAE 040553Z AUTO 00000KT 10SM CLR 16/14 A3005 RMK AO2 SLP174 P0001 60001 T01610144 10206 20156 53009=
201309040453 METAR KPAE 040453Z AUTO 00000KT 10SM CLR 17/15 A3003 RMK AO2 SLP169 T01670150=
201309040353 METAR KPAE 040353Z 00000KT 10SM CLR 17/15 A3003 RMK AO2 SLP167 T01720150=
201309040253 METAR KPAE 040253Z 00000KT 10SM CLR 18/14 A3002 RMK AO2 SLP164 T01780144 53001=
201309040153 METAR KPAE 040153Z 02003KT 10SM CLR 20/13 A3001 RMK AO2 SLP160 T02000133=
201309040053 METAR KPAE 040053Z VRB03KT 10SM CLR 21/15 A3001 RMK AO2 SLP161 T02060150=
201309032353 METAR KPAE 032353Z AUTO 35003KT 10SM SCT100 21/16 A3002 RMK AO2 SLP163 60001 T02060156 10206 20161 58000 TSNO=
201309032253 METAR KPAE 032253Z 33003KT 10SM SCT110 19/16 A3002 RMK AO2 SLP163 T01940156=
201309032153 METAR KPAE 032153Z 00000KT 10SM BKN100 19/16 A3002 RMK AO2 SLP165 T01890156=
201309032135 SPECI KPAE 032135Z VRB03KT 10SM FEW006 OVC100 18/16 A3002 RMK AO2=
201309032053 METAR KPAE 032053Z 36003KT 10SM FEW048 OVC100 18/15 A3002 RMK AO2 RAE40 SLP164 P0001 60001 T01830150 50003=
201309031953 METAR KPAE 031953Z 00000KT 6SM -RA BR OVC095 17/15 A3002 RMK AO2 RAB43 SLP165 P0000 T01720150=
201309031853 METAR KPAE 031853Z 02003KT 10SM SCT006 OVC090 18/15 A3001 RMK AO2 SLP162 T01830150=
201309031800 SPECI KPAE 031800Z 00000KT 9SM FEW001 OVC090 16/15 A3001 RMK AO2=
201309031753 METAR KPAE 031753Z 31003KT M1/4SM R16R/P6000FT FG SCT001 OVC090 16/15 A3001 RMK AO2 SLP161 60004 T01610150 10161 20156 52006=
201309031718 SPECI KPAE 031718Z 24004KT M1/4SM R16R/2200VP6000FT FG BKN001 OVC095 16/15 A3002 RMK AO2=
201309031709 SPECI KPAE 031709Z 26004KT M1/4SM R16R/2600VP6000FT FG BKN003 OVC090 16/15 A3001 RMK AO2=
201309031653 METAR KPAE 031653Z 00000KT 9SM FEW005 OVC090 16/15 A3000 RMK AO2 RAB42E53 SLP158 P0000 T01610150=
201309031651 SPECI KPAE 031651Z 00000KT 8SM -RA FEW002 OVC090 16/15 A3000 RMK AO2 RAB42 P0000=
201309031553 METAR KPAE 031553Z 00000KT 10SM OVC090 16/14 A2999 RMK AO2 RAE16 SLP155 P0001 T01610144=
201309031453 METAR KPAE 031453Z 10003KT 10SM -RA FEW065 OVC085 16/14 A3000 RMK AO2 RAE06B53 SLP156 P0000 60003 T01610144 50004=
201309031353 METAR KPAE 031353Z AUTO 09003KT 7SM -RA BKN090 OVC110 16/14 A3001 RMK AO2 RAB01 SLP159 P0003 T01610139=
201309031253 METAR KPAE 031253Z AUTO 00000KT 10SM BKN090 OVC110 16/14 A2998 RMK AO2 RAE01 PRESRR SLP151 P0000 T01610139=
201309031153 METAR KPAE 031153Z AUTO 00000KT 10SM -RA OVC090 16/14 A2999 RMK AO2 SLP151 P0006 60009 70009 T01610139 10172 20156 50004=
201309031053 METAR KPAE 031053Z AUTO 18006KT 9SM -RA OVC085 16/14 A3000 RMK AO2 RAE09B50 SLP155 P0001 T01610144=
201309030953 METAR KPAE 030953Z AUTO 00000KT 8SM -RA FEW060 BKN095 OVC110 17/14 A2997 RMK AO2 RAE16B33 SLP146 P0000 T01670144=
201309030853 METAR KPAE 030853Z AUTO 00000KT 8SM -RA FEW041 OVC110 16/14 A2997 RMK AO2 LTG DSNT S RAB24 SLP146 P0002 60002 T01610139 53005=
201309030753 METAR KPAE 030753Z AUTO 02005KT 10SM FEW120 17/13 A2996 RMK AO2 LTG DSNT S SLP142 T01670128 402500156=
201309030653 METAR KPAE 030653Z AUTO 00000KT 10SM CLR 16/13 A2997 RMK AO2 SLP146 T01610133=
201309030553 METAR KPAE 030553Z AUTO 35003KT 10SM CLR 16/13 A2996 RMK AO2 SLP143 T01610133 10244 20161 53013=
201309030453 METAR KPAE 030453Z AUTO 36005KT 10SM CLR 17/14 A2994 RMK AO2 SLP136 T01670144=
201309030353 METAR KPAE 030353Z AUTO 35005KT 10SM CLR 18/13 A2993 RMK AO2 SLP134 T01780133=
201309030253 METAR KPAE 030253Z 34006KT 10SM CLR 19/12 A2992 RMK AO2 SLP129 T01940122 52007=
201309030153 METAR KPAE 030153Z VRB04KT 10SM SCT110 21/12 A2991 RMK AO2 SLP126 T02110122=
201309030053 METAR KPAE 030053Z 36003KT 10SM BKN110 22/12 A2991 RMK AO2 SLP125 T02220122=
201309022353 METAR KPAE 022353Z VRB03KT 10SM SCT100 24/13 A2990 RMK AO2 SLP121 T02440133 10250 20200 55001=
201309022253 METAR KPAE 022253Z 26004KT 10SM FEW090 24/12 A2989 RMK AO2 SLP120 T02440117=
201309022153 METAR KPAE 022153Z 24008KT 10SM CLR 24/14 A2990 RMK AO2 SLP122 T02390139=
201309022053 METAR KPAE 022053Z 23007KT 10SM CLR 23/13 A2990 RMK AO2 SLP122 T02330133 58004=
201309021953 METAR KPAE 021953Z 25007KT 10SM CLR 22/13 A2991 RMK AO2 SLP123 T02170128=
201309021853 METAR KPAE 021853Z 26006KT 10SM CLR 21/13 A2991 RMK AO2 SLP127 T02110128=
201309021753 METAR KPAE 021753Z 00000KT 10SM BKN120 20/13 A2991 RMK AO2 SLP127 T02000128 10206 20161 53002=
201309021653 METAR KPAE 021653Z 17003KT 10SM BKN110 21/13 A2991 RMK AO2 SLP126 T02060128=
201309021553 METAR KPAE 021553Z 16005KT 10SM SCT075 BKN110 19/12 A2991 RMK AO2 SLP125 T01940122=
201309021453 METAR KPAE 021453Z 18005KT 10SM OVC075 19/12 A2991 RMK AO2 SLP125 T01890117 53005=
201309021353 METAR KPAE 021353Z 19004KT 10SM FEW080 17/12 A2990 RMK AO2 SLP123 T01670122=
201309021253 METAR KPAE 021253Z AUTO 17004KT 10SM CLR 16/12 A2989 RMK AO2 SLP120 T01610122=
201309021153 METAR KPAE 021153Z AUTO 16006KT 10SM CLR 17/12 A2989 RMK AO2 SLP118 T01720122 10183 20167 58004=
201309021053 METAR KPAE 021053Z AUTO 12003KT 10SM CLR 17/12 A2990 RMK AO2 SLP121 T01670122=
201309020953 METAR KPAE 020953Z AUTO 00000KT 10SM CLR 18/12 A2990 RMK AO2 SLP122 T01780117=
201309020853 METAR KPAE 020853Z AUTO 00000KT 10SM CLR 18/12 A2990 RMK AO2 SLP123 T01780117 51007=
201309020753 METAR KPAE 020753Z AUTO 00000KT 10SM CLR 18/12 A2990 RMK AO2 SLP122 T01780117 402560144=
201309020653 METAR KPAE 020653Z AUTO 00000KT 10SM CLR 17/12 A2989 RMK AO2 SLP118 T01720117=
201309020553 METAR KPAE 020553Z AUTO 01003KT 10SM OVC050 18/11 A2988 RMK AO2 SLP117 T01780111 10256 20172 51012=
201309020453 METAR KPAE 020453Z AUTO 02005KT 10SM BKN055 17/12 A2988 RMK AO2 SLP115 T01720117=
201309020353 METAR KPAE 020353Z AUTO 00000KT 10SM OVC055 18/12 A2987 RMK AO2 SLP111 T01830117=
201309020253 METAR KPAE 020253Z 02005KT 10SM CLR 19/12 A2985 RMK AO2 SLP105 T01890122 53007=
201309020153 METAR KPAE 020153Z 35005KT 10SM CLR 21/13 A2983 RMK AO2 SLP099 T02110128=
201309020053 METAR KPAE 020053Z 01005KT 10SM BKN100 22/14 A2983 RMK AO2 SLP099 T02220139=
201309012353 METAR KPAE 012353Z 24004KT 10SM BKN100 25/14 A2983 RMK AO2 SLP097 T02500139 10250 20183 56009=
201309012253 METAR KPAE 012253Z 26007KT 10SM SCT100 23/13 A2983 RMK AO2 SLP100 T02330133=
201309012153 METAR KPAE 012153Z 25007KT 10SM CLR 24/13 A2984 RMK AO2 SLP102 T02390133=
201309012053 METAR KPAE 012053Z 25005KT 10SM CLR 23/13 A2986 RMK AO2 SLP108 T02280133 58010=
201309011953 METAR KPAE 011953Z 26006KT 10SM SCT100 21/14 A2987 RMK AO2 SLP112 T02110144=
201309011853 METAR KPAE 011853Z 28004KT 10SM CLR 19/14 A2988 RMK AO2 SLP115 T01940139=
201309011753 METAR KPAE 011753Z 15003KT 10SM CLR 21/13 A2989 RMK AO2 SLP118 T02060128 10206 20144 58005=
201309011653 METAR KPAE 011653Z 00000KT 10SM CLR 18/13 A2990 RMK AO2 SLP123 T01780133=
201309011553 METAR KPAE 011553Z 17003KT 10SM CLR 17/12 A2990 RMK AO2 SLP124 T01720122=
201309011453 METAR KPAE 011453Z 00000KT 10SM CLR 17/12 A2990 RMK AO2 SLP124 T01670117 53005=
201309011353 METAR KPAE 011353Z 00000KT 10SM CLR 15/12 A2990 RMK AO2 SLP121 T01500117=
201309011253 METAR KPAE 011253Z AUTO 00000KT 10SM CLR 15/12 A2989 RMK AO2 SLP119 T01500122=
201309011153 METAR KPAE 011153Z AUTO 00000KT 10SM CLR 15/12 A2989 RMK AO2 SLP118 T01500122 10178 20144 51006=
201309011053 METAR KPAE 011053Z AUTO 00000KT 10SM CLR 16/12 A2988 RMK AO2 SLP116 T01560122=
201309010953 METAR KPAE 010953Z AUTO 00000KT 10SM CLR 16/12 A2988 RMK AO2 SLP114 T01610122=
201309010853 METAR KPAE 010853Z AUTO 00000KT 10SM CLR 16/12 A2987 RMK AO2 SLP112 T01610122 58001=
201309010753 METAR KPAE 010753Z AUTO 00000KT 10SM CLR 17/13 A2988 RMK AO2 SLP116 T01670128 402330128=
201309010653 METAR KPAE 010653Z AUTO 02003KT 10SM CLR 17/12 A2987 RMK AO2 SLP112 T01670122=
201309010553 METAR KPAE 010553Z AUTO 00000KT 10SM CLR 17/12 A2987 RMK AO2 SLP114 T01720122 10228 20172 58001=
201309010453 METAR KPAE 010453Z AUTO 01003KT 10SM CLR 17/13 A2988 RMK AO2 SLP116 T01720128=
201309010353 METAR KPAE 010353Z AUTO 00000KT 10SM CLR 18/13 A2988 RMK AO2 SLP117 T01780128=
201309010253 METAR KPAE 010253Z 35003KT 10SM CLR 19/13 A2988 RMK AO2 SLP115 T01890128 56008=
201309010153 METAR KPAE 010153Z 35004KT 10SM CLR 21/13 A2988 RMK AO2 SLP118 T02060128=
201309010053 METAR KPAE 010053Z VRB05KT 10SM CLR 22/13 A2989 RMK AO2 SLP119 T02220128=

# No short TAF reports from KPAE in databse.

###################################
#  large TAF from KPAE
###################################
201309302335 TAF KPAE 302335Z 0100/0124 18017G22KT P6SM SCT025 BKN080
                      TEMPO 0100/0104 4SM -SHRA BKN018 OVC045 FM010400
                       18013G20KT P6SM -SHRA BKN025 OVC045 FM011100
                       19011KT P6SM VCSH OVC015
                      TEMPO 0114/0118 3SM -SHRA OVC007 FM011800
                       20008KT P6SM VCSH BKN025 BKN045=
201309301731 TAF KPAE 301731Z 3018/0118 19015G18KT P6SM -SHRA BKN012 OVC035
                       TEMPO 3020/3024 P6SM -TSRA BKN015CB OVC035
                       FM010300 20013KT P6SM VCSH BKN025 BKN040
                       FM011200 19012KT 4SM BR VCSH OVC007=
201309301345 TAF AMD KPAE 301345Z 3014/0112 17013KT P6SM VCSH SCT012 SCT050
                       OVC130
                      TEMPO 3014/3016 20015G25KT -SHRA BKN012 OVC050
                       FM301800 18015G25KT P6SM -SHRA BKN035 BKN050
                       OVC100 FM010600 18010KT P6SM -SHRA BKN020
                       BKN040=
201309301225 TAF AMD KPAE 301225Z 3012/0112 17013KT P6SM VCSH BKN020 BKN050
                       OVC100
                      TEMPO 3012/3016 20015G25KT -SHRA FM301800
                       18015G25KT P6SM -SHRA BKN035 BKN050 OVC100
                       FM010600 18010KT P6SM -SHRA BKN020 BKN040=
201309301122 TAF KPAE 301122Z 3012/0112 18013G22KT P6SM VCSH BKN020 BKN050 OVC100
                       FM301800 18015G25KT P6SM -SHRA BKN035 BKN050
                       OVC100 FM010600 18010KT P6SM -SHRA BKN020
                       BKN040=
201309300906 TAF AMD KPAE 300906Z 3009/0106 19021G30KT 5SM -SHRA BKN035 BKN070
                       FM301400 18015G25KT P6SM -SHRA BKN035 BKN060=
201309300524 TAF KPAE 300524Z 3006/0106 19025G34KT 5SM -SHRA FEW050 OVC090 FM300800
                       19020G30KT P6SM -SHRA BKN015 BKN040 FM301400
                       18015G25KT P6SM -SHRA BKN025 BKN040=
201309292332 TAF KPAE 292332Z 3000/3024 15017G27KT P6SM -RA SCT025 OVC050 WS020/20050KT
                       TEMPO 3000/3004 4SM RA BR OVC025 FM300400
                       21030G40KT P6SM -RA BKN020 OVC040
                      TEMPO 3004/3008 4SM SHRA BR OVC015 FM300800
                       21020G30KT P6SM -SHRA BKN015 BKN040 FM301400
                       18012G22KT P6SM -SHRA BKN025 BKN040=
201309291720 TAF KPAE 291720Z 2918/3018 18017G27KT P6SM SCT020 BKN050 BKN100
                       TEMPO 2918/2922 5SM -SHRA BR BKN015 OVC040
                       FM292200 16025G35KT 5SM RA BR BKN015 OVC025
                       WS020/20050KT
                      TEMPO 3000/3004 3SM RA BR OVC010 FM300400
                       24030G45KT P6SM -SHRA BKN015 OVC040 FM301000
                       24020G30KT P6SM -SHRA BKN020 BKN040=
201309291132 TAF KPAE 291132Z 2912/3012 17019G27KT P6SM -SHRA BKN030 OVC050
                       FM291500 17018G28KT 5SM -SHRA BKN015 OVC030
                       FM292100 17025G40KT 5SM -RA BR BKN015 OVC030
                       FM300300 18030G50KT 3SM SHRA BKN015 BKN030
                       FM300600 19022G35KT P6SM -SHRA BKN015 BKN030=
201309290708 TAF AMD KPAE 290708Z 2907/3006 18017G24KT P6SM VCSH FEW015 BKN090
                       FM291600 17018G28KT 5SM -RA BR BKN015 OVC030
                       FM292100 17025G40KT 5SM -RA BR BKN015 OVC030
                       FM300300 18030G50KT 3SM SHRA BKN015 BKN030=
201309290536 TAF KPAE 290536Z 2906/3006 18023G34KT P6SM VCSH SCT015 BKN050 OVC090
                       FM291600 17018G28KT 5SM -RA BR BKN015 OVC030
                       FM292100 17025G40KT 5SM -RA BR BKN015 OVC030
                       FM300300 18030G50KT 3SM SHRA BKN015 BKN030=
201309290155 TAF AMD KPAE 290155Z 2902/2924 20019G29KT P6SM -RA SCT015 OVC080
                       FM290500 18010G20KT P6SM -SHRA BKN008 OVC020
                       FM291600 18012KT P6SM -SHRA BKN015 OVC040
                       FM292100 16020G30KT P6SM -RA SCT015 OVC030=
201309282327 TAF KPAE 282327Z 2900/2924 16020G30KT 4SM -RA BR SCT007 OVC035
                       TEMPO 2900/2903 2SM RA BR OVC007 FM290300
                       18015G25KT P6SM -SHRA SCT012 BKN020 OVC030
                       FM290500 18010G20KT P6SM -SHRA BKN008 OVC020
                       FM291600 18012KT P6SM -SHRA BKN015 OVC040
                       FM292100 16020G30KT P6SM -RA SCT015 OVC030=
201309282230 TAF AMD KPAE 282230Z 2823/2918 16020G30KT 4SM -RA BR SCT007 BKN020
                       OVC040
                      TEMPO 2823/2824 2SM RA BR OVC007 FM290000
                       16015G25KT 4SM -RA BR BKN007 OVC020 FM290400
                       19015G25KT P6SM -SHRA BKN015 OVC025 FM290500
                       19015G25KT P6SM -SHRA BKN020 BKN035 OVC070=
201309281739 TAF KPAE 281739Z 2818/2918 16020G30KT 4SM -RA BR SCT007 BKN012
                       OVC020
                      TEMPO 2818/2822 2SM RA BR OVC007 FM282200
                       16022G34KT 4SM -RA BR BKN007 OVC020 WS020/18045KT
                       FM290300 19015G25KT P6SM -SHRA BKN015 OVC025
                       FM290500 19015G25KT P6SM -SHRA BKN020 BKN035
                       OVC070=
201309281611 TAF AMD KPAE 281611Z 2816/2912 17015G22KT 5SM -RA BR SCT010 OVC020
                       TEMPO 2816/2818 2SM RA BR BKN008 OVC020
                       FM281800 17020G30KT 4SM -RA BR SCT007 BKN012
                       OVC020
                      TEMPO 2818/2822 2SM RA BR OVC007 FM290100
                       18028G39KT P6SM -SHRA BKN008 OVC015 FM290300
                       19018G25KT P6SM -SHRA BKN025 BKN035 OVC070=
201309281302 TAF AMD KPAE 281302Z 2813/2912 15013KT P6SM -RA SCT004 OVC025
                      TEMPO 2813/2815 BKN004 OVC025 FM281500 17015G22KT
                       P6SM -RA SCT015 BKN035 OVC050 FM281700 17020G28KT
                       P6SM -RA BKN015 OVC025 FM290100 18028G39KT
                       P6SM -SHRA BKN008 OVC015 FM290300 19018G25KT
                       P6SM -SHRA BKN025 BKN035 OVC070=
201309281221 TAF AMD KPAE 281221Z 2812/2912 15013KT P6SM -RA SCT006 OVC045
                      TEMPO 2812/2814 BKN006 OVC045 FM281400 17015G22KT
                       P6SM -RA SCT015 BKN035 OVC050 FM281700 17020G28KT
                       P6SM -RA BKN015 OVC025 FM290100 18028G39KT
                       P6SM -SHRA BKN008 OVC015 FM290300 19018G25KT
                       P6SM -SHRA BKN025 BKN035 OVC070=
201309281125 TAF KPAE 281125Z 2812/2912 16013G20KT P6SM -RA FEW016 SCT040 OVC070
                       FM281400 17015G22KT P6SM -RA SCT015 BKN035
                       OVC050 FM281700 17020G28KT P6SM -RA BKN015
                       OVC025 FM290100 18028G39KT P6SM -SHRA BKN008
                       OVC015 FM290300 19018G25KT P6SM -SHRA BKN025
                       BKN035 OVC070=
201309280707 TAF AMD KPAE 280707Z 2807/2906 17011KT P6SM SCT010 SCT050 FM280900
                       16011KT P6SM SCT010 BKN035 FM281100 15012KT
                       P6SM -RA SCT015 OVC030 FM281700 17020G28KT
                       P6SM -RA BKN015 OVC025 FM290100 18028G39KT
                       P6SM -SHRA BKN008 OVC015 FM290300 19018G25KT
                       P6SM -SHRA BKN025 BKN035=
201309280528 TAF KPAE 280528Z 2806/2906 16009KT P6SM BKN015 BKN025 OVC050 FM281100
                       15012KT P6SM -RA SCT015 OVC030 FM281700
                       17020G28KT P6SM -RA BKN015 OVC025 FM290100
                       18028G39KT P6SM -SHRA BKN008 OVC015 FM290300
                       19018G25KT P6SM -SHRA BKN025 BKN035=
201309280302 TAF AMD KPAE 280302Z 2803/2824 17007KT P6SM SCT008 BKN013 OVC020
                       TEMPO 2803/2806 BKN008 BKN013 OVC020 FM280600
                       16008KT P6SM SCT015 OVC025 FM281100 14008KT
                       P6SM -RA SCT025 OVC035 FM281700 17012KT
                       P6SM -RA OVC020=
201309272336 TAF KPAE 272336Z 2800/2824 20014KT P6SM OVC015 FM280800 16008KT
                       P6SM SCT015 OVC025 FM281100 14008KT P6SM
                       -RA SCT025 OVC035 FM281700 17012KT P6SM
                       -RA OVC020=
201309271745 TAF KPAE 271745Z 2718/2818 19014KT P6SM -SHRA SCT009 BKN025 OVC035
                       TEMPO 2718/2720 -SHRA BKN009 OVC025 FM272000
                       20014KT P6SM -SHRA SCT025 BKN035 OVC070
                       FM281100 15008KT P6SM -RA SCT035 OVC050
                       FM281700 17012KT P6SM -RA OVC020=
201309271512 TAF AMD KPAE 271512Z 2715/2812 17012KT P6SM -RA SCT035 OVC070 FM271900
                       18015G25KT P6SM -SHRA BKN020 OVC035 FM280600
                       15012KT P6SM -RA OVC018=
201309271328 TAF AMD KPAE 271328Z 2713/2812 16013KT P6SM -RA SCT018 OVC070
                      TEMPO 2713/2715 BKN018 OVC070 FM271500 17012KT
                       P6SM -RA SCT008 OVC018
                      TEMPO 2716/2720 4SM -RA BR BKN008 OVC015
                       FM272200 18015G25KT P6SM -SHRA BKN020 OVC035
                       FM280600 15012KT P6SM -RA OVC018=
201309271216 TAF AMD KPAE 271216Z 2712/2812 16013KT P6SM SCT018 BKN050 OVC100
                       TEMPO 2712/2715 -RA BKN018 BKN050 OVC100
                       FM271500 17012KT P6SM -RA SCT008 OVC018
                       TEMPO 2716/2720 4SM -RA BR BKN008 OVC015
                       FM272200 18015G25KT P6SM -SHRA BKN020 OVC035
                       FM280600 15012KT P6SM -RA OVC018=
201309271130 TAF KPAE 271130Z 2712/2812 16009KT P6SM SCT030 BKN110
                      TEMPO 2712/2715 BKN030 BKN110 FM271500 17012KT
                       P6SM -RA SCT008 OVC018
                      TEMPO 2716/2720 4SM -RA BR BKN008 OVC015
                       FM272200 18015G25KT P6SM -SHRA BKN020 OVC035
                       FM280600 15012KT P6SM -RA OVC018=
201309270529 TAF KPAE 270529Z 2706/2806 13004KT P6SM FEW080 FM271000 16010KT
                       P6SM OVC100 FM271300 16012KT P6SM BKN020
                       OVC060 FM271500 16014KT P6SM -RA BKN009
                       OVC020=
201309262320 TAF KPAE 262320Z 2700/2724 VRB03KT P6SM SKC FM270500 14006KT P6SM
                       SCT200 FM271000 16010KT P6SM OVC100 FM271300
                       16012KT P6SM BKN020 OVC060 FM271500 16014KT
                       P6SM -RA BKN009 OVC020=
201309261740 TAF KPAE 261740Z 2618/2718 29004KT P6SM BKN007 BKN025
                      TEMPO 2618/2619 SCT007 BKN025 FM262000 32003KT
                       P6SM FEW025 SCT250 FM270800 15006KT P6SM
                       SCT200 FM271000 17008KT P6SM BKN007 OVC120=
201309261258 TAF AMD KPAE 261258Z 2613/2712 00000KT 6SM MIFG SKC
                      TEMPO 2613/2617 1/2SM FG VV001 FM261800 VRB03KT
                       P6SM SCT250 FM271000 17006KT P6SM SCT045
                       BKN120=
201309261120 TAF KPAE 261120Z 2612/2712 16003KT P6SM SKC FM261400 36002KT P6SM
                       BKN006 FM261700 23004KT P6SM SCT250 FM271000
                       17006KT P6SM SCT045 BKN120=
201309260523 TAF KPAE 260523Z 2606/2706 00000KT P6SM SKC
                      TEMPO 2612/2616 VRB03KT BKN020 FM261800 26005KT
                       P6SM BKN035=
201309252320 TAF KPAE 252320Z 2600/2624 33006KT P6SM BKN030 FM260300 VRB04KT
                       P6SM SCT035 FM260500 15005KT P6SM SCT025
                       SCT200
                      TEMPO 2612/2616 VRB03KT BKN025 FM261800 26005KT
                       P6SM BKN035=
201309251909 TAF AMD KPAE 251909Z 2519/2618 32010KT P6SM SCT008 BKN015 OVC025
                       TEMPO 2519/2521 BKN008 OVC015 FM252100 35010KT
                       P6SM BKN018 OVC035 FM252300 35010KT P6SM
                       SCT022 BKN035 FM260300 VRB04KT P6SM FEW025
                       SCT200 FM260500 15005KT P6SM SCT025 SCT200
                       TEMPO 2612/2616 VRB03KT BKN025=
201309251720 TAF KPAE 251720Z 2518/2618 33007KT P6SM SCT006 BKN015 OVC025
                      TEMPO 2518/2520 3SM BR BKN006 OVC015 FM252100
                       34010KT P6SM SCT028 BKN090 FM260300 03006KT
                       P6SM FEW030 SCT200 FM260500 15005KT P6SM
                       FEW030 SCT200
                      TEMPO 2612/2616 VRB03KT BKN025=
201309251626 TAF AMD KPAE 251626Z 2516/2612 35006KT P6SM SCT004 OVC018
                      TEMPO 2516/2518 1SM BR OVC004 FM251800 35004KT
                       P6SM BKN018 BKN035 FM252000 36003KT P6SM
                       SCT035 BKN200=
201309251614 TAF AMD KPAE 251614Z 2516/2612 35006KT P6SM SCT004 OVC018
                      TEMPO 2516/2518 5SM BR OVC004 FM251800 35004KT
                       P6SM BKN018 BKN035 FM252000 36003KT P6SM
                       SCT035 BKN200=
201309251410 TAF AMD KPAE 251410Z 2514/2612 35006KT P6SM SCT006 OVC018
                      TEMPO 2514/2516 4SM -RA BR OVC006 FM251900
                       35004KT P6SM OVC015 FM252300 36003KT P6SM
                       SCT200=
201309251305 TAF AMD KPAE 251305Z 2513/2612 35006KT 6SM -RA BR BKN005 OVC013
                       TEMPO 2513/2516 3SM -RA BR OVC001 FM251900
                       35004KT P6SM OVC015 FM252300 36003KT P6SM
                       SCT200=
201309251120 TAF KPAE 251120Z 2512/2612 35006KT P6SM -RA BKN005 OVC013
                      TEMPO 2512/2516 3SM -RA BR BKN015 OVC040
                       FM251900 35004KT P6SM OVC015 FM252300 36003KT
                       P6SM SCT200=
201309250525 TAF KPAE 250525Z 2506/2606 00000KT P6SM VCSH SCT003 OVC014
                      TEMPO 2506/2510 BKN003 FM251200 36003KT P6SM
                       BKN010 BKN070 FM251900 34005KT P6SM SCT020
                       BKN070 FM252100 33006KT P6SM SCT035 SCT060=
201309250301 TAF AMD KPAE 250301Z 2503/2524 12003KT P6SM VCSH BKN022 OVC030
                       FM251200 36003KT P6SM BKN010 BKN070 FM251900
                       34005KT P6SM SCT020 BKN070 FM252100 33006KT
                       P6SM SCT035 SCT060=
201309242332 TAF KPAE 242332Z 2500/2524 22005KT P6SM VCSH SCT035 BKN060
                      TEMPO 2500/2503 -SHRA BKN035 BKN060 FM250300
                       33004KT P6SM VCSH SCT040 BKN070 FM251200
                       36003KT P6SM BKN010 BKN070 FM251900 34005KT
                       P6SM SCT020 BKN070 FM252100 33006KT P6SM
                       SCT035 SCT060=
201309241728 TAF KPAE 241728Z 2418/2518 16006KT P6SM VCSH SCT009 BKN070
                      TEMPO 2418/2420 BKN009 BKN070 FM242000 19007KT
                       P6SM VCSH FEW010 SCT030 BKN070
                      TEMPO 2420/2424 -SHRA FEW010 BKN030 BKN070
                       FM250000 VRB05KT P6SM VCSH SCT035 BKN060
                       TEMPO 2500/2503 -SHRA BKN035 BKN060 FM250300
                       33004KT P6SM VCSH SCT040 BKN070 FM251200
                       36003KT P6SM BKN015 BKN070=
201309241120 TAF KPAE 241120Z 2412/2512 VRB03KT P6SM FEW045 BKN100
                      TEMPO 2413/2417 OVC007 FM241800 VRB03KT P6SM
                       VCSH BKN050 FM251100 34003KT P6SM OVC015=
201309240526 TAF KPAE 240526Z 2406/2506 11005KT P6SM VCSH OVC045 FM241300 16004KT
                       4SM BR OVC007 FM241800 22003KT P6SM OVC050
                       TEMPO 2421/2501 -SHRA BKN025 OVC045=
201309232325 TAF KPAE 232325Z 2400/2424 32007KT P6SM SCT030 BKN060 OVC090
                      TEMPO 2400/2404 -SHRA BKN025 OVC050 FM240400
                       30005KT P6SM -SHRA SCT035 BKN060 BKN090
                       FM241200 17005KT P6SM VCSH BKN035 BKN060
                       BKN090 FM241700 20007KT P6SM -SHRA SCT035
                       BKN060 BKN090=
201309231720 TAF KPAE 231720Z 2318/2418 19012G22KT P6SM VCSH SCT030 BKN050 OVC090
                       TEMPO 2318/2322 -SHRA BKN030 OVC050 FM232200
                       20011KT P6SM -SHRA SCT030 BKN050 BKN090
                       FM240200 21007KT P6SM VCSH SCT035 BKN050
                       BKN090 FM241200 17005KT P6SM VCSH BKN035
                       BKN050 BKN090 FM241700 18006KT P6SM VCSH
                       SCT035 BKN060 BKN090=
201309231122 TAF KPAE 231122Z 2312/2412 19015KT P6SM VCSH FEW015 SCT050 OVC090
                       FM231500 17015KT P6SM -SHRA SCT015 BKN050
                       OVC090
                      TEMPO 2315/2318 5SM SHRA BKN015 OVC030 FM231800
                       19013KT P6SM -SHRA BKN025 OVC050 FM240000
                       19008KT P6SM BKN035 BKN050 OVC090
                      PROB30 2400/2406 -SHRA FM240600 15006KT P6SM
                       SCT028 SCT050 BKN090=
201309231030 TAF KPAE 231030Z 2310/2406 19015KT P6SM SCT015 SCT050 BKN080
                      TEMPO 2310/2312 BKN015 BKN050 OVC080 FM231200
                       17013KT P6SM FEW015 BKN028 OVC050 FM231800
                       19011KT P6SM SCT028 BKN050 FM240000 19008KT
                       P6SM BKN035 BKN050 BKN080
                      PROB30 2400/2406 -SHRA=
201309231023 TAF AMD KPAE 231023Z 2310/2406 19053KT P6SM SCT015 SCT050 BKN080
                       TEMPO 2310/2312 BKN015 BKN050 OVC080 FM231200
                       17013KT P6SM FEW015 BKN028 OVC050 FM231800
                       19011KT P6SM SCT028 BKN050 FM240000 19008KT
                       P6SM BKN035 BKN050 BKN080
                      PROB30 2400/2406 -SHRA=
201309230607 TAF AMD KPAE 230607Z 2306/2406 19013KT P6SM VCSH SCT015 SCT028
                       SCT050
                      TEMPO 2306/2310 19010G20KT BKN015 BKN028
                       BKN050 FM231200 17013KT P6SM FEW015 BKN028
                       OVC050 FM231800 19011KT P6SM SCT028 BKN050
                       PROB30 2318/2324 -SHRA BKN028 OVC050 FM240000
                       19008KT P6SM BKN035 BKN050 BKN080
                      PROB30 2400/2406 -SHRA=
201309230525 TAF KPAE 230525Z 2306/2406 19013KT P6SM FEW015 SCT028 SCT050
                      TEMPO 2306/2310 19010G20KT FM231200 17013KT
                       P6SM FEW015 BKN028 OVC050 FM231800 19011KT
                       P6SM SCT028 BKN050
                      PROB30 2318/2324 -SHRA BKN028 OVC050 FM240000
                       19008KT P6SM BKN035 BKN050 BKN080
                      PROB30 2400/2406 -SHRA=
201309230137 TAF AMD KPAE 230137Z 2302/2324 19017KT P6SM SCT022 BKN035 BKN050
                       TEMPO 2302/2306 BKN022 OVC035 FM230600 17013KT
                       P6SM VCSH SCT022 BKN040 OVC080 FM230900
                       18013KT P6SM VCSH BKN015 OVC040 FM231600
                       17010KT P6SM -SHRA BKN022 BKN035 FM232000
                       17010KT P6SM -SHRA SCT025 BKN035=
201309222320 TAF KPAE 222320Z 2300/2324 17015G25KT P6SM -SHRA SCT030 OVC045
                       FM230300 17013G22KT P6SM VCSH SCT022 BKN040
                       OVC080 FM230900 18013KT P6SM VCSH BKN015
                       OVC040 FM231600 17010KT P6SM -SHRA BKN022
                       BKN035 FM232000 17010KT P6SM -SHRA SCT025
                       BKN035=
201309222109 TAF AMD KPAE 222109Z 2221/2318 17015G25KT P6SM -SHRA SCT030 OVC045
                       FM230300 17013G22KT P6SM -SHRA SCT022 BKN040
                       OVC080 FM230900 17013KT P6SM VCSH BKN022
                       OVC040 FM231600 19013KT P6SM -SHRA BKN022
                       BKN035=
201309221823 TAF AMD KPAE 221823Z 2218/2318 15020G32KT P6SM -RA SCT012 BKN035
                       WS020/18045KT
                      TEMPO 2219/2220 5SM RA BR BKN012 OVC030 FM222000
                       18020G30KT 5SM RA BR FEW004 BKN009 OVC020
                       FM222300 18015G25KT P6SM -SHRA SCT009 BKN022
                       OVC040 FM230300 17013G22KT P6SM -SHRA SCT022
                       BKN040 OVC080 FM230900 17013KT P6SM VCSH
                       BKN022 OVC040 FM231600 19013KT P6SM -SHRA
                       BKN022 BKN035=
201309221720 TAF KPAE 221720Z 2218/2318 15015G25KT P6SM -RA SCT009 OVC020 FM222000
                       18020G30KT 5SM RA BR FEW004 BKN009 OVC020
                       FM222300 18015G25KT P6SM -SHRA SCT009 BKN022
                       OVC040 FM230300 17013G22KT P6SM -SHRA SCT022
                       BKN040 OVC080 FM230900 17013KT P6SM VCSH
                       BKN022 OVC040 FM231600 19013KT P6SM -SHRA
                       BKN022 BKN035=
201309221125 TAF KPAE 221125Z 2212/2312 17013KT P6SM SCT020 SCT035 OVC050
                      TEMPO 2212/2215 17013G20KT -RA BKN020 BKN035
                       OVC050 FM221500 15017G27KT P6SM -RA SCT009
                       OVC020 FM222000 18020G30KT 5SM RA BR FEW004
                       BKN009 OVC020 FM230000 18015G25KT P6SM -SHRA
                       SCT009 BKN022 OVC040 FM230300 17013G22KT
                       P6SM -SHRA SCT022 BKN040 OVC080 FM230900
                       17013KT P6SM VCSH BKN022 OVC040
                      PROB30 2309/2312 -SHRA=
201309221002 TAF AMD KPAE 221002Z 2210/2306 17013KT P6SM VCSH SCT012 BKN050
                       OVC090 FM221200 15013KT P6SM -RA SCT022
                       OVC050 FM221500 15017G27KT P6SM -RA SCT009
                       OVC022 FM222000 18022G32KT 5SM RA BR FEW004
                       BKN009 OVC022 FM230000 18017G25KT P6SM -SHRA
                       SCT009 BKN022 OVC040 FM230300 17013G22KT
                       P6SM -SHRA SCT022 BKN040 OVC080=
201309220545 TAF KPAE 220545Z 2206/2306 17006KT P6SM SCT090 BKN200 FM220900
                       15009KT P6SM SCT050 OVC090 FM221200 15013KT
                       P6SM -RA SCT022 OVC050 FM221500 15017G27KT
                       P6SM -RA SCT009 OVC022 FM222000 18022G32KT
                       5SM RA BR FEW004 BKN009 OVC022 FM230000
                       18017G25KT P6SM -SHRA SCT009 BKN022 OVC040
                       FM230300 17013G22KT P6SM -SHRA SCT022 BKN040
                       OVC080=
201309220311 TAF AMD KPAE 220311Z 2203/2224 VRB03KT P6SM BKN080 BKN200 FM220900
                       15009KT P6SM VCSH BKN050 OVC100 FM221600
                       17015G25KT P6SM -RA BKN030 OVC050 FM221900
                       18018G28KT P6SM -RA OVC028 FM222200 19020G32KT
                       P6SM -SHRA BKN025 BKN035=
201309212320 TAF KPAE 212320Z 2200/2224 28005KT P6SM SCT050 BKN200 FM220300
                       18006KT P6SM VCSH SCT050 BKN100 BKN200 FM220900
                       18012G22KT P6SM VCSH BKN050 OVC100 FM221600
                       17015G25KT P6SM -RA BKN030 OVC050 FM221900
                       18018G28KT P6SM -RA OVC028 FM222200 19020G32KT
                       P6SM -SHRA BKN025 BKN035=
201309212154 TAF AMD KPAE 212154Z 2122/2218 22008KT P6SM SCT050 BKN200 FM220300
                       19006KT P6SM VCSH SCT050 BKN100 BKN200 FM220900
                       19006KT P6SM VCSH BKN050 OVC100 FM221700
                       17010KT P6SM -RA BKN030 OVC050=
201309211720 TAF KPAE 211720Z 2118/2218 19006KT P6SM BKN022 BKN045 BKN150
                      TEMPO 2118/2119 BKN008 OVC022 FM212000 22008KT
                       P6SM BKN025 BKN050 FM220300 19006KT P6SM
                       VCSH SCT050 BKN100 BKN200 FM220900 19006KT
                       P6SM VCSH BKN050 OVC100 FM221700 17010KT
                       P6SM -RA BKN030 OVC050=
201309211510 TAF AMD KPAE 211510Z 2115/2212 17006KT P6SM BKN006 BKN040 BKN150
                       TEMPO 2115/2117 SCT006 BKN040 BKN150 FM211700
                       19008KT P6SM SCT025 SCT050 BKN150 FM212100
                       23006KT P6SM SCT030 BKN050 FM220300 18006KT
                       P6SM SCT050 BKN100 BKN200 FM220900 15009KT
                       P6SM BKN050 OVC100=
201309211137 TAF KPAE 211137Z 2112/2212 17006KT P6SM SCT012 BKN050 BKN150
                      TEMPO 2112/2116 BKN012 BKN050 BKN150 FM211800
                       19008KT P6SM SCT025 SCT050 BKN150 FM212100
                       23006KT P6SM SCT030 BKN050
                      PROB30 2121/2203 -SHRA FM220300 18006KT P6SM
                       SCT050 BKN100 BKN200 FM220900 15009KT P6SM
                       BKN050 OVC100=
201309210953 TAF AMD KPAE 210953Z 2110/2206 VRB03KT P6SM SCT020 OVC035
                      TEMPO 2110/2112 BKN020 OVC035 FM211200 17005KT
                       P6SM VCSH BKN020 OVC030 FM211800 19009KT
                       P6SM BKN028 OVC050 FM220000 17007KT P6SM
                       BKN035 BKN050 BKN110
                      PROB30 2200/2206 -SHRA=
201309210541 TAF KPAE 210541Z 2106/2206 15007KT P6SM SCT090 BKN130 FM210900
                       15007KT P6SM FEW020 BKN090 BKN130 FM211200
                       17005KT P6SM VCSH BKN020 OVC060 FM211800
                       19009KT P6SM BKN028 OVC050
                      PROB30 2118/2124 -SHRA FM220000 17007KT P6SM
                       BKN035 BKN050 BKN110
                      PROB30 2200/2206 -SHRA=
201309210328 TAF AMD KPAE 210328Z 2103/2124 17012KT P6SM BKN050 OVC080
                      TEMPO 2103/2106 -SHRA FM210600 19013KT P6SM
                       -RA SCT015 OVC060 FM210800 17005KT P6SM
                       -RA BKN020 OVC040 FM211400 17005KT P6SM
                       -SHRA BKN012 OVC025 FM212100 21006KT P6SM
                       -SHRA SCT025 BKN050=
201309210200 TAF AMD KPAE 210200Z 2102/2124 21013KT P6SM SCT060 OVC130
                      TEMPO 2102/2104 21015G25KT BKN060 OVC130
                       FM210400 19013KT P6SM -RA SCT015 OVC060
                       FM210800 17005KT P6SM -RA BKN020 OVC040
                       FM211400 17005KT P6SM -SHRA BKN012 OVC025
                       FM212100 21006KT P6SM -SHRA SCT025 BKN050=
201309210155 TAF AMD KPAE 210155Z 2102/2124 21013KT P6SM SCT060 OVC130
                      TEMPO 2102/2104 BKN060 OVC130 FM210400 19013KT
                       P6SM -RA SCT015 OVC060 FM210800 17005KT
                       P6SM -RA BKN020 OVC040 FM211400 17005KT
                       P6SM -SHRA BKN012 OVC025 FM212100 21006KT
                       P6SM -SHRA SCT025 BKN050=
201309202320 TAF KPAE 202320Z 2100/2124 24007KT P6SM BKN050 BKN080 FM210200
                       18006KT P6SM -RA SCT025 BKN040 OVC080 FM210800
                       17005KT P6SM -RA BKN020 OVC040 FM211400
                       17005KT P6SM -SHRA BKN012 OVC025 FM212100
                       21006KT P6SM -SHRA SCT025 BKN050=
201309201741 TAF KPAE 201741Z 2018/2118 14005KT P6SM BKN200 FM210000 18006KT
                       P6SM BKN050 BKN080 FM210200 18006KT P6SM
                       -RA SCT020 BKN040 OVC080 FM210600 17005KT
                       P6SM -RA BKN020 OVC040=
201309201130 TAF KPAE 201130Z 2012/2112 14005KT P6SM SCT200 FM201800 20008KT
                       P6SM SCT200 FM202200 26007KT P6SM SCT040
                       BKN100 BKN200 FM210300 18008KT 6SM -RA BR
                       BKN015 OVC040=
201309200540 TAF KPAE 200540Z 2006/2106 14005KT P6SM SCT200 FM201800 20008KT
                       P6SM SCT200 FM202200 26007KT P6SM SCT040
                       BKN100 BKN200 FM210200 18008KT 6SM -RA BR
                       BKN015 OVC040=
201309192320 TAF KPAE 192320Z 2000/2024 VRB03KT P6SM SCT200 FM200400 15005KT
                       P6SM SCT200 FM201200 15008KT P6SM SCT200
                       FM202200 19011KT P6SM SCT040 BKN100 BKN200=
201309191739 TAF KPAE 191739Z 1918/2018 VRB03KT P6SM BKN200 FM192000 21006KT
                       P6SM BKN200 FM200400 15005KT P6SM SKC FM201200
                       15008KT P6SM SCT200=
201309191130 TAF KPAE 191130Z 1912/2012 11006KT P6SM SCT250 FM191700 07008KT
                       P6SM SKC FM192100 19009KT P6SM SKC=
201309190538 TAF KPAE 190538Z 1906/2006 11006KT P6SM SKC FM191700 15008KT P6SM
                       SCT200 FM192100 19009KT P6SM SKC=
201309182320 TAF KPAE 182320Z 1900/1924 30005KT P6SM FEW030 FM190300 VRB03KT
                       P6SM SKC FM190600 13004KT P6SM BKN150 FM191700
                       15008KT P6SM SCT200=
201309181910 TAF AMD KPAE 181910Z 1819/1918 26005KT P6SM SCT030 FM190000 36004KT
                       P6SM SKC=
201309181724 TAF KPAE 181724Z 1818/1918 23005KT P6SM BKN025 FM182000 26005KT
                       P6SM SCT035 FM190000 36004KT P6SM SKC=
201309181129 TAF KPAE 181129Z 1812/1912 17004KT P6SM VCSH BKN025 BKN045
                      TEMPO 1812/1816 BKN007 FM181900 26005KT P6SM
                       SCT030 BKN060 FM190200 36003KT P6SM SKC=
201309180540 TAF KPAE 180540Z 1806/1906 26005KT P6SM VCSH SCT020 BKN050 FM180800
                       17006KT P6SM BKN025 OVC050 FM181900 26005KT
                       P6SM SCT030 BKN060 FM190200 36003KT P6SM
                       SKC=
201309172320 TAF KPAE 172320Z 1800/1824 26005KT P6SM VCSH SCT020 BKN050 FM180700
                       17006KT P6SM BKN025 OVC050 FM181700 22005KT
                       P6SM SCT030 BKN060 FM182200 29004KT P6SM
                       SCT060 BKN100=
201309171720 TAF KPAE 171720Z 1718/1818 VRB04KT P6SM BKN060 FM171900 29005KT
                       P6SM VCSH SCT020 BKN050 FM180700 17006KT
                       P6SM BKN025 OVC050 FM181700 22005KT P6SM
                       SCT030 BKN060=
201309171139 TAF KPAE 171139Z 1712/1812 00000KT P6SM OVC050 FM171600 15004KT
                       P6SM BKN015 FM171900 24005KT P6SM VCSH SCT020
                       BKN050 FM180800 15006KT P6SM BKN025 OVC050=
201309170910 TAF AMD KPAE 170910Z 1709/1806 02004KT P6SM OVC050 FM171600 15004KT
                       P6SM BKN015 FM171900 24005KT P6SM SCT020
                       BKN050=
201309170540 TAF KPAE 170540Z 1706/1806 01005KT P6SM VCSH OVC025 FM170900 02004KT
                       P6SM OVC015 FM171600 15004KT P6SM OVC014
                       FM171900 24005KT P6SM SCT020 BKN050=
201309162320 TAF KPAE 162320Z 1700/1724 35005KT P6SM -SHRA SCT012 OVC025
                      TEMPO 1700/1701 VRB04KT 2SM SHRA BR BKN012
                       FM170100 01005KT P6SM VCSH BKN025 FM170700
                       04004KT P6SM BKN020 FM171200 15004KT P6SM
                       BKN014
                      TEMPO 1712/1714 4SM BR FM171700 24005KT P6SM
                       SCT020 BKN050=
201309161720 TAF KPAE 161720Z 1618/1718 17010G18KT P6SM VCSH SCT015 OVC025
                      TEMPO 1618/1621 BKN015 FM162100 28008KT P6SM
                       VCSH SCT030 BKN050
                      TEMPO 1621/1701 VRB04KT P6SM -SHRA BKN030
                       FM170100 33008KT P6SM VCSH BKN030 FM170700
                       04004KT P6SM BKN020 FM171200 15004KT P6SM
                       BKN014
                      TEMPO 1712/1714 4SM BR FM171700 24005KT P6SM
                       SCT020 BKN050=
201309161120 TAF KPAE 161120Z 1612/1712 17012KT P6SM BKN015 OVC040
                      TEMPO 1612/1616 OVC012 FM161800 23008KT P6SM
                       VCSH BKN025 BKN050 FM162000 28008KT P6SM
                       VCSH SCT030 BKN050
                      TEMPO 1620/1624 VRB04KT P6SM -SHRA BKN030
                       FM170000 33008KT P6SM VCSH BKN030 FM170700
                       04004KT P6SM BKN020=
201309160527 TAF KPAE 160527Z 1606/1706 18008KT P6SM VCSH SCT009 BKN015 OVC040
                       TEMPO 1606/1610 BKN009 OVC015 FM162000 19006KT
                       P6SM SCT025 BKN040=
201309152330 TAF KPAE 152330Z 1600/1624 18008KT P6SM TSRA BKN005 OVC015CB FM160200
                       18010G18KT P6SM -SHRA VCTS BKN015 OVC050CB
                       TEMPO 1602/1604 BKN007CB FM160400 20010KT
                       P6SM -SHRA BKN015 OVC030 FM162000 19006KT
                       P6SM VCSH SCT025 BKN040=
201309152207 TAF AMD KPAE 152207Z 1522/1618 19006KT 5SM BR OVC003
                      TEMPO 1522/1524 6SM -SHRA SCT003 OVC012 FM160000
                       18012G20KT P6SM -SHRA VCTS BKN015 BKN050CB
                       FM160500 20010KT P6SM -SHRA BKN025 OVC040=
201309152006 TAF AMD KPAE 152006Z 1520/1618 17006KT 1/2SM FG VCTS OVC003CB
                      TEMPO 1520/1522 5SM -SHRA BR BKN025 BKN050CB
                       FM152200 18014G24KT P6SM -SHRA VCTS BKN025
                       BKN050CB FM160300 20010KT P6SM -SHRA BKN025
                       OVC040=
201309151737 TAF KPAE 151737Z 1518/1618 16006KT P6SM -SHRA VCTS BKN003 BKN060CB
                       TEMPO 1518/1520 1/2SM FG SCT004 BKN060 FM152000
                       16006KT P6SM -SHRA VCTS BKN025 BKN050CB
                       FM152200 18014G24KT P6SM -SHRA VCTS BKN025
                       BKN050CB FM160300 20010KT P6SM -SHRA BKN025
                       OVC040=
201309151610 TAF AMD KPAE 151610Z 1516/1612 VRB04KT 1/4SM FG VV002
                      TEMPO 1516/1518 1SM BR OVC005 FM151800 15008KT
                       P6SM -SHRA VCTS BKN010 BKN060CB OVC120 FM152200
                       18014KT P6SM -SHRA VCTS BKN020 BKN050CB
                       OVC100 FM160300 24012KT P6SM -SHRA BKN025
                       OVC040=
201309151120 TAF KPAE 151120Z 1512/1612 00000KT 1/2SM FG VV002
                      TEMPO 1512/1516 1/4SM FG VV001 FM151600 VRB04KT
                       3SM BR OVC005 FM151800 15008KT P6SM VCSH
                       BKN010 BKN060 OVC120 FM152200 18014KT P6SM
                       -SHRA BKN020 BKN050 OVC100 FM160300 28012KT
                       P6SM -SHRA BKN025 OVC040=
201309150904 TAF AMD KPAE 150904Z 1509/1606 00000KT 1SM BR OVC002
                      TEMPO 1509/1513 1/4SM FG VV001 FM151800 15008KT
                       P6SM SCT060 BKN120 FM152200 18014KT P6SM
                       VCSH BKN050 BKN120 FM160300 28012KT P6SM
                       -SHRA BKN025 OVC040=
201309150719 TAF AMD KPAE 150719Z 1507/1606 00000KT 2SM BR OVC002
                      TEMPO 1510/1514 1/2SM FG VV001 FM151800 18006KT
                       P6SM SCT015 BKN080 FM152200 21012KT P6SM
                       VCSH BKN050 FM160300 23010KT P6SM -RA OVC030=
201309150520 TAF KPAE 150520Z 1506/1606 00000KT P6SM SCT200 FM150800 00000KT
                       P6SM VCFG SCT005 BKN150 FM151000 VRB03KT
                       1SM BR BKN002 FM151800 18006KT P6SM BKN080
                       FM152200 21012KT P6SM VCSH BKN050 FM160300
                       23010KT P6SM -RA OVC030=
201309142340 TAF KPAE 142340Z 1500/1524 31005KT P6SM SCT250 FM150600 VRB03KT
                       P6SM BKN200 FM151200 VRB03KT 1SM BR OVC004
                       FM151700 22004KT 3SM BR OVC012 FM152200
                       21010G22KT P6SM -SHRA VCTS BKN035CB OVC050=
201309142211 TAF AMD KPAE 142211Z 1422/1518 31006KT P6SM OVC009 FM142300 31006KT
                       P6SM BKN014 FM150000 31005KT P6SM SCT250
                       FM150600 VRB03KT P6SM SCT200 FM151200 VRB03KT
                       1SM BR BKN008 FM151500 22004KT 3SM BR OVC012=
201309141723 TAF KPAE 141723Z 1418/1518 33005KT 1SM BR OVC003
                      TEMPO 1418/1420 3SM BR OVC007 FM142000 33005KT
                       5SM BR OVC010 FM142100 33005KT P6SM BKN014
                       FM142200 33006KT P6SM SCT018 FM142300 31005KT
                       P6SM SCT250 FM150600 VRB03KT P6SM SCT200
                       FM151200 VRB03KT 1SM BR BKN008 FM151500
                       22004KT 3SM BR OVC012=
201309141508 TAF AMD KPAE 141508Z 1415/1512 35003KT 1/4SM FG VV002
                      TEMPO 1415/1417 1SM BR OVC004 FM141700 32005KT
                       2SM BR OVC005
                      TEMPO 1417/1419 5SM BR OVC010 FM141900 32005KT
                       P6SM OVC014 FM142000 33005KT P6SM SCT020
                       FM150000 31005KT P6SM SCT250 FM150600 00000KT
                       P6SM SKC=
201309141120 TAF KPAE 141120Z 1412/1512 35003KT 2SM BR OVC008
                      TEMPO 1412/1416 1/2SM FG VV001 FM142000 33005KT
                       P6SM SCT020 FM150000 31005KT P6SM SCT250
                       FM150600 00000KT P6SM SKC=
201309140520 TAF KPAE 140520Z 1406/1506 00000KT P6SM OVC010 FM140900 36003KT
                       3SM BR SCT002 OVC006 FM141200 35003KT 1/2SM
                       FG VV001 FM141700 31003KT 3/4SM BR BKN003
                       FM142000 33005KT P6SM SKC=
201309132322 TAF KPAE 132322Z 1400/1424 25004KT 6SM HZ OVC008 FM140900 36003KT
                       3SM BR SCT002 OVC006 FM141200 35003KT 1/4SM
                       FG VV001 FM141700 31003KT 3/4SM BR BKN003
                       FM142000 33005KT P6SM SKC=
201309132250 TAF AMD KPAE 132250Z 1323/1418 29004KT 6SM BR OVC005 FM141000 VRB03KT
                       3SM BR SCT002 OVC006 FM141200 34003KT 1/4SM
                       FG VV001 FM141600 31003KT 3/4SM BR BKN003=
201309132039 TAF AMD KPAE 132039Z 1321/1418 26005KT 5SM BR OVC004 FM132300 30004KT
                       P6SM SKC FM141000 VRB03KT 3SM BR SCT002
                       FM141200 34003KT 1/4SM FG VV001 FM141600
                       31003KT 3/4SM BR BKN003=
201309131739 TAF KPAE 131739Z 1318/1418 26004KT 3/4SM BR OVC003 FM131900 26004KT
                       5SM BR OVC005 FM132100 30004KT P6SM SKC
                       FM141000 VRB03KT 3SM BR SCT002 FM141200
                       34003KT 1/4SM FG VV001 FM141600 31003KT
                       3/4SM BR BKN003=
201309131120 TAF KPAE 131120Z 1312/1412 VRB03KT 1SM BR OVC002
                      TEMPO 1312/1316 1/4SM FG VV001 FM131800 29005KT
                       P6SM BKN006 FM132000 30004KT P6SM SKC FM141100
                       VRB03KT 3SM BR SCT002=
201309130827 TAF AMD KPAE 130827Z 1308/1406 VRB04KT 3SM BR FEW001
                      TEMPO 1308/1312 1/2SM FG VV001 FM131200 VRB03KT
                       3SM BR OVC002
                      TEMPO 1312/1316 1SM BR OVC001 FM131800 29005KT
                       P6SM SCT006 FM131900 30004KT P6SM SKC=
201309130530 TAF KPAE 130530Z 1306/1406 VRB04KT P6SM SKC FM130900 VRB04KT P6SM
                       FEW003
                      TEMPO 1309/1312 3SM BR BKN003 FM131200 18003KT
                       5SM BR OVC003
                      TEMPO 1312/1316 1SM BR OVC002 FM131800 29005KT
                       P6SM SCT006 FM131900 30004KT P6SM SKC=
201309122320 TAF KPAE 122320Z 1300/1324 30005KT P6SM SKC FM131100 21004KT 4SM
                       BR BKN004
                      TEMPO 1312/1316 1SM BR OVC002 FM131800 29005KT
                       P6SM SKC=
201309121720 TAF KPAE 121720Z 1218/1318 VRB03KT P6SM FEW004
                      TEMPO 1218/1219 5SM BR BKN004 FM122000 30005KT
                       P6SM SKC FM130900 21004KT 5SM BR BKN004
                       TEMPO 1312/1316 1SM BR OVC002=
201309121120 TAF KPAE 121120Z 1212/1312 20004KT P6SM FEW002
                      TEMPO 1213/1217 1/2SM FG VV001 FM121700 28005KT
                       4SM BR SCT003 FM121800 31006KT P6SM SKC
                       FM130900 21004KT 5SM BR BKN004=
201309120523 TAF KPAE 120523Z 1206/1306 VRB03KT P6SM SKC FM121200 20004KT P6SM
                       FEW002
                      TEMPO 1213/1217 1/2SM FG VV001 FM121700 28005KT
                       4SM BR SCT003 FM121800 31006KT P6SM SKC=
201309112323 TAF KPAE 112323Z 1200/1224 35005KT P6SM SKC FM120600 02003KT P6SM
                       SKC
                      TEMPO 1214/1216 VRB03KT 5SM BR BKN002 FM121600
                       28005KT P6SM SCT005 FM121700 31006KT P6SM
                       SKC=
201309111720 TAF KPAE 111720Z 1118/1218 34004KT P6SM SKC FM120900 VRB03KT P6SM
                       SKC
                      TEMPO 1214/1216 4SM BR OVC002 FM121600 28005KT
                       P6SM SCT005=
201309111126 TAF KPAE 111126Z 1112/1212 03005KT P6SM SKC FM111700 35003KT P6SM
                       SKC=
201309110524 TAF KPAE 110524Z 1106/1206 02004KT P6SM SKC
                      TEMPO 1111/1114 2SM BR SCT001 FM111500 36003KT
                       P6SM SKC=
201309102320 TAF KPAE 102320Z 1100/1124 34005KT P6SM SKC FM110600 02003KT 4SM
                       BR VCFG SCT003 FM111500 36003KT P6SM SKC=
201309101739 TAF KPAE 101739Z 1018/1118 36005KT 1/4SM FG VV001 FM101900 34005KT
                       4SM BR VCFG BKN007 FM102000 34005KT P6SM
                       SKC FM110600 02003KT 4SM BR VCFG SCT003
                       FM111400 36003KT P6SM SKC=
201309101120 TAF KPAE 101120Z 1012/1112 02004KT 1/4SM FG VV001
                      TEMPO 1012/1016 1SM BR OVC001 FM101600 02004KT
                       2SM BR BKN002 FM101700 33007KT P6SM SKC
                       FM110400 03007KT P6SM SKC=
201309100802 TAF AMD KPAE 100802Z 1008/1106 03003KT 1/2SM FG VV002
                      TEMPO 1014/1017 2SM BR SCT002 FM101700 33007KT
                       P6SM SKC FM110400 03007KT P6SM SKC=
201309100622 TAF AMD KPAE 100622Z 1006/1106 35005KT 3SM BR VCFG SCT001
                      TEMPO 1006/1010 1SM BR BKN001 FM101000 02005KT
                       1/2SM FG VV002
                      TEMPO 1014/1017 2SM BR SCT002 FM101700 33009KT
                       P6SM SKC=
201309100520 TAF KPAE 100520Z 1006/1106 VRB04KT P6SM SKC FM101000 02005KT P6SM
                       VCFG SKC FM101700 33009KT P6SM SKC=
201309092335 TAF KPAE 092335Z 1000/1024 VRB04KT P6SM SKC FM100900 02003KT 2SM
                       BR BKN007 FM101900 33007KT P6SM SKC=
201309091739 TAF KPAE 091739Z 0918/1018 VRB03KT P6SM SCT007 FM092000 36005KT
                       P6SM SKC FM100900 02003KT 2SM BR BKN007=
201309091519 TAF AMD KPAE 091519Z 0915/1012 02005KT 1/4SM FG VV001
                      TEMPO 0917/0919 3SM BR BKN003 FM091900 34006KT
                       P6SM SKC FM100600 04006KT P6SM SKC=
201309091120 TAF KPAE 091120Z 0912/1012 02005KT 1/4SM FG VV001
                      TEMPO 0914/0917 3SM BR BKN003 FM091700 34006KT
                       P6SM SKC FM100600 04006KT P6SM SKC=
201309090603 TAF AMD KPAE 090603Z 0906/1006 02005KT 2SM BR BKN002
                      TEMPO 0906/0910 1/4SM FG VV001 FM091000 00000KT
                       2SM BR OVC003
                      TEMPO 0910/0914 1/4SM FG VV001 FM091800 33006KT
                       P6SM SKC=
201309090520 TAF KPAE 090520Z 0906/1006 02005KT P6SM SCT200 FM090900 VRB03KT
                       P6SM SCT003 SCT120
                      TEMPO 0909/0912 3SM BR BKN003 FM091200 00000KT
                       3SM BR BKN003
                      TEMPO 0912/0916 1/2SM FG VV002 FM091800 33006KT
                       P6SM SKC=
201309082333 TAF KPAE 082333Z 0900/0924 35008KT P6SM SKC FM090400 04006KT P6SM
                       SCT200 FM091000 02003KT P6SM BKN015 FM091900
                       33005KT P6SM SCT060=
201309081740 TAF KPAE 081740Z 0818/0918 30005KT P6SM SCT012
                      TEMPO 0818/0819 BKN012 FM082200 35008KT P6SM
                       SKC FM090400 04006KT P6SM SCT200 FM091000
                       02003KT P6SM BKN015=
201309081615 TAF AMD KPAE 081615Z 0816/0912 VRB03KT 5SM BR SCT003 BKN016
                      TEMPO 0816/0818 3SM BR OVC003 FM081800 33006KT
                       P6SM FEW012 SCT040
                      TEMPO 0818/0819 BKN012 FM090400 04006KT P6SM
                       SCT200=
201309081200 TAF AMD KPAE 081200Z 0812/0912 36003KT 5SM BCFG SCT001 BKN016
                      TEMPO 0812/0816 1/2SM BCFG OVC001 FM081700
                       33006KT P6SM SCT040 FM090400 04006KT P6SM
                       SCT200=
201309081120 TAF KPAE 081120Z 0812/0912 00000KT P6SM SCT003
                      TEMPO 0813/0816 3SM BR BKN003 FM081800 33006KT
                       P6SM SCT040 FM090400 04006KT P6SM SCT200=
201309080904 TAF AMD KPAE 080904Z 0809/0906 00000KT 5SM BR SCT001
                      TEMPO 0809/0811 2SM BR BKN001 FM081100 00000KT
                       2SM BR BKN002
                      TEMPO 0812/0815 1/2SM FG VV002 FM081800 33006KT
                       P6SM SCT040 FM090400 04006KT P6SM SCT200=
201309080802 TAF AMD KPAE 080802Z 0808/0906 00000KT 3SM BR SCT001
                      TEMPO 0808/0810 2SM BR BKN001 FM081000 00000KT
                       2SM BR BKN002
                      TEMPO 0810/0814 1/2SM FG VV001 FM081800 33006KT
                       P6SM SCT040 FM090400 04006KT P6SM SCT200=
201309080520 TAF KPAE 080520Z 0806/0906 00000KT P6SM SKC
                      TEMPO 0808/0810 2SM BR SCT002 FM081000 01003KT
                       1/2SM FG VV002 FM081800 33006KT P6SM SKC=
201309072325 TAF KPAE 072325Z 0800/0824 30005KT P6SM FEW015 FM081100 01003KT
                       1/2SM FG VV002 FM081800 31003KT P6SM BKN025
                       FM082000 30005KT P6SM SCT025=
201309072149 TAF AMD KPAE 072149Z 0722/0818 30006KT P6SM SCT030 FM080200 35005KT
                       P6SM SCT060 FM081100 04003KT 1/2SM FG VV002
                       FM081600 13003KT P6SM BKN025=
201309071739 TAF KPAE 071739Z 0718/0818 30004KT P6SM VCSH BKN004 OVC060 FM071930
                       VRB03KT P6SM BKN025 BKN060 FM080200 35005KT
                       P6SM SCT060 FM081100 04003KT 1/2SM FG VV002
                       FM081600 13003KT P6SM BKN025=
201309071123 TAF KPAE 071123Z 0712/0812 15005KT P6SM SCT020 BKN080 FM071800
                       VRB04KT P6SM SCT030 BKN060 FM080000 36006KT
                       P6SM SCT050 FM081100 04006KT P6SM VCFG SCT002=
201309070529 TAF KPAE 070529Z 0706/0806 16008KT P6SM SCT040 BKN150 FM070900
                       16006KT P6SM SCT015 BKN080 FM071200 VRB03KT
                       4SM BR BKN015 BKN070 FM071700 36007KT P6SM
                       SCT030 BKN060 FM080300 36007KT P6SM SCT050=
201309062340 TAF KPAE 062340Z 0700/0724 23006KT P6SM VCSH SCT025 BKN200
                      TEMPO 0700/0704 SCT025 BKN030 FM070700 18005KT
                       P6SM SCT015 OVC040 FM071200 VRB04KT 4SM
                       BR VCSH BKN007 OVC040 FM071900 34005KT P6SM
                       OVC040=
201309061739 TAF KPAE 061739Z 0618/0718 16005KT 5SM -RA BR SCT005 OVC015
                      TEMPO 0618/0620 2SM RA BR OVC006 FM070000
                       22007KT P6SM -SHRA SCT015 OVC025 FM070800
                       18007KT P6SM BKN015 OVC040=
201309061556 TAF AMD KPAE 061556Z 0616/0712 18007KT P6SM -SHRA BKN020 OVC040
                       TEMPO 0616/0618 BKN004 OVC018 FM062000 23007KT
                       P6SM VCSH SCT025 BKN050 FM070800 18007KT
                       P6SM BKN015 OVC040=
201309061120 TAF KPAE 061120Z 0612/0712 16005KT P6SM -RA SCT003 OVC012
                      TEMPO 0612/0615 4SM -RA BR BKN002 OVC010
                       FM061600 18007KT P6SM -SHRA BKN020 OVC040
                       FM062000 23007KT P6SM VCSH SCT025 BKN050
                       FM070800 18007KT P6SM BKN015 OVC040=
201309060825 TAF AMD KPAE 060825Z 0608/0706 16008KT 4SM RA BR OVC040
                      TEMPO 0608/0612 2SM +RA BR OVC025 FM061600
                       20008KT P6SM -SHRA OVC040 FM062100 23007KT
                       P6SM VCSH BKN040=
201309060520 TAF KPAE 060520Z 0606/0706 VRB05KT P6SM VCTS SCT025CB BKN050 OVC090
                       TEMPO 0606/0609 5SM -TSRA BKN025CB OVC050
                       FM060900 20008KT 6SM RA BR OVC015 FM061800
                       20010KT P6SM -SHRA BKN025 BKN050 FM062100
                       23007KT P6SM VCSH BKN040 BKN080=
201309060314 TAF AMD KPAE 060314Z 0603/0624 33005KT P6SM SCT030 BKN080 OVC150
                       FM060600 VRB04KT P6SM -RA SCT020 OVC040
                       FM060900 26008KT 6SM RA BR OVC015 FM061800
                       20010KT P6SM -SHRA BKN025 BKN050 FM062100
                       23007KT P6SM VCSH BKN040 BKN080=
201309052336 TAF KPAE 052336Z 0600/0624 VRB04KT P6SM VCSH SCT003 OVC007 FM060400
                       22005KT P6SM -RA OVC015 FM060600 18008KT
                       5SM RA BR OVC015 FM060900 20005KT 4SM RA
                       BR OVC010=
201309051958 TAF AMD KPAE 051958Z 0520/0618 31005KT 6SM BR VCSH BKN003 OVC015
                       FM060100 22005KT P6SM -RA OVC015 FM060400
                       18008KT 5SM RA BR OVC015=
201309051739 TAF KPAE 051739Z 0518/0618 02006KT 2SM BR OVC003 FM051900 02006KT
                       P6SM VCSH FEW008 OVC015 FM060100 22005KT
                       P6SM -RA OVC015 FM060400 18008KT 5SM RA
                       BR OVC015=
201309051420 TAF AMD KPAE 051420Z 0514/0612 VRB04KT P6SM SCT040 OVC150
                      TEMPO 0514/0516 5SM -TSRA OVC015CB FM051700
                       VRB04KT P6SM VCSH BKN040 OVC120 FM052200
                       VRB04KT P6SM -RA OVC040 FM060400 32008KT
                       5SM RA BR OVC015=
201309051120 TAF KPAE 051120Z 0512/0612 VRB04KT P6SM SCT040 OVC150 FM051700
                       VRB04KT P6SM VCSH BKN040 OVC120 FM052200
                       VRB04KT P6SM -RA OVC040 FM060400 32008KT
                       5SM RA BR OVC015=
201309050520 TAF KPAE 050520Z 0506/0606 00000KT P6SM SCT040 OVC150 FM051700
                       VRB04KT P6SM VCSH BKN040 OVC120 FM052200
                       VRB04KT P6SM -RA OVC040 FM060400 32008KT
                       5SM RA BR OVC015=
201309042337 TAF KPAE 042337Z 0500/0524 33003KT P6SM SCT010 BKN130 FM050200
                       01003KT P6SM BKN100 FM051200 01003KT 3/4SM
                       BR BKN002 FM052000 30003KT 5SM -SHRA OVC015=
201309042036 TAF KPAE 042036Z 0420/0518 32005KT 6SM BR BKN009 BKN100 FM050200
                       01003KT P6SM BKN100 FM051200 01003KT 3/4SM
                       BR BKN002=
201309042029 TAF AMD KPAE 042029Z 0420/0518 32005KT 6SM BR BKN011 BKN100 FM050200
                       01003KT P6SM BKN100 FM051200 01003KT 3/4SM
                       BR BKN002=
201309041739 TAF KPAE 041739Z 0418/0518 02005KT 1/4SM FG OVC001 FM042000 32005KT
                       6SM BR SCT015 BKN100 FM042200 32005KT 5SM
                       -SHRA BKN015 BKN060 FM050200 01003KT P6SM
                       BKN100 FM051200 01003KT 3/4SM BR BKN002=
201309041433 KPAE 041433Z 0415/0512 32004KT 1/4SM FG VV001 FM041600 33003KT
                       P6SM BKN007 BKN200 FM041800 33004KT P6SM
                       SCT100 BKN200 FM042200 32005KT P6SM BKN200=
201309041120 TAF KPAE 041120Z 0412/0512 00000KT P6SM SCT006 BKN200
                      TEMPO 0412/0416 1SM BR BKN006 BKN200 FM041600
                       33003KT P6SM SCT007 SCT100 BKN200 FM041800
                       33004KT P6SM SCT100 BKN200 FM042200 32005KT
                       P6SM BKN200=
201309040523 TAF KPAE 040523Z 0406/0506 00000KT P6SM SCT200 FM041100 00000KT
                       P6SM VCFG SCT100 SCT200 FM041300 00000KT
                       P6SM BCFG SCT002 SCT100
                      TEMPO 0413/0416 1/2SM BCFG BKN001 BKN100
                       FM041700 33003KT P6SM SCT100 SCT200 FM042100
                       32005KT P6SM SCT100 BKN200=
201309032335 TAF KPAE 032335Z 0400/0424 VRB04KT P6SM SCT110 FM041100 04003KT
                       P6SM BKN015 BKN080 FM041800 35006KT P6SM
                       BKN070=
201309031734 TAF KPAE 031734Z 0318/0418 24004KT P6SM VCSH SCT015 SCT050 OVC080
                       TEMPO 0318/0320 1SM -SHRA BKN001 FM032100
                       VRB04KT P6SM SCT050 BKN080 FM040600 02003KT
                       P6SM SCT080 FM041200 02003KT P6SM SCT015
                       BKN100=
201309031416 TAF AMD KPAE 031416Z 0314/0412 VRB03KT P6SM -SHRA SCT050 OVC080
                       TEMPO 0314/0316 -TSRA SCT005 BKN050CB FM031600
                       VRB03KT P6SM -SHRA BKN050 OVC080 FM031800
                       22006KT P6SM VCSH BKN050 BKN080 FM040200
                       19003KT P6SM SCT070 SCT200=
201309031120 TAF KPAE 031120Z 0312/0412 VRB03KT P6SM -SHRA SCT050 OVC080 FM031500
                       VRB03KT P6SM -SHRA BKN050 OVC080 FM031800
                       22006KT P6SM VCSH BKN050 BKN080 FM040200
                       19003KT P6SM SCT070 SCT200=
201309030826 KPAE 030826Z 0308/0406 35005KT P6SM -SHRA BKN080 FM031600 VRB03KT
                       P6SM VCSH BKN070 BKN100 FM031800 24005KT
                       P6SM VCSH BKN060 BKN100 FM040200 VRB03KT
                       P6SM SCT070 SCT200=
201309022329 TAF KPAE 022329Z 0300/0324 24006KT P6SM SCT070 BKN100 BKN250 FM030900
                       VRB04KT P6SM BKN070 OVC100 FM031200 VRB04KT
                       P6SM VCSH SCT050 BKN070 OVC100=
201309021723 TAF KPAE 021723Z 0218/0318 18005KT P6SM SCT070 BKN120 BKN250 FM030300
                       19004KT P6SM SCT070 BKN250 FM030900 VRB04KT
                       P6SM BKN070 OVC120=
201309021120 TAF KPAE 021120Z 0212/0312 VRB03KT P6SM VCSH SCT050 BKN100 FM021700
                       24004KT P6SM SCT050 BKN200 FM030300 VRB03KT
                       P6SM SCT050 BKN200=
201309020528 TAF KPAE 020528Z 0206/0306 35004KT P6SM BKN050 FM021100 15004KT
                       P6SM BKN050 FM022000 24005KT P6SM SCT050
                       BKN200=
201309012321 TAF KPAE 012321Z 0200/0224 24007KT P6SM SCT120 FM020600 20005KT
                       P6SM SCT070 SCT120 FM021400 22007KT P6SM
                       SCT050 BKN070 BKN120=
201309011732 TAF KPAE 011732Z 0118/0218 23007KT P6SM SCT120 FM020400 18005KT
                       P6SM SCT060 SCT250=
201309011120 TAF KPAE 011120Z 0112/0212 VRB03KT P6SM SKC FM011700 23004KT P6SM
                       SKC FM011900 26006KT P6SM SKC FM020300 18003KT
                       P6SM SCT250=
201309010531 TAF KPAE 010531Z 0106/0206 VRB03KT P6SM SKC FM011600 17004KT P6SM
                       SCT100 FM011900 24006KT P6SM SCT100=