##########################################################
# Query made at 02/15/2025 20:57:13 UTC
# Time interval: from 09/01/2014 00:00  to 09/30/2014 23:59  UTC
##########################################################

##########################################################
# KPAE, Everett, Snohomish County Airport (United States)
# WMO index: -----. WIGOS ID: Unknown
# Latitude 47-55-23N. Longitude 122-16-57W. Altitude 184 m.
##########################################################

###################################
#  METAR/SPECI from KPAE
###################################
201409302353 METAR KPAE 302353Z AUTO VRB04KT 10SM CLR 17/09 A3011 RMK AO2 SLP196 60000 T01670094 10172 20139 55001 TSNO=
201409302253 METAR KPAE 302253Z AUTO 27007KT 10SM BKN070 17/09 A3011 RMK AO2 SLP195 T01670089 TSNO=
201409302153 METAR KPAE 302153Z 00000KT 10SM FEW036 SCT046 16/10 A3011 RMK AO2 RAB26E46 SLP196 P0000 T01560100=
201409302053 METAR KPAE 302053Z 30003KT 10SM FEW045 BKN060 15/11 A3011 RMK AO2 SLP197 T01500106 51005=
201409301953 METAR KPAE 301953Z 30008KT 10SM SCT029 BKN070 16/10 A3011 RMK AO2 SLP196 T01560100=
201409301900 SPECI KPAE 301900Z 28006KT 10SM FEW029 15/10 A3011 RMK AO2 T01500100=
201409301853 METAR KPAE 301853Z 00000KT 10SM FEW005 SCT017 BKN026 15/09 A3011 RMK AO2 SLP195 T01500094=
201409301753 METAR KPAE 301753Z 10SM FEW005 SCT017 BKN026 14/11 A3010 RMK AO2 SLP192 60000 T01390106 10150 20111 53012=
201409301653 METAR KPAE 301653Z 18005KT 10SM FEW005 SCT028 BKN055 14/11 A3008=
201409301553 METAR KPAE 301553Z 20005KT 10SM FEW005 SCT025 BKN030 13/11 A3007 RMK AO2 SLP182 T01280111=
201409301541 SPECI KPAE 301541Z 20005KT 10SM FEW005 SCT025 BKN030 13/11 A3007 RMK AO2 T01280111=
201409301453 METAR KPAE 301453Z 19007KT 8SM SCT005 OVC029 12/11 A3006 RMK AO2 SLP179 60000 T01220106 53014=
201409301402 SPECI KPAE 301402Z 17006KT 10SM FEW003 BKN038 OVC060 12/11 A3004 RMK AO2 T01170106=
201409301353 METAR KPAE 301353Z 22005KT 10SM BKN038 OVC060 12/11 A3004 RMK AO2 SLP172 T01170106=
201409301253 METAR KPAE 301253Z AUTO 21007KT 10SM SCT034 BKN046 BKN060 12/11 A3003 RMK AO2 RAE10 SLP169 P0000 T01170106=
201409301153 METAR KPAE 301153Z AUTO 20004KT 9SM -RA SCT005 BKN032 OVC055 11/11 A3002 RMK AO2 RAB14E28B52 SLP165 P0000 60000 70008 T01110106 10128 20111 51006=
201409301123 SPECI KPAE 301123Z AUTO 20003KT 9SM -RA BKN005 BKN030 OVC035 11/11 A3002 RMK AO2 RAB14 P0000 T01110106=
201409301053 METAR KPAE 301053Z AUTO 18004KT 10SM SCT005 11/10 A3001 RMK AO2 RAE03 SLP163 P0000 T01110100=
201409301045 SPECI KPAE 301045Z AUTO 19004KT 10SM SCT005 BKN035 11/11 A3001 RMK AO2 RAE03 P0000 T01110106=
201409300953 METAR KPAE 300953Z AUTO 19005KT 10SM -RA FEW035 BKN065 OVC085 12/11 A3001 RMK AO2 RAB52 SLP163 P0000 T01170106=
201409300920 SPECI KPAE 300920Z AUTO 16006KT 10SM SCT029 BKN041 OVC080 12/11 A3001 RMK AO2 T01220106=
201409300853 METAR KPAE 300853Z AUTO 16007KT 10SM OVC029 12/11 A3000 RMK AO2 SLP159 T01220106 51010=
201409300839 SPECI KPAE 300839Z AUTO 16005KT 10SM BKN029 BKN075 12/11 A3000 RMK AO2 T01220106=
201409300753 METAR KPAE 300753Z AUTO 16007KT 10SM BKN030 BKN035 BKN070 12/11 A2999 RMK AO2 SLP156 T01220106 401610111=
201409300653 METAR KPAE 300653Z AUTO 00000KT 10SM SCT032 BKN070 12/11 A2998 RMK AO2 SLP153 T01220106=
201409300553 METAR KPAE 300553Z AUTO 11005KT 10SM FEW080 BKN110 13/11 A2997 RMK AO2 RAE22 SLP149 P0001 60004 T01280106 10150 20122 51019=
201409300453 METAR KPAE 300453Z AUTO 08004KT 10SM -RA OVC070 13/10 A2996 RMK AO2 RAE10B26 SLP145 P0000 T01330100=
201409300353 METAR KPAE 300353Z 08005KT 10SM -RA OVC049 13/11 A2994 RMK AO2 RAE12B48 SLP137 P0000 T01330106=
201409300253 METAR KPAE 300253Z 01006KT 10SM -RA FEW026 BKN049 OVC060 13/11 A2992 RMK AO2 RAB13 SLP130 P0000 60003 T01330106 53008=
201409300153 METAR KPAE 300153Z 36005KT 10SM SCT030 OVC070 13/11 A2990 RMK AO2 SLP125 T01330111=
201409300053 METAR KPAE 300053Z 28005KT 10SM FEW004 SCT023 OVC037 14/13 A2990 RMK AO2 RAE16B21E46 SLP125 P0003 T01390128=
201409300034 SPECI KPAE 300034Z 27010G14KT 2SM -RA BR SCT004 OVC007 14/13 A2990 RMK AO2 RAE16B21 P0003 T01440128=
201409300019 SPECI KPAE 300019Z 24006KT 6SM BR BKN007 BKN013 OVC038 15/13 A2989 RMK AO2 RAE16 P0001 T01500133=
201409300012 SPECI KPAE 300012Z 25007KT 4SM -RA BR SCT007 BKN016 OVC038 15/13 A2989 RMK AO2 P0001 T01500133=
201409300007 SPECI KPAE 300007Z 23007KT 2 1/2SM -RA BR SCT005 BKN011 OVC021 15/13 A2989 RMK AO2 CIG 009V012 P0001 T01500133=
201409292353 METAR KPAE 292353Z 23005KT 1 1/4SM R16R/5000VP6000FT -RA BR OVC009 14/13 A2989 RMK AO2 RAB27 CIG 006V012 SLP121 P0003 60003 T01440133 10161 20128 55001=
201409292336 SPECI KPAE 292336Z 20008KT 2 1/2SM -RA BR OVC009 15/13 A2988 RMK AO2 RAB27 CIG 007V012 P0000 T01500133=
201409292253 METAR KPAE 292253Z 18010KT 10SM OVC010 16/13 A2988 RMK AO2 SLP119 T01560128=
201409292153 METAR KPAE 292153Z 16011KT 10SM SCT007 BKN010 OVC017 16/12 A2988 RMK AO2 SLP118 T01560122=
201409292053 METAR KPAE 292053Z 16012G17KT 10SM OVC010 15/12 A2989 RMK AO2 CIG 009V014 SLP122 T01500122 55007=
201409292050 SPECI KPAE 292050Z 15010G17KT 10SM OVC010 14/12 A2989 RMK AO2 CIG 009V014=
201409291953 METAR KPAE 291953Z 16011KT 10SM OVC008 14/12 A2991 RMK AO2 CIG 006V012 SLP126 T01390122=
201409291853 METAR KPAE 291853Z 17007KT 3SM BR OVC005 13/12 A2991 RMK AO2 SLP129 T01330122=
201409291753 METAR KPAE 291753Z 16008KT 2SM BR OVC005 13/12 A2992 RMK AO2 RAB13E28 SLP130 P0001 60001 T01280117 10128 20111 50002=
201409291702 SPECI KPAE 291702Z 17007KT 2SM BR OVC005 12/11 A2992 RMK AO2 T01220111=
201409291656 SPECI KPAE 291656Z 16008KT 3SM BR OVC005 12/12 A2992 RMK AO2 CIG 004V008 T01220117=
201409291653 METAR KPAE 291653Z 18009KT 1 1/2SM BR OVC006 12/11 A2992 RMK AO2 RAB03E12 CIG 004V008 SLP132 P0000 T01220111=
201409291638 SPECI KPAE 291638Z 17009KT 1 1/2SM BR OVC006 12/11 A2992 RMK AO2 RAB03E12 CIG 004V008 P0000 T01170111=
201409291617 SPECI KPAE 291617Z 17009KT 1 1/2SM BR OVC003 12/11 A2992 RMK AO2 RAB03E12 CIG 001V006 P0000 T01220111=
201409291603 SPECI KPAE 291603Z 19009KT 1 1/2SM -RA BR OVC001 12/12 A2991 RMK AO2 RAB03 P0000 T01220117=
201409291553 METAR KPAE 291553Z 17006KT 1/4SM R16R/P6000FT FG VV001 12/12 A2991 RMK AO2 SLP130 T01220117=
201409291516 SPECI KPAE 291516Z 17008KT 1/2SM R16R/1000VP6000FT FG VV001 12/12 A2991 RMK AO2 T01220117=
201409291453 METAR KPAE 291453Z 17005KT 1/4SM R16R/1400V1600FT FG VV001 12/12 A2991 RMK AO2 SLP128 T01220117 50003=
201409291353 METAR KPAE 291353Z 18004KT 1/4SM R16R/1000FT FG VV001 12/12 A2991 RMK AO2 SLP128 T01170117=
201409291327 SPECI KPAE 291327Z AUTO 16006KT 1/4SM R16R/1000FT FG VV001 12/11 A2992 RMK AO2 T01170111=
201409291320 SPECI KPAE 291320Z AUTO 17005KT 1/4SM R16R/1000V2400FT FG BKN001 OVC025 11/11 A2992 RMK AO2 T01110111=
201409291311 SPECI KPAE 291311Z AUTO 17005KT 1 3/4SM R16R/2400VP6000FT BR BKN001 OVC025 11/11 A2992 RMK AO2 T01110111=
201409291304 SPECI KPAE 291304Z AUTO 17006KT 3/4SM R16R/2000VP6000FT BR BKN001 OVC025 11/11 A2992 RMK AO2 T01110106=
201409291253 METAR KPAE 291253Z AUTO 17005KT 1/4SM R16R/1600FT FG VV001 11/11 A2992 RMK AO2 SLP131 T01110106=
201409291240 SPECI KPAE 291240Z AUTO 18005KT 1/4SM R16R/1800V2000FT FG VV001 12/11 A2991 RMK AO2 T01170111=
201409291237 SPECI KPAE 291237Z AUTO 19004KT 1/2SM R16R/1800V2800FT FG VV001 12/11 A2991 RMK AO2 T01170111=
201409291228 SPECI KPAE 291228Z AUTO 16007KT 1 3/4SM R16R/2400V3500FT BR OVC001 12/11 A2990 RMK AO2 T01170111=
201409291217 SPECI KPAE 291217Z AUTO 15005KT 3SM R16R/2200V2800FT BR BKN001 12/11 A2990 RMK AO2 T01170106=
201409291214 SPECI KPAE 291214Z AUTO 15003KT 2SM R16R/2200FT BR OVC001 11/11 A2990 RMK AO2 T01110106=
201409291210 SPECI KPAE 291210Z AUTO 15005KT 1 1/4SM R16R/2200V3000FT BR OVC001 11/11 A2990 RMK AO2 T01110106=
201409291203 SPECI KPAE 291203Z AUTO 00000KT 3/4SM R16R/1800V3000FT BR VV001 11/11 A2990 RMK AO2 T01110106=
201409291153 METAR KPAE 291153Z AUTO 00000KT 1/2SM R16R/1400V1600FT FG VV001 11/11 A2990 RMK AO2 SLP125 T01110111 10133 20111 58002=
201409291146 SPECI KPAE 291146Z AUTO 00000KT 1/2SM R16R/1400V1600FT FG VV001 11/11 A2990 RMK AO2 T01110111=
201409291126 SPECI KPAE 291126Z AUTO 00000KT 3/4SM R16R/1800V2800FT BR VV001 12/11 A2990 RMK AO2 T01170106=
201409291114 SPECI KPAE 291114Z AUTO 17003KT 1SM R16R/1200V1600FT BR VV001 11/11 A2990 RMK AO2 T01110111=
201409291103 SPECI KPAE 291103Z AUTO 00000KT 3/4SM R16R/1600V2400FT BR VV001 12/11 A2990 RMK AO2 T01170111=
201409291053 METAR KPAE 291053Z AUTO 00000KT 1/2SM R16R/1200V1600FT FG VV001 12/11 A2990 RMK AO2 SLP125 T01170111=
201409291043 SPECI KPAE 291043Z AUTO 15003KT 1/4SM R16R/1200V2200FT FG VV001 12/11 A2990 RMK AO2 T01170111=
201409291034 SPECI KPAE 291034Z AUTO 00000KT 1/2SM R16R/2200V3500FT FG VV001 12/11 A2990 RMK AO2 T01170111=
201409291027 SPECI KPAE 291027Z AUTO 12003KT 1SM R16R/2200V4000FT BR VV002 12/11 A2991 RMK AO2 T01170111=
201409291020 SPECI KPAE 291020Z AUTO 11005KT 1SM R16R/2000V4000FT BR VV001 12/11 A2991 RMK AO2 T01170111=
201409291010 SPECI KPAE 291010Z AUTO 00000KT 1/2SM R16R/1200V2000FT FG VV001 12/12 A2991 RMK AO2 T01220117=
201409290955 SPECI KPAE 290955Z AUTO 15005KT 3/4SM R16R/2000VP6000FT BR VV001 12/12 A2991 RMK AO2 VIS 1/2V5 T01220117=
201409290953 METAR KPAE 290953Z AUTO 15005KT 1 1/4SM R16R/4000VP6000FT BR SCT001 12/12 A2991 RMK AO2 VIS 1/2V5 SLP128 T01220117=
201409290950 SPECI KPAE 290950Z AUTO 16004KT 2 1/2SM BR FEW001 12/12 A2991 RMK AO2 VIS 3/4V5=
201409290853 METAR KPAE 290853Z AUTO 15003KT 8SM CLR 13/11 A2991 RMK AO2 SLP126 T01280111 56006=
201409290753 METAR KPAE 290753Z AUTO 00000KT 9SM CLR 12/11 A2991 RMK AO2 SLP129 T01220111 401610106=
201409290653 METAR KPAE 290653Z AUTO 12004KT 9SM CLR 12/11 A2991 RMK AO2 SLP128 T01220111=
201409290553 METAR KPAE 290553Z AUTO 12003KT 10SM CLR 13/11 A2992 RMK AO2 SLP133 T01280111 10161 20122 58006=
201409290453 METAR KPAE 290453Z AUTO 00000KT 10SM CLR 12/11 A2994=
201409290353 METAR KPAE 290353Z 20003KT 10SM CLR 13/11 A2993 RMK AO2 SLP136 T01330106=
201409290253 METAR KPAE 290253Z 00000KT 10SM CLR 15/11 A2994 RMK AO2 SLP139 T01500111 58005=
201409290153 METAR KPAE 290153Z 00000KT 10SM CLR 16/12 A2995 RMK AO2 SLP141 T01560117=
201409290053 METAR KPAE 290053Z 00000KT 10SM CLR 16/12 A2995 RMK AO2 SLP143 T01610122=
201409282353 METAR KPAE 282353Z VRB04KT 10SM CLR 16/12 A2996 RMK AO2 SLP144 T01610122 10161 20122 56013=
201409282253 METAR KPAE 282253Z 03004KT 10SM FEW007 16/12 A2997 RMK AO2 SLP147 T01610122=
201409282224 SPECI KPAE 282224Z 05003KT 10SM SCT005 15/12 A2997 RMK AO2 T01500117=
201409282217 SPECI KPAE 282217Z VRB03KT 9SM OVC005 15/12 A2998 RMK AO2 T01500122=
201409282153 METAR KPAE 282153Z 00000KT 4SM BR OVC004 14/12 A2998 RMK AO2 SLP153 T01390117=
201409282100 SPECI KPAE 282100Z VRB04KT 6SM BR OVC003 13/12 A2999 RMK AO2 T01330117=
201409282053 METAR KPAE 282053Z VRB03KT 2SM BR OVC003 13/12 A3000 RMK AO2 SLP158 T01330122 58015=
201409281953 METAR KPAE 281953Z 00000KT 2SM BR OVC003 13/12 A3002 RMK AO2 SLP164 T01280117=
201409281900 SPECI KPAE 281900Z 33004KT 2SM BR OVC003 13/12 A3003 RMK AO2 T01280117=
201409281853 METAR KPAE 281853Z 00000KT 5SM BR OVC003 13/12 A3003 RMK AO2 SLP171 T01280117=
201409281827 SPECI KPAE 281827Z 00000KT 1SM R16R/5500VP6000FT BR OVC002 12/12 A3004 RMK AO2 T01220117=
201409281753 METAR KPAE 281753Z 00000KT M1/4SM R16R/1800V2400FT FG VV002 12/12 A3004 RMK AO2 SLP174 T01220117 10122 20117 56005=
201409281746 SPECI KPAE 281746Z 00000KT M1/4SM R16R/2200V3000FT FG VV002 12/12 A3004 RMK AO2 T01220117=
201409281730 SPECI KPAE 281730Z 00000KT M1/4SM R16R/1000V5500FT FG VV001 12/12 A3004 RMK AO2 T01220122=
201409281705 SPECI KPAE 281705Z VRB03KT M1/4SM R16R/0800V1200FT FG VV001 12/12 A3004 RMK AO2 T01220117=
201409281653 METAR KPAE 281653Z VRB04KT M1/4SM R16R/0700V2400FT FG VV001 12/12 A3004 RMK AO2 SLP175 T01220122=
201409281553 METAR KPAE 281553Z VRB05KT M1/4SM R16R/0500V0600FT FG VV001 12/12 A3006 RMK AO2 SLP178 T01170117=
201409281500 SPECI KPAE 281500Z 01003KT M1/4SM R16R/0700V0800FT FG VV001 12/11 A3006 RMK AO2 T01170111=
201409281453 METAR KPAE 281453Z 01005KT 3/4SM R16R/0700V0800FT BR OVC002 12/12 A3006 RMK AO2 SLP178 T01170117 58001=
201409281422 SPECI KPAE 281422Z 02005KT 3/4SM R16R/1000V1600FT BR OVC002 12/11 A3006 RMK AO2 T01170111=
201409281353 METAR KPAE 281353Z 02004KT 3/4SM R16R/5000VP6000FT BR OVC002 12/11 A3006 RMK AO2 SLP179 T01170111=
201409281349 SPECI KPAE 281349Z 02005KT 2 1/2SM BR OVC002 12/11 A3006 RMK AO2=
201409281335 SPECI KPAE 281335Z AUTO 02005KT 4SM R16R/6000VP6000FT BR OVC001 12/11 A3006 RMK AO2 T01170111=
201409281326 SPECI KPAE 281326Z AUTO 01006KT 2 1/2SM R16R/5000VP6000FT BR OVC001 12/11 A3006 RMK AO2 T01170111=
201409281253 METAR KPAE 281253Z AUTO 01006KT 4SM BR OVC001 12/11 A3006 RMK AO2 SLP179 T01220111=
201409281251 SPECI KPAE 281251Z AUTO 01005KT 4SM BR OVC001 12/11 A3006 RMK AO2=
201409281239 SPECI KPAE 281239Z AUTO 36006KT 2SM R16R/3500VP6000FT BR BKN001 OVC013 12/11 A3006 RMK AO2 T01170111=
201409281232 SPECI KPAE 281232Z AUTO 36005KT 3SM R16R/3500VP6000FT BR BKN001 OVC013 12/11 A3006 RMK AO2 T01170111=
201409281204 SPECI KPAE 281204Z AUTO 01004KT 4SM BR FEW001 OVC012 12/11 A3006 RMK AO2 T01170111=
201409281153 METAR KPAE 281153Z AUTO 01004KT 4SM BR BKN001 OVC012 12/11 A3006 RMK AO2 SLP179 T01170111 10122 20106 56011=
201409281145 SPECI KPAE 281145Z AUTO 36004KT 3SM BR BKN001 OVC011 12/11 A3006 RMK AO2 T01170111=
201409281135 SPECI KPAE 281135Z AUTO 34005KT 2 1/2SM BR OVC001 12/11 A3006 RMK AO2 T01170111=
201409281106 SPECI KPAE 281106Z AUTO VRB04KT 4SM BR BKN001 OVC012 12/11 A3006 RMK AO2 T01170111=
201409281053 METAR KPAE 281053Z AUTO 01004KT 2SM R16R/2000V5500FT BR OVC001 12/11 A3006 RMK AO2 SLP180 T01170111=
201409281039 SPECI KPAE 281039Z AUTO 01003KT 3/4SM R16R/1600V2400FT BR OVC001 12/11 A3006 RMK AO2 T01170111=
201409281031 SPECI KPAE 281031Z AUTO 36004KT 2SM R16R/2000V3500FT BR OVC001 12/11 A3006 RMK AO2 T01170111=
201409281020 SPECI KPAE 281020Z AUTO 36004KT 3SM R16R/2400VP6000FT BR OVC001 12/11 A3007 RMK AO2 T01170111=
201409281016 SPECI KPAE 281016Z AUTO 36003KT 1 3/4SM R16R/2200VP6000FT BR OVC001 12/11 A3007 RMK AO2 T01170111=
201409281009 SPECI KPAE 281009Z AUTO 01004KT 3/4SM R16R/1800V2800FT BR VV001 12/11 A3007 RMK AO2 T01170111=
201409281001 SPECI KPAE 281001Z AUTO 36004KT 1SM R16R/1800V2800FT BR VV001 12/11 A3007 RMK AO2 T01170111=
201409280953 METAR KPAE 280953Z AUTO 36003KT 2SM R16R/2600V6000FT BR OVC001 12/11 A3007 RMK AO2 SLP183 T01170111=
201409280928 SPECI KPAE 280928Z AUTO 00000KT 3SM R16R/2200VP6000FT BR OVC001 12/11 A3008 RMK AO2 T01170106=
201409280917 SPECI KPAE 280917Z AUTO 35003KT 1 3/4SM R16R/1600V2400FT BR OVC001 12/11 A3008 RMK AO2 T01170111=
201409280911 SPECI KPAE 280911Z AUTO 36003KT 3SM R16R/2000V2200FT BR OVC001 12/11 A3009 RMK AO2 T01170106=
201409280855 SPECI KPAE 280855Z AUTO 02003KT 1SM R16R/1600V2000FT BR VV001 12/11 A3009 RMK AO2 T01170111=
201409280853 METAR KPAE 280853Z AUTO 01003KT 3/4SM R16R/1600V2400FT BR VV001 12/11 A3009 RMK AO2 SLP191 T01170111 55003=
201409280849 SPECI KPAE 280849Z AUTO 36003KT 1/2SM R16R/1600VP6000FT FG VV001 12/11 A3009 RMK AO2=
201409280840 SPECI KPAE 280840Z AUTO 02003KT 1 1/2SM BR BKN001 12/11 A3009 RMK AO2 T01170106=
201409280836 SPECI KPAE 280836Z AUTO 36003KT 4SM BR SCT001 12/11 A3009 RMK AO2 T01170106=
201409280753 METAR KPAE 280753Z AUTO 00000KT 8SM CLR 12/11 A3010 RMK AO2 SLP194 T01220106 401720111=
201409280653 METAR KPAE 280653Z AUTO 35004KT 6SM BR CLR 12/11 A3010 RMK AO2 SLP194 T01170106=
201409280553 METAR KPAE 280553Z 35004KT 9SM CLR 12/11 A3012 RMK AO2 SLP199 T01220111 10167 20117 55000=
201409280453 METAR KPAE 280453Z 36004KT 10SM CLR 12/11 A3012 RMK AO2 SLP199 T01220106=
201409280353 METAR KPAE 280353Z 35004KT 10SM CLR 13/11 A3012 RMK AO2 SLP198 T01280111=
201409280253 METAR KPAE 280253Z 34005KT 10SM CLR 13/11 A3012 RMK AO2 SLP199 T01330111 53000=
201409280153 METAR KPAE 280153Z 35004KT 10SM CLR 14/12 A3012 RMK AO2 SLP198 T01390117=
201409280053 METAR KPAE 280053Z 35005KT 10SM CLR 16/11 A3011 RMK AO2 SLP198 T01610111=
201409272353 METAR KPAE 272353Z 34007KT 10SM CLR 17/12 A3012 RMK AO2 SLP198 T01670122 10172 20128 55002=
201409272253 METAR KPAE 272253Z 36008KT 10SM CLR 17/12 A3012 RMK AO2 SLP197 T01670117=
201409272153 METAR KPAE 272153Z 35008KT 10SM CLR 17/12 A3012 RMK AO2 SLP198 T01720117=
201409272053 METAR KPAE 272053Z 36006KT 10SM CLR 17/12 A3013 RMK AO2 SLP200 T01670122 58009=
201409271953 METAR KPAE 271953Z VRB05KT 10SM SCT003 16/12 A3014 RMK AO2 SLP204 T01560122=
201409271853 METAR KPAE 271853Z VRB06KT 10SM SCT003 14/12 A3015 RMK AO2 SLP210 T01440122=
201409271807 SPECI KPAE 271807Z 01006KT 9SM OVC003 13/12 A3015 RMK AO2 T01330122=
201409271753 METAR KPAE 271753Z 35005KT 7SM BKN001 13/12 A3015 RMK AO2 SLP211 T01280122 10133 20122 50005=
201409271746 SPECI KPAE 271746Z 34006KT 6SM BR BKN001 13/12 A3015 RMK AO2 T01280122=
201409271735 SPECI KPAE 271735Z 34006KT 2SM BR BKN001 13/12 A3015 RMK AO2 T01330122=
201409271653 METAR KPAE 271653Z 01004KT 3/4SM R16R/1600V4500FT BR OVC001 12/12 A3016 RMK AO2 SLP212 T01220117=
201409271605 SPECI KPAE 271605Z 02004KT 1/2SM R16R/1800VP6000FT FG VV001 12/12 A3015 RMK AO2 T01220117=
201409271553 METAR KPAE 271553Z VRB05KT 1/4SM R16R/1400V5000FT FG VV001 12/12 A3015 RMK AO2 SLP209 T01220117=
201409271546 SPECI KPAE 271546Z VRB05KT 1/4SM R16R/1200V4500FT FG VV001 12/12 A3015 RMK AO2 T01220117=
201409271453 METAR KPAE 271453Z 35003KT M1/4SM R16R/0500V0700FT FG VV001 12/12 A3014 RMK AO2 SLP206 T01220117 53003=
201409271417 SPECI KPAE 271417Z 02004KT 1/4SM R16R/0800V2200FT FG VV001 12/12 A3014 RMK AO2 T01220122=
201409271409 SPECI KPAE 271409Z 01003KT 1/2SM R16R/2000VP6000FT FG BKN001 12/12 A3013 RMK AO2 T01220122=
201409271402 SPECI KPAE 271402Z 01003KT 1SM R16R/2800VP6000FT BR BKN001 12/12 A3014 RMK AO2 T01220122=
201409271353 METAR KPAE 271353Z 00000KT 1/2SM R16R/1800V4500FT FG VV001 12/12 A3013 RMK AO2 SLP204 T01220122=
201409271345 SPECI KPAE 271345Z AUTO 02003KT 1/4SM R16R/1600V2400FT FG VV001 13/12 A3013 RMK AO2 T01280122=
201409271253 METAR KPAE 271253Z AUTO 35004KT 1/4SM R16R/1000V1800FT FG VV001 13/12 A3012 RMK AO2 SLP201 T01280122=
201409271243 SPECI KPAE 271243Z AUTO 01004KT 1/4SM R16R/1600V2200FT FG VV001 13/12 A3013 RMK AO2 T01280122=
201409271225 SPECI KPAE 271225Z AUTO 35004KT 1/2SM R16R/2000V4000FT FG VV001 13/12 A3012 RMK AO2 T01280122=
201409271200 SPECI KPAE 271200Z AUTO 36004KT 1/4SM R16R/1400V2600FT FG VV001 13/13 A3013 RMK AO2 T01330128=
201409271153 METAR KPAE 271153Z AUTO VRB03KT 1/4SM R16R/1200V2000FT FG VV001 13/13 A3013 RMK AO2 SLP202 70065 T01330128 10150 20122 51006=
201409271146 SPECI KPAE 271146Z 36004KT 1/4SM R16R/1000V1600FT FG VV001 13/12 A3013 RMK AO2 T01280122=
201409271133 SPECI KPAE 271133Z 36004KT 1/4SM R16R/1800VP6000FT FG VV001 13/13 A3013 RMK AO2 T01330128=
201409271127 SPECI KPAE 271127Z 36003KT 1 1/2SM BR BKN001 OVC055 13/12 A3013 RMK AO2 T01280122=
201409271117 SPECI KPAE 271117Z 35005KT 5SM BR BKN001 OVC055 13/12 A3013 RMK AO2 T01280122=
201409271109 SPECI KPAE 271109Z 33005KT 2SM R16R/6000VP6000FT BR BKN001 OVC055 13/13 A3013 RMK AO2 T01330128=
201409271105 SPECI KPAE 271105Z 33004KT 3/4SM R16R/2600VP6000FT BR VV001 13/13 A3013 RMK AO2 T01330128=
201409271053 METAR KPAE 271053Z 33004KT 1/4SM R16R/2000V6000FT FG VV001 13/13 A3013 RMK AO2 SLP201 T01330128=
201409271051 SPECI KPAE 271051Z 33003KT 1/4SM R16R/2000V5500FT FG VV001 13/13 A3013 RMK AO2=
201409270953 METAR KPAE 270953Z 00000KT 1/4SM R16R/1000V1400FT FG VV001 13/13 A3011 RMK AO2 SLP196 T01330128=
201409270940 SPECI KPAE 270940Z 02003KT 10SM R16R/0700V1000FT SCT080 13/13 A3011 RMK AO2 T01330128=
201409270900 SPECI KPAE 270900Z 00000KT 10SM R16R/3500VP6000FT SCT080 12/12 A3012 RMK AO2 T01220117=
201409270853 METAR KPAE 270853Z 00000KT 3/4SM R16R/5000VP6000FT BR VV002 13/12 A3012 RMK AO2 SLP199 T01280117 50003=
201409270851 SPECI KPAE 270851Z 00000KT 3/4SM R16R/P6000FT BR VV002 13/12 A3012 RMK AO2=
201409270849 SPECI KPAE 270849Z 00000KT 1 1/2SM BR FEW055 13/12 A3012 RMK AO2=
201409270753 METAR KPAE 270753Z 00000KT 10SM OVC055 14/13 A3013 RMK AO2 SLP203 T01390128 401890133=
201409270653 METAR KPAE 270653Z 00000KT 10SM OVC055 14/12 A3013 RMK AO2 SLP201 T01440122=
201409270553 METAR KPAE 270553Z 00000KT 10SM OVC045 15/12 A3011 RMK AO2 SLP197 60026 T01500122 10178 20139 51010=
201409270453 METAR KPAE 270453Z 07003KT 10SM OVC043 14/14 A3010 RMK AO2 SLP193 T01440139=
201409270353 METAR KPAE 270353Z AUTO 29004KT 10SM FEW004 BKN039 OVC065 14/13 A3010 RMK AO2 SLP192 T01390133=
201409270314 SPECI KPAE 270314Z 00000KT 10SM FEW004 BKN045 OVC065 14/13 A3009 RMK AO2 T01390133=
201409270253 METAR KPAE 270253Z 30004KT 10SM FEW028 BKN060 OVC080 14/13 A3008 RMK AO2 RAE46 SLP186 P0007 60026 T01390133 51016=
201409270224 SPECI KPAE 270224Z 36005KT 3SM -RA BR SCT028 OVC049 14/13 A3007 RMK AO2 P0007 T01440128=
201409270211 SPECI KPAE 270211Z 34004KT 2SM -RA BR SCT028 BKN045 OVC070 14/13 A3007 RMK AO2 P0004 T01440128=
201409270159 SPECI KPAE 270159Z 33005KT 3SM -RA BR SCT028 BKN033 OVC050 14/13 A3007 RMK AO2 P0001 T01440128=
201409270153 METAR KPAE 270153Z VRB05KT 2SM -RA BR BKN028 BKN037 OVC050 14/13 A3007 RMK AO2 SLP182 P0018 T01440128=
201409270126 SPECI KPAE 270126Z 30005KT 1 1/2SM +RA BR BKN028 OVC034 14/13 A3006 RMK AO2 P0006 T01440133=
201409270118 SPECI KPAE 270118Z 28004KT 5SM -RA BR FEW024 BKN030 OVC038 14/13 A3006 RMK AO2 P0001 T01440133=
201409270053 METAR KPAE 270053Z 28005KT 10SM -RA FEW002 BKN023 OVC033 15/13 A3005 RMK AO2 RAB15 SLP177 P0001 T01500133=
201409270045 SPECI KPAE 270045Z 29005KT 8SM -RA FEW002 BKN023 OVC033 15/13 A3005 RMK AO2 RAB15 P0001 T01500133=
201409262353 METAR KPAE 262353Z 18006KT 10SM BKN029 OVC033 18/13 A3003 RMK AO2 RAB34E49 SLP169 P0000 60000 T01780128 10189 20139 51007=
201409262319 SPECI KPAE 262319Z 19013KT 10SM FEW021 BKN027 OVC035 18/13 A3003 RMK AO2 T01830128=
201409262300 SPECI KPAE 262300Z 17011KT 10SM FEW022 BKN032 OVC070 18/13 A3003 RMK AO2 T01780128=
201409262253 METAR KPAE 262253Z 17010KT 10SM BKN022 BKN030 18/13 A3003 RMK AO2 SLP168 T01830128=
201409262153 METAR KPAE 262153Z 18013KT 10SM BKN022 BKN030 BKN036 18/13 A3002 RMK AO2 SLP165 T01830128=
201409262139 SPECI KPAE 262139Z 20015G22KT 10SM SCT022 BKN034 18/13 A3002 RMK AO2 T01830128=
201409262053 METAR KPAE 262053Z 17009G20KT 10SM BKN014 18/13 A3001 RMK AO2 SLP162 60000 T01780133 51008=
201409261953 METAR KPAE 261953Z 17011KT 10SM OVC012 17/14 A3000 RMK AO2 SLP159 T01670139=
201409261932 SPECI KPAE 261932Z 17009G16KT 10SM BKN010 OVC015 16/13 A3000 RMK AO2 CIG 007V013 T01560133=
201409261853 METAR KPAE 261853Z 15011G16KT 10SM OVC008 14/13 A3000 RMK AO2 RAE05 CIG 006V013 SLP158 P0000 T01440128=
201409261753 METAR KPAE 261753Z 15010KT 10SM -RA OVC008 14/12 A2999 RMK AO2 RAE23B44 SLP154 P0001 60039 T01390122 10139 20133 52011=
201409261719 SPECI KPAE 261719Z 14008G16KT 5SM -RA BR SCT008 BKN014 OVC019 13/12 A2998 RMK AO2 P0001 T01330122=
201409261708 SPECI KPAE 261708Z 15007G15KT 3SM -RA BR FEW008 OVC016 13/12 A2998 RMK AO2 P0001 T01330122=
201409261653 METAR KPAE 261653Z COR 14006KT 3SM -RA BR FEW0076 FEW010 OVC019 13/12 A2998 RMK AO2 SLP151 P0003 T01330122=
201409261629 SPECI KPAE 261629Z 12007KT 1 3/4SM -RA BR SCT007 BKN021 OVC035 13/12 A2997 RMK AO2 P0001 T01330122=
201409261555 SPECI KPAE 261555Z VRB04KT 8SM -RA SCT007 BKN021 OVC035 13/12 A2996 RMK AO2 P0000 T01330122=
201409261553 METAR KPAE 261553Z 11007KT 6SM -RA BR BKN007 OVC035 13/12 A2996 RMK AO2 SLP146 P0017 T01330122=
201409261453 METAR KPAE 261453Z VRB06KT 3SM RA BR BKN007 OVC035 13/12 A2995=
201409261421 SPECI KPAE 261421Z 16010KT 3SM RA BR BKN007 OVC035 13/12 A2994 RMK AO2 P0003 T01330117=
201409261353 METAR KPAE 261353Z 15009KT 10SM -RA BKN037 BKN044 OVC055 14/12 A2994 RMK AO2 RAE18B43 SLP137 P0001 T01390117=
201409261253 METAR KPAE 261253Z AUTO 16008KT 10SM -RA SCT040 BKN050 OVC065 14/12 A2993 RMK AO2 SLP133 P0007 T01390117=
201409261153 METAR KPAE 261153Z AUTO 15004KT 10SM -RA BKN050 OVC070 14/12 A2992 RMK AO2 RAB02 SLP130 P0004 60004 70019 T01390117 10150 20139 53001=
201409261053 METAR KPAE 261053Z AUTO VRB05KT 10SM OVC048 14/11 A2991 RMK AO2 SLP126 T01440111=
201409260953 METAR KPAE 260953Z AUTO 15006KT 10SM OVC080 15/11 A2991 RMK AO2 SLP129 T01500111=
201409260853 METAR KPAE 260853Z AUTO 16010KT 10SM OVC070 15/11 A2991 RMK AO2 SLP128 T01500111 53006=
201409260753 METAR KPAE 260753Z AUTO 15005KT 10SM BKN075 14/12 A2990 RMK AO2 SLP124 T01440117 402000139=
201409260653 METAR KPAE 260653Z AUTO VRB06KT 10SM CLR 14/12 A2990 RMK AO2 SLP124 T01440117=
201409260553 METAR KPAE 260553Z AUTO 15006G16KT 10SM FEW070 SCT080 14/12 A2990 RMK AO2 SLP123 60001 T01440122 10189 20144 51007=
201409260453 METAR KPAE 260453Z AUTO 15007KT 110V180 10SM BKN065 BKN085 14/13 A2989 RMK AO2 SLP123 T01440128=
201409260353 METAR KPAE 260353Z AUTO 16007KT 10SM CLR 15/12 A2989 RMK AO2 RAB02E12 SLP119 P0000 T01500122=
201409260253 METAR KPAE 260253Z 20009KT 10SM FEW029 SCT055 BKN070 15/13 A2987 RMK AO2 RAB35E48 SLP115 P0001 60001 T01500128 53010=
201409260153 METAR KPAE 260153Z VRB04KT 10SM BKN080 OVC110 18/12 A2985 RMK AO2 SLP108 T01830117=
201409260053 METAR KPAE 260053Z 12006KT 10SM CLR 18/12 A2985 RMK AO2 SLP107 T01830117=
201409260000 SPECI KPAE 260000Z 11006KT 10SM FEW029 FEW046 18/12 A2984 RMK AO2 T01830122=
201409252353 METAR KPAE 252353Z 10007KT 10SM BKN027 19/11 A2984 RMK AO2 SLP104 60002 T01890111 10200 20144 56009=
201409252253 METAR KPAE 252253Z 15011KT 10SM BKN027 19/12 A2985 RMK AO2 SLP106 T01940117=
201409252153 METAR KPAE 252153Z 11007KT 10SM SCT020 19/13 A2985 RMK AO2 SLP108 T01890128=
201409252053 METAR KPAE 252053Z 11007KT 10SM SCT014 BKN020 BKN033 17/13 A2987 RMK AO2 SLP114 60002 T01720133 56005=
201409252042 SPECI KPAE 252042Z VRB05KT 10SM SCT008 BKN028 OVC033 17/13 A2987 RMK AO2 T01720133=
201409251953 METAR KPAE 251953Z COR 14005KT 10SM SCT008 BKN034 BKN075 17/14 A2988 RMK AO2 RAE19 SLP115 P0001 T01670139=
201409251917 SPECI KPAE 251917Z 13007KT 100V180 10SM -RA SCT005 BKN075 OVC090 16/13 A2989 RMK AO2 P0001 T01560133=
201409251853 METAR KPAE 251853Z VRB05KT 10SM -RA FEW065 OVC080 15/13 A2988 RMK AO2 RAE1759B02 SLP118 P0001 T01500133=
201409251800 SPECI KPAE 251800Z 14004KT 10SM SCT021 BKN030 OVC070 14/13 A2989 RMK AO2 RAE1759 P0000 T01440133=
201409251753 METAR KPAE 251753Z VRB04KT 6SM -RA BR FEW003 BKN010 OVC060 14/13 A2989 RMK AO2 SLP120 P0002 60012 T01440128 10144 20139 53009=
201409251653 METAR KPAE 251653Z VRB04KT 4SM -RA BR SCT005 BKN013 OVC070 14/12 A2988 RMK AO2 SLP116 P0003 T01440122=
201409251624 SPECI KPAE 251624Z VRB05KT 5SM -RA BR SCT005 BKN013 OVC070 14/13 A2988 RMK AO2 P0002 T01440128=
201409251553 METAR KPAE 251553Z 16009KT 4SM -RA BR FEW002 BKN005 OVC070 14/13 A2987 RMK AO2 RAB26 SLP113 P0002 T01440133=
201409251546 SPECI KPAE 251546Z 16008KT 4SM -RA BR FEW002 BKN005 OVC070 14/13 A2986 RMK AO2 RAB26 P0002 T01440133=
201409251453 METAR KPAE 251453Z 15008KT 10SM BKN003 BKN048 OVC080 14/13 A2986 RMK AO2 RAE15 SLP110 P0001 60005 T01440133 52002=
201409251432 SPECI KPAE 251432Z 15009KT 10SM BKN003 BKN048 OVC080 14/13 A2986 RMK AO2 RAE15 P0001 T01440133=
201409251419 SPECI KPAE 251419Z 16008KT 10SM FEW003 FEW046 OVC080 14/13 A2987 RMK AO2 RAE15 P0001 T01440133=
201409251353 METAR KPAE 251353Z 15008KT 7SM -RA SCT050 BKN065 OVC080 14/13 A2986=
201409251253 METAR KPAE 251253Z AUTO 15009KT 9SM -RA OVC075 14/13 A2986 RMK AO2 SLP109 P0001 T01440133=
201409251153 METAR KPAE 251153Z AUTO 15008KT 10SM -RA OVC080 14/13 A2985 RMK AO2 RAE16B37 SLP108 P0001 60001 70025 T01440128 10161 20144 55001=
201409251053 METAR KPAE 251053Z AUTO 15005KT 10SM -RA OVC095 14/13 A2985 RMK AO2 RAB09 SLP106 P0000 T01440128=
201409250953 METAR KPAE 250953Z AUTO 00000KT 10SM BKN048 OVC100 15/13 A2985 RMK AO2 SLP108 T01500128=
201409250853 METAR KPAE 250853Z AUTO 12005KT 10SM FEW043 FEW120 15/13 A2986 RMK AO2 SLP109 T01500128 56004=
201409250753 METAR KPAE 250753Z AUTO 15003KT 10SM SCT100 16/13 A2986 RMK AO2 SLP109 T01610128 401780150=
201409250653 METAR KPAE 250653Z AUTO 00000KT 10SM SCT033 16/13 A2986 RMK AO2 SLP111 T01560128=
201409250553 METAR KPAE 250553Z AUTO 00000KT 10SM CLR 16/13 A2987 RMK AO2 SLP113 T01560128 10178 20150 51004=
201409250453 METAR KPAE 250453Z AUTO 12006KT 10SM CLR 16/12 A2987 RMK AO2 SLP112 T01560122=
201409250353 METAR KPAE 250353Z AUTO 11007KT 10SM CLR 16/12 A2986 RMK AO2 SLP110 T01610122=
201409250253 METAR KPAE 250253Z 11005KT 10SM CLR 16/13 A2986 RMK AO2 SLP109 T01610128 56005=
201409250153 METAR KPAE 250153Z 15005KT 10SM CLR 17/13 A2987 RMK AO2 SLP113 T01720128=
201409250053 METAR KPAE 250053Z VRB04KT 10SM CLR 17/13 A2986 RMK AO2 SLP110 T01720128=
201409242353 METAR KPAE 242353Z VRB05KT 10SM FEW090 17/13 A2987 RMK AO2 SLP114 60000 T01720133 10178 20156 50000=
201409242253 METAR KPAE 242253Z AUTO VRB06KT 10SM SCT009 BKN090 17/13 A2988 RMK AO2 SLP116 T01720133=
201409242156 SPECI KPAE 242156Z VRB06KT 10SM SCT009 BKN090 17/14 A2987 RMK AO2 T01670139=
201409242153 METAR KPAE 242153Z VRB06G15KT 10SM BKN007 BKN090 17/14 A2987 RMK AO2 SLP114 T01670139=
201409242053 METAR KPAE 242053Z 15011G19KT 10SM BKN007 OVC110 16/14 A2987 RMK AO2 SLP114 60000 T01610139 51018=
201409242017 SPECI KPAE 242017Z 16011G15KT 10SM BKN007 OVC110 16/14 A2986 RMK AO2 T01610139=
201409241953 METAR KPAE 241953Z 15011G15KT 10SM FEW007 OVC110 16/14 A2986 RMK AO2 SLP111 T01560139=
201409241853 METAR KPAE 241853Z 16017G23KT 10SM FEW005 BKN100 16/14 A2984 RMK AO2 RAE19 SLP104 P0000 T01610139=
201409241753 METAR KPAE 241753Z 16015KT 9SM -RA FEW007 OVC065 16/14 A2982 RMK AO2 PK WND 16027/1719 SLP096 P0003 60024 T01560139 10172 20150 51022=
201409241653 METAR KPAE 241653Z 16015KT 8SM -RA OVC055 15/13 A2980 RMK AO2 SLP091 P0001 T01500133=
201409241553 METAR KPAE 241553Z 20018G25KT 5SM -RA BR FEW009 SCT034 OVC043 16/14 A2979 RMK AO2 SLP085 P0007 T01560139=
201409241504 SPECI KPAE 241504Z 21015G18KT 5SM -RA BR BKN006 BKN026 OVC060 16/14 A2976 RMK AO2 P0002 T01610144=
201409241453 METAR KPAE 241453Z 16008KT 5SM -RA BR FEW018 BKN026 OVC060 16/15 A2975 RMK AO2 SLP074 P0007 60013 T01610150 53001=
201409241353 METAR KPAE 241353Z 15012KT 7SM -RA FEW035 BKN060 OVC085 17/14 A2973 RMK AO2 SLP066 P0004 T01670144=
201409241253 METAR KPAE 241253Z 15010KT 10SM -RA BKN060 BKN070 OVC095 17/15 A2973 RMK AO2 SLP066 P0002 T01720150=
201409241231 SPECI KPAE 241231Z 16008KT 10SM -RA SCT006 BKN060 OVC085 17/16 A2974 RMK AO2 P0001 T01720156=
201409241202 SPECI KPAE 241202Z 16012KT 10SM -RA BKN008 OVC015 17/16 A2975 RMK AO2 CIG 005V012 P0000 T01670156=
201409241153 METAR KPAE 241153Z 16010KT 10SM -RA SCT008 BKN013 OVC100 17/16 A2975 RMK AO2 SLP071 P0003 60036 70060 T01720156 10172 20161 50009=
201409241142 SPECI KPAE 241142Z 17010KT 10SM -RA BKN008 BKN016 OVC095 17/16 A2975 RMK AO2 P0003 T01720156=
201409241129 SPECI KPAE 241129Z 16012KT 10SM -RA SCT010 BKN016 OVC090 17/16 A2975 RMK AO2 P0003 T01720156=
201409241122 SPECI KPAE 241122Z 16012KT 10SM -RA BKN010 BKN018 OVC090 17/16 A2975 RMK AO2 P0003 T01720156=
201409241053 METAR KPAE 241053Z 18014KT 9SM -RA BKN009 BKN018 OVC060 17/16 A2976 RMK AO2 PK WND 19027/0956 SLP074 P0004 T01720156=
201409240953 METAR KPAE 240953Z 19020G27KT 10SM -RA BKN008 OVC014 17/16 A2973 RMK AO2 PK WND 18027/0948 CIG 005V010 SLP065 P0005 T01720156=
201409240939 SPECI KPAE 240939Z 18017G26KT 10SM -RA SCT007 OVC012 17/16 A2972 RMK AO2 PK WND 18026/0936 P0004 T01720156=
201409240911 SPECI KPAE 240911Z 17012G21KT 8SM -RA BKN009 OVC014 17/16 A2973 RMK AO2 CIG 006V012 P0002 T01670156=
201409240853 METAR KPAE 240853Z 16014KT 7SM -RA BKN014 BKN023 OVC036 17/16 A2972 RMK AO2 SLP062 P0006 60024 T01670156 53008=
201409240841 SPECI KPAE 240841Z 15013KT 8SM -RA SCT016 BKN023 OVC040 17/15 A2972 RMK AO2 P0004 T01670150=
201409240753 METAR KPAE 240753Z 15011G18KT 8SM -RA FEW037 SCT055 OVC100 17/14 A2969 RMK AO2 SLP052 P0006 T01670144 401940144=
201409240653 METAR KPAE 240653Z VRB04KT 5SM RA BR FEW036 SCT045 OVC055 16/15 A2970 RMK AO2 SLP055 P0012 T01610150=
201409240553 METAR KPAE 240553Z 13005KT 6SM RA BR SCT043 BKN075 OVC100 16/14 A2971 RMK AO2 SLP058 P0006 60021 T01610144 10183 20156 56024=
201409240453 METAR KPAE 240453Z 10011KT 5SM -RA BR FEW035 BKN055 OVC070 16/14 A2972 RMK AO2 SLP063 P0009 T01560144=
201409240353 METAR KPAE 240353Z 11012KT 9SM -RA OVC046 16/14 A2976 RMK AO2 SLP075 P0002 T01610144=
201409240253 METAR KPAE 240253Z 15008KT 10SM -RA OVC060 16/15 A2978 RMK AO2 SLP083 P0002 60004 T01610150 56013=
201409240153 METAR KPAE 240153Z 15011KT 7SM -RA OVC090 17/15 A2979 RMK AO2 RAB03 SLP086 P0002 T01670150=
201409240053 METAR KPAE 240053Z 15011G17KT 10SM BKN090 OVC110 18/14 A2980 RMK AO2 RAB2355E12 SLP090 P0000 T01780139=
201409232353 METAR KPAE 232353Z 15011KT 10SM SCT080 BKN100 BKN120 18/14 A2982 RMK AO2 RAB2258E11 SLP096 P0000 60003 T01830139 10194 20178 56000=
201409232253 METAR KPAE 232253Z 19013KT 10SM SCT065 OVC100 18/14 A2982 RMK AO2 RAE44 SLP097 P0000 T01830144=
201409232153 METAR KPAE 232153Z 16011KT 10SM -RA OVC055 18/14 A2982 RMK AO2 SLP094 P0002 T01830139=
201409232053 METAR KPAE 232053Z 19009KT 10SM -RA FEW065 BKN090 OVC110 19/15 A2982 RMK AO2 RAB06 SLP097 P0001 60001 T01940150 58012=
201409231953 METAR KPAE 231953Z 15005KT 10SM FEW110 19/15 A2984 RMK AO2 RAE28 SLP100 P0000 T01890150=
201409231853 METAR KPAE 231853Z 16006KT 10SM -RA FEW060 SCT075 OVC100 18/14 A2985 RMK AO2 RAB02E16B40 SLP106 P0000 T01830139=
201409231753 METAR KPAE 231753Z 17009KT 10SM SCT075 18/14 A2986 RMK AO2 SLP108 60000 T01830139 10183 20156 53007=
201409231653 METAR KPAE 231653Z 16007KT 10SM BKN080 BKN110 18/13 A2984=
201409231553 METAR KPAE 231553Z 15007KT 10SM BKN100 17/13 A2983=
201409231453 METAR KPAE 231453Z VRB03KT 10SM FEW100 16/13 A2984 RMK AO2 RAB14E23 SLP102 P0000 60000 T01610133 58009=
201409231353 METAR KPAE 231353Z 11008KT 10SM SCT110 16/13 A2985 RMK AO2 SLP105 T01560133=
201409231253 METAR KPAE 231253Z AUTO 16006KT 10SM OVC110 17/13 A2985 RMK AO2 SLP107 T01670128=
201409231153 METAR KPAE 231153Z AUTO 15007KT 10SM BKN110 16/13 A2986 RMK AO2 SLP110 70001 T01610128 10172 20144 56021=
201409231053 METAR KPAE 231053Z AUTO 22007KT 10SM FEW100 BKN120 16/13 A2988 RMK AO2 SLP116 T01560128=
201409230953 METAR KPAE 230953Z AUTO VRB03KT 10SM FEW070 BKN090 BKN110 17/13 A2989 RMK AO2 SLP119 T01670128=
201409230853 METAR KPAE 230853Z AUTO 17004KT 10SM FEW120 15/12 A2993 RMK AO2 SLP133 T01500117 55002=
201409230753 METAR KPAE 230753Z AUTO 00000KT 10SM CLR 16/12 A2991 RMK AO2 SLP127 T01610122 402060156=
201409230653 METAR KPAE 230653Z AUTO 00000KT 10SM FEW080 BKN095 17/12 A2992 RMK AO2 SLP129 T01720122=
201409230553 METAR KPAE 230553Z AUTO 00000KT 10SM FEW034 17/12 A2993 RMK AO2 SLP135 T01670122 10206 20167 55004=
201409230453 METAR KPAE 230453Z AUTO 00000KT 10SM CLR 18/12 A2993 RMK AO2 SLP134 T01780122=
201409230353 METAR KPAE 230353Z AUTO 10003KT 10SM FEW100 18/12 A2994 RMK AO2 SLP136 T01830122=
201409230253 METAR KPAE 230253Z 16005KT 10SM BKN100 18/12 A2994 RMK AO2 SLP139 T01830122 56007=
201409230153 METAR KPAE 230153Z 23003KT 10SM FEW033 18/12 A2995 RMK AO2 SLP139 T01830122=
201409230053 METAR KPAE 230053Z 21005KT 10SM BKN033 21/12 A2995 RMK AO2 SLP141 T02060122=
201409230000 SPECI KPAE 230000Z 17007KT 10SM BKN033 OVC100 20/12 A2996 RMK AO2 T02000122=
201409222353 METAR KPAE 222353Z 17006KT 10SM OVC029 20/12 A2997 RMK AO2 SLP145 T02000122 10200 20172 58010=
201409222253 METAR KPAE 222253Z 24005KT 10SM OVC029 19/12 A2998 RMK AO2 SLP149 T01890122=
201409222211 SPECI KPAE 222211Z 17006KT 10SM OVC030 19/13 A2998 RMK AO2 T01940128=
201409222153 METAR KPAE 222153Z 19006KT 10SM BKN027 OVC032 19/13 A2998 RMK AO2 SLP151 T01940128=
201409222053 METAR KPAE 222053Z 18007KT 10SM OVC029 19/13 A2999 RMK AO2 SLP155 T01890128 56004=
201409221953 METAR KPAE 221953Z 17009KT 10SM SCT016 OVC027 19/12 A3000 RMK AO2 SLP155 T01890122=
201409221853 METAR KPAE 221853Z 15007KT 110V170 10SM BKN027 BKN032 18/13 A3000 RMK AO2 SLP155 T01830133=
201409221753 METAR KPAE 221753Z 16011KT 10SM OVC027 17/13 A3001 RMK AO2 SLP160 60001 T01720133 10172 20156 51008=
201409221653 METAR KPAE 221653Z 15009KT 10SM OVC026 16/14 A3000 RMK AO2 RAE08B36E49 SLP159 P0000 T01610139=
201409221553 METAR KPAE 221553Z 16011KT 8SM -RA OVC026 16/13 A3000 RMK AO2 RAB10 SLP157 P0001 T01610133=
201409221453 METAR KPAE 221453Z 15011KT 10SM FEW016 OVC026 16/14 A2998 RMK AO2 RAB24E33 SLP152 P0000 60000 T01610139 53005=
201409221353 METAR KPAE 221353Z 16008KT 10SM SCT018 OVC027 17/13 A2998 RMK AO2 SLP149 T01670133=
201409221301 SPECI KPAE 221301Z AUTO 17007KT 10SM FEW020 OVC027 17/13 A2997 RMK AO2 T01670133=
201409221253 METAR KPAE 221253Z AUTO 18007KT 10SM FEW020 OVC030 17/13 A2997 RMK AO2 SLP146 T01670133=
201409221153 METAR KPAE 221153Z AUTO 17010KT 10SM SCT023 17/13 A2997 RMK AO2 SLP144 T01670133 10167 20150 53005=
201409221117 SPECI KPAE 221117Z AUTO 17011KT 10SM FEW015 BKN024 17/13 A2996 RMK AO2 T01670133=
201409221053 METAR KPAE 221053Z AUTO 17014KT 10SM FEW024 16/13 A2996 RMK AO2 SLP143 T01610128=
201409220953 METAR KPAE 220953Z AUTO 19009KT 10SM CLR 16/13 A2995 RMK AO2 SLP139 T01610133=
201409220853 METAR KPAE 220853Z AUTO 17007KT 10SM CLR 16/13 A2995 RMK AO2 SLP138 T01610133 51005=
201409220753 METAR KPAE 220753Z AUTO 18009KT 10SM CLR 16/13 A2995 RMK AO2 SLP138 T01610133 402720133=
201409220653 METAR KPAE 220653Z AUTO 18009KT 10SM CLR 17/13 A2994 RMK AO2 SLP136 T01670128=
201409220553 METAR KPAE 220553Z AUTO 00000KT 10SM CLR 15/13 A2994 RMK AO2 SLP134 T01500128 10233 20144 51016=
201409220453 METAR KPAE 220453Z AUTO 36003KT 10SM CLR 15/13 A2992 RMK AO2 SLP132 T01500128=
201409220353 METAR KPAE 220353Z AUTO 01004KT 10SM CLR 16/13 A2991 RMK AO2 SLP125 T01560128=
201409220253 METAR KPAE 220253Z 01007KT 10SM CLR 16/13 A2989 RMK AO2 SLP119 T01560128 53010=
201409220153 METAR KPAE 220153Z 02008KT 10SM CLR 17/13 A2987 RMK AO2 SLP114 T01670133=
201409220053 METAR KPAE 220053Z 03006KT 10SM CLR 19/13 A2986 RMK AO2 SLP111 T01940133=
201409212353 METAR KPAE 212353Z 30003KT 10SM CLR 23/14 A2986 RMK AO2 SLP108 T02330139 10272 20217 55002=
201409212253 METAR KPAE 212253Z 27007KT 10SM CLR 26/13 A2985 RMK AO2 SLP106 T02560133=
201409212153 METAR KPAE 212153Z 25006KT 10SM CLR 26/13 A2986 RMK AO2 SLP106 T02610128=
201409212053 METAR KPAE 212053Z 23004KT 10SM CLR 27/13 A2987 RMK AO2 SLP110 T02670133 58008=
201409211953 METAR KPAE 211953Z 18006KT 10SM CLR 26/12 A2988 RMK AO2 SLP114 T02560117=
201409211853 METAR KPAE 211853Z 19006KT 10SM CLR 24/14 A2988 RMK AO2 SLP116 T02440139=
201409211753 METAR KPAE 211753Z 18003KT 10SM CLR 22/14 A2989 RMK AO2 SLP119 T02170144 10217 20133 51005=
201409211653 METAR KPAE 211653Z 25003KT 10SM CLR 19/13 A2989 RMK AO2 SLP119 T01940133=
201409211553 METAR KPAE 211553Z 00000KT 10SM R16R/5000VP6000FT CLR 21/11 A2988 RMK AO2 SLP115 T02110106=
201409211453 METAR KPAE 211453Z 00000KT 10SM CLR 16/12 A2988 RMK AO2 SLP115 T01560117 53002=
201409211353 METAR KPAE 211353Z 00000KT 10SM CLR 16/10 A2987 RMK AO2 SLP114 T01560100=
201409211253 METAR KPAE 211253Z AUTO 00000KT 10SM CLR 14/11 A2987 RMK AO2 SLP113 T01440111=
201409211153 METAR KPAE 211153Z AUTO 00000KT 10SM CLR 15/12 A2987 RMK AO2 SLP113 T01500117 10161 20133 56007=
201409211053 METAR KPAE 211053Z AUTO 00000KT 10SM CLR 14/12 A2987 RMK AO2 SLP114 T01390122=
201409210953 METAR KPAE 210953Z AUTO 02003KT 10SM CLR 14/12 A2988 RMK AO2 SLP117 T01440122=
201409210853 METAR KPAE 210853Z AUTO 34003KT 10SM CLR 15/12 A2989 RMK AO2 SLP121 T01500122 56007=
201409210753 METAR KPAE 210753Z AUTO 03005KT 10SM CLR 15/12 A2990 RMK AO2 SLP123 T01500122 402110133=
201409210653 METAR KPAE 210653Z AUTO 36003KT 10SM CLR 16/12 A2991 RMK AO2 SLP126 T01560122=
201409210553 METAR KPAE 210553Z AUTO 02004KT 10SM CLR 16/12 A2991 RMK AO2 SLP128 T01610122 10206 20161 58008=
201409210453 METAR KPAE 210453Z AUTO 01004KT 10SM CLR 17/13 A2992 RMK AO2 SLP131 T01670128=
201409210353 METAR KPAE 210353Z AUTO 36003KT 10SM CLR 16/13 A2993 RMK AO2 SLP135 T01610128=
201409210253 METAR KPAE 210253Z 34003KT 10SM CLR 17/13 A2994 RMK AO2 SLP137 T01670133 55013=
201409210153 METAR KPAE 210153Z 35004KT 10SM CLR 18/13 A2994 RMK AO2 SLP137 T01830133=
201409210053 METAR KPAE 210053Z VRB04KT 10SM CLR 20/13 A2996 RMK AO2 SLP143 T02000133=
201409202353 METAR KPAE 202353Z 34006KT 10SM CLR 21/13 A2998 RMK AO2 SLP150 T02060133 10211 20133 56022=
201409202253 METAR KPAE 202253Z 36008KT 10SM CLR 21/13 A2999 RMK AO2 SLP155 T02060128=
201409202200 METAR KPAE NIL=
201409202053 METAR KPAE 202053Z 33007KT 10SM CLR 19/13 A3004 RMK AO2 SLP172 T01890133 58025=
201409201953 METAR KPAE 201953Z 01007KT 10SM CLR 18/13 A3007 RMK AO2 SLP182 T01830133=
201409201853 METAR KPAE 201853Z VRB06KT 10SM FEW005 15/13 A3010 RMK AO2 SLP192 T01500128=
201409201841 SPECI KPAE 201841Z 34006KT 10SM SCT003 14/13 A3010 RMK AO2 T01440128=
201409201813 SPECI KPAE 201813Z 35005KT 6SM BR OVC002 14/13 A3011 RMK AO2 T01390128=
201409201800 SPECI KPAE 201800Z 34006KT 2SM BR OVC001 14/13 A3012 RMK AO2 T01390128=
201409201753 METAR KPAE 201753Z VRB05KT 1SM R16R/P6000FT BR OVC001 14/13 A3012 RMK AO2 SLP198 T01390128 10139 20133 58002=
201409201700 SPECI KPAE 201700Z 01006KT 3/4SM R16R/2400V4500FT BR VV001 13/13 A3012 RMK AO2 T01330128=
201409201653 METAR KPAE 201653Z VRB04KT 1/4SM R16R/1600V4000FT FG VV001 13/13 A3012 RMK AO2 SLP200 T01330128=
201409201553 METAR KPAE 201553Z 36006KT M1/4SM R16R/0800V1200FT FG VV001 13/13 A3013 RMK AO2 SLP200 T01330128=
201409201453 METAR KPAE 201453Z 35006KT M1/4SM R16R/0600FT FG VV001 13/13 A3013 RMK AO2 SLP200 T01330128 53003=
201409201353 METAR KPAE 201353Z VRB05KT M1/4SM R16R/0600V0800FT FG VV001 13/13 A3013=
201409201253 METAR KPAE 201253Z AUTO 35007KT 1/4SM R16R/1000V1200FT FG VV001 13/13 A3012 RMK AO2 SLP197 T01330128=
201409201209 SPECI KPAE 201209Z AUTO 36006KT 1/4SM R16R/1000V1200FT FG VV001 14/13 A3012 RMK AO2 T01390133=
201409201201 SPECI KPAE 201201Z AUTO 35005KT 1/2SM R16R/1200V2000FT FG VV001 14/13 A3012 RMK AO2 T01390133=
201409201153 METAR KPAE 201153Z AUTO 36005KT 1 3/4SM R16R/2000V4500FT BR OVC001 14/13 A3012 RMK AO2 SLP196 T01390133 10161 20139 50000=
201409201139 SPECI KPAE 201139Z AUTO 36006KT 3SM R16R/5000VP6000FT BR OVC001 14/13 A3012 RMK AO2 T01390133=
201409201053 METAR KPAE 201053Z AUTO 36005KT 8SM BKN002 14/13 A3012 RMK AO2 SLP197 T01390133=
201409201048 SPECI KPAE 201048Z AUTO 01005KT 8SM BKN002 14/13 A3012 RMK AO2=
201409201040 SPECI KPAE 201040Z AUTO 01004KT 10SM SCT003 14/13 A3012 RMK AO2 T01390128=
201409200953 METAR KPAE 200953Z AUTO 02004KT 10SM CLR 14/12 A3012 RMK AO2 SLP196 T01440122=
201409200853 METAR KPAE 200853Z AUTO 36004KT 10SM CLR 14/12 A3013 RMK AO2 SLP200 T01440122 50000=
201409200753 METAR KPAE 200753Z AUTO VRB04KT 10SM CLR 15/13 A3013 RMK AO2 SLP201 T01500133 402220150=
201409200653 METAR KPAE 200653Z AUTO 01006KT 10SM CLR 16/13 A3013 RMK AO2 SLP201 T01560128=
201409200553 METAR KPAE 200553Z AUTO 36009KT 10SM OVC042 16/13 A3013 RMK AO2 SLP201 T01610133 10217 20161 51007=
201409200453 METAR KPAE 200453Z AUTO 36006KT 10SM OVC042 17/14 A3012 RMK AO2 SLP199 T01720139=
201409200353 METAR KPAE 200353Z AUTO 34005KT 10SM OVC042 18/14 A3012 RMK AO2 SLP197 T01780144=
201409200253 METAR KPAE 200253Z 35006KT 10SM OVC038 18/14 A3011 RMK AO2 SLP194 T01830139 53004=
201409200153 METAR KPAE 200153Z 33007KT 10SM OVC038 19/13 A3010 RMK AO2 SLP191 T01890133=
201409200053 METAR KPAE 200053Z VRB03KT 10SM CLR 21/12 A3010 RMK AO2 SLP189 T02110122=
201409192353 METAR KPAE 192353Z 32006KT 10SM CLR 22/13 A3009 RMK AO2 SLP188 T02170128 10222 20183 56008=
201409192253 METAR KPAE 192253Z 31005KT 10SM CLR 22/12 A3009 RMK AO2 SLP189 T02170122=
201409192153 METAR KPAE 192153Z 30004KT 10SM SCT075 22/13 A3011 RMK AO2 SLP192 T02220128=
201409192053 METAR KPAE 192053Z VRB04KT 10SM SCT027 OVC060 21/12 A3012 RMK AO2 SLP196 T02060122 50005=
201409191953 METAR KPAE 191953Z 18008KT 10SM SCT027 OVC060 20/13 A3012 RMK AO2 SLP198 T02000133=
201409191853 METAR KPAE 191853Z 17010KT 10SM SCT023 OVC060 19/13 A3011 RMK AO2 SLP196 T01890133=
201409191824 SPECI KPAE 191824Z 15009KT 10SM SCT024 OVC065 19/13 A3011 RMK AO2 T01890133=
201409191753 METAR KPAE 191753Z 17010KT 10SM BKN019 BKN032 OVC070 18/14 A3010 RMK AO2 SLP192 T01830139 10183 20150 51017=
201409191653 METAR KPAE 191653Z 18009KT 10SM SCT016 BKN022 OVC070 17/14 A3009 RMK AO2 SLP187 T01720139=
201409191600 SPECI KPAE 191600Z 17008KT 10SM BKN015 BKN021 OVC027 16/14 A3008 RMK AO2 T01560144=
201409191553 METAR KPAE 191553Z COR 18008KT 10SM BKN015 BKN021 OVC027 16/14 A3008 RMK AO2 SLP184 T01560144=
201409191453 METAR KPAE 191453Z 17008KT 10SM OVC012 16/14 A3005 RMK AO2 SLP176 T01560144 53014=
201409191353 METAR KPAE 191353Z 17007KT 10SM OVC012 15/14 A3004 RMK AO2 SLP169 T01500144=
201409191323 SPECI KPAE 191323Z 18008KT 10SM OVC010 16/14 A3004 RMK AO2 CIG 007V012 T01560144=
201409191253 METAR KPAE 191253Z 16005KT 10SM OVC009 16/14 A3002 RMK AO2 CIG 004V011 SLP166 T01560144=
201409191221 SPECI KPAE 191221Z 00000KT 3SM BR OVC005 15/14 A3002 RMK AO2 CIG 003V009 T01500144=
201409191153 METAR KPAE 191153Z 00000KT 2 1/2SM BR OVC009 15/14 A3001 RMK AO2 RAE02 CIG 003V012 SLP162 P0001 60005 70009 T01500139 10167 20150 50007=
201409191053 METAR KPAE 191053Z 00000KT 4SM -RA BR BKN005 BKN010 OVC015 15/14 A3001 RMK AO2 RAE40B48 SLP162 P0003 T01500144=
201409191046 SPECI KPAE 191046Z 00000KT 3SM BR BKN005 BKN010 OVC015 15/14 A3001 RMK AO2 RAE40 CIG 002V006 P0003 T01500144=
201409191033 SPECI KPAE 191033Z 33003KT 2SM -RA BR BKN005 BKN010 OVC014 15/14 A3001 RMK AO2 CIG 002V008 P0003 T01500144=
201409190953 METAR KPAE 190953Z AUTO 21007KT 1 3/4SM -RA BR OVC003 16/14 A3000 RMK AO2 RAB43 SLP159 P0001 T01560144=
201409190933 SPECI KPAE 190933Z AUTO 20006KT 2 1/2SM BR OVC003 16/14 A3000 RMK AO2 T01560144=
201409190853 METAR KPAE 190853Z AUTO 20007KT 3SM BR OVC003 16/14 A2999 RMK AO2 SLP155 T01560144 53007=
201409190840 SPECI KPAE 190840Z AUTO 20007KT 4SM BR BKN004 BKN009 OVC015 16/14 A2999 RMK AO2 CIG 002V006 T01560144=
201409190823 SPECI KPAE 190823Z AUTO 21007KT 4SM BR SCT005 BKN009 OVC014 16/14 A2999 RMK AO2 T01560144=
201409190753 METAR KPAE 190753Z AUTO 21006KT 4SM BR OVC004 16/14 A2998 RMK AO2 CIG 002V006 SLP152 T01560144 401670144=
201409190738 SPECI KPAE 190738Z AUTO 21005KT 5SM BR BKN004 OVC009 16/14 A2998 RMK AO2 CIG 003V006 T01560144=
201409190653 METAR KPAE 190653Z AUTO 22006KT 10SM OVC012 17/14 A2998 RMK AO2 SLP149 T01670139=
201409190553 METAR KPAE 190553Z AUTO 20006KT 10SM OVC014 16/14 A2997 RMK AO2 SLP147 60000 T01560139 10161 20156 51022=
201409190531 SPECI KPAE 190531Z AUTO 20007KT 10SM OVC014 16/14 A2996 RMK AO2 T01560139=
201409190453 METAR KPAE 190453Z AUTO 21006KT 10SM OVC015 16/14 A2995 RMK AO2 SLP140 T01560139=
201409190412 SPECI KPAE 190412Z AUTO 19008KT 10SM BKN017 OVC070 16/14 A2993 RMK AO2 T01560139=
201409190353 METAR KPAE 190353Z AUTO 19010KT 10SM FEW033 OVC065 16/14 A2993 RMK AO2 SLP132 T01560139=
201409190322 SPECI KPAE 190322Z AUTO 20006KT 10SM SCT023 OVC031 16/14 A2991 RMK AO2 T01560139=
201409190253 METAR KPAE 190253Z 18005KT 10SM OVC022 16/14 A2990 RMK AO2 RAB00E08 SLP125 P0000 60000 T01610139 51008=
201409190153 METAR KPAE 190153Z VRB03KT 10SM OVC022 16/14 A2989 RMK AO2 SLP121 T01610144=
201409190053 METAR KPAE 190053Z 00000KT 10SM OVC019 16/14 A2989 RMK AO2 SLP121 T01560139=
201409182353 METAR KPAE 182353Z 17005KT 10SM OVC017 16/14 A2988 RMK AO2 SLP116 T01560139 10161 20150 53003=
201409182300 SPECI KPAE 182300Z 18009KT 10SM OVC015 16/14 A2988 RMK AO2 T01560144=
201409182253 METAR KPAE 182253Z AUTO 21006KT 10SM OVC013 16/14 A2987 RMK AO2 SLP114 T01560144 TSNO=
201409182153 METAR KPAE 182153Z 23004KT 10SM OVC013 16/14 A2986 RMK AO2 SLP112 T01560144=
201409182113 SPECI KPAE 182113Z 24008KT 10SM OVC013 16/14 A2987 RMK AO2 T01560144=
201409182104 SPECI KPAE 182104Z 25006KT 10SM OVC015 16/14 A2987 RMK AO2 T01560144=
201409182053 METAR KPAE 182053Z 27005KT 10SM OVC013 16/14 A2987 RMK AO2 SLP113 T01560144 53012=
201409181953 METAR KPAE 181953Z 16006KT 10SM BKN011 OVC022 16/14 A2985 RMK AO2 SLP107 T01560139=
201409181853 METAR KPAE 181853Z 19006KT 5SM BR SCT002 OVC017 15/14 A2985 RMK AO2 SLP107 T01500144=
201409181842 SPECI KPAE 181842Z 19007KT 6SM BR BKN002 OVC017 15/14 A2985 RMK AO2 T01500144=
201409181835 SPECI KPAE 181835Z 19007KT 3SM BR SCT002 SCT007 OVC017 15/14 A2985 RMK AO2 T01500144=
201409181753 METAR KPAE 181753Z 20006KT 1/4SM R16R/2400V3500FT FG OVC001 15/14 A2984 RMK AO2 SLP101 60004 T01500144 10156 20144 51019=
201409181722 SPECI KPAE 181722Z 25005KT 1/2SM R16R/4500VP6000FT FG OVC001 15/14 A2983 RMK AO2 T01500139=
201409181712 SPECI KPAE 181712Z 26004KT 3SM R16R/4500VP6000FT BR OVC001 15/14 A2982 RMK AO2 T01500139=
201409181708 SPECI KPAE 181708Z 25004KT 1 3/4SM R16R/2800VP6000FT BR OVC001 15/14 A2982 RMK AO2 T01500144=
201409181653 METAR KPAE 181653Z 25005KT 1SM R16R/1400V4000FT BR OVC003 15/14 A2982 RMK AO2 RAE21 SLP095 P0001 T01500144=
201409181604 SPECI KPAE 181604Z 23003KT 1SM R16R/P6000FT -RA BR OVC003 14/14 A2980 RMK AO2 P0001 T01440144=
201409181553 METAR KPAE 181553Z 24003KT 1/4SM R16R/1800V6000FT -RA FG VV001 14/14 A2980 RMK AO2 RAE18B31 SLP090 P0002 T01440139=
201409181525 SPECI KPAE 181525Z 27005KT 1/4SM R16R/0800V1600FT FG VV001 14/14 A2979 RMK AO2 RAE18 P0000 T01440139=
201409181509 SPECI KPAE 181509Z VRB05KT 1/4SM R16R/1000VP6000FT -RA FG OVC004 15/14 A2978 RMK AO2 P0000 T01500144=
201409181502 SPECI KPAE 181502Z 30006KT 3/4SM R16R/1000VP6000FT -RA BR BKN004 OVC008 15/14 A2978 RMK AO2 P0000 T01500144=
201409181453 METAR KPAE 181453Z 19006KT 2SM -RA BR BKN004 OVC013 16/14 A2978 RMK AO2 RAB53 SLP082 P0000 60001 T01560144 53011=
201409181434 SPECI KPAE 181434Z 16005KT 2SM BR BKN004 BKN037 OVC044 16/14 A2977 RMK AO2 T01560144=
201409181408 SPECI KPAE 181408Z 16005KT 2SM BR BKN006 BKN039 OVC060 16/14 A2976 RMK AO2 T01560144=
201409181353 METAR KPAE 181353Z 16005KT 5SM BR FEW006 BKN041 OVC060 15/14 A2976 RMK AO2 SLP075 P0001 T01500144=
201409181350 SPECI KPAE 181350Z AUTO 17005KT 5SM BR FEW006 BKN033 OVC060 15/14 A2976 RMK AO2 P0001=
201409181342 SPECI KPAE 181342Z AUTO 00000KT 5SM BR SCT006 BKN026 OVC041 15/14 A2976 RMK AO2 P0001 T01500144=
201409181334 SPECI KPAE 181334Z AUTO 22003KT 7SM FEW006 BKN033 OVC041 15/14 A2976 RMK AO2 P0001 T01500144=
201409181318 SPECI KPAE 181318Z AUTO 21003KT 5SM BR BKN028 BKN032 OVC043 16/14 A2976 RMK AO2 P0001 T01560144=
201409181253 METAR KPAE 181253Z AUTO 16004KT 8SM OVC043 16/14 A2975=
201409181153 METAR KPAE 181153Z AUTO 23003KT 5SM -RA BR OVC060 16/14 A2974 RMK AO2 RAE1055B42 SLP069 P0000 60008 70022 T01560144 10156 20150 55005=
201409181053 METAR KPAE 181053Z AUTO 00000KT 6SM -RA BR OVC060 16/14 A2973 RMK AO2 SLP067 P0000 T01560144=
201409180953 METAR KPAE 180953Z AUTO 15003KT 8SM -RA FEW070 OVC110 15/14 A2974 RMK AO2 SLP070 P0002 T01500144=
201409180853 METAR KPAE 180853Z AUTO 17003KT 6SM -RA BR SCT055 OVC090 15/14 A2976 RMK AO2 SLP074 P0003 60006 T01500144 56006=
201409180753 METAR KPAE 180753Z AUTO 20006KT 5SM -RA BR OVC090 16/14 A2977 RMK AO2 SLP079 P0002 T01560144 401890139=
201409180653 METAR KPAE 180653Z AUTO 06006KT 9SM -RA OVC095 15/14 A2975 RMK AO2 RAE05B23 SLP071 P0001 T01500139=
201409180553 METAR KPAE 180553Z AUTO 03003KT 9SM -RA OVC100 15/14 A2978 RMK AO2 SLP081 P0002 60014 T01500139 10167 20150 50008=
201409180453 METAR KPAE 180453Z AUTO 00000KT 9SM -RA BKN065 OVC090 16/14 A2979 RMK AO2 SLP085 P0004 T01560139=
201409180353 METAR KPAE 180353Z AUTO 00000KT 7SM -RA BKN070 OVC095 15/14 A2979 RMK AO2 RAB09 SLP085 P0008 T01500144=
201409180253 METAR KPAE 180253Z 00000KT 10SM BKN085 BKN110 16/13 A2975 RMK AO2 SLP073 T01560128 53010=
201409180153 METAR KPAE 180153Z 34004KT 10SM OVC085 16/13 A2973 RMK AO2 SLP066 T01610128=
201409180053 METAR KPAE 180053Z 33003KT 10SM CLR 16/13 A2973 RMK AO2 SLP065 T01610128=
201409172353 METAR KPAE 172353Z 34008KT 10SM SCT120 16/13 A2972 RMK AO2 SLP062 60000 T01610133 10189 20156 56017=
201409172253 METAR KPAE 172253Z AUTO VRB04KT 10SM CLR 17/13 A2974 RMK AO2 SLP071 T01670133 TSNO=
201409172153 METAR KPAE 172153Z 01007KT 10SM FEW070 SCT120 17/13 A2974 RMK AO2 SLP069 T01670133=
201409172053 METAR KPAE 172053Z 34004KT 10SM FEW120 18/13 A2977 RMK AO2 SLP079 60000 T01780128 58009=
201409171953 METAR KPAE 171953Z 35006KT 10SM SCT110 17/13 A2977 RMK AO2 SLP080 T01720128=
201409171853 METAR KPAE 171853Z 35005KT 10SM FEW110 16/13 A2979 RMK AO2 RAE23 SLP087 P0000 T01560128=
201409171753 METAR KPAE 171753Z 00000KT 10SM -RA OVC100 16/13 A2980 RMK AO2 RAB1659E32B51 SLP088 P0000 60000 T01560133 10156 20139 55001=
201409171653 METAR KPAE 171653Z 34003KT 10SM BKN110 16/13 A2979 RMK AO2 SLP086 T01560128=
201409171553 METAR KPAE 171553Z 00000KT 10SM CLR 16/13 A2978 RMK AO2 SLP084 T01560128=
201409171453 METAR KPAE 171453Z 00000KT 10SM CLR 14/12 A2980 RMK AO2 SLP089 60000 T01440122 55004=
201409171353 METAR KPAE 171353Z 03005KT 10SM CLR 14/12 A2980 RMK AO2 SLP088 T01390122=
201409171253 METAR KPAE 171253Z AUTO 00000KT 10SM FEW110 14/12 A2981 RMK AO2 RAE05 SLP091 P0000 T01390122=
201409171153 METAR KPAE 171153Z AUTO 01004KT 10SM -RA FEW080 BKN110 14/12 A2981 RMK AO2 RAB53 SLP092 P0000 60000 T01440117 10167 20144 58016=
201409171053 METAR KPAE 171053Z AUTO 00000KT 10SM CLR 15/12 A2983 RMK AO2 SLP097 T01500122=
201409170953 METAR KPAE 170953Z AUTO 00000KT 10SM CLR 14/12 A2985 RMK AO2 SLP105 T01440122=
201409170853 METAR KPAE 170853Z AUTO 01003KT 10SM CLR 16/12 A2986 RMK AO2 SLP108 T01560122 58010=
201409170753 METAR KPAE 170753Z AUTO 00000KT 10SM CLR 16/12 A2988 RMK AO2 SLP117 T01560117 402170128=
201409170653 METAR KPAE 170653Z AUTO VRB03KT 10SM CLR 16/12 A2989 RMK AO2 SLP120 T01560122=
201409170553 METAR KPAE 170553Z AUTO 03004KT 10SM CLR 16/12 A2989 RMK AO2 SLP119 T01560122 10217 20156 53001=
201409170453 METAR KPAE 170453Z AUTO 01004KT 10SM CLR 16/13 A2989 RMK AO2 SLP119 T01610128=
201409170353 METAR KPAE 170353Z 21004KT 10SM CLR 19/12 A2988 RMK AO2 SLP117 T01890122=
201409170253 METAR KPAE 170253Z 21004KT 10SM CLR 19/12 A2988 RMK AO2 SLP118 T01940122 55001=
201409170153 METAR KPAE 170153Z 21007KT 10SM CLR 21/12 A2988 RMK AO2 SLP117 T02060117=
201409170053 METAR KPAE 170053Z 20009KT 10SM CLR 21/12 A2988 RMK AO2 SLP117 T02110117=
201409162353 METAR KPAE 162353Z 25006KT 10SM CLR 21/13 A2989 RMK AO2 SLP118 T02110128 10217 20172 55005=
201409162253 METAR KPAE 162253Z 26008KT 10SM CLR 21/13 A2988 RMK AO2 SLP117 T02110128 TSNO=
201409162153 METAR KPAE 162153Z 24008KT 10SM CLR 21/13 A2989 RMK AO2 SLP119 T02060128=
201409162053 METAR KPAE 162053Z 28005KT 10SM CLR 21/13 A2990 RMK AO2 SLP123 T02060133 58003=
201409161953 METAR KPAE 161953Z 15006KT 10SM CLR 19/13 A2991 RMK AO2 SLP125 T01940128=
201409161853 METAR KPAE 161853Z 19005KT 10SM CLR 19/13 A2991 RMK AO2 SLP127 T01890128=
201409161753 METAR KPAE 161753Z 19007KT 10SM SCT010 17/13 A2991 RMK AO2 SLP125 T01720128 10172 20133 51006=
201409161730 SPECI KPAE 161730Z 19009KT 10SM SCT010 17/13 A2990 RMK AO2 T01670128=
201409161653 METAR KPAE 161653Z 21009KT 10SM BKN010 16/12 A2991 RMK AO2 SLP126 T01560122=
201409161647 SPECI KPAE 161647Z 19011KT 10SM BKN019 16/12 A2991 RMK AO2=
201409161553 METAR KPAE 161553Z 19008KT 10SM CLR 15/12 A2989 RMK AO2 SLP120 T01500122=
201409161453 METAR KPAE 161453Z 19007KT 10SM CLR 15/12 A2989 RMK AO2 SLP119 T01500122 55000=
201409161353 METAR KPAE 161353Z 18006KT 10SM CLR 13/11 A2988 RMK AO2 SLP117 T01330111=
201409161253 METAR KPAE 161253Z AUTO 11003KT 10SM CLR 15/11 A2988 RMK AO2 SLP115 T01500106=
201409161153 METAR KPAE 161153Z AUTO 19009KT 10SM CLR 14/10 A2989 RMK AO2 SLP119 T01390100 10194 20128 53015=
201409161053 METAR KPAE 161053Z AUTO 21005KT 10SM CLR 15/10 A2986=
201409160953 METAR KPAE 160953Z AUTO 00000KT 10SM CLR 16/10 A2985 RMK AO2 SLP104 T01610100=
201409160853 METAR KPAE 160853Z AUTO 00000KT 10SM CLR 17/10 A2985 RMK AO2 SLP103 T01720100 53003=
201409160753 METAR KPAE 160753Z AUTO 02003KT 10SM CLR 18/10 A2984 RMK AO2 SLP101 T01780100 402780139=
201409160653 METAR KPAE 160653Z AUTO 05003KT 10SM CLR 19/09 A2984 RMK AO2 SLP101 T01940094=
201409160553 METAR KPAE 160553Z AUTO 02003KT 10SM CLR 18/09 A2984 RMK AO2 SLP100 T01780089 10261 20178 51006=
201409160453 METAR KPAE 160453Z AUTO 00000KT 10SM CLR 18/08 A2983 RMK AO2 SLP099 T01830083=
201409160353 METAR KPAE 160353Z AUTO 36003KT 10SM CLR 21/08 A2983 RMK AO2 SLP096 T02060083=
201409160253 METAR KPAE 160253Z 00000KT 10SM CLR 21/08 A2982 RMK AO2 SLP094 T02110078 55001=
201409160153 METAR KPAE 160153Z 35003KT 10SM CLR 24/07 A2981 RMK AO2 SLP092 T02390067=
201409160053 METAR KPAE 160053Z 35004KT 10SM CLR 26/06 A2982 RMK AO2 SLP093 T02610061=
201409152353 METAR KPAE 152353Z 36004KT 10SM CLR 26/07 A2982 RMK AO2 SLP094 T02610067 10278 20239 57012=
201409152253 METAR KPAE 152253Z 36006KT 10SM CLR 27/06 A2983 RMK AO2 SLP098 T02670056=
201409152153 METAR KPAE 152153Z 35004KT 10SM CLR 27/05 A2984 RMK AO2 SLP103 T02670050=
201409152053 METAR KPAE 152053Z 35005KT 10SM CLR 26/03 A2986 RMK AO2 SLP107 T02610033 58010=
201409151953 METAR KPAE 151953Z VRB05KT 10SM CLR 26/06 A2987 RMK AO2 SLP112 T02560056=
201409151853 METAR KPAE 151853Z 02005KT 10SM CLR 25/04 A2988 RMK AO2 SLP114 T02500044=
201409151753 METAR KPAE 151753Z VRB04KT 10SM CLR 24/08 A2989 RMK AO2 SLP117 T02440078 10244 20139 58002=
201409151653 METAR KPAE 151653Z 04003KT 10SM CLR 22/08 A2989 RMK AO2 SLP119 T02170083=
201409151553 METAR KPAE 151553Z 12005KT 10SM CLR 20/04 A2989 RMK AO2 SLP120 T02000044=
201409151453 METAR KPAE 151453Z 00000KT 10SM CLR 17/06 A2989 RMK AO2 SLP120 T01670061 50003=
201409151353 METAR KPAE 151353Z 00000KT 10SM CLR 14/06 A2990 RMK AO2 SLP121 T01440061=
201409151253 METAR KPAE 151253Z AUTO 00000KT 10SM CLR 18/03 A2989 RMK AO2 SLP117 T01780033=
201409151153 METAR KPAE 151153Z AUTO 10003KT 10SM CLR 16/06 A2988 RMK AO2 SLP116 T01610056 10172 20144 56002=
201409151053 METAR KPAE 151053Z AUTO 12004KT 10SM CLR 17/07 A2988 RMK AO2 SLP116 T01720067=
201409150953 METAR KPAE 150953Z AUTO 10003KT 10SM CLR 17/08 A2988 RMK AO2 SLP116 T01670078=
201409150853 METAR KPAE 150853Z AUTO 00000KT 10SM CLR 14/08 A2989 RMK AO2 SLP118 T01440078 51006=
201409150753 METAR KPAE 150753Z AUTO 00000KT 10SM CLR 16/08 A2989 RMK AO2 SLP117 T01560078 402610106=
201409150653 METAR KPAE 150653Z AUTO 00000KT 10SM CLR 16/08 A2988 RMK AO2 SLP116 T01610078=
201409150553 METAR KPAE 150553Z AUTO 34003KT 10SM CLR 17/08 A2987 RMK AO2 SLP113 T01720078 10256 20172 50003=
201409150453 METAR KPAE 150453Z AUTO 02003KT 10SM CLR 18/08 A2987 RMK AO2 SLP113 T01780083=
201409150353 METAR KPAE 150353Z AUTO 01003KT 10SM CLR 18/08 A2987 RMK AO2 SLP114 T01830078=
201409150253 METAR KPAE 150253Z 36003KT 10SM CLR 19/07 A2986 RMK AO2 SLP111 T01890067 56006=
201409150153 METAR KPAE 150153Z 35003KT 10SM CLR 23/06 A2986 RMK AO2 SLP111 T02280061=
201409150053 METAR KPAE 150053Z 36005KT 10SM CLR 25/04 A2988 RMK AO2 SLP114 T02500044=
201409142353 METAR KPAE 142353Z 36005KT 10SM CLR 26/05 A2988 RMK AO2 SLP117 T02560050 10261 20200 56012=
201409142253 METAR KPAE 142253Z 36006KT 10SM CLR 25/05 A2989 RMK AO2 SLP121 T02500050=
201409142153 METAR KPAE 142153Z 36007KT 10SM CLR 25/07 A2990 RMK AO2 SLP123 T02500072=
201409142053 METAR KPAE 142053Z VRB04KT 10SM CLR 25/05 A2992 RMK AO2 SLP128 T02500050 58005=
201409141953 METAR KPAE 141953Z VRB06KT 10SM CLR 24/04 A2992 RMK AO2 SLP130 T02390044=
201409141853 METAR KPAE 141853Z VRB03KT 10SM CLR 22/05 A2993 RMK AO2 SLP134 T02220050=
201409141753 METAR KPAE 141753Z VRB03KT 10SM CLR 20/06 A2993 RMK AO2 SLP134 T02000061 10200 20106 50003=
201409141653 METAR KPAE 141653Z 01003KT 10SM CLR 19/08 A2994 RMK AO2 SLP135 T01890078=
201409141553 METAR KPAE 141553Z 00000KT 10SM CLR 16/08 A2993 RMK AO2 SLP134 T01560078=
201409141453 METAR KPAE 141453Z 00000KT 10SM CLR 14/08 A2993 RMK AO2 SLP132 T01390078 51007=
201409141353 METAR KPAE 141353Z 04003KT 10SM CLR 11/07 A2992 RMK AO2 SLP130 T01110072=
201409141253 METAR KPAE 141253Z AUTO 00000KT 10SM CLR 13/08 A2991 RMK AO2 SLP126 T01280083=
201409141153 METAR KPAE 141153Z AUTO 00000KT 10SM CLR 12/08 A2990 RMK AO2 SLP124 T01220078 10167 20122 53002=
201409141053 METAR KPAE 141053Z AUTO 03003KT 10SM CLR 14/07 A2990 RMK AO2 SLP123 T01390072=
201409140953 METAR KPAE 140953Z AUTO 06003KT 10SM CLR 14/07 A2989 RMK AO2 SLP121 T01440072=
201409140853 METAR KPAE 140853Z AUTO 00000KT 10SM CLR 15/07 A2990 RMK AO2 SLP122 T01500067 53004=
201409140753 METAR KPAE 140753Z AUTO 05004KT 10SM CLR 16/07 A2989 RMK AO2 SLP120 T01610067 402440106=
201409140653 METAR KPAE 140653Z AUTO 02004KT 10SM CLR 16/07 A2989 RMK AO2 SLP118 T01560067=
201409140553 METAR KPAE 140553Z AUTO 00000KT 10SM CLR 17/07 A2989 RMK AO2 SLP118 T01670072 10239 20167 51004=
201409140453 METAR KPAE 140453Z AUTO VRB04KT 10SM CLR 17/07 A2988 RMK AO2 SLP118 T01670072=
201409140353 METAR KPAE 140353Z AUTO 35005KT 10SM CLR 18/07 A2988 RMK AO2 SLP116 T01780072=
201409140253 METAR KPAE 140253Z 35003KT 10SM CLR 19/08 A2987 RMK AO2 SLP115 T01890078 56008=
201409140153 METAR KPAE 140153Z 34004KT 10SM CLR 22/06 A2988 RMK AO2 SLP117 T02170061=
201409140053 METAR KPAE 140053Z 35006KT 10SM CLR 23/05 A2989 RMK AO2 SLP119 T02330050=
201409132353 METAR KPAE 132353Z 36005KT 10SM CLR 24/06 A2990 RMK AO2 SLP122 T02390056 10244 20183 56015=
201409132253 METAR KPAE 132253Z 36008KT 10SM CLR 24/04 A2991 RMK AO2 SLP127 T02390039=
201409132153 METAR KPAE 132153Z 36006KT 10SM CLR 24/04 A2993 RMK AO2 SLP131 T02390044=
201409132053 METAR KPAE 132053Z 02005KT 10SM CLR 24/03 A2994 RMK AO2 SLP137 T02390028 58015=
201409131953 METAR KPAE 131953Z VRB03KT 10SM CLR 22/04 A2996 RMK AO2 SLP143 T02220039=
201409131853 METAR KPAE 131853Z 35004KT 10SM CLR 21/04 A2998 RMK AO2 SLP150 T02060039=
201409131753 METAR KPAE 131753Z 02004KT 10SM CLR 18/03 A2999 RMK AO2 SLP154 T01830033 10183 20106 50000=
201409131653 METAR KPAE 131653Z 03003KT 10SM CLR 16/06 A2999 RMK AO2 SLP155 T01610061=
201409131553 METAR KPAE 131553Z 02005KT 10SM CLR 14/07 A2999 RMK AO2 SLP155 T01390072=
201409131453 METAR KPAE 131453Z 02003KT 10SM CLR 13/06 A2999 RMK AO2 SLP153 T01280061 51003=
201409131353 METAR KPAE 131353Z 36003KT 10SM CLR 11/05 A2999 RMK AO2 SLP153 T01110050=
201409131253 METAR KPAE 131253Z AUTO 35003KT 10SM CLR 12/05 A2998 RMK AO2 SLP152 T01170050=
201409131153 METAR KPAE 131153Z AUTO 03004KT 10SM CLR 11/06 A2998 RMK AO2 SLP151 T01110056 10156 20106 56006=
201409131053 METAR KPAE 131053Z AUTO 00000KT 10SM CLR 12/06 A2998 RMK AO2 SLP152 T01170061=
201409130953 METAR KPAE 130953Z AUTO 00000KT 10SM CLR 12/07 A2999 RMK AO2 SLP154 T01170072=
201409130853 METAR KPAE 130853Z AUTO 00000KT 10SM CLR 13/07 A3000 RMK AO2 SLP157 T01330067 50004=
201409130753 METAR KPAE 130753Z AUTO 00000KT 10SM CLR 13/07 A3000 RMK AO2 SLP159 T01330067 402110089=
201409130653 METAR KPAE 130653Z AUTO 01003KT 10SM CLR 14/07 A3000 RMK AO2 SLP157 T01390072=
201409130553 METAR KPAE 130553Z AUTO 02004KT 10SM CLR 16/06 A2999 RMK AO2 SLP153 T01560056 10206 20139 53001=
201409130453 METAR KPAE 130453Z AUTO 36003KT 10SM CLR 15/06 A2999 RMK AO2 SLP153 T01500056=
201409130353 METAR KPAE 130353Z AUTO 02003KT 10SM CLR 16/05 A2998 RMK AO2 SLP153 T01610050=
201409130253 METAR KPAE 130253Z 35003KT 10SM CLR 17/05 A2999 RMK AO2 SLP153 T01670050 57004=
201409130153 METAR KPAE 130153Z 35005KT 10SM CLR 18/04 A2999 RMK AO2 SLP155 T01830044=
201409130053 METAR KPAE 130053Z 35008KT 10SM CLR 20/04 A2999 RMK AO2 SLP155 T02000044=
201409122353 METAR KPAE 122353Z 35007KT 10SM CLR 21/05 A3000 RMK AO2 SLP157 T02060050 10211 20161 56015=
201409122253 METAR KPAE 122253Z 36006KT 10SM CLR 21/04 A3000 RMK AO2 SLP159 T02110044=
201409122153 METAR KPAE 122153Z 35007G14KT 10SM CLR 20/05 A3002=
201409122053 METAR KPAE 122053Z 01005KT 10SM CLR 21/04 A3004 RMK AO2 SLP171 T02060044 56014=
201409121953 METAR KPAE 121953Z 34008KT 10SM CLR 19/04 A3005 RMK AO2 SLP175 T01940044=
201409121853 METAR KPAE 121853Z 01004KT 10SM CLR 18/03 A3007 RMK AO2 SLP181 T01830028=
201409121753 METAR KPAE 121753Z 35006KT 10SM CLR 17/02 A3008 RMK AO2 SLP186 T01670017 10172 20089 58001=
201409121653 METAR KPAE 121653Z 35005KT 10SM CLR 14/04 A3009 RMK AO2 SLP188 T01440044=
201409121553 METAR KPAE 121553Z 02006KT 10SM CLR 13/05 A3009 RMK AO2 SLP188 T01280050=
201409121453 METAR KPAE 121453Z 02006KT 10SM CLR 11/03 A3009 RMK AO2 SLP189 T01110028 56007=
201409121353 METAR KPAE 121353Z 02003KT 10SM CLR 09/05 A3010 RMK AO2 SLP191 T00890050=
201409121253 METAR KPAE 121253Z AUTO 04004KT 10SM CLR 11/04 A3010 RMK AO2 SLP192 T01110044=
201409121153 METAR KPAE 121153Z AUTO 00000KT 10SM CLR 11/06 A3011 RMK AO2 SLP195 T01060061 10139 20100 58008=
201409121053 METAR KPAE 121053Z AUTO 03003KT 10SM CLR 11/07 A3012 RMK AO2 SLP198 T01060067=
201409120953 METAR KPAE 120953Z AUTO 00000KT 10SM CLR 12/04 A3013 RMK AO2 SLP202 T01170044=
201409120853 METAR KPAE 120853Z AUTO 04003KT 10SM CLR 13/05 A3013 RMK AO2 SLP203 T01280050 58011=
201409120753 METAR KPAE 120753Z AUTO 04003KT 10SM CLR 13/06 A3015 RMK AO2 SLP207 T01330056 402220111=
201409120653 METAR KPAE 120653Z AUTO 04003KT 10SM CLR 14/06 A3015 RMK AO2 SLP210 T01390056=
201409120553 METAR KPAE 120553Z AUTO 03006KT 10SM CLR 14/06 A3017 RMK AO2 SLP214 T01390056 10217 20139 58003=
201409120453 METAR KPAE 120453Z AUTO 03006KT 10SM CLR 15/04 A3017 RMK AO2 SLP215 T01500039=
201409120353 METAR KPAE 120353Z AUTO 02004KT 10SM CLR 16/03 A3018 RMK AO2 SLP218 T01610028=
201409120253 METAR KPAE 120253Z AUTO 36004KT 10SM CLR 17/03 A3018 RMK AO2 SLP217 T01670028 56014=
201409120153 METAR KPAE 120153Z 35006KT 10SM CLR 19/02 A3019 RMK AO2 SLP221 T01890017=
201409120053 METAR KPAE 120053Z VRB05KT 10SM CLR 20/01 A3020 RMK AO2 SLP225 T02000011=
201409112353 METAR KPAE 112353Z 35006KT 10SM CLR 22/01 A3022 RMK AO2 SLP230 T02170006 10222 20183 56021=
201409112253 METAR KPAE 112253Z 34007KT 10SM CLR 22/00 A3023 RMK AO2 SLP236 T02170000=
201409112153 METAR KPAE 112153Z 35006KT 10SM CLR 21/01 A3026 RMK AO2 SLP244 T02110006=
201409112053 METAR KPAE 112053Z 35006KT 10SM CLR 21/M01 A3028 RMK AO2 SLP252 T02061006 57015=
201409111953 METAR KPAE 111953Z 30006KT 10SM CLR 20/03 A3029 RMK AO2 SLP257 T02000028=
201409111853 METAR KPAE 111853Z 11006KT 10SM CLR 20/M02 A3031 RMK AO2 SLP261 T02001022=
201409111753 METAR KPAE 111753Z VRB03KT 10SM CLR 19/00 A3032 RMK AO2 SLP267 T01890000 10189 20133 51004=
201409111653 METAR KPAE 111653Z 10005KT 10SM CLR 17/M02 A3032 RMK AO2 SLP266 T01721017=
201409111553 METAR KPAE 111553Z 06004KT 10SM CLR 16/02 A3032 RMK AO2 SLP265 T01610017=
201409111453 METAR KPAE 111453Z 09005KT 10SM CLR 15/M01 A3031 RMK AO2 SLP263 T01501011 53008=
201409111353 METAR KPAE 111353Z AUTO 11006KT 10SM CLR 13/M01 A3029 RMK AO2 SLP256 T01331006=
201409111253 METAR KPAE 111253Z AUTO VRB04KT 10SM CLR 14/01 A3029 RMK AO2 SLP255 T01390006=
201409111153 METAR KPAE 111153Z AUTO 07006KT 10SM CLR 14/01 A3028 RMK AO2 SLP254 T01390006 10144 20111 53008=
201409111053 METAR KPAE 111053Z AUTO 05004KT 10SM CLR 13/04 A3027 RMK AO2 SLP250 T01280044=
201409110953 METAR KPAE 110953Z AUTO 03005KT 10SM CLR 12/06 A3027 RMK AO2 SLP248 T01220056=
201409110853 METAR KPAE 110853Z AUTO 03004KT 10SM CLR 13/05 A3026 RMK AO2 SLP246 T01280050 53009=
201409110753 METAR KPAE 110753Z AUTO 03004KT 10SM CLR 13/04 A3025 RMK AO2 SLP242 T01280044 402060117=
201409110653 METAR KPAE 110653Z AUTO 36003KT 10SM CLR 13/04 A3024 RMK AO2 SLP240 T01280044=
201409110553 METAR KPAE 110553Z AUTO 36004KT 10SM CLR 13/05 A3023 RMK AO2 SLP238 T01280050 10200 20128 53011=
201409110453 METAR KPAE 110453Z AUTO 36004KT 10SM CLR 14/02 A3022 RMK AO2 SLP235 T01390022=
201409110353 METAR KPAE 110353Z 34006KT 10SM CLR 15/01 A3021 RMK AO2 SLP229 T01500011=
201409110253 METAR KPAE 110253Z 33004KT 10SM CLR 16/01 A3020 RMK AO2 SLP227 T01560006 55001=
201409110153 METAR KPAE 110153Z 33004KT 10SM CLR 17/01 A3020 RMK AO2 SLP224 T01720006=
201409110053 METAR KPAE 110053Z 34006KT 10SM CLR 18/M01 A3020 RMK AO2 SLP227 T01831006=
201409102353 METAR KPAE 102353Z VRB06KT 10SM CLR 20/M01 A3021 RMK AO2 SLP227 T02001006 10206 20150 58008=
201409102253 METAR KPAE 102253Z 34005KT 10SM CLR 19/05 A3022 RMK AO2 SLP231 T01940050=
201409102153 METAR KPAE 102153Z 36005KT 10SM CLR 19/09 A3023 RMK AO2 SLP235 T01890094=
201409102053 METAR KPAE 102053Z 36007KT 10SM CLR 18/11 A3023 RMK AO2 SLP236 T01830111 58000=
201409101953 METAR KPAE 101953Z VRB05KT 10SM CLR 18/12 A3023 RMK AO2 SLP236 T01780117=
201409101853 METAR KPAE 101853Z 32005KT 10SM CLR 16/12 A3024 RMK AO2 SLP238 T01610117=
201409101753 METAR KPAE 101753Z 26004KT 10SM SCT013 16/11 A3023 RMK AO2 SLP236 T01560111 10156 20117 51008=
201409101653 METAR KPAE 101653Z 32004KT 10SM OVC013 13/11 A3023 RMK AO2 SLP236 T01330106=
201409101636 SPECI KPAE 101636Z 33003KT 10SM SCT004 OVC013 13/11 A3023 RMK AO2 T01280111=
201409101553 METAR KPAE 101553Z 34004KT 6SM BR BKN003 OVC015 12/11 A3022=
201409101501 SPECI KPAE 101501Z 01003KT 8SM BKN003 OVC012 12/11 A3021 RMK AO2 T01220111=
201409101453 METAR KPAE 101453Z 00000KT 5SM BR SCT003 OVC012 12/11 A3021 RMK AO2 SLP228 T01220111 53011=
201409101353 METAR KPAE 101353Z VRB04KT 8SM OVC003 12/11 A3020 RMK AO2 SLP225 T01220106=
201409101253 METAR KPAE 101253Z AUTO 00000KT 4SM BR OVC002 12/11 A3018 RMK AO2 SLP220 T01220111=
201409101153 METAR KPAE 101153Z AUTO 35003KT 6SM BR OVC002 12/11 A3018 RMK AO2 SLP217 T01220111 10144 20117 53006=
201409101144 SPECI KPAE 101144Z AUTO VRB03KT 6SM BR OVC001 12/11 A3017 RMK AO2 T01220111=
201409101053 METAR KPAE 101053Z AUTO VRB03KT 7SM OVC002 12/11 A3016 RMK AO2 SLP213 T01220111=
201409100953 METAR KPAE 100953Z AUTO 03005KT 9SM BKN002 OVC070 12/11 A3016 RMK AO2 SLP212 T01220111=
201409100950 SPECI KPAE 100950Z AUTO 03005KT 9SM SCT002 OVC070 12/11 A3016 RMK AO2=
201409100853 METAR KPAE 100853Z AUTO 03004KT 9SM CLR 12/11 A3015 RMK AO2 SLP209 T01220111 51006=
201409100753 METAR KPAE 100753Z AUTO 02004KT 10SM CLR 13/11 A3015 RMK AO2 SLP209 T01280111 402060122=
201409100653 METAR KPAE 100653Z AUTO 05004KT 10SM CLR 13/12 A3014 RMK AO2 SLP207 T01330117=
201409100553 METAR KPAE 100553Z AUTO 02003KT 10SM CLR 14/12 A3013 RMK AO2 SLP204 T01440117 10200 20139 51005=
201409100453 METAR KPAE 100453Z AUTO 12004KT 10SM CLR 17/11 A3013 RMK AO2 SLP201 T01670111=
201409100353 METAR KPAE 100353Z 12004KT 10SM CLR 17/11 A3012 RMK AO2 SLP200 T01720111=
201409100253 METAR KPAE 100253Z 11004KT 10SM CLR 18/12 A3012 RMK AO2 SLP198 T01780117 55003=
201409100153 METAR KPAE 100153Z 20003KT 10SM CLR 18/12 A3012 RMK AO2 SLP197 T01830117=
201409100053 METAR KPAE 100053Z 00000KT 10SM CLR 19/11 A3013 RMK AO2 SLP200 T01940111=
201409092353 METAR KPAE 092353Z 27004KT 10SM SCT030 19/11 A3013 RMK AO2 SLP201 T01940111 10206 20139 58006=
201409092253 METAR KPAE 092253Z 27006KT 10SM SCT029 20/11 A3013 RMK AO2 SLP203 T02000111=
201409092228 SPECI KPAE 092228Z 19003KT 10SM OVC030 19/12 A3013 RMK AO2 T01940117=
201409092153 METAR KPAE 092153Z VRB03KT 10SM OVC026 18/12 A3014 RMK AO2 SLP207 T01830117=
201409092053 METAR KPAE 092053Z 17005KT 10SM OVC024 17/11 A3015 RMK AO2 SLP207 T01720111 51009=
201409091953 METAR KPAE 091953Z 22006KT 10SM OVC017 16/12 A3014 RMK AO2 SLP206 T01610117=
201409091853 METAR KPAE 091853Z 25005KT 10SM BKN017 OVC024 14/11 A3013 RMK AO2 SLP204 T01440111=
201409091753 METAR KPAE 091753Z 24004KT 10SM BKN016 OVC024 14/11 A3012 RMK AO2 SLP199 T01440111 10150 20128 53015=
201409091653 METAR KPAE 091653Z 19007KT 10SM OVC025 14/11 A3010 RMK AO2 SLP193 T01440106=
201409091553 METAR KPAE 091553Z 20008KT 10SM BKN016 OVC024 14/11 A3009 RMK AO2 SLP188 T01390106=
201409091524 SPECI KPAE 091524Z 19008KT 10SM OVC016 14/11 A3008 RMK AO2 T01390111=
201409091453 METAR KPAE 091453Z 19004KT 10SM FEW006 OVC012 13/11 A3007 RMK AO2 SLP183 T01330111 53014=
201409091442 SPECI KPAE 091442Z 17005KT 7SM SCT006 OVC010 13/12 A3006 RMK AO2 T01330117=
201409091405 SPECI KPAE 091405Z 23006KT 2SM BR OVC008 13/12 A3006 RMK AO2 T01330117=
201409091353 METAR KPAE 091353Z AUTO 00000KT 10SM OVC013 13/11 A3005 RMK AO2 SLP176 T01330111=
201409091253 METAR KPAE 091253Z AUTO 00000KT 10SM BKN015 OVC022 13/11 A3003 RMK AO2 SLP168 T01280111=
201409091250 SPECI KPAE 091250Z AUTO 00000KT 10SM BKN015 BKN022 OVC038 13/11 A3003 RMK AO2=
201409091242 SPECI KPAE 091242Z AUTO 00000KT 10SM BKN014 BKN022 OVC040 13/11 A3003 RMK AO2 T01330111=
201409091210 SPECI KPAE 091210Z AUTO 00000KT 10SM SCT026 BKN042 OVC070 13/11 A3002 RMK AO2 T01280111=
201409091153 METAR KPAE 091153Z AUTO VRB03KT 10SM OVC026 13/11 A3001 RMK AO2 SLP162 T01280111 10144 20122 51011=
201409091136 SPECI KPAE 091136Z AUTO 01003KT 10SM SCT006 OVC026 13/11 A3002 RMK AO2 T01280111=
201409091114 SPECI KPAE 091114Z AUTO 34003KT 10SM BKN006 BKN043 12/11 A3001 RMK AO2 T01220111=
201409091102 SPECI KPAE 091102Z AUTO 00000KT 10SM SCT007 SCT043 BKN055 12/11 A3001 RMK AO2 T01220106=
201409091053 METAR KPAE 091053Z AUTO 10SM SCT045 BKN055 12/11 A3001 RMK AO2 SLP161 T01220106=
201409091002 SPECI KPAE 091002Z AUTO 01003KT 10SM SCT006 OVC047 13/11 A3000 RMK AO2 T01280111=
201409090953 METAR KPAE 090953Z AUTO 01004KT 10SM BKN006 BKN035 OVC047 13/11 A2999 RMK AO2 SLP156 T01280111=
201409090928 SPECI KPAE 090928Z AUTO 00000KT 10SM BKN005 OVC035 13/12 A2999 RMK AO2 T01280117=
201409090920 SPECI KPAE 090920Z AUTO 00000KT 10SM SCT005 OVC035 13/11 A2999 RMK AO2 T01280111=
201409090853 METAR KPAE 090853Z AUTO 34003KT 10SM BKN005 BKN033 13/11 A2998 RMK AO2 SLP152 T01280111 51010=
201409090850 SPECI KPAE 090850Z AUTO VRB03KT 10SM SCT005 BKN033 13/11 A2998 RMK AO2=
201409090753 METAR KPAE 090753Z AUTO 36005KT 10SM BKN031 13/12 A2997 RMK AO2 SLP147 T01330117 401890128=
201409090653 METAR KPAE 090653Z AUTO 02004KT 10SM BKN033 BKN041 14/12 A2995 RMK AO2 SLP141 T01390122=
201409090553 METAR KPAE 090553Z AUTO 36005KT 10SM BKN034 14/13 A2994 RMK AO2 SLP140 T01440128 10189 20144 51013=
201409090453 METAR KPAE 090453Z AUTO 03003KT 10SM FEW048 BKN070 BKN085 16/12 A2993=
201409090353 METAR KPAE 090353Z AUTO 00000KT 10SM BKN075 17/12 A2992 RMK AO2 SLP130 T01670122=
201409090253 METAR KPAE 090253Z 06003KT 10SM BKN046 OVC065 18/12 A2990 RMK AO2 SLP125 T01780117 56003=
201409090153 METAR KPAE 090153Z 10004KT 10SM SCT026 OVC060 18/12 A2991 RMK AO2 SLP126 T01780117=
201409090108 SPECI KPAE 090108Z 08003KT 10SM BKN026 BKN031 18/12 A2991 RMK AO2 T01830122=
201409090053 METAR KPAE 090053Z 09004KT 10SM FEW022 SCT031 18/12 A2991 RMK AO2 SLP126 T01830122=
201409090023 SPECI KPAE 090023Z VRB03KT 10SM BKN031 18/13 A2991 RMK AO2 T01830128=
201409082353 METAR KPAE 082353Z 25004KT 10SM OVC029 17/12 A2991 RMK AO2 SLP128 T01720122 10178 20144 58002=
201409082253 METAR KPAE 082253Z AUTO 23005KT 10SM OVC028 17/12 A2992 RMK AO2 SLP129 T01670122 TSNO=
201409082153 METAR KPAE 082153Z 25007KT 10SM BKN028 17/12 A2992 RMK AO2 SLP130 T01670122=
201409082112 SPECI KPAE 082112Z 27009KT 10SM SCT013 17/13 A2992 RMK AO2 T01670128=
201409082053 METAR KPAE 082053Z 26008KT 10SM BKN015 16/13 A2992 RMK AO2 SLP130 T01610128 51003=
201409081953 METAR KPAE 081953Z 21008KT 10SM OVC012 16/12 A2992 RMK AO2 SLP130 T01560122=
201409081853 METAR KPAE 081853Z 17009KT 10SM OVC011 15/12 A2991 RMK AO2 SLP128 T01500117=
201409081753 METAR KPAE 081753Z 18008KT 10SM OVC011 14/11 A2991 RMK AO2 SLP126 T01440111 10150 20133 53007=
201409081655 SPECI KPAE 081655Z 21006KT 10SM OVC012 14/11 A2990 RMK AO2 T01440111=
201409081653 METAR KPAE 081653Z 20007KT 10SM OVC009 14/11 A2990 RMK AO2 SLP124 T01440111=
201409081612 SPECI KPAE 081612Z 20009KT 10SM OVC009 14/11 A2989 RMK AO2 T01440111=
201409081600 SPECI KPAE 081600Z 19008KT 10SM BKN010 OVC014 14/12 A2989 RMK AO2 CIG 008V013 T01440117=
201409081553 METAR KPAE 081553Z 19009KT 10SM BKN008 OVC014 14/12 A2989 RMK AO2 CIG 007V013 SLP119 T01440117=
201409081453 METAR KPAE 081453Z 20007KT 10SM OVC006 14/12 A2989 RMK AO2 SLP118 T01390122 53006=
201409081353 METAR KPAE 081353Z 19007KT 10SM OVC006 14/12 A2987 RMK AO2 SLP112 T01390122=
201409081253 METAR KPAE 081253Z AUTO 19007KT 10SM OVC007 14/12 A2986 RMK AO2 SLP109 T01390117=
201409081216 SPECI KPAE 081216Z AUTO 20010KT 10SM BKN006 14/12 A2986 RMK AO2 T01390122=
201409081153 METAR KPAE 081153Z AUTO 21005KT 10SM FEW008 13/12 A2987 RMK AO2 SLP110 T01330122 10167 20128 53002=
201409081112 SPECI KPAE 081112Z AUTO 00000KT 6SM BR FEW001 FEW008 13/12 A2987 RMK AO2 T01280122=
201409081053 METAR KPAE 081053Z AUTO 33003KT 10SM CLR 13/12 A2987 RMK AO2 SLP111 T01330117=
201409080953 METAR KPAE 080953Z AUTO 00000KT 10SM CLR 14/11 A2986 RMK AO2 SLP107 T01390111=
201409080853 METAR KPAE 080853Z AUTO 13003KT 10SM CLR 16/12 A2986 RMK AO2 SLP108 T01560117 51008=
201409080753 METAR KPAE 080753Z AUTO 10003KT 10SM CLR 16/12 A2986 RMK AO2 SLP108 T01560117 402670128=
201409080653 METAR KPAE 080653Z AUTO 03004KT 10SM CLR 15/12 A2985 RMK AO2 SLP106 T01500117=
201409080553 METAR KPAE 080553Z AUTO 03005KT 10SM CLR 17/12 A2984 RMK AO2 SLP101 T01670117 10267 20161 51005=
201409080453 METAR KPAE 080453Z AUTO 02005KT 10SM CLR 17/12 A2983 RMK AO2 SLP100 T01670117=
201409080353 METAR KPAE 080353Z 02006KT 10SM CLR 19/11 A2983 RMK AO2 SLP098 T01890111=
201409080253 METAR KPAE 080253Z 01003KT 10SM CLR 22/10 A2982 RMK AO2 SLP096 T02170100 56009=
201409080153 METAR KPAE 080153Z 00000KT 10SM CLR 24/09 A2983 RMK AO2 SLP099 T02390094=
201409080053 METAR KPAE 080053Z 36004KT 10SM CLR 26/11 A2984 RMK AO2 SLP100 T02610106=
201409072353 METAR KPAE 072353Z 28004KT 10SM CLR 27/08 A2985 RMK AO2 SLP104 T02670083 10267 20211 56012=
201409072253 METAR KPAE 072253Z 28005KT 10SM CLR 26/07 A2986 RMK AO2 SLP108 T02610072=
201409072153 METAR KPAE 072153Z 29005KT 10SM CLR 26/11 A2987 RMK AO2 SLP111 T02560111=
201409072053 METAR KPAE 072053Z 00000KT 10SM CLR 24/12 A2988 RMK AO2 SLP116 T02440122 58008=
201409071953 METAR KPAE 071953Z VRB03KT 10SM CLR 23/13 A2989 RMK AO2 SLP119 T02330128=
201409071853 METAR KPAE 071853Z 31003KT 10SM CLR 23/13 A2990 RMK AO2 SLP122 T02280128=
201409071753 METAR KPAE 071753Z 31004KT 10SM CLR 21/13 A2991 RMK AO2 SLP125 T02110133 10217 20128 50002=
201409071653 METAR KPAE 071653Z 00000KT 10SM CLR 20/12 A2991 RMK AO2 SLP126 T02000117=
201409071553 METAR KPAE 071553Z 00000KT 10SM CLR 18/13 A2992 RMK AO2 SLP128 T01830128=
201409071453 METAR KPAE 071453Z 00000KT 10SM CLR 17/12 A2990 RMK AO2 SLP123 T01670117 53009=
201409071353 METAR KPAE 071353Z 18004KT 10SM CLR 14/11 A2989 RMK AO2 SLP119 T01390106=
201409071253 METAR KPAE 071253Z AUTO 00000KT 10SM CLR 16/11 A2988 RMK AO2 SLP115 T01560111=
201409071153 METAR KPAE 071153Z AUTO 12003KT 10SM CLR 16/12 A2988 RMK AO2 SLP113 T01610117 10183 20139 56005=
201409071053 METAR KPAE 071053Z AUTO 18003KT 10SM CLR 14/10 A2988 RMK AO2 SLP114 T01390100=
201409070953 METAR KPAE 070953Z AUTO 00000KT 10SM CLR 17/11 A2989 RMK AO2 SLP117 T01720111=
201409070853 METAR KPAE 070853Z AUTO 00000KT 10SM CLR 17/11 A2989 RMK AO2 SLP118 T01720111 53002=
201409070753 METAR KPAE 070753Z AUTO 00000KT 10SM CLR 17/11 A2989 RMK AO2 SLP117 T01720106 402780128=
201409070653 METAR KPAE 070653Z AUTO 00000KT 10SM CLR 18/11 A2988 RMK AO2 SLP116 T01780106=
201409070553 METAR KPAE 070553Z AUTO 01003KT 10SM CLR 18/11 A2988 RMK AO2 SLP117 T01780111 10272 20172 50003=
201409070453 METAR KPAE 070453Z AUTO 36003KT 10SM CLR 19/12 A2989 RMK AO2 SLP118 T01890117=
201409070353 METAR KPAE 070353Z 01003KT 10SM CLR 21/12 A2988 RMK AO2 SLP117 T02060117=
201409070253 METAR KPAE 070253Z 35004KT 10SM CLR 22/11 A2988 RMK AO2 SLP115 T02170111 56013=
201409070153 METAR KPAE 070153Z 35004KT 10SM CLR 24/09 A2988 RMK AO2 SLP116 T02440089=
201409070053 METAR KPAE 070053Z 36005KT 10SM CLR 27/07 A2989 RMK AO2 SLP120 T02670072=
201409062353 METAR KPAE 062353Z 01003KT 10SM CLR 27/09 A2992 RMK AO2 SLP127 T02720089 10278 20206 56020=
201409062253 METAR KPAE 062253Z 01005KT 10SM CLR 27/08 A2993 RMK AO2 SLP133 T02720078=
201409062153 METAR KPAE 062153Z 35005KT 10SM CLR 26/11 A2996 RMK AO2 SLP140 T02610106=
201409062053 METAR KPAE 062053Z 35006KT 10SM CLR 25/09 A2998 RMK AO2 SLP147 T02500094 56018=
201409061953 METAR KPAE 061953Z 36005KT 10SM CLR 24/08 A2999 RMK AO2 SLP152 T02390083=
201409061853 METAR KPAE 061853Z 36005KT 10SM CLR 23/08 A3001 RMK AO2 SLP160 T02280083=
201409061753 METAR KPAE 061753Z 34004KT 10SM CLR 20/11 A3003 RMK AO2 SLP167 T02000106 10206 20128 56004=
201409061653 METAR KPAE 061653Z VRB03KT 10SM CLR 18/11 A3003 RMK AO2 SLP168 T01830111=
201409061553 METAR KPAE 061553Z 01004KT 10SM CLR 16/12 A3004 RMK AO2 SLP169 T01610122=
201409061453 METAR KPAE 061453Z 02004KT 10SM CLR 15/12 A3004 RMK AO2 SLP172 T01500122 56002=
201409061353 METAR KPAE 061353Z 00000KT 10SM CLR 14/12 A3004 RMK AO2 SLP173 T01390117=
201409061253 METAR KPAE 061253Z AUTO 04003KT 10SM CLR 14/12 A3004 RMK AO2 SLP171 T01390117=
201409061153 METAR KPAE 061153Z AUTO 02004KT 10SM CLR 13/12 A3005 RMK AO2 SLP174 T01330117 10167 20133 57008=
201409061053 METAR KPAE 061053Z AUTO 01003KT 10SM CLR 14/12 A3006 RMK AO2 SLP177 T01390117=
201409060953 METAR KPAE 060953Z AUTO 02003KT 10SM CLR 16/12 A3006 RMK AO2 SLP178 T01560122=
201409060853 METAR KPAE 060853Z AUTO 00000KT 10SM CLR 16/12 A3007 RMK AO2 SLP181 T01610122 56004=
201409060753 METAR KPAE 060753Z AUTO 03004KT 10SM CLR 16/12 A3008 RMK AO2 SLP183 T01610117 402330122=
201409060653 METAR KPAE 060653Z AUTO 02004KT 10SM CLR 16/12 A3008 RMK AO2 SLP183 T01610117=
201409060553 METAR KPAE 060553Z AUTO 36004KT 10SM CLR 17/12 A3008 RMK AO2 SLP186 T01670117 10233 20167 51007=
201409060453 METAR KPAE 060453Z AUTO 36004KT 10SM CLR 17/12 A3008 RMK AO2 SLP184 T01720117=
201409060353 METAR KPAE 060353Z AUTO 01005KT 10SM CLR 19/12 A3007 RMK AO2 SLP182 T01890117=
201409060253 METAR KPAE 060253Z 36005KT 10SM CLR 19/13 A3006 RMK AO2 SLP179 T01890128 55009=
201409060153 METAR KPAE 060153Z 35005KT 10SM CLR 21/13 A3006 RMK AO2 SLP179 T02060133=
201409060053 METAR KPAE 060053Z VRB05KT 10SM CLR 22/13 A3007 RMK AO2 SLP182 T02220133=
201409052353 METAR KPAE 052353Z 35007KT 10SM CLR 23/13 A3009 RMK AO2 SLP187 T02330128 10233 20178 56016=
201409052253 METAR KPAE 052253Z 34009KT 320V030 10SM CLR 23/13 A3011 RMK AO2 SLP193 T02280128=
201409052153 METAR KPAE 052153Z 36006KT 10SM CLR 23/13 A3012 RMK AO2 SLP197 T02280128=
201409052053 METAR KPAE 052053Z 35007KT 10SM CLR 22/12 A3014 RMK AO2 SLP203 T02170122 58012=
201409051953 METAR KPAE 051953Z 34005KT 10SM CLR 21/13 A3015 RMK AO2 SLP208 T02110128=
201409051853 METAR KPAE 051853Z 01005KT 10SM CLR 19/12 A3016 RMK AO2 SLP213 T01940122=
201409051753 METAR KPAE 051753Z 36006KT 10SM CLR 18/12 A3017 RMK AO2 SLP216 T01780117 10178 20122 50001=
201409051653 METAR KPAE 051653Z 35006KT 10SM CLR 16/12 A3018 RMK AO2 SLP217 T01610117=
201409051553 METAR KPAE 051553Z 01006KT 9SM SCT003 14/13 A3017 RMK AO2 SLP216 T01440128=
201409051533 SPECI KPAE 051533Z 01003KT 10SM SCT003 14/13 A3017 RMK AO2 T01440128=
201409051453 METAR KPAE 051453Z 01007KT 10SM CLR 14/12 A3017 RMK AO2 SLP215 T01390122 53008=
201409051353 METAR KPAE 051353Z 35004KT 9SM CLR 13/12 A3016 RMK AO2 SLP213 T01280117=
201409051253 METAR KPAE 051253Z AUTO 36003KT 10SM CLR 13/12 A3015 RMK AO2 SLP208 T01280117=
201409051153 METAR KPAE 051153Z AUTO 36004KT 10SM CLR 13/12 A3014 RMK AO2 SLP207 T01330117 10150 20133 50004=
201409051053 METAR KPAE 051053Z AUTO 00000KT 10SM CLR 13/11 A3015 RMK AO2 SLP207 T01330111=
201409050953 METAR KPAE 050953Z AUTO 01003KT 10SM CLR 13/11 A3013 RMK AO2 SLP203 T01330111=
201409050853 METAR KPAE 050853Z AUTO 01004KT 10SM CLR 14/11 A3013 RMK AO2 SLP203 T01390111 51008=
201409050753 METAR KPAE 050753Z AUTO 01004KT 10SM CLR 14/11 A3012 RMK AO2 SLP199 T01390111 402110106=
201409050653 METAR KPAE 050653Z AUTO 00000KT 10SM CLR 14/11 A3012 RMK AO2 SLP198 T01440106=
201409050553 METAR KPAE 050553Z AUTO VRB03KT 10SM CLR 14/11 A3011 RMK AO2 SLP195 T01440106 10206 20144 51006=
201409050453 METAR KPAE 050453Z AUTO 34004KT 10SM CLR 15/11 A3010 RMK AO2 SLP192 T01500106=
201409050353 METAR KPAE 050353Z AUTO 35004KT 10SM CLR 15/11 A3010 RMK AO2 SLP192 T01500106=
201409050253 METAR KPAE 050253Z 35005KT 10SM CLR 17/11 A3009 RMK AO2 SLP189 T01670111 56002=
201409050153 METAR KPAE 050153Z 35008KT 10SM CLR 18/12 A3009 RMK AO2 SLP188 T01830117=
201409050053 METAR KPAE 050053Z 34006KT 10SM CLR 19/12 A3009 RMK AO2 SLP188 T01940117=
201409042353 METAR KPAE 042353Z VRB06KT 10SM CLR 21/12 A3010 RMK AO2 SLP191 T02060117 10211 20161 58013=
201409042253 METAR KPAE 042253Z 01008KT 10SM CLR 21/12 A3011 RMK AO2 SLP195 T02060117=
201409042153 METAR KPAE 042153Z 36007KT 10SM CLR 19/12 A3012 RMK AO2 SLP200 T01940117=
201409042053 METAR KPAE 042053Z VRB05KT 10SM CLR 19/12 A3014 RMK AO2 SLP203 T01890117 58008=
201409041953 METAR KPAE 041953Z 34010KT 10SM CLR 18/11 A3014 RMK AO2 SLP207 T01780111=
201409041853 METAR KPAE 041853Z 34007KT 300V360 10SM CLR 18/12 A3015 RMK AO2 SLP209 T01780117=
201409041753 METAR KPAE 041753Z 34007KT 10SM CLR 16/11 A3016=
201409041653 METAR KPAE 041653Z VRB03KT 10SM CLR 14/11 A3016 RMK AO2 SLP213 T01440111=
201409041613 SPECI KPAE 041613Z 01004KT 10SM BCFG FEW004 12/11 A3016 RMK AO2 T01220111=
201409041555 SPECI KPAE 041555Z 34004KT 1SM R16R/P6000FT BR OVC002 12/11 A3016 RMK AO2 T01170111=
201409041553 METAR KPAE 041553Z 35006KT 1SM R16R/P6000FT BR OVC001 12/11 A3017 RMK AO2 SLP215 T01170111=
201409041545 SPECI KPAE 041545Z VRB03KT 2 1/2SM R16R/1000VP6000FT BR BKN001 12/11 A3016 RMK AO2 T01170111=
201409041542 SPECI KPAE 041542Z VRB03KT 1/2SM R16R/0800VP6000FT FG BKN001 12/11 A3016 RMK AO2 T01170111=
201409041525 SPECI KPAE 041525Z 00000KT M1/4SM R16R/0500V0700FT BCFG BKN001 12/11 A3016 RMK AO2 T01170111=
201409041513 SPECI KPAE 041513Z 02003KT 10SM R16R/0700V1200FT BCFG FEW001 11/11 A3016 RMK AO2 T01110106=
201409041457 SPECI KPAE 041457Z 02005KT 10SM R16R/4000VP6000FT BCFG FEW001 12/11 A3015 RMK AO2 T01170106=
201409041455 SPECI KPAE 041455Z 02004KT 1 1/2SM BR FEW001 12/11 A3015 RMK AO2 T01220106=
201409041453 METAR KPAE 041453Z 01004KT 8SM CLR 12/11 A3015 RMK AO2 SLP211 T01220106 53006=
201409041353 METAR KPAE 041353Z 02004KT 10SM CLR 12/11 A3014 RMK AO2 SLP206 T01170106=
201409041253 METAR KPAE 041253Z AUTO 05003KT 10SM CLR 12/11 A3014 RMK AO2 SLP204 T01170106=
201409041153 METAR KPAE 041153Z AUTO 00000KT 10SM CLR 12/10 A3013 RMK AO2 SLP203 T01170100 10161 20106 51004=
201409041053 METAR KPAE 041053Z AUTO 00000KT 10SM CLR 11/09 A3013 RMK AO2 SLP203 T01110094=
201409040953 METAR KPAE 040953Z AUTO 12005KT 10SM CLR 13/10 A3013 RMK AO2 SLP202 T01280100=
201409040853 METAR KPAE 040853Z AUTO 00000KT 10SM CLR 13/10 A3012 RMK AO2 SLP199 T01280100 53003=
201409040753 METAR KPAE 040753Z AUTO 11008KT 10SM CLR 13/11 A3011 RMK AO2 SLP196 T01330106 401890117=
201409040653 METAR KPAE 040653Z AUTO 11005KT 10SM CLR 14/11 A3012 RMK AO2 SLP197 T01440106=
201409040553 METAR KPAE 040553Z AUTO 06004KT 10SM CLR 16/09 A3011 RMK AO2 SLP196 T01610089 10189 20150 51005=
201409040453 METAR KPAE 040453Z AUTO 00000KT 10SM CLR 15/08 A3011 RMK AO2 SLP195 T01500083=
201409040353 METAR KPAE 040353Z AUTO 00000KT 10SM CLR 16/08 A3011 RMK AO2 SLP195 T01560083=
201409040253 METAR KPAE 040253Z 00000KT 10SM CLR 17/08 A3010 RMK AO2 SLP192 T01670083 56002=
201409040153 METAR KPAE 040153Z 27004KT 10SM CLR 18/08 A3010 RMK AO2 SLP192 T01780083=
201409040053 METAR KPAE 040053Z 27004KT 10SM CLR 19/09 A3010 RMK AO2 SLP192 T01890089=
201409032353 METAR KPAE 032353Z 29003KT 10SM CLR 18/09 A3010 RMK AO2 SLP193 T01830089 10189 20144 56001=
201409032253 METAR KPAE 032253Z VRB06KT 10SM SCT060 19/09 A3010 RMK AO2 SLP193 T01890094=
201409032153 METAR KPAE 032153Z 26006KT 10SM CLR 18/09 A3011 RMK AO2 SLP194 T01830094=
201409032053 METAR KPAE 032053Z 24004KT 10SM BKN045 17/10 A3011 RMK AO2 SLP194 T01720100 51008=
201409031953 METAR KPAE 031953Z 27006KT 10SM OVC038 17/10 A3011 RMK AO2 SLP193 T01670100=
201409031853 METAR KPAE 031853Z 24007KT 10SM OVC036 15/11 A3009=
201409031753 METAR KPAE 031753Z 23007KT 10SM OVC036 14/12 A3008 RMK AO2 SLP187 T01440117 10156 20117 53017=
201409031653 METAR KPAE 031653Z 27006KT 10SM FEW003 SCT010 14/12 A3007 RMK AO2 SLP181 T01440117=
201409031556 SPECI KPAE 031556Z 24005KT 10SM FEW003 SCT010 13/11 A3005 RMK AO2 T01330111=
201409031553 METAR KPAE 031553Z 23005KT 10SM SCT003 BKN010 13/11 A3005 RMK AO2 SLP175 T01280111=
201409031453 METAR KPAE 031453Z 24008KT 8SM SCT003 BKN007 12/11 A3003 RMK AO2 SLP170 T01220111 53022=
201409031401 SPECI KPAE 031401Z 24006KT 9SM FEW005 BKN010 12/11 A3001 RMK AO2 T01170106=
201409031353 METAR KPAE 031353Z 26006KT 9SM FEW005 SCT010 12/11 A3001 RMK AO2 SLP161 T01170106=
201409031253 METAR KPAE 031253Z AUTO 24004KT 10SM FEW037 12/11 A2999 RMK AO2 SLP153 T01220106=
201409031153 METAR KPAE 031153Z AUTO 28004KT 10SM FEW080 12/11 A2997 RMK AO2 SLP146 60021 70053 T01220106 10133 20117 51022=
201409031126 SPECI KPAE 031126Z AUTO 32003KT 10SM SCT027 SCT055 OVC080 13/11 A2996 RMK AO2 T01280111=
201409031053 METAR KPAE 031053Z AUTO 29003KT 10SM OVC023 13/11 A2996 RMK AO2 SLP142 T01280111=
201409030953 METAR KPAE 030953Z AUTO 00000KT 10SM FEW003 OVC027 12/12 A2993 RMK AO2 RAE52 SLP136 P0007 T01220117=
201409030934 SPECI KPAE 030934Z AUTO 29003KT 10SM -RA SCT004 SCT017 OVC026 12/12 A2993 RMK AO2 P0007 T01220117=
201409030903 SPECI KPAE 030903Z AUTO 33005KT 3SM +RA BR BKN002 BKN007 OVC028 12/12 A2991 RMK AO2 CIG 002V006 P0004 T01220117=
201409030853 METAR KPAE 030853Z AUTO 22013KT 4SM -RA BR SCT007 BKN028 OVC034 12/11 A2990 RMK AO2 SLP123 P0010 60014 T01220111 51008=
201409030838 SPECI KPAE 030838Z AUTO 22008KT 5SM -RA BR FEW009 SCT025 OVC033 12/11 A2990 RMK AO2 P0008 T01220111=
201409030753 METAR KPAE 030753Z AUTO 20006KT 4SM RA BR OVC036 13/11 A2990 RMK AO2 SLP122 P0003 T01280111 401890122=
201409030653 METAR KPAE 030653Z AUTO 20006KT 10SM -RA OVC041 13/11 A2988 RMK AO2 RAE01B45 SLP118 P0001 T01280111=
201409030553 METAR KPAE 030553Z AUTO 20004KT 10SM -RA SCT016 OVC041 13/11 A2988 RMK AO2 RAB35 SLP116 P0000 60026 T01330111 10178 20128 51014=
201409030453 METAR KPAE 030453Z AUTO 01004KT 10SM OVC060 13/11 A2987 RMK AO2 SLP115 T01330106=
201409030400 SPECI KPAE 030400Z AUTO VRB05KT 10SM FEW024 BKN070 OVC085 13/11 A2986 RMK AO2 T01330111=
201409030353 METAR KPAE 030353Z VRB04KT 10SM BKN015 BKN019 13/11 A2986 RMK AO2 SLP113 T01330111=
201409030253 METAR KPAE 030253Z 33009G16KT 10SM BKN015 BKN020 OVC060 13/11 A2983 RMK AO2 SLP102 60026 T01330106 51012=
201409030203 SPECI KPAE 030203Z 34007KT 10SM BKN015 BKN020 OVC060 13/12 A2983 RMK AO2 LTG DSNT E-S T01330117=
201409030153 METAR KPAE 030153Z 33006KT 10SM SCT015 OVC060 14/12 A2983 RMK AO2 LTG DSNT E AND SE RAE11 SLP100 P0011 T01390117=
201409030117 SPECI KPAE 030117Z 36005KT 3SM BR FEW007 BKN018 OVC026 13/12 A2982 RMK AO2 LTG DSNT NE AND E RAE11 P0011 T01330117=
201409030101 SPECI KPAE 030101Z VRB06G14KT 3SM R16R/4000VP6000FT VCTS +RA BR SCT009 BKN021 OVC040 13/12 A2982 RMK AO2 LTG DSNT NE P0011 T01280117=
201409030057 SPECI KPAE 030057Z 36007G14KT 2SM R16R/4000VP6000FT VCTS RA BR SCT010 BKN024 OVC038 14/12 A2982 RMK AO2 LTG DSNT NE P0007 T01390117=
201409030053 METAR KPAE 030053Z 36010KT 5SM -RA BR SCT010 BKN030 OVC100 14/13 A2982 RMK AO2 LTG DSNT NE RAB23 TSB30E45 SLP096 P0015 T01440128=
201409030045 SPECI KPAE 030045Z 35005KT 5SM -RA BR SCT010 BKN022 OVC040 14/12 A2981 RMK AO2 LTG DSNT NE RAB23 TSB30E45 P0015 T01390122=
201409030031 SPECI KPAE 030031Z 27007KT 5SM R16R/5500VP6000FT +TSRA FEW016 SCT033 BKN044 15/12 A2982 RMK AO2 RAB23 TSB30 P0014 T01500117=
201409030025 SPECI KPAE 030025Z 25011G21KT 1 3/4SM R16R/5500VP6000FT -RA SCT027 OVC035 16/12 A2981 RMK AO2 RAB23 P0009 T01560122=
201409030000 SPECI KPAE 030000Z 21017G25KT 10SM SCT027 OVC035 18/12 A2979 RMK AO2 T01780122=
201409022353 METAR KPAE 022353Z 20017G26KT 10SM BKN029 BKN070 OVC095 18/12 A2980 RMK AO2 PK WND 19026/2344 SLP089 60006 T01780117 10189 20150 56024=
201409022253 METAR KPAE 022253Z 21015KT 10SM BKN026 BKN036 OVC060 18/13 A2981 RMK AO2 RAE41 SLP093 P0001 T01830128=
201409022153 METAR KPAE 022153Z 18010KT 5SM -RA BKN021 BKN048 OVC060 16/13 A2985 RMK AO2 RAB15 SLP105 P0005 T01610133=
201409022053 METAR KPAE 022053Z 20011KT 10SM BKN023 BKN031 OVC050 18/12 A2987 RMK AO2 SLP113 T01780122 58018=
201409021953 METAR KPAE 021953Z 16008KT 10SM BKN021 BKN026 OVC033 18/12 A2988 RMK AO2 SLP118 T01780117=
201409021853 METAR KPAE 021853Z 00000KT 10SM BKN020 OVC024 16/12 A2991 RMK AO2 SLP127 T01610117=
201409021753 METAR KPAE 021753Z VRB03KT 10SM BKN018 OVC040 16/12 A2992 RMK AO2 SLP131 T01560117 10156 20133 56010=
201409021653 METAR KPAE 021653Z 12003KT 10SM SCT014 BKN040 BKN060 15/11 A2993 RMK AO2 SLP132 T01500111=
201409021553 METAR KPAE 021553Z 36005KT 10SM FEW004 SCT041 OVC060 14/11 A2994 RMK AO2 SLP138 T01390111=
201409021453 METAR KPAE 021453Z 02003KT 10SM BKN042 OVC060 14/11 A2995 RMK AO2 SLP142 T01390111 58003=
201409021353 METAR KPAE 021353Z 01004KT 10SM SCT048 OVC060 13/12 A2996 RMK AO2 SLP143 T01330117=
201409021313 SPECI KPAE 021313Z AUTO VRB04KT 10SM FEW003 SCT010 OVC060 13/12 A2995 RMK AO2 T01330117=
201409021253 METAR KPAE 021253Z AUTO 36007KT 10SM SCT003 BKN011 OVC060 13/12 A2996 RMK AO2 SLP144 T01330117=
201409021239 SPECI KPAE 021239Z AUTO 36005KT 10SM SCT003 BKN011 OVC055 13/12 A2996 RMK AO2 CIG 009V013 T01330117=
201409021231 SPECI KPAE 021231Z AUTO 36007KT 10SM BKN003 BKN013 OVC060 13/12 A2996 RMK AO2 T01330117=
201409021213 SPECI KPAE 021213Z AUTO VRB05KT 10SM SCT003 OVC060 13/12 A2996 RMK AO2 T01330122=
201409021153 METAR KPAE 021153Z AUTO 36005KT 10SM SCT047 OVC055 14/12 A2996 RMK AO2 SLP143 T01390117 10156 20139 57006=
201409021053 METAR KPAE 021053Z AUTO 36006KT 10SM FEW049 OVC060 15/12 A2996 RMK AO2 SLP144 T01500117=
201409020953 METAR KPAE 020953Z AUTO 36008KT 10SM FEW045 OVC055 14/12 A2998 RMK AO2 SLP148 T01440122=
201409020853 METAR KPAE 020853Z AUTO 35009G14KT 10SM OVC041 14/12 A2998 RMK AO2 SLP151 T01440122 58006=
201409020753 METAR KPAE 020753Z AUTO 35009KT 10SM OVC040 14/13 A2999 RMK AO2 SLP155 T01440128 402170139=
201409020653 METAR KPAE 020653Z AUTO 36007KT 10SM FEW005 OVC045 15/13 A3000 RMK AO2 SLP156 T01500133=
201409020649 SPECI KPAE 020649Z AUTO 36009KT 10SM FEW005 OVC045 15/13 A3000 RMK AO2=
201409020553 METAR KPAE 020553Z AUTO 36007KT 10SM BKN047 OVC055 15/13 A3000 RMK AO2 SLP159 T01500133 10217 20150 58002=
201409020453 METAR KPAE 020453Z AUTO 35008KT 10SM BKN046 BKN055 OVC075 16/13 A3001 RMK AO2 SLP161 T01560128=
201409020353 METAR KPAE 020353Z 35005KT 10SM FEW047 SCT080 16/12 A3001 RMK AO2 SLP160 T01610122=
201409020253 METAR KPAE 020253Z VRB06KT 10SM BKN080 17/12 A3001 RMK AO2 SLP160 T01670117 57012=
201409020153 METAR KPAE 020153Z 36008KT 10SM CLR 18/11 A3002 RMK AO2 SLP165 T01830111=
201409020053 METAR KPAE 020053Z 31004KT 10SM SCT085 21/11 A3003 RMK AO2 SLP167 T02110106=
201409012353 METAR KPAE 012353Z 23004KT 10SM CLR 21/11 A3004 RMK AO2 SLP171 T02110106 10217 20167 56008=
201409012253 METAR KPAE 012253Z 26007KT 10SM CLR 21/10 A3005 RMK AO2 SLP174 T02060100=
201409012153 METAR KPAE 012153Z 25008KT 10SM CLR 21/11 A3006 RMK AO2 SLP176 T02060106=
201409012053 METAR KPAE 012053Z 24009KT 10SM FEW028 20/11 A3007 RMK AO2 SLP180 T02000111 56007=
201409011953 METAR KPAE 011953Z 23005KT 10SM SCT027 19/12 A3008 RMK AO2 SLP185 T01890122=
201409011951 SPECI KPAE 011951Z 21007KT 150V250 10SM SCT027 19/12 A3008 RMK AO2=
201409011853 METAR KPAE 011853Z 15008KT 10SM BKN021 19/13 A3009 RMK AO2 SLP189 T01890128=
201409011753 METAR KPAE 011753Z 18008KT 10SM OVC016 17/12 A3010 RMK AO2 SLP192 T01670117 10167 20139 51002=
201409011653 METAR KPAE 011653Z 16007KT 10SM OVC017 16/12 A3010 RMK AO2 SLP192 T01560117=
201409011553 METAR KPAE 011553Z 18006KT 10SM OVC018 15/12 A3010 RMK AO2 SLP193 T01500117=
201409011453 METAR KPAE 011453Z 16008KT 10SM OVC014 15/12 A3009 RMK AO2 SLP190 T01500117 53006=
201409011353 METAR KPAE 011353Z VRB03KT 10SM FEW013 OVC022 14/12 A3009 RMK AO2 SLP187 T01440117=
201409011253 METAR KPAE 011253Z AUTO 18003KT 10SM BKN016 OVC029 14/12 A3008 RMK AO2 SLP185 T01440122=
201409011242 SPECI KPAE 011242Z AUTO 16004KT 10SM SCT016 BKN029 14/12 A3008 RMK AO2 T01390117=
201409011153 METAR KPAE 011153Z AUTO 15005KT 10SM FEW030 BKN050 14/12 A3008 RMK AO2 SLP183 T01440117 10156 20144 53000=
201409011053 METAR KPAE 011053Z AUTO 17004KT 10SM OVC042 15/12 A3008 RMK AO2 SLP183 T01500117=
201409010953 METAR KPAE 010953Z AUTO 11004KT 10SM CLR 14/12 A3007 RMK AO2 SLP183 T01440117=
201409010853 METAR KPAE 010853Z AUTO 00000KT 10SM FEW047 OVC110 15/11 A3008 RMK AO2 SLP183 T01500111 50004=
201409010753 METAR KPAE 010753Z AUTO 35003KT 10SM FEW040 BKN080 BKN110 15/11 A3008 RMK AO2 SLP184 T01500111 402060128=
201409010653 METAR KPAE 010653Z AUTO 03004KT 10SM BKN043 OVC100 16/11 A3007 RMK AO2 SLP180 T01560111=
201409010553 METAR KPAE 010553Z AUTO 36004KT 10SM SCT100 15/11 A3006 RMK AO2 SLP179 T01500106 10194 20150 52005=
201409010453 METAR KPAE 010453Z AUTO 36004KT 10SM OVC075 16/11 A3006 RMK AO2 SLP178 T01560106=
201409010353 METAR KPAE 010353Z AUTO 03004KT 10SM BKN080 16/12 A3005 RMK AO2 SLP174 T01610117=
201409010253 METAR KPAE 010253Z 00000KT 10SM BKN085 18/07 A3005 RMK AO2 SLP174 T01830072 55001=
201409010153 METAR KPAE 010153Z 00000KT 10SM OVC085 19/08 A3004 RMK AO2 SLP172 T01890078=
201409010053 METAR KPAE 010053Z 27003KT 10SM BKN090 18/10 A3005 RMK AO2 SLP174 T01830100=

# No short TAF reports from KPAE in databse.

###################################
#  large TAF from KPAE
###################################
201409302320 TAF KPAE 302320Z 0100/0124 27007KT P6SM SCT025 BKN050
                      TEMPO 0103/0107 SCT025 SCT050 FM011100 18005KT
                       P6SM BKN015 BKN040 FM011800 21006KT P6SM
                       SCT020 BKN050 BKN200=
201409301720 TAF KPAE 301720Z 3018/0118 21007KT P6SM VCSH SCT020 BKN040
                      TEMPO 3018/3021 BKN020 BKN040 FM010000 27007KT
                       P6SM VCSH SCT020 BKN040 FM010800 VRB04KT
                       P6SM BKN020 BKN040 FM011700 21006KT P6SM
                       SCT025 BKN050=
201409301431 TAF AMD KPAE 301431Z 3015/0112 18008KT P6SM VCSH SCT020 BKN040
                       FM302200 28006KT P6SM -SHRA BKN025 OVC050
                       FM010000 VRB03KT P6SM VCSH SCT020 BKN040
                       FM010800 VRB03KT P6SM BKN020 BKN040=
201409301151 TAF KPAE 301151Z 3012/0112 19006KT P6SM VCSH SCT005 OVC022
                      TEMPO 3012/3014 -SHRA BKN005 OVC022 FM301400
                       19008KT 6SM -SHRA BR SCT005 OVC008 FM301800
                       19008KT P6SM -SHRA BKN015 OVC030 FM302000
                       28006KT P6SM -SHRA BKN025 OVC050 FM010000
                       VRB03KT P6SM SCT035 BKN050 FM010600 VRB03KT
                       P6SM OVC022=
201409300942 TAF AMD KPAE 300942Z 3010/0106 17007KT P6SM SCT025 BKN040 BKN070
                       TEMPO 3010/3012 BKN025 BKN040 OVC070 FM301200
                       19007KT P6SM OVC020 FM302000 28006KT P6SM
                       BKN028 OVC050
                      PROB30 3020/3024 -SHRA FM010000 VRB03KT P6SM
                       SCT035 SCT050=
201409300808 KPAE 300808Z 3008/0106 17007KT P6SM BKN025 BKN035 BKN070 FM301200
                       19007KT P6SM OVC020 FM302000 28006KT P6SM
                       BKN028 OVC050
                      PROB30 3020/3024 -SHRA FM010000 VRB03KT P6SM
                       SCT035 SCT050=
201409300544 TAF KPAE 300544Z 3006/0106 VRB05KT P6SM VCSH SCT035 BKN070
                      TEMPO 3006/3008 -SHRA FM300900 VRB05KT P6SM
                       SCT025 SCT070 FM301200 19007KT P6SM OVC020
                       PROB30 3015/3020 -SHRA FM302000 28006KT
                       P6SM BKN028 OVC050
                      PROB30 3020/3024 -SHRA FM010000 VRB03KT P6SM
                       SCT035 SCT050=
201409300426 TAF AMD KPAE 300426Z 3004/3024 VRB05KT P6SM -SHRA SCT020 OVC040
                       TEMPO 3004/3006 -SHRA BKN020 OVC040 FM300600
                       VRB05KT 6SM -SHRA BR BKN015 OVC030 FM301700
                       VRB04KT P6SM VCSH SCT020 BKN040=
201409300140 TAF AMD KPAE 300140Z 3002/3024 31005KT P6SM FEW004 SCT022 OVC035
                       TEMPO 3002/3004 -SHRA FEW004 BKN022 OVC035
                       FM300400 30006KT P6SM -SHRA BKN015 OVC030
                       FM301700 VRB04KT P6SM VCSH SCT020 BKN040=
201409300015 TAF AMD KPAE 300015Z 3000/3024 23007KT 5SM -RA BR SCT005 BKN011
                       OVC021
                      TEMPO 3000/3003 1SM -RA BR OVC005 FM300400
                       30006KT P6SM -SHRA BKN015 OVC030 FM301700
                       VRB04KT P6SM VCSH SCT020 BKN040=
201409292320 TAF KPAE 292320Z 3000/3024 22012KT P6SM SCT012 OVC030
                      TEMPO 3000/3003 5SM -RA BR OVC012 FM300400
                       30006KT P6SM -SHRA BKN015 OVC030 FM301700
                       VRB04KT P6SM VCSH SCT020 BKN040=
201409291720 TAF KPAE 291720Z 2918/3018 17010KT 5SM BR SCT005 OVC015
                      TEMPO 2918/2920 3SM -RA BR BKN005 OVC015
                       FM292000 18012KT P6SM -RA BKN015 OVC030
                       FM292200 22012KT P6SM -SHRA BKN020 OVC040
                       FM300400 30006KT P6SM -SHRA BKN015 OVC030
                       FM301700 VRB04KT P6SM VCSH SCT020 BKN040=
201409291503 TAF AMD KPAE 291503Z 2915/3012 16006KT 1/2SM FG VV002 FM291700
                       17009KT 3SM BR BKN003 OVC012 FM291800 19013G20KT
                       5SM -RA BR OVC012 FM292100 19013G20KT P6SM
                       -SHRA BKN022 BKN050 FM300000 25007KT P6SM
                       -SHRA OVC028 FM300200 VRB05KT 5SM SHRA SCT008
                       OVC015 FM300900 17008KT P6SM -SHRA OVC020=
201409291121 TAF KPAE 291121Z 2912/3012 VRB03KT 3/4SM BR VV001 FM291500 17009KT
                       5SM BR OVC007 FM291800 19013G20KT 5SM -RA
                       BR OVC012 FM292100 19013G20KT P6SM -SHRA
                       BKN022 BKN050 FM300000 25007KT P6SM -SHRA
                       OVC028 FM300200 VRB05KT 5SM SHRA SCT008
                       OVC015 FM300900 17008KT P6SM -SHRA OVC020=
201409291024 TAF AMD KPAE 291024Z 2910/3006 VRB03KT 2SM BR VV002
                      TEMPO 2910/2913 1/2SM FG VV001 FM291500 17010KT
                       5SM BR OVC007 FM291800 19013G20KT 5SM -RA
                       BR OVC012 FM292100 21013G20KT P6SM -SHRA
                       BKN022 OVC050 FM300000 25007KT P6SM -SHRA
                       OVC028 FM300200 VRB05KT 5SM SHRA SCT008
                       OVC020=
201409290922 TAF AMD KPAE 290922Z 2909/3006 VRB03KT 6SM BR FEW002 FM291000 VRB03KT
                       2SM BR VV002
                      TEMPO 2910/2913 3/4SM BR FM291500 17010KT
                       5SM BR OVC007 FM291800 19013G20KT 5SM -RA
                       BR OVC012 FM292100 21013G20KT P6SM -SHRA
                       BKN022 OVC050 FM300000 25007KT P6SM -SHRA
                       OVC028 FM300200 VRB05KT 5SM SHRA SCT008
                       OVC020=
201409290541 TAF KPAE 290541Z 2906/3006 00000KT 6SM BR SKC FM290900 VRB03KT
                       3/4SM BR VV002 FM291500 17010KT 5SM BR OVC007
                       FM291800 19013G20KT 5SM -RA BR OVC012 FM292100
                       21013G20KT P6SM -SHRA BKN022 OVC050 FM300000
                       25007KT P6SM -SHRA OVC028 FM300200 VRB05KT
                       5SM SHRA SCT008 OVC020=
201409290302 TAF AMD KPAE 290302Z 2903/2924 00000KT P6SM SKC FM290600 18004KT
                       4SM BR SCT200 FM290900 18006KT 6SM BR BKN012
                       FM291200 18006KT P6SM OVC006
                      TEMPO 2912/2916 1/2SM FG BKN002 FM292000
                       22010KT P6SM -SHRA OVC020=
201409282327 TAF KPAE 282327Z 2900/2924 03004KT P6SM SCT200 FM290500 18004KT
                       P6SM SCT200 FM290900 18006KT P6SM BKN012
                       FM291200 18006KT P6SM OVC006
                      TEMPO 2912/2916 1/2SM FG BKN002 FM292000
                       22010KT P6SM -SHRA OVC020=
201409282004 TAF AMD KPAE 282004Z 2820/2918 VRB03KT P6SM BKN010
                      TEMPO 2820/2822 2SM BR OVC003 FM282200 32005KT
                       P6SM SCT015 SCT200 FM282300 32005KT P6SM
                       FEW025 SCT200 FM290100 VRB03KT P6SM SCT200
                       FM290800 15004KT P6SM OVC007=
201409281728 TAF KPAE 281728Z 2818/2918 VRB03KT 2SM BR OVC006
                      TEMPO 2818/2820 1/4SM FG VV001 FM282000 32005KT
                       P6SM SCT020 SCT200 FM290100 VRB03KT P6SM
                       SCT200 FM290800 15004KT P6SM OVC007=
201409281607 TAF AMD KPAE 281607Z 2816/2912 VRB03KT 2SM BR OVC006
                      TEMPO 2816/2818 1/4SM FG VV001 FM281800 32005KT
                       P6SM BKN012 BKN200 FM281900 32005KT P6SM
                       SCT200 FM290100 VRB03KT P6SM BKN200 FM290800
                       15004KT P6SM OVC007=
201409281138 TAF KPAE 281138Z 2812/2912 VRB03KT 5SM BR OVC012
                      TEMPO 2812/2816 3/4SM BR VV001 FM281800 32005KT
                       P6SM BKN012 BKN200 FM281900 32005KT P6SM
                       SCT200 FM290100 VRB03KT P6SM BKN200 FM290800
                       15004KT P6SM OVC007=
201409280904 KPAE 280904Z 2809/2906 VRB03KT 2SM BR SCT003 BKN200
                      TEMPO 2809/2812 1/2SM FG VV001 FM281200 VRB03KT
                       1/4SM FG VV001 FM281800 32005KT 6SM BR OVC006
                       FM282000 32005KT P6SM SCT200 FM290200 VRB03KT
                       P6SM SCT200=
201409280528 TAF KPAE 280528Z 2806/2906 36005KT 6SM BR OVC200 FM280900 VRB03KT
                       3SM BR SCT003 BKN200
                      TEMPO 2810/2812 3/4SM BR BKN003 BKN200 FM281200
                       VRB03KT 1/4SM FG VV001 FM281800 32005KT
                       6SM BR OVC006 FM282000 32005KT P6SM SCT200
                       FM290200 VRB03KT P6SM SCT200=
201409280313 TAF AMD KPAE 280313Z 2803/2824 36005KT P6SM BKN200
                      TEMPO 2809/2812 2SM BR OVC004 FM281200 03004KT
                       1/2SM FG VV001 FM281900 34007KT P6SM SCT020=
201409272320 TAF KPAE 272320Z 2800/2824 36008KT P6SM SKC FM280300 02006KT P6SM
                       SKC
                      TEMPO 2809/2812 2SM BR OVC004 FM281200 03004KT
                       1/2SM FG VV001 FM281900 34007KT P6SM SCT020=
201409271721 TAF KPAE 271721Z 2718/2818 34005KT P6SM BKN006
                      TEMPO 2718/2719 1SM BR BKN001 FM271900 32007KT
                       P6SM SCT015 FM272000 35007KT P6SM FEW030
                       FM280200 VRB03KT P6SM SKC FM281000 VRB03KT
                       1 1/2SM BR BKN003=
201409271125 TAF KPAE 271125Z 2712/2812 VRB03KT 3SM BR BKN003 BKN040
                      TEMPO 2712/2716 1/4SM FG VV001 FM271800 34005KT
                       P6SM BKN008 FM271900 32007KT P6SM SCT200
                       FM280200 VRB03KT P6SM SKC FM281000 VRB03KT
                       1 1/2SM BR BKN003=
201409270854 TAF AMD KPAE 270854Z 2709/2806 VRB03KT 2SM BR VV002
                      TEMPO 2709/2713 1/2SM FG VV001 FM271800 34005KT
                       P6SM BKN008 FM271900 32007KT P6SM SCT200
                       FM280200 VRB03KT P6SM SKC=
201409270541 TAF KPAE 270541Z 2706/2806 VRB03KT P6SM SCT020 BKN040 FM270900
                       VRB03KT 6SM BR OVC010 FM271200 VRB03KT 2SM
                       BR OVC002
                      TEMPO 2712/2716 1/2SM FG VV001 FM271800 34005KT
                       P6SM BKN008 FM271900 32007KT P6SM SCT200
                       FM280200 VRB03KT P6SM SKC=
201409270205 TAF AMD KPAE 270205Z 2702/2724 32005KT 5SM SHRA SCT025 OVC050
                      TEMPO 2702/2704 1 1/2SM +SHRA BKN025 OVC050
                       FM270400 02004KT P6SM SCT045 BKN100 FM270900
                       01005KT P6SM BKN005 FM271200 00000KT 1/2SM
                       FG VV001 FM272000 35007KT P6SM SCT030=
201409270142 TAF KPAE 270142Z 2702/2724 32005KT 5SM SHRA OVC028
                      TEMPO 2702/2704 1 1/2SM +SHRA FM270400 02004KT
                       P6SM SCT045 BKN100 FM270900 01005KT P6SM
                       BKN005 FM271200 00000KT 1/2SM FG VV001 FM272000
                       35007KT P6SM SCT030=
201409270141 TAF AMD KPAE 270141Z 2702/2724 18010KT 5SM SHRA OVC028
                      TEMPO 2702/2704 1 1/2SM +SHRA FM270400 02004KT
                       P6SM SCT045 BKN100 FM270900 01005KT P6SM
                       BKN005 FM271200 00000KT 1/2SM FG VV001 FM272000
                       35007KT P6SM SCT030=
201409270024 TAF AMD KPAE 270024Z 2700/2724 18010KT P6SM BKN029
                      TEMPO 2700/2704 2SM -SHRA BKN020 FM270400
                       02004KT P6SM SCT045 BKN100 FM270900 01005KT
                       P6SM BKN005 FM271200 00000KT 1/2SM FG VV001
                       FM272000 35007KT P6SM SCT030=
201409262321 TAF KPAE 262321Z 2700/2724 18010KT P6SM VCSH SCT030 BKN040 BKN100
                       TEMPO 2700/2704 -SHRA BKN030 FM270400 02004KT
                       P6SM SCT045 BKN100 FM270900 01005KT P6SM
                       BKN005 FM271200 00000KT 1/2SM FG VV001 FM272000
                       35007KT P6SM SCT030=
201409261720 TAF KPAE 261720Z 2618/2718 16006KT P6SM VCSH BKN020 OVC040
                      TEMPO 2618/2621 3SM -SHRA BR BKN007 FM262100
                       18008KT P6SM VCSH SCT022 BKN040 FM270400
                       34004KT P6SM SCT045 BKN120 FM271100 01005KT
                       2SM BR OVC007=
201409261135 TAF KPAE 261135Z 2612/2712 VRB05KT P6SM SCT030 OVC050
                      TEMPO 2612/2616 -SHRA BKN030 OVC050 FM261800
                       16010KT P6SM -SHRA BKN020 OVC030 FM262200
                       18008KT P6SM VCSH SCT022 BKN040 FM270400
                       34004KT P6SM SCT045 BKN120 FM271100 01005KT
                       2SM BR OVC007=
201409260525 TAF KPAE 260525Z 2606/2706 15007KT P6SM VCSH BKN070 BKN090 FM260700
                       19006KT P6SM SCT030 BKN045 OVC070
                      TEMPO 2607/2611 -SHRA BKN030 OVC045 FM261100
                       15005KT P6SM VCSH OVC025 FM261300 18005KT
                       5SM -SHRA OVC013 FM262000 20008KT P6SM VCSH
                       OVC022=
201409252336 TAF KPAE 252336Z 2600/2624 16010KT P6SM VCTS SCT025 BKN060CB BKN100
                       TEMPO 2600/2604 -SHRA OVC025 FM260400 14004KT
                       P6SM VCSH BKN025 BKN100 FM261000 15005KT
                       P6SM VCSH OVC025 FM261200 18005KT 5SM -SHRA
                       OVC013 FM262000 20008KT P6SM VCSH OVC022=
201409251720 TAF KPAE 251720Z 2518/2618 VRB03KT P6SM -SHRA SCT025 BKN035 BKN070
                       FM252200 19008KT P6SM VCTS BKN040 BKN060CB
                       BKN100 FM260400 16004KT P6SM VCSH BKN040
                       BKN100 FM261200 15005KT P6SM -SHRA OVC025=
201409251439 TAF AMD KPAE 251439Z 2515/2612 15005KT P6SM -SHRA SCT003 BKN035
                       OVC080
                      TEMPO 2515/2517 2SM -SHRA BR BKN003 OVC035
                       FM251700 17006KT P6SM VCSH SCT022 BKN035
                       BKN070 FM252200 19008KT P6SM VCTS SCT040
                       BKN060CB BKN100 FM260400 VRB03KT P6SM VCSH
                       SCT040 BKN100=
201409251125 TAF KPAE 251125Z 2512/2612 15005KT P6SM -SHRA SCT025 BKN035 OVC070
                       TEMPO 2513/2517 2SM -SHRA BR BKN012 OVC023
                       FM251700 17006KT P6SM VCSH SCT022 BKN035
                       BKN070 FM252200 19008KT P6SM VCTS SCT040
                       BKN060CB BKN100 FM260400 VRB03KT P6SM VCSH
                       SCT040 BKN100=
201409251020 TAF AMD KPAE 251020Z 2510/2606 00000KT P6SM BKN050 OVC100 FM251200
                       VRB03KT P6SM SCT006 OVC011
                      TEMPO 2513/2516 1SM BR OVC006 FM251700 17004KT
                       6SM BR BKN015 OVC035 FM251900 18008KT P6SM
                       VCSH SCT022 BKN040 OVC080=
201409250520 TAF KPAE 250520Z 2506/2606 12006KT P6SM BKN100 OVC210 FM250900
                       VRB03KT P6SM SCT006 OVC011
                      TEMPO 2512/2516 1SM BR OVC006 FM251700 17004KT
                       6SM BR BKN015 OVC035 FM251900 18008KT P6SM
                       VCSH SCT022 BKN040 OVC080=
201409242323 TAF KPAE 242323Z 2500/2524 16006KT P6SM VCSH SCT010 OVC050 FM250900
                       VRB04KT P6SM BKN011 OVC030 FM251100 VRB03KT
                       4SM BR OVC011 FM251700 17004KT 6SM BR BKN015
                       OVC035 FM251900 18008KT P6SM VCSH SCT030
                       BKN050=
201409242221 TAF AMD KPAE 242221Z 2422/2518 21010G20KT P6SM VCSH SCT007 BKN050
                       FM250000 16008KT P6SM VCSH SCT020 OVC050
                       FM250900 VRB04KT P6SM BKN011 OVC030=
201409242031 TAF AMD KPAE 242031Z 2421/2518 21010G20KT P6SM SCT007 BKN035
                      TEMPO 2421/2423 -SHRA OVC007 FM250000 21010KT
                       P6SM VCSH BKN020 OVC035 FM250600 VRB04KT
                       P6SM VCSH BKN016 OVC030=
201409241741 TAF KPAE 241741Z 2418/2518 21008KT 5SM -SHRA BR SCT035 OVC050
                      TEMPO 2418/2420 2SM -SHRA BR BKN020 OVC050
                       FM242100 21010G20KT P6SM SCT020 SCT035 FM250000
                       21010KT P6SM -RA BKN020 OVC035 FM250600
                       VRB04KT P6SM -SHRA BKN016 OVC030=
201409241318 TAF AMD KPAE 241318Z 2413/2512 15010KT P6SM -RA SCT008 BKN060 OVC100
                       TEMPO 2413/2415 5SM RA BR BKN008 OVC014
                       FM241500 19014G22KT P6SM -SHRA SCT012 BKN025
                       OVC035 FM241900 19012G22KT P6SM -SHRA SCT020
                       BKN035 FM242200 19012KT P6SM VCSH BKN040
                       BKN080 FM250500 18008KT P6SM VCSH BKN045=
201409241120 TAF KPAE 241120Z 2412/2512 18014G22KT P6SM -RA SCT007 SCT018 OVC025
                       TEMPO 2412/2415 5SM RA BR BKN007 OVC014
                       FM241500 19014G22KT P6SM -SHRA SCT012 BKN025
                       OVC035 FM241900 19012G22KT P6SM -SHRA SCT020
                       BKN035 FM242200 19012KT P6SM VCSH BKN040
                       BKN080 FM250500 18008KT P6SM VCSH BKN045=
201409240520 TAF KPAE 240520Z 2406/2506 12012KT P6SM -RA SCT025 OVC040
                      TEMPO 2406/2410 4SM RA BR OVC025 FM241000
                       15012KT 5SM -RA BR SCT018 OVC025 FM241400
                       19012G18KT 5SM -SHRA BR SCT012 BKN025 OVC035
                       FM241800 19014G22KT P6SM -SHRA SCT020 BKN035
                       FM242300 19010KT P6SM VCSH BKN040 BKN080=
201409232320 TAF KPAE 232320Z 2400/2424 16012KT P6SM -RA SCT025 OVC050 FM240200
                       17012KT 5SM -RA SCT012 OVC030 FM240500 18010KT
                       4SM -RA BR SCT012 OVC022 FM241200 19010G18KT
                       5SM -SHRA BR SCT012 BKN025 OVC035 FM241800
                       19008KT P6SM SCT030 BKN045=
201409232015 TAF AMD KPAE 232015Z 2320/2418 17004KT P6SM VCSH SCT030 SCT080
                       TEMPO 2320/2322 -SHRA SCT030 BKN080 FM232200
                       16004KT P6SM -SHRA OVC030 FM240200 16005KT
                       5SM -RA OVC022 FM240600 16010KT 3SM RA BR
                       OVC018 FM241300 15010KT 5SM -SHRA BR BKN030=
201409231745 TAF KPAE 231745Z 2318/2418 17004KT P6SM -RA SCT025 OVC035
                      TEMPO 2319/2322 4SM RA BR OVC020 FM232200
                       16004KT P6SM -SHRA OVC030 FM240200 16005KT
                       P6SM -RA OVC022 FM240400 15009KT 5SM -RA
                       BR OVC022 FM241000 16010KT 3SM RA BR OVC018
                       FM241500 20012G18KT 5SM -SHRA BR BKN022
                       OVC025=
201409231636 TAF AMD KPAE 231636Z 2317/2412 16005KT P6SM -SHRA BKN050 OVC080
                       FM231800 15010KT 5SM -RA OVC030
                      TEMPO 2319/2322 3SM RA BR OVC022 FM232200
                       18013KT 6SM -SHRA BR OVC028 FM240800 18013G20KT
                       5SM RA BR OVC020=
201409231123 TAF KPAE 231123Z 2312/2412 17005KT P6SM -SHRA BKN050 OVC080 FM232000
                       18010KT P6SM -RA OVC035 FM240200 18012KT
                       6SM -RA BR OVC027 FM240800 18012G18KT 5SM
                       RA BR OVC020=
201409230520 TAF KPAE 230520Z 2306/2406 VRB04KT P6SM VCSH SCT035 BKN070 OVC100
                       FM231000 12005KT P6SM -SHRA BKN035 OVC070
                       FM232100 18012KT P6SM -RA OVC027 FM240500
                       18012G18KT 5SM -RA BR OVC020=
201409222320 TAF KPAE 222320Z 2300/2324 25006KT P6SM BKN028 BKN100 OVC200 FM230500
                       VRB04KT P6SM VCSH BKN035 BKN070 OVC120 FM231200
                       12005KT P6SM -SHRA OVC035 FM232100 18010G20KT
                       P6SM -RA OVC025=
201409222101 TAF AMD KPAE 222101Z 2221/2318 18006KT P6SM OVC028 FM230600 VRB03KT
                       P6SM VCSH SCT035 BKN070 OVC120 FM231200
                       VRB04KT P6SM -SHRA OVC035 FM231600 14005KT
                       P6SM -RA OVC025=
201409221720 TAF KPAE 221720Z 2218/2318 16010KT P6SM VCSH FEW015 SCT025 BKN045
                       TEMPO 2218/2220 -SHRA OVC025 FM222000 20006KT
                       P6SM SCT025 BKN035 OVC050 FM230400 VRB03KT
                       P6SM -SHRA SCT035 BKN070 OVC120 FM230900
                       VRB04KT P6SM VCSH OVC035 FM231600 14005KT
                       P6SM -RA OVC025=
201409221419 TAF AMD KPAE 221419Z 2214/2312 16008KT P6SM VCTS BKN022 BKN045CB
                       TEMPO 2214/2216 -SHRA OVC022 FM221600 17008KT
                       P6SM SCT016 OVC025 FM221900 20006KT P6SM
                       SCT025 OVC035 FM222100 20006KT P6SM SCT035
                       BKN100 FM231100 13008KT P6SM SCT035 BKN070
                       OVC120=
201409221139 TAF KPAE 221139Z 2212/2312 17008KT P6SM OVC016 FM221600 17008KT
                       P6SM SCT016 OVC025 FM221900 20006KT P6SM
                       SCT025 OVC035 FM222100 20006KT P6SM SCT035
                       BKN100 FM231100 13008KT P6SM SCT035 BKN070
                       OVC120=
201409220537 TAF KPAE 220537Z 2206/2306 VRB03KT P6SM SCT150 FM220900 17006KT
                       P6SM OVC011 FM221700 17006KT P6SM SCT012
                       OVC022 FM221900 20006KT P6SM SCT025 OVC035
                       FM222100 20006KT P6SM SCT035 BKN100=
201409212320 TAF KPAE 212320Z 2200/2224 27007KT P6SM SKC FM220400 17006KT P6SM
                       SCT100 FM220900 17006KT 5SM BR OVC007 FM221900
                       18007KT P6SM SCT018 OVC030 FM222100 20006KT
                       P6SM SCT030 BKN100=
201409211730 TAF KPAE 211730Z 2118/2218 25003KT P6SM FEW100 FM212000 22009KT
                       P6SM SCT150 FM220400 17006KT P6SM SCT100
                       FM220900 17006KT 5SM BR OVC007=
201409211120 TAF KPAE 211120Z 2112/2212 VRB03KT P6SM SKC FM211700 20006KT P6SM
                       SKC FM220400 17006KT P6SM SCT100=
201409210520 TAF KPAE 210520Z 2106/2206 03004KT P6SM SKC FM211000 VRB03KT P6SM
                       SKC FM211700 20006KT P6SM SKC FM220400 17006KT
                       P6SM SCT100=
201409202320 TAF KPAE 202320Z 2100/2124 36008KT P6SM SKC FM210400 03005KT P6SM
                       SKC FM211600 18008KT P6SM SKC FM212100 24007KT
                       P6SM SKC=
201409201720 TAF KPAE 201720Z 2018/2118 01006KT 3/4SM BR VV001 FM201900 35008KT
                       P6SM SKC FM210400 03005KT P6SM SKC FM211600
                       18008KT P6SM SKC=
201409201623 TAF AMD KPAE 201623Z 2016/2112 36006KT 1/4SM FG VV001 FM201800
                       35008KT 2SM BR BKN003 FM201900 35008KT P6SM
                       SKC FM210400 03005KT P6SM SKC=
201409201441 TAF AMD KPAE 201441Z 2015/2112 VRB05KT 1/4SM FG VV001
                      TEMPO 2016/2017 2SM BR BKN002 FM201700 35008KT
                       P6SM SKC FM210400 03005KT P6SM SKC=
201409201314 TAF AMD KPAE 201314Z 2013/2112 36005KT 1/4SM FG VV001
                      TEMPO 2016/2017 2SM BR BKN002 FM201700 35008KT
                       P6SM SKC FM210400 03005KT P6SM SKC=
201409201120 TAF KPAE 201120Z 2012/2112 36005KT P6SM SCT002
                      TEMPO 2012/2016 2SM BR BKN002 FM201700 35008KT
                       P6SM SKC FM210400 03005KT P6SM SKC=
201409200520 TAF KPAE 200520Z 2006/2106 36004KT P6SM BKN040
                      TEMPO 2011/2015 2SM BR OVC002 FM201900 34010KT
                       P6SM SKC=
201409192328 TAF KPAE 192328Z 2000/2024 31005KT P6SM SKC FM201000 36004KT 4SM
                       BR OVC002
                      TEMPO 2013/2017 1/2SM FG VV001 FM201900 34010KT
                       P6SM SKC=
201409191732 TAF KPAE 191732Z 1918/2018 18009KT P6SM SCT016 BKN022 OVC070 FM191900
                       21006KT P6SM SCT025 BKN070 FM192100 25006KT
                       P6SM SCT030 BKN070 FM200000 35005KT P6SM
                       SCT080 FM201000 36004KT 4SM BR OVC002
                      TEMPO 2013/2017 1/2SM FG VV001=
201409191452 TAF AMD KPAE 191452Z 1915/2012 17007KT P6SM OVC012 FM191900 21006KT
                       P6SM BKN020 OVC030 FM192100 25006KT P6SM
                       SCT030 BKN050 FM200000 35005KT P6SM SCT060
                       SCT120=
201409191211 TAF AMD KPAE 191211Z 1912/2012 00000KT P6SM SCT005 BKN010 OVC015
                       TEMPO 1912/1916 2SM -RA BR BKN005 OVC010
                       FM191900 21006KT P6SM BKN020 OVC030 FM192100
                       25006KT P6SM SCT030 BKN050 FM200000 35005KT
                       P6SM SCT060 SCT120=
201409191120 TAF KPAE 191120Z 1912/2012 00000KT P6SM SCT005 BKN010 OVC015
                      TEMPO 1912/1916 4SM -SHRA BR BKN005 OVC010
                       FM191900 21006KT P6SM BKN020 OVC030 FM192100
                       25006KT P6SM SCT030 BKN050 FM200000 35005KT
                       P6SM SCT060 SCT120=
201409190801 TAF AMD KPAE 190801Z 1908/2006 21006KT 4SM BR OVC004 FM191900 21006KT
                       P6SM BKN015 OVC030 FM192100 25006KT P6SM
                       SCT030 BKN050 FM200000 35005KT P6SM SCT060
                       SCT120=
201409190520 TAF KPAE 190520Z 1906/2006 19008KT P6SM OVC015 FM190800 17005KT
                       P6SM OVC012 FM191200 15004KT 6SM BR OVC007
                       TEMPO 1913/1917 2SM BR BKN004 OVC007 FM191900
                       21006KT P6SM BKN015 OVC030 FM192100 25006KT
                       P6SM SCT030 BKN050 FM200000 35005KT P6SM
                       SCT060 SCT120=
201409190111 TAF AMD KPAE 190111Z 1901/1924 VRB03KT P6SM OVC022 FM190700 VRB05KT
                       P6SM OVC012 FM191900 22008KT P6SM BKN030=
201409182323 TAF KPAE 182323Z 1900/1924 20006KT P6SM VCSH BKN015 OVC060 FM190700
                       VRB05KT P6SM OVC012 FM191900 22008KT P6SM
                       BKN030=
201409182102 TAF AMD KPAE 182102Z 1821/1918 18005KT P6SM VCSH BKN015 OVC050
                       FM190700 19005KT P6SM BKN015 OVC035 FM191200
                       18005KT P6SM VCSH OVC012=
201409181725 TAF KPAE 181725Z 1818/1918 19007KT 3SM BR BKN008 BKN020 OVC050
                       TEMPO 1818/1820 1SM BR BKN003 FM182000 18005KT
                       P6SM VCSH BKN020 OVC050 FM190700 19005KT
                       P6SM BKN015 OVC035 FM191200 18005KT P6SM
                       VCSH OVC012=
201409181508 KPAE 181508Z 1815/1912 20004KT 2SM -RA BR BKN006 OVC035
                      TEMPO 1815/1818 1SM BR BKN004 FM181800 22006KT
                       P6SM BKN020 OVC050 FM182300 VRB05KT P6SM
                       SCT030 OVC060 FM190700 16006KT P6SM BKN015
                       OVC030=
201409181120 TAF KPAE 181120Z 1812/1912 00000KT P6SM -SHRA FEW003 OVC060
                      TEMPO 1812/1815 3SM BR BKN003 OVC060 FM181500
                       21004KT 5SM BR BKN005 OVC040 FM182000 22006KT
                       P6SM BKN020 OVC050 FM182300 VRB05KT P6SM
                       SCT030 OVC060 FM190700 16006KT P6SM BKN015
                       OVC030=
201409180521 TAF KPAE 180521Z 1806/1906 00000KT P6SM -SHRA FEW025 BKN060 OVC100
                       FM181200 VRB03KT P6SM -SHRA BKN015 OVC050
                       FM181500 21004KT 5SM -SHRA BR BKN007 OVC015
                       FM182000 22006KT P6SM BKN020 OVC050 FM182300
                       VRB05KT P6SM SCT030 OVC060=
201409180113 TAF AMD KPAE 180113Z 1801/1824 VRB03KT P6SM SCT130 OVC200 FM180300
                       VRB03KT P6SM FEW060 BKN130 OVC200 FM180500
                       VRB03KT P6SM -SHRA BKN060 OVC100 FM180900
                       VRB03KT P6SM -SHRA BKN040 OVC070 FM181500
                       20006KT P6SM BKN030 OVC060=
201409172330 TAF KPAE 172330Z 1800/1824 32004KT P6SM -SHRA SCT080 BKN120 OVC200
                       TEMPO 1800/1804 -SHRA SCT050 FM180400 36004KT
                       P6SM -SHRA BKN060 OVC100 FM180700 18004KT
                       P6SM -SHRA BKN050 OVC100 FM180900 20004KT
                       P6SM -SHRA BKN040 OVC070 FM181500 22006KT
                       P6SM BKN030 OVC060=
201409171728 TAF KPAE 171728Z 1718/1818 34005KT P6SM VCSH SCT080 BKN120 BKN250
                       TEMPO 1718/1722 -SHRA FM180600 18004KT P6SM
                       -SHRA BKN060 OVC100 FM180900 18004KT P6SM
                       -SHRA BKN040 OVC070=
201409171120 TAF KPAE 171120Z 1712/1812 00000KT P6SM SCT090 BKN150 OVC250 FM171900
                       VRB04KT P6SM VCSH SCT050 OVC100 FM181100
                       18005KT P6SM VCSH BKN050 OVC090=
201409170520 TAF KPAE 170520Z 1706/1806 VRB04KT P6SM BKN150 FM171200 VRB04KT
                       P6SM BKN090 BKN150 FM172000 VRB04KT P6SM
                       VCSH SCT050 OVC090 FM180400 VRB04KT P6SM
                       VCSH SCT030 OVC060=
201409162320 TAF KPAE 162320Z 1700/1724 24007KT P6SM SCT040 BKN120 FM171000
                       18004KT P6SM SCT022 BKN100
                      TEMPO 1712/1715 BKN022 FM171500 20004KT P6SM
                       SCT025 BKN080 FM172000 34005KT P6SM SCT025
                       OVC080=
201409161720 TAF KPAE 161720Z 1618/1718 20008KT P6SM VCSH SCT010 BKN100
                      TEMPO 1618/1620 BKN010 FM162000 24007KT P6SM
                       SCT040 BKN120 FM171000 18004KT P6SM SCT022
                       BKN100
                      TEMPO 1712/1715 BKN022 FM171500 19004KT P6SM
                       SCT025 BKN080=
201409161312 TAF AMD KPAE 161312Z 1613/1712 VRB03KT P6SM BKN120 BKN200 FM161700
                       21007KT P6SM SCT020 BKN120 FM161900 24007KT
                       P6SM SCT040 BKN120 FM171000 18008KT P6SM
                       BKN015=
201409161120 TAF KPAE 161120Z 1612/1712 20008KT P6SM SCT005 BKN120 BKN200
                      TEMPO 1612/1615 5SM BR BKN005 BKN120 FM161500
                       20008KT P6SM BKN010 BKN120 FM161700 21007KT
                       P6SM SCT020 BKN120 FM161900 24007KT P6SM
                       SCT040 BKN120 FM171000 18008KT P6SM BKN015=
201409160520 TAF KPAE 160520Z 1606/1706 00000KT P6SM BKN250 FM161700 25007KT
                       P6SM SCT015 BKN120 FM161900 27007KT P6SM
                       SCT040 BKN120=
201409152320 TAF KPAE 152320Z 1600/1624 36006KT P6SM FEW250 FM160300 02005KT
                       P6SM SCT100 BKN200 FM161200 15005KT P6SM
                       SCT100 BKN200 FM161700 18006KT P6SM SCT200
                       FM162300 32005KT P6SM SCT100=
201409151720 TAF KPAE 151720Z 1518/1618 36006KT P6SM SCT250 FM160300 02005KT
                       P6SM SCT100 BKN200 FM161200 15005KT P6SM
                       SCT100 BKN200 FM161700 18006KT P6SM BKN200=
201409151120 TAF KPAE 151120Z 1512/1612 VRB04KT P6SM SKC FM151800 36006KT P6SM
                       SCT250 FM160300 30006KT P6SM SCT100 BKN200=
201409150520 TAF KPAE 150520Z 1506/1606 02005KT P6SM SKC FM160300 VRB03KT P6SM
                       SCT100 BKN200=
201409142331 TAF KPAE 142331Z 1500/1524 VRB03KT P6SM SCT250=
201409141732 TAF KPAE 141732Z 1418/1518 VRB03KT P6SM SKC=
201409141120 TAF KPAE 141120Z 1412/1512 36006KT P6SM SKC=
201409140520 TAF KPAE 140520Z 1406/1506 35005KT P6SM SKC=
201409140102 TAF AMD KPAE 140102Z 1401/1424 35006KT P6SM SKC FM140200 VRB03KT
                       P6SM SKC=
201409131742 TAF KPAE 131742Z 1318/1418 33006KT P6SM SKC FM140200 VRB03KT P6SM
                       SKC=
201409131120 TAF KPAE 131120Z 1312/1412 36003KT P6SM FEW250 FM131800 32006KT
                       P6SM SKC=
201409130520 TAF KPAE 130520Z 1306/1406 36003KT P6SM FEW250 FM131800 32006KT
                       P6SM SKC=
201409122328 TAF KPAE 122328Z 1300/1324 36007KT P6SM SCT250 FM130200 VRB03KT
                       P6SM SCT250 FM131800 32006KT P6SM SKC=
201409121739 TAF KPAE 121739Z 1218/1318 33008KT P6SM SKC FM130300 VRB03KT P6SM
                       SKC=
201409121130 TAF KPAE 121130Z 1212/1312 04006KT P6SM SKC FM122000 35008KT P6SM
                       SKC FM130600 04006KT P6SM SKC=
201409120532 TAF KPAE 120532Z 1206/1306 04006KT P6SM SKC FM122000 35008KT P6SM
                       SKC=
201409112320 TAF KPAE 112320Z 1200/1224 34007KT P6SM SKC FM120400 06003KT P6SM
                       SKC FM122000 34007KT P6SM SKC=
201409111727 TAF KPAE 111727Z 1118/1218 10005KT P6SM SKC FM112000 35007KT P6SM
                       SKC FM120600 06003KT P6SM SKC=
201409111120 TAF KPAE 111120Z 1112/1212 04005KT P6SM SKC FM112100 35006KT P6SM
                       SKC FM120600 03004KT P6SM SKC=
201409110543 TAF KPAE 110543Z 1106/1206 36004KT P6SM SKC FM110800 04005KT P6SM
                       SKC FM112100 35006KT P6SM SKC=
201409102320 TAF KPAE 102320Z 1100/1124 34005KT P6SM SKC FM110800 03005KT P6SM
                       SKC=
201409101731 TAF KPAE 101731Z 1018/1118 32004KT P6SM BKN015 FM101900 33006KT
                       P6SM SCT018 BKN030 FM102000 36010KT P6SM
                       SKC FM110000 35007KT P6SM SKC FM110800 03005KT
                       P6SM SKC=
201409101300 TAF AMD KPAE 101300Z 1013/1112 03005KT 5SM BR OVC002
                      TEMPO 1013/1015 3SM BR FM101600 01003KT P6SM
                       BKN008 FM101800 36005KT P6SM SCT015 FM102000
                       36010KT P6SM SKC FM110000 35007KT P6SM SKC
                       FM110800 03005KT P6SM SKC=
201409101126 TAF KPAE 101126Z 1012/1112 03005KT P6SM OVC002 FM101600 01003KT
                       P6SM BKN008 FM101800 36005KT P6SM SCT015
                       FM102000 36010KT P6SM SKC FM110000 35007KT
                       P6SM SKC FM110800 03005KT P6SM SKC=
201409101011 TAF AMD KPAE 101011Z 1010/1106 03005KT P6SM BKN002 OVC070 FM101600
                       01003KT P6SM BKN010 FM101800 36005KT P6SM
                       SCT020 FM102000 36010KT P6SM FEW250=
201409100537 TAF KPAE 100537Z 1006/1106 12004KT P6SM SKC FM100800 36003KT P6SM
                       SCT030
                      TEMPO 1012/1016 OVC015 FM101600 36005KT P6SM
                       SCT020 FM101800 36008KT P6SM FEW250=
201409092326 TAF KPAE 092326Z 1000/1024 29006KT P6SM SCT029 SCT250
                      TEMPO 1012/1016 OVC012 FM101600 36005KT P6SM
                       SKC=
201409091736 TAF KPAE 091736Z 0918/1018 19007KT P6SM OVC025 FM092000 23005KT
                       P6SM BKN025 FM092200 27004KT P6SM BKN050
                       FM100200 34005KT P6SM SCT250 FM100600 VRB03KT
                       P6SM SCT040 BKN200 FM101000 04003KT P6SM
                       SCT015=
201409091237 TAF AMD KPAE 091237Z 0913/1012 VRB03KT P6SM SCT015 OVC035
                      TEMPO 0913/0915 OVC015 FM091500 VRB03KT P6SM
                       OVC009 FM091700 21004KT P6SM OVC015 FM091900
                       23005KT P6SM BKN020 FM092100 27004KT P6SM
                       BKN050 FM100200 34005KT P6SM SCT250 FM100600
                       VRB03KT P6SM SCT040 BKN200 FM101000 04003KT
                       P6SM SCT015=
201409091131 TAF KPAE 091131Z 0912/1012 VRB03KT P6SM BKN005 OVC030 FM091700
                       21004KT P6SM OVC015 FM091900 23005KT P6SM
                       BKN020 FM092100 27004KT P6SM BKN050 FM100200
                       34005KT P6SM SCT250 FM100600 VRB03KT P6SM
                       SCT040 BKN200 FM101000 04003KT P6SM SCT015=
201409090920 TAF AMD KPAE 090920Z 0909/1006 VRB03KT P6SM BKN005 OVC030 FM091600
                       21004KT P6SM OVC015 FM091800 23005KT P6SM
                       BKN020 FM092100 27004KT P6SM BKN050 FM100200
                       25005KT P6SM SCT250=
201409090548 TAF KPAE 090548Z 0906/1006 03003KT P6SM BKN070 FM090900 06003KT
                       P6SM BKN025 FM091200 09003KT P6SM OVC007
                       FM091800 23004KT P6SM BKN015 FM092100 27004KT
                       P6SM BKN050 FM100200 25005KT P6SM SCT250=
201409082320 TAF KPAE 082320Z 0900/0924 23005KT P6SM VCSH OVC028 FM091200 26003KT
                       P6SM OVC007 FM092100 27004KT P6SM BKN050=
201409081720 TAF KPAE 081720Z 0818/0918 21006KT P6SM OVC012 FM082100 18008KT
                       P6SM BKN022 FM082300 VRB03KT P6SM SCT030
                       BKN060 FM090900 VRB03KT P6SM OVC011=
201409081138 TAF KPAE 081138Z 0812/0912 VRB03KT P6SM OVC003
                      TEMPO 0812/0815 3SM BR FM081600 VRB03KT P6SM
                       OVC008 FM081800 18008KT P6SM OVC011 FM082100
                       18008KT P6SM BKN022 FM082300 VRB03KT P6SM
                       SCT030 BKN060 FM090900 VRB03KT P6SM OVC011=
201409080538 TAF KPAE 080538Z 0806/0906 02004KT P6SM SCT250 FM081300 18008KT
                       P6SM OVC003 FM081600 18008KT P6SM OVC008
                       FM081800 18008KT P6SM OVC011 FM082100 18008KT
                       P6SM BKN022 FM082200 VRB03KT P6SM SCT030
                       BKN110=
201409072341 TAF KPAE 072341Z 0800/0824 VRB03KT P6SM SCT250 FM081100 17006KT
                       2SM BR VV002 FM081600 17006KT 6SM BR OVC007
                       FM081800 21008KT P6SM OVC012 FM082000 21008KT
                       P6SM BKN022 BKN060 BKN110 FM082200 25008KT
                       P6SM SCT030 SCT060 BKN110=
201409071737 TAF KPAE 071737Z 0718/0818 31005KT P6SM SKC FM080200 VRB03KT P6SM
                       SCT250 FM081100 17006KT 2SM BR VV002 FM081600
                       17006KT 6SM BR OVC007=
201409071134 TAF KPAE 071134Z 0712/0812 VRB03KT P6SM SKC FM071800 33006KT P6SM
                       SKC FM081000 19006KT P6SM SKC=
201409070528 TAF KPAE 070528Z 0706/0806 VRB03KT P6SM SKC FM071800 33006KT P6SM
                       SKC=
201409062321 TAF KPAE 062321Z 0700/0724 VRB03KT P6SM SKC FM071800 31005KT P6SM
                       SKC=
201409061736 TAF KPAE 061736Z 0618/0718 33005KT P6SM SKC FM070200 VRB03KT P6SM
                       SKC=
201409061120 TAF KPAE 061120Z 0612/0712 36006KT P6SM SKC=
201409060520 TAF KPAE 060520Z 0606/0706 36006KT P6SM SKC=
201409052320 TAF KPAE 052320Z 0600/0624 35007KT P6SM SKC FM060500 02004KT P6SM
                       SKC FM061700 32005KT P6SM SKC=
201409051720 TAF KPAE 051720Z 0518/0618 35007KT P6SM SKC FM060500 02004KT P6SM
                       SKC=
201409051120 TAF KPAE 051120Z 0512/0612 01004KT P6SM SKC FM051800 35007KT P6SM
                       SKC FM060500 02005KT P6SM SKC=
201409050520 TAF KPAE 050520Z 0506/0606 36005KT P6SM SKC FM051200 VRB04KT P6SM
                       SKC FM051900 35007KT P6SM SKC FM060500 02005KT
                       P6SM SKC=
201409042345 TAF KPAE 042345Z 0500/0524 36008KT P6SM SKC FM050400 02004KT P6SM
                       SKC FM051200 VRB04KT P6SM SCT008 FM051800
                       35007KT P6SM SKC=
201409041736 TAF KPAE 041736Z 0418/0518 35006KT P6SM SKC FM050500 02004KT P6SM
                       SKC FM051200 VRB04KT P6SM SCT010=
201409041529 TAF AMD KPAE 041529Z 0415/0512 VRB04KT P6SM SKC
                      TEMPO 0415/0417 1/4SM FG BKN001 FM041700
                       35007KT P6SM SKC FM050500 02004KT P6SM SKC=
201409041121 TAF KPAE 041121Z 0412/0512 VRB04KT P6SM SKC
                      TEMPO 0412/0416 3SM BR SCT001 FM041700 35007KT
                       P6SM SKC FM050500 02004KT P6SM SKC=
201409040520 TAF KPAE 040520Z 0406/0506 VRB04KT P6SM SKC FM041200 VRB03KT P6SM
                       VCFG SKC FM041700 35006KT P6SM SKC FM050500
                       02004KT P6SM SKC=
201409032320 TAF KPAE 032320Z 0400/0424 28004KT P6SM SCT040 FM040100 32006KT
                       P6SM SKC FM041200 VRB03KT P6SM VCFG SKC
                       FM041700 33006KT P6SM SKC=
201409032011 TAF AMD KPAE 032011Z 0320/0418 24006KT P6SM BKN040 FM032300 28004KT
                       P6SM SCT040 FM040100 32006KT P6SM SKC FM041200
                       VRB03KT P6SM VCFG SKC=
201409031824 TAF AMD KPAE 031824Z 0318/0418 24006KT P6SM BKN030 FM032100 28004KT
                       P6SM SCT035 FM032300 32006KT P6SM SKC FM041200
                       VRB03KT P6SM VCFG SKC=
201409031730 TAF KPAE 031730Z 0318/0418 24006KT P6SM SCT020 FM032100 28004KT
                       P6SM SCT035 FM032300 32006KT P6SM SKC FM041200
                       VRB03KT P6SM VCFG SKC=
201409031614 TAF AMD KPAE 031614Z 0316/0412 25006KT P6SM VCFG SCT015
                      TEMPO 0316/0318 BKN015 FM031800 24005KT P6SM
                       BKN030
                      TEMPO 0318/0321 SCT030 FM032100 VRB04KT P6SM
                       SCT035 FM032300 35004KT P6SM SKC=
201409031427 TAF AMD KPAE 031427Z 0314/0412 25006KT P6SM VCFG SCT010 BKN025
                       TEMPO 0314/0318 BKN010 BKN025 FM031800 24005KT
                       P6SM BKN030 FM032100 VRB04KT P6SM SCT035
                       FM032300 35004KT P6SM SKC=
201409031425 TAF AMD KPAE 031425Z 0314/0412 25065KT P6SM VCFG SCT010 BKN025
                       TEMPO 0314/0318 BKN010 BKN025 FM031800 24005KT
                       P6SM BKN030 FM032100 VRB04KT P6SM SCT035
                       FM032300 35004KT P6SM SKC=
201409031315 KPAE 031315Z 0313/0412 25005KT P6SM SCT018 BKN040 FM031500 24004KT
                       P6SM BKN018 FM031800 24005KT P6SM BKN030
                       FM032100 VRB04KT P6SM SCT035 FM032300 35004KT
                       P6SM SKC=
201409031120 TAF KPAE 031120Z 0312/0412 25005KT P6SM OVC025 FM031800 24005KT
                       P6SM BKN030 FM032100 VRB04KT P6SM SCT035
                       FM032300 35004KT P6SM SKC=
201409030524 TAF KPAE 030524Z 0306/0406 35006KT P6SM -SHRA SCT015 OVC025
                      TEMPO 0306/0309 3SM -SHRA BKN015 FM030900
                       17005KT P6SM BKN015 OVC025
                      TEMPO 0312/0314 5SM BR OVC008 FM031800 19005KT
                       P6SM BKN020 FM032100 VRB04KT P6SM SCT030=
201409022346 TAF KPAE 022346Z 0300/0324 21012KT P6SM VCSH BKN025 OVC060 FM030300
                       35006KT P6SM VCSH OVC020 FM030600 VRB04KT
                       P6SM OVC025 FM031200 17005KT P6SM BKN015
                       OVC025
                      TEMPO 0312/0314 5SM BR OVC008 FM031800 19005KT
                       P6SM BKN020 FM032100 VRB04KT P6SM SCT030=
201409021941 TAF AMD KPAE 021941Z 0220/0318 VRB04KT P6SM BKN020 OVC025 FM022100
                       21010KT P6SM -SHRA OVC025 FM030300 35006KT
                       P6SM -SHRA OVC020 FM030600 VRB04KT P6SM
                       VCSH OVC025 FM031200 17005KT P6SM BKN015
                       OVC025
                      TEMPO 0312/0314 5SM BR OVC008=
201409021755 TAF KPAE 021755Z 0218/0318 VRB04KT P6SM SCT015 BKN040 FM022100
                       21010KT P6SM -SHRA OVC025 FM030300 35006KT
                       P6SM -SHRA OVC020 FM030600 VRB04KT P6SM
                       VCSH OVC025 FM031200 17005KT P6SM BKN015
                       OVC025
                      TEMPO 0312/0314 5SM BR OVC008=
201409021124 TAF KPAE 021124Z 0212/0312 36006KT P6SM FEW025 OVC040 FM021400
                       VRB03KT P6SM OVC022 FM021800 20008KT P6SM
                       BKN030 FM022100 21010KT P6SM -SHRA OVC025
                       FM030300 35006KT P6SM -SHRA OVC020=
201409020904 TAF AMD KPAE 020904Z 0209/0306 36009KT P6SM OVC040 FM021000 VRB04KT
                       P6SM OVC020 FM021200 VRB04KT P6SM OVC010
                       FM021800 19008KT P6SM OVC025 FM022000 18010KT
                       P6SM -SHRA OVC020=
201409020520 TAF KPAE 020520Z 0206/0306 36007KT P6SM BKN040 BKN070 FM020800
                       VRB04KT P6SM OVC020 FM021100 VRB04KT P6SM
                       OVC010 FM021800 19008KT P6SM OVC025 FM022000
                       18010KT P6SM -SHRA OVC020=
201409012351 TAF KPAE 012351Z 0200/0224 26006KT P6SM SKC FM020300 36004KT P6SM
                       BKN035 FM020800 VRB04KT P6SM OVC020 FM021100
                       VRB04KT P6SM OVC010 FM021800 19008KT P6SM
                       OVC025 FM022000 18010KT P6SM -SHRA OVC020=
201409011745 TAF KPAE 011745Z 0118/0218 16006KT P6SM OVC015 FM011900 21007KT
                       P6SM BKN020 FM012100 34006KT P6SM BKN045
                       FM020400 03005KT P6SM BKN035 FM020800 VRB04KT
                       P6SM OVC020 FM021100 VRB04KT P6SM OVC010=
201409011120 TAF KPAE 011120Z 0112/0212 12004KT P6SM SCT040 BKN100 FM011300
                       14005KT P6SM BKN025 OVC040 FM011700 18006KT
                       P6SM BKN040 FM011900 23007KT P6SM SCT050
                       FM012100 36006KT P6SM BKN050 FM020400 03005KT
                       P6SM BKN050 FM020800 VRB04KT P6SM OVC025
                       FM021100 VRB04KT P6SM OVC015=
201409011019 TAF AMD KPAE 011019Z 0110/0206 12004KT P6SM SCT040 BKN100 FM011300
                       14005KT P6SM BKN025 OVC040 FM011700 18006KT
                       P6SM BKN040 FM011900 23007KT P6SM SCT050
                       FM012100 36006KT P6SM BKN050 FM020400 03005KT
                       P6SM BKN050=
201409010529 TAF KPAE 010529Z 0106/0206 VRB04KT P6SM SCT040 BKN080 FM011000
                       14004KT P6SM BKN025 BKN040 FM011100 16005KT
                       P6SM OVC020 FM011700 18006KT P6SM BKN040
                       FM011900 23007KT P6SM SCT050 FM012100 36006KT
                       P6SM BKN050 FM020400 03005KT P6SM BKN050=