##########################################################
# Query made at 02/15/2025 20:56:35 UTC
# Time interval: from 08/01/2014 00:00  to 08/31/2014 23:59  UTC
##########################################################

##########################################################
# KPAE, Everett, Snohomish County Airport (United States)
# WMO index: -----. WIGOS ID: Unknown
# Latitude 47-55-23N. Longitude 122-16-57W. Altitude 184 m.
##########################################################

###################################
#  METAR/SPECI from KPAE
###################################
201408312353 METAR KPAE 312353Z 33004KT 10SM OVC090 19/11 A3005 RMK AO2 SLP175 T01890106 10206 20156 58008=
201408312253 METAR KPAE 312253Z 23005KT 10SM SCT090 19/12 A3006 RMK AO2 SLP178 T01890117=
201408312153 METAR KPAE 312153Z 28005KT 10SM BKN027 BKN040 19/12 A3007 RMK AO2 SLP180 T01890117=
201408312053 METAR KPAE 312053Z 30006KT 10SM FEW024 SCT029 SCT080 19/12 A3007 RMK AO2 SLP182 T01890122 50000=
201408311953 METAR KPAE 311953Z 25007KT 10SM SCT025 BKN032 BKN039 17/13 A3008 RMK AO2 SLP184 T01720133=
201408311900 SPECI KPAE 311900Z 23003KT 10SM SCT012 BKN032 OVC047 16/13 A3008 RMK AO2 T01610133=
201408311853 METAR KPAE 311853Z 00000KT 10SM BKN005 BKN012 16/13 A3008 RMK AO2 SLP185 T01610133=
201408311753 METAR KPAE 311753Z 17007KT 10SM BKN005 BKN012 17/12 A3007 RMK AO2 SLP182 T01670122 10167 20128 53006=
201408311723 SPECI KPAE 311723Z 19007KT 10SM BKN005 BKN012 16/12 A3007 RMK AO2 T01610122=
201408311701 SPECI KPAE 311701Z 19008KT 10SM BKN012 BKN085 16/12 A3006 RMK AO2 T01560122=
201408311653 METAR KPAE 311653Z 17006KT 10SM SCT012 OVC085 16/12 A3006 RMK AO2 SLP179 T01560122=
201408311553 METAR KPAE 311553Z 16006KT 10SM FEW039 OVC085 14/12 A3006 RMK AO2 SLP178 T01390117=
201408311453 METAR KPAE 311453Z 16005KT 10SM FEW042 OVC085 13/12 A3005 RMK AO2 SLP176 T01330117 53011=
201408311353 METAR KPAE 311353Z 16006KT 10SM BKN024 BKN038 OVC085 13/12 A3004 RMK AO2 SLP173 T01280117=
201408311300 SPECI KPAE 311300Z AUTO 15004KT 10SM BKN026 BKN085 13/12 A3003 RMK AO2 T01280117=
201408311253 METAR KPAE 311253Z AUTO 15003KT 10SM SCT026 OVC085 13/12 A3003 RMK AO2 SLP167 T01280117=
201408311153 METAR KPAE 311153Z AUTO 11006KT 10SM FEW004 BKN065 OVC080 13/12 A3002 RMK AO2 RAE05 SLP164 P0000 60022 70023 T01280117 10156 20128 53002=
201408311103 SPECI KPAE 311103Z AUTO 11005KT 9SM -RA FEW004 SCT041 OVC055 13/12 A3002 RMK AO2 P0000 T01330122=
201408311053 METAR KPAE 311053Z AUTO 00000KT 3SM -RA BR FEW043 OVC050 13/12 A3002 RMK AO2 SLP164 P0008 T01330122=
201408310953 METAR KPAE 310953Z AUTO VRB03KT 5SM -RA BR FEW020 FEW028 OVC042 13/11 A3002 RMK AO2 SLP163 P0006 T01330111=
201408310938 SPECI KPAE 310938Z AUTO 19004KT 2SM RA BR FEW020 BKN033 OVC044 13/12 A3002 RMK AO2 P0005 T01330122=
201408310853 METAR KPAE 310853Z AUTO 00000KT 5SM -RA BR FEW019 FEW027 OVC035 14/12 A3000 RMK AO2 SLP157 P0006 60008 T01390117 50003=
201408310848 SPECI KPAE 310848Z AUTO 12004KT 4SM -RA BR FEW017 SCT027 OVC035 14/12 A3000 RMK AO2 P0005=
201408310753 METAR KPAE 310753Z AUTO 00000KT 7SM -RA SCT014 BKN020 OVC041 14/13 A3000 RMK AO2 SLP157 P0000 T01440128 401940139=
201408310740 SPECI KPAE 310740Z AUTO 00000KT 9SM -RA SCT018 BKN023 OVC034 14/12 A3000 RMK AO2 P0000 T01440122=
201408310732 SPECI KPAE 310732Z AUTO 00000KT 7SM -RA SCT021 BKN034 OVC060 14/12 A2999 RMK AO2 P0000 T01440122=
201408310653 METAR KPAE 310653Z AUTO VRB03KT 7SM RA OVC018 14/12 A2999 RMK AO2 RAB28 SLP154 P0002 T01440122=
201408310553 METAR KPAE 310553Z AUTO 00000KT 10SM OVC020 15/11 A2998 RMK AO2 SLP150 60000 T01500111 10189 20150 53016=
201408310453 METAR KPAE 310453Z 02006KT 10SM BKN025 BKN032 OVC070 15/11 A2996 RMK AO2 SLP144 T01500111=
201408310353 METAR KPAE 310353Z 35006KT 10SM FEW038 OVC060 16/11 A2995 RMK AO2 RAE24 SLP140 P0000 T01560106=
201408310253 METAR KPAE 310253Z 31008KT 10SM -RA FEW032 OVC060 17/10 A2993 RMK AO2 RAB52 SLP134 P0000 60000 T01670100 53009=
201408310153 METAR KPAE 310153Z 36006KT 10SM OVC075 17/12 A2991 RMK AO2 SLP128 T01670117=
201408310053 METAR KPAE 310053Z VRB06KT 10SM SCT030 OVC090 18/13 A2991 RMK AO2 SLP126 T01780128=
201408302353 METAR KPAE 302353Z 01004KT 10SM SCT016 BKN030 OVC060 19/14 A2991 RMK AO2 SLP125 60001 T01890139 10194 20156 55003=
201408302301 SPECI KPAE 302301Z 27004KT 10SM SCT014 BKN025 OVC034 18/13 A2990 RMK AO2 T01830133=
201408302253 METAR KPAE 302253Z 33003KT 10SM SCT025 BKN034 OVC042 18/13 A2990 RMK AO2 SLP124 T01780133=
201408302238 SPECI KPAE 302238Z AUTO 25005KT 10SM SCT014 BKN026 OVC030 18/13 A2990 RMK AO2 T01780133=
201408302204 SPECI KPAE 302204Z 00000KT 10SM BKN011 BKN021 OVC035 17/14 A2991 RMK AO2 T01720144=
201408302156 SPECI KPAE 302156Z 15003KT 10SM FEW011 BKN034 OVC045 17/14 A2991 RMK AO2 T01720139=
201408302153 METAR KPAE 302153Z 00000KT 10SM FEW002 SCT009 BKN020 17/14 A2991 RMK AO2 RAB00E10 SLP127 VIS SE 2 P0000 T01720144=
201408302129 SPECI KPAE 302129Z 20003KT 10SM SCT002 BKN020 OVC032 17/14 A2991 RMK AO2 RAB00E10 VIS SE 2 P0000 T01670144=
201408302053 METAR KPAE 302053Z 00000KT 2SM BR SCT008 BKN014 OVC029 17/14 A2991 RMK AO2 RAB04E35 SLP128 P0001 60001 T01670144 54000=
201408302051 SPECI KPAE 302051Z 00000KT 2SM BR FEW008 BKN014 OVC029 16/14 A2991 RMK AO2 RAB04E35 P0001=
201408302045 SPECI KPAE 302045Z 15003KT 2SM BR BKN016 OVC025 16/14 A2991 RMK AO2 RAB04E35 P0001 T01610139=
201408302041 SPECI KPAE 302041Z 18003KT 9SM BKN016 OVC025 17/14 A2991 RMK AO2 RAB04E35 P0001 T01670139=
201408301953 METAR KPAE 301953Z 16005KT 10SM SCT009 BKN014 17/13 A2991 RMK AO2 SLP128 T01670128=
201408301950 SPECI KPAE 301950Z VRB03KT 10SM SCT009 BKN014 17/13 A2991 RMK AO2=
201408301853 METAR KPAE 301853Z 17006KT 10SM BKN009 OVC012 16/13 A2991 RMK AO2 SLP128 T01610133=
201408301851 SPECI KPAE 301851Z 16008KT 10SM BKN007 OVC012 16/13 A2991 RMK AO2=
201408301753 METAR KPAE 301753Z 17006KT 10SM SCT006 BKN010 OVC025 16/13 A2992 RMK AO2 RAB19E37 SLP131 P0000 60000 T01610133 10161 20139 53001=
201408301737 SPECI KPAE 301737Z 18007KT 10SM SCT006 BKN010 OVC025 16/14 A2992 RMK AO2 RAB19E37 P0000 T01610139=
201408301657 SPECI KPAE 301657Z 19008KT 10SM BKN010 OVC022 16/13 A2992 RMK AO2 T01610133=
201408301653 METAR KPAE 301653Z 18008KT 10SM SCT008 OVC029 16/13 A2992 RMK AO2 SLP130 T01610133=
201408301615 SPECI KPAE 301615Z 16007KT 10SM SCT008 OVC029 16/13 A2991 RMK AO2 T01560133=
201408301553 METAR KPAE 301553Z 15007KT 8SM BKN008 OVC032 15/14 A2991 RMK AO2 SLP128 T01500139=
201408301453 METAR KPAE 301453Z 00000KT 8SM BKN005 OVC013 15/14 A2992 RMK AO2 SLP130 60000 T01500139 56004=
201408301353 METAR KPAE 301353Z 00000KT 8SM BKN005 OVC013 14/13 A2993 RMK AO2 CIG 002V007 SLP132 T01390128=
201408301332 SPECI KPAE 301332Z AUTO 00000KT 9SM BKN005 OVC014 14/13 A2992 RMK AO2 CIG 003V007 T01390133=
201408301322 SPECI KPAE 301322Z AUTO 00000KT 9SM BKN003 OVC014 14/13 A2992 RMK AO2 CIG 003V007 T01390128=
201408301253 METAR KPAE 301253Z AUTO 00000KT 10SM FEW004 OVC014 14/13 A2992 RMK AO2 RAE1157 SLP130 P0000 T01390128=
201408301240 SPECI KPAE 301240Z AUTO 00000KT 10SM SCT004 OVC014 14/13 A2992 RMK AO2 RAE1157 P0000 T01390128=
201408301212 SPECI KPAE 301212Z AUTO 03003KT 10SM FEW004 OVC017 14/13 A2993 RMK AO2 RAE1157 P0000 T01390128=
201408301153 METAR KPAE 301153Z AUTO 00000KT 10SM -RA OVC020 14/13 A2993 RMK AO2 RAE02B22 SLP134 P0001 60003 70004 T01390128 10156 20139 58005=
201408301053 METAR KPAE 301053Z AUTO 35003KT 9SM -RA BKN025 OVC031 14/13 A2994 RMK AO2 RAE31B48 SLP137 P0001 T01390128 TSNO=
201408300953 METAR KPAE 300953Z AUTO 30006KT 7SM -RA BKN022 OVC038 14/13 A2995 RMK AO2 RAB42 SLP139 P0001 T01440128 TSNO=
201408300853 METAR KPAE 300853Z AUTO 00000KT 10SM OVC022 16/12 A2994 RMK AO2 SLP139 60000 T01560122 58003 TSNO=
201408300753 METAR KPAE 300753Z AUTO 00000KT 10SM BKN024 OVC029 15/12 A2996 RMK AO2 SLP142 T01500122 402000144 TSNO=
201408300717 SPECI KPAE 300717Z AUTO 00000KT 10SM OVC029 14/12 A2995 RMK AO2 T01440117 TSNO=
201408300653 METAR KPAE 300653Z AUTO 00000KT 10SM SCT031 BKN041 BKN070 15/12 A2996 RMK AO2 RAB05E15 SLP142 P0000 T01500117 TSNO=
201408300553 METAR KPAE 300553Z AUTO 32004KT 10SM SCT029 OVC041 15/13 A2995 RMK AO2 RAB18E29 SLP142 P0000 60001 T01500128 10200 20150 50001 TSNO=
201408300453 METAR KPAE 300453Z 36004KT 10SM BKN030 BKN040 OVC048 16/14 A2996 RMK AO2 RAE28 SLP142 P0000 T01610139=
201408300353 METAR KPAE 300353Z 35003KT 5SM -RA BR BKN032 OVC038 16/14 A2996 RMK AO2 RAB39 SLP144 P0001 T01610139=
201408300253 METAR KPAE 300253Z 36005KT 10SM BKN038 BKN045 18/13 A2995 RMK AO2 SLP141 T01780133 56007=
201408300153 METAR KPAE 300153Z 36004KT 10SM FEW033 BKN070 BKN110 19/13 A2995 RMK AO2 SLP141 T01890128=
201408300053 METAR KPAE 300053Z 00000KT 10SM BKN042 OVC070 19/12 A2996 RMK AO2 SLP145 T01940122=
201408292353 METAR KPAE 292353Z 17005KT 10SM SCT030 OVC037 19/12 A2997 RMK AO2 SLP148 60000 T01940122 10200 20150 58010=
201408292253 METAR KPAE 292253Z 00000KT 10SM BKN021 BKN030 OVC085 18/14 A2999 RMK AO2 SLP152 T01780139=
201408292153 METAR KPAE 292153Z VRB03KT 10SM BKN021 BKN028 BKN085 18/14 A2999 RMK AO2 RAE17 SLP156 P0000 T01780139=
201408292053 METAR KPAE 292053Z VRB03KT 10SM -RA BKN016 OVC080 18/13 A3000 RMK AO2 RAB50 SLP158 P0000 60000 T01780133 58000=
201408292048 SPECI KPAE 292048Z 17005KT 10SM OVC015 18/13 A3000 RMK AO2=
201408291953 METAR KPAE 291953Z 00000KT 10SM FEW005 SCT009 OVC014 16/13 A3001 RMK AO2 RAE21 SLP159 P0000 T01610128=
201408291853 METAR KPAE 291853Z 22003KT 10SM -RA OVC012 15/12 A3000 RMK AO2 RAB35 SLP159 P0000 T01500122=
201408291753 METAR KPAE 291753Z 27007KT 10SM OVC012 15/11 A3001 RMK AO2 SLP159 60000 T01500106 10156 20144 53004=
201408291653 METAR KPAE 291653Z 00000KT 10SM OVC013 16/11 A3000 RMK AO2 SLP156 T01560111=
201408291553 METAR KPAE 291553Z VRB03KT 10SM SCT006 OVC014 15/08 A3000 RMK AO2 SLP156 T01500078=
201408291524 SPECI KPAE 291524Z 00000KT 10SM SCT006 OVC014 15/07 A3000 RMK AO2 T01500072=
201408291453 METAR KPAE 291453Z 36004KT 10SM OVC014 15/08 A2999 RMK AO2 RAE03 SLP155 P0000 60000 T01500083 53001=
201408291353 METAR KPAE 291353Z 02003KT 10SM -RA OVC014 15/09 A2999 RMK AO2 RAB53 SLP152 P0000 T01500094=
201408291253 METAR KPAE 291253Z AUTO 03004KT 10SM OVC012 15/09 A2998 RMK AO2 SLP149 T01500094=
201408291153 METAR KPAE 291153Z AUTO VRB03KT 10SM OVC014 15/10 A2999 RMK AO2 SLP153 T01500100 10156 20144 56004=
201408291127 SPECI KPAE 291127Z AUTO VRB03KT 10SM OVC014 15/11 A3000 RMK AO2 T01500111=
201408291120 SPECI KPAE 291120Z AUTO 03005KT 10SM OVC016 15/11 A3000 RMK AO2 T01500111=
201408291053 METAR KPAE 291053Z AUTO 02004KT 10SM OVC014 15/11 A2999 RMK AO2 SLP154 T01500111=
201408290953 METAR KPAE 290953Z AUTO 01004KT 10SM OVC014 15/12 A3000 RMK AO2 SLP155 T01500117=
201408290853 METAR KPAE 290853Z AUTO 34003KT 10SM OVC026 15/12 A3000 RMK AO2 SLP157 T01500117 56012=
201408290811 SPECI KPAE 290811Z AUTO 36003KT 10SM BKN028 15/12 A3001 RMK AO2 T01500122=
201408290753 METAR KPAE 290753Z AUTO 00000KT 10SM SCT030 15/12 A3001 RMK AO2 SLP161 T01500122 402170139=
201408290653 METAR KPAE 290653Z AUTO 36005KT 10SM FEW027 BKN036 15/12 A3002=
201408290553 METAR KPAE 290553Z AUTO 01006KT 10SM FEW026 SCT032 16/12 A3004 RMK AO2 SLP170 T01560122 10217 20156 58003=
201408290535 SPECI KPAE 290535Z AUTO 01007KT 10SM SCT027 OVC032 16/13 A3004 RMK AO2 T01560128=
201408290453 METAR KPAE 290453Z AUTO 02007KT 10SM BKN026 16/14 A3005 RMK AO2 SLP173 T01610139=
201408290445 SPECI KPAE 290445Z AUTO 02005KT 10SM BKN026 16/14 A3005 RMK AO2 T01610139=
201408290353 METAR KPAE 290353Z AUTO 01004KT 10SM CLR 17/14 A3005 RMK AO2 SLP176 T01670139=
201408290253 METAR KPAE 290253Z 00000KT 10SM OVC060 19/14 A3004=
201408290153 METAR KPAE 290153Z 24005KT 10SM CLR 20/14 A3005 RMK AO2 SLP176 T02000144=
201408290053 METAR KPAE 290053Z 25006KT 10SM SCT075 21/14 A3006 RMK AO2 SLP177 T02060144=
201408282353 METAR KPAE 282353Z 27006KT 10SM FEW075 SCT090 22/14 A3008 RMK AO2 SLP182 T02170144 10217 20161 58012=
201408282253 METAR KPAE 282253Z 24005KT 10SM CLR 21/14 A3009 RMK AO2 SLP186 T02060144=
201408282153 METAR KPAE 282153Z COR 26009KT 10SM FEW012 21/14 A3010 RMK AO2 SLP191 T02060144=
201408282104 SPECI KPAE 282104Z 25011KT 10SM SCT021 19/14 A3011 RMK AO2 T01940139=
201408282053 METAR KPAE 282053Z 26010KT 10SM BKN021 20/14 A3011 RMK AO2 SLP194 T02000144 58006=
201408281953 METAR KPAE 281953Z 15007KT 10SM OVC019 19/13 A3012 RMK AO2 SLP197 T01890133=
201408281853 METAR KPAE 281853Z 21004KT 10SM OVC015 18/14 A3013=
201408281825 SPECI KPAE 281825Z 24007KT 10SM OVC015 17/13 A3013 RMK AO2 T01720133=
201408281753 METAR KPAE 281753Z 26007KT 10SM BKN012 OVC018 17/13 A3013=
201408281735 SPECI KPAE 281735Z 25006KT 10SM BKN014 OVC019 17/14 A3012 RMK AO2 T01670139=
201408281722 SPECI KPAE 281722Z 26005KT 10SM OVC017 17/14 A3012 RMK AO2 T01720139=
201408281653 METAR KPAE 281653Z 19010KT 10SM BKN010 OVC016 17/13 A3011 RMK AO2 SLP196 T01670133=
201408281624 SPECI KPAE 281624Z 17007KT 10SM OVC010 17/13 A3011 RMK AO2 T01670133=
201408281553 METAR KPAE 281553Z 18008KT 10SM OVC009 16/14 A3011 RMK AO2 SLP193 T01610139=
201408281453 METAR KPAE 281453Z 22003KT 10SM OVC007 15/14 A3010 RMK AO2 CIG 005V011 SLP193 T01500139 53008=
201408281353 METAR KPAE 281353Z 28004KT 10SM OVC007 14/13 A3009 RMK AO2 SLP188 T01440133=
201408281338 SPECI KPAE 281338Z AUTO 27003KT 10SM BKN006 14/14 A3009 RMK AO2 T01440139=
201408281330 SPECI KPAE 281330Z AUTO 29003KT 10SM SCT007 14/13 A3009 RMK AO2 T01440133=
201408281253 METAR KPAE 281253Z AUTO 33003KT 10SM FEW055 15/14 A3008=
201408281153 METAR KPAE 281153Z AUTO 05004KT 10SM BKN055 16/14 A3008 RMK AO2 SLP182 T01560139 10172 20156 50008=
201408281053 METAR KPAE 281053Z AUTO 06003KT 10SM FEW060 16/14 A3008 RMK AO2 SLP182 T01560139=
201408280953 METAR KPAE 280953Z AUTO 02004KT 10SM BKN070 16/14 A3007 RMK AO2 SLP179 T01610139=
201408280853 METAR KPAE 280853Z AUTO 02004KT 10SM BKN070 16/14 A3005 RMK AO2 SLP174 T01610139 53005=
201408280753 METAR KPAE 280753Z AUTO 02006KT 10SM BKN075 16/14 A3005 RMK AO2 SLP172 T01610139 402670161=
201408280653 METAR KPAE 280653Z AUTO 36006KT 10SM OVC070 17/14 A3004 RMK AO2 SLP170 T01670139=
201408280553 METAR KPAE 280553Z AUTO 36007KT 10SM BKN075 OVC090 17/14 A3004 RMK AO2 SLP169 T01720139 10256 20172 51004=
201408280453 METAR KPAE 280453Z AUTO 01010G16KT 10SM OVC070 18/13 A3003 RMK AO2 SLP167 T01780128=
201408280353 METAR KPAE 280353Z 02008KT 10SM OVC080 19/12 A3003 RMK AO2 SLP167 T01890117=
201408280253 METAR KPAE 280253Z 03008KT 10SM BKN080 19/13 A3003 RMK AO2 SLP165 T01890133 57002=
201408280153 METAR KPAE 280153Z 36006KT 10SM BKN080 22/14 A3003 RMK AO2 SLP166 T02170139=
201408280053 METAR KPAE 280053Z 36005KT 10SM CLR 23/14 A3003 RMK AO2 SLP165 T02280144=
201408272353 METAR KPAE 272353Z 35007KT 10SM CLR 26/14 A3003 RMK AO2 SLP166 T02560139 10267 20228 56007=
201408272253 METAR KPAE 272253Z VRB04KT 10SM CLR 26/14 A3004 RMK AO2 SLP168 T02610144=
201408272153 METAR KPAE 272153Z 28006KT 10SM CLR 26/15 A3005 RMK AO2 SLP171 T02610150=
201408272053 METAR KPAE 272053Z 29004KT 10SM CLR 24/15 A3005 RMK AO2 SLP174 T02440150 58004=
201408271953 METAR KPAE 271953Z 28006KT 10SM CLR 24/14 A3006 RMK AO2 SLP176 T02440144=
201408271853 METAR KPAE 271853Z 25005KT 10SM CLR 23/14 A3006 RMK AO2 SLP177 T02330144=
201408271753 METAR KPAE 271753Z 28005KT 10SM CLR 23/14 A3007 RMK AO2 SLP178 T02280139 10228 20161 53003=
201408271653 METAR KPAE 271653Z 02003KT 10SM CLR 22/15 A3006 RMK AO2 SLP177 T02170150=
201408271553 METAR KPAE 271553Z 00000KT 10SM CLR 21/14 A3005 RMK AO2 SLP174 T02110144=
201408271453 METAR KPAE 271453Z 00000KT 10SM CLR 18/14 A3006 RMK AO2 SLP175 T01830144 53009=
201408271353 METAR KPAE 271353Z AUTO 00000KT 10SM CLR 17/14 A3004 RMK AO2 SLP171 T01670139=
201408271253 METAR KPAE 271253Z AUTO 00000KT 10SM CLR 18/14 A3003 RMK AO2 SLP165 T01780139=
201408271153 METAR KPAE 271153Z AUTO 05004KT 10SM CLR 18/14 A3003 RMK AO2 SLP164 T01830139 10189 20172 53001=
201408271053 METAR KPAE 271053Z AUTO 06003KT 10SM CLR 18/14 A3003 RMK AO2 SLP164 T01830139=
201408270953 METAR KPAE 270953Z AUTO 06003KT 10SM CLR 18/13 A3002 RMK AO2 SLP161 T01830133=
201408270853 METAR KPAE 270853Z AUTO VRB04KT 10SM CLR 19/13 A3003 RMK AO2 SLP163 T01890133 53005=
201408270753 METAR KPAE 270753Z AUTO 02005KT 10SM CLR 18/13 A3002 RMK AO2 SLP161 T01830133 402830150=
201408270653 METAR KPAE 270653Z AUTO 02006KT 10SM CLR 18/13 A3001 RMK AO2 SLP159 T01780133=
201408270553 METAR KPAE 270553Z AUTO 36008KT 10SM CLR 17/12 A3001 RMK AO2 SLP159 T01720122 10283 20172 51005=
201408270453 METAR KPAE 270453Z 01005KT 10SM CLR 19/12 A3001 RMK AO2 SLP159 T01940122=
201408270353 METAR KPAE 270353Z 36003KT 10SM CLR 22/13 A3000 RMK AO2 SLP156 T02220128=
201408270253 METAR KPAE 270253Z 35004KT 10SM CLR 24/12 A2999 RMK AO2 SLP154 T02440117 56006=
201408270247 METAR KPAE 270247Z 34011KT 20SM SKC 20/16 A2995=
201408270153 METAR KPAE 270153Z 35006KT 10SM CLR 27/11 A3000 RMK AO2 SLP154 T02670106=
201408270053 METAR KPAE 270053Z 34005KT 10SM CLR 28/12 A3000 RMK AO2 SLP155 T02780117=
201408262353 METAR KPAE 262353Z VRB04KT 10SM CLR 28/14 A3001 RMK AO2 SLP160 T02780139 10283 20222 56013=
201408262253 METAR KPAE 262253Z 31005KT 10SM CLR 28/14 A3002 RMK AO2 SLP163 T02780139=
201408262153 METAR KPAE 262153Z VRB04KT 10SM CLR 28/14 A3004 RMK AO2 SLP168 T02780144=
201408262053 METAR KPAE 262053Z 30005KT 10SM CLR 27/14 A3005 RMK AO2 SLP173 T02670139 58005=
201408261953 METAR KPAE 261953Z VRB05KT 10SM CLR 25/14 A3006 RMK AO2 SLP176 T02500144=
201408261853 METAR KPAE 261853Z 30006KT 10SM CLR 24/14 A3006 RMK AO2 SLP178 T02390139=
201408261753 METAR KPAE 261753Z 34003KT 10SM CLR 22/14 A3006 RMK AO2 SLP177 T02220144 10222 20150 50000=
201408261653 METAR KPAE 261653Z 00000KT 10SM CLR 21/14 A3007 RMK AO2 SLP179 T02110144=
201408261553 METAR KPAE 261553Z VRB03KT 10SM CLR 20/13 A3007 RMK AO2 SLP178 T02000133=
201408261453 METAR KPAE 261453Z 00000KT 10SM CLR 19/13 A3006 RMK AO2 SLP177 T01890128 53007=
201408261353 METAR KPAE 261353Z 36003KT 10SM CLR 16/12 A3005 RMK AO2 SLP173 T01560117=
201408261253 METAR KPAE 261253Z AUTO 36003KT 10SM CLR 16/12 A3004 RMK AO2 SLP170 T01560117=
201408261153 METAR KPAE 261153Z AUTO 00000KT 10SM CLR 15/12 A3004 RMK AO2 SLP169 T01500122 10183 20150 53003=
201408261053 METAR KPAE 261053Z AUTO 00000KT 10SM CLR 15/12 A3003 RMK AO2 SLP166 T01500122=
201408260953 METAR KPAE 260953Z AUTO 00000KT 10SM CLR 16/13 A3004 RMK AO2 SLP168 T01610128=
201408260853 METAR KPAE 260853Z AUTO 35003KT 10SM CLR 16/13 A3003 RMK AO2 SLP166 T01610128 50005=
201408260753 METAR KPAE 260753Z AUTO 01004KT 10SM CLR 18/13 A3003 RMK AO2 SLP166 T01780133 402670144=
201408260653 METAR KPAE 260653Z AUTO 00000KT 10SM CLR 18/13 A3002 RMK AO2 SLP164 T01780128=
201408260553 METAR KPAE 260553Z AUTO 03004KT 10SM CLR 18/13 A3001 RMK AO2 SLP162 T01830133 10261 20178 51009=
201408260453 METAR KPAE 260453Z AUTO 35005KT 10SM CLR 19/13 A3001 RMK AO2 SLP159 T01940128=
201408260353 METAR KPAE 260353Z 35003KT 10SM CLR 22/12 A3000 RMK AO2 SLP156 T02170117=
201408260253 METAR KPAE 260253Z 33004KT 10SM SCT095 23/12 A2999 RMK AO2 SLP151 T02280122 55002=
201408260153 METAR KPAE 260153Z 34004KT 10SM CLR 24/12 A2998 RMK AO2 SLP149 T02440117=
201408260053 METAR KPAE 260053Z 32004KT 10SM CLR 26/13 A2999 RMK AO2 SLP151 T02560133=
201408252353 METAR KPAE 252353Z 35006KT 10SM CLR 26/12 A2999 RMK AO2 SLP153 T02610122 10267 20200 56009=
201408252253 METAR KPAE 252253Z 01006KT 10SM CLR 26/12 A3000 RMK AO2 SLP155 T02610122=
201408252153 METAR KPAE 252153Z 36003KT 10SM CLR 26/14 A3001 RMK AO2 SLP157 T02560139=
201408252053 METAR KPAE 252053Z 02004KT 10SM CLR 24/13 A3002 RMK AO2 SLP163 T02440133 58008=
201408251953 METAR KPAE 251953Z 30005KT 10SM CLR 23/12 A3003 RMK AO2 SLP167 T02330122=
201408251853 METAR KPAE 251853Z 30005KT 10SM CLR 22/13 A3004 RMK AO2 SLP170 T02170133=
201408251753 METAR KPAE 251753Z 28004KT 10SM CLR 20/13 A3005 RMK AO2 SLP172 T02000128 10200 20150 53002=
201408251653 METAR KPAE 251653Z 27003KT 10SM CLR 19/13 A3004 RMK AO2 SLP170 T01890128=
201408251553 METAR KPAE 251553Z 01003KT 10SM CLR 18/12 A3004 RMK AO2 SLP171 T01830117=
201408251453 METAR KPAE 251453Z 35003KT 10SM CLR 18/12 A3004 RMK AO2 SLP170 T01780122 53010=
201408251353 METAR KPAE 251353Z 00000KT 10SM CLR 16/12 A3003 RMK AO2 SLP167 T01560122=
201408251253 METAR KPAE 251253Z AUTO 12003KT 10SM CLR 16/12 A3001 RMK AO2 SLP161 T01560122=
201408251153 METAR KPAE 251153Z AUTO 00000KT 10SM CLR 16/12 A3001 RMK AO2 SLP160 T01560122 10161 20144 51002=
201408251053 METAR KPAE 251053Z AUTO 02003KT 10SM CLR 16/12 A3001 RMK AO2 SLP159 T01560117=
201408250953 METAR KPAE 250953Z AUTO 02003KT 10SM CLR 15/12 A3001 RMK AO2 SLP160 T01500117=
201408250853 METAR KPAE 250853Z AUTO 03004KT 10SM CLR 16/12 A3000=
201408250753 METAR KPAE 250753Z AUTO 03003KT 10SM CLR 15/12 A3000 RMK AO2 SLP159 T01500122 402280128=
201408250653 METAR KPAE 250653Z AUTO 36004KT 10SM CLR 15/12 A3000 RMK AO2 SLP159 T01500122=
201408250553 METAR KPAE 250553Z AUTO VRB03KT 10SM CLR 16/12 A2999 RMK AO2 SLP155 T01610122 10228 20161 51012=
201408250453 METAR KPAE 250453Z AUTO 36003KT 10SM CLR 17/13 A2999 RMK AO2 SLP153 T01720133=
201408250353 METAR KPAE 250353Z AUTO 36003KT 10SM CLR 18/13 A2997 RMK AO2 SLP148 T01830133=
201408250253 METAR KPAE 250253Z 00000KT 10SM CLR 21/12 A2996 RMK AO2 SLP143 T02110117 52008=
201408250153 METAR KPAE 250153Z 31007KT 10SM CLR 21/12 A2994 RMK AO2 SLP138 T02110117=
201408250053 METAR KPAE 250053Z 36004KT 10SM CLR 23/12 A2995 RMK AO2 SLP138 T02280117=
201408242353 METAR KPAE 242353Z 36006KT 10SM CLR 22/12 A2993 RMK AO2 SLP133 T02220122 10228 20178 58009=
201408242253 METAR KPAE 242253Z 02006KT 10SM CLR 22/11 A2994 RMK AO2 SLP137 T02220111=
201408242153 METAR KPAE 242153Z 29006KT 10SM CLR 22/13 A2995 RMK AO2 SLP140 T02170128=
201408242053 METAR KPAE 242053Z 27007KT 10SM CLR 21/13 A2996 RMK AO2 SLP143 T02110128 56014=
201408241953 METAR KPAE 241953Z 29006KT 10SM CLR 19/12 A2997 RMK AO2 SLP148 T01940122=
201408241853 METAR KPAE 241853Z 35004KT 10SM CLR 19/12 A2999 RMK AO2 SLP153 T01940117=
201408241753 METAR KPAE 241753Z 01005KT 10SM CLR 18/12 A3000 RMK AO2 SLP158 T01780117 10178 20128 50003=
201408241653 METAR KPAE 241653Z 03003KT 10SM FEW002 16/12 A3000 RMK AO2 SLP158 T01610122=
201408241610 SPECI KPAE 241610Z 03003KT 8SM R16R/5000VP6000FT FEW002 14/12 A3000 RMK AO2 T01390122=
201408241553 METAR KPAE 241553Z 02003KT 3SM BR BKN002 13/12 A3000 RMK AO2 SLP157 T01330117=
201408241533 SPECI KPAE 241533Z 36003KT 1SM R16R/P6000FT BR OVC002 13/12 A3000 RMK AO2 T01330117=
201408241453 METAR KPAE 241453Z 03005KT 3SM BR OVC002 13/12 A2999 RMK AO2 SLP155 T01330122 53003=
201408241408 SPECI KPAE 241408Z 01004KT 3SM BR BKN003 13/12 A2999 RMK AO2 T01330117=
201408241353 METAR KPAE 241353Z 36004KT 9SM FEW004 13/12 A2998 RMK AO2 SLP151 T01330117=
201408241253 METAR KPAE 241253Z 36003KT 10SM CLR 13/12 A2998 RMK AO2 SLP150 T01330117=
201408241153 METAR KPAE 241153Z 00000KT 10SM CLR 14/11 A2998 RMK AO2 SLP151 T01440111 10167 20139 58005=
201408241053 METAR KPAE 241053Z 09003KT 10SM CLR 14/12 A2999 RMK AO2 SLP153 T01440122=
201408240953 METAR KPAE 240953Z 02008KT 10SM CLR 16/11 A3000 RMK AO2 SLP156 T01560111=
201408240853 METAR KPAE 240853Z 04004KT 10SM CLR 16/12 A3000 RMK AO2 SLP156 T01610117 56011=
201408240753 METAR KPAE 240753Z 04004KT 10SM CLR 14/12 A3000 RMK AO2 SLP158 T01440117 402500139=
201408240653 METAR KPAE 240653Z 02003KT 10SM CLR 15/12 A3002 RMK AO2 SLP164 T01500117=
201408240553 METAR KPAE 240553Z 02004KT 10SM CLR 14/12 A3003 RMK AO2 SLP168 T01440117 10250 20144 58001=
201408240453 METAR KPAE 240453Z 02005KT 10SM CLR 16/11 A3003 RMK AO2 SLP168 T01610111=
201408240353 METAR KPAE 240353Z 01004KT 10SM CLR 17/13 A3004 RMK AO2 SLP171 T01720128=
201408240253 METAR KPAE 240253Z 00000KT 10SM CLR 21/12 A3003 RMK AO2 SLP168 T02110122 56011=
201408240153 METAR KPAE 240153Z 00000KT 10SM CLR 23/11 A3005 RMK AO2 SLP172 T02330111=
201408240053 METAR KPAE 240053Z VRB03KT 10SM CLR 24/11 A3006 RMK AO2 SLP176 T02390106=
201408232353 METAR KPAE 232353Z 34003KT 10SM CLR 24/12 A3007 RMK AO2 SLP180 T02390122 10250 20194 58015=
201408232253 METAR KPAE 232253Z 32005KT 10SM CLR 24/14 A3008 RMK AO2 SLP184 T02440139=
201408232153 METAR KPAE 232153Z VRB05KT 10SM CLR 24/14 A3010 RMK AO2 SLP190 T02440139=
201408232053 METAR KPAE 232053Z VRB04KT 10SM CLR 23/14 A3011 RMK AO2 SLP194 T02280139 58014=
201408231953 METAR KPAE 231953Z 30005KT 10SM CLR 22/14 A3013=
201408231853 METAR KPAE 231853Z VRB03KT 10SM CLR 21/13 A3014 RMK AO2 SLP205 T02110128=
201408231753 METAR KPAE 231753Z 09003KT 10SM CLR 19/14 A3015 RMK AO2 SLP209 T01940139 10194 20139 58001=
201408231653 METAR KPAE 231653Z 00000KT 10SM CLR 19/14 A3016 RMK AO2 SLP210 T01890144=
201408231553 METAR KPAE 231553Z 00000KT 10SM CLR 17/13 A3016 RMK AO2 SLP212 T01720133=
201408231453 METAR KPAE 231453Z 11005KT 10SM CLR 16/13 A3016 RMK AO2 SLP210 T01560128 53007=
201408231353 METAR KPAE 231353Z 09004KT 10SM CLR 14/12 A3015=
201408231253 METAR KPAE 231253Z AUTO 00000KT 10SM CLR 15/12 A3014 RMK AO2 SLP204 T01500122=
201408231153 METAR KPAE 231153Z AUTO 00000KT 10SM CLR 14/12 A3014 RMK AO2 SLP203 T01440122 10183 20144 53006=
201408231053 METAR KPAE 231053Z AUTO 00000KT 10SM CLR 16/13 A3012 RMK AO2 SLP199 T01560128=
201408230953 METAR KPAE 230953Z AUTO 11006KT 10SM CLR 16/13 A3012 RMK AO2 SLP198 T01610128=
201408230853 METAR KPAE 230853Z AUTO 11006KT 10SM CLR 17/13 A3012 RMK AO2 SLP196 T01720128 56001=
201408230753 METAR KPAE 230753Z AUTO 09005KT 10SM CLR 18/11 A3012 RMK AO2 SLP197 T01780106 402110117=
201408230653 METAR KPAE 230653Z AUTO 00000KT 10SM CLR 17/11 A3012 RMK AO2 SLP197 T01670111=
201408230553 METAR KPAE 230553Z AUTO 02003KT 10SM CLR 17/12 A3012 RMK AO2 SLP199 T01670117 10211 20167 51011=
201408230453 METAR KPAE 230453Z AUTO 36003KT 10SM CLR 17/13 A3011 RMK AO2 SLP195 T01720128=
201408230353 METAR KPAE 230353Z AUTO VRB03KT 10SM CLR 19/12 A3010 RMK AO2 SLP192 T01940122=
201408230253 METAR KPAE 230253Z VRB03KT 10SM CLR 19/13 A3009 RMK AO2 SLP187 T01940133 51006=
201408230153 METAR KPAE 230153Z AUTO VRB03KT 10SM CLR 21/13 A3008 RMK AO2 SLP186 T02060133=
201408230053 METAR KPAE 230053Z 36006KT 10SM CLR 21/13 A3008 RMK AO2 SLP184 T02060133=
201408222353 METAR KPAE 222353Z 35006KT 10SM CLR 21/13 A3007 RMK AO2 SLP181 T02060133 10211 20156 53000=
201408222253 METAR KPAE 222253Z 35009KT 10SM CLR 21/13 A3007 RMK AO2 SLP180 T02110128=
201408222153 METAR KPAE 222153Z VRB06KT 10SM CLR 21/13 A3007 RMK AO2 SLP181 T02060128=
201408222053 METAR KPAE 222053Z VRB06KT 10SM CLR 20/12 A3007 RMK AO2 SLP181 T02000122 58004=
201408221953 METAR KPAE 221953Z 33009KT 10SM CLR 19/12 A3007 RMK AO2 SLP182 T01890117=
201408221853 METAR KPAE 221853Z VRB03KT 10SM CLR 18/11 A3008 RMK AO2 SLP184 T01780111=
201408221753 METAR KPAE 221753Z VRB03KT 10SM CLR 16/11 A3008 RMK AO2 SLP185 T01560111 10156 20117 51008=
201408221653 METAR KPAE 221653Z VRB04KT 10SM SCT001 13/12 A3008 RMK AO2 SLP184 T01280117=
201408221633 SPECI KPAE 221633Z VRB03KT 1SM R16R/2000V4000FT BR OVC001 12/11 A3007 RMK AO2 T01170111=
201408221621 SPECI KPAE 221621Z 01004KT 1/2SM R16R/1600V6000FT FG VV001 12/11 A3007 RMK AO2 T01170111=
201408221553 METAR KPAE 221553Z 01004KT 5SM BR OVC002 12/11 A3007 RMK AO2 SLP181 T01220111=
201408221548 SPECI KPAE 221548Z 00000KT 3SM BR OVC002 12/11 A3007 RMK AO2=
201408221453 METAR KPAE 221453Z 33006KT 3/4SM R16R/P6000FT BCFG OVC002 12/11 A3006 RMK AO2 SLP177 T01170111 53009=
201408221451 SPECI KPAE 221451Z 33006KT 1 1/2SM BCFG OVC002 12/11 A3006 RMK AO2=
201408221434 SPECI KPAE 221434Z 33005KT 5SM BCFG OVC002 12/11 A3005 RMK AO2 T01170106=
201408221353 METAR KPAE 221353Z 36003KT 6SM BCFG SCT002 12/11 A3004 RMK AO2 SLP173 T01170111=
201408221343 SPECI KPAE 221343Z 36005KT 6SM BR BKN002 12/11 A3004 RMK AO2 T01220111=
201408221327 SPECI KPAE 221327Z VRB04KT 5SM BR FEW002 12/11 A3004 RMK AO2 T01220111=
201408221253 METAR KPAE 221253Z 00000KT 8SM CLR 13/11 A3004 RMK AO2 SLP170 T01280111=
201408221153 METAR KPAE 221153Z 00000KT 10SM CLR 13/11 A3003 RMK AO2 SLP167 T01280111 10139 20122 53004=
201408221053 METAR KPAE 221053Z 36004KT 9SM CLR 13/11 A3002 RMK AO2 SLP165 T01280111=
201408220953 METAR KPAE 220953Z 03005KT 10SM CLR 13/11 A3002 RMK AO2 SLP163 T01280111=
201408220853 METAR KPAE 220853Z 03004KT 10SM CLR 13/11 A3002 RMK AO2 SLP163 T01330111 53002=
201408220753 METAR KPAE 220753Z 02006KT 10SM CLR 14/11 A3001 RMK AO2 SLP162 T01390111 401940122=
201408220653 METAR KPAE 220653Z 36003KT 10SM CLR 13/11 A3000 RMK AO2 SLP160 T01330111=
201408220553 METAR KPAE 220553Z 01004KT 10SM CLR 14/12 A3001 RMK AO2 SLP162 T01390117 10194 20139 51006=
201408220453 METAR KPAE 220453Z 36006KT 10SM CLR 14/11 A3000 RMK AO2 SLP159 T01440106=
201408220353 METAR KPAE 220353Z VRB03KT 10SM SCT080 16/11 A3000 RMK AO2 SLP158 T01610111=
201408220253 METAR KPAE 220253Z 35006KT 10SM BKN075 17/11 A2999 RMK AO2 SLP154 T01720111 53000=
201408220153 METAR KPAE 220153Z 31005KT 10SM CLR 19/09 A2999 RMK AO2 SLP153 T01940094=
201408220053 METAR KPAE 220053Z 25008KT 10SM CLR 19/09 A2999 RMK AO2 SLP153 T01940089=
201408212353 METAR KPAE 212353Z 25008KT 10SM CLR 19/08 A2999 RMK AO2 SLP154 T01940083 10194 20150 56014=
201408212253 METAR KPAE 212253Z 25010KT 10SM CLR 19/09 A3000 RMK AO2 SLP158 T01940089=
201408212153 METAR KPAE 212153Z 23010KT 10SM CLR 18/10 A3002 RMK AO2 SLP163 T01830100=
201408212053 METAR KPAE 212053Z COR 25009KT 10SM FEW020 18/11 A3003 RMK AO2 SLP168 T01780106 56007=
201408211953 METAR KPAE 211953Z 25008KT 10SM FEW020 17/11 A3004 RMK AO2 SLP170 T01670106=
201408211853 METAR KPAE 211853Z 23007KT 10SM BKN020 16/11 A3004 RMK AO2 SLP172 T01560106=
201408211753 METAR KPAE 211753Z 25008KT 10SM OVC020 15/11 A3005 RMK AO2 SLP175 T01500106 10150 20122 53002=
201408211653 METAR KPAE 211653Z 25007KT 10SM OVC020 14/11 A3005 RMK AO2 SLP175 T01390106=
201408211553 METAR KPAE 211553Z 19007KT 10SM FEW010 OVC022 14/11 A3004 RMK AO2 SLP173 T01390106=
201408211453 METAR KPAE 211453Z 19005KT 10SM SCT010 OVC027 13/11 A3005 RMK AO2 SLP174 T01330106 53007=
201408211445 SPECI KPAE 211445Z 21006KT 10SM SCT010 OVC027 13/11 A3005 RMK AO2 T01330106=
201408211423 SPECI KPAE 211423Z 20007KT 10SM BKN010 OVC031 13/10 A3004 RMK AO2 T01280100=
201408211353 METAR KPAE 211353Z 20009KT 10SM OVC009 13/10 A3004 RMK AO2 SLP171 T01280100=
201408211345 SPECI KPAE 211345Z AUTO 19007KT 10SM OVC009 12/10 A3004 RMK AO2 T01220100=
201408211253 METAR KPAE 211253Z AUTO 20005KT 10SM OVC010 12/10 A3003 RMK AO2 SLP167 T01220100=
201408211214 SPECI KPAE 211214Z AUTO 22003KT 10SM BKN010 12/11 A3003 RMK AO2 T01220106=
201408211202 SPECI KPAE 211202Z AUTO 22003KT 10SM SCT009 SCT060 12/11 A3003 RMK AO2 T01220106=
201408211153 METAR KPAE 211153Z AUTO 21003KT 10SM FEW060 12/11 A3003 RMK AO2 SLP167 T01220106 10172 20122 51002=
201408211053 METAR KPAE 211053Z AUTO 21005KT 10SM OVC036 13/11 A3003 RMK AO2 SLP167 T01330106=
201408210953 METAR KPAE 210953Z AUTO 22003KT 10SM SCT036 14/11 A3003 RMK AO2 SLP167 T01390106=
201408210853 METAR KPAE 210853Z AUTO VRB04KT 10SM SCT060 14/11 A3002 RMK AO2 SLP165 T01440106 51007=
201408210753 METAR KPAE 210753Z AUTO 23005KT 10SM BKN060 15/11 A3002 RMK AO2 SLP163 T01500111 402060144=
201408210653 METAR KPAE 210653Z AUTO 25004KT 10SM CLR 15/12 A3001 RMK AO2 SLP161 T01500117=
201408210553 METAR KPAE 210553Z AUTO 22004KT 10SM CLR 17/11 A3000 RMK AO2 SLP158 T01670111 10206 20167 51011=
201408210453 METAR KPAE 210453Z AUTO 20006KT 10SM FEW065 18/12 A2999=
201408210353 METAR KPAE 210353Z AUTO 20005KT 10SM SCT065 18/12 A2998 RMK AO2 SLP152 T01830117=
201408210253 METAR KPAE 210253Z 19007KT 10SM SCT070 19/12 A2997 RMK AO2 SLP147 T01940117 56002=
201408210153 METAR KPAE 210153Z 22007KT 10SM CLR 19/12 A2997 RMK AO2 SLP147 T01940122=
201408210053 METAR KPAE 210053Z 25009KT 10SM CLR 20/12 A2997 RMK AO2 SLP149 T02000122=
201408202353 METAR KPAE 202353Z 24009KT 10SM CLR 20/12 A2998 RMK AO2 SLP149 T02000117 10206 20161 56002=
201408202253 METAR KPAE 202253Z 24010KT 10SM CLR 20/12 A2998 RMK AO2 SLP149 T02000117=
201408202153 METAR KPAE 202153Z 24012KT 10SM CLR 19/12 A2998 RMK AO2 SLP150 T01940117=
201408202053 METAR KPAE 202053Z 25012KT 10SM CLR 19/11 A2998 RMK AO2 SLP152 T01890111 50004=
201408202013 SPECI KPAE 202013Z 18009G14KT 10SM FEW027 19/11 A2999 RMK AO2 T01890111=
201408201953 METAR KPAE 201953Z 20009KT 10SM BKN026 19/11 A2999 RMK AO2 SLP153 T01890111=
201408201853 METAR KPAE 201853Z 18009G18KT 10SM BKN026 BKN050 18/11 A2998 RMK AO2 SLP150 T01830106=
201408201753 METAR KPAE 201753Z 19012KT 10SM OVC021 16/11 A2997 RMK AO2 SLP148 T01610106 10161 20144 51010=
201408201653 METAR KPAE 201653Z 17009KT 10SM OVC021 16/10 A2997 RMK AO2 SLP146 T01560100=
201408201553 METAR KPAE 201553Z 17010KT 140V220 10SM OVC022 16/10 A2996 RMK AO2 SLP143 T01560100=
201408201453 METAR KPAE 201453Z 18011KT 10SM OVC016 15/10 A2994 RMK AO2 SLP138 T01500100 51015=
201408201353 METAR KPAE 201353Z 19010KT 10SM OVC016 14/11 A2993 RMK AO2 SLP135 T01440106=
201408201308 SPECI KPAE 201308Z AUTO 20009KT 10SM BKN018 OVC043 14/11 A2992 RMK AO2 T01440106=
201408201253 METAR KPAE 201253Z AUTO 18009KT 10SM FEW016 OVC042 14/11 A2991 RMK AO2 SLP127 T01440106=
201408201153 METAR KPAE 201153Z AUTO 21006KT 10SM FEW048 BKN060 14/11 A2990 RMK AO2 SLP121 T01440106 10161 20144 53007=
201408201053 METAR KPAE 201053Z AUTO 20007KT 10SM OVC050 15/11 A2988 RMK AO2 SLP115 T01500106=
201408200953 METAR KPAE 200953Z AUTO 23004KT 10SM BKN050 15/11 A2987 RMK AO2 SLP112 T01500111=
201408200928 SPECI KPAE 200928Z AUTO 21005KT 10SM SCT028 SCT049 16/11 A2987 RMK AO2 T01560111=
201408200918 SPECI KPAE 200918Z AUTO 22004KT 10SM BKN028 OVC049 16/11 A2987 RMK AO2 T01560111=
201408200853 METAR KPAE 200853Z AUTO 00000KT 10SM OVC049 15/12 A2987 RMK AO2 SLP113 T01500117 53013=
201408200753 METAR KPAE 200753Z AUTO 00000KT 10SM SCT048 OVC055 15/12 A2986 RMK AO2 SLP109 T01500117 402610150=
201408200653 METAR KPAE 200653Z AUTO 05003KT 10SM SCT045 BKN060 BKN075 16/12 A2985 RMK AO2 SLP103 T01560117=
201408200553 METAR KPAE 200553Z AUTO 02007KT 10SM SCT046 SCT065 16/11 A2984 RMK AO2 SLP101 T01560111 10239 20156 51009=
201408200453 METAR KPAE 200453Z AUTO 01009G15KT 10SM BKN044 BKN060 OVC075 16/11 A2983 RMK AO2 SLP099 T01610111=
201408200353 METAR KPAE 200353Z AUTO 01009G19KT 10SM BKN060 BKN080 17/11 A2981 RMK AO2 SLP092 T01670111=
201408200253 METAR KPAE 200253Z 02008G15KT 10SM OVC080 17/12 A2981 RMK AO2 SLP091 T01720122 55002=
201408200153 METAR KPAE 200153Z 01010G17KT 10SM FEW075 19/13 A2980 RMK AO2 SLP089 T01890128=
201408200053 METAR KPAE 200053Z 36010G15KT 10SM OVC085 20/14 A2981 RMK AO2 SLP092 T02000139=
201408192353 METAR KPAE 192353Z 36006KT 10SM BKN090 BKN110 23/14 A2981=
201408192253 METAR KPAE 192253Z AUTO 01007KT 10SM BKN090 24/15 A2982 RMK AO2 SLP095 T02440150 TSNO=
201408192153 METAR KPAE 192153Z 28006KT 10SM SCT080 26/16 A2983 RMK AO2 SLP098 T02560161=
201408192053 METAR KPAE 192053Z 29008KT 10SM CLR 25/16 A2984 RMK AO2 SLP100 T02500156 55005=
201408191953 METAR KPAE 191953Z 27006KT 10SM CLR 24/15 A2983 RMK AO2 SLP099 T02440150=
201408191853 METAR KPAE 191853Z 22005KT 10SM CLR 24/14 A2984 RMK AO2 SLP101 T02440144=
201408191753 METAR KPAE 191753Z 23004KT 10SM CLR 22/14 A2985 RMK AO2 SLP105 T02220144 10228 20167 50001=
201408191653 METAR KPAE 191653Z 23003KT 10SM CLR 21/14 A2985 RMK AO2 SLP106 T02110144=
201408191553 METAR KPAE 191553Z 00000KT 10SM FEW100 21/14 A2985 RMK AO2 SLP105 T02060144=
201408191453 METAR KPAE 191453Z 00000KT 10SM FEW100 19/14 A2985 RMK AO2 SLP105 T01940139 53003=
201408191353 METAR KPAE 191353Z 00000KT 10SM SCT110 17/13 A2985 RMK AO2 SLP105 T01720133=
201408191253 METAR KPAE 191253Z AUTO 00000KT 10SM FEW100 18/13 A2984 RMK AO2 SLP100 T01830128=
201408191153 METAR KPAE 191153Z AUTO 00000KT 10SM CLR 17/13 A2984 RMK AO2 SLP101 T01720128 10189 20167 50000=
201408191053 METAR KPAE 191053Z AUTO 00000KT 10SM CLR 17/13 A2984 RMK AO2 SLP103 T01720128=
201408190953 METAR KPAE 190953Z AUTO 00000KT 10SM CLR 17/13 A2985 RMK AO2 SLP103 T01720128=
201408190853 METAR KPAE 190853Z AUTO 02003KT 10SM CLR 18/13 A2984 RMK AO2 SLP101 T01780128 58005=
201408190753 METAR KPAE 190753Z AUTO 01006KT 10SM CLR 17/13 A2986 RMK AO2 SLP107 T01720128 402610139=
201408190653 METAR KPAE 190653Z AUTO 00000KT 10SM CLR 18/14 A2986 RMK AO2 SLP107 T01830139=
201408190553 METAR KPAE 190553Z AUTO 03005KT 10SM CLR 18/13 A2986 RMK AO2 SLP108 T01830133 10244 20178 58006=
201408190453 METAR KPAE 190453Z AUTO 35004KT 10SM CLR 19/14 A2987 RMK AO2 SLP113 T01890139=
201408190353 METAR KPAE 190353Z AUTO VRB03KT 10SM CLR 19/14 A2988 RMK AO2 SLP117 T01940144=
201408190253 METAR KPAE 190253Z 35004KT 10SM CLR 21/16 A2988 RMK AO2 SLP115 T02060156 58011=
201408190153 METAR KPAE 190153Z 36004KT 10SM CLR 22/16 A2989 RMK AO2 SLP118 T02170161=
201408190053 METAR KPAE 190053Z 35006KT 10SM CLR 23/17 A2990 RMK AO2 SLP123 T02330167=
201408182353 METAR KPAE 182353Z 34007KT 10SM CLR 24/16 A2991 RMK AO2 SLP125 T02440161 10261 20200 58016=
201408182253 METAR KPAE 182253Z AUTO VRB05KT 10SM CLR 25/16 A2993 RMK AO2 SLP132 T02500161 TSNO=
201408182153 METAR KPAE 182153Z VRB04KT 10SM CLR 26/16 A2994 RMK AO2 SLP135 T02560156=
201408182053 METAR KPAE 182053Z VRB05KT 10SM CLR 25/15 A2996 RMK AO2 SLP141 T02500150 58018=
201408181953 METAR KPAE 181953Z VRB05KT 10SM CLR 23/16 A2998 RMK AO2 SLP149 T02330156=
201408181853 METAR KPAE 181853Z VRB05KT 10SM CLR 23/16 A2999 RMK AO2 SLP155 T02280161=
201408181753 METAR KPAE 181753Z VRB04KT 10SM CLR 21/16 A3001 RMK AO2 SLP161 T02060156 10206 20139 58006=
201408181653 METAR KPAE 181653Z 36005KT 10SM CLR 17/14 A3002 RMK AO2 SLP165 T01720144=
201408181553 METAR KPAE 181553Z 01005KT 10SM CLR 16/13 A3003 RMK AO2 SLP167 T01560128=
201408181453 METAR KPAE 181453Z 02003KT 10SM CLR 15/13 A3003 RMK AO2 SLP167 T01500128 55000=
201408181353 METAR KPAE 181353Z 00000KT 10SM CLR 14/12 A3002 RMK AO2 SLP164 T01440117=
201408181253 METAR KPAE 181253Z AUTO 36004KT 10SM CLR 15/11 A3002 RMK AO2 SLP164 T01500111=
201408181153 METAR KPAE 181153Z AUTO 01005KT 10SM CLR 15/11 A3003 RMK AO2 SLP167 T01500111 10167 20139 58007=
201408181053 METAR KPAE 181053Z AUTO VRB04KT 10SM CLR 14/12 A3004 RMK AO2 SLP170 T01440117=
201408180953 METAR KPAE 180953Z AUTO 01003KT 10SM CLR 15/13 A3005 RMK AO2 SLP172 T01500128=
201408180853 METAR KPAE 180853Z AUTO 02003KT 10SM CLR 17/10 A3005 RMK AO2 SLP173 T01670100 58006=
201408180753 METAR KPAE 180753Z AUTO 36005KT 10SM CLR 16/10 A3006 RMK AO2 SLP178 T01560100 402390133=
201408180653 METAR KPAE 180653Z AUTO 01004KT 10SM CLR 14/12 A3007 RMK AO2 SLP180 T01440122=
201408180553 METAR KPAE 180553Z AUTO 01005KT 10SM CLR 16/13 A3007 RMK AO2 SLP181 T01560128 10239 20156 57002=
201408180453 METAR KPAE 180453Z AUTO 02004KT 10SM CLR 17/14 A3007 RMK AO2 SLP183 T01720139=
201408180353 METAR KPAE 180353Z AUTO 35003KT 10SM CLR 19/14 A3007 RMK AO2 SLP180 T01940144=
201408180253 METAR KPAE 180253Z VRB05KT 10SM CLR 21/14 A3007 RMK AO2 SLP183 T02110144 56009=
201408180153 METAR KPAE 180153Z 36005KT 10SM CLR 22/14 A3008 RMK AO2 SLP183 T02220144=
201408180053 METAR KPAE 180053Z VRB04KT 10SM CLR 23/15 A3009 RMK AO2 SLP187 T02280150=
201408172353 METAR KPAE 172353Z 36005KT 10SM CLR 24/15 A3010 RMK AO2 SLP191 T02390150 10239 20189 58010=
201408172253 METAR KPAE 172253Z 30004KT 10SM CLR 23/15 A3012 RMK AO2 SLP196 T02330150=
201408172153 METAR KPAE 172153Z VRB05KT 10SM CLR 23/16 A3013=
201408172053 METAR KPAE 172053Z VRB03KT 10SM CLR 23/16 A3013=
201408171953 METAR KPAE 171953Z VRB05KT 10SM CLR 22/16 A3014 RMK AO2 SLP204 T02220156=
201408171853 METAR KPAE 171853Z VRB04KT 10SM CLR 21/15 A3014 RMK AO2 SLP205 T02110150=
201408171753 METAR KPAE 171753Z 32005KT 10SM BCFG CLR 19/14 A3015 RMK AO2 SLP209 T01890144 10189 20133 53005=
201408171653 METAR KPAE 171653Z 00000KT 10SM BCFG CLR 17/14 A3014 RMK AO2 SLP207 T01670139=
201408171618 SPECI KPAE 171618Z 00000KT 4SM BCFG CLR 14/13 A3015 RMK AO2 T01390133=
201408171613 SPECI KPAE 171613Z 00000KT 1 1/2SM BCFG CLR 14/13 A3015 RMK AO2 T01390133=
201408171553 METAR KPAE 171553Z 36003KT 1/4SM R16R/0800V2400FT FG VV001 13/13 A3014 RMK AO2 SLP206 T01330128=
201408171453 METAR KPAE 171453Z 00000KT M1/4SM R16R/0500V1200FT FG VV001 13/13 A3014 RMK AO2 SLP204 T01330128 50005=
201408171451 SPECI KPAE 171451Z 36003KT M1/4SM R16R/0500V1200FT FG VV001 13/13 A3014 RMK AO2=
201408171407 SPECI KPAE 171407Z 02003KT M1/4SM R16R/1000V4000FT FG VV001 13/13 A3013 RMK AO2 T01330133=
201408171353 METAR KPAE 171353Z 35003KT M1/4SM R16R/0500V0600FT FG VV001 13/13 A3013 RMK AO2 SLP203 T01330133=
201408171328 SPECI KPAE 171328Z AUTO 35003KT 1/4SM R16R/1000V2200FT FG VV001 13/13 A3013 RMK AO2 T01330128=
201408171315 SPECI KPAE 171315Z AUTO 02003KT 1/2SM R16R/1400V2800FT FG VV001 14/13 A3012 RMK AO2 T01390133=
201408171305 SPECI KPAE 171305Z AUTO 00000KT 1/4SM R16R/0800V1400FT FG VV001 14/13 A3012 RMK AO2 T01390133=
201408171253 METAR KPAE 171253Z AUTO 03003KT M1/4SM R16R/0700V2400FT FG VV001 13/13 A3012 RMK AO2 SLP198 T01330133=
201408171153 METAR KPAE 171153Z AUTO 00000KT M1/4SM R16R/0700V0800FT FG VV001 13/13 A3012 RMK AO2 SLP197 T01330133 10161 20133 52001=
201408171053 METAR KPAE 171053Z AUTO 02004KT 1/4SM R16R/0700V1000FT FG VV001 14/13 A3012 RMK AO2 SLP197 T01390133=
201408171022 SPECI KPAE 171022Z AUTO 36003KT 1/4SM R16R/1200V1600FT FG VV001 14/13 A3011 RMK AO2 T01390133=
201408170953 METAR KPAE 170953Z AUTO 03003KT 1/2SM R16R/1000V1200FT FG VV001 14/13 A3011 RMK AO2 SLP195 T01390133=
201408170927 SPECI KPAE 170927Z AUTO 02003KT 1/2SM R16R/1200V2000FT FG VV001 14/13 A3011 RMK AO2 T01390128=
201408170918 SPECI KPAE 170918Z AUTO 36003KT 1 3/4SM R16R/2000VP6000FT BR OVC001 14/13 A3011 RMK AO2 T01390128=
201408170853 METAR KPAE 170853Z AUTO VRB03KT 6SM BR BKN001 OVC050 14/13 A3011 RMK AO2 SLP196 T01390128 55002=
201408170848 SPECI KPAE 170848Z AUTO 35004KT 7SM BKN002 BKN050 14/13 A3011 RMK AO2=
201408170817 SPECI KPAE 170817Z AUTO 36005KT 9SM FEW002 BKN050 14/13 A3012 RMK AO2 T01440133=
201408170753 METAR KPAE 170753Z AUTO 36004KT 10SM BKN050 14/13 A3012 RMK AO2 SLP197 T01440133 402280144=
201408170653 METAR KPAE 170653Z AUTO 00000KT 10SM OVC055 15/13 A3012 RMK AO2 SLP197 T01500133=
201408170553 METAR KPAE 170553Z AUTO VRB04KT 10SM OVC055 16/14 A3012 RMK AO2 SLP198 T01560139 10228 20156 51003=
201408170453 METAR KPAE 170453Z AUTO 36006KT 10SM BKN060 17/14 A3012 RMK AO2 SLP197 T01670139=
201408170353 METAR KPAE 170353Z 36007KT 10SM CLR 17/14 A3012 RMK AO2 SLP198 T01670139=
201408170253 METAR KPAE 170253Z 35006KT 10SM CLR 19/15 A3011 RMK AO2 SLP195 T01890150 55003=
201408170153 METAR KPAE 170153Z 31005KT 10SM CLR 21/15 A3011 RMK AO2 SLP192 T02060150=
201408170053 METAR KPAE 170053Z 34004KT 10SM CLR 22/15 A3011 RMK AO2 SLP195 T02170150=
201408162353 METAR KPAE 162353Z 35006KT 10SM CLR 22/15 A3012 RMK AO2 SLP197 T02220150 10228 20189 58009=
201408162253 METAR KPAE 162253Z AUTO 36006KT 10SM CLR 22/15 A3013 RMK AO2 SLP201 T02220150 TSNO=
201408162153 METAR KPAE 162153Z 36007KT 10SM CLR 22/15 A3014 RMK AO2 SLP203 T02170150=
201408162053 METAR KPAE 162053Z VRB04KT 10SM CLR 21/15 A3015 RMK AO2 SLP206 T02060150 53001=
201408161953 METAR KPAE 161953Z 27005KT 10SM FEW020 21/15 A3014 RMK AO2 SLP205 T02060150=
201408161937 SPECI KPAE 161937Z 29005KT 10SM SCT020 SCT048 21/15 A3014 RMK AO2 T02110150=
201408161853 METAR KPAE 161853Z COR 34005KT 10SM BKN019 21/14 A3014 RMK AO2 SLP205 T02110144=
201408161753 METAR KPAE 161753Z VRB04KT 10SM SCT017 OVC033 19/14 A3014 RMK AO2 SLP206 T01890139 10189 20156 53005=
201408161713 SPECI KPAE 161713Z 36006KT 10SM SCT017 OVC033 18/14 A3014 RMK AO2 T01830139=
201408161706 SPECI KPAE 161706Z 36005KT 10SM BKN017 OVC033 18/14 A3014 RMK AO2 T01780139=
201408161653 METAR KPAE 161653Z 36005KT 10SM SCT017 BKN033 17/14 A3014 RMK AO2 SLP204 T01720139=
201408161553 METAR KPAE 161553Z VRB04KT 10SM BKN034 17/13 A3013 RMK AO2 SLP202 T01670133=
201408161529 SPECI KPAE 161529Z VRB03KT 10SM FEW018 OVC034 16/14 A3013 RMK AO2 T01610139=
201408161453 METAR KPAE 161453Z 03004KT 10SM OVC016 16/14 A3013 RMK AO2 SLP200 T01560139 51006=
201408161353 METAR KPAE 161353Z 02003KT 10SM OVC015 16/14 A3012 RMK AO2 SLP199 T01560139=
201408161253 METAR KPAE 161253Z AUTO 01003KT 10SM OVC015 16/14 A3011 RMK AO2 SLP195 T01560139=
201408161153 METAR KPAE 161153Z AUTO 35006KT 10SM OVC016 16/14 A3011 RMK AO2 SLP193 70002 T01560139 10161 20150 53006=
201408161053 METAR KPAE 161053Z AUTO VRB05KT 10SM OVC016 16/14 A3010 RMK AO2 SLP190 T01560139=
201408160953 METAR KPAE 160953Z AUTO 35005KT 10SM FEW003 BKN016 OVC046 16/14 A3009 RMK AO2 SLP187 T01560139=
201408160943 SPECI KPAE 160943Z AUTO 01004KT 10SM BKN016 OVC046 16/14 A3009 RMK AO2 T01560139=
201408160929 SPECI KPAE 160929Z AUTO 02006KT 10SM SCT017 BKN045 OVC060 16/14 A3009 RMK AO2 T01560139=
201408160853 METAR KPAE 160853Z AUTO 01004KT 10SM OVC018 16/14 A3009 RMK AO2 SLP188 T01560139 53000=
201408160807 SPECI KPAE 160807Z AUTO 35004KT 10SM BKN022 OVC033 16/13 A3009 RMK AO2 T01560133=
201408160753 METAR KPAE 160753Z AUTO 36004KT 10SM FEW022 OVC031 16/13 A3009 RMK AO2 SLP188 T01560133 402060156=
201408160653 METAR KPAE 160653Z AUTO 35006KT 10SM BKN026 OVC032 16/13 A3009 RMK AO2 SLP188 T01560133=
201408160626 SPECI KPAE 160626Z AUTO 36005KT 10SM SCT007 OVC031 16/13 A3009 RMK AO2 T01560133=
201408160613 SPECI KPAE 160613Z AUTO 01005KT 10SM BKN007 OVC027 16/13 A3009 RMK AO2 T01560133=
201408160553 METAR KPAE 160553Z AUTO VRB06KT 10SM SCT006 OVC025 16/13 A3009 RMK AO2 SLP188 T01560133 10200 20156 51004=
201408160550 SPECI KPAE 160550Z AUTO 36007KT 10SM SCT006 OVC025 16/13 A3009 RMK AO2=
201408160453 METAR KPAE 160453Z AUTO 01005KT 10SM OVC025 17/15 A3009 RMK AO2 SLP187 T01670150=
201408160400 SPECI KPAE 160400Z AUTO 36005KT 10SM OVC026 17/15 A3008 RMK AO2 T01670150=
201408160353 METAR KPAE 160353Z AUTO 02005KT 10SM SCT028 BKN034 BKN044 17/15 A3008 RMK AO2 SLP184 T01670150=
201408160300 SPECI KPAE 160300Z 01004KT 10SM FEW026 BKN034 BKN044 17/15 A3007 RMK AO2 T01720150=
201408160253 METAR KPAE 160253Z 02005KT 10SM SCT016 BKN026 17/15 A3007=
201408160200 SPECI KPAE 160200Z VRB03KT 10SM SCT016 BKN026 18/16 A3006 RMK AO2 T01830156=
201408160153 METAR KPAE 160153Z 02003KT 10SM SCT016 SCT028 OVC043 18/16 A3006 RMK AO2 SLP179 T01780156=
201408160053 METAR KPAE 160053Z VRB03KT 10SM SCT028 OVC043 19/16 A3007 RMK AO2 SLP180 T01940161=
201408152353 METAR KPAE 152353Z 28004KT 10SM BKN027 OVC034 19/15 A3007 RMK AO2 SLP179 60001 T01940150 10206 20167 56000=
201408152253 METAR KPAE 152253Z 22003KT 10SM BKN020 OVC026 19/16 A3007 RMK AO2 SLP179 T01940156=
201408152153 METAR KPAE 152153Z 26005KT 10SM OVC015 20/16 A3007 RMK AO2 SLP179 T02000161=
201408152143 SPECI KPAE 152143Z 21004KT 10SM OVC015 19/16 A3007 RMK AO2 T01940156=
201408152116 SPECI KPAE 152116Z 23005KT 10SM OVC013 18/16 A3006 RMK AO2 T01830156=
201408152100 SPECI KPAE 152100Z 19005KT 10SM OVC015 19/16 A3007 RMK AO2 T01890156=
201408152053 METAR KPAE 152053Z 19007KT 10SM OVC013 19/16 A3007 RMK AO2 SLP179 60001 T01890156 53001=
201408152022 SPECI KPAE 152022Z 23005KT 10SM OVC013 18/16 A3006 RMK AO2 T01830156=
201408151953 METAR KPAE 151953Z 23006KT 10SM BKN015 OVC020 18/16 A3006 RMK AO2 SLP178 T01830156=
201408151925 SPECI KPAE 151925Z 23006KT 10SM BCFG SCT010 OVC016 18/16 A3007 RMK AO2 T01780156=
201408151853 METAR KPAE 151853Z 20008KT 10SM BCFG BKN014 OVC034 19/16 A3007 RMK AO2 RAE24 SLP179 P0001 T01890161=
201408151822 SPECI KPAE 151822Z 22004KT 3SM -RA BCFG FEW003 BKN009 OVC020 17/17 A3006 RMK AO2 P0001 T01720167=
201408151753 METAR KPAE 151753Z 26005KT 2SM -RA BCFG BKN003 BKN009 OVC014 17/16 A3006 RMK AO2 SLP179 P0000 60001 T01670161 10178 20161 51014=
201408151743 SPECI KPAE 151743Z 23005KT 2SM R16R/5000VP6000FT -RA BCFG BKN003 BKN009 OVC014 17/16 A3006 RMK AO2 P0000 T01670161=
201408151700 SPECI KPAE 151700Z 23005KT 2SM -RA BCFG BKN005 BKN016 OVC021 17/17 A3005 RMK AO2 P0000 T01720167=
201408151658 SPECI KPAE 151658Z 24004KT 3SM -RA BCFG BKN005 BKN016 OVC021 17/17 A3005 RMK AO2 P0000 T01720167=
201408151653 METAR KPAE 151653Z COR 22004KT 2SM -RA BCFG BKN005 BKN014 OVC019 17/17 A3005 RMK AO2 RAB00 SLP174 P0001 T01720167=
201408151553 METAR KPAE 151553Z 16003KT 2SM BCFG BKN005 BKN025 OVC033 17/16 A3004 RMK AO2 SLP169 T01720161=
201408151453 METAR KPAE 151453Z 00000KT 2SM BCFG BKN005 17/16 A3002 RMK AO2 SLP165 T01670161 53007=
201408151439 SPECI KPAE 151439Z 00000KT 1SM R16R/1600VP6000FT BCFG BKN005 17/16 A3002 RMK AO2 T01670156=
201408151422 SPECI KPAE 151422Z 03003KT 1SM R16R/1000V1400FT BCFG BKN005 16/16 A3002 RMK AO2 T01610156=
201408151419 SPECI KPAE 151419Z 00000KT 1SM R16R/1000V1600FT BR BKN001 16/16 A3002 RMK AO2 T01610156=
201408151400 SPECI KPAE 151400Z 02003KT M1/4SM R16R/0800V1000FT BCFG VV001 16/16 A3001 RMK AO2 T01610156=
201408151353 METAR KPAE 151353Z 01003KT 8SM R16R/0800V1000FT BCFG SCT002 BKN013 OVC027 16/16 A3001=
201408151342 SPECI KPAE 151342Z 00000KT 8SM R16R/0700V1000FT BCFG SCT002 BKN013 OVC027 16/16 A3001 RMK AO2 T01610156=
201408151327 SPECI KPAE 151327Z 36004KT 8SM R16R/1600VP6000FT BCFG FEW002 BKN013 OVC027 16/16 A3001 RMK AO2 T01610156=
201408151323 SPECI KPAE 151323Z 01004KT 2 1/2SM BR FEW002 SCT013 OVC027 17/16 A3001 RMK AO2 T01670156=
201408151304 SPECI KPAE 151304Z 16003KT 10SM BKN027 OVC035 17/16 A3001 RMK AO2 T01720161=
201408151253 METAR KPAE 151253Z 15003KT 10SM SCT029 OVC034 17/16 A3001 RMK AO2 SLP158 T01720156=
201408151153 METAR KPAE 151153Z AUTO 12003KT 9SM OVC034 17/16 A3000 RMK AO2 SLP157 60001 70001 T01720161 10183 20156 51003=
201408151125 SPECI KPAE 151125Z AUTO 12004KT 7SM OVC031 17/16 A3000 RMK AO2 T01720161=
201408151053 METAR KPAE 151053Z AUTO 00000KT 6SM BR FEW003 OVC029 17/16 A3000 RMK AO2 SLP156 T01720161=
201408151024 SPECI KPAE 151024Z AUTO 10003KT 5SM BR SCT002 OVC029 17/16 A3000 RMK AO2 T01720161=
201408151007 SPECI KPAE 151007Z AUTO 07003KT 4SM BR OVC002 17/16 A3000 RMK AO2 T01670156=
201408150953 METAR KPAE 150953Z AUTO 00000KT 4SM BR OVC001 17/16 A3000 RMK AO2 SLP157 T01670156=
201408150905 SPECI KPAE 150905Z AUTO 02004KT 3SM BR BKN001 BKN027 OVC039 16/15 A3000 RMK AO2 T01610150=
201408150853 METAR KPAE 150853Z AUTO 01004KT 3SM BR FEW001 BKN039 OVC075 16/15 A2999 RMK AO2 SLP154 60001 T01610150 58003=
201408150753 METAR KPAE 150753Z AUTO 00000KT 6SM BR FEW009 BKN038 OVC070 17/16 A2999 RMK AO2 RAE01 SLP156 P0000 T01670156 401940139=
201408150743 SPECI KPAE 150743Z AUTO 36003KT 8SM SCT009 BKN038 OVC070 17/16 A2999 RMK AO2 RAE01 P0000 T01670156=
201408150721 SPECI KPAE 150721Z AUTO 00000KT 9SM SCT029 BKN038 OVC070 18/16 A2999 RMK AO2 RAE01 P0000 T01780161=
201408150704 SPECI KPAE 150704Z AUTO 10003KT 10SM BKN028 OVC100 18/16 A3000 RMK AO2 RAE01 P0000 T01780161=
201408150653 METAR KPAE 150653Z AUTO 10003KT 9SM -RA SCT030 SCT060 OVC100 18/16 A3000=
201408150616 SPECI KPAE 150616Z AUTO 11004KT 10SM SCT029 BKN070 OVC095 18/15 A3000 RMK AO2 T01830150=
201408150603 SPECI KPAE 150603Z 12003KT 10SM BKN029 OVC075 18/15 A3000 RMK AO2 T01830150=
201408150553 METAR KPAE 150553Z AUTO 00000KT 10SM SCT029 OVC075 18/15 A3000 RMK AO2 SLP157 60000 T01830150 10189 20178 50001=
201408150453 METAR KPAE 150453Z 12003KT 10SM OVC044 18/15 A3001 RMK AO2 RAB04E13 SLP160 P0000 T01830150=
201408150353 METAR KPAE 150353Z 00000KT 10SM BKN075 OVC085 19/14 A3001 RMK AO2 SLP159 T01890144=
201408150253 METAR KPAE 150253Z 00000KT 10SM OVC075 18/14 A3000 RMK AO2 SLP157 60000 T01780144 55005=
201408150153 METAR KPAE 150153Z 00000KT 10SM SCT090 BKN110 18/15 A3000 RMK AO2 SLP156 T01780150=
201408150053 METAR KPAE 150053Z 26003KT 10SM SCT035 BKN110 18/16 A3000 RMK AO2 RAE2355 SLP158 P0000 T01780156=
201408142353 METAR KPAE 142353Z 00000KT 10SM -RA SCT035 BKN042 BKN100 18/15 A3001 RMK AO2 RAB13 SLP162 P0000 60000 T01780150 10194 20161 55002 TSNO=
201408142253 METAR KPAE 142253Z 28004KT 10SM FEW014 SCT040 BKN100 18/15 A3001 RMK AO2 SLP160 T01830150=
201408142218 SPECI KPAE 142218Z 30004KT 10SM SCT014 BKN044 OVC110 18/14 A3001 RMK AO2 T01830144=
201408142153 METAR KPAE 142153Z VRB03KT 10SM OVC014 19/15 A3002 RMK AO2 RAE12 SLP162 P0000 T01940150=
201408142053 METAR KPAE 142053Z 32004KT 10SM -RA SCT004 OVC013 18/15 A3002 RMK AO2 RAE14B53 SLP164 P0000 60000 T01830150 58006=
201408141953 METAR KPAE 141953Z 00000KT 10SM -RA FEW007 OVC013 18/15 A3003 RMK AO2 RAB40 SLP168 P0000 T01780150=
201408141924 SPECI KPAE 141924Z 32003KT 10SM OVC011 17/15 A3003 RMK AO2 T01720150=
201408141900 SPECI KPAE 141900Z 32003KT 10SM BKN007 OVC011 17/15 A3004 RMK AO2 CIG 006V010 T01720150=
201408141853 METAR KPAE 141853Z 30003KT 10SM OVC004 17/14 A3004 RMK AO2 SLP172 T01720144=
201408141753 METAR KPAE 141753Z 34003KT 10SM OVC004 16/15 A3004 RMK AO2 CIG 002V007 SLP171 T01610150 10161 20139 51003=
201408141728 SPECI KPAE 141728Z VRB03KT 1SM R16R/2000VP6000FT BR OVC002 16/15 A3004 RMK AO2 T01560150=
201408141653 METAR KPAE 141653Z 00000KT 5SM BR OVC001 16/15 A3004 RMK AO2 SLP170 T01560150=
201408141625 SPECI KPAE 141625Z 00000KT 2SM R16R/1200VP6000FT BR OVC001 16/15 A3004 RMK AO2 T01560150=
201408141619 SPECI KPAE 141619Z 00000KT 1/2SM R16R/1000V4000FT FG VV001 16/15 A3004 RMK AO2 T01560150=
201408141555 SPECI KPAE 141555Z 36004KT 1/4SM R16R/1000V2200FT FG VV001 15/14 A3005 RMK AO2 T01500144=
201408141553 METAR KPAE 141553Z 36004KT 1/2SM R16R/1000V4000FT FG VV001 15/14 A3005=
201408141539 SPECI KPAE 141539Z 01004KT 1/4SM R16R/0700V2800FT FG OVC005 15/14 A3005 RMK AO2 T01500144=
201408141537 SPECI KPAE 141537Z 01004KT 3SM R16R/0600V2000FT BCFG OVC001 15/14 A3005 RMK AO2 T01500144=
201408141509 SPECI KPAE 141509Z 04003KT 3SM BCFG BKN001 OVC013 15/14 A3004 RMK AO2 T01500144=
201408141500 SPECI KPAE 141500Z 34003KT 1/2SM R16R/2600VP6000FT BCFG BKN001 OVC013 15/14 A3003 RMK AO2 T01500144=
201408141453 METAR KPAE 141453Z 36003KT 1/4SM R16R/2000V5000FT FG BKN001 OVC013 15/15 A3003 RMK AO2 SLP168 T01500150 50000=
201408141444 SPECI KPAE 141444Z 00000KT M1/4SM R16R/1400VP6000FT FG VV001 15/15 A3003 RMK AO2 T01500150=
201408141353 METAR KPAE 141353Z 34004KT 1/4SM R16R/0700V1000FT FG VV001 15/14 A3003 RMK AO2 SLP168 T01500144=
201408141338 SPECI KPAE 141338Z 36003KT 1/4SM R16R/0700V1600FT FG VV001 15/14 A3004 RMK AO2 T01500144=
201408141324 SPECI KPAE 141324Z 00000KT 1/2SM R16R/1000V4500FT FG VV001 15/14 A3004 RMK AO2 T01500144=
201408141253 METAR KPAE 141253Z 00000KT M1/4SM R16R/0700V1400FT FG VV001 14/14 A3003 RMK AO2 SLP168 T01440139=
201408141251 SPECI KPAE 141251Z 00000KT 1/4SM R16R/0700V1400FT FG VV001 14/14 A3003 RMK AO2=
201408141241 SPECI KPAE 141241Z 32003KT 3/4SM R16R/1200V1600FT BR VV001 14/14 A3002 RMK AO2 T01440139=
201408141237 SPECI KPAE 141237Z 34003KT 1 3/4SM R16R/1200V1600FT BR FEW001 14/13 A3002 RMK AO2 T01440133=
201408141234 SPECI KPAE 141234Z 31003KT 5SM R16R/1200V1800FT BR FEW001 14/13 A3002 RMK AO2 T01440133=
201408141153 METAR KPAE 141153Z 00000KT 10SM CLR 16/14 A3002 RMK AO2 SLP163 70064 T01610139 10167 20150 55000=
201408141053 METAR KPAE 141053Z 00000KT 10SM FEW013 17/14 A3002 RMK AO2 SLP163 T01670144=
201408141049 SPECI KPAE 141049Z 12003KT 10SM SCT013 16/14 A3002 RMK AO2=
201408140953 METAR KPAE 140953Z 00000KT 10SM SCT004 OVC013 16/15 A3002 RMK AO2 SLP164 T01560150=
201408140943 SPECI KPAE 140943Z 00000KT 8SM R16R/2800VP6000FT BKN004 OVC011 16/15 A3002 RMK AO2 T01560150=
201408140935 SPECI KPAE 140935Z 00000KT 2SM R16R/1200VP6000FT BR OVC004 16/15 A3002 RMK AO2 T01560150=
201408140932 SPECI KPAE 140932Z 00000KT 1SM R16R/1000V1800FT BR VV004 16/15 A3002 RMK AO2 T01560150=
201408140912 SPECI KPAE 140912Z 00000KT 1/4SM R16R/0700V1600FT FG BKN004 OVC009 15/15 A3002 RMK AO2 T01500150=
201408140903 SPECI KPAE 140903Z 00000KT 1/4SM R16R/0700V1400FT FG BKN006 BKN011 15/14 A3002 RMK AO2 T01500144=
201408140857 SPECI KPAE 140857Z 00000KT 3/4SM R16R/0800VP6000FT BR VV007 15/14 A3002 RMK AO2 T01500139=
201408140855 SPECI KPAE 140855Z 36003KT 2 1/2SM R16R/1000VP6000FT BR BKN007 15/14 A3002 RMK AO2 T01500139=
201408140853 METAR KPAE 140853Z 35003KT 8SM R16R/4500VP6000FT SCT007 BKN012 15/14 A3002 RMK AO2 SLP163 T01500139 56004=
201408140753 METAR KPAE 140753Z 00000KT 10SM CLR 17/14 A3002 RMK AO2 SLP164 T01670144 402110156=
201408140653 METAR KPAE 140653Z 00000KT 10SM SCT070 17/14 A3003=
201408140553 METAR KPAE 140553Z 21003KT 10SM FEW075 17/14 A3003 RMK AO2 SLP168 T01670144 10200 20161 51006=
201408140453 METAR KPAE 140453Z 00000KT 10SM CLR 17/14 A3003 RMK AO2 SLP167 T01720144=
201408140353 METAR KPAE 140353Z 00000KT 10SM CLR 17/15 A3002 RMK AO2 SLP165 T01720150=
201408140253 METAR KPAE 140253Z 20004KT 10SM SCT075 18/15 A3001 RMK AO2 SLP162 T01830150 51005=
201408140153 METAR KPAE 140153Z 24006KT 10SM FEW075 18/15 A3001 RMK AO2 SLP160 T01830150=
201408140053 METAR KPAE 140053Z 24006KT 10SM SCT041 BKN075 19/15 A3000 RMK AO2 SLP159 T01890150=
201408132353 METAR KPAE 132353Z 24007KT 10SM BKN041 20/15 A3000 RMK AO2 SLP155 T02000150 10211 20161 55002=
201408132253 METAR KPAE 132253Z 25008KT 10SM SCT018 OVC039 20/15 A3000 RMK AO2 SLP155 T02000150=
201408132207 SPECI KPAE 132207Z 27007KT 10SM FEW018 SCT026 21/16 A3000 RMK AO2 T02060156=
201408132153 METAR KPAE 132153Z 23004KT 10SM BKN018 BKN027 OVC060 20/16 A3000 RMK AO2 SLP157 T02000156=
201408132125 SPECI KPAE 132125Z 20007KT 10SM SCT017 BKN028 OVC060 19/16 A3000 RMK AO2 T01940156=
201408132109 SPECI KPAE 132109Z 19009KT 10SM FEW015 FEW026 OVC060 19/15 A3000 RMK AO2 T01940150=
201408132053 METAR KPAE 132053Z 19009KT 10SM FEW012 BKN029 OVC055 19/15 A3000 RMK AO2 SLP157 T01890150 53007=
201408131953 METAR KPAE 131953Z 23006KT 10SM SCT007 BKN012 OVC018 17/16 A2999 RMK AO2 SLP154 T01720156=
201408131853 METAR KPAE 131853Z 20007KT 10SM BKN005 OVC007 17/16 A2998 RMK AO2 SLP151 T01720156=
201408131753 METAR KPAE 131753Z 18009KT 3SM BR OVC007 16/15 A2998 RMK AO2 RAE1659 CIG 004V010 SLP149 P0000 60064 T01610150 10167 20156 52010=
201408131653 METAR KPAE 131653Z 18006KT 8SM -RA OVC007 16/15 A2997 RMK AO2 RAB50 SLP145 P0000 T01610150=
201408131553 METAR KPAE 131553Z 18008KT 10SM OVC008 16/14 A2996 RMK AO2 RAE12 CIG 006V010 SLP143 P0000 T01610144=
201408131453 METAR KPAE 131453Z 19008KT 7SM -RA OVC007 16/14 A2995 RMK AO2 SLP139 P0023 60064 T01610144 51012=
201408131353 METAR KPAE 131353Z 20009KT 2SM +RA BR OVC006 16/14 A2993 RMK AO2 CIG 004V010 SLP134 P0032 T01560144=
201408131351 SPECI KPAE 131351Z 21008KT 2SM +RA BR BKN006 OVC010 16/14 A2993 RMK AO2 CIG 004V008 P0031=
201408131341 SPECI KPAE 131341Z AUTO 20008KT 3SM RA BR OVC006 16/14 A2993 RMK AO2 CIG 004V008 P0025 T01560144=
201408131253 METAR KPAE 131253Z AUTO 19010KT 2 1/2SM +RA BR OVC006 16/15 A2991 RMK AO2 CIG 004V010 SLP127 P0009 T01560150=
201408131153 METAR KPAE 131153Z AUTO 19012KT 10SM -RA BKN005 OVC012 17/16 A2989 RMK AO2 SLP120 P0003 60071 70071 T01670156 10206 20167 53005=
201408131053 METAR KPAE 131053Z AUTO 19011KT 6SM -RA BR BKN008 BKN085 OVC100 17/17 A2988 RMK AO2 SLP116 P0016 T01720167=
201408131004 SPECI KPAE 131004Z AUTO 21010KT 4SM RA BR FEW006 OVC080 18/17 A2988 RMK AO2 P0002 T01780167=
201408130953 METAR KPAE 130953Z AUTO 21011KT 5SM -RA BR OVC085 18/17 A2988 RMK AO2 SLP114 P0012 T01780167=
201408130937 SPECI KPAE 130937Z AUTO 21013KT 5SM -RA BR FEW008 FEW075 OVC090 18/17 A2988 RMK AO2 P0008 T01780167=
201408130853 METAR KPAE 130853Z AUTO 21014KT 5SM -RA BR BKN085 OVC110 18/17 A2988 RMK AO2 SLP114 P0017 60040 T01830167 58002=
201408130802 SPECI KPAE 130802Z AUTO 22007KT 3SM RA BR FEW007 SCT027 OVC085 19/17 A2990 RMK AO2 P0003 T01890172=
201408130753 METAR KPAE 130753Z AUTO 22008KT 3SM RA BR SCT007 BKN027 OVC090 19/18 A2990=
201408130727 SPECI KPAE 130727Z AUTO 18007KT 4SM RA BR BKN008 BKN028 OVC065 19/18 A2992 RMK AO2 P0009 T01890178=
201408130720 SPECI KPAE 130720Z AUTO 19009KT 4SM RA BR SCT008 BKN050 OVC090 19/18 A2991 RMK AO2 P0007 T01890178=
201408130653 METAR KPAE 130653Z AUTO 17011KT 5SM -RA BR BKN050 OVC090 19/18 A2991 RMK AO2 SLP125 P0003 T01940178=
201408130553 METAR KPAE 130553Z AUTO 18008KT 10SM -RA BKN110 21/17 A2988 RMK AO2 RAB47 SLP115 P0000 60000 T02060167 10222 20206 50004=
201408130453 METAR KPAE 130453Z AUTO 16007KT 10SM CLR 22/13 A2989 RMK AO2 SLP116 T02170133=
201408130353 METAR KPAE 130353Z AUTO 15003KT 10SM SCT110 22/13 A2988 RMK AO2 SLP113 T02220128=
201408130253 METAR KPAE 130253Z 23004KT 10SM CLR 22/13 A2987 RMK AO2 SLP111 T02170128 50008=
201408130153 METAR KPAE 130153Z 21007KT 10SM BKN100 22/13 A2989 RMK AO2 SLP117 T02170128=
201408130053 METAR KPAE 130053Z 01003KT 10SM CLR 22/13 A2984 RMK AO2 SLP102 T02170133=
201408122353 METAR KPAE 122353Z 35006KT 10SM CLR 21/13 A2984 RMK AO2 SLP102 60000 T02060128 10222 20183 56020=
201408122253 METAR KPAE 122253Z VRB03KT 10SM CLR 22/13 A2985 RMK AO2 SLP105 T02170128=
201408122153 METAR KPAE 122153Z 33005KT 10SM CLR 22/12 A2989 RMK AO2 SLP118 T02170122=
201408122053 METAR KPAE 122053Z VRB05KT 10SM FEW055 SCT090 BKN110 18/12 A2990 RMK AO2 SLP122 60000 T01830122 58007=
201408121953 METAR KPAE 121953Z 02004KT 10SM FEW085 19/14 A2991 RMK AO2 SLP126 T01890139=
201408121853 METAR KPAE 121853Z 30004KT 10SM CLR 19/14 A2992 RMK AO2 RAB07E24 SLP129 P0000 T01940144=
201408121753 METAR KPAE 121753Z 19006KT 10SM BKN100 19/14 A2992 RMK AO2 SLP129 60000 T01890144 10228 20178 53017=
201408121653 METAR KPAE 121653Z 23006KT 10SM OVC120 18/13 A2989 RMK AO2 SLP119 T01780133=
201408121553 METAR KPAE 121553Z 32003KT 10SM FEW085 21/14 A2987 RMK AO2 SLP111 T02060144=
201408121453 METAR KPAE 121453Z 21004KT 10SM SCT100 BKN120 19/15 A2987 RMK AO2 RAB14E36 SLP112 P0000 60000 T01940150 53002=
201408121353 METAR KPAE 121353Z 05003KT 10SM FEW120 22/15 A2985 RMK AO2 SLP102 T02220150=
201408121253 METAR KPAE 121253Z AUTO 02003KT 10SM CLR 21/16 A2985 RMK AO2 SLP105 T02110156=
201408121153 METAR KPAE 121153Z AUTO 08003KT 10SM BKN120 22/14 A2987 RMK AO2 RAB06E39 SLP108 P0001 60001 70005 T02170144 10244 20194 53005=
201408121053 METAR KPAE 121053Z AUTO 36003KT 10SM CLR 21/13 A2985 RMK AO2 SLP104 T02110128=
201408120953 METAR KPAE 120953Z AUTO 01004KT 10SM CLR 21/14 A2984 RMK AO2 SLP100 T02110139=
201408120853 METAR KPAE 120853Z AUTO VRB03KT 10SM CLR 21/16 A2985 RMK AO2 SLP104 T02110161 56006=
201408120753 METAR KPAE 120753Z AUTO 03005KT 10SM CLR 23/16 A2985 RMK AO2 SLP104 T02280161 403280172=
201408120653 METAR KPAE 120653Z AUTO 10005KT 10SM FEW100 24/16 A2986 RMK AO2 SLP107 T02440156=
201408120553 METAR KPAE 120553Z AUTO 27007KT 10SM CLR 23/16 A2987 RMK AO2 LTG DSNT N RAB0455E12 TSE15 SLP110 P0004 60004 T02280161 10317 20211 50006=
201408120520 SPECI KPAE 120520Z AUTO 00000KT 10SM FEW043 SCT090 22/18 A2985 RMK AO2 LTG DSNT N RAB0455E12 TSE15 P0004 T02170178=
201408120453 METAR KPAE 120453Z AUTO 15006KT 9SM TS FEW055 SCT100 26/13 A2989 RMK AO2 SLP117 T02610128=
201408120451 SPECI KPAE 120451Z AUTO 00000KT 10SM TS FEW100 26/13 A2989 RMK AO2=
201408120353 METAR KPAE 120353Z AUTO 33004KT 10SM CLR 26/12 A2985 RMK AO2 SLP103 T02610117 TSNO=
201408120253 METAR KPAE 120253Z 35004KT 10SM CLR 27/13 A2985 RMK AO2 SLP102 T02670133 53000=
201408120153 METAR KPAE 120153Z 36005KT 10SM CLR 28/14 A2984 RMK AO2 SLP101 T02780139=
201408120053 METAR KPAE 120053Z 03004KT 10SM CLR 29/14 A2985 RMK AO2 SLP102 T02940144=
201408112353 METAR KPAE 112353Z 36004KT 10SM CLR 32/13 A2985 RMK AO2 SLP102 T03220133 10328 20250 58022=
201408112253 METAR KPAE 112253Z VRB03KT 10SM CLR 32/12 A2987 RMK AO2 SLP112 T03220122=
201408112153 METAR KPAE 112153Z 32006KT 10SM CLR 31/13 A2989=
201408112053 METAR KPAE 112053Z 35004KT 10SM CLR 29/12 A2991 RMK AO2 SLP124 T02940122 58013=
201408111953 METAR KPAE 111953Z 36003KT 10SM CLR 28/14 A2993 RMK AO2 SLP130 T02780139=
201408111853 METAR KPAE 111853Z 34004KT 10SM CLR 26/14 A2994 RMK AO2 SLP134 T02560144=
201408111753 METAR KPAE 111753Z VRB03KT 10SM CLR 25/13 A2995 RMK AO2 SLP137 T02500133 10250 20172 56010=
201408111653 METAR KPAE 111653Z 35004KT 10SM CLR 23/14 A2995 RMK AO2 SLP139 T02330139=
201408111553 METAR KPAE 111553Z 02006KT 10SM CLR 21/15 A2996 RMK AO2 SLP142 T02110150=
201408111453 METAR KPAE 111453Z 00000KT 10SM CLR 20/14 A2998 RMK AO2 SLP149 T02000139 55006=
201408111353 METAR KPAE 111353Z 00000KT 10SM CLR 18/14 A2998 RMK AO2 SLP148 T01830139=
201408111253 METAR KPAE 111253Z AUTO 00000KT 10SM CLR 18/14 A2998 RMK AO2 SLP149 T01830139=
201408111153 METAR KPAE 111153Z AUTO 00000KT 10SM CLR 18/12 A3000 RMK AO2 SLP155 T01780122 10211 20172 58002=
201408111053 METAR KPAE 111053Z AUTO 00000KT 10SM CLR 18/11 A3001 RMK AO2 SLP158 T01830111=
201408110953 METAR KPAE 110953Z AUTO 03003KT 10SM CLR 18/11 A3001 RMK AO2 SLP158 T01830111=
201408110853 METAR KPAE 110853Z AUTO VRB03KT 10SM CLR 18/12 A3000 RMK AO2 SLP157 T01830117 58005=
201408110753 METAR KPAE 110753Z AUTO 35003KT 10SM CLR 18/12 A3001 RMK AO2 SLP159 T01780117 402670139=
201408110653 METAR KPAE 110653Z AUTO 00000KT 10SM CLR 20/11 A3002 RMK AO2 SLP162 T02000111=
201408110553 METAR KPAE 110553Z AUTO 00000KT 10SM CLR 21/11 A3002 RMK AO2 SLP161 T02060106 10267 20194 53002=
201408110453 METAR KPAE 110453Z AUTO 35003KT 10SM CLR 22/11 A3001 RMK AO2 SLP161 T02170111=
201408110353 METAR KPAE 110353Z AUTO 35005KT 10SM CLR 23/11 A3000 RMK AO2 SLP157 T02280106=
201408110253 METAR KPAE 110253Z 35004KT 10SM CLR 24/12 A3001 RMK AO2 SLP159 T02440117 56015=
201408110153 METAR KPAE 110153Z 35005KT 10SM CLR 26/12 A3002 RMK AO2 SLP162 T02560122=
201408110053 METAR KPAE 110053Z 34006KT 10SM CLR 27/13 A3003 RMK AO2 SLP167 T02670128=
201408102353 METAR KPAE 102353Z 34010G15KT 10SM CLR 26/13 A3005 RMK AO2 SLP174 T02610128 10267 20217 56019=
201408102253 METAR KPAE 102253Z 34007KT 10SM CLR 26/13 A3007 RMK AO2 SLP181 T02560133=
201408102153 METAR KPAE 102153Z 35008KT 10SM CLR 26/13 A3009 RMK AO2 SLP186 T02560128=
201408102053 METAR KPAE 102053Z 01008KT 10SM CLR 24/12 A3011 RMK AO2 SLP194 T02440122 58010=
201408101953 METAR KPAE 101953Z 36009KT 10SM CLR 24/12 A3013 RMK AO2 SLP199 T02390117=
201408101853 METAR KPAE 101853Z 34007KT 10SM CLR 22/12 A3014 RMK AO2 SLP204 T02220117=
201408101753 METAR KPAE 101753Z 01005KT 10SM CLR 22/11 A3014 RMK AO2 SLP206 T02220111 10222 20139 58000=
201408101653 METAR KPAE 101653Z 01004KT 10SM CLR 19/12 A3015 RMK AO2 SLP209 T01890117=
201408101553 METAR KPAE 101553Z 01004KT 10SM CLR 18/12 A3015 RMK AO2 SLP208 T01780117=
201408101453 METAR KPAE 101453Z 36005KT 10SM CLR 16/11 A3015 RMK AO2 SLP207 T01610106 53005=
201408101353 METAR KPAE 101353Z 03005KT 10SM CLR 16/11 A3014 RMK AO2 SLP205 T01560106=
201408101253 METAR KPAE 101253Z AUTO 03004KT 10SM CLR 14/09 A3013 RMK AO2 SLP201 T01440094=
201408101153 METAR KPAE 101153Z AUTO 02004KT 10SM CLR 15/09 A3013 RMK AO2 SLP201 T01500089 10161 20150 56004=
201408101053 METAR KPAE 101053Z AUTO 03004KT 10SM CLR 16/09 A3013 RMK AO2 SLP202 T01560094=
201408100953 METAR KPAE 100953Z AUTO 05003KT 10SM CLR 15/10 A3014 RMK AO2 SLP204 T01500100=
201408100853 METAR KPAE 100853Z AUTO 04003KT 10SM CLR 15/09 A3014 RMK AO2 SLP205 T01500094 50003=
201408100753 METAR KPAE 100753Z AUTO 06004KT 10SM CLR 16/10 A3014 RMK AO2 SLP205 T01560100 402440133=
201408100653 METAR KPAE 100653Z AUTO 02005KT 10SM CLR 16/10 A3014 RMK AO2 SLP205 T01610100=
201408100553 METAR KPAE 100553Z AUTO 01006KT 10SM CLR 16/10 A3013 RMK AO2 SLP203 T01560100 10244 20150 52003=
201408100453 METAR KPAE 100453Z AUTO 01007KT 10SM CLR 16/10 A3013 RMK AO2 SLP203 T01560100=
201408100353 METAR KPAE 100353Z AUTO 01007KT 10SM CLR 17/10 A3012 RMK AO2 SLP199 T01670100=
201408100253 METAR KPAE 100253Z 03006KT 10SM CLR 18/09 A3012 RMK AO2 SLP199 T01780089 55004=
201408100153 METAR KPAE 100153Z 35005KT 10SM CLR 21/11 A3012 RMK AO2 SLP199 T02060111=
201408100053 METAR KPAE 100053Z 34006KT 10SM CLR 23/10 A3013 RMK AO2 SLP200 T02330100=
201408092353 METAR KPAE 092353Z 34006KT 10SM CLR 24/09 A3013 RMK AO2 SLP202 T02390094 10239 20178 56009=
201408092253 METAR KPAE 092253Z 35009KT 10SM CLR 23/10 A3014 RMK AO2 SLP204 T02330100=
201408092153 METAR KPAE 092153Z 36008KT 10SM CLR 23/09 A3015 RMK AO2 SLP208 T02280089=
201408092053 METAR KPAE 092053Z 29006KT 10SM CLR 23/11 A3016 RMK AO2 SLP211 T02280111 56007=
201408091953 METAR KPAE 091953Z VRB05KT 10SM CLR 21/11 A3016 RMK AO2 SLP212 T02110111=
201408091853 METAR KPAE 091853Z 29005KT 10SM CLR 20/11 A3018 RMK AO2 SLP216 T02000111=
201408091753 METAR KPAE 091753Z VRB04KT 10SM CLR 18/11 A3018 RMK AO2 SLP219 T01780106 10189 20133 51005=
201408091653 METAR KPAE 091653Z 00000KT 10SM CLR 17/09 A3018 RMK AO2 SLP219 T01670094=
201408091553 METAR KPAE 091553Z VRB03KT 10SM CLR 17/09 A3018 RMK AO2 SLP218 T01720094=
201408091453 METAR KPAE 091453Z 02004KT 10SM CLR 15/09 A3017 RMK AO2 SLP214 T01500094 53008=
201408091353 METAR KPAE 091353Z 00000KT 10SM CLR 14/09 A3016 RMK AO2 SLP211 T01390094=
201408091253 METAR KPAE 091253Z AUTO 00000KT 10SM CLR 14/09 A3015 RMK AO2 SLP207 T01390089=
201408091153 METAR KPAE 091153Z AUTO 04003KT 10SM CLR 14/09 A3014 RMK AO2 SLP205 T01390094 10156 20133 53005=
201408091053 METAR KPAE 091053Z AUTO 02005KT 10SM CLR 14/09 A3014 RMK AO2 SLP204 T01440094=
201408090953 METAR KPAE 090953Z AUTO 02004KT 10SM CLR 14/09 A3013 RMK AO2 SLP200 T01440089=
201408090853 METAR KPAE 090853Z AUTO 04005KT 10SM CLR 15/09 A3013 RMK AO2 SLP200 T01500089 52003=
201408090753 METAR KPAE 090753Z AUTO 04005KT 10SM CLR 16/09 A3012 RMK AO2 SLP198 T01560089 402390133=
201408090653 METAR KPAE 090653Z AUTO 03004KT 10SM CLR 16/09 A3012 RMK AO2 SLP198 T01560094=
201408090553 METAR KPAE 090553Z AUTO 01007KT 10SM CLR 16/09 A3012 RMK AO2 SLP198 T01560094 10239 20150 53002=
201408090453 METAR KPAE 090453Z AUTO 01008G15KT 10SM CLR 16/09 A3012 RMK AO2 SLP197 T01610094=
201408090353 METAR KPAE 090353Z AUTO 01009G16KT 10SM CLR 16/09 A3011 RMK AO2 SLP194 T01610094=
201408090253 METAR KPAE 090253Z 36007KT 10SM CLR 17/11 A3011 RMK AO2 SLP196 T01720106 51002=
201408090153 METAR KPAE 090153Z 35006G16KT 10SM CLR 21/11 A3011 RMK AO2 SLP195 T02060106=
201408090053 METAR KPAE 090053Z VRB06KT 10SM CLR 22/10 A3011 RMK AO2 SLP194 T02220100=
201408082353 METAR KPAE 082353Z 36004KT 10SM CLR 24/08 A3011 RMK AO2 SLP193 T02390083 10239 20178 58008=
201408082253 METAR KPAE 082253Z VRB04KT 10SM CLR 23/09 A3011 RMK AO2 SLP196 T02280089=
201408082153 METAR KPAE 082153Z VRB04KT 10SM CLR 22/09 A3013 RMK AO2 SLP201 T02220089=
201408082053 METAR KPAE 082053Z 24005KT 10SM CLR 22/09 A3013 RMK AO2 SLP201 T02170094 58003=
201408081953 METAR KPAE 081953Z 28006KT 10SM CLR 20/09 A3013 RMK AO2 SLP203 T02000094=
201408081853 METAR KPAE 081853Z 25005KT 10SM CLR 19/11 A3014 RMK AO2 SLP205 T01940111=
201408081753 METAR KPAE 081753Z 30004KT 10SM FEW017 18/12 A3014 RMK AO2 SLP205 T01780117 10183 20133 51009=
201408081653 METAR KPAE 081653Z VRB03KT 10SM FEW017 17/11 A3013 RMK AO2 SLP203 T01670111=
201408081553 METAR KPAE 081553Z 35003KT 10SM FEW017 SCT033 16/11 A3012 RMK AO2 SLP200 T01610106=
201408081453 METAR KPAE 081453Z 00000KT 10SM SCT033 14/11 A3011 RMK AO2 SLP196 T01440106 51009=
201408081353 METAR KPAE 081353Z VRB04KT 10SM FEW060 14/11 A3010=
201408081253 METAR KPAE 081253Z AUTO 05003KT 10SM SCT050 BKN070 13/11 A3010 RMK AO2 SLP189 T01330106=
201408081153 METAR KPAE 081153Z AUTO 05005KT 10SM BKN046 BKN055 14/11 A3009 RMK AO2 SLP186 T01390106 10144 20133 52005=
201408081053 METAR KPAE 081053Z AUTO 04004KT 10SM CLR 14/11 A3008 RMK AO2 SLP184 T01390106=
201408080953 METAR KPAE 080953Z AUTO 02005KT 10SM SCT070 14/11 A3007 RMK AO2 SLP182 T01390106=
201408080853 METAR KPAE 080853Z AUTO 03005KT 10SM CLR 14/11 A3007 RMK AO2 SLP181 T01390106 53004=
201408080753 METAR KPAE 080753Z AUTO 02005KT 10SM CLR 14/09 A3007 RMK AO2 SLP180 T01390094 402440133=
201408080653 METAR KPAE 080653Z AUTO 01006KT 10SM CLR 14/09 A3006 RMK AO2 SLP178 T01440094=
201408080553 METAR KPAE 080553Z AUTO 36009G17KT 10SM OVC060 14/10 A3006 RMK AO2 SLP178 T01440100 10239 20144 50004=
201408080453 METAR KPAE 080453Z AUTO 01009KT 10SM CLR 15/10 A3006 RMK AO2 SLP180 T01500100=
201408080353 METAR KPAE 080353Z AUTO 01008KT 10SM CLR 16/11 A3005 RMK AO2 SLP175 T01560106=
201408080253 METAR KPAE 080253Z 36008KT 10SM CLR 17/12 A3005 RMK AO2 SLP174 T01720117 55003=
201408080153 METAR KPAE 080153Z 35006KT 10SM CLR 21/12 A3004 RMK AO2 SLP172 T02110117=
201408080053 METAR KPAE 080053Z 36008KT 10SM CLR 22/13 A3005 RMK AO2 SLP174 T02170128=
201408072353 METAR KPAE 072353Z 30006KT 10SM CLR 24/12 A3006 RMK AO2 SLP176 T02390122 10244 20178 56011=
201408072253 METAR KPAE 072253Z 28008KT 10SM CLR 23/12 A3007 RMK AO2 SLP179 T02280122=
201408072153 METAR KPAE 072153Z 26008KT 10SM CLR 23/13 A3008 RMK AO2 SLP183 T02330128=
201408072053 METAR KPAE 072053Z 27007KT 10SM CLR 23/12 A3009 RMK AO2 SLP187 T02280117 58006=
201408071953 METAR KPAE 071953Z 27008KT 10SM CLR 21/12 A3010 RMK AO2 SLP191 T02110122=
201408071853 METAR KPAE 071853Z 26006KT 10SM CLR 20/13 A3011 RMK AO2 SLP193 T02000133=
201408071753 METAR KPAE 071753Z 25007KT 10SM FEW040 18/13 A3011 RMK AO2 SLP195 T01780133 10183 20133 51003=
201408071653 METAR KPAE 071653Z 27005KT 10SM SCT040 18/13 A3011 RMK AO2 SLP193 T01780133=
201408071556 SPECI KPAE 071556Z 26003KT 10SM SCT012 17/13 A3011 RMK AO2 T01670128=
201408071553 METAR KPAE 071553Z 25003KT 10SM SCT005 BKN042 17/13 A3011 RMK AO2 SLP194 T01670133=
201408071453 METAR KPAE 071453Z 06003KT 9SM SCT002 OVC042 14/13 A3010 RMK AO2 SLP191 T01440128 51003=
201408071401 SPECI KPAE 071401Z 05003KT 7SM SCT002 OVC042 14/13 A3010 RMK AO2 T01390128=
201408071353 METAR KPAE 071353Z 00000KT 7SM BKN002 OVC042 14/13 A3010 RMK AO2 SLP190 T01390128=
201408071253 METAR KPAE 071253Z AUTO 00000KT 9SM OVC003 14/13 A3010 RMK AO2 SLP189 T01390128=
201408071226 SPECI KPAE 071226Z AUTO 00000KT 9SM OVC003 14/13 A3009 RMK AO2 T01390128=
201408071159 SPECI KPAE 071159Z AUTO 00000KT 3SM R16R/2400VP6000FT BR OVC001 13/13 A3009 RMK AO2 T01330128=
201408071153 METAR KPAE 071153Z AUTO 00000KT 1 1/4SM R16R/1600V4000FT BR BKN001 13/13 A3009 RMK AO2 SLP188 T01330128 10167 20133 51001=
201408071142 SPECI KPAE 071142Z AUTO 34003KT 2 1/2SM R16R/2600VP6000FT BR BKN001 BKN034 14/13 A3009 RMK AO2 VIS 1 3/4V4 T01390128=
201408071139 SPECI KPAE 071139Z AUTO 34003KT 4SM BR SCT001 BKN034 14/13 A3009 RMK AO2 T01390128=
201408071053 METAR KPAE 071053Z AUTO 02003KT 10SM BKN033 15/13 A3009 RMK AO2 SLP188 T01500128=
201408070953 METAR KPAE 070953Z AUTO 06003KT 10SM CLR 16/12 A3009 RMK AO2 SLP187 T01560122=
201408070853 METAR KPAE 070853Z AUTO 06004KT 10SM CLR 16/12 A3009 RMK AO2 SLP187 T01560117 58000=
201408070753 METAR KPAE 070753Z AUTO 03005KT 10SM CLR 17/12 A3009 RMK AO2 SLP188 T01670122 402440139=
201408070653 METAR KPAE 070653Z AUTO 01004KT 10SM CLR 16/12 A3009 RMK AO2 SLP188 T01610122=
201408070553 METAR KPAE 070553Z AUTO 01008KT 10SM CLR 17/12 A3009 RMK AO2 SLP188 T01670117 10244 20167 51002=
201408070453 METAR KPAE 070453Z 01008KT 10SM CLR 17/11 A3009 RMK AO2 SLP188 T01670111=
201408070353 METAR KPAE 070353Z 36006KT 10SM CLR 18/10 A3009 RMK AO2 SLP188 T01780100=
201408070253 METAR KPAE 070253Z 36007KT 10SM CLR 21/12 A3008 RMK AO2 SLP185 T02060122 56009=
201408070153 METAR KPAE 070153Z 35005KT 10SM CLR 22/13 A3009 RMK AO2 SLP186 T02220133=
201408070053 METAR KPAE 070053Z 01004KT 10SM CLR 24/14 A3010 RMK AO2 SLP190 T02390139=
201408062353 METAR KPAE 062353Z VRB03KT 10SM CLR 23/13 A3011 RMK AO2 SLP194 T02330133 10233 20178 56011=
201408062253 METAR KPAE 062253Z VRB04KT 10SM CLR 23/14 A3013 RMK AO2 SLP198 T02330139=
201408062153 METAR KPAE 062153Z 30005KT 10SM CLR 23/14 A3013 RMK AO2 SLP200 T02330139=
201408062053 METAR KPAE 062053Z 26005KT 10SM CLR 22/14 A3014 RMK AO2 SLP206 T02170139 58008=
201408061953 METAR KPAE 061953Z 26007KT 10SM SCT015 21/14 A3016 RMK AO2 SLP210 T02110144=
201408061909 SPECI KPAE 061909Z 00000KT 10SM SCT015 19/14 A3016 RMK AO2 T01940144=
201408061853 METAR KPAE 061853Z VRB03KT 10SM BKN015 19/14 A3017 RMK AO2 SLP213 T01940144=
201408061839 SPECI KPAE 061839Z VRB03KT 10SM OVC014 19/14 A3017 RMK AO2 T01890139=
201408061753 METAR KPAE 061753Z 20005KT 10SM OVC008 18/14 A3017 RMK AO2 SLP215 T01780144 10178 20139 51002=
201408061653 METAR KPAE 061653Z 19003KT 4SM BR OVC006 16/14 A3017 RMK AO2 SLP214 T01610139=
201408061553 METAR KPAE 061553Z 00000KT 4SM BR OVC003 15/14 A3016 RMK AO2 SLP212 T01500139=
201408061500 SPECI KPAE 061500Z 21004KT 7SM OVC003 15/14 A3016 RMK AO2 T01500139=
201408061453 METAR KPAE 061453Z 21003KT 1SM R16R/P6000FT BR OVC004 15/14 A3016 RMK AO2 SLP211 T01500139 53011=
201408061418 SPECI KPAE 061418Z 16004KT 1SM R16R/P6000FT BR BKN004 14/13 A3015 RMK AO2 T01440133=
201408061403 SPECI KPAE 061403Z 22003KT 1SM R16R/P6000FT BR FEW006 FEW043 14/13 A3015 RMK AO2 T01440133=
201408061401 SPECI KPAE 061401Z 23003KT 1SM R16R/P6000FT BR FEW043 14/13 A3015 RMK AO2 T01440133=
201408061353 METAR KPAE 061353Z 00000KT 9SM FEW043 14/13 A3015 RMK AO2 SLP207 T01440133=
201408061327 SPECI KPAE 061327Z AUTO 00000KT 9SM FEW001 14/13 A3014 RMK AO2 T01390133=
201408061320 SPECI KPAE 061320Z AUTO 00000KT 1 1/2SM BR FEW001 14/13 A3013 RMK AO2 T01390133=
201408061253 METAR KPAE 061253Z AUTO 00000KT 1/2SM R16R/2400VP6000FT FG VV001 14/14 A3013 RMK AO2 SLP200 T01440139=
201408061239 SPECI KPAE 061239Z AUTO 27004KT 3/4SM R16R/1800VP6000FT BR VV001 14/13 A3013 RMK AO2 T01390133=
201408061236 SPECI KPAE 061236Z AUTO 28005KT 1 3/4SM R16R/2400VP6000FT BR SCT001 14/13 A3013 RMK AO2 T01390133=
201408061232 SPECI KPAE 061232Z AUTO 28004KT 6SM BR SCT001 14/13 A3013 RMK AO2 T01390128=
201408061153 METAR KPAE 061153Z AUTO 00000KT 10SM CLR 14/13 A3013 RMK AO2 SLP199 T01440128 10167 20144 52006=
201408061053 METAR KPAE 061053Z AUTO VRB03KT 10SM CLR 16/13 A3012 RMK AO2 SLP196 T01610128=
201408060953 METAR KPAE 060953Z AUTO 00000KT 10SM CLR 16/13 A3012 RMK AO2 SLP196 T01610128=
201408060853 METAR KPAE 060853Z AUTO 04004KT 10SM CLR 16/13 A3011 RMK AO2 SLP194 T01610128 51006=
201408060753 METAR KPAE 060753Z AUTO 05007KT 10SM CLR 16/13 A3010 RMK AO2 SLP192 T01560128 402440128=
201408060653 METAR KPAE 060653Z AUTO 03007KT 10SM CLR 16/13 A3009 RMK AO2 SLP189 T01610133=
201408060553 METAR KPAE 060553Z AUTO 03005KT 10SM CLR 16/14 A3009 RMK AO2 SLP188 T01610139 10239 20161 53006=
201408060453 METAR KPAE 060453Z AUTO 05003KT 10SM CLR 18/14 A3008 RMK AO2 SLP186 T01780139=
201408060353 METAR KPAE 060353Z 03005KT 10SM CLR 18/13 A3007 RMK AO2 SLP183 T01780133=
201408060253 METAR KPAE 060253Z VRB04KT 10SM CLR 19/13 A3007 RMK AO2 SLP181 T01890133 55001=
201408060153 METAR KPAE 060153Z 36005KT 10SM CLR 23/12 A3007 RMK AO2 SLP179 T02280122=
201408060053 METAR KPAE 060053Z 03006KT 10SM CLR 24/11 A3007 RMK AO2 SLP180 T02390111=
201408052353 METAR KPAE 052353Z VRB04KT 10SM CLR 23/12 A3007 RMK AO2 SLP182 T02330117 10244 20161 58005=
201408052253 METAR KPAE 052253Z AUTO 30005KT 10SM CLR 22/12 A3008 RMK AO2 SLP185 T02170122 TSNO=
201408052153 METAR KPAE 052153Z 27005KT 10SM CLR 20/13 A3009 RMK AO2 SLP187 T02000128=
201408052053 METAR KPAE 052053Z 24008KT 10SM CLR 18/12 A3009 RMK AO2 SLP188 T01780122 56002=
201408051953 METAR KPAE 051953Z 25011KT 10SM CLR 18/13 A3009 RMK AO2 SLP188 T01830128=
201408051853 METAR KPAE 051853Z 23010KT 10SM CLR 17/12 A3010 RMK AO2 SLP191 T01720122=
201408051801 SPECI KPAE 051801Z 26008KT 10SM SCT010 16/13 A3010 RMK AO2 T01610128=
201408051753 METAR KPAE 051753Z 25008KT 10SM OVC010 16/12 A3010 RMK AO2 SLP191 T01560122 10161 20128 52002=
201408051653 METAR KPAE 051653Z 18005KT 10SM OVC009 16/12 A3010 RMK AO2 SLP191 T01560122=
201408051553 METAR KPAE 051553Z 18004KT 10SM OVC007 14/12 A3009 RMK AO2 SLP189 T01440122=
201408051453 METAR KPAE 051453Z 25005KT 4SM BR OVC004 14/13 A3009 RMK AO2 SLP188 T01390128 53019=
201408051407 SPECI KPAE 051407Z 25004KT 10SM OVC004 13/12 A3007 RMK AO2 CIG 003V007 T01330122=
201408051353 METAR KPAE 051353Z 23005KT 10SM OVC006 13/12 A3007 RMK AO2 SLP180 T01330122=
201408051330 SPECI KPAE 051330Z AUTO VRB03KT 10SM BKN006 14/12 A3006 RMK AO2 T01390117=
201408051319 SPECI KPAE 051319Z AUTO 00000KT 10SM SCT008 13/12 A3006 RMK AO2 T01330117=
201408051253 METAR KPAE 051253Z AUTO 00000KT 10SM CLR 13/12 A3005 RMK AO2 SLP174 T01280117=
201408051153 METAR KPAE 051153Z AUTO 00000KT 9SM CLR 13/12 A3003 RMK AO2 SLP167 T01280117 10183 20128 53016=
201408051119 SPECI KPAE 051119Z AUTO 04003KT 10SM SCT001 13/12 A3002 RMK AO2 T01280122=
201408051106 SPECI KPAE 051106Z AUTO 36003KT 3SM R16R/3500VP6000FT BR BKN001 13/12 A3002 RMK AO2 T01280122=
201408051102 SPECI KPAE 051102Z AUTO 03004KT 1SM R16R/1800VP6000FT BR VV001 13/12 A3002 RMK AO2 T01280122=
201408051053 METAR KPAE 051053Z AUTO 00000KT 1/4SM R16R/2600VP6000FT FG VV001 13/12 A3002 RMK AO2 SLP161 T01280122=
201408051045 SPECI KPAE 051045Z AUTO 31004KT 1/4SM R16R/2800VP6000FT FG VV001 13/12 A3001 RMK AO2 T01280122=
201408051034 SPECI KPAE 051034Z AUTO VRB03KT 1 1/4SM R16R/3000VP6000FT BR OVC001 13/12 A3001 RMK AO2 VIS 3/4V4 T01280122=
201408051026 SPECI KPAE 051026Z AUTO 36004KT 1 3/4SM R16R/2000VP6000FT BR OVC002 13/12 A3001 RMK AO2 T01280122=
201408050953 METAR KPAE 050953Z AUTO 00000KT 10SM BKN003 13/12 A3000 RMK AO2 SLP156 T01330122=
201408050946 SPECI KPAE 050946Z AUTO 01003KT 10SM SCT003 13/12 A3000 RMK AO2 T01330122=
201408050853 METAR KPAE 050853Z AUTO 01004KT 10SM CLR 14/12 A2999 RMK AO2 SLP151 T01440117 51005=
201408050753 METAR KPAE 050753Z AUTO 02007KT 10SM CLR 14/13 A2998 RMK AO2 SLP149 T01440128 402890144=
201408050653 METAR KPAE 050653Z AUTO 04004KT 10SM CLR 16/12 A2998 RMK AO2 SLP148 T01560122=
201408050553 METAR KPAE 050553Z AUTO 02004KT 10SM CLR 18/12 A2997 RMK AO2 SLP146 T01830117 10278 20172 53008=
201408050453 METAR KPAE 050453Z AUTO 04006KT 10SM CLR 18/12 A2996 RMK AO2 SLP143 T01780117=
201408050353 METAR KPAE 050353Z AUTO 36007KT 10SM CLR 18/12 A2995 RMK AO2 SLP140 T01780117=
201408050253 METAR KPAE 050253Z 02006KT 10SM CLR 21/12 A2995 RMK AO2 SLP138 T02060122 55002=
201408050153 METAR KPAE 050153Z 36006KT 10SM CLR 24/12 A2994 RMK AO2 SLP137 T02440122=
201408050053 METAR KPAE 050053Z 36007KT 10SM CLR 26/12 A2995 RMK AO2 SLP138 T02610122=
201408042353 METAR KPAE 042353Z 36009KT 10SM CLR 27/11 A2995 RMK AO2 SLP139 T02720111 10289 20228 58010=
201408042253 METAR KPAE 042253Z 34006KT 10SM CLR 28/12 A2996 RMK AO2 SLP143 T02830122=
201408042153 METAR KPAE 042153Z 34006KT 10SM CLR 28/12 A2997 RMK AO2 SLP145 T02830122=
201408042053 METAR KPAE 042053Z 29004KT 10SM CLR 26/14 A2998 RMK AO2 SLP150 T02610139 58009=
201408041953 METAR KPAE 041953Z 30005KT 10SM CLR 26/14 A2999 RMK AO2 SLP153 T02560139=
201408041853 METAR KPAE 041853Z 35004KT 10SM CLR 25/14 A3000 RMK AO2 SLP156 T02500139=
201408041753 METAR KPAE 041753Z VRB03KT 10SM CLR 23/13 A3001 RMK AO2 SLP158 T02280133 10233 20156 58001=
201408041653 METAR KPAE 041653Z VRB04KT 10SM CLR 21/13 A3001 RMK AO2 SLP161 T02060128=
201408041553 METAR KPAE 041553Z 00000KT 10SM CLR 19/12 A3002 RMK AO2 SLP161 T01940122=
201408041453 METAR KPAE 041453Z 00000KT 10SM CLR 18/12 A3001 RMK AO2 SLP159 T01780122 53007=
201408041353 METAR KPAE 041353Z 00000KT 10SM CLR 16/12 A3000 RMK AO2 SLP157 T01610122=
201408041253 METAR KPAE 041253Z AUTO 03003KT 10SM CLR 16/12 A3000 RMK AO2 SLP154 T01610117=
201408041153 METAR KPAE 041153Z AUTO 36004KT 10SM CLR 16/11 A2999 RMK AO2 SLP152 T01610111 10189 20144 55001=
201408041053 METAR KPAE 041053Z AUTO 00000KT 10SM CLR 15/12 A2999 RMK AO2 SLP152 T01500117=
201408040953 METAR KPAE 040953Z AUTO 02004KT 10SM CLR 17/11 A2999 RMK AO2 SLP151 T01720106=
201408040853 METAR KPAE 040853Z AUTO 00000KT 10SM CLR 18/11 A2999 RMK AO2 SLP153 T01780106 51003=
201408040753 METAR KPAE 040753Z AUTO 05004KT 10SM CLR 19/11 A2999 RMK AO2 SLP153 T01890111 402780150=
201408040653 METAR KPAE 040653Z AUTO 00000KT 10SM CLR 17/11 A2999 RMK AO2 SLP153 T01720111=
201408040553 METAR KPAE 040553Z AUTO 02007KT 10SM CLR 19/11 A2998 RMK AO2 SLP150 T01890111 10278 20178 51007=
201408040453 METAR KPAE 040453Z AUTO 36005KT 10SM CLR 19/12 A2998 RMK AO2 SLP148 T01890117=
201408040353 METAR KPAE 040353Z AUTO 04003KT 10SM CLR 23/13 A2997 RMK AO2 SLP147 T02280133=
201408040253 METAR KPAE 040253Z 02004KT 10SM CLR 26/13 A2996 RMK AO2 SLP143 T02560133 55005=
201408040153 METAR KPAE 040153Z 01004KT 10SM CLR 27/14 A2995 RMK AO2 SLP140 T02670139=
201408040053 METAR KPAE 040053Z 35006KT 10SM CLR 27/14 A2996 RMK AO2 SLP142 T02670139=
201408032353 METAR KPAE 032353Z 34007KT 10SM CLR 27/14 A2998 RMK AO2 SLP147 T02720144 10278 20222 58017=
201408032253 METAR KPAE 032253Z 34007G15KT 300V020 10SM CLR 27/14 A2999 RMK AO2 SLP153 T02720139=
201408032153 METAR KPAE 032153Z VRB05KT 10SM CLR 26/13 A3001 RMK AO2 SLP160 T02610128=
201408032053 METAR KPAE 032053Z VRB06KT 10SM CLR 26/12 A3003 RMK AO2 SLP164 T02610122 58014=
201408031953 METAR KPAE 031953Z 33004KT 10SM CLR 25/14 A3004 RMK AO2 SLP169 T02500139=
201408031853 METAR KPAE 031853Z 29005KT 10SM CLR 23/13 A3006 RMK AO2 SLP175 T02330133=
201408031753 METAR KPAE 031753Z 31004KT 10SM CLR 23/13 A3007 RMK AO2 SLP178 T02280133 10228 20150 58005=
201408031653 METAR KPAE 031653Z 00000KT 10SM CLR 22/13 A3008 RMK AO2 SLP183 T02170133=
201408031553 METAR KPAE 031553Z 36003KT 10SM CLR 19/12 A3009 RMK AO2 SLP185 T01940122=
201408031453 METAR KPAE 031453Z 35003KT 10SM CLR 18/13 A3008 RMK AO2 SLP183 T01780128 53007=
201408031353 METAR KPAE 031353Z 00000KT 10SM CLR 17/12 A3007 RMK AO2 SLP180 T01670117=
201408031253 METAR KPAE 031253Z AUTO 00000KT 10SM CLR 15/12 A3006 RMK AO2 SLP176 T01500117=
201408031153 METAR KPAE 031153Z AUTO 00000KT 10SM CLR 16/12 A3006 RMK AO2 SLP176 70002 T01560122 10217 20150 51010=
201408031053 METAR KPAE 031053Z AUTO 36003KT 10SM CLR 16/12 A3006 RMK AO2 SLP175 T01560122=
201408030953 METAR KPAE 030953Z AUTO 00000KT 10SM CLR 17/12 A3004 RMK AO2 SLP170 T01720122=
201408030853 METAR KPAE 030853Z AUTO 06004KT 10SM CLR 19/12 A3003 RMK AO2 SLP166 T01890122 53004=
201408030753 METAR KPAE 030753Z AUTO 03003KT 10SM CLR 18/13 A3003 RMK AO2 SLP164 T01830128 402670156=
201408030653 METAR KPAE 030653Z AUTO 04004KT 10SM SCT120 21/12 A3002 RMK AO2 SLP162 T02060122=
201408030553 METAR KPAE 030553Z AUTO 00000KT 10SM SCT120 21/11 A3002 RMK AO2 SLP162 T02060111 10261 20200 51011=
201408030453 METAR KPAE 030453Z AUTO 01005KT 10SM FEW120 21/09 A3001 RMK AO2 SLP161 T02060094=
201408030353 METAR KPAE 030353Z 00000KT 10SM CLR 22/14 A3000 RMK AO2 SLP156 T02170144=
201408030253 METAR KPAE 030253Z 35003KT 10SM CLR 24/13 A2999 RMK AO2 SLP151 T02440133 53004=
201408030153 METAR KPAE 030153Z 33003KT 10SM CLR 24/14 A2998 RMK AO2 SLP148 T02440139=
201408030053 METAR KPAE 030053Z 33003KT 10SM CLR 26/14 A2998 RMK AO2 SLP148 T02610144=
201408022353 METAR KPAE 022353Z 34003KT 10SM CLR 26/14 A2997 RMK AO2 SLP146 60002 T02610139 10267 20183 58014=
201408022253 METAR KPAE 022253Z 34004KT 10SM CLR 25/15 A2999 RMK AO2 SLP153 T02500150=
201408022153 METAR KPAE 022153Z 00000KT 10SM FEW031 22/16 A3000 RMK AO2 RAB20E39 SLP157 P0002 T02220161=
201408022053 METAR KPAE 022053Z 00000KT 10SM FEW120 22/14 A3001 RMK AO2 SLP160 60000 T02220139 55000=
201408022029 SPECI KPAE 022029Z 03004KT 10SM VCTS CLR 23/14 A3001 RMK AO2 T02280139=
201408021953 METAR KPAE 021953Z 00000KT 10SM CLR 22/14 A3000 RMK AO2 RAB13E28 TSB02E17 SLP157 P0000 T02220139=
201408021923 SPECI KPAE 021923Z 00000KT 10SM -RA FEW036 FEW110 21/13 A3001 RMK AO2 LTG DSNT E AND SE RAB13 TSB02E17 P0000 T02060133=
201408021908 SPECI KPAE 021908Z 01005KT 10SM TS FEW110 19/12 A3000 RMK AO2 LTG DSNT E TSB02 T01940122=
201408021853 METAR KPAE 021853Z 00000KT 10SM CLR 19/13 A3002 RMK AO2 LTG DSNT E AND SE SLP162 T01890128=
201408021753 METAR KPAE 021753Z 00000KT 10SM CLR 19/12 A3001 RMK AO2 LTG DSNT E SLP161 T01890117 10189 20156 58001=
201408021653 METAR KPAE 021653Z 00000KT 10SM CLR 18/12 A3002 RMK AO2 SLP164 T01780117=
201408021553 METAR KPAE 021553Z 31004KT 10SM CLR 17/11 A3002 RMK AO2 SLP164 T01720111=
201408021453 METAR KPAE 021453Z 29005KT 10SM CLR 17/11 A3002 RMK AO2 SLP161 T01720111 53009=
201408021353 METAR KPAE 021353Z 36003KT 10SM CLR 16/11 A3001 RMK AO2 SLP159 T01610111=
201408021253 METAR KPAE 021253Z 03003KT 10SM CLR 16/11 A2999 RMK AO2 SLP153 T01610111=
201408021153 METAR KPAE 021153Z 00000KT 10SM CLR 16/11 A2999 RMK AO2 SLP152 T01610106 10200 20156 51005=
201408021053 METAR KPAE 021053Z AUTO 00000KT 10SM CLR 17/10 A2999 RMK AO2 SLP152 T01670100=
201408020953 METAR KPAE 020953Z AUTO 00000KT 10SM CLR 17/12 A2998 RMK AO2 SLP148 T01670117=
201408020853 METAR KPAE 020853Z AUTO 04003KT 10SM CLR 19/09 A2997 RMK AO2 SLP147 T01890089 56004=
201408020753 METAR KPAE 020753Z AUTO 04003KT 10SM CLR 19/10 A2998 RMK AO2 SLP148 T01940100 402670139=
201408020653 METAR KPAE 020653Z AUTO 05004KT 10SM CLR 19/11 A2998 RMK AO2 SLP150 T01940111=
201408020553 METAR KPAE 020553Z AUTO 00000KT 10SM CLR 18/11 A2999 RMK AO2 SLP151 T01780106 10267 20178 50002=
201408020453 METAR KPAE 020453Z AUTO 35003KT 10SM CLR 18/11 A2999 RMK AO2 SLP153 T01830111=
201408020353 METAR KPAE 020353Z AUTO VRB04KT 10SM CLR 20/13 A2999 RMK AO2 SLP151 T02000128=
201408020253 METAR KPAE 020253Z 00000KT 10SM CLR 22/14 A2998 RMK AO2 SLP149 T02220139 55007=
201408020153 METAR KPAE 020153Z 35004KT 10SM CLR 25/14 A2998=
201408020053 METAR KPAE 020053Z 34005KT 10SM CLR 26/13 A2999 RMK AO2 SLP151 T02560133=
201408012353 METAR KPAE 012353Z VRB04KT 10SM CLR 26/13 A3000 RMK AO2 SLP156 T02560133 10256 20211 55017=
201408012253 METAR KPAE 012253Z 02009G16KT 10SM FEW090 24/13 A2998 RMK AO2 PRESFR SLP150 T02390133=
201408012153 METAR KPAE 012153Z 23006KT 10SM CLR 23/12 A3005 RMK AO2 SLP172 T02280122=
201408012053 METAR KPAE 012053Z 29004KT 10SM CLR 24/12 A3005 RMK AO2 SLP173 T02390122 55009=
201408011953 METAR KPAE 011953Z 32004KT 10SM CLR 24/11 A3005 RMK AO2 SLP172 T02440111=
201408011853 METAR KPAE 011853Z VRB03KT 10SM CLR 23/12 A3006 RMK AO2 SLP177 T02330117=
201408011753 METAR KPAE 011753Z 28004KT 10SM CLR 22/11 A3008 RMK AO2 SLP184 T02170106 10222 20139 55003=
201408011653 METAR KPAE 011653Z VRB05KT 10SM CLR 22/10 A3007 RMK AO2 SLP180 T02170100=
201408011553 METAR KPAE 011553Z 00000KT 10SM CLR 21/10 A3008 RMK AO2 SLP184 T02110100=
201408011453 METAR KPAE 011453Z 00000KT 10SM CLR 18/10 A3009 RMK AO2 SLP186 T01830100 53011=
201408011353 METAR KPAE 011353Z 00000KT 10SM CLR 14/11 A3008 RMK AO2 SLP182 T01440106=
201408011253 METAR KPAE 011253Z AUTO 01004KT 10SM CLR 14/10 A3006 RMK AO2 SLP176 T01440100=
201408011153 METAR KPAE 011153Z AUTO 36004KT 10SM CLR 15/10 A3005 RMK AO2 SLP174 T01500100 10183 20139 50001=
201408011053 METAR KPAE 011053Z 00000KT 10SM CLR 15/10 A3006 RMK AO2 SLP175 T01500100=
201408010953 METAR KPAE 010953Z 02004KT 10SM CLR 17/08 A3005 RMK AO2 SLP173 T01720078=
201408010853 METAR KPAE 010853Z 03007KT 10SM CLR 18/08 A3005 RMK AO2 SLP173 T01780083 55001=
201408010753 METAR KPAE 010753Z 01005KT 10SM CLR 18/07 A3005 RMK AO2 SLP173 T01830072 402670139=
201408010653 METAR KPAE 010653Z 01006KT 10SM CLR 18/08 A3005 RMK AO2 SLP174 T01780078=
201408010553 METAR KPAE 010553Z 36008KT 10SM CLR 17/08 A3006 RMK AO2 SLP175 T01670078 10261 20167 52001=
201408010453 METAR KPAE 010453Z 36008KT 10SM CLR 18/08 A3006 RMK AO2 SLP175 T01780078=
201408010353 METAR KPAE 010353Z 01007KT 10SM CLR 17/08 A3005 RMK AO2 SLP176 T01720083=
201408010253 METAR KPAE 010253Z 01005KT 10SM CLR 20/10 A3005 RMK AO2 SLP175 T02000100 58002=
201408010153 METAR KPAE 010153Z 36004KT 10SM CLR 22/10 A3005 RMK AO2 SLP175 T02170100=
201408010053 METAR KPAE 010053Z 36008KT 10SM CLR 24/11 A3006 RMK AO2 SLP177 T02440106=

# No short TAF reports from KPAE in databse.

###################################
#  large TAF from KPAE
###################################
201408312320 TAF KPAE 312320Z 0100/0124 25005KT P6SM SCT030 BKN060 FM010700
                       20005KT P6SM BKN025 BKN040 FM011000 18005KT
                       P6SM OVC020 FM011700 22005KT P6SM BKN040=
201408311720 TAF KPAE 311720Z 3118/0118 18008KT P6SM BKN012 BKN050 FM312000
                       23005KT P6SM SCT020 BKN050 FM010200 VRB04KT
                       P6SM SCT030 BKN060 FM010700 20005KT P6SM
                       BKN025 BKN040 FM011000 18005KT P6SM OVC020
                       FM011700 22005KT P6SM BKN040=
201408311237 TAF AMD KPAE 311237Z 3113/0112 VRB04KT P6SM VCSH FEW004 SCT015
                       OVC060
                      TEMPO 3113/3115 4SM -RA BR FEW004 BKN015
                       OVC060 FM311500 VRB04KT P6SM VCSH SCT006
                       BKN015 OVC030 FM311900 22006KT P6SM VCSH
                       FEW015 BKN035 BKN050 FM010000 33005KT P6SM
                       VCSH BKN035 BKN050 FM010800 VRB03KT P6SM
                       VCSH OVC022 FM011000 VRB03KT P6SM OVC018=
201408311120 TAF KPAE 311120Z 3112/0112 VRB04KT P6SM VCSH SCT015 OVC025
                      TEMPO 3112/3115 3SM -SHRA BR OVC015 FM311900
                       20006KT P6SM VCSH SCT015 BKN035 FM312100
                       23008KT P6SM VCSH BKN045 FM010000 35006KT
                       P6SM VCSH BKN035 BKN050 FM010800 12005KT
                       P6SM VCSH OVC025 FM011000 18004KT P6SM OVC020=
201408310855 TAF AMD KPAE 310855Z 3109/0106 12005KT P6SM VCSH SCT015 SCT025
                       OVC050
                      TEMPO 3109/3111 4SM BR SCT015 OVC025 FM311100
                       VRB04KT 5SM BR BKN015 OVC025 FM311800 18006KT
                       P6SM SCT018 BKN028 BKN045 FM312100 18008KT
                       P6SM SCT030 BKN060 FM010000 33006KT P6SM
                       VCSH BKN030 OVC045=
201408310520 TAF KPAE 310520Z 3106/0106 02006KT P6SM VCSH SCT015 BKN025 OVC050
                       FM311000 VRB04KT P6SM BKN015 OVC025 FM311800
                       18006KT P6SM SCT018 BKN028 BKN045 FM312100
                       18008KT P6SM SCT030 BKN060 FM010000 33006KT
                       P6SM VCSH BKN030 OVC045=
201408302320 TAF KPAE 302320Z 3100/3124 27007KT P6SM VCSH SCT015 OVC030 FM311000
                       16008KT P6SM BKN015 OVC030 FM311700 16008KT
                       P6SM SCT025 BKN050 BKN120=
201408302233 TAF AMD KPAE 302233Z 3023/3118 VRB04KT P6SM VCSH BKN012 OVC025
                       FM310000 27007KT P6SM VCSH BKN025 BKN040
                       FM311000 16008KT P6SM BKN025 OVC045 FM311700
                       16008KT P6SM SCT025 BKN050 BKN120=
201408301720 TAF KPAE 301720Z 3018/3118 18008KT P6SM SCT012 OVC025
                      TEMPO 3018/3022 5SM -RA BR BKN012 OVC020
                       FM302200 20008KT P6SM VCSH BKN035 BKN060
                       FM311000 16008KT P6SM BKN025 OVC045 FM311700
                       16008KT P6SM SCT025 BKN050 BKN120=
201408301354 TAF AMD KPAE 301354Z 3014/3112 VRB03KT P6SM SCT005 OVC015
                      TEMPO 3014/3016 -RA BKN005 OVC015 FM301600
                       17005KT 6SM -RA BR SCT005 OVC012 FM302200
                       21005KT P6SM -SHRA BKN020 OVC035 FM310200
                       VRB03KT P6SM VCSH SCT020 BKN035 BKN060
                      PROB30 3102/3108 -SHRA FM310800 01005KT P6SM
                       SCT020 OVC040=
201408301227 TAF AMD KPAE 301227Z 3012/3112 VRB03KT P6SM FEW005 OVC015
                      TEMPO 3012/3016 -RA FM301600 17005KT 6SM
                       -RA BR SCT005 OVC012 FM302200 21005KT P6SM
                       -SHRA BKN020 OVC035 FM310200 VRB03KT P6SM
                       VCSH SCT020 BKN035 BKN060
                      PROB30 3102/3108 -SHRA FM310800 01005KT P6SM
                       SCT020 OVC040=
201408301137 TAF KPAE 301137Z 3012/3112 35003KT P6SM -RA BKN025 OVC035
                      TEMPO 3013/3017 5SM -SHRA BR SCT008 BKN014
                       OVC020 FM301900 VRB03KT P6SM VCSH SCT018
                       BKN030 FM302300 17005KT P6SM VCSH SCT030
                       BKN060 FM310800 01005KT P6SM SCT020 OVC040=
201408300531 TAF KPAE 300531Z 3006/3106 04003KT P6SM VCSH BKN025 OVC035 FM301300
                       16004KT 6SM -SHRA BR SCT008 BKN014 OVC020
                       FM302000 VRB03KT P6SM VCSH SCT018 BKN030
                       FM302300 34005KT P6SM VCSH SCT050 BKN070=
201408292320 TAF KPAE 292320Z 3000/3024 VRB04KT P6SM SCT015 BKN035 BKN080 FM300600
                       18006KT P6SM OVC015 FM301700 24007KT P6SM
                       SCT025 BKN050=
201408291720 TAF KPAE 291720Z 2918/3018 VRB03KT P6SM SCT015 OVC030
                      TEMPO 2918/2922 5SM -RA BR BKN015 OVC030
                       FM300600 18006KT P6SM OVC015 FM301700 24007KT
                       P6SM SCT025 BKN050=
201408291602 TAF AMD KPAE 291602Z 2916/3012 VRB04KT P6SM SCT006 BKN015 OVC040
                       TEMPO 2916/2918 5SM -DZ BR BKN006 OVC012
                       FM291800 VRB04KT P6SM SCT015 OVC040
                      TEMPO 2918/2921 BKN015 OVC040 FM292100 33006KT
                       P6SM SCT020 OVC040 FM300600 18006KT P6SM
                       OVC015=
201408291310 TAF AMD KPAE 291310Z 2913/3012 VRB03KT P6SM OVC010 FM291500 VRB03KT
                       P6SM OVC007 FM291800 20007KT P6SM OVC015
                       FM292100 23006KT P6SM VCSH BKN025 BKN050=
201408291120 TAF KPAE 291120Z 2912/3012 VRB04KT P6SM OVC014
                      TEMPO 2912/2914 OVC007 FM291400 15003KT P6SM
                       OVC007 FM291700 20007KT P6SM OVC015 FM292100
                       23006KT P6SM VCSH BKN025 BKN050=
201408290536 TAF KPAE 290536Z 2906/3006 34005KT P6SM BKN025 FM291100 18004KT
                       P6SM OVC020 FM291300 15003KT P6SM OVC008
                       FM291700 20007KT P6SM BKN008 OVC020 FM292100
                       23006KT P6SM VCSH BKN020 OVC050=
201408282339 TAF KPAE 282339Z 2900/2924 26004KT P6SM FEW030 FM290100 34005KT
                       P6SM BKN040 FM291100 18004KT P6SM OVC020
                       FM291300 15003KT P6SM OVC008 FM291700 20007KT
                       P6SM BKN008 OVC020 FM292100 23006KT P6SM
                       VCSH BKN020 OVC050=
201408281750 TAF KPAE 281750Z 2818/2918 26005KT P6SM BKN015 OVC020 FM282100
                       29004KT P6SM BKN030 FM290100 35005KT P6SM
                       BKN040 FM291100 18004KT P6SM OVC020 FM291300
                       15003KT P6SM OVC008 FM291700 20007KT P6SM
                       BKN008 OVC020=
201408281321 KPAE 281321Z 2813/2912 VRB03KT P6SM SCT006 SCT060
                      TEMPO 2813/2814 BKN006 BKN060 FM281400 18004KT
                       P6SM OVC006 FM281800 21005KT P6SM BKN015
                       FM282100 34004KT P6SM VCSH BKN030=
201408281234 TAF AMD KPAE 281234Z 2813/2912 04004KT P6SM SCT006 BKN060
                      TEMPO 2813/2814 BKN006 FM281400 18004KT P6SM
                       OVC006 FM281800 21005KT P6SM BKN015 FM282100
                       34004KT P6SM VCSH BKN030=
201408281123 TAF KPAE 281123Z 2812/2912 04004KT P6SM SCT012 BKN060
                      TEMPO 2812/2814 BKN012 FM281400 18004KT P6SM
                       OVC006 FM281800 21005KT P6SM BKN015 FM282100
                       34004KT P6SM VCSH BKN030=
201408280524 TAF KPAE 280524Z 2806/2906 36009KT P6SM OVC070 FM281300 VRB03KT
                       P6SM OVC008 FM281800 VRB03KT P6SM BKN012
                       FM282000 VRB03KT P6SM BKN040=
201408272334 TAF KPAE 272334Z 2800/2824 34008KT P6SM SCT250 FM281300 VRB03KT
                       P6SM BKN008 FM281600 VRB03KT P6SM BKN012
                       FM282000 VRB03KT P6SM BKN050=
201408271733 TAF KPAE 271733Z 2718/2818 VRB03KT P6SM SKC FM272000 29006KT P6SM
                       SKC FM280000 36006KT P6SM SCT060 SCT250
                       FM280600 02004KT P6SM SCT040 FM281000 VRB04KT
                       P6SM BKN015 OVC030=
201408271124 TAF KPAE 271124Z 2712/2812 05005KT P6SM SKC FM271800 30004KT P6SM
                       SKC FM280000 36006KT P6SM SCT060 SCT250=
201408270524 TAF KPAE 270524Z 2706/2806 36004KT P6SM SKC FM271300 VRB03KT P6SM
                       SKC FM271800 36005KT P6SM SKC=
201408262320 TAF KPAE 262320Z 2700/2724 30005KT P6SM SKC FM270200 36004KT P6SM
                       SKC FM271300 VRB03KT P6SM SCT006 FM271800
                       28005KT P6SM SCT250=
201408261720 TAF KPAE 261720Z 2618/2718 30005KT P6SM SKC FM270200 36004KT P6SM
                       SKC FM271300 VRB03KT P6SM SCT010=
201408261124 TAF KPAE 261124Z 2612/2712 02004KT P6SM SKC FM261400 VRB03KT P6SM
                       SCT080 FM261800 28006KT P6SM SCT080=
201408260520 TAF KPAE 260520Z 2606/2706 02004KT P6SM FEW120 SCT200 FM261200
                       VRB03KT P6SM SCT080 FM261800 28006KT P6SM
                       SCT080=
201408252320 TAF KPAE 252320Z 2600/2624 33006KT P6SM SCT200 FM260400 02004KT
                       P6SM SCT120 SCT200 FM261200 VRB03KT P6SM
                       SCT080 SCT200 FM261800 28006KT P6SM SCT080=
201408251720 TAF KPAE 251720Z 2518/2618 31006KT P6SM SCT200 FM260400 35004KT
                       P6SM SCT100 BKN200 FM261200 VRB03KT P6SM
                       SCT080 BKN200=
201408251126 TAF KPAE 251126Z 2512/2612 01004KT P6SM SKC FM251400 33006KT P6SM
                       SCT200=
201408250532 TAF KPAE 250532Z 2506/2606 36004KT P6SM SKC FM251400 36004KT P6SM
                       FEW002 FM251800 32006KT P6SM SCT200=
201408242330 TAF KPAE 242330Z 2500/2524 35006KT P6SM SKC FM250200 36004KT P6SM
                       FEW150 FM251200 VRB03KT P6SM FEW002 SCT200
                       FM251800 31005KT P6SM BKN200=
201408241726 TAF KPAE 241726Z 2418/2518 31006KT P6SM SCT080 FM250200 36004KT
                       P6SM SCT150 FM251200 VRB03KT P6SM SCT200=
201408241414 TAF AMD KPAE 241414Z 2414/2512 VRB03KT P6SM SCT003 SCT080
                      TEMPO 2414/2416 2SM BR BKN002 BKN080 FM241600
                       VRB03KT P6SM SCT080 FM241800 31006KT P6SM
                       SCT100 FM250700 VRB03KT P6SM SKC=
201408241134 TAF KPAE 241134Z 2412/2512 VRB03KT P6SM SCT100 FM241400 VRB03KT
                       3SM BR BKN001 BKN100 FM241600 31006KT P6SM
                       SCT100 FM250700 VRB03KT P6SM SKC=
201408240538 TAF KPAE 240538Z 2406/2506 01003KT P6SM SKC FM241400 31003KT 3SM
                       BR BKN002 FM241600 31006KT P6SM SCT120=
201408232320 TAF KPAE 232320Z 2400/2424 31006KT P6SM SCT250 FM240300 01003KT
                       P6SM SCT150 FM241400 35003KT P6SM FEW010
                       SCT120 FM241800 31006KT P6SM SCT120=
201408231736 TAF KPAE 231736Z 2318/2418 31006KT P6SM SCT250 FM240300 01003KT
                       P6SM BKN150 FM241400 35003KT P6SM FEW010
                       BKN150=
201408231444 TAF AMD KPAE 231444Z 2315/2412 VRB03KT P6SM SKC FM231700 34006KT
                       P6SM SCT250 FM240700 VRB03KT P6SM SCT250=
201408231128 TAF KPAE 231128Z 2312/2412 VRB03KT P6SM SKC
                      TEMPO 2314/2316 4SM BR SCT002 FM231700 34006KT
                       P6SM SCT250 FM240700 VRB03KT P6SM SCT250=
201408230534 TAF KPAE 230534Z 2306/2406 VRB03KT P6SM SKC
                      TEMPO 2314/2316 3SM BR SCT002 FM231700 34006KT
                       P6SM SCT250=
201408222320 TAF KPAE 222320Z 2300/2324 35007KT P6SM SKC FM230600 02003KT P6SM
                       SKC
                      TEMPO 2314/2316 3SM BR SCT002 FM231700 28005KT
                       P6SM SCT250=
201408221906 TAF AMD KPAE 221906Z 2219/2318 34006KT P6SM FEW035 FM230600 02003KT
                       P6SM SCT250 FM231200 34005KT P6SM FEW040
                       SCT250=
201408221737 TAF KPAE 221737Z 2218/2318 VRB03KT P6SM SCT001
                      TEMPO 2218/2219 1SM BR OVC001 FM222000 34006KT
                       P6SM SCT250 FM230600 02003KT P6SM SCT250
                       FM231200 34005KT P6SM FEW040 SCT250=
201408221632 TAF AMD KPAE 221632Z 2217/2312 VRB03KT 1/2SM FG VV001 FM221900
                       34006KT P6SM SKC=
201408221347 TAF AMD KPAE 221347Z 2214/2312 VRB03KT 6SM BR SKC
                      TEMPO 2214/2216 2SM BR BKN002 FM221700 34006KT
                       P6SM SKC=
201408221238 TAF AMD KPAE 221238Z 2213/2312 VRB03KT P6SM VCFG SKC
                      TEMPO 2214/2216 6SM BCFG FM221700 34006KT
                       P6SM SKC=
201408221130 TAF KPAE 221130Z 2212/2312 36006KT P6SM SKC
                      TEMPO 2214/2216 6SM BCFG=
201408220909 TAF AMD KPAE 220909Z 2209/2306 01004KT P6SM SKC FM221300 VRB03KT
                       P6SM SCT015 FM221800 35007KT P6SM SCT250=
201408220536 TAF KPAE 220536Z 2206/2306 01004KT P6SM SCT080 FM221300 VRB03KT
                       P6SM BKN015 FM221800 35007KT P6SM SCT250=
201408212334 TAF KPAE 212334Z 2200/2224 25010KT P6SM SKC FM220300 34005KT P6SM
                       FEW050 FM220600 01004KT P6SM SCT040 FM221200
                       33003KT P6SM BKN020
                      TEMPO 2212/2215 P6SM OVC015 FM221800 35007KT
                       P6SM SCT250=
201408211756 TAF KPAE 211756Z 2118/2218 24007KT P6SM OVC020 FM212000 25007KT
                       P6SM SCT025 FM220300 34005KT P6SM SCT050
                       FM220600 01004KT P6SM BKN040 FM221200 33003KT
                       P6SM BKN020
                      TEMPO 2212/2215 P6SM OVC015=
201408211351 TAF AMD KPAE 211351Z 2114/2212 VRB03KT P6SM OVC009 FM211800 24008KT
                       P6SM SCT040 FM220700 21006KT P6SM BKN050=
201408211226 TAF AMD KPAE 211226Z 2112/2212 VRB03KT P6SM SCT010
                      TEMPO 2112/2114 BKN010 FM211400 VRB03KT P6SM
                       BKN010 FM211800 24008KT P6SM SCT040 FM220700
                       21006KT P6SM BKN050=
201408211130 TAF KPAE 211130Z 2112/2212 21006KT P6SM SCT020 BKN035 FM211800
                       24008KT P6SM SCT040 FM220700 21006KT P6SM
                       BKN050=
201408210532 TAF KPAE 210532Z 2106/2206 21006KT P6SM SCT070 FM211200 21006KT
                       P6SM OVC015 FM211800 21008KT P6SM BKN025
                       FM211900 25008KT P6SM SCT040=
201408202343 TAF KPAE 202343Z 2100/2124 24010KT P6SM SKC FM210700 VRB03KT P6SM
                       BKN040 FM211000 20005KT P6SM BKN020 FM211200
                       22004KT P6SM OVC010 FM211600 22007KT P6SM
                       OVC020 FM212000 26005KT P6SM SCT030=
201408201746 TAF KPAE 201746Z 2018/2118 17009KT P6SM OVC020 FM202000 22007KT
                       P6SM BKN025 FM202200 28007KT P6SM BKN035
                       FM210000 VRB04KT P6SM FEW035 SCT060 FM210700
                       VRB03KT P6SM BKN040 FM211000 20005KT P6SM
                       OVC020 FM211200 22004KT P6SM BKN010 FM211600
                       22007KT P6SM OVC020=
201408201320 TAF AMD KPAE 201320Z 2013/2112 20009KT P6SM OVC015 FM201700 20006KT
                       P6SM OVC025 FM202000 22007KT P6SM BKN035
                       FM202200 28007KT P6SM SCT050 FM211100 22005KT
                       P6SM BKN020=
201408201136 TAF KPAE 201136Z 2012/2112 20007KT P6SM OVC050
                      TEMPO 2013/2017 OVC022 FM201700 20006KT P6SM
                       OVC025 FM202000 22007KT P6SM BKN035 FM202200
                       28007KT P6SM SCT050 FM211100 22005KT P6SM
                       BKN020=
201408200822 TAF AMD KPAE 200822Z 2008/2106 00000KT P6SM SCT040 OVC060 FM201000
                       18004KT P6SM SCT022 OVC040
                      TEMPO 2012/2016 OVC018 FM202000 20006KT P6SM
                       OVC022 FM202200 22007KT P6SM BKN035 FM202300
                       25007KT P6SM SCT050=
201408200538 TAF KPAE 200538Z 2006/2106 01009G15KT P6SM SCT040 OVC070 FM201000
                       18004KT P6SM OVC018
                      TEMPO 2012/2016 VRB03KT 4SM BR OVC008 FM202000
                       20006KT P6SM OVC022 FM202200 22007KT P6SM
                       BKN035 FM202300 25007KT P6SM SCT050=
201408192324 TAF KPAE 192324Z 2000/2024 29008KT P6SM SCT040 BKN090 FM200200
                       01006KT P6SM VCSH BKN040 FM200700 18006KT
                       P6SM SCT012 BKN025 FM201000 18004KT P6SM
                       OVC012
                      TEMPO 2012/2016 VRB03KT 4SM BR OVC008 FM202000
                       20006KT P6SM BKN018 FM202200 22007KT P6SM
                       BKN025 FM202300 25007KT P6SM SCT040=
201408191720 TAF KPAE 191720Z 1918/2018 VRB03KT P6SM SCT250 FM191900 25005KT
                       P6SM FEW050 FM192200 32006KT P6SM SCT050
                       FM200000 VRB03KT P6SM VCSH BKN040 FM201000
                       VRB03KT P6SM OVC012
                      TEMPO 2012/2016 4SM BR OVC008=
201408191121 TAF KPAE 191121Z 1912/2012 VRB03KT P6SM SCT110 BKN250 FM191900
                       25005KT P6SM SCT050 SCT250 FM192200 32006KT
                       P6SM SCT060 FM200400 VRB03KT P6SM BKN060
                       FM201000 VRB03KT P6SM OVC015=
201408190520 TAF KPAE 190520Z 1906/2006 35004KT P6SM BKN250 FM191300 VRB03KT
                       P6SM FEW006 SCT250 FM191900 25005KT P6SM
                       SCT050 FM192200 32006KT P6SM SCT060 FM200400
                       VRB03KT P6SM BKN060=
201408182320 TAF KPAE 182320Z 1900/1924 36005KT P6SM SCT250 FM190400 02005KT
                       P6SM BKN250 FM191300 VRB03KT P6SM SCT006
                       BKN050
                      TEMPO 1914/1918 3SM BR BKN006 FM191900 25005KT
                       P6SM BKN050=
201408181720 TAF KPAE 181720Z 1818/1918 36005KT P6SM SCT250 FM182000 34006KT
                       P6SM SCT250 FM190400 02005KT P6SM BKN250
                       FM191400 36005KT P6SM SCT010 SCT050=
201408181120 TAF KPAE 181120Z 1812/1912 01004KT P6SM SKC FM181800 33008KT P6SM
                       SCT250 FM190400 02005KT P6SM BKN250=
201408180520 TAF KPAE 180520Z 1806/1906 02004KT P6SM FEW250 FM181800 33008KT
                       P6SM SCT250 FM190400 02005KT P6SM BKN250=
201408172336 TAF KPAE 172336Z 1800/1824 30006KT P6SM SKC FM180400 01004KT P6SM
                       SKC FM181000 VRB03KT 5SM BR SCT015 FM181600
                       33006KT P6SM SCT020 FM181800 33008KT P6SM
                       SCT200=
201408171751 TAF KPAE 171751Z 1718/1818 34006KT P6SM SKC FM180400 01004KT P6SM
                       SKC FM181000 VRB03KT 5SM BR SCT015 FM181600
                       33006KT P6SM SCT020=
201408171625 TAF AMD KPAE 171625Z 1716/1812 36003KT 4SM BCFG SKC FM171700 34006KT
                       P6SM SKC FM180400 01004KT P6SM SKC=
201408171120 TAF KPAE 171120Z 1712/1812 02004KT 1/4SM FG VV001 FM171700 32005KT
                       3SM BR BKN004 FM171900 34006KT P6SM FEW050
                       FM180400 01004KT P6SM SKC=
201408170903 TAF AMD KPAE 170903Z 1709/1806 35003KT 6SM BR SCT001 OVC050
                      TEMPO 1709/1712 1SM BR BKN001 OVC050 FM171200
                       VRB03KT 3SM BR BKN002 OVC060
                      TEMPO 1712/1716 1/2SM FG VV001 FM171800 34006KT
                       P6SM FEW040=
201408170525 TAF KPAE 170525Z 1706/1806 36006KT P6SM BKN060 FM171000 VRB03KT
                       P6SM SCT025 BKN060
                      TEMPO 1712/1716 BKN025 OVC060 FM172000 34006KT
                       P6SM FEW040=
201408162346 TAF KPAE 162346Z 1700/1724 35006KT P6SM SCT200 FM170600 02004KT
                       P6SM SCT030 FM171000 VRB03KT P6SM BKN020
                       TEMPO 1713/1715 3SM BR BKN008 FM171800 33003KT
                       P6SM BKN030 FM172000 34006KT P6SM FEW040=
201408161746 TAF KPAE 161746Z 1618/1718 36006KT P6SM SCT020 OVC030 FM162000
                       29006KT P6SM SCT035 BKN100 FM162300 33006KT
                       P6SM FEW060 BKN250 FM170600 02004KT P6SM
                       SCT030 BKN250 FM171200 VRB03KT P6SM BKN020
                       TEMPO 1713/1715 BKN008=
201408161120 TAF KPAE 161120Z 1612/1712 VRB05KT P6SM FEW005 OVC016
                      TEMPO 1612/1616 4SM BR OVC005 FM161800 VRB03KT
                       P6SM BKN020 OVC060 FM162000 29006KT P6SM
                       SCT035 BKN060 FM162300 33006KT P6SM FEW060
                       BKN250=
201408160520 TAF KPAE 160520Z 1606/1706 01005KT P6SM OVC025 FM161000 01003KT
                       P6SM BKN010 OVC020
                      TEMPO 1613/1617 4SM BR OVC006 FM161800 VRB03KT
                       P6SM BKN020 OVC060 FM162000 29006KT P6SM
                       SCT035 BKN060 FM162300 33006KT P6SM FEW060
                       BKN250=
201408152320 TAF KPAE 152320Z 1600/1624 31006KT P6SM BKN015 BKN035 BKN110
                      TEMPO 1600/1603 SCT015 BKN035 BKN110 FM160600
                       VRB03KT P6SM SCT006 BKN015 OVC035
                      TEMPO 1613/1617 4SM BR OVC006 FM162000 29006KT
                       P6SM SCT035 OVC060=
201408151741 TAF KPAE 151741Z 1518/1618 25005KT P6SM BCFG BKN025 FM160000 31006KT
                       P6SM SCT060 BKN110 BKN250 FM160300 VRB03KT
                       P6SM SCT110 BKN250 FM160700 VRB03KT P6SM
                       SCT006 BKN025 OVC040
                      TEMPO 1613/1617 4SM BR OVC006=
201408151437 TAF AMD KPAE 151437Z 1515/1612 VRB03KT 6SM BR SCT002 BKN010 OVC050
                       TEMPO 1515/1517 1SM -RA BR FM151800 25005KT
                       P6SM FEW025 BKN060 BKN110 FM160000 31006KT
                       P6SM SCT060 BKN110 BKN250 FM160300 VRB03KT
                       P6SM SCT110 BKN250 FM161000 VRB03KT P6SM
                       BKN009 BKN250=
201408151131 TAF KPAE 151131Z 1512/1612 VRB03KT 6SM BR SCT002 BKN022 OVC050
                       FM151400 VRB03KT 6SM BR SCT002 BKN010 OVC050
                       FM151800 25005KT P6SM FEW025 BKN060 BKN110
                       FM160000 31006KT P6SM SCT060 BKN110 BKN250
                       FM160300 VRB03KT P6SM SCT110 BKN250 FM161000
                       VRB03KT P6SM BKN009 BKN250=
201408150902 TAF AMD KPAE 150902Z 1509/1606 VRB03KT 6SM BR SCT003 BKN035 OVC060
                       TEMPO 1509/1513 2SM BR BKN003 OVC035 FM151800
                       25005KT P6SM BKN060 BKN110 BKN250 FM160000
                       31006KT P6SM SCT060 BKN110 BKN250 FM160300
                       VRB03KT P6SM SCT110 BKN250=
201408150616 TAF AMD KPAE 150616Z 1506/1606 VRB03KT P6SM VCSH SCT028 BKN060
                       OVC110
                      TEMPO 1506/1509 BKN028 OVC060 FM150900 VRB03KT
                       P6SM BKN022 OVC060 FM151800 25005KT P6SM
                       BKN060 BKN110 BKN250 FM160000 31006KT P6SM
                       SCT060 BKN110 BKN250 FM160300 VRB03KT P6SM
                       SCT110 BKN250=
201408150539 TAF KPAE 150539Z 1506/1606 VRB03KT P6SM VCSH BKN050 OVC110 FM151200
                       VRB03KT P6SM SCT022 BKN060 BKN110
                      TEMPO 1514/1518 BKN022 OVC060 FM151800 25005KT
                       P6SM BKN060 BKN110 BKN250 FM160000 31006KT
                       P6SM SCT060 BKN110 BKN250 FM160300 VRB03KT
                       P6SM SCT110 BKN250=
201408142340 TAF KPAE 142340Z 1500/1524 35003KT P6SM -SHRA SCT040 OVC100 FM150600
                       VRB03KT P6SM BKN015 OVC100 FM151000 16003KT
                       5SM BR SCT003 BKN007 OVC015 FM151800 28005KT
                       P6SM -SHRA BKN035=
201408141741 TAF KPAE 141741Z 1418/1518 34003KT 5SM BR SCT001 OVC013
                      TEMPO 1418/1420 1/2SM BCFG OVC001 FM142100
                       35003KT P6SM FEW007 BKN025 OVC250 FM150600
                       21005KT 5SM BR SCT007 BKN025 FM151000 16003KT
                       2SM BR BKN003 OVC025=
201408141546 TAF AMD KPAE 141546Z 1416/1512 36003KT 3SM BCFG SCT001 OVC013
                      TEMPO 1416/1417 1/4SM FG OVC001 FM141800
                       27005KT P6SM BKN015 BKN035 BKN250 FM142000
                       32005KT P6SM SCT035 BKN070 BKN250 FM150300
                       VRB03KT P6SM SCT035 BKN070 BKN250 FM151000
                       VRB03KT P6SM OVC015=
201408141531 TAF AMD KPAE 141531Z 1416/1512 36003KT 3SM BCFG SCT001 OVC013 FM141800
                       27005KT P6SM BKN015 BKN035 BKN250 FM142000
                       32005KT P6SM SCT035 BKN070 BKN250 FM150300
                       VRB03KT P6SM SCT035 BKN070 BKN250 FM151000
                       VRB03KT P6SM OVC015=
201408141345 TAF AMD KPAE 141345Z 1414/1512 36003KT 1/4SM FG VV001 FM141800
                       27005KT P6SM BKN015 BKN035 BKN250 FM142000
                       32005KT P6SM SCT035 BKN070 BKN250 FM150300
                       VRB03KT P6SM SCT035 BKN070 BKN250 FM151000
                       VRB03KT P6SM OVC015=
201408141130 TAF KPAE 141130Z 1412/1512 VRB03KT 6SM BR SCT004 BKN013 BKN250
                       TEMPO 1412/1414 1/2SM FG VV002 FM141400
                       VRB03KT 4SM BR OVC006 FM141800 27005KT P6SM
                       BKN015 BKN035 BKN250 FM142000 32005KT P6SM
                       SCT035 BKN070 BKN250
                      PROB30 1421/1502 -SHRA BKN035 OVC050 FM150300
                       VRB03KT P6SM SCT035 BKN070 BKN250 FM151000
                       VRB03KT P6SM OVC015=
201408141100 KPAE 141100Z 1411/1506 VRB03KT P6SM VCFG SCT004 SCT013 BKN250
                      TEMPO 1411/1415 1/2SM FG VV002 FM141500 VRB03KT
                       3SM BR OVC005 FM141800 27005KT P6SM BKN015
                       BKN070 BKN250 FM142000 32005KT P6SM FEW028
                       SCT070 BKN250 FM150300 VRB03KT P6SM BKN070
                       BKN250=
201408140903 KPAE 140903Z 1409/1506 VRB03KT 2SM BR OVC007
                      TEMPO 1409/1412 1/2SM FG VV002 FM141500 VRB03KT
                       3SM BR OVC005 FM141800 27005KT P6SM BKN015
                       BKN070 BKN250 FM142000 32005KT P6SM FEW028
                       SCT070 BKN250 FM150300 VRB03KT P6SM BKN070
                       BKN250=
201408140532 TAF KPAE 140532Z 1406/1506 VRB03KT P6SM VCFG FEW010 SCT070 BKN250
                       FM140800 VRB03KT 5SM BR BKN010 BKN070 BKN250
                       TEMPO 1408/1410 3SM BR FM141000 VRB03KT
                       3SM BR OVC005 FM141800 27005KT P6SM BKN015
                       BKN070 BKN250 FM142000 32005KT P6SM FEW028
                       SCT070 BKN250 FM150300 VRB03KT P6SM BKN070
                       BKN250=
201408140320 TAF AMD KPAE 140320Z 1403/1424 19004KT P6SM SCT070 SCT250 FM140900
                       29003KT P6SM BKN020 OVC060 FM141200 30003KT
                       5SM BR OVC015
                      TEMPO 1412/1415 3SM BR BKN005 FM141900 31006KT
                       P6SM OVC020 FM142100 33006KT P6SM BKN060=
201408132351 TAF KPAE 132351Z 1400/1424 26008KT P6SM SCT018 OVC040 FM140900
                       29003KT P6SM BKN020 OVC060 FM141200 30003KT
                       5SM BR OVC015
                      TEMPO 1412/1415 3SM BR BKN005 FM141900 31006KT
                       P6SM OVC020 FM142100 33006KT P6SM BKN060=
201408131746 TAF KPAE 131746Z 1318/1418 18008KT 6SM -RA OVC007 FM132000 22006KT
                       P6SM VCSH BKN020 OVC040 FM140000 26006KT
                       P6SM SCT028 BKN060 FM140900 VRB03KT P6SM
                       BKN020 OVC060 FM141200 VRB03KT 5SM BR OVC015
                       TEMPO 1412/1415 3SM BR BKN005=
201408131125 TAF KPAE 131125Z 1312/1412 19009KT 6SM -RA BR SCT005 SCT020 OVC050
                       TEMPO 1312/1314 4SM RA BR BKN005 BKN020
                       OVC050 FM131400 19009KT P6SM -RA FEW005
                       OVC012 FM131900 22006KT P6SM VCSH BKN022
                       OVC060 FM140000 26006KT P6SM SCT028 BKN060
                       BKN250 FM140900 VRB03KT P6SM BKN020 BKN060=
201408130727 TAF AMD KPAE 130727Z 1307/1406 19008KT 6SM -RA BR SCT008 SCT020
                       OVC050
                      TEMPO 1307/1311 4SM RA BR BKN008 BKN020 OVC050
                       FM131200 17008KT P6SM -RA OVC020 FM131500
                       17006KT 6SM -RA BR FEW007 OVC012 FM131900
                       21006KT P6SM BKN022 OVC060 FM140000 26006KT
                       P6SM SCT028 BKN060 OVC150=
201408130520 TAF KPAE 130520Z 1306/1406 VRB04KT P6SM VCSH FEW050 BKN110 OVC200
                       FM130800 17006KT P6SM -RA SCT020 BKN050
                       OVC110 FM131200 17006KT P6SM -RA OVC020
                       FM131500 17006KT 6SM -RA BR FEW007 OVC012
                       FM131900 21006KT P6SM BKN022 OVC060 FM140000
                       26006KT P6SM SCT028 BKN060 OVC150=
201408130228 TAF AMD KPAE 130228Z 1302/1324 21007KT P6SM VCSH SCT070 BKN100
                       OVC250 FM130600 19008KT P6SM -SHRA SCT020
                       OVC070 FM131000 19008KT 4SM -SHRA OVC015
                       FM131800 22006KT P6SM -SHRA BKN030=
201408130143 TAF AMD KPAE 130143Z 1302/1324 VRB05KT P6SM BKN130 OVC250 FM130400
                       VRB05KT P6SM VCTS SCT070CB OVC110
                      TEMPO 1304/1306 -TSRA OVC070CB FM130600 19008KT
                       P6SM -SHRA VCTS SCT020 BKN050CB FM131000
                       19008KT 4SM -SHRA OVC015 FM131800 22006KT
                       P6SM -SHRA BKN030=
201408122336 TAF KPAE 122336Z 1300/1324 VRB04KT P6SM SCT120 BKN200
                      TEMPO 1301/1302 -SHRA FM130200 20008KT P6SM
                       -SHRA VCTS SCT060CB BKN070 OVC150
                      TEMPO 1302/1306 -TSRA BKN060CB FM130600 19008KT
                       P6SM -SHRA VCTS SCT020 BKN050CB FM131000
                       19008KT 4SM -SHRA OVC015 FM131800 22006KT
                       P6SM -SHRA BKN030=
201408122106 TAF AMD KPAE 122106Z 1221/1318 VRB04KT P6SM SCT080 BKN100 BKN200
                       FM130000 20008KT P6SM -SHRA VCTS OVC060CB
                       FM130700 19008KT P6SM -SHRA FEW015 OVC050
                       FM131000 19008KT P6SM -SHRA OVC015=
201408121730 TAF KPAE 121730Z 1218/1318 VRB04KT P6SM -SHRA SCT080 BKN120 BKN200
                       FM130000 20008KT P6SM -SHRA VCTS OVC060CB
                       FM130700 19008KT P6SM -SHRA FEW015 OVC050
                       FM131000 19008KT P6SM -SHRA OVC015=
201408121133 TAF KPAE 121133Z 1212/1312 VRB05KT P6SM -SHRA BKN130 OVC250 FM121400
                       VRB05KT P6SM VCSH BKN100 OVC250 FM121800
                       25006KT P6SM -SHRA BKN100 OVC250
                      PROB30 1221/1302 VRB20G30KT TSRA OVC070CB
                       FM130200 20006KT P6SM -SHRA OVC070
                      PROB30 1302/1306 VRB20G30KT TSRA OVC050CB
                       FM130600 17009KT P6SM -SHRA FEW012 OVC050
                       FM131000 17009KT P6SM -SHRA OVC012=
201408121053 TAF AMD KPAE 121053Z 1211/1306 VRB05KT P6SM VCTS BKN130CB OVC250
                       TEMPO 1211/1213 -TSRA BKN100CB OVC250 FM121500
                       19005KT P6SM SCT100 BKN250 FM122000 29005KT
                       P6SM SCT100 OVC250
                      PROB30 1221/1303 -TSRA BKN100CB OVC250 FM130300
                       VRB05KT P6SM -SHRA OVC080
                      PROB30 1303/1306 TSRA OVC050CB=
201408120902 KPAE 120902Z 1209/1306 VRB05KT P6SM SCT100 OVC250 FM121500 19005KT
                       P6SM SCT100 BKN250 FM122000 29005KT P6SM
                       SCT100 OVC250
                      PROB30 1221/1303 -TSRA BKN100CB OVC250 FM130300
                       VRB05KT P6SM -SHRA OVC080
                      PROB30 1303/1306 TSRA OVC050CB=
201408120738 TAF AMD KPAE 120738Z 1208/1306 VRB05KT P6SM VCTS SCT100CB OVC250
                       TEMPO 1208/1212 -SHRA BKN110 OVC250 FM121500
                       19005KT P6SM SCT100 BKN250 FM122000 29005KT
                       P6SM SCT100 OVC250
                      PROB30 1221/1303 -TSRA BKN100CB OVC250 FM130300
                       VRB05KT P6SM -SHRA OVC080
                      PROB30 1303/1306 TSRA OVC050CB=
201408120536 TAF KPAE 120536Z 1206/1306 VRB05KT P6SM -TSRA BKN130CB OVC250 FM121100
                       19005KT P6SM VCTS BKN130CB OVC250
                      TEMPO 1211/1215 -TSRA FM121500 19005KT P6SM
                       SCT100 BKN250 FM122000 29005KT P6SM SCT100
                       OVC250
                      PROB30 1221/1303 -TSRA BKN100CB OVC250 FM130300
                       VRB05KT P6SM -SHRA OVC080
                      PROB30 1303/1306 TSRA OVC050CB=
201408120417 TAF AMD KPAE 120417Z 1204/1224 35005KT P6SM VCTS SCT130CB OVC250
                       TEMPO 1204/1206 -TSRA BKN130CB OVC250 FM120600
                       03004KT P6SM VCTS BKN130CB OVC250
                      TEMPO 1206/1208 -TSRA FM121200 20005KT P6SM
                       BKN070 BKN150=
201408112331 TAF KPAE 112331Z 1200/1224 35005KT P6SM FEW120 SCT250 FM120600
                       03004KT P6SM SCT120 BKN200 FM121200 20005KT
                       P6SM BKN070 BKN150=
201408111734 TAF KPAE 111734Z 1118/1218 35005KT P6SM FEW250 FM120000 35005KT
                       P6SM BKN250 FM120600 03004KT P6SM BKN120
                       BKN200 FM121200 20005KT P6SM BKN070 BKN150=
201408111120 TAF KPAE 111120Z 1112/1212 VRB03KT P6SM SKC FM111800 33006KT P6SM
                       SKC FM120000 31006KT P6SM SCT120 BKN250
                       FM120600 15006KT P6SM BKN080 OVC160=
201408110535 TAF KPAE 110535Z 1106/1206 35003KT P6SM SKC FM111800 33006KT P6SM
                       SKC FM120000 31006KT P6SM SCT120 BKN250=
201408102320 TAF KPAE 102320Z 1100/1124 35008KT P6SM SKC FM110400 01003KT P6SM
                       SKC FM111800 33006KT P6SM SKC=
201408101722 TAF KPAE 101722Z 1018/1118 01004KT P6SM SKC FM101900 35008KT P6SM
                       SKC FM110600 01003KT P6SM SKC=
201408101120 TAF KPAE 101120Z 1012/1112 03004KT P6SM SKC FM101800 33008KT P6SM
                       SKC FM110600 01003KT P6SM SKC=
201408100530 TAF KPAE 100530Z 1006/1106 01007KT P6SM SKC FM100900 VRB04KT P6SM
                       SKC FM101800 33008KT P6SM SKC=
201408092326 TAF KPAE 092326Z 1000/1024 35009KT P6SM SKC FM100500 02005KT P6SM
                       SKC FM101800 35010KT P6SM SKC=
201408091728 TAF KPAE 091728Z 0918/1018 34005KT P6SM SCT200 FM092200 33007KT
                       P6SM SKC FM100500 VRB02KT P6SM SKC=
201408091120 TAF KPAE 091120Z 0912/1012 02005KT P6SM SKC FM091800 33007KT P6SM
                       SKC FM100500 VRB02KT P6SM SKC=
201408090530 TAF KPAE 090530Z 0906/1006 01007KT P6SM SKC FM091800 33007KT P6SM
                       SKC=
201408082325 TAF KPAE 082325Z 0900/0924 VRB04KT P6SM SKC FM090100 32005KT P6SM
                       SKC FM090500 03005KT P6SM SKC FM091800 33007KT
                       P6SM SKC=
201408081724 TAF KPAE 081724Z 0818/0918 25004KT P6SM FEW020 FM090000 33006KT
                       P6SM SKC FM090600 01003KT P6SM SKC=
201408081120 TAF KPAE 081120Z 0812/0912 04004KT P6SM BKN060 BKN200 FM081300
                       03004KT P6SM SCT010 BKN060
                      TEMPO 0813/0817 BKN010 BKN060 FM081800 25004KT
                       P6SM SCT120 FM090000 33006KT P6SM SKC FM090600
                       01003KT P6SM SKC=
201408080525 TAF KPAE 080525Z 0806/0906 01009KT P6SM BKN120 BKN250 FM081200
                       03004KT P6SM OVC009 FM081700 16004KT P6SM
                       SCT012 FM081900 28005KT P6SM FEW250 FM090000
                       33006KT P6SM SKC=
201408072329 TAF KPAE 072329Z 0800/0824 31008KT P6SM SCT250 FM081100 35003KT
                       P6SM OVC015 FM081800 36007KT P6SM SCT250=
201408071751 TAF KPAE 071751Z 0718/0818 20006KT P6SM OVC010 FM071900 30006KT
                       P6SM FEW020 FM080100 34006KT P6SM SCT250
                       FM080600 01003KT P6SM BKN120 BKN250 FM081100
                       02003KT P6SM BKN035
                      TEMPO 0812/0815 2SM BR OVC003=
201408071413 TAF AMD KPAE 071413Z 0714/0812 VRB03KT P6SM SCT002 OVC040
                      TEMPO 0714/0717 1SM BR OVC003 FM071800 20006KT
                       P6SM OVC010 FM071900 30006KT P6SM FEW020
                       FM080100 34006KT P6SM SCT250 FM080600 01003KT
                       P6SM BKN120 BKN250=
201408071120 TAF KPAE 071120Z 0712/0812 02003KT P6SM BKN035 FM071300 VRB03KT
                       P6SM OVC003
                      TEMPO 0713/0717 1SM BR FM071800 20006KT P6SM
                       OVC010 FM071900 30006KT P6SM FEW020 FM080100
                       34006KT P6SM SCT250 FM080600 01003KT P6SM
                       BKN120 BKN250=
201408071105 TAF AMD KPAE 071105Z 0711/0806 02003KT P6SM BKN035 FM071200 VRB03KT
                       P6SM OVC004
                      TEMPO 0713/0717 1SM BR FM071800 20006KT P6SM
                       OVC010 FM071900 30006KT P6SM FEW020 FM080100
                       34006KT P6SM SCT250=
201408070530 TAF KPAE 070530Z 0706/0806 01008KT P6SM SKC FM071100 VRB03KT P6SM
                       OVC004
                      TEMPO 0713/0717 1SM BR FM071800 20006KT P6SM
                       OVC010 FM071900 30006KT P6SM FEW020 FM080100
                       34006KT P6SM SCT250=
201408062320 TAF KPAE 062320Z 0700/0724 29006KT P6SM SCT025 SCT200 FM070400
                       34004KT P6SM FEW025 FEW200 FM071000 01003KT
                       P6SM OVC013 FM071200 VRB03KT 4SM BR OVC008
                       FM071700 25006KT P6SM BKN012 FM071900 31006KT
                       P6SM SCT025 SCT200=
201408061953 TAF AMD KPAE 061953Z 0620/0718 VRB04KT P6SM SCT015 SCT250 FM062200
                       35006KT P6SM SCT022 BKN200 FM070800 01003KT
                       P6SM OVC013 FM071100 VRB03KT 4SM BR OVC008=
201408061720 TAF KPAE 061720Z 0618/0718 26005KT 5SM BR BKN006 FM062000 33006KT
                       P6SM BKN015 BKN250 FM062300 35006KT P6SM
                       SCT022 BKN200 FM070800 01003KT P6SM OVC013
                       FM071100 VRB03KT 4SM BR OVC008=
201408061300 TAF AMD KPAE 061300Z 0613/0712 00000KT 2SM BR OVC002
                      TEMPO 0613/0617 1/2SM FG VV001 FM061800 26005KT
                       P6SM BKN008 FM062000 33006KT P6SM FEW015
                       SCT250 FM070000 35006KT P6SM SCT200=
201408061120 TAF KPAE 061120Z 0612/0712 00000KT P6SM FEW250 FM061400 15003KT
                       P6SM OVC003
                      TEMPO 0614/0617 2SM BR FM061800 26005KT P6SM
                       BKN008 FM062000 33006KT P6SM FEW015 SCT250
                       FM070000 35006KT P6SM SCT200=
201408060520 TAF KPAE 060520Z 0606/0706 03005KT P6SM FEW250 FM061100 VRB03KT
                       P6SM OVC008 FM061800 27006KT P6SM BKN012
                       FM062100 33006KT P6SM SCT022 FM070000 35006KT
                       P6SM SCT200=
201408052320 TAF KPAE 052320Z 0600/0624 30006KT P6SM SCT200 FM060100 01005KT
                       P6SM SCT200 FM061000 00000KT P6SM OVC008
                       FM061100 18004KT P6SM OVC008 FM061800 27006KT
                       P6SM BKN012 FM062100 33006KT P6SM SCT022=
201408051823 TAF AMD KPAE 051823Z 0518/0618 27008KT P6SM SCT012 FM052000 35006KT
                       P6SM SKC FM061000 00000KT P6SM OVC008 FM061300
                       18004KT P6SM OVC008=
201408051720 TAF KPAE 051720Z 0518/0618 18005KT P6SM OVC009 FM051900 27008KT
                       P6SM BKN012 FM052000 35006KT P6SM SKC FM061000
                       00000KT P6SM OVC008 FM061300 18004KT P6SM
                       OVC008=
201408051513 TAF AMD KPAE 051513Z 0515/0612 24005KT P6SM OVC004
                      TEMPO 0515/0517 4SM BR FM051700 26006KT P6SM
                       OVC008 FM052100 27008KT P6SM SCT010 FM052200
                       35006KT P6SM SKC FM061100 00000KT P6SM OVC006=
201408051122 TAF KPAE 051122Z 0512/0612 00000KT P6SM BKN003
                      TEMPO 0512/0515 2SM BR BKN001 FM051500 VRB04KT
                       P6SM OVC003 FM051800 18004KT P6SM SCT008
                       FM052000 27008KT P6SM SKC FM052200 35006KT
                       P6SM SKC FM061100 00000KT P6SM BKN007=
201408050535 TAF KPAE 050535Z 0506/0606 04006KT P6SM SKC FM051000 36005KT P6SM
                       SCT004
                      TEMPO 0510/0514 4SM BR BKN004 FM051400 VRB04KT
                       3SM BR OVC004 FM051800 18004KT P6SM SCT010
                       FM052000 27008KT P6SM SKC FM052200 35006KT
                       P6SM SKC=
201408042323 TAF KPAE 042323Z 0500/0524 34007KT P6SM SKC FM050400 02004KT P6SM
                       SKC FM051200 36005KT P6SM SCT004 FM051300
                       VRB04KT 2SM BR OVC004 FM051800 18004KT P6SM
                       SCT010 FM052000 27008KT P6SM SKC FM052200
                       35006KT P6SM SKC=
201408041720 TAF KPAE 041720Z 0418/0518 36004KT P6SM SKC FM042000 34008KT P6SM
                       SKC FM050400 02004KT P6SM SKC FM051200 36005KT
                       P6SM SCT004 FM051300 VRB04KT 2SM BR OVC004=
201408041120 TAF KPAE 041120Z 0412/0512 36004KT P6SM SKC FM042000 34008KT P6SM
                       SKC=
201408040535 TAF KPAE 040535Z 0406/0506 36005KT P6SM SKC FM042000 34008KT P6SM
                       SKC=
201408032322 TAF KPAE 032322Z 0400/0424 34009KT P6SM SKC FM040400 35004KT P6SM
                       SKC FM042000 34008KT P6SM SKC=
201408031723 TAF KPAE 031723Z 0318/0418 00000KT P6SM SKC FM031900 31006KT P6SM
                       SKC FM040400 35004KT P6SM SKC=
201408031120 TAF KPAE 031120Z 0312/0412 VRB03KT P6SM FEW150 FM031900 31006KT
                       P6SM SKC FM040400 35004KT P6SM SKC=
201408030520 TAF KPAE 030520Z 0306/0406 01005KT P6SM FEW150 FM030900 34003KT
                       P6SM SKC=
201408022325 TAF KPAE 022325Z 0300/0324 34004KT P6SM SCT140 BKN200 FM030300
                       35005KT P6SM SCT200 FM030900 34003KT P6SM
                       SKC=
201408022113 TAF AMD KPAE 022113Z 0221/0318 00000KT P6SM VCTS FEW120CB BKN200
                       FM022300 35005KT P6SM SCT200 FM030200 35005KT
                       P6SM SKC FM030900 VRB03KT P6SM SKC=
201408021923 TAF AMD KPAE 021923Z 0219/0318 01005KT P6SM TS FEW110CB BKN200
                       FM022000 32008KT P6SM SCT200 FM030200 35005KT
                       P6SM SKC FM030900 VRB03KT P6SM SKC=
201408021720 TAF KPAE 021720Z 0218/0318 00000KT P6SM SCT120 BKN200 FM022000
                       32008KT P6SM SCT200 FM030200 35005KT P6SM
                       SKC FM030900 VRB03KT P6SM SKC=
201408021404 TAF AMD KPAE 021404Z 0214/0312 36003KT P6SM SKC FM021500 36005KT
                       P6SM VCTS SCT030CB BKN120 FM021800 35006KT
                       P6SM SCT120 FM022000 32008KT P6SM SKC FM030200
                       35005KT P6SM SKC FM030900 VRB03KT P6SM SKC=
201408021120 TAF KPAE 021120Z 0212/0312 00000KT P6SM SKC FM022000 32008KT P6SM
                       SKC FM030200 35005KT P6SM SKC FM030900 VRB03KT
                       P6SM SKC=
201408020524 TAF KPAE 020524Z 0206/0306 01003KT P6SM SKC=
201408012331 TAF KPAE 012331Z 0200/0224 02009KT P6SM SCT100 BKN200 FM020400
                       02006KT P6SM SCT200=
201408011729 TAF KPAE 011729Z 0118/0218 36004KT P6SM SCT150 BKN250 FM012100
                       33008KT P6SM VCTS SCT080CB BKN150 FM020400
                       02006KT P6SM SCT150=
201408011120 TAF KPAE 011120Z 0112/0212 VRB04KT P6SM BKN120 OVC200 FM011700
                       VRB04KT P6SM VCTS BKN080CB OVC150 FM012100
                       33008KT P6SM SCT080 BKN150 FM020400 02006KT
                       P6SM SCT150=
201408010520 TAF KPAE 010520Z 0106/0206 01006KT P6SM SKC FM011200 VRB04KT P6SM
                       BKN150
                      PROB30 0116/0120 TS BKN090CB FM012000 33008KT
                       P6SM BKN120 FM020400 36008KT P6SM SCT150=