##########################################################
# Query made at 02/15/2025 20:58:29 UTC
# Time interval: from 11/01/2014 00:00  to 11/30/2014 23:59  UTC
##########################################################

##########################################################
# KPAE, Everett, Snohomish County Airport (United States)
# WMO index: -----. WIGOS ID: Unknown
# Latitude 47-55-23N. Longitude 122-16-57W. Altitude 184 m.
##########################################################

###################################
#  METAR/SPECI from KPAE
###################################
201411302353 METAR KPAE 302353Z 36007KT 10SM CLR M01/M06 A3013 RMK AO2 SLP209 T10111056 11006 21039 56018=
201411302253 METAR KPAE 302253Z 36005KT 10SM CLR M01/M06 A3014 RMK AO2 SLP215 T10061056=
201411302153 METAR KPAE 302153Z 35005KT 10SM CLR M01/M06 A3015 RMK AO2 SLP219 T10061061=
201411302053 METAR KPAE 302053Z 34004KT 10SM CLR M02/M06 A3018 RMK AO2 SLP228 T10171056 58014=
201411301953 METAR KPAE 301953Z 36003KT 10SM CLR M02/M07 A3020 RMK AO2 SLP235 T10171072=
201411301853 METAR KPAE 301853Z 02005KT 10SM CLR M02/M06 A3021 RMK AO2 SLP239 T10221061=
201411301753 METAR KPAE 301753Z 36004KT 10SM CLR M04/M07 A3022 RMK AO2 SLP243 I6000 T10391072 11039 21072 53004=
201411301653 METAR KPAE 301653Z 03005KT 10SM CLR M04/M08 A3022 RMK AO2 SLP241 T10441078=
201411301553 METAR KPAE 301553Z 01003KT 10SM CLR M07/M09 A3021 RMK AO2 SLP239 I1000 T10671089=
201411301453 METAR KPAE 301453Z AUTO 05003KT 10SM CLR M07/M09 A3021 RMK AO2 SLP239 I1000 I3000 T10671094 53003 TSNO=
201411301353 METAR KPAE 301353Z AUTO 00000KT 10SM CLR M06/M09 A3020 RMK AO2 SLP236 T10611089 TSNO=
201411301253 METAR KPAE 301253Z AUTO 36004KT 10SM CLR M06/M08 A3020 RMK AO2 SLP235 T10561083 TSNO=
201411301153 METAR KPAE 301153Z AUTO 04005KT 10SM CLR M06/M09 A3020 RMK AO2 SLP234 70006 I6001 T10561089 11050 21078 50001 TSNO=
201411301053 METAR KPAE 301053Z AUTO 03004KT 10SM CLR M06/M08 A3020 RMK AO2 SLP235 T10561083 TSNO=
201411300953 METAR KPAE 300953Z AUTO 04004KT 10SM CLR M05/M08 A3020 RMK AO2 SLP234 T10501078 TSNO=
201411300853 METAR KPAE 300853Z AUTO 02003KT 10SM CLR M06/M08 A3020 RMK AO2 SLP234 I3001 T10611078 51011 TSNO=
201411300753 METAR KPAE 300753Z AUTO 00000KT 10SM CLR M06/M08 A3020 RMK AO2 SLP234 I1001 T10611083 400061078 TSNO=
201411300653 METAR KPAE 300653Z AUTO 00000KT 10SM CLR M06/M09 A3018=
201411300553 METAR KPAE 300553Z AUTO 00000KT 10SM CLR M06/M08 A3016 RMK AO2 SLP222 T10561083 11028 21056 53020 TSNO=
201411300453 METAR KPAE 300453Z 14003KT 10SM CLR M05/M08 A3014 RMK AO2 SLP215 T10501083=
201411300353 METAR KPAE 300353Z 00000KT 10SM CLR M05/M08 A3012 RMK AO2 SLP208 T10501083=
201411300253 METAR KPAE 300253Z 00000KT 10SM CLR M04/M09 A3010 RMK AO2 SLP202 T10391089 51023=
201411300153 METAR KPAE 300153Z 01003KT 10SM CLR M04/M09 A3009 RMK AO2 SLP196 T10391089=
201411300053 METAR KPAE 300053Z 36005KT 10SM SCT026 M03/M08 A3006 RMK AO2 SLP186 T10281083=
201411292353 METAR KPAE 292353Z 34007KT 10SM SCT024 M03/M09 A3003 RMK AO2 SLP177 T10281089 11022 21033 51035=
201411292253 METAR KPAE 292253Z 35008KT 10SM SCT044 M02/M08 A3000 RMK AO2 SLP166 T10221078=
201411292153 METAR KPAE 292153Z 32010KT 10SM CLR M03/M10 A2997 RMK AO2 SLP156 T10331100=
201411292053 METAR KPAE 292053Z 33010G17KT 10SM CLR M03/M09 A2993 RMK AO2 SLP141 T10331094 51037=
201411291953 METAR KPAE 291953Z 33009G20KT 10SM CLR M03/M08 A2990 RMK AO2 SLP131 T10331083=
201411291853 METAR KPAE 291853Z 33011G17KT 10SM CLR M03/M07 A2986 RMK AO2 SLP118 T10281072=
201411291753 METAR KPAE 291753Z COR 34009KT 10SM BKN075 M02/M06 A2982 RMK AO2 SLP102 60006 T10221061 10000 21028 51050=
201411291653 METAR KPAE 291653Z 34010G17KT 10SM FEW006 BKN015 BKN075 M02/M06 A2978 RMK AO2 SLP089 T10221056=
201411291553 METAR KPAE 291553Z 34010G16KT 9SM SCT001 BKN008 OVC044 M01/M03 A2972 RMK AO2 SNE00 SLP069 P0000 T10111028=
201411291534 SPECI KPAE 291534Z 32008KT 10SM SCT001 BKN008 OVC044 M01/M03 A2970 RMK AO2 SNE00 P0000 T10111033=
201411291530 SPECI KPAE 291530Z 30008KT 1SM R16R/P6000FT BR SCT001 BKN008 OVC044 M01/M03 A2970 RMK AO2 SNE00 P0000 T10111033=
201411291513 SPECI KPAE 291513Z 30010KT 1SM R16R/P6000FT BR BKN002 BKN008 OVC014 M01/M02 A2968 RMK AO2 SNE00 P0000 T10061022=
201411291500 METAR KPAE NIL=
201411291448 METAR KPAE 291448Z COR 32008KT 1SM -SN BR BKN002 BKN008 OVC012 M01/M02 A2967=
201411291447 SPECI KPAE 291447Z 32009KT 1 3/4SM -SN BR BKN002 BKN008 OVC012 M01/M01 A2966 RMK AO2 SNE28B32 P0002=
201411291441 SPECI KPAE 291441Z AUTO 31006KT 3SM -SN BR BKN002 BKN006 OVC042 00/M01 A2966 RMK AO2 SNE28B32 P0002 T00001011=
201411291431 SPECI KPAE 291431Z AUTO 34003KT 6SM BR SCT008 BKN012 OVC023 M01/M02 A2966 RMK AO2 SNE28 P0002 T10061017=
201411291422 SPECI KPAE 291422Z AUTO 35004KT 3SM -SN BR FEW012 OVC023 M01/M02 A2965 RMK AO2 P0002 T10061017=
201411291415 SPECI KPAE 291415Z AUTO 00000KT 1SM R16R/5500VP6000FT -SN BR VV015 M01/M02 A2964 RMK AO2 P0002 T10061017=
201411291412 SPECI KPAE 291412Z AUTO 02004KT 3/4SM R16R/5500VP6000FT -SN BR VV010 M01/M02 A2964 RMK AO2 P0002 T10061017=
201411291404 SPECI KPAE 291404Z AUTO 36005KT 1SM R16R/6000VP6000FT -SN BR VV008 M01/M02 A2964 RMK AO2 P0001 T10061017=
201411291353 METAR KPAE 291353Z AUTO 03005KT 3/4SM R16R/4000V6000FT -SN BR FEW003 OVC007 M01/M02 A2963 RMK AO2 SLP039 P0003 T10061017=
201411291346 SPECI KPAE 291346Z AUTO 03005KT 1/2SM R16R/3500V4500FT SN FZFG VV006 M01/M02 A2963 RMK AO2 P0003 T10061017=
201411291335 SPECI KPAE 291335Z AUTO 02003KT 3/4SM R16R/4000VP6000FT -SN BR FEW004 OVC012 00/M01 A2963 RMK AO2 P0001 T00001011=
201411291327 SPECI KPAE 291327Z AUTO VRB03KT 1SM R16R/6000VP6000FT -SN BR FEW004 OVC014 00/M01 A2962 RMK AO2 P0001 T00001011=
201411291320 SPECI KPAE 291320Z AUTO 01003KT 2SM -SN BR FEW004 OVC023 00/M01 A2962 RMK AO2 P0000 T00001011=
201411291309 SPECI KPAE 291309Z AUTO 04004KT 5SM -SN BR BKN029 OVC044 00/M02 A2961 RMK AO2 P0000 T00001017=
201411291300 SPECI KPAE 291300Z AUTO 05005KT 2 1/2SM -SN BR FEW005 BKN035 OVC044 00/M01 A2960 RMK AO2 P0000 T00001011=
201411291253 METAR KPAE 291253Z AUTO VRB03KT 3SM -SN BR OVC041 00/M01 A2960 RMK AO2 SLP029 P0001 T00001011=
201411291231 SPECI KPAE 291231Z AUTO 06005KT 3SM -SN BR FEW006 OVC039 00/M01 A2958 RMK AO2 P0001 T00001011=
201411291211 SPECI KPAE 291211Z AUTO 08005KT 2SM -SN BR FEW006 SCT009 OVC030 00/M01 A2958 RMK AO2 P0000 T00001011=
201411291200 SPECI KPAE 291200Z AUTO 08003KT 2 1/2SM -SN BR BKN006 BKN020 OVC031 00/M01 A2958 RMK AO2 CIG 004V010 P0000 T00001006=
201411291153 METAR KPAE 291153Z AUTO 00000KT 3SM -SN BR SCT004 BKN008 OVC020 00/M01 A2958 RMK AO2 CIG 007V010 SLP022 P0003 60039 70115 T00001006 10011 20000 51017=
201411291132 SPECI KPAE 291132Z AUTO 00000KT 2SM -SN BR BKN004 OVC010 00/M01 A2957 RMK AO2 P0002 T00001006=
201411291122 SPECI KPAE 291122Z AUTO 08003KT 1SM -SN BR SCT004 OVC010 00/M01 A2957 RMK AO2 P0002 T00001006 RVRNO=
201411291113 SPECI KPAE 291113Z AUTO 06003KT 3/4SM R16R/6000VP6000FT -SN BR FEW004 OVC008 00/M01 A2956 RMK AO2 P0002 T00001006=
201411291053 METAR KPAE 291053Z AUTO VRB03KT 1SM -SN BR FEW002 OVC007 00/M01 A2957 RMK AO2 SLP017 P0004 T00001006 RVRNO=
201411291031 SPECI KPAE 291031Z AUTO 04003KT 1/2SM SN FG FEW002 OVC006 00/M01 A2956 RMK AO2 P0003 T00001006 RVRNO=
201411291023 SPECI KPAE 291023Z AUTO 00000KT 1/2SM R16R/4000V5500FT SN FG VV004 01/00 A2957 RMK AO2 P0002 T00060000=
201411290953 METAR KPAE 290953Z AUTO 34004KT 1 1/4SM -SN BR OVC003 01/M01 A2955 RMK AO2 SLP011 P0002 T00061006=
201411290929 SPECI KPAE 290929Z AUTO 00000KT 2SM -SN BR BKN004 OVC021 01/M01 A2954 RMK AO2 P0001 T00061006=
201411290902 SPECI KPAE 290902Z AUTO 35007KT 3SM -SN BR BKN003 BKN007 OVC017 01/M01 A2953 RMK AO2 P0000 T00061006=
201411290852 METAR KPAE 290852Z AUTO 35007KT 2SM -SN BR BKN003 OVC007 01/M01 A2953 RMK AO2 SLP004 P0008 60030 T00061006 51008=
201411290851 SPECI KPAE 290851Z AUTO 36006KT 2SM -SN BR BKN003 OVC007 01/M01 A2953 RMK AO2 P0008=
201411290838 SPECI KPAE 290838Z AUTO 35005KT 1SM R16R/5000VP6000FT -SN BR VV005 01/M01 A2954 RMK AO2 P0008 T00061006=
201411290829 SPECI KPAE 290829Z AUTO 34007KT 1SM R16R/6000VP6000FT -SN BR OVC003 01/M01 A2954 RMK AO2 P0007 T00061006=
201411290800 SPECI KPAE 290800Z AUTO 36005KT 3/4SM R16R/4000VP6000FT -SN BR OVC004 01/M01 A2953 RMK AO2 P0002 T00061006=
201411290753 METAR KPAE 290753Z AUTO 01004KT 2SM -SN BR OVC004 01/00 A2953 RMK AO2 SLP003 P0010 T00060000 401170006=
201411290745 SPECI KPAE 290745Z AUTO 00000KT 3SM -SN BR OVC004 01/00 A2953 RMK AO2 P0009 T00060000=
201411290724 SPECI KPAE 290724Z AUTO VRB04KT 1SM R16R/P6000FT -SN BR OVC004 01/M01 A2953 RMK AO2 P0006 T00061006=
201411290719 SPECI KPAE 290719Z AUTO 01004KT 3/4SM R16R/6000VP6000FT -SN BR OVC006 01/M01 A2953 RMK AO2 P0005 T00061006=
201411290712 SPECI KPAE 290712Z AUTO 02003KT 1SM R16R/6000VP6000FT -SN BR OVC006 01/00 A2953 RMK AO2 P0004 T00060000=
201411290659 SPECI KPAE 290659Z AUTO 00000KT 2 1/2SM -SN BR BKN006 OVC013 01/00 A2952 RMK AO2 P0001 T00110000=
201411290653 METAR KPAE 290653Z AUTO 11003KT 1 3/4SM -SN BR SCT008 OVC013 01/00 A2952 RMK AO2 RAE14SNB14 SLP999 P0012 T00110000=
201411290645 SPECI KPAE 290645Z AUTO 15006KT 2SM -SN BR FEW008 OVC014 01/00 A2951 RMK AO2 RAE14SNB14 P0011 T00110000=
201411290635 SPECI KPAE 290635Z AUTO 20004KT 3SM -SN BR FEW006 SCT010 OVC014 02/01 A2951 RMK AO2 RAE14SNB14 P0009 T00170006=
201411290622 SPECI KPAE 290622Z AUTO 20005KT 3SM -SN BR BKN008 OVC012 02/01 A2951 RMK AO2 RAE14SNB14 P0008 T00170006=
201411290619 SPECI KPAE 290619Z AUTO 00000KT 2SM -SN BR SCT006 OVC012 02/01 A2951 RMK AO2 RAE14SNB14 P0007 T00170006=
201411290617 SPECI KPAE 290617Z AUTO 00000KT 1 3/4SM -SN BR BKN004 OVC012 02/01 A2951 RMK AO2 RAE14SNB14 P0007 T00170006=
201411290610 SPECI KPAE 290610Z AUTO 17005KT 1 3/4SM R16R/4500VP6000FT +RA BR BKN006 OVC012 02/01 A2951 RMK AO2 P0006 T00220011=
201411290602 SPECI KPAE 290602Z AUTO 00000KT 2 1/2SM -RA BR SCT006 OVC011 03/01 A2951 RMK AO2 P0002 T00280011=
201411290553 METAR KPAE 290553Z AUTO 12006KT 3SM RA BR FEW005 OVC013 03/01 A2951 RMK AO2 SLP994 P0005 60010 T00280011 10028 20022 51003=
201411290540 SPECI KPAE 290540Z AUTO 15003KT 3SM -RA BR BKN013 OVC019 03/01 A2951 RMK AO2 P0003 T00280011=
201411290510 SPECI KPAE 290510Z AUTO 17006KT 4SM -RA BR FEW005 BKN018 OVC033 03/02 A2951 RMK AO2 P0001 T00280017=
201411290453 METAR KPAE 290453Z AUTO 17006KT 8SM -RA SCT021 BKN028 OVC048 03/02 A2951 RMK AO2 UPE53RAB04E32B53 SLP994 P0000 T00280017=
201411290353 METAR KPAE 290353Z 17004KT 10SM UP SCT014 BKN033 OVC041 03/01 A2950 RMK AO2 RAE45UPB50 SLP991 P0001 T00280011=
201411290351 SPECI KPAE 290351Z 17004KT 10SM UP SCT014 BKN033 OVC041 03/01 A2950 RMK AO2 RAE45UPB50 P0001=
201411290253 METAR KPAE 290253Z 15003KT 6SM -RA BR FEW018 BKN024 OVC036 02/01 A2948 RMK AO2 RAE17B39 SLP987 P0001 60004 T00220011 51006=
201411290153 METAR KPAE 290153Z 16004KT 8SM -RA BKN024 OVC030 02/01 A2948 RMK AO2 RAB20 SLP984 P0000 T00220006=
201411290150 SPECI KPAE 290150Z 15003KT 9SM -RA FEW016 OVC024 02/01 A2948 RMK AO2 RAB20 P0000=
201411290053 METAR KPAE 290053Z 12004KT 10SM SCT022 BKN030 OVC038 02/01 A2946 RMK AO2 RAE38 SLP979 P0003 T00220006=
201411290048 SPECI KPAE 290048Z 11005KT 10SM SCT022 BKN030 OVC038 02/01 A2946 RMK AO2 RAE38 P0003=
201411282353 METAR KPAE 282353Z 08005KT 6SM -RA BR FEW016 SCT022 OVC028 03/01 A2948 RMK AO2 SLP984 P0004 60042 T00280006 10056 20017 55004=
201411282341 SPECI KPAE 282341Z 09003KT 8SM -RA FEW021 FEW027 OVC031 03/01 A2948 RMK AO2 P0003 T00280011=
201411282300 SPECI KPAE 282300Z 07005KT 5SM -RA BR OVC021 02/01 A2947 RMK AO2 P0001 T00220011=
201411282253 METAR KPAE 282253Z 07004KT 6SM -RA BR BKN006 OVC021 02/01 A2947 RMK AO2 SLP982 P0005 T00220011=
201411282153 METAR KPAE 282153Z 02007KT 3SM -RA BR BKN007 OVC012 02/01 A2948 RMK AO2 RAE34B49SNB34E49 SLP986 P0013 T00220011=
201411282141 SPECI KPAE 282141Z 02006KT 2SM -SN BR BKN007 OVC012 02/01 A2949 RMK AO2 RAE34SNB34 P0011 T00220006=
201411282100 SPECI KPAE 282100Z 02007KT 5SM -RA BR BKN007 OVC012 03/02 A2949 RMK AO2 P0001 T00330017=
201411282053 METAR KPAE 282053Z 01007G14KT 6SM -RA BR SCT007 OVC012 03/02 A2949 RMK AO2 SLP988 P0005 60020 T00330022 58011=
201411282000 SPECI KPAE 282000Z 01006KT 5SM -RA BR OVC004 04/03 A2950 RMK AO2 P0000 T00440033=
201411281953 METAR KPAE 281953Z 02008G14KT 2SM -RA BR BKN004 OVC013 04/03 A2950 RMK AO2 SLP990 P0010 T00440033=
201411281916 SPECI KPAE 281916Z 02007G14KT 2SM -RA BR BKN005 OVC011 04/03 A2952 RMK AO2 P0004 T00440033=
201411281904 SPECI KPAE 281904Z 02007KT 2SM RA BR BKN004 OVC015 05/04 A2952 RMK AO2 P0002 T00500039=
201411281856 SPECI KPAE 281856Z 02011KT 2SM -RA BR BKN004 OVC015 05/04 A2952 RMK AO2 P0001 T00500044=
201411281853 METAR KPAE 281853Z 01009KT 2SM -RA BR SCT004 BKN008 OVC015 06/04 A2952 RMK AO2 SLP998 P0005 T00560044=
201411281801 SPECI KPAE 281801Z 36008KT 3SM -RA BR BKN006 BKN011 OVC034 06/04 A2952 RMK AO2 P0001 T00560044=
201411281756 SPECI KPAE 281756Z 35010G17KT 3SM RA BR SCT006 BKN012 OVC034 06/04 A2952 RMK AO2 P0001 T00560044=
201411281753 METAR KPAE 281753Z 36009G17KT 2SM RA BR BKN006 BKN013 OVC034 06/04 A2952 RMK AO2 SLP999 P0008 60024 T00560044 10117 20056 58002=
201411281729 SPECI KPAE 281729Z 34010KT 2SM -RA BR BKN007 OVC010 06/05 A2953 RMK AO2 CIG 003V007 P0003 T00610050=
201411281653 METAR KPAE 281653Z 35008G14KT 2SM -RA BR OVC004 07/06 A2953 RMK AO2 SLP000 P0006 T00670056=
201411281553 METAR KPAE 281553Z 31006KT 2SM -RA BR OVC004 07/06 A2953 RMK AO2 CIG 002V008 SLP001 P0007 T00720061=
201411281515 SPECI KPAE 281515Z 33008KT 3SM -RA BR OVC004 08/07 A2953 RMK AO2 P0004 T00780067=
201411281453 METAR KPAE 281453Z 34007KT 2 1/2SM -RA BR BKN004 OVC009 08/08 A2953 RMK AO2 RAB02 SLP000 P0003 60003 T00830078 56009=
201411281425 SPECI KPAE 281425Z 20012KT 10SM -RA BKN009 OVC016 11/10 A2952 RMK AO2 RAB02 P0000 T01110100=
201411281353 METAR KPAE 281353Z 19016G22KT 10SM OVC011 12/09 A2953 RMK AO2 PK WND 18030/1303 SLP001 T01170094=
201411281253 METAR KPAE 281253Z 19024G29KT 10SM OVC013 12/09 A2954 RMK AO2 PK WND 20036/1155 SLP002 T01170094=
201411281232 SPECI KPAE 281232Z 19022KT 10SM BKN013 OVC019 12/09 A2954 RMK AO2 PK WND 20036/1155 T01170094=
201411281153 METAR KPAE 281153Z 20024G33KT 10SM OVC015 12/09 A2956 RMK AO2 PK WND 19033/1113 RAE51 SLP009 P0001 60001 70002 T01170094 10122 20111 56020=
201411281150 SPECI KPAE 281150Z 19022G31KT 10SM -RA OVC015 12/09 A2956 RMK AO2 PK WND 19033/1113 P0001=
201411281137 SPECI KPAE 281137Z 19024G30KT 10SM -RA OVC014 12/09 A2957 RMK AO2 PK WND 19033/1113 P0001 T01170094=
201411281053 METAR KPAE 281053Z 20022G30KT 10SM -RA SCT014 OVC022 12/09 A2960 RMK AO2 PK WND 18030/1044 RAB0958E22B53 SLP024 P0000 T01170094=
201411281035 SPECI KPAE 281035Z 19024G28KT 10SM SCT012 BKN018 OVC023 12/09 A2961 RMK AO2 PK WND 20028/1031 RAB0958E22 P0000 T01170094=
201411281006 SPECI KPAE 281006Z 19019KT 10SM -RA BKN013 BKN020 OVC025 12/09 A2962 RMK AO2 PK WND 20026/0954 RAB0958 P0000 T01170094=
201411280953 METAR KPAE 280953Z 19023G30KT 10SM SCT013 BKN020 OVC070 12/09 A2962 RMK AO2 PK WND 20033/0901 RAB17E27 SLP029 P0000 T01170094=
201411280949 SPECI KPAE 280949Z 19023G28KT 10SM FEW013 BKN020 OVC085 12/09 A2962 RMK AO2 PK WND 20033/0901 RAB17E27 P0000=
201411280919 SPECI KPAE 280919Z 19022G27KT 8SM -RA BKN012 OVC020 12/09 A2961 RMK AO2 PK WND 20033/0901 RAB17 P0000 T01170094=
201411280853 METAR KPAE 280853Z 19023G28KT 10SM SCT011 BKN020 OVC024 12/09 A2962 RMK AO2 PK WND 19032/0814 SLP032 60000 T01170094 56017=
201411280849 SPECI KPAE 280849Z 19021G29KT 10SM FEW011 BKN017 OVC022 12/09 A2963 RMK AO2 PK WND 19032/0814=
201411280842 SPECI KPAE 280842Z 19022G30KT 10SM BKN013 OVC022 12/09 A2963 RMK AO2 PK WND 19032/0814 T01170094=
201411280753 METAR KPAE 280753Z 19022G31KT 10SM SCT013 BKN020 OVC027 12/09 A2964 RMK AO2 PK WND 18033/0739 RAB19E41 SLP037 P0000 T01170094 401390111=
201411280653 METAR KPAE 280653Z 19020KT 10SM FEW016 BKN028 OVC045 12/09 A2967 RMK AO2 PK WND 18032/0621 RAE29 SLP048 P0000 T01170094=
201411280644 SPECI KPAE 280644Z 20023G30KT 10SM FEW018 BKN030 OVC045 12/09 A2967 RMK AO2 PK WND 18032/0621 RAE29 P0000 T01220094=
201411280615 SPECI KPAE 280615Z 19021G29KT 8SM -RA SCT014 BKN022 OVC041 12/09 A2968 RMK AO2 PK WND 20029/0611 P0000 T01170094=
201411280602 SPECI KPAE 280602Z 19022KT 9SM -RA BKN014 BKN023 OVC055 12/09 A2968 RMK AO2 PK WND 19026/0601 P0000 T01170094=
201411280553 METAR KPAE 280553Z 18020G30KT 10SM -RA BKN016 BKN020 OVC049 12/09 A2968 RMK AO2 PK WND 18034/0522 RAB41 SLP049 P0000 60001 T01170094 10128 20117 58011=
201411280453 METAR KPAE 280453Z 19023G34KT 10SM SCT011 BKN018 OVC024 12/09 A2969 RMK AO2 PK WND 21036/0441 RAB0355E0359B32E43 SLP056 P0000 T01220094=
201411280450 SPECI KPAE 280450Z 20023G36KT 10SM FEW009 BKN014 OVC020 12/09 A2969 RMK AO2 PK WND 21036/0441 RAB0355E0359B32E43 P0000=
201411280353 METAR KPAE 280353Z 18017G27KT 9SM BKN013 OVC018 12/09 A2970 RMK AO2 PK WND 20033/0257 RAE0255 SLP058 P0000 T01170094=
201411280336 SPECI KPAE 280336Z 19021G28KT 10SM BKN016 OVC024 12/09 A2971 RMK AO2 PK WND 20033/0257 RAE0255 P0000 T01220094=
201411280253 METAR KPAE 280253Z 19021G33KT 10SM -RA BKN013 BKN024 OVC036 12/10 A2971 RMK AO2 PK WND 19034/0237 RAE0154B20 SLP062 P0000 60001 T01170100 55007=
201411280224 SPECI KPAE 280224Z 19021G33KT 9SM -RA BKN014 BKN018 OVC027 12/10 A2971 RMK AO2 PK WND 19033/0220 RAE0154B20 P0000 T01220100=
201411280153 METAR KPAE 280153Z 19022G30KT 10SM -RA BKN017 OVC023 12/10 A2971 RMK AO2 PK WND 19035/0129 RAB23 SLP061 P0001 T01220100=
201411280133 SPECI KPAE 280133Z 19024G35KT 4SM -RA BR SCT015 BKN024 12/10 A2972 RMK AO2 PK WND 19035/0129 RAB23 P0000 T01170100=
201411280053 METAR KPAE 280053Z 19021G31KT 10SM BKN018 OVC023 13/09 A2974 RMK AO2 PK WND 20033/0022 SLP070 T01280094=
201411280037 SPECI KPAE 280037Z 18020G28KT 10SM BKN016 OVC031 13/09 A2974 RMK AO2 PK WND 20033/0022 T01280094=
201411280018 SPECI KPAE 280018Z 18023G32KT 10SM BKN014 OVC022 12/10 A2974 RMK AO2 PK WND 18033/0003 T01220100=
201411272353 METAR KPAE 272353Z 19026G31KT 10SM BKN016 OVC023 13/10 A2974 RMK AO2 PK WND 19037/2330 SLP069 60000 T01280100 10133 20122 56012=
201411272253 METAR KPAE 272253Z 19024G32KT 10SM BKN016 OVC024 13/10 A2975 RMK AO2 PK WND 19032/2251 SLP073 T01280100=
201411272246 SPECI KPAE 272246Z 19024KT 10SM BKN014 OVC021 13/10 A2975 RMK AO2 PK WND 19031/2235 T01280100=
201411272239 SPECI KPAE 272239Z 18025G31KT 10SM BKN016 OVC021 13/10 A2975 RMK AO2 PK WND 19031/2235 T01280100=
201411272153 METAR KPAE 272153Z 19025G32KT 10SM BKN014 OVC021 13/10 A2976 RMK AO2 PK WND 19036/2134 SLP075 T01280100=
201411272100 SPECI KPAE 272100Z 18024G29KT 10SM BKN013 OVC070 13/10 A2977 RMK AO2 PK WND 18029/2056 T01280100=
201411272053 METAR KPAE 272053Z 18023G28KT 10SM SCT017 BKN024 OVC034 13/10 A2977 RMK AO2 PK WND 19034/2009 RAE1954 SLP080 P0000 60000 T01280100 56014=
201411271953 METAR KPAE 271953Z 18026G31KT 7SM -RA SCT017 BKN024 OVC030 13/10 A2978 RMK AO2 PK WND 18033/1934 RAB35 SLP084 P0000 T01280100=
201411271853 METAR KPAE 271853Z 19026G34KT 10SM BKN017 13/10 A2980 RMK AO2 PK WND 20034/1849 SLP089 T01330100=
201411271753 METAR KPAE 271753Z 18021G28KT 10SM SCT018 BKN022 13/10 A2981 RMK AO2 PK WND 18031/1655 SLP095 60000 T01330100 10133 20111 50004=
201411271653 METAR KPAE 271653Z 18022G31KT 10SM BKN013 12/10 A2982 RMK AO2 PK WND 17034/1604 SLP097 T01220100=
201411271645 SPECI KPAE 271645Z 18025G31KT 10SM SCT013 12/10 A2981 RMK AO2 PK WND 17034/1604 T01220100=
201411271620 SPECI KPAE 271620Z 18024G34KT 10SM BKN011 BKN080 12/10 A2980 RMK AO2 PK WND 17034/1604 T01170100=
201411271553 METAR KPAE 271553Z 18024G33KT 10SM BKN017 BKN022 12/09 A2980 RMK AO2 PK WND 18033/1547 RAB03E28 SLP090 P0000 T01170094=
201411271453 METAR KPAE 271453Z 17020G30KT 7SM FEW012 OVC018 11/09 A2981 RMK AO2 PK WND 16032/1357 RAB38E50 SLP093 P0000 60000 T01110089 55010=
201411271427 SPECI KPAE 271427Z AUTO 18021G31KT 9SM FEW009 OVC015 11/09 A2980 RMK AO2 PK WND 16032/1357 T01110089=
201411271353 METAR KPAE 271353Z AUTO 16020G28KT 5SM BR OVC012 11/09 A2980 RMK AO2 PK WND 17030/1318 SLP093 T01110089=
201411271340 SPECI KPAE 271340Z AUTO 16015G25KT 8SM BKN012 OVC020 11/09 A2981 RMK AO2 PK WND 17030/1318 T01110089=
201411271253 METAR KPAE 271253Z AUTO 17019G30KT 10SM SCT016 OVC021 11/08 A2981 RMK AO2 PK WND 17040/1204 RAE1156 SLP096 P0000 T01110083=
201411271153 METAR KPAE 271153Z AUTO 18027G38KT 10SM -RA OVC022 12/07 A2983 RMK AO2 PK WND 18038/1151 RAB27 SLP102 P0000 60000 70001 T01170072 10139 20117 56008=
201411271053 METAR KPAE 271053Z AUTO 18024G37KT 10SM OVC024 13/07 A2985 RMK AO2 PK WND 18037/1017 RAB03E12 SLP106 P0000 T01280067=
201411271001 SPECI KPAE 271001Z AUTO 18025G35KT 10SM OVC028 13/07 A2985 RMK AO2 PK WND 18035/0954 T01330072=
201411270953 METAR KPAE 270953Z AUTO 19025G36KT 10SM OVC030 13/07 A2985 RMK AO2 PK WND 20038/0859 RAB07E17 SLP106 P0000 T01280072=
201411270853 METAR KPAE 270853Z AUTO 20019G30KT 10SM OVC036 13/08 A2986 RMK AO2 PK WND 19031/0846 SLP111 60000 T01330078 58006=
201411270753 METAR KPAE 270753Z AUTO 18015G20KT 10SM BKN045 OVC060 13/09 A2986 RMK AO2 RAE21 SLP112 P0000 T01330094 401390111=
201411270653 METAR KPAE 270653Z 19017KT 10SM -RA BKN060 OVC080 13/10 A2988 RMK AO2 RAB30 SLP119 P0000 T01280100=
201411270553 METAR KPAE 270553Z 18016G22KT 10SM FEW036 SCT075 OVC100 13/10 A2988 RMK AO2 RAB10E36 SLP117 P0001 60001 T01330100 10139 20128 58013=
201411270453 METAR KPAE 270453Z 20014KT 10SM BKN036 BKN046 OVC080 13/11 A2989 RMK AO2 RAE13 SLP121 P0000 T01330106=
201411270353 METAR KPAE 270353Z 20011KT 10SM -RA BKN034 OVC040 13/11 A2991 RMK AO2 RAE0256B15 SLP127 P0000 T01330106=
201411270253 METAR KPAE 270253Z 15008KT 10SM -RA BKN037 OVC048 13/11 A2992 RMK AO2 RAB42 SLP130 P0000 60000 T01330106 58025=
201411270153 METAR KPAE 270153Z 17008KT 10SM BKN036 OVC046 13/11 A2994 RMK AO2 SLP139 T01330106=
201411270142 SPECI KPAE 270142Z 17011KT 10SM SCT027 BKN034 OVC043 13/11 A2995 RMK AO2 T01330106=
201411270053 METAR KPAE 270053Z 17009G17KT 10SM FEW017 BKN025 OVC030 13/11 A2998 RMK AO2 SLP153 T01330106=
201411262353 METAR KPAE 262353Z 17016G24KT 10SM SCT017 BKN028 BKN042 14/11 A2999 RMK AO2 SLP156 T01390106 10139 20133 56019=
201411262253 METAR KPAE 262253Z 18018G25KT 10SM FEW014 SCT030 BKN060 14/11 A3002 RMK AO2 PK WND 18031/2201 SLP165 T01390106=
201411262153 METAR KPAE 262153Z 18022KT 10SM SCT070 14/11 A3002 RMK AO2 PK WND 19034/2117 SLP165 T01390106=
201411262053 METAR KPAE 262053Z 19024G31KT 10SM FEW035 SCT060 14/11 A3005 RMK AO2 PK WND 21033/2039 SLP176 T01390106 56013=
201411261953 METAR KPAE 261953Z 19021G28KT 10SM CLR 14/11 A3006 RMK AO2 PK WND 19032/1904 SLP178 T01390106=
201411261853 METAR KPAE 261853Z 19021KT 10SM FEW015 13/11 A3007 RMK AO2 PK WND 19028/1841 SLP182 T01330106=
201411261753 METAR KPAE 261753Z 19016KT 10SM BKN015 13/11 A3009 RMK AO2 SLP189 T01330106 10133 20128 58000=
201411261741 SPECI KPAE 261741Z 20014KT 10SM SCT011 OVC015 13/11 A3010 RMK AO2 T01330106=
201411261700 SPECI KPAE 261700Z 19011G21KT 10SM OVC008 13/11 A3010 RMK AO2 T01280106=
201411261653 METAR KPAE 261653Z COR 20011KT 10SM OVC008 13/11 A3010 RMK AO2 PK WND 21027/1619 SLP193 T01280106=
201411261606 SPECI KPAE 261606Z 19012KT 10SM OVC010 13/11 A3011 RMK AO2 T01280106=
201411261553 METAR KPAE 261553Z 19018G26KT 10SM OVC009 13/11 A3010 RMK AO2 PK WND 19026/1551 SLP194 T01280106=
201411261453 METAR KPAE 261453Z 19015KT 10SM OVC009 13/11 A3009 RMK AO2 PK WND 20029/1412 CIG 008V012 SLP190 T01280106 56010=
201411261421 SPECI KPAE 261421Z AUTO 19018G29KT 10SM OVC009 13/11 A3008 RMK AO2 PK WND 20029/1412 CIG 008V012 T01280106=
201411261353 METAR KPAE 261353Z AUTO 19019G22KT 10SM OVC010 13/11 A3009 RMK AO2 CIG 009V013 SLP192 T01280106=
201411261253 METAR KPAE 261253Z AUTO 20014G23KT 10SM OVC011 13/11 A3011 RMK AO2 PK WND 20029/1241 SLP197 T01280111=
201411261153 METAR KPAE 261153Z AUTO 20018G24KT 10SM OVC009 13/11 A3012 RMK AO2 PK WND 21029/1114 SLP200 70019 T01280111 10128 20106 58005=
201411261053 METAR KPAE 261053Z AUTO 20019G26KT 10SM OVC009 13/11 A3014 RMK AO2 PK WND 20030/1006 SLP208 T01280111=
201411260953 METAR KPAE 260953Z AUTO 20018G27KT 10SM OVC008 13/11 A3013 RMK AO2 PK WND 20030/0933 SLP202 T01280111=
201411260853 METAR KPAE 260853Z AUTO 20019G27KT 10SM OVC006 12/11 A3013 RMK AO2 PK WND 20027/0846 CIG 004V010 SLP206 T01220111 50001=
201411260846 SPECI KPAE 260846Z AUTO 20016G27KT 10SM OVC006 12/11 A3014 RMK AO2 PK WND 20027/0846 CIG 003V010 T01220111=
201411260753 METAR KPAE 260753Z AUTO 22008KT 10SM OVC002 11/11 A3015 RMK AO2 SLP211 T01110106 401110072=
201411260653 METAR KPAE 260653Z AUTO 21013KT 10SM OVC003 11/11 A3014 RMK AO2 SLP209 T01110106=
201411260553 METAR KPAE 260553Z AUTO 21008KT 7SM OVC003 11/10 A3013 RMK AO2 SLP205 T01060100 10106 20078 55000=
201411260531 SPECI KPAE 260531Z AUTO 20009KT 9SM OVC004 10/09 A3012 RMK AO2 T01000094=
201411260511 SPECI KPAE 260511Z AUTO 00000KT 3SM BR OVC005 08/07 A3012 RMK AO2 T00780072=
201411260457 SPECI KPAE 260457Z AUTO 00000KT 2SM R16R/5500VP6000FT BR OVC005 08/07 A3012 RMK AO2 T00780072=
201411260453 METAR KPAE 260453Z AUTO 00000KT 3SM R16R/4000VP6000FT BR OVC004 08/07 A3012 RMK AO2 SLP203 T00780072=
201411260353 METAR KPAE 260353Z 00000KT 3SM BR OVC003 08/07 A3012 RMK AO2 SLP202 T00830072=
201411260253 METAR KPAE 260253Z 00000KT 2SM BR OVC004 08/07 A3013 RMK AO2 SLP205 T00780072 56013=
201411260231 SPECI KPAE 260231Z 00000KT 2SM R16R/1600V2600FT BR OVC004 08/07 A3013 RMK AO2 T00780072=
201411260217 SPECI KPAE 260217Z 02003KT 2SM R16R/1400V2200FT BR OVC004 08/07 A3014 RMK AO2 T00780067=
201411260153 METAR KPAE 260153Z 02003KT 2SM BR OVC004 08/07 A3014 RMK AO2 SLP207 T00780067=
201411260053 METAR KPAE 260053Z 00000KT 1 1/2SM BR OVC004 08/07 A3014 RMK AO2 SLP210 T00780067=
201411260022 SPECI KPAE 260022Z 00000KT 1 1/2SM BR OVC004 08/07 A3016 RMK AO2 CIG 002V007 T00780067=
201411260014 SPECI KPAE 260014Z 00000KT 2 1/2SM BR OVC003 08/07 A3016 RMK AO2 CIG 002V007 T00780067=
201411252353 METAR KPAE 252353Z 00000KT 1 1/2SM BR OVC004 08/07 A3017 RMK AO2 SLP219 60000 T00780067 10078 20072 58008=
201411252253 METAR KPAE 252253Z VRB03KT 2SM BR OVC003 08/07 A3019 RMK AO2 SLP224 T00780067=
201411252153 METAR KPAE 252153Z 36004KT 1 1/2SM BR OVC003 08/07 A3019 RMK AO2 SLP227 T00780067=
201411252053 METAR KPAE 252053Z 02005KT 1 1/2SM BR OVC003 08/07 A3020 RMK AO2 SLP227 60000 T00780067 58007=
201411251953 METAR KPAE 251953Z 36003KT 1 1/2SM BR OVC002 08/07 A3020 RMK AO2 RAE1857 SLP230 P0000 T00780072=
201411251936 SPECI KPAE 251936Z 36004KT 1 3/4SM BR OVC002 08/07 A3022 RMK AO2 RAE1857 P0000 T00780072=
201411251906 SPECI KPAE 251906Z VRB04KT 1/2SM R16R/5500VP6000FT FG VV002 08/07 A3022 RMK AO2 RAE1857 P0000 T00780072=
201411251853 METAR KPAE 251853Z 34004KT 1SM R16R/P6000FT -RA BR OVC001 08/07 A3023 RMK AO2 RAB45 SLP237 P0000 T00780072=
201411251840 SPECI KPAE 251840Z 35004KT 1SM R16R/6000VP6000FT BR VV001 08/07 A3022 RMK AO2 T00780072=
201411251817 SPECI KPAE 251817Z 35005KT 1/4SM R16R/4000VP6000FT FG VV001 08/07 A3022 RMK AO2 T00780072=
201411251804 SPECI KPAE 251804Z 34004KT 1/2SM R16R/2800VP6000FT FG VV001 08/07 A3021 RMK AO2 T00780072=
201411251753 METAR KPAE 251753Z 35005KT 1/4SM R16R/2600VP6000FT FG VV002 08/07 A3022 RMK AO2 RAB1658E50 SLP235 P0000 60019 T00780072 10106 20078 53009=
201411251737 SPECI KPAE 251737Z 34004KT 1SM R16R/P6000FT -RA BR BKN001 BKN010 OVC032 08/07 A3021 RMK AO2 RAB1658 P0000 T00780072=
201411251656 SPECI KPAE 251656Z 34004KT 1/4SM R16R/3000VP6000FT FG VV002 08/07 A3021 RMK AO2 T00780072=
201411251653 METAR KPAE 251653Z 35004KT 1/4SM R16R/2400VP6000FT FG VV001 08/07 A3020 RMK AO2 RAE23B28E38 SLP230 P0001 T00780072=
201411251636 SPECI KPAE 251636Z 36005KT 1/4SM R16R/1600V5000FT -RA FG VV001 08/07 A3020 RMK AO2 RAE23B28 P0001 T00780072=
201411251627 SPECI KPAE 251627Z VRB03KT 1/4SM R16R/1400V2200FT FG VV001 08/07 A3019 RMK AO2 RAE23 P0001 T00780072=
201411251600 SPECI KPAE 251600Z 34003KT 1/2SM R16R/1600V3500FT -RA FG VV001 08/07 A3019 RMK AO2 P0000 T00780072=
201411251553 METAR KPAE 251553Z 35005KT 1/4SM R16R/1400V2400FT -RA FG VV001 08/07 A3019 RMK AO2 SLP226 P0003 T00780072=
201411251551 SPECI KPAE 251551Z 36005KT 1/2SM R16R/1400V2400FT -RA FG VV001 08/07 A3019 RMK AO2 P0003=
201411251548 SPECI KPAE 251548Z 35006KT 1/4SM R16R/1400V2200FT -RA FG VV001 08/07 A3019 RMK AO2 P0003=
201411251503 SPECI KPAE 251503Z 34004KT 1/4SM R16R/5000VP6000FT -RA FG VV001 08/08 A3018 RMK AO2 PRESRR P0000 T00830078=
201411251453 METAR KPAE 251453Z COR 35004KT 1/4SM R16R/2200V5000FT -RA FG VV001 08/08 A3017 RMK AO2 SLP219 P0006 60015 T00830078 53007=
201411251405 SPECI KPAE 251405Z 34004KT 1/4SM R16R/3000V4000FT RA FG VV001 08/08 A3017 RMK AO2 P0002 T00830078=
201411251356 SPECI KPAE 251356Z 34006KT 1/4SM R16R/3500V6000FT -RA FG VV002 08/08 A3017 RMK AO2 P0000 T00830078=
201411251353 METAR KPAE 251353Z 34005KT 1/2SM R16R/3000V6000FT RA FG SCT002 OVC007 08/08 A3016 RMK AO2 SLP217 P0006 T00830078=
201411251350 SPECI KPAE 251350Z 33005KT 1/2SM R16R/2600V6000FT RA FG FEW002 OVC009 09/08 A3017 RMK AO2 P0006=
201411251343 SPECI KPAE 251343Z 34005KT 3/4SM R16R/2600VP6000FT -RA BR FEW002 OVC018 09/08 A3016 RMK AO2 P0005 T00890083=
201411251339 SPECI KPAE 251339Z 34005KT 1 1/2SM R16R/4500VP6000FT -RA BR SCT002 OVC026 09/08 A3016 RMK AO2 P0004 T00890083=
201411251306 SPECI KPAE 251306Z 33004KT 5SM -RA BR SCT005 SCT011 OVC040 09/08 A3014 RMK AO2 P0000 T00940083=
201411251300 SPECI KPAE 251300Z 35003KT 5SM -RA BR SCT004 BKN011 OVC038 09/08 A3014 RMK AO2 P0000 T00940083=
201411251253 METAR KPAE 251253Z 33005KT 4SM -RA BR FEW004 BKN015 OVC045 09/08 A3015 RMK AO2 SLP211 P0003 T00940083=
201411251215 SPECI KPAE 251215Z 32003KT 7SM -RA FEW004 BKN015 OVC045 10/09 A3015 RMK AO2 P0001 T01000094=
201411251153 METAR KPAE 251153Z 28004KT 2SM R16R/5500VP6000FT -RA BCFG BKN004 OVC016 11/09 A3015 RMK AO2 SLP211 P0004 60017 70025 T01060094 10106 20089 51013=
201411251148 SPECI KPAE 251148Z 28003KT 2SM -RA BCFG BKN004 OVC016 11/09 A3015 RMK AO2 P0004=
201411251131 SPECI KPAE 251131Z 29003KT 4SM -RA BR BKN008 OVC018 11/09 A3015 RMK AO2 P0003 T01060094=
201411251053 METAR KPAE 251053Z 00000KT 5SM -RA BR OVC017 10/09 A3015 RMK AO2 SLP211 P0008 T01000094=
201411250959 SPECI KPAE 250959Z 19004KT 4SM -RA BR BCFG FEW001 FEW007 OVC023 10/09 A3013 RMK AO2 P0001 T01000094=
201411250953 METAR KPAE 250953Z 18004KT 1SM R16R/P6000FT -RA BR FEW001 BKN007 OVC025 10/09 A3013 RMK AO2 RAB06 SLP205 P0005 T01000094=
201411250853 METAR KPAE 250853Z 18005KT 1/4SM R16R/5000VP6000FT FG OVC001 10/09 A3011 RMK AO2 SLP199 T01000094 51011=
201411250805 SPECI KPAE 250805Z 18007KT 1/4SM R16R/P6000FT FG OVC001 10/09 A3010 RMK AO2 T01000089=
201411250753 METAR KPAE 250753Z 18011KT 1/4SM R16R/P6000FT FG OVC002 09/09 A3010 RMK AO2 SLP196 T00940089 400940056=
201411250739 SPECI KPAE 250739Z 18009KT 1/4SM R16R/P6000FT FG OVC002 09/08 A3011 RMK AO2 T00940083=
201411250653 METAR KPAE 250653Z COR 18008KT 2SM OVC003 09/08 A3009 RMK AO2 SLP192 T00890083=
201411250630 SPECI KPAE 250630Z 18007KT 10SM OVC004 09/08 A3010 RMK AO2 T00890078=
201411250553 METAR KPAE 250553Z 16010KT 10SM OVC006 09/07 A3008 RMK AO2 SLP188 60001 T00890072 10089 20072 55004=
201411250507 SPECI KPAE 250507Z 18015G22KT 10SM BKN009 OVC021 09/07 A3006 RMK AO2 CIG 007V012 T00890072=
201411250453 METAR KPAE 250453Z 17016G24KT 10SM BKN010 BKN023 09/07 A3007=
201411250408 SPECI KPAE 250408Z 16017G23KT 10SM BKN013 OVC029 09/06 A3008 RMK AO2 T00890061=
201411250353 METAR KPAE 250353Z 16016G23KT 10SM BKN015 OVC033 09/06 A3009 RMK AO2 PK WND 16026/0310 SLP193 T00890056=
201411250348 SPECI KPAE 250348Z 16017G23KT 10SM BKN015 BKN033 OVC085 09/06 A3009 RMK AO2 PK WND 16026/0310=
201411250253 METAR KPAE 250253Z 16014KT 10SM SCT095 08/05 A3009 RMK AO2 SLP192 60001 T00830050 56031=
201411250153 METAR KPAE 250153Z 15012G19KT 10SM FEW050 OVC080 08/06 A3012 RMK AO2 RAE16 SLP202 P0000 T00830056=
201411250053 METAR KPAE 250053Z 16017KT 10SM -RA FEW034 BKN060 OVC075 08/06 A3015 RMK AO2 SLP212 P0001 T00830061=
201411242353 METAR KPAE 242353Z 15013KT 10SM -RA OVC055 08/06 A3018 RMK AO2 SLP224 P0003 60007 T00780056 10083 20061 56018=
201411242253 METAR KPAE 242253Z 14010KT 6SM -RA BR BKN048 BKN055 OVC070 07/05 A3020 RMK AO2 SLP230 P0004 T00720050=
201411242153 METAR KPAE 242153Z 15015KT 10SM -RA BKN060 OVC075 08/04 A3021 RMK AO2 RAB07E39B52 SLP232 P0000 T00780039=
201411242139 SPECI KPAE 242139Z 15013KT 10SM SCT021 OVC060 08/03 A3021 RMK AO2 RAB07E39 P0000 T00780033=
201411242053 METAR KPAE 242053Z 17015KT 10SM OVC021 08/03 A3024 RMK AO2 RAB24E34 SLP242 P0000 60000 T00780028 56024=
201411242013 SPECI KPAE 242013Z 16016KT 10SM BKN027 BKN034 OVC110 08/02 A3025 RMK AO2 T00830022=
201411241953 METAR KPAE 241953Z 16015KT 10SM SCT037 BKN090 OVC110 08/02 A3024 RMK AO2 SLP245 T00830022=
201411241853 METAR KPAE 241853Z 15013KT 10SM FEW036 SCT045 OVC090 07/03 A3029 RMK AO2 SLP260 T00670028=
201411241753 METAR KPAE 241753Z 15009G16KT 10SM FEW015 BKN090 OVC110 06/03 A3031 RMK AO2 SLP266 T00610033 10067 20056 58003=
201411241653 METAR KPAE 241653Z COR 16010KT 10SM SCT030 BKN095 OVC120 06/03 A3032 RMK AO2 SLP272 T00560033 $=
201411241553 METAR KPAE 241553Z VRB05KT 10SM SCT026 BKN120 06/03 A3031 RMK AO2 SLP267 T00610033 $=
201411241453 METAR KPAE 241453Z 15007KT 10SM FEW018 BKN120 06/03 A3032 RMK AO2 SLP270 T00610033 56011 $=
201411241353 METAR KPAE 241353Z AUTO 12006KT 10SM CLR 06/03 A3032 RMK AO2 SLP270 T00610033 $=
201411241253 METAR KPAE 241253Z AUTO 12007KT 10SM FEW120 06/04 A3034 RMK AO2 SLP278 T00560039 $=
201411241153 METAR KPAE 241153Z AUTO VRB03KT 10SM OVC110 07/04 A3035 RMK AO2 SLP280 70023 T00670039 10078 20056 56002 $=
201411241053 METAR KPAE 241053Z AUTO 16007KT 10SM CLR 07/04 A3035 RMK AO2 SLP280 T00670044 $=
201411240953 METAR KPAE 240953Z AUTO 15007KT 10SM FEW120 07/04 A3035 RMK AO2 SLP280 T00670044 $=
201411240853 METAR KPAE 240853Z AUTO 16006KT 10SM FEW070 07/04 A3036 RMK AO2 SLP282 T00670044 51016 $=
201411240753 METAR KPAE 240753Z AUTO 18004KT 10SM SCT060 06/04 A3035 RMK AO2 SLP281 T00560039 401170050 $=
201411240653 METAR KPAE 240653Z AUTO 16008KT 10SM CLR 07/04 A3033 RMK AO2 SLP273 T00720044 $=
201411240553 METAR KPAE 240553Z AUTO 15008KT 10SM SCT045 BKN055 08/04 A3031 RMK AO2 SLP266 T00780044 10100 20050 53017 $=
201411240453 METAR KPAE 240453Z AUTO 12006KT 10SM CLR 07/03 A3029 RMK AO2 SLP259 T00670033 $=
201411240353 METAR KPAE 240353Z 18005KT 10SM FEW039 06/03 A3027 RMK AO2 SLP254 T00560028 $=
201411240253 METAR KPAE 240253Z 00000KT 10SM CLR 06/02 A3026 RMK AO2 SLP249 T00610022 53024 $=
201411240153 METAR KPAE 240153Z 00000KT 10SM CLR 09/03 A3023 RMK AO2 SLP238 T00890028 $=
201411240053 METAR KPAE 240053Z VRB04KT 10SM CLR 09/03 A3020 RMK AO2 SLP230 T00890033 $=
201411232353 METAR KPAE 232353Z 33005KT 10SM FEW033 09/04 A3019 RMK AO2 SLP224 T00940044 10117 20083 53019 $=
201411232253 METAR KPAE 232253Z 36003KT 10SM SCT036 11/04 A3017 RMK AO2 SLP217 T01110039 $=
201411232153 METAR KPAE 232153Z 30004KT 10SM BKN036 12/04 A3015 RMK AO2 SLP210 T01170044 $=
201411232058 SPECI KPAE 232058Z 00000KT 10SM BKN026 11/06 A3013 RMK AO2 T01060056 $=
201411232057 SPECI KPAE 232057Z 00000KT 10SM SCT026 11/06 A3013 RMK AO2 T01060056 $=
201411232053 METAR KPAE 232053Z 16004KT 10SM FEW026 11/06 A3013 RMK AO2 SLP204 T01060056 51016 $=
201411231953 METAR KPAE 231953Z 00000KT 10SM FEW003 SCT020 11/05 A3012 RMK AO2 SLP200 T01060050 $=
201411231853 METAR KPAE 231853Z 16005KT 10SM FEW003 SCT025 09/07 A3010 RMK AO2 SLP195 T00940067 $=
201411231800 SPECI KPAE 231800Z 20004KT 10SM BKN055 BKN080 08/06 A3008 RMK AO2 T00830061 $=
201411231753 METAR KPAE 231753Z 19008KT 10SM SCT011 BKN023 OVC050 08/06 A3008 RMK AO2 RAE51 SLP189 P0001 60023 T00830061 10083 20078 52012 $=
201411231653 METAR KPAE 231653Z 19012KT 4SM -RA BR SCT011 BKN028 OVC050 08/07 A3008 RMK AO2 RAB14 SLP188 P0003 T00830067 $=
201411231553 METAR KPAE 231553Z 19018KT 10SM BKN006 BKN055 OVC070 08/07 A3004 RMK AO2 PK WND 19030/1522 RAE24 SLP177 P0003 T00830067 $=
201411231550 SPECI KPAE 231550Z 19017KT 10SM BKN006 BKN055 OVC070 08/07 A3004 RMK AO2 PK WND 19030/1522 RAE24 P0003 $=
201411231453 METAR KPAE 231453Z 19016G26KT 5SM -RA BR FEW015 FEW029 OVC042 08/06 A3006 RMK AO2 PK WND 21026/1446 SLP182 P0016 60016 T00830061 58001 $=
201411231443 SPECI KPAE 231443Z AUTO 20017G23KT 4SM RA BR SCT015 SCT023 OVC036 08/06 A3008 RMK AO2 P0014 T00830061 $=
201411231412 SPECI KPAE 231412Z AUTO 18014KT 4SM -RA BR FEW016 BKN023 OVC040 08/06 A3007 RMK AO2 P0005 T00780061 $=
201411231400 SPECI KPAE 231400Z AUTO 18014G26KT 2 1/2SM RA BR FEW017 BKN033 OVC047 08/06 A3007 RMK AO2 P0002 T00780061 $=
201411231353 METAR KPAE 231353Z AUTO 18018G26KT 7SM -RA FEW013 BKN026 OVC070 08/06 A3007 RMK AO2 PK WND 17027/1315 RAB41 SLP186 P0000 T00830056 $=
201411231348 SPECI KPAE 231348Z AUTO 18015G24KT 10SM -RA SCT013 BKN023 OVC050 08/06 A3007 RMK AO2 PK WND 17027/1315 RAB41 P0000 $=
201411231302 SPECI KPAE 231302Z AUTO 17015G25KT 10SM BKN013 08/06 A3007 RMK AO2 T00780056 $=
201411231253 METAR KPAE 231253Z AUTO 17016G23KT 10SM SCT013 08/06 A3006 RMK AO2 SLP183 T00780056 $=
201411231216 SPECI KPAE 231216Z AUTO 19018G22KT 10SM FEW009 SCT013 BKN046 08/06 A3008 RMK AO2 T00830056 $=
201411231207 SPECI KPAE 231207Z AUTO 16010KT 10SM SCT010 BKN016 OVC065 08/06 A3008 RMK AO2 T00830056 $=
201411231153 METAR KPAE 231153Z AUTO 17015G21KT 10SM BKN013 OVC065 08/06 A3009=
201411231142 SPECI KPAE 231142Z AUTO 19016KT 10SM BKN015 OVC060 08/06 A3010 RMK AO2 T00830056 $=
201411231053 METAR KPAE 231053Z AUTO 19014KT 10SM BKN013 OVC018 08/06 A3012 RMK AO2 SLP200 T00830061 $=
201411231000 SPECI KPAE 231000Z AUTO 18013KT 10SM BKN012 OVC100 08/06 A3012 RMK AO2 T00780056 $=
201411230953 METAR KPAE 230953Z AUTO 17012KT 10SM SCT012 OVC100 08/06 A3012 RMK AO2 SLP200 T00780056 $=
201411230935 SPECI KPAE 230935Z AUTO 17012KT 10SM SCT014 OVC095 08/06 A3012 RMK AO2 T00780056 $=
201411230916 SPECI KPAE 230916Z AUTO 16010KT 10SM FEW011 BKN016 OVC110 08/06 A3012 RMK AO2 T00780056 $=
201411230853 METAR KPAE 230853Z AUTO 17010KT 10SM FEW018 FEW080 BKN120 07/06 A3012 RMK AO2 SLP203 T00720056 $=
201411230753 METAR KPAE 230753Z AUTO 17009KT 10SM OVC075 07/05 A3011 RMK AO2 SLP198 T00720050 400890061 $=
201411230653 METAR KPAE 230653Z AUTO 17009KT 10SM BKN075 BKN100 07/05 A3010 RMK AO2 SLP196 T00720050 $=
201411230553 METAR KPAE 230553Z AUTO 17007KT 10SM OVC075 07/05 A3008 RMK AO2 SLP188 60000 T00720050 10083 20067 51015=
201411230453 METAR KPAE 230453Z AUTO 16007KT 10SM OVC060 07/06 A3006 RMK AO2 RAE29 SLP182 P0000 T00720056=
201411230353 METAR KPAE 230353Z 16009KT 10SM -RA FEW050 OVC070 07/05 A3005 RMK AO2 RAB47 SLP179 P0000 T00720050=
201411230253 METAR KPAE 230253Z 17005KT 10SM FEW037 BKN095 07/05 A3003 RMK AO2 SLP172 T00670050 51029=
201411230153 METAR KPAE 230153Z 17005KT 10SM CLR 07/05 A3001 RMK AO2 SLP164 T00720050=
201411230053 METAR KPAE 230053Z 16007KT 10SM FEW031 07/05 A2997 RMK AO2 SLP153 T00720050=
201411222353 METAR KPAE 222353Z 18008KT 10SM FEW029 SCT034 08/06 A2995 RMK AO2 SLP143 T00780056 10089 20072 51035=
201411222253 METAR KPAE 222253Z 19010KT 10SM FEW012 BKN035 OVC075 08/06 A2992 RMK AO2 SLP133 T00830056=
201411222153 METAR KPAE 222153Z 19006KT 10SM FEW025 SCT031 08/05 A2988 RMK AO2 SLP120 T00830050=
201411222053 METAR KPAE 222053Z 22009KT 10SM FEW010 BKN012 BKN040 08/06 A2984 RMK AO2 PRESRR SLP108 T00830056 53030=
201411221953 METAR KPAE 221953Z 22007KT 10SM BKN016 OVC050 08/06 A2981 RMK AO2 SLP097 T00780056=
201411221938 SPECI KPAE 221938Z 22007KT 10SM BKN014 OVC050 08/05 A2980 RMK AO2 T00780050=
201411221935 SPECI KPAE 221935Z 22008KT 10SM BKN001 OVC050 08/05 A2980 RMK AO2 T00780050=
201411221853 METAR KPAE 221853Z 20006KT 10SM BKN014 OVC065 08/06 A2977 RMK AO2 SLP083 T00780056=
201411221753 METAR KPAE 221753Z 21011KT 10SM BKN075 OVC090 07/05 A2975 RMK AO2 SLP075 T00720050 10072 20061 53027=
201411221653 METAR KPAE 221653Z 20008KT 10SM SCT070 07/05 A2971 RMK AO2 SLP063 T00670050=
201411221553 METAR KPAE 221553Z 16005KT 10SM BKN075 07/04 A2968 RMK AO2 SLP053 T00670044=
201411221453 METAR KPAE 221453Z 17006KT 10SM BKN080 06/04 A2967 RMK AO2 SLP048 T00610044 51012=
201411221353 METAR KPAE 221353Z AUTO 17006KT 10SM BKN095 06/04 A2966 RMK AO2 SLP046 T00610044=
201411221253 METAR KPAE 221253Z AUTO 16008KT 10SM FEW120 06/04 A2964 RMK AO2 SLP040 T00610044=
201411221153 METAR KPAE 221153Z AUTO 15007KT 10SM SCT080 SCT100 07/04 A2963 RMK AO2 SLP036 60026 70063 T00670044 10094 20061 51031=
201411221053 METAR KPAE 221053Z AUTO 15008KT 10SM FEW090 SCT110 07/05 A2962 RMK AO2 SLP031 T00670050=
201411220953 METAR KPAE 220953Z AUTO 00000KT 10SM CLR 07/04 A2958 RMK AO2 SLP018 T00670044=
201411220853 METAR KPAE 220853Z AUTO VRB04KT 10SM FEW028 SCT075 BKN110 07/06 A2954 RMK AO2 RAE38 SLP003 P0011 60026 T00720056 51045=
201411220833 SPECI KPAE 220833Z AUTO 15006KT 10SM -RA FEW026 BKN034 OVC070 08/06 A2953 RMK AO2 P0011 T00780061=
201411220823 SPECI KPAE 220823Z AUTO 13004KT 4SM -RA BR BKN029 OVC036 08/06 A2953 RMK AO2 P0011 T00780061=
201411220815 SPECI KPAE 220815Z AUTO 11006KT 2 1/2SM RA BR BKN029 OVC034 08/06 A2952 RMK AO2 P0009 T00780061=
201411220755 SPECI KPAE 220755Z AUTO 10006KT 1 3/4SM RA BR BKN026 OVC033 08/06 A2951 RMK AO2 P0001 T00780061=
201411220753 METAR KPAE 220753Z AUTO 09006KT 2SM RA BR FEW016 OVC030 08/06 A2950 RMK AO2 SLP992 P0012 T00780061 401000078=
201411220743 SPECI KPAE 220743Z AUTO 11006KT 4SM -RA BR FEW014 BKN027 OVC033 08/06 A2949 RMK AO2 P0009 T00780061=
201411220726 SPECI KPAE 220726Z AUTO VRB05KT 2 1/2SM RA BR FEW006 OVC015 08/06 A2948 RMK AO2 P0006 T00780061=
201411220716 SPECI KPAE 220716Z AUTO 15010G15KT 2 1/2SM RA BR OVC014 08/06 A2948 RMK AO2 PRESRR P0003 T00780061=
201411220653 METAR KPAE 220653Z AUTO 11005KT 4SM -RA BR BKN017 OVC024 08/07 A2945 RMK AO2 SLP974 P0003 T00830067=
201411220625 SPECI KPAE 220625Z AUTO 11005KT 5SM -RA BR BKN023 BKN040 OVC048 09/07 A2943 RMK AO2 P0003 T00890067=
201411220553 METAR KPAE 220553Z AUTO 12003KT 7SM -RA OVC041 09/07 A2940 RMK AO2 RAB08 SLP958 P0011 60017 T00890072 10094 20083 51030=
201411220534 SPECI KPAE 220534Z AUTO 00000KT 4SM RA BR SCT006 SCT010 OVC037 09/08 A2940 RMK AO2 RAB08 P0010 T00890078=
201411220526 SPECI KPAE 220526Z AUTO 00000KT 3SM -RA BR BKN006 BKN010 OVC035 09/07 A2940 RMK AO2 RAB08 CIG 003V007 P0008 T00890072=
201411220515 SPECI KPAE 220515Z AUTO 35003KT 1 1/2SM RA BR OVC007 09/08 A2939 RMK AO2 RAB08 CIG 004V009 P0005 T00940083=
201411220453 METAR KPAE 220453Z 19004KT 10SM BKN007 OVC011 09/08 A2938 RMK AO2 SLP948 T00940083=
201411220353 METAR KPAE 220353Z 17008KT 9SM OVC004 09/07 A2935 RMK AO2 SLP939 T00890072=
201411220253 METAR KPAE 220253Z VRB04KT 4SM BR BKN004 OVC015 08/07 A2931=
201411220222 SPECI KPAE 220222Z 16007KT 3SM -RA BR BKN004 OVC019 08/07 A2932 RMK AO2 P0003 T00830072=
201411220218 SPECI KPAE 220218Z 16008KT 2SM -RA BR BKN014 OVC019 08/07 A2932 RMK AO2 P0002 T00830072=
201411220201 SPECI KPAE 220201Z 15009KT 1 3/4SM -RA BR OVC016 08/07 A2932 RMK AO2 P0001 T00830067=
201411220153 METAR KPAE 220153Z 16010KT 3SM -RA BR FEW006 OVC016 08/07 A2933=
201411220129 SPECI KPAE 220129Z 15008G15KT 5SM -RA BR SCT006 BKN017 OVC029 08/07 A2931 RMK AO2 P0001 T00830067=
201411220053 METAR KPAE 220053Z 15011G20KT 4SM -RA BR SCT006 BKN044 OVC085 08/07 A2932 RMK AO2 RAE21B42 SLP930 P0002 T00830067=
201411220017 SPECI KPAE 220017Z 15014G24KT 5SM -RA BR SCT006 BKN044 OVC085 08/07 A2934 RMK AO2 P0002 T00830067=
201411212353 METAR KPAE 212353Z 15016G23KT 6SM -RA BR FEW032 BKN045 OVC055 08/06 A2936 RMK AO2 SLP944 P0002 60015 T00830061 10094 20083=
201411212253 METAR KPAE 212253Z 15013G17KT 5SM -RA BR FEW038 BKN060 OVC075 08/07 A2940 RMK AO2 PRESFR SLP956 P0003 T00830067 $=
201411212153 METAR KPAE 212153Z 15008G16KT 7SM -RA FEW005 BKN036 OVC044 09/07 A2948=
201411212053 METAR KPAE 212053Z 14007G15KT 110V170 7SM -RA BKN060 OVC080 09/07 A2955 RMK AO2 PRESFR SLP008 P0004 60006 T00940067 58041=
201411211953 METAR KPAE 211953Z 15014G19KT 5SM -RA BR FEW037 OVC046 09/07 A2962 RMK AO2 SLP031 P0001 T00890067=
201411211853 METAR KPAE 211853Z 15013G18KT 9SM -RA FEW031 BKN039 OVC048 09/07 A2965 RMK AO2 SLP041 P0001 T00940067=
201411211753 METAR KPAE 211753Z 15011G17KT 8SM -RA FEW044 BKN050 OVC070 09/07 A2968 RMK AO2 RAB11 SLP050 P0001 60005 T00890067 10100 20089 58029=
201411211653 METAR KPAE 211653Z VRB05KT 10SM SCT030 BKN050 OVC080 09/07 A2971 RMK AO2 RAE20 SLP061 P0001 T00940067 $=
201411211553 METAR KPAE 211553Z 16011KT 6SM -RA SCT028 BKN033 OVC049 09/07 A2974 RMK AO2 RAB1458 SLP073 P0003 T00940067 $=
201411211453 METAR KPAE 211453Z 15010KT 10SM OVC038 09/06 A2976 RMK AO2 RAE1354 SLP080 P0000 60000 T00940061 56026 $=
201411211353 METAR KPAE 211353Z 15013G19KT 10SM -RA SCT035 OVC047 09/06 A2978 RMK AO2 RAB15 SLP087 P0000 T00940061 $=
201411211253 METAR KPAE 211253Z AUTO 15010KT 10SM SCT040 OVC050 09/06 A2982 RMK AO2 RAB11E28 SLP099 P0000 T00940061 $=
201411211153 METAR KPAE 211153Z AUTO 16010G16KT 10SM BKN038 OVC055 09/06 A2984 RMK AO2 SLP107 T00940056 10100 20089 $=
201411211053 METAR KPAE 211053Z AUTO 15008KT 10SM SCT036 BKN049 OVC080 09/06 A2987 RMK AO2 SLP115 T00890061 $=
201411210953 METAR KPAE 210953Z 16010KT 10SM SCT038 OVC060 09/06 A2986 RMK AO2 SLP114 T00890061=
201411210853 METAR KPAE 210853Z 16012KT 10SM CLR 09/06 A2987 RMK AO2 SLP118 T00890061 58012=
201411210753 METAR KPAE 210753Z 15010KT 10SM FEW055 BKN090 09/07 A2989 RMK AO2 SLP124 T00890067 401060056=
201411210653 METAR KPAE 210653Z 16010KT 10SM OVC048 09/07 A2990 RMK AO2 SLP128 T00940067=
201411210553 METAR KPAE 210553Z 16009KT 10SM OVC036 09/07 A2991 RMK AO2 SLP130 60000 T00940067 10100 20089 58004=
201411210453 METAR KPAE 210453Z 15010KT 10SM BKN030 OVC050 09/07 A2992 RMK AO2 SLP133 T00940072=
201411210353 METAR KPAE 210353Z 15011G15KT 10SM BKN027 OVC047 09/07 A2992 RMK AO2 SLP135 T00940072=
201411210253 METAR KPAE 210253Z 15007KT 10SM SCT025 BKN039 OVC120 09/07 A2992 RMK AO2 RAE41 SLP135 P0000 60000 T00890072 56005=
201411210251 SPECI KPAE 210251Z 15007KT 10SM SCT025 BKN090 OVC120 09/07 A2992 RMK AO2 RAE41 P0000=
201411210241 SPECI KPAE 210241Z 15009KT 10SM BKN025 BKN070 OVC120 09/07 A2993 RMK AO2 RAE41 P0000 T00890072=
201411210209 SPECI KPAE 210209Z 15010KT 9SM -RA FEW024 SCT035 OVC070 09/08 A2993 RMK AO2 P0000 T00890078=
201411210153 METAR KPAE 210153Z 15008KT 8SM -RA BKN022 BKN030 OVC046 09/07 A2993 RMK AO2 RAE19B38 SLP138 P0000 T00890072=
201411210053 METAR KPAE 210053Z 15005KT 7SM -RA BKN020 OVC025 09/07 A2994 RMK AO2 RAB2357E20B47 SLP140 P0000 T00940072=
201411202353 METAR KPAE 202353Z 16008KT 10SM OVC025 10/07 A2994 RMK AO2 SLP142 T01000067 10106 20089 56002=
201411202253 METAR KPAE 202253Z 15007KT 10SM BKN029 BKN035 OVC043 10/06 A2994 RMK AO2 SLP141 T01000061=
201411202249 SPECI KPAE 202249Z 16007KT 10SM BKN029 OVC035 10/06 A2994 RMK AO2=
201411202153 METAR KPAE 202153Z 17009KT 10SM SCT025 OVC044 10/07 A2995 RMK AO2 SLP143 T01000067=
201411202053 METAR KPAE 202053Z 18010KT 10SM SCT041 OVC049 10/06 A2995 RMK AO2 SLP145 T01000061 58005=
201411201953 METAR KPAE 201953Z 16010KT 10SM SCT040 SCT048 OVC060 10/07 A2995=
201411201853 METAR KPAE 201853Z 15008G15KT 10SM SCT024 BKN050 OVC075 09/06 A2997 RMK AO2 SLP151 T00940061=
201411201753 METAR KPAE 201753Z 16010G16KT 10SM SCT020 SCT065 BKN080 09/06 A2997 RMK AO2 SLP150 T00890061 10089 20056 51010=
201411201742 SPECI KPAE 201742Z 16010KT 10SM BKN020 BKN060 09/06 A2997 RMK AO2 T00890061=
201411201653 METAR KPAE 201653Z 15014KT 10SM SCT006 08/06 A2996 RMK AO2 SLP148 T00830061=
201411201553 METAR KPAE 201553Z 16014KT 10SM FEW009 07/06 A2995 RMK AO2 SLP144 T00720056=
201411201453 METAR KPAE 201453Z 15011KT 10SM SCT020 07/05 A2994 RMK AO2 SLP141 T00670050 51007=
201411201418 SPECI KPAE 201418Z AUTO 16017KT 10SM SCT020 07/05 A2993 RMK AO2 T00670050 TSNO=
201411201353 METAR KPAE 201353Z AUTO 16016KT 10SM FEW014 BKN019 06/04 A2994 RMK AO2 SLP140 T00610044 TSNO=
201411201312 SPECI KPAE 201312Z AUTO 15013G16KT 9SM FEW004 SCT013 OVC022 06/04 A2994 RMK AO2 T00560044 TSNO=
201411201253 METAR KPAE 201253Z AUTO 15013G17KT 7SM FEW005 BKN014 OVC021 06/04 A2993 RMK AO2 SLP138 T00560039 TSNO=
201411201244 SPECI KPAE 201244Z AUTO 15010G16KT 8SM FEW005 BKN014 OVC021 06/04 A2993 RMK AO2 T00560039 TSNO=
201411201153 METAR KPAE 201153Z AUTO 15013G19KT 10SM OVC023 06/03 A2992 RMK AO2 SLP134 P0001 60001 70001 T00560033 10089 20056 51010 TSNO=
201411201053 METAR KPAE 201053Z AUTO 16009KT 10SM OVC024 06/02 A2991 RMK AO2 RAE31 SLP132 P0000 T00610022 TSNO=
201411201025 SPECI KPAE 201025Z AUTO 16011KT 10SM -RA BKN026 OVC033 06/02 A2991 RMK AO2 P0000 T00610017 TSNO=
201411200953 METAR KPAE 200953Z AUTO 17011G17KT 10SM -RA OVC032 06/02 A2990=
201411200853 METAR KPAE 200853Z AUTO 20009KT 10SM OVC060 08/M03 A2989 RMK AO2 SLP122 T00831028 53012 TSNO=
201411200753 METAR KPAE 200753Z AUTO 15008KT 10SM BKN110 08/M02 A2987 RMK AO2 SLP115 T00831022 401060033 TSNO=
201411200653 METAR KPAE 200653Z AUTO 17007KT 10SM BKN100 08/M01 A2986 RMK AO2 SLP113 T00781006 TSNO=
201411200553 METAR KPAE 200553Z AUTO 16009KT 10SM OVC085 08/00 A2985 RMK AO2 SLP109 T00830000 10089 20067 53006 TSNO=
201411200453 METAR KPAE 200453Z 16012KT 10SM CLR 08/M01 A2984 RMK AO2 SLP107 T00831006=
201411200353 METAR KPAE 200353Z 17006KT 10SM SCT120 08/00 A2984 RMK AO2 SLP106 T00830000=
201411200253 METAR KPAE 200253Z 00000KT 10SM BKN095 OVC120 08/01 A2983=
201411200153 METAR KPAE 200153Z 00000KT 10SM SCT095 OVC120 07/01 A2983 RMK AO2 SLP102 T00720011=
201411200053 METAR KPAE 200053Z 00000KT 10SM SCT110 08/01 A2982 RMK AO2 SLP101 T00780006=
201411192353 METAR KPAE 192353Z 36004KT 10SM CLR 07/01 A2983 RMK AO2 SLP103 T00720006 10106 20072 56017=
201411192253 METAR KPAE 192253Z 02005KT 10SM CLR 08/M01 A2984 RMK AO2 SLP108 T00831006=
201411192153 METAR KPAE 192153Z 04003KT 10SM CLR 09/M02 A2985 RMK AO2 SLP111 T00941017=
201411192053 METAR KPAE 192053Z 02005KT 10SM BKN100 08/M02 A2988 RMK AO2 SLP121 T00831022 58022=
201411191953 METAR KPAE 191953Z 36003KT 10SM BKN110 08/M01 A2991 RMK AO2 SLP130 T00831006=
201411191853 METAR KPAE 191853Z 11006KT 10SM BKN100 09/M06 A2993 RMK AO2 SLP138 T00941056=
201411191753 METAR KPAE 191753Z 11008KT 10SM CLR 09/M07 A2995 RMK AO2 SLP143 60000 T00941067 10094 20044 58016=
201411191653 METAR KPAE 191653Z 00000KT 10SM CLR 06/M02 A2997 RMK AO2 SLP153 T00611022=
201411191553 METAR KPAE 191553Z 05003KT 10SM CLR 06/M03 A2998 RMK AO2 SLP157 T00611028=
201411191453 METAR KPAE 191453Z 07003KT 10SM OVC120 07/M05 A2999 RMK AO2 SLP160 60000 T00671050 56013=
201411191353 METAR KPAE 191353Z AUTO 00000KT 10SM BKN110 06/M05 A3000 RMK AO2 SLP163 T00611050=
201411191253 METAR KPAE 191253Z AUTO 06003KT 10SM OVC100 05/M04 A3002 RMK AO2 RAB23E34 SLP168 P0000 T00501039=
201411191153 METAR KPAE 191153Z AUTO 10004KT 10SM CLR 06/M06 A3003 RMK AO2 SLP172 T00561061 10061 20033 58012=
201411191053 METAR KPAE 191053Z AUTO 00000KT 10SM FEW120 05/M08 A3005=
201411190953 METAR KPAE 190953Z AUTO 15003KT 10SM CLR 05/M07 A3007 RMK AO2 SLP185 T00501072=
201411190853 METAR KPAE 190853Z AUTO 16006KT 10SM CLR 06/M08 A3007 RMK AO2 SLP185 T00561078 58001=
201411190753 METAR KPAE 190753Z AUTO 15007KT 10SM CLR 05/M06 A3007 RMK AO2 SLP185 T00501061 400940006=
201411190653 METAR KPAE 190653Z AUTO 15005KT 10SM CLR 06/M07 A3007 RMK AO2 SLP187 T00561067=
201411190553 METAR KPAE 190553Z AUTO 11006KT 10SM CLR 05/M05 A3007 RMK AO2 SLP187 T00501050 10072 20022 56006=
201411190453 METAR KPAE 190453Z AUTO 11004KT 10SM CLR 04/M04 A3007 RMK AO2 SLP187 T00441044=
201411190353 METAR KPAE 190353Z 00000KT 10SM CLR 05/M04 A3009 RMK AO2 SLP193 T00501039=
201411190253 METAR KPAE 190253Z 00000KT 10SM CLR 04/M03 A3009 RMK AO2 SLP194 T00441033 58003=
201411190153 METAR KPAE 190153Z 00000KT 10SM CLR 04/M04 A3010 RMK AO2 SLP195 T00441044=
201411190053 METAR KPAE 190053Z 00000KT 10SM CLR 06/M04 A3010 RMK AO2 SLP195 T00611044=
201411182353 METAR KPAE 182353Z 00000KT 10SM CLR 07/M06 A3010 RMK AO2 SLP196 T00721061 10094 20061 56006=
201411182253 METAR KPAE 182253Z 22003KT 10SM CLR 09/M07 A3010 RMK AO2 SLP196 T00891067=
201411182153 METAR KPAE 182153Z VRB03KT 10SM CLR 09/M08 A3010 RMK AO2 SLP196 T00941078=
201411182053 METAR KPAE 182053Z 00000KT 10SM CLR 09/M08 A3011 RMK AO2 SLP201 T00891083 58007=
201411181953 METAR KPAE 181953Z 15004KT 10SM CLR 08/M09 A3012 RMK AO2 SLP203 T00831089=
201411181853 METAR KPAE 181853Z 09004KT 10SM CLR 08/M08 A3014 RMK AO2 SLP208 T00781083=
201411181753 METAR KPAE 181753Z 18003KT 10SM CLR 06/M07 A3014 RMK AO2 SLP208 T00611067 10061 20017 50000=
201411181653 METAR KPAE 181653Z 00000KT 10SM CLR 04/M03 A3014 RMK AO2 SLP211 T00391028=
201411181553 METAR KPAE 181553Z 00000KT 10SM CLR 02/M03 A3014 RMK AO2 SLP210 T00221033=
201411181453 METAR KPAE 181453Z 00000KT 10SM CLR 02/M04 A3014 RMK AO2 SLP210 T00221039 53002=
201411181353 METAR KPAE 181353Z AUTO 11005KT 10SM CLR 04/M06 A3012 RMK AO2 SLP204 T00391061=
201411181253 METAR KPAE 181253Z AUTO 09004KT 10SM CLR 04/M06 A3012 RMK AO2 SLP204 T00441056=
201411181153 METAR KPAE 181153Z AUTO 04003KT 10SM CLR 02/M03 A3013 RMK AO2 SLP206 T00221033 10050 20006 56011=
201411181053 METAR KPAE 181053Z AUTO 00000KT 10SM CLR 02/M07 A3014 RMK AO2 SLP209 T00171072=
201411180953 METAR KPAE 180953Z AUTO 08003KT 10SM CLR 03/M06 A3014 RMK AO2 SLP208 T00281061=
201411180853 METAR KPAE 180853Z AUTO 00000KT 10SM CLR 01/M04 A3016 RMK AO2 SLP218 T00061044 58014=
201411180753 METAR KPAE 180753Z AUTO 00000KT 10SM CLR 03/M07 A3018 RMK AO2 SLP223 T00331067 400941006=
201411180653 METAR KPAE 180653Z AUTO VRB03KT 10SM CLR 04/M07 A3018 RMK AO2 SLP224 T00441067=
201411180553 METAR KPAE 180553Z AUTO VRB04KT 10SM CLR 06/M07 A3020 RMK AO2 SLP230 T00561067 10083 20022 56012=
201411180453 METAR KPAE 180453Z AUTO 00000KT 10SM CLR 03/M02 A3021 RMK AO2 SLP236 T00281022=
201411180353 METAR KPAE 180353Z 00000KT 10SM CLR 04/M02 A3022 RMK AO2 SLP240 T00391022=
201411180253 METAR KPAE 180253Z 00000KT 10SM CLR 04/M03 A3024 RMK AO2 SLP243 T00441033 56005=
201411180153 METAR KPAE 180153Z 00000KT 10SM CLR 06/M07 A3024 RMK AO2 SLP244 T00561067=
201411180053 METAR KPAE 180053Z 00000KT 10SM CLR 06/M08 A3024 RMK AO2 SLP245 T00611083=
201411172353 METAR KPAE 172353Z 01003KT 10SM CLR 08/M12 A3025 RMK AO2 SLP248 T00831117 10094 20061 56020=
201411172253 METAR KPAE 172253Z 02003KT 10SM CLR 09/M09 A3027 RMK AO2 SLP254 T00891094=
201411172153 METAR KPAE 172153Z 02003KT 10SM CLR 09/M07 A3029 RMK AO2 SLP260 T00891067 $=
201411172053 METAR KPAE 172053Z 33003KT 10SM CLR 08/M06 A3031 RMK AO2 SLP268 T00831061 56015 $=
201411171953 METAR KPAE 171953Z 00000KT CLR 08/M06 A3033 RMK AO2 SLP273 T00831061 $=
201411171853 METAR KPAE 171853Z 00000KT 10SM CLR 08/M12 A3034 RMK AO2 SLP278 T00781117=
201411171753 METAR KPAE 171753Z VRB03KT 10SM CLR 06/M11 A3036 RMK AO2 SLP285 T00611111 10061 20000 50001=
201411171653 METAR KPAE 171653Z 00000KT 10SM CLR 04/M08 A3037 RMK AO2 SLP289 T00441078=
201411171553 METAR KPAE 171553Z 00000KT 10SM CLR 02/M09 A3037 RMK AO2 SLP290 T00221089=
201411171453 METAR KPAE 171453Z 13004KT 10SM CLR 04/M10 A3035 RMK AO2 SLP284 T00391100 57001=
201411171353 METAR KPAE 171353Z AUTO 07003KT 10SM CLR 03/M08 A3035 RMK AO2 SLP284 T00281078=
201411171253 METAR KPAE 171253Z AUTO 05006KT 10SM CLR 02/M06 A3036 RMK AO2 SLP284 T00221061=
201411171153 METAR KPAE 171153Z AUTO 00000KT 10SM CLR 00/M05 A3035 RMK AO2 SLP284 T00001050 10039 21006 56008=
201411171053 METAR KPAE 171053Z AUTO 05003KT 10SM CLR 00/M04 A3036 RMK AO2 SLP285 T00001044=
201411170953 METAR KPAE 170953Z AUTO 04003KT 10SM CLR 02/M04 A3036 RMK AO2 SLP287 T00171044=
201411170853 METAR KPAE 170853Z AUTO 08006KT 10SM CLR 04/M08 A3038 RMK AO2 SLP292 T00391078 58010=
201411170753 METAR KPAE 170753Z AUTO 02003KT 10SM CLR 02/M05 A3040 RMK AO2 SLP301 T00171050 400671022=
201411170653 METAR KPAE 170653Z AUTO 03005KT 10SM CLR 02/M02 A3041 RMK AO2 SLP304 T00221022=
201411170553 METAR KPAE 170553Z AUTO 00000KT 10SM CLR 02/M02 A3041 RMK AO2 SLP303 T00171017 10050 20011 53013=
201411170453 METAR KPAE 170453Z AUTO 00000KT 10SM CLR 02/M03 A3039 RMK AO2 SLP299 T00221028=
201411170353 METAR KPAE 170353Z 00000KT 10SM CLR 02/M02 A3038 RMK AO2 SLP293 T00221022=
201411170253 METAR KPAE 170253Z 01003KT 10SM CLR 03/M06 A3037 RMK AO2 SLP290 T00281056 56009=
201411170153 METAR KPAE 170153Z 03005KT 10SM CLR 03/M04 A3038 RMK AO2 SLP293 T00331044=
201411170053 METAR KPAE 170053Z 36003KT 10SM CLR 03/M04 A3039 RMK AO2 SLP296 T00331039=
201411162353 METAR KPAE 162353Z 34004KT 10SM CLR 05/M06 A3040 RMK AO2 SLP299 T00501061 10067 20022 56015=
201411162253 METAR KPAE 162253Z 35004KT 10SM CLR 06/M06 A3040 RMK AO2 SLP300 T00611061=
201411162153 METAR KPAE 162153Z 34003KT 10SM CLR 06/M06 A3042 RMK AO2 SLP307 T00561056=
201411162053 METAR KPAE 162053Z 02005KT 10SM CLR 05/M07 A3044 RMK AO2 SLP314 T00501067 58013=
201411161953 METAR KPAE 161953Z VRB04KT 10SM CLR 04/M06 A3046 RMK AO2 SLP321 T00391061=
201411161853 METAR KPAE 161853Z 36005KT 10SM CLR 04/M07 A3048 RMK AO2 SLP327 T00391067=
201411161753 METAR KPAE 161753Z 02004KT 10SM CLR 02/M08 A3048 RMK AO2 SLP328 T00221083 10022 21022 51002=
201411161653 METAR KPAE 161653Z 02007KT 10SM CLR 01/M07 A3048 RMK AO2 SLP327 T00061072=
201411161553 METAR KPAE 161553Z 01004KT 10SM CLR M01/M04 A3048 RMK AO2 SLP328 T10111044=
201411161453 METAR KPAE 161453Z 03004KT 10SM CLR M01/M07 A3047 RMK AO2 SLP327 T10111067 58005=
201411161353 METAR KPAE 161353Z AUTO 03003KT 10SM CLR M01/M08 A3048 RMK AO2 SLP328 T10061078 TSNO=
201411161253 METAR KPAE 161253Z AUTO 00000KT 10SM CLR M01/M09 A3049 RMK AO2 SLP330 T10061089 TSNO=
201411161153 METAR KPAE 161153Z AUTO 03004KT 10SM CLR M01/M07 A3049 RMK AO2 SLP329 T10061072 10017 21017 58005 TSNO=
201411161053 METAR KPAE 161053Z AUTO 00000KT 10SM CLR M01/M10 A3050 RMK AO2 SLP332 T10061100 TSNO=
201411160953 METAR KPAE 160953Z AUTO 08003KT 10SM CLR 01/M12 A3050 RMK AO2 SLP334 T00111117 TSNO=
201411160853 METAR KPAE 160853Z AUTO 09005KT 10SM CLR 02/M12 A3050 RMK AO2 SLP335 T00171117 58011 TSNO=
201411160753 METAR KPAE 160753Z AUTO 11007KT 10SM CLR 01/M11 A3052 RMK AO2 SLP341 T00111106 400611033 TSNO=
201411160653 METAR KPAE 160653Z AUTO 11006KT 10SM CLR 01/M10 A3052 RMK AO2 SLP341 T00111100 TSNO=
201411160553 METAR KPAE 160553Z AUTO 00000KT 10SM CLR M01/M07 A3054 RMK AO2 SLP347 T10111067 10044 21017 51010 TSNO=
201411160453 METAR KPAE 160453Z 11003KT 10SM CLR 01/M07 A3053 RMK AO2 SLP345 T00061067=
201411160353 METAR KPAE 160353Z 00000KT 10SM CLR M01/M07 A3052 RMK AO2 SLP342 T10061067=
201411160253 METAR KPAE 160253Z 00000KT 10SM CLR 00/M06 A3050 RMK AO2 SLP337 T00001061 53012=
201411160153 METAR KPAE 160153Z 00000KT 10SM CLR 02/M07 A3049 RMK AO2 SLP330 T00171072=
201411160053 METAR KPAE 160053Z 02005KT 10SM CLR 03/M07 A3047 RMK AO2 SLP324 T00331067=
201411152353 METAR KPAE 152353Z 35003KT 10SM CLR 04/M06 A3047 RMK AO2 SLP324 T00441061 10061 20033 55000=
201411152253 METAR KPAE 152253Z 35005KT 10SM CLR 05/M07 A3047 RMK AO2 SLP323 T00501067=
201411152153 METAR KPAE 152153Z VRB04KT 10SM CLR 06/M13 A3047 RMK AO2 SLP323 T00561133=
201411152053 METAR KPAE 152053Z 35004KT 10SM CLR 05/M13 A3047 RMK AO2 SLP323 T00501128 51002=
201411151953 METAR KPAE 151953Z 03003KT 10SM CLR 05/M11 A3047 RMK AO2 SLP322 T00501106=
201411151853 METAR KPAE 151853Z 01004KT 10SM CLR 03/M08 A3047 RMK AO2 SLP326 T00331078=
201411151753 METAR KPAE 151753Z 00000KT 10SM CLR 03/M09 A3046 RMK AO2 SLP321 T00331089 10039 21033 51019=
201411151653 METAR KPAE 151653Z 00000KT 10SM CLR 01/M08 A3045 RMK AO2 SLP317 T00061083=
201411151553 METAR KPAE 151553Z 00000KT 10SM CLR M03/M09 A3043 RMK AO2 SLP311 T10281094=
201411151453 METAR KPAE 151453Z 04003KT 10SM CLR M02/M09 A3041 RMK AO2 SLP304 T10171094 53021=
201411151353 METAR KPAE 151353Z AUTO 00000KT 10SM CLR M01/M09 A3038 RMK AO2 SLP293 T10111094=
201411151253 METAR KPAE 151253Z AUTO 00000KT 10SM CLR M02/M09 A3036 RMK AO2 SLP288 T10171094=
201411151153 METAR KPAE 151153Z AUTO 34004KT 10SM CLR M03/M10 A3034 RMK AO2 SLP281 T10281100 10006 21028 51013=
201411151053 METAR KPAE 151053Z AUTO 00000KT 10SM CLR M02/M11 A3033 RMK AO2 SLP277 T10171106=
201411150953 METAR KPAE 150953Z AUTO 11005KT 10SM CLR M01/M10 A3032 RMK AO2 SLP272 T10061100=
201411150853 METAR KPAE 150853Z AUTO 11004KT 10SM CLR M01/M09 A3030 RMK AO2 SLP267 T10061089 51015=
201411150753 METAR KPAE 150753Z AUTO 11003KT 10SM CLR M01/M09 A3029 RMK AO2 SLP264 T10061089 400501022=
201411150653 METAR KPAE 150653Z AUTO 00000KT 10SM CLR 00/M08 A3027 RMK AO2 SLP257 T00001083=
201411150553 METAR KPAE 150553Z AUTO 11007KT 10SM CLR 01/M09 A3026 RMK AO2 SLP252 T00061089 10044 21017 53017=
201411150453 METAR KPAE 150453Z AUTO 00000KT 10SM CLR M01/M07 A3024 RMK AO2 SLP245 T10111072=
201411150353 METAR KPAE 150353Z 00000KT 10SM CLR M01/M07 A3022 RMK AO2 SLP241 T10061072=
201411150253 METAR KPAE 150253Z 00000KT 10SM CLR 00/M07 A3021 RMK AO2 SLP236 T00001067 53015=
201411150153 METAR KPAE 150153Z 00000KT 10SM CLR 01/M07 A3019=
201411150053 METAR KPAE 150053Z 00000KT 10SM CLR 03/M07 A3017 RMK AO2 SLP224 T00281072=
201411142353 METAR KPAE 142353Z 36005KT 10SM CLR 04/M07 A3016 RMK AO2 SLP219 T00441072 10050 20028 53007=
201411142253 METAR KPAE 142253Z 35007KT 10SM CLR 05/M07 A3015 RMK AO2 SLP214 T00501072=
201411142153 METAR KPAE 142153Z 35006KT 10SM CLR 05/M08 A3014 RMK AO2 SLP212 T00501078=
201411142053 METAR KPAE 142053Z 01003KT 10SM CLR 04/M10 A3014 RMK AO2 SLP211 T00441100 51012=
201411141953 METAR KPAE 141953Z 01006KT 10SM CLR 03/M11 A3013 RMK AO2 SLP208 T00331106=
201411141853 METAR KPAE 141853Z 02003KT 10SM CLR 04/M09 A3012 RMK AO2 SLP205 T00391089=
201411141753 METAR KPAE 141753Z 00000KT 10SM CLR 04/M13 A3010 RMK AO2 SLP199 T00391128 10039 21022 51014=
201411141653 METAR KPAE 141653Z 04003KT 10SM CLR 01/M10 A3009 RMK AO2 SLP195 T00111100 $=
201411141553 METAR KPAE 141553Z 03005KT 10SM CLR M01/M08 A3008 RMK AO2 SLP191 T10111083 $=
201411141453 METAR KPAE 141453Z 02004KT 10SM CLR M02/M10 A3006 RMK AO2 SLP186 T10171100 53009 $=
201411141353 METAR KPAE 141353Z AUTO 04004KT 10SM CLR M01/M11 A3005 RMK AO2 SLP181 T10061106 $=
201411141253 METAR KPAE 141253Z AUTO 05003KT 10SM CLR M01/M11 A3004 RMK AO2 SLP179 T10111106 $=
201411141153 METAR KPAE 141153Z AUTO 00000KT 10SM CLR M01/M11 A3003 RMK AO2 SLP176 T10111106 10022 21017 52005 $=
201411141053 METAR KPAE 141053Z AUTO 04005KT 10SM CLR M01/M11 A3003 RMK AO2 SLP175 T10061106 $=
201411140953 METAR KPAE 140953Z AUTO 04004KT 10SM CLR 00/M12 A3002 RMK AO2 SLP171 T00001117 $=
201411140853 METAR KPAE 140853Z AUTO 05004KT 10SM CLR M01/M08 A3002 RMK AO2 SLP170 T10061083 50003 $=
201411140753 METAR KPAE 140753Z AUTO 03005KT 10SM CLR 00/M11 A3002 RMK AO2 SLP171 T00001106 400671028 $=
201411140653 METAR KPAE 140653Z AUTO 12004KT 10SM CLR 02/M14 A3001 RMK AO2 SLP168 T00171139 $=
201411140553 METAR KPAE 140553Z AUTO 11006KT 10SM CLR 02/M14 A3001 RMK AO2 SLP167 T00221139 10044 20011 53007 $=
201411140453 METAR KPAE 140453Z AUTO 10006KT 10SM CLR 02/M13 A3000 RMK AO2 SLP163 T00221128 $=
201411140353 METAR KPAE 140353Z 11006KT 10SM CLR 01/M10 A2999 RMK AO2 SLP161 T00111100 $=
201411140253 METAR KPAE 140253Z 00000KT 10SM CLR 03/M12 A2999 RMK AO2 SLP160 T00281122 51004 $=
201411140153 METAR KPAE 140153Z 02003KT 10SM CLR 03/M09 A2999 RMK AO2 SLP160 T00281094 $=
201411140053 METAR KPAE 140053Z 36003KT 10SM CLR 03/M11 A2998 RMK AO2 SLP158 T00331106 $=
201411132353 METAR KPAE 132353Z 35005KT 10SM CLR 04/M10 A2998 RMK AO2 SLP155 T00441100 10067 20033 55000 $=
201411132253 METAR KPAE 132253Z 34005KT 10SM CLR 06/M12 A2996 RMK AO2 SLP151 T00561117 $=
201411132153 METAR KPAE 132153Z VRB04KT 10SM CLR 06/M11 A2997 RMK AO2 SLP152 T00561111=
201411132053 METAR KPAE 132053Z VRB04KT 10SM CLR 06/M11 A2998 RMK AO2 SLP155 T00611106 58005=
201411131953 METAR KPAE 131953Z VRB04KT 10SM CLR 06/M16 A2998 RMK AO2 SLP158 T00611161=
201411131853 METAR KPAE 131853Z 03005KT 10SM CLR 04/M11 A2999 RMK AO2 SLP161 T00391106=
201411131753 METAR KPAE 131753Z 09006KT 10SM CLR 04/M18 A2999 RMK AO2 SLP161 T00391178 10039 21017 58001=
201411131653 METAR KPAE 131653Z 10008KT 10SM CLR 03/M17 A2999 RMK AO2 SLP160 T00281172=
201411131553 METAR KPAE 131553Z 11005KT 10SM CLR 01/M17 A2999 RMK AO2 SLP162 T00061172=
201411131453 METAR KPAE 131453Z 10008KT 10SM CLR 01/M17 A2999 RMK AO2 SLP162 T00061167 58019=
201411131353 METAR KPAE 131353Z AUTO 10005KT 10SM CLR 00/M16 A3001 RMK AO2 SLP168 T00001156=
201411131253 METAR KPAE 131253Z AUTO 12003KT 10SM CLR 00/M17 A3003 RMK AO2 SLP175 T00001167=
201411131153 METAR KPAE 131153Z AUTO 11003KT 10SM CLR M01/M16 A3005 RMK AO2 SLP180 T10061161 10017 21028 58010=
201411131053 METAR KPAE 131053Z AUTO 17004KT 10SM CLR M02/M15 A3006 RMK AO2 SLP185 T10171150=
201411130953 METAR KPAE 130953Z AUTO 00000KT 10SM CLR M01/M14 A3008 RMK AO2 SLP190 T10111144=
201411130853 METAR KPAE 130853Z AUTO 00000KT 10SM CLR M02/M13 A3008 RMK AO2 SLP192 T10171133 57019=
201411130753 METAR KPAE 130753Z AUTO 00000KT 10SM CLR M01/M14 A3010 RMK AO2 SLP197 T10111144 400441011=
201411130653 METAR KPAE 130653Z AUTO 16007KT 10SM CLR 02/M18 A3012 RMK AO2 SLP204 T00171178=
201411130553 METAR KPAE 130553Z AUTO 17004KT 10SM CLR M01/M14 A3014 RMK AO2 SLP210 T10061144 10044 21011 56009=
201411130453 METAR KPAE 130453Z AUTO 00000KT 10SM CLR 01/M15 A3014 RMK AO2 SLP212 T00111150=
201411130353 METAR KPAE 130353Z 15005KT 10SM CLR 01/M15 A3015 RMK AO2 SLP217 T00111150=
201411130253 METAR KPAE 130253Z 16006KT 10SM CLR 02/M14 A3016 RMK AO2 SLP219 T00171139 56006=
201411130153 METAR KPAE 130153Z 16004KT 10SM CLR 02/M12 A3017 RMK AO2 SLP222 T00171117=
201411130053 METAR KPAE 130053Z 00000KT 10SM CLR 04/M15 A3017 RMK AO2 SLP221 T00391150=
201411122353 METAR KPAE 122353Z 21003KT 10SM CLR 04/M11 A3018 RMK AO2 SLP225 T00441111 10044 20017 56017=
201411122253 METAR KPAE 122253Z 23005KT 10SM CLR 04/M12 A3019 RMK AO2 SLP229 T00441122=
201411122153 METAR KPAE 122153Z 26005KT 10SM CLR 04/M12 A3021 RMK AO2 SLP235 T00441122=
201411122053 METAR KPAE 122053Z 22003KT 10SM CLR 04/M16 A3023 RMK AO2 SLP242 T00441156 58024=
201411121953 METAR KPAE 121953Z 21003KT 10SM CLR 03/M16 A3026 RMK AO2 SLP253 T00331156=
201411121853 METAR KPAE 121853Z 25003KT 10SM CLR 03/M14 A3029 RMK AO2 SLP263 T00281144=
201411121753 METAR KPAE 121753Z 19003KT 10SM CLR 02/M17 A3030 RMK AO2 SLP267 T00221172 10022 20000 58004=
201411121653 METAR KPAE 121653Z 00000KT 10SM CLR 01/M16 A3031 RMK AO2 SLP271 T00111156=
201411121553 METAR KPAE 121553Z 11004KT 10SM CLR 00/M16 A3031 RMK AO2 SLP270 T00001161=
201411121453 METAR KPAE 121453Z 11007KT 10SM CLR 00/M17 A3031 RMK AO2 SLP271 T00001167 57003=
201411121353 METAR KPAE 121353Z AUTO 10006KT 10SM CLR 00/M17 A3032 RMK AO2 SLP272 T00001167=
201411121253 METAR KPAE 121253Z AUTO 11006KT 10SM CLR 01/M17 A3032 RMK AO2 SLP273 T00061167=
201411121153 METAR KPAE 121153Z AUTO 11008KT 10SM CLR 01/M17 A3032 RMK AO2 SLP273 T00061172 10017 20006 58006=
201411121053 METAR KPAE 121053Z AUTO 10010KT 10SM CLR 01/M17 A3033 RMK AO2 SLP277 T00111172=
201411120953 METAR KPAE 120953Z AUTO 11010G19KT 10SM CLR 01/M17 A3034 RMK AO2 SLP278 T00111172=
201411120853 METAR KPAE 120853Z AUTO 10012G19KT 10SM CLR 01/M17 A3034 RMK AO2 SLP280 T00111172 50002=
201411120753 METAR KPAE 120753Z AUTO 10011G19KT 10SM CLR 02/M17 A3035 RMK AO2 SLP282 T00171172 400610011=
201411120653 METAR KPAE 120653Z AUTO 10010G19KT 10SM CLR 02/M17 A3034 RMK AO2 SLP280 T00171172=
201411120553 METAR KPAE 120553Z AUTO 10013G23KT 10SM CLR 02/M17 A3033 RMK AO2 PK WND 10026/0516 SLP277 T00171167 10044 20017 53002=
201411120453 METAR KPAE 120453Z AUTO 10015G21KT 10SM CLR 02/M17 A3033 RMK AO2 SLP274 T00171167=
201411120353 METAR KPAE 120353Z 11011G17KT 10SM CLR 02/M17 A3033 RMK AO2 SLP277 T00221167=
201411120253 METAR KPAE 120253Z 09009KT 10SM CLR 02/M17 A3033 RMK AO2 SLP275 T00221167 53005=
201411120153 METAR KPAE 120153Z 10009KT 10SM CLR 03/M16 A3032 RMK AO2 SLP272 T00281156=
201411120053 METAR KPAE 120053Z 09010G18KT 10SM CLR 03/M14 A3031 RMK AO2 SLP268 T00331144=
201411112353 METAR KPAE 112353Z 10012G19KT 10SM CLR 04/M13 A3031 RMK AO2 SLP270 T00441128 10061 20044 50003=
201411112253 METAR KPAE 112253Z 10015G23KT 10SM CLR 06/M12 A3031 RMK AO2 PK WND 09026/2228 SLP269 T00561117=
201411112153 METAR KPAE 112153Z 10015G25KT 10SM CLR 06/M12 A3031 RMK AO2 PK WND 08026/2059 SLP269 T00561117=
201411112053 METAR KPAE 112053Z 10015G23KT 10SM CLR 06/M10 A3030 RMK AO2 SLP266 T00611100 50007=
201411111953 METAR KPAE 111953Z 11013G25KT 10SM CLR 06/M09 A3031 RMK AO2 PK WND 09026/1942 SLP268 T00611094=
201411111853 METAR KPAE 111853Z 11017G27KT 10SM CLR 06/M08 A3030 RMK AO2 PK WND 10031/1801 SLP265 T00611083=
201411111753 METAR KPAE 111753Z 11018G28KT 10SM CLR 06/M08 A3028 RMK AO2 PK WND 12030/1706 SLP259 T00611078 10061 20033 53020=
201411111653 METAR KPAE 111653Z 10013G20KT 10SM CLR 06/M07 A3026 RMK AO2 SLP252 T00561067=
201411111553 METAR KPAE 111553Z 10011G18KT 10SM CLR 05/M06 A3024 RMK AO2 SLP242 T00501061=
201411111453 METAR KPAE 111453Z 10007KT 10SM CLR 04/M06 A3022 RMK AO2 SLP238 T00441061 53010=
201411111353 METAR KPAE 111353Z AUTO VRB05KT 10SM CLR 05/M05 A3021 RMK AO2 SLP232 T00501050=
201411111253 METAR KPAE 111253Z AUTO 04005KT 10SM CLR 03/M04 A3020 RMK AO2 SLP230 T00331044=
201411111153 METAR KPAE 111153Z AUTO 04006KT 10SM CLR 03/M02 A3019 RMK AO2 SLP227 T00331022 10050 20022 53005=
201411111053 METAR KPAE 111053Z AUTO 03005KT 10SM FEW060 03/M03 A3019 RMK AO2 SLP225 T00331028=
201411110953 METAR KPAE 110953Z AUTO 04005KT 10SM OVC055 03/00 A3018 RMK AO2 SLP222 T00330000=
201411110853 METAR KPAE 110853Z AUTO 03004KT 10SM CLR 03/M01 A3018 RMK AO2 SLP223 T00281006 53002=
201411110753 METAR KPAE 110753Z AUTO 04004KT 10SM CLR 04/M01 A3017=
201411110653 METAR KPAE 110653Z AUTO 03005KT 10SM CLR 04/M02 A3017 RMK AO2 SLP219 T00441017=
201411110553 METAR KPAE 110553Z AUTO 02007KT 10SM CLR 04/M01 A3017 RMK AO2 SLP220 T00441011 10089 20033 53004=
201411110453 METAR KPAE 110453Z 00000KT 10SM CLR 05/01 A3016 RMK AO2 SLP219 T00500011=
201411110353 METAR KPAE 110353Z 00000KT 10SM CLR 07/02 A3015 RMK AO2 SLP214 T00670022=
201411110253 METAR KPAE 110253Z 35006KT 10SM CLR 06/01 A3016 RMK AO2 SLP216 T00610006 58006=
201411110153 METAR KPAE 110153Z 34003KT 10SM CLR 07/01 A3017 RMK AO2 SLP220 T00670011=
201411110053 METAR KPAE 110053Z 34004KT 10SM CLR 07/01 A3018 RMK AO2 SLP221 T00720011=
201411102353 METAR KPAE 102353Z 34005KT 10SM CLR 09/02 A3018=
201411102253 METAR KPAE 102253Z 35005KT 10SM CLR 09/02 A3018 RMK AO2 SLP222 T00940022=
201411102153 METAR KPAE 102153Z 01004KT 10SM CLR 09/04 A3019 RMK AO2 SLP225 T00890039=
201411102053 METAR KPAE 102053Z 03006KT 10SM CLR 08/04 A3020 RMK AO2 SLP228 T00830044 50003=
201411101953 METAR KPAE 101953Z VRB03KT 10SM CLR 08/04 A3021 RMK AO2 SLP232 T00780039=
201411101853 METAR KPAE 101853Z 03005KT 10SM CLR 08/04 A3020 RMK AO2 SLP227 T00780039=
201411101753 METAR KPAE 101753Z VRB05KT 10SM SCT005 07/03 A3019=
201411101742 SPECI KPAE 101742Z 03006KT 10SM SCT005 07/04 A3019 RMK AO2 T00670044=
201411101653 METAR KPAE 101653Z 03005KT 7SM BKN003 OVC009 06/04 A3019 RMK AO2 SLP227 T00610044=
201411101553 METAR KPAE 101553Z 03005KT 10SM SCT004 06/04 A3018 RMK AO2 SLP224 T00560044=
201411101453 METAR KPAE 101453Z 36006KT 9SM OVC003 06/05 A3018 RMK AO2 CIG 001V006 SLP222 T00610050 51018=
201411101402 SPECI KPAE 101402Z AUTO 35008KT 4SM R16R/3500VP6000FT BR OVC001 07/06 A3016 RMK AO2 T00670056 TSNO=
201411101353 METAR KPAE 101353Z AUTO 01007KT 4SM R16R/5500VP6000FT BR OVC002 07/06 A3016 RMK AO2 SLP217 T00670056 TSNO=
201411101318 SPECI KPAE 101318Z AUTO 01007KT 6SM BR BKN003 OVC010 07/06 A3015 RMK AO2 T00670056 TSNO=
201411101304 SPECI KPAE 101304Z AUTO 35005KT 4SM BR OVC001 07/06 A3015 RMK AO2 T00670061 TSNO=
201411101253 METAR KPAE 101253Z AUTO 36005KT 3SM BR OVC002 07/06 A3015 RMK AO2 SLP213 T00670061 TSNO=
201411101210 SPECI KPAE 101210Z AUTO 35006KT 7SM BKN004 OVC009 07/06 A3013 RMK AO2 CIG 002V006 T00720061 TSNO=
201411101153 METAR KPAE 101153Z AUTO 35004KT 7SM BKN005 OVC016 08/06 A3012 RMK AO2 CIG 002V009 SLP203 70040 T00780061 10089 20078 51019 TSNO=
201411101136 SPECI KPAE 101136Z AUTO 01005KT 8SM BKN005 BKN010 OVC016 08/07 A3012 RMK AO2 CIG 003V008 T00780067 TSNO=
201411101112 SPECI KPAE 101112Z AUTO 02004KT 10SM FEW005 OVC017 08/07 A3012 RMK AO2 T00780067 TSNO=
201411101053 METAR KPAE 101053Z AUTO 01004KT 10SM OVC017 08/06 A3012 RMK AO2 SLP200 T00830061 TSNO=
201411100953 METAR KPAE 100953Z AUTO 33004KT 10SM FEW011 BKN023 BKN029 08/07 A3010 RMK AO2 SLP196 T00780067 TSNO=
201411100853 METAR KPAE 100853Z AUTO 34004KT 10SM OVC024 08/07 A3007 RMK AO2 SLP183 T00830067 53022 TSNO=
201411100834 SPECI KPAE 100834Z AUTO 33007KT 10SM SCT011 BKN019 OVC026 09/07 A3006 RMK AO2 T00890067 TSNO=
201411100827 SPECI KPAE 100827Z AUTO 32005KT 10SM BKN011 BKN019 OVC026 09/07 A3006 RMK AO2 T00890072 TSNO=
201411100809 SPECI KPAE 100809Z AUTO 33005KT 10SM FEW011 BKN018 OVC026 09/07 A3004 RMK AO2 T00890067 TSNO=
201411100753 METAR KPAE 100753Z AUTO VRB05KT 10SM BKN013 BKN020 OVC026 09/07 A3004 RMK AO2 SLP174 T00890067 401000078 TSNO=
201411100653 METAR KPAE 100653Z AUTO 31003KT 10SM OVC017 09/07 A3002 RMK AO2 SLP168 T00890067 TSNO=
201411100609 SPECI KPAE 100609Z AUTO VRB03KT 10SM BKN018 OVC030 09/06 A3000 RMK AO2 T00890061 TSNO=
201411100553 METAR KPAE 100553Z AUTO 33004KT 10SM SCT029 08/06 A3000 RMK AO2 SLP160 60005 T00830061 10094 20078 53022 TSNO=
201411100509 SPECI KPAE 100509Z AUTO 32008KT 10SM BKN030 09/06 A2997 RMK AO2 T00890061 TSNO=
201411100453 METAR KPAE 100453Z AUTO 32005KT 10SM OVC029 09/06 A2997 RMK AO2 SLP150 T00890061 TSNO=
201411100353 METAR KPAE 100353Z 36004KT 10SM BKN028 09/06 A2995 RMK AO2 SLP143 T00890061=
201411100253 METAR KPAE 100253Z 33005KT 10SM SCT029 08/06 A2993 RMK AO2 SLP137 60005 T00830061 51016=
201411100153 METAR KPAE 100153Z 34005KT 10SM FEW027 SCT065 08/07 A2992 RMK AO2 RAE07 SLP132 P0000 T00830067=
201411100053 METAR KPAE 100053Z 03006KT 10SM -RA OVC044 09/07 A2990 RMK AO2 SLP127 P0005 T00890072=
201411092353 METAR KPAE 092353Z VRB03KT 10SM -RA OVC033 09/07 A2989 RMK AO2 SLP122 P0003 60021 T00940072 10100 20083 53012=
201411092253 METAR KPAE 092253Z 33003KT 7SM -RA FEW024 SCT036 OVC043 09/08 A2988 RMK AO2 RAB2156E05B14 SLP118 P0004 T00940078=
201411092153 METAR KPAE 092153Z VRB04KT 10SM FEW009 OVC060 10/08 A2986 RMK AO2 RAE05 SLP112 P0000 T01000083=
201411092129 SPECI KPAE 092129Z 29004KT 10SM SCT009 BKN055 OVC070 09/08 A2986 RMK AO2 RAE05 P0000 T00940083=
201411092057 SPECI KPAE 092057Z 29006KT 7SM -RA FEW004 BKN009 OVC033 09/08 A2985 RMK AO2 P0000 T00940083=
201411092055 SPECI KPAE 092055Z 30005KT 6SM -RA BR SCT007 BKN015 OVC050 09/08 A2985 RMK AO2 P0000 T00940083=
201411092053 METAR KPAE 092053Z VRB04KT 5SM -RA BR FEW005 BKN009 OVC033 09/08 A2985 RMK AO2 SLP110 P0010 60014 T00940083 53005=
201411092001 SPECI KPAE 092001Z VRB04KT 2SM -RA BR BKN008 OVC033 10/08 A2985 RMK AO2 P0001 T01000083=
201411091957 SPECI KPAE 091957Z 28004KT 2 1/2SM -RA BR FEW008 BKN014 OVC040 10/08 A2985 RMK AO2 P0001 T01000083=
201411091953 METAR KPAE 091953Z 25005KT 2SM RA BR BKN006 OVC030 10/08 A2985 RMK AO2 RAB21 SLP108 P0004 T01000083=
201411091931 SPECI KPAE 091931Z 18006KT 2 1/2SM -RA BR FEW017 BKN038 OVC049 10/08 A2983 RMK AO2 RAB21 P0001 T01000083=
201411091928 SPECI KPAE 091928Z 19006KT 4SM -RA BR FEW020 BKN026 OVC049 10/08 A2984 RMK AO2 RAB21 P0000 T01000083=
201411091920 SPECI KPAE 091920Z 18007KT 9SM FEW022 BKN048 OVC070 09/08 A2983 RMK AO2 T00940083=
201411091853 METAR KPAE 091853Z 17007KT 10SM FEW006 BKN027 OVC060 09/08 A2983 RMK AO2 RAE21 SLP103 P0000 T00890078=
201411091844 SPECI KPAE 091844Z 18010KT 10SM SCT008 BKN027 OVC048 09/07 A2983 RMK AO2 RAE21 P0000 T00890072=
201411091809 SPECI KPAE 091809Z 20006KT 2SM -RA BR OVC006 08/07 A2983 RMK AO2 CIG 004V008 P0000 T00830072=
201411091753 METAR KPAE 091753Z 21008KT 3SM -RA BR OVC006 08/07 A2984 RMK AO2 RAB37 SLP105 P0001 60014 T00830072 10083 20083 55002=
201411091653 METAR KPAE 091653Z 18009KT 10SM OVC007 08/07 A2983 RMK AO2 RAE18 CIG 006V011 SLP101 P0000 T00830067=
201411091553 METAR KPAE 091553Z 16016G22KT 7SM -RA BKN006 OVC012 08/06 A2984 RMK AO2 SLP106 P0003 T00830061=
201411091453 METAR KPAE 091453Z 15016G23KT 7SM -RA OVC014 08/07 A2984 RMK AO2 SLP106 P0005 60010 T00830067 56033=
201411091438 SPECI KPAE 091438Z AUTO 16013KT 7SM -RA OVC014 08/07 A2985 RMK AO2 P0004 T00830072 TSNO=
201411091404 SPECI KPAE 091404Z AUTO 16015KT 8SM -RA BKN017 BKN024 OVC065 08/07 A2986 RMK AO2 P0001 T00830067 TSNO=
201411091353 METAR KPAE 091353Z AUTO 15014G22KT 7SM -RA FEW017 SCT025 OVC065 08/07 A2986 RMK AO2 SLP112 P0003 T00830067 TSNO=
201411091253 METAR KPAE 091253Z AUTO 15013G22KT 10SM -RA OVC070 08/06 A2988 RMK AO2 SLP121 P0002 T00830061 TSNO=
201411091153 METAR KPAE 091153Z AUTO 16008KT 10SM -RA OVC070 08/06 A2994 RMK AO2 SLP140 P0001 60002 70002 T00830061 10089 20078 58030 TSNO=
201411091053 METAR KPAE 091053Z AUTO 17008KT 10SM -RA OVC085 08/07 A2996 RMK AO2 RAB01 SLP146 P0001 T00830067 TSNO=
201411090953 METAR KPAE 090953Z AUTO 00000KT 10SM OVC090 08/06 A3002 RMK AO2 SLP168 T00830061 TSNO=
201411090853 METAR KPAE 090853Z AUTO 15006KT 10SM BKN100 08/06 A3003 RMK AO2 SLP171 T00830056 56024 TSNO=
201411090753 METAR KPAE 090753Z AUTO VRB03KT 10SM OVC100 08/06 A3006 RMK AO2 SLP180 T00830056 401060039 TSNO=
201411090653 METAR KPAE 090653Z AUTO VRB03KT 10SM BKN120 08/06 A3005 RMK AO2 SLP178 T00830056 TSNO=
201411090553 METAR KPAE 090553Z AUTO 34003KT 10SM FEW120 08/06 A3010 RMK AO2 SLP196 T00780056 10094 20072 55006 TSNO=
201411090453 METAR KPAE 090453Z 35003KT 10SM CLR 08/05 A3010 RMK AO2 SLP194 T00830050=
201411090353 METAR KPAE 090353Z 00000KT 10SM CLR 08/06 A3009 RMK AO2 PRESFR SLP193 T00830056=
201411090253 METAR KPAE 090253Z 00000KT 10SM CLR 08/05 A3012 RMK AO2 SLP203 T00830050 56017=
201411090153 METAR KPAE 090153Z 00000KT 10SM CLR 08/06 A3014 RMK AO2 SLP209 T00830056=
201411090053 METAR KPAE 090053Z 00000KT 10SM CLR 09/05 A3015 RMK AO2 SLP212 T00890050=
201411082353 METAR KPAE 082353Z 00000KT 10SM CLR 09/05 A3017 RMK AO2 SLP220 T00940050 10106 20089 56020=
201411082253 METAR KPAE 082253Z 33003KT 10SM CLR 09/05 A3020 RMK AO2 SLP228 T00940050=
201411082153 METAR KPAE 082153Z 35003KT 10SM CLR 10/06 A3020 RMK AO2 SLP231 T01000056=
201411082053 METAR KPAE 082053Z 29003KT 10SM CLR 10/06 A3023 RMK AO2 SLP240 T01000056 56024=
201411081953 METAR KPAE 081953Z 30005KT 10SM CLR 09/05 A3026 RMK AO2 SLP249 T00940050=
201411081853 METAR KPAE 081853Z 10003KT 10SM CLR 09/04 A3027 RMK AO2 SLP252 T00940044=
201411081753 METAR KPAE 081753Z VRB03KT 10SM CLR 09/05 A3031 RMK AO2 SLP264 T00890050 10089 20039 58002=
201411081653 METAR KPAE 081653Z 06003KT 10SM CLR 07/04 A3032 RMK AO2 SLP271 T00720044=
201411081553 METAR KPAE 081553Z 02004KT 10SM CLR 06/04 A3032 RMK AO2 SLP271 T00560039=
201411081453 METAR KPAE 081453Z AUTO 00000KT 10SM CLR 05/04 A3031 RMK AO2 SLP267 T00500039 58005=
201411081353 METAR KPAE 081353Z AUTO 02004KT 10SM CLR 05/03 A3032 RMK AO2 SLP271 T00500033=
201411081253 METAR KPAE 081253Z AUTO 00000KT 10SM CLR 05/04 A3031 RMK AO2 SLP268 T00500039 TSNO=
201411081153 METAR KPAE 081153Z AUTO 03003KT 10SM CLR 06/04 A3033 RMK AO2 SLP271 T00560039 10072 20050 58018=
201411081053 METAR KPAE 081053Z AUTO 00000KT 9SM CLR 06/04 A3035 RMK AO2 SLP280 T00560039=
201411080953 METAR KPAE 080953Z AUTO 00000KT 10SM CLR 06/04 A3037 RMK AO2 SLP288 T00560039=
201411080853 METAR KPAE 080853Z AUTO 00000KT 10SM CLR 07/04 A3038 RMK AO2 SLP289 T00670044 56007=
201411080753 METAR KPAE 080753Z AUTO 00000KT 10SM CLR 06/04 A3039 RMK AO2 SLP292 T00610044 401280061=
201411080653 METAR KPAE 080653Z AUTO 05004KT 10SM CLR 07/05 A3039 RMK AO2 SLP293 T00670050=
201411080553 METAR KPAE 080553Z AUTO 01004KT 10SM CLR 07/06 A3040 RMK AO2 SLP297 T00720056 10117 20061 55002=
201411080453 METAR KPAE 080453Z 00000KT 10SM CLR 07/04 A3040 RMK AO2 SLP295 T00720044=
201411080353 METAR KPAE 080353Z 00000KT 10SM CLR 08/04 A3039 RMK AO2 SLP294 T00780044=
201411080253 METAR KPAE 080253Z 00000KT 10SM CLR 09/05 A3041 RMK AO2 SLP298 T00940050 58006=
201411080153 METAR KPAE 080153Z 36003KT 10SM CLR 08/04 A3042 RMK AO2 SLP303 T00830044=
201411080053 METAR KPAE 080053Z 34004KT 10SM CLR 10/05 A3043 RMK AO2 SLP306 T01000050=
201411072353 METAR KPAE 072353Z 35005KT 10SM CLR 12/04 A3042 RMK AO2 SLP303 T01170044 10128 20111 56012=
201411072253 METAR KPAE 072253Z 31006KT 10SM CLR 12/03 A3043 RMK AO2 SLP306 T01220033=
201411072153 METAR KPAE 072153Z VRB04KT 10SM CLR 12/06 A3045 RMK AO2 SLP311 T01220056=
201411072053 METAR KPAE 072053Z VRB04KT 10SM CLR 12/06 A3046 RMK AO2 SLP315 T01220056 58010=
201411071953 METAR KPAE 071953Z VRB04KT 10SM CLR 12/08 A3048 RMK AO2 SLP323 T01170078=
201411071853 METAR KPAE 071853Z VRB04KT 10SM FEW027 13/05 A3048 RMK AO2 SLP322 T01280050=
201411071753 METAR KPAE 071753Z 18004KT 10SM CLR 11/07 A3049 RMK AO2 SLP325 T01110067 10111 20089 51018=
201411071653 METAR KPAE 071653Z 16005KT 10SM CLR 10/07 A3048 RMK AO2 SLP321 T01000067=
201411071553 METAR KPAE 071553Z 00000KT 10SM SCT055 09/07 A3046 RMK AO2 SLP315 T00940072=
201411071453 METAR KPAE 071453Z VRB03KT 10SM OVC055 09/07 A3043 RMK AO2 SLP307 T00940072 53024=
201411071353 METAR KPAE 071353Z AUTO 00000KT 10SM BKN055 09/07 A3041 RMK AO2 SLP298 T00940072=
201411071253 METAR KPAE 071253Z AUTO 00000KT 10SM OVC055 09/07 A3038 RMK AO2 SLP289 T00890072=
201411071153 METAR KPAE 071153Z AUTO 11005KT 10SM SCT050 09/07 A3036 RMK AO2 SLP282 60000 70028 T00940072 10106 20094 51016=
201411071053 METAR KPAE 071053Z AUTO 11005KT 10SM OVC050 10/07 A3035 RMK AO2 SLP279 T01000072=
201411070953 METAR KPAE 070953Z AUTO 11004KT 10SM OVC047 10/08 A3033 RMK AO2 SLP273 T01000078=
201411070853 METAR KPAE 070853Z AUTO 12003KT 10SM OVC040 10/08 A3031 RMK AO2 RAB10E19 SLP266 P0000 60000 T01000078 51025=
201411070825 SPECI KPAE 070825Z AUTO VRB03KT 10SM FEW021 OVC031 10/07 A3031 RMK AO2 RAB10E19 P0000 T01000072=
201411070753 METAR KPAE 070753Z AUTO 00000KT 10SM OVC021 11/07 A3030 RMK AO2 SLP261 T01060072 401500100=
201411070700 SPECI KPAE 070700Z AUTO 12003KT 10SM BKN025 OVC039 11/07 A3028 RMK AO2 T01060072=
201411070653 METAR KPAE 070653Z AUTO VRB03KT 10SM SCT024 OVC039 11/07 A3028 RMK AO2 SLP252 T01060072=
201411070628 SPECI KPAE 070628Z AUTO 18007KT 10SM SCT027 OVC041 10/07 A3026 RMK AO2 T01000072=
201411070616 SPECI KPAE 070616Z AUTO 17005KT 10SM BKN027 BKN050 OVC090 11/07 A3025 RMK AO2 T01060072=
201411070553 METAR KPAE 070553Z AUTO 18009KT 10SM FEW050 FEW060 BKN090 10/08 A3024 RMK AO2 SLP241 60004 T01000078 10128 20100 53038=
201411070453 METAR KPAE 070453Z 18007KT 10SM SCT044 SCT060 11/08 A3019 RMK AO2 SLP225 T01060078=
201411070353 METAR KPAE 070353Z 18008KT 10SM BKN019 OVC035 11/09 A3015 RMK AO2 RAE43 SLP211 P0003 T01110089=
201411070317 SPECI KPAE 070317Z 19009KT 7SM -RA BKN019 BKN034 OVC060 11/09 A3015 RMK AO2 P0002 T01110089=
201411070253 METAR KPAE 070253Z 19012KT 10SM -RA FEW018 BKN034 OVC060 11/08 A3012 RMK AO2 SLP201 P0001 60001 T01110083 51064=
201411070153 METAR KPAE 070153Z 21017G26KT 10SM -RA BKN065 OVC080 12/08 A3007 RMK AO2 PK WND 20028/0104 RAB45 SLP183 P0000 T01170083=
201411070053 METAR KPAE 070053Z 20020G28KT 10SM FEW021 BKN070 OVC090 12/08 A3001 RMK AO2 PK WND 18039/0006 PRESRR SLP161 T01220083=
201411062353 METAR KPAE 062353Z 18025G36KT 10SM FEW021 SCT100 13/09 A2993 RMK AO2 PK WND 20044/2302 SLP135 60003 T01280089 10150 20128 53024=
201411062253 METAR KPAE 062253Z 19030G40KT 10SM SCT019 13/09 A2989 RMK AO2 PK WND 18044/2227 SLP121 T01330094=
201411062153 METAR KPAE 062153Z 18022G33KT 10SM BKN017 BKN060 14/11 A2988 RMK AO2 PK WND 18042/2054 SLP119 T01390106=
201411062053 METAR KPAE 062053Z 19032G43KT 10SM FEW019 SCT055 BKN070 14/11 A2986 RMK AO2 PK WND 19043/2052 RAB04E36 SLP111 P0003 60003 T01390106 50002=
201411062021 SPECI KPAE 062021Z 19023G33KT 10SM -RA SCT025 BKN032 OVC046 14/11 A2987 RMK AO2 PK WND 18036/1959 RAB04 P0003 T01390106=
201411062014 SPECI KPAE 062014Z 20023G35KT 2 1/2SM -RA SCT025 BKN032 OVC046 14/11 A2986 RMK AO2 PK WND 18036/1959 RAB04 P0003 T01390106=
201411061953 METAR KPAE 061953Z 18023G33KT 10SM SCT025 BKN032 OVC046 14/10 A2986 RMK AO2 PK WND 20035/1934 SLP112 T01440100=
201411061853 METAR KPAE 061853Z 17018G28KT 10SM FEW021 BKN026 OVC035 14/11 A2986 RMK AO2 PK WND 17031/1834 SLP110 T01440111=
201411061753 METAR KPAE 061753Z 17014G29KT 10SM SCT016 BKN024 OVC035 14/12 A2985 RMK AO2 PK WND 16029/1747 RAE03 SLP108 P0000 60021 T01440117 10144 20128 51030=
201411061653 METAR KPAE 061653Z 16017G26KT 9SM -RA SCT009 OVC060 13/11 A2983 RMK AO2 PK WND 19034/1603 SLP101 P0016 T01330111=
201411061627 SPECI KPAE 061627Z 19021G34KT 5SM -RA SCT009 OVC060 13/11 A2984 RMK AO2 PK WND 19034/1603 P0013 T01330106=
201411061616 SPECI KPAE 061616Z 19023G30KT 4SM -RA BKN005 BKN070 OVC100 13/11 A2984 RMK AO2 PK WND 19034/1603 P0011 T01330106=
201411061600 SPECI KPAE 061600Z 20025G34KT 2 1/2SM +RA BR BKN005 BKN070 OVC100 13/12 A2984 RMK AO2 PK WND 20034/1600 P0006 T01330122=
201411061553 METAR KPAE 061553Z 20016KT 4SM RA BR SCT055 BKN070 OVC100 13/12 A2983 RMK AO2 RAB39 PRESRR SLP101 P0003 T01330122=
201411061453 METAR KPAE 061453Z AUTO 16016G23KT 10SM FEW034 BKN075 14/12 A2976 RMK AO2 RAE51 SLP077 P0002 60002 T01390117 58031=
201411061353 METAR KPAE 061353Z AUTO VRB04KT 10SM -RA FEW006 BKN050 BKN070 13/12 A2980 RMK AO2 RAB49 SLP092 P0000 T01330117=
201411061330 SPECI KPAE 061330Z AUTO 20006KT 10SM FEW007 OVC050 13/12 A2983 RMK AO2 T01330117=
201411061253 METAR KPAE 061253Z AUTO 15011KT 10SM BKN055 OVC075 13/12 A2983 RMK AO2 SLP100 T01330117=
201411061153 METAR KPAE 061153Z AUTO 15008KT 10SM BKN055 OVC070 13/12 A2986 RMK AO2 SLP109 60018 70022 T01330117 10139 20122 58030=
201411061053 METAR KPAE 061053Z AUTO VRB04KT 10SM FEW045 OVC055 13/12 A2989 RMK AO2 RAE16 SLP121 P0001 T01330117=
201411060953 METAR KPAE 060953Z AUTO 12006KT 10SM -RA OVC046 12/11 A2993 RMK AO2 SLP134 P0002 T01220111=
201411060853 METAR KPAE 060853Z AUTO 12007KT 10SM -RA BKN060 OVC090 13/12 A2995 RMK AO2 SLP140 P0006 60015 T01280117 58024=
201411060753 METAR KPAE 060753Z AUTO 16004KT 7SM -RA SCT034 OVC041 13/12 A2997 RMK AO2 SLP150 P0003 T01330122 401390100=
201411060653 METAR KPAE 060653Z AUTO 15009G15KT 130V200 5SM -RA BR BKN055 OVC070 13/12 A3000 RMK AO2 SLP158 P0006 T01330117=
201411060553 METAR KPAE 060553Z AUTO 16009KT 10SM -RA OVC038 13/12 A3002 RMK AO2 SLP165 P0000 60004 T01330117 10133 20128 56009=
201411060453 METAR KPAE 060453Z AUTO 15006KT 10SM -RA FEW033 SCT060 OVC090 13/12 A3002 RMK AO2 RAB27 SLP166 P0001 T01330117=
201411060353 METAR KPAE 060353Z VRB04KT 10SM FEW003 OVC031 13/12 A3004 RMK AO2 SLP172 T01280117=
201411060253 METAR KPAE 060253Z 12007KT 10SM FEW003 SCT024 OVC033 13/12 A3005 RMK AO2 SLP176 60003 T01280117 58015=
201411060229 SPECI KPAE 060229Z 12006KT 10SM SCT003 OVC022 13/12 A3006 RMK AO2 T01330122=
201411060153 METAR KPAE 060153Z 15006KT 2SM BR BKN003 BKN031 OVC070 13/12 A3006 RMK AO2 RAE37 SLP181 P0003 T01330122=
201411060140 SPECI KPAE 060140Z 14005KT 2SM BR BKN006 OVC031 13/12 A3006 RMK AO2 RAE37 P0003 T01330122=
201411060053 METAR KPAE 060053Z 16008KT 8SM -RA BKN025 BKN032 OVC080 13/12 A3009 RMK AO2 RAB02E24B47 SLP189 P0000 T01330117=
201411060022 SPECI KPAE 060022Z 15007KT 10SM -RA SCT027 BKN032 OVC090 13/11 A3008 RMK AO2 RAB02 P0000 T01330111=
201411052353 METAR KPAE 052353Z VRB05KT 10SM OVC028 13/11 A3009 RMK AO2 RAB28E39 SLP191 P0000 60000 T01330106 10139 20122 56020=
201411052253 METAR KPAE 052253Z VRB06KT 10SM OVC028 13/10 A3011 RMK AO2 RAB05E16 SLP196 P0000 T01330100=
201411052153 METAR KPAE 052153Z 16007KT 10SM BKN028 OVC033 13/09 A3014 RMK AO2 RAB35E46 SLP207 P0000 T01330094=
201411052139 SPECI KPAE 052139Z 13004KT 10SM -RA OVC030 13/09 A3013 RMK AO2 RAB35 P0000 T01330094=
201411052053 METAR KPAE 052053Z VRB04KT 10SM OVC029 13/09 A3015 RMK AO2 SLP212 T01330089 56013=
201411052012 SPECI KPAE 052012Z 12007KT 100V170 10SM OVC028 13/08 A3016 RMK AO2 T01280083=
201411051953 METAR KPAE 051953Z VRB04KT 10SM BKN030 OVC035 13/08 A3017 RMK AO2 SLP217 T01280083=
201411051853 METAR KPAE 051853Z 12008KT 110V170 10SM OVC031 13/09 A3018 RMK AO2 SLP221 T01280089=
201411051753 METAR KPAE 051753Z VRB06KT 10SM OVC031 12/08 A3020 RMK AO2 SLP226 T01220078 10122 20106 58010=
201411051653 METAR KPAE 051653Z VRB05KT 10SM OVC031 11/08 A3021 RMK AO2 SLP232 T01110083=
201411051553 METAR KPAE 051553Z 11007KT 10SM OVC039 11/08 A3022 RMK AO2 SLP233 T01060083=
201411051453 METAR KPAE 051453Z 12007KT 10SM OVC055 11/09 A3022 RMK AO2 SLP236 T01060089 58018=
201411051353 METAR KPAE 051353Z AUTO 13004KT 10SM OVC065 11/09 A3025 RMK AO2 SLP245 T01060089=
201411051253 METAR KPAE 051253Z AUTO VRB03KT 10SM OVC085 11/09 A3026 RMK AO2 SLP249 T01060089=
201411051216 SPECI KPAE 051216Z AUTO 15007KT 10SM SCT012 OVC090 11/09 A3027 RMK AO2 T01060089=
201411051200 SPECI KPAE 051200Z AUTO 15007KT 10SM BKN012 OVC090 11/09 A3027 RMK AO2 T01060089=
201411051153 METAR KPAE 051153Z AUTO 15007KT 10SM SCT012 OVC090 11/09 A3028 RMK AO2 SLP254 70016 T01060089 10111 20100 53002=
201411051127 SPECI KPAE 051127Z AUTO 16007KT 10SM OVC014 11/09 A3027 RMK AO2 T01060089=
201411051053 METAR KPAE 051053Z AUTO 15006KT 10SM FEW009 OVC017 11/09 A3026 RMK AO2 SLP250 T01060089=
201411051049 SPECI KPAE 051049Z AUTO 15006KT 10SM SCT009 OVC017 11/09 A3027 RMK AO2=
201411051040 SPECI KPAE 051040Z AUTO 15006KT 10SM BKN009 OVC017 11/09 A3027 RMK AO2 CIG 006V011 T01060089=
201411051023 SPECI KPAE 051023Z AUTO 15007KT 10SM BKN010 OVC019 11/09 A3027 RMK AO2 CIG 006V013 T01060089=
201411050953 METAR KPAE 050953Z AUTO 15006KT 10SM BKN018 BKN120 11/09 A3027 RMK AO2 SLP252 T01060089=
201411050853 METAR KPAE 050853Z AUTO VRB05KT 10SM CLR 11/08 A3028 RMK AO2 SLP254 T01060083 50002=
201411050753 METAR KPAE 050753Z AUTO 11005KT 10SM BKN036 OVC044 11/08 A3028 RMK AO2 SLP256 T01060083 401220106=
201411050653 METAR KPAE 050653Z AUTO 11004KT 10SM OVC034 11/08 A3028 RMK AO2 SLP255 T01060078=
201411050553 METAR KPAE 050553Z AUTO 11006KT 10SM BKN034 11/09 A3027 RMK AO2 SLP252 60003 T01060089 10117 20106 51008=
201411050453 METAR KPAE 050453Z AUTO 11004KT 10SM OVC033 11/08 A3027 RMK AO2 SLP252 T01060083=
201411050353 METAR KPAE 050353Z 08005KT 10SM OVC032 11/08 A3027 RMK AO2 RAB20E47 SLP250 P0000 T01060083=
201411050253 METAR KPAE 050253Z 00000KT 10SM OVC032 11/08 A3025 RMK AO2 SLP244 60003 T01110078 51011=
201411050153 METAR KPAE 050153Z 11005KT 10SM OVC032 11/08 A3024 RMK AO2 SLP241 T01110083=
201411050053 METAR KPAE 050053Z 00000KT 10SM OVC033 11/08 A3023 RMK AO2 RAB21E45 SLP239 P0003 T01110083=
201411050000 METAR KPAE NIL=
201411042353 METAR KPAE 042353Z AUTO VRB05KT 10SM OVC040 12/08 A3021 RMK AO2 RAB2258E20 SLP232 P0000 60012 T01170078 10122 20117 51024 TSNO=
201411042253 METAR KPAE 042253Z 03006KT 10SM OVC042 12/07 A3019 RMK AO2 RAB17E29 SLP223 P0000 T01220072=
201411042153 METAR KPAE 042153Z 00000KT 8SM OVC044 12/08 A3019 RMK AO2 SLP222 P0001 T01170083=
201411042053 METAR KPAE 042053Z 10SM OVC043 12/09 A3014 RMK AO2 RAE08B26E51 SLP208 P0000 60011 T01220089 51024=
201411041953 METAR KPAE 041953Z 29004KT 10SM -RA FEW009 FEW018 OVC036 12/10 A3012 RMK AO2 RAE09B35 SLP199 P0001 T01220100=
201411041856 SPECI KPAE 041856Z 33008KT 3SM -RA BR SCT003 BKN007 OVC018 12/10 A3010 RMK AO2 P0001 T01170100=
201411041853 METAR KPAE 041853Z 32007KT 2 1/2SM -RA BR BKN003 OVC016 12/11 A3010 RMK AO2 SLP194 P0010 T01170106=
201411041846 SPECI KPAE 041846Z 33006KT 2 1/2SM -RA BR OVC005 12/11 A3010 RMK AO2 P0010 T01170111=
201411041817 SPECI KPAE 041817Z 23009KT 1 1/4SM R16R/5500VP6000FT -RA BR OVC005 12/11 A3007 RMK AO2 P0002 T01220111=
201411041753 METAR KPAE 041753Z 21012KT 2SM -RA BR OVC005 12/11 A3007 RMK AO2 RAB37 CIG 003V008 SLP183 P0001 60001 T01220111 10122 20117 53029=
201411041725 SPECI KPAE 041725Z 24011KT 2SM BR OVC006 12/11 A3006 RMK AO2 T01220111=
201411041653 METAR KPAE 041653Z 20017G22KT 4SM BR OVC007 12/11 A3003 RMK AO2 CIG 005V011 SLP171 T01220111=
201411041553 METAR KPAE 041553Z 19017KT 10SM BKN009 OVC013 12/11 A3001 RMK AO2 CIG 006V012 SLP163 T01220106=
201411041453 METAR KPAE 041453Z 17012G23KT 10SM BKN007 OVC013 12/11 A2998 RMK AO2 CIG 005V012 SLP154 60000 T01220106 53002=
201411041353 METAR KPAE 041353Z AUTO 17015G23KT 9SM OVC008 12/11 A2996 RMK AO2 PK WND 17030/1322 CIG 004V012 SLP145 T01170106=
201411041253 METAR KPAE 041253Z AUTO 17018G26KT 10SM BKN007 OVC012 12/11 A2996 RMK AO2 PK WND 18026/1248 RAE1154B06E14 SLP144 P0000 T01170106=
201411041243 SPECI KPAE 041243Z AUTO 17017G24KT 9SM BKN006 BKN012 OVC095 12/11 A2996 RMK AO2 RAE1154B06E14 P0000 T01170106=
201411041215 SPECI KPAE 041215Z AUTO 17018G25KT 7SM SCT007 BKN012 OVC070 12/11 A2996 RMK AO2 RAE1154B06E14 P0000 T01170106=
201411041208 SPECI KPAE 041208Z AUTO 17015G24KT 6SM -RA BR SCT009 BKN015 OVC070 12/11 A2996 RMK AO2 RAE1154B06 P0000 T01170106=
201411041201 SPECI KPAE 041201Z AUTO 17015KT 7SM SCT009 SCT022 OVC070 12/11 A2997 RMK AO2 RAE1154 P0000 T01170106=
201411041153 METAR KPAE 041153Z AUTO 17015G23KT 7SM -RA FEW011 FEW033 OVC070 12/11 A2998 RMK AO2 SLP152 P0000 60007 70031 T01170106 10122 20117 56008=
201411041053 METAR KPAE 041053Z AUTO 17013KT 6SM -RA BR FEW009 BKN045 OVC055 12/11 A2999 RMK AO2 RAB52 SLP155 P0000 T01170106=
201411041018 SPECI KPAE 041018Z AUTO 17015G21KT 10SM FEW010 SCT014 BKN050 12/10 A2998 RMK AO2 T01220100=
201411041000 SPECI KPAE 041000Z AUTO 17014KT 10SM BKN014 BKN020 OVC120 12/10 A2998 RMK AO2 T01220100=
201411040953 METAR KPAE 040953Z AUTO 17013G21KT 10SM BKN016 BKN023 OVC110 12/10 A2998 RMK AO2 SLP153 T01220100=
201411040939 SPECI KPAE 040939Z AUTO 17014G18KT 10SM BKN018 OVC033 12/10 A2999 RMK AO2 T01220100=
201411040904 SPECI KPAE 040904Z AUTO 16017KT 10SM FEW015 SCT020 OVC031 12/10 A2999 RMK AO2 T01220100=
201411040853 METAR KPAE 040853Z AUTO 17015G26KT 10SM SCT016 BKN020 OVC031 12/10 A3000 RMK AO2 PK WND 16027/0843 RAE11 SLP159 P0001 60007 T01220100 56007=
201411040817 SPECI KPAE 040817Z AUTO 16016G23KT 10SM SCT014 BKN020 OVC035 12/11 A3001 RMK AO2 RAE11 P0001 T01220106=
201411040808 SPECI KPAE 040808Z AUTO 17016G24KT 10SM -RA FEW015 SCT022 OVC035 12/11 A3001 RMK AO2 P0001 T01220106=
201411040753 METAR KPAE 040753Z AUTO 17014G25KT 10SM -RA BKN015 BKN020 OVC035 12/11 A3001 RMK AO2 PK WND 16026/0719 SLP162 P0006 T01220106 401280106=
201411040726 SPECI KPAE 040726Z AUTO 17015G26KT 10SM -RA BKN019 OVC036 12/11 A3001 RMK AO2 PK WND 16026/0719 P0004 T01220106=
201411040711 SPECI KPAE 040711Z AUTO 16016G24KT 8SM RA FEW009 SCT021 OVC037 12/11 A3001 RMK AO2 P0003 T01220106=
201411040653 METAR KPAE 040653Z AUTO 16015G23KT 10SM -RA FEW021 OVC037 12/11 A3001 RMK AO2 RAB38 SLP163 P0000 T01220106=
201411040626 SPECI KPAE 040626Z AUTO 16015KT 10SM SCT011 SCT019 OVC038 12/11 A3001 RMK AO2 T01220106=
201411040617 SPECI KPAE 040617Z AUTO 16015G22KT 10SM SCT013 BKN018 OVC038 12/11 A3000 RMK AO2 T01220106=
201411040553 METAR KPAE 040553Z AUTO 16014KT 10SM BKN011 OVC017 12/11 A3002 RMK AO2 SLP167 60009 T01220106 10128 20122 56005=
201411040541 SPECI KPAE 040541Z AUTO 15015KT 10SM BKN011 OVC018 12/11 A3002 RMK AO2 T01220106=
201411040515 SPECI KPAE 040515Z AUTO 16015G23KT 10SM FEW009 BKN015 OVC036 12/11 A3002 RMK AO2 T01220106=
201411040453 METAR KPAE 040453Z AUTO 15016KT 10SM FEW010 BKN019 OVC040 12/11 A3002 RMK AO2 PK WND 17026/0354 RAE16 SLP167 P0000 T01220106=
201411040435 SPECI KPAE 040435Z 16016G23KT 10SM FEW009 BKN018 OVC042 12/11 A3003 RMK AO2 PK WND 17026/0354 RAE16 P0000 T01220106=
201411040402 SPECI KPAE 040402Z 16017G26KT 10SM -RA SCT013 SCT018 OVC048 12/11 A3003 RMK AO2 PK WND 17026/0354 P0000 T01220106=
201411040353 METAR KPAE 040353Z 17019KT 10SM -RA FEW010 BKN015 OVC048 12/11 A3003 RMK AO2 SLP169 P0002 T01220106=
201411040338 SPECI KPAE 040338Z 16019G24KT 10SM -RA SCT012 BKN018 OVC038 12/11 A3003 RMK AO2 P0002 T01220106=
201411040328 SPECI KPAE 040328Z 16018G24KT 10SM -RA FEW009 BKN014 OVC035 12/11 A3004 RMK AO2 P0002 T01220106=
201411040311 SPECI KPAE 040311Z 17016G23KT 5SM -RA BR FEW010 BKN016 OVC035 12/11 A3003 RMK AO2 P0001 T01220106=
201411040304 SPECI KPAE 040304Z 17016G23KT 5SM -RA BR BKN014 BKN034 OVC043 12/11 A3003 RMK AO2 P0001 T01220106=
201411040253 METAR KPAE 040253Z 17016KT 8SM -RA SCT016 BKN033 OVC070 12/11 A3004 RMK AO2 SLP172 P0002 60007 T01220106 56007=
201411040153 METAR KPAE 040153Z 17013KT 10SM -RA SCT009 BKN055 OVC080 13/11 A3004 RMK AO2 RAE21B37 SLP173 P0001 T01280111=
201411040108 SPECI KPAE 040108Z 16016KT 10SM -RA FEW009 BKN055 OVC080 12/11 A3005 RMK AO2 P0000 T01220111=
201411040100 SPECI KPAE 040100Z 16018KT 10SM -RA SCT011 BKN026 OVC075 13/11 A3005 RMK AO2 P0000 T01280111=
201411040053 METAR KPAE 040053Z 16015KT 10SM -RA BKN009 BKN035 OVC070 12/11 A3005 RMK AO2 SLP176 P0004 T01220111=
201411032353 METAR KPAE 032353Z 16015KT 7SM -RA BKN009 BKN050 OVC070 13/11 A3006 RMK AO2 SLP179 P0006 60009 T01280111 10128 20117 57004=
201411032253 METAR KPAE 032253Z 17014G23KT 8SM -RA BKN007 BKN012 OVC100 13/11 A3007 RMK AO2 PK WND 16026/2227 RAB35 SLP183 P0001 T01280111=
201411032153 METAR KPAE 032153Z 17017G25KT 10SM BKN009 BKN075 OVC095 13/11 A3006 RMK AO2 PK WND 16029/2108 SLP180 T01280111=
201411032053 METAR KPAE 032053Z 16018G23KT 10SM BKN007 BKN070 OVC085 13/11 A3007 RMK AO2 RAB04E41 SLP184 P0000 60002 T01280106 58007=
201411031953 METAR KPAE 031953Z 17016G23KT 10SM BKN007 OVC085 12/11 A3008 RMK AO2 PK WND 18032/1925 RAE43 SLP187 P0001 T01220106=
201411031853 METAR KPAE 031853Z 17017G25KT 10SM -RA BKN009 OVC023 12/11 A3009 RMK AO2 RAE02B08 SLP189 P0001 T01170106=
201411031802 SPECI KPAE 031802Z 18017G22KT 9SM BKN009 OVC023 12/10 A3009 RMK AO2 RAE02 P0000 T01170100=
201411031753 METAR KPAE 031753Z 17013G23KT 7SM -RA BKN010 OVC023 12/10 A3009 RMK AO2 SLP191 P0003 60006 T01170100 10117 20111 53007=
201411031743 SPECI KPAE 031743Z 17013KT 7SM -RA BKN009 OVC023 12/10 A3009 RMK AO2 P0003 T01170100=
201411031727 SPECI KPAE 031727Z 17012KT 6SM -RA BR SCT009 BKN025 OVC080 12/10 A3009 RMK AO2 P0002 T01170100=
201411031715 SPECI KPAE 031715Z 18012KT 7SM -RA FEW009 BKN070 OVC080 12/10 A3009 RMK AO2 P0001 T01170100=
201411031653 METAR KPAE 031653Z 17012G21KT 9SM -RA BKN070 OVC085 12/10 A3008 RMK AO2 SLP187 P0003 T01170100=
201411031553 METAR KPAE 031553Z 16015KT 10SM -RA BKN019 OVC080 12/09 A3007 RMK AO2 RAB49 SLP185 P0000 T01170094=
201411031453 METAR KPAE 031453Z 16014KT 10SM OVC018 11/09 A3007 RMK AO2 SLP183 T01110094 58003=
201411031405 SPECI KPAE 031405Z AUTO 16012KT 10SM FEW007 OVC017 11/10 A3007 RMK AO2 T01110100 $=
201411031353 METAR KPAE 031353Z AUTO 16008KT 10SM BKN008 OVC017 11/10 A3007 RMK AO2 CIG 005V012 SLP184 T01110100 $=
201411031334 SPECI KPAE 031334Z AUTO 15009KT 10SM BKN008 OVC013 11/10 A3008 RMK AO2 CIG 005V011 T01110100 $=
201411031325 SPECI KPAE 031325Z AUTO 15009KT 10SM OVC010 12/10 A3008 RMK AO2 T01170100 $=
201411031253 METAR KPAE 031253Z AUTO 17009KT 10SM OVC006 12/10 A3008 RMK AO2 CIG 004V009 SLP187 T01170100 $=
201411031153 METAR KPAE 031153Z AUTO 17011KT 7SM OVC002 11/10 A3008 RMK AO2 SLP188 60002 70013 T01110100 10111 20106 56001 $=
201411031053 METAR KPAE 031053Z AUTO 16009KT 6SM BR OVC003 11/10 A3008 RMK AO2 SLP188 T01060100 $=
201411030953 METAR KPAE 030953Z AUTO 16009KT 3SM BR OVC004 11/09 A3008 RMK AO2 RAE30 CIG 003V007 SLP188 P0001 T01060094 $=
201411030902 SPECI KPAE 030902Z AUTO 15007KT 5SM -RA BR OVC005 11/09 A3008 RMK AO2 CIG 003V008 P0000 T01060094 $=
201411030853 METAR KPAE 030853Z AUTO 15007KT 6SM -RA BR OVC004 11/09 A3009 RMK AO2 RAB07 CIG 003V008 SLP189 P0001 60001 T01060094 51005 $=
201411030823 SPECI KPAE 030823Z AUTO 15006KT 3SM -RA BR OVC004 11/09 A3009 RMK AO2 RAB07 CIG 002V008 P0000 T01060094 $=
201411030800 SPECI KPAE 030800Z AUTO 15006KT 2 1/2SM BR OVC004 11/09 A3008 RMK AO2 T01060094 $=
201411030753 METAR KPAE 030753Z AUTO 15007KT 3SM BR OVC004 11/09 A3008 RMK AO2 SLP187 T01060094 401220072 $=
201411030707 SPECI KPAE 030707Z AUTO 16007KT 2 1/2SM BR BKN004 OVC008 11/09 A3007 RMK AO2 T01060094 $=
201411030653 METAR KPAE 030653Z AUTO 16007KT 3SM BR OVC007 11/09 A3007 RMK AO2 CIG 004V009 SLP184 T01060094 $=
201411030553 METAR KPAE 030553Z AUTO 17007KT 6SM BR OVC007 11/10 A3008 RMK AO2 CIG 005V010 SLP188 60007 T01060100 10111 20100 53003 $=
201411030453 METAR KPAE 030453Z AUTO 17010KT 8SM OVC007 11/09 A3008 RMK AO2 CIG 004V010 SLP187 T01060094 $=
201411030353 METAR KPAE 030353Z 15008KT 9SM OVC009 11/09 A3007 RMK AO2 CIG 006V013 SLP185 T01060089 $=
201411030253 METAR KPAE 030253Z 16010KT 7SM BKN006 OVC012 11/09 A3007 RMK AO2 RAE52 CIG 004V008 SLP185 P0002 60007 T01060089 53001 $=
201411030230 SPECI KPAE 030230Z 15010KT 5SM -RA BR BKN006 OVC012 10/09 A3007 RMK AO2 CIG 004V008 P0001 T01000089 $=
201411030200 SPECI KPAE 030200Z 15009KT 10SM -RA FEW008 BKN014 OVC024 10/09 A3007 RMK AO2 P0000 T01000089 $=
201411030153 METAR KPAE 030153Z 15009G16KT 7SM -RA BKN014 BKN019 OVC025 10/09 A3007 RMK AO2 SLP184 P0003 T01000089 $=
201411030148 SPECI KPAE 030148Z 15009G16KT 5SM -RA BR SCT014 BKN019 OVC034 10/09 A3007 RMK AO2 P0003 $=
201411030147 SPECI KPAE 030147Z 15010G16KT 5SM -RA BR BKN014 BKN024 OVC034 10/09 A3007 RMK AO2 P0003 $=
201411030053 METAR KPAE 030053Z 15007G15KT 10SM -RA SCT026 BKN070 OVC080 11/09 A3007 RMK AO2 SLP184 P0002 T01060089 $=
201411022353 METAR KPAE 022353Z 15009KT 10SM -RA OVC021 11/08 A3008 RMK AO2 SLP187 P0003 60004 T01060083 10122 20094 56010 $=
201411022253 METAR KPAE 022253Z 15008KT 10SM -RA FEW024 FEW038 OVC070 11/08 A3008 RMK AO2 SLP189 P0001 T01110083 $=
201411022153 METAR KPAE 022153Z 15010KT 10SM -RA BKN040 12/08 A3010 RMK AO2 RAB49 SLP193 P0000 T01170078 $=
201411022133 SPECI KPAE 022133Z 16011KT 10SM SCT024 OVC042 12/07 A3010 RMK AO2 T01220067 $=
201411022053 METAR KPAE 022053Z 16011KT 10SM SCT021 BKN029 OVC055 12/07 A3011 RMK AO2 SLP198 T01170067 58009 $=
201411021953 METAR KPAE 021953Z 15011G16KT 10SM FEW017 SCT025 BKN075 12/07 A3012 RMK AO2 SLP202 T01170072 $=
201411021941 SPECI KPAE 021941Z 16010KT 10SM SCT016 BKN025 OVC075 12/07 A3013 RMK AO2 T01170072 $=
201411021858 SPECI KPAE 021858Z 15008G14KT 10SM SCT012 OVC075 11/07 A3013 RMK AO2 T01060072 $=
201411021853 METAR KPAE 021853Z 15011G14KT 10SM BKN012 OVC075 11/07 A3013 RMK AO2 SLP206 T01060072 $=
201411021848 SPECI KPAE 021848Z 16008KT 10SM BKN011 BKN027 OVC075 11/08 A3014 RMK AO2 $=
201411021807 SPECI KPAE 021807Z 16010KT 10SM SCT009 BKN060 10/07 A3013 RMK AO2 T01000072 $=
201411021753 METAR KPAE 021753Z 16010KT 10SM BKN009 OVC060 10/07 A3013 RMK AO2 CIG 007V012 SLP206 T01000072 10100 20072 50003 $=
201411021653 METAR KPAE 021653Z 18008KT 10SM BKN009 OVC065 09/07 A3013 RMK AO2 SLP206 T00890072 $=
201411021553 METAR KPAE 021553Z 16008KT 10SM SCT003 OVC009 08/07 A3013 RMK AO2 SLP203 T00830067 $=
201411021453 METAR KPAE 021453Z 17004KT 9SM BKN006 OVC011 08/07 A3012=
201411021422 SPECI KPAE 021422Z AUTO 00000KT 8SM BKN006 BKN070 08/07 A3012 RMK AO2 T00780067 $=
201411021353 METAR KPAE 021353Z AUTO 16004KT 9SM FEW006 FEW065 08/07 A3011 RMK AO2 SLP198 T00780067 $=
201411021343 SPECI KPAE 021343Z AUTO 16006KT 8SM SCT006 BKN065 08/07 A3011 RMK AO2 T00830067 $=
201411021319 SPECI KPAE 021319Z AUTO 16005KT 8SM BKN005 OVC065 08/07 A3011 RMK AO2 T00830072 $=
201411021253 METAR KPAE 021253Z AUTO 19006KT 7SM FEW004 OVC070 08/07 A3012 RMK AO2 SLP201 T00830072 $=
201411021227 SPECI KPAE 021227Z AUTO 18005KT 8SM SCT003 OVC080 08/07 A3011 RMK AO2 T00830067 $=
201411021153 METAR KPAE 021153Z AUTO 19009KT 5SM BR BKN004 BKN034 OVC050 08/07 A3011 RMK AO2 SLP198 T00780067 10089 20072 51016 $=
201411021140 SPECI KPAE 021140Z AUTO 20007KT 6SM BR BKN004 BKN034 OVC055 08/07 A3011 RMK AO2 CIG 003V007 T00780067 $=
201411021113 SPECI KPAE 021113Z AUTO 20006KT 7SM SCT006 SCT055 08/07 A3010 RMK AO2 T00780067 $=
201411021053 METAR KPAE 021053Z AUTO 18007KT 6SM BR SCT033 BKN050 07/07 A3010 RMK AO2 SLP193 T00720067 $=
201411021016 SPECI KPAE 021016Z AUTO 17006KT 5SM BR SCT002 BKN039 OVC048 08/07 A3009 RMK AO2 T00830072 $=
201411020953 METAR KPAE 020953Z AUTO 16005KT 4SM BR BKN002 OVC039 08/07 A3008 RMK AO2 SLP188 T00780072 $=
201411020938 SPECI KPAE 020938Z AUTO 17006KT 5SM BR BKN002 BKN037 OVC050 08/07 A3008 RMK AO2 T00780072 $=
201411020928 SPECI KPAE 020928Z AUTO 17006KT 6SM BR SCT001 SCT029 OVC050 08/07 A3007 RMK AO2 T00780072 $=
201411020853 METAR KPAE 020853Z AUTO 15005KT 9SM FEW031 OVC050 08/07 A3006 RMK AO2 SLP182 T00830067 53010 $=
201411020753 METAR KPAE 020753Z AUTO 16004KT 9SM BKN032 OVC050 08/07 A3005 RMK AO2 SLP178 T00830067 401000061 $=
201411020653 METAR KPAE 020653Z AUTO 16005KT 10SM FEW036 OVC055 08/06 A3004 RMK AO2 SLP175 T00830061 $=
201411020553 METAR KPAE 020553Z AUTO 15006KT 10SM BKN037 OVC060 09/06 A3003 RMK AO2 SLP172 T00890061 10100 20089 51008 $=
201411020503 SPECI KPAE 020503Z AUTO 16005KT 10SM SCT018 BKN032 OVC045 09/07 A3003 RMK AO2 T00890067 $=
201411020453 METAR KPAE 020453Z AUTO 15004KT 10SM BKN018 BKN030 OVC045 09/06 A3003 RMK AO2 SLP169 T00890061 $=
201411020448 SPECI KPAE 020448Z AUTO 15005KT 10SM BKN019 OVC030 09/06 A3002 RMK AO2 $=
201411020353 METAR KPAE 020353Z 15006KT 10SM OVC033 09/07 A3001 RMK AO2 SLP164 T00890067 $=
201411020253 METAR KPAE 020253Z 15006KT 10SM SCT029 SCT035 OVC055 09/07 A3000 RMK AO2 SLP161 T00890067 53013 $=
201411020153 METAR KPAE 020153Z 15006KT 10SM OVC028 09/07 A2998 RMK AO2 SLP155 T00890067 $=
201411020053 METAR KPAE 020053Z 15004KT 10SM FEW014 OVC026 09/07 A2997 RMK AO2 SLP150 T00940067 $=
201411012353 METAR KPAE 012353Z 00000KT 10SM OVC026 09/06 A2996 RMK AO2 SLP147 T00940061 10100 20072 53013 $=
201411012253 METAR KPAE 012253Z 00000KT 10SM OVC025 10/07 A2995 RMK AO2 SLP143 T01000067 $=
201411012153 METAR KPAE 012153Z 03003KT 10SM BKN026 BKN032 09/07 A2993 RMK AO2 SLP138 T00890067 $=
201411012112 SPECI KPAE 012112Z 36003KT 10SM SCT005 OVC022 09/07 A2993 RMK AO2 T00890072 $=
201411012053 METAR KPAE 012053Z 01003KT 10SM BKN005 OVC009 08/07 A2992 RMK AO2 SLP134 T00830072 51004 $=
201411012007 SPECI KPAE 012007Z 00000KT 8SM BKN003 OVC007 08/07 A2992 RMK AO2 T00830072 $=
201411011958 SPECI KPAE 011958Z 00000KT 8SM BKN001 OVC024 08/08 A2992 RMK AO2 T00780078 $=
201411011951 METAR KPAE 011951Z 00000KT 2 1/2SM R16R/5500VP6000FT BR OVC001 08/07 A2992 RMK AO2 SLP132 T00780072 $=
201411011950 SPECI KPAE 011950Z 01003KT 2SM R16R/5500VP6000FT BR OVC001 08/07 A2992 RMK AO2 $=
201411011936 SPECI KPAE 011936Z 03003KT 1/2SM R16R/1200VP6000FT FG VV001 08/07 A2992 RMK AO2 T00780072 $=
201411011853 METAR KPAE 011853Z 01004KT M1/4SM R16R/1200V1800FT FG VV001 08/07 A2992 RMK AO2 SLP132 T00780072 $=
201411011753 METAR KPAE 011753Z 00000KT M1/4SM R16R/0600V0800FT FG VV001 07/07 A2991 RMK AO2 SLP130 T00720067 10072 20067 51014 $=
201411011653 METAR KPAE 011653Z 02006KT M1/4SM R16R/0500V0700FT FG VV001 07/07 A2990 RMK AO2 SLP125 T00720067 $=
201411011553 METAR KPAE 011553Z 36004KT M1/4SM R16R/1000V1800FT FG VV001 07/07 A2989 RMK AO2 SLP122 T00670067 $=
201411011453 METAR KPAE 011453Z 33003KT 1/4SM R16R/0800V1000FT FG VV001 07/06 A2987 RMK AO2 SLP115 T00670061 53003 $=
201411011353 METAR KPAE 011353Z 35003KT 1/4SM R16R/1000FT FG VV001 07/07 A2986 RMK AO2 SLP113 T00720067 $=
201411011253 METAR KPAE 011253Z AUTO 00000KT 1/4SM R16R/0800V1000FT FG VV001 07/06 A2986 RMK AO2 SLP113 T00670061 $=
201411011153 METAR KPAE 011153Z AUTO 01004KT 1/4SM R16R/0700V1000FT FG VV001 07/07 A2986 RMK AO2 SLP113 70056 T00720067 10089 20061 55002=
201411011053 METAR KPAE 011053Z AUTO 02003KT 1/4SM R16R/1200FT FG VV001 07/07 A2986 RMK AO2 SLP113 T00720067=
201411011043 SPECI KPAE 011043Z AUTO 02003KT 1/4SM R16R/1600V2000FT FG VV001 07/07 A2985 RMK AO2 T00720067=
201411011022 SPECI KPAE 011022Z AUTO 04003KT 1/2SM R16R/1600V2400FT FG VV001 07/07 A2985 RMK AO2 T00720067=
201411011015 SPECI KPAE 011015Z AUTO VRB03KT 1SM R16R/1600VP6000FT BR VV001 07/07 A2985 RMK AO2 T00720067=
201411011002 SPECI KPAE 011002Z AUTO 36003KT 1SM R16R/P6000FT BR CLR 06/06 A2985 RMK AO2 T00610056=
201411010953 METAR KPAE 010953Z AUTO 01003KT 3/4SM R16R/3000VP6000FT BR CLR 07/06 A2985 RMK AO2 SLP111 T00670056=
201411010949 SPECI KPAE 010949Z AUTO 00000KT 3/4SM R16R/4000VP6000FT BR VV001 07/06 A2986 RMK AO2=
201411010938 SPECI KPAE 010938Z AUTO 00000KT 1 1/4SM R16R/4000VP6000FT BR FEW001 07/07 A2986 RMK AO2 T00720067=
201411010910 SPECI KPAE 010910Z AUTO 00000KT 3/4SM R16R/P6000FT BR VV001 07/06 A2987 RMK AO2 T00670061=
201411010904 SPECI KPAE 010904Z AUTO 00000KT 1 3/4SM BR FEW001 07/07 A2986 RMK AO2 T00720067=
201411010853 METAR KPAE 010853Z AUTO 00000KT 4SM R16R/2600VP6000FT BR FEW001 08/07 A2986 RMK AO2 SLP114 T00780067 56005=
201411010851 SPECI KPAE 010851Z AUTO 00000KT 3SM R16R/2600VP6000FT BR FEW001 08/07 A2986 RMK AO2=
201411010849 SPECI KPAE 010849Z AUTO 00000KT 1 1/2SM R16R/2600VP6000FT BR FEW001 08/07 A2986 RMK AO2=
201411010839 SPECI KPAE 010839Z AUTO 00000KT 3/4SM R16R/4500VP6000FT BR VV001 08/07 A2987 RMK AO2 T00780067=
201411010837 SPECI KPAE 010837Z AUTO 00000KT 1 1/2SM BR FEW001 08/07 A2987 RMK AO2 T00780067=
201411010753 METAR KPAE 010753Z AUTO 11003KT 10SM FEW060 08/07 A2987 RMK AO2 SLP117 T00830072 401110078=
201411010713 SPECI KPAE 010713Z AUTO 00000KT 3SM BR CLR 08/08 A2987 RMK AO2 T00830078=
201411010704 SPECI KPAE 010704Z AUTO 00000KT 1 3/4SM R16R/3000VP6000FT BR FEW006 08/07 A2987 RMK AO2 T00780072=
201411010658 SPECI KPAE 010658Z AUTO 00000KT 3SM R16R/2200V6000FT BR FEW006 08/07 A2987 RMK AO2 T00830072=
201411010653 METAR KPAE 010653Z AUTO 00000KT 1 3/4SM R16R/2200V5500FT BR FEW006 08/07 A2987 RMK AO2 SLP115 T00830072=
201411010644 SPECI KPAE 010644Z AUTO 00000KT 1SM R16R/2200V3000FT BR VV006 08/08 A2987 RMK AO2 T00830078=
201411010639 SPECI KPAE 010639Z AUTO 00000KT 1 3/4SM R16R/2200V2800FT BR CLR 08/08 A2987 RMK AO2 T00830078=
201411010636 SPECI KPAE 010636Z AUTO 00000KT 4SM R16R/1800V2800FT BR CLR 09/08 A2987 RMK AO2 T00890078=
201411010619 SPECI KPAE 010619Z AUTO 00000KT 5SM R16R/1600V1800FT BR CLR 09/08 A2987 RMK AO2 T00890078=
201411010553 METAR KPAE 010553Z AUTO 00000KT 5SM BR FEW002 BKN075 09/08 A2988 RMK AO2 SLP120 60002 T00890083 10106 20089 50005=
201411010515 SPECI KPAE 010515Z AUTO 00000KT 3SM BR FEW002 BKN060 BKN075 09/08 A2989 RMK AO2 T00940083=
201411010500 METAR KPAE NIL=
201411010453 METAR KPAE 010453Z AUTO 11005KT 4SM BR FEW016 OVC055 09/08 A2988 RMK AO2 SLP121 T00940083=
201411010353 METAR KPAE 010353Z AUTO 00000KT 9SM SCT055 OVC090 10/09 A2988 RMK AO2 SLP119 T01000089=
201411010253 METAR KPAE 010253Z 11003KT 7SM FEW002 BKN009 OVC060 10/09 A2986 RMK AO2 RAB0155E25 SLP114 P0002 60002 T01000089 51008=
201411010153 METAR KPAE 010153Z 02004KT 3SM BR BKN002 OVC009 09/09 A2986 RMK AO2 RAB08E42 SLP113 P0000 T00940089=
201411010053 METAR KPAE 010053Z 02003KT 7SM BKN009 BKN014 09/09 A2986 RMK AO2 RAB27E51 SLP112 P0000 T00940089=

# No short TAF reports from KPAE in databse.

###################################
#  large TAF from KPAE
###################################
201411302320 TAF KPAE 302320Z 0100/0124 02006KT P6SM SCT250=
201411301720 TAF KPAE 301720Z 3018/0118 03007KT P6SM SKC=
201411301120 TAF KPAE 301120Z 3012/0112 03005KT P6SM SKC=
201411300520 TAF KPAE 300520Z 3006/0106 03005KT P6SM SKC=
201411292320 TAF KPAE 292320Z 3000/3024 35010KT P6SM SCT040 FM300300 03008KT
                       P6SM SKC=
201411291723 TAF KPAE 291723Z 2918/3018 34012G22KT P6SM FEW015 BKN050 FM292100
                       35010G20KT P6SM SCT040 FM300300 03008KT
                       P6SM SKC=
201411291433 TAF AMD KPAE 291433Z 2915/3012 35004KT 3SM -SHSN BR FEW012 OVC023
                       FM291700 01012G22KT P6SM SCT040 FM292100
                       02012KT P6SM SKC=
201411291132 TAF KPAE 291132Z 2912/3012 35006KT 1SM -SHSN SCT004 OVC008 FM291700
                       01012G22KT P6SM SCT040 FM292100 02012KT
                       P6SM SKC=
201411290806 TAF AMD KPAE 290806Z 2908/3006 VRB05KT 2SM -SHSN BKN006 OVC015
                       TEMPO 2908/2911 1SM -SHSN OVC004 FM291100
                       30008KT P6SM -SHSN SCT008 OVC015 FM291600
                       02012G22KT P6SM SCT040 FM300000 02012KT
                       P6SM SKC=
201411290625 TAF AMD KPAE 290625Z 2906/3006 18006KT P6SM -RASN BKN015 OVC030
                       TEMPO 2906/2910 2SM -RASN BR SCT005 OVC015
                       FM291000 30008KT P6SM -SHSN OVC015 FM291600
                       02012G22KT P6SM SCT040 FM300000 02012KT
                       P6SM SKC=
201411290539 TAF KPAE 290539Z 2906/3006 18006KT P6SM -RA BKN015 OVC030
                      TEMPO 2906/2910 4SM -RA BR SCT005 OVC015
                       FM291000 30008KT P6SM -SHSN OVC015 FM291600
                       02012G22KT P6SM SCT040 FM300000 02012KT
                       P6SM SKC=
201411282320 TAF KPAE 282320Z 2900/2924 06006KT P6SM SCT015 OVC035
                      TEMPO 2900/2904 5SM -SHRA BR BKN015 OVC030
                       FM290400 30008KT P6SM VCSH SCT020 BKN050
                       FM291000 30012KT P6SM -SHSN BKN015 BKN040
                       FM291600 02012G22KT P6SM SCT040=
201411282200 TAF AMD KPAE 282200Z 2822/2918 02008KT 5SM -RA SCT007 OVC015
                      TEMPO 2822/2824 2SM -RASN BR BKN007 OVC012
                       FM290000 02008KT P6SM -SHRA SCT007 BKN015
                       OVC040 FM290200 36010KT P6SM VCSH SCT020
                       BKN050 FM291000 36012KT P6SM -SHSN BKN015
                       BKN040 FM291600 02012G22KT P6SM SCT040=
201411281727 TAF KPAE 281727Z 2818/2918 35012KT P6SM -RA SCT005 OVC015
                      TEMPO 2818/2822 2SM RA BR BKN005 OVC012 FM282200
                       35010KT P6SM -SHRA BKN015 OVC040 FM290200
                       35010KT P6SM VCSH SCT020 BKN050 FM291000
                       36012KT P6SM -SHSN BKN015 BKN040 FM291700
                       02012KT P6SM SCT040=
201411281722 TAF KPAE 281722Z 2818/2918 35012KT P6SM -RA SCT005 OVC015
                      TEMPO 2818/2822 2SM RA BR OVC012 FM282200
                       35010KT P6SM -SHRA BKN015 OVC040 FM290200
                       35010KT P6SM VCSH SCT020 BKN050 FM291000
                       36012KT P6SM -SHSN BKN015 BKN040 FM291700
                       02012KT P6SM SCT040=
201411281137 TAF KPAE 281137Z 2812/2912 18020G30KT P6SM -RA BKN015 OVC025 FM281500
                       33008KT 4SM RA BR BKN007 OVC012 FM282100
                       36008KT P6SM VCSH SCT012 BKN030 FM290000
                       18004KT P6SM SCT040 FM290200 20006KT P6SM
                       BKN040 BKN070=
201411280537 TAF KPAE 280537Z 2806/2906 18024G34KT P6SM -RA BKN016 OVC025 FM281500
                       33009KT 4SM RA BR BKN007 OVC012 FM282100
                       36008KT P6SM VCSH SCT012 BKN030 FM290200
                       VRB04KT P6SM BKN040=
201411272341 TAF KPAE 272341Z 2800/2824 18024G32KT P6SM -SHRA BKN016 OVC024
                       FM281200 33009KT 6SM -RA BR BKN007 OVC012
                       FM282100 19005KT P6SM VCSH SCT012=
201411271741 TAF KPAE 271741Z 2718/2818 18022G30KT P6SM -SHRA BKN026 BKN100
                       FM272300 18020G30KT P6SM -SHRA SCT026 SCT040
                       BKN100 FM280300 18017G28KT P6SM -SHRA BKN022
                       OVC100 FM281200 33008KT 6SM -RA BR BKN007
                       OVC012=
201411271130 TAF KPAE 271130Z 2712/2812 18022G35KT P6SM -RA SCT025 OVC035
                      TEMPO 2712/2716 BKN025 FM272000 20018G28KT
                       P6SM -RA SCT030 BKN040 BKN080=
201411270521 TAF KPAE 270521Z 2706/2806 18015G25KT P6SM -RA SCT025 BKN035 OVC080
                       FM270800 17015G30KT P6SM -RA SCT015 OVC025
                       FM271800 18018G32KT P6SM -RA SCT025 OVC030=
201411262341 TAF KPAE 262341Z 2700/2724 18013G21KT P6SM BKN015 OVC150 FM270400
                       17016G27KT P6SM -RA OVC025 FM271200 18015G20KT
                       P6SM -SHRA BKN009 OVC025=
201411261741 TAF KPAE 261741Z 2618/2718 19010G20KT P6SM OVC009 FM262100 18013G21KT
                       P6SM BKN015 OVC150 FM270400 17016G27KT P6SM
                       -RA OVC025 FM271200 18012G17KT P6SM -SHRA
                       BKN015 OVC025=
201411261135 TAF KPAE 261135Z 2612/2712 20019G26KT P6SM OVC009
                      TEMPO 2616/2620 SCT009 BKN022 OVC040 FM262000
                       18014G22KT P6SM BKN030 OVC150 FM270300 18020G30KT
                       P6SM -RA OVC012=
201411260543 TAF AMD KPAE 260543Z 2606/2706 20010KT 5SM BR OVC006
                      TEMPO 2606/2608 2SM BR OVC004 FM260800 18014G22KT
                       4SM BR OVC007 FM262000 17015G25KT P6SM OVC025=
201411260534 TAF KPAE 260534Z 2606/2706 00000KT 2SM BR OVC005
                      TEMPO 2606/2608 20010KT FM260800 18014G22KT
                       4SM BR OVC007 FM262000 17015G25KT P6SM OVC025=
201411260325 TAF AMD KPAE 260325Z 2603/2624 00000KT 2SM BR OVC004 FM260430 18014KT
                       2SM BR OVC004 FM260800 18014KT 4SM BR OVC007
                       FM262000 17015G22KT P6SM OVC025=
201411252331 TAF KPAE 252331Z 2600/2624 VRB03KT 2SM -RA BR OVC003 FM260300 19013G23KT
                       4SM -RA BR OVC007 FM260800 18014KT 4SM BR
                       OVC007 FM262000 17015G22KT P6SM OVC025=
201411251728 TAF KPAE 251728Z 2518/2618 34004KT 1/4SM FG VV002 FM252200 18008KT
                       2SM -RA BR OVC003 FM260200 20012G23KT 3SM
                       -RA BR OVC007 FM261500 19013KT 4SM BR VCSH
                       OVC007=
201411251420 TAF AMD KPAE 251420Z 2514/2612 34004KT 2SM -RA BR BKN004 OVC016
                       TEMPO 2514/2518 1/4SM RA FG VV001 FM251800
                       VRB03KT 3SM -RA BR OVC008 FM252300 18012G22KT
                       P6SM -RA BKN010 OVC030 FM260800 18010KT
                       P6SM -RA BKN015 OVC030=
201411251153 TAF AMD KPAE 251153Z 2512/2612 28003KT 4SM -RA BR SCT004 OVC016
                       TEMPO 2512/2516 2SM -RA BR BKN004 OVC016
                       FM251600 VRB03KT 3SM -RA BR OVC008 FM252300
                       18012G22KT P6SM -RA BKN010 OVC030 FM260800
                       18010KT P6SM -RA BKN015 OVC030=
201411251120 TAF KPAE 251120Z 2512/2612 00000KT 5SM -RA BR OVC017 FM251600 VRB03KT
                       3SM -RA BR OVC008 FM252300 18012G22KT P6SM
                       -RA BKN010 OVC030 FM260800 18010KT P6SM
                       -RA BKN015 OVC030=
201411250829 TAF AMD KPAE 250829Z 2508/2606 18007KT 3SM BR OVC001
                      TEMPO 2508/2512 1/4SM -RA FG FM251200 16007KT
                       1SM -RA BR OVC002 FM252300 18010KT P6SM
                       -RA BKN015 OVC040=
201411250520 TAF KPAE 250520Z 2506/2606 17016G24KT P6SM BKN010 BKN023 FM250800
                       17009KT 3SM -RA OVC008 WS020/23035KT FM251200
                       16007KT 1SM -RA BR OVC004 FM252300 18010KT
                       P6SM -RA BKN015 OVC040=
201411250407 TAF AMD KPAE 250407Z 2504/2524 16016G23KT P6SM BKN015 OVC035 FM250800
                       17009KT P6SM -RA OVC012 FM251200 18007KT
                       4SM -RA BR OVC007 FM252200 18008KT P6SM
                       -RA BKN015 OVC040=
201411242336 TAF KPAE 242336Z 2500/2524 14010KT 6SM -RA BR BKN050 BKN060 OVC070
                       FM250200 17010G20KT 5SM -RA BR SCT015 OVC040
                       FM251200 18007KT 4SM -RA BR OVC007 FM252200
                       18008KT P6SM -RA BKN015 OVC040=
201411241722 TAF KPAE 241722Z 2418/2518 16010KT P6SM SCT030 BKN120 OVC200
                      TEMPO 2418/2422 -SHRA OVC030 FM242200 15013KT
                       P6SM OVC050 FM250100 17016G24KT 4SM -RA
                       BR OVC015 FM250700 19011KT 4SM -RA OVC012=
201411241126 TAF KPAE 241126Z 2412/2512 16007KT P6SM SCT030 SCT100 FM241500
                       16008KT P6SM SCT030 BKN150 FM242100 18014G22KT
                       P6SM VCSH BKN030 OVC060 FM250000 18018G29KT
                       P6SM -RA SCT020 OVC030 FM250400 18015G22KT
                       4SM -RA BR SCT006 OVC012=
201411240520 TAF KPAE 240520Z 2406/2506 12006KT P6SM SCT200 FM241500 14006KT
                       P6SM SCT030 BKN150 FM242100 18014G22KT P6SM
                       VCSH BKN030 OVC060 FM250000 18015G22KT P6SM
                       -RA SCT020 OVC030 FM250400 18015G22KT 4SM
                       -RA BR SCT006 OVC012=
201411232346 TAF KPAE 232346Z 2400/2424 34005KT P6SM SCT025 SCT035 FM240600
                       15005KT P6SM SCT030 FM241200 14006KT P6SM
                       BKN030 FM242200 18014G22KT P6SM -RA SCT018
                       OVC030=
201411231747 TAF KPAE 231747Z 2318/2418 34007KT P6SM VCSH SCT015 SCT030 BKN045
                       TEMPO 2318/2322 6SM -SHRA BR SCT015 BKN030
                       FM232200 34005KT P6SM VCSH SCT025 BKN040
                       FM240300 16005KT P6SM BKN035 FM241200 16005KT
                       P6SM BKN025=
201411231415 KPAE 231415Z 2314/2412 18016G26KT 2SM RA BR FEW017 BKN035 OVC045
                       TEMPO 2314/2315 5SM TSRA BR OVC020CB FM231600
                       20007KT P6SM -SHRA BKN020 BKN035 FM231800
                       34007KT P6SM VCSH SCT020 BKN035 FM240300
                       16005KT P6SM BKN035=
201411231120 TAF KPAE 231120Z 2312/2412 19014G25KT P6SM -RA SCT013 BKN018 OVC035
                       TEMPO 2313/2316 5SM -RA BR FM231600 20007KT
                       P6SM -SHRA BKN020 BKN035 FM231800 34007KT
                       P6SM VCSH SCT020 BKN035 FM240300 16005KT
                       P6SM BKN035=
201411230534 TAF KPAE 230534Z 2306/2406 16007KT P6SM SCT030 OVC060 FM230900
                       18018G28KT P6SM -RA BKN012 OVC040
                      TEMPO 2313/2317 5SM -RA BR FM231700 34005KT
                       P6SM VCSH BKN030 FM240300 16005KT P6SM BKN035=
201411222356 TAF KPAE 222356Z 2300/2324 15005KT P6SM VCSH SCT015 BKN035 FM230400
                       16010KT P6SM SCT015 SCT030 FM230900 18015G25KT
                       P6SM -SHRA BKN012 OVC040
                      TEMPO 2312/2316 5SM -SHRA BR OVC012 FM231900
                       34005KT P6SM VCSH BKN030=
201411221748 TAF KPAE 221748Z 2218/2318 20008KT P6SM VCSH SCT010 OVC050 FM222000
                       18008KT P6SM VCSH SCT020 BKN040 FM231100
                       17018G26KT P6SM -SHRA SCT012 BKN025 FM231600
                       19008KT P6SM -SHRA SCT020 BKN040=
201411221125 TAF KPAE 221125Z 2212/2312 15008KT P6SM SCT020 SCT080 FM221600
                       18010KT P6SM -SHRA SCT010 BKN018 FM222100
                       18007KT P6SM VCSH SCT011 BKN025 FM230900
                       17018G26KT P6SM VCSH SCT020 BKN035=
201411220657 TAF AMD KPAE 220657Z 2207/2306 11005KT P6SM VCSH SCT025 BKN040
                       TEMPO 2207/2211 4SM -SHRA BR SCT006 BKN015
                       BKN035 FM221100 22006KT P6SM VCSH SCT015
                       OVC025 FM221600 20010KT P6SM -SHRA BKN008
                       OVC015 FM222000 18005KT P6SM VCSH SCT011
                       BKN020=
201411220520 TAF KPAE 220520Z 2206/2306 VRB04KT P6SM -SHRA BKN007 OVC011 FM221000
                       22006KT P6SM VCSH SCT015 OVC025 FM221600
                       20010KT P6SM -SHRA BKN008 OVC015 FM222000
                       18005KT P6SM VCSH SCT011 BKN020=
201411220409 TAF AMD KPAE 220409Z 2204/2224 17008KT P6SM VCSH OVC004 FM220600
                       29007KT 4SM -SHRA BR BKN008 OVC015 FM221100
                       22006KT P6SM -SHRA SCT015 OVC025=
201411220209 TAF AMD KPAE 220209Z 2202/2224 16013KT 2SM -RA BR SCT006 OVC016
                       FM220400 18014G21KT 4SM -SHRA SCT006 BKN016
                       FM220600 29007KT 6SM -SHRA BR SCT010 OVC018
                       FM221100 22006KT P6SM -SHRA SCT015 OVC025=
201411212347 TAF KPAE 212347Z 2200/2224 16015G24KT 4SM -RA BR BKN030 OVC040
                       FM220300 18014G21KT P6SM -SHRA SCT015 BKN025
                       FM220600 29007KT 6SM -SHRA BR SCT010 OVC018
                       FM221100 22006KT P6SM -SHRA SCT015 OVC025=
201411211746 TAF KPAE 211746Z 2118/2218 15015G22KT P6SM -RA SCT030 OVC040 FM212100
                       16015G24KT 4SM -RA BR OVC020 FM220300 18014G21KT
                       P6SM -SHRA OVC025 FM220600 23007KT 6SM -SHRA
                       BR SCT010 OVC018 FM221500 20006KT P6SM -SHRA
                       SCT015 OVC025=
201411211405 TAF AMD KPAE 211405Z 2114/2212 15013KT P6SM VCSH SCT035 OVC050
                       TEMPO 2114/2116 15013G20KT -RA FM211600
                       16015G22KT P6SM -RA OVC035 FM211900 16015G24KT
                       4SM -RA BR OVC020 FM220400 18014G21KT P6SM
                       -SHRA OVC025=
201411211120 TAF KPAE 211120Z 2112/2212 15008KT P6SM VCSH SCT035 BKN050 OVC080
                       FM211600 16015G22KT P6SM -RA OVC040 FM211900
                       16015G24KT 4SM -RA BR OVC020 FM220400 18014G21KT
                       P6SM -SHRA OVC025=
201411210542 TAF KPAE 210542Z 2106/2206 15010KT P6SM BKN030 OVC050 FM211700
                       16013KT P6SM -RA OVC015 FM220200 16015G25KT
                       4SM -RA BR OVC007=
201411202349 TAF KPAE 202349Z 2100/2124 16008KT P6SM VCSH BKN030 OVC045
                      TEMPO 2100/2104 -SHRA BKN025 OVC045 FM210400
                       15009KT P6SM BKN025 OVC040 FM211500 16014KT
                       6SM -RA BR OVC020=
201411201734 TAF KPAE 201734Z 2018/2118 16013KT P6SM VCSH SCT025 BKN050
                      TEMPO 2018/2022 -SHRA BKN025 BKN050 FM202200
                       17010KT P6SM VCSH SCT030 BKN050
                      TEMPO 2022/2102 -SHRA BKN030 BKN050 FM210200
                       16008KT P6SM BKN030 BKN050=
201411201440 TAF AMD KPAE 201440Z 2015/2112 17013KT P6SM SCT020 SCT040
                      TEMPO 2015/2017 BKN020 BKN040 FM201700 17013KT
                       P6SM SCT020 BKN040 FM202100 16009KT P6SM
                       VCSH BKN025 OVC050=
201411201317 TAF AMD KPAE 201317Z 2013/2112 15013KT P6SM FEW005 SCT015 OVC022
                       TEMPO 2013/2015 FEW005 BKN015 OVC022 FM201500
                       17010KT P6SM BKN022 OVC040 FM202100 16009KT
                       P6SM VCSH BKN025 OVC050=
201411201125 TAF KPAE 201125Z 2012/2112 16009KT P6SM -RA OVC024 FM202100 16009KT
                       P6SM VCSH BKN025 OVC050=
201411201002 TAF AMD KPAE 201002Z 2010/2106 17011G17KT P6SM -RA OVC030 FM201800
                       17008KT P6SM VCSH OVC020 FM210300 17007KT
                       P6SM BKN020 OVC040=
201411200525 TAF KPAE 200525Z 2006/2106 16005KT P6SM OVC100
                      TEMPO 2006/2010 P6SM -RA BKN050 OVC100 FM201000
                       16007KT P6SM -RA OVC040 FM201800 17008KT
                       P6SM VCSH OVC020 FM210300 17007KT P6SM BKN020
                       OVC040=
201411192342 TAF KPAE 192342Z 2000/2024 03004KT P6SM BKN120 OVC160 FM200200
                       12007KT P6SM OVC100 FM200700 18006KT P6SM
                       -RA OVC040 FM201000 17010KT P6SM -RA OVC015
                       FM201800 18010KT P6SM -SHRA BKN030=
201411191738 TAF KPAE 191738Z 1918/2018 VRB03KT P6SM BKN120 OVC160 FM200000
                       14005KT P6SM OVC100 FM200800 15008KT P6SM
                       -RA OVC040 FM201200 17012KT P6SM -RA OVC020=
201411191125 TAF KPAE 191125Z 1912/2012 00000KT P6SM OVC120 FM200600 15008KT
                       P6SM VCSH OVC040 FM201100 17011KT P6SM -RA
                       OVC020=
201411190532 TAF KPAE 190532Z 1906/2006 11004KT P6SM OVC180 FM191200 15005KT
                       P6SM BKN090 OVC200 FM200500 16008KT P6SM
                       OVC050=
201411182332 TAF KPAE 182332Z 1900/1924 VRB03KT P6SM OVC200 FM191200 13004KT
                       P6SM BKN100 OVC150=
201411181720 TAF KPAE 181720Z 1818/1918 VRB03KT P6SM BKN200 FM190000 VRB03KT
                       P6SM BKN150 FM190600 15004KT P6SM BKN100
                       OVC150 FM191200 14005KT P6SM BKN050 OVC080=
201411181127 TAF KPAE 181127Z 1812/1912 36004KT P6SM SKC FM191000 00000KT P6SM
                       BKN100 OVC200=
201411180520 TAF KPAE 180520Z 1806/1906 12003KT P6SM BKN250=
201411172320 TAF KPAE 172320Z 1800/1824 VRB03KT P6SM BKN250 FM180400 12003KT
                       P6SM BKN250=
201411171720 TAF KPAE 171720Z 1718/1818 VRB03KT P6SM SKC FM172100 14004KT P6SM
                       SCT200=
201411171122 TAF KPAE 171122Z 1712/1812 VRB03KT P6SM SCT200=
201411170521 TAF KPAE 170521Z 1706/1806 VRB03KT P6SM SKC FM172000 34005KT P6SM
                       SKC FM180000 VRB03KT P6SM SKC=
201411162320 TAF KPAE 162320Z 1700/1724 36006KT P6SM SKC=
201411161729 TAF KPAE 161729Z 1618/1718 02007KT P6SM SKC=
201411161121 TAF KPAE 161121Z 1612/1712 VRB03KT P6SM SKC=
201411160520 TAF KPAE 160520Z 1606/1706 VRB03KT P6SM SKC=
201411160317 TAF AMD KPAE 160317Z 1603/1624 VRB03KT P6SM SKC=
201411152320 TAF KPAE 152320Z 1600/1624 36006KT P6SM SKC=
201411151725 TAF KPAE 151725Z 1518/1618 02006KT P6SM SKC=
201411151120 TAF KPAE 151120Z 1512/1612 VRB03KT P6SM SKC FM152000 01005KT P6SM
                       SKC FM160000 VRB03KT P6SM SKC=
201411150521 TAF KPAE 150521Z 1506/1606 VRB03KT P6SM SKC FM152000 35005KT P6SM
                       SKC FM160000 VRB03KT P6SM SKC=
201411150307 TAF AMD KPAE 150307Z 1503/1524 VRB03KT P6SM SKC=
201411142320 TAF KPAE 142320Z 1500/1524 02007KT P6SM SKC=
201411141720 TAF KPAE 141720Z 1418/1518 04007KT P6SM SKC=
201411141122 TAF KPAE 141122Z 1412/1512 04005KT P6SM SKC FM141900 34006KT P6SM
                       SKC FM150600 04004KT P6SM SKC=
201411140524 TAF KPAE 140524Z 1406/1506 07005KT P6SM SKC FM141900 34006KT P6SM
                       SKC FM150000 01006KT P6SM SKC=
201411132335 TAF KPAE 132335Z 1400/1424 35005KT P6SM SKC FM140300 08005KT P6SM
                       SKC FM142000 34005KT P6SM SKC=
201411131733 TAF KPAE 131733Z 1318/1418 07007KT P6SM SKC FM132000 02005KT P6SM
                       SKC=
201411131123 TAF KPAE 131123Z 1312/1412 VRB05KT P6SM SCT150 FM132000 01005KT
                       P6SM SCT150 FM140100 VRB03KT P6SM SKC=
201411130527 TAF KPAE 130527Z 1306/1406 07005KT P6SM SKC FM132000 01005KT P6SM
                       FEW150 FM140100 VRB03KT P6SM SKC=
201411130305 KPAE 130305Z 1303/1324 14006KT P6SM SKC FM130600 10006KT P6SM SKC=
201411122320 TAF KPAE 122320Z 1300/1324 10010KT P6SM SKC FM130300 07006KT P6SM
                       SKC=
201411121720 TAF KPAE 121720Z 1218/1318 10010KT P6SM SKC
                      TEMPO 1218/1222 10012G20KT FM130300 07006KT
                       P6SM SKC=
201411121120 TAF KPAE 121120Z 1212/1312 10012G20KT P6SM SKC FM130300 07006KT
                       P6SM SKC=
201411120530 TAF KPAE 120530Z 1206/1306 10016G24KT P6SM SKC=
201411112320 TAF KPAE 112320Z 1200/1224 10015G25KT P6SM SKC FM120600 10010KT
                       P6SM SKC=
201411112238 TAF AMD KPAE 112238Z 1123/1218 10015G25KT P6SM SKC FM120600 10010KT
                       P6SM SKC=
201411111727 TAF KPAE 111727Z 1118/1218 10012G20KT P6SM SKC FM120600 10010KT
                       P6SM SKC=
201411111620 TAF AMD KPAE 111620Z 1116/1212 10010G20KT P6SM SKC FM112000 03014G22KT
                       P6SM SKC FM120600 05008KT P6SM SKC=
201411111125 TAF KPAE 111125Z 1112/1212 03005KT P6SM FEW060 FM111600 07010KT
                       P6SM SKC FM112000 03014G22KT P6SM SKC FM120600
                       05008KT P6SM SKC=
201411110530 TAF KPAE 110530Z 1106/1206 04004KT P6SM SKC FM111600 07010KT P6SM
                       SKC FM112000 03014G22KT P6SM SKC=
201411102342 TAF KPAE 102342Z 1100/1124 36006KT P6SM SKC FM110600 04004KT P6SM
                       SKC FM111800 04008KT P6SM SKC=
201411101732 TAF KPAE 101732Z 1018/1118 03005KT P6SM SCT003
                      TEMPO 1018/1020 BKN003 FM102000 35007KT P6SM
                       SKC FM110900 04004KT P6SM SKC=
201411101637 TAF AMD KPAE 101637Z 1017/1112 36008KT P6SM SCT004
                      TEMPO 1017/1018 1SM BR BKN004 FM101800 35008KT
                       P6SM SKC FM110900 04004KT P6SM SKC=
201411101420 TAF AMD KPAE 101420Z 1014/1112 35008KT 4SM BR OVC001
                      TEMPO 1015/1017 1SM BR FM101700 35008KT 5SM
                       BR SCT001 FM101800 35008KT P6SM SKC FM110900
                       04004KT P6SM SKC=
201411101130 TAF KPAE 101130Z 1012/1112 02004KT P6SM FEW005 OVC017
                      TEMPO 1012/1016 BKN005 OVC017 FM101700 36004KT
                       P6SM SKC FM110900 04004KT P6SM SKC=
201411100530 TAF KPAE 100530Z 1006/1106 32008KT P6SM BKN030 FM100800 36005KT
                       P6SM SCT030 SCT060 FM101200 36003KT P6SM
                       SCT002
                      TEMPO 1014/1016 BKN002 FM101700 36004KT P6SM
                       SKC=
201411092320 TAF KPAE 092320Z 1000/1024 33005KT P6SM SCT025 SCT035 BKN045
                      TEMPO 1000/1002 5SM -SHRA BKN025 BKN035 OVC045
                       FM100200 36005KT P6SM SCT020 SCT040 FM101800
                       35005KT P6SM FEW035=
201411092121 TAF AMD KPAE 092121Z 0921/1018 29006KT P6SM VCSH SCT012 BKN035
                       TEMPO 0921/0923 3SM -SHRA BR FEW004 BKN009
                       OVC035 FM092300 34007KT P6SM SCT040 FM100400
                       36004KT P6SM SCT060=
201411091914 TAF AMD KPAE 091914Z 0919/1018 17007KT P6SM SCT012 BKN027 OVC060
                       TEMPO 0919/0921 2SM -SHRA OVC012 FM092100
                       32008KT P6SM VCSH BKN030 FM092300 34007KT
                       P6SM SCT040 FM100400 36004KT P6SM SCT060=
201411091821 TAF AMD KPAE 091821Z 0918/1018 20006KT 4SM -SHRA BR BKN006 OVC012
                       TEMPO 0919/0921 2SM -SHRA OVC006 FM092100
                       32008KT P6SM VCSH BKN030 FM092300 34007KT
                       P6SM SCT040 FM100400 36004KT P6SM SCT060=
201411091803 TAF AMD KPAE 091803Z 0918/1018 21008KT P6SM VCSH BKN007 OVC012
                       TEMPO 0918/0920 3SM -RA BR OVC006 FM092000
                       32008KT P6SM VCSH BKN030 FM092300 34007KT
                       P6SM SCT040 FM100400 36004KT P6SM SCT060=
201411091740 TAF KPAE 091740Z 0918/1018 18009KT P6SM OVC007 FM092000 32008KT
                       P6SM VCSH BKN030 FM092300 34007KT P6SM SCT040
                       FM100400 36004KT P6SM SCT060=
201411091525 TAF AMD KPAE 091525Z 0915/1012 15016G23KT P6SM -RA OVC014 FM091700
                       18010KT P6SM -SHRA BKN015 BKN030 FM092000
                       32008KT P6SM VCSH BKN030 FM100400 36004KT
                       P6SM SCT060 BKN120=
201411091135 TAF KPAE 091135Z 0912/1012 17008KT P6SM -RA OVC060 FM091300 17012KT
                       P6SM -RA OVC015 FM091500 18012KT P6SM -SHRA
                       BKN012 BKN025 FM092000 32008KT P6SM VCSH
                       BKN030 FM100400 36004KT P6SM SCT060 BKN120=
201411090520 TAF KPAE 090520Z 0906/1006 35003KT P6SM BKN160 FM090800 14006KT
                       P6SM OVC100 FM091000 17008KT P6SM OVC050
                       FM091200 17012KT P6SM -RA OVC015 FM091500
                       18012KT P6SM -SHRA BKN012 BKN025 FM092000
                       32008KT P6SM VCSH BKN030=
201411082320 TAF KPAE 082320Z 0900/0924 33003KT P6SM BKN120 OVC220 FM090700
                       14006KT P6SM OVC100 FM091000 17008KT P6SM
                       OVC050 FM091200 17012KT P6SM -RA OVC015
                       FM091500 18012KT P6SM -SHRA BKN012 BKN025
                       FM092000 32008KT P6SM VCSH BKN030=
201411081731 TAF KPAE 081731Z 0818/0918 06003KT P6SM SKC FM082000 36002KT P6SM
                       BKN250 FM090900 14006KT P6SM OVC100 FM091200
                       17012KT P6SM -RA OVC015 FM091500 18012KT
                       P6SM -SHRA BKN012 BKN025=
201411081405 TAF AMD KPAE 081405Z 0814/0912 05003KT P6SM SKC
                      TEMPO 0815/0817 5SM BR SCT001 FM082000 36002KT
                       P6SM BKN250 FM090900 14006KT P6SM OVC100=
201411081130 TAF KPAE 081130Z 0812/0912 00000KT P6SM SCT001 FM081300 05003KT
                       2SM BR BKN001
                      TEMPO 0813/0817 1/4SM FG VV001 FM081800 03003KT
                       3SM BR BKN002 FM082000 36002KT P6SM BKN250
                       FM090900 14006KT P6SM OVC100=
201411080525 TAF KPAE 080525Z 0806/0906 00000KT P6SM SKC FM080800 06003KT 3SM
                       BR SCT004 FM081200 07003KT 1/4SM FG VV001
                       FM081800 02003KT 2SM BR BKN003 FM082000
                       35004KT 6SM BR SCT008 FM082200 34004KT P6SM
                       SCT200=
201411072329 TAF KPAE 072329Z 0800/0824 32003KT P6SM SCT200 FM080300 05003KT
                       P6SM SCT200 FM080800 06003KT 3SM BR SCT004
                       FM081200 07003KT 1/4SM FG VV001 FM081800
                       02003KT 2SM BR BKN003 FM082000 35004KT 6SM
                       BR SCT008 FM082200 34004KT P6SM SCT200=
201411071736 TAF KPAE 071736Z 0718/0818 17004KT P6SM FEW050 SCT200 FM072100
                       34003KT P6SM SCT200 FM080300 05003KT P6SM
                       SCT200 FM080800 06003KT 3SM BR SCT004 FM081200
                       07003KT 1/4SM FG VV001=
201411071414 TAF AMD KPAE 071414Z 0714/0812 00000KT P6SM BKN050 BKN150 FM071800
                       18005KT P6SM SCT045 SCT150 FM072000 34003KT
                       P6SM SCT150=
201411071130 TAF KPAE 071130Z 0712/0812 15004KT P6SM BKN012 BKN045 FM071800
                       18005KT P6SM SCT045 SCT150 FM072000 34003KT
                       P6SM SCT150=
201411070908 TAF AMD KPAE 070908Z 0709/0806 17006KT P6SM SCT045 BKN060 FM071000
                       15004KT P6SM BKN012 BKN040 FM071800 18005KT
                       P6SM SCT040 SCT150 FM072000 34003KT P6SM
                       SCT150=
201411070540 TAF KPAE 070540Z 0706/0806 17006KT P6SM SCT045 BKN060 FM071000
                       15004KT 2SM BR BKN004 BKN030 FM071800 18005KT
                       P6SM SCT040 SCT150 FM072000 34003KT P6SM
                       SCT150=
201411070327 TAF AMD KPAE 070327Z 0703/0724 19010KT P6SM SHRA BKN020 OVC030
                       FM070500 17005KT P6SM -SHRA BKN030 FM070600
                       VRB04KT P6SM BKN030 FM071000 VRB04KT 2SM
                       BR BKN004 BKN030 FM071900 35005KT P6SM SCT040
                       SCT150=
201411070208 TAF AMD KPAE 070208Z 0702/0724 22013KT P6SM -SHRA SCT030 OVC060
                       TEMPO 0702/0704 22013G23KT 5SM SHRA OVC030
                       FM070400 33010KT P6SM -SHRA SCT015 OVC030
                       FM070600 VRB04KT P6SM BKN030 FM071000 VRB04KT
                       2SM BR BKN004 BKN030 FM071900 35005KT P6SM
                       SCT040 SCT150=
201411062338 TAF KPAE 062338Z 0700/0724 18025G35KT P6SM -SHRA SCT020 BKN030
                       BKN080
                      TEMPO 0700/0703 BKN020 FM070300 33010KT P6SM
                       BKN030 BKN080 FM070600 VRB04KT P6SM BKN030
                       FM071000 VRB04KT 2SM BR BKN004 BKN030 FM071900
                       35005KT P6SM SCT040 SCT150=
201411061727 TAF KPAE 061727Z 0618/0718 18025G35KT P6SM -SHRA SCT020 BKN050
                       BKN070 FM070100 33010KT P6SM SCT030 BKN050
                       BKN100 FM070600 VRB04KT P6SM BKN040 FM071300
                       VRB04KT 2SM BR BKN004 BKN040=
201411061124 TAF KPAE 061124Z 0612/0712 15010KT P6SM FEW045 OVC060 FM061600
                       18015G25KT 4SM -RA BKN015 OVC035 FM062000
                       18022G34KT P6SM -SHRA BKN025 OVC040 FM070100
                       19012KT P6SM BKN030 OVC050=
201411060535 TAF KPAE 060535Z 0606/0706 15008KT P6SM -RA OVC060 FM061500 18015G25KT
                       4SM -RA BKN015 OVC035 FM062000 18022G32KT
                       P6SM -SHRA BKN025 OVC040 FM070100 19012KT
                       P6SM BKN030 OVC050=
201411060202 TAF AMD KPAE 060202Z 0602/0624 15009KT 5SM BR SCT003 BKN030 OVC070
                       TEMPO 0602/0604 2SM -RA BR BKN003 OVC030
                       FM060600 16012KT P6SM -RA BKN015 OVC025
                       FM061500 18015G25KT 4SM -SHRA SCT007 BKN025
                       FM061800 18020G30KT P6SM -SHRA BKN025 FM062100
                       30010KT P6SM VCSH BKN030=
201411060017 TAF AMD KPAE 060017Z 0600/0624 14010KT P6SM -RA BKN025 OVC060
                      TEMPO 0600/0604 4SM -RA BR FM060600 16012KT
                       P6SM -RA BKN015 OVC025 FM061500 18015G25KT
                       4SM -SHRA SCT007 BKN025 FM061800 18020G30KT
                       P6SM -SHRA BKN025 FM062100 30010KT P6SM
                       VCSH BKN030=
201411052320 TAF KPAE 052320Z 0600/0624 14010KT P6SM -RA BKN025 OVC060 FM060600
                       16012KT P6SM -RA BKN015 OVC025 FM061500
                       18015G25KT 4SM -SHRA SCT007 BKN025 FM061800
                       18020G30KT P6SM -SHRA BKN025 FM062100 30010KT
                       P6SM VCSH BKN030=
201411051730 TAF KPAE 051730Z 0518/0618 15007KT P6SM BKN030 OVC070 FM052100
                       14010KT P6SM -RA BKN030 OVC060 FM060600
                       16012KT P6SM -RA BKN015 OVC030 FM061500
                       18015G25KT P6SM -SHRA BKN030=
201411051352 TAF AMD KPAE 051352Z 0514/0612 15006KT P6SM SCT040 OVC080 FM051600
                       13007KT P6SM BKN040 OVC060 FM051800 13007KT
                       P6SM SCT035 OVC070 FM052300 14008KT P6SM
                       -RA BKN035 OVC060 FM060600 16012KT P6SM
                       -RA BKN015 OVC030=
201411051135 TAF KPAE 051135Z 0512/0612 15006KT P6SM BKN015 OVC090
                      TEMPO 0514/0518 SCT015 BKN090 OVC150 FM051800
                       13007KT P6SM SCT035 OVC070 FM052300 14008KT
                       P6SM -RA BKN035 OVC060 FM060600 16012KT
                       P6SM -RA BKN015 OVC030=
201411050902 TAF AMD KPAE 050902Z 0509/0606 VRB05KT P6SM FEW012 SCT120 BKN180
                       TEMPO 0509/0513 5SM BR BKN012 OVC120 FM051800
                       15007KT P6SM SCT030 OVC070=
201411050520 TAF KPAE 050520Z 0506/0606 11004KT P6SM OVC035 FM050900 14004KT
                       P6SM OVC020 FM051100 16007KT 2SM BR BKN004
                       OVC012 FM051800 15007KT P6SM SCT030 OVC070=
201411050134 TAF AMD KPAE 050134Z 0502/0524 VRB03KT P6SM VCSH OVC035
                      TEMPO 0502/0504 -SHRA OVC028 FM050700 14004KT
                       P6SM OVC020 FM051100 16007KT 2SM BR BKN004
                       OVC012 FM051800 15007KT P6SM SCT030 OVC070=
201411042326 TAF KPAE 042326Z 0500/0524 VRB04KT P6SM VCSH BKN040 BKN070
                      TEMPO 0500/0504 -SHRA SCT025 OVC030 FM050700
                       14004KT P6SM OVC020 FM051100 16007KT 2SM
                       BR BKN004 OVC012 FM051800 15007KT P6SM SCT030
                       OVC070=
201411041859 TAF AMD KPAE 041859Z 0419/0518 32008KT 6SM -SHRA SCT010 BKN015
                       OVC030
                      TEMPO 0419/0421 2SM -SHRA BKN003 OVC012 FM042100
                       33004KT P6SM VCSH BKN020 BKN030 FM050700
                       33004KT P6SM OVC018=
201411041825 TAF AMD KPAE 041825Z 0418/0518 20010KT 6SM -SHRA BR SCT010 BKN015
                       OVC030
                      TEMPO 0418/0422 2SM -SHRA BKN005 OVC012 FM042300
                       33004KT P6SM VCSH BKN020 BKN030 FM050700
                       33004KT P6SM OVC018=
201411041726 TAF KPAE 041726Z 0418/0518 17015G25KT 6SM -SHRA BR SCT010 BKN015
                       OVC030
                      TEMPO 0418/0422 4SM -SHRA BKN008 FM042300
                       33004KT P6SM VCSH BKN020 BKN030 FM050700
                       33004KT P6SM OVC018=
201411041434 TAF AMD KPAE 041434Z 0415/0512 17015G25KT P6SM SCT010 BKN045 OVC060
                       TEMPO 0415/0418 -SHRA BKN008 OVC045 FM041800
                       21010KT P6SM -SHRA BKN020 OVC035 FM042300
                       33004KT P6SM BKN035=
201411041259 TAF AMD KPAE 041259Z 0413/0512 17015G25KT P6SM SCT010 BKN045 OVC060
                       TEMPO 0413/0415 -SHRA BKN008 OVC045 FM041800
                       21010KT P6SM -SHRA BKN020 OVC035 FM042300
                       33004KT P6SM BKN035=
201411041120 TAF KPAE 041120Z 0412/0512 17012G20KT P6SM SCT015 BKN045 OVC060
                       TEMPO 0412/0414 -SHRA BKN015 OVC045 FM041800
                       21010KT P6SM -SHRA BKN020 OVC035 FM042300
                       33004KT P6SM BKN035=
201411040520 TAF KPAE 040520Z 0406/0506 15016KT P6SM SCT020 OVC045
                      TEMPO 0406/0410 5SM -RA BR BKN020 OVC040
                       FM041000 18015G25KT 5SM -RA BR BKN015 OVC025
                       FM041400 21010G20KT P6SM VCSH SCT015 OVC020
                       FM041800 21010KT P6SM -SHRA BKN025 FM042300
                       33004KT P6SM BKN035=
201411040409 TAF AMD KPAE 040409Z 0404/0424 16015G25KT P6SM -RA SCT015 OVC050
                       TEMPO 0404/0408 5SM -RA BR BKN015 OVC040
                       FM040800 18015G25KT 5SM -RA BR BKN015 OVC025
                       FM041400 21010G20KT P6SM VCSH SCT015 OVC020
                       FM041800 21010KT P6SM VCSH BKN025=
201411040220 TAF AMD KPAE 040220Z 0402/0424 17015KT P6SM -RA SCT009 OVC050
                      TEMPO 0402/0404 17013G22KT SCT009 BKN030
                       OVC050 FM040400 17015G25KT 4SM -RA BR BKN007
                       OVC020 FM041000 18015G25KT 3SM -RA BR BKN005
                       OVC015 FM041400 21010G20KT P6SM VCSH SCT015
                       OVC020 FM041800 21010KT P6SM VCSH BKN025=
201411032335 TAF KPAE 032335Z 0400/0424 17012G22KT P6SM -RA SCT007 BKN015 OVC040
                       TEMPO 0400/0404 BKN007 FM040400 17015G25KT
                       4SM -RA BR BKN007 OVC020 FM041000 18015G25KT
                       3SM -RA BR BKN005 OVC015 FM041400 21010G20KT
                       P6SM VCSH SCT015 OVC020 FM041800 21010KT
                       P6SM VCSH BKN025=
201411031724 TAF KPAE 031724Z 0318/0418 17012G22KT P6SM -RA SCT020 BKN030 OVC070
                       FM031900 17012G22KT P6SM -RA SCT020 OVC040
                       FM040100 17015G25KT P6SM -RA SCT020 OVC035
                       FM040800 17015G25KT P6SM -RA SCT010 OVC020
                       FM041400 20010KT P6SM SCT015 OVC025=
201411031421 TAF AMD KPAE 031421Z 0314/0412 17012KT P6SM SCT007 BKN017 OVC030
                       FM031600 17010KT P6SM -RA SCT020 OVC030
                       FM031900 17010KT P6SM -RA SCT020 OVC040
                       FM040100 17015G25KT P6SM -RA SCT020 OVC035
                       FM040800 17015G25KT P6SM -RA SCT010 OVC020=
201411031136 TAF KPAE 031136Z 0312/0412 17010KT P6SM OVC004 FM031600 17010KT
                       P6SM -RA SCT006 BKN011 OVC020 FM031900 17010KT
                       P6SM -RA SCT020 OVC035 FM040100 17015G25KT
                       P6SM -RA SCT020 OVC035 FM040800 17015G25KT
                       P6SM -RA SCT010 OVC020=
201411030536 TAF KPAE 030536Z 0306/0406 17010KT P6SM OVC007 FM031600 17010KT
                       P6SM -RA SCT007 OVC011 FM032100 17015G25KT
                       P6SM -RA SCT007 OVC011=
201411022328 TAF KPAE 022328Z 0300/0324 15008KT P6SM -RA BKN024 OVC070 FM030400
                       16007KT P6SM OVC012 FM031600 16010KT 4SM
                       -RA BR OVC015 FM032000 17016G23KT 4SM -RA
                       BR OVC007=
201411021724 TAF KPAE 021724Z 0218/0318 18008KT P6SM BKN009 OVC070 FM021900
                       16013KT P6SM SCT010 OVC040 FM022200 16010KT
                       P6SM -RA OVC007 FM030400 17010KT P6SM VCSH
                       OVC015=
201411021436 KPAE 021436Z 0215/0312 18007KT P6SM SCT006 BKN060
                      TEMPO 0215/0217 BKN006 OVC060 FM021700 16010KT
                       P6SM FEW008 BKN020 OVC040 FM022100 17011KT
                       P6SM -RA OVC015 FM030600 14005KT P6SM OVC012=
201411021120 TAF KPAE 021120Z 0212/0312 18007KT P6SM FEW002 SCT030 BKN050
                      TEMPO 0212/0214 4SM BR BKN002 BKN030 OVC050
                       FM021400 15008KT P6SM FEW008 BKN020 OVC040
                       FM022100 17011KT P6SM -RA OVC015 FM030600
                       14005KT P6SM OVC012=
201411021024 TAF AMD KPAE 021024Z 0210/0306 17006KT 5SM BR SCT002 BKN050
                      TEMPO 0210/0214 3SM BR BKN002 OVC050 FM021400
                       15008KT P6SM FEW008 BKN020 OVC040 FM022100
                       17011KT P6SM -RA OVC015=
201411021003 KPAE 021003Z 0210/0306 16005KT 4SM BR BKN002 OVC040 FM021700 15008KT
                       P6SM FEW008 BKN025 OVC040 FM022100 17011KT
                       P6SM -RA OVC015=
201411020520 TAF KPAE 020520Z 0206/0306 16005KT P6SM SCT015 BKN035 OVC050
                      TEMPO 0206/0210 BKN015 OVC035 FM021000 17006KT
                       P6SM BKN015 OVC030 FM022100 17011KT P6SM
                       -RA OVC015=
201411012326 TAF KPAE 012326Z 0200/0224 00000KT P6SM OVC025 FM020700 17006KT
                       2SM BR OVC007 FM022100 17011KT P6SM -RA
                       OVC015=
201411012202 KPAE 012202Z 0122/0218 03003KT P6SM BKN026 BKN030 FM020000 33003KT
                       P6SM SCT035 FM020300 00000KT 4SM BR OVC003
                       FM021200 17005KT 1/2SM FG OVC003=
201411011727 TAF KPAE 011727Z 0118/0218 02006KT 1/4SM FG VV001 FM011900 34004KT
                       2SM BR OVC001 FM012000 34004KT 2SM BR OVC003
                       FM012100 34003KT 6SM BR OVC003 FM020000
                       33003KT P6SM SCT007 FM020300 00000KT 4SM
                       BR OVC003 FM021200 17005KT 1/2SM FG OVC003=
201411011317 TAF AMD KPAE 011317Z 0113/0212 01003KT 2SM BR BKN002
                      TEMPO 0113/0116 1/4SM BCFG VV001 FM011700
                       VRB03KT 3SM BR BKN005 FM011900 21005KT P6SM
                       BKN010 FM012100 21005KT P6SM SCT015 FM020300
                       18006KT P6SM BKN015 FM021000 16007KT P6SM
                       OVC015=
201411011120 TAF KPAE 011120Z 0112/0212 VRB03KT 2SM BR BKN002
                      TEMPO 0112/0115 1/4SM FG VV001 FM011700 VRB03KT
                       3SM BR BKN005 FM011900 21005KT P6SM BKN010
                       FM012100 21005KT P6SM SCT015 FM020300 18006KT
                       P6SM BKN015 FM021000 16007KT P6SM OVC015=
201411011029 TAF AMD KPAE 011029Z 0110/0206 VRB03KT 2SM BR BKN002
                      TEMPO 0110/0114 1/2SM FG VV002 FM011700 VRB03KT
                       3SM BR BKN005 BKN060 FM011900 21005KT P6SM
                       BKN010 FM012100 21005KT P6SM SCT020 FM020300
                       18006KT P6SM OVC020=
201411010702 TAF AMD KPAE 010702Z 0107/0206 00000KT 3SM BR SCT006 SCT080
                      TEMPO 0107/0110 1SM BR BKN006 FM011100 01002KT
                       1SM BR BKN005 FM011800 34003KT P6SM SCT010
                       BKN250 FM012100 35002KT P6SM BKN250=
201411010520 TAF KPAE 010520Z 0106/0206 00000KT P6SM VCSH SCT010 BKN080
                      TEMPO 0106/0108 5SM BR BKN010 FM010800 01002KT
                       4SM BR BKN005 FM011800 34003KT P6SM SCT010
                       BKN250 FM012100 35002KT P6SM BKN250=
201411010400 TAF AMD KPAE 010400Z 0104/0124 00000KT P6SM VCSH SCT010 BKN080
                       TEMPO 0105/0108 5SM BR BKN010 FM010800 01002KT
                       4SM BR BKN005 FM011800 34003KT P6SM SCT010
                       BKN250 FM012100 35002KT P6SM BKN250=