##########################################################
# Query made at 02/15/2025 20:52:44 UTC
# Time interval: from 02/01/2014 00:00  to 02/28/2014 23:59  UTC
##########################################################

##########################################################
# KPAE, Everett, Snohomish County Airport (United States)
# WMO index: -----. WIGOS ID: Unknown
# Latitude 47-55-23N. Longitude 122-16-57W. Altitude 184 m.
##########################################################

###################################
#  METAR/SPECI from KPAE
###################################
201402282353 METAR KPAE 282353Z 33008KT 10SM CLR 11/00 A2955 RMK AO2 SLP008 T01110000 10111 20078 56019=
201402282253 METAR KPAE 282253Z 34009KT 10SM CLR 11/02 A2957 RMK AO2 SLP013 T01060017=
201402282153 METAR KPAE 282153Z 34009KT 10SM CLR 10/03 A2958 RMK AO2 SLP018 T01000033=
201402282053 METAR KPAE 282053Z 35007KT 10SM CLR 10/04 A2961 RMK AO2 SLP027 T01000044 58015=
201402281953 METAR KPAE 281953Z 35006KT 10SM CLR 09/04 A2963 RMK AO2 SLP035 T00890044=
201402281853 METAR KPAE 281853Z 36008KT 10SM CLR 08/04 A2965 RMK AO2 SLP041 T00830044=
201402281753 METAR KPAE 281753Z 01005KT 10SM SCT003 08/04 A2965 RMK AO2 SLP043 T00780044 10078 20044 56004=
201402281723 SPECI KPAE 281723Z VRB06KT 10SM SCT003 07/05 A2966 RMK AO2 T00670050=
201402281653 METAR KPAE 281653Z 35005KT 10SM BKN002 06/05 A2965 RMK AO2 SLP044 T00560050=
201402281621 SPECI KPAE 281621Z 34004KT M1/4SM R16R/3000VP6000FT FG VV001 06/04 A2966 RMK AO2 T00560044=
201402281617 SPECI KPAE 281617Z 34005KT 5SM R16R/3000VP6000FT BR OVC001 06/05 A2966 RMK AO2 T00560050=
201402281603 SPECI KPAE 281603Z 02005KT 6SM R16R/4000VP6000FT BR SCT001 05/04 A2965 RMK AO2 T00500044=
201402281553 METAR KPAE 281553Z 03005KT 2SM R16R/1400V6000FT BR BKN001 05/04 A2965 RMK AO2 VIS 1 1/2V3 SLP044 T00500044=
201402281549 SPECI KPAE 281549Z 02004KT 1SM R16R/1400V4000FT BR BKN001 05/04 A2965 RMK AO2=
201402281540 SPECI KPAE 281540Z 02005KT M1/4SM R16R/1200V1800FT FG VV001 05/04 A2965 RMK AO2 T00500044=
201402281514 SPECI KPAE 281514Z 36005KT M1/4SM R16R/1600VP6000FT FG VV001 05/04 A2966 RMK AO2 T00500044 $=
201402281508 SPECI KPAE 281508Z 36005KT 1/2SM R16R/1600VP6000FT FG VV001 05/04 A2966 RMK AO2 T00500044=
201402281505 SPECI KPAE 281505Z 36005KT 1 1/4SM R16R/4000VP6000FT BR FEW001 05/04 A2966 RMK AO2 T00500039=
201402281500 SPECI KPAE 281500Z 36006KT 7SM FEW001 05/04 A2966 RMK AO2 T00500039=
201402281453 METAR KPAE 281453Z 36005KT 6SM BR BKN001 05/04 A2967 RMK AO2 SLP048 T00500039 56011=
201402281434 SPECI KPAE 281434Z AUTO 36005KT 3SM R16R/1800V4000FT BR OVC001 05/04 A2967 RMK AO2 T00500044=
201402281429 SPECI KPAE 281429Z AUTO 36004KT 1SM R16R/1400V2600FT BR OVC001 05/04 A2967 RMK AO2 T00500044=
201402281424 SPECI KPAE 281424Z AUTO 01005KT 3/4SM R16R/1400V2000FT BR VV001 05/04 A2967 RMK AO2 T00500044=
201402281419 SPECI KPAE 281419Z AUTO 01006KT 1 3/4SM R16R/1800V5500FT BR BKN001 05/04 A2967 RMK AO2 T00500044=
201402281413 SPECI KPAE 281413Z AUTO 01006KT 5SM R16R/3000V6000FT BR BKN001 05/04 A2966 RMK AO2 T00500039=
201402281406 SPECI KPAE 281406Z AUTO 01004KT 2 1/2SM R16R/2600VP6000FT BR BKN001 04/04 A2966 RMK AO2 T00440039=
201402281353 METAR KPAE 281353Z AUTO 35003KT 4SM R16R/2000VP6000FT BR BKN001 05/04 A2967 RMK AO2 SLP049 T00500039=
201402281351 SPECI KPAE 281351Z AUTO 00000KT 2 1/2SM R16R/1400VP6000FT BR BKN001 05/04 A2967 RMK AO2=
201402281343 SPECI KPAE 281343Z AUTO 03003KT 1/2SM R16R/1400VP6000FT FG VV001 05/04 A2967 RMK AO2 T00500044=
201402281332 SPECI KPAE 281332Z AUTO 01004KT 3/4SM R16R/1400V1600FT BR OVC001 05/04 A2967 RMK AO2 T00500044=
201402281329 SPECI KPAE 281329Z AUTO 01005KT 1 1/2SM R16R/1400V2400FT BR BKN001 05/04 A2968 RMK AO2 VIS 3/4V2 1/2 T00500044=
201402281320 SPECI KPAE 281320Z AUTO 01005KT 4SM R16R/2400VP6000FT BR BKN001 05/04 A2968 RMK AO2 T00500044=
201402281315 SPECI KPAE 281315Z AUTO 01005KT 5SM BR SCT002 05/04 A2968 RMK AO2 T00500039=
201402281253 METAR KPAE 281253Z AUTO 02003KT 6SM BR CLR 05/04 A2968 RMK AO2 SLP054 T00500039=
201402281153 METAR KPAE 281153Z AUTO 00000KT 10SM BKN030 BKN047 06/04 A2970 RMK AO2 SLP059 60000 T00560039 10094 20050 58017=
201402281053 METAR KPAE 281053Z AUTO 04003KT 9SM BKN030 06/04 A2972=
201402280953 METAR KPAE 280953Z AUTO 00000KT 10SM OVC032 07/04 A2974 RMK AO2 RAE0855 SLP074 P0000 T00670044=
201402280936 SPECI KPAE 280936Z AUTO 00000KT 10SM OVC030 07/05 A2975 RMK AO2 RAE0855 P0000 T00670050=
201402280909 SPECI KPAE 280909Z AUTO 00000KT 10SM BKN028 OVC049 07/04 A2975 RMK AO2 RAE0855 P0000 T00670044=
201402280853 METAR KPAE 280853Z AUTO 00000KT 10SM -RA OVC049 07/04 A2975 RMK AO2 RAB26 SLP077 P0000 60000 T00670044 55001=
201402280753 METAR KPAE 280753Z AUTO 11005KT 10SM BKN040 OVC070 08/04 A2975 RMK AO2 SLP076 T00780039 400940033=
201402280653 METAR KPAE 280653Z AUTO 00000KT 10SM OVC060 09/03 A2975 RMK AO2 SLP077 T00890033=
201402280553 METAR KPAE 280553Z AUTO 15004KT 10SM OVC037 08/03 A2975 RMK AO2 SLP078 T00830028 10094 20061 53011=
201402280453 METAR KPAE 280453Z AUTO 00000KT 10SM FEW034 SCT050 08/03 A2974 RMK AO2 SLP072 T00780028=
201402280353 METAR KPAE 280353Z 11005KT 10SM OVC050 08/03 A2972 RMK AO2 SLP066 T00830028=
201402280253 METAR KPAE 280253Z 11003KT 10SM OVC090 08/03 A2972 RMK AO2 SLP066 T00830033 53003=
201402280153 METAR KPAE 280153Z 11004KT 10SM OVC060 09/03 A2971 RMK AO2 SLP062 T00890033=
201402280053 METAR KPAE 280053Z 00000KT 10SM OVC055 09/03 A2971 RMK AO2 SLP062 T00890028=
201402272353 METAR KPAE 272353Z 23003KT 10SM OVC055 08/03 A2971 RMK AO2 SLP063 T00830028 10083 20050 53003=
201402272253 METAR KPAE 272253Z 26005KT 10SM OVC060 08/03 A2971 RMK AO2 SLP061 T00830028=
201402272153 METAR KPAE 272153Z 24004KT 10SM OVC060 08/03 A2970 RMK AO2 SLP060 T00830033=
201402272053 METAR KPAE 272053Z 25003KT 10SM BKN070 OVC090 08/03 A2970 RMK AO2 SLP060 T00780028 51006=
201402271953 METAR KPAE 271953Z 28004KT 10SM BKN065 07/03 A2970 RMK AO2 SLP060 T00720033=
201402271853 METAR KPAE 271853Z 03004KT 10SM CLR 08/03 A2970 RMK AO2 SLP058 T00780028=
201402271753 METAR KPAE 271753Z VRB03KT 10SM CLR 05/02 A2968 RMK AO2 SLP054 T00500017 10056 20033 52013=
201402271653 METAR KPAE 271653Z 01004KT 10SM FEW100 04/01 A2967 RMK AO2 SLP050 T00440011=
201402271553 METAR KPAE 271553Z 02006KT 10SM OVC100 04/01 A2966 RMK AO2 SLP046 T00390011=
201402271453 METAR KPAE 271453Z 01005KT 10SM OVC100 04/02 A2964 RMK AO2 SLP041 T00390017 56006=
201402271353 METAR KPAE 271353Z AUTO 03003KT 10SM OVC100 04/02 A2964 RMK AO2 SLP040 T00390022=
201402271253 METAR KPAE 271253Z AUTO 36005KT 9SM SCT100 04/02 A2965=
201402271153 METAR KPAE 271153Z AUTO 35004KT 5SM BR BKN100 04/03 A2966 RMK AO2 SLP046 T00390028 10061 20039 56012=
201402271053 METAR KPAE 271053Z AUTO 01005KT 8SM BKN100 04/03 A2967 RMK AO2 SLP048 T00440028=
201402270953 METAR KPAE 270953Z AUTO 02003KT 10SM CLR 04/02 A2968 RMK AO2 SLP053 T00390022=
201402270853 METAR KPAE 270853Z AUTO 02005KT 10SM BKN100 05/02 A2970 RMK AO2 SLP059 T00500017 58018=
201402270753 METAR KPAE 270753Z AUTO 02004KT 10SM BKN110 05/02 A2972 RMK AO2 SLP065 T00500017 401220028=
201402270653 METAR KPAE 270653Z AUTO 03006KT 10SM BKN110 06/02 A2974 RMK AO2 SLP071 T00560022=
201402270553 METAR KPAE 270553Z AUTO 02003KT 10SM BKN120 07/02 A2975 RMK AO2 SLP077 T00670022 10117 20061 56008=
201402270453 METAR KPAE 270453Z AUTO 01003KT 10SM OVC120 06/02 A2976 RMK AO2 SLP082 T00610022=
201402270353 METAR KPAE 270353Z 36005KT 10SM BKN120 06/02 A2977 RMK AO2 SLP083 T00610022=
201402270253 METAR KPAE 270253Z 00000KT 10SM SCT120 07/02 A2978 RMK AO2 SLP087 T00720022 56014=
201402270153 METAR KPAE 270153Z COR 01003KT 10SM CLR 08/02 A2979 RMK AO2 SLP089 T00830022=
201402270053 METAR KPAE 270053Z 26004KT 10SM CLR 11/02 A2980 RMK AO2 SLP094 T01060017=
201402262353 METAR KPAE 262353Z 25006KT 10SM CLR 11/01 A2982 RMK AO2 SLP100 T01060011 10122 20067 56016=
201402262253 METAR KPAE 262253Z VRB03KT 10SM CLR 12/03 A2983 RMK AO2 SLP101 T01170028=
201402262153 METAR KPAE 262153Z 30005KT 10SM CLR 11/02 A2985 RMK AO2 SLP110 T01060022=
201402262053 METAR KPAE 262053Z 35004KT 10SM CLR 11/02 A2987 RMK AO2 SLP116 T01060017 58009=
201402261953 METAR KPAE 261953Z VRB03KT 10SM CLR 09/03 A2989 RMK AO2 SLP125 T00890028=
201402261853 METAR KPAE 261853Z VRB03KT 10SM CLR 09/02 A2990 RMK AO2 SLP127 T00940017=
201402261753 METAR KPAE 261753Z 04003KT 10SM CLR 07/02 A2989 RMK AO2 SLP125 T00670017 10067 20028 58004=
201402261653 METAR KPAE 261653Z 01004KT 10SM CLR 04/02 A2991 RMK AO2 SLP131 T00440017=
201402261553 METAR KPAE 261553Z 03004KT 10SM CLR 04/02 A2991 RMK AO2 SLP132 T00390017=
201402261453 METAR KPAE 261453Z 03004KT 10SM CLR 04/00 A2991 RMK AO2 SLP131 T00390000 58015=
201402261353 METAR KPAE 261353Z AUTO 06004KT 10SM CLR 05/M01 A2992 RMK AO2 SLP137 T00501006=
201402261253 METAR KPAE 261253Z AUTO VRB03KT 10SM CLR 04/M01 A2994 RMK AO2 SLP142 T00441006=
201402261153 METAR KPAE 261153Z AUTO 07005KT 10SM CLR 06/M02 A2995 RMK AO2 SLP145 T00561022 10067 20028 58014=
201402261053 METAR KPAE 261053Z AUTO 09004KT 10SM CLR 06/M02 A2997 RMK AO2 SLP151 T00561022=
201402260953 METAR KPAE 260953Z AUTO 11006KT 10SM CLR 04/M01 A2999 RMK AO2 SLP158 T00441006=
201402260853 METAR KPAE 260853Z AUTO 06003KT 10SM CLR 06/M02 A2999 RMK AO2 SLP159 T00611017 56007=
201402260753 METAR KPAE 260753Z AUTO 01003KT 10SM CLR 03/01 A3000=
201402260653 METAR KPAE 260653Z AUTO 36003KT 10SM CLR 03/00 A3001 RMK AO2 SLP165 T00330000=
201402260553 METAR KPAE 260553Z AUTO 00000KT 10SM CLR 05/00 A3001 RMK AO2 SLP167 T00500000 10078 20039 56009=
201402260453 METAR KPAE 260453Z AUTO 02006KT 10SM CLR 04/01 A3002 RMK AO2 SLP170 T00390011=
201402260353 METAR KPAE 260353Z 03003KT 10SM CLR 04/01 A3003 RMK AO2 SLP173 T00440006=
201402260253 METAR KPAE 260253Z 03005KT 10SM CLR 05/01 A3004 RMK AO2 SLP178 T00500006 56007=
201402260153 METAR KPAE 260153Z 01007KT 10SM CLR 06/00 A3005 RMK AO2 SLP179 T00560000=
201402260053 METAR KPAE 260053Z 01006KT 10SM CLR 06/02 A3005 RMK AO2 SLP181 T00610017=
201402252353 METAR KPAE 252353Z 36008KT 10SM CLR 08/02 A3006 RMK AO2 SLP184 T00780022 10083 20033 56014=
201402252253 METAR KPAE 252253Z 35006KT 10SM CLR 08/03 A3008 RMK AO2 SLP189 T00780028=
201402252153 METAR KPAE 252153Z 35005KT 10SM CLR 07/03 A3009=
201402252053 METAR KPAE 252053Z 35008KT 10SM CLR 07/02 A3010 RMK AO2 SLP198 T00670022 58010=
201402251953 METAR KPAE 251953Z 36007KT 10SM CLR 06/03 A3012 RMK AO2 SLP203 T00560028=
201402251853 METAR KPAE 251853Z 02005KT 10SM CLR 04/02 A3012 RMK AO2 SLP206 T00440017=
201402251753 METAR KPAE 251753Z 03005KT 10SM FEW003 SCT028 03/02 A3013 RMK AO2 SLP209 T00330017 10033 20017 50004=
201402251653 METAR KPAE 251653Z 01005KT 10SM R16R/6000VP6000FT FEW003 03/02 A3014 RMK AO2 SLP210 T00280017=
201402251553 METAR KPAE 251553Z 01006KT 10SM FEW004 02/01 A3013 RMK AO2 SLP208 T00220011=
201402251453 METAR KPAE 251453Z 01008KT 10SM FEW002 02/01 A3012 RMK AO2 SLP204 T00220011 58005=
201402251427 SPECI KPAE 251427Z AUTO 36006KT 10SM BKN003 02/01 A3012 RMK AO2 T00220011=
201402251400 SPECI KPAE 251400Z AUTO 36006KT 10SM SCT004 OVC033 02/01 A3013 RMK AO2 T00220011=
201402251353 METAR KPAE 251353Z AUTO 01006KT 10SM OVC033 02/01 A3013 RMK AO2 SLP207 T00220011=
201402251253 METAR KPAE 251253Z AUTO 36007KT 10SM SCT003 BKN033 OVC043 02/02 A3013 RMK AO2 SLP207 T00220017=
201402251225 SPECI KPAE 251225Z AUTO 36006KT 9SM OVC002 02/02 A3013 RMK AO2 T00220017=
201402251153 METAR KPAE 251153Z AUTO 35006KT 6SM BR OVC001 02/02 A3013 RMK AO2 SLP209 60002 70035 T00220017 10028 20022 55000=
201402251148 SPECI KPAE 251148Z AUTO 35004KT 6SM BR OVC001 02/02 A3013 RMK AO2=
201402251141 SPECI KPAE 251141Z AUTO 35007KT 2 1/2SM BR OVC001 02/02 A3013 RMK AO2 T00220017=
201402251135 SPECI KPAE 251135Z AUTO 35006KT 3/4SM R16R/4000VP6000FT BR VV001 02/02 A3013 RMK AO2 T00220017=
201402251126 SPECI KPAE 251126Z AUTO 36006KT 1 3/4SM R16R/2200VP6000FT BR OVC001 02/02 A3013 RMK AO2 T00220017=
201402251120 SPECI KPAE 251120Z AUTO 36007KT 3SM R16R/4500VP6000FT BR OVC001 02/02 A3013 RMK AO2 T00220017=
201402251104 SPECI KPAE 251104Z AUTO 36007KT 1 3/4SM R16R/4000VP6000FT BR OVC001 02/02 A3013 RMK AO2 T00220017=
201402251056 SPECI KPAE 251056Z AUTO 36008KT 3SM R16R/2600VP6000FT BR OVC001 02/02 A3013 RMK AO2 T00220017=
201402251053 METAR KPAE 251053Z AUTO 36008KT 1 3/4SM R16R/2200V5500FT BR OVC001 02/02 A3013 RMK AO2 SLP207 T00220017=
201402251041 SPECI KPAE 251041Z AUTO 36005KT 1SM R16R/1800V3000FT BR VV001 02/02 A3013 RMK AO2 T00220017=
201402251006 SPECI KPAE 251006Z AUTO 01006KT 1/2SM R16R/1400V2200FT FG VV001 03/02 A3013 RMK AO2 T00280022=
201402250953 METAR KPAE 250953Z AUTO 01006KT 1 1/2SM R16R/1600V3000FT BR OVC001 03/02 A3013 RMK AO2 SLP209 T00280022=
201402250950 SPECI KPAE 250950Z AUTO 01006KT 1SM R16R/1600V3000FT BR VV001 03/02 A3013 RMK AO2=
201402250949 SPECI KPAE 250949Z AUTO 01006KT 3/4SM R16R/1600V2600FT BR VV001 03/02 A3013 RMK AO2=
201402250919 SPECI KPAE 250919Z AUTO 36006KT 1/4SM R16R/1400V2200FT FG VV001 03/02 A3013 RMK AO2 T00280022=
201402250915 SPECI KPAE 250915Z AUTO 01006KT 1/2SM R16R/1600V2400FT FG VV001 03/02 A3013 RMK AO2 T00280022=
201402250904 SPECI KPAE 250904Z AUTO 01005KT 1/4SM R16R/1400V3000FT FG VV001 03/02 A3013 RMK AO2 T00280022=
201402250853 METAR KPAE 250853Z AUTO 36007KT 1/4SM R16R/1200V1400FT FG VV001 03/02 A3013 RMK AO2 UPB07E13 SLP208 P0000 60002 T00280022 53009=
201402250846 SPECI KPAE 250846Z AUTO 02006KT 1/4SM R16R/1400V1600FT FG VV001 03/02 A3013 RMK AO2 UPB07E13 P0000 T00280022=
201402250831 SPECI KPAE 250831Z AUTO 01004KT 1/4SM R16R/1600V2400FT FG VV001 03/02 A3013 RMK AO2 UPB07E13 P0000 T00280022=
201402250801 SPECI KPAE 250801Z AUTO 02005KT 1/2SM R16R/1600VP6000FT FG VV001 03/02 A3012 RMK AO2 T00280022=
201402250753 METAR KPAE 250753Z AUTO 02005KT 1/4SM R16R/1200V2000FT FG VV001 03/02 A3012 RMK AO2 UPB32E46 SLP204 P0001 T00280022 400440011=
201402250709 SPECI KPAE 250709Z AUTO 01007KT 1/4SM R16R/0800V1200FT FG VV001 03/02 A3012 RMK AO2 T00280022=
201402250653 METAR KPAE 250653Z AUTO 02004KT 1/4SM R16R/2000V4000FT FG VV001 03/02 A3011 RMK AO2 RAE0557B07E46UPB0557E07B46E48 SLP202 P0001 T00280022=
201402250613 SPECI KPAE 250613Z AUTO 01004KT 1/4SM R16R/1400V4000FT -RA FG VV001 03/02 A3011 RMK AO2 RAE0557B07UPB0557E07 P0000 T00280022=
201402250605 SPECI KPAE 250605Z AUTO 02004KT 1/2SM R16R/2400VP6000FT UP FG VV001 03/02 A3011 RMK AO2 RAE0557UPB0557 P0000 T00280022=
201402250553 METAR KPAE 250553Z AUTO 03004KT 1 1/4SM -RA BR OVC002 03/02 A3010 RMK AO2 UPB0455E0457 SLP199 P0001 60007 T00280022 10044 20028 53010=
201402250551 SPECI KPAE 250551Z AUTO 03005KT 1 3/4SM -RA BR BKN002 OVC007 03/02 A3010 RMK AO2 UPB0455E0457 P0001=
201402250534 SPECI KPAE 250534Z AUTO 04005KT 3SM -RA BR BKN004 OVC013 03/02 A3010 RMK AO2 UPB0455E0457 P0000 T00280022=
201402250519 SPECI KPAE 250519Z AUTO 04005KT 5SM -RA BR BKN005 OVC013 03/03 A3009 RMK AO2 UPB0455E0457 CIG 003V009 P0000 T00330028=
201402250500 SPECI KPAE 250500Z AUTO VRB05KT 7SM -RA BKN002 BKN005 OVC012 03/03 A3009 RMK AO2 UPB0455E0457 P0000 T00330028=
201402250453 METAR KPAE 250453Z AUTO 03005KT 3/4SM R16R/2400VP6000FT -RA BR OVC002 03/03 A3009 RMK AO2 SLP193 P0002 T00330028=
201402250450 SPECI KPAE 250450Z 02004KT 3/4SM R16R/1800VP6000FT -RA BR OVC002 03/02 A3009 RMK AO2 P0002=
201402250418 SPECI KPAE 250418Z 01006KT 3/4SM R16R/1200V1400FT -RA BR OVC002 03/02 A3008 RMK AO2 P0001 T00280022=
201402250400 SPECI KPAE 250400Z 01006KT 3/4SM R16R/2600VP6000FT -RA BR BKN002 OVC012 03/02 A3007 RMK AO2 P0000 T00280022=
201402250356 SPECI KPAE 250356Z 02005KT 1 1/4SM R16R/5500VP6000FT -RA BR OVC002 03/02 A3007 RMK AO2 P0000 T00280022=
201402250353 METAR KPAE 250353Z 01005KT 2 1/2SM -RA BR BKN002 OVC012 03/02 A3007 RMK AO2 SLP189 P0002 T00330022=
201402250258 SPECI KPAE 250258Z 05004KT 3SM -RA BR BKN002 OVC006 03/03 A3007 RMK AO2 P0000 T00330028=
201402250253 METAR KPAE 250253Z 02005KT 1 1/2SM -RA BR BKN002 OVC006 03/03 A3007 RMK AO2 RAB52 SLP187 P0000 60002 T00330028 52008=
201402250157 SPECI KPAE 250157Z 02005KT 1 1/2SM R16R/6000VP6000FT BR OVC002 03/03 A3006 RMK AO2 T00330028=
201402250153 METAR KPAE 250153Z 00000KT 3SM R16R/6000VP6000FT BR BKN004 OVC014 03/03 A3006 RMK AO2 RAE07B28E38 SLP185 P0001 T00330028=
201402250105 SPECI KPAE 250105Z 06009KT 3SM -RA BR BKN004 OVC014 04/02 A3005 RMK AO2 P0000 T00390022=
201402250053 METAR KPAE 250053Z 05006KT 4SM -RA BR SCT004 OVC014 04/02 A3005 RMK AO2 RAE00B04 SLP181 P0001 T00390022=
201402250000 SPECI KPAE 250000Z 04005KT 4SM BR BKN004 OVC016 04/03 A3005 RMK AO2 RAE00 P0000 T00390033=
201402242353 METAR KPAE 242353Z 05004KT 2SM -RA BR BKN004 OVC016 04/03 A3005 RMK AO2 RAB08 SLP179 P0001 60018 T00440033 10044 20022 53002=
201402242322 SPECI KPAE 242322Z 05003KT 2SM -RA BR BKN004 BKN012 OVC020 04/03 A3004 RMK AO2 RAB08 P0001 T00440033=
201402242315 SPECI KPAE 242315Z 04003KT 2SM -RA BR SCT005 BKN012 OVC018 04/03 A3004 RMK AO2 RAB08 P0001 T00440033=
201402242253 METAR KPAE 242253Z 08004KT 2SM BR OVC004 04/03 A3004 RMK AO2 RAE46 CIG 001V007 SLP177 P0000 T00440028=
201402242246 SPECI KPAE 242246Z 08004KT 2SM BR OVC004 04/03 A3004 RMK AO2 RAE46 P0000 T00440028=
201402242214 SPECI KPAE 242214Z 36005KT 2SM R16R/1400V6000FT -RA BR OVC001 04/03 A3003 RMK AO2 P0000 T00390033=
201402242153 METAR KPAE 242153Z 03004KT 2SM -RA BR SCT002 BKN004 OVC012 04/03 A3003 RMK AO2 SLP175 P0002 T00390033=
201402242053 METAR KPAE 242053Z 05005KT 2SM -RA BR BKN004 BKN009 OVC032 04/03 A3004 RMK AO2 SLP177 P0005 60015 T00390028 58004=
201402241953 METAR KPAE 241953Z 36004KT 2SM -RA BR OVC002 03/03 A3005 RMK AO2 SLP182 P0005 T00280028=
201402241924 SPECI KPAE 241924Z 01005KT 2SM R16R/5000VP6000FT -RA BR OVC002 03/02 A3005 RMK AO2 P0003 T00280022=
201402241853 METAR KPAE 241853Z 02004KT 4SM -RA BR BKN002 OVC014 03/02 A3006 RMK AO2 SLP182 P0005 T00280022=
201402241800 SPECI KPAE 241800Z 02005KT 4SM -RA BR BKN002 OVC025 02/02 A3005 RMK AO2 P0001 T00220017=
201402241753 METAR KPAE 241753Z 02006KT 2SM -RA BR OVC002 02/02 A3005 RMK AO2 SLP180 P0005 60008 T00220017 10022 20017 50004=
201402241703 SPECI KPAE 241703Z 36005KT 1/4SM R16R/2600VP6000FT -RA FG VV002 02/02 A3005 RMK AO2 P0001 T00220017=
201402241653 METAR KPAE 241653Z COR 36004KT 1/4SM R16R/1200VP6000FT -RA BR VV002 02/02 A3005 RMK AO2 SLP182 P0002 T00170017=
201402241635 SPECI KPAE 241635Z 01004KT 1/4SM R16R/1400V2400FT -RA FG VV002 02/02 A3005 RMK AO2 P0001 T00220017=
201402241553 METAR KPAE 241553Z 36005KT 1/4SM R16R/1200FT -RA FG VV001 02/01 A3005 RMK AO2 UPB1454E04B27E47RAB30 SLP180 P0001 T00170011=
201402241453 METAR KPAE 241453Z 36004KT M1/4SM R16R/1400V2000FT FG VV001 02/01 A3004 RMK AO2 SLP178 T00170011 58003=
201402241400 SPECI KPAE 241400Z AUTO 36006KT 1/4SM R16R/1600V2200FT FG VV001 02/01 A3005 RMK AO2 T00170011=
201402241353 METAR KPAE 241353Z AUTO 35006KT 1/4SM R16R/1800V2400FT FG VV001 02/01 A3004 RMK AO2 SLP180 T00170011=
201402241350 SPECI KPAE 241350Z AUTO 36007KT 1/4SM R16R/1800V2400FT FG VV001 02/01 A3005 RMK AO2=
201402241253 METAR KPAE 241253Z AUTO 35004KT 1/4SM R16R/1200V1600FT FG VV001 02/01 A3005 RMK AO2 SLP180 T00170011=
201402241153 METAR KPAE 241153Z AUTO 35005KT 1/4SM R16R/1200FT FG VV001 02/01 A3005 RMK AO2 SLP179 60002 70032 T00170011 10017 20011 56002=
201402241053 METAR KPAE 241053Z AUTO 35004KT 1/4SM R16R/1200V2000FT FG VV001 02/01 A3005 RMK AO2 SLP180 T00170011=
201402240953 METAR KPAE 240953Z AUTO 35004KT 1/4SM R16R/1200FT FG VV001 02/01 A3005 RMK AO2 SLP180 T00170011=
201402240853 METAR KPAE 240853Z AUTO 34006KT 1/4SM R16R/1600V2000FT FG VV001 02/01 A3005 RMK AO2 SLP181 60002 T00170011 51007=
201402240845 SPECI KPAE 240845Z AUTO 36004KT 1/4SM R16R/1600V2000FT FG VV001 01/01 A3005 RMK AO2 T00110011=
201402240835 SPECI KPAE 240835Z AUTO 35005KT 1/4SM R16R/1400V3500FT FG VV001 02/01 A3005 RMK AO2 T00170011=
201402240821 SPECI KPAE 240821Z AUTO 01003KT 1/4SM R16R/1600V2000FT FG VV001 02/01 A3005 RMK AO2 T00170011=
201402240753 METAR KPAE 240753Z AUTO 34004KT 1/4SM R16R/2000V2600FT FG VV001 01/01 A3005 RMK AO2 UPE06RAB06E15 SLP179 P0000 T00110006 400390011=
201402240735 SPECI KPAE 240735Z AUTO 36004KT 1/4SM R16R/2000V2600FT FG VV001 01/01 A3004 RMK AO2 UPE06RAB06E15 P0000 T00110011=
201402240653 METAR KPAE 240653Z AUTO 36003KT 1/2SM R16R/2200V2800FT UP FG VV002 01/01 A3004 RMK AO2 RAE31UPB45 SLP177 P0002 T00110011=
201402240646 SPECI KPAE 240646Z AUTO 35004KT 3/4SM R16R/2200V3500FT UP BR VV002 01/01 A3004 RMK AO2 RAE31UPB45 P0001 T00110011=
201402240611 SPECI KPAE 240611Z AUTO 36005KT 1SM R16R/3000VP6000FT -RA BR VV002 02/01 A3003 RMK AO2 P0001 T00170011=
201402240553 METAR KPAE 240553Z AUTO 34003KT 3/4SM R16R/3500V5500FT -RA BR VV002 02/01 A3003 RMK AO2 UPB47E50RAB50 SLP174 P0000 60007 T00170011 10028 20011 51012=
201402240550 SPECI KPAE 240550Z AUTO 35003KT 3/4SM R16R/4000V5500FT -RA BR VV002 02/01 A3003 RMK AO2 UPB47E50RAB50 P0000=
201402240527 SPECI KPAE 240527Z AUTO 34003KT 1/2SM R16R/1800V2800FT FG VV001 02/01 A3002 RMK AO2 T00170011=
201402240515 SPECI KPAE 240515Z AUTO 00000KT 3/4SM R16R/2200V4000FT BR VV002 01/01 A3002 RMK AO2 T00110011=
201402240508 SPECI KPAE 240508Z AUTO 34003KT 1SM R16R/3000VP6000FT BR VV002 01/01 A3001 RMK AO2 T00110006=
201402240500 SPECI KPAE 240500Z AUTO 34003KT 2SM R16R/5000VP6000FT BR OVC003 01/01 A3001 RMK AO2 T00110006=
201402240453 METAR KPAE 240453Z AUTO 00000KT 1/2SM R16R/P6000FT FG VV001 01/01 A3000 RMK AO2 SLP165 T00110006=
201402240405 SPECI KPAE 240405Z 33003KT 1/2SM R16R/2000V2400FT FG VV001 01/01 A3000 RMK AO2 T00110011=
201402240353 METAR KPAE 240353Z 31003KT 1/4SM R16R/1800V2000FT FG VV001 01/01 A2999 RMK AO2 SLP161 T00110011=
201402240349 SPECI KPAE 240349Z 33003KT 1/4SM R16R/1800V2200FT FG VV001 01/01 A2999 RMK AO2=
201402240309 SPECI KPAE 240309Z 32003KT 1/2SM R16R/1600VP6000FT FG VV001 02/01 A2999 RMK AO2 T00170011=
201402240300 SPECI KPAE 240300Z 00000KT 1 1/2SM R16R/4500VP6000FT BR OVC002 01/01 A2998 RMK AO2 T00110011=
201402240253 METAR KPAE 240253Z 00000KT 1/2SM R16R/2800VP6000FT FG VV002 01/01 A2998 RMK AO2 RAE04 SLP157 P0001 60007 T00110011 50010=
201402240248 SPECI KPAE 240248Z 00000KT 2 1/2SM R16R/2600V5000FT BR OVC002 01/01 A2998 RMK AO2 RAE04 P0001=
201402240225 SPECI KPAE 240225Z 01003KT 1 3/4SM BR OVC002 02/01 A2997 RMK AO2 VIS 3/4V5 RAE04 P0001 T00170011=
201402240153 METAR KPAE 240153Z 35003KT 3SM -RA BR OVC002 02/01 A2997 RMK AO2 SLP154 P0001 T00170006=
201402240130 SPECI KPAE 240130Z 35004KT 3SM -RA BR OVC002 02/01 A2997 RMK AO2 P0001 T00170011=
201402240053 METAR KPAE 240053Z 36005KT 1SM R16R/P6000FT -RA BR SCT001 OVC003 02/02 A2995 RMK AO2 SLP147 P0005 T00220017=
201402232353 METAR KPAE 232353Z 35004KT 1SM R16R/P6000FT -RA BR SCT001 BKN003 OVC008 03/02 A2995 RMK AO2 SLP146 P0006 60022 T00280022 10039 20028 53001=
201402232331 SPECI KPAE 232331Z 00000KT 2SM -RA BR FEW001 BKN003 OVC011 04/02 A2994 RMK AO2 P0004 T00390022=
201402232253 METAR KPAE 232253Z 21003KT 4SM -RA BR BKN005 OVC011 04/03 A2994=
201402232153 METAR KPAE 232153Z 10005KT 2SM -RA BR BKN003 OVC009 03/03 A2994 RMK AO2 SLP141 P0005 T00330028=
201402232053 METAR KPAE 232053Z 11005KT 2SM -RA BR OVC006 04/03 A2994 RMK AO2 CIG 003V009 SLP144 P0002 60005 T00390028 58005=
201402231953 METAR KPAE 231953Z 21003KT 2SM -RA BR OVC005 04/03 A2996 RMK AO2 SLP149 P0002 T00390028=
201402231853 METAR KPAE 231853Z 15008KT 3SM -RA BR OVC005 04/03 A2996 RMK AO2 RAB20 CIG 004V009 SLP150 P0001 T00390028=
201402231753 METAR KPAE 231753Z 16008KT 2SM BR BKN005 OVC009 04/03 A2996 RMK AO2 SLP149 60001 T00390028 10039 20028 56003=
201402231653 METAR KPAE 231653Z 16006KT 2SM BR BKN004 OVC011 03/02 A2996 RMK AO2 SLP149 T00330022=
201402231601 SPECI KPAE 231601Z 16008KT 2SM BR BKN004 OVC011 03/02 A2996 RMK AO2 T00330022=
201402231553 METAR KPAE 231553Z 15007KT 2SM BR SCT004 OVC011 03/02 A2996 RMK AO2 RAE09 SLP150 P0000 T00330022=
201402231453 METAR KPAE 231453Z 16005KT 10SM -RA FEW005 OVC014 03/02 A2997 RMK AO2 UPB26E40RAB40 SLP152 P0001 60001 T00330022 56008=
201402231443 SPECI KPAE 231443Z AUTO 15006KT 6SM -RA BR SCT004 OVC014 03/02 A2996 RMK AO2 UPB26E40RAB40 P0000 T00330022=
201402231353 METAR KPAE 231353Z AUTO 15007KT 3SM BR OVC004 03/02 A2997 RMK AO2 RAB1259E49 SLP153 P0000 T00330022=
201402231253 METAR KPAE 231253Z AUTO 15008KT 4SM BR BKN006 OVC013 03/02 A2998 RMK AO2 RAE38 CIG 004V009 SLP157 P0000 T00330022=
201402231239 SPECI KPAE 231239Z AUTO 15009KT 5SM BR FEW007 OVC012 03/02 A2998 RMK AO2 RAE38 P0000 T00330022=
201402231153 METAR KPAE 231153Z AUTO 15009KT 8SM -RA OVC012 03/02 A2999 RMK AO2 SLP160 P0001 60007 70030 T00330022 10033 20022 58009=
201402231053 METAR KPAE 231053Z AUTO 15009KT 9SM -RA OVC012 03/02 A3000 RMK AO2 SLP164 P0001 T00330022=
201402230953 METAR KPAE 230953Z AUTO 15008KT 9SM -RA OVC010 03/02 A3001 RMK AO2 CIG 005V012 SLP166 P0002 T00330022=
201402230853 METAR KPAE 230853Z AUTO 15009KT 8SM -RA OVC009 03/02 A3002 RMK AO2 CIG 006V012 SLP169 P0001 60003 T00330022 58002=
201402230753 METAR KPAE 230753Z AUTO 15009KT 7SM -RA OVC005 03/02 A3002 RMK AO2 SLP170 P0001 T00280017 400280000=
201402230653 METAR KPAE 230653Z AUTO 15008KT 7SM -RA OVC004 03/02 A3002 RMK AO2 SLP171 P0001 T00280017=
201402230651 SPECI KPAE 230651Z AUTO 15008KT 7SM -RA OVC004 03/02 A3002 RMK AO2 P0001=
201402230553 METAR KPAE 230553Z AUTO 15008KT 9SM -RA OVC006 02/01 A3003 RMK AO2 RAB0454SNE0454 SLP176 P0003 60015 T00220011 10028 20011 56010=
201402230510 SPECI KPAE 230510Z AUTO VRB05KT 7SM -RA OVC006 02/01 A3004 RMK AO2 RAB0454SNE0454 CIG 003V008 P0001 T00170006=
201402230453 METAR KPAE 230453Z VRB05KT 4SM -SN BR BKN004 OVC010 02/01 A3004=
201402230353 METAR KPAE 230353Z 15009KT 7SM -RA BKN004 OVC020 02/01 A3005 RMK AO2 SLP180 P0005 T00170006=
201402230336 SPECI KPAE 230336Z 15009KT 6SM -RA BR OVC004 02/01 A3005 RMK AO2 P0003 T00220006=
201402230253 METAR KPAE 230253Z 15010KT 7SM -RA OVC006 02/01 A3006=
201402230211 SPECI KPAE 230211Z 15006KT 9SM -RA BKN008 OVC023 03/01 A3007 RMK AO2 P0001 T00280011=
201402230153 METAR KPAE 230153Z 15008KT 10SM -RA SCT009 OVC022 03/01 A3008 RMK AO2 RAB39 SLP192 P0001 T00280006=
201402230053 METAR KPAE 230053Z 17006KT 6SM BR BKN009 BKN014 OVC033 03/01 A3010 RMK AO2 RAE48UPB48E52 SLP197 P0001 T00280011=
201402222353 METAR KPAE 222353Z 16009KT 10SM -RA OVC007 03/01 A3011=
201402222253 METAR KPAE 222253Z 18005KT 9SM -RA BKN007 OVC014 03/02 A3013 RMK AO2 UPE42RAB04E10B27 SLP207 P0000 T00280017=
201402222153 METAR KPAE 222153Z 18006KT 10SM UP OVC006 02/01 A3014 RMK AO2 UPB02RAB24E32SNE02 CIG 004V010 SLP210 P0001 T00220011=
201402222101 SPECI KPAE 222101Z 17007KT 6SM -SN BR OVC005 02/01 A3015 RMK AO2 P0000 T00170006=
201402222053 METAR KPAE 222053Z VRB04KT 4SM -SN BR OVC004 02/01 A3015 RMK AO2 SLP216 P0001 60004 T00170006 58009=
201402222031 SPECI KPAE 222031Z 11005KT 4SM -SN BR OVC004 02/01 A3016 RMK AO2 P0000 T00170006=
201402222020 SPECI KPAE 222020Z 12005KT 2SM -SN BR BKN004 OVC018 02/01 A3017 RMK AO2 P0000 T00170006=
201402221953 METAR KPAE 221953Z 12006KT 1 1/4SM R16R/5500VP6000FT -SN BR BKN004 OVC017 01/00 A3017 RMK AO2 SLP223 P0002 T00110000=
201402221928 SPECI KPAE 221928Z 11006KT 1 3/4SM -SN BR OVC004 02/00 A3017 RMK AO2 P0001 T00170000=
201402221918 SPECI KPAE 221918Z 11005KT 1 3/4SM -SN BR OVC005 02/01 A3018 RMK AO2 P0001 T00170006=
201402221853 METAR KPAE 221853Z 10005KT 1 3/4SM -SN BR BKN004 OVC018 01/00 A3018 RMK AO2 SLP224 P0001 T00110000=
201402221840 SPECI KPAE 221840Z 10005KT 1 1/2SM -SN BR BKN004 OVC018 01/00 A3018 RMK AO2 P0001 T00110000=
201402221753 METAR KPAE 221753Z 11005KT 2SM -SN BR BKN003 BKN014 OVC031 01/00 A3018 RMK AO2 SNB01 SLP226 P0001 60001 T00110000 10017 20000 55000=
201402221738 SPECI KPAE 221738Z 10005KT 1SM R16R/P6000FT -SN BR BKN003 BKN014 OVC031 02/01 A3018 RMK AO2 SNB01 P0001 T00170006=
201402221726 SPECI KPAE 221726Z 10004KT 2SM -SN BR BKN003 BKN014 OVC031 01/00 A3017 RMK AO2 SNB01 P0001 T00110000=
201402221714 SPECI KPAE 221714Z 10003KT 3SM -SN BR BKN003 BKN014 OVC031 02/01 A3017 RMK AO2 SNB01 P0000 T00170006=
201402221700 SPECI KPAE 221700Z 10003KT 5SM BR FEW006 OVC029 02/01 A3018 RMK AO2 T00170006=
201402221653 METAR KPAE 221653Z 11003KT 3SM BR BKN008 BKN014 OVC039 02/01 A3018 RMK AO2 SLP224 T00170006=
201402221631 SPECI KPAE 221631Z 11003KT 3/4SM R16R/P6000FT BR BKN002 BKN008 OVC031 01/01 A3018 RMK AO2 T00110006=
201402221623 SPECI KPAE 221623Z 11004KT 3/4SM R16R/P6000FT BR SCT002 BKN008 OVC031 01/00 A3018 RMK AO2 T00110000=
201402221556 SPECI KPAE 221556Z 11004KT 1/4SM R16R/P6000FT FG BKN002 BKN013 OVC039 01/00 A3018 RMK AO2 T00060000=
201402221553 METAR KPAE 221553Z 11004KT 1/2SM R16R/P6000FT FG BKN002 BKN013 OVC039 01/00 A3018 RMK AO2 SLP224 T00060000=
201402221510 SPECI KPAE 221510Z 15003KT 1/2SM R16R/P6000FT FG BKN001 OVC060 01/00 A3018 RMK AO2 T00110000=
201402221453 METAR KPAE 221453Z 00000KT 10SM FEW049 OVC060 01/M01 A3018 RMK AO2 SLP225 T00061006 58011=
201402221353 METAR KPAE 221353Z AUTO 00000KT 10SM OVC070 00/M01 A3019 RMK AO2 SLP229 T00001011=
201402221253 METAR KPAE 221253Z AUTO 00000KT 10SM FEW041 BKN070 OVC085 01/M02 A3020 RMK AO2 SLP232 T00061017=
201402221153 METAR KPAE 221153Z AUTO 03003KT 10SM OVC050 01/M01 A3021 RMK AO2 SLP236 T00111011 10028 20006 58004=
201402221053 METAR KPAE 221053Z AUTO 00000KT 10SM FEW050 01/M02 A3022=
201402220953 METAR KPAE 220953Z AUTO 00000KT 10SM BKN050 02/M03 A3022 RMK AO2 SLP239 T00171028=
201402220853 METAR KPAE 220853Z AUTO 00000KT 10SM BKN050 OVC110 02/M04 A3022 RMK AO2 SLP240 T00221039 56004=
201402220753 METAR KPAE 220753Z AUTO 00000KT 10SM BKN050 02/M03 A3022 RMK AO2 SLP240 T00171033 400560017=
201402220653 METAR KPAE 220653Z AUTO 00000KT 10SM SCT055 03/M03 A3023 RMK AO2 SLP242 T00281033=
201402220553 METAR KPAE 220553Z AUTO 00000KT 10SM FEW055 02/M02 A3024 RMK AO2 SLP244 T00221017 10044 20022 56002=
201402220453 METAR KPAE 220453Z AUTO 01003KT 10SM BKN060 03/M02 A3024 RMK AO2 SLP245 T00281017=
201402220353 METAR KPAE 220353Z 32003KT 10SM BKN044 OVC055 03/M01 A3024 RMK AO2 SLP243 T00331011=
201402220253 METAR KPAE 220253Z 27003KT 10SM OVC042 04/00 A3024 RMK AO2 SLP246 T00390000 58004=
201402220153 METAR KPAE 220153Z 00000KT 10SM OVC045 04/M01 A3025 RMK AO2 SLP248 T00391006=
201402220053 METAR KPAE 220053Z 35004KT 10SM OVC044 04/M01 A3025 RMK AO2 SLP248 T00441011=
201402212353 METAR KPAE 212353Z 30003KT 10SM OVC039 04/M01 A3025 RMK AO2 SLP248 60000 T00441006 10056 20039 56004=
201402212253 METAR KPAE 212253Z VRB03KT 10SM SCT022 OVC036 04/M01 A3026 RMK AO2 SLP250 T00441006=
201402212153 METAR KPAE 212153Z 36004KT 10SM FEW012 BKN027 OVC032 05/M02 A3026 RMK AO2 SLP250 T00501017=
201402212053 METAR KPAE 212053Z 02005KT 10SM FEW012 BKN027 OVC032 05/M01 A3027 RMK AO2 RAB1958E07SNB08E32 SLP253 P0000 60000 T00501011 58004=
201402212008 SPECI KPAE 212008Z VRB03KT 10SM -SN BKN029 OVC035 04/M01 A3027 RMK AO2 RAB1958E07SNB08 P0000 T00441011=
201402211953 METAR KPAE 211953Z 02003KT 10SM OVC034 04/M01 A3028 RMK AO2 SLP257 T00441011=
201402211853 METAR KPAE 211853Z 36006KT 10SM SCT027 OVC060 04/M01 A3028 RMK AO2 SLP259 T00441006=
201402211753 METAR KPAE 211753Z 34005KT 10SM FEW022 OVC060 04/00 A3028 RMK AO2 SLP257 T00440000 10050 20033 53007=
201402211653 METAR KPAE 211653Z 34004KT 10SM BKN050 04/00 A3026 RMK AO2 SLP251 T00440000=
201402211553 METAR KPAE 211553Z 36006KT 10SM BKN027 BKN033 04/00 A3025 RMK AO2 SLP249 T00390000=
201402211551 SPECI KPAE 211551Z 35005KT 10SM BKN025 BKN032 04/00 A3025 RMK AO2=
201402211453 METAR KPAE 211453Z 35004KT 10SM FEW028 BKN035 OVC044 04/00 A3024 RMK AO2 SLP244 T00390000 51004=
201402211432 SPECI KPAE 211432Z 01003KT 10SM SCT024 OVC033 04/00 A3024 RMK AO2 T00390000=
201402211353 METAR KPAE 211353Z 34005KT 10SM SCT016 BKN024 OVC034 04/01 A3024 RMK AO2 SLP244 T00390006=
201402211308 SPECI KPAE 211308Z 34003KT 10SM BKN023 BKN028 BKN070 04/01 A3024 RMK AO2 T00390006=
201402211253 METAR KPAE 211253Z 35007KT 10SM FEW027 BKN070 04/00 A3023 RMK AO2 SLP242 T00390000=
201402211153 METAR KPAE 211153Z 32003KT 10SM OVC044 04/00 A3023 RMK AO2 RAE1055 SLP240 P0000 60000 T00390000 10050 20022 50010=
201402211121 SPECI KPAE 211121Z VRB04KT 10SM FEW019 SCT025 OVC040 04/01 A3023 RMK AO2 RAE1055 P0000 T00390006=
201402211053 METAR KPAE 211053Z VRB04KT 10SM -RA BKN021 OVC031 04/01 A3023 RMK AO2 RAB34 SLP239 P0000 T00440006=
201402211002 SPECI KPAE 211002Z 02005KT 10SM BKN015 BKN030 OVC050 03/01 A3022 RMK AO2 T00330011=
201402210953 METAR KPAE 210953Z 02003KT 10SM SCT015 BKN050 OVC070 04/01 A3022 RMK AO2 SLP235 T00390006=
201402210853 METAR KPAE 210853Z 19006KT 10SM OVC065 04/01 A3020 RMK AO2 SLP229 T00440011 51006=
201402210753 METAR KPAE 210753Z 17006KT 10SM OVC065 04/01 A3019 RMK AO2 SLP227 T00440011 400890022=
201402210653 METAR KPAE 210653Z 18004KT 10SM OVC070 04/M01 A3020 RMK AO2 SLP228 T00441006=
201402210553 METAR KPAE 210553Z 21006KT 10SM CLR 04/M02 A3018 RMK AO2 SLP223 60000 T00391022 10072 20039 51008=
201402210453 METAR KPAE 210453Z 19005KT 10SM OVC055 06/M02 A3018 RMK AO2 SLP223 T00561017=
201402210400 SPECI KPAE 210400Z VRB03KT 10SM OVC044 06/M02 A3017 RMK AO2 T00611022=
201402210353 METAR KPAE 210353Z VRB04KT 10SM BKN029 BKN044 OVC065 06/M02 A3017 RMK AO2 SLP219 T00611022=
201402210253 METAR KPAE 210253Z 00000KT 10SM BKN029 BKN044 OVC065 06/02 A3016 RMK AO2 SLP215 60000 T00610017 53006=
201402210153 METAR KPAE 210153Z 35005KT 10SM FEW032 BKN040 OVC047 06/03 A3015 RMK AO2 SLP211 T00610033=
201402210053 METAR KPAE 210053Z 01007KT 10SM FEW032 BKN040 OVC070 06/03 A3013 RMK AO2 RAB37E47 SLP206 P0000 T00610033=
201402202353 METAR KPAE 202353Z 01005KT 10SM FEW035 BKN070 OVC085 07/03 A3014 RMK AO2 SLP208 T00720028 10089 20061 53001=
201402202253 METAR KPAE 202253Z 01005KT 10SM FEW031 OVC075 08/02 A3013 RMK AO2 SLP207 T00780017=
201402202153 METAR KPAE 202153Z 01005KT 10SM SCT030 BKN080 BKN090 08/02 A3013 RMK AO2 SLP206 T00830017=
201402202053 METAR KPAE 202053Z 07003KT 10SM OVC030 08/02 A3013 RMK AO2 SLP207 T00830017 50011=
201402201953 METAR KPAE 201953Z 00000KT 10SM BKN028 07/01 A3014 RMK AO2 SLP209 T00720011=
201402201853 METAR KPAE 201853Z VRB04KT 10SM BKN026 OVC120 07/01 A3012 RMK AO2 SLP205 T00720011=
201402201753 METAR KPAE 201753Z 21003KT 10SM CLR 07/02 A3010 RMK AO2 SLP196 T00670022 10067 20050 53031=
201402201653 METAR KPAE 201653Z 23011KT 10SM SCT016 BKN060 06/03 A3007 RMK AO2 SLP186 T00560028=
201402201612 SPECI KPAE 201612Z 21010KT 10SM BKN016 BKN075 BKN120 06/03 A3004 RMK AO2 T00560033=
201402201605 SPECI KPAE 201605Z 20009KT 10SM FEW016 SCT070 BKN120 06/03 A3004 RMK AO2 T00560033=
201402201553 METAR KPAE 201553Z 21010KT 10SM BKN019 BKN120 06/03 A3003 RMK AO2 SLP173 T00560033=
201402201453 METAR KPAE 201453Z 18006KT 10SM FEW011 SCT085 05/04 A3001 RMK AO2 SLP164 T00500039 53003=
201402201438 SPECI KPAE 201438Z AUTO 19005KT 10SM SCT013 SCT050 BKN090 06/04 A3001 RMK AO2 T00560039=
201402201353 METAR KPAE 201353Z AUTO 21008KT 10SM OVC014 06/04 A3000 RMK AO2 SLP164 T00560039=
201402201336 SPECI KPAE 201336Z AUTO 21006KT 10SM OVC011 06/04 A3000 RMK AO2 T00560044=
201402201253 METAR KPAE 201253Z AUTO 21004KT 10SM OVC006 06/04 A2999=
201402201153 METAR KPAE 201153Z AUTO 18007KT 6SM BR OVC006 05/04 A3000 RMK AO2 SLP161 60001 70003 T00500039 10056 20039 56005=
201402201112 SPECI KPAE 201112Z AUTO 19010KT 10SM OVC009 05/03 A3000 RMK AO2 T00500033=
201402201053 METAR KPAE 201053Z AUTO 19012KT 10SM BKN010 OVC015 05/03 A3000 RMK AO2 SLP162 T00500033=
201402201005 SPECI KPAE 201005Z AUTO 17014G20KT 10SM OVC014 04/03 A2999 RMK AO2 T00440028=
201402200953 METAR KPAE 200953Z AUTO 17013G20KT 10SM OVC015 04/02 A2999 RMK AO2 RAE27 SLP160 P0000 T00440022=
201402200907 SPECI KPAE 200907Z AUTO 17012KT 10SM -RA OVC017 04/02 A3000 RMK AO2 P0000 T00390022=
201402200853 METAR KPAE 200853Z AUTO 17013KT 8SM -RA BKN014 OVC020 04/02 A3001 RMK AO2 RAB0756 SLP167 P0001 60001 T00390022 58012=
201402200753 METAR KPAE 200753Z AUTO 16015KT 10SM OVC013 04/02 A3003 RMK AO2 PK WND 16026/0727 RAE0656B17E46 SLP173 P0000 T00390017 400780011=
201402200743 SPECI KPAE 200743Z AUTO 16012G21KT 7SM -RA OVC013 04/02 A3003 RMK AO2 PK WND 16026/0727 RAE0656B17 P0000 T00390017=
201402200717 SPECI KPAE 200717Z AUTO 16016G23KT 6SM -RA BR SCT012 SCT019 OVC029 04/02 A3004 RMK AO2 RAE0656B17 P0000 T00390017=
201402200702 SPECI KPAE 200702Z AUTO 16015G24KT 10SM BKN013 BKN037 OVC110 04/02 A3005 RMK AO2 RAE0656 P0000 T00390017=
201402200653 METAR KPAE 200653Z AUTO 17016G24KT 10SM -RA SCT014 BKN037 OVC110 04/02 A3005=
201402200648 SPECI KPAE 200648Z AUTO 17018G24KT 9SM -RA SCT016 BKN041 OVC110 04/02 A3005 RMK AO2 RAB27 P0000=
201402200626 SPECI KPAE 200626Z AUTO 17015KT 10SM BKN015 OVC050 04/02 A3007 RMK AO2 T00440017=
201402200553 METAR KPAE 200553Z AUTO 16016G27KT 10SM SCT017 BKN070 OVC090 04/02 A3008 RMK AO2 PK WND 15027/0550 SLP189 60002 T00440017 10050 20039 56011=
201402200453 METAR KPAE 200453Z AUTO 17013KT 10SM BKN020 BKN060 OVC080 04/02 A3008 RMK AO2 RAE03 SLP191 P0001 T00440022=
201402200400 SPECI KPAE 200400Z 18010KT 10SM -RA BKN020 BKN026 OVC060 05/02 A3009 RMK AO2 P0001 T00500017=
201402200353 METAR KPAE 200353Z 18010KT 10SM -RA SCT021 BKN037 OVC046 05/02 A3009 RMK AO2 RAB05 SLP195 P0000 T00500022=
201402200253 METAR KPAE 200253Z 15008KT 10SM BKN065 OVC080 04/02 A3011 RMK AO2 SLP201 60001 T00440017 51001=
201402200153 METAR KPAE 200153Z 12003KT 10SM SCT026 SCT040 BKN090 04/02 A3011 RMK AO2 RAE15 SLP200 P0001 T00390017=
201402200132 SPECI KPAE 200132Z 11005KT 10SM SCT026 BKN040 OVC050 04/02 A3010 RMK AO2 RAE15 P0001 T00390022=
201402200055 SPECI KPAE 200055Z 15009KT 5SM -RA FEW008 BKN018 OVC030 04/01 A3011 RMK AO2 P0000 T00390011=
201402200053 METAR KPAE 200053Z 17008KT 7SM -RA BKN008 OVC036 04/01 A3011 RMK AO2 RAB2358E11B35 SLP201 P0000 T00390011=
201402200032 SPECI KPAE 200032Z 17009KT 10SM SCT006 BKN028 06/01 A3011 RMK AO2 RAB2358E11 P0000 T00560011=
201402192353 METAR KPAE 192353Z 19008KT 10SM BKN028 OVC055 07/01 A3010 RMK AO2 SLP198 T00670011 10078 20039 53004=
201402192253 METAR KPAE 192253Z 20008KT 10SM BKN028 BKN041 OVC090 07/01 A3009 RMK AO2 SLP194 T00670006=
201402192153 METAR KPAE 192153Z 22006KT 10SM BKN026 07/01 A3010 RMK AO2 SLP195 T00670011=
201402192053 METAR KPAE 192053Z 25008KT 10SM BKN018 BKN055 06/01 A3009 RMK AO2 SLP194 T00610006 51013=
201402191953 METAR KPAE 191953Z 19010KT 10SM BKN018 BKN060 06/02 A3009 RMK AO2 SLP191 T00610017=
201402191853 METAR KPAE 191853Z 16007KT 120V220 10SM BKN018 BKN070 OVC110 05/01 A3008 RMK AO2 SLP189 T00500006=
201402191753 METAR KPAE 191753Z 17009KT 10SM BKN010 BKN070 04/01 A3005 RMK AO2 SLP182 60000 T00390011 10044 20011 53023=
201402191711 SPECI KPAE 191711Z 21004KT 10SM FEW006 BKN024 BKN060 03/02 A3004 RMK AO2 T00330017=
201402191653 METAR KPAE 191653Z 16005KT 10SM FEW020 03/02 A3003 RMK AO2 SLP173 T00280017=
201402191553 METAR KPAE 191553Z 16006KT 10SM FEW120 02/01 A3001 RMK AO2 RAE20 SLP165 P0000 T00220006=
201402191453 METAR KPAE 191453Z AUTO 00000KT 10SM -RA SCT020 BKN025 OVC030 02/01 A2998 RMK AO2 RAB52 SLP158 P0000 60000 T00170006 51019=
201402191353 METAR KPAE 191353Z AUTO 18005KT 10SM FEW060 SCT110 01/00 A2995 RMK AO2 SLP148 T00110000=
201402191253 METAR KPAE 191253Z AUTO 18005KT 10SM FEW035 02/00 A2993 RMK AO2 SLP138 T00170000=
201402191153 METAR KPAE 191153Z AUTO 21004KT 10SM BKN050 OVC055 02/01 A2990 RMK AO2 SLP129 70031 T00220011 10033 20017 51022=
201402191122 SPECI KPAE 191122Z AUTO 22006KT 10SM SCT012 OVC055 03/01 A2989 RMK AO2 T00280011=
201402191112 SPECI KPAE 191112Z AUTO 22006KT 10SM BKN012 BKN060 03/01 A2989 RMK AO2 T00280011=
201402191053 METAR KPAE 191053Z AUTO 22006KT 10SM FEW014 SCT065 03/01 A2988 RMK AO2 SLP122 T00280006=
201402191034 SPECI KPAE 191034Z AUTO 20010KT 10SM SCT014 BKN070 03/01 A2987 RMK AO2 T00280011=
201402191004 SPECI KPAE 191004Z AUTO 22010KT 10SM BKN014 BKN055 03/01 A2987 RMK AO2 T00330011=
201402190953 METAR KPAE 190953Z AUTO 20009KT 10SM BKN016 BKN055 03/01 A2987 RMK AO2 SLP117 T00280006=
201402190935 SPECI KPAE 190935Z AUTO 20007KT 10SM BKN015 BKN055 BKN075 02/01 A2986 RMK AO2 T00220006=
201402190853 METAR KPAE 190853Z AUTO 21005KT 10SM CLR 02/00 A2983 RMK AO2 SLP106 T00220000 50003=
201402190753 METAR KPAE 190753Z AUTO 20009KT 10SM CLR 02/01 A2984 RMK AO2 SLP108 T00220006 400830022=
201402190700 METAR KPAE NIL=
201402190553 METAR KPAE 190553Z AUTO 20006KT 10SM FEW025 SCT032 BKN100 03/01 A2982 RMK AO2 RAE0456B09E31 SLP103 P0001 60012 T00330011 10072 20033 51021=
201402190550 SPECI KPAE 190550Z AUTO 20007KT 10SM SCT027 SCT032 BKN100 03/01 A2982 RMK AO2 RAE0456B09E31 P0001=
201402190500 SPECI KPAE 190500Z AUTO 21006KT 10SM BKN023 OVC034 04/01 A2980 RMK AO2 RAE0456 P0000 T00390011=
201402190453 METAR KPAE 190453Z AUTO 19007KT 10SM -RA SCT026 BKN033 OVC044 03/01 A2980 RMK AO2 SLP093 P0005 T00330011=
201402190353 METAR KPAE 190353Z 23007KT 10SM -RA SCT035 OVC044 05/02 A2976 RMK AO2 RAB09E28B50 SLP081 P0001 T00500017=
201402190325 SPECI KPAE 190325Z 24007KT 10SM -RA FEW020 BKN032 OVC039 05/02 A2973 RMK AO2 RAB09 P0001 T00500022=
201402190253 METAR KPAE 190253Z 25005KT 10SM BKN028 OVC035 05/03 A2972 RMK AO2 RAE35 SLP066 P0005 60005 T00500028 53032=
201402190153 METAR KPAE 190153Z VRB03KT 10SM -RA BKN028 OVC034 07/03 A2966 RMK AO2 LTG DSNT NE AND E RAB47 SLP047 P0000 T00670028=
201402190137 SPECI KPAE 190137Z 23009KT 10SM VCTS BKN028 BKN034 OVC043 07/02 A2965 RMK AO2 LTG DSNT NE AND E T00720022=
201402190117 SPECI KPAE 190117Z 21014G18KT 10SM SCT014 BKN026 BKN039 07/03 A2963 RMK AO2 T00720028=
201402190053 METAR KPAE 190053Z 29006KT 10SM BKN014 OVC020 07/05 A2962 RMK AO2 RAB17E30 SLP033 P0000 T00720050=
201402182353 METAR KPAE 182353Z 25011G21KT 10SM SCT005 BKN010 BKN016 07/05 A2959 RMK AO2 PK WND 21028/2323 SLP022 60013 T00720050 10083 20061 53010=
201402182333 SPECI KPAE 182333Z 20019G28KT 10SM SCT005 BKN010 BKN016 08/05 A2957 RMK AO2 PK WND 21028/2323 T00780050=
201402182253 METAR KPAE 182253Z 20020G28KT 10SM BKN004 BKN009 OVC014 08/06 A2953 RMK AO2 PK WND 18034/2207 RAE07 SLP001 P0000 T00780061=
201402182230 SPECI KPAE 182230Z 18021G28KT 10SM BKN004 BKN012 OVC050 07/06 A2952 RMK AO2 PK WND 18034/2207 RAE07 P0000 T00720056=
201402182201 SPECI KPAE 182201Z 17021G32KT 10SM -RA BKN009 BKN050 OVC060 07/06 A2952 RMK AO2 PK WND 17032/2156 PRESFR P0000 T00720056=
201402182153 METAR KPAE 182153Z COR 17021G30KT 8SM -RA BKN009 BKN050 OVC075 07/06 A2953 RMK AO2 PK WND 19034/2059 SLP002 P0001 T00720056=
201402182140 SPECI KPAE 182140Z 17021G31KT 10SM -RA BKN013 BKN050 OVC075 07/06 A2955 RMK AO2 PK WND 19034/2059 P0000 T00720056=
201402182053 METAR KPAE 182053Z 18025G36KT 10SM -RA OVC009 08/06 A2956=
201402182042 SPECI KPAE 182042Z 18026G32KT 10SM -RA OVC009 07/06 A2956 RMK AO2 PK WND 18032/2041 P0000 T00720056=
201402182033 SPECI KPAE 182033Z 18017G25KT 10SM -RA OVC013 07/05 A2956 RMK AO2 PK WND 15029/2016 PRESFR P0000 T00720050=
201402181953 METAR KPAE 181953Z 15012G20KT 9SM -RA FEW008 BKN023 OVC033 07/05 A2961 RMK AO2 SLP030 P0006 T00670050=
201402181945 SPECI KPAE 181945Z 15011G21KT 8SM -RA FEW008 BKN025 OVC033 07/04 A2962 RMK AO2 PRESFR P0005 T00670044=
201402181853 METAR KPAE 181853Z 17017G24KT 8SM -RA FEW022 BKN041 OVC060 06/04 A2967 RMK AO2 PK WND 19031/1809 SLP051 P0006 T00610044=
201402181753 METAR KPAE 181753Z 17015G20KT 10SM -RA BKN030 OVC041 07/03 A2970 RMK AO2 SLP062 P0001 60006 T00670033 10072 20044 56045=
201402181653 METAR KPAE 181653Z 16017G30KT 8SM -RA OVC035 07/02 A2975 RMK AO2 PK WND 16030/1651 SLP079 P0001 T00720022=
201402181553 METAR KPAE 181553Z 15013KT 8SM -RA FEW035 OVC047 06/03 A2978 RMK AO2 PK WND 15026/1503 SLP088 P0002 T00610033=
201402181453 METAR KPAE 181453Z AUTO 17014KT 8SM -RA FEW022 SCT029 OVC040 06/04 A2984 RMK AO2 RAE1357B14 SLP108 P0002 60002 T00560039 58020=
201402181353 METAR KPAE 181353Z AUTO 17015G23KT 10SM -RA FEW023 SCT049 OVC100 06/03 A2987=
201402181253 METAR KPAE 181253Z AUTO 17014G21KT 10SM FEW010 OVC110 05/03 A2989 RMK AO2 SLP124 T00500028 $=
201402181153 METAR KPAE 181153Z AUTO 17014KT 10SM FEW008 05/03 A2990 RMK AO2 SLP129 70011 T00500028 10050 20044 58006 $=
201402181103 SPECI KPAE 181103Z AUTO 17012G21KT 10SM SCT009 04/03 A2991 RMK AO2 T00440028 $=
201402181053 METAR KPAE 181053Z AUTO 17012KT 10SM SCT009 BKN014 04/03 A2992 RMK AO2 SLP133 T00440028 $=
201402180953 METAR KPAE 180953Z AUTO 18012KT 10SM BKN011 BKN017 04/03 A2992 RMK AO2 CIG 009V014 SLP136 T00440028 $=
201402180903 SPECI KPAE 180903Z AUTO 19009KT 10SM BKN012 BKN017 OVC080 05/03 A2992 RMK AO2 T00500028 $=
201402180853 METAR KPAE 180853Z AUTO 18012KT 10SM SCT014 OVC075 05/03 A2992 RMK AO2 SLP134 T00500028 52006 $=
201402180838 SPECI KPAE 180838Z AUTO 18012KT 10SM SCT014 OVC075 05/03 A2992 RMK AO2 T00500028 $=
201402180828 SPECI KPAE 180828Z AUTO 19008KT 10SM BKN014 BKN023 OVC075 04/03 A2992 RMK AO2 T00440028 $=
201402180802 SPECI KPAE 180802Z AUTO 19009KT 10SM BKN016 05/03 A2992 RMK AO2 T00500028 $=
201402180753 METAR KPAE 180753Z AUTO 19010KT 10SM SCT016 04/02 A2992 RMK AO2 SLP134 T00440022 400720039 $=
201402180741 SPECI KPAE 180741Z AUTO 18012KT 10SM SCT012 04/02 A2991 RMK AO2 T00440022 $=
201402180653 METAR KPAE 180653Z AUTO 17010KT 10SM BKN012 OVC019 05/03 A2990 RMK AO2 SLP129 T00500028 $=
201402180633 SPECI KPAE 180633Z AUTO 18010KT 10SM BKN012 BKN024 04/03 A2991 RMK AO2 T00440028 $=
201402180612 SPECI KPAE 180612Z AUTO 18010KT 10SM SCT014 SCT019 04/03 A2990 RMK AO2 T00440028 $=
201402180553 METAR KPAE 180553Z AUTO 16010KT 10SM BKN015 BKN110 04/02 A2990 RMK AO2 SLP128 60011 T00440022 10050 20039 52014 $=
201402180453 METAR KPAE 180453Z AUTO 15006KT 10SM CLR 04/02 A2989 RMK AO2 SLP126 T00390017 $=
201402180356 SPECI KPAE 180356Z 16007KT 10SM CLR 04/02 A2987 RMK AO2 T00390022 $=
201402180353 METAR KPAE 180353Z 16007KT 10SM BKN027 04/02 A2987 RMK AO2 SLP117 T00440022 $=
201402180253 METAR KPAE 180253Z VRB03KT 10SM OVC028 05/03 A2986 RMK AO2 SLP114 60011 T00500028 51015 $=
201402180153 METAR KPAE 180153Z VRB03KT 10SM BKN026 BKN035 BKN060 04/03 A2985 RMK AO2 RAE07 SLP110 P0000 T00440028 $=
201402180053 METAR KPAE 180053Z 16005KT 10SM -RA BKN026 OVC038 04/03 A2983 RMK AO2 RAB04 SLP105 P0011 T00440028 $=
201402172353 METAR KPAE 172353Z 36004KT 10SM OVC022 05/03 A2981 RMK AO2 SLP099 60000 T00500033 10072 20050 53017 $=
201402172253 METAR KPAE 172253Z 19011KT 10SM BKN023 OVC030 07/03 A2980=
201402172246 SPECI KPAE 172246Z 19010KT 10SM BKN022 BKN031 OVC110 07/03 A2979 RMK AO2 T00720028 $=
201402172153 METAR KPAE 172153Z 20010KT 10SM SCT011 BKN035 OVC041 07/04 A2978 RMK AO2 RAB27E37 SLP085 P0000 T00720044 $=
201402172053 METAR KPAE 172053Z 23008KT 10SM BKN012 OVC050 07/04 A2976 RMK AO2 RAE37 SLP082 P0000 60000 T00670044 51016 $=
201402171953 METAR KPAE 171953Z 20010KT 10SM -RA OVC011 06/04 A2975 RMK AO2 RAB32 SLP078 P0000 T00610039 $=
201402171853 METAR KPAE 171853Z 20013KT 10SM OVC010 06/04 A2974 RMK AO2 SLP073 T00610039 $=
201402171753 METAR KPAE 171753Z 18011KT 10SM BKN009 BKN048 OVC120 05/03 A2971 RMK AO2 SLP065 T00500033 10050 20039 53012 $=
201402171715 SPECI KPAE 171715Z 18015G21KT 10SM BKN007 OVC055 04/03 A2969 RMK AO2 T00440033 $=
201402171653 METAR KPAE 171653Z 16015G25KT 10SM SCT009 OVC055 04/03 A2968 RMK AO2 SLP055 T00440028 $=
201402171553 METAR KPAE 171553Z 17013G20KT 10SM BKN007 OVC055 04/03 A2969 RMK AO2 SLP057 T00440028 $=
201402171453 METAR KPAE 171453Z 18014G20KT 10SM BKN007 OVC090 04/03 A2968 RMK AO2 SLP053 T00390028 58005 $=
201402171353 METAR KPAE 171353Z AUTO 17013G21KT 10SM BKN008 BKN016 OVC075 04/02 A2969 RMK AO2 SLP056 T00390022 $=
201402171253 METAR KPAE 171253Z AUTO 17013G23KT 10SM OVC006 04/03 A2970 RMK AO2 CIG 005V010 SLP061 T00390028 $=
201402171153 METAR KPAE 171153Z AUTO 17014G20KT 10SM BKN008 OVC018 05/03 A2969 RMK AO2 CIG 005V011 SLP058 60003 70071 T00500033 10050 20044 56001 $=
201402171141 SPECI KPAE 171141Z AUTO 17014KT 10SM SCT008 OVC018 05/03 A2970 RMK AO2 T00500033 $=
201402171053 METAR KPAE 171053Z AUTO 18013G21KT 10SM BKN008 OVC019 04/03 A2970=
201402171007 SPECI KPAE 171007Z AUTO 18019G24KT 10SM SCT009 BKN017 OVC100 04/03 A2968 RMK AO2 T00440028 $=
201402170956 SPECI KPAE 170956Z AUTO 18016KT 10SM BKN007 OVC015 04/03 A2967 RMK AO2 CIG 006V011 T00440028 $=
201402170953 METAR KPAE 170953Z AUTO 18016KT 10SM SCT007 OVC015 04/03 A2967 RMK AO2 PK WND 18027/0859 SLP050 T00440028 $=
201402170944 SPECI KPAE 170944Z AUTO 17014G26KT 10SM SCT008 SCT011 BKN017 04/03 A2968 RMK AO2 PK WND 18027/0859 T00440028 $=
201402170917 SPECI KPAE 170917Z AUTO 18020G25KT 10SM FEW009 BKN085 OVC100 04/03 A2969 RMK AO2 PK WND 18027/0859 T00440028 $=
201402170853 METAR KPAE 170853Z AUTO 18022G28KT 10SM FEW060 BKN075 OVC090 04/03 A2970 RMK AO2 PK WND 18030/0802 RAE07B43E52 SLP059 P0000 60003 T00440028 56015 $=
201402170753 METAR KPAE 170753Z AUTO 18017G26KT 10SM -RA SCT012 SCT031 OVC043 04/03 A2970 RMK AO2 PK WND 18028/0712 SLP059 P0001 T00440028 400670033 $=
201402170653 METAR KPAE 170653Z AUTO 19021G27KT 9SM -RA BKN014 OVC035 05/03 A2972 RMK AO2 PK WND 18032/0555 SLP067 P0002 T00500033 $=
201402170627 SPECI KPAE 170627Z AUTO 18019G24KT 10SM -RA BKN012 BKN027 OVC070 05/03 A2972 RMK AO2 PK WND 18032/0555 P0000 T00500033 $=
201402170553 METAR KPAE 170553Z AUTO 19022G31KT 10SM -RA FEW047 OVC060 05/03 A2974 RMK AO2 PK WND 19040/0505 RAE14B47 SLP074 P0000 60065 T00500028 10061 20050 55003 $=
201402170529 SPECI KPAE 170529Z AUTO 18028G36KT 10SM SCT012 BKN070 OVC085 05/03 A2973 RMK AO2 PK WND 19040/0505 RAE14 P0000 T00500028 $=
201402170500 SPECI KPAE 170500Z AUTO 18025G33KT 10SM -RA BKN014 BKN020 OVC035 06/03 A2971 RMK AO2 PK WND 19033/0458 P0000 T00560033 $=
201402170453 METAR KPAE 170453Z AUTO 18023G33KT 6SM -RA BR BKN017 OVC026 06/03 A2972 RMK AO2 PK WND 19033/0450 PRESFR SLP068 P0020 T00560033 $=
201402170428 SPECI KPAE 170428Z 20018G28KT 4SM RA BR BKN015 OVC022 06/03 A2975 RMK AO2 PK WND 21028/0423 P0013 T00560033 $=
201402170421 SPECI KPAE 170421Z 20019G26KT 5SM RA BR BKN013 OVC020 06/03 A2976 RMK AO2 PK WND 20027/0402 P0010 T00560033 $=
201402170353 METAR KPAE 170353Z 19016G28KT 6SM RA BR BKN016 OVC023 05/03 A2975=
201402170253 METAR KPAE 170253Z 18016G30KT 5SM -RA OVC021 06/03 A2975 RMK AO2 PK WND 18035/0223 SLP077 P0015 60031 T00560028 56028 $=
201402170153 METAR KPAE 170153Z 17019G31KT 3SM RA OVC020 06/03 A2976 RMK AO2 PK WND 16035/0102 SLP082 P0013 T00560028 $=
201402170053 METAR KPAE 170053Z 17021G34KT 4SM -RA OVC025 06/01 A2979 RMK AO2 PK WND 16034/0044 SLP090 P0003 T00610011 $=
201402170043 SPECI KPAE 170043Z 16022G31KT 5SM -RA OVC028 06/01 A2979 RMK AO2 PK WND 18031/0036 P0002 T00610011 $=
201402162353 METAR KPAE 162353Z 15014G22KT 5SM -RA SCT027 BKN034 OVC060 06/01 A2983 RMK AO2 PK WND 16030/2310 SLP106 P0002 60003 T00610011 10067 20044 58034 $=
201402162253 METAR KPAE 162253Z 17018G25KT 8SM -RA BKN032 BKN039 OVC065 06/02 A2987 RMK AO2 PK WND 16027/2158 RAB35 SLP120 P0000 T00610017 $=
201402162200 SPECI KPAE 162200Z 17018G27KT 10SM FEW048 SCT065 BKN080 06/02 A2990 RMK AO2 PK WND 16027/2158 T00560017 $=
201402162153 METAR KPAE 162153Z 17017G23KT 10SM SCT018 BKN023 BKN031 06/02 A2990 RMK AO2 RAE10 SLP130 P0001 T00560017 $=
201402162112 SPECI KPAE 162112Z 16012KT 10SM SCT018 BKN023 BKN031 05/02 A2992 RMK AO2 RAE10 P0001 T00500017 $=
201402162053 METAR KPAE 162053Z COR 18017G31KT 10SM -RA SCT018 BKN023 BKN031 04/02 A2994 RMK AO2 PK WND 18032/1958 RAB47 SLP140 P0000 60000 T00440017 51009 $=
201402161953 METAR KPAE 161953Z 18019G29KT 10SM SCT023 06/02 A2993 RMK AO2 PK WND 18031/1936 SLP138 T00560017 $=
201402161853 METAR KPAE 161853Z 18017G24KT 10SM BKN018 06/02 A2992 RMK AO2 PK WND 18027/1818 SLP135 T00560017 $=
201402161753 METAR KPAE 161753Z 19016G21KT 10SM OVC016 05/02 A2991 RMK AO2 SLP131 T00500017 10050 20033 51037 $=
201402161653 METAR KPAE 161653Z 21017G24KT 10SM OVC014 04/01 A2988 RMK AO2 PK WND 22028/1607 SLP120 T00390006 $=
201402161617 SPECI KPAE 161617Z 22014G21KT 10SM OVC014 03/01 A2986 RMK AO2 PK WND 22028/1607 T00330011 $=
201402161553 METAR KPAE 161553Z 21011KT 10SM BKN017 03/01 A2983=
201402161453 METAR KPAE 161453Z 21012KT 10SM BKN016 03/01 A2979 RMK AO2 SLP092 T00330006 51025 $=
201402161426 SPECI KPAE 161426Z AUTO 20015KT 10SM SCT017 03/01 A2979 RMK AO2 T00330006 $=
201402161353 METAR KPAE 161353Z AUTO 19013KT 10SM BKN018 03/01 A2978 RMK AO2 PK WND 20027/1259 SLP087 T00330006 $=
201402161253 METAR KPAE 161253Z AUTO 19019G23KT 10SM OVC017 03/01 A2975 RMK AO2 PK WND 21026/1222 SLP077 T00330006 $=
201402161153 METAR KPAE 161153Z AUTO 20014KT 10SM OVC017 04/01 A2972 RMK AO2 PRESRR SLP067 70042 T00390011 10056 20033 53029 $=
201402161123 SPECI KPAE 161123Z AUTO 21015KT 10SM BKN017 OVC055 04/01 A2970 RMK AO2 T00390011 $=
201402161053 METAR KPAE 161053Z AUTO 19017KT 10SM FEW015 04/01 A2969 RMK AO2 PK WND 20026/1004 SLP057 T00390006 $=
201402160953 METAR KPAE 160953Z AUTO 19016G25KT 10SM CLR 04/01 A2963 RMK AO2 PK WND 20031/0907 SLP036 T00440011 $=
201402160853 METAR KPAE 160853Z AUTO 20016G23KT 10SM SCT070 BKN095 BKN110 06/01 A2963 RMK AO2 PK WND 20027/0804 SLP036 T00560011 $=
201402160753 METAR KPAE 160753Z AUTO 19021G29KT 10SM CLR 05/02 A2960 RMK AO2 PK WND 19031/0707 SLP024 T00500017 400940039 $=
201402160653 METAR KPAE 160653Z AUTO 20022G31KT 10SM FEW019 06/02 A2957 RMK AO2 PK WND 20033/0634 PRESRR SLP015 T00560022 $=
201402160553 METAR KPAE 160553Z AUTO 19027G39KT 10SM FEW045 FEW075 SCT120 06/02 A2950 RMK AO2 PK WND 20044/0458 LTG DSNT NW RAB36E50 SLP991 P0000 60021 T00560022 10094 20056 51075=
201402160453 METAR KPAE 160453Z 20032G41KT 10SM CLR 07/02 A2945 RMK AO2 PK WND 20047/0419 SLP975 T00670022=
201402160353 METAR KPAE 160353Z 20029G39KT 10SM FEW021 SCT120 08/04 A2937 RMK AO2 PK WND 20041/0340 RAE00 PRESRR SLP946 P0000 T00780039=
201402160335 SPECI KPAE 160335Z 18030G39KT 10SM FEW016 SCT022 BKN110 08/06 A2932 RMK AO2 PK WND 18041/0323 RAE00 P0000 T00830056=
201402160258 SPECI KPAE 160258Z 17022G37KT 10SM -RA FEW018 BKN023 OVC040 09/07 A2928 RMK AO2 PK WND 18036/0255 P0000 T00890067=
201402160253 METAR KPAE 160253Z 16024G37KT 7SM -RA FEW012 BKN042 OVC055 09/06 A2927 RMK AO2 PK WND 15037/0251 SLP915 P0002 60021 T00890061 55013=
201402160200 SPECI KPAE 160200Z 15016G24KT 6SM -RA BR FEW012 BKN042 OVC055 07/06 A2925 RMK AO2 P0001 T00720056=
201402160153 METAR KPAE 160153Z 15014G23KT 5SM RA BR FEW004 BKN014 OVC040 07/06 A2925 RMK AO2 PK WND 15026/0139 SLP908 P0010 T00720056=
201402160053 METAR KPAE 160053Z 13009G19KT 110V180 4SM -RA BR FEW004 BKN014 OVC025 07/05 A2926 RMK AO2 SLP911 P0009 T00670050=
201402152353 METAR KPAE 152353Z AUTO 12010G17KT 5SM -RA BR BKN012 OVC025 07/06 A2931 RMK AO2 SLP928 P0005 60021 T00670056 10083 20061 56059 TSNO=
201402152253 METAR KPAE 152253Z 12012G19KT 3SM -RA BR SCT008 BKN012 OVC020 07/05 A2935 RMK AO2 SLP942 P0005 T00670050=
201402152230 SPECI KPAE 152230Z 12011G18KT 3SM -RA BR FEW008 BKN014 OVC025 07/05 A2937 RMK AO2 PRESFR P0003 T00670050=
201402152153 METAR KPAE 152153Z 13009G16KT 090V170 9SM -RA FEW023 BKN049 OVC070 07/05 A2942 RMK AO2 SLP963 P0007 T00670050=
201402152053 METAR KPAE 152053Z VRB06KT 5SM -RA BR SCT043 OVC060 07/04 A2949 RMK AO2 SLP987 P0004 60004 T00670044 58040=
201402151953 METAR KPAE 151953Z 15008G15KT 10SM -RA BKN050 OVC060 08/01 A2954 RMK AO2 RAB41 SLP003 P0000 T00830006=
201402151853 METAR KPAE 151853Z VRB05KT 10SM OVC080 08/M02 A2957 RMK AO2 SLP017 T00781022=
201402151753 METAR KPAE 151753Z VRB03KT 10SM OVC100 07/M01 A2961 RMK AO2 SLP029 T00671006 10067 20039 56052=
201402151653 METAR KPAE 151653Z 12006KT 10SM OVC120 06/00 A2967 RMK AO2 SLP048 T00560000=
201402151553 METAR KPAE 151553Z 11008KT 10SM BKN120 05/01 A2971 RMK AO2 SLP062 T00500006=
201402151453 METAR KPAE 151453Z 11005KT 10SM SCT120 04/01 A2977 RMK AO2 SLP082 T00440011 56036=
201402151353 METAR KPAE 151353Z AUTO 11006KT 10SM CLR 05/01 A2980 RMK AO2 SLP092 T00500011=
201402151253 METAR KPAE 151253Z AUTO 13003KT 10SM CLR 04/02 A2984 RMK AO2 SLP107 T00440017=
201402151153 METAR KPAE 151153Z AUTO VRB03KT 10SM CLR 06/02 A2987 RMK AO2 SLP117 70003 T00560017 10061 20050 58019=
201402151053 METAR KPAE 151053Z AUTO 15004KT 10SM CLR 06/02 A2990 RMK AO2 SLP127 T00610022=
201402150953 METAR KPAE 150953Z AUTO 15007KT 10SM OVC065 06/03 A2991 RMK AO2 SLP130 T00610033=
201402150853 METAR KPAE 150853Z AUTO 15005KT 10SM OVC070 06/03 A2993 RMK AO2 SLP137 T00610033 56005=
201402150753 METAR KPAE 150753Z AUTO 16009KT 10SM FEW017 FEW028 BKN080 06/03 A2994 RMK AO2 SLP139 T00610033 401110050=
201402150737 SPECI KPAE 150737Z AUTO 16007KT 10SM SCT017 BKN080 06/03 A2994 RMK AO2 T00560033=
201402150702 SPECI KPAE 150702Z AUTO 15007KT 10SM BKN018 06/03 A2994 RMK AO2 T00610033=
201402150653 METAR KPAE 150653Z AUTO 16007KT 10SM SCT018 06/03 A2994 RMK AO2 SLP141 T00610033=
201402150553 METAR KPAE 150553Z AUTO 16009KT 10SM CLR 06/03 A2995 RMK AO2 SLP144 T00610033 10106 20061 51007=
201402150453 METAR KPAE 150453Z AUTO 19010KT 10SM FEW029 06/03 A2995=
201402150445 SPECI KPAE 150445Z AUTO 19009KT 10SM FEW029 06/03 A2994 RMK AO2 T00610033=
201402150353 METAR KPAE 150353Z 19011KT 10SM SCT022 OVC026 07/04 A2994 RMK AO2 SLP140 T00720039=
201402150253 METAR KPAE 150253Z 19010KT 10SM BKN025 OVC032 08/04 A2993 RMK AO2 SLP136 T00830039 52026=
201402150153 METAR KPAE 150153Z 00000KT 10SM BKN022 OVC039 09/04 A2990 RMK AO2 SLP127 T00890044=
201402150053 METAR KPAE 150053Z 20009KT 10SM OVC029 09/04 A2987 RMK AO2 SLP118 T00940044=
201402142353 METAR KPAE 142353Z 21011KT 10SM SCT027 11/04 A2985 RMK AO2 SLP110 T01060044 10111 20089 51035=
201402142253 METAR KPAE 142253Z 20017G22KT 10SM CLR 11/05 A2982 RMK AO2 SLP100 T01060050=
201402142153 METAR KPAE 142153Z 21021G26KT 10SM BKN022 11/06 A2979 RMK AO2 PK WND 20026/2153 SLP091 T01060056=
201402142053 METAR KPAE 142053Z 21020G28KT 10SM SCT020 10/06 A2974 RMK AO2 PK WND 20028/2047 SLP073 T01000056 51017=
201402141953 METAR KPAE 141953Z 20018G25KT 10SM SCT018 10/06 A2974 RMK AO2 PK WND 20028/1906 SLP073 T01000061=
201402141914 SPECI KPAE 141914Z 20014G28KT 10SM OVC017 09/06 A2972 RMK AO2 PK WND 20028/1906 T00940056=
201402141853 METAR KPAE 141853Z 21017KT 10SM CLR 09/04 A2972 RMK AO2 PK WND 22031/1833 SLP066 T00890044=
201402141756 SPECI KPAE 141756Z 21021G30KT 10SM CLR 09/05 A2969 RMK AO2 PK WND 21030/1756 T00890050=
201402141753 METAR KPAE 141753Z 21019G29KT 10SM SCT008 BKN018 09/05 A2969 RMK AO2 PK WND 21031/1658 RAE1656 PRESRR SLP057 P0000 60003 T00890050 10089 20050 53023=
201402141700 SPECI KPAE 141700Z 20019G31KT 10SM SCT008 BKN018 08/06 A2966 RMK AO2 PK WND 21031/1658 RAE1656 P0000 T00830056=
201402141653 METAR KPAE 141653Z 20021G31KT 10SM -RA BKN008 09/06 A2967 RMK AO2 PK WND 20031/1648 RAB36 SLP047 P0001 T00890061=
201402141600 SPECI KPAE 141600Z 20016G24KT 10SM BKN008 08/06 A2965 RMK AO2 T00830061=
201402141553 METAR KPAE 141553Z COR 20018KT 10SM BKN008 08/06 A2965 RMK AO2 PK WND 20026/1515 SLP040 T00830061=
201402141453 METAR KPAE 141453Z 20019G26KT 10SM FEW009 BKN014 08/07 A2962 RMK AO2 PK WND 19026/1450 SLP033 60002 T00830067 53008=
201402141445 SPECI KPAE 141445Z 20016G22KT 10SM SCT011 BKN015 08/06 A2962 RMK AO2 PRESRR T00830061=
201402141353 METAR KPAE 141353Z AUTO 18020G26KT 10SM BKN007 OVC011 07/06 A2959 RMK AO2 PK WND 18026/1352 CIG 006V009 SLP022 T00720056=
201402141346 SPECI KPAE 141346Z AUTO 17016KT 10SM OVC007 07/06 A2959 RMK AO2 CIG 006V012 T00670056=
201402141307 SPECI KPAE 141307Z AUTO 15011G15KT 10SM OVC013 06/04 A2958 RMK AO2 T00610039=
201402141253 METAR KPAE 141253Z AUTO 15011G16KT 10SM BKN015 OVC019 06/04 A2960 RMK AO2 RAE40 SLP024 P0002 T00610039=
201402141209 SPECI KPAE 141209Z AUTO 11013G18KT 10SM -RA BKN029 OVC036 05/03 A2960 RMK AO2 P0001 T00500033=
201402141153 METAR KPAE 141153Z AUTO 11011G18KT 7SM -RA OVC037 05/03 A2960 RMK AO2 SLP025 P0009 60025 70025 T00500033 10078 20050 58036=
201402141053 METAR KPAE 141053Z AUTO 12013G19KT 5SM -RA OVC031 06/03 A2963 RMK AO2 SLP033 P0013 T00560028=
201402141002 SPECI KPAE 141002Z AUTO 14007G18KT 100V180 5SM -RA OVC028 07/02 A2968 RMK AO2 PRESFR P0002 T00670022=
201402140953 METAR KPAE 140953Z AUTO 15015G19KT 7SM -RA OVC030 07/02 A2969 RMK AO2 RAB08 SLP055 P0003 T00720017=
201402140853 METAR KPAE 140853Z AUTO 13007KT 10SM BKN060 OVC075 07/M01 A2971 RMK AO2 PRESFR SLP061 T00721011 58052=
201402140753 METAR KPAE 140753Z AUTO VRB04KT 10SM FEW045 OVC110 06/01 A2976 RMK AO2 SLP078 T00610006 401110056=
201402140653 METAR KPAE 140653Z AUTO 12006KT 10SM CLR 06/01 A2982 RMK AO2 SLP101 T00610011=
201402140553 METAR KPAE 140553Z AUTO 12008KT 10SM CLR 06/02 A2986 RMK AO2 SLP115 T00610017 10106 20061 58045=
201402140453 METAR KPAE 140453Z AUTO 11007KT 10SM CLR 07/02 A2993 RMK AO2 SLP138 T00720017 TSNO=
201402140353 METAR KPAE 140353Z VRB03KT 10SM CLR 08/01 A2997 RMK AO2 PRESFR SLP151 T00830011=
201402140253 METAR KPAE 140253Z 16007KT 10SM CLR 09/01 A3000 RMK AO2 SLP159 T00890006 58020=
201402140153 METAR KPAE 140153Z 15007KT 10SM CLR 09/01 A3003 RMK AO2 SLP170 T00940011=
201402140053 METAR KPAE 140053Z 19009KT 10SM CLR 09/02 A3006 RMK AO2 SLP180 T00940017=
201402132353 METAR KPAE 132353Z 21014KT 10SM FEW050 11/01 A3006 RMK AO2 SLP180 T01060011 10111 20083 53003=
201402132253 METAR KPAE 132253Z 20011KT 10SM SCT050 11/03 A3004 RMK AO2 SLP174 T01060028=
201402132153 METAR KPAE 132153Z 19014G17KT 10SM SCT050 11/02 A3004 RMK AO2 SLP174 T01060022=
201402132053 METAR KPAE 132053Z 22011KT 10SM SCT050 11/03 A3005 RMK AO2 SLP177 T01060028 51017=
201402131953 METAR KPAE 131953Z 20012KT 10SM CLR 10/03 A3004 RMK AO2 SLP176 T01000028=
201402131853 METAR KPAE 131853Z 19013KT 10SM FEW015 09/04 A3002 RMK AO2 SLP167 T00940044=
201402131753 METAR KPAE 131753Z 20013KT 10SM CLR 08/04 A3000 RMK AO2 SLP161 60000 T00830044 10083 20061 53036=
201402131653 METAR KPAE 131653Z 20011KT 10SM CLR 07/03 A2996 RMK AO2 SLP148 T00720033=
201402131553 METAR KPAE 131553Z 20010KT 10SM FEW019 06/04 A2993 RMK AO2 SLP136 T00610039=
201402131453 METAR KPAE 131453Z 24003KT 10SM SCT019 OVC055 07/04 A2989 RMK AO2 RAB33E45 SLP124 P0000 60000 T00720044 53037=
201402131353 METAR KPAE 131353Z AUTO 21015KT 10SM CLR 07/04 A2984 RMK AO2 PRESRR SLP109 T00720044=
201402131253 METAR KPAE 131253Z AUTO 21015G23KT 10SM CLR 07/04 A2981 RMK AO2 SLP095 T00720044=
201402131153 METAR KPAE 131153Z AUTO 20016G23KT 10SM CLR 07/05 A2978 RMK AO2 SLP086 60003 70007 T00720050 10083 20061 51019=
201402131118 SPECI KPAE 131118Z AUTO 20012KT 10SM SCT013 07/06 A2978 RMK AO2 T00720056=
201402131053 METAR KPAE 131053Z AUTO 21012KT 10SM BKN011 08/06 A2977 RMK AO2 SLP084 T00780061=
201402130953 METAR KPAE 130953Z AUTO 20016G22KT 10SM BKN012 08/06 A2975 RMK AO2 SLP076 T00780061=
201402130915 SPECI KPAE 130915Z AUTO 20014G23KT 10SM SCT008 07/06 A2973 RMK AO2 T00720056=
201402130853 METAR KPAE 130853Z AUTO 21016G24KT 10SM OVC007 07/06 A2972 RMK AO2 PK WND 21027/0842 CIG 006V012 SLP067 60003 T00720056 53007=
201402130802 SPECI KPAE 130802Z AUTO 20012KT 10SM BKN009 OVC015 07/06 A2971 RMK AO2 CIG 007V013 T00670056=
201402130753 METAR KPAE 130753Z AUTO 19013KT 10SM BKN010 OVC015 07/05 A2970 RMK AO2 RAE05B09E42 CIG 007V012 SLP061 P0002 T00670050 401000061=
201402130751 SPECI KPAE 130751Z AUTO 18015KT 10SM BKN010 OVC015 07/05 A2970 RMK AO2 RAE05B09E42 CIG 007V013 P0002=
201402130734 SPECI KPAE 130734Z AUTO 19007KT 3SM -RA BR BKN008 OVC012 06/05 A2971 RMK AO2 RAE05B09 P0002 T00610050=
201402130732 SPECI KPAE 130732Z AUTO 19007KT 2 1/2SM -RA BR BKN010 OVC014 06/05 A2971 RMK AO2 RAE05B09 CIG 007V013 P0002 T00610050=
201402130728 SPECI KPAE 130728Z AUTO 21006KT 3SM -RA BR BKN008 OVC014 06/04 A2971 RMK AO2 RAE05B09 CIG 007V011 P0001 T00610044=
201402130719 SPECI KPAE 130719Z AUTO 21007KT 6SM -RA BR BKN014 OVC021 06/04 A2971 RMK AO2 RAE05B09 P0000 T00610044=
201402130706 SPECI KPAE 130706Z AUTO 17008KT 10SM SCT016 BKN021 OVC055 07/04 A2970 RMK AO2 RAE05 P0000 T00670039=
201402130653 METAR KPAE 130653Z AUTO 16013KT 10SM -RA SCT016 SCT025 OVC036 07/03 A2970 RMK AO2 SLP059 P0001 T00670033=
201402130553 METAR KPAE 130553Z AUTO 15010KT 10SM -RA SCT033 SCT040 OVC048 07/02 A2971 RMK AO2 RAB40 SLP061 P0000 60000 T00720022 10100 20072 58029=
201402130453 METAR KPAE 130453Z AUTO 17010KT 10SM SCT080 SCT110 08/02 A2974 RMK AO2 SLP074 T00780022=
201402130353 METAR KPAE 130353Z 20013KT 10SM OVC100 08/03 A2979 RMK AO2 SLP088 T00780028=
201402130253 METAR KPAE 130253Z 19011KT 10SM OVC100 08/03 A2979 RMK AO2 SLP091 T00830028 56013=
201402130153 METAR KPAE 130153Z 19015KT 10SM BKN110 08/03 A2981 RMK AO2 SLP096 T00830028=
201402130053 METAR KPAE 130053Z 18011KT 10SM CLR 09/02 A2981 RMK AO2 SLP098 T00890022=
201402122353 METAR KPAE 122353Z 19015KT 10SM FEW038 09/02 A2983 RMK AO2 SLP104 60001 T00940022 10100 20067 56019 TSNO=
201402122253 METAR KPAE 122253Z 19014KT 10SM BKN038 09/03 A2984 RMK AO2 SLP107 T00940028=
201402122153 METAR KPAE 122153Z 16008KT 10SM BKN035 09/04 A2987 RMK AO2 SLP115 T00890039=
201402122053 METAR KPAE 122053Z 07007KT 10SM OVC032 07/04 A2989 RMK AO2 RAE1958 SLP125 P0000 60001 T00720044 51027=
201402121953 METAR KPAE 121953Z 09007KT 10SM -RA OVC023 07/05 A2989 RMK AO2 RAB03 SLP124 P0001 T00670050=
201402121904 SPECI KPAE 121904Z 10008KT 4SM -RA BR BKN006 OVC040 07/05 A2987 RMK AO2 RAB03 P0000 T00720050=
201402121853 METAR KPAE 121853Z 11008KT 7SM OVC027 07/05 A2987 RMK AO2 SLP116 T00720050=
201402121753 METAR KPAE 121753Z 04007KT 10SM OVC024 08/03 A2981 RMK AO2 PRESRR SLP096 60003 T00780033 10100 20072 53043=
201402121653 METAR KPAE 121653Z 03006KT 10SM BKN018 07/05 A2974 RMK AO2 RAE06 SLP074 P0000 T00720050=
201402121621 SPECI KPAE 121621Z 03006KT 10SM FEW010 BKN016 OVC022 08/06 A2971 RMK AO2 RAE06 P0000 T00780056=
201402121553 METAR KPAE 121553Z 06010KT 3SM -RA BR OVC014 09/07 A2968 RMK AO2 RAB26 PRESRR SLP053 P0003 T00890067=
201402121548 SPECI KPAE 121548Z VRB03KT 2 1/2SM -RA BR OVC014 09/07 A2968 RMK AO2 RAB26 PRESRR P0003=
201402121453 METAR KPAE 121453Z 21012G20KT 10SM OVC014 09/07 A2962 RMK AO2 PK WND 23027/1405 SLP031 T00940067 51064=
201402121433 SPECI KPAE 121433Z AUTO 22013G23KT 10SM OVC015 09/07 A2960 RMK AO2 PK WND 23027/1405 T00940072=
201402121353 METAR KPAE 121353Z AUTO 21015G24KT 10SM OVC011 09/08 A2956 RMK AO2 PK WND 20030/1255 PRESRR SLP010 T00940078=
201402121330 SPECI KPAE 121330Z AUTO 22017G27KT 10SM OVC010 10/08 A2953 RMK AO2 PK WND 20030/1255 CIG 009V014 PRESRR T01000078=
201402121253 METAR KPAE 121253Z AUTO 21024G31KT 10SM OVC009 10/08 A2949 RMK AO2 PK WND 19040/1230 SLP987 T01000083=
201402121153 METAR KPAE 121153Z AUTO 20024G38KT 10SM BKN008 OVC012 09/08 A2943 RMK AO2 PK WND 19042/1107 RAB1058E29 SLP965 P0000 60015 70035 T00890078 10089 20061 56014=
201402121133 SPECI KPAE 121133Z AUTO 19030G40KT 4SM BR BKN008 OVC012 08/07 A2941 RMK AO2 PK WND 19042/1107 RAB1058E29 P0000 T00830072=
201402121053 METAR KPAE 121053Z AUTO 18026G33KT 9SM OVC012 08/06 A2943 RMK AO2 PK WND 18034/1020 RAE45 SLP966 P0001 T00780061=
201402121018 SPECI KPAE 121018Z AUTO 17024G33KT 3SM -RA BR BKN017 OVC024 08/06 A2944 RMK AO2 PK WND 15034/1002 P0001 T00780061=
201402120953 METAR KPAE 120953Z AUTO 17019G27KT 2 1/2SM -RA BR BKN023 OVC029 07/06 A2947 RMK AO2 PK WND 17031/0859 SLP979 P0003 T00720061=
201402120924 SPECI KPAE 120924Z AUTO 17021G29KT 2 1/2SM -RA BR OVC028 07/06 A2947 RMK AO2 PK WND 17031/0859 P0001 T00670056=
201402120911 SPECI KPAE 120911Z AUTO 16025G30KT 2 1/2SM -RA BR OVC030 07/06 A2947 RMK AO2 PK WND 17031/0859 PRESFR P0001 T00670056=
201402120853 METAR KPAE 120853Z AUTO 16022G27KT 4SM -RA BR OVC038 07/05 A2949 RMK AO2 PK WND 16027/0847 PRESFR SLP989 P0001 60011 T00670050 58051=
201402120753 METAR KPAE 120753Z AUTO 16014G19KT 6SM -RA BR FEW023 FEW029 OVC038 07/05 A2958 RMK AO2 PK WND 16027/0726 SLP018 P0005 T00670050 401000022=
201402120725 SPECI KPAE 120725Z AUTO 16017G23KT 8SM -RA FEW007 SCT013 OVC040 07/06 A2960 RMK AO2 PRESFR P0003 T00720056=
201402120718 SPECI KPAE 120718Z AUTO 15015G21KT 7SM -RA SCT007 BKN015 OVC037 07/06 A2961 RMK AO2 P0003 T00670056=
201402120703 SPECI KPAE 120703Z AUTO 16016KT 5SM -RA BR BKN009 OVC015 07/06 A2963 RMK AO2 P0001 T00720061=
201402120653 METAR KPAE 120653Z AUTO 16018G23KT 5SM -RA BR SCT009 BKN013 OVC019 07/06 A2965 RMK AO2 SLP041 P0005 T00720056=
201402120649 SPECI KPAE 120649Z AUTO 16015KT 5SM -RA BR BKN009 BKN015 OVC033 07/06 A2965 RMK AO2 P0004=
201402120642 SPECI KPAE 120642Z AUTO 16012G18KT 7SM -RA SCT007 BKN013 OVC030 07/06 A2966 RMK AO2 P0003 T00720061=
201402120633 SPECI KPAE 120633Z AUTO 16014KT 10SM -RA SCT010 BKN016 OVC034 07/06 A2966 RMK AO2 P0002 T00720056=
201402120624 SPECI KPAE 120624Z AUTO 15012G23KT 10SM -RA FEW010 BKN031 OVC039 07/06 A2968 RMK AO2 P0001 T00720056=
201402120614 SPECI KPAE 120614Z AUTO 15016G23KT 10SM -RA FEW008 BKN029 OVC039 07/06 A2968 RMK AO2 PRESFR P0001 T00720056=
201402120553 METAR KPAE 120553Z AUTO 15015KT 7SM -RA FEW010 BKN032 OVC039 07/06 A2971=
201402120520 SPECI KPAE 120520Z AUTO 15008G18KT 5SM -RA BR SCT006 BKN021 OVC028 07/06 A2974 RMK AO2 P0004 T00720056=
201402120513 SPECI KPAE 120513Z AUTO 14009G18KT 100V170 5SM -RA BR SCT006 BKN010 OVC021 07/06 A2974 RMK AO2 P0002 T00670056=
201402120455 SPECI KPAE 120455Z AUTO 15013KT 6SM -RA BR BKN006 BKN012 OVC021 07/06 A2976 RMK AO2 P0000 T00670056=
201402120453 METAR KPAE 120453Z AUTO 15011G15KT 6SM -RA BR BKN013 OVC042 07/06 A2975 RMK AO2 SLP078 P0005 T00670056=
201402120353 METAR KPAE 120353Z 15013G21KT 10SM -RA BKN013 OVC042 07/06 A2977 RMK AO2 SLP084 P0001 T00720061=
201402120348 SPECI KPAE 120348Z 15013G21KT 10SM -RA BKN013 OVC042 07/06 A2978 RMK AO2 P0000=
201402120253 METAR KPAE 120253Z 16016G21KT 10SM -RA SCT020 BKN034 OVC055 07/06 A2982 RMK AO2 SLP100 P0002 60007 T00720061 56037=
201402120153 METAR KPAE 120153Z 15012G19KT 7SM -RA FEW028 OVC046 08/06 A2985 RMK AO2 SLP112 P0003 T00780056=
201402120053 METAR KPAE 120053Z 15010G16KT 7SM -RA SCT034 BKN043 OVC055 08/06 A2989 RMK AO2 SLP123 P0002 T00830056=
201402112353 METAR KPAE 112353Z 15008KT 10SM -RA FEW036 BKN048 OVC065 09/05 A2993 RMK AO2 RAB02 SLP138 P0000 60000 T00890050 10100 20067 57040=
201402112253 METAR KPAE 112253Z 16009KT 10SM BKN065 OVC120 10/04 A2997 RMK AO2 SLP152 T01000044=
201402112153 METAR KPAE 112153Z 16008KT 10SM SCT025 SCT041 09/05 A3001 RMK AO2 SLP164 T00940050=
201402112053 METAR KPAE 112053Z 15010KT 10SM BKN017 09/04 A3005 RMK AO2 SLP178 T00890044 58024=
201402111953 METAR KPAE 111953Z 16010KT 10SM BKN017 08/04 A3009 RMK AO2 SLP193 T00830044=
201402111853 METAR KPAE 111853Z 16011KT 10SM SCT014 SCT020 07/04 A3012 RMK AO2 SLP202 T00720044=
201402111753 METAR KPAE 111753Z 18008KT 10SM SCT014 BKN020 07/05 A3012 RMK AO2 SLP203 T00670050 10067 20022 53011=
201402111653 METAR KPAE 111653Z 15009KT 10SM BKN005 BKN026 06/04 A3010 RMK AO2 SLP196 T00610044=
201402111616 SPECI KPAE 111616Z VRB04KT 10SM OVC005 06/04 A3010 RMK AO2 T00560044=
201402111553 METAR KPAE 111553Z 00000KT 9SM SCT005 SCT023 BKN034 06/04 A3009 RMK AO2 SLP192 T00560044=
201402111502 SPECI KPAE 111502Z 15007KT 10SM BKN007 06/04 A3009 RMK AO2 T00560044=
201402111453 METAR KPAE 111453Z 15006KT 10SM FEW006 06/04 A3009 RMK AO2 SLP192 T00560039 51006=
201402111443 SPECI KPAE 111443Z 15005KT 10SM FEW007 06/04 A3009 RMK AO2 T00560039=
201402111353 METAR KPAE 111353Z AUTO 12005KT 10SM CLR 05/04 A3009 RMK AO2 SLP191 T00500039=
201402111253 METAR KPAE 111253Z AUTO 10003KT 10SM CLR 04/03 A3008 RMK AO2 SLP190 T00440033=
201402111153 METAR KPAE 111153Z AUTO 16004KT 10SM CLR 03/02 A3007 RMK AO2 SLP186 70012 T00280022 10078 20028 53013=
201402111053 METAR KPAE 111053Z AUTO 18003KT 10SM CLR 04/03 A3005 RMK AO2 SLP178 T00440028=
201402110953 METAR KPAE 110953Z AUTO 20006KT 10SM CLR 05/04 A3004 RMK AO2 SLP174 T00500039=
201402110853 METAR KPAE 110853Z AUTO 22010KT 10SM CLR 07/04 A3003 RMK AO2 SLP172 T00670039 51019=
201402110753 METAR KPAE 110753Z AUTO 22012G20KT 10SM FEW018 SCT080 07/04 A3002 RMK AO2 SLP168 T00720039 400890017=
201402110653 METAR KPAE 110653Z AUTO 20012G22KT 10SM FEW017 OVC090 07/04 A2999=
201402110601 SPECI KPAE 110601Z AUTO 19017G24KT 10SM SCT013 BKN095 07/05 A2997 RMK AO2 T00720050=
201402110553 METAR KPAE 110553Z AUTO 18016G23KT 10SM BKN013 BKN095 07/05 A2997 RMK AO2 SLP153 60000 T00720050 10083 20072 56009=
201402110507 SPECI KPAE 110507Z AUTO 19016KT 10SM BKN010 BKN014 07/06 A2998 RMK AO2 CIG 009V013 T00720056=
201402110500 SPECI KPAE 110500Z AUTO 19018G24KT 10SM SCT012 07/05 A2998 RMK AO2 T00720050=
201402110453 METAR KPAE 110453Z AUTO 20018KT 10SM BKN012 07/05 A2997 RMK AO2 SLP154 T00720050=
201402110353 METAR KPAE 110353Z 18005KT 10SM BKN012 07/06 A2998 RMK AO2 SLP157 T00720056=
201402110253 METAR KPAE 110253Z 20014KT 10SM OVC008 08/06 A3000 RMK AO2 PK WND 19028/0202 SLP162 60000 T00780061 53013=
201402110153 METAR KPAE 110153Z 20017KT 10SM OVC009 08/06 A2998 RMK AO2 PK WND 19030/0140 CIG 008V013 SLP156 T00780061=
201402110131 SPECI KPAE 110131Z 20018G25KT 10SM BKN013 OVC019 08/06 A2996 RMK AO2 PK WND 20029/0100 T00780061=
201402110053 METAR KPAE 110053Z 19020G27KT 10SM FEW012 OVC021 08/06 A2996 RMK AO2 PK WND 19035/2357 RAB03E29 SLP149 P0000 T00830061=
201402110018 SPECI KPAE 110018Z 18019G29KT 5SM -RA BR SCT014 BKN025 OVC075 08/06 A2997 RMK AO2 PK WND 19035/2357 RAB03 P0000 T00780061=
201402102353 METAR KPAE 102353Z 18026G36KT 10SM SCT014 BKN060 OVC095 08/06 A2996 RMK AO2 PK WND 18036/2306 SLP149 T00830056 10089 20033 56007=
201402102253 METAR KPAE 102253Z 19024G32KT 10SM SCT015 OVC100 08/06 A2996 RMK AO2 PK WND 19035/2241 SLP149 T00830056=
201402102225 SPECI KPAE 102225Z 19019G24KT 10SM SCT007 BKN015 OVC110 08/06 A2997 RMK AO2 PK WND 19032/2208 T00830056=
201402102153 METAR KPAE 102153Z 19023G29KT 10SM BKN008 OVC014 08/06 A2997 RMK AO2 PK WND 20029/2153 SLP152 T00830061=
201402102053 METAR KPAE 102053Z 19015G21KT 10SM BKN005 OVC010 08/06 A2998 RMK AO2 PK WND 16027/1956 SLP157 T00780061 55003=
201402101953 METAR KPAE 101953Z 17021G29KT 2SM BR OVC004 05/04 A2996 RMK AO2 PK WND 17030/1937 SLP151 T00500039=
201402101853 METAR KPAE 101853Z 15018G26KT 2SM BR SCT004 OVC006 04/03 A2999 RMK AO2 PK WND 15026/1848 SLP160 T00440033=
201402101800 SPECI KPAE 101800Z 16016KT 1SM R16R/P6000FT BR BKN004 BKN010 OVC014 04/03 A2999 RMK AO2 T00390028=
201402101753 METAR KPAE 101753Z 16017KT 1/2SM R16R/P6000FT BR BKN004 OVC018 03/03 A2999 RMK AO2 PK WND 16026/1731 SLP161 60012 T00330028 10039 20022 53002=
201402101720 SPECI KPAE 101720Z 16017KT 1SM R16R/P6000FT BR BKN004 OVC018 03/02 A2999 RMK AO2 T00280022=
201402101714 SPECI KPAE 101714Z 16019KT 2SM BR BKN018 OVC050 03/02 A3000 RMK AO2 T00280017=
201402101653 METAR KPAE 101653Z 16017KT 5SM BR SCT003 BKN010 OVC029 03/02 A2999 RMK AO2 SLP160 T00280017=
201402101641 SPECI KPAE 101641Z 15016G21KT 8SM BKN006 BKN037 OVC110 03/02 A2999 RMK AO2 T00280017=
201402101611 SPECI KPAE 101611Z 15014KT 1SM R16R/P6000FT BR BKN006 BKN037 OVC110 03/02 A2999 RMK AO2 T00280017=
201402101553 METAR KPAE 101553Z 15009KT 10SM FEW006 BKN037 OVC110 03/02 A2998 RMK AO2 RAE25UPB18E24 SLP158 P0001 T00280017=
201402101549 SPECI KPAE 101549Z 15007KT 10SM BKN028 BKN037 OVC110 03/02 A2999 RMK AO2 RAE25UPB18E24 P0001=
201402101453 METAR KPAE 101453Z VRB05KT 8SM -RA SCT028 OVC038 02/01 A2998 RMK AO2 SLP158 P0003 60011 T00220011 58011=
201402101353 METAR KPAE 101353Z AUTO VRB05KT 7SM -RA FEW028 OVC039 02/01 A3000 RMK AO2 SLP162 P0005 T00220006=
201402101253 METAR KPAE 101253Z AUTO 15008KT 8SM -RA OVC033 03/00 A3001 RMK AO2 RAE08B28UPB1154E1157B22E28 SLP168 P0003 T00280000=
201402101153 METAR KPAE 101153Z AUTO VRB05KT 10SM -RA OVC042 03/01 A3002 RMK AO2 UPB09E14 SLP169 P0001 60001 70001 T00280006 10028 20017 57009=
201402101053 METAR KPAE 101053Z AUTO VRB04KT 10SM -RA BKN033 OVC044 02/01 A3003=
201402101012 SPECI KPAE 101012Z AUTO 12007KT 10SM BKN031 OVC042 02/00 A3003 RMK AO2 T00220000=
201402100953 METAR KPAE 100953Z AUTO VRB05KT 10SM FEW020 BKN029 OVC038 02/00 A3003 RMK AO2 SLP174 T00220000=
201402100931 SPECI KPAE 100931Z AUTO 12009KT 10SM SCT018 OVC031 02/00 A3003 RMK AO2 T00170000=
201402100853 METAR KPAE 100853Z AUTO 12006KT 10SM OVC018 02/01 A3004 RMK AO2 SLP179 T00170006 58005=
201402100753 METAR KPAE 100753Z AUTO 12005KT 10SM BKN021 OVC029 02/M01 A3005=
201402100653 METAR KPAE 100653Z AUTO VRB04KT 10SM OVC019 02/00 A3006 RMK AO2 SLP185 T00170000=
201402100553 METAR KPAE 100553Z AUTO 11007KT 10SM BKN022 OVC027 02/M01 A3006 RMK AO2 SLP184 T00171011 10022 20017 50001=
201402100453 METAR KPAE 100453Z 12006KT 10SM BKN019 OVC025 02/M02 A3006 RMK AO2 SLP185 T00221017=
201402100353 METAR KPAE 100353Z 14003KT 10SM BKN020 BKN034 OVC048 02/M02 A3006 RMK AO2 SLP184 T00171017=
201402100340 SPECI KPAE 100340Z 00000KT 10SM BKN020 OVC090 02/M02 A3006 RMK AO2 T00171017=
201402100317 SPECI KPAE 100317Z 12005KT 10SM SCT022 BKN090 OVC110 02/M02 A3006 RMK AO2 T00171017=
201402100253 METAR KPAE 100253Z 12004KT 10SM OVC021 02/M01 A3005 RMK AO2 SLP183 T00171011 55002=
201402100237 SPECI KPAE 100237Z 12005KT 10SM BKN021 OVC110 02/M01 A3005 RMK AO2 T00171011=
201402100153 METAR KPAE 100153Z 11005KT 10SM FEW021 BKN065 OVC110 02/M01 A3005 RMK AO2 SLP180 T00171011=
201402100106 SPECI KPAE 100106Z 12003KT 10SM FEW015 BKN070 OVC110 02/M01 A3005 RMK AO2 T00171006=
201402100053 METAR KPAE 100053Z 11006KT 10SM BKN015 OVC028 02/M01 A3005 RMK AO2 SLP180 T00171006=
201402092353 METAR KPAE 092353Z 12004KT 10SM OVC015 02/00 A3006=
201402092258 SPECI KPAE 092258Z 12003KT 10SM OVC017 02/00 A3006 RMK AO2 T00220000=
201402092253 METAR KPAE 092253Z VRB04KT 10SM OVC014 02/00 A3006 RMK AO2 SLP186 T00220000=
201402092153 METAR KPAE 092153Z 00000KT 10SM OVC014 02/00 A3007 RMK AO2 SLP188 T00170000=
201402092053 METAR KPAE 092053Z 11005KT 10SM OVC018 01/M01 A3007 RMK AO2 SLP188 T00111006 58001=
201402091953 METAR KPAE 091953Z 12004KT 10SM OVC017 01/M01 A3007 RMK AO2 SLP189 T00111011=
201402091853 METAR KPAE 091853Z VRB05KT 6SM BR OVC015 00/M02 A3008 RMK AO2 SLP193 T00001017=
201402091753 METAR KPAE 091753Z VRB04KT 10SM OVC020 00/M03 A3007 RMK AO2 SLP190 T00001028 10000 21011 51014=
201402091653 METAR KPAE 091653Z 00000KT 10SM OVC022 M01/M03 A3006 RMK AO2 SLP186 T10061028=
201402091553 METAR KPAE 091553Z VRB04KT 10SM SCT014 OVC070 M01/M03 A3004 RMK AO2 SLP180 T10111028=
201402091453 METAR KPAE 091453Z 15005KT 10SM BKN014 OVC070 M01/M03 A3003 RMK AO2 SLP175 T10111033 50002=
201402091353 METAR KPAE 091353Z AUTO VRB05KT 10SM OVC014 M01/M03 A3004 RMK AO2 SLP177 T10111028=
201402091342 SPECI KPAE 091342Z AUTO VRB03KT 10SM OVC014 M01/M03 A3004 RMK AO2 T10111028=
201402091253 METAR KPAE 091253Z AUTO 15005KT 8SM OVC019 M01/M03 A3004 RMK AO2 SLP176 T10111028=
201402091153 METAR KPAE 091153Z AUTO VRB03KT 10SM OVC018 M01/M03 A3002 RMK AO2 SLP172 60003 70006 T10111028 11011 21017 53016=
201402091053 METAR KPAE 091053Z AUTO 00000KT 10SM SCT022 BKN028 OVC037 M01/M03 A3000 RMK AO2 SLP164 T10111033=
201402091050 SPECI KPAE 091050Z AUTO 00000KT 10SM SCT022 BKN028 OVC037 M01/M03 A3000 RMK AO2=
201402090953 METAR KPAE 090953Z AUTO 12004KT 10SM OVC032 M01/M04 A2998 RMK AO2 SNE14 SLP156 P0001 T10111039=
201402090853 METAR KPAE 090853Z AUTO 12005KT 6SM -SN BR SCT016 OVC036 M01/M03 A2996 RMK AO2 SLP152 P0001 60002 T10111033 53022=
201402090824 SPECI KPAE 090824Z AUTO VRB03KT 3SM -SN BR FEW005 OVC016 M02/M03 A2995 RMK AO2 P0001 T10171028=
201402090803 SPECI KPAE 090803Z AUTO 12003KT 1 1/4SM -SN BR FEW005 OVC017 M02/M03 A2994 RMK AO2 P0001 T10171028=
201402090753 METAR KPAE 090753Z AUTO VRB04KT 1 1/4SM -SN BR OVC017 M02/M03 A2994 RMK AO2 SLP144 P0001 T10171028 400221044=
201402090720 SPECI KPAE 090720Z AUTO 10009KT 1SM R16R/P6000FT -SN BR FEW005 OVC017 M02/M03 A2991 RMK AO2 P0001 T10171028=
201402090653 METAR KPAE 090653Z AUTO 10010KT 1SM R16R/P6000FT -SN BR VV015 M01/M03 A2990 RMK AO2 SLP131 P0000 T10111028=
201402090603 SPECI KPAE 090603Z AUTO 11011G18KT 1SM R16R/P6000FT -SN BR VV015 M01/M03 A2989 RMK AO2 P0000 T10111028=
201402090553 METAR KPAE 090553Z AUTO 10008G18KT 1SM R16R/P6000FT -SN BR VV014 M01/M03 A2990 RMK AO2 SLP130 P0002 60003 T10111028 10017 21017 53010=
201402090542 SPECI KPAE 090542Z AUTO 10010G17KT 1SM R16R/P6000FT -SN BR VV013 M01/M03 A2989 RMK AO2 P0002 T10111033=
201402090534 SPECI KPAE 090534Z AUTO 10010G22KT 3/4SM R16R/P6000FT -SN BR VV011 M02/M03 A2988 RMK AO2 P0001 T10171028=
201402090453 METAR KPAE 090453Z AUTO 11011G18KT 3/4SM R16R/5500V6000FT -SN BR VV007 M02/M03 A2987 RMK AO2 SLP120 P0001 T10171033=
201402090414 SPECI KPAE 090414Z 10009KT 1/2SM R16R/4500V5000FT SN FZFG VV008 M01/M03 A2987 RMK AO2 P0000 T10111028=
201402090408 SPECI KPAE 090408Z 10009KT 1SM R16R/5000VP6000FT -SN BR VV011 M01/M03 A2987 RMK AO2 P0000 T10111028=
201402090353 METAR KPAE 090353Z 00000KT 2SM -SN OVC025 00/M05 A2987 RMK AO2 SNB43 SLP123 P0000 T00001050=
201402090350 SPECI KPAE 090350Z 10006KT 2SM -SN OVC026 01/M06 A2987 RMK AO2 SNB43 P0000=
201402090253 METAR KPAE 090253Z 00000KT 10SM SCT080 OVC100 01/M07 A2986 RMK AO2 SLP119 T00111072 51007=
201402090153 METAR KPAE 090153Z 00000KT 10SM CLR 01/M08 A2985 RMK AO2 SLP116 T00111078=
201402090053 METAR KPAE 090053Z 36006KT 10SM CLR 01/M07 A2985 RMK AO2 SLP115 T00111072=
201402082353 METAR KPAE 082353Z 36010G17KT 10SM CLR 01/M08 A2984 RMK AO2 SLP111 T00111078 10022 21006 58040=
201402082253 METAR KPAE 082253Z 36007KT 10SM CLR 01/M08 A2989 RMK AO2 SLP129 T00111078=
201402082153 METAR KPAE 082153Z 35006KT 10SM CLR 01/M07 A2992=
201402082053 METAR KPAE 082053Z 01006KT 10SM CLR 02/M08 A2996 RMK AO2 SLP151 T00171083 58017=
201402081953 METAR KPAE 081953Z 02008KT 10SM CLR 01/M10 A2998 RMK AO2 SLP160 T00111100=
201402081853 METAR KPAE 081853Z 06004KT 10SM CLR 01/M10 A3003 RMK AO2 SLP175 T00111100=
201402081753 METAR KPAE 081753Z 00000KT 10SM CLR M01/M08 A3001 RMK AO2 SLP170 T10061083 11006 21039 51013=
201402081653 METAR KPAE 081653Z 10005KT 10SM CLR M02/M09 A3000 RMK AO2 SLP166 T10221094=
201402081553 METAR KPAE 081553Z 12004KT 10SM CLR M04/M10 A3000 RMK AO2 SLP167 T10391100=
201402081453 METAR KPAE 081453Z 11007KT 10SM CLR M04/M11 A2997 RMK AO2 SLP157 T10391111 51015=
201402081353 METAR KPAE 081353Z AUTO 10004KT 10SM CLR M03/M11 A2995 RMK AO2 SLP150 T10281111=
201402081253 METAR KPAE 081253Z AUTO 00000KT 10SM CLR M03/M09 A2995 RMK AO2 SLP148 T10331094=
201402081153 METAR KPAE 081153Z AUTO 00000KT 10SM CLR M03/M09 A2993 RMK AO2 SLP142 T10331089 11017 21044 51027=
201402081053 METAR KPAE 081053Z AUTO 36003KT 10SM CLR M04/M09 A2990 RMK AO2 SLP133 T10391089=
201402080953 METAR KPAE 080953Z AUTO 36003KT 10SM CLR M03/M08 A2988 RMK AO2 SLP123 T10281083=
201402080853 METAR KPAE 080853Z AUTO 33003KT 10SM CLR M02/M08 A2985 RMK AO2 SLP114 T10221083 51019=
201402080753 METAR KPAE 080753Z AUTO 00000KT 10SM CLR M03/M08 A2983 RMK AO2 SLP108 T10281083 400061067=
201402080653 METAR KPAE 080653Z AUTO 36006KT 10SM CLR M02/M08 A2981 RMK AO2 SLP102 T10221083=
201402080553 METAR KPAE 080553Z AUTO 36007KT 10SM CLR M02/M09 A2979 RMK AO2 SLP095 T10171089 10000 21017 53005=
201402080453 METAR KPAE 080453Z AUTO 35005KT 10SM CLR M02/M09 A2978 RMK AO2 SLP090 T10171094=
201402080353 METAR KPAE 080353Z 35007KT 10SM CLR M01/M09 A2977 RMK AO2 SLP087 T10111089=
201402080253 METAR KPAE 080253Z 36009G17KT 10SM CLR M01/M08 A2977 RMK AO2 SLP090 T10111083 58015=
201402080153 METAR KPAE 080153Z 36008G16KT 10SM CLR M01/M09 A2979 RMK AO2 SLP096 T10061089=
201402080053 METAR KPAE 080053Z 34008KT 10SM CLR M01/M08 A2981 RMK AO2 SLP100 T10061078=
201402072353 METAR KPAE 072353Z 34006KT 10SM CLR M01/M08 A2982 RMK AO2 SLP105 T10061078 10006 21033 56029=
201402072253 METAR KPAE 072253Z 36006KT 10SM CLR 01/M08 A2984 RMK AO2 SLP112 T00061083=
201402072153 METAR KPAE 072153Z 01005KT 10SM BKN100 M01/M08 A2987 RMK AO2 SLP123 T10061083=
201402072053 METAR KPAE 072053Z 00000KT 10SM FEW029 BKN110 M01/M09 A2991 RMK AO2 SLP135 T10111089 58006=
201402071953 METAR KPAE 071953Z VRB03KT 10SM SCT030 M01/M09 A2992 RMK AO2 SLP140 T10061089=
201402071853 METAR KPAE 071853Z 00000KT 10SM SCT022 M03/M08 A2993 RMK AO2 SLP144 T10281083=
201402071753 METAR KPAE 071753Z 12004KT 10SM OVC023 M03/M08 A2992 RMK AO2 SLP141 T10331083 11033 21056 51014=
201402071653 METAR KPAE 071653Z 16005KT 10SM OVC020 M04/M09 A2992 RMK AO2 SLP139 T10391089=
201402071553 METAR KPAE 071553Z 15007KT 10SM OVC018 M04/M09 A2990 RMK AO2 SLP133 T10441089=
201402071453 METAR KPAE 071453Z 15009KT 10SM OVC022 M04/M11 A2988 RMK AO2 SLP127 T10441106 51014=
201402071353 METAR KPAE 071353Z AUTO 16007KT 10SM OVC028 M04/M11 A2987 RMK AO2 SLP123 T10441106=
201402071253 METAR KPAE 071253Z AUTO 16007KT 10SM OVC029 M04/M11 A2987=
201402071153 METAR KPAE 071153Z AUTO 18007KT 10SM SCT039 M06/M11 A2984 RMK AO2 SLP113 T10611111 11033 21067 53017=
201402071053 METAR KPAE 071053Z AUTO 16007KT 10SM SCT040 OVC048 M05/M12 A2982 RMK AO2 SLP106 T10501117=
201402070953 METAR KPAE 070953Z AUTO 17007KT 10SM OVC050 M04/M11 A2980 RMK AO2 SLP100 T10441111=
201402070853 METAR KPAE 070853Z AUTO 21003KT 10SM FEW055 M05/M14 A2979 RMK AO2 SLP096 T10501139 53006=
201402070753 METAR KPAE 070753Z AUTO 12003KT 10SM SCT060 OVC075 M03/M16 A2978 RMK AO2 SLP092 T10331156 410171067=
201402070653 METAR KPAE 070653Z AUTO 12003KT 10SM OVC042 M03/M14 A2977 RMK AO2 SLP089 T10331144=
201402070553 METAR KPAE 070553Z AUTO VRB04KT 10SM OVC050 M03/M16 A2977 RMK AO2 SLP090 T10331156 11022 21033 58006=
201402070453 METAR KPAE 070453Z AUTO 25004KT 10SM OVC050 M03/M14 A2978 RMK AO2 SLP093 T10331139=
201402070353 METAR KPAE 070353Z 11006KT 10SM OVC040 M03/M16 A2979 RMK AO2 SLP095 T10281161=
201402070253 METAR KPAE 070253Z 12011G16KT 10SM OVC060 M03/M16 A2979 RMK AO2 SLP097 T10281161 56019=
201402070153 METAR KPAE 070153Z 10008KT 070V140 10SM OVC065 M03/M17 A2980 RMK AO2 SLP099 T10281167=
201402070053 METAR KPAE 070053Z 10008KT 10SM BKN050 OVC095 M02/M18 A2982 RMK AO2 SLP107 T10221178=
201402062353 METAR KPAE 062353Z 11008KT 10SM OVC095 M02/M18 A2985 RMK AO2 SLP116 T10221183 11017 21050 56041=
201402062253 METAR KPAE 062253Z 11009KT 10SM OVC100 M02/M19 A2988 RMK AO2 SLP128 T10221189=
201402062153 METAR KPAE 062153Z 10005KT 10SM BKN120 M02/M19 A2992 RMK AO2 SLP141 T10221189=
201402062053 METAR KPAE 062053Z VRB04KT 10SM SCT040 M02/M19 A2997 RMK AO2 SLP158 T10221194 58036=
201402061953 METAR KPAE 061953Z VRB06KT 10SM CLR M03/M19 A3002 RMK AO2 SLP174 T10281194=
201402061853 METAR KPAE 061853Z VRB04KT 10SM CLR M04/M20 A3006 RMK AO2 SLP187 T10391200=
201402061753 METAR KPAE 061753Z 10008KT 10SM CLR M05/M20 A3008 RMK AO2 SLP195 T10501200 11050 21067 56017=
201402061653 METAR KPAE 061653Z 11008KT 10SM CLR M06/M20 A3010 RMK AO2 SLP201 T10561200=
201402061553 METAR KPAE 061553Z 11007KT 10SM CLR M07/M19 A3011 RMK AO2 SLP207 T10671194=
201402061453 METAR KPAE 061453Z 12005KT 10SM CLR M07/M20 A3013 RMK AO2 SLP213 T10671200 56025=
201402061353 METAR KPAE 061353Z AUTO 11006KT 10SM CLR M07/M19 A3015 RMK AO2 SLP219 T10671194=
201402061253 METAR KPAE 061253Z AUTO 10007KT 10SM CLR M07/M20 A3018 RMK AO2 SLP228 T10671200=
201402061153 METAR KPAE 061153Z AUTO 11007KT 10SM CLR M07/M20 A3021 RMK AO2 SLP237 T10671200 11067 21072 58024=
201402061053 METAR KPAE 061053Z AUTO 11006KT 10SM CLR M07/M20 A3024 RMK AO2 SLP248 T10671200=
201402060953 METAR KPAE 060953Z AUTO 11008KT 10SM CLR M07/M20 A3026 RMK AO2 SLP255 T10671200=
201402060853 METAR KPAE 060853Z AUTO 10010KT 10SM CLR M07/M20 A3028 RMK AO2 SLP262 T10671200 58019=
201402060753 METAR KPAE 060753Z AUTO 10007KT 10SM CLR M07/M20 A3031 RMK AO2 SLP272 T10671200 410171072=
201402060653 METAR KPAE 060653Z AUTO 11009KT 10SM CLR M07/M21 A3032=
201402060553 METAR KPAE 060553Z AUTO 12011KT 10SM CLR M07/M21 A3034 RMK AO2 SLP281 T10671206 11022 21067 56011=
201402060453 METAR KPAE 060453Z AUTO 12010KT 10SM CLR M07/M21 A3034 RMK AO2 SLP285 T10671206=
201402060353 METAR KPAE 060353Z 12012KT 10SM CLR M06/M21 A3036 RMK AO2 SLP288 T10611206=
201402060253 METAR KPAE 060253Z 12012KT 10SM CLR M06/M20 A3037 RMK AO2 SLP293 T10561200 56006=
201402060153 METAR KPAE 060153Z 12009KT 10SM CLR M05/M20 A3037 RMK AO2 SLP295 T10501200=
201402060053 METAR KPAE 060053Z 11012G17KT 10SM CLR M04/M19 A3038 RMK AO2 SLP297 T10391194=
201402052353 METAR KPAE 052353Z 10008KT 10SM CLR M03/M19 A3039 RMK AO2 SLP298 T10281189 11017 21044 56016=
201402052253 METAR KPAE 052253Z 10008KT 10SM CLR M02/M19 A3039 RMK AO2 SLP300 T10221189=
201402052153 METAR KPAE 052153Z 10007G15KT 10SM CLR M02/M18 A3041 RMK AO2 SLP304 T10221183=
201402052053 METAR KPAE 052053Z 11008KT 10SM CLR M02/M18 A3043 RMK AO2 SLP314 T10221183 58010=
201402051953 METAR KPAE 051953Z 11008KT 10SM CLR M03/M18 A3045 RMK AO2 SLP320 T10281178=
201402051853 METAR KPAE 051853Z 11005KT 10SM CLR M04/M17 A3047 RMK AO2 SLP326 T10391172=
201402051753 METAR KPAE 051753Z 11008KT CLR M04/M18 A3047 RMK AO2 SLP325 T10441178 11044 21056 51004 $=
201402051653 METAR KPAE 051653Z 11007KT 10SM CLR M05/M17 A3046 RMK AO2 SLP324 T10501172=
201402051553 METAR KPAE 051553Z 11007KT 10SM CLR M06/M17 A3046 RMK AO2 SLP322 T10561167=
201402051453 METAR KPAE 051453Z 11006KT 10SM CLR M06/M16 A3045 RMK AO2 SLP321 T10561156 53005=
201402051353 METAR KPAE 051353Z AUTO 11005KT 10SM CLR M06/M15 A3045 RMK AO2 SLP318 T10561150=
201402051253 METAR KPAE 051253Z AUTO 10004KT 10SM CLR M05/M15 A3045=
201402051153 METAR KPAE 051153Z AUTO VRB03KT 10SM CLR M04/M16 A3044 RMK AO2 SLP315 T10441156 11028 21050 51009=
201402051053 METAR KPAE 051053Z AUTO 11007KT 10SM CLR M04/M16 A3044 RMK AO2 SLP314 T10441156=
201402050953 METAR KPAE 050953Z AUTO 11008KT 10SM CLR M04/M16 A3043 RMK AO2 SLP311 T10391156=
201402050853 METAR KPAE 050853Z AUTO 11008KT 10SM CLR M03/M16 A3041 RMK AO2 SLP306 T10331156 50008=
201402050753 METAR KPAE 050753Z AUTO 11009KT 10SM CLR M03/M15 A3042 RMK AO2 SLP307 T10331150 400111033=
201402050653 METAR KPAE 050653Z AUTO 11009KT 10SM CLR M03/M14 A3039 RMK AO2 SLP300 T10281144=
201402050553 METAR KPAE 050553Z AUTO 11009KT 10SM BKN090 M03/M14 A3039 RMK AO2 SLP297 T10281144 10006 21028 53016=
201402050453 METAR KPAE 050453Z AUTO 11010KT 10SM OVC090 M02/M14 A3037 RMK AO2 SLP291 T10221139=
201402050353 METAR KPAE 050353Z 11010KT 10SM OVC085 M02/M13 A3035 RMK AO2 SLP285 T10171133=
201402050253 METAR KPAE 050253Z 12010KT 10SM FEW060 OVC085 M01/M13 A3034 RMK AO2 SLP281 T10111128 51013=
201402050153 METAR KPAE 050153Z 11008KT 10SM SCT060 OVC080 M01/M12 A3033 RMK AO2 SLP276 T10061122=
201402050053 METAR KPAE 050053Z 11007KT 10SM SCT055 OVC080 00/M12 A3031 RMK AO2 SLP272 T00001122=
201402042353 METAR KPAE 042353Z 09006KT 10SM OVC060 01/M12 A3030 RMK AO2 SLP267 60000 T00061117 10011 21011 53001=
201402042253 METAR KPAE 042253Z VRB06KT 10SM FEW041 BKN050 OVC060 01/M10 A3029 RMK AO2 SNB27E36 SLP265 P0000 T00061100=
201402042153 METAR KPAE 042153Z VRB03KT 10SM OVC037 01/M08 A3029=
201402042053 METAR KPAE 042053Z 00000KT 10SM FEW038 BKN070 OVC080 01/M08 A3029 RMK AO2 SLP266 T00061078 50004=
201402041953 METAR KPAE 041953Z VRB03KT 10SM SCT065 OVC080 01/M08 A3030 RMK AO2 SLP266 T00061078=
201402041853 METAR KPAE 041853Z 35007KT 10SM BKN055 OVC080 M01/M09 A3030 RMK AO2 SLP266 T10061089=
201402041753 METAR KPAE 041753Z 35008KT 10SM BKN060 M01/M08 A3028 RMK AO2 SLP261 T10111083 11011 21028 53016=
201402041653 METAR KPAE 041653Z 36007KT 10SM OVC060 M01/M08 A3026 RMK AO2 SLP254 T10111078=
201402041553 METAR KPAE 041553Z 36007KT 10SM OVC070 M02/M08 A3025 RMK AO2 SLP250 T10171078=
201402041453 METAR KPAE 041453Z 02006KT 10SM OVC065 M02/M07 A3023 RMK AO2 SLP245 T10171067 51009=
201402041353 METAR KPAE 041353Z AUTO 02004KT 10SM BKN065 M02/M06 A3023 RMK AO2 SLP244 T10221061=
201402041253 METAR KPAE 041253Z AUTO 00000KT 10SM CLR M02/M07 A3022 RMK AO2 SLP242 T10221067=
201402041153 METAR KPAE 041153Z AUTO 00000KT 10SM CLR M02/M08 A3021 RMK AO2 SLP235 T10221078 10000 21028 53004=
201402041053 METAR KPAE 041053Z AUTO 02003KT 10SM FEW045 BKN055 M02/M07 A3020 RMK AO2 SLP231 T10171067=
201402040953 METAR KPAE 040953Z AUTO 03004KT 10SM OVC055 M01/M06 A3020 RMK AO2 SLP231 T10111061=
201402040853 METAR KPAE 040853Z AUTO 00000KT 10SM OVC060 M02/M06 A3020 RMK AO2 SLP231 T10171061 51009=
201402040753 METAR KPAE 040753Z AUTO 00000KT 10SM BKN055 M01/M06 A3019 RMK AO2 SLP230 T10111061 400331017=
201402040653 METAR KPAE 040653Z AUTO 30004KT 10SM OVC055 M01/M06 A3017 RMK AO2 SLP223 T10111061=
201402040553 METAR KPAE 040553Z AUTO 32005KT 10SM SCT060 M01/M07 A3017 RMK AO2 SLP221 T10061067 10028 21006 51009=
201402040453 METAR KPAE 040453Z AUTO 33003KT 10SM OVC050 01/M07 A3016 RMK AO2 SLP220 T00061072=
201402040353 METAR KPAE 040353Z 31004KT 10SM OVC049 00/M07 A3015 RMK AO2 SLP216 T00001072=
201402040253 METAR KPAE 040253Z 31004KT 10SM CLR 00/M08 A3014 RMK AO2 SLP212 T00001083 51009=
201402040153 METAR KPAE 040153Z 30004KT 10SM CLR 01/M09 A3014 RMK AO2 SLP211 T00061089=
201402040053 METAR KPAE 040053Z 30005KT 10SM CLR 01/M08 A3012 RMK AO2 SLP207 T00111083=
201402032353 METAR KPAE 032353Z 36004KT 10SM CLR 03/M08 A3011 RMK AO2 SLP203 T00281078 10033 20006 53004=
201402032253 METAR KPAE 032253Z 33005KT 10SM CLR 02/M08 A3010 RMK AO2 SLP198 T00221078=
201402032153 METAR KPAE 032153Z VRB05KT 10SM CLR 02/M07 A3009 RMK AO2 SLP195 T00221067=
201402032053 METAR KPAE 032053Z 02007KT 10SM BKN047 03/M06 A3010 RMK AO2 SLP198 T00281061 58002=
201402031953 METAR KPAE 031953Z VRB06KT 10SM FEW047 02/M07 A3011 RMK AO2 SLP202 T00221067=
201402031853 METAR KPAE 031853Z VRB05KT 10SM SCT070 02/M06 A3011 RMK AO2 SLP201 T00171056=
201402031753 METAR KPAE 031753Z 32008KT 10SM CLR 01/M07 A3011 RMK AO2 SLP200 T00061067 10006 21011 53019=
201402031653 METAR KPAE 031653Z 29008KT 10SM CLR 00/M08 A3008 RMK AO2 SLP193 T00001078=
201402031553 METAR KPAE 031553Z 32008KT 10SM BKN085 M01/M08 A3006 RMK AO2 SLP186 T10061078=
201402031453 METAR KPAE 031453Z 31007KT 10SM OVC080 M01/M06 A3005 RMK AO2 SLP181 T10061056 51009=
201402031353 METAR KPAE 031353Z AUTO 32007KT 10SM OVC080 M01/M05 A3004 RMK AO2 SLP179 T10061050=
201402031253 METAR KPAE 031253Z AUTO 31008KT 10SM BKN034 M01/M05 A3004 RMK AO2 SLP178 T10061050=
201402031153 METAR KPAE 031153Z AUTO 35003KT 10SM CLR M01/M04 A3002 RMK AO2 SLP171 T10061044 10011 21011 51006=
201402031053 METAR KPAE 031053Z AUTO 34004KT 10SM CLR M01/M03 A3002 RMK AO2 SLP171 T10111033=
201402030953 METAR KPAE 030953Z AUTO 34005KT 10SM CLR M01/M04 A3001 RMK AO2 SLP168 T10111044=
201402030853 METAR KPAE 030853Z AUTO 33003KT 10SM CLR M01/M06 A3000 RMK AO2 SLP164 T10061061 51009=
201402030753 METAR KPAE 030753Z AUTO 30004KT 10SM CLR 01/M07 A3000 RMK AO2 SLP162 T00061072 400501006=
201402030653 METAR KPAE 030653Z AUTO 32007KT 10SM CLR 01/M07 A2998 RMK AO2 SLP158 T00111067=
201402030553 METAR KPAE 030553Z AUTO 30004KT 10SM BKN090 OVC100 01/M05 A2998 RMK AO2 SLP156 T00111050 10044 20011 53003=
201402030453 METAR KPAE 030453Z AUTO 29004KT 10SM OVC095 02/M03 A2997 RMK AO2 SLP154 T00171033=
201402030353 METAR KPAE 030353Z 31003KT 10SM FEW080 OVC100 02/M03 A2997 RMK AO2 SLP152 T00221033=
201402030253 METAR KPAE 030253Z 35004KT 10SM OVC090 03/M02 A2997 RMK AO2 SLP153 T00281017 51001=
201402030153 METAR KPAE 030153Z 33003KT 10SM OVC070 03/M01 A2997 RMK AO2 SLP153 T00281011=
201402030053 METAR KPAE 030053Z 34005KT 10SM OVC070 03/M01 A2997 RMK AO2 SLP152 T00331006=
201402022353 METAR KPAE 022353Z 35006KT 10SM OVC090 04/00 A2996 RMK AO2 SLP151 T00440000 10050 20017 55002=
201402022253 METAR KPAE 022253Z 35007KT 10SM OVC080 05/01 A2996 RMK AO2 SLP151 T00500006=
201402022153 METAR KPAE 022153Z COR 34005KT 10SM SCT040 BKN090 04/M01 A2997 RMK AO2 SLP152 T00441006=
201402022053 METAR KPAE 022053Z 00000KT 10SM OVC080 05/M02 A2997 RMK AO2 SLP154 T00501017 58015=
201402021953 METAR KPAE 021953Z 34004KT 10SM BKN075 04/00 A3000 RMK AO2 SLP163 T00390000=
201402021853 METAR KPAE 021853Z 17005KT 10SM OVC070 03/M01 A3001 RMK AO2 SLP165 T00331006=
201402021753 METAR KPAE 021753Z 15003KT 10SM OVC070 02/M02 A3002 RMK AO2 SLP170 I6001 T00171017 10022 21006 58004=
201402021653 METAR KPAE 021653Z 11006KT 10SM OVC065 02/M02 A3002 RMK AO2 SLP172 T00171017=
201402021553 METAR KPAE 021553Z 12003KT 10SM SCT020 BKN070 02/01 A3003 RMK AO2 SLP173 T00170006=
201402021453 METAR KPAE 021453Z 02003KT 10SM SCT004 OVC070 01/00 A3003 RMK AO2 SLP174 I1000 I3001 T00060000 55001=
201402021441 SPECI KPAE 021441Z AUTO 00000KT 6SM BR SCT004 OVC065 01/00 A3003 RMK AO2 I1000 T00110000=
201402021359 SPECI KPAE 021359Z AUTO 00000KT 3SM BR OVC065 01/00 A3003 RMK AO2 T00060000=
201402021353 METAR KPAE 021353Z AUTO 00000KT 1SM R16R/P6000FT BR BKN065 00/M01 A3003 RMK AO2 SLP173 I1001 T00001006=
201402021345 SPECI KPAE 021345Z AUTO 00000KT 2SM BR FEW005 BKN065 00/M01 A3003 RMK AO2 I1001 T00001006=
201402021253 METAR KPAE 021253Z AUTO 00000KT 9SM BKN065 01/00 A3003 RMK AO2 SLP175 T00110000=
201402021153 METAR KPAE 021153Z AUTO 01004KT 8SM OVC065 01/00 A3004 RMK AO2 SLP178 I6000 T00110000 10022 20006 58010=
201402021053 METAR KPAE 021053Z AUTO 03003KT 10SM FEW002 01/00 A3006 RMK AO2 SLP184 I1000 T00110000=
201402021029 SPECI KPAE 021029Z AUTO 03004KT 10SM SCT002 01/00 A3006 RMK AO2 T00110000=
201402020953 METAR KPAE 020953Z AUTO 03003KT 10SM FEW065 01/00 A3006 RMK AO2 SLP185 T00110000=
201402020853 METAR KPAE 020853Z AUTO 03003KT 10SM FEW065 01/00 A3007 RMK AO2 SLP188 T00110000 56005=
201402020753 METAR KPAE 020753Z AUTO 00000KT 10SM BKN065 02/01 A3008 RMK AO2 SLP190 T00220006 400560006=
201402020653 METAR KPAE 020653Z AUTO 00000KT 10SM BKN065 01/00 A3009 RMK AO2 SLP193 T00110000=
201402020553 METAR KPAE 020553Z AUTO 34003KT 9SM FEW065 01/M01 A3009 RMK AO2 SLP194 T00111006 10050 20011 58003=
201402020453 METAR KPAE 020453Z 10003KT 10SM FEW060 02/01 A3009 RMK AO2 SLP196 T00220006=
201402020353 METAR KPAE 020353Z 12003KT 10SM CLR 03/01 A3010 RMK AO2 SLP198 T00280006=
201402020253 METAR KPAE 020253Z 00000KT 10SM SCT024 BKN038 03/01 A3010 RMK AO2 SLP197 T00330011 56004=
201402020200 SPECI KPAE 020200Z 11003KT 10SM SCT024 BKN038 04/02 A3010 RMK AO2 T00390017=
201402020153 METAR KPAE 020153Z 11003KT 10SM BKN024 OVC038 04/02 A3010 RMK AO2 SLP199 T00440017=
201402020151 SPECI KPAE 020151Z 11003KT 10SM BKN024 OVC038 04/02 A3011 RMK AO2=
201402020053 METAR KPAE 020053Z 11004KT 10SM SCT012 SCT023 05/02 A3011 RMK AO2 SLP201 T00500017=
201402012353 METAR KPAE 012353Z 12004KT 10SM SCT010 BKN023 05/02 A3012 RMK AO2 SLP206 60000 T00500017 10056 20033 58005=
201402012253 METAR KPAE 012253Z VRB04KT 10SM SCT010 BKN027 06/02 A3013 RMK AO2 SLP206 T00560017=
201402012153 METAR KPAE 012153Z 00000KT 10SM SCT010 BKN027 OVC045 05/02 A3014 RMK AO2 RAB29E38 SLP211 P0000 T00500022=
201402012151 SPECI KPAE 012151Z 00000KT 10SM SCT010 BKN027 OVC045 05/02 A3014 RMK AO2 RAB29E38 P0000=
201402012120 SPECI KPAE 012120Z AUTO 05/ A3014 RMK AO2 T0050 TSNO $=
201402012053 METAR KPAE 012053Z 31003KT 10SM BKN027 OVC035 05/02 A3015 RMK AO2 SLP214 T00500022 56010=
201402011953 METAR KPAE 011953Z 00000KT 10SM OVC048 05/00 A3016 RMK AO2 SLP218 T00500000=
201402011853 METAR KPAE 011853Z VRB03KT 10SM FEW026 FEW031 OVC044 04/01 A3018 RMK AO2 SLP224 T00440011=
201402011753 METAR KPAE 011753Z 16003KT 10SM SCT026 OVC041 03/02 A3018 RMK AO2 SLP224 T00330022 10033 20011 53006=
201402011653 METAR KPAE 011653Z 00000KT 9SM FEW026 OVC041 03/02 A3017 RMK AO2 SLP222 T00280017=
201402011601 SPECI KPAE 011601Z 00000KT 10SM BKN030 BKN035 OVC050 03/01 A3017 RMK AO2 T00280011 $=
201402011553 METAR KPAE 011553Z COR 00000KT 10SM BKN030 BKN035 OVC050 03/01 A3016 RMK AO2 SLP219 T00280011 $=
201402011453 METAR KPAE 011453Z 16004KT 10SM OVC027 03/02 A3016 RMK AO2 SLP218 T00280017 56002 $=
201402011445 SPECI KPAE 011445Z 15003KT 10SM FEW008 OVC027 03/01 A3016 RMK AO2 T00280011 $=
201402011405 SPECI KPAE 011405Z AUTO 00000KT 9SM OVC029 02/01 A3016 RMK AO2 T00220006 $=
201402011353 METAR KPAE 011353Z AUTO 19005KT 10SM OVC030 02/01 A3016 RMK AO2 SLP218 T00170006 $=
201402011253 METAR KPAE 011253Z AUTO 00000KT 10SM FEW031 BKN055 02/M01 A3016 RMK AO2 SLP219 T00171006 $=
201402011153 METAR KPAE 011153Z AUTO 00000KT 10SM BKN031 OVC055 02/M02 A3017 RMK AO2 SLP221 70002 T00171022 10039 20017 50003 $=
201402011053 METAR KPAE 011053Z AUTO 00000KT 10SM OVC031 02/M03 A3017 RMK AO2 SLP223 T00221028 $=
201402010953 METAR KPAE 010953Z AUTO 00000KT 10SM BKN030 BKN055 02/M04 A3016 RMK AO2 SLP219 T00221039 $=
201402010853 METAR KPAE 010853Z AUTO 00000KT 10SM SCT031 OVC055 03/M04 A3016 RMK AO2 SLP217 T00281039 51006 $=
201402010753 METAR KPAE 010753Z AUTO 00000KT 10SM OVC032 03/M03 A3015 RMK AO2 SLP216 T00281028 400610017 $=
201402010653 METAR KPAE 010653Z AUTO 00000KT 10SM OVC033 03/M03 A3014 RMK AO2 SLP213 T00331033 $=
201402010553 METAR KPAE 010553Z AUTO 00000KT 10SM OVC033 03/M04 A3014 RMK AO2 SLP211 T00331044 10044 20017 53004 $=
201402010453 METAR KPAE 010453Z AUTO 05003KT 10SM FEW032 02/M03 A3013 RMK AO2 SLP208 T00221033 $=
201402010353 METAR KPAE 010353Z 00000KT 10SM BKN030 03/M02 A3013 RMK AO2 SLP207 T00281022 $=
201402010253 METAR KPAE 010253Z 00000KT 10SM OVC060 04/M02 A3013 RMK AO2 SLP206 T00441017 50006 $=
201402010153 METAR KPAE 010153Z 00000KT 10SM OVC060 04/M01 A3013 RMK AO2 SLP207 T00441011 $=
201402010053 METAR KPAE 010053Z VRB04KT 10SM BKN050 OVC060 04/M02 A3013 RMK AO2 SLP206 T00441022 $=

# No short TAF reports from KPAE in databse.

###################################
#  large TAF from KPAE
###################################
201402282327 TAF KPAE 282327Z 0100/0124 35007KT P6SM SCT035 SCT100 FM010400
                       05008KT P6SM SCT040 BKN080 FM011200 10008KT
                       P6SM BKN040=
201402281720 TAF KPAE 281720Z 2818/0118 35007KT P6SM SCT035 SCT060
                      TEMPO 2818/2820 BKN002 FM010400 03008KT P6SM
                       SCT040 BKN060 FM010800 09008KT P6SM SCT040
                       BKN060=
201402281514 TAF AMD KPAE 281514Z 2815/0112 VRB04KT P6SM BKN030 OVC060
                      TEMPO 2815/2817 1/2SM FG VV001 FM281700 35007KT
                       P6SM SCT035 OVC060 FM010400 06008KT P6SM
                       SCT040 BKN060 FM010800 09008KT P6SM SCT040
                       BKN060=
201402281500 TAF AMD KPAE 281500Z 2815/0112 VRB04KT P6SM BKN030 OVC060
                      TEMPO 2815/2817 4SM BR BKN001 FM281700 35007KT
                       P6SM SCT035 OVC060 FM010400 06008KT P6SM
                       SCT040 BKN060 FM010800 09008KT P6SM SCT040
                       BKN060=
201402281325 TAF AMD KPAE 281325Z 2813/0112 VRB04KT P6SM BKN030 OVC060
                      TEMPO 2813/2815 4SM BR BKN001 FM281700 35007KT
                       P6SM SCT035 OVC060 FM010400 06008KT P6SM
                       SCT040 BKN060 FM010800 09008KT P6SM SCT040
                       BKN060=
201402281120 TAF KPAE 281120Z 2812/0112 VRB04KT P6SM BKN030 OVC060 FM281700
                       35007KT P6SM SCT035 OVC060 FM010400 06008KT
                       P6SM SCT040 BKN060 FM010800 09008KT P6SM
                       SCT040 BKN060=
201402280536 TAF KPAE 280536Z 2806/0106 VRB04KT P6SM BKN050 OVC080 FM280700
                       VRB04KT P6SM BKN035 OVC060 FM281700 35009KT
                       P6SM SCT035 OVC060 FM010400 06012KT P6SM
                       SCT040 BKN060=
201402272340 TAF KPAE 272340Z 2800/2824 19006KT P6SM BKN050 OVC080 FM280700
                       VRB04KT P6SM BKN035 OVC060 FM281700 35009KT
                       P6SM SCT035 OVC060=
201402271739 TAF KPAE 271739Z 2718/2818 01004KT P6SM BKN100 FM271900 17005KT
                       P6SM SCT050 OVC090 FM280000 19006KT P6SM
                       BKN050 OVC080 FM280600 VRB04KT P6SM VCSH
                       BKN035 OVC060 FM281700 35005KT P6SM SCT035
                       OVC060=
201402271134 TAF KPAE 271134Z 2712/2812 01004KT P6SM BKN100 FM271900 17005KT
                       P6SM SCT050 OVC090 FM280000 19006KT P6SM
                       BKN050 OVC080 FM280600 VRB04KT P6SM VCSH
                       BKN035 OVC060=
201402270528 TAF KPAE 270528Z 2706/2806 VRB03KT P6SM SCT050 BKN200 FM271400
                       14003KT P6SM OVC120 FM271900 18004KT P6SM
                       SCT050 OVC090 FM280000 20006KT P6SM BKN050
                       OVC080=
201402262320 TAF KPAE 262320Z 2700/2724 VRB03KT P6SM SCT120 BKN250 FM270200
                       VRB03KT P6SM SCT050 BKN200
                      TEMPO 2702/2706 BKN050 FM271400 14003KT P6SM
                       OVC120 FM271900 18004KT P6SM BKN045 OVC090=
201402261733 TAF KPAE 261733Z 2618/2718 01004KT P6SM SCT250 FM271400 14003KT
                       P6SM OVC120=
201402261120 TAF KPAE 261120Z 2612/2712 09004KT P6SM SCT200 FM261800 VRB03KT
                       P6SM BKN150 FM270000 05005KT P6SM BKN120
                       FM270300 06005KT P6SM BKN080 BKN120=
201402260520 TAF KPAE 260520Z 2606/2706 04005KT P6SM SCT150 FM260900 06003KT
                       P6SM SCT150 FM261800 VRB03KT P6SM BKN150
                       FM270000 05005KT P6SM SCT080 BKN120 FM270300
                       06005KT P6SM BKN050 BKN080=
201402252338 TAF KPAE 252338Z 2600/2624 02005KT P6SM SCT150 FM260900 06003KT
                       P6SM VCFG FEW003 SCT150 FM261800 VRB03KT
                       P6SM BKN150=
201402251741 TAF KPAE 251741Z 2518/2618 02005KT P6SM BKN150 FM260200 06003KT
                       P6SM SCT150 FM260900 06003KT 6SM BR FEW003
                       SCT150=
201402251303 TAF AMD KPAE 251303Z 2513/2612 36007KT P6SM SCT003 BKN035 OVC045
                       FM251500 02005KT P6SM BKN040 BKN100 FM251700
                       04010KT P6SM SCT060 OVC100 FM260200 04006KT
                       P6SM FEW060 SCT100
                      TEMPO 2610/2612 3SM BR SCT005=
201402251226 TAF AMD KPAE 251226Z 2512/2612 36006KT 5SM BR OVC001 FM251500 02005KT
                       6SM BR SCT004 BKN008 FM251600 03003KT P6SM
                       SCT010 BKN040 FM251700 04010KT P6SM SCT060
                       OVC100 FM260200 04006KT P6SM FEW060 SCT100
                       TEMPO 2610/2612 3SM BR SCT005=
201402251136 TAF KPAE 251136Z 2512/2612 36006KT 3SM BR OVC001
                      TEMPO 2512/2515 1SM -DZ BR VV001 FM251500
                       02005KT 6SM BR SCT004 BKN008 FM251600 03003KT
                       5SM BR SCT010 BKN040 FM251700 04010KT P6SM
                       SCT060 OVC100 FM260200 04006KT P6SM FEW060
                       SCT100
                      TEMPO 2610/2612 3SM BR SCT005=
201402251102 TAF AMD KPAE 251102Z 2511/2606 05003KT 3SM BR OVC001
                      TEMPO 2511/2514 1/2SM -DZ FG VV001 FM251600
                       05003KT 5SM BR SCT005 OVC025 FM251700 05010KT
                       P6SM SCT060 OVC100 FM260200 04006KT P6SM
                       FEW060 BKN100=
201402250535 TAF KPAE 250535Z 2506/2606 04004KT 3SM -RA BR SCT002 OVC006
                      TEMPO 2506/2509 1/2SM -DZ FG OVC002 FM250900
                       05003KT 1/2SM -DZ FG OVC004 FM251600 05003KT
                       2SM BR SCT005 OVC025 FM251700 05010KT P6SM
                       SCT060 OVC100 FM260200 04006KT P6SM FEW060
                       BKN100=
201402250454 TAF AMD KPAE 250454Z 2505/2524 05004KT 2SM -RA BR OVC002
                      TEMPO 2505/2509 1/2SM -DZ FG FM250900 05003KT
                       1/2SM -DZ FG BKN002 OVC025 FM251600 05003KT
                       2SM BR SCT005 OVC025 FM251700 05010KT P6SM
                       BKN060 OVC100=
201402250324 TAF AMD KPAE 250324Z 2503/2524 03003KT 3SM -RA BR OVC002 FM250500
                       05004KT 2SM -RA BR OVC002 FM251200 05003KT
                       1/2SM -DZ FG BKN002 OVC025 FM251600 05003KT
                       2SM BR SCT005 OVC025 FM251700 05010KT P6SM
                       BKN060 OVC100=
201402242340 TAF KPAE 242340Z 2500/2524 03003KT 2SM -RA BR BKN010 OVC025 FM250900
                       05003KT 1/2SM FG BKN002 OVC025 FM251300
                       05003KT 2SM BR SCT005 OVC025 FM251700 05010KT
                       P6SM BKN060 OVC100=
201402241808 TAF AMD KPAE 241808Z 2418/2518 03005KT 4SM -RA BR BKN007 OVC015
                       FM250000 03003KT 6SM -RA BR BKN010 OVC025
                       FM250900 05003KT 1/2SM FG BKN002 OVC025
                       FM251200 05003KT 2SM BR SCT005 OVC025 FM251700
                       05010KT P6SM BKN060 OVC100=
201402241739 TAF KPAE 241739Z 2418/2518 03005KT 1/4SM -RA FG OVC002 FM242000
                       03005KT 3SM -RA BR BKN007 OVC015 FM250000
                       03003KT 6SM -RA BR BKN010 OVC025 FM250900
                       05003KT 1/2SM FG BKN002 OVC025 FM251200
                       05003KT 2SM BR SCT005 OVC025 FM251700 05010KT
                       P6SM BKN060 OVC100=
201402241125 TAF KPAE 241125Z 2412/2512 35004KT 1/2SM FG VV001
                      TEMPO 2412/2416 1/4SM FG FM241800 03005KT
                       2SM -RA BR BKN007 OVC015=
201402240902 KPAE 240902Z 2409/2506 35004KT 1SM -RA BR OVC003
                      TEMPO 2409/2413 1/4SM FG VV001 FM241800 03005KT
                       2SM -RA BR BKN007 OVC015=
201402240528 TAF KPAE 240528Z 2406/2506 35004KT 1SM -RA BR OVC003
                      TEMPO 2406/2410 1/2SM FG VV001 FM241800 03005KT
                       2SM -RA BR BKN007 OVC015=
201402240007 TAF AMD KPAE 240007Z 2400/2424 03005KT 2SM -RA BKN005 OVC012 FM240500
                       05004KT 3SM BR VCSH BKN010 OVC020 FM241600
                       07007KT 4SM -RA BR BKN007 OVC015=
201402232323 TAF KPAE 232323Z 2400/2424 03005KT 3SM -RA BKN005 OVC012 FM240500
                       05004KT 3SM BR VCSH BKN010 OVC020 FM241600
                       07007KT 4SM -RA BR BKN007 OVC015=
201402232013 TAF AMD KPAE 232013Z 2320/2418 14004KT 5SM -RA BKN010 OVC015
                      TEMPO 2320/2322 2SM -RASN OVC005 FM232200
                       03005KT 3SM -RASN BKN005 OVC012 FM240500
                       05004KT 5SM BR VCSH BKN010 OVC020=
201402231725 TAF KPAE 231725Z 2318/2418 15008KT 2SM BR BKN006 OVC013 FM232000
                       14004KT 5SM -RA BKN010 OVC015
                      TEMPO 2320/2322 2SM -RASN FM232200 03005KT
                       3SM -RASN BKN005 OVC012 FM240500 05004KT
                       5SM BR VCSH BKN010 OVC020=
201402231258 TAF AMD KPAE 231258Z 2313/2412 15008KT 4SM BR BKN006 OVC013 FM231800
                       14004KT 5SM -RA BKN010 OVC015
                      TEMPO 2318/2322 -RASN FM232200 03005KT 3SM
                       -RASN BKN005 OVC012=
201402231123 TAF KPAE 231123Z 2312/2412 15009KT P6SM -RA OVC012 FM231800 14004KT
                       5SM -RA BKN010 OVC015
                      TEMPO 2318/2322 -RASN FM232200 03005KT 3SM
                       -RASN BKN005 OVC012=
201402230906 TAF AMD KPAE 230906Z 2309/2406 17006KT P6SM -RA BKN006 OVC010 FM231800
                       14004KT 5SM -RASN BKN010 OVC015 FM232100
                       03005KT 3SM -RASN BKN005 OVC012=
201402230522 TAF KPAE 230522Z 2306/2406 17006KT P6SM -RASN BKN006 OVC010
                      TEMPO 2306/2310 4SM -RASN BKN004 FM231800
                       14004KT 5SM -RASN BKN010 OVC015 FM232100
                       03005KT 3SM -RASN BKN005 OVC012=
201402222339 TAF KPAE 222339Z 2300/2324 17006KT P6SM -RA BKN010 OVC015 FM230300
                       12008KT 4SM -RA BR BKN006 OVC013 FM231200
                       10005KT 5SM -RA BR BKN005 OVC010 FM232000
                       07005KT P6SM BKN010 OVC030=
201402221748 TAF AMD KPAE 221748Z 2218/2318 16005KT P6SM VCSH SCT010 OVC030
                       TEMPO 2218/2221 2SM -RASN BR OVC005 FM222200
                       17006KT P6SM -RA BKN010 OVC020 FM230300
                       12008KT P6SM -RA SCT006 OVC013
                      TEMPO 2303/2307 4SM -RA BR OVC006 FM231200
                       10005KT P6SM -RA BKN005 OVC010=
201402221727 TAF KPAE 221727Z 2218/2318 16005KT P6SM VCSH SCT010 OVC030
                      TEMPO 2218/2221 4SM -RASN BR OVC005 FM222200
                       17006KT P6SM -RA BKN010 OVC020 FM230300
                       12008KT P6SM -RA SCT006 OVC013
                      TEMPO 2303/2307 4SM -RA BR OVC006 FM231200
                       10005KT P6SM -RA BKN005 OVC010=
201402221520 TAF AMD KPAE 221520Z 2215/2312 00000KT P6SM SCT011 BKN050 OVC100
                       TEMPO 2215/2218 1/2SM FG OVC001 FM221800
                       16005KT P6SM SCT020 OVC030
                      TEMPO 2218/2221 6SM -RASN OVC020 FM222200
                       17006KT P6SM -RA SCT013 OVC023 FM230300
                       12008KT P6SM -RA SCT006 OVC013
                      TEMPO 2303/2307 4SM -RA BR OVC006=
201402221130 TAF KPAE 221130Z 2212/2312 00000KT P6SM SCT011 BKN050 OVC100 FM221800
                       16005KT P6SM SCT020 OVC030
                      TEMPO 2218/2221 6SM -RASN OVC020 FM222200
                       17006KT P6SM -RA SCT013 OVC023 FM230300
                       12008KT P6SM -RA SCT006 OVC013
                      TEMPO 2303/2307 4SM -RA BR OVC006=
201402220525 TAF KPAE 220525Z 2206/2306 01003KT P6SM BKN060 FM221600 15005KT
                       6SM -SNRA BR SCT030 OVC040 FM222100 16008KT
                       P6SM -RA SCT015 BKN025 FM230300 12008KT
                       5SM -RA BR SCT006 OVC013=
201402212343 TAF KPAE 212343Z 2200/2224 VRB03KT P6SM VCSH SCT025 OVC035 FM220300
                       13003KT P6SM SCT035 BKN045 FM221600 15005KT
                       6SM -SNRA BR SCT030 OVC040 FM222100 16008KT
                       P6SM -RA SCT015 BKN025=
201402211739 TAF KPAE 211739Z 2118/2218 33005KT P6SM VCSH SCT030 BKN050 FM220000
                       VRB03KT P6SM SCT050 BKN090 FM221200 15005KT
                       6SM -SNRA BR SCT035 OVC050=
201402211218 TAF AMD KPAE 211218Z 2112/2212 32003KT P6SM SCT020 OVC045
                      TEMPO 2112/2115 -SHRA BKN020 OVC035 FM211600
                       33005KT P6SM SCT040 BKN100 FM220300 03002KT
                       P6SM BKN100=
201402211120 TAF KPAE 211120Z 2112/2212 VRB04KT P6SM BKN021 OVC030
                      TEMPO 2112/2115 -SHRA FM211600 33005KT P6SM
                       SCT040 BKN100 FM220300 03002KT P6SM BKN100=
201402211037 TAF AMD KPAE 211037Z 2111/2206 02005KT P6SM BKN015 BKN030 OVC050
                       FM211600 33005KT P6SM SCT040 BKN100 FM220300
                       03002KT P6SM BKN100=
201402210526 TAF KPAE 210526Z 2106/2206 19005KT P6SM OVC060 FM211000 34005KT
                       P6SM SCT020 BKN035 FM211600 33005KT P6SM
                       SCT040 BKN100 FM220300 03002KT P6SM BKN100=
201402210315 TAF AMD KPAE 210315Z 2103/2124 00000KT P6SM BKN029 BKN045 OVC070
                       FM211000 VRB05KT P6SM BKN020 BKN035 FM211800
                       28004KT P6SM SCT030 BKN050=
201402202337 TAF KPAE 202337Z 2100/2124 VRB05KT P6SM VCSH SCT030 BKN070 FM210100
                       VRB05KT P6SM SCT025 BKN040 FM211000 VRB05KT
                       P6SM BKN020 BKN035 FM211800 28004KT P6SM
                       SCT030 BKN050=
201402201725 TAF KPAE 201725Z 2018/2118 20010KT P6SM SCT015 BKN060 OVC120 FM202200
                       VRB05KT P6SM VCSH SCT020 BKN050 FM210000
                       VRB05KT P6SM SCT025 BKN040 FM211000 VRB05KT
                       P6SM BKN020 BKN035=
201402201223 TAF AMD KPAE 201223Z 2012/2112 18007KT 6SM BR VCSH OVC006 FM201600
                       16006KT P6SM -SHRA BKN015 BKN035 FM202200
                       VRB05KT P6SM VCSH BKN025 BKN040 FM210000
                       VRB05KT P6SM SCT025 BKN040 FM211000 VRB05KT
                       P6SM BKN020 BKN035=
201402201120 TAF KPAE 201120Z 2012/2112 19012KT P6SM VCSH BKN010 OVC015 FM201600
                       16006KT P6SM -SHRA BKN015 BKN035 FM202200
                       VRB05KT P6SM VCSH BKN025 BKN040 FM210000
                       VRB05KT P6SM SCT025 BKN040 FM211000 VRB05KT
                       P6SM BKN020 BKN035=
201402200538 TAF KPAE 200538Z 2006/2106 17013KT P6SM -RA BKN020 OVC050 FM200900
                       20010KT P6SM -SHRA BKN015 OVC025 FM201600
                       16006KT P6SM VCSH BKN020 BKN040 FM202200
                       VRB05KT P6SM VCSH BKN025 BKN050=
201402200406 TAF AMD KPAE 200406Z 2004/2024 18010KT P6SM -RA BKN020 BKN026 OVC060
                       FM200900 20010KT P6SM -SHRA BKN015 OVC025
                       FM201600 18012KT P6SM VCSH OVC020 FM202000
                       22008KT P6SM BKN025 OVC050=
201402192339 TAF KPAE 192339Z 2000/2024 18010KT P6SM BKN025 OVC100 FM200400
                       16015G25KT P6SM -RA SCT020 OVC035 FM200900
                       20010KT P6SM -SHRA BKN015 OVC025 FM201600
                       18012KT P6SM VCSH OVC020 FM202000 22008KT
                       P6SM BKN025 OVC050=
201402191727 TAF KPAE 191727Z 1918/2018 VRB05KT P6SM BKN025 BKN060 FM192200
                       18010KT P6SM SCT025 BKN100 FM200400 16015G25KT
                       P6SM -RA SCT020 OVC035 FM200900 20010KT
                       P6SM -SHRA BKN015 OVC025 FM201600 18012KT
                       P6SM OVC020=
201402191121 TAF KPAE 191121Z 1912/2012 22006KT P6SM VCSH BKN014 BKN070 FM191400
                       VRB05KT P6SM -SHRA BKN015 BKN025 FM192200
                       18010KT P6SM VCSH SCT022 BKN035 FM200400
                       16015G25KT P6SM -RA SCT020 OVC035 FM200900
                       20010KT P6SM -SHRA BKN015 OVC025=
201402190536 TAF KPAE 190536Z 1906/2006 21006KT P6SM -SHRA BKN023 OVC035 FM191000
                       VRB05KT P6SM VCSH BKN020 BKN035 FM191800
                       18010KT P6SM VCSH SCT022 BKN035 FM200100
                       15012KT P6SM -RA SCT020 OVC035=
201402190204 TAF AMD KPAE 190204Z 1902/1924 27010KT P6SM -SHRA VCTS BKN025CB
                       OVC045 FM190400 19012KT P6SM -SHRA SCT015
                       BKN025 FM191800 18012KT P6SM VCSH SCT022
                       BKN035=
201402182320 TAF KPAE 182320Z 1900/1924 21018G28KT P6SM -SHRA SCT004 BKN012
                       OVC025
                      TEMPO 1900/1901 5SM -RA BR OVC004 FM190200
                       21014G23KT P6SM -SHRA BKN015 OVC035 FM190800
                       19012KT P6SM VCSH SCT015 BKN035 FM191800
                       18012KT P6SM VCSH SCT022 BKN035=
201402181724 TAF KPAE 181724Z 1818/1918 16017G30KT P6SM -RA OVC035 FM182000
                       17018G30KT 5SM -RA OVC020 FM182200 19014G22KT
                       P6SM -SHRA BKN020 OVC035 FM190500 19014KT
                       P6SM SCT035 BKN050=
201402181138 TAF KPAE 181138Z 1812/1912 16014KT P6SM SCT030 BKN045 OVC070 FM181600
                       16014G24KT P6SM -RA OVC035 FM181900 17018G30KT
                       5SM -RA OVC020 FM182200 19014G22KT P6SM
                       -SHRA BKN020 OVC035 FM190500 19014KT P6SM
                       SCT035 BKN050=
201402180539 TAF KPAE 180539Z 1806/1906 16008KT P6SM SCT030 BKN045
                      TEMPO 1807/1811 SCT045 FM181100 14008KT P6SM
                       SCT045 BKN070 OVC200 FM181600 16012G22KT
                       P6SM -RA OVC035 FM181800 17018G30KT 5SM
                       -RA OVC020 FM182200 19014G22KT P6SM -SHRA
                       BKN020 OVC035 FM190500 19014KT P6SM SCT035
                       BKN050=
201402172334 TAF KPAE 172334Z 1800/1824 19010KT P6SM -SHRA SCT025 BKN035 BKN050
                       TEMPO 1800/1803 SHRA OVC025 FM180300 18010KT
                       P6SM VCSH BKN025 OVC035 FM181600 16012G22KT
                       5SM -RA BR OVC020 FM181900 17018G30KT 5SM
                       -RA OVC020=
201402171726 TAF KPAE 171726Z 1718/1818 16012G22KT P6SM SCT010 OVC050
                      TEMPO 1718/1721 -SHRA BKN010 OVC050 FM172100
                       17010KT P6SM SCT025 BKN040 BKN060 FM180000
                       15010KT P6SM SCT035 BKN060 FM181400 16012G22KT
                       5SM -RA BR OVC020=
201402171138 TAF KPAE 171138Z 1712/1812 19012KT P6SM SCT008 BKN018 OVC030
                      TEMPO 1712/1716 -RA BKN008 OVC018 FM172000
                       17010KT P6SM SCT025 BKN040 BKN060 FM172300
                       15008KT P6SM SCT035 BKN060=
201402170541 TAF KPAE 170541Z 1706/1806 18020G30KT P6SM -RA SCT020 BKN040 OVC060
                       FM171200 20010KT P6SM -SHRA BKN025 BKN040
                       FM171800 18010KT P6SM SCT025 BKN040 BKN060=
201402162321 TAF KPAE 162321Z 1700/1724 18020G30KT 5SM -RA BR OVC030 FM171200
                       20010KT P6SM -RA BKN020 FM171800 18011KT
                       P6SM VCSH BKN040=
201402161729 TAF KPAE 161729Z 1618/1718 18013G22KT P6SM SCT020 BKN100 FM162200
                       18020G30KT 5SM -RA BR OVC025 FM171200 20010KT
                       P6SM -RA BKN020=
201402161134 TAF KPAE 161134Z 1612/1712 20014KT P6SM SCT022 BKN060 BKN100
                      TEMPO 1612/1615 -SHRA BKN022 BKN060 FM161700
                       18010KT P6SM SCT040 BKN100 FM162200 18020G30KT
                       5SM -RA BR OVC035=
201402160536 TAF KPAE 160536Z 1606/1706 18022G32KT P6SM -SHRA SCT035 BKN050
                       FM161100 18012KT P6SM SCT035 BKN050 BKN100
                       FM162000 18020G30KT 5SM -RA BR OVC035=
201402160302 TAF AMD KPAE 160302Z 1603/1624 18022G32KT P6SM -SHRA SCT025 BKN035
                       BKN050
                      TEMPO 1603/1605 BKN025 OVC035 FM161300 20016G25KT
                       P6SM BKN035 OVC050 FM162000 18021G30KT 5SM
                       -RA BR OVC030=
201402152320 TAF KPAE 152320Z 1600/1624 13014G22KT P6SM -RA SCT025 OVC035
                      TEMPO 1600/1604 5SM -RA OVC025 FM160400 18020G30KT
                       P6SM -SHRA SCT025 BKN035 BKN050 FM161300
                       20016G25KT P6SM BKN035 OVC050 FM162000 18021G30KT
                       5SM -RA BR OVC030=
201402151726 TAF KPAE 151726Z 1518/1618 09006KT P6SM SCT040 BKN100 OVC200 FM152200
                       13014G22KT P6SM -RA SCT025 OVC035
                      TEMPO 1600/1604 5SM -RA OVC025 FM160400 18020G30KT
                       P6SM -SHRA SCT025 BKN035 BKN050 FM161300
                       20016G25KT P6SM BKN035 OVC050=
201402151140 TAF KPAE 151140Z 1512/1612 13006KT P6SM SCT040 BKN200 FM151700
                       09006KT P6SM SCT040 BKN100 OVC200 FM152200
                       13014G22KT P6SM -RA SCT025 OVC035
                      TEMPO 1600/1604 5SM -RA OVC025 FM160400 18020G30KT
                       P6SM -SHRA SCT025 BKN035 BKN050=
201402150540 TAF KPAE 150540Z 1506/1606 17008KT P6SM SCT200 FM151200 09006KT
                       P6SM SCT040 BKN200 FM151700 09006KT P6SM
                       SCT040 BKN100 OVC200 FM152200 13014G22KT
                       P6SM -RA SCT025 OVC035
                      TEMPO 1600/1604 5SM -RA OVC025 FM160400 18020G30KT
                       P6SM -SHRA SCT025 BKN035 BKN050=
201402142334 TAF KPAE 142334Z 1500/1524 19016KT P6SM SCT025 FM150200 18007KT
                       P6SM SCT025 BKN050 FM151200 10006KT P6SM
                       BKN025 OVC050 FM152100 15010KT 5SM -RA BR
                       OVC025=
201402141732 TAF KPAE 141732Z 1418/1518 18017G25KT P6SM SCT007 BKN015 OVC040
                       FM142200 19016KT P6SM VCSH OVC025 FM150200
                       18007KT P6SM SCT025 BKN050 FM151200 10006KT
                       P6SM BKN025 OVC050=
201402141411 TAF AMD KPAE 141411Z 1414/1512 18017G25KT P6SM SCT007 BKN015 OVC040
                       TEMPO 1414/1418 -SHRA BKN007 OVC015 FM142200
                       19016KT P6SM VCSH OVC025 FM150200 18007KT
                       P6SM SCT025 BKN050=
201402141315 TAF AMD KPAE 141315Z 1413/1512 17013KT P6SM BKN015 OVC040
                      TEMPO 1414/1418 17015G25KT -SHRA FM142200
                       19016KT P6SM VCSH OVC025 FM150200 18007KT
                       P6SM SCT025 BKN050=
201402141123 TAF KPAE 141123Z 1412/1512 12013G19KT 5SM -RA OVC030 FM141300 18017G25KT
                       4SM -RA OVC025 FM142200 19016KT P6SM VCSH
                       OVC025 FM150200 18007KT P6SM SCT025 BKN050=
201402140520 TAF KPAE 140520Z 1406/1506 11007KT P6SM OVC200 FM140900 13010KT
                       P6SM -RA SCT020 OVC040 FM141200 16013G23KT
                       P6SM -RA BKN020 OVC040 FM141500 16017G25KT
                       6SM -RA BR BKN015 OVC025=
201402132332 TAF KPAE 132332Z 1400/1424 21010KT P6SM SCT050 FM140300 15008KT
                       P6SM BKN200 FM140900 13010KT P6SM -RA SCT020
                       OVC040 FM141200 16013G23KT P6SM -RA BKN020
                       OVC040 FM141500 16017G25KT 6SM -RA BR BKN015
                       OVC025=
201402131727 TAF KPAE 131727Z 1318/1418 21010KT P6SM SCT040 FM140200 15008KT
                       P6SM SCT050 FM140800 13010KT P6SM -RA SCT020
                       OVC040 FM141200 16013G23KT P6SM -RA OVC020=
201402131311 TAF AMD KPAE 131311Z 1313/1412 20013G20KT P6SM SCT012 SCT030
                      TEMPO 1313/1316 5SM SHRA BKN012 OVC030 FM132100
                       19013KT P6SM BKN040 FM140800 13009KT P6SM
                       -RA SCT020 OVC040 FM141100 16013G23KT P6SM
                       -RA OVC020=
201402131126 TAF KPAE 131126Z 1312/1412 21012KT P6SM VCSH SCT011
                      TEMPO 1312/1316 BKN011 FM132100 19013KT P6SM
                       BKN040 FM140800 13009KT P6SM -RA SCT020
                       OVC040 FM141100 16013G23KT P6SM -RA OVC020=
201402130908 KPAE 130908Z 1309/1406 21016G24KT P6SM -SHRA OVC007 FM131800 21014KT
                       P6SM BKN025 BKN050=
201402130733 TAF AMD KPAE 130733Z 1308/1406 21006KT 3SM -RA BR BKN008 OVC014
                       FM131800 21014KT P6SM BKN025 BKN050=
201402130529 TAF KPAE 130529Z 1306/1406 17010KT P6SM -RA BKN040 OVC080 FM130800
                       18015G25KT P6SM -RA OVC015 FM131800 21014KT
                       P6SM BKN025 BKN050=
201402122349 TAF KPAE 122349Z 1300/1324 19012KT P6SM SCT040 BKN250 FM130500
                       18010KT P6SM -RA OVC025 FM130800 18015G25KT
                       P6SM -RA OVC015 FM131800 21014KT P6SM BKN025
                       BKN050=
201402121744 TAF KPAE 121744Z 1218/1318 03006KT P6SM VCSH BKN018 BKN040
                      TEMPO 1218/1221 SCT020 BKN040 FM122100 21012KT
                       P6SM SCT025 BKN045 FM130600 18012KT P6SM
                       -RA OVC025 FM130800 19016G23KT 5SM -RA BR
                       OVC020=
201402121604 TAF AMD KPAE 121604Z 1216/1312 21012G20KT P6SM VCSH OVC020
                      TEMPO 1216/1219 VRB05KT 3SM -SHRA BKN014
                       OVC020 FM121900 21012KT P6SM BKN020 FM122100
                       20011KT P6SM SCT025 BKN045 FM130400 18012KT
                       4SM -RA BR OVC025 FM131000 19016G23KT 4SM
                       -RA BR OVC020=
201402121400 TAF AMD KPAE 121400Z 1214/1312 21015G25KT P6SM VCSH OVC011 FM121600
                       19016G24KT P6SM SCT015 BKN035 FM122100 20011KT
                       P6SM SCT025 BKN045 FM130400 18012KT 4SM
                       -RA BR OVC025 FM131000 19016G23KT 4SM -RA
                       BR OVC020=
201402121127 TAF KPAE 121127Z 1212/1312 18026G33KT P6SM VCSH OVC012 FM121600
                       19016G24KT P6SM SCT015 BKN035 FM122100 20011KT
                       P6SM SCT025 BKN045 FM130400 18012KT 4SM
                       -RA BR OVC025 FM131000 19016G23KT 4SM -RA
                       BR OVC020=
201402120531 TAF KPAE 120531Z 1206/1306 15008G18KT 5SM -RA BR SCT006 BKN021
                       OVC028 FM120800 15015G25KT 3SM -RA BR OVC012
                       FM121700 19012KT P6SM -SHRA BKN015 OVC025
                       FM122000 19012KT P6SM -SHRA BKN025 OVC040
                       FM130100 19008KT P6SM VCSH SCT020 OVC035=
201402112337 TAF KPAE 112337Z 1200/1224 16012KT P6SM -RA OVC040 FM120300 16015G25KT
                       5SM -RA BR BKN020 OVC040 FM120600 16018G28KT
                       4SM -RA BR OVC015 FM121500 19012KT P6SM
                       -SHRA BKN015 OVC025 FM121900 19012KT P6SM
                       -SHRA BKN025 OVC040=
201402112019 TAF AMD KPAE 112019Z 1120/1218 16010KT P6SM SCT017 OVC150
                      TEMPO 1120/1122 BKN017 OVC150 FM112200 16012KT
                       P6SM BKN050 OVC080 FM120100 16015G25KT P6SM
                       -RA SCT025 OVC050 FM120300 16017G28KT 5SM
                       -RA BR BKN020 OVC040 FM120500 17018G28KT
                       4SM -RA BR OVC015 FM121500 19012KT P6SM
                       -SHRA BKN015 OVC025=
201402111748 TAF KPAE 111748Z 1118/1218 16008KT P6SM BKN006 BKN025
                      TEMPO 1118/1120 SCT006 BKN025 FM112000 15008KT
                       P6SM SCT050 OVC150 FM112200 15010KT P6SM
                       BKN050 OVC080 FM120100 16015G25KT P6SM -RA
                       SCT025 OVC050 FM120300 16017G28KT 5SM -RA
                       BR BKN020 OVC040 FM120500 17018G28KT 4SM
                       -RA BR OVC015 FM121500 19012KT P6SM -SHRA
                       BKN015 OVC025=
201402111129 TAF KPAE 111129Z 1112/1212 18003KT P6SM SCT015 BKN100
                      TEMPO 1112/1116 OVC015 FM112000 16010KT P6SM
                       OVC070 FM112300 16013KT P6SM -RA OVC050
                       FM120300 17018G25KT 4SM -RA BR OVC015=
201402110531 TAF KPAE 110531Z 1106/1206 19016KT P6SM VCSH BKN010 BKN014 FM111300
                       18009KT P6SM OVC015 FM120100 17018G24KT
                       4SM -RA OVC007=
201402110301 TAF AMD KPAE 110301Z 1103/1124 20014KT P6SM -SHRA OVC008 FM110800
                       18012KT P6SM VCSH BKN015 OVC035 FM111200
                       17012KT P6SM VCSH BKN008 OVC015 FM111800
                       17008KT P6SM BKN025 OVC040 FM112300 17010KT
                       P6SM -RA OVC035=
201402102337 TAF KPAE 102337Z 1100/1124 17020G30KT P6SM -SHRA SCT015 BKN050
                       TEMPO 1100/1102 3SM -SHRA BR BKN010 OVC025
                       FM110400 18012G24KT P6SM -SHRA BKN025 OVC040
                       FM110800 18012KT P6SM VCSH BKN015 OVC035
                       FM111200 17012KT P6SM VCSH BKN008 OVC015
                       FM111800 17008KT P6SM BKN025 OVC040 FM112300
                       17010KT P6SM -RA OVC035=
201402102031 TAF AMD KPAE 102031Z 1021/1118 17020G30KT P6SM SCT006 OVC012
                      TEMPO 1021/1023 3SM -SHRA BKN006 OVC012 FM102300
                       18015G25KT P6SM -SHRA BKN015 OVC025 FM110400
                       17015KT P6SM -RA BKN018 OVC030=
201402101727 TAF KPAE 101727Z 1018/1118 17015G23KT 5SM -RA BR SCT007 OVC012
                       TEMPO 1018/1020 1SM -RA BR BKN006 OVC012
                       FM102100 18015G25KT P6SM -SHRA BKN015 OVC025
                       FM110400 17015KT P6SM -RA BKN018 OVC030=
201402101405 TAF AMD KPAE 101405Z 1014/1112 VRB05KT P6SM -RA FEW028 OVC040 FM101800
                       17015G23KT 4SM -RA BR SCT007 OVC012 FM102000
                       18015G25KT P6SM -RA BKN012 OVC028 FM110400
                       17015KT P6SM -RA BKN018 OVC030=
201402101223 KPAE 101223Z 1012/1112 12008KT P6SM -RA SCT020 OVC040 FM101300
                       15012KT 4SM -RA BR FEW007 OVC020 FM101500
                       17015G23KT 4SM -RA BR SCT007 OVC012 FM102000
                       18015G25KT P6SM -RA BKN012 OVC028 FM110400
                       17015KT P6SM -RA BKN018 OVC030=
201402101150 TAF KPAE 101150Z 1012/1112 12009KT P6SM -RA SCT018 OVC035 FM101300
                       15013KT 4SM -RA BR OVC018 FM101600 17015G23KT
                       4SM -RA BR OVC018 FM102000 18015G23KT P6SM
                       -RA BKN018 OVC030=
201402100623 TAF AMD KPAE 100623Z 1006/1106 12006KT P6SM SCT018 OVC030
                      TEMPO 1006/1010 BKN018 OVC030 FM101000 12009KT
                       P6SM -RA SCT018 OVC030
                      TEMPO 1010/1013 BKN020 OVC040 FM101300 15013KT
                       4SM -RA BR OVC018 FM101600 17015G23KT 4SM
                       -RA BR OVC018 FM102000 18015G23KT P6SM -RA
                       BKN018 OVC030=
201402100551 TAF KPAE 100551Z 1006/1106 14005KT P6SM VCSH OVC015 FM101300 16011KT
                       P6SM -RA OVC015 FM102100 17015G23KT P6SM
                       -SHRA BKN015 OVC025=
201402092331 TAF KPAE 092331Z 1000/1024 12003KT P6SM OVC017 FM100200 13004KT
                       P6SM -RA OVC015 FM100500 14005KT P6SM VCSH
                       OVC015 FM101300 16011KT P6SM -RA OVC015
                       FM102100 17015G23KT P6SM -SHRA BKN015 OVC025=
201402091726 TAF KPAE 091726Z 0918/1018 VRB03KT P6SM OVC025
                      TEMPO 0920/0924 -RA FM100000 10006KT P6SM
                       -RA SCT018 OVC030 FM100600 12005KT 5SM -RA
                       BR OVC018 FM101200 14006KT 5SM -RA BR OVC012=
201402091637 TAF AMD KPAE 091637Z 0917/1012 VRB03KT P6SM SCT018 OVC050 FM091800
                       VRB03KT P6SM SCT025 BKN035 OVC050
                      TEMPO 0920/0924 -RA FM100000 10006KT P6SM
                       -RA SCT018 OVC030 FM100600 14010KT 4SM -RASN
                       BR SCT010 OVC022=
201402091143 TAF KPAE 091143Z 0912/1012 VRB03KT P6SM BKN025 OVC035
                      TEMPO 0912/0916 -SN FM091800 VRB03KT P6SM
                       SCT025 BKN035 OVC050
                      TEMPO 0920/0924 -RA FM100000 10006KT P6SM
                       -RA SCT018 OVC030 FM100600 14010KT 4SM -RASN
                       BR SCT010 OVC022=
201402090919 TAF AMD KPAE 090919Z 0909/1006 10005KT P6SM -SN SCT015 OVC035
                      TEMPO 0909/0912 4SM -SN BKN015 OVC035 FM091200
                       10005KT P6SM SCT022 OVC035
                      TEMPO 0912/0916 -SN FM091700 13008KT 5SM
                       BR OVC020 FM092100 13008KT P6SM OVC028 FM100000
                       15010KT 5SM -RA BR SCT015 OVC028=
201402090837 TAF AMD KPAE 090837Z 0909/1006 10007KT 3SM -SN SCT007 OVC015
                      TEMPO 0909/0911 1SM -SN FM091100 10005KT
                       5SM -SN OVC009 FM091500 13008KT 5SM -SN
                       BR OVC015 FM091700 13008KT 5SM BR OVC020
                       FM092100 13008KT P6SM OVC028 FM100000 15010KT
                       5SM -RA BR SCT015 OVC028=
201402090643 TAF AMD KPAE 090643Z 0907/1006 10012KT 1SM -SN OVC015
                      TEMPO 0907/0910 1/2SM SN VV005 FM091100 10009KT
                       2SM -SN OVC009 FM091500 13008KT 5SM -SN
                       BR OVC015 FM091700 13008KT 5SM BR OVC020
                       FM092100 13008KT P6SM OVC028 FM100000 15010KT
                       5SM -RA BR SCT015 OVC028=
201402090549 TAF KPAE 090549Z 0906/1006 10012KT 3/4SM -SN VV006
                      TEMPO 0906/0910 1/2SM SN VV002 FM091100 10009KT
                       2SM -SN OVC009 FM091500 13008KT 5SM -SN
                       BR OVC015 FM091700 13008KT 5SM BR OVC020
                       FM092100 13008KT P6SM OVC028 FM100000 15010KT
                       5SM -RA BR SCT015 OVC028=
201402090453 TAF AMD KPAE 090453Z 0905/0924 09009KT 3/4SM -SN OVC007
                      TEMPO 0905/0908 1/2SM SN VV002 FM091600 14005KT
                       P6SM VCSH SCT030 BKN050 FM091900 18005KT
                       P6SM SCT030 OVC050=
201402090413 TAF AMD KPAE 090413Z 0904/0924 09009KT 1SM -SN SCT003 OVC010
                      TEMPO 0904/0908 3/4SM -SN OVC003 FM091600
                       14005KT P6SM VCSH SCT030 BKN050 FM091900
                       18005KT P6SM SCT030 OVC050=
201402090356 TAF AMD KPAE 090356Z 0904/0924 07006KT 2SM -SN OVC025 FM090600
                       07006KT 1SM -SN OVC015 FM091600 14005KT
                       P6SM VCSH SCT030 BKN050 FM091900 18005KT
                       P6SM SCT030 OVC050=
201402090324 TAF AMD KPAE 090324Z 0903/0924 01006KT P6SM FEW040 OVC080 FM090600
                       01006KT P6SM -SN SCT020 OVC040 FM090900
                       07006KT 4SM -SN OVC020 FM091600 14005KT
                       P6SM VCSH SCT030 BKN050 FM091900 18005KT
                       P6SM SCT030 OVC050=
201402082322 TAF KPAE 082322Z 0900/0924 09005KT P6SM SCT150 FM090600 05005KT
                       P6SM SCT060 OVC090 FM090900 08006KT P6SM
                       SCT035 OVC050
                      TEMPO 0910/0914 -SN BKN035 OVC050 FM091400
                       09004KT P6SM BKN030 OVC050
                      TEMPO 0914/0916 -SN FM091600 14005KT P6SM
                       VCSH SCT030 BKN050 FM091900 18005KT P6SM
                       SCT030 OVC050=
201402081743 TAF KPAE 081743Z 0818/0918 09005KT P6SM SCT150 FM090600 05005KT
                       P6SM SCT060 OVC090 FM090900 08006KT P6SM
                       SCT035 OVC050
                      TEMPO 0910/0914 -SN BKN035 OVC050 FM091400
                       09004KT P6SM BKN030 OVC050
                      TEMPO 0914/0916 -SN FM091600 14005KT P6SM
                       SCT030 BKN050=
201402081152 TAF KPAE 081152Z 0812/0912 VRB03KT P6SM FEW060 SCT090 BKN150
                      TEMPO 0814/0818 FEW060 BKN090 OVC150 FM081800
                       36008KT P6SM SCT090 BKN150 FM090600 VRB04KT
                       P6SM SCT050 OVC090 FM090900 09007KT P6SM
                       SCT035 OVC050
                      PROB30 0909/0912 -SN=
201402080910 TAF AMD KPAE 080910Z 0809/0906 35005KT P6SM SCT130 FM081200 04004KT
                       P6SM SCT130 SCT200 FM082200 01007KT P6SM
                       FEW130 BKN200=
201402080546 TAF KPAE 080546Z 0806/0906 01007KT P6SM SCT130 FM081200 04004KT
                       P6SM SCT130 SCT200 FM082200 01007KT P6SM
                       FEW130 BKN200=
201402080241 TAF AMD KPAE 080241Z 0803/0824 36011KT P6SM BKN150 FM080800 02006KT
                       P6SM SCT050 BKN090 FM081600 05007KT P6SM
                       SCT090 BKN200 FM082000 01008KT P6SM SCT080
                       BKN200=
201402072331 TAF KPAE 072331Z 0800/0824 36006KT P6SM SCT090 BKN200 FM080800
                       02006KT P6SM SCT050 BKN090 FM081600 05007KT
                       P6SM SCT090 BKN200 FM082000 01008KT P6SM
                       SCT080 BKN200=
201402071729 TAF KPAE 071729Z 0718/0818 15006KT P6SM SCT018 BKN090 BKN200
                      TEMPO 0718/0720 BKN018 FM072000 01005KT P6SM
                       SCT022 BKN090 BKN200 FM080000 02006KT P6SM
                       SCT090 BKN200 FM080800 02005KT P6SM SCT040
                       OVC060 FM081600 06005KT P6SM SCT040 BKN080=
201402071139 TAF KPAE 071139Z 0712/0812 15007KT P6SM SCT030 BKN050
                      TEMPO 0713/0717 BKN030 OVC050 FM071700 10005KT
                       P6SM SCT050 BKN090 BKN200 FM072000 35006KT
                       P6SM SCT090 BKN200 FM080000 02008KT P6SM
                       SCT090 BKN200=
201402070905 TAF AMD KPAE 070905Z 0709/0806 VRB03KT P6SM SCT060 BKN130 OVC200
                       FM071200 VRB03KT P6SM SCT050 BKN090 OVC130
                       FM071800 VRB03KT P6SM SCT090 BKN130 OVC200
                       FM072100 01006KT P6SM SCT090 SCT130 OVC200
                       FM080300 01006KT P6SM BKN090 OVC130=
201402070547 TAF KPAE 070547Z 0706/0806 VRB05KT P6SM OVC045 FM071200 VRB03KT
                       P6SM SCT050 BKN090 OVC130 FM071800 VRB03KT
                       P6SM SCT090 BKN130 OVC200 FM072100 01006KT
                       P6SM SCT090 SCT130 OVC200 FM080300 01006KT
                       P6SM BKN090 OVC130=
201402070311 TAF AMD KPAE 070311Z 0703/0724 11010KT P6SM OVC060 FM070700 04008KT
                       P6SM BKN100 FM072300 04008KT P6SM OVC070=
201402062320 TAF KPAE 062320Z 0700/0724 11010KT P6SM OVC080 FM070700 04008KT
                       P6SM BKN100 FM072300 04008KT P6SM OVC070=
201402061720 TAF KPAE 061720Z 0618/0718 11010KT P6SM BKN200 FM062100 07012KT
                       P6SM BKN150 FM070700 04008KT P6SM OVC120=
201402061125 TAF KPAE 061125Z 0612/0712 11006KT P6SM SCT200 FM062200 08009KT
                       P6SM SCT090 BKN150=
201402060529 TAF KPAE 060529Z 0606/0706 12010KT P6SM SKC FM062200 08009KT P6SM
                       SCT090 BKN150=
201402052328 TAF KPAE 052328Z 0600/0624 10010KT P6SM FEW080 FM060600 10012KT
                       P6SM SCT080 SCT120 FM062200 12010KT P6SM
                       SCT060 BKN120=
201402051720 TAF KPAE 051720Z 0518/0618 11010KT P6SM SKC FM060400 10006KT P6SM
                       SKC=
201402051125 TAF KPAE 051125Z 0512/0612 11007KT P6SM SKC FM052000 06010G18KT
                       P6SM SKC FM060400 03006KT P6SM SKC=
201402050530 TAF KPAE 050530Z 0506/0606 11010KT P6SM OVC090 FM050900 09005KT
                       P6SM SCT090 FM051200 09004KT P6SM SKC FM052100
                       06010G18KT P6SM SKC=
201402042322 TAF KPAE 042322Z 0500/0524 09006KT P6SM BKN050 OVC080 FM050700
                       09005KT P6SM SCT050 FM051200 09004KT P6SM
                       SKC=
201402041731 TAF KPAE 041731Z 0418/0518 36008KT P6SM BKN060 FM050300 03006KT
                       P6SM SKC=
201402041130 TAF KPAE 041130Z 0412/0512 02003KT P6SM SCT060
                      TEMPO 0412/0416 BKN060 FM041600 01008KT P6SM
                       BKN060 FM042200 01009KT P6SM SCT060
                      TEMPO 0422/0502 BKN060 FM050600 04007KT P6SM
                       SCT100=
201402040535 TAF KPAE 040535Z 0406/0506 33003KT P6SM OVC050 FM041700 10010KT
                       P6SM SKC=
201402032330 TAF KPAE 032330Z 0400/0424 01008KT P6SM SKC FM040600 09007KT P6SM
                       SKC FM041700 10010KT P6SM SKC=
201402031731 TAF KPAE 031731Z 0318/0418 32008KT P6SM SKC FM040000 36010KT P6SM
                       SKC=
201402031130 TAF KPAE 031130Z 0312/0412 34004KT P6SM SKC FM031800 01007KT P6SM
                       SCT250 FM040000 36009KT P6SM SKC=
201402030525 TAF KPAE 030525Z 0306/0406 29004KT P6SM VCSH OVC100 FM030700 01007KT
                       P6SM SCT070 FM032000 36012KT P6SM SKC=
201402022321 TAF KPAE 022321Z 0300/0324 34005KT P6SM VCSH SCT030 BKN070 BKN200
                       FM030700 01007KT P6SM SCT070 FM032000 36012KT
                       P6SM SKC=
201402021732 TAF KPAE 021732Z 0218/0318 11004KT P6SM OVC070 FM022300 35007KT
                       P6SM VCSH SCT030 BKN070 FM030800 01004KT
                       P6SM VCSH SCT030 BKN070=
201402021138 TAF KPAE 021138Z 0212/0312 03003KT P6SM SCT002
                      TEMPO 0213/0217 1/2SM FG VV002 FM021800 03003KT
                       P6SM SCT003 BKN100 FM022300 35007KT P6SM
                       VCSH SCT030 BKN070=
201402020535 TAF KPAE 020535Z 0206/0306 10003KT P6SM FEW060 FM020700 VRB03KT
                       P6SM SCT001 BKN060
                      TEMPO 0207/0211 3/4SM BR BKN001 FM021100
                       36003KT 3/4SM BR BKN001 FM021600 36003KT
                       P6SM SCT010 BKN050 FM022000 35006KT P6SM
                       SCT025 BKN060=
201402020520 TAF KPAE 020520Z 0206/0306 10003KT P6SM FEW060 FM021400 03004KT
                       P6SM SCT010 BKN045 FM022000 35006KT P6SM
                       SCT025 BKN060=
201402012325 TAF KPAE 012325Z 0200/0224 VRB04KT P6SM BKN025 BKN045 FM020200
                       VRB04KT P6SM SCT025 BKN045 FM021400 03004KT
                       P6SM SCT010 BKN045 FM022000 35006KT P6SM
                       SCT025 BKN060=
201402011737 TAF KPAE 011737Z 0118/0218 00000KT P6SM SCT025 OVC040 FM020900
                       VRB04KT P6SM SCT035 BKN070 FM021400 03004KT
                       P6SM SCT010 BKN050=
201402011130 TAF KPAE 011130Z 0112/0212 00000KT P6SM OVC030 FM011500 VRB03KT
                       P6SM OVC015 FM011800 VRB04KT P6SM SCT025
                       BKN040 FM020900 VRB04KT P6SM SCT035 OVC070=
201402010525 TAF KPAE 010525Z 0106/0206 05003KT P6SM FEW030 FM010900 00000KT
                       P6SM BKN020 OVC040 FM011800 VRB04KT P6SM
                       SCT025 BKN040=