##########################################################
# Query made at 02/15/2025 20:55:58 UTC
# Time interval: from 07/01/2014 00:00  to 07/31/2014 23:59  UTC
##########################################################

##########################################################
# KPAE, Everett, Snohomish County Airport (United States)
# WMO index: -----. WIGOS ID: Unknown
# Latitude 47-55-23N. Longitude 122-16-57W. Altitude 184 m.
##########################################################

###################################
#  METAR/SPECI from KPAE
###################################
201407312353 METAR KPAE 312353Z 36008KT 10SM CLR 26/13 A3006 RMK AO2 SLP176 T02610128 10267 20211 56013=
201407312253 METAR KPAE 312253Z 35007KT 10SM CLR 26/14 A3007 RMK AO2 SLP179 T02610139=
201407312153 METAR KPAE 312153Z 36008KT 340V040 10SM CLR 25/13 A3008 RMK AO2 SLP184 T02500133=
201407312053 METAR KPAE 312053Z 01009G15KT 10SM CLR 25/13 A3010 RMK AO2 SLP188 T02500133 58008=
201407311953 METAR KPAE 311953Z VRB06KT 10SM CLR 24/13 A3011 RMK AO2 SLP193 T02390128=
201407311853 METAR KPAE 311853Z 35007KT 10SM CLR 22/12 A3011 RMK AO2 SLP195 T02220122=
201407311753 METAR KPAE 311753Z 34005KT 10SM CLR 21/12 A3012 RMK AO2 SLP198 T02110117 10217 20139 58005=
201407311653 METAR KPAE 311653Z 00000KT 10SM CLR 19/09 A3013 RMK AO2 SLP200 T01940094=
201407311553 METAR KPAE 311553Z 01005KT 10SM CLR 17/10 A3013 RMK AO2 SLP202 T01670100=
201407311453 METAR KPAE 311453Z 34006KT 10SM CLR 16/09 A3014 RMK AO2 SLP204 T01610094 53002=
201407311353 METAR KPAE 311353Z 36005KT 10SM CLR 14/10 A3013 RMK AO2 SLP201 T01440100=
201407311253 METAR KPAE 311253Z 03006KT 10SM CLR 14/09 A3013 RMK AO2 SLP201 T01390094=
201407311153 METAR KPAE 311153Z AUTO 02005KT 10SM CLR 15/08 A3013 RMK AO2 SLP201 T01500083 10178 20144 50002=
201407311053 METAR KPAE 311053Z AUTO 06003KT 10SM CLR 15/06 A3013 RMK AO2 SLP202 T01500061=
201407310953 METAR KPAE 310953Z AUTO 00000KT 10SM CLR 16/06 A3013 RMK AO2 SLP199 T01610056=
201407310853 METAR KPAE 310853Z AUTO 06004KT 10SM CLR 17/05 A3012 RMK AO2 SLP198 T01670050 53000=
201407310753 METAR KPAE 310753Z AUTO 05004KT 10SM CLR 17/06 A3013 RMK AO2 SLP200 T01670056 402500144=
201407310653 METAR KPAE 310653Z AUTO 05006KT 10SM CLR 17/06 A3012 RMK AO2 SLP197 T01720061=
201407310553 METAR KPAE 310553Z AUTO VRB03KT 10SM CLR 17/06 A3012 RMK AO2 SLP198 T01720061 10239 20172 53004=
201407310453 METAR KPAE 310453Z 02007KT 10SM CLR 17/06 A3012 RMK AO2 SLP197 T01720056=
201407310353 METAR KPAE 310353Z 36009G16KT 10SM CLR 17/06 A3011 RMK AO2 SLP195 T01720056=
201407310253 METAR KPAE 310253Z 02007KT 10SM CLR 18/08 A3011=
201407310153 METAR KPAE 310153Z 02009KT 10SM CLR 20/09 A3012 RMK AO2 SLP196 T02000094=
201407310053 METAR KPAE 310053Z VRB04KT 10SM CLR 23/10 A3012 RMK AO2 SLP196 T02330100=
201407302353 METAR KPAE 302353Z 36008KT 10SM CLR 24/12 A3012 RMK AO2 SLP198 T02390122 10250 20200 56012=
201407302253 METAR KPAE 302253Z 35007KT 10SM CLR 23/12 A3014 RMK AO2 SLP203 T02330117=
201407302153 METAR KPAE 302153Z VRB05KT 10SM CLR 24/14 A3014 RMK AO2 SLP205 T02390139=
201407302053 METAR KPAE 302053Z VRB05KT 10SM CLR 23/13 A3016 RMK AO2 SLP210 T02280133 58002=
201407301953 METAR KPAE 301953Z 01004KT 10SM CLR 22/12 A3017 RMK AO2 SLP213 T02170122=
201407301853 METAR KPAE 301853Z 01005KT 10SM CLR 21/13 A3017 RMK AO2 SLP213 T02110128 $=
201407301753 METAR KPAE 301753Z 06005KT 10SM CLR 20/12 A3016 RMK AO2 SLP213 T02000122 10211 20144 50001 $=
201407301653 METAR KPAE 301653Z 01005KT 10SM CLR 20/12 A3017 RMK AO2 SLP213 T02000122=
201407301553 METAR KPAE 301553Z 02004KT 10SM CLR 18/13 A3017 RMK AO2 SLP215 T01780128=
201407301453 METAR KPAE 301453Z 02005KT 10SM CLR 16/13 A3016 RMK AO2 SLP212 T01610128 52008=
201407301353 METAR KPAE 301353Z 01005KT 10SM CLR 15/13 A3016 RMK AO2 SLP211 T01500128=
201407301253 METAR KPAE 301253Z AUTO 05004KT 10SM CLR 16/12 A3014 RMK AO2 SLP205 T01560122=
201407301153 METAR KPAE 301153Z AUTO 04005KT 10SM CLR 16/12 A3014 RMK AO2 SLP203 T01560122 10172 20156 51006=
201407301053 METAR KPAE 301053Z AUTO 04004KT 10SM CLR 16/12 A3013 RMK AO2 SLP201 T01560122=
201407300953 METAR KPAE 300953Z AUTO 04006KT 10SM CLR 16/12 A3013 RMK AO2 SLP199 T01610122=
201407300853 METAR KPAE 300853Z AUTO 05006KT 10SM CLR 17/13 A3012 RMK AO2 SLP196 T01670128 51002=
201407300753 METAR KPAE 300753Z AUTO VRB04KT 10SM CLR 16/13 A3012 RMK AO2 SLP197 T01610128 402390133=
201407300653 METAR KPAE 300653Z AUTO 04003KT 10SM CLR 17/12 A3012 RMK AO2 SLP196 T01670122=
201407300553 METAR KPAE 300553Z AUTO 00000KT 10SM CLR 17/13 A3011 RMK AO2 SLP195 T01670128 10228 20156 52007=
201407300453 METAR KPAE 300453Z AUTO 02004KT 10SM CLR 17/13 A3011 RMK AO2 SLP192 T01670133=
201407300353 METAR KPAE 300353Z 36011G17KT 10SM CLR 17/13 A3010 RMK AO2 SLP190 T01670133=
201407300253 METAR KPAE 300253Z 02009G16KT 10SM CLR 18/13 A3009 RMK AO2 SLP188 T01780133 55004=
201407300153 METAR KPAE 300153Z 01009G16KT 10SM CLR 19/13 A3009 RMK AO2 SLP186 T01940128=
201407300053 METAR KPAE 300053Z 02008KT 10SM CLR 21/13 A3010 RMK AO2 SLP191 T02110128=
201407292353 METAR KPAE 292353Z 36007KT 330V040 10SM CLR 23/12 A3010 RMK AO2 SLP192 T02280122 10239 20211 58015=
201407292253 METAR KPAE 292253Z 01006KT 10SM CLR 23/12 A3012 RMK AO2 SLP197 T02330122=
201407292153 METAR KPAE 292153Z 35007KT 10SM CLR 23/13 A3014 RMK AO2 SLP202 T02330128=
201407292053 METAR KPAE 292053Z VRB06KT 10SM CLR 23/13 A3015 RMK AO2 SLP206 T02280128 58004=
201407291953 METAR KPAE 291953Z 01005KT 10SM CLR 22/12 A3016 RMK AO2 SLP209 T02220122=
201407291853 METAR KPAE 291853Z VRB05KT 10SM CLR 22/12 A3016 RMK AO2 SLP209 T02170117=
201407291753 METAR KPAE 291753Z 36004KT 10SM CLR 22/11 A3016 RMK AO2 SLP210 T02170111 10222 20133 50003=
201407291653 METAR KPAE 291653Z VRB05KT 10SM CLR 22/11 A3016 RMK AO2 SLP212 T02170106=
201407291553 METAR KPAE 291553Z 00000KT 10SM CLR 19/11 A3016 RMK AO2 SLP211 T01890111=
201407291453 METAR KPAE 291453Z VRB04KT 10SM CLR 17/11 A3015 RMK AO2 SLP208 T01670111 51009=
201407291353 METAR KPAE 291353Z VRB03KT 10SM CLR 16/11 A3014 RMK AO2 SLP203 T01560111=
201407291253 METAR KPAE 291253Z 00000KT 10SM CLR 13/12 A3013 RMK AO2 SLP201 T01330117=
201407291153 METAR KPAE 291153Z 03004KT 10SM CLR 15/11 A3012 RMK AO2 SLP197 T01500111 10189 20150 53006=
201407291053 METAR KPAE 291053Z 04004KT 10SM CLR 16/11 A3011 RMK AO2 SLP193 T01560106=
201407290953 METAR KPAE 290953Z 04005KT 10SM CLR 17/10 A3010 RMK AO2 SLP191 T01670100=
201407290853 METAR KPAE 290853Z 05005KT 10SM CLR 17/10 A3010 RMK AO2 SLP191 T01720100 58002=
201407290753 METAR KPAE 290753Z VRB04KT 10SM CLR 17/09 A3010 RMK AO2 SLP191 T01720089 402720139=
201407290653 METAR KPAE 290653Z 06005KT 10SM CLR 18/09 A3011 RMK AO2 SLP193 T01830094=
201407290553 METAR KPAE 290553Z 02007KT 10SM CLR 18/09 A3011 RMK AO2 SLP193 T01830094 10272 20156 52005=
201407290453 METAR KPAE 290453Z 36008KT 10SM CLR 16/09 A3011 RMK AO2 SLP194 T01560094=
201407290353 METAR KPAE 290353Z 04006KT 10SM CLR 19/11 A3009 RMK AO2 SLP187 T01890106=
201407290253 METAR KPAE 290253Z 02007KT 10SM CLR 21/12 A3009 RMK AO2 SLP188 T02110117 55003=
201407290153 METAR KPAE 290153Z 35007KT 10SM CLR 24/13 A3009 RMK AO2 SLP187 T02390133=
201407290053 METAR KPAE 290053Z 35004KT 10SM CLR 26/13 A3009 RMK AO2 SLP187 T02610133=
201407282353 METAR KPAE 282353Z 35005KT 10SM CLR 27/13 A3010 RMK AO2 SLP191 T02670128 10272 20217 58004=
201407282253 METAR KPAE 282253Z 36006KT 10SM CLR 27/12 A3011 RMK AO2 SLP193 T02670122=
201407282153 METAR KPAE 282153Z 36006KT 10SM CLR 26/12 A3012 RMK AO2 SLP196 T02560122=
201407282053 METAR KPAE 282053Z 36007KT 10SM CLR 26/11 A3012 RMK AO2 SLP195 T02560106 58005=
201407281953 METAR KPAE 281953Z VRB04KT 10SM CLR 25/12 A3012=
201407281853 METAR KPAE 281853Z 30007KT 10SM CLR 23/12 A3013 RMK AO2 SLP200 T02330122=
201407281753 METAR KPAE 281753Z VRB04KT 10SM CLR 22/13 A3013 RMK AO2 SLP201 T02170133 10217 20139 58004=
201407281653 METAR KPAE 281653Z VRB04KT 10SM CLR 20/13 A3014 RMK AO2 SLP202 T02000128=
201407281553 METAR KPAE 281553Z 01003KT 10SM CLR 18/12 A3014 RMK AO2 SLP205 T01830117=
201407281453 METAR KPAE 281453Z 01004KT 10SM CLR 17/12 A3014 RMK AO2 SLP205 T01670117 51008=
201407281353 METAR KPAE 281353Z 36005KT 10SM CLR 15/12 A3014 RMK AO2 SLP204 T01500117=
201407281253 METAR KPAE 281253Z AUTO 36003KT 10SM CLR 14/11 A3013 RMK AO2 SLP200 T01390111=
201407281153 METAR KPAE 281153Z AUTO 02003KT 10SM CLR 14/11 A3012 RMK AO2 SLP197 T01390106 10178 20139 55002=
201407281053 METAR KPAE 281053Z AUTO 04005KT 10SM CLR 16/10 A3011 RMK AO2 SLP194 T01610100=
201407280953 METAR KPAE 280953Z AUTO 05003KT 10SM CLR 16/10 A3012 RMK AO2 SLP196 T01610100=
201407280853 METAR KPAE 280853Z AUTO 00000KT 10SM CLR 17/09 A3012 RMK AO2 SLP198 T01670094 58001=
201407280753 METAR KPAE 280753Z AUTO 03005KT 10SM CLR 17/09 A3013 RMK AO2 SLP200 T01720094 402560133=
201407280653 METAR KPAE 280653Z AUTO 02005KT 10SM CLR 17/10 A3013 RMK AO2 SLP200 T01720100=
201407280553 METAR KPAE 280553Z AUTO 01007KT 10SM CLR 16/10 A3013 RMK AO2 SLP200 T01610100 10256 20161 51007=
201407280453 METAR KPAE 280453Z AUTO 01006KT 10SM CLR 17/11 A3013 RMK AO2 SLP201 T01670106=
201407280353 METAR KPAE 280353Z AUTO 02006KT 10SM CLR 17/11 A3012 RMK AO2 SLP198 T01720111=
201407280253 METAR KPAE 280253Z 36007KT 10SM CLR 20/12 A3011 RMK AO2 SLP193 T02000122 56006=
201407280153 METAR KPAE 280153Z 34007KT 10SM CLR 23/12 A3011 RMK AO2 SLP193 T02330122=
201407280053 METAR KPAE 280053Z 35007KT 10SM CLR 25/12 A3011 RMK AO2 SLP194 T02500122=
201407272353 METAR KPAE 272353Z VRB06KT 10SM CLR 25/12 A3012 RMK AO2 SLP199 T02500122 10250 20194 56012=
201407272253 METAR KPAE 272253Z 33009G16KT 10SM CLR 24/12 A3013 RMK AO2 SLP200 T02440122=
201407272153 METAR KPAE 272153Z 36007KT 10SM CLR 24/13 A3015 RMK AO2 SLP206 T02440128=
201407272053 METAR KPAE 272053Z 35008G15KT 310V010 10SM CLR 23/13 A3016 RMK AO2 SLP211 T02280128 58009=
201407271953 METAR KPAE 271953Z 36007KT 330V040 10SM CLR 22/12 A3017 RMK AO2 SLP213 T02220122=
201407271853 METAR KPAE 271853Z 35007KT 10SM CLR 21/12 A3018 RMK AO2 SLP219 T02110122=
201407271753 METAR KPAE 271753Z VRB04KT 10SM CLR 20/13 A3019 RMK AO2 SLP221 T02000128 10200 20133 58007=
201407271653 METAR KPAE 271653Z 36005KT 10SM CLR 17/11 A3020 RMK AO2 SLP225 T01720111=
201407271553 METAR KPAE 271553Z VRB04KT 10SM CLR 16/12 A3020 RMK AO2 SLP227 T01610117=
201407271453 METAR KPAE 271453Z 01006KT 10SM CLR 15/12 A3021 RMK AO2 SLP228 T01500117 51009=
201407271353 METAR KPAE 271353Z VRB04KT 10SM CLR 14/11 A3020 RMK AO2 SLP225 T01390111=
201407271253 METAR KPAE 271253Z AUTO 02004KT 10SM CLR 13/11 A3019 RMK AO2 SLP221 T01330106=
201407271153 METAR KPAE 271153Z AUTO 01004KT 10SM CLR 13/10 A3018 RMK AO2 SLP217 T01330100 10144 20133 58001=
201407271053 METAR KPAE 271053Z AUTO 03007KT 10SM CLR 13/10 A3018 RMK AO2 SLP218 T01330100=
201407270953 METAR KPAE 270953Z AUTO 02006KT 10SM CLR 14/10 A3018 RMK AO2 SLP219 T01390100=
201407270853 METAR KPAE 270853Z AUTO 36006KT 10SM CLR 14/10 A3018 RMK AO2 SLP218 T01390100 53001=
201407270753 METAR KPAE 270753Z AUTO 36006KT 10SM CLR 14/11 A3018 RMK AO2 SLP219 T01390106 402280122=
201407270653 METAR KPAE 270653Z AUTO 36005KT 10SM CLR 14/11 A3018 RMK AO2 SLP217 T01390106=
201407270553 METAR KPAE 270553Z AUTO 36009KT 10SM CLR 14/11 A3018 RMK AO2 SLP218 T01440106 10222 20144 51006=
201407270453 METAR KPAE 270453Z AUTO 01006KT 10SM CLR 14/11 A3018 RMK AO2 SLP218 T01440106=
201407270353 METAR KPAE 270353Z 36006KT 10SM CLR 16/11 A3016 RMK AO2 SLP213 T01560111=
201407270253 METAR KPAE 270253Z 36007KT 10SM CLR 17/12 A3016 RMK AO2 SLP211 T01720117 55001=
201407270153 METAR KPAE 270153Z 36008KT 10SM CLR 20/11 A3016 RMK AO2 SLP210 T02000111=
201407270053 METAR KPAE 270053Z VRB06KT 10SM CLR 22/12 A3016 RMK AO2 SLP210 T02170117=
201407262353 METAR KPAE 262353Z 36008KT 10SM CLR 22/12 A3016 RMK AO2 SLP212 T02170117 10228 20189 58006=
201407262253 METAR KPAE 262253Z 01006KT 10SM CLR 22/12 A3017 RMK AO2 SLP213 T02220117=
201407262153 METAR KPAE 262153Z 02006KT 10SM CLR 22/12 A3017 RMK AO2 SLP216 T02220117=
201407262053 METAR KPAE 262053Z VRB05KT 10SM CLR 21/12 A3018 RMK AO2 SLP218 T02110122 58004=
201407261953 METAR KPAE 261953Z VRB03KT 10SM CLR 21/12 A3018 RMK AO2 SLP220 T02060122=
201407261853 METAR KPAE 261853Z VRB05KT 10SM CLR 20/11 A3019 RMK AO2 SLP223 T02000111=
201407261753 METAR KPAE 261753Z 35004KT 10SM CLR 19/11 A3019 RMK AO2 SLP222 T01890111 10189 20128 51005=
201407261653 METAR KPAE 261653Z 35004KT 10SM CLR 18/11 A3019 RMK AO2 SLP221 T01780111=
201407261553 METAR KPAE 261553Z 02005KT 10SM CLR 17/11 A3018 RMK AO2 SLP219 T01670106=
201407261453 METAR KPAE 261453Z 00000KT 10SM CLR 15/11 A3017 RMK AO2 SLP216 T01500106 53009=
201407261353 METAR KPAE 261353Z 00000KT 10SM CLR 14/10 A3016 RMK AO2 SLP213 T01390100=
201407261253 METAR KPAE 261253Z AUTO 00000KT 10SM SCT040 13/10 A3015 RMK AO2 SLP209 T01330100=
201407261153 METAR KPAE 261153Z AUTO 02004KT 10SM CLR 13/09 A3015 RMK AO2 SLP207 T01280094 10144 20122 53005=
201407261053 METAR KPAE 261053Z AUTO 02003KT 10SM FEW039 13/09 A3014 RMK AO2 SLP205 T01280094=
201407260953 METAR KPAE 260953Z AUTO 03004KT 10SM SCT039 13/10 A3013 RMK AO2 SLP203 T01330100=
201407260853 METAR KPAE 260853Z AUTO 01004KT 10SM CLR 13/09 A3013 RMK AO2 SLP202 T01330094 51002=
201407260753 METAR KPAE 260753Z AUTO 35004KT 10SM CLR 13/10 A3013 RMK AO2 SLP202 T01330100 402110128=
201407260653 METAR KPAE 260653Z AUTO 35006KT 10SM CLR 13/11 A3013 RMK AO2 SLP203 T01330106=
201407260553 METAR KPAE 260553Z AUTO 01005KT 10SM CLR 14/11 A3013 RMK AO2 SLP200 T01390106 10206 20133 51005=
201407260453 METAR KPAE 260453Z AUTO 36004KT 10SM CLR 13/11 A3012 RMK AO2 SLP199 T01330106=
201407260353 METAR KPAE 260353Z 35004KT 10SM CLR 16/10 A3012 RMK AO2 SLP197 T01560100=
201407260253 METAR KPAE 260253Z 35005KT 10SM CLR 18/10 A3011 RMK AO2 SLP195 T01780100 56005=
201407260153 METAR KPAE 260153Z 36006KT 10SM CLR 19/11 A3011 RMK AO2 SLP196 T01890106=
201407260053 METAR KPAE 260053Z 01006KT 10SM CLR 20/10 A3012 RMK AO2 SLP198 T02000100=
201407252353 METAR KPAE 252353Z 36008KT 10SM CLR 20/09 A3012 RMK AO2 SLP200 T02000094 10211 20172 58008=
201407252253 METAR KPAE 252253Z AUTO VRB06KT 10SM CLR 21/10 A3014 RMK AO2 SLP204 T02060100 TSNO=
201407252153 METAR KPAE 252153Z 31007KT 280V350 10SM CLR 20/11 A3014 RMK AO2 SLP206 T02000111=
201407252053 METAR KPAE 252053Z 30007KT 10SM SCT035 19/12 A3015 RMK AO2 SLP208 T01940117 57006=
201407251955 SPECI KPAE 251955Z VRB05KT 10SM SCT035 20/11 A3015 RMK AO2 T02000111=
201407251953 METAR KPAE 251953Z VRB06KT 10SM CLR 19/11 A3016 RMK AO2 SLP211 T01940111=
201407251853 METAR KPAE 251853Z 32006KT 10SM CLR 18/11 A3016 RMK AO2 SLP212 T01830111=
201407251753 METAR KPAE 251753Z 35006KT 10SM SCT030 17/11 A3017 RMK AO2 SLP214 T01720111 10172 20128 56002=
201407251653 METAR KPAE 251653Z VRB04KT 10SM FEW011 FEW042 17/11 A3017 RMK AO2 SLP214 T01670111=
201407251553 METAR KPAE 251553Z 00000KT 10SM SCT004 BKN033 14/12 A3017 RMK AO2 SLP217 T01440117=
201407251526 SPECI KPAE 251526Z 00000KT 10SM SCT003 OVC033 14/12 A3017 RMK AO2 T01390122=
201407251453 METAR KPAE 251453Z 36004KT 10SM BKN003 13/12 A3017 RMK AO2 SLP217 T01330117 58002=
201407251353 METAR KPAE 251353Z 36003KT 7SM OVC002 13/12 A3018 RMK AO2 SLP219 T01280122=
201407251330 SPECI KPAE 251330Z AUTO 02004KT 8SM BKN003 BKN033 OVC050 13/12 A3018 RMK AO2 T01280117=
201407251308 SPECI KPAE 251308Z AUTO 02005KT 10SM FEW004 OVC033 13/12 A3018 RMK AO2 T01280117=
201407251253 METAR KPAE 251253Z AUTO 02005KT 10SM OVC033 13/11 A3018 RMK AO2 SLP219 T01280111=
201407251153 METAR KPAE 251153Z AUTO 02006KT 10SM OVC032 13/11 A3018 RMK AO2 SLP219 60001 70009 T01280111 10144 20128 56007=
201407251109 SPECI KPAE 251109Z AUTO 02004KT 10SM OVC030 13/11 A3018 RMK AO2 T01280111=
201407251053 METAR KPAE 251053Z AUTO 02006KT 10SM OVC029 13/11 A3018 RMK AO2 SLP221 T01280111=
201407250953 METAR KPAE 250953Z AUTO 02004KT 8SM OVC031 13/11 A3020 RMK AO2 RAB07E18 SLP226 P0001 T01280111=
201407250937 SPECI KPAE 250937Z AUTO 02003KT 8SM OVC031 13/11 A3020 RMK AO2 RAB07E18 P0000 T01280111=
201407250853 METAR KPAE 250853Z AUTO 02004KT 6SM BR OVC027 13/11 A3021 RMK AO2 SLP228 T01280111 58004=
201407250753 METAR KPAE 250753Z AUTO 02005KT 10SM OVC029 14/11 A3021 RMK AO2 SLP230 T01390106 401500122=
201407250708 SPECI KPAE 250708Z AUTO 02004KT 10SM OVC029 14/11 A3021 RMK AO2 T01390106=
201407250653 METAR KPAE 250653Z AUTO 01004KT 10SM OVC030 14/11 A3022 RMK AO2 SLP232 T01390106=
201407250553 METAR KPAE 250553Z AUTO 03005KT 10SM OVC029 14/09 A3022 RMK AO2 SLP233 60000 T01390094 10144 20128 50000=
201407250531 SPECI KPAE 250531Z AUTO 03005KT 10SM OVC029 14/09 A3022 RMK AO2 T01390094=
201407250511 SPECI KPAE 250511Z AUTO 06004KT 10SM OVC030 13/09 A3022 RMK AO2 T01280094=
201407250453 METAR KPAE 250453Z AUTO 02004KT 10SM OVC028 13/09 A3023 RMK AO2 SLP236 T01330094=
201407250353 METAR KPAE 250353Z AUTO 04003KT 10SM OVC027 14/09 A3022 RMK AO2 SLP234 T01440094=
201407250253 METAR KPAE 250253Z 02003KT 10SM OVC028 14/09 A3022 RMK AO2 SLP233 60000 T01440094 58005=
201407250153 METAR KPAE 250153Z 02005KT 10SM OVC027 14/10 A3022 RMK AO2 SLP235 T01440100=
201407250053 METAR KPAE 250053Z VRB04KT 10SM SCT017 OVC025 13/11 A3023 RMK AO2 RAB34E52 SLP237 P0000 T01330106=
201407242353 METAR KPAE 242353Z 03004KT 10SM OVC025 14/11 A3024 RMK AO2 SLP238 60000 T01440106 10150 20139 53005=
201407242253 METAR KPAE 242253Z 02006KT 9SM SCT015 OVC027 14/11 A3023 RMK AO2 RAB37E47 SLP237 P0000 T01440106=
201407242153 METAR KPAE 242153Z 02006KT 10SM FEW006 SCT015 BKN021 15/11 A3022 RMK AO2 RAE02 SLP234 P0000 T01500106=
201407242111 SPECI KPAE 242111Z VRB06KT 9SM FEW006 SCT015 BKN021 14/11 A3022 RMK AO2 RAE02 P0000 T01440111=
201407242053 METAR KPAE 242053Z 02007KT 6SM -RA BR BKN006 BKN011 OVC014 14/12 A3022 RMK AO2 RAB50 SLP234 P0000 60000 T01390117 51014=
201407241953 METAR KPAE 241953Z 00000KT 10SM OVC009 15/12 A3021 RMK AO2 SLP231 T01500122=
201407241853 METAR KPAE 241853Z 18003KT 10SM BKN007 OVC015 14/12 A3020 RMK AO2 SLP225 T01440122=
201407241753 METAR KPAE 241753Z 20005KT 10SM BKN006 OVC012 14/12 A3018 RMK AO2 SLP219 60008 T01390122 10139 20122 51013=
201407241749 SPECI KPAE 241749Z 19007KT 10SM BKN006 OVC012 14/12 A3018 RMK AO2=
201407241742 SPECI KPAE 241742Z 19005KT 10SM SCT006 OVC013 14/13 A3017 RMK AO2 T01390128=
201407241711 SPECI KPAE 241711Z 18009KT 3SM BR OVC007 13/12 A3016 RMK AO2 CIG 004V011 T01330122=
201407241704 SPECI KPAE 241704Z 20008KT 2 1/2SM BR OVC007 13/12 A3016 RMK AO2 CIG 004V010 T01330122=
201407241653 METAR KPAE 241653Z 19007KT 3SM BR OVC007 13/12 A3016 RMK AO2 RAB11E21 CIG 005V010 SLP213 P0000 T01280122=
201407241553 METAR KPAE 241553Z 20010KT 10SM BKN007 OVC014 13/12 A3014 RMK AO2 RAE27 SLP206 P0000 T01330117=
201407241513 SPECI KPAE 241513Z 21010KT 10SM -RA BKN007 BKN013 OVC019 13/12 A3012 RMK AO2 P0000 T01280117=
201407241453 METAR KPAE 241453Z 20010KT 6SM -RA BR FEW007 BKN014 OVC022 13/12 A3012 RMK AO2 SLP198 P0004 60008 T01280117 53010=
201407241424 SPECI KPAE 241424Z 21010KT 5SM -RA BR FEW007 BKN014 OVC022 12/11 A3011 RMK AO2 P0002 T01220111=
201407241420 SPECI KPAE 241420Z 21009KT 5SM -RA BR FEW007 SCT014 OVC022 12/11 A3011 RMK AO2 P0002 T01220111=
201407241353 METAR KPAE 241353Z 21008KT 4SM -RA BR OVC022 12/11 A3010 RMK AO2 SLP194 P0003 T01220111=
201407241253 METAR KPAE 241253Z 20011KT 10SM -RA BKN022 BKN030 OVC085 13/11 A3009 RMK AO2 RAB15 SLP188 P0001 T01280106=
201407241249 SPECI KPAE 241249Z 20013KT 10SM -RA BKN022 BKN030 OVC085 13/11 A3009 RMK AO2 RAB15 P0001=
201407241153 METAR KPAE 241153Z AUTO 19013KT 10SM SCT023 BKN036 OVC090 13/11 A3007 RMK AO2 SLP181 60000 70096 T01280106 10139 20128 50002=
201407241148 SPECI KPAE 241148Z AUTO 19015KT 10SM SCT023 BKN036 OVC090 13/11 A3007 RMK AO2=
201407241053 METAR KPAE 241053Z AUTO 17012KT 9SM SCT017 BKN024 OVC070 13/11 A3006 RMK AO2 RAB0956E11 SLP179 P0000 T01280111=
201407241017 SPECI KPAE 241017Z AUTO 17013G21KT 10SM BKN029 BKN044 OVC110 13/11 A3006 RMK AO2 RAB0956E11 P0000 T01280111=
201407240953 METAR KPAE 240953Z AUTO 19019G23KT 10SM BKN055 OVC085 13/11 A3006 RMK AO2 SLP179 T01330106=
201407240853 METAR KPAE 240853Z AUTO 18011KT 10SM FEW020 OVC031 14/11 A3006 RMK AO2 SLP180 T01390106 53001=
201407240834 SPECI KPAE 240834Z AUTO 18011KT 10SM FEW017 BKN027 OVC034 14/11 A3007 RMK AO2 T01390106=
201407240753 METAR KPAE 240753Z AUTO 18013KT 10SM FEW017 BKN060 OVC070 14/10 A3006 RMK AO2 SLP179 T01390100 401780133=
201407240653 METAR KPAE 240653Z AUTO 18010KT 10SM FEW028 BKN100 14/10 A3006 RMK AO2 SLP178 T01390100=
201407240553 METAR KPAE 240553Z AUTO 19011KT 10SM CLR 14/10 A3006 RMK AO2 SLP178 T01390100 10156 20139 51010=
201407240453 METAR KPAE 240453Z AUTO 16013KT 10SM CLR 14/12 A3006 RMK AO2 SLP177 T01390122=
201407240353 METAR KPAE 240353Z AUTO 15011G17KT 10SM CLR 14/12 A3005 RMK AO2 SLP175 T01440117=
201407240253 METAR KPAE 240253Z 17014KT 10SM FEW013 16/12 A3003 RMK AO2 SLP168 T01560122 55002=
201407240153 METAR KPAE 240153Z 15011KT 10SM FEW009 SCT019 BKN090 15/13 A3002 RMK AO2 SLP165 T01500128=
201407240053 METAR KPAE 240053Z 16012KT 10SM FEW004 BKN085 BKN110 14/13 A3003 RMK AO2 SLP168 T01440128=
201407232353 METAR KPAE 232353Z 15009KT 10SM SCT075 OVC095 14/12 A3004 RMK AO2 PK WND 19027/2259 RAE50 SLP170 P0005 60055 T01390122 10167 20139 51008=
201407232253 METAR KPAE 232253Z 18014G24KT 7SM -RA OVC075 14/12 A3004 RMK AO2 PK WND 18027/2225 SLP170 P0003 T01440122=
201407232153 METAR KPAE 232153Z 18019KT 10SM -RA BKN070 OVC085 16/13 A3002 RMK AO2 SLP163 P0001 T01560133=
201407232053 METAR KPAE 232053Z 18011KT 10SM -RA BKN070 OVC085 16/13 A3001 RMK AO2 SLP162 P0006 60046 T01560133 53002=
201407231956 SPECI KPAE 231956Z 14004KT 2SM RA BR FEW004 BKN039 OVC047 16/14 A3000 RMK AO2 P0001 T01560144=
201407231953 METAR KPAE 231953Z 15007KT 1 3/4SM RA BR SCT005 BKN009 OVC030 16/14 A3001 RMK AO2 SLP160 P0029 T01560144=
201407231917 SPECI KPAE 231917Z 19004KT 1 1/2SM R16R/4500VP6000FT RA BR SCT005 BKN009 OVC019 16/14 A3001 RMK AO2 P0006 T01610144=
201407231853 METAR KPAE 231853Z 16007KT 5SM -RA BR SCT005 BKN009 OVC019 16/14 A3001 RMK AO2 SLP159 P0011 T01610139=
201407231753 METAR KPAE 231753Z 20007KT 4SM -RA BR BKN005 BKN025 OVC040 17/16 A3001 RMK AO2 RAB09E18B32 SLP160 P0004 60041 T01670156 10167 20144 53001=
201407231749 SPECI KPAE 231749Z 18007KT 4SM RA BR BKN005 BKN025 OVC040 17/16 A3001 RMK AO2 RAB09E18B32 P0003=
201407231730 SPECI KPAE 231730Z 16008KT 10SM SCT005 BKN025 OVC075 17/16 A3001 RMK AO2 RAB09E18 P0000 T01670156=
201407231653 METAR KPAE 231653Z 15009KT 5SM BR BKN005 BKN025 OVC080 16/15 A3000 RMK AO2 RAE52 SLP157 P0003 T01610150=
201407231640 SPECI KPAE 231640Z 16009KT 7SM -RA BKN008 OVC050 16/15 A3000 RMK AO2 P0003 T01610150=
201407231553 METAR KPAE 231553Z 15008KT 4SM -RA BR BKN004 OVC070 16/14 A3000 RMK AO2 SLP159 P0007 T01610144=
201407231549 SPECI KPAE 231549Z 15008KT 4SM -RA BR BKN004 OVC070 16/15 A3000 RMK AO2 P0006=
201407231453 METAR KPAE 231453Z 15003KT 10SM -RA FEW034 BKN060 OVC095 16/14 A2999 RMK AO2 LTG DSNT E SLP152 P0024 60027 T01610144 53006=
201407231434 SPECI KPAE 231434Z 17004KT 3SM -RA BR FEW019 BKN039 OVC085 15/14 A2999 RMK AO2 LTG DSNT N AND E P0024 T01500144=
201407231421 SPECI KPAE 231421Z 25005KT 1 1/4SM +RA BR FEW002 SCT018 OVC038 15/14 A2999 RMK AO2 LTG DSNT N P0021 T01500144=
201407231410 SPECI KPAE 231410Z 20008KT 1SM R16R/4000VP6000FT VCTS +RA BR FEW002 BKN026 OVC050 14/14 A3001 RMK AO2 P0014 T01440139=
201407231401 SPECI KPAE 231401Z 25008KT 1 1/2SM VCTS RA BR FEW014 BKN048 OVC060 16/15 A3000 RMK AO2 LTG DSNT W P0004 T01610150=
201407231353 METAR KPAE 231353Z 22008KT 2 1/2SM RA BR FEW038 OVC048 16/15 A2998 RMK AO2 RAB48 SLP151 P0003 T01610150=
201407231253 METAR KPAE 231253Z 29004KT 10SM BKN050 OVC070 16/15 A2997 RMK AO2 RAE12 SLP146 P0000 T01610150=
201407231153 METAR KPAE 231153Z 00000KT 9SM -RA FEW065 FEW075 BKN095 16/14 A2997 RMK AO2 RAB31 SLP146 P0000 60000 T01610144 10178 20156 58017=
201407231053 METAR KPAE 231053Z AUTO 00000KT 10SM FEW090 SCT110 16/14 A2999 RMK AO2 RAB34E46 SLP153 P0000 T01610144=
201407230953 METAR KPAE 230953Z AUTO 00000KT 10SM SCT050 17/14 A3000 RMK AO2 SLP158 T01720144=
201407230853 METAR KPAE 230853Z AUTO 10004KT 10SM SCT100 17/13 A3002 RMK AO2 SLP164 T01720128 56009=
201407230753 METAR KPAE 230753Z AUTO 00000KT 10SM BKN060 18/13 A3003 RMK AO2 SLP167 T01780128 402110111=
201407230653 METAR KPAE 230653Z AUTO 00000KT 10SM FEW065 18/13 A3003 RMK AO2 SLP169 T01780128=
201407230553 METAR KPAE 230553Z AUTO 00000KT 10SM FEW060 16/13 A3005 RMK AO2 SLP173 T01610128 10211 20161 53004=
201407230453 METAR KPAE 230453Z AUTO 00000KT 10SM FEW060 17/13 A3004 RMK AO2 SLP172 T01720128=
201407230353 METAR KPAE 230353Z 00000KT 10SM BKN060 18/13 A3003 RMK AO2 SLP169 T01830128=
201407230253 METAR KPAE 230253Z 24003KT 10SM BKN065 BKN080 19/13 A3003 RMK AO2 SLP169 T01940128 56014=
201407230153 METAR KPAE 230153Z 18003KT 10SM BKN060 OVC080 21/13 A3004 RMK AO2 SLP171 T02060128=
201407230053 METAR KPAE 230053Z 11005KT 10SM BKN080 20/13 A3005 RMK AO2 SLP175 T02000128=
201407222353 METAR KPAE 222353Z 00000KT 10SM BKN039 OVC046 19/12 A3008 RMK AO2 SLP183 60000 T01940122 10206 20161 58007=
201407222253 METAR KPAE 222253Z 17005KT 10SM SCT031 OVC041 18/12 A3009 RMK AO2 SLP188 T01830122=
201407222153 METAR KPAE 222153Z VRB04KT 10SM OVC048 18/12 A3010 RMK AO2 SLP191 T01830122=
201407222053 METAR KPAE 222053Z 22004KT 10SM OVC060 17/12 A3010 RMK AO2 RAB07E26 SLP190 P0000 60000 T01720117 53008=
201407221953 METAR KPAE 221953Z 00000KT 10SM OVC065 17/11 A3008 RMK AO2 SLP184 T01670106=
201407221853 METAR KPAE 221853Z 30004KT 10SM OVC080 17/11 A3008=
201407221753 METAR KPAE 221753Z 00000KT 10SM OVC080 17/10 A3007 RMK AO2 SLP181 T01670100 10167 20122 53006=
201407221653 METAR KPAE 221653Z 00000KT 10SM OVC085 16/10 A3006 RMK AO2 SLP178 T01560100=
201407221553 METAR KPAE 221553Z 35003KT 10SM FEW055 OVC100 14/10 A3006 RMK AO2 SLP177 T01440100=
201407221453 METAR KPAE 221453Z VRB03KT 10SM BKN055 BKN100 14/11 A3005 RMK AO2 SLP175 T01390106 53010=
201407221353 METAR KPAE 221353Z 35005KT 10SM SCT055 OVC095 13/10 A3004 RMK AO2 SLP171 T01280100=
201407221253 METAR KPAE 221253Z AUTO 36003KT 10SM BKN100 OVC120 12/11 A3003 RMK AO2 SLP168 T01220106=
201407221153 METAR KPAE 221153Z AUTO 35004KT 10SM BKN110 12/11 A3002=
201407221053 METAR KPAE 221053Z AUTO 00000KT 10SM CLR 12/10 A3002 RMK AO2 SLP165 T01170100=
201407220953 METAR KPAE 220953Z AUTO 00000KT 10SM CLR 13/11 A3002 RMK AO2 SLP163 T01330106=
201407220853 METAR KPAE 220853Z AUTO 03004KT 10SM CLR 13/09 A3003 RMK AO2 SLP166 T01280094 50003=
201407220753 METAR KPAE 220753Z AUTO 00000KT 10SM CLR 13/10 A3003 RMK AO2 SLP168 T01280100 402220122=
201407220653 METAR KPAE 220653Z AUTO 36005KT 10SM CLR 12/10 A3002 RMK AO2 SLP165 T01220100 TSNO=
201407220553 METAR KPAE 220553Z AUTO 03005KT 10SM CLR 13/11 A3002 RMK AO2 SLP163 T01280106 10222 20128 51007=
201407220453 METAR KPAE 220453Z AUTO 01005KT 10SM CLR 14/11 A3001 RMK AO2 SLP162 T01440111=
201407220353 METAR KPAE 220353Z AUTO 01005KT 10SM CLR 16/11 A3000 RMK AO2 SLP157 T01610106=
201407220253 METAR KPAE 220253Z 01005KT 10SM CLR 19/11 A2999 RMK AO2 SLP156 T01890106 55002=
201407220153 METAR KPAE 220153Z 30006KT 10SM CLR 22/08 A2999 RMK AO2 SLP154 T02170078=
201407220053 METAR KPAE 220053Z 26008KT 10SM CLR 21/08 A2999 RMK AO2 SLP155 T02110078=
201407212353 METAR KPAE 212353Z 26010KT 10SM CLR 22/07 A3000 RMK AO2 SLP156 T02170067 10222 20161 58014=
201407212253 METAR KPAE 212253Z 29007KT 10SM CLR 21/08 A3002 RMK AO2 SLP164 T02110083=
201407212153 METAR KPAE 212153Z 27007KT 10SM CLR 21/09 A3004 RMK AO2 SLP170 T02060089=
201407212053 METAR KPAE 212053Z 27005KT 10SM FEW045 20/10 A3004=
201407211953 METAR KPAE 211953Z 28008KT 10SM FEW042 19/11 A3005 RMK AO2 SLP174 T01890106=
201407211900 SPECI KPAE 211900Z VRB05KT 10SM CLR 18/11 A3005 RMK AO2 T01830111=
201407211853 METAR KPAE 211853Z 00000KT 10SM BKN021 BKN031 18/11 A3005 RMK AO2 SLP175 T01780106=
201407211753 METAR KPAE 211753Z 27005G14KT 10SM BKN018 BKN031 17/11 A3006 RMK AO2 SLP176 T01670111 10178 20133 53001=
201407211653 METAR KPAE 211653Z 26005KT 10SM BKN018 15/11 A3005 RMK AO2 SLP175 T01500106=
201407211553 METAR KPAE 211553Z 02003KT 10SM SCT016 16/11 A3005 RMK AO2 SLP174 T01610106=
201407211501 SPECI KPAE 211501Z VRB04KT 10SM BKN014 OVC060 15/11 A3005 RMK AO2 T01500106=
201407211453 METAR KPAE 211453Z 00000KT 10SM SCT013 OVC060 15/11 A3005 RMK AO2 SLP177 T01500106 51009=
201407211353 METAR KPAE 211353Z VRB03KT 10SM BKN041 OVC060 14/10 A3005 RMK AO2 SLP175 T01390100=
201407211253 METAR KPAE 211253Z AUTO 07003KT 10SM SCT041 OVC060 13/10 A3004 RMK AO2 SLP171 T01330100=
201407211239 SPECI KPAE 211239Z AUTO 07003KT 10SM SCT010 SCT041 OVC060 13/10 A3003 RMK AO2 T01330100=
201407211153 METAR KPAE 211153Z AUTO 04003KT 10SM OVC010 13/11 A3003 RMK AO2 SLP167 60000 70001 T01330106 10139 20133 53008=
201407211107 SPECI KPAE 211107Z AUTO 00000KT 10SM BKN012 OVC041 13/11 A3002 RMK AO2 T01330106=
201407211053 METAR KPAE 211053Z AUTO 00000KT 10SM SCT010 OVC041 13/11 A3001 RMK AO2 SLP162 T01330106=
201407210953 METAR KPAE 210953Z AUTO VRB04KT 10SM FEW011 OVC042 13/10 A3001 RMK AO2 SLP160 T01330100=
201407210853 METAR KPAE 210853Z AUTO 02004KT 10SM OVC041 13/11 A3000 RMK AO2 SLP159 60000 T01330106 53003=
201407210753 METAR KPAE 210753Z AUTO VRB03KT 10SM FEW012 OVC042 13/11 A3000 RMK AO2 RAB0657E16 SLP158 P0000 T01330106 401720128=
201407210653 METAR KPAE 210653Z AUTO 05003KT 10SM FEW010 OVC040 14/11 A2999 RMK AO2 SLP156 T01390106=
201407210553 METAR KPAE 210553Z AUTO 06003KT 10SM OVC038 14/10 A2999=
201407210453 METAR KPAE 210453Z AUTO 00000KT 10SM OVC032 14/11 A2999 RMK AO2 RAB09E27 SLP155 P0001 T01390106=
201407210448 SPECI KPAE 210448Z AUTO 07003KT 10SM OVC030 14/11 A2999 RMK AO2 RAB09E27 P0001=
201407210353 METAR KPAE 210353Z 02005KT 10SM BKN024 OVC031 14/12 A2999 RMK AO2 RAB35E45 SLP154 P0000 T01390117=
201407210253 METAR KPAE 210253Z 34004KT 10SM OVC024 14/11 A2998 RMK AO2 SLP153 T01390106 53001=
201407210153 METAR KPAE 210153Z VRB04KT 10SM BKN027 OVC044 15/11 A2998 RMK AO2 SLP150 T01500106=
201407210053 METAR KPAE 210053Z 35005KT 10SM OVC026 15/10 A2998 RMK AO2 SLP152 T01500100=
201407202353 METAR KPAE 202353Z 34005KT 10SM OVC025 16/11 A2998 RMK AO2 SLP152 T01560106 10172 20144 58003=
201407202253 METAR KPAE 202253Z VRB04KT 10SM OVC028 16/10 A2999 RMK AO2 SLP153 T01610100=
201407202153 METAR KPAE 202153Z 36005KT 10SM BKN028 OVC039 17/10 A2999 RMK AO2 SLP154 T01670100=
201407202115 SPECI KPAE 202115Z 02004KT 10SM SCT026 OVC033 16/11 A2999 RMK AO2 T01610106=
201407202053 METAR KPAE 202053Z 35003KT 10SM OVC025 15/11 A3000 RMK AO2 SLP158 T01500106 53001=
201407201953 METAR KPAE 201953Z 32004KT 10SM BKN024 OVC030 16/11 A2999 RMK AO2 SLP155 T01560106=
201407201853 METAR KPAE 201853Z 32004KT 10SM BKN018 OVC031 14/11 A3000 RMK AO2 SLP158 T01440106=
201407201800 SPECI KPAE 201800Z 29004KT 10SM BKN018 OVC031 15/11 A2999 RMK AO2 T01500106=
201407201753 METAR KPAE 201753Z VRB03KT 10SM BKN014 OVC031 15/11 A2999 RMK AO2 SLP157 T01500111 10156 20128 53002=
201407201653 METAR KPAE 201653Z 00000KT 10SM BKN014 OVC031 14/11 A2999 RMK AO2 SLP154 T01390106=
201407201553 METAR KPAE 201553Z 00000KT 10SM OVC033 14/11 A2999 RMK AO2 SLP154 T01390111=
201407201453 METAR KPAE 201453Z 07004KT 10SM SCT016 OVC033 13/11 A2998 RMK AO2 SLP150 T01330111 53005=
201407201353 METAR KPAE 201353Z 00000KT 10SM OVC031 13/11 A2997 RMK AO2 SLP148 T01330111=
201407201253 METAR KPAE 201253Z AUTO 00000KT 10SM FEW017 SCT030 OVC035 13/11 A2997 RMK AO2 SLP146 T01330111=
201407201209 SPECI KPAE 201209Z AUTO 00000KT 10SM OVC030 13/11 A2997 RMK AO2 T01330111=
201407201153 METAR KPAE 201153Z AUTO 02004KT 10SM OVC029 13/11 A2996 RMK AO2 SLP144 60001 70003 T01330111 10133 20128 58001=
201407201143 SPECI KPAE 201143Z AUTO 03003KT 10SM FEW014 OVC029 13/11 A2996 RMK AO2 T01330111=
201407201105 SPECI KPAE 201105Z AUTO VRB03KT 10SM FEW012 OVC031 13/11 A2997 RMK AO2 T01330111=
201407201053 METAR KPAE 201053Z AUTO 35003KT 10SM BKN012 OVC030 13/11 A2997 RMK AO2 RAE12B35E49 SLP146 P0000 T01330111=
201407200953 METAR KPAE 200953Z AUTO VRB04KT 7SM -RA OVC011 13/12 A2996 RMK AO2 RAE05B47 SLP144 P0000 T01330117=
201407200932 SPECI KPAE 200932Z AUTO VRB03KT 9SM SCT008 BKN013 OVC024 13/12 A2996 RMK AO2 RAE05 P0000 T01330122=
201407200906 SPECI KPAE 200906Z AUTO 01005KT 6SM BR BKN006 OVC009 13/12 A2996 RMK AO2 RAE05 CIG 003V008 P0000 T01280122=
201407200853 METAR KPAE 200853Z AUTO VRB04KT 4SM -RA BR OVC004 13/12 A2996 RMK AO2 RAB24 CIG 002V007 SLP145 P0001 60001 T01280122 53002=
201407200827 SPECI KPAE 200827Z AUTO 01006KT 5SM -RA BR OVC004 13/12 A2996 RMK AO2 RAB24 CIG 002V008 P0000 T01330122=
201407200812 SPECI KPAE 200812Z AUTO 01007KT 6SM BR OVC005 13/12 A2996 RMK AO2 CIG 002V008 T01330122=
201407200753 METAR KPAE 200753Z AUTO 36006KT 5SM BR OVC003 13/12 A2996 RMK AO2 RAE40 CIG 002V006 SLP143 P0000 T01330122 402220133=
201407200653 METAR KPAE 200653Z AUTO 02008KT 5SM -RA BR OVC003 13/12 A2996 RMK AO2 RAB38 SLP144 P0000 T01330122=
201407200603 SPECI KPAE 200603Z AUTO 01007KT 6SM BR OVC002 13/13 A2996 RMK AO2 T01330128=
201407200553 METAR KPAE 200553Z AUTO 02007KT 6SM BR OVC001 13/13 A2996 RMK AO2 RAE44 SLP144 P0001 60002 T01330128 10183 20133 53001=
201407200508 SPECI KPAE 200508Z AUTO 02004KT 3SM R16R/5500VP6000FT -RA BR OVC001 14/14 A2996 RMK AO2 P0000 T01440139=
201407200504 SPECI KPAE 200504Z AUTO VRB05KT 1 1/2SM R16R/5500VP6000FT -RA BR OVC001 14/14 A2996 RMK AO2 P0000 T01440139=
201407200453 METAR KPAE 200453Z AUTO 36005KT 1/2SM R16R/1800VP6000FT -RA FG VV001 14/14 A2996 RMK AO2 SLP145 P0001 T01440139=
201407200447 SPECI KPAE 200447Z AUTO 01004KT 1/4SM R16R/1800V3000FT -RA FG VV001 14/14 A2996 RMK AO2 P0001=
201407200440 SPECI KPAE 200440Z AUTO 01007KT 1/2SM R16R/1600V2000FT -RA FG VV001 14/14 A2996 RMK AO2 P0000 T01440139=
201407200422 SPECI KPAE 200422Z AUTO 01005KT 3/4SM R16R/2600V4500FT -RA BR VV001 15/14 A2995 RMK AO2 P0000 T01500144=
201407200409 SPECI KPAE 200409Z AUTO 02008KT 1 3/4SM R16R/2600VP6000FT -RA BR BKN001 OVC027 15/14 A2995 RMK AO2 P0000 T01500144=
201407200405 SPECI KPAE 200405Z AUTO 02009KT 2 1/2SM -RA BR BKN002 BKN025 OVC032 15/14 A2995 RMK AO2 P0000 T01500144=
201407200353 METAR KPAE 200353Z AUTO 02012KT 5SM -RA BR FEW002 BKN025 OVC034 15/14 A2995 RMK AO2 RAB19 SLP141 P0000 T01500144=
201407200253 METAR KPAE 200253Z VRB06KT 8SM OVC022 16/14 A2996 RMK AO2 SLP143 T01610139 56007=
201407200153 METAR KPAE 200153Z 02005KT 10SM OVC020 17/13 A2996 RMK AO2 SLP145 T01720133=
201407200053 METAR KPAE 200053Z VRB04KT 10SM OVC025 18/14 A2996 RMK AO2 SLP146 T01830139=
201407192353 METAR KPAE 192353Z 36009KT 340V040 10SM BKN029 OVC035 19/15 A2998 RMK AO2 SLP149 T01890150 10222 20183 56005=
201407192253 METAR KPAE 192253Z 36007KT 340V050 10SM BKN029 OVC037 19/14 A2998=
201407192153 METAR KPAE 192153Z 24005KT 10SM OVC026 22/15 A2998 RMK AO2 SLP151 T02220150=
201407192053 METAR KPAE 192053Z 16008KT 10SM BKN015 OVC022 21/15 A2999 RMK AO2 SLP154 T02110150 58015=
201407191953 METAR KPAE 191953Z 17008KT 10SM OVC014 20/14 A3001 RMK AO2 SLP159 T02000144=
201407191853 METAR KPAE 191853Z 18015G19KT 10SM OVC012 19/14 A3002 RMK AO2 SLP165 T01890144=
201407191753 METAR KPAE 191753Z 17011G19KT 10SM SCT008 OVC012 18/14 A3004 RMK AO2 SLP169 T01780139 10183 20156 58005=
201407191653 METAR KPAE 191653Z 18012G20KT 10SM SCT008 OVC010 18/13 A3004 RMK AO2 SLP170 T01780133=
201407191553 METAR KPAE 191553Z 17011KT 10SM OVC008 17/13 A3005 RMK AO2 SLP175 T01720133=
201407191453 METAR KPAE 191453Z 17012KT 10SM OVC006 16/13 A3005 RMK AO2 SLP174 T01610133 58007=
201407191353 METAR KPAE 191353Z AUTO 19011KT 8SM OVC007 16/13 A3006 RMK AO2 SLP178 T01560133=
201407191253 METAR KPAE 191253Z AUTO 18008KT 10SM OVC008 16/13 A3006 RMK AO2 SLP178 T01560128=
201407191153 METAR KPAE 191153Z AUTO 19006KT 10SM OVC008 16/13 A3007 RMK AO2 SLP181 T01560133 10161 20139 53001=
201407191142 SPECI KPAE 191142Z AUTO 28004KT 10SM OVC009 15/13 A3008 RMK AO2 CIG 008V011 T01500128=
201407191108 SPECI KPAE 191108Z AUTO 00000KT 10SM BKN012 15/13 A3007 RMK AO2 T01500133=
201407191053 METAR KPAE 191053Z AUTO 00000KT 10SM CLR 14/13 A3007 RMK AO2 SLP180 T01390128=
201407190953 METAR KPAE 190953Z AUTO 00000KT 10SM CLR 14/13 A3006 RMK AO2 SLP178 T01440128=
201407190853 METAR KPAE 190853Z AUTO VRB03KT 10SM BKN050 15/13 A3007 RMK AO2 SLP180 T01500128 50000=
201407190753 METAR KPAE 190753Z AUTO 36004KT 10SM OVC060 16/13 A3007 RMK AO2 SLP180 T01560133 402280128=
201407190653 METAR KPAE 190653Z AUTO 36006KT 10SM OVC048 15/13 A3007 RMK AO2 SLP181 T01500128=
201407190553 METAR KPAE 190553Z AUTO 02006KT 10SM BKN050 OVC060 16/13 A3007 RMK AO2 SLP180 T01610128 10228 20156 58005=
201407190453 METAR KPAE 190453Z AUTO 36006KT 10SM OVC060 17/13 A3008 RMK AO2 SLP184 T01720128=
201407190353 METAR KPAE 190353Z AUTO 06003KT 10SM OVC070 18/12 A3007 RMK AO2 SLP182 T01830122=
201407190253 METAR KPAE 190253Z 35004KT 10SM BKN080 22/11 A3008 RMK AO2 SLP184 T02170106 55004=
201407190153 METAR KPAE 190153Z 28005KT 10SM CLR 23/12 A3008 RMK AO2 SLP182 T02280117=
201407190053 METAR KPAE 190053Z 24004KT 10SM CLR 22/12 A3008 RMK AO2 SLP186 T02170117=
201407182353 METAR KPAE 182353Z 29008KT 10SM SCT100 22/12 A3009 RMK AO2 SLP188 T02170122 10222 20161 56005=
201407182253 METAR KPAE 182253Z 26008KT 10SM CLR 21/12 A3010 RMK AO2 SLP189 T02110117=
201407182153 METAR KPAE 182153Z 24007KT 10SM CLR 21/11 A3010 RMK AO2 SLP191 T02110111=
201407182053 METAR KPAE 182053Z 24010KT 10SM CLR 19/11 A3011 RMK AO2 SLP195 T01940111 53002=
201407181953 METAR KPAE 181953Z 24011KT 10SM CLR 18/11 A3010 RMK AO2 SLP192 T01780111=
201407181853 METAR KPAE 181853Z 26010KT 10SM CLR 18/11 A3010=
201407181753 METAR KPAE 181753Z 25010KT 10SM CLR 16/11 A3010 RMK AO2 SLP192 T01610106 10172 20128 51005=
201407181653 METAR KPAE 181653Z 24007KT 10SM CLR 17/11 A3010 RMK AO2 SLP192 T01670111=
201407181553 METAR KPAE 181553Z 16008KT 10SM CLR 16/11 A3010 RMK AO2 SLP192 T01560106=
201407181453 METAR KPAE 181453Z 17009KT 10SM CLR 14/11 A3009 RMK AO2 SLP187 T01440106 53006=
201407181353 METAR KPAE 181353Z 20010KT 10SM CLR 13/11 A3008 RMK AO2 SLP183 T01330106=
201407181253 METAR KPAE 181253Z AUTO 20007KT 10SM CLR 13/10 A3007 RMK AO2 SLP179 T01280100=
201407181153 METAR KPAE 181153Z AUTO 20004KT 10SM CLR 13/11 A3007 RMK AO2 SLP181 T01330106 10161 20133 53010=
201407181053 METAR KPAE 181053Z AUTO 20005KT 10SM CLR 14/11 A3006 RMK AO2 SLP176 T01390106=
201407180953 METAR KPAE 180953Z AUTO 00000KT 10SM CLR 14/11 A3005 RMK AO2 SLP173 T01390111=
201407180853 METAR KPAE 180853Z AUTO 00000KT 10SM CLR 14/11 A3004 RMK AO2 SLP171 T01390106 51008=
201407180753 METAR KPAE 180753Z AUTO 15003KT 10SM CLR 16/11 A3003 RMK AO2 SLP168 T01560106 402440133=
201407180653 METAR KPAE 180653Z AUTO 02004KT 10SM CLR 14/11 A3003 RMK AO2 SLP168 T01440111=
201407180553 METAR KPAE 180553Z AUTO 01004KT 10SM CLR 16/11 A3002 RMK AO2 SLP163 T01610111 10244 20161 53009=
201407180453 METAR KPAE 180453Z AUTO 03004KT 10SM CLR 17/11 A3001 RMK AO2 SLP160 T01720111=
201407180353 METAR KPAE 180353Z AUTO 35004KT 10SM CLR 18/12 A2999=
201407180253 METAR KPAE 180253Z 34005KT 10SM CLR 21/12 A2999 RMK AO2 SLP152 T02110122 55004=
201407180153 METAR KPAE 180153Z 27006KT 10SM CLR 23/10 A2998 RMK AO2 SLP151 T02330100=
201407180053 METAR KPAE 180053Z 23009KT 10SM CLR 24/11 A2999 RMK AO2 SLP153 T02390106=
201407172353 METAR KPAE 172353Z 23008KT 10SM CLR 23/12 A3000 RMK AO2 SLP156 T02330117 10233 20167 58011=
201407172253 METAR KPAE 172253Z 24009KT 10SM CLR 23/12 A3002 RMK AO2 SLP162 T02280122=
201407172153 METAR KPAE 172153Z VRB05KT 10SM CLR 21/12 A3002 RMK AO2 SLP164 T02110122=
201407172053 METAR KPAE 172053Z 25008KT 10SM CLR 20/12 A3003 RMK AO2 SLP167 T02000117 58002=
201407171953 METAR KPAE 171953Z 25010KT 10SM CLR 19/12 A3004 RMK AO2 SLP169 T01890117=
201407171937 SPECI KPAE 171937Z 24008KT 10SM FEW021 18/12 A3004 RMK AO2 T01830117=
201407171853 METAR KPAE 171853Z 21010KT 10SM OVC020 18/12 A3004 RMK AO2 SLP171 T01780117=
201407171753 METAR KPAE 171753Z 16010KT 10SM BKN017 17/11 A3004 RMK AO2 SLP171 T01670111 10172 20133 51003=
201407171653 METAR KPAE 171653Z 19011KT 10SM OVC014 16/11 A3004 RMK AO2 SLP170 T01610111=
201407171553 METAR KPAE 171553Z 18011KT 10SM OVC010 15/11 A3004 RMK AO2 SLP169 T01500111=
201407171544 SPECI KPAE 171544Z 18010KT 10SM OVC010 15/11 A3004 RMK AO2 T01500111=
201407171453 METAR KPAE 171453Z 18010KT 10SM OVC007 14/12 A3003 RMK AO2 SLP166 T01440117 53013=
201407171353 METAR KPAE 171353Z 19009KT 8SM OVC006 14/12 A3001=
201407171253 METAR KPAE 171253Z 20010KT 8SM OVC006 14/12 A3000 RMK AO2 SLP157 T01390117=
201407171200 SPECI KPAE 171200Z 21005KT 10SM BKN008 14/12 A2999 RMK AO2 T01390122=
201407171153 METAR KPAE 171153Z 21007KT 10SM SCT008 14/12 A2999 RMK AO2 SLP152 T01390122 10178 20133 53008=
201407171053 METAR KPAE 171053Z 22005KT 10SM CLR 14/13 A2998 RMK AO2 SLP147 T01440128=
201407170953 METAR KPAE 170953Z 00000KT 10SM CLR 14/13 A2997 RMK AO2 SLP147 T01440128=
201407170853 METAR KPAE 170853Z 15005KT 10SM CLR 17/12 A2996 RMK AO2 SLP143 T01720122 53004=
201407170753 METAR KPAE 170753Z 00000KT 10SM CLR 17/12 A2996 RMK AO2 SLP141 T01670122 402890128=
201407170653 METAR KPAE 170653Z 03004KT 10SM CLR 17/12 A2995 RMK AO2 SLP139 T01720122=
201407170553 METAR KPAE 170553Z 36005KT 10SM CLR 16/12 A2995 RMK AO2 SLP139 T01610122 10289 20156 53006=
201407170453 METAR KPAE 170453Z 01006KT 10SM CLR 18/12 A2994 RMK AO2 SLP137 T01780122=
201407170353 METAR KPAE 170353Z 36004KT 10SM CLR 21/13 A2993 RMK AO2 SLP133 T02110128=
201407170253 METAR KPAE 170253Z 35005KT 10SM CLR 24/13 A2993 RMK AO2 SLP133 T02440128 56009=
201407170153 METAR KPAE 170153Z 35005KT 10SM CLR 27/14 A2994 RMK AO2 SLP135 T02670139=
201407170053 METAR KPAE 170053Z VRB06KT 10SM CLR 28/13 A2994 RMK AO2 SLP136 T02830128=
201407162353 METAR KPAE 162353Z 32005KT 10SM CLR 28/13 A2996 RMK AO2 SLP142 T02830128 10289 20228 58013=
201407162253 METAR KPAE 162253Z 29007KT 10SM CLR 28/13 A2998 RMK AO2 SLP147 T02780133=
201407162153 METAR KPAE 162153Z VRB04KT 10SM CLR 27/13 A2999 RMK AO2 SLP154 T02720133=
201407162053 METAR KPAE 162053Z 30005KT 10SM CLR 27/13 A3000 RMK AO2 SLP156 T02670133 58009=
201407161953 METAR KPAE 161953Z 30006KT 10SM CLR 25/13 A3001 RMK AO2 SLP159 T02500133=
201407161853 METAR KPAE 161853Z 28007KT 10SM CLR 24/13 A3002 RMK AO2 SLP163 T02390133=
201407161753 METAR KPAE 161753Z 02004KT 10SM CLR 23/13 A3003 RMK AO2 SLP165 T02330128 10233 20128 58001=
201407161653 METAR KPAE 161653Z 31004KT 10SM CLR 21/13 A3003 RMK AO2 SLP168 T02060128=
201407161553 METAR KPAE 161553Z 32003KT 10SM CLR 20/13 A3003 RMK AO2 SLP167 T02000128=
201407161453 METAR KPAE 161453Z 00000KT 10SM CLR 17/11 A3003 RMK AO2 SLP166 T01720111 53004=
201407161353 METAR KPAE 161353Z 00000KT 10SM CLR 14/11 A3003 RMK AO2 SLP166 T01390111=
201407161253 METAR KPAE 161253Z AUTO 36004KT 10SM CLR 13/11 A3002 RMK AO2 SLP164 T01280106=
201407161153 METAR KPAE 161153Z AUTO 00000KT 10SM CLR 13/11 A3002 RMK AO2 SLP162 T01330106 10189 20128 53003=
201407161053 METAR KPAE 161053Z AUTO 36004KT 10SM CLR 13/11 A3001 RMK AO2 SLP159 T01330111=
201407160953 METAR KPAE 160953Z AUTO VRB04KT 10SM CLR 13/11 A3000 RMK AO2 SLP158 T01330111=
201407160853 METAR KPAE 160853Z AUTO 00000KT 10SM CLR 15/11 A3001 RMK AO2 SLP159 T01500111 58003=
201407160753 METAR KPAE 160753Z AUTO 01005KT 10SM CLR 17/12 A3001 RMK AO2 SLP160 T01670117 402780122=
201407160653 METAR KPAE 160653Z AUTO VRB03KT 10SM CLR 18/13 A3002 RMK AO2 SLP163 T01830128=
201407160553 METAR KPAE 160553Z AUTO 03003KT 10SM CLR 19/13 A3002 RMK AO2 SLP163 T01890128 10267 20178 53000=
201407160453 METAR KPAE 160453Z AUTO 01004KT 10SM CLR 18/12 A3002 RMK AO2 SLP164 T01780122=
201407160353 METAR KPAE 160353Z AUTO 36005KT 10SM CLR 20/12 A3001 RMK AO2 SLP161 T02000122=
201407160253 METAR KPAE 160253Z 35005KT 10SM CLR 22/13 A3002 RMK AO2 SLP163 T02220128 55009=
201407160153 METAR KPAE 160153Z VRB05KT 10SM CLR 24/12 A3002 RMK AO2 SLP162 T02440122=
201407160053 METAR KPAE 160053Z 03006KT 10SM CLR 25/13 A3003 RMK AO2 SLP167 T02500128=
201407152353 METAR KPAE 152353Z VRB05KT 10SM CLR 26/12 A3005 RMK AO2 SLP172 T02610117 10278 20194 56012=
201407152253 METAR KPAE 152253Z VRB04KT 10SM CLR 27/14 A3006 RMK AO2 SLP174 T02720144=
201407152153 METAR KPAE 152153Z VRB05KT 10SM CLR 26/14 A3007 RMK AO2 SLP180 T02560139=
201407152053 METAR KPAE 152053Z VRB03KT 10SM CLR 25/14 A3008 RMK AO2 SLP184 T02500144 58009=
201407151953 METAR KPAE 151953Z 29006KT 10SM CLR 23/14 A3009 RMK AO2 SLP188 T02280144=
201407151853 METAR KPAE 151853Z 26005KT 10SM CLR 21/14 A3010 RMK AO2 SLP190 T02060139=
201407151753 METAR KPAE 151753Z VRB03KT 10SM CLR 19/13 A3011 RMK AO2 SLP194 T01940133 10194 20122 58005=
201407151653 METAR KPAE 151653Z 00000KT 10SM CLR 17/13 A3012 RMK AO2 SLP197 T01720128=
201407151553 METAR KPAE 151553Z 00000KT 10SM CLR 16/13 A3013 RMK AO2 SLP200 FOG BANK OVR WTR W-NE T01610128=
201407151500 SPECI KPAE 151500Z 00000KT 10SM R16R/1200V5000FT FEW001 13/12 A3013 RMK AO2 FOG BANK OVR WTR W-NE T01330122=
201407151453 METAR KPAE 151453Z 01003KT 10SM R16R/0800V3500FT SCT002 13/12 A3012 RMK AO2 SLP200 PATCHY GROUND FOG ALL QUADS T01280122 53003=
201407151431 SPECI KPAE 151431Z 00000KT 10SM R16R/0500V0800FT SCT002 13/12 A3012 RMK AO2 PATCHY GROUND FOG ALL QUADS T01280122=
201407151400 SPECI KPAE 151400Z 02004KT 1/4SM R16R/0500V0800FT FG VV001 13/12 A3012 RMK AO2 T01280122=
201407151353 METAR KPAE 151353Z 01003KT 4SM R16R/0700V1200FT BR CLR 12/12 A3012 RMK AO2 SLP199 T01220122=
201407151253 METAR KPAE 151253Z AUTO 01004KT M1/4SM R16R/0700V0800FT FG VV001 12/12 A3012 RMK AO2 SLP196 T01220117=
201407151225 SPECI KPAE 151225Z AUTO 01003KT 1/4SM R16R/1000V1600FT FG VV001 12/12 A3011 RMK AO2 T01220117=
201407151153 METAR KPAE 151153Z AUTO 02005KT 1/2SM R16R/1600V2800FT FG VV001 12/12 A3012 RMK AO2 SLP196 T01220117 10172 20122 53004=
201407151140 SPECI KPAE 151140Z AUTO 01004KT 1SM R16R/1200V1800FT BR VV001 12/12 A3012 RMK AO2 T01220117=
201407151133 SPECI KPAE 151133Z AUTO 02004KT 3/4SM R16R/1200V2800FT BR VV001 13/12 A3012 RMK AO2 T01280117=
201407151123 SPECI KPAE 151123Z AUTO 01005KT 1/4SM R16R/1200V2400FT FG VV001 12/12 A3012 RMK AO2 T01220117=
201407151119 SPECI KPAE 151119Z AUTO 02005KT 1/2SM R16R/1200V2200FT FG VV001 12/12 A3012 RMK AO2 T01220117=
201407151115 SPECI KPAE 151115Z AUTO 02006KT 1SM R16R/1200VP6000FT BR VV001 13/12 A3011 RMK AO2 T01280117=
201407151112 SPECI KPAE 151112Z AUTO 02006KT 2 1/2SM R16R/1400VP6000FT BR SCT001 13/12 A3011 RMK AO2 T01280117=
201407151053 METAR KPAE 151053Z AUTO 01004KT 9SM CLR 13/12 A3011 RMK AO2 SLP194 T01280117=
201407150953 METAR KPAE 150953Z AUTO 02003KT 10SM CLR 13/12 A3011 RMK AO2 SLP193 T01330122=
201407150853 METAR KPAE 150853Z AUTO 02003KT 10SM CLR 14/13 A3010 RMK AO2 SLP192 T01440128 51004=
201407150753 METAR KPAE 150753Z AUTO 01004KT 10SM CLR 16/13 A3010 RMK AO2 SLP191 T01610128 402670144=
201407150653 METAR KPAE 150653Z AUTO 00000KT 10SM CLR 16/13 A3010 RMK AO2 SLP190 T01560128=
201407150553 METAR KPAE 150553Z AUTO 01003KT 10SM CLR 17/13 A3009 RMK AO2 SLP188 T01720128 10267 20172 50002=
201407150453 METAR KPAE 150453Z AUTO 00000KT 10SM CLR 21/13 A3009 RMK AO2 SLP188 T02060128=
201407150353 METAR KPAE 150353Z 02005KT 10SM CLR 19/13 A3009 RMK AO2 SLP186 T01890128=
201407150253 METAR KPAE 150253Z 01004KT 10SM CLR 21/13 A3009 RMK AO2 SLP186 T02060128 56001=
201407150153 METAR KPAE 150153Z 35005KT 10SM CLR 21/13 A3009 RMK AO2 SLP186 T02110128=
201407150053 METAR KPAE 150053Z 36006KT 10SM CLR 23/13 A3008 RMK AO2 SLP184 T02330133=
201407142353 METAR KPAE 142353Z 29006KT 10SM CLR 26/13 A3009 RMK AO2 SLP186 T02610133 10267 20178 56010=
201407142253 METAR KPAE 142253Z 27006KT 10SM CLR 26/12 A3010 RMK AO2 SLP188 T02610122=
201407142153 METAR KPAE 142153Z 25006KT 10SM CLR 24/13 A3011 RMK AO2 SLP192 T02440133=
201407142053 METAR KPAE 142053Z 25008KT 10SM CLR 23/14 A3012 RMK AO2 SLP196 T02330144 58003=
201407141953 METAR KPAE 141953Z 24007KT 10SM CLR 22/14 A3013 RMK AO2 SLP199 T02220139=
201407141853 METAR KPAE 141853Z 25009KT 10SM CLR 20/14 A3013 RMK AO2 SLP198 T02000139=
201407141753 METAR KPAE 141753Z 23008KT 10SM FEW001 18/13 A3013 RMK AO2 SLP199 T01780133 10194 20144 58003=
201407141702 SPECI KPAE 141702Z 25011KT 10SM FEW001 18/14 A3014 RMK AO2 T01780139=
201407141653 METAR KPAE 141653Z 25009KT 10SM CLR 18/14 A3014 RMK AO2 SLP204 T01780139=
201407141553 METAR KPAE 141553Z 26005KT 10SM CLR 19/14 A3014 RMK AO2 SLP204 T01890144=
201407141453 METAR KPAE 141453Z 24004KT 10SM CLR 17/14 A3014 RMK AO2 SLP202 T01720139 53005=
201407141353 METAR KPAE 141353Z 23004KT 10SM CLR 16/13 A3013 RMK AO2 SLP199 T01560133=
201407141253 METAR KPAE 141253Z AUTO 00000KT 10SM CLR 15/13 A3012 RMK AO2 SLP196 T01500133=
201407141153 METAR KPAE 141153Z AUTO 32003KT 10SM CLR 15/13 A3012 RMK AO2 SLP197 T01500133 10228 20150 51006=
201407141053 METAR KPAE 141053Z AUTO 00000KT 10SM CLR 17/13 A3011 RMK AO2 SLP193 T01670128=
201407140953 METAR KPAE 140953Z AUTO 00000KT 10SM CLR 17/13 A3012 RMK AO2 SLP196 T01670128=
201407140853 METAR KPAE 140853Z AUTO VRB04KT 10SM CLR 19/13 A3010 RMK AO2 SLP191 T01890133 53005=
201407140753 METAR KPAE 140753Z AUTO 06003KT 10SM CLR 22/13 A3010 RMK AO2 SLP187 T02170128 402830133=
201407140653 METAR KPAE 140653Z AUTO 05003KT 10SM CLR 22/12 A3009 RMK AO2 SLP185 T02170122=
201407140553 METAR KPAE 140553Z AUTO VRB05KT 10SM SCT090 SCT100 22/13 A3009 RMK AO2 RAB0459E08 SLP185 P0000 60000 T02170133 10278 20189 53007=
201407140453 METAR KPAE 140453Z AUTO 02005KT 10SM FEW060 BKN095 BKN110 20/14 A3005 RMK AO2 RAB25E42 SLP173 P0000 T02000139=
201407140353 METAR KPAE 140353Z AUTO 34003KT 10SM CLR 25/14 A3006 RMK AO2 SLP175 T02500144=
201407140253 METAR KPAE 140253Z 00000KT 10SM CLR 25/13 A3007 RMK AO2 SLP178 T02500133 53004=
201407140153 METAR KPAE 140153Z 26006KT 10SM CLR 26/14 A3006 RMK AO2 SLP175 T02610144=
201407140053 METAR KPAE 140053Z VRB04KT 10SM CLR 27/14 A3005 RMK AO2 SLP173 T02720139=
201407132353 METAR KPAE 132353Z 27003KT 10SM CLR 27/14 A3006 RMK AO2 SLP174 T02670139 10283 20211 56004=
201407132253 METAR KPAE 132253Z 34006KT 10SM CLR 27/14 A3006 RMK AO2 SLP175 T02670144=
201407132153 METAR KPAE 132153Z 34007KT 10SM CLR 27/14 A3006 RMK AO2 SLP178 T02670144=
201407132053 METAR KPAE 132053Z 33007KT 10SM CLR 26/14 A3007 RMK AO2 SLP179 T02560139 58014=
201407131953 METAR KPAE 131953Z 36007KT 10SM CLR 24/13 A3009 RMK AO2 SLP186 T02440133=
201407131853 METAR KPAE 131853Z VRB03KT 10SM CLR 24/13 A3011 RMK AO2 SLP192 T02440128=
201407131753 METAR KPAE 131753Z 01005KT 10SM CLR 22/12 A3011 RMK AO2 SLP193 T02170122 10217 20133 58008=
201407131653 METAR KPAE 131653Z VRB04KT 10SM CLR 18/11 A3013 RMK AO2 SLP200 T01780111=
201407131553 METAR KPAE 131553Z 36004KT 10SM CLR 16/11 A3013 RMK AO2 SLP202 T01610111=
201407131453 METAR KPAE 131453Z 01007KT 10SM CLR 15/11 A3013 RMK AO2 SLP202 T01500111 51006=
201407131353 METAR KPAE 131353Z 01004KT 10SM CLR 14/12 A3013 RMK AO2 SLP200 T01440117=
201407131253 METAR KPAE 131253Z AUTO 04003KT 10SM CLR 13/12 A3012 RMK AO2 SLP198 T01330117=
201407131153 METAR KPAE 131153Z AUTO 02006KT 10SM CLR 13/12 A3011 RMK AO2 SLP194 T01330117 10200 20133 53001=
201407131053 METAR KPAE 131053Z AUTO VRB03KT 10SM CLR 15/12 A3011 RMK AO2 SLP192 T01500122=
201407130953 METAR KPAE 130953Z AUTO VRB03KT 10SM CLR 16/11 A3011 RMK AO2 SLP192 T01610111=
201407130853 METAR KPAE 130853Z AUTO 03005KT 10SM CLR 18/09 A3011 RMK AO2 SLP192 T01780094 51004=
201407130753 METAR KPAE 130753Z AUTO 04004KT 10SM CLR 20/08 A3011 RMK AO2 SLP192 T02000083 402890156=
201407130653 METAR KPAE 130653Z AUTO 02004KT 10SM CLR 19/08 A3011 RMK AO2 SLP192 T01940078=
201407130553 METAR KPAE 130553Z AUTO 03007KT 10SM CLR 19/08 A3010 RMK AO2 SLP189 T01890083 10278 20178 53004=
201407130453 METAR KPAE 130453Z AUTO 01005KT 10SM CLR 18/08 A3010 RMK AO2 SLP188 T01830078=
201407130353 METAR KPAE 130353Z 02006KT 10SM CLR 19/09 A3009 RMK AO2 SLP186 T01890089=
201407130253 METAR KPAE 130253Z 36005KT 10SM CLR 22/09 A3009 RMK AO2 SLP185 T02220094 55002=
201407130153 METAR KPAE 130153Z 36005KT 10SM CLR 24/12 A3008 RMK AO2 SLP184 T02440122=
201407130053 METAR KPAE 130053Z 36007KT 10SM CLR 27/12 A3009 RMK AO2 SLP186 T02670122=
201407122353 METAR KPAE 122353Z 36004KT 10SM CLR 28/13 A3009 RMK AO2 SLP187 T02780128 10289 20239 58008=
201407122253 METAR KPAE 122253Z VRB03KT 10SM CLR 29/13 A3010 RMK AO2 SLP189 T02890128=
201407122153 METAR KPAE 122153Z 02005KT 10SM CLR 28/13 A3011 RMK AO2 SLP192 T02780133=
201407122053 METAR KPAE 122053Z 36004KT 10SM CLR 27/14 A3012 RMK AO2 SLP195 T02720139 58000=
201407121953 METAR KPAE 121953Z VRB05KT 10SM CLR 26/14 A3012 RMK AO2 SLP195 T02560139=
201407121853 METAR KPAE 121853Z 34005KT 10SM CLR 25/14 A3012 RMK AO2 SLP195 T02500139=
201407121753 METAR KPAE 121753Z 28006KT 10SM CLR 24/13 A3012 RMK AO2 SLP196 T02390133 10244 20156 51010=
201407121653 METAR KPAE 121653Z 01004KT 10SM CLR 22/13 A3011 RMK AO2 SLP193 T02170128=
201407121553 METAR KPAE 121553Z 36005KT 10SM CLR 20/12 A3011 RMK AO2 SLP191 T02000122=
201407121453 METAR KPAE 121453Z 00000KT 10SM CLR 18/13 A3009 RMK AO2 SLP185 T01830128 53014=
201407121353 METAR KPAE 121353Z AUTO 36003KT 10SM CLR 17/13 A3007 RMK AO2 SLP180 T01670128=
201407121253 METAR KPAE 121253Z AUTO 01004KT 10SM CLR 16/13 A3006 RMK AO2 SLP176 T01560128=
201407121153 METAR KPAE 121153Z AUTO 03004KT 10SM CLR 17/13 A3005 RMK AO2 SLP172 T01670128 10206 20161 53004=
201407121053 METAR KPAE 121053Z AUTO 00000KT 10SM CLR 17/13 A3004 RMK AO2 SLP169 T01670128=
201407120953 METAR KPAE 120953Z AUTO 00000KT 10SM CLR 18/12 A3004 RMK AO2 SLP167 T01830117=
201407120853 METAR KPAE 120853Z AUTO 08004KT 10SM CLR 19/12 A3004 RMK AO2 SLP167 T01940117 51005=
201407120753 METAR KPAE 120753Z AUTO 00000KT 10SM CLR 20/11 A3003 RMK AO2 SLP166 T02000111 402830133=
201407120653 METAR KPAE 120653Z AUTO 02003KT 10SM CLR 20/11 A3003 RMK AO2 SLP166 T02000111=
201407120553 METAR KPAE 120553Z AUTO 02003KT 10SM CLR 19/12 A3002 RMK AO2 SLP163 T01940117 10283 20194 51013=
201407120453 METAR KPAE 120453Z AUTO 03003KT 10SM CLR 20/13 A3002 RMK AO2 SLP161 T02000128=
201407120353 METAR KPAE 120353Z AUTO 35004KT 10SM CLR 23/13 A3000 RMK AO2 SLP156 T02280128=
201407120253 METAR KPAE 120253Z 35004KT 10SM CLR 27/12 A2998 RMK AO2 SLP150 T02670117 53005=
201407120153 METAR KPAE 120153Z 32005KT 10SM CLR 28/11 A2998 RMK AO2 SLP148 T02830111=
201407120053 METAR KPAE 120053Z 33004KT 10SM CLR 28/12 A2996 RMK AO2 SLP144 T02780122=
201407112353 METAR KPAE 112353Z VRB04KT 10SM CLR 28/13 A2997 RMK AO2 SLP145 T02780128 10278 20222 58002=
201407112253 METAR KPAE 112253Z 29005KT 10SM CLR 28/13 A2998 RMK AO2 SLP148 T02780128=
201407112153 METAR KPAE 112153Z 32005KT 10SM CLR 27/12 A2997 RMK AO2 SLP147 T02670117=
201407112053 METAR KPAE 112053Z VRB05KT 10SM CLR 26/12 A2997 RMK AO2 SLP147 T02610117 58004=
201407111953 METAR KPAE 111953Z 36007KT 10SM CLR 24/11 A2998 RMK AO2 SLP150 T02440111=
201407111853 METAR KPAE 111853Z VRB05KT 10SM CLR 24/12 A2998 RMK AO2 SLP149 T02390117=
201407111753 METAR KPAE 111753Z 30005KT 10SM CLR 22/12 A2999 RMK AO2 SLP151 T02220122 10228 20133 53001=
201407111653 METAR KPAE 111653Z 34004KT 10SM CLR 21/12 A2998 RMK AO2 SLP151 T02110117=
201407111553 METAR KPAE 111553Z 36004KT 10SM CLR 19/11 A2999 RMK AO2 SLP151 T01940111=
201407111453 METAR KPAE 111453Z VRB03KT 10SM CLR 18/12 A2999 RMK AO2 SLP151 T01780117 52008=
201407111353 METAR KPAE 111353Z 00000KT 10SM CLR 16/12 A2998 RMK AO2 SLP148 T01610122=
201407111253 METAR KPAE 111253Z AUTO 00000KT 10SM CLR 13/12 A2997 RMK AO2 SLP146 T01330122=
201407111153 METAR KPAE 111153Z AUTO 00000KT 10SM CLR 13/12 A2996 RMK AO2 SLP143 T01330117 10167 20133 52005=
201407111053 METAR KPAE 111053Z AUTO 00000KT 10SM CLR 13/11 A2995 RMK AO2 SLP141 T01330111=
201407110953 METAR KPAE 110953Z AUTO 02005KT 10SM CLR 15/11 A2995 RMK AO2 SLP139 T01500111=
201407110853 METAR KPAE 110853Z AUTO 02003KT 10SM CLR 16/11 A2994 RMK AO2 SLP137 T01610111 51003=
201407110753 METAR KPAE 110753Z AUTO 03003KT 10SM CLR 16/11 A2994 RMK AO2 SLP137 T01560111 402610128=
201407110653 METAR KPAE 110653Z AUTO 00000KT 10SM CLR 16/11 A2995 RMK AO2 SLP138 T01610111=
201407110553 METAR KPAE 110553Z AUTO 01007KT 10SM CLR 17/10 A2994 RMK AO2 SLP135 T01720100 10261 20172 51006=
201407110453 METAR KPAE 110453Z AUTO 36006KT 10SM CLR 18/12 A2993 RMK AO2 SLP134 T01780117=
201407110353 METAR KPAE 110353Z VRB03KT 10SM CLR 20/12 A2993 RMK AO2 SLP131 T02000117=
201407110253 METAR KPAE 110253Z 35005KT 10SM CLR 22/11 A2992 RMK AO2 SLP129 T02220111 55001=
201407110153 METAR KPAE 110153Z 36006KT 10SM CLR 24/11 A2992 RMK AO2 SLP127 T02440106=
201407110053 METAR KPAE 110053Z 01006KT 10SM CLR 26/10 A2991 RMK AO2 SLP126 T02560100=
201407102353 METAR KPAE 102353Z 35008KT 10SM CLR 25/09 A2992 RMK AO2 SLP130 T02500094 10256 20200 58008=
201407102253 METAR KPAE 102253Z 36007KT 10SM CLR 25/11 A2993 RMK AO2 SLP133 T02500106=
201407102153 METAR KPAE 102153Z 02006KT 10SM CLR 25/12 A2994 RMK AO2 SLP137 T02500117=
201407102053 METAR KPAE 102053Z VRB06KT 10SM CLR 23/12 A2995 RMK AO2 SLP138 T02330122 58010=
201407101953 METAR KPAE 101953Z VRB05KT 10SM CLR 23/12 A2996 RMK AO2 SLP143 T02280122=
201407101853 METAR KPAE 101853Z 31006KT 10SM CLR 21/12 A2997 RMK AO2 SLP147 T02110117=
201407101753 METAR KPAE 101753Z VRB05KT 10SM CLR 20/12 A2998 RMK AO2 SLP149 T02000117 10206 20128 58003=
201407101653 METAR KPAE 101653Z VRB04KT 10SM CLR 19/12 A2998 RMK AO2 SLP150 T01890117=
201407101553 METAR KPAE 101553Z 26004KT 10SM CLR 17/12 A2998 RMK AO2 SLP151 T01720122=
201407101453 METAR KPAE 101453Z 00000KT 10SM CLR 16/12 A2999 RMK AO2 SLP152 T01560122 51004=
201407101353 METAR KPAE 101353Z 00000KT 10SM CLR 15/13 A2998 RMK AO2 SLP151 T01500128=
201407101253 METAR KPAE 101253Z 00000KT 10SM CLR 13/12 A2998 RMK AO2 SLP149 T01330117=
201407101153 METAR KPAE 101153Z 33003KT 10SM CLR 13/11 A2997 RMK AO2 SLP148 T01280111 10167 20128 53004=
201407101053 METAR KPAE 101053Z 36003KT 10SM CLR 14/12 A2997 RMK AO2 SLP145 T01390117=
201407100953 METAR KPAE 100953Z 00000KT 10SM CLR 14/12 A2996 RMK AO2 SLP145 T01390117=
201407100853 METAR KPAE 100853Z 00000KT 10SM CLR 14/12 A2996 RMK AO2 SLP143 T01390117 50001=
201407100753 METAR KPAE 100753Z 00000KT 10SM CLR 14/12 A2996 RMK AO2 SLP145 T01440117 402500122=
201407100653 METAR KPAE 100653Z 00000KT 10SM CLR 16/12 A2996 RMK AO2 SLP143 T01560117=
201407100553 METAR KPAE 100553Z AUTO 03003KT 10SM CLR 17/13 A2996 RMK AO2 SLP142 T01670128 10250 20167 53001=
201407100453 METAR KPAE 100453Z AUTO 00000KT 10SM CLR 19/12 A2996 RMK AO2 SLP142 T01940117=
201407100353 METAR KPAE 100353Z AUTO VRB03KT 10SM CLR 21/11 A2995 RMK AO2 SLP140 T02060111=
201407100253 METAR KPAE 100253Z VRB03KT 10SM CLR 22/12 A2995 RMK AO2 SLP141 T02220117 56008=
201407100153 METAR KPAE 100153Z 36006KT 10SM CLR 23/11 A2996 RMK AO2 SLP142 T02330111=
201407100053 METAR KPAE 100053Z VRB05KT 10SM CLR 24/11 A2996 RMK AO2 SLP144 T02390106=
201407092353 METAR KPAE 092353Z 36006KT 10SM CLR 24/12 A2998 RMK AO2 SLP150 T02390117 10244 20183 57012=
201407092253 METAR KPAE 092253Z 35006KT 10SM CLR 24/12 A2999 RMK AO2 SLP154 T02390117=
201407092153 METAR KPAE 092153Z 00000KT 10SM CLR 24/12 A3000 RMK AO2 SLP158 T02390117=
201407092053 METAR KPAE 092053Z 32007KT 10SM CLR 22/13 A3002 RMK AO2 SLP162 T02170128 58008=
201407091953 METAR KPAE 091953Z 29007KT 10SM CLR 21/13 A3003 RMK AO2 SLP166 T02110128=
201407091853 METAR KPAE 091853Z 28006KT 10SM CLR 19/12 A3004 RMK AO2 SLP169 T01940122=
201407091753 METAR KPAE 091753Z 28007KT 10SM CLR 18/13 A3004 RMK AO2 SLP170 T01830128 10189 20122 58002=
201407091653 METAR KPAE 091653Z VRB04KT 10SM SCT004 17/12 A3005 RMK AO2 SLP174 T01720122=
201407091553 METAR KPAE 091553Z 01003KT 10SM SCT004 15/12 A3005 RMK AO2 SLP173 T01500122=
201407091512 SPECI KPAE 091512Z 36004KT 10SM SCT001 SCT009 13/12 A3004 RMK AO2 T01330117=
201407091510 SPECI KPAE 091510Z 35003KT 1 1/2SM BR BKN007 13/12 A3004 RMK AO2 T01330117=
201407091505 SPECI KPAE 091505Z 00000KT 1 1/4SM R16R/6000VP6000FT BR OVC001 13/12 A3004 RMK AO2 VIS 1/2V3 T01280117=
201407091453 METAR KPAE 091453Z 01003KT 1/2SM R16R/4000VP6000FT FG OVC001 13/12 A3005 RMK AO2 SLP173 T01280117 51009=
201407091415 SPECI KPAE 091415Z 00000KT 1/2SM R16R/1000V2800FT FG VV001 13/12 A3004 RMK AO2 T01280117=
201407091353 METAR KPAE 091353Z 02003KT M1/4SM R16R/0600V1200FT FG VV001 12/12 A3004 RMK AO2 SLP170 T01220117=
201407091312 SPECI KPAE 091312Z 36006KT 1/4SM R16R/0800V1000FT FG VV001 12/12 A3003 RMK AO2 T01220117=
201407091301 SPECI KPAE 091301Z 01005KT 3/4SM R16R/1000V3000FT BR OVC001 12/12 A3003 RMK AO2 T01220117=
201407091253 METAR KPAE 091253Z 01004KT 1 3/4SM R16R/1600V2600FT BR OVC002 13/12 A3003 RMK AO2 VIS 3/4V3 SLP168 T01280117=
201407091246 SPECI KPAE 091246Z 36005KT 1 3/4SM R16R/1600VP6000FT BR OVC002 13/12 A3003 RMK AO2 VIS 3/4V5 T01280117=
201407091214 SPECI KPAE 091214Z 02005KT 9SM BKN003 13/12 A3002 RMK AO2 T01280117=
201407091153 METAR KPAE 091153Z 01005KT 10SM FEW003 13/12 A3002 RMK AO2 SLP162 T01280117 10167 20128 53000=
201407091053 METAR KPAE 091053Z 02004KT 10SM CLR 13/12 A3002 RMK AO2 SLP162 T01330117=
201407090953 METAR KPAE 090953Z 02008KT 10SM CLR 14/11 A3001 RMK AO2 SLP161 T01390111=
201407090853 METAR KPAE 090853Z 36004KT 10SM CLR 14/12 A3002 RMK AO2 SLP162 T01390117 56001=
201407090753 METAR KPAE 090753Z 04005KT 10SM CLR 16/10 A3002 RMK AO2 SLP162 T01560100 402610133=
201407090653 METAR KPAE 090653Z VRB05KT 10SM CLR 17/11 A3001=
201407090553 METAR KPAE 090553Z 02006KT 10SM CLR 17/12 A3002 RMK AO2 SLP163 T01670117 10261 20161 53004=
201407090453 METAR KPAE 090453Z 36007G17KT 10SM CLR 16/11 A3002 RMK AO2 SLP162 T01610106=
201407090353 METAR KPAE 090353Z 01008KT 10SM CLR 17/12 A3001 RMK AO2 SLP159 T01720117=
201407090253 METAR KPAE 090253Z 02006KT 10SM CLR 20/13 A3001 RMK AO2 SLP159 T02000128 56007=
201407090153 METAR KPAE 090153Z 02005KT 10SM CLR 22/14 A3001 RMK AO2 SLP161 T02170144=
201407090053 METAR KPAE 090053Z 36008KT 10SM CLR 24/14 A3001 RMK AO2 SLP162 T02440139=
201407082353 METAR KPAE 082353Z 36007KT 10SM CLR 26/13 A3003 RMK AO2 SLP166 T02560133 10261 20211 56010=
201407082253 METAR KPAE 082253Z AUTO 36009G14KT 10SM CLR 26/13 A3003 RMK AO2 SLP167 T02560133 TSNO=
201407082153 METAR KPAE 082153Z 36009KT 10SM CLR 25/14 A3004 RMK AO2 SLP171 T02500139=
201407082053 METAR KPAE 082053Z 35006KT 10SM CLR 25/14 A3006 RMK AO2 SLP175 T02500144 58007=
201407081953 METAR KPAE 081953Z 34005KT 10SM CLR 24/14 A3006 RMK AO2 SLP177 T02390139=
201407081853 METAR KPAE 081853Z 34008KT 310V010 10SM CLR 23/14 A3007 RMK AO2 SLP182 T02280144=
201407081753 METAR KPAE 081753Z 01003KT 10SM CLR 21/14 A3008 RMK AO2 SLP184 T02110139 10217 20133 58002=
201407081653 METAR KPAE 081653Z 31004KT 10SM CLR 20/14 A3008 RMK AO2 SLP184 T02000139=
201407081553 METAR KPAE 081553Z 29005KT 10SM CLR 18/13 A3008 RMK AO2 SLP185 T01830133=
201407081453 METAR KPAE 081453Z 01003KT 10SM CLR 16/13 A3008 RMK AO2 SLP185 T01560128 52004=
201407081353 METAR KPAE 081353Z 35005KT 10SM CLR 14/13 A3008 RMK AO2 SLP184 T01390128=
201407081253 METAR KPAE 081253Z AUTO 36003KT 10SM CLR 13/12 A3008 RMK AO2 SLP182 T01330122=
201407081153 METAR KPAE 081153Z AUTO VRB03KT 10SM CLR 13/12 A3007 RMK AO2 SLP181 T01330122 10167 20133 55000=
201407081053 METAR KPAE 081053Z AUTO 02003KT 10SM CLR 15/12 A3007 RMK AO2 SLP179 T01500122=
201407080953 METAR KPAE 080953Z AUTO 06005KT 10SM CLR 16/12 A3007 RMK AO2 SLP180 T01560122=
201407080853 METAR KPAE 080853Z AUTO 06005KT 10SM CLR 16/13 A3007 RMK AO2 SLP181 T01610128 55001=
201407080753 METAR KPAE 080753Z AUTO 03005KT 10SM CLR 17/13 A3007 RMK AO2 SLP180 T01670128 402440150=
201407080653 METAR KPAE 080653Z AUTO VRB03KT 10SM CLR 16/13 A3007 RMK AO2 SLP182 T01610128=
201407080553 METAR KPAE 080553Z AUTO 01006KT 10SM CLR 16/13 A3008 RMK AO2 SLP183 T01560128 10244 20156 53005=
201407080453 METAR KPAE 080453Z AUTO 01005KT 10SM CLR 16/14 A3007 RMK AO2 SLP182 T01610139=
201407080353 METAR KPAE 080353Z 35004KT 10SM CLR 18/14 A3006 RMK AO2 SLP179 T01830144=
201407080253 METAR KPAE 080253Z 36006KT 10SM CLR 21/15 A3006 RMK AO2 SLP177 T02110150 56007=
201407080153 METAR KPAE 080153Z VRB06KT 10SM CLR 23/15 A3006 RMK AO2 SLP178 T02330150=
201407080053 METAR KPAE 080053Z 36008KT 10SM CLR 23/16 A3007 RMK AO2 SLP180 T02330156=
201407072353 METAR KPAE 072353Z 36007KT 10SM CLR 24/16 A3008 RMK AO2 SLP184 T02440156 10244 20189 58012=
201407072253 METAR KPAE 072253Z AUTO 35006KT 10SM CLR 24/16 A3010 RMK AO2 SLP189 T02440161 TSNO=
201407072153 METAR KPAE 072153Z VRB04KT 10SM CLR 23/16 A3011 RMK AO2 SLP193 T02330156=
201407072053 METAR KPAE 072053Z 36006KT 10SM FEW012 22/16 A3012 RMK AO2 SLP197 T02170156 56012=
201407071953 METAR KPAE 071953Z 01007KT 10SM OVC010 20/16 A3014 RMK AO2 SLP205 T02000156=
201407071853 METAR KPAE 071853Z 36008KT 10SM OVC008 19/15 A3016 RMK AO2 SLP209 T01940150=
201407071753 METAR KPAE 071753Z 34006KT 8SM OVC005 18/15 A3016 RMK AO2 SLP210 T01780150 10183 20150 50001=
201407071730 SPECI KPAE 071730Z 34006KT 8SM OVC005 18/15 A3016 RMK AO2 T01780150=
201407071653 METAR KPAE 071653Z VRB03KT 2 1/2SM BR OVC003 17/15 A3016 RMK AO2 SLP211 T01720150=
201407071626 SPECI KPAE 071626Z 01004KT 1 1/4SM BR OVC002 17/15 A3016 RMK AO2 T01670150=
201407071553 METAR KPAE 071553Z VRB04KT 3/4SM R16R/6000VP6000FT BR OVC001 16/14 A3016 RMK AO2 SLP211 T01560144=
201407071453 METAR KPAE 071453Z 36004KT 3/4SM R16R/2000V5000FT BR OVC001 16/14 A3016 RMK AO2 SLP209 T01560144 53005=
201407071353 METAR KPAE 071353Z 35006KT 3/4SM R16R/4500VP6000FT BR OVC001 15/14 A3015 RMK AO2 SLP206 T01500144=
201407071325 SPECI KPAE 071325Z AUTO 35006KT 1/2SM R16R/2800V4000FT FG OVC001 15/14 A3014 RMK AO2 T01500144=
201407071253 METAR KPAE 071253Z AUTO 35007KT 1 1/2SM R16R/3000VP6000FT BR OVC001 15/14 A3014 RMK AO2 SLP203 T01500144=
201407071246 SPECI KPAE 071246Z AUTO VRB04KT 1 3/4SM R16R/5000VP6000FT BR OVC001 15/14 A3014 RMK AO2 T01500144=
201407071153 METAR KPAE 071153Z AUTO VRB03KT 6SM BR OVC001 16/14 A3014 RMK AO2 SLP203 T01560144 10172 20156 57003=
201407071053 METAR KPAE 071053Z AUTO 36004KT 8SM OVC001 16/14 A3014 RMK AO2 SLP205 T01560144=
201407071048 SPECI KPAE 071048Z AUTO 35004KT 9SM OVC001 16/15 A3015 RMK AO2=
201407071031 SPECI KPAE 071031Z AUTO 36005KT 10SM BKN002 OVC006 16/15 A3015 RMK AO2 CIG 001V005 T01560150=
201407070953 METAR KPAE 070953Z AUTO 36004KT 10SM BKN007 16/15 A3015 RMK AO2 SLP207 T01610150=
201407070918 SPECI KPAE 070918Z AUTO VRB04KT 10SM FEW002 16/15 A3015 RMK AO2 T01560150=
201407070853 METAR KPAE 070853Z AUTO 35004KT 10SM FEW060 16/15 A3015=
201407070753 METAR KPAE 070753Z AUTO 36005KT 10SM OVC060 17/15 A3016 RMK AO2 SLP210 T01670150 402610144=
201407070653 METAR KPAE 070653Z AUTO 35004KT 10SM BKN080 17/15 A3016 RMK AO2 SLP211 T01720150=
201407070553 METAR KPAE 070553Z AUTO 36005KT 10SM BKN085 17/15 A3016 RMK AO2 SLP212 T01720150 10244 20172 53003=
201407070453 METAR KPAE 070453Z 36004KT 10SM SCT080 18/15 A3016 RMK AO2 SLP212 T01780150=
201407070353 METAR KPAE 070353Z 35007KT 10SM BKN055 19/15 A3015 RMK AO2 SLP209 T01940150=
201407070253 METAR KPAE 070253Z 34008KT 10SM OVC055 21/14 A3016 RMK AO2 SLP210 T02110144 55000=
201407070153 METAR KPAE 070153Z 34007KT 10SM FEW055 23/14 A3015 RMK AO2 SLP208 T02280139=
201407070053 METAR KPAE 070053Z 35008KT 10SM SCT055 23/14 A3015 RMK AO2 SLP208 T02330144=
201407062353 METAR KPAE 062353Z 36009KT 10SM CLR 24/14 A3016 RMK AO2 SLP209 T02440144 10261 20228 58003=
201407062253 METAR KPAE 062253Z 36010G14KT 10SM CLR 24/14 A3016 RMK AO2 SLP210 T02440139=
201407062153 METAR KPAE 062153Z 27007KT 10SM FEW120 25/14 A3017 RMK AO2 SLP212 T02500144=
201407062053 METAR KPAE 062053Z 25007KT 10SM CLR 25/14 A3016=
201407061953 METAR KPAE 061953Z 25009KT 10SM CLR 24/12 A3017 RMK AO2 SLP213 T02390122=
201407061853 METAR KPAE 061853Z 27007KT 10SM FEW032 23/13 A3017 RMK AO2 SLP213 T02280133=
201407061753 METAR KPAE 061753Z VRB05KT 10SM BKN032 23/13 A3017 RMK AO2 SLP214 T02280128 10233 20144 50001=
201407061653 METAR KPAE 061653Z 20006KT 10SM OVC036 21/13 A3017 RMK AO2 SLP215 T02110128=
201407061553 METAR KPAE 061553Z 00000KT 10SM OVC040 18/13 A3017 RMK AO2 SLP214 T01780133=
201407061453 METAR KPAE 061453Z 17004KT 9SM FEW042 OVC100 17/13 A3017 RMK AO2 SLP213 T01720133 51009=
201407061353 METAR KPAE 061353Z 19003KT 10SM OVC095 16/13 A3016=
201407061253 METAR KPAE 061253Z AUTO 00000KT 10SM SCT100 15/13 A3015 RMK AO2 SLP209 T01500128=
201407061153 METAR KPAE 061153Z AUTO 00000KT 10SM FEW050 FEW120 16/12 A3014 RMK AO2 SLP204 60000 T01560122 10161 20150 51004=
201407061053 METAR KPAE 061053Z AUTO 35003KT 10SM SCT050 BKN120 15/13 A3013 RMK AO2 RAB13E26 SLP203 P0000 T01500128=
201407060953 METAR KPAE 060953Z AUTO 00000KT 10SM BKN120 16/12 A3014 RMK AO2 SLP204 T01560122=
201407060853 METAR KPAE 060853Z AUTO 00000KT 10SM BKN060 BKN090 15/12 A3013 RMK AO2 RAB24E35 SLP199 P0000 60000 T01500122 58004=
201407060753 METAR KPAE 060753Z AUTO 34003KT 10SM OVC065 16/12 A3013 RMK AO2 SLP200 T01560117 402280122=
201407060653 METAR KPAE 060653Z AUTO 00000KT 10SM OVC070 16/12 A3014 RMK AO2 SLP203 T01560122 TSNO=
201407060553 METAR KPAE 060553Z AUTO VRB03KT 10SM OVC080 16/12 A3014 RMK AO2 SLP204 60000 T01610122 10189 20161 52001 TSNO=
201407060453 METAR KPAE 060453Z 01003KT 10SM OVC095 17/12 A3013 RMK AO2 SLP202 T01720117=
201407060353 METAR KPAE 060353Z 32003KT 10SM OVC110 17/12 A3014 RMK AO2 SLP204 T01720122=
201407060253 METAR KPAE 060253Z 34003KT 10SM OVC110 18/12 A3014 RMK AO2 RAB21E36 SLP204 P0000 60000 T01780122 56009=
201407060153 METAR KPAE 060153Z 00000KT 10SM CLR 18/12 A3014 RMK AO2 SLP205 T01830117=
201407060053 METAR KPAE 060053Z 36005KT 10SM CLR 18/12 A3015 RMK AO2 SLP209 T01780117=
201407052353 METAR KPAE 052353Z 36005KT 10SM SCT080 OVC100 18/12 A3016 RMK AO2 SLP213 60000 T01830122 10228 20172 50005=
201407052253 METAR KPAE 052253Z 35004KT 10SM FEW035 OVC085 18/13 A3017 RMK AO2 RAE29 SLP214 P0000 T01780128=
201407052153 METAR KPAE 052153Z 32005KT 9SM -RA OVC085 18/12 A3016 RMK AO2 SLP213 P0000 T01830122=
201407052053 METAR KPAE 052053Z 24007KT 10SM -RA BKN075 OVC110 21/11 A3015 RMK AO2 RAB49 SLP208 P0000 60000 T02060111 53012=
201407051953 METAR KPAE 051953Z 27006KT 10SM BKN065 OVC110 21/11 A3014 RMK AO2 SLP204 T02060106=
201407051853 METAR KPAE 051853Z 18009KT 10SM SCT110 22/12 A3012 RMK AO2 SLP199 T02220117=
201407051753 METAR KPAE 051753Z 16010KT 7SM SCT060 BKN095 20/11 A3011 RMK AO2 SLP196 T02000111 10200 20128 51005=
201407051653 METAR KPAE 051653Z 18006KT 4SM HZ FEW085 BKN100 19/12 A3011 RMK AO2 SLP195 T01940122=
201407051553 METAR KPAE 051553Z 15005KT 4SM HZ SCT090 18/11 A3011 RMK AO2 SLP195 T01780111=
201407051453 METAR KPAE 051453Z 17004KT 7SM BKN100 16/11 A3010 RMK AO2 SLP191 T01610111 51007=
201407051353 METAR KPAE 051353Z 16003KT 3SM HZ BKN100 14/11 A3009 RMK AO2 SLP190 T01390111=
201407051253 METAR KPAE 051253Z AUTO 00000KT 4SM BR BKN080 BKN120 13/11 A3008 RMK AO2 SLP186 T01280111=
201407051153 METAR KPAE 051153Z AUTO 16003KT 5SM HZ BKN075 13/11 A3007 RMK AO2 SLP183 70001 T01330106 10139 20122 51002=
201407051053 METAR KPAE 051053Z AUTO 00000KT 6SM HZ OVC085 13/11 A3007 RMK AO2 SLP182 T01330106=
201407050953 METAR KPAE 050953Z AUTO 33003KT 7SM OVC080 13/11 A3007 RMK AO2 SLP183 T01280106=
201407050853 METAR KPAE 050853Z AUTO 00000KT 7SM FEW090 12/10 A3007 RMK AO2 SLP181 T01220100 51004=
201407050753 METAR KPAE 050753Z AUTO VRB03KT 9SM CLR 13/11 A3007 RMK AO2 SLP180 T01280106 402170117=
201407050653 METAR KPAE 050653Z AUTO 31003KT 10SM CLR 13/11 A3006 RMK AO2 SLP177 T01280106=
201407050553 METAR KPAE 050553Z AUTO 30004KT 10SM SCT100 13/11 A3005 RMK AO2 SLP176 60001 T01280106 10172 20128 55000=
201407050453 METAR KPAE 050453Z AUTO 33003KT 10SM OVC110 14/11 A3005 RMK AO2 SLP175 T01390111=
201407050353 METAR KPAE 050353Z AUTO 36005KT 10SM FEW090 OVC110 13/11 A3005 RMK AO2 RAE27 SLP174 P0001 T01330111=
201407050253 METAR KPAE 050253Z 01005KT 10SM -RA FEW090 BKN110 13/11 A3005 RMK AO2 SLP177 P0000 60000 T01330111 51005=
201407050153 METAR KPAE 050153Z 01007KT 10SM -RA FEW090 OVC110 14/10 A3005 RMK AO2 RAE25B44 SLP176 P0000 T01390100=
201407050053 METAR KPAE 050053Z 35007KT 10SM -RA OVC110 15/10 A3005 RMK AO2 RAB50 SLP176 P0000 T01500100=
201407042353 METAR KPAE 042353Z 35006KT 10SM CLR 17/09 A3004 RMK AO2 SLP171 T01720094 10217 20167 55000=
201407042253 METAR KPAE 042253Z 35008KT 10SM CLR 19/10 A3004 RMK AO2 SLP170 T01940100=
201407042153 METAR KPAE 042153Z 33005KT 10SM CLR 21/11 A3004 RMK AO2 SLP170 T02060106=
201407042053 METAR KPAE 042053Z 02006KT 10SM CLR 19/11 A3004 RMK AO2 SLP171 T01940106 56005=
201407041953 METAR KPAE 041953Z VRB06KT 10SM CLR 20/09 A3004 RMK AO2 SLP172 T02000094=
201407041853 METAR KPAE 041853Z VRB05KT 10SM CLR 18/11 A3005 RMK AO2 SLP174 T01780106=
201407041753 METAR KPAE 041753Z 31005KT 10SM CLR 18/10 A3006 RMK AO2 SLP176 T01780100 10178 20117 56004=
201407041653 METAR KPAE 041653Z VRB03KT 10SM CLR 17/10 A3006 RMK AO2 SLP177 T01670100=
201407041553 METAR KPAE 041553Z 00000KT 10SM CLR 16/10 A3006 RMK AO2 SLP178 T01560100=
201407041453 METAR KPAE 041453Z 00000KT 10SM CLR 14/09 A3007 RMK AO2 SLP181 T01440094 55004=
201407041353 METAR KPAE 041353Z 03004KT 10SM FEW035 13/09 A3007 RMK AO2 SLP180 T01330094=
201407041253 METAR KPAE 041253Z AUTO VRB03KT 10SM CLR 12/09 A3007 RMK AO2 SLP182 T01220089=
201407041153 METAR KPAE 041153Z AUTO 36004KT 10SM OVC050 12/09 A3008 RMK AO2 SLP185 T01220089 10144 20122 50002=
201407041053 METAR KPAE 041053Z AUTO 36004KT 10SM SCT034 OVC050 13/09 A3008 RMK AO2 SLP187 T01280089=
201407040953 METAR KPAE 040953Z AUTO 36007KT 10SM OVC048 13/09 A3008 RMK AO2 SLP184 T01330089=
201407040853 METAR KPAE 040853Z AUTO VRB05KT 10SM OVC045 13/09 A3007 RMK AO2 SLP183 T01330089 58008=
201407040753 METAR KPAE 040753Z AUTO 36006KT 10SM OVC043 14/08 A3009 RMK AO2 SLP187 T01390083 401890133=
201407040653 METAR KPAE 040653Z AUTO 01006KT 10SM OVC045 14/08 A3009 RMK AO2 SLP187 T01440078=
201407040553 METAR KPAE 040553Z AUTO 02004KT 10SM OVC046 14/09 A3010 RMK AO2 SLP192 T01440089 10189 20144 53003=
201407040453 METAR KPAE 040453Z AUTO 36004KT 10SM OVC047 15/07 A3010 RMK AO2 SLP190 T01500072=
201407040353 METAR KPAE 040353Z AUTO 36004KT 10SM OVC048 15/09 A3009 RMK AO2 SLP188 T01500089=
201407040253 METAR KPAE 040253Z 36007KT 10SM OVC050 16/09 A3009 RMK AO2 SLP188 T01560094 56007=
201407040153 METAR KPAE 040153Z 35007KT 10SM OVC055 16/09 A3009 RMK AO2 SLP190 T01610089=
201407040053 METAR KPAE 040053Z 36007KT 10SM BKN055 17/08 A3010 RMK AO2 SLP192 T01720083=
201407032353 METAR KPAE 032353Z 01008KT 10SM BKN050 18/10 A3011 RMK AO2 SLP196 T01780100 10183 20139 58004=
201407032253 METAR KPAE 032253Z 36006KT 10SM OVC050 16/11 A3012 RMK AO2 SLP200 T01610106=
201407032157 SPECI KPAE 032157Z 33006KT 10SM SCT018 BKN026 OVC050 17/12 A3013 RMK AO2 T01720117=
201407032153 METAR KPAE 032153Z 36006KT 10SM SCT029 OVC048 17/12 A3013 RMK AO2 SLP201 T01720117=
201407032053 METAR KPAE 032053Z 30006KT 10SM SCT029 OVC048 17/11 A3013 RMK AO2 SLP200 T01670111 51006=
201407031953 METAR KPAE 031953Z 29005KT 10SM FEW014 BKN029 OVC050 16/12 A3012 RMK AO2 SLP200 T01610117=
201407031853 METAR KPAE 031853Z 30005KT 10SM FEW010 BKN019 OVC044 16/12 A3012 RMK AO2 SLP199 T01560117=
201407031753 METAR KPAE 031753Z COR 00000KT 10SM FEW010 BKN019 OVC023 14/12 A3011 RMK AO2 RAB26E46 SLP195 P0000 60000 T01390122 10156 20133 53005=
201407031653 METAR KPAE 031653Z 26003KT 10SM BKN019 BKN024 OVC038 14/12 A3010 RMK AO2 RAB13E21 SLP193 P0000 T01440117=
201407031642 SPECI KPAE 031642Z 25004KT 10SM SCT015 OVC021 14/11 A3010 RMK AO2 RAB13E21 P0000 T01440111=
201407031611 SPECI KPAE 031611Z 25004KT 10SM BKN014 OVC020 14/11 A3010 RMK AO2 T01390111=
201407031553 METAR KPAE 031553Z 16004KT 10SM BKN019 OVC024 15/11 A3010 RMK AO2 SLP191 T01500106=
201407031453 METAR KPAE 031453Z 00000KT 10SM BKN016 OVC036 15/11 A3009 RMK AO2 SLP189 T01500106 53009=
201407031353 METAR KPAE 031353Z VRB03KT 10SM OVC021 14/10 A3009 RMK AO2 SLP187 T01390100=
201407031253 METAR KPAE 031253Z AUTO 04003KT 10SM BKN021 OVC032 13/10 A3007 RMK AO2 SLP182 T01330100=
201407031153 METAR KPAE 031153Z AUTO 03005KT 10SM OVC027 13/10 A3007 RMK AO2 SLP181 T01330100 10144 20133 51007=
201407031053 METAR KPAE 031053Z AUTO 01005KT 10SM OVC022 13/11 A3006 RMK AO2 SLP179 T01330106=
201407030953 METAR KPAE 030953Z AUTO 02007KT 10SM OVC023 14/11 A3005 RMK AO2 SLP174 T01390106=
201407030853 METAR KPAE 030853Z AUTO 02004KT 10SM OVC026 14/11 A3005 RMK AO2 SLP173 T01390106 50006=
201407030753 METAR KPAE 030753Z AUTO 00000KT 10SM OVC028 14/11 A3005 RMK AO2 SLP174 T01390106 402220133=
201407030734 SPECI KPAE 030734Z AUTO 00000KT 10SM OVC028 13/10 A3005 RMK AO2 T01330100=
201407030653 METAR KPAE 030653Z AUTO 02006KT 10SM FEW030 13/10 A3003 RMK AO2 SLP169 T01330100=
201407030553 METAR KPAE 030553Z AUTO 36007KT 10SM CLR 13/10 A3003 RMK AO2 SLP166 T01330100 10206 20133 51016=
201407030453 METAR KPAE 030453Z AUTO 02008KT 10SM CLR 14/11 A3002 RMK AO2 SLP163 T01390106=
201407030353 METAR KPAE 030353Z AUTO 36011G17KT 10SM CLR 14/10 A3000 RMK AO2 SLP156 T01440100=
201407030253 METAR KPAE 030253Z 01010G16KT 10SM CLR 16/11 A2998 RMK AO2 SLP151 T01610106 51003=
201407030153 METAR KPAE 030153Z 01009G17KT 10SM CLR 18/12 A2998 RMK AO2 SLP149 T01780117=
201407030053 METAR KPAE 030053Z 36010G16KT 10SM CLR 19/12 A2998 RMK AO2 SLP149 T01890117=
201407022353 METAR KPAE 022353Z 35008G15KT 10SM CLR 20/12 A2997 RMK AO2 SLP147 T02000122 10222 20183 55004=
201407022253 METAR KPAE 022253Z 36007KT 10SM CLR 21/13 A2997 RMK AO2 SLP147 T02110128=
201407022153 METAR KPAE 022153Z 27009KT 10SM CLR 21/13 A2997 RMK AO2 SLP148 T02110128=
201407022053 METAR KPAE 022053Z 26010KT 10SM CLR 20/13 A2998 RMK AO2 SLP151 T02000133 51007=
201407021953 METAR KPAE 021953Z 26011KT 10SM CLR 19/13 A2998 RMK AO2 SLP148 T01940133=
201407021853 METAR KPAE 021853Z 27010KT 10SM CLR 19/13 A2998 RMK AO2 SLP147 T01890128=
201407021753 METAR KPAE 021753Z 26010KT 10SM CLR 19/13 A2996 RMK AO2 SLP143 T01890128 10194 20167 53008=
201407021653 METAR KPAE 021653Z 25008KT 10SM CLR 17/13 A2996=
201407021553 METAR KPAE 021553Z 00000KT 10SM CLR 18/12 A2994 RMK AO2 SLP134 T01830117=
201407021453 METAR KPAE 021453Z 24004KT 10SM CLR 17/13 A2994 RMK AO2 SLP134 T01720128 51020=
201407021353 METAR KPAE 021353Z AUTO 17003KT 10SM CLR 19/12 A2991 RMK AO2 SLP126 T01890122=
201407021253 METAR KPAE 021253Z AUTO 13003KT 10SM CLR 18/11 A2990 RMK AO2 SLP121 T01830106=
201407021153 METAR KPAE 021153Z AUTO 15005KT 10SM CLR 17/11 A2988 RMK AO2 SLP113 T01720106 10222 20161 53025=
201407021053 METAR KPAE 021053Z AUTO 01004KT 10SM CLR 16/11 A2985 RMK AO2 SLP103 T01610111=
201407020953 METAR KPAE 020953Z AUTO 02007KT 10SM CLR 17/12 A2982 RMK AO2 SLP095 T01720117=
201407020853 METAR KPAE 020853Z AUTO 00000KT 10SM CLR 18/12 A2980 RMK AO2 SLP088 T01830122 53006=
201407020753 METAR KPAE 020753Z AUTO 00000KT 10SM CLR 21/12 A2979 RMK AO2 SLP083 T02060117 403000133=
201407020653 METAR KPAE 020653Z AUTO 00000KT 10SM CLR 22/11 A2978 RMK AO2 SLP082 T02170111=
201407020553 METAR KPAE 020553Z AUTO 36003KT 10SM CLR 22/12 A2979 RMK AO2 SLP083 T02170122 10300 20211 53005=
201407020453 METAR KPAE 020453Z AUTO 34003KT 10SM CLR 22/13 A2978 RMK AO2 SLP081 T02170128=
201407020353 METAR KPAE 020353Z AUTO 36003KT 10SM CLR 23/14 A2977 RMK AO2 SLP076 T02330139=
201407020253 METAR KPAE 020253Z VRB03KT 10SM CLR 26/13 A2977 RMK AO2 SLP078 T02610133 56013=
201407020153 METAR KPAE 020153Z 01006KT 10SM CLR 29/12 A2977 RMK AO2 SLP078 T02890122=
201407020053 METAR KPAE 020053Z 36006KT 10SM CLR 30/12 A2979 RMK AO2 SLP083 T03000117=
201407020000 METAR KPAE NIL=
201407012353 METAR KPAE 012353Z 36006KT 10SM CLR 29/11 A2981 RMK AO2 SLP091 T02940111 10294 20211 56021=
201407012300 METAR KPAE NIL=
201407012253 METAR KPAE 012253Z 36006KT 10SM CLR 29/12 A2983 RMK AO2 SLP098 T02890122=
201407012200 METAR KPAE NIL=
201407012153 METAR KPAE 012153Z 36008KT 10SM CLR 27/12 A2985 RMK AO2 SLP105 T02720122=
201407012053 METAR KPAE 012053Z 01005KT 10SM CLR 27/13 A2987 RMK AO2 SLP112 T02720133 58019=
201407011953 METAR KPAE 011953Z VRB05KT 10SM CLR 26/13 A2989 RMK AO2 SLP119 T02560133=
201407011853 METAR KPAE 011853Z 36007KT 10SM CLR 23/13 A2991 RMK AO2 SLP127 T02280128=
201407011753 METAR KPAE 011753Z 36004KT 10SM CLR 21/13 A2993 RMK AO2 SLP132 T02110128 10222 20139 58015=
201407011653 METAR KPAE 011653Z VRB05KT 10SM CLR 20/12 A2995 RMK AO2 SLP138 T02000117=
201407011553 METAR KPAE 011553Z 35005KT 10SM CLR 18/12 A2997 RMK AO2 SLP145 T01830122=
201407011453 METAR KPAE 011453Z 36004KT 10SM CLR 17/12 A2997 RMK AO2 SLP147 T01670122 56009=
201407011353 METAR KPAE 011353Z VRB03KT 10SM CLR 16/11 A2998 RMK AO2 SLP150 T01610111=
201407011253 METAR KPAE 011253Z AUTO 01003KT 10SM CLR 15/11 A2999 RMK AO2 SLP152 T01500106=
201407011153 METAR KPAE 011153Z AUTO 36003KT 10SM CLR 14/11 A3000 RMK AO2 SLP156 T01390111 10167 20133 56007=
201407011053 METAR KPAE 011053Z 36004KT 10SM CLR 14/11 A3000 RMK AO2 SLP158 T01390111=
201407010953 METAR KPAE 010953Z 36003KT 10SM CLR 14/11 A3002 RMK AO2 SLP162 T01440111=
201407010853 METAR KPAE 010853Z 01003KT 10SM CLR 14/11 A3002 RMK AO2 SLP164 T01440111 56012=
201407010753 METAR KPAE 010753Z 36004KT 10SM CLR 16/10 A3003 RMK AO2 SLP167 T01560100 402280117=
201407010653 METAR KPAE 010653Z 35004KT 10SM CLR 16/11 A3005 RMK AO2 SLP173 T01610106=
201407010553 METAR KPAE 010553Z 35003KT 10SM CLR 17/11 A3006 RMK AO2 SLP177 T01670106 10222 20167 56007=
201407010453 METAR KPAE 010453Z 35004KT 10SM CLR 17/11 A3006 RMK AO2 SLP178 T01720111=
201407010353 METAR KPAE 010353Z VRB05KT 10SM CLR 19/11 A3007 RMK AO2 SLP180 T01890111=
201407010253 METAR KPAE 010253Z 34006KT 10SM CLR 21/12 A3008 RMK AO2 SLP184 T02060117 56017=
201407010153 METAR KPAE 010153Z 34007KT 10SM CLR 22/12 A3009 RMK AO2 SLP189 T02170122=
201407010053 METAR KPAE 010053Z 34007KT 10SM CLR 22/12 A3011 RMK AO2 SLP196 T02170122=

# No short TAF reports from KPAE in databse.

###################################
#  large TAF from KPAE
###################################
201407312320 TAF KPAE 312320Z 0100/0124 35007KT P6SM SCT250 FM010400 01004KT
                       P6SM SCT250 FM011300 VRB03KT P6SM BKN120
                       PROB30 0115/0119 TS BKN120CB FM011900 32006KT
                       P6SM SCT120=
201407311735 TAF KPAE 311735Z 3118/0118 34007KT P6SM FEW200 FM010400 01004KT
                       P6SM SCT250 FM011300 VRB03KT P6SM SCT120=
201407311120 TAF KPAE 311120Z 3112/0112 04004KT P6SM FEW250 FM312000 34007KT
                       P6SM SCT250=
201407310520 TAF KPAE 310520Z 3106/0106 02007KT P6SM FEW250 FM312000 34007KT
                       P6SM SCT250=
201407302320 TAF KPAE 302320Z 3100/3124 35007KT P6SM SKC FM310400 01004KT P6SM
                       SKC FM312000 34007KT P6SM SKC=
201407301720 TAF KPAE 301720Z 3018/3118 01005KT P6SM SKC FM302000 32008KT P6SM
                       SKC FM310400 01004KT P6SM SKC=
201407301120 TAF KPAE 301120Z 3012/3112 04004KT P6SM SKC FM302000 32008KT P6SM
                       SKC=
201407300520 TAF KPAE 300520Z 3006/3106 02006KT P6SM SKC
                      TEMPO 3011/3015 2SM BR SCT002 FM302000 32008KT
                       P6SM SKC=
201407292326 TAF KPAE 292326Z 3000/3024 01006KT P6SM SKC FM300600 01004KT P6SM
                       SKC FM301100 VRB02KT 1SM BR BKN002 FM301700
                       29007KT P6SM SKC FM302000 32008KT P6SM SKC=
201407291739 TAF KPAE 291739Z 2918/3018 VRB04KT P6SM SKC FM292000 33008KT P6SM
                       SKC FM300600 01004KT P6SM SKC FM301100 VRB02KT
                       1SM BR BKN002 FM301700 29007KT P6SM SKC=
201407291120 TAF KPAE 291120Z 2912/3012 04004KT P6SM SKC FM292000 33006KT P6SM
                       SKC=
201407290520 TAF KPAE 290520Z 2906/3006 36008KT P6SM SKC FM292000 33006KT P6SM
                       SKC=
201407282320 TAF KPAE 282320Z 2900/2924 36006KT P6SM SKC FM290600 02004KT P6SM
                       SKC FM292000 33006KT P6SM SKC=
201407281726 TAF KPAE 281726Z 2818/2918 VRB04KT P6SM SKC FM282000 33008KT P6SM
                       SKC FM290600 02004KT P6SM SKC=
201407281127 TAF KPAE 281127Z 2812/2912 03004KT P6SM SKC FM281900 35008KT P6SM
                       FEW200 FM290600 03005KT P6SM SKC=
201407280534 TAF KPAE 280534Z 2806/2906 03004KT P6SM SKC FM281900 35008KT P6SM
                       FEW200=
201407272323 TAF KPAE 272323Z 2800/2824 33009G16KT P6SM SKC FM280600 03004KT
                       P6SM SKC FM281900 35008KT P6SM SKC=
201407271722 TAF KPAE 271722Z 2718/2818 36005KT P6SM SKC FM280600 03004KT P6SM
                       SKC=
201407271120 TAF KPAE 271120Z 2712/2812 03006KT P6SM SKC FM271500 36007KT P6SM
                       FEW250 FM280600 03004KT P6SM SKC=
201407270544 TAF KPAE 270544Z 2706/2806 01006KT P6SM SKC FM270800 02004KT P6SM
                       SKC FM271500 36004KT P6SM FEW250=
201407262322 TAF KPAE 262322Z 2700/2724 01006KT P6SM SKC FM270800 02004KT P6SM
                       SKC=
201407261721 TAF KPAE 261721Z 2618/2718 35004KT P6SM SKC FM262100 33007KT P6SM
                       SKC FM270600 02004KT P6SM SKC=
201407261127 TAF KPAE 261127Z 2612/2712 03004KT P6SM SCT040 FM261400 36004KT
                       P6SM SCT020 FM261800 34006KT P6SM FEW020
                       FM262100 32006KT P6SM SKC FM270600 02004KT
                       P6SM SKC=
201407260540 TAF KPAE 260540Z 2606/2706 02003KT P6SM SKC FM261000 VRB04KT P6SM
                       SCT015 FM261800 34006KT P6SM FEW020 FM262100
                       32006KT P6SM SKC=
201407252320 TAF KPAE 252320Z 2600/2624 31007KT P6SM SKC FM260600 02003KT P6SM
                       SCT050 FM261000 VRB04KT P6SM SCT010
                      TEMPO 2612/2616 BKN010 FM261800 34006KT P6SM
                       FEW025=
201407251731 TAF KPAE 251731Z 2518/2618 VRB04KT P6SM FEW011 SCT040 FM251900
                       32004KT P6SM SCT040 FM252200 31006KT P6SM
                       FEW050 FM260600 02003KT P6SM SCT050 FM261300
                       VRB04KT P6SM SCT010=
201407251707 TAF AMD KPAE 251707Z 2517/2612 VRB04KT P6SM FEW011 FEW040 FM252000
                       32004KT P6SM SCT050 FM252200 31005KT P6SM
                       SCT250 FM260600 02003KT P6SM SCT050=
201407251334 TAF AMD KPAE 251334Z 2514/2612 02005KT P6SM SCT005 OVC028 FM251800
                       31004KT P6SM BKN035 BKN050 FM252000 32004KT
                       P6SM BKN050 FM252200 31005KT P6SM SCT250
                       FM260600 02003KT P6SM SCT050=
201407251124 TAF KPAE 251124Z 2512/2612 02006KT P6SM OVC025 FM251400 VRB03KT
                       P6SM OVC012 FM252000 32004KT P6SM BKN040
                       FM252200 31005KT P6SM SCT250 FM260600 02003KT
                       P6SM SCT050=
201407250539 TAF KPAE 250539Z 2506/2606 04006KT P6SM OVC025 FM250800 VRB03KT
                       P6SM OVC012 FM252000 32004KT P6SM BKN040
                       FM252200 31005KT P6SM SCT250=
201407242326 TAF KPAE 242326Z 2500/2524 02006KT P6SM VCSH SCT015 OVC027 FM250600
                       VRB03KT P6SM OVC012 FM252000 32004KT P6SM
                       BKN040 FM252200 31005KT P6SM SCT250=
201407241724 TAF KPAE 241724Z 2418/2518 19007KT 3SM BR VCSH OVC007 FM242000
                       18006KT P6SM VCSH SCT010 BKN015 OVC030 FM250000
                       17005KT P6SM SCT020 OVC040 FM250600 VRB03KT
                       P6SM OVC015=
201407241132 TAF KPAE 241132Z 2412/2512 17012G20KT P6SM VCSH BKN025 OVC060 FM241400
                       17010KT P6SM VCSH OVC015 FM241900 19008KT
                       P6SM VCSH BKN025 OVC040 FM250000 35007KT
                       P6SM VCSH SCT025 OVC050 FM251000 03005KT
                       P6SM BKN020 OVC040=
201407240538 TAF KPAE 240538Z 2406/2506 16012G20KT P6SM SCT060 FM240700 17012G20KT
                       P6SM VCSH SCT025 BKN060 FM241000 17008KT
                       P6SM VCSH OVC015 FM241900 19008KT P6SM BKN030
                       OVC050 FM242200 20007KT P6SM OVC040=
201407232322 TAF KPAE 232322Z 2400/2424 18014G24KT P6SM -RA SCT020 OVC080
                      TEMPO 2400/2404 5SM -RA BR BKN020 OVC050
                       FM240500 17010G20KT P6SM -SHRA SCT020 OVC040
                       FM241100 16008G18KT P6SM VCSH OVC015 FM242200
                       20007KT P6SM OVC040=
201407232155 TAF AMD KPAE 232155Z 2322/2418 18011KT P6SM -RA BKN070 OVC090
                      TEMPO 2322/2402 -SHRA BKN025 OVC050 FM240300
                       19014KT P6SM -SHRA SCT012 BKN022 OVC035=
201407231728 TAF KPAE 231728Z 2318/2418 15009KT 5SM -RA BR SCT005 BKN025 OVC080
                       TEMPO 2318/2322 2SM RA BR BKN005 OVC025
                       FM232200 19010KT P6SM -SHRA VCTS BKN015
                       OVC025CB FM240300 19014KT P6SM -SHRA SCT012
                       BKN022 OVC035=
201407231555 TAF AMD KPAE 231555Z 2316/2412 15008KT 4SM -RA BR BKN004 OVC070
                       TEMPO 2316/2320 -TSRA SCT005 BKN025CB OVC050
                       FM232000 19010KT P6SM -SHRA BKN015 OVC025
                       FM240300 19014KT P6SM -SHRA SCT012 BKN022
                       OVC035=
201407231132 TAF KPAE 231132Z 2312/2412 VRB03KT P6SM BKN100 BKN200 FM231500
                       VRB03KT P6SM -SHRA SCT040 BKN070 OVC120
                       FM232000 19010KT P6SM -SHRA BKN015 OVC025
                       FM240300 19014KT P6SM -SHRA SCT012 BKN022
                       OVC035=
201407230538 TAF KPAE 230538Z 2306/2406 VRB03KT P6SM SCT070 BKN200 FM230900
                       VRB03KT P6SM BKN100 BKN200 FM231400 VRB03KT
                       P6SM -SHRA SCT040 OVC070 FM231800 19010KT
                       P6SM -SHRA BKN011 OVC025 FM240300 19014KT
                       P6SM -SHRA SCT012 BKN022 OVC035=
201407230302 TAF AMD KPAE 230302Z 2303/2324 VRB03KT P6SM SCT070 BKN200 FM230800
                       VRB03KT P6SM SCT040 OVC070 FM231700 19010KT
                       P6SM -SHRA BKN010 OVC025=
201407222320 TAF KPAE 222320Z 2300/2324 36006KT P6SM BKN060 BKN100 FM230600
                       VRB03KT P6SM BKN035 OVC070 FM231700 19010KT
                       P6SM -SHRA BKN010 OVC025=
201407221720 TAF KPAE 221720Z 2218/2318 VRB03KT P6SM BKN050 BKN080 FM222100
                       36006KT P6SM BKN060 BKN100 FM230600 VRB03KT
                       P6SM BKN035 OVC070 FM231700 19010KT P6SM
                       -SHRA BKN010 OVC025=
201407221128 TAF KPAE 221128Z 2212/2312 VRB03KT P6SM BKN100 BKN200 FM222100
                       36006KT P6SM BKN100 BKN200 FM230600 VRB03KT
                       P6SM BKN045 OVC070=
201407220528 TAF KPAE 220528Z 2206/2306 36006KT P6SM SCT250 FM221800 VRB03KT
                       P6SM SCT120 BKN200 FM222300 31006KT P6SM
                       BKN120 BKN200=
201407212320 TAF KPAE 212320Z 2200/2224 26006KT P6SM SCT050 FM220400 33006KT
                       P6SM SCT040 FM220800 VRB03KT P6SM BKN035
                       FM221200 VRB03KT P6SM BKN030 FM221800 27006KT
                       P6SM BKN040=
201407211720 TAF KPAE 211720Z 2118/2218 VRB03KT P6SM BKN020 FM212000 26006KT
                       P6SM SCT025 BKN040 FM220400 33006KT P6SM
                       SCT050 FM220800 VRB03KT P6SM BKN035 FM221200
                       VRB03KT P6SM BKN020=
201407211134 TAF KPAE 211134Z 2112/2212 VRB03KT P6SM BKN015 OVC035 FM211600
                       VRB03KT P6SM SCT020 OVC035 FM212000 24006KT
                       P6SM SCT025 BKN040 FM212200 33006KT P6SM
                       SCT050=
201407210534 TAF KPAE 210534Z 2106/2206 VRB03KT P6SM OVC030 FM211000 VRB03KT
                       P6SM BKN020 OVC030 FM212000 24006KT P6SM
                       SCT025 BKN040 FM212200 33006KT P6SM SCT035
                       SCT050=
201407202320 TAF KPAE 202320Z 2100/2124 36005KT P6SM BKN025 OVC040 FM211000
                       VRB03KT P6SM BKN015 OVC025 FM211900 24006KT
                       P6SM SCT025 BKN040 FM212100 33006KT P6SM
                       SCT035 SCT050=
201407201723 TAF KPAE 201723Z 2018/2118 VRB03KT P6SM SCT015 BKN035
                      TEMPO 2018/2021 BKN015 OVC035 FM202200 32006KT
                       P6SM SCT030 BKN050 FM211200 VRB03KT P6SM
                       BKN020=
201407201127 TAF KPAE 201127Z 2012/2112 VRB03KT P6SM BKN012 OVC025
                      TEMPO 2012/2016 SCT012 OVC025 FM201900 25004KT
                       P6SM SCT015 BKN025 OVC035 FM202200 32006KT
                       P6SM SCT030 BKN050=
201407200536 TAF KPAE 200536Z 2006/2106 03006KT 4SM -SHRA SCT001 BKN008 OVC015
                       TEMPO 2006/2010 1SM -SHRA BR BKN001 OVC008
                       FM201000 VRB03KT P6SM BKN004 OVC008 FM201800
                       25004KT P6SM SCT006 BKN012 OVC025 FM202200
                       32006KT P6SM SCT030 BKN050=
201407200421 TAF AMD KPAE 200421Z 2004/2024 03006KT P6SM SCT002 BKN012 OVC020
                       TEMPO 2004/2008 2SM -SHRA BR BKN002 OVC012
                       FM200900 VRB03KT P6SM BKN004 OVC012 FM201800
                       25004KT P6SM BKN015 OVC025 FM202100 32006KT
                       P6SM SCT030 BKN050=
201407192320 TAF KPAE 192320Z 2000/2024 36007KT P6SM BKN025 OVC035 FM200400
                       03004KT P6SM SCT006 BKN012 OVC020 FM200900
                       VRB03KT P6SM BKN006 OVC012 FM201800 25004KT
                       P6SM BKN015 OVC025 FM202100 32006KT P6SM
                       SCT030 BKN050=
201407191720 TAF KPAE 191720Z 1918/2018 18012G20KT P6SM SCT008 BKN012 OVC020
                       FM200100 34006KT P6SM SCT006 BKN012 OVC020
                       FM200900 VRB03KT P6SM BKN006 OVC012=
201407191138 TAF KPAE 191138Z 1912/2012 18006KT P6SM OVC008 FM191900 18012KT
                       P6SM BKN012 OVC020 FM200100 VRB03KT P6SM
                       SCT006 BKN012 OVC020 FM200900 VRB03KT P6SM
                       BKN006 OVC012=
201407190908 TAF AMD KPAE 190908Z 1909/2006 35004KT P6SM BKN050 FM191200 18008KT
                       P6SM OVC008 FM191900 18012G20KT P6SM BKN012
                       OVC020 FM200100 18010KT P6SM BKN025 BKN040=
201407190526 TAF KPAE 190526Z 1906/2006 35004KT P6SM BKN060 BKN200 FM191200
                       18008KT P6SM BKN018 OVC060 FM191800 18012G20KT
                       P6SM BKN025 OVC060 FM200100 18010KT P6SM
                       BKN035 BKN060=
201407182324 TAF KPAE 182324Z 1900/1924 26007KT P6SM BKN250 FM190200 35004KT
                       P6SM SCT090 BKN250 FM191000 18008KT P6SM
                       BKN015 OVC060 FM191800 20015G22KT P6SM BKN025
                       BKN060=
201407181722 TAF KPAE 181722Z 1818/1918 24007KT P6SM BKN250 FM190000 31006KT
                       P6SM SCT090 BKN250 FM190300 01004KT P6SM
                       BKN080 OVC200 FM190900 18006KT P6SM BKN015
                       OVC060=
201407181120 TAF KPAE 181120Z 1812/1912 VRB03KT P6SM BKN250
                      TEMPO 1814/1817 BKN006 FM181700 26004KT P6SM
                       BKN250 FM190300 19006KT P6SM BKN080 OVC200
                       FM190800 18006KT P6SM BKN015 OVC060=
201407180520 TAF KPAE 180520Z 1806/1906 VRB03KT P6SM BKN250 FM181300 19003KT
                       P6SM OVC006 FM181700 26004KT P6SM BKN250
                       FM190300 19006KT P6SM BKN080 OVC200=
201407172330 TAF KPAE 172330Z 1800/1824 24009KT P6SM SCT250 FM180300 VRB03KT
                       P6SM BKN250 FM181200 19003KT P6SM OVC005
                       FM181800 26004KT P6SM BKN250=
201407172000 TAF AMD KPAE 172000Z 1720/1818 25010KT P6SM SCT023 FM172200 27006KT
                       P6SM SCT025 FM180400 03003KT P6SM SCT250
                       FM181000 VRB03KT P6SM OVC005=
201407171725 TAF KPAE 171725Z 1718/1818 19011KT P6SM OVC014 FM172000 25006KT
                       P6SM BKN018 FM172200 27006KT P6SM SCT023
                       FM180400 03003KT P6SM SCT250 FM181000 VRB03KT
                       P6SM OVC005=
201407171520 TAF AMD KPAE 171520Z 1715/1812 18010KT P6SM OVC007 FM171900 25006KT
                       P6SM BKN012 FM172000 27006KT P6SM SCT025
                       SCT250 FM180300 VRB03KT P6SM SCT025 SCT250
                       FM181000 VRB03KT P6SM OVC011=
201407171132 TAF KPAE 171132Z 1712/1812 18005KT P6SM OVC004
                      TEMPO 1713/1716 2SM BR FM171900 25006KT P6SM
                       BKN012 FM172000 27006KT P6SM SCT025 SCT250
                       FM180300 VRB03KT P6SM SCT025 SCT250 FM181000
                       VRB03KT P6SM OVC011=
201407170522 TAF KPAE 170522Z 1706/1806 01005KT P6SM SKC FM171200 14003KT 1SM
                       BR OVC003 FM171900 25006KT P6SM BKN015 FM172000
                       27006KT P6SM SCT025 SCT250 FM180300 VRB03KT
                       P6SM SCT025 SCT250=
201407162325 TAF KPAE 162325Z 1700/1724 29007KT P6SM SKC FM170500 01003KT P6SM
                       SKC FM171100 14003KT 1SM BR OVC002 FM171900
                       27006KT P6SM SCT250=
201407161725 TAF KPAE 161725Z 1618/1718 31006KT P6SM SKC FM170500 01003KT P6SM
                       SKC FM171100 14003KT 1SM BR OVC002=
201407161301 TAF AMD KPAE 161301Z 1613/1712 VRB03KT P6SM SCT002
                      TEMPO 1614/1616 1SM BR BKN002 FM161800 28005KT
                       P6SM SKC FM170000 35005KT P6SM SKC FM171000
                       VRB04KT 3SM BR OVC004=
201407161120 TAF KPAE 161120Z 1612/1712 01004KT P6SM SKC FM161300 VRB03KT 3SM
                       BR SCT002
                      TEMPO 1613/1616 1SM BR BKN002 FM161800 28005KT
                       P6SM SKC FM170000 35005KT P6SM SKC FM171000
                       VRB04KT 3SM BR OVC004=
201407160520 TAF KPAE 160520Z 1606/1706 01004KT P6SM SKC FM161300 VRB03KT 3SM
                       BR SCT002
                      TEMPO 1613/1616 1SM BR BKN002 FM161800 28005KT
                       P6SM SKC FM170000 35005KT P6SM SKC=
201407152330 TAF KPAE 152330Z 1600/1624 VRB04KT P6SM SKC FM161300 VRB03KT 1SM
                       BR SCT002 FM161800 28005KT P6SM SKC=
201407151720 TAF KPAE 151720Z 1518/1618 00000KT P6SM SKC FM160300 01003KT P6SM
                       SKC FM161300 36002KT 1SM BR SCT002 FM161600
                       36003KT P6SM SKC=
201407151610 TAF AMD KPAE 151610Z 1516/1612 00000KT P6SM SKC FM151800 29005KT
                       P6SM SKC FM160400 VRB03KT P6SM SKC=
201407151246 TAF AMD KPAE 151246Z 1513/1612 01003KT 1/4SM FG VV001 FM151600
                       VRB03KT 5SM BR BKN006 FM151800 29005KT P6SM
                       SKC FM160400 VRB03KT P6SM SKC=
201407151120 TAF KPAE 151120Z 1512/1612 VRB04KT 4SM BR SCT002
                      TEMPO 1512/1516 1/2SM FG VV002 FM151600 VRB03KT
                       5SM BR BKN006 FM151800 29005KT P6SM SKC
                       FM160400 VRB03KT P6SM SKC=
201407150520 TAF KPAE 150520Z 1506/1606 02004KT P6SM SKC FM150800 VRB04KT P6SM
                       SKC FM151200 VRB04KT P6SM OVC003 FM151800
                       29005KT P6SM BKN011 FM151900 35005KT P6SM
                       SKC FM160400 VRB03KT P6SM SKC=
201407142320 TAF KPAE 142320Z 1500/1524 27007KT P6SM SKC FM150600 VRB03KT P6SM
                       SKC=
201407141722 TAF KPAE 141722Z 1418/1518 25008KT P6SM SKC FM150400 VRB03KT P6SM
                       SKC=
201407141123 TAF KPAE 141123Z 1412/1512 VRB03KT P6SM SCT007 SCT100 FM141700
                       33005KT P6SM SKC=
201407140540 TAF KPAE 140540Z 1406/1506 VRB06KT P6SM SCT060 BKN120 BKN200
                      TEMPO 1406/1408 -SHRA BKN060 OVC120 FM140800
                       21012KT P6SM BKN120 BKN200 FM141100 18008KT
                       P6SM SCT012 SCT100
                      TEMPO 1412/1416 SCT007 BKN012 FM141700 33008KT
                       P6SM SKC=
201407132320 TAF KPAE 132320Z 1400/1424 30007KT P6SM SCT120 BKN200 FM140400
                       VRB06KT P6SM SCT060 BKN120 BKN200
                      TEMPO 1404/1408 -TSRA BKN060CB OVC120 FM140800
                       21012KT P6SM BKN120 BKN200 FM141100 18008KT
                       P6SM SCT005 SCT100
                      TEMPO 1412/1416 3SM BR BKN005 FM141700 33008KT
                       P6SM SKC=
201407131720 TAF KPAE 131720Z 1318/1418 34007KT P6SM SCT150 FM140100 27008KT
                       P6SM VCTS BKN060CB BKN120 FM140500 21012G20KT
                       P6SM SCT100 FM141100 18006KT P6SM SCT005
                       SCT100
                      TEMPO 1412/1416 3SM BR BKN005 FM141700 33008KT
                       P6SM SKC=
201407131120 TAF KPAE 131120Z 1312/1412 VRB04KT P6SM SKC
                      TEMPO 1313/1317 SCT003 FM132000 32010KT P6SM
                       BKN100 FM140700 17006KT P6SM SCT100=
201407130531 TAF KPAE 130531Z 1306/1406 VRB04KT P6SM SKC
                      TEMPO 1313/1317 SCT003 FM132000 32010KT P6SM
                       BKN100=
201407122320 TAF KPAE 122320Z 1300/1324 32007KT P6SM FEW150 FM130500 VRB04KT
                       P6SM SKC FM132000 32010KT P6SM BKN150=
201407121720 TAF KPAE 121720Z 1218/1318 35004KT P6SM SCT200=
201407121120 TAF KPAE 121120Z 1212/1312 35004KT P6SM SCT200=
201407120540 TAF KPAE 120540Z 1206/1306 35003KT P6SM SCT200=
201407112320 TAF KPAE 112320Z 1200/1224 36008KT P6SM SKC FM120400 VRB03KT P6SM
                       SCT200=
201407111720 TAF KPAE 111720Z 1118/1218 VRB04KT P6SM SKC FM112000 36008KT P6SM
                       SKC FM120400 VRB03KT P6SM SKC=
201407111122 TAF KPAE 111122Z 1112/1212 VRB04KT P6SM SKC FM112000 36008KT P6SM
                       SKC FM120400 VRB03KT P6SM SKC=
201407110533 TAF KPAE 110533Z 1106/1206 VRB04KT P6SM SKC FM112000 36008KT P6SM
                       SKC FM120400 VRB03KT P6SM SKC=
201407102320 TAF KPAE 102320Z 1100/1124 36008KT P6SM SKC FM110400 VRB04KT P6SM
                       SKC FM112100 36008KT P6SM SKC=
201407101720 TAF KPAE 101720Z 1018/1118 VRB04KT P6SM SKC FM102200 34010KT P6SM
                       SKC FM110400 04006KT P6SM SKC=
201407101120 TAF KPAE 101120Z 1012/1112 33006KT P6SM SKC
                      TEMPO 1013/1016 00000KT SCT006=
201407100531 TAF KPAE 100531Z 1006/1106 33006KT P6SM SKC
                      TEMPO 1012/1015 00000KT SCT007=
201407092329 TAF KPAE 092329Z 1000/1024 35006KT P6SM SKC FM101300 03002KT P6SM
                       OVC007 FM101700 26002KT P6SM SKC=
201407091741 TAF KPAE 091741Z 0918/1018 36004KT P6SM SKC FM101300 03002KT P6SM
                       OVC007 FM101700 26002KT P6SM SKC=
201407091530 TAF AMD KPAE 091530Z 0916/1012 36004KT P6SM SCT001 SCT009
                      TEMPO 0916/0917 2SM BR OVC002 FM091700 33005KT
                       P6SM SKC FM100500 01004KT P6SM SKC=
201407091246 TAF AMD KPAE 091246Z 0913/1012 02005KT P6SM BKN003
                      TEMPO 0913/0917 2SM BR OVC002 FM091700 33005KT
                       P6SM SKC FM100500 01004KT P6SM SKC=
201407091120 TAF KPAE 091120Z 0912/1012 02004KT P6SM SKC FM091400 VRB03KT P6SM
                       BKN006 FM091700 33005KT P6SM SKC FM100500
                       01004KT P6SM SKC=
201407090603 TAF AMD KPAE 090603Z 0906/1006 02006KT P6SM SKC FM091300 VRB03KT
                       P6SM BKN009 FM091700 33005KT P6SM SKC=
201407090520 TAF KPAE 090520Z 0906/1006 36007G17KT P6SM SKC FM090800 01004KT
                       P6SM SKC FM091300 VRB03KT P6SM BKN009 FM091700
                       33005KT P6SM SKC=
201407090306 TAF AMD KPAE 090306Z 0903/0924 02006KT P6SM SKC FM091300 VRB03KT
                       P6SM BKN009 FM091700 36005KT P6SM SKC=
201407082335 TAF KPAE 082335Z 0900/0924 36009G14KT P6SM SKC FM091300 VRB03KT
                       P6SM SCT020 FM091700 36005KT P6SM SKC=
201407081730 TAF KPAE 081730Z 0818/0918 31004KT P6SM SKC=
201407081305 KPAE 081305Z 0813/0912 36003KT P6SM SKC
                      TEMPO 0814/0816 FEW004 FM081700 32005KT P6SM
                       FEW017 FM081900 33007KT P6SM SKC FM090400
                       01004KT P6SM SKC=
201407081120 TAF KPAE 081120Z 0812/0912 02003KT P6SM SKC FM081300 02003KT P6SM
                       SCT004
                      TEMPO 0813/0817 BKN004 FM081700 32005KT P6SM
                       FEW017 FM081900 33007KT P6SM SKC FM090400
                       01004KT P6SM SKC=
201407080520 TAF KPAE 080520Z 0806/0906 01005KT P6SM SKC FM081100 01003KT P6SM
                       OVC006 FM081700 32005KT P6SM FEW017 FM081900
                       33007KT P6SM SKC FM090400 01004KT P6SM SKC=
201407072326 TAF KPAE 072326Z 0800/0824 34009KT P6SM SKC FM080400 36003KT P6SM
                       SKC FM081100 01003KT P6SM OVC006 FM081700
                       32005KT P6SM SCT010 FM081900 33007KT P6SM
                       SKC=
201407071729 TAF KPAE 071729Z 0718/0818 32007KT P6SM SCT010
                      TEMPO 0718/0719 5SM BR SCT005 BKN008 FM072000
                       33009KT P6SM SKC FM080400 36003KT P6SM SKC
                       FM081100 01003KT P6SM OVC006 FM081700 32005KT
                       P6SM SCT010=
201407071254 TAF AMD KPAE 071254Z 0713/0812 36004KT 3SM BR VV001
                      TEMPO 0713/0716 3/4SM BR FM071800 33008KT
                       P6SM SCT020 FM072200 32008KT P6SM SKC FM080400
                       36003KT P6SM SKC FM081100 35003KT P6SM OVC006=
201407071120 TAF KPAE 071120Z 0712/0812 36004KT 6SM BR OVC001 FM071800 33008KT
                       P6SM SCT020 FM072200 32008KT P6SM SKC FM080400
                       36003KT P6SM SKC FM081100 35003KT P6SM OVC006=
201407071002 TAF AMD KPAE 071002Z 0710/0806 36004KT P6SM BKN007 FM071100 01003KT
                       5SM BR BKN007 FM071800 33008KT P6SM SCT020
                       FM072200 32008KT P6SM SKC FM080400 36003KT
                       P6SM SKC=
201407070524 TAF KPAE 070524Z 0706/0806 36004KT P6SM SCT070 FM071100 01003KT
                       5SM BR BKN008 FM071800 33008KT P6SM SCT020
                       FM072200 32008KT P6SM SKC FM080400 36003KT
                       P6SM SKC=
201407062324 TAF KPAE 062324Z 0700/0724 35008KT P6SM SCT050 FM070300 35004KT
                       P6SM BKN050 FM071100 01003KT P6SM BKN010
                       FM071800 33008KT P6SM SCT025=
201407061720 TAF KPAE 061720Z 0618/0718 24005KT P6SM BKN040 BKN120 FM062000
                       29006KT P6SM SCT045 FM070000 36006KT P6SM
                       SCT050 FM070600 01003KT P6SM BKN050 FM071200
                       01003KT P6SM BKN015 BKN050 FM071700 33008KT
                       P6SM SCT030=
201407061120 TAF KPAE 061120Z 0612/0712 VRB03KT P6SM SCT050 BKN120 FM061800
                       24005KT P6SM SCT120 FM062200 32005KT P6SM
                       SCT120 FM070400 01003KT P6SM SCT120 FM071000
                       01003KT P6SM SCT015 BKN025 BKN120=
201407060527 TAF KPAE 060527Z 0606/0706 01003KT P6SM OVC100 FM060900 VRB03KT
                       P6SM OVC070 FM061800 24005KT P6SM SCT050
                       BKN080 FM062300 32005KT P6SM BKN080=
201407052324 TAF KPAE 052324Z 0600/0624 35005KT P6SM BKN060 OVC100 FM060400
                       VRB03KT P6SM BKN070 OVC100 FM060900 VRB03KT
                       P6SM OVC050 FM061800 24005KT P6SM SCT050
                       BKN080=
201407051720 TAF KPAE 051720Z 0518/0618 23005KT P6SM SCT070 BKN120
                      TEMPO 0518/0520 4SM HZ FM052300 30006KT P6SM
                       BKN070 OVC120 FM060300 36005KT P6SM BKN050
                       OVC100=
201407051509 TAF AMD KPAE 051509Z 0515/0612 18004KT 6SM HZ BKN100 FM051800 21005KT
                       P6SM BKN070 OVC100 FM052100 33006KT P6SM
                       BKN050 OVC070 FM060400 02004KT P6SM BKN050
                       OVC070=
201407051230 TAF AMD KPAE 051230Z 0513/0612 VRB03KT 6SM BR HZ VCSH OVC070
                      TEMPO 0513/0517 4SM BR HZ FM051800 14003KT
                       P6SM OVC070 FM052100 33006KT P6SM BKN050
                       OVC070 FM060400 02004KT P6SM BKN050 OVC070=
201407051120 TAF KPAE 051120Z 0512/0612 00000KT 6SM BR OVC090 FM051500 14003KT
                       P6SM OVC070 FM052100 33006KT P6SM BKN050
                       OVC070 FM060400 02004KT P6SM BKN050 OVC070=
201407050531 TAF KPAE 050531Z 0506/0606 33003KT P6SM OVC100 FM051500 14003KT
                       P6SM BKN070 OVC100 FM052100 33006KT P6SM
                       BKN050 OVC070 FM060400 02004KT P6SM BKN050
                       OVC070=
201407050104 TAF AMD KPAE 050104Z 0501/0524 35009KT P6SM FEW045 OVC100
                      TEMPO 0501/0504 -RA BKN045 OVC100 FM050400
                       02005KT P6SM FEW045 BKN100 FM051500 14003KT
                       P6SM BKN070 OVC100 FM052100 33006KT P6SM
                       BKN050 OVC070=
201407042322 TAF KPAE 042322Z 0500/0524 36005KT P6SM BKN100 OVC150 FM051500
                       14003KT P6SM BKN070 OVC100 FM052100 33006KT
                       P6SM BKN050 OVC070=
201407041720 TAF KPAE 041720Z 0418/0518 30005KT P6SM SCT150 FM050200 36005KT
                       P6SM BKN100 BKN150 FM051200 VRB03KT P6SM
                       BKN050 OVC080=
201407041340 TAF AMD KPAE 041340Z 0414/0512 36004KT P6SM FEW050 SCT250 FM042000
                       29005KT P6SM SCT050 BKN250 FM050100 33006KT
                       P6SM SCT050 BKN120=
201407041120 TAF KPAE 041120Z 0412/0512 36004KT P6SM OVC045 FM042000 29005KT
                       P6SM SCT050 BKN250 FM050100 33006KT P6SM
                       SCT050 BKN120=
201407040520 TAF KPAE 040520Z 0406/0506 36004KT P6SM OVC050
                      TEMPO 0412/0416 BKN020 OVC050 FM042000 29005KT
                       P6SM SCT050 BKN250 FM050100 33006KT P6SM
                       SCT050 BKN120=
201407032320 TAF KPAE 032320Z 0400/0424 36006KT P6SM SCT025 OVC050 FM041200
                       36003KT P6SM SCT020 OVC050 FM041800 34005KT
                       P6SM SCT050=
201407031741 TAF KPAE 031741Z 0318/0418 26004KT P6SM BKN022 OVC040 FM032100
                       30005KT P6SM SCT025 BKN050 FM040000 34006KT
                       P6SM BKN050 FM041200 36003KT P6SM SCT020
                       OVC050=
201407031120 TAF KPAE 031120Z 0312/0412 VRB04KT P6SM OVC020 FM031800 23005KT
                       P6SM BKN025 FM032000 26005KT P6SM SCT040
                       SCT250 FM032300 34008KT P6SM FEW050 BKN250
                       FM041000 VRB04KT P6SM OVC025=
201407030755 TAF AMD KPAE 030755Z 0308/0406 00000KT P6SM OVC025 FM031100 VRB03KT
                       P6SM OVC018 FM031800 23005KT P6SM BKN025
                       FM032000 26005KT P6SM SCT040 SCT250 FM032300
                       34008KT P6SM FEW050 BKN250=
201407030520 TAF KPAE 030520Z 0306/0406 02006KT P6SM FEW030 SCT250 FM031100
                       01004KT P6SM OVC020 FM031300 VRB03KT P6SM
                       OVC007 FM031700 VRB03KT P6SM OVC012 FM032000
                       26005KT P6SM SCT040 SCT250 FM032300 34008KT
                       P6SM FEW050 BKN250=
201407022348 TAF KPAE 022348Z 0300/0324 30008KT P6SM SCT200 FM030900 35004KT
                       P6SM OVC020 FM031200 VRB03KT P6SM OVC007
                       FM031700 VRB03KT P6SM OVC012 FM032000 26005KT
                       P6SM SCT040=
201407021737 TAF KPAE 021737Z 0218/0318 25008KT P6SM BKN200 FM022100 27008KT
                       P6SM SCT200 FM030000 33008KT P6SM SCT050
                       FM030900 35004KT P6SM OVC020 FM031200 VRB03KT
                       P6SM OVC010=
201407021120 TAF KPAE 021120Z 0212/0312 VRB03KT P6SM BKN200 FM021400 16006KT
                       P6SM FEW012 BKN200 FM021900 20008KT P6SM
                       FEW050 SCT100 FM030000 33008KT P6SM SCT050
                       BKN100 FM031100 35004KT P6SM OVC010=
201407020520 TAF KPAE 020520Z 0206/0306 VRB03KT P6SM FEW050 SCT250 FM021400
                       16006KT P6SM SCT012 SCT250
                      TEMPO 0214/0218 BKN012 BKN250 FM021900 20008KT
                       P6SM FEW050 SCT100 FM030000 33008KT P6SM
                       SCT050 BKN100=
201407012320 TAF KPAE 012320Z 0200/0224 01008KT P6SM SCT250 FM020400 VRB04KT
                       P6SM SCT250 FM021400 16005KT P6SM BKN012
                       FM021700 19007KT P6SM BKN018 BKN035=
201407011720 TAF KPAE 011720Z 0118/0218 36004KT P6SM SKC FM012000 33008KT P6SM
                       SCT250 FM020400 VRB04KT P6SM SCT250 FM021400
                       16005KT P6SM BKN012 FM021700 19007KT P6SM
                       BKN018 BKN035=
201407011120 TAF KPAE 011120Z 0112/0212 36004KT P6SM SKC FM012000 33008KT P6SM
                       SCT250 FM020400 VRB04KT P6SM SCT250=
201407010523 TAF KPAE 010523Z 0106/0206 36004KT P6SM FEW250 FM012000 33008KT
                       P6SM SCT250 FM020400 VRB04KT P6SM SCT250=