##########################################################
# Query made at 02/15/2025 21:12:57 UTC
# Time interval: from 11/01/2015 00:00  to 11/30/2015 23:59  UTC
##########################################################

##########################################################
# KPAE, Everett, Snohomish County Airport (United States)
# WMO index: -----. WIGOS ID: Unknown
# Latitude 47-55-23N. Longitude 122-16-57W. Altitude 184 m.
##########################################################

###################################
#  METAR/SPECI from KPAE
###################################
201511302353 METAR KPAE 302353Z 20011KT 10SM BKN041 BKN048 OVC060 06/M03 A3008 RMK AO2 RAB36E45 SLP193 P0000 60000 T00611033 10072 20000 53008=
201511302253 METAR KPAE 302253Z 18008KT 10SM OVC049 06/M05 A3007 RMK AO2 SLP187 T00611050=
201511302153 METAR KPAE 302153Z 10SM BKN055 07/M05 A3006 RMK AO2 SLP185 T00671050=
201511302053 METAR KPAE 302053Z 16009KT 10SM CLR 06/M06 A3006 RMK AO2 SLP184 T00611056 58015=
201511301953 METAR KPAE 301953Z 17004KT 10SM CLR 04/M06 A3008 RMK AO2 SLP190 T00391056=
201511301853 METAR KPAE 301853Z 15006KT 10SM CLR 02/M06 A3009 RMK AO2 SLP196 T00221056=
201511301753 METAR KPAE 301753Z 16008KT 10SM CLR 00/M06 A3010 RMK AO2 SLP200 T00001056 10000 21044 53003=
201511301653 METAR KPAE 301653Z 17004KT 10SM CLR M01/M07 A3010 RMK AO2 SLP199 T10061067=
201511301553 METAR KPAE 301553Z 16004KT 10SM BCFG CLR M02/M07 A3009 RMK AO2 SLP196 T10221072=
201511301453 METAR KPAE 301453Z AUTO 17003KT 10SM BCFG CLR M04/M07 A3009 RMK AO2 SLP198 T10441072 58007=
201511301353 METAR KPAE 301353Z AUTO 00000KT 10SM BCFG CLR M03/M06 A3010 RMK AO2 SLP199 T10281061=
201511301253 METAR KPAE 301253Z AUTO 17003KT 9SM BCFG CLR M04/M06 A3011 RMK AO2 SLP202 T10441061=
201511301153 METAR KPAE 301153Z AUTO 00000KT 9SM BCFG CLR M03/M05 A3011 RMK AO2 SLP203 I6008 T10281050 10000 21039 58006=
201511301115 SPECI KPAE 301115Z AUTO 00000KT 5SM BCFG SCT001 M03/M04 A3011 RMK AO2 T10281044=
201511301111 SPECI KPAE 301111Z AUTO 13003KT 2SM R16R/4000VP6000FT BCFG BKN001 M03/M04 A3011 RMK AO2 T10281044=
201511301102 SPECI KPAE 301102Z AUTO 00000KT 1/2SM R16R/1800V5000FT BCFG VV001 M03/M04 A3012 RMK AO2 T10281039=
201511301053 METAR KPAE 301053Z AUTO 00000KT 1/4SM R16R/1400V2200FT BCFG VV001 M02/M03 A3012 RMK AO2 SLP205 I1003 T10221033=
201511301030 SPECI KPAE 301030Z AUTO 16003KT 1/4SM R16R/1000V1200FT BCFG VV001 M02/M03 A3013 RMK AO2 I1002 T10221033=
201511301022 SPECI KPAE 301022Z AUTO 16005KT 1/2SM R16R/1000V2200FT BCFG VV001 M02/M04 A3013 RMK AO2 I1001 T10221039=
201511301014 SPECI KPAE 301014Z AUTO 17006KT 1SM R16R/2000V5000FT BCFG VV002 M03/M04 A3013 RMK AO2 T10281039=
201511301001 SPECI KPAE 301001Z AUTO 17006KT 1/2SM R16R/1200VP6000FT BCFG VV001 M02/M03 A3013 RMK AO2 T10221033=
201511300953 METAR KPAE 300953Z AUTO 17004KT 1/4SM R16R/0800V1400FT BCFG VV001 M02/M03 A3013 RMK AO2 SLP209 I1003 T10221028=
201511300910 SPECI KPAE 300910Z AUTO 18006KT 1/4SM R16R/1400V2200FT BCFG VV001 00/M01 A3013 RMK AO2 T00001011=
201511300908 SPECI KPAE 300908Z AUTO 18006KT 1/2SM R16R/1600V2600FT BCFG VV001 00/M01 A3013 RMK AO2 T00001011=
201511300853 METAR KPAE 300853Z AUTO 17005KT 1/4SM R16R/1000V2600FT BCFG VV001 M01/M02 A3013 RMK AO2 SLP209 I1001 I3002 T10111022 58001=
201511300844 SPECI KPAE 300844Z AUTO 16004KT 3/4SM R16R/0800V1000FT BCFG VV001 M02/M03 A3013 RMK AO2 I1001 T10171033=
201511300841 SPECI KPAE 300841Z AUTO 16004KT 2SM R16R/0800V2200FT BCFG BKN001 M02/M03 A3013 RMK AO2 I1001 T10221033=
201511300827 SPECI KPAE 300827Z AUTO 16004KT 3SM R16R/1800VP6000FT BCFG SCT001 M02/M04 A3013 RMK AO2 I1000 T10221039=
201511300824 SPECI KPAE 300824Z AUTO 16004KT 1 1/4SM R16R/1800VP6000FT BCFG SCT001 M02/M04 A3013 RMK AO2 I1000 T10221039=
201511300819 SPECI KPAE 300819Z AUTO 15004KT 1/2SM R16R/1600V3000FT BCFG VV001 M03/M04 A3013 RMK AO2 I1000 T10331044=
201511300753 METAR KPAE 300753Z AUTO 20003KT 1/4SM R16R/1000V1400FT BCFG VV001 M03/M04 A3014 RMK AO2 SLP213 I1000 T10281044 400391044=
201511300750 SPECI KPAE 300750Z AUTO 21003KT 1/4SM R16R/1000V2000FT BCFG VV001 M03/M04 A3014 RMK AO2=
201511300746 SPECI KPAE 300746Z AUTO 22004KT 3/4SM R16R/1200VP6000FT BCFG VV001 M03/M05 A3014 RMK AO2 T10331050=
201511300744 SPECI KPAE 300744Z AUTO 22004KT 1 1/2SM R16R/1200VP6000FT BCFG FEW001 M03/M05 A3014 RMK AO2 T10331050=
201511300739 SPECI KPAE 300739Z AUTO 22003KT 2 1/2SM R16R/3000VP6000FT BCFG CLR M04/M06 A3014 RMK AO2 T10391056=
201511300730 SPECI KPAE 300730Z AUTO 19003KT 3SM BCFG CLR M03/M05 A3014 RMK AO2 T10331050=
201511300722 SPECI KPAE 300722Z AUTO 00000KT 2 1/2SM BCFG CLR M04/M05 A3013 RMK AO2 T10391050=
201511300714 SPECI KPAE 300714Z AUTO 00000KT 3SM BCFG CLR M03/M04 A3013 RMK AO2 T10331044=
201511300659 SPECI KPAE 300659Z AUTO 00000KT 1 3/4SM BCFG CLR M03/M04 A3013 RMK AO2 T10281044=
201511300653 METAR KPAE 300653Z AUTO 00000KT 3SM BCFG CLR M02/M04 A3013 RMK AO2 SLP210 I1001 T10221044=
201511300640 SPECI KPAE 300640Z AUTO 00000KT 1 3/4SM R16R/2000VP6000FT BCFG CLR M03/M04 A3013 RMK AO2 I1000 T10281044=
201511300553 METAR KPAE 300553Z AUTO 00000KT 4SM BCFG CLR M02/M04 A3013 RMK AO2 SLP211 I1001 I6001 T10221039 10022 21022 56005=
201511300453 METAR KPAE 300453Z 00000KT 5SM BCFG CLR M02/M04 A3013 RMK AO2 SLP211 I1000 T10171039=
201511300353 METAR KPAE 300353Z 00000KT 6SM BCFG CLR M01/M04 A3014 RMK AO2 SLP214 T10111039=
201511300253 METAR KPAE 300253Z 00000KT 10SM BCFG FEW001 M01/M03 A3015 RMK AO2 SLP216 T10111033 58008=
201511300153 METAR KPAE 300153Z 00000KT 10SM BCFG FEW001 M01/M03 A3016 RMK AO2 SLP220 T10111033=
201511300053 METAR KPAE 300053Z 18003KT 5SM BCFG SCT001 01/M01 A3017 RMK AO2 SLP223 T00061011=
201511300005 SPECI KPAE 300005Z 19004KT 5SM BCFG FEW001 02/M01 A3017 RMK AO2 T00171006=
201511292353 METAR KPAE 292353Z 20004KT 5SM HZ CLR 02/M01 A3017 RMK AO2 SLP224 T00221006 10039 20000 55000=
201511292253 METAR KPAE 292253Z 00000KT 5SM BR CLR 03/01 A3017 RMK AO2 SLP221 T00280006=
201511292153 METAR KPAE 292153Z 23003KT 7SM FEW001 03/00 A3018 RMK AO2 SLP224 T00280000=
201511292100 SPECI KPAE 292100Z 26003KT 6SM SCT001 02/00 A3017 RMK AO2 T00220000=
201511292053 METAR KPAE 292053Z 27003KT 10SM CLR 02/00 A3017 RMK AO2 SLP223 T00220000 58012=
201511292043 SPECI KPAE 292043Z 29003KT 10SM R16R/1200VP6000FT BCFG SCT001 02/00 A3018 RMK AO2 T00220000=
201511292033 SPECI KPAE 292033Z 28004KT 10SM R16R/1000V1800FT BCFG SCT001 02/00 A3018 RMK AO2 T00220000=
201511292028 SPECI KPAE 292028Z 26004KT 1 3/4SM R16R/1200VP6000FT BR FEW002 02/00 A3018 RMK AO2 T00170000=
201511291953 METAR KPAE 291953Z 00000KT 10SM CLR 02/00 A3018 RMK AO2 SLP226 T00170000=
201511291927 SPECI KPAE 291927Z 00000KT 10SM BCFG SCT001 01/00 A3019 RMK AO2 T00060000=
201511291923 SPECI KPAE 291923Z 00000KT 1/2SM R16R/P6000FT FG BKN001 01/00 A3019 RMK AO2 T00060000=
201511291916 SPECI KPAE 291916Z 00000KT 1SM R16R/1000VP6000FT BR BKN001 01/00 A3019 RMK AO2 T00060000=
201511291853 METAR KPAE 291853Z 00000KT 1/4SM R16R/0800V1200FT FG VV001 00/00 A3020 RMK AO2 SLP234 T00000000=
201511291753 METAR KPAE 291753Z 00000KT M1/4SM R16R/0500FT FG VV001 00/M01 A3021 RMK AO2 SLP235 I6002 T00001011 10000 21044 50000=
201511291653 METAR KPAE 291653Z 00000KT M1/4SM R16R/0400FT FZFG VV001 M02/M03 A3021 RMK AO2 SLP238 I1001 T10171028=
201511291615 SPECI KPAE 291615Z 00000KT 1/4SM R16R/0800V1800FT FZFG VV001 M04/M05 A3020 RMK AO2 I1000 T10391050=
201511291555 SPECI KPAE 291555Z 00000KT 1/4SM R16R/1600V2400FT FZFG VV001 M04/M05 A3021 RMK AO2 T10391050=
201511291553 METAR KPAE 291553Z 00000KT 1/2SM R16R/1400V1800FT FZFG BKN001 M04/M05 A3021 RMK AO2 SLP236 I1001 T10391050=
201511291501 SPECI KPAE 291501Z 00000KT 1/2SM R16R/0800V1400FT FZFG BKN001 M02/M03 A3021 RMK AO2 T10221033=
201511291453 METAR KPAE 291453Z 00000KT 2SM R16R/1200V3500FT BR BKN001 M02/M04 A3021 RMK AO2 SLP235 I1000 I3000 T10171039 53002=
201511291443 SPECI KPAE 291443Z AUTO 15003KT 7SM BKN001 M02/M04 A3021 RMK AO2 I1000 T10221044=
201511291434 SPECI KPAE 291434Z AUTO 00000KT 7SM SCT001 M04/M06 A3021 RMK AO2 I1000 T10391056=
201511291353 METAR KPAE 291353Z AUTO 00000KT 7SM CLR M03/M06 A3020 RMK AO2 SLP234 T10331061=
201511291253 METAR KPAE 291253Z AUTO 00000KT 8SM CLR M03/M06 A3020 RMK AO2 SLP232 T10331056=
201511291153 METAR KPAE 291153Z AUTO 00000KT 8SM CLR M03/M05 A3020 RMK AO2 SLP232 I1000 I6000 T10281050 11006 21033 58002=
201511291053 METAR KPAE 291053Z AUTO 00000KT 8SM CLR M02/M05 A3021 RMK AO2 SLP235 T10221050=
201511290953 METAR KPAE 290953Z AUTO 00000KT 8SM CLR M02/M06 A3021 RMK AO2 SLP235 T10221056=
201511290853 METAR KPAE 290853Z AUTO 00000KT 7SM CLR M03/M05 A3021 RMK AO2 SLP234 T10281050 55003=
201511290753 METAR KPAE 290753Z AUTO 00000KT 9SM CLR M01/M04 A3020 RMK AO2 SLP233 T10111044 400561028=
201511290653 METAR KPAE 290653Z AUTO 00000KT 9SM CLR M02/M04 A3021 RMK AO2 SLP236 T10171044=
201511290553 METAR KPAE 290553Z AUTO 00000KT 10SM CLR M01/M04 A3021 RMK AO2 SLP237 T10061039 10044 21006 53001=
201511290453 METAR KPAE 290453Z AUTO 00000KT 10SM CLR 00/M02 A3021 RMK AO2 SLP237 T00001022=
201511290353 METAR KPAE 290353Z 02003KT 10SM CLR 01/M02 A3021 RMK AO2 SLP235 T00061022=
201511290253 METAR KPAE 290253Z 00000KT 10SM CLR 02/M02 A3021 RMK AO2 SLP235 T00171017 58007=
201511290153 METAR KPAE 290153Z 01003KT 10SM CLR 01/M03 A3021 RMK AO2 SLP237 T00061028=
201511290053 METAR KPAE 290053Z 00000KT 10SM CLR 03/M02 A3023 RMK AO2 SLP241 T00281022=
201511282353 METAR KPAE 282353Z 36004KT 10SM CLR 04/M02 A3023 RMK AO2 SLP242 T00441022 10056 20033 56012=
201511282253 METAR KPAE 282253Z 01004KT 10SM CLR 05/M04 A3023 RMK AO2 SLP243 T00501039=
201511282153 METAR KPAE 282153Z 36005KT 10SM CLR 06/M03 A3024 RMK AO2 SLP246 T00561033=
201511282053 METAR KPAE 282053Z 02005KT 10SM CLR 05/M03 A3026 RMK AO2 SLP253 T00501028 58016=
201511281953 METAR KPAE 281953Z 36004KT 10SM CLR 05/M03 A3028 RMK AO2 SLP260 T00501028=
201511281853 METAR KPAE 281853Z 00000KT 10SM CLR 04/M04 A3030 RMK AO2 SLP267 T00441039=
201511281753 METAR KPAE 281753Z 00000KT 10SM CLR 03/M04 A3031 RMK AO2 SLP271 I6000 T00331039 10033 21022 52004=
201511281653 METAR KPAE 281653Z 01003KT 10SM CLR 01/M03 A3031 RMK AO2 SLP270 T00061033=
201511281553 METAR KPAE 281553Z 00000KT 10SM CLR M01/M04 A3030 RMK AO2 SLP267 T10111039=
201511281453 METAR KPAE 281453Z 05003KT 10SM CLR M01/M03 A3030 RMK AO2 SLP266 I1000 I3000 T10061033 56003=
201511281353 METAR KPAE 281353Z COR 00000KT 9SM CLR M01/M03 A3030 RMK AO2 SLP268 I1000 T10061028=
201511281253 METAR KPAE 281253Z AUTO 00000KT 10SM CLR M01/M04 A3030 RMK AO2 SLP268 T10111039=
201511281153 METAR KPAE 281153Z AUTO 00000KT 10SM CLR M01/M03 A3031 RMK AO2 SLP269 T10061028 10017 21011 58007=
201511281053 METAR KPAE 281053Z AUTO 03003KT 10SM CLR M01/M04 A3032 RMK AO2 SLP274 T10061039=
201511280953 METAR KPAE 280953Z AUTO 02003KT 10SM CLR 00/M02 A3033 RMK AO2 SLP275 T00001022=
201511280853 METAR KPAE 280853Z AUTO 02003KT 10SM CLR 01/M02 A3033 RMK AO2 SLP276 T00111017 50000=
201511280753 METAR KPAE 280753Z AUTO 01003KT 10SM CLR 00/M02 A3034 RMK AO2 SLP279 T00001022 400611017=
201511280653 METAR KPAE 280653Z AUTO 05003KT 10SM CLR 01/M03 A3034 RMK AO2 SLP278 T00111028=
201511280553 METAR KPAE 280553Z AUTO 03004KT 10SM CLR 00/M02 A3033 RMK AO2 SLP277 T00001017 10044 20000 55001=
201511280453 METAR KPAE 280453Z AUTO 03003KT 10SM CLR 01/M02 A3033 RMK AO2 SLP277 T00111017=
201511280353 METAR KPAE 280353Z 36003KT 10SM CLR 02/M02 A3033 RMK AO2 SLP278 T00171022=
201511280253 METAR KPAE 280253Z 03003KT 10SM CLR 01/M02 A3033 RMK AO2 SLP278 T00111017 58003=
201511280153 METAR KPAE 280153Z 02005KT 10SM CLR 03/M02 A3034 RMK AO2 SLP279 T00281022=
201511280053 METAR KPAE 280053Z 35003KT 10SM CLR 03/M02 A3034 RMK AO2 SLP281 T00281022=
201511272353 METAR KPAE 272353Z 36004KT 10SM CLR 04/M02 A3034 RMK AO2 SLP280 T00441017 10061 20028 56014=
201511272253 METAR KPAE 272253Z 36004KT 10SM CLR 06/M02 A3035 RMK AO2 SLP284 T00561022=
201511272153 METAR KPAE 272153Z 35004KT 10SM CLR 06/M02 A3037 RMK AO2 SLP290 T00611022=
201511272053 METAR KPAE 272053Z 02003KT 10SM CLR 06/M03 A3039 RMK AO2 SLP295 T00561033 58005=
201511271953 METAR KPAE 271953Z 36003KT 10SM CLR 04/M03 A3039 RMK AO2 SLP297 T00441028=
201511271853 METAR KPAE 271853Z 01003KT 10SM CLR 04/M01 A3040 RMK AO2 SLP300 T00391011=
201511271753 METAR KPAE 271753Z 03004KT 10SM CLR 03/M02 A3040 RMK AO2 SLP300 T00281022 10028 21017 53002=
201511271653 METAR KPAE 271653Z 00000KT 10SM CLR 01/M03 A3040 RMK AO2 SLP300 T00111028=
201511271553 METAR KPAE 271553Z 03004KT 10SM CLR 00/M03 A3039 RMK AO2 SLP298 T00001028=
201511271453 METAR KPAE 271453Z 03003KT 10SM CLR 00/M03 A3039 RMK AO2 SLP297 T00001028 58005=
201511271353 METAR KPAE 271353Z AUTO 00000KT 10SM CLR M02/M04 A3040 RMK AO2 SLP300 T10171039=
201511271253 METAR KPAE 271253Z AUTO 02005KT 10SM CLR 00/M03 A3040 RMK AO2 SLP302 T00001028=
201511271153 METAR KPAE 271153Z AUTO 01003KT 10SM CLR 00/M02 A3041 RMK AO2 SLP302 T00001022 10022 21006 58003=
201511271053 METAR KPAE 271053Z AUTO 03003KT 10SM CLR 00/M02 A3042 RMK AO2 SLP306 T00001022=
201511270953 METAR KPAE 270953Z AUTO 00000KT 10SM CLR 00/M02 A3041 RMK AO2 SLP304 T00001022=
201511270853 METAR KPAE 270853Z AUTO 03005KT 10SM CLR 01/M02 A3042 RMK AO2 SLP305 T00111022 58007=
201511270753 METAR KPAE 270753Z AUTO 02003KT 10SM CLR 00/M03 A3043 RMK AO2 SLP308 T00001028 400721011=
201511270653 METAR KPAE 270653Z AUTO 03003KT 10SM CLR 02/M02 A3043 RMK AO2 SLP311 T00171017=
201511270553 METAR KPAE 270553Z AUTO 02003KT 10SM CLR 01/M02 A3044 RMK AO2 SLP312 T00111022 10044 20011 51001=
201511270453 METAR KPAE 270453Z 02003KT 10SM CLR 02/M02 A3044 RMK AO2 SLP312 T00171022=
201511270353 METAR KPAE 270353Z 00000KT 10SM CLR 02/M03 A3044 RMK AO2 SLP315 T00221028=
201511270253 METAR KPAE 270253Z 02006KT 10SM CLR 04/M03 A3043 RMK AO2 SLP312 T00391028 50000=
201511270153 METAR KPAE 270153Z 01005KT 10SM CLR 03/M02 A3044 RMK AO2 SLP313 T00331017=
201511270053 METAR KPAE 270053Z AUTO 34003KT 10SM CLR 03/M02 A3044 RMK AO2 SLP312 T00331022 TSNO=
201511262353 METAR KPAE 262353Z AUTO 00000KT 10SM CLR 04/M01 A3043 RMK AO2 SLP311 T00441011 10072 20039 55005 TSNO=
201511262253 METAR KPAE 262253Z 35005KT 10SM CLR 05/M01 A3043 RMK AO2 SLP311 T00501011=
201511262153 METAR KPAE 262153Z 36003KT 10SM CLR 07/M04 A3043 RMK AO2 SLP309 T00721044=
201511262053 METAR KPAE 262053Z 00000KT 10SM CLR 06/M04 A3045 RMK AO2 SLP317 T00611044 58003=
201511261953 METAR KPAE 261953Z 01004KT 10SM CLR 06/M04 A3045 RMK AO2 SLP318 T00561039=
201511261853 METAR KPAE 261853Z 01003KT 10SM CLR 06/M04 A3046 RMK AO2 SLP321 T00611044=
201511261753 METAR KPAE 261753Z 00000KT 10SM CLR 05/M04 A3046 RMK AO2 SLP320 T00501039 10050 21011 53015=
201511261653 METAR KPAE 261653Z 00000KT 10SM CLR 03/M04 A3044 RMK AO2 SLP313 T00281039=
201511261553 METAR KPAE 261553Z 05004KT 10SM CLR 00/M05 A3042 RMK AO2 SLP309 T00001050=
201511261453 METAR KPAE 261453Z 00000KT 10SM CLR M01/M04 A3041 RMK AO2 SLP305 T10061039 53006=
201511261353 METAR KPAE 261353Z AUTO 01003KT 10SM CLR M01/M03 A3041 RMK AO2 SLP302 T10061033=
201511261253 METAR KPAE 261253Z AUTO 04003KT 10SM CLR 01/M04 A3040 RMK AO2 SLP299 T00061039=
201511261153 METAR KPAE 261153Z AUTO 02007KT 10SM CLR 00/M02 A3039 RMK AO2 SLP298 T00001022 10011 21011 53009=
201511261053 METAR KPAE 261053Z AUTO 03004KT 10SM CLR M01/M03 A3038 RMK AO2 SLP293 T10061033=
201511260953 METAR KPAE 260953Z AUTO 00000KT 10SM CLR M01/M03 A3038 RMK AO2 SLP292 T10061033=
201511260853 METAR KPAE 260853Z AUTO 00000KT 10SM CLR 01/M03 A3037 RMK AO2 SLP288 T00061033 51006=
201511260753 METAR KPAE 260753Z AUTO 11005KT 10SM CLR 01/M03 A3036 RMK AO2 SLP287 T00061028 400610000=
201511260653 METAR KPAE 260653Z 00000KT 10SM CLR 00/M04 A3035 RMK AO2 SLP284 T00001039=
201511260553 METAR KPAE 260553Z 00000KT 10SM CLR 01/M04 A3035 RMK AO2 SLP282 T00111044 10050 20006 53008=
201511260453 METAR KPAE 260453Z AUTO 12004KT 10SM CLR 02/M04 A3033 RMK AO2 SLP276 T00221044 TSNO=
201511260353 METAR KPAE 260353Z AUTO 00000KT 10SM CLR 02/M06 A3033 RMK AO2 SLP276 T00171061 TSNO=
201511260253 METAR KPAE 260253Z AUTO 02003KT 10SM CLR 03/M05 A3032 RMK AO2 SLP273 T00331050 52006 TSNO=
201511260153 METAR KPAE 260153Z AUTO 00000KT 10SM CLR 03/M05 A3032 RMK AO2 SLP272 T00281050 TSNO=
201511260053 METAR KPAE 260053Z AUTO 34003KT 10SM CLR 04/M06 A3031 RMK AO2 SLP269 T00391056 TSNO=
201511252353 METAR KPAE 252353Z 33007KT 10SM CLR 05/M06 A3030 RMK AO2 SLP267 T00501061 10061 20028 53004=
201511252253 METAR KPAE 252253Z 36005KT 10SM CLR 06/M06 A3029 RMK AO2 SLP261 T00611061=
201511252153 METAR KPAE 252153Z 35005KT 10SM CLR 06/M06 A3029 RMK AO2 SLP261 T00561061=
201511252053 METAR KPAE 252053Z 00000KT 10SM CLR 05/M07 A3029 RMK AO2 SLP263 T00501072 51002=
201511251953 METAR KPAE 251953Z VRB05KT 10SM CLR 04/M07 A3029 RMK AO2 SLP262 T00391067=
201511251853 METAR KPAE 251853Z 01005KT 10SM CLR 04/M07 A3030 RMK AO2 SLP264 T00391067=
201511251753 METAR KPAE 251753Z VRB04KT 10SM CLR 03/M06 A3029 RMK AO2 SLP261 T00281056 10028 20000 51020=
201511251653 METAR KPAE 251653Z 02004KT 10SM CLR 02/M05 A3027 RMK AO2 SLP254 T00171050=
201511251553 METAR KPAE 251553Z 02003KT 10SM CLR 01/M05 A3025 RMK AO2 SLP248 T00061050=
201511251453 METAR KPAE 251453Z 36004KT 10SM CLR 01/M04 A3023 RMK AO2 SLP240 T00111039 53013=
201511251353 METAR KPAE 251353Z AUTO 36003KT 10SM CLR 01/M04 A3021 RMK AO2 SLP234 T00111039=
201511251253 METAR KPAE 251253Z AUTO 35006KT 10SM CLR 01/M04 A3020 RMK AO2 SLP231 T00111044=
201511251153 METAR KPAE 251153Z AUTO 36007KT 10SM CLR 01/M04 A3019 RMK AO2 SLP227 70007 T00111039 10028 20011 51016=
201511251053 METAR KPAE 251053Z AUTO 35009KT 10SM CLR 02/M04 A3017 RMK AO2 SLP221 T00171044=
201511250953 METAR KPAE 250953Z AUTO 34009KT 10SM CLR 02/M04 A3016 RMK AO2 SLP216 T00221044=
201511250853 METAR KPAE 250853Z AUTO 34007KT 10SM CLR 02/M04 A3014 RMK AO2 SLP209 T00171039 51015=
201511250753 METAR KPAE 250753Z AUTO 35006KT 10SM CLR 02/M04 A3013 RMK AO2 SLP207 T00221044 400720022=
201511250653 METAR KPAE 250653Z AUTO 35010G16KT 10SM CLR 03/M04 A3011 RMK AO2 SLP201 T00281039=
201511250553 METAR KPAE 250553Z AUTO 34009KT 10SM CLR 03/M04 A3009 RMK AO2 SLP195 T00281044 10056 20028 51026=
201511250453 METAR KPAE 250453Z AUTO 35008G16KT 10SM CLR 03/M04 A3007 RMK AO2 SLP186 T00331039=
201511250353 METAR KPAE 250353Z 34012G19KT 10SM CLR 03/M04 A3005 RMK AO2 SLP179 T00331039=
201511250253 METAR KPAE 250253Z 35012G21KT 10SM CLR 04/M03 A3002 RMK AO2 SLP169 T00391028 52023=
201511250153 METAR KPAE 250153Z 35008KT 10SM CLR 04/M02 A2999 RMK AO2 SLP160 T00441022=
201511250053 METAR KPAE 250053Z 33007KT 10SM CLR 04/M02 A2997 RMK AO2 SLP151 T00441022=
201511242353 METAR KPAE 242353Z 34009KT 10SM CLR 06/M01 A2994 RMK AO2 SLP144 T00561011 10072 20044 53019=
201511242253 METAR KPAE 242253Z 33010G14KT 10SM CLR 07/M01 A2992 RMK AO2 SLP136 T00671011=
201511242153 METAR KPAE 242153Z 34010G19KT 10SM CLR 07/00 A2990 RMK AO2 SLP128 T00670000=
201511242053 METAR KPAE 242053Z 34008KT 10SM CLR 07/01 A2989 RMK AO2 SLP124 T00670011 51016=
201511241953 METAR KPAE 241953Z 34010G16KT 10SM CLR 06/02 A2987 RMK AO2 SLP120 T00610017=
201511241853 METAR KPAE 241853Z VRB06KT 10SM FEW002 SCT090 06/04 A2986 RMK AO2 SLP114 T00560039=
201511241753 METAR KPAE 241753Z 33007KT 10SM OVC075 04/03 A2984 RMK AO2 SLP108 60007 T00440033 10044 20039 51027=
201511241746 SPECI KPAE 241746Z 34005KT 10SM OVC070 04/03 A2984 RMK AO2 T00440033=
201511241653 METAR KPAE 241653Z COR 34005KT 10SM FEW006 OVC050 04/03 A2982 RMK AO2 RAB28E44 SLP100 P0000 T00390033=
201511241615 SPECI KPAE 241615Z 33004KT 10SM FEW006 OVC065 04/04 A2980 RMK AO2 T00390039=
201511241553 METAR KPAE 241553Z 33004KT 3SM BR BKN004 BKN013 OVC070 04/04 A2979 RMK AO2 RAE16 CIG 002V008 SLP091 P0001 T00390039=
201511241532 SPECI KPAE 241532Z 33007KT 3SM BR BKN002 OVC008 04/04 A2978 RMK AO2 RAE16 CIG 001V004 P0001 T00390039=
201511241453 METAR KPAE 241453Z VRB04KT 1SM R16R/4500VP6000FT -RA BR OVC001 04/04 A2976 RMK AO2 SLP080 P0001 60006 T00390039 53011=
201511241353 METAR KPAE 241353Z AUTO 36006KT 3SM R16R/5000VP6000FT -RA BR OVC001 04/04 A2974 RMK AO2 SLP073 P0002 T00390039=
201511241348 SPECI KPAE 241348Z AUTO 36005KT 5SM R16R/4500VP6000FT -RA BR OVC001 04/04 A2974 RMK AO2 P0002=
201511241333 SPECI KPAE 241333Z AUTO 01004KT 3SM R16R/4500VP6000FT -RA BR OVC002 04/04 A2973 RMK AO2 P0002 T00390039=
201511241323 SPECI KPAE 241323Z AUTO 01004KT 2 1/2SM R16R/4500VP6000FT -RA BR OVC001 04/04 A2973 RMK AO2 VIS 1 1/2V4 P0001 T00390039=
201511241300 SPECI KPAE 241300Z AUTO 02004KT 5SM -RA BR OVC002 04/04 A2973 RMK AO2 P0000 T00390039=
201511241253 METAR KPAE 241253Z AUTO 02004KT 2 1/2SM R16R/3000VP6000FT -RA BR OVC002 04/04 A2973 RMK AO2 SLP069 P0003 T00390039=
201511241227 SPECI KPAE 241227Z AUTO 01003KT 1/2SM R16R/5000VP6000FT -RA FG VV002 04/04 A2972 RMK AO2 P0001 T00440044=
201511241216 SPECI KPAE 241216Z AUTO 02004KT 1 3/4SM -RA BR OVC003 04/04 A2972 RMK AO2 P0000 T00440044=
201511241153 METAR KPAE 241153Z AUTO 00000KT 8SM -RA OVC004 04/04 A2971 RMK AO2 SLP065 P0003 60010 70030 T00440044 10050 20044 53003=
201511241102 SPECI KPAE 241102Z AUTO 00000KT 6SM -RA BR BKN004 OVC023 04/04 A2971 RMK AO2 P0001 T00440044=
201511241053 METAR KPAE 241053Z AUTO 11004KT 6SM -RA BR SCT004 OVC024 04/04 A2971 RMK AO2 SLP064 P0001 T00440044=
201511240953 METAR KPAE 240953Z AUTO 11005KT 7SM -RA SCT003 BKN018 OVC025 04/04 A2970 RMK AO2 SLP062 P0001 T00440044=
201511240913 SPECI KPAE 240913Z AUTO 11004KT 6SM -RA BR SCT004 BKN016 OVC032 04/04 A2970 RMK AO2 P0000 T00440044=
201511240853 METAR KPAE 240853Z AUTO 11003KT 6SM -RA BR BKN003 OVC014 04/04 A2971 RMK AO2 RAB12 SLP062 P0001 60005 T00440044 58005=
201511240842 SPECI KPAE 240842Z AUTO 12003KT 5SM -RA BR BKN004 OVC014 04/03 A2971 RMK AO2 RAB12 P0001 T00440033=
201511240753 METAR KPAE 240753Z AUTO 12004KT 7SM FEW005 OVC015 04/04 A2972 RMK AO2 RAE25 SLP066 P0000 T00440044 400500011=
201511240748 SPECI KPAE 240748Z AUTO 11005KT 6SM BR SCT006 OVC015 04/04 A2971 RMK AO2 RAE25 P0000=
201511240736 SPECI KPAE 240736Z AUTO 11005KT 6SM BR SCT006 OVC014 04/04 A2971 RMK AO2 RAE25 P0000 T00440044=
201511240715 SPECI KPAE 240715Z AUTO 11004KT 7SM -RA OVC005 04/04 A2972 RMK AO2 P0000 T00440044=
201511240653 METAR KPAE 240653Z AUTO 11003KT 7SM -RA OVC004 04/04 A2972 RMK AO2 SLP068 P0004 T00440044=
201511240620 SPECI KPAE 240620Z AUTO 10004KT 6SM -RA BR OVC004 04/04 A2972 RMK AO2 CIG 003V006 P0002 T00440044=
201511240553 METAR KPAE 240553Z AUTO 16005KT 8SM -RA OVC006 05/04 A2973 RMK AO2 CIG 004V010 SLP069 P0006 60020 T00500044 10050 20044 56009=
201511240453 METAR KPAE 240453Z AUTO 16006KT 4SM -RA BR OVC009 04/04 A2973 RMK AO2 CIG 006V015 SLP071 P0005 T00440044=
201511240427 SPECI KPAE 240427Z 15006KT 5SM -RA BR OVC008 04/04 A2973 RMK AO2 CIG 004V012 P0003 T00440044=
201511240353 METAR KPAE 240353Z 16009KT 7SM -RA OVC012 04/04 A2974 RMK AO2 SLP075 P0001 T00440044=
201511240306 SPECI KPAE 240306Z 15008KT 6SM -RA BR BKN014 OVC025 04/04 A2975 RMK AO2 P0000 T00440039=
201511240253 METAR KPAE 240253Z 15008KT 5SM -RA BR BKN015 BKN022 OVC027 04/04 A2975 RMK AO2 SLP079 P0003 60008 T00440039 56016=
201511240246 SPECI KPAE 240246Z 15008KT 5SM -RA BR BKN015 BKN022 OVC026 04/04 A2976 RMK AO2 P0002 T00440039=
201511240232 SPECI KPAE 240232Z 15006KT 6SM -RA BR BKN014 OVC025 04/04 A2976 RMK AO2 P0002 T00440039=
201511240200 SPECI KPAE 240200Z 16006KT 4SM -RA BR BKN022 BKN027 OVC034 04/04 A2977 RMK AO2 P0000 T00440039=
201511240153 METAR KPAE 240153Z 16007KT 2SM -RA BR FEW022 BKN027 OVC035 04/04 A2977 RMK AO2 SLP084 P0002 T00440039=
201511240053 METAR KPAE 240053Z 16004KT 2SM -RA BR FEW006 OVC032 04/04 A2978 RMK AO2 SLP089 P0003 T00440044=
201511240037 SPECI KPAE 240037Z 17004KT 2SM -RA BR FEW008 SCT019 OVC034 04/04 A2979 RMK AO2 P0002 T00440039=
201511240024 SPECI KPAE 240024Z 20003KT 2SM -RA BR BKN019 OVC036 04/04 A2979 RMK AO2 P0002 T00440039=
201511240001 SPECI KPAE 240001Z 19003KT 4SM -RA BR FEW011 BKN020 OVC046 05/04 A2980 RMK AO2 P0001 T00500039=
201511232353 METAR KPAE 232353Z 20003KT 4SM -RA BR SCT024 BKN043 OVC050 04/04 A2980 RMK AO2 RAB20 SLP096 P0000 60000 T00440039 10050 20039 56011=
201511232253 METAR KPAE 232253Z 20003KT 7SM BKN045 OVC055 05/03 A2981 RMK AO2 SLP098 T00500033=
201511232153 METAR KPAE 232153Z 00000KT 6SM BR SCT013 BKN060 OVC070 05/04 A2982 RMK AO2 SLP103 T00500039=
201511232053 METAR KPAE 232053Z 00000KT 7SM SCT009 OVC090 05/03 A2984 RMK AO2 SLP107 T00500033 58009=
201511231953 METAR KPAE 231953Z 22003KT 6SM BR OVC100 04/03 A2985 RMK AO2 SLP112 T00440033=
201511231853 METAR KPAE 231853Z 00000KT 7SM SCT004 OVC095 04/03 A2986 RMK AO2 SLP116 T00440033=
201511231753 METAR KPAE 231753Z 18003KT 10SM SCT004 OVC095 04/02 A2986 RMK AO2 SLP116 T00390022 10044 20022 56003=
201511231653 METAR KPAE 231653Z 20004KT 8SM BKN090 OVC110 03/02 A2986 RMK AO2 SLP117 T00330022=
201511231553 METAR KPAE 231553Z 16004KT 10SM SCT080 OVC120 03/01 A2986 RMK AO2 SLP113 T00330011=
201511231453 METAR KPAE 231453Z 16008KT 10SM BKN095 OVC110 04/00 A2987 RMK AO2 SLP119 T00390000 58011=
201511231353 METAR KPAE 231353Z AUTO 00000KT 10SM OVC100 03/01 A2989 RMK AO2 SLP126 T00280006=
201511231253 METAR KPAE 231253Z AUTO 00000KT 10SM OVC100 03/00 A2989 RMK AO2 SLP126 T00330000=
201511231153 METAR KPAE 231153Z AUTO 11003KT 10SM BKN100 02/M01 A2990 RMK AO2 SLP130 T00221006 10033 20011 58012=
201511231053 METAR KPAE 231053Z AUTO 00000KT 10SM CLR 02/M01 A2992 RMK AO2 SLP135 T00171006=
201511230953 METAR KPAE 230953Z AUTO 00000KT 10SM CLR 02/M01 A2993 RMK AO2 SLP138 T00171006=
201511230853 METAR KPAE 230853Z AUTO 00000KT 10SM CLR 02/00 A2994 RMK AO2 SLP142 T00220000 58012=
201511230753 METAR KPAE 230753Z AUTO 00000KT 10SM CLR 02/01 A2996 RMK AO2 SLP150 T00170006 400780011=
201511230653 METAR KPAE 230653Z AUTO 00000KT 10SM CLR 03/01 A2997 RMK AO2 SLP152 T00280011=
201511230553 METAR KPAE 230553Z AUTO 00000KT 10SM CLR 03/02 A2998 RMK AO2 SLP156 T00330017 10061 20033 56006=
201511230453 METAR KPAE 230453Z AUTO 36003KT 10SM CLR 04/01 A2998 RMK AO2 SLP156 T00390006=
201511230353 METAR KPAE 230353Z 00000KT 10SM CLR 05/01 A2999 RMK AO2 SLP159 T00500006=
201511230253 METAR KPAE 230253Z 00000KT 10SM CLR 05/01 A2999 RMK AO2 SLP162 T00500011 58008=
201511230153 METAR KPAE 230153Z 00000KT 10SM CLR 05/02 A3001 RMK AO2 SLP166 T00500017=
201511230053 METAR KPAE 230053Z 00000KT 10SM CLR 05/02 A3002 RMK AO2 SLP171 T00500017=
201511222353 METAR KPAE 222353Z 35004KT 10SM CLR 06/02 A3002 RMK AO2 SLP170 T00610017 10078 20039 56015=
201511222253 METAR KPAE 222253Z VRB04KT 10SM CLR 07/01 A3003 RMK AO2 SLP172 T00720011=
201511222153 METAR KPAE 222153Z 36004KT 10SM CLR 07/00 A3004 RMK AO2 SLP177 T00720000=
201511222053 METAR KPAE 222053Z 36004KT 10SM CLR 07/01 A3006 RMK AO2 SLP184 T00670006 58017=
201511221953 METAR KPAE 221953Z 36007KT 10SM CLR 06/00 A3008 RMK AO2 SLP192 T00560000=
201511221853 METAR KPAE 221853Z 36007KT 10SM CLR 05/00 A3011 RMK AO2 SLP201 T00500000=
201511221753 METAR KPAE 221753Z 01003KT 10SM CLR 04/M01 A3012 RMK AO2 SLP203 T00441006 10044 20011 58010=
201511221653 METAR KPAE 221653Z 02004KT 10SM CLR 03/00 A3013 RMK AO2 SLP208 T00280000=
201511221553 METAR KPAE 221553Z 01003KT 10SM CLR 01/01 A3014 RMK AO2 SLP209 T00110006=
201511221453 METAR KPAE 221453Z 02004KT 10SM CLR 01/M01 A3014 RMK AO2 SLP213 T00111006 57015=
201511221353 METAR KPAE 221353Z AUTO 00000KT 10SM CLR 01/M01 A3016 RMK AO2 SLP217 T00111006=
201511221253 METAR KPAE 221253Z AUTO 01004KT 10SM CLR 02/00 A3018 RMK AO2 SLP223 T00170000=
201511221153 METAR KPAE 221153Z AUTO 36003KT 10SM CLR 02/00 A3019 RMK AO2 SLP228 T00170000 10028 20011 58010=
201511221053 METAR KPAE 221053Z AUTO 01004KT 10SM CLR 01/M01 A3020 RMK AO2 SLP232 T00111006=
201511220953 METAR KPAE 220953Z AUTO 00000KT 10SM CLR 02/00 A3021 RMK AO2 SLP236 T00170000=
201511220853 METAR KPAE 220853Z AUTO 01004KT 10SM CLR 02/00 A3022 RMK AO2 SLP238 T00220000 56014=
201511220753 METAR KPAE 220753Z AUTO 01004KT 10SM CLR 02/M01 A3024 RMK AO2 SLP244 T00221006 400610000=
201511220653 METAR KPAE 220653Z AUTO 03005KT 10SM CLR 03/01 A3024 RMK AO2 SLP247 T00280006=
201511220553 METAR KPAE 220553Z AUTO 02003KT 10SM CLR 03/01 A3026 RMK AO2 SLP253 T00280011 10050 20022 56009=
201511220453 METAR KPAE 220453Z 03003KT 10SM CLR 03/02 A3027 RMK AO2 SLP256 T00280017=
201511220353 METAR KPAE 220353Z 01003KT 10SM CLR 03/01 A3028 RMK AO2 SLP260 T00330011=
201511220253 METAR KPAE 220253Z 01005KT 10SM CLR 04/01 A3029 RMK AO2 SLP263 T00390011 58009=
201511220153 METAR KPAE 220153Z 01007KT 10SM CLR 04/00 A3030 RMK AO2 SLP267 T00390000=
201511220053 METAR KPAE 220053Z 35005KT 10SM CLR 04/00 A3031 RMK AO2 SLP269 T00390000=
201511212353 METAR KPAE 212353Z 35005KT 10SM CLR 05/01 A3032 RMK AO2 SLP272 T00500006 10061 20022 56011=
201511212253 METAR KPAE 212253Z 35003KT 10SM CLR 06/M01 A3033 RMK AO2 SLP275 T00561006=
201511212153 METAR KPAE 212153Z 36005KT 10SM CLR 06/00 A3033 RMK AO2 SLP277 T00610000=
201511212053 METAR KPAE 212053Z VRB04KT 10SM CLR 06/M02 A3035 RMK AO2 SLP284 T00561017 58013=
201511211953 METAR KPAE 211953Z 01005KT 10SM CLR 05/M02 A3037 RMK AO2 SLP289 T00501017=
201511211853 METAR KPAE 211853Z 02005KT 10SM CLR 04/M02 A3038 RMK AO2 SLP293 T00441022=
201511211753 METAR KPAE 211753Z 02004KT 10SM CLR 02/00 A3039 RMK AO2 SLP296 T00220000 10022 20000 53000=
201511211653 METAR KPAE 211653Z 01003KT 10SM CLR 01/M01 A3038 RMK AO2 SLP294 T00111006=
201511211553 METAR KPAE 211553Z 35005KT 10SM CLR 00/M01 A3039 RMK AO2 SLP297 T00001011=
201511211453 METAR KPAE 211453Z 00000KT 10SM CLR 01/M01 A3039 RMK AO2 SLP296 T00061006 55003=
201511211353 METAR KPAE 211353Z 02004KT 10SM CLR 01/00 A3038 RMK AO2 SLP293 T00060000=
201511211253 METAR KPAE 211253Z 02004KT 10SM CLR 01/00 A3039 RMK AO2 SLP297 T00060000=
201511211153 METAR KPAE 211153Z 36005KT 10SM CLR 01/00 A3040 RMK AO2 SLP299 T00110000 10028 20006 58007=
201511211053 METAR KPAE 211053Z 00000KT 10SM CLR 01/00 A3041 RMK AO2 SLP302 T00110000=
201511210953 METAR KPAE 210953Z 36004KT 10SM CLR 01/01 A3041 RMK AO2 SLP305 T00110006=
201511210853 METAR KPAE 210853Z 01003KT 10SM CLR 01/01 A3042 RMK AO2 SLP306 T00110006 56009=
201511210753 METAR KPAE 210753Z 01003KT 10SM CLR 02/01 A3042 RMK AO2 SLP308 T00170006 400671006=
201511210653 METAR KPAE 210653Z 03003KT 10SM CLR 02/M01 A3043 RMK AO2 SLP310 T00221006=
201511210553 METAR KPAE 210553Z 03003KT 10SM CLR 02/01 A3045 RMK AO2 SLP315 T00220006 10050 20022 56009=
201511210453 METAR KPAE 210453Z 02005KT 10SM CLR 03/01 A3045 RMK AO2 SLP317 T00280011=
201511210353 METAR KPAE 210353Z 02004KT 10SM CLR 03/02 A3046 RMK AO2 SLP321 T00280017=
201511210253 METAR KPAE 210253Z 01005KT 10SM CLR 03/02 A3047 RMK AO2 SLP326 T00330017 58003=
201511210153 METAR KPAE 210153Z 36005KT 10SM CLR 04/02 A3048 RMK AO2 SLP328 T00390017=
201511210053 METAR KPAE 210053Z 36004KT 10SM CLR 04/02 A3049 RMK AO2 SLP330 T00390017=
201511202353 METAR KPAE 202353Z 00000KT 10SM CLR 05/01 A3048 RMK AO2 SLP327 T00500011 10067 20039 56013=
201511202253 METAR KPAE 202253Z 02005KT 10SM CLR 06/01 A3049 RMK AO2 SLP329 T00560006=
201511202153 METAR KPAE 202153Z 02003KT 10SM CLR 06/01 A3051 RMK AO2 SLP336 T00610006=
201511202053 METAR KPAE 202053Z 02005KT 10SM CLR 06/00 A3052 RMK AO2 SLP340 T00610000 58009=
201511201953 METAR KPAE 201953Z 29004KT 10SM CLR 06/01 A3053 RMK AO2 SLP343 T00610011=
201511201853 METAR KPAE 201853Z 05003KT 10SM CLR 06/01 A3055 RMK AO2 SLP350 T00610011=
201511201753 METAR KPAE 201753Z 08004KT 10SM CLR 04/01 A3055 RMK AO2 SLP350 I6001 T00390011 10039 21006 51018=
201511201653 METAR KPAE 201653Z VRB03KT 10SM CLR 02/01 A3054 RMK AO2 SLP347 T00220011=
201511201553 METAR KPAE 201553Z 00000KT 10SM CLR 01/01 A3052 RMK AO2 SLP341 I1000 T00110006=
201511201453 METAR KPAE 201453Z 00000KT 10SM CLR 00/00 A3049 RMK AO2 SLP332 I1000 I3001 T00000000 53007=
201511201353 METAR KPAE 201353Z AUTO 00000KT 10SM CLR 01/01 A3048 RMK AO2 SLP325 T00110006=
201511201253 METAR KPAE 201253Z AUTO 00000KT 10SM CLR 02/01 A3047 RMK AO2 SLP323 I1001 T00170011=
201511201153 METAR KPAE 201153Z AUTO 00000KT 10SM CLR 01/01 A3047 RMK AO2 SLP324 I1001 I6001 T00110011 10028 20000 51014=
201511201053 METAR KPAE 201053Z AUTO 00000KT 4SM BR CLR 01/01 A3047 RMK AO2 SLP323 T00060006=
201511200953 METAR KPAE 200953Z AUTO 00000KT 10SM CLR 02/01 A3045 RMK AO2 SLP317 T00220011=
201511200853 METAR KPAE 200853Z AUTO 04005KT 10SM CLR 03/02 A3043 RMK AO2 SLP309 T00280017 51023=
201511200753 METAR KPAE 200753Z AUTO 02004KT 10SM CLR 01/01 A3042 RMK AO2 SLP307 T00110011 400720006=
201511200653 METAR KPAE 200653Z AUTO 00000KT 10SM CLR 01/01 A3039 RMK AO2 SLP297 T00110006=
201511200553 METAR KPAE 200553Z AUTO 00000KT 10SM CLR 01/01 A3036 RMK AO2 SLP286 T00060006 10061 20006 53022=
201511200453 METAR KPAE 200453Z AUTO 00000KT 10SM CLR 03/02 A3033 RMK AO2 SLP276 T00280017=
201511200353 METAR KPAE 200353Z 00000KT 10SM CLR 03/02 A3031 RMK AO2 SLP270 T00330017=
201511200253 METAR KPAE 200253Z 00000KT 10SM CLR 04/02 A3030 RMK AO2 SLP264 T00390022 51027=
201511200153 METAR KPAE 200153Z 34005KT 10SM CLR 04/02 A3027 RMK AO2 SLP256 T00440017=
201511200120 SPECI KPAE 200120Z 34005KT 10SM SCT024 04/02 A3026 RMK AO2 T00440017=
201511200053 METAR KPAE 200053Z 33005KT 10SM BKN020 05/02 A3024 RMK AO2 SLP245 T00500017=
201511200033 SPECI KPAE 200033Z 34004KT 10SM BKN021 05/02 A3023 RMK AO2 T00500017=
201511192353 METAR KPAE 192353Z 36006KT 10SM FEW022 06/01 A3021 RMK AO2 SLP235 T00610011 10072 20044 53022=
201511192253 METAR KPAE 192253Z 34008KT 10SM CLR 06/02 A3019 RMK AO2 SLP226 T00560022=
201511192153 METAR KPAE 192153Z 36010G17KT 10SM CLR 07/01 A3017 RMK AO2 SLP218 T00670011=
201511192053 METAR KPAE 192053Z 35009KT 10SM CLR 07/02 A3015 RMK AO2 SLP212 T00670022 51005=
201511191953 METAR KPAE 191953Z 35011G20KT 10SM CLR 07/03 A3014 RMK AO2 SLP210 T00670028=
201511191853 METAR KPAE 191853Z 35011G17KT 10SM FEW006 06/04 A3014 RMK AO2 SLP210 T00610044=
201511191845 SPECI KPAE 191845Z 01009KT 10SM SCT006 SCT011 06/05 A3014 RMK AO2 T00610050=
201511191810 SPECI KPAE 191810Z 01008G16KT 8SM BKN005 OVC010 05/04 A3014 RMK AO2 CIG 003V008 T00500044=
201511191753 METAR KPAE 191753Z 01010G17KT 3SM BR OVC003 04/04 A3013 RMK AO2 CIG 001V006 SLP207 T00440044 10050 20033 53010=
201511191653 METAR KPAE 191653Z 36010G15KT 6SM BR OVC002 04/04 A3012 RMK AO2 SLP203 T00440044=
201511191636 SPECI KPAE 191636Z 36009G16KT 8SM BKN002 OVC008 04/04 A3012 RMK AO2 CIG 002V006 T00440044=
201511191609 SPECI KPAE 191609Z 35010G16KT 10SM BKN006 04/04 A3012 RMK AO2 CIG 004V009 T00390039=
201511191553 METAR KPAE 191553Z 35005KT 10SM FEW006 04/04 A3011 RMK AO2 SLP201 T00390039=
201511191453 METAR KPAE 191453Z 01005KT 10SM SCT002 04/04 A3010 RMK AO2 SLP197 T00390039 55004=
201511191440 SPECI KPAE 191440Z AUTO 02006KT 10SM BKN002 03/03 A3010 RMK AO2 T00330033=
201511191433 SPECI KPAE 191433Z AUTO 02004KT 2 1/2SM BR BKN002 04/04 A3010 RMK AO2 T00390039=
201511191426 SPECI KPAE 191426Z AUTO 02005KT 1/2SM FG VV001 03/03 A3010 RMK AO2 T00330033 RVRNO=
201511191402 SPECI KPAE 191402Z AUTO 01003KT 1/4SM FG BKN001 OVC043 03/03 A3010 RMK AO2 T00330033 RVRNO=
201511191353 METAR KPAE 191353Z AUTO 35003KT 1/2SM FG BKN001 BKN043 03/03 A3010 RMK AO2 SLP196 T00330033 RVRNO=
201511191345 SPECI KPAE 191345Z AUTO 00000KT 1/2SM FG FEW001 SCT043 03/03 A3010 RMK AO2 T00330033 RVRNO=
201511191336 SPECI KPAE 191336Z AUTO 00000KT 1 1/2SM BR FEW002 SCT043 04/04 A3010 RMK AO2 T00390039=
201511191329 SPECI KPAE 191329Z AUTO 00000KT 6SM BR SCT002 04/04 A3010 RMK AO2 T00390039=
201511191310 SPECI KPAE 191310Z AUTO 04003KT 9SM BKN002 OVC027 04/04 A3010 RMK AO2 T00390039=
201511191253 METAR KPAE 191253Z AUTO VRB04KT 10SM FEW002 OVC027 04/04 A3011 RMK AO2 SLP197 T00440044=
201511191236 SPECI KPAE 191236Z AUTO 07003KT 10SM BKN027 BKN065 OVC110 04/04 A3011 RMK AO2 T00440039=
201511191153 METAR KPAE 191153Z AUTO 12005KT 10SM OVC060 04/04 A3011 RMK AO2 RAE11 SLP200 P0001 60031 7//// T00440044 10061 20044 58017=
201511191100 SPECI KPAE 191100Z AUTO 12005KT 8SM -RA FEW002 BKN031 OVC055 05/04 A3014 RMK AO2 P0001 T00500044=
201511191053 METAR KPAE 191053Z AUTO 11005KT 8SM -RA SCT002 BKN020 OVC060 05/04 A3014 RMK AO2 SLP209 P0001 T00500044=
201511191024 SPECI KPAE 191024Z AUTO 11004KT 6SM -RA BR BKN002 OVC020 05/05 A3015 RMK AO2 P0001 T00500050=
201511190953 METAR KPAE 190953Z AUTO 11005KT 7SM -RA FEW009 OVC018 05/05 A3015 RMK AO2 SLP213 P0006 T00500050=
201511190907 SPECI KPAE 190907Z AUTO 11005KT 4SM -RA BR SCT009 OVC019 05/05 A3016 RMK AO2 P0002 T00500050=
201511190859 SPECI KPAE 190859Z AUTO 10004KT 4SM -RA BR SCT008 BKN013 OVC018 05/05 A3016 RMK AO2 P0001 T00500050=
201511190853 METAR KPAE 190853Z AUTO 09003KT 2 1/2SM RA BR BKN009 OVC016 05/05 A3017 RMK AO2 CIG 007V011 SLP218 P0007 60023 T00500050 58009=
201511190800 METAR KPAE NIL=
201511190653 METAR KPAE 190653Z AUTO 11006KT 4SM RA BR BKN011 OVC016 06/05 A3018 RMK AO2 CIG 007V013 SLPNO P0007 T00560050=
201511190610 SPECI KPAE 190610Z AUTO 12005KT 8SM -RA FEW008 BKN011 OVC036 06/06 A3019 RMK AO2 P0000 T00560056=
201511190553 METAR KPAE 190553Z AUTO 11006KT 8SM -RA BKN009 BKN018 OVC030 06/06 A3019 RMK AO2 RAE34B52 SLP227 P0001 60007 T00610056 10072 20061 58006=
201511190538 SPECI KPAE 190538Z AUTO VRB03KT 10SM SCT011 BKN019 OVC030 06/06 A3020 RMK AO2 RAE34 P0001 T00610056=
201511190512 SPECI KPAE 190512Z AUTO 16005KT 10SM -RA BKN009 OVC014 06/06 A3020 RMK AO2 CIG 005V011 P0000 T00610056=
201511190453 METAR KPAE 190453Z AUTO 17003KT 10SM -RA FEW005 OVC010 06/06 A3020 RMK AO2 SLP231 P0003 T00610056=
201511190425 SPECI KPAE 190425Z 16005KT 10SM -RA BKN014 BKN020 OVC032 06/05 A3021 RMK AO2 P0003 T00610050=
201511190353 METAR KPAE 190353Z 15004KT 3SM RA BR SCT016 BKN022 OVC028 06/05 A3020 RMK AO2 RAB30 SLPNO P0003 T00610050=
201511190341 SPECI KPAE 190341Z 16005KT 5SM -RA BR SCT017 BKN022 OVC080 06/05 A3020 RMK AO2 RAB30 P0000 T00610050=
201511190253 METAR KPAE 190253Z 18004KT 10SM SCT023 SCT070 OVC090 07/04 A3021 RMK AO2 RAB0156E06 SLPNO P0000 60000 T00670044 56008=
201511190153 METAR KPAE 190153Z 16006KT 10SM SCT024 BKN034 OVC080 07/04 A3022 RMK AO2 SLPNO T00720039=
201511190053 METAR KPAE 190053Z 18005KT 10SM FEW024 FEW029 OVC080 07/04 A3023 RMK AO2 SLPNO T00720039=
201511182353 METAR KPAE 182353Z 20008KT 10SM OVC080 08/03 A3024 RMK AO2 SLPNO 6//// T00780028 58007=
201511182253 METAR KPAE 182253Z 17004KT 10SM OVC080 08/02 A3024 RMK AO2 SLPNO T00780022=
201511182153 METAR KPAE 182153Z 18006KT 10SM OVC080 08/03 A3025 RMK AO2 SLPNO T00830028=
201511182053 METAR KPAE 182053Z 18009KT 10SM OVC090 08/03 A3026 RMK AO2 SLPNO 6//// T00830033 58000=
201511181953 METAR KPAE 181953Z 16008KT 10SM BKN090 07/03 A3026 RMK AO2 SLPNO T00720028 PNO $=
201511181853 METAR KPAE 181853Z A3026 RMK AO2 SLPNO RVRNO PNO $=
201511181753 METAR KPAE 181753Z 14008KT 10SM BKN150 06/03 A3026 RMK AO2 SLPNO 6//// T00610028 51010 PNO $=
201511181653 METAR KPAE 181653Z 14006KT 10SM FEW010 05/ A3025 RMK AO2 SLPNO T0050 PWINO PNO $=
201511181553 METAR KPAE 181553Z AUTO A3023 RMK AO2 SLPNO PWINO FZRANO TSNO RVRNO PNO $=
201511181453 METAR KPAE 181453Z A3022 RMK AO2 SLPNO 6//// 53023 RVRNO PNO $=
201511181353 METAR KPAE 181353Z AUTO A3019 RMK AO2 SLPNO PWINO FZRANO RVRNO PNO $=
201511181253 METAR KPAE 181253Z AUTO A3017 RMK AO2 SLPNO PWINO FZRANO RVRNO PNO $=
201511181153 METAR KPAE 181153Z AUTO A3015 RMK AO2 SLPNO 6//// 7//// 53040 PWINO FZRANO RVRNO PNO $=
201511181053 METAR KPAE 181053Z AUTO A3010 RMK AO2 SLPNO PWINO FZRANO RVRNO PNO $=
201511180953 METAR KPAE 180953Z AUTO A3006 RMK AO2 SLPNO PWINO FZRANO RVRNO PNO $=
201511180853 METAR KPAE 180853Z AUTO A3003 RMK AO2 SLPNO 6//// 51047 PWINO FZRANO RVRNO PNO $=
201511180753 METAR KPAE 180753Z AUTO A2999 RMK AO2 SLPNO 401390072 PWINO FZRANO RVRNO PNO $=
201511180653 METAR KPAE 180653Z AUTO A2994 RMK AO2 SLPNO PWINO FZRANO RVRNO PNO $=
201511180553 METAR KPAE 180553Z AUTO A2989 RMK AO2 SLPNO 60003 51049 PWINO FZRANO RVRNO $=
201511180453 METAR KPAE 180453Z A2986 RMK AO2 SLPNO RVRNO $=
201511180353 METAR KPAE 180353Z A2980 RMK AO2 SLPNO RVRNO $=
201511180253 METAR KPAE 180253Z 31015G31KT 270V340 10SM CLR 08/00 A2975 RMK AO2 PK WND 31041/0203 SLP074 60003 T00830000 53054 $=
201511180153 METAR KPAE 180153Z 33018G32KT 10SM OVC080 09/02 A2967 RMK AO2 PK WND 32038/0122 RAE14 SLP048 P0000 T00890022=
201511180053 METAR KPAE 180053Z 31016G34KT 280V340 10SM -RA FEW016 OVC055 08/04 A2962 RMK AO2 PK WND 31038/0029 SLP032 P0003 T00830039=
201511180019 SPECI KPAE 180019Z 31018G31KT 6SM -RA SCT014 SCT038 OVC048 09/06 A2958 RMK AO2 PK WND 30031/0013 P0001 T00890061=
201511172353 METAR KPAE 172353Z 31013G26KT 270V360 10SM -RA BKN014 BKN019 OVC043 09/08 A2958 RMK AO2 PK WND 31026/2352 RAE25B44 SLP019 P0005 60054 T00940078 10139 20094 53032=
201511172345 SPECI KPAE 172345Z VRB05KT 10SM -RA BKN018 OVC039 10/08 A2957 RMK AO2 RAE25B44 PRESRR P0004 T01000083=
201511172325 SPECI KPAE 172325Z 00000KT 10SM FEW014 BKN031 OVC037 10/08 A2954 RMK AO2 RAE25 P0004 T01000083=
201511172253 METAR KPAE 172253Z 33007KT 2SM RA BR BKN004 BKN009 OVC016 10/09 A2953 RMK AO2 WSHFT 2143 SLP999 P0045 T01000094=
201511172200 SPECI KPAE 172200Z 24012G23KT 2SM R16R/4000VP6000FT +RA BR BKN007 OVC012 12/11 A2952 RMK AO2 WSHFT 2143 PRESRR P0010 T01170111=
201511172158 SPECI KPAE 172158Z 33009G23KT 310V010 2 1/2SM RA BR FEW007 OVC012 12/12 A2952 RMK AO2 WSHFT 2143 PRESRR P0005 T01220117=
201511172156 SPECI KPAE 172156Z 32015G23KT 290V350 4SM RA BR FEW007 OVC012 13/12 A2952 RMK AO2 P0002 T01330122=
201511172153 METAR KPAE 172153Z 25014G31KT 6SM -RA BR BKN015 13/12 A2951 RMK AO2 PK WND 22048/2055 SLP993 P0002 T01330122=
201511172115 SPECI KPAE 172115Z 21027G42KT 10SM -RA BKN015 OVC020 13/12 A2948 RMK AO2 PK WND 22048/2055 P0000 T01330122=
201511172053 METAR KPAE 172053Z 20032G44KT 10SM -RA BKN014 BKN018 OVC080 14/12 A2949 RMK AO2 PK WND 20050/2041 SLP986 P0001 60002 T01390122 58040=
201511172000 SPECI KPAE 172000Z 20030G44KT 10SM -RA BKN014 OVC019 13/12 A2953 RMK AO2 PK WND 21044/1957 P0000 T01330122=
201511171953 METAR KPAE 171953Z 20032G42KT 10SM -RA OVC016 13/12 A2954 RMK AO2 PK WND 19045/1943 SLP003 P0000 T01330122=
201511171853 METAR KPAE 171853Z 20030G45KT 10SM -RA BKN016 OVC090 13/12 A2958 RMK AO2 PK WND 20046/1835 SLP017 P0001 T01330117=
201511171841 SPECI KPAE 171841Z 20029G46KT 10SM -RA BKN016 OVC090 13/12 A2959 RMK AO2 PK WND 20046/1835 P0000 T01330117=
201511171753 METAR KPAE 171753Z 20027G38KT 10SM -RA OVC014 13/12 A2961 RMK AO2 PK WND 20039/1730 SLP028 P0001 60002 T01280117 10133 20100 58025=
201511171702 SPECI KPAE 171702Z 20028G43KT 10SM -RA BKN014 OVC020 13/12 A2964 RMK AO2 PK WND 19038/1655 P0000 T01330117=
201511171653 METAR KPAE 171653Z 20031G43KT 10SM -RA BKN016 BKN022 OVC090 13/12 A2964 RMK AO2 PK WND 21043/1653 RAB47 SLP038 P0000 T01330117=
201511171553 METAR KPAE 171553Z 20026G38KT 10SM OVC014 13/12 A2966 RMK AO2 PK WND 20038/1550 SLP045 T01280117=
201511171531 SPECI KPAE 171531Z 20026G33KT 10SM BKN014 OVC029 13/12 A2967 RMK AO2 PK WND 20034/1516 T01280117=
201511171524 SPECI KPAE 171524Z 20023G34KT 10SM BKN014 OVC038 13/12 A2968 RMK AO2 PK WND 20034/1516 T01280117=
201511171453 METAR KPAE 171453Z COR 18023G31KT 10SM BKN014 OVC029 12/12 A2969 RMK AO2 PK WND 18037/1356 RAE20 SLP054 P0000 60001 T01220117 58022=
201511171413 SPECI KPAE 171413Z AUTO 19022G31KT 10SM -RA BKN012 BKN060 OVC080 12/12 A2971 RMK AO2 PK WND 18037/1356 P0000 T01220117=
201511171353 METAR KPAE 171353Z AUTO 20027G37KT 9SM -RA BKN009 OVC014 12/12 A2972 RMK AO2 PK WND 20037/1345 CIG 007V011 SLP066 P0001 T01220117=
201511171253 METAR KPAE 171253Z AUTO 19025G31KT 10SM -RA OVC007 12/11 A2972 RMK AO2 PK WND 19031/1252 RAB23 PRESFR SLP065 P0000 T01170111=
201511171225 SPECI KPAE 171225Z AUTO 20011G19KT 10SM -RA OVC005 11/11 A2975 RMK AO2 RAB23 CIG 004V008 P0000 T01110106=
201511171153 METAR KPAE 171153Z AUTO 18016G20KT 10SM OVC002 10/10 A2975 RMK AO2 RAE18 SLP076 P0001 60003 70010 T01000100 10100 20061 58028=
201511171106 SPECI KPAE 171106Z AUTO 15007KT 4SM R16R/6000VP6000FT -RA BR OVC002 08/08 A2980 RMK AO2 PRESFR P0001 T00830083=
201511171053 METAR KPAE 171053Z AUTO 00000KT 4SM -RA BR OVC001 07/07 A2983 RMK AO2 RAB35 SLP103 P0000 T00720072=
201511170953 METAR KPAE 170953Z AUTO 18007KT 10SM OVC002 08/08 A2983 RMK AO2 RAE45 SLP104 P0001 T00830083=
201511170853 METAR KPAE 170853Z AUTO 19009KT 9SM -RA OVC003 08/08 A2984 RMK AO2 RAB15 SLP106 P0001 60001 T00780078 56011=
201511170821 SPECI KPAE 170821Z AUTO 16004KT 10SM -RA OVC004 07/07 A2985 RMK AO2 RAB15 P0000 T00720072=
201511170753 METAR KPAE 170753Z AUTO 17006KT 10SM OVC005 07/07 A2985 RMK AO2 RAE0656 SLP111 P0000 T00720067 400720028=
201511170653 METAR KPAE 170653Z AUTO 17009KT 10SM -RA OVC006 07/06 A2985 RMK AO2 RAB45 SLP112 P0000 T00670061=
201511170604 SPECI KPAE 170604Z AUTO 17009KT 10SM OVC009 07/06 A2986 RMK AO2 T00670056=
201511170553 METAR KPAE 170553Z AUTO 17009KT 10SM OVC010 06/06 A2987 RMK AO2 RAE26 SLP119 P0000 60006 T00610056 10072 20056 56014=
201511170453 METAR KPAE 170453Z AUTO 15010KT 8SM -RA OVC012 06/05 A2988 RMK AO2 SLP122 P0002 T00610050=
201511170430 SPECI KPAE 170430Z AUTO 15011KT 10SM -RA OVC014 06/05 A2988 RMK AO2 P0001 T00610050=
201511170353 METAR KPAE 170353Z 15009KT 6SM -RA BR OVC017 06/05 A2989 RMK AO2 RAB23 SLP124 P0003 T00560050=
201511170253 METAR KPAE 170253Z 15010KT 7SM FEW007 BKN017 OVC022 06/05 A2991 RMK AO2 RAE17 SLP133 P0000 60001 T00560050 58014=
201511170224 SPECI KPAE 170224Z 15009KT 6SM BR FEW008 BKN013 OVC024 06/05 A2992 RMK AO2 RAE17 P0000 T00560050=
201511170206 SPECI KPAE 170206Z 15011KT 6SM -RA BR BKN013 BKN021 OVC032 06/05 A2993 RMK AO2 P0000 T00560050=
201511170153 METAR KPAE 170153Z 16011KT 5SM -RA BR SCT014 BKN020 OVC032 06/05 A2993 RMK AO2 SLP140 P0001 T00560050=
201511170053 METAR KPAE 170053Z 17011G19KT 10SM -RA BKN020 OVC028 07/04 A2995 RMK AO2 PK WND 19028/0014 RAB32 SLP146 P0000 T00720039=
201511170005 SPECI KPAE 170005Z 17018G26KT 10SM FEW024 OVC030 07/03 A2995 RMK AO2 PK WND 17026/0004 T00720033=
201511162353 METAR KPAE 162353Z 17017G22KT 10SM BKN028 OVC037 07/03 A2995 RMK AO2 SLP147 60001 T00720033 10072 20039 56029=
201511162253 METAR KPAE 162253Z 16016G25KT 10SM FEW027 BKN038 OVC100 07/03 A2997 RMK AO2 PK WND 16029/2230 RAE2154 SLP152 P0000 T00720028=
201511162153 METAR KPAE 162153Z 16013KT 10SM -RA SCT027 OVC042 06/03 A3001 RMK AO2 SLP165 P0000 T00610033=
201511162127 SPECI KPAE 162127Z 16014G22KT 10SM -RA BKN028 OVC042 06/03 A3002 RMK AO2 P0000 T00610033=
201511162053 METAR KPAE 162053Z 15013KT 10SM -RA FEW031 OVC050 06/03 A3004 RMK AO2 RAE12B46 SLP176 P0000 60001 T00560033 58024=
201511162011 SPECI KPAE 162011Z 15012KT 10SM -RA SCT029 BKN049 OVC060 06/03 A3006 RMK AO2 P0000 T00560028=
201511162000 SPECI KPAE 162000Z 15011KT 10SM -RA BKN029 OVC038 05/03 A3007 RMK AO2 P0000 T00500028=
201511161953 METAR KPAE 161953Z 15010KT 9SM -RA OVC031 05/03 A3006 RMK AO2 SLP184 P0001 T00500028=
201511161853 METAR KPAE 161853Z 14009G16KT 10SM -RA BKN035 BKN042 OVC060 04/02 A3011 RMK AO2 SLP198 P0000 T00440022=
201511161753 METAR KPAE 161753Z 15012KT 10SM -RA SCT042 BKN055 OVC070 04/02 A3011 RMK AO2 RAB29 SLP201 P0000 60000 T00390017 10039 20028 50000=
201511161653 METAR KPAE 161653Z 15011KT 10SM OVC033 03/01 A3012 RMK AO2 SLP203 T00330011=
201511161553 METAR KPAE 161553Z 15010KT 10SM CLR 03/01 A3012 RMK AO2 SLP205 T00330011=
201511161453 METAR KPAE 161453Z 15007G16KT 10SM CLR 03/02 A3011 RMK AO2 SLP201 T00280017 51005=
201511161353 METAR KPAE 161353Z AUTO VRB05KT 10SM CLR 03/02 A3011 RMK AO2 SLP199 T00280017=
201511161253 METAR KPAE 161253Z AUTO 16008KT 10SM CLR 03/02 A3011 RMK AO2 SLP201 T00280022=
201511161153 METAR KPAE 161153Z AUTO 16008KT 10SM CLR 03/03 A3010 RMK AO2 SLP196 60000 70009 T00330028 10056 20033 50014=
201511161115 SPECI KPAE 161115Z AUTO 15006KT 10SM FEW003 03/03 A3010 RMK AO2 T00330033=
201511161053 METAR KPAE 161053Z AUTO 17005KT 10SM CLR 03/03 A3011 RMK AO2 SLP198 T00330028=
201511160953 METAR KPAE 160953Z AUTO 17007KT 10SM CLR 04/03 A3008 RMK AO2 SLP190 T00390033=
201511160853 METAR KPAE 160853Z AUTO 16008KT 10SM BKN039 04/04 A3005 RMK AO2 SLP181 60000 T00440039 51027=
201511160753 METAR KPAE 160753Z AUTO 18004KT 10SM FEW035 BKN044 04/04 A3004 RMK AO2 RAE0657 SLP176 P0000 T00440039 400670033=
201511160708 SPECI KPAE 160708Z AUTO 21006KT 10SM FEW009 BKN041 OVC055 05/04 A3001 RMK AO2 RAE0657 P0000 T00500044=
201511160653 METAR KPAE 160653Z AUTO 19005KT 10SM -RA SCT011 BKN032 OVC060 06/04 A3000 RMK AO2 SLP164 P0000 T00560044=
201511160633 SPECI KPAE 160633Z AUTO 00000KT 10SM -RA FEW009 BKN014 OVC032 06/04 A3000 RMK AO2 P0000 T00560044=
201511160607 SPECI KPAE 160607Z AUTO VRB03KT 10SM -RA FEW009 BKN030 OVC035 06/04 A2998 RMK AO2 P0000 T00560044=
201511160553 METAR KPAE 160553Z AUTO 19004KT 10SM -RA FEW028 OVC037 06/04 A2997 RMK AO2 RAB45 SLP153 P0001 60001 T00560039 10061 20044 53031=
201511160453 METAR KPAE 160453Z 00000KT 10SM FEW037 SCT048 OVC060 06/04 A2994 RMK AO2 SLP141 T00560039=
201511160353 METAR KPAE 160353Z 28005KT 10SM FEW060 06/02 A2991 RMK AO2 SLP130 T00560017=
201511160253 METAR KPAE 160253Z 29004KT 10SM FEW039 SCT046 06/02 A2988 RMK AO2 SLP122 T00560022 53022=
201511160153 METAR KPAE 160153Z 26005KT 10SM FEW050 06/02 A2985 RMK AO2 SLP113 T00560022=
201511160053 METAR KPAE 160053Z 19004KT 10SM SCT055 06/03 A2984 RMK AO2 SLP107 T00560033=
201511152353 METAR KPAE 152353Z 19007KT 10SM SCT030 07/03 A2981 RMK AO2 SLP099 T00670033 10067 20044 53019=
201511152253 METAR KPAE 152253Z 20007KT 10SM CLR 07/03 A2979 RMK AO2 SLP090 T00670033=
201511152153 METAR KPAE 152153Z 20009KT 10SM SCT007 06/04 A2977 RMK AO2 SLP084 T00610039=
201511152122 SPECI KPAE 152122Z 20010KT 10SM SCT007 05/03 A2976 RMK AO2 T00500033=
201511152053 METAR KPAE 152053Z 24007KT 10SM OVC007 04/03 A2976 RMK AO2 SLP080 T00440033 51016=
201511151953 METAR KPAE 151953Z 23009KT 10SM OVC006 05/04 A2974 RMK AO2 CIG 006V011 SLP074 T00500039=
201511151903 SPECI KPAE 151903Z 21012KT 10SM BKN006 OVC050 05/04 A2973 RMK AO2 T00500039=
201511151853 METAR KPAE 151853Z 22011KT 10SM FEW007 OVC050 05/04 A2973 RMK AO2 SLP069 T00500039=
201511151834 SPECI KPAE 151834Z 21010KT 10SM BKN007 BKN038 OVC110 05/04 A2972 RMK AO2 T00500039=
201511151826 SPECI KPAE 151826Z 20012KT 10SM SCT007 BKN038 OVC110 05/04 A2972 RMK AO2 T00500039=
201511151753 METAR KPAE 151753Z 22010KT 10SM BKN007 OVC015 04/04 A2971 RMK AO2 SLP063 60008 T00440044 10050 20033 51028=
201511151743 SPECI KPAE 151743Z 21009KT 10SM BKN007 BKN013 OVC018 05/04 A2970 RMK AO2 CIG 006V010 T00500044=
201511151740 SPECI KPAE 151740Z 21008KT 10SM SCT007 BKN015 OVC021 04/04 A2970 RMK AO2 T00440039=
201511151653 METAR KPAE 151653Z 19008KT 10SM SCT015 BKN024 OVC032 04/04 A2969 RMK AO2 SLP057 T00440039=
201511151553 METAR KPAE 151553Z 11004KT 10SM OVC050 04/03 A2965 RMK AO2 RAE07 SLP044 P0000 T00440028=
201511151453 METAR KPAE 151453Z 00000KT 10SM -RA OVC031 04/03 A2962 RMK AO2 SLP035 P0001 60008 T00390033 50019=
201511151353 METAR KPAE 151353Z AUTO 32006KT 10SM -RA FEW010 SCT014 OVC023 04/03 A2960 RMK AO2 SLP027 P0003 T00390033=
201511151342 SPECI KPAE 151342Z AUTO 32010G16KT 10SM -RA BKN010 BKN015 OVC021 04/03 A2960 RMK AO2 P0002 T00390033=
201511151253 METAR KPAE 151253Z AUTO 32007KT 10SM -RA OVC007 04/03 A2957 RMK AO2 CIG 005V010 SLP016 P0004 T00390033=
201511151153 METAR KPAE 151153Z AUTO 32008G14KT 300V010 7SM -RA OVC007 03/03 A2956 RMK AO2 SLP012 P0009 60061 70157 T00330033 10056 20033 53007=
201511151126 SPECI KPAE 151126Z AUTO 33009KT 5SM RA BR OVC008 03/03 A2954 RMK AO2 P0005 T00330033=
201511151106 SPECI KPAE 151106Z AUTO 32013G20KT 6SM RA BR BKN010 OVC016 03/03 A2954 RMK AO2 P0002 T00330033=
201511151053 METAR KPAE 151053Z AUTO 33014G24KT 6SM -RA BR SCT008 OVC015 04/04 A2953 RMK AO2 SLP004 P0009 T00390039=
201511151004 SPECI KPAE 151004Z AUTO 30007G14KT 6SM -RA BKN008 OVC014 04/M01 A2953 RMK AO2 P0001 T00441006=
201511150953 METAR KPAE 150953Z AUTO 34007KT 5SM -RA BKN010 OVC015 04/00 A2953 RMK AO2 SLP001 P0014 T00440000=
201511150939 SPECI KPAE 150939Z AUTO 33007KT 4SM RA FEW005 OVC012 04/00 A2953 RMK AO2 P0011 T00440000=
201511150923 SPECI KPAE 150923Z AUTO 34009KT 5SM RA SCT005 BKN009 OVC015 04/M02 A2954 RMK AO2 P0008 T00441017=
201511150913 SPECI KPAE 150913Z AUTO 31010KT 3SM RA BKN004 OVC010 04/M01 A2954 RMK AO2 CIG 003V007 P0005 T00441006=
201511150853 METAR KPAE 150853Z AUTO 33009KT 3SM RA BKN006 OVC012 05/M01 A2954 RMK AO2 CIG 004V009 SLP003 P0010 60029 T00501006 56010=
201511150836 SPECI KPAE 150836Z AUTO 33008G16KT 4SM -RA BKN006 BKN014 OVC019 05/00 A2954 RMK AO2 P0007 T00500000=
201511150809 SPECI KPAE 150809Z AUTO 34009G17KT 5SM -RA FEW007 OVC015 05/00 A2953 RMK AO2 P0003 T00500000=
201511150753 METAR KPAE 150753Z AUTO 34008KT 5SM -RA SCT004 BKN010 OVC013 06/00 A2954 RMK AO2 CIG 007V011 SLP006 P0011 T00560000 400830056=
201511150653 METAR KPAE 150653Z AUTO 36008KT 4SM -RA BKN002 OVC028 06/M01 A2954 RMK AO2 SLP003 P0008 T00561006=
201511150625 SPECI KPAE 150625Z AUTO 36007KT 4SM -RA OVC002 06/00 A2955 RMK AO2 P0004 T00560000=
201511150614 SPECI KPAE 150614Z AUTO 01009KT 2 1/2SM RA OVC002 06/00 A2955 RMK AO2 P0003 T00560000=
201511150553 METAR KPAE 150553Z AUTO 35006KT 4SM RA OVC002 06/00 A2957 RMK AO2 SLP014 P0008 60042 T00560000 10061 20056 56017=
201511150539 SPECI KPAE 150539Z AUTO 35007KT 2 1/2SM -RA OVC002 06/M01 A2957 RMK AO2 P0005 T00561006=
201511150500 SPECI KPAE 150500Z AUTO 35008KT 4SM -RA BKN004 OVC027 06/00 A2957 RMK AO2 P0001 T00560000=
201511150453 METAR KPAE 150453Z 36007KT 2SM -RA BKN002 BKN006 OVC041 06/00 A2958 RMK AO2 SLP018 P0007 T00560000=
201511150353 METAR KPAE 150353Z 33007KT 2SM -RA OVC002 06/00 A2960 RMK AO2 CIG 001V006 SLP025 P0006 T00610000=
201511150253 METAR KPAE 150253Z 34005KT 2SM -RA BKN002 OVC006 06/01 A2962 RMK AO2 SLP031 P0005 60021 T00610006 56021=
201511150153 METAR KPAE 150153Z 33006KT 2SM -RA BKN002 OVC041 06/01 A2964 RMK AO2 SLP038 P0006 T00610006=
201511150122 SPECI KPAE 150122Z 34008KT 2SM -RA BKN002 OVC009 06/01 A2964 RMK AO2 P0003 T00610006=
201511150100 SPECI KPAE 150100Z 35005KT 5SM -RA BKN002 OVC033 06/01 A2965 RMK AO2 P0001 T00610006=
201511150053 METAR KPAE 150053Z 35006KT 2SM -RA BKN003 OVC040 06/01 A2965 RMK AO2 SLP043 P0010 T00610006=
201511142353 METAR KPAE 142353Z 36005KT 2SM -RA BKN003 OVC008 07/01 A2968 RMK AO2 SLP053 P0010 60023 T00670006 10078 20067 56013=
201511142324 SPECI KPAE 142324Z 35007KT 2SM RA BR BKN002 OVC011 07/07 A2968 RMK AO2 P0005 T00670067=
201511142300 SPECI KPAE 142300Z 34007KT 1SM R16R/P6000FT RA BR OVC002 07/07 A2968 RMK AO2 P0001 T00670067=
201511142253 METAR KPAE 142253Z 34006KT 1/2SM R16R/P6000FT -RA FG OVC002 07/07 A2969 RMK AO2 SLP055 P0006 T00670067=
201511142246 SPECI KPAE 142246Z 34005KT 1SM R16R/P6000FT RA BR BKN002 BKN008 OVC012 07/07 A2969 RMK AO2 P0005 T00670067=
201511142211 SPECI KPAE 142211Z 02005KT 3SM -RA BR BKN005 OVC049 07/07 A2969 RMK AO2 P0001 T00720067=
201511142153 METAR KPAE 142153Z 04003KT 10SM -RA SCT009 BKN043 OVC055 08/07 A2969 RMK AO2 RAB2058E08B31 SLP056 P0000 T00780067=
201511142113 SPECI KPAE 142113Z 00000KT 10SM SCT005 OVC045 08/07 A2971 RMK AO2 RAB2058E08 P0000 T00780067=
201511142053 METAR KPAE 142053Z 11004KT 6SM BR BKN005 OVC045 07/06 A2972 RMK AO2 RAE33 SLP066 P0002 60007 T00720061 58024=
201511142007 SPECI KPAE 142007Z 00000KT 6SM -RA BR BKN005 OVC045 07/06 A2974 RMK AO2 P0002 T00720061=
201511142000 SPECI KPAE 142000Z 12004KT 5SM -RA BR OVC045 07/06 A2974 RMK AO2 P0001 T00720061=
201511141953 METAR KPAE 141953Z 12003KT 8SM -RA BKN005 OVC041 07/06 A2975 RMK AO2 SLP075 P0002 T00720061=
201511141857 SPECI KPAE 141857Z 11003KT 10SM -RA BKN005 OVC041 07/06 A2977 RMK AO2 P0000 T00720061=
201511141853 METAR KPAE 141853Z 10003KT 2SM -RA BR SCT005 OVC045 07/06 A2978 RMK AO2 SLP086 P0003 T00720061=
201511141755 SPECI KPAE 141755Z 00000KT 2SM R16R/4000VP6000FT -RA BR SCT005 OVC045 07/06 A2979 RMK AO2 P0000 T00670056=
201511141753 METAR KPAE 141753Z 00000KT 4SM R16R/3000VP6000FT -RA BR BKN008 OVC045 07/06 A2979 RMK AO2 SLP091 P0004 60031 T00670061 10072 20061 58001=
201511141720 SPECI KPAE 141720Z 00000KT 6SM -RA BR BKN008 OVC045 06/06 A2980 RMK AO2 P0001 T00610056=
201511141653 METAR KPAE 141653Z 00000KT 10SM -RA BKN045 OVC055 07/06 A2980 RMK AO2 SLP091 P0003 T00670061=
201511141553 METAR KPAE 141553Z 00000KT 6SM -RA BR OVC039 07/06 A2980 RMK AO2 SLP093 P0004 T00670056=
201511141453 METAR KPAE 141453Z 00000KT 9SM -RA OVC048 07/06 A2979 RMK AO2 SLP091 P0004 60020 T00670056 58006 $=
201511141353 METAR KPAE 141353Z AUTO 07004KT 6SM -RA BR OVC042 07/06 A2981 RMK AO2 SLP096 P0006 T00670061=
201511141253 METAR KPAE 141253Z AUTO 04003KT 5SM -RA BR OVC037 07/06 A2981 RMK AO2 SLP097 P0010 T00720061=
201511141153 METAR KPAE 141153Z AUTO 04004KT 6SM -RA BR OVC040 07/07 A2981 RMK AO2 SLP096 P0014 60039 7//// T00720067 10089 20072 58001=
201511141053 METAR KPAE 141053Z AUTO 02008KT 5SM RA BR FEW004 OVC043 08/08 A2982 RMK AO2 SLP100 P0012 T00780078=
201511140953 METAR KPAE 140953Z AUTO 02007KT 6SM -RA BR SCT002 OVC042 08/08 A2981 RMK AO2 SLP095 P0006 T00830083=
201511140943 SPECI KPAE 140943Z AUTO 02006KT 5SM -RA BR SCT003 OVC020 08/08 A2981 RMK AO2 P0005 T00830083=
201511140934 SPECI KPAE 140934Z AUTO 02006KT 2SM -RA BR OVC003 08/08 A2982 RMK AO2 P0004 T00830083=
201511140922 SPECI KPAE 140922Z AUTO 36004KT 3/4SM R16R/4000VP6000FT RA BR BKN004 OVC028 08/08 A2982 RMK AO2 P0003 T00830083=
201511140915 SPECI KPAE 140915Z AUTO VRB05KT 1SM R16R/4000VP6000FT -RA BR BKN004 OVC028 08/08 A2982 RMK AO2 P0001 T00830083=
201511140911 SPECI KPAE 140911Z AUTO 36004KT 1 1/2SM -RA BR SCT002 BKN010 OVC028 08/08 A2982 RMK AO2 P0001 T00830083=
201511140853 METAR KPAE 140853Z AUTO 03006KT 4SM -RA BR SCT002 BKN016 OVC040 08/08 A2981 RMK AO2 SLP096 P0003 60007 T00830083 58013=
201511140826 SPECI KPAE 140826Z AUTO 01004KT 3SM -RA BR FEW001 BKN020 OVC032 08/08 A2983 RMK AO2 P0001 T00830083=
201511140753 METAR KPAE 140753Z AUTO 34003KT 7SM -RA OVC032 08/08 A2984 RMK AO2 SLP104 P0003 T00830083 401330083=
201511140720 SPECI KPAE 140720Z AUTO 00000KT 7SM -RA OVC030 08/08 A2984 RMK AO2 P0001 T00830083=
201511140653 METAR KPAE 140653Z AUTO 00000KT 10SM -RA OVC029 08/08 A2983 RMK AO2 SLP103 P0001 T00830083=
201511140553 METAR KPAE 140553Z AUTO 33003KT 6SM -RA BR OVC025 09/08 A2985 RMK AO2 SLP110 P0006 60013 T00890083 10100 20089 58002=
201511140526 SPECI KPAE 140526Z AUTO 00000KT 4SM RA BR FEW010 BKN022 OVC026 09/09 A2985 RMK AO2 P0004 T00890089=
201511140511 SPECI KPAE 140511Z AUTO 35003KT 3SM -RA BR BKN014 BKN020 OVC025 09/09 A2986 RMK AO2 P0002 T00890089=
201511140500 METAR KPAE NIL=
201511140453 METAR KPAE 140453Z 00000KT 5SM -RA BR FEW005 SCT015 OVC025 09/09 A2986 RMK AO2 SLP111 P0001 T00940089=
201511140433 SPECI KPAE 140433Z 00000KT 5SM -RA BR SCT005 OVC026 09/09 A2986 RMK AO2 P0001 T00940094=
201511140353 METAR KPAE 140353Z 12003KT 8SM -RA OVC024 09/09 A2986 RMK AO2 RAB50 SLP111 P0000 T00940089=
201511140253 METAR KPAE 140253Z 08004KT 10SM OVC024 09/08 A2986 RMK AO2 RAE08 SLP112 P0001 60006 T00940083 50003=
201511140215 SPECI KPAE 140215Z VRB03KT 10SM OVC026 09/09 A2987 RMK AO2 RAE08 P0001 T00940089=
201511140155 SPECI KPAE 140155Z 31003KT 2 1/2SM -RA BR OVC024 09/09 A2987 RMK AO2 P0001 T00940089=
201511140153 METAR KPAE 140153Z 26003KT 3SM -RA BR BKN008 OVC024 09/09 A2987 RMK AO2 SLP116 P0002 T00940089=
201511140053 METAR KPAE 140053Z 36005KT 7SM -RA BKN008 OVC022 09/09 A2985 RMK AO2 SLP108 P0003 T00940089=
201511140040 SPECI KPAE 140040Z 34006KT 5SM -RA BR FEW008 SCT012 OVC022 09/09 A2985 RMK AO2 P0003 T00940089=
201511140023 SPECI KPAE 140023Z 33008G16KT 2SM -RA BR SCT008 OVC017 09/09 A2985 RMK AO2 P0002 T00940094=
201511132353 METAR KPAE 132353Z 33008KT 2SM -RA BR BKN007 OVC012 10/10 A2985 RMK AO2 RAB2256 SLP108 P0003 6//// T01000100 10133 20100 53021=
201511132337 SPECI KPAE 132337Z 32006KT 2SM -RA BR OVC007 10/10 A2984 RMK AO2 RAB2256 P0002 T01000100=
201511132324 SPECI KPAE 132324Z 35008KT 2SM -RA BR BKN004 OVC008 10/10 A2983 RMK AO2 RAB2256 CIG 002V007 P0000 T01000100=
201511132256 SPECI KPAE 132256Z 30008KT 10SM -RA BKN004 BKN009 OVC014 11/11 A2981 RMK AO2 RAB56 CIG 001V007 P0000 T01110106=
201511132253 METAR KPAE 132253Z 27009KT 1SM R16R/P6000FT BR OVC002 11/11 A2981 RMK AO2 PK WND 19026/2230 WSHFT 2230 SLP095 T01110111=
201511132250 SPECI KPAE 132250Z 26011KT 1SM R16R/P6000FT BR OVC002 12/11 A2981 RMK AO2 PK WND 19026/2230 WSHFT 2230=
201511132153 METAR KPAE 132153Z 18020G30KT 10SM OVC005 13/12 A2979 RMK AO2 PK WND 19034/2105 RAB05E27 SLP087 P0000 T01280117 $=
201511132148 SPECI KPAE 132148Z 10SM BKN011 OVC014 13/12 A2979 RMK AO2 PK WND 19034/2105 RAB05E27 CIG 007V012 P0000 $=
201511132053 METAR KPAE 132053Z 19018G32KT 5SM BR SCT004 OVC008 13/12 A2980 RMK AO2 PK WND 19032/2049 RAE01 SLP092 P0000 60008 T01280117 58004=
201511131953 METAR KPAE 131953Z COR 20017G29KT 5SM -RA SCT004 OVC008 12/12 A2981 RMK AO2 PK WND 19029/1946 SLP096 P0003 T01220117=
201511131917 SPECI KPAE 131917Z 20018G26KT 1 3/4SM R16R/5500VP6000FT -RA BR BKN008 OVC015 12/12 A2982 RMK AO2 PK WND 19029/1857 P0002 T01220117=
201511131907 SPECI KPAE 131907Z 20020G29KT 2SM R16R/6000VP6000FT -RA BR SCT009 OVC013 12/12 A2982 RMK AO2 PK WND 19029/1857 P0001 T01220117=
201511131853 METAR KPAE 131853Z 19018G29KT 1 1/4SM R16R/5500VP6000FT -RA BR BKN009 OVC016 12/12 A2982 RMK AO2 PK WND 19032/1803 SLP098 P0005 T01220117=
201511131800 SPECI KPAE 131800Z 19022G34KT 1 1/4SM R16R/5500VP6000FT -RA BR BKN009 OVC016 12/12 A2981 RMK AO2 PK WND 20031/1756 P0000 T01220117=
201511131753 METAR KPAE 131753Z 19027G34KT 2 1/2SM R16R/6000VP6000FT -RA BR BKN009 OVC014 12/12 A2981 RMK AO2 PK WND 19035/1738 SLP096 P0001 60003 T01220117 10122 20117 51013=
201511131730 SPECI KPAE 131730Z 19025G33KT 2 1/2SM -RA BR BKN009 OVC014 12/12 A2981 RMK AO2 PK WND 19033/1729 P0000 T01220117=
201511131710 SPECI KPAE 131710Z 19023G29KT 10SM -RA BKN010 OVC016 12/12 A2981 RMK AO2 PK WND 19029/1710 CIG 006V014 P0000 T01220117=
201511131653 METAR KPAE 131653Z 19021G29KT 3SM -RA BR BKN009 OVC015 12/12 A2981 RMK AO2 PK WND 19035/1558 RAB07 CIG 006V012 SLP095 P0001 T01170117=
201511131642 SPECI KPAE 131642Z 19022G31KT 2 1/2SM -RA BR BKN007 OVC015 12/12 A2980 RMK AO2 PK WND 19035/1558 RAB07 P0001 T01220117=
201511131553 METAR KPAE 131553Z 19030G37KT 10SM BKN007 OVC020 12/ A2980 RMK AO2 PK WND 19042/1454 SLP090 T0122 $=
201511131507 SPECI KPAE 131507Z 19028G36KT 10SM BKN007 OVC020 12/ A2978 RMK AO2 PK WND 19042/1454 T0122 $=
201511131500 SPECI KPAE 131500Z 19028G42KT 10SM BKN012 OVC020 12/ A2977 RMK AO2 PK WND 19042/1454 T0122 $=
201511131453 METAR KPAE 131453Z 19029G38KT 10SM SCT011 BKN016 OVC020 12/ A2977 RMK AO2 PK WND 19038/1449 RAE03 SLP084 P0000 60001 T0122 55008 $=
201511131442 SPECI KPAE 131442Z AUTO 19024G34KT 10SM BKN011 OVC018 12/ A2978 RMK AO2 PK WND 18038/1412 RAE03 P0000 T0122 $=
201511131422 SPECI KPAE 131422Z AUTO 19025G37KT 10SM BKN009 OVC017 12/ A2978 RMK AO2 PK WND 18038/1412 RAE03 CIG 008V013 P0000 T0122 $=
201511131419 SPECI KPAE 131419Z AUTO 19026G38KT 10SM SCT009 OVC017 12/ A2977 RMK AO2 PK WND 18038/1412 RAE03 P0000 T0122 $=
201511131416 SPECI KPAE 131416Z AUTO 19027G38KT 10SM BKN009 OVC015 12/ A2977 RMK AO2 PK WND 18038/1412 RAE03 P0000 T0122 $=
201511131353 METAR KPAE 131353Z AUTO 19026G35KT 10SM -RA BKN010 OVC016 12/ A2977 RMK AO2 PK WND 20036/1338 RAE1257B22 SLP083 P0000 T0122 $=
201511131327 SPECI KPAE 131327Z AUTO 19024G34KT 10SM -RA BKN010 OVC015 12/ A2978 RMK AO2 PK WND 18036/1314 RAE1257B22 CIG 007V013 P0000 T0122 $=
201511131253 METAR KPAE 131253Z AUTO 18026G35KT 10SM -RA BKN009 OVC013 12/ A2976 RMK AO2 PK WND 18037/1243 RAB02 SLP080 P0001 T0122 $=
201511131243 SPECI KPAE 131243Z AUTO 18029G37KT 9SM -RA OVC009 12/ A2977 RMK AO2 PK WND 18037/1243 RAB02 PRESFR P0001 T0122 $=
201511131231 SPECI KPAE 131231Z AUTO 19025G32KT 9SM -RA BKN010 OVC016 12/ A2979 RMK AO2 PK WND 19033/1203 RAB02 P0001 T0117 $=
201511131153 METAR KPAE 131153Z AUTO 18025G35KT 10SM BKN009 OVC016 12/ A2980 RMK AO2 PK WND 18038/1127 CIG 006V013 SLP092 60001 70001 T0117 10117 20089 55004 $=
201511131122 SPECI KPAE 131122Z AUTO 18028G34KT 10SM OVC009 12/ A2978 RMK AO2 PK WND 18037/1107 CIG 007V013 T0117 $=
201511131100 SPECI KPAE 131100Z AUTO 18029G36KT 10SM BKN010 OVC013 12/ A2978 RMK AO2 PK WND 17036/1059 CIG 007V011 T0117 $=
201511131053 METAR KPAE 131053Z AUTO 18028G35KT 10SM BKN008 OVC013 12/ A2979 RMK AO2 PK WND 17043/1032 CIG 006V013 SLP087 T0117 $=
201511130953 METAR KPAE 130953Z AUTO 18025G40KT 10SM BKN008 OVC012 11/ A2979 RMK AO2 PK WND 19040/0949 RAB09E18 SLP087 P0000 T0111 $=
201511130853 METAR KPAE 130853Z AUTO 18030G40KT 10SM OVC009 11/ A2981 RMK AO2 PK WND 19040/0852 RAB04E41 CIG 007V013 SLP096 P0000 60001 T0106 56020 $=
201511130753 METAR KPAE 130753Z AUTO 19027G37KT 10SM OVC010 10/ A2983 RMK AO2 PK WND 17037/0727 RAB21E38 CIG 007V013 SLP102 P0000 T0100 401000056 $=
201511130737 SPECI KPAE 130737Z AUTO 18027G33KT 10SM -RA OVC010 10/ A2983 RMK AO2 PK WND 17037/0727 RAB21 CIG 007V012 P0000 T0100 $=
201511130719 SPECI KPAE 130719Z AUTO 18024G32KT 10SM BKN008 OVC015 10/ A2984 RMK AO2 PK WND 19037/0701 T0100 $=
201511130701 SPECI KPAE 130701Z AUTO 18027G37KT 10SM BKN010 OVC014 10/ A2984 RMK AO2 PK WND 19037/0701 CIG 006V012 T0100 $=
201511130653 METAR KPAE 130653Z AUTO 18028G33KT 10SM BKN008 BKN013 OVC080 09/ A2985 RMK AO2 PK WND 18033/0651 RAB02E27 SLP109 P0001 T0094 $=
201511130553 METAR KPAE 130553Z AUTO 18021G28KT 6SM HZ BKN008 BKN013 OVC080 09/ A2987 RMK AO2 PK WND 19032/0523 SLP116 60000 T0089 10089 20078 58028 $=
201511130509 SPECI KPAE 130509Z AUTO 18021G29KT 6SM HZ BKN008 OVC014 09/ A2989 RMK AO2 PK WND 18030/0456 CIG 006V011 T0089 $=
201511130453 METAR KPAE 130453Z AUTO 18019G29KT 6SM HZ SCT008 OVC013 09/ A2990 RMK AO2 PK WND 19030/0432 RAB17E49 SLP129 P0000 T0089 $=
201511130353 METAR KPAE 130353Z 17013KT 4SM HZ BKN006 OVC013 08/ A2993 RMK AO2 RAE14 CIG 004V010 SLP139 P0000 T0083 $=
201511130253 METAR KPAE 130253Z 17014KT 4SM -RA BKN006 OVC012 08/ A2996 RMK AO2 CIG 004V009 SLP146 P0000 60000 T0078 56023 $=
201511130153 METAR KPAE 130153Z 17013G19KT 4SM -RA BKN009 BKN013 OVC017 08/ A2997 RMK AO2 CIG 005V010 SLP153 P0000 T0078 $=
201511130053 METAR KPAE 130053Z 17015G24KT 4SM -RA BR BKN009 OVC025 08/06 A3000 RMK AO2 PK WND 17029/0016 RAB19 SLP163 P0000 T00780056=
201511122353 METAR KPAE 122353Z 18019G28KT 9SM FEW019 OVC028 08/04 A3002 RMK AO2 PK WND 18028/2331 RAE12 SLP169 P0000 60000 T00830044 10100 20072 58019=
201511122253 METAR KPAE 122253Z 17016G24KT 10SM -RA BKN028 OVC038 09/04 A3005 RMK AO2 PK WND 17027/2205 RAB48 SLP179 P0000 T00940039=
201511122249 SPECI KPAE 122249Z 17014G25KT 10SM -RA BKN028 OVC041 09/04 A3005 RMK AO2 PK WND 17027/2205 RAB48 P0000=
201511122153 METAR KPAE 122153Z 17018G28KT 10SM BKN031 OVC045 10/03 A3008 RMK AO2 PK WND 16030/2128 SLP188 T01000028=
201511122053 METAR KPAE 122053Z 17021G26KT 10SM BKN031 BKN042 09/02 A3011 RMK AO2 PK WND 17028/2043 SLP198 60000 T00940022 58032=
201511121953 METAR KPAE 121953Z 17018G27KT 10SM OVC033 09/01 A3013 RMK AO2 PK WND 16027/1949 SLP207 T00890011=
201511121853 METAR KPAE 121853Z 16015KT 10SM BKN040 OVC049 08/02 A3018 RMK AO2 RAE24 SLP222 P0000 T00830017=
201511121753 METAR KPAE 121753Z 15012G17KT 10SM -RA OVC049 07/02 A3020 RMK AO2 RAB25 SLP231 P0000 60000 T00720017 10072 20056 58016=
201511121653 METAR KPAE 121653Z 15011G15KT 10SM BKN060 OVC075 07/02 A3022 RMK AO2 SLP237 T00670017=
201511121553 METAR KPAE 121553Z 16010KT 10SM BKN070 OVC080 06/02 A3024 RMK AO2 RAB43E52 SLP244 P0000 T00610017=
201511121453 METAR KPAE 121453Z 15011G16KT 10SM OVC090 06/02 A3025 RMK AO2 SLP247 T00610017 56020=
201511121353 METAR KPAE 121353Z AUTO 15009KT 10SM FEW120 06/02 A3027 RMK AO2 SLP254 T00610017=
201511121253 METAR KPAE 121253Z AUTO 16011KT 10SM CLR 06/02 A3029 RMK AO2 SLP259 T00610022=
201511121153 METAR KPAE 121153Z AUTO 15009KT 10SM CLR 06/02 A3031 RMK AO2 SLP267 70001 T00610022 10067 20056 58009=
201511121053 METAR KPAE 121053Z AUTO 15010KT 10SM FEW022 06/03 A3032 RMK AO2 SLP269 T00560028=
201511120953 METAR KPAE 120953Z AUTO 16009KT 10SM FEW013 SCT021 BKN100 06/03 A3034 RMK AO2 SLP275 T00610028=
201511120927 SPECI KPAE 120927Z AUTO 17008KT 10SM SCT015 06/03 A3033 RMK AO2 T00610028=
201511120853 METAR KPAE 120853Z AUTO 15007KT 10SM OVC016 06/03 A3034 RMK AO2 SLP277 T00610028 56001=
201511120812 SPECI KPAE 120812Z AUTO 15008KT 10SM BKN018 OVC050 06/03 A3035 RMK AO2 T00610028=
201511120753 METAR KPAE 120753Z AUTO 16008KT 10SM OVC050 06/03 A3034 RMK AO2 SLP277 T00610028 401000050=
201511120653 METAR KPAE 120653Z AUTO 15008KT 10SM BKN049 06/02 A3033 RMK AO2 SLP275 T00610022=
201511120553 METAR KPAE 120553Z AUTO 15007KT 10SM BKN050 07/03 A3034 RMK AO2 SLP278 T00670033 10089 20067 51009=
201511120453 METAR KPAE 120453Z AUTO 15007KT 10SM CLR 07/03 A3033 RMK AO2 SLP274 T00720033=
201511120353 METAR KPAE 120353Z 11006KT 10SM FEW048 07/02 A3033 RMK AO2 SLP273 T00670022=
201511120253 METAR KPAE 120253Z 07004KT 10SM FEW110 08/02 A3032 RMK AO2 SLP269 T00830017 53003=
201511120153 METAR KPAE 120153Z 00000KT 10SM CLR 08/02 A3031 RMK AO2 SLP267 T00780022=
201511120053 METAR KPAE 120053Z 05004KT 10SM FEW025 09/03 A3031 RMK AO2 SLP265 T00890028=
201511112353 METAR KPAE 112353Z 36003KT 10SM CLR 09/04 A3031 RMK AO2 SLP265 T00890039 10100 20078 51005=
201511112253 METAR KPAE 112253Z 00000KT 10SM FEW120 09/04 A3030 RMK AO2 SLP263 T00890044=
201511112200 SPECI KPAE 112200Z 16003KT 10SM CLR 09/02 A3030 RMK AO2 T00940022=
201511112153 METAR KPAE 112153Z 19004KT 10SM BKN027 10/03 A3030 RMK AO2 SLP261 T01000028=
201511112053 METAR KPAE 112053Z 18006KT 10SM BKN025 09/03 A3029 RMK AO2 SLP259 T00940033 51007=
201511112002 SPECI KPAE 112002Z 19004KT 10SM SCT028 09/03 A3029 RMK AO2 T00940028=
201511111953 METAR KPAE 111953Z 19006KT 10SM BKN028 09/04 A3029 RMK AO2 SLP258 T00890039=
201511111941 SPECI KPAE 111941Z 19009KT 10SM BKN028 09/04 A3029 RMK AO2 T00890044=
201511111853 METAR KPAE 111853Z 17009KT 10SM SCT015 08/04 A3028 RMK AO2 SLP256 T00830039=
201511111807 SPECI KPAE 111807Z 15007KT 10SM FEW007 SCT028 08/04 A3027 RMK AO2 T00780044=
201511111800 SPECI KPAE 111800Z 16007KT 10SM FEW022 FEW028 08/05 A3027 RMK AO2 T00780050=
201511111753 METAR KPAE 111753Z VRB04KT 10SM SCT007 BKN022 07/05 A3027 RMK AO2 RAB31E47 SLP252 P0001 60001 T00720050 10072 20050 51019=
201511111731 SPECI KPAE 111731Z VRB05KT 10SM -RA BKN007 OVC035 07/05 A3026 RMK AO2 RAB31 P0000 T00720050=
201511111653 METAR KPAE 111653Z 15010KT 10SM BKN014 BKN030 07/04 A3024 RMK AO2 SLP244 T00670044=
201511111555 SPECI KPAE 111555Z 15008KT 3SM R16R/3000VP6000FT BR SCT001 06/04 A3021 RMK AO2 T00560039=
201511111553 METAR KPAE 111553Z 15009KT 1 1/2SM R16R/3000VP6000FT BR SCT001 06/04 A3021 RMK AO2 SLP234 T00560039=
201511111545 SPECI KPAE 111545Z VRB05KT 1SM R16R/3500VP6000FT BR VV001 06/04 A3021 RMK AO2 T00560044=
201511111542 SPECI KPAE 111542Z 15008KT 2SM BR SCT002 06/04 A3021 RMK AO2 T00610044=
201511111453 METAR KPAE 111453Z 15005KT 10SM FEW030 BKN060 07/03 A3018 RMK AO2 RAB17E28 SLP222 P0000 60000 T00670033 51025=
201511111353 METAR KPAE 111353Z AUTO 00000KT 10SM FEW031 SCT060 BKN075 05/03 A3016 RMK AO2 SLP217 T00500028=
201511111253 METAR KPAE 111253Z AUTO 00000KT 10SM FEW060 07/03 A3013 RMK AO2 SLP204 T00720028=
201511111153 METAR KPAE 111153Z AUTO 00000KT 10SM FEW048 BKN060 OVC100 07/03 A3010 RMK AO2 RAB32E41 SLP195 P0000 60044 70044 T00720033 10094 20072 51017=
201511111110 SPECI KPAE 111110Z AUTO VRB05KT 10SM FEW017 BKN036 OVC050 08/04 A3009 RMK AO2 T00780044=
201511111053 METAR KPAE 111053Z AUTO 34006KT 10SM SCT022 BKN029 OVC048 08/05 A3010 RMK AO2 RAE29 SLP194 P0000 T00780050=
201511111003 SPECI KPAE 111003Z AUTO 13003KT 10SM -RA SCT027 SCT037 OVC045 07/05 A3007 RMK AO2 P0000 T00720050=
201511110953 METAR KPAE 110953Z AUTO 11003KT 8SM -RA SCT025 BKN029 OVC037 07/05 A3006 RMK AO2 SLP181 P0006 T00720050=
201511110922 SPECI KPAE 110922Z AUTO 06003KT 4SM -RA BR FEW009 BKN015 OVC021 07/06 A3005 RMK AO2 P0004 T00720056=
201511110853 METAR KPAE 110853Z AUTO 36007KT 4SM RA BR FEW004 OVC012 07/06 A3005 RMK AO2 SLP179 P0027 60038 T00720056 50011=
201511110849 SPECI KPAE 110849Z AUTO 01005KT 4SM RA BR FEW004 OVC012 07/06 A3005 RMK AO2 P0026=
201511110817 SPECI KPAE 110817Z AUTO 24008KT 2 1/2SM +RA BR SCT007 BKN013 OVC021 08/06 A3006 RMK AO2 P0013 T00780061=
201511110753 METAR KPAE 110753Z AUTO 22007KT 2 1/2SM RA BR BKN007 BKN015 OVC027 08/06 A3005 RMK AO2 PK WND 19035/0702 RAB05 SLP178 P0011 T00780061 400940022=
201511110748 SPECI KPAE 110748Z AUTO 23009KT 3SM RA BR BKN007 BKN015 OVC037 08/06 A3005 RMK AO2 PK WND 19035/0702 RAB05 P0008=
201511110740 SPECI KPAE 110740Z AUTO 21012KT 4SM RA BR FEW009 BKN026 OVC039 08/06 A3004 RMK AO2 PK WND 19035/0702 RAB05 P0006 T00780056=
201511110653 METAR KPAE 110653Z AUTO 18022G29KT 10SM FEW023 BKN039 OVC075 09/04 A3002 RMK AO2 PK WND 18033/0606 SLP167 T00940044=
201511110605 SPECI KPAE 110605Z AUTO 18024G32KT 10SM FEW022 SCT027 BKN110 09/04 A3004 RMK AO2 PK WND 18032/0605 T00890039=
201511110553 METAR KPAE 110553Z AUTO 18019G27KT 10SM BKN024 BKN031 BKN120 09/04 A3004 RMK AO2 PK WND 18027/0524 SLP175 T00890039 10094 20083 58026=
201511110525 SPECI KPAE 110525Z AUTO 18020G27KT 10SM BKN024 BKN029 OVC049 09/04 A3005 RMK AO2 PK WND 18027/0524 T00890039=
201511110514 SPECI KPAE 110514Z AUTO 17019G26KT 10SM SCT024 BKN050 OVC110 09/04 A3005 RMK AO2 PK WND 16027/0457 T00890039=
201511110503 SPECI KPAE 110503Z AUTO 17016G27KT 10SM BKN025 BKN041 OVC050 09/04 A3006 RMK AO2 PK WND 16027/0457 T00890039=
201511110453 METAR KPAE 110453Z AUTO 17020G28KT 10SM SCT025 BKN050 BKN120 09/04 A3006 RMK AO2 PK WND 19030/0442 SLP183 T00890039=
201511110353 METAR KPAE 110353Z 18021G27KT 10SM FEW043 09/04 A3010 RMK AO2 PK WND 19027/0339 SLP195 T00890044=
201511110253 METAR KPAE 110253Z 17018G25KT 10SM SCT019 BKN034 09/05 A3012 RMK AO2 SLP201 T00890050 58022=
201511110223 SPECI KPAE 110223Z 17014G22KT 10SM BKN019 OVC034 09/05 A3013 RMK AO2 T00890050=
201511110153 METAR KPAE 110153Z 17013KT 10SM SCT021 BKN034 OVC060 09/05 A3014 RMK AO2 SLP209 T00890050=
201511110053 METAR KPAE 110053Z 18010KT 10SM BKN018 OVC024 09/05 A3016 RMK AO2 SLP217 T00890050=
201511102353 METAR KPAE 102353Z 15009KT 10SM SCT020 OVC026 09/05 A3018 RMK AO2 SLP224 T00890050 10089 20067 56016=
201511102300 SPECI KPAE 102300Z VRB04KT 10SM BKN022 OVC027 09/05 A3020 RMK AO2 T00890050=
201511102253 METAR KPAE 102253Z 15005KT 10SM SCT026 OVC035 09/04 A3020 RMK AO2 SLP230 T00890044=
201511102153 METAR KPAE 102153Z VRB05KT 10SM SCT028 OVC035 09/04 A3021 RMK AO2 SLP233 T00890044=
201511102127 SPECI KPAE 102127Z VRB05KT 10SM FEW015 BKN029 OVC034 08/04 A3022 RMK AO2 T00830044=
201511102053 METAR KPAE 102053Z 15006KT 10SM SCT013 SCT019 OVC030 08/04 A3023 RMK AO2 SLP240 T00830044 58006=
201511102000 SPECI KPAE 102000Z 15008KT 10SM SCT011 BKN019 OVC030 08/04 A3023 RMK AO2 T00780044=
201511101953 METAR KPAE 101953Z 15008KT 10SM BKN009 OVC019 08/05 A3023 RMK AO2 SLP239 T00830050=
201511101900 SPECI KPAE 101900Z 17006KT 10SM BKN008 OVC019 08/05 A3025 RMK AO2 CIG 006V010 T00780050=
201511101853 METAR KPAE 101853Z 18007KT 2SM BR BKN003 OVC020 08/06 A3025 RMK AO2 SLP246 T00780056=
201511101753 METAR KPAE 101753Z 17007KT 2SM BR BKN003 OVC017 07/05 A3025 RMK AO2 SLP247 T00670050 10067 20033 51010=
201511101737 SPECI KPAE 101737Z 16006KT 1 1/2SM BR BKN003 OVC017 07/04 A3024 RMK AO2 T00670044=
201511101721 SPECI KPAE 101721Z 16007KT 1/2SM R16R/P6000FT FG BKN003 OVC017 06/05 A3024 RMK AO2 T00610050=
201511101710 SPECI KPAE 101710Z VRB05KT M1/4SM R16R/P6000FT FG BKN003 OVC017 06/04 A3024 RMK AO2 T00610044=
201511101702 SPECI KPAE 101702Z VRB06KT 1/2SM R16R/P6000FT FG BKN003 OVC017 06/04 A3024 RMK AO2 T00610044=
201511101653 METAR KPAE 101653Z VRB05KT 1SM R16R/P6000FT BR BKN003 OVC017 06/04 A3024 RMK AO2 SLP244 T00610044=
201511101553 METAR KPAE 101553Z 16007KT 3/4SM R16R/P6000FT BR OVC003 06/04 A3024 RMK AO2 SLP244 T00560044=
201511101453 METAR KPAE 101453Z 16007KT 1/2SM R16R/5500VP6000FT FG VV002 06/04 A3022 RMK AO2 SLP235 T00560039 53008=
201511101449 SPECI KPAE 101449Z 15008KT 1/2SM R16R/6000VP6000FT FG VV002 06/04 A3022 RMK AO2=
201511101442 SPECI KPAE 101442Z 16007KT 3SM BR OVC002 05/04 A3022 RMK AO2 T00500039=
201511101431 SPECI KPAE 101431Z 15006KT 2SM R16R/3500VP6000FT BR OVC002 05/04 A3021 RMK AO2 T00500039=
201511101415 SPECI KPAE 101415Z 16006KT 1/2SM R16R/1800V2800FT FG VV002 05/04 A3021 RMK AO2 T00500039=
201511101353 METAR KPAE 101353Z 16004KT 1/4SM R16R/1200V1400FT FG VV001 04/04 A3021 RMK AO2 SLP231 T00440039=
201511101302 SPECI KPAE 101302Z 15005KT 1/4SM R16R/1000V1200FT FG VV001 04/03 A3019 RMK AO2 T00390028=
201511101253 METAR KPAE 101253Z 15004KT 1/4SM R16R/1000V2800FT FG VV001 03/03 A3019 RMK AO2 SLP227 T00330028=
201511101250 SPECI KPAE 101250Z VRB04KT 1/4SM R16R/1000V2800FT FG VV001 03/03 A3019 RMK AO2=
201511101228 SPECI KPAE 101228Z VRB03KT 1/4SM R16R/1200V1400FT FG VV001 04/03 A3019 RMK AO2 T00390028=
201511101221 SPECI KPAE 101221Z 15004KT 1/4SM R16R/1200V2400FT FG OVC001 03/03 A3019 RMK AO2 T00330028=
201511101216 SPECI KPAE 101216Z VRB03KT 1 1/2SM R16R/1200VP6000FT BR OVC001 03/02 A3018 RMK AO2 T00330022=
201511101153 METAR KPAE 101153Z 13003KT 7SM OVC001 03/02 A3018 RMK AO2 SLP224 70006 T00330022 10050 20022 50009=
201511101135 SPECI KPAE 101135Z 12004KT 8SM BKN002 03/02 A3018 RMK AO2 T00330022=
201511101127 SPECI KPAE 101127Z 13003KT 9SM SCT003 03/02 A3019 RMK AO2 T00330017=
201511101053 METAR KPAE 101053Z 00000KT 10SM CLR 03/02 A3018 RMK AO2 SLP225 T00280017=
201511100953 METAR KPAE 100953Z 00000KT 10SM CLR 03/02 A3017 RMK AO2 SLP219 T00280017=
201511100853 METAR KPAE 100853Z 16003KT 10SM CLR 03/01 A3016 RMK AO2 SLP216 T00280011 51013=
201511100753 METAR KPAE 100753Z 00000KT 10SM CLR 05/03 A3014 RMK AO2 SLP209 T00500028 400830028=
201511100653 METAR KPAE 100653Z 00000KT 10SM CLR 04/03 A3014 RMK AO2 SLP208 T00390028=
201511100553 METAR KPAE 100553Z 32003KT 10SM CLR 04/03 A3012 RMK AO2 SLP202 T00440028 10083 20044 52017=
201511100453 METAR KPAE 100453Z 00000KT 10SM CLR 04/03 A3010 RMK AO2 SLP196 T00440028=
201511100353 METAR KPAE 100353Z 00000KT 10SM CLR 06/04 A3009 RMK AO2 SLP191 T00560039=
201511100253 METAR KPAE 100253Z 00000KT 10SM BKN032 07/05 A3007 RMK AO2 SLP185 T00720050 53018=
201511100153 METAR KPAE 100153Z 33004KT 10SM OVC031 08/06 A3005 RMK AO2 SLP177 T00780056=
201511100053 METAR KPAE 100053Z 32004KT 10SM FEW015 OVC024 08/06 A3003 RMK AO2 SLP172 T00830061=
201511092353 METAR KPAE 092353Z 34003KT 10SM BKN013 OVC022 08/06 A3002 RMK AO2 SLP167 60004 T00830061 10083 20072 53016=
201511092336 SPECI KPAE 092336Z 34004KT 10SM SCT007 OVC017 08/06 A3001 RMK AO2 T00830061=
201511092253 METAR KPAE 092253Z 35004KT 10SM BKN007 OVC017 08/06 A3000 RMK AO2 SLP160 T00780061=
201511092153 METAR KPAE 092153Z 36004KT 10SM BKN007 OVC035 08/06 A2998 RMK AO2 RAB2056E14 SLP155 P0000 T00780061=
201511092053 METAR KPAE 092053Z 36005KT 8SM BKN007 OVC035 08/06 A2997 RMK AO2 SLP150 60004 T00780061 51007=
201511092000 SPECI KPAE 092000Z 35006KT 6SM BR OVC006 08/06 A2996 RMK AO2 CIG 003V009 T00780061=
201511091953 METAR KPAE 091953Z 35005KT 3SM BR BKN002 OVC008 07/06 A2996 RMK AO2 RAE03 SLP147 P0000 T00720061=
201511091921 SPECI KPAE 091921Z 36004KT 3SM BR BKN002 OVC008 08/06 A2996 RMK AO2 RAE03 P0000 T00780061=
201511091853 METAR KPAE 091853Z 36005KT 1 1/2SM -RA BR BKN002 OVC008 08/06 A2996 RMK AO2 RAB1756 SLP145 P0004 T00780061=
201511091845 SPECI KPAE 091845Z 02005KT 1 1/2SM -RA BR BKN002 OVC010 08/06 A2996 RMK AO2 RAB1756 P0003 T00780061=
201511091805 SPECI KPAE 091805Z 00000KT 1 1/2SM -RA BR BKN005 BKN012 OVC026 07/06 A2995 RMK AO2 RAB1756 P0000 T00720061=
201511091755 SPECI KPAE 091755Z 27003KT 2 1/2SM BR BKN005 BKN012 OVC029 08/06 A2994 RMK AO2 T00780056=
201511091753 METAR KPAE 091753Z VRB05KT 3SM BR BKN005 BKN012 OVC026 08/06 A2994 RMK AO2 SLP142 60002 T00780056 10078 20072 51017=
201511091704 SPECI KPAE 091704Z 00000KT 10SM BKN005 BKN012 OVC026 07/06 A2993 RMK AO2 T00720056=
201511091653 METAR KPAE 091653Z 00000KT 10SM FEW003 SCT020 OVC028 08/06 A2993 RMK AO2 RAE1557 SLP137 P0000 T00780056=
201511091638 SPECI KPAE 091638Z 00000KT 10SM OVC028 08/06 A2993 RMK AO2 RAE1557 P0000 T00780056=
201511091610 SPECI KPAE 091610Z 16004KT 10SM OVC030 07/05 A2992 RMK AO2 RAE1557 P0000 T00720050=
201511091603 SPECI KPAE 091603Z 16004KT 9SM OVC029 07/05 A2992 RMK AO2 RAE1557 P0000 T00720050=
201511091553 METAR KPAE 091553Z 16004KT 6SM -RA BR SCT025 OVC031 07/06 A2991 RMK AO2 SLP132 P0001 T00720056=
201511091541 SPECI KPAE 091541Z VRB04KT 6SM -RA BR OVC030 07/05 A2991 RMK AO2 P0001 T00720050=
201511091533 SPECI KPAE 091533Z 16006KT 2 1/2SM -RA BR OVC030 07/05 A2991 RMK AO2 P0001 T00720050=
201511091453 METAR KPAE 091453Z 15003KT 7SM -RA OVC027 07/05 A2989 RMK AO2 RAB29 SLP125 P0001 60001 T00720050 53014=
201511091353 METAR KPAE 091353Z AUTO 15005KT 10SM OVC025 07/05 A2987 RMK AO2 SLP118 T00720050=
201511091253 METAR KPAE 091253Z AUTO 00000KT 10SM OVC020 07/06 A2986 RMK AO2 SLP113 T00720056=
201511091153 METAR KPAE 091153Z AUTO 11005KT 10SM OVC018 07/06 A2985 RMK AO2 SLP110 60008 70012 T00720056 10083 20072 53005=
201511091123 SPECI KPAE 091123Z AUTO 11005KT 10SM BKN020 OVC048 07/06 A2985 RMK AO2 T00720056=
201511091053 METAR KPAE 091053Z AUTO 11004KT 10SM OVC050 07/06 A2984 RMK AO2 SLP107 T00720056=
201511091023 SPECI KPAE 091023Z AUTO 00000KT 10SM BKN030 OVC050 08/06 A2984 RMK AO2 T00780056=
201511091004 SPECI KPAE 091004Z AUTO 00000KT 10SM BKN029 OVC042 08/05 A2984 RMK AO2 T00780050=
201511090953 METAR KPAE 090953Z AUTO 00000KT 10SM SCT027 BKN042 OVC049 08/06 A2984 RMK AO2 RAE52 SLP106 P0001 T00780056=
201511090919 SPECI KPAE 090919Z AUTO 00000KT 10SM -RA BKN027 OVC034 08/06 A2984 RMK AO2 P0000 T00780056=
201511090853 METAR KPAE 090853Z AUTO 00000KT 7SM -RA OVC041 08/06 A2984 RMK AO2 SLP105 P0002 60007 T00780056 52005=
201511090753 METAR KPAE 090753Z AUTO 18003KT 10SM -RA BKN043 BKN050 OVC065 08/06 A2983 RMK AO2 SLP103 P0003 T00780061 401000072=
201511090653 METAR KPAE 090653Z AUTO 17004KT 10SM -RA BKN050 OVC060 08/06 A2983 RMK AO2 SLP101 P0002 T00830061=
201511090553 METAR KPAE 090553Z AUTO 00000KT 10SM -RA BKN049 OVC065 08/06 A2982 RMK AO2 RAB41 SLP100 P0000 60000 T00830061 10100 20078 53005=
201511090453 METAR KPAE 090453Z AUTO 12005KT 10SM OVC060 08/06 A2981 RMK AO2 SLP096 T00830061=
201511090353 METAR KPAE 090353Z 00000KT 10SM FEW120 08/06 A2980 RMK AO2 SLP091 T00830056=
201511090253 METAR KPAE 090253Z 00000KT 10SM CLR 08/06 A2981 RMK AO2 SLP094 T00830056 53004=
201511090153 METAR KPAE 090153Z 15004KT 10SM CLR 09/06 A2980 RMK AO2 SLP092 T00890056=
201511090053 METAR KPAE 090053Z 12004KT 10SM FEW015 09/07 A2979 RMK AO2 SLP090 T00890067=
201511082353 METAR KPAE 082353Z 11007KT 10SM BKN016 10/07 A2979 RMK AO2 SLP091 60003 T01000067 10100 20089 56004=
201511082351 SPECI KPAE 082351Z 12004KT 10SM BKN016 10/07 A2979 RMK AO2=
201511082253 METAR KPAE 082253Z 15006KT 10SM SCT012 OVC037 10/07 A2980 RMK AO2 SLP092 T01000067=
201511082153 METAR KPAE 082153Z 18007KT 10SM SCT012 OVC037 10/07 A2981 RMK AO2 RAE09 SLP095 P0000 T01000067=
201511082053 METAR KPAE 082053Z 20008KT 8SM -RA FEW008 BKN044 09/07 A2982 RMK AO2 RAB1956 SLP098 P0002 60003 T00940072 58006=
201511082022 SPECI KPAE 082022Z 19009KT 8SM -RA SCT009 BKN037 OVC047 09/07 A2982 RMK AO2 RAB1956 P0002 T00890067=
201511081953 METAR KPAE 081953Z 17008KT 10SM BKN009 OVC047 09/07 A2982 RMK AO2 RAE43 SLP100 P0000 T00940072=
201511081853 METAR KPAE 081853Z 17008KT 9SM -RA BKN007 BKN037 OVC050 09/07 A2983 RMK AO2 RAE00B40 SLP103 P0001 T00940072=
201511081807 SPECI KPAE 081807Z 15007KT 10SM BKN009 BKN065 OVC075 09/07 A2983 RMK AO2 RAE00 P0000 T00890067=
201511081753 METAR KPAE 081753Z 17009KT 10SM -RA FEW035 OVC070 09/07 A2983 RMK AO2 RAB47 SLP104 P0000 60001 T00890067 10089 20072 51004=
201511081653 METAR KPAE 081653Z 15007KT 10SM BKN043 OVC120 08/06 A2983 RMK AO2 SLP103 T00830056=
201511081553 METAR KPAE 081553Z VRB04KT 10SM OVC046 08/06 A2983 RMK AO2 SLP101 T00830056=
201511081453 METAR KPAE 081453Z VRB05KT 10SM OVC040 08/06 A2982 RMK AO2 RAE22 SLP100 P0000 60001 T00780056 58003=
201511081353 METAR KPAE 081353Z AUTO 15004KT 10SM -RA OVC047 08/05 A2983 RMK AO2 SLP102 P0001 T00780050=
201511081253 METAR KPAE 081253Z AUTO VRB03KT 10SM -RA OVC040 08/06 A2983 RMK AO2 RAB38 SLP102 P0000 T00780056=
201511081153 METAR KPAE 081153Z AUTO 00000KT 10SM SCT037 OVC048 08/06 A2983 RMK AO2 SLP103 60013 70082 T00780056 10089 20078 58003=
201511081053 METAR KPAE 081053Z AUTO 12004KT 10SM OVC037 08/06 A2984 RMK AO2 SLP106 T00780056=
201511080953 METAR KPAE 080953Z AUTO 11005KT 10SM OVC035 08/06 A2983 RMK AO2 RAE29 SLP104 P0002 T00780061=
201511080853 METAR KPAE 080853Z AUTO 11005KT 5SM RA BR OVC033 08/07 A2984 RMK AO2 SLP106 P0005 60011 T00830067 51005=
201511080753 METAR KPAE 080753Z AUTO 10005KT 8SM -RA BKN034 OVC041 08/07 A2984 RMK AO2 SLP105 P0004 T00830067 401220083=
201511080708 SPECI KPAE 080708Z AUTO 13003KT 4SM -RA BR OVC030 08/07 A2983 RMK AO2 P0002 T00830067=
201511080653 METAR KPAE 080653Z AUTO 07004KT 8SM -RA OVC028 09/07 A2983 RMK AO2 SLP103 P0002 T00890067=
201511080553 METAR KPAE 080553Z AUTO 00000KT 5SM -RA BR OVC024 09/07 A2982 RMK AO2 RAB17 SLP101 P0002 60044 T00890072 10111 20089 53001=
201511080500 SPECI KPAE 080500Z AUTO 00000KT 7SM OVC023 09/07 A2982 RMK AO2 T00890072=
201511080453 METAR KPAE 080453Z AUTO 02004KT 2SM BR OVC023 09/07 A2982 RMK AO2 RAE50 SLP100 P0002 T00890072=
201511080353 METAR KPAE 080353Z 00000KT 2SM -RA BR FEW005 OVC018 09/08 A2982 RMK AO2 SLP100 P0005 T00890078=
201511080335 SPECI KPAE 080335Z 01004KT 2SM -RA BR FEW002 SCT006 OVC015 09/08 A2982 RMK AO2 P0005 T00890078=
201511080253 METAR KPAE 080253Z 32004KT 1SM R16R/P6000FT RA BR BKN002 OVC008 09/08 A2982 RMK AO2 CIG 001V007 SLP099 P0019 60035 T00890083 55001=
201511080214 SPECI KPAE 080214Z 36005KT 1SM R16R/P6000FT +RA BR OVC003 09/09 A2982 RMK AO2 P0008 T00940089=
201511080202 SPECI KPAE 080202Z VRB06KT 3SM R16R/4500VP6000FT RA BR OVC003 11/09 A2982 RMK AO2 P0003 T01060094=
201511080153 METAR KPAE 080153Z 23008KT 3SM RA BR OVC005 11/10 A2981 RMK AO2 CIG 002V009 SLP096 P0015 T01110100=
201511080124 SPECI KPAE 080124Z 21013G16KT 3SM RA BR BKN005 OVC012 11/09 A2981 RMK AO2 CIG 002V009 P0006 T01110094 $=
201511080053 METAR KPAE 080053Z 17008KT 1SM R16R/P6000FT -RA BR BKN007 OVC011 11/09 A2981 RMK AO2 CIG 004V009 SLP095 P0001 T01110094 $=
201511072353 METAR KPAE 072353Z 17009KT 2SM -RA OVC007 11/ A2983 RMK AO2 RAE20B49 CIG 004V011 SLP100 P0001 60024 T0111 10111 20106 56018 $=
201511072253 METAR KPAE 072253Z 17008KT 1 3/4SM -RA BKN004 OVC007 11/ A2985 RMK AO2 SLP108 P0005 T0111 $=
201511072233 SPECI KPAE 072233Z 17011KT 1 3/4SM -RA BKN004 OVC011 11/ A2985 RMK AO2 CIG 003V007 P0004 T0111 $=
201511072153 METAR KPAE 072153Z 16010KT 1 1/2SM -RA BR BKN007 OVC012 11/09 A2986 RMK AO2 SLP111 P0003 T01060089=
201511072119 SPECI KPAE 072119Z 15010KT 1 1/2SM R16R/6000VP6000FT -RA BR FEW005 BKN008 OVC020 11/09 A2987 RMK AO2 CIG 008V011 P0001 T01060089=
201511072110 SPECI KPAE 072110Z VRB06KT 1 1/2SM R16R/6000VP6000FT -RA BR SCT006 BKN011 OVC015 11/09 A2987 RMK AO2 P0001 T01060089=
201511072053 METAR KPAE 072053Z VRB03KT 1 1/4SM -RA BR FEW005 OVC017 11/09 A2988 RMK AO2 SLP119 P0008 60015 T01060089 56015=
201511071953 METAR KPAE 071953Z 15008KT 1 3/4SM -RA BR BKN029 OVC038 11/09 A2991 RMK AO2 SLP127 P0004 T01060089=
201511071927 SPECI KPAE 071927Z 16008KT 2SM -RA BR BKN017 OVC033 11/08 A2992 RMK AO2 P0003 T01060083=
201511071853 METAR KPAE 071853Z 15009KT 3SM -RA BKN031 OVC038 11/08 A2993 RMK AO2 SLP134 P0003 T01060078=
201511071850 SPECI KPAE 071850Z 15009KT 3SM RA BKN031 OVC038 11/08 A2993 RMK AO2 P0003=
201511071841 SPECI KPAE 071841Z 17006KT 5SM -RA BKN029 OVC037 11/08 A2993 RMK AO2 P0001 T01060078=
201511071753 METAR KPAE 071753Z 17012KT 10SM -RA BKN039 OVC050 11/07 A2993 RMK AO2 SLP137 P0000 60001 T01110072 10122 20106 56006=
201511071653 METAR KPAE 071653Z 18011KT 8SM -RA FEW037 BKN047 OVC075 11/07 A2994 RMK AO2 RAB1554 SLP141 P0001 T01110072=
201511071553 METAR KPAE 071553Z 17010KT 10SM FEW038 BKN048 OVC110 11/07 A2994 RMK AO2 SLP138 T01110067=
201511071453 METAR KPAE 071453Z 16012KT 10SM OVC037 12/06 A2995 RMK AO2 RAE02 SLP143 P0000 60000 T01170061 58019=
201511071353 METAR KPAE 071353Z AUTO 18013G21KT 10SM -RA FEW039 BKN075 OVC085 12/06 A2997 RMK AO2 RAB53 SLP150 P0000 T01220061=
201511071253 METAR KPAE 071253Z AUTO 16012KT 10SM BKN043 OVC050 12/07 A3000 RMK AO2 SLP159 T01170067=
201511071153 METAR KPAE 071153Z AUTO 18010KT 10SM FEW049 BKN090 OVC110 12/07 A3001 RMK AO2 RAB24E35 SLP161 P0000 60000 70004 T01170067 10117 20111 56020=
201511071053 METAR KPAE 071053Z AUTO 15012KT 10SM FEW080 OVC120 11/07 A3003 RMK AO2 SLP168 T01110067=
201511070953 METAR KPAE 070953Z AUTO 15009G16KT 10SM OVC120 12/07 A3005 RMK AO2 SLP175 T01170067=
201511070853 METAR KPAE 070853Z AUTO 17008KT 10SM OVC110 11/07 A3007 RMK AO2 SLP182 T01110067 56019=
201511070753 METAR KPAE 070753Z AUTO VRB05KT 10SM BKN110 11/07 A3008 RMK AO2 SLP187 T01110072 401330067=
201511070653 METAR KPAE 070653Z AUTO 15011KT 10SM CLR 12/07 A3011 RMK AO2 SLP196 T01170072=
201511070553 METAR KPAE 070553Z AUTO 16009KT 10SM SCT090 11/08 A3012 RMK AO2 SLP203 T01110078 10133 20106 58016=
201511070453 METAR KPAE 070453Z AUTO VRB04KT 10SM SCT070 12/08 A3014 RMK AO2 SLP209 T01170078=
201511070353 METAR KPAE 070353Z 16010KT 10SM CLR 12/08 A3015 RMK AO2 SLP213 T01170078=
201511070253 METAR KPAE 070253Z 17012KT 10SM OVC080 12/08 A3017 RMK AO2 SLP219 T01220078 56015=
201511070153 METAR KPAE 070153Z 17011KT 10SM CLR 12/08 A3019 RMK AO2 SLP224 T01220078=
201511070053 METAR KPAE 070053Z VRB03KT 10SM FEW075 12/09 A3020 RMK AO2 SLP228 T01220089=
201511062353 METAR KPAE 062353Z 15010KT 10SM FEW034 SCT050 13/09 A3022 RMK AO2 SLP233 T01330089 10133 20078 56013=
201511062253 METAR KPAE 062253Z 15010KT 10SM FEW055 SCT110 13/08 A3023 RMK AO2 SLP237 T01330083=
201511062153 METAR KPAE 062153Z 15009KT 10SM BKN100 12/08 A3024 RMK AO2 SLP241 T01220083=
201511062053 METAR KPAE 062053Z 15008G17KT 10SM OVC085 11/08 A3026 RMK AO2 SLP248 T01110078 58015=
201511061953 METAR KPAE 061953Z 15010KT 10SM FEW025 OVC090 10/08 A3029 RMK AO2 SLP258 T01000078=
201511061931 SPECI KPAE 061931Z 14007KT 090V170 10SM SCT031 OVC095 09/08 A3029 RMK AO2 T00940078=
201511061853 METAR KPAE 061853Z VRB06KT 10SM FEW003 OVC022 09/07 A3030 RMK AO2 SLP263 T00890072 $=
201511061850 SPECI KPAE 061850Z 12008KT 100V170 10SM FEW003 OVC022 09/07 A3030 RMK AO2 $=
201511061753 METAR KPAE 061753Z VRB06KT 3SM BR BKN003 OVC022 08/06 A3031 RMK AO2 RAE35 SLP265 P0001 60004 T00780061 10078 20067 50000 $=
201511061740 SPECI KPAE 061740Z 12007KT 4SM BR FEW003 BKN011 OVC022 07/06 A3031 RMK AO2 RAE35 P0001 T00720056 $=
201511061727 SPECI KPAE 061727Z 12008KT 2SM -RA BR FEW003 BKN011 OVC022 07/06 A3031 RMK AO2 P0001 T00720056=
201511061716 SPECI KPAE 061716Z 12008KT 3SM -RA BR FEW003 BKN011 OVC022 07/06 A3031 RMK AO2 P0000 T00720056=
201511061700 SPECI KPAE 061700Z 12009KT 2 1/2SM -RA BR FEW003 OVC013 07/06 A3031 RMK AO2 P0000 T00720056=
201511061653 METAR KPAE 061653Z 12008KT 1 1/2SM -RA BR BKN003 OVC015 07/06 A3031 RMK AO2 SLP266 P0001 T00720056=
201511061642 SPECI KPAE 061642Z 12009KT 2 1/2SM -RA BR FEW003 OVC015 07/06 A3031 RMK AO2 P0001 T00720056=
201511061635 SPECI KPAE 061635Z VRB04KT 2 1/2SM -RA BR OVC016 07/06 A3031 RMK AO2 P0001 T00720061=
201511061553 METAR KPAE 061553Z VRB03KT 1 1/2SM -RA BR OVC018 07/06 A3031 RMK AO2 RAB00 SLP268 P0002 T00720056=
201511061525 SPECI KPAE 061525Z 12007KT 2 1/2SM -RA BR OVC017 07/05 A3031 RMK AO2 RAB00 P0001 T00720050=
201511061453 METAR KPAE 061453Z 11007KT 10SM OVC025 07/04 A3031 RMK AO2 SLP266 60000 T00720044 54000=
201511061430 SPECI KPAE 061430Z AUTO 11007KT 10SM BKN025 BKN032 OVC075 07/05 A3031 RMK AO2 T00720050=
201511061353 METAR KPAE 061353Z AUTO 11008KT 10SM FEW012 SCT017 OVC080 07/05 A3031 RMK AO2 RAE1256 SLP267 P0000 T00720050=
201511061253 METAR KPAE 061253Z AUTO VRB04KT 9SM -RA OVC070 07/06 A3030 RMK AO2 RAB47 SLP265 P0000 T00720056=
201511061208 SPECI KPAE 061208Z AUTO 11005KT 7SM FEW005 OVC080 07/06 A3031 RMK AO2 T00720056=
201511061153 METAR KPAE 061153Z AUTO 12004KT 8SM FEW010 OVC085 07/06 A3031 RMK AO2 SLP265 70013 T00720061 10083 20072 58001=
201511061136 SPECI KPAE 061136Z AUTO 12004KT 8SM FEW004 FEW013 OVC100 07/06 A3031 RMK AO2 T00720056=
201511061053 METAR KPAE 061053Z AUTO 15007KT 9SM BKN100 OVC120 08/06 A3031 RMK AO2 SLP266 T00780061=
201511061015 SPECI KPAE 061015Z AUTO 15005KT 10SM SCT015 BKN110 07/06 A3031 RMK AO2 T00720061=
201511060953 METAR KPAE 060953Z AUTO 16005KT 8SM OVC017 07/06 A3031 RMK AO2 SLP266 T00720061=
201511060915 SPECI KPAE 060915Z AUTO 12003KT 5SM BR FEW002 OVC016 07/07 A3031 RMK AO2 T00720067=
201511060905 SPECI KPAE 060905Z AUTO VRB03KT 4SM R16R/6000VP6000FT BR SCT002 SCT007 OVC013 07/06 A3031 RMK AO2 T00720061=
201511060902 SPECI KPAE 060902Z AUTO 16005KT 2 1/2SM R16R/4000VP6000FT BR SCT002 BKN007 OVC013 07/06 A3031 RMK AO2 T00720061=
201511060853 METAR KPAE 060853Z AUTO 12005KT 1 1/4SM R16R/2800V5000FT BR BKN001 BKN007 OVC011 07/06 A3031 RMK AO2 SLP266 T00720061 51006=
201511060834 SPECI KPAE 060834Z AUTO VRB03KT 1/2SM R16R/1600V3000FT FG VV001 07/06 A3031 RMK AO2 T00720061=
201511060818 SPECI KPAE 060818Z AUTO 12005KT 1/4SM R16R/1600V2200FT FG VV001 07/06 A3031 RMK AO2 T00720061=
201511060802 SPECI KPAE 060802Z AUTO 11004KT 1/2SM R16R/2200V3000FT FG VV001 07/06 A3031 RMK AO2 T00720061=
201511060753 METAR KPAE 060753Z AUTO 11004KT 1/2SM R16R/1800V2200FT FG VV001 07/07 A3030 RMK AO2 SLP264 T00720067 400940072=
201511060750 SPECI KPAE 060750Z AUTO 11003KT 1/4SM R16R/1800FT FG VV001 07/07 A3030 RMK AO2=
201511060727 SPECI KPAE 060727Z AUTO 11003KT 1/2SM R16R/2000V2200FT FG VV001 08/07 A3030 RMK AO2 T00780067=
201511060706 SPECI KPAE 060706Z AUTO 11004KT 3/4SM R16R/2400V4000FT BR VV002 08/07 A3029 RMK AO2 T00780067=
201511060653 METAR KPAE 060653Z AUTO 12005KT 1/2SM R16R/2200V4000FT FG BKN001 BKN039 OVC049 07/06 A3029 RMK AO2 SLP260 T00720061=
201511060646 SPECI KPAE 060646Z AUTO 12006KT 3/4SM R16R/3000VP6000FT BR SCT001 OVC046 07/06 A3029 RMK AO2 T00720061=
201511060640 SPECI KPAE 060640Z AUTO 12006KT 2 1/2SM BR FEW001 BKN041 OVC050 08/06 A3029 RMK AO2 T00780061=
201511060553 METAR KPAE 060553Z AUTO 11003KT 5SM BR OVC040 08/07 A3028 RMK AO2 SLP257 T00830067 10089 20072 51015=
201511060453 METAR KPAE 060453Z AUTO 00000KT 4SM BR BKN043 BKN055 07/06 A3027 RMK AO2 SLP253 T00720061=
201511060353 METAR KPAE 060353Z 00000KT 7SM OVC049 08/06 A3026 RMK AO2 SLP248 T00830061=
201511060253 METAR KPAE 060253Z 00000KT 6SM BR BKN049 BKN055 08/06 A3024 RMK AO2 SLP243 T00780061 51013=
201511060153 METAR KPAE 060153Z 19003KT 6SM BR BKN048 BKN060 08/06 A3023 RMK AO2 SLP240 T00780061=
201511060053 METAR KPAE 060053Z 00000KT 8SM BKN047 OVC060 08/06 A3021 RMK AO2 SLP234 T00830061=
201511052353 METAR KPAE 052353Z 00000KT 10SM BKN045 OVC060 09/07 A3020 RMK AO2 SLP229 60011 T00890067 10094 20089 51013=
201511052253 METAR KPAE 052253Z 00000KT 7SM SCT004 OVC042 09/07 A3019 RMK AO2 SLP225 T00890072=
201511052214 SPECI KPAE 052214Z 34004KT 8SM SCT004 OVC042 09/07 A3018 RMK AO2 T00890072=
201511052153 METAR KPAE 052153Z 00000KT 7SM BKN002 OVC041 09/07 A3018 RMK AO2 CIG 001V006 SLP222 T00890072=
201511052053 METAR KPAE 052053Z 36005KT 5SM BR BKN004 OVC006 09/08 A3016 RMK AO2 RAE03 SLP216 P0000 60011 T00890078 53008=
201511052020 SPECI KPAE 052020Z 30004KT 5SM BR OVC004 09/08 A3015 RMK AO2 RAE03 CIG 003V007 P0000 T00940078=
201511051953 METAR KPAE 051953Z 25004KT 2SM -RA BR OVC003 09/08 A3015 RMK AO2 CIG 002V007 SLP213 P0003 T00890078=
201511051853 METAR KPAE 051853Z 27005KT 1 3/4SM RA BR OVC002 09/08 A3014 RMK AO2 SLP208 P0008 T00890078=
201511051848 SPECI KPAE 051848Z 26005KT 2SM -RA BR OVC003 09/07 A3014 RMK AO2 P0007=
201511051829 SPECI KPAE 051829Z 25007KT 1 3/4SM -RA BR BKN003 BKN011 OVC017 09/08 A3014 RMK AO2 P0004 T00890078=
201511051818 SPECI KPAE 051818Z 22007KT 3SM -RA BR BKN003 BKN011 OVC018 09/08 A3013 RMK AO2 P0003 T00890078=
201511051800 SPECI KPAE 051800Z 21007KT 1 1/2SM -RA BR OVC003 09/08 A3013 RMK AO2 P0001 T00890078=
201511051753 METAR KPAE 051753Z 23007KT 2SM -RA BR OVC004 09/07 A3013 RMK AO2 RAB27 CIG 003V008 SLP203 P0002 60002 T00890072 10089 20072 51010=
201511051653 METAR KPAE 051653Z 21007KT 3SM BR OVC004 08/07 A3012 RMK AO2 RAB1557E20B38E52 SLP201 P0000 T00830072=
201511051622 SPECI KPAE 051622Z 20006KT 3SM BR OVC003 08/07 A3011 RMK AO2 RAB1557E20 P0000 T00830072=
201511051553 METAR KPAE 051553Z 22006KT 1 1/2SM BR OVC003 08/07 A3011 RMK AO2 RAE1458 SLP199 P0000 T00830072=
201511051543 SPECI KPAE 051543Z 20008KT 2 1/2SM BR OVC003 08/07 A3011 RMK AO2 RAE1458 P0000 T00830072=
201511051503 SPECI KPAE 051503Z 19008KT 3SM BR OVC002 08/07 A3010 RMK AO2 RAE1458 P0000 T00780067=
201511051453 METAR KPAE 051453Z 18010KT 2 1/2SM -RA BR OVC002 08/07 A3010 RMK AO2 RAB49 SLP193 P0000 60000 T00780067 57003=
201511051410 SPECI KPAE 051410Z AUTO 16008KT 2 1/2SM BR OVC002 08/06 A3010 RMK AO2 T00780061 $=
201511051353 METAR KPAE 051353Z AUTO 16009KT 3SM BR OVC002 08/06 A3010 RMK AO2 SLP196 T00780061 $=
201511051326 SPECI KPAE 051326Z AUTO 16007KT 4SM BR BKN003 OVC007 07/06 A3010 RMK AO2 T00720061 $=
201511051253 METAR KPAE 051253Z AUTO 17009KT 5SM BR OVC006 07/06 A3010 RMK AO2 RAE10 CIG 003V008 SLP194 P0000 T00720056=
201511051207 SPECI KPAE 051207Z AUTO 15008KT 10SM -RA OVC009 07/05 A3011 RMK AO2 P0000 T00720050=
201511051153 METAR KPAE 051153Z AUTO VRB05KT 8SM -RA OVC010 07/05 A3011 RMK AO2 CIG 008V012 SLP196 P0002 60006 70006 T00720050 10078 20072 58005=
201511051121 SPECI KPAE 051121Z AUTO VRB05KT 9SM -RA BKN012 OVC017 07/05 A3011 RMK AO2 P0001 T00720050=
201511051053 METAR KPAE 051053Z AUTO VRB04KT 6SM -RA BR BKN017 OVC023 07/05 A3011 RMK AO2 SLP199 P0001 T00720050=
201511050953 METAR KPAE 050953Z AUTO 12006KT 8SM -RA BKN024 BKN034 OVC060 07/04 A3012 RMK AO2 RAE23B51 SLP200 P0001 T00720044=
201511050932 SPECI KPAE 050932Z AUTO 00000KT 10SM SCT016 OVC060 07/04 A3011 RMK AO2 RAE23 P0001 T00720044=
201511050920 SPECI KPAE 050920Z AUTO VRB03KT 10SM -RA BKN016 BKN031 OVC060 08/04 A3011 RMK AO2 P0001 T00780044=
201511050907 SPECI KPAE 050907Z AUTO VRB03KT 10SM -RA OVC014 08/04 A3011 RMK AO2 P0001 T00780044=
201511050853 METAR KPAE 050853Z AUTO 15005KT 8SM -RA OVC015 08/04 A3012 RMK AO2 SLP202 P0001 60002 T00780044 58005=
201511050753 METAR KPAE 050753Z AUTO VRB03KT 10SM -RA BKN015 OVC044 07/04 A3013 RMK AO2 SLP205 P0001 T00720044 400940028=
201511050751 SPECI KPAE 050751Z AUTO VRB03KT 10SM -RA BKN015 OVC044 07/04 A3013 RMK AO2 P0001=
201511050653 METAR KPAE 050653Z AUTO VRB04KT 10SM -RA FEW015 BKN042 OVC050 08/04 A3014 RMK AO2 RAB30 SLP208 P0000 T00780039=
201511050648 SPECI KPAE 050648Z AUTO 15004KT 10SM -RA SCT015 OVC043 08/04 A3014 RMK AO2 RAB30 P0000=
201511050622 SPECI KPAE 050622Z AUTO 14003KT 10SM BKN016 BKN042 OVC060 08/03 A3015 RMK AO2 T00780033=
201511050553 METAR KPAE 050553Z AUTO 15007KT 10SM OVC042 08/03 A3014 RMK AO2 RAE0459 SLP209 P0000 60000 T00780033 10089 20078 58001=
201511050453 METAR KPAE 050453Z VRB03KT 10SM -RA OVC046 08/03 A3014 RMK AO2 RAB41 SLP210 P0000 T00830033=
201511050353 METAR KPAE 050353Z 15004KT 10SM OVC038 08/03 A3015 RMK AO2 SLP212 T00830028=
201511050253 METAR KPAE 050253Z 17005KT 10SM OVC047 08/03 A3014 RMK AO2 RAB34E46 SLP210 P0000 60000 T00830033 56004=
201511050153 METAR KPAE 050153Z 17005KT 10SM BKN038 OVC050 09/02 A3015 RMK AO2 SLP212 T00890022=
201511050053 METAR KPAE 050053Z 16006KT 10SM BKN041 OVC050 09/03 A3015 RMK AO2 SLP211 T00890028=
201511042353 METAR KPAE 042353Z AUTO 17006KT 10SM OVC049 09/03 A3016 RMK AO2 SLP215 T00890028 10094 20067 56004 TSNO=
201511042255 SPECI KPAE 042255Z 21004KT 10SM SCT023 OVC044 09/04 A3016 RMK AO2 T00940044=
201511042253 METAR KPAE 042253Z 25004KT 10SM BKN023 OVC044 09/04 A3016 RMK AO2 SLP216 T00940039=
201511042200 SPECI KPAE 042200Z 00000KT 10SM BKN026 09/04 A3016 RMK AO2 T00890044=
201511042153 METAR KPAE 042153Z 20003KT 10SM FEW015 SCT028 09/04 A3015 RMK AO2 SLP214 T00890044=
201511042053 METAR KPAE 042053Z 26003KT 10SM FEW028 08/05 A3017 RMK AO2 SLP219 T00830050 56003=
201511041956 SPECI KPAE 041956Z VRB04KT 10SM SCT015 BKN024 09/04 A3017 RMK AO2 T00940044=
201511041953 METAR KPAE 041953Z 16004KT 10SM FEW013 SCT027 09/04 A3017 RMK AO2 SLP219 T00890039=
201511041904 SPECI KPAE 041904Z 16005KT 10SM FEW013 SCT027 08/04 A3018 RMK AO2 T00830044=
201511041903 SPECI KPAE 041903Z 17004KT 10SM FEW013 BKN027 08/04 A3018 RMK AO2 T00830044=
201511041853 METAR KPAE 041853Z 19005KT 10SM FEW011 SCT027 08/04 A3018 RMK AO2 SLP222 T00780039=
201511041753 METAR KPAE 041753Z 17005KT 10SM FEW029 07/04 A3018 RMK AO2 SLP222 T00670039 10067 20033 50003=
201511041719 SPECI KPAE 041719Z 16005KT 10SM SCT029 06/04 A3018 RMK AO2 T00610039=
201511041653 METAR KPAE 041653Z 16007KT 10SM BCFG FEW001 BKN028 06/03 A3018 RMK AO2 SLP224 T00560028=
201511041624 SPECI KPAE 041624Z 16007KT 10SM BCFG FEW001 BKN028 04/03 A3018 RMK AO2 T00440028=
201511041612 SPECI KPAE 041612Z VRB04KT 1SM R16R/P6000FT BCFG BKN001 BKN028 04/03 A3018 RMK AO2 T00440033=
201511041553 METAR KPAE 041553Z 16006KT 1/2SM R16R/P6000FT FG BKN001 OVC028 04/03 A3018 RMK AO2 SLP224 T00390028=
201511041533 SPECI KPAE 041533Z 17004KT 1SM R16R/P6000FT BCFG BKN001 OVC013 04/03 A3018 RMK AO2 T00390028=
201511041526 SPECI KPAE 041526Z 16005KT 2SM BR BKN001 OVC013 04/03 A3018 RMK AO2 T00390028=
201511041507 SPECI KPAE 041507Z 11003KT 1/2SM R16R/2200VP6000FT FG VV001 04/03 A3018 RMK AO2 T00440033=
201511041453 METAR KPAE 041453Z VRB03KT 1/4SM R16R/2400VP6000FT FG VV001 04/04 A3017 RMK AO2 SLP220 T00440039 56000=
201511041450 SPECI KPAE 041450Z 00000KT 1/4SM R16R/1800VP6000FT FG VV001 04/04 A3017 RMK AO2=
201511041404 SPECI KPAE 041404Z VRB04KT 1/4SM R16R/1200V1600FT FG VV001 05/04 A3016 RMK AO2 T00500039=
201511041353 METAR KPAE 041353Z 16006KT 1/4SM R16R/1400V1600FT FG VV002 05/04 A3016 RMK AO2 SLP216 T00500039=
201511041343 SPECI KPAE 041343Z 15005KT 1/4SM R16R/1200V1400FT FG VV002 05/04 A3016 RMK AO2 T00500039=
201511041316 SPECI KPAE 041316Z 17005KT 1/2SM R16R/1600V2200FT FG VV002 05/04 A3017 RMK AO2 T00500039=
201511041253 METAR KPAE 041253Z 16005KT 1/2SM R16R/2200V3500FT FG VV002 05/04 A3017 RMK AO2 SLP220 T00500039=
201511041234 SPECI KPAE 041234Z 16005KT 1/2SM R16R/2000V2800FT FG VV002 04/03 A3017 RMK AO2 T00440033=
201511041224 SPECI KPAE 041224Z 17005KT 1/4SM R16R/1800V3000FT FG VV002 04/03 A3017 RMK AO2 T00440033=
201511041213 SPECI KPAE 041213Z 16004KT 1/4SM R16R/1400V2000FT FG VV002 04/03 A3017 RMK AO2 T00390033=
201511041153 METAR KPAE 041153Z 17004KT 1/4SM R16R/1000V1600FT FG VV001 03/03 A3017 RMK AO2 SLP219 70003 T00330028 10056 20028 53003=
201511041137 SPECI KPAE 041137Z 17005KT 1/4SM R16R/1000V1600FT FG VV001 03/02 A3016 RMK AO2 T00330022=
201511041116 SPECI KPAE 041116Z 13003KT 1/2SM R16R/2000VP6000FT FG VV001 03/02 A3016 RMK AO2 T00330022=
201511041108 SPECI KPAE 041108Z 13003KT 1SM R16R/4000VP6000FT BR VV001 04/03 A3016 RMK AO2 T00390028=
201511041105 SPECI KPAE 041105Z 12004KT 2SM R16R/4000VP6000FT BR FEW001 04/03 A3016 RMK AO2 T00390028=
201511041053 METAR KPAE 041053Z 00000KT 9SM FEW029 04/03 A3016 RMK AO2 SLP215 T00440028=
201511041006 SPECI KPAE 041006Z 00000KT 10SM SCT026 04/03 A3016 RMK AO2 T00440028=
201511040953 METAR KPAE 040953Z 17004KT 10SM BKN025 05/03 A3016 RMK AO2 SLP216 T00500033=
201511040853 METAR KPAE 040853Z 00000KT 10SM BKN023 04/02 A3016 RMK AO2 SLP216 T00390022 53004=
201511040824 SPECI KPAE 040824Z 00000KT 10SM BKN023 03/02 A3015 RMK AO2 T00330017=
201511040753 METAR KPAE 040753Z 12003KT 10SM CLR 04/02 A3015 RMK AO2 SLP212 T00390022 401000033=
201511040653 METAR KPAE 040653Z 14003KT 10SM CLR 04/02 A3015 RMK AO2 SLP212 T00390022=
201511040553 METAR KPAE 040553Z 11003KT 10SM CLR 05/03 A3015 RMK AO2 SLP211 T00500028 10094 20039 51008=
201511040453 METAR KPAE 040453Z 00000KT 10SM CLR 04/02 A3014 RMK AO2 SLP209 T00440022=
201511040353 METAR KPAE 040353Z 00000KT 10SM CLR 06/03 A3013 RMK AO2 SLP205 T00560028=
201511040253 METAR KPAE 040253Z 00000KT 10SM CLR 06/03 A3012 RMK AO2 SLP203 T00610033 51012=
201511040153 METAR KPAE 040153Z 00000KT 10SM CLR 07/03 A3011 RMK AO2 SLP199 T00670028=
201511040053 METAR KPAE 040053Z 00000KT 10SM CLR 08/04 A3010 RMK AO2 SLP196 T00780039=
201511032353 METAR KPAE 032353Z 36005KT 10SM CLR 09/04 A3009 RMK AO2 SLP190 T00940039 10100 20072 53010=
201511032253 METAR KPAE 032253Z 33005KT 10SM FEW036 09/04 A3007 RMK AO2 SLP186 T00940044=
201511032153 METAR KPAE 032153Z 34006KT 10SM BKN037 09/04 A3006 RMK AO2 SLP183 T00890039=
201511032053 METAR KPAE 032053Z 33005KT 10SM FEW015 SCT026 08/04 A3006 RMK AO2 SLP181 T00830039 51003=
201511032013 SPECI KPAE 032013Z VRB03KT 10SM FEW010 SCT027 09/05 A3006 RMK AO2 T00890050=
201511032000 SPECI KPAE 032000Z 01004KT 10SM FEW010 BKN027 08/04 A3006 RMK AO2 T00830044=
201511031953 METAR KPAE 031953Z 36005KT 10SM SCT008 BKN013 BKN048 09/05 A3006 RMK AO2 SLP181 T00890050=
201511031907 SPECI KPAE 031907Z 36004KT 10SM SCT008 BKN013 BKN048 08/05 A3006 RMK AO2 T00780050=
201511031900 SPECI KPAE 031900Z 36006KT 10SM SCT008 BKN050 08/05 A3006 RMK AO2 T00780050=
201511031853 METAR KPAE 031853Z 36006KT 10SM SCT008 BKN013 OVC046 08/05 A3005 RMK AO2 SLP180 T00830050=
201511031753 METAR KPAE 031753Z 35003KT 10SM FEW008 BKN013 BKN041 07/05 A3005 RMK AO2 RAB10E26 SLP178 P0000 60003 T00720050 10078 20061 51011=
201511031736 SPECI KPAE 031736Z VRB04KT 10SM FEW008 SCT013 BKN050 08/05 A3005 RMK AO2 RAB10E26 P0000 T00780050=
201511031653 METAR KPAE 031653Z 00000KT 10SM FEW016 BKN029 OVC044 07/04 A3004 RMK AO2 RAB01E12 SLP176 P0000 T00720039=
201511031555 SPECI KPAE 031555Z 00000KT 10SM BKN022 OVC035 07/04 A3003 RMK AO2 T00670039=
201511031553 METAR KPAE 031553Z 34003KT 10SM SCT030 BKN040 07/04 A3003 RMK AO2 RAE07 SLP171 P0000 T00670039=
201511031525 SPECI KPAE 031525Z 00000KT 10SM SCT030 BKN040 06/04 A3002 RMK AO2 RAE07 P0000 T00610044=
201511031453 METAR KPAE 031453Z 00000KT 4SM -RA BR BKN009 OVC027 06/05 A3002 RMK AO2 RAB33 SLP167 P0003 60003 T00610050 51011=
201511031444 SPECI KPAE 031444Z 28004KT 3SM -RA BR SCT002 SCT009 OVC027 07/05 A3002 RMK AO2 RAB33 P0002 T00670050=
201511031400 SPECI KPAE 031400Z AUTO 00000KT 10SM BKN028 OVC070 07/05 A3001 RMK AO2 T00670050=
201511031353 METAR KPAE 031353Z AUTO 00000KT 10SM SCT027 OVC070 07/05 A3000 RMK AO2 SLP163 T00670050=
201511031308 SPECI KPAE 031308Z AUTO 00000KT 10SM SCT029 SCT043 OVC060 07/04 A3000 RMK AO2 T00670044=
201511031300 SPECI KPAE 031300Z AUTO 00000KT 10SM BKN029 BKN045 OVC060 07/05 A3000 RMK AO2 T00670050=
201511031253 METAR KPAE 031253Z AUTO 00000KT 10SM SCT029 BKN034 OVC070 06/05 A3000 RMK AO2 SLP160 T00610050=
201511031153 METAR KPAE 031153Z AUTO 00000KT 10SM FEW044 OVC060 07/04 A2998 RMK AO2 SLP154 70004 T00670044 10072 20044 58004=
201511031053 METAR KPAE 031053Z AUTO 00000KT 10SM OVC055 07/04 A2999 RMK AO2 SLP158 T00670044=
201511030953 METAR KPAE 030953Z AUTO 00000KT 10SM OVC045 06/04 A3000 RMK AO2 SLP159 T00610044=
201511030853 METAR KPAE 030853Z AUTO 00000KT 10SM OVC055 06/04 A3000 RMK AO2 SLP160 T00560039 55001=
201511030753 METAR KPAE 030753Z AUTO 00000KT 10SM FEW055 06/04 A2999 RMK AO2 SLP158 T00610039 401060056=
201511030653 METAR KPAE 030653Z AUTO 05003KT 10SM BKN050 07/04 A2999 RMK AO2 SLP157 T00720039=
201511030553 METAR KPAE 030553Z AUTO 00000KT 10SM CLR 06/04 A3000 RMK AO2 SLP161 T00560039 10089 20056 51010=
201511030453 METAR KPAE 030453Z AUTO 36004KT 10SM CLR 06/04 A2999 RMK AO2 SLP157 T00610044=
201511030353 METAR KPAE 030353Z 03003KT 10SM SCT050 07/05 A2998 RMK AO2 SLP155 T00720050=
201511030253 METAR KPAE 030253Z 36004KT 10SM CLR 07/04 A2997 RMK AO2 SLP150 T00670044 53008=
201511030153 METAR KPAE 030153Z 35003KT 10SM CLR 07/05 A2996 RMK AO2 SLP147 T00720050=
201511030053 METAR KPAE 030053Z 32003KT 10SM CLR 08/06 A2994 RMK AO2 SLP141 T00780056=
201511022353 METAR KPAE 022353Z 35005KT 10SM SCT034 09/06 A2994 RMK AO2 SLP141 T00940056 10106 20094 51003=
201511022253 METAR KPAE 022253Z 36005KT 10SM OVC034 09/06 A2994 RMK AO2 SLP140 T00940056=
201511022200 SPECI KPAE 022200Z 33006KT 10SM OVC035 10/06 A2994 RMK AO2 T01000056=
201511022153 METAR KPAE 022153Z 35004KT 10SM SCT011 BKN025 OVC033 10/06 A2994 RMK AO2 SLP140 T01000056=
201511022053 METAR KPAE 022053Z VRB03KT 10SM SCT011 BKN025 OVC033 09/07 A2993 RMK AO2 SLP138 T00940067 50001=
201511021953 METAR KPAE 021953Z 33005KT 10SM SCT008 BKN015 OVC035 09/07 A2994 RMK AO2 SLP139 T00940072=
201511021853 METAR KPAE 021853Z 35006KT 10SM BKN003 BKN035 09/07 A2994 RMK AO2 SLP139 T00940072=
201511021800 SPECI KPAE 021800Z 34004KT 10SM SCT006 BKN035 09/08 A2993 RMK AO2 T00940078=
201511021753 METAR KPAE 021753Z 35004KT 10SM BKN006 OVC032 09/08 A2993 RMK AO2 RAE29 SLP138 P0000 60004 T00940078 10094 20083 51010=
201511021728 SPECI KPAE 021728Z 36005KT 4SM -RA BR BKN003 09/08 A2993 RMK AO2 P0000 T00940078=
201511021708 SPECI KPAE 021708Z 36006KT 1 1/2SM -RA BR OVC002 09/08 A2993 RMK AO2 P0000 T00890078=
201511021659 SPECI KPAE 021659Z 35004KT 1/4SM R16R/1800VP6000FT -RA FG VV002 09/08 A2993 RMK AO2 P0000 T00890078=
201511021653 METAR KPAE 021653Z 36004KT 3/4SM R16R/1800VP6000FT -RA BR OVC002 09/08 A2993 RMK AO2 RAE09B40 SLP135 P0000 T00890078=
201511021633 SPECI KPAE 021633Z 30004KT 3/4SM R16R/P6000FT BR VV002 09/08 A2992 RMK AO2 RAE09 P0000 T00940078=
201511021609 SPECI KPAE 021609Z 22003KT 1SM R16R/P6000FT BR BKN005 BKN015 OVC021 09/08 A2992 RMK AO2 RAE09 P0000 T00940078 $=
201511021557 SPECI KPAE 021557Z 22003KT 3SM -RA BR FEW005 BKN017 OVC023 09/08 A2992 RMK AO2 P0000 T00890078 $=
201511021553 METAR KPAE 021553Z 22004KT 2 1/2SM -RA BR SCT003 BKN007 OVC031 09/08 A2992 RMK AO2 RAB1457E18B47 SLP132 P0004 T00890078 $=
201511021453 METAR KPAE 021453Z 00000KT 10SM FEW020 BKN026 OVC050 09/07 A2990 RMK AO2 SLP127 T00890072 53008 $=
201511021403 SPECI KPAE 021403Z AUTO 20003KT 10SM FEW023 BKN027 OVC055 08/07 A2989 RMK AO2 T00830072 $=
201511021353 METAR KPAE 021353Z AUTO 00000KT 10SM SCT029 BKN055 08/07 A2989 RMK AO2 SLP122 T00830072 $=
201511021253 METAR KPAE 021253Z AUTO 19004KT 10SM FEW027 BKN040 OVC080 09/07 A2988 RMK AO2 SLP119 T00890072 $=
201511021218 SPECI KPAE 021218Z AUTO 00000KT 10SM FEW021 SCT030 OVC035 09/08 A2988 RMK AO2 T00890078 $=
201511021153 METAR KPAE 021153Z AUTO 20005KT 8SM BKN021 OVC028 09/08 A2988 RMK AO2 SLP118 60014 70026 T00890078 10106 20089 51005 $=
201511021053 METAR KPAE 021053Z AUTO 20006KT 10SM OVC020 09/08 A2988 RMK AO2 SLP118 T00940078 $=
201511021039 SPECI KPAE 021039Z AUTO 19007KT 10SM BKN020 OVC035 09/08 A2988 RMK AO2 T00940078 $=
201511020953 METAR KPAE 020953Z AUTO 16006KT 8SM OVC031 09/07 A2987 RMK AO2 RAE50 SLP114 P0009 T00940072 $=
201511020910 SPECI KPAE 020910Z AUTO 24005KT 3SM RA BR SCT016 OVC026 10/08 A2986 RMK AO2 P0007 T01000078 $=
201511020853 METAR KPAE 020853Z AUTO 22004KT 2 1/2SM RA BR FEW007 OVC026 09/08 A2986 RMK AO2 VIS 1 3/4V5 RAB16E19B34 SLP114 P0005 60005 T00940078 53010 $=
201511020837 SPECI KPAE 020837Z AUTO 25006KT 7SM -RA FEW008 BKN011 OVC028 10/08 A2986 RMK AO2 RAB16E19B34 P0001 T01000078 $=
201511020821 SPECI KPAE 020821Z AUTO 20010KT 10SM FEW009 BKN024 OVC035 10/08 A2985 RMK AO2 RAB16E19 P0000 T01000078 TSNO $=
201511020807 SPECI KPAE 020807Z AUTO 21010KT 10SM FEW009 SCT023 OVC031 10/08 A2985 RMK AO2 T01000078 $=
201511020753 METAR KPAE 020753Z AUTO 21011KT 10SM SCT010 BKN017 OVC033 11/08 A2985 RMK AO2 SLP107 T01060078 401220089 $=
201511020742 SPECI KPAE 020742Z AUTO 22011KT 10SM SCT010 BKN019 OVC028 11/08 A2985 RMK AO2 T01060078 $=
201511020653 METAR KPAE 020653Z AUTO 21012KT 10SM OVC013 11/08 A2984 RMK AO2 SLP106 T01060078 $=
201511020644 SPECI KPAE 020644Z AUTO 20013KT 10SM OVC013 11/08 A2984 RMK AO2 T01060078 $=
201511020620 SPECI KPAE 020620Z AUTO 20013G21KT 10SM BKN015 OVC023 11/08 A2984 RMK AO2 T01060078 $=
201511020553 METAR KPAE 020553Z AUTO 19014KT 10SM OVC014 11/08 A2983 RMK AO2 SLP102 T01060078 10111 20106 53013 $=
201511020453 METAR KPAE 020453Z AUTO 20016G21KT 10SM OVC015 11/08 A2981 RMK AO2 SLP094 T01060078 $=
201511020353 METAR KPAE 020353Z 18016KT 10SM BKN019 11/08 A2980 RMK AO2 SLP091 T01110078 $=
201511020253 METAR KPAE 020253Z 18015KT 10SM BKN019 11/08 A2979 RMK AO2 PK WND 18027/0208 SLP089 T01110078 51023 $=
201511020153 METAR KPAE 020153Z 19019G25KT 10SM SCT017 BKN022 11/08 A2977 RMK AO2 SLP080 T01110078 $=
201511020053 METAR KPAE 020053Z 18014G27KT 10SM BKN018 BKN023 12/08 A2974 RMK AO2 PK WND 20034/0007 SLP073 T01170078 $=
201511012353 METAR KPAE 012353Z 18019G30KT 10SM SCT019 12/08 A2972 RMK AO2 PK WND 19030/2303 SLP064 60012 T01220083 10122 20094 50002 $=
201511012326 SPECI KPAE 012326Z 19020G27KT 10SM SCT019 BKN075 12/08 A2973 RMK AO2 PK WND 19030/2303 T01220083 $=
201511012300 SPECI KPAE 012300Z 19019KT 10SM BKN017 BKN036 OVC080 12/08 A2973 RMK AO2 T01220083 $=
201511012253 METAR KPAE 012253Z 18018G25KT 10SM BKN014 BKN024 12/09 A2973 RMK AO2 PK WND 18027/2208 SLP067 T01220089 $=
201511012153 METAR KPAE 012153Z 19019G29KT 10SM BKN014 BKN020 12/09 A2973 RMK AO2 PK WND 18029/2144 SLP066 T01170089 $=
201511012053 METAR KPAE 012053Z 18019G27KT 10SM BKN014 BKN036 OVC050 11/08 A2971 RMK AO2 PK WND 18030/2036 RAE48 SLP062 P0000 60012 T01060083 58008 $=
201511011953 METAR KPAE 011953Z 17018G25KT 5SM -RA BR BKN014 BKN036 OVC050 10/08 A2973 RMK AO2 SLP069 P0007 T01000078 $=
201511011853 METAR KPAE 011853Z 18010KT 4SM -RA BR FEW014 BKN033 OVC042 09/07 A2975 RMK AO2 RAB25 SLP074 P0005 T00940072 $=
201511011753 METAR KPAE 011753Z 17015KT 10SM FEW026 SCT060 BKN110 10/06 A2974 RMK AO2 PK WND 18030/1732 RAB31E40 SLP071 P0000 60000 T01000061 10106 20089 50009 $=
201511011745 SPECI KPAE 011745Z 18021G27KT 10SM FEW023 SCT030 BKN065 10/06 A2974 RMK AO2 PK WND 18030/1732 RAB31E40 P0000 T01000061 $=
201511011732 SPECI KPAE 011732Z 18023G30KT 10SM -RA FEW022 BKN026 BKN034 10/06 A2974 RMK AO2 PK WND 18030/1732 RAB31 P0000 T01000061 $=
201511011653 METAR KPAE 011653Z 18016G24KT 10SM CLR 10/06 A2974 RMK AO2 SLP071 T01000056 $=
201511011553 METAR KPAE 011553Z 21007KT 10SM CLR 09/04 A2972 RMK AO2 SLP066 T00940044 $=
201511011453 METAR KPAE 011453Z 21013KT 10SM CLR 09/06 A2971 RMK AO2 SLP061 60000 T00890056 53017 $=
201511011353 METAR KPAE 011353Z AUTO 20014G25KT 10SM BKN075 BKN090 BKN110 09/06 A2968 RMK AO2 PK WND 20027/1329 SLP052 T00940061 $=
201511011253 METAR KPAE 011253Z AUTO 18015KT 10SM FEW047 BKN090 BKN110 09/07 A2966 RMK AO2 PK WND 19027/1227 RAB15E40 SLP045 P0000 T00940072 $=
201511011153 METAR KPAE 011153Z AUTO 20012KT 10SM FEW009 SCT049 BKN070 10/08 A2966 RMK AO2 RAB1056E45 SLP043 P0001 60014 70029 T01000083 10117 20100 50002 $=
201511011053 METAR KPAE 011053Z AUTO 20009KT 10SM FEW022 BKN048 OVC080 11/09 A2966 RMK AO2 RAB08E52 SLP044 P0002 T01060089 $=
201511011001 SPECI KPAE 011001Z AUTO 20011KT 10SM OVC016 11/08 A2966 RMK AO2 T01060083 $=
201511010953 METAR KPAE 010953Z AUTO 20013KT 10SM BKN014 OVC020 11/08 A2966 RMK AO2 SLP045 T01060083 $=
201511010907 SPECI KPAE 010907Z AUTO 19015KT 10SM FEW013 BKN019 OVC036 11/09 A2965 RMK AO2 T01110089 $=
201511010900 SPECI KPAE 010900Z AUTO 18015KT 10SM SCT013 SCT019 OVC037 11/09 A2965 RMK AO2 T01110089 $=
201511010853 METAR KPAE 010853Z AUTO 19014KT 10SM BKN013 BKN037 OVC110 11/09 A2965 RMK AO2 RAE15B30E44 SLP042 P0000 60011 T01110089 53004 $=
201511010826 SPECI KPAE 010826Z AUTO 18015G23KT 10SM BKN017 BKN023 OVC080 11/09 A2964 RMK AO2 RAE15 P0000 T01110089 $=
201511010753 METAR KPAE 010753Z AUTO 18016KT 6SM -RA BR FEW020 BKN031 OVC055 11/09 A2964 RMK AO2 SLP039 P0007 T01110089 401560111 $=
201511010653 METAR KPAE 010653Z AUTO 17015G25KT 6SM -RA OVC050 12/09 A2964 RMK AO2 RAB22 SLP036 P0004 T01170089 $=
201511010553 METAR KPAE 010553Z AUTO 17018G26KT 10SM FEW060 SCT080 12/09 A2965 RMK AO2 PK WND 18028/0454 SLP041 60000 T01170089 10122 20117 58005 $=
201511010453 METAR KPAE 010453Z AUTO 19025G31KT 10SM CLR 12/09 A2966 RMK AO2 PK WND 19031/0444 SLP043 T01170089=
201511010408 SPECI KPAE 010408Z AUTO 18016G25KT 10SM SCT009 SCT015 12/09 A2967 RMK AO2 T01170089=
201511010353 METAR KPAE 010353Z AUTO 18011KT 10SM BKN009 OVC015 12/09 A2967 RMK AO2 CIG 008V014 SLP046 T01170094=
201511010253 METAR KPAE 010253Z 22004KT 10SM OVC009 12/10 A2967 RMK AO2 RAB0154E03 CIG 008V013 SLP046 P0000 60000 T01220100 53004=
201511010200 SPECI KPAE 010200Z 20010KT 9SM -RA OVC008 12/11 A2966 RMK AO2 RAB0154 CIG 006V011 P0000 T01220106=
201511010153 METAR KPAE 010153Z 20011KT 9SM OVC010 12/11 A2966 RMK AO2 SLP041 T01220106=
201511010053 METAR KPAE 010053Z 18014G21KT 10SM OVC010 12/10 A2966 RMK AO2 SLP044 T01220100=

# No short TAF reports from KPAE in databse.

###################################
#  large TAF from KPAE
###################################
201511302324 TAF KPAE 302324Z 0100/0124 18008KT P6SM OVC040
                      TEMPO 0100/0104 -RA FM011200 14012KT P6SM
                       OVC040=
201511302119 TAF AMD KPAE 302119Z 3021/0118 16010KT P6SM SCT050 FM302200 16010KT
                       P6SM BKN050 FM010000 16010KT P6SM OVC040
                       TEMPO 0100/0104 -RA FM011200 14012KT P6SM
                       OVC040=
201511301727 TAF KPAE 301727Z 3018/0118 16006KT P6SM VCFG SKC
                      TEMPO 3018/3020 2SM BR FM302200 16008KT P6SM
                       BKN120 FM010100 18012KT P6SM OVC060 FM011200
                       16012KT P6SM OVC040=
201511301124 TAF KPAE 301124Z 3012/0112 00000KT 5SM BCFG SCT001
                      TEMPO 3012/3016 1/4SM FG VV001 FM302200 16008KT
                       5SM BR FEW001 BKN120 FM010100 18011KT P6SM
                       OVC060=
201511300902 TAF AMD KPAE 300902Z 3009/0106 17005KT 1/4SM BCFG VV001 FM302000
                       16005KT 3SM BR SKC FM302100 17009KT P6SM
                       OVC120=
201511300530 TAF KPAE 300530Z 3006/0106 00000KT 5SM BCFG SKC FM300700 13004KT
                       3SM BR SKC FM301200 14005KT 1/4SM FG SKC
                       FM302000 16005KT 3SM BR SKC FM302100 17009KT
                       P6SM OVC120=
201511292328 TAF KPAE 292328Z 3000/3024 VRB03KT P6SM VCFG SKC FM300600 15003KT
                       1SM BR SKC FM300900 15003KT 1/2SM FG OVC001
                       FM301800 15005KT P6SM BKN200=
201511291937 TAF AMD KPAE 291937Z 2920/3018 VRB03KT P6SM VCFG SCT001 FM292200
                       18005KT P6SM SKC FM300600 17005KT 1SM BR
                       SKC FM300900 17005KT 1/2SM FG OVC001=
201511291734 TAF KPAE 291734Z 2918/3018 00000KT 1/2SM FZFG OVC001
                      TEMPO 2918/2920 1/4SM FZFG VV001 FM292000
                       18003KT 1SM BR OVC002 FM292200 18005KT P6SM
                       SKC FM300600 17005KT 1SM BR SKC FM300900
                       17005KT 1/2SM FG OVC001=
201511291529 TAF AMD KPAE 291529Z 2915/3012 00000KT 1/2SM FZFG OVC001
                      TEMPO 2915/2917 5SM BCFG SCT001 FM291700
                       00000KT P6SM VCFG SKC FM292100 18004KT P6SM
                       SKC=
201511291124 TAF KPAE 291124Z 2912/3012 00000KT P6SM VCFG SKC FM292100 18004KT
                       P6SM SKC=
201511290520 TAF KPAE 290520Z 2906/3006 00000KT P6SM SKC FM290900 15003KT P6SM
                       VCFG SKC FM291900 18004KT P6SM SKC=
201511282320 TAF KPAE 282320Z 2900/2924 VRB03KT P6SM SKC FM290900 15003KT P6SM
                       VCFG SKC FM291900 18004KT P6SM SKC=
201511281720 TAF KPAE 281720Z 2818/2918 VRB03KT P6SM SKC FM282100 30004KT P6SM
                       SKC FM291200 VRB03KT P6SM VCFG SKC=
201511281132 TAF KPAE 281132Z 2812/2912 03003KT P6SM SKC FM281800 04005KT P6SM
                       SKC=
201511280531 TAF KPAE 280531Z 2806/2906 03003KT P6SM SKC FM280700 VRB03KT P6SM
                       SKC=
201511272320 TAF KPAE 272320Z 2800/2824 02004KT P6SM SKC FM280300 VRB03KT P6SM
                       SKC=
201511271720 TAF KPAE 271720Z 2718/2818 36004KT P6SM SKC FM280300 VRB03KT P6SM
                       SKC=
201511271127 TAF KPAE 271127Z 2712/2812 03003KT P6SM SKC=
201511270528 TAF KPAE 270528Z 2706/2806 02003KT P6SM SKC=
201511262320 TAF KPAE 262320Z 2700/2724 04003KT P6SM SKC=
201511261720 TAF KPAE 261720Z 2618/2718 01004KT P6SM SKC FM270300 04002KT P6SM
                       SKC=
201511261120 TAF KPAE 261120Z 2612/2712 03004KT P6SM SKC=
201511260520 TAF KPAE 260520Z 2606/2706 01002KT P6SM SKC FM260800 VRB03KT P6SM
                       SKC FM261400 VRB03KT P6SM SKC=
201511252321 TAF KPAE 252321Z 2600/2624 36005KT P6SM SKC FM260300 03003KT P6SM
                       SKC=
201511251721 TAF KPAE 251721Z 2518/2618 36007KT P6SM SKC FM260300 01004KT P6SM
                       SKC=
201511251120 TAF KPAE 251120Z 2512/2612 02007KT P6SM SKC FM251900 36004KT P6SM
                       SKC=
201511250520 TAF KPAE 250520Z 2506/2606 02007KT P6SM SKC FM251900 36004KT P6SM
                       SKC=
201511250113 TAF AMD KPAE 250113Z 2501/2524 33010KT P6SM SKC FM250600 02007KT
                       P6SM SKC FM252000 04006KT P6SM SKC=
201511242329 TAF KPAE 242329Z 2500/2524 33012G20KT P6SM SKC FM250600 02012KT
                       P6SM SKC FM251000 04010KT P6SM SKC=
201511241722 TAF KPAE 241722Z 2418/2518 34008KT P6SM SCT010 OVC050
                      TEMPO 2418/2420 -RA BKN010 OVC040 FM242000
                       36012KT P6SM SCT015 BKN040 FM242200 36012G22KT
                       P6SM SCT040 FM250600 02012KT P6SM SKC=
201511241600 TAF AMD KPAE 241600Z 2416/2512 34008KT P6SM SCT005 BKN015 OVC050
                       TEMPO 2416/2418 3SM -RA BR BKN004 OVC012
                       FM241900 34014G22KT P6SM SCT020 BKN050 FM242300
                       36014G22KT P6SM SKC=
201511241400 TAF AMD KPAE 241400Z 2414/2512 36006KT 3SM BR VCSH OVC001
                      TEMPO 2414/2416 -RA FM241700 34010KT P6SM
                       SCT015 BKN025 FM241900 34014G22KT P6SM SCT025
                       SCT060 FM242300 36014G22KT P6SM SKC=
201511241140 TAF KPAE 241140Z 2412/2512 05003KT 6SM -RA BR BKN005 OVC020 FM241400
                       32006KT P6SM VCSH SCT006 BKN015 OVC025
                      TEMPO 2414/2416 -RA FM241600 34010KT P6SM
                       SCT015 BKN025 FM241900 34014G22KT P6SM SCT025
                       SCT060 FM242300 36014G22KT P6SM SKC=
201511240548 TAF KPAE 240548Z 2406/2506 16006KT 5SM -RA BR BKN009 OVC014 FM240800
                       12004KT P6SM -SHRA BKN009 OVC014 FM241200
                       35006KT P6SM VCSH SCT008 BKN015 OVC025 FM241600
                       34010KT P6SM SCT012 BKN025 FM241900 34014G22KT
                       P6SM SCT025 FM242300 36014G22KT P6SM SKC=
201511240400 TAF AMD KPAE 240400Z 2404/2424 16006KT 6SM -RA BR BKN012 OVC020
                       FM240700 VRB04KT P6SM VCSH OVC020 FM241400
                       33010KT 5SM -SHRASN BKN025 FM241700 36012G22KT
                       P6SM SCT040=
201511240223 TAF AMD KPAE 240223Z 2402/2424 16006KT 4SM -RA BR BKN022 BKN027
                       OVC035 FM240700 VRB04KT P6SM VCSH OVC020
                       FM241400 33010KT 5SM -SHRASN BKN025 FM241700
                       36012G22KT P6SM SCT040=
201511232325 TAF KPAE 232325Z 2400/2424 18005KT P6SM -RA SCT020 OVC040
                      TEMPO 2400/2404 5SM -RA BR BKN020 OVC040
                       FM240700 VRB04KT P6SM VCSH OVC020 FM241400
                       33010KT 5SM -SHRASN BKN025 FM241700 36012G22KT
                       P6SM SCT040=
201511231730 TAF KPAE 231730Z 2318/2418 18006KT P6SM BKN070 BKN150
                      TEMPO 2318/2321 4SM BR FM232300 18008KT P6SM
                       -RA OVC040
                      TEMPO 2401/2405 5SM -RA BR OVC025 FM240700
                       VRB04KT P6SM VCSH BKN025 FM241400 33010KT
                       5SM -SHRASN BKN025 FM241700 36012G22KT P6SM
                       SCT040=
201511231138 TAF KPAE 231138Z 2312/2412 VRB03KT P6SM SCT100 BKN200 FM231800
                       16005KT P6SM SCT050 BKN100 OVC200 FM240000
                       17008KT P6SM -RA SCT030 BKN050 OVC070 FM240300
                       15005KT 6SM -RA BR SCT008 BKN012 OVC020
                       FM240900 15005KT P6SM VCSH SCT012 BKN025
                       OVC050=
201511230546 TAF KPAE 230546Z 2306/2406 VRB03KT P6SM SCT120 BKN250 FM231800
                       16005KT P6SM SCT050 BKN100 OVC200 FM240000
                       17008KT P6SM -RA SCT030 BKN050 OVC070 FM240300
                       15005KT 6SM -RA BR SCT008 BKN015 OVC025=
201511222320 TAF KPAE 222320Z 2300/2324 34005KT P6SM FEW080 SCT250 FM230300
                       04004KT P6SM FEW080 SCT250 FM230800 12004KT
                       P6SM SCT060 SCT120 BKN250 FM231800 18005KT
                       P6SM BKN060 BKN120 OVC250=
201511221724 TAF KPAE 221724Z 2218/2318 01008KT P6SM SCT250 FM230300 04006KT
                       P6SM SCT250 FM230800 12004KT P6SM SCT120
                       BKN250=
201511221120 TAF KPAE 221120Z 2212/2312 01004KT P6SM SCT250 FM230800 17004KT
                       P6SM BKN250=
201511220525 TAF KPAE 220525Z 2206/2306 03003KT P6SM SKC FM221200 02002KT P6SM
                       BKN250=
201511212328 TAF KPAE 212328Z 2200/2224 02005KT P6SM SCT250=
201511211720 TAF KPAE 211720Z 2118/2218 02005KT P6SM SCT250=
201511211128 TAF KPAE 211128Z 2112/2212 04005KT P6SM SCT250
                      TEMPO 2114/2117 3/4SM BR SCT001 FM211800
                       02005KT P6SM SCT250=
201511210520 TAF KPAE 210520Z 2106/2206 02005KT P6SM FEW250 FM211100 04005KT
                       3SM BR SCT001
                      TEMPO 2113/2117 1/2SM FG BKN001 FM211800
                       02005KT P6SM SCT250=
201511202320 TAF KPAE 202320Z 2100/2124 02006KT P6SM FEW250 FM210600 01004KT
                       P6SM SKC
                      TEMPO 2110/2114 1/2SM FG BKN001 FM211800
                       02005KT P6SM SKC=
201511201724 TAF KPAE 201724Z 2018/2118 01006KT P6SM SCT250 FM210600 00000KT
                       P6SM SKC=
201511201135 TAF KPAE 201135Z 2012/2112 00000KT 4SM BR SKC
                      TEMPO 2012/2014 1SM BR VV004 FM201600 01003KT
                       P6SM SCT250 FM210600 00000KT P6SM SKC=
201511200535 TAF KPAE 200535Z 2006/2106 00000KT P6SM SKC FM201800 02006KT P6SM
                       SKC=
201511192320 TAF KPAE 192320Z 2000/2024 36010KT P6SM FEW020 FM200200 02006KT
                       P6SM SKC FM201800 02006KT P6SM SKC=
201511191720 TAF KPAE 191720Z 1918/2018 35005KT P6SM SCT002 SCT020
                      TEMPO 1918/1920 BKN002 FM192000 36010KT P6SM
                       SCT020 FM200200 02006KT P6SM SKC=
201511191524 TAF AMD KPAE 191524Z 1915/2012 35005KT P6SM SCT002
                      TEMPO 1915/1918 2SM BR BKN002 FM191800 36007KT
                       P6SM SCT020 FM200200 02006KT P6SM SCT007=
201511191405 TAF AMD KPAE 191405Z 1914/2012 35003KT 1/2SM FG BKN001 BKN045 FM191800
                       36002KT 5SM BR OVC007 FM192000 36002KT P6SM
                       OVC015 FM192200 36007KT P6SM SCT020 FM200200
                       02006KT P6SM SCT007=
201511191140 TAF KPAE 191140Z 1912/2012 12005KT P6SM BKN030 OVC050 FM191600
                       34010KT P6SM BKN012 FM192300 36007KT P6SM
                       FEW012 FM200200 02006KT P6SM SCT007=
201511190745 TAF AMD KPAE 190745Z 1908/2006 11004KT P6SM -RA BKN011 OVC015
                      TEMPO 1908/1911 4SM RA BR FM191100 VRB03KT
                       P6SM -RA OVC015 FM191300 02005KT P6SM BKN025
                       OVC050 FM191600 34012KT P6SM FEW020 FM200200
                       02006KT P6SM SCT015=
201511190540 TAF KPAE 190540Z 1906/2006 16003KT P6SM -RA BKN015 OVC025
                      TEMPO 1906/1907 RA BKN010 OVC015 FM190900
                       VRB03KT P6SM -RA OVC015 FM191300 02005KT
                       P6SM BKN025 OVC050 FM191600 34012KT P6SM
                       FEW020 FM200200 02006KT P6SM SCT015=
201511182322 TAF KPAE 182322Z 1900/1924 16008KT P6SM VCSH FEW025 BKN100 FM190300
                       15005KT P6SM VCSH BKN025 OVC050
                      TEMPO 1906/1910 -RA OVC015 FM191000 10004KT
                       P6SM -RA OVC020 FM191400 04003KT P6SM BKN025
                       OVC050 FM191900 36004KT P6SM SCT020 BKN050=
201511181731 TAF KPAE 181731Z 1818/1918 20005KT P6SM FEW010 BKN200 FM182100
                       16008KT P6SM VCSH FEW025 BKN100 FM190300
                       15005KT P6SM -RA BKN025 OVC050 FM191000
                       10004KT P6SM -RA OVC020 FM191400 04003KT
                       P6SM BKN025 OVC050=
201511181123 TAF KPAE 181123Z 1812/1912 20005KT P6SM FEW020 BKN100 FM182100
                       16008KT P6SM FEW025 BKN050 OVC100
                      TEMPO 1823/1903 -SHRA BKN025 OVC050 AMD NOT
                       SKED=
201511180520 TAF KPAE 180520Z 1806/1906 30008KT P6SM FEW025 SCT050 BKN150 FM180900
                       24005KT P6SM FEW025 BKN050 BKN150 FM182300
                       16008KT P6SM FEW025 BKN050 AMD NOT SKED=
201511172349 TAF KPAE 172349Z 1800/1824 30016G28KT 6SM -SHRA BR SCT014 BKN030
                       OVC045 FM180300 30012G22KT P6SM VCSH SCT020
                       SCT040 FM180600 23008KT P6SM SCT012 BKN030
                       FM181100 17009KT P6SM SCT015 SCT035 FM181700
                       16008KT P6SM VCSH BKN015=
201511171749 TAF KPAE 171749Z 1718/1818 20028G43KT P6SM -RA BKN014 OVC020
                      TEMPO 1721/1723 3SM -SHRA BR BKN008 OVC015
                       FM172300 31020G32KT P6SM -SHRA SCT012 BKN025
                       FM180300 30012G22KT P6SM VCSH SCT020 SCT040
                       FM180600 23008KT P6SM SCT012 BKN030 FM181100
                       17009KT P6SM SCT015 SCT035 FM181700 15008KT
                       P6SM SCT015 OVC060=
201511171547 TAF AMD KPAE 171547Z 1716/1812 20028G40KT P6SM VCSH BKN015 OVC030
                       TEMPO 1721/1723 3SM -SHRA BR BKN008 OVC015
                       FM172300 31020G32KT P6SM -SHRA SCT012 BKN025
                       FM180300 30012G22KT P6SM VCSH SCT020 SCT040
                       FM180600 23008KT P6SM SCT012 BKN030=
201511171423 TAF AMD KPAE 171423Z 1714/1812 19022G31KT P6SM -RA BKN012 BKN060
                       OVC080 FM171500 18015G25KT P6SM -RA OVC004
                       FM171800 19025G40KT P6SM -RA OVC007 FM180000
                       31015G23KT P6SM -RA OVC015 FM180300 33008KT
                       P6SM BKN025 OVC050 FM180600 23008KT P6SM
                       SCT030 OVC050=
201511171122 TAF KPAE 171122Z 1712/1812 19010KT 4SM -RA BR OVC002 FM171500 18015G25KT
                       P6SM -RA OVC004 FM171800 19025G40KT P6SM
                       -RA OVC007 FM180000 31015G23KT P6SM -RA
                       OVC015 FM180300 33008KT P6SM BKN025 OVC050
                       FM180600 23008KT P6SM SCT030 OVC050=
201511171020 TAF AMD KPAE 171020Z 1710/1806 18012KT P6SM OVC002 FM171300 18015G25KT
                       P6SM OVC003 FM171800 19025G40KT P6SM OVC007
                       FM180000 31015G23KT P6SM -RA OVC015=
201511170522 TAF KPAE 170522Z 1706/1806 16012KT P6SM -RA OVC015 FM171000 18018G28KT
                       4SM -RA BR OVC015 FM171800 19025G40KT 4SM
                       -RA BR OVC015 FM180000 31015G23KT P6SM -RA
                       OVC025=
201511162330 TAF KPAE 162330Z 1700/1724 16018G26KT P6SM -RA BKN025 OVC040 FM171200
                       20022G35KT P6SM -RA BKN015 OVC025=
201511161726 TAF KPAE 161726Z 1618/1718 16012KT P6SM SCT025 OVC100 FM162100
                       15015G23KT P6SM -RA SCT030 OVC050 FM170000
                       16018G26KT P6SM -RA BKN025 OVC040 FM171200
                       20022G35KT P6SM -RA BKN015 OVC025=
201511161120 TAF KPAE 161120Z 1612/1712 17005KT P6SM SCT020 BKN200 FM161600
                       16012KT P6SM SCT025 OVC100 FM162100 15015G23KT
                       P6SM -RA SCT030 OVC050 FM170000 15018G26KT
                       P6SM -RA BKN025 OVC040=
201511160629 TAF AMD KPAE 160629Z 1606/1706 00000KT P6SM FEW035 SCT050 OVC060
                       TEMPO 1606/1608 -SHRA BKN030 OVC060 FM161200
                       15006KT P6SM SCT035 OVC060 FM162100 15015G23KT
                       P6SM -RA SCT030 OVC050 FM170000 15018G26KT
                       P6SM -RA BKN025 OVC040=
201511160533 TAF KPAE 160533Z 1606/1706 00000KT P6SM FEW035 SCT050 OVC060 FM161200
                       15006KT P6SM SCT035 OVC060 FM162100 15015G23KT
                       P6SM -RA SCT030 OVC050 FM170000 15018G26KT
                       P6SM -RA BKN025 OVC040=
201511152329 TAF KPAE 152329Z 1600/1624 20007KT P6SM FEW010 SCT030 FM160300
                       18006KT P6SM SCT025
                      TEMPO 1603/1607 BKN025 FM161200 15007KT P6SM
                       BKN030 OVC060 FM161800 15010KT P6SM -RA
                       BKN025 OVC050 FM162200 15015G24KT P6SM -RA
                       BKN015 OVC030=
201511152105 TAF AMD KPAE 152105Z 1521/1618 23005KT P6SM OVC010 FM160400 15006KT
                       P6SM BKN030=
201511151728 TAF KPAE 151728Z 1518/1618 21006KT P6SM SCT015 OVC030 FM152000
                       23005KT P6SM OVC040 FM160400 15006KT P6SM
                       BKN030=
201511151127 TAF KPAE 151127Z 1512/1612 34012KT P6SM -RA SCT010 OVC020
                      TEMPO 1512/1514 4SM RA BR BKN010 OVC020 FM151500
                       21006KT P6SM SCT010 OVC020 FM152000 23005KT
                       P6SM OVC040=
201511150521 TAF KPAE 150521Z 1506/1606 36008KT 5SM -RA BR SCT004 BKN010 OVC040
                       TEMPO 1506/1510 2SM -RA BR BKN004 OVC010
                       FM151500 19006KT 6SM -RA SCT010 OVC020 FM152000
                       20006KT P6SM OVC040=
201511150138 TAF AMD KPAE 150138Z 1502/1524 34008KT 5SM -RA BR SCT002 BKN009
                       OVC030
                      TEMPO 1502/1506 2SM RA BR BKN002 OVC009 FM150600
                       34008KT 2SM RA BR BKN002 OVC009 FM151500
                       VRB04KT 6SM -RA OVC020 FM152000 32005KT
                       P6SM VCSH OVC040=
201511142326 TAF KPAE 142326Z 1500/1524 34007KT 1SM RA BR OVC002 FM151500 VRB04KT
                       6SM -RA OVC020 FM152000 32005KT P6SM VCSH
                       OVC040=
201511141918 TAF AMD KPAE 141918Z 1419/1518 11003KT 4SM -RA BKN005 OVC040 FM142300
                       36006KT 2SM -RA BR OVC009 FM151600 VRB04KT
                       6SM -RA OVC020=
201511141838 TAF AMD KPAE 141838Z 1419/1518 00000KT 3SM -RA BR SCT005 OVC045
                       FM142000 05002KT 4SM -RA BR OVC025 FM142300
                       36006KT 2SM -RA BR OVC009 FM151600 VRB04KT
                       6SM -RA OVC020=
201511141738 TAF KPAE 141738Z 1418/1518 00000KT P6SM -RA SCT025 OVC050 FM142000
                       05002KT 4SM -RA BR OVC025 FM142300 36006KT
                       2SM -RA BR OVC009 FM151600 VRB04KT 6SM -RA
                       OVC020=
201511141126 TAF KPAE 141126Z 1412/1512 02008KT P6SM -RA SCT015 OVC045
                      TEMPO 1412/1415 5SM RA BR OVC015 FM141900
                       03006KT 4SM -RA BR OVC015=
201511140529 TAF KPAE 140529Z 1406/1506 00000KT P6SM SCT005 OVC025
                      TEMPO 1406/1410 4SM -RA BR BKN005 OVC015
                       FM141000 VRB03KT P6SM BKN015 OVC025 FM141500
                       03005KT 4SM -RA BR OVC015=
201511132323 TAF KPAE 132323Z 1400/1424 30008KT P6SM -RA BKN004 BKN009 OVC014
                       FM140300 VRB04KT P6SM -RA OVC007 FM141400
                       12005KT 3SM -RA BR OVC010=
201511132007 TAF AMD KPAE 132007Z 1320/1418 20017G29KT P6SM -RA SCT004 OVC008
                       FM132200 20012KT 5SM -RA BR OVC008 FM140300
                       VRB04KT P6SM -RA OVC007 FM141100 05004KT
                       4SM -RA BR SCT010 OVC050=
201511131832 TAF AMD KPAE 131832Z 1319/1418 19022G34KT 1SM -RA BR BKN009 OVC016
                       FM132200 18014KT 3SM -RA BR OVC007 FM140300
                       VRB04KT P6SM -RA OVC007 FM141100 05004KT
                       4SM -RA BR SCT010 OVC050=
201511131737 TAF KPAE 131737Z 1318/1418 19023G29KT P6SM -RA BKN010 OVC016 FM132200
                       18014KT 6SM -RA BR OVC007 FM140300 VRB04KT
                       P6SM -RA OVC007 FM141100 05004KT 4SM -RA
                       BR SCT010 OVC050=
201511131120 TAF KPAE 131120Z 1312/1412 18023G35KT P6SM BKN008 OVC013 FM131800
                       17015G25KT 3SM -RA BR OVC008=
201511130520 TAF KPAE 130520Z 1306/1406 18020G30KT P6SM SCT008 OVC013 FM131500
                       17015G25KT 4SM -RA BR OVC008=
201511130156 TAF AMD KPAE 130156Z 1302/1324 17015G25KT 6SM -RA BR SCT009 SCT013
                       OVC025
                      TEMPO 1302/1306 4SM -RA BKN009 BKN013 OVC025
                       FM130600 18020G30KT 5SM -RA BR OVC020 FM131800
                       17015G25KT P6SM -RA OVC025=
201511122320 TAF KPAE 122320Z 1300/1324 18020G30KT P6SM -RA BKN030 BKN050 OVC100
                       FM130600 18020G30KT 5SM -RA BR OVC020 FM131800
                       17015G25KT P6SM -RA OVC025=
201511121733 TAF KPAE 121733Z 1218/1318 16013G20KT P6SM -RA BKN050 OVC100 FM121900
                       19017G25KT P6SM -RA BKN050 OVC100 FM122100
                       18020G30KT P6SM -RA OVC040 FM130500 18020G30KT
                       5SM -RA BR OVC020=
201511121122 TAF KPAE 121122Z 1212/1312 15010KT P6SM SCT025 BKN120
                      TEMPO 1212/1215 BKN025 OVC120 FM121500 16013G20KT
                       P6SM FEW025 BKN050 OVC100 FM121800 19017G25KT
                       P6SM BKN050 OVC100 FM122100 18020G30KT P6SM
                       -RA OVC040 FM130300 18020G30KT 5SM -RA BR
                       OVC020=
201511121033 TAF AMD KPAE 121033Z 1211/1306 16010KT P6SM FEW020 BKN100 FM121500
                       16013G20KT P6SM FEW025 BKN050 OVC100 FM121800
                       19017G25KT P6SM BKN035 OVC100 FM122100 18020G30KT
                       P6SM -RA OVC030=
201511120520 TAF KPAE 120520Z 1206/1306 15007KT P6SM SCT025 BKN120
                      TEMPO 1206/1210 BKN025 OVC120 FM121000 17010KT
                       P6SM BKN030 BKN250 FM121800 19015G25KT P6SM
                       BKN035 OVC100 FM122100 18020G30KT P6SM -RA
                       OVC030=
201511112334 TAF KPAE 112334Z 1200/1224 18005KT P6SM SCT030 BKN250 FM120900
                       17010KT P6SM BKN030 BKN250 FM121800 19015G25KT
                       P6SM BKN035 OVC100 FM122100 18020G30KT P6SM
                       -RA OVC030=
201511111729 TAF KPAE 111729Z 1118/1218 15010KT P6SM VCSH SCT020 BKN030 BKN050
                       TEMPO 1118/1122 -SHRA BKN015 FM112200 18008KT
                       P6SM BKN030 BKN050 FM120600 15006KT P6SM
                       SCT050 BKN200=
201511111149 TAF KPAE 111149Z 1112/1212 34008KT P6SM SCT022 BKN035 OVC050
                      TEMPO 1112/1116 -SHRA BKN022 OVC035 FM111800
                       VRB03KT P6SM SCT035 BKN050 FM112200 18008KT
                       P6SM BKN050 FM120600 15006KT P6SM SCT050
                       BKN200=
201511110540 TAF KPAE 110540Z 1106/1206 18018G28KT P6SM -RA OVC020 FM110800
                       18018G28KT 5SM -RA BR OVC015 FM111100 31012KT
                       P6SM -SHRA BKN008 OVC018 FM111500 28012KT
                       P6SM VCSH SCT010 BKN025 BKN050 FM111800
                       21012KT P6SM SCT035 BKN050=
201511102332 TAF KPAE 102332Z 1100/1124 18008KT P6SM VCSH BKN025 BKN120 FM110400
                       18015G25KT P6SM -RA OVC020 FM110800 18018G28KT
                       5SM -RA BR OVC015 FM111100 31012KT P6SM
                       -SHRA BKN018 BKN050 FM111600 28012KT P6SM
                       VCSH BKN035 BKN050=
201511101741 TAF KPAE 101741Z 1018/1118 16008KT 3SM BR BKN003 BKN200
                      TEMPO 1018/1019 1SM BR OVC003 FM102000 18015KT
                       P6SM BKN015 FM110300 18016G25KT P6SM -RA
                       OVC025 FM110700 20018G28KT 5SM -RA BR OVC018
                       FM110900 30015G25KT P6SM -SHRA BKN018 BKN050
                       FM111200 21012KT P6SM VCSH BKN035 BKN050=
201511101526 KPAE 101526Z 1015/1112 16006KT 1/2SM FG VV002 FM101600 16007KT
                       2SM BR BKN004
                      TEMPO 1016/1017 1/2SM FG VV002 FM101800 16010KT
                       P6SM BKN005 BKN200 FM102200 18012KT P6SM
                       BKN040 BKN100 FM110300 20012G22KT P6SM -RA
                       OVC040 FM110700 22017G27KT 5SM -RA BR OVC025
                       FM111100 31012G20KT P6SM -SHRA BKN025 BKN050=
201511101300 TAF AMD KPAE 101300Z 1013/1112 VRB03KT 1/4SM FG VV001 FM101600
                       12004KT 1/2SM FG VV002 FM101800 16010KT
                       P6SM BKN005 BKN200 FM102200 18012KT P6SM
                       BKN040 BKN100 FM110300 20012G22KT P6SM -RA
                       OVC040 FM110700 22017G27KT 5SM -RA BR OVC025
                       FM111100 31012G20KT P6SM -SHRA BKN025 BKN050=
201511101120 TAF KPAE 101120Z 1012/1112 00000KT 2SM BR SCT002
                      TEMPO 1012/1015 1/2SM FG VV002 FM101500 12004KT
                       1/2SM FG VV002 FM101800 16010KT P6SM BKN005
                       BKN200 FM102200 18012KT P6SM BKN040 BKN100
                       FM110300 20012G22KT P6SM -RA OVC040 FM110700
                       22017G27KT 5SM -RA BR OVC025 FM111100 31012G20KT
                       P6SM -SHRA BKN025 BKN050=
201511100522 TAF KPAE 100522Z 1006/1106 00000KT P6SM SKC FM100900 VRB03KT 3SM
                       BR SCT002 SCT200
                      TEMPO 1012/1016 1SM BR BKN002 BKN200 FM101800
                       18010KT P6SM SCT020 BKN150 FM102200 18012KT
                       P6SM BKN040 OVC100 FM110300 20012G22KT P6SM
                       -RA OVC040=
201511092336 TAF KPAE 092336Z 1000/1024 02005KT P6SM VCSH SCT010 SCT025 SCT045
                       FM100400 04006KT P6SM SCT045 FM101000 00000KT
                       3SM BR SCT002 SCT200
                      TEMPO 1012/1016 1SM BR OVC002=
201511092308 TAF AMD KPAE 092308Z 0923/1018 36005KT P6SM VCSH SCT015 BKN045
                       TEMPO 0923/0924 5SM -RA BR BKN007 OVC015
                       FM100000 02005KT P6SM VCSH SCT010 SCT025
                       SCT045 FM100400 04006KT P6SM SCT045 FM101000
                       00000KT 3SM BR SCT002 SCT200
                      TEMPO 1012/1016 1SM BR OVC002=
201511092002 TAF AMD KPAE 092002Z 0920/1018 36005KT 5SM -SHRA BR SCT005 BKN012
                       BKN045
                      TEMPO 0920/0921 3SM -RA BKN002 BKN012 BKN045
                       FM092200 36006KT P6SM VCSH SCT015 BKN045
                       FM100000 02005KT P6SM VCSH SCT025 SCT045
                       FM100400 04006KT P6SM SCT045 FM101000 00000KT
                       3SM BR SCT002 SCT200
                      TEMPO 1012/1016 1SM BR OVC002=
201511091909 TAF AMD KPAE 091909Z 0919/1018 36005KT 5SM -SHRA SCT005 BKN012
                       BKN045
                      TEMPO 0919/0920 1SM -RA BR OVC002 FM092100
                       36006KT P6SM VCSH SCT015 BKN045 FM100000
                       02005KT P6SM VCSH SCT025 SCT045 FM100400
                       04006KT P6SM SCT045 FM101000 00000KT 3SM
                       BR SCT002 SCT200
                      TEMPO 1012/1016 1SM BR OVC002=
201511091745 TAF KPAE 091745Z 0918/1018 36005KT P6SM -SHRA SCT010 BKN022 BKN045
                       TEMPO 0918/0920 5SM -RA BR OVC008 FM100000
                       02005KT P6SM VCSH SCT025 SCT045 FM100400
                       04006KT P6SM SCT045 FM101000 00000KT 3SM
                       BR SCT002 SCT200
                      TEMPO 1012/1016 1SM BR OVC002=
201511091542 TAF AMD KPAE 091542Z 0916/1012 VRB04KT P6SM VCSH BKN030 OVC050
                       TEMPO 0916/0917 2SM -RA BR BKN022 BKN035
                       OVC050 FM091800 36007KT P6SM SCT020 BKN040
                       FM100400 04006KT P6SM SCT040 FM101000 00000KT
                       3SM BR SCT002 SCT200=
201511091140 TAF KPAE 091140Z 0912/1012 VRB04KT P6SM SCT020 OVC050
                      TEMPO 0912/0916 5SM -RA BR BKN020 OVC040
                       FM092000 36007KT P6SM SCT020 BKN040 FM100400
                       04006KT P6SM SCT040 FM101000 00000KT 3SM
                       BR SCT002 SCT200=
201511091120 TAF KPAE 091120Z 0912/1012 VRB04KT P6SM SCT020 OVC050
                      TEMPO 0912/0916 5SM BR BKN020 OVC040 FM092000
                       36007KT P6SM SCT020 BKN040 FM100400 04006KT
                       P6SM SCT040 FM101000 00000KT 3SM BR SCT002
                       SCT200=
201511090520 TAF KPAE 090520Z 0906/1006 VRB04KT P6SM -SHRA BKN025 BKN050
                      TEMPO 0906/0910 SCT030 BKN080 FM091000 VRB04KT
                       P6SM BKN022 BKN070 FM092000 33006KT P6SM
                       BKN035 BKN070 FM100200 VRB04KT P6SM SCT050
                       BKN090=
201511090012 TAF AMD KPAE 090012Z 0900/0924 11006KT P6SM SCT015 BKN040
                      TEMPO 0900/0904 BKN015 BKN040 FM090400 07004KT
                       P6SM VCSH SCT022 BKN045 BKN070
                      TEMPO 0904/0908 -SHRA BKN022 OVC045 FM091200
                       01004KT P6SM OVC020 FM092000 32005KT P6SM
                       BKN028 BKN090=
201511082345 TAF KPAE 082345Z 0900/0924 15006KT P6SM SCT015 BKN040 BKN090 FM090400
                       11004KT P6SM VCSH SCT022 BKN050 BKN070
                      TEMPO 0904/0908 -SHRA BKN022 OVC040 FM091200
                       01004KT P6SM OVC020 FM092000 32005KT P6SM
                       BKN028 BKN090=
201511081853 TAF AMD KPAE 081853Z 0819/0918 15007KT P6SM VCSH SCT009 BKN040
                       OVC100
                      TEMPO 0819/0821 5SM SHRA BKN009 OVC025 FM082100
                       19007KT P6SM VCSH SCT025 BKN040 BKN080
                      TEMPO 0821/0901 -SHRA BKN025 OVC040 FM090300
                       VRB04KT P6SM SCT025 BKN050 BKN070 FM091200
                       36004KT P6SM OVC020=
201511081744 TAF KPAE 081744Z 0818/0918 15007KT P6SM VCSH FEW025 BKN040 OVC100
                       TEMPO 0818/0820 -SHRA FM082000 19007KT P6SM
                       VCSH SCT025 BKN040 BKN080
                      TEMPO 0820/0824 -SHRA BKN025 OVC040 FM090300
                       VRB04KT P6SM SCT025 BKN050 BKN070
                      PROB30 0903/0909 -SHRA OVC025 FM091200 36004KT
                       P6SM OVC020=
201511081120 TAF KPAE 081120Z 0812/0912 15005KT P6SM VCSH SCT015 BKN040
                      TEMPO 0812/0816 BKN015 OVC035 FM081800 VRB04KT
                       P6SM VCSH SCT020 BKN040 FM090800 05005KT
                       P6SM BKN020=
201511080523 TAF KPAE 080523Z 0806/0906 VRB04KT P6SM -RA OVC025
                      TEMPO 0806/0809 3SM -RA BR OVC015 FM080900
                       VRB04KT P6SM -SHRA OVC015 FM081100 VRB04KT
                       P6SM VCSH BKN020 FM081800 VRB04KT P6SM VCSH
                       BKN040=
201511080052 TAF AMD KPAE 080052Z 0801/0824 17008KT 2SM -RA BR BKN007 OVC012
                       TEMPO 0801/0804 1SM -RA BR BKN004 OVC010
                       FM080900 17004KT 4SM -DZ BR BKN009 OVC015
                       FM081500 17004KT 6SM BR BKN015 OVC030 FM081900
                       20004KT P6SM BKN020 OVC040
                      PROB30 0820/0824 -RA=
201511072347 TAF KPAE 072347Z 0800/0824 17008KT 2SM -RA BR BKN004 OVC010
                      TEMPO 0800/0804 1SM -RA BR FM080900 17004KT
                       4SM -DZ BR BKN009 OVC015 FM081500 17004KT
                       6SM BR BKN015 OVC030 FM081900 20004KT P6SM
                       BKN020 OVC040
                      PROB30 0820/0824 -RA=
201511072106 TAF AMD KPAE 072106Z 0721/0818 VRB05KT 3SM -RA BR FEW005 OVC015
                       TEMPO 0721/0724 1SM -RA BR BKN005 OVC015
                       FM080600 17008KT 3SM -RA BR FEW005 BKN012
                       OVC028 FM081200 15004KT 4SM BR OVC010=
201511071945 TAF AMD KPAE 071945Z 0720/0818 18012KT 4SM -RA BR FEW007 BKN018
                       OVC030
                      TEMPO 0720/0724 2SM -RA BR FM080600 17008KT
                       3SM -RA BR FEW005 BKN012 OVC028 FM081200
                       15004KT 4SM BR OVC010=
201511071739 TAF KPAE 071739Z 0718/0818 17013KT 6SM -RA BR SCT022 OVC050
                      TEMPO 0718/0720 17013G20KT 4SM -RA BR BKN022
                       OVC050 FM072000 19012KT 4SM -RA BR FEW007
                       OVC018 FM080600 17008KT 3SM -RA BR FEW005
                       BKN012 OVC028 FM081200 15004KT 4SM BR OVC010=
201511071120 TAF KPAE 071120Z 0712/0812 15012KT P6SM BKN050 OVC100 FM071600
                       18012KT P6SM -RA SCT025 OVC050
                      TEMPO 0717/0721 5SM -RA BKN025 OVC040 FM072100
                       25010KT P6SM -RA OVC030 FM080200 30007KT
                       P6SM -SHRA BKN015 OVC030 FM081000 16006KT
                       P6SM VCSH BKN015 OVC030=
201511070520 TAF KPAE 070520Z 0706/0806 VRB04KT P6SM BKN050 OVC090 FM070900
                       17015KT P6SM FEW035 BKN050 OVC100 FM071500
                       17015G23KT P6SM -RA SCT020 OVC035 FM071800
                       17015G23KT 5SM -RA BR FEW009 OVC020=
201511062326 TAF KPAE 062326Z 0700/0724 15012KT P6SM SCT050 BKN100 OVC200 FM070900
                       17015KT P6SM FEW035 BKN050 OVC100
                      PROB30 0709/0715 -RA FM071500 17015G23KT
                       P6SM -RA SCT020 OVC035 FM071800 17015G23KT
                       5SM -RA BR FEW009 OVC020=
201511062030 KPAE 062030Z 0621/0718 15013KT P6SM FEW028 BKN090 OVC200 FM070000
                       17013KT P6SM SCT035 BKN050 OVC200 FM070300
                       17015G23KT P6SM SCT035 BKN050 OVC100
                      PROB30 0709/0715 -RA FM071500 17015G23KT
                       P6SM -RA SCT020 OVC035=
201511061919 TAF AMD KPAE 061919Z 0619/0718 12009KT P6SM FEW005 BKN025 OVC040
                       FM062100 15013KT P6SM BKN035 BKN050 OVC200
                       FM070000 17013KT P6SM SCT035 BKN050 OVC200
                       FM070300 17015G23KT P6SM SCT035 BKN050 OVC100
                       PROB30 0709/0715 -RA FM071500 17015G23KT
                       P6SM -RA SCT020 OVC035=
201511061724 TAF KPAE 061724Z 0618/0718 12009KT 5SM -DZ BR SCT003 BKN015 OVC030
                       TEMPO 0618/0620 2SM -DZ BR BKN003 OVC015
                       FM062000 15013KT P6SM FEW009 BKN020 OVC040
                       FM070000 17013KT P6SM BKN028 BKN050 OVC100
                       FM070300 17015G23KT P6SM SCT035 BKN050 OVC100
                       PROB30 0709/0715 -RA FM071500 17015G23KT
                       P6SM -RA SCT020 OVC035=
201511061640 TAF AMD KPAE 061640Z 0617/0712 16008KT 5SM -RA BR BKN015 OVC030
                       TEMPO 0617/0619 2SM -RA BR FM062100 18012G22KT
                       P6SM -RA BKN020 OVC035=
201511061120 TAF KPAE 061120Z 0612/0712 15008KT P6SM SCT005 OVC080
                      TEMPO 0612/0616 5SM BR BKN005 OVC050 FM061600
                       16008KT P6SM BKN015 OVC030 FM062100 18012G22KT
                       P6SM -RA BKN020 OVC035=
201511060902 TAF AMD KPAE 060902Z 0609/0706 11004KT 3SM BR SCT002 BKN007 OVC012
                       TEMPO 0609/0612 1/2SM FG VV001 FM061200
                       13007KT P6SM BKN005 OVC015 FM061500 16008KT
                       P6SM BKN015 OVC030 FM062100 18012G22KT P6SM
                       -RA BKN020 OVC035=
201511060716 TAF AMD KPAE 060716Z 0607/0706 11004KT 3SM BR SCT002 OVC030
                      TEMPO 0607/0610 1/2SM FG VV002 FM061000 13007KT
                       P6SM BKN005 OVC015 FM061400 16008KT P6SM
                       BKN015 OVC030 FM062100 18012G22KT P6SM -RA
                       BKN020 OVC035=
201511060520 TAF KPAE 060520Z 0606/0706 00000KT P6SM SCT010 BKN040 BKN200
                      TEMPO 0606/0610 3SM BR BKN010 OVC040 FM061000
                       13007KT P6SM SCT012 BKN040 OVC200
                      TEMPO 0610/0614 BKN012 OVC040 FM061400 16008KT
                       P6SM BKN012 OVC040 FM062100 18012G22KT P6SM
                       -RA BKN020 OVC035=
201511052333 TAF KPAE 052333Z 0600/0624 00000KT P6SM SCT004 OVC040 FM060600
                       14005KT 3SM BR OVC001 FM061000 15008KT P6SM
                       OVC009 FM061600 16012G21KT 4SM -RA BR OVC009=
201511052013 TAF AMD KPAE 052013Z 0520/0618 25004KT 2SM -RA BR VCSH OVC003 FM052200
                       35003KT P6SM VCSH OVC009 FM060600 13005KT
                       5SM BR OVC009 FM061700 16008KT P6SM VCSH
                       OVC020=
201511051721 TAF KPAE 051721Z 0518/0618 21007KT 3SM BR VCSH OVC005 FM052000
                       21006KT P6SM VCSH OVC009 FM060600 13005KT
                       5SM BR OVC009 FM061700 16008KT P6SM VCSH
                       OVC020=
201511051452 TAF AMD KPAE 051452Z 0515/0612 16006KT 2SM BR OVC002 FM051800 16006KT
                       P6SM OVC006 FM052000 17008KT P6SM SCT008
                       OVC018
                      TEMPO 0520/0524 4SM -SHRA BR OVC007 FM060000
                       17006KT P6SM VCSH OVC012 FM060800 15006KT
                       P6SM OVC020=
201511051211 TAF AMD KPAE 051211Z 0512/0612 16006KT P6SM BKN007 OVC020
                      TEMPO 0512/0516 5SM -SHRA BR SCT008 OVC020
                       FM051600 16008KT P6SM SCT010 OVC018
                      TEMPO 0516/0520 4SM -SHRA BR OVC009 FM052000
                       17008KT P6SM SCT008 OVC018
                      TEMPO 0520/0524 4SM -SHRA BR OVC007 FM060000
                       17006KT P6SM VCSH OVC012 FM060800 15006KT
                       P6SM OVC020=
201511051127 TAF KPAE 051127Z 0512/0612 16006KT P6SM BKN015 OVC030
                      TEMPO 0512/0516 5SM -SHRA BR SCT015 OVC030
                       FM051600 16008KT P6SM SCT010 OVC018
                      TEMPO 0516/0520 4SM -SHRA BR OVC009 FM052000
                       17008KT P6SM SCT008 OVC018
                      TEMPO 0520/0524 4SM -SHRA BR OVC007 FM060000
                       17006KT P6SM VCSH OVC012 FM060800 15006KT
                       P6SM OVC020=
201511050909 TAF AMD KPAE 050909Z 0509/0606 16006KT P6SM BKN015 OVC030
                      TEMPO 0509/0513 5SM -RA BR SCT015 OVC030
                       FM051300 16007KT P6SM SCT010 OVC018
                      TEMPO 0513/0517 4SM -RA BR OVC009 FM051700
                       17006KT P6SM OVC018
                      TEMPO 0517/0521 4SM -RA BR OVC007 FM052100
                       17006KT P6SM OVC009
                      PROB30 0521/0524 4SM -RA OVC006 FM060000
                       17006KT P6SM VCSH OVC012=
201511050527 TAF KPAE 050527Z 0506/0606 16006KT P6SM SCT030 BKN045
                      TEMPO 0506/0510 -RA BKN030 OVC045 FM051000
                       16006KT P6SM OVC030 FM051200 16007KT P6SM
                       OVC018 FM051900 17006KT P6SM OVC018
                      PROB30 0519/0521 4SM -RA BR OVC007 FM052100
                       17006KT P6SM OVC009
                      PROB30 0521/0524 4SM -RA OVC006 FM060000
                       17006KT P6SM VCSH OVC012=
201511042338 TAF KPAE 042338Z 0500/0524 21004KT P6SM SCT023 OVC045 FM050500
                       16006KT P6SM BKN045 OVC120 FM051100 16006KT
                       P6SM OVC030
                      PROB30 0511/0512 P6SM -RA OVC025 FM051200
                       16007KT P6SM OVC018
                      PROB30 0513/0519 4SM -RA BR OVC007 FM051900
                       17006KT P6SM OVC018
                      PROB30 0519/0521 4SM -RA BR OVC007 FM052100
                       20004KT P6SM OVC009
                      PROB30 0521/0524 4SM -RA OVC007=
201511041732 TAF KPAE 041732Z 0418/0518 16007KT P6SM BCFG FEW001 BKN028 BKN200
                       FM042000 16008KT P6SM SCT030 BKN200 FM050300
                       14004KT 5SM BR OVC009 FM050500 15006KT 2SM
                       BR OVC004 FM051300 16006KT P6SM -RA OVC009
                       FM051600 16005KT 2SM -RA BR OVC004=
201511041633 TAF AMD KPAE 041633Z 0417/0512 16007KT P6SM BCFG FEW001 BKN028
                       TEMPO 0417/0419 1SM BR OVC001 FM042000 18005KT
                       P6SM SCT012 BKN120 FM050400 18006KT P6SM
                       SCT045 BKN080 FM051000 17006KT P6SM BKN020
                       OVC040=
201511041136 TAF KPAE 041136Z 0412/0512 15004KT 1/2SM FG OVC002
                      TEMPO 0412/0414 3SM BR SCT003 BKN022 FM041400
                       VRB03KT 1SM BR OVC004
                      TEMPO 0414/0417 3SM BR SCT004 SCT022 BKN200
                       FM041700 15005KT 3SM BR BKN008 BKN150 FM042000
                       18005KT P6SM SCT012 BKN120 FM050400 18006KT
                       P6SM SCT045 BKN080 FM051000 17006KT P6SM
                       BKN020 OVC040=
201511040901 KPAE 040901Z 0409/0506 15004KT P6SM VCFG BKN022
                      TEMPO 0409/0413 3SM BR SCT022 SCT250 FM041300
                       VRB03KT 1/2SM FG VV002
                      TEMPO 0413/0417 2SM BR BKN004 FM041700 15005KT
                       3SM BR BKN008 BKN150 FM042000 18005KT P6SM
                       SCT012 BKN120 FM050400 18006KT P6SM SCT045
                       BKN080=
201511040530 TAF KPAE 040530Z 0406/0506 VRB03KT P6SM VCFG SCT250 FM041000 15004KT
                       5SM BR SCT004 SCT250
                      TEMPO 0410/0414 1 1/2SM BR BKN004 FM041400
                       VRB03KT 1/2SM FG VV002
                      TEMPO 0414/0417 2SM BR BKN004 FM041700 15005KT
                       3SM BR BKN008 BKN150 FM042000 18005KT P6SM
                       SCT012 BKN120 FM050400 18006KT P6SM SCT045
                       BKN080=
201511032329 TAF KPAE 032329Z 0400/0424 33005KT P6SM FEW035 FM041300 VRB03KT
                       1/2SM FG VV002 FM041700 15005KT 3SM BR BKN008
                       BKN030 FM042000 18005KT 3SM BR BKN030 FM042100
                       18006KT P6SM SCT035=
201511031735 TAF KPAE 031735Z 0318/0418 00000KT P6SM VCFG FEW016 BKN029 OVC045
                       FM032000 VRB03KT P6SM BKN030 FM040800 00000KT
                       4SM BR BKN009 FM041500 16004KT 2SM BR OVC004=
201511031510 TAF AMD KPAE 031510Z 0315/0412 00000KT P6SM VCFG SCT010 OVC027
                       TEMPO 0315/0318 4SM -RA BR BKN009 OVC040
                       FM032000 34005KT P6SM SCT025 BKN040 FM040000
                       34005KT P6SM SCT040 BKN250 FM040500 VRB03KT
                       P6SM SCT040 BKN250 FM041100 VRB03KT P6SM
                       BKN008 BKN040=
201511031139 TAF KPAE 031139Z 0312/0412 VRB03KT P6SM VCFG SCT018 BKN040
                      TEMPO 0312/0316 BKN018 OVC040 FM032000 34005KT
                       P6SM SCT025 BKN040 FM040000 34005KT P6SM
                       SCT040 BKN250 FM040500 VRB03KT P6SM SCT040
                       BKN250 FM041100 VRB03KT P6SM BKN008 BKN040=
201511030535 TAF KPAE 030535Z 0306/0406 36005KT P6SM BKN045 FM030800 34004KT
                       P6SM SCT018 BKN045 FM031200 VRB03KT P6SM
                       VCFG BKN018 BKN040 FM032000 34005KT P6SM
                       SCT025 BKN040 FM040000 34005KT P6SM SCT040
                       BKN250=
201511022336 TAF KPAE 022336Z 0300/0324 36005KT P6SM OVC035 FM030800 34002KT
                       P6SM SCT018 BKN035 FM030900 00000KT P6SM
                       OVC012 FM031300 01002KT 2SM BR OVC006 FM031900
                       VRB03KT P6SM BKN035=
201511021804 TAF AMD KPAE 021804Z 0218/0318 34004KT P6SM VCSH SCT006 BKN035
                       TEMPO 0218/0222 4SM -RA BR OVC006 FM022200
                       VRB03KT P6SM VCSH BKN012 FM030000 00000KT
                       P6SM SCT015 BKN025 FM030700 00000KT P6SM
                       OVC009=
201511021727 TAF KPAE 021727Z 0218/0318 36006KT 4SM BR VCSH SCT002 OVC008
                      TEMPO 0218/0222 2SM -RA BR OVC002 FM022200
                       VRB03KT P6SM VCSH BKN012 FM030000 00000KT
                       P6SM SCT015 BKN025 FM030700 00000KT P6SM
                       OVC009=
201511021135 TAF KPAE 021135Z 0212/0312 20006KT P6SM VCSH OVC020
                      TEMPO 0214/0218 4SM -SHRA BR OVC010 FM021900
                       22004KT P6SM VCSH SCT013 BKN025 FM030000
                       31004KT P6SM VCSH SCT025 BKN050 FM030900
                       VRB03KT P6SM OVC013=
201511020900 TAF AMD KPAE 020900Z 0209/0306 22004KT P6SM VCSH SCT007 BKN025
                       OVC030
                      TEMPO 0209/0212 2SM SHRA BR SCT007 BKN013
                       OVC025 FM021200 18008KT P6SM VCSH OVC013
                       TEMPO 0212/0216 BKN006 FM022000 17005KT
                       P6SM -SHRA SCT020 OVC040=
201511020530 TAF KPAE 020530Z 0206/0306 20016G21KT P6SM OVC015 FM021000 18008KT
                       P6SM VCSH OVC013
                      TEMPO 0212/0216 BKN006 FM022000 17005KT P6SM
                       -SHRA SCT020 OVC040=
201511012320 TAF KPAE 012320Z 0200/0224 19015G25KT P6SM -SHRA BKN020 OVC045
                       FM020100 20015G25KT P6SM -SHRA BKN020 BKN045
                       FM020500 19012KT P6SM -SHRA OVC015 FM021100
                       18006KT P6SM VCSH OVC015 FM021800 18006KT
                       P6SM SCT020 BKN040=
201511011720 TAF KPAE 011720Z 0118/0218 20012G22KT P6SM VCSH SCT025 BKN035 OVC060
                       FM011900 19018G35KT 5SM SHRA BR VCTS BKN030CB
                       OVC045 FM020100 20015G25KT P6SM VCSH BKN030
                       BKN045 FM020500 19012KT P6SM VCSH OVC022
                       FM021100 18006KT P6SM VCSH OVC015=
201511011135 TAF KPAE 011135Z 0112/0212 20013G20KT P6SM -SHRA SCT022 BKN050
                       OVC080
                      TEMPO 0112/0116 4SM -SHRA BR SCT008 BKN014
                       OVC035 FM011600 17020G40KT P6SM -SHRA BKN018
                       OVC030 FM020000 19016G24KT 6SM -SHRA OVC025
                       FM020700 18007KT P6SM -SHRA OVC015=
201511010535 TAF KPAE 010535Z 0106/0206 19025G31KT P6SM SCT023 BKN035
                      TEMPO 0107/0111 19020G34KT 3SM SHRA BR SCT011
                       BKN017 OVC025 FM011100 15012KT P6SM -SHRA
                       BKN020 OVC035 FM011600 17020G40KT P6SM -SHRA
                       BKN018 OVC030 FM020000 18018G28KT P6SM -SHRA
                       OVC007=