##########################################################
# Query made at 02/15/2025 21:09:33 UTC
# Time interval: from 08/01/2015 00:00  to 08/31/2015 23:59  UTC
##########################################################

##########################################################
# KPAE, Everett, Snohomish County Airport (United States)
# WMO index: -----. WIGOS ID: Unknown
# Latitude 47-55-23N. Longitude 122-16-57W. Altitude 184 m.
##########################################################

###################################
#  METAR/SPECI from KPAE
###################################
201508312353 METAR KPAE 312353Z 17015G26KT 10SM -RA FEW080 OVC110 17/13 A2990 RMK AO2 PK WND 19026/2316 RAE2254B53 SLP125 P0000 60013 T01670128 10167 20156 56011=
201508312253 METAR KPAE 312253Z 17016G22KT 10SM -RA FEW019 BKN090 OVC110 16/13 A2992 RMK AO2 PK WND 17031/2207 RAB2157 SLP129 P0002 T01610133=
201508312153 METAR KPAE 312153Z 17016G25KT 10SM SCT075 OVC095 16/13 A2992 RMK AO2 PK WND 17026/2133 RAE51 SLP132 P0003 T01610128=
201508312053 METAR KPAE 312053Z 17017G27KT 7SM -RA SCT030 OVC090 16/13 A2994 RMK AO2 PK WND 18030/1958 SLP137 P0005 60008 T01560128 50000=
201508311953 METAR KPAE 311953Z 18020G26KT 7SM -RA OVC090 16/13 A2994 RMK AO2 PK WND 19030/1903 SLP138 P0002 T01560128=
201508311853 METAR KPAE 311853Z 18020G29KT 10SM -RA OVC100 16/12 A2994 RMK AO2 PK WND 18034/1829 SLP139 P0001 T01560122=
201508311753 METAR KPAE 311753Z 18017G26KT 10SM -RA SCT017 OVC070 16/12 A2994 RMK AO2 PK WND 19031/1706 RAB21 SLP137 P0000 60000 T01560122 10161 20150 53004=
201508311653 METAR KPAE 311653Z 18021G29KT 10SM FEW019 BKN075 OVC100 16/11 A2993 RMK AO2 PK WND 18036/1555 SLP135 T01610111=
201508311553 METAR KPAE 311553Z 19022G35KT 10SM SCT020 OVC110 16/11 A2992 RMK AO2 PK WND 20038/1540 SLP129 T01560106=
201508311453 METAR KPAE 311453Z 17014G26KT 10SM BKN022 BKN110 16/10 A2993 RMK AO2 PK WND 18030/1403 SLP133 T01610100 56003=
201508311353 METAR KPAE 311353Z AUTO 18016G25KT 10SM OVC024 16/10 A2993 RMK AO2 PK WND 19027/1330 SLP133 T01610100=
201508311253 METAR KPAE 311253Z AUTO 16017G24KT 10SM OVC026 16/10 A2993 RMK AO2 PK WND 18032/1201 SLP134 T01560100 $=
201508311153 METAR KPAE 311153Z AUTO 18022G29KT 10SM OVC029 16/09 A2993 RMK AO2 PK WND 18029/1148 RAB26E36 SLP135 P0000 60000 70001 T01610094 10167 20156 58008 $=
201508311138 SPECI KPAE 311138Z AUTO 17018G24KT 10SM OVC030 16/09 A2994 RMK AO2 PK WND 18027/1102 RAB26E36 P0000 T01610094 $=
201508311126 SPECI KPAE 311126Z AUTO 17016KT 10SM -RA OVC029 16/09 A2994 RMK AO2 PK WND 18027/1102 RAB26 P0000 T01610094 $=
201508311117 SPECI KPAE 311117Z AUTO 18022G27KT 10SM OVC031 16/09 A2994 RMK AO2 PK WND 18027/1102 T01610094 $=
201508311053 METAR KPAE 311053Z AUTO 19019G29KT 10SM OVC029 16/09 A2995 RMK AO2 PK WND 19031/1042 SLP140 T01610094 $=
201508310953 METAR KPAE 310953Z AUTO 18016G24KT 10SM OVC035 16/09 A2996 RMK AO2 PK WND 18026/0855 SLP143 T01610094 $=
201508310853 METAR KPAE 310853Z AUTO 18015G30KT 10SM BKN041 OVC110 16/09 A2996 RMK AO2 PK WND 18032/0803 RAB24E34 SLP142 P0000 60000 T01610094 58002 $=
201508310753 METAR KPAE 310753Z AUTO 18021G28KT 10SM SCT050 BKN100 16/10 A2996 RMK AO2 PK WND 18028/0751 SLP145 T01610100 402000128 $=
201508310653 METAR KPAE 310653Z AUTO 17015G21KT 10SM OVC100 16/11 A2996 RMK AO2 RAB16E42 SLP145 P0000 T01560106 $=
201508310553 METAR KPAE 310553Z AUTO 18014G24KT 10SM OVC100 16/11 A2996 RMK AO2 PK WND 19028/0526 SLP145 T01610106 10200 20161 50003 $=
201508310453 METAR KPAE 310453Z AUTO 20018G25KT 10SM OVC110 17/10 A2997 RMK AO2 PK WND 19026/0411 SLP149 T01670100 $=
201508310353 METAR KPAE 310353Z AUTO 19020G25KT 10SM BKN080 BKN110 17/10 A2997 RMK AO2 PK WND 19028/0303 SLP146 T01670100 $=
201508310253 METAR KPAE 310253Z 19019G23KT 10SM BKN085 17/10 A2995 RMK AO2 SLP142 T01720100 53003 $=
201508310153 METAR KPAE 310153Z 20015KT 10SM FEW085 18/10 A2995 RMK AO2 PK WND 20026/0129 SLP139 T01780100 $=
201508310053 METAR KPAE 310053Z 20017G23KT 10SM BKN090 19/10 A2994 RMK AO2 PK WND 20026/0006 SLP138 T01890100 $=
201508302353 METAR KPAE 302353Z 18012KT 10SM FEW050 SCT090 18/10 A2994 RMK AO2 PK WND 19026/2302 SLP139 T01830100 10200 20156 53002 $=
201508302253 METAR KPAE 302253Z 17015KT 10SM BKN100 19/09 A2994 RMK AO2 PK WND 19027/2223 SLP137 T01940094 $=
201508302153 METAR KPAE 302153Z 20019G25KT 10SM FEW031 19/11 A2994 RMK AO2 PK WND 18026/2127 SLP137 T01890106 $=
201508302053 METAR KPAE 302053Z 18016G28KT 10SM BKN028 19/11 A2994 RMK AO2 PK WND 18028/2044 SLP137 T01890111 51010 $=
201508301953 METAR KPAE 301953Z 21014KT 10SM BKN028 17/11 A2993 RMK AO2 SLP133 T01720106 $=
201508301853 METAR KPAE 301853Z 20015KT 10SM SCT010 BKN020 OVC027 17/11 A2992 RMK AO2 SLP131 T01720111 $=
201508301842 SPECI KPAE 301842Z 21013KT 10SM SCT010 BKN020 OVC027 17/11 A2992 RMK AO2 T01670111 $=
201508301753 METAR KPAE 301753Z 20012KT 10SM BKN008 OVC014 16/12 A2991 RMK AO2 SLP127 60001 T01560117 10156 20128 53019 $=
201508301703 SPECI KPAE 301703Z 17010KT 10SM BKN008 OVC014 14/12 A2989 RMK AO2 T01440117 $=
201508301700 SPECI KPAE 301700Z 18011KT 10SM OVC014 14/12 A2989 RMK AO2 T01440117 $=
201508301653 METAR KPAE 301653Z 17010KT 10SM BKN008 OVC016 14/12 A2989 RMK AO2 RAE32 SLP120 P0000 T01390117 $=
201508301553 METAR KPAE 301553Z 16012KT 10SM -RA BKN009 OVC012 13/11 A2986 RMK AO2 RAB36 SLP113 P0000 T01330111 $=
201508301453 METAR KPAE 301453Z 18010KT 10SM BKN009 OVC022 14/11 A2985 RMK AO2 PRESRR SLP107 60001 T01390111 53023 $=
201508301353 METAR KPAE 301353Z 18008KT 10SM BKN011 OVC029 13/11 A2981 RMK AO2 CIG 007V018 SLPNO T01330111 $=
201508301350 SPECI KPAE 301350Z 19007KT 10SM BKN011 OVC029 13/11 A2981 RMK AO2 CIG 006V013 $=
201508301331 SPECI KPAE 301331Z 19005KT 10SM BKN009 BKN110 13/11 A2980 RMK AO2 CIG 005V012 T01330111 $=
201508301253 METAR KPAE 301253Z 16015G21KT 10SM FEW006 BKN100 13/11 A2978 RMK AO2 RAE28 SLPNO P0001 T01330111 $=
201508301249 SPECI KPAE 301249Z 16014KT 10SM FEW006 OVC100 13/11 A2978 RMK AO2 RAE28 P0001 $=
201508301153 METAR KPAE 301153Z 17009KT 10SM -RA OVC075 13/11 A2979 RMK AO2 SLPNO P0001 60007 70075 T01330111 10139 20133 51011 $=
201508301053 METAR KPAE 301053Z 18013KT 10SM -RA OVC075 13/12 A2978 RMK AO2 RAB20 SLPNO P0000 T01330117 $=
201508301017 SPECI KPAE 301017Z 19014KT 10SM SCT010 BKN085 OVC100 14/12 A2978 RMK AO2 T01390117 $=
201508301007 SPECI KPAE 301007Z 17017G22KT 10SM SCT008 BKN015 OVC100 13/12 A2977 RMK AO2 T01330117 $=
201508301000 SPECI KPAE 301000Z 18013KT 10SM BKN008 BKN013 OVC100 13/12 A2977 RMK AO2 CIG 006V011 T01330117 $=
201508300953 METAR KPAE 300953Z 18009KT 10SM SCT008 BKN100 13/12 A2977 RMK AO2 SLPNO T01330117 $=
201508300936 SPECI KPAE 300936Z 20006KT 10SM SCT008 BKN014 BKN080 13/11 A2976 RMK AO2 T01330111 $=
201508300853 METAR KPAE 300853Z 16015KT 10SM FEW090 13/11 A2975 RMK AO2 SLP073 60006 T01330111 58000 $=
201508300753 METAR KPAE 300753Z 18016KT 10SM CLR 13/12 A2975 RMK AO2 RAE27 SLP073 P0004 T01330117 402110133 $=
201508300726 SPECI KPAE 300726Z 19012KT 10SM -RA SCT009 BKN055 OVC075 13/12 A2975 RMK AO2 P0004 T01330122 $=
201508300653 METAR KPAE 300653Z 19017KT 6SM RA BR BKN065 OVC085 14/12 A2977 RMK AO2 RAB47 SLP079 P0002 T01390117 $=
201508300553 METAR KPAE 300553Z 19014G22KT 10SM FEW047 SCT075 14/12 A2975 RMK AO2 RAE47 SLP073 P0008 60039 T01390117 58003 $=
201508300453 METAR KPAE 300453Z 19018G25KT 7SM -RA OVC075 14/12 A2977 RMK AO2 SLP078 P0014 T01440122 $=
201508300353 METAR KPAE 300353Z 19017G23KT 3SM RA BR BKN038 BKN048 OVC075 15/13 A2978 RMK AO2 SLP082 P0017 T01500128 $=
201508300253 METAR KPAE 300253Z 17020G30KT 10SM -RA BKN030 OVC070 17/14 A2976 RMK AO2 RAB44 SLP076 P0000 60000 T01720139 50005 $=
201508300153 METAR KPAE 300153Z 17025G35KT 10SM SCT030 A2976 RMK AO2 SLPNO $=
201508300053 METAR KPAE 300053Z 17025G35KT 10SM SCT030 A2975 RMK AO2 SLPNO $=
201508292353 METAR KPAE 292353Z 18022G30KT 10SM SCT020 OVC060 A2974 RMK AO2 SLPNO 60001 50019 $=
201508292253 METAR KPAE 292253Z 17022G34KT 10SM OVC035 A2976 RMK AO2 SLPNO $=
201508292153 METAR KPAE 292153Z COR 20030G45KT 10SM OVC035 A2974 RMK AO2 PK WND 18052/2056 SLPNO $=
201508292053 METAR KPAE 292053Z 20033G42KT 10SM FEW030 SCT037 SCT070 21/12 A2969 RMK AO2 PK WND 19051/2006 SLP050 60001 T02060117 53042=
201508291953 METAR KPAE 291953Z 18038G53KT 10SM FEW031 SCT045 BKN070 20/12 A2963 RMK AO2 PK WND 19053/1946 RAE08 PRESRR SLP030 P0000 T02000122=
201508291853 METAR KPAE 291853Z 17022G42KT 10SM -RA SCT048 BKN070 OVC090 19/12 A2957 RMK AO2 PK WND 19044/1840 RAB25 SLP011 P0001 T01890122=
201508291753 METAR KPAE 291753Z 17024G31KT 10SM BKN060 BKN075 21/12 A2956 RMK AO2 PK WND 17031/1750 SLP007 60028 T02060117 10206 20150 58001=
201508291653 METAR KPAE 291653Z 17021G30KT 10SM BKN060 19/14 A2956 RMK AO2 PK WND 16030/1652 SLP008 T01940144=
201508291553 METAR KPAE 291553Z 15014G22KT 10SM FEW020 BKN060 17/14 A2957 RMK AO2 RAE1456B26E38 SLP012 P0000 T01670144=
201508291453 METAR KPAE 291453Z 15010G17KT 10SM -RA FEW020 BKN060 OVC100 16/14 A2956 RMK AO2 PK WND 19026/1354 SLP009 P0008 60028 T01610144 50015=
201508291353 METAR KPAE 291353Z 20018G22KT 4SM RA BR BKN060 OVC070 16/14 A2960 RMK AO2 SLP020 P0019 T01610144=
201508291333 SPECI KPAE 291333Z AUTO 22015G23KT 4SM RA BR FEW009 OVC055 16/14 A2960 RMK AO2 P0012 T01610144=
201508291326 SPECI KPAE 291326Z AUTO 21016G23KT 2 1/2SM +RA BR SCT048 OVC060 16/14 A2960 RMK AO2 P0010 T01610144=
201508291253 METAR KPAE 291253Z AUTO 24008KT 8SM -RA SCT001 OVC070 15/14 A2956 RMK AO2 PRESRR SLP005 P0001 T01500139=
201508291246 SPECI KPAE 291246Z AUTO 24009KT 6SM -RA BR SCT001 BKN070 OVC085 15/14 A2955 RMK AO2 P0001 T01500139=
201508291239 SPECI KPAE 291239Z AUTO 24010KT 3SM R16R/4000VP6000FT -RA BR SCT001 BKN011 OVC100 15/14 A2954 RMK AO2 PRESRR P0001 T01500139=
201508291232 SPECI KPAE 291232Z AUTO 25008KT 2 1/2SM R16R/3000VP6000FT -RA BR FEW001 SCT007 OVC090 15/14 A2953 RMK AO2 P0001 T01500139=
201508291153 METAR KPAE 291153Z AUTO 15004KT 10SM -RA FEW060 OVC100 18/14 A2952 RMK AO2 SLP992 P0000 60003 70005 T01780139 10183 20161 58036=
201508291053 METAR KPAE 291053Z AUTO 10004KT 10SM -RA OVC110 18/14 A2955 RMK AO2 RAE06B32 SLP003 P0000 T01780144=
201508290953 METAR KPAE 290953Z AUTO VRB03KT 10SM -RA BKN100 OVC120 17/15 A2960 RMK AO2 RAB21 PRESFR SLP019 P0001 T01670150=
201508290853 METAR KPAE 290853Z AUTO 00000KT 10SM FEW050 FEW070 SCT100 17/14 A2963 RMK AO2 RAB0755E13B31E45 SLP030 P0000 60002 T01670144 58043=
201508290753 METAR KPAE 290753Z AUTO 00000KT 10SM FEW080 BKN100 OVC110 17/15 A2969 RMK AO2 RAE40 SLP051 P0001 T01720150 402330156=
201508290653 METAR KPAE 290653Z AUTO 10004KT 10SM -RA OVC110 18/14 A2973 RMK AO2 RAB12 SLP064 P0001 T01830144=
201508290553 METAR KPAE 290553Z AUTO 00000KT 10SM BKN110 17/14 A2976 RMK AO2 RAE18 SLP073 P0001 60001 T01720139 10211 20172 58027=
201508290453 METAR KPAE 290453Z AUTO 00000KT 10SM -RA OVC100 18/13 A2981 RMK AO2 RAB43 SLP090 P0000 T01830133=
201508290353 METAR KPAE 290353Z AUTO 00000KT 10SM FEW090 SCT110 19/13 A2982 RMK AO2 SLP095 T01890128=
201508290253 METAR KPAE 290253Z 00000KT 10SM FEW075 FEW090 SCT110 18/13 A2984 RMK AO2 RAE23 SLP102 P0000 60000 T01830133 56017=
201508290153 METAR KPAE 290153Z 00000KT 10SM -RA BKN100 OVC110 19/13 A2985 RMK AO2 RAB42 SLP107 P0000 T01890128=
201508290053 METAR KPAE 290053Z 00000KT 10SM BKN100 OVC120 20/13 A2987 RMK AO2 SLP111 T02000128=
201508282353 METAR KPAE 282353Z 33003KT 10SM CLR 21/13 A2989 RMK AO2 SLP118 T02110133 10233 20200 58019=
201508282253 METAR KPAE 282253Z AUTO 19007KT 10SM BKN110 23/12 A2991 RMK AO2 SLP125 T02280122 TSNO=
201508282153 METAR KPAE 282153Z 23007KT 10SM BKN038 23/13 A2993 RMK AO2 SLP133 T02280128=
201508282053 METAR KPAE 282053Z 20009KT 10SM FEW033 22/12 A2994 RMK AO2 SLP138 T02170122 56010=
201508281953 METAR KPAE 281953Z 19010KT 10SM OVC120 22/13 A2996 RMK AO2 SLP143 T02170128=
201508281853 METAR KPAE 281853Z 18013KT 10SM OVC120 21/12 A2996 RMK AO2 SLP141 T02110122=
201508281753 METAR KPAE 281753Z 19015KT 10SM FEW120 20/13 A2997 RMK AO2 SLP147 60001 T02000128 10200 20156 56005=
201508281653 METAR KPAE 281653Z 17010KT 10SM OVC120 18/12 A2998 RMK AO2 SLP148 T01830122=
201508281553 METAR KPAE 281553Z 17010KT 10SM FEW008 SCT015 SCT037 17/12 A2998 RMK AO2 SLP150 T01720122=
201508281538 SPECI KPAE 281538Z 16011KT 10SM BKN019 BKN035 17/12 A2999 RMK AO2 T01720122=
201508281523 SPECI KPAE 281523Z 16011KT 10SM SCT019 BKN035 17/13 A2999 RMK AO2 T01670128=
201508281453 METAR KPAE 281453Z 15009KT 10SM SCT012 BKN021 BKN038 16/13 A2999 RMK AO2 SLP153 60001 T01610128 53000=
201508281353 METAR KPAE 281353Z 15013G18KT 10SM FEW048 BKN070 OVC085 16/13 A2998 RMK AO2 RAE51 SLP148 P0000 T01610128=
201508281253 METAR KPAE 281253Z AUTO 15010KT 8SM -RA FEW032 SCT048 OVC070 16/12 A3000 RMK AO2 RAB00 SLP154 P0001 T01610122=
201508281153 METAR KPAE 281153Z AUTO 16006KT 10SM OVC085 18/09 A2999 RMK AO2 SLP152 60000 T01780094 10222 20167 53004=
201508281053 METAR KPAE 281053Z AUTO 00000KT 10SM OVC090 17/09 A2998 RMK AO2 SLP149 T01720094=
201508280953 METAR KPAE 280953Z AUTO 00000KT 10SM FEW100 17/10 A2998 RMK AO2 SLP150 T01720100=
201508280853 METAR KPAE 280853Z AUTO 02004KT 10SM FEW100 17/10 A2998 RMK AO2 RAB0758E07 SLP148 P0000 60000 T01720100 50003=
201508280753 METAR KPAE 280753Z AUTO 36006KT 10SM BKN100 BKN110 17/11 A2998 RMK AO2 SLP150 T01670111 402720150=
201508280653 METAR KPAE 280653Z AUTO 02005KT 10SM CLR 18/11 A2998 RMK AO2 SLP149 T01780106=
201508280553 METAR KPAE 280553Z AUTO 12004KT 10SM CLR 22/09 A2997 RMK AO2 SLP145 60000 T02170094 10272 20183 58002=
201508280453 METAR KPAE 280453Z AUTO 00000KT 10SM CLR 19/10 A2998 RMK AO2 SLP148 T01940100=
201508280353 METAR KPAE 280353Z AUTO 03004KT 10SM CLR 20/10 A2998 RMK AO2 RAB04E14 SLP147 P0000 T02000100=
201508280253 METAR KPAE 280253Z 00000KT 10SM CLR 21/10 A2997 RMK AO2 RAB20E30 SLP147 P0000 60000 T02110100 56010=
201508280153 METAR KPAE 280153Z 01003KT 10SM CLR 25/09 A2998 RMK AO2 SLP148 T02500094=
201508280053 METAR KPAE 280053Z VRB03KT 10SM CLR 27/08 A2999 RMK AO2 SLP151 T02670078=
201508272353 METAR KPAE 272353Z 26004KT 10SM CLR 27/07 A3001 RMK AO2 SLP158 T02670072 10267 20211 56020=
201508272253 METAR KPAE 272253Z 29005KT 10SM CLR 26/09 A3002 RMK AO2 SLP162 T02560094=
201508272153 METAR KPAE 272153Z VRB05KT 10SM CLR 26/10 A3004 RMK AO2 SLP169 T02560100=
201508272053 METAR KPAE 272053Z 30006KT 10SM CLR 24/09 A3007 RMK AO2 SLP178 T02440094 58011=
201508271953 METAR KPAE 271953Z VRB03KT 10SM CLR 24/09 A3009 RMK AO2 SLP186 T02440094=
201508271853 METAR KPAE 271853Z 28006KT 10SM CLR 23/10 A3010 RMK AO2 SLP189 T02280100=
201508271753 METAR KPAE 271753Z 00000KT 10SM CLR 21/11 A3010 RMK AO2 SLP191 T02110111 10211 20150 53001=
201508271653 METAR KPAE 271653Z 00000KT 10SM CLR 20/11 A3010 RMK AO2 SLP190 T02000106=
201508271553 METAR KPAE 271553Z 16003KT 10SM CLR 19/09 A3010 RMK AO2 SLP189 T01940094=
201508271453 METAR KPAE 271453Z 16005KT 10SM CLR 18/09 A3010 RMK AO2 SLP188 T01830094 53013=
201508271353 METAR KPAE 271353Z 20003KT 10SM CLR 16/09 A3008 RMK AO2 SLP184 T01610094=
201508271253 METAR KPAE 271253Z AUTO 00000KT 10SM CLR 16/09 A3007 RMK AO2 SLP178 T01610089=
201508271153 METAR KPAE 271153Z AUTO 00000KT 10SM CLR 17/08 A3006 RMK AO2 SLP175 T01720083 10178 20161 52006=
201508271053 METAR KPAE 271053Z AUTO 00000KT 10SM CLR 17/08 A3005 RMK AO2 SLP174 T01720083=
201508270953 METAR KPAE 270953Z AUTO 05003KT 10SM CLR 17/08 A3004 RMK AO2 SLP171 T01720083=
201508270853 METAR KPAE 270853Z AUTO 04003KT 10SM CLR 17/08 A3004 RMK AO2 SLP169 T01720083 51004=
201508270753 METAR KPAE 270753Z AUTO 02004KT 10SM CLR 17/08 A3004 RMK AO2 SLP170 T01720083 402560128=
201508270653 METAR KPAE 270653Z AUTO 35005KT 10SM CLR 16/09 A3004 RMK AO2 SLP169 T01610089=
201508270553 METAR KPAE 270553Z AUTO 35005KT 10SM CLR 16/09 A3003 RMK AO2 SLP165 T01610094 10256 20161 51010=
201508270453 METAR KPAE 270453Z AUTO 36004KT 10SM CLR 19/08 A3002 RMK AO2 SLP162 T01890083=
201508270353 METAR KPAE 270353Z AUTO 34004KT 10SM CLR 20/08 A3001 RMK AO2 SLP162 T02000078=
201508270253 METAR KPAE 270253Z 35003KT 10SM CLR 21/08 A2999 RMK AO2 SLP155 T02110078 53002=
201508270153 METAR KPAE 270153Z 35004KT 10SM CLR 23/08 A2998 RMK AO2 SLP150 T02330083=
201508270053 METAR KPAE 270053Z 36004KT 10SM CLR 25/07 A2999 RMK AO2 SLP152 T02500072=
201508262353 METAR KPAE 262353Z VRB05KT 10SM CLR 24/09 A2999 RMK AO2 SLP152 T02440089 10256 20189 58010=
201508262253 METAR KPAE 262253Z 33004KT 10SM CLR 25/10 A3000 RMK AO2 SLP157 T02500100=
201508262153 METAR KPAE 262153Z 33006KT 10SM CLR 24/10 A3001 RMK AO2 SLP160 T02390100=
201508262053 METAR KPAE 262053Z 30005KT 10SM CLR 23/06 A3002 RMK AO2 SLP163 T02280061 58005=
201508261953 METAR KPAE 261953Z VRB04KT 10SM CLR 22/10 A3003 RMK AO2 SLP165 T02170100=
201508261853 METAR KPAE 261853Z VRB03KT 10SM CLR 21/11 A3003 RMK AO2 SLP167 T02060111=
201508261753 METAR KPAE 261753Z 02003KT 10SM CLR 19/09 A3004 RMK AO2 SLP170 T01890089 10189 20128 58002=
201508261653 METAR KPAE 261653Z 31005KT 10SM CLR 17/09 A3004 RMK AO2 SLP172 T01670094=
201508261553 METAR KPAE 261553Z VRB04KT 10SM CLR 16/10 A3004 RMK AO2 SLP172 T01610100=
201508261453 METAR KPAE 261453Z 35004KT 10SM CLR 15/11 A3004 RMK AO2 SLP172 T01500111 52011=
201508261353 METAR KPAE 261353Z 00000KT 10SM CLR 14/11 A3003 RMK AO2 SLP169 T01390106=
201508261253 METAR KPAE 261253Z AUTO 02003KT 10SM CLR 13/10 A3002 RMK AO2 SLP163 T01330100=
201508261153 METAR KPAE 261153Z AUTO 00000KT 10SM CLR 13/10 A3001 RMK AO2 SLP160 T01330100 10156 20128 53005=
201508261053 METAR KPAE 261053Z AUTO 00000KT 10SM CLR 14/10 A3000 RMK AO2 SLP157 T01390100=
201508260953 METAR KPAE 260953Z AUTO 02003KT 10SM CLR 14/10 A3000 RMK AO2 SLP155 T01440100=
201508260853 METAR KPAE 260853Z AUTO 01003KT 10SM CLR 14/10 A2999 RMK AO2 SLP155 T01440100 58003=
201508260753 METAR KPAE 260753Z AUTO 02004KT 10SM CLR 15/10 A3000 RMK AO2 SLP156 T01500100 402280122=
201508260653 METAR KPAE 260653Z AUTO 36004KT 10SM CLR 15/10 A3000 RMK AO2 SLP159 T01500100=
201508260553 METAR KPAE 260553Z AUTO 36007KT 10SM CLR 15/10 A3001 RMK AO2 SLP159 T01500100 10222 20150 58002=
201508260453 METAR KPAE 260453Z 01007KT 10SM CLR 15/08 A3001 RMK AO2 SLP161 T01500083=
201508260353 METAR KPAE 260353Z 36005KT 10SM CLR 17/09 A3001 RMK AO2 SLP161 T01670089=
201508260253 METAR KPAE 260253Z 35004KT 10SM CLR 19/07 A3001 RMK AO2 SLP161 T01890072 56006=
201508260153 METAR KPAE 260153Z 35004KT 10SM CLR 20/07 A3001 RMK AO2 SLP161 T02000072=
201508260053 METAR KPAE 260053Z 36007KT 10SM CLR 21/07 A3002 RMK AO2 SLP164 T02110067=
201508252353 METAR KPAE 252353Z 35009KT 10SM CLR 22/06 A3003 RMK AO2 SLP167 T02220056 10228 20178 56014=
201508252253 METAR KPAE 252253Z AUTO 36008KT 10SM CLR 22/06 A3004 RMK AO2 SLP169 T02220061 TSNO=
201508252153 METAR KPAE 252153Z 01007KT 10SM CLR 22/06 A3006 RMK AO2 SLP177 T02170061=
201508252053 METAR KPAE 252053Z 36006KT 10SM CLR 21/07 A3007 RMK AO2 SLP182 T02110067 58010=
201508251953 METAR KPAE 251953Z VRB05KT 10SM CLR 20/08 A3009 RMK AO2 SLP187 T02000078=
201508251853 METAR KPAE 251853Z VRB04KT 10SM CLR 19/09 A3009 RMK AO2 SLP190 T01890089=
201508251753 METAR KPAE 251753Z VRB04KT 10SM CLR 18/08 A3010 RMK AO2 SLP192 T01830083 10183 20122 58004=
201508251653 METAR KPAE 251653Z VRB03KT 10SM FU CLR 17/08 A3011 RMK AO2 SLP194 T01720083=
201508251553 METAR KPAE 251553Z 02004KT 10SM FU CLR 16/09 A3011 RMK AO2 SLP195 T01610089=
201508251453 METAR KPAE 251453Z 02004KT 10SM FU CLR 14/09 A3011 RMK AO2 SLP196 T01440089 53006=
201508251353 METAR KPAE 251353Z 00000KT 10SM FU CLR 12/08 A3010 RMK AO2 SLP193 T01220083=
201508251253 METAR KPAE 251253Z AUTO 00000KT 10SM FU CLR 13/09 A3009 RMK AO2 SLP190 T01280089=
201508251153 METAR KPAE 251153Z AUTO 00000KT 10SM FU CLR 13/08 A3010 RMK AO2 SLP190 T01280083 10139 20122 51003=
201508251053 METAR KPAE 251053Z AUTO 05003KT 10SM FU CLR 13/08 A3010 RMK AO2 SLP190 T01280083=
201508250953 METAR KPAE 250953Z AUTO 04003KT 10SM FU CLR 13/08 A3009 RMK AO2 SLP189 T01280083=
201508250853 METAR KPAE 250853Z AUTO 02004KT 10SM FU CLR 13/08 A3009 RMK AO2 SLP187 T01330083 53006=
201508250753 METAR KPAE 250753Z AUTO 01004KT 10SM FU CLR 14/09 A3008 RMK AO2 SLP185 T01390089 402110128=
201508250653 METAR KPAE 250653Z AUTO 36005KT 10SM FU CLR 14/09 A3007 RMK AO2 SLP182 T01390089=
201508250553 METAR KPAE 250553Z AUTO 36005KT 10SM FU CLR 14/08 A3007 RMK AO2 SLP182 T01390083 10194 20139 51006=
201508250453 METAR KPAE 250453Z AUTO 01006KT 10SM FU CLR 14/08 A3007 RMK AO2 SLP181 T01440083=
201508250353 METAR KPAE 250353Z AUTO 01006KT 10SM FU CLR 14/09 A3006 RMK AO2 SLP180 T01440089=
201508250253 METAR KPAE 250253Z 36005KT 10SM FU CLR 16/08 A3005 RMK AO2 SLP176 T01560083 53004=
201508250153 METAR KPAE 250153Z 36007KT 10SM FU CLR 18/08 A3005 RMK AO2 SLP173 T01780078=
201508250053 METAR KPAE 250053Z 36008KT 10SM FU CLR 19/08 A3004 RMK AO2 SLP171 T01890078=
201508242353 METAR KPAE 242353Z 36006KT 10SM FU CLR 19/07 A3004 RMK AO2 SLP172 T01940072 10211 20156 56005=
201508242253 METAR KPAE 242253Z AUTO 35006KT 10SM FU CLR 21/09 A3005 RMK AO2 SLP173 T02060089 TSNO=
201508242153 METAR KPAE 242153Z 31006KT 10SM FU CLR 21/09 A3005 RMK AO2 SLP174 T02060089=
201508242053 METAR KPAE 242053Z 27006KT 10SM FU CLR 20/08 A3006 RMK AO2 SLP177 T02000083 56003=
201508241953 METAR KPAE 241953Z 29006KT 10SM FU CLR 18/09 A3006 RMK AO2 SLP177 T01830094=
201508241853 METAR KPAE 241853Z 30005KT 10SM FU CLR 17/10 A3006 RMK AO2 SLP178 T01720100=
201508241753 METAR KPAE 241753Z VRB03KT 10SM FU CLR 16/11 A3007 RMK AO2 SLP180 T01610106 10161 20128 53004=
201508241653 METAR KPAE 241653Z 28003KT 10SM FU CLR 15/10 A3006 RMK AO2 SLP178 T01500100=
201508241553 METAR KPAE 241553Z 19003KT 10SM FU CLR 14/09 A3006 RMK AO2 SLP176 T01440094=
201508241453 METAR KPAE 241453Z 00000KT 10SM FU CLR 14/09 A3005 RMK AO2 SLP175 T01390094 53007=
201508241353 METAR KPAE 241353Z 05003KT 10SM FU CLR 13/09 A3004 RMK AO2 SLP171 T01330089=
201508241253 METAR KPAE 241253Z AUTO 06003KT 10SM FU CLR 13/09 A3004 RMK AO2 SLP169 T01280089=
201508241153 METAR KPAE 241153Z AUTO 00000KT 10SM FU CLR 13/09 A3003 RMK AO2 SLP167 T01330089 10156 20133 53007=
201508241053 METAR KPAE 241053Z AUTO 03003KT 10SM FU CLR 13/09 A3002 RMK AO2 SLP163 T01330089=
201508240953 METAR KPAE 240953Z AUTO 02004KT 10SM FU CLR 13/09 A3002 RMK AO2 SLP162 T01330094=
201508240853 METAR KPAE 240853Z AUTO 01006KT 10SM FU CLR 14/09 A3001 RMK AO2 SLP160 T01390089 51006=
201508240753 METAR KPAE 240753Z AUTO 02008KT 10SM FU CLR 14/09 A3000 RMK AO2 SLP158 T01440089 402560128=
201508240653 METAR KPAE 240653Z AUTO 02009KT 10SM FU CLR 15/08 A3000 RMK AO2 SLP156 T01500083=
201508240553 METAR KPAE 240553Z AUTO 02010KT 10SM FU CLR 16/09 A2999 RMK AO2 SLP153 T01560089 10244 20156 52009=
201508240453 METAR KPAE 240453Z AUTO 02008KT 10SM FU CLR 16/09 A2998 RMK AO2 SLP151 T01610094=
201508240353 METAR KPAE 240353Z AUTO 01005KT 10SM FU CLR 17/11 A2997 RMK AO2 SLP148 T01670106=
201508240253 METAR KPAE 240253Z 02008KT 10SM FU CLR 17/11 A2996 RMK AO2 SLP145 T01720111 53007=
201508240200 METAR KPAE NIL=
201508240100 METAR KPAE NIL=
201508232353 METAR KPAE 232353Z 36006KT 10SM FU CLR 24/08 A2994 RMK AO2 SLP137 T02440083 10256 20200 58007=
201508232253 METAR KPAE 232253Z VRB03KT 10SM FU CLR 25/09 A2995 RMK AO2 SLP138 T02500094=
201508232153 METAR KPAE 232153Z VRB05KT 5SM HZ FU CLR 25/10 A2996 RMK AO2 SLP141 T02500100=
201508232053 METAR KPAE 232053Z 01005KT 3SM HZ FU SCT029 24/07 A2996 RMK AO2 SLP143 T02390072 58009=
201508231953 METAR KPAE 231953Z VRB05KT 7SM FU BKN035 23/09 A2997 RMK AO2 SLP147 T02280094=
201508231853 METAR KPAE 231853Z VRB05KT 4SM HZ FU CLR 21/09 A2998 RMK AO2 SLP150 T02110094=
201508231753 METAR KPAE 231753Z 36006KT 3SM HZ FU OVC028 20/09 A2999 RMK AO2 SLP153 FU OVC028 T02000089 10206 20128 53002=
201508231653 METAR KPAE 231653Z 02003KT 5SM HZ FU CLR 17/11 A2998 RMK AO2 SLP151 VIS E 3 T01720106=
201508231553 METAR KPAE 231553Z 36005KT 5SM HZ FU OVC037 16/10 A2998 RMK AO2 SLP151 VIS E 3 T01610100=
201508231453 METAR KPAE 231453Z 02003KT 10SM FU BKN044 15/11 A2998 RMK AO2 SLP152 T01500111 53006=
201508231353 METAR KPAE 231353Z 00000KT 9SM FU CLR 13/09 A2998 RMK AO2 SLP149 T01330094=
201508231253 METAR KPAE 231253Z 00000KT 10SM FU OVC049 13/09 A2997 RMK AO2 SLP146 T01330094=
201508231153 METAR KPAE 231153Z 00000KT 10SM FU OVC049 14/09 A2996 RMK AO2 SLP145 T01390094 10167 20128 56003=
201508231053 METAR KPAE 231053Z 03003KT 10SM FU OVC050 15/09 A2996 RMK AO2 SLP145 T01500089=
201508231000 METAR KPAE NIL=
201508230953 METAR KPAE 230953Z 35004KT 10SM FU OVC055 16/09 A2997 RMK AO2 SLP146 T01560089=
201508230853 METAR KPAE 230853Z 02003KT 10SM FU OVC055 16/10 A2997 RMK AO2 SLP148 T01560100 58007=
201508230753 METAR KPAE 230753Z 36004KT 10SM FU CLR 16/09 A2999 RMK AO2 SLP152 T01610094 402330117=
201508230653 METAR KPAE 230653Z 36004KT 10SM FU CLR 16/09 A2999 RMK AO2 SLP153 T01560094=
201508230553 METAR KPAE 230553Z 36005KT 10SM FU FEW055 17/09 A3000 RMK AO2 SLP155 T01670094 10233 20167 50000=
201508230453 METAR KPAE 230453Z 36005KT 10SM FU FEW055 18/09 A3000 RMK AO2 SLP156 T01780089=
201508230353 METAR KPAE 230353Z 35004KT 10SM FU CLR 19/09 A2999 RMK AO2 SLP156 T01890089=
201508230253 METAR KPAE 230253Z 35003KT 10SM HZ FU CLR 19/09 A2999 RMK AO2 SLP156 T01940094 56013=
201508230153 METAR KPAE 230153Z 35006KT 5SM HZ FU CLR 22/09 A3000 RMK AO2 SLP157 T02170089=
201508230053 METAR KPAE 230053Z 35005KT 5SM HZ FU CLR 23/09 A3001 RMK AO2 SLP161 T02280089=
201508222353 METAR KPAE 222353Z 34007KT 6SM HZ FU CLR 23/09 A3003 RMK AO2 SLP167 T02330094 10233 20183 58018=
201508222253 METAR KPAE 222253Z 34005KT 10SM CLR 23/08 A3005 RMK AO2 SLP173 T02330083=
201508222153 METAR KPAE 222153Z 35008KT 10SM CLR 22/08 A3007 RMK AO2 SLP181 T02220083=
201508222053 METAR KPAE 222053Z 36006KT 10SM CLR 22/09 A3009 RMK AO2 SLP186 T02220089 58013=
201508221953 METAR KPAE 221953Z 01005KT 10SM CLR 21/09 A3010 RMK AO2 SLP193 T02060094=
201508221853 METAR KPAE 221853Z 02004KT 10SM CLR 20/11 A3012 RMK AO2 SLP196 T02000106=
201508221753 METAR KPAE 221753Z 01004KT 10SM CLR 18/10 A3012 RMK AO2 SLP199 T01830100 10183 20117 50000=
201508221653 METAR KPAE 221653Z 02003KT 10SM SCT075 16/11 A3013 RMK AO2 SLP200 T01610106=
201508221553 METAR KPAE 221553Z 01004KT 10SM BKN070 14/11 A3013 RMK AO2 SLP201 T01440106=
201508221453 METAR KPAE 221453Z 04003KT 10SM BKN070 14/10 A3012 RMK AO2 SLP199 T01440100 51006=
201508221353 METAR KPAE 221353Z 00000KT 10SM OVC055 12/09 A3012 RMK AO2 SLP198 T01220089=
201508221253 METAR KPAE 221253Z AUTO 00000KT 10SM CLR 13/09 A3011 RMK AO2 SLP196 T01280094=
201508221153 METAR KPAE 221153Z AUTO 05003KT 10SM CLR 13/09 A3010 RMK AO2 SLP193 T01280094 10172 20128 50002=
201508221053 METAR KPAE 221053Z AUTO 00000KT 10SM CLR 13/11 A3011 RMK AO2 SLP194 T01330106=
201508220953 METAR KPAE 220953Z AUTO 00000KT 10SM CLR 13/11 A3010 RMK AO2 SLP192 T01330111=
201508220853 METAR KPAE 220853Z AUTO 02003KT 10SM CLR 14/11 A3010 RMK AO2 SLP191 T01440111 50005=
201508220753 METAR KPAE 220753Z AUTO 01003KT 10SM CLR 14/11 A3010 RMK AO2 SLP192 T01390106 402110133=
201508220653 METAR KPAE 220653Z AUTO 00000KT 10SM CLR 16/08 A3009 RMK AO2 SLP189 T01560083=
201508220553 METAR KPAE 220553Z AUTO 00000KT 10SM CLR 17/08 A3008 RMK AO2 SLP186 60000 T01720083 10211 20167 51015=
201508220453 METAR KPAE 220453Z AUTO 00000KT 10SM CLR 18/08 A3008 RMK AO2 SLP184 T01780078=
201508220353 METAR KPAE 220353Z AUTO 00000KT 10SM CLR 17/09 A3006 RMK AO2 RAB30E38 SLP178 P0000 T01720089=
201508220253 METAR KPAE 220253Z 30003KT 10SM CLR 19/08 A3004 RMK AO2 SLP171 T01940083 51003=
201508220153 METAR KPAE 220153Z 30005KT 10SM CLR 21/08 A3004 RMK AO2 SLP170 T02060083=
201508220053 METAR KPAE 220053Z VRB03KT 10SM FEW045 21/08 A3004 RMK AO2 SLP170 T02060078=
201508212353 METAR KPAE 212353Z 24007KT 10SM CLR 21/10 A3003 RMK AO2 SLP168 T02060100 10206 20150 51005=
201508212253 METAR KPAE 212253Z 24006KT 10SM SCT040 20/10 A3003 RMK AO2 SLP167 T02000100=
201508212153 METAR KPAE 212153Z 26006KT 10SM SCT030 19/11 A3002 RMK AO2 SLP166 T01940106=
201508212053 METAR KPAE 212053Z 00000KT 10SM SCT030 BKN039 18/10 A3002 RMK AO2 SLP163 T01830100 52008=
201508211953 METAR KPAE 211953Z VRB03KT 10SM BKN030 BKN065 17/11 A3001 RMK AO2 SLP160 T01720106=
201508211932 SPECI KPAE 211932Z 25004KT 10SM BKN036 BKN065 17/11 A3001 RMK AO2 T01720111=
201508211853 METAR KPAE 211853Z 28006KT 10SM BKN026 BKN031 OVC065 16/11 A3000 RMK AO2 SLP158 T01610106=
201508211753 METAR KPAE 211753Z 26006KT 10SM BKN021 BKN026 OVC031 16/11 A2999 RMK AO2 SLP155 60000 T01560106 10161 20133 53012=
201508211653 METAR KPAE 211653Z 28004KT 10SM OVC019 14/11 A2998 RMK AO2 SLP150 T01440106=
201508211553 METAR KPAE 211553Z 29003KT 10SM OVC016 14/11 A2997 RMK AO2 SLP146 T01390106=
201508211453 METAR KPAE 211453Z 20003KT 10SM BKN017 OVC024 14/11 A2996 RMK AO2 SLP142 60000 T01390106 53007=
201508211353 METAR KPAE 211353Z 00000KT 10SM OVC012 13/11 A2994 RMK AO2 RAB1254E20 SLP137 P0000 T01330106=
201508211310 SPECI KPAE 211310Z AUTO 25003KT 6SM -RA BR BKN012 OVC026 13/11 A2994 RMK AO2 RAB1254 P0000 T01330111=
201508211301 SPECI KPAE 211301Z AUTO 23005KT 7SM -RA BKN009 BKN014 OVC027 14/12 A2994 RMK AO2 RAB1254 CIG 008V012 P0000 T01390117=
201508211253 METAR KPAE 211253Z AUTO VRB03KT 10SM SCT011 BKN014 OVC026 14/11 A2994 RMK AO2 RAE20 SLP135 P0000 T01390111=
201508211239 SPECI KPAE 211239Z AUTO 04003KT 10SM BKN010 OVC015 14/12 A2993 RMK AO2 RAE20 CIG 007V011 P0000 T01390117=
201508211220 SPECI KPAE 211220Z AUTO 00000KT 10SM BKN009 OVC014 14/12 A2993 RMK AO2 RAE20 CIG 007V011 P0000 T01390117=
201508211153 METAR KPAE 211153Z AUTO 01004KT 9SM -RA OVC014 14/12 A2993 RMK AO2 RAB39 SLP134 P0000 60000 T01390117 10156 20133 53005=
201508211053 METAR KPAE 211053Z AUTO 35003KT 10SM OVC013 14/11 A2993 RMK AO2 SLP132 T01390111=
201508211039 SPECI KPAE 211039Z AUTO 35005KT 10SM OVC014 14/11 A2992 RMK AO2 T01390111=
201508210953 METAR KPAE 210953Z AUTO 00000KT 10SM OVC017 14/11 A2992 RMK AO2 SLP130 T01440106=
201508210853 METAR KPAE 210853Z AUTO 23003KT 10SM OVC020 14/11 A2992 RMK AO2 SLP130 T01440106 58001=
201508210817 SPECI KPAE 210817Z AUTO 00000KT 10SM BKN021 OVC031 14/12 A2992 RMK AO2 T01390117=
201508210753 METAR KPAE 210753Z AUTO 02003KT 10SM FEW018 SCT033 BKN090 14/12 A2992 RMK AO2 SLP131 T01390117 402220133=
201508210653 METAR KPAE 210653Z AUTO 36003KT 10SM CLR 14/12 A2993 RMK AO2 SLP134 T01390117=
201508210553 METAR KPAE 210553Z AUTO 22005KT 10SM CLR 16/11 A2992 RMK AO2 SLP131 T01560111 10222 20156 53009=
201508210453 METAR KPAE 210453Z AUTO 20007KT 10SM BKN045 18/10 A2991 RMK AO2 SLP126 T01830100=
201508210353 METAR KPAE 210353Z AUTO 21005KT 10SM CLR 19/09 A2990 RMK AO2 SLP123 T01890094=
201508210253 METAR KPAE 210253Z 21003KT 10SM CLR 21/10 A2989 RMK AO2 SLP121 T02060100 56010=
201508210153 METAR KPAE 210153Z 21006KT 10SM SCT046 22/10 A2990 RMK AO2 SLP122 T02170100=
201508210053 METAR KPAE 210053Z 16006KT 10SM CLR 22/09 A2991 RMK AO2 SLP127 T02170089=
201508202353 METAR KPAE 202353Z 21004KT 10SM CLR 22/09 A2993 RMK AO2 SLP132 T02220089 10222 20172 58008=
201508202253 METAR KPAE 202253Z AUTO 20008G16KT 10SM CLR 22/10 A2993 RMK AO2 SLP134 T02170100 TSNO=
201508202153 METAR KPAE 202153Z 19012KT 160V220 10SM SCT037 21/11 A2995 RMK AO2 SLP138 T02110106=
201508202053 METAR KPAE 202053Z 17011KT 10SM FEW025 BKN034 19/11 A2995 RMK AO2 SLP140 T01940111 58001=
201508202000 SPECI KPAE 202000Z 19011KT 10SM SCT018 OVC036 18/11 A2996 RMK AO2 T01780111=
201508201953 METAR KPAE 201953Z 19013KT 10SM BKN018 OVC036 18/11 A2996 RMK AO2 SLP145 T01780111=
201508201853 METAR KPAE 201853Z 18016KT 10SM BKN016 OVC038 18/12 A2996 RMK AO2 SLP144 T01780117=
201508201816 SPECI KPAE 201816Z 19014KT 10SM BKN015 OVC037 17/12 A2995 RMK AO2 T01720117=
201508201753 METAR KPAE 201753Z 21013KT 10SM BKN013 OVC037 17/12 A2995 RMK AO2 SLP141 60000 T01720117 10172 20156 53007=
201508201653 METAR KPAE 201653Z 18010G20KT 10SM OVC012 17/13 A2994 RMK AO2 SLP139 T01670128=
201508201600 SPECI KPAE 201600Z 18008KT 10SM BKN010 OVC016 16/13 A2994 RMK AO2 CIG 006V014 T01610133=
201508201553 METAR KPAE 201553Z COR 18009KT 10SM BKN010 OVC016 16/14 A2994 RMK AO2 RAB22E31 SLP136 P0000 T01610139=
201508201510 SPECI KPAE 201510Z 19007KT 6SM BR BKN009 OVC011 16/14 A2993 RMK AO2 T01610139=
201508201500 SPECI KPAE 201500Z 20008KT 10SM OVC011 17/13 A2993 RMK AO2 T01670133=
201508201453 METAR KPAE 201453Z VRB03KT 10SM BKN009 OVC011 16/13 A2993 RMK AO2 SLP134 T01610133 53007=
201508201353 METAR KPAE 201353Z 16006KT 10SM OVC013 17/13 A2991 RMK AO2 SLP127 T01670128=
201508201253 METAR KPAE 201253Z AUTO 17005KT 10SM OVC015 17/13 A2991 RMK AO2 SLP125 T01670128=
201508201242 SPECI KPAE 201242Z AUTO 17004KT 10SM OVC015 17/13 A2991 RMK AO2 T01670128=
201508201153 METAR KPAE 201153Z AUTO 19006KT 10SM OVC013 17/13 A2991 RMK AO2 SLP125 T01670128 10167 20144 51010=
201508201116 SPECI KPAE 201116Z AUTO 19004KT 10SM OVC014 16/13 A2991 RMK AO2 T01560128=
201508201053 METAR KPAE 201053Z AUTO 19003KT 10SM OVC015 15/13 A2991 RMK AO2 SLP125 T01500128=
201508201030 SPECI KPAE 201030Z AUTO 21004KT 10SM SCT006 BKN016 15/13 A2991 RMK AO2 T01500128=
201508200953 METAR KPAE 200953Z AUTO 15005KT 10SM OVC007 15/13 A2990 RMK AO2 SLP120 T01500128=
201508200929 SPECI KPAE 200929Z AUTO 16003KT 10SM BKN008 15/13 A2989 RMK AO2 T01500128=
201508200916 SPECI KPAE 200916Z AUTO 00000KT 10SM FEW005 FEW009 14/13 A2989 RMK AO2 T01440128=
201508200853 METAR KPAE 200853Z AUTO 05004KT 10SM CLR 14/13 A2988 RMK AO2 SLP116 T01440128 51010=
201508200818 SPECI KPAE 200818Z AUTO 36004KT 10SM SCT006 14/13 A2988 RMK AO2 T01440128=
201508200801 SPECI KPAE 200801Z AUTO 02006KT 10SM BKN006 15/13 A2988 RMK AO2 CIG 004V010 T01500128=
201508200753 METAR KPAE 200753Z AUTO 36008KT 10SM SCT006 15/13 A2988 RMK AO2 SLP115 T01500128 403000150=
201508200748 SPECI KPAE 200748Z AUTO 36007KT 320V020 10SM SCT008 16/13 A2988 RMK AO2=
201508200653 METAR KPAE 200653Z AUTO 01009G15KT 330V030 10SM CLR 16/13 A2985 RMK AO2 SLP105 T01610128=
201508200553 METAR KPAE 200553Z AUTO 35014G20KT 10SM CLR 16/13 A2985 RMK AO2 SLP105 T01560128 10300 20156 50004=
201508200453 METAR KPAE 200453Z AUTO 01010KT 10SM CLR 16/13 A2985 RMK AO2 SLP107 T01610128=
201508200353 METAR KPAE 200353Z AUTO 36008G17KT 10SM CLR 17/13 A2985 RMK AO2 SLP104 T01720128=
201508200253 METAR KPAE 200253Z 36015G24KT 10SM CLR 18/13 A2984 RMK AO2 SLP101 T01830128 58010=
201508200153 METAR KPAE 200153Z 36009G16KT 10SM CLR 20/13 A2985 RMK AO2 SLP106 T02000133=
201508200053 METAR KPAE 200053Z 01008G15KT 10SM CLR 26/12 A2986 RMK AO2 SLP108 T02560122=
201508192353 METAR KPAE 192353Z VRB04KT 10SM CLR 29/11 A2987 RMK AO2 SLP109 T02940111 10300 20228 58016=
201508192253 METAR KPAE 192253Z VRB03KT 10SM CLR 29/11 A2988 RMK AO2 SLP114 T02940111=
201508192153 METAR KPAE 192153Z 36005KT 10SM CLR 29/12 A2990 RMK AO2 SLP121 T02890117=
201508192053 METAR KPAE 192053Z 00000KT 10SM CLR 28/12 A2991 RMK AO2 SLP125 T02780122 58008=
201508191953 METAR KPAE 191953Z 35007KT 10SM CLR 27/13 A2993 RMK AO2 SLP129 T02670128=
201508191853 METAR KPAE 191853Z 34005KT 10SM CLR 26/14 A2993 RMK AO2 SLP130 T02560139=
201508191753 METAR KPAE 191753Z VRB05KT 10SM CLR 23/14 A2994 RMK AO2 SLP134 T02330139 10233 20172 58001=
201508191653 METAR KPAE 191653Z VRB03KT 10SM CLR 22/14 A2994 RMK AO2 SLP135 T02170139=
201508191553 METAR KPAE 191553Z 03005KT 10SM CLR 21/13 A2995 RMK AO2 SLP137 T02060133=
201508191453 METAR KPAE 191453Z 34004KT 10SM CLR 19/13 A2994 RMK AO2 SLP136 T01890133 53002=
201508191353 METAR KPAE 191353Z 01003KT 10SM CLR 18/13 A2994 RMK AO2 SLP136 T01780133=
201508191253 METAR KPAE 191253Z AUTO 36003KT 10SM CLR 18/13 A2993 RMK AO2 SLP133 T01830128=
201508191153 METAR KPAE 191153Z AUTO 01006KT 10SM CLR 19/13 A2993 RMK AO2 SLP132 T01940128 10206 20178 57003=
201508191053 METAR KPAE 191053Z AUTO 03005KT 10SM CLR 20/12 A2994 RMK AO2 SLP134 T02000122=
201508190953 METAR KPAE 190953Z AUTO 02007KT 10SM CLR 20/12 A2994 RMK AO2 SLP134 T02000117=
201508190853 METAR KPAE 190853Z AUTO 00000KT 10SM CLR 19/12 A2994 RMK AO2 SLP137 T01890117 50000=
201508190753 METAR KPAE 190753Z AUTO 01003KT 10SM CLR 18/12 A2995 RMK AO2 SLP138 T01830122 402670144=
201508190653 METAR KPAE 190653Z AUTO 01004KT 10SM CLR 20/12 A2995 RMK AO2 SLP138 T02000117=
201508190553 METAR KPAE 190553Z AUTO 01004KT 10SM CLR 20/12 A2994 RMK AO2 SLP137 T02000117 10261 20200 58000=
201508190453 METAR KPAE 190453Z AUTO 34003KT 10SM CLR 20/12 A2995 RMK AO2 SLP139 T02000122=
201508190353 METAR KPAE 190353Z AUTO 00000KT 10SM CLR 22/12 A2995 RMK AO2 SLP138 T02220117=
201508190253 METAR KPAE 190253Z 35005KT 10SM CLR 23/12 A2995 RMK AO2 SLP137 T02330117 57010=
201508190153 METAR KPAE 190153Z 35006KT 10SM CLR 25/12 A2995 RMK AO2 SLP139 T02500122=
201508190053 METAR KPAE 190053Z 33006KT 10SM CLR 26/13 A2997 RMK AO2 SLP145 T02610128=
201508182353 METAR KPAE 182353Z 35008KT 10SM CLR 26/13 A2998 RMK AO2 SLP147 T02610133 10267 20200 58018=
201508182253 METAR KPAE 182253Z 33008KT 10SM CLR 26/13 A3000 RMK AO2 SLP154 T02560133=
201508182153 METAR KPAE 182153Z 36007KT 10SM CLR 25/13 A3001 RMK AO2 SLP160 T02500133=
201508182053 METAR KPAE 182053Z 01008KT 10SM CLR 24/13 A3003 RMK AO2 SLP166 T02440128 56013=
201508181953 METAR KPAE 181953Z 34007KT 10SM CLR 23/14 A3004 RMK AO2 SLP170 T02330139=
201508181853 METAR KPAE 181853Z 36007KT 310V030 10SM CLR 22/14 A3006 RMK AO2 SLP176 T02170139=
201508181753 METAR KPAE 181753Z 35007KT 320V030 10SM CLR 20/14 A3007 RMK AO2 SLP181 T02000139 10206 20144 58005=
201508181653 METAR KPAE 181653Z 36006KT 10SM CLR 19/13 A3008 RMK AO2 SLP184 T01890133=
201508181553 METAR KPAE 181553Z 36006KT 10SM CLR 18/13 A3009 RMK AO2 SLP186 T01780133=
201508181453 METAR KPAE 181453Z 36005KT 10SM CLR 17/12 A3009 RMK AO2 SLP186 T01670122 53005=
201508181353 METAR KPAE 181353Z AUTO 02004KT 10SM CLR 16/12 A3008 RMK AO2 SLP184 T01560117=
201508181253 METAR KPAE 181253Z AUTO 01003KT 10SM CLR 15/12 A3007 RMK AO2 SLP181 T01500117=
201508181153 METAR KPAE 181153Z AUTO 00000KT 10SM CLR 16/11 A3007 RMK AO2 SLP181 T01560111 10178 20144 56001=
201508181053 METAR KPAE 181053Z AUTO 02003KT 10SM CLR 16/12 A3007 RMK AO2 SLP181 T01560117=
201508180953 METAR KPAE 180953Z AUTO 01004KT 10SM CLR 16/12 A3007 RMK AO2 SLP181 T01560117=
201508180853 METAR KPAE 180853Z AUTO 02004KT 10SM CLR 16/12 A3008 RMK AO2 SLP182 T01560117 57003=
201508180753 METAR KPAE 180753Z AUTO 02003KT 10SM CLR 17/11 A3008 RMK AO2 SLP183 T01670111 402390122=
201508180653 METAR KPAE 180653Z AUTO 00000KT 10SM CLR 17/11 A3008 RMK AO2 SLP183 T01670111=
201508180553 METAR KPAE 180553Z AUTO 01003KT 10SM CLR 18/11 A3008 RMK AO2 SLP185 T01780111 10239 20178 51002=
201508180453 METAR KPAE 180453Z AUTO 36004KT 10SM CLR 19/12 A3008 RMK AO2 SLP185 T01890117=
201508180353 METAR KPAE 180353Z AUTO 36004KT 10SM CLR 19/12 A3008 RMK AO2 SLP183 T01940122=
201508180253 METAR KPAE 180253Z 00000KT 10SM CLR 21/12 A3008 RMK AO2 SLP183 T02060122 55003=
201508180153 METAR KPAE 180153Z 33005KT 10SM CLR 22/12 A3007 RMK AO2 SLP181 T02170122=
201508180053 METAR KPAE 180053Z VRB04KT 10SM CLR 23/12 A3008 RMK AO2 SLP182 T02280117=
201508172353 METAR KPAE 172353Z 36007KT 10SM CLR 23/12 A3009 RMK AO2 SLP186 T02330122 10239 20189 56013=
201508172253 METAR KPAE 172253Z VRB06KT 10SM CLR 23/12 A3010 RMK AO2 SLP189 T02330117=
201508172153 METAR KPAE 172153Z 35005KT 10SM CLR 23/11 A3011 RMK AO2 SLP192 T02330106=
201508172053 METAR KPAE 172053Z VRB04KT 10SM CLR 22/12 A3013 RMK AO2 SLP199 T02220117 58010=
201508171953 METAR KPAE 171953Z 32005KT 10SM CLR 22/11 A3014 RMK AO2 SLP204 T02170111=
201508171853 METAR KPAE 171853Z VRB05KT 10SM CLR 21/11 A3015 RMK AO2 SLP208 T02060111=
201508171753 METAR KPAE 171753Z VRB05KT 10SM CLR 19/11 A3016 RMK AO2 SLP211 T01890111 10194 20122 50000=
201508171653 METAR KPAE 171653Z VRB05KT 10SM CLR 18/11 A3016 RMK AO2 SLP210 T01830106=
201508171553 METAR KPAE 171553Z 00000KT 10SM CLR 17/11 A3016 RMK AO2 SLP212 T01670111=
201508171453 METAR KPAE 171453Z 34004KT 10SM CLR 14/10 A3016 RMK AO2 SLP210 T01440100 53002=
201508171353 METAR KPAE 171353Z 00000KT 10SM CLR 13/09 A3016 RMK AO2 SLP210 T01330094=
201508171253 METAR KPAE 171253Z AUTO 00000KT 10SM CLR 12/10 A3015 RMK AO2 SLP208 T01220100=
201508171153 METAR KPAE 171153Z AUTO 35003KT 10SM CLR 12/11 A3015 RMK AO2 SLP208 T01220106 10156 20122 55003=
201508171053 METAR KPAE 171053Z AUTO 00000KT 10SM CLR 13/09 A3015 RMK AO2 SLP206 T01330094=
201508170953 METAR KPAE 170953Z AUTO 00000KT 10SM CLR 14/09 A3015 RMK AO2 SLP208 T01390094=
201508170853 METAR KPAE 170853Z AUTO 05005KT 10SM CLR 15/10 A3016 RMK AO2 SLP211 T01500100 58002=
201508170753 METAR KPAE 170753Z AUTO 04004KT 10SM CLR 16/11 A3016 RMK AO2 SLP212 T01560106 402220122=
201508170653 METAR KPAE 170653Z AUTO 01004KT 10SM CLR 15/11 A3016 RMK AO2 SLP213 T01500106=
201508170553 METAR KPAE 170553Z AUTO 02006KT 10SM CLR 14/11 A3017 RMK AO2 SLP214 T01440106 10222 20144 50000=
201508170453 METAR KPAE 170453Z AUTO 36004KT 10SM CLR 15/12 A3018 RMK AO2 SLP217 T01500117=
201508170353 METAR KPAE 170353Z AUTO 35004KT 10SM CLR 17/12 A3017 RMK AO2 SLP216 T01720122=
201508170253 METAR KPAE 170253Z 35005KT 10SM CLR 20/11 A3016 RMK AO2 SLP214 T02000111 56008=
201508170153 METAR KPAE 170153Z VRB04KT 10SM CLR 21/11 A3017 RMK AO2 SLP215 T02110106=
201508170053 METAR KPAE 170053Z 35008KT 10SM CLR 22/11 A3018 RMK AO2 SLP218 T02170111=
201508162353 METAR KPAE 162353Z 33006KT 10SM CLR 22/12 A3019 RMK AO2 SLP221 T02220117 10222 20172 56017=
201508162253 METAR KPAE 162253Z 36008KT 10SM CLR 22/11 A3021 RMK AO2 SLP226 T02220111=
201508162153 METAR KPAE 162153Z 35006KT 10SM CLR 21/11 A3022 RMK AO2 SLP232 T02110111=
201508162053 METAR KPAE 162053Z 33008KT 320V020 10SM CLR 21/12 A3024 RMK AO2 SLP239 T02060122 58010=
201508161953 METAR KPAE 161953Z 35008KT 10SM CLR 19/12 A3025 RMK AO2 SLP244 T01940117=
201508161853 METAR KPAE 161853Z 36006KT 10SM CLR 18/11 A3027 RMK AO2 SLP248 T01830111=
201508161753 METAR KPAE 161753Z VRB04KT 10SM CLR 18/12 A3027 RMK AO2 SLP249 T01780117 10178 20122 58005=
201508161653 METAR KPAE 161653Z 36003KT 10SM FEW002 SCT048 16/11 A3028 RMK AO2 SLP252 T01560111=
201508161553 METAR KPAE 161553Z VRB05KT 10SM SCT003 14/11 A3028 RMK AO2 SLP254 T01440111=
201508161453 METAR KPAE 161453Z 36004KT 1 1/2SM BR OVC002 13/12 A3028 RMK AO2 SLP255 T01280117 53007=
201508161407 SPECI KPAE 161407Z 01005KT 1/4SM R16R/3500VP6000FT FG OVC002 12/11 A3028 RMK AO2 T01220111=
201508161358 SPECI KPAE 161358Z VRB04KT 2 1/2SM R16R/3500VP6000FT BR OVC001 12/11 A3028 RMK AO2 T01220111=
201508161353 METAR KPAE 161353Z 36004KT 1/4SM R16R/5000VP6000FT FG OVC002 12/11 A3027 RMK AO2 SLP252 T01220111=
201508161253 METAR KPAE 161253Z 34003KT 7SM OVC002 12/11 A3027 RMK AO2 SLP250 T01220111=
201508161153 METAR KPAE 161153Z 36008KT 6SM BR OVC002 13/11 A3026 RMK AO2 SLP247 70009 T01280111 10156 20128 53001=
201508161111 SPECI KPAE 161111Z 36006KT 10SM BKN004 13/11 A3026 RMK AO2 T01280111=
201508161053 METAR KPAE 161053Z 34007KT 10SM FEW006 13/11 A3027 RMK AO2 SLP248 T01280111=
201508160953 METAR KPAE 160953Z 35004KT 10SM FEW007 13/11 A3026 RMK AO2 SLP245 T01280111=
201508160907 SPECI KPAE 160907Z 01005KT 10SM FEW006 13/11 A3026 RMK AO2 T01330111=
201508160853 METAR KPAE 160853Z 36005KT 10SM CLR 13/11 A3026 RMK AO2 SLP246 T01330111 58000=
201508160753 METAR KPAE 160753Z 36006KT 10SM CLR 13/11 A3027 RMK AO2 SLP248 T01330111 402000133=
201508160653 METAR KPAE 160653Z 01006KT 10SM SCT039 14/11 A3026 RMK AO2 SLP248 T01390106=
201508160553 METAR KPAE 160553Z 01006KT 10SM OVC040 16/11 A3026 RMK AO2 SLP246 T01560106 10183 20156 50003=
201508160453 METAR KPAE 160453Z 02007KT 10SM OVC042 16/11 A3026 RMK AO2 SLP248 T01560111=
201508160353 METAR KPAE 160353Z 02004KT 10SM OVC046 16/11 A3025 RMK AO2 SLP244 T01560111=
201508160253 METAR KPAE 160253Z 35006KT 10SM OVC046 16/11 A3025 RMK AO2 SLP243 T01560111 58005=
201508160153 METAR KPAE 160153Z VRB05KT 10SM BKN065 16/11 A3026 RMK AO2 SLP244 T01610111=
201508160053 METAR KPAE 160053Z 36008KT 10SM OVC055 17/11 A3027 RMK AO2 SLP248 T01670111=
201508152353 METAR KPAE 152353Z VRB05KT 10SM OVC065 18/11 A3027 RMK AO2 SLP248 60005 T01830111 10200 20144 56002=
201508152253 METAR KPAE 152253Z AUTO 03006KT 10SM SCT047 BKN070 20/11 A3027 RMK AO2 SLP248 T02000111=
201508152153 METAR KPAE 152153Z VRB03KT 10SM FEW047 BKN070 19/12 A3027 RMK AO2 SLP249 T01940117=
201508152053 METAR KPAE 152053Z VRB04KT 10SM SCT044 OVC070 18/12 A3027 RMK AO2 SLP250 60005 T01830117 51003=
201508151953 METAR KPAE 151953Z 05005KT 10SM BKN033 OVC041 17/12 A3027 RMK AO2 RAE34 SLP250 P0001 T01670122=
201508151853 METAR KPAE 151853Z 05005KT 10SM -RA SCT007 BKN015 OVC034 14/12 A3027 RMK AO2 RAB30 SLP251 P0004 T01440117=
201508151810 SPECI KPAE 151810Z VRB03KT 10SM BKN007 BKN014 15/13 A3027 RMK AO2 T01500133=
201508151800 SPECI KPAE 151800Z 01005KT 8SM FEW007 BKN014 OVC022 15/14 A3026 RMK AO2 T01500139=
201508151753 METAR KPAE 151753Z 01004KT 9SM FEW002 BKN004 OVC024 15/13 A3026 RMK AO2 RAE19 SLP247 P0000 60004 T01500133 10156 20139 51008=
201508151729 SPECI KPAE 151729Z 00000KT 10SM FEW002 BKN004 OVC018 15/13 A3026 RMK AO2 RAE19 P0000 T01500128=
201508151653 METAR KPAE 151653Z 34003KT 3SM -RA BR BKN007 BKN012 OVC032 15/13 A3026 RMK AO2 RAB1556 SLP245 P0004 T01500133=
201508151553 METAR KPAE 151553Z 00000KT 10SM OVC008 15/13 A3025 RMK AO2 CIG 006V013 SLP243 LOW FOG OVER NOTH PART OF THE AIRPORT T01500128=
201508151453 METAR KPAE 151453Z 19003KT 10SM BKN008 BKN013 OVC021 14/13 A3024 RMK AO2 SLP239 T01440128 53013=
201508151353 METAR KPAE 151353Z 17005KT 10SM BKN007 OVC020 14/13 A3022 RMK AO2 CIG 006V012 SLP232 T01440128=
201508151323 SPECI KPAE 151323Z AUTO 18004KT 10SM BKN007 BKN010 OVC020 14/13 A3021 RMK AO2 CIG 005V008 T01440128=
201508151314 SPECI KPAE 151314Z AUTO 18004KT 10SM SCT007 BKN012 OVC020 14/13 A3021 RMK AO2 T01440128=
201508151253 METAR KPAE 151253Z AUTO 19005KT 10SM BKN008 OVC012 14/13 A3020 RMK AO2 CIG 005V010 SLP226 T01440128=
201508151241 SPECI KPAE 151241Z AUTO 19006KT 10SM BKN006 OVC011 14/13 A3020 RMK AO2 CIG 003V008 T01390128=
201508151232 SPECI KPAE 151232Z AUTO 19004KT 10SM SCT005 BKN010 OVC014 14/13 A3020 RMK AO2 CIG 007V010 T01390128=
201508151203 SPECI KPAE 151203Z AUTO 21003KT 7SM OVC004 14/13 A3020 RMK AO2 T01390128=
201508151153 METAR KPAE 151153Z AUTO 22003KT 7SM OVC005 14/13 A3020 RMK AO2 CIG 002V009 SLP226 60004 70075 T01390128 10150 20139 53007=
201508151053 METAR KPAE 151053Z AUTO 10003KT 6SM BR OVC008 14/13 A3019 RMK AO2 SLP223 T01440128=
201508151001 SPECI KPAE 151001Z AUTO 03003KT 8SM FEW002 BKN013 OVC042 14/13 A3018 RMK AO2 T01390128=
201508150953 METAR KPAE 150953Z AUTO 02003KT 7SM FEW004 BKN015 OVC042 14/13 A3018 RMK AO2 RAE24 SLP220 P0001 T01390128=
201508150944 SPECI KPAE 150944Z AUTO VRB03KT 4SM BR SCT005 BKN011 OVC042 14/13 A3018 RMK AO2 RAE24 P0001 T01390128=
201508150923 SPECI KPAE 150923Z AUTO 03003KT 7SM -RA FEW002 BKN005 OVC011 14/13 A3018 RMK AO2 P0001 T01390128=
201508150908 SPECI KPAE 150908Z AUTO 03004KT 3SM -RA BR FEW002 SCT009 OVC013 14/13 A3018 RMK AO2 P0001 T01390128=
201508150853 METAR KPAE 150853Z AUTO 36003KT 5SM -RA BR SCT002 BKN009 OVC013 14/13 A3018 RMK AO2 RAB32 SLP218 P0001 60003 T01390128 51008=
201508150849 SPECI KPAE 150849Z AUTO 01003KT 5SM -RA BR SCT002 BKN009 OVC013 14/13 A3018 RMK AO2 RAB32 P0000=
201508150842 SPECI KPAE 150842Z AUTO 02005KT 4SM R16R/5000VP6000FT -RA BR SCT002 OVC013 14/13 A3018 RMK AO2 RAB32 P0000 T01390128=
201508150839 SPECI KPAE 150839Z AUTO 03006KT 2SM R16R/5000VP6000FT -RA BR BKN002 BKN009 OVC013 14/13 A3018 RMK AO2 RAB32 P0000 T01390128=
201508150828 SPECI KPAE 150828Z AUTO 04003KT 1 3/4SM R16R/5000VP6000FT BR BKN001 BKN014 OVC026 14/13 A3017 RMK AO2 T01440133=
201508150821 SPECI KPAE 150821Z AUTO 36003KT 7SM SCT001 BKN014 OVC026 14/13 A3017 RMK AO2 T01440128=
201508150753 METAR KPAE 150753Z AUTO 16003KT 10SM OVC015 15/13 A3017 RMK AO2 SLP214 T01500128 401830144=
201508150653 METAR KPAE 150653Z AUTO 17006KT 7SM SCT008 OVC015 15/13 A3015 RMK AO2 RAE46 SLP209 P0002 T01500128=
201508150634 SPECI KPAE 150634Z AUTO 16006KT 4SM -RA BR OVC008 15/13 A3015 RMK AO2 CIG 005V010 P0002 T01500133=
201508150553 METAR KPAE 150553Z AUTO 18007KT 2SM -RA BR OVC008 15/13 A3013 RMK AO2 CIG 005V011 SLP202 P0003 60019 T01500133 10156 20150 53010=
201508150546 SPECI KPAE 150546Z AUTO 18006KT 2SM -RA BR BKN008 OVC014 15/13 A3013 RMK AO2 CIG 005V010 P0002 T01500133=
201508150531 SPECI KPAE 150531Z AUTO 18006KT 2 1/2SM -RA BR OVC010 15/13 A3012 RMK AO2 CIG 006V014 P0001 T01500133=
201508150526 SPECI KPAE 150526Z AUTO 18007KT 3SM -RA BR BKN008 OVC012 15/13 A3012 RMK AO2 CIG 006V010 P0000 T01500133=
201508150453 METAR KPAE 150453Z AUTO 18008KT 8SM -RA BKN010 OVC014 16/13 A3011 RMK AO2 RAB53 CIG 008V012 SLP196 P0000 T01560133=
201508150428 SPECI KPAE 150428Z AUTO 17008KT 10SM FEW009 OVC019 16/13 A3011 RMK AO2 T01560133=
201508150353 METAR KPAE 150353Z AUTO 18010KT 10SM OVC016 16/13 A3010 RMK AO2 SLP192 T01560128=
201508150349 SPECI KPAE 150349Z AUTO 18010KT 10SM OVC016 16/13 A3010 RMK AO2=
201508150253 METAR KPAE 150253Z 19009KT 10SM BKN012 OVC090 16/13 A3009 RMK AO2 RAE35 SLP188 P0001 60016 T01560133 51016=
201508150248 SPECI KPAE 150248Z 20008KT 10SM BKN012 OVC085 16/13 A3009 RMK AO2 RAE35 P0001=
201508150200 SPECI KPAE 150200Z 19007G14KT 10SM -RA OVC095 16/13 A3006 RMK AO2 P0000 T01560133=
201508150153 METAR KPAE 150153Z 19009KT 10SM -RA SCT008 BKN012 OVC090 16/13 A3006 RMK AO2 SLP177 P0004 T01560133=
201508150053 METAR KPAE 150053Z 19017KT 6SM -RA BR OVC009 15/13 A3004 RMK AO2 SLP172 P0011 T01500133=
201508142353 METAR KPAE 142353Z 19010KT 3SM RA BR BKN008 OVC039 15/13 A3006 RMK AO2 SLP179 P0016 60050 T01500133 10183 20150 52018=
201508142300 SPECI KPAE 142300Z 22012KT 2SM R16R/5500VP6000FT RA BR BKN006 BKN050 OVC080 15/14 A3004 RMK AO2 P0003 T01500139=
201508142255 SPECI KPAE 142255Z 22015G18KT 1 1/2SM R16R/5500VP6000FT RA BR SCT006 BKN023 OVC080 15/14 A3004 RMK AO2 P0001 T01500139=
201508142253 METAR KPAE 142253Z 21017KT 1 1/2SM R16R/5500VP6000FT +RA BR BKN004 OVC009 15/14 A3005 RMK AO2 RAB12 TSE11 SLP173 P0012 T01500139=
201508142251 SPECI KPAE 142251Z 21016KT 1 3/4SM R16R/5500VP6000FT +RA BR BKN004 OVC009 15/14 A3005 RMK AO2 RAB12 TSE11 P0011=
201508142243 SPECI KPAE 142243Z 21010KT 6SM -RA BR BKN004 OVC009 16/14 A3005 RMK AO2 RAB12 TSE11 P0002 T01560139=
201508142217 SPECI KPAE 142217Z 20012KT 10SM VCTS -RA BKN004 OVC009 16/14 A3004 RMK AO2 LTG DSNT E-SW RAB12 TSE11 P0000 T01560139=
201508142153 METAR KPAE 142153Z 20014KT 10SM BKN004 OVC009 16/14 A3003 RMK AO2 LTG DSNT SE AND SW RAE09 TSE46 SLP167 P0000 T01560139=
201508142149 SPECI KPAE 142149Z 21013KT 10SM BKN004 OVC009 16/14 A3003 RMK AO2 LTG DSNT SE AND SW RAE09 TSE46 P0000=
201508142053 METAR KPAE 142053Z 18009KT 5SM -TSRA BR OVC009 16/14 A3001 RMK AO2 LTG DSNT E-SW TSE1955B1957 SLP161 P0018 60022 T01610139 52011=
201508141953 METAR KPAE 141953Z 20016G20KT 5SM TSRA SCT007 BKN009 OVC013 16/13 A3000 RMK AO2 LTG DSNT S-W RAB41 TSB40 SLP159 P0004 T01610133=
201508141946 SPECI KPAE 141946Z 20014KT 8SM -TSRA SCT007 BKN009 OVC013 16/13 A3000 RMK AO2 LTG DSNT S-W RAB41 TSB40 P0002 T01610133=
201508141908 SPECI KPAE 141908Z 19015KT 6SM BR SCT007 BKN009 OVC013 17/14 A2999 RMK AO2 T01670144=
201508141853 METAR KPAE 141853Z 20014G20KT 10SM SCT009 BKN010 OVC013 18/14 A2999 RMK AO2 SLP153 T01780139=
201508141845 SPECI KPAE 141845Z 18014KT 10SM SCT009 BKN010 OVC013 18/14 A2998 RMK AO2 T01780139=
201508141831 SPECI KPAE 141831Z 19013G19KT 10SM OVC009 18/14 A2998 RMK AO2 T01780139=
201508141753 METAR KPAE 141753Z COR 18009KT 10SM OVC010 17/14 A2998 RMK AO2 CIG 009V014 SLP150 60002 T01720139 10172 20156 50000=
201508141653 METAR KPAE 141653Z 18011KT 10SM OVC009 17/14 A2998 RMK AO2 SLP151 T01670139=
201508141625 SPECI KPAE 141625Z 18010KT 10SM OVC008 17/14 A2998 RMK AO2 T01670139=
201508141600 SPECI KPAE 141600Z 20013KT 10SM OVC010 17/14 A2998 RMK AO2 CIG 007V014 T01670144=
201508141553 METAR KPAE 141553Z 18010KT 10SM OVC008 17/14 A2998 RMK AO2 RAB1459E12 CIG 007V012 SLP150 P0000 T01670144=
201508141453 METAR KPAE 141453Z 18010KT 10SM OVC008 16/14 A2998 RMK AO2 RAE03 SLP149 P0000 60002 T01610139 53010=
201508141353 METAR KPAE 141353Z 18008KT 10SM -RA BKN007 16/14 A2996 RMK AO2 RAB1258 SLP141 P0002 T01610139=
201508141326 SPECI KPAE 141326Z AUTO 20005KT 10SM -RA BKN008 BKN055 BKN080 16/14 A2996 RMK AO2 RAB1258 P0002 T01610139=
201508141306 SPECI KPAE 141306Z AUTO 24004KT 10SM -RA SCT008 16/14 A2995 RMK AO2 LTG DSNT N RAB1258 P0001 T01610139=
201508141253 METAR KPAE 141253Z AUTO 19010KT 10SM FEW060 FEW110 16/14 A2995 RMK AO2 RAB28E53 SLP140 P0000 T01610139=
201508141227 SPECI KPAE 141227Z AUTO 18006KT 10SM SCT009 SCT060 BKN120 16/14 A2996 RMK AO2 LTG DSNT S T01610139=
201508141218 SPECI KPAE 141218Z AUTO 19009KT 10SM BKN009 16/14 A2995 RMK AO2 LTG DSNT SW T01610139=
201508141209 SPECI KPAE 141209Z AUTO 19005KT 10SM SCT009 16/14 A2994 RMK AO2 LTG DSNT SW T01610139=
201508141153 METAR KPAE 141153Z AUTO 19008KT 10SM CLR 17/14 A2995 RMK AO2 LTG DSNT W RAE03 TSE1059 SLP137 P0000 60000 T01670139 10167 20144 53007=
201508141112 SPECI KPAE 141112Z AUTO 18005KT 10SM FEW047 FEW070 16/14 A2994 RMK AO2 RAE03 TSE1059 P0000 T01610139=
201508141105 SPECI KPAE 141105Z AUTO 16006KT 10SM FEW048 FEW070 16/13 A2994 RMK AO2 RAE03 TSE1059 PRESRR P0000 T01610133=
201508141053 METAR KPAE 141053Z AUTO 00000KT 10SM -TSRA FEW017 FEW048 SCT070 16/13 A2991 RMK AO2 LTG DSNT SW RAB47 TSB44 SLP126 P0000 T01610133=
201508141050 SPECI KPAE 141050Z AUTO 00000KT 10SM -TSRA FEW017 SCT048 SCT070 16/13 A2991 RMK AO2 LTG DSNT SW RAB47 TSB44 P0000=
201508141033 SPECI KPAE 141033Z AUTO 22018G23KT 10SM VCTS FEW015 17/13 A2999 RMK AO2 PRESRR T01670133=
201508140953 METAR KPAE 140953Z AUTO 00000KT 9SM CLR 15/13 A2993 RMK AO2 SLP131 T01500128=
201508140853 METAR KPAE 140853Z AUTO 36003KT 10SM CLR 15/13 A2993 RMK AO2 SLP132 T01500133 56007=
201508140753 METAR KPAE 140753Z AUTO 02004KT 10SM CLR 16/13 A2993 RMK AO2 SLP132 T01610133 402560156=
201508140653 METAR KPAE 140653Z AUTO 01005KT 10SM CLR 16/13 A2994 RMK AO2 SLP136 T01610133=
201508140553 METAR KPAE 140553Z AUTO 36005KT 10SM CLR 16/13 A2995 RMK AO2 SLP140 T01610133 10244 20161 51003=
201508140453 METAR KPAE 140453Z AUTO 01006KT 10SM CLR 17/13 A2995 RMK AO2 SLP140 T01720128=
201508140353 METAR KPAE 140353Z AUTO 02004KT 10SM CLR 19/13 A2994 RMK AO2 SLP138 T01940128=
201508140253 METAR KPAE 140253Z 01003KT 10SM CLR 21/13 A2994 RMK AO2 SLP137 T02110128 58002=
201508140153 METAR KPAE 140153Z 36004KT 10SM CLR 23/13 A2994 RMK AO2 SLP135 T02330128=
201508140053 METAR KPAE 140053Z 36006KT 10SM CLR 23/13 A2995 RMK AO2 SLP138 T02330133=
201508132353 METAR KPAE 132353Z 33005KT 10SM CLR 24/14 A2995 RMK AO2 SLP137 T02390139 10256 20200 56017=
201508132253 METAR KPAE 132253Z 01008KT 10SM CLR 24/14 A2995 RMK AO2 SLP139 T02440144=
201508132153 METAR KPAE 132153Z 28006KT 10SM CLR 25/14 A2998 RMK AO2 SLP148 T02500139=
201508132053 METAR KPAE 132053Z 27007KT 10SM CLR 24/14 A3000 RMK AO2 SLP155 T02440144 58018=
201508131953 METAR KPAE 131953Z 25009KT 10SM CLR 24/15 A3002 RMK AO2 SLP161 T02390150=
201508131853 METAR KPAE 131853Z 23009KT 10SM CLR 22/14 A3004 RMK AO2 SLP168 T02170144=
201508131753 METAR KPAE 131753Z 24008KT 10SM CLR 21/14 A3005 RMK AO2 SLP174 T02060144 10206 20156 58003=
201508131653 METAR KPAE 131653Z 26004KT 10SM SCT007 20/14 A3006 RMK AO2 SLP175 T02000144=
201508131553 METAR KPAE 131553Z VRB05KT 10SM SCT007 18/14 A3006 RMK AO2 SLP177 T01830144=
201508131453 METAR KPAE 131453Z 16005KT 9SM BKN005 16/14 A3006 RMK AO2 SLP174 T01610139 53009=
201508131424 SPECI KPAE 131424Z 20007KT 10SM BKN005 16/14 A3005 RMK AO2 T01610139=
201508131353 METAR KPAE 131353Z AUTO 18004KT 10SM CLR 16/14 A3004 RMK AO2 SLP169 T01610139=
201508131253 METAR KPAE 131253Z AUTO 22004KT 10SM CLR 16/13 A3003 RMK AO2 SLP166 T01610128=
201508131153 METAR KPAE 131153Z AUTO 16004KT 10SM CLR 18/13 A3003 RMK AO2 SLP165 70002 T01830133 10233 20178 52001=
201508131053 METAR KPAE 131053Z AUTO 19007KT 10SM CLR 19/13 A3003 RMK AO2 SLP166 T01890133=
201508130953 METAR KPAE 130953Z AUTO 18004KT 10SM CLR 19/14 A3002 RMK AO2 SLP164 T01940139=
201508130853 METAR KPAE 130853Z AUTO 19003KT 10SM CLR 20/13 A3003 RMK AO2 SLP165 T02000133 51009=
201508130753 METAR KPAE 130753Z AUTO 18003KT 10SM CLR 21/14 A3002 RMK AO2 SLP163 T02060139 402610172=
201508130653 METAR KPAE 130653Z AUTO 15006KT 10SM CLR 23/14 A3001 RMK AO2 SLP160 T02280139=
201508130553 METAR KPAE 130553Z AUTO 12004KT 10SM CLR 23/14 A3000 RMK AO2 SLP155 T02280144 10256 20228 53014=
201508130453 METAR KPAE 130453Z AUTO 11005KT 10SM CLR 23/14 A2998 RMK AO2 SLP150 T02330144=
201508130353 METAR KPAE 130353Z 11006KT 10SM CLR 24/14 A2997 RMK AO2 SLP146 T02390144=
201508130253 METAR KPAE 130253Z 00000KT 10SM CLR 26/13 A2996 RMK AO2 SLP141 T02560128 55001=
201508130153 METAR KPAE 130153Z 18004KT 10SM CLR 25/13 A2995 RMK AO2 SLP139 T02500128=
201508130053 METAR KPAE 130053Z 22005KT 10SM CLR 24/13 A2995 RMK AO2 SLP138 T02440133=
201508122353 METAR KPAE 122353Z 25006KT 10SM CLR 24/14 A2996 RMK AO2 SLP142 60002 T02440139 10261 20189 58011=
201508122253 METAR KPAE 122253Z 05004KT 10SM CLR 26/13 A2998 RMK AO2 RAB13E24 SLP147 P0000 T02560133=
201508122153 METAR KPAE 122153Z 21007KT 10SM CLR 22/14 A2999 RMK AO2 RAB20E35 SLP151 P0000 T02170144=
201508122138 SPECI KPAE 122138Z 25006KT 10SM VCTS CLR 21/14 A2999 RMK AO2 LTG DSNT S RAB20E35 P0000 T02110144=
201508122053 METAR KPAE 122053Z 16005KT 10SM CLR 22/14 A2999 RMK AO2 RAE10 SLP153 P0000 60002 T02220144 50007=
201508122002 SPECI KPAE 122002Z VRB04G14KT 10SM -RA FEW050 SCT090 BKN110 21/14 A2998 RMK AO2 LTG DSNT E P0000 T02060144=
201508121953 METAR KPAE 121953Z 01009KT 10SM VCTS -RA FEW070 SCT090 BKN110 21/14 A2999 RMK AO2 LTG DSNT SE RAB06 SLP154 P0000 T02060144=
201508121930 SPECI KPAE 121930Z 17008KT 070V200 10SM VCTS -RA SCT095 SCT110 20/14 A2998 RMK AO2 LTG DSNT SE AND S RAB06 P0000 T02000144=
201508121853 METAR KPAE 121853Z 23007KT 10SM FEW024 19/15 A3000 RMK AO2 RAB18E42 SLP154 P0002 T01940150=
201508121753 METAR KPAE 121753Z 32005KT 10SM CLR 20/14 A2997 RMK AO2 SLP146 T02000139 10211 20172 51005=
201508121653 METAR KPAE 121653Z VRB06KT 10SM CLR 20/14 A2996 RMK AO2 SLP143 T02000139=
201508121553 METAR KPAE 121553Z VRB04KT 10SM CLR 20/14 A2997 RMK AO2 SLP146 T02000139=
201508121453 METAR KPAE 121453Z 35006KT 10SM CLR 18/13 A2996 RMK AO2 SLP141 T01830128 53002=
201508121353 METAR KPAE 121353Z 00000KT 10SM CLR 18/13 A2996 RMK AO2 PRESRR SLP143 T01830128=
201508121253 METAR KPAE 121253Z AUTO 01005KT 10SM CLR 19/12 A2994 RMK AO2 SLP135 T01890117=
201508121153 METAR KPAE 121153Z AUTO 01003KT 10SM CLR 18/11 A2995 RMK AO2 SLP139 T01780111 10206 20172 53001=
201508121053 METAR KPAE 121053Z AUTO 01003KT 10SM CLR 18/11 A2995 RMK AO2 SLP138 T01830111=
201508120953 METAR KPAE 120953Z AUTO 00000KT 10SM CLR 18/11 A2995 RMK AO2 SLP138 T01780111=
201508120853 METAR KPAE 120853Z AUTO 00000KT 10SM CLR 19/11 A2995 RMK AO2 SLP138 T01940111 56000=
201508120753 METAR KPAE 120753Z AUTO 03003KT 10SM CLR 19/11 A2995 RMK AO2 SLP138 T01940111 402720150=
201508120653 METAR KPAE 120653Z AUTO 35006KT 10SM CLR 21/11 A2995 RMK AO2 SLP137 T02060106=
201508120553 METAR KPAE 120553Z AUTO VRB03KT 10SM CLR 19/12 A2995 RMK AO2 SLP138 T01940117 10272 20194 53017=
201508120453 METAR KPAE 120453Z AUTO 02003KT 10SM CLR 21/12 A2993 RMK AO2 SLP131 T02060122=
201508120353 METAR KPAE 120353Z AUTO 36005KT 10SM CLR 22/12 A2991 RMK AO2 SLP124 T02220117=
201508120253 METAR KPAE 120253Z 36005KT 10SM CLR 24/12 A2990 RMK AO2 SLP121 T02390117 55008=
201508120153 METAR KPAE 120153Z 35005KT 10SM CLR 26/12 A2990 RMK AO2 SLP120 T02610117=
201508120053 METAR KPAE 120053Z VRB06KT 10SM CLR 27/12 A2991 RMK AO2 SLP125 T02670117=
201508112353 METAR KPAE 112353Z 36008KT 330V040 10SM CLR 27/12 A2992 RMK AO2 SLP129 T02670117 10272 20211 56004=
201508112253 METAR KPAE 112253Z 35008KT 10SM CLR 26/12 A2992 RMK AO2 SLP129 T02560122=
201508112153 METAR KPAE 112153Z 33009G14KT 10SM CLR 25/13 A2993 RMK AO2 SLP133 T02500128=
201508112053 METAR KPAE 112053Z 35007G15KT 10SM CLR 25/13 A2993 RMK AO2 SLP133 T02500128 58019=
201508111953 METAR KPAE 111953Z 01009G17KT 10SM CLR 24/13 A2996 RMK AO2 SLP141 T02390128=
201508111853 METAR KPAE 111853Z 01009G15KT 10SM CLR 22/12 A2997 RMK AO2 SLP147 T02220122=
201508111753 METAR KPAE 111753Z 34006KT 10SM CLR 22/12 A2999 RMK AO2 SLP154 T02170122 10217 20150 55003=
201508111653 METAR KPAE 111653Z 36006KT 10SM CLR 19/12 A2999 RMK AO2 SLP152 T01940122=
201508111553 METAR KPAE 111553Z 36007KT 10SM CLR 17/12 A2999 RMK AO2 SLP155 T01720117=
201508111453 METAR KPAE 111453Z 35006KT 10SM CLR 16/12 A3000 RMK AO2 SLP157 T01610122 53006=
201508111353 METAR KPAE 111353Z 01006KT 10SM CLR 16/12 A2999 RMK AO2 SLP153 T01560122=
201508111253 METAR KPAE 111253Z 35006KT 10SM CLR 15/12 A2998 RMK AO2 SLP151 T01500117=
201508111153 METAR KPAE 111153Z 36007KT 10SM CLR 15/12 A2998 RMK AO2 SLP149 7//// T01500122 10172 20150 56004=
201508111053 METAR KPAE 111053Z 36005KT 10SM CLR 15/12 A2998 RMK AO2 SLP149 T01500117=
201508110953 METAR KPAE 110953Z 01004KT 10SM CLR 16/11 A2998 RMK AO2 SLP150 T01610111=
201508110853 METAR KPAE 110853Z 00000KT 10SM CLR 16/11 A2999 RMK AO2 SLP153 T01610111 51005=
201508110753 METAR KPAE 110753Z 36004KT 10SM CLR 17/11 A2998 RMK AO2 SLP150 T01720111 402560161=
201508110653 METAR KPAE 110653Z 35005KT 10SM CLR 17/11 A2998 RMK AO2 SLP150 T01670111=
201508110553 METAR KPAE 110553Z 36006KT 10SM CLR 17/11 A2998 RMK AO2 SLP148 T01670111 10244 20167 53014=
201508110453 METAR KPAE 110453Z 36009G14KT 10SM CLR 17/11 A2995 RMK AO2 SLP140 T01720111=
201508110353 METAR KPAE 110353Z AUTO 01003KT 10SM CLR 19/11 A2995 RMK AO2 SLP140 T01940111=
201508110253 METAR KPAE 110253Z 36004KT 10SM CLR 21/12 A2993 RMK AO2 SLP134 T02060117 53005=
201508110153 METAR KPAE 110153Z 36006KT 10SM CLR 22/11 A2991 RMK AO2 SLP126 T02170111=
201508110053 METAR KPAE 110053Z 36006KT 10SM SCT110 23/11 A2991 RMK AO2 SLP127 T02330106=
201508102353 METAR KPAE 102353Z 36006KT 10SM CLR 24/11 A2992 RMK AO2 SLP127 T02440111 10256 20217 55004=
201508102253 METAR KPAE 102253Z 34007KT 10SM CLR 24/12 A2991 RMK AO2 SLP126 T02440117=
201508102153 METAR KPAE 102153Z 02008KT 10SM CLR 25/12 A2992 RMK AO2 SLP128 T02500117=
201508102053 METAR KPAE 102053Z 28007KT 10SM CLR 24/12 A2993 RMK AO2 SLP131 T02390117 56013=
201508101953 METAR KPAE 101953Z 30005KT 10SM CLR 23/12 A2993 RMK AO2 SLP132 T02330117=
201508101853 METAR KPAE 101853Z VRB05KT 10SM CLR 23/12 A2995 RMK AO2 SLP138 T02330122=
201508101753 METAR KPAE 101753Z 00000KT 10SM FEW095 22/11 A2997 RMK AO2 SLP145 6//// T02170111 10217 20167=
201508101653 METAR KPAE 101653Z VRB03KT 10SM SCT110 19/12 A2998 RMK AO2 RAB01E13 SLP149 P0000 T01890117 $=
201508101553 METAR KPAE 101553Z 15004KT 10SM OVC100 18/11 A2998 RMK AO2 RAE32 SLP150 P0000 T01780106 $=
201508101453 METAR KPAE 101453Z 23004KT 10SM -RA OVC110 17/10 A2997 RMK AO2 RAB42 SLP145 P0000 60000 T01670100 53010 $=
201508101353 METAR KPAE 101353Z AUTO 00000KT 10SM BKN100 17/09 A2995 RMK AO2 SLP137 T01720094 $=
201508101253 METAR KPAE 101253Z AUTO 00000KT 10SM SCT110 17/09 A2994 RMK AO2 SLP133 T01720094 $=
201508101153 METAR KPAE 101153Z AUTO 00000KT 10SM CLR 17/09 A2994 RMK AO2 SLP134 T01720094 10189 20161 58004 $=
201508101053 METAR KPAE 101053Z AUTO 00000KT 10SM CLR 17/09 A2995 RMK AO2 SLP137 T01670094 $=
201508100953 METAR KPAE 100953Z AUTO 00000KT 10SM CLR 17/09 A2995 RMK AO2 SLP138 T01670094 $=
201508100853 METAR KPAE 100853Z AUTO 00000KT 10SM CLR 17/09 A2995 RMK AO2 SLP139 T01720094 50001 $=
201508100753 METAR KPAE 100753Z AUTO 00000KT 10SM CLR 18/10 A2995 RMK AO2 SLP140 T01780100 402560144 $=
201508100653 METAR KPAE 100653Z AUTO 00000KT 10SM CLR 18/09 A2995 RMK AO2 SLP139 T01780094 $=
201508100553 METAR KPAE 100553Z AUTO VRB03KT 10SM CLR 18/10 A2995 RMK AO2 SLP139 T01780100 10250 20178 50004 $=
201508100453 METAR KPAE 100453Z AUTO 36003KT 10SM CLR 19/10 A2995 RMK AO2 SLP139 T01890100 $=
201508100353 METAR KPAE 100353Z 35004KT 10SM CLR 19/11 A2994 RMK AO2 SLP135 T01940106 $=
201508100253 METAR KPAE 100253Z 36005KT 10SM CLR 21/11 A2994 RMK AO2 SLP135 T02060106 56004 $=
201508100153 METAR KPAE 100153Z 35006KT 10SM CLR 23/11 A2994 RMK AO2 SLP135 T02280106 $=
201508100053 METAR KPAE 100053Z 35008KT 10SM CLR 23/10 A2995 RMK AO2 SLP137 T02330100 $=
201508092353 METAR KPAE 092353Z 02005KT 10SM CLR 25/10 A2995 RMK AO2 SLP138 T02500100 10256 20189 56010 $=
201508092253 METAR KPAE 092253Z VRB05KT 10SM CLR 25/09 A2996 RMK AO2 SLP142 T02500094=
201508092153 METAR KPAE 092153Z 29005KT 10SM CLR 23/11 A2997 RMK AO2 SLP145 T02330106=
201508092053 METAR KPAE 092053Z 26006KT 10SM CLR 23/11 A2998 RMK AO2 SLP149 T02280111 58009=
201508091953 METAR KPAE 091953Z VRB06KT 10SM CLR 22/12 A2999 RMK AO2 SLP155 T02170117=
201508091853 METAR KPAE 091853Z VRB06KT 10SM SCT031 20/13 A3000 RMK AO2 SLP158 T02000128=
201508091753 METAR KPAE 091753Z 27004KT 10SM FEW038 19/13 A3001 RMK AO2 SLP160 T01890128 10189 20144 58004=
201508091653 METAR KPAE 091653Z 26004KT 10SM SCT015 18/13 A3002 RMK AO2 SLP163 T01830128=
201508091553 METAR KPAE 091553Z 27006KT 10SM SCT016 16/13 A3002 RMK AO2 SLP164 T01610128=
201508091453 METAR KPAE 091453Z 16005KT 10SM FEW015 17/13 A3002 RMK AO2 SLP164 T01670128 53008=
201508091442 SPECI KPAE 091442Z 17004KT 10SM SCT015 17/13 A3002 RMK AO2 T01670128=
201508091353 METAR KPAE 091353Z 00000KT 10SM OVC015 16/13 A3001 RMK AO2 SLP159 T01610128=
201508091253 METAR KPAE 091253Z AUTO 15004KT 10SM OVC016 16/13 A3000 RMK AO2 SLP157 T01610128=
201508091228 SPECI KPAE 091228Z AUTO 18003KT 10SM BKN015 15/12 A3000 RMK AO2 T01500122=
201508091153 METAR KPAE 091153Z AUTO 19007KT 10SM FEW016 15/12 A3000 RMK AO2 SLP156 T01500122 10178 20144 51007=
201508091053 METAR KPAE 091053Z AUTO 18007KT 10SM CLR 16/13 A3000 RMK AO2 SLP154 T01560128=
201508090953 METAR KPAE 090953Z AUTO 19010KT 10SM CLR 16/13 A2998 RMK AO2 SLP150 T01610128=
201508090853 METAR KPAE 090853Z AUTO 17010KT 10SM CLR 17/13 A2998 RMK AO2 SLP147 T01670128 53011=
201508090753 METAR KPAE 090753Z AUTO 17013KT 10SM CLR 17/13 A2996 RMK AO2 SLP145 T01670128 402390144=
201508090653 METAR KPAE 090653Z AUTO 16013G22KT 10SM CLR 17/13 A2995 RMK AO2 SLP140 T01720133=
201508090553 METAR KPAE 090553Z AUTO 17013KT 10SM CLR 18/14 A2994 RMK AO2 SLP137 T01780139 10233 20178 51012=
201508090453 METAR KPAE 090453Z AUTO 17012KT 10SM FEW045 BKN070 OVC095 19/14 A2994 RMK AO2 SLP134 T01890139=
201508090353 METAR KPAE 090353Z AUTO 18013KT 10SM OVC085 19/13 A2992 RMK AO2 SLP129 T01940133=
201508090253 METAR KPAE 090253Z 19018G25KT 10SM BKN090 20/13 A2991 RMK AO2 SLP125 T02000133 51006=
201508090153 METAR KPAE 090153Z 19014KT 10SM FEW120 21/13 A2990 RMK AO2 SLP124 T02110128=
201508090053 METAR KPAE 090053Z 20013KT 10SM FEW100 22/13 A2990 RMK AO2 SLP122 T02220128=
201508082353 METAR KPAE 082353Z 20012KT 10SM BKN110 23/12 A2989 RMK AO2 SLP118 T02330122 10239 20183 53004=
201508082253 METAR KPAE 082253Z 20012KT 10SM BKN120 24/12 A2988 RMK AO2 SLP115 T02390122=
201508082153 METAR KPAE 082153Z 19015G19KT 10SM SCT120 24/13 A2988 RMK AO2 SLP114 T02390128=
201508082053 METAR KPAE 082053Z 16011G17KT 10SM CLR 23/13 A2987 RMK AO2 SLP113 T02280133 55003=
201508081953 METAR KPAE 081953Z 18010KT 10SM CLR 22/14 A2987 RMK AO2 SLP112 T02220139=
201508081901 SPECI KPAE 081901Z 19011KT 10SM SCT016 21/14 A2987 RMK AO2 T02060139=
201508081853 METAR KPAE 081853Z 17011G15KT 10SM BKN014 20/14 A2988 RMK AO2 SLP115 T02000139=
201508081800 SPECI KPAE 081800Z 16011KT 10SM OVC012 18/14 A2988 RMK AO2 T01830139=
201508081753 METAR KPAE 081753Z 15012KT 10SM OVC008 18/14 A2988 RMK AO2 SLP118 T01830139 10189 20144 58002=
201508081653 METAR KPAE 081653Z 16011KT 10SM OVC008 18/14 A2988 RMK AO2 SLP118 T01780139=
201508081553 METAR KPAE 081553Z 17008KT 10SM SCT004 OVC007 17/14 A2989 RMK AO2 SLP120 T01720139=
201508081453 METAR KPAE 081453Z 16009KT 10SM BKN009 16/13 A2989 RMK AO2 SLP118 T01610133 53001=
201508081451 SPECI KPAE 081451Z 16009KT 10SM BKN009 17/14 A2989 RMK AO2=
201508081412 SPECI KPAE 081412Z 00000KT 10SM SCT015 16/14 A2988 RMK AO2 T01610139=
201508081400 SPECI KPAE 081400Z 00000KT 10SM BKN015 16/14 A2988 RMK AO2 T01560139=
201508081353 METAR KPAE 081353Z 00000KT 10SM FEW015 16/14 A2988 RMK AO2 SLP117 T01560139=
201508081348 SPECI KPAE 081348Z 00000KT 10SM BKN015 15/13 A2989 RMK AO2=
201508081253 METAR KPAE 081253Z 20003KT 10SM CLR 15/13 A2988 RMK AO2 SLP117 T01500128=
201508081153 METAR KPAE 081153Z 00000KT 10SM CLR 16/13 A2989 RMK AO2 SLP118 T01560133 10172 20150 50001=
201508081053 METAR KPAE 081053Z 00000KT 10SM CLR 16/13 A2989 RMK AO2 SLP118 T01560133=
201508080953 METAR KPAE 080953Z 06003KT 10SM CLR 17/13 A2989 RMK AO2 SLP118 T01670133=
201508080853 METAR KPAE 080853Z 00000KT 10SM CLR 17/13 A2988 RMK AO2 SLP116 T01720133 58004=
201508080753 METAR KPAE 080753Z 05003KT 10SM CLR 17/13 A2989 RMK AO2 SLP120 T01720133 402500139=
201508080653 METAR KPAE 080653Z 01004KT 10SM CLR 16/14 A2989 RMK AO2 SLP120 T01610139=
201508080553 METAR KPAE 080553Z VRB06KT 10SM CLR 16/14 A2990 RMK AO2 SLP121 T01610139 10239 20161 51003=
201508080453 METAR KPAE 080453Z 02007KT 10SM CLR 17/14 A2990 RMK AO2 SLP121 T01670139=
201508080353 METAR KPAE 080353Z 02007KT 10SM CLR 17/14 A2989 RMK AO2 SLP120 T01670139=
201508080253 METAR KPAE 080253Z 01006KT 10SM CLR 19/14 A2989 RMK AO2 SLP118 T01940139 56009=
201508080153 METAR KPAE 080153Z 35006KT 10SM CLR 22/13 A2989 RMK AO2 SLP119 T02220128=
201508080053 METAR KPAE 080053Z 36006KT 10SM CLR 24/12 A2990 RMK AO2 SLP122 T02390122=
201508072353 METAR KPAE 072353Z 34006KT 10SM CLR 23/11 A2991 RMK AO2 SLP128 T02330111 10250 20194 58015=
201508072253 METAR KPAE 072253Z 36006KT 10SM CLR 24/12 A2993 RMK AO2 SLP134 T02390117=
201508072153 METAR KPAE 072153Z 28005KT 10SM CLR 24/12 A2995 RMK AO2 SLP138 T02390122=
201508072053 METAR KPAE 072053Z VRB05KT 10SM CLR 23/12 A2996 RMK AO2 SLP143 T02330122 57010=
201508071953 METAR KPAE 071953Z 28007KT 10SM CLR 21/12 A2997 RMK AO2 SLP148 T02110117=
201508071853 METAR KPAE 071853Z VRB05KT 10SM CLR 21/12 A2998 RMK AO2 SLP150 T02060117=
201508071753 METAR KPAE 071753Z VRB03KT 10SM CLR 19/11 A2999 RMK AO2 SLP155 T01940111 10194 20139 58005=
201508071653 METAR KPAE 071653Z 02004KT 10SM CLR 18/11 A3001 RMK AO2 SLP160 T01830111=
201508071553 METAR KPAE 071553Z VRB03KT 10SM CLR 17/11 A3001 RMK AO2 SLP161 T01720106=
201508071453 METAR KPAE 071453Z 02005KT 10SM CLR 16/11 A3001 RMK AO2 SLP160 T01610106 56002=
201508071353 METAR KPAE 071353Z AUTO 05003KT 10SM CLR 15/10 A3001 RMK AO2 SLP160 T01500100=
201508071253 METAR KPAE 071253Z AUTO 05004KT 10SM CLR 14/10 A3001 RMK AO2 SLP160 T01390100=
201508071153 METAR KPAE 071153Z AUTO 02004KT 10SM CLR 14/11 A3001 RMK AO2 SLP161 70001 T01390106 10144 20139 56006=
201508071053 METAR KPAE 071053Z AUTO 02006KT 10SM CLR 14/11 A3002 RMK AO2 SLP164 T01390106=
201508070953 METAR KPAE 070953Z AUTO 03006KT 10SM CLR 14/11 A3002 RMK AO2 SLP164 T01390111=
201508070853 METAR KPAE 070853Z AUTO 01005KT 10SM CLR 14/11 A3003 RMK AO2 SLP168 T01390106 56006=
201508070753 METAR KPAE 070753Z AUTO 01007KT 10SM CLR 14/11 A3004 RMK AO2 SLP170 T01440106 402280139=
201508070653 METAR KPAE 070653Z AUTO 36007KT 10SM CLR 14/11 A3004 RMK AO2 SLP171 T01440106=
201508070553 METAR KPAE 070553Z AUTO 01006KT 10SM CLR 14/11 A3005 RMK AO2 SLP175 T01440111 10228 20144 58003=
201508070453 METAR KPAE 070453Z AUTO 01006KT 10SM CLR 16/11 A3006 RMK AO2 SLP178 T01560106=
201508070353 METAR KPAE 070353Z AUTO 36004KT 10SM CLR 17/11 A3006 RMK AO2 SLP177 T01720106=
201508070253 METAR KPAE 070253Z 34005KT 10SM CLR 19/10 A3006 RMK AO2 SLP178 T01940100 58010=
201508070153 METAR KPAE 070153Z 36005KT 10SM CLR 21/10 A3007 RMK AO2 SLP182 T02060100=
201508070053 METAR KPAE 070053Z 01006KT 10SM CLR 22/09 A3008 RMK AO2 SLP184 T02220094=
201508062353 METAR KPAE 062353Z 02005KT 10SM CLR 22/10 A3009 RMK AO2 SLP187 T02220100 10228 20172 56014=
201508062253 METAR KPAE 062253Z AUTO 30007KT 10SM CLR 23/11 A3010 RMK AO2 SLP191 T02280106=
201508062153 METAR KPAE 062153Z 29007KT 10SM CLR 22/10 A3012 RMK AO2 SLP197 T02170100=
201508062053 METAR KPAE 062053Z 29005KT 10SM CLR 21/09 A3013 RMK AO2 SLP203 T02060094 58006=
201508061953 METAR KPAE 061953Z 30005KT 10SM CLR 20/11 A3014 RMK AO2 SLP205 T02000106=
201508061853 METAR KPAE 061853Z 32004KT 10SM FEW025 SCT035 BKN048 18/11 A3015 RMK AO2 SLP208 T01780106=
201508061753 METAR KPAE 061753Z VRB04KT 10SM SCT016 OVC060 18/12 A3015 RMK AO2 SLP209 60001 T01780122 10178 20139 58000=
201508061653 METAR KPAE 061653Z 22006KT 10SM BKN016 OVC060 17/12 A3015 RMK AO2 SLP208 T01670117=
201508061553 METAR KPAE 061553Z 00000KT 10SM FEW017 OVC060 16/12 A3015 RMK AO2 SLP210 T01560117=
201508061453 METAR KPAE 061453Z COR 16006KT 10SM SCT018 OVC032 14/12 A3015 RMK AO2 SLP210 60001 T01390117 53009=
201508061444 SPECI KPAE 061444Z 16006KT 10SM FEW006 SCT018 OVC031 14/12 A3015 RMK AO2 T01390117=
201508061402 SPECI KPAE 061402Z 10004KT 10SM FEW006 BKN026 OVC033 14/12 A3015 RMK AO2 T01390117=
201508061353 METAR KPAE 061353Z 10003KT 10SM BKN026 OVC033 14/12 A3014 RMK AO2 RAE26 SLP207 P0001 T01390122=
201508061338 SPECI KPAE 061338Z AUTO 16008KT 10SM SCT027 OVC031 14/12 A3014 RMK AO2 RAE26 P0001 T01390117=
201508061309 SPECI KPAE 061309Z AUTO 15005KT 6SM -RA BR BKN026 OVC032 14/12 A3013 RMK AO2 P0000 T01390117=
201508061253 METAR KPAE 061253Z AUTO 14004KT 7SM -RA OVC033 14/12 A3013 RMK AO2 RAB40 SLP201 P0000 T01440117=
201508061153 METAR KPAE 061153Z AUTO 17004KT 10SM OVC040 14/11 A3013 RMK AO2 SLP200 70013 T01390111 10144 20139 53003=
201508061053 METAR KPAE 061053Z AUTO 00000KT 10SM OVC039 14/11 A3012 RMK AO2 SLP199 T01440111=
201508060953 METAR KPAE 060953Z AUTO 13004KT 10SM OVC040 14/11 A3012 RMK AO2 SLP198 T01390111=
201508060920 SPECI KPAE 060920Z AUTO 12003KT 10SM SCT017 OVC038 14/11 A3012 RMK AO2 T01390111=
201508060853 METAR KPAE 060853Z AUTO 00000KT 10SM FEW014 OVC021 14/11 A3012 RMK AO2 SLP198 T01390111 53007=
201508060837 SPECI KPAE 060837Z AUTO 00000KT 10SM FEW015 BKN023 OVC055 14/11 A3012 RMK AO2 T01390111=
201508060753 METAR KPAE 060753Z AUTO 06003KT 10SM BKN044 BKN060 14/11 A3011 RMK AO2 SLP194 T01390111 401890128=
201508060653 METAR KPAE 060653Z AUTO 03006KT 10SM BKN060 14/11 A3010 RMK AO2 SLP192 T01390111=
201508060553 METAR KPAE 060553Z AUTO 01005KT 10SM OVC085 14/11 A3010 RMK AO2 SLP190 60013 T01390111 10172 20133 50003=
201508060453 METAR KPAE 060453Z AUTO 03006KT 10SM FEW007 BKN070 OVC085 14/12 A3010 RMK AO2 SLP194 T01390117=
201508060353 METAR KPAE 060353Z 02006KT 10SM SCT075 OVC090 14/12 A3009 RMK AO2 RAE02 SLP190 P0000 T01390117=
201508060253 METAR KPAE 060253Z 01007G17KT 330V040 10SM -RA FEW047 BKN055 OVC085 14/12 A3009 RMK AO2 RAE17B52 SLP189 P0011 60013 T01440117 51004=
201508060153 METAR KPAE 060153Z 36007G16KT 330V040 7SM -RA OVC039 15/11 A3008 RMK AO2 RAB47 SLP187 P0002 T01500111=
201508060053 METAR KPAE 060053Z 01008KT 10SM SCT047 OVC055 16/11 A3008 RMK AO2 RAE05B30E39 SLP187 P0000 T01560111=
201508052353 METAR KPAE 052353Z 01010G15KT 10SM -RA BKN043 OVC050 17/11 A3008 RMK AO2 RAB53 SLP183 P0000 60000 T01720111 10189 20144 58007=
201508052253 METAR KPAE 052253Z 01009KT 10SM BKN047 18/11 A3009 RMK AO2 SLP188 T01830106=
201508052153 METAR KPAE 052153Z 35005KT 10SM OVC034 18/10 A3009 RMK AO2 SLP189 T01780100=
201508052125 SPECI KPAE 052125Z VRB05KT 10SM BKN030 OVC036 19/10 A3010 RMK AO2 T01890100=
201508052053 METAR KPAE 052053Z VRB03KT 10SM BKN026 18/10 A3010 RMK AO2 SLP191 T01780100 50000=
201508052023 SPECI KPAE 052023Z 10SM BKN028 OVC034 18/11 A3010 RMK AO2 T01780106=
201508051953 METAR KPAE 051953Z 16005KT 10SM BKN033 OVC046 17/11 A3011 RMK AO2 SLP195 T01720106=
201508051923 SPECI KPAE 051923Z 24005KT 10SM FEW018 SCT023 OVC031 16/11 A3011 RMK AO2 T01610106=
201508051853 METAR KPAE 051853Z 26006KT 10SM OVC020 16/11 A3011 RMK AO2 SLP196 T01610106=
201508051753 METAR KPAE 051753Z 27006KT 10SM OVC017 16/11 A3010 RMK AO2 SLP191 T01560106 10156 20128 51009=
201508051653 METAR KPAE 051653Z 17005KT 10SM OVC015 15/10 A3009 RMK AO2 SLP189 T01500100=
201508051600 SPECI KPAE 051600Z 16007KT 10SM OVC019 15/10 A3009 RMK AO2 T01500100=
201508051553 METAR KPAE 051553Z 15007KT 10SM SCT015 14/10 A3009 RMK AO2 SLP188 T01440100=
201508051453 METAR KPAE 051453Z 11007KT 10SM CLR 14/10 A3007 RMK AO2 SLP181 T01440100 50003=
201508051434 SPECI KPAE 051434Z 12004KT 10SM SCT014 14/10 A3008 RMK AO2 T01390100=
201508051402 SPECI KPAE 051402Z VRB04KT 10SM OVC015 14/10 A3008 RMK AO2 T01390100=
201508051353 METAR KPAE 051353Z AUTO 11003KT 10SM OVC014 14/10 A3008 RMK AO2 SLP183 T01390100 TSNO=
201508051345 SPECI KPAE 051345Z AUTO 12004KT 10SM OVC014 13/10 A3007 RMK AO2 T01330100 TSNO=
201508051253 METAR KPAE 051253Z AUTO 16006KT 10SM OVC017 13/10 A3008 RMK AO2 SLP183 T01280100 TSNO=
201508051202 SPECI KPAE 051202Z AUTO 07004KT 10SM BKN019 13/10 A3007 RMK AO2 T01330100 TSNO=
201508051153 METAR KPAE 051153Z AUTO 06004KT 10SM SCT020 13/10 A3006 RMK AO2 SLP177 T01330100 10144 20128 53008 TSNO=
201508051053 METAR KPAE 051053Z AUTO 08005KT 10SM CLR 13/10 A3005 RMK AO2 SLP174 T01330100 TSNO=
201508050953 METAR KPAE 050953Z AUTO 06004KT 10SM CLR 13/10 A3004 RMK AO2 SLP172 T01330100 TSNO=
201508050853 METAR KPAE 050853Z AUTO 02005KT 10SM CLR 13/10 A3004 RMK AO2 SLP170 T01330100 51010 TSNO=
201508050753 METAR KPAE 050753Z AUTO 01004KT 10SM CLR 14/10 A3003 RMK AO2 SLP169 T01390100 402440139 TSNO=
201508050653 METAR KPAE 050653Z AUTO 36007KT 10SM BKN070 14/10 A3002 RMK AO2 SLP165 T01390100 TSNO=
201508050553 METAR KPAE 050553Z AUTO 36006KT 10SM CLR 14/10 A3001 RMK AO2 SLP160 T01440100 10244 20139 52008 TSNO=
201508050453 METAR KPAE 050453Z AUTO 01010G17KT 10SM CLR 14/11 A3000 RMK AO2 SLP158 T01390106 TSNO=
201508050353 METAR KPAE 050353Z AUTO 01010G16KT 10SM CLR 15/11 A2999 RMK AO2 SLP155 T01500106 TSNO=
201508050253 METAR KPAE 050253Z 01009KT 10SM CLR 17/11 A2998 RMK AO2 SLP152 T01670106 53001=
201508050153 METAR KPAE 050153Z 35008G15KT 10SM CLR 20/11 A2998 RMK AO2 SLP149 T02000106=
201508050053 METAR KPAE 050053Z 29009KT 10SM CLR 24/09 A2998 RMK AO2 SLP148 T02390089=
201508042353 METAR KPAE 042353Z 25006KT 10SM CLR 23/12 A2998 RMK AO2 SLP150 T02330117 10239 20172 58008=
201508042253 METAR KPAE 042253Z AUTO 22009KT 10SM CLR 23/12 A3000 RMK AO2 SLP156 T02280122=
201508042153 METAR KPAE 042153Z AUTO 27008KT 10SM CLR 22/13 A3000 RMK AO2 SLP157 T02170128=
201508042053 METAR KPAE 042053Z AUTO 25008KT 10SM CLR 20/12 A3001 RMK AO2 SLP159 T02000122 58005=
201508041953 METAR KPAE 041953Z AUTO 24011KT 10SM CLR 18/12 A3002 RMK AO2 SLP163 T01830122=
201508041853 METAR KPAE 041853Z AUTO 26011KT 10SM CLR 18/12 A3002 RMK AO2 SLP164 T01780122=
201508041753 METAR KPAE 041753Z AUTO 26009KT 10SM FEW018 17/12 A3002 RMK AO2 SLP164 T01720122 10183 20156 51002=
201508041653 METAR KPAE 041653Z AUTO 17006KT 10SM FEW014 OVC050 17/12 A3002 RMK AO2 SLP164 T01670122=
201508041609 SPECI KPAE 041609Z AUTO 25005KT 10SM BKN013 OVC050 16/12 A3002 RMK AO2 T01610122=
201508041553 METAR KPAE 041553Z AUTO 24003KT 10SM FEW012 OVC050 16/12 A3002 RMK AO2 SLP163 T01610122=
201508041507 SPECI KPAE 041507Z AUTO 26003KT 10SM SCT011 BKN050 OVC065 16/12 A3001 RMK AO2 T01560122=
201508041453 METAR KPAE 041453Z AUTO 19007KT 10SM BKN012 BKN050 OVC065 16/12 A3001 RMK AO2 SLP161 T01610122 53005=
201508041353 METAR KPAE 041353Z AUTO 20008KT 10SM OVC013 16/12 A3001 RMK AO2 SLP159 T01610122=
201508041253 METAR KPAE 041253Z AUTO 16003KT 10SM OVC014 16/11 A3000 RMK AO2 SLP156 T01560111=
201508041250 SPECI KPAE 041250Z AUTO 00000KT 10SM OVC014 16/11 A3000 RMK AO2=
201508041218 SPECI KPAE 041218Z AUTO 00000KT 10SM BKN015 OVC050 15/11 A2999 RMK AO2 T01500111=
201508041153 METAR KPAE 041153Z AUTO 00000KT 10SM FEW050 14/11 A3000 RMK AO2 SLP155 T01440111 10161 20139 51005=
201508041053 METAR KPAE 041053Z AUTO 00000KT 10SM FEW075 14/11 A2999 RMK AO2 SLP154 T01440111=
201508040953 METAR KPAE 040953Z AUTO 00000KT 10SM OVC047 15/11 A2999 RMK AO2 SLP152 T01500111=
201508040853 METAR KPAE 040853Z AUTO VRB03KT 10SM BKN045 14/12 A2998 RMK AO2 SLP150 T01440117 53007=
201508040753 METAR KPAE 040753Z AUTO 35006KT 10SM OVC070 16/11 A2997 RMK AO2 SLP147 T01560111 402440144=
201508040653 METAR KPAE 040653Z AUTO VRB04KT 10SM CLR 16/11 A2996 RMK AO2 SLP145 T01560111=
201508040553 METAR KPAE 040553Z AUTO 02008KT 10SM BKN075 OVC090 16/12 A2996 RMK AO2 SLP143 T01610122 10217 20161 51012=
201508040453 METAR KPAE 040453Z AUTO 01006KT 10SM CLR 16/12 A2995 RMK AO2 SLP141 T01610122=
201508040353 METAR KPAE 040353Z AUTO 36011G19KT 10SM CLR 16/12 A2994 RMK AO2 SLP137 T01610122=
201508040253 METAR KPAE 040253Z 36008KT 10SM CLR 19/13 A2992 RMK AO2 SLP130 T01890128 55001=
201508040153 METAR KPAE 040153Z 36009G15KT 10SM CLR 19/13 A2992 RMK AO2 SLP130 T01890128=
201508040053 METAR KPAE 040053Z 36010KT 10SM CLR 21/13 A2992 RMK AO2 SLP129 T02060128=
201508032353 METAR KPAE 032353Z 36009G14KT 10SM CLR 21/12 A2992 RMK AO2 SLP131 T02110122 10244 20183 58001=
201508032253 METAR KPAE 032253Z VRB06KT 10SM CLR 23/12 A2992 RMK AO2 SLP131 T02280117=
201508032153 METAR KPAE 032153Z 36008KT 10SM CLR 22/12 A2994 RMK AO2 SLP135 T02170117=
201508032053 METAR KPAE 032053Z 01007KT 10SM CLR 23/11 A2993 RMK AO2 SLP131 T02330111 56005=
201508031953 METAR KPAE 031953Z 35005KT 10SM CLR 24/11 A2993 RMK AO2 SLP131 T02390111=
201508031853 METAR KPAE 031853Z 02003KT 10SM CLR 21/12 A2994 RMK AO2 SLP134 T02060117=
201508031753 METAR KPAE 031753Z VRB04KT 10SM CLR 19/12 A2994 RMK AO2 SLP137 T01940117 10194 20144 50001=
201508031653 METAR KPAE 031653Z 02005KT 10SM CLR 18/11 A2994 RMK AO2 SLP137 T01830106=
201508031553 METAR KPAE 031553Z 02003KT 10SM CLR 17/11 A2994 RMK AO2 SLP137 T01720111=
201508031453 METAR KPAE 031453Z 02004KT 10SM CLR 16/11 A2994 RMK AO2 SLP134 T01610106 53007=
201508031353 METAR KPAE 031353Z 02005KT 10SM CLR 15/11 A2992 RMK AO2 SLP129 T01500106=
201508031253 METAR KPAE 031253Z 02007KT 10SM CLR 14/12 A2991 RMK AO2 SLP126 T01440117=
201508031153 METAR KPAE 031153Z AUTO 02005KT 10SM CLR 14/11 A2992 RMK AO2 SLP127 T01440111 10200 20144 53007=
201508031053 METAR KPAE 031053Z AUTO 03004KT 10SM CLR 15/11 A2990 RMK AO2 SLP123 T01500111=
201508030953 METAR KPAE 030953Z AUTO 03004KT 10SM CLR 17/09 A2990 RMK AO2 SLP122 T01720089=
201508030853 METAR KPAE 030853Z AUTO 03005KT 10SM CLR 17/11 A2990 RMK AO2 SLP120 T01720106 58001=
201508030753 METAR KPAE 030753Z AUTO 03007KT 10SM CLR 19/07 A2990 RMK AO2 SLP120 T01890072 402890144=
201508030653 METAR KPAE 030653Z AUTO 02005KT 10SM CLR 20/09 A2990 RMK AO2 SLP121 T02000094=
201508030553 METAR KPAE 030553Z AUTO 02005KT 10SM CLR 19/11 A2990 RMK AO2 SLP121 T01940111 10289 20189 58006=
201508030453 METAR KPAE 030453Z AUTO 02008KT 10SM CLR 19/11 A2991 RMK AO2 SLP126 T01940106=
201508030353 METAR KPAE 030353Z 01007KT 10SM CLR 21/11 A2991 RMK AO2 SLP126 T02060111=
201508030253 METAR KPAE 030253Z 36005KT 10SM CLR 26/11 A2991 RMK AO2 SLP126 T02560111 55002=
201508030153 METAR KPAE 030153Z 36004KT 10SM CLR 27/11 A2991 RMK AO2 SLP125 T02720111=
201508030053 METAR KPAE 030053Z 32004KT 10SM CLR 28/12 A2991 RMK AO2 SLP127 T02830117=
201508022353 METAR KPAE 022353Z 29006KT 10SM CLR 29/12 A2992 RMK AO2 SLP129 T02890122 10289 20217 57008=
201508022253 METAR KPAE 022253Z VRB05KT 10SM CLR 28/12 A2993 RMK AO2 SLP131 T02830122=
201508022153 METAR KPAE 022153Z 27005KT 10SM CLR 27/13 A2994 RMK AO2 SLP135 T02720133=
201508022053 METAR KPAE 022053Z 28005KT 10SM CLR 26/13 A2995 RMK AO2 SLP137 T02610128 56008=
201508021953 METAR KPAE 021953Z VRB04KT 10SM CLR 25/12 A2995 RMK AO2 SLP139 T02500122=
201508021853 METAR KPAE 021853Z VRB04KT 10SM CLR 24/13 A2996 RMK AO2 SLP143 T02390133=
201508021753 METAR KPAE 021753Z VRB03KT 10SM CLR 22/13 A2997 RMK AO2 SLP145 T02220133 10222 20144 50003=
201508021653 METAR KPAE 021653Z 00000KT 10SM CLR 21/13 A2998 RMK AO2 SLP148 T02060128=
201508021553 METAR KPAE 021553Z 33004KT 10SM CLR 19/12 A2998 RMK AO2 SLP148 T01890117=
201508021453 METAR KPAE 021453Z 00000KT 10SM CLR 18/12 A2996 RMK AO2 SLP142 T01830122 53006=
201508021353 METAR KPAE 021353Z 00000KT 10SM CLR 16/12 A2995 RMK AO2 SLP138 T01560117=
201508021253 METAR KPAE 021253Z AUTO 00000KT 10SM CLR 15/12 A2994 RMK AO2 SLP136 T01500117=
201508021153 METAR KPAE 021153Z AUTO 01004KT 10SM CLR 14/11 A2994 RMK AO2 SLP136 T01440111 10206 20144 53001=
201508021053 METAR KPAE 021053Z AUTO 35003KT 10SM CLR 14/11 A2994 RMK AO2 SLP135 T01440111=
201508020953 METAR KPAE 020953Z AUTO 00000KT 10SM CLR 16/11 A2994 RMK AO2 SLP134 T01610111=
201508020853 METAR KPAE 020853Z AUTO 35004KT 10SM CLR 17/11 A2994 RMK AO2 SLP135 T01720111 55002=
201508020753 METAR KPAE 020753Z AUTO 36009KT 10SM CLR 18/11 A2994 RMK AO2 SLP133 T01780111 403060133=
201508020653 METAR KPAE 020653Z AUTO 02007KT 10SM CLR 20/09 A2994 RMK AO2 SLP133 T02000094=
201508020553 METAR KPAE 020553Z AUTO 03006KT 10SM CLR 21/09 A2994 RMK AO2 SLP137 T02060094 10306 20189 50002=
201508020453 METAR KPAE 020453Z AUTO 36007G15KT 10SM CLR 20/10 A2995 RMK AO2 SLP137 T02000100=
201508020353 METAR KPAE 020353Z AUTO 01007KT 10SM CLR 19/09 A2994 RMK AO2 SLP137 T01940089=
201508020253 METAR KPAE 020253Z 36007KT 10SM CLR 23/10 A2994 RMK AO2 SLP134 T02330100 55006=
201508020153 METAR KPAE 020153Z 36006KT 10SM CLR 27/11 A2993 RMK AO2 SLP133 T02670111=
201508020053 METAR KPAE 020053Z VRB05KT 10SM CLR 29/11 A2995 RMK AO2 SLP137 T02940111=
201508012353 METAR KPAE 012353Z VRB05KT 10SM CLR 30/10 A2996 RMK AO2 SLP141 T03000100 10306 20228 56016=
201508012253 METAR KPAE 012253Z AUTO 32007KT 10SM CLR 29/09 A2997 RMK AO2 SLP145 T02940094 TSNO=
201508012153 METAR KPAE 012153Z VRB06KT 10SM CLR 28/09 A2999 RMK AO2 SLP151 T02830094=
201508012053 METAR KPAE 012053Z VRB06KT 10SM CLR 27/11 A3001 RMK AO2 SLP157 T02670106 56008=
201508011953 METAR KPAE 011953Z 01006KT 10SM CLR 27/11 A3001 RMK AO2 SLP157 T02670106=
201508011853 METAR KPAE 011853Z 01006KT 10SM CLR 25/12 A3002 RMK AO2 SLP163 T02500117=
201508011753 METAR KPAE 011753Z 02005KT 10SM CLR 23/12 A3003 RMK AO2 SLP166 T02280122 10228 20133 58004=
201508011653 METAR KPAE 011653Z 34005KT 10SM CLR 21/11 A3003 RMK AO2 SLP166 T02060106=
201508011553 METAR KPAE 011553Z 36004KT 10SM CLR 20/09 A3004 RMK AO2 SLP170 T02000089=
201508011453 METAR KPAE 011453Z 01003KT 10SM CLR 18/11 A3004 RMK AO2 SLP169 T01780106 51009=
201508011353 METAR KPAE 011353Z 03003KT 10SM CLR 15/12 A3004 RMK AO2 SLP168 T01500117=
201508011253 METAR KPAE 011253Z AUTO 35003KT 10SM CLR 14/11 A3002 RMK AO2 SLP163 T01390106=
201508011153 METAR KPAE 011153Z AUTO 35006KT 10SM CLR 14/11 A3001 RMK AO2 SLP161 T01440111 10206 20144 56001=
201508011053 METAR KPAE 011053Z AUTO 36005KT 10SM CLR 15/11 A3002 RMK AO2 SLP160 T01500111=
201508010953 METAR KPAE 010953Z AUTO 34004KT 10SM CLR 17/09 A3002 RMK AO2 SLP160 T01670094=
201508010853 METAR KPAE 010853Z AUTO 02004KT 10SM CLR 20/04 A3002 RMK AO2 SLP161 T02000044 51001=
201508010753 METAR KPAE 010753Z AUTO 05004KT 10SM CLR 20/04 A3002 RMK AO2 SLP161 T02000039 403060172=
201508010653 METAR KPAE 010653Z AUTO 02005KT 10SM CLR 21/04 A3002 RMK AO2 SLP160 T02060039=
201508010553 METAR KPAE 010553Z AUTO 36004KT 10SM CLR 20/04 A3001 RMK AO2 SLP161 T02000044 10294 20200 52003=
201508010453 METAR KPAE 010453Z AUTO 36007KT 10SM CLR 21/04 A3001 RMK AO2 SLP160 T02060039=
201508010353 METAR KPAE 010353Z AUTO 36009KT 10SM CLR 21/04 A3001 RMK AO2 SLP158 T02110039=
201508010253 METAR KPAE 010253Z 02007KT 10SM CLR 24/02 A3001 RMK AO2 SLP158 T02440022 56010=
201508010153 METAR KPAE 010153Z AUTO 35007KT 10SM CLR 27/08 A3001 RMK AO2 SLP159 T02670083 TSNO=
201508010053 METAR KPAE 010053Z 01006KT 10SM CLR 28/07 A3002 RMK AO2 SLP161 T02830072=

# No short TAF reports from KPAE in databse.

###################################
#  large TAF from KPAE
###################################
201508312320 TAF KPAE 312320Z 0100/0124 17015G25KT P6SM SCT025 BKN050 OVC100
                       TEMPO 0102/0106 5SM -RA BR BKN020 OVC040
                       FM010600 18012G20KT 5SM -RA BR OVC015 FM011200
                       20010KT P6SM -RA BKN020 OVC040 FM012000
                       20008KT P6SM VCSH BKN025 BKN050=
201508311720 TAF KPAE 311720Z 3118/0118 18020G30KT P6SM SCT025 BKN050 OVC120
                       TEMPO 3120/3124 -RA BKN025 OVC050 FM010000
                       20015G25KT P6SM -SHRA SCT020 BKN040 BKN080
                       FM011000 20012KT P6SM -RA BKN020 OVC040=
201508311130 TAF KPAE 311130Z 3112/0112 18015G25KT P6SM -RA SCT022 BKN035 OVC060
                       TEMPO 3115/3119 5SM -RA BR BKN022 OVC035
                       FM010000 20010KT P6SM -SHRA BKN040 BKN070=
201508310526 TAF KPAE 310526Z 3106/0106 18012G20KT P6SM SCT060 OVC100 FM311100
                       18012G20KT P6SM -RA OVC045 FM311500 16010KT
                       P6SM -RA SCT022 BKN035 OVC060
                      TEMPO 3115/3118 5SM -RA BR BKN022 OVC035
                       FM010000 20010KT P6SM -SHRA BKN040 BKN100=
201508302341 TAF KPAE 302341Z 3100/3124 19015G25KT P6SM BKN100 FM310400 16010KT
                       P6SM BKN060 OVC100 FM311200 16010KT P6SM
                       BKN020 OVC060
                      TEMPO 3113/3115 3SM -RA BR BKN015 OVC040
                       FM311800 18012KT P6SM -RA BKN025 OVC080=
201508302156 TAF AMD KPAE 302156Z 3022/3118 18015G30KT P6SM BKN030 BKN080 FM310000
                       19014KT P6SM BKN040 BKN080 FM310600 16008KT
                       P6SM OVC040 FM311100 15014KT P6SM -RA OVC040=
201508301750 TAF KPAE 301750Z 3018/3118 17010KT P6SM BKN008 OVC015 FM301900
                       17012KT P6SM BKN025 BKN070 FM302000 18014KT
                       P6SM SCT045 BKN080 FM310600 16008KT P6SM
                       OVC040 FM311100 15014KT P6SM -RA OVC040=
201508301553 TAF AMD KPAE 301553Z 3016/3112 18010KT P6SM BKN009 OVC020 FM301700
                       18012KT P6SM SCT020 BKN040 FM302000 18014KT
                       P6SM SCT045 BKN070 FM311100 15014KT P6SM
                       -RA OVC040=
201508301128 TAF KPAE 301128Z 3012/3112 18012KT P6SM -SHRA SCT030 BKN045 FM302000
                       18014KT P6SM SCT045 BKN070 FM311100 15014KT
                       P6SM -RA OVC040=
201508300537 TAF KPAE 300537Z 3006/3106 18015G25KT P6SM -RA SCT025 OVC045 FM300800
                       18012KT P6SM SCT030 BKN045 FM301500 18010KT
                       P6SM -SHRA BKN030 OVC045 FM302000 18014KT
                       P6SM SCT030 BKN045 BKN070=
201508292351 TAF KPAE 292351Z 3000/3024 18020G35KT P6SM OVC035 FM300200 18012G25KT
                       P6SM -RA BKN020 OVC035 FM300900 16008KT
                       P6SM -SHRA BKN030 OVC040 FM301500 18010KT
                       P6SM -SHRA BKN020 OVC060 FM302000 18015G25KT
                       P6SM BKN045 OVC060=
201508291944 TAF AMD KPAE 291944Z 2920/3018 17020G40KT P6SM -SHRA SCT045 BKN070
                       OVC090 FM292200 19020G30KT P6SM -SHRA BKN040
                       OVC060 FM300000 19012KT P6SM SCT050 OVC080
                       FM300300 18012KT P6SM -RA BKN025 OVC040
                       FM300900 16008KT P6SM VCSH SCT025 BKN040
                       FM301500 18012KT P6SM -SHRA BKN025 OVC060=
201508291755 TAF KPAE 291755Z 2918/3018 17020G30KT P6SM RA BKN040 OVC060 FM292000
                       19018G28KT P6SM -SHRA SCT025 BKN035 OVC050
                       FM300000 19012KT P6SM SCT050 OVC080 FM300300
                       18012KT P6SM -RA BKN025 OVC040 FM300900
                       16008KT P6SM VCSH SCT025 BKN040 FM301500
                       18012KT P6SM -SHRA BKN025 OVC060=
201508291459 TAF AMD KPAE 291459Z 2915/3012 15010G20KT P6SM -RA FEW020 BKN060
                       OVC100
                      TEMPO 2915/2916 2SM +RA FEW003 BKN020 OVC050
                       FM291600 17018G28KT 5SM RA SCT003 BKN020
                       OVC040 FM292100 19018G28KT P6SM -SHRA SCT025
                       BKN035 OVC050 FM300100 18012KT P6SM -RA
                       BKN025 OVC040=
201508291333 TAF AMD KPAE 291333Z 2914/3012 19013G20KT 6SM -RA BR FEW003 SCT025
                       OVC050
                      TEMPO 2914/2916 2SM +RA FEW003 BKN025 OVC050
                       FM291600 17018G28KT 5SM RA SCT003 BKN020
                       OVC040 FM292100 19018G28KT P6SM -SHRA SCT025
                       BKN035 OVC050 FM300100 18012KT P6SM -RA
                       BKN025 OVC040=
201508291137 TAF KPAE 291137Z 2912/3012 12004KT P6SM -RA OVC100 FM291400 14008KT
                       P6SM -RA BKN060 OVC100 FM291700 19018G28KT
                       5SM RA BKN020 OVC040 FM292100 19018G28KT
                       P6SM -SHRA SCT025 BKN035 OVC050 FM300100
                       18012KT P6SM -RA BKN025 OVC040=
201508290541 TAF KPAE 290541Z 2906/3006 VRB03KT P6SM BKN100 OVC150 FM291300
                       14008KT P6SM BKN060 OVC100 FM291500 16012KT
                       P6SM -RA BKN020 OVC040 FM291800 19018G28KT
                       P6SM -RA BKN020 OVC040 FM292100 19018G28KT
                       P6SM -SHRA SCT025 BKN035 OVC050 FM300100
                       18012KT P6SM -RA BKN025 OVC040=
201508282353 TAF KPAE 282353Z 2900/2924 17008KT P6SM SCT030 BKN080 FM290600
                       05004KT P6SM SCT060 BKN100 FM291500 14008KT
                       P6SM -RA BKN020 OVC060 FM291800 17012G25KT
                       P6SM -SHRA BKN030 OVC060
                      TEMPO 2920/2923 18020G30KT=
201508281807 TAF KPAE 281807Z 2818/2918 17010KT P6SM OVC120 FM282200 17008KT
                       P6SM SCT030 BKN080 FM290600 04004KT P6SM
                       SCT060 BKN100 FM291500 17010KT P6SM -RA
                       BKN035 OVC060=
201508281226 TAF AMD KPAE 281226Z 2812/2912 17009KT P6SM SCT028 OVC060
                      TEMPO 2812/2814 -RA BKN028 OVC060 FM281400
                       19013KT P6SM -RA OVC022 FM282200 20008KT
                       P6SM SCT030 BKN050 FM290300 VRB03KT P6SM
                       SCT060 BKN100=
201508281120 TAF KPAE 281120Z 2812/2912 15006KT P6SM BKN090 OVC200 FM281400
                       17008KT P6SM -RA BKN050 OVC090
                      TEMPO 2815/2819 BKN025 OVC050 FM282200 20008KT
                       P6SM SCT030 BKN050 FM290300 VRB03KT P6SM
                       SCT060 BKN100=
201508280529 TAF KPAE 280529Z 2806/2906 00000KT P6SM SCT100 BKN200 FM281000
                       18006KT P6SM BKN090 OVC150 FM281400 17006KT
                       P6SM -RA BKN025 OVC040 FM282200 20008KT
                       P6SM SCT030 BKN050
                      PROB30 2822/2903 -SHRA=
201508272320 TAF KPAE 272320Z 2800/2824 27006KT P6SM BKN250 FM280700 VRB04KT
                       P6SM BKN100 OVC140 FM281400 17006KT P6SM
                       -RA BKN025 OVC040 FM281900 20008KT P6SM
                       SCT030 BKN050
                      PROB30 2819/2824 -RA=
201508271736 TAF KPAE 271736Z 2718/2818 23006KT P6SM BKN250 FM280600 14004KT
                       P6SM BKN070 OVC140 FM281400 16005KT P6SM
                       -RA BKN035 OVC050=
201508271120 TAF KPAE 271120Z 2712/2812 16004KT P6SM BKN250 FM271800 22006KT
                       P6SM BKN250 FM281000 13005KT P6SM BKN100
                       OVC200=
201508270525 TAF KPAE 270525Z 2706/2806 36004KT P6SM BKN250 FM271000 18004KT
                       P6SM BKN250 FM271800 22006KT P6SM BKN250=
201508262320 TAF KPAE 262320Z 2700/2724 36005KT P6SM BKN250 FM271000 18004KT
                       P6SM BKN250 FM271800 22006KT P6SM BKN250=
201508261720 TAF KPAE 261720Z 2618/2718 32006KT P6SM BKN250 FM270300 36004KT
                       P6SM BKN250 FM271100 18003KT P6SM BKN250=
201508261120 TAF KPAE 261120Z 2612/2712 00000KT P6SM SCT250 FM262000 32006KT
                       P6SM BKN250 FM270300 36005KT P6SM BKN250
                       FM270800 VRB03KT P6SM BKN250=
201508260522 TAF KPAE 260522Z 2606/2706 01005KT P6SM BKN250 FM262000 32006KT
                       P6SM BKN250 FM270300 36005KT P6SM BKN250=
201508252320 TAF KPAE 252320Z 2600/2624 35006KT P6SM SCT250 FM260500 01003KT
                       P6SM SCT250 FM262000 32005KT P6SM SCT250=
201508251720 TAF KPAE 251720Z 2518/2618 33006KT P6SM SCT250 FM260400 01004KT
                       P6SM SCT250=
201508251120 TAF KPAE 251120Z 2512/2612 05003KT P6SM SCT250 FM251800 33007KT
                       P6SM SCT250 FM260400 01005KT P6SM BKN250=
201508250520 TAF KPAE 250520Z 2506/2606 01005KT P6SM SCT250 FM251800 33007KT
                       P6SM SCT250 FM260400 01005KT P6SM BKN250=
201508242320 TAF KPAE 242320Z 2500/2524 31006KT P6SM BKN250 FM250200 36006KT
                       P6SM BKN250 FM251800 33005KT P6SM SCT250=
201508241720 TAF KPAE 241720Z 2418/2518 27006KT P6SM BKN250 FM242200 30006KT
                       P6SM BKN250 FM250200 36004KT P6SM SCT250=
201508241121 TAF KPAE 241121Z 2412/2512 VRB03KT P6SM BKN250 FM241800 25006KT
                       P6SM BKN250 FM242200 32006KT P6SM BKN250
                       FM250300 VRB03KT P6SM SCT250=
201508240523 TAF KPAE 240523Z 2406/2506 02006KT P6SM BKN250 FM241400 17006KT
                       P6SM FEW007 BKN250 FM241800 22007KT P6SM
                       BKN250 FM242200 33007KT P6SM BKN250 FM250300
                       01004KT P6SM BKN250=
201508240307 TAF AMD KPAE 240307Z 2403/2424 01007KT P6SM BKN200 FM240600 VRB04KT
                       P6SM BKN200 FM241300 14005KT P6SM SCT009
                       FM241700 18006KT P6SM SCT015 FM241800 21006KT
                       P6SM SKC=
201508232320 TAF KPAE 232320Z 2400/2424 35005KT 5SM FU SCT250 FM240600 VRB04KT
                       5SM FU SCT250 FM241300 14005KT 6SM FU SCT009
                       FM241700 18006KT P6SM SCT015 FM241800 21006KT
                       P6SM SKC=
201508232103 TAF AMD KPAE 232103Z 2321/2418 35006KT 5SM HZ FU FEW030 SCT250
                       TEMPO 2321/2324 3SM FU FM240300 VRB04KT
                       6SM FU SCT250 FM241200 VRB03KT 5SM HZ BR
                       SCT006 SCT250=
201508231827 TAF AMD KPAE 231827Z 2318/2418 35005KT 6SM HZ FU SCT030 SCT250
                       TEMPO 2318/2320 3SM HZ FU BKN030 FM232000
                       34007KT 5SM HZ FU FEW030 SCT250 FM240300
                       VRB04KT P6SM SCT250 FM241200 VRB03KT 5SM
                       HZ BR SCT006 SCT250=
201508231720 TAF KPAE 231720Z 2318/2418 34005KT 6SM HZ FU SCT040 SCT250 FM232000
                       34007KT P6SM SCT250 FM240300 VRB04KT P6SM
                       SCT250 FM241200 VRB03KT 5SM HZ BR SCT006
                       SCT250=
201508231132 TAF KPAE 231132Z 2312/2412 VRB03KT P6SM VV045
                      TEMPO 2313/2317 5SM FU FM231800 33005KT P6SM
                       SCT090 FM232000 33007KT P6SM SCT250 FM240300
                       VRB04KT P6SM SCT250=
201508230915 KPAE 230915Z 2309/2406 VRB03KT P6SM VV060 FM231800 33005KT P6SM
                       SCT090 FM232000 33007KT P6SM SCT250 FM240300
                       VRB04KT P6SM SCT250=
201508230540 TAF KPAE 230540Z 2306/2406 01005KT 6SM FU SCT060 FM230900 VRB03KT
                       3SM FU VV040 FM231800 33005KT 6SM FU SCT090
                       FM232000 33007KT P6SM SCT250 FM240300 VRB04KT
                       P6SM SCT250=
201508230306 TAF AMD KPAE 230306Z 2303/2324 VRB03KT 6SM FU SCT070 FM231800 35007KT
                       P6SM SKC=
201508222320 TAF KPAE 222320Z 2300/2324 35007KT P6SM SKC FM230400 02005KT P6SM
                       SKC FM231000 VRB04KT P6SM SKC FM231800 35007KT
                       P6SM SKC=
201508222057 TAF AMD KPAE 222057Z 2221/2318 36006KT P6SM FEW060 FM230300 03005KT
                       P6SM SCT060 FM231200 VRB04KT P6SM SCT060=
201508221720 TAF KPAE 221720Z 2218/2318 35006KT P6SM BKN070 FM230300 03005KT
                       P6SM SCT070 FM231200 VRB04KT P6SM SCT070=
201508221124 TAF KPAE 221124Z 2212/2312 VRB03KT P6SM SKC FM221800 34006KT P6SM
                       SCT250 FM230300 VRB03KT P6SM SKC=
201508220529 TAF KPAE 220529Z 2206/2306 VRB03KT P6SM SKC FM221800 34006KT P6SM
                       SKC FM230200 02004KT P6SM SKC=
201508212320 TAF KPAE 212320Z 2200/2224 32006KT P6SM SCT035 FM220300 VRB03KT
                       P6SM SKC FM221800 35006KT P6SM SKC=
201508211720 TAF KPAE 211720Z 2118/2218 28006KT P6SM OVC018 FM211900 30006KT
                       P6SM OVC022 FM212100 30006KT P6SM BKN035
                       FM212300 32006KT P6SM FEW035 SCT250 FM220300
                       VRB03KT P6SM SKC=
201508211131 TAF KPAE 211131Z 2112/2212 VRB05KT P6SM OVC012
                      TEMPO 2112/2116 4SM -DZ BR OVC006 FM211800
                       23006KT P6SM OVC022 FM212100 28006KT P6SM
                       BKN035 FM212300 32005KT P6SM FEW035 SCT250
                       FM220300 VRB03KT P6SM SKC=
201508210920 TAF AMD KPAE 210920Z 2109/2206 17008KT P6SM OVC020
                      TEMPO 2113/2117 5SM -DZ BR OVC010 FM211800
                       23006KT P6SM OVC028 FM212000 28006KT P6SM
                       BKN035 FM212200 32005KT P6SM FEW035 SCT250=
201508210544 TAF KPAE 210544Z 2106/2206 19008KT P6SM BKN040 FM210900 17008KT
                       P6SM OVC030 FM211200 17008KT P6SM OVC020
                       TEMPO 2113/2117 5SM -DZ BR OVC010 FM211800
                       23006KT P6SM OVC028 FM212000 28006KT P6SM
                       BKN035 FM212200 32005KT P6SM FEW035 SCT250=
201508210317 TAF AMD KPAE 210317Z 2103/2124 VRB05KT P6SM SKC FM210700 12004KT
                       5SM BR OVC015 FM211200 16005KT 4SM BR OVC011
                       TEMPO 2112/2116 3SM -DZ BR OVC006 FM211800
                       17007KT P6SM OVC022 FM212100 18009KT P6SM
                       SCT035=
201508202320 TAF KPAE 202320Z 2100/2124 19011KT P6SM SCT035 FM210400 16006KT
                       P6SM SCT025 SCT035 FM210700 12004KT 5SM
                       BR OVC015 FM211200 16005KT 4SM BR OVC011
                       TEMPO 2112/2116 3SM -DZ BR OVC006 FM211800
                       17007KT P6SM OVC022 FM212100 18009KT P6SM
                       SCT035=
201508201720 TAF KPAE 201720Z 2018/2118 19009KT P6SM SCT010 OVC018
                      TEMPO 2018/2020 5SM BR OVC010 FM202100 21010KT
                       P6SM OVC022 FM202300 21010KT P6SM BKN030
                       BKN250 FM210400 33005KT P6SM OVC025 FM210900
                       12004KT 5SM BR OVC015 FM211200 16005KT 4SM
                       BR OVC011
                      TEMPO 2112/2116 3SM -DZ BR OVC006=
201508201132 TAF KPAE 201132Z 2012/2112 17008KT P6SM OVC013 FM201800 20011KT
                       P6SM OVC022 FM202100 23009KT P6SM BKN035
                       BKN250 FM210000 32007KT P6SM SCT035 BKN250
                       FM210600 VRB05KT P6SM OVC022=
201508200946 TAF AMD KPAE 200946Z 2010/2106 17008KT P6SM OVC008 FM201800 20011KT
                       P6SM OVC018 FM202200 23009KT P6SM BKN035
                       BKN250 FM210200 33007KT P6SM SCT035 BKN250=
201508200904 TAF AMD KPAE 200904Z 2009/2106 VRB05KT P6SM FEW011 FM201100 12006KT
                       P6SM BKN011 FM201300 17009KT P6SM OVC008
                       FM201800 20011KT P6SM OVC018 FM202200 23009KT
                       P6SM BKN035 BKN250 FM210200 33007KT P6SM
                       SCT035 BKN250=
201508200623 TAF AMD KPAE 200623Z 2006/2106 36008KT P6SM SKC
                      TEMPO 2006/2008 36012G22KT FM201100 12006KT
                       P6SM FEW011 FM201300 17009KT P6SM OVC008
                       FM201800 20011KT P6SM OVC018 FM202200 23009KT
                       P6SM BKN035 BKN250 FM210200 33007KT P6SM
                       SCT035 BKN250=
201508200609 TAF AMD KPAE 200609Z 2006/2106 36008KT P6SM SKC FM201100 12006KT
                       P6SM FEW011 FM201300 17009KT P6SM OVC008
                       FM201800 20011KT P6SM OVC018 FM202200 23009KT
                       P6SM BKN035 BKN250 FM210200 33007KT P6SM
                       SCT035 BKN250=
201508200545 TAF KPAE 200545Z 2006/2106 01009KT P6SM SCT250 FM201100 17005KT
                       5SM BR OVC006 FM201800 17005KT P6SM OVC018
                       FM202100 18010KT P6SM BKN030=
201508200306 KPAE 200306Z 2003/2024 36013KT P6SM FEW250
                      TEMPO 2003/2005 36015G25KT FM200500 01009KT
                       P6SM SCT250 FM201100 17005KT 5SM BR OVC006
                       FM201800 17005KT P6SM OVC018 FM202100 18010KT
                       P6SM BKN030=
201508200239 TAF AMD KPAE 200239Z 2003/2024 36010KT P6SM FEW250 FM200400 02006KT
                       P6SM SCT250 FM201100 17005KT 5SM BR OVC006
                       FM201800 17005KT P6SM OVC018 FM202100 18010KT
                       P6SM BKN030=
201508192320 TAF KPAE 192320Z 2000/2024 34006KT P6SM SKC FM200400 03004KT P6SM
                       SCT250 FM201100 17005KT 5SM BR OVC006 FM201800
                       17005KT P6SM OVC018 FM202100 18010KT P6SM
                       BKN030=
201508191720 TAF KPAE 191720Z 1918/2018 31006KT P6SM SKC FM200300 36004KT P6SM
                       SKC FM201200 17005KT P6SM OVC006 FM201700
                       17005KT P6SM BKN015=
201508191130 TAF KPAE 191130Z 1912/2012 03005KT P6SM SKC FM191700 31006KT P6SM
                       SKC FM200600 36004KT P6SM SKC=
201508190525 TAF KPAE 190525Z 1906/2006 34003KT P6SM SKC FM191700 31006KT P6SM
                       SKC=
201508182320 TAF KPAE 182320Z 1900/1924 36008KT P6SM SKC FM190400 01004KT P6SM
                       SKC FM191700 31006KT P6SM SKC=
201508181720 TAF KPAE 181720Z 1818/1918 34007KT P6SM SKC FM190400 01004KT P6SM
                       SKC=
201508181120 TAF KPAE 181120Z 1812/1912 36004KT P6SM SKC FM181700 34005KT P6SM
                       SKC FM190900 02002KT P6SM SKC=
201508180524 TAF KPAE 180524Z 1806/1906 36004KT P6SM SKC FM181700 34005KT P6SM
                       SKC=
201508172321 TAF KPAE 172321Z 1800/1824 36006KT P6SM SCT250 FM180500 03004KT
                       P6SM SCT250 FM181700 34005KT P6SM SKC=
201508171720 TAF KPAE 171720Z 1718/1818 31005KT P6SM SKC FM180000 36006KT P6SM
                       SKC FM180800 36003KT P6SM SKC=
201508171130 TAF KPAE 171130Z 1712/1812 00000KT P6SM SKC
                      TEMPO 1713/1716 SCT001 FM171700 36005KT P6SM
                       SKC=
201508170520 TAF KPAE 170520Z 1706/1806 36004KT P6SM SKC FM171200 01004KT P6SM
                       VCFG SCT001 FM171700 36005KT P6SM SKC=
201508162320 TAF KPAE 162320Z 1700/1724 36008KT P6SM SKC FM170600 01005KT P6SM
                       SKC FM171200 01004KT P6SM VCFG SCT001 FM171700
                       36005KT P6SM SKC=
201508161950 TAF AMD KPAE 161950Z 1620/1718 36006KT P6SM SKC FM170600 01005KT
                       P6SM SKC=
201508161720 TAF KPAE 161720Z 1618/1718 36003KT P6SM FEW008 FEW050 FM161900
                       33006KT P6SM SKC FM170600 01004KT P6SM SKC
                       FM171300 01004KT P6SM VCFG SCT002
                      TEMPO 1713/1716 1SM BR OVC002=
201508161409 TAF AMD KPAE 161409Z 1614/1712 VRB04KT 2SM BR OVC001 FM161600 VRB04KT
                       P6SM SCT004 FM161800 32006KT P6SM SKC FM170600
                       01005KT P6SM SKC=
201508161120 TAF KPAE 161120Z 1612/1712 34007KT P6SM OVC004
                      TEMPO 1612/1616 SCT004 FM161600 32006KT P6SM
                       SKC FM170600 01005KT P6SM SKC=
201508160520 TAF KPAE 160520Z 1606/1706 02007KT P6SM OVC040 FM160900 03003KT
                       P6SM SCT050 FM161900 32006KT P6SM SKC=
201508152324 TAF KPAE 152324Z 1600/1624 03006KT P6SM SCT045 BKN070 FM160400
                       01004KT P6SM BKN070 FM160600 03003KT P6SM
                       SKC FM161900 32006KT P6SM SKC=
201508151720 TAF KPAE 151720Z 1518/1618 34003KT 3SM -RA BR BKN007 BKN012 OVC030
                       FM151900 25004KT P6SM BKN017 OVC035 FM152100
                       VRB03KT P6SM SCT035 BKN050 FM152300 32006KT
                       P6SM SCT050 FM160400 01004KT P6SM SCT250=
201508151120 TAF KPAE 151120Z 1512/1612 10003KT 6SM BR OVC008
                      TEMPO 1513/1516 1SM BR OVC004 FM151900 25004KT
                       P6SM SCT025 BKN040 FM152200 34007KT P6SM
                       SCT050 FM160400 01004KT P6SM SCT250=
201508150530 TAF KPAE 150530Z 1506/1606 18007KT P6SM SCT010 OVC018
                      TEMPO 1506/1510 3SM -RA BR BKN008 OVC012
                       FM151000 18008KT P6SM OVC012 FM151900 25004KT
                       P6SM SCT025 BKN040 FM152200 34007KT P6SM
                       SCT050=
201508142329 TAF KPAE 142329Z 1500/1524 22012KT 2SM RA BR BKN006 BKN050 OVC080
                       FM150300 19010KT P6SM BKN010 BKN040 OVC080
                       FM150500 18008KT P6SM OVC012 FM151900 25004KT
                       P6SM SCT025 BKN040 FM152200 34007KT P6SM
                       SCT050=
201508142209 TAF AMD KPAE 142209Z 1422/1518 20014KT P6SM -SHRA VCTS BKN004 OVC009CB
                       FM150000 18012G20KT P6SM -SHRA BKN010 OVC020
                       FM150400 17013KT P6SM BKN010 FM150800 18008KT
                       P6SM OVC012=
201508141931 TAF AMD KPAE 141931Z 1420/1518 19015KT 6SM BR VCTS SCT007 BKN009
                       OVC013CB
                      TEMPO 1420/1423 3SM TSRA OVC007CB FM142300
                       18012G20KT P6SM -SHRA VCTS SCT015 BKN020
                       OVC040CB FM150400 17013KT P6SM BKN020 FM150800
                       18008KT P6SM OVC012=
201508141726 TAF KPAE 141726Z 1418/1518 18012KT P6SM BKN010 OVC022 FM142200
                       18012G20KT P6SM -SHRA VCTS SCT015 BKN020
                       OVC040CB FM150400 17013KT P6SM BKN020 FM150800
                       18008KT P6SM OVC012=
201508141511 TAF AMD KPAE 141511Z 1415/1512 18010KT P6SM BKN008 OVC050 FM141800
                       18012KT P6SM -SHRA BKN012 OVC040 FM142000
                       20012KT P6SM -SHRA VCTS BKN020CB OVC040=
201508141122 TAF KPAE 141122Z 1412/1512 00000KT P6SM FEW010 SCT050 BKN150
                      TEMPO 1412/1414 -SHRA BKN010 BKN050 OVC150
                       FM141400 18008KT P6SM -SHRA BKN007 BKN060
                       OVC150 FM142000 20012KT P6SM -SHRA BKN020
                       OVC040=
201508140520 TAF KPAE 140520Z 1406/1506 01006KT P6SM SCT250 FM141400 18005KT
                       P6SM BKN007 BKN250 FM141600 18008KT P6SM
                       VCSH BKN005 BKN060 BKN250 FM142000 20012KT
                       P6SM -SHRA BKN020 OVC040=
201508132326 TAF KPAE 132326Z 1400/1424 36008KT P6SM FEW250 FM140700 21005KT
                       P6SM SCT250 FM141200 18005KT P6SM BKN007
                       BKN250 FM141600 18008KT P6SM VCSH BKN005
                       BKN060 BKN250 FM142000 20012KT P6SM -SHRA
                       BKN020 OVC040=
201508131727 TAF KPAE 131727Z 1318/1418 26006KT P6SM SCT007 FM131900 27006KT
                       P6SM FEW020 FM132000 26006KT P6SM SKC FM140100
                       35005KT P6SM SKC FM141200 19006KT P6SM BKN010
                       BKN080 FM141600 19006KT P6SM VCSH BKN007
                       OVC060=
201508131432 KPAE 131432Z 1315/1412 19006KT P6SM SCT005
                      TEMPO 1315/1317 BKN005 FM131900 27006KT P6SM
                       SCT250 FM140100 35005KT P6SM SCT250 FM141000
                       19006KT P6SM BKN010 BKN080=
201508131120 TAF KPAE 131120Z 1312/1412 19006KT P6SM SCT250 FM131900 27006KT
                       P6SM SCT250 FM140100 35005KT P6SM SCT250
                       FM141000 19006KT P6SM BKN010 BKN080=
201508130521 TAF KPAE 130521Z 1306/1406 15004KT P6SM SCT250 FM131900 27006KT
                       P6SM SCT250 FM140100 35005KT P6SM SCT250=
201508122320 TAF KPAE 122320Z 1300/1324 VRB05KT P6SM SCT140 BKN250 FM130600
                       18005KT P6SM SCT250=
201508122109 TAF AMD KPAE 122109Z 1221/1318 18005KT P6SM VCTS SCT050CB BKN100
                       BKN250 FM130000 18004KT P6SM BKN100 BKN250
                       FM130500 20005KT P6SM SCT250=
201508121802 TAF AMD KPAE 121802Z 1218/1318 01003KT P6SM VCTS FEW070CB SCT120
                       BKN250
                      TEMPO 1218/1220 -TSRA FEW070CB FM122100 33005KT
                       P6SM VCSH SCT070 SCT120 BKN250 FM130300
                       18004KT P6SM SCT070 SCT100 BKN250 FM130500
                       20005KT P6SM SCT250=
201508121745 TAF AMD KPAE 121745Z 1218/1318 01003KT P6SM VCTS FEW070CB SCT120
                       BKN250 FM122100 33005KT P6SM VCSH SCT070
                       SCT120 BKN250 FM130300 18004KT P6SM SCT070
                       SCT100 BKN250 FM130500 20005KT P6SM SCT250=
201508121723 TAF KPAE 121723Z 1218/1318 01003KT P6SM SCT120 BKN250 FM122000
                       33005KT P6SM SCT070 SCT120 BKN250 FM130300
                       18004KT P6SM SCT070 SCT100 BKN250 FM130500
                       20005KT P6SM SCT250=
201508121120 TAF KPAE 121120Z 1212/1312 01003KT P6SM SCT250 FM121800 31008KT
                       P6SM FEW120 BKN250=
201508120520 TAF KPAE 120520Z 1206/1306 02004KT P6SM BKN250 FM121800 31008KT
                       P6SM FEW120 BKN250=
201508112320 TAF KPAE 112320Z 1200/1224 35008KT P6SM FEW150 BKN250 FM120400
                       34004KT P6SM SCT250 FM121800 35008KT P6SM
                       FEW120 BKN250=
201508111725 TAF KPAE 111725Z 1118/1218 36006KT P6SM SCT250 FM112200 31008KT
                       P6SM SCT070 BKN250 FM120500 VRB03KT P6SM
                       SCT250=
201508111122 TAF KPAE 111122Z 1112/1212 36005KT P6SM BKN250 FM111900 31008KT
                       P6SM FEW090 SCT250 FM120500 VRB03KT P6SM
                       SCT250=
201508110522 TAF KPAE 110522Z 1106/1206 01005KT P6SM BKN250 FM111900 31008KT
                       P6SM SCT250=
201508102330 TAF KPAE 102330Z 1100/1124 34007KT P6SM SCT090 BKN200 FM110500
                       35004KT P6SM SCT200=
201508101726 TAF KPAE 101726Z 1018/1118 VRB03KT P6SM BKN110 BKN250 FM102000
                       33003KT P6SM BKN250=
201508101120 TAF KPAE 101120Z 1012/1112 VRB04KT P6SM VCSH BKN080 OVC150 FM102000
                       VRB04KT P6SM SCT050 SCT150 FM110500 VRB04KT
                       P6SM VCSH BKN050 OVC120=
201508100520 TAF KPAE 100520Z 1006/1106 VRB03KT P6SM SCT060 BKN120 BKN200 FM102000
                       33007KT P6SM SCT050 SCT200=
201508092320 TAF KPAE 092320Z 1000/1024 34005KT P6SM SCT250=
201508091730 TAF KPAE 091730Z 0918/1018 26004KT P6SM SCT015=
201508091339 TAF AMD KPAE 091339Z 0914/1012 15006KT P6SM BKN015 FM091600 19006KT
                       P6SM SCT025 SCT050 FM100000 VRB04KT P6SM
                       SCT050=
201508091121 TAF KPAE 091121Z 0912/1012 18010KT P6SM SCT015 FM091800 23006KT
                       P6SM SCT025 SCT050 FM100000 VRB04KT P6SM
                       SCT050=
201508091120 TAF KPAE 091120Z 0912/1012 18010KT P6SM SCT015 FM091800 23006KT
                       P6SM SCT025 SCT050 FM100000 VRB04KT P6SM
                       SCT050=
201508091004 TAF AMD KPAE 091004Z 0910/1006 18010KT P6SM SCT015
                      TEMPO 0912/0916 BKN015 FM091800 23006KT P6SM
                       SCT025 SCT050 FM100000 VRB04KT P6SM SCT050=
201508090520 TAF KPAE 090520Z 0906/1006 17012KT P6SM VCSH BKN040 BKN100 FM091000
                       18008KT P6SM BKN020 OVC040 FM091800 23006KT
                       P6SM SCT025 BKN050=
201508082321 TAF KPAE 082321Z 0900/0924 20012KT P6SM VCSH SCT040 BKN120 FM090200
                       19011G17KT P6SM VCSH SCT020 OVC040 FM090500
                       18010KT P6SM BKN025 OVC040 FM091100 18007KT
                       P6SM OVC012 FM091800 21007KT P6SM BKN040=
201508081957 TAF AMD KPAE 081957Z 0820/0918 18010KT P6SM SCT120 BKN200 FM082200
                       19010KT P6SM SCT010 OVC040 FM090300 17008KT
                       P6SM VCSH OVC015 FM091400 17006KT P6SM OVC007
                       FM091700 18006KT P6SM OVC015=
201508081728 TAF KPAE 081728Z 0818/0918 16011KT P6SM OVC008 FM082100 19010KT
                       P6SM SCT010 OVC040 FM090300 17008KT P6SM
                       VCSH OVC015 FM091400 17006KT P6SM OVC007
                       FM091700 18006KT P6SM OVC015=
201508081120 TAF KPAE 081120Z 0812/0912 18005KT P6SM BKN008
                      TEMPO 0812/0815 SCT010 FM081700 18007KT P6SM
                       BKN015 FM082100 21007KT P6SM BKN025 FM090600
                       21007KT P6SM -SHRA BKN025 OVC050=
201508080520 TAF KPAE 080520Z 0806/0906 02006KT P6SM FEW050 FM081100 VRB03KT
                       P6SM BKN020 FM081700 19005KT P6SM VCSH OVC025=
201508072326 TAF KPAE 072326Z 0800/0824 36006KT P6SM FEW040 FM080900 36002KT
                       P6SM OVC100 FM081100 20006KT P6SM SCT020
                       OVC040 FM081400 20006KT P6SM OVC020=
201508071727 TAF KPAE 071727Z 0718/0818 02004KT P6SM FEW250 FM080400 VRB04KT
                       P6SM SCT050 BKN150 FM080800 30007KT P6SM
                       BKN020 BKN050=
201508071120 TAF KPAE 071120Z 0712/0812 36006KT P6SM SCT250 FM080400 VRB04KT
                       P6SM SCT050 BKN150 FM080800 30007KT P6SM
                       BKN020 BKN050=
201508070520 TAF KPAE 070520Z 0706/0806 02003KT P6SM SCT250 FM071200 02003KT
                       P6SM SCT007 SCT250 FM071800 33005KT P6SM
                       SCT250=
201508062320 TAF KPAE 062320Z 0700/0724 30007KT P6SM SCT250 FM070400 02003KT
                       P6SM SCT250 FM071200 02003KT P6SM SCT007
                       SCT250 FM071800 33005KT P6SM SCT250=
201508061720 TAF KPAE 061720Z 0618/0718 22006KT P6SM BKN016 OVC060 FM061900
                       VRB04KT P6SM SCT030 BKN060 FM062100 32005KT
                       P6SM FEW030 SCT060 FM070400 02003KT P6SM
                       SCT250 FM071200 02003KT P6SM SCT007 SCT250=
201508061616 TAF AMD KPAE 061616Z 0616/0712 00000KT P6SM SCT017 BKN060 FM061900
                       VRB04KT P6SM SCT030 BKN050 FM070000 30005KT
                       P6SM SCT050 BKN150 FM071100 VRB04KT P6SM
                       BKN025=
201508061120 TAF KPAE 061120Z 0612/0712 VRB04KT P6SM SCT020 OVC040 FM061500
                       14004KT P6SM BKN020 BKN050 FM061800 VRB04KT
                       P6SM SCT030 BKN050 FM070000 30005KT P6SM
                       SCT050 BKN150 FM071100 VRB04KT P6SM BKN025=
201508060520 TAF KPAE 060520Z 0606/0706 03006KT P6SM BKN035 OVC050 FM060900
                       02004KT P6SM VCSH BKN025 BKN050 FM061800
                       32005KT P6SM SCT025 BKN050=
201508060159 TAF AMD KPAE 060159Z 0602/0624 36010KT P6SM -SHRA BKN035 OVC050
                       FM060600 02004KT P6SM VCSH BKN025 BKN050
                       FM061800 32005KT P6SM SCT025 BKN050=
201508052328 TAF KPAE 052328Z 0600/0624 36009KT P6SM SCT012 BKN025 OVC035
                      TEMPO 0600/0604 5SM -SHRA OVC012 FM060600
                       02004KT P6SM OVC010 FM061800 32005KT P6SM
                       SCT025 BKN050=
201508052123 TAF AMD KPAE 052123Z 0521/0618 VRB03KT P6SM VCSH BKN026 OVC035
                       FM052300 36009KT P6SM SCT012 BKN025 OVC035
                       TEMPO 0600/0604 5SM -SHRA OVC012 FM060600
                       02004KT P6SM VCSH OVC010=
201508051946 TAF AMD KPAE 051946Z 0520/0618 24005KT P6SM VCSH SCT020 OVC035
                       FM052300 36009KT 5SM -SHRA OVC012 FM060600
                       02004KT P6SM VCSH OVC010=
201508051734 TAF KPAE 051734Z 0518/0618 17005KT P6SM OVC015 FM052000 22007KT
                       P6SM VCSH SCT020 OVC030 FM052300 36009KT
                       5SM -SHRA OVC012 FM060600 02004KT P6SM VCSH
                       OVC010=
201508051401 TAF AMD KPAE 051401Z 0514/0612 11003KT P6SM BKN014 OVC050 FM051800
                       21007KT P6SM SCT030 BKN050 FM052100 22007KT
                       P6SM VCSH SCT030 BKN050 FM060600 36007KT
                       P6SM BKN025=
201508051210 TAF AMD KPAE 051210Z 0512/0612 14006KT P6SM SCT020 SCT050
                      TEMPO 0512/0516 BKN019 BKN050 FM051800 21007KT
                       P6SM BKN050 FM052100 22007KT P6SM VCSH SCT030
                       BKN050 FM060600 36007KT P6SM BKN025=
201508051124 TAF KPAE 051124Z 0512/0612 14006KT P6SM SCT025 SCT050
                      TEMPO 0514/0518 BKN025 BKN050 FM051800 21007KT
                       P6SM BKN050 FM052100 22007KT P6SM VCSH SCT030
                       BKN050 FM060600 36007KT P6SM BKN025=
201508050525 TAF KPAE 050525Z 0506/0606 02007KT P6SM FEW050 SCT200 FM051200
                       14006KT P6SM BKN012 BKN030 FM051800 21008KT
                       P6SM VCSH SCT030 BKN050 FM060000 32009KT
                       P6SM VCSH BKN030 BKN050=
201508042329 TAF KPAE 042329Z 0500/0524 22008KT P6SM SCT200 FM050100 33006KT
                       P6SM SCT200 FM050600 02005KT P6SM SCT050
                       FM051100 18006KT P6SM BKN010 BKN030 FM052000
                       20010KT P6SM BKN030 BKN050=
201508041724 TAF KPAE 041724Z 0418/0518 16005KT P6SM SCT014 BKN050
                      TEMPO 0418/0419 BKN014 FM042000 25006KT P6SM
                       FEW050 SCT200 FM050100 33006KT P6SM SCT200
                       FM050600 02005KT P6SM BKN050=
201508041304 TAF AMD KPAE 041304Z 0413/0512 15004KT P6SM OVC014 FM041700 16005KT
                       P6SM SCT020 BKN100 FM041900 25006KT P6SM
                       SCT050 FM050100 33006KT P6SM SCT250 FM050600
                       02005KT P6SM BKN050=
201508041120 TAF KPAE 041120Z 0412/0512 VRB03KT P6SM SCT045 FM041900 25006KT
                       P6SM SCT050 FM050100 33006KT P6SM SCT250
                       FM050600 02005KT P6SM BKN050=
201508040520 TAF KPAE 040520Z 0406/0506 36008KT P6SM SCT250 FM040900 VRB03KT
                       P6SM SCT250 FM041200 VRB03KT P6SM OVC012
                       FM041800 27004KT P6SM OVC022 FM042000 27006KT
                       P6SM SCT045 SCT250=
201508032320 TAF KPAE 032320Z 0400/0424 34006KT P6SM SCT200 FM040500 36004KT
                       P6SM BKN050 FM041000 VRB03KT P6SM OVC015
                       FM041300 VRB03KT P6SM OVC007 FM041700 20004KT
                       P6SM OVC015 FM041900 24005KT P6SM SCT030
                       BKN050 FM042100 27005KT P6SM SCT050 BKN100=
201508031729 TAF KPAE 031729Z 0318/0418 32005KT P6SM SCT200 FM040500 36004KT
                       P6SM BKN050 FM041000 VRB03KT P6SM OVC015
                       FM041300 VRB03KT P6SM OVC007 FM041700 20004KT
                       P6SM OVC015=
201508031120 TAF KPAE 031120Z 0312/0412 03005KT P6SM OVC160 FM031600 21005KT
                       P6SM SCT200 FM040200 31006KT P6SM SCT200
                       FM040500 34006KT P6SM BKN050 FM041000 VRB03KT
                       P6SM OVC020=
201508030521 TAF KPAE 030521Z 0306/0406 01007KT P6SM BKN160 FM030800 VRB03KT
                       P6SM BKN160 FM031800 31006KT P6SM BKN200=
201508022330 TAF KPAE 022330Z 0300/0324 33005KT P6SM BKN160 BKN250 FM030800
                       VRB04KT P6SM SCT120 BKN250 FM032100 31006KT
                       P6SM SCT250=
201508021735 TAF KPAE 021735Z 0218/0318 31006KT P6SM FEW120 BKN250 FM030800
                       VRB04KT P6SM SCT120 BKN250=
201508021120 TAF KPAE 021120Z 0212/0312 34004KT P6SM SCT200 FM021800 31006KT
                       P6SM SCT150 FM030300 36005KT P6SM SCT150=
201508020520 TAF KPAE 020520Z 0206/0306 01005KT P6SM SKC FM021000 00000KT P6SM
                       SCT200 FM021800 32006KT P6SM SCT150=
201508012330 TAF KPAE 012330Z 0200/0224 32007KT P6SM SKC FM020600 02004KT P6SM
                       SKC FM021900 32006KT P6SM SKC=
201508011726 TAF KPAE 011726Z 0118/0218 33006KT P6SM SKC FM020300 01005KT P6SM
                       SKC=
201508011120 TAF KPAE 011120Z 0112/0212 36003KT P6SM SKC FM011900 33006KT P6SM
                       SKC FM020300 01005KT P6SM SKC=
201508010524 TAF KPAE 010524Z 0106/0206 36007KT P6SM SKC FM010800 01003KT P6SM
                       SKC FM011900 34006KT P6SM SKC=