##########################################################
# Query made at 02/15/2025 21:05:06 UTC
# Time interval: from 04/01/2015 00:00  to 04/30/2015 23:59  UTC
##########################################################

##########################################################
# KPAE, Everett, Snohomish County Airport (United States)
# WMO index: -----. WIGOS ID: Unknown
# Latitude 47-55-23N. Longitude 122-16-57W. Altitude 184 m.
##########################################################

###################################
#  METAR/SPECI from KPAE
###################################
201504302353 METAR KPAE 302353Z 31005KT 10SM CLR 15/04 A3021 RMK AO2 SLP230 T01500044 10150 20106 58027=
201504302253 METAR KPAE 302253Z 27006KT 10SM CLR 14/06 A3024 RMK AO2 SLP240 T01440056=
201504302153 METAR KPAE 302153Z 27006KT 10SM CLR 14/06 A3026 RMK AO2 SLP249 T01390061=
201504302053 METAR KPAE 302053Z 26009KT 10SM CLR 12/06 A3029 RMK AO2 SLP258 T01220061 58009=
201504301953 METAR KPAE 301953Z 26007KT 10SM CLR 12/07 A3030 RMK AO2 SLP261 T01220067=
201504301853 METAR KPAE 301853Z 27008KT 10SM FEW037 11/06 A3031 RMK AO2 SLP265 T01060061=
201504301753 METAR KPAE 301753Z 18007KT 10SM FEW028 BKN039 12/04 A3032 RMK AO2 SLP267 60002 T01170044 10117 20083 58003=
201504301710 SPECI KPAE 301710Z 19007KT 10SM SCT028 12/05 A3032 RMK AO2 T01170050=
201504301653 METAR KPAE 301653Z 16007KT 10SM BKN027 BKN033 11/04 A3032 RMK AO2 SLP268 T01110044=
201504301637 SPECI KPAE 301637Z VRB04KT 10SM SCT025 BKN029 BKN036 11/05 A3032 RMK AO2 T01110050=
201504301625 SPECI KPAE 301625Z 19007KT 10SM FEW016 SCT025 SCT036 10/05 A3032 RMK AO2 T01000050=
201504301553 METAR KPAE 301553Z VRB06KT 10SM SCT015 BKN022 10/06 A3032 RMK AO2 SLP270 T01000061=
201504301453 METAR KPAE 301453Z 11004KT 10SM OVC026 09/06 A3032 RMK AO2 SLP270 60002 T00890061 53004=
201504301353 METAR KPAE 301353Z 11005KT 10SM OVC027 08/06 A3031 RMK AO2 RAE38 SLP266 P0001 T00830061=
201504301253 METAR KPAE 301253Z AUTO 11005KT 5SM -RA BR SCT007 OVC022 08/07 A3031 RMK AO2 SLP266 P0001 T00830067=
201504301200 SPECI KPAE 301200Z AUTO 08005KT 6SM -RA BR FEW006 OVC018 08/07 A3031 RMK AO2 P0000 T00830067=
201504301153 METAR KPAE 301153Z AUTO 08005KT 4SM -RA BR FEW006 BKN014 OVC020 09/07 A3031 RMK AO2 SLP265 P0003 60005 70005 T00890072 10100 20089 51005=
201504301145 SPECI KPAE 301145Z AUTO 09004KT 4SM -RA BR FEW006 BKN014 OVC018 09/07 A3031 RMK AO2 P0003 T00890072=
201504301110 SPECI KPAE 301110Z AUTO 08004KT 4SM -RA BR SCT008 BKN015 OVC020 09/07 A3031 RMK AO2 P0002 T00890072=
201504301053 METAR KPAE 301053Z AUTO VRB04KT 5SM -RA BR SCT010 OVC017 09/07 A3031 RMK AO2 RAE0955B11 SLP264 P0001 T00890067=
201504301001 SPECI KPAE 301001Z AUTO 07004KT 9SM FEW004 SCT013 OVC019 09/08 A3030 RMK AO2 RAE0955 P0000 T00890078=
201504300953 METAR KPAE 300953Z AUTO 03004KT 9SM -RA OVC019 09/07 A3030 RMK AO2 RAB12 SLP261 P0001 T00890072=
201504300940 SPECI KPAE 300940Z AUTO 03006KT 6SM -RA BR SCT014 OVC019 09/07 A3030 RMK AO2 RAB12 P0001 T00890072=
201504300924 SPECI KPAE 300924Z AUTO 04005KT 5SM -RA BR FEW008 BKN014 OVC034 09/07 A3030 RMK AO2 RAB12 P0001 T00940072=
201504300912 SPECI KPAE 300912Z AUTO 03003KT 8SM -RA FEW014 BKN027 OVC033 10/06 A3030 RMK AO2 RAB12 P0000 T01000061=
201504300853 METAR KPAE 300853Z AUTO 03005KT 10SM FEW026 SCT032 OVC044 10/06 A3030 RMK AO2 SLP260 T01000061 51007=
201504300840 SPECI KPAE 300840Z AUTO 02005KT 10SM FEW017 SCT024 OVC043 10/07 A3029 RMK AO2 T01000067=
201504300813 SPECI KPAE 300813Z AUTO 00000KT 10SM SCT016 OVC029 09/06 A3029 RMK AO2 T00940061=
201504300753 METAR KPAE 300753Z AUTO VRB05KT 10SM SCT016 OVC032 10/06 A3029=
201504300744 SPECI KPAE 300744Z AUTO 02003KT 10SM BKN016 OVC034 10/07 A3029 RMK AO2 T01000067=
201504300653 METAR KPAE 300653Z AUTO 01003KT 10SM SCT030 OVC038 10/07 A3029 RMK AO2 SLP257 T01000067=
201504300603 SPECI KPAE 300603Z AUTO 00000KT 10SM BKN029 OVC039 10/07 A3028 RMK AO2 T01000067=
201504300553 METAR KPAE 300553Z AUTO 03004KT 10SM OVC030 10/07 A3027 RMK AO2 SLP252 60000 T01000067 10156 20100 52020=
201504300453 METAR KPAE 300453Z AUTO 33006KT 10SM FEW032 10/06 A3026 RMK AO2 SLP248 T01000056=
201504300353 METAR KPAE 300353Z 20010KT 10SM CLR 12/04 A3023 RMK AO2 SLP237 T01220039=
201504300253 METAR KPAE 300253Z 21010KT 10SM SCT070 14/03 A3021 RMK AO2 RAB0156E12 SLP232 P0000 60000 T01390033 56005=
201504300153 METAR KPAE 300153Z 20012KT 10SM SCT065 BKN090 15/04 A3021 RMK AO2 SLP232 T01500039=
201504300053 METAR KPAE 300053Z 19009KT 10SM FEW046 BKN095 15/04 A3022 RMK AO2 SLP235 T01500039=
201504292353 METAR KPAE 292353Z 17010KT 10SM BKN045 OVC055 14/04 A3023 RMK AO2 SLP237 T01440039 10156 20106 58008=
201504292253 METAR KPAE 292253Z 24009KT 10SM SCT045 15/03 A3023 RMK AO2 SLP239 T01500033=
201504292153 METAR KPAE 292153Z 23009KT 10SM SCT045 14/06 A3025 RMK AO2 SLP244 T01440056=
201504292053 METAR KPAE 292053Z 23007KT 200V270 10SM CLR 14/04 A3025 RMK AO2 SLP245 T01390044 58006=
201504291953 METAR KPAE 291953Z 25008KT 10SM FEW034 SCT046 12/06 A3026 RMK AO2 SLP247 T01220056=
201504291900 SPECI KPAE 291900Z VRB06KT 10SM FEW029 12/05 A3026 RMK AO2 T01220050=
201504291853 METAR KPAE 291853Z 18009KT 10SM BKN022 OVC029 12/04 A3026 RMK AO2 SLP249 T01220044=
201504291753 METAR KPAE 291753Z 17007KT 10SM BKN015 OVC025 11/06 A3027 RMK AO2 SLP252 T01110056 10117 20078 51011=
201504291655 SPECI KPAE 291655Z 17005KT 10SM BKN015 OVC025 10/06 A3026 RMK AO2 T01000061=
201504291653 METAR KPAE 291653Z 16006KT 10SM BKN013 OVC021 10/06 A3026 RMK AO2 SLP249 T01000056=
201504291553 METAR KPAE 291553Z 18008KT 10SM OVC013 09/06 A3026 RMK AO2 SLP247 T00940061=
201504291521 SPECI KPAE 291521Z 18009KT 10SM BKN011 09/06 A3024 RMK AO2 T00890061=
201504291453 METAR KPAE 291453Z 18009KT 10SM SCT005 08/06 A3024 RMK AO2 SLP240 T00830061 53012=
201504291353 METAR KPAE 291353Z COR 16006KT 10SM SCT005 08/06 A3022 RMK AO2 SLP235 T00780061=
201504291253 METAR KPAE 291253Z AUTO 16008KT 10SM SCT006 SCT031 BKN039 08/06 A3021 RMK AO2 SLP233 T00780061=
201504291246 SPECI KPAE 291246Z AUTO 15007KT 10SM SCT005 BKN038 OVC055 08/06 A3021 RMK AO2 T00780061=
201504291232 SPECI KPAE 291232Z AUTO 16007KT 10SM FEW030 BKN038 BKN055 08/06 A3021 RMK AO2 T00780061=
201504291153 METAR KPAE 291153Z AUTO 17005KT 10SM BKN025 BKN044 08/06 A3020 RMK AO2 SLP228 60010 70016 T00780061 10089 20078 52004=
201504291107 SPECI KPAE 291107Z AUTO VRB04KT 7SM FEW003 SCT044 BKN060 08/07 A3019 RMK AO2 T00830072=
201504291053 METAR KPAE 291053Z AUTO 15004KT 8SM SCT046 OVC060 08/07 A3020 RMK AO2 SLP227 T00830072=
201504290953 METAR KPAE 290953Z AUTO 11003KT 10SM BKN043 OVC055 08/07 A3019 RMK AO2 RAB04E27 SLP226 P0002 T00830072=
201504290853 METAR KPAE 290853Z AUTO 00000KT 10SM OVC040 09/07 A3019 RMK AO2 RAB12E45 SLP225 P0002 60008 T00890072 51006=
201504290843 SPECI KPAE 290843Z AUTO 11004KT 10SM -RA SCT028 BKN038 OVC045 09/07 A3019 RMK AO2 RAB12 P0002 T00890072=
201504290824 SPECI KPAE 290824Z AUTO 02004KT 6SM -RA BR BKN026 BKN031 OVC042 09/07 A3019 RMK AO2 RAB12 P0001 T00890067=
201504290753 METAR KPAE 290753Z AUTO 00000KT 10SM BKN042 OVC055 09/07 A3019 RMK AO2 RAE10 SLP224 P0001 T00890067 401940083=
201504290653 METAR KPAE 290653Z AUTO 16003KT 7SM -RA FEW024 OVC048 08/07 A3017 RMK AO2 RAB08 SLP220 P0005 T00830072=
201504290626 SPECI KPAE 290626Z AUTO 22004KT 5SM -RA BR SCT025 OVC044 08/07 A3018 RMK AO2 RAB08 P0003 T00830072=
201504290553 METAR KPAE 290553Z AUTO 25003KT 9SM BKN026 BKN040 OVC065 08/07 A3017 RMK AO2 RAE0457 SLP219 P0000 60005 T00830072 10100 20083 53008=
201504290517 SPECI KPAE 290517Z AUTO 21005KT 10SM SCT005 SCT039 OVC065 09/07 A3017 RMK AO2 RAE0457 P0000 T00890072=
201504290453 METAR KPAE 290453Z AUTO 16006KT 10SM -RA OVC065 09/07 A3016 RMK AO2 RAB48 SLP215 P0000 T00890067=
201504290353 METAR KPAE 290353Z 17006KT 10SM OVC055 09/07 A3015 RMK AO2 RAB25E52 SLP211 P0000 T00890072=
201504290253 METAR KPAE 290253Z 16006KT 10SM OVC050 09/07 A3015 RMK AO2 RAE33 SLP209 P0002 60005 T00890067 58001=
201504290153 METAR KPAE 290153Z 15005KT 10SM -RA OVC047 09/06 A3015 RMK AO2 SLP210 P0002 T00940061=
201504290053 METAR KPAE 290053Z 00000KT 9SM -RA OVC039 09/06 A3016 RMK AO2 SLP212 P0001 T00940056=
201504282353 METAR KPAE 282353Z 35004KT 6SM -RA OVC033 10/04 A3015 RMK AO2 RAB44 SLP209 P0000 60001 T01000044 10106 20089 55000=
201504282253 METAR KPAE 282253Z 35004KT 10SM OVC032 09/06 A3014 RMK AO2 RAB10E27 SLP208 P0000 T00940056=
201504282153 METAR KPAE 282153Z 36006KT 10SM SCT022 OVC032 09/06 A3015 RMK AO2 RAB2056E06 SLP209 P0000 T00940061=
201504282107 SPECI KPAE 282107Z 33009KT 7SM OVC029 09/06 A3015 RMK AO2 RAB2056E06 P0000 T00940056=
201504282053 METAR KPAE 282053Z COR VRB06KT 7SM OVC029 10/06 A3015 RMK AO2 RAE34 SLP208 P0001 60001 T01000056 53012=
201504281953 METAR KPAE 281953Z 35005KT 7SM -RA FEW015 OVC029 10/06 A3013 RMK AO2 SLP203 P0000 T01000061=
201504281929 SPECI KPAE 281929Z 34008G14KT 2 1/2SM -RA BKN024 OVC030 09/07 A3014 RMK AO2 P0000 T00940067=
201504281853 METAR KPAE 281853Z 35008G16KT 7SM -RA OVC020 10/06 A3012 RMK AO2 RAB45 SLP198 P0000 T01000061=
201504281828 SPECI KPAE 281828Z 36008KT 10SM OVC017 11/06 A3012 RMK AO2 T01060061=
201504281753 METAR KPAE 281753Z 36007KT 10SM OVC014 11/06 A3011 RMK AO2 SLP197 T01060061 10150 20100 53020=
201504281732 SPECI KPAE 281732Z 34006G17KT 10SM BKN012 OVC017 11/07 A3010 RMK AO2 T01060072=
201504281653 METAR KPAE 281653Z 22011KT 10SM BKN019 OVC060 13/09 A3008 RMK AO2 SLP185 T01330094=
201504281553 METAR KPAE 281553Z 18014G20KT 10SM BKN065 14/09 A3005 RMK AO2 SLP175 T01390094=
201504281453 METAR KPAE 281453Z 17013KT 10SM FEW055 OVC075 14/09 A3002 RMK AO2 SLP166 T01390089 53014=
201504281353 METAR KPAE 281353Z 17012KT 10SM SCT060 OVC080 14/08 A3001 RMK AO2 SLP160 T01440083=
201504281253 METAR KPAE 281253Z AUTO 18011KT 10SM OVC080 14/09 A3000 RMK AO2 SLP157 T01440089=
201504281153 METAR KPAE 281153Z AUTO 16015G21KT 10SM SCT055 OVC080 16/10 A2998 RMK AO2 SLP150 70001 T01560100 10194 20144 51017=
201504281053 METAR KPAE 281053Z AUTO 17015KT 10SM BKN100 16/11 A2997 RMK AO2 SLP146 T01560106=
201504280953 METAR KPAE 280953Z AUTO 18010KT 10SM CLR 17/08 A2995 RMK AO2 SLP139 T01720083=
201504280853 METAR KPAE 280853Z AUTO 18005KT 10SM CLR 16/08 A2993 RMK AO2 SLP133 T01560078 53002=
201504280753 METAR KPAE 280753Z AUTO 15006KT 10SM CLR 19/07 A2992 RMK AO2 SLP128 T01940072 402280100=
201504280653 METAR KPAE 280653Z AUTO VRB04KT 10SM CLR 18/10 A2991 RMK AO2 SLP127 T01830100=
201504280553 METAR KPAE 280553Z AUTO 12006KT 10SM CLR 17/11 A2993 RMK AO2 SLP132 T01720111 10228 20150 58014=
201504280453 METAR KPAE 280453Z AUTO 00000KT 10SM CLR 16/11 A2994 RMK AO2 SLP139 T01610111=
201504280353 METAR KPAE 280353Z AUTO 01003KT 10SM CLR 16/11 A2995 RMK AO2 SLP142 T01560111=
201504280253 METAR KPAE 280253Z 36006KT 10SM CLR 17/11 A2997 RMK AO2 SLP147 T01670111 56025=
201504280153 METAR KPAE 280153Z 36006KT 10SM CLR 18/12 A2999 RMK AO2 SLP153 T01780117=
201504280053 METAR KPAE 280053Z 35007KT 10SM CLR 20/12 A3001 RMK AO2 SLP160 T02000117=
201504272353 METAR KPAE 272353Z 01005KT 10SM CLR 23/11 A3004 RMK AO2 SLP172 T02280111 10228 20161 58037=
201504272253 METAR KPAE 272253Z 01004KT 10SM CLR 22/12 A3008 RMK AO2 SLP185 T02220117=
201504272153 METAR KPAE 272153Z VRB04KT 10SM CLR 22/12 A3012 RMK AO2 SLP200 T02170122=
201504272053 METAR KPAE 272053Z 24003KT 10SM CLR 19/12 A3015 RMK AO2 SLP209 T01940117 58027=
201504271953 METAR KPAE 271953Z 27006KT 10SM FEW025 18/11 A3018=
201504271853 METAR KPAE 271853Z 18007KT 10SM FEW024 18/11 A3021 RMK AO2 SLP228 T01780111=
201504271819 SPECI KPAE 271819Z 17007KT 10SM SCT020 17/11 A3023 RMK AO2 T01720111=
201504271753 METAR KPAE 271753Z 16010KT 10SM BKN016 BKN024 16/12 A3024 RMK AO2 RAE1659 SLP238 P0000 60001 T01610117 10161 20100 56010=
201504271749 SPECI KPAE 271749Z 16009KT 10SM FEW008 SCT016 BKN085 16/11 A3024 RMK AO2 RAE1659 P0000=
201504271740 SPECI KPAE 271740Z 15009KT 10SM FEW010 SCT016 BKN080 16/12 A3024 RMK AO2 RAE1659 P0000 T01560117=
201504271653 METAR KPAE 271653Z 12007KT 10SM -RA BKN005 BKN028 12/11 A3025 RMK AO2 RAB12 SLP244 P0001 T01220111=
201504271553 METAR KPAE 271553Z 15007KT 100V170 10SM SCT003 BKN007 11/10 A3026 RMK AO2 SLP249 T01110100=
201504271453 METAR KPAE 271453Z VRB04KT 10SM BKN003 OVC010 11/09 A3026 RMK AO2 SLP249 T01060094 53003=
201504271436 SPECI KPAE 271436Z 15006KT 10SM BKN003 OVC010 11/09 A3026 RMK AO2 T01060094=
201504271433 SPECI KPAE 271433Z 12005KT 10SM BKN001 OVC010 11/09 A3026 RMK AO2 T01060094=
201504271359 SPECI KPAE 271359Z VRB04KT 5SM BR BKN003 OVC010 11/09 A3026 RMK AO2 T01060094=
201504271353 METAR KPAE 271353Z COR VRB04KT 2 1/2SM BR BKN004 OVC010 11/09 A3025 RMK VIS SW-NW 7SM AO2 SLP246 T01060094=
201504271351 SPECI KPAE 271351Z VRB04KT 2 1/2SM BR BKN004 OVC010 11/09 A3025 RMK AO2=
201504271333 SPECI KPAE 271333Z AUTO VRB05KT 4SM BR BKN004 OVC009 11/09 A3025 RMK AO2 CIG 003V008 T01060094=
201504271253 METAR KPAE 271253Z AUTO VRB04KT 9SM OVC005 11/09 A3025 RMK AO2 SLP246 T01060089=
201504271153 METAR KPAE 271153Z AUTO 13005KT 8SM OVC008 11/08 A3026 RMK AO2 SLP246 T01060083 10117 20100 50001=
201504271149 SPECI KPAE 271149Z AUTO VRB05KT 10SM OVC009 11/08 A3026 RMK AO2=
201504271053 METAR KPAE 271053Z AUTO 15004KT 10SM OVC013 11/07 A3025 RMK AO2 SLP246 T01060072=
201504270953 METAR KPAE 270953Z AUTO 14005KT 10SM OVC013 11/07 A3025 RMK AO2 SLP244 T01110072=
201504270853 METAR KPAE 270853Z AUTO 15009KT 10SM FEW013 BKN021 OVC027 11/08 A3026 RMK AO2 SLP248 T01060083 53002=
201504270753 METAR KPAE 270753Z AUTO 16009KT 10SM BKN016 OVC021 11/07 A3026 RMK AO2 SLP248 T01110072 401440044=
201504270653 METAR KPAE 270653Z AUTO 16010KT 10SM OVC019 12/07 A3025 RMK AO2 SLP244 T01170072=
201504270553 METAR KPAE 270553Z AUTO 18010KT 10SM OVC021 12/07 A3025 RMK AO2 SLP246 60000 T01170067 10144 20117 51014=
201504270543 SPECI KPAE 270543Z AUTO 16010KT 10SM BKN023 OVC036 12/06 A3025 RMK AO2 T01170061=
201504270453 METAR KPAE 270453Z AUTO 18012KT 10SM BKN030 OVC039 12/06 A3025 RMK AO2 SLP243 T01220056=
201504270353 METAR KPAE 270353Z AUTO 19013KT 10SM OVC043 13/05 A3022 RMK AO2 SLP237 T01280050=
201504270253 METAR KPAE 270253Z 19011KT 10SM SCT046 OVC075 13/04 A3021 RMK AO2 RAB00E15 SLP233 P0000 60000 T01280044 55001=
201504270153 METAR KPAE 270153Z 19012KT 10SM FEW050 OVC080 13/04 A3021 RMK AO2 RAB16E30 SLP233 P0000 T01330039=
201504270053 METAR KPAE 270053Z 21011KT 10SM OVC100 14/04 A3022 RMK AO2 SLP234 T01390039=
201504262353 METAR KPAE 262353Z 18010KT 10SM OVC100 14/04 A3022 RMK AO2 SLP234 T01440039 10144 20100 56002=
201504262253 METAR KPAE 262253Z 18009KT 10SM FEW095 14/02 A3022 RMK AO2 SLP234 T01390022=
201504262153 METAR KPAE 262153Z 19013KT 10SM OVC100 14/02 A3022 RMK AO2 SLP235 T01390022=
201504262053 METAR KPAE 262053Z 19013KT 10SM SCT120 13/03 A3022 RMK AO2 SLP237 T01280033 50003=
201504261953 METAR KPAE 261953Z 18011KT 10SM BKN110 13/03 A3023 RMK AO2 SLP238 T01280033=
201504261853 METAR KPAE 261853Z 18010KT 10SM BKN120 11/03 A3022 RMK AO2 SLP237 T01110028=
201504261753 METAR KPAE 261753Z 16006KT 10SM BKN120 10/03 A3022 RMK AO2 SLP234 T01000028 10100 20044 53014=
201504261653 METAR KPAE 261653Z 17006KT 10SM CLR 09/03 A3020 RMK AO2 SLP228 T00890028=
201504261553 METAR KPAE 261553Z 15008KT 10SM CLR 07/02 A3018 RMK AO2 SLP223 T00720022=
201504261453 METAR KPAE 261453Z 15007KT 10SM CLR 06/02 A3017 RMK AO2 SLP221 T00610017 53015=
201504261353 METAR KPAE 261353Z 12005KT 10SM CLR 05/02 A3015 RMK AO2 SLP214 T00500022=
201504261253 METAR KPAE 261253Z 13003KT 10SM CLR 05/02 A3014 RMK AO2 SLP210 T00500022=
201504261153 METAR KPAE 261153Z 12006KT 10SM CLR 05/02 A3013 RMK AO2 SLP205 70001 T00500022 10083 20044 53006=
201504261053 METAR KPAE 261053Z 11007KT 10SM CLR 04/03 A3012 RMK AO2 SLP201 T00440028=
201504260953 METAR KPAE 260953Z VRB03KT 10SM CLR 06/03 A3012 RMK AO2 SLP200 T00610033=
201504260853 METAR KPAE 260853Z 16005KT 10SM CLR 06/03 A3011 RMK AO2 SLP198 T00610028 53010=
201504260753 METAR KPAE 260753Z VRB03KT 10SM CLR 07/03 A3010 RMK AO2 SLP195 T00670028 401170050=
201504260653 METAR KPAE 260653Z 12005KT 10SM CLR 07/03 A3009 RMK AO2 SLP191 T00720028=
201504260553 METAR KPAE 260553Z 00000KT 10SM CLR 08/03 A3008 RMK AO2 SLP188 T00830028 10117 20078 51010=
201504260453 METAR KPAE 260453Z 26003KT 10SM CLR 09/02 A3008 RMK AO2 SLP186 T00890022=
201504260353 METAR KPAE 260353Z 00000KT 10SM CLR 08/02 A3007 RMK AO2 SLP184 T00830022=
201504260253 METAR KPAE 260253Z 32003KT 10SM CLR 09/03 A3005 RMK AO2 SLP178 T00940028 53009=
201504260153 METAR KPAE 260153Z VRB03KT 10SM CLR 11/03 A3004 RMK AO2 SLP175 T01060028=
201504260053 METAR KPAE 260053Z 36003KT 10SM CLR 12/03 A3003 RMK AO2 SLP170 T01170028=
201504252353 METAR KPAE 252353Z 01004KT 10SM SCT030 12/03 A3002 RMK AO2 SLP168 60000 T01170033 10117 20078 51007=
201504252253 METAR KPAE 252253Z VRB03KT 10SM SCT028 BKN035 12/04 A3002 RMK AO2 SLP166 T01170039=
201504252153 METAR KPAE 252153Z 29005KT 10SM SCT043 11/04 A3001 RMK AO2 SLP164 T01060039=
201504252053 METAR KPAE 252053Z 30005KT 10SM SCT025 BKN030 BKN050 10/03 A3000 RMK AO2 RAE10 SLP162 P0000 60000 T01000033 51006=
201504251953 METAR KPAE 251953Z COR 33007KT 10SM -RA SCT009 BKN040 08/04 A3000 RMK AO2 RAB47 SLP161 P0000 T00780039=
201504251853 METAR KPAE 251853Z 02003KT 10SM SCT014 SCT025 BKN042 09/05 A2999 RMK AO2 RAE16 SLP158 P0000 T00890050=
201504251815 SPECI KPAE 251815Z VRB06KT 10SM -RA SCT007 BKN044 OVC060 08/06 A2998 RMK AO2 P0000 T00830056=
201504251800 SPECI KPAE 251800Z VRB04KT 10SM -RA FEW018 SCT034 OVC043 08/03 A2999 RMK AO2 P0000 T00780028=
201504251753 METAR KPAE 251753Z 29006KT 10SM -RA SCT004 BKN011 BKN037 08/03 A2998 RMK AO2 RAB01 SLP156 P0000 60001 T00780028 10083 20050 51013=
201504251653 METAR KPAE 251653Z 25005KT 10SM SCT009 BKN031 08/04 A2997 RMK AO2 SLP150 T00780044=
201504251553 METAR KPAE 251553Z 00000KT 10SM SCT009 BKN031 OVC055 07/04 A2996 RMK AO2 SLP148 T00670039=
201504251453 METAR KPAE 251453Z 18007KT 10SM FEW035 BKN060 OVC120 06/04 A2994 RMK AO2 SLP141 60001 T00610039 53010=
201504251353 METAR KPAE 251353Z 00000KT 10SM FEW034 05/03 A2993 RMK AO2 SLP137 T00500028=
201504251253 METAR KPAE 251253Z AUTO 12004KT 10SM OVC070 05/03 A2991 RMK AO2 RAB1159E26 SLP132 P0001 T00500033=
201504251153 METAR KPAE 251153Z AUTO VRB03KT 10SM OVC050 05/03 A2991 RMK AO2 RAB08E18 SLP130 P0000 60007 70016 T00500033 10067 20050 51007=
201504251053 METAR KPAE 251053Z AUTO 12003KT 10SM OVC044 05/04 A2990 RMK AO2 RAB08E49 SLP129 P0001 T00500039=
201504250953 METAR KPAE 250953Z AUTO 00000KT 10SM FEW050 OVC070 06/03 A2990 RMK AO2 RAE30 SLP126 P0000 T00610033=
201504250853 METAR KPAE 250853Z AUTO 36003KT 10SM -RA BKN033 BKN055 OVC070 06/04 A2989 RMK AO2 SLP123 P0005 60006 T00560039 50004=
201504250839 SPECI KPAE 250839Z AUTO 03003KT 10SM -RA OVC030 06/04 A2988 RMK AO2 P0005 T00610039=
201504250819 SPECI KPAE 250819Z AUTO 12004KT 6SM -RA BR OVC028 06/04 A2989 RMK AO2 P0004 T00610039=
201504250753 METAR KPAE 250753Z AUTO 16005KT 9SM -RA FEW028 OVC038 06/04 A2990 RMK AO2 SLP125 P0001 T00610039 401170061=
201504250653 METAR KPAE 250653Z AUTO 11004KT 10SM -RA BKN046 OVC055 06/04 A2988 RMK AO2 RAE04B28 SLP121 P0000 T00610044=
201504250619 SPECI KPAE 250619Z AUTO 04004KT 10SM FEW018 BKN036 OVC060 06/04 A2988 RMK AO2 RAE04 P0000 T00610044=
201504250553 METAR KPAE 250553Z AUTO 05005KT 4SM -RA BKN020 BKN026 OVC033 07/04 A2988 RMK AO2 SLP119 P0007 60009 T00670039 10111 20061 51020=
201504250511 SPECI KPAE 250511Z AUTO 09004KT 7SM -RA BKN026 OVC035 07/04 A2987 RMK AO2 P0001 T00720044=
201504250453 METAR KPAE 250453Z AUTO 01004KT 8SM -RA FEW018 SCT029 OVC036 07/04 A2986 RMK AO2 RAB01E11B16 SLP113 P0002 T00720039 TSNO=
201504250446 SPECI KPAE 250446Z AUTO VRB04KT 6SM -RA SCT018 OVC034 08/03 A2986 RMK AO2 RAB01E11B16 P0001 T00780033=
201504250413 SPECI KPAE 250413Z AUTO 22008KT 10SM BKN025 BKN031 08/05 A2985 RMK AO2 RAB01E11 P0000 T00830050=
201504250353 METAR KPAE 250353Z AUTO 17008KT 10SM SCT028 BKN075 BKN085 09/04 A2984=
201504250253 METAR KPAE 250253Z 18010KT 10SM FEW070 FEW120 10/04 A2982 RMK AO2 SLP099 T01000039 53006=
201504250153 METAR KPAE 250153Z 15009G15KT 10SM SCT042 OVC055 10/03 A2981 RMK AO2 SLP097 T01000033=
201504250053 METAR KPAE 250053Z 16014KT 10SM FEW035 BKN060 11/03 A2981 RMK AO2 SLP094 T01060028=
201504242353 METAR KPAE 242353Z 17014G21KT 10SM SCT034 BKN042 BKN049 11/03 A2980 RMK AO2 SLP093 T01110033 10117 20100 50003=
201504242253 METAR KPAE 242253Z 16017KT 10SM SCT037 BKN110 11/03 A2981 RMK AO2 SLP095 T01060028=
201504242153 METAR KPAE 242153Z 17012KT 10SM FEW037 11/02 A2981 RMK AO2 SLP095 T01060022=
201504242053 METAR KPAE 242053Z 18013G20KT 10SM SCT029 BKN035 11/03 A2979 RMK AO2 PK WND 20029/1954 SLP090 T01060028 53003=
201504241953 METAR KPAE 241953Z 19021G28KT 10SM SCT030 12/03 A2978 RMK AO2 PK WND 19028/1922 SLP087 T01170033=
201504241853 METAR KPAE 241853Z 19020G28KT 10SM SCT026 10/03 A2979 RMK AO2 PK WND 18029/1816 SLP088 T01000028=
201504241753 METAR KPAE 241753Z 18015G27KT 10SM SCT028 10/03 A2978 RMK AO2 PK WND 19032/1718 SLP087 T01000033 10106 20061 52004=
201504241710 SPECI KPAE 241710Z 18020G27KT 10SM SCT022 09/03 A2978 RMK AO2 PK WND 17027/1710 T00940033=
201504241653 METAR KPAE 241653Z 19018G25KT 10SM BKN022 09/03 A2978 RMK AO2 PK WND 19026/1631 SLP085 T00890033=
201504241553 METAR KPAE 241553Z 19017KT 10SM SCT018 SCT023 07/03 A2977 RMK AO2 SLP084 T00720033=
201504241453 METAR KPAE 241453Z 19014KT 10SM OVC015 07/03 A2977 RMK AO2 SLP083 T00670033 53010=
201504241353 METAR KPAE 241353Z 18012G18KT 10SM OVC012 06/04 A2976 RMK AO2 SLP079 T00610039=
201504241339 SPECI KPAE 241339Z AUTO 18012KT 10SM BKN012 BKN024 06/04 A2976 RMK AO2 T00610039=
201504241253 METAR KPAE 241253Z AUTO 17014G21KT 10SM SCT015 06/03 A2974 RMK AO2 SLP072 T00610033=
201504241244 SPECI KPAE 241244Z AUTO 17014G23KT 10SM SCT015 06/03 A2974 RMK AO2 T00610033=
201504241208 SPECI KPAE 241208Z AUTO 18012G19KT 10SM BKN013 06/04 A2973 RMK AO2 T00610039=
201504241153 METAR KPAE 241153Z AUTO 17012KT 10SM OVC015 06/04 A2974 RMK AO2 SLP072 60001 70003 T00610039 10072 20061 58004=
201504241053 METAR KPAE 241053Z 18014G21KT 10SM BKN015 OVC034 06/03 A2974 RMK AO2 RAE08 SLP073 P0000 T00610033=
201504240953 METAR KPAE 240953Z 19014KT 9SM -RA FEW014 BKN021 OVC046 07/04 A2975 RMK AO2 RAB19 SLP076 P0001 T00670039=
201504240857 SPECI KPAE 240857Z 17013KT 10SM BKN030 OVC080 07/03 A2976 RMK AO2 T00720028=
201504240853 METAR KPAE 240853Z 17011KT 10SM BKN025 OVC070 07/03 A2976 RMK AO2 SLP078 T00720033 58009=
201504240753 METAR KPAE 240753Z 16009KT 10SM BKN025 OVC040 07/03 A2977 RMK AO2 SLP082 T00720033 401000067=
201504240653 METAR KPAE 240653Z 19010KT 10SM BKN030 07/03 A2978 RMK AO2 SLP084 T00720028=
201504240553 METAR KPAE 240553Z 19009KT 10SM CLR 07/03 A2978 RMK AO2 SLP087 60000 T00670033 10100 20067 51010=
201504240453 METAR KPAE 240453Z 17008KT 10SM BKN036 07/03 A2978 RMK AO2 SLP085 T00720033=
201504240353 METAR KPAE 240353Z 20014KT 10SM FEW095 08/03 A2976 RMK AO2 RAB0258E09 SLP080 P0000 T00780028=
201504240253 METAR KPAE 240253Z 18008KT 10SM BKN055 BKN080 OVC100 09/03 A2976 RMK AO2 SLP077 T00890033 55005=
201504240153 METAR KPAE 240153Z 19014KT 10SM BKN030 BKN070 10/03 A2975 RMK AO2 SLP076 T01000033=
201504240053 METAR KPAE 240053Z 18015G20KT 10SM FEW013 OVC065 09/05 A2976 RMK AO2 SLP078 T00940050=
201504232353 METAR KPAE 232353Z 17015KT 10SM FEW011 BKN017 OVC029 08/06 A2977 RMK AO2 RAB19E46 SLP083 P0000 60002 T00830061 10100 20083 58016=
201504232336 SPECI KPAE 232336Z 17014KT 4SM -RA BR BKN009 BKN019 OVC032 08/06 A2978 RMK AO2 RAB19 P0000 T00830061=
201504232302 SPECI KPAE 232302Z 18014KT 10SM SCT009 BKN024 OVC032 09/06 A2979 RMK AO2 T00890056=
201504232253 METAR KPAE 232253Z 17013KT 10SM FEW014 BKN024 OVC032 09/06 A2979 RMK AO2 RAE32 SLP089 P0000 T00890061=
201504232233 SPECI KPAE 232233Z 18012KT 10SM BKN014 OVC032 09/06 A2979 RMK AO2 RAE32 P0000 T00890061=
201504232153 METAR KPAE 232153Z 19013KT 7SM -RA BKN021 OVC030 09/05 A2981 RMK AO2 RAB10 SLP095 P0001 T00890050=
201504232053 METAR KPAE 232053Z 18014KT 10SM FEW023 SCT030 OVC037 09/05 A2982 RMK AO2 RAB1956E51 SLP099 P0000 60001 T00940050 56011=
201504231953 METAR KPAE 231953Z 17010KT 10SM BKN032 BKN045 OVC060 09/04 A2983 RMK AO2 RAB09E48 SLP103 P0001 T00940039=
201504231853 METAR KPAE 231853Z 18016G19KT 10SM BKN040 BKN050 OVC070 10/02 A2985 RMK AO2 RAB1757E22 SLP110 P0000 T01000017=
201504231753 METAR KPAE 231753Z 17012KT 10SM BKN034 OVC042 09/02 A2987 RMK AO2 SLP115 T00940022 10094 20072 58022=
201504231653 METAR KPAE 231653Z 18015KT 10SM SCT025 OVC045 09/02 A2989 RMK AO2 SLP122 T00940022=
201504231553 METAR KPAE 231553Z 18013G17KT 10SM SCT022 OVC070 08/03 A2991=
201504231504 SPECI KPAE 231504Z 16011KT 10SM SCT022 OVC070 08/02 A2993 RMK AO2 T00780022=
201504231453 METAR KPAE 231453Z 16011KT 10SM BKN022 OVC070 07/02 A2993 RMK AO2 SLP138 T00720022 56006=
201504231353 METAR KPAE 231353Z 16009KT 10SM SCT022 BKN031 OVC085 07/02 A2994=
201504231253 METAR KPAE 231253Z AUTO 16010KT 10SM OVC022 07/02 A2995 RMK AO2 SLP144 T00720017=
201504231219 SPECI KPAE 231219Z AUTO 15008KT 10SM BKN025 OVC038 07/01 A2996 RMK AO2 T00720011=
201504231153 METAR KPAE 231153Z AUTO 15008KT 10SM OVC040 07/01 A2997 RMK AO2 SLP151 T00720006 10078 20072 57017=
201504231053 METAR KPAE 231053Z AUTO 17006KT 10SM FEW032 OVC085 08/02 A2999 RMK AO2 SLP158 T00780022=
201504231030 SPECI KPAE 231030Z AUTO 15005KT 10SM OVC030 08/03 A3000 RMK AO2 T00780028=
201504230953 METAR KPAE 230953Z AUTO VRB03KT 10SM SCT021 OVC026 08/03 A3001 RMK AO2 SLP163 T00780028=
201504230938 SPECI KPAE 230938Z AUTO 00000KT 10SM FEW020 BKN028 OVC034 08/03 A3001 RMK AO2 T00780028=
201504230853 METAR KPAE 230853Z AUTO 33003KT 10SM OVC038 07/02 A3003 RMK AO2 SLP169 T00720022 58008=
201504230753 METAR KPAE 230753Z AUTO 34003KT 10SM BKN041 OVC070 08/03 A3004 RMK AO2 SLP174 T00780028 401280056=
201504230653 METAR KPAE 230653Z AUTO 34005KT 10SM SCT041 SCT050 OVC070 08/03 A3004 RMK AO2 SLP175 T00780033=
201504230553 METAR KPAE 230553Z AUTO 34003KT 10SM FEW050 OVC065 08/03 A3005 RMK AO2 SLP177 T00780033 10117 20078 56007=
201504230453 METAR KPAE 230453Z AUTO 35005KT 10SM OVC055 08/03 A3005 RMK AO2 SLP180 T00780028=
201504230353 METAR KPAE 230353Z AUTO 34005KT 10SM SCT060 OVC075 08/02 A3006 RMK AO2 SLP181 T00830022=
201504230253 METAR KPAE 230253Z 35005KT 10SM FEW060 OVC080 09/02 A3007 RMK AO2 SLP186 T00890022 56018=
201504230153 METAR KPAE 230153Z 34008KT 10SM BKN060 OVC075 10/02 A3008 RMK AO2 SLP190 T01000022=
201504230053 METAR KPAE 230053Z 36006KT 10SM BKN070 11/03 A3010 RMK AO2 SLP195 T01060033=
201504222353 METAR KPAE 222353Z 35006KT 10SM SCT050 12/03 A3013 RMK AO2 SLP203 T01170028 10128 20083 56016=
201504222253 METAR KPAE 222253Z 36006KT 10SM CLR 12/03 A3014 RMK AO2 SLP208 T01220028=
201504222153 METAR KPAE 222153Z 28006KT 10SM SCT032 12/01 A3015 RMK AO2 SLP213 T01170011=
201504222053 METAR KPAE 222053Z 32004KT 10SM SCT032 12/M01 A3017 RMK AO2 SLP219 T01221006 58006=
201504221953 METAR KPAE 221953Z 30004KT 10SM SCT037 11/01 A3018 RMK AO2 SLP221 T01110011=
201504221853 METAR KPAE 221853Z VRB03KT 10SM SCT029 10/03 A3019=
201504221800 SPECI KPAE 221800Z VRB03KT 10SM FEW026 SCT032 09/04 A3019 RMK AO2 T00890039=
201504221753 METAR KPAE 221753Z 34003KT 10SM SCT006 BKN015 08/03 A3019 RMK AO2 SLP227 T00830028 10089 20056 53004=
201504221653 METAR KPAE 221653Z VRB03KT 10SM SCT006 OVC015 08/03 A3018 RMK AO2 SLP224 T00780028=
201504221648 SPECI KPAE 221648Z 00000KT 10SM SCT006 OVC015 08/03 A3018 RMK AO2=
201504221553 METAR KPAE 221553Z 18006KT 10SM SCT006 08/04 A3018 RMK AO2 SLP223 T00780044=
201504221500 SPECI KPAE 221500Z 17007KT 9SM SCT006 06/04 A3018 RMK AO2 T00610044=
201504221453 METAR KPAE 221453Z 17007KT 10SM OVC006 06/04 A3018 RMK AO2 SLP223 T00610044 53014=
201504221400 METAR KPAE NIL=
201504221357 SPECI KPAE 221357Z VRB04KT 10SM OVC006 06/04 A3017 RMK AO2 T00560039=
201504221348 METAR KPAE 221348Z AUTO 15004KT 10SM FEW006 BKN010 OVC055 06/04 A3017=
201504221347 SPECI KPAE 221347Z AUTO 15004KT 10SM FEW006 BKN011 OVC055 06/04 A3017 RMK AO2=
201504221253 METAR KPAE 221253Z AUTO 19007KT 10SM BKN060 06/04 A3014 RMK AO2 SLP211 T00560039=
201504221153 METAR KPAE 221153Z AUTO 20004KT 10SM BKN060 BKN070 06/04 A3014 RMK AO2 SLP209 60004 70021 T00560039 10072 20056 53006=
201504221053 METAR KPAE 221053Z AUTO 20007KT 10SM BKN055 06/04 A3012 RMK AO2 SLP202 T00610039=
201504221038 SPECI KPAE 221038Z AUTO 19005KT 10SM SCT024 BKN060 06/04 A3012 RMK AO2 T00560039=
201504220953 METAR KPAE 220953Z AUTO 17005KT 10SM BKN023 BKN035 06/04 A3012 RMK AO2 SLP201 T00560039=
201504220941 SPECI KPAE 220941Z AUTO 17005KT 10SM BKN023 06/04 A3012 RMK AO2 T00560039=
201504220853 METAR KPAE 220853Z AUTO 16006KT 10SM SCT027 SCT046 06/04 A3012 RMK AO2 SLP202 60004 T00560039 51003=
201504220848 SPECI KPAE 220848Z AUTO 16006KT 10SM SCT027 06/04 A3012 RMK AO2=
201504220753 METAR KPAE 220753Z AUTO 16007KT 10SM FEW006 BKN025 OVC030 06/04 A3012 RMK AO2 RAE37 SLP201 P0001 T00610044 401440061=
201504220734 SPECI KPAE 220734Z AUTO VRB03KT 10SM -RA FEW006 OVC023 06/05 A3012 RMK AO2 P0001 T00610050=
201504220707 SPECI KPAE 220707Z AUTO VRB03KT 7SM -RA BKN026 OVC031 07/04 A3011 RMK AO2 P0000 T00670044=
201504220653 METAR KPAE 220653Z AUTO 12006KT 5SM -RA BR BKN031 OVC042 07/04 A3011 RMK AO2 SLP199 P0003 T00670044=
201504220553 METAR KPAE 220553Z AUTO VRB03KT 9SM -RA BKN039 OVC050 07/04 A3011 RMK AO2 SLP197 P0002 60017 T00720044 10094 20067 51019=
201504220453 METAR KPAE 220453Z AUTO 04004KT 5SM -RA BR FEW016 SCT023 OVC030 07/04 A3010 RMK AO2 SLP195 P0004 T00670044=
201504220353 METAR KPAE 220353Z AUTO 03010KT 8SM -RA FEW019 BKN029 OVC034 07/04 A3008 RMK AO2 SLP187 P0008 T00670039=
201504220253 METAR KPAE 220253Z 01008KT 4SM RA BKN015 OVC020 07/04 A3005 RMK AO2 SLP178 P0003 60003 T00720044 53017=
201504220153 METAR KPAE 220153Z 35009KT 4SM -RA BKN016 OVC026 08/05 A3003 RMK AO2 RAB0056 SLP171 P0000 T00780050=
201504220144 SPECI KPAE 220144Z 35009G15KT 5SM -RA OVC014 08/05 A3003 RMK AO2 RAB0056 P0000 T00780050=
201504220053 METAR KPAE 220053Z 35009G18KT 10SM OVC028 08/04 A3001 RMK AO2 SLP165 T00830044=
201504220036 SPECI KPAE 220036Z 36007KT 10SM OVC029 09/04 A3001 RMK AO2 T00890044=
201504212353 METAR KPAE 212353Z VRB06G16KT 10SM BKN031 OVC041 09/05 A3000 RMK AO2 SLP161 T00940050 10144 20094 53008=
201504212329 SPECI KPAE 212329Z 35008G15KT 10SM BKN030 OVC050 11/05 A3000 RMK AO2 T01060050=
201504212320 SPECI KPAE 212320Z 33006KT 10SM BKN029 OVC050 11/05 A3000 RMK AO2 T01060050=
201504212300 SPECI KPAE 212300Z 34008G15KT 10SM FEW029 OVC055 11/06 A2999 RMK AO2 T01110056=
201504212253 METAR KPAE 212253Z 34010G16KT 10SM BKN021 OVC055 12/06 A2999 RMK AO2 SLP156 T01170056=
201504212153 METAR KPAE 212153Z 36010G17KT 10SM BKN021 OVC055 13/07 A2998 RMK AO2 SLP152 T01280072=
201504212053 METAR KPAE 212053Z 01007KT 330V030 10SM OVC020 13/07 A2998 RMK AO2 SLP152 T01280072 51008=
201504211953 METAR KPAE 211953Z 01008KT 10SM OVC016 12/07 A2997 RMK AO2 SLP150 T01220072=
201504211853 METAR KPAE 211853Z 36007G16KT 10SM SCT010 BKN014 OVC080 13/09 A2996 RMK AO2 SLP146 T01330089=
201504211842 SPECI KPAE 211842Z VRB06KT 10SM FEW010 SCT014 OVC080 13/09 A2996 RMK AO2 T01330089=
201504211817 SPECI KPAE 211817Z 01008KT 10SM BKN014 14/09 A2996 RMK AO2 T01390094=
201504211753 METAR KPAE 211753Z 36005KT 10SM FEW018 14/09 A2995 RMK AO2 SLP143 T01440089 10144 20100 51012=
201504211653 METAR KPAE 211653Z 03004KT 10SM FEW080 13/08 A2994 RMK AO2 SLP139 T01280083=
201504211553 METAR KPAE 211553Z COR VRB05KT 10SM BKN070 12/08 A2993 RMK AO2 SLP135 T01170083=
201504211523 SPECI KPAE 211523Z 02005KT 10SM SCT005 SCT070 11/08 A2992 RMK AO2 T01060083=
201504211453 METAR KPAE 211453Z 02008KT 10SM OVC005 10/08 A2992 RMK AO2 SLP131 T01000083 53010=
201504211406 SPECI KPAE 211406Z 03005KT 10SM BKN006 10/08 A2991 RMK AO2 T01000078=
201504211353 METAR KPAE 211353Z 02008KT 10SM SCT006 10/08 A2990 RMK AO2 SLP126 T01000078=
201504211311 SPECI KPAE 211311Z AUTO 02005KT 10SM BKN005 10/08 A2990 RMK AO2 T01000078=
201504211253 METAR KPAE 211253Z AUTO 02007KT 10SM FEW005 10/08 A2989 RMK AO2 SLP122 T01000078=
201504211227 SPECI KPAE 211227Z AUTO 02007KT 10SM FEW005 10/08 A2989 RMK AO2 T01000083=
201504211153 METAR KPAE 211153Z AUTO 02005KT 10SM CLR 10/08 A2989 RMK AO2 SLP120 T01000078 10128 20100 53004=
201504211053 METAR KPAE 211053Z AUTO 03006KT 10SM CLR 12/06 A2988 RMK AO2 SLP117 T01170061=
201504210953 METAR KPAE 210953Z AUTO 05005KT 10SM CLR 12/06 A2988 RMK AO2 SLP115 T01220061=
201504210853 METAR KPAE 210853Z AUTO VRB06KT 10SM CLR 12/06 A2988 RMK AO2 SLP115 T01170061 50001=
201504210753 METAR KPAE 210753Z AUTO 05006KT 10SM CLR 12/06 A2988 RMK AO2 SLP117 T01220061 402060072=
201504210653 METAR KPAE 210653Z AUTO 02007KT 10SM CLR 13/06 A2987 RMK AO2 SLP115 T01280061=
201504210553 METAR KPAE 210553Z AUTO 02007KT 10SM CLR 12/07 A2987 RMK AO2 SLP115 T01220067 10206 20117 51006=
201504210453 METAR KPAE 210453Z AUTO 02008KT 10SM CLR 12/07 A2987 RMK AO2 SLP115 T01220067=
201504210353 METAR KPAE 210353Z AUTO 36005KT 10SM CLR 14/08 A2987 RMK AO2 SLP113 T01440078=
201504210253 METAR KPAE 210253Z AUTO 35003KT 10SM CLR 17/06 A2985 RMK AO2 SLP107 T01720056 56006 TSNO=
201504210153 METAR KPAE 210153Z 34004KT 10SM CLR 19/06 A2985 RMK AO2 SLP109 T01890056=
201504210053 METAR KPAE 210053Z VRB03KT 10SM CLR 20/07 A2986 RMK AO2 SLP111 T02000067=
201504202353 METAR KPAE 202353Z VRB03KT 10SM CLR 20/06 A2987 RMK AO2 SLP114 T02000061 10206 20156 58017=
201504202253 METAR KPAE 202253Z 01006KT 10SM CLR 20/06 A2989 RMK AO2 SLP120 T02000061=
201504202153 METAR KPAE 202153Z 36006KT 10SM CLR 20/08 A2991 RMK AO2 SLP126 T02000078=
201504202053 METAR KPAE 202053Z VRB04KT 10SM CLR 19/08 A2992 RMK AO2 SLP132 T01890078 58010=
201504201953 METAR KPAE 201953Z VRB04KT 10SM CLR 18/08 A2993 RMK AO2 SLP136 T01780083=
201504201853 METAR KPAE 201853Z VRB05KT 10SM CLR 17/07 A2995 RMK AO2 SLP140 T01720072=
201504201753 METAR KPAE 201753Z VRB03KT 10SM CLR 16/07 A2995 RMK AO2 SLP142 T01610067 10161 20072 57006=
201504201653 METAR KPAE 201653Z 31004KT 10SM CLR 14/07 A2996 RMK AO2 SLP144 T01440067=
201504201553 METAR KPAE 201553Z 00000KT 10SM CLR 13/06 A2996 RMK AO2 SLP146 T01330061=
201504201453 METAR KPAE 201453Z 00000KT 10SM CLR 12/07 A2997 RMK AO2 SLP148 T01220072 56002=
201504201353 METAR KPAE 201353Z 36003KT 10SM CLR 09/06 A2997 RMK AO2 SLP148 T00890056=
201504201253 METAR KPAE 201253Z AUTO 00000KT 10SM CLR 09/06 A2997 RMK AO2 SLP149 T00940056=
201504201153 METAR KPAE 201153Z AUTO 03003KT 10SM CLR 08/06 A2997=
201504201053 METAR KPAE 201053Z AUTO 00000KT 10SM CLR 08/06 A2998 RMK AO2 SLP151 T00780061=
201504200953 METAR KPAE 200953Z AUTO 00000KT 10SM CLR 09/07 A2998 RMK AO2 SLP152 T00940067=
201504200853 METAR KPAE 200853Z AUTO 00000KT 10SM CLR 09/07 A2998 RMK AO2 SLP153 T00940067 56007=
201504200753 METAR KPAE 200753Z AUTO 01003KT 10SM CLR 10/06 A2999 RMK AO2 SLP155 T01000056 401780067=
201504200653 METAR KPAE 200653Z AUTO 02003KT 10SM CLR 11/06 A2999 RMK AO2 SLP156 T01060056=
201504200553 METAR KPAE 200553Z AUTO 00000KT 10SM CLR 12/06 A3000 RMK AO2 SLP161 T01170056 10178 20111 58006=
201504200453 METAR KPAE 200453Z AUTO 00000KT 10SM CLR 13/07 A3001 RMK AO2 SLP163 T01280067=
201504200353 METAR KPAE 200353Z AUTO 00000KT 10SM CLR 13/07 A3002=
201504200253 METAR KPAE 200253Z 36003KT 10SM CLR 14/07 A3002 RMK AO2 SLP168 T01440067 56015=
201504200153 METAR KPAE 200153Z 35006KT 10SM CLR 16/07 A3004 RMK AO2 SLP172 T01610067=
201504200053 METAR KPAE 200053Z 34008KT 10SM CLR 17/07 A3005 RMK AO2 SLP177 T01670067=
201504192353 METAR KPAE 192353Z 35007KT 10SM CLR 17/07 A3007 RMK AO2 SLP182 T01720072 10178 20128 58021=
201504192253 METAR KPAE 192253Z 36006KT 10SM CLR 17/08 A3009 RMK AO2 SLP189 T01720078=
201504192153 METAR KPAE 192153Z 36007KT 320V020 10SM CLR 17/08 A3011 RMK AO2 SLP197 T01670078=
201504192053 METAR KPAE 192053Z 01008KT 10SM CLR 16/07 A3013 RMK AO2 SLP203 T01560072 58021=
201504191953 METAR KPAE 191953Z 01007KT 10SM CLR 16/07 A3015 RMK AO2 SLP210 T01560072=
201504191853 METAR KPAE 191853Z 01006KT 10SM CLR 14/07 A3017 RMK AO2 SLP219 T01440067=
201504191753 METAR KPAE 191753Z VRB05KT 10SM CLR 13/07 A3019 RMK AO2 SLP225 T01280072 10128 20067 58009=
201504191653 METAR KPAE 191653Z 36007KT 10SM CLR 11/06 A3020 RMK AO2 SLP228 T01110061=
201504191553 METAR KPAE 191553Z 36005KT 10SM CLR 10/06 A3021 RMK AO2 SLP232 T01000061=
201504191453 METAR KPAE 191453Z 01003KT 10SM CLR 09/05 A3022 RMK AO2 SLP234 T00940050 56002=
201504191353 METAR KPAE 191353Z 03003KT 10SM CLR 08/05 A3022 RMK AO2 SLP234 T00780050=
201504191253 METAR KPAE 191253Z AUTO 01003KT 10SM CLR 07/04 A3022 RMK AO2 SLP234 T00720039=
201504191153 METAR KPAE 191153Z AUTO 02003KT 10SM CLR 08/04 A3023 RMK AO2 SLP236 T00780044 10106 20078 56005=
201504191053 METAR KPAE 191053Z AUTO 01003KT 10SM CLR 08/05 A3023 RMK AO2 SLP237 T00830050=
201504190953 METAR KPAE 190953Z AUTO 01003KT 10SM CLR 08/05 A3023 RMK AO2 SLP237 T00830050=
201504190853 METAR KPAE 190853Z AUTO 01003KT 10SM CLR 09/05 A3024 RMK AO2 SLP241 T00940050 56004=
201504190753 METAR KPAE 190753Z AUTO 36005KT 10SM CLR 09/04 A3024 RMK AO2 SLP242 T00940044 401610078=
201504190653 METAR KPAE 190653Z AUTO 36004KT 10SM CLR 10/04 A3025 RMK AO2 SLP243 T01000044=
201504190553 METAR KPAE 190553Z AUTO 00000KT 10SM CLR 11/07 A3025 RMK AO2 SLP246 T01060067 10161 20100 58001=
201504190453 METAR KPAE 190453Z AUTO 00000KT 10SM CLR 11/07 A3026 RMK AO2 SLP247 T01060067=
201504190353 METAR KPAE 190353Z 35003KT 10SM CLR 12/06 A3025 RMK AO2 SLP246 T01170061=
201504190253 METAR KPAE 190253Z VRB03KT 10SM CLR 12/06 A3026 RMK AO2 SLP247 T01220061 56013=
201504190153 METAR KPAE 190153Z 36005KT 10SM CLR 14/06 A3027 RMK AO2 SLP250 T01390061=
201504190053 METAR KPAE 190053Z 01005KT 10SM CLR 15/06 A3029 RMK AO2 SLP257 T01500056=
201504182353 METAR KPAE 182353Z 36006KT 10SM CLR 16/07 A3030 RMK AO2 SLP260 T01610072 10161 20122 56012=
201504182253 METAR KPAE 182253Z 35007KT 10SM CLR 16/07 A3030 RMK AO2 SLP262 T01610072=
201504182153 METAR KPAE 182153Z 01006KT 10SM CLR 16/08 A3032 RMK AO2 SLP267 T01560078=
201504182053 METAR KPAE 182053Z 36007KT 10SM CLR 15/07 A3033 RMK AO2 SLP273 T01500067 56013=
201504181953 METAR KPAE 181953Z VRB06KT 10SM CLR 14/07 A3034 RMK AO2 SLP275 T01440067=
201504181853 METAR KPAE 181853Z 02007KT 10SM CLR 13/06 A3036 RMK AO2 SLP282 T01330061=
201504181753 METAR KPAE 181753Z 35005KT 10SM CLR 12/06 A3037 RMK AO2 SLP286 T01170061 10122 20078 50001=
201504181653 METAR KPAE 181653Z 35007KT 10SM CLR 11/06 A3038 RMK AO2 SLP288 T01060061=
201504181553 METAR KPAE 181553Z 36008KT 10SM CLR 10/06 A3037 RMK AO2 SLP286 T01000056=
201504181453 METAR KPAE 181453Z 02004KT 10SM CLR 09/05 A3037 RMK AO2 SLP285 T00940050 51006=
201504181353 METAR KPAE 181353Z 02005KT 10SM CLR 08/04 A3037 RMK AO2 SLP284 T00780039=
201504181253 METAR KPAE 181253Z AUTO 02006KT 10SM CLR 08/03 A3036 RMK AO2 SLP281 T00830033=
201504181153 METAR KPAE 181153Z AUTO 35005KT 10SM CLR 08/03 A3035 RMK AO2 SLP279 T00830028 10100 20083 53007=
201504181053 METAR KPAE 181053Z AUTO 01006KT 10SM CLR 09/02 A3034 RMK AO2 SLP275 T00890017=
201504180953 METAR KPAE 180953Z AUTO 02007KT 10SM CLR 09/03 A3033 RMK AO2 SLP272 T00940028=
201504180853 METAR KPAE 180853Z AUTO 36005KT 10SM CLR 09/06 A3033 RMK AO2 SLP271 T00890061 51008=
201504180753 METAR KPAE 180753Z AUTO 36005KT 10SM CLR 09/07 A3032 RMK AO2 SLP270 T00890067 401720078=
201504180653 METAR KPAE 180653Z AUTO 01006KT 10SM CLR 09/07 A3032 RMK AO2 SLP268 T00940067=
201504180553 METAR KPAE 180553Z AUTO 35008KT 10SM CLR 10/07 A3031 RMK AO2 SLP264 T01000067 10161 20100 51014=
201504180453 METAR KPAE 180453Z AUTO 01006KT 10SM CLR 10/08 A3030 RMK AO2 SLP261 T01000078=
201504180353 METAR KPAE 180353Z 35007KT 10SM CLR 11/08 A3028 RMK AO2 SLP256 T01060078=
201504180253 METAR KPAE 180253Z 36006KT 10SM SCT060 12/08 A3026 RMK AO2 SLP249 T01170078 51003=
201504180153 METAR KPAE 180153Z 34005KT 10SM CLR 13/08 A3026 RMK AO2 SLP248 T01280083=
201504180053 METAR KPAE 180053Z 32004KT 10SM FEW060 14/08 A3026 RMK AO2 SLP248 T01440083=
201504172353 METAR KPAE 172353Z 35008G15KT 10SM CLR 16/06 A3026 RMK AO2 SLP247 T01610061 10172 20117 55002=
201504172253 METAR KPAE 172253Z 36008KT 10SM CLR 17/06 A3025 RMK AO2 SLP244 T01720061=
201504172153 METAR KPAE 172153Z VRB06KT 10SM CLR 17/06 A3025 RMK AO2 SLP246 T01670061=
201504172053 METAR KPAE 172053Z VRB06KT 10SM CLR 16/06 A3026 RMK AO2 SLP249 T01610061 58001=
201504171953 METAR KPAE 171953Z VRB05KT 10SM CLR 16/06 A3027 RMK AO2 SLP250 T01560061=
201504171853 METAR KPAE 171853Z 36009G15KT 330V030 10SM CLR 14/07 A3027 RMK AO2 SLP252 T01390067=
201504171753 METAR KPAE 171753Z 28006KT 10SM CLR 12/07 A3027 RMK AO2 SLP250 T01170067 10133 20078 53003=
201504171653 METAR KPAE 171653Z VRB03KT 10SM BKN110 12/07 A3025 RMK AO2 SLP244 T01170067=
201504171613 SPECI KPAE 171613Z 01003KT 9SM SCT006 11/08 A3026 RMK AO2 T01110078=
201504171553 METAR KPAE 171553Z 36005KT 9SM BKN006 10/08 A3026 RMK AO2 SLP249 T01000078=
201504171545 SPECI KPAE 171545Z 02004KT 10SM SCT004 10/08 A3026 RMK AO2 T01000078=
201504171510 SPECI KPAE 171510Z 01007KT 6SM BR OVC004 09/08 A3025 RMK AO2 CIG 003V008 T00940078=
201504171453 METAR KPAE 171453Z 36007KT 8SM OVC005 09/08 A3025 RMK AO2 SLP246 T00940078 53010=
201504171353 METAR KPAE 171353Z 35005KT 4SM BR OVC002 08/07 A3025 RMK AO2 SLP244 T00830072=
201504171322 SPECI KPAE 171322Z AUTO 35005KT 5SM BR OVC002 08/07 A3024 RMK AO2 T00780072=
201504171253 METAR KPAE 171253Z AUTO 01004KT 4SM BR OVC001 08/07 A3022 RMK AO2 SLP234 T00830072=
201504171246 SPECI KPAE 171246Z AUTO 35004KT 3SM R16R/5500VP6000FT BR OVC001 08/07 A3022 RMK AO2 T00830072=
201504171226 SPECI KPAE 171226Z AUTO 01005KT 2 1/2SM R16R/5000VP6000FT BR OVC001 08/07 A3022 RMK AO2 T00830072=
201504171153 METAR KPAE 171153Z AUTO 34005KT 7SM BKN003 08/07 A3023 RMK AO2 SLP236 T00780067 10094 20078 55000=
201504171053 METAR KPAE 171053Z AUTO 01004KT 6SM BR OVC002 08/08 A3022 RMK AO2 SLP234 T00830078=
201504171024 SPECI KPAE 171024Z AUTO 36004KT 9SM BKN003 08/07 A3022 RMK AO2 T00830072=
201504171013 SPECI KPAE 171013Z AUTO 35004KT 10SM SCT004 08/07 A3022 RMK AO2 T00780067=
201504170953 METAR KPAE 170953Z AUTO 36004KT 10SM CLR 08/06 A3022 RMK AO2 SLP234 T00780056=
201504170853 METAR KPAE 170853Z AUTO 00000KT 10SM CLR 08/06 A3023 RMK AO2 SLP236 T00830061 58001=
201504170753 METAR KPAE 170753Z AUTO 35004KT 10SM CLR 09/06 A3023 RMK AO2 SLP238 T00890056 401560039=
201504170653 METAR KPAE 170653Z AUTO 36003KT 10SM CLR 09/05 A3023 RMK AO2 SLP238 T00890050=
201504170553 METAR KPAE 170553Z AUTO 01003KT 10SM CLR 09/06 A3023 RMK AO2 SLP237 T00940056 10156 20094 58001=
201504170453 METAR KPAE 170453Z AUTO 35004KT 10SM CLR 11/04 A3023 RMK AO2 SLP239 T01060044=
201504170353 METAR KPAE 170353Z AUTO 35004KT 10SM CLR 11/04 A3023 RMK AO2 SLP239 T01060039=
201504170253 METAR KPAE 170253Z 34004KT 10SM CLR 12/04 A3023 RMK AO2 SLP239 T01220039 58016=
201504170153 METAR KPAE 170153Z 33007KT 10SM CLR 14/04 A3025 RMK AO2 SLP245 T01440039=
201504170053 METAR KPAE 170053Z 35008KT 10SM CLR 15/03 A3026 RMK AO2 SLP250 T01500028=
201504162353 METAR KPAE 162353Z 32010G15KT 10SM CLR 15/03 A3028 RMK AO2 SLP255 T01500028 10156 20106 58017=
201504162253 METAR KPAE 162253Z 34009G15KT 10SM CLR 15/04 A3030 RMK AO2 SLP261 T01500039=
201504162153 METAR KPAE 162153Z 34009KT 10SM CLR 14/03 A3031 RMK AO2 SLP266 T01390033=
201504162053 METAR KPAE 162053Z 36007KT 10SM CLR 14/03 A3033 RMK AO2 SLP271 T01390028 58018=
201504161953 METAR KPAE 161953Z 35005KT 10SM CLR 13/02 A3035 RMK AO2 SLP280 T01280022=
201504161853 METAR KPAE 161853Z VRB06KT 10SM CLR 12/03 A3037 RMK AO2 SLP287 T01170028=
201504161753 METAR KPAE 161753Z 35004KT 10SM CLR 11/01 A3038 RMK AO2 SLP290 T01110011 10111 20039 58010=
201504161653 METAR KPAE 161653Z 09003KT 10SM CLR 10/02 A3039 RMK AO2 SLP293 T01000017=
201504161553 METAR KPAE 161553Z 00000KT 10SM CLR 09/02 A3040 RMK AO2 SLP298 T00890022=
201504161453 METAR KPAE 161453Z 11004KT 10SM CLR 06/01 A3041 RMK AO2 SLP302 T00560011 55003=
201504161353 METAR KPAE 161353Z 00000KT 10SM CLR 04/01 A3041 RMK AO2 SLP301 T00390011=
201504161253 METAR KPAE 161253Z AUTO 13004KT 10SM CLR 04/01 A3042 RMK AO2 SLP302 T00440011=
201504161153 METAR KPAE 161153Z AUTO VRB03KT 10SM CLR 05/01 A3042 RMK AO2 SLP303 T00500011 10078 20044 56012=
201504161053 METAR KPAE 161053Z AUTO 12003KT 10SM CLR 05/01 A3043 RMK AO2 SLP306 T00500011=
201504160953 METAR KPAE 160953Z AUTO 00000KT 10SM CLR 07/01 A3043 RMK AO2 SLP308 T00720006=
201504160853 METAR KPAE 160853Z AUTO 04003KT 10SM CLR 07/00 A3046 RMK AO2 SLP316 T00720000 58006=
201504160753 METAR KPAE 160753Z AUTO 04003KT 10SM CLR 07/02 A3047 RMK AO2 SLP319 T00720017 401280033=
201504160653 METAR KPAE 160653Z AUTO 36004KT 10SM CLR 06/03 A3047 RMK AO2 SLP320 T00610028=
201504160553 METAR KPAE 160553Z AUTO 36004KT 10SM CLR 07/02 A3048 RMK AO2 SLP323 T00720022 10122 20067 50002=
201504160453 METAR KPAE 160453Z AUTO 34003KT 10SM CLR 08/02 A3048 RMK AO2 SLP325 T00780022=
201504160353 METAR KPAE 160353Z AUTO 36003KT 10SM CLR 09/02 A3048 RMK AO2 SLP323 T00890022=
201504160253 METAR KPAE 160253Z 35004KT 10SM CLR 09/01 A3047 RMK AO2 SLP321 T00940006 58013=
201504160153 METAR KPAE 160153Z 36005KT 10SM CLR 11/01 A3048 RMK AO2 SLP325 T01110006=
201504160053 METAR KPAE 160053Z VRB04KT 10SM CLR 12/00 A3050 RMK AO2 SLP331 T01170000=
201504152353 METAR KPAE 152353Z 35006KT 10SM CLR 12/M01 A3051 RMK AO2 SLP333 T01221006 10128 20078 58008=
201504152253 METAR KPAE 152253Z VRB04KT 10SM CLR 12/M01 A3051 RMK AO2 SLP335 T01221011=
201504152153 METAR KPAE 152153Z 31005KT 10SM SCT037 11/M01 A3053 RMK AO2 SLP340 T01111006=
201504152053 METAR KPAE 152053Z 29005KT 10SM BKN037 11/01 A3053 RMK AO2 SLP342 T01060011 58007=
201504151953 METAR KPAE 151953Z 27004KT 10SM SCT020 10/02 A3054 RMK AO2 SLP344 T01000017=
201504151853 METAR KPAE 151853Z 26004KT 10SM BKN019 09/04 A3055 RMK AO2 SLP349 T00890039=
201504151817 SPECI KPAE 151817Z 21003KT 10SM FEW023 SCT028 BKN049 09/04 A3055 RMK AO2 T00890039=
201504151806 SPECI KPAE 151806Z VRB04KT 10SM FEW023 BKN028 OVC049 08/04 A3055 RMK AO2 T00780039=
201504151753 METAR KPAE 151753Z 30006KT 10SM BKN030 BKN040 08/04 A3055 RMK AO2 SLP350 60000 T00830044 10094 20033 53006=
201504151653 METAR KPAE 151653Z 17006KT 10SM CLR 08/02 A3054 RMK AO2 SLP347 T00780022=
201504151553 METAR KPAE 151553Z 15006KT 10SM SCT050 06/03 A3054 RMK AO2 SLP346 T00610033=
201504151453 METAR KPAE 151453Z 17003KT 10SM OVC050 05/03 A3054 RMK AO2 SLP343 60000 T00500033 53018=
201504151353 METAR KPAE 151353Z 16005KT 10SM BKN050 04/03 A3051 RMK AO2 SLP336 T00440028=
201504151253 METAR KPAE 151253Z AUTO 17004KT 10SM FEW050 04/02 A3050 RMK AO2 RAE1155 SLP331 P0000 T00390022=
201504151153 METAR KPAE 151153Z AUTO 21004KT 10SM -RA FEW025 OVC038 05/03 A3048 RMK AO2 RAB36 SLP326 P0000 60000 70005 T00500028 10067 20039 53009=
201504151053 METAR KPAE 151053Z AUTO 19005KT 10SM FEW021 SCT049 04/02 A3047 RMK AO2 SLP322 T00390017=
201504150953 METAR KPAE 150953Z AUTO 17003KT 10SM CLR 04/02 A3046=
201504150853 METAR KPAE 150853Z AUTO 00000KT 10SM CLR 05/M01 A3046 RMK AO2 SLP316 T00501006 51010=
201504150753 METAR KPAE 150753Z AUTO 35003KT 10SM FEW060 06/00 A3045 RMK AO2 SLP314 T00610000 401060028=
201504150653 METAR KPAE 150653Z AUTO 36005KT 10SM CLR 06/02 A3044 RMK AO2 SLP311 T00610017=
201504150553 METAR KPAE 150553Z AUTO 33003KT 10SM SCT024 07/02 A3043 RMK AO2 SLP307 T00670022 10094 20067 51009=
201504150453 METAR KPAE 150453Z AUTO 29006KT 10SM BKN029 07/02 A3041 RMK AO2 SLP302 T00720017=
201504150353 METAR KPAE 150353Z AUTO 32004KT 10SM BKN036 08/02 A3040 RMK AO2 SLP297 T00780022=
201504150253 METAR KPAE 150253Z 31003KT 10SM SCT038 BKN110 08/02 A3038 RMK AO2 SLP290 T00830022 53012=
201504150153 METAR KPAE 150153Z 25003KT 10SM SCT049 BKN120 08/02 A3036 RMK AO2 SLP286 T00830017=
201504150053 METAR KPAE 150053Z 30004KT 10SM FEW065 BKN110 09/02 A3035 RMK AO2 SLP281 T00940017=
201504142353 METAR KPAE 142353Z 27007KT 10SM BKN090 BKN110 09/02 A3034 RMK AO2 SLP278 60000 T00890017 10106 20072 51010=
201504142253 METAR KPAE 142253Z 28005KT 10SM SCT100 10/03 A3034 RMK AO2 SLP275 T01000028=
201504142153 METAR KPAE 142153Z 26010KT 10SM BKN045 BKN055 09/02 A3032 RMK AO2 SLP271 T00940017=
201504142053 METAR KPAE 142053Z 22007KT 10SM FEW045 10/02 A3031 RMK AO2 SLP268 60000 T01000017 51013=
201504141953 METAR KPAE 141953Z 21009KT 10SM FEW042 09/02 A3030 RMK AO2 RAB12E28 SLP265 P0000 T00890022=
201504141853 METAR KPAE 141853Z 22005KT 10SM BKN065 09/01 A3029 RMK AO2 SLP260 T00890006=
201504141753 METAR KPAE 141753Z 23005KT 10SM SCT020 BKN060 07/02 A3027 RMK AO2 SLP254 60005 T00720017 10078 20033 53028=
201504141653 METAR KPAE 141653Z 21005KT 10SM SCT006 SCT022 07/03 A3024 RMK AO2 SLP245 T00670033=
201504141602 SPECI KPAE 141602Z VRB03KT 10SM SCT006 SCT022 06/02 A3022 RMK AO2 T00560022=
201504141553 METAR KPAE 141553Z 26004KT 10SM FEW022 SCT060 06/02 A3021 RMK AO2 SLP234 T00560022=
201504141453 METAR KPAE 141453Z VRB04KT 10SM FEW009 SCT020 04/02 A3019 RMK AO2 SLP227 60005 T00440022 53023=
201504141353 METAR KPAE 141353Z 28004KT 10SM FEW025 SCT031 BKN060 03/02 A3015 RMK AO2 RAE09 SLP214 P0001 T00330017=
201504141341 SPECI KPAE 141341Z AUTO 25003KT 10SM SCT025 OVC031 03/02 A3014 RMK AO2 RAE09 P0001 T00330017=
201504141253 METAR KPAE 141253Z AUTO 33009G16KT 5SM +RA BR FEW009 BKN016 OVC025 04/02 A3012 RMK AO2 RAB21 SLP204 P0004 T00390017=
201504141251 SPECI KPAE 141251Z AUTO 33009G15KT 5SM +RA BR FEW009 BKN016 OVC025 04/02 A3012 RMK AO2 RAB21 P0004=
201504141221 SPECI KPAE 141221Z AUTO 23007KT 190V260 10SM -RA BKN029 OVC038 04/02 A3010 RMK AO2 RAB21 P0000 T00440022=
201504141153 METAR KPAE 141153Z AUTO 19007KT 10SM FEW017 BKN033 OVC048 04/02 A3009 RMK AO2 RAB25E37 SLP192 P0000 60000 70038 T00390022 10044 20028 53016=
201504141053 METAR KPAE 141053Z AUTO 19007KT 10SM FEW040 FEW060 SCT070 03/02 A3007 RMK AO2 SLP185 T00330017=
201504140953 METAR KPAE 140953Z AUTO 20006KT 10SM SCT011 SCT034 BKN044 04/02 A3005 RMK AO2 RAB37E52 SLP179 P0000 T00390022=
201504140943 SPECI KPAE 140943Z AUTO 25004KT 10SM -RA BKN013 BKN022 OVC040 04/02 A3005 RMK AO2 RAB37 P0000 T00390022=
201504140853 METAR KPAE 140853Z AUTO 19007KT 10SM SCT007 OVC050 04/02 A3004 RMK AO2 SLP175 T00390022 53012=
201504140817 SPECI KPAE 140817Z AUTO 18007KT 10SM BKN008 BKN041 OVC049 04/03 A3003 RMK AO2 CIG 005V010 T00390028=
201504140800 SPECI KPAE 140800Z AUTO 20009KT 10SM FEW008 BKN039 OVC055 04/03 A3003 RMK AO2 T00440028=
201504140753 METAR KPAE 140753Z AUTO 20009KT 10SM BKN037 BKN049 OVC055 04/03 A3002 RMK AO2 SLP168 T00440028 401000044=
201504140730 SPECI KPAE 140730Z AUTO 20010KT 10SM FEW008 FEW017 OVC037 04/03 A3001 RMK AO2 T00440028=
201504140653 METAR KPAE 140653Z AUTO 21008KT 10SM FEW006 BKN018 OVC026 04/03 A3001 RMK AO2 SLP166 T00440028=
201504140639 SPECI KPAE 140639Z AUTO 19006KT 10SM SCT007 BKN011 OVC024 04/03 A3001 RMK AO2 T00440028=
201504140613 SPECI KPAE 140613Z AUTO 21007KT 10SM BKN006 BKN020 OVC032 04/03 A3000 RMK AO2 CIG 005V010 T00440033=
201504140606 SPECI KPAE 140606Z AUTO 21008KT 10SM SCT005 BKN023 OVC035 04/03 A3000 RMK AO2 T00440033=
201504140558 SPECI KPAE 140558Z AUTO 20009KT 10SM FEW005 SCT023 OVC035 04/03 A3000 RMK AO2 T00440028=
201504140553 METAR KPAE 140553Z AUTO 20007KT 10SM SCT021 BKN028 OVC035 04/03 A3000 RMK AO2 SLP163 60014 T00440028 10050 20044 53020=
201504140519 SPECI KPAE 140519Z AUTO 18007KT 10SM SCT022 BKN031 OVC085 04/03 A2999 RMK AO2 T00440028=
201504140453 METAR KPAE 140453Z AUTO 17005KT 10SM BKN022 BKN034 OVC055 04/03 A2998 RMK AO2 SLP156 T00440028=
201504140353 METAR KPAE 140353Z AUTO VRB04KT 10SM OVC080 04/03 A2996 RMK AO2 SLP148 T00440028=
201504140253 METAR KPAE 140253Z VRB03KT 10SM OVC055 05/03 A2994 RMK AO2 RAE32 SLP142 P0000 60014 T00500028 51009=
201504140153 METAR KPAE 140153Z 03003KT 7SM -RA OVC031 05/03 A2993 RMK AO2 SLP138 P0005 T00500028=
201504140053 METAR KPAE 140053Z 34012G18KT 4SM -RA BR BKN008 BKN017 OVC026 05/03 A2993 RMK AO2 SLP138 P0009 T00500033=
201504140012 SPECI KPAE 140012Z 35007KT 4SM -RA BR BKN008 BKN017 OVC026 05/04 A2992 RMK AO2 P0003 T00500039=
201504140000 SPECI KPAE 140000Z 35006KT 3SM -RA BR FEW008 SCT013 OVC026 05/03 A2991 RMK AO2 P0001 T00500033=
201504132353 METAR KPAE 132353Z 35005KT 3SM RA BR BKN009 BKN012 OVC023 05/04 A2992 RMK AO2 SLP133 P0009 60024 T00500039 10100 20050 51015=
201504132253 METAR KPAE 132253Z AUTO VRB05KT 5SM -RA BR BKN009 OVC021 06/04 A2991 RMK AO2 SLP132 P0014 T00560039 TSNO=
201504132210 SPECI KPAE 132210Z 33007G19KT 5SM +RA BR BKN009 OVC026 06/03 A2990 RMK AO2 P0007 T00560033=
201504132206 SPECI KPAE 132206Z 33012G19KT 3SM RA BKN011 OVC026 07/04 A2990 RMK AO2 P0004 T00670039=
201504132153 METAR KPAE 132153Z 20012KT 9SM -RA SCT015 OVC055 08/06 A2989 RMK AO2 SLP124 P0001 T00830056=
201504132053 METAR KPAE 132053Z 20018G25KT 8SM -RA FEW037 BKN050 OVC060 09/04 A2987 RMK AO2 PK WND 18028/2017 RAE11B37 SLP116 P0000 60000 T00940044 55003=
201504131953 METAR KPAE 131953Z 19020G29KT 10SM -RA SCT025 BKN050 10/04 A2987 RMK AO2 PK WND 18029/1951 RAB50 SLP116 P0000 T01000039=
201504131853 METAR KPAE 131853Z 22006KT 10SM BKN025 OVC070 09/04 A2987 RMK AO2 SLP116 T00890039=
201504131842 SPECI KPAE 131842Z 23015KT 10SM BKN025 BKN031 OVC070 09/04 A2987 RMK AO2 T00890039=
201504131753 METAR KPAE 131753Z 19016G22KT 10SM BKN036 BKN049 OVC070 10/03 A2988 RMK AO2 SLP119 T01000028 10100 20072 56006=
201504131653 METAR KPAE 131653Z 19017KT 10SM OVC060 09/02 A2988 RMK AO2 SLP120 T00940022=
201504131553 METAR KPAE 131553Z 16011KT 10SM FEW060 BKN100 08/02 A2988 RMK AO2 SLP119 T00830017=
201504131453 METAR KPAE 131453Z 15008KT 10SM OVC060 08/01 A2990 RMK AO2 SLP126 T00780011 55007=
201504131353 METAR KPAE 131353Z 15006KT 10SM FEW060 SCT110 08/01 A2989 RMK AO2 SLP125 T00780011=
201504131253 METAR KPAE 131253Z AUTO 15005KT 10SM FEW120 07/02 A2990 RMK AO2 SLP128 T00720017=
201504131153 METAR KPAE 131153Z AUTO 11004KT 10SM CLR 07/02 A2992 RMK AO2 SLP133 T00720017 10078 20067 56021=
201504131053 METAR KPAE 131053Z AUTO 00000KT 10SM FEW120 07/02 A2994 RMK AO2 SLP139 T00670022=
201504130953 METAR KPAE 130953Z AUTO 11005KT 10SM CLR 07/02 A2995 RMK AO2 SLP145 T00670017=
201504130853 METAR KPAE 130853Z AUTO VRB05KT 10SM CLR 08/02 A2998 RMK AO2 SLP154 T00780017 56027=
201504130753 METAR KPAE 130753Z AUTO 11006KT 10SM CLR 08/02 A3000 RMK AO2 SLP161 T00780017 401110039=
201504130653 METAR KPAE 130653Z AUTO 11008KT 10SM CLR 08/02 A3003 RMK AO2 SLP171 T00780022=
201504130553 METAR KPAE 130553Z AUTO 11007KT 10SM CLR 08/02 A3006 RMK AO2 SLP182 T00780022 10106 20078 58015=
201504130453 METAR KPAE 130453Z AUTO 12008KT 10SM OVC085 08/02 A3008 RMK AO2 SLP189 T00830022=
201504130353 METAR KPAE 130353Z AUTO 11008KT 10SM OVC110 09/02 A3010 RMK AO2 SLP196 T00890022=
201504130253 METAR KPAE 130253Z 11006KT 10SM OVC070 09/02 A3011 RMK AO2 SLP197 T00940022 56018=
201504130153 METAR KPAE 130153Z 12007KT 10SM SCT044 BKN080 10/02 A3012 RMK AO2 SLP203 T01000017=
201504130053 METAR KPAE 130053Z 11007KT 10SM FEW048 SCT055 OVC080 10/02 A3014 RMK AO2 SLP209 T01000017=
201504122353 METAR KPAE 122353Z 11006KT 10SM BKN044 OVC055 11/01 A3016 RMK AO2 SLP215 60000 T01060011 10111 20083 57012=
201504122253 METAR KPAE 122253Z 20005KT 10SM BKN055 OVC070 11/01 A3017 RMK AO2 SLP220 T01060011=
201504122153 METAR KPAE 122153Z 23006KT 10SM FEW055 BKN075 BKN090 11/02 A3018 RMK AO2 RAB2055E41 SLP223 P0000 T01060017=
201504122053 METAR KPAE 122053Z 23005KT 10SM SCT041 OVC055 09/02 A3019 RMK AO2 RAB25E45 SLP227 P0000 60000 T00940022 58008=
201504121953 METAR KPAE 121953Z 24006KT 10SM BKN042 09/02 A3020 RMK AO2 SLP229 T00940017=
201504121853 METAR KPAE 121853Z 23005KT 10SM SCT029 09/01 A3021 RMK AO2 SLP234 T00890011=
201504121753 METAR KPAE 121753Z 16007KT 10SM SCT029 09/01 A3022 RMK AO2 SLP236 T00890011 10089 20050 53004=
201504121653 METAR KPAE 121653Z 16009KT 10SM SCT021 08/03 A3021=
201504121553 METAR KPAE 121553Z 20009KT 10SM SCT018 06/03 A3021 RMK AO2 SLP234 T00610028=
201504121453 METAR KPAE 121453Z 17004KT 10SM SCT011 06/03 A3021 RMK AO2 SLP232 T00560028 53005=
201504121353 METAR KPAE 121353Z 15004KT 10SM FEW015 05/02 A3019 RMK AO2 SLP228 T00500022=
201504121253 METAR KPAE 121253Z AUTO 15007KT 10SM OVC095 05/02 A3019 RMK AO2 SLP227 T00500022=
201504121153 METAR KPAE 121153Z AUTO 15006KT 10SM OVC100 05/02 A3019 RMK AO2 SLP227 60001 70015 T00500022 10061 20039 52013=
201504121053 METAR KPAE 121053Z AUTO 17005KT 10SM CLR 05/02 A3018 RMK AO2 SLP223 T00500022=
201504120953 METAR KPAE 120953Z AUTO 16008KT 10SM CLR 04/02 A3017 RMK AO2 SLP218 T00440022=
201504120853 METAR KPAE 120853Z AUTO 17006KT 10SM CLR 05/02 A3015 RMK AO2 SLP214 60001 T00500022 53022=
201504120753 METAR KPAE 120753Z AUTO 19005KT 10SM CLR 04/02 A3013=
201504120653 METAR KPAE 120653Z AUTO 18007KT 10SM SCT036 06/02 A3011 RMK AO2 RAB01E45 SLP198 P0001 T00560022=
201504120634 SPECI KPAE 120634Z AUTO 00000KT 10SM -RA SCT024 OVC033 06/02 A3010 RMK AO2 RAB01 P0001 T00610017=
201504120625 SPECI KPAE 120625Z AUTO 27005KT 10SM -RA BKN024 OVC037 06/01 A3010 RMK AO2 RAB01 P0001 T00610011=
201504120553 METAR KPAE 120553Z AUTO 22009KT 10SM SCT060 BKN080 OVC100 06/02 A3009 RMK AO2 SLP191 60009 T00610022 10072 20050 53021=
201504120453 METAR KPAE 120453Z AUTO 16009KT 10SM FEW050 05/03 A3006 RMK AO2 SLP180 T00500028=
201504120400 SPECI KPAE 120400Z AUTO 15008KT 10SM BKN035 OVC043 06/04 A3005 RMK AO2 T00560039=
201504120353 METAR KPAE 120353Z AUTO 15006KT 10SM OVC029 06/04 A3004 RMK AO2 RAE37 SLP176 P0001 T00610039=
201504120253 METAR KPAE 120253Z 00000KT 10SM -RA BKN015 OVC031 06/04 A3002 RMK AO2 SLP170 P0004 60008 T00610039 51012=
201504120153 METAR KPAE 120153Z 17007KT 5SM -RA FEW014 BKN029 OVC037 06/03 A3001 RMK AO2 SLP167 P0003 T00610028=
201504120145 SPECI KPAE 120145Z 15007KT 5SM -RA FEW015 BKN029 OVC045 06/03 A3001 RMK AO2 P0003 T00610028=
201504120138 SPECI KPAE 120138Z 17008KT 2SM RA FEW013 BKN027 OVC045 06/03 A3002 RMK AO2 P0002 T00610028=
201504120053 METAR KPAE 120053Z 00000KT 5SM -RA BKN034 OVC042 07/02 A3001 RMK AO2 RAB2354 SLP165 P0001 T00670017=
201504112353 METAR KPAE 112353Z 33007KT 10SM FEW009 OVC046 07/02 A2999 RMK AO2 RAE17 SLP158 P0000 60005 T00720022 10111 20067 51017=
201504112253 METAR KPAE 112253Z 35009KT 10SM -RA SCT013 BKN029 OVC039 07/04 A2998 RMK AO2 RAB01 SLP155 P0005 T00670039=
201504112244 SPECI KPAE 112244Z 33008KT 7SM -RA SCT012 BKN030 OVC039 07/04 A2998 RMK AO2 RAB01 P0005 T00670044=
201504112216 SPECI KPAE 112216Z 31010G16KT 5SM -RA BKN016 BKN023 OVC032 07/04 A2997 RMK AO2 RAB01 P0002 T00670039=
201504112153 METAR KPAE 112153Z 36006KT 10SM SCT032 BKN042 OVC055 08/02 A2995 RMK AO2 RAB2055E20 SLP146 P0000 T00830022=
201504112053 METAR KPAE 112053Z 33010KT 10SM OVC032 09/02 A2994=
201504111953 METAR KPAE 111953Z COR 00000KT 10SM BKN032 BKN039 OVC090 09/02 A2993 RMK AO2 SLP135 T00940022=
201504111853 METAR KPAE 111853Z 26006KT 10SM FEW020 09/03 A2993 RMK AO2 SLP137 T00940033=
201504111753 METAR KPAE 111753Z 23011G18KT 10SM SCT012 08/03 A2993=
201504111653 METAR KPAE 111653Z 22011KT 10SM SCT010 SCT016 BKN110 07/03 A2991 RMK AO2 SLP132 T00720028=
201504111605 SPECI KPAE 111605Z 19013KT 10SM FEW008 SCT014 07/04 A2990 RMK AO2 T00720039=
201504111553 METAR KPAE 111553Z 20010KT 10SM SCT008 BKN014 07/04 A2990=
201504111513 SPECI KPAE 111513Z 18011KT 10SM SCT007 BKN013 06/04 A2990 RMK AO2 T00610039=
201504111453 METAR KPAE 111453Z 17008KT 10SM FEW010 SCT015 06/03 A2990 RMK AO2 SLP126 60000 T00560033 52012=
201504111353 METAR KPAE 111353Z 14005KT 10SM BKN035 OVC100 06/03 A2988=
201504111253 METAR KPAE 111253Z VRB04KT 10SM FEW046 BKN075 OVC085 06/03 A2987 RMK AO2 RAB44E53 SLP118 P0000 T00560033=
201504111153 METAR KPAE 111153Z 17005KT 10SM FEW055 BKN110 06/03 A2986 RMK AO2 RAE1054 SLP113 P0000 60006 70013 T00560033 10083 20056 51018=
201504111053 METAR KPAE 111053Z 15007KT 10SM -RA BKN041 OVC095 07/03 A2985 RMK AO2 RAE0956B44 SLP108 P0000 T00670033=
201504110953 METAR KPAE 110953Z VRB04KT 10SM -RA FEW013 SCT019 BKN045 06/04 A2983=
201504110931 SPECI KPAE 110931Z VRB06KT 5SM -RA BR SCT017 BKN022 OVC036 07/04 A2982 RMK AO2 P0001 T00670044=
201504110853 METAR KPAE 110853Z 05003KT 9SM -RA SCT021 OVC030 07/05 A2980 RMK AO2 SLP094 P0003 60004 T00670050 53015=
201504110829 SPECI KPAE 110829Z 03004KT 4SM -RA BR OVC018 07/06 A2980 RMK AO2 P0003 T00670056=
201504110814 SPECI KPAE 110814Z 02005KT 2 1/2SM RA BR SCT006 OVC016 07/06 A2979 RMK AO2 P0002 T00670056=
201504110753 METAR KPAE 110753Z 36013G18KT 8SM -RA SCT005 BKN014 OVC025 07/05 A2978 RMK AO2 RAB48 SLP086 P0000 T00670050 401280067=
201504110748 SPECI KPAE 110748Z VRB06KT 9SM -RA FEW007 BKN013 OVC018 08/06 A2978 RMK AO2 RAB48 P0000=
201504110740 SPECI KPAE 110740Z 22009KT 10SM FEW010 BKN016 OVC028 08/06 A2977 RMK AO2 T00830056=
201504110653 METAR KPAE 110653Z 21010KT 10SM OVC012 08/07 A2975 RMK AO2 RAE40 SLP077 P0001 T00830067=
201504110639 SPECI KPAE 110639Z 19018G24KT 10SM -RA BKN014 OVC021 08/06 A2975 RMK AO2 P0001 T00830061=
201504110615 SPECI KPAE 110615Z 19016KT 10SM -RA FEW014 BKN022 OVC045 08/06 A2976 RMK AO2 P0000 T00830061=
201504110553 METAR KPAE 110553Z 19019G24KT 10SM -RA FEW019 BKN035 OVC044 08/06 A2976 RMK AO2 RAB48 SLP078 P0000 60007 T00830056 10106 20078 56004=
201504110453 METAR KPAE 110453Z 18015G24KT 10SM FEW014 BKN030 OVC038 08/06 A2976 RMK AO2 SLP080 T00830061=
201504110353 METAR KPAE 110353Z 19016KT 10SM SCT045 08/06 A2976 RMK AO2 PK WND 20028/0258 RAE45 SLP079 P0002 T00780056=
201504110253 METAR KPAE 110253Z COR 21016G25KT 6SM -RA SCT015 BKN022 OVC039 08/06 A2977 RMK AO2 SLP083 P0003 60005 T00830056 58020=
201504110246 SPECI KPAE 110246Z 19020G25KT 8SM -RA BKN019 BKN025 OVC039 09/06 A2978 RMK AO2 P0002 T00940061=
201504110153 METAR KPAE 110153Z 17014G19KT 6SM -RA FEW012 SCT029 OVC037 09/07 A2981 RMK AO2 SLP094 P0001 T00940067=
201504110053 METAR KPAE 110053Z 18013KT 10SM -RA SCT038 OVC047 10/06 A2982 RMK AO2 SLP098 P0001 T01000061=
201504102353 METAR KPAE 102353Z 20019G26KT 10SM -RA FEW010 BKN060 OVC080 11/05 A2983 RMK AO2 PK WND 20026/2351 RAB43 SLP104 P0000 60000 T01060050 10128 20106 56005=
201504102253 METAR KPAE 102253Z 23020G29KT 10SM OVC080 11/04 A2983 RMK AO2 PK WND 24029/2253 SLP103 T01110044=
201504102153 METAR KPAE 102153Z 21016KT 10SM FEW042 OVC100 13/03 A2983 RMK AO2 SLP101 T01280033=
201504102053 METAR KPAE 102053Z 20015KT 10SM FEW036 BKN120 12/04 A2985 RMK AO2 SLP108 T01220044 58012=
201504101953 METAR KPAE 101953Z 19013KT 10SM BKN044 12/04 A2987 RMK AO2 SLP114 T01170039=
201504101853 METAR KPAE 101853Z 19015G20KT 10SM FEW044 12/03 A2988 RMK AO2 SLP118 T01170033=
201504101753 METAR KPAE 101753Z 18012KT 10SM FEW047 11/03 A2988 RMK AO2 SLP120 T01110033 10111 20083 56003=
201504101653 METAR KPAE 101653Z 16013KT 10SM CLR 11/03 A2988=
201504101553 METAR KPAE 101553Z 18012KT 10SM CLR 10/04 A2989 RMK AO2 SLP121 T01000039=
201504101453 METAR KPAE 101453Z 16010KT 10SM CLR 09/04 A2989 RMK AO2 SLP123 T00890044 55004=
201504101353 METAR KPAE 101353Z 17006KT 10SM BKN070 08/05 A2989 RMK AO2 SLP122 T00830050=
201504101253 METAR KPAE 101253Z AUTO 15009KT 10SM CLR 08/05 A2989 RMK AO2 SLP123 T00830050=
201504101153 METAR KPAE 101153Z AUTO 15006KT 10SM BKN075 09/05 A2991 RMK AO2 SLP127 T00890050 10117 20083 56016=
201504101053 METAR KPAE 101053Z AUTO VRB03KT 10SM BKN080 09/05 A2992 RMK AO2 SLP131 T00940050=
201504100953 METAR KPAE 100953Z AUTO 13003KT 10SM BKN080 09/04 A2993 RMK AO2 SLP137 T00890044=
201504100853 METAR KPAE 100853Z AUTO 12003KT 10SM CLR 09/06 A2995 RMK AO2 SLP143 T00940056 56008=
201504100753 METAR KPAE 100753Z AUTO 00000KT 10SM CLR 09/04 A2996 RMK AO2 SLP146 T00890044 401670056=
201504100653 METAR KPAE 100653Z AUTO 00000KT 10SM CLR 10/05 A2997 RMK AO2 SLP148 T01000050=
201504100553 METAR KPAE 100553Z AUTO 00000KT 10SM CLR 12/04 A2998 RMK AO2 SLP151 T01170044 10167 20111 58007=
201504100453 METAR KPAE 100453Z 20005KT 10SM CLR 12/04 A2999 RMK AO2 SLP155 T01170044=
201504100353 METAR KPAE 100353Z 16004KT 10SM CLR 13/04 A2999 RMK AO2 SLP157 T01280039=
201504100253 METAR KPAE 100253Z 17008KT 10SM CLR 14/03 A3000 RMK AO2 SLP159 T01440033 58007=
201504100153 METAR KPAE 100153Z 14004KT 10SM CLR 16/02 A3000 RMK AO2 SLP161 T01560017=
201504100053 METAR KPAE 100053Z VRB03KT 10SM CLR 16/04 A3002 RMK AO2 SLP165 T01610039=
201504092353 METAR KPAE 092353Z 32006KT 10SM CLR 16/04 A3002 RMK AO2 SLP167 T01560044 10167 20094 56017=
201504092253 METAR KPAE 092253Z 00000KT 10SM CLR 16/03 A3003 RMK AO2 SLP171 T01560028=
201504092153 METAR KPAE 092153Z 24007KT 10SM CLR 14/05 A3005 RMK AO2 SLP175 T01440050=
201504092053 METAR KPAE 092053Z 28004KT 10SM CLR 13/06 A3007 RMK AO2 SLP184 T01330056 58017=
201504091953 METAR KPAE 091953Z 26006KT 10SM CLR 12/06 A3009 RMK AO2 SLP191 T01170061=
201504091853 METAR KPAE 091853Z VRB05KT 10SM FEW015 12/07 A3011 RMK AO2 SLP195 T01170067=
201504091753 METAR KPAE 091753Z 28004KT 10SM FEW015 09/07 A3012 RMK AO2 SLP202 T00940067 10106 20056 56005=
201504091748 SPECI KPAE 091748Z 31005KT 9SM FEW007 10/07 A3012 RMK AO2=
201504091653 METAR KPAE 091653Z VRB04KT 10SM CLR 11/06 A3013 RMK AO2 SLP204 T01060061=
201504091553 METAR KPAE 091553Z 16004KT 10SM CLR 09/06 A3014 RMK AO2 SLP207 T00890061=
201504091453 METAR KPAE 091453Z 17003KT 10SM CLR 08/06 A3015 RMK AO2 SLP210 T00780056 55001=
201504091353 METAR KPAE 091353Z 16004KT 10SM CLR 07/05 A3014 RMK AO2 SLP209 T00670050=
201504091253 METAR KPAE 091253Z AUTO 16003KT 10SM CLR 07/05 A3014 RMK AO2 SLP208 T00670050=
201504091153 METAR KPAE 091153Z AUTO 17003KT 10SM CLR 07/04 A3015 RMK AO2 SLP210 T00670044 10106 20067 56001=
201504091053 METAR KPAE 091053Z AUTO 00000KT 10SM CLR 07/04 A3015 RMK AO2 SLP211 T00720044=
201504090953 METAR KPAE 090953Z AUTO 00000KT 10SM CLR 07/04 A3015 RMK AO2 SLP210 T00720039=
201504090853 METAR KPAE 090853Z AUTO 00000KT 10SM CLR 09/04 A3015 RMK AO2 SLP211 T00890044 53003=
201504090753 METAR KPAE 090753Z AUTO 00000KT 10SM CLR 09/04 A3015 RMK AO2 SLP210 T00940044 401560078=
201504090653 METAR KPAE 090653Z AUTO 16005KT 10SM CLR 09/03 A3014 RMK AO2 SLP209 T00940033=
201504090553 METAR KPAE 090553Z AUTO 00000KT 10SM CLR 10/03 A3014 RMK AO2 SLP207 T01000028 10156 20094 51011=
201504090453 METAR KPAE 090453Z AUTO 04003KT 10SM CLR 10/04 A3013 RMK AO2 SLP205 T01000039=
201504090353 METAR KPAE 090353Z 01003KT 10SM CLR 11/03 A3012 RMK AO2 SLP203 T01060028=
201504090253 METAR KPAE 090253Z 35004KT 10SM CLR 12/03 A3011 RMK AO2 SLP196 T01220033 53006=
201504090153 METAR KPAE 090153Z 32006KT 10SM CLR 13/02 A3010 RMK AO2 SLP193 T01330022=
201504090053 METAR KPAE 090053Z 36005KT 10SM CLR 15/02 A3009 RMK AO2 SLP190 T01500017=
201504082353 METAR KPAE 082353Z 01008KT 10SM CLR 16/00 A3009 RMK AO2 SLP190 T01560000 10156 20111 55003=
201504082253 METAR KPAE 082253Z 36006KT 10SM CLR 16/03 A3009 RMK AO2 SLP188 T01560033=
201504082153 METAR KPAE 082153Z 00000KT 10SM CLR 14/04 A3009=
201504082053 METAR KPAE 082053Z VRB05KT 10SM CLR 14/04 A3010 RMK AO2 SLP193 T01390044 50005=
201504081953 METAR KPAE 081953Z VRB06KT 10SM FEW050 13/04 A3010 RMK AO2 SLP194 T01330039=
201504081853 METAR KPAE 081853Z 21005KT 10SM CLR 12/04 A3010 RMK AO2 SLP192 T01220039=
201504081753 METAR KPAE 081753Z 23005KT 10SM OVC080 11/05 A3008 RMK AO2 SLP189 T01110050 10117 20078 51014=
201504081653 METAR KPAE 081653Z 00000KT 10SM OVC080 10/04 A3007=
201504081553 METAR KPAE 081553Z VRB03KT 10SM SCT070 OVC100 09/05 A3006 RMK AO2 SLP179 T00890050=
201504081453 METAR KPAE 081453Z 29004KT 10SM FEW008 OVC100 08/06 A3004 RMK AO2 SLP175 T00830061 53020=
201504081353 METAR KPAE 081353Z 22003KT 10SM OVC090 08/06 A3002 RMK AO2 SLP166 T00780056=
201504081253 METAR KPAE 081253Z 00000KT 10SM FEW070 OVC085 08/06 A3000 RMK AO2 SLP160 T00780056=
201504081153 METAR KPAE 081153Z 00000KT 10SM OVC075 08/04 A2998 RMK AO2 SLP153 T00780039 10089 20078 53013=
201504081053 METAR KPAE 081053Z 00000KT 10SM OVC070 08/06 A2996 RMK AO2 SLP147 T00830056=
201504080953 METAR KPAE 080953Z 36003KT 10SM BKN050 BKN085 08/05 A2995 RMK AO2 SLP144 T00780050=
201504080853 METAR KPAE 080853Z 34003KT 10SM OVC055 08/04 A2994 RMK AO2 SLP142 T00830044 53009=
201504080753 METAR KPAE 080753Z 34005KT 10SM BKN060 OVC080 09/04 A2993 RMK AO2 SLP138 T00890039 401390050=
201504080653 METAR KPAE 080653Z 33003KT 10SM OVC055 09/03 A2992 RMK AO2 SLP134 T00890033=
201504080553 METAR KPAE 080553Z 34004KT 10SM SCT050 SCT120 08/04 A2992 RMK AO2 SLP132 T00830039 10133 20083 51015=
201504080453 METAR KPAE 080453Z 34005KT 10SM CLR 09/04 A2990 RMK AO2 SLP128 T00890039=
201504080353 METAR KPAE 080353Z 34004KT 10SM BKN075 09/04 A2989 RMK AO2 SLP123 T00940044=
201504080253 METAR KPAE 080253Z 32003KT 10SM FEW070 11/04 A2987 RMK AO2 SLP117 T01060044 53007=
201504080153 METAR KPAE 080153Z 34004KT 10SM SCT070 12/04 A2986 RMK AO2 SLP112 T01170039=
201504080053 METAR KPAE 080053Z 33004KT 10SM BKN070 12/03 A2985 RMK AO2 SLP109 T01220033=
201504072353 METAR KPAE 072353Z VRB05KT 10SM FEW060 BKN090 13/04 A2985 RMK AO2 SLP110 60000 T01330039 10139 20078 58010=
201504072253 METAR KPAE 072253Z 35005KT 10SM SCT070 OVC090 12/04 A2986 RMK AO2 SLP114 T01220039=
201504072153 METAR KPAE 072153Z AUTO 02005KT 10SM SCT037 SCT049 OVC065 12/03 A2987 RMK AO2 SLP117 T01170033 TSNO=
201504072053 METAR KPAE 072053Z 35005KT 10SM OVC049 12/04 A2988 RMK AO2 SLP120 60000 T01170039 50001=
201504071953 METAR KPAE 071953Z 36005KT 10SM OVC055 09/05 A2988 RMK AO2 RAE29 SLP121 P0000 T00940050=
201504071853 METAR KPAE 071853Z 35006KT 10SM -RA BKN055 OVC070 08/04 A2988 RMK AO2 SLP121 P0000 T00830044=
201504071753 METAR KPAE 071753Z 02005KT 10SM -RA BKN049 OVC065 08/03 A2988 RMK AO2 RAB40 SLP120 P0000 60000 T00830033 10083 20050 53013=
201504071653 METAR KPAE 071653Z 36005KT 10SM OVC060 07/04 A2986 RMK AO2 SLP115 T00720039=
201504071553 METAR KPAE 071553Z 35005KT 10SM SCT070 OVC090 07/04 A2985 RMK AO2 SLP110 T00670039=
201504071453 METAR KPAE 071453Z VRB03KT 10SM BKN070 OVC110 06/03 A2984 RMK AO2 SLP105 T00610033 53006=
201504071353 METAR KPAE 071353Z 35003KT 10SM BKN120 06/03 A2983 RMK AO2 SLP102 T00560028=
201504071253 METAR KPAE 071253Z 36004KT 10SM CLR 05/03 A2982 RMK AO2 SLP100 T00500028=
201504071153 METAR KPAE 071153Z AUTO 01003KT 10SM BKN095 06/03 A2982 RMK AO2 SLP099 T00560033 10072 20056 55004=
201504071053 METAR KPAE 071053Z AUTO 01004KT 10SM FEW090 06/04 A2982 RMK AO2 SLP098 T00610039=
201504070953 METAR KPAE 070953Z AUTO 02005KT 10SM CLR 06/03 A2982 RMK AO2 SLP100 T00610028=
201504070853 METAR KPAE 070853Z AUTO 01005KT 10SM CLR 06/03 A2983 RMK AO2 SLP104 T00610028 58008=
201504070753 METAR KPAE 070753Z AUTO 03005KT 10SM CLR 07/04 A2984 RMK AO2 SLP108 T00670044 401170056=
201504070653 METAR KPAE 070653Z AUTO 02004KT 10SM CLR 07/05 A2985 RMK AO2 SLP110 T00720050=
201504070553 METAR KPAE 070553Z AUTO 36004KT 10SM CLR 07/04 A2985 RMK AO2 SLP112 T00670044 10117 20067 51007=
201504070453 METAR KPAE 070453Z AUTO 36003KT 10SM CLR 08/04 A2985 RMK AO2 SLP110 T00780039=
201504070353 METAR KPAE 070353Z AUTO 01003KT 10SM CLR 08/04 A2985 RMK AO2 SLP109 T00830039=
201504070253 METAR KPAE 070253Z 02004KT 10SM CLR 10/03 A2983 RMK AO2 SLP103 T01000028 51002=
201504070153 METAR KPAE 070153Z 05005KT 10SM CLR 11/02 A2983 RMK AO2 SLP103 T01110022=
201504070053 METAR KPAE 070053Z VRB03KT 10SM CLR 12/02 A2983 RMK AO2 SLP102 T01170022=
201504062353 METAR KPAE 062353Z 10003KT 10SM CLR 11/03 A2983 RMK AO2 SLP101 T01110028 10117 20078 57009=
201504062253 METAR KPAE 062253Z COR 16005KT 10SM SCT033 BKN042 11/04 A2983 RMK AO2 SLP104 T01060039=
201504062205 SPECI KPAE 062205Z VRB03KT 10SM OVC033 10/03 A2984 RMK AO2 T01000028=
201504062153 METAR KPAE 062153Z 20005KT 10SM BKN022 OVC034 10/03 A2985 RMK AO2 SLP108 T01000028=
201504062053 METAR KPAE 062053Z 18008KT 10SM BKN022 OVC034 09/04 A2985 RMK AO2 SLP110 T00940039 50008=
201504061953 METAR KPAE 061953Z 17008KT 10SM OVC024 08/03 A2985 RMK AO2 SLP112 T00830033=
201504061900 SPECI KPAE 061900Z 17008KT 10SM BKN018 BKN023 OVC031 08/04 A2984 RMK AO2 T00830039=
201504061853 METAR KPAE 061853Z 16007KT 10SM BKN013 BKN024 OVC033 08/04 A2984 RMK AO2 SLP107 T00830039=
201504061753 METAR KPAE 061753Z 16009KT 10SM BKN013 OVC026 08/04 A2983 RMK AO2 SLP103 T00780039 10083 20061 52011=
201504061653 METAR KPAE 061653Z 19010KT 10SM BKN011 OVC026 08/03 A2981 RMK AO2 SLP097 T00780033=
201504061648 SPECI KPAE 061648Z 18011KT 10SM BKN011 OVC026 08/04 A2981 RMK AO2=
201504061553 METAR KPAE 061553Z 19010KT 10SM SCT016 OVC023 07/04 A2980 RMK AO2 SLP091 T00720039=
201504061453 METAR KPAE 061453Z 17009KT 10SM SCT018 BKN030 BKN095 07/03 A2977 RMK AO2 SLP083 T00670033 53011=
201504061353 METAR KPAE 061353Z 19011KT 10SM SCT013 BKN080 06/03 A2976 RMK AO2 SLP078 T00610033=
201504061253 METAR KPAE 061253Z AUTO 18009KT 10SM BKN095 07/03 A2974 RMK AO2 SLP073 T00670033=
201504061153 METAR KPAE 061153Z AUTO 16007KT 10SM BKN046 07/03 A2974 RMK AO2 SLP072 T00670033 10078 20056 51010=
201504061053 METAR KPAE 061053Z AUTO 15007KT 10SM BKN039 07/03 A2973 RMK AO2 SLP069 T00670028=
201504060953 METAR KPAE 060953Z AUTO 16003KT 10SM FEW075 07/03 A2972 RMK AO2 SLP063 T00670028=
201504060853 METAR KPAE 060853Z AUTO 20003KT 10SM OVC095 07/03 A2971 RMK AO2 SLP061 T00670033 53014=
201504060753 METAR KPAE 060753Z AUTO 22003KT 10SM FEW012 07/04 A2969 RMK AO2 SLP057 T00670044 401390028=
201504060653 METAR KPAE 060653Z AUTO 03004KT 10SM CLR 07/04 A2968 RMK AO2 SLP051 T00720044=
201504060553 METAR KPAE 060553Z AUTO 35007KT 10SM CLR 08/05 A2967 RMK AO2 SLP047 T00780050 10139 20078 53002=
201504060453 METAR KPAE 060453Z AUTO 02005KT 10SM CLR 08/02 A2966 RMK AO2 SLP046 T00830022=
201504060353 METAR KPAE 060353Z AUTO 36005KT 10SM CLR 09/03 A2966 RMK AO2 SLP047 T00940033=
201504060253 METAR KPAE 060253Z 35005KT 10SM SCT120 11/02 A2966 RMK AO2 SLP046 T01060017 56006=
201504060153 METAR KPAE 060153Z 35005KT 10SM OVC110 12/01 A2966 RMK AO2 SLP047 T01170006=
201504060053 METAR KPAE 060053Z 35008KT 10SM CLR 14/00 A2967 RMK AO2 SLP047 T01390000=
201504052353 METAR KPAE 052353Z 35007KT 10SM FEW100 SCT110 13/01 A2968 RMK AO2 SLP051 T01280011 10139 20078 56017=
201504052253 METAR KPAE 052253Z 36009KT 330V030 10SM FEW120 13/03 A2969 RMK AO2 SLP056 T01330028=
201504052153 METAR KPAE 052153Z 01005KT 10SM CLR 14/02 A2971 RMK AO2 SLP062 T01390017=
201504052053 METAR KPAE 052053Z 33005KT 10SM CLR 13/01 A2973 RMK AO2 SLP068 T01330006 57017=
201504051953 METAR KPAE 051953Z VRB04KT 10SM CLR 12/01 A2975 RMK AO2 SLP074 T01170006=
201504051853 METAR KPAE 051853Z VRB04KT 10SM CLR 09/01 A2976 RMK AO2 SLP079 T00940006=
201504051753 METAR KPAE 051753Z 02004KT 10SM CLR 08/01 A2978 RMK AO2 SLP086 T00830006 10083 20028 56009=
201504051653 METAR KPAE 051653Z 02004KT 10SM CLR 07/01 A2979 RMK AO2 SLP089 T00720006=
201504051553 METAR KPAE 051553Z 36003KT 10SM CLR 06/01 A2979 RMK AO2 SLP092 T00610011=
201504051453 METAR KPAE 051453Z 00000KT 10SM CLR 04/01 A2981 RMK AO2 SLP095 T00390006 56014=
201504051353 METAR KPAE 051353Z 00000KT 10SM CLR 03/00 A2981 RMK AO2 SLP098 T00280000=
201504051253 METAR KPAE 051253Z AUTO 00000KT 10SM CLR 04/00 A2983 RMK AO2 SLP103 T00440000=
201504051153 METAR KPAE 051153Z AUTO 09003KT 10SM CLR 05/00 A2985 RMK AO2 SLP108 T00500000 10072 20044 58016=
201504051053 METAR KPAE 051053Z AUTO 11005KT 10SM CLR 04/00 A2986 RMK AO2 SLP114 T00440000=
201504050953 METAR KPAE 050953Z AUTO 12005KT 10SM BKN100 05/01 A2988 RMK AO2 SLP119 T00500006=
201504050853 METAR KPAE 050853Z AUTO 11007KT 10SM FEW100 06/01 A2990 RMK AO2 SLP125 T00560006 56017=
201504050753 METAR KPAE 050753Z AUTO 00000KT 10SM CLR 06/01 A2991 RMK AO2 SLP131 T00560011 401220039=
201504050653 METAR KPAE 050653Z AUTO 05003KT 10SM CLR 07/03 A2992 RMK AO2 SLP136 T00670028=
201504050553 METAR KPAE 050553Z AUTO 03003KT 10SM CLR 07/03 A2995 RMK AO2 SLP143 T00670033 10122 20061 58007=
201504050453 METAR KPAE 050453Z AUTO 01003KT 10SM CLR 08/M01 A2996 RMK AO2 SLP148 T00781006=
201504050353 METAR KPAE 050353Z AUTO 00000KT 10SM CLR 09/M03 A2997 RMK AO2 SLP151 T00941028=
201504050253 METAR KPAE 050253Z 00000KT 10SM CLR 10/M03 A2997 RMK AO2 SLP151 T01001033 56017=
201504050153 METAR KPAE 050153Z 19006KT 10SM CLR 11/M04 A2998 RMK AO2 SLP154 T01111039=
201504050053 METAR KPAE 050053Z 24006KT 10SM CLR 12/M03 A3000 RMK AO2 SLP160 T01171033=
201504042353 METAR KPAE 042353Z 22008KT 10SM FEW060 12/M02 A3002 RMK AO2 SLP167 T01171022 10122 20083 56020=
201504042253 METAR KPAE 042253Z 22009KT 10SM SCT055 12/M01 A3004 RMK AO2 SLP174 T01221006=
201504042153 METAR KPAE 042153Z 21009KT 10SM FEW050 12/M01 A3005 RMK AO2 SLP179 T01171006=
201504042053 METAR KPAE 042053Z 17007G15KT 10SM FEW041 SCT055 11/01 A3008 RMK AO2 SLP188 T01060006 58011=
201504042000 SPECI KPAE 042000Z 19007KT 10SM SCT036 SCT048 10/01 A3009 RMK AO2 T01000011=
201504041953 METAR KPAE 041953Z COR VRB05KT 10SM SCT029 SCT040 09/02 A3009 RMK AO2 SLP194 T00940017=
201504041853 METAR KPAE 041853Z 19006KT 10SM BKN026 09/02 A3010 RMK AO2 SLP197 T00890017=
201504041805 SPECI KPAE 041805Z 16010KT 10SM BKN026 08/02 A3011 RMK AO2 T00830022=
201504041753 METAR KPAE 041753Z 17007KT 10SM FEW022 BKN030 08/02 A3011 RMK AO2 SLP199 T00830022 10083 20044 58002=
201504041653 METAR KPAE 041653Z 16008KT 10SM SCT013 SCT022 BKN028 07/03 A3011 RMK AO2 SLP200 T00670033=
201504041622 SPECI KPAE 041622Z 15006KT 10SM SCT009 BKN011 06/03 A3011 RMK AO2 T00610028=
201504041553 METAR KPAE 041553Z 17006KT 10SM BKN008 OVC012 06/03 A3012 RMK AO2 SLP202 T00560033=
201504041541 SPECI KPAE 041541Z 16007KT 10SM BKN008 OVC012 05/03 A3012 RMK AO2 T00500028=
201504041518 SPECI KPAE 041518Z 15005KT 10SM SCT008 BKN012 05/03 A3012 RMK AO2 T00500028=
201504041453 METAR KPAE 041453Z 16007KT 10SM BKN007 OVC015 05/03 A3012 RMK AO2 SLP203 T00500028 55002=
201504041414 SPECI KPAE 041414Z 15004KT 10SM BKN007 OVC015 05/03 A3012 RMK AO2 T00500033=
201504041411 SPECI KPAE 041411Z VRB03KT 10SM SCT007 OVC015 05/03 A3012 RMK AO2 T00500033=
201504041353 METAR KPAE 041353Z 16005KT 10SM OVC008 05/03 A3012 RMK AO2 SLP202 T00500028=
201504041336 SPECI KPAE 041336Z AUTO 16005KT 10SM BKN008 OVC014 05/03 A3012 RMK AO2 T00500028=
201504041334 SPECI KPAE 041334Z AUTO 15006KT 10SM SCT008 OVC016 05/03 A3012 RMK AO2 T00500028=
201504041253 METAR KPAE 041253Z AUTO 17005KT 10SM OVC019 04/03 A3012 RMK AO2 SLP202 T00440028=
201504041153 METAR KPAE 041153Z AUTO 15007KT 10SM BKN022 04/03 A3012 RMK AO2 SLP204 70010 T00440028 10056 20039 58007=
201504041053 METAR KPAE 041053Z AUTO VRB03KT 10SM SCT023 BKN030 05/03 A3013 RMK AO2 SLP205 T00500028=
201504041045 SPECI KPAE 041045Z AUTO 16007KT 10SM SCT023 BKN030 05/03 A3013 RMK AO2 T00500028=
201504041018 SPECI KPAE 041018Z AUTO VRB03KT 10SM BKN024 BKN032 OVC050 05/03 A3013 RMK AO2 T00500028=
201504041000 SPECI KPAE 041000Z AUTO VRB03KT 10SM SCT030 BKN050 05/03 A3014 RMK AO2 T00500028=
201504040953 METAR KPAE 040953Z AUTO 15006KT 10SM BKN028 OVC050 05/03 A3014 RMK AO2 SLP209 T00500028=
201504040911 SPECI KPAE 040911Z AUTO 13003KT 10SM BKN027 05/03 A3014 RMK AO2 T00500028=
201504040853 METAR KPAE 040853Z AUTO 15004KT 10SM FEW027 SCT043 05/03 A3014 RMK AO2 SLP210 T00500028 56005=
201504040753 METAR KPAE 040753Z AUTO 10004KT 10SM OVC046 05/03 A3015 RMK AO2 SLP211 T00500033 401000050=
201504040653 METAR KPAE 040653Z AUTO 10007KT 10SM BKN034 BKN049 06/03 A3016 RMK AO2 SLP215 T00560028=
201504040613 SPECI KPAE 040613Z AUTO 10005KT 10SM OVC030 06/03 A3016 RMK AO2 T00560033=
201504040553 METAR KPAE 040553Z AUTO 11007KT 10SM OVC029 06/03 A3016 RMK AO2 SLP216 60006 T00560033 10067 20056 50002=
201504040537 SPECI KPAE 040537Z AUTO 10006KT 10SM OVC029 06/03 A3016 RMK AO2 T00560033=
201504040453 METAR KPAE 040453Z AUTO 10005KT 10SM FEW021 OVC032 06/03 A3016 RMK AO2 RAE31 SLP217 P0002 T00560033=
201504040411 SPECI KPAE 040411Z AUTO 09004KT 5SM -RA BR OVC030 06/03 A3016 RMK AO2 P0002 T00560033=
201504040353 METAR KPAE 040353Z 00000KT 6SM -RA OVC028 06/03 A3017 RMK AO2 RAB35 SLP218 P0001 T00610033=
201504040253 METAR KPAE 040253Z 11007KT 10SM OVC026 06/03 A3015 RMK AO2 RAE0156B17E50 SLP214 P0001 60003 T00560033 56002=
201504040153 METAR KPAE 040153Z VRB04KT 10SM -RA BKN032 06/03 A3016 RMK AO2 SLP214 P0002 T00610028=
201504040150 SPECI KPAE 040150Z 07004KT 10SM -RA BKN032 06/03 A3016 RMK AO2 P0002=
201504040143 SPECI KPAE 040143Z 07004KT 10SM -RA BKN023 OVC032 06/03 A3016 RMK AO2 P0001 T00610033=
201504040053 METAR KPAE 040053Z 02006KT 10SM -RA FEW029 BKN047 OVC055 07/04 A3016 RMK AO2 RAE2354B38 SLP216 P0000 T00670039=
201504040034 SPECI KPAE 040034Z 02006KT 10SM SCT018 BKN047 OVC065 07/04 A3016 RMK AO2 RAE2354 P0000 T00670039=
201504032353 METAR KPAE 032353Z 36006KT 10SM -RA BKN018 OVC023 06/04 A3016 RMK AO2 RAB41 SLP217 P0001 60004 T00610044 10100 20061 55001=
201504032253 METAR KPAE 032253Z 21010KT 10SM BKN021 OVC027 08/03 A3015 RMK AO2 SLP214 T00830033=
201504032153 METAR KPAE 032153Z 19019G24KT 8SM SCT010 BKN015 09/06 A3014 RMK AO2 PK WND 20029/2100 RAE12 SLP208 P0001 T00890056=
201504032056 SPECI KPAE 032056Z 19020KT 8SM -RA BKN013 OVC019 07/05 A3016 RMK AO2 P0001 T00720050=
201504032053 METAR KPAE 032053Z 19018G28KT 5SM -RA BR FEW011 SCT019 OVC031 07/05 A3017 RMK AO2 PK WND 19028/2046 SLP218 P0002 60002 T00720050 53004=
201504031953 METAR KPAE 031953Z 20017G23KT 10SM -RA BKN017 BKN022 OVC055 08/04 A3016 RMK AO2 RAB01 SLP214 P0000 T00830044=
201504031853 METAR KPAE 031853Z 19013G17KT 10SM BKN020 OVC095 09/02 A3016 RMK AO2 SLP214 T00940022=
201504031753 METAR KPAE 031753Z 16010KT 10SM CLR 09/03 A3015 RMK AO2 SLP212 T00940028 10100 20056 56011=
201504031653 METAR KPAE 031653Z 16013KT 10SM CLR 09/03 A3016 RMK AO2 SLP216 T00890028=
201504031553 METAR KPAE 031553Z 16009KT 10SM CLR 08/03 A3017 RMK AO2 SLP218 T00780028=
201504031453 METAR KPAE 031453Z 16006KT 10SM CLR 06/03 A3019 RMK AO2 SLP224 T00610028 56014=
201504031353 METAR KPAE 031353Z 15007KT 10SM CLR 06/03 A3019 RMK AO2 SLP226 T00610028=
201504031253 METAR KPAE 031253Z AUTO 15007KT 10SM CLR 06/03 A3021 RMK AO2 SLP231 T00610028=
201504031153 METAR KPAE 031153Z AUTO 16009KT 10SM OVC060 07/03 A3023 RMK AO2 SLP238 T00720028 10094 20072 58018=
201504031053 METAR KPAE 031053Z AUTO 16008KT 10SM SCT060 BKN070 07/03 A3024 RMK AO2 SLP244 T00720028=
201504030953 METAR KPAE 030953Z AUTO 16009KT 10SM FEW048 FEW060 BKN110 07/03 A3027 RMK AO2 SLP251 T00720033=
201504030853 METAR KPAE 030853Z AUTO 15006KT 10SM BKN120 08/03 A3028 RMK AO2 SLP257 T00780033 58009=
201504030753 METAR KPAE 030753Z AUTO 16009KT 10SM BKN120 08/03 A3029 RMK AO2 SLP261 T00830033 401220056=
201504030653 METAR KPAE 030653Z AUTO 16009KT 10SM FEW070 09/03 A3031 RMK AO2 SLP265 T00890028=
201504030553 METAR KPAE 030553Z AUTO VRB03KT 10SM FEW070 09/03 A3031 RMK AO2 SLP267 T00890028 10122 20078 58005=
201504030453 METAR KPAE 030453Z AUTO 19006KT 10SM CLR 09/02 A3032 RMK AO2 SLP269 T00890022=
201504030353 METAR KPAE 030353Z 16005KT 10SM SCT055 OVC070 10/01 A3033 RMK AO2 SLP273 T01000011=
201504030253 METAR KPAE 030253Z 00000KT 10SM OVC050 11/02 A3033=
201504030153 METAR KPAE 030153Z 01003KT 10SM FEW055 11/03 A3034 RMK AO2 SLP276 T01110028=
201504030053 METAR KPAE 030053Z 36003KT 10SM FEW050 11/03 A3035 RMK AO2 SLP281 T01110033=
201504022353 METAR KPAE 022353Z 00000KT 10SM FEW043 11/02 A3037 RMK AO2 SLP285 T01110022 10117 20078 58013=
201504022253 METAR KPAE 022253Z 16005KT 10SM SCT039 11/02 A3038 RMK AO2 SLP291 T01110022=
201504022153 METAR KPAE 022153Z 23003KT 10SM BKN038 BKN060 10/03 A3039 RMK AO2 SLP294 T01000033=
201504022053 METAR KPAE 022053Z 00000KT 10SM SCT034 BKN041 OVC049 08/04 A3040 RMK AO2 SLP299 T00830044 58001=
201504021953 METAR KPAE 021953Z 04005KT 10SM FEW012 OVC023 09/04 A3041 RMK AO2 SLP298 T00940044=
201504021945 SPECI KPAE 021945Z 25006KT 10SM BKN023 09/03 A3041 RMK AO2 T00890033=
201504021853 METAR KPAE 021853Z 26006KT 10SM SCT013 OVC060 09/05 A3041 RMK AO2 SLP299 T00890050=
201504021829 SPECI KPAE 021829Z 23005KT 10SM FEW011 OVC060 08/04 A3041 RMK AO2 T00830044=
201504021753 METAR KPAE 021753Z 21007KT 10SM BKN010 BKN015 BKN019 08/05 A3041 RMK AO2 RAB10E29 CIG 009V013 SLP299 P0000 60000 T00830050 10083 20056 52008=
201504021745 SPECI KPAE 021745Z 18007KT 10SM BKN010 BKN015 BKN043 08/06 A3041 RMK AO2 RAB10E29 P0000 T00830056=
201504021722 SPECI KPAE 021722Z 18005KT 7SM -RA SCT010 BKN034 OVC044 07/05 A3041 RMK AO2 RAB10 P0000 T00720050=
201504021653 METAR KPAE 021653Z 20006KT 10SM SCT008 BKN014 OVC036 07/04 A3040 RMK AO2 SLP298 T00720039=
201504021602 SPECI KPAE 021602Z 17006KT 10SM SCT004 BKN010 OVC034 06/04 A3039 RMK AO2 T00610044=
201504021553 METAR KPAE 021553Z 17005KT 9SM SCT004 BKN028 OVC034 07/04 A3039 RMK AO2 SLP294 T00670044=
201504021535 SPECI KPAE 021535Z 17006KT 8SM SCT004 BKN025 OVC034 06/04 A3039 RMK AO2 T00610044=
201504021522 SPECI KPAE 021522Z 17006KT 1SM R16R/P6000FT BR BKN003 OVC025 06/04 A3039 RMK AO2 T00560044=
201504021456 SPECI KPAE 021456Z 18005KT 1SM R16R/P6000FT BR FEW003 OVC025 06/04 A3038 RMK AO2 T00560044=
201504021453 METAR KPAE 021453Z 17006KT 5SM BR BKN025 06/04 A3038 RMK AO2 SLP291 T00560039 53009=
201504021445 SPECI KPAE 021445Z 17007KT 1SM R16R/P6000FT BR SCT005 BKN022 06/04 A3038 RMK AO2 T00560039=
201504021353 METAR KPAE 021353Z 16007KT 7SM OVC022 06/04 A3037=
201504021309 SPECI KPAE 021309Z AUTO 16006KT 8SM FEW003 BKN025 06/04 A3036 RMK AO2 T00560044=
201504021253 METAR KPAE 021253Z AUTO 18005KT 7SM BKN003 OVC025 06/04 A3036 RMK AO2 SLP285 T00560044=
201504021206 SPECI KPAE 021206Z AUTO 15005KT 8SM OVC004 06/04 A3036 RMK AO2 T00560044=
201504021153 METAR KPAE 021153Z AUTO 11003KT 9SM OVC005 06/04 A3036=
201504021126 SPECI KPAE 021126Z AUTO 15006KT 9SM BKN005 BKN028 OVC060 06/04 A3035 RMK AO2 T00560044=
201504021117 SPECI KPAE 021117Z AUTO 00000KT 9SM SCT005 BKN031 OVC060 06/04 A3035 RMK AO2 T00560039=
201504021053 METAR KPAE 021053Z AUTO 19006KT 8SM SCT032 BKN060 06/04 A3035=
201504021041 SPECI KPAE 021041Z AUTO 19004KT 8SM SCT029 BKN035 OVC055 06/04 A3035 RMK AO2 T00610044=
201504021028 SPECI KPAE 021028Z AUTO 18003KT 9SM BKN029 OVC036 06/04 A3034 RMK AO2 T00610044=
201504020953 METAR KPAE 020953Z AUTO 15005KT 8SM FEW005 BKN033 OVC048 06/04 A3034 RMK AO2 SLP277 T00610044=
201504020853 METAR KPAE 020853Z AUTO 23004KT 10SM FEW040 OVC055 07/04 A3033 RMK AO2 SLP274 T00670044 53004=
201504020753 METAR KPAE 020753Z AUTO 28005KT 10SM FEW012 SCT033 BKN055 07/04 A3033 RMK AO2 SLP272 T00670039 401170044=
201504020653 METAR KPAE 020653Z AUTO 00000KT 10SM SCT018 OVC042 07/04 A3032 RMK AO2 SLP270 T00720039=
201504020649 SPECI KPAE 020649Z AUTO 00000KT 10SM SCT018 OVC042 07/04 A3032 RMK AO2=
201504020637 SPECI KPAE 020637Z AUTO 30003KT 10SM BKN019 BKN042 OVC060 08/04 A3032 RMK AO2 T00780039=
201504020553 METAR KPAE 020553Z AUTO 32005KT 10SM FEW023 BKN044 OVC060 08/03 A3031 RMK AO2 SLP267 60010 T00780033 10117 20072 51012=
201504020453 METAR KPAE 020453Z AUTO 30004KT 10SM FEW027 SCT043 OVC060 08/03 A3030 RMK AO2 SLP264 T00780028=
201504020353 METAR KPAE 020353Z 28004KT 10SM FEW026 BKN049 08/03 A3030 RMK AO2 SLP262 T00780033=
201504020253 METAR KPAE 020253Z 29007KT 10SM BKN032 08/03 A3028 RMK AO2 LTG DSNT S SLP256 60010 T00830028 51007=
201504020153 METAR KPAE 020153Z 22004KT 10SM SCT027 BKN048 OVC065 08/04 A3027 RMK AO2 RAB0058E27 SLP254 P0010 T00830044=
201504020150 SPECI KPAE 020150Z 22004KT 10SM BKN027 BKN037 OVC065 08/04 A3027 RMK AO2 RAB0058E27 P0010=
201504020139 SPECI KPAE 020139Z 32003KT 10SM FEW027 BKN032 OVC060 08/04 A3027 RMK AO2 RAB0058E27 P0010 T00830039=
201504020118 SPECI KPAE 020118Z 23006KT 7SM -RA BKN029 OVC034 08/04 A3027 RMK AO2 RAB0058 P0010 T00780039=
201504020053 METAR KPAE 020053Z 25008KT 10SM FEW035 BKN060 OVC070 10/02 A3026 RMK AO2 SLP248 T01000017=
201504012353 METAR KPAE 012353Z 24009KT 10SM BKN065 11/M01 A3025 RMK AO2 SLP245 T01061006 10111 20078 56004=
201504012253 METAR KPAE 012253Z 30006KT 10SM CLR 11/M01 A3025 RMK AO2 SLP245 T01061011=
201504012153 METAR KPAE 012153Z 28005KT 10SM SCT030 11/02 A3025 RMK AO2 SLP246 T01060022=
201504012053 METAR KPAE 012053Z 22003KT 10SM FEW031 SCT041 10/04 A3026 RMK AO2 SLP249 T01000039 58007=
201504011953 METAR KPAE 011953Z 15008KT 10SM SCT024 09/03 A3027 RMK AO2 SLP254 T00940028=
201504011853 METAR KPAE 011853Z 18007KT 10SM SCT022 BKN026 BKN034 09/03 A3028 RMK AO2 SLP256 T00890033=
201504011800 SPECI KPAE 011800Z 17008KT 120V190 10SM BKN014 OVC026 08/03 A3029 RMK AO2 T00830033=
201504011753 METAR KPAE 011753Z COR 16006KT 10SM BKN014 OVC028 08/03 A3030 RMK AO2 SLP262 T00780033 10078 20044 52012=
201504011700 SPECI KPAE 011700Z 19008KT 10SM BKN010 OVC065 07/04 A3028 RMK AO2 T00720044=
201504011653 METAR KPAE 011653Z 19008KT 10SM SCT007 OVC070 07/04 A3028 RMK AO2 SLP258 T00670044=
201504011624 SPECI KPAE 011624Z 18007KT 10SM SCT007 OVC070 06/04 A3028 RMK AO2 T00610039=
201504011553 METAR KPAE 011553Z 21007KT 10SM BKN007 OVC065 06/04 A3027 RMK AO2 CIG 005V009 SLP255 T00610039=
201504011453 METAR KPAE 011453Z 17005KT 10SM FEW007 BKN070 06/04 A3026 RMK AO2 SLP250 T00560039 51007=
201504011451 SPECI KPAE 011451Z 17005KT 10SM SCT007 OVC070 06/04 A3026 RMK AO2=
201504011353 METAR KPAE 011353Z 19005KT 7SM BKN007 BKN070 04/03 A3025 RMK AO2 SLP247 T00440033=
201504011345 SPECI KPAE 011345Z AUTO 19005KT 9SM SCT006 BKN075 04/03 A3025 RMK AO2 T00440033=
201504011253 METAR KPAE 011253Z AUTO 16006KT 10SM SCT038 OVC070 05/04 A3024 RMK AO2 SLP243 T00500039=
201504011153 METAR KPAE 011153Z AUTO 16004KT 10SM BKN036 BKN043 BKN065 04/03 A3024 RMK AO2 SLP243 60001 70023 T00440033 10056 20044 53005=
201504011053 METAR KPAE 011053Z AUTO 15007KT 10SM BKN040 BKN047 04/03 A3023 RMK AO2 SLP239 T00440033=
201504011010 SPECI KPAE 011010Z AUTO 15004KT 10SM FEW006 BKN038 BKN065 04/03 A3023 RMK AO2 T00440028=
201504010953 METAR KPAE 010953Z AUTO VRB03KT 10SM SCT042 SCT060 BKN100 04/03 A3023 RMK AO2 SLP239 T00440033=
201504010853 METAR KPAE 010853Z AUTO VRB05KT 10SM FEW003 SCT026 BKN046 05/03 A3022 RMK AO2 SLP238 60001 T00500033 53014=
201504010841 SPECI KPAE 010841Z AUTO VRB05KT 10SM FEW026 SCT047 05/03 A3022 RMK AO2 T00500033=
201504010809 SPECI KPAE 010809Z AUTO 15006KT 10SM BKN026 OVC032 05/03 A3021 RMK AO2 T00500033=
201504010753 METAR KPAE 010753Z AUTO 15007KT 10SM BKN032 OVC041 05/03 A3021 RMK AO2 RAB05E48 SLP233 P0001 T00500033 401220050=
201504010704 SPECI KPAE 010704Z AUTO 16007KT 10SM SCT004 BKN040 OVC050 06/04 A3020 RMK AO2 T00560039=
201504010653 METAR KPAE 010653Z AUTO 16007KT 10SM BKN004 BKN024 OVC055 05/04 A3020 RMK AO2 SLP229 T00500039=
201504010644 SPECI KPAE 010644Z AUTO 16007KT 10SM BKN004 OVC022 05/04 A3020 RMK AO2 T00500039=
201504010624 SPECI KPAE 010624Z AUTO 16008KT 10SM FEW005 OVC022 05/03 A3019 RMK AO2 T00500033=
201504010553 METAR KPAE 010553Z AUTO 17008KT 10SM BKN023 OVC040 06/04 A3018 RMK AO2 RAB35E45 SLP224 P0000 60001 T00560039 10100 20056 53010=
201504010453 METAR KPAE 010453Z AUTO 15007KT 10SM FEW004 SCT049 BKN120 06/04 A3017 RMK AO2 SLP218 T00610044=
201504010450 SPECI KPAE 010450Z AUTO 16008KT 10SM FEW004 SCT047 BKN120 06/04 A3017 RMK AO2=
201504010353 METAR KPAE 010353Z AUTO 15006KT 10SM SCT024 BKN070 OVC085 06/04 A3015 RMK AO2 RAE28 SLP214 P0001 T00610039=
201504010300 SPECI KPAE 010300Z 20008KT 10SM -RA SCT022 OVC034 07/04 A3014 RMK AO2 P0000 T00720039=
201504010253 METAR KPAE 010253Z 19008KT 10SM -RA BKN014 OVC026 07/04 A3014 RMK AO2 RAB49 SLP209 P0000 60000 T00720039 53010=
201504010158 SPECI KPAE 010158Z 19008KT 10SM BKN012 BKN032 OVC050 08/04 A3013 RMK AO2 T00830039=
201504010153 METAR KPAE 010153Z 20005KT 10SM SCT032 BKN042 OVC050 08/04 A3013 RMK AO2 RAB15E52 SLP205 P0000 T00830039=
201504010053 METAR KPAE 010053Z 00000KT 10SM OVC070 10/03 A3012 RMK AO2 SLP200 T01000028=

# No short TAF reports from KPAE in databse.

###################################
#  large TAF from KPAE
###################################
201504302335 TAF KPAE 302335Z 0100/0124 27006KT P6SM FEW030 SCT250 FM010100
                       31005KT P6SM SCT250 FM011300 VRB03KT P6SM
                       BKN020 FM011600 36004KT P6SM SCT020=
201504301734 TAF KPAE 301734Z 3018/0118 19007KT P6SM SCT028 BKN200 FM010000
                       32007KT P6SM FEW030 BKN200 FM011300 VRB03KT
                       P6SM BKN020=
201504301120 TAF KPAE 301120Z 3012/0112 VRB04KT P6SM SCT017 OVC030
                      TEMPO 3012/3016 4SM -RA BR SCT010 OVC017
                       FM301800 22007KT P6SM SCT025 BKN200 FM010100
                       32007KT P6SM FEW030 BKN200=
201504301003 TAF AMD KPAE 301003Z 3010/0106 03004KT P6SM BKN020 OVC040
                      TEMPO 3010/3014 -RA OVC018 FM301800 22007KT
                       P6SM SCT025 BKN200 FM010100 32007KT P6SM
                       FEW030 BKN200=
201504300710 TAF AMD KPAE 300710Z 3007/0106 VRB03KT P6SM SCT030 OVC040
                      TEMPO 3009/3013 BKN025 OVC035 FM301800 22007KT
                       P6SM SCT025 BKN200 FM010100 32007KT P6SM
                       FEW030 BKN200=
201504300522 TAF KPAE 300522Z 3006/0106 33006KT P6SM FEW030 FM301800 22007KT
                       P6SM SCT025 BKN200 FM010100 32007KT P6SM
                       FEW030 BKN200=
201504292332 TAF KPAE 292332Z 3000/3024 24009KT P6SM SCT045 BKN070 BKN200
                      TEMPO 3000/3004 P6SM -SHRA OVC025 FM300400
                       20010KT P6SM VCSH SCT025 BKN070 FM300600
                       13006KT P6SM OVC025 FM301800 20007KT P6SM
                       SCT025 BKN200=
201504291741 TAF KPAE 291741Z 2918/3018 16006KT P6SM BKN013 OVC021
                      TEMPO 2918/2922 P6SM -SHRA SCT015 OVC025
                       FM292200 23010KT P6SM SCT020 BKN040
                      TEMPO 2922/3002 P6SM -SHRA OVC020 FM300200
                       20010KT P6SM VCSH BKN040 FM300600 02006KT
                       P6SM OVC020 FM301500 17006KT P6SM OVC050=
201504291130 TAF KPAE 291130Z 2912/3012 VRB03KT P6SM SCT020 BKN035 OVC050
                      TEMPO 2912/2916 BKN020 OVC035 FM291600 19006KT
                       P6SM SCT025 BKN040 FM292300 18012KT P6SM
                       SCT025 OVC040
                      TEMPO 2923/3003 -RA FM300500 VRB03KT P6SM
                       -SHRA BKN020 OVC035=
201504290539 TAF KPAE 290539Z 2906/3006 19006KT P6SM SCT015 BKN035 OVC050 FM290800
                       19006KT P6SM -SHRA BKN015 OVC030 FM291200
                       19006KT P6SM SCT020 BKN035 OVC050 FM291600
                       19006KT P6SM SCT025 BKN040 FM292200 18012KT
                       P6SM SCT025 OVC040
                      TEMPO 2922/3002 -RA=
201504282332 TAF KPAE 282332Z 2900/2924 35004KT P6SM VCSH OVC030 FM290600 18006KT
                       P6SM BKN020 BKN035 FM291500 18008KT P6SM
                       SCT025 BKN040 FM292200 18012KT P6SM -RA
                       BKN025 OVC040=
201504282016 TAF AMD KPAE 282016Z 2820/2918 35005KT P6SM -SHRA FEW015 OVC029
                       FM290000 36005KT P6SM VCSH SCT025 BKN045
                       FM290600 VRB04KT P6SM -SHRA BKN010 BKN035
                       FM291500 18005KT P6SM VCSH SCT025 BKN040=
201504281940 TAF AMD KPAE 281940Z 2820/2918 34008G14KT 5SM -SHRA BKN024 OVC030
                       TEMPO 2820/2823 2SM SHRA OVC024 FM282300
                       36005KT P6SM -SHRA BKN020 BKN045 FM290000
                       36005KT P6SM VCSH SCT025 BKN045 FM290600
                       VRB04KT P6SM -SHRA BKN010 BKN035 FM291500
                       18005KT P6SM VCSH SCT025 BKN040=
201504281729 TAF KPAE 281729Z 2818/2918 22011KT P6SM BKN019 OVC060
                      TEMPO 2818/2821 -SHRA FM282100 36005KT P6SM
                       -SHRA BKN020 BKN045 FM290000 36005KT P6SM
                       VCSH SCT025 BKN045 FM290600 VRB04KT P6SM
                       -SHRA BKN010 BKN035 FM291500 18005KT P6SM
                       VCSH SCT025 BKN040=
201504281632 TAF AMD KPAE 281632Z 2817/2912 18014G20KT P6SM SCT015 BKN070
                      TEMPO 2817/2819 -SHRA BKN015 OVC070 FM281900
                       19012KT P6SM -SHRA BKN025 BKN040 FM282200
                       VRB03KT P6SM VCSH SCT025 BKN040 FM290000
                       34008KT P6SM SCT025 BKN040 FM290600 VRB03KT
                       P6SM -SHRA BKN020 BKN040=
201504281218 TAF KPAE 281218Z 2812/2912 16014KT P6SM SCT050 BKN080 OVC200 FM281600
                       16014KT P6SM -RA SCT022 OVC035 FM281900
                       19012KT P6SM -SHRA BKN025 BKN040 FM282200
                       VRB03KT P6SM VCSH SCT025 BKN040 FM290000
                       34008KT P6SM SCT025 BKN040 FM290600 VRB03KT
                       P6SM -SHRA BKN020 BKN040=
201504280534 TAF KPAE 280534Z 2806/2906 VRB03KT P6SM BKN250 FM281000 18008KT
                       P6SM BKN250 FM281200 18008KT P6SM SCT050
                       BKN100 OVC200 FM281600 20012KT P6SM -RA
                       BKN022 OVC035 FM282000 20012KT P6SM -SHRA
                       BKN025 BKN040 FM290000 20010KT P6SM VCSH
                       SCT025 BKN040 FM290300 VRB03KT P6SM -SHRA
                       BKN020 BKN040=
201504272320 TAF KPAE 272320Z 2800/2824 01004KT P6SM SCT250 FM281100 17012G20KT
                       P6SM SCT010 FM281500 17015G25KT P6SM -RA
                       BKN015 OVC030 FM281900 VRB05KT P6SM -SHRA
                       BKN020 BKN040=
201504271728 TAF KPAE 271728Z 2718/2818 12007KT P6SM SCT015 BKN028 BKN045 FM271900
                       18006KT P6SM SCT035 SCT050 FM272200 23006KT
                       P6SM SKC FM280300 18006KT P6SM SKC FM281100
                       17012G20KT P6SM SCT010 FM281500 17015G25KT
                       P6SM -RA BKN015 OVC030=
201504271628 TAF AMD KPAE 271628Z 2716/2812 15007KT P6SM SCT003 BKN007 FM271900
                       18006KT P6SM SCT020 BKN040 BKN100 FM272200
                       25006KT P6SM SCT100 FM281000 15008KT P6SM
                       SCT060 BKN120=
201504271357 TAF AMD KPAE 271357Z 2714/2812 VRB04KT 2SM BR BKN004 OVC010 FM271600
                       18006KT P6SM BKN015 OVC035 FM271900 18006KT
                       P6SM SCT022 OVC035 FM272200 25006KT P6SM
                       SCT100 FM281000 15008KT P6SM SCT060 BKN120=
201504271313 TAF AMD KPAE 271313Z 2713/2812 VRB04KT P6SM OVC005 FM271600 18006KT
                       P6SM BKN015 OVC035 FM271900 18006KT P6SM
                       SCT022 OVC035 FM272200 25006KT P6SM SCT100
                       FM281000 15008KT P6SM SCT060 BKN120=
201504271136 TAF KPAE 271136Z 2712/2812 16006KT P6SM OVC012 FM271600 18006KT
                       P6SM SCT015 BKN022 OVC035 FM271900 18006KT
                       P6SM SCT022 OVC035 FM272200 25006KT P6SM
                       SCT100 FM281000 15008KT P6SM SCT060 BKN120=
201504270536 TAF KPAE 270536Z 2706/2806 18012KT P6SM BKN030 OVC040 FM271200
                       18008KT P6SM SCT030 OVC040 FM271800 18008KT
                       P6SM SCT050 BKN100 FM272100 25006KT P6SM
                       SCT100=
201504262321 TAF KPAE 262321Z 2700/2724 20008KT P6SM BKN100 OVC200 FM270400
                       17008KT P6SM -RA SCT025 OVC040 FM270800
                       15008KT P6SM SCT035 OVC050 FM271800 19008KT
                       P6SM SCT050 BKN100 FM272100 25006KT P6SM
                       SCT100=
201504261720 TAF KPAE 261720Z 2618/2718 17006KT P6SM SCT100 OVC200 FM262100
                       16012KT P6SM SCT050 OVC080 FM270200 17010KT
                       P6SM -RA SCT025 OVC040 FM270800 17010KT
                       P6SM SCT035 OVC050=
201504261122 TAF KPAE 261122Z 2612/2712 VRB03KT P6SM BKN250 FM261600 15008KT
                       P6SM SCT070 OVC150 FM262200 15012KT P6SM
                       SCT040 OVC070 FM270400 17010KT P6SM -RA
                       SCT025 OVC040 FM270800 17010KT P6SM SCT035
                       OVC050=
201504260535 TAF KPAE 260535Z 2606/2706 VRB03KT P6SM SKC FM261600 15008KT P6SM
                       SCT070 OVC150 FM262200 15012KT P6SM SCT040
                       OVC070 FM270400 17010KT P6SM -RA SCT025
                       OVC040=
201504260104 TAF AMD KPAE 260104Z 2601/2624 30005KT P6SM FEW045 FM260900 14003KT
                       P6SM SCT050 SCT150 FM262100 20005KT P6SM
                       SCT025 BKN040 BKN150=
201504252331 TAF KPAE 252331Z 2600/2624 29005KT P6SM SCT045 BKN070 FM260200
                       VRB03KT P6SM SCT045 FM260900 14003KT P6SM
                       SCT050 SCT150 FM262100 20005KT P6SM SCT025
                       BKN040 BKN150=
201504251740 TAF KPAE 251740Z 2518/2618 25005KT P6SM -SHRA SCT009 BKN030 FM251900
                       26005KT P6SM SCT030 BKN045 FM252300 34006KT
                       P6SM SCT050 FM260700 15006KT P6SM SCT050
                       SCT100=
201504251128 TAF KPAE 251128Z 2512/2612 VRB03KT P6SM SCT020 BKN035 OVC050
                      TEMPO 2514/2518 -SHRA BKN020 OVC035 FM251800
                       25005KT P6SM FEW030 BKN045 BKN100 FM252300
                       34006KT P6SM SCT050 SCT100 FM260700 VRB03KT
                       P6SM SCT050 SCT100=
201504250526 TAF KPAE 250526Z 2506/2606 VRB03KT P6SM -SHRA SCT020 BKN035 OVC050
                       TEMPO 2506/2510 4SM SHRA BR BKN020 OVC035
                       FM251400 VRB03KT P6SM BKN022 OVC035 FM251800
                       25005KT P6SM FEW030 BKN045 BKN100 FM260200
                       VRB03KT P6SM SCT050 SCT100=
201504242322 TAF KPAE 242322Z 2500/2524 16014G20KT P6SM FEW035 SCT100 BKN200
                       FM250300 18008KT P6SM SCT035 BKN050 BKN100
                       FM250600 15004KT P6SM -SHRA SCT020 BKN035
                       OVC050
                      TEMPO 2507/2511 4SM SHRA BR BKN020 OVC035
                       FM251400 VRB03KT P6SM BKN022 OVC035 FM251900
                       25005KT P6SM FEW028 BKN045 BKN100=
201504241720 TAF KPAE 241720Z 2418/2518 19014G24KT P6SM SCT020 SCT035 BKN090
                       TEMPO 2418/2422 -SHRA BKN020 OVC035 FM250200
                       18010KT P6SM SCT020 BKN035 OVC050=
201504241133 TAF KPAE 241133Z 2412/2512 17014KT P6SM -SHRA SCT022 BKN035 OVC050
                       TEMPO 2412/2415 BKN022 OVC035 FM241900 18014G22KT
                       P6SM -SHRA BKN022 OVC035 FM250200 18010KT
                       P6SM -SHRA SCT020 BKN035 OVC050=
201504240539 TAF KPAE 240539Z 2406/2506 17008KT P6SM BKN040 FM240900 17012KT
                       P6SM -SHRA SCT022 BKN035 OVC050
                      TEMPO 2411/2415 BKN022 OVC035 FM241900 18014G22KT
                       P6SM -SHRA BKN022 OVC035=
201504232330 TAF KPAE 232330Z 2400/2424 18014G22KT P6SM SCT009 BKN024 OVC030
                       FM240300 34006KT P6SM -RA BKN015 OVC030
                       FM241000 18008KT P6SM VCSH OVC035 FM241800
                       18014G22KT P6SM -SHRA BKN023 OVC040=
201504231730 TAF KPAE 231730Z 2318/2418 18015G25KT P6SM SCT025 OVC045 FM232000
                       18015G25KT P6SM -RA OVC030 FM232200 17015G25KT
                       P6SM -RA OVC020 FM240300 34006KT P6SM -RA
                       BKN015 OVC030 FM240600 18008KT P6SM VCSH
                       OVC035=
201504231320 TAF AMD KPAE 231320Z 2313/2412 17010KT P6SM BKN022 OVC080 FM231800
                       18010KT P6SM -RA OVC030 FM232200 17013G22KT
                       P6SM -RA OVC020 FM240300 34006KT P6SM -RA
                       BKN015 OVC030 FM240600 18008KT P6SM VCSH
                       OVC035=
201504231132 TAF KPAE 231132Z 2312/2412 17004KT P6SM SCT030 OVC080 FM231800
                       18010KT P6SM -RA OVC030 FM232200 17013G22KT
                       P6SM -RA OVC020 FM240300 34006KT P6SM -RA
                       BKN015 OVC030 FM240600 18008KT P6SM VCSH
                       OVC035=
201504230945 TAF AMD KPAE 230945Z 2310/2406 16004KT P6SM BKN025 OVC035 FM231800
                       16010KT P6SM -RA OVC030 FM232200 17013G22KT
                       P6SM -RA OVC020=
201504230544 TAF KPAE 230544Z 2306/2406 01004KT P6SM OVC050 FM230800 16006KT
                       P6SM OVC040 FM231800 16010KT P6SM -RA OVC030
                       FM232200 17013G22KT P6SM -RA OVC020=
201504222320 TAF KPAE 222320Z 2300/2324 36006KT P6SM SCT035 FM230300 01004KT
                       P6SM SCT035 BKN120 OVC250 FM230800 16006KT
                       P6SM SCT045 BKN100 OVC250 FM231800 16010KT
                       P6SM -RA OVC030 FM232200 17013G22KT P6SM
                       -RA OVC020=
201504221730 TAF KPAE 221730Z 2218/2318 VRB03KT P6SM SCT006 OVC015
                      TEMPO 2218/2222 SCT015 FM222200 31006KT P6SM
                       SCT030
                      TEMPO 2222/2301 BKN030 FM230400 01004KT P6SM
                       BKN045 OVC250 FM230800 16006KT P6SM SCT045
                       BKN100 OVC250=
201504221500 TAF AMD KPAE 221500Z 2215/2312 17007KT P6SM SCT006
                      TEMPO 2215/2218 BKN006 FM221800 30006KT P6SM
                       BKN020 FM222100 31005KT P6SM OVC030 FM230300
                       VRB04KT P6SM OVC040 FM230800 16006KT P6SM
                       OVC030=
201504221130 TAF KPAE 221130Z 2212/2312 20006KT P6SM VCSH SCT025 BKN050 FM221400
                       VRB05KT P6SM OVC030 FM221800 30006KT P6SM
                       BKN020 FM222100 31005KT P6SM OVC030 FM230300
                       VRB04KT P6SM OVC040 FM230800 16006KT P6SM
                       OVC030=
201504220537 TAF KPAE 220537Z 2206/2306 04006KT P6SM -SHRA SCT017 OVC030 FM221000
                       VRB05KT P6SM VCSH OVC015 FM222000 31008KT
                       P6SM SCT022 BKN045 FM230300 VRB04KT P6SM
                       SCT015 OVC030=
201504220306 TAF AMD KPAE 220306Z 2203/2224 01008KT P6SM RA BKN015 OVC020 FM220400
                       35008KT P6SM -SHRA SCT017 OVC030 FM221000
                       VRB05KT P6SM VCSH OVC015 FM222000 31008KT
                       P6SM VCSH SCT022 BKN045=
201504212335 TAF KPAE 212335Z 2200/2224 34010G16KT P6SM VCSH SCT020 OVC050
                      TEMPO 2200/2204 -SHRA BKN020 OVC040 FM220400
                       35008KT P6SM -SHRA SCT017 OVC035 FM221000
                       VRB05KT P6SM VCSH OVC015 FM222000 31008KT
                       P6SM VCSH SCT022 BKN045=
201504211730 TAF KPAE 211730Z 2118/2218 03004KT P6SM SCT012 SCT070 BKN250 FM212000
                       35010KT P6SM VCSH BKN020 OVC030 FM220100
                       34012KT P6SM -SHRA OVC020 FM220600 33008KT
                       P6SM VCSH SCT015 OVC025=
201504211645 TAF AMD KPAE 211645Z 2117/2212 VRB05KT P6SM BKN070 FM212000 35010KT
                       P6SM VCSH BKN020 OVC030 FM220100 34012KT
                       P6SM -SHRA OVC020 FM220600 33008KT P6SM
                       VCSH SCT015 OVC025=
201504211500 TAF AMD KPAE 211500Z 2115/2212 02008KT P6SM OVC005 FM211700 34008KT
                       P6SM SCT010 OVC035 FM212000 35010KT P6SM
                       VCSH BKN020 OVC030 FM220100 34012KT P6SM
                       -SHRA OVC020 FM220600 33008KT P6SM VCSH
                       SCT015 OVC025=
201504211329 TAF AMD KPAE 211329Z 2113/2212 02005KT P6SM BKN005 FM211700 34008KT
                       P6SM SCT020 OVC035 FM212000 35010KT P6SM
                       VCSH BKN020 OVC030 FM220100 34012KT P6SM
                       -SHRA OVC020 FM220600 33008KT P6SM VCSH
                       SCT015 OVC025=
201504211143 TAF KPAE 211143Z 2112/2212 03006KT P6SM FEW200 FM211300 01008KT
                       P6SM SCT005 FM211700 34008KT P6SM SCT020
                       OVC035 FM212000 35010KT P6SM VCSH BKN020
                       OVC030 FM220100 34012KT P6SM -SHRA OVC020
                       FM220600 33008KT P6SM VCSH SCT015 OVC025=
201504210524 TAF KPAE 210524Z 2106/2206 02008KT P6SM SKC FM211200 19005KT P6SM
                       BKN003
                      TEMPO 2112/2116 2SM BR OVC003 FM211700 21008KT
                       P6SM VCSH SCT020 OVC035 FM212200 32006KT
                       P6SM -SHRA BKN020 OVC030=
201504202330 TAF KPAE 202330Z 2100/2124 01006KT P6SM SKC FM210400 02003KT P6SM
                       SKC FM211200 19005KT P6SM BKN003
                      TEMPO 2112/2116 2SM BR OVC003 FM211700 21008KT
                       P6SM VCSH SCT020 OVC035 FM212200 32006KT
                       P6SM -SHRA BKN020 OVC030=
201504201725 TAF KPAE 201725Z 2018/2118 31004KT P6SM SKC FM210400 02003KT P6SM
                       SKC FM211200 19005KT P6SM BKN003
                      TEMPO 2112/2116 2SM BR OVC003=
201504201120 TAF KPAE 201120Z 2012/2112 01004KT P6SM FEW250 FM201800 35006KT
                       P6SM SKC FM210400 01004KT P6SM SKC=
201504200520 TAF KPAE 200520Z 2006/2106 36005KT P6SM SCT250 FM200900 01004KT
                       P6SM FEW250 FM201800 35006KT P6SM SKC=
201504192320 TAF KPAE 192320Z 2000/2024 36007KT P6SM SCT250 FM200400 01004KT
                       P6SM SKC=
201504191720 TAF KPAE 191720Z 1918/2018 36007KT P6SM SCT250 FM200400 01004KT
                       P6SM SKC=
201504191120 TAF KPAE 191120Z 1912/2012 01004KT P6SM SCT250 FM191800 35007KT
                       P6SM SKC FM200400 01004KT P6SM SKC=
201504190530 TAF KPAE 190530Z 1906/2006 02006KT P6SM SCT250 FM191800 35007KT
                       P6SM SKC=
201504182320 TAF KPAE 182320Z 1900/1924 36008KT P6SM SCT250 FM190600 03006KT
                       P6SM SCT250=
201504181821 TAF KPAE 181821Z 1818/1918 35010KT P6SM SKC FM190400 01006KT P6SM
                       SCT250=
201504181120 TAF KPAE 181120Z 1812/1912 01007KT P6SM SKC FM181500 34008KT P6SM
                       SKC FM182100 35011KT P6SM SKC FM190400 01006KT
                       P6SM SCT250=
201504180520 TAF KPAE 180520Z 1806/1906 36009KT P6SM SKC FM181500 34008KT P6SM
                       SKC FM182100 35011KT P6SM SKC=
201504172320 TAF KPAE 172320Z 1800/1824 36010KT P6SM SKC FM181100 04006KT P6SM
                       SCT003
                      TEMPO 1812/1816 3SM BR BKN003 FM181700 36008KT
                       P6SM SKC=
201504171902 TAF AMD KPAE 171902Z 1719/1818 36012KT P6SM SKC FM181100 04006KT
                       P6SM SCT003
                      TEMPO 1812/1816 3SM BR BKN003 FM181700 36008KT
                       P6SM SKC=
201504171720 TAF KPAE 171720Z 1718/1818 VRB04KT P6SM SCT050 BKN090 FM180000
                       36010KT P6SM SCT040 FM181100 04006KT P6SM
                       SCT003
                      TEMPO 1812/1816 3SM BR BKN003 FM181700 36008KT
                       P6SM SKC=
201504171507 TAF AMD KPAE 171507Z 1715/1812 36006KT P6SM SCT005
                      TEMPO 1715/1717 5SM BR BKN005 FM171800 36008KT
                       P6SM SCT050 BKN090 FM180400 36006KT P6SM
                       SCT040 FM181100 VRB03KT 3SM BR BKN003=
201504171120 TAF KPAE 171120Z 1712/1812 35004KT P6SM SCT150 SCT250
                      TEMPO 1712/1715 6SM BR BKN002 FM171500 34006KT
                       P6SM SCT150 SCT250 FM172100 36008KT P6SM
                       SCT050 SCT250 FM180400 36006KT P6SM FEW050=
201504171028 TAF AMD KPAE 171028Z 1710/1806 35004KT P6SM FEW250
                      TEMPO 1710/1714 BKN003 FM171500 34006KT P6SM
                       FEW150 SCT250 FM172100 36008KT P6SM SCT050
                       SCT250=
201504170520 TAF KPAE 170520Z 1706/1806 35004KT P6SM FEW250 FM171500 34006KT
                       P6SM FEW150 SCT250 FM172100 36008KT P6SM
                       SCT050 SCT250=
201504162320 TAF KPAE 162320Z 1700/1724 34009G15KT P6SM FEW250 FM170400 05005KT
                       P6SM SKC FM171500 16006KT P6SM SCT200=
201504161729 TAF KPAE 161729Z 1618/1718 09003KT P6SM FEW250 FM170400 05005KT
                       P6SM SKC FM171500 16006KT P6SM SCT200=
201504161120 TAF KPAE 161120Z 1612/1712 VRB04KT P6SM SKC FM161800 35008KT P6SM
                       SKC=
201504160520 TAF KPAE 160520Z 1606/1706 36004KT P6SM SCT250 FM161800 35008KT
                       P6SM SKC=
201504152324 TAF KPAE 152324Z 1600/1624 VRB03KT P6SM SCT250 FM160300 VRB03KT
                       P6SM BKN200=
201504151727 TAF KPAE 151727Z 1518/1618 17006KT P6SM SCT200 FM160300 VRB03KT
                       P6SM BKN250=
201504151120 TAF KPAE 151120Z 1512/1612 19005KT P6SM FEW021 SCT050 FM151900
                       22005KT P6SM BKN035 FM152200 30005KT P6SM
                       BKN035 FM160200 01004KT P6SM SCT030=
201504150520 TAF KPAE 150520Z 1506/1606 29006KT P6SM SCT029
                      TEMPO 1506/1508 BKN029 FM150800 16004KT P6SM
                       SCT030 FM151900 22005KT P6SM BKN035 FM152200
                       30005KT P6SM BKN035=
201504142329 TAF KPAE 142329Z 1500/1524 28005KT P6SM VCSH SCT040 BKN100 FM150400
                       31005KT P6SM SCT020 BKN040 FM151600 17005KT
                       P6SM SCT040=
201504141728 TAF KPAE 141728Z 1418/1518 21005KT P6SM VCSH SCT006 SCT022 BKN035
                       FM142200 21006KT P6SM -SHRA BKN020 OVC035
                       FM150000 32005KT P6SM VCSH SCT020 BKN040
                       FM150700 VRB03KT P6SM SCT020 BKN040=
201504141120 TAF KPAE 141120Z 1412/1512 19007KT P6SM VCSH FEW040 BKN060 FM141700
                       32005KT P6SM -SHRA BKN020 OVC035 FM150000
                       32005KT P6SM VCSH SCT020 BKN040=
201504140829 TAF AMD KPAE 140829Z 1408/1506 18007KT P6SM SCT008 BKN040 OVC050
                       TEMPO 1408/1412 -SHRA BKN008 OVC022 FM141200
                       VRB03KT P6SM VCSH SCT015 BKN025 OVC040 FM142100
                       32005KT P6SM VCSH SCT025 BKN045=
201504140524 TAF KPAE 140524Z 1406/1506 17005KT P6SM BKN022 BKN035 OVC060 FM140800
                       15005KT P6SM -SHRA BKN015 OVC025 FM141400
                       VRB03KT P6SM VCSH SCT015 BKN025 OVC040 FM142100
                       32005KT P6SM VCSH SCT025 BKN045=
201504132326 TAF KPAE 132326Z 1400/1424 33005KT 5SM -RA BR BKN009 OVC021 FM140300
                       21012KT P6SM -RA OVC025 FM140700 21008KT
                       P6SM VCSH OVC015 FM141800 25006KT P6SM SCT025
                       BKN040=
201504132249 TAF AMD KPAE 132249Z 1323/1418 33007G19KT 5SM -RA BR BKN009 OVC026
                       FM140200 32009KT P6SM -RA OVC025 FM140900
                       18006KT P6SM -SHRA OVC015 FM141700 22007KT
                       P6SM SCT025 OVC040=
201504132101 TAF AMD KPAE 132101Z 1321/1418 20018G25KT P6SM -RA FEW035 BKN050
                       OVC060 FM140200 32009KT P6SM -RA OVC025
                       FM140900 18006KT P6SM -SHRA OVC015 FM141700
                       22007KT P6SM SCT025 OVC040=
201504131725 TAF KPAE 131725Z 1318/1418 19017KT P6SM OVC060 FM132100 17014G24KT
                       4SM -RA BR OVC025 FM140200 32009KT P6SM
                       -RA OVC025 FM140900 18006KT P6SM -SHRA OVC015
                       FM141700 22007KT P6SM SCT025 OVC040=
201504131122 TAF KPAE 131122Z 1312/1412 00000KT P6SM BKN100 FM131500 15012KT
                       P6SM -RA OVC050 FM131800 17015G21KT P6SM
                       -RA OVC030 FM132000 18015G25KT P6SM -SHRA
                       OVC022 FM132200 30010KT 5SM -SHRA BR BKN010
                       OVC020=
201504130528 TAF KPAE 130528Z 1306/1406 12008KT P6SM OVC090 FM131500 15012KT
                       P6SM -RA OVC050 FM131800 17015G21KT P6SM
                       -RA OVC030 FM132000 18015G25KT P6SM -SHRA
                       OVC022 FM132200 30010KT 5SM -SHRA BR BKN010
                       OVC020=
201504122336 TAF KPAE 122336Z 1300/1324 20006KT P6SM SCT040 BKN060 FM130400
                       VRB03KT P6SM SCT060 FM131100 15008KT P6SM
                       SCT060 BKN120 FM132000 15014KT P6SM -RA
                       OVC040=
201504121728 TAF KPAE 121728Z 1218/1318 17006KT P6SM SCT020 SCT200 FM122000
                       34006KT P6SM SCT040 BKN060 FM130400 VRB03KT
                       P6SM SCT060 FM131100 15008KT P6SM SCT060
                       BKN150=
201504121120 TAF KPAE 121120Z 1212/1312 17005KT P6SM SCT020 FM122000 34006KT
                       P6SM BKN035 BKN050 FM130400 15007KT P6SM
                       SCT035 SCT140=
201504120522 TAF KPAE 120522Z 1206/1306 16009KT P6SM -SHRA BKN035 BKN050 FM121000
                       VRB04KT P6SM SCT035 BKN050 FM122000 34006KT
                       P6SM BKN035 BKN050 FM130400 15007KT P6SM
                       SCT035 SCT140=
201504120405 TAF AMD KPAE 120405Z 1204/1224 15008KT P6SM VCSH BKN035 OVC045
                       FM120500 VRB04KT P6SM VCSH SCT025 BKN040
                       FM121300 VRB04KT P6SM SCT030 BKN070 FM122300
                       34006KT P6SM SCT070=
201504112332 TAF KPAE 112332Z 1200/1224 32008KT P6SM -SHRA VCTS BKN025CB BKN040
                       FM120500 VRB04KT P6SM VCSH SCT025 BKN040
                       FM121300 VRB04KT P6SM SCT030 BKN070 FM122300
                       34006KT P6SM SCT070=
201504111726 TAF KPAE 111726Z 1118/1218 22012KT P6SM SCT020 BKN060 FM112200
                       32008KT P6SM -SHRA VCTS BKN025CB BKN040
                       FM120400 VRB04KT P6SM VCSH SCT025 BKN040
                       FM121300 VRB04KT P6SM SCT030 BKN070=
201504111321 TAF AMD KPAE 111321Z 1113/1212 VRB05KT P6SM VCSH SCT050 OVC090
                       FM111500 VRB04KT P6SM -SHRA BKN025 BKN040
                       FM112200 32008KT P6SM -SHRA VCTS BKN025CB
                       BKN040 FM120400 VRB04KT P6SM VCSH SCT025
                       BKN040=
201504111120 TAF KPAE 111120Z 1112/1212 15007KT P6SM -SHRA SCT025 BKN040 OVC100
                       FM111500 VRB04KT P6SM -SHRA BKN025 BKN040
                       FM112200 32008KT P6SM -SHRA VCTS BKN025CB
                       BKN040 FM120400 VRB04KT P6SM VCSH SCT025
                       BKN040=
201504110856 TAF AMD KPAE 110856Z 1109/1206 VRB03KT 4SM -RA BR SCT006 OVC018
                       FM111900 VRB05KT P6SM -SHRA BKN025 BKN040=
201504110532 TAF KPAE 110532Z 1106/1206 18015G24KT P6SM FEW014 BKN030 OVC040
                       FM110700 VRB05KT P6SM -SHRA BKN017 OVC030
                       FM111900 VRB05KT P6SM -SHRA BKN025 BKN040=
201504110258 KPAE 110258Z 1103/1124 19020G25KT P6SM -RA BKN019 BKN025 OVC040
                       FM110500 VRB05KT P6SM -SHRA BKN015 BKN040
                       FM111000 18012KT P6SM -SHRA BKN025 BKN040=
201504102335 TAF KPAE 102335Z 1100/1124 21015G25KT P6SM -RA OVC040 FM110400
                       19012G18KT P6SM -SHRA BKN025 BKN040 FM111000
                       18012KT P6SM -SHRA BKN025 BKN040=
201504101730 TAF KPAE 101730Z 1018/1118 16015KT P6SM SCT060 OVC150 FM102100
                       16015KT P6SM SCT050 BKN100 OVC200 FM110000
                       16015G25KT P6SM -RA OVC040 FM110500 18012G18KT
                       P6SM -SHRA BKN025 BKN040 FM111200 18012KT
                       P6SM -SHRA BKN025 BKN040=
201504101120 TAF KPAE 101120Z 1012/1112 VRB03KT P6SM BKN080 FM101500 17006KT
                       P6SM BKN050 OVC180 FM101800 18016G22KT P6SM
                       OVC050 FM102100 18022G28KT P6SM OVC050 FM110000
                       18022G28KT P6SM -RA OVC030 FM110400 19020G25KT
                       P6SM -SHRA BKN025 OVC050 FM110700 19014KT
                       P6SM -SHRA BKN025 BKN050=
201504100525 TAF KPAE 100525Z 1006/1106 20005KT P6SM SCT200 FM100800 17005KT
                       P6SM SCT200 FM101500 17006KT P6SM BKN050
                       OVC180 FM101800 18016G22KT P6SM OVC050 FM102100
                       18022G28KT P6SM OVC050 FM110000 18022G28KT
                       P6SM -RA OVC030 FM110400 19020G25KT P6SM
                       -SHRA BKN025=
201504100201 TAF AMD KPAE 100201Z 1002/1024 14007KT P6SM SCT060 FM100330 VRB03KT
                       P6SM SCT250 FM101200 17008KT P6SM SCT250
                       FM101800 18015G22KT P6SM BKN060=
201504092320 TAF KPAE 092320Z 1000/1024 28005KT P6SM SCT250 FM100300 VRB03KT
                       P6SM SCT250 FM101200 17008KT P6SM SCT250
                       FM101800 18015G22KT P6SM BKN060=
201504091720 TAF KPAE 091720Z 0918/1018 28005KT P6SM SCT250 FM100300 VRB03KT
                       P6SM BKN250 FM101200 17008KT P6SM BKN250=
201504091428 TAF AMD KPAE 091428Z 0914/1012 VRB03KT P6SM SCT007 SCT070
                      TEMPO 0914/0916 BKN007 BKN070 FM091800 28005KT
                       P6SM SCT070 SCT250 FM092100 32005KT P6SM
                       FEW070 SCT250 FM100200 VRB03KT P6SM BKN250=
201504091126 TAF KPAE 091126Z 0912/1012 VRB03KT P6SM VCFG SCT070 FM091800 28005KT
                       P6SM SCT070 SCT250 FM092100 32005KT P6SM
                       FEW070 SCT250 FM100200 VRB03KT P6SM BKN250=
201504090521 TAF KPAE 090521Z 0906/1006 04003KT P6SM SKC FM091800 27005KT P6SM
                       SCT250=
201504082320 TAF KPAE 082320Z 0900/0924 35005KT P6SM SKC FM090600 VRB03KT P6SM
                       SKC FM091800 27005KT P6SM SCT250=
201504081728 TAF KPAE 081728Z 0818/0918 28005KT P6SM SCT070 SCT100 FM082100
                       29006KT P6SM SCT040 BKN100 FM090300 VRB03KT
                       P6SM SCT100=
201504081120 TAF KPAE 081120Z 0812/0912 36003KT P6SM BKN050 BKN090 FM081600
                       28005KT P6SM SCT060 SCT100 FM082100 23006KT
                       P6SM SCT060 BKN120=
201504080522 TAF KPAE 080522Z 0806/0906 34005KT P6SM BKN100 FM081400 28005KT
                       P6SM SCT060 SCT250 FM082100 23006KT P6SM
                       SCT060 BKN120=
201504072320 TAF KPAE 072320Z 0800/0824 36005KT P6SM BKN060 BKN090 FM080400
                       01003KT P6SM SCT060 BKN090 FM081400 28005KT
                       P6SM SCT060 SCT250=
201504071727 TAF KPAE 071727Z 0718/0818 36005KT P6SM BKN060 OVC090 FM080100
                       34004KT P6SM BKN050 BKN090 FM080600 01003KT
                       P6SM SCT060 BKN090 FM081400 28003KT P6SM
                       SCT060 SCT250=
201504071130 TAF KPAE 071130Z 0712/0812 02005KT P6SM SCT100 OVC250 FM071800
                       32008KT P6SM SCT060 SCT100 BKN250 FM080300
                       36005KT P6SM BKN250=
201504070546 TAF KPAE 070546Z 0706/0806 VRB03KT P6SM FEW110 BKN250 FM071200
                       VRB03KT P6SM BKN110 OVC250 FM071800 32008KT
                       P6SM SCT060 SCT110 BKN250 FM080300 36005KT
                       P6SM BKN250=
201504070314 TAF AMD KPAE 070314Z 0703/0724 03005KT P6SM BKN250 FM071800 34006KT
                       P6SM BKN060 BKN120=
201504062326 TAF KPAE 062326Z 0700/0724 30005KT P6SM SCT040 BKN250 FM070400
                       03005KT P6SM SCT100 BKN250 FM071800 34006KT
                       P6SM BKN060 BKN120=
201504061722 TAF KPAE 061722Z 0618/0718 19010KT P6SM SCT012 BKN035 OVC080
                      TEMPO 0618/0622 -SHRA BKN012 OVC025 FM070000
                       30005KT P6SM SCT060 BKN110 BKN200 FM070300
                       35005KT P6SM SCT110 BKN200=
201504061143 TAF KPAE 061143Z 0612/0712 17009KT P6SM SCT030 BKN110 OVC200
                      TEMPO 0614/0618 BKN030 BKN110 OVC200 FM061800
                       22009KT P6SM SCT060 BKN110 BKN200 FM070000
                       30005KT P6SM SCT060 BKN110 BKN200 FM070300
                       35005KT P6SM SCT110 BKN200=
201504060910 TAF AMD KPAE 060910Z 0609/0706 20006KT P6SM BKN110 OVC200 FM061400
                       17006KT P6SM FEW022 SCT060 OVC110 FM061800
                       22009KT P6SM VCSH SCT030 BKN060 OVC110
                      PROB30 0618/0624 -SHRA FM070000 32005KT P6SM
                       SCT060 BKN110 BKN200 FM070300 35005KT P6SM
                       SCT110 BKN200=
201504060528 TAF KPAE 060528Z 0606/0706 VRB05KT P6SM SCT110 OVC200 FM060900
                       17006KT P6SM BKN110 OVC200 FM061400 17006KT
                       P6SM FEW022 SCT060 OVC110 FM061800 22009KT
                       P6SM VCSH SCT030 BKN060 OVC110
                      PROB30 0618/0624 -SHRA FM070000 32005KT P6SM
                       SCT060 BKN110 BKN200 FM070300 35005KT P6SM
                       SCT110 BKN200=
201504060323 TAF AMD KPAE 060323Z 0603/0624 35005KT P6SM SCT100 OVC200 FM060600
                       VRB03KT P6SM SCT060 BKN100 OVC200 FM061400
                       18007KT P6SM SCT060 SCT200=
201504052320 TAF KPAE 052320Z 0600/0624 36007KT P6SM VCSH SCT060 BKN150 FM060600
                       VRB04KT P6SM VCSH BKN060 BKN150 FM061400
                       18007KT P6SM SCT060 SCT200=
201504051720 TAF KPAE 051720Z 0518/0618 36006KT P6SM SCT080 SCT200 FM060300
                       VRB04KT P6SM VCSH BKN060 BKN120 FM061100
                       18006KT P6SM BKN050 BKN100=
201504051129 TAF KPAE 051129Z 0512/0612 VRB03KT P6SM BKN200 FM051800 32007KT
                       P6SM SCT050 SCT100 BKN200 FM060200 VRB03KT
                       P6SM BKN100 BKN200=
201504050541 TAF KPAE 050541Z 0506/0606 VRB03KT P6SM SCT070 FM051800 32007KT
                       P6SM SCT050 SCT100 BKN200 FM060200 VRB03KT
                       P6SM SCT100 BKN200=
201504042320 TAF KPAE 042320Z 0500/0524 22008KT P6SM SCT040 SCT150 FM050600
                       00000KT P6SM SKC FM051200 VRB03KT P6SM SCT010
                       FM051700 36006KT P6SM SCT040=
201504041720 TAF KPAE 041720Z 0418/0518 16008KT P6SM BKN035 FM042200 21007KT
                       P6SM VCSH BKN040 FM050200 VRB03KT P6SM SCT050
                       FM050900 VRB03KT P6SM SCT005
                      TEMPO 0513/0516 3SM BR BKN005 FM051700 36006KT
                       P6SM SCT040=
201504041135 TAF KPAE 041135Z 0412/0512 VRB03KT P6SM SCT015 BKN030 FM041400
                       VRB03KT P6SM BKN015 BKN030 FM041800 17009KT
                       P6SM BKN025 BKN050 FM042000 23009KT P6SM
                       SCT035 BKN050
                      PROB30 0421/0503 -SHRA OVC035 FM050300 VRB03KT
                       P6SM SCT050 SCT100 FM050900 VRB03KT P6SM
                       VCFG BKN007=
201504040908 TAF AMD KPAE 040908Z 0409/0506 VRB05KT P6SM SCT022 SCT040
                      TEMPO 0409/0411 BKN022 BKN040 FM041100 VRB05KT
                       P6SM OVC015 FM041800 17009KT P6SM BKN030
                       BKN050 FM042000 23009KT P6SM SCT035 BKN050
                       PROB30 0420/0502 -SHRA OVC035 FM050200 VRB03KT
                       P6SM BKN050 BKN100=
201504040549 TAF KPAE 040549Z 0406/0506 VRB05KT P6SM VCSH SCT022 BKN035
                      TEMPO 0406/0410 BKN022 OVC035 FM041000 VRB05KT
                       P6SM OVC022 FM041800 17009KT P6SM BKN030
                       BKN050 FM042000 23009KT P6SM SCT035 BKN050
                       PROB30 0420/0502 -SHRA OVC035 FM050200 VRB03KT
                       P6SM BKN050 BKN100=
201504040315 TAF AMD KPAE 040315Z 0403/0424 VRB05KT P6SM VCSH BKN025 OVC050
                       TEMPO 0403/0407 -SHRA FM040800 VRB04KT P6SM
                       VCSH BKN030 OVC050 FM041700 VRB04KT P6SM
                       SCT030 BKN050=
201504032320 TAF KPAE 032320Z 0400/0424 21010KT P6SM -SHRA BKN020 BKN050 FM040200
                       30010KT P6SM -SHRA BKN025 OVC050 FM040800
                       VRB04KT P6SM VCSH BKN030 OVC050 FM041700
                       VRB04KT P6SM SCT030 BKN050=
201504032013 TAF AMD KPAE 032013Z 0320/0418 21015G22KT P6SM -SHRA BKN020 BKN050
                       FM040200 30010KT P6SM -SHRA BKN025 OVC050
                       FM040800 VRB04KT P6SM VCSH BKN030 OVC050
                       FM041700 VRB04KT P6SM SCT030 BKN050=
201504031720 TAF KPAE 031720Z 0318/0418 16012G20KT P6SM -RA BKN040 OVC080 FM032100
                       21012G22KT P6SM -SHRA BKN030 BKN080 FM040200
                       30010KT P6SM -SHRA BKN025 OVC050 FM040800
                       VRB04KT P6SM VCSH BKN030 OVC050 FM041700
                       VRB04KT P6SM SCT030 BKN050=
201504031129 TAF KPAE 031129Z 0312/0412 17012KT P6SM FEW035 BKN060 OVC100 FM031800
                       18015G25KT P6SM -RA OVC035
                      TEMPO 0320/0324 4SM -RA BR OVC022 FM040000
                       21011G20KT P6SM VCSH SCT030 OVC050
                      TEMPO 0400/0404 -SHRA OVC030 FM040400 18009KT
                       P6SM VCSH BKN030 OVC050
                      PROB30 0404/0410 -SHRA=
201504030538 TAF KPAE 030538Z 0306/0406 17007KT P6SM SCT080 OVC200 FM031200
                       17012KT P6SM SCT050 BKN080 OVC200 FM031800
                       18015G25KT P6SM -RA SCT022 OVC050
                      TEMPO 0320/0324 4SM -RA BR OVC022 FM040000
                       21011G20KT P6SM SCT030 OVC050
                      TEMPO 0400/0404 -SHRA OVC030 FM040400 18009KT
                       P6SM VCSH SCT035 BKN050 BKN100=
201504022320 TAF KPAE 022320Z 0300/0324 VRB04KT P6SM SCT040 SCT200 FM030600
                       18006KT P6SM SCT050 BKN120 BKN200 FM031100
                       18012KT P6SM BKN050 OVC100 FM031600 16012G22KT
                       P6SM -RA SCT020 OVC040
                      TEMPO 0318/0322 5SM -RA BR OVC020 FM032200
                       21012G22KT P6SM -SHRA BKN020 BKN040=
201504021722 TAF KPAE 021722Z 0218/0318 20005KT P6SM BKN020 FM022100 23006KT
                       P6SM SCT040 SCT200 FM030600 18006KT P6SM
                       SCT050 BKN120 BKN200 FM031200 16012KT P6SM
                       BKN050 OVC100 FM031600 16012G22KT P6SM -RA
                       SCT020 OVC040=
201504021313 TAF AMD KPAE 021313Z 0213/0312 17006KT P6SM BKN004 OVC025
                      TEMPO 0213/0217 SCT004 BKN025 FM021800 19008KT
                       P6SM OVC025 FM021900 21008KT P6SM BKN030
                       BKN200 FM022100 23008KT P6SM SCT045 SCT110
                       BKN200
                      PROB30 0222/0302 -SHRA OVC045 FM030200 18006KT
                       P6SM SCT050 BKN110 OVC200 FM030900 15009KT
                       P6SM BKN050 OVC110=
201504021142 TAF KPAE 021142Z 0212/0312 17006KT P6SM BKN004 OVC018 FM021800
                       19008KT P6SM OVC022 FM021900 21008KT P6SM
                       BKN030 BKN200 FM022100 23008KT P6SM SCT045
                       SCT110 BKN200
                      PROB30 0221/0302 -SHRA OVC045 FM030200 18006KT
                       P6SM SCT050 BKN110 OVC200 FM030900 15009KT
                       P6SM BKN050 OVC110=
201504021034 TAF AMD KPAE 021034Z 0211/0306 VRB03KT P6SM VCSH OVC028 FM021200
                       VRB03KT P6SM OVC022 FM021900 21008KT P6SM
                       BKN030 BKN200 FM022100 23008KT P6SM SCT045
                       SCT110 BKN200
                      PROB30 0221/0302 -SHRA OVC045 FM030200 18006KT
                       P6SM SCT050 BKN110 OVC200=
201504020925 TAF AMD KPAE 020925Z 0209/0306 VRB03KT P6SM VCSH FEW028 OVC060
                       FM021200 VRB03KT P6SM OVC022 FM021900 21008KT
                       P6SM BKN030 BKN200 FM022100 23008KT P6SM
                       SCT045 SCT110 BKN200
                      PROB30 0221/0302 -SHRA OVC045 FM030200 18006KT
                       P6SM SCT050 BKN110 OVC200=
201504020541 TAF KPAE 020541Z 0206/0306 VRB03KT P6SM VCSH SCT030 OVC060
                      TEMPO 0206/0209 -SHRA BKN030 OVC060 FM020900
                       VRB03KT P6SM VCSH OVC022 FM021900 21008KT
                       P6SM BKN030 BKN200 FM022100 23008KT P6SM
                       SCT045 SCT110 BKN200
                      PROB30 0221/0302 -SHRA OVC045 FM030200 18006KT
                       P6SM SCT050 BKN110 OVC200=
201504020206 TAF AMD KPAE 020206Z 0202/0224 VRB04KT P6SM VCSH SCT028 OVC060
                       TEMPO 0203/0206 BKN028 OVC050 FM021000 18005KT
                       P6SM BKN015 FM021900 23006KT P6SM SCT040=
201504012320 TAF KPAE 012320Z 0200/0224 VRB04KT P6SM SCT040 FM021000 18005KT
                       P6SM BKN015 FM021900 23006KT P6SM SCT040=
201504011720 TAF KPAE 011720Z 0118/0218 20010KT P6SM SCT015 BKN050
                      TEMPO 0118/0122 BKN015 BKN050 FM012200 VRB04KT
                       P6SM VCSH BKN020 BKN050
                      TEMPO 0122/0202 -SHRA BKN020 BKN050 FM021000
                       18005KT P6SM BKN015=
201504011125 TAF KPAE 011125Z 0112/0212 15007KT P6SM VCSH SCT017 BKN035 BKN050
                       TEMPO 0112/0116 -SHRA BKN017 OVC035 FM012000
                       VRB06KT P6SM -SHRA SCT020 BKN035 OVC050
                       FM020000 35004KT P6SM VCTS SCT025 BKN040CB
                       OVC060
                      TEMPO 0200/0204 -SHRA BKN025 OVC040 FM020400
                       VRB03KT P6SM -SHRA SCT030 OVC060=
201504010530 TAF KPAE 010530Z 0106/0206 15007KT P6SM SCT004 BKN050 BKN120
                      TEMPO 0106/0110 SCT018 BKN022 OVC035 FM011000
                       18006KT P6SM VCSH BKN020 BKN040 FM011800
                       18006KT P6SM BKN030 BKN050 FM012000 20007KT
                       P6SM -SHRA BKN035 BKN050=