##########################################################
# Query made at 02/15/2025 21:07:21 UTC
# Time interval: from 06/01/2015 00:00  to 06/30/2015 23:59  UTC
##########################################################

##########################################################
# KPAE, Everett, Snohomish County Airport (United States)
# WMO index: -----. WIGOS ID: Unknown
# Latitude 47-55-23N. Longitude 122-16-57W. Altitude 184 m.
##########################################################

###################################
#  METAR/SPECI from KPAE
###################################
201506302353 METAR KPAE 302353Z 36005KT 10SM CLR 26/12 A3007 RMK AO2 SLP179 T02610122 10272 20200 57013=
201506302253 METAR KPAE 302253Z 36007KT 10SM CLR 26/13 A3008 RMK AO2 SLP184 T02610128=
201506302153 METAR KPAE 302153Z 31007KT 10SM CLR 26/15 A3010 RMK AO2 SLP188 T02610150=
201506302053 METAR KPAE 302053Z 30005KT 10SM CLR 26/14 A3011 RMK AO2 SLP193 T02560144 58005=
201506301953 METAR KPAE 301953Z 27004KT 10SM CLR 23/14 A3012 RMK AO2 SLP196 T02330139=
201506301853 METAR KPAE 301853Z 26006KT 10SM CLR 23/15 A3013 RMK AO2 SLP198 T02280150=
201506301753 METAR KPAE 301753Z 27005KT 10SM CLR 21/14 A3013 RMK AO2 SLP198 T02060144 10206 20150 50000=
201506301653 METAR KPAE 301653Z 24007KT 10SM CLR 18/14 A3013 RMK AO2 SLP200 T01780139=
201506301553 METAR KPAE 301553Z 26005KT 10SM CLR 18/14 A3012 RMK AO2 SLP199 T01780144=
201506301453 METAR KPAE 301453Z 00000KT 10SM CLR 18/14 A3013 RMK AO2 SLP198 T01780144 51008=
201506301353 METAR KPAE 301353Z AUTO 00000KT 10SM CLR 17/14 A3012 RMK AO2 SLP197 T01670139=
201506301253 METAR KPAE 301253Z AUTO 00000KT 10SM CLR 16/13 A3011 RMK AO2 SLP193 T01560133=
201506301153 METAR KPAE 301153Z AUTO 05003KT 10SM CLR 16/13 A3010 RMK AO2 SLP190 T01560133 10194 20150 53006=
201506301053 METAR KPAE 301053Z AUTO 01003KT 10SM CLR 16/13 A3009 RMK AO2 SLP186 T01610128=
201506300953 METAR KPAE 300953Z AUTO 00000KT 10SM SCT080 17/13 A3009 RMK AO2 SLP185 T01720128=
201506300853 METAR KPAE 300853Z AUTO 05006KT 10SM CLR 18/13 A3008 RMK AO2 SLP183 T01830128 51013=
201506300753 METAR KPAE 300753Z AUTO 34003KT 10SM SCT080 18/13 A3008 RMK AO2 SLP181 T01830133 402890183=
201506300653 METAR KPAE 300653Z AUTO 04003KT 10SM BKN080 19/14 A3006 RMK AO2 SLP177 T01890139=
201506300553 METAR KPAE 300553Z AUTO 02006KT 10SM FEW080 19/13 A3005 RMK AO2 SLP171 T01940133 10289 20194 53013=
201506300453 METAR KPAE 300453Z AUTO 02004KT 10SM BKN085 20/14 A3003 RMK AO2 SLP167 T02000139=
201506300353 METAR KPAE 300353Z 36005KT 10SM CLR 20/13 A3001 RMK AO2 SLP160 T02000133=
201506300253 METAR KPAE 300253Z VRB06KT 10SM BKN085 23/14 A3001 RMK AO2 SLP157 T02330144 55002=
201506300153 METAR KPAE 300153Z 01005KT 10SM CLR 27/15 A3000 RMK AO2 SLP154 T02720150=
201506300053 METAR KPAE 300053Z VRB04KT 10SM CLR 28/14 A3000 RMK AO2 SLP156 T02830144=
201506292353 METAR KPAE 292353Z 30005KT 10SM CLR 28/14 A3001 RMK AO2 SLP159 T02780144 10289 20233 57004=
201506292253 METAR KPAE 292253Z VRB05KT 10SM CLR 28/14 A3002 RMK AO2 SLP161 T02780144=
201506292153 METAR KPAE 292153Z 26008KT 10SM CLR 28/13 A3002 RMK AO2 SLP162 T02830133=
201506292053 METAR KPAE 292053Z 25008KT 220V280 10SM CLR 27/14 A3003 RMK AO2 SLP164 T02720139 53005=
201506291953 METAR KPAE 291953Z 28007KT 10SM CLR 27/16 A3002 RMK AO2 SLP161 T02670156=
201506291853 METAR KPAE 291853Z VRB04KT 10SM CLR 26/16 A3002 RMK AO2 SLP160 T02560161=
201506291753 METAR KPAE 291753Z 27003KT 10SM CLR 23/16 A3001 RMK AO2 SLP159 T02330156 10233 20183 51008=
201506291653 METAR KPAE 291653Z 27006KT 10SM CLR 22/15 A3001 RMK AO2 SLP158 T02220150=
201506291553 METAR KPAE 291553Z VRB04KT 10SM FEW120 21/16 A3000 RMK AO2 SLP155 T02110156=
201506291453 METAR KPAE 291453Z 21004KT 10SM BKN120 22/16 A2999 RMK AO2 SLP152 T02220156 53005=
201506291353 METAR KPAE 291353Z 00000KT 10SM CLR 21/16 A2998 RMK AO2 SLP149 T02060156=
201506291253 METAR KPAE 291253Z AUTO 00000KT 10SM CLR 19/16 A2997 RMK AO2 SLP145 T01940156=
201506291153 METAR KPAE 291153Z AUTO 12005KT 10SM FEW050 FEW110 19/14 A2997 RMK AO2 RAB04E22B29E46 SLP146 P0001 60001 70001 T01940144 10228 20189 53010=
201506291125 SPECI KPAE 291125Z AUTO 15007KT 10SM FEW055 FEW085 BKN110 21/14 A2999 RMK AO2 LTG DSNT ALQDS RAB04E22 P0001 T02060144=
201506291110 SPECI KPAE 291110Z AUTO 16007KT 9SM VCTS -RA FEW085 SCT120 21/14 A2999 RMK AO2 RAB04 PRESRR P0001 T02060139=
201506291053 METAR KPAE 291053Z AUTO 16004KT 10SM CLR 20/14 A2996 RMK AO2 LTG DSNT SE AND S SLP142 T02000139=
201506290953 METAR KPAE 290953Z AUTO 00000KT 10SM CLR 20/13 A2994 RMK AO2 SLP137 T02000133=
201506290853 METAR KPAE 290853Z AUTO 23003KT 10SM CLR 20/13 A2994 RMK AO2 SLP136 T02000133 56009=
201506290753 METAR KPAE 290753Z AUTO 19004KT 10SM CLR 19/13 A2995 RMK AO2 SLP139 T01940133 402560194=
201506290653 METAR KPAE 290653Z AUTO 00000KT 10SM CLR 21/13 A2995 RMK AO2 SLP140 T02060128=
201506290553 METAR KPAE 290553Z AUTO 09003KT 10SM CLR 23/13 A2997 RMK AO2 SLP145 T02280128 10244 20200 58010=
201506290453 METAR KPAE 290453Z AUTO 00000KT 10SM CLR 21/12 A2999 RMK AO2 SLP152 T02060122=
201506290353 METAR KPAE 290353Z AUTO 05003KT 10SM CLR 21/12 A2999 RMK AO2 SLP153 T02110122=
201506290253 METAR KPAE 290253Z 00000KT 10SM CLR 22/13 A3000 RMK AO2 SLP155 T02220133 53014=
201506290200 METAR KPAE NIL=
201506290153 METAR KPAE 290153Z 00000KT 10SM CLR 24/14 A2996 RMK AO2 SLP141 T02390139=
201506290100 METAR KPAE NIL=
201506282353 METAR KPAE 282353Z 27010KT 10SM CLR 24/13 A2996 RMK AO2 SLP140 60000 T02390133 10256 20200 55014=
201506282253 METAR KPAE 282253Z 26005KT 10SM FEW050 SCT090 BKN110 24/14 A2996 RMK AO2 SLP141 T02390139=
201506282153 METAR KPAE 282153Z 33004KT 10SM CLR 24/14 A2998 RMK AO2 SLP147 T02440139=
201506282053 METAR KPAE 282053Z 12005KT 10SM CLR 24/13 A3000 RMK AO2 SLP154 60000 T02440133 58008=
201506281953 METAR KPAE 281953Z 04004KT 10SM FEW070 BKN090 BKN110 24/14 A3001 RMK AO2 SLP160 T02390144=
201506281853 METAR KPAE 281853Z 11007KT 10SM FEW090 23/13 A3003 RMK AO2 WSHFT 1757 RAE37 SLP165 P0000 T02330133=
201506281817 SPECI KPAE 281817Z 31009KT 10SM -RA FEW075 BKN110 22/13 A3000 RMK AO2 WSHFT 1757 LTG DSNT N AND NW P0000 T02170128=
201506281753 METAR KPAE 281753Z 26010KT 10SM -RA FEW060 BKN110 21/13 A3002 RMK AO2 RAB39 SLP162 P0000 60000 T02060133 10244 20200 53022=
201506281653 METAR KPAE 281653Z 36007KT 10SM CLR 24/13 A2995 RMK AO2 SLP138 T02390128=
201506281553 METAR KPAE 281553Z 35007KT 10SM CLR 22/12 A2995 RMK AO2 SLP138 T02220122=
201506281453 METAR KPAE 281453Z VRB05KT 10SM CLR 22/13 A2996 RMK AO2 SLP139 T02170128 50003=
201506281353 METAR KPAE 281353Z VRB05KT 10SM CLR 22/12 A2996 RMK AO2 SLP140 T02170122=
201506281253 METAR KPAE 281253Z AUTO 36004KT 10SM CLR 20/12 A2995 RMK AO2 SLP137 T02000117=
201506281153 METAR KPAE 281153Z AUTO 02003KT 10SM CLR 22/10 A2995 RMK AO2 SLP136 T02170100 10244 20194 51002=
201506281053 METAR KPAE 281053Z AUTO 00000KT 10SM CLR 20/10 A2995 RMK AO2 SLP136 T02000100=
201506280953 METAR KPAE 280953Z AUTO 00000KT 10SM CLR 21/11 A2995 RMK AO2 SLP136 T02110106=
201506280853 METAR KPAE 280853Z AUTO 03003KT 10SM CLR 21/12 A2994 RMK AO2 SLP134 T02110117 58001=
201506280753 METAR KPAE 280753Z AUTO 35004KT 10SM CLR 22/10 A2995 RMK AO2 SLP137 T02220100 402940161=
201506280653 METAR KPAE 280653Z AUTO 01003KT 10SM CLR 23/09 A2994 RMK AO2 SLP134 T02280094=
201506280553 METAR KPAE 280553Z AUTO VRB03KT 10SM CLR 24/10 A2994 RMK AO2 SLP135 T02440100 10294 20233 53002=
201506280453 METAR KPAE 280453Z AUTO 00000KT 10SM CLR 23/11 A2994=
201506280353 METAR KPAE 280353Z AUTO 35004KT 10SM CLR 26/12 A2994 RMK AO2 SLP133 T02560117=
201506280253 METAR KPAE 280253Z 34003KT 10SM CLR 28/11 A2994 RMK AO2 SLP133 T02780111 55005=
201506280153 METAR KPAE 280153Z VRB04KT 10SM CLR 29/11 A2993 RMK AO2 SLP132 T02890111=
201506280053 METAR KPAE 280053Z 35009G14KT 10SM CLR 29/11 A2995 RMK AO2 SLP136 T02890106=
201506272353 METAR KPAE 272353Z 01007KT 10SM CLR 29/13 A2995 RMK AO2 SLP138 T02940128 10294 20228 58009=
201506272253 METAR KPAE 272253Z VRB05KT 10SM CLR 29/14 A2996 RMK AO2 SLP142 T02890139=
201506272153 METAR KPAE 272153Z 36008KT 10SM CLR 27/13 A2997 RMK AO2 SLP147 T02670133=
201506272053 METAR KPAE 272053Z 36007G14KT 10SM CLR 26/14 A2998 RMK AO2 SLP148 T02560139 56008=
201506271953 METAR KPAE 271953Z 01006KT 10SM CLR 26/15 A2998 RMK AO2 SLP150 T02610150=
201506271853 METAR KPAE 271853Z 35008KT 10SM CLR 23/14 A2999 RMK AO2 SLP152 T02330144=
201506271753 METAR KPAE 271753Z 33006KT 10SM CLR 23/14 A3000 RMK AO2 SLP156 T02280144 10233 20161 58003=
201506271653 METAR KPAE 271653Z 35006KT 10SM CLR 22/14 A3001 RMK AO2 SLP160 T02170139=
201506271553 METAR KPAE 271553Z VRB06KT 10SM CLR 21/14 A3002 RMK AO2 SLP163 T02060139=
201506271453 METAR KPAE 271453Z VRB03KT 10SM CLR 18/13 A3001 RMK AO2 SLP160 T01830128 53007=
201506271353 METAR KPAE 271353Z 02004KT 10SM CLR 17/12 A3000 RMK AO2 SLP155 T01720122=
201506271253 METAR KPAE 271253Z AUTO 01004KT 10SM CLR 16/12 A3000=
201506271153 METAR KPAE 271153Z AUTO 02005KT 10SM CLR 17/12 A2999 RMK AO2 SLP152 T01720117 10178 20167 55006=
201506271053 METAR KPAE 271053Z AUTO 02006KT 10SM CLR 17/12 A2999 RMK AO2 SLP151 T01720117=
201506270953 METAR KPAE 270953Z AUTO 03005KT 10SM CLR 18/12 A3001 RMK AO2 SLP158 T01780117=
201506270853 METAR KPAE 270853Z AUTO 36004KT 10SM CLR 17/12 A3001 RMK AO2 SLP159 T01720117 52002=
201506270753 METAR KPAE 270753Z AUTO 36005KT 10SM CLR 17/12 A3001 RMK AO2 SLP158 T01720117 402720156=
201506270653 METAR KPAE 270653Z AUTO 36006KT 10SM CLR 17/12 A3001 RMK AO2 SLP158 T01720122=
201506270553 METAR KPAE 270553Z AUTO 36007KT 10SM CLR 18/12 A3000 RMK AO2 SLP157 T01780122 10267 20172 53003=
201506270453 METAR KPAE 270453Z 01008KT 10SM CLR 17/13 A3000 RMK AO2 SLP156 T01720128=
201506270353 METAR KPAE 270353Z 36008KT 10SM CLR 18/13 A2999 RMK AO2 SLP153 T01780133=
201506270253 METAR KPAE 270253Z VRB06KT 10SM CLR 22/13 A2999 RMK AO2 SLP154 T02220133 56012=
201506270153 METAR KPAE 270153Z 35006KT 10SM CLR 24/14 A3000 RMK AO2 SLP156 T02440139=
201506270053 METAR KPAE 270053Z 01007KT 10SM CLR 25/14 A3001 RMK AO2 SLP160 T02500144=
201506262353 METAR KPAE 262353Z 36006KT 10SM CLR 27/14 A3003 RMK AO2 SLP166 T02670144 10272 20217 58019=
201506262253 METAR KPAE 262253Z 01008KT 10SM CLR 27/14 A3005 RMK AO2 SLP174 T02670144=
201506262153 METAR KPAE 262153Z VRB05KT 10SM CLR 27/14 A3007 RMK AO2 SLP180 T02720144=
201506262053 METAR KPAE 262053Z 35007KT 10SM CLR 25/15 A3009 RMK AO2 SLP185 T02500150 58008=
201506261953 METAR KPAE 261953Z 01008KT 10SM CLR 25/14 A3010 RMK AO2 SLP189 T02500144=
201506261853 METAR KPAE 261853Z 35007KT 320V020 10SM CLR 23/14 A3010 RMK AO2 SLP191 T02330144=
201506261753 METAR KPAE 261753Z 01007KT 10SM CLR 22/14 A3011 RMK AO2 SLP193 T02220144 10222 20156 58004=
201506261653 METAR KPAE 261653Z 01006KT 10SM CLR 21/14 A3012 RMK AO2 SLP197 T02060139=
201506261553 METAR KPAE 261553Z 36006KT 10SM CLR 19/14 A3013 RMK AO2 SLP198 T01890139=
201506261453 METAR KPAE 261453Z 36004KT 10SM CLR 17/13 A3012 RMK AO2 SLP198 T01720133 50002=
201506261353 METAR KPAE 261353Z 36005KT 10SM CLR 16/13 A3013 RMK AO2 SLP199 T01610133=
201506261253 METAR KPAE 261253Z AUTO 36007KT 10SM CLR 16/13 A3012 RMK AO2 SLP197 T01560133=
201506261153 METAR KPAE 261153Z AUTO 36005KT 10SM CLR 16/13 A3012 RMK AO2 SLP196 T01560133 10178 20156 53000=
201506261053 METAR KPAE 261053Z AUTO VRB04KT 10SM CLR 16/13 A3011 RMK AO2 SLP194 T01560133=
201506260953 METAR KPAE 260953Z AUTO VRB06KT 10SM CLR 16/13 A3011 RMK AO2 SLP194 T01560133=
201506260853 METAR KPAE 260853Z AUTO 36009G15KT 10SM CLR 16/13 A3012 RMK AO2 SLP196 T01610133 56000=
201506260753 METAR KPAE 260753Z AUTO 36008G15KT 340V050 10SM CLR 17/14 A3012 RMK AO2 SLP196 T01670139 402670139=
201506260653 METAR KPAE 260653Z AUTO 36007KT 10SM CLR 17/13 A3012 RMK AO2 SLP195 T01720133=
201506260553 METAR KPAE 260553Z AUTO 36007KT 10SM CLR 18/13 A3012 RMK AO2 SLP196 T01780133 10261 20178 53003=
201506260453 METAR KPAE 260453Z AUTO 36010G15KT 10SM CLR 18/13 A3011 RMK AO2 SLP194 T01780133=
201506260353 METAR KPAE 260353Z AUTO 02004KT 10SM CLR 21/13 A3011 RMK AO2 SLP192 T02060128=
201506260253 METAR KPAE 260253Z 36007KT 10SM CLR 22/12 A3011 RMK AO2 SLP193 T02220117 56006=
201506260153 METAR KPAE 260153Z VRB05KT 10SM CLR 24/11 A3011 RMK AO2 SLP194 T02390106=
201506260053 METAR KPAE 260053Z 36009KT 10SM CLR 24/09 A3012 RMK AO2 SLP197 T02440089=
201506252353 METAR KPAE 252353Z 36009G14KT 10SM CLR 26/09 A3013 RMK AO2 SLP199 T02560094 10267 20228 56010=
201506252253 METAR KPAE 252253Z 36009G15KT 10SM CLR 26/11 A3014 RMK AO2 SLP203 T02610106=
201506252153 METAR KPAE 252153Z VRB06KT 10SM CLR 26/12 A3015 RMK AO2 SLP206 T02610117=
201506252053 METAR KPAE 252053Z 28008KT 10SM CLR 26/11 A3016 RMK AO2 SLP210 T02610106 58004=
201506251953 METAR KPAE 251953Z 30007KT 10SM CLR 25/09 A3016=
201506251853 METAR KPAE 251853Z 29006KT 10SM CLR 24/10 A3017 RMK AO2 SLP215 T02390100=
201506251753 METAR KPAE 251753Z 28005KT 10SM CLR 23/10 A3017 RMK AO2 SLP215 T02280100 10228 20144 51006=
201506251653 METAR KPAE 251653Z 31005KT 10SM CLR 22/11 A3017 RMK AO2 SLP215 T02220111=
201506251553 METAR KPAE 251553Z VRB03KT 10SM CLR 20/12 A3016 RMK AO2 SLP212 T02000117=
201506251453 METAR KPAE 251453Z 00000KT 10SM CLR 19/12 A3015 RMK AO2 SLP209 T01890117 50007=
201506251353 METAR KPAE 251353Z AUTO 00000KT 10SM CLR 17/11 A3016=
201506251253 METAR KPAE 251253Z AUTO 00000KT 10SM CLR 14/11 A3015 RMK AO2 SLP207 T01440111=
201506251153 METAR KPAE 251153Z AUTO 00000KT 10SM CLR 14/11 A3013 RMK AO2 SLP202 T01440111 10161 20139 53001=
201506251053 METAR KPAE 251053Z AUTO 00000KT 10SM CLR 15/11 A3013 RMK AO2 SLP201 T01500111=
201506250953 METAR KPAE 250953Z AUTO 00000KT 10SM CLR 15/11 A3012 RMK AO2 SLP199 T01500111=
201506250853 METAR KPAE 250853Z AUTO 00000KT 10SM CLR 14/11 A3013 RMK AO2 SLP201 T01440111 53003=
201506250753 METAR KPAE 250753Z AUTO 00000KT 10SM CLR 15/11 A3012 RMK AO2 SLP198 T01500111 402280150=
201506250653 METAR KPAE 250653Z AUTO 35005KT 10SM CLR 16/11 A3013 RMK AO2 SLP199 T01560111=
201506250553 METAR KPAE 250553Z AUTO 01004KT 10SM CLR 16/12 A3012 RMK AO2 SLP197 T01560117 10211 20156 51004=
201506250453 METAR KPAE 250453Z AUTO 35004KT 10SM CLR 17/12 A3012 RMK AO2 SLP197 T01670117=
201506250353 METAR KPAE 250353Z AUTO 34005KT 10SM CLR 18/12 A3011 RMK AO2 SLP194 T01780117=
201506250253 METAR KPAE 250253Z VRB04KT 10SM CLR 19/12 A3011 RMK AO2 SLP193 T01940117 55003=
201506250153 METAR KPAE 250153Z 35006KT 10SM CLR 20/12 A3010 RMK AO2 SLP191 T02000117=
201506250053 METAR KPAE 250053Z 34005KT 10SM CLR 21/12 A3011=
201506242353 METAR KPAE 242353Z AUTO 35005KT 10SM BKN120 19/12 A3012 RMK AO2 SLP197 60000 T01890117 10228 20178 58003 TSNO=
201506242253 METAR KPAE 242253Z AUTO 02006KT 10SM OVC100 18/13 A3012 RMK AO2 RAE28 SLP199 P0000 T01830128 TSNO=
201506242153 METAR KPAE 242153Z 36004KT 10SM -RA OVC100 18/13 A3013 RMK AO2 SLP203 P0000 T01830133=
201506242053 METAR KPAE 242053Z 36004KT 10SM -RA OVC100 20/12 A3013 RMK AO2 RAB34 SLP200 P0000 60000 T02000122 51013=
201506241953 METAR KPAE 241953Z 30005KT 10SM FEW110 21/10 A3011 RMK AO2 SLP195 T02110100=
201506241853 METAR KPAE 241853Z 26006KT 10SM CLR 22/09 A3010 RMK AO2 SLP191 T02170094=
201506241753 METAR KPAE 241753Z VRB04KT 10SM CLR 21/10 A3009 RMK AO2 SLP186 T02110100 10217 20156 50000=
201506241653 METAR KPAE 241653Z 36004KT 10SM CLR 21/09 A3009 RMK AO2 SLP188 T02060094=
201506241553 METAR KPAE 241553Z 00000KT 10SM CLR 19/10 A3009 RMK AO2 SLP188 T01940100=
201506241453 METAR KPAE 241453Z 36003KT 10SM CLR 18/10 A3009 RMK AO2 SLP186 T01830100 51007=
201506241353 METAR KPAE 241353Z 05003KT 10SM CLR 17/10 A3008 RMK AO2 SLP184 T01670100=
201506241253 METAR KPAE 241253Z AUTO 02005KT 10SM CLR 16/10 A3008 RMK AO2 SLP182 T01560100=
201506241153 METAR KPAE 241153Z AUTO 04004KT 10SM CLR 16/10 A3007 RMK AO2 SLP179 T01560100 10161 20150 53001=
201506241053 METAR KPAE 241053Z AUTO 02005KT 10SM CLR 15/09 A3006 RMK AO2 SLP176 T01500094=
201506240953 METAR KPAE 240953Z AUTO 02006KT 10SM CLR 16/09 A3006 RMK AO2 SLP177 T01560094=
201506240853 METAR KPAE 240853Z AUTO 02004KT 10SM CLR 16/10 A3006 RMK AO2 SLP178 T01560100 56007=
201506240753 METAR KPAE 240753Z AUTO 36004KT 10SM CLR 16/09 A3007 RMK AO2 SLP179 T01610094 402330117=
201506240653 METAR KPAE 240653Z AUTO 01004KT 10SM CLR 16/09 A3007 RMK AO2 SLP183 T01610094=
201506240553 METAR KPAE 240553Z AUTO VRB06KT 10SM CLR 16/10 A3008 RMK AO2 SLP186 T01610100 10233 20161 53003=
201506240453 METAR KPAE 240453Z AUTO 36004KT 10SM CLR 16/09 A3008 RMK AO2 SLP184 T01610094=
201506240353 METAR KPAE 240353Z AUTO 01007KT 10SM CLR 17/09 A3007 RMK AO2 SLP183 T01670094=
201506240253 METAR KPAE 240253Z 36008KT 10SM CLR 18/08 A3007 RMK AO2 SLP182 T01780083 55007=
201506240153 METAR KPAE 240153Z 35007KT 10SM CLR 21/06 A3007 RMK AO2 SLP180 T02060056=
201506240053 METAR KPAE 240053Z 36007KT 10SM CLR 22/03 A3008 RMK AO2 SLP183 T02170033=
201506232353 METAR KPAE 232353Z VRB06KT 10SM CLR 23/02 A3010 RMK AO2 SLP190 T02280022 10233 20167 56011=
201506232253 METAR KPAE 232253Z 28007KT 10SM CLR 22/09 A3010 RMK AO2 SLP192 T02220089=
201506232153 METAR KPAE 232153Z 29007KT 10SM CLR 22/08 A3012 RMK AO2 SLP198 T02170083=
201506232053 METAR KPAE 232053Z 27008KT 10SM CLR 21/08 A3013 RMK AO2 SLP201 T02110083 58011=
201506231953 METAR KPAE 231953Z 27005KT 10SM CLR 19/08 A3015 RMK AO2 SLP207 T01890083=
201506231853 METAR KPAE 231853Z 27005KT 10SM CLR 18/09 A3016 RMK AO2 SLP211 T01830089=
201506231753 METAR KPAE 231753Z VRB04KT 10SM CLR 17/09 A3016 RMK AO2 SLP213 T01670089 10172 20117 58003=
201506231653 METAR KPAE 231653Z VRB04KT 10SM CLR 16/08 A3017 RMK AO2 SLP216 T01560083=
201506231553 METAR KPAE 231553Z 00000KT 10SM CLR 16/09 A3017 RMK AO2 SLP216 T01560089=
201506231453 METAR KPAE 231453Z 00000KT 10SM CLR 14/08 A3017 RMK AO2 SLP215 T01390078 51005=
201506231353 METAR KPAE 231353Z AUTO 07003KT 10SM CLR 13/08 A3017 RMK AO2 SLP215 T01280083=
201506231253 METAR KPAE 231253Z AUTO 00000KT 10SM CLR 12/08 A3017 RMK AO2 SLP214 T01170083=
201506231153 METAR KPAE 231153Z AUTO VRB03KT 10SM CLR 12/08 A3015 RMK AO2 SLP210 T01170083 10128 20117 53005=
201506231053 METAR KPAE 231053Z AUTO 02004KT 10SM CLR 12/08 A3014 RMK AO2 SLP206 T01170083=
201506230953 METAR KPAE 230953Z AUTO 36005KT 10SM CLR 12/08 A3014 RMK AO2 SLP206 T01170083=
201506230853 METAR KPAE 230853Z AUTO 36004KT 10SM CLR 12/08 A3014 RMK AO2 SLP205 T01170083 51006=
201506230753 METAR KPAE 230753Z AUTO 34004KT 10SM CLR 12/08 A3014 RMK AO2 SLP205 T01170083 402060117=
201506230653 METAR KPAE 230653Z AUTO 01005KT 10SM CLR 12/09 A3012 RMK AO2 SLP201 T01220089=
201506230553 METAR KPAE 230553Z AUTO 34004KT 10SM CLR 13/09 A3012 RMK AO2 SLP200 T01280089 10194 20128 53009=
201506230453 METAR KPAE 230453Z AUTO 36007KT 10SM CLR 13/09 A3011 RMK AO2 SLP196 T01330089=
201506230353 METAR KPAE 230353Z AUTO 01007KT 10SM CLR 14/08 A3009 RMK AO2 SLP189 T01440083=
201506230253 METAR KPAE 230253Z 35008G15KT 10SM CLR 16/09 A3009 RMK AO2 SLP190 T01560089 53001=
201506230153 METAR KPAE 230153Z 35007KT 10SM CLR 18/09 A3008 RMK AO2 SLP186 T01780089=
201506230053 METAR KPAE 230053Z 36008KT 10SM CLR 19/09 A3009 RMK AO2 SLP188 T01890089=
201506222353 METAR KPAE 222353Z 34007KT 320V020 10SM CLR 19/09 A3009 RMK AO2 SLP189 T01940094 10206 20161 56007=
201506222253 METAR KPAE 222253Z AUTO VRB05KT 10SM CLR 19/10 A3009 RMK AO2 SLP190 T01940100 TSNO=
201506222153 METAR KPAE 222153Z 32008KT 10SM SCT120 21/09 A3011 RMK AO2 SLP193 T02060094=
201506222053 METAR KPAE 222053Z 28007KT 10SM CLR 18/10 A3011 RMK AO2 SLP196 T01830100 53001=
201506221953 METAR KPAE 221953Z 24009KT 10SM BKN110 17/10 A3011 RMK AO2 SLP196 T01720100=
201506221853 METAR KPAE 221853Z 24009KT 10SM CLR 17/09 A3011 RMK AO2 SLP194 T01670094=
201506221753 METAR KPAE 221753Z 26010KT 10SM CLR 16/09 A3011 RMK AO2 SLP195 T01610094 10167 20122 50001=
201506221653 METAR KPAE 221653Z 24009KT 10SM FEW021 16/10 A3011 RMK AO2 SLP197 T01560100=
201506221615 SPECI KPAE 221615Z VRB05KT 10SM SCT019 15/09 A3012 RMK AO2 T01500094=
201506221611 SPECI KPAE 221611Z 24006KT 10SM BKN019 15/09 A3012 RMK AO2 T01500094=
201506221553 METAR KPAE 221553Z 19008KT 10SM SCT019 16/09 A3012 RMK AO2 SLP196 T01560094=
201506221453 METAR KPAE 221453Z 18005KT 10SM CLR 14/09 A3011 RMK AO2 SLP194 T01440094 53015=
201506221353 METAR KPAE 221353Z 18005KT 10SM CLR 14/09 A3009 RMK AO2 SLP188 T01390094=
201506221253 METAR KPAE 221253Z AUTO 20005KT 10SM CLR 13/08 A3008 RMK AO2 SLP183 T01280083=
201506221153 METAR KPAE 221153Z AUTO 21005KT 10SM CLR 14/07 A3006 RMK AO2 SLP178 T01390072 10167 20128 53007=
201506221053 METAR KPAE 221053Z AUTO 00000KT 10SM CLR 15/06 A3005 RMK AO2 SLP173 T01500061=
201506220953 METAR KPAE 220953Z AUTO 00000KT 10SM CLR 15/06 A3004 RMK AO2 SLP172 T01500061=
201506220853 METAR KPAE 220853Z AUTO 10005KT 10SM CLR 16/06 A3004 RMK AO2 SLP171 T01610061 51015=
201506220753 METAR KPAE 220753Z AUTO 03003KT 10SM CLR 16/06 A3003 RMK AO2 SLP168 T01610061 402390117=
201506220653 METAR KPAE 220653Z AUTO 02006KT 10SM CLR 16/07 A3001 RMK AO2 SLP162 T01610067=
201506220553 METAR KPAE 220553Z AUTO 00000KT 10SM CLR 17/07 A3000 RMK AO2 SLP157 T01670067 10239 20167 51017=
201506220453 METAR KPAE 220453Z AUTO VRB03KT 10SM FEW070 18/07 A2999 RMK AO2 SLP153 T01780072=
201506220353 METAR KPAE 220353Z AUTO 27003KT 10SM BKN070 22/06 A2996 RMK AO2 SLP144 T02170061=
201506220253 METAR KPAE 220253Z 00000KT 10SM CLR 23/06 A2995 RMK AO2 SLP139 T02280061 53003=
201506220153 METAR KPAE 220153Z 24003KT 10SM CLR 23/05 A2994 RMK AO2 SLP135 T02330050=
201506220053 METAR KPAE 220053Z 28003KT 10SM CLR 23/02 A2993 RMK AO2 SLP134 T02330017=
201506212353 METAR KPAE 212353Z VRB03KT 10SM CLR 23/06 A2994 RMK AO2 SLP136 T02280061 10233 20161 51004=
201506212253 METAR KPAE 212253Z 30005KT 10SM CLR 23/08 A2994 RMK AO2 SLP134 T02280078=
201506212153 METAR KPAE 212153Z VRB03KT 10SM CLR 22/08 A2993 RMK AO2 SLP134 T02220083=
201506212053 METAR KPAE 212053Z VRB06KT 10SM CLR 21/09 A2993 RMK AO2 SLP132 T02060094 51002=
201506211953 METAR KPAE 211953Z 36007KT 10SM CLR 20/08 A2992 RMK AO2 SLP132 T02000083=
201506211853 METAR KPAE 211853Z 36007KT 330V030 10SM CLR 18/09 A2992 RMK AO2 SLP131 T01780094=
201506211753 METAR KPAE 211753Z 36007KT 10SM CLR 16/08 A2992 RMK AO2 SLP130 T01610083 10167 20117 58001=
201506211653 METAR KPAE 211653Z 01007KT 10SM CLR 16/09 A2993 RMK AO2 SLP133 T01560094=
201506211553 METAR KPAE 211553Z 32007KT 10SM CLR 14/09 A2993 RMK AO2 SLP135 T01390094=
201506211453 METAR KPAE 211453Z VRB06KT 10SM CLR 13/09 A2992 RMK AO2 SLP131 T01280089 58002=
201506211353 METAR KPAE 211353Z 33006KT 10SM CLR 13/08 A2993 RMK AO2 SLP133 T01280083=
201506211253 METAR KPAE 211253Z AUTO 30005KT 10SM CLR 12/08 A2993 RMK AO2 SLP135 T01170083=
201506211153 METAR KPAE 211153Z AUTO 01003KT 10SM CLR 12/08 A2993 RMK AO2 SLP133 T01170083 10133 20117 58005=
201506211053 METAR KPAE 211053Z AUTO 01004KT 10SM CLR 12/08 A2993 RMK AO2 SLP135 T01220083=
201506210953 METAR KPAE 210953Z AUTO 03005KT 10SM CLR 12/09 A2994 RMK AO2 SLP139 T01220089=
201506210853 METAR KPAE 210853Z AUTO 36006KT 10SM CLR 12/08 A2994 RMK AO2 SLP138 T01220083 56011=
201506210753 METAR KPAE 210753Z AUTO 01005KT 10SM CLR 13/07 A2995 RMK AO2 SLP141 T01280072 402170100=
201506210653 METAR KPAE 210653Z AUTO 36011G18KT 10SM CLR 13/08 A2996 RMK AO2 SLP143 T01280083=
201506210553 METAR KPAE 210553Z AUTO VRB04KT 10SM CLR 13/08 A2998 RMK AO2 SLP149 T01330078 10217 20128 58012=
201506210500 METAR KPAE NIL=
201506210400 METAR KPAE NIL=
201506210253 METAR KPAE 210253Z VRB05KT 10SM CLR 17/08 A3001 RMK AO2 SLP163 T01720078 56010=
201506210153 METAR KPAE 210153Z 35009KT 10SM CLR 19/06 A3002 RMK AO2 SLP164 T01940056=
201506210053 METAR KPAE 210053Z VRB05KT 10SM CLR 21/05 A3003 RMK AO2 SLP168 T02060050=
201506202353 METAR KPAE 202353Z 36006KT 10SM CLR 22/04 A3004 RMK AO2 SLP172 T02170044 10217 20161 58010=
201506202253 METAR KPAE 202253Z AUTO 36008KT 10SM CLR 21/08 A3005 RMK AO2 SLP176 T02110078 TSNO=
201506202153 METAR KPAE 202153Z 36007KT 320V020 10SM CLR 20/09 A3006 RMK AO2 SLP179 T02000089=
201506202053 METAR KPAE 202053Z 01007KT 340V040 10SM CLR 20/09 A3007 RMK AO2 SLP182 T02000094 58009=
201506201953 METAR KPAE 201953Z 01006KT 10SM CLR 19/09 A3008 RMK AO2 SLP186 T01890094=
201506201853 METAR KPAE 201853Z 30007KT 10SM CLR 18/09 A3009=
201506201753 METAR KPAE 201753Z VRB04KT 10SM CLR 16/09 A3010 RMK AO2 SLP191 T01610089 10161 20100 58012=
201506201700 METAR KPAE NIL=
201506201653 METAR KPAE 201653Z 04004KT 10SM CLR 14/08 A3011 RMK AO2 SLP196 T01440083=
201506201616 SPECI KPAE 201616Z 00000KT 10SM SCT005 12/09 A3012 RMK AO2 T01220089=
201506201553 METAR KPAE 201553Z VRB03KT 10SM OVC005 12/09 A3013 RMK AO2 SLP203 T01220089=
201506201453 METAR KPAE 201453Z 34005KT 10SM BKN005 11/09 A3013 RMK AO2 SLP204 T01110089 53002=
201506201418 SPECI KPAE 201418Z 32006KT 10SM BKN005 11/09 A3013 RMK AO2 T01060089=
201506201353 METAR KPAE 201353Z 35005KT 10SM SCT005 11/09 A3013 RMK AO2 SLP202 T01060089=
201506201346 SPECI KPAE 201346Z AUTO 35005KT 10SM FEW005 11/08 A3013 RMK AO2 T01060083=
201506201253 METAR KPAE 201253Z AUTO 36005KT 10SM CLR 11/08 A3013 RMK AO2 SLP201 T01060083=
201506201153 METAR KPAE 201153Z AUTO 36004KT 10SM CLR 11/07 A3013 RMK AO2 SLP202 T01060072 10133 20106 56002=
201506201053 METAR KPAE 201053Z AUTO 36004KT 10SM CLR 11/08 A3013 RMK AO2 SLP201 T01110078=
201506200953 METAR KPAE 200953Z AUTO 01006KT 10SM FEW070 12/08 A3012 RMK AO2 SLP199 T01170078=
201506200853 METAR KPAE 200853Z AUTO 36005KT 10SM SCT070 12/08 A3013 RMK AO2 SLP203 T01220078 58007=
201506200753 METAR KPAE 200753Z AUTO 01004KT 10SM BKN060 13/07 A3015 RMK AO2 SLP209 T01280072 401890128=
201506200653 METAR KPAE 200653Z AUTO 01007KT 340V040 10SM SCT055 13/07 A3016 RMK AO2 SLP211 T01280072=
201506200553 METAR KPAE 200553Z AUTO 02006KT 10SM OVC060 13/08 A3016 RMK AO2 SLP211 T01330083 10183 20133 52005=
201506200453 METAR KPAE 200453Z AUTO 01006KT 10SM OVC080 13/08 A3016 RMK AO2 SLP212 T01330078=
201506200353 METAR KPAE 200353Z AUTO 36008KT 10SM BKN060 13/08 A3014 RMK AO2 SLP207 T01330078=
201506200253 METAR KPAE 200253Z 01008KT 10SM BKN065 15/08 A3014 RMK AO2 SLP206 T01500083 56004=
201506200153 METAR KPAE 200153Z 35009KT 10SM CLR 17/07 A3014 RMK AO2 SLP207 T01670072=
201506200053 METAR KPAE 200053Z 36008KT 10SM CLR 17/07 A3015 RMK AO2 SLP208 T01720072=
201506192353 METAR KPAE 192353Z 36009G15KT 10SM CLR 18/07 A3015 RMK AO2 SLP210 T01830067 10189 20133 58004=
201506192253 METAR KPAE 192253Z 01008KT 10SM CLR 18/08 A3016 RMK AO2 SLP213 T01830078=
201506192153 METAR KPAE 192153Z 36008KT 10SM SCT022 18/08 A3017 RMK AO2 SLP214 T01830083=
201506192053 METAR KPAE 192053Z 36008KT 340V050 10SM SCT022 18/09 A3017 RMK AO2 SLP214 T01780089 53002=
201506191953 METAR KPAE 191953Z 35007KT 310V020 10SM SCT037 17/09 A3017 RMK AO2 SLP214 T01670094=
201506191853 METAR KPAE 191853Z 36008KT 10SM SCT026 BKN037 16/09 A3016 RMK AO2 SLP212 T01560089=
201506191836 SPECI KPAE 191836Z 35007KT 10SM SCT026 BKN037 15/09 A3016 RMK AO2 T01500089=
201506191753 METAR KPAE 191753Z VRB05KT 10SM BKN012 OVC019 13/11 A3016 RMK AO2 RAE25 SLP213 P0000 60000 T01330106 10156 20128 53009=
201506191739 SPECI KPAE 191739Z 01005KT 10SM FEW007 BKN012 OVC017 13/11 A3016 RMK AO2 RAE25 P0000 T01330106=
201506191726 SPECI KPAE 191726Z 36005KT 10SM BKN010 OVC015 13/11 A3016 RMK AO2 RAE25 CIG 006V013 P0000 T01330106=
201506191711 SPECI KPAE 191711Z 36007KT 10SM -RA BKN007 OVC013 13/11 A3015 RMK AO2 CIG 007V011 P0000 T01280106=
201506191703 SPECI KPAE 191703Z 02006KT 10SM -RA BKN010 OVC015 13/11 A3015 RMK AO2 CIG 007V013 P0000 T01330106=
201506191653 METAR KPAE 191653Z VRB05KT 10SM -RA SCT008 OVC015 14/11 A3015 RMK AO2 RAB53 SLP210 P0000 T01390106=
201506191553 METAR KPAE 191553Z VRB04KT 10SM BKN015 BKN034 OVC050 15/11 A3014 RMK AO2 SLP206 T01500106=
201506191453 METAR KPAE 191453Z 11004KT 10SM FEW012 OVC020 14/11 A3013 RMK AO2 SLP204 T01390106 53008=
201506191353 METAR KPAE 191353Z 16005KT 10SM BKN022 13/11 A3012 RMK AO2 SLP199 T01330106=
201506191253 METAR KPAE 191253Z AUTO 16004KT 10SM FEW009 OVC015 13/11 A3011 RMK AO2 SLP196 T01330106=
201506191249 SPECI KPAE 191249Z AUTO 16005KT 10SM FEW009 OVC015 13/11 A3011 RMK AO2=
201506191153 METAR KPAE 191153Z AUTO 16004KT 10SM OVC015 13/11 A3010 RMK AO2 SLP191 60002 70002 T01330106 10133 20128 53007=
201506191128 SPECI KPAE 191128Z AUTO 00000KT 10SM FEW007 BKN015 OVC027 13/11 A3009 RMK AO2 T01330111=
201506191053 METAR KPAE 191053Z AUTO 16005KT 10SM OVC015 13/11 A3008 RMK AO2 SLP185 T01330111=
201506191044 SPECI KPAE 191044Z AUTO VRB03KT 10SM FEW008 OVC014 13/11 A3008 RMK AO2 T01330111=
201506191036 SPECI KPAE 191036Z AUTO VRB03KT 10SM BKN014 BKN032 OVC049 13/11 A3008 RMK AO2 T01330106=
201506190953 METAR KPAE 190953Z AUTO 12004KT 10SM SCT017 OVC035 13/11 A3008 RMK AO2 SLP184 T01330106=
201506190942 SPECI KPAE 190942Z AUTO 11003KT 10SM BKN016 OVC037 13/11 A3008 RMK AO2 T01330111=
201506190853 METAR KPAE 190853Z AUTO VRB03KT 10SM FEW027 BKN036 OVC044 13/11 A3007 RMK AO2 RAE28 SLP182 P0001 60002 T01330106 53007=
201506190753 METAR KPAE 190753Z AUTO 02003KT 10SM -RA BKN038 OVC046 13/11 A3006 RMK AO2 SLP179 P0000 T01330111 402060122=
201506190653 METAR KPAE 190653Z AUTO 00000KT 9SM -RA FEW002 BKN050 OVC060 13/12 A3006 RMK AO2 SLP177 P0001 T01280117=
201506190642 SPECI KPAE 190642Z AUTO 00000KT 8SM -RA SCT003 BKN012 OVC055 13/12 A3006 RMK AO2 P0001 T01280117=
201506190553 METAR KPAE 190553Z AUTO 32003KT 10SM -RA BKN003 OVC044 13/12 A3005 RMK AO2 RAB01 SLP175 P0000 60000 T01280117 10172 20128 53012=
201506190532 SPECI KPAE 190532Z AUTO 33004KT 10SM -RA FEW004 BKN042 OVC080 13/12 A3005 RMK AO2 RAB01 P0000 T01330117=
201506190453 METAR KPAE 190453Z AUTO 01004KT 10SM SCT025 OVC046 13/11 A3004 RMK AO2 SLP170 T01280111=
201506190436 SPECI KPAE 190436Z AUTO 03005KT 10SM SCT006 BKN024 OVC110 13/11 A3003 RMK AO2 T01330111=
201506190427 SPECI KPAE 190427Z AUTO VRB04KT 10SM BKN006 BKN022 OVC100 13/11 A3003 RMK AO2 CIG 004V011 T01280111=
201506190411 SPECI KPAE 190411Z AUTO 34006G16KT 10SM FEW005 FEW050 OVC100 13/11 A3002 RMK AO2 T01280111=
201506190353 METAR KPAE 190353Z VRB05KT 10SM FEW050 SCT075 OVC100 13/11 A3002 RMK AO2 SLP166 T01280106=
201506190253 METAR KPAE 190253Z 36007KT 320V020 10SM OVC055 14/11 A3001 RMK AO2 SLP164 T01390106 53008=
201506190153 METAR KPAE 190153Z 36008KT 10SM SCT075 OVC095 15/11 A3000 RMK AO2 SLP160 T01500106=
201506190053 METAR KPAE 190053Z 36011G17KT 10SM CLR 17/11 A2999 RMK AO2 SLP156 T01720106=
201506182353 METAR KPAE 182353Z 01009G16KT 10SM SCT095 19/11 A2999 RMK AO2 SLP154 T01890111 10206 20178 58001=
201506182253 METAR KPAE 182253Z 02009KT 10SM BKN100 19/11 A3000 RMK AO2 SLP156 T01890106=
201506182153 METAR KPAE 182153Z 02007KT 10SM BKN100 20/09 A2999 RMK AO2 SLP155 T02000089=
201506182053 METAR KPAE 182053Z 30005KT 10SM CLR 20/08 A2999 RMK AO2 SLP155 T02000078 56005=
201506181953 METAR KPAE 181953Z VRB05KT 10SM BKN100 20/07 A3000 RMK AO2 SLP156 T02000072=
201506181853 METAR KPAE 181853Z VRB04KT 10SM OVC100 20/08 A3000 RMK AO2 SLP156 T02000078=
201506181753 METAR KPAE 181753Z 24007KT 10SM BKN120 19/08 A3001 RMK AO2 SLP160 T01890078 10194 20122 50002=
201506181653 METAR KPAE 181653Z 28004KT 10SM CLR 17/08 A3001 RMK AO2 SLP162 T01720083=
201506181553 METAR KPAE 181553Z 29004KT 10SM CLR 16/08 A3001 RMK AO2 SLP161 T01610078=
201506181453 METAR KPAE 181453Z 10005KT 10SM BKN100 14/07 A3000 RMK AO2 SLP158 T01440072 50002=
201506181353 METAR KPAE 181353Z VRB03KT 10SM FEW080 OVC100 13/08 A3001 RMK AO2 SLP161 T01330083=
201506181253 METAR KPAE 181253Z AUTO VRB03KT 10SM BKN095 OVC120 13/08 A3001=
201506181153 METAR KPAE 181153Z AUTO 36004KT 10SM BKN090 OVC110 13/07 A2999 RMK AO2 SLP155 T01280072 10139 20122 55001=
201506181053 METAR KPAE 181053Z AUTO 02006KT 10SM CLR 13/07 A2998 RMK AO2 SLP150 T01330067=
201506180953 METAR KPAE 180953Z AUTO 02007KT 10SM BKN110 13/07 A2998 RMK AO2 SLP151 T01330067=
201506180853 METAR KPAE 180853Z AUTO 02005KT 10SM SCT120 13/07 A3000 RMK AO2 SLP156 T01330067 58006=
201506180753 METAR KPAE 180753Z AUTO 01005KT 10SM FEW120 13/07 A3001 RMK AO2 SLP160 T01330072 402110111=
201506180653 METAR KPAE 180653Z AUTO 01007KT 10SM CLR 14/07 A3001 RMK AO2 SLP161 T01390067=
201506180553 METAR KPAE 180553Z AUTO VRB06KT 10SM CLR 14/07 A3001 RMK AO2 SLP162 T01390067 10206 20133 56005=
201506180453 METAR KPAE 180453Z AUTO 01005KT 10SM CLR 14/08 A3002 RMK AO2 SLP164 T01390078=
201506180353 METAR KPAE 180353Z 36006KT 10SM CLR 14/07 A3002 RMK AO2 SLP165 T01390072=
201506180253 METAR KPAE 180253Z 36008G17KT 330V040 10SM CLR 15/06 A3003 RMK AO2 SLP169 T01500061 56009=
201506180153 METAR KPAE 180153Z 35009G15KT 320V020 10SM CLR 17/07 A3004 RMK AO2 SLP171 T01670067=
201506180053 METAR KPAE 180053Z 36010G16KT 10SM CLR 18/08 A3004 RMK AO2 SLP172 T01830078=
201506172353 METAR KPAE 172353Z 35008KT 10SM CLR 21/04 A3006 RMK AO2 SLP176 T02060039 10211 20161 56012=
201506172253 METAR KPAE 172253Z 02006KT 10SM CLR 21/07 A3006 RMK AO2 SLP178 T02060067=
201506172153 METAR KPAE 172153Z 28007KT 10SM CLR 21/09 A3007 RMK AO2 SLP182 T02060089=
201506172053 METAR KPAE 172053Z 27007KT 10SM CLR 20/08 A3009 RMK AO2 SLP188 T02000078 58006=
201506171953 METAR KPAE 171953Z VRB05KT 10SM CLR 19/08 A3011 RMK AO2 SLP193 T01890078=
201506171853 METAR KPAE 171853Z VRB05KT 10SM CLR 17/08 A3011 RMK AO2 SLP196 T01720078=
201506171753 METAR KPAE 171753Z 29005KT 10SM CLR 16/08 A3011 RMK AO2 SLP195 T01610083 10161 20111 58001=
201506171653 METAR KPAE 171653Z 33004KT 10SM CLR 16/08 A3011 RMK AO2 SLP196 T01560078=
201506171553 METAR KPAE 171553Z 01004KT 10SM CLR 14/08 A3011 RMK AO2 SLP197 T01440078=
201506171453 METAR KPAE 171453Z VRB03KT 10SM CLR 13/07 A3011 RMK AO2 SLP196 T01330072 50002=
201506171353 METAR KPAE 171353Z 07003KT 10SM CLR 12/07 A3011 RMK AO2 SLP197 T01220072=
201506171253 METAR KPAE 171253Z AUTO 04004KT 10SM CLR 11/07 A3011 RMK AO2 SLP194 T01110072=
201506171153 METAR KPAE 171153Z AUTO 00000KT 10SM CLR 11/07 A3010 RMK AO2 SLP193 T01110072 10122 20111 53005=
201506171053 METAR KPAE 171053Z AUTO 00000KT 10SM CLR 12/07 A3010 RMK AO2 SLP190 T01170072=
201506171000 METAR KPAE NIL=
201506170900 METAR KPAE NIL=
201506170800 METAR KPAE NIL=
201506170700 METAR KPAE NIL=
201506170600 METAR KPAE NIL=
201506170500 METAR KPAE NIL=
201506170353 METAR KPAE 170353Z 02010G15KT 10SM CLR 14/08 A3007 RMK AO2 SLP183 T01390083=
201506170253 METAR KPAE 170253Z 02006KT 10SM CLR 15/09 A3007 RMK AO2 SLP182 T01500089 56005=
201506170153 METAR KPAE 170153Z 36010G14KT 10SM CLR 16/09 A3007 RMK AO2 SLP182 T01560089=
201506170053 METAR KPAE 170053Z 35008KT 10SM CLR 18/09 A3008 RMK AO2 SLP184 T01830089=
201506162353 METAR KPAE 162353Z 36006KT 10SM CLR 21/05 A3008 RMK AO2 SLP186 T02060050 10211 20139 58010=
201506162253 METAR KPAE 162253Z 32004KT 10SM CLR 20/09 A3010 RMK AO2 SLP191 T02000089=
201506162153 METAR KPAE 162153Z 25007KT 10SM CLR 18/08 A3011 RMK AO2 SLP195 T01830083=
201506162053 METAR KPAE 162053Z 24009KT 10SM CLR 17/08 A3012 RMK AO2 SLP197 T01720083 58001=
201506161953 METAR KPAE 161953Z 26011KT 10SM CLR 16/08 A3013 RMK AO2 SLP200 T01560083=
201506161853 METAR KPAE 161853Z 26013G19KT 10SM CLR 14/08 A3012 RMK AO2 SLP200 T01440083=
201506161753 METAR KPAE 161753Z 25011KT 10SM CLR 14/08 A3012 RMK AO2 SLP198 T01390083 10144 20106 51003=
201506161653 METAR KPAE 161653Z 22009KT 10SM SCT018 14/08 A3012 RMK AO2 SLP198 T01390083=
201506161602 SPECI KPAE 161602Z 25010KT 10SM OVC015 13/09 A3012 RMK AO2 T01280089=
201506161553 METAR KPAE 161553Z 24009KT 10SM OVC014 12/09 A3012 RMK AO2 SLP198 T01220089=
201506161453 METAR KPAE 161453Z 18010KT 10SM OVC013 13/08 A3011 RMK AO2 SLP195 T01280083 51014=
201506161418 SPECI KPAE 161418Z 20005KT 10SM BKN011 12/09 A3010 RMK AO2 T01220089=
201506161353 METAR KPAE 161353Z 20007KT 10SM SCT009 12/08 A3010 RMK AO2 SLP191 T01170083=
201506161342 SPECI KPAE 161342Z AUTO 21008KT 10SM FEW009 12/08 A3010 RMK AO2 T01170083=
201506161253 METAR KPAE 161253Z AUTO 21006KT 10SM CLR 12/09 A3009 RMK AO2 SLP187 T01170094=
201506161153 METAR KPAE 161153Z AUTO 00000KT 10SM CLR 11/08 A3007=
201506161053 METAR KPAE 161053Z AUTO 00000KT 10SM CLR 12/09 A3005 RMK AO2 SLP173 T01220089=
201506160953 METAR KPAE 160953Z AUTO 00000KT 10SM CLR 11/09 A3003 RMK AO2 SLP167 T01110089=
201506160853 METAR KPAE 160853Z AUTO 01004KT 10SM CLR 13/09 A3001 RMK AO2 SLP159 T01280089 53013=
201506160753 METAR KPAE 160753Z AUTO 03008KT 10SM CLR 14/08 A2999 RMK AO2 SLP154 T01440083 402560128=
201506160653 METAR KPAE 160653Z AUTO 03006KT 10SM CLR 16/07 A2998 RMK AO2 SLP149 T01560072=
201506160553 METAR KPAE 160553Z AUTO 01004KT 10SM CLR 16/08 A2997 RMK AO2 SLP146 T01560078 10250 20150 53015=
201506160453 METAR KPAE 160453Z AUTO 02007KT 10SM CLR 16/08 A2995 RMK AO2 SLP141 T01560078=
201506160353 METAR KPAE 160353Z AUTO 01008KT 10SM CLR 16/08 A2993 RMK AO2 SLP135 T01610083=
201506160253 METAR KPAE 160253Z 36006KT 10SM FEW110 19/08 A2992=
201506160153 METAR KPAE 160153Z 36005KT 10SM CLR 20/08 A2991 RMK AO2 SLP127 T02000083=
201506160053 METAR KPAE 160053Z 35005KT 10SM CLR 23/09 A2991 RMK AO2 SLP126 T02280094=
201506152353 METAR KPAE 152353Z 35008KT 10SM CLR 24/08 A2991 RMK AO2 SLP125 T02440083 10256 20206 56004=
201506152253 METAR KPAE 152253Z AUTO 35007KT 10SM CLR 25/09 A2991 RMK AO2 SLP127 T02500094 TSNO=
201506152153 METAR KPAE 152153Z 36009KT 10SM CLR 25/11 A2991 RMK AO2 SLP126 T02500106=
201506152053 METAR KPAE 152053Z 36007KT 10SM CLR 24/09 A2992 RMK AO2 SLP128 T02440094 58011=
201506151953 METAR KPAE 151953Z 35006KT 10SM CLR 22/08 A2993 RMK AO2 SLP133 T02220083=
201506151853 METAR KPAE 151853Z 36006KT 10SM CLR 22/09 A2994 RMK AO2 SLP137 T02220089=
201506151753 METAR KPAE 151753Z VRB05KT 10SM CLR 21/09 A2995 RMK AO2 SLP140 T02060089 10206 20128 58006=
201506151653 METAR KPAE 151653Z VRB03KT 10SM CLR 19/07 A2996 RMK AO2 SLP144 T01940072=
201506151553 METAR KPAE 151553Z 34003KT 10SM CLR 17/08 A2997 RMK AO2 SLP149 T01670078=
201506151453 METAR KPAE 151453Z 01003KT 10SM CLR 17/08 A2997 RMK AO2 SLP147 T01670078 52004=
201506151353 METAR KPAE 151353Z 02005KT 10SM CLR 15/07 A2997 RMK AO2 SLP145 T01500072=
201506151253 METAR KPAE 151253Z AUTO 01004KT 10SM CLR 13/08 A2996 RMK AO2 SLP144 T01330083=
201506151153 METAR KPAE 151153Z AUTO 01003KT 10SM CLR 13/08 A2996 RMK AO2 SLP143 T01330078 10167 20128 58001=
201506151053 METAR KPAE 151053Z AUTO 01003KT 10SM CLR 14/07 A2996 RMK AO2 SLP143 T01390067=
201506150953 METAR KPAE 150953Z AUTO 01003KT 10SM CLR 15/06 A2996 RMK AO2 SLP144 T01500056=
201506150853 METAR KPAE 150853Z AUTO 03006KT 10SM CLR 16/05 A2996 RMK AO2 SLP144 T01610050 50000=
201506150753 METAR KPAE 150753Z AUTO VRB03KT 10SM SCT120 17/06 A2997 RMK AO2 SLP146 T01670056 402390106=
201506150653 METAR KPAE 150653Z AUTO 03006KT 10SM BKN120 17/06 A2997 RMK AO2 SLP147 T01670056=
201506150553 METAR KPAE 150553Z AUTO 01007KT 10SM CLR 16/06 A2996 RMK AO2 SLP145 T01560056 10239 20150 51008=
201506150453 METAR KPAE 150453Z AUTO 03006KT 10SM CLR 15/08 A2996 RMK AO2 SLP143 T01500078=
201506150353 METAR KPAE 150353Z AUTO 35005KT 10SM CLR 16/09 A2995 RMK AO2 SLP139 T01610089=
201506150253 METAR KPAE 150253Z 35003KT 10SM CLR 21/09 A2994 RMK AO2 SLP135 T02110089 55005=
201506150153 METAR KPAE 150153Z 34007KT 10SM CLR 23/10 A2993 RMK AO2 SLP134 T02280100=
201506150053 METAR KPAE 150053Z 35008KT 10SM CLR 23/10 A2994 RMK AO2 SLP136 T02330100=
201506142353 METAR KPAE 142353Z VRB06KT 10SM CLR 23/10 A2995 RMK AO2 SLP141 T02280100 10233 20183 56017=
201506142253 METAR KPAE 142253Z 36009G14KT 10SM CLR 23/09 A2996 RMK AO2 SLP145 T02280089=
201506142153 METAR KPAE 142153Z 35008KT 10SM CLR 23/08 A2998 RMK AO2 SLP151 T02280083=
201506142053 METAR KPAE 142053Z VRB06KT 10SM CLR 22/08 A3000 RMK AO2 SLP158 T02220083 58014=
201506141953 METAR KPAE 141953Z 35005KT 10SM CLR 22/07 A3002 RMK AO2 SLP164 T02170072=
201506141853 METAR KPAE 141853Z 36007KT 320V040 10SM CLR 20/07 A3003 RMK AO2 SLP169 T02000067=
201506141753 METAR KPAE 141753Z 01005KT 10SM CLR 19/08 A3004 RMK AO2 SLP172 T01890078 10189 20111 58004=
201506141653 METAR KPAE 141653Z VRB04KT 10SM CLR 17/07 A3005 RMK AO2 SLP176 T01720072=
201506141553 METAR KPAE 141553Z 01005KT 10SM CLR 15/07 A3006=
201506141453 METAR KPAE 141453Z 36006KT 10SM CLR 14/07 A3006 RMK AO2 SLP177 T01390072 51006=
201506141353 METAR KPAE 141353Z VRB03KT 10SM CLR 13/07 A3005 RMK AO2 SLP176 T01280072=
201506141253 METAR KPAE 141253Z AUTO 00000KT 10SM CLR 11/07 A3005 RMK AO2 SLP174 T01110067=
201506141153 METAR KPAE 141153Z AUTO 36004KT 10SM CLR 11/07 A3004 RMK AO2 SLP171 T01110067 10139 20106 58002=
201506141053 METAR KPAE 141053Z AUTO 00000KT 10SM CLR 11/07 A3004 RMK AO2 SLP172 T01110067=
201506140953 METAR KPAE 140953Z AUTO 03004KT 10SM CLR 12/07 A3004 RMK AO2 SLP172 T01220072=
201506140853 METAR KPAE 140853Z AUTO 01003KT 10SM CLR 12/08 A3004 RMK AO2 SLP172 T01220078 52001=
201506140753 METAR KPAE 140753Z AUTO 01004KT 10SM CLR 13/07 A3004 RMK AO2 SLP172 T01280067 402110089=
201506140653 METAR KPAE 140653Z AUTO 02005KT 10SM CLR 13/08 A3004 RMK AO2 SLP172 T01280078=
201506140553 METAR KPAE 140553Z AUTO 02006KT 10SM CLR 14/07 A3004 RMK AO2 SLP171 T01390072 10211 20139 50003=
201506140453 METAR KPAE 140453Z AUTO 35004KT 10SM CLR 16/05 A3004 RMK AO2 SLP172 T01610050=
201506140353 METAR KPAE 140353Z 35004KT 10SM CLR 17/06 A3003 RMK AO2 SLP169 T01720061=
201506140253 METAR KPAE 140253Z 35005KT 10SM CLR 19/06 A3003 RMK AO2 SLP168 T01940056 55003=
201506140153 METAR KPAE 140153Z 34006KT 10SM CLR 20/06 A3003 RMK AO2 SLP167 T02000061=
201506140053 METAR KPAE 140053Z 36009KT 10SM CLR 21/06 A3003 RMK AO2 SLP167 T02060056=
201506132353 METAR KPAE 132353Z 34008KT 10SM CLR 21/08 A3004 RMK AO2 SLP172 T02060078 10211 20161 56011=
201506132253 METAR KPAE 132253Z AUTO 31007KT 10SM CLR 21/07 A3005 RMK AO2 SLP174 T02060072 TSNO=
201506132153 METAR KPAE 132153Z VRB06KT 10SM CLR 20/08 A3006 RMK AO2 SLP179 T02000078=
201506132053 METAR KPAE 132053Z 29006KT 10SM CLR 19/07 A3007 RMK AO2 SLP183 T01940072 56009=
201506131953 METAR KPAE 131953Z 00000KT 10SM CLR 18/07 A3008 RMK AO2 SLP186 T01830067=
201506131853 METAR KPAE 131853Z 29005KT 10SM CLR 18/08 A3009 RMK AO2 SLP188 T01780078=
201506131753 METAR KPAE 131753Z 28006KT 10SM CLR 16/07 A3010 RMK AO2 SLP192 T01610067 10167 20089 58008=
201506131653 METAR KPAE 131653Z VRB04KT 10SM CLR 16/06 A3011 RMK AO2 SLP195 T01560061=
201506131553 METAR KPAE 131553Z VRB04KT 10SM CLR 14/07 A3012 RMK AO2 SLP198 T01390067=
201506131453 METAR KPAE 131453Z 00000KT 10SM CLR 13/07 A3012 RMK AO2 SLP200 T01330072 50002=
201506131353 METAR KPAE 131353Z 00000KT 10SM CLR 12/07 A3013 RMK AO2 SLP200 T01170072=
201506131253 METAR KPAE 131253Z AUTO 00000KT 10SM CLR 10/06 A3012 RMK AO2 SLP200 T01000061=
201506131153 METAR KPAE 131153Z AUTO 00000KT 10SM CLR 11/06 A3012 RMK AO2 SLP199 T01060061 10133 20094 55003=
201506131053 METAR KPAE 131053Z AUTO 00000KT 10SM CLR 11/06 A3011 RMK AO2 SLP197 T01060056=
201506130953 METAR KPAE 130953Z AUTO 04005KT 10SM CLR 12/06 A3012 RMK AO2 SLP197 T01220056=
201506130853 METAR KPAE 130853Z AUTO 06003KT 10SM CLR 13/06 A3013 RMK AO2 SLP201 T01280061 58003=
201506130753 METAR KPAE 130753Z AUTO 03005KT 10SM CLR 12/07 A3014 RMK AO2 SLP206 T01170072 401890106=
201506130653 METAR KPAE 130653Z AUTO 35008KT 10SM CLR 12/06 A3014 RMK AO2 SLP204 T01220061=
201506130553 METAR KPAE 130553Z AUTO 03004KT 10SM CLR 13/06 A3013 RMK AO2 SLP204 T01330056 10183 20128 56001=
201506130453 METAR KPAE 130453Z AUTO 01003KT 10SM CLR 14/07 A3014 RMK AO2 SLP205 T01440067=
201506130353 METAR KPAE 130353Z AUTO 28004KT 10SM CLR 16/06 A3013 RMK AO2 SLP203 T01560061=
201506130253 METAR KPAE 130253Z 32005KT 10SM CLR 17/05 A3014 RMK AO2 SLP205 T01720050 56010=
201506130153 METAR KPAE 130153Z 28005KT 10SM CLR 18/06 A3014 RMK AO2 SLP206 T01780056=
201506130053 METAR KPAE 130053Z 29005KT 10SM CLR 18/06 A3015 RMK AO2 SLP210 T01830056=
201506122353 METAR KPAE 122353Z 25006KT 10SM CLR 18/04 A3017 RMK AO2 SLP215 T01780044 10189 20133 58008=
201506122253 METAR KPAE 122253Z 28007KT 10SM CLR 18/06 A3017 RMK AO2 SLP218 T01780056=
201506122153 METAR KPAE 122153Z VRB05KT 10SM CLR 17/07 A3019 RMK AO2 SLP222 T01720067=
201506122053 METAR KPAE 122053Z 26007KT 10SM CLR 17/08 A3019 RMK AO2 SLP223 T01670083 55003=
201506121953 METAR KPAE 121953Z 27009KT 10SM CLR 16/08 A3019 RMK AO2 SLP222 T01610083=
201506121853 METAR KPAE 121853Z VRB05KT 10SM SCT022 BKN032 15/08 A3019 RMK AO2 SLP224 T01500083=
201506121839 SPECI KPAE 121839Z 24005KT 10SM SCT022 BKN032 15/08 A3019 RMK AO2 T01500083=
201506121829 SPECI KPAE 121829Z 24006KT 10SM BKN022 BKN032 14/08 A3019 RMK AO2 T01390078=
201506121819 SPECI KPAE 121819Z 00000KT 10SM SCT025 BKN031 13/08 A3020 RMK AO2 T01330078=
201506121753 METAR KPAE 121753Z 16007KT 10SM BKN023 OVC029 14/07 A3020=
201506121653 METAR KPAE 121653Z 00000KT 10SM OVC022 13/07 A3020 RMK AO2 SLP226 T01280067=
201506121553 METAR KPAE 121553Z 00000KT 10SM OVC020 13/07 A3020 RMK AO2 SLP225 T01280072=
201506121453 METAR KPAE 121453Z 00000KT 10SM OVC029 12/07 A3019 RMK AO2 SLP223 T01170072 53009=
201506121353 METAR KPAE 121353Z 00000KT 10SM BKN018 OVC028 12/07 A3018 RMK AO2 SLP219 T01170067=
201506121253 METAR KPAE 121253Z AUTO 02006KT 10SM OVC020 11/07 A3017 RMK AO2 SLP215 T01110072=
201506121153 METAR KPAE 121153Z AUTO 02006KT 10SM BKN021 11/07 A3016 RMK AO2 SLP214 T01110067 10128 20106 53009=
201506121145 SPECI KPAE 121145Z AUTO VRB05KT 10SM BKN019 BKN027 11/06 A3016 RMK AO2 T01060061=
201506121053 METAR KPAE 121053Z AUTO VRB04KT 10SM FEW024 11/06 A3015 RMK AO2 SLP209 T01060061=
201506120953 METAR KPAE 120953Z AUTO VRB05KT 10SM FEW036 BKN047 OVC065 12/06 A3014 RMK AO2 SLP206 T01170061=
201506120853 METAR KPAE 120853Z AUTO 35008KT 10SM OVC047 12/07 A3013 RMK AO2 SLP203 T01220067 51006=
201506120753 METAR KPAE 120753Z AUTO 01004KT 10SM SCT055 BKN075 12/07 A3013 RMK AO2 SLP202 T01220067 402170106=
201506120653 METAR KPAE 120653Z AUTO 01006KT 10SM SCT048 BKN060 12/07 A3013 RMK AO2 SLP200 T01220072=
201506120553 METAR KPAE 120553Z AUTO 01009G16KT 10SM CLR 12/07 A3012 RMK AO2 SLP198 T01220072 10183 20122 53007 TSNO=
201506120453 METAR KPAE 120453Z AUTO 36011G18KT 10SM CLR 13/07 A3010 RMK AO2 SLP193 T01280072=
201506120353 METAR KPAE 120353Z AUTO 01012G20KT 10SM CLR 14/08 A3009 RMK AO2 SLP188 T01390078=
201506120253 METAR KPAE 120253Z 01012G18KT 10SM BKN080 16/08 A3010 RMK AO2 SLP190 T01560083 55002=
201506120153 METAR KPAE 120153Z 03011KT 10SM CLR 17/09 A3009 RMK AO2 SLP189 T01720089=
201506120053 METAR KPAE 120053Z 02009G15KT 10SM CLR 18/08 A3010 RMK AO2 SLP192 T01830078=
201506112353 METAR KPAE 112353Z 36011G16KT 10SM FEW090 17/08 A3010 RMK AO2 SLP194 T01720083 10217 20161 58009=
201506112253 METAR KPAE 112253Z 36008G15KT 10SM CLR 19/09 A3012 RMK AO2 SLP197 T01940089=
201506112153 METAR KPAE 112153Z 31006KT 10SM CLR 22/09 A3013 RMK AO2 SLP201 T02170089=
201506112053 METAR KPAE 112053Z 26006KT 10SM CLR 20/08 A3013 RMK AO2 SLP202 T02000078 58004=
201506111953 METAR KPAE 111953Z 26007KT 10SM CLR 19/09 A3013 RMK AO2 SLP203 T01890089=
201506111853 METAR KPAE 111853Z 24010KT 10SM CLR 17/09 A3014 RMK AO2 SLP206 T01720094=
201506111753 METAR KPAE 111753Z 25009KT 10SM CLR 16/09 A3014 RMK AO2 SLP206 T01610094 10167 20106 50002=
201506111653 METAR KPAE 111653Z 25009KT 10SM CLR 15/10 A3015 RMK AO2 SLP208 T01500100=
201506111553 METAR KPAE 111553Z 27006KT 10SM CLR 14/10 A3014 RMK AO2 SLP207 T01440100=
201506111453 METAR KPAE 111453Z 17006KT 10SM CLR 14/09 A3014 RMK AO2 SLP204 T01390089 51012=
201506111353 METAR KPAE 111353Z VRB04KT 10SM CLR 13/09 A3012 RMK AO2 SLP199 T01280094=
201506111253 METAR KPAE 111253Z AUTO 03003KT 10SM FEW009 11/09 A3012 RMK AO2 SLP197 T01110094=
201506111153 METAR KPAE 111153Z AUTO 00000KT 10SM SCT009 11/08 A3010 RMK AO2 SLP191 T01110083 10144 20106 53017=
201506111053 METAR KPAE 111053Z AUTO 00000KT 10SM CLR 11/08 A3008 RMK AO2 SLP184 T01110083=
201506110953 METAR KPAE 110953Z AUTO 02004KT 10SM CLR 12/08 A3006 RMK AO2 SLP178 T01170083=
201506110853 METAR KPAE 110853Z AUTO 02007KT 10SM CLR 12/09 A3005 RMK AO2 SLP175 T01170089 53014=
201506110753 METAR KPAE 110753Z AUTO 02004KT 10SM CLR 12/08 A3003 RMK AO2 SLP169 T01220083 402500106 TSNO=
201506110653 METAR KPAE 110653Z AUTO VRB06KT 10SM CLR 13/08 A3002 RMK AO2 SLP165 T01280083 TSNO=
201506110553 METAR KPAE 110553Z AUTO 01005KT 10SM CLR 14/07 A3001 RMK AO2 SLP161 T01440072 10250 20139 52013=
201506110453 METAR KPAE 110453Z AUTO 36007KT 10SM CLR 14/09 A3000 RMK AO2 SLP157 T01440094=
201506110353 METAR KPAE 110353Z AUTO 36008G14KT 10SM CLR 17/09 A2998 RMK AO2 SLP151 T01670089=
201506110253 METAR KPAE 110253Z 01006KT 10SM CLR 19/08 A2997 RMK AO2 SLP148 T01940083 53002=
201506110153 METAR KPAE 110153Z 34006KT 10SM CLR 22/09 A2997 RMK AO2 SLP146 T02220094=
201506110053 METAR KPAE 110053Z VRB03KT 10SM CLR 25/06 A2996=
201506102353 METAR KPAE 102353Z 27004KT 10SM CLR 24/07 A2996 RMK AO2 SLP144 T02440067 10244 20178 58008=
201506102253 METAR KPAE 102253Z 26006KT 10SM CLR 23/08 A2997 RMK AO2 SLP149 T02330078=
201506102153 METAR KPAE 102153Z 25008KT 10SM CLR 23/08 A2998 RMK AO2 SLP150 T02330078=
201506102053 METAR KPAE 102053Z 23008KT 10SM CLR 22/07 A2999 RMK AO2 SLP153 T02170072 50001=
201506101953 METAR KPAE 101953Z 26007G15KT 10SM CLR 21/07 A2999 RMK AO2 SLP154 T02110072=
201506101853 METAR KPAE 101853Z 26007KT 10SM CLR 19/08 A2999 RMK AO2 SLP154 T01940083=
201506101753 METAR KPAE 101753Z 26007KT 10SM CLR 18/09 A2999 RMK AO2 SLP152 T01780094 10178 20106 50004=
201506101653 METAR KPAE 101653Z 24005KT 10SM CLR 17/10 A2999=
201506101553 METAR KPAE 101553Z 28004KT 10SM CLR 15/10 A2998 RMK AO2 SLP150 T01500100=
201506101453 METAR KPAE 101453Z 18006KT 10SM CLR 14/08 A2997 RMK AO2 SLP148 T01440083 51008=
201506101353 METAR KPAE 101353Z 19004KT 10SM CLR 13/09 A2996 RMK AO2 SLP145 T01280089=
201506101253 METAR KPAE 101253Z AUTO 00000KT 9SM FEW006 12/09 A2996 RMK AO2 SLP143 T01220089=
201506101235 SPECI KPAE 101235Z AUTO 10003KT 9SM FEW008 12/09 A2995 RMK AO2 T01220089=
201506101153 METAR KPAE 101153Z AUTO 00000KT 9SM CLR 12/09 A2995 RMK AO2 SLP139 T01170089 10150 20111 53005=
201506101053 METAR KPAE 101053Z AUTO 00000KT 10SM CLR 11/08 A2994 RMK AO2 SLP136 T01110083=
201506100953 METAR KPAE 100953Z AUTO 36003KT 10SM CLR 12/09 A2994 RMK AO2 SLP135 T01170089=
201506100853 METAR KPAE 100853Z AUTO 36004KT 10SM CLR 13/08 A2993 RMK AO2 SLP133 T01280078 53006=
201506100753 METAR KPAE 100753Z AUTO 35006KT 10SM CLR 13/07 A2993 RMK AO2 SLP132 T01330072 402500117=
201506100653 METAR KPAE 100653Z AUTO 35008KT 10SM CLR 14/06 A2992 RMK AO2 SLP128 T01440061=
201506100553 METAR KPAE 100553Z AUTO 03005KT 10SM CLR 14/07 A2991 RMK AO2 SLP128 T01440072 10244 20144 53009=
201506100453 METAR KPAE 100453Z AUTO 36006KT 10SM CLR 16/07 A2991 RMK AO2 SLP125 T01560072=
201506100353 METAR KPAE 100353Z AUTO 35006KT 10SM CLR 17/07 A2989 RMK AO2 SLP119 T01720072=
201506100253 METAR KPAE 100253Z 35006KT 10SM CLR 20/07 A2989 RMK AO2 SLP118 T02000072 56008=
201506100153 METAR KPAE 100153Z 34009KT 10SM CLR 22/06 A2989 RMK AO2 SLP119 T02170056=
201506100053 METAR KPAE 100053Z 36009G16KT 320V020 10SM CLR 23/09 A2989 RMK AO2 SLP120 T02280094=
201506092353 METAR KPAE 092353Z 01007KT 10SM CLR 24/10 A2991 RMK AO2 SLP127 T02390100 10250 20194 57016=
201506092253 METAR KPAE 092253Z 36007KT 10SM CLR 25/09 A2993 RMK AO2 SLP133 T02500089=
201506092153 METAR KPAE 092153Z VRB05KT 10SM CLR 24/08 A2994=
201506092053 METAR KPAE 092053Z 36006KT 8SM CLR 24/08 A2996 RMK AO2 SLP144 T02390078 58008=
201506091953 METAR KPAE 091953Z VRB04KT 10SM CLR 23/10 A2998 RMK AO2 SLP149 T02280100=
201506091853 METAR KPAE 091853Z 33005KT 10SM CLR 21/10 A2998 RMK AO2 SLP150 T02110100=
201506091753 METAR KPAE 091753Z VRB04KT 10SM CLR 19/11 A2999 RMK AO2 SLP152 T01940106 10194 20117 58000=
201506091653 METAR KPAE 091653Z 35005KT 10SM CLR 18/10 A2999 RMK AO2 SLP152 T01780100=
201506091553 METAR KPAE 091553Z 35005KT 10SM CLR 16/10 A2999 RMK AO2 SLP154 T01610100=
201506091453 METAR KPAE 091453Z 01005KT 10SM CLR 15/09 A2999 RMK AO2 SLP152 T01500094 52004=
201506091353 METAR KPAE 091353Z 36005KT 10SM CLR 15/09 A2998 RMK AO2 SLP151 T01500089=
201506091321 SPECI KPAE 091321Z AUTO 35005KT 10SM FEW002 14/09 A2998 RMK AO2 T01390089=
201506091253 METAR KPAE 091253Z AUTO 36003KT 10SM CLR 12/09 A2998 RMK AO2 SLP150 T01220089=
201506091153 METAR KPAE 091153Z AUTO 00000KT 10SM CLR 12/08 A2997 RMK AO2 SLP148 T01170083 10161 20117 55000=
201506091053 METAR KPAE 091053Z AUTO 00000KT 10SM CLR 12/08 A2997 RMK AO2 SLP146 T01220083=
201506090953 METAR KPAE 090953Z AUTO 36004KT 10SM CLR 13/08 A2997 RMK AO2 SLP147 T01280083=
201506090853 METAR KPAE 090853Z AUTO 01006KT 10SM CLR 15/07 A2998 RMK AO2 SLP147 T01500067 53002=
201506090753 METAR KPAE 090753Z AUTO 03006KT 10SM CLR 15/07 A2997 RMK AO2 SLP146 T01500072 402670106 TSNO=
201506090653 METAR KPAE 090653Z AUTO 36006KT 10SM CLR 15/07 A2997 RMK AO2 SLP148 T01500072=
201506090553 METAR KPAE 090553Z AUTO 01007KT 10SM CLR 17/07 A2997 RMK AO2 SLP146 T01670067 10261 20167 53003=
201506090453 METAR KPAE 090453Z AUTO 36006KT 10SM CLR 17/06 A2996 RMK AO2 SLP143 T01720056=
201506090353 METAR KPAE 090353Z AUTO 01004KT 10SM CLR 18/07 A2996 RMK AO2 SLP143 T01780072=
201506090253 METAR KPAE 090253Z 35007KT 10SM CLR 21/07 A2996 RMK AO2 SLP144 T02060072 55006=
201506090153 METAR KPAE 090153Z 35006KT 10SM CLR 22/09 A2996 RMK AO2 SLP143 T02220094=
201506090053 METAR KPAE 090053Z 34006KT 10SM CLR 25/12 A2996 RMK AO2 SLP144 T02500117=
201506082353 METAR KPAE 082353Z 35007KT 320V030 10SM CLR 26/12 A2998 RMK AO2 SLP149 T02610117 10267 20211 58009=
201506082253 METAR KPAE 082253Z VRB03KT 10SM CLR 24/12 A2999 RMK AO2 SLP154 T02440117=
201506082153 METAR KPAE 082153Z 35005KT 10SM CLR 26/12 A3000 RMK AO2 SLP155 T02610122=
201506082053 METAR KPAE 082053Z VRB05KT 10SM CLR 26/11 A3000 RMK AO2 SLP157 T02560111 58007=
201506081953 METAR KPAE 081953Z 33005KT 10SM CLR 23/12 A3002 RMK AO2 SLP163 T02330117=
201506081853 METAR KPAE 081853Z VRB05KT 10SM CLR 22/12 A3002 RMK AO2 SLP165 T02170122 $=
201506081753 METAR KPAE 081753Z 01006KT 10SM CLR 21/11 A3003 RMK AO2 SLP165 T02110111 10211 20106 58003 $=
201506081653 METAR KPAE 081653Z VRB04KT 10SM CLR 18/11 A3004 RMK AO2 SLP169 T01830111=
201506081553 METAR KPAE 081553Z 36003KT 10SM CLR 16/11 A3004 RMK AO2 SLP170 T01560106=
201506081453 METAR KPAE 081453Z 36004KT 10SM CLR 13/11 A3004 RMK AO2 SLP169 T01330106 53003=
201506081404 SPECI KPAE 081404Z VRB05KT 10SM FEW001 12/10 A3003 RMK AO2 T01170100=
201506081353 METAR KPAE 081353Z AUTO 36005KT 10SM OVC001 12/10 A3003 RMK AO2 SLP167 T01170100=
201506081253 METAR KPAE 081253Z AUTO 36006KT 6SM R16R/3500VP6000FT BR OVC001 11/10 A3003 RMK AO2 SLP165 T01110100=
201506081227 SPECI KPAE 081227Z AUTO 01005KT 4SM R16R/1800VP6000FT BR OVC001 11/10 A3003 RMK AO2 T01110100=
201506081217 SPECI KPAE 081217Z AUTO 01006KT 2 1/2SM R16R/2200VP6000FT BR OVC001 11/10 A3003 RMK AO2 T01060100=
201506081202 SPECI KPAE 081202Z AUTO 01006KT 6SM R16R/2400VP6000FT BR BKN001 11/10 A3003 RMK AO2 T01110100=
201506081153 METAR KPAE 081153Z AUTO 01005KT 9SM SCT001 11/09 A3003=
201506081053 METAR KPAE 081053Z AUTO 01005KT 10SM CLR 12/10 A3002 RMK AO2 SLP165 T01220100=
201506080953 METAR KPAE 080953Z AUTO 02004KT 10SM CLR 13/11 A3003 RMK AO2 SLP167 T01280106=
201506080853 METAR KPAE 080853Z AUTO 02006KT 10SM CLR 14/11 A3003 RMK AO2 SLP166 T01390111 53001=
201506080753 METAR KPAE 080753Z AUTO 03007KT 10SM CLR 16/11 A3002 RMK AO2 SLP164 T01560111 402780133=
201506080653 METAR KPAE 080653Z AUTO 04005KT 10SM CLR 17/11 A3003 RMK AO2 SLP164 T01720106=
201506080553 METAR KPAE 080553Z AUTO 36005KT 10SM CLR 17/11 A3002 RMK AO2 SLP165 T01670106 10278 20167 50003=
201506080453 METAR KPAE 080453Z AUTO 01008KT 10SM CLR 18/10 A3003 RMK AO2 SLP167 T01780100=
201506080353 METAR KPAE 080353Z 04006KT 10SM CLR 20/09 A3002 RMK AO2 SLP161 T02000094=
201506080253 METAR KPAE 080253Z 01003KT 10SM CLR 24/11 A3002 RMK AO2 SLP161 T02390111 55005=
201506080153 METAR KPAE 080153Z 33006KT 10SM CLR 26/10 A3001 RMK AO2 SLP160 T02610100=
201506080053 METAR KPAE 080053Z VRB05KT 10SM CLR 27/12 A3002 RMK AO2 SLP163 T02720122=
201506072353 METAR KPAE 072353Z VRB04KT 10SM CLR 27/12 A3003 RMK AO2 SLP166 T02720122 10278 20211 56006=
201506072253 METAR KPAE 072253Z 34009KT 320V020 10SM CLR 27/11 A3004 RMK AO2 SLP168 T02670111=
201506072153 METAR KPAE 072153Z 34007G16KT 10SM CLR 26/11 A3004 RMK AO2 SLP169 T02610111=
201506072053 METAR KPAE 072053Z 32008KT 10SM CLR 25/11 A3005 RMK AO2 SLP172 T02500111 56004=
201506071953 METAR KPAE 071953Z VRB04KT 10SM CLR 24/12 A3005 RMK AO2 SLP174 T02390117=
201506071853 METAR KPAE 071853Z 36006KT 10SM CLR 23/12 A3005 RMK AO2 SLP175 T02280117=
201506071753 METAR KPAE 071753Z 01005KT 10SM CLR 22/12 A3006 RMK AO2 SLP177 T02170117 10217 20133 58000=
201506071653 METAR KPAE 071653Z 36004KT 10SM CLR 20/11 A3006 RMK AO2 SLP178 T02000106=
201506071553 METAR KPAE 071553Z 03004KT 10SM CLR 19/11 A3006 RMK AO2 SLP178 T01940106=
201506071453 METAR KPAE 071453Z 04003KT 10SM CLR 17/11 A3006 RMK AO2 SLP177 T01720111 52007=
201506071353 METAR KPAE 071353Z 00000KT 10SM CLR 15/10 A3005 RMK AO2 SLP174 T01500100=
201506071253 METAR KPAE 071253Z AUTO 00000KT 10SM CLR 14/09 A3004 RMK AO2 SLP170 T01390089=
201506071153 METAR KPAE 071153Z AUTO 33003KT 10SM CLR 13/09 A3004=
201506071053 METAR KPAE 071053Z AUTO 00000KT 10SM CLR 13/10 A3003 RMK AO2 SLP167 T01330100=
201506070953 METAR KPAE 070953Z AUTO 02004KT 10SM CLR 14/10 A3003=
201506070853 METAR KPAE 070853Z AUTO 02004KT 10SM CLR 17/08 A3002 RMK AO2 SLP163 T01670078 50000=
201506070753 METAR KPAE 070753Z AUTO 02005KT 10SM CLR 17/09 A3002=
201506070653 METAR KPAE 070653Z AUTO 01005KT 10SM CLR 16/10 A3002 RMK AO2 SLP164 T01560100=
201506070553 METAR KPAE 070553Z AUTO 36008KT 10SM CLR 16/11 A3002 RMK AO2 SLP163 T01610106 10261 20161 51005=
201506070453 METAR KPAE 070453Z AUTO 35006KT 10SM CLR 19/11 A3002 RMK AO2 SLP163 T01890106=
201506070353 METAR KPAE 070353Z AUTO 36004KT 10SM CLR 19/11 A3001 RMK AO2 SLP160 T01890111=
201506070333 SPECI KPAE 070333Z 34004KT 10SM FEW001 19/12 A3001 RMK AO2 T01940117=
201506070253 METAR KPAE 070253Z 35005KT 10SM CLR 21/12 A3000 RMK AO2 SLP158 T02110122 55001=
201506070153 METAR KPAE 070153Z 35005KT 10SM CLR 24/12 A3000 RMK AO2 SLP157 T02440122=
201506070053 METAR KPAE 070053Z VRB06KT 10SM CLR 26/12 A3000 RMK AO2 SLP156 T02560117=
201506062353 METAR KPAE 062353Z 34005KT 10SM CLR 26/12 A3001 RMK AO2 SLP159 T02560122 10261 20200 58009=
201506062253 METAR KPAE 062253Z 36007KT 10SM CLR 26/11 A3003 RMK AO2 SLP165 T02560111=
201506062153 METAR KPAE 062153Z VRB04KT 10SM CLR 26/12 A3004 RMK AO2 SLP168 T02560117=
201506062053 METAR KPAE 062053Z 31007KT 10SM CLR 24/12 A3004 RMK AO2 SLP169 T02390117 56005=
201506061953 METAR KPAE 061953Z 30006KT 10SM CLR 23/13 A3004 RMK AO2 SLP170 T02330128=
201506061853 METAR KPAE 061853Z VRB03KT 10SM CLR 21/12 A3005 RMK AO2 SLP172 T02110122=
201506061753 METAR KPAE 061753Z 28006KT 10SM CLR 21/12 A3005 RMK AO2 SLP175 T02110122 10211 20117 58005=
201506061653 METAR KPAE 061653Z 01004KT 10SM CLR 19/11 A3006 RMK AO2 SLP178 T01940106=
201506061553 METAR KPAE 061553Z 31003KT 10SM CLR 18/10 A3007 RMK AO2 SLP180 T01830100=
201506061453 METAR KPAE 061453Z 05003KT 10SM CLR 17/11 A3007 RMK AO2 SLP180 T01720106 51008=
201506061353 METAR KPAE 061353Z 00000KT 10SM CLR 14/11 A3007 RMK AO2 SLP180 T01440106=
201506061253 METAR KPAE 061253Z AUTO 01003KT 10SM CLR 12/10 A3006 RMK AO2 SLP178 T01220100=
201506061153 METAR KPAE 061153Z AUTO 00000KT 10SM CLR 12/10 A3004 RMK AO2 SLP172 T01220100 10161 20117 58002=
201506061053 METAR KPAE 061053Z AUTO 02004KT 10SM CLR 13/09 A3005 RMK AO2 SLP173 T01280089=
201506060953 METAR KPAE 060953Z AUTO 00000KT 10SM CLR 14/09 A3005 RMK AO2 SLP172 T01390089=
201506060853 METAR KPAE 060853Z AUTO 05004KT 10SM CLR 15/08 A3005 RMK AO2 SLP174 T01500078 53001=
201506060753 METAR KPAE 060753Z AUTO 05005KT 10SM CLR 16/08 A3005 RMK AO2 SLP172 T01560078 402330106=
201506060653 METAR KPAE 060653Z AUTO 00000KT 10SM CLR 14/08 A3005 RMK AO2 SLP175 T01440083=
201506060553 METAR KPAE 060553Z AUTO 36005KT 10SM CLR 15/08 A3005 RMK AO2 SLP174 T01500078 10228 20133 55001=
201506060453 METAR KPAE 060453Z AUTO VRB05KT 10SM CLR 15/07 A3005 RMK AO2 SLP174 T01500072=
201506060353 METAR KPAE 060353Z AUTO 03005KT 10SM CLR 16/08 A3005 RMK AO2 SLP174 T01610078=
201506060253 METAR KPAE 060253Z 01004KT 10SM CLR 18/10 A3005 RMK AO2 SLP175 T01830100 56006=
201506060153 METAR KPAE 060153Z 36006KT 10SM CLR 22/09 A3005 RMK AO2 SLP176 T02170094=
201506060053 METAR KPAE 060053Z 35006KT 10SM CLR 22/10 A3006 RMK AO2 SLP177 T02170100=
201506052353 METAR KPAE 052353Z 36008KT 10SM CLR 23/11 A3007 RMK AO2 SLP181 T02280111 10233 20189 56009=
201506052253 METAR KPAE 052253Z 35006KT 10SM CLR 23/12 A3008 RMK AO2 SLP183 T02330117=
201506052153 METAR KPAE 052153Z 35007KT 310V020 10SM CLR 23/11 A3009 RMK AO2 SLP186 T02280106=
201506052053 METAR KPAE 052053Z 36006KT 10SM CLR 21/11 A3010 RMK AO2 SLP190 T02110106 58013=
201506051953 METAR KPAE 051953Z 36008KT 10SM CLR 21/10 A3011 RMK AO2 SLP195 T02110100=
201506051853 METAR KPAE 051853Z 01006KT 10SM CLR 20/10 A3012 RMK AO2 SLP199 T02000100=
201506051753 METAR KPAE 051753Z 02005KT 10SM CLR 19/11 A3013 RMK AO2 SLP203 T01890106 10189 20106 58005=
201506051653 METAR KPAE 051653Z 34006KT 10SM CLR 17/11 A3015 RMK AO2 SLP210 T01720106=
201506051553 METAR KPAE 051553Z 01005KT 10SM CLR 15/10 A3015 RMK AO2 SLP210 T01500100=
201506051453 METAR KPAE 051453Z 02005KT 10SM CLR 14/09 A3015 RMK AO2 SLP208 T01390094 51002=
201506051353 METAR KPAE 051353Z 01004KT 10SM CLR 12/09 A3015 RMK AO2 SLP208 T01220094=
201506051253 METAR KPAE 051253Z AUTO 02004KT 10SM CLR 12/09 A3015 RMK AO2 SLP208 T01170089=
201506051153 METAR KPAE 051153Z AUTO 35004KT 10SM CLR 11/09 A3014 RMK AO2 SLP206 T01110089 10128 20111 51001=
201506051053 METAR KPAE 051053Z AUTO 03005KT 10SM CLR 12/09 A3014 RMK AO2 SLP206 T01170089=
201506050953 METAR KPAE 050953Z AUTO 03006KT 10SM CLR 12/09 A3014 RMK AO2 SLP207 T01220089=
201506050853 METAR KPAE 050853Z AUTO 02005KT 10SM CLR 13/08 A3014 RMK AO2 SLP206 T01280083 57001=
201506050753 METAR KPAE 050753Z AUTO 03006KT 10SM CLR 13/09 A3014 RMK AO2 SLP206 T01280089 402060100=
201506050653 METAR KPAE 050653Z AUTO 35006KT 10SM CLR 12/08 A3014 RMK AO2 SLP208 T01220083=
201506050553 METAR KPAE 050553Z AUTO 36006KT 10SM CLR 12/09 A3015 RMK AO2 SLP208 T01220089 10200 20117 51011=
201506050453 METAR KPAE 050453Z 02005KT 10SM CLR 12/09 A3014 RMK AO2 SLP206 T01170094=
201506050353 METAR KPAE 050353Z 36004KT 10SM CLR 14/09 A3013 RMK AO2 SLP202 T01390094=
201506050253 METAR KPAE 050253Z 35004KT 10SM CLR 17/10 A3011 RMK AO2 SLP196 T01720100 55004=
201506050153 METAR KPAE 050153Z VRB04KT 10SM CLR 18/10 A3010 RMK AO2 SLP193 T01830100=
201506050053 METAR KPAE 050053Z 34007KT 10SM CLR 19/09 A3012 RMK AO2 SLP197 T01940094=
201506042353 METAR KPAE 042353Z 35008KT 10SM CLR 19/10 A3012 RMK AO2 SLP199 T01940100 10206 20133 56004=
201506042253 METAR KPAE 042253Z 36006KT 10SM CLR 19/09 A3013=
201506042153 METAR KPAE 042153Z VRB06KT 10SM OVC055 19/10 A3012 RMK AO2 SLP200 T01940100=
201506042053 METAR KPAE 042053Z VRB05KT 10SM BKN055 18/10 A3014 RMK AO2 SLP204 T01830100 58007 $=
201506041953 METAR KPAE 041953Z 34005KT 10SM CLR 17/10 A3015 RMK AO2 SLP209 T01670100 $=
201506041853 METAR KPAE 041853Z 00000KT 10SM OVC047 15/09 A3015 RMK AO2 SLP211 T01500089 $=
201506041753 METAR KPAE 041753Z 02005KT 10SM OVC042 13/09 A3016 RMK AO2 SLP211 T01330089 10133 20100 52006 $=
201506041653 METAR KPAE 041653Z 01005KT 10SM BKN043 OVC050 12/08 A3015 RMK AO2 SLP210 T01220083=
201506041553 METAR KPAE 041553Z VRB04KT 10SM FEW009 BKN045 OVC050 12/08 A3014 RMK AO2 SLP207 T01220083=
201506041534 SPECI KPAE 041534Z VRB03KT 10SM FEW009 OVC050 12/09 A3014 RMK AO2 T01170089=
201506041453 METAR KPAE 041453Z VRB04KT 10SM OVC050 12/08 A3014 RMK AO2 SLP205 T01170083 53013=
201506041432 SPECI KPAE 041432Z VRB06KT 10SM FEW007 OVC049 11/08 A3013 RMK AO2 T01110083=
201506041353 METAR KPAE 041353Z 35005KT 10SM OVC048 11/08 A3012=
201506041253 METAR KPAE 041253Z AUTO 01003KT 10SM BKN050 11/08 A3010 RMK AO2 SLP194 T01060078=
201506041153 METAR KPAE 041153Z AUTO 02004KT 10SM OVC055 11/07 A3010 RMK AO2 SLP192 70006 T01060072 10117 20106 51005=
201506041053 METAR KPAE 041053Z AUTO 01006KT 10SM OVC060 11/07 A3009 RMK AO2 SLP191 T01110072=
201506040953 METAR KPAE 040953Z AUTO 03005KT 10SM OVC060 11/07 A3009 RMK AO2 SLP190 T01110072=
201506040853 METAR KPAE 040853Z AUTO 02005KT 10SM BKN060 11/07 A3008 RMK AO2 SLP187 T01110072 50001=
201506040753 METAR KPAE 040753Z AUTO 01005KT 10SM CLR 11/07 A3009 RMK AO2 SLP188 T01110067 401780106=
201506040653 METAR KPAE 040653Z AUTO 36004KT 10SM BKN060 11/07 A3008 RMK AO2 SLP186 T01110072=
201506040553 METAR KPAE 040553Z AUTO 02006KT 10SM OVC060 12/08 A3008 RMK AO2 SLP187 T01170078 10167 20117 51006=
201506040453 METAR KPAE 040453Z AUTO 36004KT 10SM OVC060 12/08 A3008 RMK AO2 SLP186 T01220078=
201506040353 METAR KPAE 040353Z 01005KT 10SM OVC065 13/08 A3007 RMK AO2 SLP183 T01280078=
201506040253 METAR KPAE 040253Z 01007KT 10SM OVC090 13/08 A3006=
201506040153 METAR KPAE 040153Z 01006KT 10SM SCT060 OVC090 14/08 A3006 RMK AO2 SLP180 T01390083=
201506040053 METAR KPAE 040053Z 36006KT 10SM FEW040 FEW095 14/09 A3006 RMK AO2 SLP178 T01440089=
201506032353 METAR KPAE 032353Z 36007KT 10SM FEW095 17/08 A3006 RMK AO2 SLP178 T01670083 10178 20128 56005=
201506032253 METAR KPAE 032253Z 34005KT 10SM OVC041 16/08 A3006 RMK AO2 SLP179 T01610083=
201506032220 SPECI KPAE 032220Z 36003KT 10SM SCT024 OVC031 16/09 A3006 RMK AO2 T01560089=
201506032153 METAR KPAE 032153Z 33005KT 10SM SCT009 BKN023 15/09 A3007 RMK AO2 SLP181 T01500089=
201506032100 SPECI KPAE 032100Z VRB04KT 10SM SCT009 BKN023 16/09 A3007 RMK AO2 T01560089=
201506032053 METAR KPAE 032053Z 36004KT 10SM BKN023 OVC028 16/09 A3007 RMK AO2 SLP183 T01560094 58005=
201506032011 SPECI KPAE 032011Z 02004KT 10SM SCT009 OVC029 16/09 A3008 RMK AO2 T01610094=
201506032000 SPECI KPAE 032000Z 01005KT 10SM OVC029 15/09 A3008 RMK AO2 T01500089=
201506031953 METAR KPAE 031953Z VRB05KT 10SM BKN014 OVC027 15/09 A3008 RMK AO2 SLP186 T01500094=
201506031935 SPECI KPAE 031935Z 01005KT 10SM BKN014 OVC027 14/10 A3008 RMK AO2 T01440100=
201506031853 METAR KPAE 031853Z 07005KT 10SM BKN009 BKN016 OVC023 14/10 A3009 RMK AO2 SLP190 T01390100=
201506031801 SPECI KPAE 031801Z 02003KT 10SM BKN006 BKN009 OVC023 13/09 A3009 RMK AO2 T01330094=
201506031753 METAR KPAE 031753Z 03004KT 10SM BKN017 OVC023 13/09 A3009 RMK AO2 SLP189 60006 T01280089 10133 20106 51002=
201506031653 METAR KPAE 031653Z VRB03KT 5SM BR BKN009 OVC019 12/10 A3009 RMK AO2 SLP189 T01220100=
201506031600 SPECI KPAE 031600Z 05003KT 10SM BKN009 OVC019 12/10 A3008 RMK AO2 T01220100=
201506031553 METAR KPAE 031553Z 00000KT 10SM BKN004 BKN009 OVC019 12/09 A3008 RMK AO2 SLP188 T01170094=
201506031539 SPECI KPAE 031539Z 07003KT 4SM BR BKN004 BKN016 OVC023 12/09 A3008 RMK AO2 T01170094=
201506031514 SPECI KPAE 031514Z 00000KT 2SM BR BKN004 BKN016 OVC023 11/09 A3008 RMK AO2 T01110094=
201506031507 SPECI KPAE 031507Z 06004KT 2SM BR SCT004 BKN016 OVC023 11/10 A3008 RMK AO2 T01110100=
201506031453 METAR KPAE 031453Z 02003KT 2SM BR BKN003 OVC014 11/10 A3008 RMK AO2 RAE15 CIG 002V009 SLP187 P0001 60006 T01110100 53005=
201506031353 METAR KPAE 031353Z 02005KT 1 1/2SM -RA BR BKN003 OVC014 11/10 A3007 RMK AO2 RAE30B38 SLP185 P0002 T01060100=
201506031343 SPECI KPAE 031343Z AUTO 02005KT 1 1/2SM -RA BR BKN003 BKN008 OVC012 11/10 A3007 RMK AO2 RAE30B38 P0002 T01060100=
201506031336 SPECI KPAE 031336Z AUTO 01003KT 2SM BR BKN003 OVC016 11/10 A3007 RMK AO2 RAE30 P0002 T01060100=
201506031305 SPECI KPAE 031305Z AUTO 36004KT 1 3/4SM -RA BR BKN003 OVC011 11/10 A3007 RMK AO2 P0001 T01060100=
201506031253 METAR KPAE 031253Z AUTO VRB03KT 3SM -RA BR BKN003 OVC008 11/10 A3007 RMK AO2 SLP182 P0003 T01060100=
201506031153 METAR KPAE 031153Z AUTO 02003KT 2SM -RA BR BKN003 OVC014 11/10 A3007 RMK AO2 SLP181 P0002 60013 70027 T01060100 10111 20106 56003=
201506031142 SPECI KPAE 031142Z AUTO 02003KT 2SM -RA BR BKN003 OVC014 11/10 A3006 RMK AO2 P0002 T01060100=
201506031140 SPECI KPAE 031140Z AUTO 01004KT 2 1/2SM -RA BR SCT003 OVC016 11/10 A3006 RMK AO2 P0002 T01060100=
201506031115 SPECI KPAE 031115Z AUTO VRB04KT 3SM -RA BR SCT003 OVC016 11/09 A3006 RMK AO2 P0001 T01060094=
201506031100 SPECI KPAE 031100Z AUTO 02003KT 2 1/2SM -RA BR BKN003 OVC013 11/10 A3007 RMK AO2 P0001 T01060100=
201506031053 METAR KPAE 031053Z AUTO 02003KT 3SM -RA BR BKN003 OVC015 11/10 A3007 RMK AO2 CIG 002V008 SLP182 P0002 T01060100=
201506031044 SPECI KPAE 031044Z AUTO 03004KT 3SM -RA BR BKN002 BKN009 OVC012 11/10 A3007 RMK AO2 P0002 T01060100=
201506031008 SPECI KPAE 031008Z AUTO 02004KT 2SM -RA BR BKN003 OVC012 11/10 A3007 RMK AO2 P0001 T01060100=
201506030953 METAR KPAE 030953Z AUTO 02006KT 3SM -RA BR BKN003 OVC020 11/09 A3007 RMK AO2 RAE08B14 SLP183 P0001 T01060094=
201506030924 SPECI KPAE 030924Z AUTO 00000KT 2SM -RA BR OVC002 11/10 A3007 RMK AO2 RAE08B14 P0000 T01060100=
201506030908 SPECI KPAE 030908Z AUTO 03004KT 4SM BR BKN002 OVC008 11/10 A3007 RMK AO2 RAE08 P0000 T01060100=
201506030853 METAR KPAE 030853Z AUTO 03004KT 2 1/2SM -RA BR OVC002 11/10 A3007 RMK AO2 SLP185 P0003 60008 T01060100 50000=
201506030753 METAR KPAE 030753Z AUTO 02003KT 2SM -RA BR BKN002 OVC006 11/10 A3008 RMK AO2 SLP186 P0003 T01060100 401560106=
201506030653 METAR KPAE 030653Z AUTO 36004KT 2SM -RA BR OVC002 11/10 A3008 RMK AO2 RAE06B22 SLP184 P0002 T01060100=
201506030637 SPECI KPAE 030637Z AUTO 36004KT 2SM -RA BR OVC002 11/10 A3008 RMK AO2 RAE06B22 P0001 T01060100=
201506030609 SPECI KPAE 030609Z AUTO 35003KT 3SM BR OVC002 11/10 A3008 RMK AO2 RAE06 P0001 T01110100=
201506030553 METAR KPAE 030553Z AUTO VRB04KT 2 1/2SM -RA BR OVC002 11/10 A3007 RMK AO2 SLP184 P0001 60009 T01110100 10144 20111 51005=
201506030542 SPECI KPAE 030542Z AUTO 36006KT 3SM -RA BR OVC002 11/10 A3007 RMK AO2 P0001 T01110100=
201506030507 SPECI KPAE 030507Z AUTO 36006KT 2 1/2SM -RA BR BKN002 OVC018 11/11 A3007 RMK AO2 P0000 T01110106=
201506030453 METAR KPAE 030453Z AUTO VRB04KT 3SM -RA BR BKN002 OVC017 11/11 A3007 RMK AO2 SLP182 P0003 T01110106=
201506030438 SPECI KPAE 030438Z AUTO 36006KT 3SM -RA BR BKN002 OVC017 11/11 A3007 RMK AO2 P0002 T01110106=
201506030409 SPECI KPAE 030409Z AUTO 36004KT 2SM -RA BR BKN002 OVC017 11/11 A3006 RMK AO2 P0001 T01110106=
201506030400 SPECI KPAE 030400Z AUTO 36006KT 1 1/2SM -RA BR BKN002 OVC017 11/11 A3006 RMK AO2 P0001 T01110106=
201506030353 METAR KPAE 030353Z AUTO 01004KT 2SM -RA BR BKN002 OVC017 11/11 A3006 RMK AO2 SLP179 P0003 T01110106=
201506030253 METAR KPAE 030253Z 36006KT 2SM -RA BR OVC002 12/11 A3006 RMK AO2 RAB02 SLP178 P0001 60002 T01170106 53004=
201506030233 SPECI KPAE 030233Z 35003KT 2SM -RA BR OVC002 12/11 A3006 RMK AO2 RAB02 P0001 T01170106=
201506030220 SPECI KPAE 030220Z 31005KT 3/4SM R16R/P6000FT -RA BR OVC001 12/11 A3005 RMK AO2 RAB02 P0000 T01170106=
201506030210 SPECI KPAE 030210Z VRB05KT 4SM -RA BR OVC001 12/11 A3005 RMK AO2 RAB02 P0000 T01170111=
201506030203 SPECI KPAE 030203Z VRB05KT 2SM R16R/4000VP6000FT -RA BR OVC001 12/11 A3005 RMK AO2 RAB02 P0000 T01170111=
201506030153 METAR KPAE 030153Z VRB04KT 3/4SM R16R/3000VP6000FT BR VV001 12/11 A3005 RMK AO2 RAE46 SLP177 P0000 T01170111=
201506030149 SPECI KPAE 030149Z 36005KT 3/4SM R16R/4000VP6000FT BR VV001 12/11 A3005 RMK AO2 RAE46 P0000=
201506030132 SPECI KPAE 030132Z 35005KT 1 3/4SM R16R/6000VP6000FT -RA BR BKN003 OVC014 12/12 A3005 RMK AO2 P0000 T01220117=
201506030116 SPECI KPAE 030116Z 36006KT 7SM -RA BKN004 BKN017 OVC029 13/12 A3005 RMK AO2 CIG 001V005 P0000 T01280117=
201506030053 METAR KPAE 030053Z 36005KT 4SM -RA BR FEW005 BKN029 OVC049 13/12 A3004 RMK AO2 SLP174 P0001 T01330117=
201506030050 SPECI KPAE 030050Z VRB03KT 4SM -RA BR FEW009 BKN029 OVC049 13/12 A3004 RMK AO2 P0001=
201506030021 SPECI KPAE 030021Z VRB03KT 9SM -RA BKN006 OVC012 13/12 A3004 RMK AO2 CIG 004V009 P0000 T01330117=
201506022353 METAR KPAE 022353Z 00000KT 10SM -RA SCT005 BKN012 OVC047 14/12 A3004 RMK AO2 SLP172 P0000 60005 T01440117 10156 20133 51003=
201506022346 SPECI KPAE 022346Z 00000KT 10SM -RA SCT005 BKN012 OVC047 14/11 A3004 RMK AO2 P0000 T01390111=
201506022316 SPECI KPAE 022316Z AUTO 02003KT 10SM -RA SCT004 BKN009 OVC043 14/12 A3004 RMK AO2 CIG 007V015 P0000 T01390122 TSNO=
201506022307 SPECI KPAE 022307Z AUTO 02003KT 9SM -RA FEW008 BKN033 OVC043 14/12 A3004 RMK AO2 P0000 T01390117 TSNO=
201506022300 SPECI KPAE 022300Z AUTO 00000KT 9SM -RA FEW010 BKN034 OVC055 14/12 A3004 RMK AO2 P0000 T01390122 TSNO=
201506022253 METAR KPAE 022253Z AUTO 00000KT 10SM -RA FEW005 BKN025 OVC041 14/12 A3004 RMK AO2 SLP171 P0001 T01390117 TSNO=
201506022210 SPECI KPAE 022210Z 33003KT 9SM -RA FEW005 BKN025 OVC041 14/11 A3003 RMK AO2 P0000 T01390111=
201506022153 METAR KPAE 022153Z 24004KT 10SM -RA BKN025 OVC041 14/11 A3003 RMK AO2 SLP169 P0001 T01440106=
201506022053 METAR KPAE 022053Z 26004KT 10SM -RA BKN023 OVC033 14/11 A3003 RMK AO2 SLP168 P0002 60003 T01390106 52006=
201506021953 METAR KPAE 021953Z 26007KT 10SM -RA FEW016 BKN025 OVC070 14/10 A3002 RMK AO2 RAB11 SLP166 P0001 T01390100=
201506021853 METAR KPAE 021853Z 19012KT 10SM FEW016 BKN025 OVC032 15/09 A3001 RMK AO2 RAE22 SLP164 P0000 T01500094=
201506021753 METAR KPAE 021753Z 20011KT 10SM -RA SCT015 BKN025 OVC033 15/11 A3001 RMK AO2 RAB05 SLP162 P0000 60000 T01500111 10150 20128 51006=
201506021653 METAR KPAE 021653Z 18011KT 10SM BKN017 OVC025 14/09 A3001 RMK AO2 SLP161 T01390094=
201506021553 METAR KPAE 021553Z 19010KT 10SM BKN017 OVC023 13/09 A3000 RMK AO2 SLP159 T01330094=
201506021453 METAR KPAE 021453Z 19011KT 10SM OVC014 13/09 A2999 RMK AO2 SLP155 T01280094 53009=
201506021353 METAR KPAE 021353Z 18008KT 10SM BKN013 OVC019 13/09 A2998 RMK AO2 SLP152 T01280094=
201506021253 METAR KPAE 021253Z 19010KT 10SM OVC014 13/09 A2997 RMK AO2 SLP148 T01280094=
201506021244 SPECI KPAE 021244Z 19010KT 10SM OVC014 13/10 A2997 RMK AO2 T01280100=
201506021216 SPECI KPAE 021216Z 19012KT 10SM BKN015 OVC022 13/09 A2996 RMK AO2 T01280094=
201506021153 METAR KPAE 021153Z 21010KT 10SM OVC014 13/09 A2996 RMK AO2 SLP145 70008 T01280094 10133 20128 53002=
201506021145 SPECI KPAE 021145Z 20011KT 10SM OVC014 13/09 A2996 RMK AO2 T01280094=
201506021131 SPECI KPAE 021131Z 20010KT 10SM OVC015 13/10 A2996 RMK AO2 T01280100=
201506021053 METAR KPAE 021053Z 20008KT 10SM OVC013 13/10 A2996 RMK AO2 SLP144 T01280100=
201506021006 SPECI KPAE 021006Z 18009KT 10SM OVC013 13/10 A2995 RMK AO2 T01280100=
201506020953 METAR KPAE 020953Z 19010KT 10SM OVC015 13/10 A2995 RMK AO2 SLP142 T01280100=
201506020949 SPECI KPAE 020949Z 18007KT 10SM OVC015 13/10 A2995 RMK AO2=
201506020853 METAR KPAE 020853Z 19009KT 10SM OVC014 13/10 A2995 RMK AO2 SLP140 T01280100 58000=
201506020810 SPECI KPAE 020810Z 19008KT 10SM OVC014 13/10 A2995 RMK AO2 T01330100=
201506020753 METAR KPAE 020753Z 19009KT 10SM OVC015 13/10 A2995 RMK AO2 SLP141 T01330100 401610122=
201506020735 SPECI KPAE 020735Z 19007KT 10SM OVC016 13/10 A2995 RMK AO2 T01330100=
201506020710 SPECI KPAE 020710Z 17006KT 10SM OVC014 13/11 A2995 RMK AO2 T01330106=
201506020653 METAR KPAE 020653Z 18009KT 10SM BKN015 OVC055 13/11 A2995 RMK AO2 SLP141 T01330106=
201506020553 METAR KPAE 020553Z 15006KT 10SM FEW060 OVC080 13/11 A2995 RMK AO2 SLP141 60001 T01330106 10156 20133 51003=
201506020453 METAR KPAE 020453Z 16007KT 10SM SCT031 OVC045 13/11 A2995 RMK AO2 SLP141 T01330106=
201506020353 METAR KPAE 020353Z 16007KT 10SM OVC047 14/10 A2994 RMK AO2 RAE34 SLP138 P0000 T01390100=
201506020253 METAR KPAE 020253Z 19007KT 10SM -RA FEW019 OVC041 14/10 A2994 RMK AO2 RAB47 SLP137 P0000 60001 T01390100 53004=
201506020153 METAR KPAE 020153Z 17008KT 10SM OVC020 14/10 A2993 RMK AO2 SLP135 T01440100=
201506020053 METAR KPAE 020053Z 16009KT 10SM OVC021 15/11 A2993 RMK AO2 RAB05E25 SLP135 P0001 T01500106=
201506012353 METAR KPAE 012353Z 19010KT 10SM OVC020 16/10 A2993 RMK AO2 SLP134 60003 T01560100 10161 20128 56002=
201506012310 SPECI KPAE 012310Z 20013KT 10SM BKN019 OVC055 16/10 A2993 RMK AO2 T01560100=
201506012253 METAR KPAE 012253Z 21012KT 10SM FEW019 BKN060 16/11 A2993 RMK AO2 SLP133 T01560106=
201506012232 SPECI KPAE 012232Z 24011KT 10SM FEW018 BKN060 16/11 A2993 RMK AO2 T01560106=
201506012153 METAR KPAE 012153Z 23006KT 10SM BKN016 15/12 A2993 RMK AO2 RAE2055 SLP135 P0000 T01500117=
201506012115 SPECI KPAE 012115Z 19007KT 10SM BKN013 BKN018 14/12 A2993 RMK AO2 RAE2055 P0000 T01440122=
201506012053 METAR KPAE 012053Z 17007KT 10SM -RA SCT011 BKN027 BKN090 13/11 A2993 RMK AO2 RAE1955B21 SLP136 P0001 60003 T01330111 51002=
201506012050 SPECI KPAE 012050Z 16009KT 9SM -RA SCT011 BKN027 BKN049 13/11 A2993 RMK AO2 RAE1955B21 P0001=
201506012008 SPECI KPAE 012008Z 16009KT 10SM BKN011 BKN016 13/11 A2993 RMK AO2 RAE1955 P0000 T01330106=
201506012000 SPECI KPAE 012000Z 19007KT 10SM BKN009 OVC014 13/11 A2993 RMK AO2 RAE1955 P0000 T01330111=
201506011953 METAR KPAE 011953Z 20010KT 10SM -RA BKN011 13/11 A2993 RMK AO2 RAB21 SLP135 P0002 T01330111=
201506011928 SPECI KPAE 011928Z 20007KT 6SM -RA BKN011 OVC095 13/11 A2992 RMK AO2 RAB21 CIG 009V014 P0001 T01330106=
201506011900 SPECI KPAE 011900Z 21009KT 10SM FEW013 BKN100 13/11 A2993 RMK AO2 T01330106=
201506011853 METAR KPAE 011853Z 21012KT 10SM SCT006 BKN020 OVC095 13/10 A2993 RMK AO2 RAE21 SLP134 P0000 T01330100=
201506011753 METAR KPAE 011753Z 19010KT 10SM -RA SCT006 BKN020 OVC095 13/11 A2993 RMK AO2 SLP133 P0003 60004 T01280106 10144 20122 53012=
201506011653 METAR KPAE 011653Z 18012KT 5SM RA BR FEW080 OVC100 12/10 A2992 RMK AO2 RAB09E18B43 SLP130 P0001 T01220100=
201506011553 METAR KPAE 011553Z 00000KT 10SM BKN100 OVC120 13/09 A2988 RMK AO2 SLP117 T01330089=
201506011453 METAR KPAE 011453Z 20014KT 10SM BKN010 13/09 A2989 RMK AO2 SLP121 T01280094 53017=
201506011411 SPECI KPAE 011411Z 19013KT 10SM BKN010 13/10 A2988 RMK AO2 T01330100=
201506011353 METAR KPAE 011353Z 18014G19KT 10SM CLR 13/10 A2987 RMK AO2 SLP115 T01330100=
201506011253 METAR KPAE 011253Z AUTO 17005KT 10SM BKN100 14/09 A2985 RMK AO2 SLP107 T01390089=
201506011153 METAR KPAE 011153Z AUTO 20004KT 10SM CLR 12/08 A2984 RMK AO2 SLP103 T01220078 10150 20122 53014=
201506011053 METAR KPAE 011053Z AUTO 20003KT 10SM CLR 14/08 A2982 RMK AO2 SLP097 T01390078=
201506010953 METAR KPAE 010953Z AUTO 00000KT 10SM CLR 14/08 A2981 RMK AO2 SLP092 T01390078=
201506010853 METAR KPAE 010853Z AUTO 35003KT 10SM CLR 13/08 A2980 RMK AO2 SLP089 T01330078 50004=
201506010753 METAR KPAE 010753Z AUTO 00000KT 10SM CLR 14/07 A2981 RMK AO2 SLP091 T01390072 402060100=
201506010653 METAR KPAE 010653Z AUTO 00000KT 10SM CLR 14/10 A2980 RMK AO2 SLP090 T01390100=
201506010553 METAR KPAE 010553Z AUTO 00000KT 10SM CLR 15/09 A2979 RMK AO2 SLP085 T01500094 10200 20150 58001=
201506010453 METAR KPAE 010453Z AUTO 33003KT 10SM CLR 17/09 A2979 RMK AO2 SLP088 T01670089=
201506010353 METAR KPAE 010353Z AUTO 34003KT 10SM CLR 17/08 A2980 RMK AO2 SLP089 T01720083=
201506010253 METAR KPAE 010253Z 36005KT 10SM CLR 18/09 A2979 RMK AO2 SLP087 T01780089 56009=
201506010153 METAR KPAE 010153Z 35004KT 10SM CLR 18/09 A2980 RMK AO2 SLP091 T01830094=
201506010053 METAR KPAE 010053Z 35005KT 10SM CLR 19/09 A2981 RMK AO2 SLP092 T01940089=

# No short TAF reports from KPAE in databse.

###################################
#  large TAF from KPAE
###################################
201506302320 TAF KPAE 302320Z 0100/0124 36007KT P6SM FEW250 FM010400 01004KT
                       P6SM SKC FM011800 35007KT P6SM SKC=
201506301720 TAF KPAE 301720Z 3018/0118 28006KT P6SM SCT250 FM302000 32008KT
                       P6SM SCT250 FM010400 01003KT P6SM SKC=
201506301123 TAF KPAE 301123Z 3012/0112 01003KT P6SM SCT005
                      TEMPO 3013/3016 BKN005 FM301800 30006KT P6SM
                       FEW250 FM010600 01003KT P6SM SKC=
201506300530 TAF KPAE 300530Z 3006/0106 02004KT P6SM BKN090 FM300800 04003KT
                       P6SM SCT250 FM301200 07002KT P6SM SCT005
                       TEMPO 3013/3016 BKN005 FM301700 33006KT
                       P6SM SKC=
201506292346 TAF KPAE 292346Z 3000/3024 25005KT P6SM SKC FM301000 16003KT P6SM
                       BKN015 FM302000 26007KT P6SM SCT020=
201506291722 TAF KPAE 291722Z 2918/3018 27005KT P6SM SKC FM292000 24007KT P6SM
                       SCT050 FM300000 32005KT P6SM SKC=
201506291120 TAF KPAE 291120Z 2912/3012 16004KT P6SM SCT090 BKN150 FM292000
                       24007KT P6SM SCT050 FM300000 32005KT P6SM
                       SKC=
201506290522 TAF KPAE 290522Z 2906/3006 00000KT P6SM BKN150 FM291400 21004KT
                       P6SM SCT150 FM292000 24007KT P6SM SCT050
                       FM300000 32005KT P6SM SKC=
201506282320 TAF KPAE 282320Z 2900/2924 30005KT P6SM VCSH SCT070 BKN110 BKN200
                       FM290500 VRB03KT P6SM VCSH BKN070 OVC120
                       FM291400 21004KT P6SM SCT050 FM292000 24007KT
                       P6SM SCT050=
201506282107 TAF AMD KPAE 282107Z 2821/2918 VRB05KT P6SM VCSH BKN100 OVC200
                       FM282300 31006KT P6SM VCSH BKN100 OVC200
                       FM290500 VRB03KT P6SM VCSH BKN070 OVC120
                       FM291400 21004KT P6SM SCT050=
201506281835 TAF AMD KPAE 281835Z 2819/2918 31009KT P6SM VCSH SCT080 BKN100
                       BKN200 FM282300 34005KT P6SM VCTS BKN100CB
                       OVC200 FM290500 VRB03KT P6SM VCSH BKN070
                       OVC120 FM291400 21004KT P6SM SCT050=
201506281732 TAF KPAE 281732Z 2818/2918 36007KT P6SM -TSRA BKN100CB OVC200 FM281930
                       34005KT P6SM VCTS BKN100CB OVC200 FM290400
                       VRB03KT P6SM VCSH BKN070 OVC120 FM291400
                       21004KT P6SM SCT050=
201506281649 TAF AMD KPAE 281649Z 2817/2912 35007KT P6SM SCT100 BKN200 FM281800
                       32006KT P6SM VCTS BKN100CB BKN250 FM290400
                       VRB03KT P6SM BKN100 OVC250=
201506281120 TAF KPAE 281120Z 2812/2912 00000KT P6SM FEW120 SCT250 FM281900
                       27006KT P6SM SCT120 BKN250 FM290400 VRB03KT
                       P6SM BKN100 OVC250=
201506280520 TAF KPAE 280520Z 2806/2906 00000KT P6SM SCT250 FM281900 27006KT
                       P6SM FEW120 BKN250 FM290400 VRB03KT P6SM
                       BKN100 OVC250=
201506272322 TAF KPAE 272322Z 2800/2824 36005KT P6SM SCT150 SCT250 FM280400
                       01004KT P6SM BKN120 BKN250 FM281900 27006KT
                       P6SM BKN120 OVC200=
201506271720 TAF KPAE 271720Z 2718/2818 34008KT P6SM FEW150 SCT250 FM280300
                       01004KT P6SM BKN120 BKN250=
201506271120 TAF KPAE 271120Z 2712/2812 02006KT P6SM BKN250 FM271900 34008KT
                       P6SM SCT250 FM280500 01004KT P6SM BKN250=
201506270520 TAF KPAE 270520Z 2706/2806 01005KT P6SM FEW250 FM271900 35008KT
                       P6SM SCT250=
201506262321 TAF KPAE 262321Z 2700/2724 01008KT P6SM SCT250 FM270500 01004KT
                       P6SM SCT250 FM271900 36007KT P6SM SCT250=
201506261724 TAF KPAE 261724Z 2618/2718 01006KT P6SM FEW250 FM262000 35008KT
                       P6SM SCT250 FM270500 01004KT P6SM SCT250=
201506261120 TAF KPAE 261120Z 2612/2712 01004KT P6SM SKC FM261700 33008KT P6SM
                       SKC FM270300 36008KT P6SM SCT250=
201506260526 TAF KPAE 260526Z 2606/2706 01008KT P6SM SKC FM261100 36003KT P6SM
                       FEW003
                      TEMPO 2611/2615 2SM BR BKN003 FM261700 33008KT
                       P6SM SKC FM270300 36008KT P6SM SCT250=
201506260144 TAF KPAE 260144Z 2602/2624 36009KT P6SM SKC FM261100 36003KT 2SM
                       BR BKN003 FM261600 32005KT P6SM SKC=
201506251720 TAF KPAE 251720Z 2518/2618 29005KT P6SM FEW250 FM252300 34006KT
                       P6SM SKC FM261100 36003KT 2SM BR BKN003
                       FM261600 32005KT P6SM SKC=
201506251122 TAF KPAE 251122Z 2512/2612 00000KT P6SM FEW250 FM251800 29006KT
                       P6SM FEW250 FM252300 34006KT P6SM SKC=
201506250520 TAF KPAE 250520Z 2506/2606 35004KT P6SM FEW120 SCT250 FM251800
                       29005KT P6SM SCT250 FM252200 33006KT P6SM
                       FEW250=
201506242341 TAF KPAE 242341Z 2500/2524 36006KT P6SM OVC100 FM250500 01004KT
                       P6SM SCT120 FM251200 VRB04KT P6SM BKN015
                       FM251600 27006KT P6SM SCT015 BKN030 FM251800
                       29005KT P6SM SCT030 SCT250=
201506241720 TAF KPAE 241720Z 2418/2518 34007KT P6SM BKN120 BKN250 FM250500
                       01004KT P6SM SCT120=
201506241120 TAF KPAE 241120Z 2412/2512 VRB03KT P6SM BKN120 BKN250 FM242000
                       31007KT P6SM BKN100 BKN200 FM250500 VRB03KT
                       P6SM SCT040 BKN080=
201506240520 TAF KPAE 240520Z 2406/2506 02005KT P6SM SCT180 BKN250 FM241000
                       VRB03KT P6SM BKN150 BKN250 FM242000 31007KT
                       P6SM BKN120 FM250500 VRB03KT P6SM SCT050
                       SCT100=
201506232320 TAF KPAE 232320Z 2400/2424 32006KT P6SM SCT250 FM240500 VRB03KT
                       P6SM BKN120 BKN200 FM242000 32006KT P6SM
                       SCT120 BKN200=
201506231720 TAF KPAE 231720Z 2318/2418 VRB03KT P6SM SKC FM232100 32006KT P6SM
                       SCT250 FM240500 VRB03KT P6SM BKN120 BKN200=
201506231120 TAF KPAE 231120Z 2312/2412 VRB03KT P6SM SKC FM232100 32006KT P6SM
                       BKN250 FM240400 VRB03KT P6SM BKN120 BKN200=
201506230520 TAF KPAE 230520Z 2306/2406 36006KT P6SM SKC FM231200 VRB04KT P6SM
                       SCT015
                      TEMPO 2312/2316 BKN015 FM231800 23006KT P6SM
                       SCT030 SCT200 FM232100 32006KT P6SM BKN250
                       FM240400 32006KT P6SM BKN120 BKN200=
201506230304 TAF AMD KPAE 230304Z 2303/2324 35010KT P6SM FEW150 FM231200 19005KT
                       P6SM SCT015
                      TEMPO 2312/2316 BKN015 FM231700 24006KT P6SM
                       SCT025 FM232000 29006KT P6SM SCT250=
201506222342 TAF KPAE 222342Z 2300/2324 VRB04KT P6SM FEW250 FM230300 02004KT
                       P6SM FEW150 FM231000 19005KT P6SM BKN015
                       FM231700 24006KT P6SM SCT025 FM232000 29006KT
                       P6SM SCT250=
201506221945 TAF KPAE 221945Z 2220/2318 24010KT P6SM FEW250 FM230000 27007KT
                       P6SM SCT040 SCT150 FM230300 02004KT P6SM
                       SCT040 SCT150 FM231000 19005KT P6SM BKN015
                       FM231700 24006KT P6SM SCT025=
201506221120 TAF KPAE 221120Z 2212/2312 18006KT P6SM SCT010 SCT200
                      TEMPO 2215/2218 BKN010 BKN200 FM221800 23006KT
                       P6SM SCT020 BKN150 FM230000 27007KT P6SM
                       SCT040 SCT150=
201506220524 TAF KPAE 220524Z 2206/2306 VRB03KT P6SM SCT050 SCT150 SCT250 FM221200
                       20008KT P6SM SCT040 BKN150 BKN250 FM222200
                       27007KT P6SM SCT040 BKN120 BKN200=
201506212331 TAF KPAE 212331Z 2200/2224 32006KT P6SM FEW150 BKN250 FM220300
                       VRB05KT P6SM BKN150 BKN250 FM220700 21008KT
                       P6SM SCT100 BKN150 BKN250=
201506211728 TAF KPAE 211728Z 2118/2218 32008KT P6SM FEW030 BKN150 BKN250 FM220600
                       VRB05KT P6SM BKN150 BKN250 FM220900 21008KT
                       P6SM SCT100 BKN150 BKN250=
201506211120 TAF KPAE 211120Z 2112/2212 02006KT P6SM BKN250 FM211800 34008KT
                       P6SM SCT120 BKN200 FM220400 21007KT P6SM
                       BKN120 OVC200=
201506210520 TAF KPAE 210520Z 2106/2206 01005KT P6SM BKN250 FM211800 34006KT
                       P6SM SCT250=
201506202321 TAF KPAE 202321Z 2100/2124 35007KT P6SM FEW080 SCT250 FM210500
                       01005KT P6SM BKN250 FM211800 34006KT P6SM
                       SCT250=
201506201733 TAF KPAE 201733Z 2018/2118 33005KT P6SM SKC FM201900 34007KT P6SM
                       SKC FM202100 36011KT P6SM SCT250 FM210500
                       01006KT P6SM BKN250=
201506201442 TAF AMD KPAE 201442Z 2015/2112 36007KT P6SM SCT005 BKN020 FM201700
                       36007KT P6SM SCT025 SCT250 FM201800 36007KT
                       P6SM SCT250 FM210500 02006KT P6SM SCT120
                       BKN250=
201506201120 TAF KPAE 201120Z 2012/2112 36007KT P6SM SCT250 FM210500 02006KT
                       P6SM SCT120 BKN250=
201506200520 TAF KPAE 200520Z 2006/2106 02006KT P6SM BKN080 FM201200 36003KT
                       P6SM SKC=
201506192320 TAF KPAE 192320Z 2000/2024 01008KT P6SM SKC FM200200 36006KT P6SM
                       SCT050 FM201400 36003KT P6SM SKC=
201506191721 TAF KPAE 191721Z 1918/2018 36005KT P6SM -RA BKN010
                      TEMPO 1918/1920 4SM -RA OVC005 FM192300 30008KT
                       P6SM BKN040 FM200200 36006KT P6SM BKN050
                       FM201400 36003KT P6SM SCT050=
201506191120 TAF KPAE 191120Z 1912/2012 VRB04KT P6SM VCSH BKN015 OVC030 FM191800
                       VRB04KT P6SM BKN040 BKN080 FM200200 36006KT
                       P6SM BKN050=
201506190520 TAF KPAE 190520Z 1906/2006 VRB04KT P6SM SCT025 OVC040
                      TEMPO 1906/1910 -SHRA SCT006 BKN025 OVC040
                       FM191000 VRB04KT P6SM -SHRA SCT006 OVC025
                       FM191700 VRB04KT P6SM VCSH BKN030 OVC060
                       FM192200 32007KT P6SM BKN040 BKN080=
201506190435 TAF AMD KPAE 190435Z 1905/1924 VRB04KT P6SM VCSH SCT006 BKN025
                       OVC080
                      TEMPO 1905/1909 -SHRA BKN006 OVC025 FM191700
                       VRB04KT P6SM VCSH BKN030 OVC060 FM192200
                       32007KT P6SM BKN040 BKN080=
201506182324 TAF KPAE 182324Z 1900/1924 02009KT P6SM FEW040 BKN100 BKN200 FM190300
                       35007KT P6SM BKN040 OVC090 FM190800 36006KT
                       P6SM -SHRA OVC015=
201506181737 TAF KPAE 181737Z 1818/1918 28004KT P6SM BKN120 BKN200 FM190000
                       33010KT P6SM BKN120 OVC200 FM190300 36009KT
                       P6SM OVC080 FM190600 36007KT P6SM OVC040
                       FM190900 15008KT P6SM OVC020 FM191200 17007KT
                       P6SM -SHRA OVC015=
201506181120 TAF KPAE 181120Z 1812/1912 36006KT P6SM BKN120 BKN250 FM182100
                       33006KT P6SM SCT050 BKN090 OVC150 FM190400
                       VRB04KT P6SM VCSH BKN050 OVC090 FM190900
                       18006KT P6SM -SHRA BKN020 OVC050=
201506180520 TAF KPAE 180520Z 1806/1906 02005KT P6SM BKN250 FM181000 01002KT
                       P6SM BKN120 BKN250 FM181500 VRB03KT P6SM
                       SCT012 BKN200
                      TEMPO 1815/1818 BKN012 BKN200 FM181800 29006KT
                       P6SM BKN120 BKN200=
201506172321 TAF KPAE 172321Z 1800/1824 02006KT P6SM SKC FM181000 01002KT P6SM
                       BKN120 BKN250 FM181500 VRB03KT P6SM OVC015
                       FM181800 29006KT P6SM BKN120 BKN200=
201506171731 TAF KPAE 171731Z 1718/1818 33004KT P6SM SKC FM181000 01002KT P6SM
                       BKN120 BKN200
                      TEMPO 1812/1816 BKN015 OVC120 FM181600 27004KT
                       P6SM BKN120 BKN200=
201506171313 TAF AMD KPAE 171313Z 1713/1812 VRB04KT P6SM SCT200 FM171800 32006KT
                       P6SM SCT250 FM180400 VRB04KT P6SM SCT250=
201506171122 TAF KPAE 171122Z 1712/1812 00000KT P6SM SCT200
                      TEMPO 1713/1717 BKN012 FM171800 32006KT P6SM
                       SCT250=
201506170532 TAF KPAE 170532Z 1706/1806 32004KT P6SM BKN250 FM171000 VRB03KT
                       P6SM SCT012
                      TEMPO 1710/1713 BKN012 FM171300 22003KT P6SM
                       OVC012 FM171800 32006KT P6SM SCT250=
201506162325 TAF KPAE 162325Z 1700/1724 32004KT P6SM BKN250 FM171100 VRB03KT
                       P6SM OVC012 FM171800 32006KT P6SM SCT250=
201506161722 TAF KPAE 161722Z 1618/1718 22009KT P6SM SCT018 SCT250 FM162000
                       31006KT P6SM SCT250 FM171200 VRB03KT P6SM
                       OVC007 FM171700 22004KT P6SM SCT250=
201506161125 TAF KPAE 161125Z 1612/1712 00000KT P6SM SKC
                      TEMPO 1613/1617 BKN007 FM161800 33006KT P6SM
                       SCT250=
201506160537 TAF KPAE 160537Z 1606/1706 02007KT P6SM SKC=
201506152328 TAF KPAE 152328Z 1600/1624 35007KT P6SM BKN250=
201506151720 TAF KPAE 151720Z 1518/1618 VRB03KT P6SM SCT230 FM151900 34008KT
                       P6SM SCT200=
201506151122 TAF KPAE 151122Z 1512/1612 02006KT P6SM SKC FM151900 34008KT P6SM
                       SKC=
201506150528 TAF KPAE 150528Z 1506/1606 02006KT P6SM SKC FM151900 34008KT P6SM
                       SKC=
201506142320 TAF KPAE 142320Z 1500/1524 36010KT P6SM SKC FM150600 02003KT P6SM
                       SKC FM151900 34008KT P6SM SKC=
201506141730 TAF KPAE 141730Z 1418/1518 VRB04KT P6SM SKC FM141900 31006KT P6SM
                       SKC FM142300 35006KT P6SM SKC=
201506141124 TAF KPAE 141124Z 1412/1512 VRB03KT P6SM SKC FM141900 31006KT P6SM
                       SKC FM142300 35006KT P6SM SKC=
201506140526 TAF KPAE 140526Z 1406/1506 01004KT P6SM SKC FM141900 33007KT P6SM
                       SKC=
201506132330 TAF KPAE 132330Z 1400/1424 31007KT P6SM SKC FM140600 01004KT P6SM
                       SKC FM141900 33007KT P6SM SKC=
201506131730 TAF KPAE 131730Z 1318/1418 VRB04KT P6SM SKC FM132000 33006KT P6SM
                       SKC FM140600 01004KT P6SM SKC=
201506131138 TAF KPAE 131138Z 1312/1412 VRB03KT P6SM SKC FM131800 36008KT P6SM
                       SKC=
201506130532 TAF KPAE 130532Z 1306/1406 VRB03KT P6SM SKC FM131800 32006KT P6SM
                       SKC=
201506122322 TAF KPAE 122322Z 1300/1324 30007KT P6SM FEW060 FM130300 36004KT
                       P6SM FEW060 FM131200 VRB03KT P6SM SCT028
                       SCT060
                      TEMPO 1314/1318 BKN028 BKN060 FM131800 32006KT
                       P6SM FEW060=
201506122032 TAF AMD KPAE 122032Z 1221/1318 29007KT P6SM SCT035 FM130000 36007KT
                       P6SM SCT050 FM130300 VRB03KT P6SM SCT060
                       FM131200 VRB03KT P6SM BKN028 BKN060=
201506121846 TAF AMD KPAE 121846Z 1219/1318 26005KT P6SM SCT022 BKN035 FM122100
                       32007KT P6SM BKN035 BKN060 FM130000 36007KT
                       P6SM SCT035 SCT060 FM130300 VRB03KT P6SM
                       SCT060 FM131200 VRB03KT P6SM BKN028 BKN060=
201506121741 TAF KPAE 121741Z 1218/1318 28005KT P6SM BKN022 BKN035 FM122100
                       32007KT P6SM BKN035 BKN060 FM130000 36007KT
                       P6SM SCT035 SCT060 FM130300 VRB03KT P6SM
                       SCT060 FM131200 VRB03KT P6SM BKN028 BKN060=
201506121413 TAF AMD KPAE 121413Z 1214/1312 VRB03KT P6SM OVC018 FM121900 29006KT
                       P6SM BKN025 BKN060 FM122100 34008KT P6SM
                       SCT060=
201506121126 TAF KPAE 121126Z 1212/1312 VRB03KT P6SM SCT050 FM121400 VRB03KT
                       P6SM BKN050 FM122200 34008KT P6SM SCT060=
201506120528 TAF KPAE 120528Z 1206/1306 01012KT P6SM SCT060 FM121200 VRB03KT
                       P6SM SCT060 FM121600 25006KT P6SM SCT060
                       FM122100 34008KT P6SM SCT060=
201506112322 TAF KPAE 112322Z 1200/1224 34012KT P6SM SCT080 FM120300 01009KT
                       P6SM FEW080 FM120900 01005KT P6SM SCT022
                       SCT080
                      TEMPO 1210/1212 BKN022 BKN080 FM121200 VRB03KT
                       P6SM OVC015 FM122000 29006KT P6SM BKN025
                       BKN060 FM122100 32006KT P6SM SCT030 SCT060=
201506111723 TAF KPAE 111723Z 1118/1218 25011KT P6SM BKN250 FM120000 33011KT
                       P6SM BKN250 FM120600 01008KT P6SM BKN250
                       FM120900 01005KT P6SM SCT022 BKN250
                      TEMPO 1210/1212 BKN022 BKN250 FM121200 VRB03KT
                       P6SM OVC015=
201506111124 TAF KPAE 111124Z 1112/1212 VRB03KT P6SM SKC FM112200 34008KT P6SM
                       SCT250=
201506110534 TAF KPAE 110534Z 1106/1206 34006KT P6SM FEW250 FM111200 19006KT
                       P6SM BKN008 FM111900 23008KT P6SM SCT250
                       FM112300 33006KT P6SM SCT250=
201506102320 TAF KPAE 102320Z 1100/1124 25007KT P6SM FEW250 FM111200 19006KT
                       P6SM BKN010 FM111900 23008KT P6SM SCT250=
201506101725 TAF KPAE 101725Z 1018/1118 27006KT P6SM SCT250 FM110000 30007KT
                       P6SM SCT250 FM110300 VRB04KT P6SM SCT250
                       FM111200 VRB04KT P6SM OVC007=
201506101123 TAF KPAE 101123Z 1012/1112 03004KT P6SM SKC FM101900 29005KT P6SM
                       SKC FM110400 02004KT P6SM SKC=
201506100520 TAF KPAE 100520Z 1006/1106 03004KT P6SM SKC FM101900 29005KT P6SM
                       SKC FM110400 02004KT P6SM SKC=
201506092328 TAF KPAE 092328Z 1000/1024 36007KT P6SM SKC FM100400 03004KT P6SM
                       SKC=
201506091723 TAF KPAE 091723Z 0918/1018 35005KT P6SM SKC FM100400 03004KT P6SM
                       SKC=
201506091120 TAF KPAE 091120Z 0912/1012 01004KT P6SM SKC FM091800 34008KT P6SM
                       SKC FM100400 03004KT P6SM SKC=
201506090520 TAF KPAE 090520Z 0906/1006 01004KT P6SM SKC FM091800 34008KT P6SM
                       SKC FM100400 03004KT P6SM SKC=
201506082332 TAF KPAE 082332Z 0900/0924 01004KT P6SM SKC FM090500 VRB03KT P6SM
                       SKC=
201506081736 TAF KPAE 081736Z 0818/0918 33004KT P6SM SKC FM090500 VRB03KT P6SM
                       SKC=
201506081203 TAF AMD KPAE 081203Z 0812/0912 VRB03KT P6SM VCFG SCT001
                      TEMPO 0812/0815 3/4SM BR VV001 FM081800 34008KT
                       P6SM SKC FM090500 VRB03KT P6SM SKC=
201506081120 TAF KPAE 081120Z 0812/0912 VRB03KT P6SM SKC FM081800 34008KT P6SM
                       SKC FM090500 VRB03KT P6SM SKC=
201506080520 TAF KPAE 080520Z 0806/0906 VRB03KT P6SM SKC FM081800 34008KT P6SM
                       SKC FM090500 VRB03KT P6SM SKC=
201506072322 TAF KPAE 072322Z 0800/0824 34008KT P6SM SKC FM080600 VRB03KT P6SM
                       SKC FM081800 34008KT P6SM SKC=
201506071720 TAF KPAE 071720Z 0718/0818 36007KT P6SM SKC FM080600 VRB03KT P6SM
                       SKC=
201506071128 TAF KPAE 071128Z 0712/0812 VRB03KT P6SM SKC FM071900 33007KT P6SM
                       SKC FM080400 VRB03KT P6SM SKC=
201506070520 TAF KPAE 070520Z 0706/0806 04004KT P6SM SCT250 FM071900 33007KT
                       P6SM SKC FM080400 03004KT P6SM SKC=
201506062320 TAF KPAE 062320Z 0700/0724 33007KT P6SM SCT250 FM070400 04004KT
                       P6SM SKC FM072100 33007KT P6SM SKC=
201506061720 TAF KPAE 061720Z 0618/0718 36006KT P6SM SKC=
201506061120 TAF KPAE 061120Z 0612/0712 01004KT P6SM SKC FM061300 01004KT P6SM
                       VCFG FEW001 FM061600 36005KT P6SM SKC FM061900
                       33008KT P6SM SKC FM070400 03003KT P6SM SKC=
201506060912 TAF AMD KPAE 060912Z 0609/0706 04004KT P6SM SKC FM061100 01004KT
                       P6SM VCFG FEW001 FM061600 36005KT P6SM SKC
                       FM061900 33008KT P6SM SKC FM070400 03003KT
                       P6SM SKC=
201506060520 TAF KPAE 060520Z 0606/0706 03004KT P6SM SKC FM061900 33008KT P6SM
                       SKC FM070400 03003KT P6SM SKC=
201506052320 TAF KPAE 052320Z 0600/0624 35008KT P6SM FEW250 FM060400 04004KT
                       P6SM SKC FM062000 35008KT P6SM SKC=
201506051720 TAF KPAE 051720Z 0518/0618 35008KT P6SM SKC=
201506051120 TAF KPAE 051120Z 0512/0612 03005KT P6SM SKC FM051800 35008KT P6SM
                       SKC=
201506050520 TAF KPAE 050520Z 0506/0606 01004KT P6SM SKC FM051800 33008KT P6SM
                       SKC=
201506042324 TAF KPAE 042324Z 0500/0524 35006KT P6SM FEW040 FM050300 01004KT
                       P6SM SKC FM051800 33008KT P6SM SKC=
201506041720 TAF KPAE 041720Z 0418/0518 01005KT P6SM BKN050
                      TEMPO 0418/0422 SCT050 FM042200 35007KT P6SM
                       SCT050 FM050300 35004KT P6SM SKC=
201506041128 TAF KPAE 041128Z 0412/0512 03004KT P6SM SCT040 OVC060 FM042000
                       35007KT P6SM SCT050 FM050000 35004KT P6SM
                       SKC=
201506040526 TAF KPAE 040526Z 0406/0506 36004KT P6SM SCT030 OVC060 FM040900
                       03004KT P6SM BKN025 OVC040 FM042000 33007KT
                       P6SM SCT040 SCT080=
201506032320 TAF KPAE 032320Z 0400/0424 34005KT P6SM SCT040 BKN250
                      TEMPO 0400/0403 BKN040 OVC250 FM040500 01004KT
                       P6SM BKN040 BKN150 FM041000 03004KT P6SM
                       BKN015 OVC040 FM042000 33007KT P6SM SCT040
                       BKN150=
201506031720 TAF KPAE 031720Z 0318/0418 VRB03KT P6SM SCT010 OVC025
                      TEMPO 0318/0320 BKN010 OVC025 FM032000 31006KT
                       P6SM BKN025 BKN060 FM032200 35006KT P6SM
                       SCT040 BKN060 BKN120 FM040600 01004KT P6SM
                       OVC030=
201506031501 TAF AMD KPAE 031501Z 0315/0412 02003KT 2SM -DZ BR BKN003 OVC014
                       FM031700 VRB04KT 4SM BR SCT006 BKN012 OVC025
                       FM031900 31006KT P6SM BKN025 BKN060 FM032100
                       35006KT P6SM SCT040 BKN060 BKN120 FM040600
                       01004KT P6SM OVC030=
201506031125 TAF KPAE 031125Z 0312/0412 02004KT 3SM -SHRA BKN003 OVC013 FM031500
                       VRB04KT 4SM BR SCT006 BKN012 OVC025 FM031900
                       31006KT P6SM BKN025 BKN060 FM032100 35006KT
                       P6SM SCT040 BKN060 BKN120 FM040600 01004KT
                       P6SM OVC030=
201506030520 TAF KPAE 030520Z 0306/0406 VRB04KT 3SM -SHRA SCT004 BKN009 OVC025
                       TEMPO 0306/0310 1SM BR BKN002 FM031000 18006KT
                       4SM BR SCT006 BKN012 OVC025 FM031900 26006KT
                       P6SM SCT030 BKN060 FM032200 32006KT P6SM
                       FEW035 SCT060 BKN150=
201506030405 TAF AMD KPAE 030405Z 0304/0324 02003KT P6SM -SHRA SCT004 BKN009
                       OVC045
                      TEMPO 0304/0307 1SM BR BKN002 FM030700 18006KT
                       P6SM BKN012 OVC025 FM031900 26006KT P6SM
                       SCT030 BKN060 FM032200 32006KT P6SM FEW035
                       SCT060 BKN150=
201506030200 TAF AMD KPAE 030200Z 0302/0324 02003KT P6SM -SHRA SCT004 BKN009
                       OVC045
                      TEMPO 0302/0304 1SM BR BKN003 FM030400 18006KT
                       P6SM BKN012 OVC025 FM031900 26006KT P6SM
                       SCT030 BKN060 FM032200 32006KT P6SM FEW035
                       SCT060 BKN150=
201506022338 TAF AMD KPAE 022338Z 0300/0324 02003KT P6SM -SHRA SCT004 BKN009
                       OVC045
                      TEMPO 0300/0304 SCT009 BKN030 OVC060 FM030400
                       18006KT P6SM BKN012 OVC025 FM031900 26006KT
                       P6SM SCT030 BKN060 FM032200 32006KT P6SM
                       FEW035 SCT060 BKN150=
201506022322 TAF KPAE 022322Z 0300/0324 00000KT P6SM -SHRA FEW010 BKN035 OVC060
                       FM030500 18006KT P6SM BKN012 OVC025 FM031900
                       26006KT P6SM SCT030 BKN060 FM032200 32006KT
                       P6SM FEW035 SCT060 BKN150=
201506021720 TAF KPAE 021720Z 0218/0318 19010KT P6SM BKN017 OVC025 FM022100
                       20010KT P6SM -SHRA BKN023 OVC060 FM030500
                       18006KT P6SM BKN012 OVC023=
201506021120 TAF KPAE 021120Z 0212/0312 20007KT P6SM VCSH OVC012 FM021600 17008KT
                       P6SM -SHRA OVC015 FM022000 20010KT P6SM
                       -SHRA OVC020=
201506020520 TAF KPAE 020520Z 0206/0306 16007KT P6SM BKN030 OVC040 FM020800
                       18007KT P6SM VCSH OVC025 FM021600 17008KT
                       P6SM -SHRA OVC015 FM022000 20010KT P6SM
                       -SHRA OVC020=
201506020341 TAF AMD KPAE 020341Z 0204/0224 21010KT P6SM VCSH BKN019 OVC050
                       FM020600 16006KT P6SM VCSH OVC015 FM021600
                       17008KT P6SM -SHRA OVC015 FM022000 20010KT
                       P6SM -SHRA OVC020=
201506012320 TAF KPAE 012320Z 0200/0224 21010KT P6SM BKN019 OVC050
                      TEMPO 0200/0203 SCT019 BKN060 OVC100 FM020600
                       16006KT P6SM OVC015 FM021600 17008KT P6SM
                       -SHRA OVC015 FM022000 20010KT P6SM -SHRA
                       OVC020=
201506012210 TAF AMD KPAE 012210Z 0122/0218 23006KT P6SM SCT016 BKN060 OVC100
                       TEMPO 0122/0202 BKN016 OVC060 FM020600 17006KT
                       P6SM OVC015=
201506011720 TAF KPAE 011720Z 0118/0218 18010KT P6SM -SHRA SCT012 OVC080
                      TEMPO 0118/0122 4SM SHRA BKN012 OVC025 FM012200
                       20008KT P6SM SCT015 OVC050 FM020600 17006KT
                       P6SM OVC015=
201506011310 TAF AMD KPAE 011310Z 0113/0212 17005KT P6SM SCT005 BKN100
                      TEMPO 0114/0117 BKN005 OVC100 FM011700 20010KT
                       P6SM -SHRA SCT011 SCT025 OVC050 FM012300
                       18012KT P6SM -SHRA OVC020=
201506011120 TAF KPAE 011120Z 0112/0212 20003KT P6SM SCT200 FM011300 19008KT
                       4SM BR BKN003 OVC100 FM011400 18012G20KT
                       P6SM -SHRA BKN012 OVC050 FM012000 18012KT
                       P6SM -SHRA OVC020=
201506010902 TAF AMD KPAE 010902Z 0109/0206 35003KT P6SM OVC200 FM011300 18012G20KT
                       P6SM -SHRA VCTS BKN020 OVC050CB FM012000
                       18012KT P6SM -SHRA OVC020=
201506010523 TAF KPAE 010523Z 0106/0206 33003KT P6SM SCT140 BKN210 FM011100
                       18012G20KT P6SM SCT050 OVC120 FM011400 18012G20KT
                       P6SM -SHRA VCTS BKN020 OVC050CB FM012000
                       18012KT P6SM -SHRA OVC020=