##########################################################
# Query made at 02/15/2025 21:27:48 UTC
# Time interval: from 12/01/2016 00:00  to 12/31/2016 23:59  UTC
##########################################################

##########################################################
# KPAE, Everett, Snohomish County Airport (United States)
# WMO index: -----. WIGOS ID: Unknown
# Latitude 47-55-23N. Longitude 122-16-57W. Altitude 184 m.
##########################################################

###################################
#  METAR/SPECI from KPAE
###################################
201612312353 METAR KPAE 312353Z 14011KT 10SM OVC010 02/00 A2986 RMK AO2 CIG 008V013 SLP117 60000 T00170000 10022 20006 56047=
201612312328 SPECI KPAE 312328Z 14010KT 10SM BKN010 OVC014 02/M01 A2989 RMK AO2 T00171006=
201612312316 SPECI KPAE 312316Z 14012KT 10SM BKN015 BKN050 OVC065 02/M01 A2990 RMK AO2 T00221006=
201612312253 METAR KPAE 312253Z 14012KT 10SM FEW045 BKN055 OVC085 02/M01 A2991 RMK AO2 SLP133 T00171006=
201612312200 SPECI KPAE 312200Z 13016G21KT 10SM OVC044 02/M01 A2995 RMK AO2 T00171011=
201612312153 METAR KPAE 312153Z 12014KT 10SM BKN005 BKN035 02/M01 A2995 RMK AO2 SLP149 T00171011=
201612312112 SPECI KPAE 312112Z 13014G20KT 10SM BKN005 BKN035 02/01 A2998 RMK AO2 PRESFR T00170006=
201612312053 METAR KPAE 312053Z 13012KT 9SM OVC042 01/00 A3000 RMK AO2 SLP166 60000 T00110000 58024=
201612311953 METAR KPAE 311953Z 12009KT 9SM OVC033 01/00 A3006 RMK AO2 RAB1855E1856 SLP184 P0000 T00060000=
201612311908 SPECI KPAE 311908Z 15007KT 5SM BR FEW005 OVC031 01/01 A3008 RMK AO2 RAB1855E1856 P0000 T00110006=
201612311900 SPECI KPAE 311900Z 15005KT 4SM BR SCT004 BKN027 OVC033 01/01 A3009 RMK AO2 RAB1855E1856 P0000 T00110011=
201612311853 METAR KPAE 311853Z 14003KT 6SM BR SCT002 BKN006 01/01 A3009 RMK AO2 UPB25E35RAB35E36 SLP196 P0000 T00110011=
201612311838 SPECI KPAE 311838Z 15004KT 5SM BR SCT002 BKN006 01/01 A3009 RMK AO2 UPB25E35RAB35E36 P0000 T00110006=
201612311759 SPECI KPAE 311759Z 13008KT 2SM FZFG BKN002 OVC039 01/01 A3008 RMK AO2 T00060006=
201612311753 METAR KPAE 311753Z 13007KT 1SM R16R/P6000FT FZFG BKN001 OVC039 01/01 A3007 RMK AO2 SLP190 I6004 T00060006 10006 21011 58017=
201612311653 METAR KPAE 311653Z 13007KT 1/4SM R16R/2000VP6000FT FZFG VV001 00/00 A3011 RMK AO2 SLP201 I1003 T00000000=
201612311557 SPECI KPAE 311557Z 13006KT 1/4SM R16R/1200V1800FT FG VV001 00/00 A3012 RMK AO2 T00000000=
201612311553 METAR KPAE 311553Z 13007KT 1/4SM R16R/1200VP6000FT FG OVC002 00/00 A3013 RMK AO2 SLP207 I1001 T00000000=
201612311544 SPECI KPAE 311544Z 12006KT 3/4SM R16R/3000VP6000FT BR OVC002 00/00 A3013 RMK AO2 T00000000=
201612311520 SPECI KPAE 311520Z 12004KT 1 1/2SM BR BKN005 OVC036 00/00 A3015 RMK AO2 T00000000=
201612311514 SPECI KPAE 311514Z 13005KT 8SM SCT007 OVC036 00/00 A3015 RMK AO2 T00000000=
201612311453 METAR KPAE 311453Z 12004KT 9SM OVC036 00/M01 A3016 RMK AO2 SLP220 I3000 T00001006 56019=
201612311411 SPECI KPAE 311411Z 09003KT 5SM BR OVC035 00/00 A3017 RMK AO2 T00000000=
201612311401 SPECI KPAE 311401Z 11003KT 2 1/2SM R16R/2000VP6000FT BR FEW001 OVC035 M01/M01 A3017 RMK AO2 T10061006=
201612311353 METAR KPAE 311353Z 00000KT 1 1/4SM R16R/0800VP6000FT BR FEW001 OVC034 00/00 A3018 RMK AO2 SLP225 I1000 T00000000=
201612311340 SPECI KPAE 311340Z 00000KT 1/4SM R16R/1400VP6000FT FG SCT001 OVC034 00/00 A3018 RMK AO2 T00000000=
201612311333 SPECI KPAE 311333Z 00000KT 1 3/4SM R16R/5500VP6000FT BR FEW001 OVC034 00/M01 A3019 RMK AO2 T00001006=
201612311329 SPECI KPAE 311329Z 00000KT 2 1/2SM R16R/5500VP6000FT BR OVC034 M01/M01 A3019 RMK AO2 T10061011=
201612311253 METAR KPAE 311253Z 00000KT 3SM BR BKN033 00/00 A3020 RMK AO2 SLP232 T00000000=
201612311153 METAR KPAE 311153Z 11003KT 6SM BR OVC033 01/00 A3022 RMK AO2 SLP238 70007 I1000 I6001 T00060000 10011 21017 58018=
201612311053 METAR KPAE 311053Z 00000KT 7SM SCT032 01/01 A3024 RMK AO2 SLP246 T00110006=
201612310953 METAR KPAE 310953Z 00000KT 3SM BR OVC032 01/01 A3025 RMK AO2 SLP250 I1000 T00110006=
201612310939 SPECI KPAE 310939Z 10003KT 3SM BR OVC030 01/00 A3026 RMK AO2 I1000 T00060000=
201612310930 SPECI KPAE 310930Z 10003KT 1 3/4SM BR OVC029 01/00 A3027 RMK AO2 I1000 T00060000=
201612310919 SPECI KPAE 310919Z 00000KT 4SM BR FEW023 OVC028 00/00 A3027 RMK AO2 I1000 T00000000=
201612310901 SPECI KPAE 310901Z 00000KT 2 1/2SM BR FEW021 OVC028 01/00 A3027 RMK AO2 T00060000=
201612310853 METAR KPAE 310853Z 00000KT 6SM BR BKN030 01/00 A3027 RMK AO2 SLP257 I1001 I3001 T00060000 57004=
201612310753 METAR KPAE 310753Z 00000KT 9SM CLR M01/M02 A3027 RMK AO2 SLP257 T10111017 400611011=
201612310653 METAR KPAE 310653Z 00000KT 10SM SCT034 01/00 A3028 RMK AO2 SLP260 T00060000=
201612310553 METAR KPAE 310553Z 00000KT 10SM CLR M01/M01 A3029 RMK AO2 SLP261 T10061011 10044 21006 55003=
201612310453 METAR KPAE 310453Z 00000KT 10SM CLR M01/M01 A3028 RMK AO2 SLP259 T10061011=
201612310353 METAR KPAE 310353Z 00000KT 10SM CLR 01/00 A3029 RMK AO2 SLP264 T00060000=
201612310253 METAR KPAE 310253Z 00000KT 10SM CLR 02/01 A3029 RMK AO2 SLP263 T00220011 58003=
201612310153 METAR KPAE 310153Z 32003KT 10SM BKN038 03/01 A3032 RMK AO2 SLP271 T00280011=
201612310053 METAR KPAE 310053Z 31003KT 10SM FEW018 03/01 A3030 RMK AO2 SLP267 T00330006=
201612302353 METAR KPAE 302353Z 32004KT 10SM OVC040 04/01 A3030 RMK AO2 SLP266 T00440006 10061 20039 53006=
201612302253 METAR KPAE 302253Z 00000KT 10SM BKN045 05/01 A3029 RMK AO2 SLP262 T00500011=
201612302153 METAR KPAE 302153Z 29003KT 10SM OVC048 05/01 A3029 RMK AO2 SLP262 T00500006=
201612302053 METAR KPAE 302053Z 00000KT 10SM OVC050 05/01 A3029 RMK AO2 SLP260 T00500006 58001=
201612301953 METAR KPAE 301953Z 35005KT 10SM FEW050 06/01 A3030 RMK AO2 SLP263 T00560011=
201612301855 SPECI KPAE 301855Z 34005KT 10SM SCT047 05/02 A3030 RMK AO2 T00500017=
201612301853 METAR KPAE 301853Z 35004KT 10SM FEW047 05/02 A3030 RMK AO2 SLP264 T00500017=
201612301753 METAR KPAE 301753Z 34004KT 10SM CLR 05/03 A3029 RMK AO2 SLP261 60007 T00500028 10050 20017 53018=
201612301653 METAR KPAE 301653Z 00000KT 10SM CLR 02/02 A3027 RMK AO2 SLP254 T00220022=
201612301553 METAR KPAE 301553Z 00000KT 10SM FEW036 BKN055 02/02 A3024 RMK AO2 SLP246 T00220017=
201612301453 METAR KPAE 301453Z 00000KT 10SM BKN035 BKN041 OVC055 04/03 A3023 RMK AO2 RAB36E46 SLP242 P0000 60007 T00390033 53008=
201612301420 SPECI KPAE 301420Z AUTO 29003KT 10SM SCT012 BKN032 OVC055 04/03 A3022 RMK AO2 T00390028=
201612301401 SPECI KPAE 301401Z AUTO 24003KT 10SM FEW008 BKN012 OVC026 04/03 A3022 RMK AO2 T00390033=
201612301353 METAR KPAE 301353Z AUTO 27003KT 10SM OVC012 04/03 A3023 RMK AO2 RAE24 SLP239 P0005 T00390033=
201612301339 SPECI KPAE 301339Z AUTO 27004KT 10SM BKN012 OVC034 04/03 A3022 RMK AO2 RAE24 P0005 T00390033=
201612301312 SPECI KPAE 301312Z AUTO 24006KT 9SM -RA FEW007 BKN019 OVC028 04/03 A3021 RMK AO2 P0005 T00390028=
201612301302 SPECI KPAE 301302Z AUTO 28007KT 2 1/2SM +RA BR SCT006 OVC016 03/03 A3021 RMK AO2 P0004 T00330028=
201612301253 METAR KPAE 301253Z AUTO 00000KT 4SM -RA BR FEW008 BKN013 OVC018 04/03 A3021 RMK AO2 SLP234 P0002 T00390033=
201612301248 SPECI KPAE 301248Z AUTO 00000KT 6SM -RA BR OVC013 04/03 A3021 RMK AO2 P0001=
201612301153 METAR KPAE 301153Z AUTO 00000KT 9SM -RA BKN017 OVC024 03/03 A3021 RMK AO2 RAB36 SLP234 P0001 60001 70019 T00330028 10056 20028 51008=
201612301130 SPECI KPAE 301130Z AUTO 12003KT 10SM SCT009 BKN027 OVC036 04/03 A3021 RMK AO2 T00390028=
201612301101 SPECI KPAE 301101Z AUTO 14004KT 10SM BKN009 BKN014 OVC049 03/03 A3021 RMK AO2 T00330028=
201612301053 METAR KPAE 301053Z AUTO 00000KT 10SM SCT012 BKN026 BKN050 03/03 A3020 RMK AO2 SLP232 T00330028=
201612301022 SPECI KPAE 301022Z AUTO 13003KT 10SM BKN012 BKN017 OVC029 03/03 A3020 RMK AO2 T00330028=
201612300953 METAR KPAE 300953Z AUTO VRB03KT 10SM BKN018 03/03 A3020 RMK AO2 SLP229 T00280028=
201612300935 SPECI KPAE 300935Z AUTO 00000KT 10SM BKN015 BKN065 04/03 A3018 RMK AO2 T00390028=
201612300853 METAR KPAE 300853Z AUTO 05004KT 10SM BKN014 BKN019 BKN025 04/03 A3019 RMK AO2 SLP226 T00390028 51009=
201612300838 SPECI KPAE 300838Z AUTO 00000KT 10SM SCT018 BKN026 BKN035 04/03 A3018 RMK AO2 T00440028=
201612300753 METAR KPAE 300753Z AUTO 34004KT 10SM SCT038 04/03 A3018 RMK AO2 SLP224 T00440028 400670033=
201612300653 METAR KPAE 300653Z AUTO 31005KT 10SM FEW080 05/02 A3017 RMK AO2 SLP220 T00500022=
201612300619 SPECI KPAE 300619Z AUTO 33005KT 10SM FEW021 SCT028 BKN044 05/03 A3017 RMK AO2 T00500028=
201612300606 SPECI KPAE 300606Z AUTO 30005KT 10SM FEW021 BKN028 OVC095 05/03 A3016 RMK AO2 T00500028=
201612300553 METAR KPAE 300553Z AUTO 34005KT 10SM SCT025 BKN030 OVC095 06/03 A3016 RMK AO2 RAE0456 SLP216 P0000 60016 T00560028 10056 20050 50004=
201612300542 SPECI KPAE 300542Z AUTO 32006KT 10SM BKN029 BKN060 OVC095 05/03 A3016 RMK AO2 RAE0456 P0000 T00500028=
201612300535 SPECI KPAE 300535Z AUTO 32006KT 10SM FEW026 BKN031 OVC065 05/03 A3016 RMK AO2 RAE0456 P0000 T00500028=
201612300524 SPECI KPAE 300524Z AUTO 00000KT 10SM BKN028 OVC060 06/03 A3016 RMK AO2 RAE0456 P0000 T00560033=
201612300507 SPECI KPAE 300507Z AUTO 00000KT 10SM FEW021 SCT026 OVC060 06/03 A3017 RMK AO2 RAE0456 P0000 T00560033=
201612300453 METAR KPAE 300453Z AUTO 00000KT 10SM -RA SCT020 BKN026 OVC065 05/04 A3017 RMK AO2 RAB42 SLP219 P0000 T00500039=
201612300450 SPECI KPAE 300450Z AUTO 00000KT 10SM -RA FEW020 BKN026 OVC065 05/04 A3016 RMK AO2 RAB42 P0000=
201612300431 SPECI KPAE 300431Z 00000KT 10SM FEW020 SCT025 OVC060 05/03 A3015 RMK AO2 T00500033=
201612300353 METAR KPAE 300353Z 32003KT 10SM BKN021 OVC047 05/04 A3014 RMK AO2 RAE23 SLP212 P0001 T00500039=
201612300348 SPECI KPAE 300348Z 32003KT 10SM BKN021 BKN036 OVC047 05/04 A3014 RMK AO2 RAE23 P0001=
201612300304 SPECI KPAE 300304Z 32006KT 10SM -RA FEW016 OVC031 05/04 A3013 RMK AO2 P0001 T00500039=
201612300253 METAR KPAE 300253Z 33006KT 10SM -RA SCT016 SCT022 OVC029 05/04 A3012 RMK AO2 SLP205 P0003 60015 T00500039 51007=
201612300153 METAR KPAE 300153Z 01003KT 5SM -RA BR SCT005 BKN029 OVC034 06/05 A3012 RMK AO2 SLP204 P0004 T00560050=
201612300126 SPECI KPAE 300126Z 33003KT 5SM -RA BR SCT005 BKN029 OVC034 05/05 A3012 RMK AO2 P0003 T00500050=
201612300055 SPECI KPAE 300055Z 29003KT 3SM -RA BR BKN005 OVC011 06/05 A3011 RMK AO2 CIG 003V009 P0000 T00560050=
201612300053 METAR KPAE 300053Z 28005KT 2 1/2SM -RA BR BKN009 OVC016 06/05 A3011 RMK AO2 SLP201 P0008 T00560050=
201612292356 SPECI KPAE 292356Z 24006KT 2 1/2SM -RA BR OVC009 06/04 A3010 RMK AO2 P0001 T00560044=
201612292353 METAR KPAE 292353Z 25006KT 3SM -RA BR BKN009 OVC013 06/04 A3010 RMK AO2 RAB15 SLP198 P0002 60002 T00560044 10067 20050 53008=
201612292253 METAR KPAE 292253Z 16015KT 10SM BKN018 BKN027 OVC055 07/03 A3007 RMK AO2 PK WND 15028/2208 SLP186 T00670028=
201612292153 METAR KPAE 292153Z 14020KT 10SM OVC022 06/02 A3006 RMK AO2 PK WND 14029/2127 SLP183 T00610017=
201612292053 METAR KPAE 292053Z 15020G29KT 10SM OVC024 07/02 A3008 RMK AO2 PK WND 15029/2048 SLP189 T00670022 58020=
201612291953 METAR KPAE 291953Z 14017G29KT 10SM OVC029 06/01 A3010 RMK AO2 PK WND 13029/1948 SLP197 T00610011=
201612291853 METAR KPAE 291853Z 13016G24KT 10SM OVC075 06/01 A3013 RMK AO2 SLP206 T00560006=
201612291753 METAR KPAE 291753Z 13015KT 10SM FEW070 OVC090 06/00 A3014 RMK AO2 SLP209 T00560000 10056 20044 56005=
201612291653 METAR KPAE 291653Z 12011KT 10SM SCT070 OVC100 05/00 A3014 RMK AO2 SLP211 T00500000=
201612291553 METAR KPAE 291553Z 12009KT 10SM OVC060 05/01 A3015 RMK AO2 SLP213 T00500006=
201612291453 METAR KPAE 291453Z 13010KT 10SM OVC080 05/01 A3015 RMK AO2 SLP214 T00500006 56021=
201612291353 METAR KPAE 291353Z AUTO 11009KT 10SM OVC090 05/01 A3016 RMK AO2 SLP218 T00500006=
201612291253 METAR KPAE 291253Z AUTO 09005KT 10SM OVC085 04/01 A3019 RMK AO2 SLP229 T00440011=
201612291153 METAR KPAE 291153Z AUTO 09006KT 10SM OVC065 04/00 A3021 RMK AO2 SLP235 T00440000 10050 20028 58019=
201612291053 METAR KPAE 291053Z AUTO 12011KT 10SM FEW048 OVC060 04/M01 A3026 RMK AO2 SLP250 T00441011=
201612290953 METAR KPAE 290953Z AUTO 11007KT 060V150 10SM OVC065 04/M02 A3025 RMK AO2 SLP249 T00441017=
201612290853 METAR KPAE 290853Z AUTO 08009KT 10SM BKN055 OVC070 04/M01 A3027 RMK AO2 SLP255 T00391011 58025=
201612290753 METAR KPAE 290753Z AUTO 13009KT 10SM OVC060 04/M01 A3031 RMK AO2 SLP268 T00391006 400670006=
201612290653 METAR KPAE 290653Z AUTO 16009KT 10SM BKN085 OVC110 03/M01 A3033 RMK AO2 SLP275 T00331006=
201612290553 METAR KPAE 290553Z AUTO VRB04KT 10SM OVC095 04/M01 A3035 RMK AO2 SLP280 T00391006 10061 20033 58012=
201612290453 METAR KPAE 290453Z AUTO 08006KT 10SM SCT100 03/00 A3037 RMK AO2 SLP288 T00330000=
201612290353 METAR KPAE 290353Z VRB03KT 10SM OVC100 04/01 A3037 RMK AO2 SLP289 T00390006=
201612290253 METAR KPAE 290253Z 09006KT 10SM SCT090 SCT110 04/01 A3038 RMK AO2 SLP293 T00390006 58005=
201612290153 METAR KPAE 290153Z 11006KT 10SM FEW035 06/00 A3039 RMK AO2 SLP294 T00560000=
201612290053 METAR KPAE 290053Z 13008KT 10SM FEW120 06/01 A3039 RMK AO2 SLP297 T00610006=
201612282353 METAR KPAE 282353Z 13009KT 10SM OVC110 06/01 A3040 RMK AO2 SLP299 T00610006 10067 20044 58004=
201612282253 METAR KPAE 282253Z 13010KT 10SM BKN110 07/01 A3041 RMK AO2 SLP300 T00670011=
201612282153 METAR KPAE 282153Z 12010KT 10SM FEW110 07/02 A3041 RMK AO2 SLP302 T00670017=
201612282053 METAR KPAE 282053Z 14011KT 10SM FEW021 FEW120 06/02 A3041 RMK AO2 SLP303 T00610017 58007=
201612282023 SPECI KPAE 282023Z 13011KT 10SM SCT022 BKN120 06/02 A3042 RMK AO2 T00610017=
201612282011 SPECI KPAE 282011Z 15011KT 10SM BKN024 06/02 A3042 RMK AO2 T00610017=
201612281953 METAR KPAE 281953Z 14011KT 10SM FEW024 06/02 A3042 RMK AO2 SLP308 T00560017=
201612281853 METAR KPAE 281853Z 14012KT 10SM FEW023 05/02 A3043 RMK AO2 SLP310 T00500017=
201612281846 SPECI KPAE 281846Z 14011KT 10SM FEW023 04/02 A3043 RMK AO2 T00440017=
201612281753 METAR KPAE 281753Z 14010KT 10SM OVC019 04/02 A3043 RMK AO2 SLP310 T00440017 10044 20011 53015=
201612281653 METAR KPAE 281653Z 14011KT 10SM OVC016 03/02 A3041 RMK AO2 SLP304 T00330017=
201612281616 SPECI KPAE 281616Z 13012KT 10SM BKN015 03/01 A3040 RMK AO2 T00330011=
201612281553 METAR KPAE 281553Z 13010KT 10SM SCT013 03/01 A3039 RMK AO2 SLP297 T00280011=
201612281530 SPECI KPAE 281530Z 13009KT 10SM SCT014 03/01 A3039 RMK AO2 T00280011=
201612281519 SPECI KPAE 281519Z 14007KT 10SM BKN014 02/01 A3039 RMK AO2 T00220011=
201612281453 METAR KPAE 281453Z 13010KT 10SM CLR 03/01 A3039 RMK AO2 SLP295 T00280011 51013=
201612281353 METAR KPAE 281353Z AUTO 13011KT 10SM CLR 03/01 A3037 RMK AO2 SLP291 T00280011=
201612281253 METAR KPAE 281253Z AUTO 13009KT 10SM CLR 02/01 A3036 RMK AO2 SLP287 T00220011=
201612281153 METAR KPAE 281153Z AUTO 14005KT 10SM CLR 01/01 A3035 RMK AO2 SLP281 70001 T00110006 10028 20006 51024=
201612281053 METAR KPAE 281053Z AUTO 15009KT 10SM SCT065 02/01 A3033 RMK AO2 SLP275 T00170006=
201612280953 METAR KPAE 280953Z AUTO 14005KT 10SM BKN080 BKN100 02/01 A3029 RMK AO2 SLP264 T00220011=
201612280853 METAR KPAE 280853Z AUTO 13006KT 10SM FEW070 02/01 A3027 RMK AO2 SLP256 T00170011 51027=
201612280753 METAR KPAE 280753Z AUTO 14004KT 10SM BKN095 02/01 A3025 RMK AO2 SLP248 T00220011 400610011=
201612280653 METAR KPAE 280653Z AUTO 15007KT 10SM CLR 02/01 A3022 RMK AO2 SLP240 T00170011=
201612280553 METAR KPAE 280553Z AUTO 16008KT 10SM FEW043 BKN090 02/01 A3019 RMK AO2 SLP229 T00170011 10044 20017 53028=
201612280453 METAR KPAE 280453Z AUTO 17007KT 10SM FEW050 SCT080 02/01 A3016 RMK AO2 SLP219 T00170011=
201612280353 METAR KPAE 280353Z 15005KT 10SM BKN047 BKN055 03/02 A3013 RMK AO2 SLP209 T00330022=
201612280253 METAR KPAE 280253Z 13007KT 10SM SCT055 04/03 A3011 RMK AO2 SLP200 T00390028 51021=
201612280238 SPECI KPAE 280238Z 13007KT 10SM SCT025 BKN055 04/03 A3011 RMK AO2 T00440028=
201612280153 METAR KPAE 280153Z 13004KT 10SM OVC021 04/03 A3010 RMK AO2 SLP197 T00390028=
201612280053 METAR KPAE 280053Z 11003KT 10SM FEW019 BKN026 BKN031 04/02 A3008 RMK AO2 SLP191 T00390017=
201612272353 METAR KPAE 272353Z 25006KT 10SM FEW075 SCT110 04/01 A3005 RMK AO2 RAE2257 SLP178 P0000 60001 T00440011 10061 20039 51026=
201612272350 SPECI KPAE 272350Z 26007KT 10SM FEW075 SCT110 04/01 A3004 RMK AO2 RAE2257 P0000=
201612272307 SPECI KPAE 272307Z 25003KT 10SM SCT009 BKN017 OVC100 05/03 A3003 RMK AO2 RAE2257 P0000 T00500028=
201612272300 SPECI KPAE 272300Z VRB03KT 10SM SCT009 BKN049 OVC100 05/03 A3003 RMK AO2 RAE2257 P0000 T00500033=
201612272253 METAR KPAE 272253Z 26005KT 9SM -RA SCT009 BKN017 OVC065 04/03 A3002 RMK AO2 WSHFT 2225 RAB34 SLP169 P0001 T00440028=
201612272239 SPECI KPAE 272239Z 26011G20KT 6SM -RA BR SCT009 OVC017 04/02 A3001 RMK AO2 WSHFT 2225 RAB34 P0001 T00440022=
201612272200 SPECI KPAE 272200Z 17013KT 10SM BKN023 OVC075 06/02 A2997 RMK AO2 T00560022=
201612272153 METAR KPAE 272153Z 16016KT 10SM SCT009 06/02 A2997 RMK AO2 SLP151 T00560022=
201612272102 SPECI KPAE 272102Z 13013KT 10SM SCT009 06/02 A2998 RMK AO2 T00560022=
201612272053 METAR KPAE 272053Z 14011KT 10SM FEW085 06/02 A2998 RMK AO2 SLP155 T00560022 50005=
201612271953 METAR KPAE 271953Z 15011KT 10SM OVC060 04/02 A2999 RMK AO2 SLP159 T00440022=
201612271853 METAR KPAE 271853Z 15009KT 10SM SCT011 04/02 A2998 RMK AO2 SLP158 T00440022=
201612271758 SPECI KPAE 271758Z 15007KT 10SM SCT008 04/03 A2997 RMK AO2 T00440028=
201612271753 METAR KPAE 271753Z 15006KT 10SM BKN008 04/02 A2996 RMK AO2 SLP151 T00390022 10044 20033 53021=
201612271727 SPECI KPAE 271727Z 00000KT 10SM OVC009 03/02 A2996 RMK AO2 T00330022=
201612271700 SPECI KPAE 271700Z 21009KT 10SM OVC011 04/02 A2995 RMK AO2 T00390022=
201612271653 METAR KPAE 271653Z 20009G17KT 10SM BKN009 OVC019 04/02 A2994 RMK AO2 SLP143 T00390022=
201612271553 METAR KPAE 271553Z 17010KT 10SM BKN009 OVC019 04/03 A2992 RMK AO2 SLP135 T00390028=
201612271504 SPECI KPAE 271504Z 16010KT 10SM BKN009 OVC015 04/03 A2991 RMK AO2 CIG 008V013 T00390033=
201612271453 METAR KPAE 271453Z 15006KT 10SM OVC012 04/03 A2990 RMK AO2 SLP129 T00390033 56009=
201612271445 SPECI KPAE 271445Z AUTO 16011KT 10SM BKN010 OVC015 04/03 A2990 RMK AO2 CIG 007V012 T00390028=
201612271353 METAR KPAE 271353Z AUTO 16009KT 10SM OVC009 04/03 A2991 RMK AO2 CIG 007V011 SLP133 T00390033=
201612271308 SPECI KPAE 271308Z AUTO 16007KT 10SM OVC008 04/03 A2991 RMK AO2 T00390033=
201612271253 METAR KPAE 271253Z AUTO 16012KT 10SM BKN010 OVC014 04/03 A2991 RMK AO2 SLP134 T00390033=
201612271153 METAR KPAE 271153Z AUTO 17010KT 10SM OVC008 04/03 A2993 RMK AO2 RAE11 CIG 006V011 SLP138 P0000 60002 70015 T00390033 10039 20028 50004=
201612271053 METAR KPAE 271053Z AUTO 17008KT 10SM -RA OVC007 04/03 A2993 RMK AO2 RAB32 SLP140 P0000 T00390033=
201612270953 METAR KPAE 270953Z AUTO 17014G21KT 10SM OVC007 04/03 A2993 RMK AO2 SLP138 T00390028=
201612270914 SPECI KPAE 270914Z AUTO 17015KT 10SM OVC009 04/03 A2991 RMK AO2 T00390028=
201612270853 METAR KPAE 270853Z AUTO 17016G27KT 10SM OVC010 04/03 A2991 RMK AO2 PK WND 17030/0842 RAE00 CIG 008V012 SLP134 P0000 60002 T00390028 58002=
201612270803 SPECI KPAE 270803Z AUTO 16022G32KT 10SM SCT005 OVC011 04/03 A2991 RMK AO2 PK WND 17030/0801 RAE00 P0000 T00390028=
201612270753 METAR KPAE 270753Z AUTO 16018G25KT 6SM -RA BR BKN005 OVC011 04/03 A2991 RMK AO2 SNB02E07 CIG 004V009 SLP132 P0001 T00390028 400440006=
201612270653 METAR KPAE 270653Z AUTO 15017KT 6SM -RA BR BKN007 OVC012 03/03 A2993 RMK AO2 UPB19E22 CIG 005V011 SLP139 P0001 T00330028=
201612270553 METAR KPAE 270553Z AUTO 14014KT 8SM -RA BKN006 OVC032 03/02 A2992 RMK AO2 PRESFR SLP137 P0001 60012 T00280022 10039 20022 58020=
201612270531 SPECI KPAE 270531Z AUTO 15011G20KT 10SM -RA BKN008 OVC030 03/02 A2995 RMK AO2 P0001 T00280022=
201612270524 SPECI KPAE 270524Z AUTO 14012G20KT 9SM -RA SCT008 OVC030 03/02 A2995 RMK AO2 P0000 T00330022=
201612270453 METAR KPAE 270453Z AUTO 14010KT 6SM -RA BR BKN006 OVC028 03/02 A2996 RMK AO2 SLP150 P0002 T00280022=
201612270440 SPECI KPAE 270440Z 13009KT 8SM -RA BKN006 BKN011 OVC029 03/02 A2996 RMK AO2 P0001 T00280022=
201612270432 SPECI KPAE 270432Z 14009KT 6SM -RA BR SCT005 BKN011 OVC027 03/02 A2996 RMK AO2 P0001 T00280022=
201612270425 SPECI KPAE 270425Z 13010KT 5SM -RA BR SCT005 BKN009 OVC025 03/02 A2996 RMK AO2 P0001 T00280022=
201612270353 METAR KPAE 270353Z 13012KT 6SM -RA BR SCT007 SCT011 OVC029 03/02 A2998 RMK AO2 SLP156 P0002 T00280017=
201612270351 SPECI KPAE 270351Z 13010KT 6SM -RA BR SCT007 SCT011 OVC029 03/02 A2998 RMK AO2 P0002=
201612270344 SPECI KPAE 270344Z 13012KT 8SM -RA FEW007 BKN012 OVC031 03/02 A2998 RMK AO2 P0002 T00280017=
201612270253 METAR KPAE 270253Z 12008G18KT 7SM -RA BKN005 OVC012 02/02 A3002 RMK AO2 CIG 003V007 PRESFR SLP171 P0002 60007 T00220017 58029=
201612270153 METAR KPAE 270153Z 13013G23KT 6SM -RA BR BKN008 OVC016 03/02 A3005 RMK AO2 SLP181 P0003 T00280017=
201612270141 SPECI KPAE 270141Z 13012G18KT 6SM -RA BR OVC008 03/02 A3006 RMK AO2 CIG 006V012 P0003 T00280022=
201612270053 METAR KPAE 270053Z 12016G24KT 7SM -RA BKN013 OVC018 03/02 A3008 RMK AO2 SLP190 P0002 T00330017=
201612270021 SPECI KPAE 270021Z 13016KT 8SM -RA BKN018 OVC034 03/01 A3009 RMK AO2 P0001 T00330011=
201612262353 METAR KPAE 262353Z 13015G22KT 9SM -RA SCT024 OVC036 04/01 A3010 RMK AO2 RAB38 SLP199 P0000 60001 T00390006 10044 20022 56018=
201612262253 METAR KPAE 262253Z 11008KT 10SM FEW039 OVC049 04/00 A3011 RMK AO2 RAE2155 SLP200 P0000 T00440000=
201612262153 METAR KPAE 262153Z 12008KT 10SM -RA SCT047 OVC055 04/01 A3012 RMK AO2 SLP205 P0001 T00390006=
201612262053 METAR KPAE 262053Z 11008KT 10SM -RA SCT013 OVC050 04/01 A3016 RMK AO2 RAB33 SLP218 P0000 60000 T00390006 58021=
201612261953 METAR KPAE 261953Z 12009KT 10SM FEW041 BKN050 OVC090 04/01 A3019 RMK AO2 SLP227 T00390006=
201612261853 METAR KPAE 261853Z 12011G15KT 10SM FEW046 BKN095 OVC110 03/00 A3020 RMK AO2 SLP232 T00330000=
201612261753 METAR KPAE 261753Z 12007KT 10SM FEW037 OVC095 02/M01 A3022 RMK AO2 SLP240 T00221006 10022 20006 55003=
201612261653 METAR KPAE 261653Z VRB04KT 10SM BKN050 OVC110 02/M01 A3022 RMK AO2 SLP239 T00171006=
201612261553 METAR KPAE 261553Z 11006KT 10SM FEW035 OVC050 02/M01 A3022 RMK AO2 SLP241 T00171011=
201612261539 SPECI KPAE 261539Z 12006KT 10SM SCT025 BKN037 OVC050 02/M01 A3023 RMK AO2 T00171011=
201612261453 METAR KPAE 261453Z VRB04KT 10SM BKN026 OVC036 01/M01 A3023 RMK AO2 SLP243 T00111011 50001=
201612261353 METAR KPAE 261353Z AUTO VRB04KT 10SM OVC034 01/M01 A3023 RMK AO2 SLP244 T00111011=
201612261317 SPECI KPAE 261317Z AUTO 10004KT 10SM SCT021 OVC035 01/M01 A3023 RMK AO2 T00061011=
201612261253 METAR KPAE 261253Z AUTO 09004KT 10SM BKN021 OVC034 01/M01 A3023 RMK AO2 SLP242 T00061011=
201612261244 SPECI KPAE 261244Z AUTO VRB03KT 10SM BKN021 OVC034 01/M01 A3023 RMK AO2 T00061011=
201612261153 METAR KPAE 261153Z AUTO 09008KT 10SM OVC033 01/M02 A3023 RMK AO2 SLP242 T00061017 10011 20006 51006=
201612261053 METAR KPAE 261053Z AUTO 09006KT 10SM OVC031 01/M01 A3023 RMK AO2 SLP242 T00061011=
201612261020 SPECI KPAE 261020Z AUTO 09005KT 10SM OVC031 01/M01 A3023 RMK AO2 T00061011=
201612261013 SPECI KPAE 261013Z AUTO 08007KT 10SM OVC029 01/M01 A3023 RMK AO2 T00061011=
201612260953 METAR KPAE 260953Z AUTO 10004KT 10SM OVC030 01/M01 A3022 RMK AO2 SLP238 T00061011=
201612260900 METAR KPAE NIL=
201612260753 METAR KPAE 260753Z AUTO 09005KT 10SM OVC031 01/M01 A3020 RMK AO2 SLP233 T00061011 400221017=
201612260653 METAR KPAE 260653Z AUTO 08008KT 10SM OVC033 01/M02 A3019 RMK AO2 SLP228 T00061017=
201612260553 METAR KPAE 260553Z AUTO 08007KT 10SM OVC034 01/M02 A3018 RMK AO2 SLP227 T00061017 10022 20000 53007=
201612260453 METAR KPAE 260453Z AUTO 08007KT 10SM BKN036 00/M02 A3018 RMK AO2 SLP225 T00001017=
201612260353 METAR KPAE 260353Z 08006KT 10SM CLR 01/M01 A3016 RMK AO2 SLP220 T00061011=
201612260253 METAR KPAE 260253Z 08003KT 10SM OVC037 01/M01 A3016 RMK AO2 SLP220 T00111011 53005=
201612260153 METAR KPAE 260153Z 13003KT 7SM OVC039 01/00 A3016 RMK AO2 SLP218 T00060000=
201612260053 METAR KPAE 260053Z AUTO 00000KT 9SM OVC040 01/M01 A3015 RMK AO2 SLP216 T00111006=
201612252353 METAR KPAE 252353Z AUTO 09003KT 8SM OVC038 02/00 A3015 RMK AO2 SLP215 T00220000 10022 21011 53005=
201612252253 METAR KPAE 252253Z 00000KT 10SM FEW007 BKN038 02/01 A3014 RMK AO2 SLP212 T00170011=
201612252207 SPECI KPAE 252207Z 00000KT 4SM BR SCT005 02/01 A3014 RMK AO2 T00170011=
201612252153 METAR KPAE 252153Z 13003KT 4SM BR BKN005 BKN037 02/01 A3013 RMK AO2 SLP210 T00170011=
201612252107 SPECI KPAE 252107Z 00000KT 3SM R16R/1400V4500FT BR BKN001 01/01 A3013 RMK AO2 T00110011=
201612252100 SPECI KPAE 252100Z 00000KT 1 3/4SM R16R/1200V2800FT BR BKN001 01/01 A3013 RMK AO2 T00110011=
201612252053 METAR KPAE 252053Z 00000KT 1/2SM R16R/1400V5500FT FG VV001 01/01 A3013 RMK AO2 SLP209 T00060006 53009=
201612251956 SPECI KPAE 251956Z VRB03KT 1/2SM R16R/1800V4000FT FG VV001 01/01 A3011 RMK AO2 T00060006=
201612251953 METAR KPAE 251953Z 00000KT 1/4SM R16R/1800V4000FT FG SCT001 SCT036 01/00 A3011 RMK AO2 SLP203 T00060000=
201612251933 SPECI KPAE 251933Z VRB03KT 1/4SM R16R/P6000FT FG SCT001 BKN035 00/00 A3011 RMK AO2 T00000000=
201612251905 SPECI KPAE 251905Z 08005KT 1/4SM R16R/1600V2800FT FG OVC001 00/00 A3011 RMK AO2 T00000000=
201612251853 METAR KPAE 251853Z VRB03KT 3/4SM R16R/1400V2200FT BR OVC001 M01/M01 A3011 RMK AO2 SLP202 T10061006=
201612251846 SPECI KPAE 251846Z 13004KT 1/2SM R16R/1800V2600FT FZFG BKN001 OVC033 M01/M01 A3011 RMK AO2 T10061006=
201612251827 SPECI KPAE 251827Z 08005KT 1/4SM R16R/2000V5500FT FZFG BKN001 OVC032 M01/M01 A3011 RMK AO2 T10061006=
201612251800 SPECI KPAE 251800Z 09004KT 1/4SM R16R/1200V1600FT FZFG VV001 M01/M01 A3011 RMK AO2 T10111011=
201612251753 METAR KPAE 251753Z 08004KT 1/4SM R16R/1200FT FZFG VV002 M01/M01 A3010 RMK AO2 SLP200 I6003 T10111011 10006 21017 53021=
201612251733 SPECI KPAE 251733Z 08003KT 1/4SM R16R/1200V1400FT FZFG VV002 M01/M01 A3010 RMK AO2 T10111011=
201612251711 SPECI KPAE 251711Z 08003KT 1/4SM R16R/3000VP6000FT FZFG VV002 M01/M02 A3009 RMK AO2 T10111017=
201612251709 SPECI KPAE 251709Z 08004KT 1 3/4SM R16R/3500VP6000FT BR FEW002 M01/M02 A3009 RMK AO2 T10111017=
201612251700 SPECI KPAE 251700Z 08004KT 4SM R16R/2600V4000FT BR FEW001 M01/M02 A3008 RMK AO2 T10111017=
201612251653 METAR KPAE 251653Z 08004KT 4SM R16R/2000V4000FT BR VV001 M02/M02 A3008 RMK AO2 SLP193 I1001 T10171017=
201612251649 SPECI KPAE 251649Z 08005KT 4SM R16R/1800V2600FT BR SCT001 M02/M02 A3008 RMK AO2 I1001=
201612251647 SPECI KPAE 251647Z 08004KT 3SM R16R/1800V2200FT BR BKN001 M02/M02 A3008 RMK AO2 I1001=
201612251644 SPECI KPAE 251644Z 09003KT 1SM R16R/1800V2200FT BR VV001 M02/M02 A3008 RMK AO2 I1001 T10171017=
201612251636 SPECI KPAE 251636Z 00000KT 1/4SM R16R/1800V3500FT FZFG VV001 M02/M02 A3008 RMK AO2 I1001 T10171017=
201612251615 SPECI KPAE 251615Z 00000KT 1/4SM R16R/1400V1600FT FZFG VV001 M02/M02 A3007 RMK AO2 I1000 T10171017=
201612251553 METAR KPAE 251553Z 09003KT 1/4SM R16R/1400V2400FT FZFG VV001 M02/M02 A3006 RMK AO2 SLP187 I1001 T10171017=
201612251453 METAR KPAE 251453Z 00000KT 1/4SM R16R/1000V1200FT FZFG VV001 M01/M01 A3004 RMK AO2 SLP179 I1000 I3001 T10061011 57001=
201612251353 METAR KPAE 251353Z AUTO 08005KT 1/4SM R16R/1600V2000FT FZFG VV001 M01/M01 A3005 RMK AO2 SLP180 I1001 T10061006=
201612251346 SPECI KPAE 251346Z AUTO 08005KT 1/4SM R16R/1600V2000FT FZFG VV001 M01/M01 A3005 RMK AO2 I1001 T10061006=
201612251332 SPECI KPAE 251332Z AUTO 08005KT 1/4SM R16R/1800V4000FT FZFG VV001 M01/M01 A3005 RMK AO2 I1000 T10061006=
201612251319 SPECI KPAE 251319Z AUTO 08003KT 1/4SM R16R/1200V2000FT FZFG VV001 M01/M01 A3004 RMK AO2 I1000 T10061006=
201612251311 SPECI KPAE 251311Z AUTO 09003KT 1/4SM R16R/1200V2800FT FZFG BKN001 BKN034 M01/M01 A3004 RMK AO2 I1000 T10061006=
201612251257 SPECI KPAE 251257Z AUTO 00000KT 3/4SM R16R/P6000FT BR SCT001 OVC034 00/00 A3004 RMK AO2 T00000000=
201612251253 METAR KPAE 251253Z AUTO 08003KT 2SM BR FEW001 OVC034 00/00 A3004 RMK AO2 SLP179 T00000000=
201612251204 SPECI KPAE 251204Z AUTO 13004KT 4SM BR FEW007 OVC032 01/00 A3005 RMK AO2 T00060000=
201612251153 METAR KPAE 251153Z AUTO 00000KT 2SM BR FEW009 OVC032 01/01 A3005 RMK AO2 SLP180 70002 T00060006 10017 20000 51012=
201612251148 SPECI KPAE 251148Z AUTO 00000KT 2 1/2SM BR FEW009 OVC032 01/01 A3005 RMK AO2=
201612251053 METAR KPAE 251053Z AUTO 00000KT 4SM BR OVC030 01/01 A3004 RMK AO2 SLP177 T00060006=
201612251012 SPECI KPAE 251012Z AUTO 00000KT 3SM R16R/4500VP6000FT BR OVC030 01/01 A3003 RMK AO2 T00060006=
201612251003 SPECI KPAE 251003Z AUTO 00000KT 2 1/2SM BR FEW003 OVC030 01/01 A3003 RMK AO2 T00110006=
201612250953 METAR KPAE 250953Z AUTO 00000KT 2 1/2SM BR OVC030 01/01 A3002 RMK AO2 SLP171 T00110006=
201612250934 SPECI KPAE 250934Z AUTO 35004KT 3SM BR FEW002 FEW011 BKN030 01/01 A3002 RMK AO2 T00110006=
201612250925 SPECI KPAE 250925Z AUTO 34004KT 2 1/2SM BR FEW003 SCT009 BKN031 01/01 A3002 RMK AO2 T00060006=
201612250916 SPECI KPAE 250916Z AUTO 00000KT 2SM BR SCT007 BKN011 BKN031 01/00 A3001 RMK AO2 T00060000=
201612250914 SPECI KPAE 250914Z AUTO 32004KT 1 3/4SM BR SCT007 BKN031 01/00 A3001 RMK AO2 T00060000=
201612250912 SPECI KPAE 250912Z AUTO 31003KT 1 3/4SM BR BKN008 BKN029 01/00 A3001 RMK AO2 T00060000=
201612250904 SPECI KPAE 250904Z AUTO 34003KT 1 3/4SM BR SCT008 BKN029 01/00 A3001 RMK AO2 T00060000=
201612250853 METAR KPAE 250853Z AUTO 00000KT 2 1/2SM BR SCT008 OVC029 01/01 A3001 RMK AO2 SLP168 T00060006 53006=
201612250848 SPECI KPAE 250848Z AUTO 00000KT 2SM BR FEW006 OVC029 01/01 A3001 RMK AO2=
201612250825 SPECI KPAE 250825Z AUTO 00000KT 2SM BR OVC028 01/01 A3001 RMK AO2 T00110006=
201612250753 METAR KPAE 250753Z AUTO 00000KT 3SM BR FEW006 OVC028 02/01 A3000 RMK AO2 SLP163 T00170011 400330000=
201612250743 SPECI KPAE 250743Z AUTO 00000KT 3SM BR FEW006 SCT010 OVC028 01/01 A3000 RMK AO2 T00110011=
201612250724 SPECI KPAE 250724Z AUTO 00000KT 5SM BR SCT004 BKN008 OVC031 01/01 A3000 RMK AO2 CIG 007V011 T00110011=
201612250715 SPECI KPAE 250715Z AUTO 00000KT 4SM BR SCT004 BKN013 OVC031 01/01 A3000 RMK AO2 T00110011=
201612250703 SPECI KPAE 250703Z AUTO 00000KT 4SM BR FEW005 OVC031 01/01 A3000 RMK AO2 T00110011=
201612250653 METAR KPAE 250653Z AUTO 19003KT 5SM BR OVC031 01/01 A3000 RMK AO2 SLP163 T00110006=
201612250629 SPECI KPAE 250629Z AUTO 00000KT 4SM BR OVC031 01/01 A2999 RMK AO2 T00110011=
201612250553 METAR KPAE 250553Z AUTO 15003KT 4SM BR FEW004 OVC027 01/01 A2999 RMK AO2 SLP161 60002 T00060006 10028 20000 53004=
201612250518 SPECI KPAE 250518Z AUTO 16004KT 5SM BR SCT013 OVC024 01/01 A2999 RMK AO2 T00060006=
201612250453 METAR KPAE 250453Z AUTO 00000KT 3SM BR OVC013 01/01 A2998 RMK AO2 SLP159 T00060006=
201612250433 SPECI KPAE 250433Z 00000KT 4SM BR OVC010 01/01 A2998 RMK AO2 CIG 008V012 T00110006=
201612250426 SPECI KPAE 250426Z 00000KT 2 1/2SM BR OVC010 01/01 A2998 RMK AO2 CIG 008V013 T00060006=
201612250353 METAR KPAE 250353Z 00000KT 3SM BR SCT006 OVC012 01/01 A2998 RMK AO2 SLP159 T00060006=
201612250321 SPECI KPAE 250321Z 00000KT 3SM BR BKN008 00/00 A2998 RMK AO2 T00000000=
201612250312 SPECI KPAE 250312Z 00000KT 3SM BR SCT008 01/00 A2998 RMK AO2 T00060000=
201612250253 METAR KPAE 250253Z 00000KT 4SM BR CLR 01/00 A2998 RMK AO2 SLP157 60002 T00060000 53005=
201612250200 SPECI KPAE 250200Z 00000KT 7SM SCT033 01/01 A2997 RMK AO2 T00110006=
201612250153 METAR KPAE 250153Z 00000KT 7SM BKN008 OVC016 01/01 A2997 RMK AO2 RAE34SNB17E28 SLP155 P0001 T00110011=
201612250053 METAR KPAE 250053Z 00000KT 5SM -RA BR OVC008 02/01 A2996 RMK AO2 RAE2356B16SNB29E39 CIG 005V013 SLP152 P0001 T00170011=
201612242353 METAR KPAE 242353Z 00000KT 10SM -RA BKN012 OVC019 02/01 A2996 RMK AO2 RAB47 SLP149 P0000 60000 T00220006 10033 20017 53006=
201612242253 METAR KPAE 242253Z 00000KT 10SM BKN022 02/01 A2994 RMK AO2 SLP145 T00220006=
201612242201 SPECI KPAE 242201Z 00000KT 10SM FEW014 SCT026 BKN036 03/01 A2993 RMK AO2 T00280006=
201612242153 METAR KPAE 242153Z VRB03KT 10SM FEW010 SCT014 BKN029 03/01 A2994 RMK AO2 SLP141 T00280006=
201612242127 SPECI KPAE 242127Z 00000KT 10SM BKN008 OVC014 03/01 A2993 RMK AO2 T00330006=
201612242106 SPECI KPAE 242106Z 00000KT 10SM FEW009 OVC014 02/01 A2994 RMK AO2 T00220006=
201612242053 METAR KPAE 242053Z 34003KT 10SM BKN007 OVC011 03/01 A2994 RMK AO2 SLP143 T00280006 51002=
201612241953 METAR KPAE 241953Z 34003KT 3SM BR BKN005 02/02 A2994 RMK AO2 SLP143 T00220017=
201612241902 SPECI KPAE 241902Z 00000KT 3SM BR BKN005 02/01 A2994 RMK AO2 T00220011=
201612241853 METAR KPAE 241853Z 08003KT 3SM BR OVC003 02/01 A2994 RMK AO2 CIG 003V007 SLP143 T00170011=
201612241753 METAR KPAE 241753Z 00000KT 3SM BR OVC004 02/01 A2993 RMK AO2 SLP140 T00170011 10022 20011 53019=
201612241653 METAR KPAE 241653Z 00000KT 8SM BKN004 02/01 A2991 RMK AO2 SLP133 T00170011=
201612241617 SPECI KPAE 241617Z 00000KT 6SM BR FEW005 OVC028 02/01 A2990 RMK AO2 T00170011=
201612241600 SPECI KPAE 241600Z 36003KT 6SM BR OVC028 01/01 A2989 RMK AO2 T00110006=
201612241553 METAR KPAE 241553Z 00000KT 2SM BR OVC028 01/01 A2989 RMK AO2 SLP126 T00110011=
201612241453 METAR KPAE 241453Z 00000KT 2SM BR FEW007 OVC026 01/01 A2987 RMK AO2 SLP121 T00110006 53007=
201612241451 SPECI KPAE 241451Z 00000KT 2SM BR FEW007 OVC026 01/01 A2987 RMK AO2=
201612241431 SPECI KPAE 241431Z 00000KT 6SM BR SCT010 BKN019 OVC024 01/01 A2987 RMK AO2 T00110011=
201612241407 SPECI KPAE 241407Z 00000KT 7SM SCT003 OVC010 02/01 A2986 RMK AO2 T00170011=
201612241353 METAR KPAE 241353Z 00000KT 7SM BKN003 OVC010 02/01 A2986 RMK AO2 SLP118 T00170011=
201612241336 SPECI KPAE 241336Z 00000KT 7SM BKN003 OVC012 01/01 A2986 RMK AO2 T00110011=
201612241314 SPECI KPAE 241314Z 00000KT 8SM SCT009 BKN013 OVC027 02/01 A2985 RMK AO2 T00170011=
201612241253 METAR KPAE 241253Z 00000KT 7SM BKN008 OVC015 01/01 A2985 RMK AO2 SLP114 T00110006=
201612241251 SPECI KPAE 241251Z 00000KT 8SM BKN008 OVC014 01/01 A2985 RMK AO2=
201612241242 SPECI KPAE 241242Z 00000KT 9SM SCT008 OVC014 01/01 A2985 RMK AO2 T00110006=
201612241234 SPECI KPAE 241234Z 00000KT 8SM BKN008 OVC014 01/01 A2985 RMK AO2 T00110006=
201612241222 SPECI KPAE 241222Z 00000KT 7SM SCT008 OVC014 01/01 A2984 RMK AO2 T00110011=
201612241213 SPECI KPAE 241213Z 00000KT 8SM OVC014 01/01 A2984 RMK AO2 T00110011=
201612241153 METAR KPAE 241153Z 13003KT 10SM SCT013 BKN019 OVC024 01/01 A2984 RMK AO2 SLP111 60002 70061 T00110011 10011 20006 51017=
201612241141 SPECI KPAE 241141Z 00000KT 9SM SCT008 OVC019 01/01 A2984 RMK AO2 T00110011=
201612241053 METAR KPAE 241053Z VRB03KT 9SM OVC007 01/01 A2983 RMK AO2 SLP107 T00110006=
201612240953 METAR KPAE 240953Z 08005KT 7SM BKN007 OVC013 01/01 A2981 RMK AO2 SLP100 T00110006=
201612240946 SPECI KPAE 240946Z 08005KT 7SM SCT007 OVC013 01/01 A2981 RMK AO2 T00110006=
201612240927 SPECI KPAE 240927Z 08005KT 6SM BR BKN013 OVC060 01/01 A2980 RMK AO2 T00060006=
201612240853 METAR KPAE 240853Z 08005KT 5SM BR SCT009 BKN055 OVC075 01/01 A2979 RMK AO2 UPE19 SLP094 P0000 60002 T00060006 51015=
201612240823 SPECI KPAE 240823Z VRB03KT 4SM BR BKN008 OVC012 01/01 A2979 RMK AO2 UPE19 P0000 T00110006=
201612240753 METAR KPAE 240753Z 00000KT 3SM UP BR FEW007 BKN013 OVC070 01/01 A2978 RMK AO2 UPB00SNE00 SLP090 P0000 T00110006 400390006=
201612240702 SPECI KPAE 240702Z 09003KT 3SM UP BR FEW003 SCT024 OVC055 01/01 A2977 RMK AO2 UPB00SNE00 P0000 T00110006=
201612240653 METAR KPAE 240653Z 00000KT 2SM -SN BR FEW003 BKN022 OVC050 01/01 A2976 RMK AO2 RAE31UPB28E38SNB38 SLP084 P0002 T00110006=
201612240640 SPECI KPAE 240640Z 00000KT 3SM -SN BR FEW003 BKN026 OVC041 01/01 A2976 RMK AO2 RAE31UPB28E38SNB38 P0001 T00110006=
201612240553 METAR KPAE 240553Z 13005KT 4SM -RA BR OVC040 01/01 A2975 RMK AO2 RAB32 SLP078 P0000 60005 T00110011 10011 20006 53016=
201612240516 SPECI KPAE 240516Z 13003KT 4SM BR SCT004 OVC041 01/01 A2973 RMK AO2 T00110011=
201612240457 SPECI KPAE 240457Z 13004KT 4SM BR BKN002 BKN035 OVC045 01/01 A2973 RMK AO2 T00060006=
201612240453 METAR KPAE 240453Z 13004KT 1/2SM R16R/P6000FT FG FEW002 BKN018 OVC045 01/01 A2973 RMK AO2 RAE05B28E52UPB05E28 SLP073 P0001 T00110006=
201612240424 SPECI KPAE 240424Z 12005KT 1/2SM R16R/4500FT UP FG OVC002 01/01 A2972 RMK AO2 RAE05UPB05 P0000 T00060006=
201612240358 SPECI KPAE 240358Z 12004KT 1/2SM R16R/4000VP6000FT -RA FG OVC001 01/01 A2971 RMK AO2 P0000 T00060006=
201612240353 METAR KPAE 240353Z 12004KT 1 1/2SM R16R/5500VP6000FT -RA BR BKN008 OVC060 01/01 A2971 RMK AO2 RAB52 SLP067 P0000 T00060006=
201612240253 METAR KPAE 240253Z 12005KT 1 1/2SM BR FEW004 BKN008 OVC015 01/01 A2970 RMK AO2 UPB17E36RAB36E52SNE17 SLP062 P0001 60004 T00060006 51016=
201612240153 METAR KPAE 240153Z 13004KT 1 1/2SM -SN BR FEW004 BKN008 OVC015 01/01 A2969 RMK AO2 SLP058 P0001 T00060006=
201612240103 SPECI KPAE 240103Z 14004KT 1SM R16R/P6000FT -SN BR FEW004 BKN008 OVC015 01/01 A2968 RMK AO2 P0000 T00060006=
201612240056 SPECI KPAE 240056Z 14004KT 2 1/2SM -SN BR FEW004 BKN008 OVC015 01/01 A2968 RMK AO2 P0000 T00060006=
201612240053 METAR KPAE 240053Z 13003KT 1SM R16R/P6000FT -SN BR FEW004 SCT008 OVC015 01/01 A2968 RMK AO2 UPB2356E03SNE2356B03 SLP055 P0002 T00060006=
201612240046 SPECI KPAE 240046Z 13005KT 1SM R16R/P6000FT -SN BR FEW004 BKN008 OVC015 01/01 A2967 RMK AO2 UPB2356E03SNE2356B03 P0001 T00060006=
201612240038 SPECI KPAE 240038Z 13005KT 1SM R16R/P6000FT -SN BR SCT008 OVC015 01/01 A2968 RMK AO2 UPB2356E03SNE2356B03 P0001 T00060006=
201612240002 SPECI KPAE 240002Z 12004KT 1SM R16R/P6000FT UP BR BKN009 OVC013 01/01 A2966 RMK AO2 UPB2356SNE2356 P0000 T00060006=
201612240000 SPECI KPAE 240000Z 12004KT 3SM UP BR BKN009 OVC013 01/01 A2966 RMK AO2 UPB2356SNE2356 P0000 T00060006=
201612232353 METAR KPAE 232353Z 11003KT 2SM -SN BR BKN007 OVC013 01/01 A2965 RMK AO2 UPB49E52SNE49B52 SLP046 P0003 60027 T00060006 10006 20006 53024=
201612232253 METAR KPAE 232253Z 15004KT 1SM R16R/P6000FT -SN BR BKN007 OVC013 01/01 A2963 RMK AO2 SLP038 P0005 T00060006=
201612232227 SPECI KPAE 232227Z 15004KT 1SM R16R/5000VP6000FT -SN BR BKN007 OVC013 01/00 A2961 RMK AO2 P0003 T00060000=
201612232153 METAR KPAE 232153Z 00000KT 1/2SM R16R/5000V5500FT SN FG BKN002 OVC010 01/01 A2960 RMK AO2 SLP028 P0005 T00060006=
201612232105 SPECI KPAE 232105Z 00000KT 3/4SM R16R/5500VP6000FT -SN BR BKN002 OVC015 01/01 A2958 RMK AO2 P0000 T00060006=
201612232053 METAR KPAE 232053Z 00000KT 1SM R16R/P6000FT -SN BR SCT004 SCT009 OVC014 01/01 A2958 RMK AO2 SLP021 P0005 60014 T00060006 51007=
201612232023 SPECI KPAE 232023Z 00000KT 1/2SM R16R/5000V6000FT SN FG BKN007 OVC011 01/01 A2958 RMK AO2 P0003 T00060006=
201612232014 SPECI KPAE 232014Z 00000KT 1/2SM R16R/5000VP6000FT SN FG SCT005 OVC011 01/01 A2958 RMK AO2 P0002 T00060006=
201612232000 SPECI KPAE 232000Z 00000KT 3/4SM R16R/5500VP6000FT -SN BR VV012 01/01 A2958 RMK AO2 P0001 T00060006=
201612231953 METAR KPAE 231953Z 00000KT 3/4SM R16R/5000VP6000FT -SN BR BKN003 OVC010 01/01 A2958 RMK AO2 SLP020 P0005 T00060006=
201612231930 SPECI KPAE 231930Z 00000KT 3/4SM R16R/6000VP6000FT -SN BR BKN003 OVC010 01/01 A2957 RMK AO2 P0003 T00060006=
201612231900 SPECI KPAE 231900Z 00000KT 1 1/4SM -SN BR OVC004 01/01 A2957 RMK AO2 P0001 T00060006=
201612231853 METAR KPAE 231853Z 00000KT 1/2SM R16R/P6000FT -SN FG OVC004 01/01 A2957 RMK AO2 SLP017 P0004 T00060006=
201612231753 METAR KPAE 231753Z 00000KT 1/2SM R16R/6000VP6000FT SN FG BKN003 OVC006 01/01 A2956 RMK AO2 SLP013 P0006 60027 T00060006 10028 20006 53012=
201612231742 SPECI KPAE 231742Z 32004KT 3/4SM R16R/6000VP6000FT -SN BR BKN003 OVC007 01/01 A2956 RMK AO2 P0005 T00060006=
201612231658 SPECI KPAE 231658Z 33003KT 1 3/4SM -SN BR BKN004 OVC008 01/01 A2955 RMK AO2 P0000 T00110011=
201612231653 METAR KPAE 231653Z 32003KT 2SM -SN BR BKN005 OVC008 02/01 A2954 RMK AO2 RAE24SNB24 SLP007 P0006 T00170011=
201612231645 SPECI KPAE 231645Z 32003KT 2 1/2SM -SN BR OVC005 02/01 A2954 RMK AO2 RAE24SNB24 CIG 003V008 P0005 T00170011=
201612231627 SPECI KPAE 231627Z 34005KT 5SM -SN BR BKN004 OVC009 02/02 A2952 RMK AO2 RAE24SNB24 P0003 T00170017=
201612231553 METAR KPAE 231553Z 35004KT 4SM -RA BR BKN008 OVC013 02/02 A2952 RMK AO2 SLP002 P0006 T00220017=
201612231519 SPECI KPAE 231519Z 33004KT 4SM -RA BR OVC006 02/02 A2952 RMK AO2 P0002 T00220022=
201612231453 METAR KPAE 231453Z 33004KT 6SM -RA BR OVC004 02/02 A2952 RMK AO2 CIG 002V006 SLP001 P0002 60009 T00220022 56020=
201612231353 METAR KPAE 231353Z AUTO 36004KT 10SM -RA BKN005 OVC023 02/02 A2953 RMK AO2 SLP001 P0003 T00220022=
201612231345 SPECI KPAE 231345Z AUTO 35003KT 9SM -RA FEW006 BKN023 OVC035 03/02 A2953 RMK AO2 P0003 T00280022=
201612231334 SPECI KPAE 231334Z AUTO 04004KT 10SM -RA BKN023 BKN027 OVC033 03/02 A2953 RMK AO2 P0002 T00280022=
201612231325 SPECI KPAE 231325Z AUTO 00000KT 9SM -RA SCT023 OVC033 02/02 A2954 RMK AO2 P0002 T00220022=
201612231253 METAR KPAE 231253Z AUTO 00000KT 8SM -RA SCT018 OVC029 02/02 A2956 RMK AO2 SLP013 P0004 T00220017=
201612231228 SPECI KPAE 231228Z AUTO 05003KT 8SM -RA SCT003 OVC022 02/02 A2957 RMK AO2 P0002 T00220017=
201612231153 METAR KPAE 231153Z AUTO 07007KT 7SM -RA BKN004 OVC016 02/02 A2958 RMK AO2 SLP021 P0006 60031 70031 T00220022 10044 20022 58020=
201612231113 SPECI KPAE 231113Z AUTO 07007KT 7SM -RA BKN004 OVC025 03/02 A2961 RMK AO2 P0002 T00280022=
201612231053 METAR KPAE 231053Z AUTO 05005KT 5SM -RA BR SCT003 BKN019 OVC025 03/03 A2961 RMK AO2 SLP031 P0006 T00280028=
201612231014 SPECI KPAE 231014Z AUTO 06004KT 7SM -RA FEW005 BKN021 OVC029 03/03 A2964 RMK AO2 P0002 T00330028=
201612230953 METAR KPAE 230953Z AUTO 07005KT 5SM RA BR SCT004 BKN014 OVC026 03/03 A2964 RMK AO2 SLP040 P0007 T00330033=
201612230948 SPECI KPAE 230948Z AUTO 08006KT 6SM -RA BR FEW004 OVC014 04/03 A2964 RMK AO2 P0006=
201612230919 SPECI KPAE 230919Z AUTO 00000KT 5SM -RA BR SCT006 BKN016 OVC021 04/03 A2965 RMK AO2 P0004 T00390033=
201612230853 METAR KPAE 230853Z AUTO 19005KT 6SM -RA BR BKN006 OVC012 04/03 A2967 RMK AO2 SLP049 P0003 60012 T00390033 56025=
201612230753 METAR KPAE 230753Z AUTO 17006KT 6SM -RA BR BKN007 OVC012 04/03 A2969 RMK AO2 CIG 005V009 SLP057 P0006 T00390033 400670028=
201612230729 SPECI KPAE 230729Z AUTO 15006KT 6SM -RA BR BKN008 BKN015 OVC022 04/03 A2970 RMK AO2 P0004 T00390033=
201612230712 SPECI KPAE 230712Z AUTO 13005KT 6SM -RA BR FEW008 SCT015 OVC026 04/03 A2971 RMK AO2 P0002 T00390033=
201612230705 SPECI KPAE 230705Z AUTO 13006KT 6SM -RA BR FEW019 OVC026 04/03 A2971 RMK AO2 P0002 T00390028=
201612230653 METAR KPAE 230653Z AUTO 13006KT 7SM -RA FEW019 OVC032 04/03 A2971 RMK AO2 SLP066 P0003 T00390028=
201612230633 SPECI KPAE 230633Z AUTO 13007KT 7SM -RA SCT020 OVC034 04/03 A2972 RMK AO2 P0002 T00390028=
201612230553 METAR KPAE 230553Z AUTO 12008KT 10SM -RA OVC018 04/02 A2974 RMK AO2 SLP074 P0000 60000 T00440022 10061 20044 58015=
201612230453 METAR KPAE 230453Z AUTO 14007KT 10SM -RA OVC021 05/02 A2976 RMK AO2 RAB46 SLP082 P0000 T00500022=
201612230405 SPECI KPAE 230405Z 14009KT 10SM BKN015 OVC019 05/02 A2977 RMK AO2 T00500022=
201612230353 METAR KPAE 230353Z 15013KT 10SM OVC013 05/02 A2978 RMK AO2 SLP086 T00500022=
201612230301 SPECI KPAE 230301Z 18008KT 10SM OVC014 05/02 A2979 RMK AO2 T00500022=
201612230253 METAR KPAE 230253Z 16009KT 10SM OVC016 05/02 A2979 RMK AO2 SLP090 T00500022 58010=
201612230153 METAR KPAE 230153Z 13005KT 10SM OVC020 06/00 A2981 RMK AO2 SLP097 T00610000=
201612230053 METAR KPAE 230053Z 16006KT 10SM OVC023 06/00 A2983 RMK AO2 SLP103 T00560000=
201612222353 METAR KPAE 222353Z 15006KT 10SM OVC021 06/00 A2982 RMK AO2 SLP100 60000 T00610000 10067 20039 55001=
201612222253 METAR KPAE 222253Z 15012KT 10SM OVC023 06/M01 A2981 RMK AO2 SLP098 T00611006=
201612222223 SPECI KPAE 222223Z 14011G19KT 10SM BKN022 BKN034 OVC080 06/M01 A2980 RMK AO2 T00611011=
201612222153 METAR KPAE 222153Z 14016G25KT 10SM BKN032 BKN085 07/M02 A2980 RMK AO2 SLP095 T00671017=
201612222053 METAR KPAE 222053Z 13015G23KT 10SM FEW034 OVC085 06/M02 A2982 RMK AO2 SLP102 60000 T00561017 58015=
201612221953 METAR KPAE 221953Z 13018KT 10SM FEW090 05/M01 A2985 RMK AO2 SLP113 T00501006=
201612221853 METAR KPAE 221853Z 12010G15KT 10SM SCT047 OVC095 04/M01 A2986 RMK AO2 RAB30E43 SLP114 P0000 T00391006=
201612221753 METAR KPAE 221753Z 14010KT 10SM OVC070 04/M01 A2987 RMK AO2 SLP117 T00391006 10044 20028 53004=
201612221653 METAR KPAE 221653Z 12011G18KT 10SM CLR 04/M01 A2985 RMK AO2 SLP112 T00391011=
201612221553 METAR KPAE 221553Z 13010KT 10SM CLR 04/M02 A2985 RMK AO2 SLP112 T00391022=
201612221453 METAR KPAE 221453Z 12012KT 10SM CLR 03/M01 A2985 RMK AO2 SLP114 T00331011 56029=
201612221353 METAR KPAE 221353Z AUTO 12012KT 10SM FEW120 03/M01 A2987 RMK AO2 SLP119 T00331011=
201612221253 METAR KPAE 221253Z AUTO 12012G16KT 10SM CLR 04/M02 A2991 RMK AO2 SLP133 T00391017=
201612221153 METAR KPAE 221153Z AUTO 11007KT 060V140 10SM CLR 04/M02 A2994 RMK AO2 SLP143 T00391017 10050 20022 56032=
201612221053 METAR KPAE 221053Z AUTO VRB04KT 10SM CLR 04/M02 A2996 RMK AO2 SLP148 T00391017=
201612220953 METAR KPAE 220953Z AUTO 12009KT 10SM CLR 04/M01 A2999 RMK AO2 SLP159 T00391006=
201612220853 METAR KPAE 220853Z AUTO 12004KT 10SM CLR 03/00 A3004 RMK AO2 SLP176 T00330000 57020=
201612220753 METAR KPAE 220753Z AUTO VRB05KT 10SM CLR 04/00 A3005 RMK AO2 SLP178 T00390000 400670006=
201612220653 METAR KPAE 220653Z AUTO 00000KT 10SM CLR 04/M01 A3010 RMK AO2 SLP195 T00391006=
201612220553 METAR KPAE 220553Z AUTO 12012G19KT 10SM CLR 05/M01 A3010 RMK AO2 SLP197 T00501006 10061 20028 58026=
201612220453 METAR KPAE 220453Z AUTO 00000KT 10SM CLR 03/01 A3015 RMK AO2 SLP214 T00280006=
201612220353 METAR KPAE 220353Z 12005KT 10SM CLR 04/01 A3016 RMK AO2 SLP219 T00440011=
201612220253 METAR KPAE 220253Z 00000KT 10SM CLR 04/01 A3018 RMK AO2 SLP224 T00440011 56023=
201612220153 METAR KPAE 220153Z 08005KT 10SM CLR 05/01 A3019 RMK AO2 SLP229 T00500011=
201612220053 METAR KPAE 220053Z 07003KT 10SM CLR 05/01 A3022 RMK AO2 SLP238 T00500011=
201612212353 METAR KPAE 212353Z 00000KT 10SM CLR 06/02 A3025 RMK AO2 SLP248 T00610017 10067 20039 56022=
201612212253 METAR KPAE 212253Z 00000KT 10SM CLR 06/02 A3027 RMK AO2 SLP256 T00610017=
201612212153 METAR KPAE 212153Z 08004KT 10SM CLR 06/02 A3028 RMK AO2 SLP257 T00610017=
201612212053 METAR KPAE 212053Z 14006KT 10SM CLR 06/01 A3032 RMK AO2 SLP270 T00610011 58040=
201612211953 METAR KPAE 211953Z 13007KT 10SM SCT031 07/02 A3036 RMK AO2 SLP286 T00670017=
201612211853 METAR KPAE 211853Z VRB03KT 10SM SCT031 05/02 A3041 RMK AO2 SLP301 T00500017=
201612211823 SPECI KPAE 211823Z VRB03KT 10SM SCT031 04/01 A3042 RMK AO2 T00440011=
201612211800 SPECI KPAE 211800Z 08006KT 10SM OVC028 04/02 A3043 RMK AO2 T00440017=
201612211753 METAR KPAE 211753Z 08007KT 10SM FEW030 04/01 A3044 RMK AO2 SLP311 T00390011 10039 20006 58008=
201612211653 METAR KPAE 211653Z 08006KT 10SM OVC030 03/02 A3045 RMK AO2 SLP315 T00280017=
201612211553 METAR KPAE 211553Z 08004KT 9SM FEW017 OVC028 03/02 A3046 RMK AO2 SLP319 T00280017=
201612211453 METAR KPAE 211453Z 00000KT 9SM BKN024 02/01 A3046 RMK AO2 SLP319 T00170006 56004=
201612211448 SPECI KPAE 211448Z 16003KT 9SM BKN024 01/01 A3046 RMK AO2=
201612211414 SPECI KPAE 211414Z AUTO 12005KT 9SM SCT022 04/02 A3045 RMK AO2 T00390017=
201612211353 METAR KPAE 211353Z AUTO 12007KT 9SM BKN022 04/02 A3046 RMK AO2 SLP318 T00390017=
201612211253 METAR KPAE 211253Z AUTO 12009KT 9SM FEW020 04/02 A3047 RMK AO2 SLP323 T00390017=
201612211153 METAR KPAE 211153Z AUTO 12005KT 9SM CLR 04/02 A3048 RMK AO2 SLP324 70009 T00390017 10056 20033 50000=
201612211053 METAR KPAE 211053Z AUTO 12005KT 9SM OVC043 04/02 A3050 RMK AO2 SLP332 T00440022=
201612210953 METAR KPAE 210953Z AUTO 12009KT 9SM OVC038 04/02 A3049 RMK AO2 SLP328 T00440022=
201612210853 METAR KPAE 210853Z AUTO 13008KT 9SM CLR 04/02 A3048 RMK AO2 SLP324 T00440022 51006=
201612210753 METAR KPAE 210753Z AUTO 13009KT 9SM CLR 04/03 A3047 RMK AO2 SLP323 T00440028 400890033=
201612210653 METAR KPAE 210653Z AUTO 13003KT 9SM FEW038 04/02 A3048 RMK AO2 SLP325 T00390022=
201612210553 METAR KPAE 210553Z AUTO 12004KT 9SM CLR 06/03 A3046 RMK AO2 SLP318 T00560028 10078 20050 51017=
201612210453 METAR KPAE 210453Z 12006KT 9SM FEW036 BKN046 06/03 A3044 RMK AO2 SLP311 T00560028=
201612210353 METAR KPAE 210353Z 12007KT 10SM BKN044 BKN065 06/03 A3043 RMK AO2 SLP308 T00610033=
201612210253 METAR KPAE 210253Z 13007KT 10SM BKN045 OVC080 07/03 A3041 RMK AO2 SLP300 T00670028 51026=
201612210153 METAR KPAE 210153Z 14004KT 10SM OVC050 06/03 A3038 RMK AO2 SLP292 T00610028=
201612210053 METAR KPAE 210053Z 16006KT 10SM BKN060 07/02 A3036 RMK AO2 SLP283 T00720017=
201612202353 METAR KPAE 202353Z 17009KT 10SM BKN070 08/02 A3033 RMK AO2 SLP274 T00780017 10089 20061 53033=
201612202253 METAR KPAE 202253Z 16012KT 10SM CLR 08/02 A3028 RMK AO2 SLP258 T00780017=
201612202153 METAR KPAE 202153Z 14010KT 10SM SCT070 08/02 A3025 RMK AO2 SLP246 T00830017=
201612202053 METAR KPAE 202053Z 13009KT 10SM BKN080 08/02 A3023 RMK AO2 SLP241 T00830017 53032=
201612201953 METAR KPAE 201953Z 18005KT 10SM BKN085 07/01 A3020 RMK AO2 SLP231 T00720011=
201612201853 METAR KPAE 201853Z 15006KT 10SM CLR 07/02 A3016 RMK AO2 SLP216 T00720022=
201612201753 METAR KPAE 201753Z 22015G24KT 10SM SCT030 07/01 A3014 RMK AO2 SLP209 60009 T00670011 10089 20050 51059=
201612201653 METAR KPAE 201653Z 18004KT 10SM CLR 05/03 A3010 RMK AO2 PRESRR SLP197 T00500033=
201612201553 METAR KPAE 201553Z 19004KT 10SM FEW018 SCT032 BKN060 06/05 A3002 RMK AO2 RAE52 SLP167 P0006 T00610050=
201612201535 SPECI KPAE 201535Z VRB03KT 2 1/2SM RA BR SCT018 BKN027 OVC036 07/06 A3001 RMK AO2 PRESRR P0006 T00670056=
201612201511 SPECI KPAE 201511Z 20003KT 5SM -RA BR FEW018 BKN029 OVC033 07/06 A2998 RMK AO2 P0001 T00670061=
201612201504 SPECI KPAE 201504Z 20003KT 6SM -RA BR FEW018 SCT026 OVC034 07/06 A2998 RMK AO2 PRESRR P0001 T00670061=
201612201453 METAR KPAE 201453Z 25003KT 7SM -RA FEW017 BKN028 OVC034 07/06 A2996 RMK AO2 RAB11 PRESRR SLP148 P0003 60003 T00720056 53051=
201612201400 SPECI KPAE 201400Z AUTO 20009KT 10SM FEW012 BKN018 OVC023 08/07 A2991 RMK AO2 PRESRR T00780067=
201612201353 METAR KPAE 201353Z AUTO 22006KT 10SM BKN012 BKN018 OVC023 08/07 A2990 RMK AO2 PK WND 19026/1310 PRESRR SLP129 T00780067=
201612201327 SPECI KPAE 201327Z AUTO 19013G22KT 10SM OVC012 08/07 A2987 RMK AO2 PK WND 19026/1310 T00830072=
201612201253 METAR KPAE 201253Z AUTO 18015G29KT 10SM OVC008 08/08 A2982 RMK AO2 PK WND 17029/1248 CIG 005V010 PRESRR SLP099 T00830078=
201612201205 SPECI KPAE 201205Z AUTO 15018G26KT 10SM OVC005 08/07 A2981 RMK AO2 PK WND 14026/1200 CIG 003V009 T00830072=
201612201153 METAR KPAE 201153Z AUTO 15014KT 10SM OVC003 08/07 A2981 RMK AO2 CIG 003V006 SLP097 60015 70029 T00780072 10078 20044 56023=
201612201106 SPECI KPAE 201106Z AUTO 13013G23KT 6SM BR OVC004 07/07 A2984 RMK AO2 CIG 003V008 T00670067=
201612201053 METAR KPAE 201053Z AUTO 14014G22KT 7SM OVC006 07/07 A2984 RMK AO2 PK WND 12026/1018 RAE30 CIG 004V009 SLP106 P0000 T00720067=
201612201036 SPECI KPAE 201036Z AUTO 13016G21KT 7SM BKN008 OVC012 07/06 A2982 RMK AO2 PK WND 12026/1018 RAE30 CIG 004V010 P0000 T00670061=
201612201011 SPECI KPAE 201011Z AUTO 13019G25KT 4SM -RA BR SCT005 OVC012 07/06 A2984 RMK AO2 P0000 T00670061=
201612200953 METAR KPAE 200953Z AUTO 12008KT 3SM -RA BR BKN005 OVC014 06/06 A2985 RMK AO2 CIG 002V009 SLP111 P0000 T00610056=
201612200915 SPECI KPAE 200915Z AUTO 12008KT 4SM -RA BR BKN002 OVC016 06/05 A2987 RMK AO2 P0000 T00560050=
201612200853 METAR KPAE 200853Z AUTO 12007KT 2 1/2SM -RA BR BKN002 BKN013 OVC018 05/05 A2988 RMK AO2 SLP121 P0001 60015 T00500050 56042=
201612200845 SPECI KPAE 200845Z AUTO 12005KT 2 1/2SM -RA BR BKN002 BKN013 OVC018 05/05 A2988 RMK AO2 P0001 T00500050=
201612200830 SPECI KPAE 200830Z AUTO 11008KT 3SM -RA BR BKN003 OVC016 05/04 A2989 RMK AO2 P0000 T00500044=
201612200753 METAR KPAE 200753Z AUTO 12007KT 3SM -RA BR FEW004 BKN009 OVC012 04/04 A2992 RMK AO2 SLP135 P0004 T00440044 400560017=
201612200727 SPECI KPAE 200727Z AUTO 09008KT 6SM -RA BR FEW003 BKN014 OVC040 04/04 A2993 RMK AO2 P0002 T00440039=
201612200653 METAR KPAE 200653Z AUTO 07011KT 3SM RA BR SCT015 BKN023 OVC027 04/04 A2995 RMK AO2 SLP147 P0010 T00440039=
201612200615 SPECI KPAE 200615Z AUTO 09010G17KT 4SM RA BR BKN025 OVC034 04/04 A2999 RMK AO2 P0003 T00440039=
201612200553 METAR KPAE 200553Z AUTO 07011KT 6SM -RA BR SCT029 OVC036 04/04 A3000 RMK AO2 SLP164 P0008 60010 T00440039 10056 20044 58057=
201612200453 METAR KPAE 200453Z AUTO 08005KT 4SM -RA BR SCT025 OVC034 05/04 A3009 RMK AO2 RAB34 SLP194 P0002 T00500044=
201612200400 SPECI KPAE 200400Z 06007KT 6SM BR FEW009 SCT015 OVC022 06/05 A3012 RMK AO2 PRESFR T00560050=
201612200353 METAR KPAE 200353Z 08006KT 7SM BKN006 OVC009 06/05 A3014 RMK AO2 RAB30E42 PRESFR SLP209 P0000 T00560050=
201612200253 METAR KPAE 200253Z 12007KT 6SM BR BKN006 OVC009 06/05 A3018 RMK AO2 CIG 004V008 SLP223 T00560050 58016=
201612200153 METAR KPAE 200153Z 13008KT 8SM OVC006 06/04 A3019 RMK AO2 CIG 004V010 SLP230 T00560044=
201612200100 SPECI KPAE 200100Z 11004KT 7SM OVC005 06/05 A3022 RMK AO2 CIG 003V008 T00560050=
201612200053 METAR KPAE 200053Z 12005KT 1 1/2SM BR OVC004 06/05 A3022 RMK AO2 CIG 003V008 SLP239 T00560050=
201612200050 SPECI KPAE 200050Z 11005KT 1 1/2SM BR OVC004 06/05 A3022 RMK AO2 CIG 003V008=
201612192353 METAR KPAE 192353Z 15003KT 1 1/2SM BR BKN009 BKN021 OVC027 05/05 A3022 RMK AO2 SLP239 T00500050 10056 20039 53001=
201612192343 SPECI KPAE 192343Z 15004KT 2SM BR BKN006 OVC027 06/05 A3022 RMK AO2 T00560050=
201612192332 SPECI KPAE 192332Z 15007KT 3SM BR SCT006 OVC027 05/05 A3021 RMK AO2 T00500050=
201612192253 METAR KPAE 192253Z 15005KT 10SM BKN006 OVC033 06/04 A3021 RMK AO2 SLP235 T00560044=
201612192153 METAR KPAE 192153Z 16010KT 10SM BKN006 OVC033 06/04 A3020 RMK AO2 SLP231 T00560044=
201612192053 METAR KPAE 192053Z 18006KT 10SM BKN006 OVC027 05/04 A3022 RMK AO2 SLP237 T00500044 53016=
201612192006 SPECI KPAE 192006Z 18008KT 10SM OVC005 04/04 A3020 RMK AO2 T00440044=
201612191953 METAR KPAE 191953Z 16008KT 10SM OVC004 04/04 A3019 RMK AO2 SLP228 T00440039=
201612191858 SPECI KPAE 191858Z 14009KT 2SM BR OVC004 04/03 A3017 RMK AO2 T00390033=
201612191853 METAR KPAE 191853Z 15010KT 8SM OVC004 04/03 A3017 RMK AO2 SLP222 T00390033=
201612191753 METAR KPAE 191753Z 16008KT 7SM OVC006 04/03 A3015 RMK AO2 SLP213 60004 T00390028 10039 20017 53040=
201612191653 METAR KPAE 191653Z 17010KT 10SM OVC007 03/03 A3010 RMK AO2 PK WND 16034/1601 SLP199 T00330028=
201612191617 SPECI KPAE 191617Z 16019G28KT 10SM BKN008 BKN018 03/02 A3004 RMK AO2 PK WND 16034/1601 CIG 005V011 T00330022=
201612191611 SPECI KPAE 191611Z 16023G28KT 10SM SCT008 BKN020 03/02 A3003 RMK AO2 PK WND 16034/1601 T00280022=
201612191553 METAR KPAE 191553Z 15020G29KT 10SM SCT007 SCT012 BKN080 03/02 A3002 RMK AO2 PK WND 14031/1513 SLP169 T00280017=
201612191500 SPECI KPAE 191500Z 15021G29KT 10SM FEW007 BKN044 OVC060 02/02 A3002 RMK AO2 PK WND 14029/1500 T00220017=
201612191453 METAR KPAE 191453Z 15020G28KT 10SM BKN007 BKN011 OVC060 02/01 A3003 RMK AO2 PK WND 15032/1432 RAE31UPB12E14B31E45 SLP172 P0001 60004 T00220011 56015=
201612191442 SPECI KPAE 191442Z AUTO 14022G28KT 10SM UP SCT007 BKN011 OVC060 02/02 A3004 RMK AO2 PK WND 15032/1432 RAE31UPB12E14B31 P0001 T00220017=
201612191401 SPECI KPAE 191401Z AUTO 14020G27KT 10SM -RA BKN009 OVC065 02/01 A3004 RMK AO2 PK WND 13027/1401 P0000 T00220011=
201612191353 METAR KPAE 191353Z AUTO 14018G26KT 10SM -RA SCT008 BKN011 OVC065 02/01 A3003 RMK AO2 PK WND 14031/1310 SLP174 P0001 T00170011=
201612191338 SPECI KPAE 191338Z AUTO 14018G28KT 10SM -RA SCT008 BKN012 OVC070 02/01 A3004 RMK AO2 PK WND 14031/1310 P0001 T00170011=
201612191253 METAR KPAE 191253Z AUTO 14020G27KT 8SM -RA BKN009 OVC016 02/01 A3006 RMK AO2 PK WND 13031/1203 SLP183 P0002 T00220011=
201612191244 SPECI KPAE 191244Z AUTO 14019G30KT 9SM -RA BKN009 OVC016 02/01 A3005 RMK AO2 PK WND 13031/1203 P0002 T00220011=
201612191230 SPECI KPAE 191230Z AUTO 13019G26KT 8SM -RA SCT008 OVC015 02/02 A3006 RMK AO2 PK WND 13031/1203 P0001 T00220017=
201612191226 SPECI KPAE 191226Z AUTO 14018G26KT 8SM -RA BKN008 OVC015 03/02 A3006 RMK AO2 PK WND 13031/1203 P0001 T00280017=
201612191219 SPECI KPAE 191219Z AUTO 14019G31KT 8SM -RA SCT010 OVC015 03/02 A3006 RMK AO2 PK WND 13031/1203 P0001 T00280017=
201612191212 SPECI KPAE 191212Z AUTO 14021G31KT 9SM -RA FEW008 BKN013 OVC018 03/02 A3006 RMK AO2 PK WND 13031/1203 P0001 T00280017=
201612191205 SPECI KPAE 191205Z AUTO 14020G31KT 9SM -RA SCT010 OVC016 03/02 A3006 RMK AO2 PK WND 13031/1203 P0001 T00280017=
201612191153 METAR KPAE 191153Z AUTO 13019G29KT 7SM -RA BKN013 BKN019 OVC028 03/02 A3007 RMK AO2 PK WND 15030/1130 RAB1055 SLP187 P0000 60000 T00280017 10044 20028 58020=
201612191053 METAR KPAE 191053Z AUTO 15015G27KT 10SM BKN024 OVC070 04/00 A3010 RMK AO2 PK WND 13029/1012 RAB02E11B42E53 SLP199 P0000 T00390000=
201612191004 SPECI KPAE 191004Z AUTO 13017G27KT 10SM -RA BKN028 BKN036 OVC045 04/M02 A3011 RMK AO2 PK WND 13027/0956 RAB02 P0000 T00391017=
201612190953 METAR KPAE 190953Z AUTO 14018G29KT 10SM BKN030 BKN039 OVC060 04/M02 A3011 RMK AO2 PK WND 12029/0935 SLP200 T00391022=
201612190853 METAR KPAE 190853Z AUTO 13019G26KT 10SM BKN032 OVC110 03/M02 A3013 RMK AO2 PK WND 13027/0842 UPE14RAB14E15 PRESFR SLP207 P0000 60000 T00331022 58040=
201612190826 SPECI KPAE 190826Z AUTO 12016G24KT 10SM OVC030 03/M02 A3016 RMK AO2 UPE14RAB14E15 PRESFR P0000 T00331022=
201612190753 METAR KPAE 190753Z AUTO 13018KT 10SM UP BKN028 OVC036 03/M02 A3020 RMK AO2 UPB10E31B51SNB18E28 SLP231 P0000 T00281017 400331017=
201612190653 METAR KPAE 190653Z AUTO 14015KT 10SM BKN043 OVC050 03/M02 A3023 RMK AO2 SLP243 T00331017=
201612190553 METAR KPAE 190553Z AUTO 13015KT 10SM OVC110 03/M02 A3025 RMK AO2 SLP249 T00281017 10028 20022 56031=
201612190453 METAR KPAE 190453Z AUTO 13014KT 10SM SCT120 02/M02 A3027 RMK AO2 SLP258 T00221017=
201612190353 METAR KPAE 190353Z 13016KT 10SM SCT050 BKN120 03/M02 A3032 RMK AO2 SLP272 T00281017=
201612190253 METAR KPAE 190253Z 13012KT 10SM OVC110 03/M02 A3034 RMK AO2 SLP281 T00281022 56018=
201612190153 METAR KPAE 190153Z 12010KT 10SM FEW039 03/M02 A3036 RMK AO2 SLP287 T00281022=
201612190053 METAR KPAE 190053Z 12010KT 10SM OVC037 03/M03 A3037 RMK AO2 SLP292 T00281028=
201612182353 METAR KPAE 182353Z VRB04KT 10SM OVC034 02/M03 A3040 RMK AO2 SLP300 T00221033 10028 20006 58023=
201612182253 METAR KPAE 182253Z 08005KT 10SM OVC031 02/M03 A3042 RMK AO2 SLP309 T00221028=
201612182207 SPECI KPAE 182207Z VRB03KT 10SM OVC030 02/M02 A3045 RMK AO2 T00221022=
201612182153 METAR KPAE 182153Z 07005KT 10SM OVC029 02/M02 A3046 RMK AO2 SLP319 T00221022=
201612182053 METAR KPAE 182053Z 13008KT 10SM OVC031 03/M03 A3047 RMK AO2 SLP323 T00281033 58012=
201612181953 METAR KPAE 181953Z 13009KT 10SM FEW048 03/M03 A3047 RMK AO2 SLP326 T00281028=
201612181853 METAR KPAE 181853Z 08006KT 10SM FEW060 02/M03 A3051 RMK AO2 SLP337 T00171028=
201612181753 METAR KPAE 181753Z VRB03KT 10SM FEW030 OVC070 01/M03 A3050 RMK AO2 SLP336 T00061033 10006 21011 55002=
201612181653 METAR KPAE 181653Z 13006KT 10SM FEW046 OVC060 M01/M04 A3050 RMK AO2 SLP336 T10061039=
201612181553 METAR KPAE 181553Z VRB03KT 10SM FEW023 OVC050 M01/M04 A3050 RMK AO2 SLP336 T10061039=
201612181453 METAR KPAE 181453Z VRB03KT 10SM OVC050 M01/M04 A3051 RMK AO2 SLP339 T10111039 50000=
201612181353 METAR KPAE 181353Z 09004KT 10SM OVC050 M01/M04 A3051 RMK AO2 SLP339 T10111039=
201612181253 METAR KPAE 181253Z 12006KT 9SM FEW014 BKN049 OVC060 M01/M04 A3051 RMK AO2 SLP339 T10111044=
201612181248 SPECI KPAE 181248Z VRB03KT 8SM SCT014 BKN049 OVC060 M01/M04 A3051 RMK AO2=
201612181238 SPECI KPAE 181238Z 00000KT 8SM BKN014 OVC049 M01/M04 A3051 RMK AO2 T10111039=
201612181209 SPECI KPAE 181209Z 13004KT 10SM BKN016 OVC046 M01/M04 A3051 RMK AO2 T10111044=
201612181153 METAR KPAE 181153Z 12006KT 10SM FEW016 OVC046 M01/M04 A3051 RMK AO2 SLP338 T10111044 11011 21022 58006=
201612181053 METAR KPAE 181053Z VRB04KT 10SM OVC049 M01/M04 A3051 RMK AO2 SLP340 T10111044=
201612180953 METAR KPAE 180953Z 00000KT 10SM OVC060 M02/M04 A3052 RMK AO2 SLP343 T10171044=
201612180853 METAR KPAE 180853Z 13004KT 10SM OVC055 M02/M04 A3053 RMK AO2 SLP345 T10171044 51013=
201612180753 METAR KPAE 180753Z 09003KT 10SM OVC055 M02/M04 A3052 RMK AO2 SLP342 T10171044 410111044=
201612180653 METAR KPAE 180653Z 00000KT 10SM OVC046 M02/M05 A3051 RMK AO2 SLP339 T10171050=
201612180553 METAR KPAE 180553Z 09005KT 10SM OVC049 M02/M05 A3049 RMK AO2 SLP333 T10221050 11011 21028 51010=
201612180453 METAR KPAE 180453Z 00000KT 10SM OVC042 M02/M06 A3048 RMK AO2 SLP331 T10221056=
201612180353 METAR KPAE 180353Z 00000KT 10SM BKN045 M02/M05 A3048 RMK AO2 SLP331 T10221050=
201612180253 METAR KPAE 180253Z 09003KT 10SM OVC044 M02/M05 A3046 RMK AO2 SLP323 T10171050 51008=
201612180153 METAR KPAE 180153Z 00000KT 10SM BKN044 M02/M06 A3045 RMK AO2 SLP320 T10171056=
201612180053 METAR KPAE 180053Z 00000KT 10SM OVC046 M01/M05 A3045 RMK AO2 SLP319 T10111050=
201612172353 METAR KPAE 172353Z 00000KT 10SM OVC047 M01/M06 A3044 RMK AO2 SLP315 60000 T10111056 11011 21033 53007=
201612172253 METAR KPAE 172253Z 00000KT 10SM BKN044 OVC055 M01/M05 A3041 RMK AO2 SLP307 T10111050=
201612172153 METAR KPAE 172153Z 08006KT 9SM OVC045 M02/M04 A3041 RMK AO2 SNE10 SLP304 P0000 T10221044=
201612172108 SPECI KPAE 172108Z 07006KT 5SM -SN BR OVC046 M02/M04 A3041 RMK AO2 P0000 T10221044=
201612172053 METAR KPAE 172053Z 07005KT 2SM -SN BR FEW037 OVC048 M02/M04 A3042 RMK AO2 SLP308 P0000 60000 T10221044 51010=
201612172035 SPECI KPAE 172035Z 08005KT 1 3/4SM -SN FEW039 OVC048 M02/M05 A3042 RMK AO2 P0000 T10221050=
201612172005 SPECI KPAE 172005Z 07006KT 4SM -SN FEW034 OVC050 M02/M05 A3042 RMK AO2 P0000 T10221050=
201612171953 METAR KPAE 171953Z 08006KT 2SM -SN BR SCT029 BKN038 OVC050 M03/M05 A3041 RMK AO2 SLP307 P0000 T10281050=
201612171942 SPECI KPAE 171942Z 08005KT 1SM R16R/3500VP6000FT -SN BR BKN026 OVC034 M03/M05 A3041 RMK AO2 P0000 T10281050=
201612171927 SPECI KPAE 171927Z 07004KT 2SM -SN BKN026 BKN036 OVC050 M03/M05 A3042 RMK AO2 P0000 T10281050=
201612171853 METAR KPAE 171853Z 08008KT 2SM -SN SCT023 SCT034 OVC050 M03/M06 A3042 RMK AO2 SNB07 SLP308 P0000 T10331061=
201612171816 SPECI KPAE 171816Z 08005KT 1 3/4SM -SN BKN019 OVC044 M03/M06 A3041 RMK AO2 SNB07 P0000 T10281061=
201612171753 METAR KPAE 171753Z 09004KT 10SM OVC045 M03/M06 A3038 RMK AO2 SNE31 SLP297 P0000 60000 T10281061 11028 21044 51019=
201612171736 SPECI KPAE 171736Z 09004KT 6SM HZ OVC046 M03/M06 A3038 RMK AO2 SNE31 P0000 T10331061=
201612171700 SPECI KPAE 171700Z 08007KT 2SM -SN OVC046 M03/M07 A3037 RMK AO2 P0000 T10331067=
201612171653 METAR KPAE 171653Z 08007KT 3SM -SN OVC046 M03/M07 A3037 RMK AO2 SNB32 SLP294 P0000 T10331067=
201612171553 METAR KPAE 171553Z VRB04KT 10SM BKN050 OVC060 M04/M07 A3034 RMK AO2 SLP283 T10391072=
201612171453 METAR KPAE 171453Z VRB04KT 10SM BKN050 BKN060 OVC070 M04/M07 A3033 RMK AO2 SLP278 T10391072 53008=
201612171353 METAR KPAE 171353Z AUTO VRB04KT 10SM OVC070 M04/M08 A3032 RMK AO2 SLP274 T10391078=
201612171253 METAR KPAE 171253Z AUTO 12004KT 10SM OVC065 M04/M07 A3031 RMK AO2 SLP271 T10391072=
201612171153 METAR KPAE 171153Z AUTO 09003KT 10SM OVC070 M04/M07 A3030 RMK AO2 SLP270 T10441072 11033 21044 50007=
201612171053 METAR KPAE 171053Z AUTO 09005KT 10SM OVC070 M03/M07 A3031 RMK AO2 SLP272 T10331072=
201612170953 METAR KPAE 170953Z AUTO 00000KT 10SM BKN065 M04/M08 A3030 RMK AO2 SLP268 T10391078=
201612170853 METAR KPAE 170853Z AUTO 00000KT 10SM CLR M03/M10 A3028 RMK AO2 SLP263 T10331100 51009=
201612170753 METAR KPAE 170753Z AUTO 08004KT 10SM CLR M03/M11 A3027 RMK AO2 SLP260 T10331106 410061044=
201612170653 METAR KPAE 170653Z AUTO 10003KT 10SM CLR M03/M11 A3027 RMK AO2 SLP259 T10331106=
201612170553 METAR KPAE 170553Z AUTO 09003KT 10SM CLR M03/M11 A3025 RMK AO2 SLP253 T10331106 11017 21044 53010=
201612170453 METAR KPAE 170453Z 00000KT 10SM CLR M04/M09 A3024 RMK AO2 SLP248 T10391089=
201612170353 METAR KPAE 170353Z 00000KT 10SM CLR M04/M09 A3023 RMK AO2 SLP246 T10391094=
201612170253 METAR KPAE 170253Z 00000KT 10SM CLR M03/M09 A3022 RMK AO2 SLP242 T10281094 51016=
201612170153 METAR KPAE 170153Z 00000KT 10SM CLR M03/M10 A3022 RMK AO2 SLP240 T10281100=
201612170053 METAR KPAE 170053Z 00000KT 10SM CLR M02/M11 A3020 RMK AO2 SLP234 T10221106=
201612162353 METAR KPAE 162353Z AUTO 28003KT 10SM CLR M02/M11 A3017 RMK AO2 SLP226 T10171106 11006 21022 53019=
201612162253 METAR KPAE 162253Z 29005KT 10SM CLR M01/M10 A3015 RMK AO2 SLP216 T10111100=
201612162153 METAR KPAE 162153Z 31007KT 10SM CLR M01/M10 A3013 RMK AO2 SLP209 T10061100=
201612162053 METAR KPAE 162053Z 32009KT 10SM CLR M01/M10 A3012 RMK AO2 SLP205 T10111100 51017=
201612161953 METAR KPAE 161953Z 33011G16KT 10SM CLR M02/M09 A3011 RMK AO2 SLP202 T10171094=
201612161853 METAR KPAE 161853Z 32008KT 10SM CLR M02/M09 A3010 RMK AO2 SLP200 T10171089=
201612161753 METAR KPAE 161753Z 31008G16KT 10SM CLR M02/M08 A3006 RMK AO2 SLP188 T10221083 11022 21039 53028=
201612161653 METAR KPAE 161653Z 31007KT 10SM CLR M03/M08 A3003 RMK AO2 SLP177 T10281083=
201612161553 METAR KPAE 161553Z 33007KT 10SM CLR M04/M08 A3000 RMK AO2 SLP168 T10391078=
201612161453 METAR KPAE 161453Z 31006KT 10SM CLR M03/M07 A2998 RMK AO2 SLP158 T10331067 53010=
201612161353 METAR KPAE 161353Z AUTO 31006KT 10SM FEW018 SCT033 M03/M06 A2996 RMK AO2 SLP151 T10281061=
201612161253 METAR KPAE 161253Z AUTO 30007KT 10SM CLR M03/M06 A2995 RMK AO2 SLP148 T10281061=
201612161153 METAR KPAE 161153Z AUTO 30005KT 10SM CLR M03/M06 A2995 RMK AO2 SLP148 T10281061 11006 21028 51011=
201612161053 METAR KPAE 161053Z AUTO 00000KT 10SM CLR M02/M06 A2994 RMK AO2 SLP146 T10221061=
201612160953 METAR KPAE 160953Z AUTO 31004KT 10SM CLR M03/M06 A2992 RMK AO2 SLP139 T10281056=
201612160853 METAR KPAE 160853Z AUTO 30003KT 10SM CLR M02/M05 A2991 RMK AO2 SLP136 T10221050 52002=
201612160753 METAR KPAE 160753Z AUTO 32005KT 10SM CLR M02/M04 A2991 RMK AO2 SLP135 T10171044 400111017=
201612160653 METAR KPAE 160653Z AUTO 31007KT 10SM OVC060 M01/M04 A2991 RMK AO2 SLP134 T10061044=
201612160553 METAR KPAE 160553Z AUTO 31005KT 10SM OVC060 M01/M04 A2991 RMK AO2 SLP133 T10061039 10006 21006 57001=
201612160453 METAR KPAE 160453Z 32006KT 10SM OVC055 M01/M04 A2991 RMK AO2 SLP133 T10061044=
201612160353 METAR KPAE 160353Z 32007KT 10SM FEW047 SCT060 OVC070 M01/M04 A2991 RMK AO2 SLP136 T10061044=
201612160253 METAR KPAE 160253Z 33005KT 10SM FEW060 OVC075 00/M04 A2991 RMK AO2 SLP134 T00001039 55000=
201612160153 METAR KPAE 160153Z 32005KT 10SM OVC070 00/M03 A2991 RMK AO2 SLP134 T00001033=
201612160053 METAR KPAE 160053Z 30004KT 10SM BKN060 OVC070 01/M03 A2991 RMK AO2 SLP134 T00061033=
201612152353 METAR KPAE 152353Z 31005KT 10SM OVC055 01/M03 A2991 RMK AO2 SLP134 T00061033 10011 20000 58000=
201612152253 METAR KPAE 152253Z 31004KT 10SM OVC050 01/M03 A2991 RMK AO2 SLP135 T00061028=
201612152153 METAR KPAE 152153Z 32003KT 10SM OVC035 01/M03 A2991 RMK AO2 SLP134 T00061033=
201612152053 METAR KPAE 152053Z 32005KT 10SM BKN050 OVC070 01/M04 A2991 RMK AO2 SLP134 T00061039 58001=
201612151953 METAR KPAE 151953Z 35003KT 10SM BKN050 OVC070 01/M03 A2992 RMK AO2 SLP136 T00061028=
201612151853 METAR KPAE 151853Z 34004KT 10SM OVC050 00/M03 A2992 RMK AO2 SLP139 T00001028=
201612151753 METAR KPAE 151753Z 32003KT 10SM BKN035 OVC049 00/M04 A2992 RMK AO2 SLP137 T00001039 10000 21011 53015=
201612151653 METAR KPAE 151653Z 00000KT 10SM OVC033 00/M04 A2990 RMK AO2 SLP130 T00001044=
201612151553 METAR KPAE 151553Z 00000KT 10SM FEW029 OVC035 M01/M04 A2988 RMK AO2 SLP126 T10111039=
201612151453 METAR KPAE 151453Z 34004KT 10SM OVC030 M01/M04 A2987 RMK AO2 SLP121 T10061039 53001=
201612151353 METAR KPAE 151353Z AUTO 31003KT 10SM SCT031 BKN055 OVC065 M01/M04 A2986 RMK AO2 SLP118 T10111039=
201612151253 METAR KPAE 151253Z AUTO 33003KT 10SM OVC055 M01/M04 A2986 RMK AO2 SLP117 T10061039=
201612151153 METAR KPAE 151153Z AUTO 34004KT 10SM OVC035 M01/M04 A2987 RMK AO2 SLP120 T10061039 11006 21011 50004=
201612151053 METAR KPAE 151053Z AUTO 34005KT 10SM OVC050 M01/M04 A2987 RMK AO2 SLP121 T10111044=
201612150953 METAR KPAE 150953Z AUTO 34005KT 10SM BKN055 OVC065 M01/M04 A2986 RMK AO2 SLP116 T10111039=
201612150853 METAR KPAE 150853Z AUTO 34004KT 10SM BKN050 OVC070 M01/M04 A2985 RMK AO2 SLP115 T10111044 50001=
201612150753 METAR KPAE 150753Z AUTO 34006KT 10SM OVC060 M01/M05 A2985 RMK AO2 SLP116 T10111050 400001028=
201612150653 METAR KPAE 150653Z AUTO 34006KT 10SM OVC060 M01/M05 A2985 RMK AO2 SLP115 T10111050=
201612150553 METAR KPAE 150553Z AUTO 34007KT 10SM FEW060 BKN090 OVC110 M01/M05 A2985 RMK AO2 SLP115 T10111050 11006 21011 55007=
201612150453 METAR KPAE 150453Z AUTO 34005KT 10SM BKN120 M01/M04 A2984 RMK AO2 SLP112 T10061039=
201612150353 METAR KPAE 150353Z 33005KT 10SM FEW090 M01/M04 A2985 RMK AO2 SLP115 T10061039=
201612150253 METAR KPAE 150253Z 34007KT 10SM BKN080 M01/M04 A2987 RMK AO2 SLP122 T10061044 56017=
201612150153 METAR KPAE 150153Z 32007KT 10SM BKN080 M01/M04 A2988 RMK AO2 SLP125 T10061044=
201612150053 METAR KPAE 150053Z 32010KT 10SM CLR M01/M04 A2990 RMK AO2 SLP131 T10061039=
201612142353 METAR KPAE 142353Z 32008KT 10SM CLR M01/M04 A2992 RMK AO2 SLP139 T10061039 10000 21011 58032=
201612142253 METAR KPAE 142253Z 32009KT 10SM CLR 00/M04 A2996 RMK AO2 SLP150 T00001039=
201612142153 METAR KPAE 142153Z 32009KT 10SM CLR 00/M04 A2999 RMK AO2 SLP163 T00001039=
201612142053 METAR KPAE 142053Z 33005KT 10SM CLR 00/M04 A3002 RMK AO2 SLP172 T00001039 58036=
201612141953 METAR KPAE 141953Z 32006KT 10SM CLR 00/M04 A3008 RMK AO2 SLP190 T00001039=
201612141853 METAR KPAE 141853Z 33005KT 10SM CLR M01/M04 A3011 RMK AO2 SLP202 T10111044=
201612141753 METAR KPAE 141753Z 33006KT 10SM CLR M01/M04 A3013 RMK AO2 SLP209 T10111039 11011 21028 56016=
201612141653 METAR KPAE 141653Z 35005KT 10SM CLR M02/M04 A3014 RMK AO2 SLP213 T10221044=
201612141553 METAR KPAE 141553Z 34006KT 10SM CLR M03/M04 A3015 RMK AO2 SLP217 T10281039=
201612141453 METAR KPAE 141453Z 35006KT 10SM CLR M02/M03 A3018 RMK AO2 SLP225 T10221033 58016=
201612141353 METAR KPAE 141353Z AUTO 34004KT 10SM CLR M02/M03 A3019 RMK AO2 SLP230 T10221033=
201612141253 METAR KPAE 141253Z AUTO 34004KT 10SM CLR M03/M03 A3021 RMK AO2 SLP238 T10281033=
201612141153 METAR KPAE 141153Z AUTO 35005KT 10SM CLR M02/M03 A3022 RMK AO2 SLP242 T10221033 11006 21022 58017=
201612141053 METAR KPAE 141053Z AUTO 36005KT 10SM CLR M02/M03 A3025 RMK AO2 SLP248 T10171033=
201612140953 METAR KPAE 140953Z AUTO 31005KT 10SM CLR M02/M03 A3026 RMK AO2 SLP251 T10171033=
201612140853 METAR KPAE 140853Z AUTO 32006KT 10SM CLR M01/M03 A3028 RMK AO2 SLP258 T10111028 51001=
201612140810 SPECI KPAE 140810Z AUTO 33005KT 10SM SCT005 M01/M02 A3027 RMK AO2 T10111017=
201612140753 METAR KPAE 140753Z AUTO 33004KT 10SM BKN006 M01/M02 A3027 RMK AO2 SLP258 T10061017 400281011=
201612140742 SPECI KPAE 140742Z AUTO 33004KT 10SM BKN005 M01/M02 A3028 RMK AO2 T10061017=
201612140730 SPECI KPAE 140730Z AUTO 33005KT 10SM SCT005 M01/M02 A3028 RMK AO2 T10061017=
201612140653 METAR KPAE 140653Z AUTO 32004KT 10SM CLR M01/M02 A3028 RMK AO2 SLP259 T10061017=
201612140632 SPECI KPAE 140632Z AUTO 32004KT 10SM FEW007 M01/M02 A3027 RMK AO2 T10061017=
201612140553 METAR KPAE 140553Z AUTO 33003KT 10SM CLR M01/M02 A3027 RMK AO2 SLP257 T10111022 10011 21011 56003=
201612140502 SPECI KPAE 140502Z AUTO 34004KT 10SM SCT015 00/M02 A3027 RMK AO2 T00001022=
201612140453 METAR KPAE 140453Z 33003KT 10SM BKN015 00/M02 A3027 RMK AO2 SLP257 T00001017=
201612140353 METAR KPAE 140353Z 33005KT 10SM OVC015 01/M02 A3027 RMK AO2 SLP257 T00061022=
201612140329 SPECI KPAE 140329Z 00000KT 10SM OVC014 01/M02 A3028 RMK AO2 T00061022=
201612140253 METAR KPAE 140253Z 31003KT 10SM SCT010 BKN017 01/M02 A3028 RMK AO2 SLP260 T00061022 55000=
201612140153 METAR KPAE 140153Z 00000KT 10SM OVC017 00/M03 A3028 RMK AO2 SLP260 T00001028=
201612140122 SPECI KPAE 140122Z 35004KT 10SM OVC015 01/M02 A3028 RMK AO2 T00061017=
201612140053 METAR KPAE 140053Z 32003KT 10SM BKN014 01/M02 A3028 RMK AO2 SLP259 T00061017=
201612140044 SPECI KPAE 140044Z 00000KT 10SM BKN014 01/M02 A3028 RMK AO2 T00061017=
201612140000 METAR KPAE NIL=
201612132353 METAR KPAE 132353Z 32006KT 10SM CLR 01/M02 A3028 RMK AO2 SLP260 T00111017 10028 20006 55000=
201612132300 METAR KPAE NIL=
201612132253 METAR KPAE 132253Z 33005KT 10SM CLR 02/M01 A3028 RMK AO2 SLP259 T00171011=
201612132200 METAR KPAE NIL=
201612132153 METAR KPAE 132153Z 32005KT 10SM FEW011 02/M01 A3028 RMK AO2 SLP260 T00221011=
201612132100 METAR KPAE NIL=
201612132053 METAR KPAE 132053Z 31006KT 10SM BKN047 02/M01 A3028 RMK AO2 SLP261 T00171011 50000=
201612132031 SPECI KPAE 132031Z VRB05KT 10SM SCT021 02/M01 A3028 RMK AO2 T00221006=
201612131953 METAR KPAE 131953Z 30005KT 10SM OVC019 01/M01 A3029 RMK AO2 SLP262 T00111011=
201612131853 METAR KPAE 131853Z 31005KT 10SM R16R/3500VP6000FT BKN017 01/M01 A3029 RMK AO2 SLP264 T00061011=
201612131833 SPECI KPAE 131833Z 33009KT 10SM SCT024 01/M01 A3029 RMK AO2 T00111006=
201612131811 SPECI KPAE 131811Z 33008KT 10SM BKN024 OVC044 01/M01 A3028 RMK AO2 T00111006=
201612131753 METAR KPAE 131753Z 33005KT 10SM FEW026 BKN045 01/M01 A3028 RMK AO2 SLP261 60000 T00061011 10006 20000 53012=
201612131653 METAR KPAE 131653Z 31004KT 10SM BKN042 OVC050 00/M01 A3027 RMK AO2 SLP256 T00001011=
201612131553 METAR KPAE 131553Z 32007KT 10SM BKN042 00/M01 A3025 RMK AO2 SLP250 T00001011=
201612131453 METAR KPAE 131453Z 32006KT 10SM BKN023 OVC042 00/M01 A3025 RMK AO2 SNB10E21 SLP249 P0000 60000 T00001006 53003=
201612131420 SPECI KPAE 131420Z AUTO 30004KT 5SM -SN BR SCT004 OVC024 01/00 A3025 RMK AO2 SNB10 P0000 T00060000=
201612131409 SPECI KPAE 131409Z AUTO VRB03KT 6SM BR BKN005 BKN023 OVC039 01/00 A3025 RMK AO2 CIG 002V007 T00060000=
201612131353 METAR KPAE 131353Z AUTO 31003KT 5SM BR OVC003 01/01 A3024 RMK AO2 SLP248 T00060006=
201612131253 METAR KPAE 131253Z AUTO 33003KT 6SM BR BKN002 OVC022 01/01 A3024 RMK AO2 SLP245 T00060006=
201612131219 SPECI KPAE 131219Z AUTO 35006KT 6SM BR SCT001 OVC023 01/01 A3024 RMK AO2 T00060006=
201612131212 SPECI KPAE 131212Z AUTO 35006KT 2SM R16R/3500VP6000FT BR SCT001 OVC023 01/01 A3024 RMK AO2 T00060006=
201612131204 SPECI KPAE 131204Z AUTO 35005KT 1/2SM R16R/1400V5000FT FG BKN001 OVC023 01/01 A3024 RMK AO2 T00060006=
201612131151 METAR KPAE 131151Z AUTO 35005KT 1/4SM R16R/1400V2000FT FG VV001 01/01 A3024 RMK AO2 SLP247 70010 T00060006 10017 20006 58004=
201612131150 SPECI KPAE 131150Z AUTO 35005KT 1/4SM R16R/1400V2000FT FG VV001 01/00 A3024 RMK AO2=
201612131144 SPECI KPAE 131144Z AUTO 34007KT 1/2SM R16R/1800VP6000FT FG VV001 01/00 A3024 RMK AO2 T00060000=
201612131137 SPECI KPAE 131137Z AUTO 33004KT 1 3/4SM BR BKN002 OVC038 01/01 A3024 RMK AO2 T00060006=
201612131114 SPECI KPAE 131114Z AUTO 33004KT 6SM BR BKN004 OVC039 01/00 A3025 RMK AO2 T00060000=
201612131053 METAR KPAE 131053Z AUTO 34005KT 7SM FEW003 OVC039 01/00 A3025 RMK AO2 SLP251 T00060000=
201612131023 SPECI KPAE 131023Z AUTO 33003KT 6SM BR SCT003 OVC041 01/01 A3026 RMK AO2 T00060006=
201612131016 SPECI KPAE 131016Z AUTO 33004KT 6SM BR BKN003 OVC042 01/01 A3026 RMK AO2 T00060006=
201612130953 METAR KPAE 130953Z AUTO 33005KT 6SM BR FEW005 OVC042 01/01 A3025 RMK AO2 SLP248 T00110006=
201612130902 SPECI KPAE 130902Z AUTO 34004KT 8SM FEW005 OVC044 01/01 A3025 RMK AO2 T00110006=
201612130853 METAR KPAE 130853Z AUTO 35004KT 10SM OVC044 01/01 A3025 RMK AO2 SLP250 T00110006 58001=
201612130753 METAR KPAE 130753Z AUTO 34003KT 6SM BR OVC042 01/01 A3026 RMK AO2 SLP253 T00110011 400440011=
201612130720 SPECI KPAE 130720Z AUTO 34003KT 6SM BR FEW018 BKN048 01/01 A3027 RMK AO2 T00110006=
201612130711 SPECI KPAE 130711Z AUTO 34003KT 6SM BR FEW003 BKN018 BKN048 01/01 A3027 RMK AO2 T00110011=
201612130653 METAR KPAE 130653Z AUTO 34004KT 7SM OVC016 02/01 A3027 RMK AO2 SLP254 T00170011=
201612130605 SPECI KPAE 130605Z AUTO 32003KT 10SM SCT006 OVC015 02/01 A3026 RMK AO2 T00170011=
201612130553 METAR KPAE 130553Z AUTO 30003KT 10SM BKN006 OVC010 02/01 A3026 RMK AO2 CIG 004V008 SLP250 T00170011 10022 20017 53005=
201612130453 METAR KPAE 130453Z AUTO 00000KT 10SM OVC005 02/01 A3025 RMK AO2 CIG 003V008 SLP248 T00170011=
201612130353 METAR KPAE 130353Z 35004KT 10SM OVC004 02/01 A3024 RMK AO2 SLP244 T00170011=
201612130337 SPECI KPAE 130337Z 00000KT 10SM OVC004 02/01 A3024 RMK AO2 T00170011=
201612130253 METAR KPAE 130253Z 29003KT 10SM OVC007 02/01 A3024 RMK AO2 SLP245 T00170011 51006=
201612130153 METAR KPAE 130153Z 30003KT 10SM OVC005 02/02 A3023 RMK AO2 CIG 004V007 SLP243 T00170017=
201612130103 SPECI KPAE 130103Z 32004KT 10SM OVC004 02/02 A3022 RMK AO2 CIG 002V009 T00170017=
201612130053 METAR KPAE 130053Z 32004KT 10SM OVC005 02/02 A3022 RMK AO2 CIG 002V009 SLP239 T00170017=
201612130002 SPECI KPAE 130002Z 30004KT 10SM OVC005 02/02 A3022 RMK AO2 CIG 002V009 T00220017=
201612122353 METAR KPAE 122353Z 30004KT 5SM BR OVC003 02/02 A3022 RMK AO2 SLP238 60009 T00220017 10039 20022 51015=
201612122341 SPECI KPAE 122341Z 31005KT 5SM BR OVC003 02/02 A3022 RMK AO2 T00220017=
201612122334 SPECI KPAE 122334Z 31004KT 2SM BR OVC003 02/02 A3022 RMK AO2 CIG 001V007 T00220017=
201612122253 METAR KPAE 122253Z 31005KT 2SM BR OVC001 02/02 A3021 RMK AO2 RAE07 SLP234 P0001 T00220022=
201612122153 METAR KPAE 122153Z 29005KT 4SM -RA BR OVC002 03/02 A3020 RMK AO2 RAE12B48 SLP230 P0000 T00280022=
201612122121 SPECI KPAE 122121Z 30007KT 3/4SM R16R/4500VP6000FT BR OVC002 03/03 A3018 RMK AO2 RAE12 P0000 T00280028=
201612122053 METAR KPAE 122053Z 32004KT 1 1/2SM -RA BR OVC002 03/03 A3017 RMK AO2 RAB21 SLP222 P0001 60008 T00330033 51015=
201612121953 METAR KPAE 121953Z 26005KT 1SM R16R/P6000FT BR OVC002 03/03 A3016 RMK AO2 RAE53 SLP218 P0003 T00330033=
201612121933 SPECI KPAE 121933Z 24004KT 1SM R16R/6000VP6000FT -RA BR OVC002 03/03 A3016 RMK AO2 P0002 T00330033=
201612121900 SPECI KPAE 121900Z 18005KT 1 1/2SM -RA BR BKN006 OVC013 04/03 A3016 RMK AO2 P0000 T00390033=
201612121853 METAR KPAE 121853Z 18005KT 1 1/2SM -RA BR BKN003 BKN013 OVC020 04/03 A3015 RMK AO2 SLP216 P0004 T00390033=
201612121836 SPECI KPAE 121836Z 16005KT 1 1/2SM -RA BR BKN003 BKN013 OVC020 04/03 A3015 RMK AO2 P0003 T00390033=
201612121816 SPECI KPAE 121816Z 15006KT 1 1/2SM -RA BR SCT007 BKN013 OVC021 04/03 A3014 RMK AO2 P0003 T00390033=
201612121753 METAR KPAE 121753Z 15007KT 1 1/2SM -RA BR OVC007 04/03 A3013 RMK AO2 RAB43 CIG 005V010 SLP207 P0001 60001 T00390033 10039 20033 53023=
201612121746 SPECI KPAE 121746Z 15008KT 1 3/4SM -RA BR OVC007 04/03 A3013 RMK AO2 RAB43 CIG 006V010 P0001 T00390028=
201612121653 METAR KPAE 121653Z 13007KT 8SM OVC006 04/03 A3010 RMK AO2 RAE04 SLP197 P0000 T00390028=
201612121553 METAR KPAE 121553Z 13012KT 10SM -RA OVC009 04/02 A3007 RMK AO2 SLP188 P0000 T00390022=
201612121453 METAR KPAE 121453Z AUTO 12008KT 10SM -RA OVC009 04/02 A3006 RMK AO2 RAB52 SLP184 P0000 60000 T00390022 53014=
201612121353 METAR KPAE 121353Z AUTO 12009KT 10SM OVC009 04/02 A3004 RMK AO2 SLP176 T00390022=
201612121253 METAR KPAE 121253Z AUTO 13010KT 10SM OVC009 04/02 A3003 RMK AO2 SLP174 T00390022=
201612121220 SPECI KPAE 121220Z AUTO 13011KT 10SM OVC009 04/02 A3002 RMK AO2 CIG 008V014 T00390022=
201612121153 METAR KPAE 121153Z AUTO 12009KT 10SM OVC012 04/02 A3002 RMK AO2 SLP168 70012 T00390022 10044 20039 51014=
201612121053 METAR KPAE 121053Z AUTO 13009KT 10SM OVC011 04/02 A3001 RMK AO2 SLP165 T00390022=
201612120953 METAR KPAE 120953Z AUTO 14010KT 10SM OVC011 04/02 A2999 RMK AO2 SLP158 T00440022=
201612120853 METAR KPAE 120853Z AUTO 14008KT 10SM OVC011 04/03 A2997 RMK AO2 SLP154 T00390028 50005=
201612120753 METAR KPAE 120753Z AUTO 15010KT 10SM OVC010 04/02 A2998 RMK AO2 SLP154 T00390022 400500039=
201612120700 SPECI KPAE 120700Z AUTO 14007KT 10SM BKN013 OVC020 04/03 A2998 RMK AO2 T00390028=
201612120653 METAR KPAE 120653Z AUTO 13008KT 10SM BKN015 OVC022 04/03 A2997 RMK AO2 SLP154 T00390028=
201612120637 SPECI KPAE 120637Z AUTO 14009KT 10SM BKN016 OVC022 04/03 A2997 RMK AO2 T00390028=
201612120553 METAR KPAE 120553Z AUTO 14008KT 10SM OVC012 04/03 A2996 RMK AO2 SLP149 60003 T00390028 10044 20039 51006=
201612120453 METAR KPAE 120453Z AUTO 15010KT 10SM OVC012 04/03 A2996 RMK AO2 RAE39 SLP149 P0001 T00390028=
201612120353 METAR KPAE 120353Z 16009KT 10SM -RA OVC011 04/03 A2995 RMK AO2 RAB16 SLP146 P0001 T00390028=
201612120253 METAR KPAE 120253Z 16011KT 10SM OVC010 04/03 A2994 RMK AO2 RAE0156B15E38 CIG 008V012 SLP143 P0000 60001 T00390028 53012=
201612120225 SPECI KPAE 120225Z 17009KT 10SM -RA OVC009 04/03 A2994 RMK AO2 RAE0156B15 CIG 008V015 P0000 T00390028=
201612120201 SPECI KPAE 120201Z 17008KT 10SM OVC013 04/03 A2993 RMK AO2 RAE0156 P0000 T00440033=
201612120153 METAR KPAE 120153Z 16008KT 10SM -RA OVC015 04/03 A2993 RMK AO2 RAB41 SLP138 P0000 T00440033=
201612120100 SPECI KPAE 120100Z 17011KT 10SM BKN010 OVC015 04/03 A2992 RMK AO2 T00390028=
201612120053 METAR KPAE 120053Z 16010KT 10SM OVC015 04/03 A2992 RMK AO2 RAE46 SLP134 P0001 T00390028=
201612112353 METAR KPAE 112353Z 17009KT 10SM -RA OVC015 04/03 A2991 RMK AO2 RAB09 SLP130 P0001 60007 T00440033 10050 20039 51007=
201612112350 SPECI KPAE 112350Z 17010KT 10SM -RA OVC015 04/03 A2991 RMK AO2 RAB09 P0001=
201612112253 METAR KPAE 112253Z 18013KT 10SM OVC011 04/03 A2989 RMK AO2 RAE2154B16E45 SLP126 P0000 T00440033=
201612112153 METAR KPAE 112153Z 18014KT 10SM -RA OVC008 04/03 A2988 RMK AO2 SLP123 P0003 T00440033=
201612112053 METAR KPAE 112053Z 16013KT 10SM -RA OVC008 04/03 A2988 RMK AO2 RAB1956 SLP121 P0001 60003 T00440033 58006=
201612111953 METAR KPAE 111953Z 16013KT 10SM BKN006 OVC012 04/03 A2988 RMK AO2 RAE1858 SLP123 P0000 T00440033=
201612111853 METAR KPAE 111853Z 15012KT 10SM -RA BKN006 OVC024 04/03 A2990 RMK AO2 SLP127 P0002 T00390033=
201612111753 METAR KPAE 111753Z 16013KT 6SM -RA BR BKN009 BKN017 OVC035 04/03 A2990 RMK AO2 RAB07 SLP127 P0002 60002 T00440033 10050 20044 53007=
201612111712 SPECI KPAE 111712Z 16012KT 10SM -RA BKN015 OVC020 04/03 A2988 RMK AO2 RAB07 P0000 T00440028=
201612111653 METAR KPAE 111653Z 15013KT 10SM OVC013 04/03 A2988 RMK AO2 SLP122 T00440028=
201612111602 SPECI KPAE 111602Z 16010KT 10SM OVC012 04/03 A2988 RMK AO2 T00440028=
201612111553 METAR KPAE 111553Z 15011KT 10SM OVC015 04/03 A2987 RMK AO2 SLP119 T00440028=
201612111453 METAR KPAE 111453Z 16010KT 10SM BKN015 OVC021 04/03 A2987 RMK AO2 SLP120 T00440028 50003=
201612111353 METAR KPAE 111353Z AUTO 16015KT 10SM BKN017 BKN022 04/03 A2988 RMK AO2 SLP121 T00440028=
201612111332 SPECI KPAE 111332Z AUTO 18013G20KT 10SM SCT015 BKN021 04/03 A2988 RMK AO2 T00440028=
201612111321 SPECI KPAE 111321Z AUTO 17013KT 10SM BKN014 04/03 A2988 RMK AO2 T00440028=
201612111253 METAR KPAE 111253Z AUTO 15016KT 10SM BKN016 OVC023 04/03 A2988 RMK AO2 PK WND 17027/1205 SLP121 T00440028=
201612111218 SPECI KPAE 111218Z AUTO 16019G26KT 10SM BKN019 05/02 A2988 RMK AO2 PK WND 17027/1205 T00500022=
201612111209 SPECI KPAE 111209Z AUTO 16017G27KT 10SM SCT019 05/02 A2987 RMK AO2 PK WND 17027/1205 T00500022=
201612111153 METAR KPAE 111153Z AUTO 16022G29KT 10SM BKN019 04/03 A2987 RMK AO2 PK WND 16033/1118 SLP117 70016 T00440028 10050 20044 51008=
201612111131 SPECI KPAE 111131Z AUTO 16019G26KT 10SM BKN017 05/03 A2987 RMK AO2 PK WND 16033/1118 T00500028=
201612111109 SPECI KPAE 111109Z AUTO 16021G30KT 10SM SCT015 05/03 A2986 RMK AO2 PK WND 17030/1106 T00500028=
201612111053 METAR KPAE 111053Z AUTO 16020G32KT 10SM BKN016 BKN110 05/03 A2987 RMK AO2 PK WND 15032/1046 SLP117 T00500028=
201612111043 SPECI KPAE 111043Z AUTO 16018G29KT 10SM SCT016 BKN120 05/03 A2986 RMK AO2 PK WND 15029/1040 T00500028=
201612110953 METAR KPAE 110953Z AUTO 16018G26KT 10SM BKN015 OVC020 05/03 A2986 RMK AO2 PK WND 15033/0918 SLP115 T00500033=
201612110937 SPECI KPAE 110937Z AUTO 15022G28KT 10SM BKN015 BKN022 BKN120 04/03 A2985 RMK AO2 PK WND 15033/0918 T00440028=
201612110906 SPECI KPAE 110906Z AUTO 16022G30KT 10SM SCT014 04/03 A2985 RMK AO2 PK WND 16031/0858 T00440028=
201612110853 METAR KPAE 110853Z AUTO 16021KT 10SM BKN015 04/03 A2984 RMK AO2 PK WND 16033/0830 SLP108 T00440028 50007=
201612110824 SPECI KPAE 110824Z AUTO 16020G27KT 10SM OVC015 05/03 A2984 RMK AO2 PK WND 16027/0821 T00500028=
201612110753 METAR KPAE 110753Z AUTO 15019G23KT 10SM OVC013 05/03 A2985 RMK AO2 SLP111 T00500028 400500000=
201612110707 SPECI KPAE 110707Z AUTO 15016G23KT 10SM BKN014 OVC023 05/03 A2985 RMK AO2 T00500028=
201612110653 METAR KPAE 110653Z AUTO 16017G26KT 10SM BKN016 OVC021 05/03 A2983 RMK AO2 PK WND 17027/0604 SLP106 T00500028=
201612110625 SPECI KPAE 110625Z AUTO 15021G25KT 10SM OVC018 05/03 A2983 RMK AO2 PK WND 17027/0604 T00500028=
201612110553 METAR KPAE 110553Z AUTO 16015KT 10SM BKN012 BKN110 04/03 A2982 RMK AO2 PK WND 15029/0512 SLP102 T00440033 10050 20039 51007=
201612110538 SPECI KPAE 110538Z AUTO 15020G26KT 10SM BKN012 BKN022 OVC110 04/03 A2981 RMK AO2 PK WND 15029/0512 T00440033=
201612110521 SPECI KPAE 110521Z AUTO 15017G29KT 10SM SCT012 BKN021 OVC110 05/03 A2982 RMK AO2 PK WND 15029/0512 T00500033=
201612110453 METAR KPAE 110453Z AUTO 15019KT 10SM BKN013 BKN021 04/03 A2982 RMK AO2 PK WND 16026/0422 SLP101 T00440033=
201612110429 SPECI KPAE 110429Z AUTO 15020G26KT 10SM SCT011 SCT016 BKN022 04/03 A2981 RMK AO2 PK WND 16026/0422 T00440033=
201612110353 METAR KPAE 110353Z 16015G26KT 10SM BKN012 OVC022 04/03 A2980 RMK AO2 PK WND 15026/0345 SLP095 T00440033=
201612110253 METAR KPAE 110253Z 15014G25KT 10SM OVC011 05/03 A2979 RMK AO2 SLP093 T00500033 58001=
201612110153 METAR KPAE 110153Z 15018G27KT 10SM OVC013 04/03 A2979 RMK AO2 PK WND 15029/0141 SLP094 T00440033=
201612110100 SPECI KPAE 110100Z 15012G20KT 10SM OVC013 05/03 A2980 RMK AO2 T00500033=
201612110053 METAR KPAE 110053Z 15013G20KT 10SM BKN007 OVC013 05/03 A2981 RMK AO2 SLP097 T00500033=
201612102353 METAR KPAE 102353Z 12006G14KT 5SM BR BKN007 OVC013 04/04 A2980 RMK AO2 RAE33 CIG 004V010 SLP095 P0001 60016 T00390039 10044 20028 58008=
201612102335 SPECI KPAE 102335Z 13009KT 7SM BKN005 OVC010 04/03 A2980 RMK AO2 RAE33 CIG 003V007 P0001 T00390033=
201612102315 SPECI KPAE 102315Z 12011KT 2 1/2SM -RA BR BKN006 OVC010 03/03 A2980 RMK AO2 P0001 T00330033=
201612102257 SPECI KPAE 102257Z 12014KT 2SM -RA BR SCT006 BKN011 OVC017 03/03 A2980 RMK AO2 P0001 T00330033=
201612102253 METAR KPAE 102253Z 12013KT 1 1/2SM -RA BR BKN006 OVC011 03/03 A2980 RMK AO2 SLP096 P0002 T00330028=
201612102249 SPECI KPAE 102249Z 12012KT 1 3/4SM -RA BR BKN006 OVC013 03/03 A2980 RMK AO2 P0002=
201612102246 SPECI KPAE 102246Z 13014G20KT 2SM -RA BR SCT006 OVC013 04/03 A2980 RMK AO2 P0002 T00390028=
201612102237 SPECI KPAE 102237Z 12015G20KT 3SM -RA BR BKN009 OVC013 04/03 A2980 RMK AO2 CIG 005V011 P0002 T00390028=
201612102226 SPECI KPAE 102226Z 13011KT 1 3/4SM -RA BR BKN008 OVC014 04/03 A2981 RMK AO2 P0001 T00390028=
201612102213 SPECI KPAE 102213Z 13013KT 1 3/4SM -RA BR BKN011 OVC017 04/03 A2982 RMK AO2 P0001 T00390028=
201612102209 SPECI KPAE 102209Z 13014KT 2 1/2SM -RA BR BKN011 OVC017 04/03 A2982 RMK AO2 P0001 T00390028=
201612102155 SPECI KPAE 102155Z 13013KT 3SM -RA BR BKN011 OVC017 04/03 A2982 RMK AO2 P0000 T00390028=
201612102153 METAR KPAE 102153Z 12014KT 2 1/2SM -RA BR BKN008 OVC021 04/03 A2982 RMK AO2 SLP102 P0004 T00390033=
201612102053 METAR KPAE 102053Z 13015G22KT 3SM -RA BR OVC006 04/03 A2982 RMK AO2 SLP103 P0006 60009 T00440028 55005=
201612102049 SPECI KPAE 102049Z 13017G22KT 3SM -RA BR OVC006 04/03 A2982 RMK AO2 P0006=
201612102038 SPECI KPAE 102038Z 13011KT 2 1/2SM -RA BR OVC006 04/03 A2982 RMK AO2 P0004 T00440028=
201612102006 SPECI KPAE 102006Z 12010KT 5SM -RA BR BKN026 OVC035 04/02 A2983 RMK AO2 P0000 T00390022=
201612101953 METAR KPAE 101953Z 12011KT 7SM -RA BKN034 OVC045 04/02 A2984 RMK AO2 RAB05 SLP108 P0002 T00390022=
201612101945 SPECI KPAE 101945Z 12009KT 5SM -RA BR BKN029 OVC038 04/02 A2984 RMK AO2 RAB05 P0001 T00390022=
201612101853 METAR KPAE 101853Z VRB05KT 10SM FEW010 BKN048 OVC065 03/02 A2985 RMK AO2 RAB1758E12 SLP111 P0001 T00330022=
201612101754 SPECI KPAE 101754Z 12009KT 10SM FEW005 BKN037 03/02 A2985 RMK AO2 T00280017=
201612101753 METAR KPAE 101753Z 12009KT 10SM SCT005 BKN037 03/02 A2985 RMK AO2 RAB14E48UPB35E36 SLP112 P0000 60000 T00280017 10028 20006 53004=
201612101723 SPECI KPAE 101723Z 12011G17KT 10SM -RA SCT005 BKN037 03/02 A2984 RMK AO2 RAB14 P0000 T00280017=
201612101700 SPECI KPAE 101700Z 12006KT 2SM BR BKN005 OVC008 02/02 A2984 RMK AO2 CIG 003V007 T00220022=
201612101653 METAR KPAE 101653Z 12006KT 1/2SM R16R/P6000FT FG OVC005 02/02 A2984 RMK AO2 CIG 003V008 SLP111 T00220022=
201612101635 SPECI KPAE 101635Z VRB03KT 1/2SM R16R/P6000FT FG BKN005 OVC009 02/02 A2984 RMK AO2 CIG 002V007 T00220017=
201612101601 SPECI KPAE 101601Z VRB04KT 1/2SM R16R/P6000FT FG BKN004 BKN010 02/02 A2984 RMK AO2 CIG 002V007 T00220017=
201612101559 SPECI KPAE 101559Z 12006KT 2SM BR BKN004 BKN010 02/02 A2984 RMK AO2 CIG 002V009 T00220017=
201612101557 SPECI KPAE 101557Z 12008KT 7SM BKN004 BKN010 02/02 A2984 RMK AO2 CIG 003V009 T00220017=
201612101553 METAR KPAE 101553Z 12009KT 2SM BR BKN006 BKN010 02/02 A2984 RMK AO2 CIG 003V007 SLP111 T00220017=
201612101456 SPECI KPAE 101456Z 13008KT 1 1/2SM BR BKN004 OVC010 02/02 A2983 RMK AO2 T00170017=
201612101453 METAR KPAE 101453Z 13006KT 1 1/2SM BR BKN006 OVC010 02/02 A2984 RMK AO2 CIG 003V009 SLP109 60000 T00170017 51006=
201612101403 SPECI KPAE 101403Z 14006KT 8SM OVC004 02/01 A2983 RMK AO2 T00170011=
201612101353 METAR KPAE 101353Z 14005KT 10SM OVC006 01/01 A2983 RMK AO2 CIG 003V010 SLP108 T00110011=
201612101350 SPECI KPAE 101350Z 13006KT 10SM BKN004 OVC008 01/01 A2983 RMK AO2 CIG 003V007=
201612101253 METAR KPAE 101253Z 12006KT 10SM OVC007 02/01 A2982 RMK AO2 RAB23E42 SLP103 P0000 T00170011=
201612101153 METAR KPAE 101153Z 08005KT 6SM BR OVC005 01/01 A2982 RMK AO2 RAB23E32 SLP103 P0000 60000 70004 T00060006 10011 20000 51007=
201612101122 SPECI KPAE 101122Z 08006KT 9SM OVC005 01/00 A2982 RMK AO2 T00060000=
201612101053 METAR KPAE 101053Z 08007KT 10SM OVC004 01/00 A2982 RMK AO2 SLP102 T00060000=
201612101023 SPECI KPAE 101023Z 08008KT 10SM OVC004 00/00 A2981 RMK AO2 T00000000=
201612100953 METAR KPAE 100953Z VRB04KT 10SM OVC006 01/01 A2981 RMK AO2 SLP100 T00060006=
201612100853 METAR KPAE 100853Z 12007KT 9SM OVC005 01/00 A2980 RMK AO2 RAE21 SLP096 P0000 60000 T00060000 58001=
201612100836 SPECI KPAE 100836Z 12007KT 10SM OVC005 01/01 A2981 RMK AO2 RAE21 P0000 T00060006=
201612100806 SPECI KPAE 100806Z VRB03KT 10SM -RA OVC004 01/01 A2980 RMK AO2 P0000 T00060006=
201612100753 METAR KPAE 100753Z 08006KT 10SM -RA OVC005 01/00 A2980 RMK AO2 RAB35UPB51E53 CIG 003V007 SLP097 P0000 T00060000 400111011=
201612100737 SPECI KPAE 100737Z 09005KT 10SM -RA OVC005 01/01 A2980 RMK AO2 RAB35 CIG 003V008 P0000 T00060006=
201612100727 SPECI KPAE 100727Z 09007KT 10SM OVC004 01/01 A2980 RMK AO2 CIG 003V008 T00060006=
201612100653 METAR KPAE 100653Z 09004KT 10SM OVC007 01/01 A2980 RMK AO2 CIG 004V010 SLP096 T00110006=
201612100615 SPECI KPAE 100615Z 12008KT 10SM OVC008 01/01 A2980 RMK AO2 CIG 004V012 T00110006=
201612100600 SPECI KPAE 100600Z 14006KT 10SM SCT006 BKN010 OVC070 01/00 A2980 RMK AO2 T00110000=
201612100553 METAR KPAE 100553Z VRB04KT 10SM BKN010 BKN070 OVC080 01/01 A2980 RMK AO2 RAB04E32FZRAE04 SLP097 P0001 60003 I1000 I6004 T00110006 10011 20000 58001=
201612100510 SPECI KPAE 100510Z 12011G16KT 8SM -RA BKN018 OVC033 01/00 A2980 RMK AO2 RAB04FZRAE04 P0000 I1000 T00110000=
201612100453 METAR KPAE 100453Z 12007KT 090V150 7SM -FZRA BKN022 OVC031 01/00 A2981 RMK AO2 FZRAB08 SLP099 P0001 I1002 T00060000=
201612100429 SPECI KPAE 100429Z VRB06KT 9SM -FZRA FEW024 FEW028 OVC036 01/M01 A2980 RMK AO2 FZRAB08 P0000 I1001 T00061006=
201612100414 SPECI KPAE 100414Z VRB04KT 10SM -FZRA BKN024 OVC040 00/M01 A2980 RMK AO2 FZRAB08 P0000 I1000 T00001006=
201612100353 METAR KPAE 100353Z 11007G15KT 10SM FEW005 BKN024 OVC065 00/M01 A2980 RMK AO2 FZRAE50 SLP098 P0000 I1000 T00001006=
201612100316 SPECI KPAE 100316Z 09010KT 5SM -FZRA BR SCT022 BKN033 OVC070 00/M01 A2982 RMK AO2 P0000 I1000 T00001006=
201612100257 SPECI KPAE 100257Z 08011KT 7SM -FZRA FEW016 BKN024 OVC038 00/M01 A2983 RMK AO2 P0000 I1000 T00001006=
201612100253 METAR KPAE 100253Z 09008KT 7SM -FZRA FEW016 SCT024 OVC038 00/M01 A2983 RMK AO2 SLP106 P0001 60001 I1002 I3002 T00001006 58024=
201612100153 METAR KPAE 100153Z 09010G15KT 10SM -FZRA SCT005 SCT015 OVC070 00/M01 A2985 RMK AO2 UPB12E29RAB29E36FZRAB36 SLP114 P0000 I1000 T00001011=
201612100137 SPECI KPAE 100137Z 09008KT 10SM FZRA SCT005 SCT015 OVC070 00/M01 A2986 RMK AO2 UPB12E29RAB29E36FZRAB36 P0000 I1000 T00001006=
201612100135 SPECI KPAE 100135Z 09008G16KT 10SM -RA SCT005 SCT015 OVC070 00/M01 A2986 RMK AO2 UPB12E29RAB29 P0000 I1000 T00001006=
201612100123 SPECI KPAE 100123Z 09008KT 9SM UP SCT016 BKN060 OVC075 00/M01 A2986 RMK AO2 UPB12 P0000 T00001006=
201612100053 METAR KPAE 100053Z 08010G16KT 10SM OVC015 00/M01 A2988 RMK AO2 SLP124 T00001011=
201612092353 METAR KPAE 092353Z VRB06KT 10SM OVC015 01/M01 A2990 RMK AO2 SLP131 60001 T00061006 10006 20000 56006=
201612092351 SPECI KPAE 092351Z 11007KT 080V140 10SM OVC015 01/M01 A2990 RMK AO2=
201612092300 SPECI KPAE 092300Z 10007KT 060V140 10SM OVC013 01/M01 A2991 RMK AO2 T00061006=
201612092253 METAR KPAE 092253Z 10006KT 10SM BKN008 OVC010 01/M01 A2991 RMK AO2 SLP135 T00061006=
201612092153 METAR KPAE 092153Z 08010KT 10SM BKN006 OVC010 00/M01 A2992 RMK AO2 SLP138 T00001006=
201612092053 METAR KPAE 092053Z VRB06KT 10SM BKN006 OVC012 01/M01 A2994 RMK AO2 SLP142 60001 T00061006 58010=
201612092000 SPECI KPAE 092000Z 08007KT 10SM BKN007 OVC011 01/00 A2995 RMK AO2 CIG 004V008 T00060000=
201612091953 METAR KPAE 091953Z 11006KT 10SM BKN004 OVC013 01/00 A2995 RMK AO2 RAE1857SNB16E27 SLP149 P0000 T00060000=
201612091924 SPECI KPAE 091924Z VRB05KT 7SM -SN BKN004 OVC013 01/00 A2995 RMK AO2 RAE1857SNB16 P0000 T00060000=
201612091920 SPECI KPAE 091920Z VRB06KT 7SM -SN FEW007 OVC015 01/00 A2995 RMK AO2 RAE1857SNB16 P0000 T00060000=
201612091853 METAR KPAE 091853Z VRB06KT 10SM -RA OVC018 01/M01 A2996 RMK AO2 SLP151 P0001 T00061006=
201612091753 METAR KPAE 091753Z 12011G17KT 8SM -RA OVC022 01/M01 A2997 RMK AO2 RAB52 SLP153 P0000 60000 I6000 T00061006 10006 21006 53006=
201612091653 METAR KPAE 091653Z 11008G16KT 050V130 10SM SCT006 OVC021 01/M01 A2996 RMK AO2 SLP150 T00061006=
201612091619 SPECI KPAE 091619Z 11009G17KT 070V130 10SM BKN006 OVC021 01/M01 A2996 RMK AO2 T00061006=
201612091553 METAR KPAE 091553Z 11008G16KT 10SM BKN023 BKN030 OVC070 01/M01 A2995 RMK AO2 UPE05RAB27E41 SLP149 P0000 T00061006=
201612091538 SPECI KPAE 091538Z 12010G18KT 10SM -RA FEW018 BKN030 OVC100 01/M01 A2995 RMK AO2 UPE05RAB27 P0000 T00061006=
201612091502 SPECI KPAE 091502Z 10008G17KT 070V130 10SM UP SCT020 BKN025 OVC080 00/M01 A2994 RMK AO2 P0000 T00001006=
201612091453 METAR KPAE 091453Z 11008KT 10SM UP SCT027 OVC080 00/M01 A2995 RMK AO2 UPB03SNE03 SLP146 P0000 60000 I1000 I3000 T00001006 55002=
201612091400 SPECI KPAE 091400Z AUTO 09011G20KT 4SM -SN BR SCT028 BKN033 OVC043 M01/M02 A2994 RMK AO2 P0000 T10061017=
201612091353 METAR KPAE 091353Z AUTO 09009G17KT 2 1/2SM -SN BR FEW021 BKN033 OVC046 M01/M01 A2994 RMK AO2 UPB1259E01SNE1259B01 SLP145 P0000 T10061011=
201612091346 SPECI KPAE 091346Z AUTO 09007G16KT 3SM -SN BR FEW021 BKN033 OVC048 M01/M02 A2994 RMK AO2 UPB1259E01SNE1259B01 P0000 T10061017=
201612091338 SPECI KPAE 091338Z AUTO 10008G20KT 2 1/2SM -SN BR FEW021 BKN033 OVC043 M01/M02 A2994 RMK AO2 UPB1259E01SNE1259B01 P0000 T10061017=
201612091323 SPECI KPAE 091323Z AUTO 09011G18KT 4SM -SN BR FEW005 FEW021 OVC031 M01/M02 A2994 RMK AO2 UPB1259E01SNE1259B01 P0000 T10061017=
201612091313 SPECI KPAE 091313Z AUTO 09010G15KT 2 1/2SM -SN BR FEW005 BKN025 OVC031 M01/M02 A2994 RMK AO2 UPB1259E01SNE1259B01 P0000 T10061017=
201612091305 SPECI KPAE 091305Z AUTO VRB06G16KT 3SM -SN BR FEW006 BKN023 OVC031 M01/M01 A2995 RMK AO2 UPB1259E01SNE1259B01 P0000 T10061011=
201612091253 METAR KPAE 091253Z AUTO VRB05KT 3SM -SN BR BKN024 OVC032 M01/M01 A2995 RMK AO2 UPB29E32SNE29B32 SLP149 P0000 T10061011=
201612091248 SPECI KPAE 091248Z AUTO VRB06G16KT 2 1/2SM -SN BR BKN026 OVC032 M01/M01 A2995 RMK AO2 UPB29E32SNE29B32 P0000=
201612091239 SPECI KPAE 091239Z AUTO 11009G18KT 3SM -SN BR OVC030 M01/M02 A2995 RMK AO2 UPB29E32SNE29B32 P0000 T10061017=
201612091228 SPECI KPAE 091228Z AUTO VRB05KT 3SM -SN BR OVC028 M01/M01 A2996 RMK AO2 P0000 T10061011=
201612091206 SPECI KPAE 091206Z AUTO 09005KT 2SM -SN BR OVC027 M01/M01 A2996 RMK AO2 P0000 T10061011=
201612091153 METAR KPAE 091153Z AUTO 09008KT 3SM -SN BR FEW003 OVC027 M01/M02 A2997 RMK AO2 SLP155 P0001 60007 70007 T10111017 10000 21017 53000=
201612091130 SPECI KPAE 091130Z AUTO 08008KT 1 3/4SM -SN BR SCT003 OVC029 M01/M02 A2997 RMK AO2 P0000 T10111017=
201612091126 SPECI KPAE 091126Z AUTO 08009KT 2 1/2SM -SN BR BKN004 OVC031 M01/M02 A2997 RMK AO2 P0000 T10111017=
201612091115 SPECI KPAE 091115Z AUTO 08009KT 3SM -SN BR FEW004 OVC027 M01/M02 A2996 RMK AO2 P0000 T10111017=
201612091100 SPECI KPAE 091100Z AUTO 09006KT 1 1/4SM -SN BR FEW004 OVC023 M01/M02 A2997 RMK AO2 P0000 T10111017=
201612091053 METAR KPAE 091053Z AUTO VRB04KT 1 1/2SM -SN BR OVC021 M01/M02 A2997 RMK AO2 SLP155 P0002 T10111017=
201612091050 SPECI KPAE 091050Z AUTO VRB05KT 2SM -SN BR OVC021 M01/M02 A2997 RMK AO2 P0002=
201612091039 SPECI KPAE 091039Z AUTO VRB06KT 1 1/4SM -SN BR OVC019 M01/M02 A2997 RMK AO2 P0002 T10061017=
201612091024 SPECI KPAE 091024Z AUTO 11007KT 080V140 3/4SM R16R/P6000FT -SN BR VV014 M01/M02 A2997 RMK AO2 P0001 T10111017=
201612091015 SPECI KPAE 091015Z AUTO VRB06KT 1SM R16R/P6000FT -SN BR VV016 M01/M02 A2997 RMK AO2 P0001 T10111017=
201612090953 METAR KPAE 090953Z AUTO 11007KT 060V140 1SM R16R/P6000FT -SN BR VV014 M01/M02 A2997 RMK AO2 SLP154 P0002 T10111017=
201612090945 SPECI KPAE 090945Z AUTO VRB06KT 3/4SM R16R/P6000FT -SN BR VV013 M01/M02 A2997 RMK AO2 P0002 T10111017=
201612090853 METAR KPAE 090853Z AUTO 09007KT 1 1/4SM -SN BR OVC015 M01/M02 A2995 RMK AO2 SLP149 P0001 60002 T10111022 50003=
201612090753 METAR KPAE 090753Z AUTO 09007KT 1 3/4SM -SN BR OVC026 M02/M03 A2996 RMK AO2 SLP149 P0000 T10171028 400281033=
201612090740 SPECI KPAE 090740Z AUTO 08009G15KT 2SM -SN BR OVC028 M02/M03 A2995 RMK AO2 P0000 T10171028=
201612090727 SPECI KPAE 090727Z AUTO 08010G17KT 1 3/4SM -SN BR OVC026 M02/M03 A2995 RMK AO2 P0000 T10171033=
201612090653 METAR KPAE 090653Z AUTO 08008KT 2SM -SN BR OVC026 M01/M03 A2995 RMK AO2 SNB0557 SLP148 P0001 T10111033=
201612090646 SPECI KPAE 090646Z AUTO 08008KT 1 1/2SM -SN BR OVC024 M01/M03 A2995 RMK AO2 SNB0557 P0001 T10111033=
201612090625 SPECI KPAE 090625Z AUTO 12004KT 2SM -SN OVC026 M01/M04 A2995 RMK AO2 SNB0557 P0000 T10111039=
201612090615 SPECI KPAE 090615Z AUTO 08004KT 1 1/2SM -SN OVC022 M01/M04 A2995 RMK AO2 SNB0557 P0000 T10111039=
201612090605 SPECI KPAE 090605Z AUTO 00000KT 2 1/2SM -SN OVC026 M01/M04 A2995 RMK AO2 SNB0557 P0000 T10061044=
201612090553 METAR KPAE 090553Z AUTO VRB04KT 10SM OVC035 M01/M06 A2995 RMK AO2 SNB28E37 SLP146 P0000 60000 T10061056 10017 21006 53007=
201612090453 METAR KPAE 090453Z AUTO VRB04KT 10SM BKN036 OVC060 01/M08 A2994 RMK AO2 SNB32E44 SLP144 P0000 T00111078=
201612090353 METAR KPAE 090353Z 07004KT 10SM FEW050 SCT070 BKN120 01/M11 A2993 RMK AO2 SLP140 T00111106=
201612090253 METAR KPAE 090253Z 07008KT 10SM BKN070 01/M11 A2992 RMK AO2 SLP139 T00111111 58007=
201612090153 METAR KPAE 090153Z 07009KT 10SM CLR 02/M12 A2993 RMK AO2 SLP140 T00171117=
201612090053 METAR KPAE 090053Z 08010KT 10SM CLR 02/M12 A2995 RMK AO2 SLP147 T00171117=
201612082353 METAR KPAE 082353Z 07010KT 10SM CLR 02/M12 A2994 RMK AO2 SLP146 T00171117 10028 20006 56021=
201612082253 METAR KPAE 082253Z 07007G17KT 10SM CLR 02/M12 A2996 RMK AO2 SLP152 T00221117=
201612082153 METAR KPAE 082153Z 07010KT 10SM CLR 03/M12 A2996 RMK AO2 SLP152 T00281117=
201612082053 METAR KPAE 082053Z 07008G14KT 10SM CLR 02/M11 A3001 RMK AO2 SLP168 T00171111 58024=
201612081953 METAR KPAE 081953Z 07010G18KT 10SM CLR 02/M11 A3004 RMK AO2 SLP177 T00221111=
201612081853 METAR KPAE 081853Z 06010G16KT 10SM CLR 02/M11 A3006 RMK AO2 SLP184 T00221111=
201612081753 METAR KPAE 081753Z VRB06KT 10SM CLR 01/M11 A3008 RMK AO2 SLP192 T00061106 10006 21022 58014=
201612081653 METAR KPAE 081653Z 04003KT 10SM CLR 00/M10 A3011 RMK AO2 SLP201 T00001100=
201612081553 METAR KPAE 081553Z 02005KT 10SM CLR M02/M10 A3011 RMK AO2 SLP205 T10171100=
201612081453 METAR KPAE 081453Z 02004KT 10SM CLR M02/M09 A3012 RMK AO2 SLP207 T10221094 56025=
201612081353 METAR KPAE 081353Z AUTO 03004KT 10SM CLR M01/M10 A3014 RMK AO2 SLP214 T10111100=
201612081253 METAR KPAE 081253Z AUTO 06005KT 10SM CLR M01/M10 A3017 RMK AO2 SLP223 T10111100=
201612081153 METAR KPAE 081153Z AUTO 06007KT 10SM CLR M01/M10 A3020 RMK AO2 SLP232 T10111100 11011 21033 58021=
201612081053 METAR KPAE 081053Z AUTO VRB04KT 10SM CLR M01/M10 A3022 RMK AO2 SLP240 T10111100=
201612080953 METAR KPAE 080953Z AUTO 36005KT 10SM CLR M03/M09 A3024 RMK AO2 SLP248 T10281089=
201612080853 METAR KPAE 080853Z AUTO 35004KT 10SM CLR M02/M10 A3026 RMK AO2 SLP255 T10171100 56015=
201612080753 METAR KPAE 080753Z AUTO 04007KT 10SM CLR M02/M10 A3027 RMK AO2 SLP258 T10171100 400111044=
201612080653 METAR KPAE 080653Z AUTO 05006KT 10SM CLR M02/M10 A3029 RMK AO2 SLP265 T10171100=
201612080553 METAR KPAE 080553Z AUTO 05006KT 10SM CLR M01/M10 A3031 RMK AO2 SLP270 T10111100 10006 21011 56014=
201612080453 METAR KPAE 080453Z AUTO 05007KT 10SM CLR M01/M10 A3032 RMK AO2 SLP273 T10111100=
201612080353 METAR KPAE 080353Z AUTO 05005KT 10SM CLR M01/M09 A3033 RMK AO2 SLP279 T10111089=
201612080253 METAR KPAE 080253Z AUTO 06004KT 10SM CLR M01/M09 A3035 RMK AO2 SLP285 T10061089 56010=
201612080153 METAR KPAE 080153Z AUTO 05004KT 10SM CLR 00/M07 A3035 RMK AO2 SLP284 T00001067=
201612080053 METAR KPAE 080053Z AUTO 03005KT 10SM CLR 00/M06 A3036 RMK AO2 SLP290 T00001056=
201612072353 METAR KPAE 072353Z AUTO 36004KT 10SM CLR 01/M05 A3038 RMK AO2 SLP294 T00061050 10011 21022 57011=
201612072253 METAR KPAE 072253Z 33005KT 10SM CLR 01/M05 A3039 RMK AO2 SLP298 T00111050=
201612072153 METAR KPAE 072153Z 32004KT 10SM CLR 01/M04 A3040 RMK AO2 SLP302 T00061044=
201612072053 METAR KPAE 072053Z 30006KT 10SM CLR M01/M04 A3041 RMK AO2 SLP306 T10061044 58004=
201612071953 METAR KPAE 071953Z 35005KT 10SM CLR M01/M04 A3042 RMK AO2 SLP308 T10111044=
201612071853 METAR KPAE 071853Z 34005KT 10SM CLR M02/M04 A3042 RMK AO2 SLP309 T10171039=
201612071753 METAR KPAE 071753Z 34004KT 10SM CLR M02/M04 A3042 RMK AO2 SLP309 I6/// T10221039 11017 21044 53001=
201612071653 METAR KPAE 071653Z 00000KT 10SM CLR M03/M05 A3042 RMK AO2 SLP308 T10281050=
201612071553 METAR KPAE 071553Z 00000KT 10SM CLR M04/M06 A3042 RMK AO2 SLP309 I1000 T10391056=
201612071500 METAR KPAE NIL=
201612071453 METAR KPAE 071453Z 00000KT 10SM CLR M04/M05 A3042 RMK AO2 SLP308 I1/// I3/// T10391050 $=
201612071353 METAR KPAE 071353Z AUTO 35004KT 10SM CLR M04/M05 A3041 RMK AO2 SLP306 I1000 T10391050=
201612071253 METAR KPAE 071253Z AUTO 30003KT 10SM CLR M04/M05 A3041 RMK AO2 SLP304 T10391050=
201612071153 METAR KPAE 071153Z AUTO 28003KT 10SM CLR M04/M06 A3040 RMK AO2 SLP302 T10391061 11006 21039 51010=
201612071053 METAR KPAE 071053Z AUTO 28003KT 10SM CLR M03/M07 A3039 RMK AO2 SLP299 T10331067=
201612070953 METAR KPAE 070953Z AUTO 00000KT 10SM CLR M02/M07 A3038 RMK AO2 SLP294 T10221067=
201612070853 METAR KPAE 070853Z AUTO 00000KT 10SM CLR M02/M06 A3037 RMK AO2 SLP291 T10171061 51017=
201612070753 METAR KPAE 070753Z AUTO 34004KT 10SM BKN060 M02/M06 A3036 RMK AO2 SLP286 T10171061 400281017=
201612070653 METAR KPAE 070653Z AUTO 32005KT 10SM SCT060 M01/M06 A3034 RMK AO2 SLP280 T10111056=
201612070553 METAR KPAE 070553Z AUTO 33004KT 10SM CLR M02/M04 A3032 RMK AO2 SLP274 T10171039 10017 21017 53015=
201612070453 METAR KPAE 070453Z AUTO 33003KT 10SM SCT060 M01/M04 A3030 RMK AO2 SLP268 T10111039=
201612070353 METAR KPAE 070353Z 32003KT 10SM BKN070 M01/M04 A3029 RMK AO2 SLP263 T10061039=
201612070253 METAR KPAE 070253Z 33005KT 10SM CLR 01/M06 A3027 RMK AO2 SLP258 T00061056 51016=
201612070153 METAR KPAE 070153Z 31004KT 10SM CLR 00/M05 A3026 RMK AO2 SLP255 T00001050=
201612070053 METAR KPAE 070053Z 29006KT 10SM CLR 01/M05 A3025 RMK AO2 SLP249 T00061050=
201612062353 METAR KPAE 062353Z 30005KT 10SM CLR 02/M03 A3023 RMK AO2 SLP242 T00171028 10028 20006 53019=
201612062253 METAR KPAE 062253Z 32004KT 10SM CLR 03/M02 A3021 RMK AO2 SLP235 T00281022=
201612062153 METAR KPAE 062153Z 32005KT 10SM CLR 02/M02 A3019 RMK AO2 SLP228 T00221022=
201612062053 METAR KPAE 062053Z 31004KT 10SM CLR 02/M02 A3017 RMK AO2 SLP223 T00171017 51010=
201612061953 METAR KPAE 061953Z 33005KT 10SM CLR 02/M01 A3016 RMK AO2 SLP220 T00171011=
201612061853 METAR KPAE 061853Z 32005KT 10SM CLR 01/M02 A3016 RMK AO2 SLP219 T00111017=
201612061753 METAR KPAE 061753Z 33004KT 10SM CLR 01/M02 A3014 RMK AO2 SLP212 I6000 T00061017 10006 21017 53016=
201612061653 METAR KPAE 061653Z 34004KT 10SM SCT006 00/M02 A3011 RMK AO2 SLP203 T00001017=
201612061648 SPECI KPAE 061648Z 35003KT 10SM SCT007 00/M02 A3011 RMK AO2=
201612061553 METAR KPAE 061553Z 34004KT 10SM CLR M01/M02 A3009 RMK AO2 SLP196 T10111022=
201612061504 SPECI KPAE 061504Z 31003KT 10SM SCT007 M01/M02 A3008 RMK AO2 T10111022=
201612061453 METAR KPAE 061453Z 00000KT 10SM BKN007 BKN075 M01/M02 A3008 RMK AO2 SLP191 I1000 I3000 T10111017 53014=
201612061445 SPECI KPAE 061445Z AUTO 34003KT 10SM SCT007 BKN075 M01/M02 A3008 RMK AO2 I1000 T10061017=
201612061353 METAR KPAE 061353Z AUTO 00000KT 10SM CLR M01/M02 A3006 RMK AO2 SLP185 I1000 T10111022=
201612061253 METAR KPAE 061253Z AUTO 00000KT 10SM CLR M01/M02 A3004 RMK AO2 SLP179 I1000 T10111022=
201612061153 METAR KPAE 061153Z 00000KT 10SM CLR M01/M02 A3004 RMK AO2 SLP177 70011 I6000 T10061022 10006 21017 51008=
201612061053 METAR KPAE 061053Z 00000KT 10SM CLR M01/M02 A3003 RMK AO2 SLP174 I1000 T10111017=
201612060953 METAR KPAE 060953Z 00000KT 10SM BCFG CLR M01/M01 A3002 RMK AO2 SLP172 I1000 T10061011=
201612060932 SPECI KPAE 060932Z 00000KT 10SM CLR M01/M01 A3002 RMK AO2 T10111011=
201612060930 SPECI KPAE 060930Z 00000KT 1 1/2SM BR FEW001 M01/M01 A3002 RMK AO2 T10061011=
201612060853 METAR KPAE 060853Z 00000KT 10SM CLR 01/M01 A3001 RMK AO2 SLP168 T00061006 50001=
201612060753 METAR KPAE 060753Z 00000KT 10SM FEW038 01/M01 A3002 RMK AO2 SLP170 T00061006 400280006=
201612060653 METAR KPAE 060653Z 08003KT 10SM CLR 01/00 A3001 RMK AO2 SLP169 T00060000=
201612060555 SPECI KPAE 060555Z 08004KT 3SM BR FEW007 SCT042 01/00 A3001 RMK AO2 VIS E-S 1 T00060000=
201612060553 METAR KPAE 060553Z 08005KT 2SM BR FEW007 SCT041 01/00 A3001 RMK AO2 SLP168 60000 T00060000 10022 20006 53002=
201612060539 SPECI KPAE 060539Z 07003KT 2SM BR FEW007 BKN039 01/00 A3001 RMK AO2 T00110000=
201612060530 SPECI KPAE 060530Z 00000KT 6SM BR FEW007 BKN037 01/00 A3001 RMK AO2 T00060000=
201612060453 METAR KPAE 060453Z 13004KT 10SM BKN037 BKN047 02/01 A3000 RMK AO2 SLP166 T00170006=
201612060439 SPECI KPAE 060439Z 13003KT 10SM SCT023 OVC047 01/01 A3000 RMK AO2 T00110006=
201612060422 SPECI KPAE 060422Z 00000KT 10SM BKN022 BKN037 OVC047 01/01 A3000 RMK AO2 T00110006=
201612060353 METAR KPAE 060353Z 07003KT 10SM BKN038 01/01 A3000 RMK AO2 SLP165 T00110006=
201612060319 SPECI KPAE 060319Z 12004KT 10SM SCT015 BKN041 02/01 A3000 RMK AO2 T00170006=
201612060253 METAR KPAE 060253Z 13006KT 10SM BKN015 BKN046 02/01 A3000 RMK AO2 SLP165 60000 T00170006 55001=
201612060208 SPECI KPAE 060208Z VRB03KT 10SM FEW004 BKN032 OVC044 02/01 A3000 RMK AO2 T00220011=
201612060153 METAR KPAE 060153Z 09005KT 8SM SCT004 OVC029 02/02 A3000 RMK AO2 SNE51 SLP165 P0000 T00220017=
201612060124 SPECI KPAE 060124Z 09004KT 9SM -SN SCT004 BKN028 BKN047 02/02 A3001 RMK AO2 P0000 T00220017=
201612060100 SPECI KPAE 060100Z VRB03KT 9SM -SN SCT005 SCT027 BKN047 02/01 A3000 RMK AO2 P0000 T00220011=
201612060053 METAR KPAE 060053Z VRB03KT 8SM -SN BKN005 BKN027 02/01 A3000 RMK AO2 SLP164 P0000 T00220011=
201612052353 METAR KPAE 052353Z 12006KT 9SM -SN BKN006 BKN017 BKN026 02/01 A3000 RMK AO2 SLP165 P0000 60004 T00220011 10028 20017 58007=
201612052300 SPECI KPAE 052300Z VRB03KT 4SM -SN BR BKN006 OVC009 02/01 A3001 RMK AO2 P0000 T00220011=
201612052253 METAR KPAE 052253Z 00000KT 2 1/2SM -SN BR OVC003 02/01 A3001 RMK AO2 UPE2155RAB2155E52SNB52 SLP168 P0003 T00170011=
201612052153 METAR KPAE 052153Z 00000KT 3SM UP BR BKN006 OVC012 03/02 A3002 RMK AO2 RAB50E53UPB53 SLP170 P0000 T00280022=
201612052111 SPECI KPAE 052111Z 12005KT 2 1/2SM BR BKN006 OVC025 02/02 A3002 RMK AO2 CIG 004V011 T00220017=
201612052100 SPECI KPAE 052100Z 12004KT 10SM OVC006 02/02 A3002 RMK AO2 CIG 004V008 T00220017=
201612052053 METAR KPAE 052053Z 11004KT 2 1/2SM BR OVC006 02/02 A3003 RMK AO2 CIG 003V009 SLP172 60001 T00220017 58010=
201612051953 METAR KPAE 051953Z 12007KT 2SM BR OVC006 02/01 A3004 RMK AO2 UPE22RAB1854E17 CIG 004V011 SLP177 P0000 T00170011=
201612051920 SPECI KPAE 051920Z 13007KT 2SM UP BR OVC004 02/01 A3005 RMK AO2 RAB1854E17 P0000 T00170011=
201612051853 METAR KPAE 051853Z 12007KT 1SM R16R/P6000FT UP BR OVC002 02/01 A3005 RMK AO2 RAB05E33UPB29E32B48SNB39E48 SLP181 P0001 T00170011=
201612051836 SPECI KPAE 051836Z 12007KT 1SM R16R/P6000FT BR OVC002 02/01 A3005 RMK AO2 RAB05E33UPB29E32 P0001 T00170011=
201612051753 METAR KPAE 051753Z 14009KT 3SM BR OVC004 02/01 A3006 RMK AO2 UPE1654 CIG 003V007 SLP183 P0000 60007 I6000 T00170011 10028 20006 55000=
201612051728 SPECI KPAE 051728Z 13009KT 3SM BR OVC003 01/01 A3006 RMK AO2 UPE1654 CIG 003V008 P0000 T00110011=
201612051653 METAR KPAE 051653Z 13013G19KT 3SM UP BR OVC005 02/01 A3005 RMK AO2 RAE1555UPB37SNB1555E37 SLP180 P0001 T00170006=
201612051648 SPECI KPAE 051648Z 13010G19KT 2 1/2SM UP BR OVC005 02/01 A3005 RMK AO2 RAE1555UPB37SNB1555E37 P0001=
201612051602 SPECI KPAE 051602Z 13009KT 1 1/2SM -SN BR OVC005 01/01 A3005 RMK AO2 RAE1555SNB1555 P0000 T00110006=
201612051553 METAR KPAE 051553Z 13010KT 2SM -RA BR OVC005 01/01 A3005 RMK AO2 RAE21B50UPB48E50SNB21E48 SLP182 P0002 I1000 T00110006=
201612051532 SPECI KPAE 051532Z 13009KT 2SM -SN BR OVC005 01/01 A3005 RMK AO2 RAE21SNB21 P0002 I1000 T00110006=
201612051516 SPECI KPAE 051516Z 12009KT 2SM -RA BR BKN010 OVC038 02/01 A3005 RMK AO2 P0001 I1000 T00170006=
201612051453 METAR KPAE 051453Z 13009KT 10SM -RA BKN055 OVC065 02/01 A3005 RMK AO2 RAB10E28B42UPB28E37SNE10 SLP182 P0000 60004 T00220011 58015=
201612051439 SPECI KPAE 051439Z AUTO 12011KT 10SM FEW008 SCT018 OVC048 02/01 A3006 RMK AO2 RAB10E28UPB28E37SNE10 P0000 T00170006=
201612051408 SPECI KPAE 051408Z AUTO 12010KT 5SM -SN BR SCT007 BKN015 OVC021 01/01 A3007 RMK AO2 P0000 T00110006=
201612051353 METAR KPAE 051353Z AUTO 12009KT 3SM -SN BR SCT007 BKN011 OVC018 01/01 A3007 RMK AO2 RAE26SNB26 SLP187 P0003 T00110006=
201612051351 SPECI KPAE 051351Z AUTO 13009KT 3SM -SN BR SCT007 BKN011 OVC018 01/01 A3007 RMK AO2 RAE26SNB26 P0003=
201612051341 SPECI KPAE 051341Z AUTO 13009KT 2SM -SN BR BKN008 BKN011 OVC016 01/01 A3007 RMK AO2 RAE26SNB26 P0002 T00110006=
201612051327 SPECI KPAE 051327Z AUTO 13009KT 6SM -SN BR BKN008 OVC017 02/01 A3007 RMK AO2 RAE26SNB26 P0001 T00170011=
201612051253 METAR KPAE 051253Z AUTO 13009KT 4SM -RA BR OVC010 02/01 A3009 RMK AO2 RAB23 SLP193 P0001 T00170006=
201612051227 SPECI KPAE 051227Z AUTO 13010KT 10SM -RA BKN013 OVC020 02/01 A3009 RMK AO2 RAB23 P0000 T00220006=
201612051219 SPECI KPAE 051219Z AUTO 13009KT 10SM BKN016 OVC022 03/01 A3009 RMK AO2 T00280011=
201612051153 METAR KPAE 051153Z AUTO 12008KT 070V130 10SM BKN012 OVC021 02/01 A3010 RMK AO2 SLP197 60002 70036 T00220006 10022 20011 58008=
201612051134 SPECI KPAE 051134Z AUTO 12006KT 10SM BKN014 OVC019 02/01 A3010 RMK AO2 T00220006=
201612051053 METAR KPAE 051053Z AUTO 12008KT 10SM OVC020 02/01 A3011 RMK AO2 SLP202 T00220006 TSNO=
201612051027 SPECI KPAE 051027Z AUTO 12011KT 10SM BKN020 02/00 A3012 RMK AO2 T00220000=
201612050953 METAR KPAE 050953Z AUTO 12010KT 10SM CLR 02/00 A3012 RMK AO2 SLP204 T00170000=
201612050853 METAR KPAE 050853Z AUTO 11006KT 10SM CLR 02/00 A3012 RMK AO2 SLP206 60002 T00170000 50002=
201612050753 METAR KPAE 050753Z AUTO VRB03KT 10SM FEW020 BKN032 OVC080 01/01 A3013 RMK AO2 SLP209 T00110006 400610011=
201612050701 SPECI KPAE 050701Z AUTO 08008KT 10SM SCT019 BKN046 01/01 A3013 RMK AO2 T00110006=
201612050653 METAR KPAE 050653Z AUTO 08008KT 10SM FEW008 BKN019 BKN046 01/01 A3013 RMK AO2 UPB0557E0559SNB0559E41 SLP209 P0002 T00110006=
201612050630 SPECI KPAE 050630Z AUTO 06004KT 3SM -SN BR FEW007 OVC019 01/01 A3013 RMK AO2 UPB0557E0559SNB0559 P0002 T00110006=
201612050621 SPECI KPAE 050621Z AUTO 01007KT 1 3/4SM -SN BR FEW007 OVC019 01/00 A3013 RMK AO2 UPB0557E0559SNB0559 P0001 T00110000=
201612050616 SPECI KPAE 050616Z AUTO 36007KT 3SM -SN BR FEW008 OVC021 01/01 A3013 RMK AO2 UPB0557E0559SNB0559 P0001 T00110006=
201612050606 SPECI KPAE 050606Z AUTO VRB03KT 5SM -SN BR BKN023 OVC040 01/00 A3012 RMK AO2 UPB0557E0559SNB0559 P0001 T00110000=
201612050553 METAR KPAE 050553Z AUTO 09004KT 10SM FEW019 SCT033 BKN042 01/00 A3012 RMK AO2 UPB0456E0459B40E47SNB0459E40 SLP204 P0002 60002 T00110000 10056 20011 52008=
201612050535 SPECI KPAE 050535Z AUTO 08006KT 6SM -SN BR SCT017 BKN043 BKN080 01/00 A3011 RMK AO2 UPB0456E0459SNB0459 P0002 T00110000=
201612050521 SPECI KPAE 050521Z AUTO 09007KT 2 1/2SM -SN BR BKN018 BKN024 OVC039 02/00 A3011 RMK AO2 VIS 1 1/2V5 UPB0456E0459SNB0459 P0002 T00170000=
201612050453 METAR KPAE 050453Z AUTO 09005KT 10SM BKN039 OVC049 02/00 A3011 RMK AO2 SLP202 T00170000=
201612050353 METAR KPAE 050353Z 12007KT 10SM SCT055 03/M01 A3010 RMK AO2 SLP197 T00281011=
201612050253 METAR KPAE 050253Z 14005KT 10SM SCT043 BKN070 02/00 A3009 RMK AO2 SLP196 T00220000 50007=
201612050153 METAR KPAE 050153Z 12007KT 10SM FEW045 OVC060 03/00 A3010 RMK AO2 SLP197 T00280000=
201612050053 METAR KPAE 050053Z 08004KT 10SM BKN060 04/M01 A3008 RMK AO2 SLP191 T00391011=
201612042353 METAR KPAE 042353Z VRB05KT 10SM BKN060 06/M02 A3007 RMK AO2 SLP187 60032 T00561017 10061 20017 52011=
201612042253 METAR KPAE 042253Z 36003KT 10SM BKN049 OVC060 05/M01 A3006 RMK AO2 RAB2155E01B18E49SNE18 SLP184 P0001 T00501011=
201612042153 METAR KPAE 042153Z 34007KT 8SM -SN SCT042 OVC050 03/M01 A3005 RMK AO2 RAB02E46SNB46 SLP180 P0002 T00331006=
201612042053 METAR KPAE 042053Z 32004KT 10SM FEW045 OVC055 04/00 A3004 RMK AO2 UPE1956 SLP176 P0000 60029 T00440000 50006=
201612042000 SPECI KPAE 042000Z 35004KT 10SM BKN039 OVC060 04/M01 A3004 RMK AO2 UPE1956 P0000 T00391006=
201612041953 METAR KPAE 041953Z 35004KT 5SM UP BKN017 03/00 A3004 RMK AO2 RAB03E49UPB49SNE47 SLP176 P0011 T00330000=
201612041853 METAR KPAE 041853Z 27007KT 5SM -SN OVC016 02/M01 A3004 RMK AO2 RAE27B51E52SNB27 SLP178 P0018 T00221006=
201612041842 SPECI KPAE 041842Z 29005KT 2SM -SN BKN016 OVC034 02/M01 A3004 RMK AO2 RAE27SNB27 P0012 T00221011=
201612041830 SPECI KPAE 041830Z 32007G18KT 290V350 1 3/4SM -SN BKN030 BKN060 OVC080 03/M01 A3003 RMK AO2 RAE27SNB27 P0004 T00281011=
201612041753 METAR KPAE 041753Z 29007KT 250V310 10SM -RA BKN030 BKN060 OVC080 04/01 A3002 RMK AO2 RAE02B23 SLP169 P0000 60000 T00440011 10050 20033 53016=
201612041653 METAR KPAE 041653Z 29007KT 10SM -RA SCT026 BKN032 OVC042 04/00 A3001 RMK AO2 RAB26 SLP164 P0000 T00390000=
201612041553 METAR KPAE 041553Z 29006G15KT 10SM BKN026 04/01 A2999 RMK AO2 RAB35E44 SLP158 P0000 T00390006=
201612041529 SPECI KPAE 041529Z 27007G21KT 10SM BKN020 OVC120 04/01 A2997 RMK AO2 T00440006=
201612041453 METAR KPAE 041453Z 28007G16KT 10SM OVC110 04/01 A2998 RMK AO2 SLP153 60000 T00440006 55001=
201612041353 METAR KPAE 041353Z AUTO 28007KT 260V330 10SM OVC085 04/01 A2996 RMK AO2 SLP148 T00440011=
201612041253 METAR KPAE 041253Z AUTO VRB03KT 10SM SCT017 OVC065 05/02 A2997 RMK AO2 RAB08E33 SLP150 P0000 T00500022=
201612041240 SPECI KPAE 041240Z AUTO 00000KT 10SM BKN017 OVC065 05/03 A2997 RMK AO2 RAB08E33 P0000 T00500028=
201612041231 SPECI KPAE 041231Z AUTO VRB04KT 10SM -RA SCT017 OVC060 05/03 A2997 RMK AO2 RAB08 P0000 T00500028=
201612041213 SPECI KPAE 041213Z AUTO VRB04KT 10SM -RA BKN015 BKN019 OVC055 05/03 A2997 RMK AO2 RAB08 P0000 T00500028=
201612041206 SPECI KPAE 041206Z AUTO 00000KT 10SM BKN013 OVC019 05/03 A2997 RMK AO2 T00500033=
201612041153 METAR KPAE 041153Z AUTO 00000KT 10SM BKN015 OVC019 05/03 A2998 RMK AO2 RAE01 SLP154 P0000 60008 70012 T00500033 10067 20050 55009=
201612041142 SPECI KPAE 041142Z AUTO 00000KT 10SM OVC015 05/03 A2998 RMK AO2 RAE01 P0000 T00500033=
201612041053 METAR KPAE 041053Z AUTO VRB06KT 10SM -RA OVC011 05/04 A2999 RMK AO2 SLP159 P0002 T00500039=
201612041042 SPECI KPAE 041042Z AUTO 33005KT 10SM -RA FEW006 OVC011 05/04 A2999 RMK AO2 P0002 T00500039=
201612041005 SPECI KPAE 041005Z AUTO 00000KT 9SM -RA BKN009 OVC016 05/04 A3000 RMK AO2 P0001 T00500044=
201612040953 METAR KPAE 040953Z AUTO VRB03KT 10SM -RA BKN013 BKN019 OVC026 05/04 A3001 RMK AO2 SLP163 P0001 T00500039=
201612040948 SPECI KPAE 040948Z AUTO VRB03KT 10SM -RA SCT011 BKN018 OVC024 05/04 A3001 RMK AO2 P0001=
201612040941 SPECI KPAE 040941Z AUTO 30005KT 10SM -RA BKN011 OVC022 05/04 A3001 RMK AO2 P0001 T00500044=
201612040914 SPECI KPAE 040914Z AUTO 30005KT 6SM -RA BR BKN009 OVC020 05/04 A3002 RMK AO2 P0001 T00500044=
201612040905 SPECI KPAE 040905Z AUTO 00000KT 4SM -RA BR BKN010 OVC020 05/05 A3002 RMK AO2 P0001 T00500050=
201612040853 METAR KPAE 040853Z AUTO 32005KT 5SM -RA BR SCT010 BKN016 OVC022 06/05 A3002 RMK AO2 SLP169 P0001 60005 T00560050 56016=
201612040820 SPECI KPAE 040820Z AUTO 31004KT 5SM -RA BR FEW005 BKN017 OVC022 06/05 A3003 RMK AO2 P0001 T00560050=
201612040812 SPECI KPAE 040812Z AUTO 31004KT 5SM -RA BR FEW005 BKN008 OVC017 06/05 A3003 RMK AO2 P0001 T00560050=
201612040753 METAR KPAE 040753Z AUTO 29005KT 4SM -RA BR BKN004 OVC010 06/05 A3003 RMK AO2 CIG 002V007 SLP173 P0002 T00560050 400780056=
201612040717 SPECI KPAE 040717Z AUTO 26003KT 6SM -RA BR BKN003 OVC009 06/06 A3005 RMK AO2 P0001 T00560056=
201612040653 METAR KPAE 040653Z AUTO 32006KT 9SM -RA OVC007 06/05 A3005 RMK AO2 CIG 003V010 SLP179 P0002 T00560050=
201612040635 SPECI KPAE 040635Z AUTO 30006KT 10SM -RA BKN006 OVC016 06/06 A3006 RMK AO2 CIG 003V009 P0001 T00610056=
201612040553 METAR KPAE 040553Z AUTO 19009KT 10SM -RA FEW009 BKN019 OVC027 07/06 A3007 RMK AO2 RAB49 SLP184 P0000 60000 T00720056 10078 20072 56011=
201612040529 SPECI KPAE 040529Z AUTO 18012KT 10SM SCT009 BKN016 OVC027 07/06 A3006 RMK AO2 T00720056=
201612040519 SPECI KPAE 040519Z AUTO 20010KT 10SM BKN012 OVC020 07/06 A3007 RMK AO2 T00720056=
201612040453 METAR KPAE 040453Z AUTO 19011KT 10SM OVC015 07/06 A3007 RMK AO2 SLP185 T00720056=
201612040353 METAR KPAE 040353Z 18016G20KT 10SM OVC015 08/05 A3009 RMK AO2 SLP190 T00780050=
201612040300 SPECI KPAE 040300Z 16011G21KT 10SM OVC017 08/05 A3010 RMK AO2 T00780050=
201612040253 METAR KPAE 040253Z 16014KT 10SM OVC014 08/05 A3010 RMK AO2 SLP196 T00780050 56030=
201612040153 METAR KPAE 040153Z 17014G21KT 10SM OVC014 08/06 A3012 RMK AO2 SLP202 T00780056=
201612040145 SPECI KPAE 040145Z 16015G23KT 10SM OVC014 08/06 A3013 RMK AO2 T00780056=
201612040053 METAR KPAE 040053Z 16013KT 10SM OVC018 08/06 A3015 RMK AO2 SLP212 T00780056=
201612032353 METAR KPAE 032353Z 16014KT 10SM BKN021 BKN027 OVC120 08/05 A3019 RMK AO2 SLP226 T00780050 10078 20067 58021=
201612032253 METAR KPAE 032253Z 16014KT 10SM BKN021 BKN085 BKN120 08/05 A3021 RMK AO2 SLP234 T00780050=
201612032210 SPECI KPAE 032210Z 16014KT 10SM BKN017 08/06 A3023 RMK AO2 T00780056=
201612032153 METAR KPAE 032153Z 16012KT 10SM FEW017 08/06 A3023 RMK AO2 SLP241 T00780056=
201612032100 SPECI KPAE 032100Z 15014KT 10SM FEW015 08/05 A3025 RMK AO2 T00780050=
201612032053 METAR KPAE 032053Z 15011KT 10SM BKN013 BKN080 08/06 A3025 RMK AO2 SLP248 T00780056 55002=
201612031953 METAR KPAE 031953Z 16013KT 10SM BKN013 OVC020 08/05 A3024 RMK AO2 SLP243 T00780050=
201612031917 SPECI KPAE 031917Z 17011KT 10SM BKN013 OVC020 07/05 A3027 RMK AO2 T00720050=
201612031910 SPECI KPAE 031910Z 16011KT 10SM FEW011 OVC017 07/06 A3026 RMK AO2 T00720056=
201612031853 METAR KPAE 031853Z 16013KT 10SM BKN013 OVC020 07/06 A3027 RMK AO2 SLP254 T00720056=
201612031820 SPECI KPAE 031820Z 13007KT 10SM SCT009 BKN013 OVC080 07/06 A3027 RMK AO2 T00670056=
201612031802 SPECI KPAE 031802Z 12007KT 10SM BKN013 OVC085 07/05 A3025 RMK AO2 T00670050=
201612031753 METAR KPAE 031753Z 13008KT 10SM BKN015 OVC085 07/06 A3026 RMK AO2 SLP250 60004 T00670056 10072 20056 50002=
201612031750 SPECI KPAE 031750Z 13008KT 10SM FEW009 BKN015 OVC085 07/06 A3027 RMK AO2=
201612031703 SPECI KPAE 031703Z 13007KT 10SM BKN011 OVC085 06/06 A3027 RMK AO2 T00610056=
201612031653 METAR KPAE 031653Z 13007KT 10SM FEW007 SCT011 BKN085 06/06 A3026 RMK AO2 SLP251 T00610056=
201612031553 METAR KPAE 031553Z 14006KT 10SM SCT075 06/05 A3027 RMK AO2 SLP252 T00560050=
201612031453 METAR KPAE 031453Z 13006KT 10SM FEW008 SCT020 OVC080 06/06 A3026 RMK AO2 RAB19E46 SLP248 P0004 60004 T00610056 53005=
201612031433 SPECI KPAE 031433Z AUTO 13005KT 4SM RA BR SCT009 BKN018 OVC026 07/06 A3025 RMK AO2 RAB19 P0003 T00670056=
201612031353 METAR KPAE 031353Z AUTO 15004KT 10SM FEW005 BKN010 OVC019 07/06 A3025 RMK AO2 SLP246 T00670061=
201612031348 SPECI KPAE 031348Z AUTO 15004KT 10SM SCT005 BKN010 OVC019 07/06 A3024 RMK AO2=
201612031253 METAR KPAE 031253Z AUTO 15005KT 10SM BKN006 OVC029 07/06 A3024 RMK AO2 CIG 003V010 SLP243 T00670061=
201612031243 SPECI KPAE 031243Z AUTO 14003KT 9SM BKN005 OVC029 07/07 A3024 RMK AO2 CIG 003V010 T00720067=
201612031200 SPECI KPAE 031200Z AUTO 14005KT 8SM BKN004 OVC027 07/07 A3023 RMK AO2 T00720067=
201612031153 METAR KPAE 031153Z AUTO 13005KT 9SM SCT003 OVC027 07/07 A3023 RMK AO2 SLP239 60006 70026 T00720067 10072 20072 53007=
201612031141 SPECI KPAE 031141Z AUTO 12007KT 8SM FEW003 OVC027 07/07 A3023 RMK AO2 T00720067=
201612031053 METAR KPAE 031053Z AUTO VRB03KT 10SM OVC027 07/07 A3021 RMK AO2 SLP235 T00720067=
201612031023 SPECI KPAE 031023Z AUTO 13004KT 10SM BKN029 07/07 A3021 RMK AO2 T00720067=
201612030953 METAR KPAE 030953Z AUTO VRB04KT 10SM FEW033 SCT048 BKN065 07/07 A3021 RMK AO2 RAE28 SLP233 P0004 T00720067=
201612030931 SPECI KPAE 030931Z AUTO 16006KT 10SM SCT005 OVC047 07/07 A3021 RMK AO2 RAE28 P0004 T00720067=
201612030922 SPECI KPAE 030922Z AUTO 14008KT 3SM -RA BR SCT004 BKN021 OVC047 07/06 A3021 RMK AO2 P0004 T00720061=
201612030920 SPECI KPAE 030920Z AUTO 14007KT 2 1/2SM -RA BR SCT004 BKN013 OVC045 07/07 A3021 RMK AO2 P0004 T00720067=
201612030900 METAR KPAE NIL=
201612030839 SPECI KPAE 030839Z AUTO 00000KT 7SM -RA BKN004 OVC022 07/07 A3020 RMK AO2 RAB34 P0000 T00720067=
201612030816 SPECI KPAE 030816Z AUTO 15005KT 8SM SCT004 OVC022 07/07 A3019 RMK AO2 T00720067=
201612030753 METAR KPAE 030753Z AUTO 14008KT 8SM OVC025 07/07 A3018 RMK AO2 SLP222 T00720067 400830056=
201612030735 SPECI KPAE 030735Z AUTO 13006KT 9SM FEW003 OVC025 07/07 A3017 RMK AO2 T00720067=
201612030653 METAR KPAE 030653Z AUTO 13004KT 10SM OVC024 07/07 A3016 RMK AO2 SLP216 T00720067=
201612030553 METAR KPAE 030553Z AUTO 15004KT 10SM SCT006 BKN025 OVC034 07/07 A3014 RMK AO2 RAE38 SLP209 P0001 60012 T00720067 10078 20072 51012=
201612030500 SPECI KPAE 030500Z 13008KT 4SM -RA BR FEW006 BKN025 OVC034 07/07 A3014 RMK AO2 P0000 T00720067=
201612030453 METAR KPAE 030453Z 15006KT 4SM -RA BR BKN006 BKN026 OVC031 07/07 A3014 RMK AO2 SLP209 P0005 T00720067=
201612030353 METAR KPAE 030353Z 15006KT 4SM -RA BR OVC005 07/07 A3012 RMK AO2 RAB03 CIG 003V008 SLP201 P0005 T00720067=
201612030253 METAR KPAE 030253Z 17008KT 8SM OVC006 07/07 A3011 RMK AO2 RAE20 SLP197 P0000 60001 T00720067 51014=
201612030207 SPECI KPAE 030207Z 16015KT 7SM -RA BKN009 OVC019 07/06 A3009 RMK AO2 P0000 T00720061=
201612030153 METAR KPAE 030153Z 17016G24KT 6SM -RA BR FEW009 BKN012 OVC019 07/06 A3009 RMK AO2 SLP191 P0001 T00720061=
201612030053 METAR KPAE 030053Z 17017G25KT 6SM -RA BR OVC010 08/07 A3009 RMK AO2 PK WND 13026/0000 RAE2356B46 CIG 006V014 SLP194 P0000 T00780067=
201612022353 METAR KPAE 022353Z 13016G28KT 2 1/2SM -RA BR OVC006 08/07 A3006 RMK AO2 PK WND 12028/2346 CIG 004V010 SLP183 P0000 60001 T00780067 10083 20067 56028=
201612022253 METAR KPAE 022253Z 13018G28KT 1 1/2SM -RA BR BKN006 BKN012 OVC047 08/07 A3009 RMK AO2 PK WND 15028/2203 SLP193 P0001 T00780067=
201612022225 SPECI KPAE 022225Z 14017G25KT 1SM R16R/P6000FT -RA BR BKN006 BKN024 OVC050 08/07 A3010 RMK AO2 PK WND 15028/2203 P0000 T00780067=
201612022153 METAR KPAE 022153Z 14021G31KT 2SM -RA BR BKN018 OVC028 08/06 A3011 RMK AO2 PK WND 15033/2120 RAB51 SLP200 P0000 T00830061=
201612022053 METAR KPAE 022053Z 14017G25KT 10SM BKN018 BKN023 OVC029 08/06 A3015 RMK AO2 PK WND 14031/1958 SLP211 60000 T00830056 58029=
201612022015 SPECI KPAE 022015Z 13020G28KT 10SM SCT021 BKN028 OVC038 08/06 A3016 RMK AO2 PK WND 14031/1958 T00780056=
201612021953 METAR KPAE 021953Z 13019G25KT 10SM BKN033 OVC040 07/06 A3016 RMK AO2 PK WND 12028/1941 SLP217 T00720056=
201612021926 SPECI KPAE 021926Z 12018G25KT 10SM FEW014 SCT024 OVC035 07/06 A3019 RMK AO2 T00720056=
201612021855 SPECI KPAE 021855Z 13016G21KT 9SM FEW019 BKN024 OVC045 07/06 A3022 RMK AO2 T00670056=
201612021853 METAR KPAE 021853Z 12014G19KT 9SM OVC029 07/06 A3022 RMK AO2 RAE14B39E49 SLP236 P0000 T00670056=
201612021812 SPECI KPAE 021812Z 12015G20KT 6SM -RA BR OVC029 07/06 A3023 RMK AO2 P0000 T00670056=
201612021753 METAR KPAE 021753Z 11012G20KT 10SM -RA OVC029 07/06 A3023 RMK AO2 RAB1655 SLP241 P0001 60007 T00670056 10072 20067 58005=
201612021727 SPECI KPAE 021727Z 12014KT 6SM -RA BR BKN028 BKN033 OVC042 07/06 A3025 RMK AO2 RAB1655 P0000 T00670056=
201612021653 METAR KPAE 021653Z 13014KT 10SM SCT030 OVC036 07/06 A3025 RMK AO2 RAE49 SLP248 P0002 T00670056=
201612021649 SPECI KPAE 021649Z 13014KT 10SM SCT029 OVC036 07/06 A3026 RMK AO2 RAE49 P0002=
201612021620 SPECI KPAE 021620Z 13015KT 10SM -RA BKN028 BKN050 OVC095 07/06 A3026 RMK AO2 P0001 T00670056=
201612021553 METAR KPAE 021553Z 13015KT 10SM -RA SCT055 OVC075 07/06 A3025 RMK AO2 SLP246 P0002 T00670056=
201612021504 SPECI KPAE 021504Z 13014KT 10SM -RA SCT009 OVC090 07/06 A3026 RMK AO2 P0000 T00670056=
201612021453 METAR KPAE 021453Z 12014KT 10SM -RA FEW011 FEW060 OVC090 07/06 A3025 RMK AO2 SLP248 P0002 60002 T00670056 56010=
201612021353 METAR KPAE 021353Z AUTO 13014KT 10SM -RA FEW024 BKN050 OVC075 07/06 A3026 RMK AO2 RAB43 SLP251 P0000 T00670056=
201612021253 METAR KPAE 021253Z AUTO 13013KT 10SM FEW023 FEW065 BKN110 07/05 A3027 RMK AO2 SLP254 T00670050=
201612021153 METAR KPAE 021153Z AUTO 12012KT 10SM FEW017 SCT036 BKN120 07/05 A3028 RMK AO2 SLP258 60001 70002 T00670050 10067 20056 58011=
201612021135 SPECI KPAE 021135Z AUTO 11011G20KT 10SM FEW029 BKN120 07/05 A3029 RMK AO2 T00670050=
201612021108 SPECI KPAE 021108Z AUTO 12012KT 10SM FEW018 BKN028 OVC037 06/05 A3030 RMK AO2 T00610050=
201612021053 METAR KPAE 021053Z AUTO 12009KT 10SM FEW004 SCT028 OVC037 06/06 A3031 RMK AO2 RAE15 SLP266 P0000 T00610056=
201612021017 SPECI KPAE 021017Z AUTO 12010G17KT 6SM BR FEW004 BKN018 OVC025 06/06 A3032 RMK AO2 RAE15 P0000 T00610056=
201612020953 METAR KPAE 020953Z AUTO 12009KT 3SM -RA BR SCT005 BKN014 OVC023 06/06 A3032 RMK AO2 RAB28 SLP269 P0000 T00610056=
201612020941 SPECI KPAE 020941Z AUTO 12009G15KT 3SM -RA BR FEW004 BKN012 OVC025 06/06 A3032 RMK AO2 RAB28 P0000 T00610056=
201612020933 SPECI KPAE 020933Z AUTO 12010G17KT 2 1/2SM -RA BR FEW004 SCT011 OVC023 06/06 A3032 RMK AO2 RAB28 P0000 T00610056=
201612020928 SPECI KPAE 020928Z AUTO 12011G17KT 2 1/2SM -RA BR BKN011 BKN018 OVC026 06/05 A3032 RMK AO2 RAB28 P0000 T00610050=
201612020901 SPECI KPAE 020901Z AUTO 11006KT 10SM OVC010 06/05 A3032 RMK AO2 T00610050=
201612020853 METAR KPAE 020853Z AUTO VRB05KT 10SM OVC009 06/05 A3032 RMK AO2 SLP270 60001 T00610050 58002=
201612020838 SPECI KPAE 020838Z AUTO 12008KT 10SM SCT005 OVC008 06/05 A3032 RMK AO2 T00560050=
201612020753 METAR KPAE 020753Z AUTO VRB05KT 5SM BR OVC004 06/05 A3033 RMK AO2 CIG 003V008 SLP273 T00560050 400670033=
201612020734 SPECI KPAE 020734Z AUTO VRB06KT 5SM BR OVC004 06/05 A3033 RMK AO2 T00560050=
201612020727 SPECI KPAE 020727Z AUTO 11006KT 4SM BR OVC005 06/05 A3033 RMK AO2 T00560050=
201612020705 SPECI KPAE 020705Z AUTO 12008KT 2 1/2SM BR BKN006 BKN010 OVC016 06/05 A3033 RMK AO2 T00560050=
201612020653 METAR KPAE 020653Z AUTO 12007KT 3SM BR BKN006 OVC015 06/05 A3033 RMK AO2 SLP275 P0001 T00560050=
201612020553 METAR KPAE 020553Z AUTO VRB06KT 3SM BR OVC004 06/06 A3032 RMK AO2 RAB09E19 SLP272 P0000 60000 T00560056 10061 20056 58002=
201612020543 SPECI KPAE 020543Z AUTO VRB04KT 3SM BR BKN004 OVC008 06/06 A3032 RMK AO2 RAB09E19 CIG 003V006 P0000 T00560056=
201612020522 SPECI KPAE 020522Z AUTO VRB05KT 3SM BR OVC005 06/06 A3033 RMK AO2 RAB09E19 P0000 T00560056 TSNO=
201612020512 SPECI KPAE 020512Z AUTO 11004KT 2 1/2SM -RA BR OVC005 06/06 A3033 RMK AO2 RAB09 P0000 T00560056 TSNO=
201612020500 SPECI KPAE 020500Z AUTO VRB03KT 3SM BR OVC005 06/06 A3033 RMK AO2 T00610056 TSNO=
201612020453 METAR KPAE 020453Z 12005KT 2SM BR OVC007 06/05 A3033 RMK AO2 SLP274 T00610050=
201612020432 SPECI KPAE 020432Z 12008KT 2SM BR OVC009 06/05 A3033 RMK AO2 CIG 007V012 T00610050=
201612020410 SPECI KPAE 020410Z 12006KT 10SM BKN009 BKN024 OVC065 06/04 A3033 RMK AO2 T00610044=
201612020353 METAR KPAE 020353Z VRB04KT 10SM BKN021 OVC065 06/04 A3033 RMK AO2 SLP274 T00610044=
201612020253 METAR KPAE 020253Z VRB03KT 10SM FEW016 BKN022 OVC060 06/05 A3033 RMK AO2 SLP274 T00610050 51008=
201612020228 SPECI KPAE 020228Z VRB03KT 10SM BKN022 OVC050 06/04 A3032 RMK AO2 T00610044=
201612020153 METAR KPAE 020153Z VRB03KT 10SM BKN050 OVC070 06/05 A3032 RMK AO2 SLP272 T00610050=
201612020053 METAR KPAE 020053Z VRB03KT 10SM OVC065 06/05 A3032 RMK AO2 SLP270 T00610050=
201612012353 METAR KPAE 012353Z 12005KT 10SM OVC070 06/04 A3030 RMK AO2 RAE03 SLP266 P0000 60001 T00610044 10067 20056 51008=
201612012253 METAR KPAE 012253Z 13004KT 9SM -RA SCT011 BKN042 OVC049 07/04 A3030 RMK AO2 RAB08 SLP264 P0001 T00670044=
201612012153 METAR KPAE 012153Z 00000KT 10SM BKN047 OVC070 07/04 A3029 RMK AO2 RAB21E47 SLP261 P0000 T00670044=
201612012053 METAR KPAE 012053Z 15006KT 10SM FEW011 BKN050 OVC070 06/04 A3028 RMK AO2 SLP258 T00610039 51006=
201612012006 SPECI KPAE 012006Z 15006KT 10SM BKN010 BKN026 OVC075 06/04 A3028 RMK AO2 T00610044=
201612011953 METAR KPAE 011953Z 15004KT 10SM FEW010 BKN060 OVC075 06/04 A3028 RMK AO2 SLP258 T00610044=
201612011853 METAR KPAE 011853Z 13006KT 10SM FEW005 SCT029 BKN060 06/04 A3027 RMK AO2 SLP253 T00560039=
201612011753 METAR KPAE 011753Z 16007KT 10SM SCT030 BKN036 06/04 A3026 RMK AO2 RAB23E32 SLP252 P0000 60000 T00560039 10056 20033 51017=
201612011653 METAR KPAE 011653Z 16005KT 10SM FEW014 SCT032 OVC060 04/04 A3025 RMK AO2 RAB33E43 SLP247 P0000 T00440039=
201612011553 METAR KPAE 011553Z 16006KT 10SM FEW032 OVC050 04/03 A3023 RMK AO2 SLP241 T00390033=
201612011453 METAR KPAE 011453Z 12006KT 10SM SCT050 04/03 A3021 RMK AO2 SLP234 T00390033 53006=
201612011353 METAR KPAE 011353Z AUTO 14004KT 10SM BKN030 BKN055 04/03 A3020 RMK AO2 SLP230 T00440033=
201612011253 METAR KPAE 011253Z AUTO 17005KT 10SM FEW029 03/03 A3020 RMK AO2 SLP230 T00330028=
201612011153 METAR KPAE 011153Z AUTO 13004KT 10SM SCT033 04/03 A3019 RMK AO2 SLP228 70004 T00440028 10056 20033 53011=
201612011053 METAR KPAE 011053Z AUTO 13008KT 10SM FEW029 BKN065 BKN085 05/03 A3019 RMK AO2 SLP225 T00500033=
201612010953 METAR KPAE 010953Z AUTO 15006KT 10SM FEW028 BKN100 04/03 A3016 RMK AO2 SLP217 T00440033=
201612010853 METAR KPAE 010853Z AUTO 14004KT 10SM CLR 04/03 A3016 RMK AO2 SLP216 T00440033 53014=
201612010753 METAR KPAE 010753Z AUTO 13010KT 10SM CLR 05/04 A3014 RMK AO2 SLP210 T00500039 400940050=
201612010653 METAR KPAE 010653Z AUTO 13007KT 10SM FEW043 SCT080 06/04 A3013 RMK AO2 SLP206 T00560039=
201612010553 METAR KPAE 010553Z AUTO 13007KT 10SM FEW041 SCT075 06/04 A3012 RMK AO2 SLP202 T00560039 10067 20050 52015=
201612010453 METAR KPAE 010453Z 12005KT 10SM FEW037 FEW046 BKN070 06/03 A3010 RMK AO2 SLP196 T00560033=
201612010353 METAR KPAE 010353Z 12009KT 10SM FEW041 BKN065 06/04 A3009 RMK AO2 SLP192 T00560044=
201612010253 METAR KPAE 010253Z 13006KT 10SM FEW041 SCT070 BKN100 06/04 A3007 RMK AO2 SLP187 T00560039 53013=
201612010153 METAR KPAE 010153Z 08004KT 10SM SCT080 06/04 A3006 RMK AO2 SLP181 T00610039=
201612010053 METAR KPAE 010053Z 00000KT 10SM CLR 06/04 A3004 RMK AO2 SLP177 T00610044=
201612010008 SPECI KPAE 010008Z 34005KT 10SM FEW026 OVC038 07/04 A3004 RMK AO2 T00670044=

# No short TAF reports from KPAE in databse.

###################################
#  large TAF from KPAE
###################################
201612312323 TAF KPAE 312323Z 0100/0124 13012KT P6SM -SHRA SCT015 OVC045
                      TEMPO 0100/0104 5SM -SHRASN BKN015 OVC035
                       FM010400 36008KT 2SM -SHSN OVC012
                      TEMPO 0107/0111 1SM -SHSN BR OVC003 FM011600
                       35010KT P6SM FEW015 BKN030=
201612312201 KPAE 312201Z 3122/0118 13012KT P6SM SCT005 BKN035
                      TEMPO 3122/3124 BKN005 OVC035 FM010000 16010KT
                       5SM -SHRASN BR BKN012 OVC025 FM010400 36008KT
                       2SM -SHSN OVC012
                      TEMPO 0107/0111 1SM -SHSN BR OVC003 FM011600
                       35010KT P6SM FEW015 BKN030=
201612311907 KPAE 311907Z 3119/0118 15005KT P6SM FEW004 SCT025 OVC040
                      TEMPO 3119/3120 4SM BR SCT004 BKN025 OVC040
                       FM312000 18012KT 5SM -SHRA BR SCT025 OVC035
                       FM010200 28010KT 5SM -SHRASN BR BKN012 OVC025
                       FM010400 36008KT 2SM -SHSN OVC012
                      TEMPO 0107/0111 1SM -SHSN BR OVC003 FM011600
                       35010KT P6SM FEW015 BKN030=
201612311723 TAF KPAE 311723Z 3118/0118 13006KT 1/4SM FG VV001 FM312000 18012KT
                       5SM -SHRA BR OVC015 FM010200 28010KT 5SM
                       -SHRASN BR OVC012 FM010400 36008KT 2SM -SHSN
                       OVC012
                      TEMPO 0107/0111 1SM -SHSN BR OVC003 FM011600
                       35010KT P6SM FEW015 BKN030=
201612311600 KPAE 311600Z 3116/0112 13006KT 1/4SM FG VV001 FM311800 17010KT
                       4SM BR BKN015 OVC030 FM312000 18012KT 5SM
                       -SHRA BR OVC015 FM010200 28010KT 5SM -SHRASN
                       BR OVC012 FM010400 36008KT 2SM -SHSN OVC012
                       TEMPO 0107/0111 1SM -SN BR OVC003=
201612311201 TAF KPAE 311201Z 3112/0112 16006KT P6SM SCT012 OVC030
                      TEMPO 3112/3114 VRB03KT 2SM BR SCT005 BKN012
                       BKN030 FM311800 17010KT P6SM VCSH BKN015
                       OVC030 FM312000 18012KT 5SM -SHRA BR OVC015
                       FM010200 28010KT 5SM -SHRASN BR OVC012 FM010400
                       36008KT 2SM -SHSN OVC012
                      TEMPO 0107/0111 1SM -SN BR OVC003=
201612310544 TAF KPAE 310544Z 3106/0106 VRB03KT P6SM FEW020 SCT040
                      TEMPO 3108/3112 3SM BR SCT005 BKN020 FM311200
                       16006KT P6SM SCT007 BKN012 BKN025 FM311800
                       17008KT P6SM BKN015 OVC030 FM312100 18010KT
                       P6SM -SHRA OVC015 FM010300 28007KT 5SM -SHRASN
                       BR OVC012=
201612302320 TAF KPAE 302320Z 3100/3124 31003KT P6SM FEW020 BKN040 FM310300
                       VRB03KT P6SM FEW020 SCT040 FM311200 15004KT
                       P6SM SCT007 BKN012 BKN025 FM311800 17006KT
                       P6SM BKN015 OVC030 FM312100 16010KT P6SM
                       -RA OVC015=
201612301720 TAF KPAE 301720Z 3018/3118 33004KT P6SM FEW020 SCT040 FM310300
                       VRB03KT P6SM SCT040 FM311200 15004KT P6SM
                       BKN012 BKN025=
201612301218 KPAE 301218Z 3012/3112 VRB04KT P6SM -SHRA SCT008 BKN015 OVC025
                       TEMPO 3012/3014 VRB04KT 5SM BR BKN008 OVC012
                       FM301400 05004KT P6SM VCSH BKN015 FM301600
                       36007KT P6SM BKN025 FM302200 34007KT P6SM
                       BKN035 FM310300 35004KT P6SM OVC020=
201612301136 TAF KPAE 301136Z 3012/3112 14004KT P6SM SCT008 OVC012
                      TEMPO 3012/3014 VRB04KT 5SM BR BKN008 OVC012
                       FM301400 05004KT P6SM VCSH BKN015 FM301600
                       36007KT P6SM BKN025 FM302200 34007KT P6SM
                       BKN035 FM310300 35004KT P6SM OVC020=
201612300907 KPAE 300907Z 3009/3106 06005KT P6SM BKN015 BKN025 FM301200 VRB04KT
                       P6SM OVC012 FM301500 30006KT P6SM BKN022
                       FM301900 33008KT P6SM BKN025 FM302200 35006KT
                       P6SM OVC025 FM310300 35004KT P6SM OVC020=
201612300717 KPAE 300717Z 3007/3106 31005KT P6SM VCSH SCT025 BKN060 FM301000
                       31005KT P6SM OVC025 FM301200 VRB04KT P6SM
                       OVC012 FM301500 30006KT P6SM BKN022 FM301900
                       33008KT P6SM BKN025 FM302200 35006KT P6SM
                       OVC025 FM310300 35004KT P6SM OVC020=
201612300554 TAF KPAE 300554Z 3006/3106 31005KT P6SM -SHRA BKN020 OVC060 FM300900
                       27005KT P6SM VCSH OVC015 FM301200 VRB04KT
                       P6SM OVC012 FM301500 30006KT P6SM BKN022
                       FM301900 33008KT P6SM BKN025 FM302200 35006KT
                       P6SM OVC025 FM310300 35004KT P6SM OVC020=
201612292330 TAF KPAE 292330Z 3000/3024 16015G25KT P6SM -RA BKN018 BKN027 OVC060
                       FM300300 20008KT P6SM -SHRA BKN015 BKN040
                       FM300800 19006KT 5SM BR OVC012 FM301800
                       17005KT P6SM BKN025 BKN040 FM302100 35006KT
                       P6SM SCT045 BKN250=
201612292100 KPAE 292100Z 2921/3018 15020G30KT P6SM -RA OVC024
                      TEMPO 2921/2924 4SM -RA BR OVC018 FM300000
                       17010KT 5SM -SHRA BR BKN015 OVC030 FM300400
                       20008KT 5SM -SHRA BR BKN015 BKN040 FM300800
                       19006KT 5SM BR OVC012=
201612291720 TAF KPAE 291720Z 2918/3018 12011KT P6SM SCT070 OVC100 FM292000
                       17015G23KT 4SM -RA BR SCT023 OVC040 FM300000
                       17010KT 5SM -SHRA BR BKN015 OVC030 FM300400
                       20008KT 5SM -SHRA BR BKN015 BKN040 FM300800
                       19006KT 5SM BR OVC012=
201612291143 TAF KPAE 291143Z 2912/3012 13012KT P6SM SCT040 OVC060 FM291300
                       15014G20KT P6SM -RA SCT030 OVC060 FM291800
                       16017G26KT 4SM -RA BR BKN025 OVC040 FM300000
                       17010KT 5SM -SHRA BR BKN015 OVC030 FM300400
                       20008KT 5SM -SHRA BR BKN015 BKN040 FM300800
                       19006KT 5SM BR OVC012=
201612290554 TAF KPAE 290554Z 2906/3006 09006KT P6SM SCT030 OVC100 FM291300
                       15013KT P6SM -RA SCT030 OVC060 FM291800
                       16018G27KT 4SM -RA BR BKN022 OVC035 FM300000
                       17010KT P6SM -SHRA BKN015 OVC030=
201612282335 TAF KPAE 282335Z 2900/2924 13010KT P6SM SCT030 BKN110 FM291200
                       15012KT P6SM -RA SCT030 OVC060 FM291800
                       17018G27KT 4SM -RA BR SCT020 OVC035=
201612281730 TAF KPAE 281730Z 2818/2918 14011KT P6SM OVC016 FM282100 16010KT
                       P6SM SCT022 BKN250 FM290300 15008KT P6SM
                       SCT030 BKN100 OVC150 FM291000 14010KT P6SM
                       SCT025 BKN080 OVC100 FM291500 15012KT P6SM
                       -RA OVC035=
201612281146 TAF KPAE 281146Z 2812/2912 15008KT P6SM SCT025 BKN050 FM281600
                       16012KT P6SM SCT035 BKN080 BKN150 FM290300
                       15008KT P6SM SCT030 BKN100 OVC150 FM291000
                       14010KT P6SM SCT025 BKN080 OVC100=
201612281119 KPAE 281119Z 2811/2906 15006KT P6SM VCSH SCT025 BKN050
                      TEMPO 2812/2815 5SM BR BKN025 OVC050 FM281800
                       16010KT P6SM BKN030 BKN080 BKN150 FM290300
                       14010KT P6SM SCT030 BKN080 OVC120=
201612280737 KPAE 280737Z 2808/2906 16008KT P6SM VCSH SCT025 BKN050
                      TEMPO 2809/2812 4SM BR OVC022 FM281200 17008KT
                       4SM BR OVC015 FM281800 16011KT P6SM BKN030
                       BKN080 BKN150 FM290300 14010KT P6SM SCT030
                       BKN080 OVC120=
201612280535 TAF KPAE 280535Z 2806/2906 17008KT P6SM VCSH BKN035 BKN080 FM280800
                       17008KT P6SM VCSH BKN025 OVC035 FM281200
                       18008KT P6SM OVC022 FM281900 16011KT P6SM
                       SCT030 BKN120 OVC200 FM290300 14010KT P6SM
                       SCT030 BKN080 OVC120=
201612272335 TAF KPAE 272335Z 2800/2824 23010KT P6SM VCSH SCT009 BKN017 OVC100
                       TEMPO 2800/2804 SCT022 BKN110 FM280400 22010KT
                       P6SM VCSH OVC023 FM280800 22010KT P6SM VCSH
                       OVC016 FM281500 18010KT P6SM SCT020 BKN040
                       FM282000 18009KT P6SM SCT050 OVC250=
201612271735 TAF KPAE 271735Z 2718/2818 19010KT P6SM VCSH OVC009 FM272000 19013G23KT
                       P6SM -SHRA BKN016 OVC030
                      TEMPO 2720/2724 4SM -SHRA BR OVC013 FM280000
                       20010KT P6SM VCSH BKN030 BKN050 FM280600
                       18008KT P6SM VCSH OVC025=
201612271214 TAF KPAE 271214Z 2712/2812 18012KT 5SM -SHRA BR OVC006 FM271700
                       20012KT P6SM -SHRA BKN012 OVC025 FM280000
                       22008KT P6SM VCSH BKN015 OVC030 FM280500
                       20009KT P6SM OVC012=
201612270806 KPAE 270806Z 2708/2806 18016G25KT P6SM -SHRA BKN006 OVC012 FM271200
                       19014G23KT 5SM -SHRA BR OVC006 FM271700
                       20013G20KT P6SM -SHRA BKN012 BKN035 FM280000
                       21010KT P6SM VCSH BKN022 BKN040=
201612270555 TAF KPAE 270555Z 2706/2806 15013G25KT P6SM -RA BKN008 OVC015 FM270800
                       17015G25KT P6SM -SHRA BKN012 BKN025 OVC040
                       FM271400 20013G22KT P6SM -SHRA BKN022 OVC035
                       FM280000 21010KT P6SM VCSH BKN022 BKN040=
201612270316 KPAE 270316Z 2703/2724 13020G30KT 6SM -RA BR BKN006 OVC015 WS020/20045KT
                       FM270500 15020G30KT 4SM RA BKN006 OVC015
                       FM270700 18015G25KT P6SM -SHRA BKN015 BKN025
                       OVC040 FM271800 22014G23KT P6SM -SHRA BKN022
                       OVC035=
201612262325 TAF KPAE 262325Z 2700/2724 11008KT P6SM -RA BKN035 OVC050 FM270300
                       17020G30KT P6SM -RA SCT013 BKN023 OVC035
                       WS020/20045KT FM270800 18015G25KT P6SM -SHRA
                       BKN015 BKN025 OVC040 FM271800 22014G23KT
                       P6SM -SHRA BKN022 OVC035=
201612261725 TAF KPAE 261725Z 2618/2718 VRB04KT P6SM BKN050 OVC110 FM262100
                       16016G26KT P6SM -RA OVC035 FM270400 16016G26KT
                       P6SM -RA SCT010 OVC018 FM270800 18014KT
                       P6SM -SHRA SCT012 BKN022 OVC035=
201612261139 TAF KPAE 261139Z 2612/2712 11008KT P6SM OVC035 FM262100 16016G26KT
                       P6SM -RA OVC035 FM270400 16016G26KT P6SM
                       -RA SCT010 OVC018 FM270800 18014KT P6SM
                       -SHRA SCT012 BKN022 OVC035=
201612260542 TAF KPAE 260542Z 2606/2706 08006KT P6SM BKN040 BKN150 FM260800
                       12006KT P6SM SCT050 BKN150 FM261900 15010KT
                       P6SM BKN060 OVC100 FM262200 15014G20KT P6SM
                       -RA SCT030 OVC045 FM270500 15014G20KT P6SM
                       -RA SCT008 OVC015=
201612252327 TAF KPAE 252327Z 2600/2624 VRB03KT P6SM FEW010 OVC040 FM260800
                       13006KT P6SM SCT050 BKN200 FM261200 15010KT
                       P6SM BKN050 OVC100 FM262100 16014G23KT P6SM
                       -RA SCT025 OVC050=
201612252017 KPAE 252017Z 2520/2618 VRB03KT P6SM SCT005 BKN020 OVC040
                      TEMPO 2520/2523 1/2SM FG OVC001 FM260100
                       VRB03KT P6SM SCT025 OVC040 FM260800 13006KT
                       P6SM SCT050 BKN200=
201612251726 TAF KPAE 251726Z 2518/2618 VRB03KT 3SM BR FEW005 SCT010 BKN040
                       TEMPO 2518/2520 1/4SM FG VV001 FM252000
                       VRB03KT P6SM SCT005 BKN020 OVC040
                      TEMPO 2520/2522 2SM BR OVC004 FM260100 VRB03KT
                       P6SM SCT025 OVC040 FM260800 13006KT P6SM
                       SCT050 BKN200=
201612251526 KPAE 251526Z 2515/2612 09003KT 1/4SM FZFG BKN001 BKN035 FM251600
                       VRB03KT 3SM BR BKN025 BKN035
                      TEMPO 2516/2520 1/4SM FG VV001 FM252000 VRB03KT
                       P6SM BKN025 OVC040 FM260100 VRB03KT P6SM
                       SCT025 OVC040 FM260800 13008KT P6SM SCT050
                       BKN200=
201612251316 KPAE 251316Z 2513/2612 09003KT 1/4SM FZFG BKN001 BKN035 FM251600
                       VRB03KT 3SM BR BKN025 BKN035 FM252000 VRB03KT
                       P6SM BKN025 OVC040 FM260100 VRB03KT P6SM
                       SCT025 OVC040 FM260800 13008KT P6SM SCT050
                       BKN200=
201612251138 TAF KPAE 251138Z 2512/2612 VRB03KT 4SM BR OVC025 FM252000 VRB03KT
                       P6SM BKN025 OVC040 FM260100 VRB03KT P6SM
                       SCT025 OVC040 FM260800 13008KT P6SM SCT050
                       BKN200=
201612250541 TAF KPAE 250541Z 2506/2606 VRB03KT 5SM BR SCT015 OVC025 FM251100
                       VRB03KT 4SM BR BKN005 OVC010 FM252000 VRB03KT
                       P6SM SCT005 BKN010 OVC015 FM252300 VRB03KT
                       P6SM SCT011 BKN020 OVC035 FM260200 VRB03KT
                       P6SM SCT020 OVC035=
201612242322 TAF KPAE 242322Z 2500/2524 VRB03KT P6SM SCT011 OVC020 FM250300
                       VRB03KT P6SM BKN011 OVC020 FM250800 VRB03KT
                       P6SM BKN005 OVC010 FM252000 VRB03KT P6SM
                       SCT005 BKN010 OVC015=
201612241720 TAF KPAE 241720Z 2418/2518 VRB03KT P6SM SCT005 OVC025
                      TEMPO 2418/2420 BKN003 OVC006 FM242000 VRB03KT
                       P6SM SCT006 SCT011 OVC025 FM250300 VRB03KT
                       P6SM SCT012 OVC020 FM250800 VRB03KT 5SM
                       BR BKN007 OVC012=
201612241139 TAF KPAE 241139Z 2412/2512 VRB03KT P6SM SCT003 OVC006
                      TEMPO 2414/2418 BKN003 OVC006 FM242000 VRB03KT
                       P6SM SCT006 BKN011 OVC018 FM250300 VRB03KT
                       P6SM SCT012 OVC020=
201612240540 TAF KPAE 240540Z 2406/2506 VRB03KT P6SM SCT004 BKN025 OVC040
                      TEMPO 2406/2410 4SM -SHRASN BKN004 OVC025
                       FM241000 VRB03KT P6SM BKN004 OVC008 FM241800
                       VRB03KT P6SM SCT004 BKN008 OVC012 FM250000
                       VRB03KT P6SM SCT006 OVC012=
201612232320 TAF KPAE 232320Z 2400/2424 05006KT 1SM -SN BR BKN007 OVC015 FM240300
                       05006KT 2SM -SHSN BKN004 OVC008 FM240900
                       VRB03KT P6SM SCT004 OVC008=
201612231815 KPAE 231815Z 2318/2418 05006KT 4SM -RA BR BKN004 OVC008
                      TEMPO 2318/2322 3/4SM -SN BR OVC004 FM240300
                       05006KT 2SM -SHSN BKN004 OVC008 FM240900
                       VRB03KT P6SM SCT004 OVC008=
201612231725 TAF KPAE 231725Z 2318/2418 05006KT 4SM -RA BR BKN004 OVC008
                      TEMPO 2318/2322 2SM -SN BR OVC004 FM240300
                       05006KT 2SM -SHSN BKN004 OVC008 FM240900
                       VRB03KT P6SM SCT004 OVC008=
201612231140 TAF KPAE 231140Z 2312/2412 05006KT P6SM -RA SCT004 OVC015
                      TEMPO 2312/2316 4SM -RA BKN004 OVC015 FM231600
                       05006KT 4SM -RA BR BKN004 OVC008 FM240300
                       05006KT 2SM -SHSN BKN004 OVC008=
201612230541 TAF KPAE 230541Z 2306/2406 15008KT P6SM -RA BKN015 OVC025 FM231000
                       VRB03KT P6SM -RA BKN006 OVC010 FM231600
                       02005KT 4SM -RA BR BKN006 OVC010 FM232100
                       02005KT P6SM -RA SCT006 BKN011 OVC020=
201612222320 TAF KPAE 222320Z 2300/2324 15012KT P6SM BKN025 OVC035 FM230400
                       15008KT P6SM -RA BKN015 OVC025 FM230700
                       VRB03KT P6SM -RA BKN006 OVC010 FM231400
                       02005KT 4SM -RA BR BKN006 OVC010=
201612221725 TAF KPAE 221725Z 2218/2318 15012G18KT P6SM BKN120 BKN200 FM222200
                       17012KT P6SM -RA BKN045 OVC070 FM230400
                       15008KT P6SM -RA BKN015 OVC025 FM230700
                       VRB03KT P6SM -RA BKN006 OVC010 FM231400
                       02005KT P6SM -RA BKN008 OVC013=
201612221134 TAF KPAE 221134Z 2212/2312 14006KT P6SM SCT120 OVC200 FM221600
                       14010KT P6SM BKN120 OVC200 FM222200 17012KT
                       P6SM -RA BKN045 OVC070 FM230400 15008KT
                       P6SM -SHRA BKN015 OVC025 FM230700 VRB03KT
                       P6SM BKN006 OVC010=
201612220539 TAF KPAE 220539Z 2206/2306 VRB03KT P6SM BKN200 FM220900 14006KT
                       P6SM SCT120 OVC200 FM221600 14010KT P6SM
                       BKN120 OVC200 FM222200 17012KT P6SM -RA
                       BKN045 OVC070 FM230400 15008KT P6SM -SHRA
                       BKN020 OVC035=
201612212321 TAF KPAE 212321Z 2200/2224 15004KT P6SM BKN200 FM221000 16008KT
                       P6SM BKN120 OVC200 FM222100 17012KT P6SM
                       -RA BKN050 OVC090=
201612211729 TAF KPAE 211729Z 2118/2218 08006KT P6SM SCT030 SCT250
                      TEMPO 2118/2120 BKN030 FM212000 15006KT P6SM
                       FEW030 BKN250 FM221200 16008KT P6SM BKN120
                       OVC200=
201612211404 KPAE 211404Z 2114/2212 12005KT P6SM BKN020 FM211900 14007KT P6SM
                       SCT020 SCT200 FM212100 15007KT P6SM BKN250=
201612211120 TAF KPAE 211120Z 2112/2212 12005KT P6SM BKN045 FM211900 14007KT
                       P6SM SCT045 BKN250 FM212100 15007KT P6SM
                       BKN250=
201612210923 KPAE 210923Z 2109/2206 13008KT P6SM SCT250 FM211200 15007KT P6SM
                       SCT015
                      TEMPO 2112/2116 BKN015 FM211900 15006KT P6SM
                       BKN250=
201612210522 TAF KPAE 210522Z 2106/2206 12006KT P6SM SCT035 SCT045 FM211100
                       15007KT P6SM SCT005 BKN015
                      TEMPO 2113/2117 BKN005 BKN015 FM211900 15006KT
                       P6SM BKN250=
201612202320 TAF KPAE 202320Z 2100/2124 16012KT P6SM VCSH SCT045 FM210100 16009KT
                       P6SM VCSH SCT050 BKN100 FM210800 16008KT
                       P6SM OVC060 FM211500 15008KT P6SM OVC009
                       FM211800 15007KT P6SM BKN250=
201612201731 TAF KPAE 201731Z 2018/2118 18004KT P6SM VCSH SCT030 BKN070
                      TEMPO 2020/2024 -SHRA OVC025 FM210500 17009KT
                       P6SM BKN030 FM211100 16006KT P6SM SCT015
                       BKN030 FM211400 16006KT P6SM BKN250=
201612201129 TAF KPAE 201129Z 2012/2112 13013G23KT 6SM BR VCSH OVC004 FM201400
                       16015G22KT 6SM -SHRA BR SCT007 OVC015 FM201800
                       28012KT P6SM VCSH BKN015 OVC050 FM202200
                       VRB05KT P6SM SCT015 OVC050 FM210300 17006KT
                       P6SM OVC050=
201612200827 KPAE 200827Z 2008/2106 12007KT 3SM -RA BR FEW004 BKN009 OVC012
                       WS020/23045KT FM201000 17018G26KT 4SM -RA
                       BR OVC009 FM201300 18018G26KT 5SM -SHRA
                       BR OVC015 FM201500 24013KT P6SM -SHRA BKN015
                       OVC025 FM202000 VRB05KT P6SM SCT025 BKN050
                       FM210300 17006KT P6SM OVC050=
201612200544 TAF KPAE 200544Z 2006/2106 08005KT 4SM -RA BR BKN025 OVC035 FM200800
                       08005KT 3SM -RA BR OVC007 FM201000 10010KT
                       3SM -RA BR OVC007 WS020/23045KT FM201300
                       18018G26KT 5SM -SHRA BR OVC009 FM201500
                       24013KT P6SM VCSH BKN015 OVC025 FM202000
                       VRB05KT P6SM SCT025 BKN050 FM210300 17006KT
                       P6SM OVC050=
201612200303 KPAE 200303Z 2003/2024 12007KT 6SM BR BKN006 OVC009 FM200500 14011KT
                       4SM -RA BR OVC006 FM201000 17016G23KT 4SM
                       -RA BR OVC006 WS020/23035KT FM201800 27013G22KT
                       P6SM VCSH OVC019=
201612200054 KPAE 200054Z 2001/2024 11005KT 2SM BR OVC004
                      TEMPO 2001/2003 SCT008 BKN035 FM200300 13006KT
                       P6SM OVC009 FM200500 14011KT 4SM -RA BR
                       OVC009 FM201000 17016G23KT 4SM -RA BR OVC009
                       WS020/23035KT FM201800 27013G22KT P6SM VCSH
                       OVC019=
201612192333 TAF KPAE 192333Z 2000/2024 15005KT P6SM BKN006 OVC035
                      TEMPO 2000/2003 SCT008 BKN035 FM200300 13006KT
                       P6SM OVC009 FM200500 14011KT 4SM -RA BR
                       OVC009 FM201000 17016G23KT 4SM -RA BR OVC009
                       WS020/23035KT FM201800 27013G22KT P6SM VCSH
                       OVC019=
201612192107 KPAE 192107Z 1921/2018 18006KT P6SM BKN006 OVC027 FM200300 15008KT
                       P6SM -RA OVC009 FM200500 14011KT 4SM -RA
                       BR OVC009 FM200900 17016G25KT 4SM -RA BR
                       OVC009 WS020/23035KT=
201612191741 TAF KPAE 191741Z 1918/2018 17010KT P6SM OVC007 FM192000 18012KT
                       P6SM OVC025 FM200300 15008KT P6SM -RA OVC009
                       FM200500 14011KT 4SM -RA BR OVC009 FM200900
                       17016G25KT 4SM -RA BR OVC009 WS020/23035KT=
201612191420 KPAE 191420Z 1914/2012 14021G31KT P6SM -RASN BKN015 OVC060
                      TEMPO 1914/1916 5SM RASN BKN009 OVC030 FM191600
                       17015G25KT P6SM -RA OVC015 FM192000 17010KT
                       P6SM OVC015 FM200000 15008KT P6SM OVC025
                       FM200400 12010KT 4SM -RA BR OVC007 FM200900
                       14015KT 4SM -RA BR OVC007=
201612191221 KPAE 191221Z 1912/2012 14021G31KT P6SM -RA FEW008 BKN013 OVC018
                       FM191600 17015G25KT P6SM -RA OVC015 FM192000
                       17010KT P6SM OVC015 FM200000 15008KT P6SM
                       OVC025 FM200400 12010KT 4SM -RA BR OVC007
                       FM200900 14015KT 4SM -RA BR OVC007=
201612191128 TAF KPAE 191128Z 1912/2012 15015G27KT P6SM BKN024 OVC070 FM191600
                       17015G25KT P6SM -RA OVC015 FM192000 17010KT
                       P6SM OVC015 FM200000 15008KT P6SM OVC025
                       FM200400 12010KT 4SM -RA BR OVC007 FM200900
                       14015KT 4SM -RA BR OVC007=
201612190902 TAF AMD KPAE 190902Z 1909/2006 13019G26KT P6SM -RA BKN030 OVC110
                       FM191100 16025G35KT P6SM -RA OVC030 FM191600
                       17020G28KT P6SM -RA OVC015 FM191800 17015G22KT
                       P6SM OVC015 FM200000 15008KT P6SM OVC020
                       FM200400 12010KT 4SM -RA BR OVC007=
201612190526 TAF KPAE 190526Z 1906/2006 13014KT P6SM SCT120 FM190800 16012KT
                       5SM -RASN BKN030 OVC050 FM191100 16025G35KT
                       P6SM -RA OVC030 FM191600 17020G28KT P6SM
                       -RA OVC015 FM191800 17015G22KT P6SM OVC015
                       FM200000 15008KT P6SM OVC020 FM200400 12010KT
                       4SM -RA BR OVC007=
201612190308 KPAE 190308Z 1903/1924 13012KT P6SM OVC110 FM190600 16017G23KT
                       P6SM BKN035 OVC070 FM190800 16020G27KT P6SM
                       -RA OVC030 FM191400 16020G29KT P6SM -RA
                       OVC025 FM191500 16018G26KT P6SM -RA OVC015
                       FM191900 17013G22KT P6SM OVC015=
201612182340 TAF KPAE 182340Z 1900/1924 08005KT P6SM OVC030 FM190600 16017G23KT
                       P6SM BKN005 OVC070 FM190800 16020G27KT P6SM
                       -RA OVC030 FM191400 16020G29KT P6SM -RA
                       OVC025 FM191500 16018G26KT P6SM -RA OVC015
                       FM191900 17013G22KT P6SM OVC015=
201612181738 TAF KPAE 181738Z 1818/1918 13006KT P6SM VCSH FEW045 OVC060 FM182100
                       16011KT P6SM SCT035 OVC050 FM190600 16016G23KT
                       4SM BR OVC045
                      PROB30 1906/1908 P6SM -SN OVC035 FM190800
                       16019G27KT 6SM -RA BR OVC030 FM191400 17019G29KT
                       6SM -RA BR OVC015=
201612181317 KPAE 181317Z 1813/1912 12005KT P6SM VCSH SCT015 OVC050
                      TEMPO 1813/1815 6SM -SHSN BKN015 OVC035 FM181500
                       12005KT 4SM -SHSN BKN015 OVC035 FM182100
                       15009KT P6SM BKN035 OVC050 FM190200 16012KT
                       P6SM OVC050 FM190600 16015G22KT 4SM -SN
                       BR OVC020 FM190900 16015G25KT 6SM -RA BR
                       OVC020=
201612181220 KPAE 181220Z 1812/1912 13004KT P6SM BKN016 OVC045 FM181300 13005KT
                       4SM -SN OVC015 FM182100 15009KT P6SM BKN035
                       OVC050 FM190200 16012KT P6SM OVC050 FM190600
                       16015G22KT 4SM -SN BR OVC020 FM190900 16015G25KT
                       6SM -RA BR OVC020=
201612181127 TAF KPAE 181127Z 1812/1912 VRB04KT P6SM OVC050 FM181500 15006KT
                       P6SM OVC035
                      TEMPO 1816/1820 4SM -SN OVC025 FM182100 15009KT
                       P6SM BKN035 OVC050 FM190200 16012KT P6SM
                       OVC050 FM190600 16015G22KT 4SM -SN BR OVC020
                       FM190900 16015G25KT 6SM -RA BR OVC020=
201612180900 KPAE 180900Z 1809/1906 13004KT P6SM OVC060 FM181500 15006KT P6SM
                       -SN OVC030 FM182100 16009KT P6SM BKN035
                       OVC050 FM190200 16012KT P6SM OVC050=
201612180534 TAF KPAE 180534Z 1806/1906 00000KT P6SM OVC040 FM180900 13006KT
                       P6SM OVC030 FM181500 15006KT P6SM -SN OVC030
                       PROB30 1815/1821 3SM -SN BR OVC020 FM182100
                       16009KT P6SM BKN035 OVC050 FM190200 16012KT
                       P6SM OVC050=
201612180308 TAF AMD KPAE 180308Z 1803/1824 09003KT P6SM OVC045 FM180900 13006KT
                       P6SM OVC030 FM181500 15006KT P6SM -SN OVC030
                       PROB30 1815/1820 3SM -SN BR OVC020 FM182000
                       16009KT P6SM OVC030=
201612172327 TAF KPAE 172327Z 1800/1824 00000KT P6SM BKN045 FM180900 13006KT
                       P6SM OVC030 FM181500 16008KT P6SM VCSH BKN040=
201612172045 KPAE 172045Z 1721/1818 08005KT 2SM -SN FEW040 OVC050 FM180000 VRB03KT
                       P6SM OVC035 FM180900 15006KT P6SM OVC035=
201612171738 TAF KPAE 171738Z 1718/1818 08007KT P6SM VCSH OVC045
                      TEMPO 1718/1720 2SM -SN OVC040 FM172000 06004KT
                       P6SM VCSH BKN035 OVC050 FM180000 VRB03KT
                       P6SM OVC035 FM180900 15006KT P6SM OVC035=
201612171409 KPAE 171409Z 1714/1812 11004KT P6SM VCSH SCT035 OVC070
                      TEMPO 1714/1718 6SM -SHSN BKN035 OVC070 FM171800
                       14004KT P6SM BKN035 BKN050 FM180000 00000KT
                       P6SM OVC035 FM180900 14005KT P6SM OVC035=
201612171326 KPAE 171326Z 1713/1812 11004KT P6SM VCSH FEW035 OVC070 FM171800
                       14004KT P6SM BKN035 BKN050 FM180000 00000KT
                       P6SM OVC035 FM180900 14005KT P6SM OVC035=
201612171120 TAF KPAE 171120Z 1712/1812 09005KT P6SM OVC070 FM171800 14004KT
                       P6SM BKN035 BKN050 FM180000 00000KT P6SM
                       OVC035 FM180900 14005KT P6SM OVC035=
201612170901 KPAE 170901Z 1709/1806 00000KT P6SM SCT200 FM171200 14004KT P6SM
                       BKN070 BKN200 FM171800 14004KT P6SM BKN035
                       BKN050 FM180000 00000KT P6SM OVC035=
201612170533 TAF KPAE 170533Z 1706/1806 00000KT P6SM SKC FM171200 14004KT P6SM
                       SCT100 BKN200 FM171800 14004KT P6SM BKN035
                       BKN050 FM180000 00000KT P6SM OVC035=
201612162320 TAF KPAE 162320Z 1700/1724 34006KT P6SM SKC FM171100 13005KT P6SM
                       SCT100 BKN200 FM171600 14005KT P6SM BKN050
                       OVC100=
201612161730 TAF KPAE 161730Z 1618/1718 34006KT P6SM SKC FM171100 13005KT P6SM
                       SCT100 BKN200=
201612161416 KPAE 161416Z 1614/1712 31006KT P6SM FEW018 SCT035 FM161800 34009KT
                       P6SM SKC FM170400 15005KT P6SM SCT200=
201612161136 TAF KPAE 161136Z 1612/1712 36005KT P6SM SCT020 FM161800 34009KT
                       P6SM SKC FM170400 15005KT P6SM SCT200=
201612160536 TAF KPAE 160536Z 1606/1706 36005KT P6SM SCT045 BKN060 FM161500
                       03005KT P6SM SCT012 SCT050 FM161900 34009KT
                       P6SM SKC FM170400 15005KT P6SM SCT200=
201612152331 TAF KPAE 152331Z 1600/1624 36004KT P6SM BKN050 FM161200 01004KT
                       P6SM SCT025 SCT050 FM161600 36005KT P6SM
                       SKC=
201612151739 TAF KPAE 151739Z 1518/1618 36004KT P6SM BKN035 OVC070 FM152200
                       01004KT P6SM SCT040 SCT070 FM160300 02003KT
                       P6SM SCT250=
201612151345 KPAE 151345Z 1514/1612 VRB03KT P6SM OVC050 FM152100 36004KT P6SM
                       FEW070=
201612151129 TAF KPAE 151129Z 1512/1612 34005KT P6SM BKN050 BKN080 FM152100
                       01005KT P6SM SKC=
201612150539 TAF KPAE 150539Z 1506/1606 VRB03KT P6SM BKN080 OVC120 FM151400
                       15003KT P6SM SCT080 SCT200 FM152200 35005KT
                       P6SM SKC=
201612142341 TAF KPAE 142341Z 1500/1524 34005KT P6SM OVC200 FM150600 VRB03KT
                       P6SM BKN060 OVC120 FM151400 03003KT P6SM
                       SCT250=
201612141733 TAF KPAE 141733Z 1418/1518 01007KT P6SM BKN250 FM150100 03004KT
                       P6SM OVC200 FM150400 03004KT P6SM BKN080
                       OVC150 FM151400 06003KT P6SM SCT250=
201612141122 TAF KPAE 141122Z 1412/1512 36005KT P6SM SKC FM141400 03004KT P6SM
                       SKC FM142300 03004KT P6SM SCT200=
201612140531 TAF KPAE 140531Z 1406/1506 34004KT P6SM SCT015 FM141100 03004KT
                       P6SM SKC FM141400 04005KT P6SM SCT250=
201612140415 KPAE 140415Z 1404/1424 33005KT P6SM OVC015 FM140600 34006KT P6SM
                       SCT018 FM141600 05005KT P6SM SCT250=
201612132335 TAF KPAE 132335Z 1400/1424 33008KT P6SM SKC FM140300 02005KT P6SM
                       SKC FM141600 05005KT P6SM SCT250=
201612131938 KPAE 131938Z 1320/1418 32005KT P6SM BKN020
                      TEMPO 1320/1322 SCT020 FM132200 34005KT P6SM
                       SCT024 FM140300 02003KT P6SM SKC=
201612131742 TAF KPAE 131742Z 1318/1418 34005KT P6SM SCT040
                      TEMPO 1318/1320 BKN040 FM140300 02003KT P6SM
                       SKC=
201612131533 TAF AMD KPAE 131533Z 1316/1412 33006KT P6SM BKN023 OVC040 FM131900
                       35006KT P6SM SCT025 BKN040 FM132100 36006KT
                       P6SM SCT015 FM140500 05004KT P6SM SCT009
                       SCT250=
201612131126 TAF KPAE 131126Z 1312/1412 33004KT P6SM BKN004 OVC040
                      TEMPO 1313/1317 SCT005 BKN040 FM131700 VRB03KT
                       P6SM SCT035 FM132300 VRB03KT P6SM SCT015
                       FM140500 05004KT P6SM SCT009 SCT250=
201612130542 TAF KPAE 130542Z 1306/1406 00000KT P6SM VCSH OVC005 FM131000 00000KT
                       P6SM OVC004 FM131300 03002KT 6SM BR OVC009
                       FM131400 00000KT P6SM SCT009 FM132200 VRB03KT
                       P6SM SCT009 FM140500 03002KT P6SM FEW009=
201612122343 TAF KPAE 122343Z 1300/1324 31005KT P6SM VCSH BKN006 OVC012
                      TEMPO 1300/1303 2SM -SHRA BR BKN002 OVC006
                       FM130300 01003KT 6SM BR BKN007 OVC014 FM130600
                       00000KT 6SM BR OVC006 FM131600 VRB03KT P6SM
                       BKN010 OVC020 FM132200 36005KT P6SM SCT020
                       BKN040=
201612122057 KPAE 122057Z 1221/1318 VRB05KT 4SM -SHRA BR OVC006
                      TEMPO 1221/1223 1SM -SHRA BR BKN002 OVC006
                       FM122300 VRB05KT P6SM -SHRA SCT006 OVC012
                       FM130000 34005KT P6SM VCSH SCT010 BKN020
                       OVC030 FM130200 02004KT P6SM SCT020 BKN030
                       FM130900 VRB03KT P6SM SCT010 BKN025=
201612122056 KPAE 122056Z 1221/1318 VRB05KT 4SM -SHRA BR OVC006
                      TEMPO 1221/1223 1SM -SHRASN BR BKN002 OVC006
                       FM122300 VRB05KT P6SM -SHRA SCT006 OVC012
                       FM130000 34005KT P6SM VCSH SCT010 BKN020
                       OVC030 FM130200 02004KT P6SM SCT020 BKN030
                       FM130900 VRB03KT P6SM SCT010 BKN025=
201612121748 TAF KPAE 121748Z 1218/1318 13009KT 4SM -SHRA BR OVC006
                      TEMPO 1218/1220 1SM -SHSN BR BKN002 OVC006
                       FM122000 VRB05KT P6SM -SHRASN SCT005 OVC012
                       FM122200 03005KT P6SM VCSH SCT010 BKN020
                       OVC030 FM130200 02005KT P6SM SCT020 BKN030
                       FM130900 VRB03KT P6SM SCT010 BKN025=
201612121548 KPAE 121548Z 1216/1312 13009KT P6SM BKN009 OVC012 FM121800 VRB05KT
                       4SM -SHRASN SCT005 OVC012 FM122200 36008KT
                       2SM -SHSN BKN005 OVC010 FM130300 02005KT
                       P6SM FEW005 BKN010 OVC025
                      PROB30 1303/1309 -SHSN FM130900 VRB03KT P6SM
                       SCT010 BKN025=
201612121233 KPAE 121233Z 1213/1312 13009KT P6SM BKN009 OVC012 FM121500 VRB05KT
                       P6SM -SHRA SCT009 OVC012 FM121800 VRB05KT
                       4SM SHRASN SCT005 OVC012 FM122200 36008KT
                       2SM -SHSN BKN005 OVC010 FM130300 02005KT
                       P6SM FEW005 BKN010 OVC025
                      PROB30 1303/1309 -SHSN FM130900 VRB03KT P6SM
                       SCT010 BKN025=
201612121207 KPAE 121207Z 1212/1312 13009KT P6SM BKN012 OVC028 FM121500 VRB05KT
                       P6SM -SHRA FEW009 OVC012 FM121800 VRB05KT
                       4SM SHRASN SCT005 OVC012 FM122200 36008KT
                       2SM -SHSN BKN005 OVC010 FM130300 02005KT
                       P6SM FEW005 BKN010 OVC025
                      PROB30 1303/1309 -SHSN FM130900 VRB03KT P6SM
                       SCT010 BKN025=
201612121145 TAF KPAE 121145Z 1212/1312 15010KT P6SM BKN012 OVC028 FM121500
                       VRB05KT P6SM -SHRA OVC022 FM121800 VRB05KT
                       4SM SHRASN SCT005 OVC015 FM122200 36008KT
                       2SM -SHSN BKN005 OVC015 FM130300 01006KT
                       P6SM FEW005 SCT015 BKN028=
201612120552 TAF KPAE 120552Z 1206/1306 15010KT P6SM VCSH OVC015
                      TEMPO 1206/1210 -SHRA FM121000 15010KT P6SM
                       BKN022 OVC040 FM121500 VRB05KT P6SM -SHRA
                       OVC022 FM121800 VRB05KT 4SM SHRASN SCT005
                       OVC015 FM122200 36008KT 2SM -SHSN BKN005
                       OVC015 FM130300 01006KT P6SM FEW005 SCT015
                       BKN028=
201612120253 TAF AMD KPAE 120253Z 1203/1224 17011KT P6SM -SHRA BKN009 OVC015
                       FM120600 16009KT P6SM -SHRA OVC008 FM121200
                       15005KT 4SM SHRA OVC006 FM121500 VRB05KT
                       2SM -SN BR OVC005 FM122100 VRB05KT 5SM -SHSN
                       OVC007=
201612112333 TAF KPAE 112333Z 1200/1224 18013KT P6SM -SHRA OVC010 FM120500 16009KT
                       P6SM -SHRA OVC008 FM121200 15005KT 4SM SHRA
                       OVC006 FM121500 VRB05KT 2SM -SN BR OVC005
                       FM122100 VRB05KT 5SM -SHSN OVC007=
201612111847 KPAE 111847Z 1119/1218 16013KT 6SM -SHRA BR BKN009 BKN017 OVC035
                       FM120000 17008KT P6SM -SHRA OVC022 FM121500
                       VRB05KT 3SM -SHSN BKN007 OVC015=
201612111720 TAF KPAE 111720Z 1118/1218 15013KT P6SM -SHRA OVC015 FM120000 17008KT
                       P6SM -SHRA OVC022 FM121500 VRB05KT 3SM -SHSN
                       BKN007 OVC015=
201612111602 KPAE 111602Z 1116/1212 15014KT P6SM -SHRA OVC015 FM111800 18012KT
                       P6SM -SHRA BKN022 OVC040 FM120000 17008KT
                       P6SM -SHRA OVC022=
201612111145 TAF KPAE 111145Z 1112/1212 17015G25KT P6SM VCSH SCT015 SCT030
                      TEMPO 1112/1116 -SHRA BKN015 OVC030 FM111600
                       17013G20KT P6SM -SHRA SCT015 BKN028 OVC050
                       FM111800 18012KT P6SM -SHRA BKN022 OVC040
                       FM120000 17008KT P6SM -SHRA OVC022=
201612110919 KPAE 110919Z 1109/1206 18015G25KT P6SM VCSH SCT015 SCT030
                      TEMPO 1109/1112 -SHRA BKN015 OVC030 FM111200
                       18013KT P6SM VCSH OVC015 FM111800 17010KT
                       P6SM BKN022 OVC040
                      PROB30 1120/1124 -SHRA FM120000 17005KT P6SM
                       -SHRA OVC018=
201612110616 KPAE 110616Z 1106/1206 16015KT P6SM SCT012 BKN022 OVC050
                      TEMPO 1106/1109 16015G25KT -SHRA BKN012 OVC030
                       FM110900 18015G25KT P6SM VCSH SCT015 BKN022
                       OVC050
                      TEMPO 1109/1112 -SHRA OVC015 FM111200 18013KT
                       P6SM VCSH OVC015 FM111800 17010KT P6SM BKN022
                       OVC040
                      PROB30 1120/1124 -SHRA FM120000 17005KT P6SM
                       -SHRA OVC018=
201612110548 TAF KPAE 110548Z 1106/1206 15015G25KT P6SM SCT012 BKN022 OVC050
                       TEMPO 1106/1109 -SHRA BKN012 OVC030 FM110900
                       18015G25KT P6SM VCSH SCT015 BKN022 OVC050
                       TEMPO 1109/1112 -SHRA OVC015 FM111200 18013KT
                       P6SM VCSH OVC015 FM111800 17010KT P6SM BKN022
                       OVC040
                      PROB30 1120/1124 -SHRA FM120000 17005KT P6SM
                       -SHRA OVC018=
201612110303 KPAE 110303Z 1103/1124 15015G25KT P6SM VCSH BKN012 OVC028
                      TEMPO 1103/1106 -SHRA FM110600 16014KT 5SM
                       -SHRA BKN006 OVC012 FM110900 16013KT P6SM
                       VCSH OVC012 FM111800 18013KT P6SM -SHRA
                       BKN020 OVC030=
201612110222 KPAE 110222Z 1102/1124 15018G27KT P6SM OVC013 FM110400 16014KT
                       5SM -SHRA BKN006 OVC012 FM110900 16013KT
                       P6SM VCSH OVC012 FM111800 18013KT P6SM -SHRA
                       BKN020 OVC030=
201612102338 TAF KPAE 102338Z 1100/1124 13012KT 4SM -SHRA BR SCT006 BKN012 OVC025
                       TEMPO 1100/1104 2SM -SHRA BKN006 OVC018
                       FM110400 16014KT 5SM -SHRA BKN006 OVC012
                       FM110900 16013KT P6SM VCSH OVC012 FM111800
                       18013KT P6SM -SHRA BKN020 OVC030=
201612102315 KPAE 102315Z 1023/1118 13015KT P6SM -SHRA SCT006 BKN015 OVC035
                       FM110500 16012KT P6SM VCSH BKN006 OVC015
                       FM110700 18008KT 5SM BR OVC012=
201612102047 KPAE 102047Z 1021/1118 13012KT 5SM -RA BR SCT006 OVC025
                      TEMPO 1021/1023 2SM -SHRA BR OVC006 FM102300
                       16013G20KT P6SM -SHRA BKN015 OVC035 FM110300
                       16012KT P6SM VCSH OVC020 FM110600 18008KT
                       5SM BR OVC012=
201612101907 KPAE 101907Z 1019/1118 13008KT 6SM -RA BR SCT015 OVC035 FM102200
                       17013G20KT P6SM -SHRA BKN015 OVC035 FM110300
                       18012KT P6SM VCSH OVC020 FM110600 18008KT
                       5SM BR OVC012=
201612101746 TAF KPAE 101746Z 1018/1118 14010KT 5SM -RA BR SCT006 BKN012 OVC025
                       TEMPO 1018/1020 4SM -RA BR OVC006 FM102200
                       17013G20KT P6SM -SHRA BKN015 OVC035 FM110300
                       18012KT P6SM VCSH OVC020 FM110600 18008KT
                       5SM BR OVC012=
201612101707 KPAE 101707Z 1017/1112 13008KT 5SM BR SCT006 BKN012 OVC040
                      TEMPO 1017/1018 2SM BR OVC006 FM101800 17013G22KT
                       6SM -SHRA BR OVC020 FM110300 18018G28KT
                       P6SM -SHRA BKN025 OVC040=
201612101518 KPAE 101518Z 1015/1112 13008KT 5SM BR SCT006 BKN012 OVC040
                      TEMPO 1015/1017 2SM BR BKN004 OVC012 FM101800
                       17013G22KT 6SM -SHRA BR OVC020 FM110300
                       18018G28KT P6SM -SHRA BKN025 OVC040=
201612101144 TAF KPAE 101144Z 1012/1112 VRB05KT P6SM BKN005 OVC015 FM101500
                       15009KT P6SM FEW008 BKN020 OVC040 FM101800
                       17013G22KT 6SM -SHRA BR OVC020 FM110300
                       18018G28KT P6SM -SHRA BKN025 OVC040=
201612100853 KPAE 100853Z 1009/1106 13010KT P6SM BKN005 OVC015
                      TEMPO 1009/1012 -SHRASN FM101200 17009KT
                       P6SM FEW007 BKN015 OVC030 FM101800 17012KT
                       P6SM -RA BKN025 OVC040 FM102100 17015G23KT
                       5SM -RA BR BKN020 OVC035 FM110300 17013G20KT
                       P6SM -SHRA BKN020 OVC035=
201612100621 KPAE 100621Z 1006/1106 13010KT P6SM VCSH SCT006 OVC017
                      TEMPO 1006/1009 5SM -RASN BR BKN006 OVC017
                       FM100900 15012KT P6SM BKN018 OVC030
                      TEMPO 1009/1012 -SHRA FM101200 17009KT P6SM
                       FEW018 BKN030 OVC050 FM101800 17012KT P6SM
                       -RA BKN025 OVC040 FM102100 17015G23KT 5SM
                       -RA BR BKN020 OVC035 FM110300 17013G20KT
                       P6SM -SHRA BKN020 OVC035=
201612100543 TAF KPAE 100543Z 1006/1106 13012KT 5SM -RASN BR FEW006 OVC017 FM100900
                       15012KT P6SM BKN018 OVC030
                      TEMPO 1009/1012 -SHRA FM101200 17009KT P6SM
                       FEW018 BKN030 OVC050 FM101800 17012KT P6SM
                       -RA BKN025 OVC040 FM102100 17015G23KT 5SM
                       -RA BR BKN020 OVC035 FM110300 17013G20KT
                       P6SM -SHRA BKN020 OVC035=
201612100301 KPAE 100301Z 1003/1024 09011KT P6SM -FZRA FEW005 SCT020 OVC035
                       TEMPO 1003/1006 4SM -PL BR FEW005 BKN020
                       OVC035 FM100700 15014G22KT 5SM -RA BR OVC015
                       FM100900 17012KT P6SM -SHRA BKN025 OVC040
                       FM101500 17010KT P6SM SCT025 BKN040=
201612092355 TAF KPAE 092355Z 1000/1024 10010G18KT P6SM -SHRASN SCT006 OVC015
                       TEMPO 1001/1005 5SM -SHSN OVC006 FM100700
                       15014G22KT 5SM -RA BR OVC015 FM100900 17012KT
                       P6SM -SHRA BKN025 OVC040 FM101500 17010KT
                       P6SM SCT025 BKN040=
201612092212 KPAE 092212Z 0922/1018 10012KT P6SM -SHRA BKN006 OVC015 FM100300
                       15014G22KT 5SM -RA BR OVC015 FM100900 17012KT
                       P6SM -SHRA BKN025 OVC040 FM101500 17010KT
                       P6SM SCT025 BKN040=
201612091732 TAF KPAE 091732Z 0918/1018 11010KT P6SM -RA SCT008 SCT015 OVC025
                       TEMPO 0918/0920 5SM -RASN SCT008 OVC015
                       FM092000 14013KT P6SM -RA BKN020 OVC035
                       FM100300 16014G22KT 5SM -RA BR OVC015 FM100900
                       18012KT P6SM -SHRA BKN025 OVC040 FM101500
                       17010KT P6SM SCT025 BKN040=
201612091149 TAF KPAE 091149Z 0912/1012 10008KT 3SM -SN SCT004 OVC025
                      TEMPO 0912/0916 1 1/2SM -SN BKN004 OVC025
                       FM091700 14013KT 5SM -RASN BR SCT009 OVC028
                       FM092000 14013KT 6SM -RA BR BKN015 OVC030
                       FM100300 16013G22KT 6SM -RA BR BKN020 OVC035
                       FM100900 18009KT P6SM BKN025 OVC040
                      PROB30 1009/1012 -SHRA=
201612090622 KPAE 090622Z 0906/1006 09007KT 3SM -SN SCT010 OVC025
                      TEMPO 0906/0908 1SM -SN BKN010 OVC025 FM090800
                       12009KT 2SM -SN SCT003 OVC011
                      TEMPO 0909/0912 3/4SM -SN VV003 FM091600
                       14012KT 5SM -RASN BR BKN013 OVC028 FM092000
                       14012KT 6SM -RA BR BKN015 OVC030 FM100300
                       16013G22KT 5SM -RA BR SCT008 OVC015=
201612090544 TAF KPAE 090544Z 0906/1006 10009KT 5SM -SN SCT020 OVC035
                      TEMPO 0906/0908 2SM -SN BKN020 OVC035 FM090800
                       12009KT 2SM -SN SCT003 OVC011
                      TEMPO 0909/0912 3/4SM -SN VV003 FM091600
                       14012KT 5SM -RASN BR BKN013 OVC028 FM092000
                       14012KT 6SM -RA BR BKN015 OVC030 FM100300
                       16013G22KT 5SM -RA BR SCT008 OVC015=
201612090417 KPAE 090417Z 0904/0924 07010KT P6SM SCT045 OVC110 FM090500 11013G21KT
                       6SM -SN SCT020 OVC045
                      TEMPO 0905/0907 2SM -SN BKN020 OVC045 FM090700
                       13012KT 2SM -SN SCT009 OVC020
                      TEMPO 0907/0909 3/4SM -SN OVC009 FM091000
                       15011G20KT P6SM -RA BKN020 OVC035 FM092200
                       16012G20KT 6SM -RA BR BKN015 OVC030=
201612090239 KPAE 090239Z 0903/0924 07010KT P6SM SCT070 OVC130 FM090500 11013G21KT
                       6SM -SN SCT025 OVC045 FM090700 13012KT 3SM
                       -SN SCT009 OVC020
                      TEMPO 0907/0909 1SM -SN OVC009 FM091000 15011G20KT
                       P6SM -RA BKN020 OVC035 FM092200 16012G20KT
                       6SM -RA BR BKN015 OVC030=
201612082337 TAF KPAE 082337Z 0900/0924 08011G20KT P6SM SCT120 OVC200 FM090500
                       11013G21KT 6SM -SN SCT025 OVC045 FM090700
                       13012KT 3SM -SN SCT009 OVC020
                      TEMPO 0907/0909 1SM -SN OVC009 FM091000 15011G20KT
                       P6SM -RA BKN020 OVC035 FM092200 16012G20KT
                       6SM -RA BR BKN015 OVC030=
201612081742 TAF KPAE 081742Z 0818/0918 06007KT P6SM BKN200 FM082300 08011G20KT
                       P6SM SCT120 OVC200 FM090500 11013G21KT P6SM
                       -SN SCT025 OVC045 FM090700 13012KT 3SM -SN
                       SCT012 OVC030
                      TEMPO 0907/0909 1SM -SN OVC012 FM091100 15011G20KT
                       P6SM -RA OVC025=
201612081134 TAF KPAE 081134Z 0812/0912 02006KT P6SM SCT200 FM081800 04008KT
                       P6SM FEW130 OVC200 FM082300 07009KT P6SM
                       FEW070 OVC130 FM090500 11011KT P6SM -SN
                       SCT020 OVC045 FM090700 13012KT 2SM -SN SCT003
                       OVC020
                      TEMPO 0907/0911 3/4SM -SN OVC003=
201612080950 KPAE 080950Z 0810/0906 02006KT P6SM SCT200 FM081800 04008KT P6SM
                       FEW130 OVC200 FM082300 07009KT P6SM SCT050
                       OVC130 FM090400 11011KT P6SM FEW020 BKN050
                       OVC100
                      PROB30 0904/0906 -SN=
201612080542 TAF KPAE 080542Z 0806/0906 05006KT P6SM SCT200 FM081800 04008KT
                       P6SM FEW130 OVC200 FM082300 07009KT P6SM
                       SCT050 OVC130 FM090400 11011KT P6SM FEW020
                       BKN050 OVC100
                      PROB30 0904/0906 -SN=
201612072339 TAF KPAE 072339Z 0800/0824 36005KT P6SM SKC FM080300 08009KT P6SM
                       SCT200 FM081800 10015G25KT P6SM SCT150 BKN200
                       FM082300 11013G20KT P6SM SCT050 BKN100 OVC150=
201612071739 TAF KPAE 071739Z 0718/0818 02006KT P6SM FEW010 FM080300 08009KT
                       P6SM SCT200 FM081600 10012G22KT P6SM BKN200=
201612071125 TAF KPAE 071125Z 0712/0812 VRB03KT P6SM SKC FM071800 06006KT P6SM
                       SKC FM080300 11010KT P6SM SKC=
201612070525 TAF KPAE 070525Z 0706/0806 33003KT P6SM SCT060=
201612062337 TAF KPAE 062337Z 0700/0724 35005KT P6SM SKC FM070600 04004KT P6SM
                       SKC=
201612061730 TAF KPAE 061730Z 0618/0718 35004KT P6SM FEW006 FM062000 35005KT
                       P6SM SKC FM070300 02005KT P6SM SKC=
201612061130 TAF KPAE 061130Z 0612/0712 00000KT P6SM SKC
                      TEMPO 0612/0613 2SM BR SCT001 FM061800 36006KT
                       P6SM SCT050 BKN250 FM070300 03005KT P6SM
                       SCT250=
201612060530 TAF KPAE 060530Z 0606/0706 13004KT P6SM BKN035 BKN045
                      TEMPO 0606/0610 SCT007 BKN022 FM061000 08003KT
                       P6SM SCT016 BKN035
                      TEMPO 0610/0614 4SM BR BKN016 FM061600 02005KT
                       P6SM OVC100 FM062000 36006KT P6SM BKN250=
201612052354 TAF KPAE 052354Z 0600/0624 15004KT P6SM -SHRASN BKN006 OVC012
                      TEMPO 0600/0604 1SM -SHSN BR BKN003 OVC010
                       FM060400 VRB03KT 3SM -SHSN BR BKN003 OVC010
                       FM060900 04003KT 5SM BR OVC003 FM061500
                       36005KT P6SM SCT015 BKN040 FM061800 35005KT
                       P6SM SCT050=
201612051746 TAF KPAE 051746Z 0518/0618 13011KT 5SM -SHRASN BR BKN006 OVC010
                       TEMPO 0518/0520 2SM -SHSN BR FM052000 15008KT
                       P6SM VCSH BKN009 OVC020 FM060200 12006KT
                       P6SM VCSH BKN015 OVC025 FM060600 09004KT
                       P6SM SCT025 BKN050=
201612051140 TAF KPAE 051140Z 0512/0612 12008KT P6SM OVC020 FM051300 16011KT
                       P6SM -SHSN OVC015
                      TEMPO 0513/0517 2SM -SHSN BR OVC005 FM051800
                       17011KT 5SM -SHSN BR BKN016 OVC025
                      TEMPO 0518/0522 2SM -SHSN BR OVC010 FM060200
                       02005KT P6SM SCT020 OVC035
                      TEMPO 0602/0604 5SM -SN BKN010 OVC030 FM060600
                       03008KT P6SM SCT030 BKN080=
201612050530 TAF KPAE 050530Z 0506/0606 09007KT 2SM -SN BR BKN018 BKN024 OVC040
                       TEMPO 0508/0512 P6SM NSW SCT025 OVC040 FM051200
                       15008KT P6SM -SHSN BKN025 OVC050 FM051400
                       15005KT 2SM -SN BR SCT006 OVC010 FM052000
                       15005KT 5SM -SN BR SCT009 OVC015 FM060100
                       02005KT 5SM -SN BR BKN010 OVC030=
201612042329 TAF KPAE 042329Z 0500/0524 36003KT P6SM VCSH BKN050 OVC060 FM050200
                       17007KT P6SM SCT030 BKN070 FM051200 15008KT
                       P6SM -SHSN BKN025 OVC050 FM051400 15005KT
                       2SM -SN BR SCT006 OVC010 FM052000 15005KT
                       5SM -SN BR SCT009 OVC015=
201612041741 TAF KPAE 041741Z 0418/0518 29007KT P6SM -SHRA SCT026 BKN030 OVC040
                       FM042000 33005KT P6SM VCSH SCT035 BKN050
                       FM050200 17007KT P6SM SCT030 BKN070 FM051000
                       15008KT P6SM -SHSN BKN025 OVC050 FM051300
                       15005KT 2SM -SN BR SCT006 OVC010=
201612041125 TAF KPAE 041125Z 0412/0512 VRB06KT P6SM -SHRA OVC011 FM041600 32005KT
                       P6SM VCSH BKN015 BKN040 FM042000 33005KT
                       P6SM VCSH BKN025 FM050200 17007KT P6SM SCT030
                       BKN070 FM050800 17011KT P6SM -SHSN OVC013=
201612040530 TAF KPAE 040530Z 0406/0506 19011G18KT P6SM OVC015
                      TEMPO 0406/0409 5SM -RA BR FM040900 VRB05KT
                       4SM -RA BR OVC012 FM041300 31005KT P6SM
                       -SHRA BKN007 OVC015 FM041600 32005KT P6SM
                       VCSH BKN015 BKN040 FM042000 33005KT P6SM
                       VCSH BKN025 FM050300 18006KT P6SM -SHSN
                       SCT020 BKN045 OVC070=
201612032330 TAF KPAE 032330Z 0400/0424 16014KT P6SM BKN021 BKN090 BKN120 FM040200
                       17015KT 6SM -RA BR BKN013 OVC020 FM040700
                       18015G22KT 5SM -RA BR OVC015 FM040900 VRB05KT
                       4SM -SHRA OVC012 FM041300 31005KT P6SM -SHRA
                       BKN007 OVC015 FM041600 32005KT P6SM VCSH
                       BKN015 BKN040=
201612032003 KPAE 032003Z 0320/0418 16013KT P6SM BKN013 OVC020 FM040100 19015KT
                       6SM -RA BR BKN013 OVC020 FM040400 20015G22KT
                       5SM -RA BR OVC015 FM041200 VRB05KT 4SM -SHRA
                       OVC012 FM041400 31005KT P6SM -SHRA SCT015
                       BKN025=
201612031729 TAF KPAE 031729Z 0318/0418 13007KT P6SM VCSH BKN011 OVC090 FM032000
                       19012KT P6SM SCT018 OVC050
                      TEMPO 0321/0401 BKN018 OVC050 FM040100 20012KT
                       6SM -RA BR BKN015 OVC030 FM040400 20015G22KT
                       5SM -RA BR OVC015 FM041200 VRB05KT 4SM -SHRA
                       OVC012 FM041400 31005KT P6SM -SHRA SCT015
                       BKN025=
201612031135 TAF KPAE 031135Z 0312/0412 VRB03KT P6SM VCSH OVC027
                      TEMPO 0312/0316 BKN013 OVC023 FM032000 19012KT
                       P6SM -SHRA BKN018 OVC030 FM040000 20013KT
                       5SM -RA BR OVC015=
201612030535 TAF KPAE 030535Z 0306/0406 13008KT 4SM -RA BR VCSH FEW006 BKN025
                       OVC035 FM031600 18012KT P6SM OVC025=
201612030049 KPAE 030049Z 0301/0324 13016G28KT 2SM -RA BR OVC006 FM030200 18006KT
                       5SM -SHRA BKN010 OVC025 FM030500 18006KT
                       P6SM VCSH BKN015 OVC025 FM031600 18012KT
                       P6SM OVC025=
201612022332 TAF KPAE 022332Z 0300/0324 13018G28KT 2SM -RA BR BKN006 BKN012
                       OVC045 FM030100 18008KT P6SM -SHRA BKN010
                       OVC020 FM030500 18006KT P6SM VCSH BKN015
                       OVC025 FM031600 18012KT P6SM OVC025=
201612022243 KPAE 022243Z 0223/0318 14017G25KT 1SM -RA BR BKN006 BKN024 OVC050
                       FM030000 18013KT P6SM -SHRA BKN018 OVC030
                       FM030600 17005KT P6SM VCSH BKN010 OVC020=
201612022212 KPAE 022212Z 0222/0318 14021G31KT 2SM -RA BR BKN018 OVC028 FM030000
                       18013KT P6SM -SHRA BKN018 OVC030 FM030600
                       17005KT P6SM VCSH BKN010 OVC020=
201612022114 KPAE 022114Z 0221/0318 14017G25KT P6SM -RA BKN018 BKN023 OVC029
                       FM030000 18013KT P6SM -SHRA BKN018 OVC030
                       FM030600 17005KT P6SM VCSH BKN010 OVC020=
201612021735 TAF KPAE 021735Z 0218/0318 13014KT P6SM -RA SCT025 OVC035 FM022200
                       16018G28KT P6SM -RA SCT025 OVC035 FM030100
                       18013KT P6SM -SHRA BKN018 OVC030 FM030600
                       17005KT P6SM VCSH BKN010 OVC020=
201612021158 TAF KPAE 021158Z 0212/0312 11011G20KT P6SM BKN029 BKN120 FM021400
                       17014G22KT P6SM -RA BKN019 OVC030
                      TEMPO 0221/0301 SCT030 OVC050 FM030300 19010KT
                       P6SM -SHRA BKN018 OVC030=
201612020525 TAF KPAE 020525Z 0206/0306 VRB03KT 3SM -RA BR OVC005
                      TEMPO 0206/0210 P6SM NSW BKN015 OVC027 FM021400
                       17014G22KT P6SM -RA BKN016 OVC028 FM021900
                       17018G27KT P6SM -RA BKN023 OVC030
                      TEMPO 0221/0301 SCT030 OVC050 FM030300 19010KT
                       P6SM -SHRA BKN018 OVC030=
201612012320 TAF KPAE 012320Z 0200/0224 18006KT P6SM VCSH FEW011 BKN040 OVC050
                       TEMPO 0200/0204 BKN022 FM021400 17010KT
                       P6SM -RA BKN025 OVC035=
201612011730 TAF KPAE 011730Z 0118/0218 16006KT P6SM VCSH FEW015 SCT030 OVC060
                       FM012100 17008KT P6SM VCSH SCT025 BKN035
                       OVC060 FM020300 16008KT P6SM VCSH SCT020
                       BKN030 OVC045 FM020800 16008KT P6SM VCSH
                       BKN020 OVC030=
201612011127 TAF KPAE 011127Z 0112/0212 16006KT P6SM SCT020 BKN050
                      TEMPO 0112/0116 BKN020 FM011600 16006KT P6SM
                       BKN020 OVC035 FM012100 17008KT P6SM VCSH
                       SCT025 BKN035 OVC060 FM020300 16008KT P6SM
                       VCSH SCT020 BKN030 OVC045 FM020800 16008KT
                       P6SM VCSH BKN020 OVC030=
201612010527 TAF KPAE 010527Z 0106/0206 14006KT P6SM SCT020 BKN035
                      TEMPO 0106/0110 BKN020 BKN035 FM011000 16006KT
                       P6SM BKN020 OVC030 FM012100 17008KT P6SM
                       VCSH SCT025 BKN035 OVC060 FM020300 16008KT
                       P6SM VCSH SCT020 BKN030 OVC045=
201612010124 KPAE 010124Z 0101/0124 VRB04KT P6SM VCSH SCT035
                      TEMPO 0101/0104 BKN035 FM010600 18006KT P6SM
                       BKN020 OVC040=