##########################################################
# Query made at 02/15/2025 21:18:43 UTC
# Time interval: from 04/01/2016 00:00  to 04/30/2016 23:59  UTC
##########################################################

##########################################################
# KPAE, Everett, Snohomish County Airport (United States)
# WMO index: -----. WIGOS ID: Unknown
# Latitude 47-55-23N. Longitude 122-16-57W. Altitude 184 m.
##########################################################

###################################
#  METAR/SPECI from KPAE
###################################
201604302353 METAR KPAE 302353Z 01009KT 10SM CLR 17/06 A3032 RMK AO2 SLP269 T01670061 10172 20122 56010=
201604302253 METAR KPAE 302253Z 01007KT 10SM CLR 17/07 A3033 RMK AO2 SLP270 T01670067=
201604302153 METAR KPAE 302153Z 36007KT 10SM CLR 16/06 A3034 RMK AO2 SLP274 T01610056=
201604302053 METAR KPAE 302053Z 01006KT 10SM CLR 15/07 A3035 RMK AO2 SLP279 T01500072 58004=
201604301953 METAR KPAE 301953Z 31008KT 290V030 10SM CLR 14/07 A3036 RMK AO2 SLP281 T01390072=
201604301853 METAR KPAE 301853Z 00000KT 10SM FEW021 14/08 A3036 RMK AO2 SLP282 T01390078=
201604301753 METAR KPAE 301753Z 04004KT 10SM SCT016 13/07 A3036 RMK AO2 SLP283 T01280067 10128 20072 50001=
201604301653 METAR KPAE 301653Z 29004KT 10SM BKN015 11/07 A3037 RMK AO2 SLP287 T01060067=
201604301553 METAR KPAE 301553Z VRB03KT 10SM FEW012 11/06 A3037 RMK AO2 SLP286 T01060061=
201604301453 METAR KPAE 301453Z 32004KT 10SM CLR 09/06 A3036 RMK AO2 SLP282 T00940056 53014=
201604301353 METAR KPAE 301353Z 32005KT 10SM CLR 08/06 A3034 RMK AO2 SLP276 T00830056=
201604301253 METAR KPAE 301253Z AUTO 31004KT 10SM CLR 07/05 A3032 RMK AO2 SLP271 T00720050=
201604301153 METAR KPAE 301153Z AUTO 00000KT 10SM CLR 07/04 A3032 RMK AO2 SLP268 70006 T00720044 10100 20072 52016=
201604301053 METAR KPAE 301053Z AUTO 03004KT 10SM CLR 08/05 A3030 RMK AO2 SLP263 T00830050=
201604300953 METAR KPAE 300953Z AUTO 03003KT 10SM CLR 08/05 A3029 RMK AO2 SLP256 T00830050=
201604300853 METAR KPAE 300853Z AUTO VRB04KT 10SM CLR 08/05 A3027 RMK AO2 SLP252 T00830050 53013=
201604300753 METAR KPAE 300753Z AUTO 03005KT 10SM CLR 09/06 A3026 RMK AO2 SLP247 T00940056 401500078=
201604300653 METAR KPAE 300653Z AUTO 03006KT 10SM CLR 09/06 A3024 RMK AO2 SLP243 T00940061=
201604300553 METAR KPAE 300553Z AUTO 02005KT 10SM CLR 10/06 A3023 RMK AO2 SLP239 T01000056 10150 20100 51019=
201604300453 METAR KPAE 300453Z AUTO 03005KT 10SM CLR 10/07 A3022 RMK AO2 SLP234 T01000067=
201604300353 METAR KPAE 300353Z AUTO 03005KT 10SM CLR 11/06 A3019 RMK AO2 SLP226 T01110061=
201604300253 METAR KPAE 300253Z 02005KT 10SM CLR 13/06 A3018 RMK AO2 SLP219 T01280056 51010=
201604300153 METAR KPAE 300153Z 01005KT 10SM SCT039 13/06 A3017 RMK AO2 SLP218 T01280056=
201604300053 METAR KPAE 300053Z 31004KT 10SM FEW039 13/06 A3016 RMK AO2 SLP214 T01280056=
201604292353 METAR KPAE 292353Z 01005KT 10SM CLR 14/05 A3014 RMK AO2 SLP209 60000 T01440050 10150 20100 51003=
201604292253 METAR KPAE 292253Z VRB04KT 10SM SCT022 SCT070 14/06 A3014 RMK AO2 SLP208 T01390061=
201604292153 METAR KPAE 292153Z 35005KT 10SM OVC070 13/06 A3014 RMK AO2 SLP206 T01280056=
201604292105 SPECI KPAE 292105Z 00000KT 10SM SCT022 OVC070 12/06 A3013 RMK AO2 T01220056=
201604292053 METAR KPAE 292053Z 02003KT 10SM BKN020 OVC070 12/06 A3013 RMK AO2 SLP205 60000 T01220061 51004=
201604291953 METAR KPAE 291953Z VRB04KT 10SM FEW016 SCT038 OVC055 12/07 A3013 RMK AO2 RAE30 SLP204 P0000 T01170067=
201604291931 SPECI KPAE 291931Z 35003KT 10SM FEW015 SCT021 OVC036 11/07 A3013 RMK AO2 RAE30 P0000 T01060067=
201604291853 METAR KPAE 291853Z 30005KT 10SM -RA BKN018 BKN024 OVC060 10/07 A3013 RMK AO2 RAB47 SLP204 P0000 T01000067=
201604291753 METAR KPAE 291753Z 00000KT 10SM BKN015 BKN024 OVC048 11/07 A3012 RMK AO2 SLP201 60006 T01060067 10106 20078 51010=
201604291731 SPECI KPAE 291731Z 00000KT 10SM BKN015 OVC100 10/07 A3012 RMK AO2 T01000067=
201604291653 METAR KPAE 291653Z 00000KT 10SM SCT036 BKN043 OVC100 09/06 A3011 RMK AO2 RAE1558 SLP199 P0000 T00940056=
201604291553 METAR KPAE 291553Z 00000KT 10SM -RA OVC031 09/06 A3010 RMK AO2 RAE02B24 SLP195 P0001 T00890061=
201604291522 SPECI KPAE 291522Z 00000KT 10SM OVC030 08/06 A3010 RMK AO2 RAE02 P0000 T00830061=
201604291453 METAR KPAE 291453Z 01003KT 9SM -RA OVC027 08/06 A3009 RMK AO2 SLP192 P0001 60005 T00830061 53003=
201604291353 METAR KPAE 291353Z VRB03KT 4SM -RA BR OVC020 08/06 A3009 RMK AO2 RAE31B47 SLP191 P0001 T00780061=
201604291337 SPECI KPAE 291337Z AUTO 36004KT 3SM BR FEW004 FEW009 OVC018 08/06 A3009 RMK AO2 RAE31 P0001 T00780061=
201604291327 SPECI KPAE 291327Z AUTO 34004KT 2 1/2SM -RA BR SCT006 OVC016 08/06 A3009 RMK AO2 P0000 T00780061=
201604291316 SPECI KPAE 291316Z AUTO 03003KT 2SM -RA BR BKN006 OVC011 08/06 A3009 RMK AO2 CIG 003V009 P0000 T00780061=
201604291253 METAR KPAE 291253Z AUTO 00000KT 3SM -RA BR OVC005 08/06 A3009 RMK AO2 CIG 002V009 SLP190 P0003 T00780061=
201604291246 SPECI KPAE 291246Z AUTO 01003KT 3SM -RA BR BKN005 OVC010 08/07 A3009 RMK AO2 CIG 002V007 P0002 T00780067=
201604291239 SPECI KPAE 291239Z AUTO 00000KT 2 1/2SM -RA BR BKN005 OVC010 08/07 A3009 RMK AO2 CIG 002V007 P0002 T00780067=
201604291219 SPECI KPAE 291219Z AUTO VRB03KT 2 1/2SM -RA BR OVC003 08/07 A3008 RMK AO2 P0001 T00780067=
201604291209 SPECI KPAE 291209Z AUTO 34003KT 3SM -RA BR OVC003 08/07 A3008 RMK AO2 CIG 002V006 P0001 T00780067=
201604291201 SPECI KPAE 291201Z AUTO 02003KT 2 1/2SM -RA BR OVC003 08/07 A3008 RMK AO2 P0000 T00780067=
201604291153 METAR KPAE 291153Z AUTO VRB03KT 3SM -RA BR OVC003 08/07 A3008 RMK AO2 SLP188 P0001 60002 70002 T00780067 10100 20078 58002=
201604291126 SPECI KPAE 291126Z AUTO 36005KT 3SM -RA BR BKN003 OVC009 08/07 A3009 RMK AO2 P0001 T00780067=
201604291053 METAR KPAE 291053Z AUTO 33003KT 3SM -RA BR BKN007 OVC011 08/07 A3009 RMK AO2 RAB26 CIG 004V009 SLP191 P0000 T00830067=
201604290953 METAR KPAE 290953Z AUTO 01004KT 10SM OVC007 09/07 A3009 RMK AO2 SLP189 T00890067=
201604290928 SPECI KPAE 290928Z AUTO 02005KT 10SM BKN006 OVC009 09/07 A3009 RMK AO2 CIG 004V008 T00890072=
201604290853 METAR KPAE 290853Z AUTO VRB04KT 10SM BKN004 OVC008 09/07 A3009 RMK AO2 SLP191 60001 T00890072 50000=
201604290849 SPECI KPAE 290849Z AUTO 33006KT 10SM BKN004 OVC008 09/07 A3009 RMK AO2=
201604290753 METAR KPAE 290753Z AUTO 01004KT 10SM OVC005 09/08 A3010 RMK AO2 RAE10 SLP192 P0000 T00940078 401610094=
201604290653 METAR KPAE 290653Z AUTO 36005KT 9SM -RA BKN006 OVC028 09/08 A3009 RMK AO2 RAB0559E28B44 SLP190 P0001 T00940078=
201604290637 SPECI KPAE 290637Z AUTO 35005KT 10SM BKN006 BKN028 OVC055 09/08 A3009 RMK AO2 RAB0559E28 P0000 T00940078=
201604290623 SPECI KPAE 290623Z AUTO 01006KT 10SM -RA FEW006 BKN030 OVC055 09/08 A3009 RMK AO2 RAB0559 P0000 T00940078=
201604290553 METAR KPAE 290553Z AUTO 01006KT 10SM BKN033 OVC046 10/07 A3009 RMK AO2 SLP191 60000 T01000072 10133 20100 50002=
201604290453 METAR KPAE 290453Z AUTO VRB05KT 10SM OVC040 10/07 A3010 RMK AO2 SLP193 T01000072=
201604290353 METAR KPAE 290353Z AUTO 01007KT 10SM BKN040 OVC055 11/07 A3009 RMK AO2 SLP191 T01060067=
201604290253 METAR KPAE 290253Z 36007KT 10SM BKN047 OVC075 11/07 A3009 RMK AO2 RAE0159 SLP189 P0000 60000 T01110067 58001=
201604290153 METAR KPAE 290153Z 01004KT 10SM -RA OVC041 12/07 A3009 RMK AO2 RAB46 SLP190 P0000 T01170067=
201604290053 METAR KPAE 290053Z 01006KT 10SM OVC060 12/07 A3009 RMK AO2 SLP189 T01220072=
201604282353 METAR KPAE 282353Z 36008KT 10SM OVC060 13/08 A3009 RMK AO2 SLP190 T01330078 10161 20122 58000=
201604282253 METAR KPAE 282253Z 30005KT 10SM OVC060 16/07 A3009 RMK AO2 SLP191 T01560067=
201604282153 METAR KPAE 282153Z VRB04KT 10SM OVC035 16/08 A3009 RMK AO2 SLP190 T01560078=
201604282053 METAR KPAE 282053Z 28005KT 10SM SCT035 BKN055 14/07 A3009 RMK AO2 SLP190 T01390067 58007=
201604281953 METAR KPAE 281953Z VRB03KT 10SM SCT031 BKN040 OVC055 14/07 A3010 RMK AO2 SLP193 T01390067=
201604281853 METAR KPAE 281853Z 00000KT 10SM FEW024 OVC055 14/08 A3010 RMK AO2 SLP194 T01390078=
201604281753 METAR KPAE 281753Z 01005KT 10SM OVC055 12/06 A3011 RMK AO2 SLP197 T01220061 10122 20100 58002=
201604281653 METAR KPAE 281653Z 01005KT 10SM OVC055 12/06 A3011 RMK AO2 SLP198 T01170061=
201604281553 METAR KPAE 281553Z 05003KT 10SM OVC060 11/06 A3012 RMK AO2 SLP199 T01110056=
201604281453 METAR KPAE 281453Z 01003KT 10SM OVC055 11/06 A3012 RMK AO2 SLP199 T01060056 53012=
201604281353 METAR KPAE 281353Z 08003KT 10SM OVC055 11/06 A3010 RMK AO2 SLP194 T01060056=
201604281253 METAR KPAE 281253Z AUTO 00000KT 10SM OVC055 11/06 A3009 RMK AO2 SLP190 T01060056=
201604281153 METAR KPAE 281153Z AUTO 00000KT 10SM OVC055 10/06 A3008 RMK AO2 SLP187 T01000056 10106 20100 52006=
201604281053 METAR KPAE 281053Z AUTO 04005KT 10SM OVC055 11/05 A3008 RMK AO2 SLP185 T01060050=
201604280953 METAR KPAE 280953Z AUTO 00000KT 10SM OVC055 11/05 A3007 RMK AO2 SLP182 T01060050=
201604280853 METAR KPAE 280853Z AUTO 00000KT 10SM OVC055 11/04 A3006 RMK AO2 SLP181 T01060044 53002=
201604280753 METAR KPAE 280753Z AUTO 02003KT 10SM BKN055 BKN110 10/04 A3006 RMK AO2 SLP180 T01000044 401390083=
201604280653 METAR KPAE 280653Z AUTO 03007KT 10SM OVC070 11/05 A3006 RMK AO2 SLP178 T01060050=
201604280553 METAR KPAE 280553Z AUTO 01004KT 10SM OVC090 11/06 A3006 RMK AO2 SLP178 T01060056 10133 20106 50009=
201604280453 METAR KPAE 280453Z AUTO 01004KT 10SM OVC095 11/04 A3006 RMK AO2 SLP179 T01110044=
201604280353 METAR KPAE 280353Z AUTO 33004KT 10SM OVC100 12/06 A3004 RMK AO2 SLP175 T01170056=
201604280253 METAR KPAE 280253Z 00000KT 10SM OVC085 12/06 A3003 RMK AO2 SLP170 T01220056 53001=
201604280153 METAR KPAE 280153Z 27004KT 10SM BKN090 OVC110 12/06 A3002 RMK AO2 SLP168 T01220056=
201604280053 METAR KPAE 280053Z 33003KT 10SM FEW070 OVC090 13/05 A3002 RMK AO2 SLP168 T01280050=
201604272353 METAR KPAE 272353Z 00000KT 10SM SCT048 OVC075 13/06 A3002 RMK AO2 SLP168 T01330056 10139 20111 51001=
201604272253 METAR KPAE 272253Z 35005KT 10SM BKN065 OVC080 13/06 A3002 RMK AO2 SLP167 T01280061=
201604272153 METAR KPAE 272153Z 01006KT 10SM SCT050 SCT065 OVC085 13/06 A3002 RMK AO2 SLP168 T01330056=
201604272053 METAR KPAE 272053Z 34007KT 10SM OVC085 12/06 A3002 RMK AO2 SLP167 T01220056 51004=
201604271953 METAR KPAE 271953Z 01006KT 10SM OVC100 12/06 A3002 RMK AO2 SLP165 T01170056=
201604271853 METAR KPAE 271853Z 35006KT 10SM OVC050 11/06 A3002 RMK AO2 SLP166 T01110061=
201604271804 SPECI KPAE 271804Z 01007KT 10SM SCT016 BKN070 OVC080 12/06 A3001 RMK AO2 T01170061=
201604271753 METAR KPAE 271753Z VRB05KT 10SM SCT016 BKN028 OVC080 12/06 A3001 RMK AO2 SLP163 T01170061 10117 20083 50002=
201604271653 METAR KPAE 271653Z VRB06KT 10SM BKN016 OVC025 10/06 A3001 RMK AO2 SLP164 T01000056=
201604271553 METAR KPAE 271553Z 35003KT 10SM BKN014 OVC018 09/06 A3000 RMK AO2 SLP162 T00940056=
201604271453 METAR KPAE 271453Z 34003KT 10SM OVC021 09/04 A3000 RMK AO2 SLP160 T00890044 53001=
201604271424 SPECI KPAE 271424Z 33003KT 10SM BKN021 OVC110 09/04 A3000 RMK AO2 T00890044=
201604271353 METAR KPAE 271353Z 00000KT 10SM FEW055 OVC110 08/04 A3000 RMK AO2 SLP159 T00830044=
201604271253 METAR KPAE 271253Z AUTO 33004KT 10SM CLR 08/04 A2999 RMK AO2 SLP158 T00830039=
201604271153 METAR KPAE 271153Z AUTO 31004KT 10SM BKN049 OVC110 08/04 A3000 RMK AO2 SLP159 T00830044 10094 20083 58003=
201604271053 METAR KPAE 271053Z AUTO 32003KT 10SM OVC039 09/04 A3000 RMK AO2 SLP161 T00890044=
201604270953 METAR KPAE 270953Z AUTO 36003KT 10SM BKN037 OVC090 09/06 A3000 RMK AO2 SLP161 T00890056=
201604270853 METAR KPAE 270853Z AUTO 36003KT 10SM OVC100 09/05 A3001 RMK AO2 SLP161 T00890050 58006=
201604270753 METAR KPAE 270753Z AUTO 36004KT 10SM BKN055 OVC100 09/05 A3001 RMK AO2 SLP164 T00890050 401330061=
201604270653 METAR KPAE 270653Z AUTO 00000KT 10SM BKN044 09/05 A3002 RMK AO2 SLP166 T00940050=
201604270553 METAR KPAE 270553Z AUTO 35005KT 10SM CLR 09/05 A3002 RMK AO2 SLP169 T00940050 10128 20094 53001=
201604270453 METAR KPAE 270453Z AUTO 01006KT 10SM CLR 09/05 A3002 RMK AO2 SLP168 T00940050=
201604270353 METAR KPAE 270353Z AUTO 36007KT 10SM CLR 09/05 A3002 RMK AO2 SLP166 T00940050=
201604270253 METAR KPAE 270253Z 35004KT 10SM CLR 10/03 A3002 RMK AO2 SLP167 T01000033 57007=
201604270153 METAR KPAE 270153Z 35005KT 10SM CLR 12/06 A3003 RMK AO2 SLP170 T01170056=
201604270053 METAR KPAE 270053Z 27006KT 10SM CLR 13/03 A3003 RMK AO2 SLP171 T01280028=
201604262353 METAR KPAE 262353Z 26005KT 10SM CLR 13/03 A3004 RMK AO2 SLP174 T01280028 10133 20100 56012=
201604262253 METAR KPAE 262253Z 29007KT 10SM CLR 13/02 A3005 RMK AO2 SLP176 T01330022=
201604262153 METAR KPAE 262153Z 29006KT 10SM CLR 12/04 A3006 RMK AO2 SLP182 T01220044=
201604262053 METAR KPAE 262053Z 26007KT 220V290 10SM CLR 12/05 A3007 RMK AO2 SLP186 T01220050 56017=
201604261953 METAR KPAE 261953Z 26008KT 10SM CLR 12/06 A3009 RMK AO2 SLP190 T01170061=
201604261853 METAR KPAE 261853Z 29007KT 10SM FEW027 11/07 A3011 RMK AO2 SLP196 T01060067=
201604261807 SPECI KPAE 261807Z 00000KT 10SM SCT028 10/06 A3012 RMK AO2 T01000061=
201604261753 METAR KPAE 261753Z VRB04KT 10SM BKN028 10/06 A3013 RMK AO2 SLP203 T01000061 10100 20061 56009=
201604261653 METAR KPAE 261653Z 17004KT 10SM FEW017 SCT025 09/04 A3014 RMK AO2 SLP207 T00940044=
201604261646 SPECI KPAE 261646Z 17004KT 10SM FEW016 09/04 A3014 RMK AO2 T00890039=
201604261553 METAR KPAE 261553Z 19004KT 10SM BKN016 BKN022 OVC030 08/04 A3014 RMK AO2 SLP209 T00830044=
201604261545 SPECI KPAE 261545Z 00000KT 10SM BKN017 OVC030 08/04 A3014 RMK AO2 T00830044=
201604261453 METAR KPAE 261453Z 00000KT 10SM SCT028 08/03 A3015 RMK AO2 SLP213 T00780033 56007=
201604261353 METAR KPAE 261353Z 00000KT 10SM CLR 06/03 A3016 RMK AO2 SLP214 T00610033=
201604261325 SPECI KPAE 261325Z AUTO 12004KT 10SM SCT027 07/03 A3016 RMK AO2 T00670028=
201604261253 METAR KPAE 261253Z AUTO 11004KT 10SM OVC027 07/03 A3016 RMK AO2 SLP216 T00720028=
201604261153 METAR KPAE 261153Z AUTO 00000KT 10SM OVC024 06/03 A3017 RMK AO2 SLP220 70079 T00610033 10083 20061 55003=
201604261139 SPECI KPAE 261139Z AUTO 00000KT 10SM BKN024 07/03 A3017 RMK AO2 T00670028=
201604261053 METAR KPAE 261053Z AUTO 09004KT 10SM CLR 07/03 A3017 RMK AO2 SLP218 T00670028=
201604260953 METAR KPAE 260953Z AUTO 00000KT 10SM FEW015 07/03 A3018 RMK AO2 SLP220 T00670033=
201604260853 METAR KPAE 260853Z AUTO VRB03KT 10SM CLR 07/04 A3018 RMK AO2 SLP223 T00720039 58002=
201604260753 METAR KPAE 260753Z AUTO 00000KT 10SM CLR 07/04 A3020 RMK AO2 SLP228 T00670039 401330050=
201604260653 METAR KPAE 260653Z AUTO 00000KT 10SM CLR 08/04 A3019 RMK AO2 SLP225 T00780039=
201604260553 METAR KPAE 260553Z AUTO 00000KT 10SM CLR 07/04 A3019 RMK AO2 SLP225 T00720039 10128 20072 50003=
201604260453 METAR KPAE 260453Z AUTO 02003KT 10SM CLR 08/04 A3019 RMK AO2 SLP228 T00780039=
201604260353 METAR KPAE 260353Z AUTO 35003KT 10SM CLR 08/04 A3019 RMK AO2 SLP228 T00830039=
201604260253 METAR KPAE 260253Z 34005KT 10SM CLR 10/03 A3018 RMK AO2 SLP222 T01000028 55003=
201604260153 METAR KPAE 260153Z 35006KT 10SM CLR 12/02 A3018 RMK AO2 SLP222 T01170017=
201604260053 METAR KPAE 260053Z 32008KT 10SM CLR 12/02 A3019 RMK AO2 SLP224 T01220017=
201604252353 METAR KPAE 252353Z 30008KT 10SM CLR 13/02 A3019 RMK AO2 SLP226 T01280022 10133 20094 55002=
201604252253 METAR KPAE 252253Z 36006KT 10SM CLR 13/03 A3019 RMK AO2 SLP224 T01280033=
201604252153 METAR KPAE 252153Z 01008KT 10SM CLR 13/03 A3019 RMK AO2 SLP225 T01280028=
201604252053 METAR KPAE 252053Z 36008KT 10SM CLR 12/03 A3020 RMK AO2 SLP228 T01220028 58006=
201604251953 METAR KPAE 251953Z VRB05KT 10SM SCT065 12/04 A3020 RMK AO2 SLP230 T01170044=
201604251853 METAR KPAE 251853Z 32007KT 10SM FEW021 SCT027 BKN043 11/05 A3022 RMK AO2 SLP234 T01060050=
201604251753 METAR KPAE 251753Z VRB04KT 10SM SCT004 BKN033 OVC043 10/06 A3021 RMK AO2 RAB30E39 SLP233 P0000 60079 T01000056 10100 20067 53005=
201604251655 SPECI KPAE 251655Z 00000KT 10SM SCT004 BKN033 OVC043 08/06 A3021 RMK AO2 T00780056=
201604251653 METAR KPAE 251653Z 00000KT 10SM SCT014 BKN033 OVC043 08/06 A3021 RMK AO2 RAE45 SLP232 P0013 T00780056=
201604251627 SPECI KPAE 251627Z 03003KT 3SM -RA BR BKN004 OVC017 07/05 A3021 RMK AO2 P0012 T00720050=
201604251617 SPECI KPAE 251617Z 32004KT 2SM RA BKN004 OVC017 07/04 A3021 RMK AO2 P0011 T00720044=
201604251553 METAR KPAE 251553Z 28003KT 1SM R16R/P6000FT RA BKN007 OVC017 07/04 A3020 RMK AO2 SLP230 P0050 T00720044=
201604251551 SPECI KPAE 251551Z 27003KT 1SM R16R/4500VP6000FT RA BKN007 OVC017 07/04 A3020 RMK AO2 P0049=
201604251534 SPECI KPAE 251534Z VRB03KT 1SM R16R/5000VP6000FT +RA SCT007 BKN016 OVC025 07/04 A3020 RMK AO2 P0036 T00670039=
201604251453 METAR KPAE 251453Z 22004KT 2 1/2SM -RA BR BKN005 BKN010 OVC014 07/06 A3019 RMK AO2 CIG 003V007 SLP226 P0008 60016 T00720056 51006=
201604251442 SPECI KPAE 251442Z 22004KT 1 3/4SM RA BR OVC007 07/06 A3020 RMK AO2 VIS 1V4 CIG 004V010 P0006 T00720056=
201604251353 METAR KPAE 251353Z 00000KT 4SM -RA BR SCT003 BKN009 OVC016 07/06 A3019 RMK AO2 SLP225 P0007 T00720056=
201604251333 SPECI KPAE 251333Z 22003KT 6SM -RA BR FEW008 BKN019 OVC030 07/06 A3018 RMK AO2 P0005 T00720056=
201604251318 SPECI KPAE 251318Z 23005KT 3SM -RA BR SCT010 BKN021 OVC033 07/06 A3018 RMK AO2 P0003 T00720056=
201604251301 SPECI KPAE 251301Z 00000KT 5SM -RA BR FEW008 BKN014 OVC030 07/06 A3018 RMK AO2 P0001 T00720056=
201604251253 METAR KPAE 251253Z 27004KT 8SM -RA SCT014 BKN024 OVC029 07/06 A3018 RMK AO2 RAB42 SLP222 P0001 T00720056=
201604251231 SPECI KPAE 251231Z 24005KT 10SM BKN029 OVC042 07/06 A3018 RMK AO2 T00720056=
201604251153 METAR KPAE 251153Z 25003KT 10SM FEW024 BKN034 OVC042 07/05 A3017 RMK AO2 RAE50 SLP220 P0001 60001 70070 T00720050 10078 20050 53004=
201604251053 METAR KPAE 251053Z 19004KT 9SM -RA BKN034 OVC047 07/05 A3017 RMK AO2 RAB48 SLP217 P0000 T00720050=
201604250953 METAR KPAE 250953Z 20003KT 10SM BKN050 06/04 A3016 RMK AO2 SLP217 T00610044=
201604250909 SPECI KPAE 250909Z 21003KT 10SM FEW008 SCT043 07/04 A3016 RMK AO2 T00670044=
201604250853 METAR KPAE 250853Z 00000KT 10SM FEW039 07/04 A3016 RMK AO2 SLP216 T00670039 51006=
201604250753 METAR KPAE 250753Z 34003KT 10SM CLR 07/02 A3016 RMK AO2 SLP215 T00670017 401000067=
201604250653 METAR KPAE 250653Z 35003KT 10SM CLR 07/03 A3015 RMK AO2 SLP213 T00720028=
201604250553 METAR KPAE 250553Z 00000KT 10SM CLR 08/03 A3014 RMK AO2 SLP209 T00780033 10100 20078 51007=
201604250453 METAR KPAE 250453Z VRB05KT 10SM FEW026 SCT065 OVC080 08/04 A3014 RMK AO2 SLP207 T00830039=
201604250422 SPECI KPAE 250422Z 00000KT 10SM BKN027 OVC075 08/04 A3014 RMK AO2 T00830039=
201604250353 METAR KPAE 250353Z 35003KT 10SM FEW027 OVC070 08/04 A3013 RMK AO2 SLP205 T00830039=
201604250253 METAR KPAE 250253Z 00000KT 10SM FEW026 FEW045 FEW065 09/04 A3012 RMK AO2 SLP202 T00890039 53006=
201604250153 METAR KPAE 250153Z 29005KT 10SM FEW029 09/05 A3011 RMK AO2 SLP197 T00940050=
201604250053 METAR KPAE 250053Z 29003KT 10SM FEW008 BKN100 09/04 A3010 RMK AO2 SLP196 T00940044=
201604242353 METAR KPAE 242353Z 24004KT 10SM FEW008 SCT013 BKN026 09/06 A3010 RMK AO2 RAE36 SLP195 P0001 60007 T00890061 10100 20072 50005=
201604242253 METAR KPAE 242253Z 29008KT 10SM -RA BKN013 OVC028 09/05 A3010 RMK AO2 RAB14 SLP195 P0000 T00890050=
201604242153 METAR KPAE 242153Z 11004KT 10SM BKN022 BKN026 OVC055 09/05 A3009 RMK AO2 SLP193 T00940050=
201604242139 SPECI KPAE 242139Z VRB03KT 10SM SCT021 BKN027 OVC049 09/05 A3009 RMK AO2 T00940050=
201604242053 METAR KPAE 242053Z 05003KT 10SM SCT009 BKN045 OVC060 09/06 A3009 RMK AO2 RAE17 SLP190 P0002 60006 T00940056 51010=
201604241953 METAR KPAE 241953Z 00000KT 10SM -RA FEW005 OVC028 07/05 A3009 RMK AO2 SLP190 P0002 T00720050=
201604241931 SPECI KPAE 241931Z VRB03KT 6SM -RA BR BKN027 OVC033 07/05 A3008 RMK AO2 P0001 T00720050=
201604241917 SPECI KPAE 241917Z 35005KT 9SM -RA FEW011 BKN033 OVC041 07/05 A3008 RMK AO2 P0000 T00720050=
201604241853 METAR KPAE 241853Z 31007KT 10SM -RA SCT006 BKN008 OVC018 08/05 A3007 RMK AO2 RAB08 SLP185 P0002 T00780050=
201604241753 METAR KPAE 241753Z 31006KT 10SM SCT006 BKN009 OVC018 08/05 A3006 RMK AO2 RAE32 SLP180 P0002 60062 T00830050 10089 20078 53013=
201604241653 METAR KPAE 241653Z 03004KT 4SM -RA BR BKN009 OVC033 08/07 A3003 RMK AO2 SLP171 P0014 T00830067=
201604241614 SPECI KPAE 241614Z 01003KT 2SM R16R/4000VP6000FT RA BR FEW007 FEW023 OVC031 08/06 A3003 RMK AO2 P0007 T00830061=
201604241600 SPECI KPAE 241600Z 34003KT 1 1/2SM RA BR FEW009 SCT012 OVC029 08/06 A3003 RMK AO2 P0002 T00830061=
201604241553 METAR KPAE 241553Z 34003KT 2SM RA BR FEW003 SCT012 OVC037 08/06 A3003 RMK AO2 SLP171 P0014 T00830061=
201604241453 METAR KPAE 241453Z 35004KT 2SM -RA BR FEW008 SCT012 OVC037 08/06 A3002 RMK AO2 SLP166 P0015 60032 T00830061 53007=
201604241431 SPECI KPAE 241431Z 00000KT 2 1/2SM RA BR FEW016 OVC033 08/07 A3002 RMK AO2 P0010 T00830067=
201604241423 SPECI KPAE 241423Z 00000KT 1 3/4SM R16R/3500VP6000FT RA BR FEW017 BKN030 OVC037 08/07 A3001 RMK AO2 P0009 T00830067=
201604241418 SPECI KPAE 241418Z 00000KT 2SM R16R/3500VP6000FT RA BR FEW017 BKN028 OVC037 08/06 A3001 RMK AO2 P0007 T00830061=
201604241402 SPECI KPAE 241402Z 00000KT 1 1/2SM RA BR FEW007 BKN026 OVC037 08/06 A3001 RMK AO2 P0002 T00830061=
201604241353 METAR KPAE 241353Z 15003KT 2SM R16R/5500VP6000FT RA BR SCT007 BKN013 OVC023 08/07 A3002 RMK AO2 SLP165 P0011 T00830067=
201604241344 SPECI KPAE 241344Z 00000KT 2SM RA BR FEW007 BKN014 OVC019 09/07 A3001 RMK AO2 P0008 T00890072=
201604241336 SPECI KPAE 241336Z VRB03KT 3SM RA BR SCT010 BKN014 OVC025 09/07 A3001 RMK AO2 P0005 T00890072=
201604241253 METAR KPAE 241253Z 16005KT 5SM -RA BR FEW005 BKN026 OVC034 09/07 A3000 RMK AO2 SLP158 P0006 T00890072=
201604241250 SPECI KPAE 241250Z 16005KT 4SM -RA BR FEW005 BKN026 OVC034 09/07 A3000 RMK AO2 P0006=
201604241243 SPECI KPAE 241243Z 00000KT 2 1/2SM RA BR SCT011 BKN033 OVC041 09/07 A3000 RMK AO2 P0005 T00890072=
201604241219 SPECI KPAE 241219Z 10004KT 3SM RA BR FEW007 BKN011 OVC032 09/07 A3000 RMK AO2 P0002 T00890072=
201604241210 SPECI KPAE 241210Z 11004KT 6SM -RA BR FEW007 BKN016 OVC034 09/07 A3000 RMK AO2 P0001 T00890072=
201604241208 SPECI KPAE 241208Z 10004KT 6SM -RA BR SCT014 BKN029 OVC034 09/07 A3000 RMK AO2 P0001 T00890072=
201604241200 SPECI KPAE 241200Z 16003KT 5SM -RA BR FEW016 OVC031 09/07 A3000 RMK AO2 P0000 T00890072=
201604241153 METAR KPAE 241153Z 00000KT 3SM -RA BR OVC029 09/07 A3000 RMK AO2 SLP157 P0005 60030 70039 T00890072 10106 20089 50000=
201604241053 METAR KPAE 241053Z 11003KT 6SM -RA BR OVC028 09/07 A3000 RMK AO2 SLP159 P0005 T00890072=
201604241023 SPECI KPAE 241023Z 00000KT 6SM -RA BR FEW005 BKN021 OVC027 09/08 A3000 RMK AO2 P0004 T00890078=
201604241013 SPECI KPAE 241013Z 00000KT 4SM -RA BR BKN005 BKN015 OVC024 09/08 A3000 RMK AO2 P0003 T00940078=
201604240958 SPECI KPAE 240958Z 00000KT 2 1/2SM -RA BR SCT004 OVC022 09/08 A3000 RMK AO2 P0001 T00890078=
201604240953 METAR KPAE 240953Z 00000KT 3SM -RA BR BKN004 OVC022 09/08 A3000 RMK AO2 RAE22B27 CIG 002V008 SLP160 P0003 T00890078=
201604240924 SPECI KPAE 240924Z 00000KT 10SM BKN004 OVC021 09/08 A3000 RMK AO2 RAE22 P0001 T00890078=
201604240915 SPECI KPAE 240915Z 00000KT 6SM -RA BR SCT004 OVC021 09/08 A3000 RMK AO2 P0001 T00890078=
201604240853 METAR KPAE 240853Z 36004KT 6SM -RA BR OVC022 09/08 A3000 RMK AO2 SLP159 P0005 60017 T00890078 50005=
201604240851 SPECI KPAE 240851Z 34003KT 5SM -RA BR OVC022 09/08 A3000 RMK AO2 P0005=
201604240843 SPECI KPAE 240843Z 35005KT 2 1/2SM -RA BR FEW004 BKN020 OVC024 09/08 A3000 RMK AO2 P0005 T00940078=
201604240830 SPECI KPAE 240830Z 36006KT 3SM -RA BR SCT004 OVC018 09/08 A2999 RMK AO2 P0003 T00940078=
201604240805 SPECI KPAE 240805Z 36006KT 4SM -RA BR SCT006 OVC014 09/08 A2999 RMK AO2 P0001 T00940078=
201604240753 METAR KPAE 240753Z VRB03KT 3SM -RA BR BKN006 BKN013 OVC021 10/08 A2999 RMK AO2 SLP156 P0011 T01000083 401610094=
201604240749 SPECI KPAE 240749Z 00000KT 3SM -RA BR SCT006 BKN009 OVC021 10/08 A2999 RMK AO2 P0011=
201604240744 SPECI KPAE 240744Z 00000KT 4SM -RA BR SCT008 BKN016 OVC021 10/08 A2999 RMK AO2 P0010 T01000083=
201604240729 SPECI KPAE 240729Z 35003KT 2SM -RA BR FEW004 SCT011 OVC018 10/08 A2999 RMK AO2 P0008 T01000083=
201604240723 SPECI KPAE 240723Z 35004KT 1 3/4SM RA BR SCT004 BKN011 OVC016 10/08 A2999 RMK AO2 P0007 T01000083=
201604240716 SPECI KPAE 240716Z 01004KT 1 3/4SM +RA BR BKN004 BKN011 OVC016 10/08 A2999 RMK AO2 P0005 T01000083=
201604240713 SPECI KPAE 240713Z 02003KT 2 1/2SM RA BR SCT004 OVC010 10/08 A2999 RMK AO2 P0004 T01000083=
201604240653 METAR KPAE 240653Z 24007KT 10SM -RA BKN007 OVC015 10/08 A2998 RMK AO2 CIG 005V012 SLP153 P0001 T01000083=
201604240638 SPECI KPAE 240638Z 21007KT 10SM -RA SCT008 OVC016 11/08 A2998 RMK AO2 P0001 T01060083=
201604240553 METAR KPAE 240553Z 19011KT 10SM -RA OVC019 11/08 A2998 RMK AO2 RAE22B48 SLP152 P0000 60001 T01060083 10161 20106 50005=
201604240520 SPECI KPAE 240520Z 20010KT 10SM -RA FEW014 BKN019 OVC090 11/08 A2998 RMK AO2 P0000 T01110083=
201604240453 METAR KPAE 240453Z 19012KT 10SM -RA OVC065 11/08 A2998 RMK AO2 RAB05 SLP153 P0001 T01110083=
201604240353 METAR KPAE 240353Z 19013KT 10SM FEW065 OVC110 13/07 A2997 RMK AO2 SLP148 T01280072=
201604240253 METAR KPAE 240253Z 18015G20KT 10SM OVC090 13/08 A2996 RMK AO2 SLP147 T01330078 57007=
201604240153 METAR KPAE 240153Z 20014KT 10SM OVC070 14/07 A2997 RMK AO2 SLP149 T01390072=
201604240053 METAR KPAE 240053Z 21012KT 10SM BKN065 15/07 A2998 RMK AO2 SLP151 T01500067=
201604232353 METAR KPAE 232353Z VRB03KT 10SM BKN040 OVC048 16/08 A2998 RMK AO2 SLP153 T01610078 10161 20117 58013=
201604232253 METAR KPAE 232253Z 03004KT 10SM OVC038 15/08 A3000 RMK AO2 SLP159 T01500083=
201604232153 METAR KPAE 232153Z VRB03KT 10SM BKN035 OVC044 15/07 A3001 RMK AO2 SLP163 T01500072=
201604232053 METAR KPAE 232053Z 16011KT 10SM SCT028 BKN037 BKN048 15/07 A3002 RMK AO2 SLP167 T01500067 58006=
201604232000 SPECI KPAE 232000Z 22010G15KT 10SM SCT028 BKN037 BKN048 15/08 A3004 RMK AO2 T01500083=
201604231953 METAR KPAE 231953Z 20007KT 10SM BKN020 BKN039 14/08 A3003 RMK AO2 SLP170 T01440078=
201604231853 METAR KPAE 231853Z 19009KT 10SM BKN020 BKN046 13/08 A3004 RMK AO2 SLP173 T01330083=
201604231843 SPECI KPAE 231843Z 21006KT 10SM SCT019 BKN026 OVC040 13/08 A3004 RMK AO2 T01280083=
201604231753 METAR KPAE 231753Z 21009KT 10SM FEW013 BKN031 BKN080 12/08 A3004 RMK AO2 RAE04 SLP174 P0000 60008 T01170083 10122 20094 51005=
201604231732 SPECI KPAE 231732Z 20011KT 10SM FEW008 SCT018 BKN031 12/09 A3004 RMK AO2 RAE04 P0000 T01170089=
201604231655 SPECI KPAE 231655Z 21008KT 5SM R16R/6000VP6000FT -RA BR BKN005 OVC012 10/09 A3004 RMK AO2 P0000 T01000089=
201604231653 METAR KPAE 231653Z 21008KT 5SM R16R/6000VP6000FT -RA BR SCT005 OVC012 10/09 A3004 RMK AO2 SLP173 P0001 T01000089=
201604231650 SPECI KPAE 231650Z 21009KT 2SM R16R/5500VP6000FT -RA BR BKN005 BKN012 OVC017 10/09 A3004 RMK AO2 P0001=
201604231640 SPECI KPAE 231640Z 21011KT 1 3/4SM R16R/5000VP6000FT -RA BR BKN006 OVC011 10/08 A3004 RMK AO2 CIG 003V009 P0000 T01000083=
201604231620 SPECI KPAE 231620Z 20012KT 2 1/2SM R16R/6000VP6000FT -RA BR BKN004 OVC008 10/08 A3003 RMK AO2 P0000 T01000083=
201604231553 METAR KPAE 231553Z 20011KT 2SM -RA BR OVC006 10/08 A3003 RMK AO2 RAE16B40 CIG 003V009 SLP168 P0001 T01000083=
201604231453 METAR KPAE 231453Z 19009KT 1 1/4SM R16R/5500VP6000FT -RA BR BKN005 OVC012 10/08 A3002 RMK AO2 CIG 004V009 SLP165 P0003 60006 T01000083 51007=
201604231353 METAR KPAE 231353Z 16007KT 1 1/4SM -RA BR BKN007 OVC011 09/08 A3001 RMK AO2 CIG 004V010 SLP163 P0002 T00940083=
201604231324 SPECI KPAE 231324Z AUTO 17006KT 1 3/4SM -RA BR BKN007 OVC011 09/08 A3001 RMK AO2 CIG 004V009 P0001 T00940083=
201604231253 METAR KPAE 231253Z AUTO 17006KT 2 1/2SM -RA BR OVC006 10/08 A3000 RMK AO2 RAB32 CIG 004V008 SLP161 P0001 T01000083=
201604231243 SPECI KPAE 231243Z AUTO 17006KT 2 1/2SM -RA BR OVC006 10/08 A3000 RMK AO2 RAB32 CIG 004V008 P0000 T01000083=
201604231208 SPECI KPAE 231208Z AUTO 16008KT 5SM BR BKN006 OVC013 10/08 A3000 RMK AO2 CIG 005V010 T01000078=
201604231153 METAR KPAE 231153Z AUTO 18007KT 10SM OVC011 10/08 A2999 RMK AO2 SLP158 70008 T01000078 10122 20100 51013=
201604231053 METAR KPAE 231053Z AUTO 16009KT 10SM OVC013 11/07 A2998 RMK AO2 SLP154 T01110072=
201604231044 SPECI KPAE 231044Z AUTO 17007KT 10SM OVC013 11/07 A2998 RMK AO2 T01110072=
201604230953 METAR KPAE 230953Z AUTO 18008KT 10SM OVC017 11/07 A2997 RMK AO2 SLP148 T01110072=
201604230853 METAR KPAE 230853Z AUTO 18009KT 10SM OVC015 11/08 A2996 RMK AO2 SLP143 T01110078 51019=
201604230811 SPECI KPAE 230811Z AUTO 19005KT 10SM OVC014 12/08 A2994 RMK AO2 T01170083=
201604230753 METAR KPAE 230753Z AUTO 19005KT 10SM BKN015 OVC050 12/08 A2994 RMK AO2 SLP137 T01170083 401560117=
201604230710 SPECI KPAE 230710Z AUTO 19007KT 10SM SCT017 OVC050 12/08 A2993 RMK AO2 T01170083=
201604230702 SPECI KPAE 230702Z AUTO 19005KT 10SM BKN018 OVC050 12/09 A2993 RMK AO2 T01220089=
201604230653 METAR KPAE 230653Z AUTO 17004KT 10SM SCT016 OVC050 12/09 A2993 RMK AO2 SLP133 T01170089=
201604230553 METAR KPAE 230553Z AUTO 25004KT 10SM OVC055 12/09 A2990 RMK AO2 SLP124 60000 T01220094 10133 20122 51017=
201604230453 METAR KPAE 230453Z AUTO 16007KT 10SM BKN030 OVC050 13/09 A2989 RMK AO2 SLP121 T01280089=
201604230435 SPECI KPAE 230435Z AUTO 15003KT 10SM OVC030 13/09 A2989 RMK AO2 T01280089=
201604230353 METAR KPAE 230353Z 16005KT 10SM OVC027 13/09 A2987 RMK AO2 SLP113 T01280089=
201604230253 METAR KPAE 230253Z 15005KT 10SM BKN021 BKN030 OVC034 13/09 A2985 RMK AO2 RAB11E45 SLP107 P0000 60000 T01280089 51012=
201604230153 METAR KPAE 230153Z 16008KT 10SM BKN029 13/09 A2984 RMK AO2 SLP104 T01280094=
201604230053 METAR KPAE 230053Z 15007KT 10SM OVC028 13/09 A2983 RMK AO2 RAE13 SLP099 P0000 T01280094=
201604222353 METAR KPAE 222353Z 17010KT 6SM -RA BR FEW013 BKN048 OVC060 12/10 A2981 RMK AO2 SLP095 P0004 60005 T01220100 10156 20122 51028=
201604222253 METAR KPAE 222253Z 18015KT 9SM -RA OVC046 13/09 A2978 RMK AO2 SLP085 P0001 T01280094=
201604222153 METAR KPAE 222153Z 19015KT 10SM -RA BKN055 OVC070 13/10 A2976 RMK AO2 RAB24 SLP076 P0000 T01330100=
201604222053 METAR KPAE 222053Z 21014KT 10SM SCT022 OVC050 15/09 A2973 RMK AO2 SLP065 T01500089 53023=
201604221953 METAR KPAE 221953Z 22009KT 10SM SCT022 OVC050 16/11 A2970 RMK AO2 SLP055 T01560106=
201604221853 METAR KPAE 221853Z 26003KT 10SM OVC042 15/10 A2968 RMK AO2 SLP050 T01500100=
201604221753 METAR KPAE 221753Z VRB03KT 10SM BKN038 BKN085 15/10 A2966 RMK AO2 RAE42 SLP041 P0001 60003 T01500100 10150 20122 53007=
201604221653 METAR KPAE 221653Z 16004KT 10SM -RA BKN035 OVC090 13/11 A2964 RMK AO2 SLP036 P0002 T01330106=
201604221553 METAR KPAE 221553Z 00000KT 10SM -RA OVC095 13/09 A2963 RMK AO2 RAB21 SLP033 P0000 T01280094=
201604221453 METAR KPAE 221453Z 18005KT 10SM BKN100 BKN120 13/09 A2963 RMK AO2 SLP034 T01280089 58002=
201604221353 METAR KPAE 221353Z 16007KT 10SM FEW110 12/09 A2964 RMK AO2 SLP033 T01220089=
201604221253 METAR KPAE 221253Z AUTO 16008KT 10SM BKN035 BKN120 12/09 A2964 RMK AO2 SLP035 T01220089=
201604221153 METAR KPAE 221153Z AUTO 16007KT 10SM CLR 12/09 A2964 RMK AO2 SLP035 T01220089 10139 20117 53007=
201604221053 METAR KPAE 221053Z AUTO 22006KT 10SM FEW080 12/09 A2963 RMK AO2 SLP032 T01220089=
201604220953 METAR KPAE 220953Z AUTO 00000KT 10SM SCT070 12/09 A2963 RMK AO2 SLP030 T01220089=
201604220853 METAR KPAE 220853Z AUTO 35003KT 10SM CLR 12/09 A2962 RMK AO2 SLP028 T01170089 56021=
201604220753 METAR KPAE 220753Z AUTO 36005KT 10SM CLR 13/09 A2964 RMK AO2 SLP034 T01330089 402000122=
201604220653 METAR KPAE 220653Z AUTO 36005KT 10SM CLR 13/08 A2966 RMK AO2 SLP042 T01280083=
201604220553 METAR KPAE 220553Z AUTO 35005KT 10SM BKN090 14/08 A2968 RMK AO2 SLP049 T01390083 10189 20139 58009=
201604220453 METAR KPAE 220453Z AUTO 03004KT 10SM CLR 14/09 A2971 RMK AO2 SLP059 T01390089=
201604220353 METAR KPAE 220353Z AUTO 01007KT 10SM BKN090 14/09 A2972 RMK AO2 SLP063 T01440089=
201604220253 METAR KPAE 220253Z 36007KT 10SM OVC080 16/09 A2971 RMK AO2 SLP060 T01560094 56003=
201604220153 METAR KPAE 220153Z 35006KT 10SM BKN080 17/09 A2971 RMK AO2 SLP060 T01720089=
201604220053 METAR KPAE 220053Z VRB04KT 10SM BKN080 18/09 A2971 RMK AO2 SLP060 T01780089=
201604212353 METAR KPAE 212353Z 01005KT 10SM OVC100 19/09 A2972 RMK AO2 SLP063 T01940094 10200 20156 56013=
201604212300 METAR KPAE NIL=
201604212253 METAR KPAE 212253Z 36007KT 10SM SCT095 19/09 A2972 RMK AO2 SLP064 T01890089=
201604212200 METAR KPAE NIL=
201604212153 METAR KPAE 212153Z 29008KT 10SM CLR 19/07 A2975 RMK AO2 SLP071 T01890072=
201604212053 METAR KPAE 212053Z 27008KT 10SM CLR 18/07 A2976 RMK AO2 SLP076 T01780072 56015=
201604211953 METAR KPAE 211953Z 26007KT 10SM CLR 18/08 A2977 RMK AO2 SLP079 T01780078=
201604211853 METAR KPAE 211853Z 26007KT 10SM CLR 16/09 A2978 RMK AO2 SLP084 T01610089=
201604211753 METAR KPAE 211753Z 19006KT 10SM CLR 16/09 A2980 RMK AO2 SLP091 T01610089 10161 20122 58007=
201604211653 METAR KPAE 211653Z 18010KT 10SM CLR 15/09 A2981 RMK AO2 SLP094 T01500089=
201604211553 METAR KPAE 211553Z 18007KT 10SM CLR 13/09 A2982 RMK AO2 SLP097 T01330089=
201604211453 METAR KPAE 211453Z 16008KT 10SM CLR 13/08 A2983 RMK AO2 SLP099 T01280083 51004=
201604211353 METAR KPAE 211353Z 21008KT 10SM CLR 13/08 A2983 RMK AO2 SLP098 T01280078=
201604211253 METAR KPAE 211253Z AUTO 19010KT 10SM OVC047 13/08 A2982 RMK AO2 SLP096 T01330078=
201604211153 METAR KPAE 211153Z AUTO 20005KT 10SM FEW100 12/09 A2982 RMK AO2 SLP094 T01220089 10172 20122 51002=
201604211053 METAR KPAE 211053Z AUTO 25008KT 10SM OVC110 13/10 A2981 RMK AO2 SLP092 T01280100=
201604210953 METAR KPAE 210953Z AUTO 19009KT 10SM BKN090 BKN120 15/10 A2982 RMK AO2 SLP095 T01500100=
201604210853 METAR KPAE 210853Z AUTO VRB05KT 10SM FEW090 SCT110 16/09 A2981 RMK AO2 SLP092 T01560094 58001=
201604210753 METAR KPAE 210753Z AUTO 16011KT 10SM CLR 16/09 A2983 RMK AO2 SLP099 T01610094 402440122=
201604210653 METAR KPAE 210653Z AUTO 16014G21KT 10SM SCT110 16/09 A2982 RMK AO2 SLP096 T01610094=
201604210553 METAR KPAE 210553Z AUTO 19005KT 10SM SCT110 17/11 A2981 RMK AO2 SLP093 T01670106 10244 20161 51022=
201604210453 METAR KPAE 210453Z AUTO 00000KT 10SM OVC110 17/09 A2980 RMK AO2 SLP090 T01670089=
201604210353 METAR KPAE 210353Z AUTO 02004KT 10SM CLR 17/09 A2976 RMK AO2 SLP077 T01670094=
201604210253 METAR KPAE 210253Z 36004KT 10SM CLR 19/10 A2975 RMK AO2 SLP072 T01890100 55000=
201604210153 METAR KPAE 210153Z 27004KT 10SM CLR 22/09 A2973 RMK AO2 SLP066 T02220094=
201604210053 METAR KPAE 210053Z 25006KT 10SM CLR 23/11 A2974 RMK AO2 SLP069 T02330106=
201604202353 METAR KPAE 202353Z 00000KT 10SM CLR 24/09 A2975 RMK AO2 SLP071 T02390089 10239 20189 56020=
201604202253 METAR KPAE 202253Z 35005KT 10SM CLR 24/10 A2976 RMK AO2 SLP076 T02390100=
201604202153 METAR KPAE 202153Z 36005KT 10SM CLR 23/10 A2979 RMK AO2 SLP084 T02330100=
201604202053 METAR KPAE 202053Z 36007KT 10SM CLR 22/11 A2981 RMK AO2 SLP091 T02170106 58018=
201604201953 METAR KPAE 201953Z VRB05KT 10SM CLR 22/11 A2983 RMK AO2 SLP098 T02170106=
201604201853 METAR KPAE 201853Z 35006KT 10SM CLR 20/09 A2985 RMK AO2 SLP104 T02000089=
201604201753 METAR KPAE 201753Z 02004KT 10SM CLR 19/09 A2986 RMK AO2 SLP109 T01890094 10189 20128 56005=
201604201653 METAR KPAE 201653Z VRB04KT 10SM CLR 17/10 A2987 RMK AO2 SLP112 T01720100=
201604201553 METAR KPAE 201553Z 36004KT 10SM CLR 16/09 A2987 RMK AO2 SLP113 T01560094=
201604201453 METAR KPAE 201453Z 00000KT 10SM CLR 14/09 A2988 RMK AO2 SLP115 T01390089 53001=
201604201353 METAR KPAE 201353Z 01004KT 10SM CLR 14/08 A2987 RMK AO2 SLP112 T01390083=
201604201253 METAR KPAE 201253Z AUTO 01004KT 10SM CLR 14/08 A2987 RMK AO2 SLP113 T01390083=
201604201153 METAR KPAE 201153Z AUTO 36003KT 10SM CLR 13/09 A2987 RMK AO2 SLP113 T01280094 10167 20122 53000=
201604201053 METAR KPAE 201053Z AUTO 02004KT 10SM CLR 13/09 A2987 RMK AO2 SLP112 T01330089=
201604200953 METAR KPAE 200953Z AUTO 03004KT 10SM CLR 14/08 A2987 RMK AO2 SLP111 T01390083=
201604200853 METAR KPAE 200853Z AUTO 36003KT 10SM CLR 14/08 A2987 RMK AO2 SLP113 T01390083 57003=
201604200753 METAR KPAE 200753Z AUTO 01004KT 10SM CLR 14/08 A2987 RMK AO2 SLP114 T01440078 402500133=
201604200653 METAR KPAE 200653Z AUTO 00000KT 10SM CLR 16/09 A2988 RMK AO2 SLP114 T01560089=
201604200553 METAR KPAE 200553Z AUTO 01004KT 10SM CLR 17/09 A2988 RMK AO2 SLP115 T01670089 10250 20161 58002=
201604200453 METAR KPAE 200453Z AUTO 36003KT 10SM CLR 17/09 A2989 RMK AO2 SLP119 T01720094=
201604200353 METAR KPAE 200353Z 35003KT 10SM CLR 17/10 A2989 RMK AO2 SLP119 T01720100=
201604200253 METAR KPAE 200253Z 35004KT 10SM CLR 19/09 A2989 RMK AO2 SLP118 T01890094 56011=
201604200153 METAR KPAE 200153Z 36007KT 10SM CLR 22/09 A2989 RMK AO2 SLP118 T02220094=
201604200053 METAR KPAE 200053Z 35006KT 10SM CLR 24/10 A2990 RMK AO2 SLP120 T02440100=
201604192353 METAR KPAE 192353Z 36006KT 10SM CLR 24/09 A2992 RMK AO2 SLP129 T02440089 10250 20206 58021=
201604192253 METAR KPAE 192253Z 01007KT 10SM CLR 24/08 A2994 RMK AO2 SLP134 T02390078=
201604192153 METAR KPAE 192153Z 36005KT 10SM CLR 23/09 A2996 RMK AO2 SLP143 T02330094=
201604192053 METAR KPAE 192053Z 30006KT 10SM CLR 23/08 A2998 RMK AO2 SLP150 T02330078 58012=
201604191953 METAR KPAE 191953Z 30006KT 10SM CLR 22/08 A2999 RMK AO2 SLP154 T02220083=
201604191853 METAR KPAE 191853Z 31005KT 10SM CLR 22/06 A3001 RMK AO2 SLP158 T02170061=
201604191753 METAR KPAE 191753Z 00000KT 10SM CLR 20/09 A3002 RMK AO2 SLP162 T02000089 10200 20133 58006=
201604191653 METAR KPAE 191653Z 36004KT 10SM CLR 18/09 A3003 RMK AO2 SLP166 T01830089=
201604191553 METAR KPAE 191553Z 34003KT 10SM CLR 16/09 A3003 RMK AO2 SLP167 T01560089=
201604191453 METAR KPAE 191453Z 00000KT 10SM CLR 17/07 A3003 RMK AO2 SLP168 T01720067 55000=
201604191353 METAR KPAE 191353Z 00000KT 10SM CLR 14/06 A3003 RMK AO2 SLP166 T01390061=
201604191253 METAR KPAE 191253Z AUTO 01003KT 10SM CLR 15/06 A3003 RMK AO2 SLP166 T01500061=
201604191153 METAR KPAE 191153Z AUTO 00000KT 10SM CLR 14/07 A3003 RMK AO2 SLP167 T01390072 10189 20139 55003=
201604191053 METAR KPAE 191053Z AUTO 08003KT 10SM CLR 16/07 A3003 RMK AO2 SLP166 T01560072=
201604190953 METAR KPAE 190953Z AUTO 00000KT 10SM CLR 17/07 A3003 RMK AO2 SLP167 T01670067=
201604190853 METAR KPAE 190853Z AUTO 00000KT 10SM CLR 16/07 A3004 RMK AO2 SLP170 T01560072 50000=
201604190753 METAR KPAE 190753Z AUTO 34004KT 10SM CLR 17/06 A3005 RMK AO2 SLP173 T01670061 402830150=
201604190653 METAR KPAE 190653Z AUTO 35003KT 10SM CLR 17/06 A3004 RMK AO2 SLP170 T01720061=
201604190553 METAR KPAE 190553Z AUTO 36004KT 10SM CLR 18/05 A3004 RMK AO2 SLP170 T01830050 10278 20183 50004=
201604190453 METAR KPAE 190453Z AUTO 01003KT 10SM CLR 20/05 A3005 RMK AO2 SLP172 T02000050=
201604190353 METAR KPAE 190353Z 35004KT 10SM CLR 19/06 A3004 RMK AO2 SLP169 T01940061=
201604190253 METAR KPAE 190253Z AUTO 36007KT 10SM CLR 21/05 A3003 RMK AO2 SLP166 T02110050 56006=
201604190153 METAR KPAE 190153Z AUTO 35005KT 10SM CLR 26/07 A3003 RMK AO2 SLP166 T02560072=
201604190053 METAR KPAE 190053Z AUTO 33003KT 10SM CLR 27/05 A3004 RMK AO2 SLP170 T02720050=
201604182353 METAR KPAE 182353Z AUTO VRB03KT 10SM CLR 28/02 A3005 RMK AO2 SLP173 T02780022 10283 20244 58014=
201604182253 METAR KPAE 182253Z 26007KT 10SM CLR 28/04 A3006 RMK AO2 SLP177 T02780044=
201604182153 METAR KPAE 182153Z 29005KT 10SM CLR 27/06 A3008 RMK AO2 SLP184 T02720056=
201604182053 METAR KPAE 182053Z 27006KT 10SM CLR 27/06 A3009 RMK AO2 SLP186 T02670061 58009=
201604181953 METAR KPAE 181953Z 26005KT 10SM CLR 26/06 A3010 RMK AO2 SLP191 T02560056=
201604181853 METAR KPAE 181853Z 28005KT 10SM CLR 25/06 A3011 RMK AO2 SLP193 T02500061=
201604181753 METAR KPAE 181753Z VRB05KT 10SM CLR 25/05 A3012 RMK AO2 SLP195 T02500050 10256 20161 51005=
201604181653 METAR KPAE 181653Z 16003KT 10SM CLR 23/03 A3011 RMK AO2 SLP194 T02330028=
201604181553 METAR KPAE 181553Z 11004KT 10SM CLR 22/02 A3011 RMK AO2 SLP195 T02170022=
201604181453 METAR KPAE 181453Z 10004KT 10SM CLR 19/03 A3010 RMK AO2 SLP191 T01890033 53003=
201604181353 METAR KPAE 181353Z AUTO 00000KT 10SM CLR 17/02 A3010 RMK AO2 SLP190 T01670022=
201604181253 METAR KPAE 181253Z AUTO 12005KT 10SM CLR 17/02 A3010 RMK AO2 SLP189 T01720017=
201604181153 METAR KPAE 181153Z AUTO 12006KT 10SM CLR 17/02 A3009 RMK AO2 SLP189 T01670022 10189 20150 58002=
201604181053 METAR KPAE 181053Z AUTO 00000KT 10SM CLR 16/04 A3010 RMK AO2 SLP190 T01560039=
201604180953 METAR KPAE 180953Z AUTO 11005KT 10SM CLR 17/04 A3010 RMK AO2 SLP190 T01670044=
201604180853 METAR KPAE 180853Z AUTO 11005KT 10SM CLR 17/05 A3010 RMK AO2 SLP191 T01670050 56006=
201604180753 METAR KPAE 180753Z AUTO 11006KT 10SM CLR 18/05 A3011 RMK AO2 SLP192 T01780050 402170078=
201604180653 METAR KPAE 180653Z AUTO 11005KT 10SM CLR 18/05 A3011 RMK AO2 SLP194 T01830050=
201604180553 METAR KPAE 180553Z AUTO 11004KT 10SM CLR 18/07 A3012 RMK AO2 SLP198 T01830067 10217 20156 50002=
201604180453 METAR KPAE 180453Z AUTO 06003KT 10SM CLR 16/09 A3012 RMK AO2 SLP198 T01610089=
201604180353 METAR KPAE 180353Z AUTO 04004KT 10SM CLR 17/08 A3012 RMK AO2 SLP198 T01720083=
201604180253 METAR KPAE 180253Z 02004KT 10SM CLR 17/08 A3011 RMK AO2 SLP197 T01720083 56008=
201604180153 METAR KPAE 180153Z 36005KT 10SM CLR 19/07 A3012 RMK AO2 SLP198 T01890072=
201604180053 METAR KPAE 180053Z 35006KT 10SM CLR 21/08 A3013 RMK AO2 SLP202 T02060078=
201604172353 METAR KPAE 172353Z 36006KT 10SM CLR 21/07 A3014 RMK AO2 SLP205 T02110067 10217 20156 58017=
201604172253 METAR KPAE 172253Z AUTO 36004KT 10SM CLR 21/08 A3016 RMK AO2 SLP212 T02110078=
201604172153 METAR KPAE 172153Z 01005KT 10SM CLR 21/07 A3017 RMK AO2 SLP217 T02060067=
201604172053 METAR KPAE 172053Z 33005KT 10SM CLR 21/07 A3019 RMK AO2 SLP222 T02060072 57017=
201604171953 METAR KPAE 171953Z VRB04KT 10SM CLR 20/06 A3021 RMK AO2 SLP228 T02000056=
201604171853 METAR KPAE 171853Z 35004KT 10SM CLR 19/07 A3023 RMK AO2 SLP235 T01890072=
201604171753 METAR KPAE 171753Z 00000KT 10SM CLR 16/07 A3024 RMK AO2 SLP241 T01560067 10156 20078 58008=
201604171653 METAR KPAE 171653Z 35003KT 10SM CLR 13/07 A3025 RMK AO2 SLP244 T01330072=
201604171553 METAR KPAE 171553Z 02003KT 10SM CLR 12/07 A3026 RMK AO2 SLP247 T01170072=
201604171453 METAR KPAE 171453Z 36004KT 10SM CLR 10/07 A3027 RMK AO2 SLP250 T01000067 55003=
201604171353 METAR KPAE 171353Z 36004KT 10SM CLR 09/07 A3026 RMK AO2 SLP248 T00890067=
201604171253 METAR KPAE 171253Z AUTO 01003KT 9SM CLR 08/07 A3027 RMK AO2 SLP249 T00830067=
201604171153 METAR KPAE 171153Z AUTO 35004KT 7SM CLR 08/06 A3028 RMK AO2 SLP252 T00830061 10111 20083 58009=
201604171053 METAR KPAE 171053Z AUTO 01004KT 10SM CLR 09/07 A3028 RMK AO2 SLP254 T00890067=
201604170953 METAR KPAE 170953Z AUTO 36004KT 10SM CLR 09/07 A3030 RMK AO2 SLP259 T00940067=
201604170853 METAR KPAE 170853Z AUTO 01004KT 10SM CLR 09/07 A3030 RMK AO2 SLP261 T00940067 58002=
201604170753 METAR KPAE 170753Z AUTO 36003KT 10SM CLR 10/06 A3031 RMK AO2 SLP264 T01000061 401780067=
201604170653 METAR KPAE 170653Z AUTO 01003KT 10SM CLR 10/06 A3031 RMK AO2 SLP264 T01000056=
201604170553 METAR KPAE 170553Z AUTO 01003KT 10SM CLR 11/06 A3031 RMK AO2 SLP264 T01110056 10178 20111 51007=
201604170453 METAR KPAE 170453Z AUTO 36005KT 10SM CLR 12/04 A3030 RMK AO2 SLP262 T01170044=
201604170353 METAR KPAE 170353Z AUTO 36004KT 10SM CLR 13/04 A3029 RMK AO2 SLP259 T01330039=
201604170253 METAR KPAE 170253Z 01004KT 10SM CLR 14/03 A3028 RMK AO2 SLP256 T01390033 56005=
201604170153 METAR KPAE 170153Z 02003KT 10SM CLR 17/01 A3028 RMK AO2 SLP256 T01670006=
201604170053 METAR KPAE 170053Z 30004KT 10SM CLR 17/00 A3028 RMK AO2 SLP256 T01670000=
201604162353 METAR KPAE 162353Z 36003KT 10SM CLR 17/02 A3030 RMK AO2 SLP261 T01720022 10172 20117 58006=
201604162253 METAR KPAE 162253Z 35005KT 10SM CLR 17/02 A3031 RMK AO2 SLP265 T01670017=
201604162153 METAR KPAE 162153Z 01005KT 10SM FEW110 16/02 A3032 RMK AO2 SLP267 T01610017=
201604162053 METAR KPAE 162053Z 00000KT 10SM CLR 16/04 A3032 RMK AO2 SLP268 T01560044 58008=
201604161953 METAR KPAE 161953Z VRB04KT 10SM CLR 14/05 A3033 RMK AO2 SLP273 T01440050=
201604161853 METAR KPAE 161853Z 36004KT 10SM CLR 13/05 A3034 RMK AO2 SLP275 T01280050=
201604161753 METAR KPAE 161753Z 36004KT 10SM CLR 12/04 A3034 RMK AO2 SLP276 T01170044 10128 20067 51000=
201604161653 METAR KPAE 161653Z 00000KT 10SM CLR 11/04 A3034 RMK AO2 SLP276 T01110039=
201604161553 METAR KPAE 161553Z 12003KT 10SM CLR 09/03 A3034 RMK AO2 SLP276 T00940028=
201604161453 METAR KPAE 161453Z 11003KT 10SM CLR 08/03 A3034 RMK AO2 SLP276 T00780028 56001=
201604161353 METAR KPAE 161353Z 12003KT 10SM CLR 07/02 A3034 RMK AO2 SLP278 T00670022=
201604161253 METAR KPAE 161253Z AUTO 11006KT 10SM CLR 07/02 A3034 RMK AO2 SLP275 T00670022=
201604161153 METAR KPAE 161153Z AUTO 00000KT 10SM CLR 07/03 A3034 RMK AO2 SLP277 T00670028 10106 20067 57001=
201604161053 METAR KPAE 161053Z AUTO 12005KT 10SM CLR 07/03 A3035 RMK AO2 SLP278 T00720028=
201604160953 METAR KPAE 160953Z AUTO 11006KT 10SM CLR 08/03 A3034 RMK AO2 SLP277 T00780028=
201604160853 METAR KPAE 160853Z AUTO 11007KT 10SM CLR 08/04 A3035 RMK AO2 SLP278 T00830039 55003=
201604160753 METAR KPAE 160753Z AUTO 12007KT 10SM CLR 08/04 A3034 RMK AO2 SLP277 T00830039 401330083=
201604160653 METAR KPAE 160653Z AUTO 11006KT 10SM CLR 09/04 A3035 RMK AO2 SLP277 T00890039=
201604160553 METAR KPAE 160553Z AUTO 00000KT 10SM SCT065 10/03 A3036 RMK AO2 SLP280 T01000033 10133 20094 51008=
201604160453 METAR KPAE 160453Z AUTO 15006KT 10SM OVC070 12/03 A3035 RMK AO2 SLP279 T01170033=
201604160353 METAR KPAE 160353Z AUTO VRB03KT 10SM SCT060 12/04 A3034 RMK AO2 SLP276 T01170039=
201604160253 METAR KPAE 160253Z 11006KT 10SM OVC050 12/04 A3033 RMK AO2 SLP272 T01220039 55002=
201604160153 METAR KPAE 160153Z 16006KT 10SM SCT050 OVC065 13/02 A3033 RMK AO2 SLP271 T01330017=
201604160053 METAR KPAE 160053Z 17007KT 10SM BKN049 OVC060 13/02 A3032 RMK AO2 SLP270 T01330022=
201604152353 METAR KPAE 152353Z 19010KT 10SM SCT045 OVC055 13/03 A3033 RMK AO2 SLP273 T01280033 10133 20106 50002=
201604152253 METAR KPAE 152253Z 18009KT 10SM SCT042 OVC055 13/03 A3034 RMK AO2 SLP275 T01330033=
201604152153 METAR KPAE 152153Z 20008KT 10SM OVC045 12/03 A3033 RMK AO2 SLP273 T01220033=
201604152053 METAR KPAE 152053Z 17010KT 10SM OVC038 12/04 A3033 RMK AO2 SLP272 T01170039 51010=
201604151953 METAR KPAE 151953Z 24007KT 10SM SCT034 OVC044 11/05 A3032 RMK AO2 SLP270 T01110050=
201604151853 METAR KPAE 151853Z 20010KT 10SM OVC036 12/04 A3031 RMK AO2 SLP266 T01170039=
201604151800 SPECI KPAE 151800Z 21009KT 10SM BKN030 11/04 A3030 RMK AO2 T01110044=
201604151753 METAR KPAE 151753Z 19013KT 10SM BKN020 OVC030 11/04 A3030 RMK AO2 SLP262 T01060044 10106 20083 51017=
201604151653 METAR KPAE 151653Z 18010KT 10SM SCT014 BKN020 OVC030 10/05 A3028 RMK AO2 SLP256 T01000050=
201604151608 SPECI KPAE 151608Z 18007KT 10SM SCT012 OVC020 09/06 A3027 RMK AO2 T00940056=
201604151553 METAR KPAE 151553Z 17007KT 10SM OVC014 09/06 A3027 RMK AO2 SLP251 T00890061=
201604151519 SPECI KPAE 151519Z 16006KT 10SM OVC010 09/06 A3025 RMK AO2 T00890061=
201604151453 METAR KPAE 151453Z 16008KT 10SM SCT009 OVC015 09/06 A3025 RMK AO2 SLP244 T00890056 53021=
201604151353 METAR KPAE 151353Z VRB03KT 10SM OVC013 09/06 A3022 RMK AO2 SLP236 T00890061=
201604151319 SPECI KPAE 151319Z AUTO 15004KT 10SM FEW009 BKN014 OVC043 08/06 A3021 RMK AO2 T00830061=
201604151253 METAR KPAE 151253Z AUTO 16005KT 10SM OVC043 08/06 A3020 RMK AO2 SLP230 T00830061=
201604151153 METAR KPAE 151153Z AUTO 21003KT 10SM SCT031 OVC041 09/06 A3018 RMK AO2 SLP222 70001 T00890061 10089 20083 53025=
201604151138 SPECI KPAE 151138Z AUTO 20004KT 10SM BKN030 OVC038 09/06 A3018 RMK AO2 T00890061=
201604151053 METAR KPAE 151053Z AUTO 19003KT 10SM OVC023 08/06 A3016 RMK AO2 SLP215 T00830056=
201604151018 SPECI KPAE 151018Z AUTO 17005KT 10SM BKN026 OVC032 08/06 A3014 RMK AO2 T00830056=
201604151005 SPECI KPAE 151005Z AUTO 16006KT 10SM FEW021 OVC030 08/06 A3013 RMK AO2 T00830056=
201604150953 METAR KPAE 150953Z AUTO 17006KT 10SM BKN021 OVC028 08/06 A3013 RMK AO2 SLP202 T00830056=
201604150939 SPECI KPAE 150939Z AUTO 17005KT 10SM BKN021 OVC032 08/06 A3012 RMK AO2 T00830056=
201604150853 METAR KPAE 150853Z AUTO VRB04KT 10SM SCT022 BKN033 OVC080 08/06 A3011 RMK AO2 SLP197 T00830056 53017=
201604150827 SPECI KPAE 150827Z AUTO VRB03KT 10SM BKN022 OVC033 08/06 A3010 RMK AO2 T00830056=
201604150816 SPECI KPAE 150816Z AUTO 16004KT 10SM SCT020 OVC033 08/06 A3010 RMK AO2 T00830056=
201604150801 SPECI KPAE 150801Z AUTO 11004KT 10SM BKN020 OVC034 08/06 A3009 RMK AO2 T00830056=
201604150753 METAR KPAE 150753Z AUTO 12004KT 10SM SCT020 BKN034 OVC080 08/06 A3009 RMK AO2 SLP189 T00830056 401280061=
201604150653 METAR KPAE 150653Z AUTO 11005KT 10SM SCT020 OVC055 08/05 A3006 RMK AO2 SLP180 T00830050=
201604150553 METAR KPAE 150553Z AUTO 11003KT 10SM OVC060 09/05 A3003 RMK AO2 RAE0458 SLP169 P0000 60001 T00890050 10117 20083 51029=
201604150453 METAR KPAE 150453Z AUTO 02003KT 10SM -RA BKN050 OVC060 08/06 A3002 RMK AO2 SLP166 P0001 T00830061=
201604150353 METAR KPAE 150353Z 33003KT 10SM -RA OVC050 08/05 A2998 RMK AO2 RAB15 SLP154 P0000 T00830050=
201604150253 METAR KPAE 150253Z 34004KT 10SM BKN038 BKN060 OVC120 09/04 A2994 RMK AO2 SLP140 T00940039 53030=
201604150153 METAR KPAE 150153Z VRB06KT 10SM CLR 10/04 A2991 RMK AO2 SLP129 T01000044=
201604150053 METAR KPAE 150053Z 32007KT 10SM CLR 11/03 A2988 RMK AO2 SLP119 T01110028=
201604142353 METAR KPAE 142353Z 35007KT 320V020 10SM CLR 12/03 A2985 RMK AO2 SLP109 T01170028 10128 20100 51022=
201604142253 METAR KPAE 142253Z 33010KT 10SM SCT040 12/03 A2983 RMK AO2 SLP102 T01170028=
201604142153 METAR KPAE 142153Z 01009KT 10SM CLR 12/03 A2981 RMK AO2 SLP095 T01220028=
201604142053 METAR KPAE 142053Z 02008KT 10SM CLR 12/04 A2978 RMK AO2 SLP087 T01170044 51016=
201604141953 METAR KPAE 141953Z 01007KT 10SM SCT025 12/03 A2977 RMK AO2 SLP081 T01220033=
201604141853 METAR KPAE 141853Z 33003KT 10SM FEW025 BKN034 10/03 A2976 RMK AO2 SLP078 T01000033=
201604141753 METAR KPAE 141753Z 05004KT 10SM CLR 11/03 A2974 RMK AO2 SLP070 T01060033 10106 20061 53011=
201604141653 METAR KPAE 141653Z 07003KT 10SM CLR 09/03 A2972 RMK AO2 SLP065 T00890033=
201604141553 METAR KPAE 141553Z 11006KT 10SM CLR 07/03 A2971 RMK AO2 SLP063 T00720028=
201604141453 METAR KPAE 141453Z 11005KT 10SM CLR 07/03 A2970 RMK AO2 SLP060 T00670033 56010=
201604141353 METAR KPAE 141353Z AUTO 11006KT 10SM CLR 06/03 A2971 RMK AO2 SLP063 T00610033=
201604141253 METAR KPAE 141253Z AUTO 11008KT 10SM FEW045 06/03 A2971 RMK AO2 SLP062 T00610033=
201604141203 SPECI KPAE 141203Z AUTO 12006KT 10SM SCT032 BKN047 OVC110 06/04 A2973 RMK AO2 T00610044=
201604141153 METAR KPAE 141153Z AUTO 12006KT 10SM BKN028 BKN048 BKN110 06/04 A2973 RMK AO2 SLP070 60008 70008 T00610044 10106 20061 51003=
201604141136 SPECI KPAE 141136Z AUTO 13004KT 10SM SCT006 BKN027 OVC038 07/04 A2974 RMK AO2 T00670044=
201604141111 SPECI KPAE 141111Z AUTO 12006KT 10SM BKN005 BKN038 OVC110 07/04 A2974 RMK AO2 T00670044=
201604141053 METAR KPAE 141053Z AUTO 12007KT 10SM BKN004 OVC042 07/05 A2973 RMK AO2 RAE37 SLP070 P0000 T00670050=
201604141048 SPECI KPAE 141048Z AUTO 11008KT 10SM BKN004 BKN042 OVC055 07/04 A2973 RMK AO2 RAE37 P0000=
201604141039 SPECI KPAE 141039Z AUTO VRB04KT 10SM SCT004 BKN042 OVC050 06/04 A2973 RMK AO2 RAE37 P0000 T00610044=
201604140953 METAR KPAE 140953Z AUTO 18009KT 10SM -RA FEW010 OVC036 07/04 A2972 RMK AO2 SLP067 P0006 T00670044=
201604140909 SPECI KPAE 140909Z AUTO 21014G22KT 6SM RA SCT011 BKN038 OVC055 07/04 A2973 RMK AO2 P0001 T00720044=
201604140853 METAR KPAE 140853Z AUTO 22014G24KT 10SM -RA BKN013 BKN039 OVC046 07/05 A2973 RMK AO2 PK WND 21026/0836 RAB14 SLP068 P0002 60002 T00720050 51020=
201604140848 SPECI KPAE 140848Z AUTO 22015G24KT 10SM -RA BKN011 BKN020 OVC042 07/05 A2973 RMK AO2 PK WND 21026/0836 RAB14 P0001=
201604140841 SPECI KPAE 140841Z AUTO 21018G26KT 9SM -RA SCT011 BKN016 OVC050 08/05 A2972 RMK AO2 PK WND 21026/0836 RAB14 P0001 T00780050=
201604140753 METAR KPAE 140753Z AUTO 23006KT 10SM OVC080 10/03 A2969 RMK AO2 SLP055 T01000028 401280067=
201604140653 METAR KPAE 140653Z AUTO 15006KT 10SM OVC100 11/02 A2967 RMK AO2 SLP047 T01060017=
201604140553 METAR KPAE 140553Z AUTO 12004KT 10SM SCT090 11/02 A2968 RMK AO2 SLP051 T01060017 10128 20100 56026=
201604140453 METAR KPAE 140453Z AUTO 09004KT 10SM CLR 11/02 A2970 RMK AO2 SLP059 T01060017=
201604140353 METAR KPAE 140353Z AUTO 10006KT 10SM CLR 11/02 A2972 RMK AO2 SLP067 T01060017=
201604140253 METAR KPAE 140253Z 10006KT 10SM CLR 11/02 A2976 RMK AO2 SLP079 T01060017 58045=
201604140153 METAR KPAE 140153Z VRB03KT 10SM CLR 12/02 A2981 RMK AO2 SLP095 T01170017=
201604140053 METAR KPAE 140053Z VRB04KT 10SM OVC100 12/02 A2985 RMK AO2 SLP111 T01220017=
201604132353 METAR KPAE 132353Z 18007KT 10SM BKN110 12/01 A2990 RMK AO2 SLP125 T01220011 10122 20100 58030=
201604132253 METAR KPAE 132253Z 19007KT 10SM BKN100 12/02 A2993 RMK AO2 SLP136 T01170022=
201604132153 METAR KPAE 132153Z 20006KT 10SM CLR 11/01 A2996 RMK AO2 SLP146 T01110011=
201604132053 METAR KPAE 132053Z 20013KT 10SM FEW044 BKN055 12/02 A2999 RMK AO2 SLP155 T01170017 58021=
201604131953 METAR KPAE 131953Z 24010KT 10SM FEW044 OVC060 11/03 A3002 RMK AO2 SLP167 T01110033=
201604131853 METAR KPAE 131853Z 19015KT 10SM FEW035 BKN060 11/03 A3004 RMK AO2 SLP174 T01110028=
201604131753 METAR KPAE 131753Z 17010KT 10SM FEW049 11/04 A3005 RMK AO2 SLP177 T01060039 10106 20067 56016=
201604131653 METAR KPAE 131653Z 16012KT 10SM CLR 09/04 A3006 RMK AO2 SLP180 T00940044=
201604131600 SPECI KPAE 131600Z 17011KT 10SM FEW011 OVC047 08/04 A3008 RMK AO2 T00780039=
201604131553 METAR KPAE 131553Z 17013KT 10SM SCT007 BKN011 08/04 A3008 RMK AO2 SLP189 T00830039=
201604131546 SPECI KPAE 131546Z 17012G17KT 10SM SCT007 BKN011 08/05 A3009 RMK AO2 T00830050=
201604131537 SPECI KPAE 131537Z 17010KT 10SM OVC011 08/05 A3009 RMK AO2 T00830050=
201604131453 METAR KPAE 131453Z 17010KT 10SM BKN007 07/05 A3010 RMK AO2 CIG 005V009 SLP194 T00720050 58004=
201604131353 METAR KPAE 131353Z 17009KT 10SM BKN007 BKN011 07/04 A3011 RMK AO2 CIG 006V009 SLP197 T00670044=
201604131332 SPECI KPAE 131332Z AUTO 16009KT 10SM BKN009 BKN014 07/05 A3010 RMK AO2 T00670050=
201604131316 SPECI KPAE 131316Z AUTO 16009KT 10SM BKN011 07/05 A3011 RMK AO2 T00670050=
201604131253 METAR KPAE 131253Z AUTO 17007KT 10SM BKN009 BKN013 07/05 A3011 RMK AO2 CIG 007V012 SLP198 T00720050=
201604131251 SPECI KPAE 131251Z AUTO 17008KT 10SM BKN009 BKN013 07/05 A3011 RMK AO2 CIG 007V012=
201604131229 SPECI KPAE 131229Z AUTO 17008KT 10SM SCT008 BKN014 BKN065 07/05 A3011 RMK AO2 T00720050=
201604131153 METAR KPAE 131153Z AUTO 18009KT 10SM FEW008 OVC075 07/05 A3011 RMK AO2 SLP199 60000 70014 T00720050 10078 20067 53001=
201604131150 SPECI KPAE 131150Z AUTO 18010KT 10SM FEW008 SCT011 OVC075 07/05 A3011 RMK AO2=
201604131129 SPECI KPAE 131129Z AUTO 16008KT 10SM SCT008 BKN011 OVC080 07/05 A3011 RMK AO2 T00720050=
201604131108 SPECI KPAE 131108Z AUTO 17008KT 10SM FEW009 OVC085 07/05 A3011 RMK AO2 T00720050=
201604131053 METAR KPAE 131053Z AUTO 17007KT 10SM FEW012 OVC090 07/05 A3010 RMK AO2 SLP196 T00720050=
201604131026 SPECI KPAE 131026Z AUTO 19009KT 10SM BKN013 OVC019 07/05 A3011 RMK AO2 T00720050=
201604130953 METAR KPAE 130953Z AUTO 17007KT 10SM BKN016 OVC021 08/05 A3011 RMK AO2 SLP198 T00780050=
201604130908 SPECI KPAE 130908Z AUTO 17008KT 10SM OVC017 07/05 A3011 RMK AO2 T00720050=
201604130853 METAR KPAE 130853Z AUTO 17009KT 10SM BKN014 OVC019 07/05 A3011 RMK AO2 SLP196 60000 T00720050 53005=
201604130829 SPECI KPAE 130829Z AUTO 17009KT 10SM BKN016 BKN020 07/05 A3010 RMK AO2 T00720050=
201604130800 SPECI KPAE 130800Z AUTO 17011KT 10SM FEW009 SCT028 07/05 A3010 RMK AO2 T00720050=
201604130753 METAR KPAE 130753Z AUTO 16011KT 10SM SCT009 BKN029 07/05 A3010 RMK AO2 SLP193 T00720050 401330072=
201604130745 SPECI KPAE 130745Z AUTO 17009KT 10SM BKN009 BKN029 BKN095 07/05 A3010 RMK AO2 CIG 007V013 T00720050=
201604130735 SPECI KPAE 130735Z AUTO 17009KT 10SM SCT009 SCT029 BKN095 07/05 A3010 RMK AO2 T00720050=
201604130717 SPECI KPAE 130717Z AUTO 17008KT 10SM SCT010 BKN075 OVC095 07/05 A3010 RMK AO2 T00720050=
201604130653 METAR KPAE 130653Z AUTO 15010G17KT 10SM FEW009 BKN015 OVC070 07/05 A3009 RMK AO2 RAE03 SLP191 P0000 T00720050=
201604130553 METAR KPAE 130553Z AUTO 15007KT 110V170 9SM -RA OVC007 07/06 A3009 RMK AO2 RAB44 CIG 005V010 SLP192 P0000 60002 T00720056 10100 20072 50006=
201604130453 METAR KPAE 130453Z AUTO 15015G21KT 10SM BKN008 BKN016 OVC025 08/05 A3010 RMK AO2 RAB0354E04 CIG 005V012 SLP194 P0000 T00780050=
201604130417 SPECI KPAE 130417Z AUTO 17014KT 10SM BKN009 BKN015 OVC041 08/06 A3009 RMK AO2 RAB0354E04 P0000 T00830061=
201604130400 SPECI KPAE 130400Z AUTO 16011G18KT 10SM -RA FEW009 BKN016 OVC060 08/06 A3008 RMK AO2 RAB0354 P0000 T00830061=
201604130353 METAR KPAE 130353Z 17012KT 10SM SCT014 BKN029 OVC070 08/06 A3008 RMK AO2 SLP186 T00830056=
201604130325 SPECI KPAE 130325Z 16018G25KT 10SM FEW010 BKN033 OVC070 08/06 A3008 RMK AO2 T00830056=
201604130305 SPECI KPAE 130305Z 17013KT 10SM FEW010 BKN013 OVC075 08/06 A3008 RMK AO2 T00830056=
201604130253 METAR KPAE 130253Z 17012G18KT 10SM FEW008 SCT013 OVC080 08/06 A3007 RMK AO2 PRESRR SLP186 60002 T00830061 53002=
201604130153 METAR KPAE 130153Z 17013KT 10SM BKN070 OVC090 09/06 A3005 RMK AO2 RAE16B33E43 SLP179 P0001 T00890061=
201604130053 METAR KPAE 130053Z 18015KT 10SM -RA OVC060 09/06 A3006 RMK AO2 RAB15 SLP181 P0001 T00890061=
201604122353 METAR KPAE 122353Z 18016G22KT 10SM BKN055 BKN070 OVC090 09/06 A3007 RMK AO2 RAE47 SLP183 P0000 60012 T00940061 10133 20094 58009=
201604122253 METAR KPAE 122253Z 19013KT 4SM RA FEW014 SCT027 OVC041 09/06 A3010 RMK AO2 SLP193 P0008 T00940061=
201604122248 SPECI KPAE 122248Z 20012KT 4SM RA FEW014 SCT029 OVC041 09/07 A3010 RMK AO2 P0007=
201604122241 SPECI KPAE 122241Z 21012G22KT 2 1/2SM -RA FEW014 BKN032 OVC041 10/07 A3011 RMK AO2 P0005 T01000067=
201604122153 METAR KPAE 122153Z 19011KT 3SM -RA BKN041 BKN050 OVC060 11/07 A3010 RMK AO2 RAB08 SLP193 P0004 T01060072=
201604122053 METAR KPAE 122053Z 18014G23KT 10SM SCT037 BKN045 OVC095 13/04 A3008 RMK AO2 PK WND 21027/2025 SLP188 T01330044 58006=
201604121953 METAR KPAE 121953Z 18018G25KT 10SM OVC035 13/04 A3009 RMK AO2 SLP191 T01280044=
201604121853 METAR KPAE 121853Z 17014KT 10SM BKN035 12/05 A3010 RMK AO2 SLP193 T01220050=
201604121826 SPECI KPAE 121826Z 18014G20KT 10SM BKN030 12/05 A3010 RMK AO2 T01220050=
201604121753 METAR KPAE 121753Z 17014G21KT 10SM BKN028 BKN033 11/04 A3010 RMK AO2 SLP195 T01110044 10117 20083 51005=
201604121707 SPECI KPAE 121707Z 18015G22KT 10SM SCT028 11/04 A3010 RMK AO2 T01060044=
201604121653 METAR KPAE 121653Z 17014G21KT 10SM SCT024 BKN029 11/04 A3009 RMK AO2 SLP192 T01060044=
201604121553 METAR KPAE 121553Z 17014KT 10SM SCT024 BKN029 OVC090 09/04 A3011 RMK AO2 SLP198 T00940039=
201604121453 METAR KPAE 121453Z 18014KT 10SM FEW026 BKN075 OVC085 09/04 A3009 RMK AO2 SLP191 T00890039 53007=
201604121353 METAR KPAE 121353Z 18012G19KT 10SM CLR 08/03 A3005 RMK AO2 SLP179 T00830028=
201604121253 METAR KPAE 121253Z AUTO 19015G22KT 10SM BKN120 09/03 A3007 RMK AO2 SLP184 T00890028=
201604121153 METAR KPAE 121153Z AUTO 16013KT 10SM CLR 09/04 A3007 RMK AO2 SLP182 T00890039 10100 20089 53006=
201604121053 METAR KPAE 121053Z AUTO 17009KT 10SM CLR 09/04 A3005 RMK AO2 SLP177 T00890039=
201604120953 METAR KPAE 120953Z AUTO 17008KT 10SM CLR 09/04 A3005 RMK AO2 SLP178 T00940039=
201604120853 METAR KPAE 120853Z AUTO 16008KT 10SM FEW039 OVC047 09/05 A3005 RMK AO2 SLP177 T00940050 52004=
201604120753 METAR KPAE 120753Z AUTO 16006KT 10SM OVC046 10/06 A3005 RMK AO2 SLP177 T01000056 401220089=
201604120653 METAR KPAE 120653Z AUTO 00000KT 10SM OVC047 10/07 A3004 RMK AO2 SLP174 T01000067=
201604120553 METAR KPAE 120553Z AUTO 02003KT 10SM OVC048 09/07 A3004 RMK AO2 SLP173 T00940067 10117 20089 56004=
201604120453 METAR KPAE 120453Z AUTO 00000KT 10SM OVC049 09/07 A3004 RMK AO2 SLP175 T00940067=
201604120353 METAR KPAE 120353Z 03005KT 10SM OVC049 10/06 A3004 RMK AO2 SLP175 T01000061=
201604120253 METAR KPAE 120253Z 36003KT 10SM OVC047 11/05 A3005 RMK AO2 SLP177 T01110050 58014=
201604120153 METAR KPAE 120153Z 30004KT 10SM OVC045 11/05 A3006 RMK AO2 SLP181 T01110050=
201604120053 METAR KPAE 120053Z 26004KT 10SM SCT029 OVC048 11/05 A3008 RMK AO2 SLP187 T01110050=
201604112353 METAR KPAE 112353Z 26003KT 10SM SCT025 OVC044 12/05 A3009 RMK AO2 SLP191 60000 T01170050 10122 20089 58010=
201604112253 METAR KPAE 112253Z 12004KT 10SM SCT025 OVC044 12/06 A3010 RMK AO2 SLP195 T01170056=
201604112153 METAR KPAE 112153Z 25006KT 10SM SCT026 OVC043 11/06 A3011 RMK AO2 SLP198 T01110056=
201604112110 SPECI KPAE 112110Z 28004KT 10SM SCT026 OVC043 11/07 A3012 RMK AO2 T01060067=
201604112103 SPECI KPAE 112103Z 28005KT 10SM BKN026 OVC043 11/06 A3012 RMK AO2 T01060061=
201604112053 METAR KPAE 112053Z 26006KT 10SM SCT026 OVC043 11/06 A3012 RMK AO2 SLP201 60000 T01060061 58002=
201604111953 METAR KPAE 111953Z 20005KT 10SM OVC036 10/06 A3013 RMK AO2 SLP204 T01000061=
201604111900 SPECI KPAE 111900Z 25006KT 10SM FEW026 OVC033 09/07 A3014 RMK AO2 T00890067=
201604111853 METAR KPAE 111853Z 25006KT 10SM BKN023 BKN030 OVC039 09/06 A3014 RMK AO2 RAB13E30 SLP208 P0000 T00890061=
201604111753 METAR KPAE 111753Z 21008KT 10SM BKN023 BKN026 OVC033 10/05 A3013 RMK AO2 SLP203 T01000050 10100 20089 51009=
201604111709 SPECI KPAE 111709Z 20007KT 10SM BKN023 BKN029 OVC035 10/04 A3013 RMK AO2 T01000044=
201604111700 SPECI KPAE 111700Z 21008KT 10SM SCT023 BKN030 OVC038 10/05 A3013 RMK AO2 T01000050=
201604111653 METAR KPAE 111653Z 18008KT 10SM BKN019 OVC036 10/05 A3013 RMK AO2 SLP203 T01000050=
201604111553 METAR KPAE 111553Z 20006KT 10SM OVC019 09/05 A3012 RMK AO2 SLP199 T00940050=
201604111453 METAR KPAE 111453Z AUTO 18009KT 10SM OVC018 09/04 A3010 RMK AO2 SLP193 T00890044 53006=
201604111353 METAR KPAE 111353Z AUTO 19007KT 10SM OVC025 09/04 A3009 RMK AO2 SLP191 T00940044=
201604111333 SPECI KPAE 111333Z AUTO 18008KT 10SM BKN027 OVC032 09/04 A3009 RMK AO2 T00940044=
201604111253 METAR KPAE 111253Z AUTO 17007KT 10SM OVC032 09/04 A3008 RMK AO2 SLP185 T00940039=
201604111153 METAR KPAE 111153Z AUTO 16009KT 10SM BKN033 OVC040 09/04 A3008 RMK AO2 SLP187 T00940039 10111 20094 51009=
201604111053 METAR KPAE 111053Z AUTO 19008KT 10SM OVC037 10/04 A3008 RMK AO2 SLP186 T01000044=
201604110953 METAR KPAE 110953Z AUTO 18009KT 10SM OVC039 10/04 A3006 RMK AO2 SLP181 T01000044=
201604110853 METAR KPAE 110853Z AUTO 19010KT 10SM OVC042 10/05 A3005 RMK AO2 SLP177 T01000050 53014=
201604110753 METAR KPAE 110753Z AUTO 20009KT 10SM OVC040 11/06 A3004 RMK AO2 SLP171 T01060056 401390078=
201604110653 METAR KPAE 110653Z AUTO 18008KT 10SM OVC041 11/05 A3002 RMK AO2 SLP165 T01060050=
201604110553 METAR KPAE 110553Z AUTO 19008KT 10SM OVC040 11/05 A3001 RMK AO2 SLP163 T01110050 10133 20111 51013=
201604110453 METAR KPAE 110453Z AUTO 19008KT 10SM OVC040 11/05 A3000 RMK AO2 SLP161 T01110050=
201604110353 METAR KPAE 110353Z AUTO 21005KT 10SM OVC039 12/04 A2999 RMK AO2 SLP156 T01170044=
201604110253 METAR KPAE 110253Z 22006KT 10SM FEW039 12/04 A2997 RMK AO2 SLP150 T01170039 51009=
201604110153 METAR KPAE 110153Z 19004KT 10SM CLR 13/04 A2996 RMK AO2 SLP146 T01280039=
201604110053 METAR KPAE 110053Z 24009KT 10SM CLR 13/04 A2996 RMK AO2 SLP145 T01330039=
201604102353 METAR KPAE 102353Z AUTO 23010KT 10SM CLR 13/04 A2994 RMK AO2 SLP141 T01330039 10139 20111 55000=
201604102253 METAR KPAE 102253Z 24013KT 10SM SCT036 13/04 A2994 RMK AO2 SLP139 T01330039=
201604102153 METAR KPAE 102153Z 20009KT 10SM OVC034 13/04 A2994 RMK AO2 SLP140 T01330044=
201604102053 METAR KPAE 102053Z 23007KT 200V290 10SM BKN033 13/04 A2994 RMK AO2 SLP141 T01280044 58003=
201604101953 METAR KPAE 101953Z 17011G17KT 10SM OVC033 13/04 A2995 RMK AO2 SLP142 T01330044=
201604101914 SPECI KPAE 101914Z 18012G15KT 10SM OVC031 13/05 A2995 RMK AO2 T01330050=
201604101853 METAR KPAE 101853Z 19010KT 10SM OVC029 12/04 A2995 RMK AO2 SLP144 T01220044=
201604101753 METAR KPAE 101753Z 18009KT 10SM BKN026 12/04 A2995 RMK AO2 SLP144 T01170044 10117 20078 51009=
201604101653 METAR KPAE 101653Z 17008KT 10SM BKN022 10/04 A2995 RMK AO2 SLP141 T01000044=
201604101553 METAR KPAE 101553Z 20011KT 10SM OVC021 09/04 A2994 RMK AO2 SLP138 T00940039=
201604101453 METAR KPAE 101453Z 19010KT 10SM OVC018 09/04 A2993 RMK AO2 SLP135 T00890044 52012=
201604101353 METAR KPAE 101353Z 21008KT 10SM OVC018 08/04 A2992 RMK AO2 SLP131 T00830044=
201604101253 METAR KPAE 101253Z AUTO 19009KT 10SM OVC029 08/04 A2990 RMK AO2 SLP126 T00830044=
201604101236 SPECI KPAE 101236Z AUTO 19010KT 10SM OVC029 08/04 A2990 RMK AO2 T00830044=
201604101153 METAR KPAE 101153Z AUTO 18011KT 10SM OVC031 08/04 A2989 RMK AO2 SLP122 T00780044 10100 20078 51008=
201604101053 METAR KPAE 101053Z AUTO 18010KT 10SM BKN044 08/06 A2989 RMK AO2 SLP122 T00830056=
201604100953 METAR KPAE 100953Z AUTO 17006KT 10SM SCT042 09/06 A2988 RMK AO2 SLP118 T00890056=
201604100853 METAR KPAE 100853Z AUTO 18005KT 10SM FEW006 08/06 A2987 RMK AO2 SLP115 T00830061 53015=
201604100753 METAR KPAE 100753Z AUTO 00000KT 10SM CLR 09/06 A2985 RMK AO2 SLP109 T00940061 401720078=
201604100653 METAR KPAE 100653Z AUTO 35003KT 10SM CLR 10/06 A2983 RMK AO2 SLP103 T01000061=
201604100553 METAR KPAE 100553Z AUTO 02004KT 10SM CLR 10/07 A2982 RMK AO2 SLP099 T01000067 10172 20100 53007=
201604100453 METAR KPAE 100453Z AUTO 02005KT 10SM CLR 12/08 A2981 RMK AO2 SLP096 T01220083=
201604100353 METAR KPAE 100353Z AUTO 00000KT 10SM CLR 13/07 A2981 RMK AO2 SLP094 T01330072=
201604100253 METAR KPAE 100253Z 00000KT 10SM CLR 14/08 A2980 RMK AO2 SLP092 T01390078 56003=
201604100153 METAR KPAE 100153Z 29004KT 10SM CLR 16/08 A2980 RMK AO2 SLP092 T01610078=
201604100053 METAR KPAE 100053Z 30006KT 10SM CLR 17/08 A2980 RMK AO2 SLP092 T01670083=
201604092353 METAR KPAE 092353Z 31005KT 10SM CLR 17/08 A2981 RMK AO2 SLP094 T01670083 10167 20117 56016=
201604092253 METAR KPAE 092253Z VRB04KT 10SM CLR 16/07 A2982 RMK AO2 SLP100 T01610072=
201604092153 METAR KPAE 092153Z 28004KT 10SM CLR 16/07 A2984 RMK AO2 SLP106 T01560072=
201604092053 METAR KPAE 092053Z 26005KT 10SM CLR 14/08 A2986 RMK AO2 SLP111 T01440078 58006=
201604091953 METAR KPAE 091953Z VRB03KT 10SM CLR 13/08 A2987 RMK AO2 SLP114 T01330078=
201604091853 METAR KPAE 091853Z VRB03KT 10SM CLR 12/07 A2987 RMK AO2 SLP117 T01220072=
201604091753 METAR KPAE 091753Z 00000KT 10SM CLR 12/07 A2988 RMK AO2 SLP117 T01220072 10122 20078 52003=
201604091653 METAR KPAE 091653Z VRB04KT 10SM CLR 11/07 A2987 RMK AO2 SLP117 T01110072=
201604091553 METAR KPAE 091553Z 36003KT 10SM CLR 10/07 A2987 RMK AO2 SLP115 T01000072=
201604091453 METAR KPAE 091453Z 33003KT 10SM CLR 09/07 A2987 RMK AO2 SLP114 T00890072 53004=
201604091421 SPECI KPAE 091421Z 00000KT 10SM R16R/2000V3000FT SCT001 08/07 A2986 RMK AO2 T00780067=
201604091411 SPECI KPAE 091411Z 00000KT 10SM R16R/1000V1800FT SCT001 08/07 A2986 RMK AO2 T00780067=
201604091354 SPECI KPAE 091354Z 00000KT 1/2SM R16R/0800V1200FT FG BKN001 08/07 A2986 RMK AO2 T00780067=
201604091353 METAR KPAE 091353Z 00000KT 10SM R16R/0800V1200FT BKN001 08/07 A2986 RMK AO2 SLP112 T00780067=
201604091329 SPECI KPAE 091329Z AUTO 35003KT 1/4SM R16R/1400V2600FT FG VV001 08/07 A2986 RMK AO2 T00780067=
201604091323 SPECI KPAE 091323Z AUTO 01003KT 1/2SM R16R/1400V2000FT FG VV001 08/07 A2986 RMK AO2 T00780067=
201604091253 METAR KPAE 091253Z AUTO 35004KT 1/4SM R16R/5500VP6000FT FG VV001 08/07 A2986 RMK AO2 SLP110 T00830072=
201604091222 SPECI KPAE 091222Z AUTO 00000KT 1/4SM R16R/1600V1800FT FG VV001 08/07 A2986 RMK AO2 T00830072=
201604091210 SPECI KPAE 091210Z AUTO 00000KT 1/4SM R16R/1400V2600FT FG VV001 08/07 A2986 RMK AO2 T00830072=
201604091153 METAR KPAE 091153Z AUTO 00000KT 3/4SM R16R/6000VP6000FT BR VV001 08/07 A2985 RMK AO2 SLP109 T00830072 10100 20078 56002=
201604091151 SPECI KPAE 091151Z AUTO 35003KT 3/4SM R16R/6000VP6000FT BR VV001 08/07 A2985 RMK AO2=
201604091146 SPECI KPAE 091146Z AUTO VRB03KT 2SM BR BKN001 08/07 A2985 RMK AO2 T00830072=
201604091141 SPECI KPAE 091141Z AUTO VRB03KT 5SM BR BKN002 08/07 A2986 RMK AO2 T00830067=
201604091128 SPECI KPAE 091128Z AUTO 36005KT 8SM FEW002 08/07 A2986 RMK AO2 T00830067=
201604091053 METAR KPAE 091053Z AUTO 00000KT 7SM CLR 08/07 A2986 RMK AO2 SLP110 T00830067=
201604090953 METAR KPAE 090953Z AUTO 34003KT 9SM FEW055 08/07 A2986 RMK AO2 SLP111 T00830067=
201604090853 METAR KPAE 090853Z AUTO 33003KT 10SM CLR 09/07 A2986 RMK AO2 SLP112 T00890072 52001=
201604090753 METAR KPAE 090753Z AUTO 36007KT 10SM CLR 09/07 A2986 RMK AO2 SLP112 T00940072 401780094=
201604090653 METAR KPAE 090653Z AUTO 01007KT 10SM CLR 09/07 A2986 RMK AO2 SLP110 T00940072=
201604090553 METAR KPAE 090553Z AUTO 01007KT 10SM CLR 10/07 A2986 RMK AO2 SLP111 T01000067 10167 20100 51009=
201604090453 METAR KPAE 090453Z AUTO 35011G18KT 10SM CLR 11/07 A2986 RMK AO2 SLP110 T01060067=
201604090353 METAR KPAE 090353Z 36006G16KT 10SM CLR 11/07 A2986 RMK AO2 SLP111 T01060072=
201604090253 METAR KPAE 090253Z 35014G20KT 10SM CLR 12/07 A2983 RMK AO2 SLP102 T01170072 56008=
201604090153 METAR KPAE 090153Z 36010G19KT 10SM CLR 12/07 A2984 RMK AO2 SLP104 T01170072=
201604090053 METAR KPAE 090053Z 01012G17KT 10SM CLR 12/07 A2985 RMK AO2 SLP106 T01220072=
201604082353 METAR KPAE 082353Z 01010G14KT 10SM CLR 17/08 A2986 RMK AO2 SLP109 T01720078 10178 20150 58013=
201604082253 METAR KPAE 082253Z 36007KT 10SM CLR 16/09 A2987 RMK AO2 SLP113 T01610089=
201604082153 METAR KPAE 082153Z 36009G15KT 10SM CLR 16/09 A2989 RMK AO2 SLP120 T01560089=
201604082053 METAR KPAE 082053Z 01008KT 10SM CLR 18/09 A2990 RMK AO2 SLP122 T01780089 58008=
201604081953 METAR KPAE 081953Z 34006KT 10SM CLR 17/09 A2991 RMK AO2 SLP126 T01720094=
201604081853 METAR KPAE 081853Z VRB05KT 10SM CLR 16/09 A2992 RMK AO2 SLP130 T01610089=
201604081753 METAR KPAE 081753Z 36007KT 10SM CLR 15/09 A2992 RMK AO2 SLP131 T01500089 10156 20106 51002=
201604081653 METAR KPAE 081653Z 35007KT 10SM CLR 15/08 A2992 RMK AO2 SLP130 T01500083=
201604081553 METAR KPAE 081553Z 36006KT 10SM CLR 12/08 A2992 RMK AO2 SLP131 T01220083=
201604081453 METAR KPAE 081453Z 01003KT 10SM CLR 12/08 A2992 RMK AO2 SLP130 T01220083 53009=
201604081353 METAR KPAE 081353Z 36004KT 10SM CLR 11/08 A2990 RMK AO2 SLP126 T01110078=
201604081253 METAR KPAE 081253Z AUTO 11007KT 10SM CLR 15/04 A2990 RMK AO2 SLP121 T01500044=
201604081153 METAR KPAE 081153Z AUTO 11008KT 10SM CLR 16/05 A2989 RMK AO2 SLP119 T01560050 10172 20133 58008=
201604081053 METAR KPAE 081053Z AUTO 00000KT 10SM CLR 16/05 A2991 RMK AO2 SLP125 T01560050=
201604080953 METAR KPAE 080953Z AUTO 00000KT 10SM CLR 14/05 A2991 RMK AO2 SLP128 T01440050=
201604080853 METAR KPAE 080853Z AUTO VRB03KT 10SM CLR 17/06 A2991 RMK AO2 SLP128 T01670056 58005=
201604080753 METAR KPAE 080753Z AUTO 10006KT 10SM CLR 17/07 A2992 RMK AO2 SLP131 T01670067 402280083=
201604080653 METAR KPAE 080653Z AUTO 00000KT 10SM CLR 14/08 A2993 RMK AO2 SLP135 T01390078=
201604080553 METAR KPAE 080553Z AUTO 00000KT 10SM CLR 14/08 A2993 RMK AO2 SLP135 T01440083 10222 20144 51013=
201604080453 METAR KPAE 080453Z AUTO 01004KT 10SM CLR 15/08 A2992 RMK AO2 SLP131 T01500078=
201604080353 METAR KPAE 080353Z AUTO 36005KT 10SM CLR 15/08 A2991 RMK AO2 SLP128 T01500078=
201604080253 METAR KPAE 080253Z 35004KT 10SM CLR 15/08 A2989 RMK AO2 SLP123 T01500083 56004=
201604080153 METAR KPAE 080153Z 36004KT 10SM CLR 17/09 A2989 RMK AO2 SLP123 T01720094=
201604080053 METAR KPAE 080053Z 35006KT 10SM CLR 21/09 A2990 RMK AO2 SLP123 T02060089=
201604072353 METAR KPAE 072353Z 03004KT 10SM CLR 21/09 A2991 RMK AO2 SLP126 T02110089 10228 20133 56022=
201604072253 METAR KPAE 072253Z 01004KT 10SM CLR 22/08 A2993 RMK AO2 SLP133 T02220083=
201604072153 METAR KPAE 072153Z VRB05KT 10SM CLR 22/09 A2995 RMK AO2 SLP140 T02220089=
201604072053 METAR KPAE 072053Z VRB03KT 10SM CLR 22/08 A2997 RMK AO2 SLP148 T02170083 58019=
201604071953 METAR KPAE 071953Z VRB03KT 10SM CLR 18/08 A3000 RMK AO2 SLP159 T01780078=
201604071853 METAR KPAE 071853Z VRB05KT 10SM CLR 15/07 A3002 RMK AO2 SLP166 T01500072=
201604071753 METAR KPAE 071753Z 01006KT 10SM CLR 13/07 A3003 RMK AO2 SLP169 T01330072 10133 20083 56011=
201604071653 METAR KPAE 071653Z 36008KT 10SM CLR 12/08 A3004 RMK AO2 SLP174 T01170078=
201604071553 METAR KPAE 071553Z 01007KT 10SM CLR 11/08 A3005 RMK AO2 SLP176 T01110078=
201604071500 SPECI KPAE 071500Z VRB06KT 10SM FEW004 10/08 A3006 RMK AO2 T01000078=
201604071453 METAR KPAE 071453Z 36007KT 10SM CLR 09/08 A3006 RMK AO2 SLP181 T00940078 56019=
201604071445 SPECI KPAE 071445Z 35005KT 10SM FEW004 09/08 A3006 RMK AO2 T00940078=
201604071438 SPECI KPAE 071438Z 01007KT 10SM BKN004 09/08 A3006 RMK AO2 T00940078=
201604071353 METAR KPAE 071353Z AUTO 34006KT 10SM FEW003 09/07 A3008 RMK AO2 SLP187 T00890072=
201604071253 METAR KPAE 071253Z AUTO 36006KT 10SM FEW002 09/07 A3010 RMK AO2 SLP192 T00890072=
201604071153 METAR KPAE 071153Z AUTO 34004KT 10SM CLR 09/06 A3012 RMK AO2 SLP199 T00890061 10117 20089 56020=
201604071053 METAR KPAE 071053Z AUTO 34004KT 10SM CLR 09/07 A3013 RMK AO2 SLP203 T00890072=
201604070953 METAR KPAE 070953Z AUTO 34007KT 10SM CLR 09/07 A3016 RMK AO2 SLP212 T00940072=
201604070853 METAR KPAE 070853Z AUTO 36004KT 10SM CLR 09/07 A3018 RMK AO2 SLP219 T00940072 56019=
201604070753 METAR KPAE 070753Z AUTO 36008KT 10SM CLR 10/07 A3020 RMK AO2 SLP226 T01000067 401830072=
201604070653 METAR KPAE 070653Z AUTO 36008KT 10SM CLR 11/07 A3021 RMK AO2 SLP231 T01110072=
201604070553 METAR KPAE 070553Z AUTO 35006KT 10SM CLR 12/07 A3024 RMK AO2 SLP239 T01170072 10178 20117 58007=
201604070453 METAR KPAE 070453Z AUTO 34006KT 10SM CLR 12/07 A3025 RMK AO2 SLP246 T01220067=
201604070353 METAR KPAE 070353Z 35005KT 10SM CLR 12/07 A3026 RMK AO2 SLP247 T01220067=
201604070253 METAR KPAE 070253Z 35006KT 10SM CLR 14/07 A3026 RMK AO2 SLP247 T01390067 56019=
201604070153 METAR KPAE 070153Z 35010G14KT 10SM CLR 14/06 A3027 RMK AO2 SLP253 T01440061=
201604070053 METAR KPAE 070053Z 34009KT 10SM CLR 16/06 A3029 RMK AO2 SLP260 T01560061=
201604062353 METAR KPAE 062353Z 36008KT 10SM CLR 18/06 A3031 RMK AO2 SLP265 T01780061 10183 20128 56031=
201604062253 METAR KPAE 062253Z 36006KT 10SM CLR 17/02 A3033 RMK AO2 SLP270 T01720022=
201604062153 METAR KPAE 062153Z 35005KT 10SM CLR 17/M03 A3037 RMK AO2 SLP283 T01721028=
201604062053 METAR KPAE 062053Z 35004KT 10SM CLR 17/05 A3041 RMK AO2 SLP297 T01670050 58017=
201604061953 METAR KPAE 061953Z 00000KT 10SM CLR 16/04 A3042 RMK AO2 SLP302 T01610044=
201604061853 METAR KPAE 061853Z 34005KT CLR 14/06 A3045 RMK AO2 SLP313 T01390061 $=
201604061753 METAR KPAE 061753Z 00000KT 10SM CLR 13/06 A3046 RMK AO2 SLP315 T01330056 10133 20072 50001=
201604061653 METAR KPAE 061653Z 21003KT 10SM BKN070 11/05 A3047 RMK AO2 SLP319 T01110050=
201604061553 METAR KPAE 061553Z 17003KT 10SM CLR 09/04 A3046 RMK AO2 SLP318 T00940044=
201604061453 METAR KPAE 061453Z 12003KT 10SM CLR 09/04 A3045 RMK AO2 SLP315 T00890039 53005=
201604061353 METAR KPAE 061353Z VRB03KT 10SM CLR 08/03 A3044 RMK AO2 SLP310 T00780033=
201604061253 METAR KPAE 061253Z AUTO 00000KT 10SM CLR 08/04 A3044 RMK AO2 SLP309 T00780039=
201604061153 METAR KPAE 061153Z AUTO 11007KT 10SM CLR 08/04 A3044 RMK AO2 SLP310 T00780039 10100 20078 58010=
201604061053 METAR KPAE 061053Z AUTO 11006KT 10SM OVC085 08/04 A3046 RMK AO2 SLP318 T00830044=
201604060953 METAR KPAE 060953Z AUTO 15007KT 10SM SCT075 BKN090 09/04 A3046 RMK AO2 SLP316 T00890039=
201604060853 METAR KPAE 060853Z AUTO 15004KT 10SM FEW070 09/04 A3047 RMK AO2 SLP320 T00890044 58005=
201604060753 METAR KPAE 060753Z AUTO VRB04KT 10SM OVC080 09/05 A3048 RMK AO2 SLP324 T00940050 401220067=
201604060653 METAR KPAE 060653Z AUTO 13005KT 10SM OVC080 09/05 A3048 RMK AO2 SLP324 T00940050=
201604060553 METAR KPAE 060553Z AUTO 16007KT 10SM BKN035 10/05 A3048 RMK AO2 SLP325 T01000050 10122 20100 53001=
201604060453 METAR KPAE 060453Z AUTO 15007KT 10SM CLR 10/05 A3048 RMK AO2 SLP323 T01000050=
201604060353 METAR KPAE 060353Z 00000KT 10SM FEW050 11/05 A3048 RMK AO2 SLP322 T01060050=
201604060253 METAR KPAE 060253Z 17011KT 10SM FEW033 BKN044 11/04 A3048 RMK AO2 SLP324 T01110044 55007=
201604060153 METAR KPAE 060153Z 17008KT 10SM FEW031 SCT047 12/04 A3047 RMK AO2 SLP322 T01170044=
201604060053 METAR KPAE 060053Z 17011KT 10SM SCT028 12/05 A3048 RMK AO2 SLP324 T01170050=
201604060017 SPECI KPAE 060017Z 17010KT 10SM BKN028 BKN033 12/05 A3049 RMK AO2 T01170050=
201604052353 METAR KPAE 052353Z 18013KT 10SM SCT028 BKN037 12/05 A3050 RMK AO2 SLP331 T01170050 10122 20094 58018=
201604052328 SPECI KPAE 052328Z 17012KT 10SM SCT028 OVC039 12/05 A3050 RMK AO2 T01220050=
201604052253 METAR KPAE 052253Z 17010KT 10SM BKN027 OVC035 12/05 A3052 RMK AO2 SLP339 T01170050=
201604052153 METAR KPAE 052153Z 18011KT 10SM SCT027 BKN033 OVC075 12/06 A3054 RMK AO2 SLP345 T01220056=
201604052106 SPECI KPAE 052106Z 18010KT 10SM SCT025 OVC035 11/05 A3056 RMK AO2 T01110050=
201604052053 METAR KPAE 052053Z 15011KT 10SM BKN026 OVC035 11/05 A3056 RMK AO2 SLP349 T01110050 51004=
201604052016 SPECI KPAE 052016Z 18008KT 10SM BKN030 OVC036 11/05 A3054 RMK AO2 T01060050=
201604051953 METAR KPAE 051953Z 19008KT 10SM SCT021 OVC029 11/05 A3055 RMK AO2 SLP346 T01060050=
201604051853 METAR KPAE 051853Z 20010KT 10SM OVC024 10/05 A3055 RMK AO2 SLP349 T01000050=
201604051800 SPECI KPAE 051800Z 15007KT 10SM SCT016 BKN027 09/05 A3054 RMK AO2 T00940050=
201604051753 METAR KPAE 051753Z 16009KT 10SM SCT014 SCT065 OVC075 09/05 A3054 RMK AO2 SLP345 T00940050 10094 20067 50019=
201604051700 SPECI KPAE 051700Z 16008KT 10SM FEW014 BKN075 OVC100 08/05 A3055 RMK AO2 T00830050=
201604051653 METAR KPAE 051653Z 15008KT 10SM BKN010 OVC070 08/04 A3055 RMK AO2 SLP348 T00830044=
201604051601 SPECI KPAE 051601Z 17008KT 10SM BKN010 OVC070 08/04 A3052 RMK AO2 T00780044=
201604051553 METAR KPAE 051553Z AUTO 18011KT 10SM FEW010 OVC070 08/04 A3051 RMK AO2 SLP333 T00780044=
201604051505 SPECI KPAE 051505Z AUTO 16007KT 10SM FEW009 FEW013 OVC080 07/04 A3049 RMK AO2 T00720044=
201604051453 METAR KPAE 051453Z AUTO 16008KT 10SM FEW013 FEW055 OVC080 07/04 A3049 RMK AO2 SLP327 T00720044 50004=
201604051353 METAR KPAE 051353Z AUTO 16007KT 10SM OVC055 07/04 A3049 RMK AO2 SLP328 T00670044=
201604051253 METAR KPAE 051253Z AUTO 16006KT 10SM SCT060 OVC110 07/04 A3049 RMK AO2 SLP328 T00670044=
201604051153 METAR KPAE 051153Z AUTO 16008KT 10SM BKN120 07/04 A3047 RMK AO2 SLP322 60000 70010 T00670044 10078 20067 50007=
201604051053 METAR KPAE 051053Z AUTO 15007KT 10SM CLR 07/04 A3048 RMK AO2 SLP322 T00670044=
201604051000 METAR KPAE NIL=
201604050953 METAR KPAE 050953Z AUTO 15008KT 10SM FEW039 07/04 A3046 RMK AO2 SLP317 T00720044=
201604050853 METAR KPAE 050853Z AUTO 15008KT 10SM OVC036 08/04 A3045 RMK AO2 SLP315 60000 T00780044 53014=
201604050753 METAR KPAE 050753Z AUTO VRB04KT 10SM OVC033 07/05 A3043 RMK AO2 SLP308 T00720050 401170072=
201604050653 METAR KPAE 050653Z AUTO VRB05KT 10SM BKN033 07/06 A3043 RMK AO2 RAE04 SLP307 P0000 T00720056=
201604050600 SPECI KPAE 050600Z AUTO 14003KT 10SM -RA FEW011 SCT029 OVC035 07/06 A3041 RMK AO2 P0000 T00720056=
201604050553 METAR KPAE 050553Z AUTO 11005KT 8SM -RA FEW011 BKN029 OVC036 08/06 A3041 RMK AO2 SLP301 P0003 60005 T00780056 10117 20078 51026=
201604050502 SPECI KPAE 050502Z AUTO 00000KT 5SM -RA BKN021 OVC035 08/05 A3040 RMK AO2 P0001 T00830050=
201604050453 METAR KPAE 050453Z AUTO 17004KT 10SM -RA SCT022 OVC035 09/04 A3040 RMK AO2 RAB10E19B51 SLP296 P0000 T00890044=
201604050353 METAR KPAE 050353Z VRB03KT 10SM OVC031 08/04 A3037 RMK AO2 RAB05E21 SLP287 P0000 T00830044=
201604050253 METAR KPAE 050253Z 36005KT 10SM BKN034 OVC046 08/05 A3033 RMK AO2 RAE48 SLP274 P0000 60002 T00830050 50010=
201604050153 METAR KPAE 050153Z VRB03KT 7SM -RA OVC039 08/05 A3034 RMK AO2 RAB12 SLP275 P0002 T00830050=
201604050053 METAR KPAE 050053Z AUTO 36006KT 10SM SCT050 OVC070 10/04 A3030 RMK AO2 RAB2354E10 SLP263 P0000 T01000044=
201604042353 METAR KPAE 042353Z AUTO 36005KT 10SM BKN040 OVC049 11/04 A3030 RMK AO2 SLP263 60005 T01060044 10106 20094 53023=
201604042253 METAR KPAE 042253Z 35005KT 10SM BKN033 OVC045 10/05 A3028 RMK AO2 SLP255 T01000050=
201604042153 METAR KPAE 042153Z 36006G14KT 10SM FEW029 OVC040 10/06 A3026 RMK AO2 RAE35 SLP248 P0000 T01000056=
201604042053 METAR KPAE 042053Z 02010KT 10SM -RA FEW010 BKN048 OVC085 10/07 A3023 RMK AO2 SLP240 P0004 60005 T01000072 51018=
201604041953 METAR KPAE 041953Z 06004KT 7SM -RA BKN027 BKN036 OVC048 09/05 A3022 RMK AO2 RAB1857E07B40 SLP235 P0001 T00940050=
201604041853 METAR KPAE 041853Z 00000KT 10SM OVC020 09/06 A3021 RMK AO2 SLP232 T00940056=
201604041753 METAR KPAE 041753Z 21003KT 10SM BKN028 OVC035 09/05 A3018 RMK AO2 SLP221 T00940050 10100 20083 53027=
201604041700 SPECI KPAE 041700Z 20010KT 10SM BKN018 OVC022 09/05 A3015 RMK AO2 T00940050=
201604041653 METAR KPAE 041653Z 20010KT 10SM OVC012 09/05 A3015 RMK AO2 SLP211 T00890050=
201604041553 METAR KPAE 041553Z 21009G17KT 10SM BKN016 OVC027 09/05 A3013 RMK AO2 SLP202 T00890050=
201604041500 SPECI KPAE 041500Z 19012KT 10SM BKN014 OVC024 08/05 A3010 RMK AO2 T00830050=
201604041453 METAR KPAE 041453Z 20010KT 10SM SCT014 OVC024 08/05 A3010 RMK AO2 SLP192 T00830050 53016=
201604041353 METAR KPAE 041353Z 20013KT 10SM OVC017 08/06 A3007 RMK AO2 SLP181 T00830056=
201604041332 SPECI KPAE 041332Z AUTO 20012KT 10SM BKN017 08/06 A3006 RMK AO2 T00830056=
201604041253 METAR KPAE 041253Z AUTO 19017KT 10SM SCT017 BKN060 09/06 A3005 RMK AO2 PK WND 19026/1211 SLP175 T00890056=
201604041248 SPECI KPAE 041248Z AUTO 19015KT 10SM SCT017 BKN060 09/06 A3005 RMK AO2 PK WND 19026/1211=
201604041229 SPECI KPAE 041229Z AUTO 20014G22KT 10SM BKN017 BKN095 09/06 A3004 RMK AO2 PK WND 19026/1211 T00890061=
201604041153 METAR KPAE 041153Z AUTO 18021G26KT 10SM FEW013 09/07 A3003 RMK AO2 PK WND 18027/1135 SLP168 60012 70013 T00940067 10117 20094 50004=
201604041111 SPECI KPAE 041111Z AUTO 16014G21KT 10SM FEW012 SCT018 BKN090 09/07 A3003 RMK AO2 T00940072=
201604041100 SPECI KPAE 041100Z AUTO 16018G25KT 10SM FEW009 SCT012 BKN017 09/07 A3003 RMK AO2 T00940072=
201604041053 METAR KPAE 041053Z AUTO 16014G23KT 10SM BKN012 OVC019 09/07 A3003 RMK AO2 RAB05E24 SLP170 P0001 T00940072=
201604041006 SPECI KPAE 041006Z AUTO 15015G22KT 9SM -RA SCT013 BKN018 OVC080 10/07 A3003 RMK AO2 RAB05 P0000 T01000072=
201604040953 METAR KPAE 040953Z AUTO 16014G23KT 10SM FEW018 BKN060 OVC080 10/07 A3003 RMK AO2 RAE45 SLP168 P0000 T01000072=
201604040853 METAR KPAE 040853Z AUTO 15016G21KT 10SM -RA FEW015 FEW039 OVC050 10/08 A3002 RMK AO2 SLP165 P0003 60011 T01000078 53021=
201604040753 METAR KPAE 040753Z AUTO 17015G21KT 9SM -RA BKN055 11/09 A3000 RMK AO2 PK WND 19030/0737 SLP157 P0004 T01110089 402060061=
201604040653 METAR KPAE 040653Z AUTO 19017KT 8SM -RA FEW012 BKN065 OVC080 12/10 A2997 RMK AO2 SLP148 P0004 T01170100=
201604040637 SPECI KPAE 040637Z AUTO 19018KT 10SM -RA SCT009 OVC060 12/10 A2996 RMK AO2 P0004 T01170100=
201604040629 SPECI KPAE 040629Z AUTO 19019G23KT 7SM -RA SCT009 BKN024 OVC060 12/10 A2996 RMK AO2 P0003 T01170100=
201604040622 SPECI KPAE 040622Z AUTO 19018G23KT 6SM RA BR BKN009 BKN024 OVC050 12/10 A2996 RMK AO2 P0003 T01170100=
201604040612 SPECI KPAE 040612Z AUTO 20015G23KT 9SM -RA SCT009 BKN024 OVC065 12/10 A2996 RMK AO2 P0001 T01220100=
201604040553 METAR KPAE 040553Z AUTO 21014G23KT 10SM -RA FEW050 OVC070 12/10 A2996 RMK AO2 RAB23 SLP145 P0001 60001 T01220100 10206 20122 53019=
201604040453 METAR KPAE 040453Z AUTO 22016G23KT 10SM BKN080 OVC095 15/06 A2993 RMK AO2 SLP135 T01500056=
201604040353 METAR KPAE 040353Z 21011KT 10SM OVC090 17/05 A2991 RMK AO2 SLP128 T01670050=
201604040253 METAR KPAE 040253Z 19005KT 10SM FEW110 18/04 A2990 RMK AO2 SLP124 T01780044 56011=
201604040153 METAR KPAE 040153Z 20008KT 10SM CLR 18/04 A2990 RMK AO2 SLP126 T01830044=
201604040053 METAR KPAE 040053Z 20008KT 10SM CLR 19/04 A2991 RMK AO2 SLP128 T01940039=
201604032353 METAR KPAE 032353Z 19012G19KT 10SM CLR 20/05 A2993 RMK AO2 SLP136 T02000050 10206 20122 56022=
201604032253 METAR KPAE 032253Z 23007KT 10SM CLR 19/07 A2996 RMK AO2 SLP143 T01940067=
201604032153 METAR KPAE 032153Z 20011KT 10SM CLR 19/07 A2998 RMK AO2 SLP150 T01940067=
201604032053 METAR KPAE 032053Z 25006KT 10SM CLR 18/07 A3000 RMK AO2 SLP158 T01780067 58017=
201604031953 METAR KPAE 031953Z 19008KT 10SM CLR 17/06 A3002 RMK AO2 SLP165 T01720061=
201604031853 METAR KPAE 031853Z 15004KT 10SM CLR 16/07 A3003 RMK AO2 SLP171 T01560072=
201604031753 METAR KPAE 031753Z 23003KT 10SM CLR 12/08 A3005 RMK AO2 SLP176 T01220078 10122 20061 56012=
201604031653 METAR KPAE 031653Z 24005KT 9SM CLR 10/07 A3006 RMK AO2 SLP183 T01000067=
201604031553 METAR KPAE 031553Z 12005KT 10SM BKN085 10/06 A3006 RMK AO2 SLP182 T01000061=
201604031453 METAR KPAE 031453Z 12005KT 10SM OVC085 08/06 A3009 RMK AO2 SLP190 T00780056 55002=
201604031353 METAR KPAE 031353Z 00000KT 10SM CLR 07/05 A3008 RMK AO2 SLP188 T00720050=
201604031253 METAR KPAE 031253Z AUTO 24003KT 10SM CLR 07/05 A3009 RMK AO2 SLP191 T00670050=
201604031153 METAR KPAE 031153Z AUTO 04003KT 10SM CLR 07/05 A3009 RMK AO2 SLP192 T00670050 10083 20067 58008=
201604031053 METAR KPAE 031053Z AUTO 00000KT 10SM CLR 07/05 A3011 RMK AO2 SLP197 T00670050=
201604030953 METAR KPAE 030953Z AUTO 00000KT 10SM CLR 07/05 A3011 RMK AO2 SLP197 T00720050=
201604030853 METAR KPAE 030853Z AUTO 00000KT 10SM CLR 08/06 A3012 RMK AO2 SLP200 T00830056 58004=
201604030753 METAR KPAE 030753Z AUTO 04003KT 10SM CLR 08/05 A3013 RMK AO2 SLP203 T00780050 401220067=
201604030653 METAR KPAE 030653Z AUTO 02005KT 10SM CLR 08/06 A3012 RMK AO2 SLP203 T00830056=
201604030553 METAR KPAE 030553Z AUTO 35004KT 10SM CLR 08/06 A3013 RMK AO2 SLP205 T00830061 10122 20083 50004=
201604030453 METAR KPAE 030453Z AUTO 35004KT 10SM CLR 08/06 A3013 RMK AO2 SLP205 T00830061=
201604030353 METAR KPAE 030353Z AUTO 01003KT 10SM FEW100 09/06 A3012 RMK AO2 SLP203 T00890056=
201604030253 METAR KPAE 030253Z 35005KT 10SM BKN090 09/06 A3012 RMK AO2 SLP200 T00940061 58001=
201604030153 METAR KPAE 030153Z 36006KT 10SM CLR 10/07 A3012 RMK AO2 SLP202 T01000067=
201604030053 METAR KPAE 030053Z 34005KT 10SM CLR 11/07 A3012 RMK AO2 SLP201 T01110072=
201604022353 METAR KPAE 022353Z 30007KT 10SM CLR 12/06 A3012 RMK AO2 SLP201 60000 T01220061 10122 20078 58013=
201604022253 METAR KPAE 022253Z AUTO 27007KT 10SM FEW003 11/07 A3014 RMK AO2 SLP207 T01110067=
201604022202 SPECI KPAE 022202Z 26006KT 10SM FEW003 11/07 A3015 RMK AO2 T01110072=
201604022153 METAR KPAE 022153Z 27006KT 10SM CLR 12/07 A3015 RMK AO2 SLP212 T01170072=
201604022113 SPECI KPAE 022113Z 28007KT 10SM SCT012 10/07 A3016 RMK AO2 T01000072=
201604022053 METAR KPAE 022053Z 30004KT 10SM SCT004 BKN010 BKN014 10/07 A3016 RMK AO2 SLP214 60000 T01000072 58010=
201604022039 SPECI KPAE 022039Z 00000KT 10SM SCT002 BKN010 BKN025 10/07 A3016 RMK AO2 T01000072=
201604022016 SPECI KPAE 022016Z 26003KT 4SM BR BKN004 OVC010 08/07 A3017 RMK AO2 T00830072=
201604022002 SPECI KPAE 022002Z 00000KT 3SM BR OVC001 08/07 A3018 RMK AO2 T00830072=
201604022000 SPECI KPAE 022000Z 00000KT 2 1/2SM BR OVC002 08/07 A3018 RMK AO2 T00830072=
201604021953 METAR KPAE 021953Z 23003KT 1 1/4SM BR OVC002 08/07 A3018 RMK AO2 SLP222 T00830072=
201604021909 SPECI KPAE 021909Z 24004KT 1 1/4SM R16R/3000V5000FT BR OVC002 08/07 A3019 RMK AO2 T00830067=
201604021853 METAR KPAE 021853Z 26004KT 2 1/2SM R16R/4500VP6000FT BR OVC003 08/07 A3019 RMK AO2 RAB39E48 SLP225 P0000 T00830072=
201604021753 METAR KPAE 021753Z 21005KT 6SM BR OVC004 08/07 A3019 RMK AO2 SLP224 T00830067 10089 20067 53009=
201604021735 SPECI KPAE 021735Z 19004KT 7SM BKN004 OVC009 08/06 A3018 RMK AO2 T00830061=
201604021700 SPECI KPAE 021700Z 19004KT 9SM OVC006 08/06 A3018 RMK AO2 T00830061=
201604021653 METAR KPAE 021653Z 19007KT 8SM OVC003 08/06 A3018 RMK AO2 SLP220 T00830061=
201604021553 METAR KPAE 021553Z 18004KT 4SM BR OVC003 08/07 A3017 RMK AO2 SLP218 T00830072=
201604021500 SPECI KPAE 021500Z 21005KT 2SM BR OVC003 08/07 A3016 RMK AO2 T00830067=
201604021453 METAR KPAE 021453Z 20004KT 1/2SM R16R/P6000FT FG OVC003 08/07 A3016 RMK AO2 SLP214 T00830067 53004=
201604021353 METAR KPAE 021353Z 11003KT 1/2SM R16R/P6000FT FG OVC003 08/07 A3015 RMK AO2 SLP209 T00830067=
201604021351 SPECI KPAE 021351Z 11003KT 1/2SM R16R/P6000FT FG OVC003 08/07 A3015 RMK AO2=
201604021308 SPECI KPAE 021308Z AUTO 06003KT 5SM BR OVC002 08/07 A3015 RMK AO2 T00780067=
201604021300 SPECI KPAE 021300Z AUTO 00000KT 2 1/2SM BR OVC002 08/07 A3016 RMK AO2 T00780067=
201604021253 METAR KPAE 021253Z AUTO 00000KT 1 3/4SM R16R/4500VP6000FT BR OVC002 08/07 A3015 RMK AO2 SLP212 T00780067=
201604021243 SPECI KPAE 021243Z AUTO 00000KT 1 3/4SM R16R/2800VP6000FT BR OVC002 08/07 A3015 RMK AO2 T00780067=
201604021202 SPECI KPAE 021202Z AUTO 00000KT 8SM BKN004 08/06 A3015 RMK AO2 T00780061=
201604021153 METAR KPAE 021153Z AUTO 00000KT 8SM SCT004 07/06 A3015 RMK AO2 SLP210 T00670056 10094 20067 53002=
201604021119 SPECI KPAE 021119Z AUTO 00000KT 10SM SCT003 08/07 A3015 RMK AO2 T00830067=
201604021053 METAR KPAE 021053Z AUTO 04003KT 9SM OVC003 08/07 A3014 RMK AO2 SLP207 T00830067=
201604020953 METAR KPAE 020953Z AUTO 02006KT 9SM OVC003 08/07 A3014 RMK AO2 SLP208 T00830067=
201604020920 SPECI KPAE 020920Z AUTO 02006KT 10SM BKN004 08/07 A3014 RMK AO2 T00830067=
201604020853 METAR KPAE 020853Z AUTO 01004KT 10SM SCT004 08/07 A3014 RMK AO2 SLP208 T00830067 53003=
201604020838 SPECI KPAE 020838Z AUTO 01004KT 10SM SCT004 08/07 A3014 RMK AO2 T00830067=
201604020811 SPECI KPAE 020811Z AUTO 01004KT 10SM BKN004 09/07 A3014 RMK AO2 T00890072=
201604020753 METAR KPAE 020753Z AUTO 35003KT 10SM FEW004 08/07 A3014 RMK AO2 SLP207 T00830067 401720078=
201604020653 METAR KPAE 020653Z AUTO 01006KT 10SM CLR 09/07 A3013 RMK AO2 SLP205 T00940072=
201604020553 METAR KPAE 020553Z AUTO 36006KT 10SM CLR 09/07 A3013 RMK AO2 SLP205 T00940072 10172 20094 51005=
201604020453 METAR KPAE 020453Z AUTO 01008KT 10SM CLR 10/07 A3013 RMK AO2 SLP204 T01000072=
201604020353 METAR KPAE 020353Z 36005KT 10SM CLR 12/08 A3012 RMK AO2 SLP201 T01170078=
201604020253 METAR KPAE 020253Z 01004KT 10SM CLR 13/07 A3012 RMK AO2 SLP200 T01330072 56013=
201604020153 METAR KPAE 020153Z 35004KT 10SM CLR 16/08 A3013 RMK AO2 SLP202 T01610083=
201604020053 METAR KPAE 020053Z 36004KT 10SM CLR 16/08 A3014 RMK AO2 SLP207 T01610083=
201604012353 METAR KPAE 012353Z 35004KT 10SM CLR 17/09 A3016 RMK AO2 SLP212 T01670089 10172 20117 56011=
201604012253 METAR KPAE 012253Z 00000KT 10SM CLR 17/08 A3016 RMK AO2 SLP213 T01670083=
201604012153 METAR KPAE 012153Z 28005KT 10SM CLR 16/09 A3018 RMK AO2 SLP218 T01560089=
201604012053 METAR KPAE 012053Z 31006KT 10SM CLR 15/09 A3019 RMK AO2 SLP223 T01500089 58004=
201604011953 METAR KPAE 011953Z 28004KT 10SM CLR 14/09 A3019 RMK AO2 SLP225 T01390089=
201604011853 METAR KPAE 011853Z 28006KT 10SM CLR 13/08 A3020 RMK AO2 SLP226 T01280083=
201604011753 METAR KPAE 011753Z 27004KT 10SM CLR 12/08 A3020 RMK AO2 SLP228 T01170083 10122 20078 51007=
201604011653 METAR KPAE 011653Z 35003KT 10SM CLR 12/07 A3020 RMK AO2 SLP226 T01220072=
201604011553 METAR KPAE 011553Z 00000KT 10SM CLR 12/07 A3019 RMK AO2 SLP223 T01170072=
201604011453 METAR KPAE 011453Z 00000KT 10SM CLR 11/06 A3018 RMK AO2 SLP220 T01060061 53008=
201604011353 METAR KPAE 011353Z 11005KT 10SM CLR 09/06 A3017 RMK AO2 SLP215 T00940061=
201604011253 METAR KPAE 011253Z AUTO 00000KT 10SM CLR 08/06 A3016 RMK AO2 SLP214 T00830061=
201604011153 METAR KPAE 011153Z AUTO 00000KT 10SM CLR 08/06 A3016 RMK AO2 SLP212 T00830061 10128 20083 53002=
201604011053 METAR KPAE 011053Z AUTO 16003KT 10SM CLR 10/06 A3015 RMK AO2 SLP210 T01000056=
201604010953 METAR KPAE 010953Z AUTO 11004KT 10SM CLR 12/04 A3015 RMK AO2 SLP209 T01170039=
201604010853 METAR KPAE 010853Z AUTO 08007KT 10SM CLR 12/04 A3015 RMK AO2 SLP209 T01220044 50007=
201604010753 METAR KPAE 010753Z AUTO 07004KT 10SM CLR 12/05 A3016 RMK AO2 SLP213 T01220050 401940083=
201604010653 METAR KPAE 010653Z AUTO 04005KT 10SM CLR 13/06 A3015 RMK AO2 SLP208 T01280061=
201604010553 METAR KPAE 010553Z AUTO 01003KT 10SM CLR 12/06 A3013 RMK AO2 SLP203 T01170056 10194 20117 51014=
201604010453 METAR KPAE 010453Z AUTO 02005KT 10SM CLR 12/06 A3012 RMK AO2 SLP200 T01220061=
201604010353 METAR KPAE 010353Z 36003KT 10SM CLR 14/07 A3011 RMK AO2 SLP196 T01390067=
201604010253 METAR KPAE 010253Z 00000KT 10SM CLR 16/07 A3009 RMK AO2 SLP189 T01560067 55001=
201604010153 METAR KPAE 010153Z 00000KT 10SM CLR 18/06 A3008 RMK AO2 SLP187 T01780061=
201604010053 METAR KPAE 010053Z 35005KT 10SM CLR 19/07 A3009 RMK AO2 SLP187 T01890067=

# No short TAF reports from KPAE in databse.

###################################
#  large TAF from KPAE
###################################
201604302328 TAF KPAE 302328Z 0100/0124 02008KT P6SM SKC=
201604301728 TAF KPAE 301728Z 3018/0118 30004KT P6SM SCT022
                      TEMPO 3018/3019 BKN022 FM302100 34008KT P6SM
                       SCT050 FM010600 VRB03KT P6SM SKC=
201604301304 TAF AMD KPAE 301304Z 3013/0112 VRB03KT P6SM FEW009 BKN200 FM301800
                       33006KT P6SM BKN200 FM010400 VRB03KT P6SM
                       SCT250=
201604301120 TAF KPAE 301120Z 3012/0112 VRB03KT P6SM SCT020 BKN035 FM301900
                       VRB03KT P6SM SCT030 BKN045 FM302100 35005KT
                       P6SM SCT050 FM010400 VRB03KT P6SM SCT250=
201604300520 TAF KPAE 300520Z 3006/0106 02005KT P6SM SCT025 SCT045 FM301100
                       VRB03KT P6SM BKN020 OVC030 FM301900 VRB03KT
                       P6SM SCT030 BKN045 FM302100 35005KT P6SM
                       SCT050=
201604292338 TAF KPAE 292338Z 3000/3024 33008KT P6SM SCT025 BKN045 FM301100
                       VRB03KT P6SM BKN020 OVC030 FM301800 VRB03KT
                       P6SM SCT030 BKN045 FM302000 35008KT P6SM
                       SCT050=
201604291735 TAF KPAE 291735Z 2918/3018 00000KT P6SM SCT025 BKN045
                      TEMPO 2918/2922 -SHRA BKN025 BKN045 FM292200
                       33008KT P6SM SCT025 BKN045 FM301100 VRB03KT
                       P6SM BKN020 OVC030=
201604291120 TAF KPAE 291120Z 2912/3012 34006KT P6SM BKN007 OVC010
                      TEMPO 2912/2914 3SM -RA BR OVC005 FM291400
                       23005KT P6SM -SHRA SCT010 BKN030 FM292000
                       27005KT P6SM VCSH SCT010 BKN050 FM292300
                       33005KT P6SM SCT020 BKN050=
201604290902 TAF AMD KPAE 290902Z 2909/3006 34006KT P6SM BKN005 OVC010 FM291000
                       05004KT P6SM BKN007 OVC015 FM291400 23005KT
                       P6SM -SHRA SCT010 BKN030 FM292000 27005KT
                       P6SM VCSH SCT010 BKN050 FM292300 33005KT
                       P6SM SCT020 BKN050=
201604290523 TAF KPAE 290523Z 2906/3006 34006KT P6SM BKN040 FM291000 05004KT
                       P6SM BKN025 OVC040 FM291400 23005KT P6SM
                       -SHRA SCT010 BKN060 FM292000 27005KT P6SM
                       VCSH SCT010 BKN060 FM292300 33005KT P6SM
                       SCT020 BKN050=
201604282334 TAF KPAE 282334Z 2900/2924 34006KT P6SM BKN060 FM291000 05004KT
                       P6SM BKN025 OVC040
                      TEMPO 2910/2914 -SHRA SCT015 OVC025 FM291400
                       26005KT P6SM -SHRA SCT010 BKN060 FM292000
                       30005KT P6SM SCT040 SCT060=
201604281740 TAF KPAE 281740Z 2818/2918 25005KT P6SM SCT045 BKN060 FM282100
                       34006KT P6SM SCT060 FM290400 35005KT P6SM
                       SCT045 OVC060 FM291000 05004KT P6SM BKN025
                       OVC040
                      TEMPO 2910/2914 -SHRA SCT015 OVC025 FM291400
                       26005KT P6SM -SHRA SCT010 BKN060=
201604281120 TAF KPAE 281120Z 2812/2912 VRB03KT P6SM SCT040 OVC060 FM281800
                       26005KT P6SM SCT040 BKN060 FM290100 33005KT
                       P6SM SCT050 BKN100 FM290400 35005KT P6SM
                       SCT020 BKN050 FM291000 18005KT P6SM BKN020=
201604280520 TAF KPAE 280520Z 2806/2906 00000KT P6SM SCT040 SCT100 FM281600
                       26005KT P6SM BKN040 FM290100 33005KT P6SM
                       SCT050 BKN100=
201604272320 TAF KPAE 272320Z 2800/2824 32006KT P6SM BKN050 BKN090 FM280600
                       00000KT P6SM SCT040 FM281600 VRB03KT P6SM
                       BKN040=
201604271912 TAF AMD KPAE 271912Z 2719/2818 35006KT P6SM BKN050 FM280600 VRB03KT
                       P6SM SCT050=
201604271720 TAF KPAE 271720Z 2718/2818 VRB04KT P6SM BKN025 FM272100 32006KT
                       P6SM BKN040 FM280600 VRB03KT P6SM SCT040=
201604271126 TAF KPAE 271126Z 2712/2812 VRB03KT P6SM BKN035 OVC050 FM271800
                       VRB03KT P6SM SCT035 BKN060 BKN100 FM272000
                       32005KT P6SM SCT060 BKN100 FM280200 01005KT
                       P6SM SCT100=
201604270544 TAF KPAE 270544Z 2706/2806 01005KT P6SM OVC130 FM271000 VRB03KT
                       P6SM OVC100 FM271500 VRB03KT P6SM BKN060
                       BKN100 FM272000 31005KT P6SM SCT060 SCT100
                       FM280200 35005KT P6SM SCT100=
201604270311 TAF AMD KPAE 270311Z 2703/2724 35004KT P6SM FEW070 OVC150 FM270600
                       VRB03KT P6SM SCT070 OVC120 FM270900 VRB03KT
                       P6SM BKN070 OVC120=
201604262320 TAF KPAE 262320Z 2700/2724 VRB04KT P6SM SCT070 BKN120 BKN200 FM270900
                       00000KT P6SM BKN070 BKN120 OVC200=
201604261720 TAF KPAE 261720Z 2618/2718 VRB04KT P6SM SCT040 SCT120 BKN250 FM262200
                       VRB04KT P6SM SCT070 BKN120 BKN200 FM270600
                       00000KT P6SM BKN070 BKN120 OVC200=
201604261132 TAF KPAE 261132Z 2612/2712 VRB03KT P6SM BKN200 FM261800 21006KT
                       P6SM FEW120 BKN200 FM270000 28006KT P6SM
                       FEW070 BKN120 OVC200 FM270600 VRB03KT P6SM
                       BKN070 BKN120 OVC200=
201604260534 TAF KPAE 260534Z 2606/2706 VRB03KT P6SM SCT200 FM261800 25006KT
                       P6SM FEW120 BKN200 FM270000 29006KT P6SM
                       FEW070 BKN120 OVC200=
201604260220 TAF AMD KPAE 260220Z 2602/2624 01006KT P6SM BKN200 FM260400 VRB03KT
                       P6SM BKN200 FM261600 16006KT P6SM OVC120=
201604252320 TAF KPAE 252320Z 2600/2624 35007KT P6SM SCT040 FM260900 00000KT
                       P6SM BKN200 FM261600 16006KT P6SM OVC120=
201604251933 TAF AMD KPAE 251933Z 2520/2618 32007KT P6SM BKN040 FM260300 VRB03KT
                       P6SM SCT040 FM260900 00000KT P6SM SCT120
                       OVC200 FM261600 16006KT P6SM OVC120=
201604251720 TAF KPAE 251720Z 2518/2618 VRB04KT P6SM VCSH SCT015 BKN040
                      TEMPO 2518/2521 -SHRA BKN012 OVC030 FM252300
                       30006KT P6SM SCT040 FM260900 00000KT P6SM
                       SCT120 OVC200 FM261600 16006KT P6SM OVC120=
201604251505 KPAE 251505Z 2515/2612 VRB04KT P6SM SCT005 BKN015
                      TEMPO 2515/2518 2SM SHRA BR BKN005 OVC010
                       FM251800 30005KT P6SM VCSH BKN015 BKN040
                       FM252100 30008KT P6SM SCT020 BKN040 FM260900
                       00000KT P6SM BKN120 OVC200=
201604251120 TAF KPAE 251120Z 2512/2612 VRB03KT P6SM VCSH SCT022 OVC045
                      TEMPO 2512/2516 -SHRA BKN022 OVC040 FM251800
                       26005KT P6SM VCSH SCT035 BKN060 FM252100
                       31006KT P6SM SCT070 FM260200 VRB04KT P6SM
                       BKN200=
201604251000 TAF AMD KPAE 251000Z 2510/2606 VRB03KT P6SM SCT022 BKN050 FM251800
                       25005KT P6SM BKN030 BKN080 FM252000 29005KT
                       P6SM SCT035 BKN080 FM260000 33005KT P6SM
                       SCT080 SCT200=
201604250523 TAF KPAE 250523Z 2506/2606 VRB03KT P6SM VCSH FEW025 BKN080 FM251000
                       VRB03KT P6SM BKN022 BKN080 FM251800 25005KT
                       P6SM BKN030 BKN080 FM252000 29005KT P6SM
                       SCT035 BKN080 FM260000 33005KT P6SM SCT080
                       SCT200=
201604250312 TAF AMD KPAE 250312Z 2503/2524 VRB03KT P6SM SCT050
                      TEMPO 2503/2506 BKN050 FM250600 01005KT P6SM
                       SCT025 SCT050 FM250900 VRB04KT P6SM BKN025
                       FM251800 23005KT P6SM BKN030=
201604250104 TAF AMD KPAE 250104Z 2501/2524 29003KT P6SM FEW008 BKN100
                      TEMPO 2501/2504 BKN012 OVC050 FM250600 01005KT
                       P6SM SCT020 BKN050 FM250900 VRB04KT P6SM
                       BKN025 FM251800 23005KT P6SM BKN030=
201604242324 TAF KPAE 242324Z 2500/2524 34008KT P6SM VCSH SCT020 BKN030 BKN040
                       TEMPO 2500/2504 -SHRA BKN015 OVC030 FM250600
                       01005KT P6SM SCT020 BKN050 FM250900 VRB04KT
                       P6SM BKN025 FM251800 23005KT P6SM BKN030=
201604242104 TAF AMD KPAE 242104Z 2421/2518 01006KT P6SM -SHRA SCT010 BKN035
                       OVC050 FM250000 35010KT P6SM VCSH BKN035
                       BKN050 FM250300 01005KT P6SM SCT035 BKN050
                       FM250900 VRB04KT P6SM BKN025=
201604241727 TAF KPAE 241727Z 2418/2518 03004KT 4SM -SHRA BR SCT012 OVC030
                      TEMPO 2418/2422 2SM -SHRA BR BKN008 OVC012
                       FM242200 36008KT P6SM -SHRA SCT010 BKN028
                       OVC050 FM250000 35010KT P6SM VCSH BKN035
                       BKN050 FM250300 01005KT P6SM SCT035 BKN050
                       FM250900 VRB04KT P6SM BKN025=
201604241419 TAF AMD KPAE 241419Z 2414/2512 VRB03KT 3SM -SHRA SCT005 BKN025
                       OVC040
                      TEMPO 2414/2418 2SM SHRA BR BKN005 OVC012
                       FM242000 25008KT P6SM -SHRA SCT010 BKN028
                       OVC050 FM242200 33010KT P6SM VCSH BKN035
                       BKN050 FM250200 01005KT P6SM SCT035 BKN050=
201604241131 TAF KPAE 241131Z 2412/2512 VRB03KT P6SM -SHRA SCT005 BKN028 OVC050
                       TEMPO 2412/2416 4SM SHRA BR BKN005 OVC020
                       FM241600 20008KT 5SM -SHRA BR SCT005 OVC022
                       TEMPO 2416/2420 2SM +SHRA BR BKN005 OVC012
                       FM242000 25008KT P6SM -SHRA SCT010 BKN028
                       OVC050 FM242200 33010KT P6SM VCSH BKN035
                       BKN050 FM250200 01005KT P6SM SCT035 BKN050=
201604241020 TAF AMD KPAE 241020Z 2410/2506 VRB03KT 5SM -SHRA BR SCT005 OVC022
                       TEMPO 2410/2414 2SM +SHRA BR BKN005 OVC020
                       FM241700 VRB05KT 4SM SHRA FEW007 BKN012
                       OVC030 FM242100 33012KT P6SM -SHRA SCT012
                       BKN028 OVC050 FM250000 01006KT P6SM VCSH
                       SCT028 BKN050 BKN100=
201604240913 TAF AMD KPAE 240913Z 2409/2506 02007KT P6SM -SHRA FEW010 OVC022
                       FM241700 VRB05KT 4SM SHRA FEW007 BKN012
                       OVC030 FM242100 33012KT P6SM -SHRA SCT012
                       BKN028 OVC050 FM250000 01006KT P6SM VCSH
                       SCT028 BKN050 BKN100=
201604240717 TAF AMD KPAE 240717Z 2407/2506 02007KT P6SM -SHRA SCT004 OVC012
                       TEMPO 2407/2409 2SM +SHRA BKN004 OVC015
                       FM240900 02007KT 5SM -SHRA BR BKN004 OVC012
                       TEMPO 2410/2414 2SM +SHRA BR FM241700 VRB05KT
                       4SM SHRA FEW007 BKN012 OVC030 FM242100 33012KT
                       P6SM -SHRA SCT012 BKN028 OVC050 FM250000
                       01006KT P6SM VCSH SCT028 BKN050 BKN100=
201604240715 TAF AMD KPAE 240715Z 2407/2506 25007KT P6SM -SHRA SCT007 OVC015
                       TEMPO 2407/2409 BKN007 OVC015 FM240900 VRB05KT
                       6SM -SHRA BR BKN007 OVC015
                      TEMPO 2410/2414 2SM +SHRA BR FM241700 VRB05KT
                       4SM SHRA FEW007 BKN012 OVC030 FM242100 33012KT
                       P6SM -SHRA SCT012 BKN028 OVC050 FM250000
                       01006KT P6SM VCSH SCT028 BKN050 BKN100=
201604240608 TAF AMD KPAE 240608Z 2406/2506 20013KT P6SM -SHRA BKN020 OVC040
                       FM240900 25009KT P6SM -SHRA SCT012 OVC035
                       TEMPO 2410/2414 4SM SHRA BKN012 OVC035 FM241700
                       VRB05KT 4SM SHRA FEW007 BKN012 OVC030 FM242100
                       33012KT P6SM -SHRA SCT012 BKN028 OVC050
                       FM250000 01006KT P6SM VCSH SCT028 BKN050
                       BKN100=
201604240535 TAF KPAE 240535Z 2406/2506 20013KT P6SM -SHRA SCT020 OVC050
                      TEMPO 2407/2409 BKN020 OVC050 FM240900 25009KT
                       P6SM -SHRA SCT012 OVC035
                      TEMPO 2410/2414 4SM SHRA BKN012 OVC035 FM241700
                       VRB05KT 4SM SHRA FEW007 BKN012 OVC030 FM242100
                       33012KT P6SM -SHRA SCT012 BKN028 OVC050
                       FM250000 01006KT P6SM VCSH SCT028 BKN050
                       BKN100=
201604240211 TAF AMD KPAE 240211Z 2402/2424 19013KT P6SM VCSH SCT035 OVC070
                       TEMPO 2402/2405 19013G20KT -SHRA BKN035
                       OVC070 FM240500 21013KT P6SM -SHRA SCT020
                       OVC035 FM240800 VRB05KT P6SM -SHRA OVC020
                       FM241200 32006KT 5SM -SHRA SCT007 OVC015=
201604240027 TAF AMD KPAE 240027Z 2400/2424 VRB03KT P6SM -SHRA BKN040 OVC050
                       FM240600 VRB05KT P6SM -SHRA OVC025 FM241200
                       32006KT 5SM -SHRA SCT007 OVC015=
201604232324 TAF KPAE 232324Z 2400/2424 20010KT P6SM -SHRA BKN030 BKN080 BKN200
                       FM240600 VRB05KT P6SM -SHRA OVC025 FM241200
                       32006KT 5SM -SHRA SCT007 OVC015=
201604231720 TAF KPAE 231720Z 2318/2418 20010KT 5SM -SHRA BR SCT005 OVC012
                      TEMPO 2318/2320 BKN005 FM232000 19013KT P6SM
                       SCT020 BKN050 OVC110 FM240000 21013KT P6SM
                       -SHRA BKN020 OVC035 FM240600 VRB05KT P6SM
                       -SHRA OVC015 FM240900 32006KT 5SM -SHRA
                       BR FEW007 OVC015=
201604231507 TAF AMD KPAE 231507Z 2315/2412 17008KT 4SM -SHRA OVC015
                      TEMPO 2315/2318 2SM -SHRA BR OVC005 FM231800
                       17013KT P6SM BKN022 OVC050 FM232000 19013KT
                       P6SM SCT028 BKN050 OVC110 FM240000 21013KT
                       P6SM -SHRA BKN020 OVC035 FM240600 VRB05KT
                       P6SM -SHRA OVC015 FM240900 32006KT 5SM -SHRA
                       BR FEW007 OVC015=
201604231317 TAF AMD KPAE 231317Z 2313/2412 17008KT P6SM OVC015
                      TEMPO 2313/2315 3SM -RA BR BKN006 OVC015
                       FM231800 17013KT P6SM BKN022 OVC050 FM232000
                       19013KT P6SM SCT028 BKN050 OVC110
                      PROB30 2322/2324 -SHRA BKN028 OVC050 FM240000
                       21013KT P6SM -SHRA BKN020 OVC035 FM240600
                       VRB05KT P6SM -SHRA OVC015 FM240900 32006KT
                       5SM -SHRA BR FEW007 OVC015=
201604231147 TAF KPAE 231147Z 2312/2412 17010KT P6SM OVC015 FM231800 17013KT
                       P6SM BKN022 OVC050 FM232000 19013KT P6SM
                       SCT028 BKN050 OVC110
                      PROB30 2321/2324 -SHRA BKN028 OVC050 FM240000
                       21013KT P6SM -SHRA BKN020 OVC035 FM240600
                       VRB05KT P6SM -SHRA OVC015 FM240900 32006KT
                       5SM -SHRA BR FEW007 OVC015=
201604231022 TAF AMD KPAE 231022Z 2310/2406 17008KT P6SM BKN018 OVC030 FM231800
                       17011KT P6SM BKN022 OVC050 FM232100 19013KT
                       P6SM BKN030 BKN050 OVC110
                      PROB30 2321/2324 -SHRA FM240000 19013KT P6SM
                       -SHRA BKN020 OVC035=
201604230604 TAF AMD KPAE 230604Z 2306/2406 VRB05KT P6SM VCSH FEW018 SCT030
                       OVC050
                      TEMPO 2307/2309 -SHRA FEW018 BKN030 OVC050
                       FM230900 16007KT P6SM -SHRA BKN018 OVC030
                       FM231800 17011KT P6SM BKN022 OVC050 FM232100
                       19013KT P6SM BKN030 BKN050 OVC110
                      PROB30 2321/2324 -SHRA FM240000 19013KT P6SM
                       -SHRA BKN020 OVC035=
201604230541 TAF KPAE 230541Z 2306/2406 16007KT P6SM VCSH FEW018 BKN030 OVC050
                       TEMPO 2306/2309 -SHRA FM230900 16007KT P6SM
                       -SHRA BKN018 OVC030 FM231800 17011KT P6SM
                       BKN022 OVC050 FM232100 19013KT P6SM BKN030
                       BKN050 OVC110
                      PROB30 2321/2324 -SHRA FM240000 19013KT P6SM
                       -SHRA BKN020 OVC035=
201604230306 TAF AMD KPAE 230306Z 2303/2324 15007KT P6SM VCSH BKN025 OVC040
                       FM230600 15007KT P6SM SCT030 BKN050 BKN120
                       FM231000 20010KT P6SM OVC020 FM231900 18010KT
                       P6SM BKN030=
201604230143 TAF AMD KPAE 230143Z 2302/2324 15007KT P6SM OVC028 FM230400 19010KT
                       P6SM SCT030 BKN100 FM231000 20010KT P6SM
                       OVC020 FM231900 18010KT P6SM BKN030=
201604222320 TAF KPAE 222320Z 2300/2324 18012KT P6SM -SHRA SCT015 BKN045 OVC100
                       FM230600 19010KT P6SM SCT030 BKN100 FM231000
                       20010KT P6SM OVC020 FM231900 18010KT P6SM
                       BKN030=
201604221732 TAF KPAE 221732Z 2218/2318 17006KT P6SM VCSH SCT035 BKN120 BKN250
                       TEMPO 2218/2221 -SHRA BKN035 FM222100 21012KT
                       P6SM -SHRA SCT020 BKN040 BKN080 FM230300
                       20010KT P6SM VCSH BKN040 BKN100 FM230900
                       20010KT P6SM VCSH OVC020=
201604221120 TAF KPAE 221120Z 2212/2312 22006KT P6SM SCT045 BKN140 FM221300
                       16006KT P6SM VCSH BKN045 OVC080 FM222000
                       19012KT 5SM -SHRA BR OVC023 FM230300 18010KT
                       P6SM VCSH OVC020=
201604220535 TAF KPAE 220535Z 2206/2306 03004KT P6SM FEW090 BKN180 FM220900
                       05004KT P6SM BKN090 OVC150 FM221300 16006KT
                       P6SM VCSH BKN045 OVC080 FM222000 19012KT
                       5SM -SHRA BR OVC023 FM230300 18010KT P6SM
                       VCSH OVC020=
201604212320 TAF KPAE 212320Z 2200/2224 36007KT P6SM SCT100 SCT250 FM220200
                       34006KT P6SM SCT050 BKN120 FM220900 VRB03KT
                       P6SM VCSH BKN045 OVC080 FM221400 18006KT
                       P6SM -SHRA BKN045 OVC080 FM222100 20010KT
                       P6SM -SHRA BKN030 OVC050=
201604211720 TAF KPAE 211720Z 2118/2218 18007KT P6SM BKN100 BKN250 FM212000
                       22008KT P6SM SCT100 BKN250 FM220100 33005KT
                       P6SM SCT050 OVC100 FM220900 VRB03KT P6SM
                       VCSH BKN045 OVC080 FM221300 18005KT P6SM
                       -SHRA BKN045 OVC080=
201604211120 TAF KPAE 211120Z 2112/2212 19009KT P6SM BKN090 BKN120 FM211300
                       18004KT P6SM SCT013 BKN090
                      TEMPO 2113/2117 OVC013 FM211900 21006KT P6SM
                       SCT050 BKN100 OVC250 FM220600 35006KT P6SM
                       SCT050 OVC100
                      PROB30 2206/2212 -SHRA OVC050=
201604210527 TAF KPAE 210527Z 2106/2206 00000KT P6SM OVC110 FM210900 17006KT
                       P6SM SCT030 BKN070 FM211300 18004KT P6SM
                       BKN013 BKN030 FM211900 21006KT P6SM SCT050
                       BKN100 OVC250=
201604210305 KPAE 210305Z 2103/2124 27004KT P6SM SCT250 FM210500 20012G20KT
                       P6SM -SHRA SCT040 BKN080 BKN150 FM210900
                       17006KT P6SM SCT030 BKN070 FM211300 18004KT
                       P6SM BKN013 BKN030 FM211900 21006KT P6SM
                       SCT050 BKN100 OVC250=
201604202323 TAF KPAE 202323Z 2100/2124 35005KT P6SM SCT250 FM210300 20008KT
                       P6SM FEW040 SCT080 BKN250 FM210500 19010KT
                       P6SM -SHRA SCT040 BKN080 BKN150 FM210900
                       18010KT P6SM VCSH SCT030 BKN040 BKN080 FM211300
                       18006KT 4SM BR OVC015 FM211700 18006KT 5SM
                       BR BKN022=
201604201729 TAF KPAE 201729Z 2018/2118 35004KT P6SM SKC FM202000 32005KT P6SM
                       SCT250 FM210100 29007KT P6SM FEW040 SCT080
                       BKN250 FM210300 20008KT P6SM -SHRA SCT040
                       BKN080 BKN150 FM210700 20012KT P6SM VCSH
                       SCT030 BKN040 BKN080 FM211000 18009KT 5SM
                       BR BKN025 BKN045 BKN080 FM211300 19004KT
                       4SM BR OVC020 FM211700 19006KT 5SM BR BKN025=
201604201125 TAF KPAE 201125Z 2012/2112 02004KT P6SM SKC FM201800 30003KT P6SM
                       SKC FM210300 19005KT P6SM VCSH SCT035 BKN080
                       BKN250=
201604200535 TAF KPAE 200535Z 2006/2106 36003KT P6SM SKC FM201800 30003KT P6SM
                       SKC FM210300 19005KT P6SM VCSH SCT040 BKN080
                       BKN250=
201604192331 TAF KPAE 192331Z 2000/2024 36006KT P6SM FEW250 FM200600 02003KT
                       P6SM SKC FM202000 30005KT P6SM SCT250=
201604191723 TAF KPAE 191723Z 1918/2018 VRB04KT P6SM SCT250 FM192000 30006KT
                       P6SM FEW250 FM200600 02003KT P6SM SKC=
201604191122 TAF KPAE 191122Z 1912/2012 VRB03KT P6SM SKC FM192000 30006KT P6SM
                       SKC FM200600 02003KT P6SM SKC=
201604190520 TAF KPAE 190520Z 1906/2006 01003KT P6SM SKC FM192000 30006KT P6SM
                       SKC=
201604182320 TAF KPAE 182320Z 1900/1924 29006KT P6SM SCT250 FM190300 VRB03KT
                       P6SM FEW250 FM192000 30006KT P6SM SKC=
201604181720 TAF KPAE 181720Z 1818/1918 16003KT P6SM BKN250 FM181900 31005KT
                       P6SM SCT250 FM190300 01003KT P6SM FEW250=
201604181120 TAF KPAE 181120Z 1812/1912 00000KT P6SM SCT250 FM181900 31005KT
                       P6SM SCT250 FM190300 01003KT P6SM FEW250=
201604180520 TAF KPAE 180520Z 1806/1906 06003KT P6SM SCT250 FM181900 31005KT
                       P6SM SCT250 FM190300 01003KT P6SM FEW250=
201604172320 TAF KPAE 172320Z 1800/1824 36004KT P6SM SCT250 FM180500 VRB04KT
                       P6SM SKC FM181900 33004KT P6SM SKC=
201604171721 TAF KPAE 171721Z 1718/1818 35003KT P6SM SCT200 FM172000 35008KT
                       P6SM SCT250 FM180500 VRB04KT P6SM SKC=
201604171120 TAF KPAE 171120Z 1712/1812 01004KT P6SM SCT250 FM172000 35008KT
                       P6SM SCT250 FM180500 VRB04KT P6SM SCT250=
201604170520 TAF KPAE 170520Z 1706/1806 36005KT P6SM SCT250 FM172000 35008KT
                       P6SM SKC=
201604162320 TAF KPAE 162320Z 1700/1724 35005KT P6SM BKN200 FM170400 01004KT
                       P6SM SCT250 FM172000 35008KT P6SM SKC=
201604161745 TAF KPAE 161745Z 1618/1718 00000KT P6SM BKN250 FM162100 31006KT
                       P6SM BKN250 FM170400 01004KT P6SM SCT250=
201604161120 TAF KPAE 161120Z 1612/1712 12005KT P6SM FEW120 BKN250 FM162100
                       31006KT P6SM FEW060 SCT120 BKN250 FM170300
                       01005KT P6SM FEW120 BKN250=
201604160520 TAF KPAE 160520Z 1606/1706 13005KT P6SM SCT070 SCT120 BKN250
                      TEMPO 1606/1610 BKN070 BKN120 OVC250 FM162100
                       31006KT P6SM FEW060 SCT120 BKN250 FM170300
                       01005KT P6SM FEW120 BKN250=
201604152320 TAF KPAE 152320Z 1600/1624 20007KT P6SM SCT040 OVC060 FM160300
                       21004KT P6SM SCT060 BKN250 FM160700 16005KT
                       P6SM SCT050 BKN120 FM161100 16005KT P6SM
                       OVC050 FM162200 31005KT P6SM SCT050 BKN250=
201604151720 TAF KPAE 151720Z 1518/1618 18010KT P6SM SCT014 BKN020 OVC030 FM152000
                       23008KT P6SM BKN040 BKN200 FM160300 21004KT
                       P6SM SCT045 BKN250 FM160700 16005KT P6SM
                       SCT050 BKN120 FM161100 16005KT P6SM OVC050=
201604151501 TAF AMD KPAE 151501Z 1515/1612 16008KT P6SM SCT009 OVC015 FM151900
                       23008KT P6SM BKN040 BKN150 FM160300 21006KT
                       P6SM SCT045 BKN250 FM160700 16005KT P6SM
                       FEW050 SCT250=
201604151122 TAF KPAE 151122Z 1512/1612 19006KT P6SM BKN020 OVC035 FM151900
                       23008KT P6SM BKN040 BKN150 FM160300 21006KT
                       P6SM SCT045 BKN250 FM160700 16005KT P6SM
                       FEW050 SCT250=
201604150520 TAF KPAE 150520Z 1506/1606 VRB03KT P6SM -SHRA SCT040 BKN060 OVC250
                       FM150800 16005KT P6SM SCT060 BKN250 FM151000
                       18006KT P6SM BKN020 BKN040 FM151900 23010KT
                       P6SM SCT040=
201604142320 TAF KPAE 142320Z 1500/1524 33010KT P6SM SCT040 SCT250 FM151000
                       18006KT P6SM BKN020 BKN040 FM151900 23010KT
                       P6SM SCT040=
201604141726 TAF KPAE 141726Z 1418/1518 VRB04KT P6SM SCT040 BKN100 FM142000
                       36008KT P6SM SCT060 SCT100 BKN200 FM151000
                       18006KT P6SM BKN020 BKN060=
201604141122 TAF KPAE 141122Z 1412/1512 12006KT P6SM SCT005 BKN040
                      TEMPO 1412/1414 BKN005 OVC040 FM141400 17006KT
                       P6SM BKN060 BKN120 FM142000 34005KT P6SM
                       BKN060 BKN120 FM150500 VRB04KT P6SM SCT060
                       BKN150=
201604140902 TAF AMD KPAE 140902Z 1409/1506 22008G18KT P6SM -RA SCT015 BKN030
                       OVC045 FM141200 14005KT P6SM SCT060 BKN120
                       FM142000 34005KT P6SM BKN060 BKN120=
201604140522 TAF KPAE 140522Z 1406/1506 09004KT P6SM SCT120 BKN200 FM140900
                       11005KT P6SM -RA BKN060 OVC100 FM141200
                       04004KT P6SM SCT060 BKN120 FM142000 34005KT
                       P6SM BKN060 BKN120=
201604132324 TAF KPAE 132324Z 1400/1424 19008KT P6SM VCSH BKN050 OVC200 FM140200
                       20008KT P6SM -SHRA BKN040 OVC080 FM140900
                       19006KT P6SM VCSH BKN030 FM141800 36005KT
                       P6SM VCSH BKN030=
201604131720 TAF KPAE 131720Z 1318/1418 18012KT P6SM SCT025 SCT040 SCT250 FM132100
                       20012KT P6SM SCT040 BKN100 FM140000 18010KT
                       P6SM -SHRA BKN040 OVC080 FM140600 20005KT
                       P6SM VCSH BKN035=
201604131120 TAF KPAE 131120Z 1312/1412 18008KT P6SM VCSH SCT015 BKN050 BKN200
                       TEMPO 1312/1316 BKN012 OVC050 FM131600 15006KT
                       P6SM SCT020 BKN050 BKN120 FM140000 16014KT
                       P6SM -RA BKN040 OVC080 FM140500 20012KT
                       P6SM VCSH BKN030=
201604130714 TAF AMD KPAE 130714Z 1307/1406 15012KT P6SM VCSH BKN015 OVC050
                       TEMPO 1307/1311 SCT020 BKN050 FM131600 15006KT
                       P6SM SCT020 BKN050 BKN120 FM140000 16014KT
                       P6SM -RA BKN040 OVC080 FM140500 20012KT
                       P6SM VCSH BKN030=
201604130520 TAF KPAE 130520Z 1306/1406 15015G21KT P6SM BKN008 BKN016 OVC025
                       FM130800 18012KT P6SM VCSH OVC030
                      TEMPO 1312/1316 OVC020 FM131800 19010KT P6SM
                       VCSH BKN035=
201604122355 TAF KPAE 122355Z 1300/1324 19014G22KT 6SM -RA BR SCT012 BKN035
                       OVC050
                      TEMPO 1300/1301 3SM BR OVC025 FM130200 19013KT
                       P6SM -SHRA BKN030 FM130800 18012KT P6SM
                       VCSH OVC030
                      TEMPO 1312/1316 OVC020 FM131800 19010KT P6SM
                       VCSH BKN035=
201604122323 TAF KPAE 122323Z 1300/1324 19014G22KT 6SM -RA BR SCT012 BKN035
                       OVC050
                      TEMPO 1300/1301 3SM BR OVC025 FM130200 19013KT
                       P6SM -SHRA BKN030 FM130800 18012KT P6SM
                       VCSH OVC030
                      TEMPO 1312/1316 OVC020 FM131800 19010KT P6SM
                       VCSH BKN035=
201604122227 TAF AMD KPAE 122227Z 1222/1318 19014G22KT P6SM -RA BKN035 OVC050
                       TEMPO 1222/1224 3SM RA BR OVC035 FM130200
                       19013KT P6SM -SHRA BKN030 FM130800 18012KT
                       P6SM VCSH OVC030
                      TEMPO 1311/1315 OVC020=
201604121720 TAF KPAE 121720Z 1218/1318 17014KT P6SM SCT025 BKN035 OVC080
                      TEMPO 1218/1220 BKN025 OVC035 FM122000 18015G25KT
                       P6SM -RA OVC035 FM130200 19013KT P6SM -SHRA
                       BKN030 FM130800 18012KT P6SM VCSH OVC030
                       TEMPO 1311/1315 OVC020=
201604121610 TAF AMD KPAE 121610Z 1216/1312 17014KT P6SM SCT025 OVC060
                      TEMPO 1216/1218 BKN025 FM121900 18014G22KT
                       P6SM -RA OVC040 FM130200 22012KT P6SM -SHRA
                       BKN030 FM130800 18008KT P6SM VCSH OVC030=
201604121120 TAF KPAE 121120Z 1212/1312 17010KT P6SM SCT030 BKN050 OVC120 FM121900
                       18012KT P6SM -RA OVC040 FM130200 22012KT
                       P6SM -SHRA BKN030 FM130800 18008KT P6SM
                       VCSH OVC030=
201604120520 TAF KPAE 120520Z 1206/1306 VRB03KT P6SM BKN050 FM121200 16008KT
                       P6SM OVC040 FM121800 18012KT P6SM -RA OVC030
                       FM130000 22012KT P6SM -SHRA BKN030=
201604112320 TAF KPAE 112320Z 1200/1224 25008KT P6SM SCT025 OVC040 FM120700
                       18006KT P6SM OVC025 FM120900 17008KT P6SM
                       OVC018 FM121400 16013G20KT P6SM OVC025 FM121600
                       17015G25KT P6SM -RA OVC030 FM122200 19015G25KT
                       P6SM -SHRA BKN030 BKN045=
201604111920 TAF AMD KPAE 111920Z 1119/1218 24007KT P6SM SCT025 OVC035 FM112100
                       26008KT P6SM OVC040 FM120700 18006KT P6SM
                       OVC025 FM120900 17008KT P6SM OVC018 FM121300
                       17014G22KT P6SM OVC022=
201604111731 TAF KPAE 111731Z 1118/1218 20007KT P6SM BKN022 OVC035 FM112000
                       21008KT P6SM OVC040 FM120700 18006KT P6SM
                       OVC025 FM120900 17008KT P6SM OVC018 FM121300
                       17014G22KT P6SM OVC022=
201604111621 TAF AMD KPAE 111621Z 1116/1212 19007KT P6SM OVC018 FM111700 20007KT
                       P6SM OVC022 FM112000 22008KT P6SM OVC040
                       FM120600 18006KT P6SM OVC025 FM120900 17005KT
                       P6SM OVC018=
201604111120 TAF KPAE 111120Z 1112/1212 19008KT P6SM OVC035 FM112000 22008KT
                       P6SM BKN040 FM120600 18010KT P6SM OVC030=
201604110520 TAF KPAE 110520Z 1106/1206 19008KT P6SM OVC040 FM110900 19008KT
                       P6SM OVC035 FM111200 19008KT P6SM OVC025
                       FM112000 22008KT P6SM BKN040=
201604102334 TAF KPAE 102334Z 1100/1124 24010KT P6SM SCT035 FM110200 VRB05KT
                       P6SM SCT035 FM110900 15007KT P6SM OVC022
                       FM111200 17010KT 5SM BR OVC012 FM111800
                       22010KT P6SM OVC025 FM112100 24007KT P6SM
                       BKN040=
201604102114 TAF AMD KPAE 102114Z 1021/1118 26006KT P6SM BKN035 FM110200 VRB05KT
                       P6SM SCT035 FM110900 15007KT P6SM OVC022
                       FM111200 17010KT P6SM OVC010
                      PROB30 1112/1118 4SM -DZ BR OVC006=
201604101738 TAF KPAE 101738Z 1018/1118 19009KT P6SM SCT022 BKN035
                      TEMPO 1018/1020 BKN022 OVC035 FM102100 22009KT
                       P6SM BKN035 FM110200 VRB05KT P6SM SCT035
                       FM110900 15007KT P6SM OVC022 FM111200 17010KT
                       P6SM OVC010
                      PROB30 1112/1118 4SM -DZ BR OVC006=
201604101629 TAF AMD KPAE 101629Z 1016/1112 21011KT P6SM OVC025 FM102000 24007KT
                       P6SM SCT035 FM110600 18007KT P6SM BKN030=
201604101417 TAF AMD KPAE 101417Z 1014/1112 20009KT P6SM OVC018 FM102000 22009KT
                       P6SM SCT025 FM102200 24006KT P6SM SCT035
                       FM110600 18007KT P6SM BKN030=
201604101120 TAF KPAE 101120Z 1012/1112 18010KT P6SM SCT020 BKN040
                      TEMPO 1012/1016 BKN020 OVC040 FM102100 22007KT
                       P6SM SCT040 FM110600 18007KT P6SM BKN030=
201604100901 KPAE 100901Z 1009/1106 18007KT P6SM SCT006 SCT040
                      TEMPO 1009/1012 3SM BR BKN006 BKN040 FM101200
                       18007KT P6SM BKN010 BKN040
                      TEMPO 1012/1016 3SM BR BKN010 OVC040 FM101800
                       22007KT P6SM SCT020 BKN040 FM102100 22007KT
                       P6SM SCT040=
201604100520 TAF KPAE 100520Z 1006/1106 02005KT P6SM SKC FM100900 VRB03KT 2SM
                       BR SKC FM101200 17006KT 1/4SM FG VV001 FM101800
                       21009KT 3SM BR BKN004 FM101900 24005KT P6SM
                       SCT250=
201604092320 TAF KPAE 092320Z 1000/1024 28005KT P6SM SKC FM100200 VRB03KT P6SM
                       SKC FM100900 VRB03KT 2SM BR SKC FM101200
                       17006KT 1/4SM FG VV001 FM101800 21009KT
                       3SM BR BKN004 FM101900 24005KT P6SM SCT250=
201604092102 TAF AMD KPAE 092102Z 0921/1018 29005KT P6SM SKC FM100200 VRB03KT
                       P6SM SKC FM100900 VRB03KT 2SM BR SKC FM101200
                       17005KT 1/4SM FG VV001=
201604091742 TAF KPAE 091742Z 0918/1018 35005KT P6SM VCFG FEW005 FM091900 32005KT
                       P6SM SKC FM100200 VRB03KT P6SM SKC FM100900
                       VRB03KT 2SM BR SKC FM101200 17005KT 1/4SM
                       FG VV001=
201604091426 TAF AMD KPAE 091426Z 0914/1012 VRB03KT P6SM VCFG SCT001
                      TEMPO 0914/0916 1/2SM FG VV001 FM091700 VRB03KT
                       P6SM VCFG SKC FM091800 31005KT P6SM SKC
                       FM100200 VRB03KT P6SM SKC=
201604091258 TAF AMD KPAE 091258Z 0913/1012 34003KT 1/4SM FG VV001 FM091500
                       34003KT P6SM SKC FM091800 31006KT P6SM SKC=
201604091120 TAF KPAE 091120Z 0912/1012 34003KT P6SM SKC FM091800 31006KT P6SM
                       SKC=
201604090520 TAF KPAE 090520Z 0906/1006 35012KT P6SM BKN250 FM090900 36008KT
                       P6SM BKN250 FM091200 36006KT P6SM SCT010
                       SCT250 FM091800 31006KT P6SM SKC=
201604090303 TAF AMD KPAE 090303Z 0903/0924 36014G20KT P6SM BKN250 FM090500
                       36010KT P6SM BKN250 FM091200 VRB03KT P6SM
                       SCT005
                      TEMPO 0912/0916 3SM BR BKN005 FM091800 32005KT
                       P6SM SKC=
201604082342 TAF KPAE 082342Z 0900/0924 36008KT P6SM BKN250 FM090200 01005KT
                       P6SM BKN250 FM091200 VRB03KT P6SM VCFG SCT004
                       TEMPO 0912/0916 2SM BR BKN004 FM091800 32005KT
                       P6SM SKC=
201604082107 KPAE 082107Z 0821/0918 35008KT P6SM BKN250 FM090200 01006KT P6SM
                       BKN250 FM091200 01004KT P6SM VCFG SCT004
                       SCT250
                      TEMPO 0913/0917 2SM BR BKN004 BKN250=
201604081730 TAF KPAE 081730Z 0818/0918 33008KT P6SM BKN250 FM090200 01006KT
                       P6SM BKN250 FM091200 01004KT P6SM VCFG SCT004
                       SCT250
                      TEMPO 0913/0917 2SM BR BKN004 BKN250=
201604081509 TAF AMD KPAE 081509Z 0815/0912 VRB03KT P6SM BKN250 FM081800 33006KT
                       P6SM SCT250 FM090500 36004KT P6SM SKC=
201604081120 TAF KPAE 081120Z 0812/0912 VRB03KT P6SM SKC FM081800 29006KT P6SM
                       SKC FM090500 36004KT P6SM SKC=
201604080520 TAF KPAE 080520Z 0806/0906 01004KT P6SM SKC FM080700 06005KT P6SM
                       SCT250 FM080900 12003KT P6SM SKC FM081800
                       29006KT P6SM SKC=
201604072335 TAF KPAE 072335Z 0800/0824 01004KT P6SM SKC FM080500 06005KT P6SM
                       SCT250 FM080900 12003KT P6SM SKC FM081800
                       29006KT P6SM SKC=
201604071735 TAF KPAE 071735Z 0718/0818 36008KT P6SM SKC FM080500 06005KT P6SM
                       SCT250=
201604071120 TAF KPAE 071120Z 0712/0812 36006KT P6SM SCT250 FM080500 06005KT
                       P6SM SCT250=
201604070520 TAF KPAE 070520Z 0706/0806 36006KT P6SM SCT250=
201604062332 TAF KPAE 062332Z 0700/0724 36006KT P6SM SCT250=
201604061728 TAF KPAE 061728Z 0618/0718 21003KT P6SM SCT070 SCT250 FM062000
                       28006KT P6SM SCT250 FM070000 01005KT P6SM
                       SCT250=
201604061120 TAF KPAE 061120Z 0612/0712 15009KT P6SM SCT080 SCT200 FM061900
                       35005KT P6SM FEW250 FM070600 02005KT P6SM
                       SCT250=
201604060520 TAF KPAE 060520Z 0606/0706 15009KT P6SM SCT080 SCT200 FM061200
                       16006KT P6SM SCT250 FM061900 35005KT P6SM
                       FEW250=
201604052328 TAF KPAE 052328Z 0600/0624 17010KT P6SM BKN027 OVC035 FM060200
                       17009KT P6SM SCT035 BKN080 BKN200 FM061200
                       16006KT P6SM BKN250 FM061900 01005KT P6SM
                       FEW250=
201604052200 TAF AMD KPAE 052200Z 0522/0618 18011KT P6SM SCT027 BKN035 OVC080
                       FM060600 15008KT P6SM SCT080=
201604052101 TAF AMD KPAE 052101Z 0521/0618 15011KT P6SM BKN026 OVC035 FM060600
                       15008KT P6SM SCT080=
201604051724 TAF KPAE 051724Z 0518/0618 16008KT P6SM FEW014 BKN080 OVC100 FM052100
                       18010KT P6SM SCT035 BKN080 FM060600 15008KT
                       P6SM SCT080=
201604051134 TAF KPAE 051134Z 0512/0612 15008KT P6SM SCT030 OVC120 FM051500
                       15008KT P6SM SCT030 BKN045 OVC120 FM052100
                       15008KT P6SM SCT035 BKN050 FM060600 11006KT
                       P6SM SCT060=
201604050539 TAF KPAE 050539Z 0506/0606 VRB03KT P6SM BKN025 OVC035
                      TEMPO 0506/0510 5SM -SHRA FM051600 18008KT
                       P6SM SCT025 OVC035 FM052100 18008KT P6SM
                       SCT035 BKN050=
201604042333 TAF KPAE 042333Z 0500/0524 35005KT P6SM VCSH BKN035 OVC045 FM050600
                       06008KT P6SM SCT025 OVC045 FM050900 16009KT
                       P6SM BKN025 OVC040 FM051000 15007KT P6SM
                       OVC025 FM051300 18008KT P6SM OVC035=
201604041724 TAF KPAE 041724Z 0418/0518 20010KT P6SM VCSH BKN018 OVC022 FM042200
                       23012KT P6SM VCSH OVC020 FM050000 30013G20KT
                       P6SM VCSH OVC020 FM050400 35009KT P6SM SCT020
                       OVC040 FM050800 18008KT P6SM OVC015=
201604041142 TAF KPAE 041142Z 0412/0512 18016G24KT P6SM -SHRA SCT025 BKN040
                       BKN060 FM041500 18016G24KT P6SM -SHRA BKN012
                       OVC020 FM041800 18014KT P6SM -SHRA SCT015
                       BKN025 OVC035 FM050000 31006KT P6SM VCSH
                       SCT023 BKN035 BKN050=
201604040538 TAF KPAE 040538Z 0406/0506 21016G24KT P6SM -RA OVC035 FM040800
                       21016G24KT P6SM -RA SCT008 OVC016
                      TEMPO 0412/0415 4SM RA BR BKN008 OVC016 FM041500
                       19020G30KT P6SM -SHRA BKN012 OVC020 FM041800
                       19015G25KT P6SM -SHRA SCT015 BKN025 OVC035
                       FM042200 31006KT P6SM VCSH SCT023 BKN035
                       BKN050=
201604032325 TAF KPAE 032325Z 0400/0424 23007KT P6SM SCT130 BKN220 FM040400
                       18012KT P6SM BKN035 OVC070 FM040700 17016G24KT
                       P6SM -RA SCT008 OVC016
                      TEMPO 0412/0415 4SM RA BR BKN008 OVC013 FM041500
                       19020G30KT P6SM -SHRA BKN012 OVC020 FM041800
                       19015G25KT P6SM -SHRA SCT015 BKN025 OVC035
                       FM042200 31006KT P6SM VCSH SCT023 BKN035
                       BKN050=
201604031720 TAF KPAE 031720Z 0318/0418 24005KT P6SM SCT090 BKN210 FM040400
                       18012KT P6SM BKN035 OVC070 FM040700 17016G24KT
                       P6SM -RA SCT008 OVC016
                      TEMPO 0412/0415 4SM RA BR BKN008 OVC013 FM041500
                       19020G30KT P6SM -SHRA BKN012 OVC020=
201604031132 TAF KPAE 031132Z 0312/0412 VRB03KT P6SM SCT200 FM032000 18008KT
                       P6SM SCT120 BKN200 FM040200 18008KT P6SM
                       BKN050 OVC080 FM040500 16010KT P6SM -RA
                       SCT012 OVC022 FM040800 18014KT 5SM -RA BKN011
                       OVC020=
201604030540 TAF KPAE 030540Z 0306/0406 VRB03KT P6SM SCT200 FM032000 18008KT
                       P6SM SCT070 BKN200 FM040200 18008KT P6SM
                       BKN050 OVC080 FM040500 16010KT P6SM -RA
                       SCT012 OVC022=
201604022330 TAF KPAE 022330Z 0300/0324 30005KT P6SM FEW005 FM031000 12004KT
                       P6SM SCT008 BKN018 FM031600 18004KT P6SM
                       SCT070 BKN150=
201604021734 TAF KPAE 021734Z 0218/0318 20006KT P6SM OVC008 FM022000 23004KT
                       P6SM BKN014 FM022200 24004KT P6SM SCT025
                       FM030000 30005KT P6SM SCT120 FM031000 12004KT
                       6SM BR SCT004 FM031700 16004KT P6SM SCT150
                       BKN200=
201604021514 TAF AMD KPAE 021514Z 0215/0312 21005KT 3SM BR OVC004 FM021800 VRB03KT
                       P6SM BKN006 FM022000 26005KT P6SM SCT250=
201604021230 TAF AMD KPAE 021230Z 0213/0312 VRB03KT P6SM SCT004
                      TEMPO 0213/0214 BKN004 FM021400 VRB03KT P6SM
                       OVC004 FM021700 VRB03KT P6SM SCT006 FM021900
                       31006KT P6SM SCT250=
201604021130 TAF KPAE 021130Z 0212/0312 VRB03KT P6SM SCT004 FM021400 VRB03KT
                       P6SM BKN004 FM021700 VRB03KT P6SM SCT006
                       FM021900 31006KT P6SM SCT250=
201604020538 TAF KPAE 020538Z 0206/0306 34005KT P6SM SKC FM021400 18006KT P6SM
                       SCT005 FM021800 31006KT P6SM SCT025=
201604012320 TAF KPAE 012320Z 0200/0224 34005KT P6SM SKC FM021300 19006KT P6SM
                       OVC005 FM021800 20009KT P6SM BKN011 FM022000
                       22009KT P6SM SCT025=
201604011720 TAF KPAE 011720Z 0118/0218 VRB04KT P6SM SKC FM021300 18006KT P6SM
                       BKN006=
201604011136 TAF KPAE 011136Z 0112/0212 VRB03KT P6SM FEW250 FM011500 23006KT
                       P6SM FEW250=
201604010536 TAF KPAE 010536Z 0106/0206 01004KT P6SM FEW250 FM011300 VRB03KT
                       P6SM VCFG FEW250 FM011500 23006KT P6SM FEW250=